name,main_category,address,address_ward,address_street,address_city,address_postal_code,address_state,address_country_code,link,coordinates
Kiratpur Minar Masjid,Religious destination,"G654+X44 Kiratpur Minar Masjid, Mohalla- Ansariyan, Kiratpur, Uttar Pradesh 246731",,"G654+X44, Mohalla- Ansariyan","Kiratpur, Mohammad Asgarpur",246731,Uttar Pradesh,IN,https://www.google.com/maps/place/Kiratpur+Minar+Masjid/data=!4m7!3m6!1s0x390be420a83bf95f:0x7b611a24c45522f4!8m2!3d29.5110023!4d78.2018961!16s%2Fg%2F11c38f8b3r!19sChIJX_k7qCDkCzkR9CJVxCQaYXs?authuser=0&hl=en&rclk=1,"29.511002299999998,78.2018961"
Walipura Masjid,Religious destination,"Walipura Masjid, Mohalla walipura, Kiratpur, Uttar Pradesh 246731",,Mohalla walipura,Kiratpur,246731,Uttar Pradesh,IN,https://www.google.com/maps/place/Walipura+Masjid/data=!4m7!3m6!1s0x390be429ecb0ddd3:0x6a0990ca8803d0ff!8m2!3d29.4999283!4d78.2010452!16s%2Fg%2F11c1tr5npy!19sChIJ092w7CnkCzkR_9ADiMqQCWo?authuser=0&hl=en&rclk=1,"29.499928299999997,78.2010452"
"Lal Masjid, Kiratpur",Mosque,"G643+WQ8 Lal Masjid, Kiratpur, Kiratpur, Uttar Pradesh 246731",,G643+WQ8,Kiratpur,246731,Uttar Pradesh,IN,"https://www.google.com/maps/place/Lal+Masjid,+Kiratpur/data=!4m7!3m6!1s0x390be69d04783305:0xc932625a60014e5e!8m2!3d29.5072873!4d78.2044464!16s%2Fg%2F11cs5nfgqf!19sChIJBTN4BJ3mCzkRXk4BYFpiMsk?authuser=0&hl=en&rclk=1","29.507287299999998,78.2044464"
Masjid Bagban,Mosque,"Masjid Bagban, Mohalla Bagban, Kiratpur, Uttar Pradesh 246731",,Mohalla Bagban,Kiratpur,246731,Uttar Pradesh,IN,https://www.google.com/maps/place/Masjid+Bagban/data=!4m7!3m6!1s0x390be596875333a9:0xe7fc35c70bab8017!8m2!3d29.5064628!4d78.2011975!16s%2Fg%2F11mw6r_pc_!19sChIJqTNTh5blCzkRF4CrC8c1_Oc?authuser=0&hl=en&rclk=1,"29.506462799999998,78.20119749999999"
Masjid Jino Wali,Mosque,"F4PG+3WQ Masjid Jino Wali, Kiratpur MandaWar Rd, Mandawar, Uttar Pradesh 246721",,"F4PG+3WQ, Kiratpur MandaWar Rd",Mandawar,246721,Uttar Pradesh,IN,https://www.google.com/maps/place/Masjid+Jino+Wali/data=!4m7!3m6!1s0x390be52748506561:0xe268997edec42cb2!8m2!3d29.4852021!4d78.12736!16s%2Fg%2F11g8x31zk_!19sChIJYWVQSCflCzkRsizE3n6ZaOI?authuser=0&hl=en&rclk=1,"29.4852021,78.12736"
Markaz Masjid sabzi mandi Bada Phatak Qaziyan,Home Stay,"G643+59C Markaz Masjid sabzi mandi Bada Phatak Qaziyan, Kiratpur Nagina Rd, Kiratpur, Uttar Pradesh 246731",,"G643+59C, Kiratpur Nagina Rd",Kiratpur,246731,Uttar Pradesh,IN,https://www.google.com/maps/place/Markaz+Masjid+sabzi+mandi+Bada+Phatak+Qaziyan/data=!4m7!3m6!1s0x390be69d4792cd2d:0x9e7119163d1905ea!8m2!3d29.5054478!4d78.2033808!16s%2Fg%2F11c60mvlqk!19sChIJLc2SR53mCzkR6gUZPRYZcZ4?authuser=0&hl=en&rclk=1,"29.5054478,78.20338079999999"
Masjid Chardiwari,Mosque,"G52W+R22 Masjid Chardiwari, Dargopur, Uttar Pradesh 246731",,G52W+R22,Dargopur,246731,Uttar Pradesh,IN,https://www.google.com/maps/place/Masjid+Chardiwari/data=!4m7!3m6!1s0x390be42f3d6f3615:0xa07174693a008349!8m2!3d29.5020171!4d78.1950247!16s%2Fg%2F11by_kq9h8!19sChIJFTZvPS_kCzkRSYMAOml0caA?authuser=0&hl=en&rclk=1,"29.5020171,78.19502469999999"
Basi Kiratpur,Mosque,"G55X+X93 Basi Kiratpur, Mohalla wali pura, Kiratpur, Mohammad Asgarpur, Uttar Pradesh 246731",Mohalla wali pura,G55X+X93,"Kiratpur, Mohammad Asgarpur",,Uttar Pradesh,IN,https://www.google.com/maps/place/Basi+Kiratpur/data=!4m7!3m6!1s0x390be58689791ec1:0xb9e6c79d524e0279!8m2!3d29.5098866!4d78.1984074!16s%2Fg%2F11rv1k15fd!19sChIJwR55iYblCzkReQJOUp3H5rk?authuser=0&hl=en&rclk=1,"29.509886599999998,78.1984074"
Takiya wali Masjid,Mosque,"F5WX+VRG Takiya wali Masjid, Itwar Bazar, Kiratpur, Uttar Pradesh 246731",Itwar Bazar,F5WX+VRG,Kiratpur,,Uttar Pradesh,IN,https://www.google.com/maps/place/Takiya+wali+Masjid/data=!4m7!3m6!1s0x390be56bffa09337:0x8781dda743bc67fe!8m2!3d29.4971951!4d78.1995933!16s%2Fg%2F11g0j4wtpd!19sChIJN5Og_2vlCzkR_me8Q6fdgYc?authuser=0&hl=en&rclk=1,"29.4971951,78.19959329999999"
Annoor Mosque,Mosque,"Annoor Mosque, near sabzi Mandi, Mughlan, Kiratpur, Uttar Pradesh 246731",Mughlan,near sabzi Mandi,Kiratpur,246731,Uttar Pradesh,IN,https://www.google.com/maps/place/Annoor+Mosque/data=!4m7!3m6!1s0x390be553e66e6c37:0xb7a94ca882d2de7e!8m2!3d29.5009628!4d78.2016851!16s%2Fg%2F11gnpk0b08!19sChIJN2xu5lPlCzkRft7SgqhMqbc?authuser=0&hl=en&rclk=1,"29.5009628,78.20168509999999"
Sabri Masjid,Mosque,"G646+38J Sabri Masjid, Khanpur Sharfuddin Husain, Uttar Pradesh 246731",,G646+38J,Khanpur Sharfuddin Husain,246731,Uttar Pradesh,IN,https://www.google.com/maps/place/Sabri+Masjid/data=!4m7!3m6!1s0x390be71ac5298315:0x577e1f5c38e6df9c!8m2!3d29.505201!4d78.2107658!16s%2Fg%2F11g22xc09m!19sChIJFYMpxRrnCzkRnN_mOFwfflc?authuser=0&hl=en&rclk=1,"29.505201,78.21076579999999"
Qila Masjid Sharif,Mosque,"G644+VW2 Qila Masjid Sharif, Ramkairi, Kiratpur, Uttar Pradesh 246731",,G644+VW2,"Ramkairi, Kiratpur",246731,Uttar Pradesh,IN,https://www.google.com/maps/place/Qila+Masjid+Sharif/data=!4m7!3m6!1s0x390be69c9b6c245d:0x8b5c81e4c7b13fdb!8m2!3d29.507125!4d78.2072688!16s%2Fg%2F11fy_2c93c!19sChIJXSRsm5zmCzkR2z-xx-SBXIs?authuser=0&hl=en&rclk=1,"29.507125,78.2072688"
College Mosque,Mosque,"F6W2+PW3 College Mosque, Kiratpur, Uttar Pradesh 246731",,F6W2+PW3,Kiratpur,246731,Uttar Pradesh,IN,https://www.google.com/maps/place/College+Mosque/data=!4m7!3m6!1s0x390be681d0ba0d55:0x3814e65e40b56bd4!8m2!3d29.4967728!4d78.2022882!16s%2Fg%2F11gbk48smq!19sChIJVQ260IHmCzkR1Gu1QF7mFDg?authuser=0&hl=en&rclk=1,"29.4967728,78.2022882"
Masjid Mirzapura,Mosque,"G52X+66C Masjid Mirzapura, Kiratpur, Taqarubpur Israj Kheri, Uttar Pradesh 246731",,G52X+66C,"Kiratpur, Taqarubpur Israj Kheri",246731,Uttar Pradesh,IN,https://www.google.com/maps/place/Masjid+Mirzapura/data=!4m7!3m6!1s0x390be578ca2c5369:0xa0a84335b5c31ac7!8m2!3d29.5005682!4d78.1980066!16s%2Fg%2F11h0y8s37z!19sChIJaVMsynjlCzkRxxrDtTVDqKA?authuser=0&hl=en&rclk=1,"29.5005682,78.1980066"
Basi kiratpur,Tourist attraction,"G623+V7Q Basi kiratpur, NH 34, Kiratpur, Uttar Pradesh 246731",,"G623+V7Q, NH 34",Kiratpur,246731,Uttar Pradesh,IN,https://www.google.com/maps/place/Basi+kiratpur/data=!4m7!3m6!1s0x390be7b29232ed47:0xc73b85eec94ec548!8m2!3d29.5022206!4d78.2032468!16s%2Fg%2F11rn7cxczf!19sChIJR-0ykrLnCzkRSMVOye6FO8c?authuser=0&hl=en&rclk=1,"29.502220599999998,78.2032468"
Sharif Mosque,Mosque,"F6X3+J4G Sharif Mosque, Kiratpur, Uttar Pradesh 246731",,F6X3+J4G,Kiratpur,246731,Uttar Pradesh,IN,https://www.google.com/maps/place/Sharif+Mosque/data=!4m7!3m6!1s0x390be6821d407961:0xe9dd478f57521e9d!8m2!3d29.4990703!4d78.2028307!16s%2Fg%2F11gbkssts3!19sChIJYXlAHYLmCzkRnR5SV49H3ek?authuser=0&hl=en&rclk=1,"29.4990703,78.20283069999999"
Qabristaan Masjid,Mosque,"G623+Q54 Qabristaan Masjid, Kiratpur, Uttar Pradesh 246731",,G623+Q54,Kiratpur,246731,Uttar Pradesh,IN,https://www.google.com/maps/place/Qabristaan+Masjid/data=!4m7!3m6!1s0x390be68289cfd87b:0x176d941fd8f2170d!8m2!3d29.5018976!4d78.2029658!16s%2Fg%2F11gbktsc_0!19sChIJe9jPiYLmCzkRDRfy2B-UbRc?authuser=0&hl=en&rclk=1,"29.5018976,78.2029658"
masjid kiratpur more,School,"F4QJ+RW4 masjid kiratpur more, Kiratpur MandaWar Rd, Mandawar, Abdul Khairpur Bangar, Uttar Pradesh 246721",,"F4QJ+RW4, Kiratpur MandaWar Rd","Mandawar, Abdul Khairpur Bangar",246721,Uttar Pradesh,IN,https://www.google.com/maps/place/masjid+kiratpur+more/data=!4m7!3m6!1s0x390be4dfcb2c11f7:0xa22af5b56c5b1dc!8m2!3d29.4895226!4d78.1323302!16s%2Fg%2F11c52sscgx!19sChIJ9xEsy9_kCzkR3LHFVluvIgo?authuser=0&hl=en&rclk=1,"29.489522599999997,78.1323302"
Masjid Sharif,Religious destination,"G645+59P Masjid Sharif, Ramkairi, Kiratpur, Uttar Pradesh 246731",,G645+59P,"Ramkairi, Kiratpur",246731,Uttar Pradesh,IN,https://www.google.com/maps/place/Masjid+Sharif/data=!4m7!3m6!1s0x390be74c358696d9:0xf3388f5d6cdda6af!8m2!3d29.5054643!4d78.2084503!16s%2Fg%2F11gjxkj1fx!19sChIJ2ZaGNUznCzkRr6bdbF2POPM?authuser=0&hl=en&rclk=1,"29.5054643,78.2084503"
Chandi Wala Masjii,Mosque,"G53W+3W5 Chandi Wala Masjii, Kiratpur MandaWar Rd, Kiratpur, Dargopur, Uttar Pradesh 246731",,"G53W+3W5, Kiratpur MandaWar Rd","Kiratpur, Dargopur",246731,Uttar Pradesh,IN,https://www.google.com/maps/place/Chandi+Wala+Masjii/data=!4m7!3m6!1s0x390be57a89fcc90f:0x87db591f061a2b!8m2!3d29.502632!4d78.197352!16s%2Fg%2F11rc9ww78q!19sChIJD8n8iXrlCzkRKxoGH1nbhwA?authuser=0&hl=en&rclk=1,"29.502632,78.197352"
Makka masjid kiratpur,Mosque,"F6X5+Q39 Makka masjid kiratpur, Kiratpur, Uttar Pradesh 246731",,F6X5+Q39,Kiratpur,,Uttar Pradesh,IN,https://www.google.com/maps/place/Makka+masjid+kiratpur/data=!4m7!3m6!1s0x390be769fccfe0ad:0xd57c6df28ce63c5f!8m2!3d29.4994214!4d78.2077368!16s%2Fg%2F11s7_9bmjw!19sChIJreDP_GnnCzkRXzzmjPJtfNU?authuser=0&hl=en&rclk=1,"29.4994214,78.20773679999999"
Ansariyan mosque,Mosque,"G663+574 Ansariyan mosque, Kiratpur, Uttar Pradesh 246731",,G663+574,Kiratpur,246731,Uttar Pradesh,IN,https://www.google.com/maps/place/Ansariyan+mosque/data=!4m7!3m6!1s0x390be73a88f8fd39:0x9c8935fb9d5e4fca!8m2!3d29.5103998!4d78.2032139!16s%2Fg%2F11l2k5wbgj!19sChIJOf34iDrnCzkRyk9enfs1iZw?authuser=0&hl=en&rclk=1,"29.5103998,78.2032139"
Kotla wali masjid,Mosque,"Kotla wali masjid, 48, Bijnor - Najibabad Rd, Kiratpur, Uttar Pradesh 246731",,"48, Bijnor - Najibabad Rd",Kiratpur,246731,Uttar Pradesh,IN,https://www.google.com/maps/place/Kotla+wali+masjid/data=!4m7!3m6!1s0x390be5843b13561b:0x35669fa9790cf6b1!8m2!3d29.4966149!4d78.1998662!16s%2Fg%2F11vfbbkms7!19sChIJG1YTO4TlCzkRsfYMeamfZjU?authuser=0&hl=en&rclk=1,"29.496614899999997,78.1998662"
Nurani masjid,Mosque,"CC79+GW8 Nurani masjid, Kiratpur, Uttar Pradesh 246762",,CC79+GW8,Kiratpur,246762,Uttar Pradesh,IN,https://www.google.com/maps/place/Nurani+masjid/data=!4m7!3m6!1s0x390bc54436c036a7:0xa655ba41e5fbfe3!8m2!3d29.4137751!4d78.4198228!16s%2Fg%2F11v4m8lgn8!19sChIJpzbANkTFCzkR479fHqRbZQo?authuser=0&hl=en&rclk=1,"29.4137751,78.41982279999999"
Farid ahmad,Mosque,"G643+H8X Farid ahmad, Kiratpur, Uttar Pradesh 246731",,G643+H8X,Kiratpur,246731,Uttar Pradesh,IN,https://www.google.com/maps/place/Farid+ahmad/data=!4m7!3m6!1s0x390be7f30b6dddaf:0xedbce8a719a8418f!8m2!3d29.5064883!4d78.2033629!16s%2Fg%2F11tgc_566z!19sChIJr91tC_PnCzkRj0GoGafovO0?authuser=0&hl=en&rclk=1,"29.506488299999997,78.2033629"
Railway masjid,Mosque,"F6X5+Q39 Railway masjid, Kiratpur, Uttar Pradesh 246731",,F6X5+Q39,Kiratpur,,Uttar Pradesh,IN,https://www.google.com/maps/place/Railway+masjid/data=!4m7!3m6!1s0x390be7b4e2243555:0xfdad111a338f5717!8m2!3d29.4994214!4d78.2077368!16s%2Fg%2F11tnvvfk18!19sChIJVTUk4rTnCzkRF1ePMxoRrf0?authuser=0&hl=en&rclk=1,"29.4994214,78.20773679999999"
rHmnyh mjd mmtz mHl wl rahmaniyamasjiuntaz Mahal wala,Mosque,"G655+JFG rHmnyh mjd mmtz mHl wl rahmaniyamasjiuntaz Mahal wala, Budhlada, Kiratpur, Uttar Pradesh 246731",,"G655+JFG, Budhlada",Kiratpur,246731,Uttar Pradesh,IN,https://www.google.com/maps/place/%D8%B1%D8%AD%D9%85%D8%A7%D9%86%DB%8C%DB%81+%D9%85%D8%AC%D8%AF+%D9%85%D9%85%D8%AA%D8%A7%D8%B2+%D9%85%D8%AD%D9%84+%D9%88%D8%A7%D9%84%D8%A7+rahmaniyamasjiuntaz+Mahal+wala%E2%80%AD/data=!4m7!3m6!1s0x390be72477341c7b:0x153a2f2a6e3e1670!8m2!3d29.5090632!4d78.2087141!16s%2Fg%2F11rj4mkrbf!19sChIJexw0dyTnCzkRcBY-biovOhU?authuser=0&hl=en&rclk=1,"29.5090632,78.2087141"
