name,main_category,address,address_ward,address_street,address_city,address_postal_code,address_state,address_country_code,link,coordinates
Musafir Khana Masjid,Mosque,"Musafir Khana Masjid, H1/114, Rajasthan State Highway 16, Rampura Colony, Jalore, Rajasthan 343001",Rampura Colony,"H1/114, Rajasthan State Highway 16, Rampura Colony",Jalore,343001,Rajasthan,IN,https://www.google.com/maps/place/Musafir+Khana+Masjid/data=!4m7!3m6!1s0x3943074d227008ff:0x900a744848777993!8m2!3d25.3530529!4d72.6136811!16s%2Fg%2F11cjp9v4xc!19sChIJ_whwIk0HQzkRk3l3SEh0CpA?authuser=0&hl=en&rclk=1,"25.353052899999998,72.6136811"
Fort Mosque msjd Shahi masjid,Mosque,"8JQ7+5P9 Fort Mosque msjd Shahi masjid, Jalore, Rajasthan 343001",,8JQ7+5P9,Jalore,343001,Rajasthan,IN,https://www.google.com/maps/place/Fort+Mosque+%D9%85%D8%B3%D8%AC%D8%AF+Shahi+masjid%E2%80%AD/data=!4m7!3m6!1s0x394307335a041877:0x415571ecd7dbdc83!8m2!3d25.3379215!4d72.6143522!16s%2Fg%2F1td11nkr!19sChIJdxgEWjMHQzkRg9zb1-xxVUE?authuser=0&hl=en&rclk=1,"25.3379215,72.6143522"
jama masjid,Mosque,"8JW9+2P6 jama masjid, Ghanchiyo Ki Pilani, Bhawrani, Jalore, Rajasthan 343001","Ghanchiyo Ki Pilani, Bhawrani",8JW9+2P6,Jalore,343001,Rajasthan,IN,https://www.google.com/maps/place/jama+masjid/data=!4m7!3m6!1s0x394300b58c0e74cf:0x9515ea27470d2932!8m2!3d25.3450323!4d72.6192507!16s%2Fg%2F11c5xrjsn4!19sChIJz3QOjLUAQzkRMikNRyfqFZU?authuser=0&hl=en&rclk=1,"25.3450323,72.6192507"
Jheetredi masjid,Mosque,"C2XH+7Q3 Jheetredi masjid, Jheetredi, Semla Khurd, Rajasthan 321205",,C2XH+7Q3,"Jheetredi, Semla Khurd",321205,Rajasthan,IN,https://www.google.com/maps/place/Jheetredi+masjid/data=!4m7!3m6!1s0x3972fba9358c85bd:0x28fbfccf66b9580b!8m2!3d27.4481294!4d77.0294264!16s%2Fg%2F11lsw7cgcc!19sChIJvYWMNan7cjkRC1i5Zs_8-yg?authuser=0&hl=en&rclk=1,"27.4481294,77.02942639999999"
Mosque,Mosque,"JXXW+C38 Mosque, Jotri Peepal, Rajasthan 321204",,JXXW+C38,Jotri Peepal,321204,Rajasthan,IN,https://www.google.com/maps/place/Mosque/data=!4m7!3m6!1s0x3972e9c48300d1f5:0x29ec5252158071ac!8m2!3d27.6485392!4d76.995203!16s%2Fg%2F11n019br3n!19sChIJ9dEAg8TpcjkRrHGAFVJS7Ck?authuser=0&hl=en&rclk=1,"27.6485392,76.995203"
Silawato Ki Masjid,Mosque,"8JV8+HPC Silawato Ki Masjid, Doodsi, Bhawrani, Jalore, Rajasthan 343001","Doodsi, Bhawrani",8JV8+HPC,Jalore,343001,Rajasthan,IN,https://www.google.com/maps/place/Silawato+Ki+Masjid/data=!4m7!3m6!1s0x394300ca98d7cdfb:0xec711feee77e080d!8m2!3d25.3439421!4d72.616777!16s%2Fg%2F11dxd4s7hj!19sChIJ-83XmMoAQzkRDQh-5-4fcew?authuser=0&hl=en&rclk=1,"25.3439421,72.616777"
Jalor Markaz msjd,Mosque,"9J38+5RQ Jalor Markaz msjd, Unnamed Road, Bhawrani, Jalore, Rajasthan 343001",Bhawrani,"9J38+5RQ, Unnamed Road",Jalore,343001,Rajasthan,IN,https://www.google.com/maps/place/Jalor+Markaz+%D9%85%D8%B3%D8%AC%D8%AF%E2%80%AD/data=!4m7!3m6!1s0x3943012cc987acbb:0x42415ce46d8b2d0d!8m2!3d25.3529624!4d72.6170985!16s%2Fg%2F11h27yr3t9!19sChIJu6yHySwBQzkRDS2LbeRcQUI?authuser=0&hl=en&rclk=1,"25.3529624,72.6170985"
Idgah Masjid Jalore,Mosque,"Idgah Masjid Jalore, H1/114, Rajasthan State Ajmer Sharif naksha 16, Rampura Colony, Jalore, Rajasthan 343001",,"H1/114, Rajasthan State Ajmer Sharif naksha 16, Rampura Colony",Jalore,343001,Rajasthan,IN,https://www.google.com/maps/place/Idgah+Masjid+Jalore/data=!4m7!3m6!1s0x394307529e1f4493:0x44e4301b179ba391!8m2!3d25.35535!4d72.6133581!16s%2Fg%2F11csrfjlvw!19sChIJk0QfnlIHQzkRkaObFxsw5EQ?authuser=0&hl=en&rclk=1,"25.355349999999998,72.6133581"
Habshiyon Ki Masjid,Mosque,"8JV8+CW4 Habshiyon Ki Masjid, Doodsi, Bhawrani, Jalore, Rajasthan 343001","Doodsi, Bhawrani",8JV8+CW4,Jalore,343001,Rajasthan,IN,https://www.google.com/maps/place/Habshiyon+Ki+Masjid/data=!4m7!3m6!1s0x394300ca91d4b909:0xb02216fd129e4ffd!8m2!3d25.3435022!4d72.6173268!16s%2Fg%2F11ddwhq06r!19sChIJCbnUkcoAQzkR_U-eEv0WIrA?authuser=0&hl=en&rclk=1,"25.3435022,72.6173268"
RJ05 WAL BALOT WALI MASJID JAGADKA,Mosque,"C3MG+62C RJ05 WAL BALOT WALI MASJID JAGADKA, Jagarka, Rajasthan 321205",,C3MG+62C,Jagarka,321205,Rajasthan,IN,https://www.google.com/maps/place/RJ05+WAL+BALOT+WALI+MASJID+JAGADKA/data=!4m7!3m6!1s0x3972fbc629411967:0x4892f61144733555!8m2!3d27.4330679!4d77.0750158!16s%2Fg%2F11rtltvmn3!19sChIJZxlBKcb7cjkRVTVzRBH2kkg?authuser=0&hl=en&rclk=1,"27.433067899999998,77.0750158"
Sayyadon Ki Masjid,Mosque,"8JRC+X2H Sayyadon Ki Masjid, Ghanchiyo Ki Pilani, Bhawrani, Jalore, Rajasthan 343001","Ghanchiyo Ki Pilani, Bhawrani",8JRC+X2H,Jalore,343001,Rajasthan,IN,https://www.google.com/maps/place/Sayyadon+Ki+Masjid/data=!4m7!3m6!1s0x39430155858de6e7:0x4c3baf5a688b99b7!8m2!3d25.3424539!4d72.6201171!16s%2Fg%2F11q4dpznng!19sChIJ5-aNhVUBQzkRt5mLaFqvO0w?authuser=0&hl=en&rclk=1,"25.3424539,72.6201171"
Khotla wali masjid,Mosque,"P43P+XQ5 Khotla wali masjid, Sanwler, Rajasthan 321204",,P43P+XQ5,Sanwler,,Rajasthan,IN,https://www.google.com/maps/place/Khotla+wali+masjid/data=!4m7!3m6!1s0x3972df80f8b52619:0x3329cc22c52cf2e6!8m2!3d27.7048868!4d77.13697!16s%2Fg%2F11rvj_lmnx!19sChIJGSa1-IDfcjkR5vIsxSLMKTM?authuser=0&hl=en&rclk=1,"27.704886799999997,77.13696999999999"
Masjid (msjid) Jhantli,Mosque,"J329+XF6 Masjid (msjid) Jhantli, Chhajoo Khera, Rajasthan 321024",,J329+XF6,Chhajoo Khera,321024,Rajasthan,IN,https://www.google.com/maps/place/Masjid+%28%E0%A4%AE%E0%A4%B8%E0%A5%8D%E0%A4%9C%E0%A4%BF%E0%A4%A6%29+Jhantli/data=!4m7!3m6!1s0x3972e7b5b4493125:0xd004474e189d964b!8m2!3d27.6024044!4d77.0686285!16s%2Fg%2F11k5hxstl3!19sChIJJTFJtLXncjkRS5adGE5HBNA?authuser=0&hl=en&rclk=1,"27.602404399999998,77.0686285"
Masjid a noor,Mosque,"M6PF+27 Masjid a noor, Bilang, Garh Ajan, Rajasthan 321022",,M6PF+27,"Bilang, Garh Ajan",321022,Rajasthan,IN,https://www.google.com/maps/place/Masjid+a+noor/data=!4m7!3m6!1s0x39731f671f3fec67:0xa6eff29ce37392fc!8m2!3d27.6850625!4d77.2231875!16s%2Fg%2F11ty0rf686!19sChIJZ-w_H2cfczkR_JJz45zy76Y?authuser=0&hl=en&rclk=1,"27.685062499999997,77.2231875"
Mosque,Mosque,"9J33+2C8 Mosque, Unnamed Road, Rampura Colony, Jalore, Rajasthan 343001",Rampura Colony,"9J33+2C8, Unnamed Road",Jalore,343001,Rajasthan,IN,https://www.google.com/maps/place/Mosque/data=!4m7!3m6!1s0x39430701388f9cb7:0x83db7091f25572f7!8m2!3d25.3525424!4d72.6035893!16s%2Fg%2F11mqvyh9mr!19sChIJt5yPOAEHQzkR93JV8pFw24M?authuser=0&hl=en&rclk=1,"25.352542399999997,72.6035893"
Masjid e roja,Mosque,"FHX7+9V8 Masjid e roja, Village roja ka bas, post, Chandauli, Rajasthan",,"FHX7+9V8, Village roja ka bas, post","Chandauli, Umrain",,Rajasthan,IN,https://www.google.com/maps/place/Masjid+e+roja/data=!4m7!3m6!1s0x39729bb165698df3:0x95f6237b494e8bcf!8m2!3d27.4984023!4d76.5646889!16s%2Fg%2F11q1c_3550!19sChIJ841pZbGbcjkRz4tOSXsj9pU?authuser=0&hl=en&rclk=1,"27.4984023,76.5646889"
Chhoti masjid,Mosque,"9W3W+55G Chhoti masjid, Vill-imarti ka bas post-jadla, teh, kathumar, Rajasthan",,"9W3W+55G, Vill-imarti ka bas post-jadla, teh","kathumar, Imarti Ka Was",,Rajasthan,IN,https://www.google.com/maps/place/Chhoti+masjid/data=!4m7!3m6!1s0x3972f71112e810e7:0x7bf169a8ae72618f!8m2!3d27.3529362!4d76.9454504!16s%2Fg%2F11khknjt71!19sChIJ5xDoEhH3cjkRj2Fyrqhp8Xs?authuser=0&hl=en&rclk=1,"27.3529362,76.9454504"
Jumma masjid,Mosque,"F5XP+RVV Jumma masjid, Toda, Rajasthan 321203",,F5XP+RVV,Toda,,Rajasthan,IN,https://www.google.com/maps/place/Jumma+masjid/data=!4m7!3m6!1s0x3972fd0600de89b3:0xf3f33d0f3c865c4f!8m2!3d27.4996167!4d77.1871687!16s%2Fg%2F11ts5j7tz6!19sChIJs4neAAb9cjkRT1yGPA898_M?authuser=0&hl=en&rclk=1,"27.499616699999997,77.1871687"
dolaabaas jmmaaN msjid,Mosque,"M5QX+2G9 dolaabaas jmmaaN msjid, Nagla Mukariv, Dantka, Rajasthan 321023",,M5QX+2G9,"Nagla Mukariv, Dantka",,Rajasthan,IN,https://www.google.com/maps/place/%E0%A4%A6%E0%A5%8B%E0%A4%B2%E0%A4%BE%E0%A4%AC%E0%A4%BE%E0%A4%B8+%E0%A4%9C%E0%A4%AE%E0%A5%8D%E0%A4%AE%E0%A4%BE%E0%A4%82+%E0%A4%AE%E0%A4%B8%E0%A5%8D%E0%A4%9C%E0%A4%BF%E0%A4%A6/data=!4m7!3m6!1s0x39731f5c08474dc3:0x257f742a7e79fd90!8m2!3d27.6875483!4d77.198845!16s%2Fg%2F11trk4y0d1!19sChIJw01HCFwfczkRkP15fip0fyU?authuser=0&hl=en&rclk=1,"27.6875483,77.19884499999999"
masjid jhareda,Mosque,"PXXG+QG5 masjid jhareda, Jharedha, Rajasthan 322230",,PXXG+QG5,Jharedha,322230,Rajasthan,IN,https://www.google.com/maps/place/masjid+jhareda/data=!4m7!3m6!1s0x397225cbf1d88c93:0x8e96d43e9f5a90f7!8m2!3d26.7493994!4d76.9763712!16s%2Fg%2F11fjtd7qlc!19sChIJk4zY8cslcjkR95Banz7Ulo4?authuser=0&hl=en&rclk=1,"26.749399399999998,76.9763712"
