name,main_category,address,address_ward,address_street,address_city,address_postal_code,address_state,address_country_code,link,coordinates
Saifee Masjid,Mosque,"C7CJ+9HH Saifee Masjid, Khachrod, Madhya Pradesh 456224",,C7CJ+9HH,Khachrod,456224,Madhya Pradesh,IN,https://www.google.com/maps/place/Saifee+Masjid/data=!4m7!3m6!1s0x3963f590b551b9a3:0x30034014e285671!8m2!3d23.4209361!4d75.2814853!16s%2Fg%2F1tdzv3j7!19sChIJo7lRtZD1YzkRcVYoTgE0AAM?authuser=0&hl=en&rclk=1,"23.4209361,75.2814853"
Jama Masjid,Mosque,"C7GH+CWP Jama Masjid, Khachrod, Madhya Pradesh 456224",,C7GH+CWP,Khachrod,456224,Madhya Pradesh,IN,https://www.google.com/maps/place/Jama+Masjid/data=!4m7!3m6!1s0x3963f591d30d6b1d:0x725d07602178fd1c!8m2!3d23.4260838!4d75.2798206!16s%2Fg%2F1yglp_p26!19sChIJHWsN05H1YzkRHP14IWAHXXI?authuser=0&hl=en&rclk=1,"23.4260838,75.2798206"
Talab Wali Masjid,Mosque,"C7GM+M8C Talab Wali Masjid, Talab Darwaja, Khachrod, Madhya Pradesh 456224",Talab Darwaja,C7GM+M8C,Khachrod,456224,Madhya Pradesh,IN,https://www.google.com/maps/place/Talab+Wali+Masjid/data=!4m7!3m6!1s0x3963f59aab790989:0x312f3dcd8d8a8944!8m2!3d23.4266825!4d75.283273!16s%2Fg%2F11cjtktd32!19sChIJiQl5q5r1YzkRRImKjc09LzE?authuser=0&hl=en&rclk=1,"23.4266825,75.283273"
mirpura masjid,Mosque,"C7FJ+J4H mirpura masjid, Khachrod, Madhya Pradesh 456224",,C7FJ+J4H,Khachrod,456224,Madhya Pradesh,IN,https://www.google.com/maps/place/mirpura+masjid/data=!4m7!3m6!1s0x3963f59056ab0913:0x8c4b11938812bfa6!8m2!3d23.4240578!4d75.2803598!16s%2Fg%2F11f11pwp8z!19sChIJEwmrVpD1YzkRpr8SiJMRS4w?authuser=0&hl=en&rclk=1,"23.4240578,75.2803598"
Masjid Usman bin Affan,Mosque,"C7HJ+RGQ Masjid Usman bin Affan, Momin pura, Dabra, Khachrod",,"C7HJ+RGQ, Momin pura, Dabra",Khachrod,,Madhya Pradesh,IN,https://www.google.com/maps/place/Masjid+Usman+bin+Affan/data=!4m7!3m6!1s0x3963f5dcd291b7d9:0xe476e9cca4ae6b32!8m2!3d23.4295844!4d75.2813549!16s%2Fg%2F11nmd8hm_t!19sChIJ2beR0tz1YzkRMmuupMzpduQ?authuser=0&hl=en&rclk=1,"23.4295844,75.2813549"
sabji farosh masjid,Mosque,"C7CJ+WVX sabji farosh masjid, Laxmi Bai Marg, Khachrod, Madhya Pradesh 456224",Laxmi Bai Marg,C7CJ+WVX,Khachrod,456224,Madhya Pradesh,IN,https://www.google.com/maps/place/sabji+farosh+masjid/data=!4m7!3m6!1s0x3963f590a2ef1149:0x2a06e904c620d545!8m2!3d23.4223744!4d75.2822437!16s%2Fg%2F11fz9jz924!19sChIJSRHvopD1YzkRRdUgxgTpBio?authuser=0&hl=en&rclk=1,"23.4223744,75.2822437"
madaar chilla masjid,Mosque,"C7FP+455 madaar chilla masjid, Khachrod, Madhya Pradesh 456224",,C7FP+455,Khachrod,456224,Madhya Pradesh,IN,https://www.google.com/maps/place/madaar+chilla+masjid/data=!4m7!3m6!1s0x3963f59a4a0708ef:0x93922540390b0141!8m2!3d23.4227503!4d75.2854895!16s%2Fg%2F11f11pstz_!19sChIJ7wgHSpr1YzkRQQELOUAlkpM?authuser=0&hl=en&rclk=1,"23.4227503,75.2854895"
Mochipura Masjid,Mosque,"C7CJ+2W2 Mochipura Masjid, Khachrod, Madhya Pradesh 456224",,C7CJ+2W2,Khachrod,,Madhya Pradesh,IN,https://www.google.com/maps/place/Mochipura+Masjid/data=!4m7!3m6!1s0x3963f5975b2321d9:0xac089025ae014e2b!8m2!3d23.4200213!4d75.2822577!16s%2Fg%2F11gffdqdtc!19sChIJ2SEjW5f1YzkRK04BriWQCKw?authuser=0&hl=en&rclk=1,"23.4200213,75.2822577"
Imam Bada,Mosque,"C7GJ+JQ9 Imam Bada, Khachrod, Madhya Pradesh 456224",,C7GJ+JQ9,Khachrod,456224,Madhya Pradesh,IN,https://www.google.com/maps/place/Imam+Bada/data=!4m7!3m6!1s0x3963f5901cf623c5:0xab73c04f63e25909!8m2!3d23.4265439!4d75.2819922!16s%2Fg%2F1yglp_nzt!19sChIJxSP2HJD1YzkRCVniY0_Ac6s?authuser=0&hl=en&rclk=1,"23.4265439,75.28199219999999"
Choodidaron Ki Masjid,Mosque,"Choodidaron Ki Masjid, ganesh devli, Khachrod, Madhya Pradesh 456224",,ganesh devli,Khachrod,456224,Madhya Pradesh,IN,https://www.google.com/maps/place/Choodidaron+Ki+Masjid/data=!4m7!3m6!1s0x3963f585ea62ec0d:0x25521199d82ed0bb!8m2!3d23.4232213!4d75.2824095!16s%2Fg%2F11j91pl5ps!19sChIJDexi6oX1YzkRu9Au2JkRUiU?authuser=0&hl=en&rclk=1,"23.423221299999998,75.2824095"
Datar sahab masjid ahle sunnat,Mosque,"C79P+9G8 Datar sahab masjid ahle sunnat, Patel Colony, Khachrod, Madhya Pradesh 456224",Patel Colony,C79P+9G8,Khachrod,456224,Madhya Pradesh,IN,https://www.google.com/maps/place/Datar+sahab+masjid+ahle+sunnat/data=!4m7!3m6!1s0x3963f5c00292e2c5:0xbaf76e929d86c43!8m2!3d23.4184035!4d75.2863183!16s%2Fg%2F11h52rcynt!19sChIJxeKSAsD1YzkRQ2zYKel2rws?authuser=0&hl=en&rclk=1,"23.4184035,75.28631829999999"
Fateh Masjid,Mosque,"C7GJ+HJW Fateh Masjid, Khachrod, Madhya Pradesh 456224",,C7GJ+HJW,Khachrod,456224,Madhya Pradesh,IN,https://www.google.com/maps/place/Fateh+Masjid/data=!4m7!3m6!1s0x3963f5901f1a49d1:0x51866f91d6deed2d!8m2!3d23.4264848!4d75.2815926!16s%2Fg%2F1yglp_p0z!19sChIJ0UkaH5D1YzkRLe3e1pFvhlE?authuser=0&hl=en&rclk=1,"23.426484799999997,75.2815926"
Imadi Masjid Khachraud ( Bohra Masjid ),Mosque,"C7CJ+7GR Imadi Masjid Khachraud ( Bohra Masjid ), near Bohra Jamaat Khana, Khachrod, Madhya Pradesh 456224",,"C7CJ+7GR, near Bohra Jamaat Khana",Khachrod,,Madhya Pradesh,IN,https://www.google.com/maps/place/Imadi+Masjid+Khachraud+%28+Bohra+Masjid+%29/data=!4m7!3m6!1s0x3963f57bb7713bdb:0x867cb8ac988279c1!8m2!3d23.420745!4d75.2812784!16s%2Fg%2F11m_j_ks75!19sChIJ2ztxt3v1YzkRwXmCmKy4fIY?authuser=0&hl=en&rclk=1,"23.420745,75.28127839999999"
masjid zenul aabedin,Mosque,"C7FJ+4GG masjid zenul aabedin, Khachrod, Madhya Pradesh 456224",,C7FJ+4GG,Khachrod,456224,Madhya Pradesh,IN,https://www.google.com/maps/place/masjid+zenul+aabedin/data=!4m7!3m6!1s0x3963f544cc242537:0x4c9051a2afad7df9!8m2!3d23.4228399!4d75.2813005!16s%2Fg%2F11t3_jhdx7!19sChIJNyUkzET1YzkR-X2tr6JRkEw?authuser=0&hl=en&rclk=1,"23.4228399,75.2813005"
Mansoori Masjid,Mosque,"C7CM+JWX Mansoori Masjid, Khachrod, Madhya Pradesh 456224",,C7CM+JWX,Khachrod,456224,Madhya Pradesh,IN,https://www.google.com/maps/place/Mansoori+Masjid/data=!4m7!3m6!1s0x3963f59a243a9c73:0x6b2db6081db6193e!8m2!3d23.4216246!4d75.284864!16s%2Fg%2F11fxz_94n3!19sChIJc5w6JJr1YzkRPhm2HQi2LWs?authuser=0&hl=en&rclk=1,"23.421624599999998,75.284864"
Zaini Masjid,Mosque,"C7CM+739 Zaini Masjid, near Zaini Mohallah, Laxmi Bai Marg, Khachrod, Madhya Pradesh 456224",Laxmi Bai Marg,"C7CM+739, near Zaini Mohallah",Khachrod,,Madhya Pradesh,IN,https://www.google.com/maps/place/Zaini+Masjid/data=!4m7!3m6!1s0x3963f59869c1c2cf:0x4e2ab7a3aee17d79!8m2!3d23.4206693!4d75.2827484!16s%2Fg%2F11qnbsv86w!19sChIJz8LBaZj1YzkReX3hrqO3Kk4?authuser=0&hl=en&rclk=1,"23.4206693,75.2827484"
Data Shab Ki Masjid,Mosque,"C7CH+JVM Data Shab Ki Masjid, Khachrod, Madhya Pradesh 456224",,C7CH+JVM,Khachrod,,Madhya Pradesh,IN,https://www.google.com/maps/place/Data+Shab+Ki+Masjid/data=!4m7!3m6!1s0x3963f5912647b5bf:0x4f51dbc10113fcfe!8m2!3d23.4215819!4d75.2796706!16s%2Fg%2F11gfh9pgt7!19sChIJv7VHJpH1YzkR_vwTAcHbUU8?authuser=0&hl=en&rclk=1,"23.4215819,75.2796706"
Station Masjid,Mosque,"Station Masjid, Railway Station Ghudawan, Road, Khachrod, Madhya Pradesh 456224",,"Railway Station Ghudawan, Road","Khachrod, Ghudawan",456224,Madhya Pradesh,IN,https://www.google.com/maps/place/Station+Masjid/data=!4m7!3m6!1s0x39640b27a1073c0d:0x18abdb0660f19e41!8m2!3d23.4426435!4d75.2878907!16s%2Fg%2F11frf1pq6j!19sChIJDTwHoScLZDkRQZ7xYAbbqxg?authuser=0&hl=en&rclk=1,"23.4426435,75.28789069999999"
Eidgah khachrod,Mosque,"C7HF+2V9 Eidgah khachrod, Lohachitara - Khachrod Rd, Khachrod, Madhya Pradesh 456224",,"C7HF+2V9, Lohachitara - Khachrod Rd",Khachrod,456224,Madhya Pradesh,IN,https://www.google.com/maps/place/Eidgah+khachrod/data=!4m7!3m6!1s0x3963f5e4922378d1:0xb0891df136146877!8m2!3d23.4278713!4d75.2755949!16s%2Fg%2F11tj9mkfhv!19sChIJ0XgjkuT1YzkRd2gUNvEdibA?authuser=0&hl=en&rclk=1,"23.4278713,75.2755949"
Sahil Khan,Mosque,"Sahil Khan, masjid, Bagpura, Khachrod",,"masjid, Bagpura",Khachrod,,Madhya Pradesh,IN,https://www.google.com/maps/place/Sahil+Khan/data=!4m7!3m6!1s0x3963f599a53eecf9:0xf2b1ba48d868fc09!8m2!3d23.4212365!4d75.2809761!16s%2Fg%2F11r3mjnqg1!19sChIJ-ew-pZn1YzkRCfxo2Ei6sfI?authuser=0&hl=en&rclk=1,"23.4212365,75.28097609999999"
