name,main_category,address,address_ward,address_street,address_city,address_postal_code,address_state,address_country_code,link,coordinates
Razvi TAiLORS masjid e Bilal,Mosque,"3F6V+V6V Razvi TAiLORS masjid e Bilal, Bellampalle, Telangana 504251",,3F6V+V6V,Bellampalle,504251,Telangana,IN,https://www.google.com/maps/place/Razvi+TAiLORS+masjid+e+Bilal/data=!4m7!3m6!1s0x3a32b10ed88c3029:0x4f65cd5899f32fc8!8m2!3d19.0622332!4d79.4930366!16s%2Fg%2F11f62g5tr5!19sChIJKTCM2A6xMjoRyC_zmVjNZU8?authuser=0&hl=en&rclk=1,"19.062233199999998,79.4930366"
Jama Masjid,Mosque,"MGGQ+F5Q Jama Masjid, Jama Masjid Rd, Mahalaxmiwada, Adilabad, Telangana 504001",Mahalaxmiwada,"MGGQ+F5Q, Jama Masjid Rd",Adilabad,504001,Telangana,IN,https://www.google.com/maps/place/Jama+Masjid/data=!4m7!3m6!1s0x3bd25c75f87e8a01:0x25a95ee1fbab37d0!8m2!3d19.6762137!4d78.5379985!16s%2Fg%2F1tlqnfwv!19sChIJAYp--HVc0jsR0Der--FeqSU?authuser=0&hl=en&rclk=1,"19.676213699999998,78.5379985"
Gulzaar Masjid,Mosque,"MGCR+66Q Gulzaar Masjid, Bokkalguda St, Brahmanwadi, Adilabad, Telangana 504001",Brahmanwadi,"MGCR+66Q, Bokkalguda St",Adilabad,504001,Telangana,IN,https://www.google.com/maps/place/Gulzaar+Masjid/data=!4m7!3m6!1s0x3bd25c7477d00337:0x3dc61fe7489f62b1!8m2!3d19.6704596!4d78.5395986!16s%2Fg%2F1tcz6sjz!19sChIJNwPQd3Rc0jsRsWKfSOcfxj0?authuser=0&hl=en&rclk=1,"19.670459599999997,78.53959859999999"
Masjid-E-Taneem,Mosque,"MG8P+GJ2 Masjid-E-Taneem, Shanti Nagar, Adilabad, Telangana 504001",Shanti Nagar,MG8P+GJ2,Adilabad,504001,Telangana,IN,https://www.google.com/maps/place/Masjid-E-Taneem/data=!4m7!3m6!1s0x3bd25c7196951817:0xe1695f659d337d7!8m2!3d19.6662707!4d78.5365283!16s%2Fg%2F11c52zx1f3!19sChIJFxiVlnFc0jsR1zfTWfaVFg4?authuser=0&hl=en&rclk=1,"19.6662707,78.5365283"
Masjid Panjesha,Mosque,"Masjid Panjesha, masjid, panjesha marg, Bhainsa, Telangana 504103",,"masjid, panjesha marg",Bhainsa,,Telangana,IN,https://www.google.com/maps/place/Masjid+Panjesha/data=!4m7!3m6!1s0x3bcdfe45594b318b:0xa9a4527a0d3bdd4e!8m2!3d19.1114013!4d77.9614446!16s%2Fg%2F11xfvxc4m!19sChIJizFLWUX-zTsRTt07DXpSpKk?authuser=0&hl=en&rclk=1,"19.1114013,77.9614446"
Masjid e Noor Khursheed Nagar,Mosque,"Masjid e Noor Khursheed Nagar, khursheed Nagar, Adilabad, Telangana 504001",khursheed Nagar,,Adilabad,,Telangana,IN,https://www.google.com/maps/place/Masjid+e+Noor+Khursheed+Nagar/data=!4m7!3m6!1s0x3bd25b7f77891187:0xd64d9d2522c68201!8m2!3d19.6780656!4d78.5199255!16s%2Fg%2F1pp2x6dd1!19sChIJhxGJd39b0jsRAYLGIiWdTdY?authuser=0&hl=en&rclk=1,"19.6780656,78.5199255"
Mohammadia Masjid,Mosque,"MGFH+M8P Mohammadia Masjid, NH 44, Vidya Nagar, Adilabad, Telangana 504001",Vidya Nagar,"MGFH+M8P, NH 44",Adilabad,504001,Telangana,IN,https://www.google.com/maps/place/Mohammadia+Masjid/data=!4m7!3m6!1s0x3bd25c7892a2eb3b:0x89c3b0daf8ff360!8m2!3d19.6742243!4d78.5283275!16s%2Fg%2F1tjz1t_5!19sChIJO-uiknhc0jsRYPOPrw07nAg?authuser=0&hl=en&rclk=1,"19.6742243,78.5283275"
Masjid e Khadim,Mosque,"974W+GHR Masjid e Khadim, Asifabad, Telangana 504293",,974W+GHR,Asifabad,504293,Telangana,IN,https://www.google.com/maps/place/Masjid+e+Khadim/data=!4m7!3m6!1s0x3bd2ac0487a9f291:0x6fbe7074c3de740b!8m2!3d19.3563518!4d79.2964018!16s%2Fg%2F11cjj61r0q!19sChIJkfKphwSs0jsRC3Tew3Rwvm8?authuser=0&hl=en&rclk=1,"19.3563518,79.2964018"
Masjid E Abubaker,Mosque,"MG8V+54F Masjid E Abubaker, Shanti Nagar, Adilabad, Telangana 504001",Shanti Nagar,MG8V+54F,Adilabad,504001,Telangana,IN,https://www.google.com/maps/place/Masjid+E+Abubaker/data=!4m7!3m6!1s0x3bd25c72afd994d1:0x55e84f035f33b282!8m2!3d19.6654385!4d78.542794!16s%2Fg%2F11c1wsmygw!19sChIJ0ZTZr3Jc0jsRgrIzXwNP6FU?authuser=0&hl=en&rclk=1,"19.6654385,78.542794"
Masjid E Arafath,Mosque,"MG9W+PJJ Masjid E Arafath, arfath nagar, Adilabad, Telangana 504001",arfath nagar,MG9W+PJJ,Adilabad,504001,Telangana,IN,https://www.google.com/maps/place/Masjid+E+Arafath/data=!4m7!3m6!1s0x3bd25c0c5e111929:0x778ec5e1e693b913!8m2!3d19.6693375!4d78.5465156!16s%2Fg%2F11dxl2lpw0!19sChIJKRkRXgxc0jsRE7mT5uHFjnc?authuser=0&hl=en&rclk=1,"19.669337499999997,78.54651559999999"
Jama Masjid,Mosque,"9WF4+RQQ Jama Masjid, Jainoor, Telangana 504313",,9WF4+RQQ,Jainoor,504313,Telangana,IN,https://www.google.com/maps/place/Jama+Masjid/data=!4m7!3m6!1s0x3bd29a35900ac135:0x7391ef599ce08a2c!8m2!3d19.3745916!4d78.9069837!16s%2Fg%2F11f34m3m7b!19sChIJNcEKkDWa0jsRLIrgnFnvkXM?authuser=0&hl=en&rclk=1,"19.3745916,78.9069837"
Madina Masjid mdynh msjd,Mosque,"MGCJ+GX8 Madina Masjid mdynh msjd, Netaji Chowk Rd, Ponnar, Bhuktapur, Telangana 504001",Ponnar,"MGCJ+GX8, Netaji Chowk Rd",Bhuktapur,504001,Telangana,IN,https://www.google.com/maps/place/Madina+Masjid+%D9%85%D8%AF%DB%8C%D9%86%DB%81+%D9%85%D8%B3%D8%AC%D8%AF%E2%80%AD/data=!4m7!3m6!1s0x3bd25c7742dd0b05:0xf2fb259a889bfa78!8m2!3d19.6712846!4d78.5324561!16s%2Fg%2F11fzzxxq7l!19sChIJBQvdQndc0jsRePqbiJol-_I?authuser=0&hl=en&rclk=1,"19.6712846,78.53245609999999"
Jama Masjid,Mosque,"3F9Q+X45 Jama Masjid, Belmuri, Hanman Basti, Bellampalle, Telangana 504251","Belmuri, Hanman Basti",3F9Q+X45,Bellampalle,504251,Telangana,IN,https://www.google.com/maps/place/Jama+Masjid/data=!4m7!3m6!1s0x3a32b1e6a4eb0557:0x32163b4072eb7836!8m2!3d19.0698971!4d79.4878633!16s%2Fg%2F11csb3stf2!19sChIJVwXrpOaxMjoRNnjrckA7FjI?authuser=0&hl=en&rclk=1,"19.0698971,79.4878633"
Fathima Masjid,Mosque,"MGFF+676 Fathima Masjid, Sanjay Nagar, Adilabad, Telangana 504001",Sanjay Nagar,MGFF+676,Adilabad,504001,Telangana,IN,https://www.google.com/maps/place/Fathima+Masjid/data=!4m7!3m6!1s0x3bd25c7fa619132f:0x3fc5279c8cd8c162!8m2!3d19.6730467!4d78.5231404!16s%2Fg%2F11g65c9p2q!19sChIJLxMZpn9c0jsRYsHYjJwnxT8?authuser=0&hl=en&rclk=1,"19.6730467,78.5231404"
MASJID-E-Bilal,Mosque,"MGHQ+H25 MASJID-E-Bilal, Adilabad - Nagpur Rd, Panjesha, Adilabad, Telangana 504001",Panjesha,"MGHQ+H25, Adilabad - Nagpur Rd",Adilabad,504001,Telangana,IN,https://www.google.com/maps/place/MASJID-E-Bilal/data=!4m7!3m6!1s0x3bd25b89846e6659:0x31ee36077b20474f!8m2!3d19.6788851!4d78.5375982!16s%2Fg%2F11gclzc6pn!19sChIJWWZuhIlb0jsRT0cgewc27jE?authuser=0&hl=en&rclk=1,"19.6788851,78.53759819999999"
Masjid E Hassan,Mosque,"MG8V+QPM Masjid E Hassan, Unnamed Road, Shanti Nagar, Adilabad, Telangana 504001",Shanti Nagar,"MG8V+QPM, Unnamed Road",Adilabad,504001,Telangana,IN,https://www.google.com/maps/place/Masjid+E+Hassan/data=!4m7!3m6!1s0x3bd25c0d29000079:0xa0cc092090b96993!8m2!3d19.6669651!4d78.5443022!16s%2Fg%2F11dfk_8lt4!19sChIJeQAAKQ1c0jsRk2m5kCAJzKA?authuser=0&hl=en&rclk=1,"19.6669651,78.54430219999999"
JAMA MASJID SULTANGUDA,Mosque,"C2RR+XGF JAMA MASJID SULTANGUDA, Sultanguda, Kerimeri, Adilabad, Telangana 504313",Sultanguda,C2RR+XGF,"Kerimeri, Adilabad",,Telangana,IN,https://www.google.com/maps/place/JAMA+MASJID+SULTANGUDA/data=!4m7!3m6!1s0x3bd2bd475cdd2b39:0x2b52fccf2d27bcc0!8m2!3d19.4424339!4d79.0413029!16s%2Fg%2F11d_5drtt9!19sChIJOSvdXEe90jsRwLwnLc_8Uis?authuser=0&hl=en&rclk=1,"19.442433899999997,79.04130289999999"
Madeena Masjid,Mosque,"V6P3+8XJ Madeena Masjid, Unnamed Road, Lakshettipet, Utukur, Telangana 504215",,"V6P3+8XJ, Unnamed Road","Lakshettipet, Utukur",504215,Telangana,IN,https://www.google.com/maps/place/Madeena+Masjid/data=!4m7!3m6!1s0x3bcd4808b8069611:0xa08757891f8dc24f!8m2!3d18.8858394!4d79.2049032!16s%2Fg%2F11h9rd_j48!19sChIJEZYGuAhIzTsRT8KNH4lXh6A?authuser=0&hl=en&rclk=1,"18.8858394,79.20490319999999"
HAZRAT SYED BULAND SHAH WALI DARGAH.,Mosque,"R8QQ+JQ8 HAZRAT SYED BULAND SHAH WALI DARGAH., Adilabad, Telangana 504209",,R8QQ+JQ8,Adilabad,,Telangana,IN,https://www.google.com/maps/place/HAZRAT+SYED+BULAND+SHAH+WALI+DARGAH./data=!4m7!3m6!1s0x3bcd35f4fa83e7b5:0x7c59fc3987391ab6!8m2!3d18.83903!4d79.3394643!16s%2Fg%2F11glwbnpw7!19sChIJteeD-vQ1zTsRtho5hzn8WXw?authuser=0&hl=en&rclk=1,"18.839029999999998,79.3394643"
Masjid E Aqsa,Mosque,"V6M3+CQ7 Masjid E Aqsa, Godavari Rd, Luxettipet, Utukur, Telangana 504215",,"V6M3+CQ7, Godavari Rd","Luxettipet, Utukur",504215,Telangana,IN,https://www.google.com/maps/place/Masjid+E+Aqsa/data=!4m7!3m6!1s0x3bcd4806170503ff:0x41898622cf17800e!8m2!3d18.8835328!4d79.204429!16s%2Fg%2F11dx9f8k5s!19sChIJ_wMFFwZIzTsRDoAXzyKGiUE?authuser=0&hl=en&rclk=1,"18.883532799999998,79.20442899999999"
Masjid Badar,Mosque,"MG8C+44M Masjid Badar, Rickshaw Colony, Adilabad, Telangana 504001",Rickshaw Colony,MG8C+44M,Adilabad,504001,Telangana,IN,https://www.google.com/maps/place/Masjid+Badar/data=!4m7!3m6!1s0x3bd25c878e7870c1:0x8e24c92e23dce198!8m2!3d19.6653455!4d78.5202985!16s%2Fg%2F11bbrlytdq!19sChIJwXB4jodc0jsRmOHcIy7JJI4?authuser=0&hl=en&rclk=1,"19.6653455,78.5202985"
jama masjid,Mosque,"Q37J+X7X jama masjid, Gollapally Rd, Thirmalapuram, Telangana 505532",,"Q37J+X7X, Gollapally Rd",Thirmalapuram,505532,Telangana,IN,https://www.google.com/maps/place/jama+masjid/data=!4m7!3m6!1s0x3bcd3c24100180d1:0x78341f8fc52a3370!8m2!3d18.7649959!4d79.0807365!16s%2Fg%2F11c206gfj7!19sChIJ0YABECQ8zTsRcDMqxY8fNHg?authuser=0&hl=en&rclk=1,"18.7649959,79.0807365"
Masjid e Bilala,Mosque,"Masjid e Bilala, Adilabad-Asifabad Rd, Jainoor, Telangana 504313",,Adilabad-Asifabad Rd,Jainoor,504313,Telangana,IN,https://www.google.com/maps/place/Masjid+e+Bilala/data=!4m7!3m6!1s0x3bd29bb7204a9e0f:0x706dab2553f72b79!8m2!3d19.3750134!4d78.9120455!16s%2Fg%2F11f6qq3rwz!19sChIJD55KILeb0jsReSv3UyWrbXA?authuser=0&hl=en&rclk=1,"19.3750134,78.91204549999999"
Jama Masjid,Mosque,"GJ2X+6JW Jama Masjid, Keslaguda, Telangana 504346",,GJ2X+6JW,Keslaguda,504346,Telangana,IN,https://www.google.com/maps/place/Jama+Masjid/data=!4m7!3m6!1s0x3bd261f970258be5:0x54b1787a0dcfac1b!8m2!3d19.5006085!4d78.6490645!16s%2Fg%2F11b6c8wzlm!19sChIJ5YslcPlh0jsRG6zPDXp4sVQ?authuser=0&hl=en&rclk=1,"19.5006085,78.6490645"
MASJID,Mosque,"P5MR+3P9 MASJID, Dharmaram, Telangana 505416",,P5MR+3P9,Dharmaram,505416,Telangana,IN,https://www.google.com/maps/place/MASJID/data=!4m7!3m6!1s0x3bcd3a7d9f48ae57:0x86d0cdc6ca2be587!8m2!3d18.7326632!4d79.1918711!16s%2Fg%2F11c1tyx563!19sChIJV65In306zTsRh-UrysbN0IY?authuser=0&hl=en&rclk=1,"18.732663199999998,79.1918711"
Mosque,Mosque,"X52G+R6F Mosque, Mutyampet, Telangana 504206",,X52G+R6F,Mutyampet,504206,Telangana,IN,https://www.google.com/maps/place/Mosque/data=!4m7!3m6!1s0x3bcd466d6eedd661:0x2921ef9d1613e136!8m2!3d18.9520508!4d79.1755405!16s%2Fg%2F11ddxvk81c!19sChIJYdbtbm1GzTsRNuETFp3vISk?authuser=0&hl=en&rclk=1,"18.9520508,79.1755405"
EidGah Donthapur,Mosque,"22HH+393 EidGah Donthapur, Telangana 505454",,22HH+393,,505454,Telangana,IN,https://www.google.com/maps/place/EidGah+Donthapur/data=!4m7!3m6!1s0x3bcd42a2d1c7d42b:0xca626dc30ee13ca9!8m2!3d19.027628!4d79.0284177!16s%2Fg%2F11g9vmb82t!19sChIJK9TH0aJCzTsRqTzhDsNtYso?authuser=0&hl=en&rclk=1,"19.027628,79.02841769999999"
Jama Masjid,Mosque,"Jama Masjid, Bus Station, Old, Utnur, Telangana 504311",Sevadas Nagar,"Bus Station, Old",Utnur,504311,Telangana,IN,https://www.google.com/maps/place/Jama+Masjid/data=!4m7!3m6!1s0x3bd285b42543f7db:0xfbc9083caa3eda41!8m2!3d19.3679744!4d78.7738921!16s%2Fg%2F11c2p12cr7!19sChIJ2_dDJbSF0jsRQdo-qjwIyfs?authuser=0&hl=en&rclk=1,"19.367974399999998,78.7738921"
Masjid -e- Dawathul Haq,Mosque,"CFH2+G89 Masjid -e- Dawathul Haq, Ichoda Main Rd, Ichoda, Telangana 504307",,"CFH2+G89, Ichoda Main Rd",Ichoda,504307,Telangana,IN,https://www.google.com/maps/place/Masjid+-e-+Dawathul+Haq/data=!4m7!3m6!1s0x3bd26fa240811f53:0x84ebb182ea5a35e4!8m2!3d19.4287993!4d78.4508528!16s%2Fg%2F11b75hw8dx!19sChIJUx-BQKJv0jsR5DVa6oKx64Q?authuser=0&hl=en&rclk=1,"19.428799299999998,78.45085279999999"
Makka Masjid Theegala Dhrmaram,Mosque,"225M+7F7 Makka Masjid Theegala Dhrmaram, Theegala Dharmaram, Telangana 505454",,225M+7F7,Theegala Dharmaram,505454,Telangana,IN,https://www.google.com/maps/place/Makka+Masjid+Theegala+Dhrmaram/data=!4m7!3m6!1s0x3bcd428926ec2039:0x43d64dd5a8bc946b!8m2!3d19.0081507!4d79.0336722!16s%2Fg%2F11f0wpv39c!19sChIJOSDsJolCzTsRa5S8qNVN1kM?authuser=0&hl=en&rclk=1,"19.008150699999998,79.0336722"
Masjid,Mosque,"3F8M+FFQ Masjid, Bellampalle, Kannal Rural, Telangana 504251",,3F8M+FFQ,"Bellampalle, Kannal Rural",504251,Telangana,IN,https://www.google.com/maps/place/Masjid/data=!4m7!3m6!1s0x3a32b1b5f0822333:0xf2f1d40734fe9993!8m2!3d19.0662171!4d79.48373!16s%2Fg%2F11gl2hm2p0!19sChIJMyOC8LWxMjoRk5n-NAfU8fI?authuser=0&hl=en&rclk=1,"19.0662171,79.48373"
MASJID - E - WASIL,Mosque,"9Q7C+W9C MASJID - E - WASIL, Utnur, Telangana 504311",,9Q7C+W9C,Utnur,504311,Telangana,IN,https://www.google.com/maps/place/MASJID+-+E+-+WASIL/data=!4m7!3m6!1s0x3bd285b568212b3b:0xd48a9da29da1160e!8m2!3d19.3648093!4d78.7708923!16s%2Fg%2F11g6q_z_ty!19sChIJOyshaLWF0jsRDhahnaKditQ?authuser=0&hl=en&rclk=1,"19.364809299999997,78.7708923"
Eid-Gah Adilabad,Mosque,"MGFH+76M Eid-Gah Adilabad, Vidya Nagar, Adilabad, Telangana 504001",Vidya Nagar,MGFH+76M,Adilabad,504001,Telangana,IN,https://www.google.com/maps/place/Eid-Gah+Adilabad/data=!4m7!3m6!1s0x3bd25dc51f70cbab:0xb53df29e2fcc553b!8m2!3d19.6732088!4d78.5280509!16s%2Fg%2F11rd28b2_c!19sChIJq8twH8Vd0jsRO1XML57yPbU?authuser=0&hl=en&rclk=1,"19.673208799999998,78.5280509"
Masjid e Raza,Mosque,"MG9V+JPV Masjid e Raza, Shanti Nagar, Adilabad, Telangana 504001",Shanti Nagar,MG9V+JPV,Adilabad,504001,Telangana,IN,https://www.google.com/maps/place/Masjid+e+Raza/data=!4m7!3m6!1s0x3bd25d7fcd7b7ccd:0xe8779b7a8f75f499!8m2!3d19.6691213!4d78.5442846!16s%2Fg%2F11kh3x29df!19sChIJzXx7zX9d0jsRmfR1j3qbd-g?authuser=0&hl=en&rclk=1,"19.6691213,78.5442846"
Masjid-E-Zohra,Mosque,"Masjid-E-Zohra, Masjid-E- Zohra, Ambedkar Nagar, Khanapur, Telangana 504001",Ambedkar Nagar,Masjid-E- Zohra,Khanapur,504001,Telangana,IN,https://www.google.com/maps/place/Masjid-E-Zohra/data=!4m7!3m6!1s0x3bd25dbaced23b33:0xe16af2c30b24656!8m2!3d19.6729258!4d78.5447961!16s%2Fg%2F11j000cqb1!19sChIJMzvSzrpd0jsRVkayMCyvFg4?authuser=0&hl=en&rclk=1,"19.672925799999998,78.5447961"
Masjid E Safia Sulaiman,Mosque,"X32W+V9F Masjid E Safia Sulaiman, Unnamed Road, Mamidiwada, Rotte Venkamma Illu, Dharmapuri, Telangana 505425","Mamidiwada, Rotte Venkamma Illu","X32W+V9F, Unnamed Road",Dharmapuri,505425,Telangana,IN,https://www.google.com/maps/place/Masjid+E+Safia+Sulaiman/data=!4m7!3m6!1s0x3bcd419c1140ecef:0x5738f10bd92bf8d1!8m2!3d18.9521875!4d79.0959375!16s%2Fg%2F11rcrh6mgm!19sChIJ7-xAEZxBzTsR0fgr2QvxOFc?authuser=0&hl=en&rclk=1,"18.9521875,79.09593749999999"
Mosque,Mosque,"Mosque, Devapur, Telangana 504218",,,Devapur,,Telangana,IN,https://www.google.com/maps/place/Mosque/data=!4m7!3m6!1s0x3bcd4d17c2ad90f3:0xab9c721020869a11!8m2!3d19.0355273!4d79.3571019!16s%2Fg%2F1tfzqcm7!19sChIJ85CtwhdNzTsREZqGIBBynKs?authuser=0&hl=en&rclk=1,"19.0355273,79.35710189999999"
Godishelapeta,Mosque,"Q6QP+W6X Godishelapeta, N THIRUPATHI S/o chandhraiah 1-47 Godishelpet, Godishelpet, Telangana 505526",,"Q6QP+W6X, N THIRUPATHI S/o chandhraiah 1-47 Godishelpet",Godishelpet,505526,Telangana,IN,https://www.google.com/maps/place/Godishelapeta/data=!4m7!3m6!1s0x3bcd378fb3a39375:0x460af63baaa9be14!8m2!3d18.7909335!4d79.2366283!16s%2Fg%2F11h8kyq5wd!19sChIJdZOjs483zTsRFL6pqjv2CkY?authuser=0&hl=en&rclk=1,"18.790933499999998,79.23662829999999"
Masjide Wahida Unisa,Mosque,"V3V4+QGR Masjide Wahida Unisa, Velgonda, Telangana 505454",,V3V4+QGR,Velgonda,505454,Telangana,IN,https://www.google.com/maps/place/Masjide+Wahida+Unisa/data=!4m7!3m6!1s0x3bcd405b9ee52317:0x8fb1c9f68cb284a!8m2!3d18.8944821!4d79.0562564!16s%2Fg%2F11f15dx9xq!19sChIJFyPlnltAzTsRSijLaJ8c-wg?authuser=0&hl=en&rclk=1,"18.894482099999998,79.0562564"
Masjid-e- Amina,Mosque,"MGFR+G3G Masjid-e- Amina, Brahmanwadi, Adilabad, Telangana 504001",Brahmanwadi,MGFR+G3G,Adilabad,504001,Telangana,IN,https://www.google.com/maps/place/Masjid-e-+Amina/data=!4m7!3m6!1s0x3bd25ddc88f570b9:0x22cb1f0c107c4bc6!8m2!3d19.6738162!4d78.5401916!16s%2Fg%2F11k7xv923r!19sChIJuXD1iNxd0jsRxkt8EAwfyyI?authuser=0&hl=en&rclk=1,"19.673816199999997,78.5401916"
Masjid Mohammadia,Mosque,"9QCG+VR7 Masjid Mohammadia, Utnoor Rd, Utnur, Telangana 504311",,"9QCG+VR7, Utnoor Rd",Utnur,504311,Telangana,IN,https://www.google.com/maps/place/Masjid+Mohammadia/data=!4m7!3m6!1s0x3bd285b0dc0d26a7:0xf6fa3333ae2948b7!8m2!3d19.3721507!4d78.7770528!16s%2Fg%2F11c2p105cs!19sChIJpyYN3LCF0jsRt0gprjMz-vY?authuser=0&hl=en&rclk=1,"19.3721507,78.77705279999999"
Masjid,Mosque,"P8PM+23W Masjid, Gudipadu, Telangana 505416",,P8PM+23W,Gudipadu,505416,Telangana,IN,https://www.google.com/maps/place/Masjid/data=!4m7!3m6!1s0x3bcd3255b43543df:0xcc022fc705a04fd2!8m2!3d18.7351001!4d79.3327068!16s%2Fg%2F11g690sl7v!19sChIJ30M1tFUyzTsR0k-gBccvAsw?authuser=0&hl=en&rclk=1,"18.7351001,79.3327068"
Monammadia Masjid,Mosque,"FMX7+QP5 Monammadia Masjid, HEERAPUR, Indervelly, Heerapur, Telangana 504346",HEERAPUR,FMX7+QP5,"Indervelly, Heerapur",,Telangana,IN,https://www.google.com/maps/place/Monammadia+Masjid/data=!4m7!3m6!1s0x3bd28b5088306d5f:0x145d9a5d18c98ff!8m2!3d19.4993952!4d78.6643571!16s%2Fg%2F11gr5_09c8!19sChIJX20wiFCL0jsR_5iM0aXZRQE?authuser=0&hl=en&rclk=1,"19.4993952,78.66435709999999"
MASJID-E-AQSA,Mosque,"9QCM+6FG MASJID-E-AQSA, Utnur, Telangana 504311",,9QCM+6FG,Utnur,504311,Telangana,IN,https://www.google.com/maps/place/MASJID-E-AQSA/data=!4m7!3m6!1s0x3bd285ae68120e2d:0x511a2112271c67ab!8m2!3d19.3705709!4d78.7836997!16s%2Fg%2F11d_8_t86t!19sChIJLQ4SaK6F0jsRq2ccJxIhGlE?authuser=0&hl=en&rclk=1,"19.3705709,78.7836997"
MASJID E IBRAHIMIA,Mosque,"MASJID E IBRAHIMIA, 2-5-275/1, tirpally, Adilabad, Telangana 504001",tirpally,2-5-275/1,Adilabad,504001,Telangana,IN,https://www.google.com/maps/place/MASJID+E+IBRAHIMIA/data=!4m7!3m6!1s0x3bd25b8b6628a527:0x550e60c0cd80575a!8m2!3d19.6814941!4d78.5416637!16s%2Fg%2F11f15jwjc0!19sChIJJ6UoZotb0jsRWleAzcBgDlU?authuser=0&hl=en&rclk=1,"19.6814941,78.5416637"
Jama Mosque Devapur,Mosque,"29R3+5CH Jama Mosque Devapur, Devapur, Telangana 504218",,29R3+5CH,Devapur,504218,Telangana,IN,https://www.google.com/maps/place/Jama+Mosque+Devapur/data=!4m7!3m6!1s0x3bcd4d143d51615b:0xd161b4f792ad7f92!8m2!3d19.0404421!4d79.3536248!16s%2Fg%2F11hbvtzyrz!19sChIJW2FRPRRNzTsRkn-tkve0YdE?authuser=0&hl=en&rclk=1,"19.0404421,79.35362479999999"
Peerila Masjid,Mosque,"W3XW+8M8 Peerila Masjid, Dharmapuri, Telangana 505425",,W3XW+8M8,Dharmapuri,505425,Telangana,IN,https://www.google.com/maps/place/Peerila+Masjid/data=!4m7!3m6!1s0x3bcd41453495526d:0xd1b992ce8abbbd59!8m2!3d18.9482959!4d79.0967184!16s%2Fg%2F124t1g8cl!19sChIJbVKVNEVBzTsRWb27is6SudE?authuser=0&hl=en&rclk=1,"18.948295899999998,79.0967184"
Jama masjid Rapalli,Mosque,"V86F+95C Jama masjid Rapalli, Rapalli, Telangana 504209",,V86F+95C,Rapalli,,Telangana,IN,https://www.google.com/maps/place/Jama+masjid+Rapalli/data=!4m7!3m6!1s0x3bcd35a9ffe4bf57:0xce3045d1fdb31cb6!8m2!3d18.8609432!4d79.3228935!16s%2Fg%2F11llcjc3mt!19sChIJV7_k_6k1zTsRthyz_dFFMM4?authuser=0&hl=en&rclk=1,"18.860943199999998,79.32289349999999"
Masjid-e-Muhammadia. (msjd mHmdyh),Mosque,"R2WR+89P Masjid-e-Muhammadia. (msjd mHmdyh), Jagtial, Telangana 505454",,R2WR+89P,Jagtial,505454,Telangana,IN,https://www.google.com/maps/place/Masjid-e-Muhammadia.+%28%D9%85%D8%B3%D8%AC%D8%AF+%D9%85%D8%AD%D9%85%D8%AF%DB%8C%DB%81%29%E2%80%AD/data=!4m7!3m6!1s0x3bcd3feca676a9c5:0x8247b254cadb688b!8m2!3d18.8458253!4d79.0409409!16s%2Fg%2F11g65by1s3!19sChIJxal2puw_zTsRi2jbylSyR4I?authuser=0&hl=en&rclk=1,"18.845825299999998,79.0409409"
Masjid e umar,Mosque,"9W95+WC9 Masjid e umar, Jainoor, Telangana 504313",,9W95+WC9,Jainoor,504313,Telangana,IN,https://www.google.com/maps/place/Masjid+e+umar/data=!4m7!3m6!1s0x3bd29b093593e477:0xe65cd53a2848ead0!8m2!3d19.3700184!4d78.9089038!16s%2Fg%2F11t27x9_rj!19sChIJd-STNQmb0jsR0OpIKDrVXOY?authuser=0&hl=en&rclk=1,"19.3700184,78.90890379999999"
Masjid e Afsana,Mosque,"JGRP+7WM Masjid e Afsana, KRK Rd, KRK Colony, Khoja Colony, Adilabad, Telangana 504001","KRK Colony, Khoja Colony","JGRP+7WM, KRK Rd",Adilabad,504001,Telangana,IN,https://www.google.com/maps/place/Masjid+e+Afsana/data=!4m7!3m6!1s0x3bd25d5d2e428473:0xd94d955bdaa63bd4!8m2!3d19.6407052!4d78.5372911!16s%2Fg%2F11t4wlk9cp!19sChIJc4RCLl1d0jsR1Dum2luVTdk?authuser=0&hl=en&rclk=1,"19.6407052,78.53729109999999"
Masjid e Amina Abdullah Rashod,Mosque,"X5W3+5FW Masjid e Amina Abdullah Rashod, bolishetty rajanna mro office, Dantepally, Telangana 504206",,"X5W3+5FW, bolishetty rajanna mro office",Dantepally,504206,Telangana,IN,https://www.google.com/maps/place/Masjid+e+Amina+Abdullah+Rashod/data=!4m7!3m6!1s0x3bcd45765b74900f:0xabe4778fa50cba8c!8m2!3d18.9954814!4d79.1537153!16s%2Fg%2F11n25bc1t1!19sChIJD5B0W3ZFzTsRjLoMpY935Ks?authuser=0&hl=en&rclk=1,"18.9954814,79.1537153"
Masjid-e-Quba msjd qb (Syed Sufiyan),Mosque,"Masjid-e-Quba msjd qb (Syed Sufiyan), Vill:Yeshwanthraopet, Mdl:Buggaram, Dist:Jagtial Telangana,India 505454 Contact No:, 7893533269",,"Vill:Yeshwanthraopet, Mdl:Buggaram, Dist:Jagtial Telangana,India 505454 Contact No:",,7893533269,Telangana,IN,https://www.google.com/maps/place/Masjid-e-Quba+%D9%85%D8%B3%D8%AC%D8%AF+%D9%82%D8%A8%D8%A7%D8%A1+%28Syed+Sufiyan%29%E2%80%AD/data=!4m7!3m6!1s0x3bcd3f80eeda3bc1:0xcee56794071ae297!8m2!3d18.845809!4d79.04107!16s%2Fg%2F11h554__jv!19sChIJwTva7oA_zTsRl-IaB5Rn5c4?authuser=0&hl=en&rclk=1,"18.845809,79.04106999999999"
Noori Masjid,Mosque,"3F8M+CFJ Noori Masjid, Bellampalle, Kannal Rural, Telangana 504251",,3F8M+CFJ,"Bellampalle, Kannal Rural",504251,Telangana,IN,https://www.google.com/maps/place/Noori+Masjid/data=!4m7!3m6!1s0x3a32b184aa02b33f:0x94aeef8bbc03886b!8m2!3d19.0660901!4d79.4836267!16s%2Fg%2F11tmz9bq51!19sChIJP7MCqoSxMjoRa4gDvIvvrpQ?authuser=0&hl=en&rclk=1,"19.0660901,79.4836267"
"Mosque , arepalle",Mosque,"327F+R6Q Mosque , arepalle, Arepally Rd, Donthapur, Arpapalle, Telangana 505425",,"327F+R6Q, Arepally Rd","Donthapur, Arpapalle",505425,Telangana,IN,"https://www.google.com/maps/place/Mosque+,+arepalle/data=!4m7!3m6!1s0x3bcd5d8dd8a2592b:0x800db10c518ef6fa!8m2!3d19.0645903!4d79.0231206!16s%2Fg%2F11qg18z79k!19sChIJK1mi2I1dzTsR-vaOUQyxDYA?authuser=0&hl=en&rclk=1","19.0645903,79.0231206"
MADINA MASJID,Mosque,"3F6J+VX8 MADINA MASJID, Bellampalle, Kannal Rural, Telangana 504251",,3F6J+VX8,"Bellampalle, Kannal Rural",504251,Telangana,IN,https://www.google.com/maps/place/MADINA+MASJID/data=!4m7!3m6!1s0x3a32b1efce7442fd:0x32591dc6205d4f85!8m2!3d19.062165!4d79.482443!16s%2Fg%2F11g6mhtm8g!19sChIJ_UJ0zu-xMjoRhU9dIMYdWTI?authuser=0&hl=en&rclk=1,"19.062165,79.482443"
Pangdi masjid,Mosque,"9263+5W Pangdi masjid, Seetagondi, Telangana 504313",,9263+5W,Seetagondi,,Telangana,IN,https://www.google.com/maps/place/Pangdi+masjid/data=!4m7!3m6!1s0x3bd299407103a9bf:0xc33d1edde125fb60!8m2!3d19.3603172!4d79.0060313!16s%2Fg%2F11s57ytdlj!19sChIJv6kDcUCZ0jsRYPsl4d0ePcM?authuser=0&hl=en&rclk=1,"19.3603172,79.00603129999999"
DARGAH HAZRATH SYED SADIQ PUNJABI R.A.,Mosque,"9QFH+82V DARGAH HAZRATH SYED SADIQ PUNJABI R.A., Utnoor Rd, Utnur, Telangana 504311",,"9QFH+82V, Utnoor Rd",Utnur,,Telangana,IN,https://www.google.com/maps/place/DARGAH+HAZRATH+SYED+SADIQ+PUNJABI+R.A./data=!4m7!3m6!1s0x3bd285e8982a5b59:0xa6f27cae7e3b2eb8!8m2!3d19.37336!4d78.7775539!16s%2Fg%2F11q3lkmfrb!19sChIJWVsqmOiF0jsRuC47fq588qY?authuser=0&hl=en&rclk=1,"19.373359999999998,78.7775539"
Masjid,Mosque,"CQ24+936 Masjid, X-Road, Nagapur, Telangana 504311",X-Road,CQ24+936,Nagapur,504311,Telangana,IN,https://www.google.com/maps/place/Masjid/data=!4m7!3m6!1s0x3bd28542302b9163:0x87197ab60c077a2c!8m2!3d19.4009106!4d78.7551464!16s%2Fg%2F11qnl8lv7j!19sChIJY5ErMEKF0jsRLHoHDLZ6GYc?authuser=0&hl=en&rclk=1,"19.4009106,78.7551464"
Masjid-E-Kausar,Mosque,"MG8Q+6M8 Masjid-E-Kausar, Shanti Nagar, Adilabad, Telangana 504001",Shanti Nagar,MG8Q+6M8,Adilabad,504001,Telangana,IN,https://www.google.com/maps/place/Masjid-E-Kausar/data=!4m7!3m6!1s0x3bd25c726cbfffff:0xdcc8a30755b4260c!8m2!3d19.6655322!4d78.5391992!16s%2Fg%2F11txmzh9h_!19sChIJ__-_bHJc0jsRDCa0VQejyNw?authuser=0&hl=en&rclk=1,"19.665532199999998,78.5391992"
JAMA MASJID,Mosque,"GGJ7+3R2 JAMA MASJID, Bazar road, Gudihathinur, Telangana 504308",,"GGJ7+3R2, Bazar road",Gudihathinur,504308,Telangana,IN,https://www.google.com/maps/place/JAMA+MASJID/data=!4m7!3m6!1s0x3bd2679cecb7be7b:0x2adf95c1083f777b!8m2!3d19.5301375!4d78.5145156!16s%2Fg%2F11sq265ndj!19sChIJe7637Jxn0jsRe3c_CMGV3yo?authuser=0&hl=en&rclk=1,"19.5301375,78.5145156"
mdrs sautul khuraan v sunnh,Mosque,"R2WR+5C mdrs sautul khuraan v sunnh, Yeshwanthraopet, Telangana 505454",,R2WR+5C,Yeshwanthraopet,,Telangana,IN,https://www.google.com/maps/place/%E0%B0%AE%E0%B0%A6%E0%B1%8D%E0%B0%B0%E0%B0%B8+%E0%B0%B8%E0%B1%8C%E0%B0%A4%E0%B1%81%E0%B0%B2%E0%B1%8D+%E0%B0%96%E0%B1%81%E0%B0%B0%E0%B0%BE%E0%B0%A8%E0%B1%8D+%E0%B0%B5+%E0%B0%B8%E0%B1%81%E0%B0%A8%E0%B1%8D%E0%B0%A8%E0%B0%B9%E0%B1%8D/data=!4m7!3m6!1s0x3bcd3f97f7f128d5:0x601fa02afc2aa2c1!8m2!3d18.845426!4d79.0411076!16s%2Fg%2F11rkf1fwdg!19sChIJ1Sjx95c_zTsRwaIq_CqgH2A?authuser=0&hl=en&rclk=1,"18.845426,79.04110759999999"
Masjid-e-Khamar,Mosque,"Q4HR+Q75 Masjid-e-Khamar, Cherlapally, Telangana 505526",,Q4HR+Q75,Cherlapally,505526,Telangana,IN,https://www.google.com/maps/place/Masjid-e-Khamar/data=!4m7!3m6!1s0x3bcd390b97b13be1:0x90971362874dc9e7!8m2!3d18.7793854!4d79.1407375!16s%2Fg%2F11sfjnm879!19sChIJ4Tuxlws5zTsR58lNh2ITl5A?authuser=0&hl=en&rclk=1,"18.7793854,79.1407375"
Masjid,Mosque,"Q4F6+VX5 Masjid, Laxmipur, Telangana 505532",,Q4F6+VX5,Laxmipur,505532,Telangana,IN,https://www.google.com/maps/place/Masjid/data=!4m7!3m6!1s0x3bcd398cd87369e5:0xa04dc91ce91f0f04!8m2!3d18.775158!4d79.1120486!16s%2Fg%2F11k4psd7d8!19sChIJ5Wlz2Iw5zTsRBA8f6RzJTaA?authuser=0&hl=en&rclk=1,"18.775157999999998,79.1120486"
"jmaa mjid raaplli, haajipuur",Mosque,"V86F+852 jmaa mjid raaplli, haajipuur, Rapalle Main Rd, Rapalli, Telangana 504209",,"V86F+852, Rapalle Main Rd",Rapalli,504209,Telangana,IN,"https://www.google.com/maps/place/%E0%B0%9C%E0%B0%AE%E0%B0%BE+%E0%B0%AE%E0%B0%9C%E0%B0%BF%E0%B0%A6%E0%B1%8D+%E0%B0%B0%E0%B0%BE%E0%B0%AA%E0%B0%B2%E0%B1%8D%E0%B0%B2%E0%B0%BF,+%E0%B0%B9%E0%B0%BE%E0%B0%9C%E0%B0%BF%E0%B0%AA%E0%B1%82%E0%B0%B0%E0%B1%8D/data=!4m7!3m6!1s0x3bcd359f468c1c01:0xa19743b844253c65!8m2!3d18.8607686!4d79.3228892!16s%2Fg%2F11n_12hnd0!19sChIJARyMRp81zTsRZTwlRLhDl6E?authuser=0&hl=en&rclk=1","18.8607686,79.32288919999999"
MASJID E MUBARAK,Mosque,"P2J9+CQ9 MASJID E MUBARAK, Suddapally, Telangana 505452",,P2J9+CQ9,Suddapally,505452,Telangana,IN,https://www.google.com/maps/place/MASJID+E+MUBARAK/data=!4m7!3m6!1s0x3bcd3d76e7bdd319:0xae325de6eab0e215!8m2!3d18.7310498!4d79.0194722!16s%2Fg%2F11vdnvrgd0!19sChIJGdO953Y9zTsRFeKw6uZdMq4?authuser=0&hl=en&rclk=1,"18.731049799999997,79.0194722"
Jama Masjid 2,Mosque,"Q36J+CQ5 Jama Masjid 2, Thirmalapur (MP), Telangana 505532",,Q36J+CQ5,Thirmalapur (MP),505532,Telangana,IN,https://www.google.com/maps/place/Jama+Masjid+2/data=!4m7!3m6!1s0x3bcd3c235c78c4cd:0xde2472b5bed6f073!8m2!3d18.7610212!4d79.0819766!16s%2Fg%2F11fx8rg0kn!19sChIJzcR4XCM8zTsRc_DWvrVyJN4?authuser=0&hl=en&rclk=1,"18.7610212,79.08197659999999"
Al Falah Grave Yard (Syed Sufiyan),Mosque,"R2WV+P4Q Al Falah Grave Yard (Syed Sufiyan), Karimnagar, Telangana 505454",,R2WV+P4Q,Karimnagar,505454,Telangana,IN,https://www.google.com/maps/place/Al+Falah+Grave+Yard+%28Syed+Sufiyan%29/data=!4m7!3m6!1s0x3bcd3f93471e5cbf:0x1c95af4567907bcd!8m2!3d18.8468479!4d79.042861!16s%2Fg%2F11g6yg1_cx!19sChIJv1weR5M_zTsRzXuQZ0WvlRw?authuser=0&hl=en&rclk=1,"18.8468479,79.042861"
BILALA MASJID,Mosque,"9WF5+HJJ BILALA MASJID, Jainoor, Telangana 504313",,9WF5+HJJ,Jainoor,504313,Telangana,IN,https://www.google.com/maps/place/BILALA+MASJID/data=!4m7!3m6!1s0x3bd29b2e07edb8d3:0xa2580038ac3fd778!8m2!3d19.3739522!4d78.9090191!16s%2Fg%2F11f77_fyxp!19sChIJ07jtBy6b0jsReNc_rDgAWKI?authuser=0&hl=en&rclk=1,"19.373952199999998,78.9090191"
Masjid-e-Umar Faruq,Mosque,"Masjid-e-Umar Faruq, 5-990, near Bhim Nagar, Indervelly, Telangana 504346",,"5-990, near Bhim Nagar",Indervelly,504346,Telangana,IN,https://www.google.com/maps/place/Masjid-e-Umar+Faruq/data=!4m7!3m6!1s0x3bd28977e7eaf70d:0x8258704df043e015!8m2!3d19.4936269!4d78.6706737!16s%2Fg%2F11st_xzdb0!19sChIJDffq53eJ0jsRFeBD8E1wWII?authuser=0&hl=en&rclk=1,"19.4936269,78.6706737"
Jama masjid luxettipet,Mosque,"W656+7GJ Jama masjid luxettipet, Luxettipet, Utukur, Telangana 504215",,W656+7GJ,"Luxettipet, Utukur",504215,Telangana,IN,https://www.google.com/maps/place/Jama+masjid+luxettipet/data=!4m7!3m6!1s0x3bcd495e1c762f25:0xa0cfa07634d3bb03!8m2!3d18.9082189!4d79.2112769!16s%2Fg%2F11vf2fh6z5!19sChIJJS92HF5JzTsRA7vTNHagz6A?authuser=0&hl=en&rclk=1,"18.908218899999998,79.2112769"
Abbubakar masjid,Mosque,"9WG5+JJV Abbubakar masjid, Jainoor, Telangana 504313",,9WG5+JJV,Jainoor,504313,Telangana,IN,https://www.google.com/maps/place/Abbubakar+masjid/data=!4m7!3m6!1s0x3bd29bab25333f2b:0x3b3f437925c3c48c!8m2!3d19.3766247!4d78.909049!16s%2Fg%2F11rs2wxm5k!19sChIJKz8zJaub0jsRjMTDJXlDPzs?authuser=0&hl=en&rclk=1,"19.3766247,78.909049"
Jama masjid,Mosque,"9XX2+F85 Jama masjid, Unnamed Road, Daboli, Telangana 504313",,"9XX2+F85, Unnamed Road",Daboli,504313,Telangana,IN,https://www.google.com/maps/place/Jama+masjid/data=!4m7!3m6!1s0x3bd29962bbeafef3:0x74b0832244550441!8m2!3d19.3986432!4d78.9508508!16s%2Fg%2F11h4v7zns2!19sChIJ8_7qu2KZ0jsRQQRVRCKDsHQ?authuser=0&hl=en&rclk=1,"19.3986432,78.9508508"
MASJID SHANTAPUR,Mosque,"FGFP+C5C MASJID SHANTAPUR, Gudihathnoor Mandal, Shantapur, Telangana 504308",,FGFP+C5C Gudihathnoor Mandal,Shantapur,504308,Telangana,IN,https://www.google.com/maps/place/MASJID+SHANTAPUR/data=!4m7!3m6!1s0x3bd2654db6a04cab:0xf7f3553ee06f6434!8m2!3d19.4739955!4d78.5351779!16s%2Fg%2F11tgc9r3cf!19sChIJq0ygtk1l0jsRNGRv4D5V8_c?authuser=0&hl=en&rclk=1,"19.473995499999997,78.5351779"
Badi masjid,Mosque,"V6M4+6G6 Badi masjid, Luxettipet, Utukur, Telangana 504215",,V6M4+6G6,"Luxettipet, Utukur",504215,Telangana,IN,https://www.google.com/maps/place/Badi+masjid/data=!4m7!3m6!1s0x3bcd4983c8455595:0x967acd0ca59d0e65!8m2!3d18.8830416!4d79.2062597!16s%2Fg%2F11vf2g1rj5!19sChIJlVVFyINJzTsRZQ6dpQzNepY?authuser=0&hl=en&rclk=1,"18.8830416,79.20625969999999"
MOHAMMADIA MASJID,Mosque,"FMVC+JFR MOHAMMADIA MASJID, Heerapur, Indervelly, Telangana",,"FMVC+JFR, Heerapur",Indervelly,,Telangana,IN,https://www.google.com/maps/place/MOHAMMADIA+MASJID/data=!4m7!3m6!1s0x3bd289c55f8ff47d:0x2d649ece3f38847e!8m2!3d19.494116!4d78.6711451!16s%2Fg%2F11fcnd7c7s!19sChIJffSPX8WJ0jsRfoQ4P86eZC0?authuser=0&hl=en&rclk=1,"19.494115999999998,78.67114509999999"
Masjid Umm e Abdul Haadi,Mosque,"Masjid Umm e Abdul Haadi, Vill:Yeshwanthraopet, Yeshwanthraopet, Telangana 505454",,Vill:Yeshwanthraopet,Yeshwanthraopet,505454,Telangana,IN,https://www.google.com/maps/place/Masjid+Umm+e+Abdul+Haadi/data=!4m7!3m6!1s0x3bcd3fddb2cee285:0x4cb16a2946601131!8m2!3d18.8441999!4d79.0432947!16s%2Fg%2F11qnhzfdql!19sChIJheLOst0_zTsRMRFgRilqsUw?authuser=0&hl=en&rclk=1,"18.8441999,79.04329469999999"
Mohemmadia masjid,Mosque,"R5FR+M62 Mohemmadia masjid, Near, Velgatoor, Telangana 505526",,"R5FR+M62, Near",Velgatoor,505526,Telangana,IN,https://www.google.com/maps/place/Mohemmadia+masjid/data=!4m7!3m6!1s0x3bcd396e0c55724d:0x9246d89c35515730!8m2!3d18.8241423!4d79.1905173!16s%2Fg%2F11vj4pvttk!19sChIJTXJVDG45zTsRMFdRNZzYRpI?authuser=0&hl=en&rclk=1,"18.8241423,79.1905173"
MASJID,Mosque,"2PW9+WP9 MASJID, Lingapur, Telangana 504202",,2PW9+WP9,Lingapur,504202,Telangana,IN,https://www.google.com/maps/place/MASJID/data=!4m7!3m6!1s0x3bcd79ab085b9819:0xd6538f30239f99c!8m2!3d19.0472775!4d78.7193685!16s%2Fg%2F11rkf1p6nc!19sChIJGZhbCKt5zTsRnPk5AvM4ZQ0?authuser=0&hl=en&rclk=1,"19.0472775,78.7193685"
MADHINA MASJID,Mosque,"MADHINA MASJID, 3-89, Jagtial - Dharmaram X Rd, near Hanuman Temple, Gullakota, Telangana 505526",,"3-89, Jagtial - Dharmaram X Rd, near Hanuman Temple",Gullakota,505526,Telangana,IN,https://www.google.com/maps/place/MADHINA+MASJID/data=!4m7!3m6!1s0x3bcd3b75753f01b5:0x4e63da8a32d3166d!8m2!3d18.7719137!4d79.1495881!16s%2Fg%2F11kjm5z6l5!19sChIJtQE_dXU7zTsRbRbTMoraY04?authuser=0&hl=en&rclk=1,"18.7719137,79.1495881"
haji malang baba dargah sharif,Mosque,"Q3WR+Q4H haji malang baba dargah sharif, Chilvakodur, Telangana 505532",,Q3WR+Q4H,Chilvakodur,505532,Telangana,IN,https://www.google.com/maps/place/haji+malang+baba+dargah+sharif/data=!4m7!3m6!1s0x3bcd3faf22479545:0x395ef3b44a6c19fb!8m2!3d18.796948!4d79.090369!16s%2Fg%2F11t5jgw9sz!19sChIJRZVHIq8_zTsR-xlsSrTzXjk?authuser=0&hl=en&rclk=1,"18.796948,79.090369"
Masjid-E-Ibrahimia,Mosque,"W3XR+6G5 Masjid-E-Ibrahimia, Dharmapuri Camp, Dharmapuri, Telangana 505425",Dharmapuri Camp,W3XR+6G5,Dharmapuri,505425,Telangana,IN,https://www.google.com/maps/place/Masjid-E-Ibrahimia/data=!4m7!3m6!1s0x3bcd417b204cbc55:0xfcf4ceb2cce74a88!8m2!3d18.9479993!4d79.091359!16s%2Fg%2F11rqh_2269!19sChIJVbxMIHtBzTsRiErnzLLO9Pw?authuser=0&hl=en&rclk=1,"18.9479993,79.091359"
Mosque,Mosque,"Q648+MRH Mosque, Pathagudur, Telangana 505416",,Q648+MRH,Pathagudur,505416,Telangana,IN,https://www.google.com/maps/place/Mosque/data=!4m7!3m6!1s0x3bcd312a04e689b7:0x3ed7debf2c70a13b!8m2!3d18.7566959!4d79.217114!16s%2Fg%2F11fhypx8lq!19sChIJt4nmBCoxzTsRO6FwLL_e1z4?authuser=0&hl=en&rclk=1,"18.7566959,79.217114"
Madeena majhid,Mosque,"X3MQ+P34 Madeena majhid, Unnamed Road, Rajaram, Telangana 505425",,"X3MQ+P34, Unnamed Road",Rajaram,505425,Telangana,IN,https://www.google.com/maps/place/Madeena+majhid/data=!4m7!3m6!1s0x3bcd4361bfcc1b0f:0xfe0d7c8a129ec417!8m2!3d18.9842711!4d79.0876911!16s%2Fg%2F11rb3r6v9n!19sChIJDxvMv2FDzTsRF8SeEop8Df4?authuser=0&hl=en&rclk=1,"18.9842711,79.0876911"
theegala dhrmaram eidgah,Mosque,"224Q+GM9 theegala dhrmaram eidgah, Theegala Dharmaram, Telangana 505454",,224Q+GM9,Theegala Dharmaram,,Telangana,IN,https://www.google.com/maps/place/theegala+dhrmaram+eidgah/data=!4m7!3m6!1s0x3bcd4368ad4018c5:0x790c17ab17e3aaa6!8m2!3d19.0062932!4d79.0392394!16s%2Fg%2F11j92b1npv!19sChIJxRhArWhDzTsRpqrjF6sXDHk?authuser=0&hl=en&rclk=1,"19.006293199999998,79.0392394"
Bilal masjid,Mosque,"3FCR+JFF Bilal masjid, Bellampalle, Telangana 504251",,3FCR+JFF,Bellampalle,504251,Telangana,IN,https://www.google.com/maps/place/Bilal+masjid/data=!4m7!3m6!1s0x3a32b173bceb72cd:0x6207918c86c64f91!8m2!3d19.0715572!4d79.4911758!16s%2Fg%2F11f62g432g!19sChIJzXLrvHOxMjoRkU_GhoyRB2I?authuser=0&hl=en&rclk=1,"19.0715572,79.4911758"
Madina Masjid,Mosque,"W3XW+XWP Madina Masjid, Rotte Venkamma Illu, Dharmapuri, Telangana 505425",Rotte Venkamma Illu,W3XW+XWP,Dharmapuri,505425,Telangana,IN,https://www.google.com/maps/place/Madina+Masjid/data=!4m7!3m6!1s0x3bcd415a95e6aaab:0x91c9672ecbd81a34!8m2!3d18.9499598!4d79.097315!16s%2Fg%2F11txmzj9x5!19sChIJq6rmlVpBzTsRNBrYyy5nyZE?authuser=0&hl=en&rclk=1,"18.9499598,79.097315"
