name,main_category,address,address_ward,address_street,address_city,address_postal_code,address_state,address_country_code,link,coordinates
Natunnagar Jaame Masjid,Mosque,"Natunnagar Jaame Masjid, Natun Nagar Ln, Sarkarpool, Natun Nagar, Benepukur, Maheshtala, West Bengal 700088","Sarkarpool, Natun Nagar, Benepukur",Natun Nagar Ln,Maheshtala,700088,West Bengal,IN,https://www.google.com/maps/place/Natunnagar+Jaame+Masjid/data=!4m7!3m6!1s0x3a027987894b3b19:0xce5dda96002bd8d8!8m2!3d22.5158626!4d88.2931633!16s%2Fg%2F11c4sbxnnp!19sChIJGTtLiYd5AjoR2NgrAJbaXc4?authuser=0&hl=en&rclk=1,"22.5158626,88.29316329999999"
Pachur Mondal Para Ahle- Hadees Jame Masjid,Mosque,"G7QC+33F Pachur Mondal Para Ahle- Hadees Jame Masjid, Panchur Mondal Para, Panchur Mauza, Metiabruz, Maheshtala, West Bengal 700018","Thanderpara Basti, Metiabruz","G7QC+33F, Panchur Mondal Para, Panchur Mauza",Maheshtala,700018,West Bengal,IN,https://www.google.com/maps/place/Pachur+Mondal+Para+Ahle-+Hadees+Jame+Masjid/data=!4m7!3m6!1s0x3a02796b5e7137a7:0xff3fe27524830c63!8m2!3d22.5376896!4d88.2701831!16s%2Fg%2F11b_22x8bg!19sChIJpzdxXmt5AjoRYwyDJHXiP_8?authuser=0&hl=en&rclk=1,"22.5376896,88.2701831"
Markaj Masjid msjd Chandannagar Khan para,Mosque,"Markaj Masjid msjd Chandannagar Khan para, Chandan Nagar, Kolkata, Maheshtala, West Bengal 700140",Chandan Nagar,,"Kolkata, Maheshtala",700140,West Bengal,IN,https://www.google.com/maps/place/Markaj+Masjid+%D9%85%D8%B3%D8%AC%D8%AF+Chandannagar+Khan+para%E2%80%AD/data=!4m7!3m6!1s0x3a027c0f503fd2a9:0x174f30b653d0df70!8m2!3d22.5023675!4d88.240659!16s%2Fg%2F1v1sjms8!19sChIJqdI_UA98AjoRcN_QU7YwTxc?authuser=0&hl=en&rclk=1,"22.5023675,88.240659"
Chalkipara Jumma Masjid (MASJID E AYESHA),Mosque,"Chalkipara Jumma Masjid (MASJID E AYESHA), Subid Ali Rd, Chalkipara, Chatta Kalikapur, Maheshtala, West Bengal 700140","Chalkipara, Chatta Kalikapur",Subid Ali Rd,Maheshtala,700140,West Bengal,IN,https://www.google.com/maps/place/Chalkipara+Jumma+Masjid+%28MASJID+E+AYESHA%29/data=!4m7!3m6!1s0x3a027c73a0801ba3:0xef1e8817f390572c!8m2!3d22.497101!4d88.2442464!16s%2Fg%2F11c0ps860x!19sChIJoxuAoHN8AjoRLFeQ8xeIHu8?authuser=0&hl=en&rclk=1,"22.497101,88.2442464"
Panchur Boro Masjid,Mosque,"G7M8+HP6 Panchur Boro Masjid, Madha, Bidhangarh Ghoshpara, Panchur Mauza, Maheshtala, West Bengal 700066","Bidhangarh Ghoshpara, Panchur Mauza","G7M8+HP6, Madha",Maheshtala,700066,West Bengal,IN,https://www.google.com/maps/place/Panchur+Boro+Masjid/data=!4m7!3m6!1s0x3a02796a38352245:0x4f84cc0dbac21465!8m2!3d22.5344079!4d88.267307!16s%2Fg%2F11b7hj8qph!19sChIJRSI1OGp5AjoRZRTCug3MhE8?authuser=0&hl=en&rclk=1,"22.534407899999998,88.267307"
Mali Para Jame Masjid msjd,Mosque,"G7M7+H7H Mali Para Jame Masjid msjd, Malipara Rd, Bidhangarh Ghoshpara, Panchur Mauza, Maheshtala, West Bengal 700018","Bidhangarh Ghoshpara, Panchur Mauza","G7M7+H7H, Malipara Rd",Maheshtala,700018,West Bengal,IN,https://www.google.com/maps/place/Mali+Para+Jame+Masjid+%D9%85%D8%B3%D8%AC%D8%AF%E2%80%AD/data=!4m7!3m6!1s0x3a0279419d5fd84f:0xe690e9ee62bb523f!8m2!3d22.5339286!4d88.2632294!16s%2Fg%2F1q6j4tpt3!19sChIJT9hfnUF5AjoRP1K7Yu7pkOY?authuser=0&hl=en&rclk=1,"22.5339286,88.2632294"
Masjid-i-Ayesha,Mosque,"G7FF+PHQ Masjid-i-Ayesha, Kata Potti, Makalhati Mauza, Kolkata, Maheshtala, West Bengal 700066","Kata Potti, Makalhati Mauza",G7FF+PHQ,"Kolkata, Maheshtala",700066,West Bengal,IN,https://www.google.com/maps/place/Masjid-i-Ayesha/data=!4m7!3m6!1s0x3a0279651fb543a7:0x71e7be9d89dd6da2!8m2!3d22.5243375!4d88.2739844!16s%2Fg%2F1ygbb7ppj!19sChIJp0O1H2V5AjoRom3diZ2-53E?authuser=0&hl=en&rclk=1,"22.524337499999998,88.27398439999999"
Chakmir Jumma Masjid,Mosque,"G757+8WQ Chakmir Jumma Masjid, Gauripur, Maheshtala, West Bengal 700142",Gauripur,G757+8WQ,Maheshtala,700142,West Bengal,IN,https://www.google.com/maps/place/Chakmir+Jumma+Masjid/data=!4m7!3m6!1s0x3a027be745a9105d:0x8a72b348b3f7d237!8m2!3d22.5083337!4d88.2648552!16s%2Fg%2F1q6jdkm6g!19sChIJXRCpRed7AjoRN9L3s0izcoo?authuser=0&hl=en&rclk=1,"22.508333699999998,88.2648552"
Kankhuli Lal Masjid,Mosque,"Kankhuli Lal Masjid, Kankhuly Rd, Sardar Para, Kankhuli, Santoshpur, Maheshtala, West Bengal 700066","Sardar Para, Kankhuli, Santoshpur",Kankhuly Rd,Maheshtala,700066,West Bengal,IN,https://www.google.com/maps/place/Kankhuli+Lal+Masjid/data=!4m7!3m6!1s0x3a0279e96e5121bb:0xbb8c9c830ac3abb4!8m2!3d22.526756!4d88.2598193!16s%2Fg%2F11nmj535rx!19sChIJuyFRbul5AjoRtKvDCoOcjLs?authuser=0&hl=en&rclk=1,"22.526756,88.25981929999999"
Peerdanga Dargah Masjid,Mosque,"Peerdanga Dargah Masjid, G7G7+QJC, Peerdanga, Metiabruz Kankhuli Rd, Santoshpur Rd, Sardar Para, Panchur Mauza, Kolkata, West Bengal 700066","Sardar Para, Akra, Panchur Mauza","G7G7+QJC, Peerdanga, Metiabruz Kankhuli Rd, Santoshpur Rd","Kolkata, Maheshtala",700066,West Bengal,IN,https://www.google.com/maps/place/Peerdanga+Dargah+Masjid/data=!4m7!3m6!1s0x3a02795d34722d41:0x37a9c33a8ff1600!8m2!3d22.5269275!4d88.2640032!16s%2Fg%2F11bwpyknp7!19sChIJQS1yNF15AjoRABb_qDOcegM?authuser=0&hl=en&rclk=1,"22.5269275,88.26400319999999"
Santoshpur Mollapara Bada Masjid,Mosque,"G799+FM6 Santoshpur Mollapara Bada Masjid, Thandar Para Rd, Thandarpara, Sanpa, Santoshpur, Kolkata, Maheshtala, West Bengal 700140","Thandarpara, Sanpa, Santoshpur","G799+FM6, Thandar Para Rd","Kolkata, Maheshtala",700140,West Bengal,IN,https://www.google.com/maps/place/Santoshpur+Mollapara+Bada+Masjid/data=!4m7!3m6!1s0x3a027961428c8367:0x544290ff5dd725fa!8m2!3d22.5198243!4d88.2696761!16s%2Fg%2F1yg93q4fn!19sChIJZ4OMQmF5AjoR-iXXXf-QQlQ?authuser=0&hl=en&rclk=1,"22.5198243,88.2696761"
AL. Aksha Masjid,Mosque,"AL. Aksha Masjid, Alexa masjid, Akra Station Rd, Jagannathgarh, Kolkata, Maheshtala, West Bengal 700140",Jagannathgarh,"Alexa masjid, Akra Station Rd","Kolkata, Maheshtala",700140,West Bengal,IN,https://www.google.com/maps/place/AL.+Aksha+Masjid/data=!4m7!3m6!1s0x3a0279542621dccb:0x2f345a711562d966!8m2!3d22.514314!4d88.2481363!16s%2Fg%2F11c5rmycsp!19sChIJy9whJlR5AjoRZtliFXFaNC8?authuser=0&hl=en&rclk=1,"22.514314,88.2481363"
Panchur Laskar Para Jame Masjid,Mosque,"Panchur Laskar Para Jame Masjid, Panchur, Laskar Para, Bidhangarh, Metiabruz, Maheshtala, West Bengal 700066","Laskar Para, Bidhangarh, Metiabruz",Panchur,Maheshtala,700066,West Bengal,IN,https://www.google.com/maps/place/Panchur+Laskar+Para+Jame+Masjid/data=!4m7!3m6!1s0x3a027941fa61faa9:0x4942cc554793f309!8m2!3d22.5336366!4d88.2648971!16s%2Fg%2F11b6hyfs33!19sChIJqfph-kF5AjoRCfOTR1XMQkk?authuser=0&hl=en&rclk=1,"22.533636599999998,88.2648971"
Akra Phatak Jama Masjid,Mosque,"G7P4+8J5 Akra Phatak Jama Masjid, Rabindra Nagar Rd, Rabindra Nagar, Panchur Mauza, Maheshtala, West Bengal 700018","Rabindra Nagar, Panchur Mauza","G7P4+8J5, Rabindra Nagar Rd",Maheshtala,700018,West Bengal,IN,https://www.google.com/maps/place/Akra+Phatak+Jama+Masjid/data=!4m7!3m6!1s0x3a0279463259af81:0x351f88c19c611e43!8m2!3d22.5357522!4d88.2566026!16s%2Fg%2F11cjpdr68b!19sChIJga9ZMkZ5AjoRQx5hnMGIHzU?authuser=0&hl=en&rclk=1,"22.535752199999997,88.2566026"
"Masjidul Aksha,South Chatta molla para",Mosque,"F6FV+84Q Masjidul Aksha,South Chatta molla para, Dakhin Chatta Kalikapukur, Maheshtala, West Bengal 700141",Dakhin Chatta Kalikapukur,F6FV+84Q,Maheshtala,700141,West Bengal,IN,"https://www.google.com/maps/place/Masjidul+Aksha,South+Chatta+molla+para/data=!4m7!3m6!1s0x3a027c79333bae81:0x89458ddddf7527f4!8m2!3d22.4733285!4d88.2428745!16s%2Fg%2F11f04nrwzn!19sChIJga47M3l8AjoR9Cd1392NRYk?authuser=0&hl=en&rclk=1","22.473328499999997,88.2428745"
Amlitala jama masjid,Mosque,"G7G4+58W Amlitala jama masjid, Sardar Para, Akra Dutta Bagan, Santoshpur, Maheshtala, West Bengal 700066","Sardar Para, Akra Dutta Bagan, Santoshpur",G7G4+58W,Maheshtala,700066,West Bengal,IN,https://www.google.com/maps/place/Amlitala+jama+masjid/data=!4m7!3m6!1s0x3a02795075599843:0x728b8f257f40cfc9!8m2!3d22.5254862!4d88.2558379!16s%2Fg%2F11c5_gk1_r!19sChIJQ5hZdVB5AjoRyc9AfyWPi3I?authuser=0&hl=en&rclk=1,"22.5254862,88.2558379"
Panch Para Makka Masjid,Mosque,"G7X9+QVR Panch Para Makka Masjid, Panch Para Rd, Metiabruz, Kolkata, West Bengal 700018",Metiabruz,"G7X9+QVR, Panch Para Rd",Kolkata,700018,West Bengal,IN,https://www.google.com/maps/place/Panch+Para+Makka+Masjid/data=!4m7!3m6!1s0x3a02791738dce0db:0x9250b680b95e5a2a!8m2!3d22.5494928!4d88.2696446!16s%2Fg%2F11bcf1nh0w!19sChIJ2-DcOBd5AjoRKlpeuYC2UJI?authuser=0&hl=en&rclk=1,"22.5494928,88.26964459999999"
Masjid E Umar,Mosque,"G66M+7QQ Masjid E Umar, Tentulkuli Road, Atapara, Uludanga, Nangi, Maheshtala, West Bengal 700140","Nangi, Santoshpur","G66M+7QQ, Tentulkuli Road, Atapara, Uludanga",Maheshtala,700140,West Bengal,IN,https://www.google.com/maps/place/Masjid+E+Umar/data=!4m7!3m6!1s0x3a027c1cf26e848d:0xa9bc8cd2d677e90d!8m2!3d22.510709!4d88.2344922!16s%2Fg%2F11dx94q4my!19sChIJjYRu8hx8AjoRDel31tKMvKk?authuser=0&hl=en&rclk=1,"22.510709,88.23449219999999"
Nishchintapu msjid,Mosque,"Nishchintapu msjid, Das Para, Santoshpur, Maheshtala, West Bengal 700140","Das Para, Santoshpur",,Maheshtala,700140,West Bengal,IN,https://www.google.com/maps/place/Nishchintapu+%E0%A6%AE%E0%A6%B8%E0%A6%9C%E0%A6%BF%E0%A6%A6/data=!4m7!3m6!1s0x3a027c1c9d42c951:0xa196457b923914ab!8m2!3d22.5089758!4d88.2346264!16s%2Fg%2F11c6lt_hdq!19sChIJUclCnRx8AjoRqxQ5kntFlqE?authuser=0&hl=en&rclk=1,"22.508975799999998,88.2346264"
Akra Masjid Mess,Mosque,"Akra Masjid Mess, 26/5, Akra Puratan Bazar, Jagannathgarh, Santoshpur, Maheshtala, West Bengal 700140","Akra Puratan Bazar, Jagannathgarh, Santoshpur",26/5,Maheshtala,700140,West Bengal,IN,https://www.google.com/maps/place/Akra+Masjid+Mess/data=!4m7!3m6!1s0x3a027953138de95b:0x1310b1030e8463c3!8m2!3d22.5227769!4d88.2477307!16s%2Fg%2F11bw_749_z!19sChIJW-mNE1N5AjoRw2OEDgOxEBM?authuser=0&hl=en&rclk=1,"22.5227769,88.24773069999999"
Akra Magura Doctor Para Mosque,Mosque,"G67W+7FW Akra Magura Doctor Para Mosque, Jagannathnagar, Akra, Maheshtala, Bengal 700140","Akra, Santoshpur","G67W+7FW, Jagannathnagar",Maheshtala,Bengal 700140,West Bengal,IN,https://www.google.com/maps/place/Akra+Magura+Doctor+Para+Mosque/data=!4m7!3m6!1s0x3a027bff8a154e63:0x48fc64f35a463071!8m2!3d22.5132408!4d88.2461914!16s%2Fg%2F11ddxv5qy_!19sChIJY04Viv97AjoRcTBGWvNk_Eg?authuser=0&hl=en&rclk=1,"22.5132408,88.2461914"
Dighir Paar jama Masjid,Mosque,"Dighir Paar jama Masjid, South Lucky, Itkhola, Kankhuli, Santoshpur, Maheshtala, West Bengal 700066","Itkhola, Kankhuli, Santoshpur",South Lucky,Maheshtala,700066,West Bengal,IN,https://www.google.com/maps/place/Dighir+Paar+jama+Masjid/data=!4m7!3m6!1s0x3a02795a2b6449b1:0xe0866a3127c8a693!8m2!3d22.5214078!4d88.2581119!16s%2Fg%2F11dzts344c!19sChIJsUlkK1p5AjoRk6bIJzFqhuA?authuser=0&hl=en&rclk=1,"22.5214078,88.2581119"
MAKALHATI SK PARA GREEN MASJID added by Sadat Alam,Mosque,"G7QG+W78 MAKALHATI SK PARA GREEN MASJID added by Sadat Alam, Slaughter House Basti, Garden Reach, Maheshtala, West Bengal 700082","Slaughter House Basti, Garden Reach",G7QG+W78,Maheshtala,700082,West Bengal,IN,https://www.google.com/maps/place/MAKALHATI+SK+PARA+GREEN+MASJID+added+by+Sadat+Alam/data=!4m7!3m6!1s0x3a0279129a56ebb5:0xd7e0644411c81f33!8m2!3d22.5412132!4d88.2748442!16s%2Fg%2F11dxddbwwj!19sChIJtetWmhJ5AjoRMx_IEURk4Nc?authuser=0&hl=en&rclk=1,"22.541213199999998,88.27484419999999"
Masjid -e-noor msjd,Mosque,"F6PG+7W3 Masjid -e-noor msjd, Chingripota, Maheshtala, West Bengal 700141",Chingripota,F6PG+7W3,Maheshtala,700141,West Bengal,IN,https://www.google.com/maps/place/Masjid+-e-noor+%D9%85%D8%B3%D8%AC%D8%AF%E2%80%AD/data=!4m7!3m6!1s0x3a027c6a1ac3ee8d:0xed75151cfbcf034!8m2!3d22.48564!4d88.2273123!16s%2Fg%2F11c3k9rxg1!19sChIJje7DGmp8AjoRNPC8z1FR1w4?authuser=0&hl=en&rclk=1,"22.48564,88.2273123"
Khan Para Masjid msjd,Mosque,"Khan Para Masjid msjd, 700140, Jagannathgarh, Maheshtala, West Bengal",Jagannathgarh,700140,Maheshtala,,West Bengal,IN,https://www.google.com/maps/place/Khan+Para+Masjid+%D9%85%D8%B3%D8%AC%D8%AF%E2%80%AD/data=!4m7!3m6!1s0x3a0279561a32f837:0x4829375b12fb1eb1!8m2!3d22.5156421!4d88.2518528!16s%2Fg%2F11dfjswdvc!19sChIJN_gyGlZ5AjoRsR77Els3KUg?authuser=0&hl=en&rclk=1,"22.515642099999997,88.2518528"
Jaita Puraton Masjid,Mosque,"G7F4+P78 Jaita Puraton Masjid, Rd Number I, Sardar Para, Jagannath Nagar, Santoshpur, Bhubaneswar, Maheshtala, West Bengal 751010","Sardar Para, Jagannath Nagar, Santoshpur","G7F4+P78, Rd Number I","Bhubaneswar, Maheshtala",751010,West Bengal,IN,https://www.google.com/maps/place/Jaita+Puraton+Masjid/data=!4m7!3m6!1s0x3a0279507f0e8413:0xf7e1b348e9c4dbc!8m2!3d22.5242791!4d88.2557058!16s%2Fg%2F11c5j700s4!19sChIJE4QOf1B5AjoRvE2cjjQbfg8?authuser=0&hl=en&rclk=1,"22.524279099999998,88.2557058"
Bhangipara Masjid,Mosque,"Bhangipara Masjid, B-318, Ramdas Hati, bhangipara, Maheshtala, West Bengal 700082","Ramdas Hati, bhangipara",B-318,Maheshtala,,West Bengal,IN,https://www.google.com/maps/place/Bhangipara+Masjid/data=!4m7!3m6!1s0x3a0279742ecfb71b:0x17a7a9892bcf1a9f!8m2!3d22.5336125!4d88.282175!16s%2Fg%2F11bw7k2smc!19sChIJG7fPLnR5AjoRnxrPK4mppxc?authuser=0&hl=en&rclk=1,"22.5336125,88.282175"
Mehmanpur Baro Masjid,Mosque,"F6WP+WG4 Mehmanpur Baro Masjid, Memanpur Hospital road,Middey para, Meman Pur,PO.Vivekanandapally, Maheshtala, West Bengal 700139",Balarampur,"F6WP+WG4, Memanpur Hospital road,Middey para, Meman Pur,PO.Vivekanandapally",Maheshtala,700139,West Bengal,IN,https://www.google.com/maps/place/Mehmanpur+Baro+Masjid/data=!4m7!3m6!1s0x3a027df12d0f686f:0xb5f1d0f64a77924f!8m2!3d22.4972513!4d88.2363202!16s%2Fg%2F11f61wgb7p!19sChIJb2gPLfF9AjoRT5J3SvbQ8bU?authuser=0&hl=en&rclk=1,"22.4972513,88.2363202"
Memanpur Masjid-e- Khadija,Mosque,"G62M+3Q9 Memanpur Masjid-e- Khadija, Balarampur, Maheshtala, West Bengal 700140",Balarampur,G62M+3Q9,Maheshtala,700140,West Bengal,IN,https://www.google.com/maps/place/Memanpur+Masjid-e-+Khadija/data=!4m7!3m6!1s0x3a027c10528ad68d:0xaf41e3169e1c937a!8m2!3d22.5001645!4d88.2344815!16s%2Fg%2F11dxg1l11z!19sChIJjdaKUhB8AjoRepMcnhbjQa8?authuser=0&hl=en&rclk=1,"22.5001645,88.2344815"
Akra Krishnanagar Boro Masjid,Mosque,"G68Q+XVC Akra Krishnanagar Boro Masjid, Akra, Krishnanagar, Maheshtala, West Bengal 700140","Akra, Krishnanagar",G68Q+XVC,Maheshtala,700140,West Bengal,IN,https://www.google.com/maps/place/Akra+Krishnanagar+Boro+Masjid/data=!4m7!3m6!1s0x3a027ea9a46a94a3:0x3233c61a187a4b4!8m2!3d22.5174498!4d88.239637!16s%2Fg%2F11f546ymm9!19sChIJo5RqpKl-AjoRtKSHoWE8IwM?authuser=0&hl=en&rclk=1,"22.517449799999998,88.239637"
Mohammadia Jame Masjid,Mosque,"G7GG+7C4 Mohammadia Jame Masjid, South Padirhati, Makalhati Mauza, Maheshtala, West Bengal 700066","South Padirhati, Makalhati Mauza",G7GG+7C4,Maheshtala,700066,West Bengal,IN,https://www.google.com/maps/place/Mohammadia+Jame+Masjid/data=!4m7!3m6!1s0x3a02797ac710358b:0xdb732e49f1342c3b!8m2!3d22.5256321!4d88.2760878!16s%2Fg%2F11g9ghpvxn!19sChIJizUQx3p5AjoROyw08Ukuc9s?authuser=0&hl=en&rclk=1,"22.5256321,88.2760878"
Masjid E Quba,Mosque,"G63P+QGC Masjid E Quba, Molla Para Road, Chandan Nagar, Maheshtala, West Bengal 700140",Chandan Nagar,"G63P+QGC, Molla Para Road",Maheshtala,700140,West Bengal,IN,https://www.google.com/maps/place/Masjid+E+Quba/data=!4m7!3m6!1s0x3a027d37dc0e3bed:0x1a40ce505140b9f0!8m2!3d22.504432!4d88.2362621!16s%2Fg%2F11h2294f1s!19sChIJ7TsO3Dd9AjoR8LlAUVDOQBo?authuser=0&hl=en&rclk=1,"22.504431999999998,88.23626209999999"
Raipur Puratan jame Masjid,Mosque,"F7R2+3M5 Raipur Puratan jame Masjid, Maheshtala, West Bengal 700141",,F7R2+3M5,Maheshtala,700141,West Bengal,IN,https://www.google.com/maps/place/Raipur+Puratan+jame+Masjid/data=!4m7!3m6!1s0x3a027b8cbb7e9ebf:0x38b806ef28c4d4e9!8m2!3d22.4901458!4d88.2517254!16s%2Fg%2F11fxqvz4k8!19sChIJv55-u4x7AjoR6dTEKO8GuDg?authuser=0&hl=en&rclk=1,"22.4901458,88.2517254"
Masjid E Usman msjd,Mosque,"Masjid E Usman msjd, 700140, Uludanga, Maheshtala, West Bengal","Uludanga, Santoshpur",700140,Maheshtala,,West Bengal,IN,https://www.google.com/maps/place/Masjid+E+Usman+%D9%85%D8%B3%D8%AC%D8%AF%E2%80%AD/data=!4m7!3m6!1s0x3a027c03f1c9c3bb:0x90929e66f15376c9!8m2!3d22.5096467!4d88.2404652!16s%2Fg%2F11g691d87_!19sChIJu8PJ8QN8AjoRyXZT8WaekpA?authuser=0&hl=en&rclk=1,"22.509646699999998,88.2404652"
MASJID -E- ABU JAR msjd,Mosque,"F6RP+2HV MASJID -E- ABU JAR msjd, Chakkrisnanagar, Kolkata, Chalkipara, Maheshtala, West Bengal 700141",Chalkipara,"F6RP+2HV, Chakkrisnanagar, Kolkata",Maheshtala,700141,West Bengal,IN,https://www.google.com/maps/place/MASJID+-E-+ABU+JAR+%D9%85%D8%B3%D8%AC%D8%AF%E2%80%AD/data=!4m7!3m6!1s0x3a027c6d58500535:0x4ce542b5b4f807cb!8m2!3d22.4901127!4d88.2364156!16s%2Fg%2F11f126wwkx!19sChIJNQVQWG18AjoRywf4tLVC5Uw?authuser=0&hl=en&rclk=1,"22.490112699999997,88.2364156"
Kazirdanga Jame masjid,Mosque,"G7PJ+FV4 Kazirdanga Jame masjid, Makalhati Mauza, Maheshtala, West Bengal 700024",Makalhati Mauza,G7PJ+FV4,Maheshtala,700024,West Bengal,IN,https://www.google.com/maps/place/Kazirdanga+Jame+masjid/data=!4m7!3m6!1s0x3a027950eeefe2f5:0x2856fe5d5049269f!8m2!3d22.53616!4d88.2823158!16s%2Fg%2F11c453d_30!19sChIJ9eLv7lB5AjoRnyZJUF3-Vig?authuser=0&hl=en&rclk=1,"22.53616,88.28231579999999"
Paharpur Jame Masjid msjd,Mosque,"G7FM+86Q Paharpur Jame Masjid msjd, Calcutta Metropolitan Rd, Rampur, Santoshpur, Maheshtala, West Bengal 700088","Rampur, Santoshpur","G7FM+86Q, Calcutta Metropolitan Rd",Maheshtala,700088,West Bengal,IN,https://www.google.com/maps/place/Paharpur+Jame+Masjid+%D9%85%D8%B3%D8%AC%D8%AF%E2%80%AD/data=!4m7!3m6!1s0x3a027978faa18f55:0x67d3f26b1f9e1a2!8m2!3d22.5233409!4d88.2831167!16s%2Fg%2F1tfh31v0!19sChIJVY-h-nh5AjoRouH5sSY_fQY?authuser=0&hl=en&rclk=1,"22.523340899999997,88.2831167"
Santoshpur Bazarpara Masjid,Mosque,"Santoshpur Bazarpara Masjid, G79G+H66, Santoshpur Station Rd, APJ Abdul Kalam Rd, Rampur, Santoshpur, Maheshtala, West Bengal 700142","Rampur, Santoshpur","G79G+H66, Santoshpur Station Rd, APJ Abdul Kalam Rd",Maheshtala,700142,West Bengal,IN,https://www.google.com/maps/place/Santoshpur+Bazarpara+Masjid/data=!4m7!3m6!1s0x3a027962906b6d67:0x83b10b5a17e4fa54!8m2!3d22.5222235!4d88.2728103!16s%2Fg%2F11hcjzg9ll!19sChIJZ21rkGJ5AjoRVPrkF1oLsYM?authuser=0&hl=en&rclk=1,"22.5222235,88.27281029999999"
Jamadarpara Jumma Masjid,Mosque,"F6HF+PFF Jamadarpara Jumma Masjid, Gumar Gala, Maheshtala, West Bengal 700137",Gumar Gala,F6HF+PFF,Maheshtala,700137,West Bengal,IN,https://www.google.com/maps/place/Jamadarpara+Jumma+Masjid/data=!4m7!3m6!1s0x3a027c432d8fb6c7:0x31543429824300ae!8m2!3d22.4793098!4d88.2236579!16s%2Fg%2F11g021_vfk!19sChIJx7aPLUN8AjoRrgBDgik0VDE?authuser=0&hl=en&rclk=1,"22.4793098,88.22365789999999"
Boga Nowapara Masjid E Muhammad (New Jame Masjid),Mosque,"Boga Nowapara Masjid E Muhammad (New Jame Masjid), 79/381/12, Jagannathgarh, Noapara, Maheshtala, West Bengal 700140","Jagannathgarh, Noapara",79/381/12,Maheshtala,700140,West Bengal,IN,https://www.google.com/maps/place/Boga+Nowapara+Masjid+E+Muhammad+%28New+Jame+Masjid%29/data=!4m7!3m6!1s0x3a027bfe7520fb75:0xc018438083399f8b!8m2!3d22.5134209!4d88.250785!16s%2Fg%2F11dxb0krx2!19sChIJdfsgdf57AjoRi585g4BDGMA?authuser=0&hl=en&rclk=1,"22.5134209,88.250785"
Hussainia Masjid msjd,Mosque,"G69W+3V2 Hussainia Masjid msjd, Akra Station Road,Gaptala, Maheshtala, 700140","Jagannathgarh, Santoshpur","G69W+3V2, Akra Station Road,Gaptala",Maheshtala,700140,West Bengal,IN,https://www.google.com/maps/place/Hussainia+Masjid+%D9%85%D8%B3%D8%AC%D8%AF%E2%80%AD/data=!4m7!3m6!1s0x3a02795523d628c9:0x6e97eed06aeb7ad1!8m2!3d22.517646!4d88.2471562!16s%2Fg%2F11g5zym9dr!19sChIJySjWI1V5AjoR0XrratDul24?authuser=0&hl=en&rclk=1,"22.517646,88.24715619999999"
Masjid-E-Taqwa,Mosque,"Masjid-E-Taqwa, Badamtala Rd, Chunripara, Seba Gram, Ichapur, Maheshtala, West Bengal 700142","Chunripara, Seba Gram, Ichapur",Badamtala Rd,Maheshtala,700142,West Bengal,IN,https://www.google.com/maps/place/Masjid-E-Taqwa/data=!4m7!3m6!1s0x3a027bf5c90de3d1:0xa822fc24a93d4e91!8m2!3d22.495433!4d88.2480481!16s%2Fg%2F11cmszfj5k!19sChIJ0eMNyfV7AjoRkU49qST8Iqg?authuser=0&hl=en&rclk=1,"22.495433,88.24804809999999"
LAL MASJID,Mosque,"LAL MASJID, 700140, Jagannath Nagar, Maheshtala, West Bengal 700141",Jagannath Nagar,700140,Maheshtala,700141,West Bengal,IN,https://www.google.com/maps/place/LAL+MASJID/data=!4m7!3m6!1s0x3a027bfd6fb632bd:0x154f5878008e4d48!8m2!3d22.5149443!4d88.2572129!16s%2Fg%2F11fx91fln5!19sChIJvTK2b_17AjoRSE2OAHhYTxU?authuser=0&hl=en&rclk=1,"22.5149443,88.2572129"
Masjid-E-Baitul Fazl,Mosque,"Masjid-E-Baitul Fazl, P.O, Sardar Para, Jagannath Nagar, Thana, Maheshtala, West Bengal 700140","Sardar Para, Jagannath Nagar, Thana",P.O,Maheshtala,700140,West Bengal,IN,https://www.google.com/maps/place/Masjid-E-Baitul+Fazl/data=!4m7!3m6!1s0x3a027950ba3215b3:0x36d744440db74b0d!8m2!3d22.5219821!4d88.2549539!16s%2Fg%2F11c2yflbqq!19sChIJsxUyulB5AjoRDUu3DURE1zY?authuser=0&hl=en&rclk=1,"22.5219821,88.25495389999999"
Mirpara masjid,Mosque,"G7H5+3JJ Mirpara masjid, Kankhuli, Santoshpur, Maheshtala, Kolkata, West Bengal 700066","Kankhuli, Santoshpur",G7H5+3JJ,"Maheshtala, Kolkata",700066,West Bengal,IN,https://www.google.com/maps/place/Mirpara+masjid/data=!4m7!3m6!1s0x3a027944cf6eddd7:0xf02380af3c189756!8m2!3d22.5277125!4d88.2590156!16s%2Fg%2F11gcmp_27k!19sChIJ191uz0R5AjoRVpcYPK-AI_A?authuser=0&hl=en&rclk=1,"22.5277125,88.2590156"
Alampur New Masjid,Mosque,"G7JP+845 Alampur New Masjid, Alampur Ramdashati Po - Garden Reach, Ps, Rabindra Nagar, Maheshtala, 700024","Ramdas Hati, Rabindra Nagar","G7JP+845, Alampur Ramdashati Po - Garden Reach, Ps",Maheshtala,700024,West Bengal,IN,https://www.google.com/maps/place/Alampur+New+Masjid/data=!4m7!3m6!1s0x3a027957897dee6d:0x84096ca56c4892ad!8m2!3d22.5307609!4d88.2853701!16s%2Fg%2F11rhz5qgdy!19sChIJbe59iVd5AjoRrZJIbKVsCYQ?authuser=0&hl=en&rclk=1,"22.5307609,88.2853701"
Noor Masjid,Mosque,"Noor Masjid, New, Aynal Para Rd, Sanpa, Santoshpur, Maheshtala, Kolkata, West Bengal 700142","Sanpa, Santoshpur","New, Aynal Para Rd","Maheshtala, Kolkata",700142,West Bengal,IN,https://www.google.com/maps/place/Noor+Masjid/data=!4m7!3m6!1s0x3a02795e76e933f9:0xa2f30518b81e912d!8m2!3d22.5219384!4d88.2666104!16s%2Fg%2F11c1ql58f_!19sChIJ-TPpdl55AjoRLZEeuBgF86I?authuser=0&hl=en&rclk=1,"22.5219384,88.26661039999999"
Uttor Jalkhura baro Masjid,Mosque,"G65R+3RF Uttor Jalkhura baro Masjid, Dakghar, Jalkhura, Halderpara, Maheshtala, West Bengal 700141",Darji Para,"G65R+3RF, Dakghar, Jalkhura, Halderpara, Maheshtala",Maheshtala,700141,West Bengal,IN,https://www.google.com/maps/place/Uttor+Jalkhura+baro+Masjid/data=!4m7!3m6!1s0x3a027c06bdd6ba23:0xc28450fc1fc4b70f!8m2!3d22.5076825!4d88.2420597!16s%2Fg%2F11dxd3mcsn!19sChIJI7rWvQZ8AjoRD7fEH_xQhMI?authuser=0&hl=en&rclk=1,"22.507682499999998,88.2420597"
Nungi Chalk Chandul Jame Masjid,Double glazing installer,"Nungi Chalk Chandul Jame Masjid, Nangi, Batanagar, Maheshtala, West Bengal 700140","Nangi, Batanagar",,Maheshtala,700140,West Bengal,IN,https://www.google.com/maps/place/Nungi+Chalk+Chandul+Jame+Masjid/data=!4m7!3m6!1s0x3a027d5744d9c5cd:0x49c49737a1d9b686!8m2!3d22.5098459!4d88.21024!16s%2Fg%2F11gj19g3yk!19sChIJzcXZRFd9AjoRhrbZoTeXxEk?authuser=0&hl=en&rclk=1,"22.5098459,88.21024"
Khanpara Masjid,Mosque,"F6MR+J66 Khanpara Masjid, Chalkipara, Maheshtala, West Bengal 700141",Chalkipara,F6MR+J66,Maheshtala,700141,West Bengal,IN,https://www.google.com/maps/place/Khanpara+Masjid/data=!4m7!3m6!1s0x3a027c714678a64b:0xd1b2e9b3e49a0ad3!8m2!3d22.4840415!4d88.2405115!16s%2Fg%2F11c6013v89!19sChIJS6Z4RnF8AjoR0wqa5LPpstE?authuser=0&hl=en&rclk=1,"22.4840415,88.2405115"
Chatta Ahle Sunnat Karbala Jumma Masjid,Mosque,"F6MV+5GF Chatta Ahle Sunnat Karbala Jumma Masjid, Karbala Ln, Chata Kalikapur, Maheshtala, West Bengal 700140",Chata Kalikapur,"F6MV+5GF, Karbala Ln",Maheshtala,700140,West Bengal,IN,https://www.google.com/maps/place/Chatta+Ahle+Sunnat+Karbala+Jumma+Masjid/data=!4m7!3m6!1s0x3a027c76576385c9:0x38f31d46e594d74b!8m2!3d22.4829488!4d88.2438074!16s%2Fg%2F11fxc11p03!19sChIJyYVjV3Z8AjoRS9eU5UYd8zg?authuser=0&hl=en&rclk=1,"22.4829488,88.2438074"
RAHAMANIA MASJID msjd,Mosque,"RAHAMANIA MASJID msjd, 700140, Jagannathgarh, Maheshtala, West Bengal",Jagannathgarh,700140,Maheshtala,,West Bengal,IN,https://www.google.com/maps/place/RAHAMANIA+MASJID+%D9%85%D8%B3%D8%AC%D8%AF%E2%80%AD/data=!4m7!3m6!1s0x3a027bff778b0f2b:0x50eda11b87a6afd8!8m2!3d22.511935!4d88.2467392!16s%2Fg%2F11fxwbf3_1!19sChIJKw-Ld_97AjoR2K-mhxuh7VA?authuser=0&hl=en&rclk=1,"22.511934999999998,88.2467392"
Masjid e Sumaiyya,Mosque,"G66Q+959 Masjid e Sumaiyya, Sekh Para Road Sekh Para Road, Akra, KRISHNA NAGAR, Maheshtala, West Bengal 700140","Akra, KRISHNA NAGAR","G66Q+959, Sekh Para Road Sekh Para Road",Maheshtala,700140,West Bengal,IN,https://www.google.com/maps/place/Masjid+e+Sumaiyya/data=!4m7!3m6!1s0x3a027c0311affcef:0x12c6389c4d6835b4!8m2!3d22.5109209!4d88.2379822!16s%2Fg%2F11g690ct5y!19sChIJ7_yvEQN8AjoRtDVoTZw4xhI?authuser=0&hl=en&rclk=1,"22.5109209,88.23798219999999"
Bagmari Jame Masjid,Mosque,"G63W+CJ8 Bagmari Jame Masjid, Banerjee Hat, Maheshtala, West Bengal 700140",Banerjee Hat,G63W+CJ8,Maheshtala,,West Bengal,IN,https://www.google.com/maps/place/Bagmari+Jame+Masjid/data=!4m7!3m6!1s0x3a027b82d94f35bd:0x2cd2db270b65f31b!8m2!3d22.5035333!4d88.2465631!16s%2Fg%2F11f9_ddk__!19sChIJvTVP2YJ7AjoRG_NlCyfb0iw?authuser=0&hl=en&rclk=1,"22.503533299999997,88.2465631"
Bata Mosque msjd,Mosque,"Bata Mosque msjd, 9/12, Bata Nagar Officers Quarters, Pal para, Batanagar, Maheshtala, West Bengal 700140","Bata Nagar Officers Quarters, Pal para, Batanagar",9/12,Maheshtala,700140,West Bengal,IN,https://www.google.com/maps/place/Bata+Mosque+%D9%85%D8%B3%D8%AC%D8%AF%E2%80%AD/data=!4m7!3m6!1s0x3a027c27eeedb5af:0x5e66aebc738b0c3b!8m2!3d22.5137736!4d88.2176735!16s%2Fg%2F11cknp80k6!19sChIJr7Xt7id8AjoROwyLc7yuZl4?authuser=0&hl=en&rclk=1,"22.5137736,88.21767349999999"
Akra Dutalla Masjid msjd,Mosque,"G67X+C6X Akra Dutalla Masjid msjd, Akra Station Rd, Akra, Maheshtala, West Bengal 700141",Akra,"G67X+C6X, Akra Station Rd",Maheshtala,700141,West Bengal,IN,https://www.google.com/maps/place/Akra+Dutalla+Masjid+%D9%85%D8%B3%D8%AC%D8%AF%E2%80%AD/data=!4m7!3m6!1s0x3a027bffc9ce91d9:0x8a70a9d245c09e22!8m2!3d22.5136038!4d88.2481179!16s%2Fg%2F11cp5fy5dl!19sChIJ2ZHOyf97AjoRIp7ARdKpcIo?authuser=0&hl=en&rclk=1,"22.5136038,88.2481179"
Masjid-e-tayeba,Mosque,"F6VX+3HH Masjid-e-tayeba, sekh para, Badamtala Rd, Potoldanga, Chata Kalikapur, Maheshtala, West Bengal 700140","Potoldanga, Chata Kalikapur","F6VX+3HH, sekh para, Badamtala Rd",Maheshtala,700140,West Bengal,IN,https://www.google.com/maps/place/Masjid-e-tayeba/data=!4m7!3m6!1s0x3a027bc3a1ae8b5b:0x38bf085cd38284d6!8m2!3d22.4926776!4d88.2489923!16s%2Fg%2F11f5t3wl4n!19sChIJW4uuocN7AjoR1oSC01wIvzg?authuser=0&hl=en&rclk=1,"22.4926776,88.2489923"
Masjid E Baitur Rahman,Mosque,"F6RP+H36 Masjid E Baitur Rahman, Chingripota, Gzir Ghol, Maheshtala, West Bengal 700141","Chingripota, Gzir Ghol",F6RP+H36,Maheshtala,,West Bengal,IN,https://www.google.com/maps/place/Masjid+E+Baitur+Rahman/data=!4m7!3m6!1s0x3a027c12ca03f0a7:0x28a14316bc43afb4!8m2!3d22.49141!4d88.2351433!16s%2Fg%2F11gdzp0_ht!19sChIJp_ADyhJ8AjoRtK9DvBZDoSg?authuser=0&hl=en&rclk=1,"22.49141,88.23514329999999"
Purba Raipur Notun Masjid,Mosque,"F7Q3+P6Q Purba Raipur Notun Masjid, Raipur Muftipara, Raipur Link Rd, Maheshtala, 700141",,"F7Q3+P6Q, Raipur Muftipara, Raipur Link Rd",Maheshtala,700141,West Bengal,IN,https://www.google.com/maps/place/Purba+Raipur+Notun+Masjid/data=!4m7!3m6!1s0x3a027b8ce6fd9d89:0x529fa063805a70f7!8m2!3d22.489345!4d88.2531125!16s%2Fg%2F11f384k9sn!19sChIJiZ395ox7AjoR93BagGOgn1I?authuser=0&hl=en&rclk=1,"22.489345,88.2531125"
Masjid E Ibrahim msjd,Mosque,"Masjid E Ibrahim msjd, 700137, Chak Nabasan, Maheshtala, West Bengal",Chak Nabasan,700137,"Maheshtala, Rameshwerpur",,West Bengal,IN,https://www.google.com/maps/place/Masjid+E+Ibrahim+%D9%85%D8%B3%D8%AC%D8%AF%E2%80%AD/data=!4m7!3m6!1s0x3a027cf5a3aca9a1:0x85399b2909af5cb0!8m2!3d22.4654971!4d88.223813!16s%2Fg%2F11cs2c6gj_!19sChIJoamso_V8AjoRsFyvCSmbOYU?authuser=0&hl=en&rclk=1,"22.4654971,88.22381299999999"
Beledanga Mosque,Mosque,"F7RM+3J2 Beledanga Mosque, Beledanga Rd, Behala Mauza, Maheshtala, West Bengal 700061",Behala Mauza,"F7RM+3J2, Beledanga Rd",Maheshtala,700061,West Bengal,IN,https://www.google.com/maps/place/Beledanga+Mosque/data=!4m7!3m6!1s0x3a027bd7328ef7a5:0xa8eaf16bbe7f6f39!8m2!3d22.4901483!4d88.2840152!16s%2Fg%2F11h6qkwz7x!19sChIJpfeOMtd7AjoROW9_vmvx6qg?authuser=0&hl=en&rclk=1,"22.490148299999998,88.2840152"
Madina Masjid Akra,Mosque,"G764+M48 Madina Masjid Akra, Unnamed Road, Jagannathgarh, Maheshtala, West Bengal 700140",Jagannathgarh,"G764+M48, Unnamed Road",Maheshtala,700140,West Bengal,IN,https://www.google.com/maps/place/Madina+Masjid+Akra/data=!4m7!3m6!1s0x3a027bfcd0eb5ac1:0x2c408dbf3fc83b10!8m2!3d22.5116654!4d88.255341!16s%2Fg%2F11ggszfwb6!19sChIJwVrr0Px7AjoREDvIP7-NQCw?authuser=0&hl=en&rclk=1,"22.5116654,88.255341"
Masjid-E-Hamja,Mosque,"F6VM+MJ7 Masjid-E-Hamja, Balarampur, Maheshtala, West Bengal 700141",Balarampur,F6VM+MJ7,Maheshtala,700141,West Bengal,IN,https://www.google.com/maps/place/Masjid-E-Hamja/data=!4m7!3m6!1s0x3a027c125516d7c1:0xc1b4468e3d03de25!8m2!3d22.4941539!4d88.2340406!16s%2Fg%2F11dzt3sdvd!19sChIJwdcWVRJ8AjoRJd4DPY5GtME?authuser=0&hl=en&rclk=1,"22.4941539,88.2340406"
Masjid E Belal,Mosque,"F6JF+PVQ Masjid E Belal, Gumar Gala, Maheshtala, West Bengal 700137",Gumar Gala,F6JF+PVQ,Maheshtala,700137,West Bengal,IN,https://www.google.com/maps/place/Masjid+E+Belal/data=!4m7!3m6!1s0x3a027c42f83b0701:0x651818a54b15e4c2!8m2!3d22.4818349!4d88.2247459!16s%2Fg%2F11gffczlv2!19sChIJAQc7-EJ8AjoRwuQVS6UYGGU?authuser=0&hl=en&rclk=1,"22.4818349,88.2247459"
Alampur Jama Masjid,Mosque,"Alampur Jama Masjid, C/113, Shibtala Ln, Makalhati Mauza, Alampur, Maheshtala, West Bengal 700066",Makalhati Mauza,"C/113, Shibtala Ln","Alampur, Maheshtala",700066,West Bengal,IN,https://www.google.com/maps/place/Alampur+Jama+Masjid/data=!4m7!3m6!1s0x3a02791ded701417:0x696616c86b039e4a!8m2!3d22.5286754!4d88.2852098!16s%2Fg%2F11ghtnc0g7!19sChIJFxRw7R15AjoRSp4Da8gWZmk?authuser=0&hl=en&rclk=1,"22.528675399999997,88.28520979999999"
MADINA MASJID,Mosque,"MADINA MASJID, Dhoba Para Basti, Garden Reach, Kolkata, Maheshtala, West Bengal 700082","Dhoba Para Basti, Garden Reach",,"Kolkata, Maheshtala",700082,West Bengal,IN,https://www.google.com/maps/place/MADINA+MASJID/data=!4m7!3m6!1s0x3a027952c78423d9:0x8bee1a583000929a!8m2!3d22.5400625!4d88.2743125!16s%2Fg%2F11fjy4lhft!19sChIJ2SOEx1J5AjoRmpIAMFga7os?authuser=0&hl=en&rclk=1,"22.540062499999998,88.2743125"
"Uttar Jalkhura, Chotto Masjid msjd",Mosque,"Uttar Jalkhura, Chotto Masjid msjd, 700140, Darji Para, Maheshtala, West Bengal",Darji Para,700140,Maheshtala,,West Bengal,IN,"https://www.google.com/maps/place/Uttar+Jalkhura,+Chotto+Masjid+%D9%85%D8%B3%D8%AC%D8%AF%E2%80%AD/data=!4m7!3m6!1s0x3a027c07a9d4418b:0xd2e53aaae26aeca8!8m2!3d22.5060349!4d88.2441277!16s%2Fg%2F11fzf65wld!19sChIJi0HUqQd8AjoRqOxq4qo65dI?authuser=0&hl=en&rclk=1","22.5060349,88.24412769999999"
Masjid-E-Eliyas msjd,Mosque,"Masjid-E-Eliyas msjd, Rameshwarpur, 700140, Dakhin Chatta Kalikapukur, Maheshtala, West Bengal",Dakhin Chatta Kalikapukur,"Rameshwarpur, 700140","Maheshtala, Chatta Rameshwarpur",,West Bengal,IN,https://www.google.com/maps/place/Masjid-E-Eliyas+%D9%85%D8%B3%D8%AC%D8%AF%E2%80%AD/data=!4m7!3m6!1s0x3a027c63a165c269:0x52e7e488ce4e337d!8m2!3d22.4713643!4d88.2336633!16s%2Fg%2F11gclyp3v9!19sChIJacJloWN8AjoRfTNOzojk51I?authuser=0&hl=en&rclk=1,"22.471364299999998,88.23366329999999"
Daktar Para Masjid,Mosque,"G67X+WJ4 Daktar Para Masjid, Jagannathgarh, Akra, Maheshtala, West Bengal 700140",Jagannathgarh,"G67X+WJ4, Jagannathgarh, Akra",Maheshtala,700140,West Bengal,IN,https://www.google.com/maps/place/Daktar+Para+Masjid/data=!4m7!3m6!1s0x3a027bfe28c05149:0xfb6c56ce5b3d21b1!8m2!3d22.5147532!4d88.2490764!16s%2Fg%2F11f0k_9k3j!19sChIJSVHAKP57AjoRsSE9W85WbPs?authuser=0&hl=en&rclk=1,"22.514753199999998,88.24907639999999"
Masjid e Khadija Fakirpara,Mosque,"G789+46X Masjid e Khadija Fakirpara, Fakir Para Rd, Rampur, Santoshpur, Maheshtala, Kolkata, West Bengal 700142","Rampur, Santoshpur","G789+46X, Fakir Para Rd","Maheshtala, Kolkata",700142,West Bengal,IN,https://www.google.com/maps/place/Masjid+e+Khadija+Fakirpara/data=!4m7!3m6!1s0x3a0279603f077a2b:0xc9e7182491031236!8m2!3d22.5153695!4d88.268098!16s%2Fg%2F11g6xp7h_x!19sChIJK3oHP2B5AjoRNhIDkSQY58k?authuser=0&hl=en&rclk=1,"22.5153695,88.268098"
Alampur Old Masjid,Mosque,"G7JQ+P9W Alampur Old Masjid, Ramdas Hati, Garden Reach, Maheshtala, West Bengal 700066","Ramdas Hati, Garden Reach",G7JQ+P9W,Maheshtala,700066,West Bengal,IN,https://www.google.com/maps/place/Alampur+Old+Masjid/data=!4m7!3m6!1s0x3a0279158751e90b:0xfac8734c46953879!8m2!3d22.5318745!4d88.288462!16s%2Fg%2F11fhrhtzc1!19sChIJC-lRhxV5AjoReTiVRkxzyPo?authuser=0&hl=en&rclk=1,"22.5318745,88.288462"
masjid e baitul mamur,Mosque,"F6VM+52F masjid e baitul mamur, Balarampur, Maheshtala, West Bengal 700141",Balarampur,F6VM+52F,Maheshtala,700141,West Bengal,IN,https://www.google.com/maps/place/masjid+e+baitul+mamur/data=!4m7!3m6!1s0x3a027d5d7a615d51:0x20e1743a7e3c5207!8m2!3d22.4929332!4d88.2325443!16s%2Fg%2F11fkf0m9dv!19sChIJUV1hel19AjoRB1I8fjp04SA?authuser=0&hl=en&rclk=1,"22.4929332,88.2325443"
Darus Salam Masjid,Mosque,"G762+V98 Darus Salam Masjid, Jagannathgarh, Noapara, Maheshtala, West Bengal 700140","Jagannathgarh, Noapara",G762+V98,Maheshtala,700140,West Bengal,IN,https://www.google.com/maps/place/Darus+Salam+Masjid/data=!4m7!3m6!1s0x3a027be236f6e1a1:0x9d4debf2bef02de7!8m2!3d22.5121594!4d88.2509588!16s%2Fg%2F11g1fz2lj9!19sChIJoeH2NuJ7AjoR5y3wvvLrTZ0?authuser=0&hl=en&rclk=1,"22.512159399999998,88.25095879999999"
Gabtala Masjid Property,Mosque,"Gabtala Masjid Property, V268, Gabtala Rd, Talpukur Ara, Metiabruz, Maheshtala, West Bengal 700018","Talpukur Ara, Metiabruz","V268, Gabtala Rd",Maheshtala,700018,West Bengal,IN,https://www.google.com/maps/place/Gabtala+Masjid+Property/data=!4m7!3m6!1s0x3a027941cf183f75:0x645ebaf395073be9!8m2!3d22.5354!4d88.2647612!16s%2Fg%2F11c2q41_cs!19sChIJdT8Yz0F5AjoR6TsHlfO6XmQ?authuser=0&hl=en&rclk=1,"22.5354,88.2647612"
Chakmir Azad Nagar Ghousia Masjid,Mosque,"Chakmir Azad Nagar Ghousia Masjid, Govindapur, Benepukur, Maheshtala, West Bengal 700140","Govindapur, Benepukur",,Maheshtala,700140,West Bengal,IN,https://www.google.com/maps/place/Chakmir+Azad+Nagar+Ghousia+Masjid/data=!4m7!3m6!1s0x3a027bcba7012d41:0x1396b228cbe973f9!8m2!3d22.5078898!4d88.2668794!16s%2Fg%2F11j0b3s3w2!19sChIJQS0Bp8t7AjoR-XPpyyiylhM?authuser=0&hl=en&rclk=1,"22.507889799999997,88.2668794"
Masjid E Ali E Murtaza,Mosque,"G66Q+RC4 Masjid E Ali E Murtaza, Shaikhpara, Akra, Krishnanagar, Maheshtala, West Bengal 700140","Akra, Krishnanagar","G66Q+RC4, Shaikhpara",Maheshtala,700140,West Bengal,IN,https://www.google.com/maps/place/Masjid+E+Ali+E+Murtaza/data=!4m7!3m6!1s0x3a027de3bca51501:0xb672d36fcfa64608!8m2!3d22.5120215!4d88.2385694!16s%2Fg%2F11hfg0_bhk!19sChIJARWlvON9AjoRCEamz2_TcrY?authuser=0&hl=en&rclk=1,"22.5120215,88.2385694"
Baro Bagan Masjid,Mosque,"G7HF+VR Baro Bagan Masjid, Makalhati Mauza, Maheshtala, West Bengal 700066",Makalhati Mauza,G7HF+VR,Maheshtala,700066,West Bengal,IN,https://www.google.com/maps/place/Baro+Bagan+Masjid/data=!4m7!3m6!1s0x3a02798eaa537b81:0xe45286215d77d5f8!8m2!3d22.5297956!4d88.274595!16s%2Fg%2F11rmz_tkqf!19sChIJgXtTqo55AjoR-NV3XSGGUuQ?authuser=0&hl=en&rclk=1,"22.5297956,88.27459499999999"
Satghara Notun Masjid,Mosque,"G7H4+4RC Satghara Notun Masjid, Kankhuli, Santoshpur, Satghara, Maheshtala, West Bengal 700140","Kankhuli, Santoshpur",G7H4+4RC,"Satghara, Maheshtala",,West Bengal,IN,https://www.google.com/maps/place/Satghara+Notun+Masjid/data=!4m7!3m6!1s0x3a02799e88be007d:0x39bc88756031f069!8m2!3d22.5278185!4d88.2570295!16s%2Fg%2F11gy696rk1!19sChIJfQC-iJ55AjoRafAxYHWIvDk?authuser=0&hl=en&rclk=1,"22.5278185,88.2570295"
Masjid-E-Belal,Mosque,"G66X+X73 Masjid-E-Belal, Akra Station Rd, Jagannathgarh, Maheshtala, West Bengal 700141",Jagannathgarh,"G66X+X73, Akra Station Rd",Maheshtala,700141,West Bengal,IN,https://www.google.com/maps/place/Masjid-E-Belal/data=!4m7!3m6!1s0x3a027b1619ba79dd:0x7b61cc6a76bfa606!8m2!3d22.5123822!4d88.2481741!16s%2Fg%2F11h79kr1fg!19sChIJ3Xm6GRZ7AjoRBqa_dmrMYXs?authuser=0&hl=en&rclk=1,"22.512382199999998,88.2481741"
AL AMIN MASJID,Mosque,"AL AMIN MASJID, 700140, Jagannathgarh, Maheshtala, West Bengal","Jagannathgarh, Santoshpur",700140,Maheshtala,,West Bengal,IN,https://www.google.com/maps/place/AL+AMIN+MASJID/data=!4m7!3m6!1s0x3a027bffdc218dc3:0xd27e717b07572a5c!8m2!3d22.5146303!4d88.2475731!16s%2Fg%2F11d_d0rsnw!19sChIJw40h3P97AjoRXCpXB3txftI?authuser=0&hl=en&rclk=1,"22.5146303,88.2475731"
AkraFatak Phool Talab Noori Masjid,Mosque,"G7M2+V52 AkraFatak Phool Talab Noori Masjid, Dakshinee Housing Estate Phase -II, Kolkata, Maheshtala, West Bengal 700044",Dakshinee Housing Estate Phase -II,G7M2+V52,"Kolkata, Maheshtala",700044,West Bengal,IN,https://www.google.com/maps/place/AkraFatak+Phool+Talab+Noori+Masjid/data=!4m7!3m6!1s0x3a027911b610e37f:0x984b4fa8ea293557!8m2!3d22.5346439!4d88.2504036!16s%2Fg%2F11llhqm23d!19sChIJf-MQthF5AjoRVzUp6qhPS5g?authuser=0&hl=en&rclk=1,"22.5346439,88.2504036"
Bidhangarh Masjid msjd bydhnjrh,Mosque,"G7G8+2FJ Bidhangarh Masjid msjd bydhnjrh, South Bidhangarh Jala, Kankhuli, Santoshpur, Metiabruz, Constituency, Maheshtala, West Bengal 700066","Akra, Constituency","G7G8+2FJ, South Bidhangarh Jala, Kankhuli, Santoshpur, Metiabruz",Maheshtala,700066,West Bengal,IN,https://www.google.com/maps/place/Bidhangarh+Masjid+%D9%85%D8%B3%D8%AC%D8%AF+%D8%A8%D9%8A%D8%AF%D9%87%D8%A7%D9%86%D8%AC%D8%A7%D8%B1%D9%87%E2%80%AD/data=!4m7!3m6!1s0x3a0279678fcd1a57:0xebd83b39ce21cb5a!8m2!3d22.5250862!4d88.2661471!16s%2Fg%2F11hcncnxm_!19sChIJVxrNj2d5AjoRWsshzjk72Os?authuser=0&hl=en&rclk=1,"22.5250862,88.2661471"
Panch Masjid (paaNc msjid),Religious destination,"F6CV+QH7 Panch Masjid (paaNc msjid), Subid Ali Rd, Dakhin, Chata Kalikapur, Maheshtala, West Bengal 700140","Dakhin, Chata Kalikapur","F6CV+QH7, Subid Ali Rd",Maheshtala,700140,West Bengal,IN,https://www.google.com/maps/place/Panch+Masjid+%28%E0%A6%AA%E0%A6%BE%E0%A6%81%E0%A6%9A+%E0%A6%AE%E0%A6%B8%E0%A6%9C%E0%A6%BF%E0%A6%A6%29/data=!4m7!3m6!1s0x3a027d551476e90b:0x3db411e27e723e72!8m2!3d22.4719031!4d88.2439252!16s%2Fg%2F11rfrwcb04!19sChIJC-l2FFV9AjoRcj5yfuIRtD0?authuser=0&hl=en&rclk=1,"22.4719031,88.24392519999999"
msjd qSy Masjid e Aqsa msjide aaksaa,Mosque,"G65W+MMF msjd qSy Masjid e Aqsa msjide aaksaa, Dakghar Akra Rd, Jagannathgarh, Maheshtala, West Bengal 700140",Jagannathgarh,"G65W+MMF, Dakghar Akra Rd",Maheshtala,700140,West Bengal,IN,https://www.google.com/maps/place/%D9%85%D8%B3%D8%AC%D8%AF+%D8%A7%D9%82%D8%B5%DB%8C%D9%B0+Masjid+e+Aqsa+%E0%A6%AE%E0%A6%B8%E0%A6%9C%E0%A6%BF%E0%A6%A6%E0%A7%87+%E0%A6%86%E0%A6%95%E0%A6%B8%E0%A6%BE%E2%80%AD/data=!4m7!3m6!1s0x3a027b8082d3037b:0x622f91b7899d04c2!8m2!3d22.5091766!4d88.2466638!16s%2Fg%2F11rgdcgpb3!19sChIJewPTgoB7AjoRwgSdibeRL2I?authuser=0&hl=en&rclk=1,"22.5091766,88.2466638"
Masjid e Huzur TajushSharaih,Mosque,"Masjid e Huzur TajushSharaih, 43, Jagannathgarh, Maheshtala, West Bengal 700140",Jagannathgarh,43,Maheshtala,700140,West Bengal,IN,https://www.google.com/maps/place/Masjid+e+Huzur+TajushSharaih/data=!4m7!3m6!1s0x3a027985ab1dcdbb:0xbb8c5f797b377ce4!8m2!3d22.5167363!4d88.2646445!16s%2Fg%2F11h07pdd7q!19sChIJu80dq4V5AjoR5Hw3e3lfjLs?authuser=0&hl=en&rclk=1,"22.516736299999998,88.2646445"
Masjid E Baitul Aman,Mosque,"F6HR+X59 Masjid E Baitul Aman, Chingripota, Maheshtala, West Bengal 700141",Chingripota,F6HR+X59,Maheshtala,,West Bengal,IN,https://www.google.com/maps/place/Masjid+E+Baitul+Aman/data=!4m7!3m6!1s0x3a027ddbf6b17ef1:0x961b58db219f86f!8m2!3d22.4799036!4d88.2404729!16s%2Fg%2F11gk40y4rs!19sChIJ8X6x9tt9AjoRb_gZso21YQk?authuser=0&hl=en&rclk=1,"22.4799036,88.2404729"
Abu Darda Masjid,Mosque,"F6RQ+GGJ Abu Darda Masjid, Chatta Kalikapur Kabala Ali Rd, Chalkipara, Maheshtala, West Bengal 700141",Chalkipara,"F6RQ+GGJ, Chatta Kalikapur Kabala Ali Rd",Maheshtala,,West Bengal,IN,https://www.google.com/maps/place/Abu+Darda+Masjid/data=!4m7!3m6!1s0x3a027df6fb8ec68f:0x6791eb80bcc5a069!8m2!3d22.4913287!4d88.2387719!16s%2Fg%2F11jq8r4t26!19sChIJj8aO-_Z9AjoRaaDFvIDrkWc?authuser=0&hl=en&rclk=1,"22.4913287,88.23877189999999"
"Nayabasti Jame Masjid,ny'aabsti jaame msjid",Mosque,"G6QX+PMC Nayabasti Jame Masjid,ny'aabsti jaame msjid, SA Farooquie Rd, Karbala, Metiabruz, Maheshtala, West Bengal 700066","Karbala, Metiabruz","G6QX+PMC, SA Farooquie Rd",Maheshtala,700066,West Bengal,IN,"https://www.google.com/maps/place/Nayabasti+Jame+Masjid,%E0%A6%A8%E0%A6%AF%E0%A6%BC%E0%A6%BE%E0%A6%AC%E0%A6%B8%E0%A7%8D%E0%A6%A4%E0%A6%BF+%E0%A6%9C%E0%A6%BE%E0%A6%AE%E0%A7%87+%E0%A6%AE%E0%A6%B8%E0%A6%9C%E0%A6%BF%E0%A6%A6/data=!4m7!3m6!1s0x3a0279b66169a0c5:0x59d7fa465ed6c536!8m2!3d22.5393197!4d88.2491458!16s%2Fg%2F11hdss3vn6!19sChIJxaBpYbZ5AjoRNsXWXkb611k?authuser=0&hl=en&rclk=1","22.5393197,88.2491458"
Molla Para Notun Masjid mollaa paarraa ntun msjid,Mosque,"Molla Para Notun Masjid mollaa paarraa ntun msjid, South Chatta kalikapur. Molla Para Road. South 24 Parganas, Maheshtala, Kolkata, West Bengal 700141",,"South Chatta kalikapur. Molla Para Road. South 24 Parganas, Maheshtala",Kolkata,700141,West Bengal,IN,https://www.google.com/maps/place/Molla+Para+Notun+Masjid+%E0%A6%AE%E0%A7%8B%E0%A6%B2%E0%A7%8D%E0%A6%B2%E0%A6%BE+%E0%A6%AA%E0%A6%BE%E0%A7%9C%E0%A6%BE+%E0%A6%A8%E0%A6%A4%E0%A7%81%E0%A6%A8+%E0%A6%AE%E0%A6%B8%E0%A6%9C%E0%A6%BF%E0%A6%A6/data=!4m7!3m6!1s0x3a027b3e19774e95:0xadde0362be21e37!8m2!3d22.4723551!4d88.2461525!16s%2Fg%2F11h7ktgyw7!19sChIJlU53GT57AjoRNx7iKzbg3Qo?authuser=0&hl=en&rclk=1,"22.472355099999998,88.2461525"
Masjid Taqua,Mosque,"F67R+WPJ Masjid Taqua, Dakhin Chatta Kalikapukur, Maheshtala, West Bengal 700141",Dakhin Chatta Kalikapukur,F67R+WPJ,Maheshtala,,West Bengal,IN,https://www.google.com/maps/place/Masjid+Taqua/data=!4m7!3m6!1s0x3a027d26176d5a57:0x28d392035727536e!8m2!3d22.4648366!4d88.2417597!16s%2Fg%2F11h5vhtjxh!19sChIJV1ptFyZ9AjoRblMnVwOS0yg?authuser=0&hl=en&rclk=1,"22.464836599999998,88.2417597"
Borkontala Masjid Gate,Mosque,"F6QG+C88 Borkontala Masjid Gate, Daulatpur Rd, Chingripota, Maheshtala, West Bengal 700141",Chingripota,"F6QG+C88, Daulatpur Rd",Maheshtala,700141,West Bengal,IN,https://www.google.com/maps/place/Borkontala+Masjid+Gate/data=!4m7!3m6!1s0x3a027df52b14d803:0x88677e22be3994fc!8m2!3d22.4885322!4d88.2258217!16s%2Fg%2F11hh7pkz9n!19sChIJA9gUK_V9AjoR_JQ5viJ-Z4g?authuser=0&hl=en&rclk=1,"22.488532199999998,88.2258217"
Boga Molla Para Lal Masjid,Mosque,"G773+MJX Boga Molla Para Lal Masjid, Unnamed Road, Jagannath Nagar, Maheshtala, West Bengal 700140",Jagannath Nagar,"G773+MJX, Unnamed Road",Maheshtala,700140,West Bengal,IN,https://www.google.com/maps/place/Boga+Molla+Para+Lal+Masjid/data=!4m7!3m6!1s0x3a027b0f45c3e0c5:0x555b9b29cea45752!8m2!3d22.514236!4d88.2540962!16s%2Fg%2F11j67x8rr1!19sChIJxeDDRQ97AjoRUlekzimbW1U?authuser=0&hl=en&rclk=1,"22.514236,88.25409619999999"
Barajala Lal Jame Majid,Mosque,"Barajala Lal Jame Majid, Lal Masjid Rd, Halder Para Basti, Garden Reach, Maheshtala, West Bengal 700082","Halder Para Basti, Garden Reach",Lal Masjid Rd,Maheshtala,700082,West Bengal,IN,https://www.google.com/maps/place/Barajala+Lal+Jame+Majid/data=!4m7!3m6!1s0x3a02790d81bb93a1:0xc08a151e73de8407!8m2!3d22.5377418!4d88.2718234!16s%2Fg%2F11t5zsk8jx!19sChIJoZO7gQ15AjoRB4Tecx4VisA?authuser=0&hl=en&rclk=1,"22.5377418,88.2718234"
South Padirhati masjid,Mosque,"South Padirhati masjid, VIVEKANANDA RESIDENCY. 4TH FLOORS , BLOCK - 'B'. SANTOSHPUR CO - OPERATIVE SOCIETY. POST: BIDHANGARH. P.S : RABINDRANAGAR, near SAGAR GRAMIN BANK 9903293517, Maheshtala, West Bengal 700066","Kata Potti, Makalhati Mauza","VIVEKANANDA RESIDENCY. 4TH FLOORS , BLOCK - 'B'. SANTOSHPUR CO - OPERATIVE SOCIETY. POST: BIDHANGARH. P.S : RABINDRANAGAR, near SAGAR GRAMIN BANK 9903293517",Maheshtala,700066,West Bengal,IN,https://www.google.com/maps/place/South+Padirhati+masjid/data=!4m7!3m6!1s0x3a02791e8d841049:0x65825aa04ce69d02!8m2!3d22.5253574!4d88.2730534!16s%2Fg%2F11fmf3ffcz!19sChIJSRCEjR55AjoRAp3mTKBagmU?authuser=0&hl=en&rclk=1,"22.5253574,88.2730534"
Masjid Ea Hanjala (R:A),Mosque,"G7CC+X56 Masjid Ea Hanjala (R:A), Thandar Para Rd, Thandarpara, Sanpa, Santoshpur, Maheshtala, West Bengal 700140","Thandarpara, Sanpa, Santoshpur","G7CC+X56, Thandar Para Rd",Maheshtala,700140,West Bengal,IN,https://www.google.com/maps/place/Masjid+Ea+Hanjala+%28R:A%29/data=!4m7!3m6!1s0x3a02799d91541af9:0xe672f192bbe6d5ca!8m2!3d22.522413!4d88.2703953!16s%2Fg%2F11qr16y452!19sChIJ-RpUkZ15AjoRytXmu5LxcuY?authuser=0&hl=en&rclk=1,"22.522413,88.27039529999999"
Hamza masjid,Mosque,"F6GP+2RF Hamza masjid, Chatta Rameshwarpur Rd, Dakhin Chatta Kalikapukur, Maheshtala, Chatta Rameshwarpur, West Bengal 700141",Dakhin Chatta Kalikapukur,"F6GP+2RF, Chatta Rameshwarpur Rd","Maheshtala, Chatta Rameshwarpur",700141,West Bengal,IN,https://www.google.com/maps/place/Hamza+masjid/data=!4m7!3m6!1s0x3a027de37d0a51a7:0x9cdf658631c46be8!8m2!3d22.4749544!4d88.2367728!16s%2Fg%2F11kjjg278r!19sChIJp1EKfeN9AjoR6GvEMYZl35w?authuser=0&hl=en&rclk=1,"22.474954399999998,88.2367728"
Rahmaniya masjid,Mosque,"Rahmaniya masjid, KAYAL PARA, Akra, Santoshpur, Maheshtala, West Bengal 700140","Akra, Santoshpur",KAYAL PARA,Maheshtala,,West Bengal,IN,https://www.google.com/maps/place/Rahmaniya+masjid/data=!4m7!3m6!1s0x3a027deb9836fb6f:0x42a331317aec4232!8m2!3d22.5129457!4d88.2409352!16s%2Fg%2F11thlgj5z0!19sChIJb_s2mOt9AjoRMkLsejExo0I?authuser=0&hl=en&rclk=1,"22.5129457,88.2409352"
Dighir Arah Ayasha Masjid,Mosque,"Dighir Arah Ayasha Masjid, 48, Halder Para Basti, Panchur Mauza, Maheshtala, West Bengal 700142","Halder Para Basti, Panchur Mauza",48,Maheshtala,700142,West Bengal,IN,https://www.google.com/maps/place/Dighir+Arah+Ayasha+Masjid/data=!4m7!3m6!1s0x3a02799c1159a38b:0xc8c7fc43b1329485!8m2!3d22.5359684!4d88.2744732!16s%2Fg%2F11t5nk5fjt!19sChIJi6NZEZx5AjoRhZQysUP8x8g?authuser=0&hl=en&rclk=1,"22.535968399999998,88.2744732"
MADINA MASJID msjd lmdyn@,Mosque,"G7G8+2FR MADINA MASJID msjd lmdyn@, Kankhuli, Santoshpur, Kolkata, Maheshtala, West Bengal 700066","Kankhuli, Santoshpur",G7G8+2FR,"Kolkata, Maheshtala",700066,West Bengal,IN,https://www.google.com/maps/place/MADINA+MASJID+%D9%85%D8%B3%D8%AC%D8%AF+%D8%A7%D9%84%D9%85%D8%AF%D9%8A%D9%86%D8%A9%E2%80%AD/data=!4m7!3m6!1s0x3a027978442c398b:0x6988c2b0e171c2aa!8m2!3d22.5251125!4d88.2661406!16s%2Fg%2F11j0bz6l5y!19sChIJizksRHh5AjoRqsJx4bDCiGk?authuser=0&hl=en&rclk=1,"22.5251125,88.2661406"
Baitul Maa'mur Masjid,Mosque,"G7GM+JV8 Baitul Maa'mur Masjid, Paharpur Jahaji, Roy Para Ln, Makalhati Mauza, Maheshtala, West Bengal 700066",Makalhati Mauza,"G7GM+JV8, Paharpur Jahaji, Roy Para Ln",Maheshtala,700066,West Bengal,IN,https://www.google.com/maps/place/Baitul+Maa%27mur+Masjid/data=!4m7!3m6!1s0x3a027993efbbde67:0xcbfd64a93fe7a7ca!8m2!3d22.5265379!4d88.2847035!16s%2Fg%2F11jxympnt2!19sChIJZ96775N5AjoRyqfnP6lk_cs?authuser=0&hl=en&rclk=1,"22.526537899999997,88.28470349999999"
Haji para,Mosque,"G77G+XWQ Haji para, Sampriti Flyover, Rampur, Santoshpur, Maheshtala, West Bengal 700088","Rampur, Santoshpur","G77G+XWQ, Sampriti Flyover",Maheshtala,700088,West Bengal,IN,https://www.google.com/maps/place/Haji+para/data=!4m7!3m6!1s0x3a027b587bbbfbe3:0x5e2c2f1af97a9026!8m2!3d22.514953!4d88.2773747!16s%2Fg%2F11pkdx1z31!19sChIJ4_u7e1h7AjoRJpB6-RovLF4?authuser=0&hl=en&rclk=1,"22.514953,88.2773747"
Khan Para Mosque,Mosque,"F6W2+8M5 Khan Para Mosque, Uttar shyampur, khanpara, khan para road,Maheshtala, Budge Budge, Maheshtala, West Bengal 700137","Chak Chandul, Nangi, Budge Budge","F6W2+8M5, Uttar shyampur, khanpara, khan para road,Maheshtala",Maheshtala,700137,West Bengal,IN,https://www.google.com/maps/place/Khan+Para+Mosque/data=!4m7!3m6!1s0x3a027d542cde142b:0xff43442f629d109e!8m2!3d22.4957551!4d88.2017488!16s%2Fg%2F11nmnj5d05!19sChIJKxTeLFR9AjoRnhCdYi9EQ_8?authuser=0&hl=en&rclk=1,"22.4957551,88.20174879999999"
Makalhati molla para Jame masjid,Mosque,"Makalhati molla para Jame masjid, 108, Santoshpur Rd, Panchur Mauza, Maheshtala, West Bengal 700142",Panchur Mauza,"108, Santoshpur Rd",Maheshtala,700142,West Bengal,IN,https://www.google.com/maps/place/Makalhati+molla+para+Jame+masjid/data=!4m7!3m6!1s0x3a02794209042ab5:0x6c36914c2c9c1594!8m2!3d22.5369354!4d88.2770292!16s%2Fg%2F11rtd3v3rj!19sChIJtSoECUJ5AjoRlBWcLEyRNmw?authuser=0&hl=en&rclk=1,"22.536935399999997,88.2770292"
Masjide Talha msjide taalhaa msjd TlHh,Mosque,"G67R+WXJ Masjide Talha msjide taalhaa msjd TlHh, Uludanga, Santoshpur, Maheshtala, West Bengal 700140","Uludanga, Santoshpur",G67R+WXJ,Maheshtala,700140,West Bengal,IN,https://www.google.com/maps/place/Masjide+Talha+%E0%A6%AE%E0%A6%B8%E0%A6%9C%E0%A6%BF%E0%A6%A6%E0%A7%87+%E0%A6%A4%E0%A6%BE%E0%A6%B2%E0%A6%B9%E0%A6%BE+%D9%85%D8%B3%D8%AC%D8%AF+%D8%B7%D9%84%D8%AD%DB%81%E2%80%AD/data=!4m7!3m6!1s0x3a027f275077a063:0x2370c6bbf002d95c!8m2!3d22.5151726!4d88.2413349!16s%2Fg%2F11rsjf26gl!19sChIJY6B3UCd_AjoRXNkC8LvGcCM?authuser=0&hl=en&rclk=1,"22.5151726,88.2413349"
Talbagan masjid,Mosque,"Talbagan masjid, 193, Bidhangarh Ghoshpara, Panchur Mauza, Maheshtala, West Bengal 700066","Bidhangarh Ghoshpara, Panchur Mauza",193,Maheshtala,700066,West Bengal,IN,https://www.google.com/maps/place/Talbagan+masjid/data=!4m7!3m6!1s0x3a0279b40b856db7:0xcb2708000dde0d16!8m2!3d22.5289269!4d88.2683524!16s%2Fg%2F11kck4sz4g!19sChIJt22FC7R5AjoRFg3eDQAIJ8s?authuser=0&hl=en&rclk=1,"22.5289269,88.2683524"
Molla para. Fatima masjid,Mosque,"F6QP+5PC Molla para. Fatima masjid, Chingripota, Maheshtala, West Bengal 700141",Chingripota,F6QP+5PC,Maheshtala,700141,West Bengal,IN,https://www.google.com/maps/place/Molla+para.+Fatima+masjid/data=!4m7!3m6!1s0x3a027d0451e06385:0xe49bb1fbd45c8467!8m2!3d22.4879306!4d88.2367812!16s%2Fg%2F11nmsf864_!19sChIJhWPgUQR9AjoRZ4Rc1Puxm-Q?authuser=0&hl=en&rclk=1,"22.4879306,88.2367812"
Masjid - al - Usmania,Mosque,"G789+C24 Masjid - al - Usmania, Fakir Para Rd, Santoshpur Govt Colony, Sanpa, Santoshpur, Maheshtala, West Bengal 700140","Santoshpur Govt Colony, Sanpa, Santoshpur","G789+C24, Fakir Para Rd",Maheshtala,700140,West Bengal,IN,https://www.google.com/maps/place/Masjid+-+al+-+Usmania/data=!4m7!3m6!1s0x3a0279be17d42b8b:0x55f9533306b43f88!8m2!3d22.5160246!4d88.2675672!16s%2Fg%2F11vc4gl5pg!19sChIJiyvUF755AjoRiD-0BjNT-VU?authuser=0&hl=en&rclk=1,"22.516024599999998,88.2675672"
Masjid(E)Umar.rajiallahu tawala anhu,Mosque,"G798+5QV Masjid(E)Umar.rajiallahu tawala anhu, Fakir Para Rd, Santoshpur,fakir para jola Maheshtala, Maheshtala","Sanpa, Santoshpur","G798+5QV, Fakir Para Rd, Santoshpur,fakir para jola Maheshtala",Maheshtala,,West Bengal,IN,https://www.google.com/maps/place/Masjid%28E%29Umar.rajiallahu+tawala+anhu/data=!4m7!3m6!1s0x3a0279a29a04e995:0x92f130f43f458762!8m2!3d22.5179855!4d88.2669314!16s%2Fg%2F11skwyb79j!19sChIJlekEmqJ5AjoRYodFP_Qw8ZI?authuser=0&hl=en&rclk=1,"22.517985499999998,88.26693139999999"
Masjid A Noor,Mosque,"G65V+M6Q Masjid A Noor, Darji Para, Maheshtala, West Bengal 700140",Darji Para,G65V+M6Q,Maheshtala,700140,West Bengal,IN,https://www.google.com/maps/place/Masjid+A+Noor/data=!4m7!3m6!1s0x3a027d540715fb4b:0x4dd3a6f398f429c5!8m2!3d22.5092085!4d88.2431068!16s%2Fg%2F11hjbxjw9r!19sChIJS_sVB1R9AjoRxSn0mPOm000?authuser=0&hl=en&rclk=1,"22.5092085,88.24310679999999"
Noori Masjid,Mosque,"G63V+Q6C Noori Masjid, Darji Para, Chandan Nagar, Maheshtala, West Bengal 700140","Darji Para, Chandan Nagar",G63V+Q6C,Maheshtala,700140,West Bengal,IN,https://www.google.com/maps/place/Noori+Masjid/data=!4m7!3m6!1s0x3a027d4d41f3efab:0xac47985a4ef321f6!8m2!3d22.5046897!4d88.243364!16s%2Fg%2F11st8fg113!19sChIJq-_zQU19AjoR9iHzTlqYR6w?authuser=0&hl=en&rclk=1,"22.5046897,88.243364"
Shyampur masjid a SAAD,Mosque,"F6R2+FCV Shyampur masjid a SAAD, Shyampur, Budge Budge, Maheshtala, West Bengal 700137","Shyampur, Budge Budge",F6R2+FCV,Maheshtala,700137,West Bengal,IN,https://www.google.com/maps/place/Shyampur+masjid+a+SAAD/data=!4m7!3m6!1s0x3a027d02dbf94d99:0xa11333308cabf08!8m2!3d22.4912489!4d88.2010535!16s%2Fg%2F11q2tbw6v5!19sChIJmU352wJ9AjoRCL_KCDMzEQo?authuser=0&hl=en&rclk=1,"22.4912489,88.2010535"
Kankhuli purbo para banshtala Jame masjid,Mosque,"G7F8+G8C Kankhuli purbo para banshtala Jame masjid, Sardar Para, Kankhuli, puro para, Kolkata, Maheshtala, West Bengal 700140","Sardar Para, Kankhuli, puro para",G7F8+G8C,"Kolkata, Maheshtala",700140,West Bengal,IN,https://www.google.com/maps/place/Kankhuli+purbo+para+banshtala+Jame+masjid/data=!4m7!3m6!1s0x3a027939d437cb61:0x816612ccd3ebab49!8m2!3d22.5235859!4d88.2662757!16s%2Fg%2F11pv6bbl9y!19sChIJYcs31Dl5AjoRSavr08wSZoE?authuser=0&hl=en&rclk=1,"22.5235859,88.2662757"
Khan Para Jama Masjid,Mosque,"G762+Q9X Khan Para Jama Masjid, Uttar, Khan Para, Shyampur, ps, Maheshtala, West Bengal 700140","Khan Para, Shyampur, ps","G762+Q9X, Uttar",Maheshtala,,West Bengal,IN,https://www.google.com/maps/place/Khan+Para+Jama+Masjid/data=!4m7!3m6!1s0x3a027b4e294638cd:0x35ff0543cf8b2ad9!8m2!3d22.5119773!4d88.2509816!16s%2Fg%2F11gr2p4lft!19sChIJzThGKU57AjoR2SqLz0MF_zU?authuser=0&hl=en&rclk=1,"22.511977299999998,88.2509816"
Masjid,Mosque,"Masjid, 268, Behala Flying Club Rd, Parnasree Extension, Kolkata, Maheshtala, West Bengal 700060",Parnasree Extension,"268, Behala Flying Club Rd","Kolkata, Maheshtala",700060,West Bengal,IN,https://www.google.com/maps/place/Masjid/data=!4m7!3m6!1s0x3a027b511b7aedfb:0x135937931e8ab1c9!8m2!3d22.5080781!4d88.2987503!16s%2Fg%2F11svzsqlpd!19sChIJ--16G1F7AjoRybGKHpM3WRM?authuser=0&hl=en&rclk=1,"22.5080781,88.2987503"
Mohammadi Basti masjid,Mosque,"G7MG+GXM Mohammadi Basti masjid, Makalhati Mauza, Kolkata, Maheshtala, West Bengal 700082",Makalhati Mauza,G7MG+GXM,"Kolkata, Maheshtala",700082,West Bengal,IN,https://www.google.com/maps/place/Mohammadi+Basti+masjid/data=!4m7!3m6!1s0x3a0279c903f91fe3:0xe1dfc1ef7de6b51c!8m2!3d22.5334542!4d88.2769814!16s%2Fg%2F11jzv7ltt8!19sChIJ4x_5A8l5AjoRHLXmfe_B3-E?authuser=0&hl=en&rclk=1,"22.533454199999998,88.2769814"
Nangi Dharmatala Masjid,Mosque,"G649+G7P Nangi Dharmatala Masjid, Nangi, Budge Budge, Maheshtala, West Bengal 700140","Nangi, Budge Budge",G649+G7P,Maheshtala,700140,West Bengal,IN,https://www.google.com/maps/place/Nangi+Dharmatala+Masjid/data=!4m7!3m6!1s0x3a027d4275fdc1a1:0x8537cbe2ad9c6f71!8m2!3d22.5063284!4d88.2181991!16s%2Fg%2F11pf2jd8hw!19sChIJocH9dUJ9AjoRcW-creLLN4U?authuser=0&hl=en&rclk=1,"22.506328399999997,88.21819909999999"
Alampur 16 anna Jame masjid,Mosque,"Alampur 16 anna Jame masjid, 16 anna Jame masjid, Ramdas Hati, Garden Reach, Alampur, Maheshtala, West Bengal 700082","Ramdas Hati, Garden Reach",16 anna Jame masjid,"Alampur, Maheshtala",,West Bengal,IN,https://www.google.com/maps/place/Alampur+16+anna+Jame+masjid/data=!4m7!3m6!1s0x3a0279ef500eba87:0xe7b17ed0e940e10!8m2!3d22.5330539!4d88.2881024!16s%2Fg%2F11jzmqx3hk!19sChIJh7oOUO95AjoREA6UDu0Xew4?authuser=0&hl=en&rclk=1,"22.5330539,88.2881024"
Brajala lal jame Masjid,Mosque,"Brajala lal jame Masjid, 205, Lal Masjid Rd, Barajala, Halder Para Basti, Garden Reach, Maheshtala, West Bengal 700066","Barajala, Halder Para Basti, Garden Reach","205, Lal Masjid Rd",Maheshtala,700066,West Bengal,IN,https://www.google.com/maps/place/Brajala+lal+jame+Masjid/data=!4m7!3m6!1s0x3a0279e6e9d65979:0x5d30a54bed0e229f!8m2!3d22.5374583!4d88.2726195!16s%2Fg%2F11vfbb4lmr!19sChIJeVnW6eZ5AjoRnyIO7UulMF0?authuser=0&hl=en&rclk=1,"22.537458299999997,88.27261949999999"
Kamardanga Jame Masjid,Mosque,"G7MH+VHJ Kamardanga Jame Masjid, Kamardanga Rd, Makalhati Mauza, Kolkata, Maheshtala, West Bengal 700082",Makalhati Mauza,"G7MH+VHJ, Kamardanga Rd","Kolkata, Maheshtala",700082,West Bengal,IN,https://www.google.com/maps/place/Kamardanga+Jame+Masjid/data=!4m7!3m6!1s0x3a0279c1152243c3:0xd276fa51dcf7dcdb!8m2!3d22.5347242!4d88.2788885!16s%2Fg%2F11tmyctxg9!19sChIJw0MiFcF5AjoR29z33FH6dtI?authuser=0&hl=en&rclk=1,"22.5347242,88.2788885"
Jaita Puraton Masjid,Mosque,"Jaita Puraton Masjid, Jaita, Mollapara Rd, Sardar Para, Thandarpara, Jagannath Nagar, Santoshpur, Kolkata, Maheshtala, West Bengal 700140","Sardar Para, Thandarpara, Jagannath Nagar, Santoshpur","Jaita, Mollapara Rd","Kolkata, Maheshtala",700140,West Bengal,IN,https://www.google.com/maps/place/Jaita+Puraton+Masjid/data=!4m7!3m6!1s0x3a02799e573543e7:0xc6d789bf1f9b0804!8m2!3d22.5206653!4d88.2690269!16s%2Fg%2F11l1n7dgdw!19sChIJ50M1V555AjoRBAibH7-J18Y?authuser=0&hl=en&rclk=1,"22.520665299999997,88.2690269"
