name,main_category,address,address_ward,address_street,address_city,address_postal_code,address_state,address_country_code,link,coordinates
Masjid-E-Hazrat Bilal - Bengaluru,Mosque,"Masjid-E-Hazrat Bilal - Bengaluru, Hazrath Bilal Complex, Tannery Road Pillanna Garden, Arabic College Main Rd, Bilal Nagar, Arokkyamma Layout, Kadugondanahalli, Bengaluru, Karnataka 560045","Bilal Nagar, Arokkyamma Layout, Kadugondanahalli","Hazrath Bilal Complex, Tannery Road Pillanna Garden, Arabic College Main Rd",Bengaluru,560045,Karnataka,IN,https://www.google.com/maps/place/Masjid-E-Hazrat+Bilal+-+Bengaluru/data=!4m7!3m6!1s0x3bae16fda0bce0b7:0x356995e98580d75e!8m2!3d13.0117695!4d77.616396!16s%2Fg%2F1tghbl46!19sChIJt-C8oP0WrjsRXteAhemVaTU?authuser=0&hl=en&rclk=1,"13.0117695,77.616396"
Markazi Masjid E Ahle Hadees Charminar,Mosque,"XJP4+H85 Markazi Masjid E Ahle Hadees Charminar, Charminar, Masjid Rd, Shivaji Nagar, Karnataka 560051","Sulthangunta, Shivaji Nagar","XJP4+H85, Charminar, Masjid Rd",Bengaluru,560051,Karnataka,IN,https://www.google.com/maps/place/Markazi+Masjid+E+Ahle+Hadees+Charminar/data=!4m7!3m6!1s0x3bae17ab8312d3a1:0xbd4e69fa2e014b48!8m2!3d12.9863762!4d77.6058555!16s%2Fg%2F11ql9cl6gh!19sChIJodMSg6sXrjsRSEsBLvppTr0?authuser=0&hl=en&rclk=1,"12.986376199999999,77.60585549999999"
Masjid-E-Ahle Hadees Choti Charminar,Mosque,"XJM2+8G6 Masjid-E-Ahle Hadees Choti Charminar, Shivaji Nagar, Bengaluru, Karnataka 560001",Shivaji Nagar,XJM2+8G6,Bengaluru,,Karnataka,IN,https://www.google.com/maps/place/Masjid-E-Ahle+Hadees+Choti+Charminar/data=!4m7!3m6!1s0x3bae166414008e3d:0x20c7715446a1b8a1!8m2!3d12.983362!4d77.6010298!16s%2Fg%2F11cr_9787l!19sChIJPY4AFGQWrjsRobihRlRxxyA?authuser=0&hl=en&rclk=1,"12.983362,77.60102979999999"
JUMMA MASJID TRUST,Mosque,"XJJ4+W99 JUMMA MASJID TRUST, No.11, Jumma Masjid Rd, Sulthangunta, Shivaji Nagar, Bengaluru, Karnataka 560051","Sulthangunta, Shivaji Nagar","XJJ4+W99, No.11, Jumma Masjid Rd",Bengaluru,560051,Karnataka,IN,https://www.google.com/maps/place/JUMMA+MASJID+TRUST/data=!4m7!3m6!1s0x3bae1661c2e4effb:0x9e5462f7717a2955!8m2!3d12.9862997!4d77.6069443!16s%2Fg%2F11fs2111rt!19sChIJ--_kwmEWrjsRVSl6cfdiVJ4?authuser=0&hl=en&rclk=1,"12.9862997,77.6069443"
Hajee Sir Ismail Sait Masjid,Mosque,"2J28+96M Hajee Sir Ismail Sait Masjid, Mosque Rd, Pulikeshi Nagar, Bengaluru, Karnataka 560005",Pulikeshi Nagar,"2J28+96M, Mosque Rd",Bengaluru,560005,Karnataka,IN,https://www.google.com/maps/place/Hajee+Sir+Ismail+Sait+Masjid/data=!4m7!3m6!1s0x3bae16f09213f7ff:0x3bd44ab86e0a5fd2!8m2!3d13.0009641!4d77.6155405!16s%2Fg%2F1td31h20!19sChIJ__cTkvAWrjsR0l8KbrhK1Ds?authuser=0&hl=en&rclk=1,"13.0009641,77.6155405"
Masjid-E-Khadria,Mosque,"Masjid-E-Khadria, Plot no 68, Millers Rd, Cantonment Railway Quarters, Benson Town, Bengaluru, Karnataka 560046","Cantonment Railway Quarters, Benson Town","Plot no 68, Millers Rd",Bengaluru,560046,Karnataka,IN,https://www.google.com/maps/place/Masjid-E-Khadria/data=!4m7!3m6!1s0x3bae165c1c1ea5e1:0x46aa5c88271693d9!8m2!3d12.9945415!4d77.6023695!16s%2Fg%2F1vhkh_46!19sChIJ4aUeHFwWrjsR2ZMWJ4hcqkY?authuser=0&hl=en&rclk=1,"12.994541499999999,77.6023695"
Sultan Shah Masjid,Mosque,"Sultan Shah Masjid, 41, Bowring Hospital Rd, Shivaji Nagar, Bengaluru, Karnataka 560001",Shivaji Nagar,"Sultan Shah Masjid, 41, Bowring Hospital Rd",Bengaluru,560001,Karnataka,IN,https://www.google.com/maps/place/Sultan+Shah+Masjid/data=!4m7!3m6!1s0x3bae166475af302d:0xbcd7b00e6dc098ae!8m2!3d12.9827504!4d77.6019716!16s%2Fg%2F1tdyzd4r!19sChIJLTCvdWQWrjsRrpjAbQ6w17w?authuser=0&hl=en&rclk=1,"12.982750399999999,77.6019716"
Lal Masjid,Mosque,"Lal Masjid, 357, Jumma Masjid Rd, Sulthangunta, Shivaji Nagar, Bengaluru, Karnataka 560051","Sulthangunta, Shivaji Nagar","357, Jumma Masjid Rd",Bengaluru,560051,Karnataka,IN,https://www.google.com/maps/place/Lal+Masjid/data=!4m7!3m6!1s0x3bae1661d1d9fbdf:0x51af0ffd10cab501!8m2!3d12.9870325!4d77.6070993!16s%2Fg%2F11cnbsw_bf!19sChIJ3_vZ0WEWrjsRAbXKEP0Pr1E?authuser=0&hl=en&rclk=1,"12.9870325,77.6070993"
Dargah Hazrath Sayyed Yaqeen Shah wali RA Mosque,Mosque,"XHMQ+742 Dargah Hazrath Sayyed Yaqeen Shah wali RA Mosque, Palace Rd, High Grounds, Sampangi Rama Nagar, Bengaluru, Karnataka 560001","High Grounds, Sampangi Rama Nagar","XHMQ+742, Palace Rd",Bengaluru,560001,Karnataka,IN,https://www.google.com/maps/place/Dargah+Hazrath+Sayyed+Yaqeen+Shah+wali+RA+Mosque/data=!4m7!3m6!1s0x3bae166c7d658e55:0x3800214ff50c9647!8m2!3d12.9831387!4d77.5877696!16s%2Fg%2F11cm_gq4jz!19sChIJVY5lfWwWrjsRR5YM9U8hADg?authuser=0&hl=en&rclk=1,"12.9831387,77.5877696"
Abdul Gafoor Masjid,Mosque,"Abdul Gafoor Masjid, 48, Chikka Bazar Rd, Swamy Shivanandapuram, Shivaji Nagar, Bengaluru, Karnataka 560051","Swamy Shivanandapuram, Shivaji Nagar","48, Chikka Bazar Rd",Bengaluru,560051,Karnataka,IN,https://www.google.com/maps/place/Abdul+Gafoor+Masjid/data=!4m7!3m6!1s0x3bae166666313445:0x3553bed850819f6f!8m2!3d12.9855143!4d77.5986039!16s%2Fg%2F11c52qrt6g!19sChIJRTQxZmYWrjsRb5-BUNi-UzU?authuser=0&hl=en&rclk=1,"12.9855143,77.5986039"
Jumma Masjid Mosque,Mosque,"Jumma Masjid Mosque, 479, Dispensary Rd, Tasker Town, Sampangi Rama Nagar, Bengaluru, Karnataka 560001","Tasker Town, Sampangi Rama Nagar","479, Dispensary Rd",Bengaluru,560001,Karnataka,IN,https://www.google.com/maps/place/Jumma+Masjid+Mosque/data=!4m7!3m6!1s0x3bae166244dbee29:0xe052bed60b5e6f3f!8m2!3d12.9826339!4d77.6058572!16s%2Fg%2F11bbtfc3x8!19sChIJKe7bRGIWrjsRP29eC9a-UuA?authuser=0&hl=en&rclk=1,"12.9826339,77.6058572"
Quddus Saheb Eidgah (kuddus saaheeb iidgaa),Mosque,"Quddus Saheb Eidgah (kuddus saaheeb iidgaa), 65/2, Millers Rd, Cantonment Railway Quarters, Shivaji Nagar, Bengaluru, Karnataka 560046","Cantonment Railway Quarters, Shivaji Nagar","65/2, Millers Rd",Bengaluru,560046,Karnataka,IN,https://www.google.com/maps/place/Quddus+Saheb+Eidgah+%28%E0%B2%95%E0%B3%81%E0%B2%A6%E0%B3%8D%E0%B2%A6%E0%B3%81%E0%B2%B8%E0%B3%8D+%E0%B2%B8%E0%B2%BE%E0%B2%B9%E0%B3%87%E0%B2%AC%E0%B3%8D+%E0%B2%88%E0%B2%A6%E0%B3%8D%E0%B2%97%E0%B2%BE%29/data=!4m7!3m6!1s0x3bae165c03c8f8d5:0x7e10e206826502e4!8m2!3d12.9952456!4d77.6020031!16s%2Fg%2F1vystzv8!19sChIJ1fjIA1wWrjsR5AJlggbiEH4?authuser=0&hl=en&rclk=1,"12.995245599999999,77.60200309999999"
Masjid Al Noor,Mosque,"Masjid Al Noor, Dickenson Rd, near 1, Halasuru, FM Cariappa Colony, Sivanchetti Gardens, Bengaluru, Karnataka 560042","Halasuru, FM Cariappa Colony, Sivanchetti Gardens","Dickenson Rd, near 1",Bengaluru,560042,Karnataka,IN,https://www.google.com/maps/place/Masjid+Al+Noor/data=!4m7!3m6!1s0x3bae1688a54b41dd:0x56a6e0555e9b5927!8m2!3d12.9790736!4d77.6162606!16s%2Fg%2F1tqt82xk!19sChIJ3UFLpYgWrjsRJ1mbXlXgplY?authuser=0&hl=en&rclk=1,"12.9790736,77.61626059999999"
Masjid-E-Baid,Mosque,"Masjid-E-Baid, 88, Armstrong Rd, Bharati Nagar, Shivaji Nagar, Bengaluru, Karnataka 560001","Bharati Nagar, Shivaji Nagar","88, Armstrong Rd",Bengaluru,560001,Karnataka,IN,https://www.google.com/maps/place/Masjid-E-Baid/data=!4m7!3m6!1s0x3bae168b728de713:0x6049fcd8108d833a!8m2!3d12.9881806!4d77.6119747!16s%2Fg%2F1td2sb9l!19sChIJE-eNcosWrjsROoONENj8SWA?authuser=0&hl=en&rclk=1,"12.9881806,77.61197469999999"
Al Quba Masjid,Mosque,"Al Quba Masjid, 18, 7th Main Rd, Vasanth Nagar, Bengaluru, Karnataka 560051",Vasanth Nagar,"18, 7th Main Rd",Bengaluru,560051,Karnataka,IN,https://www.google.com/maps/place/Al+Quba+Masjid/data=!4m7!3m6!1s0x3bae1643ca3be6af:0xc47833bb4b77d005!8m2!3d12.9927376!4d77.5927056!16s%2Fg%2F1264ft394!19sChIJr-Y7ykMWrjsRBdB3S7szeMQ?authuser=0&hl=en&rclk=1,"12.9927376,77.5927056"
Masjid-E-Bilal,Mosque,"Masjid-E-Bilal, 21, Berlie St, Langford Town, Shanti Nagar, Bengaluru, Karnataka 560025","Langford Town, Shanti Nagar","21, Berlie St",Bengaluru,560025,Karnataka,IN,https://www.google.com/maps/place/Masjid-E-Bilal/data=!4m7!3m6!1s0x3bae15d17918555d:0xbb3b41ce380128fa!8m2!3d12.9592634!4d77.6015984!16s%2Fg%2F1tj_3plb!19sChIJXVUYedEVrjsR-igBOM5BO7s?authuser=0&hl=en&rclk=1,"12.9592634,77.6015984"
Masjid-e-Beoparian,Mosque,"XJM4+CHG Masjid-e-Beoparian, Meenakshi Kovil St, Tasker Town, Shivaji Nagar, Bengaluru, Karnataka 560001","Tasker Town, Shivaji Nagar","XJM4+CHG, Meenakshi Kovil St",Bengaluru,560001,Karnataka,IN,https://www.google.com/maps/place/Masjid-e-Beoparian/data=!4m7!3m6!1s0x3bae16623e69d945:0xb412b4b13ac4855e!8m2!3d12.9835538!4d77.6064543!16s%2Fg%2F1hd_755vy!19sChIJRdlpPmIWrjsRXoXEOrG0ErQ?authuser=0&hl=en&rclk=1,"12.9835538,77.6064543"
Masjid - e - Lababeen,Mosque,"XJM4+7R8 Masjid - e - Lababeen, Ibrahim Sahib St, near HDFC Bank ATM, Tasker Town, Shivaji Nagar, Bengaluru, Karnataka 560001","Tasker Town, Shivaji Nagar","XJM4+7R8, Ibrahim Sahib St, near HDFC Bank ATM",Bengaluru,560001,Karnataka,IN,https://www.google.com/maps/place/Masjid+-+e+-+Lababeen/data=!4m7!3m6!1s0x3bae166272631e51:0xa532b740bbf9bf9a!8m2!3d12.9831716!4d77.60709!16s%2Fg%2F1tsbkksf!19sChIJUR5jcmIWrjsRmr_5u0C3MqU?authuser=0&hl=en&rclk=1,"12.983171599999999,77.60709"
Masjid e-Sultan,Mosque,"2JP4+J7P Masjid e-Sultan, 7th A Cross Rd, Kanaka Nagar, Hebbal, Bengaluru, Karnataka 560032","Kanaka Nagar, Hebbal","2JP4+J7P, 7th A Cross Rd",Bengaluru,560032,Karnataka,IN,https://www.google.com/maps/place/Masjid+e-Sultan/data=!4m7!3m6!1s0x3bae179f9a08f3d7:0x185be6d3db0b92c5!8m2!3d13.0365856!4d77.6057176!16s%2Fg%2F11b6s8l8sy!19sChIJ1_MImp8XrjsRxZIL29PmWxg?authuser=0&hl=en&rclk=1,"13.036585599999999,77.60571759999999"
Hari Masjid (Masjid E Mauzzam),Mosque,"Hari Masjid (Masjid E Mauzzam), 2, 1st Cross Rd, Swamy Shivanandapuram, Shivaji Nagar, Bengaluru, Karnataka 560051","Swamy Shivanandapuram, Shivaji Nagar","2, 1st Cross Rd",Bengaluru,560051,Karnataka,IN,https://www.google.com/maps/place/Hari+Masjid+%28Masjid+E+Mauzzam%29/data=!4m7!3m6!1s0x3bae16615ac5604f:0x4eeb82200a735212!8m2!3d12.9852076!4d77.6029013!16s%2Fg%2F11c6_v6hgr!19sChIJT2DFWmEWrjsRElJzCiCC604?authuser=0&hl=en&rclk=1,"12.985207599999999,77.6029013"
Bismilla Shah masjid,Mosque,"XJQ3+GH6 Bismilla Shah masjid, Cock Burn Rd, Sulthangunta, Shivaji Nagar, Bengaluru, Karnataka 560051","Sulthangunta, Shivaji Nagar","XJQ3+GH6, Cock Burn Rd",Bengaluru,560051,Karnataka,IN,https://www.google.com/maps/place/Bismilla+Shah+masjid/data=!4m7!3m6!1s0x3bae16609467d5b1:0x639b5c46cbdc7180!8m2!3d12.9887874!4d77.6038911!16s%2Fg%2F1tfz8mql!19sChIJsdVnlGAWrjsRgHHcy0Zcm2M?authuser=0&hl=en&rclk=1,"12.9887874,77.6038911"
Hassan shop hbm,Mosque,"Hassan shop hbm, Makka masjid, Nehru Puram, Bharati Nagar, Shivaji Nagar, Bengaluru, Karnataka 560051","Nehru Puram, Bharati Nagar, Shivaji Nagar",Makka masjid,Bengaluru,560051,Karnataka,IN,https://www.google.com/maps/place/Hassan+shop+hbm/data=!4m7!3m6!1s0x3bae16f55718b61f:0x393eb49f096d3af3!8m2!3d12.990999!4d77.6080495!16s%2Fg%2F12hnqnd0z!19sChIJH7YYV_UWrjsR8zptCZ-0Pjk?authuser=0&hl=en&rclk=1,"12.990998999999999,77.60804949999999"
Salafi Masjid,Mosque,"XJP3+389 Salafi Masjid, Dharmaraja Koil St, Swamy Shivanandapuram, Shivaji Nagar, Bengaluru, Karnataka 560051","Swamy Shivanandapuram, Shivaji Nagar","XJP3+389, Dharmaraja Koil St",Bengaluru,560051,Karnataka,IN,https://www.google.com/maps/place/Salafi+Masjid/data=!4m7!3m6!1s0x3bae16615d1adeed:0x39e6a7f4f8dc1c96!8m2!3d12.9851622!4d77.603344!16s%2Fg%2F1hm3rz7w1!19sChIJ7d4aXWEWrjsRlhzc-PSn5jk?authuser=0&hl=en&rclk=1,"12.9851622,77.60334399999999"
Madina Masjid,Mosque,"Madina Masjid, 3200, Jogupalya Rd, Eshwara Layout, Indiranagar, Bengaluru, Karnataka 560038","Eshwara Layout, Indiranagar","3200, Jogupalya Rd",Bengaluru,560038,Karnataka,IN,https://www.google.com/maps/place/Madina+Masjid/data=!4m7!3m6!1s0x3bae17ebb2f04671:0x32193883db1ceef8!8m2!3d12.9709737!4d77.6340659!16s%2Fg%2F11fn9ddjnk!19sChIJcUbwsusXrjsR-O4c24M4GTI?authuser=0&hl=en&rclk=1,"12.9709737,77.6340659"
Masjid E Khazi Mohalla,Mosque,"Masjid E Khazi Mohalla, 97, Narayan Pillai St, Bharati Nagar, Shivaji Nagar, Bengaluru, Karnataka 560001","Bharati Nagar, Shivaji Nagar","97, Narayan Pillai St",Bengaluru,560001,Karnataka,IN,https://www.google.com/maps/place/Masjid+E+Khazi+Mohalla/data=!4m7!3m6!1s0x3bae168a42013749:0x113e3ef053947bde!8m2!3d12.9866424!4d77.6091962!16s%2Fg%2F11g6q_5fsx!19sChIJSTcBQooWrjsR3nuUU_A-PhE?authuser=0&hl=en&rclk=1,"12.9866424,77.6091962"
Masjid-ur-Rahma,Mosque,"Masjid-ur-Rahma, 52, St Johns Church Rd, Bharati Nagar, Shivaji Nagar, Bengaluru, Karnataka 560005","Bharati Nagar, Shivaji Nagar","52, St Johns Church Rd",Bengaluru,560005,Karnataka,IN,https://www.google.com/maps/place/Masjid-ur-Rahma/data=!4m7!3m6!1s0x3bae16f5129e9395:0xc0d4cae7ba5fb2f7!8m2!3d12.9927173!4d77.6094693!16s%2Fg%2F124yc1kwy!19sChIJlZOeEvUWrjsR97JfuufK1MA?authuser=0&hl=en&rclk=1,"12.992717299999999,77.6094693"
Pension Mohalla Masjid,Mosque,"XJP2+WPP Pension Mohalla Masjid, Shivaji Rd, Rajiv Gandhi Colony, Shivaji Nagar, Bengaluru, Karnataka 560051","Rajiv Gandhi Colony, Shivaji Nagar","XJP2+WPP, Shivaji Rd",Bengaluru,560051,Karnataka,IN,https://www.google.com/maps/place/Pension+Mohalla+Masjid/data=!4m7!3m6!1s0x3bae16672aa0c009:0x257ec180baa1d5d3!8m2!3d12.9873416!4d77.6018316!16s%2Fg%2F11b6_nvwdc!19sChIJCcCgKmcWrjsR09WhuoDBfiU?authuser=0&hl=en&rclk=1,"12.987341599999999,77.6018316"
Masjid - In Shifaa Hospital - Ground Floor,Mosque,"Masjid - In Shifaa Hospital - Ground Floor, 333/22, Govinda Chetty Colony, Vasanth Nagar, Bengaluru, Karnataka 560051","Govinda Chetty Colony, Vasanth Nagar",333/22,Bengaluru,560051,Karnataka,IN,https://www.google.com/maps/place/Masjid+-+In+Shifaa+Hospital+-+Ground+Floor/data=!4m7!3m6!1s0x3bae166786cf8033:0x85dbe1f66b07e3af!8m2!3d12.989768!4d77.5987899!16s%2Fg%2F11cr_bdzry!19sChIJM4DPhmcWrjsRr-MHa_bh24U?authuser=0&hl=en&rclk=1,"12.989768,77.5987899"
Topkhana Masjid,Mosque,"Topkhana Masjid, 54, Dengate Bridge, Tophakhana, Kamgar Putala Vasahat, Shivajinagar, Pune, Maharashtra 411005","Tophakhana, Kamgar Putala Vasahat, Shivajinagar","54, Dengate Bridge",Pune,411005,Maharashtra,IN,https://www.google.com/maps/place/Topkhana+Masjid/data=!4m7!3m6!1s0x3bc2c063a73074c5:0xdb9eab04b4c6782c!8m2!3d18.5258503!4d73.8565766!16s%2Fg%2F11b7fsqstg!19sChIJxXQwp2PAwjsRLHjGtASrnts?authuser=0&hl=en&rclk=1,"18.5258503,73.8565766"
Masjid Al Badar,Mosque,"Masjid Al Badar, 133, Mackan Rd, Bharati Nagar, Shivaji Nagar, Bengaluru, Karnataka 560001","Bharati Nagar, Shivaji Nagar","133, Mackan Rd",Bengaluru,560001,Karnataka,IN,https://www.google.com/maps/place/Masjid+Al+Badar/data=!4m7!3m6!1s0x3bae168a4e44e7ab:0x96e9bf26e7fd89d7!8m2!3d12.9868888!4d77.6101721!16s%2Fg%2F11b8_x6jj3!19sChIJq-dETooWrjsR14n95ya_6ZY?authuser=0&hl=en&rclk=1,"12.9868888,77.6101721"
Shahvali dargah masjid,Mosque,"Shahvali dargah masjid, Wakadewadi, Shivajinagar, Pune, Maharashtra 411005","Wakadewadi, Shivajinagar",,Pune,411005,Maharashtra,IN,https://www.google.com/maps/place/Shahvali+dargah+masjid/data=!4m7!3m6!1s0x3bc2c0862b4911ef:0x32d5851d7889f48d!8m2!3d18.5371498!4d73.850338!16s%2Fg%2F1thvwqsv!19sChIJ7xFJK4bAwjsRjfSJeB2F1TI?authuser=0&hl=en&rclk=1,"18.537149799999998,73.850338"
Masjid-E-Abubakkar Siddique,Mosque,"Masjid-E-Abubakkar Siddique, 7, 2nd Cross Rd, Sultan Nagar, Bharati Nagar, Shivaji Nagar, Bengaluru, Karnataka 560001","Sultan Nagar, Bharati Nagar, Shivaji Nagar","7, 2nd Cross Rd",Bengaluru,560001,Karnataka,IN,https://www.google.com/maps/place/Masjid-E-Abubakkar+Siddique/data=!4m7!3m6!1s0x3bae168b32e6db3d:0xace03a06fa73c11f!8m2!3d12.9905563!4d77.6115206!16s%2Fg%2F11fx8c694j!19sChIJPdvmMosWrjsRH8Fz-gY64Kw?authuser=0&hl=en&rclk=1,"12.9905563,77.61152059999999"
Masjid Daar-e-Arqam msjd dr rqm,Mosque,"Masjid Daar-e-Arqam msjd dr rqm, 43, Road No. 6, Govandi Slums, Indira Nagar, Phase II, Shivaji Nagar, Mumbai, Maharashtra 400043","Govandi Slums, Indira Nagar, Phase II, Shivaji Nagar","43, Road No. 6",Mumbai,400043,Maharashtra,IN,https://www.google.com/maps/place/Masjid+Daar-e-Arqam+%D9%85%D8%B3%D8%AC%D8%AF+%D8%AF%D8%A7%D8%B1+%D8%A7%D8%B1%D9%82%D9%85%E2%80%AD/data=!4m7!3m6!1s0x3be7c66b20c17211:0x5b03a24fd48d4f32!8m2!3d19.0634691!4d72.9236184!16s%2Fg%2F11xlkt4n4!19sChIJEXLBIGvG5zsRMk-N1E-iA1s?authuser=0&hl=en&rclk=1,"19.0634691,72.9236184"
Fathima Masjid,Mosque,"Fathima Masjid, Old Korchi Palya, 56, Mir Obaidullah Rd, Bharati Nagar, Shivaji Nagar, Bengaluru, Karnataka 560051","Bharati Nagar, Shivaji Nagar","Old Korchi Palya, 56, Mir Obaidullah Rd",Bengaluru,560051,Karnataka,IN,https://www.google.com/maps/place/Fathima+Masjid/data=!4m7!3m6!1s0x3bae1660fd827331:0xa5f4042eada93825!8m2!3d12.9877523!4d77.6050511!16s%2Fg%2F11clyb119j!19sChIJMXOC_WAWrjsRJTiprS4E9KU?authuser=0&hl=en&rclk=1,"12.987752299999999,77.6050511"
Masjid e Abu Hurairah Ahle Hadeeth,Mosque,"Masjid e Abu Hurairah Ahle Hadeeth, 2, Dhanakoti Rd, Sulthangunta, Shivaji Nagar, Bengaluru, Karnataka 560051","Sulthangunta, Shivaji Nagar","2, Dhanakoti Rd",Bengaluru,560051,Karnataka,IN,https://www.google.com/maps/place/Masjid+e+Abu+Hurairah+Ahle+Hadeeth/data=!4m7!3m6!1s0x3bae165fe8d94763:0x51ec1af876290f2!8m2!3d12.9912403!4d77.6066651!16s%2Fg%2F11c1nsbw4r!19sChIJY0fZ6F8WrjsR8pBih6_BHgU?authuser=0&hl=en&rclk=1,"12.9912403,77.6066651"
Masjid E Umar Farooq,Mosque,"Masjid E Umar Farooq, 31, 12th E St Rd, Rajiv Gandhi Colony, Shivaji Nagar, Bengaluru, Karnataka 560051","Rajiv Gandhi Colony, Shivaji Nagar","31, 12th E St Rd",Bengaluru,560051,Karnataka,IN,https://www.google.com/maps/place/Masjid+E+Umar+Farooq/data=!4m7!3m6!1s0x3bae1660d7fea3f5:0x155fa15f0e92e6f1!8m2!3d12.9873119!4d77.6027843!16s%2Fg%2F11c6lkp_89!19sChIJ9aP-12AWrjsR8eaSDl-hXxU?authuser=0&hl=en&rclk=1,"12.9873119,77.6027843"
Masjid Abdul Razaq,Mosque,"Masjid Abdul Razaq, 3, B Cross Street Road, Sulthangunta, Shivaji Nagar, Bengaluru, Karnataka 560051","Sulthangunta, Shivaji Nagar","3, B Cross Street Road",Bengaluru,560051,Karnataka,IN,https://www.google.com/maps/place/Masjid+Abdul+Razaq/data=!4m7!3m6!1s0x3bae1660277bd6a3:0x3e90820843a2e78!8m2!3d12.9885115!4d77.6077545!16s%2Fg%2F11cn67s8t6!19sChIJo9Z7J2AWrjsReC46hCAI6QM?authuser=0&hl=en&rclk=1,"12.9885115,77.6077545"
Yajman Mohammed Ali Hall & Masjid,Mosque,"Yajman Mohammed Ali Hall & Masjid, 5, Veera Pillai St, Tasker Town, Shivaji Nagar, Bengaluru, Karnataka 560051","Tasker Town, Shivaji Nagar","5, Veera Pillai St",Bengaluru,560051,Karnataka,IN,https://www.google.com/maps/place/Yajman+Mohammed+Ali+Hall+%26+Masjid/data=!4m7!3m6!1s0x3bae166205054815:0x3099b108a4c9ec52!8m2!3d12.9841842!4d77.6072071!16s%2Fg%2F11b6n8_f6t!19sChIJFUgFBWIWrjsRUuzJpAixmTA?authuser=0&hl=en&rclk=1,"12.9841842,77.6072071"
Masjid Un Noor,Mosque,"Masjid Un Noor, 7, Jumma Masjid Rd, Sulthangunta, Shivaji Nagar, Bengaluru, Karnataka 560051","Sulthangunta, Shivaji Nagar","7, Jumma Masjid Rd",Bengaluru,560051,Karnataka,IN,https://www.google.com/maps/place/Masjid+Un+Noor/data=!4m7!3m6!1s0x3bae172733d6239f:0xaf2bc72ad910cce9!8m2!3d12.9861544!4d77.6063832!16s%2Fg%2F11j0stnx6m!19sChIJnyPWMycXrjsR6cwQ2SrHK68?authuser=0&hl=en&rclk=1,"12.9861544,77.6063832"
Jumma Masjid Trust Board,Mosque,"Jumma Masjid Trust Board, 472, Jumma Masjid Rd, Tasker Town, Shivaji Nagar, Bengaluru, Karnataka 560001","Tasker Town, Shivaji Nagar","472, Jumma Masjid Rd",Bengaluru,560001,Karnataka,IN,https://www.google.com/maps/place/Jumma+Masjid+Trust+Board/data=!4m7!3m6!1s0x3bae1661f132b313:0xf21cffe7c1e634bd!8m2!3d12.982565!4d77.6061644!16s%2Fg%2F1tf34d5y!19sChIJE7My8WEWrjsRvTTmwef_HPI?authuser=0&hl=en&rclk=1,"12.982565,77.6061644"
Modi Masjid,Mosque,"Modi Masjid, Modi Abdul Gafoor Masjid, Chikka Bazar Rd, Swamy Shivanandapuram, Shivaji Nagar, Bengaluru, Karnataka 560051","Swamy Shivanandapuram, Shivaji Nagar","Modi Abdul Gafoor Masjid, Chikka Bazar Rd",Bengaluru,560051,Karnataka,IN,https://www.google.com/maps/place/Modi+Masjid/data=!4m7!3m6!1s0x3bae1666666aa993:0x6baa085d573c83de!8m2!3d12.9854848!4d77.598567!16s%2Fg%2F11txmz9cmb!19sChIJk6lqZmYWrjsR3oM8V10Iqms?authuser=0&hl=en&rclk=1,"12.9854848,77.598567"
Suffah Musalla,Mosque,"XJR5+JRH Suffah Musalla, Seppings Rd, Bharati Nagar, Shivaji Nagar, Bengaluru, Karnataka 560051","Bharati Nagar, Shivaji Nagar","XJR5+JRH, Seppings Rd",Bengaluru,560051,Karnataka,IN,https://www.google.com/maps/place/Suffah+Musalla/data=!4m7!3m6!1s0x3bae16f537384eef:0xf9e46c4608a1cf91!8m2!3d12.9915635!4d77.6096102!16s%2Fg%2F11c5xnl1xz!19sChIJ7044N_UWrjsRkc-hCEZs5Pk?authuser=0&hl=en&rclk=1,"12.9915635,77.60961019999999"
Madeena Masjid,Mosque,"Madeena Masjid, 53, OPH Road, next to Standard Biryani, Sulthangunta, Shivaji Nagar, Bengaluru, Karnataka 560051","Sulthangunta, Shivaji Nagar","53, OPH Road, next to Standard Biryani",Bengaluru,560051,Karnataka,IN,https://www.google.com/maps/place/Madeena+Masjid/data=!4m7!3m6!1s0x3bae17b41c22945d:0xedb3665352a94677!8m2!3d12.9909986!4d77.6054126!16s%2Fg%2F11hjlr4rw6!19sChIJXZQiHLQXrjsRd0apUlNms-0?authuser=0&hl=en&rclk=1,"12.9909986,77.6054126"
Masjid E Abrar,Mosque,"XJP3+QCR Masjid E Abrar, Rajiv Gandhi Colony, Shivaji Nagar, Bengaluru, Karnataka 560051","Rajiv Gandhi Colony, Shivaji Nagar",XJP3+QCR,Bengaluru,560051,Karnataka,IN,https://www.google.com/maps/place/Masjid+E+Abrar/data=!4m7!3m6!1s0x3bae166118a33855:0x703630aca1bd561c!8m2!3d12.9869763!4d77.6035307!16s%2Fg%2F11d_87m3xj!19sChIJVTijGGEWrjsRHFa9oawwNnA?authuser=0&hl=en&rclk=1,"12.9869763,77.6035307"
Makkah Masjid,Mosque,"Makkah Masjid, 45/a/19, Shri Ramdeo Maurya Marg, Govandi Slums, Govandi West, Raman Mama Nagar, Shivaji Nagar, Mumbai, Maharashtra 400043","Govandi Slums, Govandi West, Raman Mama Nagar, Shivaji Nagar","45/a/19, Shri Ramdeo Maurya Marg",Mumbai,400043,Maharashtra,IN,https://www.google.com/maps/place/Makkah+Masjid/data=!4m7!3m6!1s0x3be7c614f26ddde3:0xd170cfcf75561161!8m2!3d19.0620639!4d72.920189!16s%2Fg%2F1pv1vrrp2!19sChIJ491t8hTG5zsRYRFWdc_PcNE?authuser=0&hl=en&rclk=1,"19.0620639,72.920189"
Masjid E Fazal,Mosque,"Masjid E Fazal, 9, B Cross Street Road, Sulthangunta, Shivaji Nagar, Bengaluru, Karnataka 560051","Sulthangunta, Shivaji Nagar","9, B Cross Street Road",Bengaluru,560051,Karnataka,IN,https://www.google.com/maps/place/Masjid+E+Fazal/data=!4m7!3m6!1s0x3bae166002898e9d:0x1b59ea93a5431a14!8m2!3d12.9898928!4d77.6077213!16s%2Fg%2F11cjg5x127!19sChIJnY6JAmAWrjsRFBpDpZPqWRs?authuser=0&hl=en&rclk=1,"12.9898928,77.6077213"
Faizane Raza Masjid fyDn rD msjd,Mosque,"Faizane Raza Masjid fyDn rD msjd, Shivaji Nagar - 2 , Govandi, Road No. 14, Kamala Nagar, Shivaji Nagar, Mumbai, Maharashtra 400043","Indra Nagar, Govandi West, Kamala Nagar, Shivaji Nagar","Shivaji Nagar - 2 , Govandi, Road No. 14",Mumbai,400043,Maharashtra,IN,https://www.google.com/maps/place/Faizane+Raza+Masjid+%D9%81%DB%8C%D8%B6%D8%A7%D9%86+%D8%B1%D8%B6%D8%A7+%D9%85%D8%B3%D8%AC%D8%AF%E2%80%AD/data=!4m7!3m6!1s0x3be7c6694a7fce4b:0xdb4766e85e189b37!8m2!3d19.0614206!4d72.9297812!16s%2Fg%2F1pwfbgdmp!19sChIJS85_SmnG5zsRN5sYXuhmR9s?authuser=0&hl=en&rclk=1,"19.061420599999998,72.9297812"
Masjid E Noor Ul Huda,Mosque,"Masjid E Noor Ul Huda, Govinda Chetty Street, Govinda Chetty Colony, Rajiv Gandhi Colony, Shivaji Nagar, Bengaluru, Karnataka 560051","Govinda Chetty Colony, Rajiv Gandhi Colony, Shivaji Nagar",Govinda Chetty Street,Bengaluru,560051,Karnataka,IN,https://www.google.com/maps/place/Masjid+E+Noor+Ul+Huda/data=!4m7!3m6!1s0x3bae16670c6c8f33:0xf740ad3a457d786b!8m2!3d12.9883625!4d77.5996431!16s%2Fg%2F11b7f3k2gk!19sChIJM49sDGcWrjsRa3h9RTqtQPc?authuser=0&hl=en&rclk=1,"12.9883625,77.5996431"
masjid-e-abdur razzaq,Mosque,"masjid-e-abdur razzaq, 25, B Cross Street Road, Sulthangunta, Shivaji Nagar, Bengaluru, Karnataka 560051","Sulthangunta, Shivaji Nagar","25, B Cross Street Road",Bengaluru,560051,Karnataka,IN,https://www.google.com/maps/place/masjid-e-abdur+razzaq/data=!4m7!3m6!1s0x3bae16601d50c40b:0x6ce69d3fd4423221!8m2!3d12.989688!4d77.60776!16s%2Fg%2F11f25p3_3l!19sChIJC8RQHWAWrjsRITJC1D-d5mw?authuser=0&hl=en&rclk=1,"12.989688,77.60776"
Mosque (Prayer Room),Mosque,"Mosque (Prayer Room), Tower-B, 1st floor, Mahatma Gandhi Rd, Shanthala Nagar, Shivaji Nagar, Bengaluru, Karnataka 560001","Haridevpur, Shanthala Nagar, Shivaji Nagar","Tower-B, 1st floor, Mahatma Gandhi Rd",Bengaluru,560001,Karnataka,IN,https://www.google.com/maps/place/Mosque+%28Prayer+Room%29/data=!4m7!3m6!1s0x3bae167db2e55555:0x4172dffb26a6ba48!8m2!3d12.9752505!4d77.6050156!16s%2Fg%2F11g6pg33l1!19sChIJVVXlsn0WrjsRSLqmJvvfckE?authuser=0&hl=en&rclk=1,"12.9752505,77.6050156"
Masjid-e-Latif,Mosque,"Masjid-e-Latif, 15, Swamy Shivanandapuram, Shivaji Nagar, Bengaluru, Karnataka 560051","Swamy Shivanandapuram, Shivaji Nagar",15,Bengaluru,560051,Karnataka,IN,https://www.google.com/maps/place/Masjid-e-Latif/data=!4m7!3m6!1s0x3bae1661357a18ef:0x55178af6339e314c!8m2!3d12.9859646!4d77.6022117!16s%2Fg%2F11gf8hsvbx!19sChIJ7xh6NWEWrjsRTDGeM_aKF1U?authuser=0&hl=en&rclk=1,"12.985964599999999,77.6022117"
Bengaluru Markaz,Religious destination,"XJM2+5R5 Bengaluru Markaz, Shivaji Nagar, Bengaluru, Karnataka 560001",Shivaji Nagar,XJM2+5R5,Bengaluru,560001,Karnataka,IN,https://www.google.com/maps/place/Bengaluru+Markaz/data=!4m7!3m6!1s0x3bae16638a649177:0xbd79ab0f6d1e173e!8m2!3d12.9828922!4d77.6021094!16s%2Fg%2F11gfjrgmr7!19sChIJd5FkimMWrjsRPhcebQ-reb0?authuser=0&hl=en&rclk=1,"12.9828922,77.6021094"
Masjid Khatdeejatul Kubra,Mosque,"XJP3+JCR Masjid Khatdeejatul Kubra, Swamy Shivanandapuram, Shivaji Nagar, Bengaluru, Karnataka 560051","Swamy Shivanandapuram, Shivaji Nagar",XJP3+JCR,Bengaluru,560051,Karnataka,IN,https://www.google.com/maps/place/Masjid+Khatdeejatul+Kubra/data=!4m7!3m6!1s0x3bae16613d4ec9df:0x65d156d65a404de8!8m2!3d12.9866206!4d77.6035136!16s%2Fg%2F11f014wswh!19sChIJ38lOPWEWrjsR6E1AWtZW0WU?authuser=0&hl=en&rclk=1,"12.9866206,77.6035136"
Basavannanagar Mosque,Mosque,"Basavannanagar Mosque, Masjid Rd, Shivaji Nagar, Basavanna Nagar, Whitefield, Bengaluru, Karnataka 560048","Shivaji Nagar, Basavanna Nagar, Whitefield",Masjid Rd,Bengaluru,560048,Karnataka,IN,https://www.google.com/maps/place/Basavannanagar+Mosque/data=!4m7!3m6!1s0x3bae118d7e7a090b:0x8cfb01a61ac39767!8m2!3d12.9843606!4d77.7197633!16s%2Fg%2F11dzt6nxx6!19sChIJCwl6fo0RrjsRZ5fDGqYB-4w?authuser=0&hl=en&rclk=1,"12.984360599999999,77.7197633"
SHAHI MASJID,Mosque,"GVF3+743 SHAHI MASJID, Gaothan, Shivajinagar, Pune, Maharashtra 411005","Gaothan, Shivajinagar",GVF3+743,Pune,411005,Maharashtra,IN,https://www.google.com/maps/place/SHAHI+MASJID/data=!4m7!3m6!1s0x3bc2c1e0eaefce07:0xdd2e64c83d0a2bd9!8m2!3d18.5231314!4d73.8528078!16s%2Fg%2F11s5hj2t89!19sChIJB87v6uDBwjsR2SsKPchkLt0?authuser=0&hl=en&rclk=1,"18.5231314,73.8528078"
Masjid O Madrasa Qasmia,Mosque,"XJP5+CC9 Masjid O Madrasa Qasmia, Evening bazaar, Sulthangunta, Shivaji Nagar, Bengaluru, Karnataka 560001","Sulthangunta, Shivaji Nagar","XJP5+CC9, Evening bazaar",Bengaluru,560001,Karnataka,IN,https://www.google.com/maps/place/Masjid+O+Madrasa+Qasmia/data=!4m7!3m6!1s0x3bae1660486427b9:0x34162015e7a1a74e!8m2!3d12.9860295!4d77.6086101!16s%2Fg%2F11c52qjf3m!19sChIJuSdkSGAWrjsRTqeh5xUgFjQ?authuser=0&hl=en&rclk=1,"12.986029499999999,77.60861009999999"
Masjid E Noor,Mosque,"XJQ2+CX9 Masjid E Noor, Rajiv Gandhi Colony, Shivaji Nagar, Bengaluru, Karnataka 560051","Rajiv Gandhi Colony, Shivaji Nagar",XJQ2+CX9,Bengaluru,560051,Karnataka,IN,https://www.google.com/maps/place/Masjid+E+Noor/data=!4m7!3m6!1s0x3bae1660c972642d:0x1ba6d26844c78316!8m2!3d12.9885481!4d77.6024913!16s%2Fg%2F11dxdj86xn!19sChIJLWRyyWAWrjsRFoPHRGjSphs?authuser=0&hl=en&rclk=1,"12.9885481,77.6024913"
Masjid O Madrasa Valiullah,Mosque,"Masjid O Madrasa Valiullah, 11, A St Rd, Sulthangunta, Shivaji Nagar, Bengaluru, Karnataka 560051","Sulthangunta, Shivaji Nagar","11, A St Rd",Bengaluru,560051,Karnataka,IN,https://www.google.com/maps/place/Masjid+O+Madrasa+Valiullah/data=!4m7!3m6!1s0x3bae16603e4f5d05:0xbabfa86efeb4bd25!8m2!3d12.9890329!4d77.6066619!16s%2Fg%2F11dxcjsdfn!19sChIJBV1PPmAWrjsRJb20_m6ov7o?authuser=0&hl=en&rclk=1,"12.9890329,77.60666189999999"
Masjid E IMAMAbbu Hanifa,Mosque,"XJP4+P2R Masjid E IMAMAbbu Hanifa, Sulthangunta, Shivaji Nagar, Bengaluru, Karnataka 560051","Sulthangunta, Shivaji Nagar",XJP4+P2R,Bengaluru,560051,Karnataka,IN,https://www.google.com/maps/place/Masjid+E+IMAMAbbu+Hanifa/data=!4m7!3m6!1s0x3bae17369352ca7b:0xfbf5b7828582528c!8m2!3d12.9868627!4d77.605019!16s%2Fg%2F11h220h2f6!19sChIJe8pSkzYXrjsRjFKChYK39fs?authuser=0&hl=en&rclk=1,"12.9868627,77.605019"
Masjid Al Khair,Mosque,"XJM3+VP5 Masjid Al Khair, 152, Chandni Chowk Rd, Swamy Shivanandapuram, Shivaji Nagar, Bengaluru, Karnataka 560051","Swamy Shivanandapuram, Shivaji Nagar","XJM3+VP5, 152, Chandni Chowk Rd",Bengaluru,560051,Karnataka,IN,https://www.google.com/maps/place/Masjid+Al+Khair/data=!4m7!3m6!1s0x3bae16617dd6f5af:0x27b5a525915d84a7!8m2!3d12.9847389!4d77.6045421!16s%2Fg%2F11g8cy5fd8!19sChIJr_XWfWEWrjsRp4RdkSWltSc?authuser=0&hl=en&rclk=1,"12.9847389,77.6045421"
Masjid E Khadeem ( Police Lane ),Mosque,"XJP6+V22 Masjid E Khadeem ( Police Lane ), Mackan Rd, Bharati Nagar, Shivaji Nagar, Bengaluru, Karnataka 560001","Bharati Nagar, Shivaji Nagar","XJP6+V22, Mackan Rd",Bengaluru,560001,Karnataka,IN,https://www.google.com/maps/place/Masjid+E+Khadeem+%28+Police+Lane+%29/data=!4m7!3m6!1s0x3bae17e855f114b5:0x71513224f3adac!8m2!3d12.9871413!4d77.6100059!16s%2Fg%2F11f6kx6pwd!19sChIJtRTxVegXrjsRrK3zJDJRcQA?authuser=0&hl=en&rclk=1,"12.9871413,77.61000589999999"
Dargah Hazrat Syed Jamal Shah Qadri,Religious destination,"Shop No, Dargah Hazrat Syed Jamal Shah Qadri, 79, Lubbay Masjid St, Sulthangunta, Shivaji Nagar, Bengaluru, Karnataka 560001","Sulthangunta, Shivaji Nagar","Shop No, 79, Lubbay Masjid St",Bengaluru,560001,Karnataka,IN,https://www.google.com/maps/place/Dargah+Hazrat+Syed+Jamal+Shah+Qadri/data=!4m7!3m6!1s0x3bae176ce28ddbd9:0x8a6be85c56c1eff!8m2!3d12.9857486!4d77.6056338!16s%2Fg%2F11mr29x3jd!19sChIJ2duN4mwXrjsR_x5sxYW-pgg?authuser=0&hl=en&rclk=1,"12.985748599999999,77.60563379999999"
Musalla Aswan,Mosque,"XJV4+C63 Musalla Aswan, Unnamed Road, Sulthangunta, Shivaji Nagar, Bengaluru, Karnataka 560051","Sulthangunta, Shivaji Nagar","XJV4+C63, Unnamed Road",Bengaluru,560051,Karnataka,IN,https://www.google.com/maps/place/Musalla+Aswan/data=!4m7!3m6!1s0x3bae175e9c6d098b:0xb06e5780a164b7aa!8m2!3d12.9935076!4d77.6055608!16s%2Fg%2F11h11ksm7c!19sChIJiwltnF4XrjsRqrdkoYBXbrA?authuser=0&hl=en&rclk=1,"12.9935076,77.60556079999999"
Pension Moholla Masjid,Mosque,"Pension Moholla Masjid, 61-64, Sultan B Cross Rd, Shivaji Nagar, Bengaluru, Karnataka 560001",Shivaji Nagar,"61-64, Sultan B Cross Rd",Bengaluru,560001,Karnataka,IN,https://www.google.com/maps/place/Pension+Moholla+Masjid/data=!4m7!3m6!1s0x3bae1662476454c1:0x9c3666051f5da456!8m2!3d12.9834436!4d77.6060115!16s%2Fg%2F11hbldmldb!19sChIJwVRkR2IWrjsRVqRdHwVmNpw?authuser=0&hl=en&rclk=1,"12.9834436,77.6060115"
Masjid Al Latheef,Mosque,"Masjid Al Latheef, Masjid Al Latheef # 21, 15th B Street, Shivaji Rd, Shivaji Nagar, Bengaluru, Karnataka 560051","Swamy Shivanandapuram, Shivaji Nagar","Masjid Al Latheef # 21, 15th B Street, Shivaji Rd",Bengaluru,560051,Karnataka,IN,https://www.google.com/maps/place/Masjid+Al+Latheef/data=!4m7!3m6!1s0x3bae17fccf6740ad:0x2450526879c3a2f5!8m2!3d12.9855621!4d77.6020055!16s%2Fg%2F11g0hz50rc!19sChIJrUBnz_wXrjsR9aLDeWhSUCQ?authuser=0&hl=en&rclk=1,"12.9855621,77.60200549999999"
Madrassa E Mahmoodia,Mosque,"Madrassa E Mahmoodia, 126, Old Market Rd, Bharati Nagar, Shivaji Nagar, Bengaluru, Karnataka 560001","Bharati Nagar, Shivaji Nagar","126, Old Market Rd",Bengaluru,560001,Karnataka,IN,https://www.google.com/maps/place/Madrassa+E+Mahmoodia/data=!4m7!3m6!1s0x3bae17ecc51cd30b:0xf6e8371c3e16d637!8m2!3d12.985172!4d77.6104659!16s%2Fg%2F11n5xnhyhp!19sChIJC9McxewXrjsRN9YWPhw36PY?authuser=0&hl=en&rclk=1,"12.985171999999999,77.6104659"
Lal masjid,Grocery store,"Lal masjid, 16, 8th St, Sulthangunta, Shivaji Nagar, Bengaluru, Karnataka 560046","Sulthangunta, Shivaji Nagar","16, 8th St",Bengaluru,560046,Karnataka,IN,https://www.google.com/maps/place/Lal+masjid/data=!4m7!3m6!1s0x3bae172f436e67b9:0x9445fd37e2c76c53!8m2!3d12.9866144!4d77.606662!16s%2Fg%2F11t7fdhsn8!19sChIJuWduQy8XrjsRU2zH4jf9RZQ?authuser=0&hl=en&rclk=1,"12.986614399999999,77.606662"
master horses,Mosque,"master horses, 11, Seppings Rd, Sulthangunta, Shivaji Nagar, Bengaluru, Karnataka 560051","Sulthangunta, Shivaji Nagar","11, Seppings Rd",Bengaluru,560051,Karnataka,IN,https://www.google.com/maps/place/master+horses/data=!4m7!3m6!1s0x3bae17439e2d35fd:0x602733e4a82f9f08!8m2!3d12.9872576!4d77.6084233!16s%2Fg%2F11fknt505f!19sChIJ_TUtnkMXrjsRCJ8vqOQzJ2A?authuser=0&hl=en&rclk=1,"12.9872576,77.6084233"
Jamiat Us Suffah,Mosque,"Jamiat Us Suffah, L no 10 street, A M road cross, Shivaji Nagar, Bengaluru, Karnataka 560051","Sulthangunta, Shivaji Nagar","L no 10 street, A M road cross",Bengaluru,560051,Karnataka,IN,https://www.google.com/maps/place/Jamiat+Us+Suffah/data=!4m7!3m6!1s0x3bae1747c222279f:0x99f3135d7b61580b!8m2!3d12.9876584!4d77.6075428!16s%2Fg%2F11ghfjk2ss!19sChIJnyciwkcXrjsRC1hhe10T85k?authuser=0&hl=en&rclk=1,"12.987658399999999,77.60754279999999"
Masjid ur Rahmaniya,Place of worship,"XJQ2+CX9 Masjid ur Rahmaniya, Bengaluru, Rajiv Gandhi Colony, Shivaji Nagar, Bengaluru, Karnataka 560051","Rajiv Gandhi Colony, Shivaji Nagar","XJQ2+CX9, Bengaluru",Bengaluru,560051,Karnataka,IN,https://www.google.com/maps/place/Masjid+ur+Rahmaniya/data=!4m7!3m6!1s0x3bae1704bc6a6697:0x3c89d1622bbb81be!8m2!3d12.9885481!4d77.6024913!16s%2Fg%2F11hzy8mr6h!19sChIJl2ZqvAQXrjsRvoG7K2LRiTw?authuser=0&hl=en&rclk=1,"12.9885481,77.6024913"
Sultan Sha Markaz,Mosque,"Sultan Sha Markaz, 16, Bowring Hospital Rd, Shivaji Nagar, Bengaluru, Karnataka 560001",Shivaji Nagar,"16, Bowring Hospital Rd",Bengaluru,560001,Karnataka,IN,https://www.google.com/maps/place/Sultan+Sha+Markaz/data=!4m7!3m6!1s0x3bae173f444cb547:0x3b8bb6bada150951!8m2!3d12.982186!4d77.6042418!16s%2Fg%2F11p796c4f1!19sChIJR7VMRD8XrjsRUQkV2rq2izs?authuser=0&hl=en&rclk=1,"12.982185999999999,77.6042418"
Hari Masjid,Mosque,"3W8C+4WC Hari Masjid, Govandi Slums, Govandi West, Phase 1, Shivaji Nagar, Mumbai, Maharashtra 400043","Govandi Slums, Govandi West, Phase 1, Shivaji Nagar",3W8C+4WC,Mumbai,400043,Maharashtra,IN,https://www.google.com/maps/place/Hari+Masjid/data=!4m7!3m6!1s0x3be7c76c9ff4fe63:0x758845ea22ee8f2b!8m2!3d19.065335!4d72.9222086!16s%2Fg%2F11k540t6gw!19sChIJY_70n2zH5zsRK4_uIupFiHU?authuser=0&hl=en&rclk=1,"19.065334999999997,72.92220859999999"
Junaidiya Deeniyat School,Mosque,"Junaidiya Deeniyat School, 470, Jumma Masjid Rd, Tasker Town, Sampangi Rama Nagar, Bengaluru, Karnataka 560001","Tasker Town, Sampangi Rama Nagar","470, Jumma Masjid Rd",Bengaluru,560001,Karnataka,IN,https://www.google.com/maps/place/Junaidiya+Deeniyat+School/data=!4m7!3m6!1s0x3bae16625cc1e01b:0x3f9539661855ed80!8m2!3d12.9826344!4d77.606171!16s%2Fg%2F11f0_fgf70!19sChIJG-DBXGIWrjsRgO1VGGY5lT8?authuser=0&hl=en&rclk=1,"12.9826344,77.606171"
Husainiya Masjid Patil state (Shivajinagar),Mosque,"GVJ3+X89 Husainiya Masjid Patil state (Shivajinagar), Old Mumbai - Pune Hwy, Patil Estate, Shivajinagar, Pune, Maharashtra 411005","Patil Estate, Shivajinagar","GVJ3+X89, Old Mumbai - Pune Hwy",Pune,411005,Maharashtra,IN,https://www.google.com/maps/place/Husainiya+Masjid+Patil+state+%28Shivajinagar%29/data=!4m7!3m6!1s0x3bc2c17911506821:0xc681da2f5e631176!8m2!3d18.532419!4d73.8533649!16s%2Fg%2F11jt2xdwyh!19sChIJIWhQEXnBwjsRdhFjXi_agcY?authuser=0&hl=en&rclk=1,"18.532419,73.8533649"
Char minar,Mosque,"2JHF+RXC Char minar, Char minarRd, Sulthangunta, Shivaji Nagar, Bengaluru, Karnataka 560051","Sulthangunta, Shivaji Nagar","2JHF+RXC, Char minarRd",Bengaluru,560051,Karnataka,IN,https://www.google.com/maps/place/Char+minar/data=!4m7!3m6!1s0x3bae175ab17d71d1:0xc79696fe356f4c91!8m2!3d13.0295589!4d77.6248979!16s%2Fg%2F11rmwy08h6!19sChIJ0XF9sVoXrjsRkUxvNf6Wlsc?authuser=0&hl=en&rclk=1,"13.0295589,77.6248979"
Masjid_E_Muhammadi,Mosque,"GVJ2+MC5 Masjid_E_Muhammadi, opp. Bus Stand, Narveer Tanaji Wadi, Shivajinagar, Pune, Maharashtra 411005","Narveer Tanaji Wadi, Shivajinagar","GVJ2+MC5, opp. Bus Stand",Pune,411005,Maharashtra,IN,https://www.google.com/maps/place/Masjid_E_Muhammadi/data=!4m7!3m6!1s0x3bc2c16a0202caf1:0xc16d303e4af212a!8m2!3d18.5317925!4d73.8512601!16s%2Fg%2F11s5n6ls_h!19sChIJ8coCAmrBwjsRKiGv5APTFgw?authuser=0&hl=en&rclk=1,"18.531792499999998,73.85126009999999"
Shafi Masjid,Mosque,"Shafi Masjid, 5th, B St, Halasuru, Bharati Nagar, Shivaji Nagar, Bengaluru, Karnataka 560001","Halasuru, Bharati Nagar, Shivaji Nagar","5th, B St",Bengaluru,560001,Karnataka,IN,https://www.google.com/maps/place/Shafi+Masjid/data=!4m7!3m6!1s0x3bae17121eaf4175:0x3498177182af6729!8m2!3d12.9891448!4d77.6121619!16s%2Fg%2F11h6f89s22!19sChIJdUGvHhIXrjsRKWevgnEXmDQ?authuser=0&hl=en&rclk=1,"12.9891448,77.61216189999999"
Police headquarters masjid,Mosque,"GRGW+F5J Police headquarters masjid, 1186/A, Modern Engineering College Rd, off Jangali Maharaj Road, Sumukh Society, Shivajinagar, Pune, Maharashtra 411005","Sumukh Society, Shivajinagar","GRGW+F5J, 1186/A, Modern Engineering College Rd, off Jangali Maharaj Road",Pune,411005,Maharashtra,IN,https://www.google.com/maps/place/Police+headquarters+masjid/data=!4m7!3m6!1s0x3bc2c1ff36cd46e5:0x636c05ffaa9357e3!8m2!3d18.5263855!4d73.8464639!16s%2Fg%2F11kr6txwf_!19sChIJ5UbNNv_BwjsR41eTqv8FbGM?authuser=0&hl=en&rclk=1,"18.5263855,73.8464639"
Star Plaza Masjid (Darul Huda),Mosque,"4th Floor, XJM4+HR4 Star Plaza Masjid (Darul Huda), Star Plaza, Jumma Masjid Rd, Tasker Town, Shivaji Nagar, Bengaluru, Karnataka 560051","Tasker Town, Shivaji Nagar","4th Floor, XJM4+HR4 Star Plaza, Jumma Masjid Rd",Bengaluru,560051,Karnataka,IN,https://www.google.com/maps/place/Star+Plaza+Masjid+%28Darul+Huda%29/data=!4m7!3m6!1s0x3bae170aa1370a73:0xcf50c3961cc15792!8m2!3d12.983892!4d77.6069515!16s%2Fg%2F11lpwp0qsv!19sChIJcwo3oQoXrjsRklfBHJbDUM8?authuser=0&hl=en&rclk=1,"12.983891999999999,77.6069515"
Masjed o madrasa Qasmiya Evening bazaar shivaji Nagar Bangalore 560001,Mosque,"XJP5+H6G Masjed o madrasa Qasmiya Evening bazaar shivaji Nagar Bangalore 560001, Sulthangunta, Shivaji Nagar, Bengaluru, Karnataka 560051","Sulthangunta, Shivaji Nagar",XJP5+H6G,Bengaluru,560051,Karnataka,IN,https://www.google.com/maps/place/Masjed+o+madrasa+Qasmiya+Evening+bazaar+shivaji+Nagar+Bangalore+560001/data=!4m7!3m6!1s0x3bae179bc2181459:0xc6f783ba3b78483b!8m2!3d12.9864285!4d77.6080737!16s%2Fg%2F11h6qy2m6x!19sChIJWRQYwpsXrjsRO0h4O7qD98Y?authuser=0&hl=en&rclk=1,"12.986428499999999,77.60807369999999"
New Evolve,Mosque,"New Evolve, 8, 2nd Cross, Lubbay Masjid Street, Near-Diva, Shivaji Nagar, Bengaluru, Karnataka 560001","Tasker Town, Shivaji Nagar","8, 2nd Cross, Lubbay Masjid Street, Near-Diva, Shivaji Nagar",Bengaluru,560001,Karnataka,IN,https://www.google.com/maps/place/New+Evolve/data=!4m7!3m6!1s0x3bae1689ca23219f:0x998e74ac720e5223!8m2!3d12.9823298!4d77.609132!16s%2Fg%2F1tl_k4k_!19sChIJnyEjyokWrjsRI1IOcqx0jpk?authuser=0&hl=en&rclk=1,"12.982329799999999,77.609132"
Hanafi masjid,Mosque,"Parallel, Hanafi masjid, Shop No. 190, Jain Temple Road, To, Jumma Masjid Rd, Sulthangunta, Shivaji Nagar, Bengaluru, Karnataka 560051","Sulthangunta, Shivaji Nagar","Parallel, Shop No. 190, Jain Temple Road, To, Jumma Masjid Rd",Bengaluru,560051,Karnataka,IN,https://www.google.com/maps/place/Hanafi+masjid/data=!4m7!3m6!1s0x3bae1735c83db1f1:0xd364ed8ac5bcb961!8m2!3d12.9881197!4d77.6055228!16s%2Fg%2F11vcxkh9sm!19sChIJ8bE9yDUXrjsRYbm8xYrtZNM?authuser=0&hl=en&rclk=1,"12.988119699999999,77.6055228"
Masjid E Ahmed Hussain,Mosque,"Masjid E Ahmed Hussain, 94, Sultan Gunta Rd, Sulthangunta, Shivaji Nagar, Bengaluru, Karnataka 560051","Sulthangunta, Shivaji Nagar","94, Sultan Gunta Rd",Bengaluru,560051,Karnataka,IN,https://www.google.com/maps/place/Masjid+E+Ahmed+Hussain/data=!4m7!3m6!1s0x3bae166037970999:0x14098c4ad2fff7a2!8m2!3d12.9881737!4d77.6064811!16s%2Fg%2F11c48sskld!19sChIJmQmXN2AWrjsRovf_0kqMCRQ?authuser=0&hl=en&rclk=1,"12.988173699999999,77.6064811"
Juma masjid,Mosque,"88J6+4JH Juma masjid, Jumma Masjid Road, Sulthangunta, Shivaji Nagar, Bengaluru, Hitnal, Karnataka 583234","Sulthangunta, Shivaji Nagar","88J6+4JH, Jumma Masjid Road","Bengaluru, Hitnal",,Karnataka,IN,https://www.google.com/maps/place/Juma+masjid/data=!4m7!3m6!1s0x3bb9d316e8f1c4b9:0x44d545da44766cf8!8m2!3d15.3303107!4d76.3116102!16s%2Fg%2F11svlb6y38!19sChIJucTx6BbTuTsR-Gx2RNpF1UQ?authuser=0&hl=en&rclk=1,"15.3303107,76.31161019999999"
sultaan shaah msjid,Mosque,"XJP4+77M sultaan shaah msjid, Sulthangunta, Shivaji Nagar, Bengaluru, Karnataka 560051","Sulthangunta, Shivaji Nagar",XJP4+77M,Bengaluru,,Karnataka,IN,https://www.google.com/maps/place/%E0%A6%B8%E0%A7%81%E0%A6%B2%E0%A6%A4%E0%A6%BE%E0%A6%A8+%E0%A6%B6%E0%A6%BE%E0%A6%B9+%E0%A6%AE%E0%A6%B8%E0%A6%9C%E0%A6%BF%E0%A6%A6/data=!4m7!3m6!1s0x3bae171c73c6b0d1:0xb3c0d2e18249a3b0!8m2!3d12.9857137!4d77.605682!16s%2Fg%2F11kqr1kw6t!19sChIJ0bDGcxwXrjsRsKNJguHSwLM?authuser=0&hl=en&rclk=1,"12.9857137,77.605682"
Musalla-al-Quba,Mosque,"118, Musalla-al-Quba, 1, Infantry Rd, opposite New Central Lodge, 1st Sector, Shivaji Nagar, Bengaluru, Karnataka 560001","1st Sector, Shivaji Nagar","118, 1, Infantry Rd, opposite New Central Lodge",Bengaluru,560001,Karnataka,IN,https://www.google.com/maps/place/Musalla-al-Quba/data=!4m7!3m6!1s0x3bae172f7a2093a5:0xade08482d7f6748e!8m2!3d12.980929!4d77.602813!16s%2Fg%2F11trzwj235!19sChIJpZMgei8XrjsRjnT214KE4K0?authuser=0&hl=en&rclk=1,"12.980929,77.602813"
Masjid shakir,Mosque,"Masjid shakir, 34, Haines Rd, Pulkeshi Nagar, Pulikeshi Nagar, Bengaluru, Karnataka 560005","Pulkeshi Nagar, Pulikeshi Nagar","34, Haines Rd",Bengaluru,560005,Karnataka,IN,https://www.google.com/maps/place/Masjid+shakir/data=!4m7!3m6!1s0x3bae17e9ac61e6bd:0xa194dc0126f4d3d7!8m2!3d12.9940304!4d77.6075154!16s%2Fg%2F11tt106r25!19sChIJveZhrOkXrjsR19P0JgHclKE?authuser=0&hl=en&rclk=1,"12.9940304,77.6075154"
Waqf Board - Musallah - Mosque - msjd / almSly,Mosque,"Waqf Board - Musallah - Mosque - msjd / almSly, Darul Auqaf, #6 Cunningham Road, 7th Cross Rd, Vasanth Nagar, Bengaluru, Karnataka 560051",Vasanth Nagar,"Darul Auqaf, #6 Cunningham Road, 7th Cross Rd",Bengaluru,560051,Karnataka,IN,https://www.google.com/maps/place/Waqf+Board+-+Musallah+-+Mosque+-+%D9%85%D8%B3%D8%AC%D8%AF+%2F+%D8%A2%D9%84%D9%85%D8%B5%D9%84%DB%8C%E2%80%AD/data=!4m7!3m6!1s0x3bae172b54d8974b:0xce0c4fc026a94410!8m2!3d12.9907029!4d77.5920697!16s%2Fg%2F11k4x0zqtv!19sChIJS5fYVCsXrjsREESpJsBPDM4?authuser=0&hl=en&rclk=1,"12.990702899999999,77.5920697"
