name,main_category,address,address_ward,address_street,address_city,address_postal_code,address_state,address_country_code,link,coordinates
Jama Masjid,Mosque,"Jama Masjid, Old Delhi, Delhi, 110006","Jama Masjid, Old Delhi",,Delhi,110006,Delhi,IN,https://www.google.com/maps/place/Jama+Masjid/data=!4m7!3m6!1s0x390cfd18df89b215:0xdd57369e29bf9d96!8m2!3d28.6506792!4d77.2334421!16zL20vMDR5emo1!19sChIJFbKJ3xj9DDkRlp2_KZ42V90?authuser=0&hl=en&rclk=1,"28.6506792,77.23344209999999"
Ishaat e Islam Masjid - sh`t  slm msjd,Mosque,"Ishaat e Islam Masjid - sh`t  slm msjd, Ishat E Islam, Hari Kothi Rd, Abul Fazal Enclave Part 1, Abul Fazal Enclave, Jamia Nagar, Okhla, New Delhi, Delhi 110025","Abul Fazal Enclave Part 1, Abul Fazal Enclave, Jamia Nagar, Okhla","Ishat E Islam, Hari Kothi Rd",New Delhi,110025,Delhi,IN,https://www.google.com/maps/place/Ishaat+e+Islam+Masjid+-+%D8%A7%D8%B4%D8%A7%D8%B9%D8%AA+%D8%A1+%D8%A7%D8%B3%D9%84%D8%A7%D9%85+%D9%85%D8%B3%D8%AC%D8%AF%E2%80%AD/data=!4m7!3m6!1s0x390ce40c2ff9b231:0x608aa5b5af203426!8m2!3d28.5567717!4d77.2942062!16s%2Fg%2F1tvt8qxd!19sChIJMbL5LwzkDDkRJjQgr7WlimA?authuser=0&hl=en&rclk=1,"28.5567717,77.29420619999999"
Jama Masjid (Okhla),Mosque,"Jama Masjid (Okhla), 21/4,Okhla Bazar, Okhla Main Market Rd, Jamia Nagar, Okhla Village, Okhla, New Delhi, Delhi 110025","Jamia Nagar, Okhla Village, Okhla","21/4,Okhla Bazar, Okhla Main Market Rd",New Delhi,110025,Delhi,IN,https://www.google.com/maps/place/Jama+Masjid+%28Okhla%29/data=!4m7!3m6!1s0x390ce474e657e7f9:0x9680577c25554efa!8m2!3d28.5631627!4d77.2900565!16s%2Fg%2F1tk6ywjp!19sChIJ-edX5nTkDDkR-k5VJXxXgJY?authuser=0&hl=en&rclk=1,"28.5631627,77.29005649999999"
Masjid Mujeeb Bagh,Mosque,"H74R+R4J Masjid Mujeeb Bagh, Mujeeb Bagh, Jamia Nagar, Okhla, New Delhi, Delhi 110025","Mujeeb Bagh, Jamia Nagar, Okhla",H74R+R4J,New Delhi,110025,Delhi,IN,https://www.google.com/maps/place/Masjid+Mujeeb+Bagh/data=!4m7!3m6!1s0x390ce40bc79e1ce9:0x18ab01f5fdcf10b3!8m2!3d28.5570856!4d77.2902574!16s%2Fg%2F11hbvrlrnj!19sChIJ6RyexwvkDDkRsxDP_fUBqxg?authuser=0&hl=en&rclk=1,"28.557085599999997,77.2902574"
Jama Masjid Jamia,Mosque,"H77M+9CQ Jama Masjid Jamia, Jamia Jama Masjid Rd, Jamia Nagar, Okhla, New Delhi, Delhi 110025","Jamia Nagar, Okhla","H77M+9CQ, Jamia Jama Masjid Rd",New Delhi,110025,Delhi,IN,https://www.google.com/maps/place/Jama+Masjid+Jamia/data=!4m7!3m6!1s0x390ce329e5e9fe39:0xfdadee6422dd6abd!8m2!3d28.5634592!4d77.2836065!16s%2Fg%2F11fnyd14qm!19sChIJOf7p5SnjDDkRvWrdImTurf0?authuser=0&hl=en&rclk=1,"28.563459199999997,77.28360649999999"
"Ghausia Masjid, Jasola",Mosque,"Ghausia Masjid, Jasola, 171, Jasola, Jasola Vihar, New Delhi, Delhi 110025","Jasola, Jasola Vihar",171,New Delhi,110025,Delhi,IN,"https://www.google.com/maps/place/Ghausia+Masjid,+Jasola/data=!4m7!3m6!1s0x390ce5c200a37205:0xfebb591e8a3c8619!8m2!3d28.5488829!4d77.2921906!16s%2Fg%2F11nl7bc3f7!19sChIJBXKjAMLlDDkRGYY8ih5Zu_4?authuser=0&hl=en&rclk=1","28.5488829,77.2921906"
Umar masjid,Mosque,"Shop No.9, Umar masjid, 17, Okhla I Rd, Tekhand, Okhla Phase I, Okhla Industrial Estate, New Delhi, Delhi 110020","Tekhand, Okhla Phase I, Okhla Industrial Estate","Shop No.9, 17, Okhla I Rd",New Delhi,110020,Delhi,IN,https://www.google.com/maps/place/Umar+masjid/data=!4m7!3m6!1s0x390ce12a004207c3:0x7123bc2f3c43071c!8m2!3d28.5220688!4d77.2832313!16s%2Fg%2F11kq5s_mz1!19sChIJwwdCACrhDDkRHAdDPC-8I3E?authuser=0&hl=en&rclk=1,"28.5220688,77.2832313"
Al Noor Masjid,Mosque,"Al Noor Masjid, Nafees Rd, Batla House, Jamia Nagar, Okhla, New Delhi, Delhi 110025","Batla House, Jamia Nagar, Okhla",Nafees Rd,New Delhi,110025,Delhi,IN,https://www.google.com/maps/place/Al+Noor+Masjid/data=!4m7!3m6!1s0x390ce476496a23f3:0xa12d95c7c3bb68ab!8m2!3d28.569068!4d77.2862973!16s%2Fg%2F1tg_7v_w!19sChIJ8yNqSXbkDDkRq2i7w8eVLaE?authuser=0&hl=en&rclk=1,"28.569067999999998,77.2862973"
Tayyab Masjid,Mosque,"Tayyab Masjid, Rose Apartment c-310/311, abulfazal enclave , THOKAR no.08, Shaheen Bagh, Jamia Nagar, Jasola, New Delhi, Delhi 110025","Shaheen Bagh, Jamia Nagar, Jasola","Rose Apartment c-310/311, abulfazal enclave , THOKAR no.08",New Delhi,110025,Delhi,IN,https://www.google.com/maps/place/Tayyab+Masjid/data=!4m7!3m6!1s0x390ce41be7fa0e79:0xf5aab92c434b57cd!8m2!3d28.5468755!4d77.3030481!16s%2Fg%2F124yqskq9!19sChIJeQ765xvkDDkRzVdLQyy5qvU?authuser=0&hl=en&rclk=1,"28.5468755,77.3030481"
Jama Masjid Kahkashan jm` msjd,Mosque,"Jama Masjid Kahkashan jm` msjd, Block D, Shop No. E-1, Okhla Vihar Main Rd, Jamia Nagar, Okhla, New Delhi, Delhi 110025","Okhla Vihar, Okhla Vihar, Block D, Jamia Nagar, Okhla","Block D, Shop No. E-1, Okhla Vihar Main Rd",New Delhi,110025,Delhi,IN,https://www.google.com/maps/place/Jama+Masjid+Kahkashan+%D8%AC%D8%A7%D9%85%D8%B9+%D9%85%D8%B3%D8%AC%D8%AF%E2%80%AD/data=!4m7!3m6!1s0x390ce40964ba23d5:0x1bbbdd0080b3ca03!8m2!3d28.5551863!4d77.2898845!16s%2Fg%2F1pp2tynbb!19sChIJ1SO6ZAnkDDkRA8qzgADduxs?authuser=0&hl=en&rclk=1,"28.5551863,77.2898845"
Shaheen Masjid,Mosque,"G8W2+C2H Shaheen Masjid, Maulana Azad Rd, Shaheen Bagh, Block F, Jamia Nagar, Okhla, New Delhi, Delhi 110025","Shaheen Bagh, Block F, Jamia Nagar, Okhla","G8W2+C2H, Maulana Azad Rd",New Delhi,110025,Delhi,IN,https://www.google.com/maps/place/Shaheen+Masjid/data=!4m7!3m6!1s0x390ce41b6fd229d9:0xf74b00cc2e9f15af!8m2!3d28.5460506!4d77.300097!16s%2Fg%2F1hdztxn6q!19sChIJ2SnSbxvkDDkRrxWfLswAS_c?authuser=0&hl=en&rclk=1,"28.546050599999997,77.300097"
Masjid Moth,Mosque,"Masjid Moth, 92, Masjid Moth Rd, South Extension II, Masjid Moth Village, New Delhi, Delhi 110049","South Extension II, Masjid Moth Village","92, Masjid Moth Rd",New Delhi,110049,Delhi,IN,https://www.google.com/maps/place/Masjid+Moth/data=!4m7!3m6!1s0x390ce242799950e9:0xb2f0ba5418b140f8!8m2!3d28.562458!4d77.2176906!16s%2Fm%2F05zxh9f!19sChIJ6VCZeULiDDkR-ECxGFS68LI?authuser=0&hl=en&rclk=1,"28.562458,77.2176906"
Masjid Babul ilm,Mosque,"Masjid Babul ilm, C 38/A, 1st Lane Johri Farm, Okhla Vihar, Noor Nagar Extension, Jamia Nagar, Okhla, New Delhi, Delhi 110025","Okhla Vihar, Noor Nagar Extension, Jamia Nagar, Okhla","C 38/A, 1st Lane Johri Farm",New Delhi,110025,Delhi,IN,https://www.google.com/maps/place/Masjid+Babul+ilm/data=!4m7!3m6!1s0x390ce40a39bfcf93:0xa9c385dc208c6d38!8m2!3d28.5567415!4d77.2885524!16s%2Fg%2F1pp2tybvr!19sChIJk8-_OQrkDDkROG2MINyFw6k?authuser=0&hl=en&rclk=1,"28.556741499999998,77.2885524"
Masjid Shahab,Mosque,"H78P+VWV Masjid Shahab, Jamia, Batla House, Jamia Nagar, Okhla, New Delhi, Delhi 110025","Jamia, Batla House, Jamia Nagar, Okhla",H78P+VWV,New Delhi,110025,Delhi,IN,https://www.google.com/maps/place/Masjid+Shahab/data=!4m7!3m6!1s0x390ce4760f556f8d:0xc0285f5f2f62012c!8m2!3d28.5672496!4d77.2873032!16s%2Fg%2F1hhm006pz!19sChIJjW9VD3bkDDkRLAFiL19fKMA?authuser=0&hl=en&rclk=1,"28.5672496,77.2873032"
Masjid Zakir Bagh,Mosque,"H75C+HJW Masjid Zakir Bagh, Zakir Bagh, Sarai Jullena, New Friends Colony, New Delhi, Delhi 110065","Zakir Bagh, Sarai Jullena, New Friends Colony",H75C+HJW,New Delhi,110065,Delhi,IN,https://www.google.com/maps/place/Masjid+Zakir+Bagh/data=!4m7!3m6!1s0x390ce39347cf47cd:0xcd195916d4862cac!8m2!3d28.5589795!4d77.2715934!16s%2Fg%2F1ptzpshd9!19sChIJzUfPR5PjDDkRrCyG1BZZGc0?authuser=0&hl=en&rclk=1,"28.5589795,77.2715934"
Mohammadi Masjid,Mosque,"G7XX+C4X Mohammadi Masjid, Shaheen Bagh, Block E, Jamia Nagar, Okhla, New Delhi, Delhi 110025","Shaheen Bagh, Block E, Jamia Nagar, Okhla",G7XX+C4X,New Delhi,110025,Delhi,IN,https://www.google.com/maps/place/Mohammadi+Masjid/data=!4m7!3m6!1s0x390ce41acd709b67:0x8df25e5235479b77!8m2!3d28.5486052!4d77.2978715!16s%2Fg%2F11cp1893xh!19sChIJZ5twzRrkDDkRd5tHNVJe8o0?authuser=0&hl=en&rclk=1,"28.548605199999997,77.2978715"
Chaand Masjid,Mosque,"Chaand Masjid, Thokar no. 4, 4, Kalindi Kunj Rd, Abul Fazal Enclave Part 1, Part 1 Abul Fazal Enclave, Block J, Jamia Nagar, Okhla, New Delhi, Delhi 110025","Abul Fazal Enclave Part 1, Part 1 Abul Fazal Enclave, Block J, Jamia Nagar, Okhla","Thokar no. 4, 4, Kalindi Kunj Rd",New Delhi,110025,Delhi,IN,https://www.google.com/maps/place/Chaand+Masjid/data=!4m7!3m6!1s0x390ce40fd42494c1:0x50f20e85fae2baf1!8m2!3d28.5534566!4d77.2977783!16s%2Fg%2F11h1b5c58!19sChIJwZQk1A_kDDkR8bri-oUO8lA?authuser=0&hl=en&rclk=1,"28.553456599999997,77.29777829999999"
Jama Masjid (Shaheen Bagh),Mosque,"Jama Masjid (Shaheen Bagh), 12, Kalindi Kunj Rd, Block B, Jamia Nagar, Jasola, New Delhi, Delhi 110025","Block B, Jamia Nagar, Jasola","12, Kalindi Kunj Rd",New Delhi,110025,Delhi,IN,https://www.google.com/maps/place/Jama+Masjid+%28Shaheen+Bagh%29/data=!4m7!3m6!1s0x390ce41a3d9d581b:0xc7b0e62465b11de9!8m2!3d28.5496905!4d77.3028252!16s%2Fg%2F11g7p2t2hd!19sChIJG1idPRrkDDkR6R2xZSTmsMc?authuser=0&hl=en&rclk=1,"28.549690499999997,77.3028252"
Usmania Jama Masjid,Mosque,"Usmania Jama Masjid, C-26/A, Old Jasola Village, Jasola, New Delhi, Delhi 110025","Old Jasola Village, Jasola",C-26/A,New Delhi,110025,Delhi,IN,https://www.google.com/maps/place/Usmania+Jama+Masjid/data=!4m7!3m6!1s0x390ce406080ed887:0x588888aec17d44dd!8m2!3d28.5494558!4d77.2921275!16s%2Fg%2F1ptvwq7cv!19sChIJh9gOCAbkDDkR3UR9wa6IiFg?authuser=0&hl=en&rclk=1,"28.549455799999997,77.29212749999999"
"Madina Masjid, (Zakir Nagar)",Mosque,"Gali no-43, Madina Masjid, (Zakir Nagar), H-Block, Jamia Nagar, Okhla, New Delhi, Delhi 110025","H-Block, Jamia Nagar, Okhla",Gali no-43,New Delhi,110025,Delhi,IN,"https://www.google.com/maps/place/Madina+Masjid,+%28Zakir+Nagar%29/data=!4m7!3m6!1s0x390ce3b1088df579:0x5b39034e53817e20!8m2!3d28.5702033!4d77.2778639!16s%2Fg%2F11j7d3gh36!19sChIJefWNCLHjDDkRIH6BU04DOVs?authuser=0&hl=en&rclk=1","28.5702033,77.2778639"
Noor Masjid,Mosque,"H73X+CHG Noor Masjid, Kalindi Kunj Rd, Abul Fazal Enclave Part 1, Block J, Jamia Nagar, Okhla, New Delhi, Delhi 110025","Abul Fazal Enclave Part 1, Block J, Jamia Nagar, Okhla","H73X+CHG, Kalindi Kunj Rd",New Delhi,110025,Delhi,IN,https://www.google.com/maps/place/Noor+Masjid/data=!4m7!3m6!1s0x390ce4103435d885:0x70062933e057a0e8!8m2!3d28.5535535!4d77.2989652!16s%2Fg%2F11btvb5bqr!19sChIJhdg1NBDkDDkR6KBX4DMpBnA?authuser=0&hl=en&rclk=1,"28.5535535,77.2989652"
"Jama Masjid, Khadda Colony jm` msjd",Mosque,"Jama Masjid, Khadda Colony jm` msjd, D-202, near by Jama Masjid Gali, Jaitpur Extension Part II, Khadda Colony, Badarpur, New Delhi, Delhi 110044","Jaitpur Extension Part II, Khadda Colony, Badarpur","D-202, near by Jama Masjid Gali",New Delhi,110044,Delhi,IN,"https://www.google.com/maps/place/Jama+Masjid,+Khadda+Colony+%D8%AC%D8%A7%D9%85%D8%B9+%D9%85%D8%B3%D8%AC%D8%AF%E2%80%AD/data=!4m7!3m6!1s0x390ce65a1cc2d345:0x508d72d241ba7c2f!8m2!3d28.5094725!4d77.3384064!16s%2Fg%2F11b_23cdbd!19sChIJRdPCHFrmDDkRL3y6QdJyjVA?authuser=0&hl=en&rclk=1","28.509472499999998,77.3384064"
Masjid Faizane Ghausia and Madarsa,Mosque,"Masjid Faizane Ghausia and Madarsa, D-100, Maulana Azad Rd, Shaheen Bagh, Jamia Nagar, Okhla, New Delhi, Delhi 110025","Shaheen Bagh, Jamia Nagar, Okhla","D-100, Maulana Azad Rd",New Delhi,110025,Delhi,IN,https://www.google.com/maps/place/Masjid+Faizane+Ghausia+and+Madarsa/data=!4m7!3m6!1s0x390ce41ba6415db1:0xa9911783ddc9514d!8m2!3d28.5472543!4d77.3012896!16s%2Fg%2F11b6pk_b3y!19sChIJsV1BphvkDDkRTVHJ3YMXkak?authuser=0&hl=en&rclk=1,"28.5472543,77.30128959999999"
Nisar Masjid,Mosque,"Nisar Masjid, Block F, Allama Shibli Nomani Road, Shaheen Bagh, Okhla, New Delhi, Delhi 110025","Shaheen Bagh, Okhla","Block F, Allama Shibli Nomani Road",New Delhi,110025,Delhi,IN,https://www.google.com/maps/place/Nisar+Masjid/data=!4m7!3m6!1s0x390ce41c8c57650b:0x3a50c11b9ffca255!8m2!3d28.5440829!4d77.300487!16s%2Fg%2F11b6wdw3zz!19sChIJC2VXjBzkDDkRVaL8nxvBUDo?authuser=0&hl=en&rclk=1,"28.5440829,77.30048699999999"
Masjid Umar Farooq,Mosque,"Masjid Umar Farooq, F-56, Allama Shibli Nomani Road, Shaheen Bagh, Okhla, New Delhi, Delhi 110025","Shaheen Bagh, Okhla","F-56, Allama Shibli Nomani Road",New Delhi,110025,Delhi,IN,https://www.google.com/maps/place/Masjid+Umar+Farooq/data=!4m7!3m6!1s0x390ce41c85bb1f59:0x6e5c74657b2ef350!8m2!3d28.5444786!4d77.3006375!16s%2Fg%2F12qfsrfxd!19sChIJWR-7hRzkDDkRUPMue2V0XG4?authuser=0&hl=en&rclk=1,"28.544478599999998,77.3006375"
Masjid Umar Zakir Nagar,Mosque,"H78H+GG6 Masjid Umar Zakir Nagar, Street Number 17, Jogabai Extension, Zakir Nagar, Okhla, New Delhi, Delhi 110025","Jogabai Extension, Zakir Nagar, Okhla","H78H+GG6, Street Number 17",New Delhi,110025,Delhi,IN,https://www.google.com/maps/place/Masjid+Umar+Zakir+Nagar/data=!4m7!3m6!1s0x390ce38e9ec96e19:0x70b17779fb782983!8m2!3d28.5662853!4d77.2787581!16s%2Fg%2F1q6j8w8yn!19sChIJGW7Jno7jDDkRgyl4-3l3sXA?authuser=0&hl=en&rclk=1,"28.566285299999997,77.27875809999999"
Chhappar Wali Masjid,Mosque,"Chhappar Wali Masjid, 48, Okhla Rd, Jamia Nagar, Okhla, New Delhi, Delhi 110025","Jamia Nagar, Okhla","48, Okhla Rd",New Delhi,110025,Delhi,IN,https://www.google.com/maps/place/Chhappar+Wali+Masjid/data=!4m7!3m6!1s0x390ce47512f9ba69:0xdab55473377f5c32!8m2!3d28.5632638!4d77.2880895!16s%2Fg%2F11cn9tyv1h!19sChIJabr5EnXkDDkRMlx_N3NUtdo?authuser=0&hl=en&rclk=1,"28.563263799999998,77.2880895"
Shahi Masjid Khuwaja Pir,Mosque,"Shahi Masjid Khuwaja Pir, A9A, Block A, Friends Colony East, New Friends Colony, New Delhi, Delhi 110065","Block A, Friends Colony East, New Friends Colony",A9A,New Delhi,110065,Delhi,IN,https://www.google.com/maps/place/Shahi+Masjid+Khuwaja+Pir/data=!4m7!3m6!1s0x390ce3a2ce05250b:0xe736d93d4567accc!8m2!3d28.5705505!4d77.2613256!16s%2Fg%2F11b66bs93g!19sChIJCyUFzqLjDDkRzKxnRT3ZNuc?authuser=0&hl=en&rclk=1,"28.5705505,77.26132559999999"
Masjid Umar msjd `mr,Mosque,"Masjid Umar msjd `mr, 1 4 1/4 Sarita Vihar nii dillii South Delhi Delhi 110076 Republic of, 110076","Pocket C, Sarita Vihar",1 4 1/4 Sarita Vihar nii dillii South Delhi Delhi 110076 Republic of,New Delhi,110076,Delhi,IN,https://www.google.com/maps/place/Masjid+Umar+%D9%85%D8%B3%D8%AC%D8%AF+%D8%B9%D9%85%D8%B1%E2%80%AD/data=!4m7!3m6!1s0x390ce6adbd0bc659:0x14d11a36b3ba5396!8m2!3d28.5285501!4d77.290258!16s%2Fg%2F11b6sk8sg0!19sChIJWcYLva3mDDkRllO6szYa0RQ?authuser=0&hl=en&rclk=1,"28.5285501,77.290258"
Masjid Umar,Mosque,"Masjid Umar, H Block, Abul Fazal Enclave, Jamia Nagar, Okhla, New Delhi, Delhi 110025","Abul Fazal Enclave, Jamia Nagar, Okhla",H Block,New Delhi,110025,Delhi,IN,https://www.google.com/maps/place/Masjid+Umar/data=!4m7!3m6!1s0x390ce40e52efde7f:0x5e0487c814d4c357!8m2!3d28.5535005!4d77.2956955!16s%2Fg%2F11b6snzn79!19sChIJf97vUg7kDDkRV8PUFMiHBF4?authuser=0&hl=en&rclk=1,"28.5535005,77.2956955"
Masjid and Madarsa,Mosque,"H78P+G28 Masjid and Madarsa, Jamia, Batla House, Jamia Nagar, Okhla, New Delhi, Delhi 110025","Jamia, Batla House, Jamia Nagar, Okhla",H78P+G28,New Delhi,110025,Delhi,IN,https://www.google.com/maps/place/Masjid+and+Madarsa/data=!4m7!3m6!1s0x390ce38a18a5d97f:0xdcfc61f3d0f88168!8m2!3d28.5662905!4d77.2850829!16s%2Fg%2F1hg4wfd46!19sChIJf9mlGIrjDDkRaIH40PNh_Nw?authuser=0&hl=en&rclk=1,"28.566290499999997,77.28508289999999"
Masjid Noor Jahan,Mosque,"M Block, Masjid Noor Jahan, Gali No. 8, 20 Futa Rd, Batla House, Jamia Nagar, Okhla, New Delhi, Delhi 110025","Batla House, Jamia Nagar, Okhla","M Block, Gali No. 8, 20 Futa Rd",New Delhi,110025,Delhi,IN,https://www.google.com/maps/place/Masjid+Noor+Jahan/data=!4m7!3m6!1s0x390ce477a83a42a3:0x238d467a80876843!8m2!3d28.5705705!4d77.2893055!16s%2Fg%2F11b6glzfvc!19sChIJo0I6qHfkDDkRQ2iHgHpGjSM?authuser=0&hl=en&rclk=1,"28.5705705,77.2893055"
NARGIS MASJID,Mosque,"NARGIS MASJID, Nargis Masjid Gali, Block -D, Jaitpur Extension Part II, Khadda Colony, Jaitpur, New Delhi, Delhi 110044","Block -D, Jaitpur Extension Part II, Khadda Colony, Jaitpur",Nargis Masjid Gali,New Delhi,110044,Delhi,IN,https://www.google.com/maps/place/NARGIS+MASJID/data=!4m7!3m6!1s0x390ce7a0c8fdd86b:0x3f364e8c584583ee!8m2!3d28.5098934!4d77.3369481!16s%2Fg%2F11h5rlrk1g!19sChIJa9j9yKDnDDkR7oNFWIxONj8?authuser=0&hl=en&rclk=1,"28.5098934,77.3369481"
MAKKI MASJID,Mosque,"MAKKI MASJID, Madanpur Khadar Phase 3, Madanpur Khadar, New Delhi, Delhi 110076","Madanpur Khadar Phase 3, Madanpur Khadar",,New Delhi,110076,Delhi,IN,https://www.google.com/maps/place/MAKKI+MASJID/data=!4m7!3m6!1s0x390ce68f0ccaece9:0x1faeec3feeae38b2!8m2!3d28.5288025!4d77.3242821!16s%2Fg%2F11dyzbp8k1!19sChIJ6ezKDI_mDDkRsjiu7j_srh8?authuser=0&hl=en&rclk=1,"28.528802499999998,77.32428209999999"
Nurani Masjid msjd nwrny,Mosque,"Nurani Masjid msjd nwrny, 110062, Block G 12, Block G 1, Talimabad, Sangam Vihar, New Delhi, Delhi 110062","Block G 12, Block G 1, Talimabad, Sangam Vihar",110062,New Delhi,110062,Delhi,IN,https://www.google.com/maps/place/Nurani+Masjid+%D9%85%D8%B3%D8%AC%D8%AF+%D9%86%D9%88%D8%B1%D8%A7%D9%86%DB%8C%E2%80%AD/data=!4m7!3m6!1s0x390ce111696bf857:0xfeca9714a645d6b6!8m2!3d28.5055667!4d77.2560729!16s%2Fg%2F11c5_5fpyv!19sChIJV_hraRHhDDkRttZFphSXyv4?authuser=0&hl=en&rclk=1,"28.5055667,77.25607289999999"
Musa Masjid msjd mwsy,Mosque,"Musa Masjid msjd mwsy, 259 a 3, 259 A/3, New Delhi, Delhi 110025","Noor Nagar Extension, Jamia Nagar, Okhla","259 a 3, 259 A/3",New Delhi,110025,Delhi,IN,https://www.google.com/maps/place/Musa+Masjid+%D9%85%D8%B3%D8%AC%D8%AF+%D9%85%D9%88%D8%B3%DB%8C%D9%B0%E2%80%AD/data=!4m7!3m6!1s0x390ce40a9211a45d:0x9a9c5a86594557b8!8m2!3d28.5591025!4d77.287672!16s%2Fg%2F11b75dt08b!19sChIJXaQRkgrkDDkRuFdFWYZanJo?authuser=0&hl=en&rclk=1,"28.559102499999998,77.287672"
Masjid Afzal Minar,Mosque,"Masjid Afzal Minar, TA-50, Gali Number 3, Tughlakabad Extension, Tughlakabad, New Delhi, Delhi 110019","Tughlakabad Extension, Tughlakabad","TA-50, Gali Number 3",New Delhi,110019,Delhi,IN,https://www.google.com/maps/place/Masjid+Afzal+Minar/data=!4m7!3m6!1s0x390ce165d8e363bf:0xf2280e1110854801!8m2!3d28.5252191!4d77.2579255!16s%2Fg%2F1pv1y5twp!19sChIJv2Pj2GXhDDkRAUiFEBEOKPI?authuser=0&hl=en&rclk=1,"28.525219099999997,77.2579255"
Jama masjid,Mosque,"Jama masjid, Metro station, Giri Nagar, Maa Anandmayee Marg, near Govindpuri, Kalkaji, New Delhi, Delhi 110019","Ami Chand Khand, Block AC, Giri Nagar, Kalkaji","Metro station, Giri Nagar, Maa Anandmayee Marg, near Govindpuri",New Delhi,110019,Delhi,IN,https://www.google.com/maps/place/Jama+masjid/data=!4m7!3m6!1s0x390ce3915ddf4023:0xc0785bd0f9e63fa0!8m2!3d28.5435534!4d77.2644385!16s%2Fg%2F11fj32cs9z!19sChIJI0DfXZHjDDkRoD_m-dBbeMA?authuser=0&hl=en&rclk=1,"28.5435534,77.2644385"
Jama Masjid (Batla House),Mosque,"H, Jama Masjid (Batla House), 334, 7, Street Number 6, Batla House, Okhla, New Delhi, Delhi 110025","Jamia, Batla House, Jamia Nagar, Okhla","H, 334, 7, Street Number 6",New Delhi,110025,Delhi,IN,https://www.google.com/maps/place/Jama+Masjid+%28Batla+House%29/data=!4m7!3m6!1s0x390ce3207d46fe8f:0xe6bf4d1a3f6d4108!8m2!3d28.5661636!4d77.2851632!16s%2Fg%2F11llyqcllh!19sChIJj_5GfSDjDDkRCEFtPxpNv-Y?authuser=0&hl=en&rclk=1,"28.5661636,77.2851632"
Masjid Majeedia Motilal nehru marg- msjdi mjdyh,Mosque,"Masjid Majeedia Motilal nehru marg- msjdi mjdyh, Unnamed Road, Dr APJ Abdul Kalam Rd, South Block, Aurangzeb Road, New Delhi, Delhi 110001","South Block, Aurangzeb Road","Unnamed Road, Dr APJ Abdul Kalam Rd",New Delhi,110001,Delhi,IN,https://www.google.com/maps/place/Masjid+Majeedia+Motilal+nehru+marg-+%D9%85%D8%B3%D8%AC%D8%AF%D9%90+%D9%85%D8%AC%D8%AF%DB%8C%DB%81%E2%80%AD/data=!4m7!3m6!1s0x390ce2c111445fc5:0x1156210e810cd168!8m2!3d28.6046984!4d77.2215032!16s%2Fg%2F11f1lpdw85!19sChIJxV9EEcHiDDkRaNEMgQ4hVhE?authuser=0&hl=en&rclk=1,"28.6046984,77.2215032"
Madina Masjid,Mosque,"K, Madina Masjid, 5, Madina Gali, Abul Fazal Enclave Part 1, Abul Fazal Enclave Part 2, Jamia Nagar, Okhla, New Delhi, Delhi 110025","Abul Fazal Enclave Part 1, Abul Fazal Enclave Part 2, Jamia Nagar, Okhla","K, 5, Madina Gali",New Delhi,110025,Delhi,IN,https://www.google.com/maps/place/Madina+Masjid/data=!4m7!3m6!1s0x390ce40fd329ae0b:0x19d6903f5be88561!8m2!3d28.553501!4d77.2974484!16s%2Fg%2F11clgb9m9d!19sChIJC64p0w_kDDkRYYXoWz-Q1hk?authuser=0&hl=en&rclk=1,"28.553500999999997,77.2974484"
Tayyiba Masjid,Mosque,"H79J+768 Tayyiba Masjid, Street Number 12, Jogabai Extension, Zakir Nagar, Okhla, New Delhi, Delhi 110025","Jogabai Extension, Zakir Nagar, Okhla","H79J+768, Street Number 12",New Delhi,110025,Delhi,IN,https://www.google.com/maps/place/Tayyiba+Masjid/data=!4m7!3m6!1s0x390ce38ec9213115:0xab7c6b478fb01bca!8m2!3d28.5681551!4d77.2805765!16s%2Fg%2F11f39nzy8x!19sChIJFTEhyY7jDDkRyhuwj0drfKs?authuser=0&hl=en&rclk=1,"28.5681551,77.2805765"
Jannatul Firdose Masjid msjd jn@lfrdws,Mosque,"G8J6+H6X Jannatul Firdose Masjid msjd jn@lfrdws, Madanpur Khadar Extension, Block A, Madanpur Khadar, New Delhi, Delhi 110076","Madanpur Khadar Extension, Block A, Madanpur Khadar",G8J6+H6X,New Delhi,110076,Delhi,IN,https://www.google.com/maps/place/Jannatul+Firdose+Masjid+%D9%85%D8%B3%D8%AC%D8%AF+%D8%AC%D9%86%D8%A9%D8%A7%D9%84%D9%81%D8%B1%D8%AF%D9%88%D8%B3%E2%80%AD/data=!4m7!3m6!1s0x390ce698614a56a5:0x1c3fad641cabab20!8m2!3d28.5314784!4d77.3106246!16s%2Fg%2F11dybr1nt3!19sChIJpVZKYZjmDDkRIKurHGStPxw?authuser=0&hl=en&rclk=1,"28.531478399999997,77.3106246"
Al-Mateen Masjid,Mosque,"Al-Mateen Masjid, Block M, Brahampuri, Shahdara, Delhi, 110053","Block M, Brahampuri, Shahdara",,Delhi,,Delhi,IN,https://www.google.com/maps/place/Al-Mateen+Masjid/data=!4m7!3m6!1s0x390cfc65cf47c239:0x9cb27deae050e07f!8m2!3d28.6830205!4d77.2668895!16s%2Fg%2F1pv2q6lxx!19sChIJOcJHz2X8DDkRf-BQ4Op9spw?authuser=0&hl=en&rclk=1,"28.683020499999998,77.26688949999999"
KHAJOORI MASJID (Sunni Barelvi) msjd khhjwry,Mosque,"G86M+MV4 KHAJOORI MASJID (Sunni Barelvi) msjd khhjwry, Block G, Jaitpur Extension Part II, Khadda Colony, Jaitpur, New Delhi, Delhi 110044","Block G, Jaitpur Extension Part II, Khadda Colony, Jaitpur",G86M+MV4,New Delhi,110044,Delhi,IN,https://www.google.com/maps/place/KHAJOORI+MASJID+%28Sunni+Barelvi%29+%D9%85%D8%B3%D8%AC%D8%AF+%DA%A9%DA%BE%D8%AC%D9%88%D8%B1%DB%8C%E2%80%AD/data=!4m7!3m6!1s0x390ce70cdee4d035:0x46eb323a34688dd0!8m2!3d28.5116432!4d77.3346969!16s%2Fg%2F11fl7bh0wg!19sChIJNdDk3gznDDkR0I1oNDoy60Y?authuser=0&hl=en&rclk=1,"28.511643199999998,77.3346969"
Hari Masjid,Mosque,"H79P+HHV Hari Masjid, Nafees Rd, in front of Sunrise Public School, near al nuur msjid, Jamia, Jogabai Extension, Jamia Nagar, OkhlaNew, New Delhi, Delhi 110025","Jamia, Jogabai Extension, Jamia Nagar, OkhlaNew","H79P+HHV, Nafees Rd, in front of Sunrise Public School, near al nuur msjid",New Delhi,110025,Delhi,IN,https://www.google.com/maps/place/Hari+Masjid/data=!4m7!3m6!1s0x390ce5dce79218c1:0x9213fdfc89552e2d!8m2!3d28.5689866!4d77.2864104!16s%2Fg%2F11trg3c634!19sChIJwRiS59zlDDkRLS5Vifz9E5I?authuser=0&hl=en&rclk=1,"28.5689866,77.2864104"
Jama Masjid,Mosque,"Jama Masjid, F-132, Kalindi Kunj Rd, Abul Fazal Enclave Part 1, Part 1 Abul Fazal Enclave, Block C, Jamia Nagar, Okhla, New Delhi, Delhi 110025","Abul Fazal Enclave Part 1, Part 1 Abul Fazal Enclave, Block C, Jamia Nagar, Okhla","F-132, Kalindi Kunj Rd",New Delhi,110025,Delhi,IN,https://www.google.com/maps/place/Jama+Masjid/data=!4m7!3m6!1s0x390ce474fc283e6d:0xbf47a3d3e25a4cad!8m2!3d28.560132!4d77.294788!16s%2Fg%2F12hkzr6p1!19sChIJbT4o_HTkDDkRrUxa4tOjR78?authuser=0&hl=en&rclk=1,"28.560132,77.294788"
Musallah an Nabi,Mosque,"G8W2+6VP Musallah an Nabi, Block C, Jasola, New Delhi, Delhi 110025","Block C, Jasola",G8W2+6VP,New Delhi,110025,Delhi,IN,https://www.google.com/maps/place/Musallah+an+Nabi/data=!4m7!3m6!1s0x390ce41b8bca8467:0xe8bb5830b58fafd0!8m2!3d28.5455873!4d77.3021979!16s%2Fg%2F11gblbll20!19sChIJZ4TKixvkDDkR0K-PtTBYu-g?authuser=0&hl=en&rclk=1,"28.545587299999998,77.3021979"
Masjid-e-Anjum,Mosque,"Masjid-e-Anjum, Indira Gandhi Camp Part 2, New Friends Colony, New Delhi, Delhi 110065","Block A, Taimoor Nagar, New Friends Colony","Indira Gandhi Camp Part 2, New Friends Colony",New Delhi,110065,Delhi,IN,https://www.google.com/maps/place/Masjid-e-Anjum/data=!4m7!3m6!1s0x390ce39a2cbe5dad:0x263099a5cc320902!8m2!3d28.573773!4d77.2696933!16s%2Fg%2F11ckkxbn_t!19sChIJrV2-LJrjDDkRAgkyzKWZMCY?authuser=0&hl=en&rclk=1,"28.573773,77.2696933"
Umar farooq masjid,Mosque,"Umar farooq masjid, R-796, Saqlain Rd, Jogabai Extension, Joga Bai Extension, Okhla, New Delhi, Delhi 110025","Jogabai Extension, Joga Bai Extension, Okhla","R-796, Saqlain Rd",New Delhi,110025,Delhi,IN,https://www.google.com/maps/place/Umar+farooq+masjid/data=!4m7!3m6!1s0x390ce3e6c04e5bf3:0xc44f3ef2afb9d703!8m2!3d28.5725938!4d77.2846812!16s%2Fg%2F11j4890g67!19sChIJ81tOwObjDDkRA9e5r_I-T8Q?authuser=0&hl=en&rclk=1,"28.5725938,77.2846812"
Masjid,Mosque,"H769+P87 Masjid, Block A, Friends Colony East, New Friends Colony, New Delhi, Delhi 110025","Block A, Friends Colony East, New Friends Colony",H769+P87,New Delhi,110025,Delhi,IN,https://www.google.com/maps/place/Masjid/data=!4m7!3m6!1s0x390ce3a3874c1a6d:0x3777b5148e43553a!8m2!3d28.5617917!4d77.2683072!16s%2Fg%2F11grc87l61!19sChIJbRpMh6PjDDkROlVDjhS1dzc?authuser=0&hl=en&rclk=1,"28.561791699999997,77.2683072"
Masjid Ghaffar (Ahl-e-Hadees),Mosque,"Masjid Ghaffar (Ahl-e-Hadees), P-102, Block P, Batla House, Okhla, New Delhi, Delhi 110025","Block P, Batla House, Okhla",P-102,New Delhi,110025,Delhi,IN,https://www.google.com/maps/place/Masjid+Ghaffar+%28Ahl-e-Hadees%29/data=!4m7!3m6!1s0x390ce5f38957cde3:0x573e5c67ce07d2a8!8m2!3d28.5708158!4d77.287928!16s%2Fg%2F11ql65ls0c!19sChIJ481XifPlDDkRqNIHzmdcPlc?authuser=0&hl=en&rclk=1,"28.5708158,77.287928"
JAMA MASJID UMAR BIN KHATTAB,Mosque,"G8W3+XWV JAMA MASJID UMAR BIN KHATTAB, Kalindi Kunj Rd, Block H, Jamia Nagar, Okhla, New Delhi, Delhi 110025","Block H, Jamia Nagar, Okhla","G8W3+XWV, Kalindi Kunj Rd",New Delhi,110025,Delhi,IN,https://www.google.com/maps/place/JAMA+MASJID+UMAR+BIN+KHATTAB/data=!4m7!3m6!1s0x390ce51eb7ea0bfd:0xe968824c610cc265!8m2!3d28.5474867!4d77.3047909!16s%2Fg%2F11h7p6jtqd!19sChIJ_Qvqtx7lDDkRZcIMYUyCaOk?authuser=0&hl=en&rclk=1,"28.5474867,77.3047909"
Mehbube Ilahi Masjid msjd mHbwbi lhy,Mosque,"Mehbube Ilahi Masjid msjd mHbwbi lhy, 200, Gali Number 12, Block G, Talimabad, Sangam Vihar, New Delhi, Delhi 110044","Block G, Talimabad, Sangam Vihar","200, Gali Number 12",New Delhi,110044,Delhi,IN,https://www.google.com/maps/place/Mehbube+Ilahi+Masjid+%D9%85%D8%B3%D8%AC%D8%AF+%D9%85%D8%AD%D8%A8%D9%88%D8%A8%D9%90+%D8%A7%D9%84%D9%B0%DB%81%DB%8C%E2%80%AD/data=!4m7!3m6!1s0x390ce11192f7083f:0xae0dbbdbeca67b2c!8m2!3d28.5053455!4d77.2535063!16s%2Fg%2F11c618mbkp!19sChIJPwj3khHhDDkRLHum7Nu7Da4?authuser=0&hl=en&rclk=1,"28.505345499999997,77.2535063"
KGN.Masjid And Jamia Faizan Ala Hazrat,Mosque,"G86R+MF6 KGN.Masjid And Jamia Faizan Ala Hazrat, Vishwakarma Colony, Jaitpur, New Delhi, Delhi 110044","Vishwakarma Colony, Jaitpur",G86R+MF6,New Delhi,110044,Delhi,IN,https://www.google.com/maps/place/KGN.Masjid+And+Jamia+Faizan+Ala+Hazrat/data=!4m7!3m6!1s0x390ce65affe0c82d:0x9ad9c11f7e76af8c!8m2!3d28.5116523!4d77.3411523!16s%2Fg%2F11gdsh0trl!19sChIJLcjg_1rmDDkRjK92fh_B2Zo?authuser=0&hl=en&rclk=1,"28.511652299999998,77.34115229999999"
MASJID GOUSUL WARA,Mosque,"G79M+8MW MASJID GOUSUL WARA, Tekhand, Okhla Phase I, Okhla Industrial Estate, New Delhi, Delhi 110020","Tekhand, Okhla Phase I, Okhla Industrial Estate",G79M+8MW,New Delhi,110020,Delhi,IN,https://www.google.com/maps/place/MASJID+GOUSUL+WARA/data=!4m7!3m6!1s0x390ce15f4f8ec11b:0x9d50897d641b8031!8m2!3d28.5183625!4d77.2842054!16s%2Fg%2F11sy5qrxj3!19sChIJG8GOT1_hDDkRMYAbZH2JUJ0?authuser=0&hl=en&rclk=1,"28.5183625,77.28420539999999"
Munawra masjid,Mosque,"M7P4+6M2 Munawra masjid, Masjid Road, Third Pushta, Usmanpur, Nayagaon Village, Shahdara, Delhi, 110053","Third Pushta, Nayagaon, Nayagaon Village, Shahdara","M7P4+6M2, Masjid Road, Third Pushta, Usmanpur",Delhi,110053,Delhi,IN,https://www.google.com/maps/place/Munawra+masjid/data=!4m7!3m6!1s0x390cfd030e33f563:0x5dc12b36744f9a85!8m2!3d28.6855176!4d77.2566372!16s%2Fg%2F11hzwz2ypj!19sChIJY_UzDgP9DDkRhZpPdDYrwV0?authuser=0&hl=en&rclk=1,"28.685517599999997,77.2566372"
Masjid annoor Jahan,Mosque,"H78J+HQ5 Masjid annoor Jahan, Street Number 2, Mehboob Nagar, Jogabai Extension, Okhla, New Delhi, Delhi 110025","Mehboob Nagar, Jogabai Extension, Okhla","H78J+HQ5, Street Number 2",New Delhi,110025,Delhi,IN,https://www.google.com/maps/place/Masjid+annoor+Jahan/data=!4m7!3m6!1s0x390ce38edd294515:0xf9f6a26d69a9d112!8m2!3d28.5663801!4d77.2819754!16s%2Fg%2F11g6rd5s7t!19sChIJFUUp3Y7jDDkREtGpaW2i9vk?authuser=0&hl=en&rclk=1,"28.5663801,77.2819754"
Madarse Wali Masjid,Mosque,"Madarse Wali Masjid, 110074, Kharak, Sat Bari, New Delhi, Delhi 110074","Kharak, Sat Bari",110074,New Delhi,110074,Delhi,IN,https://www.google.com/maps/place/Madarse+Wali+Masjid/data=!4m7!3m6!1s0x390ce024de45f913:0xd9c197951c578692!8m2!3d28.4699009!4d77.2047009!16s%2Fg%2F11f1k4x3by!19sChIJE_lF3iTgDDkRkoZXHJWXwdk?authuser=0&hl=en&rclk=1,"28.4699009,77.20470089999999"
Masjid,Mosque,"H77Q+868 Masjid, Okhla Village, Okhla, New Delhi, Delhi 110025","Okhla Village, Okhla",H77Q+868,New Delhi,110025,Delhi,IN,https://www.google.com/maps/place/Masjid/data=!4m7!3m6!1s0x390ce47512f7aa2b:0x544337a9b9e5d7a2!8m2!3d28.5632814!4d77.2880932!16s%2Fg%2F11gbtpj5td!19sChIJK6r3EnXkDDkRotfluak3Q1Q?authuser=0&hl=en&rclk=1,"28.563281399999997,77.28809319999999"
Masjid Noorul Islam(chotti masjid),Mosque,"G8GH+84X Masjid Noorul Islam(chotti masjid), Madanpur Khadar Phase 3, Madanpur Khadar, New Delhi, Delhi 110076","Madanpur Khadar Phase 3, Madanpur Khadar",G8GH+84X,New Delhi,110076,Delhi,IN,https://www.google.com/maps/place/Masjid+Noorul+Islam%28chotti+masjid%29/data=!4m7!3m6!1s0x390ce71a1a382a2f:0xf70170af0a005edc!8m2!3d28.5258612!4d77.3278717!16s%2Fg%2F11gmyh4_c2!19sChIJLyo4GhrnDDkR3F4ACq9wAfc?authuser=0&hl=en&rclk=1,"28.525861199999998,77.3278717"
Mir Masjid,Mosque,"P27J+8VC Mir Masjid, Block A, Meer Vihar, Mubarakpur Dabas, Delhi, 110081","Block A, Meer Vihar, Mubarakpur Dabas",P27J+8VC,Delhi,110081,Delhi,IN,https://www.google.com/maps/place/Mir+Masjid/data=!4m7!3m6!1s0x390d061341a10179:0xe56f005aff3cf287!8m2!3d28.7133006!4d77.0321507!16s%2Fg%2F11f00d0rll!19sChIJeQGhQRMGDTkRh_I8_1oAb-U?authuser=0&hl=en&rclk=1,"28.7133006,77.0321507"
Masjid Noor msjd nwr,Mosque,"H74P+PHC Masjid Noor msjd nwr, Ajmal Bagh, Noor Nagar Extension, Noor Nagar, Okhla, New Delhi, Delhi 110025","Ajmal Bagh, Noor Nagar Extension, Noor Nagar, Okhla",H74P+PHC,New Delhi,110025,Delhi,IN,https://www.google.com/maps/place/Masjid+Noor+%D9%85%D8%B3%D8%AC%D8%AF+%D9%86%D9%88%D8%B1%E2%80%AD/data=!4m7!3m6!1s0x390ce37ce6d300d5:0x808f9d780ec51d19!8m2!3d28.5568118!4d77.2863907!16s%2Fg%2F11sbd_p0hp!19sChIJ1QDT5nzjDDkRGR3FDnidj4A?authuser=0&hl=en&rclk=1,"28.5568118,77.2863907"
Mumtaz Masjid,Mosque,"H79Q+MFC Mumtaz Masjid, Batla House, Jamia Nagar, Okhla, New Delhi, Delhi 110025","Batla House, Jamia Nagar, Okhla",H79Q+MFC,New Delhi,,Delhi,IN,https://www.google.com/maps/place/Mumtaz+Masjid/data=!4m7!3m6!1s0x390ce51ea4a1764d:0x7975b3d87786376a!8m2!3d28.5691957!4d77.2886424!16s%2Fg%2F11k3j1s_k9!19sChIJTXahpB7lDDkRajeGd9izdXk?authuser=0&hl=en&rclk=1,"28.569195699999998,77.2886424"
Masjid Tariq Ul Saqib,Mosque,"H72X+XVH Masjid Tariq Ul Saqib, Abul Fazal Enclave Part 2, Jamia Nagar, Okhla, New Delhi, Delhi 110025","Abul Fazal Enclave Part 2, Jamia Nagar, Okhla",H72X+XVH,New Delhi,110025,Delhi,IN,https://www.google.com/maps/place/Masjid+Tariq+Ul+Saqib/data=!4m7!3m6!1s0x390ce5f89a22443d:0x7f1f8010c76175ea!8m2!3d28.5524415!4d77.2997285!16s%2Fg%2F11pdr6sc4g!19sChIJPUQimvjlDDkR6nVhxxCAH38?authuser=0&hl=en&rclk=1,"28.5524415,77.2997285"
Mosque,Mosque,"H77M+WWG Mosque, Jamia Nagar, Okhla, New Delhi, Delhi 110025","Jamia Nagar, Okhla",H77M+WWG,New Delhi,110025,Delhi,IN,https://www.google.com/maps/place/Mosque/data=!4m7!3m6!1s0x390ce3056adf2343:0x8df512d7aa631433!8m2!3d28.5648133!4d77.2848259!16s%2Fg%2F11n16y696z!19sChIJQyPfagXjDDkRMxRjqtcS9Y0?authuser=0&hl=en&rclk=1,"28.564813299999997,77.2848259"
Masjid,Mosque,"Masjid, Molarband, Badarpur, New Delhi, Delhi 110044","Molarband, Badarpur",,New Delhi,110044,Delhi,IN,https://www.google.com/maps/place/Masjid/data=!4m7!3m6!1s0x390ce75604c9317b:0x95388f2bb1f0f9b2!8m2!3d28.5063324!4d77.3130947!16s%2Fg%2F11rkpbdy5r!19sChIJezHJBFbnDDkRsvnwsSuPOJU?authuser=0&hl=en&rclk=1,"28.506332399999998,77.3130947"
Jama masjid,Mosque,"G7PG+8H3 Jama masjid, F Block, Pocket X, Okhla Phase II, Okhla Industrial Estate, New Delhi, Delhi 110020","F Block, Pocket X, Okhla Phase II, Okhla Industrial Estate",G7PG+8H3,New Delhi,,Delhi,IN,https://www.google.com/maps/place/Jama+masjid/data=!4m7!3m6!1s0x390ce10bb81649c7:0xebcbe96019fd666b!8m2!3d28.5357628!4d77.2764329!16s%2Fg%2F11v0nr84ms!19sChIJx0kWuAvhDDkRa2b9GWDpy-s?authuser=0&hl=en&rclk=1,"28.535762799999997,77.2764329"
Noor Masjid,Mosque,"H74P+FV8 Noor Masjid, Jamia Nagar Extension, Noor Nagar Extension, Noor Nagar, Okhla, New Delhi, Delhi 110025","Jamia Nagar Extension, Noor Nagar Extension, Noor Nagar, Okhla",H74P+FV8,New Delhi,110025,Delhi,IN,https://www.google.com/maps/place/Noor+Masjid/data=!4m7!3m6!1s0x390ce5040b4a7b85:0x2184b4fd8a8ff99b!8m2!3d28.556154!4d77.2871877!16s%2Fg%2F11kpyv1bgh!19sChIJhXtKCwTlDDkRm_mPiv20hCE?authuser=0&hl=en&rclk=1,"28.556154,77.28718769999999"
Noor Betul Masjid,Mosque,"13/b2, 2nd floor, Noor Betul Masjid, Nala Rd, near madina masjid, Navjivan Buddh Vihar, Taimoor Nagar, New Friends Colony, New Delhi, Delhi 110025","Navjivan Buddh Vihar, Taimoor Nagar, New Friends Colony","13/b2, 2nd floor, Nala Rd, near madina masjid",New Delhi,110025,Delhi,IN,https://www.google.com/maps/place/Noor+Betul+Masjid/data=!4m7!3m6!1s0x390ce305c591fb91:0xc9dbc8283542cdaf!8m2!3d28.5711693!4d77.266965!16s%2Fg%2F11v11b0njk!19sChIJkfuRxQXjDDkRr81CNSjI28k?authuser=0&hl=en&rclk=1,"28.571169299999998,77.266965"
JAMA MASJID jm` msjd,Mosque,"JAMA MASJID jm` msjd, JAMIA TUL ABRAR, AL ISLAMIA, Madanpur Khadar Phase 3, Madanpur Khadar, New Delhi, Delhi 110076","Madanpur Khadar Phase 3, Madanpur Khadar","JAMIA TUL ABRAR, AL ISLAMIA",New Delhi,110076,Delhi,IN,https://www.google.com/maps/place/JAMA+MASJID+%D8%AC%D8%A7%D9%85%D8%B9+%D9%85%D8%B3%D8%AC%D8%AF%E2%80%AD/data=!4m7!3m6!1s0x390ce7a4c5ffc659:0x83d8ecc557f86b97!8m2!3d28.5270399!4d77.3257331!16s%2Fg%2F11krrd17t2!19sChIJWcb_xaTnDDkRl2v4V8Xs2IM?authuser=0&hl=en&rclk=1,"28.5270399,77.3257331"
Jamete islami Markaz Masjid,Mosque,"H73W+G6F Jamete islami Markaz Masjid, Abul Fazal Enclave Part 2, Jamia Nagar, Okhla, New Delhi, Delhi 110025","Abul Fazal Enclave Part 2, Jamia Nagar, Okhla",H73W+G6F,New Delhi,110025,Delhi,IN,https://www.google.com/maps/place/Jamete+islami+Markaz+Masjid/data=!4m7!3m6!1s0x390ce584b6f10bd5:0xdadc52adbd2e5235!8m2!3d28.5538228!4d77.2955576!16s%2Fg%2F11t061tn1_!19sChIJ1QvxtoTlDDkRNVIuva1S3No?authuser=0&hl=en&rclk=1,"28.5538228,77.2955576"
Madina Masjid,Mosque,"Madina Masjid, 43, Gali No 5, Abul Fazal Enclave Part 2, Jamia Nagar, Okhla, New Delhi, Delhi 110025","Abul Fazal Enclave Part 2, Jamia Nagar, Okhla","43, Gali No 5",New Delhi,110025,Delhi,IN,https://www.google.com/maps/place/Madina+Masjid/data=!4m7!3m6!1s0x390ce5e5e0b9709b:0x7a72d7b67fd9b82d!8m2!3d28.5523538!4d77.2984748!16s%2Fg%2F11q4h4g7fv!19sChIJm3C54OXlDDkRLbjZf7bXcno?authuser=0&hl=en&rclk=1,"28.5523538,77.2984748"
Masjid al umar,Mosque,"G7CM+WXJ Masjid al umar, Block D, Tekhand, Okhla Phase I, Okhla Industrial Estate, New Delhi, Delhi 110020","Block D, Tekhand, Okhla Phase I, Okhla Industrial Estate",G7CM+WXJ,New Delhi,,Delhi,IN,https://www.google.com/maps/place/Masjid+al+umar/data=!4m7!3m6!1s0x390ce127640ee6e9:0xbd4208ee48120c6f!8m2!3d28.5223359!4d77.2848972!16s%2Fg%2F11v0nrgyvw!19sChIJ6eYOZCfhDDkRbwwSSO4IQr0?authuser=0&hl=en&rclk=1,"28.522335899999998,77.2848972"
Noori Masjid,Mosque,"Noori Masjid, 263C, Block G 1, Talimabad, Sangam Vihar, New Delhi, Delhi 110080","Block G 1, Talimabad, Sangam Vihar",263C,New Delhi,110080,Delhi,IN,https://www.google.com/maps/place/Noori+Masjid/data=!4m7!3m6!1s0x390ce1ce9bad762d:0x8b1bd5983da6f608!8m2!3d28.5055544!4d77.2562686!16s%2Fg%2F11sjght1nw!19sChIJLXatm87hDDkRCPamPZjVG4s?authuser=0&hl=en&rclk=1,"28.505554399999998,77.2562686"
