name,main_category,address,address_ward,address_street,address_city,address_postal_code,address_state,address_country_code,link,coordinates
Dawatul Imaam Masjid (Markaz),Mosque,"Dawatul Imaam Masjid (Markaz), Solapur, Maharashtra 413001",,,Solapur,,Maharashtra,IN,https://www.google.com/maps/place/Dawatul+Imaam+Masjid+%28Markaz%29/data=!4m7!3m6!1s0x3bc5db2d5dd07627:0xc0194c6e261590b4!8m2!3d17.6705792!4d75.9101991!16s%2Fg%2F1td0rb8w!19sChIJJ3bQXS3bxTsRtJAVJm5MGcA?authuser=0&hl=en&rclk=1,"17.6705792,75.9101991"
Jaama Masjid,Mosque,"MWG5+VXQ Jaama Masjid, Siddheshwar Society, Shukrawar Peth, Guruwar Peth, Solapur, Maharashtra 413002","Shukrawar Peth, Guruwar Peth","MWG5+VXQ, Siddheshwar Society",Solapur,413002,Maharashtra,IN,https://www.google.com/maps/place/Jaama+Masjid/data=!4m7!3m6!1s0x3bc5da7d6730caa9:0x4f4a6353a8d42a6f!8m2!3d17.6772022!4d75.9099987!16s%2Fg%2F125__x2v_!19sChIJqcowZ33axTsRbyrUqFNjSk8?authuser=0&hl=en&rclk=1,"17.6772022,75.9099987"
Mohammediya Ahle-Hadis Masjid wa Madrasa Madni Nagar,Mosque,"Mohammediya Ahle-Hadis Masjid wa Madrasa Madni Nagar, Plot No. 3, Vijapur Rd Behind Nadgiri Petrol Pump. Madani Nagar, Jule Solapur Rd, Solapur, Maharashtra 413008","Bank Colony, Dnyaneshwar Nagar, Janki Nagar","Plot No. 3, Vijapur Rd Behind Nadgiri Petrol Pump. Madani Nagar, Jule Solapur Rd",Solapur,413008,Maharashtra,IN,https://www.google.com/maps/place/Mohammediya+Ahle-Hadis+Masjid+wa+Madrasa+Madni+Nagar/data=!4m7!3m6!1s0x3bc5d7557180bff7:0xa72383c9536f0534!8m2!3d17.628168!4d75.898784!16s%2Fg%2F11g7nq1_4k!19sChIJ97-AcVXXxTsRNAVvU8mDI6c?authuser=0&hl=en&rclk=1,"17.628168,75.89878399999999"
Tauheed Ahle-Hadees Masjid wa Madrasa.,Mosque,"JWRG+PP2 Tauheed Ahle-Hadees Masjid wa Madrasa., Shivaganga Nagar, Solapur, Maharashtra 413224",Shivaganga Nagar,JWRG+PP2,Solapur,413224,Maharashtra,IN,https://www.google.com/maps/place/Tauheed+Ahle-Hadees+Masjid+wa+Madrasa./data=!4m7!3m6!1s0x3bc5da22d85265f3:0x250639af1b410011!8m2!3d17.6417653!4d75.9267714!16s%2Fg%2F1262wy142!19sChIJ82VS2CLaxTsREQBBG685BiU?authuser=0&hl=en&rclk=1,"17.6417653,75.92677139999999"
Sahara Nagar Masjid,Mosque,"JWPF+6CJ Sahara Nagar Masjid, Sahara Nagar, Anand Nagar, Solapur, Maharashtra 413224","Sahara Nagar, Anand Nagar",JWPF+6CJ,Solapur,413224,Maharashtra,IN,https://www.google.com/maps/place/Sahara+Nagar+Masjid/data=!4m7!3m6!1s0x3bc5da21d156c8d1:0xa67c4f954f84a6c0!8m2!3d17.6355907!4d75.9235059!16s%2Fg%2F1ts_515g!19sChIJ0chW0SHaxTsRwKaET5VPfKY?authuser=0&hl=en&rclk=1,"17.635590699999998,75.9235059"
Modi Masjid,Mosque,"MW52+CH4 Modi Masjid, Modi Khana, Navi Peth, Solapur, Maharashtra 413007","Modi Khana, Navi Peth",MW52+CH4,Solapur,413007,Maharashtra,IN,https://www.google.com/maps/place/Modi+Masjid/data=!4m7!3m6!1s0x3bc5da75c1286dbd:0xe8396abacda36a5d!8m2!3d17.6585057!4d75.9014427!16s%2Fg%2F1hhwn0h8b!19sChIJvW0owXXaxTsRXWqjzbpqOeg?authuser=0&hl=en&rclk=1,"17.6585057,75.90144269999999"
Sultaniya Masjid,Mosque,"MWH5+JX3 Sultaniya Masjid, Mangalwar Peth, Solapur, Maharashtra 413002",Mangalwar Peth,MWH5+JX3,Solapur,413002,Maharashtra,IN,https://www.google.com/maps/place/Sultaniya+Masjid/data=!4m7!3m6!1s0x3bc5da879562548b:0x7ac8fe6752a7b178!8m2!3d17.6790209!4d75.9099074!16s%2Fg%2F11f4kwpzlm!19sChIJi1RilYfaxTsReLGnUmf-yHo?authuser=0&hl=en&rclk=1,"17.679020899999998,75.9099074"
Zikriya Masjid,Mosque,"MW88+7JM Zikriya Masjid, New Pachha Peth, Police Head Quarters, Solapur, Maharashtra 413003",Police Head Quarters,"MW88+7JM, New Pachha Peth",Solapur,413003,Maharashtra,IN,https://www.google.com/maps/place/Zikriya+Masjid/data=!4m7!3m6!1s0x3bc5da6f454601b1:0x9fa5ffb61728c13!8m2!3d17.6657!4d75.9165338!16s%2Fg%2F124yhm9py!19sChIJsQFGRW_axTsRE4xyYftf-gk?authuser=0&hl=en&rclk=1,"17.665699999999998,75.9165338"
alkausar masjid sahil nagar,Mosque,"JWPG+H28 alkausar masjid sahil nagar, Anand Nagar, Solapur, Maharashtra 413224",Anand Nagar,JWPG+H28,Solapur,413224,Maharashtra,IN,https://www.google.com/maps/place/alkausar+masjid+sahil+nagar/data=!4m7!3m6!1s0x3bc5da21bc7befc3:0x9f66610b5fd1ac3!8m2!3d17.6364074!4d75.925068!16s%2Fg%2F12649jdbc!19sChIJw-97vCHaxTsRwxr9tRBm9gk?authuser=0&hl=en&rclk=1,"17.6364074,75.925068"
Bukhari Masjid,Mosque,"JVVX+J92 Bukhari Masjid, Sundram nagar, Ashok Nagar, Solapur, Maharashtra 413004","Sundram nagar, Ashok Nagar",JVVX+J92,Solapur,413004,Maharashtra,IN,https://www.google.com/maps/place/Bukhari+Masjid/data=!4m7!3m6!1s0x3bc5d0a7bd7c21b3:0xe40e25021dca9421!8m2!3d17.6440016!4d75.8983791!16s%2Fg%2F1hhj61hqy!19sChIJsyF8vafQxTsRIZTKHQIlDuQ?authuser=0&hl=en&rclk=1,"17.6440016,75.8983791"
Al Gafoor Ahle Hadis Masjid,Mosque,"MWC7+3V8 Al Gafoor Ahle Hadis Masjid, Padmashali Chowk, Telangi Pacha Peth, Shaniwar Peth, Solapur, Maharashtra 413001","Telangi Pacha Peth, Shaniwar Peth","MWC7+3V8, Padmashali Chowk",Solapur,413001,Maharashtra,IN,https://www.google.com/maps/place/Al+Gafoor+Ahle+Hadis+Masjid/data=!4m7!3m6!1s0x3bc5da64f5b62039:0xfdd6755c378ac58f!8m2!3d17.6701748!4d75.9146904!16s%2Fg%2F1pyqnjkkl!19sChIJOSC29WTaxTsRj8WKN1x11v0?authuser=0&hl=en&rclk=1,"17.670174799999998,75.9146904"
Forest Badi Masjid,Mosque,"Forest Badi Masjid, 80/A, Dadasaheb Gaikwad Rd, Railway lines, Sidheshwar Peth, Solapur, Maharashtra 413001","Railway lines, Sidheshwar Peth","80/A, Dadasaheb Gaikwad Rd",Solapur,413001,Maharashtra,IN,https://www.google.com/maps/place/Forest+Badi+Masjid/data=!4m7!3m6!1s0x3bc5d09d1c20378b:0xc80f69852cec162b!8m2!3d17.6632781!4d75.8972303!16s%2Fg%2F11f04461n0!19sChIJizcgHJ3QxTsRKxbsLIVpD8g?authuser=0&hl=en&rclk=1,"17.6632781,75.89723029999999"
Sholapur Bohra Masjid,Mosque,"MWH5+JF6 Sholapur Bohra Masjid, Madhla Maruti Chowk, Begum Peth Rd, Solapur, Maharashtra",Guruwar Peth,"MWH5+JF6, Madhla Maruti Chowk, Begum Peth Rd",Solapur,,Maharashtra,IN,https://www.google.com/maps/place/Sholapur+Bohra+Masjid/data=!4m7!3m6!1s0x3bc5da878027a3bb:0x5d2c9ca9a59bd17b!8m2!3d17.6790437!4d75.9086435!16s%2Fg%2F11cfhczkc!19sChIJu6MngIfaxTsRe9GbpamcLF0?authuser=0&hl=en&rclk=1,"17.679043699999998,75.9086435"
Chand Tara Masjid,Mosque,"JVXW+W5G Chand Tara Masjid, Utkarsh Nagar Rd, Bhushan Nagar, Solapur, Maharashtra 413004",Bhushan Nagar,"JVXW+W5G, Utkarsh Nagar Rd",Solapur,413004,Maharashtra,IN,https://www.google.com/maps/place/Chand+Tara+Masjid/data=!4m7!3m6!1s0x3bc5d0a172a3e757:0x97923f36c50e48fc!8m2!3d17.6498037!4d75.8954376!16s%2Fg%2F11b700wp57!19sChIJV-ejcqHQxTsR_EgOxTY_kpc?authuser=0&hl=en&rclk=1,"17.6498037,75.8954376"
Hasham Peer Masjid hshm pyrmsjd,Mosque,"Hasham Peer Masjid hshm pyrmsjd, 281, Sakhar Peth Rd, Sakhar Peth, Shaniwar Peth, Solapur, Maharashtra 413002","Sakhar Peth, Shaniwar Peth","281, Sakhar Peth Rd",Solapur,413002,Maharashtra,IN,https://www.google.com/maps/place/Hasham+Peer+Masjid+%DB%81%D8%A7%D8%B4%D9%85+%D9%BE%DB%8C%D8%B1%D9%85%D8%B3%D8%AC%D8%AF%E2%80%AD/data=!4m7!3m6!1s0x3bc5da624ea10855:0x4eeca35449c976be!8m2!3d17.6755275!4d75.915461!16s%2Fg%2F11g68xv2ld!19sChIJVQihTmLaxTsRvnbJSVSj7E4?authuser=0&hl=en&rclk=1,"17.675527499999998,75.915461"
Noorani Masjid,Mosque,"MWC6+5WQ Noorani Masjid, Shaniwar Peth, Solapur, Maharashtra 413001",Shaniwar Peth,MWC6+5WQ,Solapur,413001,Maharashtra,IN,https://www.google.com/maps/place/Noorani+Masjid/data=!4m7!3m6!1s0x3bc5da64c79e4b3d:0x81be6c7e8f665b23!8m2!3d17.6704527!4d75.9123607!16s%2Fg%2F1260b37lr!19sChIJPUuex2TaxTsRI1tmj35svoE?authuser=0&hl=en&rclk=1,"17.6704527,75.9123607"
Yateem Khana Masjid,Mosque,"MV2R+4Q4 Yateem Khana Masjid, School, 2 Near Sir Sayad, Vijapur Naka, Bhushan Nagar, Solapur, Maharashtra 413004",Bhushan Nagar,"MV2R+4Q4 School, 2 Near Sir Sayad, Vijapur Naka",Solapur,413004,Maharashtra,IN,https://www.google.com/maps/place/Yateem+Khana+Masjid/data=!4m7!3m6!1s0x3bc5d0a24d4160ed:0x538b0d499755de77!8m2!3d17.650279!4d75.891973!16s%2Fg%2F11gf98gn81!19sChIJ7WBBTaLQxTsRd95Vl0kNi1M?authuser=0&hl=en&rclk=1,"17.650278999999998,75.891973"
Sunni Qureshi Dargah Masjid,Mosque,"MWG4+V52 Sunni Qureshi Dargah Masjid, South Kasba, Budhavar Peth, Solapur, Maharashtra 413001","South Kasba, Budhavar Peth",MWG4+V52,Solapur,413001,Maharashtra,IN,https://www.google.com/maps/place/Sunni+Qureshi+Dargah+Masjid/data=!4m7!3m6!1s0x3bc5da7e019636ef:0x42bb5d789e868a41!8m2!3d17.6771457!4d75.9053954!16s%2Fg%2F11cryf0_m1!19sChIJ7zaWAX7axTsRQYqGnnhdu0I?authuser=0&hl=en&rclk=1,"17.6771457,75.9053954"
Pangal Masjid,Mosque,"MWF6+P9P Pangal Masjid, Shaniwar Peth, Solapur, Maharashtra 413002",Shaniwar Peth,"MWF6+P9P, Shaniwar Peth",Solapur,413002,Maharashtra,IN,https://www.google.com/maps/place/Pangal+Masjid/data=!4m7!3m6!1s0x3bc5da7cd05dad4f:0xe77974ac60f83c35!8m2!3d17.6743304!4d75.9109449!16s%2Fg%2F1pyqpcwzm!19sChIJT61d0HzaxTsRNTz4YKx0eec?authuser=0&hl=en&rclk=1,"17.6743304,75.91094489999999"
Lukman Nagar Masjid,Mosque,"Lukman Nagar Masjid, Anand Nagar, Solapur, Maharashtra 413224",Anand Nagar,,Solapur,413224,Maharashtra,IN,https://www.google.com/maps/place/Lukman+Nagar+Masjid/data=!4m7!3m6!1s0x3bc5da1883d7f2e7:0x442485984a902f43!8m2!3d17.6405243!4d75.9228682!16s%2Fg%2F1pyqrjftl!19sChIJ5_LXgxjaxTsRQy-QSpiFJEQ?authuser=0&hl=en&rclk=1,"17.6405243,75.9228682"
Iqrar Ali Masjid,Mosque,"MWF7+PMJ Iqrar Ali Masjid, Shaniwar Peth, Solapur, Maharashtra 413002",Shaniwar Peth,MWF7+PMJ,Solapur,413002,Maharashtra,IN,https://www.google.com/maps/place/Iqrar+Ali+Masjid/data=!4m7!3m6!1s0x3bc5da63063c3257:0x353480e4bcc37139!8m2!3d17.6743401!4d75.9141266!16s%2Fg%2F11c55wh465!19sChIJVzI8BmPaxTsROXHDvOSANDU?authuser=0&hl=en&rclk=1,"17.6743401,75.9141266"
Akbar Kasim Masjid,Mosque,"Akbar Kasim Masjid, 658, Shakar Path, Bhadravathi Peth, Solapur, Maharashtra 413002",Bhadravathi Peth,"658, Shakar Path",Solapur,413002,Maharashtra,IN,https://www.google.com/maps/place/Akbar+Kasim+Masjid/data=!4m7!3m6!1s0x3bc5da63ef211975:0x73a20907b2b46e2c!8m2!3d17.67329!4d75.9167608!16s%2Fg%2F1hc1sbx1v!19sChIJdRkh72PaxTsRLG60sgcJonM?authuser=0&hl=en&rclk=1,"17.673289999999998,75.91676079999999"
Baba Qadri Masjid,Mosque,"MWH3+GQF Baba Qadri Masjid, Budhavar Peth, Solapur, Maharashtra 413001",Budhavar Peth,MWH3+GQF,Solapur,413001,Maharashtra,IN,https://www.google.com/maps/place/Baba+Qadri+Masjid/data=!4m7!3m6!1s0x3bc5da80c1025b01:0xa4fd29b1aa685d0d!8m2!3d17.6788226!4d75.9044367!16s%2Fg%2F11gdgw_ftp!19sChIJAVsCwYDaxTsRDV1oqrEp_aQ?authuser=0&hl=en&rclk=1,"17.6788226,75.90443669999999"
Rahmaniya (Ahle Hadees) Masjid,Mosque,"MWH6+3MC Rahmaniya (Ahle Hadees) Masjid, Shaniwar Peth, Solapur, Maharashtra 413002",Shaniwar Peth,MWH6+3MC,Solapur,413002,Maharashtra,IN,https://www.google.com/maps/place/Rahmaniya+%28Ahle+Hadees%29+Masjid/data=!4m7!3m6!1s0x3bc5da62aa5ec38b:0x410b42660c1252d7!8m2!3d17.6776921!4d75.9116257!16s%2Fg%2F1260s4gl6!19sChIJi8NeqmLaxTsR11ISDGZCC0E?authuser=0&hl=en&rclk=1,"17.677692099999998,75.9116257"
Bagban Masjid,Mosque,"Bagban Masjid, 3, Hyderabad Rd, Shri Ram Krishna Nagar, Rangraj Nagar, Solapur, Maharashtra 413005","Shri Ram Krishna Nagar, Rangraj Nagar","3, Hyderabad Rd",Solapur,413005,Maharashtra,IN,https://www.google.com/maps/place/Bagban+Masjid/data=!4m7!3m6!1s0x3bc5dafdee9c94d5:0xc0c8285be820719f!8m2!3d17.6869861!4d75.9457201!16s%2Fg%2F1pyqprhy8!19sChIJ1ZSc7v3axTsRn3Eg6FsoyMA?authuser=0&hl=en&rclk=1,"17.6869861,75.9457201"
Masjid e Umar Khalifa (Ahlehadees),Mosque,"Masjid e Umar Khalifa (Ahlehadees), 1, Sumyya Nagar, Majrewadi, Solapur, Maharashtra 413224","Sumyya Nagar, Majrewadi",1,Solapur,413224,Maharashtra,IN,https://www.google.com/maps/place/Masjid+e+Umar+Khalifa+%28Ahlehadees%29/data=!4m7!3m6!1s0x3bc5db817c6f5507:0x3c867f7086c1571f!8m2!3d17.6420503!4d75.9290955!16s%2Fg%2F11kbz2p059!19sChIJB1VvfIHbxTsRH1fBhnB_hjw?authuser=0&hl=en&rclk=1,"17.642050299999998,75.9290955"
Ashiyana Nagar Masjid,Mosque,"Ashiyana Nagar Masjid, 48, Laxmi Nagar, Dnyaneshwar Nagar, Jule, Solapur, Maharashtra 413008","Laxmi Nagar, Dnyaneshwar Nagar, Jule",48,Solapur,413008,Maharashtra,IN,https://www.google.com/maps/place/Ashiyana+Nagar+Masjid/data=!4m7!3m6!1s0x3bc5d9ff3926a217:0x3f471a539cc22765!8m2!3d17.629278!4d75.904649!16s%2Fg%2F11g8cvvsjf!19sChIJF6ImOf_ZxTsRZSfCnFMaRz8?authuser=0&hl=en&rclk=1,"17.629278,75.90464899999999"
Abu Hanifa Masjid,Mosque,"Abu Hanifa Masjid, 544, Sanjay Gandhi Nagar Rd, Bhushan Nagar, Solapur, Maharashtra 413004",Bhushan Nagar,"544, Sanjay Gandhi Nagar Rd",Solapur,413004,Maharashtra,IN,https://www.google.com/maps/place/Abu+Hanifa+Masjid/data=!4m7!3m6!1s0x3bc5d0a1f6d77a4d:0x6daf8fbbef7991f8!8m2!3d17.6531238!4d75.8939808!16s%2Fg%2F1pyqfplrr!19sChIJTXrX9qHQxTsR-JF577uPr20?authuser=0&hl=en&rclk=1,"17.6531238,75.8939808"
Ansaar Masjid,Mosque,"MWPP+5C6 Ansaar Masjid, New Rangraj Nagar, Rangraj Nagar, Solapur, Maharashtra 413005","New Rangraj Nagar, Rangraj Nagar",MWPP+5C6,Solapur,413005,Maharashtra,IN,https://www.google.com/maps/place/Ansaar+Masjid/data=!4m7!3m6!1s0x3bc5dafa1e4d1503:0x40ee16d4b938744f!8m2!3d17.6854059!4d75.9360174!16s%2Fg%2F11c52s5g9v!19sChIJAxVNHvraxTsRT3Q4udQW7kA?authuser=0&hl=en&rclk=1,"17.6854059,75.9360174"
Ahle Sunnat Hanfiya Masjid,Mosque,"Ahle Sunnat Hanfiya Masjid, Dr.Ansari Chowk, 13, Shastri Nagar Rd, Shastri Nagar, Jawaharlal Housing Society, Keshav Nagra, Solapur, Maharashtra 413003","Shastri Nagar, Jawaharlal Housing Society, Keshav Nagra","Dr.Ansari Chowk, 13, Shastri Nagar Rd",Solapur,413003,Maharashtra,IN,https://www.google.com/maps/place/Ahle+Sunnat+Hanfiya+Masjid/data=!4m7!3m6!1s0x3bc5da6c64f03e85:0xe6931946040bae11!8m2!3d17.6582189!4d75.9165056!16s%2Fg%2F11cjj38sgc!19sChIJhT7wZGzaxTsREa4LBEYZk-Y?authuser=0&hl=en&rclk=1,"17.658218899999998,75.9165056"
Mohhamadiya Masjid (Ahlehadees),Mosque,"MWC5+MX8 Mohhamadiya Masjid (Ahlehadees), Begum Peth, Shaniwar Peth, Solapur, Maharashtra 413001","Begum Peth, Shaniwar Peth",MWC5+MX8,Solapur,413001,Maharashtra,IN,https://www.google.com/maps/place/Mohhamadiya+Masjid+%28Ahlehadees%29/data=!4m7!3m6!1s0x3bc5da7b6042955f:0xc7e401b22391c1aa!8m2!3d17.6716598!4d75.9099485!16s%2Fg%2F1260l_1m6!19sChIJX5VCYHvaxTsRqsGRI7IB5Mc?authuser=0&hl=en&rclk=1,"17.6716598,75.9099485"
Noor E Islam Masjid,Mosque,"Noor E Islam Masjid, 157, telangi pachha Peth, Telangi Pacha Peth, Shaniwar Peth, Solapur, Maharashtra 413002","Telangi Pacha Peth, Shaniwar Peth","157, telangi pachha Peth",Solapur,413002,Maharashtra,IN,https://www.google.com/maps/place/Noor+E+Islam+Masjid/data=!4m7!3m6!1s0x3bc5da6479ffea53:0x1809bd618e99a2ae!8m2!3d17.671824!4d75.9151132!16s%2Fg%2F1ydpvbg8q!19sChIJU-r_eWTaxTsRrqKZjmG9CRg?authuser=0&hl=en&rclk=1,"17.671824,75.9151132"
Masjid-E-Ibrahim,Mosque,"JWR9+7F8 Masjid-E-Ibrahim, Industrial Estate, Sainath Nagar, Solapur, Maharashtra 413224","Industrial Estate, Sainath Nagar",JWR9+7F8,Solapur,413224,Maharashtra,IN,https://www.google.com/maps/place/Masjid-E-Ibrahim/data=!4m7!3m6!1s0x3bc5da199ffa8561:0x33e01b8b746fd39a!8m2!3d17.6406701!4d75.9187008!16s%2Fg%2F1hg44711z!19sChIJYYX6nxnaxTsRmtNvdIsb4DM?authuser=0&hl=en&rclk=1,"17.640670099999998,75.9187008"
Maulana Shahabuddin Salfi Masjid-ul-Salam,Mosque,"Maulana Shahabuddin Salfi Masjid-ul-Salam, 179, Ambedkar Nagar, Hotgi Rd, Anand Nagar, Solapur, Maharashtra 413225",Anand Nagar,"179, Ambedkar Nagar, Hotgi Rd",Solapur,413225,Maharashtra,IN,https://www.google.com/maps/place/Maulana+Shahabuddin+Salfi+Masjid-ul-Salam/data=!4m7!3m6!1s0x3bc5da1f6f7775a7:0x9d6ab2661c6fe726!8m2!3d17.6359738!4d75.9223936!16s%2Fg%2F11bvt6n7h3!19sChIJp3V3bx_axTsRJudvHGayap0?authuser=0&hl=en&rclk=1,"17.6359738,75.92239359999999"
Anjuman-E-Falahulmslimin Masjid,Mosque,"MW69+MV4 Anjuman-E-Falahulmslimin Masjid, Bapuji Nagar, Jawaharlal Housing Society, Keshav Nagra, Solapur, Maharashtra 413006","Bapuji Nagar, Jawaharlal Housing Society, Keshav Nagra",MW69+MV4,Solapur,413006,Maharashtra,IN,https://www.google.com/maps/place/Anjuman-E-Falahulmslimin+Masjid/data=!4m7!3m6!1s0x3bc5da697083a559:0xa85254efe90310fa!8m2!3d17.6616466!4d75.9197055!16s%2Fg%2F1pyqnmd6l!19sChIJWaWDcGnaxTsR-hAD6e9UUqg?authuser=0&hl=en&rclk=1,"17.6616466,75.91970549999999"
Mahtab Nager Masjid,Mosque,"MWQJ+9R7 Mahtab Nager Masjid, Kumar Swamy Nagar, Shelgi, Solapur, Maharashtra 413002","Kumar Swamy Nagar, Shelgi",MWQJ+9R7,Solapur,413002,Maharashtra,IN,https://www.google.com/maps/place/Mahtab+Nager+Masjid/data=!4m7!3m6!1s0x3bc5daf04c508af5:0xe924d530e47c1785!8m2!3d17.6884046!4d75.932059!16s%2Fg%2F1pyqhl0p_!19sChIJ9YpQTPDaxTsRhRd85DDVJOk?authuser=0&hl=en&rclk=1,"17.6884046,75.932059"
Noorani Masjid,Mosque,"Noorani Masjid, Vijapur Rd, Ganesh Nagar, Solapur, Maharashtra 413004",Ganesh Nagar,"Noorani Masjid, Vijapur Rd",Solapur,413004,Maharashtra,IN,https://www.google.com/maps/place/Noorani+Masjid/data=!4m7!3m6!1s0x3bc5d12a12b70a25:0xd1173057f8fd4d36!8m2!3d17.6464847!4d75.8975696!16s%2Fg%2F11f66s_g2v!19sChIJJQq3EirRxTsRNk39-FcwF9E?authuser=0&hl=en&rclk=1,"17.6464847,75.8975696"
Khalid bin Waleed Masjid,Mosque,"Khalid bin Waleed Masjid, Nayi Zindagi, Siddheshwar Nagar, Solapur, Maharashtra 413224",Siddheshwar Nagar,Nayi Zindagi,Solapur,413224,Maharashtra,IN,https://www.google.com/maps/place/Khalid+bin+Waleed+Masjid/data=!4m7!3m6!1s0x3bc5da21567d7687:0x936527bb76581689!8m2!3d17.6382616!4d75.9285069!16s%2Fg%2F11c5_cl85d!19sChIJh3Z9ViHaxTsRiRZYdrsnZZM?authuser=0&hl=en&rclk=1,"17.6382616,75.9285069"
Ahle Hadees Choti Masjid,Mosque,"Ahle Hadees Choti Masjid, 176, Sidheshwar Peth, Railway lines, Sidheshwar Peth, Solapur, Maharashtra 413002","Railway lines, Sidheshwar Peth","176, Sidheshwar Peth",Solapur,413002,Maharashtra,IN,https://www.google.com/maps/place/Ahle+Hadees+Choti+Masjid/data=!4m7!3m6!1s0x3bc5d09d17e37719:0x3f9ded7ac0661c35!8m2!3d17.6637586!4d75.8976803!16s%2Fg%2F11dxdx3vxj!19sChIJGXfjF53QxTsRNRxmwHrtnT8?authuser=0&hl=en&rclk=1,"17.663758599999998,75.89768029999999"
Aalamgir Masjid,Mosque,"MW96+F75 Aalamgir Masjid, Sidheshwar Peth, Solapur, Maharashtra 413001",Sidheshwar Peth,MW96+F75,Solapur,413001,Maharashtra,IN,https://www.google.com/maps/place/Aalamgir+Masjid/data=!4m7!3m6!1s0x3bc5da7acf971e05:0xc27d1c9fbc5f7f49!8m2!3d17.6686308!4d75.9107352!16s%2Fg%2F1pyqpmp4b!19sChIJBR6Xz3raxTsRSX9fvJ8cfcI?authuser=0&hl=en&rclk=1,"17.6686308,75.91073519999999"
Chawdi Masjid (Ahlehadees) Lashkar Solapur,Mosque,"MW55+CX9 Chawdi Masjid (Ahlehadees) Lashkar Solapur, Near mamta Readymade, South Sadar Bazar, Jawaharlal Housing Society, Lashkar, Solapur, Maharashtra 413003","South Sadar Bazar, Jawaharlal Housing Society, Lashkar","MW55+CX9, Near mamta Readymade",Solapur,413003,Maharashtra,IN,https://www.google.com/maps/place/Chawdi+Masjid+%28Ahlehadees%29+Lashkar+Solapur/data=!4m7!3m6!1s0x3bc5da726aaefedb:0xce13eb9f77015b62!8m2!3d17.6585416!4d75.9099936!16s%2Fg%2F11g6bv4rr9!19sChIJ2_6uanLaxTsRYlsBd5_rE84?authuser=0&hl=en&rclk=1,"17.6585416,75.90999359999999"
Badr Masjid (kajal Nagar),Mosque,"JWMG+F3Q Badr Masjid (kajal Nagar), Raghvendra Nagar, Solapur, Maharashtra 413224",Raghvendra Nagar,JWMG+F3Q,Solapur,413224,Maharashtra,IN,https://www.google.com/maps/place/Badr+Masjid+%28kajal+Nagar%29/data=!4m7!3m6!1s0x3bc5da206887330f:0x5cfb71f6bbe6940a!8m2!3d17.6337139!4d75.9252413!16s%2Fg%2F11f38y8tcg!19sChIJDzOHaCDaxTsRCpTmu_Zx-1w?authuser=0&hl=en&rclk=1,"17.6337139,75.9252413"
Masjid-AL-Quba,Mosque,"Masjid-AL-Quba, Jawahar Nagar,51/1 North, South Sadar Bazar, Jawaharlal Housing Society, Solapur, Maharashtra 413003","South Sadar Bazar, Jawaharlal Housing Society","Jawahar Nagar,51/1 North",Solapur,413003,Maharashtra,IN,https://www.google.com/maps/place/Masjid-AL-Quba/data=!4m7!3m6!1s0x3bc5da6bdbf0c1f3:0x8a3146c7a5cdac5f!8m2!3d17.6604801!4d75.9191483!16s%2Fg%2F11fxvdt_sx!19sChIJ88Hw22vaxTsRX6zNpcdGMYo?authuser=0&hl=en&rclk=1,"17.6604801,75.9191483"
Mohammadiya Masjid,Mosque,"JWVM+M3P Mohammadiya Masjid, Swagat Nagar, Solapur, Maharashtra 413224",Swagat Nagar,JWVM+M3P,Solapur,413224,Maharashtra,IN,https://www.google.com/maps/place/Mohammadiya+Masjid/data=!4m7!3m6!1s0x3bc5da25322e0ee1:0x8b0ae2e957e0ab87!8m2!3d17.6442061!4d75.9326908!16s%2Fg%2F11g69775kb!19sChIJ4Q4uMiXaxTsRh6vgV-niCos?authuser=0&hl=en&rclk=1,"17.644206099999998,75.9326908"
Anwaarul Ulum Masjid,Mosque,"MW8W+FVJ Anwaarul Ulum Masjid, Akkalkot Rd, Sangameshwar Nagar, Solapur, Maharashtra 413006",Sangameshwar Nagar,"MW8W+FVJ, Akkalkot Rd",Solapur,413006,Maharashtra,IN,https://www.google.com/maps/place/Anwaarul+Ulum+Masjid/data=!4m7!3m6!1s0x3bc5dbb2dbc8b3cf:0x1ecb3e80f2fe8e0e!8m2!3d17.6662054!4d75.947137!16s%2Fg%2F11gfmjmj4s!19sChIJz7PI27LbxTsRDo7-8oA-yx4?authuser=0&hl=en&rclk=1,"17.6662054,75.947137"
Masjid-E-Aqsa (msjdi qS~),Mosque,"JWVF+2G7 Masjid-E-Aqsa (msjdi qS~), aqsa masjid back to regal hotel, Solapur, Maharashtra",Sainath Nagar,"JWVF+2G7, aqsa masjid back to regal hotel",Solapur,,Maharashtra,IN,https://www.google.com/maps/place/Masjid-E-Aqsa+%28%D9%85%D8%B3%D8%AC%D8%AF%D9%90+%D8%A7%D9%82%D8%B5%D9%89%D9%B0%29%E2%80%AD/data=!4m7!3m6!1s0x3bc5db0e53cd5fb3:0xf6aceb1d978e32e3!8m2!3d17.6425295!4d75.9238038!16s%2Fg%2F11gjpxn6jj!19sChIJs1_NUw7bxTsR4zKOlx3rrPY?authuser=0&hl=en&rclk=1,"17.6425295,75.9238038"
Masjid Pindhari,Mosque,"Masjid Pindhari, north, nal bazar chowk, South Sadar Bazar, Jawaharlal Housing Society, Keshav Nagra, Solapur, Maharashtra 413003","South Sadar Bazar, Jawaharlal Housing Society, Keshav Nagra","north, nal bazar chowk",Solapur,413003,Maharashtra,IN,https://www.google.com/maps/place/Masjid+Pindhari/data=!4m7!3m6!1s0x3bc5da720742fb27:0x18b9bfaae7f970a0!8m2!3d17.6598975!4d75.9114289!16s%2Fg%2F11g6fwy4gl!19sChIJJ_tCB3LaxTsRoHD556q_uRg?authuser=0&hl=en&rclk=1,"17.6598975,75.91142889999999"
Masjid 'E' Tuba,Mosque,"MWC5+C72 Masjid 'E' Tuba, Sidheshwar Peth, Solapur, Maharashtra 413001",Sidheshwar Peth,MWC5+C72,Solapur,413001,Maharashtra,IN,https://www.google.com/maps/place/Masjid+%27E%27+Tuba/data=!4m7!3m6!1s0x3bc5da7b84b948ff:0xe5748baefb629380!8m2!3d17.6710143!4d75.9081432!16s%2Fg%2F11d_cycp96!19sChIJ_0i5hHvaxTsRgJNi-66LdOU?authuser=0&hl=en&rclk=1,"17.6710143,75.9081432"
HAZRAT BILAL NAGAR MASJID,Mosque,"JWG3+WF9 HAZRAT BILAL NAGAR MASJID, Bank Colony, Rohini Nagar-3, Dnyaneshwar Nagar, Rohini Nagar, Jule, Solapur, Maharashtra 413004","Rohini Nagar-3, Dnyaneshwar Nagar, Rohini Nagar, Jule","JWG3+WF9, Bank Colony",Solapur,413004,Maharashtra,IN,https://www.google.com/maps/place/HAZRAT+BILAL+NAGAR+MASJID/data=!4m7!3m6!1s0x3bc5d9fee796a1b7:0xef788528377293d!8m2!3d17.6272968!4d75.90373!16s%2Fg%2F11f34541vq!19sChIJt6GW5_7ZxTsRPSl3g1KI9w4?authuser=0&hl=en&rclk=1,"17.6272968,75.90373"
Sirah Masjid,Mosque,"MW55+P4V Sirah Masjid, Unnamed Road, South Sadar Bazar, Jawaharlal Housing Society, Keshav Nagra, Solapur, Maharashtra 413007","South Sadar Bazar, Jawaharlal Housing Society, Keshav Nagra","MW55+P4V, Unnamed Road",Solapur,413007,Maharashtra,IN,https://www.google.com/maps/place/Sirah+Masjid/data=!4m7!3m6!1s0x3bc5da73dab33fa3:0x78a383e882a05ad5!8m2!3d17.6593582!4d75.9077912!16s%2Fg%2F11f4lb6hp3!19sChIJoz-z2nPaxTsR1VqgguiDo3g?authuser=0&hl=en&rclk=1,"17.6593582,75.90779119999999"
Baitullah Masjid,Mosque,"MWMW+V6H Baitullah Masjid, Saruwadi Nagar, Rangraj Nagar, Solapur, Maharashtra 413005","Saruwadi Nagar, Rangraj Nagar",MWMW+V6H,Solapur,413005,Maharashtra,IN,https://www.google.com/maps/place/Baitullah+Masjid/data=!4m7!3m6!1s0x3bc5dafe19d3ed21:0x91dfbe46985fd9c7!8m2!3d17.6846768!4d75.9456076!16s%2Fg%2F11c0vkpc0m!19sChIJIe3TGf7axTsRx9lfmEa-35E?authuser=0&hl=en&rclk=1,"17.6846768,75.9456076"
Almomin Masjid,Mosque,"JWRH+2G8 Almomin Masjid, Shivaganga Nagar, Solapur, Maharashtra 413224",Shivaganga Nagar,JWRH+2G8,Solapur,413224,Maharashtra,IN,https://www.google.com/maps/place/Almomin+Masjid/data=!4m7!3m6!1s0x3bc5da238a92463d:0x1009a836113cdc01!8m2!3d17.6400352!4d75.9288298!16s%2Fg%2F11cst1_yv2!19sChIJPUaSiiPaxTsRAdw8ETaoCRA?authuser=0&hl=en&rclk=1,"17.6400352,75.9288298"
Madina Masjid,Mosque,"MWRM+VQ3 Madina Masjid, Mehtaab Nagar, Kumar Swamy Nagar, Solapur, Maharashtra 413002","Mehtaab Nagar, Kumar Swamy Nagar",MWRM+VQ3,Solapur,413002,Maharashtra,IN,https://www.google.com/maps/place/Madina+Masjid/data=!4m7!3m6!1s0x3bc5daeff469c959:0x2f7f4fc52cc67d52!8m2!3d17.6921444!4d75.9344346!16s%2Fg%2F11d_9h3n8q!19sChIJWclp9O_axTsRUn3GLMVPfy8?authuser=0&hl=en&rclk=1,"17.6921444,75.9344346"
Hanfia Masjid,Mosque,"MV5V+V5W Hanfia Masjid, Sanjay Gandhi Nagar Rd, Ramwadi, Solapur, Maharashtra 413004",Ramwadi,"MV5V+V5W, Sanjay Gandhi Nagar Rd",Solapur,413004,Maharashtra,IN,https://www.google.com/maps/place/Hanfia+Masjid/data=!4m7!3m6!1s0x3bc5d09be8a86f09:0x99919a4dd9d49c68!8m2!3d17.6597339!4d75.8929458!16s%2Fg%2F11b6_n83tz!19sChIJCW-o6JvQxTsRaJzU2U2akZk?authuser=0&hl=en&rclk=1,"17.6597339,75.89294579999999"
Masjid E Imam Abu Dawood (Ahle Hadees),Mosque,"JWPM+WXQ Masjid E Imam Abu Dawood (Ahle Hadees), Shanti Nagar, Solapur, Maharashtra 413224",Shanti Nagar,JWPM+WXQ,Solapur,413224,Maharashtra,IN,https://www.google.com/maps/place/Masjid+E+Imam+Abu+Dawood+%28Ahle+Hadees%29/data=!4m7!3m6!1s0x3bc5db1eb182e117:0xb27830171893b21b!8m2!3d17.637328!4d75.9349714!16s%2Fg%2F11ss4x62gl!19sChIJF-GCsR7bxTsRG7KTGBcweLI?authuser=0&hl=en&rclk=1,"17.637328,75.9349714"
Baitur Rahmaan Masjid,Mosque,"Baitur Rahmaan Masjid, 153, Hotgi Rd, Sant Gulab Baba Nagar, Majrewadi, Solapur, Maharashtra 413224","Sant Gulab Baba Nagar, Majrewadi","153, Hotgi Rd",Solapur,413224,Maharashtra,IN,https://www.google.com/maps/place/Baitur+Rahmaan+Masjid/data=!4m7!3m6!1s0x3bc5da208ff5d6f9:0x7ddedaa614bf320!8m2!3d17.6331884!4d75.9266092!16s%2Fg%2F11g727yys7!19sChIJ-db1jyDaxTsRIPNLYart3Qc?authuser=0&hl=en&rclk=1,"17.633188399999998,75.9266092"
Anjuman Anwarul Islam masjid,Mosque,"Anjuman Anwarul Islam masjid, 30/80/2, Padma Nagar, New Paccha peth, Sakhar Peth, Solapur, Maharashtra 413005","Padma Nagar, New Paccha peth, Sakhar Peth",30/80/2,Solapur,413005,Maharashtra,IN,https://www.google.com/maps/place/Anjuman+Anwarul+Islam+masjid/data=!4m7!3m6!1s0x3bc5db8d106a4157:0xbd5b50ebce069e7d!8m2!3d17.6698661!4d75.9291446!16s%2Fg%2F11ns9xkqt7!19sChIJV0FqEI3bxTsRfZ4GzutQW70?authuser=0&hl=en&rclk=1,"17.6698661,75.9291446"
Mohammadiya Masjid,Mosque,"MVQX+487 Mohammadiya Masjid, Mane Wasti, New Budhwar Peth, Solapur, Maharashtra 413002","Mane Wasti, New Budhwar Peth",MVQX+487,Solapur,413002,Maharashtra,IN,https://www.google.com/maps/place/Mohammadiya+Masjid/data=!4m7!3m6!1s0x3bc5d07822433ec9:0x81f9749cc5a9cd6!8m2!3d17.6877954!4d75.8982935!16s%2Fg%2F11g9dv0gc0!19sChIJyT5DInjQxTsR1pxazEmXHwg?authuser=0&hl=en&rclk=1,"17.6877954,75.8982935"
Imdadiya Masjid,Mosque,"MW47+8MR Imdadiya Masjid, Jawaharlal Housing Society, Keshav Nagra, Solapur, Maharashtra 413003","Jawaharlal Housing Society, Keshav Nagra",MW47+8MR,Solapur,413003,Maharashtra,IN,https://www.google.com/maps/place/Imdadiya+Masjid/data=!4m7!3m6!1s0x3bc5da6d213712ef:0x4dbdcdd926bd7977!8m2!3d17.6558749!4d75.9141292!16s%2Fg%2F11ggk7z81c!19sChIJ7xI3IW3axTsRd3m9JtnNvU0?authuser=0&hl=en&rclk=1,"17.6558749,75.91412919999999"
"NIZAMUDDIN MASJID MADARASA TRUST,SOLAPUR",Mosque,"NIZAMUDDIN MASJID MADARASA TRUST,SOLAPUR, Deshmukh Patil Wasti, Damani Nagar, Solapur, Maharashtra 413002","Deshmukh Patil Wasti, Damani Nagar",,Solapur,413002,Maharashtra,IN,"https://www.google.com/maps/place/NIZAMUDDIN+MASJID+MADARASA+TRUST,SOLAPUR/data=!4m7!3m6!1s0x3bc5d0897e6c7fb3:0x6960e3cbad262125!8m2!3d17.6724093!4d75.8825449!16s%2Fg%2F11d_d5cg3k!19sChIJs39sfonQxTsRJSEmrcvjYGk?authuser=0&hl=en&rclk=1","17.672409299999998,75.8825449"
"Jamia Masjid, Solapur (jm` msjd )",Mosque,"JW6J+H3C Jamia Masjid, Solapur (jm` msjd ), Kumte, Solapur, Maharashtra 413008",Kumte,JW6J+H3C,Solapur,413008,Maharashtra,IN,"https://www.google.com/maps/place/Jamia+Masjid,+Solapur+%28%D8%AC%D8%A7%D9%85%D8%B9+%D9%85%D8%B3%D8%AC%D8%AF+%29%E2%80%AD/data=!4m7!3m6!1s0x3bc5d95a05949e1d:0x143145693f247587!8m2!3d17.6114418!4d75.9301281!16s%2Fg%2F11g1qztg_6!19sChIJHZ6UBVrZxTsRh3UkP2lFMRQ?authuser=0&hl=en&rclk=1","17.611441799999998,75.93012809999999"
Chiragali Taqiya Masjid,Mosque,"MWH9+W53 Chiragali Taqiya Masjid, Joshi Galli, Bhavani Peth, Solapur, Maharashtra 413002","Joshi Galli, Bhavani Peth",MWH9+W53,Solapur,413002,Maharashtra,IN,https://www.google.com/maps/place/Chiragali+Taqiya+Masjid/data=!4m7!3m6!1s0x3bc5da8a3cfe6ceb:0x15ac6dd39e1bc649!8m2!3d17.6797671!4d75.9179212!16s%2Fg%2F1pyqtsbpk!19sChIJ62z-PIraxTsRScYbntNtrBU?authuser=0&hl=en&rclk=1,"17.6797671,75.9179212"
Zinat Ul Islam Masjid,Mosque,"MWH7+P24 Zinat Ul Islam Masjid, Mangalwar Peth, Solapur, Maharashtra 413002",Mangalwar Peth,MWH7+P24,Solapur,413002,Maharashtra,IN,https://www.google.com/maps/place/Zinat+Ul+Islam+Masjid/data=!4m7!3m6!1s0x3bc5da886b565fb5:0x4ef1a9dcd08f258a!8m2!3d17.6792625!4d75.9125811!16s%2Fg%2F11g8z9xbfr!19sChIJtV9Wa4jaxTsRiiWP0Nyp8U4?authuser=0&hl=en&rclk=1,"17.6792625,75.9125811"
Hazrat Usmaan Gani Masjid,Mosque,"MW79+9F4 Hazrat Usmaan Gani Masjid, Bapuji Nagar, Jawaharlal Housing Society, Solapur, Maharashtra 413006","Bapuji Nagar, Jawaharlal Housing Society",MW79+9F4,Solapur,413006,Maharashtra,IN,https://www.google.com/maps/place/Hazrat+Usmaan+Gani+Masjid/data=!4m7!3m6!1s0x3bc5da69221e3149:0xd4dbe4db615089ff!8m2!3d17.6633998!4d75.9187044!16s%2Fg%2F11cp21rr3y!19sChIJSTEeImnaxTsR_4lQYdvk29Q?authuser=0&hl=en&rclk=1,"17.6633998,75.9187044"
Al-Madina Arabi Madrassa o Masjid,Mosque,"MW5W+46M Al-Madina Arabi Madrassa o Masjid, Sunil Nagar, Solapur, Maharashtra 413006",Sunil Nagar,MW5W+46M,Solapur,413006,Maharashtra,IN,https://www.google.com/maps/place/Al-Madina+Arabi+Madrassa+o+Masjid/data=!4m7!3m6!1s0x3bc5da4abaa31603:0xcd12de7de3da0a08!8m2!3d17.6578259!4d75.9455586!16s%2Fg%2F11c61qxjxf!19sChIJAxajukraxTsRCAra433eEs0?authuser=0&hl=en&rclk=1,"17.6578259,75.9455586"
Al-Imamul Raza Masjid,Mosque,"Al-Imamul Raza Masjid, 4, Siddheshwar Nagar, Solapur, Maharashtra 413224",Siddheshwar Nagar,4,Solapur,413224,Maharashtra,IN,https://www.google.com/maps/place/Al-Imamul+Raza+Masjid/data=!4m7!3m6!1s0x3bc5da23d7a23ba5:0x7fa1a9fce1571a6c!8m2!3d17.6384427!4d75.9265502!16s%2Fg%2F11ddx685nv!19sChIJpTui1yPaxTsRbBpX4fypoX8?authuser=0&hl=en&rclk=1,"17.6384427,75.9265502"
Ahle Hadees Masjid,Mosque,"Ahle Hadees Masjid, Indira Gandhi Stadium /Park Stadium, NH13, Sidheshwar Temple Area, Solapur, Maharashtra 413002",Sidheshwar Temple Area,"Indira Gandhi Stadium /Park Stadium, NH13",Solapur,413002,Maharashtra,IN,https://www.google.com/maps/place/Ahle+Hadees+Masjid/data=!4m7!3m6!1s0x3bc5da7f6726358f:0xeaee024ebcf7f9d0!8m2!3d17.6726412!4d75.9002045!16s%2Fg%2F11c3l6mft1!19sChIJjzUmZ3_axTsR0Pn3vE4C7uo?authuser=0&hl=en&rclk=1,"17.672641199999997,75.9002045"
Vazir Nagar Masjid,Mosque,"JWH2+6R8 Vazir Nagar Masjid, Vazir nagar, Maharashtra 413004","Bank Colony, Dnyaneshwar Nagar, Janki Nagar","JWH2+6R8, Vazir nagar",Solapur,413004,Maharashtra,IN,https://www.google.com/maps/place/Vazir+Nagar+Masjid/data=!4m7!3m6!1s0x3bc5d9ffad789cb7:0xd87bc3fad4156bbd!8m2!3d17.6280297!4d75.9020765!16s%2Fg%2F11g8lfv7rx!19sChIJt5x4rf_ZxTsRvWsV1PrDe9g?authuser=0&hl=en&rclk=1,"17.6280297,75.90207649999999"
Madina Munnawara Masjid,Mosque,"JXX2+GM4 Madina Munnawara Masjid, Vinayk Nagar, Solapur, Maharashtra 413006",Vinayk Nagar,JXX2+GM4,Solapur,413006,Maharashtra,IN,https://www.google.com/maps/place/Madina+Munnawara+Masjid/data=!4m7!3m6!1s0x3bc5dbcdd34fba55:0x44c3d68ef129ac3!8m2!3d17.6487573!4d75.951714!16s%2Fg%2F11c5_cfxx7!19sChIJVbpP083bxTsRw5oS72g9TAQ?authuser=0&hl=en&rclk=1,"17.6487573,75.951714"
Abu-Hanifa Masjid,Mosque,"JWRH+764 Abu-Hanifa Masjid, Shivaganga Nagar, Solapur, Maharashtra 413224",Shivaganga Nagar,JWRH+764,Solapur,413224,Maharashtra,IN,https://www.google.com/maps/place/Abu-Hanifa+Masjid/data=!4m7!3m6!1s0x3bc5da239abd77d5:0x36c49eebb4d1e21e!8m2!3d17.640634!4d75.9280915!16s%2Fg%2F11g01v68pp!19sChIJ1Xe9miPaxTsRHuLRtOuexDY?authuser=0&hl=en&rclk=1,"17.640634,75.9280915"
Usmanniya Masjid,Mosque,"MWQW+MJQ Usmanniya Masjid, Shri Ram Krishna Nagar, Rangraj Nagar, Solapur, Maharashtra 413002","Shri Ram Krishna Nagar, Rangraj Nagar",MWQW+MJQ,Solapur,413002,Maharashtra,IN,https://www.google.com/maps/place/Usmanniya+Masjid/data=!4m7!3m6!1s0x3bc5db02815cdd3f:0xe8b80a0a4537a805!8m2!3d17.6892169!4d75.9466192!16s%2Fg%2F1pyqsq1rf!19sChIJP91cgQLbxTsRBag3RQoKuOg?authuser=0&hl=en&rclk=1,"17.689216899999998,75.9466192"
Bismillah Masjid,Mosque,"MXM5+R4Q Bismillah Masjid, Saruwadi Nagar, Rangraj Nagar, Solapur, Maharashtra 413005","Saruwadi Nagar, Rangraj Nagar",MXM5+R4Q,Solapur,413005,Maharashtra,IN,https://www.google.com/maps/place/Bismillah+Masjid/data=!4m7!3m6!1s0x3bc5db16e0c6d549:0xdbc9c33e46ccfa5e!8m2!3d17.6845782!4d75.9578472!16s%2Fg%2F11g4lmw1cz!19sChIJSdXG4BbbxTsRXvrMRj7Dyds?authuser=0&hl=en&rclk=1,"17.6845782,75.9578472"
Salafiya Masjid (Maktab Zainuddin rahimahullah),Mosque,"Salafiya Masjid (Maktab Zainuddin rahimahullah), 73 A, Murarji Peth, Solapur, Maharashtra 413001",Murarji Peth,73 A,Solapur,413001,Maharashtra,IN,https://www.google.com/maps/place/Salafiya+Masjid+%28Maktab+Zainuddin+rahimahullah%29/data=!4m7!3m6!1s0x3bc5d124d906c9dd:0x14d679fe57141fbd!8m2!3d17.6726109!4d75.897616!16s%2Fg%2F11gyjscmbq!19sChIJ3ckG2STRxTsRvR8UV_551hQ?authuser=0&hl=en&rclk=1,"17.6726109,75.897616"
Abubakar Siddique Masjid,Mosque,"MW2G+WPF Abubakar Siddique Masjid, Markandey Nagar, Solapur, Maharashtra 413003",Markandey Nagar,MW2G+WPF,Solapur,413003,Maharashtra,IN,https://www.google.com/maps/place/Abubakar+Siddique+Masjid/data=!4m7!3m6!1s0x3bc5db00f996a941:0x3fbbd2c5c0e97e11!8m2!3d17.6523222!4d75.9267876!16s%2Fg%2F11h7kt2m_r!19sChIJQamW-QDbxTsREX7pwMXSuz8?authuser=0&hl=en&rclk=1,"17.6523222,75.9267876"
Alhasnath Masjid,Mosque,"Alhasnath Masjid, alhasnath masjid, Old Rangraj Nagar, Rangraj Nagar, Solapur, Maharashtra 413005","Old Rangraj Nagar, Rangraj Nagar",alhasnath masjid,Solapur,413005,Maharashtra,IN,https://www.google.com/maps/place/Alhasnath+Masjid/data=!4m7!3m6!1s0x3bc5dbc5a2c5aa8b:0x6a9b996919b68ae5!8m2!3d17.6804293!4d75.9330735!16s%2Fg%2F11gxrmlwcq!19sChIJi6rFosXbxTsR5Yq2GWmZm2o?authuser=0&hl=en&rclk=1,"17.6804293,75.93307349999999"
Taqwa Masjid,Mosque,"MWMQ+G7J Taqwa Masjid, New Rangraj Nagar, Rangraj Nagar, Solapur, Maharashtra 413005","New Rangraj Nagar, Rangraj Nagar",MWMQ+G7J,Solapur,413005,Maharashtra,IN,https://www.google.com/maps/place/Taqwa+Masjid/data=!4m7!3m6!1s0x3bc5daf90cf9488d:0xb9e4585b2659ca8b!8m2!3d17.68383!4d75.9381338!16s%2Fg%2F11c52mr9fx!19sChIJjUj5DPnaxTsRi8pZJltY5Lk?authuser=0&hl=en&rclk=1,"17.68383,75.9381338"
Masjid,Mosque,"JWPG+4HG Masjid, Raghvendra Nagar, Solapur, Maharashtra 413224",Raghvendra Nagar,JWPG+4HG,Solapur,413224,Maharashtra,IN,https://www.google.com/maps/place/Masjid/data=!4m7!3m6!1s0x3bc5da20fdea7683:0xa063d07cb5152438!8m2!3d17.6353129!4d75.9264639!16s%2Fg%2F11d_1s_js0!19sChIJg3bq_SDaxTsROCQVtXzQY6A?authuser=0&hl=en&rclk=1,"17.6353129,75.9264639"
nure daariyaa msjid,Mosque,"MWMJ+6QQ nure daariyaa msjid, Gharkul A Group, New Rangraj Nagar, Rangraj Nagar, Solapur, Maharashtra 413005","Gharkul A Group, New Rangraj Nagar, Rangraj Nagar",MWMJ+6QQ,Solapur,413005,Maharashtra,IN,https://www.google.com/maps/place/%E0%A4%A8%E0%A5%81%E0%A4%B0%E0%A5%87+%E0%A4%A6%E0%A4%BE%E0%A4%B0%E0%A4%BF%E0%A4%AF%E0%A4%BE+%E0%A4%AE%E0%A4%B8%E0%A5%8D%E0%A4%9C%E0%A4%BF%E0%A4%A6/data=!4m7!3m6!1s0x3bc5db0868d7b93f:0xd80393d8005c75a5!8m2!3d17.6830912!4d75.9319911!16s%2Fg%2F11flgdfk9d!19sChIJP7nXaAjbxTsRpXVcANiTA9g?authuser=0&hl=en&rclk=1,"17.6830912,75.93199109999999"
Hazrat Usmaniya Madarsa Masjid Trust,Mosque,"MW2H+X7C Hazrat Usmaniya Madarsa Masjid Trust, Nagendra Nagar, Shivaganga Nagar, Solapur, Maharashtra 413006","Nagendra Nagar, Shivaganga Nagar",MW2H+X7C,Solapur,413006,Maharashtra,IN,https://www.google.com/maps/place/Hazrat+Usmaniya+Madarsa+Masjid+Trust/data=!4m7!3m6!1s0x3bc5db1007c6463b:0x97e861d43b0421ee!8m2!3d17.6524404!4d75.9281501!16s%2Fg%2F11h3wwpqnh!19sChIJO0bGBxDbxTsR7iEEO9Rh6Jc?authuser=0&hl=en&rclk=1,"17.6524404,75.9281501"
Taqwa Masjid,Mosque,"JWVF+G35 Taqwa Masjid, Sainath Nagar, Solapur, Maharashtra 413224",Sainath Nagar,JWVF+G35,Solapur,413224,Maharashtra,IN,https://www.google.com/maps/place/Taqwa+Masjid/data=!4m7!3m6!1s0x3bc5da1801f0a759:0x791dbce53f31f612!8m2!3d17.6437721!4d75.9227263!16s%2Fg%2F11bztc8y82!19sChIJWafwARjaxTsREvYxP-W8HXk?authuser=0&hl=en&rclk=1,"17.6437721,75.9227263"
Mohammadia masjid,Mosque,"Mohammadia masjid, Hotgi Rd, kanhaiyya Nagar, Raghvendra Nagar, Solapur, Maharashtra 413003","kanhaiyya Nagar, Raghvendra Nagar","Mohammadia masjid, Hotgi Rd",Solapur,413003,Maharashtra,IN,https://www.google.com/maps/place/Mohammadia+masjid/data=!4m7!3m6!1s0x3bc5d9a4ced25b75:0x850187163ead4703!8m2!3d17.6311764!4d75.9215806!16s%2Fg%2F11r9wdbp2c!19sChIJdVvSzqTZxTsRA0etPhaHAYU?authuser=0&hl=en&rclk=1,"17.631176399999998,75.9215806"
Ishatul Imaan Masjid,Mosque,"JWPF+MQ5 Ishatul Imaan Masjid, Sahara Nagar, Anand Nagar, Solapur, Maharashtra 413224","Sahara Nagar, Anand Nagar",JWPF+MQ5,Solapur,413224,Maharashtra,IN,https://www.google.com/maps/place/Ishatul+Imaan+Masjid/data=!4m7!3m6!1s0x3bc5db7a80f85e79:0x4495b247a2d6ee93!8m2!3d17.6366329!4d75.9244813!16s%2Fg%2F11h1dghmyw!19sChIJeV74gHrbxTsRk-7WokeylUQ?authuser=0&hl=en&rclk=1,"17.6366329,75.9244813"
Moti Mahal (Ahle Hadees) Masjid,Mosque,"Moti Mahal (Ahle Hadees) Masjid, Sainath Nagar, Solapur, Maharashtra 413224",Sainath Nagar,,Solapur,413224,Maharashtra,IN,https://www.google.com/maps/place/Moti+Mahal+%28Ahle+Hadees%29+Masjid/data=!4m7!3m6!1s0x3bc5db08335e8465:0xb14cab96f4d5cc73!8m2!3d17.6452695!4d75.9243368!16s%2Fg%2F11h9g2q9fk!19sChIJZYReMwjbxTsRc8zV9JarTLE?authuser=0&hl=en&rclk=1,"17.645269499999998,75.92433679999999"
Head Quarter Masjid,Mosque,"MW88+3XV Head Quarter Masjid, Kumta Naka, Solapur, Maharashtra 413003",Kumta Naka,MW88+3XV,Solapur,413003,Maharashtra,IN,https://www.google.com/maps/place/Head+Quarter+Masjid/data=!4m7!3m6!1s0x3bc5da6f4ac2d62b:0x4deff43c86162f09!8m2!3d17.6652256!4d75.9174076!16s%2Fg%2F1pyqmdp46!19sChIJK9bCSm_axTsRCS8Whjz0700?authuser=0&hl=en&rclk=1,"17.6652256,75.91740759999999"
Badar Masjid,Mosque,"MWM9+QPW Badar Masjid, Bhavani Peth, Solapur, Maharashtra 413002",Bhavani Peth,MWM9+QPW,Solapur,413002,Maharashtra,IN,https://www.google.com/maps/place/Badar+Masjid/data=!4m7!3m6!1s0x3bc5da8c70dec2b3:0x2cae6ec430d86935!8m2!3d17.6844891!4d75.9193152!16s%2Fg%2F11f26mzkhl!19sChIJs8LecIzaxTsRNWnYMMRuriw?authuser=0&hl=en&rclk=1,"17.6844891,75.9193152"
Noor-E-Jamaal Masjid & Madarsa,Mosque,"JVRR+CCQ Noor-E-Jamaal Masjid & Madarsa, Amrut Nagar, Solapur, Maharashtra 413004",Amrut Nagar,JVRR+CCQ,Solapur,413004,Maharashtra,IN,https://www.google.com/maps/place/Noor-E-Jamaal+Masjid+%26+Madarsa/data=!4m7!3m6!1s0x3bc5d156a93af97b:0xb76367a745cb2ce1!8m2!3d17.6410934!4d75.8911135!16s%2Fg%2F11f631b_ms!19sChIJe_k6qVbRxTsR4SzLRadnY7c?authuser=0&hl=en&rclk=1,"17.6410934,75.8911135"
Asriya masjid Solapur,Mosque,"MV2R+6Q7 Asriya masjid Solapur, Bhushan Nagar, Solapur, Maharashtra 413004",Bhushan Nagar,MV2R+6Q7,Solapur,413004,Maharashtra,IN,https://www.google.com/maps/place/Asriya+masjid+Solapur/data=!4m7!3m6!1s0x3bc5d11492ae9675:0x1e2a67cbc601b387!8m2!3d17.6505414!4d75.8919068!16s%2Fg%2F11hyz633dm!19sChIJdZaukhTRxTsRh7MBxstnKh4?authuser=0&hl=en&rclk=1,"17.650541399999998,75.8919068"
Phaltan Masjid,Mosque,"MW46+WJV Phaltan Masjid, Jawaharlal Housing Society, Keshav Nagra, Solapur, Maharashtra 413003","Jawaharlal Housing Society, Keshav Nagra",MW46+WJV,Solapur,413003,Maharashtra,IN,https://www.google.com/maps/place/Phaltan+Masjid/data=!4m7!3m6!1s0x3bc5db129d96ba8b:0xf2f681de9b2b7576!8m2!3d17.6573559!4d75.911532!16s%2Fg%2F11rd4n4q3t!19sChIJi7qWnRLbxTsRdnUrm96B9vI?authuser=0&hl=en&rclk=1,"17.6573559,75.911532"
Hamza Masjid,Mosque,"MW59+PHH Hamza Masjid, Bapuji Nagar, Jawaharlal Housing Society, Solapur, Maharashtra 413006","Bapuji Nagar, Jawaharlal Housing Society",MW59+PHH,Solapur,,Maharashtra,IN,https://www.google.com/maps/place/Hamza+Masjid/data=!4m7!3m6!1s0x3bc5db05b5231861:0x4145aa4487f1edb2!8m2!3d17.6593173!4d75.9189887!16s%2Fg%2F11t5223qyf!19sChIJYRgjtQXbxTsRsu3xh0SqRUE?authuser=0&hl=en&rclk=1,"17.659317299999998,75.9189887"
Masjid E Tuba,Mosque,"Masjid E Tuba, JVWP+33P, mera bharat mahan nagar society, Unnamed Road, Aditya Nagar, Solapur, Maharashtra 413004",Aditya Nagar,"JVWP+33P, mera bharat mahan nagar society, Unnamed Road",Solapur,413004,Maharashtra,IN,https://www.google.com/maps/place/Masjid+E+Tuba/data=!4m7!3m6!1s0x3bc5d139ce95e3c7:0x935bedbc6148c414!8m2!3d17.6452125!4d75.8852031!16s%2Fg%2F11q2yphmqf!19sChIJx-OVzjnRxTsRFMRIYbztW5M?authuser=0&hl=en&rclk=1,"17.6452125,75.8852031"
Millat Masjid,Mosque,"#257, Millat Masjid, Opposite, Jail Rd, Muslim Pachha Peth, Shaniwar Peth, Solapur, Maharashtra 413002","Muslim Pachha Peth, Shaniwar Peth","#257, Opposite, Jail Rd",Solapur,413002,Maharashtra,IN,https://www.google.com/maps/place/Millat+Masjid/data=!4m7!3m6!1s0x3bc5db5925608659:0xb552492800d1b357!8m2!3d17.6710127!4d75.9125072!16s%2Fg%2F11qrckgr0g!19sChIJWYZgJVnbxTsRV7PRAChJUrU?authuser=0&hl=en&rclk=1,"17.6710127,75.9125072"
Ambiya Masjid,Mosque,"JWRF+6H Ambiya Masjid, Anand Nagar, Solapur, Maharashtra 413224",Anand Nagar,JWRF+6H,Solapur,413224,Maharashtra,IN,https://www.google.com/maps/place/Ambiya+Masjid/data=!4m7!3m6!1s0x3bc5dbfca191beb3:0x55a2e8fee1712951!8m2!3d17.6403621!4d75.9238435!16s%2Fg%2F11pyxhj7y8!19sChIJs76RofzbxTsRUSlx4f7oolU?authuser=0&hl=en&rclk=1,"17.6403621,75.92384349999999"
Al-Quba Masjid (Mantri Chandak),Mosque,"JWQC+738 Al-Quba Masjid (Mantri Chandak), Vasudhach-Vrindavan House, surwase mitranagr, mantri chandak estate, Anand Nagar, Solapur, Maharashtra 413224",Anand Nagar,"JWQC+738, Vasudhach-Vrindavan House, surwase mitranagr, mantri chandak estate",Solapur,413224,Maharashtra,IN,https://www.google.com/maps/place/Al-Quba+Masjid+%28Mantri+Chandak%29/data=!4m7!3m6!1s0x3bc5db9233834f17:0x3bdd525fd3522641!8m2!3d17.6381578!4d75.9202024!16s%2Fg%2F11m0tsmcy1!19sChIJF0-DM5LbxTsRQSZS019S3Ts?authuser=0&hl=en&rclk=1,"17.6381578,75.9202024"
Baag-a-madina Masjid,Mosque,"Baag-a-madina Masjid, 17, Shastri Nagar, Jawaharlal Housing Society, Keshav Nagra, Solapur, Maharashtra 413006","Shastri Nagar, Jawaharlal Housing Society, Keshav Nagra",17,Solapur,,Maharashtra,IN,https://www.google.com/maps/place/Baag-a-madina+Masjid/data=!4m7!3m6!1s0x3bc5db18b810b735:0x1c132db5ca11f65c!8m2!3d17.6583318!4d75.9183869!16s%2Fg%2F11fljjrhh5!19sChIJNbcQuBjbxTsRXPYRyrUtExw?authuser=0&hl=en&rclk=1,"17.6583318,75.9183869"
Noor E Madina Masjid,Mosque,"MXG2+8QV Noor E Madina Masjid, Unnamed Road, Telngi pachha peth, Solapur, Maharashtra 413005",Telngi pachha peth,"MXG2+8QV, Unnamed Road",Solapur,413005,Maharashtra,IN,https://www.google.com/maps/place/Noor+E+Madina+Masjid/data=!4m7!3m6!1s0x3bc5dba5220b3ef1:0x29db5ae5e79c8d9f!8m2!3d17.6758725!4d75.9519259!16s%2Fg%2F11l0dkm76g!19sChIJ8T4LIqXbxTsRn42c5-Va2yk?authuser=0&hl=en&rclk=1,"17.6758725,75.95192589999999"
Masjid Ghousiya Trust,Mosque,"MWGF+535 Masjid Ghousiya Trust, Gandhi Nagar, Rangraj Nagar, Solapur, Maharashtra 413005","Gandhi Nagar, Rangraj Nagar",MWGF+535,Solapur,413005,Maharashtra,IN,https://www.google.com/maps/place/Masjid+Ghousiya+Trust/data=!4m7!3m6!1s0x3bc5dba9bc99d16b:0xb88962cf8684c48b!8m2!3d17.6753914!4d75.9227224!16s%2Fg%2F11l9d9ffbs!19sChIJa9GZvKnbxTsRi8SEhs9iibg?authuser=0&hl=en&rclk=1,"17.6753914,75.9227224"
Raheem Baba Ansari Masjid,Mosque,"MW98+Q3R Raheem Baba Ansari Masjid, Muslim Pachha Peth, Sidheshwar Peth, Solapur, Maharashtra 413001","Muslim Pachha Peth, Sidheshwar Peth",MW98+Q3R,Solapur,413001,Maharashtra,IN,https://www.google.com/maps/place/Raheem+Baba+Ansari+Masjid/data=!4m7!3m6!1s0x3bc5da644d854069:0xf8a306faf92ee8d2!8m2!3d17.6694965!4d75.9151484!16s%2Fg%2F11f2rrs302!19sChIJaUCFTWTaxTsR0ugu-foGo_g?authuser=0&hl=en&rclk=1,"17.669496499999997,75.91514839999999"
Masjid,Mosque,"JVVJ+65M Masjid, Rajaswa Nagar, Solapur, Maharashtra 413002",Rajaswa Nagar,JVVJ+65M,Solapur,413002,Maharashtra,IN,https://www.google.com/maps/place/Masjid/data=!4m7!3m6!1s0x3bc5d1154135464f:0x6a63c11a7f476075!8m2!3d17.6432415!4d75.8809235!16s%2Fg%2F11t7m3lkrk!19sChIJT0Y1QRXRxTsRdWBHfxrBY2o?authuser=0&hl=en&rclk=1,"17.6432415,75.8809235"
Beriya Masjid,Mosque,"MWG7+J2V Beriya Masjid, Ganesh Peth, Shaniwar Peth, Solapur, Maharashtra 413002","Ganesh Peth, Shaniwar Peth",MWG7+J2V,Solapur,413002,Maharashtra,IN,https://www.google.com/maps/place/Beriya+Masjid/data=!4m7!3m6!1s0x3bc5dbf9221fd197:0x7c707aad3b0d6f03!8m2!3d17.676623!4d75.912556!16s%2Fg%2F11t0p_h23r!19sChIJl9EfIvnbxTsRA28NO616cHw?authuser=0&hl=en&rclk=1,"17.676623,75.912556"
Qureshi Masjid,Mosque,"MW56+8R6 Qureshi Masjid, Jawaharlal Housing Society, Lashkar, Solapur, Maharashtra 413003","Jawaharlal Housing Society, Lashkar",MW56+8R6,Solapur,413003,Maharashtra,IN,https://www.google.com/maps/place/Qureshi+Masjid/data=!4m7!3m6!1s0x3bc5dbbdacbaf327:0x18f1387344fb8cbc!8m2!3d17.6582854!4d75.9120117!16s%2Fg%2F11hzm1h3ml!19sChIJJ_O6rL3bxTsRvIz7RHM48Rg?authuser=0&hl=en&rclk=1,"17.6582854,75.9120117"
Al Kausar Masjid,Mosque,"MWMX+WXG Al Kausar Masjid, Saruwadi Nagar, Rangraj Nagar, Solapur, Maharashtra 413005","Saruwadi Nagar, Rangraj Nagar",MWMX+WXG,Solapur,413005,Maharashtra,IN,https://www.google.com/maps/place/Al+Kausar+Masjid/data=!4m7!3m6!1s0x3bc5dbf39a17f4e1:0x45a8e6095b16d105!8m2!3d17.684824!4d75.9499681!16s%2Fg%2F11h6slp3v7!19sChIJ4fQXmvPbxTsRBdEWWwnmqEU?authuser=0&hl=en&rclk=1,"17.684824,75.94996809999999"
Jamma vasti masjid,Mosque,"MWP4+53R Jamma vasti masjid, Mangalwar Peth, Solapur, Maharashtra 413002",Mangalwar Peth,MWP4+53R,Solapur,413002,Maharashtra,IN,https://www.google.com/maps/place/Jamma+vasti+masjid/data=!4m7!3m6!1s0x3bc5db59fcd45ff1:0x9d89c35008c13d78!8m2!3d17.6854898!4d75.9051355!16s%2Fg%2F11kj70bc4x!19sChIJ8V_U_FnbxTsReD3BCFDDiZ0?authuser=0&hl=en&rclk=1,"17.6854898,75.9051355"
Old Jama Masjid Shelgi,Mosque,"MWVF+RXX Old Jama Masjid Shelgi, Vidya Nagar Shelgi, Kumar Swamy Nagar, Solapur, Maharashtra 413002","Vidya Nagar Shelgi, Kumar Swamy Nagar",MWVF+RXX,Solapur,413002,Maharashtra,IN,https://www.google.com/maps/place/Old+Jama+Masjid+Shelgi/data=!4m7!3m6!1s0x3bc5dbbad7157f8d:0x4e92ee1a5114f4ea!8m2!3d17.694618!4d75.9249878!16s%2Fg%2F11qnkk7871!19sChIJjX8V17rbxTsR6vQUURrukk4?authuser=0&hl=en&rclk=1,"17.694618,75.9249878"
Noorani Masjid,Mosque,"MV5R+VQ2 Noorani Masjid, Ramwadi, Solapur, Maharashtra 413004",Ramwadi,MV5R+VQ2,Solapur,413004,Maharashtra,IN,https://www.google.com/maps/place/Noorani+Masjid/data=!4m7!3m6!1s0x3bc5d1c68b25ab23:0xf055e4f3f655192a!8m2!3d17.6596441!4d75.8918811!16s%2Fg%2F11s4y5424l!19sChIJI6sli8bRxTsRKhlV9vPkVfA?authuser=0&hl=en&rclk=1,"17.659644099999998,75.89188109999999"
Begambi Masjid,Mosque,"MWF5+9PR Begambi Masjid, Shaniwar Peth, Solapur, Maharashtra 413001",Shaniwar Peth,MWF5+9PR,Solapur,413001,Maharashtra,IN,https://www.google.com/maps/place/Begambi+Masjid/data=!4m7!3m6!1s0x3bc5db93e63f30a3:0xf2ab111f7346c357!8m2!3d17.673476!4d75.9092745!16s%2Fg%2F11rjtdqzxw!19sChIJozA_5pPbxTsRV8NGcx8Rq_I?authuser=0&hl=en&rclk=1,"17.673476,75.9092745"
Masjid Asariya Ahle Hadees,Mosque,"MV2V+H6X Masjid Asariya Ahle Hadees, Bhushan Nagar, Solapur, Maharashtra 413004",Bhushan Nagar,MV2V+H6X,Solapur,413004,Maharashtra,IN,https://www.google.com/maps/place/Masjid+Asariya+Ahle+Hadees/data=!4m7!3m6!1s0x3bc5d1d5dd0f3e35:0xf92db486cbd8a241!8m2!3d17.6514823!4d75.893094!16s%2Fg%2F11rhrgglr_!19sChIJNT4P3dXRxTsRQaLYy4a0Lfk?authuser=0&hl=en&rclk=1,"17.651482299999998,75.89309399999999"
APMC Yard Jama Masjid,Mosque,"MWJH+FG8 APMC Yard Jama Masjid, Old Rangraj Nagar, Rangraj Nagar, Solapur, Maharashtra 413005","Old Rangraj Nagar, Rangraj Nagar",MWJH+FG8,Solapur,413005,Maharashtra,IN,https://www.google.com/maps/place/APMC+Yard+Jama+Masjid/data=!4m7!3m6!1s0x3bc5dbfac6d76265:0x1fd6641979c924f3!8m2!3d17.6811539!4d75.9288416!16s%2Fg%2F11qydxntsb!19sChIJZWLXxvrbxTsR8yTJeRlk1h8?authuser=0&hl=en&rclk=1,"17.681153899999998,75.9288416"
Mohammadiya Masjid,Mosque,"JVJR+5QF Mohammadiya Masjid, Mashale Nagar, Namrata Nagar Society, Solapur, Maharashtra 413008","Mashale Nagar, Namrata Nagar Society",JVJR+5QF,Solapur,,Maharashtra,IN,https://www.google.com/maps/place/Mohammadiya+Masjid/data=!4m7!3m6!1s0x3bc5d1172ae3c401:0xbeeb923ce6239fbd!8m2!3d17.6304287!4d75.8919195!16s%2Fg%2F11r49khf91!19sChIJAcTjKhfRxTsRvZ8j5jyS674?authuser=0&hl=en&rclk=1,"17.6304287,75.8919195"
Qadriya Masjid,Mosque,"MWG4+7CC Qadriya Masjid, Shinde Wada, Budhavar Peth, Solapur, Maharashtra 413001","Shinde Wada, Budhavar Peth",MWG4+7CC,Solapur,413001,Maharashtra,IN,https://www.google.com/maps/place/Qadriya+Masjid/data=!4m7!3m6!1s0x3bc5db84a179750d:0xd9feee1c6e00d59!8m2!3d17.6756934!4d75.9060195!16s%2Fg%2F11sfh9wzmt!19sChIJDXV5oYTbxTsRWQ3gxuHunw0?authuser=0&hl=en&rclk=1,"17.6756934,75.9060195"
Usmaniya Masjid,Mosque,"JVXV+R8R Usmaniya Masjid, Sanjay Gandhi Nagar Rd, Bhushan Nagar, Solapur, Maharashtra 413004",Bhushan Nagar,"JVXV+R8R, Sanjay Gandhi Nagar Rd",Solapur,413004,Maharashtra,IN,https://www.google.com/maps/place/Usmaniya+Masjid/data=!4m7!3m6!1s0x3bc5d145e5bc2361:0x15fc80028d1b08c7!8m2!3d17.6496136!4d75.8932529!16s%2Fg%2F11t_jrgqxs!19sChIJYSO85UXRxTsRxwgbjQKA_BU?authuser=0&hl=en&rclk=1,"17.6496136,75.8932529"
MASJID-E-AMENA O MADRASA,Mosque,"JXV8+X62 MASJID-E-AMENA O MADRASA, Solapur, Maharashtra 413006",,JXV8+X62,Solapur,,Maharashtra,IN,https://www.google.com/maps/place/MASJID-E-AMENA+O+MADRASA/data=!4m7!3m6!1s0x3bc5dbf59f4ae751:0x113d2e8b4ee80c8e!8m2!3d17.644882!4d75.9655032!16s%2Fg%2F11mtjwf54g!19sChIJUedKn_XbxTsRjgzoTosuPRE?authuser=0&hl=en&rclk=1,"17.644882,75.9655032"
Muhammadiya Masjid,Mosque,"MW55+M7P Muhammadiya Masjid, S Sadar Bazar, South Sadar Bazar, Jawaharlal Housing Society, Keshav Nagra, Solapur, Maharashtra 413007","South Sadar Bazar, Jawaharlal Housing Society, Keshav Nagra","MW55+M7P, S Sadar Bazar",Solapur,413007,Maharashtra,IN,https://www.google.com/maps/place/Muhammadiya+Masjid/data=!4m7!3m6!1s0x3bc5db6297d866e1:0x90d606d1ad2745d4!8m2!3d17.659208!4d75.9082051!16s%2Fg%2F11sgvxf2mc!19sChIJ4WbYl2LbxTsR1EUnrdEG1pA?authuser=0&hl=en&rclk=1,"17.659208,75.9082051"
Old Dahitane Masjid,Mosque,"MWXX+X2X Old Dahitane Masjid, Shri Ram Krishna Nagar, Rangraj Nagar, Solapur, Maharashtra 413002","Shri Ram Krishna Nagar, Rangraj Nagar",MWXX+X2X,Solapur,413002,Maharashtra,IN,https://www.google.com/maps/place/Old+Dahitane+Masjid/data=!4m7!3m6!1s0x3bc5db5f4afa83eb:0xc405a42d99db9873!8m2!3d17.6999811!4d75.9476094!16s%2Fg%2F11n03bvhl0!19sChIJ64P6Sl_bxTsRc5jbmS2kBcQ?authuser=0&hl=en&rclk=1,"17.6999811,75.94760939999999"
Bismillah masjid,Mosque,"Bismillah masjid, 165, Civil Hospital Rd, Rahul Gandhi Zopadpatti, Muslim Panch Peth, Solapur, Maharashtra 413001",Muslim Panch Peth,"165, Civil Hospital Rd, Rahul Gandhi Zopadpatti",Solapur,413001,Maharashtra,IN,https://www.google.com/maps/place/Bismillah+masjid/data=!4m7!3m6!1s0x3bc5db4367e3ee65:0x2ed55845015ef50c!8m2!3d17.6677131!4d75.9141135!16s%2Fg%2F11l2csgkyr!19sChIJZe7jZ0PbxTsRDPVeAUVY1S4?authuser=0&hl=en&rclk=1,"17.6677131,75.9141135"
Fatima (R.A) masjid,Mosque,"MW58+QHP Fatima (R.A) masjid, Jawaharlal Housing Society, Keshav Nagra, Solapur, Maharashtra 413006","Jawaharlal Housing Society, Keshav Nagra",MW58+QHP,Solapur,413006,Maharashtra,IN,https://www.google.com/maps/place/Fatima+%28R.A%29+masjid/data=!4m7!3m6!1s0x3bc5dbf8be03cd6f:0x667cab008a7bb28d!8m2!3d17.6594541!4d75.916451!16s%2Fg%2F11ts9hs7xg!19sChIJb80DvvjbxTsRjbJ7igCrfGY?authuser=0&hl=en&rclk=1,"17.659454099999998,75.916451"
