name,main_category,address,address_ward,address_street,address_city,address_postal_code,address_state,address_country_code,link,coordinates
Masjid-E-Taneem,Mosque,"MG8P+GJ2 Masjid-E-Taneem, Shanti Nagar, Adilabad, Telangana 504001",Shanti Nagar,MG8P+GJ2,Adilabad,504001,Telangana,IN,https://www.google.com/maps/place/Masjid-E-Taneem/data=!4m7!3m6!1s0x3bd25c7196951817:0xe1695f659d337d7!8m2!3d19.6662707!4d78.5365283!16s%2Fg%2F11c52zx1f3!19sChIJFxiVlnFc0jsR1zfTWfaVFg4?authuser=0&hl=en&rclk=1,"19.6662707,78.5365283"
Madina Masjid,Mosque,"Madina Masjid, Government Junior College, Bhainsa, Telangana 504103",,Government Junior College,Bhainsa,504103,Telangana,IN,https://www.google.com/maps/place/Madina+Masjid/data=!4m7!3m6!1s0x3bcdfe5aef2fd1e3:0x48c8397dc97ab0f6!8m2!3d19.1096769!4d77.9643594!16s%2Fg%2F11b7w99d4p!19sChIJ49Ev71r-zTsR9rB6yX05yEg?authuser=0&hl=en&rclk=1,"19.1096769,77.96435939999999"
Masjid Panjesha,Mosque,"Masjid Panjesha, masjid, panjesha marg, Bhainsa, Telangana 504103",,"masjid, panjesha marg",Bhainsa,,Telangana,IN,https://www.google.com/maps/place/Masjid+Panjesha/data=!4m7!3m6!1s0x3bcdfe45594b318b:0xa9a4527a0d3bdd4e!8m2!3d19.1114013!4d77.9614446!16s%2Fg%2F11xfvxc4m!19sChIJizFLWUX-zTsRTt07DXpSpKk?authuser=0&hl=en&rclk=1,"19.1114013,77.9614446"
Masjid_E_Quba,Mosque,"Masjid_E_Quba, 2-5-216, beside Masjid E Quba Khila, Mohalla Badh, Adilabad, Telangana 504001",Mohalla Badh,"2-5-216, beside Masjid E Quba Khila",Adilabad,504001,Telangana,IN,https://www.google.com/maps/place/Masjid_E_Quba/data=!4m7!3m6!1s0x3bd25bedeaaaaaab:0xe29f9a411d92289b!8m2!3d19.6793188!4d78.5406475!16s%2Fg%2F11bwkvtnj8!19sChIJq6qq6u1b0jsRmyiSHUGan-I?authuser=0&hl=en&rclk=1,"19.6793188,78.54064749999999"
Masjid-e-Meraj,Mosque,"Masjid-e-Meraj, Police lane, Sanjay Nagar, Adilabad, Bhattisavargaon, Telangana 504001",Sanjay Nagar,Police lane,"Adilabad, Bhattisavargaon",504001,Telangana,IN,https://www.google.com/maps/place/Masjid-e-Meraj/data=!4m7!3m6!1s0x3bd25c80a40634d7:0x99b706696d47a613!8m2!3d19.6674917!4d78.5163997!16s%2Fg%2F1tr7b846!19sChIJ1zQGpIBc0jsRE6ZHbWkGt5k?authuser=0&hl=en&rclk=1,"19.6674917,78.5163997"
Masjid E Abubaker,Mosque,"MG8V+54F Masjid E Abubaker, Shanti Nagar, Adilabad, Telangana 504001",Shanti Nagar,MG8V+54F,Adilabad,504001,Telangana,IN,https://www.google.com/maps/place/Masjid+E+Abubaker/data=!4m7!3m6!1s0x3bd25c72afd994d1:0x55e84f035f33b282!8m2!3d19.6654385!4d78.542794!16s%2Fg%2F11c1wsmygw!19sChIJ0ZTZr3Jc0jsRgrIzXwNP6FU?authuser=0&hl=en&rclk=1,"19.6654385,78.542794"
Eid-Gah,Mosque,"4XC4+J65 Eid-Gah, Palsi Road, Telangana 504103",,"4XC4+J65, Palsi Road",,504103,Telangana,IN,https://www.google.com/maps/place/Eid-Gah/data=!4m7!3m6!1s0x3bcdfe4b41f2b35b:0x49272df21ed88662!8m2!3d19.1215231!4d77.9556209!16s%2Fg%2F11b7lhbkzd!19sChIJW7PyQUv-zTsRYobYHvItJ0k?authuser=0&hl=en&rclk=1,"19.121523099999997,77.9556209"
Masjid-e-Umar Farooq,Mosque,"4X79+M2F Masjid-e-Umar Farooq, Umar Farooq St, Abadi, Bhainsa, Telangana 504103",Abadi,"4X79+M2F, Umar Farooq St",Bhainsa,504103,Telangana,IN,https://www.google.com/maps/place/Masjid-e-Umar+Farooq/data=!4m7!3m6!1s0x3bcdfe50d026f4b3:0x9d2df10fc48b7b47!8m2!3d19.1141962!4d77.9675498!16s%2Fg%2F11c1s1_b43!19sChIJs_Qm0FD-zTsRR3uLxA_xLZ0?authuser=0&hl=en&rclk=1,"19.1141962,77.9675498"
Madina Masjid mdynh msjd,Mosque,"MGCJ+GX8 Madina Masjid mdynh msjd, Netaji Chowk Rd, Ponnar, Bhuktapur, Telangana 504001",Ponnar,"MGCJ+GX8, Netaji Chowk Rd",Bhuktapur,504001,Telangana,IN,https://www.google.com/maps/place/Madina+Masjid+%D9%85%D8%AF%DB%8C%D9%86%DB%81+%D9%85%D8%B3%D8%AC%D8%AF%E2%80%AD/data=!4m7!3m6!1s0x3bd25c7742dd0b05:0xf2fb259a889bfa78!8m2!3d19.6712846!4d78.5324561!16s%2Fg%2F11fzzxxq7l!19sChIJBQvdQndc0jsRePqbiJol-_I?authuser=0&hl=en&rclk=1,"19.6712846,78.53245609999999"
Muhammadiya Masjid,Mosque,"MG29+X76 Muhammadiya Masjid, Ramnagar Colony, Adilabad, Telangana 504001",Ramnagar Colony,MG29+X76,Adilabad,504001,Telangana,IN,https://www.google.com/maps/place/Muhammadiya+Masjid/data=!4m7!3m6!1s0x3bd25c8ad95e1f51:0xc9001b8ca6d7fd64!8m2!3d19.6524043!4d78.5181462!16s%2Fg%2F11cn7qqr7d!19sChIJUR9e2Ypc0jsRZP3XpowbAMk?authuser=0&hl=en&rclk=1,"19.6524043,78.51814619999999"
MASJID-E-MOMINAN,Mosque,"4X76+4V9 MASJID-E-MOMINAN, mominan Galli, Siddhartha Nagar, Bhainsa, Telangana 504103",Siddhartha Nagar,"4X76+4V9, mominan Galli",Bhainsa,504103,Telangana,IN,https://www.google.com/maps/place/MASJID-E-MOMINAN/data=!4m7!3m6!1s0x3bcdfe4fe1772615:0x1ea8449dd9031e42!8m2!3d19.1127883!4d77.9622459!16s%2Fg%2F11bymwdg7g!19sChIJFSZ34U_-zTsRQh4D2Z1EqB4?authuser=0&hl=en&rclk=1,"19.1127883,77.9622459"
Abubakr masjid,Mosque,"MG8R+J7F Abubakr masjid, Shanti Nagar, Adilabad, Telangana 504001",Shanti Nagar,MG8R+J7F,Adilabad,504001,Telangana,IN,https://www.google.com/maps/place/Abubakr+masjid/data=!4m7!3m6!1s0x3bd25c72f6f46bc9:0xcd16458f413f5d2e!8m2!3d19.6665675!4d78.5406681!16s%2Fg%2F11c607nzf4!19sChIJyWv09nJc0jsRLl0_QY9FFs0?authuser=0&hl=en&rclk=1,"19.6665675,78.54066809999999"
Jama Masjid Yamcha,Mosque,"VX58+7CH Jama Masjid Yamcha, Yamcha, Mittapur, Telangana 503245",,VX58+7CH,"Yamcha, Mittapur",503245,Telangana,IN,https://www.google.com/maps/place/Jama+Masjid+Yamcha/data=!4m7!3m6!1s0x3bcde1a5c1d9f90b:0x34db0c2cbc7dd913!8m2!3d18.8581768!4d77.9660989!16s%2Fg%2F11c6ffz46t!19sChIJC_nZwaXhzTsRE9l9vCwM2zQ?authuser=0&hl=en&rclk=1,"18.8581768,77.96609889999999"
MASJID-E-Bilal,Mosque,"MGHQ+H25 MASJID-E-Bilal, Adilabad - Nagpur Rd, Panjesha, Adilabad, Telangana 504001",Panjesha,"MGHQ+H25, Adilabad - Nagpur Rd",Adilabad,504001,Telangana,IN,https://www.google.com/maps/place/MASJID-E-Bilal/data=!4m7!3m6!1s0x3bd25b89846e6659:0x31ee36077b20474f!8m2!3d19.6788851!4d78.5375982!16s%2Fg%2F11gclzc6pn!19sChIJWWZuhIlb0jsRT0cgewc27jE?authuser=0&hl=en&rclk=1,"19.6788851,78.53759819999999"
Jama Masjid,Mosque,"4X76+PG6 Jama Masjid, Bhainsa, Telangana 504103",,4X76+PG6,Bhainsa,504103,Telangana,IN,https://www.google.com/maps/place/Jama+Masjid/data=!4m7!3m6!1s0x3bcdfe4fcb6d4d3b:0x5b221d8cd9bf7450!8m2!3d19.1142804!4d77.961278!16s%2Fg%2F11by_ln6gj!19sChIJO01ty0_-zTsRUHS_2YwdIls?authuser=0&hl=en&rclk=1,"19.1142804,77.961278"
Masjid Abdul Rasheed,Mosque,"RV6Q+3W3 Masjid Abdul Rasheed, Kandakurthi, Telangana 503235",,RV6Q+3W3,Kandakurthi,503235,Telangana,IN,https://www.google.com/maps/place/Masjid+Abdul+Rasheed/data=!4m7!3m6!1s0x3bce0adc6a597ea7:0xdedf1b9de6309363!8m2!3d18.8101262!4d77.8898032!16s%2Fg%2F11c2r7qzmf!19sChIJp35ZatwKzjsRY5Mw5p0b394?authuser=0&hl=en&rclk=1,"18.8101262,77.8898032"
MASJID E MAHEBOOB E SUBHANI ( Markaz e Ahle Sunnat ),Mosque,"MASJID E MAHEBOOB E SUBHANI ( Markaz e Ahle Sunnat ), Sanjay Nagar, Adilabad, Telangana 504001",Sanjay Nagar,,Adilabad,504001,Telangana,IN,https://www.google.com/maps/place/MASJID+E+MAHEBOOB+E+SUBHANI+%28+Markaz+e+Ahle+Sunnat+%29/data=!4m7!3m6!1s0x3bd25c7cd0000001:0xe56e990e56fe962c!8m2!3d19.6669356!4d78.5213162!16s%2Fg%2F11c2kk77hk!19sChIJAQAA0Hxc0jsRLJb-Vg6ZbuU?authuser=0&hl=en&rclk=1,"19.6669356,78.5213162"
"Masjid E Ibrahim, Barktpura",Mosque,"V5G2+6GW Masjid E Ibrahim, Barktpura, Nandipet, Telangana 503212",,V5G2+6GW,Nandipet,503212,Telangana,IN,"https://www.google.com/maps/place/Masjid+E+Ibrahim,+Barktpura/data=!4m7!3m6!1s0x3bcde8e0d7a7ca29:0x90e848f7ab731261!8m2!3d18.8756018!4d78.1513263!16s%2Fg%2F11c3117pqk!19sChIJKcqn1-DozTsRYRJzq_dI6JA?authuser=0&hl=en&rclk=1","18.8756018,78.1513263"
ILAHIYA MASJID,Mosque,"MGMH+97P ILAHIYA MASJID, Indira Nagar Rd, Bhagya Nagar, Adilabad, Telangana 504001",Bhagya Nagar,"MGMH+97P, Indira Nagar Rd",Adilabad,504001,Telangana,IN,https://www.google.com/maps/place/ILAHIYA+MASJID/data=!4m7!3m6!1s0x3bd25b8444ebd13f:0xe27cf6a1114241d4!8m2!3d19.6834654!4d78.5282048!16s%2Fg%2F11fzfhsmc2!19sChIJP9HrRIRb0jsR1EFCEaH2fOI?authuser=0&hl=en&rclk=1,"19.6834654,78.5282048"
EK MINAR MASJID,Mosque,"4X58+8P8 EK MINAR MASJID, Asad Baba Nagar, Bhainsa, Telangana 504103",Asad Baba Nagar,4X58+8P8,Bhainsa,504103,Telangana,IN,https://www.google.com/maps/place/EK+MINAR+MASJID/data=!4m7!3m6!1s0x3bcdfe5bc8742e03:0x9e4aca298cc82934!8m2!3d19.1082968!4d77.9668355!16s%2Fg%2F11c1wjq5wm!19sChIJAy50yFv-zTsRNCnIjCnKSp4?authuser=0&hl=en&rclk=1,"19.108296799999998,77.9668355"
Osman Masjid,Mosque,"4X47+RJX Osman Masjid, Asad Baba Nagar, Bhainsa, Telangana 504103",Asad Baba Nagar,4X47+RJX,Bhainsa,504103,Telangana,IN,https://www.google.com/maps/place/Osman+Masjid/data=!4m7!3m6!1s0x3bcdfe5b6bc0025d:0x854fb770d38fd2a3!8m2!3d19.107103!4d77.9641068!16s%2Fg%2F11cn6jvztk!19sChIJXQLAa1v-zTsRo9KP03C3T4U?authuser=0&hl=en&rclk=1,"19.107103,77.9641068"
Jama Masjid,Mosque,"4438+75M Jama Masjid, Unnamed Road, Chackpalli, Arli (Khurd), Telangana 504104",,"4438+75M, Unnamed Road","Chackpalli, Arli (Khurd)",504104,Telangana,IN,https://www.google.com/maps/place/Jama+Masjid/data=!4m7!3m6!1s0x3bcdf759442ad593:0x9d3101a5cbafb91e!8m2!3d19.1032189!4d78.1154349!16s%2Fg%2F11gdgxt0hd!19sChIJk9UqRFn3zTsRHrmvy6UBMZ0?authuser=0&hl=en&rclk=1,"19.103218899999998,78.1154349"
Masjid E-munawar,Mosque,"MGHG+WFR Masjid E-munawar, Indira Nagar, Bhagya Nagar, Adilabad, Telangana 504001","Indira Nagar, Bhagya Nagar",MGHG+WFR,Adilabad,504001,Telangana,IN,https://www.google.com/maps/place/Masjid+E-munawar/data=!4m7!3m6!1s0x3bd25b814a89a5d1:0x13757a533e5d9127!8m2!3d19.6798716!4d78.5261472!16s%2Fg%2F11g5_f9f2n!19sChIJ0aWJSoFb0jsRJ5FdPlN6dRM?authuser=0&hl=en&rclk=1,"19.6798716,78.5261472"
masjid e noor,Mosque,"MG4Q+H92 masjid e noor, Sri Rama Colony, Adilabad, Telangana 504001",Sri Rama Colony,MG4Q+H92,Adilabad,504001,Telangana,IN,https://www.google.com/maps/place/masjid+e+noor/data=!4m7!3m6!1s0x3bd25c6bd009a42f:0x83777eaad70e454d!8m2!3d19.6563983!4d78.5384053!16s%2Fg%2F11c5t1smfj!19sChIJL6QJ0Gtc0jsRTUUO16p-d4M?authuser=0&hl=en&rclk=1,"19.6563983,78.5384053"
Masjid-e-hanfia,Mosque,"MGPM+2C4 Masjid-e-hanfia, Kranti Nagar, Gandhi Nagar, Adilabad, Telangana 504001","Kranti Nagar, Gandhi Nagar",MGPM+2C4,Adilabad,504001,Telangana,IN,https://www.google.com/maps/place/Masjid-e-hanfia/data=!4m7!3m6!1s0x3bd25b8fa218f2e1:0x18f2829bdf51eaf4!8m2!3d19.6850231!4d78.5335857!16s%2Fg%2F11dd_qtmkm!19sChIJ4fIYoo9b0jsR9OpR35uC8hg?authuser=0&hl=en&rclk=1,"19.6850231,78.5335857"
Jaama Masjid (Mosque),Mosque,"VXM3+WC6 Jaama Masjid (Mosque), Basar, Telangana 504101",,VXM3+WC6,Basar,,Telangana,IN,https://www.google.com/maps/place/Jaama+Masjid+%28Mosque%29/data=!4m7!3m6!1s0x3bcde1fdd318d0b1:0xdbc2475fe58f185!8m2!3d18.8847972!4d77.9535133!16s%2Fg%2F11ghfsvdpd!19sChIJsdAY0_3hzTsRhfFY_nUkvA0?authuser=0&hl=en&rclk=1,"18.884797199999998,77.9535133"
Zulfaquar Masjid,Mosque,"Zulfaquar Masjid, Batti Galli, Bhainsa, Telangana 504103",,Batti Galli,Bhainsa,504103,Telangana,IN,https://www.google.com/maps/place/Zulfaquar+Masjid/data=!4m7!3m6!1s0x3bcdfe458e005063:0x3327cc952a5d40c3!8m2!3d19.1106687!4d77.9585257!16s%2Fg%2F11b7lgcncq!19sChIJY1AAjkX-zTsRw0BdKpXMJzM?authuser=0&hl=en&rclk=1,"19.110668699999998,77.9585257"
jama masjid,Mosque,"4556+99V jama masjid, Narsapur, Telangana 504104",,4556+99V,Narsapur,504104,Telangana,IN,https://www.google.com/maps/place/jama+masjid/data=!4m7!3m6!1s0x3bcdf6debe130ce1:0x496ea4eb093e0f95!8m2!3d19.1084754!4d78.1609358!16s%2Fg%2F11dymkzz5r!19sChIJ4QwTvt72zTsRlQ8-Ceukbkk?authuser=0&hl=en&rclk=1,"19.1084754,78.16093579999999"
JAMA MASJID POTHANGAL,Mosque,"R2CX+8MH JAMA MASJID POTHANGAL, Pothangal, Telangana 503246",,R2CX+8MH,Pothangal,503246,Telangana,IN,https://www.google.com/maps/place/JAMA+MASJID+POTHANGAL/data=!4m7!3m6!1s0x3bcde76c6b758535:0x7621dc1128fdb510!8m2!3d18.8208019!4d78.0492206!16s%2Fg%2F11d_txd_3l!19sChIJNYV1a2znzTsRELX9KBHcIXY?authuser=0&hl=en&rclk=1,"18.8208019,78.0492206"
Khanka E Mohammadi,Mosque,"MGJV+P72 Khanka E Mohammadi, Tirupally, Adilabad, Telangana 504001",Tirupally,MGJV+P72,Adilabad,504001,Telangana,IN,https://www.google.com/maps/place/Khanka+E+Mohammadi/data=!4m7!3m6!1s0x3bd25bd22744411f:0x22b8cbaf2829e2c7!8m2!3d19.6817626!4d78.5431504!16s%2Fg%2F11g1rbmtkk!19sChIJH0FEJ9Jb0jsRx-IpKK_LuCI?authuser=0&hl=en&rclk=1,"19.6817626,78.5431504"
Kaali Masjid,Mosque,"4X86+8VM Kaali Masjid, Bhainsa, Telangana 504103",,4X86+8VM,Bhainsa,504103,Telangana,IN,https://www.google.com/maps/place/Kaali+Masjid/data=!4m7!3m6!1s0x3bcdff01ee4823b7:0x7c003f504db3c40c!8m2!3d19.1158403!4d77.9621864!16s%2Fg%2F11f6mcqf45!19sChIJtyNI7gH_zTsRDMSzTVA_AHw?authuser=0&hl=en&rclk=1,"19.1158403,77.9621864"
Masjid E Namrah,Mosque,"MGGM+7CV Masjid E Namrah, Ambedkar Chowk, Bhuktapur, Telangana 504001",,"MGGM+7CV, Ambedkar Chowk",Bhuktapur,,Telangana,IN,https://www.google.com/maps/place/Masjid+E+Namrah/data=!4m7!3m6!1s0x3bd25b8829cd21e7:0xb871a2b68c3b292c!8m2!3d19.6757458!4d78.5335363!16s%2Fg%2F11b6v0h3n3!19sChIJ5yHNKYhb0jsRLCk7jLaicbg?authuser=0&hl=en&rclk=1,"19.675745799999998,78.5335363"
"Old Masjid,Khudavandpoor",Mosque,"V5HP+PF8 Old Masjid,Khudavandpoor, Telangana 503212",,V5HP+PF8,,503212,Telangana,IN,"https://www.google.com/maps/place/Old+Masjid,Khudavandpoor/data=!4m7!3m6!1s0x3bcde969eaf5c695:0x61a5cf299e500802!8m2!3d18.8792964!4d78.1862171!16s%2Fg%2F11cs47y8xw!19sChIJlcb16mnpzTsRAghQninPpWE?authuser=0&hl=en&rclk=1","18.879296399999998,78.1862171"
ISLAMIA MASJID,Mosque,"33P9+Q3G ISLAMIA MASJID, Unnamed Road, Pendapalle, Telangana 504109",,"33P9+Q3G, Unnamed Road",Pendapalle,504109,Telangana,IN,https://www.google.com/maps/place/ISLAMIA+MASJID/data=!4m7!3m6!1s0x3bcdf9a84cf030af:0x3505c992c42fe512!8m2!3d19.0869441!4d78.0677168!16s%2Fg%2F11h1lsvqdn!19sChIJrzDwTKj5zTsREuUvxJLJBTU?authuser=0&hl=en&rclk=1,"19.0869441,78.0677168"
JAAMA MASJID,Mosque,"V5HQ+CR2 JAAMA MASJID, Khudavandapur, Telangana 503212",,V5HQ+CR2,Khudavandapur,503212,Telangana,IN,https://www.google.com/maps/place/JAAMA+MASJID/data=!4m7!3m6!1s0x3bcde9686667a3f5:0xee541aaa8c8de747!8m2!3d18.8785188!4d78.1895025!16s%2Fg%2F11c5350yrl!19sChIJ9aNnZmjpzTsRR-eNjKoaVO4?authuser=0&hl=en&rclk=1,"18.8785188,78.1895025"
Puspoor Jama Masjid,Mosque,"22XJ+P6Q Puspoor Jama Masjid, Puspur, Telangana 504102",,22XJ+P6Q,Puspur,504102,Telangana,IN,https://www.google.com/maps/place/Puspoor+Jama+Masjid/data=!4m7!3m6!1s0x3bcdfb8e2e750bc9:0x687fc9f12d518e7d!8m2!3d19.0493459!4d78.0306125!16s%2Fg%2F11hbnncv9l!19sChIJyQt1Lo77zTsRfY5RLfHJf2g?authuser=0&hl=en&rclk=1,"19.0493459,78.03061249999999"
Macca Masjid - Nandigaon,Mosque,"VX4V+H84 Macca Masjid - Nandigaon, Nandigaon, Telangana 503245",,VX4V+H84,Nandigaon,503245,Telangana,IN,https://www.google.com/maps/place/Macca+Masjid+-+Nandigaon/data=!4m7!3m6!1s0x3bcde119d638785b:0xdf451e0f3385337b!8m2!3d18.8563765!4d77.9933382!16s%2Fg%2F11c0xyx9wk!19sChIJW3g41hnhzTsRezOFMw8eRd8?authuser=0&hl=en&rclk=1,"18.8563765,77.9933382"
Masjid-E-Imam Unnissa,Mosque,"4X88+73C Masjid-E-Imam Unnissa, Bhainsa, Telangana 504103",,4X88+73C,Bhainsa,504103,Telangana,IN,https://www.google.com/maps/place/Masjid-E-Imam+Unnissa/data=!4m7!3m6!1s0x3bcdff48f9d34921:0xbfa3a3b4df1b04b1!8m2!3d19.1156767!4d77.965154!16s%2Fg%2F11n60wjr3b!19sChIJIUnT-Uj_zTsRsQQb37Sjo78?authuser=0&hl=en&rclk=1,"19.115676699999998,77.965154"
Jama Masjid Nandipet,Mosque,"V5H3+76P Jama Masjid Nandipet, jama masjid, Nandipet, Telangana 503212",,V5H3+76P jama masjid,Nandipet,503212,Telangana,IN,https://www.google.com/maps/place/Jama+Masjid+Nandipet/data=!4m7!3m6!1s0x3bcde996c993f9c9:0x3d9c296fe703f407!8m2!3d18.8783821!4d78.1533621!16s%2Fg%2F11t5b34t8g!19sChIJyfmTyZbpzTsRB_QD528pnD0?authuser=0&hl=en&rclk=1,"18.8783821,78.1533621"
Noori Masjid (Ahle-sunnat),Mosque,"QX35+C2G Noori Masjid (Ahle-sunnat), Veeranna gutta, Kalyapur, Telangana 503235",Veeranna gutta,QX35+C2G,Kalyapur,503235,Telangana,IN,https://www.google.com/maps/place/Noori+Masjid+%28Ahle-sunnat%29/data=!4m7!3m6!1s0x3bcddfd6384e10bb:0xeb002017f2546706!8m2!3d18.7535532!4d77.9575635!16s%2Fg%2F11h1kct8_x!19sChIJuxBOONbfzTsRBmdU8hcgAOs?authuser=0&hl=en&rclk=1,"18.7535532,77.95756349999999"
Masjid-E-Aqsa,Mosque,"Masjid-E-Aqsa, Masjid-E-Aqsa Khanapur, Ambedkar Nagar, Khanapur, Telangana 504001",Ambedkar Nagar,Masjid-E-Aqsa Khanapur,Khanapur,504001,Telangana,IN,https://www.google.com/maps/place/Masjid-E-Aqsa/data=!4m7!3m6!1s0x3bd25dcc44670e61:0x730f194bf8b6847d!8m2!3d19.6716338!4d78.5448989!16s%2Fg%2F11j07wlncw!19sChIJYQ5nRMxd0jsRfYS2-EsZD3M?authuser=0&hl=en&rclk=1,"19.6716338,78.54489889999999"
MOHAMMADIYA MASJID,Mosque,"XVR7+2R5 MOHAMMADIYA MASJID, Nandgam, Telangana 504102",,XVR7+2R5,Nandgam,504102,Telangana,IN,https://www.google.com/maps/place/MOHAMMADIYA+MASJID/data=!4m7!3m6!1s0x3bce07528ded7757:0x80b1e2eefa1c65c1!8m2!3d18.9900182!4d77.8646149!16s%2Fg%2F11tcm00p9l!19sChIJV3ftjVIHzjsRwWUc-u7isYA?authuser=0&hl=en&rclk=1,"18.990018199999998,77.86461489999999"
Masjid,Mosque,"V4J3+G35 Masjid, Talveda, Telangana 503212",,V4J3+G35,Talveda,503212,Telangana,IN,https://www.google.com/maps/place/Masjid/data=!4m7!3m6!1s0x3bcde61bd6f5a8df:0x2075fc2b5df30b25!8m2!3d18.8812633!4d78.1027307!16s%2Fg%2F11d_bkbh7z!19sChIJ36j11hvmzTsRJQvzXSv8dSA?authuser=0&hl=en&rclk=1,"18.8812633,78.1027307"
Eidgah,Mosque,"VXQ2+7MV Eidgah, Unnamed Road, Basar, Telangana 504101",,"VXQ2+7MV, Unnamed Road",Basar,504101,Telangana,IN,https://www.google.com/maps/place/Eidgah/data=!4m7!3m6!1s0x3bcde164e3bf8225:0x2cf329b4e243115a!8m2!3d18.888246!4d77.951684!16s%2Fg%2F11jn2m4mzj!19sChIJJYK_42ThzTsRWhFD4rQp8yw?authuser=0&hl=en&rclk=1,"18.888246,77.951684"
Madhar Khan Masjid,Mosque,"4X23+8HV Madhar Khan Masjid, National Highway 222, Khan Auto Nagar, Bhainsa, Telangana 504103",Khan Auto Nagar,"4X23+8HV, National Highway 222",Bhainsa,504103,Telangana,IN,https://www.google.com/maps/place/Madhar+Khan+Masjid/data=!4m7!3m6!1s0x3bcdfe41b557545b:0xd92f6034489efa34!8m2!3d19.1008595!4d77.9539175!16s%2Fg%2F11b7c49jxk!19sChIJW1RXtUH-zTsRNPqeSDRgL9k?authuser=0&hl=en&rclk=1,"19.1008595,77.9539175"
Masjid,Mosque,"W5WM+5J8 Masjid, Donkeshwar, Telangana 503212",,W5WM+5J8,Donkeshwar,503212,Telangana,IN,https://www.google.com/maps/place/Masjid/data=!4m7!3m6!1s0x3bcdef1f4fb601a3:0xa3523ea02136066c!8m2!3d18.9454093!4d78.1840925!16s%2Fg%2F11fcmfksy0!19sChIJowG2Tx_vzTsRbAY2IaA-UqM?authuser=0&hl=en&rclk=1,"18.945409299999998,78.18409249999999"
Muslim Qabristan Nandgam,Mosque,"XVR7+5J9 Muslim Qabristan Nandgam, Nandgam, Telangana 504102",,XVR7+5J9,Nandgam,,Telangana,IN,https://www.google.com/maps/place/Muslim+Qabristan+Nandgam/data=!4m7!3m6!1s0x3bce07ab91b1e49f:0x666a58e51e7530ef!8m2!3d18.9904156!4d77.8640952!16s%2Fg%2F11tmfljntd!19sChIJn-SxkasHzjsR7zB1HuVYamY?authuser=0&hl=en&rclk=1,"18.9904156,77.8640952"
Mohammadiya Masjid New Aabadi,Mosque,"QWG4+6RV Mohammadiya Masjid New Aabadi, Neela, Telangana 503235",,QWG4+6RV,Neela,503235,Telangana,IN,https://www.google.com/maps/place/Mohammadiya+Masjid+New+Aabadi/data=!4m7!3m6!1s0x3bce750e0efc2edd:0x215d3e2404062d39!8m2!3d18.7756045!4d77.9070523!16s%2Fg%2F11h7cvn4fc!19sChIJ3S78Dg51zjsROS0GBCQ-XSE?authuser=0&hl=en&rclk=1,"18.7756045,77.90705229999999"
Makka masjid,Mosque,"4X49+5GM Makka masjid, Owaisi nagar, Bhainsa, Telangana 504103",Owaisi nagar,4X49+5GM,Bhainsa,504103,Telangana,IN,https://www.google.com/maps/place/Makka+masjid/data=!4m7!3m6!1s0x3bcdff0eae709cdd:0x6854d10775edfe3!8m2!3d19.1054591!4d77.9688006!16s%2Fg%2F11j7cswkz7!19sChIJ3Zxwrg7_zTsR499edxBNhQY?authuser=0&hl=en&rclk=1,"19.105459099999997,77.9688006"
Jama masjid Taroda,Mosque,"Jama masjid Taroda, Bus Stop, Tharoda, Taroda, Telangana 504102",,"Bus Stop, Tharoda",Taroda,504102,Telangana,IN,https://www.google.com/maps/place/Jama+masjid+Taroda/data=!4m7!3m6!1s0x3bcdfd8c41ffa3d9:0x6422385f670ace37!8m2!3d19.0130289!4d77.933492!16s%2Fg%2F11h585lwwn!19sChIJ2aP_QYz9zTsRN84KZ184ImQ?authuser=0&hl=en&rclk=1,"19.0130289,77.933492"
Masjid-e-Siddique,Mosque,"MG78+GG3 Masjid-e-Siddique, Unnamed Road, Subhash Nagar, Adilabad, Telangana 504001",Subhash Nagar,"MG78+GG3, Unnamed Road",Adilabad,504001,Telangana,IN,https://www.google.com/maps/place/Masjid-e-Siddique/data=!4m7!3m6!1s0x3bd25ddfdb658e8d:0x40be051be107f7ff!8m2!3d19.66377!4d78.516291!16s%2Fg%2F11h6mnz8kz!19sChIJjY5l299d0jsR__cH4RsFvkA?authuser=0&hl=en&rclk=1,"19.66377,78.516291"
Masjid E Mohammed,Mosque,"Q2JR+5F7 Masjid E Mohammed, Kamalapur, Telangana 503245",,Q2JR+5F7,Kamalapur,503245,Telangana,IN,https://www.google.com/maps/place/Masjid+E+Mohammed/data=!4m7!3m6!1s0x3bcdddeadeefd7cb:0x3b56aa79c1388c38!8m2!3d18.7804154!4d78.0411649!16s%2Fg%2F11d_tfbgjp!19sChIJy9fv3urdzTsROIw4wXmqVjs?authuser=0&hl=en&rclk=1,"18.7804154,78.0411649"
Masjid-e-umare-farooq,Mosque,"VWCV+XWR Masjid-e-umare-farooq, Basar, Telangana 504101",,VWCV+XWR,Basar,,Telangana,IN,https://www.google.com/maps/place/Masjid-e-umare-farooq/data=!4m7!3m6!1s0x3bcde155a4892165:0xf683d03d0a4ee96e!8m2!3d18.872485!4d77.9447636!16s%2Fg%2F11pwxm21cv!19sChIJZSGJpFXhzTsRbulOCj3Qg_Y?authuser=0&hl=en&rclk=1,"18.872484999999998,77.9447636"
Masjid [ msjd ],Mosque,"PXXP+89W Masjid [ msjd ], Renjal, Telangana 503245",,PXXP+89W,Renjal,,Telangana,IN,https://www.google.com/maps/place/Masjid+%5B+%D9%85%D8%B3%D8%AC%D8%AF+%5D%E2%80%AD/data=!4m7!3m6!1s0x3bcddf700a902b7f:0x47f17b2912ed6eb2!8m2!3d18.748356!4d77.9859651!16s%2Fg%2F11sd6ltps8!19sChIJfyuQCnDfzTsRsm7tEil78Uc?authuser=0&hl=en&rclk=1,"18.748355999999998,77.9859651"
Abdula mosque,Mosque,"VRXV+96X Abdula mosque, Dharmabad, Maharashtra 431809",,VRXV+96X,Dharmabad,431809,Maharashtra,IN,https://www.google.com/maps/place/Abdula+mosque/data=!4m7!3m6!1s0x3bce099a3232c25d:0xe9ed8c5631fa0463!8m2!3d18.8985373!4d77.8428997!16s%2Fg%2F11vdm0pv73!19sChIJXcIyMpoJzjsRYwT6MVaM7ek?authuser=0&hl=en&rclk=1,"18.898537299999997,77.84289969999999"
Masjid e Afsana,Mosque,"JGRP+7WM Masjid e Afsana, KRK Rd, KRK Colony, Khoja Colony, Adilabad, Telangana 504001","KRK Colony, Khoja Colony","JGRP+7WM, KRK Rd",Adilabad,504001,Telangana,IN,https://www.google.com/maps/place/Masjid+e+Afsana/data=!4m7!3m6!1s0x3bd25d5d2e428473:0xd94d955bdaa63bd4!8m2!3d19.6407052!4d78.5372911!16s%2Fg%2F11t4wlk9cp!19sChIJc4RCLl1d0jsR1Dum2luVTdk?authuser=0&hl=en&rclk=1,"19.6407052,78.53729109999999"
Eidgah.Khudavandpoor,Mosque,"V5GW+H8G Eidgah.Khudavandpoor, Khudavandapur, Telangana 503212",,V5GW+H8G,Khudavandapur,,Telangana,IN,https://www.google.com/maps/place/Eidgah.Khudavandpoor/data=!4m7!3m6!1s0x3bcde9ac4d4f8c19:0xed0c61cfdbaf9aa5!8m2!3d18.8764358!4d78.1958335!16s%2Fg%2F11f653w8gn!19sChIJGYxPTazpzTsRpZqv289hDO0?authuser=0&hl=en&rclk=1,"18.8764358,78.19583349999999"
Dargah Ahmed Pasha Quadri,Mosque,"XWF5+8JF Dargah Ahmed Pasha Quadri, Mudhole, Telangana 504102",,XWF5+8JF,Mudhole,504102,Telangana,IN,https://www.google.com/maps/place/Dargah+Ahmed+Pasha+Quadri/data=!4m7!3m6!1s0x3bce080c77299c19:0x9f92a587190f7f8e!8m2!3d18.973309!4d77.9090555!16s%2Fg%2F11fy_2cstl!19sChIJGZwpdwwIzjsRjn8PGYelkp8?authuser=0&hl=en&rclk=1,"18.973309,77.9090555"
Jama masjid,Mosque,"X3CH+HHH Jama masjid, Unnamed Road, Dharmara, Telangana 504104",,"X3CH+HHH, Unnamed Road",Dharmara,504104,Telangana,IN,https://www.google.com/maps/place/Jama+masjid/data=!4m7!3m6!1s0x3bcde506ad45489d:0xd1d7c1c541293b7c!8m2!3d18.9714412!4d78.0789727!16s%2Fg%2F11r6xq5r2z!19sChIJnUhFrQblzTsRfDspQcXB19E?authuser=0&hl=en&rclk=1,"18.971441199999997,78.0789727"
Owaisi masjid,Mosque,"4X3C+PVW Owaisi masjid, Rd number 2, Bhainsa, Telangana 504103",,"4X3C+PVW, Rd number 2",Bhainsa,504103,Telangana,IN,https://www.google.com/maps/place/Owaisi+masjid/data=!4m7!3m6!1s0x3bcdffb38f817769:0x3746a83dd7b84291!8m2!3d19.1044739!4d77.9714137!16s%2Fg%2F11s5627lk5!19sChIJaXeBj7P_zTsRkUK41z2oRjc?authuser=0&hl=en&rclk=1,"19.1044739,77.9714137"
JAMA MASJID 1 fakrabad,Mosque,"RX7G+RHJ JAMA MASJID 1 fakrabad, Kosli, Telangana 503245",,RX7G+RHJ,Kosli,503245,Telangana,IN,https://www.google.com/maps/place/JAMA+MASJID+1+fakrabad/data=!4m7!3m6!1s0x3bcde1ac637ed979:0xa273a37ce1097fec!8m2!3d18.8145795!4d77.9763969!16s%2Fg%2F11fjzbmg86!19sChIJedl-Y6zhzTsR7H8J4Xyjc6I?authuser=0&hl=en&rclk=1,"18.8145795,77.9763969"
Masjid-e-Ibrahim,Mosque,"4X3F+MGW Masjid-e-Ibrahim, Owasi Nagar, Bhainsa, Telangana 504103",Owasi Nagar,4X3F+MGW,Bhainsa,504103,Telangana,IN,https://www.google.com/maps/place/Masjid-e-Ibrahim/data=!4m7!3m6!1s0x3bcdff2e3ed8c869:0x9a1ebb33c7592548!8m2!3d19.1042258!4d77.9738428!16s%2Fg%2F11jpgpwxgp!19sChIJacjYPi7_zTsRSCVZxzO7Hpo?authuser=0&hl=en&rclk=1,"19.1042258,77.9738428"
Darul Uloom Faiz ul Quran,Mosque,"XWRC+9P3 Darul Uloom Faiz ul Quran, Adilabad, Telangana 504102",,XWRC+9P3,Adilabad,,Telangana,IN,https://www.google.com/maps/place/Darul+Uloom+Faiz+ul+Quran/data=!4m7!3m6!1s0x3bce0764d16d9c37:0x9f8a0bf244810834!8m2!3d18.9908992!4d77.9218055!16s%2Fg%2F11g1fv10bs!19sChIJN5xt0WQHzjsRNAiBRPILip8?authuser=0&hl=en&rclk=1,"18.990899199999998,77.92180549999999"
Jama Masjid Gunjili,Mosque,"R3R9+W4G Jama Masjid Gunjili, Gunjili, Shiranpalle, Telangana 503246",,R3R9+W4G,"Gunjili, Shiranpalle",503246,Telangana,IN,https://www.google.com/maps/place/Jama+Masjid+Gunjili/data=!4m7!3m6!1s0x3bcde709864e9faf:0x2d5a36aff1984b59!8m2!3d18.842307!4d78.0678324!16s%2Fg%2F11h6nrxqcj!19sChIJr59OhgnnzTsRWUuY8a82Wi0?authuser=0&hl=en&rclk=1,"18.842306999999998,78.0678324"
Aqsa Masjid,Mosque,"4X4G+44V Aqsa Masjid, Bhainsa, Telangana 504103",,4X4G+44V,Bhainsa,504103,Telangana,IN,https://www.google.com/maps/place/Aqsa+Masjid/data=!4m7!3m6!1s0x3bcdffefc08d1e65:0x78398d3d727b1cd0!8m2!3d19.1053514!4d77.9752969!16s%2Fg%2F11jf0jv14x!19sChIJZR6NwO__zTsR0Bx7cj2NOXg?authuser=0&hl=en&rclk=1,"19.1053514,77.9752969"
Masjid e Ilaqa e Mashaiq,Mosque,"4X86+MR9 Masjid e Ilaqa e Mashaiq, Old Bazar Rd, Bhainsa, Telangana 504103",,"4X86+MR9, Old Bazar Rd",Bhainsa,504103,Telangana,IN,https://www.google.com/maps/place/Masjid+e+Ilaqa+e+Mashaiq/data=!4m7!3m6!1s0x3bcdffbb718107df:0x308312419b8ea3ee!8m2!3d19.11667!4d77.9621098!16s%2Fg%2F11np7rc810!19sChIJ3weBcbv_zTsR7qOOm0ESgzA?authuser=0&hl=en&rclk=1,"19.11667,77.9621098"
Jama masjid,Mosque,"3466+MQ3 Jama masjid, Manmad, Telangana 504104",,3466+MQ3,Manmad,,Telangana,IN,https://www.google.com/maps/place/Jama+masjid/data=!4m7!3m6!1s0x3bcdf111d21c7737:0x5999179013b362b5!8m2!3d19.0616441!4d78.111914!16s%2Fg%2F11rvjygjlq!19sChIJN3cc0hHxzTsRtWKzE5AXmVk?authuser=0&hl=en&rclk=1,"19.0616441,78.111914"
Masjid-E-Kausar,Mosque,"MG8Q+6M8 Masjid-E-Kausar, Shanti Nagar, Adilabad, Telangana 504001",Shanti Nagar,MG8Q+6M8,Adilabad,504001,Telangana,IN,https://www.google.com/maps/place/Masjid-E-Kausar/data=!4m7!3m6!1s0x3bd25c726cbfffff:0xdcc8a30755b4260c!8m2!3d19.6655322!4d78.5391992!16s%2Fg%2F11txmzh9h_!19sChIJ__-_bHJc0jsRDCa0VQejyNw?authuser=0&hl=en&rclk=1,"19.665532199999998,78.5391992"
Nagar masjid,Mosque,"2462+FF8 Nagar masjid, Nagar, Telangana 504104",,2462+FF8,Nagar,504104,Telangana,IN,https://www.google.com/maps/place/Nagar+masjid/data=!4m7!3m6!1s0x3bcdfb87f4e1ca07:0x97a41421f66a5818!8m2!3d19.010881!4d78.102116!16s%2Fg%2F11jt0w_z_l!19sChIJB8rh9If7zTsRGFhq9iEUpJc?authuser=0&hl=en&rclk=1,"19.010880999999998,78.102116"
Thimmapur masjid,Mosque,"435F+Q9G Thimmapur masjid, Unnamed Road, Thimmapur, Telangana 504109",,"435F+Q9G, Unnamed Road",Thimmapur,504109,Telangana,IN,https://www.google.com/maps/place/Thimmapur+masjid/data=!4m7!3m6!1s0x3bcdf93c28513963:0x7dcfb1f3b4f8e7af!8m2!3d19.1094489!4d78.0734603!16s%2Fg%2F11qzbkts3t!19sChIJYzlRKDz5zTsRr-f4tPOxz30?authuser=0&hl=en&rclk=1,"19.1094489,78.0734603"
"pedd gutttt deevuddu, dhrmaarN",Mosque,"X3PH+PC pedd gutttt deevuddu, dhrmaarN, VIP ADDA, New Raipur (K), Telangana 504104",,X3PH+PC VIP ADDA,New Raipur (K),504104,Telangana,IN,"https://www.google.com/maps/place/%E0%B0%AA%E0%B1%86%E0%B0%A6%E0%B1%8D%E0%B0%A6+%E0%B0%97%E0%B1%81%E0%B0%9F%E0%B1%8D%E0%B0%9F+%E0%B0%A6%E0%B1%87%E0%B0%B5%E0%B1%81%E0%B0%A1%E0%B1%81,+%E0%B0%A7%E0%B0%B0%E0%B1%8D%E0%B0%AE%E0%B0%BE%E0%B0%B0%E0%B0%82/data=!4m7!3m6!1s0x3bcde5abeb56f289:0xb9041ab83c7f2d55!8m2!3d18.9880077!4d78.07903!16s%2Fg%2F11vj7tb2v9!19sChIJifJW66vlzTsRVS1_PLgaBLk?authuser=0&hl=en&rclk=1","18.9880077,78.07903"
Madarse Mohammadia Talim Ul Quran Wo Deniyat,Mosque,"XWG7+PGX Madarse Mohammadia Talim Ul Quran Wo Deniyat, Mudhole, Telangana 504102",,XWG7+PGX,Mudhole,504102,Telangana,IN,https://www.google.com/maps/place/Madarse+Mohammadia+Talim+Ul+Quran+Wo+Deniyat/data=!4m7!3m6!1s0x3bce080855555555:0xa685082d5b291ae3!8m2!3d18.9768748!4d77.9138661!16s%2Fg%2F11fy_395k9!19sChIJVVVVVQgIzjsR4xopWy0IhaY?authuser=0&hl=en&rclk=1,"18.976874799999997,77.91386609999999"
Masjid-e-Taweed,Mosque,"W49M+X9V Masjid-e-Taweed, Ummeda, Telangana 503212",,W49M+X9V,Ummeda,503212,Telangana,IN,https://www.google.com/maps/place/Masjid-e-Taweed/data=!4m7!3m6!1s0x3bcdef84711adc7f:0x8386494f394d9ae7!8m2!3d18.9199843!4d78.1334202!16s%2Fg%2F11f9zdrpmj!19sChIJf9wacYTvzTsR55pNOU9JhoM?authuser=0&hl=en&rclk=1,"18.9199843,78.1334202"
Jama masjid,Mosque,"Jama masjid, Tondakur, Shahpur, Telangana 503212",,,"Tondakur, Shahpur",503212,Telangana,IN,https://www.google.com/maps/place/Jama+masjid/data=!4m7!3m6!1s0x3bcde9b6689d0d6d:0xd82ac2d148723667!8m2!3d18.9007382!4d78.1827624!16s%2Fg%2F11ty4q1_7p!19sChIJbQ2daLbpzTsRZzZySNHCKtg?authuser=0&hl=en&rclk=1,"18.9007382,78.1827624"
Jamiya Masjid,Mosque,"Jamiya Masjid, Panchagudi, Dharmara, Telangana 504104",,,"Panchagudi, Dharmara",504104,Telangana,IN,https://www.google.com/maps/place/Jamiya+Masjid/data=!4m7!3m6!1s0x3bcde5f57d5ce841:0x54a16d15ab8d2131!8m2!3d18.9698223!4d78.0838299!16s%2Fg%2F11g23bk4d8!19sChIJQehcffXlzTsRMSGNqxVtoVQ?authuser=0&hl=en&rclk=1,"18.9698223,78.0838299"
Quadanshah ali,Mosque,"4X5F+FPC Quadanshah ali, Bhainsa, Telangana 504103",,4X5F+FPC,Bhainsa,504103,Telangana,IN,https://www.google.com/maps/place/Quadanshah+ali/data=!4m7!3m6!1s0x3bcdff7a411bd27f:0xf18f2bb4d86febfc!8m2!3d19.1086944!4d77.9742549!16s%2Fg%2F11l6yhsc3v!19sChIJf9IbQXr_zTsR_Otv2LQrj_E?authuser=0&hl=en&rclk=1,"19.108694399999997,77.97425489999999"
Eid gah. `ydgh,Mosque,"VW8W+4HH Eid gah. `ydgh, Panchayat Raj Rd, Telangana 504101",,"VW8W+4HH, Panchayat Raj Rd",,504101,Telangana,IN,https://www.google.com/maps/place/Eid+gah.+%D8%B9%DB%8C%D8%AF%DA%AF%D8%A7%DB%81%E2%80%AD/data=!4m7!3m6!1s0x3bcde137ecf0b249:0xa475a0ae08688f92!8m2!3d18.865304!4d77.9464759!16s%2Fg%2F11h9k5wz7t!19sChIJSbLw7DfhzTsRko9oCK6gdaQ?authuser=0&hl=en&rclk=1,"18.865304,77.9464759"
Dastagir Saheb Burj,Mosque,"2X6X+X44 Dastagir Saheb Burj, Edbid, Telangana 504102",,2X6X+X44,Edbid,504102,Telangana,IN,https://www.google.com/maps/place/Dastagir+Saheb+Burj/data=!4m7!3m6!1s0x3bcdfdd991c2255f:0xc03dc50b054bc67f!8m2!3d19.0131884!4d77.9979526!16s%2Fg%2F11pz0j6z29!19sChIJXyXCkdn9zTsRf8ZLBQvFPcA?authuser=0&hl=en&rclk=1,"19.0131884,77.99795259999999"
Masjid-e-mohammed ali khan,Mosque,"4X66+HJX Masjid-e-mohammed ali khan, Bhainsa, Telangana 504103",,4X66+HJX,Bhainsa,504103,Telangana,IN,https://www.google.com/maps/place/Masjid-e-mohammed+ali+khan/data=!4m7!3m6!1s0x3bcdff51973f1793:0x47b905b99f17ef30!8m2!3d19.1115918!4d77.9615985!16s%2Fg%2F11pzpc_hb7!19sChIJkxc_l1H_zTsRMO8Xn7kFuUc?authuser=0&hl=en&rclk=1,"19.1115918,77.9615985"
Dubba Masjid Nandipet,Mosque,"V4GV+QGF Dubba Masjid Nandipet, Noothpalli, Telangana 503212",,V4GV+QGF,Noothpalli,503212,Telangana,IN,https://www.google.com/maps/place/Dubba+Masjid+Nandipet/data=!4m7!3m6!1s0x3bcde98d96886be9:0x3478282a5d76648b!8m2!3d18.8769333!4d78.1437879!16s%2Fg%2F11h57m9nzq!19sChIJ6WuIlo3pzTsRi2R2XSooeDQ?authuser=0&hl=en&rclk=1,"18.876933299999997,78.14378789999999"
MASJID MOUZA BINTE ALI,Mosque,"V4MR+2FP MASJID MOUZA BINTE ALI, Nandipet, Chimrajpalle, Telangana 503212",,V4MR+2FP,"Nandipet, Chimrajpalle",503212,Telangana,IN,https://www.google.com/maps/place/MASJID+MOUZA+BINTE+ALI/data=!4m7!3m6!1s0x3bcde9345837717f:0xf004e2e49254f5!8m2!3d18.882581!4d78.1412174!16s%2Fg%2F11rv1xz98r!19sChIJf3E3WDTpzTsR9VSS5OIE8AA?authuser=0&hl=en&rclk=1,"18.882581,78.1412174"
JAMA MASJID,Mosque,"W5G5+3GC JAMA MASJID, Nizamabad, Telangana 503212",,W5G5+3GC,Nizamabad,,Telangana,IN,https://www.google.com/maps/place/JAMA+MASJID/data=!4m7!3m6!1s0x3bcdefa02fc947ab:0x9999f86c2c79e7ef!8m2!3d18.9251806!4d78.1587566!16s%2Fg%2F11k8b1618f!19sChIJq0fJL6DvzTsR7-d5LGz4mZk?authuser=0&hl=en&rclk=1,"18.9251806,78.15875659999999"
majid.. msiid fakrabad,Mosque,"RX7G+RHP majid.. msiid fakrabad, road, Tadbiloli, Faridabad, Telangana 503245",,"RX7G+RHP, road","Tadbiloli, Faridabad",,Telangana,IN,https://www.google.com/maps/place/majid..+%E0%B0%AE%E0%B0%B8%E0%B1%80%E0%B0%A6%E0%B1%8D+fakrabad/data=!4m7!3m6!1s0x3bcde11746f2b013:0x69ae451e3fabce90!8m2!3d18.8145868!4d77.9764415!16s%2Fg%2F11h3ld0tjt!19sChIJE7DyRhfhzTsRkM6rPx5Frmk?authuser=0&hl=en&rclk=1,"18.8145868,77.97644149999999"
JAMA MASJID Added By Muqeeth PPML.,Mosque,"RV7Q+FM6 JAMA MASJID Added By Muqeeth PPML., Kandakurthi, Telangana 503235",,RV7Q+FM6,Kandakurthi,503235,Telangana,IN,https://www.google.com/maps/place/JAMA+MASJID+Added+By+Muqeeth+PPML./data=!4m7!3m6!1s0x3bce0b34e6cc89cf:0xd18de08a862613d!8m2!3d18.8136747!4d77.8891529!16s%2Fg%2F11fln4lth7!19sChIJz4nM5jQLzjsRPWFiqAjeGA0?authuser=0&hl=en&rclk=1,"18.8136747,77.8891529"
Jama Masjid (Dhagaon),Mosque,"2V3M+H5J Jama Masjid (Dhagaon), Dhagaon, Telangana 504102",,2V3M+H5J,Dhagaon,504102,Telangana,IN,https://www.google.com/maps/place/Jama+Masjid+%28Dhagaon%29/data=!4m7!3m6!1s0x3bce0727bed48a03:0xca3f528a32d322e2!8m2!3d19.0039639!4d77.8828794!16s%2Fg%2F11trgx4wrs!19sChIJA4rUvicHzjsR4iLTMopSP8o?authuser=0&hl=en&rclk=1,"19.0039639,77.8828794"
Jaama masjid,Mosque,"Jaama masjid, Sirala, Telangana 504102",,,Sirala,504102,Telangana,IN,https://www.google.com/maps/place/Jaama+masjid/data=!4m7!3m6!1s0x3bce012e97e91a7f:0x17cde4e89501898d!8m2!3d19.0732537!4d77.8971662!16s%2Fg%2F11rq8ffprn!19sChIJfxrply4BzjsRjYkBlejkzRc?authuser=0&hl=en&rclk=1,"19.0732537,77.8971662"
dawal malik dargah(Dhagaon),Mosque,"2V3M+965 dawal malik dargah(Dhagaon), Dhagaon, Telangana 504102",,2V3M+965,Dhagaon,504102,Telangana,IN,https://www.google.com/maps/place/dawal+malik+dargah%28Dhagaon%29/data=!4m7!3m6!1s0x3bce0784a4b48061:0xdbf15b4f084afd8f!8m2!3d19.0031897!4d77.8832948!16s%2Fg%2F11kjm3syc4!19sChIJYYC0pIQHzjsRj_1KCE9b8ds?authuser=0&hl=en&rclk=1,"19.0031897,77.8832948"
Dargah masjid,Mosque,"4X85+RH4 Dargah masjid, Kisan Gally, Bhainsa, Telangana 504103",,"4X85+RH4, Kisan Gally",Bhainsa,504103,Telangana,IN,https://www.google.com/maps/place/Dargah+masjid/data=!4m7!3m6!1s0x3bcdff8149341c71:0x4ab8fbf5c4f17c84!8m2!3d19.1170017!4d77.9589653!16s%2Fg%2F11n8wky035!19sChIJcRw0SYH_zTsRhHzxxPX7uEo?authuser=0&hl=en&rclk=1,"19.1170017,77.9589653"
Masjid e WALI,Mosque,"4X49+MWR Masjid e WALI, Rd Number 1, Bhainsa, Telangana 504103",,"4X49+MWR, Rd Number 1",Bhainsa,504103,Telangana,IN,https://www.google.com/maps/place/Masjid+e+WALI/data=!4m7!3m6!1s0x3bcdffe159c3e0c5:0x924cdf0a90587653!8m2!3d19.1067472!4d77.9697721!16s%2Fg%2F11lrryyhw2!19sChIJxeDDWeH_zTsRU3ZYkArfTJI?authuser=0&hl=en&rclk=1,"19.106747199999997,77.9697721"
masjid,Mosque,"MGFX+R5C masjid, Ambedkar Nagar, Adilabad, Telangana 504001",Ambedkar Nagar,MGFX+R5C,Adilabad,504001,Telangana,IN,https://www.google.com/maps/place/masjid/data=!4m7!3m6!1s0x3bd25dea5bc85cff:0xa139fac0fe5bfbe8!8m2!3d19.6750538!4d78.549016!16s%2Fg%2F11tg1ql3mw!19sChIJ_1zIW-pd0jsR6Ptb_sD6OaE?authuser=0&hl=en&rclk=1,"19.6750538,78.549016"
masjid-e-Ameena. Taroda,Mosque,"2W6P+HMC masjid-e-Ameena. Taroda, Taroda, Telangana 504102",,2W6P+HMC,Taroda,504102,Telangana,IN,https://www.google.com/maps/place/masjid-e-Ameena.+Taroda/data=!4m7!3m6!1s0x3bcdfd8ced879fc7:0xa8c8d0a46a879700!8m2!3d19.0114475!4d77.9366469!16s%2Fg%2F11nx3xpp3n!19sChIJx5-H7Yz9zTsRAJeHaqTQyKg?authuser=0&hl=en&rclk=1,"19.0114475,77.9366469"
Qureshi's dayra,Mosque,"XW74+RV Qureshi's dayra, Mudhole, Telangana 504102",,XW74+RV,Mudhole,,Telangana,IN,https://www.google.com/maps/place/Qureshi%27s+dayra/data=!4m7!3m6!1s0x3bce09a66983ce9b:0x9269f425b8a9c771!8m2!3d18.9645492!4d77.9071758!16s%2Fg%2F11kphpbb44!19sChIJm86DaaYJzjsRccepuCX0aZI?authuser=0&hl=en&rclk=1,"18.9645492,77.90717579999999"
Jama Masjid (Rafi),Mosque,"Q3Q6+CCX Jama Masjid (Rafi), Narayanpur, Kamalapur, Telangana 503246",,Q3Q6+CCX,"Narayanpur, Kamalapur",503246,Telangana,IN,https://www.google.com/maps/place/Jama+Masjid+%28Rafi%29/data=!4m7!3m6!1s0x3bcddd79980f9363:0xe4d5b22aa993138e!8m2!3d18.7886221!4d78.0610974!16s%2Fg%2F11h7p7ws22!19sChIJY5MPmHndzTsRjhOTqSqy1eQ?authuser=0&hl=en&rclk=1,"18.788622099999998,78.0610974"
Masjid E Madeena,Mosque,"3XX8+XMW Masjid E Madeena, Vinayak Nagar, Bhainsa, Telangana 504103",Vinayak Nagar,3XX8+XMW,Bhainsa,504103,Telangana,IN,https://www.google.com/maps/place/Masjid+E+Madeena/data=!4m7!3m6!1s0x3bcdfe67609b6a17:0xd10b98fe9ebd9b74!8m2!3d19.1!4d77.9667!16s%2Fg%2F11b7tns2dg!19sChIJF2qbYGf-zTsRdJu9nv6YC9E?authuser=0&hl=en&rclk=1,"19.099999999999998,77.9667"
Jama masjid,Mosque,"XR2M+XH9 Jama masjid, JewlaBuzurg, Jawala, Telangana 504102",,XR2M+XH9,"JewlaBuzurg, Jawala",504102,Telangana,IN,https://www.google.com/maps/place/Jama+masjid/data=!4m7!3m6!1s0x3bce0fa40d8bb217:0xcbc4166bd40c1b17!8m2!3d18.9523864!4d77.834005!16s%2Fg%2F11s58b6fbg!19sChIJF7KLDaQPzjsRFxsM1GsWxMs?authuser=0&hl=en&rclk=1,"18.952386399999998,77.83400499999999"
Masjid e noor banu,Mosque,"4298+7M3 Masjid e noor banu, Ekgaon, Telangana 504103",,4298+7M3,Ekgaon,504103,Telangana,IN,https://www.google.com/maps/place/Masjid+e+noor+banu/data=!4m7!3m6!1s0x3bcdff742aedeb0d:0x1cc2047094df4e93!8m2!3d19.1181434!4d78.0166847!16s%2Fg%2F11h6443h1y!19sChIJDevtKnT_zTsRk07flHAEwhw?authuser=0&hl=en&rclk=1,"19.118143399999997,78.0166847"
Masjid,Mosque,"VW8Q+JJP Masjid, Basar, Telangana 504101",,VW8Q+JJP,Basar,,Telangana,IN,https://www.google.com/maps/place/Masjid/data=!4m7!3m6!1s0x3bcde10cc7f5aca5:0x9964a345088a20b6!8m2!3d18.8665932!4d77.9390706!16s%2Fg%2F11rvgjzrxx!19sChIJpaz1xwzhzTsRtiCKCEWjZJk?authuser=0&hl=en&rclk=1,"18.8665932,77.9390706"
Majid e abubakar,Mosque,"4X68+H97 Majid e abubakar, New Abadi, Bhainsa, Telangana 504103",New Abadi,4X68+H97,Bhainsa,504103,Telangana,IN,https://www.google.com/maps/place/Majid+e+abubakar/data=!4m7!3m6!1s0x3bcdff58c1da7aab:0x219623bea3a45cb3!8m2!3d19.1113411!4d77.9659192!16s%2Fg%2F11sz2t10vn!19sChIJq3rawVj_zTsRs1yko74jliE?authuser=0&hl=en&rclk=1,"19.1113411,77.9659192"
Jama Maszid Gadchanda,Mosque,"245G+97V Jama Maszid Gadchanda, Unnamed Road, Gadchanda, Telangana 504104",,"245G+97V, Unnamed Road",Gadchanda,504104,Telangana,IN,https://www.google.com/maps/place/Jama+Maszid+Gadchanda/data=!4m7!3m6!1s0x3bcdf11ee4eaa0b3:0x5074c88c16549bd7!8m2!3d19.0084902!4d78.1256743!16s%2Fg%2F11flc1zb5k!19sChIJs6Dq5B7xzTsR15tUFozIdFA?authuser=0&hl=en&rclk=1,"19.0084902,78.1256743"
Jama masijid,Mosque,"X4GH+G53 Jama masijid, Pipri, Telangana 504104",,X4GH+G53,Pipri,504104,Telangana,IN,https://www.google.com/maps/place/Jama+masijid/data=!4m7!3m6!1s0x3bcdefbf1ef8ccff:0x33ae37cb52dc7205!8m2!3d18.9762572!4d78.1279359!16s%2Fg%2F11rn4j23nd!19sChIJ_8z4Hr_vzTsRBXLcUss3rjM?authuser=0&hl=en&rclk=1,"18.9762572,78.1279359"
Dulha masjid,Mosque,"4X76+QPR Dulha masjid, Bhainsa, Telangana 504103",,4X76+QPR,Bhainsa,504103,Telangana,IN,https://www.google.com/maps/place/Dulha+masjid/data=!4m7!3m6!1s0x3bcdff11036a7bc1:0x2af6a0e9a007d28e!8m2!3d19.1144859!4d77.9617514!16s%2Fg%2F11pzpf_hcw!19sChIJwXtqAxH_zTsRjtIHoOmg9io?authuser=0&hl=en&rclk=1,"19.1144859,77.9617514"
Al huda Masjid,Mosque,"W5WM+7FJ Al huda Masjid, Unnamed Road, Donkeshwar, Telangana 503212",,"W5WM+7FJ, Unnamed Road",Donkeshwar,503212,Telangana,IN,https://www.google.com/maps/place/Al+huda+Masjid/data=!4m7!3m6!1s0x3bcdefb08c81d71b:0x382eeec8305a5790!8m2!3d18.945716!4d78.183656!16s%2Fg%2F11hz9llh_n!19sChIJG9eBjLDvzTsRkFdaMMjuLjg?authuser=0&hl=en&rclk=1,"18.945716,78.183656"
Makkah masjid Binola,Mosque,"V3Q5+XQQ Makkah masjid Binola, Binola, Telangana 503246",,V3Q5+XQQ,Binola,503246,Telangana,IN,https://www.google.com/maps/place/Makkah+masjid+Binola/data=!4m7!3m6!1s0x3bcde736e5d409a3:0x654b084de71f1403!8m2!3d18.8899684!4d78.0594874!16s%2Fg%2F11t7c6nbsr!19sChIJownU5TbnzTsRAxQf500IS2U?authuser=0&hl=en&rclk=1,"18.8899684,78.0594874"
Sk salmanbhai,Mosque,"Q3Q7+QQ7 Sk salmanbhai, Kamalapur, Telangana 503246",,Q3Q7+QQ7,Kamalapur,,Telangana,IN,https://www.google.com/maps/place/Sk+salmanbhai/data=!4m7!3m6!1s0x3bcddda1612c2225:0xef4cf701466f795d!8m2!3d18.7894088!4d78.0644129!16s%2Fg%2F11ptlkmhhm!19sChIJJSIsYaHdzTsRXXlvRgH3TO8?authuser=0&hl=en&rclk=1,"18.7894088,78.0644129"
Sarkari masjid,Mosque,"4X76+7FF Sarkari masjid, Bhainsa, Telangana 504103",,4X76+7FF,Bhainsa,504103,Telangana,IN,https://www.google.com/maps/place/Sarkari+masjid/data=!4m7!3m6!1s0x3bcdff1e48424da9:0xe5975291b8aab459!8m2!3d19.1131196!4d77.9611631!16s%2Fg%2F11sq9fy4l6!19sChIJqU1CSB7_zTsRWbSquJFSl-U?authuser=0&hl=en&rclk=1,"19.113119599999997,77.9611631"
Momino mosque,Mosque,"4X38+64M Momino mosque, New Abadi, Bhainsa, Telangana 504103",New Abadi,4X38+64M,Bhainsa,504103,Telangana,IN,https://www.google.com/maps/place/Momino+mosque/data=!4m7!3m6!1s0x3bcdfffea979f1ef:0x5d2c7b949536d054!8m2!3d19.1030811!4d77.9652985!16s%2Fg%2F11kqn0r70h!19sChIJ7_F5qf7_zTsRVNA2lZR7LF0?authuser=0&hl=en&rclk=1,"19.1030811,77.9652985"
Jama masjid (Kotalgaom),Mosque,"42X5+48M Jama masjid (Kotalgaom), Kotalgaom, Bhainsa, Kotalgaon, Telangana 504109",Kotalgaom,42X5+48M,"Bhainsa, Kotalgaon",,Telangana,IN,https://www.google.com/maps/place/Jama+masjid+%28Kotalgaom%29/data=!4m7!3m6!1s0x3bcdff620818b4cb:0x849464b5944d2dae!8m2!3d19.1478345!4d78.0082907!16s%2Fg%2F11tnw1x59k!19sChIJy7QYCGL_zTsRri1NlLVklIQ?authuser=0&hl=en&rclk=1,"19.1478345,78.0082907"
Masjid,Mosque,"23HP+VRV Masjid, Lokeshwaram, Telangana 504104",,23HP+VRV,Lokeshwaram,,Telangana,IN,https://www.google.com/maps/place/Masjid/data=!4m7!3m6!1s0x3bcdfb3d97c6beb1:0xffec44d109005d16!8m2!3d19.029744!4d78.0870508!16s%2Fg%2F11sy1hj3tx!19sChIJsb7Glz37zTsRFl0ACdFE7P8?authuser=0&hl=en&rclk=1,"19.029744,78.0870508"
Haji Sahab Masjid,Mosque,"4X76+WR5 Haji Sahab Masjid, Bhainsa, Telangana 504103",,4X76+WR5,Bhainsa,504103,Telangana,IN,https://www.google.com/maps/place/Haji+Sahab+Masjid/data=!4m7!3m6!1s0x3bcdffd89e630f21:0x6958ac2f4082e62d!8m2!3d19.114766!4d77.9621118!16s%2Fg%2F11r0wdt94j!19sChIJIQ9jntj_zTsRLeaCQC-sWGk?authuser=0&hl=en&rclk=1,"19.114766,77.9621118"
Raithufaram Jama masjid,Mosque,"R4RV+H45 Raithufaram Jama masjid, Ailapur, Gunjali, Telangana 503213",,R4RV+H45,"Ailapur, Gunjali",,Telangana,IN,https://www.google.com/maps/place/Raithufaram+Jama+masjid/data=!4m7!3m6!1s0x3bcde93d4b7e0f1d:0xe576038eba38fa5d!8m2!3d18.8413929!4d78.1428718!16s%2Fg%2F11kjhhhps4!19sChIJHQ9-Sz3pzTsRXfo4uo4DduU?authuser=0&hl=en&rclk=1,"18.8413929,78.1428718"
Masjid,Mosque,"RR59+M45 Masjid, Dharmabad To Kundalwadi Rd, Hungunda, Harnali, Maharashtra 431711",,"RR59+M45, Dharmabad To Kundalwadi Rd","Hungunda, Harnali",431711,Maharashtra,IN,https://www.google.com/maps/place/Masjid/data=!4m7!3m6!1s0x3bce0ddc72aec8af:0xd1ba08b96463cfe0!8m2!3d18.8091256!4d77.8178469!16s%2Fg%2F11r96_z36z!19sChIJr8iuctwNzjsR4M9jZLkIutE?authuser=0&hl=en&rclk=1,"18.809125599999998,77.81784689999999"
Masjid e Fatima,Mosque,"4X5G+9P4 Masjid e Fatima, Bhainsa, Telangana 504103",,4X5G+9P4,Bhainsa,504103,Telangana,IN,https://www.google.com/maps/place/Masjid+e+Fatima/data=!4m7!3m6!1s0x3bcdffb3b5a3debf:0x2063de0cbf29b1de!8m2!3d19.1083892!4d77.9768327!16s%2Fg%2F11l29xysl3!19sChIJv96jtbP_zTsR3rEpvwzeYyA?authuser=0&hl=en&rclk=1,"19.108389199999998,77.9768327"
Jama masjid,Mosque,"W49M+X9V Jama masjid, Ummeda, Telangana 503212",,W49M+X9V,Ummeda,503212,Telangana,IN,https://www.google.com/maps/place/Jama+masjid/data=!4m7!3m6!1s0x3bcdef93faeeb94f:0xec403736e47f32be!8m2!3d18.9199843!4d78.1334202!16s%2Fg%2F11k89z8hl2!19sChIJT7nu-pPvzTsRvjJ_5DY3QOw?authuser=0&hl=en&rclk=1,"18.9199843,78.1334202"
Masjid e mohammadiya,Mosque,"4X78+7FX Masjid e mohammadiya, Bhainsa, Telangana 504103",,4X78+7FX,Bhainsa,504103,Telangana,IN,https://www.google.com/maps/place/Masjid+e+mohammadiya/data=!4m7!3m6!1s0x3bcdffafe5575e1f:0xadcb9e0d27ec98a!8m2!3d19.1131596!4d77.9653526!16s%2Fg%2F11qbh1lndc!19sChIJH15X5a__zTsRisl-0uC53Ao?authuser=0&hl=en&rclk=1,"19.1131596,77.9653526"
JAMA MASJID,Mosque,"JAMA MASJID, Machkal, Telangana 504102",,,Machkal,,Telangana,IN,https://www.google.com/maps/place/JAMA+MASJID/data=!4m7!3m6!1s0x3bce073eb765a829:0x30cc2f98dd04e9a1!8m2!3d19.0397058!4d77.9159634!16s%2Fg%2F11pz0fyctc!19sChIJKahltz4HzjsRoekE3ZgvzDA?authuser=0&hl=en&rclk=1,"19.0397058,77.9159634"
