name,main_category,address,address_ward,address_street,address_city,address_postal_code,address_state,address_country_code,link,coordinates
Masjid E Firdous,Mosque,"Masjid E Firdous, Utukur, Lakshettipet, Telangana 504215",,,"Utukur, Lakshettipet",,Telangana,IN,https://www.google.com/maps/place/Masjid+E+Firdous/data=!4m7!3m6!1s0x3bcd480ee90e2c3f:0xfcd8f71cabc7c5c8!8m2!3d18.8884431!4d79.2072006!16s%2Fg%2F1td5721r!19sChIJPywO6Q5IzTsRyMXHqxz32Pw?authuser=0&hl=en&rclk=1,"18.8884431,79.2072006"
Madeena Masjid,Mosque,"V6P3+8XJ Madeena Masjid, Unnamed Road, Lakshettipet, Utukur, Telangana 504215",,"V6P3+8XJ, Unnamed Road","Lakshettipet, Utukur",504215,Telangana,IN,https://www.google.com/maps/place/Madeena+Masjid/data=!4m7!3m6!1s0x3bcd4808b8069611:0xa08757891f8dc24f!8m2!3d18.8858394!4d79.2049032!16s%2Fg%2F11h9rd_j48!19sChIJEZYGuAhIzTsRT8KNH4lXh6A?authuser=0&hl=en&rclk=1,"18.8858394,79.20490319999999"
Masjid E Aqsa,Mosque,"V6M3+CQ7 Masjid E Aqsa, Godavari Rd, Luxettipet, Utukur, Telangana 504215",,"V6M3+CQ7, Godavari Rd","Luxettipet, Utukur",504215,Telangana,IN,https://www.google.com/maps/place/Masjid+E+Aqsa/data=!4m7!3m6!1s0x3bcd4806170503ff:0x41898622cf17800e!8m2!3d18.8835328!4d79.204429!16s%2Fg%2F11dx9f8k5s!19sChIJ_wMFFwZIzTsRDoAXzyKGiUE?authuser=0&hl=en&rclk=1,"18.883532799999998,79.20442899999999"
MASJID,Mosque,"P5MR+3P9 MASJID, Dharmaram, Telangana 505416",,P5MR+3P9,Dharmaram,505416,Telangana,IN,https://www.google.com/maps/place/MASJID/data=!4m7!3m6!1s0x3bcd3a7d9f48ae57:0x86d0cdc6ca2be587!8m2!3d18.7326632!4d79.1918711!16s%2Fg%2F11c1tyx563!19sChIJV65In306zTsRh-UrysbN0IY?authuser=0&hl=en&rclk=1,"18.732663199999998,79.1918711"
Mosque CKDR,Mosque,"R32W+GGP Mosque CKDR, Chilvakodur, Telangana 505532",,R32W+GGP,Chilvakodur,505532,Telangana,IN,https://www.google.com/maps/place/Mosque+CKDR/data=!4m7!3m6!1s0x3bcd3f73b2e10561:0xb05753a7af11049e!8m2!3d18.8013409!4d79.0963389!16s%2Fg%2F11gm8p209y!19sChIJYQXhsnM_zTsRngQRr6dTV7A?authuser=0&hl=en&rclk=1,"18.8013409,79.09633889999999"
Mosque,Mosque,"X52G+R6F Mosque, Mutyampet, Telangana 504206",,X52G+R6F,Mutyampet,504206,Telangana,IN,https://www.google.com/maps/place/Mosque/data=!4m7!3m6!1s0x3bcd466d6eedd661:0x2921ef9d1613e136!8m2!3d18.9520508!4d79.1755405!16s%2Fg%2F11ddxvk81c!19sChIJYdbtbm1GzTsRNuETFp3vISk?authuser=0&hl=en&rclk=1,"18.9520508,79.1755405"
Masjid E Ayesha,Mosque,"V6H2+8JM Masjid E Ayesha, Luxettipet, Telangana 504215",,V6H2+8JM,Luxettipet,504215,Telangana,IN,https://www.google.com/maps/place/Masjid+E+Ayesha/data=!4m7!3m6!1s0x3bcd49d98161d923:0x59d66f4dcf609572!8m2!3d18.8783282!4d79.2015539!16s%2Fg%2F11q24cd0db!19sChIJI9lhgdlJzTsRcpVgz01v1lk?authuser=0&hl=en&rclk=1,"18.8783282,79.2015539"
Masjid-e-Mahmoodunnisa,Mosque,"3435+9WM Masjid-e-Mahmoodunnisa, Thallapet, Tallapet, Telangana 504206",,3435+9WM,"Thallapet, Tallapet",504206,Telangana,IN,https://www.google.com/maps/place/Masjid-e-Mahmoodunnisa/data=!4m7!3m6!1s0x3bcd453f06c5e385:0x8bfd0695f73e7367!8m2!3d19.0534615!4d79.1098047!16s%2Fg%2F11ghs2kky5!19sChIJhePFBj9FzTsRZ3M-95UG_Ys?authuser=0&hl=en&rclk=1,"19.053461499999997,79.1098047"
Masjid,Mosque,"P8PM+23W Masjid, Gudipadu, Telangana 505416",,P8PM+23W,Gudipadu,505416,Telangana,IN,https://www.google.com/maps/place/Masjid/data=!4m7!3m6!1s0x3bcd3255b43543df:0xcc022fc705a04fd2!8m2!3d18.7351001!4d79.3327068!16s%2Fg%2F11g690sl7v!19sChIJ30M1tFUyzTsR0k-gBccvAsw?authuser=0&hl=en&rclk=1,"18.7351001,79.3327068"
Masjid,Mosque,"V6MR+V66 Masjid, Ankathipally, Telangana 504215",,V6MR+V66,Ankathipally,504215,Telangana,IN,https://www.google.com/maps/place/Masjid/data=!4m7!3m6!1s0x3bcd49bdc216284d:0x350592a99ce08e14!8m2!3d18.8846738!4d79.2405227!16s%2Fg%2F11h2hhxpqs!19sChIJTSgWwr1JzTsRFI7gnKmSBTU?authuser=0&hl=en&rclk=1,"18.884673799999998,79.2405227"
Khankha e mohammadi luxettipet,Mosque,"V6G2+MFW Khankha e mohammadi luxettipet, Unnamed Road, Luxettipet, Telangana 504215",,"V6G2+MFW, Unnamed Road",Luxettipet,504215,Telangana,IN,https://www.google.com/maps/place/Khankha+e+mohammadi+luxettipet/data=!4m7!3m6!1s0x3bcd494724f49b4d:0x987539901e1b05d2!8m2!3d18.8767471!4d79.2012099!16s%2Fg%2F11nt4bv2g0!19sChIJTZv0JEdJzTsR0gUbHpA5dZg?authuser=0&hl=en&rclk=1,"18.8767471,79.2012099"
Masjid e Amina Abdullah Rashod,Mosque,"X5W3+5FW Masjid e Amina Abdullah Rashod, bolishetty rajanna mro office, Dantepally, Telangana 504206",,"X5W3+5FW, bolishetty rajanna mro office",Dantepally,504206,Telangana,IN,https://www.google.com/maps/place/Masjid+e+Amina+Abdullah+Rashod/data=!4m7!3m6!1s0x3bcd45765b74900f:0xabe4778fa50cba8c!8m2!3d18.9954814!4d79.1537153!16s%2Fg%2F11n25bc1t1!19sChIJD5B0W3ZFzTsRjLoMpY935Ks?authuser=0&hl=en&rclk=1,"18.9954814,79.1537153"
Masjid,Mosque,"V7J4+GG5 Masjid, Telangana 504215",,V7J4+GG5,,504215,Telangana,IN,https://www.google.com/maps/place/Masjid/data=!4m7!3m6!1s0x3bcd4949a9bf89a1:0xfedf2abfb93c1c36!8m2!3d18.8812544!4d79.2563521!16s%2Fg%2F11rw9wcgw5!19sChIJoYm_qUlJzTsRNhw8ub8q3_4?authuser=0&hl=en&rclk=1,"18.8812544,79.2563521"
MASJID -E-HUDA,Mosque,"V9C6+23C MASJID -E-HUDA, Gudipet, Telangana 504209",,V9C6+23C,Gudipet,504209,Telangana,IN,https://www.google.com/maps/place/MASJID+-E-HUDA/data=!4m7!3m6!1s0x3bcd356b38b7731f:0xc3294b0d95965bcf!8m2!3d18.8700652!4d79.3601319!16s%2Fg%2F11sstt55j6!19sChIJH3O3OGs1zTsRz1uWlQ1LKcM?authuser=0&hl=en&rclk=1,"18.8700652,79.3601319"
MASJID- E- HUDA,Mosque,"V994+7H7 MASJID- E- HUDA, Gudipet, Telangana 504209",,V994+7H7,Gudipet,504209,Telangana,IN,https://www.google.com/maps/place/MASJID-+E-+HUDA/data=!4m7!3m6!1s0x3bcd35851ef1ea0d:0x28b2fd586b6d1379!8m2!3d18.8681534!4d79.3564285!16s%2Fg%2F11kjjp9bk1!19sChIJDerxHoU1zTsReRNta1j9sig?authuser=0&hl=en&rclk=1,"18.8681534,79.35642849999999"
Masjid - E - Mahamaadiya,Mosque,"R5F3+635 Masjid - E - Mahamaadiya, Unnamed Road, Jagdevpet, Telangana 505526",,"R5F3+635, Unnamed Road",Jagdevpet,505526,Telangana,IN,https://www.google.com/maps/place/Masjid+-+E+-+Mahamaadiya/data=!4m7!3m6!1s0x3bcd392b8cb46fcb:0x3d2e7f72c42bba7!8m2!3d18.8230147!4d79.1527337!16s%2Fg%2F11np4sc5d4!19sChIJy2-0jCs5zTsRp7tCLPfn0gM?authuser=0&hl=en&rclk=1,"18.823014699999998,79.1527337"
Jama masjid luxettipet,Mosque,"W656+7GJ Jama masjid luxettipet, Luxettipet, Utukur, Telangana 504215",,W656+7GJ,"Luxettipet, Utukur",504215,Telangana,IN,https://www.google.com/maps/place/Jama+masjid+luxettipet/data=!4m7!3m6!1s0x3bcd495e1c762f25:0xa0cfa07634d3bb03!8m2!3d18.9082189!4d79.2112769!16s%2Fg%2F11vf2fh6z5!19sChIJJS92HF5JzTsRA7vTNHagz6A?authuser=0&hl=en&rclk=1,"18.908218899999998,79.2112769"
Badi masjid,Mosque,"V6M4+6G6 Badi masjid, Luxettipet, Utukur, Telangana 504215",,V6M4+6G6,"Luxettipet, Utukur",504215,Telangana,IN,https://www.google.com/maps/place/Badi+masjid/data=!4m7!3m6!1s0x3bcd4983c8455595:0x967acd0ca59d0e65!8m2!3d18.8830416!4d79.2062597!16s%2Fg%2F11vf2g1rj5!19sChIJlVVFyINJzTsRZQ6dpQzNepY?authuser=0&hl=en&rclk=1,"18.8830416,79.20625969999999"
MASJID E COURT AREA LUXETTIPET,Mosque,"V6Q3+JGJ MASJID E COURT AREA LUXETTIPET, Utukur, Telangana 504215",,V6Q3+JGJ,Utukur,504215,Telangana,IN,https://www.google.com/maps/place/MASJID+E+COURT+AREA+LUXETTIPET/data=!4m7!3m6!1s0x3bcd49085fcf7d37:0xb9935c9de9f0090d!8m2!3d18.8890885!4d79.2037506!16s%2Fg%2F11nn43__y4!19sChIJN33PXwhJzTsRDQnw6Z1ck7k?authuser=0&hl=en&rclk=1,"18.8890885,79.20375059999999"
Eid Gah,Mosque,"V6R3+844 Eid Gah, Lakshettipet, Utukur, Telangana 504215",,V6R3+844,"Lakshettipet, Utukur",504215,Telangana,IN,https://www.google.com/maps/place/Eid+Gah/data=!4m7!3m6!1s0x3bcd49633e4aa623:0xc8ba704d0873bb4a!8m2!3d18.8907702!4d79.202828!16s%2Fg%2F11q_1t7gt0!19sChIJI6ZKPmNJzTsRSrtzCE1wusg?authuser=0&hl=en&rclk=1,"18.8907702,79.202828"
Mohemmadia masjid,Mosque,"R5FR+M62 Mohemmadia masjid, Near, Velgatoor, Telangana 505526",,"R5FR+M62, Near",Velgatoor,505526,Telangana,IN,https://www.google.com/maps/place/Mohemmadia+masjid/data=!4m7!3m6!1s0x3bcd396e0c55724d:0x9246d89c35515730!8m2!3d18.8241423!4d79.1905173!16s%2Fg%2F11vj4pvttk!19sChIJTXJVDG45zTsRMFdRNZzYRpI?authuser=0&hl=en&rclk=1,"18.8241423,79.1905173"
Masjid e Saleh,Mosque,"X5W3+5FW Masjid e Saleh, bolishetty rajanna mro office, Dantepally, Telangana 504206",,"X5W3+5FW, bolishetty rajanna mro office",Dantepally,504206,Telangana,IN,https://www.google.com/maps/place/Masjid+e+Saleh/data=!4m7!3m6!1s0x3bcd45dc06307c6d:0xb5279caa5d165fe6!8m2!3d18.9954959!4d79.1537098!16s%2Fg%2F11n258mlmb!19sChIJbXwwBtxFzTsR5l8WXaqcJ7U?authuser=0&hl=en&rclk=1,"18.995495899999998,79.1537098"
Masjid e huda,Mosque,"V952+923 Masjid e huda, Sreepada Yellampalli Project Rd, Gudipet, Telangana 504209",,"V952+923, Sreepada Yellampalli Project Rd",Gudipet,,Telangana,IN,https://www.google.com/maps/place/Masjid+e+huda/data=!4m7!3m6!1s0x3bcd35a4b83cc6fb:0x359de6bfb8d84da8!8m2!3d18.8583928!4d79.350041!16s%2Fg%2F11kjjnt7pp!19sChIJ-8Y8uKQ1zTsRqE3YuL_mnTU?authuser=0&hl=en&rclk=1,"18.8583928,79.35004099999999"
MADHINA MASJID,Mosque,"MADHINA MASJID, 3-89, Jagtial - Dharmaram X Rd, near Hanuman Temple, Gullakota, Telangana 505526",,"3-89, Jagtial - Dharmaram X Rd, near Hanuman Temple",Gullakota,505526,Telangana,IN,https://www.google.com/maps/place/MADHINA+MASJID/data=!4m7!3m6!1s0x3bcd3b75753f01b5:0x4e63da8a32d3166d!8m2!3d18.7719137!4d79.1495881!16s%2Fg%2F11kjm5z6l5!19sChIJtQE_dXU7zTsRbRbTMoraY04?authuser=0&hl=en&rclk=1,"18.7719137,79.1495881"
Mosque,Mosque,"Q648+MRH Mosque, Pathagudur, Telangana 505416",,Q648+MRH,Pathagudur,505416,Telangana,IN,https://www.google.com/maps/place/Mosque/data=!4m7!3m6!1s0x3bcd312a04e689b7:0x3ed7debf2c70a13b!8m2!3d18.7566959!4d79.217114!16s%2Fg%2F11fhypx8lq!19sChIJt4nmBCoxzTsRO6FwLL_e1z4?authuser=0&hl=en&rclk=1,"18.7566959,79.217114"
Jama Masjid,Mosque,"V6G3+54W Jama Masjid, Luxettipet, Telangana 504215",,V6G3+54W,Luxettipet,,Telangana,IN,https://www.google.com/maps/place/Jama+Masjid/data=!4m7!3m6!1s0x3bcd4970ae68eff7:0x61bbf5e4054c084d!8m2!3d18.8754757!4d79.2028155!16s%2Fg%2F11sdxmbcv_!19sChIJ9-9ornBJzTsRTQhMBeT1u2E?authuser=0&hl=en&rclk=1,"18.8754757,79.2028155"
