name,main_category,address,address_ward,address_street,address_city,address_postal_code,address_state,address_country_code,link,coordinates
Padmanabhapuram Palace,Historical landmark,"Padmanabhapuram Palace, Chakala, Thuckalay, Tamil Nadu 629175",Chakala,,Thuckalay,629175,Tamil Nadu,IN,https://www.google.com/maps/place/Padmanabhapuram+Palace/data=!4m7!3m6!1s0x3b04f8f729d2073d:0x257c390ae191b06f!8m2!3d8.2507431!4d77.3266987!16zL20vMDV0c2M3!19sChIJPQfSKff4BDsRb7CR4Qo5fCU?authuser=0&hl=en&rclk=1,"8.2507431,77.3266987"
Jumma masjid,Mosque,"6FHJ+7XF Jumma masjid, mosque st,layam, Madhavalayam",,"6FHJ+7XF, mosque st,layam",Madhavalayam,,Tamil Nadu,IN,https://www.google.com/maps/place/Jumma+masjid/data=!4m7!3m6!1s0x3b04f43b16649e99:0xb2035a2fe9d5c90a!8m2!3d8.2281868!4d77.4824202!16s%2Fg%2F11b8_rt74_!19sChIJmZ5kFjv0BDsRCsnV6S9aA7I?authuser=0&hl=en&rclk=1,"8.2281868,77.48242019999999"
Kanjampuram Jummah Masjid,Mosque,"Kanjampuram Jummah Masjid, Mampazhanji Rd, Kanjampuram, Ezhudesam, Tamil Nadu 629154",Kanjampuram,Mampazhanji Rd,Ezhudesam,629154,Tamil Nadu,IN,https://www.google.com/maps/place/Kanjampuram+Jummah+Masjid/data=!4m7!3m6!1s0x3b05007de46d328d:0xae769dc7ca11aa0d!8m2!3d8.2709761!4d77.1511404!16s%2Fg%2F11b6wjrlwv!19sChIJjTJt5H0ABTsRDaoRyseddq4?authuser=0&hl=en&rclk=1,"8.2709761,77.1511404"
Jamiul Manar (JAQH),Mosque,"77V4+96G Jamiul Manar (JAQH), kuruvilaikadu Eraviputhoorkadai, Tamil Nadu 629158",,77V4+96G,kuruvilaikadu Eraviputhoorkadai,629158,Tamil Nadu,IN,https://www.google.com/maps/place/Jamiul+Manar+%28JAQH%29/data=!4m7!3m6!1s0x3b045543d7effd31:0x7b5d117f4a35526c!8m2!3d8.2934296!4d77.2555718!16s%2Fg%2F11g0lh0f28!19sChIJMf3v10NVBDsRbFI1Sn8RXXs?authuser=0&hl=en&rclk=1,"8.2934296,77.2555718"
Beemapally Masjid,Mosque,"Beemapally Masjid, Valiyathura - Beemapally - Poonthura Rd, Muttathara, Thiruvananthapuram, Kerala 695008",Muttathara,Valiyathura - Beemapally - Poonthura Rd,Thiruvananthapuram,695008,Kerala,IN,https://www.google.com/maps/place/Beemapally+Masjid/data=!4m7!3m6!1s0x3b05bb43dccbd943:0xaf56d0d115090a60!8m2!3d8.4560269!4d76.9344003!16s%2Fg%2F1q5blpfnb!19sChIJQ9nL3EO7BTsRYAoJFdHQVq8?authuser=0&hl=en&rclk=1,"8.4560269,76.9344003"
Peer Mohammed Appa Dargha and Auditorium,Mosque,"68W8+RCX Peer Mohammed Appa Dargha and Auditorium, Dargha Road, Thuckalay, Tamil Nadu 629175",Chakala,"68W8+RCX, Dargha Road",Thuckalay,629175,Tamil Nadu,IN,https://www.google.com/maps/place/Peer+Mohammed+Appa+Dargha+and+Auditorium/data=!4m7!3m6!1s0x3b04f8e5efa20c59:0x24d09e8c1d90d1af!8m2!3d8.2471189!4d77.3161091!16s%2Fg%2F124ypl0h4!19sChIJWQyi7-X4BDsRr9GQHYye0CQ?authuser=0&hl=en&rclk=1,"8.2471189,77.31610909999999"
Thittuvilai Jumma Masjid,Mosque,"7CFR+C55 Thittuvilai Jumma Masjid, SH 45, Thittuvilai, Tamil Nadu 629852",,"7CFR+C55, SH 45",Thittuvilai,629852,Tamil Nadu,IN,https://www.google.com/maps/place/Thittuvilai+Jumma+Masjid/data=!4m7!3m6!1s0x3b04f624b3771081:0xe4c41988dfa4b15d!8m2!3d8.2735062!4d77.4404892!16s%2Fg%2F11cfhlg_c!19sChIJgRB3syT2BDsRXbGk34gZxOQ?authuser=0&hl=en&rclk=1,"8.2735062,77.4404892"
Masjid-E-Salma,Mosque,"Masjid-E-Salma, 12-2-709/C/139, Karol Bagh Rd, Padmanabha Nagar, Rethibowli, Hyderabad, Telangana 500008","Padmanabha Nagar, Rethibowli, Mehdipatnam","12-2-709/C/139, Karol Bagh Rd",Hyderabad,500008,Telangana,IN,https://www.google.com/maps/place/Masjid-E-Salma/data=!4m7!3m6!1s0x3bcb96e28b3e2b75:0xbc53ee0736eeee10!8m2!3d17.3923515!4d78.4284125!16s%2Fg%2F1pp2tybry!19sChIJdSs-i-KWyzsREO7uNgfuU7w?authuser=0&hl=en&rclk=1,"17.3923515,78.4284125"
Puthumanai Jumma Masjid Kothba Pallivasal,Mosque,"PP35+HC4 Puthumanai Jumma Masjid Kothba Pallivasal, Melapalayam, Tirunelveli, Tamil Nadu 627005",Melapalayam,PP35+HC4,Tirunelveli,627005,Tamil Nadu,IN,https://www.google.com/maps/place/Puthumanai+Jumma+Masjid+Kothba+Pallivasal/data=!4m7!3m6!1s0x3b041237a84ab483:0xe4c5596758a6b4f3!8m2!3d8.7038894!4d77.7085687!16s%2Fg%2F1w6_m7pr!19sChIJg7RKqDcSBDsR87SmWGdZxeQ?authuser=0&hl=en&rclk=1,"8.7038894,77.7085687"
Kulasekharam Mosque,Mosque,"977X+95W Kulasekharam Mosque, SH 90, Kulasekharam, Tamil Nadu 629161",,"977X+95W, SH 90",Kulasekharam,629161,Tamil Nadu,IN,https://www.google.com/maps/place/Kulasekharam+Mosque/data=!4m7!3m6!1s0x3b0456ad627c18e1:0x66af1869bcda6890!8m2!3d8.3634953!4d77.297953!16s%2Fg%2F1tlzyltx!19sChIJ4Rh8Yq1WBDsRkGjavGkYr2Y?authuser=0&hl=en&rclk=1,"8.3634953,77.29795299999999"
Peruvilai Jumma Mosque,Mosque,"59PX+G7F Peruvilai Jumma Mosque, Parvathipuram - Asaripallam Rd, Peruvilai, Nagercoil, Tamil Nadu 629003",,"59PX+G7F, Parvathipuram - Asaripallam Rd","Peruvilai, Nagercoil",629003,Tamil Nadu,IN,https://www.google.com/maps/place/Peruvilai+Jumma+Mosque/data=!4m7!3m6!1s0x3b04f0b77e1a460b:0x893dc48d41fbcbdc!8m2!3d8.1863174!4d77.3981838!16s%2Fg%2F1tfk2w4c!19sChIJC0YafrfwBDsR3Mv7QY3EPYk?authuser=0&hl=en&rclk=1,"8.1863174,77.3981838"
Kanyakumari jumma masjid,Mosque,"Kanyakumari jumma masjid, Muslim St, Kanyakumari, Tamil Nadu 629702",,Muslim St,Kanyakumari,629702,Tamil Nadu,IN,https://www.google.com/maps/place/Kanyakumari+jumma+masjid/data=!4m7!3m6!1s0x3b04ed3a3081340f:0x265af9a8ee155703!8m2!3d8.0884775!4d77.5483015!16s%2Fg%2F11c2092dvs!19sChIJDzSBMDrtBDsRA1cV7qj5WiY?authuser=0&hl=en&rclk=1,"8.0884775,77.5483015"
Kuthpa Pallivasal,Mosque,"5CVJ+26G Kuthpa Pallivasal, Puthukudierupu, Vadasery, Nagercoil, Tamil Nadu 629001",Puthukudierupu,5CVJ+26G,"Vadasery, Nagercoil",629001,Tamil Nadu,IN,https://www.google.com/maps/place/Kuthpa+Pallivasal/data=!4m7!3m6!1s0x3b04f12ea8ff36a1:0xdc7369cd11f3488c!8m2!3d8.1925548!4d77.4305902!16s%2Fg%2F124ycz70q!19sChIJoTb_qC7xBDsRjEjzEc1pc9w?authuser=0&hl=en&rclk=1,"8.1925548,77.4305902"
Mondaymarket Masjid,Mosque,"58X3+R2R Mondaymarket Masjid, Thingal Nagar, Tamil Nadu 629802",,58X3+R2R,Thingal Nagar,629802,Tamil Nadu,IN,https://www.google.com/maps/place/Mondaymarket+Masjid/data=!4m7!3m6!1s0x3b04f95be13ad291:0x9221eb2f58d196c!8m2!3d8.1996009!4d77.3025088!16s%2Fg%2F11c54bpcc4!19sChIJkdI64Vv5BDsRbBmN9bIeIgk?authuser=0&hl=en&rclk=1,"8.1996009,77.3025088"
Manalikarai Jumma Masjid,Mosque,"78X5+VWX Manalikarai Jumma Masjid, Muslim street, Manalikarai, Tamil Nadu 629164",,"78X5+VWX, Muslim street",Manalikarai,629164,Tamil Nadu,IN,https://www.google.com/maps/place/Manalikarai+Jumma+Masjid/data=!4m7!3m6!1s0x3b04563fdc3e6f5b:0xdd7edf8c7cd611eb!8m2!3d8.2997483!4d77.3098556!16s%2Fg%2F12637ndsh!19sChIJW28-3D9WBDsR6xHWfIzfft0?authuser=0&hl=en&rclk=1,"8.2997483,77.30985559999999"
Thuckalay Thowheed Centre,Mosque,"Thuckalay Thowheed Centre, 24/17C, Thowheed Street, Chakala, Thuckalay, Tamil Nadu 629175",Chakala,"24/17C, Thowheed Street",Thuckalay,629175,Tamil Nadu,IN,https://www.google.com/maps/place/Thuckalay+Thowheed+Centre/data=!4m7!3m6!1s0x3b04f8ef4befc2bf:0xbd7f3bce5a5de880!8m2!3d8.2492011!4d77.3156745!16s%2Fg%2F12hr5vw8t!19sChIJv8LvS-_4BDsRgOhdWs47f70?authuser=0&hl=en&rclk=1,"8.2492011,77.3156745"
Haneefa Nagar Masjid,Mosque,"Haneefa Nagar Masjid, Paal Pannai (Kanya Milk), HANEEFA NAGAR, Kottar-Parvathipuram Rd, next to AAVIN, Nagercoil, Tamil Nadu 629001",,"Paal Pannai (Kanya Milk), HANEEFA NAGAR, Kottar-Parvathipuram Rd, next to AAVIN",Nagercoil,629001,Tamil Nadu,IN,https://www.google.com/maps/place/Haneefa+Nagar+Masjid/data=!4m7!3m6!1s0x3b04f0dac9ec8a6d:0xcc43d287c730f627!8m2!3d8.1852865!4d77.4134036!16s%2Fg%2F124yk8_8c!19sChIJbYrsydrwBDsRJ_Ywx4fSQ8w?authuser=0&hl=en&rclk=1,"8.1852865,77.4134036"
APMA Jumma Masjid,Mosque,"68X9+7HR APMA Jumma Masjid, Mosque Street, Chakala, Thuckalay, Tamil Nadu 629175",Chakala,"68X9+7HR, Mosque Street",Thuckalay,629175,Tamil Nadu,IN,https://www.google.com/maps/place/APMA+Jumma+Masjid/data=!4m7!3m6!1s0x3b04f8ef8626ee51:0x81e6200e0701dab0!8m2!3d8.2482375!4d77.3188906!16s%2Fg%2F11cff55qg!19sChIJUe4mhu_4BDsRsNoBBw4g5oE?authuser=0&hl=en&rclk=1,"8.2482375,77.3188906"
Manavalakurichi Jummah Masjid,Mosque,"48X3+2WF Manavalakurichi Jummah Masjid, Manavalakurichi, Tamil Nadu 629252",,48X3+2WF,Manavalakurichi,629252,Tamil Nadu,IN,https://www.google.com/maps/place/Manavalakurichi+Jummah+Masjid/data=!4m7!3m6!1s0x3b04fb743bff8f9b:0x8359e901adea6d08!8m2!3d8.1475601!4d77.3047919!16s%2Fg%2F11c56r5fzp!19sChIJm4__O3T7BDsRCG3qrQHpWYM?authuser=0&hl=en&rclk=1,"8.1475601,77.3047919"
Jumma Masjid,Mosque,"57F4+GH6 Jumma Masjid, Colachel, Tamil Nadu 629251",,57F4+GH6,Colachel,629251,Tamil Nadu,IN,https://www.google.com/maps/place/Jumma+Masjid/data=!4m7!3m6!1s0x3b04fc39200975e5:0x1302bced281f8126!8m2!3d8.173786!4d77.2563834!16s%2Fg%2F11ckxfc6hx!19sChIJ5XUJIDn8BDsRJoEfKO28AhM?authuser=0&hl=en&rclk=1,"8.173786,77.25638339999999"
TNTJ Thiruvithancode Masjid,Mosque,"THURAPPU, TNTJ Thiruvithancode Masjid, JUNCTION, Thiruvattar - Colachel Rd, Thiruvithankodu, Thiruvithamcode, Tamil Nadu 629174",,"THURAPPU, JUNCTION, Thiruvattar - Colachel Rd","Thiruvithankodu, Thiruvithamcode",629174,Tamil Nadu,IN,https://www.google.com/maps/place/TNTJ+Thiruvithancode+Masjid/data=!4m7!3m6!1s0x3b04f8c591e84937:0x79622416f11ccbbe!8m2!3d8.251021!4d77.2987499!16s%2Fg%2F11c0qh19kn!19sChIJN0nokcX4BDsRvssc8RYkYnk?authuser=0&hl=en&rclk=1,"8.251021,77.29874989999999"
"Hidayathul Islam Jama-ath masjid, Idichakkaplamoodu",Mosque,"944R+WCW Hidayathul Islam Jama-ath masjid, Idichakkaplamoodu, Panvel - Kochi - Kanyakumari Hwy, Idichakkaplamoodu, Parassala, Parasuvaikkal, Kerala 695502",Idichakkaplamoodu,"944R+WCW, Panvel - Kochi - Kanyakumari Hwy","Parassala, Parasuvaikkal",695502,Kerala,IN,"https://www.google.com/maps/place/Hidayathul+Islam+Jama-ath+masjid,+Idichakkaplamoodu/data=!4m7!3m6!1s0x3b05ab86e16b525f:0x926068af40a4c91a!8m2!3d8.3573593!4d77.1410848!16s%2Fg%2F1ptyyt9p0!19sChIJX1Jr4YarBTsRGsmkQK9oYJI?authuser=0&hl=en&rclk=1","8.357359299999999,77.1410848"
Masjid Makkai Palayam,Mosque,"68W8+VP2 Masjid Makkai Palayam, Darga Road, Chakala, Thuckalay, Tamil Nadu 629175",Chakala,"68W8+VP2, Darga Road",Thuckalay,629175,Tamil Nadu,IN,https://www.google.com/maps/place/Masjid+Makkai+Palayam/data=!4m7!3m6!1s0x3b04f8e5932b2017:0x1a4a9ec9e1009c94!8m2!3d8.2471488!4d77.316768!16s%2Fg%2F11cfh2y8s!19sChIJFyArk-X4BDsRlJwA4cmeSho?authuser=0&hl=en&rclk=1,"8.2471488,77.316768"
Malik Deenar Juma Mosque Valiyapalli,Mosque,"65QC+VP6 Malik Deenar Juma Mosque Valiyapalli, Valiyapalli Road, Thengapattanam, Tamil Nadu 629173",,"65QC+VP6, Valiyapalli Road",Thengapattanam,629173,Tamil Nadu,IN,https://www.google.com/maps/place/Malik+Deenar+Juma+Mosque+Valiyapalli/data=!4m7!3m6!1s0x3b050036182ff7f7:0x2f791b3535dac7db!8m2!3d8.2396502!4d77.1717715!16s%2Fg%2F1thtbkmd!19sChIJ9_cvGDYABTsR28faNTUbeS8?authuser=0&hl=en&rclk=1,"8.2396502,77.17177149999999"
Arumaloor Mosque,Mosque,"F3GF+7R3 Arumaloor Mosque, Neyyattinkara Kattakkada Rd, Arumaloor, Kerala 695512",,"F3GF+7R3, Neyyattinkara Kattakkada Rd",Arumaloor,695512,Kerala,IN,https://www.google.com/maps/place/Arumaloor+Mosque/data=!4m7!3m6!1s0x3b05b1bcb18fcb57:0xe6854583e3f4d9d5!8m2!3d8.4756421!4d77.0745493!16s%2Fg%2F1yf4rdyyr!19sChIJV8uPsbyxBTsR1dn044NFheY?authuser=0&hl=en&rclk=1,"8.4756421,77.0745493"
Jumma Masjid,Mosque,"77MX+6Q7 Jumma Masjid, Mekkamandapam, Tamil Nadu 629166",,77MX+6Q7,Mekkamandapam,629166,Tamil Nadu,IN,https://www.google.com/maps/place/Jumma+Masjid/data=!4m7!3m6!1s0x3b04561cdd4fb3c5:0x26c8db09e77b9b24!8m2!3d8.2830343!4d77.2994211!16s%2Fg%2F11_sdhjx1!19sChIJxbNP3RxWBDsRJJt75wnbyCY?authuser=0&hl=en&rclk=1,"8.283034299999999,77.2994211"
Jumma Masjid Mantharamputhoor,Mosque,"4GG5+6F2 Jumma Masjid Mantharamputhoor, Muhaideen puram, Thamaraikulam",,"4GG5+6F2, Muhaideen puram",Thamaraikulam,,Tamil Nadu,IN,https://www.google.com/maps/place/Jumma+Masjid+Mantharamputhoor/data=!4m7!3m6!1s0x3b04f27b34b50e21:0x10b25f1158f939aa!8m2!3d8.1255052!4d77.5086465!16s%2Fg%2F11btxkt36n!19sChIJIQ61NHvyBDsRqjn5WBFfshA?authuser=0&hl=en&rclk=1,"8.1255052,77.5086465"
Periya Palli,Mosque,"57F4+GGH Periya Palli, SH 46, Colachel, Tamil Nadu 629251",,"57F4+GGH, SH 46",Colachel,629251,Tamil Nadu,IN,https://www.google.com/maps/place/Periya+Palli/data=!4m7!3m6!1s0x3b04fc39202cd6a7:0x3839f2966c3a9f5e!8m2!3d8.1738166!4d77.2563653!16s%2Fg%2F1tf78jkz!19sChIJp9YsIDn8BDsRXp86bJbyOTg?authuser=0&hl=en&rclk=1,"8.1738166,77.2563653"
Azhagiyamandapam Mosque,Mosque,"776Q+5PW Azhagiyamandapam Mosque, Salem - Kochi Highway, Azhagiyamandapam, Tamil Nadu 629167",,"776Q+5PW, Salem - Kochi Highway",Azhagiyamandapam,629167,Tamil Nadu,IN,https://www.google.com/maps/place/Azhagiyamandapam+Mosque/data=!4m7!3m6!1s0x3b04f90c40b3f773:0x9e4c9c3fe271b9c3!8m2!3d8.2604947!4d77.2893133!16s%2Fg%2F11fk422dnf!19sChIJc_ezQAz5BDsRw7lx4j-cTJ4?authuser=0&hl=en&rclk=1,"8.260494699999999,77.2893133"
Jumma Masjid,Mosque,"HHMP+3P2 Jumma Masjid, Middle St, Idayankulam, Idaiyankulam, Tamil Nadu 627502",,"HHMP+3P2, Middle St","Idayankulam, Idaiyankulam",627502,Tamil Nadu,IN,https://www.google.com/maps/place/Jumma+Masjid/data=!4m7!3m6!1s0x3b046a5dbbbf607b:0xf2ab50ededba0997!8m2!3d8.5826291!4d77.5867742!16s%2Fg%2F11f2b6z9tx!19sChIJe2C_u11qBDsRlwm67e1Qq_I?authuser=0&hl=en&rclk=1,"8.5826291,77.5867742"
Eraviputhoorkadai Jumma Masjid,Mosque,"Eraviputhoorkadai Jumma Masjid, Eraviputhoorkadai Junction, NH 66, Veeyanoor, Tamil Nadu 629158",,"Eraviputhoorkadai Junction, NH 66",Veeyanoor,629158,Tamil Nadu,IN,https://www.google.com/maps/place/Eraviputhoorkadai+Jumma+Masjid/data=!4m7!3m6!1s0x3b045594006b87f3:0x8830af8ff9224259!8m2!3d8.2945339!4d77.2578781!16s%2Fg%2F11c7sr01fy!19sChIJ84drAJRVBDsRWUIi-Y-vMIg?authuser=0&hl=en&rclk=1,"8.2945339,77.2578781"
Puthanthurai Juma Masjid,Mosque,"65GJ+8R3 Puthanthurai Juma Masjid, Enayam, Tamil Nadu 629193",,65GJ+8R3,Enayam,629193,Tamil Nadu,IN,https://www.google.com/maps/place/Puthanthurai+Juma+Masjid/data=!4m7!3m6!1s0x3b0501ce2be8a3c5:0x722da2d0b6bb609f!8m2!3d8.2257605!4d77.1820443!16s%2Fg%2F124ynlr1f!19sChIJxaPoK84BBTsRn2C7ttCiLXI?authuser=0&hl=en&rclk=1,"8.2257605,77.1820443"
"Muhaideen Jumma Masjid, Rahmath Nagar",Mosque,"Q8WM+828 Muhaideen Jumma Masjid, Rahmath Nagar, Sambankulam Rd, Alagappapuram, Tamil Nadu 627412",,"Q8WM+828, Sambankulam Rd",Alagappapuram,627412,Tamil Nadu,IN,"https://www.google.com/maps/place/Muhaideen+Jumma+Masjid,+Rahmath+Nagar/data=!4m7!3m6!1s0x3b04302ab502dc83:0x9c43d42d022e9524!8m2!3d8.7957975!4d77.3325813!16s%2Fg%2F11bbygmkd_!19sChIJg9wCtSowBDsRJJUuAi3UQ5w?authuser=0&hl=en&rclk=1","8.795797499999999,77.3325813"
Muhaideen Jumma Masjid Verkilambi.,Mosque,"77VV+R9G Muhaideen Jumma Masjid Verkilambi., SH 180, Verkilambi, Tamil Nadu 629166",,"77VV+R9G, SH 180",Verkilambi,629166,Tamil Nadu,IN,https://www.google.com/maps/place/Muhaideen+Jumma+Masjid+Verkilambi./data=!4m7!3m6!1s0x3b04560ebda07345:0xc63d6bf3a720f9da!8m2!3d8.2945528!4d77.2934505!16s%2Fg%2F1ptvzggsl!19sChIJRXOgvQ5WBDsR2vkgp_NrPcY?authuser=0&hl=en&rclk=1,"8.2945528,77.29345049999999"
Muhiyadeen Jummah Masjid.,Mosque,"Muhiyadeen Jummah Masjid., Kadayal, Kaliyal P.O, Kadayal, Tamil Nadu 629191",,"Kadayal, Kaliyal P.O",Kadayal,629191,Tamil Nadu,IN,https://www.google.com/maps/place/Muhiyadeen+Jummah+Masjid./data=!4m7!3m6!1s0x3b0453cacdf713b5:0x37ee79289049874!8m2!3d8.406913!4d77.265644!16s%2Fg%2F1hc1v5h20!19sChIJtRP3zcpTBDsRdJgEiZLnfgM?authuser=0&hl=en&rclk=1,"8.406913,77.265644"
Muhaideen Jumma Masjid,Mosque,"MM24+5P4 Muhaideen Jumma Masjid, Melaomanallur, Tamil Nadu 627451",,MM24+5P4,Melaomanallur,627451,Tamil Nadu,IN,https://www.google.com/maps/place/Muhaideen+Jumma+Masjid/data=!4m7!3m6!1s0x3b041359269e6929:0xa36d640fcda83620!8m2!3d8.6503999!4d77.6568378!16s%2Fg%2F11c7wff85_!19sChIJKWmeJlkTBDsRIDaozQ9kbaM?authuser=0&hl=en&rclk=1,"8.6503999,77.65683779999999"
Atthikadai Jummah Masjid,Mosque,"4CM5+22J Atthikadai Jummah Masjid, Atthikadai, Tamil Nadu 629501",,4CM5+22J,Atthikadai,629501,Tamil Nadu,IN,https://www.google.com/maps/place/Atthikadai+Jummah+Masjid/data=!4m7!3m6!1s0x3b04f1dbe6969317:0x2356d604fe3d4141!8m2!3d8.1325759!4d77.4075225!16s%2Fg%2F11fcrw9qs1!19sChIJF5OW5tvxBDsRQUE9_gTWViM?authuser=0&hl=en&rclk=1,"8.132575899999999,77.4075225"
JAQH - Masjid Rahman,Mosque,"659R+MR5 JAQH - Masjid Rahman, Eniya Nagar, Enayam, Kilkulam, Tamil Nadu 629193",,"659R+MR5, Eniya Nagar, Enayam",Kilkulam,629193,Tamil Nadu,IN,https://www.google.com/maps/place/JAQH+-+Masjid+Rahman/data=!4m7!3m6!1s0x3b0501d8e4ba1d8d:0x113e7dd2bab83b2b!8m2!3d8.219125!4d77.1921206!16s%2Fg%2F124ymc9r7!19sChIJjR265NgBBTsRKzu4utJ9PhE?authuser=0&hl=en&rclk=1,"8.219125,77.1921206"
Jumma Masjid,Mosque,"6JG4+PWQ Jumma Masjid, Sembigulam, Tamil Nadu 627116",,6JG4+PWQ,Sembigulam,627116,Tamil Nadu,IN,https://www.google.com/maps/place/Jumma+Masjid/data=!4m7!3m6!1s0x3b048b0a9b76ea2b:0xfe09bf93dad59e02!8m2!3d8.2268449!4d77.6073682!16s%2Fg%2F1tfsldxn!19sChIJK-p2mwqLBDsRAp7V2pO_Cf4?authuser=0&hl=en&rclk=1,"8.2268449,77.6073682"
Al Buhari Juma Masjid,Mosque,"777W+299 Al Buhari Juma Masjid, Azhagiyamandapam Azhagiyamandapam bus station opposite, Tamil Nadu 629167",,"777W+299, Azhagiyamandapam Azhagiyamandapam bus station opposite",Azahiamandapam,629167,Tamil Nadu,IN,https://www.google.com/maps/place/Al+Buhari+Juma+Masjid/data=!4m7!3m6!1s0x3b04f8b73bb4ca3d:0x84eddf85a5a177ef!8m2!3d8.2625395!4d77.2959694!16s%2Fg%2F11cm71d67n!19sChIJPcq0O7f4BDsR73ehpYXf7YQ?authuser=0&hl=en&rclk=1,"8.262539499999999,77.29596939999999"
Masjid Siraj-u-deen (Kaatupali Peruvilai),Mosque,"5CM6+2CV Masjid Siraj-u-deen (Kaatupali Peruvilai), Scott School St, Weavers Colony, Vettunimadam, Nagercoil, Tamil Nadu 629001",Weavers Colony,"5CM6+2CV, Scott School St","Vettunimadam, Nagercoil",629001,Tamil Nadu,IN,https://www.google.com/maps/place/Masjid+Siraj-u-deen+%28Kaatupali+Peruvilai%29/data=!4m7!3m6!1s0x3b04f0c494a053ad:0xaf2088801ca5812e!8m2!3d8.1826084!4d77.4110362!16s%2Fg%2F11b86t_gw2!19sChIJrVOglMTwBDsRLoGlHICIIK8?authuser=0&hl=en&rclk=1,"8.1826084,77.4110362"
Verkilambi Thowheed Muslim Jamaath Masjid,Mosque,"Verkilambi Thowheed Muslim Jamaath Masjid, Thiruvattar - Thingal Nagar Road, Verkilambi - Swamiyarmadam Rd, Verkilambi, Tamil Nadu 629177",,"Thiruvattar - Thingal Nagar Road, Verkilambi - Swamiyarmadam Rd",Verkilambi,629177,Tamil Nadu,IN,https://www.google.com/maps/place/Verkilambi+Thowheed+Muslim+Jamaath+Masjid/data=!4m7!3m6!1s0x3b04560bf92fd0d3:0xb37e3e946fba9167!8m2!3d8.2957365!4d77.2920451!16s%2Fg%2F1pt_24blw!19sChIJ09Av-QtWBDsRZ5G6b5Q-frM?authuser=0&hl=en&rclk=1,"8.2957365,77.2920451"
Irg trust masjid,Mosque,"5CQC+68H Irg trust masjid, Joshua St, Vettunimadam, Nagercoil, Tamil Nadu 629001",,"5CQC+68H, Joshua St","Vettunimadam, Nagercoil",629001,Tamil Nadu,IN,https://www.google.com/maps/place/Irg+trust+masjid/data=!4m7!3m6!1s0x3b04f149fbb526eb:0x5e08ce29fd3f2b58!8m2!3d8.1880648!4d77.4208541!16s%2Fg%2F11hzjhq_gq!19sChIJ6ya1-0nxBDsRWCs__SnOCF4?authuser=0&hl=en&rclk=1,"8.1880648,77.4208541"
Navamiyapuram Jummah Mosque,Mosque,"4F5X+8PH Navamiyapuram Jummah Mosque, terrkutaamraikullm, Thenthamaraikulam, Tamil Nadu",,"4F5X+8PH, terrkutaamraikullm",Thenthamaraikulam,,Tamil Nadu,IN,https://www.google.com/maps/place/Navamiyapuram+Jummah+Mosque/data=!4m7!3m6!1s0x3b04ed8ea354c107:0xcb0bb64de1e582c2!8m2!3d8.1083167!4d77.4993708!16s%2Fg%2F11c71mvf7y!19sChIJB8FUo47tBDsRwoLl4U22C8s?authuser=0&hl=en&rclk=1,"8.1083167,77.4993708"
Rifai Masjid,Mosque,"57H4+5C9 Rifai Masjid, Colachel, Tamil Nadu 629251",,57H4+5C9,Colachel,629251,Tamil Nadu,IN,https://www.google.com/maps/place/Rifai+Masjid/data=!4m7!3m6!1s0x3b04fc3bbf060cef:0xfd042054878b16b8!8m2!3d8.1779101!4d77.2561202!16s%2Fg%2F11c1rgqmxh!19sChIJ7wwGvzv8BDsRuBaLh1QgBP0?authuser=0&hl=en&rclk=1,"8.1779101,77.2561202"
JAQH - Verkilambi Masjid,Place of worship,"77WR+7R6 JAQH - Verkilambi Masjid, Thiruvattar - Thingal Nagar Road, Verkilambi - Swamiyarmadam Rd, Verkilambi, Tamil Nadu 629177",,"77WR+7R6, Thiruvattar - Thingal Nagar Road, Verkilambi - Swamiyarmadam Rd",Verkilambi,629177,Tamil Nadu,IN,https://www.google.com/maps/place/JAQH+-+Verkilambi+Masjid/data=!4m7!3m6!1s0x3b0457d1efd33841:0xc062d68441814c80!8m2!3d8.2956725!4d77.2920109!16s%2Fg%2F11jp025m_z!19sChIJQTjT79FXBDsRgEyBQYTWYsA?authuser=0&hl=en&rclk=1,"8.2956725,77.2920109"
Thowheed Masjid,Mosque,"5C5W+C8G Thowheed Masjid, S New St, Velladichivilai, Edalakudi, Nagercoil, Tamil Nadu 629002","Velladichivilai, Edalakudi","5C5W+C8G, S New St",Nagercoil,629002,Tamil Nadu,IN,https://www.google.com/maps/place/Thowheed+Masjid/data=!4m7!3m6!1s0x3b04f10b1f2c4d87:0xb6afc46098713fe3!8m2!3d8.158564!4d77.4458136!16s%2Fg%2F124t0p2mn!19sChIJh00sHwvxBDsR4z9xmGDEr7Y?authuser=0&hl=en&rclk=1,"8.158564,77.4458136"
Kasthuri Compound,Housing association,"68R3+F93 Kasthuri Compound, Kerelapuram Rd, Thiruvithamcode, Thiruvithankodu, Tamil Nadu 629174",,"68R3+F93, Kerelapuram Rd","Thiruvithamcode, Thiruvithankodu",629174,Tamil Nadu,IN,https://www.google.com/maps/place/Kasthuri+Compound/data=!4m7!3m6!1s0x3b04f8d94bc21d45:0xbd7b4624db9bf9fa!8m2!3d8.241136!4d77.3034303!16s%2Fg%2F11c48fdt9v!19sChIJRR3CS9n4BDsR-vmb2yRGe70?authuser=0&hl=en&rclk=1,"8.241136,77.3034303"
Old Mosque,Mosque,"68V2+FRV Old Mosque, Thiruvithankodu, Tamil Nadu 629174",,68V2+FRV,Thiruvithankodu,629174,Tamil Nadu,IN,https://www.google.com/maps/place/Old+Mosque/data=!4m7!3m6!1s0x3b04f8dbbbaaa569:0xf1c8e205fa78a1bd!8m2!3d8.2437293!4d77.3020465!16s%2Fg%2F11g8kbz6js!19sChIJaaWqu9v4BDsRvaF4-gXiyPE?authuser=0&hl=en&rclk=1,"8.2437293,77.3020465"
Mohideen Jumma Masjid,Mosque,"59R7+R9C Mohideen Jumma Masjid, Alur, Tamil Nadu 629801",,59R7+R9C,Alur,629801,Tamil Nadu,IN,https://www.google.com/maps/place/Mohideen+Jumma+Masjid/data=!4m7!3m6!1s0x3b04fa1c5d180e57:0x93caf36fb933370f!8m2!3d8.192054!4d77.3634024!16s%2Fg%2F12643wq_5!19sChIJVw4YXRz6BDsRDzczuW_zypM?authuser=0&hl=en&rclk=1,"8.192053999999999,77.3634024"
Mohideen Masjid,Mosque,"Mohideen Masjid, Beach Road, Colachel, Tamil Nadu 629251",,Beach Road,Colachel,629251,Tamil Nadu,IN,https://www.google.com/maps/place/Mohideen+Masjid/data=!4m7!3m6!1s0x3b04fc3757ff0c5b:0x53082e04be034d47!8m2!3d8.1756676!4d77.251999!16s%2Fg%2F11bxdvqk8d!19sChIJWwz_Vzf8BDsRR00DvgQuCFM?authuser=0&hl=en&rclk=1,"8.175667599999999,77.251999"
Mohitheen Masjid,Mosque,"Mohitheen Masjid, 67/25, Mohideen Mosque St, Edalakudi, Nagercoil, Tamil Nadu 629002",Edalakudi,"67/25, Mohideen Mosque St",Nagercoil,629002,Tamil Nadu,IN,https://www.google.com/maps/place/Mohitheen+Masjid/data=!4m7!3m6!1s0x3b04f17337c94b41:0xe10d9dde8e91f309!8m2!3d8.1624195!4d77.4478354!16s%2Fg%2F1tdcdt9f!19sChIJQUvJN3PxBDsRCfORjt6dDeE?authuser=0&hl=en&rclk=1,"8.1624195,77.4478354"
Akkarai palli vasal akkraippllllivaacl kullccl,Mosque,"57F3+9MM Akkarai palli vasal akkraippllllivaacl kullccl, Unnamed Road, Sambasivapuram, Colachel, Tamil Nadu 629251",Sambasivapuram,"57F3+9MM, Unnamed Road",Colachel,629251,Tamil Nadu,IN,https://www.google.com/maps/place/Akkarai+palli+vasal+%E0%AE%85%E0%AE%95%E0%AF%8D%E0%AE%95%E0%AE%B0%E0%AF%88%E0%AE%AA%E0%AF%8D%E0%AE%AA%E0%AE%B3%E0%AF%8D%E0%AE%B3%E0%AE%BF%E0%AE%B5%E0%AE%BE%E0%AE%9A%E0%AE%B2%E0%AF%8D+%E0%AE%95%E0%AF%81%E0%AE%B3%E0%AE%9A%E0%AF%8D%E0%AE%9A%E0%AE%B2%E0%AF%8D/data=!4m7!3m6!1s0x3b04fd77cf5d3f63:0x558b4083321dda48!8m2!3d8.1734665!4d77.2541806!16s%2Fg%2F11h51jwz1n!19sChIJYz9dz3f9BDsRSNodMoNAi1U?authuser=0&hl=en&rclk=1,"8.1734665,77.2541806"
Jumaah Masjid,Mosque,"7RPM+M7X Jumaah Masjid, Pulimankulam, Tamil Nadu 627659",,7RPM+M7X,Pulimankulam,627659,Tamil Nadu,IN,https://www.google.com/maps/place/Jumaah+Masjid/data=!4m7!3m6!1s0x3b0487526648f073:0xf804787574d2cfc8!8m2!3d8.2867353!4d77.8332253!16s%2Fg%2F11f5h88hr1!19sChIJc_BIZlKHBDsRyM_SdHV4BPg?authuser=0&hl=en&rclk=1,"8.2867353,77.8332253"
Mohiyatheen Juma Masjid Marthandam,Mosque,"Mohiyatheen Juma Masjid Marthandam, J complex, M.M, SH 90, Marthandam, Tamil Nadu 629165",,"J complex, M.M, SH 90",Marthandam,629165,Tamil Nadu,IN,https://www.google.com/maps/place/Mohiyatheen+Juma+Masjid+Marthandam/data=!4m7!3m6!1s0x3b04554fe90a7e93:0x4a4f06e146196da3!8m2!3d8.3054643!4d77.2267905!16s%2Fg%2F11hzjxmpws!19sChIJk34K6U9VBDsRo20ZRuEGT0o?authuser=0&hl=en&rclk=1,"8.305464299999999,77.22679049999999"
Alumoodu Juma Masjid Pathukani,Mosque,"F6GF+MR5 Alumoodu Juma Masjid Pathukani, Tamil Nadu 629101",,F6GF+MR5,,629101,Tamil Nadu,IN,https://www.google.com/maps/place/Alumoodu+Juma+Masjid+Pathukani/data=!4m7!3m6!1s0x3b044d977c287503:0xbaee2acc7d628490!8m2!3d8.4766425!4d77.2246106!16s%2Fg%2F11fhnhnss4!19sChIJA3UofJdNBDsRkIRifcwq7ro?authuser=0&hl=en&rclk=1,"8.476642499999999,77.22461059999999"
Jumma Musjid Kadayal jummaa msjid kttyaalumuutt,Mosque,"C758+WFV Jumma Musjid Kadayal jummaa msjid kttyaalumuutt, Kadayal, Tamil Nadu 629101",,C758+WFV,Kadayal,629101,Tamil Nadu,IN,https://www.google.com/maps/place/Jumma+Musjid+Kadayal+%E0%B4%9C%E0%B5%81%E0%B4%AE%E0%B5%8D%E0%B4%AE%E0%B4%BE+%E0%B4%AE%E0%B4%B8%E0%B5%8D%E0%B4%9C%E0%B4%BF%E0%B4%A6%E0%B5%8D+%E0%B4%95%E0%B4%9F%E0%B4%AF%E0%B4%BE%E0%B4%B2%E0%B5%81%E0%B4%AE%E0%B5%82%E0%B4%9F%E0%B5%8D/data=!4m7!3m6!1s0x3b04523500f71eb1:0x93e3dfcf943a1ea4!8m2!3d8.4098542!4d77.2661818!16s%2Fg%2F11f3r_r5xd!19sChIJsR73ADVSBDsRpB46lM_f45M?authuser=0&hl=en&rclk=1,"8.4098542,77.2661818"
ICAMAT CENTER (MASJID),Mosque,"59CQ+8FW ICAMAT CENTER (MASJID), Asaripallam, Nagercoil, Tamil Nadu 629201",,59CQ+8FW,"Asaripallam, Nagercoil",629201,Tamil Nadu,IN,https://www.google.com/maps/place/ICAMAT+CENTER+%28MASJID%29/data=!4m7!3m6!1s0x3b04f14725b6532b:0x96036bf522754b2!8m2!3d8.1708662!4d77.388698!16s%2Fg%2F11smw081_0!19sChIJK1O2JUfxBDsRslQnUr82YAk?authuser=0&hl=en&rclk=1,"8.170866199999999,77.38869799999999"
"Old Mosque, Manalikarai",Mosque,"78W5+JP6 Old Mosque, Manalikarai, Manalikarai, Tamil Nadu 629164",,78W5+JP6,Manalikarai,629164,Tamil Nadu,IN,"https://www.google.com/maps/place/Old+Mosque,+Manalikarai/data=!4m7!3m6!1s0x3b045615ff1a1121:0x55d66cfebfeb3101!8m2!3d8.2965382!4d77.3092771!16s%2Fg%2F11b81rztn0!19sChIJIREa_xVWBDsRATHrv_5s1lU?authuser=0&hl=en&rclk=1","8.296538199999999,77.3092771"
Jumma Mosque punnarkulam,Mosque,"4GXH+84V Jumma Mosque punnarkulam, Punnarkulam Junction - Thirumoolanagar, Tamil Nadu 629402",,"4GXH+84V, Punnarkulam Junction - Thirumoolanagar",,629402,Tamil Nadu,IN,https://www.google.com/maps/place/Jumma+Mosque+punnarkulam/data=!4m7!3m6!1s0x3b04f3bf19313127:0xdafd354a7a9041f3!8m2!3d8.148357!4d77.5278045!16s%2Fg%2F11h3jgxz75!19sChIJJzExGb_zBDsR80GQeko1_do?authuser=0&hl=en&rclk=1,"8.148356999999999,77.5278045"
Masjid (Abad),Mosque,"FWPX+322 Masjid (Abad), Pazhavangadi, Pavithra Nagar, Padma Nagar, Chalai, Thiruvananthapuram, Kerala 695001","Pazhavangadi, Pavithra Nagar, Padma Nagar, Chalai",FWPX+322,Thiruvananthapuram,695001,Kerala,IN,https://www.google.com/maps/place/Masjid+%28Abad%29/data=!4m7!3m6!1s0x3b05bb1291c426fd:0xef6ba522b8184da4!8m2!3d8.4851403!4d76.9475237!16s%2Fg%2F11h37sldh0!19sChIJ_SbEkRK7BTsRpE0YuCKla-8?authuser=0&hl=en&rclk=1,"8.4851403,76.94752369999999"
Masjid Al Jalaal,Mosque,"5C5V+8V3 Masjid Al Jalaal, Ayesha Garden Rd, Mela Puthu Theru, Puthenkudiyiruppu, Nagercoil, Tamil Nadu 629002","Mela Puthu Theru, Puthenkudiyiruppu","5C5V+8V3, Ayesha Garden Rd",Nagercoil,629002,Tamil Nadu,IN,https://www.google.com/maps/place/Masjid+Al+Jalaal/data=!4m7!3m6!1s0x3b04f10afe107b9b:0xc9e6fdf034a2cdee!8m2!3d8.1582675!4d77.4446849!16s%2Fg%2F11c6qbr_9r!19sChIJm3sQ_grxBDsR7s2iNPD95sk?authuser=0&hl=en&rclk=1,"8.1582675,77.4446849"
Manavilai Mosque,Mosque,"587J+PQW Manavilai Mosque, Manavilai, Vellimalai, Tamil Nadu 629809",Manavilai,587J+PQW,Vellimalai,629809,Tamil Nadu,IN,https://www.google.com/maps/place/Manavilai+Mosque/data=!4m7!3m6!1s0x3b04fbb2c9140c43:0x4e0c1ef4b9812797!8m2!3d8.1643729!4d77.3319425!16s%2Fg%2F11ddx0pqt1!19sChIJQwwUybL7BDsRlyeBufQeDE4?authuser=0&hl=en&rclk=1,"8.1643729,77.3319425"
Jummah Masjid Midalam,Mosque,"6645+PR7 Jummah Masjid Midalam, Midalam, Melmidalam, Tamil Nadu 629178",,6645+PR7,"Midalam, Melmidalam",,Tamil Nadu,IN,https://www.google.com/maps/place/Jummah+Masjid+Midalam/data=!4m7!3m6!1s0x3b04fe136abdf29f:0x45f161c10b3953d9!8m2!3d8.2067875!4d77.2095474!16s%2Fg%2F11f474dk5m!19sChIJn_K9ahP-BDsR2VM5C8Fh8UU?authuser=0&hl=en&rclk=1,"8.206787499999999,77.20954739999999"
Badreengal Darga,Mosque,"59R7+J9C Badreengal Darga, Thaikka St, Alur, Tamil Nadu 629801",,"59R7+J9C, Thaikka St",Alur,629801,Tamil Nadu,IN,https://www.google.com/maps/place/Badreengal+Darga/data=!4m7!3m6!1s0x3b04fa1c666c88c1:0x721e031201c963fa!8m2!3d8.1915724!4d77.3633943!16s%2Fg%2F1260n1vvc!19sChIJwYhsZhz6BDsR-mPJARIDHnI?authuser=0&hl=en&rclk=1,"8.1915724,77.3633943"
Kuthba palli kutpaaplllli,Mosque,"5C7W+P75 Kuthba palli kutpaaplllli, Mosque St, Edalakudi, Nagercoil, Tamil Nadu 629002",Edalakudi,"5C7W+P75, Mosque St",Nagercoil,629002,Tamil Nadu,IN,https://www.google.com/maps/place/Kuthba+palli+%E0%AE%95%E0%AF%81%E0%AE%A4%E0%AF%8D%E0%AE%AA%E0%AE%BE%E0%AE%AA%E0%AE%B3%E0%AF%8D%E0%AE%B3%E0%AE%BF%E2%80%8E/data=!4m7!3m6!1s0x3b04f1c4dd2a86a7:0xe34a7b56ff888070!8m2!3d8.1642562!4d77.445742!16s%2Fg%2F11hz6nkj9z!19sChIJp4Yq3cTxBDsRcICI_1Z7SuM?authuser=0&hl=en&rclk=1,"8.1642562,77.445742"
Thuckalai masjid,Mosque,"68W8+VQ2 Thuckalai masjid, Dargha Rd, Chakala, Thuckalay, Tamil Nadu 629175",Chakala,"68W8+VQ2, Dargha Rd",Thuckalay,629175,Tamil Nadu,IN,https://www.google.com/maps/place/Thuckalai+masjid/data=!4m7!3m6!1s0x3b04f9681da317e5:0x33f48eedc181fed!8m2!3d8.2471315!4d77.3169045!16s%2Fg%2F11n066n3vy!19sChIJ5RejHWj5BDsR7R8Y3O5IPwM?authuser=0&hl=en&rclk=1,"8.2471315,77.31690449999999"
Meeran hajiyar masjid,Mosque,"57H5+CV5 Meeran hajiyar masjid, Colachel, Tamil Nadu 629251",,57H5+CV5,Colachel,629251,Tamil Nadu,IN,https://www.google.com/maps/place/Meeran+hajiyar+masjid/data=!4m7!3m6!1s0x3b04fd74043c2be5:0xa9f9fce6d848e00a!8m2!3d8.1785075!4d77.2597293!16s%2Fg%2F11lrff4xs5!19sChIJ5Ss8BHT9BDsRCuBI2Ob8-ak?authuser=0&hl=en&rclk=1,"8.1785075,77.2597293"
Masjid - Tamil Nadu Thowheed Jamath,Mosque,"4G6V+2Q7 Masjid - Tamil Nadu Thowheed Jamath, Panchalingapuram, Tamil Nadu 629702",,4G6V+2Q7,Panchalingapuram,629702,Tamil Nadu,IN,https://www.google.com/maps/place/Masjid+-+Tamil+Nadu+Thowheed+Jamath/data=!4m7!3m6!1s0x3b04ed5c065871db:0xa28990dbb9f03bc4!8m2!3d8.1100369!4d77.5444362!16s%2Fg%2F11hbfjr30j!19sChIJ23FYBlztBDsRxDvwuduQiaI?authuser=0&hl=en&rclk=1,"8.110036899999999,77.54443619999999"
Muhyideen Masjid,Mosque,"8VM9+659 Muhyideen Masjid, Thisayanvilai, Tamil Nadu 627657",,8VM9+659,Thisayanvilai,,Tamil Nadu,IN,https://www.google.com/maps/place/Muhyideen+Masjid/data=!4m7!3m6!1s0x3b047f94d2b3a117:0x6916c46c80a44b19!8m2!3d8.3330453!4d77.8679816!16s%2Fg%2F11gnp472dv!19sChIJF6Gz0pR_BDsRGUukgGzEFmk?authuser=0&hl=en&rclk=1,"8.3330453,77.8679816"
Malai Palli,Mosque,"783V+C8G Malai Palli, Vilavur, Tamil Nadu 629301",,783V+C8G,Vilavur,,Tamil Nadu,IN,https://www.google.com/maps/place/Malai+Palli/data=!4m7!3m6!1s0x3b04f91ee9931d19:0x30da0f2c31c84801!8m2!3d8.2535679!4d77.3433376!16s%2Fg%2F11jr_pbq0w!19sChIJGR2T6R75BDsRAUjIMSwP2jA?authuser=0&hl=en&rclk=1,"8.2535679,77.3433376"
JAQH Masjid,Mosque,"JAQH Masjid, 23, Palli Rd, Colachel, Tamil Nadu 629251",,"23, Palli Rd",Colachel,629251,Tamil Nadu,IN,https://www.google.com/maps/place/JAQH+Masjid/data=!4m7!3m6!1s0x3b04fd18484dda85:0xecc0966b71b5823b!8m2!3d8.177944!4d77.258336!16s%2Fg%2F11rxmf4_fr!19sChIJhdpNSBj9BDsRO4K1cWuWwOw?authuser=0&hl=en&rclk=1,"8.177944,77.258336"
aalluur tvhiit plllli,Mosque,"59R8+H8Q aalluur tvhiit plllli, Thaikka St, Alur, Tamil Nadu 629801",,"59R8+H8Q, Thaikka St",Alur,629801,Tamil Nadu,IN,https://www.google.com/maps/place/%E0%AE%86%E0%AE%B3%E0%AF%82%E0%AE%B0%E0%AF%8D+%E0%AE%A4%E0%AE%B5%E0%AF%8D%E0%AE%B9%E0%AF%80%E0%AE%A4%E0%AF%8D+%E0%AE%AA%E0%AE%B3%E0%AF%8D%E0%AE%B3%E0%AE%BF/data=!4m7!3m6!1s0x3b04fb988378cc1f:0x80c09a76ebf72ad2!8m2!3d8.1914687!4d77.3658444!16s%2Fg%2F11gyc2h8rd!19sChIJH8x4g5j7BDsR0ir363aawIA?authuser=0&hl=en&rclk=1,"8.1914687,77.3658444"
Tamilnadu Thowheed Jamath - TNTJ Thowheed Markaz,Mosque,"59V7+294 Tamilnadu Thowheed Jamath - TNTJ Thowheed Markaz, Jinnah Street,, Alur, Tamil Nadu 629801",,"59V7+294, Jinnah Street,",Alur,,Tamil Nadu,IN,https://www.google.com/maps/place/Tamilnadu+Thowheed+Jamath+-+TNTJ+Thowheed+Markaz/data=!4m7!3m6!1s0x3b04fbb3d7c82503:0x8b6bfba28fa65233!8m2!3d8.192523!4d77.363438!16s%2Fg%2F11jn_qrn5f!19sChIJAyXI17P7BDsRM1Kmj6L7a4s?authuser=0&hl=en&rclk=1,"8.192523,77.363438"
Old Jumma Pallivasal- No prayers conducted now,Mosque,"4HXR+4V8 Old Jumma Pallivasal- No prayers conducted now, Kannankulam, Anjugramam, Tamil Nadu 627127",Kannankulam,4HXR+4V8,Anjugramam,627127,Tamil Nadu,IN,https://www.google.com/maps/place/Old+Jumma+Pallivasal-+No+prayers+conducted+now/data=!4m7!3m6!1s0x3b048d80d0f70f91:0x4a423f9cde916ed3!8m2!3d8.1476637!4d77.5921658!16s%2Fg%2F11swhdn389!19sChIJkQ_30ICNBDsR026R3pw_Qko?authuser=0&hl=en&rclk=1,"8.147663699999999,77.59216579999999"
CHL,Mosque,"57F5+PMX CHL, Colachel, Tamil Nadu 629251",,57F5+PMX,Colachel,629251,Tamil Nadu,IN,https://www.google.com/maps/place/CHL/data=!4m7!3m6!1s0x3b04fd59ea36df57:0x8b1b103083aa2b27!8m2!3d8.1743633!4d77.2592304!16s%2Fg%2F11h99h7l21!19sChIJV9826ln9BDsRJyuqgzAQG4s?authuser=0&hl=en&rclk=1,"8.1743633,77.25923039999999"
Akara palli,Mosque,"57F3+FWG Akara palli, Sambasivapuram, Colachel, Tamil Nadu 629251",Sambasivapuram,57F3+FWG,Colachel,629251,Tamil Nadu,IN,https://www.google.com/maps/place/Akara+palli/data=!4m7!3m6!1s0x3b04fd2886ba4445:0x9840318ae9ae028a!8m2!3d8.1736798!4d77.2548331!16s%2Fg%2F11qbgjnmbn!19sChIJRUS6hij9BDsRigKu6YoxQJg?authuser=0&hl=en&rclk=1,"8.1736798,77.2548331"
Masjid,Mosque,"59V7+6GF Masjid, Alur, Tamil Nadu 629801",,59V7+6GF,Alur,,Tamil Nadu,IN,https://www.google.com/maps/place/Masjid/data=!4m7!3m6!1s0x3b04fb10c627f2bb:0x6bb7530675641784!8m2!3d8.1930612!4d77.3637959!16s%2Fg%2F11qqmq5d_l!19sChIJu_InxhD7BDsRhBdkdQZTt2s?authuser=0&hl=en&rclk=1,"8.193061199999999,77.3637959"
Masjid,Mosque,"3GPX+G86 Masjid, Kanyakumari, Tamil Nadu 629702",,3GPX+G86,Kanyakumari,629702,Tamil Nadu,IN,https://www.google.com/maps/place/Masjid/data=!4m7!3m6!1s0x3b04edaf6a93c7bb:0x679f6a83e2f1adf1!8m2!3d8.0862875!4d77.5482656!16s%2Fg%2F11v4ly5484!19sChIJu8eTaq_tBDsR8a3x4oNqn2c?authuser=0&hl=en&rclk=1,"8.0862875,77.5482656"
Kadayal Muhiyadheen Juma Masjid,Mosque,"C758+86H Kadayal Muhiyadheen Juma Masjid, Kadayal, Tamil Nadu 629101",,C758+86H,Kadayal,629101,Tamil Nadu,IN,https://www.google.com/maps/place/Kadayal+Muhiyadheen+Juma+Masjid/data=!4m7!3m6!1s0x3b04534641fdea4f:0x1ce009df7bfd71a4!8m2!3d8.408309!4d77.2655982!16s%2Fg%2F11h7ddkx6n!19sChIJT-r9QUZTBDsRpHH9e98J4Bw?authuser=0&hl=en&rclk=1,"8.408309,77.2655982"
Thaiba Masjid,Mosque,"X227+8R Thaiba Masjid, Puduppair, Tamil Nadu 602109",,X227+8R,Puduppair,,Tamil Nadu,IN,https://www.google.com/maps/place/Thaiba+Masjid/data=!4m7!3m6!1s0x3a52f5f3a8542839:0x6293fd41ba67e521!8m2!3d12.950777!4d80.0146156!16s%2Fg%2F11v3kltg2v!19sChIJOShUqPP1UjoRIeVnukH9k2I?authuser=0&hl=en&rclk=1,"12.950776999999999,80.0146156"
Malai Masjid mlai pllllivaacl,Mosque,"787F+WFQ Malai Masjid mlai pllllivaacl, Vilavur, Tamil Nadu 629175",,787F+WFQ,Vilavur,,Tamil Nadu,IN,https://www.google.com/maps/place/Malai+Masjid+%E0%AE%AE%E0%AE%B2%E0%AF%88+%E0%AE%AA%E0%AE%B3%E0%AF%8D%E0%AE%B3%E0%AE%BF%E0%AE%B5%E0%AE%BE%E0%AE%9A%E0%AE%B2%E0%AF%8D/data=!4m7!3m6!1s0x3b04f924997c3deb:0xe1c96f1960674bd6!8m2!3d8.2648291!4d77.3237498!16s%2Fg%2F11j4y5j0s3!19sChIJ6z18mST5BDsR1ktnYBlvyeE?authuser=0&hl=en&rclk=1,"8.2648291,77.3237498"
Malik Mohamed wali masjid,Mosque,"68V2+FVR Malik Mohamed wali masjid, Thiruvithankodu, Tamil Nadu 629174",,68V2+FVR,Thiruvithankodu,,Tamil Nadu,IN,https://www.google.com/maps/place/Malik+Mohamed+wali+masjid/data=!4m7!3m6!1s0x3b04f9f609d768f5:0xf5521311cbe98233!8m2!3d8.2437444!4d77.3021304!16s%2Fg%2F11kpy2t6s6!19sChIJ9WjXCfb5BDsRM4LpyxETUvU?authuser=0&hl=en&rclk=1,"8.243744399999999,77.3021304"
Manali Juma Masjid,Mosque,"7837+JM7 Manali Juma Masjid, Manali Rd, Manali, Tamil Nadu 629175",,"7837+JM7, Manali Rd",Manali,629175,Tamil Nadu,IN,https://www.google.com/maps/place/Manali+Juma+Masjid/data=!4m7!3m6!1s0x3b04f8ebef3aaaab:0x91613a63918a036d!8m2!3d8.2540467!4d77.3141795!16s%2Fg%2F11kj3f9f5k!19sChIJq6o67-v4BDsRbQOKkWM6YZE?authuser=0&hl=en&rclk=1,"8.2540467,77.3141795"
JAQH Marqaz,Mosque,"68W3+223 JAQH Marqaz, Thiruvithankodu, Tamil Nadu 629174",,68W3+223,Thiruvithankodu,,Tamil Nadu,IN,https://www.google.com/maps/place/JAQH+Marqaz/data=!4m7!3m6!1s0x3b04f9f42b846969:0x5cfb1b37551769b1!8m2!3d8.2450224!4d77.3025375!16s%2Fg%2F11kjgqpr9h!19sChIJaWmEK_T5BDsRsWkXVTcb-1w?authuser=0&hl=en&rclk=1,"8.2450224,77.3025375"
Jumma masjid pps puram enyam puthanthuari,Mosque,"65GJ+789 Jumma masjid pps puram enyam puthanthuari, Pps puram ashif Manzil, Enayam",,"65GJ+789, Pps puram ashif Manzil",Enayam,,Tamil Nadu,IN,https://www.google.com/maps/place/Jumma+masjid+pps+puram+enyam+puthanthuari/data=!4m7!3m6!1s0x3b0501f7a8ef72d5:0xf5f09e6b3f7e39b7!8m2!3d8.2256517!4d77.1808633!16s%2Fg%2F11q3tq4q6s!19sChIJ1XLvqPcBBTsRtzl-P2ue8PU?authuser=0&hl=en&rclk=1,"8.2256517,77.1808633"
Manavalakurichi Jummah Masjid,Mosque,"48W3+367 Manavalakurichi Jummah Masjid, Chinnavilai, Manavalakurichi, Tamil Nadu 629252",Chinnavilai,48W3+367,Manavalakurichi,629252,Tamil Nadu,IN,https://www.google.com/maps/place/Manavalakurichi+Jummah+Masjid/data=!4m7!3m6!1s0x3b04fb4d6be3340d:0x13997ef5c5fa51c3!8m2!3d8.1451539!4d77.3030497!16s%2Fg%2F11txzml_dt!19sChIJDTTja037BDsRw1H6xfV-mRM?authuser=0&hl=en&rclk=1,"8.1451539,77.3030497"
TNTJ MARKAZ,Mosque,"5CM6+8Q6 TNTJ MARKAZ, Thingal Nagar, Weavers Colony, Nagercoil, Tamil Nadu 629001","Thingal Nagar, Weavers Colony",5CM6+8Q6,Nagercoil,,Tamil Nadu,IN,https://www.google.com/maps/place/TNTJ+MARKAZ/data=!4m7!3m6!1s0x3b04f1024665941d:0x72edb3fb911a08c6!8m2!3d8.1832857!4d77.4118996!16s%2Fg%2F11jygggv8d!19sChIJHZRlRgLxBDsRxggakfuz7XI?authuser=0&hl=en&rclk=1,"8.183285699999999,77.4118996"
Masjid street,Housing society,"Masjid street, 314, Muslim St, Peruvilai, Nagercoil, Tamil Nadu 629003",,"314, Muslim St","Peruvilai, Nagercoil",629003,Tamil Nadu,IN,https://www.google.com/maps/place/Masjid+street/data=!4m7!3m6!1s0x3b04f11eab70bf19:0xc0075a7311494140!8m2!3d8.1861381!4d77.3982752!16s%2Fg%2F11qb3lctg1!19sChIJGb9wqx7xBDsRQEFJEXNaB8A?authuser=0&hl=en&rclk=1,"8.186138099999999,77.3982752"
Mosque pond,Fishing pond,"68V2+GWW Mosque pond, Thiruvithamcode, Thiruvithankodu, Tamil Nadu 629174",,68V2+GWW,"Thiruvithamcode, Thiruvithankodu",629174,Tamil Nadu,IN,https://www.google.com/maps/place/Mosque+pond/data=!4m7!3m6!1s0x3b04f9946b7da09f:0x20c85341f98154e3!8m2!3d8.2438569!4d77.3023276!16s%2Fg%2F11q86dyldr!19sChIJn6B9a5T5BDsR41SB-UFTyCA?authuser=0&hl=en&rclk=1,"8.243856899999999,77.3023276"
Masjidae Fathima jumma masjid,Mosque,"P9FR+F3 Masjidae Fathima jumma masjid, Vickramasingapuram, Tamil Nadu 627425",,P9FR+F3,Vickramasingapuram,,Tamil Nadu,IN,https://www.google.com/maps/place/Masjidae+Fathima+jumma+masjid/data=!4m7!3m6!1s0x3b043b2765025e3d:0xdde341260af28ffd!8m2!3d8.7237414!4d77.3902152!16s%2Fg%2F11vdbdmzxz!19sChIJPV4CZSc7BDsR_Y_yCiZB490?authuser=0&hl=en&rclk=1,"8.7237414,77.3902152"
Padmanabhapuram,,"Padmanabhapuram, Tamil Nadu",,,Padmanabhapuram,,Tamil Nadu,IN,https://www.google.com/maps/place/Padmanabhapuram/data=!4m7!3m6!1s0x3b04f8e3b8dc0d31:0xce7af01b09155ebf!8m2!3d8.2445969!4d77.3367498!16zL20vMDR4MDNr!19sChIJMQ3cuOP4BDsRv14VCRvwes4?authuser=0&hl=en&rclk=1,"8.2445969,77.33674979999999"
Masjid,Mosque,"Masjid, Nadukkamparai Saastha Temple, Nambi Kovil Rd, Sengalakurichi, Tamil Nadu 627115",,"Nadukkamparai Saastha Temple, Nambi Kovil Rd",Sengalakurichi,627115,Tamil Nadu,IN,https://www.google.com/maps/place/Masjid/data=!4m7!3m6!1s0x3b045d01f3aad80d:0xc3d4852314f58fa8!8m2!3d8.4379003!4d77.5349252!16s%2Fg%2F11pvhp26dj!19sChIJDdiq8wFdBDsRqI_1FCOF1MM?authuser=0&hl=en&rclk=1,"8.437900299999999,77.5349252"
Old mosque,Mosque,"8HFG+M39 Old mosque, W Azad St, Panakudi, Tamil Nadu 627109",,"8HFG+M39, W Azad St",Panakudi,627109,Tamil Nadu,IN,https://www.google.com/maps/place/Old+mosque/data=!4m7!3m6!1s0x3b046199308b3b93:0x5a955367d6fcb7ee!8m2!3d8.3241541!4d77.5752256!16s%2Fg%2F11kxd3_7sy!19sChIJkzuLMJlhBDsR7rf81mdTlVo?authuser=0&hl=en&rclk=1,"8.3241541,77.5752256"
Abul Kalam House,Housing society,"68R3+5CM Abul Kalam House, Kerelapuram Rd, Thiruvithankodu, Tamil Nadu 629174",,"68R3+5CM, Kerelapuram Rd",Thiruvithankodu,629174,Tamil Nadu,IN,https://www.google.com/maps/place/Abul+Kalam+House/data=!4m7!3m6!1s0x3b04f92950f47637:0xeada5d95db2e865d!8m2!3d8.2404672!4d77.3034147!16s%2Fg%2F11t6hhwtnn!19sChIJN3b0UCn5BDsRXYYu25Vd2uo?authuser=0&hl=en&rclk=1,"8.2404672,77.30341469999999"
