name,main_category,address,address_ward,address_street,address_city,address_postal_code,address_state,address_country_code,link,coordinates
Meo Boarding Jama Masjid,Mosque,"HJ95+5RQ Meo Boarding Jama Masjid, Sector 7, Alwar, Rajasthan 301001",Sector 7,HJ95+5RQ,Alwar,301001,Rajasthan,IN,https://www.google.com/maps/place/Meo+Boarding+Jama+Masjid/data=!4m7!3m6!1s0x39729991023e6379:0x7b2253dc09aa7f1a!8m2!3d27.5679575!4d76.6096029!16s%2Fg%2F1pyqfms0x!19sChIJeWM-ApGZcjkRGn-qCdxTIns?authuser=0&hl=en&rclk=1,"27.5679575,76.6096029"
Anaj Mandi Masjid,Mosque,"HJ8F+G42 Anaj Mandi Masjid, Mungshka, Jyoti Nagar, Alwar, Rajasthan 301001","Mungshka, Jyoti Nagar",HJ8F+G42,Alwar,301001,Rajasthan,IN,https://www.google.com/maps/place/Anaj+Mandi+Masjid/data=!4m7!3m6!1s0x397299edf4420c05:0x1fe40370944e3e83!8m2!3d27.5662577!4d76.6227705!16s%2Fg%2F1pyqfkcn4!19sChIJBQxC9O2ZcjkRgz5OlHAD5B8?authuser=0&hl=en&rclk=1,"27.566257699999998,76.6227705"
Ranjeet Nagar Masjid,Mosque,"HJJM+8CH Ranjeet Nagar Masjid, Ranjeet Nagar, Daudpur, Alwar, Rajasthan 301001","Ranjeet Nagar, Daudpur",HJJM+8CH,Alwar,301001,Rajasthan,IN,https://www.google.com/maps/place/Ranjeet+Nagar+Masjid/data=!4m7!3m6!1s0x397299ddb251c155:0x3e3bdb6db0459449!8m2!3d27.5808012!4d76.6336073!16s%2Fg%2F1pyqfm7v0!19sChIJVcFRst2ZcjkRSZRFsG3bOz4?authuser=0&hl=en&rclk=1,"27.5808012,76.6336073"
Kala Kua Mosque,Mosque,"GJX3+P5M Kala Kua Mosque, Moti Doongri, Alwar, Rajasthan 301001",Moti Doongri,GJX3+P5M,Alwar,301001,Rajasthan,IN,https://www.google.com/maps/place/Kala+Kua+Mosque/data=!4m7!3m6!1s0x39729a290822e6d1:0xde5b0656df6979!8m2!3d27.5493408!4d76.6029205!16s%2Fg%2F1pyqlfvz1!19sChIJ0eYiCCmacjkReWnfVgZb3gA?authuser=0&hl=en&rclk=1,"27.5493408,76.6029205"
Samola Masjid,Mosque,"GJQJ+36P Samola Masjid, Samola, Alwar, Rajasthan 301001",Samola,GJQJ+36P,Alwar,301001,Rajasthan,IN,https://www.google.com/maps/place/Samola+Masjid/data=!4m7!3m6!1s0x39729a0de30597d7:0xc657f6cfcce4c02d!8m2!3d27.537722!4d76.630591!16s%2Fg%2F1pyqv62_7!19sChIJ15cF4w2acjkRLcDkzM_2V8Y?authuser=0&hl=en&rclk=1,"27.537722,76.630591"
Masjid Moulana Umar Saheb,Mosque,"JMH4+J87 Masjid Moulana Umar Saheb, Jahar Khera, Rajasthan 301001",,JMH4+J87,Jahar Khera,301001,Rajasthan,IN,https://www.google.com/maps/place/Masjid+Moulana+Umar+Saheb/data=!4m7!3m6!1s0x397297ecfd6b055b:0xb7192d75ae2bb7db!8m2!3d27.6290296!4d76.6557836!16s%2Fg%2F11g8wv1rks!19sChIJWwVr_eyXcjkR27crrnUtGbc?authuser=0&hl=en&rclk=1,"27.6290296,76.65578359999999"
QADRI JUMA-MASJID,Mosque,"QADRI JUMA-MASJID, Near Gyandeep school, Old Daudpur, Main road Daudpur phatak, 1, Girraj Darshan Colony, Medical Colony, Daudpur, Alwar, Rajasthan 301001","Girraj Darshan Colony, Medical Colony, Daudpur","Near Gyandeep school, Old Daudpur, Main road Daudpur phatak, 1",Alwar,301001,Rajasthan,IN,https://www.google.com/maps/place/QADRI+JUMA-MASJID/data=!4m7!3m6!1s0x397299ee628dd5d5:0x6781ddcfe53da77e!8m2!3d27.5690212!4d76.6248277!16s%2Fg%2F11hbtr57sb!19sChIJ1dWNYu6ZcjkRfqc95c_dgWc?authuser=0&hl=en&rclk=1,"27.569021199999998,76.6248277"
Mungaska Masjid,Mosque,"HJ2P+HFX Mungaska Masjid, Jyoti Nagar, Alwar, Rajasthan 301001",Jyoti Nagar,HJ2P+HFX,Alwar,301001,Rajasthan,IN,https://www.google.com/maps/place/Mungaska+Masjid/data=!4m7!3m6!1s0x39729a0167e36d3d:0x756f21fb33e092e0!8m2!3d27.5514849!4d76.6362258!16s%2Fg%2F1pyqskg2k!19sChIJPW3jZwGacjkR4JLgM_shb3U?authuser=0&hl=en&rclk=1,"27.5514849,76.63622579999999"
Divakari Masjid,Mosque,"HM36+Q56 Divakari Masjid, Vikas Nagar, Alwar, Rajasthan 301001",Vikas Nagar,HM36+Q56,Alwar,301001,Rajasthan,IN,https://www.google.com/maps/place/Divakari+Masjid/data=!4m7!3m6!1s0x397290b443612a3f:0x67885c632eba804b!8m2!3d27.554419!4d76.660381!16s%2Fg%2F1pyqqt_d8!19sChIJPyphQ7SQcjkRS4C6LmNciGc?authuser=0&hl=en&rclk=1,"27.554419,76.660381"
Masjid,Mosque,"GMJH+XVQ Masjid, Itarana, Desoola, Rajasthan 301030",Itarana,GMJH+XVQ,Desoola,301030,Rajasthan,IN,https://www.google.com/maps/place/Masjid/data=!4m7!3m6!1s0x397290e693b1db5f:0x8adf7225998da29d!8m2!3d27.5324661!4d76.6797495!16s%2Fg%2F12mkw9589!19sChIJX9uxk-aQcjkRnaKNmSVy34o?authuser=0&hl=en&rclk=1,"27.532466099999997,76.6797495"
Nai Masjid,Mosque,"HJ4M+J32 Nai Masjid, Janta Colony, Moongaska, Alwar, Rajasthan 301001","Janta Colony, Moongaska",HJ4M+J32,Alwar,301001,Rajasthan,IN,https://www.google.com/maps/place/Nai+Masjid/data=!4m7!3m6!1s0x397299f88a103d65:0x7911fa26b4be3fdd!8m2!3d27.5565244!4d76.6326551!16s%2Fg%2F11f2md1mgz!19sChIJZT0QiviZcjkR3T--tCb6EXk?authuser=0&hl=en&rclk=1,"27.556524399999997,76.6326551"
Sadiya Masjid,Mosque,"Sadiya Masjid, Narnaul - Behror - Alwar Rd Sakti Nagar Alwar RJ 301001 Republic of",Sakti Nagar,Narnaul - Behror - Alwar Rd Sakti Nagar Alwar RJ 301001 Republic of,Alwar,,Rajasthan,IN,https://www.google.com/maps/place/Sadiya+Masjid/data=!4m7!3m6!1s0x39729756e31097db:0x2f2d9bb1f0a732b7!8m2!3d27.5650852!4d76.6450063!16s%2Fg%2F11bw48_9n5!19sChIJ25cQ41aXcjkRtzKn8LGbLS8?authuser=0&hl=en&rclk=1,"27.5650852,76.64500629999999"
Haji Tejal wali Masjid,Mosque,"HM82+W97 Haji Tejal wali Masjid, Alwar, Rajasthan 301001",,HM82+W97,Alwar,,Rajasthan,IN,https://www.google.com/maps/place/Haji+Tejal+wali+Masjid/data=!4m7!3m6!1s0x3972975069def62b:0x741abd8e268f18b7!8m2!3d27.5672934!4d76.6509161!16s%2Fg%2F11ggs98fhg!19sChIJK_beaVCXcjkRtxiPJo69GnQ?authuser=0&hl=en&rclk=1,"27.5672934,76.6509161"
Bhaktal Masjid,Mosque,"GMW9+6MV Bhaktal Masjid, Bhaktal, Alwar, Belaka, Rajasthan 301026",Bhaktal,GMW9+6MV,"Alwar, Belaka",301026,Rajasthan,IN,https://www.google.com/maps/place/Bhaktal+Masjid/data=!4m7!3m6!1s0x397290c66e99855f:0xae0c86202af16e86!8m2!3d27.545619!4d76.669175!16s%2Fg%2F1pyqtfm0b!19sChIJX4WZbsaQcjkRhm7xKiCGDK4?authuser=0&hl=en&rclk=1,"27.545619,76.669175"
Haji Sumer Masjid,Mosque,"JJ36+W3W Haji Sumer Masjid, Dholidub, Alwar, Rajasthan 301001",Dholidub,JJ36+W3W,Alwar,301001,Rajasthan,IN,https://www.google.com/maps/place/Haji+Sumer+Masjid/data=!4m7!3m6!1s0x3972984c2629f64d:0xeb2b0c43fa887a80!8m2!3d27.6048525!4d76.6101881!16s%2Fg%2F11gf0_l7jg!19sChIJTfYpJkyYcjkRgHqI-kMMK-s?authuser=0&hl=en&rclk=1,"27.6048525,76.6101881"
Sayyed Baba MSK,Mosque,"HJ26+FPV Sayyed Baba MSK, Moti Doongri, Alwar, Rajasthan 301002",Moti Doongri,HJ26+FPV,Alwar,301002,Rajasthan,IN,https://www.google.com/maps/place/Sayyed+Baba+MSK/data=!4m7!3m6!1s0x39729a2725cab747:0x37154578a649e62a!8m2!3d27.5512337!4d76.6118009!16s%2Fg%2F11f06lh7g6!19sChIJR7fKJSeacjkRKuZJpnhFFTc?authuser=0&hl=en&rclk=1,"27.551233699999997,76.61180089999999"
Jumma Masjid Tuleda,Mosque,"HMQ4+R98 Jumma Masjid Tuleda, Tulera, Rajasthan 301001",,HMQ4+R98,Tulera,301001,Rajasthan,IN,https://www.google.com/maps/place/Jumma+Masjid+Tuleda/data=!4m7!3m6!1s0x3972976e55ca21d1:0xb7f43a51a9297dfb!8m2!3d27.5895403!4d76.6559528!16s%2Fg%2F11ddwtvcl7!19sChIJ0SHKVW6XcjkR-30pqVE69Lc?authuser=0&hl=en&rclk=1,"27.5895403,76.6559528"
Masjid A mukaddas,Mosque,"GMW3+CWR Masjid A mukaddas, Kherado, Belaka, Rajasthan 301030",Kherado,GMW3+CWR,Belaka,301030,Rajasthan,IN,https://www.google.com/maps/place/Masjid+A+mukaddas/data=!4m7!3m6!1s0x397290b076303045:0xd2e77b36fe71ed31!8m2!3d27.5461036!4d76.6547716!16s%2Fg%2F11fx90xhcz!19sChIJRTAwdrCQcjkRMe1x_jZ759I?authuser=0&hl=en&rclk=1,"27.5461036,76.65477159999999"
Dargah,Mosque,"HJ5P+24J Dargah, Jyoti Nagar, Alwar, Rajasthan 301001",Jyoti Nagar,HJ5P+24J,Alwar,301001,Rajasthan,IN,https://www.google.com/maps/place/Dargah/data=!4m7!3m6!1s0x397299f8cc40ebb1:0x482ded1351be1c1c!8m2!3d27.5575811!4d76.6352592!16s%2Fg%2F1pyqgz9r1!19sChIJsetAzPiZcjkRHBy-URPtLUg?authuser=0&hl=en&rclk=1,"27.5575811,76.6352592"
Shiv Mandir,Hindu temple,"HM62+429 Shiv Mandir, shiv mandir,, Surya Nagar, Kherado, Alwar, Rajasthan 301001","Surya Nagar, Kherado","HM62+429, shiv mandir,",Alwar,301001,Rajasthan,IN,https://www.google.com/maps/place/Shiv+Mandir/data=!4m7!3m6!1s0x3972975254f374b1:0xf8c14248e67b4dba!8m2!3d27.5602957!4d76.6501096!16s%2Fg%2F11ckw6_8dy!19sChIJsXTzVFKXcjkRuk175khCwfg?authuser=0&hl=en&rclk=1,"27.560295699999998,76.6501096"
Kherado Masjid,Mosque,"GJWP+PJQ Kherado Masjid, Kherado, Alwar, Rajasthan 301030",Kherado,GJWP+PJQ,Alwar,301030,Rajasthan,IN,https://www.google.com/maps/place/Kherado+Masjid/data=!4m7!3m6!1s0x39729a066154ea37:0x9bd1c1d9490a297d!8m2!3d27.5468372!4d76.6365996!16s%2Fg%2F1pyqrf74w!19sChIJN-pUYQaacjkRfSkKSdnB0Zs?authuser=0&hl=en&rclk=1,"27.5468372,76.6365996"
Jumma Masjid Dholidoob,Mosque,"JJ77+225 Jumma Masjid Dholidoob, Dholidub, Alwar, Rajasthan 301001",Dholidub,JJ77+225,Alwar,301001,Rajasthan,IN,https://www.google.com/maps/place/Jumma+Masjid+Dholidoob/data=!4m7!3m6!1s0x397299281811fb11:0x9577b839e6bb6ca2!8m2!3d27.6125071!4d76.6126127!16s%2Fg%2F11fl90nrn7!19sChIJEfsRGCiZcjkRomy75jm4d5U?authuser=0&hl=en&rclk=1,"27.6125071,76.6126127"
Raisees Sunni Masjid,Mosque,"JJ7J+792 Raisees Sunni Masjid, Nagla Samawadi, Rajasthan 301001",,JJ7J+792,Nagla Samawadi,301001,Rajasthan,IN,https://www.google.com/maps/place/Raisees+Sunni+Masjid/data=!4m7!3m6!1s0x397299611938487d:0x6adbbef1933174d2!8m2!3d27.6131384!4d76.6309034!16s%2Fg%2F11fkf5c09x!19sChIJfUg4GWGZcjkR0nQxk_G-22o?authuser=0&hl=en&rclk=1,"27.6131384,76.6309034"
Masjid Chhangalki,Mosque,"FV97+CMF Masjid Chhangalki, Alwar, Rajasthan 301021",,FV97+CMF,Alwar,,Rajasthan,IN,https://www.google.com/maps/place/Masjid+Chhangalki/data=!4m7!3m6!1s0x3972f338b8f50f73:0x88cf1a9969080a51!8m2!3d27.4685512!4d76.8641626!16s%2Fg%2F11fd7745vn!19sChIJcw_1uDjzcjkRUQoIaZkaz4g?authuser=0&hl=en&rclk=1,"27.4685512,76.8641626"
Sayeed Baba Ki Mazar,Mosque,"GM2Q+66J Sayeed Baba Ki Mazar, Matsya Industrial Area, Alwar, Goondpur, Rajasthan 301030",Matsya Industrial Area,GM2Q+66J,"Alwar, Goondpur",301030,Rajasthan,IN,https://www.google.com/maps/place/Sayeed+Baba+Ki+Mazar/data=!4m7!3m6!1s0x397291b2d71f7d1b:0x4dc290b50f390d3a!8m2!3d27.500586!4d76.688025!16s%2Fg%2F1pyqknbt5!19sChIJG30f17KRcjkROg05D7WQwk0?authuser=0&hl=en&rclk=1,"27.500586,76.688025"
Masjid Raybaka,Mosque,"JM6G+PQ8 Masjid Raybaka, Alwar, Rajasthan 301028",,JM6G+PQ8,Alwar,,Rajasthan,IN,https://www.google.com/maps/place/Masjid+Raybaka/data=!4m7!3m6!1s0x39729708d18bcb4d:0xdc884bdc2789e021!8m2!3d27.6117949!4d76.676955!16s%2Fg%2F11gtb2kvy5!19sChIJTcuL0QiXcjkRIeCJJ9xLiNw?authuser=0&hl=en&rclk=1,"27.6117949,76.67695499999999"
jahar khera masjid,Mosque,"JJHQ+82F jahar khera masjid, Jahar Khera, Ulaheri, Rajasthan 301001",,JJHQ+82F,"Jahar Khera, Ulaheri",301001,Rajasthan,IN,https://www.google.com/maps/place/jahar+khera+masjid/data=!4m7!3m6!1s0x3972981ee4e98265:0xdbdcbc661d224169!8m2!3d27.6283057!4d76.6375566!16s%2Fg%2F11f39ry3cj!19sChIJZYLp5B6YcjkRaUEiHWa83Ns?authuser=0&hl=en&rclk=1,"27.6283057,76.6375566"
SaiyadiJumma Masjid,Mosque,"JJH6+8X6 SaiyadiJumma Masjid, Jatiyana, Rajasthan 301001",,JJH6+8X6,Jatiyana,,Rajasthan,IN,https://www.google.com/maps/place/SaiyadiJumma+Masjid/data=!4m7!3m6!1s0x3972990e34a58b35:0xd30bded9206eb28!8m2!3d27.6282972!4d76.6123884!16s%2Fg%2F11h64xhrbm!19sChIJNYulNA6ZcjkRKOsGku29MA0?authuser=0&hl=en&rclk=1,"27.6282972,76.6123884"
Chaand Masjid,Mosque,"HJ9M+G63 Chaand Masjid, 60 Feet Rd, Azad Nagar, Medical Colony, Daudpur, Alwar, Rajasthan 301001","Azad Nagar, Medical Colony, Daudpur","HJ9M+G63, 60 Feet Rd",Alwar,301001,Rajasthan,IN,https://www.google.com/maps/place/Chaand+Masjid/data=!4m7!3m6!1s0x3972991375f7f5d1:0x4bb13ba442531334!8m2!3d27.5687553!4d76.6330522!16s%2Fg%2F11glv8ly01!19sChIJ0fX3dROZcjkRNBNTQqQ7sUs?authuser=0&hl=en&rclk=1,"27.5687553,76.6330522"
Masjid Umar bin khattab samola,Mosque,"GJQJ+VFM Masjid Umar bin khattab samola, Samola, Alwar, Rajasthan 301001",Samola,GJQJ+VFM,Alwar,301001,Rajasthan,IN,https://www.google.com/maps/place/Masjid+Umar+bin+khattab+samola/data=!4m7!3m6!1s0x39729b1f4cba6159:0x5973088e4d1884f4!8m2!3d27.5397077!4d76.6311591!16s%2Fg%2F11h5rhgh0y!19sChIJWWG6TB-bcjkR9IQYTY4Ic1k?authuser=0&hl=en&rclk=1,"27.539707699999997,76.63115909999999"
Sher Khan MASJID RTO Office Alwar,Mosque,"JJ94+PJ9 Sher Khan MASJID RTO Office Alwar, Jatiyana, Rajasthan 301001",,JJ94+PJ9,Jatiyana,301001,Rajasthan,IN,https://www.google.com/maps/place/Sher+Khan+MASJID+RTO+Office+Alwar/data=!4m7!3m6!1s0x397299efcd6a8c81:0xc7c87e235162ab0a!8m2!3d27.6192861!4d76.606622!16s%2Fg%2F11j8_4xjmn!19sChIJgYxqze-ZcjkRCqtiUSN-yMc?authuser=0&hl=en&rclk=1,"27.6192861,76.606622"
Badi masjid mungaska,Mosque,"HJ5P+G49 Badi masjid mungaska, Jyoti Nagar, Alwar, Rajasthan 301001",Jyoti Nagar,HJ5P+G49,Alwar,,Rajasthan,IN,https://www.google.com/maps/place/Badi+masjid+mungaska/data=!4m7!3m6!1s0x397299f9523122d3:0xe866a86fb58d74b2!8m2!3d27.5587873!4d76.6353501!16s%2Fg%2F11tdjlxpq4!19sChIJ0yIxUvmZcjkRsnSNtW-oZug?authuser=0&hl=en&rclk=1,"27.5587873,76.6353501"
Badi Masjid Dholidoob,Mosque,"JJ75+VHV Badi Masjid Dholidoob, Dholidub, Alwar, Rajasthan 301001",Dholidub,JJ75+VHV,Alwar,301001,Rajasthan,IN,https://www.google.com/maps/place/Badi+Masjid+Dholidoob/data=!4m7!3m6!1s0x3972992fea008311:0xae1e9e38e766fb43!8m2!3d27.6147397!4d76.6089119!16s%2Fg%2F11fl90lg_n!19sChIJEYMA6i-ZcjkRQ_tm5zieHq4?authuser=0&hl=en&rclk=1,"27.614739699999998,76.6089119"
Masjid ( Mosque) Kesharpur,Mosque,"GH2V+WJC Masjid ( Mosque) Kesharpur, Main Rd, Kesharpur, Liwari, Rajasthan 301001",,"GH2V+WJC, Main Rd","Kesharpur, Liwari",301001,Rajasthan,IN,https://www.google.com/maps/place/Masjid+%28+Mosque%29+Kesharpur/data=!4m7!3m6!1s0x39729bfce588f009:0x2c13d304e97e6cd8!8m2!3d27.5023225!4d76.5940258!16s%2Fg%2F11jxf0jpsy!19sChIJCfCI5fybcjkR2Gx-6QTTEyw?authuser=0&hl=en&rclk=1,"27.5023225,76.5940258"
PIR BABA KI MAZAAR,Mosque,"HJ52+W6P PIR BABA KI MAZAAR, Unnamed Road, Rathkhana, Alwar, Rajasthan 301001",Rathkhana,"HJ52+W6P, Unnamed Road",Alwar,301001,Rajasthan,IN,https://www.google.com/maps/place/PIR+BABA+KI+MAZAAR/data=!4m7!3m6!1s0x3972996eb223b071:0x33a6bf9beb84469f!8m2!3d27.5598403!4d76.6005644!16s%2Fg%2F11h0vpbb_w!19sChIJcbAjsm6ZcjkRn0aE65u_pjM?authuser=0&hl=en&rclk=1,"27.559840299999998,76.6005644"
Dedwal Bas Masjid,Mosque,"HJPX+FP8 Dedwal Bas Masjid, Tulera, Rajasthan 301001",,HJPX+FP8,Tulera,301001,Rajasthan,IN,https://www.google.com/maps/place/Dedwal+Bas+Masjid/data=!4m7!3m6!1s0x39729745f9a0b67d:0x1dae09d867fea585!8m2!3d27.5861557!4d76.6493418!16s%2Fg%2F11tstsfy15!19sChIJfbag-UWXcjkRhaX-Z9gJrh0?authuser=0&hl=en&rclk=1,"27.5861557,76.6493418"
Al Fed Bin Mohammad Masjid Chanduki,Mosque,"JM69+3F5 Al Fed Bin Mohammad Masjid Chanduki, Chandooki, Rajasthan 301001",,JM69+3F5,Chandooki,301001,Rajasthan,IN,https://www.google.com/maps/place/Al+Fed+Bin+Mohammad+Masjid+Chanduki/data=!4m7!3m6!1s0x3972971cd260c1cb:0xdea2e633ac50502a!8m2!3d27.6101434!4d76.6687232!16s%2Fg%2F11gy5059_k!19sChIJy8Fg0hyXcjkRKlBQrDPmot4?authuser=0&hl=en&rclk=1,"27.6101434,76.6687232"
Mdina MEWAT Masjid Mannaka,Mosque,"HM82+FCV Mdina MEWAT Masjid Mannaka, Alwar, Rajasthan 301001",,HM82+FCV,Alwar,,Rajasthan,IN,https://www.google.com/maps/place/Mdina+MEWAT+Masjid+Mannaka/data=!4m7!3m6!1s0x39729753dbb42b4f:0xeff736a6edf02409!8m2!3d27.5662334!4d76.6510554!16s%2Fg%2F11qgjl1p_f!19sChIJTyu021OXcjkRCSTw7aY29-8?authuser=0&hl=en&rclk=1,"27.566233399999998,76.65105539999999"
Madeena masjid bhakeda,Mosque,"GHHQ+F5Q Madeena masjid bhakeda, Rundh Bhakhera, Alwar, Rajasthan 301001",,GHHQ+F5Q,"Rundh Bhakhera, Alwar",301001,Rajasthan,IN,https://www.google.com/maps/place/Madeena+masjid+bhakeda/data=!4m7!3m6!1s0x39729b7a982d0567:0x39f349a55ab787bd!8m2!3d27.5287013!4d76.5879703!16s%2Fg%2F11r1dv3hdr!19sChIJZwUtmHqbcjkRvYe3WqVJ8zk?authuser=0&hl=en&rclk=1,"27.528701299999998,76.5879703"
madeena masjid badabaas,Mosque,"GMXG+5CV madeena masjid badabaas, Bhaktal, Alwar, Rajasthan 301026",Bhaktal,GMXG+5CV,Alwar,301026,Rajasthan,IN,https://www.google.com/maps/place/madeena+masjid+badabaas/data=!4m7!3m6!1s0x3972912d61f918d5:0x1d410936d1320aa8!8m2!3d27.5480163!4d76.6759073!16s%2Fg%2F11tcx6c07l!19sChIJ1Rj5YS2RcjkRqAoy0TYJQR0?authuser=0&hl=en&rclk=1,"27.5480163,76.67590729999999"
Chhoti masjid Mannaka,Mosque,"Chhoti masjid Mannaka, Choti masjid, Mannaka, Alwar, Rajasthan 301001",,Choti masjid,"Mannaka, Alwar",,Rajasthan,IN,https://www.google.com/maps/place/Chhoti+masjid+Mannaka/data=!4m7!3m6!1s0x397297baa11d75bb:0x76ad9283397ec75d!8m2!3d27.5682076!4d76.6567132!16s%2Fg%2F11t6tv00fr!19sChIJu3UdobqXcjkRXcd-OYOSrXY?authuser=0&hl=en&rclk=1,"27.568207599999997,76.6567132"
MASJID DAUDPUR,Mosque,"HJ8F+J68 MASJID DAUDPUR, Mungshka, Daudpur, Alwar, Rajasthan 301001","Mungshka, Daudpur",HJ8F+J68,Alwar,301001,Rajasthan,IN,https://www.google.com/maps/place/MASJID+DAUDPUR/data=!4m7!3m6!1s0x397299f4cdcf258f:0x25f2791e7de953f0!8m2!3d27.5665476!4d76.6230911!16s%2Fg%2F11syx0j2vx!19sChIJjyXPzfSZcjkR8FPpfR558iU?authuser=0&hl=en&rclk=1,"27.5665476,76.6230911"
Masjid new bording,Mosque,"Masjid new bording, Bhagat Singh Circle, 27, opposite Ishan Honda, Lajpat Nagar, Alwar, Rajasthan 301001","Shivaji Park, Lajpat Nagar","Bhagat Singh Circle, 27, opposite Ishan Honda",Alwar,301001,Rajasthan,IN,https://www.google.com/maps/place/Masjid+new+bording/data=!4m7!3m6!1s0x397299629eb9d827:0xf362dccf760878d3!8m2!3d27.5697619!4d76.6139816!16s%2Fg%2F11s7s785ht!19sChIJJ9i5nmKZcjkR03gIds_cYvM?authuser=0&hl=en&rclk=1,"27.5697619,76.6139816"
bb fryd wly msjd,Mosque,"HJ57+WH7 bb fryd wly msjd, Indra Colony, Alwar, Rajasthan 301001",Indra Colony,HJ57+WH7,Alwar,301001,Rajasthan,IN,https://www.google.com/maps/place/%D8%A8%D8%A7%D8%A8%D8%A7+%D9%81%D8%B1%DB%8C%D8%AF+%D8%A7%D9%88%D9%84%DB%8C%D8%A7%D8%A1+%D9%85%D8%B3%D8%AC%D8%AF%E2%80%AD/data=!4m7!3m6!1s0x397299524ba1f821:0x3767236d2e4c6637!8m2!3d27.5597952!4d76.6139278!16s%2Fg%2F11gydfc9ml!19sChIJIfihS1KZcjkRN2ZMLm0jZzc?authuser=0&hl=en&rclk=1,"27.5597952,76.6139278"
Baba farid darga,Mosque,"Baba farid darga, Agrawal's Sadan, 114, Indra Colony, Alwar, Rajasthan 301001",Indra Colony,"Agrawal's Sadan, 114",Alwar,301001,Rajasthan,IN,https://www.google.com/maps/place/Baba+farid+darga/data=!4m7!3m6!1s0x397299c496b8851d:0x8ace44ed23ea4584!8m2!3d27.559776!4d76.6139782!16s%2Fg%2F11pb67cg6f!19sChIJHYW4lsSZcjkRhEXqI-1Ezoo?authuser=0&hl=en&rclk=1,"27.559776,76.61397819999999"
WALE MASJID,Mosque,"GQX8+C8J WALE MASJID, Alwar, Nadka, Rajasthan 301026",,GQX8+C8J,"Alwar, Nadka",,Rajasthan,IN,https://www.google.com/maps/place/WALE+MASJID/data=!4m7!3m6!1s0x3972936355fb6a53:0xe4e66e5f314d83e1!8m2!3d27.5485789!4d76.7657604!16s%2Fg%2F11t0tf70cc!19sChIJU2r7VWOTcjkR4YNNMV9u5uQ?authuser=0&hl=en&rclk=1,"27.5485789,76.76576039999999"
Madrsa jamiya ruknul islam badi masjid Bakhtal,School,"GMW9+7JV Madrsa jamiya ruknul islam badi masjid Bakhtal, Bhaktal, Alwar, Belaka, Rajasthan 301026",Bhaktal,GMW9+7JV,"Alwar, Belaka",301026,Rajasthan,IN,https://www.google.com/maps/place/Madrsa+jamiya+ruknul+islam+badi+masjid+Bakhtal/data=!4m7!3m6!1s0x39729168a1aae4cf:0xc644fdf33a17c2a!8m2!3d27.5457386!4d76.66904!16s%2Fg%2F11gtq7jcch!19sChIJz-SqoWiRcjkRKnyhM99PZAw?authuser=0&hl=en&rclk=1,"27.5457386,76.66904"
Raza masjid,Mosque,"JJRR+5GQ Raza masjid, Jahar Khera, Rajasthan 301001",,JJRR+5GQ,Jahar Khera,301001,Rajasthan,IN,https://www.google.com/maps/place/Raza+masjid/data=!4m7!3m6!1s0x3972976c626f4d53:0x8cf208d098081d2d!8m2!3d27.6415505!4d76.6431496!16s%2Fg%2F11qh7js8tz!19sChIJU01vYmyXcjkRLR0ImNAI8ow?authuser=0&hl=en&rclk=1,"27.641550499999997,76.6431496"
msjid,Mosque,"HM83+XV5 msjid, Alwar, Rajasthan 301001",,HM83+XV5,Alwar,,Rajasthan,IN,https://www.google.com/maps/place/%E0%A4%AE%E0%A4%B8%E0%A5%8D%E0%A4%9C%E0%A4%BF%E0%A4%A6/data=!4m7!3m6!1s0x397297670c53b969:0x78db3f3710619357!8m2!3d27.5673856!4d76.6547363!16s%2Fg%2F11lrm_jylj!19sChIJablTDGeXcjkRV5NhEDc_23g?authuser=0&hl=en&rclk=1,"27.567385599999998,76.6547363"
Maszid,Mosque,"HJJM+8C9 Maszid, Ranjeet Nagar, Daudpur, Alwar, Rajasthan 301001","Ranjeet Nagar, Daudpur",HJJM+8C9,Alwar,301001,Rajasthan,IN,https://www.google.com/maps/place/Maszid/data=!4m7!3m6!1s0x397299434033f0d7:0xb88a13bcee2adc59!8m2!3d27.5807778!4d76.6335952!16s%2Fg%2F11f9x8k6d1!19sChIJ1_AzQEOZcjkRWdwq7rwTirg?authuser=0&hl=en&rclk=1,"27.5807778,76.6335952"
Sahi jumma masjid bhakeda,Mosque,"GHHP+MP9 Sahi jumma masjid bhakeda, Rundh Bhakhera, Alwar, Rajasthan 301001",,GHHP+MP9,"Rundh Bhakhera, Alwar",301001,Rajasthan,IN,https://www.google.com/maps/place/Sahi+jumma+masjid+bhakeda/data=!4m7!3m6!1s0x39729bfa01743dd7:0x81f558718325c22c!8m2!3d27.5291648!4d76.5868708!16s%2Fg%2F11mprv2qfk!19sChIJ1z10AfqbcjkRLMIlg3FY9YE?authuser=0&hl=en&rclk=1,"27.5291648,76.5868708"
Badi masjid mannaka,Mosque,"HM84+WXW Badi masjid mannaka, Diwakari, Alwar, Rajasthan 301001",,HM84+WXW,"Diwakari, Alwar",301001,Rajasthan,IN,https://www.google.com/maps/place/Badi+masjid+mannaka/data=!4m7!3m6!1s0x397297512ce04cd7:0xde5f3f6d000b7a83!8m2!3d27.5673626!4d76.6574858!16s%2Fg%2F11pysjm8bk!19sChIJ10zgLFGXcjkRg3oLAG0_X94?authuser=0&hl=en&rclk=1,"27.5673626,76.6574858"
Dedwal ka Baas Wali Masjid Tulda,Mosque,"HMJ2+42P Dedwal ka Baas Wali Masjid Tulda, Tulera, Alwar, Rajasthan 301001",,HMJ2+42P,"Tulera, Alwar",,Rajasthan,IN,https://www.google.com/maps/place/Dedwal+ka+Baas+Wali+Masjid+Tulda/data=!4m7!3m6!1s0x397297714cace669:0xf875e438b8a78e48!8m2!3d27.5803454!4d76.6500731!16s%2Fg%2F11tmrsvq8f!19sChIJaeasTHGXcjkRSI6nuDjkdfg?authuser=0&hl=en&rclk=1,"27.5803454,76.6500731"
Ishak sarpanch,Mosque,"HJ84+JF3 Ishak sarpanch, Jarla pahari, Alwar",Sector 7,"HJ84+JF3, Jarla pahari",Alwar,,Rajasthan,IN,https://www.google.com/maps/place/Ishak+sarpanch/data=!4m7!3m6!1s0x3972994cb39dc395:0x63c84a0fd14ae56f!8m2!3d27.5665208!4d76.6061847!16s%2Fg%2F11rmv2htc4!19sChIJlcOds0yZcjkRb-VK0Q9KyGM?authuser=0&hl=en&rclk=1,"27.5665208,76.6061847"
Sunni Jama Masjid,Mosque,"Sunni Jama Masjid, Kherli saiyad F66CF101-FD24, 4C59-BEF1, 18B2A7E3AFF3, Rajasthan 301030",,"Kherli saiyad F66CF101-FD24, 4C59-BEF1","18B2A7E3AFF3, Kherli Saiyad",301030,Rajasthan,IN,https://www.google.com/maps/place/Sunni+Jama+Masjid/data=!4m7!3m6!1s0x3972913cc483baa5:0x2f427070467aac5e!8m2!3d27.4734071!4d76.7076768!16s%2Fg%2F11rwpg1s8j!19sChIJpbqDxDyRcjkRXqx6RnBwQi8?authuser=0&hl=en&rclk=1,"27.4734071,76.7076768"
Masjid alladin ka bass,Mosque,"JJ5V+8MV Masjid alladin ka bass, Raisees, Rajasthan 301001",,JJ5V+8MV,Raisees,301001,Rajasthan,IN,https://www.google.com/maps/place/Masjid+alladin+ka+bass/data=!4m7!3m6!1s0x3972972a4120ac5f:0x384f5a9332ac1def!8m2!3d27.6083546!4d76.6441672!16s%2Fg%2F11hn3hrkjk!19sChIJX6wgQSqXcjkR7x2sMpNaTzg?authuser=0&hl=en&rclk=1,"27.6083546,76.6441672"
Badi Masjid Samola Alwar Raj,Apartment building,"GJPJ+RM4 Badi Masjid Samola Alwar Raj, Samola, Alwar, Rajasthan 301030",Samola,GJPJ+RM4,Alwar,,Rajasthan,IN,https://www.google.com/maps/place/Badi+Masjid+Samola+Alwar+Raj/data=!4m7!3m6!1s0x39729b2f17c7eac3:0xe59e85c041ec31a2!8m2!3d27.5370197!4d76.6317128!16s%2Fg%2F11ts463fg_!19sChIJw-rHFy-bcjkRojHsQcCFnuU?authuser=0&hl=en&rclk=1,"27.5370197,76.6317128"
Mdina Masjid,Mosque,"JHWW+RVF Mdina Masjid, Alwar, Kasba Dahra, Rajasthan 301001",,JHWW+RVF,"Alwar, Kasba Dahra",301001,Rajasthan,IN,https://www.google.com/maps/place/Mdina+Masjid/data=!4m7!3m6!1s0x3972a33c3dd07cd3:0xcaa960ef598c43d!8m2!3d27.6470596!4d76.5971641!16s%2Fg%2F11rwk_yl1j!19sChIJ03zQPTyjcjkRPcSY9Q6Wqgw?authuser=0&hl=en&rclk=1,"27.6470596,76.5971641"
Masjid Goleta,Mosque,"Masjid Goleta, Goleta Choroti Pahar Rd, Ghegholi, Goleta, Rajasthan 301030",,Goleta Choroti Pahar Rd,"Ghegholi, Goleta",301030,Rajasthan,IN,https://www.google.com/maps/place/Masjid+Goleta/data=!4m7!3m6!1s0x397291f627da4d1b:0x80025801dc097bac!8m2!3d27.5403641!4d76.7002862!16s%2Fg%2F11ty6x24cx!19sChIJG03aJ_aRcjkRrHsJ3AFYAoA?authuser=0&hl=en&rclk=1,"27.540364099999998,76.7002862"
Saiyadi Masjid Ashif Jatiyana,Mosque,"JJ7J+69R Saiyadi Masjid Ashif Jatiyana, raishis, Nagla Samawadi, Rajasthan 301001",raishis,JJ7J+69R,Nagla Samawadi,,Rajasthan,IN,https://www.google.com/maps/place/Saiyadi+Masjid+Ashif+Jatiyana/data=!4m7!3m6!1s0x3972996d4900bcd3:0x724e773ba1012eba!8m2!3d27.6131006!4d76.6309041!16s%2Fg%2F11fkf5fnsb!19sChIJ07wASW2ZcjkRui4BoTt3TnI?authuser=0&hl=en&rclk=1,"27.6131006,76.6309041"
