name,main_category,address,address_ward,address_street,address_city,address_postal_code,address_state,address_country_code,link,coordinates
MASJID E FATIMA,Mosque,"MASJID E FATIMA, 586101, Ward Number 28, green park naubag, Vijayapura, Karnataka 586101",Saquaf Roza,"586101, Ward Number 28, green park naubag",Vijayapura,586101,Karnataka,IN,https://www.google.com/maps/place/MASJID+E+FATIMA/data=!4m7!3m6!1s0x3bc655fc5bf70f9f:0x8298d03e34e3a832!8m2!3d16.8210781!4d75.7120351!16s%2Fg%2F11h21zdhb8!19sChIJnw_3W_xVxjsRMqjjND7QmII?authuser=0&hl=en&rclk=1,"16.821078099999998,75.7120351"
MUHAMMADIYA MASJID (Ahle Hadees),Mosque,"MUHAMMADIYA MASJID (Ahle Hadees), 586101, Ward Number 28, Saquaf Roza, Vijayapura, Karnataka 586101","Ward Number 28, Saquaf Roza",586101,Vijayapura,586101,Karnataka,IN,https://www.google.com/maps/place/MUHAMMADIYA+MASJID+%28Ahle+Hadees%29/data=!4m7!3m6!1s0x3bc65582174626ab:0xe03bd76635353efd!8m2!3d16.8226649!4d75.7150118!16s%2Fg%2F11h21zf5qh!19sChIJqyZGF4JVxjsR_T41NWbXO-A?authuser=0&hl=en&rclk=1,"16.8226649,75.7150118"
Jamiya Masjid,Mosque,"Jamiya Masjid, Jamiya Masjid Rd, opp. Jamija Masjid, Vijayapura, Karnataka 586101",Vijayapura,"Jamiya Masjid Rd, opp. Jamija Masjid",Vijayapura,586101,Karnataka,IN,https://www.google.com/maps/place/Jamiya+Masjid/data=!4m7!3m6!1s0x3bc65571d0b5fad5:0xc805db010e919fe!8m2!3d16.8222732!4d75.7287785!16s%2Fm%2F0drbb_n!19sChIJ1fq10HFVxjsR_hnpELBdgAw?authuser=0&hl=en&rclk=1,"16.822273199999998,75.72877849999999"
Golgumbaz Masjid,Mosque,"Golgumbaz Masjid, Beside Golgumbaz-586101, Ancient Fort wall, Jadar Galli, Vijayapura, Karnataka 586104",Jadar Galli,"Beside Golgumbaz-586101, Ancient Fort wall",Vijayapura,586104,Karnataka,IN,https://www.google.com/maps/place/Golgumbaz+Masjid/data=!4m7!3m6!1s0x3bc65574e51fa8f5:0x1a087960442080cf!8m2!3d16.8302259!4d75.7351129!16s%2Fg%2F12mj_qvt1!19sChIJ9agf5XRVxjsRz4AgRGB5CBo?authuser=0&hl=en&rclk=1,"16.8302259,75.73511289999999"
Datri Masjid,Mosque,"Datri Masjid, Vijayapur - Sindagi Rd, Saquaf Roza, Vijayapura, Karnataka 586101",Saquaf Roza,Vijayapur - Sindagi Rd,Vijayapura,586101,Karnataka,IN,https://www.google.com/maps/place/Datri+Masjid/data=!4m7!3m6!1s0x3bc6557cfc312a61:0x4c61be8aa5644733!8m2!3d16.823313!4d75.7170197!16s%2Fg%2F12hl5tqpn!19sChIJYSox_HxVxjsRM0dkpYq-YUw?authuser=0&hl=en&rclk=1,"16.823313,75.7170197"
Jannath Masjid Hall,Mosque,"RMJX+2WH Jannath Masjid Hall, Shastri Nagar, Vijayapura, Karnataka 586102",Shastri Nagar,RMJX+2WH,Vijayapura,586102,Karnataka,IN,https://www.google.com/maps/place/Jannath+Masjid+Hall/data=!4m7!3m6!1s0x3bc6ff9d707ec465:0x3503b4863e3751fc!8m2!3d16.8300581!4d75.6998619!16s%2Fg%2F1pp2x9g4b!19sChIJZcR-cJ3_xjsR_FE3Poa0AzU?authuser=0&hl=en&rclk=1,"16.8300581,75.6998619"
Yaseen Masjid,Mosque,"RP68+69G Yaseen Masjid, Bagalkot Road, navruspur Colony, Vijayapura, Karnataka",Bammanajogi,"RP68+69G, Bagalkot Road, navruspur Colony",Vijayapura,,Karnataka,IN,https://www.google.com/maps/place/Yaseen+Masjid/data=!4m7!3m6!1s0x3bc65560685c3ccd:0x9a496153a4c2d0fa!8m2!3d16.810574!4d75.7159623!16s%2Fg%2F11b88g6jhn!19sChIJzTxcaGBVxjsR-tDCpFNhSZo?authuser=0&hl=en&rclk=1,"16.810574,75.7159623"
Chota Asar Masjid,Mosque,"RPJ7+MGF Chota Asar Masjid, Upali Burj Area, Vijayapura, Karnataka 586101",Upali Burj Area,RPJ7+MGF,Vijayapura,586101,Karnataka,IN,https://www.google.com/maps/place/Chota+Asar+Masjid/data=!4m7!3m6!1s0x3bc6ff8007420165:0x87590c67e4abd5d8!8m2!3d16.831697!4d75.7138044!16s%2Fg%2F1tdpq33t!19sChIJZQFCB4D_xjsR2NWr5GcMWYc?authuser=0&hl=en&rclk=1,"16.831697,75.7138044"
nvaab msiidi ( Nawab Masjid) (Mustafa Khan Mosque),Mosque,"RPFG+V6C nvaab msiidi ( Nawab Masjid) (Mustafa Khan Mosque), Gopalpur Galli, Vijayapura, Karnataka 586101",Gopalpur Galli,RPFG+V6C,Vijayapura,586101,Karnataka,IN,https://www.google.com/maps/place/%E0%B2%A8%E0%B2%B5%E0%B2%BE%E0%B2%AC+%E0%B2%AE%E0%B2%B8%E0%B3%80%E0%B2%A6%E0%B2%BF+%28+Nawab+Masjid%29+%28Mustafa+Khan+Mosque%29/data=!4m7!3m6!1s0x3bc6557081edaba7:0x9ad8d2c5d7dba6d9!8m2!3d16.8246974!4d75.7255062!16s%2Fg%2F1hf402dkn!19sChIJp6vtgXBVxjsR2abb18XS2Jo?authuser=0&hl=en&rclk=1,"16.824697399999998,75.7255062"
Mann Quadri Masjid (Al-Aqsa Masjid),Mosque,"RP6F+JQ2 Mann Quadri Masjid (Al-Aqsa Masjid), Keerti Nagar, Vijayapura, Karnataka 586109",Keerti Nagar,RP6F+JQ2,Vijayapura,586109,Karnataka,IN,https://www.google.com/maps/place/Mann+Quadri+Masjid+%28Al-Aqsa+Masjid%29/data=!4m7!3m6!1s0x3bc65567c1785471:0xf46401821ef3fdc0!8m2!3d16.8115205!4d75.7243887!16s%2Fg%2F11bw3dqkh6!19sChIJcVR4wWdVxjsRwP3zHoIBZPQ?authuser=0&hl=en&rclk=1,"16.8115205,75.72438869999999"
Umar Masjid,Mosque,"RPQ8+49V Umar Masjid, Sholapur, Vijayapura, Karnataka 586101",Sholapur,RPQ8+49V,Vijayapura,586101,Karnataka,IN,https://www.google.com/maps/place/Umar+Masjid/data=!4m7!3m6!1s0x3bc65580cda68be5:0x6268721464590241!8m2!3d16.8378571!4d75.715922!16s%2Fg%2F1td5vlxh!19sChIJ5YumzYBVxjsRQQJZZBRyaGI?authuser=0&hl=en&rclk=1,"16.8378571,75.71592199999999"
Bara Tang Masjid,Mosque,"RPV2+5XJ Bara Tang Masjid, Sankh - Bijapur Rd, Shakti Nagar, Vijayapura, Karnataka 586103",Shakti Nagar,"RPV2+5XJ, Sankh - Bijapur Rd",Vijayapura,586103,Karnataka,IN,https://www.google.com/maps/place/Bara+Tang+Masjid/data=!4m7!3m6!1s0x3bc6ff655599d6bd:0x5948802ce1440164!8m2!3d16.842954!4d75.7023896!16s%2Fg%2F12hkfhv24!19sChIJvdaZVWX_xjsRZAFE4SyASFk?authuser=0&hl=en&rclk=1,"16.842954,75.7023896"
Bhukhari Masjid,Mosque,"RPH8+QRM Bhukhari Masjid, MG Rd, Jadar Galli, Vijayapura, Karnataka 586101",Jadar Galli,"RPH8+QRM, MG Rd",Vijayapura,586101,Karnataka,IN,https://www.google.com/maps/place/Bhukhari+Masjid/data=!4m7!3m6!1s0x3bc6557effa92dd3:0xd1adc92c19d6345d!8m2!3d16.8294622!4d75.7170456!16s%2Fg%2F1th6c8x7!19sChIJ0y2p_35VxjsRXTTWGSzJrdE?authuser=0&hl=en&rclk=1,"16.8294622,75.71704559999999"
Jamal Masjid,Mosque,"Jamal Masjid, near iqra school bagayat galli, battalbavi tota, Jamiya Masjid Rd, Karnataka 586101",Vijayapura,"near iqra school bagayat galli, battalbavi tota, Jamiya Masjid Rd",Vijayapura,586101,Karnataka,IN,https://www.google.com/maps/place/Jamal+Masjid/data=!4m7!3m6!1s0x3bc6556f957ed427:0x9639a793f7cd879c!8m2!3d16.8199478!4d75.7269617!16s%2Fg%2F11bw5x9_zt!19sChIJJ9R-lW9VxjsRnIfN95OnOZY?authuser=0&hl=en&rclk=1,"16.819947799999998,75.72696169999999"
Madina Masjid,Mosque,"RP74+5XF Madina Masjid, Bammanajogi, Vijayapura, Karnataka 586102",Bammanajogi,RP74+5XF,Vijayapura,586102,Karnataka,IN,https://www.google.com/maps/place/Madina+Masjid/data=!4m7!3m6!1s0x3bc6ff8c72b9509b:0xdec97cbe2ea2faea!8m2!3d16.8129413!4d75.7074158!16s%2Fg%2F11f4t_tqwh!19sChIJm1C5coz_xjsR6vqiLr58yd4?authuser=0&hl=en&rclk=1,"16.8129413,75.70741579999999"
Ahel-E-Hadees Abubakar Masjid,Mosque,"RP9G+V4F Ahel-E-Hadees Abubakar Masjid, Vijayapura, Karnataka 586101",Vijayapura,RP9G+V4F,Vijayapura,586101,Karnataka,IN,https://www.google.com/maps/place/Ahel-E-Hadees+Abubakar+Masjid/data=!4m7!3m6!1s0x3bc6556561704599:0x572f85fcc680232a!8m2!3d16.8196977!4d75.7253091!16s%2Fg%2F1jglt_fr5!19sChIJmUVwYWVVxjsRKiOAxvyFL1c?authuser=0&hl=en&rclk=1,"16.8196977,75.72530909999999"
Andu Masjid,Mosque,"Andu Masjid, Bagalkot Road, Bijapur-586101, Bagalkot Rd, near National Gym, Anand Nagar, Vijayapura, Karnataka 586101","Anand Nagar, Kanakadas colony","Bagalkot Road, Bijapur-586101, Bagalkot Rd, near National Gym",Vijayapura,586101,Karnataka,IN,https://www.google.com/maps/place/Andu+Masjid/data=!4m7!3m6!1s0x3bc6557cbf933213:0x7b3d560003657995!8m2!3d16.8223085!4d75.7183202!16s%2Fg%2F12mj9jzqk!19sChIJEzKTv3xVxjsRlXllAwBWPXs?authuser=0&hl=en&rclk=1,"16.8223085,75.7183202"
Ilahi Masjid,Mosque,"RPCP+83G Ilahi Masjid, Jala Nagar, Vijayapura, Karnataka 586101",Jala Nagar,RPCP+83G,Vijayapura,586101,Karnataka,IN,https://www.google.com/maps/place/Ilahi+Masjid/data=!4m7!3m6!1s0x3bc6556d6cb86c19:0xbc38374dbbd07e6f!8m2!3d16.8208033!4d75.7352145!16s%2Fg%2F1pyqndz2x!19sChIJGWy4bG1VxjsRb37Qu003OLw?authuser=0&hl=en&rclk=1,"16.820803299999998,75.7352145"
Pahad Khan Masjid,Mosque,"RPFP+C77 Pahad Khan Masjid, Jamiya Masjid Rd, Jala Nagar, Vijayapura, Karnataka 586101",Jala Nagar,"RPFP+C77, Jamiya Masjid Rd",Vijayapura,586101,Karnataka,IN,https://www.google.com/maps/place/Pahad+Khan+Masjid/data=!4m7!3m6!1s0x3bc655729561b349:0x99a8428a607237ac!8m2!3d16.8235373!4d75.7356711!16s%2Fg%2F12hkdq5tl!19sChIJSbNhlXJVxjsRrDdyYIpCqJk?authuser=0&hl=en&rclk=1,"16.823537299999998,75.73567109999999"
Ali Shaheed Masjid (Khooni Masjid),Mosque,"RPCF+M68 Ali Shaheed Masjid (Khooni Masjid), Kanakadas colony, Vijayapura, Karnataka 586101",Kanakadas colony,RPCF+M68,Vijayapura,586101,Karnataka,IN,https://www.google.com/maps/place/Ali+Shaheed+Masjid+%28Khooni+Masjid%29/data=!4m7!3m6!1s0x3bc6557ad1606c71:0x8f2293bfeec99589!8m2!3d16.8216615!4d75.7230832!16s%2Fg%2F1pyqtw25t!19sChIJcWxg0XpVxjsRiZXJ7r-TIo8?authuser=0&hl=en&rclk=1,"16.821661499999998,75.72308319999999"
Firdous Masjid,Mosque,"RP76+3QC Firdous Masjid, Bammanajogi, Vijayapura, Karnataka 586109",Bammanajogi,RP76+3QC,Vijayapura,586109,Karnataka,IN,https://www.google.com/maps/place/Firdous+Masjid/data=!4m7!3m6!1s0x3bc6ff8a4519cdc1:0x60e44c6b24e6ca58!8m2!3d16.812691!4d75.7118866!16s%2Fg%2F12hlwwlv3!19sChIJwc0ZRYr_xjsRWMrmJGtM5GA?authuser=0&hl=en&rclk=1,"16.812691,75.7118866"
Sikandar Masjid,Mosque,"RPJ7+FQ4 Sikandar Masjid, Upali Burj Area, Vijayapura, Karnataka 586101",Upali Burj Area,RPJ7+FQ4,Vijayapura,586101,Karnataka,IN,https://www.google.com/maps/place/Sikandar+Masjid/data=!4m7!3m6!1s0x3bc6557fe67f8d5b:0x92805f72bbdad69a!8m2!3d16.8311341!4d75.7144431!16s%2Fg%2F12jbt0f1z!19sChIJW41_5n9VxjsRmtbau3JfgJI?authuser=0&hl=en&rclk=1,"16.8311341,75.7144431"
Kali Masjid,Mosque,"RPFJ+35J Kali Masjid, Jamiya Masjid Rd, Vijayapura, Karnataka 586101",Vijayapura,"RPFJ+35J, Jamiya Masjid Rd",Vijayapura,586101,Karnataka,IN,https://www.google.com/maps/place/Kali+Masjid/data=!4m7!3m6!1s0x3bc65571eefc930b:0x1ce3cd24f20a67f8!8m2!3d16.822702!4d75.730397!16s%2Fg%2F11xx0z_pz!19sChIJC5P87nFVxjsR-GcK8iTN4xw?authuser=0&hl=en&rclk=1,"16.822702,75.730397"
Umar Farooq Masjid,Mosque,"RP57+V8M Umar Farooq Masjid, Bammanajogi, Vijayapura, Karnataka 586102",Bammanajogi,RP57+V8M,Vijayapura,586102,Karnataka,IN,https://www.google.com/maps/place/Umar+Farooq+Masjid/data=!4m7!3m6!1s0x3bc6ff8aaf100195:0xf5bc42180dd64fd5!8m2!3d16.8097113!4d75.7133097!16s%2Fg%2F11c0pzshs3!19sChIJlQEQr4r_xjsR1U_WDRhCvPU?authuser=0&hl=en&rclk=1,"16.8097113,75.7133097"
Taqwa Masjid Galgali Colony,Mosque,"RP7H+FX7 Taqwa Masjid Galgali Colony, Vijayapura, Karnataka 586101",Vijayapura,RP7H+FX7,Vijayapura,586101,Karnataka,IN,https://www.google.com/maps/place/Taqwa+Masjid+Galgali+Colony/data=!4m7!3m6!1s0x3bc655697326c9b7:0x89e7151aa658887a!8m2!3d16.8136657!4d75.7299204!16s%2Fg%2F11c2q33j9w!19sChIJt8kmc2lVxjsReohYphoV54k?authuser=0&hl=en&rclk=1,"16.813665699999998,75.7299204"
Jamiya Masjid Main Entrance,Mosque,"Jamiya Masjid Main Entrance, 1, Jamiya Masjid Rd, Vijayapura, Karnataka 586101",Vijayapura,"1, Jamiya Masjid Rd",Vijayapura,586101,Karnataka,IN,https://www.google.com/maps/place/Jamiya+Masjid+Main+Entrance/data=!4m7!3m6!1s0x3bc65571df293053:0x7b963e10ee4d8b6d!8m2!3d16.8224378!4d75.7308101!16s%2Fg%2F11c5xvbyqk!19sChIJUzAp33FVxjsRbYtN7hA-lns?authuser=0&hl=en&rclk=1,"16.8224378,75.7308101"
Dariya Peer Masjid,Mosque,"RPCG+CX5 Dariya Peer Masjid, bagayat galli j m road, Vijayapura, Karnataka",Vijayapura,"RPCG+CX5, bagayat galli j m road",Vijayapura,,Karnataka,IN,https://www.google.com/maps/place/Dariya+Peer+Masjid/data=!4m7!3m6!1s0x3bc6556fdb175f37:0x3c0ec2e09e235501!8m2!3d16.8210116!4d75.7274967!16s%2Fg%2F11bw5x6j67!19sChIJN18X229VxjsRAVUjnuDCDjw?authuser=0&hl=en&rclk=1,"16.8210116,75.7274967"
ALAMGEER MASJID,Mosque,"RPF7+F4V ALAMGEER MASJID, Saquaf Roza, Naubag, Vijayapura, Karnataka 586101",Saquaf Roza,RPF7+F4V,"Naubag, Vijayapura",586101,Karnataka,IN,https://www.google.com/maps/place/ALAMGEER+MASJID/data=!4m7!3m6!1s0x3bc6ff4f0468106f:0xf131e18985fadb9d!8m2!3d16.8237389!4d75.7127879!16s%2Fg%2F11fmrk682z!19sChIJbxBoBE__xjsRndv6hYnhMfE?authuser=0&hl=en&rclk=1,"16.8237389,75.7127879"
"Mansoor Masjid Itagi Garden, Vijayapura",Mosque,"RMHP+M9H Mansoor Masjid Itagi Garden, Vijayapura, Toravi Rd, Afzalpur Takke, Vijayapura, Karnataka 586102",Afzalpur Takke,"RMHP+M9H, Toravi Rd",Vijayapura,586102,Karnataka,IN,"https://www.google.com/maps/place/Mansoor+Masjid+Itagi+Garden,+Vijayapura/data=!4m7!3m6!1s0x3bc6ffa0bc1e08f7:0xe98b633cb812efad!8m2!3d16.8291891!4d75.6859996!16s%2Fg%2F1pyqknv43!19sChIJ9wgevKD_xjsRre8SuDxji-k?authuser=0&hl=en&rclk=1","16.8291891,75.6859996"
Masjid E Bilal,Mosque,"QPWF+HH4 Masjid E Bilal, Karnataka Sai park jamiya Nagar, Vijayapura, Karnataka 586109","Chandan Nagar, Sadashiva Nagar","QPWF+HH4, Karnataka Sai park jamiya Nagar",Vijayapura,586109,Karnataka,IN,https://www.google.com/maps/place/Masjid+E+Bilal/data=!4m7!3m6!1s0x3bc6555047178fcb:0x8a5eed3f2905731d!8m2!3d16.7963956!4d75.7239612!16s%2Fg%2F11c71l1dww!19sChIJy48XR1BVxjsRHXMFKT_tXoo?authuser=0&hl=en&rclk=1,"16.7963956,75.72396119999999"
Baitul Mamur Masjid,Mosque,"Baitul Mamur Masjid, Jamiya Masjid Rd, near KHB COLONY, INDIRA NAGAR, Vijayapura, Karnataka 586104",INDIRA NAGAR,"Jamiya Masjid Rd, near KHB COLONY",Vijayapura,586104,Karnataka,IN,https://www.google.com/maps/place/Baitul+Mamur+Masjid/data=!4m7!3m6!1s0x3bc6556dcd606f1d:0x3f9d4c00f56f5ecc!8m2!3d16.8192236!4d75.7321938!16s%2Fg%2F11bvvx6wdx!19sChIJHW9gzW1VxjsRzF5v9QBMnT8?authuser=0&hl=en&rclk=1,"16.8192236,75.73219379999999"
Green Park Masjid,Mosque,"RPC6+HRW Green Park Masjid, near NAUBAG GREEN PARK, Saquaf Roza, Vijayapura, Karnataka 586101",Saquaf Roza,"RPC6+HRW, near NAUBAG GREEN PARK",Vijayapura,586101,Karnataka,IN,https://www.google.com/maps/place/Green+Park+Masjid/data=!4m7!3m6!1s0x3bc6ff87c388493f:0x7af60511f6c1bc2d!8m2!3d16.8214898!4d75.7120778!16s%2Fg%2F11c32cd3lf!19sChIJP0mIw4f_xjsRLbzB9hEF9no?authuser=0&hl=en&rclk=1,"16.8214898,75.7120778"
Mubarak Masjid,Mosque,"RP9J+G9C Mubarak Masjid, Vijayapura, Karnataka 586101",Vijayapura,RP9J+G9C,Vijayapura,586101,Karnataka,IN,https://www.google.com/maps/place/Mubarak+Masjid/data=!4m7!3m6!1s0x3bc6556e86ee6681:0xdebce8f0488348d!8m2!3d16.8188242!4d75.7308767!16s%2Fg%2F1yg56hy04!19sChIJgWbuhm5VxjsRjTSIBI_O6w0?authuser=0&hl=en&rclk=1,"16.818824199999998,75.7308767"
Limra Masjid,Mosque,"RP8H+XRX Limra Masjid, limra colony j m road, Vijayapura",Vijayapura,"RP8H+XRX, limra colony j m road",Vijayapura,,Karnataka,IN,https://www.google.com/maps/place/Limra+Masjid/data=!4m7!3m6!1s0x3bc6556eea87577f:0x8632c9f9ad6b42fd!8m2!3d16.8174852!4d75.7296244!16s%2Fg%2F11bw1ph7_7!19sChIJf1eH6m5VxjsR_UJrrfnJMoY?authuser=0&hl=en&rclk=1,"16.8174852,75.72962439999999"
"Quba Masjid Hamal Colony, msjdi qb , Hml khwlwny",Mosque,"RPJV+VW9 Quba Masjid Hamal Colony, msjdi qb , Hml khwlwny, Railway Station Area, Vijayapura, Karnataka 586104",Railway Station Area,RPJV+VW9,Vijayapura,586104,Karnataka,IN,https://www.google.com/maps/place/Quba+Masjid+Hamal+Colony%D8%8C+%D9%85%D8%B3%D8%AC%D8%AF%D9%90+%D9%82%D8%A8%D8%A7+%D8%8C+%D8%AD%D9%85%D8%A7%D9%84+%DA%A9%D9%88%D9%84%D9%88%D9%86%DB%8C%E2%80%AD/data=!4m7!3m6!1s0x3bc65509a4b9bbef:0xb374224cbb13d03d!8m2!3d16.8321547!4d75.744856!16s%2Fg%2F11cs3g2n8n!19sChIJ77u5pAlVxjsRPdATu0widLM?authuser=0&hl=en&rclk=1,"16.8321547,75.744856"
Ikhlas Masjid,Mosque,"RP8M+XR7 Ikhlas Masjid, Ancient Fort Wall, Vijayapura, Karnataka 586101",Vijayapura,"RP8M+XR7, Ancient Fort Wall",Vijayapura,586101,Karnataka,IN,https://www.google.com/maps/place/Ikhlas+Masjid/data=!4m7!3m6!1s0x3bc6556c8964a6cf:0x6d25393ae6bb9ebf!8m2!3d16.8174234!4d75.7345363!16s%2Fg%2F1yg4m139t!19sChIJz6ZkiWxVxjsRv5675jo5JW0?authuser=0&hl=en&rclk=1,"16.8174234,75.7345363"
Quba Masjid,Mosque,"Quba Masjid, Gachi Mahal street, J.M. Road, Vijayapura, Karnataka 586101",Vijayapura,"Gachi Mahal street, J.M. Road",Vijayapura,,Karnataka,IN,https://www.google.com/maps/place/Quba+Masjid/data=!4m7!3m6!1s0x3bc655727e735e67:0x67e1155998f2e357!8m2!3d16.8224273!4d75.7341456!16s%2Fg%2F11bvvzl23j!19sChIJZ15zfnJVxjsRV-PymFkV4Wc?authuser=0&hl=en&rclk=1,"16.822427299999998,75.73414559999999"
Malik-e-Jahan Masjid,Mosque,"RPG8+G7R Malik-e-Jahan Masjid, KC Market, Godbole Mala, Vijayapura, Karnataka 586101",Godbole Mala,"RPG8+G7R, KC Market",Vijayapura,586101,Karnataka,IN,https://www.google.com/maps/place/Malik-e-Jahan+Masjid/data=!4m7!3m6!1s0x3bc6557ddee01a9b:0x59ca6ae7ae2e7842!8m2!3d16.8263569!4d75.7156337!16s%2Fg%2F12hlkb_0m!19sChIJmxrg3n1VxjsRQngurudqylk?authuser=0&hl=en&rclk=1,"16.8263569,75.7156337"
Masjid-E-Tayyaba,Mosque,"RP2G+89C Masjid-E-Tayyaba, Ibrahimpur, Vijayapura, Karnataka 586102",Ibrahimpur,RP2G+89C,Vijayapura,586102,Karnataka,IN,https://www.google.com/maps/place/Masjid-E-Tayyaba/data=!4m7!3m6!1s0x3bc655452e86bf3f:0xe1faf6436a434c0c!8m2!3d16.8008037!4d75.7258797!16s%2Fg%2F11f10f6gnc!19sChIJP7-GLkVVxjsRDExDakP2-uE?authuser=0&hl=en&rclk=1,"16.8008037,75.7258797"
mhmmdiiy msiidi ( Muhammadiya Masjid),Mosque,"RPCJ+447 mhmmdiiy msiidi ( Muhammadiya Masjid), Vijayapura, Karnataka 586101",Vijayapura,RPCJ+447,Vijayapura,586101,Karnataka,IN,https://www.google.com/maps/place/%E0%B2%AE%E0%B2%B9%E0%B2%AE%E0%B3%8D%E0%B2%AE%E0%B2%A6%E0%B3%80%E0%B2%AF+%E0%B2%AE%E0%B2%B8%E0%B3%80%E0%B2%A6%E0%B2%BF+%28+Muhammadiya+Masjid%29/data=!4m7!3m6!1s0x3bc6556e6c9619bd:0x97eb6d71a13c6507!8m2!3d16.8202982!4d75.7302872!16s%2Fg%2F1yg56hy01!19sChIJvRmWbG5VxjsRB2U8oXFt65c?authuser=0&hl=en&rclk=1,"16.8202982,75.73028719999999"
Makka Masjid Minar,Mosque,"RPG9+3XX Makka Masjid Minar, Mangoli Rd, Gopalpur Galli, Vijayapura, Karnataka 586101",Gopalpur Galli,"RPG9+3XX, Mangoli Rd",Vijayapura,586101,Karnataka,IN,https://www.google.com/maps/place/Makka+Masjid+Minar/data=!4m7!3m6!1s0x3bc6557b8b8223c5:0xf4fd46c75d5b7009!8m2!3d16.8252417!4d75.7199728!16s%2Fg%2F1pyqldxvq!19sChIJxSOCi3tVxjsRCXBbXcdG_fQ?authuser=0&hl=en&rclk=1,"16.8252417,75.7199728"
Nalband Masjid,Mosque,"RPF9+4X4 Nalband Masjid, Kanakadas colony, Vijayapura, Karnataka 586101",Kanakadas colony,RPF9+4X4,Vijayapura,586101,Karnataka,IN,https://www.google.com/maps/place/Nalband+Masjid/data=!4m7!3m6!1s0x3bc6557b61035181:0x89041dc5fdd1f8e2!8m2!3d16.8227523!4d75.7199597!16s%2Fg%2F11c3v6zlp2!19sChIJgVEDYXtVxjsR4vjR_cUdBIk?authuser=0&hl=en&rclk=1,"16.822752299999998,75.71995969999999"
Chand Tara Masjid,Mosque,"RPGP+HP8 Chand Tara Masjid, near, Station Back Rd, Vijayapura, Karnataka",Vijayapura,"RPGP+HP8, near, Station Back Rd",Vijayapura,,Karnataka,IN,https://www.google.com/maps/place/Chand+Tara+Masjid/data=!4m7!3m6!1s0x3bc6557334372e97:0x80282382d0afcee!8m2!3d16.8264115!4d75.7368332!16s%2Fg%2F11bwd2q6h6!19sChIJly43NHNVxjsR7vwKLTiCAgg?authuser=0&hl=en&rclk=1,"16.8264115,75.73683319999999"
Nau 9 Gumbadh Masjid,Mosque,"RPGG+CGP Nau 9 Gumbadh Masjid, Vijayapura, Karnataka 586101",Vijayapura,RPGG+CGP,Vijayapura,586101,Karnataka,IN,https://www.google.com/maps/place/Nau+9+Gumbadh+Masjid/data=!4m7!3m6!1s0x3bc65570bcdd160f:0xa018f57639e2ec42!8m2!3d16.8260842!4d75.7263316!16s%2Fg%2F1yg56hy0v!19sChIJDxbdvHBVxjsRQuziOXb1GKA?authuser=0&hl=en&rclk=1,"16.8260842,75.7263316"
Khadde Masjid,Mosque,"Khadde Masjid, Upali Burj Area, Vijayapura, Karnataka 586101",Upali Burj Area,,Vijayapura,586101,Karnataka,IN,https://www.google.com/maps/place/Khadde+Masjid/data=!4m7!3m6!1s0x3bc6ff803879c6b9:0xf370e14126959231!8m2!3d16.8306268!4d75.7118849!16s%2Fg%2F12j5swh3w!19sChIJucZ5OID_xjsRMZKVJkHhcPM?authuser=0&hl=en&rclk=1,"16.8306268,75.7118849"
Ali Khan masjid,Mosque,"RPH3+9QG Ali Khan masjid, alikhan masjid ibrahim rouza road vijayapura, Vijayapura, Karnataka 586101",Shastri Nagar,"RPH3+9QG, alikhan masjid ibrahim rouza road vijayapura",Vijayapura,586101,Karnataka,IN,https://www.google.com/maps/place/Ali+Khan+masjid/data=!4m7!3m6!1s0x3bc6ff8302b65385:0x4f0d9ccfb479d571!8m2!3d16.82843!4d75.7044513!16s%2Fg%2F11b75jtl94!19sChIJhVO2AoP_xjsRcdV5tM-cDU8?authuser=0&hl=en&rclk=1,"16.82843,75.7044513"
Taqwa Masjid,Mosque,"Taqwa Masjid, mehaboob nagar, Jamiya Masjid Rd, Vijayapura, Karnataka 586101",Vijayapura,"mehaboob nagar, Jamiya Masjid Rd",Vijayapura,,Karnataka,IN,https://www.google.com/maps/place/Taqwa+Masjid/data=!4m7!3m6!1s0x3bc6556da4366f71:0xde6e6816089814db!8m2!3d16.8201354!4d75.7338472!16s%2Fg%2F11bwk_2dbh!19sChIJcW82pG1VxjsR2xSYCBZobt4?authuser=0&hl=en&rclk=1,"16.820135399999998,75.7338472"
Hazrat Nizamuddin Masjid,Mosque,"RPM4+G7M Hazrat Nizamuddin Masjid, Gyang Bawadi Colony, Shastri Nagar, Vijayapura, Karnataka 586101","Gyang Bawadi Colony, Shastri Nagar",RPM4+G7M,Vijayapura,586101,Karnataka,IN,https://www.google.com/maps/place/Hazrat+Nizamuddin+Masjid/data=!4m7!3m6!1s0x3bc6ff78fa66e62f:0x4c73468554fd12b!8m2!3d16.8338411!4d75.7056807!16s%2Fg%2F11fz1t0v15!19sChIJL-Zm-nj_xjsRK9FPVWg0xwQ?authuser=0&hl=en&rclk=1,"16.8338411,75.7056807"
Taj Bawdi Mosque (Mohammad Shaah Maszid Taj Bawdi),Mosque,"RPG5+6VV Taj Bawdi Mosque (Mohammad Shaah Maszid Taj Bawdi), beside Taj Bawdi, Taj Bawdi, Godbole Mala, Vijayapura, Karnataka 586101","Taj Bawdi, Godbole Mala","RPG5+6VV, beside Taj Bawdi",Vijayapura,,Karnataka,IN,https://www.google.com/maps/place/Taj+Bawdi+Mosque+%28Mohammad+Shaah+Maszid+Taj+Bawdi%29/data=!4m7!3m6!1s0x3bc6ff86c9c6b2cf:0xdebbe8dbb69d8a34!8m2!3d16.8256121!4d75.7096765!16s%2Fg%2F11hczxzgh9!19sChIJz7LGyYb_xjsRNIqdttvou94?authuser=0&hl=en&rclk=1,"16.8256121,75.7096765"
Masjid and Madarsa Darul Abrar,Mosque,"RPHC+8PM Masjid and Madarsa Darul Abrar, MG Rd, Gopalpur Galli, Vijayapura, Karnataka 586101",Gopalpur Galli,"RPHC+8PM, MG Rd",Vijayapura,586101,Karnataka,IN,https://www.google.com/maps/place/Masjid+and+Madarsa+Darul+Abrar/data=!4m7!3m6!1s0x3bc655796d41996f:0x7757d0e8800554c1!8m2!3d16.8283383!4d75.721795!16s%2Fg%2F1pyqg5v18!19sChIJb5lBbXlVxjsRwVQFgOjQV3c?authuser=0&hl=en&rclk=1,"16.8283383,75.721795"
Ataullah Masjid,Mosque,"RPFC+954 Ataullah Masjid, Mangoli Rd, Gopalpur Galli, Vijayapura, Karnataka 586101",Gopalpur Galli,"RPFC+954, Mangoli Rd",Vijayapura,586101,Karnataka,IN,https://www.google.com/maps/place/Ataullah+Masjid/data=!4m7!3m6!1s0x3bc6557b7e6a386d:0x30a813a0bfc5d3d7!8m2!3d16.8233886!4d75.7204609!16s%2Fg%2F1pyqv7yjx!19sChIJbThqfntVxjsR19PFv6ATqDA?authuser=0&hl=en&rclk=1,"16.823388599999998,75.72046089999999"
Chini Masjid,Mosque,"Chini Masjid, Asar Mahal complex, Gopalpur Galli, Vijayapura, Karnataka 586101",Gopalpur Galli,Asar Mahal complex,Vijayapura,586101,Karnataka,IN,https://www.google.com/maps/place/Chini+Masjid/data=!4m7!3m6!1s0x3bc6557bbeefa16f:0xf09c0ed6c128081a!8m2!3d16.8252722!4d75.7213468!16s%2Fg%2F1thq3rf7!19sChIJb6HvvntVxjsRGggowdYOnPA?authuser=0&hl=en&rclk=1,"16.8252722,75.72134679999999"
Faiz E Aam Masjid,Mosque,"Faiz E Aam Masjid, 1, ZP Rd, Kanakadasa Badavane, Vijayapura, Karnataka 586101",Kanakadasa Badavane,"1, ZP Rd",Vijayapura,586101,Karnataka,IN,https://www.google.com/maps/place/Faiz+E+Aam+Masjid/data=!4m7!3m6!1s0x3bc6556a3d6ad4df:0x34241aabd5cbf528!8m2!3d16.8119596!4d75.7321625!16s%2Fg%2F11g6xt1zcd!19sChIJ39RqPWpVxjsRKPXL1asaJDQ?authuser=0&hl=en&rclk=1,"16.811959599999998,75.7321625"
aayeessaa msiidi ( Ayesha Masjid (Sunni Jamat),Mosque,"RP9M+279 aayeessaa msiidi ( Ayesha Masjid (Sunni Jamat), K H B Colony 4, Vijayapura, Karnataka 586101","K H B Colony 4, Vijayapura",RP9M+279,Vijayapura,586101,Karnataka,IN,https://www.google.com/maps/place/%E0%B2%86%E0%B2%AF%E0%B3%87%E0%B2%B7%E0%B2%BE+%E0%B2%AE%E0%B2%B8%E0%B3%80%E0%B2%A6%E0%B2%BF+%28+Ayesha+Masjid+%28Sunni+Jamat%29/data=!4m7!3m6!1s0x3bc6556c69838001:0xfff4a0fade7deeb9!8m2!3d16.8175328!4d75.7332203!16s%2Fg%2F1pv5wcz2z!19sChIJAYCDaWxVxjsRue593vqg9P8?authuser=0&hl=en&rclk=1,"16.8175328,75.7332203"
phteeh drvaajaa msiidi ( Fateh Darwaza Masjid),Mosque,"RP8F+RGW phteeh drvaajaa msiidi ( Fateh Darwaza Masjid), Mangoli Rd, Jala Nagar, Vijayapura, Karnataka 586101",Jala Nagar,"RP8F+RGW, Mangoli Rd",Vijayapura,586101,Karnataka,IN,https://www.google.com/maps/place/%E0%B2%AB%E0%B2%A4%E0%B3%87%E0%B2%B9%E0%B3%8D+%E0%B2%A6%E0%B2%B0%E0%B3%8D%E0%B2%B5%E0%B2%BE%E0%B2%9C%E0%B2%BE+%E0%B2%AE%E0%B2%B8%E0%B3%80%E0%B2%A6%E0%B2%BF+%28+Fateh+Darwaza+Masjid%29/data=!4m7!3m6!1s0x3bc65565b894087d:0x2b531d5642226f8d!8m2!3d16.8171074!4d75.7238318!16s%2Fg%2F1pyqk_1br!19sChIJfQiUuGVVxjsRjW8iQlYdUys?authuser=0&hl=en&rclk=1,"16.817107399999998,75.7238318"
Masjid E Sakina,Mosque,"RP8F+4JW Masjid E Sakina, near Mangoli, Agasi, Vijayapura, Karnataka 586101",Agasi,"RP8F+4JW, near Mangoli",Vijayapura,,Karnataka,IN,https://www.google.com/maps/place/Masjid+E+Sakina/data=!4m7!3m6!1s0x3bc65514efa833f9:0xaf94e5202a997600!8m2!3d16.8153539!4d75.724079!16s%2Fg%2F11h4vn8rv1!19sChIJ-TOo7xRVxjsRAHaZKiDllK8?authuser=0&hl=en&rclk=1,"16.815353899999998,75.724079"
Chinagidivan Masjid,Mosque,"RMVM+GRQ Chinagidivan Masjid, Afzalpur Takke, Vijayapura, Karnataka 586102",Afzalpur Takke,RMVM+GRQ,Vijayapura,586102,Karnataka,IN,https://www.google.com/maps/place/Chinagidivan+Masjid/data=!4m7!3m6!1s0x3bc6ff1187d21df1:0xe3ba7a8b2c439893!8m2!3d16.8438467!4d75.6846082!16s%2Fg%2F1hhkjk1jm!19sChIJ8R3ShxH_xjsRk5hDLIt6uuM?authuser=0&hl=en&rclk=1,"16.8438467,75.6846082"
Bilal Masjid,Mosque,"RPJG+WJV Bilal Masjid, Jadar Galli, Vijayapura, Karnataka 586101",Jadar Galli,RPJG+WJV,Vijayapura,586101,Karnataka,IN,https://www.google.com/maps/place/Bilal+Masjid/data=!4m7!3m6!1s0x3bc65577ef5d5381:0x224c7df12e38e426!8m2!3d16.8323629!4d75.7265419!16s%2Fg%2F1yg56hy0f!19sChIJgVNd73dVxjsRJuQ4LvF9TCI?authuser=0&hl=en&rclk=1,"16.8323629,75.7265419"
Abdussamad Masjid,Mosque,"Abdussamad Masjid, Shakti Nagar, Vijayapura, Karnataka 586103",Shakti Nagar,,Vijayapura,586103,Karnataka,IN,https://www.google.com/maps/place/Abdussamad+Masjid/data=!4m7!3m6!1s0x3bc6ff7037c463b9:0xd6768a76677c64a7!8m2!3d16.8413411!4d75.6999337!16s%2Fg%2F11g6_523fq!19sChIJuWPEN3D_xjsRp2R8Z3aKdtY?authuser=0&hl=en&rclk=1,"16.841341099999998,75.6999337"
masjid -e- Abu Hurera Ahle Hadees Masjid,Mosque,"RMCQ+24Q masjid -e- Abu Hurera Ahle Hadees Masjid, Unnamed Road, Afzalpur Takke, Vijayapura, Karnataka 586102",Afzalpur Takke,"RMCQ+24Q, Unnamed Road",Vijayapura,586102,Karnataka,IN,https://www.google.com/maps/place/masjid+-e-+Abu+Hurera+Ahle+Hadees+Masjid/data=!4m7!3m6!1s0x3bc6ffb895713761:0x8644c4c29130b769!8m2!3d16.8200952!4d75.6878671!16s%2Fg%2F11h33bj_v3!19sChIJYTdxlbj_xjsRabcwkcLERIY?authuser=0&hl=en&rclk=1,"16.8200952,75.68786709999999"
Bailullah Khan Masjid,Mosque,"Bailullah Khan Masjid, near Badi Kaman, Gopalpur Galli, Vijayapura, Karnataka 586101",Gopalpur Galli,near Badi Kaman,Vijayapura,586101,Karnataka,IN,https://www.google.com/maps/place/Bailullah+Khan+Masjid/data=!4m7!3m6!1s0x3bc655700c078a87:0xfd3c3c3ba913ec32!8m2!3d16.8226409!4d75.7259193!16s%2Fg%2F11bwh5sk4z!19sChIJh4oHDHBVxjsRMuwTqTs8PP0?authuser=0&hl=en&rclk=1,"16.8226409,75.7259193"
Kannat Masjid,Mosque,"RPFF+6Q5 Kannat Masjid, Jamiya Masjid Rd, Kanakadas colony, Vijayapura, Karnataka 586101",Kanakadas colony,"RPFF+6Q5, Jamiya Masjid Rd",Vijayapura,586101,Karnataka,IN,https://www.google.com/maps/place/Kannat+Masjid/data=!4m7!3m6!1s0x3bc6557a959a6289:0x82038a01bfaae272!8m2!3d16.8230241!4d75.7244806!16s%2Fg%2F11d_7jhdwl!19sChIJiWKalXpVxjsRcuKqvwGKA4I?authuser=0&hl=en&rclk=1,"16.823024099999998,75.72448059999999"
SAAD MASJID,Mosque,"RMMM+WGP SAAD MASJID, Afzalpur Takke, Vijayapura, Karnataka 586102",Afzalpur Takke,RMMM+WGP,Vijayapura,586102,Karnataka,IN,https://www.google.com/maps/place/SAAD+MASJID/data=!4m7!3m6!1s0x3bc6ff094469d011:0x510109e1ca3611c6!8m2!3d16.8348269!4d75.6838211!16s%2Fg%2F11ggbtwwpw!19sChIJEdBpRAn_xjsRxhE2yuEJAVE?authuser=0&hl=en&rclk=1,"16.8348269,75.6838211"
"Hazrat Hamza Hussain Dargah, Bijapur",Mosque,"RPGF+Q7C Hazrat Hamza Hussain Dargah, Bijapur, Gopalpur Galli, Vijayapura, Karnataka 586101",Gopalpur Galli,RPGF+Q7C,Vijayapura,586101,Karnataka,IN,"https://www.google.com/maps/place/Hazrat+Hamza+Hussain+Dargah,+Bijapur/data=!4m7!3m6!1s0x3bc6557a29a65045:0x64700442c1082c17!8m2!3d16.8269349!4d75.7231288!16s%2Fg%2F11b6llk9g9!19sChIJRVCmKXpVxjsRFywIwUIEcGQ?authuser=0&hl=en&rclk=1","16.826934899999998,75.7231288"
Karimuddin Masjid,Mosque,"RPF9+MFR Karimuddin Masjid, Gopalpur Galli, Vijayapura, Karnataka 586101",Gopalpur Galli,RPF9+MFR,Vijayapura,586101,Karnataka,IN,https://www.google.com/maps/place/Karimuddin+Masjid/data=!4m7!3m6!1s0x3bc6557c6401da8b:0xc3fd06d33ee1ab6f!8m2!3d16.8242424!4d75.7186394!16s%2Fg%2F11g6rl3m00!19sChIJi9oBZHxVxjsRb6vhPtMG_cM?authuser=0&hl=en&rclk=1,"16.8242424,75.7186394"
"abuubkr msiidi, vijypur ( Abubakar - Masjid Vijayapur)",Mosque,"RPV5+5R6 abuubkr msiidi, vijypur ( Abubakar - Masjid Vijayapur), Solapur Rd, Karnataka Housing Board Colony, Vijayapura, Karnataka 586101",Karnataka Housing Board Colony,"RPV5+5R6, Solapur Rd",Vijayapura,586101,Karnataka,IN,"https://www.google.com/maps/place/%E0%B2%85%E0%B2%AC%E0%B3%82%E0%B2%AC%E0%B2%95%E0%B2%B0%E0%B3%8D+%E0%B2%AE%E0%B2%B8%E0%B3%80%E0%B2%A6%E0%B2%BF,+%E0%B2%B5%E0%B2%BF%E0%B2%9C%E0%B2%AF%E0%B2%AA%E0%B3%81%E0%B2%B0+%28+Abubakar+-+Masjid+Vijayapur%29/data=!4m7!3m6!1s0x3bc6ff1a4b165291:0xbbd44b91b7484235!8m2!3d16.8429017!4d75.7095156!16s%2Fg%2F11fkwfy0s0!19sChIJkVIWSxr_xjsRNUJIt5FL1Ls?authuser=0&hl=en&rclk=1","16.8429017,75.7095156"
Mohammadia masjid,Mosque,"Mohammadia masjid, Jamkhandi Rd, Bammanajogi, Vijayapura, Karnataka 586109",Bammanajogi,Jamkhandi Rd,Vijayapura,586109,Karnataka,IN,https://www.google.com/maps/place/Mohammadia+masjid/data=!4m7!3m6!1s0x3bc6ffe55b1c2207:0xc2388c5472fb72ec!8m2!3d16.8150501!4d75.7093457!16s%2Fg%2F11fmzt4p4p!19sChIJByIcW-X_xjsR7HL7clSMOMI?authuser=0&hl=en&rclk=1,"16.8150501,75.7093457"
Aadilshahi Masjid,Mosque,"RPQM+PXF Aadilshahi Masjid, APMC, Vijayapura, Karnataka 586101",APMC,RPQM+PXF,Vijayapura,586101,Karnataka,IN,https://www.google.com/maps/place/Aadilshahi+Masjid/data=!4m7!3m6!1s0x3bc6559f2d6cf84d:0xc2012b96d3a79e99!8m2!3d16.839307!4d75.7349251!16s%2Fg%2F11gdz19lwh!19sChIJTfhsLZ9VxjsRmZ6n05YrAcI?authuser=0&hl=en&rclk=1,"16.839306999999998,75.7349251"
Noorani Masjid,Mosque,"RPCF+575 Noorani Masjid, Gulam Hussain Mohalla, Mangoli Rd, Vijayapura, Karnataka 586101",Kanakadas colony,"RPCF+575, Gulam Hussain Mohalla, Mangoli Rd",Vijayapura,586101,Karnataka,IN,https://www.google.com/maps/place/Noorani+Masjid/data=!4m7!3m6!1s0x3bc6556524e58dfb:0x4b362a51273916d2!8m2!3d16.8203854!4d75.7232238!16s%2Fg%2F11g0hss3sv!19sChIJ-43lJGVVxjsR0hY5J1EqNks?authuser=0&hl=en&rclk=1,"16.8203854,75.7232238"
sulaimaan sulaimaan msiidi ( Sulaiman Masjid),Mosque,"sulaimaan sulaimaan msiidi ( Sulaiman Masjid), Sulaiman Masjid Rd, near Panch Pandu, Gopalpur Galli, Vijayapura, Karnataka 586101",Gopalpur Galli,"Sulaiman Masjid Rd, near Panch Pandu",Vijayapura,586101,Karnataka,IN,https://www.google.com/maps/place/%E0%B2%B8%E0%B3%81%E0%B2%B2%E0%B3%88%E0%B2%AE%E0%B2%BE%E0%B2%A8%E0%B3%8D+%E0%B2%B8%E0%B3%81%E0%B2%B2%E0%B3%88%E0%B2%AE%E0%B2%BE%E0%B2%A8%E0%B3%8D+%E0%B2%AE%E0%B2%B8%E0%B3%80%E0%B2%A6%E0%B2%BF+%28+Sulaiman+Masjid%29/data=!4m7!3m6!1s0x3bc6557c889ff767:0x6b29ae82cc129cd0!8m2!3d16.8236837!4d75.7189783!16s%2Fg%2F11bysjt3w3!19sChIJZ_efiHxVxjsR0JwSzIKuKWs?authuser=0&hl=en&rclk=1,"16.8236837,75.7189783"
Haji Hasan Masjid,Mosque,"Haji Hasan Masjid, 1, Jamiya Masjid Rd, Vijayapura, Karnataka 586101",Vijayapura,"1, Jamiya Masjid Rd",Vijayapura,586101,Karnataka,IN,https://www.google.com/maps/place/Haji+Hasan+Masjid/data=!4m7!3m6!1s0x3bc6557288dfaa21:0xf2fd48b974ed4acf!8m2!3d16.8230078!4d75.7345252!16s%2Fg%2F11c6w0hjxj!19sChIJIarfiHJVxjsRz0rtdLlI_fI?authuser=0&hl=en&rclk=1,"16.8230078,75.7345252"
msjid i anaas bin mlik ( MASJID E ANAS BIN MALIK),Mosque,"RPPH+MCJ msjid i anaas bin mlik ( MASJID E ANAS BIN MALIK), APMC, Vijayapura, Karnataka 586101",APMC,RPPH+MCJ,Vijayapura,586101,Karnataka,IN,https://www.google.com/maps/place/%E0%B2%AE%E0%B2%B8%E0%B3%8D%E0%B2%9C%E0%B2%BF%E0%B2%A6%E0%B3%8D+%E0%B2%87+%E0%B2%85%E0%B2%A8%E0%B2%BE%E0%B2%B8%E0%B3%8D+%E0%B2%AC%E0%B2%BF%E0%B2%A8%E0%B3%8D+%E0%B2%AE%E0%B2%B2%E0%B2%BF%E0%B2%95%E0%B3%8D+%28+MASJID+%C3%8A+ANAS+BIN+MALIK%29/data=!4m7!3m6!1s0x3bc655ecbc99286d:0x525fcce1257f8b41!8m2!3d16.8367036!4d75.72852!16s%2Fg%2F11r9861s3x!19sChIJbSiZvOxVxjsRQYt_JeHMX1I?authuser=0&hl=en&rclk=1,"16.8367036,75.72852"
"Old Jamia Masjid, prny jm`h msjd byjpwr",Mosque,"RPC8+79W Old Jamia Masjid, prny jm`h msjd byjpwr, KKGS Rd, Anand Nagar, Saquaf Roza, Vijayapura, Karnataka 586109","Anand Nagar, Saquaf Roza","RPC8+79W, KKGS Rd",Vijayapura,586109,Karnataka,IN,https://www.google.com/maps/place/Old+Jamia+Masjid%D8%8C+%D9%BE%D8%B1%D8%A7%D9%86%DB%8C+%D8%AC%D9%85%D8%B9%DB%81+%D9%85%D8%B3%D8%AC%D8%AF+%D8%A8%DB%8C%D8%AC%D8%A7%D9%BE%D9%88%D8%B1%E2%80%AD/data=!4m7!3m6!1s0x3bc6557d32e526b9:0x84ecba22d49d2aa2!8m2!3d16.8207337!4d75.7159559!16s%2Fg%2F1pp2x6_r1!19sChIJuSblMn1VxjsRoiqd1CK67IQ?authuser=0&hl=en&rclk=1,"16.820733699999998,75.7159559"
Nadir Masjid,Mosque,"RPCG+66X Nadir Masjid, Nagar Boudi Garden, Badi Kaman Rd, Vijayapura, Karnataka 586101",Vijayapura,"RPCG+66X Nagar Boudi Garden, Badi Kaman Rd",Vijayapura,586101,Karnataka,IN,https://www.google.com/maps/place/Nadir+Masjid/data=!4m7!3m6!1s0x3bc6556559baa9a1:0x4578afdb3c426448!8m2!3d16.8206627!4d75.7252705!16s%2Fg%2F11c4_xmv9p!19sChIJoam6WWVVxjsRSGRCPNuveEU?authuser=0&hl=en&rclk=1,"16.8206627,75.7252705"
Kalee Masjid,Mosque,"RPR4+3MM Kalee Masjid, Sankh - Bijapur Rd, Sarawad, Vijayapura, Karnataka 586103",Sarawad,"RPR4+3MM, Sankh - Bijapur Rd",Vijayapura,586103,Karnataka,IN,https://www.google.com/maps/place/Kalee+Masjid/data=!4m7!3m6!1s0x3bc6ff7b9f91ab35:0xbfce6641203a3837!8m2!3d16.8402055!4d75.7066801!16s%2Fg%2F12hldy_8c!19sChIJNauRn3v_xjsRNzg6IEFmzr8?authuser=0&hl=en&rclk=1,"16.8402055,75.7066801"
Bibi Khuteja r.a dargah and Shahi Masjid,Mosque,"Bibi Khuteja r.a dargah and Shahi Masjid, 96, Bagalkot Rd, Murankeri, Vijayapura, Karnataka 586101",Murankeri,"96, Bagalkot Rd",Vijayapura,586101,Karnataka,IN,https://www.google.com/maps/place/Bibi+Khuteja+r.a+dargah+and+Shahi+Masjid/data=!4m7!3m6!1s0x3bc65563b74f2813:0xa42fb2a232ff0646!8m2!3d16.8168719!4d75.7175149!16s%2Fg%2F11dxlb_yhl!19sChIJEyhPt2NVxjsRRgb_MqKyL6Q?authuser=0&hl=en&rclk=1,"16.8168719,75.7175149"
SEERAT MASJID (MASJID E MUSTAFA),Mosque,"RP2C+4M6 SEERAT MASJID (MASJID E MUSTAFA), Ibrahimpur, Vijayapura, Karnataka 586102",Ibrahimpur,RP2C+4M6,Vijayapura,586102,Karnataka,IN,https://www.google.com/maps/place/SEERAT+MASJID+%28MASJID+E+MUSTAFA%29/data=!4m7!3m6!1s0x3bc6555a458cc095:0xb43c0c91c9dfdf25!8m2!3d16.8002973!4d75.7216254!16s%2Fg%2F11f1v9wcfq!19sChIJlcCMRVpVxjsRJd_fyZEMPLQ?authuser=0&hl=en&rclk=1,"16.8002973,75.7216254"
Al Wahab Madni Masjid,Mosque,"Al Wahab Madni Masjid, Shaikh Colony, 1, Jamiya Masjid Rd, Vijayapura, Karnataka 586101",Vijayapura,"Shaikh Colony, 1, Jamiya Masjid Rd",Vijayapura,586101,Karnataka,IN,https://www.google.com/maps/place/Al+Wahab+Madni+Masjid/data=!4m7!3m6!1s0x3bc6550d48f238b5:0x37764f94467b5694!8m2!3d16.8231262!4d75.7382742!16s%2Fg%2F11c30txw9j!19sChIJtTjySA1VxjsRlFZ7RpRPdjc?authuser=0&hl=en&rclk=1,"16.8231262,75.73827419999999"
Jamrood Masjid,Mosque,"RPH8+XM7 Jamrood Masjid, Deogiri Lane, Gacchinakatti Colony, Vijayapura, Karnataka 586101",Gacchinakatti Colony,"RPH8+XM7, Deogiri Lane",Vijayapura,586101,Karnataka,IN,https://www.google.com/maps/place/Jamrood+Masjid/data=!4m7!3m6!1s0x3bc6557fa98bfbd9:0x170d93e84f160039!8m2!3d16.8299005!4d75.7166636!16s%2Fg%2F1yg5780mb!19sChIJ2fuLqX9VxjsROQAWT-iTDRc?authuser=0&hl=en&rclk=1,"16.8299005,75.71666359999999"
driyaa i aitebaar khaan msiidi ( Darya-e-Aitebaar Khan Mosque),Mosque,"RMHV+47H driyaa i aitebaar khaan msiidi ( Darya-e-Aitebaar Khan Mosque), Shastri Nagar, Vijayapura, Karnataka 586102",Shastri Nagar,RMHV+47H,Vijayapura,586102,Karnataka,IN,https://www.google.com/maps/place/%E0%B2%A6%E0%B2%B0%E0%B2%BF%E0%B2%AF%E0%B2%BE+%E0%B2%87+%E0%B2%90%E0%B2%A4%E0%B3%86%E0%B2%AC%E0%B2%BE%E0%B2%B0%E0%B3%8D+%E0%B2%96%E0%B2%BE%E0%B2%A8%E0%B3%8D+%E0%B2%AE%E0%B2%B8%E0%B3%80%E0%B2%A6%E0%B2%BF+%28+Darya-e-Aitebaar+Khan+Mosque%29/data=!4m7!3m6!1s0x3bc6ff9f00a41711:0xd14afcd527c5ebfd!8m2!3d16.8278016!4d75.6932356!16s%2Fg%2F11cmzczvh3!19sChIJERekAJ__xjsR_evFJ9X8StE?authuser=0&hl=en&rclk=1,"16.8278016,75.6932356"
Masjid,Mosque,"RPGJ+6H8 Masjid, Vijayapura, Karnataka 586101",Vijayapura,RPGJ+6H8,Vijayapura,586101,Karnataka,IN,https://www.google.com/maps/place/Masjid/data=!4m7!3m6!1s0x3bc65573d83ab4bd:0xab44c6bfe20f85ca!8m2!3d16.8255399!4d75.7314449!16s%2Fg%2F1pyqmn1g6!19sChIJvbQ62HNVxjsRyoUP4r_GRKs?authuser=0&hl=en&rclk=1,"16.8255399,75.7314449"
Masjid Al Quba,Mosque,"Masjid Al Quba, Jala Nagar, Vijayapura, Karnataka 586102",Jala Nagar,,Vijayapura,586102,Karnataka,IN,https://www.google.com/maps/place/Masjid+Al+Quba/data=!4m7!3m6!1s0x3bc6555f2cdc1d15:0xe40dc272cf9915c9!8m2!3d16.8036212!4d75.7162741!16s%2Fg%2F11dzt52wdz!19sChIJFR3cLF9VxjsRyRWZz3LCDeQ?authuser=0&hl=en&rclk=1,"16.8036212,75.71627409999999"
Masjid,Mosque,"RPP6+HXM Masjid, Sholapur, Vijayapura, Karnataka 586101",Sholapur,RPP6+HXM,Vijayapura,586101,Karnataka,IN,https://www.google.com/maps/place/Masjid/data=!4m7!3m6!1s0x3bc6ff7e6aaed03f:0x16e7702cc7e63623!8m2!3d16.8364609!4d75.7124147!16s%2Fg%2F1pyqkwrc6!19sChIJP9Cuan7_xjsRIzbmxyxw5xY?authuser=0&hl=en&rclk=1,"16.8364609,75.7124147"
mehbuub msiidi ( Mehboob Masjid),Mosque,"RMQF+7VP mehbuub msiidi ( Mehboob Masjid), Navaraspur, Vijayapura, Karnataka 586108",,"RMQF+7VP, Navaraspur",Vijayapura,586108,Karnataka,IN,https://www.google.com/maps/place/%E0%B2%AE%E0%B3%86%E0%B2%B9%E0%B2%AC%E0%B3%82%E0%B2%AC%E0%B3%8D+%E0%B2%AE%E0%B2%B8%E0%B3%80%E0%B2%A6%E0%B2%BF+%28+Mehboob+Masjid%29/data=!4m7!3m6!1s0x3bc6ff962a6740b9:0x29a36ffc02b05dd2!8m2!3d16.8382213!4d75.6746993!16s%2Fg%2F11fpsbxj3q!19sChIJuUBnKpb_xjsR0l2wAvxvoyk?authuser=0&hl=en&rclk=1,"16.8382213,75.6746993"
Moin Masjid,Mosque,"RMRP+55G Moin Masjid, Afzalpur Takke, Vijayapura, Karnataka 586102",Afzalpur Takke,RMRP+55G,Vijayapura,586102,Karnataka,IN,https://www.google.com/maps/place/Moin+Masjid/data=!4m7!3m6!1s0x3bc6ff0de63a1a15:0x49f6efe74e42333a!8m2!3d16.8404494!4d75.6854591!16s%2Fg%2F11fy9dqb0h!19sChIJFRo65g3_xjsROjNCTufv9kk?authuser=0&hl=en&rclk=1,"16.8404494,75.6854591"
Masjid,Mosque,"RPH6+G9P Masjid, Bus Stand-Minakshi Chowk Road, Shahu Nagar, Vijayapura, Karnataka 586101",Shahu Nagar,"RPH6+G9P, Bus Stand-Minakshi Chowk Road",Vijayapura,586101,Karnataka,IN,https://www.google.com/maps/place/Masjid/data=!4m7!3m6!1s0x3bc6ff8101dd382b:0x1764316ee35ef38d!8m2!3d16.8288498!4d75.7109498!16s%2Fg%2F1pyqhc5t6!19sChIJKzjdAYH_xjsRjfNe424xZBc?authuser=0&hl=en&rclk=1,"16.8288498,75.7109498"
MASJID-E-Al ROSHAN,Mosque,"RPPX+MQ6 MASJID-E-Al ROSHAN, Kayak Nagar, Vijayapura, Karnataka 586104",Kayak Nagar,RPPX+MQ6,Vijayapura,586104,Karnataka,IN,https://www.google.com/maps/place/MASJID-E-Al+ROSHAN/data=!4m7!3m6!1s0x3bc655a871b595ab:0x6bc104ac010cba8b!8m2!3d16.8366602!4d75.7493867!16s%2Fg%2F11gdzq2zfl!19sChIJq5W1cahVxjsRi7oMAawEwWs?authuser=0&hl=en&rclk=1,"16.8366602,75.7493867"
Masjid,Mosque,"RPP2+FH6 Masjid, Gayang Bowdi, Shastri Nagar, Vijayapura, Karnataka 586103","Gayang Bowdi, Shastri Nagar",RPP2+FH6,Vijayapura,586103,Karnataka,IN,https://www.google.com/maps/place/Masjid/data=!4m7!3m6!1s0x3bc6ff77451dee8d:0xa85ad790769c39b5!8m2!3d16.8361679!4d75.7014008!16s%2Fg%2F11dyx850kz!19sChIJje4dRXf_xjsRtTmcdpDXWqg?authuser=0&hl=en&rclk=1,"16.8361679,75.7014008"
ibraahiN khliil ullaa msiidi ( Ibrahim Khalilullah Masjid),Mosque,"RP97+5GQ ibraahiN khliil ullaa msiidi ( Ibrahim Khalilullah Masjid), Nisar Mohalla Rd, Mannur Colony, Vijayapura, Karnataka 586109",Mannur Colony,"RP97+5GQ, Nisar Mohalla Rd",Vijayapura,586109,Karnataka,IN,https://www.google.com/maps/place/%E0%B2%87%E0%B2%AC%E0%B3%8D%E0%B2%B0%E0%B2%BE%E0%B2%B9%E0%B2%BF%E0%B2%82+%E0%B2%96%E0%B2%B2%E0%B3%80%E0%B2%B2%E0%B3%8D+%E0%B2%89%E0%B2%B2%E0%B3%8D%E0%B2%B2%E0%B2%BE+%E0%B2%AE%E0%B2%B8%E0%B3%80%E0%B2%A6%E0%B2%BF+%28+Ibrahim+Khalilullah+Masjid%29/data=!4m7!3m6!1s0x3bc6ffba54911ccd:0xadf6817217d2d34e!8m2!3d16.8179522!4d75.7138741!16s%2Fg%2F11rtw_c3ym!19sChIJzRyRVLr_xjsRTtPSF3KB9q0?authuser=0&hl=en&rclk=1,"16.8179522,75.7138741"
umr msiidi drgaa ( Umar Masjid darga),Mosque,"VM2R+23G umr msiidi drgaa ( Umar Masjid darga), Ring Rd, KC Nagar, Adarsh Nagar, Vijayapura, Karnataka 586103","KC Nagar, Adarsh Nagar","VM2R+23G, Ring Rd",Vijayapura,586103,Karnataka,IN,https://www.google.com/maps/place/%E0%B2%89%E0%B2%AE%E0%B2%B0%E0%B3%8D+%E0%B2%AE%E0%B2%B8%E0%B3%80%E0%B2%A6%E0%B2%BF+%E0%B2%A6%E0%B2%B0%E0%B3%8D%E0%B2%97%E0%B2%BE+%28+Umar+Masjid+darga%29/data=!4m7!3m6!1s0x3bc6ff4393444f43:0xcc25924985b92856!8m2!3d16.8500594!4d75.6902076!16s%2Fg%2F11k0mn5yns!19sChIJQ09Ek0P_xjsRVii5hUmSJcw?authuser=0&hl=en&rclk=1,"16.8500594,75.6902076"
msjid i hbiib ( Masjid-e-Habeeb ),Mosque,"RMHW+957 msjid i hbiib ( Masjid-e-Habeeb ), Shastri Nagar, Vijayapura, Karnataka 586102",Shastri Nagar,RMHW+957,Vijayapura,586102,Karnataka,IN,https://www.google.com/maps/place/%E0%B2%AE%E0%B2%B8%E0%B3%8D%E0%B2%9C%E0%B2%BF%E0%B2%A6%E0%B3%8D+%E0%B2%87+%E0%B2%B9%E0%B2%AC%E0%B3%80%E0%B2%AC%E0%B3%8D+%28+Masjid-e-Habeeb+%29/data=!4m7!3m6!1s0x3bc6ffe06dbc3571:0x3782031ed33650b3!8m2!3d16.8284244!4d75.6954249!16s%2Fg%2F11j0h7csbv!19sChIJcTW8beD_xjsRs1A20x4Dgjc?authuser=0&hl=en&rclk=1,"16.8284244,75.69542489999999"
AJMERI MASJID,Mosque,"RPF5+2JX AJMERI MASJID, Taj Nagar, Sandal Baudi Naubag, Vijayapura, Karnataka 586101","Khwaja Nagar, Godbole Mala","RPF5+2JX, Taj Nagar, Sandal Baudi Naubag",Vijayapura,586101,Karnataka,IN,https://www.google.com/maps/place/AJMERI+MASJID/data=!4m7!3m6!1s0x3bc6ff66ccc3b025:0xba639e6fb72cfa7d!8m2!3d16.8226047!4d75.7091213!16s%2Fg%2F11h1kk2y_x!19sChIJJbDDzGb_xjsRffost2-eY7o?authuser=0&hl=en&rclk=1,"16.8226047,75.70912129999999"
Moti Gumbad and Shrine of Hazrat Moulana Habeebullah,Mosque,"RMHV+FPQ Moti Gumbad and Shrine of Hazrat Moulana Habeebullah, Shastri Nagar, Vijayapura, Karnataka 586102",Shastri Nagar,RMHV+FPQ,Vijayapura,586102,Karnataka,IN,https://www.google.com/maps/place/Moti+Gumbad+and+Shrine+of+Hazrat+Moulana+Habeebullah/data=!4m7!3m6!1s0x3bc6ff53a0fd1e2b:0xaa7bbe0f5ad0fa03!8m2!3d16.8287193!4d75.694366!16s%2Fg%2F11flbrmrgl!19sChIJKx79oFP_xjsRA_rQWg--e6o?authuser=0&hl=en&rclk=1,"16.8287193,75.694366"
saaheeb msiidi ( SAHEB MASJID),Mosque,"RP94+5X7 saaheeb msiidi ( SAHEB MASJID), Jamkhandi Rd, Hameed Nagar, Bammanajogi, Vijayapura, Karnataka 586109","Hameed Nagar, Bammanajogi","RP94+5X7, Jamkhandi Rd",Vijayapura,586109,Karnataka,IN,https://www.google.com/maps/place/%E0%B2%B8%E0%B2%BE%E0%B2%B9%E0%B3%87%E0%B2%AC%E0%B3%8D+%E0%B2%AE%E0%B2%B8%E0%B3%80%E0%B2%A6%E0%B2%BF+%28+SAHEB+MASJID%29/data=!4m7!3m6!1s0x3bc6ff47ecf4a3f1:0xb33d7ebcb3326908!8m2!3d16.8179153!4d75.7074127!16s%2Fg%2F11qqvcjhtj!19sChIJ8aP07Ef_xjsRCGkys7x-PbM?authuser=0&hl=en&rclk=1,"16.8179153,75.70741269999999"
"mdiinaa msiidi, vijypur ( Madina masjid, Vijayapura )",Mosque,"RP97+9FR mdiinaa msiidi, vijypur ( Madina masjid, Vijayapura ), Mannur Colony, Vijayapura, Karnataka 586109",Mannur Colony,RP97+9FR,Vijayapura,586109,Karnataka,IN,"https://www.google.com/maps/place/%E0%B2%AE%E0%B2%A6%E0%B3%80%E0%B2%A8%E0%B2%BE+%E0%B2%AE%E0%B2%B8%E0%B3%80%E0%B2%A6%E0%B2%BF,+%E0%B2%B5%E0%B2%BF%E0%B2%9C%E0%B2%AF%E0%B2%AA%E0%B3%81%E0%B2%B0+%28+Madina+masjid,+Vijayapura+%29/data=!4m7!3m6!1s0x3bc6ff22d560fe15:0xe47dabeac09a83ca!8m2!3d16.8179878!4d75.7125917!16s%2Fg%2F11t3dhy69r!19sChIJFf5g1SL_xjsRyoOawOqrfeQ?authuser=0&hl=en&rclk=1","16.8179878,75.71259169999999"
Masjid,Mosque,"RP9J+MQ6 Masjid, Vijayapura, Karnataka 586101",Vijayapura,RP9J+MQ6,Vijayapura,586101,Karnataka,IN,https://www.google.com/maps/place/Masjid/data=!4m7!3m6!1s0x3bc6556dacc4353f:0x7b23c19e831a910!8m2!3d16.819173!4d75.7318902!16s%2Fg%2F11gbk4rl1b!19sChIJPzXErG1VxjsREKkx6Bk8sgc?authuser=0&hl=en&rclk=1,"16.819173,75.7318902"
MULLA MASJID,Mosque,"RPQ5+789 MULLA MASJID, Shapur Gate Rd, Sholapur, Vijayapura, Karnataka 586101",Sholapur,"RPQ5+789, Shapur Gate Rd",Vijayapura,586101,Karnataka,IN,https://www.google.com/maps/place/MULLA+MASJID/data=!4m7!3m6!1s0x3bc6ff7c061ca2d9:0x59f58a7d03dc1aa7!8m2!3d16.838165!4d75.70835!16s%2Fg%2F11fxdwxkgx!19sChIJ2aIcBnz_xjsRpxrcA32K9Vk?authuser=0&hl=en&rclk=1,"16.838165,75.70835"
mkkaa msiidi ( Makkah masjid),Mosque,"RP28+F4X mkkaa msiidi ( Makkah masjid), Jala Nagar, Vijayapura, Karnataka 586102",Jala Nagar,RP28+F4X,Vijayapura,586102,Karnataka,IN,https://www.google.com/maps/place/%E0%B2%AE%E0%B2%95%E0%B3%8D%E0%B2%95%E0%B2%BE+%E0%B2%AE%E0%B2%B8%E0%B3%80%E0%B2%A6%E0%B2%BF+%28+Makkah+masjid%29/data=!4m7!3m6!1s0x3bc655d0ec6cbe5f:0x57791e7b5b4988b5!8m2!3d16.8012313!4d75.7153444!16s%2Fg%2F11pv673t_t!19sChIJX75s7NBVxjsRtYhJW3seeVc?authuser=0&hl=en&rclk=1,"16.801231299999998,75.71534439999999"
Masjid Moin Ahle Hadees Take,Mosque,"RMGJ+RQ6 Masjid Moin Ahle Hadees Take, Afzalpur Takke, Vijayapura, Karnataka 586102",Afzalpur Takke,RMGJ+RQ6,Vijayapura,586102,Karnataka,IN,https://www.google.com/maps/place/Masjid+Moin+Ahle+Hadees+Take/data=!4m7!3m6!1s0x3bc6ff2a24144df7:0xe342ed6b81fa3222!8m2!3d16.827044!4d75.681899!16s%2Fg%2F11h5rphkn5!19sChIJ900UJCr_xjsRIjL6gWvtQuM?authuser=0&hl=en&rclk=1,"16.827044,75.681899"
Masjid,Mosque,"RPMM+65W Masjid, APMC, Vijayapura, Karnataka 586101",APMC,RPMM+65W,Vijayapura,586101,Karnataka,IN,https://www.google.com/maps/place/Masjid/data=!4m7!3m6!1s0x3bc6559b310c8339:0xc368dbe7c838b3e!8m2!3d16.8331193!4d75.7329568!16s%2Fg%2F11fsz_5lfv!19sChIJOYMMMZtVxjsRPouDfL6NNgw?authuser=0&hl=en&rclk=1,"16.8331193,75.7329568"
ngiinaa msiidi( NAGINA MASJID),Mosque,"RPFH+VCW ngiinaa msiidi( NAGINA MASJID), Vijayapura, Karnataka 586101",Vijayapura,RPFH+VCW,Vijayapura,586101,Karnataka,IN,https://www.google.com/maps/place/%E0%B2%A8%E0%B2%97%E0%B3%80%E0%B2%A8%E0%B2%BE+%E0%B2%AE%E0%B2%B8%E0%B3%80%E0%B2%A6%E0%B2%BF%28+NAGINA+MASJID%29/data=!4m7!3m6!1s0x3bc655bf0521d3b9:0xfac22af2e73bc1a0!8m2!3d16.8247472!4d75.7285819!16s%2Fg%2F11s2bsz9j1!19sChIJudMhBb9VxjsRoME75_Iqwvo?authuser=0&hl=en&rclk=1,"16.8247472,75.7285819"
Masjid,Mosque,"RPJQ+2JP Masjid, Railway Station Area, Vijayapura, Karnataka 586104",Railway Station Area,RPJQ+2JP,Vijayapura,586104,Karnataka,IN,https://www.google.com/maps/place/Masjid/data=!4m7!3m6!1s0x3bc6550b1112dec9:0xbc75fde1647b4d1e!8m2!3d16.830095!4d75.739092!16s%2Fg%2F1pyqjbql9!19sChIJyd4SEQtVxjsRHk17ZOH9dbw?authuser=0&hl=en&rclk=1,"16.830095,75.739092"
Aqsa masjid,Mosque,"VPG9+MJF Aqsa masjid, Indar Nagar solapur road by pass, Vijayapura, Karnataka 586103",Nayak Nagar,"VPG9+MJF, Indar Nagar solapur road by pass",Vijayapura,586103,Karnataka,IN,https://www.google.com/maps/place/Aqsa+masjid/data=!4m7!3m6!1s0x3bc655b627758e3b:0x3cd3ca2ad2ff3229!8m2!3d16.876692!4d75.7190378!16s%2Fg%2F11qzcjpnwh!19sChIJO451J7ZVxjsRKTL_0irK0zw?authuser=0&hl=en&rclk=1,"16.876692,75.7190378"
"Mohammadiya Masjid Bijapur, mHmdyh msjd byjpwr",Mosque,"RPX3+XXR Mohammadiya Masjid Bijapur, mHmdyh msjd byjpwr, Karnataka Housing Board Colony, Vijayapura, Karnataka 586103",Karnataka Housing Board Colony,RPX3+XXR,Vijayapura,586103,Karnataka,IN,https://www.google.com/maps/place/Mohammadiya+Masjid+Bijapur%D8%8C+%D9%85%D8%AD%D9%85%D8%AF%DB%8C%DB%81+%D9%85%D8%B3%D8%AC%D8%AF+%D8%A8%DB%8C%D8%AC%D8%A7%D9%BE%D9%88%D8%B1%E2%80%AD/data=!4m7!3m6!1s0x3bc6ffcb37a922b7:0xb1ce00578b109885!8m2!3d16.8499936!4d75.7048998!16s%2Fg%2F11pv77fs2p!19sChIJtyKpN8v_xjsRhZgQi1cAzrE?authuser=0&hl=en&rclk=1,"16.849993599999998,75.70489979999999"
Momin Mahedvia Khabrasthan,Mosque,"Momin Mahedvia Khabrasthan, Masjid, Bara Tang, near, Sankh - Bijapur Rd, Shakti Nagar, Vijayapura, Karnataka 586103","Bhavasar Nagar, Shakti Nagar","Masjid, Bara Tang, near, Sankh - Bijapur Rd",Vijayapura,586103,Karnataka,IN,https://www.google.com/maps/place/Momin+Mahedvia+Khabrasthan/data=!4m7!3m6!1s0x3bc6ffdfae409201:0xb45b2636edad6fa1!8m2!3d16.840684!4d75.7031075!16s%2Fg%2F11f9ymz75p!19sChIJAZJArt__xjsRoW-t7TYmW7Q?authuser=0&hl=en&rclk=1,"16.840684,75.7031075"
Masjid-E-Husain,Mosque,"RQM2+7M9 Masjid-E-Husain, Yogapur, Vijayapura, Karnataka 586104",Yogapur,RQM2+7M9,Vijayapura,586104,Karnataka,IN,https://www.google.com/maps/place/Masjid-E-Husain/data=!4m7!3m6!1s0x3bc65561756b8cf3:0x538c5392c228e636!8m2!3d16.8331559!4d75.7517453!16s%2Fg%2F11syssxrhs!19sChIJ84xrdWFVxjsRNuYowpJTjFM?authuser=0&hl=en&rclk=1,"16.833155899999998,75.7517453"
Khwaja nagar masjid,Mosque,"RPF5+WFW Khwaja nagar masjid, Tippu Sultan Rd, Taj Bawdi, Godbole Mala, Vijayapura, Karnataka 586101","Taj Bawdi, Godbole Mala","RPF5+WFW, Tippu Sultan Rd",Vijayapura,586101,Karnataka,IN,https://www.google.com/maps/place/Khwaja+nagar+masjid/data=!4m7!3m6!1s0x3bc6ff83a1b5dff7:0x6fc4824a3300cd88!8m2!3d16.824871!4d75.708714!16s%2Fg%2F11qsm73hqg!19sChIJ99-1oYP_xjsRiM0AM0qCxG8?authuser=0&hl=en&rclk=1,"16.824870999999998,75.708714"
saanaa msiidi ( SANA MASJID),Mosque,"saanaa msiidi ( SANA MASJID), MIG 1st, K H B Colony 4, Vijayapura, Karnataka 586104","K H B Colony 4, Vijayapura",MIG 1st,Vijayapura,586104,Karnataka,IN,https://www.google.com/maps/place/%E0%B2%B8%E0%B2%BE%E0%B2%A8%E0%B2%BE+%E0%B2%AE%E0%B2%B8%E0%B3%80%E0%B2%A6%E0%B2%BF+%28+SANA+MASJID%29/data=!4m7!3m6!1s0x3bc6558380e55fe1:0x2740e30f78aaa7cf!8m2!3d16.8179252!4d75.731961!16s%2Fg%2F11pcpr3q55!19sChIJ4V_lgINVxjsRz6eqeA_jQCc?authuser=0&hl=en&rclk=1,"16.817925199999998,75.731961"
baitul mukdds msiidi (Baitul muqaddas masjid),Mosque,"baitul mukdds msiidi (Baitul muqaddas masjid), Plot no 23 Kannan Nagar, Bammanajogi, Vijayapura, Karnataka 586109",Bammanajogi,Plot no 23 Kannan Nagar,Vijayapura,586109,Karnataka,IN,https://www.google.com/maps/place/%E0%B2%AC%E0%B3%88%E0%B2%A4%E0%B3%81%E0%B2%B2%E0%B3%8D+%E0%B2%AE%E0%B3%81%E0%B2%95%E0%B2%A6%E0%B3%8D%E0%B2%A6%E0%B2%B8%E0%B3%8D+%E0%B2%AE%E0%B2%B8%E0%B3%80%E0%B2%A6%E0%B2%BF+%28Baitul+muqaddas+masjid%29/data=!4m7!3m6!1s0x3bc6ff6482fbd455:0x4adcac9423fa75fa!8m2!3d16.8139908!4d75.7062423!16s%2Fg%2F11sh00xlpw!19sChIJVdT7gmT_xjsR-nX6I5Ss3Eo?authuser=0&hl=en&rclk=1,"16.8139908,75.7062423"
phteh msiidi ( Fateh Masjid),Mosque,"phteh msiidi ( Fateh Masjid), 1, Jamiya Masjid Rd, Vijayapura, Karnataka 586101",Vijayapura,"1, Jamiya Masjid Rd",Vijayapura,586101,Karnataka,IN,https://www.google.com/maps/place/%E0%B2%AB%E0%B2%A4%E0%B3%86%E0%B2%B9%E0%B3%8D+%E0%B2%AE%E0%B2%B8%E0%B3%80%E0%B2%A6%E0%B2%BF+%28+Fateh+Masjid%29/data=!4m7!3m6!1s0x3bc6554b194178d7:0x65e761ad5b7c4a5a!8m2!3d16.824039!4d75.738967!16s%2Fg%2F11s50mxjg7!19sChIJ13hBGUtVxjsRWkp8W61h52U?authuser=0&hl=en&rclk=1,"16.824039,75.738967"
Highway Masjid,Mosque,"RP2M+C45 Highway Masjid, Ibrahimpur, Vijayapura, Karnataka 586102",Ibrahimpur,RP2M+C45,Vijayapura,586102,Karnataka,IN,https://www.google.com/maps/place/Highway+Masjid/data=!4m7!3m6!1s0x3bc65588885db125:0x9eb600e99b4f3c1a!8m2!3d16.8010127!4d75.7328565!16s%2Fg%2F11h4mtlz7d!19sChIJJbFdiIhVxjsRGjxPm-kAtp4?authuser=0&hl=en&rclk=1,"16.801012699999998,75.7328565"
nv glli msiidi ( Navi gali masjid),Mosque,"nv glli msiidi ( Navi gali masjid), Navi gali masjid, Shastri Nagar, Vijayapura, Karnataka 586101",Shastri Nagar,Navi gali masjid,Vijayapura,,Karnataka,IN,https://www.google.com/maps/place/%E0%B2%A8%E0%B2%B5+%E0%B2%97%E0%B2%B2%E0%B3%8D%E0%B2%B2%E0%B2%BF+%E0%B2%AE%E0%B2%B8%E0%B3%80%E0%B2%A6%E0%B2%BF+%28+Navi+gali+masjid%29/data=!4m7!3m6!1s0x3bc6ffc6e95a54dd:0xb40e06df10e3574d!8m2!3d16.8292307!4d75.7032282!16s%2Fg%2F11tm_bm34k!19sChIJ3VRa6cb_xjsRTVfjEN8GDrQ?authuser=0&hl=en&rclk=1,"16.8292307,75.7032282"
ALI MASJID,Mosque,"RP9F+372 ALI MASJID, Base, Mangoli Rd, near Sayyed Quadri Dargha, Kanakadas colony, Vijayapura, Karnataka 586101",Kanakadas colony,"RP9F+372 Base, Mangoli Rd, near Sayyed Quadri Dargha",Vijayapura,586101,Karnataka,IN,https://www.google.com/maps/place/ALI+MASJID/data=!4m7!3m6!1s0x3bc6559296bb08d3:0xe6e55313e060d927!8m2!3d16.8175184!4d75.7232624!16s%2Fg%2F11tnzrblwy!19sChIJ0wi7lpJVxjsRJ9lg4BNT5eY?authuser=0&hl=en&rclk=1,"16.8175184,75.7232624"
Shahnawaz Khan Masjid,Mosque,"Shahnawaz Khan Masjid, Shahnawaz khan Masjid, Sankh - Bijapur Rd, Shakti Nagar, Vijayapura, Karnataka 586103",Shakti Nagar,"Shahnawaz khan Masjid, Sankh - Bijapur Rd",Vijayapura,586103,Karnataka,IN,https://www.google.com/maps/place/Shahnawaz+Khan+Masjid/data=!4m7!3m6!1s0x3bc6ff9d6267db85:0xa4035a51e411d5c2!8m2!3d16.8429925!4d75.7024597!16s%2Fg%2F11t0mh3qwl!19sChIJhdtnYp3_xjsRwtUR5FFaA6Q?authuser=0&hl=en&rclk=1,"16.842992499999998,75.70245969999999"
Al Rehan Masjid,Mosque,"Al Rehan Masjid, 1, Jamiya Masjid Rd, Vijayapura, Karnataka 586101",Vijayapura,"1, Jamiya Masjid Rd",Vijayapura,586101,Karnataka,IN,https://www.google.com/maps/place/Al+Rehan+Masjid/data=!4m7!3m6!1s0x3bc655727248dec9:0x6d8806d5b64aa1ab!8m2!3d16.8225691!4d75.7330476!16s%2Fg%2F11dxf0sv48!19sChIJyd5IcnJVxjsRq6FKttUGiG0?authuser=0&hl=en&rclk=1,"16.8225691,75.73304759999999"
Mosque Zain Muqbil,Mosque,"RPGF+W5H Mosque Zain Muqbil, Gopalpur Galli, Vijayapura, Karnataka 586101",Gopalpur Galli,RPGF+W5H,Vijayapura,586101,Karnataka,IN,https://www.google.com/maps/place/Mosque+Zain+Muqbil/data=!4m7!3m6!1s0x3bc655106aa91ddd:0xb836dc541f8d7471!8m2!3d16.8273201!4d75.7229785!16s%2Fg%2F11rh933rkd!19sChIJ3R2pahBVxjsRcXSNH1TcNrg?authuser=0&hl=en&rclk=1,"16.827320099999998,75.7229785"
Masjid e Ibhrahim(Tower Masjid),Mosque,"RP39+PGJ Masjid e Ibhrahim(Tower Masjid), Jala Nagar, Vijayapura, Karnataka 586109",Jala Nagar,RP39+PGJ,Vijayapura,586109,Karnataka,IN,https://www.google.com/maps/place/Masjid+e+Ibhrahim%28Tower+Masjid%29/data=!4m7!3m6!1s0x3bc6556dea3ce4c5:0x55cd60c1dd01361b!8m2!3d16.804344!4d75.7187642!16s%2Fg%2F11r3m1t1p5!19sChIJxeQ86m1VxjsRGzYB3cFgzVU?authuser=0&hl=en&rclk=1,"16.804344,75.7187642"
ZAITUN MASJID,Mosque,"VP47+XV8 ZAITUN MASJID, Solapur Rd, opposite Mugolkhod math, Adarsh Nagar, Vijayapura, Karnataka 586103",Adarsh Nagar,"VP47+XV8, Solapur Rd, opposite Mugolkhod math",Vijayapura,586103,Karnataka,IN,https://www.google.com/maps/place/ZAITUN+MASJID/data=!4m7!3m6!1s0x3bc65597bc22bfa1:0x2d3e6bda7a39f1c5!8m2!3d16.8574243!4d75.7147091!16s%2Fg%2F11pzbq9bh7!19sChIJob8ivJdVxjsRxfE5etprPi0?authuser=0&hl=en&rclk=1,"16.857424299999998,75.7147091"
Masjid,Mosque,"RMWW+QWF Masjid, Ajame Daraga, Vijayapura, Karnataka 586103",Ajame Daraga,RMWW+QWF,Vijayapura,586103,Karnataka,IN,https://www.google.com/maps/place/Masjid/data=!4m7!3m6!1s0x3bc6ff1417adef8d:0xc57f23e5d979c1a!8m2!3d16.8469282!4d75.6972928!16s%2Fg%2F11g0mhxf6f!19sChIJje-tFxT_xjsRGpyXXT7yVww?authuser=0&hl=en&rclk=1,"16.8469282,75.6972928"
Khatib masjid,Mosque,"RP9F+XJ6 Khatib masjid, Khatib Gali, Kaman Khan Bazar Rd, Vijayapura, Karnataka 586101",Kanakadas colony,"RP9F+XJ6, Khatib Gali, Kaman Khan Bazar Rd",Vijayapura,586101,Karnataka,IN,https://www.google.com/maps/place/Khatib+masjid/data=!4m7!3m6!1s0x3bc6558cc8fbdf3f:0xa35374e1004d4be8!8m2!3d16.8199164!4d75.7240243!16s%2Fg%2F11syfp0g85!19sChIJP9_7yIxVxjsR6EtNAOF0U6M?authuser=0&hl=en&rclk=1,"16.8199164,75.7240243"
