name,main_category,address,address_ward,address_street,address_city,address_postal_code,address_state,address_country_code,link,coordinates
Rajowali Masjid,Mosque,"F825+JVV Rajowali Masjid, near Khatriyan mohlla, Kaka Nagar, Shamli, Uttar Pradesh 247776",Kaka Nagar,"F825+JVV, near Khatriyan mohlla",Shamli,247776,Uttar Pradesh,IN,https://www.google.com/maps/place/Rajowali+Masjid/data=!4m7!3m6!1s0x390c2eca0b22c3d5:0x318ab5cc20e4a653!8m2!3d29.4516125!4d77.3096583!16s%2Fg%2F11c6cgp3gz!19sChIJ1cMiC8ouDDkRU6bkIMy1ijE?authuser=0&hl=en&rclk=1,"29.4516125,77.3096583"
Ayesha Masjid,Mosque,"C8X6+547 Ayesha Masjid, Shamli, Uttar Pradesh 247776",,C8X6+547,Shamli,247776,Uttar Pradesh,IN,https://www.google.com/maps/place/Ayesha+Masjid/data=!4m7!3m6!1s0x390c2ec8276beed3:0x3d08ca23ec8c7a85!8m2!3d29.4479027!4d77.310285!16s%2Fg%2F11c6f4ls6h!19sChIJ0-5rJ8guDDkRhXqM7CPKCD0?authuser=0&hl=en&rclk=1,"29.4479027,77.310285"
Muhammadi Masjid,Mosque,"C7RX+CH3 Muhammadi Masjid, Shamli, Uttar Pradesh 247776",,C7RX+CH3,Shamli,247776,Uttar Pradesh,IN,https://www.google.com/maps/place/Muhammadi+Masjid/data=!4m7!3m6!1s0x390c2ebad95995cd:0x33054e3203d0f453!8m2!3d29.4410043!4d77.2989345!16s%2Fg%2F11g6y_14nf!19sChIJzZVZ2bouDDkRU_TQAzJOBTM?authuser=0&hl=en&rclk=1,"29.4410043,77.2989345"
Fatehpuri Masjid,Mosque,"F836+677 Fatehpuri Masjid, Pansariyan, Shamli, Uttar Pradesh 247776",Pansariyan,F836+677,Shamli,247776,Uttar Pradesh,IN,https://www.google.com/maps/place/Fatehpuri+Masjid/data=!4m7!3m6!1s0x390c2eca61a5c403:0xbbc1f1a2231911f3!8m2!3d29.4530346!4d77.310666!16s%2Fg%2F11c6mfcgg5!19sChIJA8SlYcouDDkR8xEZI6Lxwbs?authuser=0&hl=en&rclk=1,"29.4530346,77.310666"
Jama Masjid Shamli,Mosque,"C7WX+6WR Jama Masjid Shamli, Gagan Vihar, Shamli, Uttar Pradesh 247776",Gagan Vihar,C7WX+6WR,Shamli,247776,Uttar Pradesh,IN,https://www.google.com/maps/place/Jama+Masjid+Shamli/data=!4m7!3m6!1s0x390c2eb638279f6b:0x1ce5366535093b4a!8m2!3d29.4456136!4d77.2997727!16s%2Fg%2F11c562299z!19sChIJa58nOLYuDDkRSjsJNWU25Rw?authuser=0&hl=en&rclk=1,"29.445613599999998,77.29977269999999"
Makka Masjid,Mosque,"Makka Masjid, Off, Barkhandi Rd, Kaka Nagar, Shamli, Uttar Pradesh 247776",Kaka Nagar,"Off, Barkhandi Rd",Shamli,247776,Uttar Pradesh,IN,https://www.google.com/maps/place/Makka+Masjid/data=!4m7!3m6!1s0x390c2eb457daf9f9:0x4bc1b8148db662cd!8m2!3d29.4527067!4d77.3060187!16s%2Fg%2F11g6bqpfc6!19sChIJ-fnaV7QuDDkRzWK2jRS4wUs?authuser=0&hl=en&rclk=1,"29.4527067,77.3060187"
Shahi Masjid,Mosque,"C8X5+9FR Shahi Masjid, Shamli, Uttar Pradesh 247776",,C8X5+9FR,Shamli,247776,Uttar Pradesh,IN,https://www.google.com/maps/place/Shahi+Masjid/data=!4m7!3m6!1s0x390c2eb63ce392e9:0x2f3b2ee2541edcdc!8m2!3d29.4484789!4d77.3086312!16s%2Fg%2F11c1s1txnk!19sChIJ6ZLjPLYuDDkR3NweVOIuOy8?authuser=0&hl=en&rclk=1,"29.448478899999998,77.3086312"
masjid Eidgah wali,Mosque,"C8W2+8PW masjid Eidgah wali, Shamli, Uttar Pradesh 247776",,C8W2+8PW,Shamli,247776,Uttar Pradesh,IN,https://www.google.com/maps/place/masjid+Eidgah+wali/data=!4m7!3m6!1s0x390c2eb0ef850c0b:0xb3205c8fc082a37c!8m2!3d29.4458514!4d77.3018251!16s%2Fg%2F11c30xklpd!19sChIJCwyF77AuDDkRfKOCwI9cILM?authuser=0&hl=en&rclk=1,"29.4458514,77.3018251"
Hindi wali masjid,Mosque,"C8X6+542 Hindi wali masjid, Naya Bazar Rd, Shamli, Uttar Pradesh 247776",,"C8X6+542, Naya Bazar Rd",Shamli,247776,Uttar Pradesh,IN,https://www.google.com/maps/place/Hindi+wali+masjid/data=!4m7!3m6!1s0x390c2ec9ce485049:0xe8ec5a9895304cd0!8m2!3d29.4478998!4d77.3102695!16s%2Fg%2F11gf9qrxnl!19sChIJSVBIzskuDDkR0EwwlZha7Og?authuser=0&hl=en&rclk=1,"29.4478998,77.31026949999999"
Masjid Madrse wali,Mosque,"C8V3+QC7 Masjid Madrse wali, Unnamed Road, Shamli Rural, Shamli, Uttar Pradesh 247776",,"C8V3+QC7, Unnamed Road","Shamli Rural, Shamli",247776,Uttar Pradesh,IN,https://www.google.com/maps/place/Masjid+Madrse+wali/data=!4m7!3m6!1s0x390c2eb0acf78fc5:0xf5f1c9c135a28fe7!8m2!3d29.4444155!4d77.3035514!16s%2Fg%2F11gdyxy9nj!19sChIJxY_3rLAuDDkR54-iNcHJ8fU?authuser=0&hl=en&rclk=1,"29.444415499999998,77.3035514"
Masjid Rashidiyan,Mosque,"F823+9FF Masjid Rashidiyan, mominpura no kuaan Road, Uttar Pradesh 247776",Kaka Nagar,"F823+9FF, mominpura no kuaan Road","Shamli, Shamli Rural",247776,Uttar Pradesh,IN,https://www.google.com/maps/place/Masjid+Rashidiyan/data=!4m7!3m6!1s0x390c2eb3f56f8865:0xda89599e790cc77!8m2!3d29.4509485!4d77.3036719!16s%2Fg%2F11gf9qklgv!19sChIJZYhv9bMuDDkRd8yQ55mVqA0?authuser=0&hl=en&rclk=1,"29.4509485,77.3036719"
Masjid & Madarsa,Mosque,"C8W4+V84 Masjid & Madarsa, Shamli, Uttar Pradesh 247776",,C8W4+V84,Shamli,247776,Uttar Pradesh,IN,https://www.google.com/maps/place/Masjid+%26+Madarsa/data=!4m7!3m6!1s0x390c2eb6e2cd3b69:0xd244cc7f201870b1!8m2!3d29.4471328!4d77.3058424!16s%2Fg%2F11g6bnqn_y!19sChIJaTvN4rYuDDkRsXAYIH_MRNI?authuser=0&hl=en&rclk=1,"29.4471328,77.3058424"
Aqsa Masjid,Mosque,"F835+JMJ Aqsa Masjid, Mandi Rd, Pansariyan Colony, Kaka Nagar, Shamli, Uttar Pradesh 247776","Pansariyan Colony, Kaka Nagar","F835+JMJ, Mandi Rd",Shamli,247776,Uttar Pradesh,IN,https://www.google.com/maps/place/Aqsa+Masjid/data=!4m7!3m6!1s0x390c2eb572c234df:0xe1ea6c772feb3534!8m2!3d29.4540755!4d77.3091287!16s%2Fg%2F11gd0mf2hv!19sChIJ3zTCcrUuDDkRNDXrL3ds6uE?authuser=0&hl=en&rclk=1,"29.4540755,77.3091287"
Masjid Thathiraan,Mosque,"F824+4MH Masjid Thathiraan, Teachers Colony, Thatheran, Shamli, Uttar Pradesh 247776","Teachers Colony, Thatheran",F824+4MH,Shamli,247776,Uttar Pradesh,IN,https://www.google.com/maps/place/Masjid+Thathiraan/data=!4m7!3m6!1s0x390c2eb5d3377479:0xaf0b50946663f9af!8m2!3d29.4503221!4d77.3067455!16s%2Fg%2F11c6f61wkq!19sChIJeXQ307UuDDkRr_ljZpRQC68?authuser=0&hl=en&rclk=1,"29.450322099999998,77.30674549999999"
Noorani maszid,Mosque,"C8X5+MH2 Noorani maszid, Shamli, Uttar Pradesh 247776",,C8X5+MH2,Shamli,247776,Uttar Pradesh,IN,https://www.google.com/maps/place/Noorani+maszid/data=!4m7!3m6!1s0x390c2eb61a30e51b:0x99b1eca267746253!8m2!3d29.4491377!4d77.308893!16s%2Fg%2F11cmyt9_yy!19sChIJG-UwGrYuDDkRU2J0Z6LssZk?authuser=0&hl=en&rclk=1,"29.449137699999998,77.308893"
Marketwali Masjid,Mosque,"C8X4+6C3 Marketwali Masjid, Shamli, Uttar Pradesh 247776",,C8X4+6C3,Shamli,247776,Uttar Pradesh,IN,https://www.google.com/maps/place/Marketwali+Masjid/data=!4m7!3m6!1s0x390c2eb6f19c264d:0xd6f0579743146986!8m2!3d29.4480244!4d77.3060422!16s%2Fg%2F11c1rw42xn!19sChIJTSac8bYuDDkRhmkUQ5dX8NY?authuser=0&hl=en&rclk=1,"29.448024399999998,77.3060422"
Masjid-e-fatima,Mosque,"C8V2+2QV Masjid-e-fatima, Shamli, Uttar Pradesh 247776",,C8V2+2QV,Shamli,247776,Uttar Pradesh,IN,https://www.google.com/maps/place/Masjid-e-fatima/data=!4m7!3m6!1s0x390c2eba69647109:0x3eccf6146474bf60!8m2!3d29.4426018!4d77.3019303!16s%2Fg%2F11gfj5nhgw!19sChIJCXFkabouDDkRYL90ZBT2zD4?authuser=0&hl=en&rclk=1,"29.4426018,77.3019303"
Sarvar Peer,Mosque,"F823+WCP Sarvar Peer, Kaka Nagar, Shamli, Uttar Pradesh 247776",Kaka Nagar,F823+WCP,Shamli,247776,Uttar Pradesh,IN,https://www.google.com/maps/place/Sarvar+Peer/data=!4m7!3m6!1s0x390c2f82f3053cf9:0xdbf40cd9bade6998!8m2!3d29.4523355!4d77.3035669!16s%2Fg%2F11f9y8k8r6!19sChIJ-TwF84IvDDkRmGneutkM9Ns?authuser=0&hl=en&rclk=1,"29.4523355,77.30356689999999"
Maniharan wali masjid,Mosque,"F826+C93 Maniharan wali masjid, Kaka Nagar, Shamli, Uttar Pradesh 247776",Kaka Nagar,F826+C93,Shamli,247776,Uttar Pradesh,IN,https://www.google.com/maps/place/Maniharan+wali+masjid/data=!4m7!3m6!1s0x390c2facd495e865:0xcbf31e5892b56c07!8m2!3d29.4510172!4d77.3109301!16s%2Fg%2F11k6v5p2qf!19sChIJZeiV1KwvDDkRB2y1klge88s?authuser=0&hl=en&rclk=1,"29.4510172,77.3109301"
Chand Masjid,Mosque,"Chand Masjid, Ansari, Kaka Nagar, Shamli, Uttar Pradesh 247776",Kaka Nagar,Ansari,Shamli,247776,Uttar Pradesh,IN,https://www.google.com/maps/place/Chand+Masjid/data=!4m7!3m6!1s0x390c2964ee330a39:0x5729a1bdf2d7c745!8m2!3d29.4563694!4d77.3061597!16s%2Fg%2F11gppjj97w!19sChIJOQoz7mQpDDkRRcfX8r2hKVc?authuser=0&hl=en&rclk=1,"29.4563694,77.3061597"
Masjid Bu'alishah Qalandar,Mosque,"F835+783 Masjid Bu'alishah Qalandar, Mandi Rd, Pansariyan Colony, Kaka Nagar, Shamli, Uttar Pradesh 247776","Pansariyan Colony, Kaka Nagar","F835+783, Mandi Rd",Shamli,247776,Uttar Pradesh,IN,https://www.google.com/maps/place/Masjid+Bu%27alishah+Qalandar/data=!4m7!3m6!1s0x390c2f5443528391:0x128ef50b305b89ae!8m2!3d29.4531486!4d77.3083056!16s%2Fg%2F11g_x9lp5x!19sChIJkYNSQ1QvDDkRrolbMAv1jhI?authuser=0&hl=en&rclk=1,"29.4531486,77.3083056"
Noor Maszid,Mosque,"C8V3+MW6 Noor Maszid, Nanu Pura, Shamli, Uttar Pradesh 247776",Nanu Pura,C8V3+MW6,Shamli,247776,Uttar Pradesh,IN,https://www.google.com/maps/place/Noor+Maszid/data=!4m7!3m6!1s0x390c2eb758c9249f:0x93f60b9bd25ba3e!8m2!3d29.4441524!4d77.3047688!16s%2Fg%2F11f3r3_8cr!19sChIJnyTJWLcuDDkRProlvblgPwk?authuser=0&hl=en&rclk=1,"29.4441524,77.30476879999999"
Jama Masjid,Mosque,"Jama Masjid, 856/6, Teachers Colony, Kaka Nagar, Shamli, Uttar Pradesh 247776","Teachers Colony, Kaka Nagar",856/6,Shamli,247776,Uttar Pradesh,IN,https://www.google.com/maps/place/Jama+Masjid/data=!4m7!3m6!1s0x390c2fb354fedb5f:0xed0f2fe7ec2fcf76!8m2!3d29.448006!4d77.3083261!16s%2Fg%2F11s781hk82!19sChIJX9v-VLMvDDkRds8v7OcvD-0?authuser=0&hl=en&rclk=1,"29.448006,77.3083261"
Naurani Masjid,Mosque,"Naurani Masjid, Mandi Rd, Pansariyan Colony, Kaka Nagar, Shamli, Uttar Pradesh 247776","Pansariyan Colony, Kaka Nagar","Naurani Masjid, Mandi Rd",Shamli,247776,Uttar Pradesh,IN,https://www.google.com/maps/place/Naurani+Masjid/data=!4m7!3m6!1s0x390c2ffb8d40906d:0xffae4ad5cf426ddc!8m2!3d29.454632!4d77.3059919!16s%2Fg%2F11s55vmqtb!19sChIJbZBAjfsvDDkR3G1Cz9VKrv8?authuser=0&hl=en&rclk=1,"29.454632,77.3059919"
Eidgah masjid Shamli,Mosque,"C8R3+Q4J Eidgah masjid Shamli, Gulshan Nagar, Shamli, Uttar Pradesh 247776",Gulshan Nagar,C8R3+Q4J,Shamli,,Uttar Pradesh,IN,https://www.google.com/maps/place/Eidgah+masjid+Shamli/data=!4m7!3m6!1s0x390c2f4e68c45c9d:0xa0b73cf142b1a76e!8m2!3d29.441964!4d77.3027553!16s%2Fg%2F11t5f90440!19sChIJnVzEaE4vDDkRbqexQvE8t6A?authuser=0&hl=en&rclk=1,"29.441964,77.3027553"
Madina masjid,Mosque,"C8R3+RR3 Madina masjid, Shamli, Uttar Pradesh 247776",,C8R3+RR3,Shamli,247776,Uttar Pradesh,IN,https://www.google.com/maps/place/Madina+masjid/data=!4m7!3m6!1s0x390c2f640fb92953:0xb1654e06cfeda35b!8m2!3d29.4420125!4d77.3045381!16s%2Fg%2F11q252bgzg!19sChIJUym5D2QvDDkRW6PtzwZOZbE?authuser=0&hl=en&rclk=1,"29.442012499999997,77.3045381"
Chand masjid Pansariyan Colony,Mosque,"F835+MWM Chand masjid Pansariyan Colony, Pansariyan Colony, Kaka Nagar, Shamli Rural, Shamli, Uttar Pradesh 247776","Pansariyan Colony, Kaka Nagar",F835+MWM,"Shamli Rural, Shamli",247776,Uttar Pradesh,IN,https://www.google.com/maps/place/Chand+masjid+Pansariyan+Colony/data=!4m7!3m6!1s0x390c2f38cdf7a111:0xdc85edc99a0ad9!8m2!3d29.4542218!4d77.3098074!16s%2Fg%2F11ff0hw8mn!19sChIJEaH3zTgvDDkR2Qqaye2F3AA?authuser=0&hl=en&rclk=1,"29.4542218,77.3098074"
Hamza masjid,Mosque,"Hamza masjid, Kaka Nagar, Shamli Rural, Shamli, Uttar Pradesh 247776",Kaka Nagar,,"Shamli Rural, Shamli",247776,Uttar Pradesh,IN,https://www.google.com/maps/place/Hamza+masjid/data=!4m7!3m6!1s0x390c2f65ed196557:0x9986d6e358c917b2!8m2!3d29.4542501!4d77.3050696!16s%2Fg%2F11st90w2n1!19sChIJV2UZ7WUvDDkRshfJWOPWhpk?authuser=0&hl=en&rclk=1,"29.4542501,77.3050696"
Markaz Masjid,Mosque,"C8V3+HCF Markaz Masjid, Saharanpur - Delhi Rd, Shamli, Uttar Pradesh 247776",,"C8V3+HCF, Saharanpur - Delhi Rd",Shamli,247776,Uttar Pradesh,IN,https://www.google.com/maps/place/Markaz+Masjid/data=!4m7!3m6!1s0x390c2f507a93e509:0x697f1abba92158c!8m2!3d29.4439364!4d77.3035595!16s%2Fg%2F11s91ptrq1!19sChIJCeWTelAvDDkRjBWSuqvxlwY?authuser=0&hl=en&rclk=1,"29.4439364,77.30355949999999"
Banjaron Wali Masjid,Mosque,"C7RV+6WF Banjaron Wali Masjid, Shamli - Kairana Rd, Shamli, Uttar Pradesh 247776",,"C7RV+6WF, Shamli - Kairana Rd",Shamli,247776,Uttar Pradesh,IN,https://www.google.com/maps/place/Banjaron+Wali+Masjid/data=!4m7!3m6!1s0x390c2ea5abfce563:0x1296d8ca78083b46!8m2!3d29.4405717!4d77.2947836!16s%2Fg%2F11gfm46xdp!19sChIJY-X8q6UuDDkRRjsIeMrYlhI?authuser=0&hl=en&rclk=1,"29.4405717,77.2947836"
Amna masjid,Parsi temple,"F843+VV5 Amna masjid, Kaka Nagar, Shamli, Uttar Pradesh 247776",Kaka Nagar,F843+VV5,Shamli,247776,Uttar Pradesh,IN,https://www.google.com/maps/place/Amna+masjid/data=!4m7!3m6!1s0x390c291df2a35b4d:0x1bd912f6165ff375!8m2!3d29.4571346!4d77.3047218!16s%2Fg%2F11lrf40_0w!19sChIJTVuj8h0pDDkRdfNfFvYS2Rs?authuser=0&hl=en&rclk=1,"29.4571346,77.3047218"
Masjid,School,"C7MX+R5P Masjid, Shamli, Uttar Pradesh 247776",,C7MX+R5P,Shamli,247776,Uttar Pradesh,IN,https://www.google.com/maps/place/Masjid/data=!4m7!3m6!1s0x390c2ea2d4ce6805:0x235e89e0185283a8!8m2!3d29.4345975!4d77.2979503!16s%2Fg%2F11f15f6mnt!19sChIJBWjO1KIuDDkRqINSGOCJXiM?authuser=0&hl=en&rclk=1,"29.4345975,77.2979503"
Qaziyan maszid,Mosque,"Qaziyan maszid, 872/6, Teachers Colony, Kaka Nagar, Shamli, Uttar Pradesh 247776","Teachers Colony, Kaka Nagar",872/6,Shamli,247776,Uttar Pradesh,IN,https://www.google.com/maps/place/Qaziyan+maszid/data=!4m7!3m6!1s0x390c2fb2676498c1:0xfb4fabf7307e16a5!8m2!3d29.4482065!4d77.3087639!16s%2Fg%2F11ng1nh62d!19sChIJwZhkZ7IvDDkRpRZ-MPerT_s?authuser=0&hl=en&rclk=1,"29.448206499999998,77.3087639"
Madarsa Islamia Zia Ul Quran,Mosque,"F833+37P Madarsa Islamia Zia Ul Quran, Barkhandi Rd, near Sarvar Peer, Kaka Nagar, Shamli, Uttar Pradesh 247776",Kaka Nagar,"F833+37P, Barkhandi Rd, near Sarvar Peer",Shamli,247776,Uttar Pradesh,IN,https://www.google.com/maps/place/Madarsa+Islamia+Zia+Ul+Quran/data=!4m7!3m6!1s0x390c2f78fee246cb:0xefdfb837cb93602d!8m2!3d29.452722!4d77.303196!16s%2Fg%2F11j32wg4wq!19sChIJy0bi_ngvDDkRLWCTyze43-8?authuser=0&hl=en&rclk=1,"29.452721999999998,77.303196"
tkiye vaalii msjid,Mosque,"C8X4+XJP tkiye vaalii msjid, Budha babu jain street, Uttar Pradesh 247776",Teachers Colony,"C8X4+XJP, Budha babu jain street","Shamli, Shamli Rural",247776,Uttar Pradesh,IN,https://www.google.com/maps/place/%E0%A4%A4%E0%A4%95%E0%A4%BF%E0%A4%AF%E0%A5%87+%E0%A4%B5%E0%A4%BE%E0%A4%B2%E0%A5%80+%E0%A4%AE%E0%A4%B8%E0%A5%8D%E0%A4%9C%E0%A4%BF%E0%A4%A6/data=!4m7!3m6!1s0x390c2fc0ddcc09cd:0xe0f50c23680f14df!8m2!3d29.4499647!4d77.3065635!16s%2Fg%2F11gtqb40wj!19sChIJzQnM3cAvDDkR3xQPaCMM9eA?authuser=0&hl=en&rclk=1,"29.4499647,77.3065635"
Quba Masjid,Mosque,"Quba Masjid, Moh. Ramshalla, Kaka Nagar, Shamli, Uttar Pradesh 247776",Kaka Nagar,Moh. Ramshalla,Shamli,247776,Uttar Pradesh,IN,https://www.google.com/maps/place/Quba+Masjid/data=!4m7!3m6!1s0x390c2f799952d96f:0x182c0dcc3198cf28!8m2!3d29.4507894!4d77.3096942!16s%2Fg%2F11fsw6yry5!19sChIJb9lSmXkvDDkRKM-YMcwNLBg?authuser=0&hl=en&rclk=1,"29.450789399999998,77.3096942"
saiyd baabaa shaah kmruuddiin,Mosque,"C7JV+8JC saiyd baabaa shaah kmruuddiin, SH 57, Shamli, Uttar Pradesh 247776",,"C7JV+8JC, SH 57",Shamli,247776,Uttar Pradesh,IN,https://www.google.com/maps/place/%E0%A4%B8%E0%A5%88%E0%A4%AF%E0%A4%A6+%E0%A4%AC%E0%A4%BE%E0%A4%AC%E0%A4%BE+%E0%A4%B6%E0%A4%BE%E0%A4%B9+%E0%A4%95%E0%A4%AE%E0%A4%B0%E0%A5%82%E0%A4%A6%E0%A5%8D%E0%A4%A6%E0%A5%80%E0%A4%A8/data=!4m7!3m6!1s0x390c2fd4b31da651:0x7d966cf804f07e15!8m2!3d29.4308091!4d77.2940195!16s%2Fg%2F11nyqpn1nd!19sChIJUaYds9QvDDkRFX7wBPhsln0?authuser=0&hl=en&rclk=1,"29.430809099999998,77.29401949999999"
M.Mustaqeem S.,Mosque,"F835+JJQ M.Mustaqeem S., Pansariyan Noorani masjid, Shamli","Pansariyan Colony, Kaka Nagar","F835+JJQ, Pansariyan Noorani masjid",Shamli,,Uttar Pradesh,IN,https://www.google.com/maps/place/M.Mustaqeem+S./data=!4m7!3m6!1s0x390c2f5be956adc9:0x2f351527f358a0f5!8m2!3d29.4540958!4d77.3090942!16s%2Fg%2F11ngmns5nr!19sChIJya1W6VsvDDkR9aBY8ycVNS8?authuser=0&hl=en&rclk=1,"29.454095799999997,77.30909419999999"
Mosque,Mosque,"Mosque, 88B, Teachers Colony, Kaka Nagar, Shamli, Uttar Pradesh 247776","Teachers Colony, Kaka Nagar",88B,Shamli,247776,Uttar Pradesh,IN,https://www.google.com/maps/place/Mosque/data=!4m7!3m6!1s0x390c2f27758c6e3f:0x210dd080d70debe4!8m2!3d29.4485597!4d77.3072278!16s%2Fg%2F11tcf3rj6y!19sChIJP26MdScvDDkR5OsN14DQDSE?authuser=0&hl=en&rclk=1,"29.448559699999997,77.30722779999999"
Ansari Jan sewa Kendra takiya wali masjid,Non-profit organization,"C8X4+XH8 Ansari Jan sewa Kendra takiya wali masjid, Kabari Bazar Rd, Teachers Colony, Shamli, Uttar Pradesh 247776",Teachers Colony,"C8X4+XH8, Kabari Bazar Rd",Shamli,247776,Uttar Pradesh,IN,https://www.google.com/maps/place/Ansari+Jan+sewa+Kendra+takiya+wali+masjid/data=!4m7!3m6!1s0x390c2fbaa2053571:0x2dd12b9fe9257829!8m2!3d29.4499167!4d77.306495!16s%2Fg%2F11shk9t59z!19sChIJcTUForovDDkRKXgl6Z8r0S0?authuser=0&hl=en&rclk=1,"29.4499167,77.306495"
