name,main_category,address,address_ward,address_street,address_city,address_postal_code,address_state,address_country_code,link,coordinates
Masjid-e-Ibad Ur Rahman,Mosque,"Masjid-e-Ibad Ur Rahman, 9-8-110/C/41, Dhankota Rd, near Fateh Darwaza, Dhankota, Saleh Nagar, Golconda Fort, Hyderabad, Telangana 500008","Dhankota, Saleh Nagar, Golconda Fort","9-8-110/C/41, Dhankota Rd, near Fateh Darwaza",Hyderabad,500008,Telangana,IN,https://www.google.com/maps/place/Masjid-e-Ibad+Ur+Rahman/data=!4m7!3m6!1s0x3bcb96f5f1aa623f:0xa942d5c8b980d481!8m2!3d17.3776952!4d78.41244!16s%2Fg%2F12qg8ywz6!19sChIJP2Kq8fWWyzsRgdSAucjVQqk?authuser=0&hl=en&rclk=1,"17.377695199999998,78.41243999999999"
Masjid E Jamaat Ul Muslimeen..Janpeeril,Mosque,"XJ7H+QPG Masjid E Jamaat Ul Muslimeen..Janpeeril, Adarsh Nagar, Puppalagutta, Warangal, Telangana 506330","Adarsh Nagar, Puppalagutta",XJ7H+QPG,Warangal,506330,Telangana,IN,https://www.google.com/maps/place/Masjid+E+Jamaat+Ul+Muslimeen..Janpeeril/data=!4m7!3m6!1s0x3a334507267bda7d:0xbf9502853ca28657!8m2!3d17.9644465!4d79.629317!16s%2Fg%2F11srb4sb55!19sChIJfdp7JgdFMzoRV4aiPIUClb8?authuser=0&hl=en&rclk=1,"17.964446499999998,79.629317"
Masjid E Kalan Aiwan E Shahi,Mosque,"XGVR+MQ8 Masjid E Kalan Aiwan E Shahi, Hyderabad - Warangal Hwy, Subedari, Hanamkonda, Telangana 506001",Subedari,"XGVR+MQ8, Hyderabad - Warangal Hwy",Hanamkonda,506001,Telangana,IN,https://www.google.com/maps/place/Masjid+E+Kalan+Aiwan+E+Shahi/data=!4m7!3m6!1s0x3a334f993f680611:0xc61e425c1c8b2974!8m2!3d17.9941667!4d79.5419444!16s%2Fg%2F1vfn51q5!19sChIJEQZoP5lPMzoRdCmLHFxCHsY?authuser=0&hl=en&rclk=1,"17.9941667,79.54194439999999"
Jama Masjid,Mosque,"MGGQ+F5Q Jama Masjid, Jama Masjid Rd, Mahalaxmiwada, Adilabad, Telangana 504001",Mahalaxmiwada,"MGGQ+F5Q, Jama Masjid Rd",Adilabad,504001,Telangana,IN,https://www.google.com/maps/place/Jama+Masjid/data=!4m7!3m6!1s0x3bd25c75f87e8a01:0x25a95ee1fbab37d0!8m2!3d19.6762137!4d78.5379985!16s%2Fg%2F1tlqnfwv!19sChIJAYp--HVc0jsR0Der--FeqSU?authuser=0&hl=en&rclk=1,"19.676213699999998,78.5379985"
Gulzaar Masjid,Mosque,"MGCR+66Q Gulzaar Masjid, Bokkalguda St, Brahmanwadi, Adilabad, Telangana 504001",Brahmanwadi,"MGCR+66Q, Bokkalguda St",Adilabad,504001,Telangana,IN,https://www.google.com/maps/place/Gulzaar+Masjid/data=!4m7!3m6!1s0x3bd25c7477d00337:0x3dc61fe7489f62b1!8m2!3d19.6704596!4d78.5395986!16s%2Fg%2F1tcz6sjz!19sChIJNwPQd3Rc0jsRsWKfSOcfxj0?authuser=0&hl=en&rclk=1,"19.670459599999997,78.53959859999999"
Masjid-e-Rahmania,Mosque,"MG5H+P96 Masjid-e-Rahmania, Dasnapur, Sapthagiri Colony, chaitanyapuri, Adilabad, Telangana 504001","Dasnapur, Sapthagiri Colony, chaitanyapuri",MG5H+P96,Adilabad,504001,Telangana,IN,https://www.google.com/maps/place/Masjid-e-Rahmania/data=!4m7!3m6!1s0x3bd25c643f4fdb2f:0xa503fe99bb42906e!8m2!3d19.6592958!4d78.5283772!16s%2Fg%2F1w2ysb6c!19sChIJL9tPP2Rc0jsRbpBCu5n-A6U?authuser=0&hl=en&rclk=1,"19.6592958,78.5283772"
Masjid-e-Firdous,Mosque,"MG6G+978 Masjid-e-Firdous, Rickshaw Colony, Adilabad, Telangana 504001",Rickshaw Colony,MG6G+978,Adilabad,504001,Telangana,IN,https://www.google.com/maps/place/Masjid-e-Firdous/data=!4m7!3m6!1s0x3bd25c6379b59d8d:0x6f222369871ef4cd!8m2!3d19.6609205!4d78.525713!16s%2Fg%2F11b6tqg984!19sChIJjZ21eWNc0jsRzfQeh2kjIm8?authuser=0&hl=en&rclk=1,"19.6609205,78.525713"
Kauser Masjid,Mosque,"Kauser Masjid, 9-6-49, Jayaprakash Narayan Road, Mandi Bazar, Sherpura, Warangal, Telangana 506002","Mandi Bazar, Sherpura","9-6-49, Jayaprakash Narayan Road",Warangal,506002,Telangana,IN,https://www.google.com/maps/place/Kauser+Masjid/data=!4m7!3m6!1s0x3a334519499e976f:0x79eb925c450fb831!8m2!3d17.9851535!4d79.5991471!16s%2Fg%2F1ptwppkvt!19sChIJb5eeSRlFMzoRMbgPRVyS63k?authuser=0&hl=en&rclk=1,"17.9851535,79.5991471"
Masjid-E-Quba masjidWi quba,Mosque,"XHQ2+2C9 Masjid-E-Quba masjidWi quba, Quba Colony, behind Police Colony, Subedari, Hanamkonda, Telangana 506001","FCI Colony, Police Colony, Subedari","XHQ2+2C9, Quba Colony, behind Police Colony",Hanamkonda,506001,Telangana,IN,https://www.google.com/maps/place/Masjid-E-Quba+%D9%85%D9%8E%D8%B3%D9%92%D8%AC%D9%90%D8%AF%D9%91%D9%90+%D9%82%D9%8F%D8%A8%D9%8E%D8%A7%D8%A1%E2%80%AD/data=!4m7!3m6!1s0x3a334f8fb1a081d3:0x7d6424d64c6173d0!8m2!3d17.9875375!4d79.5511007!16s%2Fg%2F1tdjpksx!19sChIJ04GgsY9PMzoR0HNhTNYkZH0?authuser=0&hl=en&rclk=1,"17.9875375,79.55110069999999"
Masjid-E-Taneem,Mosque,"MG8P+GJ2 Masjid-E-Taneem, Shanti Nagar, Adilabad, Telangana 504001",Shanti Nagar,MG8P+GJ2,Adilabad,504001,Telangana,IN,https://www.google.com/maps/place/Masjid-E-Taneem/data=!4m7!3m6!1s0x3bd25c7196951817:0xe1695f659d337d7!8m2!3d19.6662707!4d78.5365283!16s%2Fg%2F11c52zx1f3!19sChIJFxiVlnFc0jsR1zfTWfaVFg4?authuser=0&hl=en&rclk=1,"19.6662707,78.5365283"
Masjid Panjesha,Mosque,"Masjid Panjesha, masjid, panjesha marg, Bhainsa, Telangana 504103",,"masjid, panjesha marg",Bhainsa,,Telangana,IN,https://www.google.com/maps/place/Masjid+Panjesha/data=!4m7!3m6!1s0x3bcdfe45594b318b:0xa9a4527a0d3bdd4e!8m2!3d19.1114013!4d77.9614446!16s%2Fg%2F11xfvxc4m!19sChIJizFLWUX-zTsRTt07DXpSpKk?authuser=0&hl=en&rclk=1,"19.1114013,77.9614446"
Masjid e Noor Khursheed Nagar,Mosque,"Masjid e Noor Khursheed Nagar, khursheed Nagar, Adilabad, Telangana 504001",khursheed Nagar,,Adilabad,,Telangana,IN,https://www.google.com/maps/place/Masjid+e+Noor+Khursheed+Nagar/data=!4m7!3m6!1s0x3bd25b7f77891187:0xd64d9d2522c68201!8m2!3d19.6780656!4d78.5199255!16s%2Fg%2F1pp2x6dd1!19sChIJhxGJd39b0jsRAYLGIiWdTdY?authuser=0&hl=en&rclk=1,"19.6780656,78.5199255"
Mohammadia Masjid,Mosque,"MGFH+M8P Mohammadia Masjid, NH 44, Vidya Nagar, Adilabad, Telangana 504001",Vidya Nagar,"MGFH+M8P, NH 44",Adilabad,504001,Telangana,IN,https://www.google.com/maps/place/Mohammadia+Masjid/data=!4m7!3m6!1s0x3bd25c7892a2eb3b:0x89c3b0daf8ff360!8m2!3d19.6742243!4d78.5283275!16s%2Fg%2F1tjz1t_5!19sChIJO-uiknhc0jsRYPOPrw07nAg?authuser=0&hl=en&rclk=1,"19.6742243,78.5283275"
"Masjid E Salaheen, Reddy Colony",Mosque,"Masjid E Salaheen, Reddy Colony, 3-11-44, Rd Number 2, Kumar pally Janda, Reddy Colony, Hanamkonda, Telangana 506011","Kumar pally Janda, Reddy Colony","3-11-44, Rd Number 2",Hanamkonda,506011,Telangana,IN,"https://www.google.com/maps/place/Masjid+E+Salaheen,+Reddy+Colony/data=!4m7!3m6!1s0x3a334585209e4c31:0x1bff75b53f1b6c4b!8m2!3d18.0115292!4d79.5704222!16s%2Fg%2F124sz4622!19sChIJMUyeIIVFMzoRS2wbP7V1_xs?authuser=0&hl=en&rclk=1","18.0115292,79.5704222"
Blue Birds Masjid,Mosque,"2H4H+C5H Blue Birds Masjid, New Raipura, Raipura, Hanamkonda, Telangana 506011","New Raipura, Raipura",2H4H+C5H,Hanamkonda,506011,Telangana,IN,https://www.google.com/maps/place/Blue+Birds+Masjid/data=!4m7!3m6!1s0x3a33459e62a02aa5:0xa6e5bbc84b35ed3b!8m2!3d18.0060659!4d79.5779907!16s%2Fg%2F11f_0x112h!19sChIJpSqgYp5FMzoRO-01S8i75aY?authuser=0&hl=en&rclk=1,"18.0060659,79.5779907"
Masjid-E-AL-Nasar,Mosque,"WHHQ+C5W Masjid-E-AL-Nasar, PensionPura, Laxmipuram, Warangal, Telangana 506005","PensionPura, Laxmipuram",WHHQ+C5W,Warangal,506005,Telangana,IN,https://www.google.com/maps/place/Masjid-E-AL-Nasar/data=!4m7!3m6!1s0x3a335aebe43c7fdf:0x7dabc69db14d1c12!8m2!3d17.928608!4d79.5879514!16s%2Fg%2F1pp2tw6yd!19sChIJ33885OtaMzoREhxNsZ3Gq30?authuser=0&hl=en&rclk=1,"17.928608,79.5879514"
Masjid_E_Quba,Mosque,"Masjid_E_Quba, 2-5-216, beside Masjid E Quba Khila, Mohalla Badh, Adilabad, Telangana 504001",Mohalla Badh,"2-5-216, beside Masjid E Quba Khila",Adilabad,504001,Telangana,IN,https://www.google.com/maps/place/Masjid_E_Quba/data=!4m7!3m6!1s0x3bd25bedeaaaaaab:0xe29f9a411d92289b!8m2!3d19.6793188!4d78.5406475!16s%2Fg%2F11bwkvtnj8!19sChIJq6qq6u1b0jsRmyiSHUGan-I?authuser=0&hl=en&rclk=1,"19.6793188,78.54064749999999"
Masjid-e-Meraj,Mosque,"Masjid-e-Meraj, Police lane, Sanjay Nagar, Adilabad, Bhattisavargaon, Telangana 504001",Sanjay Nagar,Police lane,"Adilabad, Bhattisavargaon",504001,Telangana,IN,https://www.google.com/maps/place/Masjid-e-Meraj/data=!4m7!3m6!1s0x3bd25c80a40634d7:0x99b706696d47a613!8m2!3d19.6674917!4d78.5163997!16s%2Fg%2F1tr7b846!19sChIJ1zQGpIBc0jsRE6ZHbWkGt5k?authuser=0&hl=en&rclk=1,"19.6674917,78.5163997"
Sara e Mir Alam,Mosque,"3726+RXM Sara e Mir Alam, Old City, Nalgonda, Telangana 508001",Old City,3726+RXM,Nalgonda,508001,Telangana,IN,https://www.google.com/maps/place/Sara+e+Mir+Alam/data=!4m7!3m6!1s0x3bcb290a06cee71b:0x77b94accdda85c13!8m2!3d17.0520799!4d79.2624116!16s%2Fg%2F11ddw_scgy!19sChIJG-fOBgopyzsRE1yo3cxKuXc?authuser=0&hl=en&rclk=1,"17.0520799,79.2624116"
Masjid E Abubaker,Mosque,"MG8V+54F Masjid E Abubaker, Shanti Nagar, Adilabad, Telangana 504001",Shanti Nagar,MG8V+54F,Adilabad,504001,Telangana,IN,https://www.google.com/maps/place/Masjid+E+Abubaker/data=!4m7!3m6!1s0x3bd25c72afd994d1:0x55e84f035f33b282!8m2!3d19.6654385!4d78.542794!16s%2Fg%2F11c1wsmygw!19sChIJ0ZTZr3Jc0jsRgrIzXwNP6FU?authuser=0&hl=en&rclk=1,"19.6654385,78.542794"
Masjid E Arafath,Mosque,"MG9W+PJJ Masjid E Arafath, arfath nagar, Adilabad, Telangana 504001",arfath nagar,MG9W+PJJ,Adilabad,504001,Telangana,IN,https://www.google.com/maps/place/Masjid+E+Arafath/data=!4m7!3m6!1s0x3bd25c0c5e111929:0x778ec5e1e693b913!8m2!3d19.6693375!4d78.5465156!16s%2Fg%2F11dxl2lpw0!19sChIJKRkRXgxc0jsRE7mT5uHFjnc?authuser=0&hl=en&rclk=1,"19.669337499999997,78.54651559999999"
Masjid-E-Sughra,Mosque,"WHFJ+M47 Masjid-E-Sughra, Pensionpur,, Allipur, Telangana",,"WHFJ+M47, Pensionpur,","Allipur, Warangal",,Telangana,IN,https://www.google.com/maps/place/Masjid-E-Sughra/data=!4m7!3m6!1s0x3a335a92fe6d051d:0x985d6d109134687e!8m2!3d17.9241696!4d79.5803083!16s%2Fg%2F11clyyds7n!19sChIJHQVt_pJaMzoRfmg0kRBtXZg?authuser=0&hl=en&rclk=1,"17.9241696,79.5803083"
Madina Masjid mdynh msjd,Mosque,"MGCJ+GX8 Madina Masjid mdynh msjd, Netaji Chowk Rd, Ponnar, Bhuktapur, Telangana 504001",Ponnar,"MGCJ+GX8, Netaji Chowk Rd",Bhuktapur,504001,Telangana,IN,https://www.google.com/maps/place/Madina+Masjid+%D9%85%D8%AF%DB%8C%D9%86%DB%81+%D9%85%D8%B3%D8%AC%D8%AF%E2%80%AD/data=!4m7!3m6!1s0x3bd25c7742dd0b05:0xf2fb259a889bfa78!8m2!3d19.6712846!4d78.5324561!16s%2Fg%2F11fzzxxq7l!19sChIJBQvdQndc0jsRePqbiJol-_I?authuser=0&hl=en&rclk=1,"19.6712846,78.53245609999999"
Masjid-e-Fatima,Mosque,"Masjid-e-Fatima, H.No. 23-6-175/2, Rahmat Nagar, Hunter Rd, Shyampet, Hanamkonda, Telangana 506001","Rahmat Nagar, Shyampet","H.No. 23-6-175/2, Rahmat Nagar, Hunter Rd",Hanamkonda,506001,Telangana,IN,https://www.google.com/maps/place/Masjid-e-Fatima/data=!4m7!3m6!1s0x3a33456c18c0e591:0x492eeb66080a7c14!8m2!3d17.9869307!4d79.5776345!16s%2Fg%2F1pzwnl42c!19sChIJkeXAGGxFMzoRFHwKCGbrLkk?authuser=0&hl=en&rclk=1,"17.9869307,79.5776345"
Masjid e Quwwatul Islam,Mosque,"XJC4+F4Q Masjid e Quwwatul Islam, Unnamed Road, Shiva Nagar, Warangal, Telangana 506002",Shiva Nagar,"XJC4+F4Q, Unnamed Road",Warangal,506002,Telangana,IN,https://www.google.com/maps/place/Masjid+e+Quwwatul+Islam/data=!4m7!3m6!1s0x3a3344d875e49af3:0x30138ab097e4aaba!8m2!3d17.9712233!4d79.605349!16s%2Fg%2F11hctgq7gk!19sChIJ85rkddhEMzoRuqrkl7CKEzA?authuser=0&hl=en&rclk=1,"17.9712233,79.60534899999999"
Muhammadiya Masjid,Mosque,"MG29+X76 Muhammadiya Masjid, Ramnagar Colony, Adilabad, Telangana 504001",Ramnagar Colony,MG29+X76,Adilabad,504001,Telangana,IN,https://www.google.com/maps/place/Muhammadiya+Masjid/data=!4m7!3m6!1s0x3bd25c8ad95e1f51:0xc9001b8ca6d7fd64!8m2!3d19.6524043!4d78.5181462!16s%2Fg%2F11cn7qqr7d!19sChIJUR9e2Ypc0jsRZP3XpowbAMk?authuser=0&hl=en&rclk=1,"19.6524043,78.51814619999999"
Masjid E Tawheed Ahle Hadees,Mosque,"MG9R+3FF Masjid E Tawheed Ahle Hadees, Bokkalguda St, Opp. Sanober Urdu School, Shanti Nagar, Adilabad, Telangana 504001",Shanti Nagar,"MG9R+3FF, Bokkalguda St, Opp. Sanober Urdu School",Adilabad,504001,Telangana,IN,https://www.google.com/maps/place/Masjid+E+Tawheed+Ahle+Hadees/data=!4m7!3m6!1s0x3bd25c72fd255f2d:0x9b9a25549484aac6!8m2!3d19.6676945!4d78.5411635!16s%2Fg%2F11b6wlm0t4!19sChIJLV8l_XJc0jsRxqqElFQlmps?authuser=0&hl=en&rclk=1,"19.6676945,78.5411635"
Fathima Masjid,Mosque,"MGFF+676 Fathima Masjid, Sanjay Nagar, Adilabad, Telangana 504001",Sanjay Nagar,MGFF+676,Adilabad,504001,Telangana,IN,https://www.google.com/maps/place/Fathima+Masjid/data=!4m7!3m6!1s0x3bd25c7fa619132f:0x3fc5279c8cd8c162!8m2!3d19.6730467!4d78.5231404!16s%2Fg%2F11g65c9p2q!19sChIJLxMZpn9c0jsRYsHYjJwnxT8?authuser=0&hl=en&rclk=1,"19.6730467,78.5231404"
Abubakr masjid,Mosque,"MG8R+J7F Abubakr masjid, Shanti Nagar, Adilabad, Telangana 504001",Shanti Nagar,MG8R+J7F,Adilabad,504001,Telangana,IN,https://www.google.com/maps/place/Abubakr+masjid/data=!4m7!3m6!1s0x3bd25c72f6f46bc9:0xcd16458f413f5d2e!8m2!3d19.6665675!4d78.5406681!16s%2Fg%2F11c607nzf4!19sChIJyWv09nJc0jsRLl0_QY9FFs0?authuser=0&hl=en&rclk=1,"19.6665675,78.54066809999999"
Masjid-e- Idrisiya,Mosque,"2HG8+GX7 Masjid-e- Idrisiya, Gundla Singaram, Hanamkonda - Pegadapally Road, Hanamkonda, Telangana 506009",,"2HG8+GX7, Gundla Singaram, Hanamkonda - Pegadapally Road",Hanamkonda,506009,Telangana,IN,https://www.google.com/maps/place/Masjid-e-+Idrisiya/data=!4m7!3m6!1s0x3a3345f335f21bfb:0xee4f93a838266b64!8m2!3d18.0262863!4d79.5674079!16s%2Fg%2F11g878v5dp!19sChIJ-xvyNfNFMzoRZGsmOKiTT-4?authuser=0&hl=en&rclk=1,"18.0262863,79.56740789999999"
Masjid E Alamgiri,Mosque,"Masjid E Alamgiri, Chennur, Telangana 504201",,,Chennur,,Telangana,IN,https://www.google.com/maps/place/Masjid+E+Alamgiri/data=!4m7!3m6!1s0x3a32eba7d6448ecd:0xe0585ddf2d39082b!8m2!3d18.8567979!4d79.7961685!16s%2Fg%2F1ptwnygbj!19sChIJzY5E1qfrMjoRKwg5Ld9dWOA?authuser=0&hl=en&rclk=1,"18.8567979,79.7961685"
MASJID-E-Bilal,Mosque,"MGHQ+H25 MASJID-E-Bilal, Adilabad - Nagpur Rd, Panjesha, Adilabad, Telangana 504001",Panjesha,"MGHQ+H25, Adilabad - Nagpur Rd",Adilabad,504001,Telangana,IN,https://www.google.com/maps/place/MASJID-E-Bilal/data=!4m7!3m6!1s0x3bd25b89846e6659:0x31ee36077b20474f!8m2!3d19.6788851!4d78.5375982!16s%2Fg%2F11gclzc6pn!19sChIJWWZuhIlb0jsRT0cgewc27jE?authuser=0&hl=en&rclk=1,"19.6788851,78.53759819999999"
Masjid E Hassan,Mosque,"MG8V+QPM Masjid E Hassan, Unnamed Road, Shanti Nagar, Adilabad, Telangana 504001",Shanti Nagar,"MG8V+QPM, Unnamed Road",Adilabad,504001,Telangana,IN,https://www.google.com/maps/place/Masjid+E+Hassan/data=!4m7!3m6!1s0x3bd25c0d29000079:0xa0cc092090b96993!8m2!3d19.6669651!4d78.5443022!16s%2Fg%2F11dfk_8lt4!19sChIJeQAAKQ1c0jsRk2m5kCAJzKA?authuser=0&hl=en&rclk=1,"19.6669651,78.54430219999999"
Masjid-e-Garib Nawaz,Mosque,"MGPP+943 Masjid-e-Garib Nawaz, raza chowk, Jai Jawan Nagar, Tatiguda Colony, Adilabad, Telangana 504001","Kranti Nagar, Tatiguda Colony","MGPP+943, raza chowk, Jai Jawan Nagar",Adilabad,504001,Telangana,IN,https://www.google.com/maps/place/Masjid-e-Garib+Nawaz/data=!4m7!3m6!1s0x3bd25b8e4eca922b:0x9859180dd7cc6aa7!8m2!3d19.6858886!4d78.5352986!16s%2Fg%2F11g889_zry!19sChIJK5LKTo5b0jsRp2rM1w0YWZg?authuser=0&hl=en&rclk=1,"19.6858886,78.53529859999999"
Jama E Masjid,Mosque,"VQ5V+JXP Jama E Masjid, Chennur, Telangana 504201",,VQ5V+JXP,Chennur,504201,Telangana,IN,https://www.google.com/maps/place/Jama+E+Masjid/data=!4m7!3m6!1s0x3a32eba81e6cb449:0x5d8ccd07c61ccb39!8m2!3d18.8590975!4d79.7949404!16s%2Fg%2F1pv1smc81!19sChIJSbRsHqjrMjoROcscxgfNjF0?authuser=0&hl=en&rclk=1,"18.8590975,79.7949404"
Masjid-e-Mohammadia,Mosque,"WH5V+2R8 Masjid-e-Mohammadia, Mamnoor, Warangal, Telangana 506166",Mamnoor,WH5V+2R8,Warangal,506166,Telangana,IN,https://www.google.com/maps/place/Masjid-e-Mohammadia/data=!4m7!3m6!1s0x3a335a57827d3577:0xd3f5c048b09a4e7a!8m2!3d17.9075283!4d79.5945753!16s%2Fg%2F11c2j1vwh8!19sChIJdzV9gldaMzoRek6asEjA9dM?authuser=0&hl=en&rclk=1,"17.9075283,79.5945753"
MASJID E MAHEBOOB E SUBHANI ( Markaz e Ahle Sunnat ),Mosque,"MASJID E MAHEBOOB E SUBHANI ( Markaz e Ahle Sunnat ), Sanjay Nagar, Adilabad, Telangana 504001",Sanjay Nagar,,Adilabad,504001,Telangana,IN,https://www.google.com/maps/place/MASJID+E+MAHEBOOB+E+SUBHANI+%28+Markaz+e+Ahle+Sunnat+%29/data=!4m7!3m6!1s0x3bd25c7cd0000001:0xe56e990e56fe962c!8m2!3d19.6669356!4d78.5213162!16s%2Fg%2F11c2kk77hk!19sChIJAQAA0Hxc0jsRLJb-Vg6ZbuU?authuser=0&hl=en&rclk=1,"19.6669356,78.5213162"
Masjid e Ishaat-e-Islam,Mosque,"MH33+H28 Masjid e Ishaat-e-Islam, Adilabad, Telangana 504001",,MH33+H28,Adilabad,504001,Telangana,IN,https://www.google.com/maps/place/Masjid+e+Ishaat-e-Islam/data=!4m7!3m6!1s0x3bd25c17d761b9e3:0x9051e74decccc3da!8m2!3d19.653917!4d78.552592!16s%2Fg%2F11g9vtzndj!19sChIJ47lh1xdc0jsR2sPM7E3nUZA?authuser=0&hl=en&rclk=1,"19.653917,78.55259199999999"
Masjid-E-Suffah,Mosque,"2H48+QMM Masjid-E-Suffah, Sai Nagar, Hanamkonda, Telangana 506001",Sai Nagar,2H48+QMM,Hanamkonda,506001,Telangana,IN,https://www.google.com/maps/place/Masjid-E-Suffah/data=!4m7!3m6!1s0x3a334583e7fd3b2f:0x15dd6858ba921c3!8m2!3d18.0069692!4d79.5666575!16s%2Fg%2F1pp2ty4fc!19sChIJLzv954NFMzoRwyGpi4XWXQE?authuser=0&hl=en&rclk=1,"18.0069692,79.56665749999999"
ILAHIYA MASJID,Mosque,"MGMH+97P ILAHIYA MASJID, Indira Nagar Rd, Bhagya Nagar, Adilabad, Telangana 504001",Bhagya Nagar,"MGMH+97P, Indira Nagar Rd",Adilabad,504001,Telangana,IN,https://www.google.com/maps/place/ILAHIYA+MASJID/data=!4m7!3m6!1s0x3bd25b8444ebd13f:0xe27cf6a1114241d4!8m2!3d19.6834654!4d78.5282048!16s%2Fg%2F11fzfhsmc2!19sChIJP9HrRIRb0jsR1EFCEaH2fOI?authuser=0&hl=en&rclk=1,"19.6834654,78.5282048"
Masjid Badar,Mosque,"MG8C+44M Masjid Badar, Rickshaw Colony, Adilabad, Telangana 504001",Rickshaw Colony,MG8C+44M,Adilabad,504001,Telangana,IN,https://www.google.com/maps/place/Masjid+Badar/data=!4m7!3m6!1s0x3bd25c878e7870c1:0x8e24c92e23dce198!8m2!3d19.6653455!4d78.5202985!16s%2Fg%2F11bbrlytdq!19sChIJwXB4jodc0jsRmOHcIy7JJI4?authuser=0&hl=en&rclk=1,"19.6653455,78.5202985"
Osman Masjid,Mosque,"4X47+RJX Osman Masjid, Asad Baba Nagar, Bhainsa, Telangana 504103",Asad Baba Nagar,4X47+RJX,Bhainsa,504103,Telangana,IN,https://www.google.com/maps/place/Osman+Masjid/data=!4m7!3m6!1s0x3bcdfe5b6bc0025d:0x854fb770d38fd2a3!8m2!3d19.107103!4d77.9641068!16s%2Fg%2F11cn6jvztk!19sChIJXQLAa1v-zTsRo9KP03C3T4U?authuser=0&hl=en&rclk=1,"19.107103,77.9641068"
Masjid E-munawar,Mosque,"MGHG+WFR Masjid E-munawar, Indira Nagar, Bhagya Nagar, Adilabad, Telangana 504001","Indira Nagar, Bhagya Nagar",MGHG+WFR,Adilabad,504001,Telangana,IN,https://www.google.com/maps/place/Masjid+E-munawar/data=!4m7!3m6!1s0x3bd25b814a89a5d1:0x13757a533e5d9127!8m2!3d19.6798716!4d78.5261472!16s%2Fg%2F11g5_f9f2n!19sChIJ0aWJSoFb0jsRJ5FdPlN6dRM?authuser=0&hl=en&rclk=1,"19.6798716,78.5261472"
masjid e noor,Mosque,"MG4Q+H92 masjid e noor, Sri Rama Colony, Adilabad, Telangana 504001",Sri Rama Colony,MG4Q+H92,Adilabad,504001,Telangana,IN,https://www.google.com/maps/place/masjid+e+noor/data=!4m7!3m6!1s0x3bd25c6bd009a42f:0x83777eaad70e454d!8m2!3d19.6563983!4d78.5384053!16s%2Fg%2F11c5t1smfj!19sChIJL6QJ0Gtc0jsRTUUO16p-d4M?authuser=0&hl=en&rclk=1,"19.6563983,78.5384053"
Masjid-e-Anas,Mosque,"Masjid-e-Anas, Chennur, Telangana 504201",,,Chennur,,Telangana,IN,https://www.google.com/maps/place/Masjid-e-Anas/data=!4m7!3m6!1s0x3a32eba90c00966d:0xdf13a48769c39ab1!8m2!3d18.8557902!4d79.7921374!16s%2Fg%2F1pv5zg601!19sChIJbZYADKnrMjoRsZrDaYekE98?authuser=0&hl=en&rclk=1,"18.855790199999998,79.7921374"
Masjid-e-hanfia,Mosque,"MGPM+2C4 Masjid-e-hanfia, Kranti Nagar, Gandhi Nagar, Adilabad, Telangana 504001","Kranti Nagar, Gandhi Nagar",MGPM+2C4,Adilabad,504001,Telangana,IN,https://www.google.com/maps/place/Masjid-e-hanfia/data=!4m7!3m6!1s0x3bd25b8fa218f2e1:0x18f2829bdf51eaf4!8m2!3d19.6850231!4d78.5335857!16s%2Fg%2F11dd_qtmkm!19sChIJ4fIYoo9b0jsR9OpR35uC8hg?authuser=0&hl=en&rclk=1,"19.6850231,78.5335857"
Masjid-e-Bakhtawar,Mosque,"Masjid-e-Bakhtawar, Chennur, Telangana 504201",,,Chennur,,Telangana,IN,https://www.google.com/maps/place/Masjid-e-Bakhtawar/data=!4m7!3m6!1s0x3a32ebabc3634da1:0x9871628c748cf414!8m2!3d18.8548409!4d79.7896162!16s%2Fg%2F1ptxr7h2s!19sChIJoU1jw6vrMjoRFPSMdIxicZg?authuser=0&hl=en&rclk=1,"18.8548409,79.7896162"
Masjid E- Nayab Sahab,Mosque,"XHFW+6P5 Masjid E- Nayab Sahab, Railway Gate, Ashalapally Road, Shanthi Nagar, Warangal, Telangana 506002",Shanthi Nagar,"XHFW+6P5, Railway Gate, Ashalapally Road",Warangal,506002,Telangana,IN,https://www.google.com/maps/place/Masjid+E-+Nayab+Sahab/data=!4m7!3m6!1s0x3a33452458a74f95:0xda6a8d15447afa4c!8m2!3d17.9730099!4d79.5968554!16s%2Fg%2F1ptx_vfy8!19sChIJlU-nWCRFMzoRTPp6RBWNato?authuser=0&hl=en&rclk=1,"17.973009899999997,79.5968554"
Khanka E Mohammadi,Mosque,"MGJV+P72 Khanka E Mohammadi, Tirupally, Adilabad, Telangana 504001",Tirupally,MGJV+P72,Adilabad,504001,Telangana,IN,https://www.google.com/maps/place/Khanka+E+Mohammadi/data=!4m7!3m6!1s0x3bd25bd22744411f:0x22b8cbaf2829e2c7!8m2!3d19.6817626!4d78.5431504!16s%2Fg%2F11g1rbmtkk!19sChIJH0FEJ9Jb0jsRx-IpKK_LuCI?authuser=0&hl=en&rclk=1,"19.6817626,78.5431504"
Masjid-E- Rahimaniya,Mosque,"MGRR+5G5 Masjid-E- Rahimaniya, Tirupally, Adilabad, Telangana 504001",Tirupally,MGRR+5G5,Adilabad,504001,Telangana,IN,https://www.google.com/maps/place/Masjid-E-+Rahimaniya/data=!4m7!3m6!1s0x3bd25ba3e27d5519:0x3ff2f3403e845bff!8m2!3d19.6903884!4d78.5413572!16s%2Fg%2F11gmblynz2!19sChIJGVV94qNb0jsR_1uEPkDz8j8?authuser=0&hl=en&rclk=1,"19.6903884,78.5413572"
JAMA masjid Devapur,Mosque,"JF65+PVQ JAMA masjid Devapur, Unnamed Road, Devpur, Telangana 504308",,"JF65+PVQ, Unnamed Road",Devpur,504308,Telangana,IN,https://www.google.com/maps/place/JAMA+masjid+Devapur/data=!4m7!3m6!1s0x3bd24302f69b407f:0x99ca94e9fc151aa!8m2!3d19.6118457!4d78.4597213!16s%2Fg%2F11j2c2qfql!19sChIJf0Cb9gJD0jsRqlHBn06pnAk?authuser=0&hl=en&rclk=1,"19.6118457,78.4597213"
Masjid E Namrah,Mosque,"MGGM+7CV Masjid E Namrah, Ambedkar Chowk, Bhuktapur, Telangana 504001",,"MGGM+7CV, Ambedkar Chowk",Bhuktapur,,Telangana,IN,https://www.google.com/maps/place/Masjid+E+Namrah/data=!4m7!3m6!1s0x3bd25b8829cd21e7:0xb871a2b68c3b292c!8m2!3d19.6757458!4d78.5335363!16s%2Fg%2F11b6v0h3n3!19sChIJ5yHNKYhb0jsRLCk7jLaicbg?authuser=0&hl=en&rclk=1,"19.675745799999998,78.5335363"
Masjid e Jamia Kausar Baswapur,Mosque,"4323+VRP Masjid e Jamia Kausar Baswapur, Baswapur, Basawapuram, Telangana 505473",,4323+VRP,"Baswapur, Basawapuram",,Telangana,IN,https://www.google.com/maps/place/Masjid+e+Jamia+Kausar+Baswapur/data=!4m7!3m6!1s0x3bccbf807622a879:0x308e2f77090849f4!8m2!3d18.1022108!4d79.0545677!16s%2Fg%2F11q8w2xcr2!19sChIJeagidoC_zDsR9EkICXcvjjA?authuser=0&hl=en&rclk=1,"18.102210799999998,79.05456769999999"
Sarware Konain(SAW) Masjid,Mosque,"XJGF+HWM Sarware Konain(SAW) Masjid, Garib Nagar, Shiv Nagar, Warangal, Telangana 506013","Garib Nagar, Shiv Nagar",XJGF+HWM,Warangal,506013,Telangana,IN,https://www.google.com/maps/place/Sarware+Konain%28SAW%29+Masjid/data=!4m7!3m6!1s0x3a3344c12adb12eb:0x6305fdeae8748921!8m2!3d17.9764711!4d79.6248052!16s%2Fg%2F11cpg6c9dt!19sChIJ6xLbKsFEMzoRIYl06Or9BWM?authuser=0&hl=en&rclk=1,"17.976471099999998,79.6248052"
Umar Masjid,Mosque,"MG2H+9J7 Umar Masjid, Pittalwada, Khoja Colony, Adilabad, Telangana 504001","Pittalwada, Khoja Colony",MG2H+9J7,Adilabad,504001,Telangana,IN,https://www.google.com/maps/place/Umar+Masjid/data=!4m7!3m6!1s0x3bd25c5d9e45a7ff:0xd9937a4c4bfe8c53!8m2!3d19.6509166!4d78.5290486!16s%2Fg%2F11fx95lqmp!19sChIJ_6dFnl1c0jsRU4z-S0x6k9k?authuser=0&hl=en&rclk=1,"19.6509166,78.5290486"
MASJID-E-NOORAIN,Mosque,"VCFQ+9FV MASJID-E-NOORAIN, Reddy Colony, Mancherial, Telangana 504208",Reddy Colony,VCFQ+9FV,Mancherial,504208,Telangana,IN,https://www.google.com/maps/place/MASJID-E-NOORAIN/data=!4m7!3m6!1s0x3a32cb27edba3829:0x47d4434a72563692!8m2!3d18.8734981!4d79.4386736!16s%2Fg%2F11ghnfl4km!19sChIJKTi67SfLMjoRkjZWckpD1Ec?authuser=0&hl=en&rclk=1,"18.8734981,79.4386736"
Masjid e Madarsa Amatul Kareem,Mosque,"Masjid e Madarsa Amatul Kareem, Masjid e AmatulKarim, National Institute of Technology Campus, Hanamkonda, Telangana 506004",National Institute of Technology Campus,Masjid e AmatulKarim,Hanamkonda,506004,Telangana,IN,https://www.google.com/maps/place/Masjid+e+Madarsa+Amatul+Kareem/data=!4m7!3m6!1s0x3a334fe8480434c9:0x2d2b44809ca63633!8m2!3d17.9782761!4d79.5275275!16s%2Fg%2F11g1npw4pk!19sChIJyTQESOhPMzoRMzamnIBEKy0?authuser=0&hl=en&rclk=1,"17.9782761,79.52752749999999"
Masjid ul muslimeen ahle hadees janpeer warangal,Mosque,"XJ7H+QPG Masjid ul muslimeen ahle hadees janpeer warangal, jamaat ul muslimeen, Adarsh Nagar, Puppalagutta, Warangal, Telangana 506330","Adarsh Nagar, Puppalagutta",XJ7H+QPG jamaat ul muslimeen,Warangal,506330,Telangana,IN,https://www.google.com/maps/place/Masjid+ul+muslimeen+ahle+hadees+janpeer+warangal/data=!4m7!3m6!1s0x3a33459f620d988d:0x389be766357e8353!8m2!3d17.9644375!4d79.6293281!16s%2Fg%2F11v1bl9gdz!19sChIJjZgNYp9FMzoRU4N-NWbnmzg?authuser=0&hl=en&rclk=1,"17.9644375,79.6293281"
Jama Masjid Ghotkuri,Mosque,"PGM5+G6V Jama Masjid Ghotkuri, Ghotkuri, Telangana 504312",,PGM5+G6V,Ghotkuri,504312,Telangana,IN,https://www.google.com/maps/place/Jama+Masjid+Ghotkuri/data=!4m7!3m6!1s0x3bd25b8331a0a60d:0x41ef8cf68b67feef!8m2!3d19.7338744!4d78.5080623!16s%2Fg%2F11gyyzzys3!19sChIJDaagMYNb0jsR7_5ni_aM70E?authuser=0&hl=en&rclk=1,"19.733874399999998,78.50806229999999"
Masjid-e-Mahboob Khan,Mosque,"XJ44+CQW Masjid-e-Mahboob Khan, Fort Rd, Mathwada, Warangal, Telangana 506002",Mathwada,"XJ44+CQW, Fort Rd",Warangal,506002,Telangana,IN,https://www.google.com/maps/place/Masjid-e-Mahboob+Khan/data=!4m7!3m6!1s0x3a335b2aeb8d8149:0xb5de7df790d360a9!8m2!3d17.9561177!4d79.6069453!16s%2Fg%2F1pp2tx0d8!19sChIJSYGN6ypbMzoRqWDTkPd93rU?authuser=0&hl=en&rclk=1,"17.9561177,79.60694529999999"
Jama Masjid & Madarsa Kanzul Iman,Mosque,"WJJ2+XJ6 Jama Masjid & Madarsa Kanzul Iman, Warangal, Telangana 506005",,WJJ2+XJ6,Warangal,506005,Telangana,IN,https://www.google.com/maps/place/Jama+Masjid+%26+Madarsa+Kanzul+Iman/data=!4m7!3m6!1s0x3a335ae0ec22cf49:0x688e720dda5cb47b!8m2!3d17.9324035!4d79.6015216!16s%2Fg%2F11c604jwcf!19sChIJSc8i7OBaMzoRe7Rc2g1yjmg?authuser=0&hl=en&rclk=1,"17.9324035,79.6015216"
Masjid E IBrahimiya,Mosque,"Masjid E IBrahimiya, Shanti Nagar, Adilabad, Telangana 504001",Shanti Nagar,,Adilabad,504001,Telangana,IN,https://www.google.com/maps/place/Masjid+E+IBrahimiya/data=!4m7!3m6!1s0x3bd25d44b0027dc7:0x5b9c582e308fceb0!8m2!3d19.6688451!4d78.5432386!16s%2Fg%2F11flbsbk92!19sChIJx30CsERd0jsRsM6PMC5YnFs?authuser=0&hl=en&rclk=1,"19.6688451,78.5432386"
MASJID-E-RAHMATULLIL ALAMEEN,Mosque,"2G5V+724 MASJID-E-RAHMATULLIL ALAMEEN, Unnamed Road, Srinagar Colony, Hanamkonda, Telangana 506001",Srinagar Colony,"2G5V+724, Unnamed Road",Hanamkonda,506001,Telangana,IN,https://www.google.com/maps/place/MASJID-E-RAHMATULLIL+ALAMEEN/data=!4m7!3m6!1s0x3a334f75611af131:0xd877f6ff61be4675!8m2!3d18.0081389!4d79.5425667!16s%2Fg%2F11hzsm0375!19sChIJMfEaYXVPMzoRdUa-Yf_2d9g?authuser=0&hl=en&rclk=1,"18.0081389,79.5425667"
Masjid-E-Nawaz,Mosque,"Masjid-E-Nawaz, Shahnoorpura, Urus Jagir, Warangal, Telangana 506005",Urus Jagir,Shahnoorpura,Warangal,506005,Telangana,IN,https://www.google.com/maps/place/Masjid-E-Nawaz/data=!4m7!3m6!1s0x3a335b83db3370c7:0x9bf456f70532a8a!8m2!3d17.9523389!4d79.5957904!16s%2Fg%2F11h1j7xqvw!19sChIJx3Az24NbMzoRiipTcG9Fvwk?authuser=0&hl=en&rclk=1,"17.9523389,79.5957904"
Masjid-e-salmaa punnel,Mosque,"VHCP+PQ2 Masjid-e-salmaa punnel, Punnel, Telangana 506143",,VHCP+PQ2,Punnel,506143,Telangana,IN,https://www.google.com/maps/place/Masjid-e-salmaa+punnel/data=!4m7!3m6!1s0x3a335a23a1ad8ec7:0x2ba6cc6847230158!8m2!3d17.8717675!4d79.5868992!16s%2Fg%2F11gd1pmzk3!19sChIJx46toSNaMzoRWAEjR2jMpis?authuser=0&hl=en&rclk=1,"17.8717675,79.58689919999999"
Masjid e Noorani,Mosque,"MGMQ+P66 Masjid e Noorani, Mahalaxmiwada, Adilabad, Telangana 504001",Mahalaxmiwada,MGMQ+P66,Adilabad,504001,Telangana,IN,https://www.google.com/maps/place/Masjid+e+Noorani/data=!4m7!3m6!1s0x3bd25b71656d7da1:0x9db65c4943296ea6!8m2!3d19.6842802!4d78.5380187!16s%2Fg%2F11gphd3bdg!19sChIJoX1tZXFb0jsRpm4pQ0lctp0?authuser=0&hl=en&rclk=1,"19.6842802,78.5380187"
MASJID - E - WASIL,Mosque,"9Q7C+W9C MASJID - E - WASIL, Utnur, Telangana 504311",,9Q7C+W9C,Utnur,504311,Telangana,IN,https://www.google.com/maps/place/MASJID+-+E+-+WASIL/data=!4m7!3m6!1s0x3bd285b568212b3b:0xd48a9da29da1160e!8m2!3d19.3648093!4d78.7708923!16s%2Fg%2F11g6q_z_ty!19sChIJOyshaLWF0jsRDhahnaKditQ?authuser=0&hl=en&rclk=1,"19.364809299999997,78.7708923"
Nagina Mosque,Mosque,"MGJM+HP5 Nagina Mosque, Tatiguda Colony, Adilabad, Telangana 504001",Tatiguda Colony,MGJM+HP5,Adilabad,504001,Telangana,IN,https://www.google.com/maps/place/Nagina+Mosque/data=!4m7!3m6!1s0x3bd25b4ce49791ef:0x49520374c45c5a0!8m2!3d19.6813908!4d78.5343507!16s%2Fg%2F11h6tjfc17!19sChIJ75GX5Exb0jsRoMVFTDcglQQ?authuser=0&hl=en&rclk=1,"19.6813908,78.53435069999999"
Eid-Gah Adilabad,Mosque,"MGFH+76M Eid-Gah Adilabad, Vidya Nagar, Adilabad, Telangana 504001",Vidya Nagar,MGFH+76M,Adilabad,504001,Telangana,IN,https://www.google.com/maps/place/Eid-Gah+Adilabad/data=!4m7!3m6!1s0x3bd25dc51f70cbab:0xb53df29e2fcc553b!8m2!3d19.6732088!4d78.5280509!16s%2Fg%2F11rd28b2_c!19sChIJq8twH8Vd0jsRO1XML57yPbU?authuser=0&hl=en&rclk=1,"19.673208799999998,78.5280509"
Chennur Eidgah,Mosque,"VQ3J+64P Chennur Eidgah, Chennur, Telangana 504201",,VQ3J+64P,Chennur,504201,Telangana,IN,https://www.google.com/maps/place/Chennur+Eidgah/data=!4m7!3m6!1s0x3a32eb346e2922d1:0x522bc793d3989cc0!8m2!3d18.8530758!4d79.7803149!16s%2Fg%2F11gr41f9d1!19sChIJ0SIpbjTrMjoRwJyY05PHK1I?authuser=0&hl=en&rclk=1,"18.8530758,79.7803149"
"Dargah Hazrat Syed Shah Baba,R.A (GADI)",Mosque,"VQ5V+RW7 Dargah Hazrat Syed Shah Baba,R.A (GADI), Chennur, Telangana 504201",,VQ5V+RW7,Chennur,504201,Telangana,IN,"https://www.google.com/maps/place/Dargah+Hazrat+Syed+Shah+Baba,R.A+%28GADI%29/data=!4m7!3m6!1s0x3a32eb45406c13c1:0x6ceb3a5b566c116e!8m2!3d18.8595385!4d79.7947966!16s%2Fg%2F11h6r2nwsr!19sChIJwRNsQEXrMjoRbhFsVls662w?authuser=0&hl=en&rclk=1","18.8595385,79.7947966"
Masjid-e- Amina,Mosque,"MGFR+G3G Masjid-e- Amina, Brahmanwadi, Adilabad, Telangana 504001",Brahmanwadi,MGFR+G3G,Adilabad,504001,Telangana,IN,https://www.google.com/maps/place/Masjid-e-+Amina/data=!4m7!3m6!1s0x3bd25ddc88f570b9:0x22cb1f0c107c4bc6!8m2!3d19.6738162!4d78.5401916!16s%2Fg%2F11k7xv923r!19sChIJuXD1iNxd0jsRxkt8EAwfyyI?authuser=0&hl=en&rclk=1,"19.673816199999997,78.5401916"
Masjid-E-Aqsa,Mosque,"Masjid-E-Aqsa, Masjid-E-Aqsa Khanapur, Ambedkar Nagar, Khanapur, Telangana 504001",Ambedkar Nagar,Masjid-E-Aqsa Khanapur,Khanapur,504001,Telangana,IN,https://www.google.com/maps/place/Masjid-E-Aqsa/data=!4m7!3m6!1s0x3bd25dcc44670e61:0x730f194bf8b6847d!8m2!3d19.6716338!4d78.5448989!16s%2Fg%2F11j07wlncw!19sChIJYQ5nRMxd0jsRfYS2-EsZD3M?authuser=0&hl=en&rclk=1,"19.6716338,78.54489889999999"
Masjid-E-Zohra,Mosque,"Masjid-E-Zohra, Masjid-E- Zohra, Ambedkar Nagar, Khanapur, Telangana 504001",Ambedkar Nagar,Masjid-E- Zohra,Khanapur,504001,Telangana,IN,https://www.google.com/maps/place/Masjid-E-Zohra/data=!4m7!3m6!1s0x3bd25dbaced23b33:0xe16af2c30b24656!8m2!3d19.6729258!4d78.5447961!16s%2Fg%2F11j000cqb1!19sChIJMzvSzrpd0jsRVkayMCyvFg4?authuser=0&hl=en&rclk=1,"19.672925799999998,78.5447961"
MASJID-E-AQSA,Mosque,"9QCM+6FG MASJID-E-AQSA, Utnur, Telangana 504311",,9QCM+6FG,Utnur,504311,Telangana,IN,https://www.google.com/maps/place/MASJID-E-AQSA/data=!4m7!3m6!1s0x3bd285ae68120e2d:0x511a2112271c67ab!8m2!3d19.3705709!4d78.7836997!16s%2Fg%2F11d_8_t86t!19sChIJLQ4SaK6F0jsRq2ccJxIhGlE?authuser=0&hl=en&rclk=1,"19.3705709,78.7836997"
Masjid-e-Siddique,Mosque,"MG78+GG3 Masjid-e-Siddique, Unnamed Road, Subhash Nagar, Adilabad, Telangana 504001",Subhash Nagar,"MG78+GG3, Unnamed Road",Adilabad,504001,Telangana,IN,https://www.google.com/maps/place/Masjid-e-Siddique/data=!4m7!3m6!1s0x3bd25ddfdb658e8d:0x40be051be107f7ff!8m2!3d19.66377!4d78.516291!16s%2Fg%2F11h6mnz8kz!19sChIJjY5l299d0jsR__cH4RsFvkA?authuser=0&hl=en&rclk=1,"19.66377,78.516291"
MASJID E IBRAHIMIA,Mosque,"MASJID E IBRAHIMIA, 2-5-275/1, tirpally, Adilabad, Telangana 504001",tirpally,2-5-275/1,Adilabad,504001,Telangana,IN,https://www.google.com/maps/place/MASJID+E+IBRAHIMIA/data=!4m7!3m6!1s0x3bd25b8b6628a527:0x550e60c0cd80575a!8m2!3d19.6814941!4d78.5416637!16s%2Fg%2F11f15jwjc0!19sChIJJ6UoZotb0jsRWleAzcBgDlU?authuser=0&hl=en&rclk=1,"19.6814941,78.5416637"
Masjid-e-Hazrat Syedna Ali,Mosque,"Masjid-e-Hazrat Syedna Ali, Tatiguda Colony, Adilabad, Telangana 504001",Tatiguda Colony,,Adilabad,504001,Telangana,IN,https://www.google.com/maps/place/Masjid-e-Hazrat+Syedna+Ali/data=!4m7!3m6!1s0x3bd25b054f1b7477:0xbe5511ba6cbe653a!8m2!3d19.6844778!4d78.5344335!16s%2Fg%2F11h_488z3f!19sChIJd3QbTwVb0jsROmW-bLoRVb4?authuser=0&hl=en&rclk=1,"19.6844778,78.53443349999999"
Osmania Masjid,Mosque,"MGGH+J95 Osmania Masjid, Unnamed Road, Osmania Nagar, Adilabad, Telangana 504001",Osmania Nagar,"MGGH+J95, Unnamed Road",Adilabad,504001,Telangana,IN,https://www.google.com/maps/place/Osmania+Masjid/data=!4m7!3m6!1s0x3bd25be4233f9883:0xb2c0a1b37d2b2191!8m2!3d19.6765118!4d78.5284822!16s%2Fg%2F11h76l8r35!19sChIJg5g_I-Rb0jsRkSErfbOhwLI?authuser=0&hl=en&rclk=1,"19.6765118,78.5284822"
"Madarsa Jamia Kanzul Iman, Tajushariya Colony",Mosque,"Madarsa Jamia Kanzul Iman, Tajushariya Colony, Tajushshariah colony, sathnala road, Adilabad, Telangana 504001",,"Tajushshariah colony, sathnala road",Adilabad,504001,Telangana,IN,"https://www.google.com/maps/place/Madarsa+Jamia+Kanzul+Iman,+Tajushariya+Colony/data=!4m7!3m6!1s0x3bd25bf7e96ee307:0x951a6fc37998f72e!8m2!3d19.6781047!4d78.5569819!16s%2Fg%2F11tsz_q5km!19sChIJB-Nu6fdb0jsRLveYecNvGpU?authuser=0&hl=en&rclk=1","19.6781047,78.5569819"
Masjid-E-Mohammediya Qadriya,Mosque,"RQXV+PFX Masjid-E-Mohammediya Qadriya, Indranagar, Chennur, Telangana 504201",Indranagar,RQXV+PFX,Chennur,504201,Telangana,IN,https://www.google.com/maps/place/Masjid-E-Mohammediya+Qadriya/data=!4m7!3m6!1s0x3a32ebde9850dce3:0x83824848ff621cc1!8m2!3d18.849373!4d79.7937199!16s%2Fg%2F11g0gppcnj!19sChIJ49xQmN7rMjoRwRxi_0hIgoM?authuser=0&hl=en&rclk=1,"18.849373,79.7937199"
Jama Masjid,Mosque,"MH8H+G5R Jama Masjid, Bangariguda, Telangana 504001",,MH8H+G5R,Bangariguda,504001,Telangana,IN,https://www.google.com/maps/place/Jama+Masjid/data=!4m7!3m6!1s0x3bd25ebaa488962f:0x7c9c4576ec3277f6!8m2!3d19.6663678!4d78.5778967!16s%2Fg%2F11bxfjsvl4!19sChIJL5aIpLpe0jsR9ncy7HZFnHw?authuser=0&hl=en&rclk=1,"19.6663678,78.5778967"
Jama masjid,Mosque,"MC8G+7J9 Jama masjid, Unnamed Road, Umadam, Telangana 504001",,"MC8G+7J9, Unnamed Road",Umadam,504001,Telangana,IN,https://www.google.com/maps/place/Jama+masjid/data=!4m7!3m6!1s0x3bd2438922bc7361:0x90f6ce9e5e66ddca!8m2!3d19.6656543!4d78.426601!16s%2Fg%2F11qsvy6d57!19sChIJYXO8IolD0jsRyt1mXp7O9pA?authuser=0&hl=en&rclk=1,"19.6656543,78.42660099999999"
"Dargah Hazrat Syed Meer Anwar Ali Shah Baba, R.A,",Mosque,"VQ3Q+CRF Dargah Hazrat Syed Meer Anwar Ali Shah Baba, R.A,, Chennur, Telangana 504201",,VQ3Q+CRF,Chennur,504201,Telangana,IN,"https://www.google.com/maps/place/Dargah+Hazrat+Syed+Meer+Anwar+Ali+Shah+Baba,+R.A,/data=!4m7!3m6!1s0x3a32ebec0e3164a9:0xfd7c4c0a32d7ff90!8m2!3d18.853568!4d79.7895399!16s%2Fg%2F11h7607fr7!19sChIJqWQxDuzrMjoRkP_XMgpMfP0?authuser=0&hl=en&rclk=1","18.853568,79.7895399"
Masjid e Afsana,Mosque,"JGRP+7WM Masjid e Afsana, KRK Rd, KRK Colony, Khoja Colony, Adilabad, Telangana 504001","KRK Colony, Khoja Colony","JGRP+7WM, KRK Rd",Adilabad,504001,Telangana,IN,https://www.google.com/maps/place/Masjid+e+Afsana/data=!4m7!3m6!1s0x3bd25d5d2e428473:0xd94d955bdaa63bd4!8m2!3d19.6407052!4d78.5372911!16s%2Fg%2F11t4wlk9cp!19sChIJc4RCLl1d0jsR1Dum2luVTdk?authuser=0&hl=en&rclk=1,"19.6407052,78.53729109999999"
Masjid E Hamza Ramnagar Adilabad,Mosque,"MG4C+F8M Masjid E Hamza Ramnagar Adilabad, Ramnagar Colony, Adilabad, Telangana 504001",Ramnagar Colony,MG4C+F8M,Adilabad,504001,Telangana,IN,https://www.google.com/maps/place/Masjid+E+Hamza+Ramnagar+Adilabad/data=!4m7!3m6!1s0x3bd25d6d632224ef:0xc12bfcc836f7600c!8m2!3d19.6562608!4d78.5213636!16s%2Fg%2F11r_w2kkk1!19sChIJ7yQiY21d0jsRDGD3Nsj8K8E?authuser=0&hl=en&rclk=1,"19.6562608,78.5213636"
Masjid Waddadi,Mosque,"MFQ2+97H Masjid Waddadi, Waddadi, Telangana 504312",,MFQ2+97H,Waddadi,504312,Telangana,IN,https://www.google.com/maps/place/Masjid+Waddadi/data=!4m7!3m6!1s0x3bd24570a42893d9:0xa7a2fcdf69505a5c!8m2!3d19.6884309!4d78.4507428!16s%2Fg%2F11fk0ptcc4!19sChIJ2ZMopHBF0jsRXFpQad_8oqc?authuser=0&hl=en&rclk=1,"19.6884309,78.4507428"
Masjid,Mosque,"WG3W+V85 Masjid, Mulukalagudem, Telangana 506003",,WG3W+V85,Mulukalagudem,506003,Telangana,IN,https://www.google.com/maps/place/Masjid/data=!4m7!3m6!1s0x3a33516e96ba8011:0x4421eef78b804261!8m2!3d17.904643!4d79.545862!16s%2Fg%2F11n5j54f8z!19sChIJEYC6lm5RMzoRYUKAi_fuIUQ?authuser=0&hl=en&rclk=1,"17.904643,79.545862"
Huseen nagar Masjid Aseef bhai,Mosque,"22QH+PJX Huseen nagar Masjid Aseef bhai, Medak, Telangana 502280",,22QH+PJX,Medak,502280,Telangana,IN,https://www.google.com/maps/place/Huseen+nagar+Masjid+Aseef+bhai/data=!4m7!3m6!1s0x3bccbfa3e8a90b3b:0x154e9021145792fd!8m2!3d18.0393628!4d79.0291157!16s%2Fg%2F11rtx1wsc9!19sChIJOwup6KO_zDsR_ZJXFCGQThU?authuser=0&hl=en&rclk=1,"18.0393628,79.02911569999999"
Makka Masjid sr nagar,Mosque,"XJMC+282 Makka Masjid sr nagar, Sathenapalli, Warangal, Telangana 506002",Sathenapalli,XJMC+282,Warangal,506002,Telangana,IN,https://www.google.com/maps/place/Makka+Masjid+sr+nagar/data=!4m7!3m6!1s0x3a3345d70dc01d4f:0x9e541edd24841e19!8m2!3d17.9825175!4d79.620755!16s%2Fg%2F11s3vssdy5!19sChIJTx3ADddFMzoRGR6EJN0eVJ4?authuser=0&hl=en&rclk=1,"17.9825175,79.620755"
Masjid & Madarsa,Mosque,"XG5P+7GV Masjid & Madarsa, Kothapalle H, Telangana 506003",,XG5P+7GV,Kothapalle H,,Telangana,IN,https://www.google.com/maps/place/Masjid+%26+Madarsa/data=!4m7!3m6!1s0x3a334f91e65441d1:0x53f36e45582308b9!8m2!3d17.9582464!4d79.5363112!16s%2Fg%2F11j02bl6nx!19sChIJ0UFU5pFPMzoRuQgjWEVu81M?authuser=0&hl=en&rclk=1,"17.9582464,79.5363112"
Masjid-E-Kausar,Mosque,"MG8Q+6M8 Masjid-E-Kausar, Shanti Nagar, Adilabad, Telangana 504001",Shanti Nagar,MG8Q+6M8,Adilabad,504001,Telangana,IN,https://www.google.com/maps/place/Masjid-E-Kausar/data=!4m7!3m6!1s0x3bd25c726cbfffff:0xdcc8a30755b4260c!8m2!3d19.6655322!4d78.5391992!16s%2Fg%2F11txmzh9h_!19sChIJ__-_bHJc0jsRDCa0VQejyNw?authuser=0&hl=en&rclk=1,"19.665532199999998,78.5391992"
Masjid-E-ibraheem bin abbas,Mosque,"MGGX+2JV Masjid-E-ibraheem bin abbas, Ambedkar Nagar, Adilabad, Telangana 504001",Ambedkar Nagar,MGGX+2JV,Adilabad,504001,Telangana,IN,https://www.google.com/maps/place/Masjid-E-ibraheem+bin+abbas/data=!4m7!3m6!1s0x3bd25dca817e57db:0x80929612f281e68c!8m2!3d19.6751132!4d78.5490388!16s%2Fg%2F11jz2dzlg7!19sChIJ21d-gcpd0jsRjOaB8hKWkoA?authuser=0&hl=en&rclk=1,"19.6751132,78.54903879999999"
Makkah Masjid,Mosque,"JGVP+75 Makkah Masjid, Khoja Colony, Adilabad, Telangana 504001",Khoja Colony,JGVP+75,Adilabad,504001,Telangana,IN,https://www.google.com/maps/place/Makkah+Masjid/data=!4m7!3m6!1s0x3bd25d02ee832577:0x98776ac946be5479!8m2!3d19.6431637!4d78.5353692!16s%2Fg%2F11r_wlfhm2!19sChIJdyWD7gJd0jsReVS-Rslqd5g?authuser=0&hl=en&rclk=1,"19.6431637,78.53536919999999"
Chilla Mubarak Gouse e Azam,Mosque,"VQ4W+X4G Chilla Mubarak Gouse e Azam, Chennur, Telangana 504201",,VQ4W+X4G,Chennur,504201,Telangana,IN,https://www.google.com/maps/place/Chilla+Mubarak+Gouse+e+Azam/data=!4m7!3m6!1s0x3a32eb21ab958ad5:0x3ae6b59a4b6f5e6f!8m2!3d18.8574495!4d79.7953405!16s%2Fg%2F11h6gc2ps0!19sChIJ1YqVqyHrMjoRb15vS5q15jo?authuser=0&hl=en&rclk=1,"18.857449499999998,79.7953405"
MASJID E KOOH E AFZAL BIABANI,Mosque,"XGF9+V4H MASJID E KOOH E AFZAL BIABANI, Kazipet, Telangana 506003",,XGF9+V4H,Kazipet,506003,Telangana,IN,https://www.google.com/maps/place/MASJID+E+KOOH+E+AFZAL+BIABANI/data=!4m7!3m6!1s0x3a334f1810512a71:0xdd592afef0438d0c!8m2!3d17.9746967!4d79.5178527!16s%2Fg%2F11vd78md0r!19sChIJcSpREBhPMzoRDI1D8P4qWd0?authuser=0&hl=en&rclk=1,"17.9746967,79.51785269999999"
Shahid ashfakullah khan chauk mominabad,Mosque,"XHPX+6CX Shahid ashfakullah khan chauk mominabad, Mandi Bazar, mominabad, ambajogai, Warangal, Telangana 506002","Mandi Bazar, mominabad",XHPX+6CX,"ambajogai, Warangal",,Telangana,IN,https://www.google.com/maps/place/Shahid+ashfakullah+khan+chauk+mominabad/data=!4m7!3m6!1s0x3a3345e143539a4d:0x456792527597511c!8m2!3d17.9856077!4d79.5986184!16s%2Fg%2F11t88xn8pr!19sChIJTZpTQ-FFMzoRHFGXdVKSZ0U?authuser=0&hl=en&rclk=1,"17.9856077,79.59861839999999"
Masjid e Meena,Mosque,"MGP9+8H Masjid e Meena, Gandi Nagar, Gandhi Nagar, Adilabad, Telangana 504001","Gandi Nagar, Gandhi Nagar",MGP9+8H,Adilabad,504001,Telangana,IN,https://www.google.com/maps/place/Masjid+e+Meena/data=!4m7!3m6!1s0x3bd25b2d5ed8222d:0x771014856dfdca9c!8m2!3d19.685762!4d78.5189931!16s%2Fg%2F11tw_8y348!19sChIJLSLYXi1b0jsRnMr9bYUUEHc?authuser=0&hl=en&rclk=1,"19.685762,78.5189931"
Masjid-e-afreen,Mosque,"MGGF+4FV Masjid-e-afreen, khursheed Nagar, Adilabad, Telangana 504001",khursheed Nagar,MGGF+4FV,Adilabad,504001,Telangana,IN,https://www.google.com/maps/place/Masjid-e-afreen/data=!4m7!3m6!1s0x3bd25b038e0e96e3:0x1f892d183a40c1ab!8m2!3d19.6753577!4d78.5236845!16s%2Fg%2F11nn1rkr2z!19sChIJ45YOjgNb0jsRq8FAOhgtiR8?authuser=0&hl=en&rclk=1,"19.6753577,78.5236845"
Masjid e Abu Hurera,Mosque,"MG3R+8F Masjid e Abu Hurera, Adilabad, Telangana 504001",,MG3R+8F,Adilabad,,Telangana,IN,https://www.google.com/maps/place/Masjid+e+Abu+Hurera/data=!4m7!3m6!1s0x3bd25d2ea7388ce5:0x955ec3718d1b00a1!8m2!3d19.6532544!4d78.5411588!16s%2Fg%2F11twgyhbqr!19sChIJ5Yw4py5d0jsRoQAbjXHDXpU?authuser=0&hl=en&rclk=1,"19.653254399999998,78.54115879999999"
masjid,Mosque,"MGFX+R5C masjid, Ambedkar Nagar, Adilabad, Telangana 504001",Ambedkar Nagar,MGFX+R5C,Adilabad,504001,Telangana,IN,https://www.google.com/maps/place/masjid/data=!4m7!3m6!1s0x3bd25dea5bc85cff:0xa139fac0fe5bfbe8!8m2!3d19.6750538!4d78.549016!16s%2Fg%2F11tg1ql3mw!19sChIJ_1zIW-pd0jsR6Ptb_sD6OaE?authuser=0&hl=en&rclk=1,"19.6750538,78.549016"
Mecca masjid,Mosque,"MGP8+9W4 Mecca masjid, Ranadive Nagar, Adilabad, Telangana 504001",Ranadive Nagar,MGP8+9W4,Adilabad,504001,Telangana,IN,https://www.google.com/maps/place/Mecca+masjid/data=!4m7!3m6!1s0x3bd25bb7b3fb23e1:0x87b034458c3a1168!8m2!3d19.6862525!4d78.5171874!16s%2Fg%2F11stb2lqs3!19sChIJ4SP7s7db0jsRaBE6jEU0sIc?authuser=0&hl=en&rclk=1,"19.6862525,78.5171874"
KHANKHA E MOHAMMADI ADILABAD,Mosque,"MG7H+84G KHANKHA E MOHAMMADI ADILABAD, Adilabad Main Rd, Satnala Quarters, chaitanyapuri, Adilabad, Telangana 504001","Satnala Quarters, chaitanyapuri","MG7H+84G, Adilabad Main Rd",Adilabad,504001,Telangana,IN,https://www.google.com/maps/place/KHANKHA+E+MOHAMMADI+ADILABAD/data=!4m7!3m6!1s0x3bd25d7de627a569:0x4868af4429eca682!8m2!3d19.6633136!4d78.5278399!16s%2Fg%2F11nxrkqmlw!19sChIJaaUn5n1d0jsRgqbsKUSvaEg?authuser=0&hl=en&rclk=1,"19.6633136,78.52783989999999"
Masjid-E-Ayesha,Mosque,"MGCQ+XRX Masjid-E-Ayesha, Brahmanwadi, Adilabad, Telangana 504001",Brahmanwadi,MGCQ+XRX,Adilabad,504001,Telangana,IN,https://www.google.com/maps/place/Masjid-E-Ayesha/data=!4m7!3m6!1s0x3bd25c7445a55555:0xe3f8a99466fc71ef!8m2!3d19.6724753!4d78.5395986!16s%2Fg%2F11sscsfbvt!19sChIJVVWlRXRc0jsR73H8ZpSp-OM?authuser=0&hl=en&rclk=1,"19.6724753,78.53959859999999"
Chennur kabrasthan,Mosque,"VQ4R+FW8 Chennur kabrasthan, Chennur, Telangana 504201",,VQ4R+FW8,Chennur,504201,Telangana,IN,https://www.google.com/maps/place/Chennur+kabrasthan/data=!4m7!3m6!1s0x3a32eba0a7c7ff67:0xe404c258bc15105d!8m2!3d18.8561847!4d79.7923442!16s%2Fg%2F11pzmp4fjp!19sChIJZ__Hp6DrMjoRXRAVvFjCBOQ?authuser=0&hl=en&rclk=1,"18.8561847,79.7923442"
Masjie e qadriya rizviya,Mosque,"MGG9+F74 Masjie e qadriya rizviya, Sundaraiah Nagar, khursheed Nagar, Adilabad, Telangana 504001","Sundaraiah Nagar, khursheed Nagar",MGG9+F74,Adilabad,504001,Telangana,IN,https://www.google.com/maps/place/Masjie+e+qadriya+rizviya/data=!4m7!3m6!1s0x3bd25be0522f7487:0xdb13d5620f1365f0!8m2!3d19.676138!4d78.5182022!16s%2Fg%2F11ht41v1ck!19sChIJh3QvUuBb0jsR8GUTD2LVE9s?authuser=0&hl=en&rclk=1,"19.676137999999998,78.51820219999999"
Sudarah Nagar Patan kirana Feroza khan,Mosque,"Sudarah Nagar Patan kirana Feroza khan, Masjid e durdana, Sundaraiah Nagar, khursheed Nagar, Adilabad, Telangana 504001","Sundaraiah Nagar, khursheed Nagar",Masjid e durdana,Adilabad,,Telangana,IN,https://www.google.com/maps/place/Sudarah+Nagar+Patan+kirana+Feroza+khan/data=!4m7!3m6!1s0x3bd25bdb37aefa07:0x2a1a0c954e06593f!8m2!3d19.6769183!4d78.5171223!16s%2Fg%2F11s8_g6_vk!19sChIJB_quN9tb0jsRP1kGTpUMGio?authuser=0&hl=en&rclk=1,"19.6769183,78.5171223"
Jama masjid,Mosque,"JH4C+4PC Jama masjid, Unnamed Road, Ankoli, Telangana 504001",,"JH4C+4PC, Unnamed Road",Ankoli,504001,Telangana,IN,https://www.google.com/maps/place/Jama+masjid/data=!4m7!3m6!1s0x3bd25fc7d4192163:0xfea41342f3369d98!8m2!3d19.6053134!4d78.5717622!16s%2Fg%2F11rxymlw57!19sChIJYyEZ1Mdf0jsRmJ0280ITpP4?authuser=0&hl=en&rclk=1,"19.6053134,78.5717622"
Masjide Mera,Mosque,"Masjide Mera, Police line, Old Housing Board Colony, Ravindra Nagar Colony, Adilabad, Telangana 504001","Old Housing Board Colony, Ravindra Nagar Colony",Police line,Adilabad,,Telangana,IN,https://www.google.com/maps/place/Masjide+Mera/data=!4m7!3m6!1s0x3bd25d4f276d7737:0xfba7d6c285a2493a!8m2!3d19.6640624!4d78.5320107!16s%2Fg%2F11jt228q6b!19sChIJN3dtJ09d0jsROkmihcLWp_s?authuser=0&hl=en&rclk=1,"19.6640624,78.5320107"
Moulana feroz khan,Mosque,"MJ3G+CQ Moulana feroz khan, Khoja Colony, Ramai, Adilabad, Telangana 504001",Khoja Colony,MJ3G+CQ,"Ramai, Adilabad",,Telangana,IN,https://www.google.com/maps/place/Moulana+feroz+khan/data=!4m7!3m6!1s0x3bd25dd4b09ad475:0x3afbebe3f84f5e37!8m2!3d19.6435498!4d78.5406584!16s%2Fg%2F11jyld9kx6!19sChIJddSasNRd0jsRN15P-OPr-zo?authuser=0&hl=en&rclk=1,"19.6435498,78.5406584"
Baba Shadullah Dargah,Mosque,"JGVM+X4J Baba Shadullah Dargah, KRK Colony, Khoja Colony, Adilabad, Telangana 504001","KRK Colony, Khoja Colony",JGVM+X4J,Adilabad,504001,Telangana,IN,https://www.google.com/maps/place/Baba+Shadullah+Dargah/data=!4m7!3m6!1s0x3bd25dde609dddf1:0xb10548e403faacef!8m2!3d19.6449191!4d78.5327293!16s%2Fg%2F11kpt652yk!19sChIJ8d2dYN5d0jsR76z6A-RIBbE?authuser=0&hl=en&rclk=1,"19.6449191,78.5327293"
Nirmal,Mosque,"MG7J+FM7 Nirmal, Ravindra Nagar Colony, Nirmal, Adilabad, Telangana 504001",Ravindra Nagar Colony,MG7J+FM7,"Nirmal, Adilabad",,Telangana,IN,https://www.google.com/maps/place/Nirmal/data=!4m7!3m6!1s0x3bd25d0be6d4dcc7:0x851c659ed80ab906!8m2!3d19.6636686!4d78.5316792!16s%2Fg%2F11vcm4jw2n!19sChIJx9zU5gtd0jsRBrkK2J5lHIU?authuser=0&hl=en&rclk=1,"19.663668599999998,78.5316792"
DARUL ULOOM HUSSAINIA ARABIC RESIDENTIAL SCHOOL,Mosque,"DARUL ULOOM HUSSAINIA ARABIC RESIDENTIAL SCHOOL, e Ibrahim, Road, New Housing Board 4th Zone, Wadi, Adilabad, Telangana 504001","New Housing Board 4th Zone, Wadi","e Ibrahim, Road",Adilabad,504001,Telangana,IN,https://www.google.com/maps/place/DARUL+ULOOM+HUSSAINIA+ARABIC+RESIDENTIAL+SCHOOL/data=!4m7!3m6!1s0x3bd25d078c55b7e3:0x84991b5134a69ea3!8m2!3d19.6585896!4d78.5114721!16s%2Fg%2F11t2c1_7d8!19sChIJ47dVjAdd0jsRo56mNFEbmYQ?authuser=0&hl=en&rclk=1,"19.6585896,78.51147209999999"
Aamena masjid,Mosque,"JGX6+87J Aamena masjid, Dasnapur, Adilabad, Bhattisavargaon, Telangana 504001",Dasnapur,JGX6+87J,"Adilabad, Bhattisavargaon",504001,Telangana,IN,https://www.google.com/maps/place/Aamena+masjid/data=!4m7!3m6!1s0x3bd25d2e87707821:0x7a8dc8944d703c82!8m2!3d19.6483397!4d78.5106279!16s%2Fg%2F11tgg9_s_q!19sChIJIXhwhy5d0jsRgjxwTZTIjXo?authuser=0&hl=en&rclk=1,"19.648339699999998,78.5106279"
Madarsa Khadijatul Kubra Lil Bannat,Mosque,"MGG9+GCV Madarsa Khadijatul Kubra Lil Bannat, Sundaraiah Nagar, khursheed Nagar, Adilabad, Telangana 504001","Sundaraiah Nagar, khursheed Nagar",MGG9+GCV,Adilabad,504001,Telangana,IN,https://www.google.com/maps/place/Madarsa+Khadijatul+Kubra+Lil+Bannat/data=!4m7!3m6!1s0x3bd25b201ee5067f:0x80545817c42b082e!8m2!3d19.6759908!4d78.5188593!16s%2Fg%2F11t7pd0mjz!19sChIJfwblHiBb0jsRLggrxBdYVIA?authuser=0&hl=en&rclk=1,"19.675990799999997,78.5188593"
SYED ASAD,Mosque,"VQ2V+6FJ SYED ASAD, Indranagar, Chennur, Telangana 504201",Indranagar,VQ2V+6FJ,Chennur,504201,Telangana,IN,https://www.google.com/maps/place/SYED+ASAD/data=!4m7!3m6!1s0x3a32eb1eae76e5b3:0xb5aa5071272715ee!8m2!3d18.8505943!4d79.7936422!16s%2Fg%2F11vj31rz5x!19sChIJs-V2rh7rMjoR7hUnJ3FQqrU?authuser=0&hl=en&rclk=1,"18.8505943,79.7936422"
Madarsa Imdadul uloom,Mosque,"MHH3+X3 Madarsa Imdadul uloom, Adilabad, Telangana 504001",,MHH3+X3,Adilabad,,Telangana,IN,https://www.google.com/maps/place/Madarsa+Imdadul+uloom/data=!4m7!3m6!1s0x3bd25b469a2a59b5:0x398d9511bd9f4f1!8m2!3d19.6798862!4d78.5526843!16s%2Fg%2F11s4t771x_!19sChIJtVkqmkZb0jsR8fTZG1HZmAM?authuser=0&hl=en&rclk=1,"19.6798862,78.5526843"
Masjid e Gadi,Mosque,"Masjid e Gadi, 6-5 31, Machili Bazar Rd, Machili Bazar, Brahmanawada, Hanamkonda, Telangana 506011","Machili Bazar, Brahmanawada","6-5 31, Machili Bazar Rd",Hanamkonda,506011,Telangana,IN,https://www.google.com/maps/place/Masjid+e+Gadi/data=!4m7!3m6!1s0x3a33458e931644d5:0x32e165732e9fd85!8m2!3d18.0021028!4d79.5740055!16s%2Fg%2F11rgb77zx3!19sChIJ1UQWk45FMzoRhf3pMlcWLgM?authuser=0&hl=en&rclk=1,"18.0021028,79.5740055"
Madina Masjid,Mosque,"5448+XPW Madina Masjid, Koheda, Telangana 505473",,5448+XPW,Koheda,505473,Telangana,IN,https://www.google.com/maps/place/Madina+Masjid/data=!4m7!3m6!1s0x3bccc7ac0bac0897:0xf1485097e441d818!8m2!3d18.1574823!4d79.1168249!16s%2Fg%2F11kpk83h2y!19sChIJlwisC6zHzDsRGNhB5JdQSPE?authuser=0&hl=en&rclk=1,"18.157482299999998,79.1168249"
Aalamgeer masjid,Mosque,"WHF9+HX5 Aalamgeer masjid, Thimmapur, Telangana 506005",,WHF9+HX5,Thimmapur,506005,Telangana,IN,https://www.google.com/maps/place/Aalamgeer+masjid/data=!4m7!3m6!1s0x3a335a9a5faa6be1:0xd75baacc779132d4!8m2!3d17.9238833!4d79.5699944!16s%2Fg%2F11clt6bwmd!19sChIJ4WuqX5paMzoR1DKRd8yqW9c?authuser=0&hl=en&rclk=1,"17.9238833,79.5699944"
