name,main_category,address,address_ward,address_street,address_city,address_postal_code,address_state,address_country_code,link,coordinates
MAKKA MASJID,Mosque,"MAKKA MASJID, Atarsua, Pakri Bangali, Bihar 841227",,,"Atarsua, Pakri Bangali",841227,Bihar,IN,https://www.google.com/maps/place/MAKKA+MASJID/data=!4m7!3m6!1s0x3992fd0f599467f3:0x803fff8bf411a289!8m2!3d26.2241259!4d84.3819539!16s%2Fg%2F11gycdt8wl!19sChIJ82eUWQ_9kjkRiaIR9Iv_P4A?authuser=0&hl=en&rclk=1,"26.224125899999997,84.3819539"
PARLOUR HOUSE NEAR BARI MASZID CHOWK BAZAR GOPAL MARKET SIWAN,Cosmetics store,"PARLOUR HOUSE NEAR BARI MASZID CHOWK BAZAR GOPAL MARKET SIWAN, near BARI MASZID, Chowk Bazar, GOPAL MARKET, Siwan, Bihar 841226","Chowk Bazar, GOPAL MARKET",near BARI MASZID,Siwan,841226,Bihar,IN,https://www.google.com/maps/place/PARLOUR+HOUSE+NEAR+BARI+MASZID+CHOWK+BAZAR+GOPAL+MARKET+SIWAN/data=!4m7!3m6!1s0x3992fc03c23edab5:0xd16668dcbb5edcaf!8m2!3d26.2213956!4d84.3580246!16s%2Fg%2F1tmqdmh7!19sChIJtdo-wgP8kjkRr9xeu9xoZtE?authuser=0&hl=en&rclk=1,"26.221395599999997,84.3580246"
Durbar Masjid,Mosque,"69F5+VR4 Durbar Masjid, Patna - Parsa - Siwan Hwy, Naya Bazar, Babhnauli, Siwan, Bihar 841226","Naya Bazar, Babhnauli","69F5+VR4, Patna - Parsa - Siwan Hwy",Siwan,841226,Bihar,IN,https://www.google.com/maps/place/Durbar+Masjid/data=!4m7!3m6!1s0x3992fc0361aa5cf5:0x6836357d3df55618!8m2!3d26.2246286!4d84.3595656!16s%2Fg%2F11d_78dmmr!19sChIJ9VyqYQP8kjkRGFb1PX01Nmg?authuser=0&hl=en&rclk=1,"26.2246286,84.3595656"
Purana Quilla Jama Masjid,Mosque,"6986+54P Purana Quilla Jama Masjid, Babunia Rd, Purana Quilla, Kagzi Muhalla, Siwan, Bihar 841226","Purana Quilla, Kagzi Muhalla","6986+54P, Babunia Rd",Siwan,841226,Bihar,IN,https://www.google.com/maps/place/Purana+Quilla+Jama+Masjid/data=!4m7!3m6!1s0x3992fc07437be113:0xf364cc8d55e1c827!8m2!3d26.2154547!4d84.3603354!16s%2Fg%2F1hf3p2h19!19sChIJE-F7Qwf8kjkRJ8jhVY3MZPM?authuser=0&hl=en&rclk=1,"26.2154547,84.3603354"
Pratappur Masjid,Mosque,"58VF+CC4 Pratappur Masjid, Pratappur Rd, Partappur, Bihar 841226",,"58VF+CC4, Pratappur Rd",Partappur,841226,Bihar,IN,https://www.google.com/maps/place/Pratappur+Masjid/data=!4m7!3m6!1s0x3992f93d1fc43edd:0x11b310b1a7267174!8m2!3d26.1926208!4d84.3241135!16s%2Fg%2F1hf5_fz47!19sChIJ3T7EHz35kjkRdHEmp7EQsxE?authuser=0&hl=en&rclk=1,"26.1926208,84.3241135"
Sirajul Uloom Masjid,Mosque,"69C5+7RF Sirajul Uloom Masjid, Telhatta Bazaar Rd, Telhatta Bazar, Siwan, Bihar 841226",Telhatta Bazar,"69C5+7RF, Telhatta Bazaar Rd",Siwan,841226,Bihar,IN,https://www.google.com/maps/place/Sirajul+Uloom+Masjid/data=!4m7!3m6!1s0x3992fc0400e94bfd:0x125811881745a5bd!8m2!3d26.2206998!4d84.3595437!16s%2Fg%2F1hf3jnllz!19sChIJ_UvpAAT8kjkRvaVFF4gRWBI?authuser=0&hl=en&rclk=1,"26.2206998,84.3595437"
Gyarahvin Masjid,Mosque,"6995+9RQ Gyarahvin Masjid, Sheikh Muhalla, Siwan, Bihar 841226",Sheikh Muhalla,6995+9RQ,Siwan,841226,Bihar,IN,https://www.google.com/maps/place/Gyarahvin+Masjid/data=!4m7!3m6!1s0x3992fc06cc4ce115:0xb80e9fd4640e2d50!8m2!3d26.2184507!4d84.3596017!16s%2Fg%2F1hf32yqwc!19sChIJFeFMzAb8kjkRUC0OZNSfDrg?authuser=0&hl=en&rclk=1,"26.218450699999998,84.3596017"
Belal Masjid,Mosque,"6968+3JG Belal Masjid, M M Colony, Siswan Tola, Siwan, Bihar 841226","M M Colony, Siswan Tola",6968+3JG,Siwan,841226,Bihar,IN,https://www.google.com/maps/place/Belal+Masjid/data=!4m7!3m6!1s0x3992fbf74170b30f:0x7adda0c797a39c8c!8m2!3d26.2101999!4d84.3665932!16s%2Fg%2F11cntqzc0x!19sChIJD7NwQff7kjkRjJyjl8eg3Xo?authuser=0&hl=en&rclk=1,"26.2101999,84.3665932"
Masjid e Mohammadi,Mosque,"6969+V4C Masjid e Mohammadi, M.m Colony, Siswan Tola, Siwan, Bihar 841226","M.m Colony, Siswan Tola",6969+V4C,Siwan,841226,Bihar,IN,https://www.google.com/maps/place/Masjid+e+Mohammadi/data=!4m7!3m6!1s0x3992fbf655fe7c59:0x227dc512c54f5d37!8m2!3d26.212177!4d84.367753!16s%2Fg%2F11g65c164d!19sChIJWXz-Vfb7kjkRN11PxRLFfSI?authuser=0&hl=en&rclk=1,"26.212177,84.367753"
Ahle Hadees Masjid Siwan,Mosque,"Ahle Hadees Masjid Siwan, Shukla Toli, Kagzi Muhalla, Siwan, Bihar 841226","Shukla Toli, Kagzi Muhalla",,Siwan,841226,Bihar,IN,https://www.google.com/maps/place/Ahle+Hadees+Masjid+Siwan/data=!4m7!3m6!1s0x3992fc072bd5649f:0x6d4e97811cce330!8m2!3d26.2172374!4d84.3597399!16s%2Fg%2F11g7zvrzcq!19sChIJn2TVKwf8kjkRMOPMEXjp1AY?authuser=0&hl=en&rclk=1,"26.2172374,84.3597399"
Hakam Masjid,Mosque,"69W7+F5M Hakam Masjid, Hakam, Siwan, Tanrwa, Bihar 841227",,69W7+F5M Hakam,"Siwan, Tanrwa",841227,Bihar,IN,https://www.google.com/maps/place/Hakam+Masjid/data=!4m7!3m6!1s0x3992fc24ee563205:0xfd252756f21759e!8m2!3d26.2462196!4d84.3629188!16s%2Fg%2F11b66cbv_h!19sChIJBTJW7iT8kjkRnnUhb3VS0g8?authuser=0&hl=en&rclk=1,"26.2462196,84.3629188"
Chakiya Masjid,Mosque,"69P8+PP Chakiya Masjid, ward-18,bendusar buzurg, Chakia Rd, Hardia Village, Takiya, Mahadeva, Siwan, Bihar 841227","Ward Number 18, Hardia Village, Takiya, Mahadeva","69P8+PP, ward-18,bendusar buzurg, Chakia Rd",Siwan,841227,Bihar,IN,https://www.google.com/maps/place/Chakiya+Masjid/data=!4m7!3m6!1s0x3992fc17a7f2d1ab:0x24f18cf160abbec6!8m2!3d26.235446!4d84.3665631!16s%2Fg%2F11fylqm8tz!19sChIJq9Hypxf8kjkRxr6rYPGM8SQ?authuser=0&hl=en&rclk=1,"26.235446,84.3665631"
Naya Quilla Masjid,Mosque,"69C3+F8G Naya Quilla Masjid, Naya Quilla, Siwan, Bihar 841226",Naya Quilla,69C3+F8G,Siwan,841226,Bihar,IN,https://www.google.com/maps/place/Naya+Quilla+Masjid/data=!4m7!3m6!1s0x3992fea985ba3d15:0x1b81e5a73d953f6b!8m2!3d26.2211778!4d84.3533207!16s%2Fg%2F1hdzy_8rv!19sChIJFT26han-kjkRaz-VPaflgRs?authuser=0&hl=en&rclk=1,"26.2211778,84.3533207"
Jiyay Jama Masjid,Mosque,"68RR+FP4 Jiyay Jama Masjid, Jiyaen, Bihar 841227",,68RR+FP4,Jiyaen,,Bihar,IN,https://www.google.com/maps/place/Jiyay+Jama+Masjid/data=!4m7!3m6!1s0x3992fe9710251ea9:0xc77155b0a34f0abe!8m2!3d26.2411434!4d84.3418301!16s%2Fg%2F11hctrv1w4!19sChIJqR4lEJf-kjkRvgpPo7BVccc?authuser=0&hl=en&rclk=1,"26.2411434,84.3418301"
Nawalpur Masjid,Mosque,"68CW+VXG Nawalpur Masjid, Naya Quilla, Siwan, Bihar 841226",Naya Quilla,68CW+VXG,Siwan,841226,Bihar,IN,https://www.google.com/maps/place/Nawalpur+Masjid/data=!4m7!3m6!1s0x3992feaee6352c0b:0x190b4cf48bf63201!8m2!3d26.2221752!4d84.3474608!16s%2Fg%2F11dx9dp3d4!19sChIJCyw15q7-kjkRATL2i_RMCxk?authuser=0&hl=en&rclk=1,"26.2221752,84.3474608"
"Bindusar Purab Tola, M masjid",Mosque,"69QG+FRP Bindusar Purab Tola, M masjid, Benusar Buzurg, Bihar 841227",,69QG+FRP,Benusar Buzurg,841227,Bihar,IN,"https://www.google.com/maps/place/Bindusar+Purab+Tola,+M+masjid/data=!4m7!3m6!1s0x3992fc6a9d6eaefb:0xb07df29093021d03!8m2!3d26.2387228!4d84.3770827!16s%2Fg%2F11hb4vtb8g!19sChIJ-65unWr8kjkRAx0Ck5DyfbA?authuser=0&hl=en&rclk=1","26.238722799999998,84.3770827"
Karmali Hata,Mosque,"7955+4FX Karmali Hata, Karmalihata, Siwan, Karan Pura, Bihar 841226",Karmalihata,7955+4FX,"Siwan, Karan Pura",841226,Bihar,IN,https://www.google.com/maps/place/Karmali+Hata/data=!4m7!3m6!1s0x3992fc2b903dd30b:0x1474deaea51ead80!8m2!3d26.2578512!4d84.3587455!16s%2Fg%2F11hbg9n716!19sChIJC9M9kCv8kjkRgK0epa7edBQ?authuser=0&hl=en&rclk=1,"26.257851199999998,84.3587455"
Auliya Masjid,Mosque,"6997+637 Auliya Masjid, M.m Colony, Fathepur, Siwan, Bihar 841226","M.m Colony, Fathepur",6997+637,Siwan,841226,Bihar,IN,https://www.google.com/maps/place/Auliya+Masjid/data=!4m7!3m6!1s0x3992fc0651f27685:0x696bed3527cf62d4!8m2!3d26.2180443!4d84.3626708!16s%2Fg%2F11g8vxqtxn!19sChIJhXbyUQb8kjkR1GLPJzXta2k?authuser=0&hl=en&rclk=1,"26.2180443,84.36267079999999"
Masjid-e-Taqwa (Darsh-gaah),Mosque,"6978+43M Masjid-e-Taqwa (Darsh-gaah), M M Colony, Siswan Tola, Siwan, Bihar 841226","M M Colony, Siswan Tola",6978+43M,Siwan,841226,Bihar,IN,https://www.google.com/maps/place/Masjid-e-Taqwa+%28Darsh-gaah%29/data=!4m7!3m6!1s0x3992fbf78f154a57:0xffcc190529dd2b35!8m2!3d26.2128368!4d84.3651821!16s%2Fg%2F11c67vzlr0!19sChIJV0oVj_f7kjkRNSvdKQUZzP8?authuser=0&hl=en&rclk=1,"26.212836799999998,84.3651821"
Masjid-e-Rashidiya,Mosque,"69C2+692 Masjid-e-Rashidiya, Naya Quilla, Nawalpur, Kacheri Rd, Siwan, Bihar",Naya Quilla,"69C2+692, Naya Quilla, Nawalpur, Kacheri Rd",Siwan,,Bihar,IN,https://www.google.com/maps/place/Masjid-e-Rashidiya/data=!4m7!3m6!1s0x3992fea964c5dfe9:0xb4fcb6f39f490aa8!8m2!3d26.2205232!4d84.35089!16s%2Fg%2F1hd_gjg2k!19sChIJ6d_FZKn-kjkRqApJn_O2_LQ?authuser=0&hl=en&rclk=1,"26.2205232,84.35088999999999"
MASJID NOOR -E- AQSA,Mosque,"6988+25P MASJID NOOR -E- AQSA, Ismail Saheed Rd, CHAMDA MANDI, Siwan, Bihar 841226",CHAMDA MANDI,"6988+25P, Ismail Saheed Rd",Siwan,841226,Bihar,IN,https://www.google.com/maps/place/MASJID+NOOR+-E-+AQSA/data=!4m7!3m6!1s0x3992fdf614a35995:0x915182aa4faa2cd3!8m2!3d26.2150867!4d84.3654673!16s%2Fg%2F11g1fv8yby!19sChIJlVmjFPb9kjkR0yyqT6qCUZE?authuser=0&hl=en&rclk=1,"26.2150867,84.36546729999999"
Jama Masjid Sidhwal,Mosque,"6878+JR7 Jama Masjid Sidhwal, Sidhwal, Jamsikri, Bihar 841226",,6878+JR7,"Sidhwal, Jamsikri",841226,Bihar,IN,https://www.google.com/maps/place/Jama+Masjid+Sidhwal/data=!4m7!3m6!1s0x3992fff4bea82055:0x34a4d8798456eb95!8m2!3d26.2149751!4d84.3169855!16s%2Fg%2F11ny0km455!19sChIJVSCovvT_kjkRletWhHnYpDQ?authuser=0&hl=en&rclk=1,"26.2149751,84.3169855"
Masjid-e-Hamza,Mosque,"6947+Q6J Masjid-e-Hamza, Chapiya, Siwan, Bihar 841226",Chapiya,6947+Q6J,Siwan,841226,Bihar,IN,https://www.google.com/maps/place/Masjid-e-Hamza/data=!4m7!3m6!1s0x3992fbfa46a97c15:0xc5be116574462eb9!8m2!3d26.2069681!4d84.3630286!16s%2Fg%2F11b6gbz5y4!19sChIJFXypRvr7kjkRuS5GdGURvsU?authuser=0&hl=en&rclk=1,"26.206968099999997,84.36302859999999"
Maulanagar Masjid (Khan Basti),Mosque,"784P+7FR Maulanagar Masjid (Khan Basti), Siwan, Khalispur, Bihar 841227",,784P+7FR,"Siwan, Khalispur",841227,Bihar,IN,https://www.google.com/maps/place/Maulanagar+Masjid+%28Khan+Basti%29/data=!4m7!3m6!1s0x3992fe8b9b7c92e5:0xf33078c6d92059ab!8m2!3d26.2557266!4d84.3361452!16s%2Fg%2F11c2q3b7nz!19sChIJ5ZJ8m4v-kjkRq1kg2cZ4MPM?authuser=0&hl=en&rclk=1,"26.2557266,84.33614519999999"
Makhdoomia Jama Masjid,Mosque,"6999+X2X Makhdoomia Jama Masjid, Atarsua, Bihar 841226",,6999+X2X,Atarsua,841226,Bihar,IN,https://www.google.com/maps/place/Makhdoomia+Jama+Masjid/data=!4m7!3m6!1s0x3992fc0926145b87:0xe5ffd25237cd8b94!8m2!3d26.219976!4d84.3676165!16s%2Fg%2F11fy4bx_bc!19sChIJh1sUJgn8kjkRlIvNN1LS_-U?authuser=0&hl=en&rclk=1,"26.219976,84.3676165"
Madina Masjid Lakri Makriyar,Mosque,"779C+CP7 Madina Masjid Lakri Makriyar, New Siwan - Hasua Rd, Dharam Makariar, Bihar 841243",,"779C+CP7, New Siwan - Hasua Rd",Dharam Makariar,841243,Bihar,IN,https://www.google.com/maps/place/Madina+Masjid+Lakri+Makriyar/data=!4m7!3m6!1s0x3992ff87c746f113:0x46710a25ab6f3919!8m2!3d26.2685478!4d84.2717823!16s%2Fg%2F11fx94z6pj!19sChIJE_FGx4f_kjkRGTlvqyUKcUY?authuser=0&hl=en&rclk=1,"26.2685478,84.2717823"
Gausulwara Masjid,Mosque,"69C7+49G Gausulwara Masjid, Makhdum Sarai Rd, Fathepur, Siwan, Bihar 841226",Fathepur,"69C7+49G, Makhdum Sarai Rd",Siwan,841226,Bihar,IN,https://www.google.com/maps/place/Gausulwara+Masjid/data=!4m7!3m6!1s0x3992fc060c98de0b:0xfea0106c9b1cda8a!8m2!3d26.2203028!4d84.3634406!16s%2Fg%2F11c5rrm582!19sChIJC96YDAb8kjkRitocm2wQoP4?authuser=0&hl=en&rclk=1,"26.2203028,84.36344059999999"
Khanquah Amjadia Sharif,Religious organization,"6974+R58 Khanquah Amjadia Sharif, Shanti Nagar, Siwan, Bihar 841226",Shanti Nagar,6974+R58,Siwan,841226,Bihar,IN,https://www.google.com/maps/place/Khanquah+Amjadia+Sharif/data=!4m7!3m6!1s0x3992fd417f2ccabb:0x590b64a56567ca67!8m2!3d26.2146828!4d84.3553817!16s%2Fg%2F11g_cg3dg!19sChIJu8osf0H9kjkRZ8pnZaVkC1k?authuser=0&hl=en&rclk=1,"26.2146828,84.3553817"
Gosopali Masjid,Mosque,"58WM+R28 Gosopali Masjid, Gosopali, Bihar 841226",,58WM+R28,Gosopali,841226,Bihar,IN,https://www.google.com/maps/place/Gosopali+Masjid/data=!4m7!3m6!1s0x3992f93f6c958515:0xa74452ce92b55370!8m2!3d26.1970439!4d84.3325896!16s%2Fg%2F11gf96tlnq!19sChIJFYWVbD_5kjkRcFO1ks5SRKc?authuser=0&hl=en&rclk=1,"26.197043899999997,84.33258959999999"
Masjid E Noor,Mosque,"6948+FF4 Masjid E Noor, Islamia Nagar Rd, Laxmipur, Hardia Village, Takiya, Chapiya, Siwan, Bihar 841226","Laxmipur, Hardia Village, Takiya, Chapiya","6948+FF4, Islamia Nagar Rd",Siwan,841226,Bihar,IN,https://www.google.com/maps/place/Masjid+E+Noor/data=!4m7!3m6!1s0x3992fbf0f5a45bb3:0xc0e4965a90af5637!8m2!3d26.2061425!4d84.3661966!16s%2Fg%2F11g8p96pxg!19sChIJs1uk9fD7kjkRN1avkFqW5MA?authuser=0&hl=en&rclk=1,"26.2061425,84.3661966"
Paigambarpur Mosque,Mosque,"684W+V7F Paigambarpur Mosque, Siwan, Bihar 841226",,684W+V7F,Siwan,841226,Bihar,IN,https://www.google.com/maps/place/Paigambarpur+Mosque/data=!4m7!3m6!1s0x3992f9a4a19959b5:0x3d2aba2da7810383!8m2!3d26.2071784!4d84.3456617!16s%2Fg%2F11jlft0m5_!19sChIJtVmZoaT5kjkRgwOBpy26Kj0?authuser=0&hl=en&rclk=1,"26.2071784,84.3456617"
Madina Zama Masjid Tarwan Siwan Bihar,Mosque,"69V5+668 Madina Zama Masjid Tarwan Siwan Bihar, Tanrwa, Bihar 841226",,69V5+668,Tanrwa,841226,Bihar,IN,https://www.google.com/maps/place/Madina+Zama+Masjid+Tarwan+Siwan+Bihar/data=!4m7!3m6!1s0x3992fc21388700c1:0x14e3d15dfa3d0c91!8m2!3d26.2430321!4d84.3580933!16s%2Fg%2F11fy1ds22_!19sChIJwQCHOCH8kjkRkQw9-l3R4xQ?authuser=0&hl=en&rclk=1,"26.243032099999997,84.3580933"
MASJID E OMER,Mosque,"59GC+85F MASJID E OMER, chhata shah, Nikum Tola Road, Siwan, Bihar 841286",,"59GC+85F chhata shah, Nikum Tola Road",Siwan,841286,Bihar,IN,https://www.google.com/maps/place/MASJID+E+OMER/data=!4m7!3m6!1s0x3992fbc9318ebe57:0x5e709da1f59bac60!8m2!3d26.1758052!4d84.3704075!16s%2Fg%2F11cs69pwlk!19sChIJV76OMcn7kjkRYKyb9aGdcF4?authuser=0&hl=en&rclk=1,"26.1758052,84.3704075"
Mohiuddinpur Masjid And Madrsa,Mosque,"68JM+Q3C Mohiuddinpur Masjid And Madrsa, Mohiuddinpur, Bihar 841226",,68JM+Q3C,Mohiuddinpur,841226,Bihar,IN,https://www.google.com/maps/place/Mohiuddinpur+Masjid+And+Madrsa/data=!4m7!3m6!1s0x3992ff77340c4b7f:0x20f393da2acc2f5d!8m2!3d26.2319283!4d84.3326486!16s%2Fg%2F11g09qphbj!19sChIJf0sMNHf_kjkRXS_MKtqT8yA?authuser=0&hl=en&rclk=1,"26.2319283,84.3326486"
Nihal Tola Masjid 786,Mosque,"Nihal Tola Masjid 786, Makriyar nihal tola, Siwan, Bihar 841245",,Makriyar nihal tola,Siwan,841245,Bihar,IN,https://www.google.com/maps/place/Nihal+Tola+Masjid+786/data=!4m7!3m6!1s0x399255be1962efaf:0x5e3e7f2021c6ce51!8m2!3d26.2385015!4d84.2484648!16s%2Fg%2F11f122_knq!19sChIJr-9iGb5VkjkRUc7GISB_Pl4?authuser=0&hl=en&rclk=1,"26.238501499999998,84.2484648"
Darogain Masjid,Mosque,"6995+RJX Darogain Masjid, Imli Chowk, Sheikh Muhalla, Siwan, Bihar 841226",Sheikh Muhalla,"6995+RJX, Imli Chowk",Siwan,841226,Bihar,IN,https://www.google.com/maps/place/Darogain+Masjid/data=!4m7!3m6!1s0x3992fc014dd837eb:0xb60668b0633144c3!8m2!3d26.2196171!4d84.359117!16s%2Fg%2F11g9vqkthr!19sChIJ6zfYTQH8kjkRw0QxY7BoBrY?authuser=0&hl=en&rclk=1,"26.219617099999997,84.359117"
Haidaria Moinia Daru-ul-Ulum Masjid,Mosque,"Haidaria Moinia Daru-ul-Ulum Masjid, badi masjid, Naya Quilla, Siwan, Bihar 841226",Naya Quilla,badi masjid,Siwan,841226,Bihar,IN,https://www.google.com/maps/place/Haidaria+Moinia+Daru-ul-Ulum+Masjid/data=!4m7!3m6!1s0x3992fea9ef21e405:0x19a62bf96955ac77!8m2!3d26.2211237!4d84.3533315!16s%2Fg%2F113hg8rz7!19sChIJBeQh76n-kjkRd6xVafkrphk?authuser=0&hl=en&rclk=1,"26.2211237,84.3533315"
Masjid-E-Ala Hazrat,Mosque,"Masjid-E-Ala Hazrat, Chicken Tolli, Allah Hazrat Masjid, More, Fathepur, Siwan, Bihar 841226",Fathepur,"Chicken Tolli, Allah Hazrat Masjid, More",Siwan,841226,Bihar,IN,https://www.google.com/maps/place/Masjid-E-Ala+Hazrat/data=!4m7!3m6!1s0x3992fc070affd83b:0xc9dc8a876705cb50!8m2!3d26.2160995!4d84.3617984!16s%2Fg%2F11f5tvzn6b!19sChIJO9j_Cgf8kjkRUMsFZ4eK3Mk?authuser=0&hl=en&rclk=1,"26.2160995,84.3617984"
Yadgar-e-Hussain Chowk,Mosque,"69C3+87H Yadgar-e-Hussain Chowk, Kacheri Rd, Naya Quilla, Siwan, Bihar 841226",Naya Quilla,"69C3+87H, Kacheri Rd",Siwan,841226,Bihar,IN,https://www.google.com/maps/place/Yadgar-e-Hussain+Chowk/data=!4m7!3m6!1s0x3992fea9f19a6e0f:0x7c4c8bc4ad431581!8m2!3d26.2208249!4d84.3532499!16s%2Fg%2F124y9wp8_!19sChIJD26a8an-kjkRgRVDrcSLTHw?authuser=0&hl=en&rclk=1,"26.2208249,84.3532499"
Ansari masjid makhdoom Sarai West,Mosque,"6997+XXC Ansari masjid makhdoom Sarai West, makhdoom sarai west tola masjid, Bihar 841226",Fathepur,"6997+XXC, makhdoom sarai west tola masjid",Siwan,841226,Bihar,IN,https://www.google.com/maps/place/Ansari+masjid+makhdoom+Sarai+West/data=!4m7!3m6!1s0x3992fd6749c8d349:0x8a9747dbdf4da0b0!8m2!3d26.2199351!4d84.3649001!16s%2Fg%2F11h2k2q24s!19sChIJSdPISWf9kjkRsKBN39tHl4o?authuser=0&hl=en&rclk=1,"26.219935099999997,84.3649001"
Goverment business,Mosque,"6984+5R9 Goverment business, Purana Quilla, Kagzi Muhalla, Siwan, Bihar 841226","Purana Quilla, Kagzi Muhalla",6984+5R9,Siwan,841226,Bihar,IN,https://www.google.com/maps/place/Goverment+business/data=!4m7!3m6!1s0x3992fc00b0000001:0x14d5139735d0b96f!8m2!3d26.2154068!4d84.3571099!16s%2Fg%2F11c2j4s7p9!19sChIJAQAAsAD8kjkRb7nQNZcT1RQ?authuser=0&hl=en&rclk=1,"26.2154068,84.3571099"
Nooraniya Masjid,Mosque,"68JW+X4H Nooraniya Masjid, Lakhrawn, Bihar 841226",,68JW+X4H,Lakhrawn,841226,Bihar,IN,https://www.google.com/maps/place/Nooraniya+Masjid/data=!4m7!3m6!1s0x3992fea36f4ff79b:0xcd0a38728fab82e!8m2!3d26.2324341!4d84.3453547!16s%2Fg%2F11c2qr7kyz!19sChIJm_dPb6P-kjkRLrj6KIej0Aw?authuser=0&hl=en&rclk=1,"26.2324341,84.3453547"
Siwan colony Masjid,Mosque,"69R5+JWW Siwan colony Masjid, Mahadeva, Siwan, Tanrwa, Bihar 841227",Mahadeva,69R5+JWW,"Siwan, Tanrwa",841227,Bihar,IN,https://www.google.com/maps/place/Siwan+colony+Masjid/data=!4m7!3m6!1s0x3992fc23d0dbe779:0x47ff73c632b8ae92!8m2!3d26.2416152!4d84.3598207!16s%2Fg%2F11fzfbv7jl!19sChIJeefb0CP8kjkRkq64MsZz_0c?authuser=0&hl=en&rclk=1,"26.2416152,84.3598207"
Masjid Ummul Fatima,Mosque,"Gali No 3, Masjid Ummul Fatima, Aasi nagar, Naya Quilla, Siwan, Bihar 841226","Aasi nagar, Naya Quilla",Gali No 3,Siwan,841226,Bihar,IN,https://www.google.com/maps/place/Masjid+Ummul+Fatima/data=!4m7!3m6!1s0x3992feabeb4d3541:0xb00f5e7655c4efb2!8m2!3d26.2184987!4d84.3498946!16s%2Fg%2F11f4pnlcsc!19sChIJQTVN66v-kjkRsu_EVXZeD7A?authuser=0&hl=en&rclk=1,"26.218498699999998,84.3498946"
Masjid-al-aqsa Atarsua,Mosque,"Masjid-al-aqsa Atarsua, Atarsua, Pakri Bangali, Bihar 841227",,,"Atarsua, Pakri Bangali",841227,Bihar,IN,https://www.google.com/maps/place/Masjid-al-aqsa+Atarsua/data=!4m7!3m6!1s0x3992fd8de75febc3:0x4015af44e30a1d63!8m2!3d26.2228843!4d84.3804577!16s%2Fg%2F11gsbhtf_g!19sChIJw-tf5439kjkRYx0K40SvFUA?authuser=0&hl=en&rclk=1,"26.2228843,84.3804577"
Surapur Noori Masjid,Mosque,"59W9+X7Q Surapur Noori Masjid, Surapur, Bihar 841226",,59W9+X7Q,Surapur,,Bihar,IN,https://www.google.com/maps/place/Surapur+Noori+Masjid/data=!4m7!3m6!1s0x3992fb14ee846689:0xd1b67468ac1764ce!8m2!3d26.197469!4d84.3682294!16s%2Fg%2F11gr34gdpr!19sChIJiWaE7hT7kjkRzmQXrGh0ttE?authuser=0&hl=en&rclk=1,"26.197468999999998,84.36822939999999"
jama masjid,Mosque,"699V+VX6 jama masjid, Baisakhi, Bihar 841226",,699V+VX6,Baisakhi,841226,Bihar,IN,https://www.google.com/maps/place/jama+masjid/data=!4m7!3m6!1s0x3992fc7e4875c331:0x138e9ca7feb3bf4c!8m2!3d26.2196622!4d84.3948757!16s%2Fg%2F11dx9gd7rl!19sChIJMcN1SH78kjkRTL-z_qecjhM?authuser=0&hl=en&rclk=1,"26.2196622,84.3948757"
Kacheri Masjid,Mosque,"69G4+287 Kacheri Masjid, Kacheri Rd, Kagzi Muhalla, Siwan, Bihar 841226",Kagzi Muhalla,"69G4+287, Kacheri Rd",Siwan,841226,Bihar,IN,https://www.google.com/maps/place/Kacheri+Masjid/data=!4m7!3m6!1s0x3992fc02c156e06b:0x749b12129f3015f4!8m2!3d26.2250346!4d84.355791!16s%2Fg%2F11xdx6xty!19sChIJa-BWwQL8kjkR9BUwnxISm3Q?authuser=0&hl=en&rclk=1,"26.225034599999997,84.355791"
Masjid Umar,Mosque,"6966+GWM Masjid Umar, Babunia Rd, Siswan Tola, Siwan, Bihar 841226",Siswan Tola,"6966+GWM, Babunia Rd",Siwan,841226,Bihar,IN,https://www.google.com/maps/place/Masjid+Umar/data=!4m7!3m6!1s0x3992fbf9a9e90a6d:0x81417e8c0897bd91!8m2!3d26.21134!4d84.362291!16s%2Fg%2F12ltnbqq2!19sChIJbQrpqfn7kjkRkb2XCIx-QYE?authuser=0&hl=en&rclk=1,"26.21134,84.362291"
Shahidi Masjid,Mosque,"Shahidi Masjid, Sir Syed Compound, 58, Hanuman Mandir Rd, Shukla Toli, Kagzi Muhalla, Siwan, Bihar 841226","Shukla Toli, Kagzi Muhalla","Sir Syed Compound, 58, Hanuman Mandir Rd",Siwan,841226,Bihar,IN,https://www.google.com/maps/place/Shahidi+Masjid/data=!4m7!3m6!1s0x3992fdade74d4b7f:0x29225fcf2a27a4bd!8m2!3d26.2167406!4d84.3593749!16s%2Fg%2F11q_04vlf3!19sChIJf0tN5639kjkRvaQnKs9fIik?authuser=0&hl=en&rclk=1,"26.216740599999998,84.35937489999999"
Karim Shah Masjid,Mosque,"6995+J9W Karim Shah Masjid, Hafiz Jee Chowk, Sheikh Muhalla, Siwan, Bihar 841226",Sheikh Muhalla,"6995+J9W, Hafiz Jee Chowk",Siwan,841226,Bihar,IN,https://www.google.com/maps/place/Karim+Shah+Masjid/data=!4m7!3m6!1s0x3992fc0140df806f:0x80fded3bccd1cee6!8m2!3d26.2191166!4d84.3584413!16s%2Fg%2F11c75qr9c0!19sChIJb4DfQAH8kjkR5s7RzDvt_YA?authuser=0&hl=en&rclk=1,"26.2191166,84.3584413"
Jama Masjid (South Muhalla),Mosque,"58JX+5G5 Jama Masjid (South Muhalla), south muhalla, Siwan, Markan, Bihar 841237",south muhalla,58JX+5G5,"Siwan, Markan",,Bihar,IN,https://www.google.com/maps/place/Jama+Masjid+%28South+Muhalla%29/data=!4m7!3m6!1s0x3992f9649fa1f9d7:0xdde90c01eb6cae1e!8m2!3d26.18038!4d84.3488626!16s%2Fg%2F11f2xx_hr5!19sChIJ1_mhn2T5kjkRHq5s6wEM6d0?authuser=0&hl=en&rclk=1,"26.18038,84.34886259999999"
Masjid Iqra Public School,Mosque,"6927+HX4 Masjid Iqra Public School, iqra,Haque Nagar, Surapur, Bihar 841226",,"6927+HX4, iqra,Haque Nagar",Surapur,841226,Bihar,IN,https://www.google.com/maps/place/Masjid+Iqra+Public+School/data=!4m7!3m6!1s0x3992fbef8b95d5ed:0xeb47a25b300c7ed!8m2!3d26.2013945!4d84.3649671!16s%2Fg%2F11f0kxy1lv!19sChIJ7dWVi-_7kjkR7ccAsyV6tA4?authuser=0&hl=en&rclk=1,"26.2013945,84.3649671"
"Jama Masjid,Baishakhi Hata",Mosque,"69FQ+7Q4 Jama Masjid,Baishakhi Hata, Unnamed Road, Atarsua, Bihar",,"69FQ+7Q4, Unnamed Road",Atarsua,,Bihar,IN,"https://www.google.com/maps/place/Jama+Masjid,Baishakhi+Hata/data=!4m7!3m6!1s0x3992fdc605d4d2ab:0x8ef0e165187266c!8m2!3d26.2231353!4d84.3894413!16s%2Fg%2F11fm91jqn6!19sChIJq9LUBcb9kjkRbCaHURYO7wg?authuser=0&hl=en&rclk=1","26.2231353,84.3894413"
Masjid -E- Raza,Mosque,"688V+FPH Masjid -E- Raza, Eidgah Rd, Siwan, Mohiuddinpur, Bihar 841226",,"688V+FPH, Eidgah Rd","Siwan, Mohiuddinpur",841226,Bihar,IN,https://www.google.com/maps/place/Masjid+-E-+Raza/data=!4m7!3m6!1s0x3992fead6fe0552f:0xc05a17c4dd85bf2c!8m2!3d26.2161755!4d84.3443574!16s%2Fg%2F1hdzbgl73!19sChIJL1Xgb63-kjkRLL-F3cQXWsA?authuser=0&hl=en&rclk=1,"26.2161755,84.34435739999999"
"Makhdumia JAMA Masjid, Dakhin Tola",Mosque,"6998+4JJ Makhdumia JAMA Masjid, Dakhin Tola, Makhdum Sarai, Fathepur, Siwan, Bihar 841226","Makhdum Sarai, Fathepur",6998+4JJ,Siwan,841226,Bihar,IN,"https://www.google.com/maps/place/Makhdumia+JAMA+Masjid,+Dakhin+Tola/data=!4m7!3m6!1s0x3992fdb3504fe089:0x9f1978dac648bc6c!8m2!3d26.2178277!4d84.366506!16s%2Fg%2F11qkfx2krx!19sChIJieBPULP9kjkRbLxIxtp4GZ8?authuser=0&hl=en&rclk=1","26.217827699999997,84.366506"
JAMA MASJID DAROGA HATA,Mosque,"69HM+PPF JAMA MASJID DAROGA HATA, Siwan Byp, Bijehata, Pakri Bangali, Bihar 841227",,"69HM+PPF, Siwan Byp","Bijehata, Pakri Bangali",841227,Bihar,IN,https://www.google.com/maps/place/JAMA+MASJID+DAROGA+HATA/data=!4m7!3m6!1s0x3992fd025c01597d:0xfdbb1dd8c41eddf6!8m2!3d26.2293087!4d84.3842952!16s%2Fg%2F11ft331_3b!19sChIJfVkBXAL9kjkR9t0exNgdu_0?authuser=0&hl=en&rclk=1,"26.229308699999997,84.3842952"
"Masjid, Akhainiya",Mosque,"678R+FCV Masjid, Akhainiya, Akhainiya, Siwan, Bihar 841226",Akhainiya,678R+FCV,Siwan,,Bihar,IN,"https://www.google.com/maps/place/Masjid,+Akhainiya/data=!4m7!3m6!1s0x3992ff241093de23:0x90f95c477bc11836!8m2!3d26.2162348!4d84.2910526!16s%2Fg%2F11mvmrjv_0!19sChIJI96TECT_kjkRNhjBe0dc-ZA?authuser=0&hl=en&rclk=1","26.2162348,84.2910526"
Dhanauti Ke Tola Masjid,Mosque,"Dhanauti Ke Tola Masjid, NH 85, Chhapra Siwan Rd, Siwan, Bihar 841226",,"NH 85, Chhapra Siwan Rd",Siwan,841226,Bihar,IN,https://www.google.com/maps/place/Dhanauti+Ke+Tola+Masjid/data=!4m7!3m6!1s0x3992fc0a640239eb:0xfbaee84ba3e7893d!8m2!3d26.216147!4d84.372251!16s%2Fg%2F11f121xn8_!19sChIJ6zkCZAr8kjkRPYnno0vorvs?authuser=0&hl=en&rclk=1,"26.216147,84.37225099999999"
Masjid-e-quba,Mosque,"69G6+WW7 Masjid-e-quba, Babunia Rd, Naya Bazar, Babhnauli, Siwan, Bihar 841226","Naya Bazar, Babhnauli","69G6+WW7, Babunia Rd",Siwan,841226,Bihar,IN,https://www.google.com/maps/place/Masjid-e-quba/data=!4m7!3m6!1s0x3992fdb11ebdaef1:0xcc0c4fa6f1b1254e!8m2!3d26.2272808!4d84.3624203!16s%2Fg%2F11kj7cmzbm!19sChIJ8a69HrH9kjkRTiWx8aZPDMw?authuser=0&hl=en&rclk=1,"26.2272808,84.3624203"
Al Arafat Masjid,Mosque,"58WW+9R5 Al Arafat Masjid, Rashid Chak, Bihar 841226",,58WW+9R5,Rashid Chak,841226,Bihar,IN,https://www.google.com/maps/place/Al+Arafat+Masjid/data=!4m7!3m6!1s0x3992f92b279cd37b:0x6d61e9771f24f4f5!8m2!3d26.195899!4d84.3471012!16s%2Fg%2F11f7l1tkg4!19sChIJe9OcJyv5kjkR9fQkH3fpYW0?authuser=0&hl=en&rclk=1,"26.195898999999997,84.3471012"
Jama Masjid (Bindusar Buzurg),Mosque,"Jama Masjid (Bindusar Buzurg), Siwan - Barharia - Sarfara Rd, Benusar Buzurg, Bihar 841227",,Siwan - Barharia - Sarfara Rd,Benusar Buzurg,841227,Bihar,IN,https://www.google.com/maps/place/Jama+Masjid+%28Bindusar+Buzurg%29/data=!4m7!3m6!1s0x3992fc3fb39f0e33:0x9aca67ee2f72101c!8m2!3d26.2405599!4d84.3727523!16s%2Fg%2F11c6d_8cq7!19sChIJMw6fsz_8kjkRHBByL-5nypo?authuser=0&hl=en&rclk=1,"26.240559899999997,84.3727523"
Darbar Masjid,Mosque,"69G5+2VC Darbar Masjid, NH 85, Naya Bazar, Babhnauli, Siwan, Bihar 841226","Naya Bazar, Babhnauli","69G5+2VC, NH 85",Siwan,841226,Bihar,IN,https://www.google.com/maps/place/Darbar+Masjid/data=!4m7!3m6!1s0x3992fc04a0ffffff:0xce7ab248a2015a1c!8m2!3d26.2250641!4d84.3596269!16s%2Fg%2F11txmznyfn!19sChIJ____oAT8kjkRHFoBokiyes4?authuser=0&hl=en&rclk=1,"26.225064099999997,84.3596269"
masjid,Mosque,"masjid, mirchai sha takiya, road, Telhatta Bazar, Siwan, Bihar 841226",Telhatta Bazar,"mirchai sha takiya, road",Siwan,841226,Bihar,IN,https://www.google.com/maps/place/masjid/data=!4m7!3m6!1s0x3992fdb4a323f2f5:0xd8354df30ba78e59!8m2!3d26.2205471!4d84.361067!16s%2Fg%2F11p5xkfly2!19sChIJ9fIjo7T9kjkRWY6nC_NNNdg?authuser=0&hl=en&rclk=1,"26.220547099999997,84.36106699999999"
"New Masjid, Paigambar Pur",Mosque,"684W+PHP New Masjid, Paigambar Pur, Paigambarpur, Siwan, Bihar 841226",Paigambarpur,684W+PHP,Siwan,841226,Bihar,IN,"https://www.google.com/maps/place/New+Masjid,+Paigambar+Pur/data=!4m7!3m6!1s0x3992f992253dddf9:0x63451274ff9f410a!8m2!3d26.2068361!4d84.3464655!16s%2Fg%2F11l00v_xkb!19sChIJ-d09JZL5kjkRCkGf_3QSRWM?authuser=0&hl=en&rclk=1","26.2068361,84.3464655"
Srinagar Masjid,Mosque,"68GV+97H Srinagar Masjid, Ayodhyapuri, Siwan, Mohiuddinpur, Bihar 841226",Ayodhyapuri,68GV+97H,"Siwan, Mohiuddinpur",841226,Bihar,IN,https://www.google.com/maps/place/Srinagar+Masjid/data=!4m7!3m6!1s0x3992febaa990ee67:0xbe1b6945ca518b4c!8m2!3d26.2259294!4d84.3432377!16s%2Fg%2F11g86jcnm6!19sChIJZ-6Qqbr-kjkRTItRykVpG74?authuser=0&hl=en&rclk=1,"26.2259294,84.3432377"
Madina Masjid Mahadeva,Religious organization,"69P5+MG9 Madina Masjid Mahadeva, Mahadeva, Siwan, Tanrwa, Bihar 841227",Mahadeva,69P5+MG9,"Siwan, Tanrwa",841227,Bihar,IN,https://www.google.com/maps/place/Madina+Masjid+Mahadeva/data=!4m7!3m6!1s0x3992fdfa303f60b3:0x3523f2e2ad4f0848!8m2!3d26.2366607!4d84.3588685!16s%2Fg%2F11gkwk44s5!19sChIJs2A_MPr9kjkRSAhPreLyIzU?authuser=0&hl=en&rclk=1,"26.236660699999998,84.3588685"
Masjid BILAL karanpura Siwan msjid bilaal krnnpuraa(sivaan),Mosque,"Masjid BILAL karanpura Siwan msjid bilaal krnnpuraa(sivaan), Karan Pura, Bihar 841226",,,Karan Pura,,Bihar,IN,https://www.google.com/maps/place/Masjid+BILAL+karanpura+Siwan+%E0%A4%AE%E0%A4%B8%E0%A5%8D%E0%A4%9C%E0%A4%BF%E0%A4%A6+%E0%A4%AC%E0%A4%BF%E0%A4%B2%E0%A4%BE%E0%A4%B2+%E0%A4%95%E0%A4%B0%E0%A5%8D%E0%A4%A3%E0%A4%AA%E0%A5%81%E0%A4%B0%E0%A4%BE%28%E0%A4%B8%E0%A4%BF%E0%A4%B5%E0%A4%BE%E0%A4%A8%29/data=!4m7!3m6!1s0x3992fd7dfc0a8a75:0x450684d9da9dd181!8m2!3d26.26083!4d84.3564614!16s%2Fg%2F11h5qm45mz!19sChIJdYoK_H39kjkRgdGd2tmEBkU?authuser=0&hl=en&rclk=1,"26.26083,84.3564614"
"Badi masjid, chowk bazar",Mosque,"Badi masjid, chowk bazar, Home tutoring, 69C5+G6FShahid, Makhdum Sarai Rd, Chowk Bazar, Muhalla, Siwan, Bihar 841226","Chowk Bazar, Muhalla","Home tutoring, 69C5+G6FShahid, Makhdum Sarai Rd",Siwan,841226,Bihar,IN,"https://www.google.com/maps/place/Badi+masjid,+chowk+bazar/data=!4m7!3m6!1s0x3992fd2e8c72ce63:0xa91588b20f7ec3bc!8m2!3d26.2219891!4d84.3571623!16s%2Fg%2F11kb93l2f0!19sChIJY85yjC79kjkRvMN-D7KIFak?authuser=0&hl=en&rclk=1","26.2219891,84.3571623"
Madina masjid badi takiya nawalpur,Mosque,"68CX+J9Q Madina masjid badi takiya nawalpur, Naya Quilla Rd, Naya Quilla, Siwan, Bihar 841226",Naya Quilla,"68CX+J9Q, Naya Quilla Rd",Siwan,841226,Bihar,IN,https://www.google.com/maps/place/Madina+masjid+badi+takiya+nawalpur/data=!4m7!3m6!1s0x3992ffce55d0c631:0xa5587a591c68a02d!8m2!3d26.2215872!4d84.3484709!16s%2Fg%2F11pklkkndg!19sChIJMcbQVc7_kjkRLaBoHFl6WKU?authuser=0&hl=en&rclk=1,"26.2215872,84.3484709"
Alsunnat Masjid,Mosque,"68FX+8GC Alsunnat Masjid, Khurmabad, Takiya, Vikash Nagar, Siwan, Bihar 841226","Khurmabad, Takiya, Vikash Nagar",68FX+8GC,Siwan,841226,Bihar,IN,https://www.google.com/maps/place/Alsunnat+Masjid/data=!4m7!3m6!1s0x3992ff035f1d0159:0xb36d44566be46411!8m2!3d26.2233006!4d84.3487582!16s%2Fg%2F11gv085m9g!19sChIJWQEdXwP_kjkREWTka1ZEbbM?authuser=0&hl=en&rclk=1,"26.223300599999998,84.34875819999999"
Masjid Dakhin tola saydani bibi Chowk,Mosque,"6975+HF5 Masjid Dakhin tola saydani bibi Chowk, Dakhin tola ,sayyadni chowk, Purana Quilla, Kagzi Muhalla, Siwan, Bihar 841226","Purana Quilla, Kagzi Muhalla","6975+HF5, Dakhin tola ,sayyadni chowk",Siwan,841226,Bihar,IN,https://www.google.com/maps/place/Masjid+Dakhin+tola+saydani+bibi+Chowk/data=!4m7!3m6!1s0x3992fbdd86aa787f:0x4ec88c6d119a9bd6!8m2!3d26.2138802!4d84.3587497!16s%2Fg%2F11mhmwb34c!19sChIJf3iqht37kjkR1puaEW2MyE4?authuser=0&hl=en&rclk=1,"26.2138802,84.35874969999999"
Saiyadani chowk Masjid,Mosque,"Saiyadani chowk Masjid, Saiyyadani Chowk, Dakkhin Tola, behind Z.A.I.H.School, Purana Quilla, Kagzi Muhalla, Siwan, Bihar 841226","Purana Quilla, Kagzi Muhalla","Saiyyadani Chowk, Dakkhin Tola, behind Z.A.I.H.School",Siwan,841226,Bihar,IN,https://www.google.com/maps/place/Saiyadani+chowk+Masjid/data=!4m7!3m6!1s0x3992fba5538d1c69:0xe18aa35e2f5fd087!8m2!3d26.2152825!4d84.3588055!16s%2Fg%2F11h12k3fmx!19sChIJaRyNU6X7kjkRh9BfL16jiuE?authuser=0&hl=en&rclk=1,"26.215282499999997,84.3588055"
Noori Masjid,Mosque,"7929+V2J Noori Masjid, Orma Makund, Bihar 841227",,7929+V2J,Orma Makund,841227,Bihar,IN,https://www.google.com/maps/place/Noori+Masjid/data=!4m7!3m6!1s0x3992fd34f6d680b7:0x6f880b6fdf1c4e64!8m2!3d26.2522167!4d84.3675245!16s%2Fg%2F11qplrpp6l!19sChIJt4DW9jT9kjkRZE4c328LiG8?authuser=0&hl=en&rclk=1,"26.252216699999998,84.3675245"
Jama Masjid,Mosque,"6974+R58 Jama Masjid, Shanti Nagar, Siwan, Bihar 841226",Shanti Nagar,6974+R58,Siwan,841226,Bihar,IN,https://www.google.com/maps/place/Jama+Masjid/data=!4m7!3m6!1s0x3992fdaee2ac4c6d:0x429f62c498a5fdb1!8m2!3d26.2145388!4d84.3554389!16s%2Fg%2F11lh51x1p1!19sChIJbUys4q79kjkRsf2lmMRin0I?authuser=0&hl=en&rclk=1,"26.2145388,84.3554389"
Masjid -E- Ibrahim msjide ibraahim,Mosque,"Masjid -E- Ibrahim msjide ibraahim, Nawalpur Karbala Naya Qila Road, Shanti Nagar, Siwan, Bihar 841226",Shanti Nagar,Nawalpur Karbala Naya Qila Road,Siwan,841226,Bihar,IN,https://www.google.com/maps/place/Masjid+-E-+Ibrahim+%E0%A4%AE%E0%A4%B8%E0%A5%8D%E0%A4%9C%E0%A4%BF%E0%A4%A6%E0%A5%87+%E0%A4%87%E0%A4%AC%E0%A5%8D%E0%A4%B0%E0%A4%BE%E0%A4%B9%E0%A4%BF%E0%A4%AE/data=!4m7!3m6!1s0x3992ff7017836eb5:0xb887550b04f5eceb!8m2!3d26.2231942!4d84.3439188!16s%2Fg%2F11q8tbnwzq!19sChIJtW6DF3D_kjkR6-z1BAtVh7g?authuser=0&hl=en&rclk=1,"26.2231942,84.3439188"
Chik Toli masjid,Mosque,"6994+R64 Chik Toli masjid, South Of Mauleshry Chowk, Bihar 841226","Professor Colony, Naya Quilla","6994+R64, South Of Mauleshry Chowk",Siwan,841226,Bihar,IN,https://www.google.com/maps/place/Chik+Toli+masjid/data=!4m7!3m6!1s0x3992fd58a4a98719:0xfcd0079607c735ea!8m2!3d26.2195195!4d84.3555654!16s%2Fg%2F11kmbnqrmt!19sChIJGYeppFj9kjkR6jXHB5YH0Pw?authuser=0&hl=en&rclk=1,"26.2195195,84.3555654"
Masiha Masjid,Mosque,"6989+WR6 Masiha Masjid, Makhdum Sarai Rd, Makhdum Sarai, Fathepur, Siwan, Bihar 841226","Makhdum Sarai, Fathepur","6989+WR6, Makhdum Sarai Rd",Siwan,841226,Bihar,IN,https://www.google.com/maps/place/Masiha+Masjid/data=!4m7!3m6!1s0x3992fdc52f0cd60f:0xc3273c8b43fbcb97!8m2!3d26.2172774!4d84.3695226!16s%2Fg%2F11r9cqf3wy!19sChIJD9YML8X9kjkRl8v7Q4s8J8M?authuser=0&hl=en&rclk=1,"26.2172774,84.3695226"
Masjid e arzaani shah,Mosque,"6985+X95 Masjid e arzaani shah, Masjid e arzaani shah road, Bihar 841226","Purana Quilla, Kagzi Muhalla","6985+X95, Masjid e arzaani shah road",Siwan,841226,Bihar,IN,https://www.google.com/maps/place/Masjid+e+arzaani+shah/data=!4m7!3m6!1s0x3992fd57591aee69:0x409e98f4badcd106!8m2!3d26.2173755!4d84.3584775!16s%2Fg%2F11fjn3bf7x!19sChIJae4aWVf9kjkRBtHcuvSYnkA?authuser=0&hl=en&rclk=1,"26.2173755,84.35847749999999"
Purani quilla pokhra mosque,Mosque,"6987+M45 Purani quilla pokhra mosque, Fathepur, Siwan, Bihar 841226",Fathepur,6987+M45,Siwan,841226,Bihar,IN,https://www.google.com/maps/place/Purani+quilla+pokhra+mosque/data=!4m7!3m6!1s0x3992fd58aca0c0c5:0xd8276966adc23957!8m2!3d26.2166448!4d84.3628518!16s%2Fg%2F11h825cz1s!19sChIJxcCgrFj9kjkRVznCrWZpJ9g?authuser=0&hl=en&rclk=1,"26.216644799999997,84.3628518"
kndhvaaraa msjid (Kandhwara Masjid),Mosque,"689R+M77 kndhvaaraa msjid (Kandhwara Masjid), Kandhwara, Ayodhyapuri, Siwan, Mohiuddinpur, Bihar 841226",Ayodhyapuri,"689R+M77, Kandhwara","Siwan, Mohiuddinpur",841226,Bihar,IN,https://www.google.com/maps/place/%E0%A4%95%E0%A4%A8%E0%A5%8D%E0%A4%A7%E0%A4%B5%E0%A4%BE%E0%A4%B0%E0%A4%BE+%E0%A4%AE%E0%A4%B8%E0%A5%8D%E0%A4%9C%E0%A4%BF%E0%A4%A6+%28Kandhwara+Masjid%29/data=!4m7!3m6!1s0x3992ffc122760b71:0x868984416a4e650d!8m2!3d26.2191567!4d84.3411669!16s%2Fg%2F11q9spfj7l!19sChIJcQt2IsH_kjkRDWVOakGEiYY?authuser=0&hl=en&rclk=1,"26.2191567,84.34116689999999"
Moti Masjid Moti Hata,Mosque,"Moti Masjid Moti Hata, Moti hata pachrahata road, 841506, 841506",,"Moti hata pachrahata road, 841506","Bijehata, Siwan",841506,Bihar,IN,https://www.google.com/maps/place/Moti+Masjid+Moti+Hata/data=!4m7!3m6!1s0x3992fd3d6fe9e63d:0xfc63dee8d1fea424!8m2!3d26.2320658!4d84.3756572!16s%2Fg%2F11hdnv3jc9!19sChIJPebpbz39kjkRJKT-0ejeY_w?authuser=0&hl=en&rclk=1,"26.232065799999997,84.37565719999999"
Masjid-e-Belal,Mosque,"Masjid-e-Belal, Purab Tola, Mahuwari, Siwan, Bihar",,"Purab Tola, Mahuwari","Siwan, Mahuari",,Bihar,IN,https://www.google.com/maps/place/Masjid-e-Belal/data=!4m7!3m6!1s0x3992fd5ac33d8fad:0x53e4a641a2ca9969!8m2!3d26.2345768!4d84.4015927!16s%2Fg%2F11kpxtcg1s!19sChIJrY89w1r9kjkRaZnKokGm5FM?authuser=0&hl=en&rclk=1,"26.2345768,84.4015927"
Noori Masjid,Mosque,"795C+CJV Noori Masjid, Orma nawka tola siwan, Orma Makund, Bihar 841227",,"795C+CJV, Orma nawka tola siwan",Orma Makund,841227,Bihar,IN,https://www.google.com/maps/place/Noori+Masjid/data=!4m7!3m6!1s0x3992fd98b214b6bf:0x42734e1e0ca2e0dc!8m2!3d26.2586196!4d84.3715345!16s%2Fg%2F11n00xxqlb!19sChIJv7YUspj9kjkR3OCiDB5Oc0I?authuser=0&hl=en&rclk=1,"26.2586196,84.3715345"
Shahi Masjid,Mosque,"Shahi Masjid, Ismail Shaheed, Takiya, Kagzi Muhalla, Siwan, Bihar 841226","Takiya, Kagzi Muhalla",Ismail Shaheed,Siwan,,Bihar,IN,https://www.google.com/maps/place/Shahi+Masjid/data=!4m7!3m6!1s0x3992fd0eee7459d9:0x3fd3a90fe40204d0!8m2!3d26.2196204!4d84.3566592!16s%2Fg%2F11g3hjmjpm!19sChIJ2Vl07g79kjkR0AQC5A-p0z8?authuser=0&hl=en&rclk=1,"26.2196204,84.3566592"
Masjid aasi nagar,Mosque,"6992+G97 Masjid aasi nagar, Aashi Colony Rd, Aashi Nagar, Naya Quilla, Siwan, Bihar 841226","Aashi Nagar, Naya Quilla","6992+G97, Aashi Colony Rd",Siwan,841226,Bihar,IN,https://www.google.com/maps/place/Masjid+aasi+nagar/data=!4m7!3m6!1s0x3992ff537e5bb43f:0x412892d55c5c5140!8m2!3d26.2187788!4d84.3509198!16s%2Fg%2F11j138_ycm!19sChIJP7RbflP_kjkRQFFcXNWSKEE?authuser=0&hl=en&rclk=1,"26.2187788,84.3509198"
Takiya Masjid,Mosque,"69F3+F6W Takiya Masjid, Rajvanshi Nagar, Takiya, Vikash Nagar, Siwan, Bihar 841226","Rajvanshi Nagar, Takiya, Vikash Nagar",69F3+F6W,Siwan,841226,Bihar,IN,https://www.google.com/maps/place/Takiya+Masjid/data=!4m7!3m6!1s0x3992ff8f1fdfd70d:0xd65b2b6bd5986908!8m2!3d26.2237547!4d84.3531439!16s%2Fg%2F11t8_d_2b7!19sChIJDdffH4__kjkRCGmY1WsrW9Y?authuser=0&hl=en&rclk=1,"26.223754699999997,84.35314389999999"
Patarahatha masjid,Mosque,"69F6+Q26 Patarahatha masjid, Naya Bazar, Babhnauli, Siwan, Bihar 841226","Naya Bazar, Babhnauli",69F6+Q26,Siwan,,Bihar,IN,https://www.google.com/maps/place/Patarahatha+masjid/data=!4m7!3m6!1s0x3992fd67002d9ecd:0xad65e6d14a08be69!8m2!3d26.2244137!4d84.360031!16s%2Fg%2F11k9dthdbw!19sChIJzZ4tAGf9kjkRab4IStHmZa0?authuser=0&hl=en&rclk=1,"26.2244137,84.36003099999999"
Purana quila pokhra mosque( masjid e Sidra),Mosque,"6985+4G7 Purana quila pokhra mosque( masjid e Sidra), near sadri tea stall, Purana Quilla, Kagzi Muhalla, Pokhara, Siwan, Bihar 841226","Purana Quilla, Kagzi Muhalla","6985+4G7, near sadri tea stall","Pokhara, Siwan",841226,Bihar,IN,https://www.google.com/maps/place/Purana+quila+pokhra+mosque%28+masjid+e+Sidra%29/data=!4m7!3m6!1s0x3992fd1c7e200cc9:0x44fd1da103de65ef!8m2!3d26.2152825!4d84.3588055!16s%2Fg%2F11h5nc6v1g!19sChIJyQwgfhz9kjkR72XeA6Ed_UQ?authuser=0&hl=en&rclk=1,"26.215282499999997,84.3588055"
Jama masjid,Mosque,"68Q7+VW5 Jama masjid, Bagha, Siwan, Baghra, Bihar 841227",Bagha,68Q7+VW5,"Siwan, Baghra",,Bihar,IN,https://www.google.com/maps/place/Jama+masjid/data=!4m7!3m6!1s0x3992ffb7e2e6f5a9:0x532c3f6e4e23daa0!8m2!3d26.2396462!4d84.3148542!16s%2Fg%2F11ty23fh57!19sChIJqfXm4rf_kjkRoNojTm4_LFM?authuser=0&hl=en&rclk=1,"26.2396462,84.3148542"
Jama Masjid. jaamaa msjid,Mosque,"68HM+W3H Jama Masjid. jaamaa msjid, Mohiuddinpur, Bihar 841226",,68HM+W3H,Mohiuddinpur,841226,Bihar,IN,https://www.google.com/maps/place/Jama+Masjid.+%E0%A4%9C%E0%A4%BE%E0%A4%AE%E0%A4%BE+%E0%A4%AE%E0%A4%B8%E0%A5%8D%E0%A4%9C%E0%A4%BF%E0%A4%A6/data=!4m7!3m6!1s0x3992ffda657da135:0x1e7c96b8f9550d95!8m2!3d26.229802!4d84.3327488!16s%2Fg%2F11p5p0pxnt!19sChIJNaF9Zdr_kjkRlQ1V-biWfB4?authuser=0&hl=en&rclk=1,"26.229802,84.33274879999999"
Jamma masjid Tinbhediya khurd,Mosque,"7CHF+QHP Jamma masjid Tinbhediya khurd, TINBHEDIYA KHURD, Siwan, Kurwa, Bihar 841232",TINBHEDIYA KHURD,7CHF+QHP,"Siwan, Kurwa",,Bihar,IN,https://www.google.com/maps/place/Jamma+masjid+Tinbhediya+khurd/data=!4m7!3m6!1s0x3992fdee9ac7785b:0xaec11fb7488d3f7a!8m2!3d26.2794648!4d84.4239661!16s%2Fg%2F11rnb_xfgl!19sChIJW3jHmu79kjkRej-NSLcfwa4?authuser=0&hl=en&rclk=1,"26.2794648,84.4239661"
Masjid Siddiqui,Mosque,"Masjid Siddiqui, HB Complex, Babunia Rd, Sheikh Muhalla, Siwan, Bihar 841226",Sheikh Muhalla,"HB Complex, Babunia Rd",Siwan,841226,Bihar,IN,https://www.google.com/maps/place/Masjid+Siddiqui/data=!4m7!3m6!1s0x3992fd698502ad33:0xd08d8c4376fb7b0b!8m2!3d26.2186986!4d84.3613194!16s%2Fg%2F11f90vl_35!19sChIJM60ChWn9kjkRC3v7dkOMjdA?authuser=0&hl=en&rclk=1,"26.2186986,84.3613194"
Hirauli Masjid,Mosque,"6994+RMV Hirauli Masjid, Kagzi Muhalla, Siwan, Bihar 841226",Kagzi Muhalla,6994+RMV,Siwan,841226,Bihar,IN,https://www.google.com/maps/place/Hirauli+Masjid/data=!4m7!3m6!1s0x3992fc01832ae1ff:0x7df71e75f3bf8dd5!8m2!3d26.2196205!4d84.3566593!16s%2Fg%2F11bwf72nv0!19sChIJ_-EqgwH8kjkR1Y2_83Ue930?authuser=0&hl=en&rclk=1,"26.219620499999998,84.35665929999999"
Sunni Masjid,Mosque,"69F3+F6W Sunni Masjid, Rajvanshi Nagar, Takiya, Vikash Nagar, Siwan, Bihar 841226","Rajvanshi Nagar, Takiya, Vikash Nagar",69F3+F6W,Siwan,841226,Bihar,IN,https://www.google.com/maps/place/Sunni+Masjid/data=!4m7!3m6!1s0x3992fff0bf98e9f5:0x8cab362f65eab280!8m2!3d26.2237541!4d84.3531436!16s%2Fg%2F11sz2rd393!19sChIJ9emYv_D_kjkRgLLqZS82q4w?authuser=0&hl=en&rclk=1,"26.223754099999997,84.3531436"
"Madina masjid, Meersikar Toli",Mosque,"6998+FCR Madina masjid, Meersikar Toli, Fathepur, Siwan, Bihar 841226",Fathepur,6998+FCR,Siwan,841226,Bihar,IN,"https://www.google.com/maps/place/Madina+masjid,+Meersikar+Toli/data=!4m7!3m6!1s0x3992fd2230919c4b:0xc850446a86ec4d3e!8m2!3d26.2187393!4d84.366008!16s%2Fg%2F11qly968_g!19sChIJS5yRMCL9kjkRPk3shmpEUMg?authuser=0&hl=en&rclk=1","26.2187393,84.366008"
Ali Masjid,Mosque,"69R5+JWW Ali Masjid, Mahadeva, Siwan, Tanrwa, Bihar 841227",Mahadeva,69R5+JWW,"Siwan, Tanrwa",841227,Bihar,IN,https://www.google.com/maps/place/Ali+Masjid/data=!4m7!3m6!1s0x3992fd7f2f29f961:0xc460640432d101fd!8m2!3d26.2416152!4d84.3598113!16s%2Fg%2F11ptncwlxh!19sChIJYfkpL3_9kjkR_QHRMgRkYMQ?authuser=0&hl=en&rclk=1,"26.2416152,84.35981129999999"
Jama Masjid Bhadayn,Mosque,"6987+73H Jama Masjid Bhadayn, Mauza, Bhadayn, Bihar 841232",Fathepur,"6987+73H, Mauza","Bhadayn, Siwan",841232,Bihar,IN,https://www.google.com/maps/place/Jama+Masjid+Bhadayn/data=!4m7!3m6!1s0x3992fd218bea2275:0x5fc82351bd6026ed!8m2!3d26.2156876!4d84.3627232!16s%2Fg%2F11jhwy1mcv!19sChIJdSLqiyH9kjkR7SZgvVEjyF8?authuser=0&hl=en&rclk=1,"26.2156876,84.36272319999999"
Shaikh Mohalla Masjid msjd,Place of worship,"69F5+PX5 Shaikh Mohalla Masjid msjd, Kagzi Muhalla, Siwan, Bihar 841226",Kagzi Muhalla,69F5+PX5,Siwan,,Bihar,IN,https://www.google.com/maps/place/Shaikh+Mohalla+Masjid+%D9%85%D8%B3%D8%AC%D8%AF%E2%80%AD/data=!4m7!3m6!1s0x3992fdbe175e60f9:0x70498b31f9cae02c!8m2!3d26.2242594!4d84.3599692!16s%2Fg%2F11lr38hy45!19sChIJ-WBeF779kjkRLODK-TGLSXA?authuser=0&hl=en&rclk=1,"26.224259399999998,84.3599692"
famy house,Mosque,"6998+X7P famy house, Makhdum Sarai Rd, west tola, Siwan, Atarsua, Bihar 841226",west tola,"6998+X7P, Makhdum Sarai Rd","Siwan, Atarsua",841226,Bihar,IN,https://www.google.com/maps/place/famy+house/data=!4m7!3m6!1s0x3992fd3cee28e51f:0x2fa805ca76c51589!8m2!3d26.2199637!4d84.3657067!16s%2Fg%2F11sm8srkxd!19sChIJH-Uo7jz9kjkRiRXFdsoFqC8?authuser=0&hl=en&rclk=1,"26.219963699999997,84.36570669999999"
EIDGAH MASJID (SK),Mosque,"68HJ+XVJ EIDGAH MASJID (SK), Siwan - Hasua Rd, Ayodhyapuri, Mohiuddinpur, Bihar 841226",Ayodhyapuri,"68HJ+XVJ, Siwan - Hasua Rd",Mohiuddinpur,841226,Bihar,IN,https://www.google.com/maps/place/EIDGAH+MASJID+%28SK%29/data=!4m7!3m6!1s0x3992ff99aa1645ab:0xd3cb14f5d821e895!8m2!3d26.230074!4d84.3322839!16s%2Fg%2F11s2m2x2bd!19sChIJq0UWqpn_kjkRlegh2PUUy9M?authuser=0&hl=en&rclk=1,"26.230074,84.3322839"
Ukhai Paschim Patti RAJA MASJID,Mosque,"6CX2+994 Ukhai Paschim Patti RAJA MASJID, Siwan, Ukhai purbaripatti, Bihar 841227",,6CX2+994,"Siwan, Ukhai purbaripatti",,Bihar,IN,https://www.google.com/maps/place/Ukhai+Paschim+Patti+RAJA+MASJID/data=!4m7!3m6!1s0x3992fdea6e447b11:0xd74f028ebd861bc8!8m2!3d26.2483785!4d84.4009648!16s%2Fg%2F11pv6gy2dw!19sChIJEXtEbur9kjkRyBuGvY4CT9c?authuser=0&hl=en&rclk=1,"26.248378499999998,84.4009648"
Madina masjid.rasulpur,Mosque,"795V+447 Madina masjid.rasulpur, Rasulpur bazar, Barharia Rd, Siwan, Bihar 841227",,"795V+447, Rasulpur bazar, Barharia Rd","Siwan, Bindusar Bujurg",841227,Bihar,IN,https://www.google.com/maps/place/Madina+masjid.rasulpur/data=!4m7!3m6!1s0x3992fdc310715a79:0x3f60a6f8c84e41c1!8m2!3d26.257794!4d84.3927977!16s%2Fg%2F11rjv215f7!19sChIJeVpxEMP9kjkRwUFOyPimYD8?authuser=0&hl=en&rclk=1,"26.257794,84.3927977"
Nauwapali Masjid,Mosque,"67JQ+C4M Nauwapali Masjid, Nauwapali, Siwan, Naupali, Bihar 841227",Nauwapali,67JQ+C4M,"Siwan, Naupali",,Bihar,IN,https://www.google.com/maps/place/Nauwapali+Masjid/data=!4m7!3m6!1s0x3992ff5b02ea0213:0xd7a6c3aa456a3740!8m2!3d26.2310898!4d84.2877963!16s%2Fg%2F11v4pvxfm1!19sChIJEwLqAlv_kjkRQDdqRarDptc?authuser=0&hl=en&rclk=1,"26.2310898,84.2877963"
Nayaquila Nawalpur Masjid,Mosque,"69C2+7VR Nayaquila Nawalpur Masjid, Naya Quilla, Nawalpur, Siwan, Bihar 841232",Naya Quilla,69C2+7VR,"Nawalpur, Siwan",841232,Bihar,IN,https://www.google.com/maps/place/Nayaquila+Nawalpur+Masjid/data=!4m7!3m6!1s0x3992ffd44a72677d:0xaa1f58d81132f08a!8m2!3d26.2207366!4d84.3521469!16s%2Fg%2F11vjmsvykc!19sChIJfWdyStT_kjkRivAyEdhYH6o?authuser=0&hl=en&rclk=1,"26.2207366,84.3521469"
