name,main_category,address,address_ward,address_street,address_city,address_postal_code,address_state,address_country_code,link,coordinates
Madina Masjid,Mosque,"XRRR+6HJ Madina Masjid, Nagla Shahu, Uttar Pradesh 250406",,XRRR+6HJ,Nagla Shahu,250406,Uttar Pradesh,IN,https://www.google.com/maps/place/Madina+Masjid/data=!4m7!3m6!1s0x390c7964ac657beb:0x1fe3c896ad6ea604!8m2!3d28.9905967!4d77.8414037!16s%2Fg%2F11g8cyd48h!19sChIJ63tlrGR5DDkRBKZurZbI4x8?authuser=0&hl=en&rclk=1,"28.990596699999998,77.8414037"
Jama Masjid,Mosque,"XVP2+42R Jama Masjid, Jae, Uttar Pradesh 250001",,XVP2+42R,Jae,250001,Uttar Pradesh,IN,https://www.google.com/maps/place/Jama+Masjid/data=!4m7!3m6!1s0x390c7968bf5876c9:0xa91c98fe8710b950!8m2!3d28.985366!4d77.8500083!16s%2Fg%2F11d_9fkqml!19sChIJyXZYv2h5DDkRULkQh_6YHKk?authuser=0&hl=en&rclk=1,"28.985366,77.8500083"
Jama Masjid Agwanpur,Mosque,"Jama Masjid Agwanpur, Agwanpur Rd, Parikshitgarh, Agwanpur, Uttar Pradesh 250406",,Agwanpur Rd,"Parikshitgarh, Agwanpur",250406,Uttar Pradesh,IN,https://www.google.com/maps/place/Jama+Masjid+Agwanpur/data=!4m7!3m6!1s0x390b86952f8ae995:0x4b56dd870debdf39!8m2!3d28.9961424!4d77.9974107!16s%2Fg%2F11f3b2cbbl!19sChIJlemKL5WGCzkROd_rDYfdVks?authuser=0&hl=en&rclk=1,"28.9961424,77.9974107"
Masjid Qureshiyan Parikshitgarh,Mosque,"XWGM+HF7 Masjid Qureshiyan Parikshitgarh, Parikshitgarh, Uttar Pradesh 250406",,XWGM+HF7,Parikshitgarh,250406,Uttar Pradesh,IN,https://www.google.com/maps/place/Masjid+Qureshiyan+Parikshitgarh/data=!4m7!3m6!1s0x390b87575449ab3b:0xd82f91ebc8e49559!8m2!3d28.9764216!4d77.9336729!16s%2Fg%2F11csr_l41z!19sChIJO6tJVFeHCzkRWZXkyOuRL9g?authuser=0&hl=en&rclk=1,"28.9764216,77.93367289999999"
Haji Toshif wali masjid,Mosque,"WW6R+WJ3 Haji Toshif wali masjid, Mawana Kithaur Hapur Road, Radhna Inayatpur, Uttar Pradesh 250106",,"WW6R+WJ3, Mawana Kithaur Hapur Road",Radhna Inayatpur,250106,Uttar Pradesh,IN,https://www.google.com/maps/place/Haji+Toshif+wali+masjid/data=!4m7!3m6!1s0x390b8064ef0b027b:0xb9c8665bb3d74d5!8m2!3d28.9122575!4d77.941535!16s%2Fg%2F11g9w091jv!19sChIJewIL72SACzkR1XQ9u2WGnAs?authuser=0&hl=en&rclk=1,"28.9122575,77.941535"
Ghante wali Masjid,Mosque,"WW5V+WMC Ghante wali Masjid, goviNdpurii maarg, Govindpuri, Radhna Inayatpur, Uttar Pradesh 250106",,"WW5V+WMC, goviNdpurii maarg","Govindpuri, Radhna Inayatpur",250106,Uttar Pradesh,IN,https://www.google.com/maps/place/Ghante+wali+Masjid/data=!4m7!3m6!1s0x390b8065677eade7:0x9971a787b41605f6!8m2!3d28.9098199!4d77.9441366!16s%2Fg%2F11g8yf58c8!19sChIJ561-Z2WACzkR9gUWtIencZk?authuser=0&hl=en&rclk=1,"28.9098199,77.9441366"
Masjid,Mosque,"3XX2+GW2 Masjid, Meerut, Uttar Pradesh 250402",,3XX2+GW2,Meerut,250402,Uttar Pradesh,IN,https://www.google.com/maps/place/Masjid/data=!4m7!3m6!1s0x390b884a1e33ac8d:0xff3e2ff1c48f93b7!8m2!3d29.0987562!4d77.9522574!16s%2Fg%2F11f10dts33!19sChIJjawzHkqICzkRt5OPxPEvPv8?authuser=0&hl=en&rclk=1,"29.0987562,77.9522574"
Jama Masjid Asilpur,Mosque,"V2WF+272 Jama Masjid Asilpur, Asilpur, Jarauda, Uttar Pradesh 250104",,V2WF+272,"Asilpur, Jarauda",250104,Uttar Pradesh,IN,https://www.google.com/maps/place/Jama+Masjid+Asilpur/data=!4m7!3m6!1s0x390b838f99b2d9c3:0xf71d206f7005f2c0!8m2!3d28.8950239!4d78.0231267!16s%2Fg%2F11h7kl1hkl!19sChIJw9mymY-DCzkRwPIFcG8gHfc?authuser=0&hl=en&rclk=1,"28.895023899999998,78.02312669999999"
Madina Masjid,Mosque,"XVQQ+8R3 Madina Masjid, Khajoori, Uttar Pradesh 250406",,XVQQ+8R3,Khajoori,250406,Uttar Pradesh,IN,https://www.google.com/maps/place/Madina+Masjid/data=!4m7!3m6!1s0x390c78e6b3b2a6e3:0xb387cd6efb0c24df!8m2!3d28.9882705!4d77.8895327!16s%2Fg%2F11g8jrjdn8!19sChIJ46ays-Z4DDkR3yQM-27Nh7M?authuser=0&hl=en&rclk=1,"28.9882705,77.88953269999999"
Bilal Masjid kayasth Baddha,Mosque,"WRQW+4R2 Bilal Masjid kayasth Baddha, Kayastha Badha, Kayasth Barha, Uttar Pradesh 250001",,WRQW+4R2,"Kayastha Badha, Kayasth Barha",250001,Uttar Pradesh,IN,https://www.google.com/maps/place/Bilal+Masjid+kayasth+Baddha/data=!4m7!3m6!1s0x390c7fe1a1814635:0x466f923c1fd34464!8m2!3d28.9377562!4d77.8470126!16s%2Fg%2F11fmys7xzr!19sChIJNUaBoeF_DDkRZETTHzySb0Y?authuser=0&hl=en&rclk=1,"28.9377562,77.8470126"
MADINA MASJID,Mosque,"XWHF+295 MADINA MASJID, madina masjid road parikshit garh, Behlolpur Dabathala Rd, Parikshitgarh, Uttar Pradesh 250406",,"XWHF+295, madina masjid road parikshit garh, Behlolpur Dabathala Rd",Parikshitgarh,250406,Uttar Pradesh,IN,https://www.google.com/maps/place/MADINA+MASJID/data=!4m7!3m6!1s0x390c78a66d1392c3:0xea78c22b29b698b5!8m2!3d28.9775188!4d77.9234987!16s%2Fg%2F11c6vgn6f1!19sChIJw5ITbaZ4DDkRtZi2KSvCeOo?authuser=0&hl=en&rclk=1,"28.9775188,77.9234987"
Madina Maszid,Mosque,"Madina Maszid, Islamu thekedar Road, Narangpur, Jataula, Uttar Pradesh 250406",,Islamu thekedar Road,"Narangpur, Jataula",250406,Uttar Pradesh,IN,https://www.google.com/maps/place/Madina+Maszid/data=!4m7!3m6!1s0x390b8709232efc79:0xab38126a06180890!8m2!3d28.9753645!4d78.0024658!16s%2Fg%2F11hmz4q_f7!19sChIJefwuIwmHCzkRkAgYBmoSOKs?authuser=0&hl=en&rclk=1,"28.975364499999998,78.0024658"
Gulzaria Masjid,Mosque,"XVQQ+F35 Gulzaria Masjid, Khajoori, Uttar Pradesh 250406",,XVQQ+F35,Khajoori,250406,Uttar Pradesh,IN,https://www.google.com/maps/place/Gulzaria+Masjid/data=!4m7!3m6!1s0x390c78e14ecadc59:0xf1c9e966bff3390!8m2!3d28.9886259!4d77.8877191!16s%2Fg%2F11g8_26kv8!19sChIJWdzKTuF4DDkRkDP_a5aeHA8?authuser=0&hl=en&rclk=1,"28.9886259,77.8877191"
Nambardar Masjid,Mosque,"XXWX+W2X Nambardar Masjid, Agwanpur, Uttar Pradesh 250406",,XXWX+W2X,Agwanpur,250406,Uttar Pradesh,IN,https://www.google.com/maps/place/Nambardar+Masjid/data=!4m7!3m6!1s0x390b87c83d398201:0xef0cf18bad1f172e!8m2!3d28.9973612!4d77.9976203!16s%2Fg%2F11gsyzmd__!19sChIJAYI5PciHCzkRLhcfrYvxDO8?authuser=0&hl=en&rclk=1,"28.9973612,77.9976203"
Madina Masjid kayasth baddha,Mosque,"WRRX+XHF Madina Masjid kayasth baddha, Kayastha Badha, Kayasth Barha, Uttar Pradesh 250001",,WRRX+XHF,"Kayastha Badha, Kayasth Barha",250001,Uttar Pradesh,IN,https://www.google.com/maps/place/Madina+Masjid+kayasth+baddha/data=!4m7!3m6!1s0x390c7fa15f914e27:0x55e251582c08bb65!8m2!3d28.9424267!4d77.848925!16s%2Fg%2F11jgcxdvb8!19sChIJJ06RX6F_DDkRZbsILFhR4lU?authuser=0&hl=en&rclk=1,"28.9424267,77.848925"
Masjid abubakar,Mosque,"XVP3+36R Masjid abubakar, Kila Parikshit Garh Rd, Jai, Nagla Shahu, Uttar Pradesh 250001",,"XVP3+36R, Kila Parikshit Garh Rd","Jai, Nagla Shahu",250001,Uttar Pradesh,IN,https://www.google.com/maps/place/Masjid+abubakar/data=!4m7!3m6!1s0x390c79da05f376b7:0x527c9bf2daea46eb!8m2!3d28.9852255!4d77.8530092!16s%2Fg%2F11j006fkrm!19sChIJt3bzBdp5DDkR60bq2vKbfFI?authuser=0&hl=en&rclk=1,"28.9852255,77.8530092"
Manihar Masjid,Mosque,"2X43+FF8 Manihar Masjid, Puthi, Poothi, Uttar Pradesh 250406",,2X43+FF8,"Puthi, Poothi",250406,Uttar Pradesh,IN,https://www.google.com/maps/place/Manihar+Masjid/data=!4m7!3m6!1s0x390b87aaa85a3d49:0x5018debd1e3c5e27!8m2!3d29.0061665!4d77.9537117!16s%2Fg%2F11fsr8sdmj!19sChIJST1aqKqHCzkRJ148Hr3eGFA?authuser=0&hl=en&rclk=1,"29.0061665,77.9537117"
_ MASJID QURESHIYAN _msjid k'ureshiyaan_msjd qryshyn,Mosque,"XXWW+HFP _ MASJID QURESHIYAN _msjid k'ureshiyaan_msjd qryshyn, Agwanpur, Uttar Pradesh 250406",,XXWW+HFP,Agwanpur,250406,Uttar Pradesh,IN,https://www.google.com/maps/place/_+MASJID+QURESHIYAN+_%E0%A4%AE%E0%A4%B8%E0%A5%8D%E0%A4%9C%E0%A4%BF%E0%A4%A6+%E0%A4%95%E0%A4%BC%E0%A5%81%E0%A4%B0%E0%A5%87%E0%A4%B6%E0%A4%BF%E0%A4%AF%E0%A4%BE%E0%A4%A8_%D9%85%D8%B3%D8%AC%D8%AF+%D9%82%D8%B1%DB%8C%D8%B4%DB%8C%D8%A7%D9%86%E2%80%AD/data=!4m7!3m6!1s0x390b871c4fdc5501:0xb8703591c4a16257!8m2!3d28.9964688!4d77.9961876!16s%2Fg%2F11gxn17nyw!19sChIJAVXcTxyHCzkRV2KhxJE1cLg?authuser=0&hl=en&rclk=1,"28.9964688,77.9961876"
Masjid akhlaq husain/msjd khlq Hsyn,Mosque,"VWVH+P8Q Masjid akhlaq husain/msjd khlq Hsyn, Behrora, Uttar Pradesh 250106",,VWVH+P8Q,Behrora,250106,Uttar Pradesh,IN,https://www.google.com/maps/place/Masjid+akhlaq+husain%2F%D9%85%D8%B3%D8%AC%D8%AF+%D8%A7%D8%AE%D9%84%D8%A7%D9%82+%D8%AD%D8%B3%D9%8A%D9%86%E2%80%AD/data=!4m7!3m6!1s0x390b81c1bb7b70bf:0x1ec978c66075095!8m2!3d28.8943423!4d77.9283505!16s%2Fg%2F11f79z_gr3!19sChIJv3B7u8GBCzkRlVAHZoyX7AE?authuser=0&hl=en&rclk=1,"28.894342299999998,77.9283505"
MARKAZ Masjid,Mosque,"3W2H+RFJ MARKAZ Masjid, Mawana-Kithaur-Hapur Marg, Satla, Uttar Pradesh 250402",,"3W2H+RFJ, Mawana-Kithaur-Hapur Marg",Satla,250402,Uttar Pradesh,IN,https://www.google.com/maps/place/MARKAZ+Masjid/data=!4m7!3m6!1s0x390b87ff5de643d3:0x4fbff5b668f96bf4!8m2!3d29.0520758!4d77.9286316!16s%2Fg%2F11fzf7dkcc!19sChIJ00PmXf-HCzkR9Gv5aLb1v08?authuser=0&hl=en&rclk=1,"29.052075799999997,77.9286316"
Peer wali Masjid,Mosque,"WW4V+RQH Peer wali Masjid, Radhna Inayatpur, Uttar Pradesh 250104",,WW4V+RQH,Radhna Inayatpur,250104,Uttar Pradesh,IN,https://www.google.com/maps/place/Peer+wali+Masjid/data=!4m7!3m6!1s0x390b81ff6e1eecd7:0xb8927d8be26fb8b!8m2!3d28.9070725!4d77.9444861!16s%2Fg%2F11fhvz45dy!19sChIJ1-webv-BCzkRi_smvtgniQs?authuser=0&hl=en&rclk=1,"28.907072499999998,77.94448609999999"
Pachhayli masjid,Mosque,"3W2G+V8 Pachhayli masjid, Satla, Uttar Pradesh 250402",,3W2G+V8,Satla,,Uttar Pradesh,IN,https://www.google.com/maps/place/Pachhayli+masjid/data=!4m7!3m6!1s0x390c795973a9587d:0x7b534e2710526893!8m2!3d29.0521913!4d77.9257481!16s%2Fg%2F11s2n9vcd8!19sChIJfVipc1l5DDkRk2hSECdOU3s?authuser=0&hl=en&rclk=1,"29.052191299999997,77.92574809999999"
Masjid Ahle hadees Radhna inayatpur,Mosque,"WW4V+476 Masjid Ahle hadees Radhna inayatpur, Radhna Inayatpur, Uttar Pradesh 250106",,WW4V+476,Radhna Inayatpur,250106,Uttar Pradesh,IN,https://www.google.com/maps/place/Masjid+Ahle+hadees+Radhna+inayatpur/data=!4m7!3m6!1s0x390b8191e8b994bb:0xf1b713a64192c54a!8m2!3d28.9052755!4d77.9431289!16s%2Fg%2F11g072r0jw!19sChIJu5S56JGBCzkRSsWSQaYTt_E?authuser=0&hl=en&rclk=1,"28.9052755,77.94312889999999"
Aqsa Masjid kayasth Baddha,Mosque,"WRQX+9FH Aqsa Masjid kayasth Baddha, Ali Rd, Kayastha Badha, Kayasth Barha, Uttar Pradesh 250001",,"WRQX+9FH, Ali Rd","Kayastha Badha, Kayasth Barha",250001,Uttar Pradesh,IN,https://www.google.com/maps/place/Aqsa+Masjid+kayasth+Baddha/data=!4m7!3m6!1s0x390c7f9035a83321:0x2973179e30caafb3!8m2!3d28.9384396!4d77.8487205!16s%2Fg%2F11q1vytbcg!19sChIJITOoNZB_DDkRs6_KMJ4Xcyk?authuser=0&hl=en&rclk=1,"28.9384396,77.8487205"
Jama Masjid,Mosque,"XWR2+XRH Jama Masjid, Rasulpur Ikla, Ahmadnagar Badhla, Uttar Pradesh 250406",,XWR2+XRH,"Rasulpur Ikla, Ahmadnagar Badhla",250406,Uttar Pradesh,IN,https://www.google.com/maps/place/Jama+Masjid/data=!4m7!3m6!1s0x390c79b2b6eb9139:0x43b8614abcdb2189!8m2!3d28.9924342!4d77.9021209!16s%2Fg%2F11p6bsv84h!19sChIJOZHrtrJ5DDkRiSHbvEphuEM?authuser=0&hl=en&rclk=1,"28.992434199999998,77.9021209"
Mohammadi masjid,Mosque,"XRVV+XMX Mohammadi masjid, Nagla Shahu, Morna, Uttar Pradesh 250001",,XRVV+XMX,"Nagla Shahu, Morna",250001,Uttar Pradesh,IN,https://www.google.com/maps/place/Mohammadi+masjid/data=!4m7!3m6!1s0x390c794eaee243d1:0x97020d0af6371fe3!8m2!3d28.9949982!4d77.8442428!16s%2Fg%2F11j94qdbp3!19sChIJ0UPirk55DDkR4x839goNApc?authuser=0&hl=en&rclk=1,"28.994998199999998,77.8442428"
Jama Masjid,Mosque,"XWHJ+J8C Jama Masjid, Parikshitgarh, Uttar Pradesh 250406",,XWHJ+J8C,Parikshitgarh,250406,Uttar Pradesh,IN,https://www.google.com/maps/place/Jama+Masjid/data=!4m7!3m6!1s0x390b87abffdb6269:0x1ccbb0ddd69bb783!8m2!3d28.9790671!4d77.9307605!16s%2Fg%2F11h1qqrh31!19sChIJaWLb_6uHCzkRg7eb1t2wyxw?authuser=0&hl=en&rclk=1,"28.979067099999998,77.93076049999999"
Hamza masjid,Mosque,"XRPX+74Q Hamza masjid, Meerut, Jae, Uttar Pradesh 250001",,XRPX+74Q,"Meerut, Jae",,Uttar Pradesh,IN,https://www.google.com/maps/place/Hamza+masjid/data=!4m7!3m6!1s0x390c79ac3a3b5c49:0x5a06adb0ad53a7f0!8m2!3d28.9857129!4d77.8478739!16s%2Fg%2F11v0x3lj76!19sChIJSVw7Oqx5DDkR8KdTrbCtBlo?authuser=0&hl=en&rclk=1,"28.9857129,77.8478739"
Chhappar Wali Masjid,Mosque,"3WX8+P34 Chhappar Wali Masjid, Mawana, Uttar Pradesh 250401",,3WX8+P34,Mawana,250401,Uttar Pradesh,IN,https://www.google.com/maps/place/Chhappar+Wali+Masjid/data=!4m7!3m6!1s0x390c7718b656b97f:0x3374fbc9fadf09bc!8m2!3d29.0992346!4d77.9152298!16s%2Fg%2F11rtqdq9wg!19sChIJf7lWthh3DDkRvAnf-sn7dDM?authuser=0&hl=en&rclk=1,"29.0992346,77.91522979999999"
Aqsa Masjid,Mosque,"WXXM+PXF Aqsa Masjid, Agwanpur, Shodatt, Uttar Pradesh 250406",,WXXM+PXF,"Agwanpur, Shodatt",250406,Uttar Pradesh,IN,https://www.google.com/maps/place/Aqsa+Masjid/data=!4m7!3m6!1s0x390b81273d5a5095:0xff4819909dd08f56!8m2!3d28.9498002!4d77.9855625!16s%2Fg%2F11sxvd5f7h!19sChIJlVBaPSeBCzkRVo_QnZAZSP8?authuser=0&hl=en&rclk=1,"28.9498002,77.9855625"
Makki masjid,Mosque,"XRRQ+4W9 Makki masjid, Nagla Shahu, Rukanpur, Uttar Pradesh 250001",,XRRQ+4W9,"Nagla Shahu, Rukanpur",250001,Uttar Pradesh,IN,https://www.google.com/maps/place/Makki+masjid/data=!4m7!3m6!1s0x390c793e6fde3775:0x8ac44e8843c7724b!8m2!3d28.9903625!4d77.8394219!16s%2Fg%2F11k9j8n88w!19sChIJdTfebz55DDkRS3LHQ4hOxIo?authuser=0&hl=en&rclk=1,"28.9903625,77.83942189999999"
Masjid mustufai,Mosque,"XWHP+9FF Masjid mustufai, Mawana-Kithaur, Marg, Khajoori Darwaza, Parikshitgarh, Uttar Pradesh 250406","Mohalla Raja Darwaza, Khajoori Darwaza","XWHP+9FF, Mawana-Kithaur, Marg",Parikshitgarh,250406,Uttar Pradesh,IN,https://www.google.com/maps/place/Masjid+mustufai/data=!4m7!3m6!1s0x390b874a2fd378cf:0xcfe497fa65691524!8m2!3d28.9784318!4d77.9361609!16s%2Fg%2F11s4flz25q!19sChIJz3jTL0qHCzkRJBVpZfqX5M8?authuser=0&hl=en&rclk=1,"28.9784318,77.93616089999999"
chhwtty msjd Choti Masjid,Mosque,"V2R2+VG4 chhwtty msjd Choti Masjid, Unnamed Rd, Jarauda, Uttar Pradesh 250104",,"V2R2+VG4, Unnamed Rd",Jarauda,250104,Uttar Pradesh,IN,https://www.google.com/maps/place/%DA%86%DA%BE%D9%88%D9%B9%DB%8C+%D9%85%D8%B3%D8%AC%D8%AF+Choti+Masjid%E2%80%AD/data=!4m7!3m6!1s0x390b81e8beadb497:0xddc917b58c59ba8c!8m2!3d28.8921298!4d78.0013274!16s%2Fg%2F11bvv58m7x!19sChIJl7StvuiBCzkRjLpZjLUXyd0?authuser=0&hl=en&rclk=1,"28.8921298,78.0013274"
Aqsa Masjid,Mosque,"Aqsa Masjid, Faruqi Coloni, Mohalla Dhakpeer, Parikshitgarh, Uttar Pradesh 250406",Mohalla Dhakpeer,Faruqi Coloni,Parikshitgarh,250406,Uttar Pradesh,IN,https://www.google.com/maps/place/Aqsa+Masjid/data=!4m7!3m6!1s0x390b870a3fb9b303:0x5324774bf366a46e!8m2!3d28.9792981!4d77.9310283!16s%2Fg%2F11l721sxs8!19sChIJA7O5PwqHCzkRbqRm80t3JFM?authuser=0&hl=en&rclk=1,"28.979298099999998,77.9310283"
Masjid Ek Minara,Religious institution,"Masjid Ek Minara, Parikshitgarh, Uttar Pradesh 250406",,,Parikshitgarh,,Uttar Pradesh,IN,https://www.google.com/maps/place/Masjid+Ek+Minara/data=!4m7!3m6!1s0x390b875938d79f1f:0x9941da71862a483f!8m2!3d28.9812618!4d77.9322968!16s%2Fg%2F11t9k9mfpy!19sChIJH5_XOFmHCzkRP0gqhnHaQZk?authuser=0&hl=en&rclk=1,"28.9812618,77.9322968"
TAYYAB MASJID _Tyb msjd,Mosque,"XXWV+R8J TAYYAB MASJID _Tyb msjd, Agwanpur, Uttar Pradesh 250406",,XXWV+R8J,Agwanpur,250406,Uttar Pradesh,IN,https://www.google.com/maps/place/TAYYAB+MASJID+_%D8%B7%DB%8C%D8%A8+%D9%85%D8%B3%D8%AC%D8%AF%E2%80%AD/data=!4m7!3m6!1s0x390b872c7b917c49:0xad5bcf62564480c6!8m2!3d28.9970823!4d77.9932475!16s%2Fg%2F11v637ctf0!19sChIJSXyReyyHCzkRxoBEVmLPW60?authuser=0&hl=en&rclk=1,"28.9970823,77.9932475"
Husaini Masjid,Mosque,"XXWV+R8J Husaini Masjid, Meerut, Uttar Pradesh 250406",,XXWV+R8J,Meerut,250406,Uttar Pradesh,IN,https://www.google.com/maps/place/Husaini+Masjid/data=!4m7!3m6!1s0x390b875770a2eb3b:0x272e82575e8116a8!8m2!3d28.9970694!4d77.9932395!16s%2Fg%2F11ptv6bq24!19sChIJO-uicFeHCzkRqBaBXleCLic?authuser=0&hl=en&rclk=1,"28.997069399999997,77.9932395"
Jama Masazid,Mosque,"XXW4+9MQ Jama Masazid, Poothi, Uttar Pradesh 250406",,XXW4+9MQ,Poothi,250406,Uttar Pradesh,IN,https://www.google.com/maps/place/Jama+Masazid/data=!4m7!3m6!1s0x390b8713ffffffff:0x57f5658d2b354994!8m2!3d28.9959566!4d77.9567323!16s%2Fg%2F11gcckdrv_!19sChIJ_____xOHCzkRlEk1K41l9Vc?authuser=0&hl=en&rclk=1,"28.9959566,77.9567323"
Ashrafi masjid shodatt,Mosque,"WXXP+393 Ashrafi masjid shodatt, Shodatt, Uttar Pradesh 250406",,WXXP+393,Shodatt,250406,Uttar Pradesh,IN,https://www.google.com/maps/place/Ashrafi+masjid+shodatt/data=!4m7!3m6!1s0x390b81eb209a792b:0x258d11bd991aa7f!8m2!3d28.9476272!4d77.9859245!16s%2Fg%2F11s3y77dxm!19sChIJK3maIOuBCzkRf6qR2RvRWAI?authuser=0&hl=en&rclk=1,"28.9476272,77.9859245"
Aqsa Masjid Kila,Mosque,"XWJH+873 Aqsa Masjid Kila, Parikshitgarh, Uttar Pradesh 250406",,XWJH+873,Parikshitgarh,250406,Uttar Pradesh,IN,https://www.google.com/maps/place/Aqsa+Masjid+Kila/data=!4m7!3m6!1s0x390c799f5ba97e01:0x7bc93a9601266518!8m2!3d28.980757!4d77.9281617!16s%2Fg%2F11vjhhvx43!19sChIJAX6pW595DDkRGGUmAZY6yXs?authuser=0&hl=en&rclk=1,"28.980756999999997,77.92816169999999"
Beech Wali Masjid,Mosque,"WW5V+PVQ Beech Wali Masjid, Radhna Inayatpur, Uttar Pradesh 250106",,WW5V+PVQ,Radhna Inayatpur,250106,Uttar Pradesh,IN,https://www.google.com/maps/place/Beech+Wali+Masjid/data=!4m7!3m6!1s0x390b8103acc62437:0xad7a9b8215cdbe31!8m2!3d28.9093385!4d77.9447421!16s%2Fg%2F11fl9m4plm!19sChIJNyTGrAOBCzkRMb7NFYKbeq0?authuser=0&hl=en&rclk=1,"28.909338499999997,77.9447421"
Mustufai masjid Qila parikshitgarh,Book store,"Mustufai masjid Qila parikshitgarh, Meerut Rd, Mohalla Raja Darwaza, Parikshitgarh, Uttar Pradesh 250406",Mohalla Raja Darwaza,Meerut Rd,Parikshitgarh,250406,Uttar Pradesh,IN,https://www.google.com/maps/place/Mustufai+masjid+Qila+parikshitgarh/data=!4m7!3m6!1s0x390b87f140648adb:0x3ced83ff5d5202a3!8m2!3d28.9793412!4d77.9358981!16s%2Fg%2F11t1b7zpcb!19sChIJ24pkQPGHCzkRowJSXf-D7Tw?authuser=0&hl=en&rclk=1,"28.9793412,77.9358981"
