name,main_category,address,address_ward,address_street,address_city,address_postal_code,address_state,address_country_code,link,coordinates
Noori Masjid,Mosque,"QCW7+CM8 Noori Masjid, Bhuli Rd, Karim Gunj, Wassepur, Dhanbad, Jharkhand 826001","Karim Gunj, Wassepur","QCW7+CM8, Bhuli Rd",Dhanbad,826001,Jharkhand,IN,https://www.google.com/maps/place/Noori+Masjid/data=!4m7!3m6!1s0x39f6a34a3f587bbd:0x939b67c3b084fa88!8m2!3d23.7960253!4d86.4142044!16s%2Fg%2F1hc1n6rj3!19sChIJvXtYP0qj9jkRiPqEsMNnm5M?authuser=0&hl=en&rclk=1,"23.7960253,86.4142044"
Koyla Nagar Masjid,Mosque,"Koyla Nagar Masjid, Unnamed Road, 826003, Kusum Vihar, Murli Nagar, Dhanbad, Jharkhand 826003","Koyla Nagar Colony, Kusum Vihar, Murli Nagar","Unnamed Road, 826003",Dhanbad,826003,Jharkhand,IN,https://www.google.com/maps/place/Koyla+Nagar+Masjid/data=!4m7!3m6!1s0x39f6bc62b64b7f4d:0x2cbc3118877d786d!8m2!3d23.8055045!4d86.4603842!16s%2Fg%2F11c74hqh6p!19sChIJTX9LtmK89jkRbXh9hxgxvCw?authuser=0&hl=en&rclk=1,"23.805504499999998,86.4603842"
Jabbar Masjid,Mosque,"QCW7+M73 Jabbar Masjid, Bhuli Rd, near jabbar masjid, Karim Gunj, Wassepur, Dhanbad, Matkuria, Jharkhand 826001","Karim Gunj, Wassepur","QCW7+M73, Bhuli Rd, near jabbar masjid","Dhanbad, Matkuria",826001,Jharkhand,IN,https://www.google.com/maps/place/Jabbar+Masjid/data=!4m7!3m6!1s0x39f6a34971bb395b:0x20aafc9d6d441d7a!8m2!3d23.7966342!4d86.4131625!16s%2Fg%2F1262btw7s!19sChIJWzm7cUmj9jkReh1EbZ38qiA?authuser=0&hl=en&rclk=1,"23.7966342,86.4131625"
Kabaripatti Masjid,Mosque,"Kabaripatti Masjid, Wassepur, Dhanbad, Jharkhand 826001",Wassepur,,Dhanbad,826001,Jharkhand,IN,https://www.google.com/maps/place/Kabaripatti+Masjid/data=!4m7!3m6!1s0x39f6bd7b6d6f3b3f:0x9451fbbd221b678f!8m2!3d23.7920654!4d86.4196392!16s%2Fg%2F11p66w80w1!19sChIJPztvbXu99jkRj2cbIr37UZQ?authuser=0&hl=en&rclk=1,"23.7920654,86.41963919999999"
Ayesha Mosque,Mosque,"QCV8+7XP Ayesha Mosque, Bhuli Rd, Wassepur, Dhanbad, Jharkhand 826001",Wassepur,"QCV8+7XP, Bhuli Rd",Dhanbad,826001,Jharkhand,IN,https://www.google.com/maps/place/Ayesha+Mosque/data=!4m7!3m6!1s0x39f6a335605d51bf:0xb878ca672d3deb6a!8m2!3d23.7932077!4d86.4174455!16s%2Fg%2F1hc49vxxx!19sChIJv1FdYDWj9jkRaus9LWfKeLg?authuser=0&hl=en&rclk=1,"23.7932077,86.4174455"
Jama Masjid,Mosque,"QCRG+4FW Jama Masjid, New Station Railway Colony, Pandey Muhalla, Dhanbad, Jharkhand 826001","New Station Railway Colony, Pandey Muhalla",QCRG+4FW,Dhanbad,826001,Jharkhand,IN,https://www.google.com/maps/place/Jama+Masjid/data=!4m7!3m6!1s0x39f6bcc9005aa95d:0x4859f802ca538b93!8m2!3d23.7903696!4d86.4262043!16s%2Fg%2F1tf7qk03!19sChIJXalaAMm89jkRk4tTygL4WUg?authuser=0&hl=en&rclk=1,"23.7903696,86.4262043"
Muhammadi Masjid Ahle Hadees Dhanbad,Mosque,"RC35+C64 Muhammadi Masjid Ahle Hadees Dhanbad, Wassepur, Dhanbad, Jharkhand 828104",Wassepur,RC35+C64,Dhanbad,828104,Jharkhand,IN,https://www.google.com/maps/place/Muhammadi+Masjid+Ahle+Hadees+Dhanbad/data=!4m7!3m6!1s0x39f6a3455d8efdf3:0x72dac07a3f8004cb!8m2!3d23.8035006!4d86.4080635!16s%2Fg%2F11f1vrnnmj!19sChIJ8_2OXUWj9jkRywSAP3rA2nI?authuser=0&hl=en&rclk=1,"23.8035006,86.4080635"
Masjid Quba,Mosque,"QCVC+298 Masjid Quba, Ramzan manzil, Naya Bazar, Kabari Patti, Dhanbad, Jharkhand 826001","Naya Bazar, Kabari Patti","QCVC+298, Ramzan manzil",Dhanbad,826001,Jharkhand,IN,https://www.google.com/maps/place/Masjid+Quba/data=!4m7!3m6!1s0x39f6bcca88b43839:0xfc88163085a729ec!8m2!3d23.7925404!4d86.4209557!16s%2Fg%2F11c2qh_gmd!19sChIJOTi0iMq89jkR7CmnhTAWiPw?authuser=0&hl=en&rclk=1,"23.7925404,86.4209557"
Gousia Masjid,Mosque,"RC27+JQC Gousia Masjid, Forest Colony, Dhanbad, Jharkhand 828130",Forest Colony,RC27+JQC,Dhanbad,828130,Jharkhand,IN,https://www.google.com/maps/place/Gousia+Masjid/data=!4m7!3m6!1s0x39f6a34c3057f97b:0xe92ea9895216311f!8m2!3d23.8015551!4d86.4144044!16s%2Fg%2F1ptvqbg1r!19sChIJe_lXMEyj9jkRHzEWUompLuk?authuser=0&hl=en&rclk=1,"23.801555099999998,86.4144044"
Sabili Masjid and Mazar,Mosque,"QCVJ+J23 Sabili Masjid and Mazar, Lodna More, Pandey Muhalla, Dhanbad, Jharkhand 826001","Lodna More, Pandey Muhalla",QCVJ+J23,Dhanbad,826001,Jharkhand,IN,https://www.google.com/maps/place/Sabili+Masjid+and+Mazar/data=!4m7!3m6!1s0x39f6bcb874168d13:0xb5fb6e5265b6b425!8m2!3d23.7940064!4d86.4300479!16s%2Fg%2F11g6vhcstb!19sChIJE40WdLi89jkRJbS2ZVJu-7U?authuser=0&hl=en&rclk=1,"23.7940064,86.43004789999999"
Eidgaah Masjid,Mosque,"QCVF+J75 Eidgaah Masjid, Naya Bazar, Pandey Muhalla, Dhanbad, Jharkhand 826001","Naya Bazar, Pandey Muhalla",QCVF+J75,Dhanbad,826001,Jharkhand,IN,https://www.google.com/maps/place/Eidgaah+Masjid/data=!4m7!3m6!1s0x39f6bcb5faf27959:0x438b93a5b547f4c5!8m2!3d23.7940133!4d86.423237!16s%2Fg%2F1td7xhdz!19sChIJWXny-rW89jkRxfRHtaWTi0M?authuser=0&hl=en&rclk=1,"23.7940133,86.423237"
Jama Masjid,Mosque,"RC22+J9G Jama Masjid, Bhuli, Dhanbad, Jharkhand 828104",Bhuli,RC22+J9G,Dhanbad,828104,Jharkhand,IN,https://www.google.com/maps/place/Jama+Masjid/data=!4m7!3m6!1s0x39f6a34254c7064f:0x60292932656d14b3!8m2!3d23.8015684!4d86.4009676!16s%2Fg%2F1ptxj6ktt!19sChIJTwbHVEKj9jkRsxRtZTIpKWA?authuser=0&hl=en&rclk=1,"23.801568399999997,86.4009676"
New colony Masjid,Mosque,"QCV5+M8C New colony Masjid, Wassepur, Dhanbad, Jharkhand 826001",Wassepur,QCV5+M8C,Dhanbad,826001,Jharkhand,IN,https://www.google.com/maps/place/New+colony+Masjid/data=!4m7!3m6!1s0x39f6a34875cfd69d:0x51d83f16efa1f39f!8m2!3d23.7941927!4d86.4082528!16s%2Fg%2F11clr_123p!19sChIJndbPdUij9jkRn_Oh7xY_2FE?authuser=0&hl=en&rclk=1,"23.7941927,86.4082528"
Sunehri Masjid,Mosque,"QCX9+F23 Sunehri Masjid, Forest Colony, Dhanbad, Jharkhand",Forest Colony,"QCX9+F23, Forest Colony",Dhanbad,,Jharkhand,IN,https://www.google.com/maps/place/Sunehri+Masjid/data=!4m7!3m6!1s0x39f6a34b5d0c2df1:0xef123467dcaa3cbe!8m2!3d23.7986307!4d86.4175618!16s%2Fg%2F11g6xrlczg!19sChIJ8S0MXUuj9jkRvjyq3Gc0Eu8?authuser=0&hl=en&rclk=1,"23.7986307,86.4175618"
Masjid-E-Hazrat Hussain,Mosque,"RC38+FMJ Masjid-E-Hazrat Hussain, New Islampur Rd, Forest Colony, Dhanbad, Jharkhand 828104",Forest Colony,"RC38+FMJ, New Islampur Rd",Dhanbad,828104,Jharkhand,IN,https://www.google.com/maps/place/Masjid-E-Hazrat+Hussain/data=!4m7!3m6!1s0x39f6a34d9e8b6077:0xc24c5ba8ed02342c!8m2!3d23.803575!4d86.4164934!16s%2Fg%2F11bysjwb_z!19sChIJd2CLnk2j9jkRLDQC7ahbTMI?authuser=0&hl=en&rclk=1,"23.803575,86.4164934"
AL-HERA MASJID,Mosque,"RC35+MWX AL-HERA MASJID, Forest Colony, Dhanbad, Jharkhand 828105",Forest Colony,RC35+MWX,Dhanbad,828105,Jharkhand,IN,https://www.google.com/maps/place/AL-HERA+MASJID/data=!4m7!3m6!1s0x39f6a34fe80b63d5:0xe6e087a50ae25fa7!8m2!3d23.8042398!4d86.4098632!16s%2Fg%2F11bbrjgdp9!19sChIJ1WML6E-j9jkRp1_iCqWH4OY?authuser=0&hl=en&rclk=1,"23.804239799999998,86.40986319999999"
STC COMPOUND MASJID (Mosque),Mosque,"QCPP+FG2 STC COMPOUND MASJID (Mosque), Damodarpur, Dhanbad, Jharkhand 826001",Damodarpur,QCPP+FG2,Dhanbad,826001,Jharkhand,IN,https://www.google.com/maps/place/STC+COMPOUND+MASJID+%28Mosque%29/data=!4m7!3m6!1s0x39f6bd2210e18357:0xba258f3fa74617c1!8m2!3d23.7861259!4d86.4362635!16s%2Fg%2F11gs5tq_93!19sChIJV4PhECK99jkRwRdGpz-PJbo?authuser=0&hl=en&rclk=1,"23.7861259,86.4362635"
Noor- E-Iman Masjid Dhanbad,Mosque,"Q9XX+PVF Noor- E-Iman Masjid Dhanbad, Raza Colony Rd, Wassepur, Dhanbad, Jharkhand 826001",Wassepur,"Q9XX+PVF, Raza Colony Rd",Dhanbad,826001,Jharkhand,IN,https://www.google.com/maps/place/Noor-+E-Iman+Masjid+Dhanbad/data=!4m7!3m6!1s0x39f6a3422d5eb10b:0x97a0052db32a31a9!8m2!3d23.7993111!4d86.3996681!16s%2Fg%2F11lh5r973f!19sChIJC7FeLUKj9jkRqTEqsy0FoJc?authuser=0&hl=en&rclk=1,"23.7993111,86.3996681"
Mosque,Mosque,"QCQ8+2M7 Mosque, Bank More, Dhanbad, Jharkhand 826001",Bank More,QCQ8+2M7,Dhanbad,826001,Jharkhand,IN,https://www.google.com/maps/place/Mosque/data=!4m7!3m6!1s0x39f6a33482e28b0f:0x104b832468c73451!8m2!3d23.7875381!4d86.4166753!16s%2Fg%2F1pv0tbcym!19sChIJD4vigjSj9jkRUTTHaCSDSxA?authuser=0&hl=en&rclk=1,"23.7875381,86.4166753"
Jama masjid,Mosque,"RF8F+JRP Jama masjid, Unnamed Road, Chanakya Nagar, Kalakusuma, Jharkhand 828127",Chanakya Nagar,"RF8F+JRP, Unnamed Road",Kalakusuma,828127,Jharkhand,IN,https://www.google.com/maps/place/Jama+masjid/data=!4m7!3m6!1s0x39f6bd613dc649b3:0x5f532df47e6d2f13!8m2!3d23.8165796!4d86.4745796!16s%2Fg%2F11qn22khfk!19sChIJs0nGPWG99jkREy9tfvQtU18?authuser=0&hl=en&rclk=1,"23.816579599999997,86.4745796"
