name,main_category,address,address_ward,address_street,address_city,address_postal_code,address_state,address_country_code,link,coordinates
Jama Masjid,Mosque,"Jama Masjid, Old Delhi, Delhi, 110006","Jama Masjid, Old Delhi",,Delhi,110006,Delhi,IN,https://www.google.com/maps/place/Jama+Masjid/data=!4m7!3m6!1s0x390cfd18df89b215:0xdd57369e29bf9d96!8m2!3d28.6506792!4d77.2334421!16zL20vMDR5emo1!19sChIJFbKJ3xj9DDkRlp2_KZ42V90?authuser=0&hl=en&rclk=1,"28.6506792,77.23344209999999"
Sarai Allawardi Masjid,Mosque,"F2X9+P7M Sarai Allawardi Masjid, saray. alavardhi, Delhi NCR, Chauma Rd, Sarai Allwardi, New Palam Vihar Phase 1, Sector 110, Gurugram, Haryana 122017","Sarai Allwardi, New Palam Vihar Phase 1, Sector 110","F2X9+P7M, saray. alavardhi, Delhi NCR, Chauma Rd",Gurugram,122017,Haryana,IN,https://www.google.com/maps/place/Sarai+Allawardi+Masjid/data=!4m7!3m6!1s0x390d19e4e905df13:0x8558ebcd18672cae!8m2!3d28.4993403!4d77.0181778!16s%2Fg%2F11fzjdx37m!19sChIJE98F6eQZDTkRrixnGM3rWIU?authuser=0&hl=en&rclk=1,"28.4993403,77.01817779999999"
Bait Ul Uloom Masjid and Madarsa,Mosque,"2WH4+6QV Bait Ul Uloom Masjid and Madarsa, Saraimir, Basti, Uttar Pradesh",,"2WH4+6QV, Saraimir",Basti,,Uttar Pradesh,IN,https://www.google.com/maps/place/Bait+Ul+Uloom+Masjid+and+Madarsa/data=!4m7!3m6!1s0x39904d34b18af207:0x87b0d0dace4ddff1!8m2!3d26.028122!4d82.9069318!16s%2Fg%2F1hc12vqkg!19sChIJB_KKsTRNkDkR8d9NztrQsIc?authuser=0&hl=en&rclk=1,"26.028122,82.9069318"
Minara Masjid Sarai,Mosque,"2WG9+MP5 Minara Masjid Sarai, Chak Kamaluddin, Uttar Pradesh 276305",,2WG9+MP5,Chak Kamaluddin,276305,Uttar Pradesh,IN,https://www.google.com/maps/place/Minara+Masjid+Sarai/data=!4m7!3m6!1s0x3991b2c5e70ea4b3:0x416b4cf2c356045d!8m2!3d26.0266291!4d82.9193484!16s%2Fg%2F11gbl438f8!19sChIJs6QO58WykTkRXQRWw_JMa0E?authuser=0&hl=en&rclk=1,"26.026629099999997,82.91934839999999"
Sanjarpur Masjid snjrpwr msjd,Mosque,"2X7F+F92 Sanjarpur Masjid snjrpwr msjd, Sanjarpur, Khand Wari, Uttar Pradesh 223227",,2X7F+F92,"Sanjarpur, Khand Wari",223227,Uttar Pradesh,IN,https://www.google.com/maps/place/Sanjarpur+Masjid+%D8%B3%D9%86%D8%AC%D8%B1%D9%BE%D9%88%D8%B1+%D9%85%D8%B3%D8%AC%D8%AF%E2%80%AD/data=!4m7!3m6!1s0x3991b2353be64843:0x39d82d1641391e1b!8m2!3d26.0136329!4d82.9733804!16s%2Fg%2F11c48sqgm2!19sChIJQ0jmOzWykTkRGx45QRYt2Dk?authuser=0&hl=en&rclk=1,"26.013632899999998,82.9733804"
Manjeer Patti purani jama masjid,Mosque,"2XV2+RG3 Manjeer Patti purani jama masjid, Unnamed Road, Tandva, Uttar Pradesh 276305",,"2XV2+RG3, Unnamed Road",Tandva,276305,Uttar Pradesh,IN,https://www.google.com/maps/place/Manjeer+Patti+purani+jama+masjid/data=!4m7!3m6!1s0x3991b35ba2c2f21d:0x34c6340048e76c4b!8m2!3d26.0445171!4d82.9512839!16s%2Fg%2F11h2q389kp!19sChIJHfLColuzkTkRS2znSAA0xjQ?authuser=0&hl=en&rclk=1,"26.0445171,82.95128389999999"
Madrasatul Islaah Mosque,Mosque,"2WMF+MXQ Madrasatul Islaah Mosque, Azamgarh, Uttar Pradesh 276305",,2WMF+MXQ,Azamgarh,276305,Uttar Pradesh,IN,https://www.google.com/maps/place/Madrasatul+Islaah+Mosque/data=!4m7!3m6!1s0x3991b2bf643cb1a5:0x6bf277a4ff0eb166!8m2!3d26.034202!4d82.9249884!16s%2Fg%2F11fzc09fqm!19sChIJpbE8ZL-ykTkRZrEO_6R38ms?authuser=0&hl=en&rclk=1,"26.034202,82.92498839999999"
Jama Masjid Manjeer Patti Saraimeer jm` msjd,Mosque,"2XW2+33V Jama Masjid Manjeer Patti Saraimeer jm` msjd, Tandva, Uttar Pradesh 276305",,2XW2+33V,Tandva,276305,Uttar Pradesh,IN,https://www.google.com/maps/place/Jama+Masjid+Manjeer+Patti+Saraimeer+%D8%AC%D8%A7%D9%85%D8%B9+%D9%85%D8%B3%D8%AC%D8%AF%E2%80%AD/data=!4m7!3m6!1s0x3991b28820028a51:0x70f9b20ca535c664!8m2!3d26.0452409!4d82.9501747!16s%2Fg%2F11f10gnjsh!19sChIJUYoCIIiykTkRZMY1pQyy-XA?authuser=0&hl=en&rclk=1,"26.0452409,82.95017469999999"
Masjide Raza msjd rD,Mosque,"2W39+C4J Masjide Raza msjd rD, Saraimeer - Gambheerpur-Martinganj Rd, Sarai Meer, Bibipur, Uttar Pradesh 276302",,"2W39+C4J, Saraimeer - Gambheerpur-Martinganj Rd","Sarai Meer, Bibipur",276302,Uttar Pradesh,IN,https://www.google.com/maps/place/Masjide+Raza+%D9%85%D8%B3%D8%AC%D8%AF+%D8%B1%D8%B6%D8%A7%E2%80%AD/data=!4m7!3m6!1s0x3991b32f56752e33:0xa10017771d6d50d2!8m2!3d26.0035973!4d82.9177709!16s%2Fg%2F11c61hcbcq!19sChIJMy51Vi-zkTkR0lBtHXcXAKE?authuser=0&hl=en&rclk=1,"26.0035973,82.9177709"
Jama Masjid jm` msjd,Mosque,"2X5C+CHX Jama Masjid jm` msjd, Sanjarpur, Khand Wari, Uttar Pradesh 223227",,2X5C+CHX,"Sanjarpur, Khand Wari",223227,Uttar Pradesh,IN,https://www.google.com/maps/place/Jama+Masjid+%D8%AC%D8%A7%D9%85%D8%B9+%D9%85%D8%B3%D8%AC%D8%AF%E2%80%AD/data=!4m7!3m6!1s0x3991b3b5890040d3:0x7dd82d38d037f339!8m2!3d26.0086069!4d82.9714872!16s%2Fg%2F11bzwn2zkh!19sChIJ00AAibWzkTkROfM30Dgt2H0?authuser=0&hl=en&rclk=1,"26.0086069,82.9714872"
Juma masjid surahin,Mosque,"XWQ7+RC9 Juma masjid surahin, Surahi Khurd, Kamal Pur, Uttar Pradesh 223227",,XWQ7+RC9,"Surahi Khurd, Kamal Pur",223227,Uttar Pradesh,IN,https://www.google.com/maps/place/Juma+masjid+surahin/data=!4m7!3m6!1s0x3991b3368c678c1d:0x5198217d575271aa!8m2!3d25.9895268!4d82.913609!16s%2Fg%2F11c545ydt6!19sChIJHYxnjDazkTkRqnFSV30hmFE?authuser=0&hl=en&rclk=1,"25.9895268,82.913609"
Ayesha Jama Masjid,Mosque,"2WCG+P7G Ayesha Jama Masjid, Sarai Meer, Chak Munauvar, Uttar Pradesh 276305",,2WCG+P7G,"Sarai Meer, Chak Munauvar",276305,Uttar Pradesh,IN,https://www.google.com/maps/place/Ayesha+Jama+Masjid/data=!4m7!3m6!1s0x3991b2dcd45d7f97:0xa1e962b68e95324!8m2!3d26.0218037!4d82.9257!16s%2Fg%2F11crzwqxmx!19sChIJl39d1NyykTkRJFPpaCuWHgo?authuser=0&hl=en&rclk=1,"26.0218037,82.92569999999999"
Jama Masjidjm` msjd,Mosque,"2X4H+P7M Jama Masjidjm` msjd, Daudpur, Khand Wari, Uttar Pradesh 223227",,2X4H+P7M,"Daudpur, Khand Wari",223227,Uttar Pradesh,IN,https://www.google.com/maps/place/Jama+Masjid%D8%AC%D8%A7%D9%85%D8%B9+%D9%85%D8%B3%D8%AC%D8%AF%E2%80%AD/data=!4m7!3m6!1s0x3991b3cea08d599f:0x49f14f913a691a2d!8m2!3d26.0068281!4d82.9781719!16s%2Fg%2F11c3svq6c8!19sChIJn1mNoM6zkTkRLRppOpFP8Uk?authuser=0&hl=en&rclk=1,"26.0068281,82.97817189999999"
"Masjid Khandwari , Azamgarh",Mosque,"2X37+79J Masjid Khandwari , Azamgarh, Khand Wari, Uttar Pradesh 223227",,2X37+79J,Khand Wari,223227,Uttar Pradesh,IN,"https://www.google.com/maps/place/Masjid+Khandwari+,+Azamgarh/data=!4m7!3m6!1s0x3991b32a28211edf:0x1bd008368f2845f2!8m2!3d26.0032097!4d82.9633943!16s%2Fg%2F11f9x7lzs8!19sChIJ3x4hKCqzkTkR8kUojzYI0Bs?authuser=0&hl=en&rclk=1","26.0032097,82.96339429999999"
Masjid E Noor,Mosque,"2WM6+M3P Masjid E Noor, Hajipur, Uttar Pradesh 276305",,2WM6+M3P,Hajipur,276305,Uttar Pradesh,IN,https://www.google.com/maps/place/Masjid+E+Noor/data=!4m7!3m6!1s0x3991b2b5993eb597:0x9472c06e9ece3287!8m2!3d26.034211!4d82.9102135!16s%2Fg%2F11f10g1v4s!19sChIJl7U-mbWykTkRhzLOnm7AcpQ?authuser=0&hl=en&rclk=1,"26.034211,82.9102135"
Mohd Danish,Mosque,"2W9C+F2H Mohd Danish, Sarai Meer, Uttar Pradesh 276305",,2W9C+F2H,Sarai Meer,276305,Uttar Pradesh,IN,https://www.google.com/maps/place/Mohd+Danish/data=!4m7!3m6!1s0x3991b2da5639c733:0xbe38852d3daeec6c!8m2!3d26.0186889!4d82.9201226!16s%2Fg%2F1yg4dgy_d!19sChIJM8c5VtqykTkRbOyuPS2FOL4?authuser=0&hl=en&rclk=1,"26.018688899999997,82.9201226"
Eidgaah Sanjarpur,Mosque,"2X5C+W3G Eidgaah Sanjarpur, Sanjarpur, Khand Wari, Uttar Pradesh 223227",,2X5C+W3G,"Sanjarpur, Khand Wari",223227,Uttar Pradesh,IN,https://www.google.com/maps/place/Eidgaah+Sanjarpur/data=!4m7!3m6!1s0x3991b3b50b7ca9e5:0x9699bb3ea078df7d!8m2!3d26.0098136!4d82.9701903!16s%2Fg%2F11fy_g3mfm!19sChIJ5al8C7WzkTkRfd94oD67mZY?authuser=0&hl=en&rclk=1,"26.009813599999998,82.9701903"
Masjid E Shakireen,Mosque,"3VRW+5MG Masjid E Shakireen, Mundiyar, Uttar Pradesh 276304",,3VRW+5MG,Mundiyar,276304,Uttar Pradesh,IN,https://www.google.com/maps/place/Masjid+E+Shakireen/data=!4m7!3m6!1s0x399052cffa1d45e9:0xbffba214946b3fb9!8m2!3d26.090434!4d82.8967005!16s%2Fg%2F11b6gdlp50!19sChIJ6UUd-s9SkDkRuT9rlBSi-78?authuser=0&hl=en&rclk=1,"26.090434,82.8967005"
Masjid E Nazeer Baitul Uloom,Mosque,"2WH4+2Q5 Masjid E Nazeer Baitul Uloom, Basti, Uttar Pradesh 276305",,2WH4+2Q5,Basti,276305,Uttar Pradesh,IN,https://www.google.com/maps/place/Masjid+E+Nazeer+Baitul+Uloom/data=!4m7!3m6!1s0x39904d34adb3a77f:0xebb190c10c9918ba!8m2!3d26.0275079!4d82.9069982!16s%2Fg%2F11f13cdtxc!19sChIJf6ezrTRNkDkRuhiZDMGQses?authuser=0&hl=en&rclk=1,"26.0275079,82.90699819999999"
kanaitha Jama masjid jm` msjd,Mosque,"2XC5+38F kanaitha Jama masjid jm` msjd, Kanaitha, Khanpur, Uttar Pradesh 223227",,2XC5+38F,"Kanaitha, Khanpur",223227,Uttar Pradesh,IN,https://www.google.com/maps/place/kanaitha+Jama+masjid+%D8%AC%D8%A7%D9%85%D8%B9+%D9%85%D8%B3%D8%AC%D8%AF%E2%80%AD/data=!4m7!3m6!1s0x3991b318d3fda20d:0x34c1838bd95c8ddc!8m2!3d26.0201892!4d82.9583121!16s%2Fg%2F11g_x6nvlh!19sChIJDaL90xizkTkR3I1c2YuDwTQ?authuser=0&hl=en&rclk=1,"26.020189199999997,82.9583121"
Jama Masjid Qadeem,Mosque,"2WG8+7MH Jama Masjid Qadeem, Sarai Meer, Shervan, Uttar Pradesh 276305",,2WG8+7MH,"Sarai Meer, Shervan",276305,Uttar Pradesh,IN,https://www.google.com/maps/place/Jama+Masjid+Qadeem/data=!4m7!3m6!1s0x3991b30e27ee8419:0xcf3eeea963d4e044!8m2!3d26.0256998!4d82.9167217!16s%2Fg%2F11h22sbntp!19sChIJGYTuJw6zkTkRRODUY6nuPs8?authuser=0&hl=en&rclk=1,"26.025699799999998,82.9167217"
Masjid Kharewa Mod,Mosque,"2WJ8+Q4Q Masjid Kharewa Mod, Bharauli, Uttar Pradesh 276305",,2WJ8+Q4Q,Bharauli,276305,Uttar Pradesh,IN,https://www.google.com/maps/place/Masjid+Kharewa+Mod/data=!4m7!3m6!1s0x3991b3b3959039ef:0xd1fca1ee8b2b3228!8m2!3d26.0319657!4d82.9153616!16s%2Fg%2F11fd71mdnw!19sChIJ7zmQlbOzkTkRKDIri-6h_NE?authuser=0&hl=en&rclk=1,"26.031965699999997,82.9153616"
Jama Masjid Pendra,Mosque,"2W5J+W7V Jama Masjid Pendra, Sarai Meer, Uttar Pradesh 223227",,2W5J+W7V,Sarai Meer,,Uttar Pradesh,IN,https://www.google.com/maps/place/Jama+Masjid+Pendra/data=!4m7!3m6!1s0x3991b3e0f065d241:0x9258a9ad2b1f1312!8m2!3d26.0098679!4d82.9306638!16s%2Fg%2F11h7f6sqwn!19sChIJQdJl8OCzkTkREhMfK62pWJI?authuser=0&hl=en&rclk=1,"26.0098679,82.93066379999999"
Jama Masjid,Mosque,"2WXG+GR4 Jama Masjid, Raja Pur Sikraur, Uttar Pradesh 276305",,2WXG+GR4,Raja Pur Sikraur,276305,Uttar Pradesh,IN,https://www.google.com/maps/place/Jama+Masjid/data=!4m7!3m6!1s0x3991b332ba7cb023:0xaa76fba73f1d88ed!8m2!3d26.0487731!4d82.9270651!16s%2Fg%2F11h6l8288s!19sChIJI7B8ujKzkTkR7YgdP6f7dqo?authuser=0&hl=en&rclk=1,"26.0487731,82.9270651"
Masjid Umar,Mosque,"2WJ8+56G Masjid Umar, Bharauli, Uttar Pradesh 276305",,2WJ8+56G,Bharauli,276305,Uttar Pradesh,IN,https://www.google.com/maps/place/Masjid+Umar/data=!4m7!3m6!1s0x3991b2c856418aa7:0x6a564834ba3ab3fa!8m2!3d26.030446!4d82.9155843!16s%2Fg%2F11g9g0vp6d!19sChIJp4pBVsiykTkR-rM6ujRIVmo?authuser=0&hl=en&rclk=1,"26.030445999999998,82.91558429999999"
Masjid e Islam msjd slm,Mosque,"Masjid e Islam msjd slm, Mumtaz Nagar, Phariha, Kaji Yakubpur, Uttar Pradesh 223227",Phariha,Mumtaz Nagar,Kaji Yakubpur,223227,Uttar Pradesh,IN,https://www.google.com/maps/place/Masjid+e+Islam+%D9%85%D8%B3%D8%AC%D8%AF+%D8%A7%D8%B3%D9%84%D8%A7%D9%85%E2%80%AD/data=!4m7!3m6!1s0x3991b1113ca14471:0x1daa4e33febb673c!8m2!3d25.9983919!4d83.0220448!16s%2Fg%2F11f0_gvmcz!19sChIJcUShPBGxkTkRPGe7_jNOqh0?authuser=0&hl=en&rclk=1,"25.998391899999998,83.0220448"
Masjid E Ayesha(R.A.) msjd `y'shh Daudpur,Mosque,"Masjid E Ayesha(R.A.) msjd `y'shh Daudpur, Daudpur, Sanjarpur, Uttar Pradesh 223227",,Daudpur,"Sanjarpur, Khand Wari",223227,Uttar Pradesh,IN,https://www.google.com/maps/place/Masjid+E+Ayesha%28R.A.%29+%D9%85%D8%B3%D8%AC%D8%AF+%D8%B9%D8%A7%D8%A6%D8%B4%DB%81+Daudpur%E2%80%AD/data=!4m7!3m6!1s0x3991b3533f144cc5:0x339db386a1c14723!8m2!3d26.0074258!4d82.9763903!16s%2Fg%2F11ll8dkqhd!19sChIJxUwUP1OzkTkRI0fBoYaznTM?authuser=0&hl=en&rclk=1,"26.0074258,82.97639029999999"
MASJID MEER SABIR HUSAIN,Mosque,"4PGR+5Q9 MASJID MEER SABIR HUSAIN, ADAL SAHAB, Sarai Meer, Uttar Pradesh",,"4PGR+5Q9, ADAL SAHAB","Sarai Meer, Kalpi",,Uttar Pradesh,IN,https://www.google.com/maps/place/MASJID+MEER+SABIR+HUSAIN/data=!4m7!3m6!1s0x399da1e044d9fb1b:0x67dd1aea92864ccd!8m2!3d26.1254191!4d79.7419933!16s%2Fg%2F11fx7nl1v5!19sChIJG_vZROChnTkRzUyGkuoa3Wc?authuser=0&hl=en&rclk=1,"26.1254191,79.74199329999999"
jm` msjd smry,Mosque,"4X2X+CVR jm` msjd smry, Mirza Aftab Rd, Semari, Khalia, Uttar Pradesh 276206",,"4X2X+CVR, Mirza Aftab Rd","Semari, Khalia",276206,Uttar Pradesh,IN,https://www.google.com/maps/place/%D8%AC%D8%A7%D9%85%D8%B9+%D9%85%D8%B3%D8%AC%D8%AF+%D8%B3%D9%85%D8%B1%DB%8C%E2%80%AD/data=!4m7!3m6!1s0x3991afafb02fffb3:0xa799388bd7fe1343!8m2!3d26.1011061!4d82.9996497!16s%2Fg%2F11nxv874fc!19sChIJs_8vsK-vkTkRQxP-14s4mac?authuser=0&hl=en&rclk=1,"26.1011061,82.99964969999999"
Zahid Colony Masjid,Mosque,"2WJ7+74X Zahid Colony Masjid, Zahid Colony Siraji ka Pura, Sarai Meer, Uttar Pradesh",,"2WJ7+74X, Zahid Colony Siraji ka Pura","Sarai Meer, Bharauli",,Uttar Pradesh,IN,https://www.google.com/maps/place/Zahid+Colony+Masjid/data=!4m7!3m6!1s0x3991b36cd623c743:0x2373bba1978f355c!8m2!3d26.0307274!4d82.9128674!16s%2Fg%2F11hdt5lb7m!19sChIJQ8cj1myzkTkRXDWPl6G7cyM?authuser=0&hl=en&rclk=1,"26.0307274,82.9128674"
Masjid msjd,Mosque,"2X6F+R59 Masjid msjd, Sanjarpur, Khand Wari, Uttar Pradesh 223227",,2X6F+R59,"Sanjarpur, Khand Wari",223227,Uttar Pradesh,IN,https://www.google.com/maps/place/Masjid+%D9%85%D8%B3%D8%AC%D8%AF%E2%80%AD/data=!4m7!3m6!1s0x3991b3fa86b38bf9:0xad5c4881fde8864f!8m2!3d26.0120425!4d82.9729859!16s%2Fg%2F11g4czt14t!19sChIJ-YuzhvqzkTkRT4bo_YFIXK0?authuser=0&hl=en&rclk=1,"26.0120425,82.9729859"
Masjid Chand Tara Kharewan,Mosque,"2WM6+XM8 Masjid Chand Tara Kharewan, Hajipur, Uttar Pradesh 276305",,2WM6+XM8,Hajipur,276305,Uttar Pradesh,IN,https://www.google.com/maps/place/Masjid+Chand+Tara+Kharewan/data=!4m7!3m6!1s0x3991b3c65cd15fbf:0xc232c8d29cfc6f2b!8m2!3d26.0349208!4d82.9117035!16s%2Fg%2F11gtzc90hd!19sChIJv1_RXMazkTkRK2_8nNLIMsI?authuser=0&hl=en&rclk=1,"26.0349208,82.9117035"
Noor masjid,Mosque,"2W5M+M6Q Noor masjid, Pedra Gangapur, Achalpur, Uttar Pradesh 223227",,2W5M+M6Q,"Pedra Gangapur, Achalpur",,Uttar Pradesh,IN,https://www.google.com/maps/place/Noor+masjid/data=!4m7!3m6!1s0x3991b3a36ee478ed:0xe533cb2c4b707948!8m2!3d26.0092101!4d82.9331092!16s%2Fg%2F11flbd0zy2!19sChIJ7XjkbqOzkTkRSHlwSyzLM-U?authuser=0&hl=en&rclk=1,"26.009210099999997,82.93310919999999"
Mosque msjd,Mosque,"2X7F+46J Mosque msjd, Sanjarpur, Khand Wari, Uttar Pradesh 223227",,2X7F+46J,"Sanjarpur, Khand Wari",223227,Uttar Pradesh,IN,https://www.google.com/maps/place/Mosque+%D9%85%D8%B3%D8%AC%D8%AF%E2%80%AD/data=!4m7!3m6!1s0x3991b235358dc39d:0x1990938129e0de93!8m2!3d26.0128254!4d82.9730098!16s%2Fg%2F11dxkvvmn8!19sChIJncONNTWykTkRk97gKYGTkBk?authuser=0&hl=en&rclk=1,"26.0128254,82.9730098"
Noorani Masjid,Mosque,"Noorani Masjid, Rasoolpur, babu ki basi chowk, Sarai Meer, Uttar Pradesh 276304",,"Rasoolpur, babu ki basi chowk",Sarai Meer,276304,Uttar Pradesh,IN,https://www.google.com/maps/place/Noorani+Masjid/data=!4m7!3m6!1s0x39904dc613cc77cb:0x2f2eb12be12cce0d!8m2!3d26.0294624!4d82.8803059!16s%2Fg%2F11p3b07fwk!19sChIJy3fME8ZNkDkRDc4s4SuxLi8?authuser=0&hl=en&rclk=1,"26.0294624,82.8803059"
Jama masjid sarai gobindrai,Mosque,"QWQC+4P Jama masjid sarai gobindrai, Sarai Govind Ram, Uttar Pradesh 230404",,QWQC+4P,Sarai Govind Ram,,Uttar Pradesh,IN,https://www.google.com/maps/place/Jama+masjid+sarai+gobindrai/data=!4m7!3m6!1s0x399abf5560574da9:0x3b2f3d4c6a0901d!8m2!3d25.7878655!4d81.9218918!16s%2Fg%2F11rly737y_!19sChIJqU1XYFW_mjkRHZCgxtTzsgM?authuser=0&hl=en&rclk=1,"25.7878655,81.9218918"
Madina Mosque mdynh msjd,Mosque,"2WG8+CCX Madina Mosque mdynh msjd, Shervan, Uttar Pradesh 276305",,2WG8+CCX,Shervan,276305,Uttar Pradesh,IN,https://www.google.com/maps/place/Madina+Mosque+%D9%85%D8%AF%DB%8C%D9%86%DB%81+%D9%85%D8%B3%D8%AC%D8%AF%E2%80%AD/data=!4m7!3m6!1s0x3991b2cf3dd36a93:0xaadfcaeaaa1971d6!8m2!3d26.0261172!4d82.9161042!16s%2Fg%2F11fy_flw13!19sChIJk2rTPc-ykTkR1nEZqurK36o?authuser=0&hl=en&rclk=1,"26.026117199999998,82.91610419999999"
Noorani Masjid nwrny msjd,Mosque,"2X56+VHQ Noorani Masjid nwrny msjd, Khand Wari, Uttar Pradesh 223227",,2X56+VHQ,Khand Wari,223227,Uttar Pradesh,IN,https://www.google.com/maps/place/Noorani+Masjid+%D9%86%D9%88%D8%B1%D8%A7%D9%86%DB%8C+%D9%85%D8%B3%D8%AC%D8%AF%E2%80%AD/data=!4m7!3m6!1s0x3991b3b285211c1f:0x45ee9ee21f822235!8m2!3d26.009704!4d82.9614825!16s%2Fg%2F11f10dm52g!19sChIJHxwhhbKzkTkRNSKCH-Ke7kU?authuser=0&hl=en&rclk=1,"26.009704,82.9614825"
Market Wali Masjid mrkhtt wly msjd,Mosque,"2X75+6RX Market Wali Masjid mrkhtt wly msjd, Khand Wari, Uttar Pradesh 223227",,2X75+6RX,Khand Wari,223227,Uttar Pradesh,IN,https://www.google.com/maps/place/Market+Wali+Masjid+%D9%85%D8%A7%D8%B1%DA%A9%D9%B9+%D9%88%D8%A7%D9%84%DB%8C+%D9%85%D8%B3%D8%AC%D8%AF%E2%80%AD/data=!4m7!3m6!1s0x3991b252bf64498b:0xda8aa0810c06c624!8m2!3d26.0131173!4d82.9595956!16s%2Fg%2F11bwgw78p3!19sChIJi0lkv1KykTkRJMYGDIGgito?authuser=0&hl=en&rclk=1,"26.013117299999998,82.9595956"
Poorabwali Masjid,Mosque,"2X36+F8W Poorabwali Masjid, Khand Wari, Uttar Pradesh 223227",,2X36+F8W,Khand Wari,223227,Uttar Pradesh,IN,https://www.google.com/maps/place/Poorabwali+Masjid/data=!4m7!3m6!1s0x3991b3ae2840ecf7:0xc01b825ddc445bfb!8m2!3d26.0037489!4d82.9608206!16s%2Fg%2F11cksyptjh!19sChIJ9-xAKK6zkTkR-1tE3F2CG8A?authuser=0&hl=en&rclk=1,"26.003748899999998,82.96082059999999"
Imambara mm bdd,Mosque,"2W8Q+MHG Imambara mm bdd, Pedra Gangapur, Uttar Pradesh 223227",,2W8Q+MHG,Pedra Gangapur,,Uttar Pradesh,IN,https://www.google.com/maps/place/Imambara+%D8%A7%D9%85%D8%A7%D9%85+%D8%A8%D8%A7%DA%88%D8%A7%E2%80%AD/data=!4m7!3m6!1s0x3991b39955dedb2f:0x678f26b9b31cc3bc!8m2!3d26.0166753!4d82.9389548!16s%2Fg%2F11gxx78t_4!19sChIJL9veVZmzkTkRvMMcs7kmj2c?authuser=0&hl=en&rclk=1,"26.0166753,82.93895479999999"
Masjid E Jadeed Sarai Meer,Mosque,"2WG9+3P6 Masjid E Jadeed Sarai Meer, Chak Kamaluddin, Uttar Pradesh 276305",,2WG9+3P6,Chak Kamaluddin,276305,Uttar Pradesh,IN,https://www.google.com/maps/place/Masjid+E+Jadeed+Sarai+Meer/data=!4m7!3m6!1s0x3991b2c5a27c119d:0xb7e38372240376d3!8m2!3d26.0251552!4d82.9192535!16s%2Fg%2F11fy_fpgs1!19sChIJnRF8osWykTkR03YDJHKD47c?authuser=0&hl=en&rclk=1,"26.0251552,82.9192535"
Masjid E Bilaal Sarai Meer,Mosque,"2WFC+JMQ Masjid E Bilaal Sarai Meer, Chak Kamaluddin, Uttar Pradesh 276305",,2WFC+JMQ,Chak Kamaluddin,276305,Uttar Pradesh,IN,https://www.google.com/maps/place/Masjid+E+Bilaal+Sarai+Meer/data=!4m7!3m6!1s0x3991b2c4f266e3bd:0x25123d18ef8a785f!8m2!3d26.0240887!4d82.9217225!16s%2Fg%2F11gbkx8n_3!19sChIJveNm8sSykTkRX3iK7xg9EiU?authuser=0&hl=en&rclk=1,"26.0240887,82.9217225"
Siddique Masjid.,Mosque,"2WGF+86G Siddique Masjid., Saraimir Station Rd, Sarai Meer, Chak Kamaluddin, Uttar Pradesh 276305",,"2WGF+86G, Saraimir Station Rd","Sarai Meer, Chak Kamaluddin",276305,Uttar Pradesh,IN,https://www.google.com/maps/place/Siddique+Masjid./data=!4m7!3m6!1s0x3991b2c40f4f960f:0xce14608afd5d2e0a!8m2!3d26.0258016!4d82.9230789!16s%2Fg%2F11fxcfshdl!19sChIJD5ZPD8SykTkRCi5d_YpgFM4?authuser=0&hl=en&rclk=1,"26.025801599999998,82.9230789"
Rauza Masjid,Mosque,"2WH8+HG6 Rauza Masjid, Rauza Ali Ashqan, Sarai Meer, Bharauli, Uttar Pradesh 276305",,"2WH8+HG6, Rauza Ali Ashqan","Sarai Meer, Bharauli",276305,Uttar Pradesh,IN,https://www.google.com/maps/place/Rauza+Masjid/data=!4m7!3m6!1s0x3991b398cf33d4bd:0x6db9d52e6c9cb4c0!8m2!3d26.0289166!4d82.91628!16s%2Fg%2F11gy636gr8!19sChIJvdQzz5izkTkRwLScbC7VuW0?authuser=0&hl=en&rclk=1,"26.0289166,82.91628"
masjid e madad ali,Mosque,"2WH5+5PV masjid e madad ali, Zahid Colony, kharewan modh, Sarai Meer, Basti, Uttar Pradesh 276305","Zahid Colony, kharewan modh",2WH5+5PV,"Sarai Meer, Basti",,Uttar Pradesh,IN,https://www.google.com/maps/place/masjid+e+madad+ali/data=!4m7!3m6!1s0x3991b38e6bd12103:0x272065ba06f89507!8m2!3d26.0279947!4d82.9093092!16s%2Fg%2F11gxg_yzsl!19sChIJAyHRa46zkTkRB5X4BrplICc?authuser=0&hl=en&rclk=1,"26.027994699999997,82.9093092"
um e fatima masjid ( Mosque ),Mosque,"2W9F+F76 um e fatima masjid ( Mosque ), Chak Munauvar, Uttar Pradesh 223227",,2W9F+F76,Chak Munauvar,,Uttar Pradesh,IN,https://www.google.com/maps/place/um+e+fatima+masjid+%28+Mosque+%29/data=!4m7!3m6!1s0x3991b35733971683:0x533aa255e67a222!8m2!3d26.0186597!4d82.9231358!16s%2Fg%2F11h_3z3q6h!19sChIJgxaXM1ezkTkRIqJnXiWqMwU?authuser=0&hl=en&rclk=1,"26.018659699999997,82.9231358"
Jama Masjid Abdul Ghani ( Kharevan),Mosque,"Jama Masjid Abdul Ghani ( Kharevan), Kharewan, Sarai Meer, Uttar Pradesh 276305",,Kharewan,"Sarai Meer, Hajipur",276305,Uttar Pradesh,IN,https://www.google.com/maps/place/Jama+Masjid+Abdul+Ghani+%28+Kharevan%29/data=!4m7!3m6!1s0x3991b3914e54b017:0x3fc895c0c248484f!8m2!3d26.0341593!4d82.910251!16s%2Fg%2F11qbfkg46w!19sChIJF7BUTpGzkTkRT0hIwsCVyD8?authuser=0&hl=en&rclk=1,"26.0341593,82.910251"
"Masjid, Usarpar, Khandwari",Mosque,"2X33+5RQ Masjid, Usarpar, Khandwari, Khand Wari, Sarai Meer, Uttar Pradesh 223227",,2X33+5RQ,"Khand Wari, Sarai Meer",223227,Uttar Pradesh,IN,"https://www.google.com/maps/place/Masjid,+Usarpar,+Khandwari/data=!4m7!3m6!1s0x3991b368c0f11a45:0x6c327762a07f91e!8m2!3d26.0029742!4d82.95462!16s%2Fg%2F11gsmn4hr1!19sChIJRRrxwGizkTkRHvkHKnYnwwY?authuser=0&hl=en&rclk=1","26.0029742,82.95461999999999"
jm` msjd snjrpwr,Mosque,"2X6F+QRW jm` msjd snjrpwr, Mahekti Gali Uttar mahal sanjarpurUttar Pradesh, Khand Wari, Uttar Pradesh 223227",,"2X6F+QRW, Mahekti Gali Uttar mahal sanjarpurUttar Pradesh",Khand Wari,223227,Uttar Pradesh,IN,https://www.google.com/maps/place/%D8%AC%D8%A7%D9%85%D8%B9+%D9%85%D8%B3%D8%AC%D8%AF+%D8%B3%D9%86%D8%AC%D8%B1%D9%BE%D9%88%D8%B1%E2%80%AD/data=!4m7!3m6!1s0x3991b35c8043a9c3:0x83d22e61e85a7475!8m2!3d26.0119858!4d82.9745766!16s%2Fg%2F11rlkpf498!19sChIJw6lDgFyzkTkRdXRa6GEu0oM?authuser=0&hl=en&rclk=1,"26.011985799999998,82.97457659999999"
msjd llh,Mosque,"2WQH+PGQ msjd llh, Unnamed Road, Khud Kashta Urf Saraipur, Uttar Pradesh 276305",,"2WQH+PGQ, Unnamed Road",Khud Kashta Urf Saraipur,276305,Uttar Pradesh,IN,https://www.google.com/maps/place/%D9%85%D8%B3%D8%AC%D8%AF+%D9%84%D9%84%D9%87%E2%80%AD/data=!4m7!3m6!1s0x3991b31d9317a147:0x4f7607df0b07e7f1!8m2!3d26.0393486!4d82.928859!16s%2Fg%2F11mc6z0tkh!19sChIJR6EXkx2zkTkR8ecHC98Hdk8?authuser=0&hl=en&rclk=1,"26.0393486,82.928859"
Masjid Sarai Mubarak,Mosque,"37XH+JXF Masjid Sarai Mubarak, Sonapar, Uttar Pradesh 276404",,37XH+JXF,Sonapar,276404,Uttar Pradesh,IN,https://www.google.com/maps/place/Masjid+Sarai+Mubarak/data=!4m7!3m6!1s0x39919964b821babb:0x4b5d462c180e0631!8m2!3d26.0990515!4d83.2799259!16s%2Fg%2F11ll62n2rx!19sChIJu7ohuGSZkTkRMQYOGCxGXUs?authuser=0&hl=en&rclk=1,"26.099051499999998,83.2799259"
Umar Jumma Masjid,Mosque,"2W99+FJ8 Umar Jumma Masjid, Mahnoodpur Korauli, Sarai Meer, Uttar Pradesh 223227",,2W99+FJ8,"Mahnoodpur Korauli, Sarai Meer",223227,Uttar Pradesh,IN,https://www.google.com/maps/place/Umar+Jumma+Masjid/data=!4m7!3m6!1s0x3991b3a6d02f1f81:0xd2a3fd292370a0ad!8m2!3d26.0186625!4d82.9190809!16s%2Fg%2F11f64r87b3!19sChIJgR8v0KazkTkRraBwIyn9o9I?authuser=0&hl=en&rclk=1,"26.018662499999998,82.9190809"
Rahmat Msjid rHmt msjd,Mosque,"2W9G+V4Q Rahmat Msjid rHmt msjd, Rahmat kaloni, Sarai Meer, Chak Munauvar, Uttar Pradesh 223227",,2W9G+V4Q Rahmat kaloni,"Sarai Meer, Chak Munauvar",,Uttar Pradesh,IN,https://www.google.com/maps/place/Rahmat+Msjid+%D8%B1%D8%AD%D9%85%D8%AA+%D9%85%D8%B3%D8%AC%D8%AF%E2%80%AD/data=!4m7!3m6!1s0x3991b3d4c8560c8d:0xb1a9e6cd79461625!8m2!3d26.0197067!4d82.9253653!16s%2Fg%2F11fdx2qryj!19sChIJjQxWyNSzkTkRJRZGec3mqbE?authuser=0&hl=en&rclk=1,"26.0197067,82.9253653"
Masjid abdulsalam,Mosque,"2WJ5+7Q7 Masjid abdulsalam, Sarai Mir - Mahuwara Khurd Rd, Sarai Meer, Basti, Uttar Pradesh 276305",,"2WJ5+7Q7, Sarai Mir - Mahuwara Khurd Rd","Sarai Meer, Basti",276305,Uttar Pradesh,IN,https://www.google.com/maps/place/Masjid+abdulsalam/data=!4m7!3m6!1s0x3991b3b2097eb0ad:0xf81ee1668eea0cda!8m2!3d26.0306549!4d82.9094219!16s%2Fg%2F11nn0bd94d!19sChIJrbB-CbKzkTkR2gzqjmbhHvg?authuser=0&hl=en&rclk=1,"26.0306549,82.9094219"
Talib electrician,Mosque,"2WG9+HJ4 Talib electrician, Minara Masjid Gali, Chak Kamaluddin, Uttar Pradesh 276305",,"2WG9+HJ4, Minara Masjid Gali",Chak Kamaluddin,276305,Uttar Pradesh,IN,https://www.google.com/maps/place/Talib+electrician/data=!4m7!3m6!1s0x3991b304dbb635e3:0x77091ef76159ff76!8m2!3d26.0263936!4d82.9190935!16s%2Fg%2F11rcqmyndm!19sChIJ4zW22wSzkTkRdv9ZYfceCXc?authuser=0&hl=en&rclk=1,"26.0263936,82.9190935"
Masjid Main Bazar,Mosque,"2X6C+3H3 Masjid Main Bazar, Sanjarpur, Khand Wari, Uttar Pradesh 223227",,2X6C+3H3,"Sanjarpur, Khand Wari",223227,Uttar Pradesh,IN,https://www.google.com/maps/place/Masjid+Main+Bazar/data=!4m7!3m6!1s0x3991b37480fd90e5:0x95cc95d5f35d4012!8m2!3d26.01014!4d82.9714231!16s%2Fg%2F11j01pt60f!19sChIJ5ZD9gHSzkTkREkBd89WVzJU?authuser=0&hl=en&rclk=1,"26.01014,82.9714231"
Rahmat colony,Mosque,"2WCG+9HX Rahmat colony, Chak Munauvar, Uttar Pradesh 276305",,2WCG+9HX,Chak Munauvar,,Uttar Pradesh,IN,https://www.google.com/maps/place/Rahmat+colony/data=!4m7!3m6!1s0x3991b30eef32c4bf:0x2dba92a23830a746!8m2!3d26.0209788!4d82.9264988!16s%2Fg%2F11pr7nv0dg!19sChIJv8Qy7w6zkTkRRqcwOKKSui0?authuser=0&hl=en&rclk=1,"26.020978799999998,82.92649879999999"
Eid Gaah,Mosque,"2X35+M2V Eid Gaah, Chak Mahuari, Uttar Pradesh 223227",,2X35+M2V,Chak Mahuari,223227,Uttar Pradesh,IN,https://www.google.com/maps/place/Eid+Gaah/data=!4m7!3m6!1s0x3991b366892ec5b7:0xdd44933b19890f68!8m2!3d26.004228!4d82.9575575!16s%2Fg%2F11r6hgz455!19sChIJt8UuiWazkTkRaA-JGTuTRN0?authuser=0&hl=en&rclk=1,"26.004227999999998,82.9575575"
"Masjid Sanjarpur , Azamgarh msjd",Mosque,"2X7F+MJ2 Masjid Sanjarpur , Azamgarh msjd, Sanjarpur, Khand Wari, Uttar Pradesh 223227",,2X7F+MJ2,"Sanjarpur, Khand Wari",223227,Uttar Pradesh,IN,"https://www.google.com/maps/place/Masjid+Sanjarpur+,+Azamgarh+%D9%85%D8%B3%D8%AC%D8%AF%E2%80%AD/data=!4m7!3m6!1s0x3991b3fcdb43cda3:0x834c12d0e813edae!8m2!3d26.0141414!4d82.9740026!16s%2Fg%2F11g4dx61ys!19sChIJo81D2_yzkTkRru0T6NASTIM?authuser=0&hl=en&rclk=1","26.0141414,82.97400259999999"
Shia masjid nikamuddinpur shy`h msjd,Mosque,"2W9Q+6MG Shia masjid nikamuddinpur shy`h msjd, Nikamuddinpur, Pedra Gangapur, Uttar Pradesh 276305",,2W9Q+6MG,"Nikamuddinpur, Pedra Gangapur",276305,Uttar Pradesh,IN,https://www.google.com/maps/place/Shia+masjid+nikamuddinpur+%D8%B4%DB%8C%D8%B9%DB%81+%D9%85%D8%B3%D8%AC%D8%AF%E2%80%AD/data=!4m7!3m6!1s0x3991b37622de37ed:0xd0b88449b0c609ff!8m2!3d26.0180625!4d82.9391875!16s%2Fg%2F11h47zqrr_!19sChIJ7TfeInazkTkR_wnGsEmEuNA?authuser=0&hl=en&rclk=1,"26.0180625,82.9391875"
Madarsa islah,Mosque,"2W4V+4W6 Madarsa islah, Sarai Meer, Uttar Pradesh 223227",,2W4V+4W6,Sarai Meer,,Uttar Pradesh,IN,https://www.google.com/maps/place/Madarsa+islah/data=!4m7!3m6!1s0x3991b39a2a46633d:0x638b571609952562!8m2!3d26.0052917!4d82.9447782!16s%2Fg%2F11t845k_bs!19sChIJPWNGKpqzkTkRYiWVCRZXi2M?authuser=0&hl=en&rclk=1,"26.005291699999997,82.9447782"
Rakshpalpur Mosque,Mosque,"XXR9+98P Rakshpalpur Mosque, Rakshpal Pur, Reevan, Uttar Pradesh 223227",,XXR9+98P,"Rakshpal Pur, Reevan",,Uttar Pradesh,IN,https://www.google.com/maps/place/Rakshpalpur+Mosque/data=!4m7!3m6!1s0x3991b3ec5bc55a6d:0x83323337142e85e4!8m2!3d25.9909564!4d82.9683338!16s%2Fg%2F11s8m70jq4!19sChIJbVrFW-yzkTkR5IUuFDczMoM?authuser=0&hl=en&rclk=1,"25.990956399999998,82.9683338"
Sakir Miya masjid,Mosque,"3MG6+4WC Sakir Miya masjid, Chendri Akbarpur, Uttar Pradesh 244501",,3MG6+4WC,Chendri Akbarpur,,Uttar Pradesh,IN,https://www.google.com/maps/place/Sakir+Miya+masjid/data=!4m7!3m6!1s0x390a530bfa3915a5:0xc4531241dd78245b!8m2!3d29.0753242!4d78.6622663!16s%2Fg%2F11t89h4zfs!19sChIJpRU5-gtTCjkRWyR43UESU8Q?authuser=0&hl=en&rclk=1,"29.075324199999997,78.6622663"
Masjid Sarai (Saraye),Mosque,"94QF+XRV Masjid Sarai (Saraye), Unnamed Road, Hardoi, Uttar Pradesh 241001",,"94QF+XRV, Unnamed Road",Hardoi,241001,Uttar Pradesh,IN,https://www.google.com/maps/place/Masjid+Sarai+%28Saraye%29/data=!4m7!3m6!1s0x399ef946de76775f:0x58a529a0adb4b153!8m2!3d27.3899863!4d80.124548!16s%2Fg%2F11fjzx3pxz!19sChIJX3d23kb5njkRU7G0raAppVg?authuser=0&hl=en&rclk=1,"27.3899863,80.12454799999999"
Masjid msjid Sarai,Mosque,"V889+VWR Masjid msjid Sarai, Sarai Durga Das, Uttar Pradesh 222125",,V889+VWR,Sarai Durga Das,,Uttar Pradesh,IN,https://www.google.com/maps/place/Masjid+%E0%A4%AE%E0%A4%B8%E0%A5%8D%E0%A4%9C%E0%A4%BF%E0%A4%A6+Sarai/data=!4m7!3m6!1s0x3990733c7795734b:0x3f23709567fdcb9d!8m2!3d25.867232!4d82.3197711!16s%2Fg%2F11trlnq09l!19sChIJS3OVdzxzkDkRncv9Z5VwIz8?authuser=0&hl=en&rclk=1,"25.867231999999998,82.3197711"
Jama Masjid Sarai Jamuni,Mosque,"R425+GH5 Jama Masjid Sarai Jamuni, Sarai Jamuni, Uttar Pradesh 230302",,R425+GH5,Sarai Jamuni,230302,Uttar Pradesh,IN,https://www.google.com/maps/place/Jama+Masjid+Sarai+Jamuni/data=!4m7!3m6!1s0x399aa316b4f483d1:0xc8049dc91b5dada9!8m2!3d25.8012522!4d82.1089723!16s%2Fg%2F11qs1p6rrb!19sChIJ0YP0tBajmjkRqa1dG8mdBMg?authuser=0&hl=en&rclk=1,"25.8012522,82.10897229999999"
Sherwan Jama Masjid west,Mosque,"2WC8+3JF Sherwan Jama Masjid west, Mahnoodpur Korauli, Uttar Pradesh 276305",,2WC8+3JF,Mahnoodpur Korauli,,Uttar Pradesh,IN,https://www.google.com/maps/place/Sherwan+Jama+Masjid+west/data=!4m7!3m6!1s0x3991b3f995c99c17:0x2e8e030e900d460a!8m2!3d26.0201769!4d82.9165597!16s%2Fg%2F11rgdtm43r!19sChIJF5zJlfmzkTkRCkYNkA4Dji4?authuser=0&hl=en&rclk=1,"26.0201769,82.9165597"
Karmani Masjid,Mosque,"2WR8+P79 Karmani Masjid, Sarai Meer, Fattanpur, Uttar Pradesh 276305",,2WR8+P79,"Sarai Meer, Fattanpur",,Uttar Pradesh,IN,https://www.google.com/maps/place/Karmani+Masjid/data=!4m7!3m6!1s0x3991b3af655a5c9f:0x29bf4a09794228c8!8m2!3d26.0417798!4d82.9157308!16s%2Fg%2F11tww2p2lf!19sChIJn1xaZa-zkTkRyChCeQlKvyk?authuser=0&hl=en&rclk=1,"26.0417798,82.91573079999999"
Ram Adhar Maurya,Mosque,"2WH8+VC5 Ram Adhar Maurya, SH 30, Sarai Meer, Bharauli, Uttar Pradesh 276305",,"2WH8+VC5, SH 30","Sarai Meer, Bharauli",276305,Uttar Pradesh,IN,https://www.google.com/maps/place/Ram+Adhar+Maurya/data=!4m7!3m6!1s0x3991b35d6b06754d:0x94ce1d430d8b018a!8m2!3d26.0296417!4d82.9161033!16s%2Fg%2F11n5p2p3cc!19sChIJTXUGa12zkTkRigGLDUMdzpQ?authuser=0&hl=en&rclk=1,"26.0296417,82.9161033"
Jama masjid,Mosque,"2WQJ+RGJ Jama masjid, Hasanpur, Sarai Meer, Uttar Pradesh",,"2WQJ+RGJ, Hasanpur","Sarai Meer, Arjun Patti",,Uttar Pradesh,IN,https://www.google.com/maps/place/Jama+masjid/data=!4m7!3m6!1s0x3991b3aa996e138b:0x1b7b9e6e141abb99!8m2!3d26.0395908!4d82.9312725!16s%2Fg%2F11hq0w653r!19sChIJixNumaqzkTkRmbsaFG6eexs?authuser=0&hl=en&rclk=1,"26.0395908,82.93127249999999"
Qadeem jama masjid,Mosque,"2W5C+QW2 Qadeem jama masjid, Israuli, Uttar Pradesh 223227",,2W5C+QW2,Israuli,223227,Uttar Pradesh,IN,https://www.google.com/maps/place/Qadeem+jama+masjid/data=!4m7!3m6!1s0x3991b36ac392b213:0xf60f3c1f6b4de7c1!8m2!3d26.0094111!4d82.9223863!16s%2Fg%2F11k4xtfy5d!19sChIJE7KSw2qzkTkRwedNax88D_Y?authuser=0&hl=en&rclk=1,"26.009411099999998,82.9223863"
Hara Gate Masjid,Mosque,"2X69+F69 Hara Gate Masjid, Sanjarpur, Khand Wari, Uttar Pradesh 223227",,2X69+F69,"Sanjarpur, Khand Wari",223227,Uttar Pradesh,IN,https://www.google.com/maps/place/Hara+Gate+Masjid/data=!4m7!3m6!1s0x3991b37f8215616b:0x7fd65f6a2577233e!8m2!3d26.0111724!4d82.9681122!16s%2Fg%2F11v66nssv6!19sChIJa2EVgn-zkTkRPiN3JWpf1n8?authuser=0&hl=en&rclk=1,"26.0111724,82.9681122"
msjd llh,Mosque,"2VCQ+H9F msjd llh, Unnamed Road, Asadha, Uttar Pradesh 223227",,"2VCQ+H9F, Unnamed Road",Asadha,223227,Uttar Pradesh,IN,https://www.google.com/maps/place/%D9%85%D8%B3%D8%AC%D8%AF+%D9%84%D9%84%D9%87%E2%80%AD/data=!4m7!3m6!1s0x39904d9e6cdfd2ad:0xfa5497b3fd92574e!8m2!3d26.0214438!4d82.888432!16s%2Fg%2F11n2gv4c6k!19sChIJrdLfbJ5NkDkRTleS_bOXVPo?authuser=0&hl=en&rclk=1,"26.0214438,82.888432"
Masjid Ali,Mosque,"2X7F+46J Masjid Ali, Sanjarpur, Khand Wari, Uttar Pradesh 223227",,2X7F+46J,"Sanjarpur, Khand Wari",223227,Uttar Pradesh,IN,https://www.google.com/maps/place/Masjid+Ali/data=!4m7!3m6!1s0x3991b3859402f2bb:0x220cab09dd012d43!8m2!3d26.0128375!4d82.9730156!16s%2Fg%2F11s4x30ynk!19sChIJu_IClIWzkTkRQy0B3QmrDCI?authuser=0&hl=en&rclk=1,"26.0128375,82.9730156"
