name,main_category,address,address_ward,address_street,address_city,address_postal_code,address_state,address_country_code,link,coordinates
Noor_e_Mustupha,Mosque,"WP32+P4C Noor_e_Mustupha, Maheshkhunt - Saharsa - Purnia Rd, Bhawantikthi, Bihar 852219",,"WP32+P4C, Maheshkhunt - Saharsa - Purnia Rd",Bhawantikthi,852219,Bihar,IN,https://www.google.com/maps/place/Noor_e_Mustupha/data=!4m7!3m6!1s0x39ee3b20f9087871:0xe4a5faeac2934c28!8m2!3d25.9043016!4d86.7002728!16s%2Fg%2F11j8rf1vhb!19sChIJcXgI-SA77jkRKEyTwur6peQ?authuser=0&hl=en&rclk=1,"25.9043016,86.7002728"
jaamaa msjid v tbliigii mrkj' jhittkiyaa siNheshvr mdhepuraa,Mosque,"jaamaa msjid v tbliigii mrkj' jhittkiyaa siNheshvr mdhepuraa, Bihpur Rd, Gulhasan chowk, Singheshwar, Majarhat, Bihar 852128",Gulhasan chowk,Bihpur Rd,"Singheshwar, Majarhat",852128,Bihar,IN,https://www.google.com/maps/place/%E0%A4%9C%E0%A4%BE%E0%A4%AE%E0%A4%BE+%E0%A4%AE%E0%A4%B8%E0%A5%8D%E0%A4%9C%E0%A4%BF%E0%A4%A6+%E0%A4%B5+%E0%A4%A4%E0%A4%AC%E0%A4%B2%E0%A5%80%E0%A4%97%E0%A5%80+%E0%A4%AE%E0%A4%B0%E0%A4%95%E0%A4%9C%E0%A4%BC+%E0%A4%9D%E0%A4%BF%E0%A4%9F%E0%A4%95%E0%A4%BF%E0%A4%AF%E0%A4%BE+%E0%A4%B8%E0%A4%BF%E0%A4%82%E0%A4%B9%E0%A5%87%E0%A4%B6%E0%A5%8D%E0%A4%B5%E0%A4%B0+%E0%A4%AE%E0%A4%A7%E0%A5%87%E0%A4%AA%E0%A5%81%E0%A4%B0%E0%A4%BE/data=!4m7!3m6!1s0x39ee36452b9e5b8d:0xc0f008c36930ea34!8m2!3d25.9707719!4d86.7941638!16s%2Fg%2F11gcmp6g09!19sChIJjVueK0U27jkRNOowacMI8MA?authuser=0&hl=en&rclk=1,"25.9707719,86.79416379999999"
Masjid Hajra khatoon,Mosque,"Masjid Hajra khatoon, Abdul Halim Enclave Rahmanganj, Ward No 13, Bihar",Ward No 13,Abdul Halim Enclave Rahmanganj,,,Bihar,IN,https://www.google.com/maps/place/Masjid+Hajra+khatoon/data=!4m7!3m6!1s0x39ee36cf50aaf597:0xa602d40c523fba87!8m2!3d25.9229933!4d86.7963022!16s%2Fg%2F11cs1s544q!19sChIJl_WqUM827jkRh7o_UgzUAqY?authuser=0&hl=en&rclk=1,"25.922993299999998,86.7963022"
Jama Masjid Sukhasan chakla,Mosque,"Jama Masjid Sukhasan chakla, Madhepura-Patarghat Rd, Sukhasan Dakhinwari, Sukhasan Uttarwari, Bihar 852113",,Madhepura-Patarghat Rd,"Sukhasan Dakhinwari, Sukhasan Uttarwari",852113,Bihar,IN,https://www.google.com/maps/place/Jama+Masjid+Sukhasan+chakla/data=!4m7!3m6!1s0x39ee311dbcbe6437:0xdd21c6d5e2989d07!8m2!3d25.8795754!4d86.7833334!16s%2Fg%2F11f3cmk634!19sChIJN2S-vB0x7jkRB52Y4tXGId0?authuser=0&hl=en&rclk=1,"25.8795754,86.78333339999999"
Masjid aayesha Sahugarh,Mosque,"WQP7+X4V Masjid aayesha Sahugarh, Sahugarh-1, Bihar 852121",,WQP7+X4V,Sahugarh-1,852121,Bihar,IN,https://www.google.com/maps/place/Masjid+aayesha+Sahugarh/data=!4m7!3m6!1s0x39ee371526ce10d7:0xd1451ef5bad81af5!8m2!3d25.9374789!4d86.7628106!16s%2Fg%2F11f3v7vtmj!19sChIJ1xDOJhU37jkR9RrYuvUeRdE?authuser=0&hl=en&rclk=1,"25.9374789,86.7628106"
Jama Masjid Rasna,Mosque,"RV46+FQC Jama Masjid Rasna, Birpur - Madhepura - Bihpur Rd, Reshana, Bihar 852217",,"RV46+FQC, Birpur - Madhepura - Bihpur Rd",Reshana,852217,Bihar,IN,https://www.google.com/maps/place/Jama+Masjid+Rasna/data=!4m7!3m6!1s0x39ee2d9d56a95889:0xfe52a06445459dd8!8m2!3d25.8061754!4d86.8618753!16s%2Fg%2F11c742lfv8!19sChIJiVipVp0t7jkR2J1FRWSgUv4?authuser=0&hl=en&rclk=1,"25.806175399999997,86.8618753"
Madni Jama Masjid,Mosque,"Madni Jama Masjid, Tunyahi Road Ward No24, Madhepura, Bihar",,Tunyahi Road Ward No24,Madhepura,,Bihar,IN,https://www.google.com/maps/place/Madni+Jama+Masjid/data=!4m7!3m6!1s0x39ee3129fccdad31:0x6b9caf82c4a33be0!8m2!3d25.9046138!4d86.7820583!16s%2Fg%2F11dztww9wy!19sChIJMa3N_Ckx7jkR4DujxIKvnGs?authuser=0&hl=en&rclk=1,"25.9046138,86.7820583"
Gosai Tola Chhoti Masjid Word no 04,Mosque,"WR97+Q7H Gosai Tola Chhoti Masjid Word no 04, Masjid Road, Gosai Tola, Bihar 852113",,"WR97+Q7H, Masjid Road",Gosai Tola,852113,Bihar,IN,https://www.google.com/maps/place/Gosai+Tola+Chhoti+Masjid+Word+no+04/data=!4m7!3m6!1s0x39ee36ae3f888537:0x278ba19e9e71b5d1!8m2!3d25.9194381!4d86.8132436!16s%2Fg%2F11f1k4hgy5!19sChIJN4WIP6427jkR0bVxnp6hiyc?authuser=0&hl=en&rclk=1,"25.919438099999997,86.81324359999999"
Makki Masjid Maheshwa,Mosque,"XV96+V43 Makki Masjid Maheshwa, Maheshuwa, Bihar 852114",,XV96+V43,Maheshuwa,852114,Bihar,IN,https://www.google.com/maps/place/Makki+Masjid+Maheshwa/data=!4m7!3m6!1s0x39ee350e29fae04d:0x974c4ffbac5803da!8m2!3d25.9696286!4d86.8603109!16s%2Fg%2F11h2pkp91y!19sChIJTeD6KQ417jkR2gNYrPtPTJc?authuser=0&hl=en&rclk=1,"25.9696286,86.8603109"
JAMA MASJID DHANCHHOHA,Mosque,"JAMA MASJID DHANCHHOHA, Bihar 852121,sabila to, Saur Bazar",,"Bihar 852121,sabila to","Saur Bazar, Tiri",,Bihar,IN,https://www.google.com/maps/place/JAMA+MASJID+DHANCHHOHA/data=!4m7!3m6!1s0x39ee3b506a059fc7:0xabeec40726cfeae!8m2!3d25.894501!4d86.6997556!16s%2Fg%2F11frmwh2l6!19sChIJx58FalA77jkRrv5sckDsvgo?authuser=0&hl=en&rclk=1,"25.894500999999998,86.6997556"
jaamaa msjid rupaulii,Mosque,"2Q9M+732 jaamaa msjid rupaulii, Rupauli Part, Bihar 852128",,2Q9M+732,Rupauli Part,852128,Bihar,IN,https://www.google.com/maps/place/%E0%A4%9C%E0%A4%BE%E0%A4%AE%E0%A4%BE+%E0%A4%AE%E0%A4%B8%E0%A5%8D%E0%A4%9C%E0%A4%BF%E0%A4%A6+%E0%A4%B0%E0%A5%81%E0%A4%AA%E0%A5%8C%E0%A4%B2%E0%A5%80/data=!4m7!3m6!1s0x39ee49c7354891bf:0xa8b525de1f046673!8m2!3d26.0181322!4d86.7826458!16s%2Fg%2F11jch66vgk!19sChIJv5FINcdJ7jkRc2YEH94ltag?authuser=0&hl=en&rclk=1,"26.0181322,86.7826458"
Chhoti Masjid Sukhasan Chakla,Mosque,"Chhoti Masjid Sukhasan Chakla, Sukhasan Dakhinwari, Bihar 852113",,,Sukhasan Dakhinwari,852113,Bihar,IN,https://www.google.com/maps/place/Chhoti+Masjid+Sukhasan+Chakla/data=!4m7!3m6!1s0x39ee31996fbb785f:0x789b989e86b34dc2!8m2!3d25.8757072!4d86.7840981!16s%2Fg%2F11rvh5cklp!19sChIJX3i7b5kx7jkRwk2zhp6Ym3g?authuser=0&hl=en&rclk=1,"25.875707199999997,86.7840981"
Jama Masjid patori,Mosque,"XRRP+RXQ Jama Masjid patori, Patori, Bihar 852114",,XRRP+RXQ,Patori,852114,Bihar,IN,https://www.google.com/maps/place/Jama+Masjid+patori/data=!4m7!3m6!1s0x39ee35791c032875:0xb3604e1027eb6089!8m2!3d25.9920785!4d86.8374778!16s%2Fg%2F11jfhfxdrs!19sChIJdSgDHHk17jkRiWDrJxBOYLM?authuser=0&hl=en&rclk=1,"25.992078499999998,86.8374778"
Jama Masjid,Mosque,"3PWW+JR8 Jama Masjid, Babhani Bholwa, Bihar 852128",,3PWW+JR8,Babhani Bholwa,852128,Bihar,IN,https://www.google.com/maps/place/Jama+Masjid/data=!4m7!3m6!1s0x39ee48ac876934cb:0x2a71c9342e78b6c2!8m2!3d26.0965351!4d86.7470785!16s%2Fg%2F11g6xn90gn!19sChIJyzRph6xI7jkRwrZ4LjTJcSo?authuser=0&hl=en&rclk=1,"26.0965351,86.7470785"
Kadriya Masjid qdryh msjd,Mosque,"Kadriya Masjid qdryh msjd, kataya tola, Jitapur, Bihar 852114",,kataya tola,Jitapur,,Bihar,IN,https://www.google.com/maps/place/Kadriya+Masjid+%D9%82%D8%A7%D8%AF%D8%B1%DB%8C%DB%81+%D9%85%D8%B3%D8%AC%D8%AF%E2%80%AD/data=!4m7!3m6!1s0x39ee335a6b5aa393:0xebc23157168da872!8m2!3d25.9061338!4d86.8911261!16s%2Fg%2F11g9k1yjmy!19sChIJk6Naa1oz7jkRcqiNFlcxwus?authuser=0&hl=en&rclk=1,"25.9061338,86.8911261"
Muslim Tola Rupauli Ward No.05,Mosque,"Muslim Tola Rupauli Ward No.05, Rupauli Ward No.05, Bihar 852221",,Rupauli Ward No.05,Sahuriya East,852221,Bihar,IN,https://www.google.com/maps/place/Muslim+Tola+Rupauli+Ward+No.05/data=!4m7!3m6!1s0x39ee3be6dd9c407b:0x99d5d3c9b2358c91!8m2!3d25.8729944!4d86.7060659!16s%2Fg%2F11jsp4skf5!19sChIJe0Cc3eY77jkRkYw1ssnT1Zk?authuser=0&hl=en&rclk=1,"25.8729944,86.7060659"
Jama Masjid & Talimi Markaz Bairbanna ( jaamaa msjid & taaliimii mrkj' bairbnaa ),Mosque,"2RQ3+WGR Jama Masjid & Talimi Markaz Bairbanna ( jaamaa msjid & taaliimii mrkj' bairbnaa ), Bairbana, Bihar 852128",,2RQ3+WGR,Bairbana,852128,Bihar,IN,https://www.google.com/maps/place/Jama+Masjid+%26+Talimi+Markaz+Bairbanna+%28+%E0%A4%9C%E0%A4%BE%E0%A4%AE%E0%A4%BE+%E0%A4%AE%E0%A4%B8%E0%A5%8D%E0%A4%9C%E0%A4%BF%E0%A4%A6+%26+%E0%A4%A4%E0%A4%BE%E0%A4%B2%E0%A5%80%E0%A4%AE%E0%A5%80+%E0%A4%AE%E0%A4%B0%E0%A4%95%E0%A4%9C%E0%A4%BC+%E0%A4%AC%E0%A5%88%E0%A4%B0%E0%A4%AC%E0%A4%A8%E0%A4%BE+%29/data=!4m7!3m6!1s0x39ee49d150305d33:0x7d430d0ff991e1c1!8m2!3d26.0398649!4d86.8037765!16s%2Fg%2F11n7b333jz!19sChIJM10wUNFJ7jkRweGR-Q8NQ30?authuser=0&hl=en&rclk=1,"26.039864899999998,86.8037765"
Bharopatti Eidgah,Mosque,"VVWW+6GH Bharopatti Eidgah, bharopatti, Bhairopatti, Bihar",,"VVWW+6GH, bharopatti","Bhairopatti, Labtol",,Bihar,IN,https://www.google.com/maps/place/Bharopatti+Eidgah/data=!4m7!3m6!1s0x39ee33494eb378f1:0x1c6368256f812e8b!8m2!3d25.8955667!4d86.8963549!16s%2Fg%2F11f00f20x3!19sChIJ8XizTkkz7jkRiy6BbyVoYxw?authuser=0&hl=en&rclk=1,"25.8955667,86.89635489999999"
Jama Masjid,Mosque,"Jama Masjid, Masjid chowk, Singhesar Asthan, Bihar 852128",,Masjid chowk,Singhesar Asthan,852128,Bihar,IN,https://www.google.com/maps/place/Jama+Masjid/data=!4m7!3m6!1s0x39ee37140f3fc82d:0x8767d16a29d1c932!8m2!3d25.9815863!4d86.7944072!16s%2Fg%2F11hymg9zmp!19sChIJLcg_DxQ37jkRMsnRKWrRZ4c?authuser=0&hl=en&rclk=1,"25.9815863,86.7944072"
Noori Masjid,Mosque,"RRHP+RW5 Noori Masjid, Pastpar, Bihar 852107",,RRHP+RW5,Pastpar,852107,Bihar,IN,https://www.google.com/maps/place/Noori+Masjid/data=!4m7!3m6!1s0x39ee33985a7e854d:0xd8e169a7f1a55cc7!8m2!3d25.8295104!4d86.8373567!16s%2Fg%2F11h4zl04bt!19sChIJTYV-Wpgz7jkRx1yl8adp4dg?authuser=0&hl=en&rclk=1,"25.8295104,86.8373567"
Jama Masjid Lachhminiya,Mosque,"VMHW+Q5C Jama Masjid Lachhminiya, Saharsa, Bihar 852219",,VMHW+Q5C,Saharsa,852219,Bihar,IN,https://www.google.com/maps/place/Jama+Masjid+Lachhminiya/data=!4m7!3m6!1s0x39ee3b56b0d4d0d9:0xaf9d0df817887a10!8m2!3d25.8794327!4d86.6953763!16s%2Fg%2F11hf4crqq5!19sChIJ2dDUsFY77jkREHqIF_gNna8?authuser=0&hl=en&rclk=1,"25.8794327,86.69537629999999"
Markaz masjid gamhariya,Mosque,"3P3G+JR3 Markaz masjid gamhariya, SH66, Gamaharia, Bihar 852128",,"3P3G+JR3, SH66",Gamaharia,852128,Bihar,IN,https://www.google.com/maps/place/Markaz+masjid+gamhariya/data=!4m7!3m6!1s0x39ee473c2c6ed94f:0x3bc8ea94ef8e2b61!8m2!3d26.0540067!4d86.7270433!16s%2Fg%2F11qgzf1fm7!19sChIJT9luLDxH7jkRYSuO75TqyDs?authuser=0&hl=en&rclk=1,"26.0540067,86.72704329999999"
Md Mustaqeem Jame Masjid,Home Stay,"WR68+44W Md Mustaqeem Jame Masjid, Birpur - Madhepura - Bihpur Rd, Madhepura, Manikpur, Bihar 852113",,"WR68+44W, Birpur - Madhepura - Bihpur Rd","Madhepura, Manikpur",852113,Bihar,IN,https://www.google.com/maps/place/Md+Mustaqeem+Jame+Masjid/data=!4m7!3m6!1s0x39ee317d7638521b:0x9519628c5c22e5ee!8m2!3d25.9103506!4d86.8153396!16s%2Fg%2F11fj8d6vz2!19sChIJG1I4dn0x7jkR7uUiXIxiGZU?authuser=0&hl=en&rclk=1,"25.910350599999997,86.8153396"
Jama Masjid jm` msjd Bathan parsa p. S. Shankarpur (Bihar),Mosque,"3V3R+28C Jama Masjid jm` msjd Bathan parsa p. S. Shankarpur (Bihar), Madhepura, Bihar 852128",,3V3R+28C,Madhepura,,Bihar,IN,https://www.google.com/maps/place/Jama+Masjid+%D8%AC%D8%A7%D9%85%D8%B9+%D9%85%D8%B3%D8%AC%D8%AF+Bathan+parsa+p.+S.+Shankarpur+%28Bihar%29%E2%80%AD/data=!4m7!3m6!1s0x39ee4b345050792d:0xc86f51d172d71d51!8m2!3d26.0525559!4d86.8907764!16s%2Fg%2F11q3sdxpqy!19sChIJLXlQUDRL7jkRUR3XctFRb8g?authuser=0&hl=en&rclk=1,"26.052555899999998,86.8907764"
Arraha Masjid,Mosque,"WR4G+GRM Arraha Masjid, Manikpur, Bihar 852113",,WR4G+GRM,Manikpur,,Bihar,IN,https://www.google.com/maps/place/Arraha+Masjid/data=!4m7!3m6!1s0x39ee33adff72738f:0xbea34c9f7c07f9d5!8m2!3d25.892268!4d86.8369208!16s%2Fg%2F11tn_2nc93!19sChIJj3Ny_60z7jkR1fkHfJ9Mo74?authuser=0&hl=en&rclk=1,"25.892267999999998,86.8369208"
Masjid,Mosque,"2RV9+3CV Masjid, Masjid Rd, Giddha, Bihar 852128",,"2RV9+3CV, Masjid Rd",Giddha,852128,Bihar,IN,https://www.google.com/maps/place/Masjid/data=!4m7!3m6!1s0x39ee4952e8a54d51:0xe1426db74ffea3b5!8m2!3d26.0427352!4d86.8185492!16s%2Fg%2F11q1gmz4nn!19sChIJUU2l6FJJ7jkRtaP-T7dtQuE?authuser=0&hl=en&rclk=1,"26.0427352,86.81854919999999"
JAMA MASJID Bhan tikhti,Mosque,"WP9H+FVJ JAMA MASJID Bhan tikhti, Bhawantikthi, Bihar 852121",,WP9H+FVJ,Bhawantikthi,852121,Bihar,IN,https://www.google.com/maps/place/JAMA+MASJID+Bhan+tikhti/data=!4m7!3m6!1s0x39ee3935111a64b1:0xc0479588e2487d16!8m2!3d25.9187173!4d86.7296456!16s%2Fg%2F11qphtl_q3!19sChIJsWQaETU57jkRFn1I4oiVR8A?authuser=0&hl=en&rclk=1,"25.918717299999997,86.7296456"
Jama Masjid Laxminiya Ghailarh,Mosque,"XM6G+4W7 Jama Masjid Laxminiya Ghailarh, Ghailar, Jhitkiya, Bihar 852137",,XM6G+4W7,"Ghailar, Jhitkiya",852137,Bihar,IN,https://www.google.com/maps/place/Jama+Masjid+Laxminiya+Ghailarh/data=!4m7!3m6!1s0x39ee394976533825:0x79e3b8319d4909e8!8m2!3d25.9602875!4d86.6772969!16s%2Fg%2F11txq4j27w!19sChIJJThTdkk57jkR6AlJnTG443k?authuser=0&hl=en&rclk=1,"25.9602875,86.6772969"
TAMIR JAMA MASJID,Mosque,"RPPR+88C TAMIR JAMA MASJID, Kanp, Bazar, Bihar 852221",,"RPPR+88C, Kanp",Bazar,852221,Bihar,IN,https://www.google.com/maps/place/TAMIR+JAMA+MASJID/data=!4m7!3m6!1s0x39ee3b5bac83580f:0xffb3f854ff39182a!8m2!3d25.8358174!4d86.7407671!16s%2Fg%2F11rfn6vz53!19sChIJD1iDrFs77jkRKhg5_1T4s_8?authuser=0&hl=en&rclk=1,"25.8358174,86.7407671"
Nurani Masjid nuuraanii msjid,Mosque,"2P3W+V6X Nurani Masjid nuuraanii msjid, Chikani, Bihar 852128",,2P3W+V6X,Chikani,,Bihar,IN,https://www.google.com/maps/place/Nurani+Masjid+%E0%A4%A8%E0%A5%82%E0%A4%B0%E0%A4%BE%E0%A4%A8%E0%A5%80+%E0%A4%AE%E0%A4%B8%E0%A5%8D%E0%A4%9C%E0%A4%BF%E0%A4%A6/data=!4m7!3m6!1s0x39ee3717666c6a65:0x83aaa809bb0b66b9!8m2!3d26.0047377!4d86.7455944!16s%2Fg%2F11gyxwljcs!19sChIJZWpsZhc37jkRuWYLuwmoqoM?authuser=0&hl=en&rclk=1,"26.0047377,86.7455944"
Eadgha Gosai Tola,Mosque,"WR97+83F Eadgha Gosai Tola, Madhepura, Bihar 852113",,WR97+83F,Madhepura,852113,Bihar,IN,https://www.google.com/maps/place/Eadgha+Gosai+Tola/data=!4m7!3m6!1s0x39ee37e29319ff13:0x77793d82289552cc!8m2!3d25.9183223!4d86.8126677!16s%2Fg%2F11qsbwdtqb!19sChIJE_8Zk-I37jkRzFKVKII9eXc?authuser=0&hl=en&rclk=1,"25.9183223,86.81266769999999"
Madni masjid Bairbanna purab Tola,Mosque,"Ward no-07, Madni masjid Bairbanna purab Tola, Madhepura, Bairbana, Bihar 852128",,Ward no-07,"Madhepura, Bairbana",852128,Bihar,IN,https://www.google.com/maps/place/Madni+masjid+Bairbanna+purab+Tola/data=!4m7!3m6!1s0x39ee4961789a4aa3:0xfad43b95883d0ca!8m2!3d26.0415184!4d86.8101015!16s%2Fg%2F11v0jrw2t3!19sChIJo0qaeGFJ7jkRytCDWLlDrQ8?authuser=0&hl=en&rclk=1,"26.041518399999998,86.8101015"
"Masjid e Belal Hariraha, Ratanpura",Mosque,"XP6P+39R Masjid e Belal Hariraha, Ratanpura, Ratan Pura, Bihar 852121",,XP6P+39R,Ratan Pura,,Bihar,IN,"https://www.google.com/maps/place/Masjid+e+Belal+Hariraha,+Ratanpura/data=!4m7!3m6!1s0x39ee39fd3344c025:0xa644dbe9f647f5a2!8m2!3d25.9602389!4d86.7358805!16s%2Fg%2F11rwrybf2s!19sChIJJcBEM_057jkRovVH9unbRKY?authuser=0&hl=en&rclk=1","25.9602389,86.7358805"
Madni Jama Masjid Khopaiti,Mosque,"VQ52+RXF Madni Jama Masjid Khopaiti, Buniad Singh Chakla, Bihar 852121",,VQ52+RXF,Buniad Singh Chakla,,Bihar,IN,https://www.google.com/maps/place/Madni+Jama+Masjid+Khopaiti/data=!4m7!3m6!1s0x39ee30633acd5dfd:0xb41594c852382179!8m2!3d25.8595745!4d86.7524182!16s%2Fg%2F11hblt83t5!19sChIJ_V3NOmMw7jkReSE4UsiUFbQ?authuser=0&hl=en&rclk=1,"25.859574499999997,86.7524182"
Muhsari Ki Masjid,Mosque,"3X6R+Q3R Muhsari Ki Masjid, Muhsari, Bishan Pur Sundar, Bihar 852112",,3X6R+Q3R,"Muhsari, Bishan Pur Sundar",852112,Bihar,IN,https://www.google.com/maps/place/Muhsari+Ki+Masjid/data=!4m7!3m6!1s0x39efb701fc5401bd:0x8da914a97c8dbacf!8m2!3d26.0619995!4d86.9901518!16s%2Fg%2F11grc8tzrj!19sChIJvQFU_AG37zkRz7qNfKkUqY0?authuser=0&hl=en&rclk=1,"26.0619995,86.99015179999999"
JAMA MASJID GAMAHARIA SURIAGANGE,Mosque,"2PWP+M6X JAMA MASJID GAMAHARIA SURIAGANGE, Aurahi Ekparha, Bihar 852128",,2PWP+M6X,Aurahi Ekparha,852128,Bihar,IN,https://www.google.com/maps/place/JAMA+MASJID+GAMAHARIA+SURIAGANGE/data=!4m7!3m6!1s0x39ee472825ef1ff5:0x13a2cf3eec72ddde!8m2!3d26.0467457!4d86.7356152!16s%2Fg%2F11p3bj_tbz!19sChIJ9R_vJShH7jkR3t1y7D7PohM?authuser=0&hl=en&rclk=1,"26.0467457,86.7356152"
JAMA MASJID Madhepura,Mosque,"JAMA MASJID Madhepura, Jama Masjid, Madhepura, Bihar 852113",,Jama Masjid,Madhepura,852113,Bihar,IN,https://www.google.com/maps/place/JAMA+MASJID+Madhepura/data=!4m7!3m6!1s0x39ee3749fc98aefd:0x5aa130e245c17c2f!8m2!3d25.9236727!4d86.7931479!16s%2Fg%2F11qrl0vspy!19sChIJ_a6Y_Ek37jkRL3zBReIwoVo?authuser=0&hl=en&rclk=1,"25.923672699999997,86.7931479"
Masjid Madhepura Tola,Mosque,"RPMW+CR6 Masjid Madhepura Tola, Kanp East, Bihar 852221",,RPMW+CR6,Kanp East,852221,Bihar,IN,https://www.google.com/maps/place/Masjid+Madhepura+Tola/data=!4m7!3m6!1s0x39ee3117510e75ab:0x436c1e9b115222ed!8m2!3d25.8335342!4d86.747022!16s%2Fg%2F11p4_8cj7g!19sChIJq3UOURcx7jkR7SJSEZsebEM?authuser=0&hl=en&rclk=1,"25.8335342,86.747022"
Masjid islampur,Mosque,"WRX5+X3 Masjid islampur, Jajhat Sabaila, Bihar 852114",,WRX5+X3,Jajhat Sabaila,852114,Bihar,IN,https://www.google.com/maps/place/Masjid+islampur/data=!4m7!3m6!1s0x39ee377c4d6159f7:0x3504ff7aa6930f4a!8m2!3d25.9491395!4d86.8075121!16s%2Fg%2F11sbdlb63f!19sChIJ91lhTXw37jkRSg-Tpnr_BDU?authuser=0&hl=en&rclk=1,"25.949139499999998,86.8075121"
Lalpur masjid,Mosque,"2RG9+C4G Lalpur masjid, Lalpur Saro Patti, Bihar 852128",,2RG9+C4G,Lalpur Saro Patti,852128,Bihar,IN,https://www.google.com/maps/place/Lalpur+masjid/data=!4m7!3m6!1s0x39ee4919068f11a7:0xb796e1927d2d6721!8m2!3d26.0260515!4d86.8178259!16s%2Fg%2F11jzjblfl_!19sChIJpxGPBhlJ7jkRIWctfZLhlrc?authuser=0&hl=en&rclk=1,"26.026051499999998,86.8178259"
Sakhua mosque,Mosque,"RMV8+RPG Sakhua mosque, Saharsa, Bihar 852219",,RMV8+RPG,Saharsa,852219,Bihar,IN,https://www.google.com/maps/place/Sakhua+mosque/data=!4m7!3m6!1s0x39ee3b148291d1eb:0xf1db60383aba48e0!8m2!3d25.8445532!4d86.6668135!16s%2Fg%2F11p0_wx752!19sChIJ69GRghQ77jkR4Ei6Ojhg2_E?authuser=0&hl=en&rclk=1,"25.8445532,86.66681349999999"
Surmaha Mosque,Mosque,"RR5C+GP7 Surmaha Mosque, Pastpar, Bihar 852107",,RR5C+GP7,Pastpar,852107,Bihar,IN,https://www.google.com/maps/place/Surmaha+Mosque/data=!4m7!3m6!1s0x39ee2fdd6e44635d:0x1f78c7e75b65ba25!8m2!3d25.8095454!4d86.8212708!16s%2Fg%2F11sv1mg8zb!19sChIJXWNEbt0v7jkRJbplW-fHeB8?authuser=0&hl=en&rclk=1,"25.809545399999998,86.8212708"
RAMJEE NIWAS,Housing society,"WQGW+JH3 RAMJEE NIWAS, Madhepura, Bihar 852113",,WQGW+JH3,Madhepura,852113,Bihar,IN,https://www.google.com/maps/place/RAMJEE+NIWAS/data=!4m7!3m6!1s0x39ee3795478c0b6f:0x162a804dbf2eae98!8m2!3d25.9265017!4d86.7964069!16s%2Fg%2F11t2_m4_73!19sChIJbwuMR5U37jkRmK4uv02AKhY?authuser=0&hl=en&rclk=1,"25.9265017,86.7964069"
Masjid chook,Soup kitchen,"WQFR+GWQ Masjid chook, Madhepura, Bihar 852113",,WQFR+GWQ,Madhepura,852113,Bihar,IN,https://www.google.com/maps/place/Masjid+chook/data=!4m7!3m6!1s0x39ee372472005a11:0xd64266af8af015c4!8m2!3d25.9238232!4d86.7924138!16s%2Fg%2F11smtps0v7!19sChIJEVoAciQ37jkRxBXwiq9mQtY?authuser=0&hl=en&rclk=1,"25.923823199999998,86.79241379999999"
Masjid-E-Muhammadi Jalaltola Jhitkiya,Mosque,"XQFQ+2Q Masjid-E-Muhammadi Jalaltola Jhitkiya, Majarhat, Bihar 852128",,XQFQ+2Q,Majarhat,,Bihar,IN,https://www.google.com/maps/place/Masjid-E-Muhammadi+Jalaltola+Jhitkiya/data=!4m7!3m6!1s0x39ee374bdab840e1:0x41357416ce3501cf!8m2!3d25.9725621!4d86.7894258!16s%2Fg%2F11rkf48tmc!19sChIJ4UC42ks37jkRzwE1zhZ0NUE?authuser=0&hl=en&rclk=1,"25.972562099999998,86.78942579999999"
jm` msjd gwry pwr Masjid Gori Pur,Mosque,"XQJX+VJQ jm` msjd gwry pwr Masjid Gori Pur, Gouri Pur, Bihar 852128",,XQJX+VJQ,Gouri Pur,852128,Bihar,IN,https://www.google.com/maps/place/%D8%AC%D8%A7%D9%85%D8%B9+%D9%85%D8%B3%D8%AC%D8%AF+%DA%AF%D9%88%D8%B1%DB%8C+%D9%BE%D9%88%D8%B1+Masjid+Gori+Pur%E2%80%AD/data=!4m7!3m6!1s0x39ee37472e32fcfd:0x3eb80646518f15e0!8m2!3d25.982383!4d86.799282!16s%2Fg%2F11scgv3yly!19sChIJ_fwyLkc37jkR4BWPUUYGuD4?authuser=0&hl=en&rclk=1,"25.982383,86.79928199999999"
Masjid-E-Husain Jhitkiya West,Mosque,"XQ9R+XR Masjid-E-Husain Jhitkiya West, Majarhat, Bihar 852128",,XQ9R+XR,Majarhat,,Bihar,IN,https://www.google.com/maps/place/Masjid-E-Husain+Jhitkiya+West/data=!4m7!3m6!1s0x39ee370ec8929df9:0xd828a62740bef3e3!8m2!3d25.9699203!4d86.7919117!16s%2Fg%2F11sg_62cll!19sChIJ-Z2SyA437jkR4_O-QCemKNg?authuser=0&hl=en&rclk=1,"25.9699203,86.7919117"
Jamia Masjid Wrad No10,Mosque,"2PXR+3W9 Jamia Masjid Wrad No10, Chandanpatti Gamahriya, Aurahi Ekparha, Bihar 852128",,"2PXR+3W9, Chandanpatti Gamahriya",Aurahi Ekparha,852128,Bihar,IN,https://www.google.com/maps/place/Jamia+Masjid+Wrad+No10/data=!4m7!3m6!1s0x39ee49e23c9585bf:0x58cf4fc3b5281ff5!8m2!3d26.0476666!4d86.7423565!16s%2Fg%2F11jflg3sm7!19sChIJv4WVPOJJ7jkR9R8otcNPz1g?authuser=0&hl=en&rclk=1,"26.0476666,86.7423565"
JAMA MASJID,Mosque,"VRRP+XPQ JAMA MASJID, Arha Rd, Manikpur, Bihar 852113",,"VRRP+XPQ, Arha Rd",Manikpur,852113,Bihar,IN,https://www.google.com/maps/place/JAMA+MASJID/data=!4m7!3m6!1s0x39ee335e899edae9:0x6e1401251fbfa519!8m2!3d25.8924625!4d86.8368591!16s%2Fg%2F11tny5hpfk!19sChIJ6dqeiV4z7jkRGaW_HyUBFG4?authuser=0&hl=en&rclk=1,"25.8924625,86.8368591"
Jama Masjid Sukhasan,Mosque,"XQ7F+G65 Jama Masjid Sukhasan, Bihar 852128",,XQ7F+G65,,852128,Bihar,IN,https://www.google.com/maps/place/Jama+Masjid+Sukhasan/data=!4m7!3m6!1s0x39ee37c0032aef7d:0x95e39120e13fc503!8m2!3d25.9638222!4d86.7733609!16s%2Fg%2F11q9tynmv2!19sChIJfe8qA8A37jkRA8U_4SCR45U?authuser=0&hl=en&rclk=1,"25.9638222,86.7733609"
Jama masjid,Mosque,"XV85+Q33 Jama masjid, Maheshuwa, Bihar 852114",,XV85+Q33,Maheshuwa,852114,Bihar,IN,https://www.google.com/maps/place/Jama+masjid/data=!4m7!3m6!1s0x39ee354b4ecb0c61:0x223be63b787f3fbf!8m2!3d25.9668935!4d86.8576738!16s%2Fg%2F11hl75hxqg!19sChIJYQzLTks17jkRvz9_eDvmOyI?authuser=0&hl=en&rclk=1,"25.966893499999998,86.8576738"
Jama masjid kanp west,Mosque,"Jama masjid kanp west, Saur Bazar - Patarghat Rd, Kanp East, Bihar 852221",,Saur Bazar - Patarghat Rd,Kanp East,852221,Bihar,IN,https://www.google.com/maps/place/Jama+masjid+kanp+west/data=!4m7!3m6!1s0x39ee3b4cdba12e0b:0x53f547150c5d224!8m2!3d25.8322931!4d86.7401116!16s%2Fg%2F11qrh_z1gj!19sChIJCy6h20w77jkRJNLFUHFUPwU?authuser=0&hl=en&rclk=1,"25.832293099999998,86.74011159999999"
Bhadaul jama masjid,Mosque,"Bhadaul jama masjid, jama masjid, Bhadaul, Bihar 852114",,jama masjid,Bhadaul,,Bihar,IN,https://www.google.com/maps/place/Bhadaul+jama+masjid/data=!4m7!3m6!1s0x39ee33604eca2d39:0xc765094dcd50c15!8m2!3d25.906186!4d86.891297!16s%2Fg%2F11p5bwh12q!19sChIJOS3KTmAz7jkRFQzV3JRQdgw?authuser=0&hl=en&rclk=1,"25.906185999999998,86.891297"
Noorani Masjid Sourbazar,Mosque,"RMMM+C8V Noorani Masjid Sourbazar, Saur Bazar, Bihar 852221",,RMMM+C8V,Saur Bazar,852221,Bihar,IN,https://www.google.com/maps/place/Noorani+Masjid+Sourbazar/data=!4m7!3m6!1s0x39ee3ba8b274b84b:0x80c92cde11c0021!8m2!3d25.8336154!4d86.6833121!16s%2Fg%2F11q401gbws!19sChIJS7h0sqg77jkRIQAc4c2SDAg?authuser=0&hl=en&rclk=1,"25.8336154,86.6833121"
Jamia masjid,Mosque,"XVGV+674 Jamia masjid, Chaura, Bihar 852114",,XVGV+674,Chaura,852114,Bihar,IN,https://www.google.com/maps/place/Jamia+masjid/data=!4m7!3m6!1s0x39ee350b080d0a73:0x7c3dd24769e51463!8m2!3d25.9748475!4d86.8920425!16s%2Fg%2F11sx0586qg!19sChIJcwoNCAs17jkRYxTlaUfSPXw?authuser=0&hl=en&rclk=1,"25.9748475,86.8920425"
Jama Masjid Fulkaha,Mosque,"2P63+XF7 Jama Masjid Fulkaha, Gamaharia, Chikani, Bihar 852128",,2P63+XF7,"Gamaharia, Chikani",852128,Bihar,IN,https://www.google.com/maps/place/Jama+Masjid+Fulkaha/data=!4m7!3m6!1s0x39ee47dea69c912b:0x1cf2b70a0c292c92!8m2!3d26.0124039!4d86.7036896!16s%2Fg%2F11vd7mw01y!19sChIJK5Gcpt5H7jkRkiwpDAq38hw?authuser=0&hl=en&rclk=1,"26.0124039,86.70368959999999"
Tiri jama masjid,Mosque,"VMRG+4M Tiri jama masjid, Tiri, Bihar 852219",,VMRG+4M,Tiri,,Bihar,IN,https://www.google.com/maps/place/Tiri+jama+masjid/data=!4m7!3m6!1s0x39ee3b23550624cd:0x890defd48bbbaf60!8m2!3d25.8902813!4d86.6767314!16s%2Fg%2F11swh769k4!19sChIJzSQGVSM77jkRYK-7i9TvDYk?authuser=0&hl=en&rclk=1,"25.890281299999998,86.6767314"
JAMA MASJID,Mosque,"XVRG+2VX JAMA MASJID, Raibhir, Bihar 852114",,XVRG+2VX,Raibhir,,Bihar,IN,https://www.google.com/maps/place/JAMA+MASJID/data=!4m7!3m6!1s0x39ee35c024c4475b:0x3974bfa938e08eaa!8m2!3d25.9901034!4d86.8772298!16s%2Fg%2F11pzg3p5jz!19sChIJW0fEJMA17jkRqo7gOKm_dDk?authuser=0&hl=en&rclk=1,"25.9901034,86.8772298"
Masjid,Mosque,"6P4V+2H Masjid, Madhura, Bihar 852138",,6P4V+2H,Madhura,,Bihar,IN,https://www.google.com/maps/place/Masjid/data=!4m7!3m6!1s0x39ee51cc2425430d:0x1fdc2f5d1ca70a15!8m2!3d26.205121!4d86.743997!16s%2Fg%2F11rn0h0ycz!19sChIJDUMlJMxR7jkRFQqnHF0v3B8?authuser=0&hl=en&rclk=1,"26.205121,86.743997"
Rahamani colony,Housing society,"WQFV+VFG Rahamani colony, Madhepura, Bihar 852113",,WQFV+VFG,Madhepura,852113,Bihar,IN,https://www.google.com/maps/place/Rahamani+colony/data=!4m7!3m6!1s0x39ee371de0e1745f:0xfcb0f1a5f3aeb559!8m2!3d25.924684!4d86.7937034!16s%2Fg%2F11s1872230!19sChIJX3Th4B037jkRWbWu86XxsPw?authuser=0&hl=en&rclk=1,"25.924684,86.7937034"
Darul Quaza Imart-e-Shariah Madhepura,Community center,"W no 10, Darul Quaza Imart-e-Shariah Madhepura, Madrasa Islamia, Jama Masjid Rd, Madhepura, Bihar 852113",,"W no 10, Madrasa Islamia, Jama Masjid Rd",Madhepura,852113,Bihar,IN,https://www.google.com/maps/place/Darul+Quaza+Imart-e-Shariah+Madhepura/data=!4m7!3m6!1s0x39ee371e593eb6eb:0x45a80442c3a50e41!8m2!3d25.9242455!4d86.7938778!16s%2Fg%2F11jz_n88zv!19sChIJ67Y-WR437jkRQQ6lw0IEqEU?authuser=0&hl=en&rclk=1,"25.924245499999998,86.79387779999999"
Jama Masjid,Mosque,"WQFV+F76 Jama Masjid, Madhepura, Bihar 852113",,WQFV+F76,Madhepura,852113,Bihar,IN,https://www.google.com/maps/place/Jama+Masjid/data=!4m7!3m6!1s0x39ee36c55defffff:0x3ebb626077e04bbe!8m2!3d25.9237189!4d86.7931175!16s%2Fg%2F11kj3f8x9c!19sChIJ___vXcU27jkRvkvgd2Biuz4?authuser=0&hl=en&rclk=1,"25.923718899999997,86.7931175"
Masjid Nabi Karim,Mosque,"WQGW+R6V Masjid Nabi Karim, Birpur - Madhepura - Bihpur Rd, Madhepura, Bihar 852113",,"WQGW+R6V, Birpur - Madhepura - Bihpur Rd",Madhepura,852113,Bihar,IN,https://www.google.com/maps/place/Masjid+Nabi+Karim/data=!4m7!3m6!1s0x39ee37ec16484fe9:0xe815049c6b78bd02!8m2!3d25.9271232!4d86.7955446!16s%2Fg%2F11j8t1679m!19sChIJ6U9IFuw37jkRAr14a5wEFeg?authuser=0&hl=en&rclk=1,"25.9271232,86.7955446"
Nurani masjid,Mosque,"WRH2+C6R Nurani masjid, Madhepura, Bihar 852113",,WRH2+C6R,Madhepura,852113,Bihar,IN,https://www.google.com/maps/place/Nurani+masjid/data=!4m7!3m6!1s0x39ee37d6da61774d:0x4b096ee3ce50282e!8m2!3d25.9278968!4d86.8002983!16s%2Fg%2F11kbz72k34!19sChIJTXdh2tY37jkRLihQzuNuCUs?authuser=0&hl=en&rclk=1,"25.9278968,86.8002983"
Jaama masjid paina bihar,High school,"WQFV+JV3 Jaama masjid paina bihar, Madhepura, Bihar 852113",,WQFV+JV3,Madhepura,,Bihar,IN,https://www.google.com/maps/place/Jaama+masjid+paina+bihar/data=!4m7!3m6!1s0x39ee37782a0b8fb1:0x753dce20c62df3e3!8m2!3d25.9240024!4d86.7946728!16s%2Fg%2F11k9f2s057!19sChIJsY8LKng37jkR4_MtxiDOPXU?authuser=0&hl=en&rclk=1,"25.9240024,86.7946728"
Masjid Serbela Madhepura,Mosque,"XQ4X+6XW Masjid Serbela Madhepura, Jajhat Sabaila, Bihar 852128",,XQ4X+6XW,Jajhat Sabaila,852128,Bihar,IN,https://www.google.com/maps/place/Masjid+Serbela+Madhepura/data=!4m7!3m6!1s0x39ee37002cf829fb:0xbea1c5b0d7e05eef!8m2!3d25.9555833!4d86.799969!16s%2Fg%2F11tnty_q1r!19sChIJ-yn4LAA37jkR717g17DFob4?authuser=0&hl=en&rclk=1,"25.955583299999997,86.79996899999999"
MASJID CHOWK,Tourist attraction,"WQGV+2R5 MASJID CHOWK, Purani Bazar Rd, Madhepura, Bihar 852113",,"WQGV+2R5, Purani Bazar Rd",Madhepura,852113,Bihar,IN,https://www.google.com/maps/place/MASJID+CHOWK/data=!4m7!3m6!1s0x39ee37c1347e748d:0x777ca92a5a5f77bf!8m2!3d25.9250226!4d86.7946094!16s%2Fg%2F11vllhmbrv!19sChIJjXR-NME37jkRv3dfWiqpfHc?authuser=0&hl=en&rclk=1,"25.9250226,86.7946094"
Masjid Madheli Bazar,Mosque,"2V8J+2GX Masjid Madheli Bazar, Bihar 852128",,2V8J+2GX,,852128,Bihar,IN,https://www.google.com/maps/place/Masjid+Madheli+Bazar/data=!4m7!3m6!1s0x39ee4bf8c7c712a9:0xe15cc1cb37f18863!8m2!3d26.014835!4d86.8816083!16s%2Fg%2F11rx2wfpjp!19sChIJqRLHx_hL7jkRY4jxN8vBXOE?authuser=0&hl=en&rclk=1,"26.014834999999998,86.8816083"
Chhoti Masjid,Mosque,"WVC3+MVF Chhoti Masjid, Shivnagar, Pararia, Kumar Khand",,"WVC3+MVF, Shivnagar, Pararia","Kumar Khand, Pararia",,Bihar,IN,https://www.google.com/maps/place/Chhoti+Masjid/data=!4m7!3m6!1s0x39ee35c6f18e08df:0xbfca746365842c12!8m2!3d25.9216927!4d86.8546573!16s%2Fg%2F11kxqj_v5l!19sChIJ3wiO8cY17jkREiyEZWN0yr8?authuser=0&hl=en&rclk=1,"25.921692699999998,86.8546573"
Madni masjid kttaiyaa ttolaa,Mosque,"WQP8+2XW Madni masjid kttaiyaa ttolaa, near hemChandra hotel, Sahugarh-1, Bihar 852121",,"WQP8+2XW, near hemChandra hotel",Sahugarh-1,852121,Bihar,IN,https://www.google.com/maps/place/Madni+masjid+%E0%A4%95%E0%A4%9F%E0%A5%88%E0%A4%AF%E0%A4%BE+%E0%A4%9F%E0%A5%8B%E0%A4%B2%E0%A4%BE/data=!4m7!3m6!1s0x39ee376804b490e3:0xaca2d8d64e456661!8m2!3d25.9357104!4d86.7686947!16s%2Fg%2F11shrpsps8!19sChIJ45C0BGg37jkRYWZFTtbYoqw?authuser=0&hl=en&rclk=1,"25.935710399999998,86.7686947"
Shahi Masjid Shahtola Jhitkiya,Mosque,"XQ8W+C8 Shahi Masjid Shahtola Jhitkiya, Majarhat, Bihar 852128",,XQ8W+C8,Majarhat,,Bihar,IN,https://www.google.com/maps/place/Shahi+Masjid+Shahtola+Jhitkiya/data=!4m7!3m6!1s0x39ee376c142d4cd9:0x2a490b92bcd1fd79!8m2!3d25.966062!4d86.7957428!16s%2Fg%2F11pkbl84kf!19sChIJ2UwtFGw37jkRef3RvJILSSo?authuser=0&hl=en&rclk=1,"25.966061999999997,86.7957428"
Aarraha Masjid,Mosque,"WR4G+GRM Aarraha Masjid, Manikpur, Bihar 852113",,WR4G+GRM,Manikpur,,Bihar,IN,https://www.google.com/maps/place/Aarraha+Masjid/data=!4m7!3m6!1s0x39ee333b33c305c9:0xde86b1174caa3294!8m2!3d25.9063255!4d86.8270545!16s%2Fg%2F11tny59_zs!19sChIJyQXDMzsz7jkRlDKqTBexht4?authuser=0&hl=en&rclk=1,"25.906325499999998,86.8270545"
Masjid-E-Zohra (Madrasa Faiz-E-Zohra) Jhitkiya,Mosque,"XQ9V+43 Masjid-E-Zohra (Madrasa Faiz-E-Zohra) Jhitkiya, Majarhat, Bihar 852128",,XQ9V+43,Majarhat,,Bihar,IN,https://www.google.com/maps/place/Masjid-E-Zohra+%28Madrasa+Faiz-E-Zohra%29+Jhitkiya/data=!4m7!3m6!1s0x39ee37d44c806e99:0xfc45c1639e3fdaac!8m2!3d25.9677617!4d86.792678!16s%2Fg%2F11sg_5zcsx!19sChIJmW6ATNQ37jkRrNo_nmPBRfw?authuser=0&hl=en&rclk=1,"25.9677617,86.792678"
Masjid,Mosque,"XV84+W66 Masjid, Maheshuwa, Bihar 852114",,XV84+W66,Maheshuwa,852114,Bihar,IN,https://www.google.com/maps/place/Masjid/data=!4m7!3m6!1s0x39ee3593da93545b:0x1b82e242c0b1c643!8m2!3d25.9672838!4d86.855504!16s%2Fg%2F11kh95xfkg!19sChIJW1ST2pM17jkRQ8axwELighs?authuser=0&hl=en&rclk=1,"25.9672838,86.855504"
Masjid Khasiya Tola Majhrait msjd khSyh ttwlh lmpwr,Mosque,"XR87+QX Masjid Khasiya Tola Majhrait msjd khSyh ttwlh lmpwr, Majarhat, Bihar 852114",,XR87+QX,Majarhat,,Bihar,IN,https://www.google.com/maps/place/Masjid+Khasiya+Tola+Majhrait+%D9%85%D8%B3%D8%AC%D8%AF+%D8%AE%D8%B5%DB%8C%DB%81+%D9%B9%D9%88%D9%84%DB%81+%D9%84%D8%A7%D9%85%D9%BE%D9%88%D8%B1%E2%80%AD/data=!4m7!3m6!1s0x39ee373cc7d0f9ef:0x83318fa35bf564a!8m2!3d25.9668449!4d86.8149316!16s%2Fg%2F11k3fb1g5f!19sChIJ7_nQxzw37jkRSla_NfoYMwg?authuser=0&hl=en&rclk=1,"25.966844899999998,86.8149316"
Jama masjid islami Muhalla,Mosque,"XR84+GV Jama masjid islami Muhalla, Majarhat, Bihar 852128",,XR84+GV,Majarhat,852128,Bihar,IN,https://www.google.com/maps/place/Jama+masjid+islami+Muhalla/data=!4m7!3m6!1s0x39ee3783cec5e635:0x19df07971b854c23!8m2!3d25.967234!4d86.806278!16s%2Fg%2F11s98kkvm6!19sChIJNebFzoM37jkRI0yFG5cH3xk?authuser=0&hl=en&rclk=1,"25.967233999999998,86.80627799999999"
msjd khSyh twlh Masjid Khasiya Tola,Mosque,"XR79+XR msjd khSyh twlh Masjid Khasiya Tola, Rampur, Bihar 852114",,XR79+XR,Rampur,,Bihar,IN,https://www.google.com/maps/place/%D9%85%D8%B3%D8%AC%D8%AF+%D8%AE%D8%B5%DB%8C%DB%81+%D8%AA%D9%88%D9%84%DB%81+Masjid+Khasiya+Tola%E2%80%AD/data=!4m7!3m6!1s0x39ee37142f2a9629:0xd170068e3bdd8bd9!8m2!3d25.9649079!4d86.8195345!16s%2Fg%2F11k3g9p7__!19sChIJKZYqLxQ37jkR2YvdO44GcNE?authuser=0&hl=en&rclk=1,"25.9649079,86.8195345"
Sukhasan choti masjid,Mosque,"VQGM+QP9 Sukhasan choti masjid, Sukhasan Dakhinwari, Bihar 852113",,VQGM+QP9,Sukhasan Dakhinwari,852113,Bihar,IN,https://www.google.com/maps/place/Sukhasan+choti+masjid/data=!4m7!3m6!1s0x39ee311b2c385923:0x11aaa5640a2e8634!8m2!3d25.8768523!4d86.7842474!16s%2Fg%2F11v093hgs9!19sChIJI1k4LBsx7jkRNIYuCmSlqhE?authuser=0&hl=en&rclk=1,"25.8768523,86.7842474"
jmaa msjid saur baajaar,Mosque,"RMQM+QQ2 jmaa msjid saur baajaar, Saur Bazar, Bihar 852221",,RMQM+QQ2,Saur Bazar,,Bihar,IN,https://www.google.com/maps/place/%E0%A4%9C%E0%A4%AE%E0%A4%BE+%E0%A4%AE%E0%A4%B8%E0%A5%8D%E0%A4%9C%E0%A4%BF%E0%A4%A6+%E0%A4%B8%E0%A5%8C%E0%A4%B0+%E0%A4%AC%E0%A4%BE%E0%A4%9C%E0%A4%BE%E0%A4%B0/data=!4m7!3m6!1s0x39ee3b9a7dbcf9cd:0x42ede84769606c17!8m2!3d25.8393766!4d86.6843812!16s%2Fg%2F11rqz0qpxn!19sChIJzfm8fZo77jkRF2xgaUfo7UI?authuser=0&hl=en&rclk=1,"25.839376599999998,86.68438119999999"
Laxminiya Masjid,Mosque,"RMPM+3GC Laxminiya Masjid, Laxminiya, Saur Bazar, Bihar",,"RMPM+3GC, Laxminiya",Saur Bazar,,Bihar,IN,https://www.google.com/maps/place/Laxminiya+Masjid/data=!4m7!3m6!1s0x39ee3b55e096e905:0x12886aad67eb38c0!8m2!3d25.8351953!4d86.6837705!16s%2Fg%2F11tc3n28g3!19sChIJBemW4FU77jkRwDjrZ61qiBI?authuser=0&hl=en&rclk=1,"25.8351953,86.6837705"
Sophia Masjid,Mosque,"2VM3+JM Sophia Masjid, Giddha, Bihar 852128",,2VM3+JM,Giddha,,Bihar,IN,https://www.google.com/maps/place/Sophia+Masjid/data=!4m7!3m6!1s0x39ee4b596a03d361:0xf31b74e8c990a344!8m2!3d26.0340625!4d86.8541875!16s%2Fg%2F11trm7f9hh!19sChIJYdMDallL7jkRRKOQyeh0G_M?authuser=0&hl=en&rclk=1,"26.034062499999997,86.8541875"
Jama masjid Singheshwar,Mosque,"XQMX+CP6 Jama masjid Singheshwar, Singheshwar, Bihar 852128",,XQMX+CP6,Singheshwar,,Bihar,IN,https://www.google.com/maps/place/Jama+masjid+Singheshwar/data=!4m7!3m6!1s0x39ee37293bb116bb:0x4b3deae2bf0f1860!8m2!3d25.9835474!4d86.799258!16s%2Fg%2F11l1n8fqtr!19sChIJuxaxOyk37jkRYBgPv-LqPUs?authuser=0&hl=en&rclk=1,"25.9835474,86.799258"
NURANI JAMA MASJID SUKHASAN,Mosque,"VQHJ+MX8 NURANI JAMA MASJID SUKHASAN, Sukhasan, Sukhasan Uttarwari, Bihar 852113",,VQHJ+MX8,"Sukhasan, Sukhasan Uttarwari",,Bihar,IN,https://www.google.com/maps/place/NURANI+JAMA+MASJID+SUKHASAN/data=!4m7!3m6!1s0x39ee31275c2e3429:0x945dc80535567ad5!8m2!3d25.879152!4d86.7824381!16s%2Fg%2F11vb55xjr_!19sChIJKTQuXCcx7jkR1XpWNQXIXZQ?authuser=0&hl=en&rclk=1,"25.879151999999998,86.7824381"
Jama Masjid Chandanpatti,Mosque,"2PXR+3W9 Jama Masjid Chandanpatti, Aurahi Ekparha, Bihar 852128",,2PXR+3W9,Aurahi Ekparha,852128,Bihar,IN,https://www.google.com/maps/place/Jama+Masjid+Chandanpatti/data=!4m7!3m6!1s0x39ee4922ebe5656b:0x10e52e9ec2488cb1!8m2!3d26.0476969!4d86.7422472!16s%2Fg%2F11s662dfbs!19sChIJa2Xl6yJJ7jkRsYxIwp4u5RA?authuser=0&hl=en&rclk=1,"26.0476969,86.7422472"
Masjid,Mosque,"3QW9+QPM Masjid, Kanhuan Goriari, Bihar 852128",,3QW9+QPM,Kanhuan Goriari,852128,Bihar,IN,https://www.google.com/maps/place/Masjid/data=!4m7!3m6!1s0x39ee4939d3ae7a09:0xaee58afeb3138b8!8m2!3d26.0969697!4d86.7692887!16s%2Fg%2F11q3c_4m95!19sChIJCXqu0zlJ7jkRuDgx669Y7go?authuser=0&hl=en&rclk=1,"26.0969697,86.76928869999999"
Aksa masjid,Mosque,"2PFV+PGG Aksa masjid, Jagbani, Bihar 852128",,2PFV+PGG,Jagbani,852128,Bihar,IN,https://www.google.com/maps/place/Aksa+masjid/data=!4m7!3m6!1s0x39ee499fe344785d:0x93e5302abe55a4e1!8m2!3d26.0234329!4d86.7437663!16s%2Fg%2F11vlj_mpqq!19sChIJXXhE459J7jkR4aRVviow5ZM?authuser=0&hl=en&rclk=1,"26.0234329,86.74376629999999"
House mohd juber,Housing society,"WQFV+MHR House mohd juber, Jama Masjid Rd, Madhepura, Bihar 852113",,"WQFV+MHR, Jama Masjid Rd",Madhepura,852113,Bihar,IN,https://www.google.com/maps/place/House+mohd+juber/data=!4m7!3m6!1s0x39ee37001e40a033:0xf1dfeb2d6be29ca1!8m2!3d25.9242455!4d86.7938778!16s%2Fg%2F11vm1x8267!19sChIJM6BAHgA37jkRoZziay3r3_E?authuser=0&hl=en&rclk=1,"25.924245499999998,86.79387779999999"
Choti Masjid Ward No 14 Maheshua Madhepura,School,"Choti Masjid Ward No 14 Maheshua Madhepura, choti masjid ward no 14, Maheshua, Bihar",,"choti masjid ward no 14, Maheshua",,,Bihar,IN,https://www.google.com/maps/place/Choti+Masjid+Ward+No+14+Maheshua+Madhepura/data=!4m7!3m6!1s0x39ee378b1c1918f7:0x8c1d54b36a135b43!8m2!3d25.9286803!4d86.7909827!16s%2Fg%2F11h7krrbgk!19sChIJ9xgZHIs37jkRQ1sTarNUHYw?authuser=0&hl=en&rclk=1,"25.9286803,86.7909827"
Lakshmipur Bhagwati ward number 9 masjid,Bar,"Lakshmipur Bhagwati ward number 9 masjid, Madhepura jila ward number 9 lakshmipur Bhagwat",,Madhepura jila ward number 9 lakshmipur Bhagwat,,,Bihar,IN,https://www.google.com/maps/place/Lakshmipur+Bhagwati+ward+number+9+masjid/data=!4m7!3m6!1s0x39ee37890728bced:0x10d4689ab92cb76f!8m2!3d25.9240079!4d86.7945582!16s%2Fg%2F11t9wl4ky1!19sChIJ7bwoB4k37jkRb7csuZpo1BA?authuser=0&hl=en&rclk=1,"25.9240079,86.7945582"
