name,main_category,address,address_ward,address_street,address_city,address_postal_code,address_state,address_country_code,link,coordinates
Noorani Masjid,Mosque,"Noorani Masjid, B.D. Colony, Bapu Dham Colony, Sector 26 East, Chandigarh, 160019","B.D. Colony, Bapu Dham Colony, Sector 26 East",,Chandigarh,160019,Chandigarh,IN,https://www.google.com/maps/place/Noorani+Masjid/data=!4m7!3m6!1s0x390fecd71687f4e9:0x6d1e70f9ab0fc5ef!8m2!3d30.7170713!4d76.816817!16s%2Fg%2F1pzsg9955!19sChIJ6fSHFtfsDzkR78UPq_lwHm0?authuser=0&hl=en&rclk=1,"30.717071299999997,76.816817"
Maniyar Masjid,Mosque,"X5J8+R3F Maniyar Masjid, Ranjitpur, Uttar Pradesh 277207",,X5J8+R3F,Ranjitpur,277207,Uttar Pradesh,IN,https://www.google.com/maps/place/Maniyar+Masjid/data=!4m7!3m6!1s0x39925c37e5c19c8b:0xf8ecb039a9b10f4d!8m2!3d25.9820625!4d84.1651839!16s%2Fg%2F11g6b11hpl!19sChIJi5zB5TdckjkRTQ-xqTmw7Pg?authuser=0&hl=en&rclk=1,"25.982062499999998,84.1651839"
Masjid-E-Rukaiya,Mosque,"Masjid-E-Rukaiya, Ward no-4, Islampura, Laxmangarh, Rajasthan 332311",,"Ward no-4, Islampura",Laxmangarh,332311,Rajasthan,IN,https://www.google.com/maps/place/Masjid-E-Rukaiya/data=!4m7!3m6!1s0x396cab053be91045:0xc8511083a763bb1f!8m2!3d27.8121932!4d75.0241231!16s%2Fg%2F11cr_yj0tc!19sChIJRRDpOwWrbDkRH7tjp4MQUcg?authuser=0&hl=en&rclk=1,"27.8121932,75.0241231"
Madina Masjid Menasar,Mosque,"WMGM+VMM Madina Masjid Menasar, Menasar, Rajasthan 331505",,WMGM+VMM,Menasar,331505,Rajasthan,IN,https://www.google.com/maps/place/Madina+Masjid+Menasar/data=!4m7!3m6!1s0x3914b6cb09451611:0x7c9427df49f55a2b!8m2!3d27.9275428!4d74.6840826!16s%2Fg%2F11gcm09yq8!19sChIJERZFCcu2FDkRK1r1Sd8nlHw?authuser=0&hl=en&rclk=1,"27.927542799999998,74.6840826"
Noorani Masjid,Mosque,"R28F+C57 Noorani Masjid, Laxmangarh, Rajasthan 332311",,R28F+C57,Laxmangarh,332311,Rajasthan,IN,https://www.google.com/maps/place/Noorani+Masjid/data=!4m7!3m6!1s0x396cab1baa4edef7:0x14e4fabbc79b4981!8m2!3d27.8160402!4d75.0229292!16s%2Fg%2F11gg73kt90!19sChIJ995OqhurbDkRgUmbx7v65BQ?authuser=0&hl=en&rclk=1,"27.8160402,75.0229292"
Minara Masjid,Mosque,"52XW+VXQ Minara Masjid, Mahansar, Rajasthan 331030",,52XW+VXQ,Mahansar,331030,Rajasthan,IN,https://www.google.com/maps/place/Minara+Masjid/data=!4m7!3m6!1s0x39135e1191a4ec25:0xf3df4c304b447272!8m2!3d28.1997003!4d75.0474864!16s%2Fg%2F11g8fmj321!19sChIJJeykkRFeEzkRcnJESzBM3_M?authuser=0&hl=en&rclk=1,"28.1997003,75.0474864"
Jama Masjid,Mosque,"3XFQ+M7R Jama Masjid, Hetamsar, Goriya Chhota, Rajasthan 332303",,3XFQ+M7R,"Hetamsar, Goriya Chhota",332303,Rajasthan,IN,https://www.google.com/maps/place/Jama+Masjid/data=!4m7!3m6!1s0x3913588af7cdd519:0xc0f2646ac81439ca!8m2!3d28.0742466!4d74.9881462!16s%2Fg%2F11fx9db408!19sChIJGdXN94pYEzkRyjkUyGpk8sA?authuser=0&hl=en&rclk=1,"28.0742466,74.9881462"
Masjid maannkii,Mosque,"JV57+JM8 Masjid maannkii, Manki, Rajasthan 301026",,JV57+JM8,Manki,301026,Rajasthan,IN,https://www.google.com/maps/place/Masjid+%E0%A4%AE%E0%A4%BE%E0%A4%A3%E0%A4%95%E0%A5%80/data=!4m7!3m6!1s0x3972ebe9626563b5:0x951c077794ce2887!8m2!3d27.609029!4d76.8642149!16s%2Fg%2F11h6lqqgqn!19sChIJtWNlYunrcjkRhyjOlHcHHJU?authuser=0&hl=en&rclk=1,"27.609029,76.8642149"
Jama Masjid,Mosque,"VHV3+47X Jama Masjid, Jalia II-Kaniya Rd, Kaniya, Rajasthan 305625",,"VHV3+47X, Jalia II-Kaniya Rd",Kaniya,305625,Rajasthan,IN,https://www.google.com/maps/place/Jama+Masjid/data=!4m7!3m6!1s0x396915b69664c247:0xdbc418311ac4e396!8m2!3d25.8928609!4d74.5532344!16s%2Fg%2F11cn6kdqd4!19sChIJR8JklrYVaTkRluPEGjEYxNs?authuser=0&hl=en&rclk=1,"25.8928609,74.5532344"
Madina Masjid Rinu,Mosque,"V2WM+3JF Madina Masjid Rinu, Rinu, Rajasthan 332311",,V2WM+3JF,Rinu,,Rajasthan,IN,https://www.google.com/maps/place/Madina+Masjid+Rinu/data=!4m7!3m6!1s0x391355654d8609bf:0xb183e4f99b25fb78!8m2!3d27.8951926!4d75.0340589!16s%2Fg%2F11f9zc55kh!19sChIJvwmGTWVVEzkRePslm_nkg7E?authuser=0&hl=en&rclk=1,"27.895192599999998,75.03405889999999"
jama masjid,Mosque,"P34W+2HR jama masjid, Basni Sumer, Rajasthan 341510",,P34W+2HR,Basni Sumer,341510,Rajasthan,IN,https://www.google.com/maps/place/jama+masjid/data=!4m7!3m6!1s0x396a4970f30e5b4f:0xfee36523b37206a4!8m2!3d26.7051021!4d74.0963847!16s%2Fg%2F11j3s8g2xy!19sChIJT1sO83BJajkRpAZysyNl4_4?authuser=0&hl=en&rclk=1,"26.705102099999998,74.0963847"
Jama Masjid Mindasari,Mosque,"FGV8+GWV Jama Masjid Mindasari, Mindasari, Rajasthan 341303",,FGV8+GWV,Mindasari,341303,Rajasthan,IN,https://www.google.com/maps/place/Jama+Masjid+Mindasari/data=!4m7!3m6!1s0x396b3ebe062170db:0xb603cc8056e6b8c7!8m2!3d27.4938605!4d74.5172909!16s%2Fg%2F11gfgdjcp9!19sChIJ23AhBr4-azkRx7jmVoDMA7Y?authuser=0&hl=en&rclk=1,"27.4938605,74.51729089999999"
USMANIYA MASJID,Mosque,"3JH5+VJF USMANIYA MASJID, Ratangarh, Rajasthan 331022",,3JH5+VJF,Ratangarh,331022,Rajasthan,IN,https://www.google.com/maps/place/USMANIYA+MASJID/data=!4m7!3m6!1s0x3914bf4c3ee6180f:0x18151464e9790714!8m2!3d28.0796777!4d74.6090414!16s%2Fg%2F11c6r2_yhf!19sChIJDxjmPky_FDkRFAd56WQUFRg?authuser=0&hl=en&rclk=1,"28.079677699999998,74.6090414"
Madina Masjid,Mosque,"Madina Masjid, Tanee, Rajasthan 331030",,,Tanee,331030,Rajasthan,IN,https://www.google.com/maps/place/Madina+Masjid/data=!4m7!3m6!1s0x39135d603acd595b:0xdbab884b3bb0bb00!8m2!3d28.1802054!4d75.1229684!16s%2Fg%2F11ll_gcyl0!19sChIJW1nNOmBdEzkRALuwO0uIq9s?authuser=0&hl=en&rclk=1,"28.1802054,75.12296839999999"
Jama Masjid,Mosque,"Jama Masjid, Sherda, Rajasthan 335503",,,Sherda,335503,Rajasthan,IN,https://www.google.com/maps/place/Jama+Masjid/data=!4m7!3m6!1s0x3913b865d0050a8d:0x6eb387fe07d8a2f!8m2!3d28.9783081!4d75.4903235!16s%2Fg%2F11f2ckv0ky!19sChIJjQoF0GW4EzkRL4p94H846wY?authuser=0&hl=en&rclk=1,"28.9783081,75.4903235"
Umer Masjid,Mosque,"R29F+H2V Umer Masjid, Unnamed Road, Laxmangarh, Rajasthan 332311",,"R29F+H2V, Unnamed Road",Laxmangarh,332311,Rajasthan,IN,https://www.google.com/maps/place/Umer+Masjid/data=!4m7!3m6!1s0x396cabd4990a67b5:0x10f2fb480794afca!8m2!3d27.8189791!4d75.0225526!16s%2Fg%2F11f5q057wp!19sChIJtWcKmdSrbDkRyq-UB0j78hA?authuser=0&hl=en&rclk=1,"27.8189791,75.0225526"
Mundiya Khera Masjid,Mosque,"JPW2+P92 Mundiya Khera Masjid, Shaudan home road, Mundiya Khera, Rajasthan 301028",,"JPW2+P92, Shaudan home road",Mundiya Khera,301028,Rajasthan,IN,https://www.google.com/maps/place/Mundiya+Khera+Masjid/data=!4m7!3m6!1s0x397297d7ed7ce409:0x7d549dfcefc8e9ee!8m2!3d27.6467734!4d76.7008985!16s%2Fg%2F11j64qxhr8!19sChIJCeR87deXcjkR7unI7_ydVH0?authuser=0&hl=en&rclk=1,"27.646773399999997,76.7008985"
Modawasi Masjid moddvaasii msjid,Mosque,"P838+J4C Modawasi Masjid moddvaasii msjid, Rajgarh Rd, Modawasi, Rajasthan 331023",,"P838+J4C, Rajgarh Rd",Modawasi,331023,Rajasthan,IN,https://www.google.com/maps/place/Modawasi+Masjid+%E0%A4%AE%E0%A5%8B%E0%A4%A1%E0%A4%B5%E0%A4%BE%E0%A4%B8%E0%A5%80+%E0%A4%AE%E0%A4%B8%E0%A5%8D%E0%A4%9C%E0%A4%BF%E0%A4%A6/data=!4m7!3m6!1s0x3913991e03c91b4d:0xf95b665c95966cc6!8m2!3d28.7040702!4d75.3152534!16s%2Fg%2F11h5646542!19sChIJTRvJAx6ZEzkRxmyWlVxmW_k?authuser=0&hl=en&rclk=1,"28.7040702,75.3152534"
masjid mainasar,Mosque,"WMHM+FX3 masjid mainasar, Menasar, Rajasthan 331022",,WMHM+FX3,Menasar,331022,Rajasthan,IN,https://www.google.com/maps/place/masjid+mainasar/data=!4m7!3m6!1s0x3914b6cb6ee34abb:0xa7918680ec8c694f!8m2!3d27.9286386!4d74.6849305!16s%2Fg%2F11c2y5tctf!19sChIJu0rjbsu2FDkRT2mM7ICGkac?authuser=0&hl=en&rclk=1,"27.9286386,74.6849305"
Masjid Kanwari,Mosque,"WM7J+3F8 Masjid Kanwari, Kanwari, Rajasthan 331505",,WM7J+3F8,Kanwari,331505,Rajasthan,IN,https://www.google.com/maps/place/Masjid+Kanwari/data=!4m7!3m6!1s0x3914b6b202f49d01:0xa36f143d75fcd88a!8m2!3d27.9126542!4d74.6811942!16s%2Fg%2F11fy4t2pv6!19sChIJAZ30ArK2FDkRitj8dT0Ub6M?authuser=0&hl=en&rclk=1,"27.9126542,74.6811942"
maszid madansar,Mosque,"472H+278 maszid madansar, Madansar, Rajasthan 333001",,472H+278,Madansar,333001,Rajasthan,IN,https://www.google.com/maps/place/maszid+madansar/data=!4m7!3m6!1s0x39134753c5e58a67:0x156a99430ee81520!8m2!3d28.1000349!4d75.2782093!16s%2Fg%2F11h6gwkc1z!19sChIJZ4rlxVNHEzkRIBXoDkOZahU?authuser=0&hl=en&rclk=1,"28.100034899999997,75.2782093"
Maridan Masjid,Mosque,"49JX+MJV Maridan Masjid, Seth Manna Lal Marg, Chobari Mandi Colony, Jhunjhunu, Rajasthan 333001",Chobari Mandi Colony,"49JX+MJV, Seth Manna Lal Marg",Jhunjhunu,333001,Rajasthan,IN,https://www.google.com/maps/place/Maridan+Masjid/data=!4m7!3m6!1s0x391339060db61fc3:0xcf2a2bcf0ce2466!8m2!3d28.1317445!4d75.3990609!16s%2Fg%2F11g195gr6v!19sChIJwx-2DQY5EzkRZiTO8Lyi8gw?authuser=0&hl=en&rclk=1,"28.1317445,75.3990609"
Masjid Maniyabass,Mosque,"Q36H+6CR Masjid Maniyabass, Jamalgarh Bewan, Raod, Manyabass, Haryana",,"Q36H+6CR, Jamalgarh Bewan, Raod","Manyabass, Kanwari",,Haryana,IN,https://www.google.com/maps/place/Masjid+Maniyabass/data=!4m7!3m6!1s0x3972dd290b716901:0xa91a41321f402552!8m2!3d27.7606145!4d77.078508!16s%2Fg%2F11fthk3dgm!19sChIJAWlxCyndcjkRUiVAHzJBGqk?authuser=0&hl=en&rclk=1,"27.7606145,77.078508"
Nurani Masjid,Mosque,"5573+GQ Nurani Masjid, Khejarli Kalan, Rajasthan 342802",,5573+GQ,Khejarli Kalan,,Rajasthan,IN,https://www.google.com/maps/place/Nurani+Masjid/data=!4m7!3m6!1s0x39421fdfb7a84311:0x1786b015a78b3342!8m2!3d26.1638313!4d73.1544409!16s%2Fg%2F11sqh3l3x_!19sChIJEUOot98fQjkRQjOLpxWwhhc?authuser=0&hl=en&rclk=1,"26.1638313,73.1544409"
new masjid maniar,Mosque,"X5MF+Q28 new masjid maniar, Maniyar, Uttar Pradesh 277207",,X5MF+Q28,Maniyar,277207,Uttar Pradesh,IN,https://www.google.com/maps/place/new+masjid+maniar/data=!4m7!3m6!1s0x39925d6a8e65f33f:0x73a49de0e5e7da7f!8m2!3d25.9844188!4d84.1725707!16s%2Fg%2F11g_xz7lj6!19sChIJP_NljmpdkjkRf9rn5eCdpHM?authuser=0&hl=en&rclk=1,"25.9844188,84.1725707"
Madina Mosque,Mosque,"QRH8+493 Madina Mosque, Dhanani, Rajasthan 332318",,QRH8+493,Dhanani,332318,Rajasthan,IN,https://www.google.com/maps/place/Madina+Mosque/data=!4m7!3m6!1s0x396b5257f7364b11:0x57a4d61fff459ea3!8m2!3d27.7777719!4d74.8159263!16s%2Fg%2F11hcv0m_yq!19sChIJEUs291dSazkRo55F_x_WpFc?authuser=0&hl=en&rclk=1,"27.777771899999998,74.8159263"
haaj'raaN msjid,Mosque,"CW4M+835 haaj'raaN msjid, Jhariya, Rajasthan 331001",,CW4M+835,Jhariya,331001,Rajasthan,IN,https://www.google.com/maps/place/%E0%A4%B9%E0%A4%BE%E0%A4%9C%E0%A4%BC%E0%A4%B0%E0%A4%BE%E0%A4%82+%E0%A4%AE%E0%A4%B8%E0%A5%8D%E0%A4%9C%E0%A4%BF%E0%A4%A6/data=!4m7!3m6!1s0x391482c2d57a2b81:0x47e7ef6e5ba3e50c!8m2!3d28.4057723!4d74.9327267!16s%2Fg%2F11hbc0cm4x!19sChIJgSt61cKCFDkRDOWjW27v50c?authuser=0&hl=en&rclk=1,"28.4057723,74.9327267"
nai masjid maniar,Mosque,"X5MF+M26 nai masjid maniar, Unnamed Road, Maniyar, Uttar Pradesh 277207",,"X5MF+M26, Unnamed Road",Maniyar,277207,Uttar Pradesh,IN,https://www.google.com/maps/place/nai+masjid+maniar/data=!4m7!3m6!1s0x39925d518386cb59:0x1bbf033e35a16fd6!8m2!3d25.984164!4d84.1725083!16s%2Fg%2F11g_yfgkc9!19sChIJWcuGg1FdkjkR1m-hNT4Dvxs?authuser=0&hl=en&rclk=1,"25.984164,84.17250829999999"
JAMA MASJID Mahanandpur Dyodha,Mosque,"HRP3+7Q6 JAMA MASJID Mahanandpur Dyodha, Main Road, Mahanandpur Dyodha, Rajasthan 322205",,"HRP3+7Q6, Main Road",Mahanandpur Dyodha,322205,Rajasthan,IN,https://www.google.com/maps/place/JAMA+MASJID+Mahanandpur+Dyodha/data=!4m7!3m6!1s0x39721f7d929f248f:0xab24f2376e8f8f2e!8m2!3d26.5856578!4d76.804393!16s%2Fg%2F11f7r07tjp!19sChIJjySfkn0fcjkRLo-PbjfyJKs?authuser=0&hl=en&rclk=1,"26.5856578,76.80439299999999"
Masjid Anas,Mosque,"WWVG+W48 Masjid Anas, Mandela Chhota, Rajasthan 332301",,WWVG+W48,Mandela Chhota,332301,Rajasthan,IN,https://www.google.com/maps/place/Masjid+Anas/data=!4m7!3m6!1s0x3914a9c62d00ddbd:0xd3c75b97a9c7bf6d!8m2!3d27.9449571!4d74.9253383!16s%2Fg%2F11q41yxv_w!19sChIJvd0ALcapFDkRbb_HqZdbx9M?authuser=0&hl=en&rclk=1,"27.9449571,74.92533829999999"
Masjid A Muhammadi,Mosque,"78PF+346 Masjid A Muhammadi, 9 Mrn, Rajasthan 335511",,78PF+346,9 Mrn,,Rajasthan,IN,https://www.google.com/maps/place/Masjid+A+Muhammadi/data=!4m7!3m6!1s0x3913e18d988e1b2f:0xe38ed0a9da238e94!8m2!3d29.2851675!4d75.3227518!16s%2Fg%2F11l8lckb8d!19sChIJLxuOmI3hEzkRlI4j2qnQjuM?authuser=0&hl=en&rclk=1,"29.2851675,75.32275179999999"
Maszid,Mosque,"58MR+29R Maszid, Dhannasar, 7 Kdd, Rajasthan 335524",,58MR+29R,"Dhannasar, 7 Kdd",335524,Rajasthan,IN,https://www.google.com/maps/place/Maszid/data=!4m7!3m6!1s0x39142958ff3e285b:0x3b3ffee978d15b79!8m2!3d29.1826133!4d74.3409057!16s%2Fg%2F11g0spyfpb!19sChIJWyg-_1gpFDkReVvReOn-Pzs?authuser=0&hl=en&rclk=1,"29.1826133,74.3409057"
Masjid,Mosque,"CR3G+QR Masjid, Sahadka, Rajasthan 301021",,CR3G+QR,Sahadka,,Rajasthan,IN,https://www.google.com/maps/place/Masjid/data=!4m7!3m6!1s0x3972f3f0efb4d57d:0x13e17523876f6e13!8m2!3d27.404402!4d76.8270701!16s%2Fg%2F11smhzqxgr!19sChIJfdW07_DzcjkRE25vhyN14RM?authuser=0&hl=en&rclk=1,"27.404401999999997,76.8270701"
ek miinaar msjid,Mosque,"GC23+724 ek miinaar msjid, saalkii, dduuNgrii, Salki Doongri, Rajasthan 326035",,"GC23+724, saalkii","dduuNgrii, Salki Doongri",,Rajasthan,IN,https://www.google.com/maps/place/%E0%A4%8F%E0%A4%95+%E0%A4%AE%E0%A5%80%E0%A4%A8%E0%A4%BE%E0%A4%B0+%E0%A4%AE%E0%A4%B8%E0%A5%8D%E0%A4%9C%E0%A4%BF%E0%A4%A6/data=!4m7!3m6!1s0x396533be9b613797:0xbf5ae0257f9f751f!8m2!3d24.5006433!4d76.4025826!16s%2Fg%2F11kj4207r0!19sChIJlzdhm74zZTkRH3WffyXgWr8?authuser=0&hl=en&rclk=1,"24.5006433,76.4025826"
ROD WALI MASJID BIDGAMA,Mosque,"93MQ+MGX ROD WALI MASJID BIDGAMA, Birgawan, Rajasthan 321205",,93MQ+MGX,Birgawan,,Rajasthan,IN,https://www.google.com/maps/place/ROD+WALI+MASJID+BIDGAMA/data=!4m7!3m6!1s0x3972f9e826edc655:0x4f83026799f3519f!8m2!3d27.3842303!4d77.0888459!16s%2Fg%2F11rtm6mmnz!19sChIJVcbtJuj5cjkRn1HzmWcCg08?authuser=0&hl=en&rclk=1,"27.3842303,77.0888459"
nuuraanii msjid,Mosque,"M93H+8H nuuraanii msjid, Vishwanathpura, Rajasthan 341306",,M93H+8H,Vishwanathpura,,Rajasthan,IN,https://www.google.com/maps/place/%E0%A4%A8%E0%A5%82%E0%A4%B0%E0%A4%BE%E0%A4%A8%E0%A5%80+%E0%A4%AE%E0%A4%B8%E0%A5%8D%E0%A4%9C%E0%A4%BF%E0%A4%A6/data=!4m7!3m6!1s0x396b2f2460e6c8c5:0x53a2dfc03935e51e!8m2!3d27.6532972!4d74.3789978!16s%2Fg%2F11ss9nfwzp!19sChIJxcjmYCQvazkRHuU1OcDfolM?authuser=0&hl=en&rclk=1,"27.653297199999997,74.3789978"
Madina masjid,Mosque,"WR8W+CV6 Madina masjid, Karnga Bara, Rajasthan 332301",,WR8W+CV6,Karnga Bara,332301,Rajasthan,IN,https://www.google.com/maps/place/Madina+masjid/data=!4m7!3m6!1s0x3914add62ad96a03:0x475cc8936d8858b3!8m2!3d27.9160349!4d74.8471405!16s%2Fg%2F11h3qkts9d!19sChIJA2rZKtatFDkRs1iIbZPIXEc?authuser=0&hl=en&rclk=1,"27.9160349,74.8471405"
Kariman Masjid,Mosque,"R258+WHM Kariman Masjid, Laxmangarh, Rajasthan 332311",,R258+WHM,Laxmangarh,332311,Rajasthan,IN,https://www.google.com/maps/place/Kariman+Masjid/data=!4m7!3m6!1s0x396cab99ea2543ff:0x9dbc4662317d9835!8m2!3d27.8098418!4d75.01642!16s%2Fg%2F11tgbd4ywp!19sChIJ_0Ml6pmrbDkRNZh9MWJGvJ0?authuser=0&hl=en&rclk=1,"27.809841799999997,75.01642"
mrkjii msjid,Mosque,"84J6+QXR mrkjii msjid, Ghanghu, Rajasthan 331021",,84J6+QXR,Ghanghu,331021,Rajasthan,IN,https://www.google.com/maps/place/%E0%A4%AE%E0%A4%B0%E0%A4%95%E0%A4%9C%E0%A5%80+%E0%A4%AE%E0%A4%B8%E0%A5%8D%E0%A4%9C%E0%A4%BF%E0%A4%A6/data=!4m7!3m6!1s0x3913655b54063e15:0xea64da06aff76315!8m2!3d28.3319854!4d75.1123831!16s%2Fg%2F11rrs35jrx!19sChIJFT4GVFtlEzkRFWP3rwbaZOo?authuser=0&hl=en&rclk=1,"28.331985399999997,75.1123831"
Chhoti masjid Mannaka,Mosque,"Chhoti masjid Mannaka, Choti masjid, Mannaka, Alwar, Rajasthan 301001",,Choti masjid,"Mannaka, Alwar",,Rajasthan,IN,https://www.google.com/maps/place/Chhoti+masjid+Mannaka/data=!4m7!3m6!1s0x397297baa11d75bb:0x76ad9283397ec75d!8m2!3d27.5682076!4d76.6567132!16s%2Fg%2F11t6tv00fr!19sChIJu3UdobqXcjkRXcd-OYOSrXY?authuser=0&hl=en&rclk=1,"27.568207599999997,76.6567132"
Jama masjid,Mosque,"QXF3+MW7 Jama masjid, Unnamed Road, Jaroda Khurd, Rajasthan 341514",,"QXF3+MW7, Unnamed Road",Jaroda Khurd,341514,Rajasthan,IN,https://www.google.com/maps/place/Jama+masjid/data=!4m7!3m6!1s0x396a4500294bc955:0x1ba7686bd709ccf8!8m2!3d26.7741723!4d73.9547944!16s%2Fg%2F11nsb8xsw5!19sChIJVclLKQBFajkR-MwJ12topxs?authuser=0&hl=en&rclk=1,"26.7741723,73.9547944"
Masjid,Mosque,"FH6P+C2 Masjid, Nangal Ratawat, Rajasthan 301001",,FH6P+C2,Nangal Ratawat,,Rajasthan,IN,https://www.google.com/maps/place/Masjid/data=!4m7!3m6!1s0x39729b89c90e227b:0x9a65eddbb6fdf6e9!8m2!3d27.4611247!4d76.5850037!16s%2Fg%2F11ptwkyh2n!19sChIJeyIOyYmbcjkR6fb9ttvtZZo?authuser=0&hl=en&rclk=1,"27.4611247,76.5850037"
Noorani jamma masjid,Mosque,"FX6W+J4 Noorani jamma masjid, Bhainsrawat, Pathroda, Rajasthan 321205",,FX6W+J4,"Bhainsrawat, Pathroda",,Rajasthan,IN,https://www.google.com/maps/place/Noorani+jamma+masjid/data=!4m7!3m6!1s0x3972f1a6e0499beb:0xb50158804e6e1f55!8m2!3d27.4615632!4d76.9952974!16s%2Fg%2F11s22_dw9f!19sChIJ65tJ4KbxcjkRVR9uToBYAbU?authuser=0&hl=en&rclk=1,"27.4615632,76.9952974"
mNdrsaa,Mosque,"C2VH+XJX mNdrsaa, Jheetredi, Rajasthan 321205",,C2VH+XJX,Jheetredi,,Rajasthan,IN,https://www.google.com/maps/place/%E0%A4%AE%E0%A4%82%E0%A4%A6%E0%A4%B0%E0%A4%B8%E0%A4%BE/data=!4m7!3m6!1s0x3972fbd0c41be3c5:0xea0613644eec5a92!8m2!3d27.4449875!4d77.0290995!16s%2Fg%2F11syb0y06p!19sChIJxeMbxND7cjkRklrsTmQTBuo?authuser=0&hl=en&rclk=1,"27.4449875,77.0290995"
Haji mahmud khan ka madarsaGanni deelr ki dukan,Mosque,"4VW8+WWC Haji mahmud khan ka madarsaGanni deelr ki dukan, Aau, Rajasthan 342311",,4VW8+WWC,Aau,,Rajasthan,IN,https://www.google.com/maps/place/Haji+mahmud+khan+ka+madarsaGanni+deelr+ki+dukan/data=!4m7!3m6!1s0x39405d9f60788c6b:0x5bdb2935f914b91a!8m2!3d27.1473012!4d72.8672652!16s%2Fg%2F11s0pz4ncr!19sChIJa4x4YJ9dQDkRGrkU-TUp21s?authuser=0&hl=en&rclk=1,"27.147301199999998,72.86726519999999"
Nurani masjid,Mosque,"Nurani masjid, Mansuri mohllah, Onkarpura, Semalkhedi, Madhya Pradesh 456222",,Mansuri mohllah,"Onkarpura, Semalkhedi",,Madhya Pradesh,IN,https://www.google.com/maps/place/Nurani+masjid/data=!4m7!3m6!1s0x3963914aa400c229:0x98c13f075021c221!8m2!3d23.1896794!4d75.4878377!16s%2Fg%2F11tmvvrmh2!19sChIJKcIApEqRYzkRIcIhUAc_wZg?authuser=0&hl=en&rclk=1,"23.1896794,75.4878377"
msjid,Mosque,"M35J+89X msjid, Nawda, Rajasthan 321204",,M35J+89X,Nawda,,Rajasthan,IN,https://www.google.com/maps/place/%E0%A4%AE%E0%A4%B8%E0%A5%8D%E0%A4%9C%E0%A4%BF%E0%A4%A6/data=!4m7!3m6!1s0x3972e7771731194b:0x59cc1d6836954b4b!8m2!3d27.6583739!4d77.0809804!16s%2Fg%2F11scrd264w!19sChIJSxkxF3fncjkRS0uVNmgdzFk?authuser=0&hl=en&rclk=1,"27.658373899999997,77.0809804"
Jama Masjid,Mosque,"RVF9+Q8J Jama Masjid, Rajas, Rajasthan 332317",,RVF9+Q8J,Rajas,,Rajasthan,IN,https://www.google.com/maps/place/Jama+Masjid/data=!4m7!3m6!1s0x396b5353fffffffd:0x5535ac75ebff55ca!8m2!3d27.8244731!4d74.8682568!16s%2Fg%2F11h9vlh56l!19sChIJ_f___1NTazkRylX_63WsNVU?authuser=0&hl=en&rclk=1,"27.8244731,74.8682568"
Noorani masjid,Mosque,"7XV2+VHR Noorani masjid, Manoharpur, Rajasthan 303104",,7XV2+VHR,Manoharpur,,Rajasthan,IN,https://www.google.com/maps/place/Noorani+masjid/data=!4m7!3m6!1s0x396d0901e94495c3:0xb569cbcfd0f03ded!8m2!3d27.2947354!4d75.951404!16s%2Fg%2F11s90nl8zm!19sChIJw5VE6QEJbTkR7T3w0M_LabU?authuser=0&hl=en&rclk=1,"27.2947354,75.951404"
Nurani.masjid.muindya.khara,Mosque,"JPW2+M9R Nurani.masjid.muindya.khara, Mundiya Khera, Rajasthan 301028",,JPW2+M9R,Mundiya Khera,301028,Rajasthan,IN,https://www.google.com/maps/place/Nurani.masjid.muindya.khara/data=!4m7!3m6!1s0x397297e5ee3b095f:0xfcbe3a5ad988341b!8m2!3d27.6467317!4d76.7008973!16s%2Fg%2F11ry964v5w!19sChIJXwk77uWXcjkRGzSI2Vo6vvw?authuser=0&hl=en&rclk=1,"27.6467317,76.7008973"
Masjid Maniharaan msjd mnyhrn,Mosque,"P2MH+JVV Masjid Maniharaan msjd mnyhrn, Maniharon ka rasta, Coori Baazar, Keshav Pura, Hindaun, Rajasthan 322230","Coori Baazar, Keshav Pura","P2MH+JVV, Maniharon ka rasta",Hindaun,322230,Rajasthan,IN,https://www.google.com/maps/place/Masjid+Maniharaan+%D9%85%D8%B3%D8%AC%D8%AF+%D9%85%D9%86%D9%8A%D9%87%D8%A7%D8%B1%D8%A7%D9%86%E2%80%AD/data=!4m7!3m6!1s0x39722fdaa0289931:0xf990ab00ef5243cd!8m2!3d26.7341201!4d77.0296837!16s%2Fg%2F11tndfy3n6!19sChIJMZkooNovcjkRzUNS7wCrkPk?authuser=0&hl=en&rclk=1,"26.7341201,77.02968369999999"
Nurani Mewat masjid,Mosque,"6VM5+6FC Nurani Mewat masjid, Unnamed Road, Gothra, Rajasthan 301413",,"6VM5+6FC, Unnamed Road",Gothra,301413,Rajasthan,IN,https://www.google.com/maps/place/Nurani+Mewat+masjid/data=!4m7!3m6!1s0x39725f977c9eb435:0xdc054549382611e!8m2!3d27.2330533!4d76.8586374!16s%2Fg%2F11rx0f5r69!19sChIJNbSefJdfcjkRHmGCk1RUwA0?authuser=0&hl=en&rclk=1,"27.233053299999998,76.85863739999999"
Masjid,Mosque,"PF6W+24Q Masjid, Sinjguru, Rajasthan 334801",,PF6W+24Q,Sinjguru,,Rajasthan,IN,https://www.google.com/maps/place/Masjid/data=!4m7!3m6!1s0x391555067f2f1c09:0xbb28e1c694ed7822!8m2!3d27.7100795!4d73.4953494!16s%2Fg%2F11tsr1j60g!19sChIJCRwvfwZVFTkRInjtlMbhKLs?authuser=0&hl=en&rclk=1,"27.7100795,73.4953494"
Nurani masjid,Mosque,"C6PW+GP7 Nurani masjid, Kurki, Rajasthan 306101",,C6PW+GP7,Kurki,,Rajasthan,IN,https://www.google.com/maps/place/Nurani+masjid/data=!4m7!3m6!1s0x396bd3ec9f2ff297:0xac31540944505440!8m2!3d26.4362762!4d74.2467814!16s%2Fg%2F11s5gg9zkm!19sChIJl_Ivn-zTazkRQFRQRAlUMaw?authuser=0&hl=en&rclk=1,"26.4362762,74.2467814"
Masjid Khariya Anawas,Mosque,"9J8P+C94 Masjid Khariya Anawas, Khariya Anawas, Rajasthan 342601",,9J8P+C94,Khariya Anawas,,Rajasthan,IN,https://www.google.com/maps/place/Masjid+Khariya+Anawas/data=!4m7!3m6!1s0x396a05eaa1991285:0x77833a7980f84ace!8m2!3d26.3660199!4d73.6359602!16s%2Fg%2F11jz_ktpx0!19sChIJhRKZoeoFajkRzkr4gHk6g3c?authuser=0&hl=en&rclk=1,"26.366019899999998,73.6359602"
mgliyaa msjid,Mosque,"PM73+HQ9 mgliyaa msjid, Meeno Ki Dhani, Ekalkhori, Rajasthan 342303",,PM73+HQ9,"Meeno Ki Dhani, Ekalkhori",,Rajasthan,IN,https://www.google.com/maps/place/%E0%A4%AE%E0%A4%97%E0%A4%B2%E0%A4%BF%E0%A4%AF%E0%A4%BE+%E0%A4%AE%E0%A4%B8%E0%A5%8D%E0%A4%9C%E0%A4%BF%E0%A4%A6/data=!4m7!3m6!1s0x39410797a710ecb1:0xdd119c01c95c59aa!8m2!3d26.7139028!4d72.6544879!16s%2Fg%2F11tg276td9!19sChIJsewQp5cHQTkRqllcyQGcEd0?authuser=0&hl=en&rclk=1,"26.7139028,72.65448789999999"
jaamaa msjid,Mosque,"2J8P+GRC jaamaa msjid, Mandarpura, Khuiyan, Rajasthan 335523",Mandarpura,2J8P+GRC,Khuiyan,335523,Rajasthan,IN,https://www.google.com/maps/place/%E0%A4%9C%E0%A4%BE%E0%A4%AE%E0%A4%BE+%E0%A4%AE%E0%A4%B8%E0%A5%8D%E0%A4%9C%E0%A4%BF%E0%A4%A6/data=!4m7!3m6!1s0x3914173ccd840ca7:0xa494b0b659d69616!8m2!3d29.0162583!4d74.6370422!16s%2Fg%2F11t46s247j!19sChIJpwyEzTwXFDkRFpbWWbawlKQ?authuser=0&hl=en&rclk=1,"29.016258299999997,74.6370422"
JamA masjid,Mosque,"F245+92C JamA masjid, Bhainsrawat, Rajasthan 321205",,F245+92C,Bhainsrawat,,Rajasthan,IN,https://www.google.com/maps/place/JamA+masjid/data=!4m7!3m6!1s0x3972f1a47b11d7bb:0xe31080b72028f969!8m2!3d27.4559305!4d77.0075055!16s%2Fg%2F11n5bhsy4t!19sChIJu9cRe6TxcjkRafkoILeAEOM?authuser=0&hl=en&rclk=1,"27.455930499999997,77.0075055"
Masjid e Amina,Mosque,"GW7Q+692 Masjid e Amina, Hajaripura, Rajasthan 322241",,GW7Q+692,Hajaripura,,Rajasthan,IN,https://www.google.com/maps/place/Masjid+e+Amina/data=!4m7!3m6!1s0x3971897bb72b2279:0xc160bd0b866b0dbb!8m2!3d26.5130032!4d76.938379!16s%2Fg%2F11s57fd19s!19sChIJeSIrt3uJcTkRuw1rhgu9YME?authuser=0&hl=en&rclk=1,"26.5130032,76.938379"
mohrngr jaamaa msjid,Mosque,"6R86+999 mohrngr jaamaa msjid, Bhojasar, Rajasthan 342311",,6R86+999,Bhojasar,,Rajasthan,IN,https://www.google.com/maps/place/%E0%A4%AE%E0%A5%8B%E0%A4%B9%E0%A4%B0%E0%A4%A8%E0%A4%97%E0%A4%B0+%E0%A4%9C%E0%A4%BE%E0%A4%AE%E0%A4%BE+%E0%A4%AE%E0%A4%B8%E0%A5%8D%E0%A4%9C%E0%A4%BF%E0%A4%A6/data=!4m7!3m6!1s0x39405d3e512c57f3:0xd658c2db8f21bfa0!8m2!3d27.2159!4d72.8109723!16s%2Fg%2F11tp0xf_20!19sChIJ81csUT5dQDkRoL8hj9vCWNY?authuser=0&hl=en&rclk=1,"27.215899999999998,72.8109723"
MASJID FAIJANE IMMAM HUSAIN,Mosque,"F6H6+6RP MASJID FAIJANE IMMAM HUSAIN, Rohisi, Rajasthan 341513",,F6H6+6RP,Rohisi,,Rajasthan,IN,https://www.google.com/maps/place/MASJID+FAIJANE+IMMAM+HUSAIN/data=!4m7!3m6!1s0x396a33eaecc16e81:0xab9e5e1c94a88150!8m2!3d26.4780949!4d74.2120629!16s%2Fg%2F11ll8njwk6!19sChIJgW7B7OozajkRUIGolBxenqs?authuser=0&hl=en&rclk=1,"26.4780949,74.21206289999999"
Madeena Masjid Patan khurd,Mosque,"3V3F+FX5 Madeena Masjid Patan khurd, Patan Khurd, Rajasthan 301411",,3V3F+FX5,Patan Khurd,301411,Rajasthan,IN,https://www.google.com/maps/place/Madeena+Masjid+Patan+khurd/data=!4m7!3m6!1s0x390d3530ccee4047:0x5d3153a02e083dca!8m2!3d28.0536412!4d76.8749787!16s%2Fg%2F11kqtm4dlj!19sChIJR0DuzDA1DTkRyj0ILqBTMV0?authuser=0&hl=en&rclk=1,"28.053641199999998,76.8749787"
Jama masjid,Mosque,"ward no 7, Jama masjid, Rawatsar, Rajasthan 335524",,ward no 7,Rawatsar,,Rajasthan,IN,https://www.google.com/maps/place/Jama+masjid/data=!4m7!3m6!1s0x391683dc2fd6f773:0xb95d307d5b730e2f!8m2!3d29.2565632!4d74.4048831!16s%2Fg%2F11ryhdq6x_!19sChIJc_fWL9yDFjkRLw5zW30wXbk?authuser=0&hl=en&rclk=1,"29.2565632,74.40488309999999"
pahadi wali masjid,Mosque,"9GCW+CG pahadi wali masjid, Prithvipura, Rajasthan 301406",,9GCW+CG,Prithvipura,,Rajasthan,IN,https://www.google.com/maps/place/pahadi+wali+masjid/data=!4m7!3m6!1s0x397283f09a85d505:0x227da7ad6482745e!8m2!3d27.3710926!4d76.5462907!16s%2Fg%2F11txrn1x15!19sChIJBdWFmvCDcjkRXnSCZK2nfSI?authuser=0&hl=en&rclk=1,"27.371092599999997,76.5462907"
Jama masjid manaklao,Mosque,"C264+C29 Jama masjid manaklao, Manaklao, Rajasthan 342024",,C264+C29,Manaklao,,Rajasthan,IN,https://www.google.com/maps/place/Jama+masjid+manaklao/data=!4m7!3m6!1s0x3941932c8a0214a3:0xf154ee13c24f7ea7!8m2!3d26.4110461!4d73.0051055!16s%2Fg%2F11kjlqqqzr!19sChIJoxQCiiyTQTkRp35PwhPuVPE?authuser=0&hl=en&rclk=1,"26.4110461,73.0051055"
Masjid Qamruzzaman Mirpura,Mosque,"67P4+J98 Masjid Qamruzzaman Mirpura, Meerpura, Hemsagar, Rajasthan 342022",,67P4+J98,"Meerpura, Hemsagar",,Rajasthan,IN,https://www.google.com/maps/place/Masjid+Qamruzzaman+Mirpura/data=!4m7!3m6!1s0x39415d39a1281205:0x35c6ad467ce75cb0!8m2!3d26.236532!4d72.2559599!16s%2Fg%2F11shqhwy7y!19sChIJBRIooTldQTkRsFznfEatxjU?authuser=0&hl=en&rclk=1,"26.236532,72.2559599"
Masjid,Mosque,"GF8W+XM7 Masjid, Kansingh Ki Seer, Rajasthan 342307",,GF8W+XM7,Kansingh Ki Seer,,Rajasthan,IN,https://www.google.com/maps/place/Masjid/data=!4m7!3m6!1s0x39409daf155e1505:0x4f38968b25ddc89c!8m2!3d27.51742!4d72.4966664!16s%2Fg%2F11t88x7966!19sChIJBRVeFa-dQDkRnMjdJYuWOE8?authuser=0&hl=en&rclk=1,"27.517419999999998,72.4966664"
jama masjid,Mosque,"8HR8+MJQ jama masjid, 11 Rwd, Rajasthan 335525",,8HR8+MJQ,11 Rwd,,Rajasthan,IN,https://www.google.com/maps/place/jama+masjid/data=!4m7!3m6!1s0x39169fe6ca24813b:0xe65f22402d08602d!8m2!3d29.3417008!4d74.5666132!16s%2Fg%2F11rfbjjqkg!19sChIJO4EkyuafFjkRLWAILUAiX-Y?authuser=0&hl=en&rclk=1,"29.341700799999998,74.56661319999999"
jaamaa msjid bmbulii nainvaaN,Mosque,"RW6C+CJV jaamaa msjid bmbulii nainvaaN, Aranya, Rajasthan 323616",,RW6C+CJV,Aranya,,Rajasthan,IN,https://www.google.com/maps/place/%E0%A4%9C%E0%A4%BE%E0%A4%AE%E0%A4%BE+%E0%A4%AE%E0%A4%B8%E0%A5%8D%E0%A4%9C%E0%A4%BF%E0%A4%A6+%E0%A4%AC%E0%A4%AE%E0%A5%8D%E0%A4%AC%E0%A5%81%E0%A4%B2%E0%A5%80+%E0%A4%A8%E0%A5%88%E0%A4%A8%E0%A4%B5%E0%A4%BE%E0%A4%82/data=!4m7!3m6!1s0x396e4d01691bff87:0x88c5f4296f43543!8m2!3d25.8111248!4d75.9215543!16s%2Fg%2F11rmxbrcj8!19sChIJh_8baQFNbjkRQzX0lkJfjAg?authuser=0&hl=en&rclk=1,"25.811124799999998,75.9215543"
Masjid Bamniya,Mosque,"X3J8+MW Masjid Bamniya, Chak Ukhlana, Rajasthan 304023",,X3J8+MW,Chak Ukhlana,,Rajasthan,IN,https://www.google.com/maps/place/Masjid+Bamniya/data=!4m7!3m6!1s0x396e470fd4e6aba9:0x89123b94c2077c7b!8m2!3d25.9817238!4d76.0672812!16s%2Fg%2F11tjqs4yfj!19sChIJqavm1A9HbjkRe3wHwpQ7Eok?authuser=0&hl=en&rclk=1,"25.981723799999997,76.0672812"
Usmaniya madarsah,Mosque,"7CMR+3W Usmaniya madarsah, Siwandi, Rajasthan 342301",,7CMR+3W,Siwandi,,Rajasthan,IN,https://www.google.com/maps/place/Usmaniya+madarsah/data=!4m7!3m6!1s0x3940914b0534d04d:0x1c340487e749dbbb!8m2!3d27.2826848!4d72.4423359!16s%2Fg%2F11ttb6jrgq!19sChIJTdA0BUuRQDkRu9tJ54cENBw?authuser=0&hl=en&rclk=1,"27.2826848,72.4423359"
Mosque,Mosque,"P96X+C5W Mosque, Suriyas, Rajasthan 341515",,P96X+C5W,Suriyas,341515,Rajasthan,IN,https://www.google.com/maps/place/Mosque/data=!4m7!3m6!1s0x396bb775d4a58f31:0xf11408fea0fe701e!8m2!3d26.7114439!4d74.3983543!16s%2Fg%2F11tn495jhb!19sChIJMY-l1HW3azkRHnD-oP4IFPE?authuser=0&hl=en&rclk=1,"26.7114439,74.3983543"
Maniar badi masjid,Housing society,"X4QV+VW4 Maniar badi masjid, Maniar, chandupakad, Pilue, Uttar Pradesh 277207",Maniar,X4QV+VW4,"chandupakad, Pilue",277207,Uttar Pradesh,IN,https://www.google.com/maps/place/Maniar+badi+masjid/data=!4m7!3m6!1s0x39925d17bbf53e9d:0xb61c2b83c16e3867!8m2!3d25.9896368!4d84.1448328!16s%2Fg%2F11v18xkzf5!19sChIJnT71uxddkjkRZzhuwYMrHLY?authuser=0&hl=en&rclk=1,"25.9896368,84.1448328"
New masjid,Place of worship,"X5M9+RR3 New masjid, Maniyar Town Marg, Maniyar, Uttar Pradesh 277207",,"X5M9+RR3, Maniyar Town Marg",Maniyar,277207,Uttar Pradesh,IN,https://www.google.com/maps/place/New+masjid/data=!4m7!3m6!1s0x39925dbb84c2e7c3:0xf73651dbd1990f1!8m2!3d25.9845039!4d84.169533!16s%2Fg%2F11rxv2t8hx!19sChIJw-fChLtdkjkR8ZAZvR1lcw8?authuser=0&hl=en&rclk=1,"25.9845039,84.169533"
