name,main_category,address,address_ward,address_street,address_city,address_postal_code,address_state,address_country_code,link,coordinates
TNTJ,Mosque,"2X99+WRM TNTJ, Opposite G.P. Hospital, Coimbatore, Tamil Nadu 641012",Opposite G.P. Hospital,2X99+WRM,Coimbatore,641012,Tamil Nadu,IN,https://www.google.com/maps/place/TNTJ/data=!4m7!3m6!1s0x3ba85856a8e1d391:0x1fd2f86fda9b7158!8m2!3d11.0198436!4d76.9695433!16s%2Fg%2F11bzrj3v95!19sChIJkdPhqFZYqDsRWHGb2m_40h8?authuser=0&hl=en&rclk=1,"11.0198436,76.9695433"
Makkha Masjid Dheenul Islam Sunnath Jama-Ath,Mosque,"3, Makkha Masjid Dheenul Islam Sunnath Jama-Ath, Makkah Masjid Rd, Sundarapuram, Coimbatore, Kurichi, Tamil Nadu 641024",Sundarapuram,"3, Makkah Masjid Rd","Coimbatore, Kurichi",641024,Tamil Nadu,IN,https://www.google.com/maps/place/Makkha+Masjid+Dheenul+Islam+Sunnath+Jama-Ath/data=!4m7!3m6!1s0x3ba85a312b9c0963:0xc9178239e1529308!8m2!3d10.9534341!4d76.9726083!16s%2Fg%2F1thzs6y3!19sChIJYwmcKzFaqDsRCJNS4TmCF8k?authuser=0&hl=en&rclk=1,"10.953434099999999,76.97260829999999"
Masjid Arafa,Mosque,"Masjid Arafa, 70, Rose Park, 4th St, South Ukkadam, Coimbatore, Tamil Nadu 641001","Anbu Nagar, South Ukkadam","70, Rose Park, 4th St",Coimbatore,641001,Tamil Nadu,IN,https://www.google.com/maps/place/Masjid+Arafa/data=!4m7!3m6!1s0x3ba859dc987dd883:0xbb5ebfb49a65f6d3!8m2!3d10.9812255!4d76.9743703!16s%2Fg%2F11hvk2_g7t!19sChIJg9h9mNxZqDsR0_ZlmrS_Xrs?authuser=0&hl=en&rclk=1,"10.981225499999999,76.97437029999999"
Ahle Sunnath Jamath Masjid,Mosque,"2X99+X2F Ahle Sunnath Jamath Masjid, 4th St, Gandhipuram, Coimbatore, Tamil Nadu 641012",,"2X99+X2F, 4th St","Gandhipuram, Coimbatore",641012,Tamil Nadu,IN,https://www.google.com/maps/place/Ahle+Sunnath+Jamath+Masjid/data=!4m7!3m6!1s0x3ba858568683dd9f:0x837b1b28f8c8e6de!8m2!3d11.0199288!4d76.9675333!16s%2Fg%2F11r8jf6yc!19sChIJn92DhlZYqDsR3ubI-Cgbe4M?authuser=0&hl=en&rclk=1,"11.019928799999999,76.9675333"
Hyder Ali Tippu Sultan Sunnath Jamaath Masjid,Mosque,"Hyder Ali Tippu Sultan Sunnath Jamaath Masjid, 835, Puthiyavan Nagar, Sukrawar Pettai, R.S. Puram, Coimbatore, Tamil Nadu 641001","Puthiyavan Nagar, Sukrawar Pettai, R.S. Puram",835,Coimbatore,641001,Tamil Nadu,IN,https://www.google.com/maps/place/Hyder+Ali+Tippu+Sultan+Sunnath+Jamaath+Masjid/data=!4m7!3m6!1s0x3ba8590464adf617:0xd1db75da690e6ad3!8m2!3d11.0073947!4d76.9554292!16s%2Fg%2F11c75wlclh!19sChIJF_atZARZqDsR02oOadp129E?authuser=0&hl=en&rclk=1,"11.007394699999999,76.9554292"
Neelambur Masjid (palli Vasal),Mosque,"335J+MQV Neelambur Masjid (palli Vasal), 1/503 Y, Avinashi Rd, Neelambur, Tamil Nadu 641062",,"335J+MQV, 1/503 Y, Avinashi Rd",Neelambur,641062,Tamil Nadu,IN,https://www.google.com/maps/place/Neelambur+Masjid+%28palli+Vasal%29/data=!4m7!3m6!1s0x3ba8561f1f6ffeb5:0xe701106641a7a48f!8m2!3d11.0592464!4d77.0819938!16s%2Fg%2F11b76krc0b!19sChIJtf5vHx9WqDsRj6SnQWYQAec?authuser=0&hl=en&rclk=1,"11.0592464,77.08199379999999"
Masjid Jannathul Firdouse,Mosque,"3X8X+85V Masjid Jannathul Firdouse, Saravanampatti, Siranandha Puram, Coimbatore, Tamil Nadu 641049",Saravanampatti,3X8X+85V,"Siranandha Puram, Coimbatore",641049,Tamil Nadu,IN,https://www.google.com/maps/place/Masjid+Jannathul+Firdouse/data=!4m7!3m6!1s0x3ba8f7e4bad99d5b:0x5695a79660afaae1!8m2!3d11.0658605!4d76.997914!16s%2Fg%2F11b6cvpr2g!19sChIJW53ZuuT3qDsR4aqvYJanlVY?authuser=0&hl=en&rclk=1,"11.0658605,76.997914"
Masjid e Quba,Mosque,"Masjid e Quba, 62, NGR St, BR Puram, Hope College, Saravanampatti, Coimbatore, Tamil Nadu 641004","BR Puram, Hope College, Saravanampatti","62, NGR St",Coimbatore,641004,Tamil Nadu,IN,https://www.google.com/maps/place/Masjid+e+Quba/data=!4m7!3m6!1s0x3ba8578f7634676f:0x6812b44cd186e65a!8m2!3d11.0281148!4d77.0189499!16s%2Fg%2F1hhjkrnbb!19sChIJb2c0do9XqDsRWuaG0Uy0Emg?authuser=0&hl=en&rclk=1,"11.028114799999999,77.0189499"
Singanallur Masjidmsjd,Mosque,"223H+279 Singanallur Masjidmsjd, Kamarajar Rd, Opp. Central Bus Stand, TNHB Housing Unit, Singanallur, Tamil Nadu 641015","Opp. Central Bus Stand, TNHB Housing Unit","223H+279, Kamarajar Rd",Singanallur,641015,Tamil Nadu,IN,https://www.google.com/maps/place/Singanallur+Masjid%D9%85%D8%B3%D8%AC%D8%AF%E2%80%AD/data=!4m7!3m6!1s0x3ba8576c15087873:0x9a5f0505eeefcfd1!8m2!3d11.0025265!4d77.0282226!16s%2Fg%2F1tdc86xc!19sChIJc3gIFWxXqDsR0c_v7gUFX5o?authuser=0&hl=en&rclk=1,"11.0025265,77.02822259999999"
Madarase Taqwa & Jumma Masjid Brindhavan Nagar,Mosque,"22HQ+836 Madarase Taqwa & Jumma Masjid Brindhavan Nagar, Rd Number 1, Peelamedu, Brindhavan Nagar, Civil Aerodrome Post, Coimbatore, Tamil Nadu 641014","Peelamedu, Brindhavan Nagar, Civil Aerodrome Post","22HQ+836, Rd Number 1",Coimbatore,641014,Tamil Nadu,IN,https://www.google.com/maps/place/Madarase+Taqwa+%26+Jumma+Masjid+Brindhavan+Nagar/data=!4m7!3m6!1s0x3ba857bcc9ff43a9:0xa0d66acdc16034d8!8m2!3d11.0282785!4d77.03765!16s%2Fg%2F11c4b2wym4!19sChIJqUP_ybxXqDsR2DRgwc1q1qA?authuser=0&hl=en&rclk=1,"11.028278499999999,77.03765"
Masjid Taqwa,Mosque,"2, Masjid Taqwa, 6, Gandhi Nagar Main Rd, Ganapathy Housing Unit, Gandhi Nagar, Ganapathy, Coimbatore, Tamil Nadu 641006","Ganapathy Housing Unit, Gandhi Nagar, Ganapathy","2, 6, Gandhi Nagar Main Rd",Coimbatore,641006,Tamil Nadu,IN,https://www.google.com/maps/place/Masjid+Taqwa/data=!4m7!3m6!1s0x3ba85842152d889b:0x8d07c07a7e3931b3!8m2!3d11.0353096!4d76.9801943!16s%2Fg%2F11b6jfwbfl!19sChIJm4gtFUJYqDsRszE5fnrAB40?authuser=0&hl=en&rclk=1,"11.0353096,76.9801943"
"Ponvizha Nagar, Sunnath Jamath Masjid",Mosque,"XXJ9+H5G Ponvizha Nagar, Sunnath Jamath Masjid, Ponvizha Nagar, South Ukkadam, Coimbatore, Tamil Nadu 641008","Ponvizha Nagar, South Ukkadam",XXJ9+H5G,Coimbatore,641008,Tamil Nadu,IN,"https://www.google.com/maps/place/Ponvizha+Nagar,+Sunnath+Jamath+Masjid/data=!4m7!3m6!1s0x3ba8599cc49c18dd:0x222dcdbac19055a1!8m2!3d10.9814371!4d76.9679598!16s%2Fg%2F12hw4xfbb!19sChIJ3RicxJxZqDsRoVWQwbrNLSI?authuser=0&hl=en&rclk=1","10.981437099999999,76.9679598"
Mosque- Quwathul Islam Ahlus Sunnath Val Jamath,Mosque,"Mosque- Quwathul Islam Ahlus Sunnath Val Jamath, 197, V. K., Peelmadu Market Gandhima Nagar Road, Peelamedu, Tamil Nadu 641004",Peelamedu,"197, V. K., Peelmadu Market Gandhima Nagar Road",Coimbatore,641004,Tamil Nadu,IN,https://www.google.com/maps/place/Mosque-+Quwathul+Islam+Ahlus+Sunnath+Val+Jamath/data=!4m7!3m6!1s0x3ba858246b391eed:0xd35077e61ed3aa95!8m2!3d11.0282878!4d77.0016126!16s%2Fg%2F11c76jx7hm!19sChIJ7R45ayRYqDsRlarTHuZ3UNM?authuser=0&hl=en&rclk=1,"11.0282878,77.0016126"
Qurrathul Ain Hanafi Sunnath Jama-ath,Mosque,"2X53+36X Qurrathul Ain Hanafi Sunnath Jama-ath, Sir Shanmugam Rd, R.S. Puram, Coimbatore, Tamil Nadu 641002",R.S. Puram,"2X53+36X, Sir Shanmugam Rd",Coimbatore,641002,Tamil Nadu,IN,https://www.google.com/maps/place/Qurrathul+Ain+Hanafi+Sunnath+Jama-ath/data=!4m7!3m6!1s0x3ba85904a9f9cdf5:0x8aee00feb56719c7!8m2!3d11.0077287!4d76.9531047!16s%2Fg%2F12lkxdtrk!19sChIJ9c35qQRZqDsRxxlntf4A7oo?authuser=0&hl=en&rclk=1,"11.0077287,76.9531047"
Uppillipalayam Mosque,Mosque,"Uppillipalayam Mosque, No 804-A, Avinashi Road, Opp. Thandumariamman Koil, Uppilipalayam, Coimbatore, Tamil Nadu 641018","Near Dhandumariamman Kovil, ATT Colony, Gopalapuram","No 804-A, Avinashi Road, Opp. Thandumariamman Koil, Uppilipalayam",Coimbatore,641018,Tamil Nadu,IN,https://www.google.com/maps/place/Uppillipalayam+Mosque/data=!4m7!3m6!1s0x3ba859a87fd94edd:0x6c1baec8ca4eec4f!8m2!3d11.0027217!4d76.9674077!16s%2Fg%2F1263n9pk4!19sChIJ3U7Zf6hZqDsRT-xOysiuG2w?authuser=0&hl=en&rclk=1,"11.0027217,76.9674077"
Masjidhul Muslimeen- Run by JAQH,Mosque,"XXR8+H4H Masjidhul Muslimeen- Run by JAQH, Ukkadam, Coimbatore, Tamil Nadu 641001",Ukkadam,XXR8+H4H,Coimbatore,641001,Tamil Nadu,IN,https://www.google.com/maps/place/Masjidhul+Muslimeen-+Run+by+JAQH/data=!4m7!3m6!1s0x3ba8599ff6a1781b:0xe5e2d5f0a4a430af!8m2!3d10.9914341!4d76.9653664!16s%2Fg%2F11b8_pxyxt!19sChIJG3ih9p9ZqDsRrzCkpPDV4uU?authuser=0&hl=en&rclk=1,"10.9914341,76.9653664"
North Coimbatore Mosque/ Juma Masjid,Mosque,"North Coimbatore Mosque/ Juma Masjid, 238, Mettupalayam Rd, Tatabad, Kuppakonam Pudur, Coimbatore, Tamil Nadu 641043","Tatabad, Kuppakonam Pudur","238, Mettupalayam Rd",Coimbatore,641043,Tamil Nadu,IN,https://www.google.com/maps/place/North+Coimbatore+Mosque%2F+Juma+Masjid/data=!4m7!3m6!1s0x3ba858ede737813f:0xb3f93d3f3f604b5!8m2!3d11.0301082!4d76.9513841!16s%2Fg%2F11cp7jmvjq!19sChIJP4E35-1YqDsRtQT289OTPws?authuser=0&hl=en&rclk=1,"11.030108199999999,76.9513841"
Mosque msjd,Mosque,"Mosque msjd, 50, State Bank Rd Opp.Railway Station, State Bank Rd, Opp.Railway Station, Gopalapuram, Coimbatore, Tamil Nadu 641018","Opp.Railway Station, Gopalapuram","50, State Bank Rd Opp.Railway Station, State Bank Rd",Coimbatore,641018,Tamil Nadu,IN,https://www.google.com/maps/place/Mosque+%D9%85%D8%B3%D8%AC%D8%AF%E2%80%AD/data=!4m7!3m6!1s0x3ba859a124a2c34b:0x1acc77e65d82248d!8m2!3d10.9967006!4d76.9676602!16s%2Fg%2F11dfhvhhlk!19sChIJS8OiJKFZqDsRjSSCXeZ3zBo?authuser=0&hl=en&rclk=1,"10.996700599999999,76.9676602"
Athar Jamaath Masjid msjd,Mosque,"XXV5+9VJ Athar Jamaath Masjid msjd, Oppanakara St., Prakasam, Ukkadam, Coimbatore, Tamil Nadu 641001","Prakasam, Ukkadam","XXV5+9VJ, Oppanakara St.",Coimbatore,641001,Tamil Nadu,IN,https://www.google.com/maps/place/Athar+Jamaath+Masjid+%D9%85%D8%B3%D8%AC%D8%AF%E2%80%AD/data=!4m7!3m6!1s0x3ba8590b7169c297:0xb9a33af3b777ba4c!8m2!3d10.9934543!4d76.9596559!16s%2Fm%2F0wz1dr0!19sChIJl8JpcQtZqDsRTLp3t_M6o7k?authuser=0&hl=en&rclk=1,"10.9934543,76.9596559"
Sulur Mosque,Mosque,"24HC+JXP Sulur Mosque, Sulur, Tamil Nadu 641402",,24HC+JXP,Sulur,641402,Tamil Nadu,IN,https://www.google.com/maps/place/Sulur+Mosque/data=!4m7!3m6!1s0x3ba855c8fe4ba301:0x776a219b2515b352!8m2!3d11.0290989!4d77.1224515!16s%2Fg%2F124srg_zn!19sChIJAaNL_shVqDsRUrMVJZshanc?authuser=0&hl=en&rclk=1,"11.0290989,77.1224515"
Mosque Peelamadu,Mosque,"Mosque Peelamadu, 32/52, 1st Cross Rd, Peelamedu, PKD Nagar, Coimbatore, Tamil Nadu 641004","Peelamedu, PKD Nagar","32/52, 1st Cross Rd",Coimbatore,641004,Tamil Nadu,IN,https://www.google.com/maps/place/Mosque+Peelamadu/data=!4m7!3m6!1s0x3ba85827869610c1:0x58223864fe3a8686!8m2!3d11.0291861!4d77.0100886!16s%2Fg%2F11g7zwxxfh!19sChIJwRCWhidYqDsRhoY6_mQ4Ilg?authuser=0&hl=en&rclk=1,"11.029186099999999,77.0100886"
TNAU Masjid msjd,Mosque,"2W4Q+RP3 TNAU Masjid msjd, Robertson Rd, Tamil Nadu Agricultural University, P N Pudur, Coimbatore, Tamil Nadu 641003",Tamil Nadu Agricultural University,"2W4Q+RP3, Robertson Rd","P N Pudur, Coimbatore",641003,Tamil Nadu,IN,https://www.google.com/maps/place/TNAU+Masjid+%D9%85%D8%B3%D8%AC%D8%AF%E2%80%AD/data=!4m7!3m6!1s0x3ba85922270f15ef:0x74647d843e8193fe!8m2!3d11.0070053!4d76.9392974!16s%2Fg%2F11bycl8x2d!19sChIJ7xUPJyJZqDsR_pOBPoR9ZHQ?authuser=0&hl=en&rclk=1,"11.0070053,76.9392974"
Masjid-un-Noor msjd,Mosque,"XX8C+RXV Masjid-un-Noor msjd, Thirumarai Nagar, Kurichi, Coimbatore, Tamil Nadu 641024",Thirumarai Nagar,XX8C+RXV,"Kurichi, Coimbatore",641024,Tamil Nadu,IN,https://www.google.com/maps/place/Masjid-un-Noor+%D9%85%D8%B3%D8%AC%D8%AF%E2%80%AD/data=!4m7!3m6!1s0x3ba85a29a9d53c1f:0x86fb36046d584f8c!8m2!3d10.967117!4d76.9724116!16s%2Fg%2F1260qb59f!19sChIJHzzVqSlaqDsRjE9YbQQ2-4Y?authuser=0&hl=en&rclk=1,"10.967117,76.9724116"
Ondipudur Masjid,Mosque,"X3X4+M6R Ondipudur Masjid, Kamban Nagar, Ondipudur, Coimbatore, Tamil Nadu 641016",Kamban Nagar,X3X4+M6R,"Ondipudur, Coimbatore",641016,Tamil Nadu,IN,https://www.google.com/maps/place/Ondipudur+Masjid/data=!4m7!3m6!1s0x3ba8571c3b1e07dd:0x98dfb2cf258b574a!8m2!3d11.0018263!4d77.0526651!16s%2Fg%2F1hm553848!19sChIJ3QceOxxXqDsRSleLJc-y35g?authuser=0&hl=en&rclk=1,"11.0018263,77.0526651"
Masjide Noor,Mosque,"XXWP+CX3 Masjide Noor, Karunanidhi Nagar, Ramanathapuram, Coimbatore, Tamil Nadu 641045",Karunanidhi Nagar,XXWP+CX3,"Ramanathapuram, Coimbatore",641045,Tamil Nadu,IN,https://www.google.com/maps/place/Masjide+Noor/data=!4m7!3m6!1s0x3ba859c081ed6a87:0xfc9b4b6ccdf12bee!8m2!3d10.9960139!4d76.9874286!16s%2Fg%2F11f3wl5ghk!19sChIJh2rtgcBZqDsR7ivxzWxLm_w?authuser=0&hl=en&rclk=1,"10.9960139,76.9874286"
Rathinapuri Mosque,Mosque,"Rathinapuri Mosque, 4G2, 4th St, Viswanathapuram, Lakshmipuram, Ganapathypudur, Coimbatore,, Tamil Nadu 641006, 4th Street, Viswanathapuram, Lakshmipuram, Ganapathypudur, Lakshmipuram, Tatabad, Coimbatore, Tamil Nadu 641006","Lakshmipuram, Tatabad","4G2, 4th St, Viswanathapuram, Lakshmipuram, Ganapathypudur, Coimbatore,, Tamil Nadu 641006, 4th Street, Viswanathapuram, Lakshmipuram, Ganapathypudur",Coimbatore,641006,Tamil Nadu,IN,https://www.google.com/maps/place/Rathinapuri+Mosque/data=!4m7!3m6!1s0x3ba85859eb3fd553:0x9f6a3005d00be71a!8m2!3d11.0263616!4d76.9688987!16s%2Fg%2F11d_2j2kmg!19sChIJU9U_61lYqDsRGucL0AUwap8?authuser=0&hl=en&rclk=1,"11.0263616,76.9688987"
Masjid Ahlehadees,Mosque,"Masjid Ahlehadees, Masjid-e-Ahle Hadees, Ismail St, Near Five Corner, Town Hall, Coimbatore, Tamil Nadu 641001","Near Five Corner, Town Hall","Masjid-e-Ahle Hadees, Ismail St",Coimbatore,641001,Tamil Nadu,IN,https://www.google.com/maps/place/Masjid+Ahlehadees/data=!4m7!3m6!1s0x3ba8590bb6b40001:0x7e23da317a44912c!8m2!3d10.9953413!4d76.9609979!16s%2Fg%2F11dxrxcl8l!19sChIJAQC0tgtZqDsRLJFEejHaI34?authuser=0&hl=en&rclk=1,"10.9953413,76.9609979"
Misbahul Islam Ahle Sunnathval Jamath Masjid & Madrasa,Mosque,"Misbahul Islam Ahle Sunnathval Jamath Masjid & Madrasa, 2/21, 3rd Street, Malar Avenue, 3rd St, Malar Avenue, Cheran ma Nagar, Coimbatore, Tamil Nadu 641035","Malar Avenue, Cheran ma Nagar","2/21, 3rd Street, Malar Avenue, 3rd St",Coimbatore,641035,Tamil Nadu,IN,https://www.google.com/maps/place/Misbahul+Islam+Ahle+Sunnathval+Jamath+Masjid+%26+Madrasa/data=!4m7!3m6!1s0x3ba857fc89ba21c3:0xc5e623fb9ae974b1!8m2!3d11.055838!4d77.0193078!16s%2Fg%2F11c37lgsjc!19sChIJwyG6ifxXqDsRsXTpmvsj5sU?authuser=0&hl=en&rclk=1,"11.055838,77.01930779999999"
Al Masjidul QUTBI,Mosque,"14, Al Masjidul QUTBI, 14, Krishnarayapuram, Illango Nagar, Coimbatore, Tamil Nadu 641006","Krishnarayapuram, Illango Nagar","14, 14",Coimbatore,641006,Tamil Nadu,IN,https://www.google.com/maps/place/Al+Masjidul+QUTBI/data=!4m7!3m6!1s0x3ba8583b9680ac1f:0xa459bd1b6a0c3b1!8m2!3d11.030351!4d76.994753!16s%2Fg%2F11b6n8_dcn!19sChIJH6yAljtYqDsRscOgttGbRQo?authuser=0&hl=en&rclk=1,"11.030351,76.994753"
Lawley Road Masjid,Mosque,"2W6R+RXM Lawley Road Masjid, Lawley Rd, Coimbatore, Tamil Nadu 641003",Lawley Rd,2W6R+RXM,Coimbatore,641003,Tamil Nadu,IN,https://www.google.com/maps/place/Lawley+Road+Masjid/data=!4m7!3m6!1s0x3ba8591fe8958f7f:0x2e9b7409821b81dd!8m2!3d11.0120811!4d76.9424325!16s%2Fg%2F12cpfx0n0!19sChIJf4-V6B9ZqDsR3YEbggl0my4?authuser=0&hl=en&rclk=1,"11.0120811,76.9424325"
Sulur Aero Masjid,Mosque,"Sulur Aero Masjid, No 7/182,Selva Nandhini Complex , Near vinayagar kovil Sulur areo, Sulur, Tamil Nadu 641401",,"No 7/182,Selva Nandhini Complex , Near vinayagar kovil Sulur areo",Sulur,641401,Tamil Nadu,IN,https://www.google.com/maps/place/Sulur+Aero+Masjid/data=!4m7!3m6!1s0x3ba855ed1de6cb11:0xefe5a27ab353d039!8m2!3d11.0313001!4d77.1565875!16s%2Fg%2F11g__0mkcr!19sChIJEcvmHe1VqDsROdBTs3qi5e8?authuser=0&hl=en&rclk=1,"11.0313001,77.1565875"
Mosque msjd,Mosque,"Mosque msjd, #81, Nehru St, Peranaidu Layout, Ram Nagar, Coimbatore, Tamil Nadu 641009","Peranaidu Layout, Ram Nagar","#81, Nehru St",Coimbatore,641009,Tamil Nadu,IN,https://www.google.com/maps/place/Mosque+%D9%85%D8%B3%D8%AC%D8%AF%E2%80%AD/data=!4m7!3m6!1s0x3ba858ffb7659743:0xafe7f6bf2bb142c7!8m2!3d11.0151645!4d76.9628347!16s%2Fg%2F11c1qlm7zl!19sChIJQ5dlt_9YqDsRx0KxK7_2568?authuser=0&hl=en&rclk=1,"11.0151645,76.9628347"
Salafi Masjid Coimbatore,Mosque,"XXW6+G5W Salafi Masjid Coimbatore, Near Five Corner, Town Hall, Coimbatore, Tamil Nadu 641001","Near Five Corner, Town Hall",XXW6+G5W,Coimbatore,641001,Tamil Nadu,IN,https://www.google.com/maps/place/Salafi+Masjid+Coimbatore/data=!4m7!3m6!1s0x3ba8590bdb495899:0x8130f279070c93fe!8m2!3d10.9963634!4d76.9604463!16s%2Fg%2F11f0wlw19v!19sChIJmVhJ2wtZqDsR_pMMB3nyMIE?authuser=0&hl=en&rclk=1,"10.9963634,76.9604463"
Kerala Jamath Masjid,Mosque,"XXR6+HMW Kerala Jamath Masjid, back side naaz theatre, Old Market Rd, Ukkadam, Coimbatore, Tamil Nadu 641001",Ukkadam,"XXR6+HMW back side naaz theatre, Old Market Rd",Coimbatore,641001,Tamil Nadu,IN,https://www.google.com/maps/place/Kerala+Jamath+Masjid/data=!4m7!3m6!1s0x3ba859752ae045ed:0xad08e05a883fb235!8m2!3d10.9914759!4d76.9617176!16s%2Fg%2F1thp6fhg!19sChIJ7UXgKnVZqDsRNbI_iFrgCK0?authuser=0&hl=en&rclk=1,"10.9914759,76.9617176"
Masjid Hidhayathul Islam Shafiya Sunnath,Mosque,"Masjid Hidhayathul Islam Shafiya Sunnath, 397, 217, Periyar Nagar 3rd Cross St, Puliakulam, Coimbatore, Tamil Nadu 641045",Puliakulam,"397, 217, Periyar Nagar 3rd Cross St",Coimbatore,641045,Tamil Nadu,IN,https://www.google.com/maps/place/Masjid+Hidhayathul+Islam+Shafiya+Sunnath/data=!4m7!3m6!1s0x3ba859c5609ebb1f:0xad4232337988f1b1!8m2!3d11.0039199!4d76.9974081!16s%2Fg%2F11gbkxmc7w!19sChIJH7ueYMVZqDsRsfGIeTMyQq0?authuser=0&hl=en&rclk=1,"11.0039199,76.9974081"
Masjid Noor Madarasa,Mosque,"42MM+42M Masjid Noor Madarasa, NH948, Kovilpalayam, Tamil Nadu 641107",,"42MM+42M, NH948",Kovilpalayam,641107,Tamil Nadu,IN,https://www.google.com/maps/place/Masjid+Noor+Madarasa/data=!4m7!3m6!1s0x3ba8f9eb5998737d:0xda736bffb8b9075d!8m2!3d11.132829!4d77.032557!16s%2Fg%2F1hm2hp5yb!19sChIJfXOYWev5qDsRXQe5uP9rc9o?authuser=0&hl=en&rclk=1,"11.132829,77.032557"
Hanafi Sunnah Muslim Mosque - Masjid-e-Ibrahim,Mosque,"XX9G+G95 Hanafi Sunnah Muslim Mosque - Masjid-e-Ibrahim, Podanur Main Rd, Zam Zam Nagar, Kurichi Pirivu, Coimbatore, Tamil Nadu 641023",Zam Zam Nagar,"XX9G+G95, Podanur Main Rd","Kurichi Pirivu, Coimbatore",641023,Tamil Nadu,IN,https://www.google.com/maps/place/Hanafi+Sunnah+Muslim+Mosque+-+Masjid-e-Ibrahim/data=!4m7!3m6!1s0x3ba85a27e08127dd:0x572dafdd8d879f72!8m2!3d10.9687687!4d76.9759987!16s%2Fg%2F12lkwyg36!19sChIJ3SeB4CdaqDsRcp-Hjd2vLVc?authuser=0&hl=en&rclk=1,"10.9687687,76.97599869999999"
Izzathul Islam Shafia Sunnath Jamath & Matharasa,Mosque,"2XH5+GRM Izzathul Islam Shafia Sunnath Jamath & Matharasa, Pallivasal St, Tatabad, Rathinapuri, Tatabad, Coimbatore, Tamil Nadu 641027","Tatabad, Rathinapuri, Tatabad","2XH5+GRM, Pallivasal St",Coimbatore,641027,Tamil Nadu,IN,https://www.google.com/maps/place/Izzathul+Islam+Shafia+Sunnath+Jamath+%26+Matharasa/data=!4m7!3m6!1s0x3ba858f6b896c209:0xe78330292b34ab51!8m2!3d11.0288372!4d76.9595544!16s%2Fg%2F11b7f_9yyj!19sChIJCcKWuPZYqDsRUas0Kykwg-c?authuser=0&hl=en&rclk=1,"11.0288372,76.9595544"
Gandhipuram Masjid msjd,Mosque,"Gandhipuram Masjid msjd, 134, 4th St, Gandhipuram, Coimbatore, Tamil Nadu 641012",,"134, 4th St","Gandhipuram, Coimbatore",641012,Tamil Nadu,IN,https://www.google.com/maps/place/Gandhipuram+Masjid+%D9%85%D8%B3%D8%AC%D8%AF%E2%80%AD/data=!4m7!3m6!1s0x3ba858542f02e095:0xe1da7607b559a98a!8m2!3d11.0199409!4d76.9675436!16s%2Fg%2F11bt_gtn5x!19sChIJleACL1RYqDsRiqlZtQd22uE?authuser=0&hl=en&rclk=1,"11.0199409,76.9675436"
Chinna Palli masjid msjd,Mosque,"XXQ7+Q77 Chinna Palli masjid msjd, Eswaran koil street, fort, Ukkadam, Coimbatore, Tamil Nadu 641001",Ukkadam,"XXQ7+Q77, Eswaran koil street, fort",Coimbatore,641001,Tamil Nadu,IN,https://www.google.com/maps/place/Chinna+Palli+masjid+%D9%85%D8%B3%D8%AC%D8%AF%E2%80%AD/data=!4m7!3m6!1s0x3ba85975722aa651:0xe1a225d7d127b326!8m2!3d10.9894204!4d76.9631817!16s%2Fg%2F12hlnq_zp!19sChIJUaYqcnVZqDsRJrMn0dclouE?authuser=0&hl=en&rclk=1,"10.9894204,76.96318169999999"
Salafi Masjid,Mosque,"XX9H+25V Salafi Masjid, Dr Rajendra Prasad Rd, Sundarapuram, Amman Nagar, Podanur, Coimbatore, Tamil Nadu 641024","Sundarapuram, Amman Nagar","XX9H+25V, Dr Rajendra Prasad Rd","Podanur, Coimbatore",641024,Tamil Nadu,IN,https://www.google.com/maps/place/Salafi+Masjid/data=!4m7!3m6!1s0x3ba85a27b26d155f:0xbef6b26af61fac9!8m2!3d10.9676028!4d76.9779366!16s%2Fg%2F11f122r8h_!19sChIJXxVtsidaqDsRyfphryZr7ws?authuser=0&hl=en&rclk=1,"10.9676028,76.97793659999999"
Noorul Hoda Masjid,Mosque,"W2M4+9P4 Noorul Hoda Masjid, Coimbatore, Tamil Nadu 641021",,W2M4+9P4,Coimbatore,641021,Tamil Nadu,IN,https://www.google.com/maps/place/Noorul+Hoda+Masjid/data=!4m7!3m6!1s0x3ba85a79254938ad:0x90f719fd74fb5409!8m2!3d10.9333963!4d77.0068139!16s%2Fg%2F11f2wftcxd!19sChIJrThJJXlaqDsRCVT7dP0Z95A?authuser=0&hl=en&rclk=1,"10.9333963,77.0068139"
Masjid Near Dr Nanjapan Road,Mosque,"Masjid Near Dr Nanjapan Road, 803-A, Avinashi Rd, Opp. Dhandumariamman Koil, Near Dhandumariamman Kovil, ATT Colony, Uppilipalayam, Coimbatore, Tamil Nadu 641018","Near Dhandumariamman Kovil, ATT Colony, Uppilipalayam","803-A, Avinashi Rd, Opp. Dhandumariamman Koil",Coimbatore,641018,Tamil Nadu,IN,https://www.google.com/maps/place/Masjid+Near+Dr+Nanjapan+Road/data=!4m7!3m6!1s0x3ba859a62baa8ea7:0xd6039dc8321c48b4!8m2!3d11.0027219!4d76.9674076!16s%2Fg%2F11dylt602c!19sChIJp46qK6ZZqDsRtEgcMsidA9Y?authuser=0&hl=en&rclk=1,"11.0027219,76.9674076"
Jammathul Shalihiheen Masjid,Mosque,"Jammathul Shalihiheen Masjid, Ramnagar Masjid, 146, Nehru St, Peranaidu Layout, Ram Nagar, Coimbatore, Tamil Nadu 641009","Peranaidu Layout, Ram Nagar","Ramnagar Masjid, 146, Nehru St",Coimbatore,641009,Tamil Nadu,IN,https://www.google.com/maps/place/Jammathul+Shalihiheen+Masjid/data=!4m7!3m6!1s0x3ba858ffbf8505ef:0xb7ae5fb5a5c35388!8m2!3d11.0151938!4d76.9628324!16s%2Fg%2F11c1wrmvsv!19sChIJ7wWFv_9YqDsRiFPDpbVfrrc?authuser=0&hl=en&rclk=1,"11.015193799999999,76.9628324"
Ansari Sunathi Jamathi Mathena Masjid,Mosque,"WXPF+G39 Ansari Sunathi Jamathi Mathena Masjid, Madukkarai Main Rd, SIDCO Private Industrial Estate, Kurichi, Coimbatore, Tamil Nadu 641021",SIDCO Private Industrial Estate,"WXPF+G39, Madukkarai Main Rd","Kurichi, Coimbatore",641021,Tamil Nadu,IN,https://www.google.com/maps/place/Ansari+Sunathi+Jamathi+Mathena+Masjid/data=!4m7!3m6!1s0x3ba85a51d399049d:0xfe6c92a29e2e509b!8m2!3d10.9362806!4d76.9727357!16s%2Fg%2F11b5pm1yd4!19sChIJnQSZ01FaqDsRm1AunqKSbP4?authuser=0&hl=en&rclk=1,"10.9362806,76.9727357"
Masjid -a-noor koundampalayam,Mosque,"2WVW+3Q4 Masjid -a-noor koundampalayam, Koundampalayam, Coimbatore, Tamil Nadu 641030",Koundampalayam,2WVW+3Q4,Coimbatore,641030,Tamil Nadu,IN,https://www.google.com/maps/place/Masjid+-a-noor+koundampalayam/data=!4m7!3m6!1s0x3ba8589818fa35d9:0xdb5439a0b185da25!8m2!3d11.0426344!4d76.9469531!16s%2Fg%2F11f03p9gpj!19sChIJ2TX6GJhYqDsRJdqFsaA5VNs?authuser=0&hl=en&rclk=1,"11.042634399999999,76.9469531"
Juma Masjid / Masjid Mehfooz,Mosque,"Juma Masjid / Masjid Mehfooz, 1, Police Quarters Rd, Peelamedu, Gandhimaa Nagar, Coimbatore, Tamil Nadu 641004","Peelamedu, Gandhimaa Nagar","1, Police Quarters Rd",Coimbatore,641004,Tamil Nadu,IN,https://www.google.com/maps/place/Juma+Masjid+%2F+Masjid+Mehfooz/data=!4m7!3m6!1s0x3ba85810656e4135:0x8021ec341319f6dc!8m2!3d11.0470179!4d76.9979948!16s%2Fg%2F11c0plr9h_!19sChIJNUFuZRBYqDsR3PYZEzTsIYA?authuser=0&hl=en&rclk=1,"11.0470179,76.9979948"
Sunny Muslims Masjid,Mosque,"3X8X+856 Sunny Muslims Masjid, Moreind Road, Saravanampatti, Coimbatore, Tamil Nadu 641035",Saravanampatti,"3X8X+856, Moreind Road",Coimbatore,641035,Tamil Nadu,IN,https://www.google.com/maps/place/Sunny+Muslims+Masjid/data=!4m7!3m6!1s0x3ba8f7e4bb35f2df:0x31616e6cfd6d919c!8m2!3d11.0657963!4d76.9978791!16s%2Fg%2F1tg8h52h!19sChIJ3_I1u-T3qDsRnJFt_WxuYTE?authuser=0&hl=en&rclk=1,"11.065796299999999,76.99787909999999"
Masjid Ajeeziya,Mosque,"XX7J+V35 Masjid Ajeeziya, Umar Nagar, Sundarapuram, Coimbatore, Kurichi, Tamil Nadu 641024",Sundarapuram,"XX7J+V35, Umar Nagar","Coimbatore, Kurichi",641024,Tamil Nadu,IN,https://www.google.com/maps/place/Masjid+Ajeeziya/data=!4m7!3m6!1s0x3ba85a241f941007:0xde7ed17da7298b1!8m2!3d10.9646375!4d76.9802302!16s%2Fg%2F12lk63j15!19sChIJBxCUHyRaqDsRsZhy2hft5w0?authuser=0&hl=en&rclk=1,"10.9646375,76.9802302"
"Masjidul Ansaar, JAQH Saramedu",Mosque,"Masjidul Ansaar, JAQH Saramedu, Masjidul Ansar, 121, Vallal Nagar, ramlan Nagar, Karumbukkadai, Coimbatore, Tamil Nadu 641008",ramlan Nagar,"Masjidul Ansar, 121, Vallal Nagar","Karumbukkadai, Coimbatore",641008,Tamil Nadu,IN,"https://www.google.com/maps/place/Masjidul+Ansaar,+JAQH+Saramedu/data=!4m7!3m6!1s0x3ba859824e95a577:0xce3b1fba5a5a5180!8m2!3d10.9769753!4d76.96675!16s%2Fg%2F11hbv7_vbd!19sChIJd6WVToJZqDsRgFFaWrofO84?authuser=0&hl=en&rclk=1","10.9769753,76.96674999999999"
GM Mosque msjd,Mosque,"XXQC+53V GM Mosque msjd, GM Nagar, Pulian Thoppu, Coimbatore, Tamil Nadu 641001","GM Nagar, Pulian Thoppu",XXQC+53V,Coimbatore,641001,Tamil Nadu,IN,https://www.google.com/maps/place/GM+Mosque+%D9%85%D8%B3%D8%AC%D8%AF%E2%80%AD/data=!4m7!3m6!1s0x3ba8599934fae25d:0x8f2ac4b120d1d21!8m2!3d10.9879777!4d76.9701828!16s%2Fg%2F11gd6tzsgc!19sChIJXeL6NJlZqDsRIR0NEkus8gg?authuser=0&hl=en&rclk=1,"10.9879777,76.9701828"
Al-Madeena Kaundampalayam Sunnath Jamath Masjid,Mosque,"2WXQ+5VW Al-Madeena Kaundampalayam Sunnath Jamath Masjid, Unnamed Road, Ashok Nagar West, Siva Nagar, Koundampalayam, Coimbatore, Tamil Nadu 641030","Ashok Nagar West, Siva Nagar, Koundampalayam","2WXQ+5VW, Unnamed Road",Coimbatore,641030,Tamil Nadu,IN,https://www.google.com/maps/place/Al-Madeena+Kaundampalayam+Sunnath+Jamath+Masjid/data=!4m7!3m6!1s0x3ba858a2ed67ec55:0x325b209fe65fd55f!8m2!3d11.0479912!4d76.9397187!16s%2Fg%2F11h9wjhx6k!19sChIJVexn7aJYqDsRX9Vf5p8gWzI?authuser=0&hl=en&rclk=1,"11.0479912,76.9397187"
Mettur HSJ Masjid msjd,Mosque,"Mettur HSJ Masjid msjd, 42/38E3, Anganna Gounder St, Mettur, Amman Pudur, Podanur, Tamil Nadu 641023","Mettur, Amman Pudur","42/38E3, Anganna Gounder St",Podanur,641023,Tamil Nadu,IN,https://www.google.com/maps/place/Mettur+HSJ+Masjid+%D9%85%D8%B3%D8%AC%D8%AF%E2%80%AD/data=!4m7!3m6!1s0x3ba85a1564a64575:0x1bfbe9a1c41c1e7f!8m2!3d10.9505424!4d76.9876828!16s%2Fg%2F11dyltcv3d!19sChIJdUWmZBVaqDsRfx4cxKHp-xs?authuser=0&hl=en&rclk=1,"10.9505424,76.9876828"
Masjid-e-Madeenah Hanafi Sunnath Jamaath,Mosque,"XX7P+RQ8 Masjid-e-Madeenah Hanafi Sunnath Jamaath, Podanur Main Rd, Sundarapuram, Coimbatore, Kurichi, Tamil Nadu 641024",Sundarapuram,"XX7P+RQ8, Podanur Main Rd","Coimbatore, Kurichi",641024,Tamil Nadu,IN,https://www.google.com/maps/place/Masjid-e-Madeenah+Hanafi+Sunnath+Jamaath/data=!4m7!3m6!1s0x3ba85a220421fcaf:0x1684313069b8735b!8m2!3d10.9645391!4d76.9869679!16s%2Fg%2F12ll870c5!19sChIJr_whBCJaqDsRW3O4aTAxhBY?authuser=0&hl=en&rclk=1,"10.9645391,76.9869679"
Masjidhe Noorul Islam Sunnathval Jamaath and Madhrasa,Mosque,"228V+W47 Masjidhe Noorul Islam Sunnathval Jamaath and Madhrasa, SIHS Colony, Neelikonampalayam, Tamil Nadu 641014",SIHS Colony,228V+W47,Neelikonampalayam,641014,Tamil Nadu,IN,https://www.google.com/maps/place/Masjidhe+Noorul+Islam+Sunnathval+Jamaath+and+Madhrasa/data=!4m7!3m6!1s0x3ba857a789b358a9:0x2e4bc9027e0d5f83!8m2!3d11.0172763!4d77.0428061!16s%2Fg%2F11c6ltz0zq!19sChIJqViziadXqDsRg18NfgLJSy4?authuser=0&hl=en&rclk=1,"11.017276299999999,77.04280609999999"
Muhammediyya masjid nehru nagar,Mosque,"322P+2MX Muhammediyya masjid nehru nagar, Unnamed Road, GKD Nagar, Nehru Nagar West, Coimbatore, Tamil Nadu 641004","GKD Nagar, Nehru Nagar West","322P+2MX, Unnamed Road",Coimbatore,641004,Tamil Nadu,IN,https://www.google.com/maps/place/Muhammediyya+masjid+nehru+nagar/data=!4m7!3m6!1s0x3ba85769ddaa9e55:0x770f0945b9cb3361!8m2!3d11.0501007!4d77.0367367!16s%2Fg%2F11fklk27sr!19sChIJVZ6q3WlXqDsRYTPLuUUJD3c?authuser=0&hl=en&rclk=1,"11.0501007,77.03673669999999"
Masjidur raheem Mosque,Mosque,"Masjidur raheem Mosque, 80, Ramamurthy Rd, TNHB, Selvapuram North, Coimbatore, Tamil Nadu 641026","TNHB, Selvapuram North","80, Ramamurthy Rd",Coimbatore,641026,Tamil Nadu,IN,https://www.google.com/maps/place/Masjidur+raheem+Mosque/data=!4m7!3m6!1s0x3ba8593e2ca54fd3:0x74eb6d9075d854db!8m2!3d10.9934827!4d76.9408545!16s%2Fg%2F11cspv45yc!19sChIJ00-lLD5ZqDsR21TYdZBt63Q?authuser=0&hl=en&rclk=1,"10.9934827,76.9408545"
Masjid maalikul mulk (JAQH),Mosque,"XXJC+QJP Masjid maalikul mulk (JAQH), 6th St, Anbu Nagar, South Ukkadam, Coimbatore, Tamil Nadu 641001","Anbu Nagar, South Ukkadam","XXJC+QJP, 6th St",Coimbatore,641001,Tamil Nadu,IN,https://www.google.com/maps/place/Masjid+maalikul+mulk+%28JAQH%29/data=!4m7!3m6!1s0x3ba859e47809506f:0xf753b1db0597d697!8m2!3d10.9819627!4d76.9715828!16s%2Fg%2F11fkd56qxg!19sChIJb1AJeORZqDsRl9aXBduxU_c?authuser=0&hl=en&rclk=1,"10.981962699999999,76.9715828"
Darul Uloom Ashrafiyya Masjid,Mosque,"W2P7+WGX Darul Uloom Ashrafiyya Masjid, Vaanooli Nagar, Chettipalayam, Tamil Nadu 641021",Vaanooli Nagar,W2P7+WGX,Chettipalayam,641021,Tamil Nadu,IN,https://www.google.com/maps/place/Darul+Uloom+Ashrafiyya+Masjid/data=!4m7!3m6!1s0x3ba851a13257a71b:0xf9d0d168064a2c1a!8m2!3d10.9373641!4d77.0138536!16s%2Fg%2F11ghdjtl_l!19sChIJG6dXMqFRqDsRGixKBmjR0Pk?authuser=0&hl=en&rclk=1,"10.9373641,77.01385359999999"
Masjidur Rahman msjd,Mosque,"XXM7+VJ4 Masjidur Rahman msjd, Alameen colony, Ukkadam, Coimbatore, Tamil Nadu 641001","Al-Ameen Colony, Bilal Nagar, Ukkadam","XXM7+VJ4, Alameen colony",Coimbatore,641001,Tamil Nadu,IN,https://www.google.com/maps/place/Masjidur+Rahman+%D9%85%D8%B3%D8%AC%D8%AF%E2%80%AD/data=!4m7!3m6!1s0x3ba8597621b7c775:0xe2854fd8877c38cd!8m2!3d10.9846406!4d76.9640887!16s%2Fg%2F1hc3tz5n3!19sChIJdce3IXZZqDsRzTh8h9hPheI?authuser=0&hl=en&rclk=1,"10.984640599999999,76.96408869999999"
Sunnath Jama-ath Masjid,Mosque,"XXP8+C3Q Sunnath Jama-ath Masjid, Lorry Pettai Rd, Bilal Nagar, Pulian Thoppu, Coimbatore, Tamil Nadu 641008","Bilal Nagar, Pulian Thoppu","XXP8+C3Q, Lorry Pettai Rd",Coimbatore,641008,Tamil Nadu,IN,https://www.google.com/maps/place/Sunnath+Jama-ath+Masjid/data=!4m7!3m6!1s0x3ba8599dfdc11897:0x2ab5fd9ff449e40f!8m2!3d10.9860763!4d76.965234!16s%2Fg%2F12ll65f2j!19sChIJlxjB_Z1ZqDsRD-RJ9J_9tSo?authuser=0&hl=en&rclk=1,"10.986076299999999,76.965234"
Masjid msjd,Mosque,"Masjid msjd, 2, Paal Mariamman Koil Street Rathinapuri, Sanganoor, Paal Mariamman Koil St, Rathinapuri, Sanganoor, Coimbatore, Tamil Nadu 641027","Rathinapuri, Sanganoor","2, Paal Mariamman Koil Street Rathinapuri, Sanganoor, Paal Mariamman Koil St",Coimbatore,641027,Tamil Nadu,IN,https://www.google.com/maps/place/Masjid+%D9%85%D8%B3%D8%AC%D8%AF%E2%80%AD/data=!4m7!3m6!1s0x3ba858f370eebc93:0x5841ac7f3b89a406!8m2!3d11.0333427!4d76.957709!16s%2Fg%2F11ddxl_v5q!19sChIJk7zucPNYqDsRBqSJO3-sQVg?authuser=0&hl=en&rclk=1,"11.033342699999999,76.957709"
Mosque,Mosque,"XWMQ+QX3 Mosque, Selvapuram Muthuswamy Colony, Selvapuram South, Coimbatore, Tamil Nadu 641008","Selvapuram Muthuswamy Colony, Selvapuram South",XWMQ+QX3,Coimbatore,641008,Tamil Nadu,IN,https://www.google.com/maps/place/Mosque/data=!4m7!3m6!1s0x3ba85942186eb651:0xc34a155ca020b757!8m2!3d10.9843958!4d76.9399086!16s%2Fg%2F11dzd8h1lq!19sChIJUbZuGEJZqDsRV7cgoFwVSsM?authuser=0&hl=en&rclk=1,"10.9843958,76.9399086"
Mosque msjd,Mosque,"Mosque msjd, KLR Complex, 569, Cross Cut Rd, Varuthiangara Palayam, Seth Narang Das Layout, Ranganathapuram, Gandhipuram, Coimbatore, Tamil Nadu 641012","Varuthiangara Palayam, Seth Narang Das Layout, Ranganathapuram","KLR Complex, 569, Cross Cut Rd","Gandhipuram, Coimbatore",641012,Tamil Nadu,IN,https://www.google.com/maps/place/Mosque+%D9%85%D8%B3%D8%AC%D8%AF%E2%80%AD/data=!4m7!3m6!1s0x3ba858fc454bb2d3:0xe4aa7c11006fc001!8m2!3d11.0166323!4d76.9566745!16s%2Fg%2F11fxcftn0w!19sChIJ07JLRfxYqDsRAcBvABF8quQ?authuser=0&hl=en&rclk=1,"11.0166323,76.95667449999999"
Mosque,Mosque,"Mosque, 215, Puliakulam Rd, Ramasamy Nagar, Puliakulam, Coimbatore, Tamil Nadu 641045","Ramasamy Nagar, Puliakulam","215, Puliakulam Rd",Coimbatore,641045,Tamil Nadu,IN,https://www.google.com/maps/place/Mosque/data=!4m7!3m6!1s0x3ba859c56115986b:0x1b0b907b43fa51cc!8m2!3d11.0039802!4d76.9971937!16s%2Fg%2F11g8xkg1y3!19sChIJa5gVYcVZqDsRzFH6Q3uQCxs?authuser=0&hl=en&rclk=1,"11.003980199999999,76.9971937"
Masjid,Mosque,"XX9R+43M Masjid, Nanjundapuram Rd, Amman Nagar, Podanur, Tamil Nadu 641024",Amman Nagar,"XX9R+43M, Nanjundapuram Rd",Podanur,641024,Tamil Nadu,IN,https://www.google.com/maps/place/Masjid/data=!4m7!3m6!1s0x3ba85a1f006d8951:0x7167a3c9d7e57357!8m2!3d10.967833!4d76.9901591!16s%2Fg%2F1hjgtrfkd!19sChIJUYltAB9aqDsRV3Pl18mjZ3E?authuser=0&hl=en&rclk=1,"10.967832999999999,76.9901591"
Masjiduth Thaqwa,Mosque,"Masjiduth Thaqwa, 170, palanisamy thottam, Govindaswamy Road, Selvapuram Muthuswamy Colony, Selvapuram South, Coimbatore, Tamil Nadu 641026","Selvapuram Muthuswamy Colony, Selvapuram South","170, palanisamy thottam, Govindaswamy Road",Coimbatore,641026,Tamil Nadu,IN,https://www.google.com/maps/place/Masjiduth+Thaqwa/data=!4m7!3m6!1s0x3ba85941e4e5e3a5:0x9196e740c6fb9897!8m2!3d10.9859048!4d76.9407612!16s%2Fg%2F11h9zfvyf1!19sChIJpePl5EFZqDsRl5j7xkDnlpE?authuser=0&hl=en&rclk=1,"10.9859048,76.9407612"
Badrul Islam Sunnath Jama-ath Masjid,Mosque,"XXG5+52C Badrul Islam Sunnath Jama-ath Masjid, Palakkad Main Rd, Azad Nagar, Aathupalam, Kuniyamuthur, Coimbatore, Tamil Nadu 641008","Azad Nagar, Aathupalam","XXG5+52C, Palakkad Main Rd","Kuniyamuthur, Coimbatore",641008,Tamil Nadu,IN,https://www.google.com/maps/place/Badrul+Islam+Sunnath+Jama-ath+Masjid/data=!4m7!3m6!1s0x3ba8597bf1e3acb3:0x96a3e3e0d6f70577!8m2!3d10.9754458!4d76.9575226!16s%2Fg%2F12lll_rlj!19sChIJs6zj8XtZqDsRdwX31uDjo5Y?authuser=0&hl=en&rclk=1,"10.9754458,76.95752259999999"
"Masjidun Noor, Thahlimul Islam Hanafi Sunnath Jamaath, Noorabad",Mosque,"XX5M+PRF Masjidun Noor, Thahlimul Islam Hanafi Sunnath Jamaath, Noorabad, Sathar Sahib Street, Noorabad, Sarada Mill Rd, Podanur, Tamil Nadu 641023","Teachers Colony, Sakthi Nagar","XX5M+PRF, Sathar Sahib Street, Noorabad, Sarada Mill Rd",Podanur,641023,Tamil Nadu,IN,"https://www.google.com/maps/place/Masjidun+Noor,+Thahlimul+Islam+Hanafi+Sunnath+Jamaath,+Noorabad/data=!4m7!3m6!1s0x3ba85a3d2abe7011:0x2baf2da5988b46ca!8m2!3d10.9593136!4d76.9845352!16s%2Fg%2F12llxzgtn!19sChIJEXC-Kj1aqDsRykaLmKUtrys?authuser=0&hl=en&rclk=1","10.9593136,76.9845352"
Jamathul Muthakeem Shafiayya Sunnathval Jamath Masjid,Mosque,"XXH8+Q49 Jamathul Muthakeem Shafiayya Sunnathval Jamath Masjid, Fathima Nagar, Karumbukkadai, Coimbatore, Tamil Nadu 641008",Fathima Nagar,XXH8+Q49,"Karumbukkadai, Coimbatore",641008,Tamil Nadu,IN,https://www.google.com/maps/place/Jamathul+Muthakeem+Shafiayya+Sunnathval+Jamath+Masjid/data=!4m7!3m6!1s0x3ba859d25e2d8c8d:0xa8db0fe68d4dfa83!8m2!3d10.9794054!4d76.9653487!16s%2Fg%2F11f7b4x4n3!19sChIJjYwtXtJZqDsRg_pNjeYP26g?authuser=0&hl=en&rclk=1,"10.9794054,76.96534869999999"
Masjid E Mahfuz - Sunni Muslims Masjid,Mosque,"2XWX+G45 Masjid E Mahfuz - Sunni Muslims Masjid, Ganapathi Police Quarters, KK Nagar, Coimbatore, Tamil Nadu 641004","Ganapathi Police Quarters, KK Nagar",2XWX+G45,Coimbatore,641004,Tamil Nadu,IN,https://www.google.com/maps/place/Masjid+E+Mahfuz+-+Sunni+Muslims+Masjid/data=!4m7!3m6!1s0x3ba85810653f3117:0x13c8a41ef8dfd8da!8m2!3d11.0462574!4d76.9978656!16s%2Fg%2F1thvr3p9!19sChIJFzE_ZRBYqDsR2tjf-B6kyBM?authuser=0&hl=en&rclk=1,"11.0462574,76.9978656"
Masjid-ul-Abrar msjd,Mosque,"XX9F+J63 Masjid-ul-Abrar msjd, Thirumarai Nagar, Kurichi, Coimbatore, Tamil Nadu 641024",Thirumarai Nagar,XX9F+J63,"Kurichi, Coimbatore",641024,Tamil Nadu,IN,https://www.google.com/maps/place/Masjid-ul-Abrar+%D9%85%D8%B3%D8%AC%D8%AF%E2%80%AD/data=!4m7!3m6!1s0x3ba85a283318d887:0x170082132b693485!8m2!3d10.9690146!4d76.9730483!16s%2Fg%2F11bwkdrll7!19sChIJh9gYMyhaqDsRhTRpKxOCABc?authuser=0&hl=en&rclk=1,"10.9690146,76.9730483"
Shafiya Hayathul Islam Sunnath Jamath Masjid,Mosque,"Shafiya Hayathul Islam Sunnath Jamath Masjid, N.P Ittery, 2nd Street, Kurichipirivu, NH 209, Kurichi, Tamil Nadu 641008",,"N.P Ittery, 2nd Street, Kurichipirivu, NH 209","Kurichi, Coimbatore",641008,Tamil Nadu,IN,https://www.google.com/maps/place/Shafiya+Hayathul+Islam+Sunnath+Jamath+Masjid/data=!4m7!3m6!1s0x3ba85980fce1c369:0xb4c7f9ad40d8a58a!8m2!3d10.9722675!4d76.9678009!16s%2Fg%2F1tgx0g6g!19sChIJacPh_IBZqDsRiqXYQK35x7Q?authuser=0&hl=en&rclk=1,"10.9722675,76.9678009"
"SHISJ, Branch Masjid",Mosque,"XXCC+VGW SHISJ, Branch Masjid, Kurrathul Layout, Nanjundapuram Ittrery St, Podanur, Tamil Nadu 641023",Kurathul Layout,"XXCC+VGW, Kurrathul Layout, Nanjundapuram Ittrery St","Podanur, Coimbatore",641023,Tamil Nadu,IN,"https://www.google.com/maps/place/SHISJ,+Branch+Masjid/data=!4m7!3m6!1s0x3ba85987222b974b:0xab29fd5de2a1d8c5!8m2!3d10.9722333!4d76.9713414!16s%2Fg%2F12lk2n0m4!19sChIJS5crIodZqDsRxdih4l39Kas?authuser=0&hl=en&rclk=1","10.9722333,76.9713414"
Masjidul Mubashshir JAQH,Mosque,"XX8C+Q75 Masjidul Mubashshir JAQH, Thirumarai Nagar, Kurichi, Coimbatore, Tamil Nadu 641024",Thirumarai Nagar,XX8C+Q75,"Kurichi, Coimbatore",641024,Tamil Nadu,IN,https://www.google.com/maps/place/Masjidul+Mubashshir+JAQH/data=!4m7!3m6!1s0x3ba85b2208a7bd87:0x6ad3f2f5843906df!8m2!3d10.9668961!4d76.9707238!16s%2Fg%2F11n5bs7nw4!19sChIJh72nCCJbqDsR3wY5hPXy02o?authuser=0&hl=en&rclk=1,"10.9668961,76.9707238"
Masjid ul Hirah,Mosque,"W2PF+2MQ Masjid ul Hirah, Coimbatore, Tamil Nadu 641023",,W2PF+2MQ,Coimbatore,,Tamil Nadu,IN,https://www.google.com/maps/place/Masjid+ul+Hirah/data=!4m7!3m6!1s0x3ba851369b979863:0x6755cac1ecb6f204!8m2!3d10.9350784!4d77.0242358!16s%2Fg%2F11r9vwq33r!19sChIJY5iXmzZRqDsRBPK27MHKVWc?authuser=0&hl=en&rclk=1,"10.9350784,77.0242358"
Jummah Masjid Sundarapuram,Mosque,"Jummah Masjid Sundarapuram, Salafi Masjid, Podanur Main Rd, Zam Zam Nagar, Coimbatore, Kurichi, Tamil Nadu 641024",Zam Zam Nagar,"Salafi Masjid, Podanur Main Rd","Coimbatore, Kurichi",641024,Tamil Nadu,IN,https://www.google.com/maps/place/Jummah+Masjid+Sundarapuram/data=!4m7!3m6!1s0x3ba85a27b21aaaab:0xa84bcef073347df3!8m2!3d10.9676258!4d76.9779341!16s%2Fg%2F11d_w_lmf9!19sChIJq6oasidaqDsR8300c_DOS6g?authuser=0&hl=en&rclk=1,"10.967625799999999,76.9779341"
TNTJ Ramanathapuram,Mosque,"TNTJ Ramanathapuram, 31, Teachers Colony, Puliakulam, Coimbatore, Tamil Nadu 641045","Teachers Colony, Puliakulam",31,Coimbatore,641045,Tamil Nadu,IN,https://www.google.com/maps/place/TNTJ+Ramanathapuram/data=!4m7!3m6!1s0x3ba859d42d457f61:0x812951fa8a669eb8!8m2!3d11.004025!4d76.997944!16s%2Fg%2F11g4l13dl5!19sChIJYX9FLdRZqDsRuJ5mivpRKYE?authuser=0&hl=en&rclk=1,"11.004025,76.99794399999999"
Mosque,Mosque,"2X56+7C9 Mosque, Unnamed Road, Kaleeswara Nagar, Ram Nagar, Coimbatore, Tamil Nadu 641009","Kaleeswara Nagar, Ram Nagar","2X56+7C9, Unnamed Road",Coimbatore,641009,Tamil Nadu,IN,https://www.google.com/maps/place/Mosque/data=!4m7!3m6!1s0x3ba8593f6af261f1:0x5c09086ceb6bf1a2!8m2!3d11.0081586!4d76.9611142!16s%2Fg%2F11fn2hcxdn!19sChIJ8WHyaj9ZqDsRovFr62wICVw?authuser=0&hl=en&rclk=1,"11.0081586,76.9611142"
Nagamohalla Masjid,Mosque,"2X26+357 Nagamohalla Masjid, Maniathottam Street Number 2, Town Hall, Coimbatore, Tamil Nadu 641001",Town Hall,"2X26+357, Maniathottam Street Number 2",Coimbatore,641001,Tamil Nadu,IN,https://www.google.com/maps/place/Nagamohalla+Masjid/data=!4m7!3m6!1s0x3ba85936f9938681:0x9ea29915c0a728ce!8m2!3d11.0001581!4d76.9604217!16s%2Fg%2F11g0nyb__k!19sChIJgYaT-TZZqDsRziinwBWZop4?authuser=0&hl=en&rclk=1,"11.0001581,76.9604217"
Sunnat Jamath Masjid,Mosque,"XXCF+C46 Sunnat Jamath Masjid, Vasantham Nagar, Podanur, Coimbatore, Tamil Nadu 641024",Vasantham Nagar,XXCF+C46,"Podanur, Coimbatore",641024,Tamil Nadu,IN,https://www.google.com/maps/place/Sunnat+Jamath+Masjid/data=!4m7!3m6!1s0x3ba8598774467da1:0xbc353cbfa6eff7ca!8m2!3d10.9710297!4d76.9727722!16s%2Fg%2F11hc33db2s!19sChIJoX1GdIdZqDsRyvfvpr88Nbw?authuser=0&hl=en&rclk=1,"10.971029699999999,76.9727722"
Masjid ul ihsaan,Mosque,"Masjid ul ihsaan, Masjidul Ihsan, Karumbukkadai, Coimbatore, Tamil Nadu 641008",,Masjidul Ihsan,"Karumbukkadai, Coimbatore",641008,Tamil Nadu,IN,https://www.google.com/maps/place/Masjid+ul+ihsaan/data=!4m7!3m6!1s0x3ba859867aee80fb:0x67a6c2166d2dcef6!8m2!3d10.9763667!4d76.9641108!16s%2Fg%2F11qn38m2cr!19sChIJ-4DueoZZqDsR9s4tbRbCpmc?authuser=0&hl=en&rclk=1,"10.9763667,76.9641108"
Masji dul Muhaajireen,Mosque,"X296+75C Masji dul Muhaajireen, Kovai Mahalingapuram, Podanur, Tamil Nadu 641023",Kovai Mahalingapuram,X296+75C,Podanur,641023,Tamil Nadu,IN,https://www.google.com/maps/place/Masji+dul+Muhaajireen/data=!4m7!3m6!1s0x3ba85b2999affd39:0xa0a25158af349c65!8m2!3d10.9681808!4d77.0103799!16s%2Fg%2F11f669gmlg!19sChIJOf2vmSlbqDsRZZw0r1hRoqA?authuser=0&hl=en&rclk=1,"10.968180799999999,77.01037989999999"
BADHRIYYA ADH-DAA-WATHIL ISLAMIYYA MASJID,Mosque,"XXCH+Q4 BADHRIYYA ADH-DAA-WATHIL ISLAMIYYA MASJID, Coimbatore, Tamil Nadu 641008",,XXCH+Q4,Coimbatore,641008,Tamil Nadu,IN,https://www.google.com/maps/place/BADHRIYYA+ADH-DAA-WATHIL+ISLAMIYYA+MASJID/data=!4m7!3m6!1s0x3ba85948f4db4bd3:0xf4b577f02fad7452!8m2!3d10.9719375!4d76.9778125!16s%2Fg%2F11rtvyw1yx!19sChIJ00vb9EhZqDsRUnStL_B3tfQ?authuser=0&hl=en&rclk=1,"10.9719375,76.9778125"
Masjide Noorul Islam,Mosque,"XXH8+PWQ Masjide Noorul Islam, Coimbatore, Tamil Nadu 641008",,XXH8+PWQ,Coimbatore,641008,Tamil Nadu,IN,https://www.google.com/maps/place/Masjide+Noorul+Islam/data=!4m7!3m6!1s0x3ba85983202a04cf:0x7a5b9f8ab3bff143!8m2!3d10.9793425!4d76.9673459!16s%2Fg%2F11gbk130kr!19sChIJzwQqIINZqDsRQ_G_s4qfW3o?authuser=0&hl=en&rclk=1,"10.9793425,76.9673459"
Al Masjidul Madinah Ahalus Sunnath Val Jamath,Mosque,"Al Masjidul Madinah Ahalus Sunnath Val Jamath, Gopalapuram, 40, Podanur Main Rd, opposite Jaya Bakery, Podanur, Tamil Nadu 641023","Opp.Railway Station, Gopalapuram","Gopalapuram, 40, Podanur Main Rd, opposite Jaya Bakery","Podanur, Coimbatore",641023,Tamil Nadu,IN,https://www.google.com/maps/place/Al+Masjidul+Madinah+Ahalus+Sunnath+Val+Jamath/data=!4m7!3m6!1s0x3ba859a124c839fd:0x468b38ebeb2ebfa0!8m2!3d10.9967354!4d76.9676729!16s%2Fg%2F1wfvl2v0!19sChIJ_TnIJKFZqDsRoL8u6-s4i0Y?authuser=0&hl=en&rclk=1,"10.9967354,76.9676729"
Irshadhul Islam Shafia Sunnath Jama-ath,Mosque,"XXF6+JGX Irshadhul Islam Shafia Sunnath Jama-ath, Palakkad Main Rd, KM Colony, Aathupalam, Coimbatore, Tamil Nadu 641008","KM Colony, Aathupalam","XXF6+JGX, Palakkad Main Rd",Coimbatore,641008,Tamil Nadu,IN,https://www.google.com/maps/place/Irshadhul+Islam+Shafia+Sunnath+Jama-ath/data=!4m7!3m6!1s0x3ba8597ed8664643:0x86500731554263fd!8m2!3d10.9741031!4d76.9613501!16s%2Fg%2F12hny60z5!19sChIJQ0Zm2H5ZqDsR_WNCVTEHUIY?authuser=0&hl=en&rclk=1,"10.974103099999999,76.96135009999999"
Noorul Uloom Sunnath Juma Masjid,Mosque,"2XH4+FXX Noorul Uloom Sunnath Juma Masjid, Pallivasal St, Kannappa Nagar, Tatabad, Coimbatore, Tamil Nadu 641027","Kannappa Nagar, Tatabad","2XH4+FXX, Pallivasal St",Coimbatore,641027,Tamil Nadu,IN,https://www.google.com/maps/place/Noorul+Uloom+Sunnath+Juma+Masjid/data=!4m7!3m6!1s0x3ba858f14769c085:0x94cd3e57d6d10985!8m2!3d11.0287378!4d76.9574933!16s%2Fg%2F11dfgntqx0!19sChIJhcBpR_FYqDsRhQnR1lc-zZQ?authuser=0&hl=en&rclk=1,"11.0287378,76.9574933"
"Kovai Dheenul IslamShafiya Sunnath Val Jamaath Masjid, Kalavaai",Mosque,"XXC4+XX6 Kovai Dheenul IslamShafiya Sunnath Val Jamaath Masjid, Kalavaai, Sunnambu Kalavaai,, Palakkad Main Rd, Kuniyamuthur, Tamil Nadu 641008",,"XXC4+XX6, Sunnambu Kalavaai,, Palakkad Main Rd","Kuniyamuthur, Coimbatore",641008,Tamil Nadu,IN,"https://www.google.com/maps/place/Kovai+Dheenul+IslamShafiya+Sunnath+Val+Jamaath+Masjid,+Kalavaai/data=!4m7!3m6!1s0x3ba8597c36bfaa7d:0xff90c3a7ca964da0!8m2!3d10.9724045!4d76.9573878!16s%2Fg%2F12ll3xq1g!19sChIJfaq_NnxZqDsRoE2WyqfDkP8?authuser=0&hl=en&rclk=1","10.9724045,76.95738779999999"
"Ahmadiyya Masjid, Sulur",Mosque,"24FJ+7HC Ahmadiyya Masjid, Sulur, Sulur, Tamil Nadu 641402",,24FJ+7HC,Sulur,641402,Tamil Nadu,IN,"https://www.google.com/maps/place/Ahmadiyya+Masjid,+Sulur/data=!4m7!3m6!1s0x3ba855b37d0ef113:0xc492f68ac5522bf6!8m2!3d11.0231788!4d77.131376!16s%2Fg%2F11fxypqmpx!19sChIJE_EOfbNVqDsR9itSxYr2ksQ?authuser=0&hl=en&rclk=1","11.0231788,77.131376"
Darul Hikma Masjid,Mosque,"XXQ9+32X Darul Hikma Masjid, JK Garden, Raha Avenue, Pulian Thoppu, Coimbatore, Tamil Nadu 641001","JK Garden, Raha Avenue, Pulian Thoppu",XXQ9+32X,Coimbatore,641001,Tamil Nadu,IN,https://www.google.com/maps/place/Darul+Hikma+Masjid/data=!4m7!3m6!1s0x3ba859798afc5b87:0x29f55761e249cbb0!8m2!3d10.9877484!4d76.9676196!16s%2Fg%2F11gr64sw3_!19sChIJh1v8inlZqDsRsMtJ4mFX9Sk?authuser=0&hl=en&rclk=1,"10.9877484,76.96761959999999"
qurathul ayn masjid,Mosque,"2X53+476 qurathul ayn masjid, Sir Shanmugam Rd, R.S. Puram, Coimbatore, Tamil Nadu 641002",R.S. Puram,"2X53+476, Sir Shanmugam Rd",Coimbatore,641002,Tamil Nadu,IN,https://www.google.com/maps/place/qurathul+ayn+masjid/data=!4m7!3m6!1s0x3ba859d98f68bd81:0xf893dd38a89312e4!8m2!3d11.0077882!4d76.9531352!16s%2Fg%2F11h5r_60kc!19sChIJgb1oj9lZqDsR5BKTqDjdk_g?authuser=0&hl=en&rclk=1,"11.0077882,76.95313519999999"
Majid,Mosque,"Majid, 62, NGR Street, BR Puram, Hope College, NGR St, BR Puram, Hope College, Coimbatore, Tamil Nadu 641004","BR Puram, Hope College","62, NGR Street, BR Puram, Hope College, NGR St",Coimbatore,641004,Tamil Nadu,IN,https://www.google.com/maps/place/Majid/data=!4m7!3m6!1s0x3ba8578f75b31c2f:0x29074958213b2689!8m2!3d11.028389!4d77.01885!16s%2Fg%2F11dztkyh7c!19sChIJLxyzdY9XqDsRiSY7IVhJByk?authuser=0&hl=en&rclk=1,"11.028388999999999,77.01885"
Bengali (sunni) masjid,Mosque,"2X24+745 Bengali (sunni) masjid, R.S. Puram, Coimbatore, Tamil Nadu 641002",R.S. Puram,2X24+745,Coimbatore,641002,Tamil Nadu,IN,https://www.google.com/maps/place/Bengali+%28sunni%29+masjid/data=!4m7!3m6!1s0x3ba859074fe95131:0x3a1855fc1b1f6f7b!8m2!3d11.000638!4d76.9553681!16s%2Fg%2F11h7cpgs_b!19sChIJMVHpTwdZqDsRe28fG_xVGDo?authuser=0&hl=en&rclk=1,"11.000638,76.9553681"
YMJ Markaz,Mosque,"YMJ Markaz, 7/3, Kuzhanthai Gounder St, Ukkadam, Coimbatore, Tamil Nadu 641001",Ukkadam,"7/3, Kuzhanthai Gounder St",Coimbatore,641001,Tamil Nadu,IN,https://www.google.com/maps/place/YMJ+Markaz/data=!4m7!3m6!1s0x3ba85900febffacb:0x8fb27d608d1303d!8m2!3d10.9810359!4d76.9659102!16s%2Fg%2F11h12k19qn!19sChIJy_q__gBZqDsRPTDRCNYn-wg?authuser=0&hl=en&rclk=1,"10.9810359,76.9659102"
Masjidul Mamoor Sunnath Jamath & Matharasa,Mosque,"Masjidul Mamoor Sunnath Jamath & Matharasa, 10, Gandhimaa Nagar, Coimbatore, Tamil Nadu 641006",Gandhimaa Nagar,10,Coimbatore,641006,Tamil Nadu,IN,https://www.google.com/maps/place/Masjidul+Mamoor+Sunnath+Jamath+%26+Matharasa/data=!4m7!3m6!1s0x3ba859bfb4d4d46b:0x56bd257e34761ff9!8m2!3d11.0449569!4d77.0001042!16s%2Fg%2F11ssrb5rg4!19sChIJa9TUtL9ZqDsR-R92NH4lvVY?authuser=0&hl=en&rclk=1,"11.044956899999999,77.0001042"
Masjid Kousar Coimbatore,Mosque,"Masjid Kousar Coimbatore, 165, G.M NAGAR, GM Nagar, Pulian Thoppu, Kurichi, Coimbatore, Tamil Nadu 641024","GM Nagar, Pulian Thoppu","165, G.M NAGAR","Kurichi, Coimbatore",641024,Tamil Nadu,IN,https://www.google.com/maps/place/Masjid+Kousar+Coimbatore/data=!4m7!3m6!1s0x3ba859ce3ca25e27:0xc1e1782cb5e344f0!8m2!3d10.9851445!4d76.9752249!16s%2Fg%2F11q2rvr6_q!19sChIJJ16iPM5ZqDsR8ETjtSx44cE?authuser=0&hl=en&rclk=1,"10.985144499999999,76.9752249"
Masjid -ul-salaam,Mosque,"Masjid -ul-salaam, 3rd street, Arul nagar ,extension super garden, South Ukkadam, Coimbatore, Tamil Nadu 641001",South Ukkadam,"3rd street, Arul nagar ,extension super garden",Coimbatore,641001,Tamil Nadu,IN,https://www.google.com/maps/place/Masjid+-ul-salaam/data=!4m7!3m6!1s0x3ba859428f6c6eb9:0xd59b93d27bce3212!8m2!3d10.9805287!4d76.9691011!16s%2Fg%2F11ftg20v69!19sChIJuW5sj0JZqDsREjLOe9KTm9U?authuser=0&hl=en&rclk=1,"10.980528699999999,76.9691011"
INTJ - MASJIDHUR RAYAAN,Mosque,"XXF5+XJ7 INTJ - MASJIDHUR RAYAAN, Asath Nagar, 6th St, Muthuswamy Colony, Coimbatore, Tamil Nadu 641008",Muthuswamy Colony,"XXF5+XJ7, Asath Nagar, 6th St",Coimbatore,641008,Tamil Nadu,IN,https://www.google.com/maps/place/INTJ+-+MASJIDHUR+RAYAAN/data=!4m7!3m6!1s0x3ba859c8bf0ae7cb:0x6586ed186b706bc4!8m2!3d10.9749126!4d76.9590403!16s%2Fg%2F11rd2fl2n4!19sChIJy-cKv8hZqDsRxGtwaxjthmU?authuser=0&hl=en&rclk=1,"10.9749126,76.9590403"
Ayisha jummah masjid,Mosque,"XXC4+J5P Ayisha jummah masjid, Unnamed Road, Kuniyamuthur, Coimbatore, Tamil Nadu 641024",,"XXC4+J5P, Unnamed Road","Kuniyamuthur, Coimbatore",641024,Tamil Nadu,IN,https://www.google.com/maps/place/Ayisha+jummah+masjid/data=!4m7!3m6!1s0x3ba85910eb1d720b:0x16b237fbb29adabf!8m2!3d10.9715895!4d76.9554429!16s%2Fg%2F11j2f4z3x8!19sChIJC3Id6xBZqDsRv9qasvs3shY?authuser=0&hl=en&rclk=1,"10.9715895,76.9554429"
MASJIDUS SAALHEEN JAQH MARKAZ,Mosque,"MASJIDUS SAALHEEN JAQH MARKAZ, Street No - 7, Kurichi, Coimbatore, Tamil Nadu 641024",,Street No - 7,"Kurichi, Coimbatore",641024,Tamil Nadu,IN,https://www.google.com/maps/place/MASJIDUS+SAALHEEN+JAQH+MARKAZ/data=!4m7!3m6!1s0x3ba85980d1c6eeab:0xb6c65c67b55dce40!8m2!3d10.9719008!4d76.9695872!16s%2Fg%2F11dxdb40mx!19sChIJq-7G0YBZqDsRQM5dtWdcxrY?authuser=0&hl=en&rclk=1,"10.9719008,76.96958719999999"
Eidgah Sulur,Mosque,"Eidgah Sulur, 9/168, Ranganathapuram, Sulur, Tamil Nadu 641402",Ranganathapuram,9/168,Sulur,641402,Tamil Nadu,IN,https://www.google.com/maps/place/Eidgah+Sulur/data=!4m7!3m6!1s0x3ba855f991777d53:0x291bb59e0b86e2c6!8m2!3d11.0255674!4d77.114851!16s%2Fg%2F11ty6_6tj8!19sChIJU313kflVqDsRxuKGC561Gyk?authuser=0&hl=en&rclk=1,"11.0255674,77.114851"
Kuwwathul islam sunath jamath,Mosque,"Kuwwathul islam sunath jamath, 55/2A, JK Garden, Raha Avenue, Pulian Thoppu, Kurichi, Coimbatore, Tamil Nadu 641024","JK Garden, Raha Avenue, Pulian Thoppu",55/2A,"Kurichi, Coimbatore",641024,Tamil Nadu,IN,https://www.google.com/maps/place/Kuwwathul+islam+sunath+jamath/data=!4m7!3m6!1s0x3ba859b3abdab415:0x7c3c3d8998aff4e2!8m2!3d10.9860033!4d76.9673677!16s%2Fg%2F11mh9td6tm!19sChIJFbTaq7NZqDsR4vSvmIk9PHw?authuser=0&hl=en&rclk=1,"10.9860033,76.9673677"
koottttaiputuur ssrii attul islaam ssaaHpiyyaa cunnnnnnt jmaat,Mosque,"koottttaiputuur ssrii attul islaam ssaaHpiyyaa cunnnnnnt jmaat, B2, Street Number 4, GM Nagar, Pulian Thoppu, Kurichi, Coimbatore, Tamil Nadu 641024","GM Nagar, Pulian Thoppu","B2, Street Number 4","Kurichi, Coimbatore",641024,Tamil Nadu,IN,https://www.google.com/maps/place/%E0%AE%95%E0%AF%8B%E0%AE%9F%E0%AF%8D%E0%AE%9F%E0%AF%88%E0%AE%AA%E0%AF%81%E0%AE%A4%E0%AF%82%E0%AE%B0%E0%AF%8D+%E0%AE%B7%E0%AE%B0%E0%AF%80+%E0%AE%85%E0%AE%A4%E0%AF%8D%E0%AE%A4%E0%AF%81%E0%AE%B2%E0%AF%8D+%E0%AE%87%E0%AE%B8%E0%AF%8D%E0%AE%B2%E0%AE%BE%E0%AE%AE%E0%AF%8D+%E0%AE%B7%E0%AE%BE%E0%AE%83%E0%AE%AA%E0%AE%BF%E0%AE%AF%E0%AF%8D%E0%AE%AF%E0%AE%BE+%E0%AE%9A%E0%AF%81%E0%AE%A9%E0%AF%8D%E0%AE%A9%E0%AE%A4%E0%AF%8D+%E0%AE%9C%E0%AE%AE%E0%AE%BE%E0%AE%A4%E0%AF%8D/data=!4m7!3m6!1s0x3ba8599cfab886ff:0x76a039020c94a85!8m2!3d10.9878869!4d76.973682!16s%2Fg%2F11mc74ybnc!19sChIJ_4a4-pxZqDsRhUrJIJADagc?authuser=0&hl=en&rclk=1,"10.9878869,76.973682"
Masjid Noorus Salam,Mosque,"XXQ9+PH3 Masjid Noorus Salam, Anbu Nagar, Pulian Thoppu, Karumbukkadai, Coimbatore, Tamil Nadu 641024","Anbu Nagar, Pulian Thoppu",XXQ9+PH3,"Karumbukkadai, Coimbatore",641024,Tamil Nadu,IN,https://www.google.com/maps/place/Masjid+Noorus+Salam/data=!4m7!3m6!1s0x3ba8595c77d0ab05:0xff312e71edf74cba!8m2!3d10.9892618!4d76.9689216!16s%2Fg%2F11ns3_f3td!19sChIJBavQd1xZqDsRukz37XEuMf8?authuser=0&hl=en&rclk=1,"10.9892618,76.9689216"
Masjid Siddiqul Akbar,Mosque,"XXPF+VR2 Masjid Siddiqul Akbar, Unnamed Road, GM Nagar, Pulian Thoppu, Coimbatore, Tamil Nadu 641024","GM Nagar, Pulian Thoppu","XXPF+VR2, Unnamed Road",Coimbatore,641024,Tamil Nadu,IN,https://www.google.com/maps/place/Masjid+Siddiqul+Akbar/data=!4m7!3m6!1s0x3ba8597f45913f0d:0x99153e11cee24a39!8m2!3d10.9871346!4d76.9745178!16s%2Fg%2F11fjczx_1r!19sChIJDT-RRX9ZqDsROUrizhE-FZk?authuser=0&hl=en&rclk=1,"10.9871346,76.9745178"
Masjid Touhid Jamat,Mosque,"XXPF+MVJ Masjid Touhid Jamat, GM Nagar, Pulian Thoppu, Coimbatore, Tamil Nadu 641024","GM Nagar, Pulian Thoppu",XXPF+MVJ,Coimbatore,641024,Tamil Nadu,IN,https://www.google.com/maps/place/Masjid+Touhid+Jamat/data=!4m7!3m6!1s0x3ba859f53a11ca21:0xc6e8db879127de4!8m2!3d10.9867192!4d76.9746312!16s%2Fg%2F11spqws04r!19sChIJIcoROvVZqDsR5H0SebiNbgw?authuser=0&hl=en&rclk=1,"10.9867192,76.97463119999999"
Masjithur Rayyan,Mosque,"XXF5+XHM Masjithur Rayyan, Asath Nagar, 6th St, Coimbatore, Tamil Nadu 641008",Muthuswamy Colony,"XXF5+XHM, Asath Nagar, 6th St",Coimbatore,641008,Tamil Nadu,IN,https://www.google.com/maps/place/Masjithur+Rayyan/data=!4m7!3m6!1s0x3ba859050e849ee1:0x9a7a4afbb783f2a!8m2!3d10.9749528!4d76.9589366!16s%2Fg%2F11rgydvrg2!19sChIJ4Z6EDgVZqDsRKj94u6-kpwk?authuser=0&hl=en&rclk=1,"10.974952799999999,76.9589366"
TNTJ KURICHI PIRIVU,Mosque,"TNTJ KURICHI PIRIVU, 406/2, Street No - 1, Kurichi, Coimbatore, Tamil Nadu 641024",,"406/2, Street No - 1","Kurichi, Coimbatore",641024,Tamil Nadu,IN,https://www.google.com/maps/place/TNTJ+KURICHI+PIRIVU/data=!4m7!3m6!1s0x3ba859cf831512ab:0x6a4c693cf70455bd!8m2!3d10.971991!4d76.972368!16s%2Fg%2F11nxc4n3kp!19sChIJqxIVg89ZqDsRvVUE9zxpTGo?authuser=0&hl=en&rclk=1,"10.971991,76.972368"
Masjid NH road,Mosque,"Masjid NH road, 52, Nagapattinam - Coimbatore - Gundlupet Hwy, Town Hall, Coimbatore, Tamil Nadu 641001",Town Hall,"52, Nagapattinam - Coimbatore - Gundlupet Hwy",Coimbatore,641001,Tamil Nadu,IN,https://www.google.com/maps/place/Masjid+NH+road/data=!4m7!3m6!1s0x3ba859d1deb5ccc9:0xcdbdc03b48d69785!8m2!3d10.9992888!4d76.9599511!16s%2Fg%2F11r35rrx8w!19sChIJycy13tFZqDsRhZfWSDvAvc0?authuser=0&hl=en&rclk=1,"10.999288799999999,76.9599511"
Masjid Akram,Mosque,"XXJ9+V4G Masjid Akram, Ponvizha Nagar Road, Anbu Nagar, Ukkadam, Coimbatore, Tamil Nadu 641001","Anbu Nagar, Ukkadam","XXJ9+V4G, Ponvizha Nagar Road",Coimbatore,641001,Tamil Nadu,IN,https://www.google.com/maps/place/Masjid+Akram/data=!4m7!3m6!1s0x3ba8591e97dbd9bb:0x271ad358ee807c41!8m2!3d10.9821793!4d76.9678408!16s%2Fg%2F11rc48mxj0!19sChIJu9nblx5ZqDsRQXyA7ljTGic?authuser=0&hl=en&rclk=1,"10.9821793,76.96784079999999"
Eadhka Masjid Siddhannapuram,Mosque,"Eadhka Masjid Siddhannapuram, 11/20, Kallaraicheri, Podanur, Tamil Nadu 641023",Kallaraicheri,11/20,Podanur,641023,Tamil Nadu,IN,https://www.google.com/maps/place/Eadhka+Masjid+Siddhannapuram/data=!4m7!3m6!1s0x3ba85bf764652a7b:0x7a5c49bf41e1c3c6!8m2!3d10.962449!4d76.9926779!16s%2Fg%2F11sxy5pcr3!19sChIJeyplZPdbqDsRxsPhQb9JXHo?authuser=0&hl=en&rclk=1,"10.962449,76.99267789999999"
Hanafi Sunnath Jamath masjid,Mosque,"Hanafi Sunnath Jamath masjid, 81, Nehru St, Peranaidu Layout, Ram Nagar, Coimbatore, Tamil Nadu 641009","Peranaidu Layout, Ram Nagar","81, Nehru St",Coimbatore,641009,Tamil Nadu,IN,https://www.google.com/maps/place/Hanafi+Sunnath+Jamath+masjid/data=!4m7!3m6!1s0x3ba85978ea54edc3:0x8e945780eacc46fe!8m2!3d11.0151898!4d76.9628368!16s%2Fg%2F11g0qlny47!19sChIJw-1U6nhZqDsR_kbM6oBXlI4?authuser=0&hl=en&rclk=1,"11.0151898,76.96283679999999"
Coimbatore Patel Muhalla Sunnath Jamath Masjid,Mosque,"2X23+7VJ Coimbatore Patel Muhalla Sunnath Jamath Masjid, R.S. Puram, Coimbatore, Tamil Nadu 641002",R.S. Puram,2X23+7VJ,Coimbatore,641002,Tamil Nadu,IN,https://www.google.com/maps/place/Coimbatore+Patel+Muhalla+Sunnath+Jamath+Masjid/data=!4m7!3m6!1s0x3ba8598dde116989:0xc44527379101a021!8m2!3d11.0007152!4d76.9546483!16s%2Fg%2F11j3lq2dcz!19sChIJiWkR3o1ZqDsRIaABkTcnRcQ?authuser=0&hl=en&rclk=1,"11.0007152,76.9546483"
Jumma Masjid,Mosque,"113/b, first floor, Jumma Masjid, Coimbatore, Tamil Nadu 641012",,"113/b, first floor",Coimbatore,641012,Tamil Nadu,IN,https://www.google.com/maps/place/Jumma+Masjid/data=!4m7!3m6!1s0x3ba8594e88e298ab:0x2b3540b56b402463!8m2!3d11.0202565!4d76.9673701!16s%2Fg%2F11tsk6d9l3!19sChIJq5jiiE5ZqDsRYyRAa7VANSs?authuser=0&hl=en&rclk=1,"11.0202565,76.9673701"
MASJIDUL IHSAAN,Mosque,"XXH7+8JF MASJIDUL IHSAAN, Salamath Nagar, Karumbukkadai, Coimbatore, Tamil Nadu 641008",Salamath Nagar,XXH7+8JF,"Karumbukkadai, Coimbatore",641008,Tamil Nadu,IN,https://www.google.com/maps/place/MASJIDUL+IHSAAN/data=!4m7!3m6!1s0x3ba859273abdb0e5:0x630e4ad01b70c2ee!8m2!3d10.978316!4d76.9640331!16s%2Fg%2F11v03m6fjc!19sChIJ5bC9OidZqDsR7sJwG9BKDmM?authuser=0&hl=en&rclk=1,"10.978316,76.9640331"
BURHANI GUARDS COIMBATORE,Mosque,"BURHANI GUARDS COIMBATORE, Qutbi Masjid, Peelamedu, Krishnarayapuram, Illango Nagar, Coimbatore, Tamil Nadu 641004","Peelamedu, Krishnarayapuram, Illango Nagar",Qutbi Masjid,Coimbatore,641004,Tamil Nadu,IN,https://www.google.com/maps/place/BURHANI+GUARDS+COIMBATORE/data=!4m7!3m6!1s0x3ba8592605198cf9:0xf4449f3bf0ec4cd3!8m2!3d11.032896!4d76.9949825!16s%2Fg%2F11nxsgh4zt!19sChIJ-YwZBSZZqDsR00zs8DufRPQ?authuser=0&hl=en&rclk=1,"11.032896,76.99498249999999"
Sunnath Jamath Masjid,Religious destination,"2WVW+2QW Sunnath Jamath Masjid, Koundampalayam, Coimbatore, Tamil Nadu 641030",Koundampalayam,2WVW+2QW,Coimbatore,641030,Tamil Nadu,IN,https://www.google.com/maps/place/Sunnath+Jamath+Masjid/data=!4m7!3m6!1s0x3ba85896ccdeaaab:0x8ad02b2d0f0d9ff3!8m2!3d11.0426018!4d76.9469544!16s%2Fg%2F11txmz8fc3!19sChIJq6rezJZYqDsR858NDy0r0Io?authuser=0&hl=en&rclk=1,"11.0426018,76.9469544"
Irshadul Islam madarasa ahlusunnath. Wal jamah,Mosque,"XXF6+MFJ Irshadul Islam madarasa ahlusunnath. Wal jamah, Palakkad Main Rd, Aathupalam, Coimbatore, Tamil Nadu 641008",Aathupalam,"XXF6+MFJ, Palakkad Main Rd",Coimbatore,641008,Tamil Nadu,IN,https://www.google.com/maps/place/Irshadul+Islam+madarasa+ahlusunnath.+Wal+jamah/data=!4m7!3m6!1s0x3ba859550dc086a3:0xc843431828249a00!8m2!3d10.9742202!4d76.9610576!16s%2Fg%2F11tmk1d399!19sChIJo4bADVVZqDsRAJokKBhDQ8g?authuser=0&hl=en&rclk=1,"10.9742202,76.96105759999999"
