name,main_category,address,address_ward,address_street,address_city,address_postal_code,address_state,address_country_code,link,coordinates
Jama Masjid,Mosque,"MGGQ+F5Q Jama Masjid, Jama Masjid Rd, Mahalaxmiwada, Adilabad, Telangana 504001",Mahalaxmiwada,"MGGQ+F5Q, Jama Masjid Rd",Adilabad,504001,Telangana,IN,https://www.google.com/maps/place/Jama+Masjid/data=!4m7!3m6!1s0x3bd25c75f87e8a01:0x25a95ee1fbab37d0!8m2!3d19.6762137!4d78.5379985!16s%2Fg%2F1tlqnfwv!19sChIJAYp--HVc0jsR0Der--FeqSU?authuser=0&hl=en&rclk=1,"19.676213699999998,78.5379985"
Gulzar Masjid Nirmal,Mosque,"Gulzar Masjid Nirmal, Masjid-e-Gulzar, Post Office Rd, Balajiwada, Pinjari Gutta, Nirmal, Telangana 504106","Balajiwada, Pinjari Gutta","Masjid-e-Gulzar, Post Office Rd",Nirmal,504106,Telangana,IN,https://www.google.com/maps/place/Gulzar+Masjid+Nirmal/data=!4m7!3m6!1s0x3bcd8c78647f2d69:0x2baca699c5ac6b20!8m2!3d19.1007782!4d78.3476027!16s%2Fg%2F11cn93xd9y!19sChIJaS1_ZHiMzTsRIGusxZmmrCs?authuser=0&hl=en&rclk=1,"19.1007782,78.3476027"
Jama Masjid,Mosque,"482V+69G Jama Masjid, Gandhi Nagar Colony, Nirmal, Telangana 504106",Gandhi Nagar Colony,482V+69G,Nirmal,504106,Telangana,IN,https://www.google.com/maps/place/Jama+Masjid/data=!4m7!3m6!1s0x3bcd8c7f5b318beb:0xb8ae867a173de72b!8m2!3d19.1005579!4d78.343457!16s%2Fg%2F11dz19vt9b!19sChIJ64sxW3-MzTsRK-c9F3qGrrg?authuser=0&hl=en&rclk=1,"19.1005579,78.343457"
Masjid E Mahboobia,Mosque,"38RV+23Q Masjid E Mahboobia, Madina colony, Eidgoan, Nirmal, Telangana 504106",Eidgoan,"38RV+23Q, Madina colony",Nirmal,504106,Telangana,IN,https://www.google.com/maps/place/Masjid+E+Mahboobia/data=!4m7!3m6!1s0x3bcd8c7cc72f32ad:0xc87a1e0f04aa3a5d!8m2!3d19.0900799!4d78.3427318!16s%2Fg%2F11b6njqqlh!19sChIJrTIvx3yMzTsRXTqqBA8eesg?authuser=0&hl=en&rclk=1,"19.0900799,78.3427318"
"Masjid-e-Yahya, Gajulpet",Mosque,"485J+MRG Masjid-e-Yahya, Gajulpet, Gajulpet, Telangana 504106",,485J+MRG,Gajulpet,504106,Telangana,IN,"https://www.google.com/maps/place/Masjid-e-Yahya,+Gajulpet/data=!4m7!3m6!1s0x3bcd8b7bcb59113d:0x9c871539096c8956!8m2!3d19.1091943!4d78.3320753!16s%2Fg%2F11c716w5jr!19sChIJPRFZy3uLzTsRVolsCTkVh5w?authuser=0&hl=en&rclk=1","19.1091943,78.3320753"
Masjid Panjesha,Mosque,"Masjid Panjesha, masjid, panjesha marg, Bhainsa, Telangana 504103",,"masjid, panjesha marg",Bhainsa,,Telangana,IN,https://www.google.com/maps/place/Masjid+Panjesha/data=!4m7!3m6!1s0x3bcdfe45594b318b:0xa9a4527a0d3bdd4e!8m2!3d19.1114013!4d77.9614446!16s%2Fg%2F11xfvxc4m!19sChIJizFLWUX-zTsRTt07DXpSpKk?authuser=0&hl=en&rclk=1,"19.1114013,77.9614446"
Mohammadia Masjid,Mosque,"38JR+55J Mohammadia Masjid, Adharsha Nagar, Nirmal, Telangana 504106",Adharsha Nagar,38JR+55J,Nirmal,504106,Telangana,IN,https://www.google.com/maps/place/Mohammadia+Masjid/data=!4m7!3m6!1s0x3bcd8c604b0a54d3:0x67084e8473077f46!8m2!3d19.0804551!4d78.340404!16s%2Fg%2F11bzq338xz!19sChIJ01QKS2CMzTsRRn8Hc4ROCGc?authuser=0&hl=en&rclk=1,"19.0804551,78.34040399999999"
Soan(v&m)Madhapur Church,Church,"Soan(v&m)Madhapur Church, Madhapur road. Soan village, Nirmal, Telangana 504105",,Madhapur road. Soan village,Nirmal,504105,Telangana,IN,https://www.google.com/maps/place/Soan%28v%26m%29Madhapur+Church/data=!4m7!3m6!1s0x3bcd920a26e1af9b:0xad5d07a9ea0b4366!8m2!3d19.0070349!4d78.3670373!16s%2Fg%2F1hhh12n3l!19sChIJm6_hJgqSzTsRZkML6qkHXa0?authuser=0&hl=en&rclk=1,"19.0070349,78.36703729999999"
Masjid E Mastaniya,Mosque,"38MP+W6H Masjid E Mastaniya, Asra Colony, Adharsha Nagar, Nirmal, Telangana 504106","Asra Colony, Adharsha Nagar",38MP+W6H,Nirmal,504106,Telangana,IN,https://www.google.com/maps/place/Masjid+E+Mastaniya/data=!4m7!3m6!1s0x3bcd8c884b8cf3ad:0xc9b46d1316dfb1a6!8m2!3d19.0848125!4d78.3356094!16s%2Fg%2F11f126_006!19sChIJrfOMS4iMzTsRprHfFhNttMk?authuser=0&hl=en&rclk=1,"19.084812499999998,78.3356094"
Masjid E Bilal Haq,Mosque,"483M+C39 Masjid E Bilal Haq, Nirmal, Gajulpet, Telangana 504106",,"483M+C39, Nirmal",Gajulpet,504106,Telangana,IN,https://www.google.com/maps/place/Masjid+E+Bilal+Haq/data=!4m7!3m6!1s0x3bcd8b7c2b493a63:0xf421e956b0a01151!8m2!3d19.1035383!4d78.3327297!16s%2Fg%2F11dftfsfpm!19sChIJYzpJK3yLzTsRURGgsFbpIfQ?authuser=0&hl=en&rclk=1,"19.1035383,78.3327297"
Kambalposh Masjid,Mosque,"483X+3J9 Kambalposh Masjid, near Islampura, Teachers Colony, Besthawar Pet, Brahmapuri, Nirmal, Telangana 504106","Teachers Colony, Besthawar Pet, Brahmapuri","483X+3J9, near Islampura",Nirmal,504106,Telangana,IN,https://www.google.com/maps/place/Kambalposh+Masjid/data=!4m7!3m6!1s0x3bcd8b87c21236b1:0xa29a076725ba96c7!8m2!3d19.1026649!4d78.3491077!16s%2Fg%2F1tfr8n87!19sChIJsTYSwoeLzTsRx5a6JWcHmqI?authuser=0&hl=en&rclk=1,"19.1026649,78.34910769999999"
Masjid-e-Arfath,Mosque,"485P+MVR Masjid-e-Arfath, Gajulpet, Telangana 504106",,485P+MVR,Gajulpet,504106,Telangana,IN,https://www.google.com/maps/place/Masjid-e-Arfath/data=!4m7!3m6!1s0x3bcd8b78f38929b7:0xf1f6598f1f63e972!8m2!3d19.1092323!4d78.3371349!16s%2Fg%2F11g6xq1bxz!19sChIJtymJ83iLzTsRculjH49Z9vE?authuser=0&hl=en&rclk=1,"19.1092323,78.3371349"
Budharpet Masjid,Mosque,"483V+F49 Budharpet Masjid, Pinjari Gutta, Nirmal, Telangana 504106",Pinjari Gutta,483V+F49,Nirmal,504106,Telangana,IN,https://www.google.com/maps/place/Budharpet+Masjid/data=!4m7!3m6!1s0x3bcd8b80c2fc5e99:0xbd732aff04f66e07!8m2!3d19.1036542!4d78.3428597!16s%2Fg%2F11dxchc4cr!19sChIJmV78woCLzTsRB272BP8qc70?authuser=0&hl=en&rclk=1,"19.103654199999998,78.34285969999999"
MASJID - E - RIYAZUL HAQ,Mosque,"38WX+Q76 MASJID - E - RIYAZUL HAQ, Bagulwada, Nirmal, Telangana 504106",Bagulwada,38WX+Q76,Nirmal,504106,Telangana,IN,https://www.google.com/maps/place/MASJID+-+E+-+RIYAZUL+HAQ/data=!4m7!3m6!1s0x3bcd8c79971e96a1:0x16fef0fe66a6bb49!8m2!3d19.0969176!4d78.3481556!16s%2Fg%2F11ddxp28l8!19sChIJoZYel3mMzTsRSbumZv7w_hY?authuser=0&hl=en&rclk=1,"19.096917599999998,78.3481556"
Masjid E Saad,Mosque,"Masjid E Saad, Bail Bazar Rd, Naidiwada, Nirmal, Gajulpet, Telangana 504106",Naidiwada,Bail Bazar Rd,"Nirmal, Gajulpet",504106,Telangana,IN,https://www.google.com/maps/place/Masjid+E+Saad/data=!4m7!3m6!1s0x3bcd8b82f6becb3b:0x42b1513e084204aa!8m2!3d19.110158!4d78.3405581!16s%2Fg%2F11d_25gpf0!19sChIJO8u-9oKLzTsRqgRCCD5RsUI?authuser=0&hl=en&rclk=1,"19.110158,78.3405581"
"Jama Masjid, Muktapur",Mosque,"3C62+Q28 Jama Masjid, Muktapur, Muktapur, Telangana 504106",,3C62+Q28,Muktapur,,Telangana,IN,"https://www.google.com/maps/place/Jama+Masjid,+Muktapur/data=!4m7!3m6!1s0x3bcd8f9258c7c083:0x2f260bf9d293a969!8m2!3d19.0619098!4d78.4000766!16s%2Fg%2F11g1lsp89d!19sChIJg8DHWJKPzTsRaamT0vkLJi8?authuser=0&hl=en&rclk=1","19.0619098,78.40007659999999"
masjid E Osmania,Mosque,"484V+CR6 masjid E Osmania, Kabutar Kaman, Pinjari Gutta, Nirmal, Telangana 504106",Pinjari Gutta,"484V+CR6, Kabutar Kaman",Nirmal,504106,Telangana,IN,https://www.google.com/maps/place/masjid+E+Osmania/data=!4m7!3m6!1s0x3bcd8b2fce0274ed:0xfcbe244bbc5ab10a!8m2!3d19.1060285!4d78.3445019!16s%2Fg%2F11fl94rxxh!19sChIJ7XQCzi-LzTsRCrFavEskvvw?authuser=0&hl=en&rclk=1,"19.1060285,78.3445019"
MASJID- E -SIDDIQ,Mosque,"39W3+9GR MASJID- E -SIDDIQ, Moghalpura, Nirmal, Telangana 504106",Moghalpura,39W3+9GR,Nirmal,504106,Telangana,IN,https://www.google.com/maps/place/MASJID-+E+-SIDDIQ/data=!4m7!3m6!1s0x3bcd8d77ced13693:0x2b1f9d1fdf452958!8m2!3d19.0959983!4d78.3537797!16s%2Fg%2F11g1gmhbgh!19sChIJkzbRzneNzTsRWClF3x-dHys?authuser=0&hl=en&rclk=1,"19.095998299999998,78.35377969999999"
"Masjid Mohammad Osman, Nirmal",Mosque,"486M+V9M Masjid Mohammad Osman, Nirmal, Gajulpet, Telangana 504106",,486M+V9M,Gajulpet,504106,Telangana,IN,"https://www.google.com/maps/place/Masjid+Mohammad+Osman,+Nirmal/data=!4m7!3m6!1s0x3bcd8b85fd08424d:0x8490656f1497e456!8m2!3d19.1122219!4d78.3334251!16s%2Fg%2F11l8tvx7lb!19sChIJTUII_YWLzTsRVuSXFG9lkIQ?authuser=0&hl=en&rclk=1","19.112221899999998,78.3334251"
