name,main_category,address,address_ward,address_street,address_city,address_postal_code,address_state,address_country_code,link,coordinates
Gamaibari Jama Masjid,Mosque,"Gamaibari Jama Masjid, Teliamura, Tripura 799205",,,Teliamura,799205,Tripura,IN,https://www.google.com/maps/place/Gamaibari+Jama+Masjid/data=!4m7!3m6!1s0x3753c7c43de11019:0x2b866c271bbb5154!8m2!3d23.8365432!4d91.6456477!16s%2Fg%2F11t5kcfvy1!19sChIJGRDhPcTHUzcRVFG7Gydshis?authuser=0&hl=en&rclk=1,"23.836543199999998,91.6456477"
Shantipara Masjid (Maszid patty),Mosque,"R7JM+6F2 Shantipara Masjid (Maszid patty), Santipara, Dhaleswar, Agartala, Tripura 799001","Santipara, Dhaleswar",R7JM+6F2,Agartala,799001,Tripura,IN,https://www.google.com/maps/place/Shantipara+Masjid+%28Maszid+patty%29/data=!4m7!3m6!1s0x3753f40ca32d75b5:0xfbc0b987f5fd7d73!8m2!3d23.830507!4d91.2836546!16s%2Fg%2F124t5nz84!19sChIJtXUtowz0UzcRc3399Ye5wPs?authuser=0&hl=en&rclk=1,"23.830506999999997,91.28365459999999"
Baitus Salam Mosque dkssinn raamngr msjid,Mosque,"R7M6+P4M Baitus Salam Mosque dkssinn raamngr msjid, Jay Nagar, Agartala, Tripura 799001",Jay Nagar,R7M6+P4M,Agartala,799001,Tripura,IN,https://www.google.com/maps/place/Baitus+Salam+Mosque+%E0%A6%A6%E0%A6%95%E0%A7%8D%E0%A6%B7%E0%A6%BF%E0%A6%A3+%E0%A6%B0%E0%A6%BE%E0%A6%AE%E0%A6%A8%E0%A6%97%E0%A6%B0+%E0%A6%AE%E0%A6%B8%E0%A6%9C%E0%A6%BF%E0%A6%A6/data=!4m7!3m6!1s0x3753f5898f58cfa5:0x6150b23590a822b6!8m2!3d23.8343357!4d91.260297!16s%2Fg%2F11rplw52v5!19sChIJpc9Yj4n1UzcRtiKokDWyUGE?authuser=0&hl=en&rclk=1,"23.8343357,91.260297"
Jama Masjid Guwalda,Mosque,"4V6V+3GG Jama Masjid Guwalda, Guwalda, Rajasthan 301707",,4V6V+3GG,Guwalda,301707,Rajasthan,IN,https://www.google.com/maps/place/Jama+Masjid+Guwalda/data=!4m7!3m6!1s0x390d3446aaaaaaa9:0x6fd826dd23dae888!8m2!3d28.1101824!4d76.8938403!16s%2Fg%2F11fxdy1bfp!19sChIJqaqqqkY0DTkRiOjaI90m2G8?authuser=0&hl=en&rclk=1,"28.1101824,76.8938403"
Jirania Barjala Jame Masjid,Mosque,"RCJH+QF8 Jirania Barjala Jame Masjid, Bankimnagar, Tripura 799045",,RCJH+QF8,Bankimnagar,799045,Tripura,IN,https://www.google.com/maps/place/Jirania+Barjala+Jame+Masjid/data=!4m7!3m6!1s0x3753ec14774f6d9d:0x5cbd011524a57022!8m2!3d23.8319134!4d91.4286875!16s%2Fg%2F11fy5gc9nt!19sChIJnW1PdxTsUzcRInClJBUBvVw?authuser=0&hl=en&rclk=1,"23.831913399999998,91.4286875"
Masjid,Mosque,"2633+G4J Masjid, Kukkar Chati, Haryana 121103",,2633+G4J,Kukkar Chati,121103,Haryana,IN,https://www.google.com/maps/place/Masjid/data=!4m7!3m6!1s0x39732b996cfc1043:0xd0b5fc59e74806f1!8m2!3d28.0038399!4d77.2027798!16s%2Fg%2F11f5tcmx0p!19sChIJQxD8bJkrczkR8QZI51n8tdA?authuser=0&hl=en&rclk=1,"28.0038399,77.2027798"
Bilawat Patti Sakras Habibullah Mosque,Mosque,"RXWW+W34 Bilawat Patti Sakras Habibullah Mosque, Sakras, Haryana 122108",,RXWW+W34,Sakras,,Haryana,IN,https://www.google.com/maps/place/Bilawat+Patti+Sakras+Habibullah+Mosque/data=!4m7!3m6!1s0x3972c546de1a44fd:0x412ab773b9cb2943!8m2!3d27.8472549!4d76.9951936!16s%2Fg%2F11hbpvhwh9!19sChIJ_UQa3kbFcjkRQynLuXO3KkE?authuser=0&hl=en&rclk=1,"27.8472549,76.9951936"
Masjid Kholabas,Mosque,"PR63+9H7 Masjid Kholabas, Neekach, Ramgarh, Boojaka, Rajasthan 301025",Neekach,PR63+9H7,"Ramgarh, Boojaka",,Rajasthan,IN,https://www.google.com/maps/place/Masjid+Kholabas/data=!4m7!3m6!1s0x3972bfb16862e399:0x55ed6791c3d7605c!8m2!3d27.7109044!4d76.8039343!16s%2Fg%2F11ghnb_82k!19sChIJmeNiaLG_cjkRXGDXw5Fn7VU?authuser=0&hl=en&rclk=1,"27.7109044,76.8039343"
Jumma Masjid Narka,Mosque,"Jumma Masjid Narka, Nadka, Rajasthan 301026",,,Nadka,301026,Rajasthan,IN,https://www.google.com/maps/place/Jumma+Masjid+Narka/data=!4m7!3m6!1s0x39729356a4df1cdd:0x6e2457272817b85e!8m2!3d27.5450625!4d76.7676875!16s%2Fg%2F11fmqb1wls!19sChIJ3RzfpFaTcjkRXrgXKCdXJG4?authuser=0&hl=en&rclk=1,"27.5450625,76.7676875"
Thalchara Jama Masjid,Mosque,"FMRQ+8CW Thalchara Jama Masjid, Unnamed Road, Paschim Daluma, Tripura 799101",,"FMRQ+8CW, Unnamed Road",Paschim Daluma,799101,Tripura,IN,https://www.google.com/maps/place/Thalchara+Jama+Masjid/data=!4m7!3m6!1s0x3753af3689e90a0d:0xb940e2cfbd3dae66!8m2!3d23.490858!4d91.6885728!16s%2Fg%2F11fn6qcdn5!19sChIJDQrpiTavUzcRZq49vc_iQLk?authuser=0&hl=en&rclk=1,"23.490858,91.6885728"
Jama masjid,Mosque,"R7RC+89X Jama masjid, Ronaldsay Rd, Nutanpalli, Krishna Nagar, Agartala, Tripura 799002","Nutanpalli, Krishna Nagar","R7RC+89X, Ronaldsay Rd",Agartala,799002,Tripura,IN,https://www.google.com/maps/place/Jama+masjid/data=!4m7!3m6!1s0x3753f5f8fbf7104f:0xa491c9635470176a!8m2!3d23.8408647!4d91.2709792!16s%2Fg%2F11fl5d9b44!19sChIJTxD3-_j1UzcRahdwVGPJkaQ?authuser=0&hl=en&rclk=1,"23.840864699999997,91.2709792"
JAMA MASJID HUSAIPUR,Mosque,"5V3X+CRQ JAMA MASJID HUSAIPUR, Husaipur, Rajasthan 301018",,5V3X+CRQ,Husaipur,301018,Rajasthan,IN,https://www.google.com/maps/place/JAMA+MASJID+HUSAIPUR/data=!4m7!3m6!1s0x390d3798c2f90561:0xbac268edf4962bd2!8m2!3d28.153593!4d76.8996121!16s%2Fg%2F11kgt25nb3!19sChIJYQX5wpg3DTkR0iuW9O1owro?authuser=0&hl=en&rclk=1,"28.153592999999997,76.8996121"
Rajnagar Masjid,Mosque,"R7H3+RVQ Rajnagar Masjid, Jay Nagar, Agartala, Tripura 799001",Jay Nagar,R7H3+RVQ,Agartala,799001,Tripura,IN,https://www.google.com/maps/place/Rajnagar+Masjid/data=!4m7!3m6!1s0x3753f51ddf4741f1:0xfac1b1543d858134!8m2!3d23.8295933!4d91.2547414!16s%2Fg%2F11mx9xjjzj!19sChIJ8UFH3x31UzcRNIGFPVSxwfo?authuser=0&hl=en&rclk=1,"23.8295933,91.2547414"
Kazi bari dorbar Sarif,Mosque,"R7Q5+393 Kazi bari dorbar Sarif, Jay Nagar, Agartala, Tripura 799001",Jay Nagar,R7Q5+393,Agartala,799001,Tripura,IN,https://www.google.com/maps/place/Kazi+bari+dorbar+Sarif/data=!4m7!3m6!1s0x3753f5cb6e3b9a19:0x66dc65f145292c04!8m2!3d23.8368892!4d91.2562062!16s%2Fg%2F11s237n30g!19sChIJGZo7bsv1UzcRBCwpRfFl3GY?authuser=0&hl=en&rclk=1,"23.836889199999998,91.2562062"
Masjid,Mosque,"QRFW+7J7 Masjid, Maidabas, Rajasthan 301025",,QRFW+7J7,Maidabas,301025,Rajasthan,IN,https://www.google.com/maps/place/Masjid/data=!4m7!3m6!1s0x3972c747c90a4295:0x4f45aed67316d5e8!8m2!3d27.7731749!4d76.8465532!16s%2Fg%2F1262pbgq7!19sChIJlUIKyUfHcjkR6NUWc9auRU8?authuser=0&hl=en&rclk=1,"27.773174899999997,76.8465532"
Gualga Jama Masjid msjd,Mosque,"GFW6+W3J Gualga Jama Masjid msjd, Goal Ga, Dhwajnagar, Tripura 799114",Goal Ga,GFW6+W3J,Dhwajnagar,799114,Tripura,IN,https://www.google.com/maps/place/Gualga+Jama+Masjid+%D9%85%D8%B3%D8%AC%D8%AF%E2%80%AD/data=!4m7!3m6!1s0x375399ebcdbe4cb1:0xc79d39004913de14!8m2!3d23.5473404!4d91.4601523!16s%2Fg%2F11hbkdhnq6!19sChIJsUy-zeuZUzcRFN4TSQA5ncc?authuser=0&hl=en&rclk=1,"23.5473404,91.46015229999999"
Gularwali Masjid,Mosque,"W4CG+GFH Gularwali Masjid, Ter, Haryana 122508",,W4CG+GFH,Ter,122508,Haryana,IN,https://www.google.com/maps/place/Gularwali+Masjid/data=!4m7!3m6!1s0x3972d793bec6716f:0xccd4c391ae8f2ad4!8m2!3d27.9213014!4d77.1262495!16s%2Fg%2F11h7fh6jjq!19sChIJb3HGvpPXcjkR1CqPrpHD1Mw?authuser=0&hl=en&rclk=1,"27.921301399999997,77.1262495"
Masjid,Mosque,"P2WQ+734 Masjid, Gadshora, Rajasthan 321204",,P2WQ+734,Gadshora,,Rajasthan,IN,https://www.google.com/maps/place/Masjid/data=!4m7!3m6!1s0x3972dd33266ecec1:0x963873ce13877c5b!8m2!3d27.7456487!4d77.0376925!16s%2Fg%2F11qs77hjwr!19sChIJwc5uJjPdcjkRW3yHE85zOJY?authuser=0&hl=en&rclk=1,"27.7456487,77.03769249999999"
Rajbari Jama Masjid,Mosque,"95GC+6XP Rajbari Jama Masjid, Dharmanagar, Tripura 799250",,95GC+6XP,Dharmanagar,,Tripura,IN,https://www.google.com/maps/place/Rajbari+Jama+Masjid/data=!4m7!3m6!1s0x3751edc4f4844da3:0x3faab0a6f82a973e!8m2!3d24.375589!4d92.1724572!16s%2Fg%2F11hmz2y854!19sChIJo02E9MTtUTcRPpcq-Kawqj8?authuser=0&hl=en&rclk=1,"24.375588999999998,92.1724572"
All bhalal masjid,Mosque,"C6H3+WHP All bhalal masjid, Ichailalchhara, Tripura 799251",,C6H3+WHP,Ichailalchhara,,Tripura,IN,https://www.google.com/maps/place/All+bhalal+masjid/data=!4m7!3m6!1s0x3751eb1cc45b490b:0xb1a010b52d6bad9f!8m2!3d24.4298355!4d92.2039464!16s%2Fg%2F11nsv71t0m!19sChIJC0lbxBzrUTcRn61rLbUQoLE?authuser=0&hl=en&rclk=1,"24.4298355,92.20394639999999"
JAMA Masjid Bubalheri,Mosque,"R3XJ+MW5 JAMA Masjid Bubalheri, Bubalheri, Haryana 122508",,R3XJ+MW5,Bubalheri,,Haryana,IN,https://www.google.com/maps/place/JAMA+Masjid+Bubalheri/data=!4m7!3m6!1s0x3972dba16c47b327:0xa14147fa543a327c!8m2!3d27.8491346!4d77.0823482!16s%2Fg%2F11sx3twdnn!19sChIJJ7NHbKHbcjkRfDI6VPpHQaE?authuser=0&hl=en&rclk=1,"27.8491346,77.0823482"
Jarakka masjid,Mosque,"GVJR+WWQ Jarakka masjid, Unnamed Road, Ladiyaka, Rajasthan 301021",,"GVJR+WWQ, Unnamed Road",Ladiyaka,301021,Rajasthan,IN,https://www.google.com/maps/place/Jarakka+masjid/data=!4m7!3m6!1s0x3972edabf93f2c0d:0xcdb58775defaff79!8m2!3d27.5323471!4d76.8923678!16s%2Fg%2F11htq4zssy!19sChIJDSw_-avtcjkRef_63nWHtc0?authuser=0&hl=en&rclk=1,"27.5323471,76.8923678"
Masjid Eid Gah Guwalda msjid iidgaah guvaaldaa msjd `ydgh gwldh,Mosque,"4V8R+FHC Masjid Eid Gah Guwalda msjid iidgaah guvaaldaa msjd `ydgh gwldh, Guwalda, Rajasthan 301707",,4V8R+FHC,Guwalda,,Rajasthan,IN,https://www.google.com/maps/place/Masjid+Eid+Gah+Guwalda+%E0%A4%AE%E0%A4%B8%E0%A5%8D%E0%A4%9C%E0%A4%BF%E0%A4%A6+%E0%A4%88%E0%A4%A6%E0%A4%97%E0%A4%BE%E0%A4%B9+%E0%A4%97%E0%A5%81%E0%A4%B5%E0%A4%BE%E0%A4%B2%E0%A4%A6%E0%A4%BE+%D9%85%D8%B3%D8%AC%D8%AF+%D8%B9%DB%8C%D8%AF%DA%AF%D8%A7%DB%81+%DA%AF%D9%88%D8%A7%D9%84%D8%AF%DB%81%E2%80%AD/data=!4m7!3m6!1s0x390d3505aaa68111:0xede99485aff5cc86!8m2!3d28.1161792!4d76.8913774!16s%2Fg%2F11tfb80v51!19sChIJEYGmqgU1DTkRhsz1r4WU6e0?authuser=0&hl=en&rclk=1,"28.116179199999998,76.8913774"
"Masjid Tibara Wali, Kaithwara",Mosque,"J449+GCG Masjid Tibara Wali, Kaithwara, Kaithwara, Rajasthan 321024",,J449+GCG,Kaithwara,321024,Rajasthan,IN,"https://www.google.com/maps/place/Masjid+Tibara+Wali,+Kaithwara/data=!4m7!3m6!1s0x3972e1aa937c2827:0xf528a373f55e68c!8m2!3d27.6063126!4d77.1185775!16s%2Fg%2F11f6g3t03_!19sChIJJyh8k6rhcjkRjOZVPzeKUg8?authuser=0&hl=en&rclk=1","27.6063126,77.1185775"
Masjid,Mosque,"JWFM+PRG Masjid, Kherthala, Rajasthan 301026",,JWFM+PRG,Kherthala,301026,Rajasthan,IN,https://www.google.com/maps/place/Masjid/data=!4m7!3m6!1s0x3972e95af4e88365:0x83d3eb2fd1cca0d9!8m2!3d27.6243246!4d76.9345853!16s%2Fg%2F11t1jflgsg!19sChIJZYPo9FrpcjkR2aDM0S_r04M?authuser=0&hl=en&rclk=1,"27.624324599999998,76.9345853"
Jalaibari Jumma Masjid,Mosque,"C6R6+3VW Jalaibari Jumma Masjid, Jolaibari, Saraspur, Tripura 799251",,C6R6+3VW,"Jolaibari, Saraspur",,Tripura,IN,https://www.google.com/maps/place/Jalaibari+Jumma+Masjid/data=!4m7!3m6!1s0x3751eb33825d7ea9:0xf0ee727b6009dae7!8m2!3d24.4402478!4d92.2122075!16s%2Fg%2F11gvds4lr4!19sChIJqX5dgjPrUTcR59oJYHty7vA?authuser=0&hl=en&rclk=1,"24.440247799999998,92.21220749999999"
"Masjid Allah hu mohalla Dhobi bagh, tauru",Mosque,"Masjid Allah hu mohalla Dhobi bagh, tauru, Bharangpur, Tauru, Haryana 122015",,,"Bharangpur, Tauru",,Haryana,IN,"https://www.google.com/maps/place/Masjid+Allah+hu+mohalla+Dhobi+bagh,+tauru/data=!4m7!3m6!1s0x390d31f22f1b441b:0xfd12f26303df0521!8m2!3d28.2040633!4d76.9498415!16s%2Fg%2F11t_zh4pz0!19sChIJG0QbL_IxDTkRIQXfA2PyEv0?authuser=0&hl=en&rclk=1","28.204063299999998,76.94984149999999"
Makka Masjid Haji Rujddar Ki dhani,Mosque,"Makka Masjid Haji Rujddar Ki dhani, Nimbahedi Tijara, Alwar, Nibaheri, Rajasthan 301411",,Nimbahedi Tijara,"Alwar, Nibaheri",,Rajasthan,IN,https://www.google.com/maps/place/Makka+Masjid+Haji+Rujddar+Ki+dhani/data=!4m7!3m6!1s0x390d3586d5105753:0x61176b22278ed911!8m2!3d28.0916028!4d76.8755304!16s%2Fg%2F11sjdx7p1h!19sChIJU1cQ1YY1DTkREdmOJyJrF2E?authuser=0&hl=en&rclk=1,"28.0916028,76.8755304"
masjid bag wali,Mosque,"4V3Q+HQ2 masjid bag wali, Guwalda, Rajasthan 301707",,4V3Q+HQ2,Guwalda,,Rajasthan,IN,https://www.google.com/maps/place/masjid+bag+wali/data=!4m7!3m6!1s0x390d353bbfe9cbe3:0x56838f77477ff9f3!8m2!3d28.1038882!4d76.8893907!16s%2Fg%2F11k46kmd4n!19sChIJ48vpvzs1DTkR8_l_R3ePg1Y?authuser=0&hl=en&rclk=1,"28.1038882,76.88939069999999"
Masjid e roja,Mosque,"FHX7+9V8 Masjid e roja, Village roja ka bas, post, Chandauli, Rajasthan",,"FHX7+9V8, Village roja ka bas, post","Chandauli, Umrain",,Rajasthan,IN,https://www.google.com/maps/place/Masjid+e+roja/data=!4m7!3m6!1s0x39729bb165698df3:0x95f6237b494e8bcf!8m2!3d27.4984023!4d76.5646889!16s%2Fg%2F11q1c_3550!19sChIJ841pZbGbcjkRz4tOSXsj9pU?authuser=0&hl=en&rclk=1,"27.4984023,76.5646889"
Wal Wali Masjid,Mosque,"HXCW+FVG Wal Wali Masjid, Sahanka, Rajasthan 321024",,HXCW+FVG,Sahanka,,Rajasthan,IN,https://www.google.com/maps/place/Wal+Wali+Masjid/data=!4m7!3m6!1s0x3972ef9edfd785f3:0x6819f8d13cbd3d43!8m2!3d27.5711783!4d76.997213!16s%2Fg%2F11pdw84sqd!19sChIJ84XX357vcjkRQz29PNH4GWg?authuser=0&hl=en&rclk=1,"27.5711783,76.997213"
Gajaria paschim pura masjid,Mosque,"R68V+JG4 Gajaria paschim pura masjid, Bardowali, Agartala, Tripura 799003",Bardowali,R68V+JG4,Agartala,799003,Tripura,IN,https://www.google.com/maps/place/Gajaria+paschim+pura+masjid/data=!4m7!3m6!1s0x3753f58b31b05e1f:0xf15d0af86e64fe43!8m2!3d23.8159441!4d91.2444649!16s%2Fg%2F11shf9yjr2!19sChIJH16wMYv1UzcRQ_5kbvgKXfE?authuser=0&hl=en&rclk=1,"23.8159441,91.2444649"
Kajir Tillla Jame masjid,Mosque,"F6XQ+M6 Kajir Tillla Jame masjid, Kulubari, Tripura 799131",,F6XQ+M6,Kulubari,,Tripura,IN,https://www.google.com/maps/place/Kajir+Tillla+Jame+masjid/data=!4m7!3m6!1s0x3753879e09022773:0x33d9dc4fd0eae2db!8m2!3d23.4991923!4d91.2381087!16s%2Fg%2F11rz46pkdg!19sChIJcycCCZ6HUzcR2-Lq0E_c2TM?authuser=0&hl=en&rclk=1,"23.4991923,91.2381087"
