name,main_category,address,address_ward,address_street,address_city,address_postal_code,address_state,address_country_code,link,coordinates
Nagina Masjid,Mosque,"52HF+Q23 Nagina Masjid, Agra Fort, Rakabganj, Agra, Uttar Pradesh 282003","Agra Fort, Rakabganj",52HF+Q23,Agra,282003,Uttar Pradesh,IN,https://www.google.com/maps/place/Nagina+Masjid/data=!4m7!3m6!1s0x3957f2ffe510d5c5:0x93d01ade97a900f2!8m2!3d27.1793784!4d78.0225313!16s%2Fm%2F05226bq!19sChIJxdUQ5f_yVzkR8gCpl94a0JM?authuser=0&hl=en&rclk=1,"27.179378399999997,78.0225313"
Sarai Masjid,Mosque,"5X7Q+P35 Sarai Masjid, Govind Kunj, Saraikhwaja, Arjun Nagar, Agra, Uttar Pradesh 282001","Govind Kunj, Saraikhwaja, Arjun Nagar",5X7Q+P35,Agra,282001,Uttar Pradesh,IN,https://www.google.com/maps/place/Sarai+Masjid/data=!4m7!3m6!1s0x3974772abeda2c99:0x453981a4dfa931a9!8m2!3d27.1642638!4d77.9877447!16s%2Fg%2F11q37d87dx!19sChIJmSzavip3dDkRqTGp36SBOUU?authuser=0&hl=en&rclk=1,"27.1642638,77.9877447"
Shah E Masjid,Mosque,"523M+GJ3 Shah E Masjid, Vibhav Nagar, Tajganj, Agra, Uttar Pradesh 282001","Vibhav Nagar, Tajganj",523M+GJ3,Agra,282001,Uttar Pradesh,IN,https://www.google.com/maps/place/Shah+E+Masjid/data=!4m7!3m6!1s0x397471f83e13d6fb:0x16c715d93fe3c98d!8m2!3d27.1537553!4d78.0340507!16s%2Fg%2F11f66qgpcf!19sChIJ-9YTPvhxdDkRjcnjP9kVxxY?authuser=0&hl=en&rclk=1,"27.1537553,78.0340507"
Noor-E-Baaf Masjid (Ansari wali Masjid Agra),Mosque,"Noor-E-Baaf Masjid (Ansari wali Masjid Agra), Purani Mandi, Tajganj, Agra, Uttar Pradesh 282001","Purani Mandi, Tajganj",,Agra,282001,Uttar Pradesh,IN,https://www.google.com/maps/place/Noor-E-Baaf+Masjid+%28Ansari+wali+Masjid+Agra%29/data=!4m7!3m6!1s0x3974717944ee8af9:0x9c4c72eed23c29e3!8m2!3d27.1682974!4d78.037879!16s%2Fg%2F11k4fp5gjb!19sChIJ-YruRHlxdDkR4yk80u5yTJw?authuser=0&hl=en&rclk=1,"27.1682974,78.03787899999999"
Mosque Taj Mahal,Mosque,"52GR+279 Mosque Taj Mahal, Dharmapuri, Forest Colony, Tajganj, Agra, Uttar Pradesh 282001","Dharmapuri, Forest Colony, Tajganj",52GR+279,Agra,282001,Uttar Pradesh,IN,https://www.google.com/maps/place/Mosque+Taj+Mahal/data=!4m7!3m6!1s0x3974718dbe5d8a4d:0x56e93228130a947b!8m2!3d27.1750291!4d78.0407291!16s%2Fg%2F11qqrbhr4g!19sChIJTYpdvo1xdDkRe5QKEygy6VY?authuser=0&hl=en&rclk=1,"27.1750291,78.0407291"
Sai Ka Takia Masjid,Mosque,"Sai Ka Takia Masjid, Sai Ka Takia, Mahatma Gandhi Rd, Katlupur, Rakabganj, Agra, Uttar Pradesh 282001","Katlupur, Rakabganj","Sai Ka Takia, Mahatma Gandhi Rd",Agra,282001,Uttar Pradesh,IN,https://www.google.com/maps/place/Sai+Ka+Takia+Masjid/data=!4m7!3m6!1s0x397476d775f7c3c5:0xf64c3fdad5d7d654!8m2!3d27.1706734!4d78.0091886!16s%2Fg%2F11b5pjn4yb!19sChIJxcP3ddd2dDkRVNbX1do_TPY?authuser=0&hl=en&rclk=1,"27.1706734,78.0091886"
Shahi Jama Masjid (Agra),Mosque,"52J8+RF9 Shahi Jama Masjid (Agra), Subash Bazar, Kinari Bazar, Hing ki Mandi, Mantola, Agra, Uttar Pradesh 282003","Subash Bazar, Kinari Bazar, Hing ki Mandi, Mantola",52J8+RF9,Agra,282003,Uttar Pradesh,IN,https://www.google.com/maps/place/Shahi+Jama+Masjid+%28Agra%29/data=!4m7!3m6!1s0x39747770add52adf:0x5cf586746adfb8b2!8m2!3d27.1820614!4d78.0165627!16s%2Fg%2F11gmdmw__f!19sChIJ3yrVrXB3dDkRsrjfanSG9Vw?authuser=0&hl=en&rclk=1,"27.1820614,78.0165627"
Humayun Mosque,Mosque,"52JQ+XQR Humayun Mosque, Nagla Devjit, Kachhpura, Uttar Pradesh 282006",Nagla Devjit,52JQ+XQR,Kachhpura,282006,Uttar Pradesh,IN,https://www.google.com/maps/place/Humayun+Mosque/data=!4m7!3m6!1s0x397470dc2ce5b251:0x5805c8161c778125!8m2!3d27.1824852!4d78.0393755!16s%2Fm%2F05h1vzn!19sChIJUbLlLNxwdDkRJYF3HBbIBVg?authuser=0&hl=en&rclk=1,"27.1824852,78.03937549999999"
Lal Masjid,Mosque,"5XR5+R43 Lal Masjid, Bodla, Lohamandi, Agra, Uttar Pradesh 282007","Bodla, Lohamandi",5XR5+R43,Agra,282007,Uttar Pradesh,IN,https://www.google.com/maps/place/Lal+Masjid/data=!4m7!3m6!1s0x397477bdf403f909:0xf37f4820adf9514!8m2!3d27.1920052!4d77.9578012!16s%2Fg%2F11bxd7x4gy!19sChIJCfkD9L13dDkRFJXfCoL0Nw8?authuser=0&hl=en&rclk=1,"27.1920052,77.95780119999999"
Fatehpuri Masjid,Mosque,"52CR+74F Fatehpuri Masjid, Siraj Dokadia Rd, Dharmapuri, Purani Mandi, Tajganj, Agra, Uttar Pradesh 282001","Dharmapuri, Purani Mandi, Tajganj","52CR+74F, Siraj Dokadia Rd",Agra,282001,Uttar Pradesh,IN,https://www.google.com/maps/place/Fatehpuri+Masjid/data=!4m7!3m6!1s0x3974712188566e07:0x995baa40bddb9f8a!8m2!3d27.1706848!4d78.0402848!16s%2Fg%2F12cnwfkpj!19sChIJB25WiCFxdDkRip_bvUCqW5k?authuser=0&hl=en&rclk=1,"27.1706848,78.0402848"
Masjid Va Madarsa Nasirabad,Mosque,"6X7Q+M4G Masjid Va Madarsa Nasirabad, Nasirabad, colony, Khandari, Agra, Uttar Pradesh 282005","Mayapuri Colony, Kalindipuram Colony, Khandari","6X7Q+M4G, Nasirabad, colony",Agra,282005,Uttar Pradesh,IN,https://www.google.com/maps/place/Masjid+Va+Madarsa+Nasirabad/data=!4m7!3m6!1s0x3974776309388ca5:0x2118b6a53386c572!8m2!3d27.2141948!4d77.9878406!16s%2Fg%2F11f3_5dqz_!19sChIJpYw4CWN3dDkRcsWGM6W2GCE?authuser=0&hl=en&rclk=1,"27.214194799999998,77.9878406"
Shahi Hammam Masjid,Mosque,"52G7+5CF Shahi Hammam Masjid, Chipitol Road, Chakki Paat, Munda para, Rakabganj, Agra, Uttar Pradesh 282001","Chakki Paat, Munda para, Rakabganj","52G7+5CF, Chipitol Road",Agra,282001,Uttar Pradesh,IN,https://www.google.com/maps/place/Shahi+Hammam+Masjid/data=!4m7!3m6!1s0x3974772989145df9:0x339d0b1c55f3b419!8m2!3d27.1754329!4d78.013555!16s%2Fg%2F11b5phx79n!19sChIJ-V0UiSl3dDkRGbTzVRwLnTM?authuser=0&hl=en&rclk=1,"27.175432899999997,78.013555"
Jama Masjid jm`h msjd,Mosque,"62JX+5FH Jama Masjid jm`h msjd, Islam Nagar, Foundry Nagar, Agra, Uttar Pradesh 282006","Islam Nagar, Foundry Nagar",62JX+5FH,Agra,282006,Uttar Pradesh,IN,https://www.google.com/maps/place/Jama+Masjid+%D8%AC%D9%85%D8%B9%DB%81+%D9%85%D8%B3%D8%AC%D8%AF%E2%80%AD/data=!4m7!3m6!1s0x39747a715d24c073:0x15d59f1fa04139b4!8m2!3d27.2304333!4d78.0487271!16s%2Fg%2F11gdmb0fx7!19sChIJc8AkXXF6dDkRtDlBoB-f1RU?authuser=0&hl=en&rclk=1,"27.230433299999998,78.0487271"
Sabun Katra Kali Masjid,Mosque,"52P6+QG3 Sabun Katra Kali Masjid, Sabun Katra, Patel Nagar, Mantola, Agra, Uttar Pradesh 282003","Sabun Katra, Patel Nagar, Mantola",52P6+QG3,Agra,282003,Uttar Pradesh,IN,https://www.google.com/maps/place/Sabun+Katra+Kali+Masjid/data=!4m7!3m6!1s0x39747731b60b169f:0x6d2f05252988dce3!8m2!3d27.1868785!4d78.0113109!16s%2Fg%2F1tdrcsfc!19sChIJnxYLtjF3dDkR49yIKSUFL20?authuser=0&hl=en&rclk=1,"27.1868785,78.0113109"
Husheni Masjid,Mosque,"5XQ3+HQJ Husheni Masjid, Rahul Nagar, Bodla, Foundry Nagar, Agra, Uttar Pradesh 282007","Rahul Nagar, Bodla, Foundry Nagar",5XQ3+HQJ,Agra,,Uttar Pradesh,IN,https://www.google.com/maps/place/Husheni+Masjid/data=!4m7!3m6!1s0x397477bef8fe6433:0x8671c995a14ac69e!8m2!3d27.1889534!4d77.9543938!16s%2Fg%2F11bxdvf4vq!19sChIJM2T--L53dDkRnsZKoZXJcYY?authuser=0&hl=en&rclk=1,"27.1889534,77.95439379999999"
Badi Masjid,Mosque,"522V+W4P Badi Masjid, pakki sarai, Tajganj, Shamsabad, Uttar Pradesh 282001",Tajganj,"522V+W4P, pakki sarai","Shamsabad, Agra",282001,Uttar Pradesh,IN,https://www.google.com/maps/place/Badi+Masjid/data=!4m7!3m6!1s0x3974716aa440e23b:0xf00aad3ea14846c!8m2!3d27.1523442!4d78.0428249!16s%2Fg%2F12cp0vrkf!19sChIJO-JApGpxdDkRbIQU6tOqAA8?authuser=0&hl=en&rclk=1,"27.152344199999998,78.0428249"
Noori Masjid,Mosque,"5X5R+89P Noori Masjid, Mall Rd, Agra Cantt, Idgah Colony, Agra, Uttar Pradesh 282001","Agra Cantt, Idgah Colony","5X5R+89P, Mall Rd",Agra,282001,Uttar Pradesh,IN,https://www.google.com/maps/place/Noori+Masjid/data=!4m7!3m6!1s0x397476e8c953cc51:0xe742542bdd5e4441!8m2!3d27.1583366!4d77.9909389!16s%2Fg%2F1z44zn759!19sChIJUcxTyeh2dDkRQURe3StUQuc?authuser=0&hl=en&rclk=1,"27.1583366,77.9909389"
*786* Masjid Garib Nawaz *786*,Mosque,"5373+448 *786* Masjid Garib Nawaz *786*, Shilpgram Rd, Taj Nagari Phase 1, Telipara, Tajganj, Agra, Dhandhupura, Uttar Pradesh 282001","Taj Nagari Phase 1, Telipara, Tajganj","5373+448, Shilpgram Rd","Agra, Dhandhupura",282001,Uttar Pradesh,IN,https://www.google.com/maps/place/*786*+Masjid+Garib+Nawaz+*786*/data=!4m7!3m6!1s0x39747111cce85fbf:0xc7f8ebc5cad19b43!8m2!3d27.1627814!4d78.0528423!16s%2Fg%2F11b5yw2p6v!19sChIJv1_ozBFxdDkRQ5vRysXr-Mc?authuser=0&hl=en&rclk=1,"27.1627814,78.0528423"
Big Mosque,Mosque,"523Q+WRW Big Mosque, Shaheed Nagar, Tajganj, Agra, Uttar Pradesh 282001","Shaheed Nagar, Tajganj",523Q+WRW,Agra,282001,Uttar Pradesh,IN,https://www.google.com/maps/place/Big+Mosque/data=!4m7!3m6!1s0x3974713f09e4d955:0xab0f3102cb6493aa!8m2!3d27.1548633!4d78.039571!16s%2Fg%2F1th7wrsp!19sChIJVdnkCT9xdDkRqpNkywIxD6s?authuser=0&hl=en&rclk=1,"27.1548633,78.039571"
Nuri Masjid,Mosque,"6W8W+VWR Nuri Masjid, Tomb of Akbar The Great Area, Sikandra, Agra, Uttar Pradesh 282007","Tomb of Akbar The Great Area, Sikandra",6W8W+VWR,Agra,282007,Uttar Pradesh,IN,https://www.google.com/maps/place/Nuri+Masjid/data=!4m7!3m6!1s0x3974781e58dd1a67:0x20d510cce6af3857!8m2!3d27.2172332!4d77.9472502!16s%2Fg%2F11bxc60mk6!19sChIJZxrdWB54dDkRVziv5swQ1SA?authuser=0&hl=en&rclk=1,"27.2172332,77.9472502"
baabrii bdd'ii msjid,Mosque,"52RM+RFQ baabrii bdd'ii msjid, Moti Bagh, Agra, Uttar Pradesh 282006",Moti Bagh,52RM+RFQ,Agra,282006,Uttar Pradesh,IN,https://www.google.com/maps/place/%E0%A4%AC%E0%A4%BE%E0%A4%AC%E0%A4%B0%E0%A5%80+%E0%A4%AC%E0%A4%A1%E0%A4%BC%E0%A5%80+%E0%A4%AE%E0%A4%B8%E0%A5%8D%E0%A4%9C%E0%A4%BF%E0%A4%A6/data=!4m7!3m6!1s0x397470c5ccc6cf2d:0x3095e95fdaad4f1a!8m2!3d27.1920843!4d78.0337489!16s%2Fg%2F11g68xvzk3!19sChIJLc_GzMVwdDkRGk-t2l_plTA?authuser=0&hl=en&rclk=1,"27.192084299999998,78.03374889999999"
Masjid mustafa quarter,Mosque,"4XXQ+QRW Masjid mustafa quarter, Nagla Kachhan, Agra, Uttar Pradesh 282001",Nagla Kachhan,4XXQ+QRW,Agra,282001,Uttar Pradesh,IN,https://www.google.com/maps/place/Masjid+mustafa+quarter/data=!4m7!3m6!1s0x397476ecc7f8826d:0xd1510a45a77415cd!8m2!3d27.1494904!4d77.9895673!16s%2Fg%2F11f007k058!19sChIJbYL4x-x2dDkRzRV0p0UKUdE?authuser=0&hl=en&rclk=1,"27.149490399999998,77.98956729999999"
Kali Masjid - Sandli Masjid,Mosque,"Kali Masjid - Sandli Masjid, Dashehara Ghat Rd, Dharmapuri, Paktola, Tajganj, Agra, Uttar Pradesh 282001","Dharmapuri, Paktola, Tajganj",Dashehara Ghat Rd,Agra,282001,Uttar Pradesh,IN,https://www.google.com/maps/place/Kali+Masjid+-+Sandli+Masjid/data=!4m7!3m6!1s0x3974711f407dbaf7:0xbfdb7015145e31da!8m2!3d27.172048!4d78.0437807!16s%2Fg%2F12cpmf5zr!19sChIJ97p9QB9xdDkR2jFeFBVw278?authuser=0&hl=en&rclk=1,"27.172048,78.0437807"
Masjid-al-huda,Mosque,"Masjid-al-huda, shamsi colony, Bain Bazar, Sikandra, Agra, Uttar Pradesh 282007","Bain Bazar, Sikandra",shamsi colony,Agra,282007,Uttar Pradesh,IN,https://www.google.com/maps/place/Masjid-al-huda/data=!4m7!3m6!1s0x39747789efa7792f:0x171ad86cfd230d9!8m2!3d27.214614!4d77.9576232!16s%2Fg%2F11fxvnjgpz!19sChIJL3mn74l3dDkR2TDSz4atcQE?authuser=0&hl=en&rclk=1,"27.214613999999997,77.9576232"
Lal Masjid,Mosque,"624J+V5J Lal Masjid, Rajwara, Kamla Nagar, Agra, Uttar Pradesh 282004","Rajwara, Kamla Nagar",624J+V5J,Agra,282004,Uttar Pradesh,IN,https://www.google.com/maps/place/Lal+Masjid/data=!4m7!3m6!1s0x397470b08798d3f9:0xfc7f1c76ebb5952d!8m2!3d27.2072039!4d78.0303958!16s%2Fg%2F1hm2fpqd6!19sChIJ-dOYh7BwdDkRLZW163Ycf_w?authuser=0&hl=en&rclk=1,"27.2072039,78.0303958"
Eidgah Masjid `ydgh msjd,Mosque,"5293+FH7 Eidgah Masjid `ydgh msjd, Ajmer Rd, Katlupur, Rakabganj, Agra, Uttar Pradesh 282001","Katlupur, Rakabganj","5293+FH7, Ajmer Rd",Agra,282001,Uttar Pradesh,IN,https://www.google.com/maps/place/Eidgah+Masjid+%D8%B9%DB%8C%D8%AF%DA%AF%D8%A7%DB%81+%D9%85%D8%B3%D8%AC%D8%AF%E2%80%AD/data=!4m7!3m6!1s0x397476d96a8d37db:0x89537d846d701eaf!8m2!3d27.1686568!4d78.0039275!16s%2Fg%2F12hkdwbjc!19sChIJ2zeNatl2dDkRrx5wbYR9U4k?authuser=0&hl=en&rclk=1,"27.168656799999997,78.0039275"
Madina Masjid,Mosque,"5XG7+F9H Madina Masjid, Balaji Puram, Shahganj, Agra, Uttar Pradesh 282010","Balaji Puram, Shahganj",5XG7+F9H,Agra,282010,Uttar Pradesh,IN,https://www.google.com/maps/place/Madina+Masjid/data=!4m7!3m6!1s0x397477ae11fa3b2f:0xc713c2507776c8be!8m2!3d27.176198!4d77.9634891!16s%2Fg%2F11bwp67zyn!19sChIJLzv6Ea53dDkRvsh2d1DCE8c?authuser=0&hl=en&rclk=1,"27.176198,77.96348909999999"
Madina Masjid,Mosque,"6X37+832 Madina Masjid, Sector 11, Avas Vikas Colony, Lohamandi, Agra, Uttar Pradesh 282007","Sector 11, Avas Vikas Colony, Lohamandi",6X37+832,Agra,282007,Uttar Pradesh,IN,https://www.google.com/maps/place/Madina+Masjid/data=!4m7!3m6!1s0x3974779aa6d6a1fb:0x268e7dfa79100f5c!8m2!3d27.2032544!4d77.9626389!16s%2Fg%2F11btxcmnp1!19sChIJ-6HWppp3dDkRXA8Qefp9jiY?authuser=0&hl=en&rclk=1,"27.2032544,77.9626389"
Ek Minar Masjid,Mosque,"5XHC+676 Ek Minar Masjid, Bypass Rd, Shaker Garh Ki Pulia, Balaji Puram, Shahganj, Agra, Uttar Pradesh 282010","Shaker Garh Ki Pulia, Balaji Puram, Shahganj","5XHC+676, Bypass Rd",Agra,282010,Uttar Pradesh,IN,https://www.google.com/maps/place/Ek+Minar+Masjid/data=!4m7!3m6!1s0x397477a9092b577f:0xf1f60401f09f392d!8m2!3d27.178026!4d77.9706556!16s%2Fg%2F1q69wzycs!19sChIJf1crCal3dDkRLTmf8AEE9vE?authuser=0&hl=en&rclk=1,"27.178026,77.9706556"
Moti Masjid,Mosque,"52HC+VFH Moti Masjid, Agra Fort, Rakabganj, Agra, Uttar Pradesh 282003","Agra Fort, Rakabganj",52HC+VFH,Agra,282003,Uttar Pradesh,IN,https://www.google.com/maps/place/Moti+Masjid/data=!4m7!3m6!1s0x39747167f77d1cf5:0xe4d33f14b013c45!8m2!3d27.1803644!4d78.0216857!16s%2Fm%2F04n230b!19sChIJ9Rx992dxdDkRRTwBS_EzTQ4?authuser=0&hl=en&rclk=1,"27.1803644,78.02168569999999"
Masjid New Ashok Nagar,Mosque,"Masjid New Ashok Nagar, Ashok Nagar, Shahganj, Agra, Uttar Pradesh 282010","Ashok Nagar, Shahganj",,Agra,282010,Uttar Pradesh,IN,https://www.google.com/maps/place/Masjid+New+Ashok+Nagar/data=!4m7!3m6!1s0x39747719b6df9c15:0xdd3e7fd04ab02507!8m2!3d27.1820793!4d77.9933183!16s%2Fg%2F11fz9vz79w!19sChIJFZzfthl3dDkRByWwStB_Pt0?authuser=0&hl=en&rclk=1,"27.182079299999998,77.9933183"
Masjid,Mosque,"6X4M+HRH Masjid, Gali Number 6, Azad Nagar, Transport Nagar, Agra, Uttar Pradesh 282002","Azad Nagar, Transport Nagar","6X4M+HRH, Gali Number 6",Agra,282002,Uttar Pradesh,IN,https://www.google.com/maps/place/Masjid/data=!4m7!3m6!1s0x3974777aa88fe2c1:0xc3283ef19c440c01!8m2!3d27.2064459!4d77.9846192!16s%2Fg%2F1q67ck622!19sChIJweKPqHp3dDkRAQxEnPE-KMM?authuser=0&hl=en&rclk=1,"27.2064459,77.9846192"
Akbari masjid,Mosque,"5X2M+PJC Akbari masjid, Shiv Nagar, Naripura, Agra, Uttar Pradesh 282001","Shiv Nagar, Naripura",5X2M+PJC,Agra,282001,Uttar Pradesh,IN,https://www.google.com/maps/place/Akbari+masjid/data=!4m7!3m6!1s0x397476f267cc6cfb:0x5b9c91bbd0087f0c!8m2!3d27.1518108!4d77.9840201!16s%2Fg%2F11c4b48cw_!19sChIJ-2zMZ_J2dDkRDH8I0LuRnFs?authuser=0&hl=en&rclk=1,"27.1518108,77.9840201"
Rehmani Masjid,Mosque,"5XRM+7PJ Rehmani Masjid, Hanuman Nagar, Shahganj, Agra, Uttar Pradesh 282002","Hanuman Nagar, Shahganj",5XRM+7PJ,Agra,282002,Uttar Pradesh,IN,https://www.google.com/maps/place/Rehmani+Masjid/data=!4m7!3m6!1s0x3974770d91389f63:0x425791c1f3619754!8m2!3d27.1907192!4d77.9842759!16s%2Fg%2F11bxb0qsj4!19sChIJY584kQ13dDkRVJdh88GRV0I?authuser=0&hl=en&rclk=1,"27.1907192,77.9842759"
Masjid,Mosque,"6225+VH2 Masjid, Judge Compund Rd, Sanjay Palace, Near Judge Compund Road, Wazirpura, Civil Lines, Agra, Uttar Pradesh 282002","Sanjay Palace, Near Judge Compund Road, Wazirpura, Civil Lines","6225+VH2, Judge Compund Rd",Agra,282002,Uttar Pradesh,IN,https://www.google.com/maps/place/Masjid/data=!4m7!3m6!1s0x39747748ad71b5f5:0xa5527c6811a0fe0c!8m2!3d27.2021288!4d78.0088934!16s%2Fg%2F11b5phygxf!19sChIJ9bVxrUh3dDkRDP6gEWh8UqU?authuser=0&hl=en&rclk=1,"27.202128799999997,78.00889339999999"
Masjid Noor-E-Ilahi,Mosque,"5XRW+G2P Masjid Noor-E-Ilahi, Dr HS Sharma Rd, Raja Mandi Station Road, St.John's Crossing, Baldev Ganj, Alam Ganj, Lohamandi, Agra, Uttar Pradesh 282002","St.John's Crossing, Baldev Ganj, Alam Ganj, Lohamandi","5XRW+G2P, Dr HS Sharma Rd, Raja Mandi Station Road",Agra,282002,Uttar Pradesh,IN,https://www.google.com/maps/place/Masjid+Noor-E-Ilahi/data=!4m7!3m6!1s0x39747715bf89a2b9:0x8a6b87111838547b!8m2!3d27.1913428!4d77.9950654!16s%2Fg%2F11b5vzv33r!19sChIJuaKJvxV3dDkRe1Q4GBGHa4o?authuser=0&hl=en&rclk=1,"27.191342799999997,77.9950654"
Masjid,Mosque,"5XWX+G72 Masjid, Raja Balwant Singh Rd, Delhi Gate, Hariparwat, Professors Colony, Civil Lines, Agra, Uttar Pradesh 282002","Delhi Gate, Hariparwat, Professors Colony, Civil Lines","5XWX+G72, Raja Balwant Singh Rd",Agra,282002,Uttar Pradesh,IN,https://www.google.com/maps/place/Masjid/data=!4m7!3m6!1s0x397477407334577d:0x31c56caf6efaf771!8m2!3d27.1962747!4d77.9981436!16s%2Fg%2F1q6n2hld3!19sChIJfVc0c0B3dDkRcff6bq9sxTE?authuser=0&hl=en&rclk=1,"27.1962747,77.99814359999999"
Masjid Saeedi,Mosque,"Masjid Saeedi, Janta Quarter National Highway 2, Kamla Nagar, C.O.D Colony, Ghatwasan, Agra, Uttar Pradesh 282005","Sultan Ganj, Karbala, New Agra Colony","Janta Quarter National Highway 2, Kamla Nagar, C.O.D Colony, Ghatwasan",Agra,282005,Uttar Pradesh,IN,https://www.google.com/maps/place/Masjid+Saeedi/data=!4m7!3m6!1s0x397477526623180b:0xba8a2832fa8436!8m2!3d27.2101233!4d78.0160102!16s%2Fg%2F11btwr7k1h!19sChIJCxgjZlJ3dDkRNoT6MiiKugA?authuser=0&hl=en&rclk=1,"27.2101233,78.0160102"
Noorani Masjid,Mosque,"5372+R66 Noorani Masjid, Paktola, Tajganj, Agra, Uttar Pradesh 282001","Paktola, Tajganj",5372+R66,Agra,282001,Uttar Pradesh,IN,https://www.google.com/maps/place/Noorani+Masjid/data=!4m7!3m6!1s0x397471108eba7dd9:0x887bf648cc19db26!8m2!3d27.164543!4d78.0505255!16s%2Fg%2F11gdkpn9n_!19sChIJ2X26jhBxdDkRJtsZzEj2e4g?authuser=0&hl=en&rclk=1,"27.164543,78.05052549999999"
Masjid Rafi Uz Zama (Ahle Hadees),Mosque,"5XRW+WM6 Masjid Rafi Uz Zama (Ahle Hadees), Alam Ganj, Lohamandi, Agra, Uttar Pradesh 282002","Alam Ganj, Lohamandi",5XRW+WM6,Agra,282002,Uttar Pradesh,IN,https://www.google.com/maps/place/Masjid+Rafi+Uz+Zama+%28Ahle+Hadees%29/data=!4m7!3m6!1s0x397477326115d41d:0x60a56c32f468c264!8m2!3d27.1923088!4d77.9966298!16s%2Fg%2F11h01x8j3v!19sChIJHdQVYTJ3dDkRZMJo9DJspWA?authuser=0&hl=en&rclk=1,"27.1923088,77.9966298"
Alamganj Masjid,Mosque,"5XVR+7GF Alamganj Masjid, Ratan Muni Rd, Opposite Police Chowki, Alam Ganj, Lohamandi, Agra, Uttar Pradesh 282002","Alam Ganj, Lohamandi","5XVR+7GF, Ratan Muni Rd, Opposite Police Chowki",Agra,282002,Uttar Pradesh,IN,https://www.google.com/maps/place/Alamganj+Masjid/data=!4m7!3m6!1s0x397477149c91cf21:0x297f94232b6fce2c!8m2!3d27.1931762!4d77.9912939!16s%2Fg%2F11bbw__xg5!19sChIJIc-RnBR3dDkRLM5vKyOUfyk?authuser=0&hl=en&rclk=1,"27.1931762,77.9912939"
Kale Kha Ki Masjid,Mosque,"5X6Q+J6J Kale Kha Ki Masjid, Sarai Khawaja Rasoolpur Agra Cantt, Uttar Pradesh 282001","Syam Nagar, Idgah Colony","5X6Q+J6J, Sarai Khawaja Rasoolpur Agra Cantt",Agra,282001,Uttar Pradesh,IN,https://www.google.com/maps/place/Kale+Kha+Ki+Masjid/data=!4m7!3m6!1s0x397476e5753a32c9:0x449e0c5e2f59999c!8m2!3d27.1615827!4d77.9880005!16s%2Fg%2F11f3y763z_!19sChIJyTI6deV2dDkRnJlZL14MnkQ?authuser=0&hl=en&rclk=1,"27.1615827,77.9880005"
Tant Wali Masjid,Mosque,"6226+J93 Tant Wali Masjid, Wazirpura, Civil Lines, Agra, Uttar Pradesh 282003","Wazirpura, Civil Lines",6226+J93,Agra,282003,Uttar Pradesh,IN,https://www.google.com/maps/place/Tant+Wali+Masjid/data=!4m7!3m6!1s0x39747748df69f73f:0x4da4ecf244787c6e!8m2!3d27.2015225!4d78.0109106!16s%2Fg%2F11ck87q3b8!19sChIJP_dp30h3dDkRbnx4RPLspE0?authuser=0&hl=en&rclk=1,"27.2015225,78.0109106"
Masjid Rahmaniya,Mosque,"5382+F4P Masjid Rahmaniya, Taj Link Rd, Kolyahi, Paktola, Tajganj, Agra, Uttar Pradesh 282001","Kolyahi, Paktola, Tajganj","5382+F4P, Taj Link Rd",Agra,282001,Uttar Pradesh,IN,https://www.google.com/maps/place/Masjid+Rahmaniya/data=!4m7!3m6!1s0x3974711a65588ab7:0x7c6a2749164858b7!8m2!3d27.1662174!4d78.0503223!16s%2Fg%2F11b5_0h2bz!19sChIJt4pYZRpxdDkRt1hIFkknanw?authuser=0&hl=en&rclk=1,"27.166217399999997,78.05032229999999"
Masjid Shah Mustaq,Mosque,"6X74+7PH Masjid Shah Mustaq, Highway Road, Shastripuram, Sikandra, Agra, Uttar Pradesh 282001","Shastripuram, Sikandra","6X74+7PH, Highway Road",Agra,282001,Uttar Pradesh,IN,https://www.google.com/maps/place/Masjid+Shah+Mustaq/data=!4m7!3m6!1s0x3974778a2a546d3f:0xa0e1696a051fa0!8m2!3d27.2131822!4d77.9568621!16s%2Fg%2F11b5pjxphz!19sChIJP21UKop3dDkRoB8FamnhoAA?authuser=0&hl=en&rclk=1,"27.2131822,77.9568621"
"Jama masjid Ibraheemi Ahle Hadees, Prabhu Talkies, Agra",Mosque,"Jama masjid Ibraheemi Ahle Hadees, Prabhu Talkies, Agra, 46/1152-K, Hanuman Nagar, Jagdish Pura, Agra, Uttar Pradesh 282002","Azad Nagar, Jagdish Pura","46/1152-K, Hanuman Nagar",Agra,282002,Uttar Pradesh,IN,"https://www.google.com/maps/place/Jama+masjid+Ibraheemi+Ahle+Hadees,+Prabhu+Talkies,+Agra/data=!4m7!3m6!1s0x3974773bbfac57db:0x6b0645461c636388!8m2!3d27.1911248!4d77.9815696!16s%2Fg%2F11fl55l_rs!19sChIJ21esvzt3dDkRiGNjHEZFBms?authuser=0&hl=en&rclk=1","27.191124799999997,77.9815696"
Minar wali Masjid,Mosque,"525P+JHQ Minar wali Masjid, Bagichi, Tajganj, Agra, Uttar Pradesh 282001","Bagichi, Tajganj",525P+JHQ,Agra,282001,Uttar Pradesh,IN,https://www.google.com/maps/place/Minar+wali+Masjid/data=!4m7!3m6!1s0x3974713bf901ddff:0x8a639a6f5326b2ac!8m2!3d27.1590977!4d78.0364816!16s%2Fg%2F11g8djwddq!19sChIJ_90B-TtxdDkRrLImU2-aY4o?authuser=0&hl=en&rclk=1,"27.1590977,78.0364816"
Lodi Masjid lwdhy msjd,Mosque,"525C+7P8 Lodi Masjid lwdhy msjd, Taj Rd, Agra Cantt, Idgah Colony, Agra, Uttar Pradesh 282001","Agra Cantt, Idgah Colony","525C+7P8, Taj Rd",Agra,282001,Uttar Pradesh,IN,https://www.google.com/maps/place/Lodi+Masjid+%D9%84%D9%88%D8%AF%DA%BE%DB%8C+%D9%85%D8%B3%D8%AC%D8%AF%E2%80%AD/data=!4m7!3m6!1s0x397471337032f0dd:0x99fdc44f099b50f2!8m2!3d27.1581637!4d78.0218413!16s%2Fg%2F11b5zxw3j0!19sChIJ3fAycDNxdDkR8lCbCU_E_Zk?authuser=0&hl=en&rclk=1,"27.1581637,78.02184129999999"
Masjid Aysha,Mosque,"Masjid Aysha, 630A, Mahatma Gandhi Rd, Opp. Church, Mahatma Gandhi Rd, Opp. Church, Sadar Bazar, Agra Cantt, Idgah Colony, Agra, Uttar Pradesh 282004","Sadar Bazar, Agra Cantt, Idgah Colony","630A, Mahatma Gandhi Rd, Opp. Church, Mahatma Gandhi Rd, Opp. Church",Agra,282004,Uttar Pradesh,IN,https://www.google.com/maps/place/Masjid+Aysha/data=!4m7!3m6!1s0x397476cf61ce7fbd:0x8d55ead05ab1e523!8m2!3d27.157785!4d78.0081774!16s%2Fg%2F11dymmglwx!19sChIJvX_OYc92dDkRI-WxWtDqVY0?authuser=0&hl=en&rclk=1,"27.157785,78.0081774"
Masjid Faizane madina,Mosque,"Masjid Faizane madina, Taj Nagari 2, Tajganj, Agra, Tora, Uttar Pradesh 282001","Taj Nagari 2, Tajganj",,"Agra, Tora",282001,Uttar Pradesh,IN,https://www.google.com/maps/place/Masjid+Faizane+madina/data=!4m7!3m6!1s0x3974710ab06877ed:0xc247b1e73afb3737!8m2!3d27.1500086!4d78.0629672!16s%2Fg%2F11h4655tyv!19sChIJ7XdosApxdDkRNzf7OuexR8I?authuser=0&hl=en&rclk=1,"27.1500086,78.0629672"
Gosiya Masjid,Mosque,"5XF8+QC2 Gosiya Masjid, u p, Azam Para, Shahganj, Agra, Uttar Pradesh 282010","u p, Azam Para, Shahganj",5XF8+QC2,Agra,282010,Uttar Pradesh,IN,https://www.google.com/maps/place/Gosiya+Masjid/data=!4m7!3m6!1s0x397477ac37819705:0xa2926b50f4103280!8m2!3d27.1743999!4d77.9660053!16s%2Fg%2F11bwpvykq9!19sChIJBZeBN6x3dDkRgDIQ9FBrkqI?authuser=0&hl=en&rclk=1,"27.174399899999997,77.96600529999999"
Masjid Peer Bahauddin,Mosque,"5XVQ+C4V Masjid Peer Bahauddin, Madina Road, Alam Ganj, Lohamandi, Agra, Uttar Pradesh 282002","Alam Ganj, Lohamandi","5XVQ+C4V, Madina Road",Agra,282002,Uttar Pradesh,IN,https://www.google.com/maps/place/Masjid+Peer+Bahauddin/data=!4m7!3m6!1s0x3974777649b829d3:0x99f73dfa77dc1f3a!8m2!3d27.1936042!4d77.9877896!16s%2Fg%2F11fd_nrzw1!19sChIJ0ym4SXZ3dDkROh_cd_o995k?authuser=0&hl=en&rclk=1,"27.1936042,77.9877896"
Nurani Masjid,Mosque,"5XG9+42V Nurani Masjid, Azam Para, Shahganj, Agra, Uttar Pradesh 282010","Azam Para, Shahganj",5XG9+42V,Agra,282010,Uttar Pradesh,IN,https://www.google.com/maps/place/Nurani+Masjid/data=!4m7!3m6!1s0x397477ac04977755:0x707d117b7f7c9e6a!8m2!3d27.1753578!4d77.9675472!16s%2Fg%2F11f3n3yjfq!19sChIJVXeXBKx3dDkRap58f3sRfXA?authuser=0&hl=en&rclk=1,"27.1753578,77.9675472"
Noorani Masjid New KHAWASPURA Basta Taweezat E Attariya,Mosque,"5X4P+7G6 Noorani Masjid New KHAWASPURA Basta Taweezat E Attariya, Rasulpur, Idgah Colony, Agra, Uttar Pradesh 282001","Rasulpur, Idgah Colony",5X4P+7G6,Agra,282001,Uttar Pradesh,IN,https://www.google.com/maps/place/Noorani+Masjid+New+KHAWASPURA+Basta+Taweezat+E+Attariya/data=!4m7!3m6!1s0x397476ee1621cdc7:0x171eb74407a9649b!8m2!3d27.1556719!4d77.9862604!16s%2Fg%2F11ggnf8k4w!19sChIJx80hFu52dDkRm2SpB0S3Hhc?authuser=0&hl=en&rclk=1,"27.155671899999998,77.98626039999999"
Sunni Masjid,Mosque,"52W8+W9C Sunni Masjid, Kamla Nagar, Gadhapura, Civil Lines, Agra, Uttar Pradesh 282003","Kamla Nagar, Gadhapura, Civil Lines",52W8+W9C,Agra,282003,Uttar Pradesh,IN,https://www.google.com/maps/place/Sunni+Masjid/data=!4m7!3m6!1s0x397477213427dbf1:0x99084e3f1b2d21a1!8m2!3d27.1973191!4d78.0159028!16s%2Fg%2F11ghnfbxn3!19sChIJ8dsnNCF3dDkRoSEtGz9OCJk?authuser=0&hl=en&rclk=1,"27.197319099999998,78.01590279999999"
Masjid Kareem Shah,Mosque,"526P+6P3 Masjid Kareem Shah, Bagichi, Tajganj, Agra, Uttar Pradesh 282001","Bagichi, Tajganj",526P+6P3,Agra,282001,Uttar Pradesh,IN,https://www.google.com/maps/place/Masjid+Kareem+Shah/data=!4m7!3m6!1s0x3974713b8af9c911:0x2feb03ccd0ede437!8m2!3d27.1605217!4d78.0367872!16s%2Fg%2F12cpjvyv5!19sChIJEcn5ijtxdDkRN-Tt0MwD6y8?authuser=0&hl=en&rclk=1,"27.1605217,78.03678719999999"
Qasim Wali Tabligi Masjid,Mosque,"Qasim Wali Tabligi Masjid, Ghatiya Mamu Bhanja Dargah, Railway Station, Mantola Rd, Near, General Cariappa Rd, Agra, Uttar Pradesh 282003","Agra Fort, Rakabganj","Ghatiya Mamu Bhanja Dargah, Railway Station, Mantola Rd, Near, General Cariappa Rd",Agra,282003,Uttar Pradesh,IN,https://www.google.com/maps/place/Qasim+Wali+Tabligi+Masjid/data=!4m7!3m6!1s0x3974772c1b528f21:0x80620c5a840d987f!8m2!3d27.1823716!4d78.0179645!16s%2Fg%2F11c52c6q91!19sChIJIY9SGyx3dDkRf5gNhFoMYoA?authuser=0&hl=en&rclk=1,"27.1823716,78.01796449999999"
Mosque,Mosque,"529P+3X2 Mosque, Purani Mandi, Tajganj, Agra, Uttar Pradesh 282001","Purani Mandi, Tajganj",529P+3X2,Agra,282001,Uttar Pradesh,IN,https://www.google.com/maps/place/Mosque/data=!4m7!3m6!1s0x397471238c21c0a1:0x955569edb7eab665!8m2!3d27.1676402!4d78.0373833!16s%2Fg%2F11gg69x8bl!19sChIJocAhjCNxdDkRZbbqt-1pVZU?authuser=0&hl=en&rclk=1,"27.167640199999997,78.0373833"
Noorani Masjid,Mosque,"524R+4X7 Noorani Masjid, Tajganj, Agra, Uttar Pradesh 282001",Tajganj,524R+4X7,Agra,282001,Uttar Pradesh,IN,https://www.google.com/maps/place/Noorani+Masjid/data=!4m7!3m6!1s0x39747115628858d5:0x6ae7ef69b66f94f2!8m2!3d27.1552916!4d78.0424199!16s%2Fg%2F12cnpl6wl!19sChIJ1ViIYhVxdDkR8pRvtmnv52o?authuser=0&hl=en&rclk=1,"27.155291599999998,78.0424199"
Noori Jama Masjid,Mosque,"Noori Jama Masjid, YAMUNA BRIDGE, Prakash Nagar, Agra, Uttar Pradesh 282006",Nagla Balchand,"YAMUNA BRIDGE, Prakash Nagar",Agra,282006,Uttar Pradesh,IN,https://www.google.com/maps/place/Noori+Jama+Masjid/data=!4m7!3m6!1s0x397471da254217d9:0x62f8be3bd8dc854a!8m2!3d27.194013!4d78.048746!16s%2Fg%2F11g0hmgqdn!19sChIJ2RdCJdpxdDkRSoXc2Du--GI?authuser=0&hl=en&rclk=1,"27.194012999999998,78.048746"
Masjid Bada Galib Pura,Mosque,"Masjid Bada Galib Pura, 5, Ghalibpura Rd, Nai ki Mandi, Rakabganj, Agra, Uttar Pradesh 282010","Nai ki Mandi, Rakabganj","5, Ghalibpura Rd",Agra,282010,Uttar Pradesh,IN,https://www.google.com/maps/place/Masjid+Bada+Galib+Pura/data=!4m7!3m6!1s0x397477249de3519d:0xfea82ba68ce65a2b!8m2!3d27.1827683!4d78.0024596!16s%2Fg%2F11d_1mkb3p!19sChIJnVHjnSR3dDkRK1rmjKYrqP4?authuser=0&hl=en&rclk=1,"27.1827683,78.0024596"
Masjid Bhukhari,Mosque,"52GX+Q88 Masjid Bhukhari, Dashehara Ghat Rd, Taj East Gate, Forest Colony, Tajganj, Agra, Uttar Pradesh 282001","Taj East Gate, Forest Colony, Tajganj","52GX+Q88, Dashehara Ghat Rd",Agra,282001,Uttar Pradesh,IN,https://www.google.com/maps/place/Masjid+Bhukhari/data=!4m7!3m6!1s0x397470e20081e6ed:0xdd651c913e4af9fc!8m2!3d27.1769006!4d78.048321!16s%2Fg%2F11bbwm40g5!19sChIJ7eaBAOJwdDkR_PlKPpEcZd0?authuser=0&hl=en&rclk=1,"27.1769006,78.048321"
Jawab Masjid,Mosque,"52FR+X6G Jawab Masjid, Dharmapuri, Forest Colony, Tajganj, Agra, Uttar Pradesh 282001","Dharmapuri, Forest Colony, Tajganj",52FR+X6G,Agra,282001,Uttar Pradesh,IN,https://www.google.com/maps/place/Jawab+Masjid/data=!4m7!3m6!1s0x397471b55c4ef7d5:0x7681c6c25c5a6bc3!8m2!3d27.1748516!4d78.0407562!16s%2Fg%2F11sry8y0v3!19sChIJ1fdOXLVxdDkRw2taXMLGgXY?authuser=0&hl=en&rclk=1,"27.1748516,78.04075619999999"
Char minar masjid,Mosque,"528X+24H Char minar masjid, Unnamed Road, Paktola, Tajganj, Agra, Uttar Pradesh 282001","Paktola, Tajganj","528X+24H, Unnamed Road",Agra,282001,Uttar Pradesh,IN,https://www.google.com/maps/place/Char+minar+masjid/data=!4m7!3m6!1s0x3974717108147967:0x6f6ca376e090da8b!8m2!3d27.1650642!4d78.0478741!16s%2Fg%2F11h6m780p2!19sChIJZ3kUCHFxdDkRi9qQ4HajbG8?authuser=0&hl=en&rclk=1,"27.1650642,78.0478741"
Masjid Kuba,Mosque,"524R+WQ7 Masjid Kuba, Kachchi Sarai Rd, Bagichi, Tajganj, Agra, Uttar Pradesh 282001","Bagichi, Tajganj","524R+WQ7, Kachchi Sarai Rd",Agra,282001,Uttar Pradesh,IN,https://www.google.com/maps/place/Masjid+Kuba/data=!4m7!3m6!1s0x3974713e2392699f:0x4adae4d81179e9d3!8m2!3d27.1572784!4d78.0419075!16s%2Fg%2F12cpd7hy4!19sChIJn2mSIz5xdDkR0-l5Edjk2ko?authuser=0&hl=en&rclk=1,"27.1572784,78.0419075"
Akbari Masjid,Mosque,"524W+JHH Akbari Masjid, Abbas nagar, Tajganj, Basai, Uttar Pradesh 282001",Tajganj,"524W+JHH, Abbas nagar, Tajganj",Basai,282001,Uttar Pradesh,IN,https://www.google.com/maps/place/Akbari+Masjid/data=!4m7!3m6!1s0x397471145f8487ff:0x159c52beee7be4eb!8m2!3d27.1565705!4d78.0464951!16s%2Fg%2F11gc57vs9_!19sChIJ_4eEXxRxdDkR6-R77r5SnBU?authuser=0&hl=en&rclk=1,"27.156570499999997,78.0464951"
Sabri Masjid,Mosque,"52Q6+Q82 Sabri Masjid, MM Darwaza Rd, Near Thana, Rawatpara, Mantola, Agra, Uttar Pradesh 282003","Rawatpara, Mantola","52Q6+Q82, MM Darwaza Rd, Near Thana",Agra,282003,Uttar Pradesh,IN,https://www.google.com/maps/place/Sabri+Masjid/data=!4m7!3m6!1s0x39747730e6eabe49:0x69d80d61bb01d95d!8m2!3d27.1893859!4d78.0107701!16s%2Fg%2F1hm46xs5t!19sChIJSb7q5jB3dDkRXdkBu2EN2Gk?authuser=0&hl=en&rclk=1,"27.189385899999998,78.0107701"
shobia masjid,Mosque,"52H5+95M shobia masjid, Sewala Jat, Panchkuian, Rakabganj, Agra, Uttar Pradesh 282003","Sewala Jat, Panchkuian, Rakabganj",52H5+95M,Agra,282003,Uttar Pradesh,IN,https://www.google.com/maps/place/shobia+masjid/data=!4m7!3m6!1s0x39747796064d7627:0x9e233a9b0d0e0813!8m2!3d27.1784509!4d78.0079344!16s%2Fg%2F11g1gn7cqn!19sChIJJ3ZNBpZ3dDkREwgODZs6I54?authuser=0&hl=en&rclk=1,"27.178450899999998,78.0079344"
Mothersa Masjid,Mosque,"529V+GGR Mothersa Masjid, Dasahra Ghat Road, Near Purani Mandi, Kinari Bazar, Paktola, Tajganj, Agra, Uttar Pradesh 282001","Kinari Bazar, Paktola, Tajganj","529V+GGR, Dasahra Ghat Road, Near Purani Mandi",Agra,282001,Uttar Pradesh,IN,https://www.google.com/maps/place/Mothersa+Masjid/data=!4m7!3m6!1s0x39747118933eae0b:0x82117ce7c66b3ca0!8m2!3d27.16886!4d78.0437664!16s%2Fg%2F11bbwnnct2!19sChIJC64-kxhxdDkRoDxrxud8EYI?authuser=0&hl=en&rclk=1,"27.16886,78.0437664"
Masjid,Mosque,"5XRC+3X6 Masjid, Kishorura, Lohamandi, Agra, Uttar Pradesh 282007","Kishorura, Lohamandi",5XRC+3X6,Agra,282007,Uttar Pradesh,IN,https://www.google.com/maps/place/Masjid/data=!4m7!3m6!1s0x397477a0f3270077:0x68f84c34870a9881!8m2!3d27.190152!4d77.9723816!16s%2Fg%2F1q6jb376t!19sChIJdwAn86B3dDkRgZgKhzRM-Gg?authuser=0&hl=en&rclk=1,"27.190151999999998,77.97238159999999"
Masjid Ahmad Raza Urf Choti,Mosque,"522V+W6H Masjid Ahmad Raza Urf Choti, Tajganj, Shamsabad, Agra, Uttar Pradesh 282001",Tajganj,522V+W6H,"Shamsabad, Agra",282001,Uttar Pradesh,IN,https://www.google.com/maps/place/Masjid+Ahmad+Raza+Urf+Choti/data=!4m7!3m6!1s0x3974716abb4fe589:0x20afb389f0862ff4!8m2!3d27.152312!4d78.0431226!16s%2Fg%2F12cpjh9z6!19sChIJieVPu2pxdDkR9C-G8ImzryA?authuser=0&hl=en&rclk=1,"27.152312,78.04312259999999"
Masjid Tal habi bullah markaz tabligi jamat agra,Mosque,"Masjid Tal habi bullah markaz tabligi jamat agra, Ikram Sole, Hing ki Mandi, Mantola, Agra, Uttar Pradesh 282003","Hing ki Mandi, Mantola",Ikram Sole,Agra,,Uttar Pradesh,IN,https://www.google.com/maps/place/Masjid+Tal+habi+bullah+markaz+tabligi+jamat+agra/data=!4m7!3m6!1s0x397477b5e01b747f:0xb7c0c5bf695bc728!8m2!3d27.1838762!4d78.0119516!16s%2Fg%2F11lgr6z2c3!19sChIJf3Qb4LV3dDkRKMdbab_FwLc?authuser=0&hl=en&rclk=1,"27.1838762,78.0119516"
"Choti masjid, Dargah agra",Mosque,"6266+M37 Choti masjid, Dargah agra, Indra Puri, New Agra Colony, Agra, Uttar Pradesh 282005","Indra Puri, New Agra Colony",6266+M37,Agra,282005,Uttar Pradesh,IN,"https://www.google.com/maps/place/Choti+masjid,+Dargah+agra/data=!4m7!3m6!1s0x39747750f74a4635:0xbf1e9c6cf747f825!8m2!3d27.2116735!4d78.0101696!16s%2Fg%2F11gfjb6gg9!19sChIJNUZK91B3dDkRJfhH92ycHr8?authuser=0&hl=en&rclk=1","27.2116735,78.0101696"
Nayi Masjid (Near by Agra Cantt),Mosque,"5X5P+3W7 Nayi Masjid (Near by Agra Cantt), Saraikhwaja, New Khwas Pura, Agra, Uttar Pradesh 282001","Saraikhwaja, New Khwas Pura",5X5P+3W7,Agra,282001,Uttar Pradesh,IN,https://www.google.com/maps/place/Nayi+Masjid+%28Near+by+Agra+Cantt%29/data=!4m7!3m6!1s0x397476efb183f935:0xe6b697b77e5cda8!8m2!3d27.1576513!4d77.9873102!16s%2Fg%2F11clvdccc6!19sChIJNfmDse92dDkRqM3ld3tpaw4?authuser=0&hl=en&rclk=1,"27.157651299999998,77.9873102"
G Masjid,Mosque,"6246+X9Q G Masjid, Near Paliwali Park, Gandhi Nagar, Civil Lines, Agra, Uttar Pradesh 282003","Gandhi Nagar, Civil Lines","6246+X9Q, Near Paliwali Park",Agra,282003,Uttar Pradesh,IN,https://www.google.com/maps/place/G+Masjid/data=!4m7!3m6!1s0x3974774fccd2b351:0x7725280b143c0e99!8m2!3d27.2074569!4d78.0109824!16s%2Fg%2F11b5pk1zrn!19sChIJUbPSzE93dDkRmQ48FAsoJXc?authuser=0&hl=en&rclk=1,"27.2074569,78.0109824"
Masjid Kala Mahal,Mosque,"Masjid Kala Mahal, 30/24, Kala Mahal Rd Near Agra Pord Railway Station, Kala Mahal Rd, Near Agra Pord Railway Station, Pipal Mandi, Mantola, Agra, Uttar Pradesh 282003","Near Agra Pord Railway Station, Pipal Mandi, Mantola","30/24, Kala Mahal Rd Near Agra Pord Railway Station, Kala Mahal Rd",Agra,282003,Uttar Pradesh,IN,https://www.google.com/maps/place/Masjid+Kala+Mahal/data=!4m7!3m6!1s0x39747732b8ddfa73:0x432fb3d8213aa066!8m2!3d27.1873376!4d78.0185611!16s%2Fg%2F11g6xbdfh6!19sChIJc_rduDJ3dDkRZqA6IdizL0M?authuser=0&hl=en&rclk=1,"27.1873376,78.0185611"
Khairati Tola Masjid,Mosque,"Khairati Tola Masjid, 724, Baluganj, Khairati Tola, Agra, Uttar Pradesh 282001","Baluganj, Khairati Tola",724,Agra,282001,Uttar Pradesh,IN,https://www.google.com/maps/place/Khairati+Tola+Masjid/data=!4m7!3m6!1s0x3974717ec85a25c7:0xbf456cfcd5097ff8!8m2!3d27.1696802!4d78.0292033!16s%2Fg%2F11rhymsdss!19sChIJxyVayH5xdDkR-H8J1fxsRb8?authuser=0&hl=en&rclk=1,"27.1696802,78.02920329999999"
Minara Masjid,Mosque,"52F6+PJ4 Minara Masjid, 29/305 Rakabganj Rd Opposite S.B.I Bank, Subzi Mandi Rd, Chhipitola, Rakabganj, Agra, Uttar Pradesh 282001","Chhipitola, Rakabganj","52F6+PJ4, 29/305 Rakabganj Rd Opposite S.B.I Bank, Subzi Mandi Rd",Agra,282001,Uttar Pradesh,IN,https://www.google.com/maps/place/Minara+Masjid/data=!4m7!3m6!1s0x397476d7d5e87ce3:0x5fae188c6735b356!8m2!3d27.1736447!4d78.0106558!16s%2Fg%2F11b5pj6ft2!19sChIJ43zo1dd2dDkRVrM1Z4wYrl8?authuser=0&hl=en&rclk=1,"27.1736447,78.0106558"
Akbari Masjid,Mosque,"52P7+HWP Akbari Masjid, Johari Bazar Rd, Fuvara, Kinari Bazar, Hing ki Mandi, Mantola, Agra, Uttar Pradesh 282003","Fuvara, Kinari Bazar, Hing ki Mandi, Mantola","52P7+HWP, Johari Bazar Rd",Agra,282003,Uttar Pradesh,IN,https://www.google.com/maps/place/Akbari+Masjid/data=!4m7!3m6!1s0x397477c65e6aba79:0x5542a521e88ecc73!8m2!3d27.1864703!4d78.0148166!16s%2Fg%2F11lryy2bh2!19sChIJebpqXsZ3dDkRc8yO6CGlQlU?authuser=0&hl=en&rclk=1,"27.1864703,78.0148166"
Bilal Masjid,Mosque,"522R+QPM Bilal Masjid, Tajganj, Agra, Uttar Pradesh 282001",Tajganj,522R+QPM,Agra,282001,Uttar Pradesh,IN,https://www.google.com/maps/place/Bilal+Masjid/data=!4m7!3m6!1s0x39747194270b611d:0x835f7ab4dd90e962!8m2!3d27.1519589!4d78.0418054!16s%2Fg%2F11qpycg9w5!19sChIJHWELJ5RxdDkRYumQ3bR6X4M?authuser=0&hl=en&rclk=1,"27.1519589,78.0418054"
Lal Masjid,Mosque,"Lal Masjid, 28/355A, Gudri Mansoor Khan, Agra, Kachori Ghat, Mantola, Agra, Uttar Pradesh 282003","Dareshi, Kachori Ghat, Mantola","28/355A, Gudri Mansoor Khan, Agra",Agra,282003,Uttar Pradesh,IN,https://www.google.com/maps/place/Lal+Masjid/data=!4m7!3m6!1s0x3974773347b4edcd:0xc1ff2b2c1a6524b9!8m2!3d27.1905188!4d78.0187205!16s%2Fg%2F11hbt357vk!19sChIJze20RzN3dDkRuSRlGiwr_8E?authuser=0&hl=en&rclk=1,"27.1905188,78.0187205"
Police Line Masjid,Mosque,"5265+C97 Police Line Masjid, Tehsil Rd, Sadar Bazar, Agra Cantt, Idgah Colony, Agra, Uttar Pradesh 282010","Sadar Bazar, Agra Cantt, Idgah Colony","5265+C97, Tehsil Rd",Agra,282010,Uttar Pradesh,IN,https://www.google.com/maps/place/Police+Line+Masjid/data=!4m7!3m6!1s0x397476cff0d38601:0xbc2fe65cccbe3f06!8m2!3d27.1610435!4d78.008409!16s%2Fg%2F11c2y7rc96!19sChIJAYbT8M92dDkRBj--zFzmL7w?authuser=0&hl=en&rclk=1,"27.161043499999998,78.008409"
Masjid T P Nagar,Mosque,"Masjid T P Nagar, Torrent office, Road, Transport Nagar Rd, Azad Nagar, Khandari, Agra, Uttar Pradesh 282002","Azad Nagar, Khandari","Torrent office, Road, Transport Nagar Rd",Agra,282002,Uttar Pradesh,IN,https://www.google.com/maps/place/Masjid+T+P+Nagar/data=!4m7!3m6!1s0x39747710603a89a3:0x89f9d84c3abea5b2!8m2!3d27.205762!4d77.985216!16s%2Fg%2F11h802f_fp!19sChIJo4k6YBB3dDkRsqW-OkzY-Yk?authuser=0&hl=en&rclk=1,"27.205762,77.985216"
Masjid,Mosque,"52J2+9CX Masjid, Panchkuiyan Road, Syed Ali Nabi Rd, Panchkuian, Rakabganj, Agra, Uttar Pradesh 282010","Panchkuian, Rakabganj","52J2+9CX, Panchkuiyan Road, Syed Ali Nabi Rd",Agra,282010,Uttar Pradesh,IN,https://www.google.com/maps/place/Masjid/data=!4m7!3m6!1s0x3974772398492a7d:0xb4912375da8d7555!8m2!3d27.1809759!4d78.0011226!16s%2Fg%2F1q6j8vzh1!19sChIJfSpJmCN3dDkRVXWN2nUjkbQ?authuser=0&hl=en&rclk=1,"27.1809759,78.0011226"
noorani masjid,Mosque,"52J5+4GG noorani masjid, Sadar Bhatti Crossing, Dhawlikar, Rakabganj, Agra, Uttar Pradesh 282003","Dhawlikar, Rakabganj","52J5+4GG, Sadar Bhatti Crossing",Agra,282003,Uttar Pradesh,IN,https://www.google.com/maps/place/noorani+masjid/data=!4m7!3m6!1s0x3974772f5b32a967:0xbc9ef9479b65dba7!8m2!3d27.1803086!4d78.0088342!16s%2Fg%2F11g8tzj6ns!19sChIJZ6kyWy93dDkRp9tlm0f5nrw?authuser=0&hl=en&rclk=1,"27.1803086,78.0088342"
Badi Masjid 3 Gumbad wali,Mosque,"6267+PQF Badi Masjid 3 Gumbad wali, near lal hujra, Karbala, New Agra Colony, Agra, Uttar Pradesh 282005","Karbala, New Agra Colony","6267+PQF, near lal hujra",Agra,282005,Uttar Pradesh,IN,https://www.google.com/maps/place/Badi+Masjid+3+Gumbad+wali/data=!4m7!3m6!1s0x3974773ecdcce0f9:0xacfa1e6916b62349!8m2!3d27.2118175!4d78.0144149!16s%2Fg%2F11fnvdl3k1!19sChIJ-eDMzT53dDkRSSO2Fmke-qw?authuser=0&hl=en&rclk=1,"27.2118175,78.01441489999999"
Madina Masjid,Mosque,"5X6P+HPW Madina Masjid, Saraikhwaja, kidwai nagar, Agra, Uttar Pradesh 282001","Saraikhwaja, kidwai nagar",5X6P+HPW,Agra,282001,Uttar Pradesh,IN,https://www.google.com/maps/place/Madina+Masjid/data=!4m7!3m6!1s0x397476e56ac7b897:0xe55610a4e0b6242d!8m2!3d27.1614863!4d77.9868128!16s%2Fg%2F11bx892x4_!19sChIJl7jHauV2dDkRLSS24KQQVuU?authuser=0&hl=en&rclk=1,"27.1614863,77.9868128"
"masjid,kagarol ki sarai",Mosque,"52J7+5Q4 masjid,kagarol ki sarai, Nala Kazi Pada, Dhawlikar, Rakabganj, Agra, Uttar Pradesh 282003","Nala Kazi Pada, Dhawlikar, Rakabganj",52J7+5Q4,Agra,282003,Uttar Pradesh,IN,"https://www.google.com/maps/place/masjid,kagarol+ki+sarai/data=!4m7!3m6!1s0x3974772c059ee7cb:0x8a4962d0c31eed93!8m2!3d27.1803934!4d78.0144489!16s%2Fg%2F12cpk8n46!19sChIJy-eeBSx3dDkRk-0ew9BiSYo?authuser=0&hl=en&rclk=1","27.1803934,78.01444889999999"
Masjid Sanjay Place HIG Apartments,Mosque,"52X2+9PJ Masjid Sanjay Place HIG Apartments, HIG apartments, Sanjay Place, Civil Lines, Agra, Uttar Pradesh 282002","Sanjay Place, Civil Lines","52X2+9PJ, HIG apartments",Agra,282002,Uttar Pradesh,IN,https://www.google.com/maps/place/Masjid+Sanjay+Place+HIG+Apartments/data=!4m7!3m6!1s0x397477c704ab6d73:0x57b914faa142851f!8m2!3d27.1984543!4d78.001769!16s%2Fg%2F11h__x8p6x!19sChIJc22rBMd3dDkRH4VCofoUuVc?authuser=0&hl=en&rclk=1,"27.198454299999998,78.001769"
Madina Masjid,Mosque,"5XVP+PV3 Madina Masjid, Alam Ganj, Lohamandi, Agra, Uttar Pradesh 282002","Alam Ganj, Lohamandi",5XVP+PV3,Agra,282002,Uttar Pradesh,IN,https://www.google.com/maps/place/Madina+Masjid/data=!4m7!3m6!1s0x397477d8f82c1809:0x3b6f6f6e85d020d7!8m2!3d27.1942538!4d77.9871674!16s%2Fg%2F11fjxdy_v4!19sChIJCRgs-Nh3dDkR1yDQhW5vbzs?authuser=0&hl=en&rclk=1,"27.1942538,77.98716739999999"
Mosque,Mosque,"Mosque, 99/373, Moti Katra, Mantola, Agra, Uttar Pradesh 282003","Moti Katra, Mantola",99/373,Agra,282003,Uttar Pradesh,IN,https://www.google.com/maps/place/Mosque/data=!4m7!3m6!1s0x397477817cd38445:0x90e2f047dae81a42!8m2!3d27.1872404!4d78.0075851!16s%2Fg%2F11hdyknh6_!19sChIJRYTTfIF3dDkRQhro2kfw4pA?authuser=0&hl=en&rclk=1,"27.1872404,78.0075851"
MADINAH MASJID WAZIR PURA AGRA,Mosque,"6235+683 MADINAH MASJID WAZIR PURA AGRA, Wazirpura, Civil Lines, Agra, Uttar Pradesh 282003","Wazirpura, Civil Lines",6235+683,Agra,282003,Uttar Pradesh,IN,https://www.google.com/maps/place/MADINAH+MASJID+WAZIR+PURA+AGRA/data=!4m7!3m6!1s0x3974779ffcb482df:0x13ae6806053505e4!8m2!3d27.2030179!4d78.0083006!16s%2Fg%2F11jflj087v!19sChIJ34K0_J93dDkR5AU1BQZorhM?authuser=0&hl=en&rclk=1,"27.2030179,78.0083006"
Masjid Rja Husmani,Mosque,"527X+Q6F Masjid Rja Husmani, Unnamed Road, Paktola, Tajganj, Agra, Uttar Pradesh 282001","Paktola, Tajganj","527X+Q6F, Unnamed Road",Agra,282001,Uttar Pradesh,IN,https://www.google.com/maps/place/Masjid+Rja+Husmani/data=!4m7!3m6!1s0x3974713cc69e9621:0x51cdfa66113191c1!8m2!3d27.1644497!4d78.0480502!16s%2Fg%2F11fjs8tgrf!19sChIJIZaexjxxdDkRwZExEWb6zVE?authuser=0&hl=en&rclk=1,"27.1644497,78.04805019999999"
Ramzani Masjid,Mosque,"52H7+P7X Ramzani Masjid, Dhawlikar, Rakabganj, Agra, Uttar Pradesh 282003","Dhawlikar, Rakabganj",52H7+P7X,Agra,282003,Uttar Pradesh,IN,https://www.google.com/maps/place/Ramzani+Masjid/data=!4m7!3m6!1s0x397477295188afe3:0x583b15c6e133baf8!8m2!3d27.1793563!4d78.0132481!16s%2Fg%2F11ddxxjd7b!19sChIJ46-IUSl3dDkR-Loz4cYVO1g?authuser=0&hl=en&rclk=1,"27.1793563,78.0132481"
Masjid msjd,Mosque,"52P2+8CW Masjid msjd, Mahatma Gandhi Rd, Opposite Agra College, Near Raja Mandi Chauraha, Gokul Pura, Mantola, Agra, Uttar Pradesh 282002","Opposite Agra College, Near Raja Mandi Chauraha, Gokul Pura, Mantola","52P2+8CW, Mahatma Gandhi Rd",Agra,282002,Uttar Pradesh,IN,https://www.google.com/maps/place/Masjid+%D9%85%D8%B3%D8%AC%D8%AF%E2%80%AD/data=!4m7!3m6!1s0x3974773cbfebb487:0x8fe8f2b54b030538!8m2!3d27.1858511!4d78.0010635!16s%2Fg%2F11bbw_sxfk!19sChIJh7Trvzx3dDkROAUDS7Xy6I8?authuser=0&hl=en&rclk=1,"27.185851099999997,78.0010635"
Hajrat Masjid,Mosque,"5392+F3F Hajrat Masjid, Taj East Gate Rd, Near Jalma Hospital, Opposite Basai, Forest Colony, Tajganj, Agra, Uttar Pradesh 282001","Near Jalma Hospital, Opposite Basai, Forest Colony, Tajganj","5392+F3F, Taj East Gate Rd",Agra,282001,Uttar Pradesh,IN,https://www.google.com/maps/place/Hajrat+Masjid/data=!4m7!3m6!1s0x3974711bb26d87ad:0xd3646451b3b3039a!8m2!3d27.1686958!4d78.0501697!16s%2Fg%2F11bbw_whkt!19sChIJrYdtshtxdDkRmgOzs1FkZNM?authuser=0&hl=en&rclk=1,"27.1686958,78.0501697"
Akbar Masjid,Mosque,"529R+9MC Akbar Masjid, Kinari Bazar, Kaserat Bazar, Tajganj, Agra, Uttar Pradesh 282001","Kinari Bazar, Kaserat Bazar, Tajganj",529R+9MC,Agra,282001,Uttar Pradesh,IN,https://www.google.com/maps/place/Akbar+Masjid/data=!4m7!3m6!1s0x397471e245d7aa35:0xe70f6ee7ab036f82!8m2!3d27.1684296!4d78.041655!16s%2Fg%2F11h12sfczy!19sChIJNarXReJxdDkRgm8Dq-duD-c?authuser=0&hl=en&rclk=1,"27.1684296,78.04165499999999"
Masjid Noor uz zama,Mosque,"6256+W7C Masjid Noor uz zama, Dargah Abul ula Road, Uttar Pradesh 282005","Suresh Nagar, New Agra Colony","6256+W7C, Dargah Abul ula Road",Agra,282005,Uttar Pradesh,IN,https://www.google.com/maps/place/Masjid+Noor+uz+zama/data=!4m7!3m6!1s0x397477fb49396e97:0x25ae0a762c1325f3!8m2!3d27.2098073!4d78.0106253!16s%2Fg%2F11h__hs1py!19sChIJl245Sft3dDkR8yUTLHYKriU?authuser=0&hl=en&rclk=1,"27.209807299999998,78.0106253"
Masjid Qadamshareef,Mosque,"Masjid Qadamshareef, Karbala, Qadamshareef, Agra, Uttar Pradesh 282005","Karbala, Qadamshareef",,Agra,282005,Uttar Pradesh,IN,https://www.google.com/maps/place/Masjid+Qadamshareef/data=!4m7!3m6!1s0x3974778d241d3633:0x4236c7e81d2334f8!8m2!3d27.2125136!4d78.0134175!16s%2Fg%2F11fnvd8ldq!19sChIJMzYdJI13dDkR-DQjHejHNkI?authuser=0&hl=en&rclk=1,"27.212513599999998,78.0134175"
Masjid Abdullah,Mosque,"52J5+9QX Masjid Abdullah, Dhawlikar, Rakabganj, Agra, Uttar Pradesh 282003","Dhawlikar, Rakabganj",52J5+9QX,Agra,282003,Uttar Pradesh,IN,https://www.google.com/maps/place/Masjid+Abdullah/data=!4m7!3m6!1s0x3974772f6aba051d:0x57be491daca1ceb9!8m2!3d27.1809973!4d78.009495!16s%2Fg%2F12cp0_ybm!19sChIJHQW6ai93dDkRuc6hrB1Jvlc?authuser=0&hl=en&rclk=1,"27.180997299999998,78.009495"
Shahi Masjid Lohamandi,Mosque,"5XRV+65P Shahi Masjid Lohamandi, Bagh Muzaffar Rd, Baldev Ganj, Sirki Mandi, Lohamandi, Agra, Uttar Pradesh 282002","Baldev Ganj, Sirki Mandi, Lohamandi","5XRV+65P, Bagh Muzaffar Rd",Agra,282002,Uttar Pradesh,IN,https://www.google.com/maps/place/Shahi+Masjid+Lohamandi/data=!4m7!3m6!1s0x397477c2fabf673f:0x44e91afd8d3687ea!8m2!3d27.1905967!4d77.9929454!16s%2Fg%2F11rgghr_zv!19sChIJP2e_-sJ3dDkR6oc2jf0a6UQ?authuser=0&hl=en&rclk=1,"27.1905967,77.9929454"
Mosque,Mosque,"Mosque, 1/89, Johari Bazar Rd, Johri Bazar, Kinari Bazar, Hing ki Mandi, Mantola, Agra, Uttar Pradesh 282001","Johri Bazar, Kinari Bazar, Hing ki Mandi, Mantola","1/89, Johari Bazar Rd",Agra,282001,Uttar Pradesh,IN,https://www.google.com/maps/place/Mosque/data=!4m7!3m6!1s0x397477320dcaefbd:0x14c6317b050507a!8m2!3d27.1862723!4d78.015056!16s%2Fg%2F11b5pj_r_s!19sChIJve_KDTJ3dDkRelBQsBdjTAE?authuser=0&hl=en&rclk=1,"27.1862723,78.015056"
Masjid Aagasahab,Mosque,"52Q9+XFG Masjid Aagasahab, Yadav Path, Near Police Station, Gudri Mansoor Kha, Dhuliya Ganj, Mantola, Agra, Uttar Pradesh 282003","Near Police Station, Gudri Mansoor Kha, Dhuliya Ganj, Mantola","52Q9+XFG, Yadav Path",Agra,282003,Uttar Pradesh,IN,https://www.google.com/maps/place/Masjid+Aagasahab/data=!4m7!3m6!1s0x397477333a243fbb:0xfcf66c833b5fed50!8m2!3d27.1899305!4d78.0187088!16s%2Fg%2F11b5z_cnjr!19sChIJuz8kOjN3dDkRUO1fO4Ns9vw?authuser=0&hl=en&rclk=1,"27.1899305,78.0187088"
MASJID,Mosque,"MASJID, 356, Sultanpura, Sadar Bazar, Agra Cantt, Idgah Colony, Agra, Uttar Pradesh 282001","Sultanpura, Sadar Bazar, Agra Cantt, Idgah Colony",356,Agra,282001,Uttar Pradesh,IN,https://www.google.com/maps/place/MASJID/data=!4m7!3m6!1s0x397477b862985e61:0x57e3464c1197be7c!8m2!3d27.158287!4d78.009368!16s%2Fg%2F11rxyhyhzk!19sChIJYV6YYrh3dDkRfL6XEUxG41c?authuser=0&hl=en&rclk=1,"27.158286999999998,78.009368"
Mazar Qabr Wali Masjid,Mosque,"Mazar Qabr Wali Masjid, 30/65, Agra Fort, Rakabganj, Agra, Uttar Pradesh 282001","Agra Fort, Rakabganj",30/65,Agra,282001,Uttar Pradesh,IN,https://www.google.com/maps/place/Mazar+Qabr+Wali+Masjid/data=!4m7!3m6!1s0x397477ed5eea7eab:0xee62488385bde01a!8m2!3d27.180515!4d78.0165472!16s%2Fg%2F11sc0dtnng!19sChIJq37qXu13dDkRGuC9hYNIYu4?authuser=0&hl=en&rclk=1,"27.180515,78.01654719999999"
Masjid,Mosque,"5XHR+63Q Masjid, Shahganj Rd, Soron Katra, Kothi Meena Bazaar, Shahganj, Agra, Uttar Pradesh 282010","Soron Katra, Kothi Meena Bazaar, Shahganj","5XHR+63Q, Shahganj Rd",Agra,282010,Uttar Pradesh,IN,https://www.google.com/maps/place/Masjid/data=!4m7!3m6!1s0x3974771bf7589227:0x4d6c486d9101ad14!8m2!3d27.1780778!4d77.9902367!16s%2Fg%2F11bbt9850d!19sChIJJ5JY9xt3dDkRFK0BkW1IbE0?authuser=0&hl=en&rclk=1,"27.1780778,77.9902367"
Taqwa Masjid,Mosque,"5X7M+8J6 Taqwa Masjid, Ayodhya Kunj-A, Kheriya Mod, Ajeet Nagar, Arjun Nagar, Agra, Uttar Pradesh 282001","Ayodhya Kunj-A, Kheriya Mod, Ajeet Nagar, Arjun Nagar",5X7M+8J6,Agra,282001,Uttar Pradesh,IN,https://www.google.com/maps/place/Taqwa+Masjid/data=!4m7!3m6!1s0x397477f245c5cb13:0x94fa7729c2de53fc!8m2!3d27.1632984!4d77.9840041!16s%2Fg%2F11hzw5p_y9!19sChIJE8vFRfJ3dDkR_FPewil3-pQ?authuser=0&hl=en&rclk=1,"27.1632984,77.98400409999999"
Masjid,Mosque,"Masjid, 9/30 Moti Nagar, Rambagh, Agra, Uttar Pradesh 282006","Rambagh, Moti Bagh",9/30 Moti Nagar,Agra,282006,Uttar Pradesh,IN,https://www.google.com/maps/place/Masjid/data=!4m7!3m6!1s0x3974711f030e64a9:0x9dc6214818932507!8m2!3d27.1909571!4d78.0318194!16s%2Fg%2F11rcdzhngs!19sChIJqWQOAx9xdDkRByWTGEghxp0?authuser=0&hl=en&rclk=1,"27.1909571,78.0318194"
Masjid,Mosque,"Masjid, 202, Field Marshal, General Cariappa Rd, Baluganj, Rakabganj, Agra, Uttar Pradesh 282001","Baluganj, Rakabganj","202, Field Marshal, General Cariappa Rd",Agra,282001,Uttar Pradesh,IN,https://www.google.com/maps/place/Masjid/data=!4m7!3m6!1s0x3974772667b53c75:0xde12202772fea129!8m2!3d27.1713345!4d78.0193073!16s%2Fg%2F11rk23nd_f!19sChIJdTy1ZyZ3dDkRKaH-cicgEt4?authuser=0&hl=en&rclk=1,"27.1713345,78.0193073"
Masjid,Mosque,"42V5+HJC Masjid, Conservancy Rd, Bundu Katra, Agra Cantt, Madhu Nagar, Agra, Uttar Pradesh 282001","Bundu Katra, Agra Cantt, Madhu Nagar","42V5+HJC, Conservancy Rd",Agra,282001,Uttar Pradesh,IN,https://www.google.com/maps/place/Masjid/data=!4m7!3m6!1s0x397477868af1f70f:0x95938049ae82cac1!8m2!3d27.1438746!4d78.0090196!16s%2Fg%2F11kq5mtsw0!19sChIJD_fxioZ3dDkRwcqCrkmAk5U?authuser=0&hl=en&rclk=1,"27.1438746,78.0090196"
Shia Masjid In Agra,Mosque,"Shia Masjid In Agra, Sewala Jat, Panchkuian, Rakabganj, Agra, Uttar Pradesh 282001","Sewala Jat, Panchkuian, Rakabganj",,Agra,282001,Uttar Pradesh,IN,https://www.google.com/maps/place/Shia+Masjid+In+Agra/data=!4m7!3m6!1s0x397477262a12b011:0x930b92bcdd44279b!8m2!3d27.1766701!4d78.0080745!16s%2Fg%2F11gb3n5lhl!19sChIJEbASKiZ3dDkRmydE3bySC5M?authuser=0&hl=en&rclk=1,"27.1766701,78.00807449999999"
Khasaabo wali masjid (gali waali Majid),Mosque,"5X6X+F57 Khasaabo wali masjid (gali waali Majid), Sultanpura, Sultan Pura, Agra Cantt, Idgah Colony, Agra, Uttar Pradesh 282001","Sultanpura, Sultan Pura, Agra Cantt, Idgah Colony",5X6X+F57,Agra,282001,Uttar Pradesh,IN,https://www.google.com/maps/place/Khasaabo+wali+masjid+%28gali+waali+Majid%29/data=!4m7!3m6!1s0x397477f65d0caf03:0xb2d15120f67e57df!8m2!3d27.1611541!4d77.9979221!16s%2Fg%2F11t12rccht!19sChIJA68MXfZ3dDkR31d-9iBR0bI?authuser=0&hl=en&rclk=1,"27.161154099999997,77.9979221"
"Shahi Masjid Katra Resham, Taj Ganj",Mosque,"Shahi Masjid Katra Resham, Taj Ganj, Shahi Masjid, Katra Resham, Kinari Bazar, Kaserat Bazar, Tajganj, Agra, Uttar Pradesh 282001","Kinari Bazar, Kaserat Bazar, Tajganj","Shahi Masjid, Katra Resham",Agra,282001,Uttar Pradesh,IN,"https://www.google.com/maps/place/Shahi+Masjid+Katra+Resham,+Taj+Ganj/data=!4m7!3m6!1s0x397471ef0d874d69:0x4dd7bb008ebbd122!8m2!3d27.1679796!4d78.0414064!16s%2Fg%2F11tczph_1m!19sChIJaU2HDe9xdDkRItG7jgC7100?authuser=0&hl=en&rclk=1","27.1679796,78.0414064"
Shahi Masjid,Mosque,"Shahi Masjid, Govind Kunj, Saraikhwaja, Arjun Nagar, Agra, Uttar Pradesh 282001","Govind Kunj, Saraikhwaja, Arjun Nagar",,Agra,282001,Uttar Pradesh,IN,https://www.google.com/maps/place/Shahi+Masjid/data=!4m7!3m6!1s0x3974779acab7ce9f:0x8d3fa40279d9c319!8m2!3d27.1642296!4d77.9877724!16s%2Fg%2F11q480k9zv!19sChIJn863ypp3dDkRGcPZeQKkP40?authuser=0&hl=en&rclk=1,"27.1642296,77.9877724"
Taj Mahal Jama Masjid,Mosque,"52FW+G46 Taj Mahal Jama Masjid, Dharmapuri, Forest Colony, Tajganj, Agra, Uttar Pradesh 282001","Dharmapuri, Forest Colony, Tajganj",52FW+G46,Agra,282001,Uttar Pradesh,IN,https://www.google.com/maps/place/Taj+Mahal+Jama+Masjid/data=!4m7!3m6!1s0x397471dbddeed1e5:0xb822b03ea60df8b4!8m2!3d27.1737909!4d78.0452633!16s%2Fg%2F11l1dh02km!19sChIJ5dHu3dtxdDkRtPgNpj6wIrg?authuser=0&hl=en&rclk=1,"27.1737909,78.0452633"
"Masjid Diwaani AGRA, inside Diwani Agra.",Mosque,"Masjid Diwaani AGRA, inside Diwani Agra., 14/169, Ajmeri Rd, Kripal Colony, Sanjay Nagar, Pashupati Colony, Khandari, Agra, Uttar Pradesh 282001","Kripal Colony, Sanjay Nagar, Pashupati Colony, Khandari","14/169, Ajmeri Rd",Agra,282001,Uttar Pradesh,IN,"https://www.google.com/maps/place/Masjid+Diwaani+AGRA,+inside+Diwani+Agra./data=!4m7!3m6!1s0x397477c7ae4ea215:0xc1adef5e5960574b!8m2!3d27.209869!4d78.0017446!16s%2Fg%2F11kq3kj27j!19sChIJFaJOrsd3dDkRS1dgWV7vrcE?authuser=0&hl=en&rclk=1","27.209868999999998,78.0017446"
Masjid Diwaani Agraa,Mosque,"Masjid Diwaani Agraa, District & Sessions Court, Diwaani choraha, Sanjay Nagar, Pashupati Colony, Khandari, Agra, Uttar Pradesh 282002","Sanjay Nagar, Pashupati Colony, Khandari","District & Sessions Court, Diwaani choraha",Agra,282002,Uttar Pradesh,IN,https://www.google.com/maps/place/Masjid+Diwaani+Agraa/data=!4m7!3m6!1s0x39747777cfc41a15:0x7d7c92b87ca12790!8m2!3d27.208846!4d78.003994!16s%2Fg%2F11svc9tbhr!19sChIJFRrEz3d3dDkRkCehfLiSfH0?authuser=0&hl=en&rclk=1,"27.208845999999998,78.00399399999999"
Mosque of Diwan Ji Begum,Mosque,"Mosque of Diwan Ji Begum, 17/84/A, Basai Khurd, Tajganj, Agra, Uttar Pradesh 282001","Basai Khurd, Tajganj",17/84/A,Agra,282001,Uttar Pradesh,IN,https://www.google.com/maps/place/Mosque+of+Diwan+Ji+Begum/data=!4m7!3m6!1s0x39747117261aaaab:0x325b6ae71ae86983!8m2!3d27.1627167!4d78.0473171!16s%2Fg%2F11txmz5cy7!19sChIJq6oaJhdxdDkRg2noGudqWzI?authuser=0&hl=en&rclk=1,"27.162716699999997,78.0473171"
Masjid Rajamandi,Mosque,"5XVV+HVR Masjid Rajamandi, Unnamed Road, Madiya Katra,, Alam Ganj, Lohamandi, Agra, Uttar Pradesh 282002","Madiya Katra,, Alam Ganj, Lohamandi","5XVV+HVR, Unnamed Road",Agra,282002,Uttar Pradesh,IN,https://www.google.com/maps/place/Masjid+Rajamandi/data=!4m7!3m6!1s0x39747713eab71173:0xe087d32f4c170db4!8m2!3d27.1939925!4d77.9946261!16s%2Fg%2F11gmfr14fs!19sChIJcxG36hN3dDkRtA0XTC_Th-A?authuser=0&hl=en&rclk=1,"27.1939925,77.99462609999999"
Masjid msjd,Mosque,"52J3+2HV Masjid msjd, Mahatma Gandhi Rd, Dhakran Crossing, Panchkuian, Rakabganj, Agra, Uttar Pradesh 282002","Dhakran Crossing, Panchkuian, Rakabganj","52J3+2HV, Mahatma Gandhi Rd",Agra,282002,Uttar Pradesh,IN,https://www.google.com/maps/place/Masjid+%D9%85%D8%B3%D8%AC%D8%AF%E2%80%AD/data=!4m7!3m6!1s0x397477efa4982f79:0x21dca1f68c6695a0!8m2!3d27.1801067!4d78.0039198!16s%2Fg%2F11qg0jx76p!19sChIJeS-YpO93dDkRoJVmjPah3CE?authuser=0&hl=en&rclk=1,"27.1801067,78.00391979999999"
