name,main_category,address,address_ward,address_street,address_city,address_postal_code,address_state,address_country_code,link,coordinates
"Masjid-e-Taj, Gajulpet",Mosque,"484M+GW7 Masjid-e-Taj, Gajulpet, Gajulpet, Telangana 504106",,484M+GW7,Gajulpet,504106,Telangana,IN,"https://www.google.com/maps/place/Masjid-e-Taj,+Gajulpet/data=!4m7!3m6!1s0x3bcd8b7ecb94f33f:0xa1733fcc34181556!8m2!3d19.1062844!4d78.3347824!16s%2Fg%2F1yg4v7gr2!19sChIJP_OUy36LzTsRVhUYNMw_c6E?authuser=0&hl=en&rclk=1","19.1062844,78.3347824"
Masjid E Shaikh Sahab Pet,Mosque,"Masjid E Shaikh Sahab Pet, Shaikh Sahab Pet, Teachers Colony, Besthawar Pet, Brahmapuri, Nirmal, Telangana 504106","Teachers Colony, Besthawar Pet, Brahmapuri",Shaikh Sahab Pet,Nirmal,504106,Telangana,IN,https://www.google.com/maps/place/Masjid+E+Shaikh+Sahab+Pet/data=!4m7!3m6!1s0x3bcd8b87fcfc70f9:0x89094e6bd421c225!8m2!3d19.1025254!4d78.3497556!16s%2Fg%2F1vc6bvmr!19sChIJ-XD8_IeLzTsRJcIh1GtOCYk?authuser=0&hl=en&rclk=1,"19.102525399999998,78.3497556"
ABBU NASAR KIRANA SHOP,Store,"barkathpura road no 4, ABBU NASAR KIRANA SHOP, near Masjid E Bilal, Nirmal, Gajulpet, Telangana 504106",,"barkathpura road no 4, near Masjid E Bilal","Nirmal, Gajulpet",504106,Telangana,IN,https://www.google.com/maps/place/ABBU+NASAR+KIRANA+SHOP/data=!4m7!3m6!1s0x3bcd8b2bddb2b681:0xe5b6e264c10aee70!8m2!3d19.1038432!4d78.3329517!16s%2Fg%2F11sz0hng1s!19sChIJgbay3SuLzTsRcO4KwWTituU?authuser=0&hl=en&rclk=1,"19.1038432,78.3329517"
Gulzar Masjid Nirmal,Mosque,"Gulzar Masjid Nirmal, Masjid-e-Gulzar, Post Office Rd, Balajiwada, Pinjari Gutta, Nirmal, Telangana 504106","Balajiwada, Pinjari Gutta","Masjid-e-Gulzar, Post Office Rd",Nirmal,504106,Telangana,IN,https://www.google.com/maps/place/Gulzar+Masjid+Nirmal/data=!4m7!3m6!1s0x3bcd8c78647f2d69:0x2baca699c5ac6b20!8m2!3d19.1007782!4d78.3476027!16s%2Fg%2F11cn93xd9y!19sChIJaS1_ZHiMzTsRIGusxZmmrCs?authuser=0&hl=en&rclk=1,"19.1007782,78.3476027"
Jama Masjid,Mosque,"482V+69G Jama Masjid, Gandhi Nagar Colony, Nirmal, Telangana 504106",Gandhi Nagar Colony,482V+69G,Nirmal,504106,Telangana,IN,https://www.google.com/maps/place/Jama+Masjid/data=!4m7!3m6!1s0x3bcd8c7f5b318beb:0xb8ae867a173de72b!8m2!3d19.1005579!4d78.343457!16s%2Fg%2F11dz19vt9b!19sChIJ64sxW3-MzTsRK-c9F3qGrrg?authuser=0&hl=en&rclk=1,"19.1005579,78.343457"
"Masjid-e-Yahya, Gajulpet",Mosque,"485J+MRG Masjid-e-Yahya, Gajulpet, Gajulpet, Telangana 504106",,485J+MRG,Gajulpet,504106,Telangana,IN,"https://www.google.com/maps/place/Masjid-e-Yahya,+Gajulpet/data=!4m7!3m6!1s0x3bcd8b7bcb59113d:0x9c871539096c8956!8m2!3d19.1091943!4d78.3320753!16s%2Fg%2F11c716w5jr!19sChIJPRFZy3uLzTsRVolsCTkVh5w?authuser=0&hl=en&rclk=1","19.1091943,78.3320753"
Masjid E Chand Sultana,Mosque,"Masjid E Chand Sultana, 504106, Vidyanagar, Adharsha Nagar, Nirmal, Telangana 504106","Vidyanagar, Adharsha Nagar",504106,Nirmal,504106,Telangana,IN,https://www.google.com/maps/place/Masjid+E+Chand+Sultana/data=!4m7!3m6!1s0x3bcd8c644575ee19:0x37cd15e32a13fd32!8m2!3d19.0859119!4d78.3464606!16s%2Fg%2F11fzb16hxz!19sChIJGe51RWSMzTsRMv0TKuMVzTc?authuser=0&hl=en&rclk=1,"19.0859119,78.3464606"
Mohammadia Masjid,Mosque,"38JR+55J Mohammadia Masjid, Adharsha Nagar, Nirmal, Telangana 504106",Adharsha Nagar,38JR+55J,Nirmal,504106,Telangana,IN,https://www.google.com/maps/place/Mohammadia+Masjid/data=!4m7!3m6!1s0x3bcd8c604b0a54d3:0x67084e8473077f46!8m2!3d19.0804551!4d78.340404!16s%2Fg%2F11bzq338xz!19sChIJ01QKS2CMzTsRRn8Hc4ROCGc?authuser=0&hl=en&rclk=1,"19.0804551,78.34040399999999"
Masjid E Bilal Haq,Mosque,"483M+C39 Masjid E Bilal Haq, Nirmal, Gajulpet, Telangana 504106",,"483M+C39, Nirmal",Gajulpet,504106,Telangana,IN,https://www.google.com/maps/place/Masjid+E+Bilal+Haq/data=!4m7!3m6!1s0x3bcd8b7c2b493a63:0xf421e956b0a01151!8m2!3d19.1035383!4d78.3327297!16s%2Fg%2F11dftfsfpm!19sChIJYzpJK3yLzTsRURGgsFbpIfQ?authuser=0&hl=en&rclk=1,"19.1035383,78.3327297"
Masjid E Mastaniya,Mosque,"38MP+W6H Masjid E Mastaniya, Asra Colony, Adharsha Nagar, Nirmal, Telangana 504106","Asra Colony, Adharsha Nagar",38MP+W6H,Nirmal,504106,Telangana,IN,https://www.google.com/maps/place/Masjid+E+Mastaniya/data=!4m7!3m6!1s0x3bcd8c884b8cf3ad:0xc9b46d1316dfb1a6!8m2!3d19.0848125!4d78.3356094!16s%2Fg%2F11f126_006!19sChIJrfOMS4iMzTsRprHfFhNttMk?authuser=0&hl=en&rclk=1,"19.084812499999998,78.3356094"
Jamal Masjid,Mosque,"39X2+35R Jamal Masjid, Jamal, Masjid Road, Moghalpura, Nirmal, Telangana 504106",Moghalpura,"39X2+35R, Jamal, Masjid Road, Moghalpura",Nirmal,504106,Telangana,IN,https://www.google.com/maps/place/Jamal+Masjid/data=!4m7!3m6!1s0x3bcd8c7763fa0aff:0x8c287693ade0608a!8m2!3d19.0977279!4d78.3503946!16s%2Fg%2F11f4m6dzth!19sChIJ_wr6Y3eMzTsRimDgrZN2KIw?authuser=0&hl=en&rclk=1,"19.0977279,78.3503946"
Chintakunta Wada Hanuman Temple,Hindu temple,"38XV+RQJ Chintakunta Wada Hanuman Temple, Budhwarpet Rd, Pinjari Gutta, Nirmal, Telangana 504106",Pinjari Gutta,"38XV+RQJ, Budhwarpet Rd",Nirmal,504106,Telangana,IN,https://www.google.com/maps/place/Chintakunta+Wada+Hanuman+Temple/data=!4m7!3m6!1s0x3bcd8c7f34b458d1:0x2913ffc9912ba905!8m2!3d19.099585!4d78.3443803!16s%2Fg%2F1tg4jvgt!19sChIJ0Vi0NH-MzTsRBakrkcn_Eyk?authuser=0&hl=en&rclk=1,"19.099584999999998,78.3443803"
YSR COLONY,Housing society,"48FJ+8R3 YSR COLONY, Nirmal, Telangana 504106",,48FJ+8R3,Nirmal,504106,Telangana,IN,https://www.google.com/maps/place/YSR+COLONY/data=!4m7!3m6!1s0x3bcd8b135f7c2bdb:0xb8d7654e377b1083!8m2!3d19.1232644!4d78.3320458!16s%2Fg%2F11p5f558zr!19sChIJ2yt8XxOLzTsRgxB7N05l17g?authuser=0&hl=en&rclk=1,"19.1232644,78.3320458"
Masjid-e- Iqbal Unnisa AHLE SUNNATUL JAMAT,Mosque,"38XP+FC7 Masjid-e- Iqbal Unnisa AHLE SUNNATUL JAMAT, Priyadarshini Nagar, Nirmal, Telangana 504106",Priyadarshini Nagar,38XP+FC7,Nirmal,504106,Telangana,IN,https://www.google.com/maps/place/Masjid-e-+Iqbal+Unnisa+AHLE+SUNNATUL+JAMAT/data=!4m7!3m6!1s0x3bcd8c804d6de91f:0x214df4f286e1b21b!8m2!3d19.0986635!4d78.336057!16s%2Fg%2F11bv38dnzs!19sChIJH-ltTYCMzTsRG7LhhvL0TSE?authuser=0&hl=en&rclk=1,"19.0986635,78.336057"
Kambalposh Masjid,Mosque,"483X+3J9 Kambalposh Masjid, near Islampura, Teachers Colony, Besthawar Pet, Brahmapuri, Nirmal, Telangana 504106","Teachers Colony, Besthawar Pet, Brahmapuri","483X+3J9, near Islampura",Nirmal,504106,Telangana,IN,https://www.google.com/maps/place/Kambalposh+Masjid/data=!4m7!3m6!1s0x3bcd8b87c21236b1:0xa29a076725ba96c7!8m2!3d19.1026649!4d78.3491077!16s%2Fg%2F1tfr8n87!19sChIJsTYSwoeLzTsRx5a6JWcHmqI?authuser=0&hl=en&rclk=1,"19.1026649,78.34910769999999"
Masjid e Taqwa Ahle Hadees,Mosque,"Masjid e Taqwa Ahle Hadees, masjid e taqwa ahle hadees nirmal, Chinthakunta Wada, Nirmal, Telangana 504106",Chinthakunta Wada,masjid e taqwa ahle hadees nirmal,Nirmal,504106,Telangana,IN,https://www.google.com/maps/place/Masjid+e+Taqwa+Ahle+Hadees/data=!4m7!3m6!1s0x3bcd8c7f22186eef:0x6626c5f9da825cae!8m2!3d19.0985389!4d78.3436692!16s%2Fg%2F11f3_s861n!19sChIJ724YIn-MzTsRrlyC2vnFJmY?authuser=0&hl=en&rclk=1,"19.098538899999998,78.3436692"
Masjid-e-Arfath,Mosque,"485P+MVR Masjid-e-Arfath, Gajulpet, Telangana 504106",,485P+MVR,Gajulpet,504106,Telangana,IN,https://www.google.com/maps/place/Masjid-e-Arfath/data=!4m7!3m6!1s0x3bcd8b78f38929b7:0xf1f6598f1f63e972!8m2!3d19.1092323!4d78.3371349!16s%2Fg%2F11g6xq1bxz!19sChIJtymJ83iLzTsRculjH49Z9vE?authuser=0&hl=en&rclk=1,"19.1092323,78.3371349"
Masjid e Khair Unnisa,Mosque,"38MV+W9G Masjid e Khair Unnisa, Eidgoam, Nirmal, Telangana 504106",Eidgoam,38MV+W9G,Nirmal,504106,Telangana,IN,https://www.google.com/maps/place/Masjid+e+Khair+Unnisa/data=!4m7!3m6!1s0x3bcd8c63ec272937:0x3c3ca7aa8f837a71!8m2!3d19.0848121!4d78.3434432!16s%2Fg%2F11bxf29qv6!19sChIJNykn7GOMzTsRcXqDj6qnPDw?authuser=0&hl=en&rclk=1,"19.0848121,78.3434432"
MASJID-E-QUBA,Mosque,"38RR+PH2 MASJID-E-QUBA, Sarad Mahel, AN Reddy Colony, Ibrahim Bagh, Nirmal, Telangana 504106","AN Reddy Colony, Ibrahim Bagh","38RR+PH2, Sarad Mahel",Nirmal,504106,Telangana,IN,https://www.google.com/maps/place/MASJID-E-QUBA/data=!4m7!3m6!1s0x3bcd8c7d02e4632f:0x2fdcde6ba3e79613!8m2!3d19.0917623!4d78.341401!16s%2Fg%2F11h9rsxsx8!19sChIJL2PkAn2MzTsRE5bno2ve3C8?authuser=0&hl=en&rclk=1,"19.0917623,78.34140099999999"
Budharpet Masjid,Mosque,"483V+F49 Budharpet Masjid, Pinjari Gutta, Nirmal, Telangana 504106",Pinjari Gutta,483V+F49,Nirmal,504106,Telangana,IN,https://www.google.com/maps/place/Budharpet+Masjid/data=!4m7!3m6!1s0x3bcd8b80c2fc5e99:0xbd732aff04f66e07!8m2!3d19.1036542!4d78.3428597!16s%2Fg%2F11dxchc4cr!19sChIJmV78woCLzTsRB272BP8qc70?authuser=0&hl=en&rclk=1,"19.103654199999998,78.34285969999999"
Saleem Masjid,Mosque,"38WV+VRM Saleem Masjid, Panjesha Gallay, Zohra Nagar Colony, Kasba, Nirmal, Telangana 504106","Zohra Nagar Colony, Kasba","38WV+VRM, Panjesha Gallay",Nirmal,504106,Telangana,IN,https://www.google.com/maps/place/Saleem+Masjid/data=!4m7!3m6!1s0x3bcd8d6819c1f8c7:0x61f36d2f219cd7ef!8m2!3d19.0972042!4d78.3445486!16s%2Fg%2F11f6gz16dy!19sChIJx_jBGWiNzTsR79ecIS9t82E?authuser=0&hl=en&rclk=1,"19.0972042,78.3445486"
MASJID - E - RIYAZUL HAQ,Mosque,"38WX+Q76 MASJID - E - RIYAZUL HAQ, Bagulwada, Nirmal, Telangana 504106",Bagulwada,38WX+Q76,Nirmal,504106,Telangana,IN,https://www.google.com/maps/place/MASJID+-+E+-+RIYAZUL+HAQ/data=!4m7!3m6!1s0x3bcd8c79971e96a1:0x16fef0fe66a6bb49!8m2!3d19.0969176!4d78.3481556!16s%2Fg%2F11ddxp28l8!19sChIJoZYel3mMzTsRSbumZv7w_hY?authuser=0&hl=en&rclk=1,"19.096917599999998,78.3481556"
Masjid E Saad,Mosque,"Masjid E Saad, Bail Bazar Rd, Naidiwada, Nirmal, Gajulpet, Telangana 504106",Naidiwada,Bail Bazar Rd,"Nirmal, Gajulpet",504106,Telangana,IN,https://www.google.com/maps/place/Masjid+E+Saad/data=!4m7!3m6!1s0x3bcd8b82f6becb3b:0x42b1513e084204aa!8m2!3d19.110158!4d78.3405581!16s%2Fg%2F11d_25gpf0!19sChIJO8u-9oKLzTsRqgRCCD5RsUI?authuser=0&hl=en&rclk=1,"19.110158,78.3405581"
Jama Masjid,Mosque,"3CP2+VC4 Jama Masjid, Ratnapurkandla, Telangana 504106",,3CP2+VC4,Ratnapurkandla,504106,Telangana,IN,https://www.google.com/maps/place/Jama+Masjid/data=!4m7!3m6!1s0x3bcd8f4bdaaf8ff7:0x7e6311228e965496!8m2!3d19.0871397!4d78.4010718!16s%2Fg%2F11gjs05kwn!19sChIJ94-v2kuPzTsRllSWjiIRY34?authuser=0&hl=en&rclk=1,"19.087139699999998,78.4010718"
jama masjid,Mosque,"4556+99V jama masjid, Narsapur, Telangana 504104",,4556+99V,Narsapur,504104,Telangana,IN,https://www.google.com/maps/place/jama+masjid/data=!4m7!3m6!1s0x3bcdf6debe130ce1:0x496ea4eb093e0f95!8m2!3d19.1084754!4d78.1609358!16s%2Fg%2F11dymkzz5r!19sChIJ4QwTvt72zTsRlQ8-Ceukbkk?authuser=0&hl=en&rclk=1,"19.1084754,78.16093579999999"
Jaama Masjid Kanjar,Mosque,"3756+GV6 Jaama Masjid Kanjar, Kanjar, Lingampalli, Telangana 504306",,3756+GV6,"Kanjar, Lingampalli",504306,Telangana,IN,https://www.google.com/maps/place/Jaama+Masjid+Kanjar/data=!4m7!3m6!1s0x3bcdf35773532b23:0xfc26b48181015783!8m2!3d19.0587778!4d78.2621545!16s%2Fg%2F11fhymsrwq!19sChIJIytTc1fzzTsRg1cBgYG0Jvw?authuser=0&hl=en&rclk=1,"19.058777799999998,78.2621545"
Jama Masjid Bazar Hathnoor,Mosque,"F952+7MR Jama Masjid Bazar Hathnoor, Bazarhatnoor, Telangana 504304",,F952+7MR,Bazarhatnoor,504304,Telangana,IN,https://www.google.com/maps/place/Jama+Masjid+Bazar+Hathnoor/data=!4m7!3m6!1s0x3bd26c68c7cf939b:0xc6ede85c8413c632!8m2!3d19.4582258!4d78.3516474!16s%2Fg%2F11gdqfb5kj!19sChIJm5PPx2hs0jsRMsYThFzo7cY?authuser=0&hl=en&rclk=1,"19.458225799999997,78.35164739999999"
JAMIA MASJID SWARNA,Mosque,"66W7+547 JAMIA MASJID SWARNA, Swarna, Ponkur, Telangana 504323",,66W7+547,"Swarna, Ponkur",504323,Telangana,IN,https://www.google.com/maps/place/JAMIA+MASJID+SWARNA/data=!4m7!3m6!1s0x3bd20b6c6efd2209:0x46d6150156f25bd5!8m2!3d19.2454192!4d78.2127894!16s%2Fg%2F11f5t_lvnx!19sChIJCSL9bmwL0jsR1VvyVgEV1kY?authuser=0&hl=en&rclk=1,"19.2454192,78.21278939999999"
MASJID=E=SAMAD,Mosque,"38HM+G5M MASJID=E=SAMAD, Hufaaz nagar, Nirmal, Telangana 504106",Hufaaz nagar,38HM+G5M,Nirmal,,Telangana,IN,https://www.google.com/maps/place/MASJID%3DE%3DSAMAD/data=!4m7!3m6!1s0x3bcd8c8c9e48e331:0xff3b8e9d1631c776!8m2!3d19.0788383!4d78.3329139!16s%2Fg%2F11f4_h6mlx!19sChIJMeNInoyMzTsRdscxFp2OO_8?authuser=0&hl=en&rclk=1,"19.078838299999997,78.3329139"
EIDGAH JAMA MASJID SWARNA,Mosque,"EIDGAH JAMA MASJID SWARNA, Sarangapur Mandal, Ponkur, Telangana 504323",,Sarangapur Mandal,Ponkur,504323,Telangana,IN,https://www.google.com/maps/place/EIDGAH+JAMA+MASJID+SWARNA/data=!4m7!3m6!1s0x3bd20bc4554a1a21:0x8dd0f4fa4f16d3e4!8m2!3d19.2482263!4d78.2163682!16s%2Fg%2F11fy_5_fhk!19sChIJIRpKVcQL0jsR5NMWT_r00I0?authuser=0&hl=en&rclk=1,"19.2482263,78.21636819999999"
Jama Masjid E Yaseen,Mosque,"48XM+F6C Jama Masjid E Yaseen, Hanuman Temple Road, Chincholi Buzurg, Telangana 504106",,"48XM+F6C, Hanuman Temple Road",Chincholi Buzurg,504106,Telangana,IN,https://www.google.com/maps/place/Jama+Masjid+E+Yaseen/data=!4m7!3m6!1s0x3bcd8afe0a8621e5:0x8fe4dfebe2fa5c5e!8m2!3d19.148678!4d78.3330188!16s%2Fg%2F11f2wfb5z6!19sChIJ5SGGCv6KzTsRXlz64uvf5I8?authuser=0&hl=en&rclk=1,"19.148678,78.33301879999999"
ISLAMIA MASJID,Mosque,"33P9+Q3G ISLAMIA MASJID, Unnamed Road, Pendapalle, Telangana 504109",,"33P9+Q3G, Unnamed Road",Pendapalle,504109,Telangana,IN,https://www.google.com/maps/place/ISLAMIA+MASJID/data=!4m7!3m6!1s0x3bcdf9a84cf030af:0x3505c992c42fe512!8m2!3d19.0869441!4d78.0677168!16s%2Fg%2F11h1lsvqdn!19sChIJrzDwTKj5zTsREuUvxJLJBTU?authuser=0&hl=en&rclk=1,"19.0869441,78.0677168"
Macca Masjid,Mosque,"39G5+MMQ Macca Masjid, Shanthi Nagar Rd, Shanthinagar, Nirmal, Venkatapur Rural, Telangana 504105",Shanthinagar,"39G5+MMQ, Shanthi Nagar Rd","Nirmal, Venkatapur Rural",504105,Telangana,IN,https://www.google.com/maps/place/Macca+Masjid/data=!4m7!3m6!1s0x3bcd8db23dfdf8ed:0xe146a9cb766c453d!8m2!3d19.0767234!4d78.3592417!16s%2Fg%2F11h5lk1kll!19sChIJ7fj9PbKNzTsRPUVsdsupRuE?authuser=0&hl=en&rclk=1,"19.0767234,78.3592417"
munnuur kaapu sNghN baagulvaadd,Community garden,"38WW+3WM munnuur kaapu sNghN baagulvaadd, Indira Nagar Road, Indira Nagar, Nirmal, Telangana 504106",Indira Nagar,"38WW+3WM, Indira Nagar Road",Nirmal,504106,Telangana,IN,https://www.google.com/maps/place/%E0%B0%AE%E0%B1%81%E0%B0%A8%E0%B1%8D%E0%B0%A8%E0%B1%82%E0%B0%B0%E0%B1%8D+%E0%B0%95%E0%B0%BE%E0%B0%AA%E0%B1%81+%E0%B0%B8%E0%B0%82%E0%B0%98%E0%B0%82+%E0%B0%AC%E0%B0%BE%E0%B0%97%E0%B1%81%E0%B0%B2%E0%B0%B5%E0%B0%BE%E0%B0%A1/data=!4m7!3m6!1s0x3bcd8c7a2cb9f6a1:0x3de8697c2fc65b61!8m2!3d19.095221!4d78.347291!16s%2Fg%2F11f30wc1c_!19sChIJofa5LHqMzTsRYVvGL3xp6D0?authuser=0&hl=en&rclk=1,"19.095221,78.347291"
Jama Masjid,Mosque,"36QG+MQ8 Jama Masjid, Dilawarpur, Telangana 504306",,36QG+MQ8,Dilawarpur,504306,Telangana,IN,https://www.google.com/maps/place/Jama+Masjid/data=!4m7!3m6!1s0x3bcdf38b6d895ff3:0xfb92232411ea544f!8m2!3d19.0891544!4d78.2269668!16s%2Fg%2F11g7cxjty8!19sChIJ81-JbYvzzTsRT1TqESQjkvs?authuser=0&hl=en&rclk=1,"19.089154399999998,78.2269668"
Bilal Rz Masjid,Mosque,"29C7+8C3 Bilal Rz Masjid, Gamjal, Telangana 504105",,29C7+8C3,Gamjal,504105,Telangana,IN,https://www.google.com/maps/place/Bilal+Rz+Masjid/data=!4m7!3m6!1s0x3bcd8dfd5e8bef41:0x90088cf3276a00b4!8m2!3d19.0207686!4d78.3635425!16s%2Fg%2F11g1dywtz6!19sChIJQe-LXv2NzTsRtABqJ_OMCJA?authuser=0&hl=en&rclk=1,"19.0207686,78.3635425"
"Jama Masjid, Muktapur",Mosque,"3C62+Q28 Jama Masjid, Muktapur, Muktapur, Telangana 504106",,3C62+Q28,Muktapur,,Telangana,IN,"https://www.google.com/maps/place/Jama+Masjid,+Muktapur/data=!4m7!3m6!1s0x3bcd8f9258c7c083:0x2f260bf9d293a969!8m2!3d19.0619098!4d78.4000766!16s%2Fg%2F11g1lsp89d!19sChIJg8DHWJKPzTsRaamT0vkLJi8?authuser=0&hl=en&rclk=1","19.0619098,78.40007659999999"
New Masjid,Mosque,"4536+837 New Masjid, Narsapur, Telangana 504104",,4536+837,Narsapur,504104,Telangana,IN,https://www.google.com/maps/place/New+Masjid/data=!4m7!3m6!1s0x3bcdf6d9badf7107:0x959db33fe812bc3a!8m2!3d19.1032998!4d78.1601806!16s%2Fg%2F11dyqr83fc!19sChIJB3Hfutn2zTsROrwS6D-znZU?authuser=0&hl=en&rclk=1,"19.1032998,78.16018059999999"
NO 4 HANUMAN TEMPLE BUDHAWARPET,Hindu temple,"483V+665 NO 4 HANUMAN TEMPLE BUDHAWARPET, Budhwarpet Rd, Gandhi Nagar Colony, Nirmal, Telangana 504106",Gandhi Nagar Colony,"483V+665, Budhwarpet Rd",Nirmal,504106,Telangana,IN,https://www.google.com/maps/place/NO+4+HANUMAN+TEMPLE+BUDHAWARPET/data=!4m7!3m6!1s0x3bcd8b80c2711393:0x4254bce846b692a9!8m2!3d19.1030161!4d78.3431191!16s%2Fg%2F12hkz807n!19sChIJkxNxwoCLzTsRqZK2Rui8VEI?authuser=0&hl=en&rclk=1,"19.103016099999998,78.3431191"
"jama masjid,temburni",Mosque,"35FQ+GJ7 jama masjid,temburni, Temborni, Telangana 504306",,35FQ+GJ7,Temborni,504306,Telangana,IN,"https://www.google.com/maps/place/jama+masjid,temburni/data=!4m7!3m6!1s0x3bcdf143602b1c57:0x1b94be4d9345b7c4!8m2!3d19.0737876!4d78.1890329!16s%2Fg%2F11hc_7v5pb!19sChIJVxwrYEPxzTsRxLdFk02-lBs?authuser=0&hl=en&rclk=1","19.0737876,78.1890329"
Zakariya Masjid,Mosque,"39W2+36R Zakariya Masjid, Unnamed Road, Nirmal, Telangana 504106",,"39W2+36R, Unnamed Road",Nirmal,504106,Telangana,IN,https://www.google.com/maps/place/Zakariya+Masjid/data=!4m7!3m6!1s0x3bcd8c70af3e69d3:0x5bd0199c0b37c400!8m2!3d19.0952397!4d78.3505245!16s%2Fg%2F11gg94g7gs!19sChIJ02k-r3CMzTsRAMQ3C5wZ0Fs?authuser=0&hl=en&rclk=1,"19.0952397,78.35052449999999"
"Masjid e maulana ,maulana nagar",Mosque,"72F2+24 Masjid e maulana ,maulana nagar, Brahmeswar, Telangana 504103",,72F2+24,Brahmeswar,,Telangana,IN,"https://www.google.com/maps/place/Masjid+e+maulana+,maulana+nagar/data=!4m7!3m6!1s0x3bd203a724388b9d:0x21f1cb8ff5f02f1d!8m2!3d19.2725064!4d78.000345!16s%2Fg%2F11pvfzpyn7!19sChIJnYs4JKcD0jsRHS_w9Y_L8SE?authuser=0&hl=en&rclk=1","19.272506399999997,78.000345"
masjid maryam,Mosque,"8C23+XWH masjid maryam, Neradigonda 2, Telangana 504323",,8C23+XWH,Neradigonda 2,504323,Telangana,IN,https://www.google.com/maps/place/masjid+maryam/data=!4m7!3m6!1s0x3bd27148448e1f3b:0x3791c6c4bb7c37e7!8m2!3d19.3024304!4d78.404857!16s%2Fg%2F11c5rmjfg4!19sChIJOx-OREhx0jsR5zd8u8TGkTc?authuser=0&hl=en&rclk=1,"19.3024304,78.40485699999999"
masjid E Osmania,Mosque,"484V+CR6 masjid E Osmania, Kabutar Kaman, Pinjari Gutta, Nirmal, Telangana 504106",Pinjari Gutta,"484V+CR6, Kabutar Kaman",Nirmal,504106,Telangana,IN,https://www.google.com/maps/place/masjid+E+Osmania/data=!4m7!3m6!1s0x3bcd8b2fce0274ed:0xfcbe244bbc5ab10a!8m2!3d19.1060285!4d78.3445019!16s%2Fg%2F11fl94rxxh!19sChIJ7XQCzi-LzTsRCrFavEskvvw?authuser=0&hl=en&rclk=1,"19.1060285,78.3445019"
msjd slym,Mosque,"38WV+RVR msjd slym, Market Rd, Zohra Nagar Colony, Moghalpura, Nirmal, Telangana 504106","Zohra Nagar Colony, Moghalpura","38WV+RVR, Market Rd",Nirmal,504106,Telangana,IN,https://www.google.com/maps/place/%D9%85%D8%B3%D8%AC%D8%AF+%D8%B3%D9%84%DB%8C%D9%85%E2%80%AD/data=!4m7!3m6!1s0x3bcd8d93a5254703:0x4da948bd804a0de8!8m2!3d19.0971183!4d78.3446414!16s%2Fg%2F11ft8n_qd4!19sChIJA0clpZONzTsR6A1KgL1IqU0?authuser=0&hl=en&rclk=1,"19.097118299999998,78.3446414"
masjid,Mosque,"masjid, Telangana 504106",,,,,Telangana,IN,https://www.google.com/maps/place/masjid/data=!4m7!3m6!1s0x3bcd8b75b8dbf64b:0xa8e676776b6b44e8!8m2!3d19.1200253!4d78.336862!16s%2Fg%2F124yjm8fs!19sChIJS_bbuHWLzTsR6ERra3d25qg?authuser=0&hl=en&rclk=1,"19.1200253,78.336862"
Masjid E Vengwapet,Mosque,"48F8+H86 Masjid E Vengwapet, near, Vengwapet, Telangana",,"48F8+H86, near",Vengwapet,,Telangana,IN,https://www.google.com/maps/place/Masjid+E+Vengwapet/data=!4m7!3m6!1s0x3bcd8b26abb67a47:0xdd960d9a37ed94a!8m2!3d19.1239169!4d78.3157713!16s%2Fg%2F11f7sygp4b!19sChIJR3q2qyaLzTsRStl-o9lg2Q0?authuser=0&hl=en&rclk=1,"19.123916899999998,78.3157713"
Masjid e Gulzar Ismaily,Mosque,"Masjid e Gulzar Ismaily, indiramma gruhalu, Telangana 504106",,indiramma gruhalu,,504106,Telangana,IN,https://www.google.com/maps/place/Masjid+e+Gulzar+Ismaily/data=!4m7!3m6!1s0x3bcd8b6f9a915c21:0xc1c5df9002bf1d41!8m2!3d19.1230496!4d78.3277848!16s%2Fg%2F11qqlz3ng3!19sChIJIVyRmm-LzTsRQR2_ApDfxcE?authuser=0&hl=en&rclk=1,"19.123049599999998,78.3277848"
Masjid e Akbar Ahle Hadees Gajulpet Nirmal,Mosque,"486M+7VW Masjid e Akbar Ahle Hadees Gajulpet Nirmal, Gajulpet, Telangana 504106",,486M+7VW,Gajulpet,,Telangana,IN,https://www.google.com/maps/place/Masjid+e+Akbar+Ahle+Hadees+Gajulpet+Nirmal/data=!4m7!3m6!1s0x3bcd8b1c1132400d:0xeed8f83e6793b63c!8m2!3d19.11075!4d78.3346899!16s%2Fg%2F11sdvg_vpv!19sChIJDUAyERyLzTsRPLaTZz742O4?authuser=0&hl=en&rclk=1,"19.11075,78.3346899"
MASJID E SARWARI,Mosque,"48FJ+PHV MASJID E SARWARI, Telangana 504106",,48FJ+PHV,,504106,Telangana,IN,https://www.google.com/maps/place/MASJID+E+SARWARI/data=!4m7!3m6!1s0x3bcd8b00651e8ffd:0xa8f7ee52c6590d!8m2!3d19.1243734!4d78.3314346!16s%2Fg%2F11ry25t2vy!19sChIJ_Y8eZQCLzTsRDVnGUu73qAA?authuser=0&hl=en&rclk=1,"19.1243734,78.3314346"
Masjid e Abubakar Siddiqe Rz (Ahle Hadees),Mosque,"66W7+CXQ Masjid e Abubakar Siddiqe Rz (Ahle Hadees), Swarna, Ponkur, Telangana 504323",,66W7+CXQ,"Swarna, Ponkur",504323,Telangana,IN,https://www.google.com/maps/place/Masjid+e+Abubakar+Siddiqe+Rz+%28Ahle+Hadees%29/data=!4m7!3m6!1s0x3bd20b47175f92cd:0xcb2bb92ffbba3442!8m2!3d19.2460903!4d78.2149797!16s%2Fg%2F11s0xl6zg7!19sChIJzZJfF0cL0jsRQjS6-y-5K8s?authuser=0&hl=en&rclk=1,"19.2460903,78.2149797"
Masjid,Mosque,"575J+M85 Masjid, Rd, Boragaon, Boregaon, Telangana 504110",,"575J+M85, Rd","Boragaon, Boregaon",504110,Telangana,IN,https://www.google.com/maps/place/Masjid/data=!4m7!3m6!1s0x3bcdf5566038f497:0x4b6461d2e0d594e4!8m2!3d19.1591405!4d78.2808603!16s%2Fg%2F11r9h611j1!19sChIJl_Q4YFb1zTsR5JTV4NJhZEs?authuser=0&hl=en&rclk=1,"19.1591405,78.2808603"
Masijd,Mosque,"37RJ+GWX Masijd, Sirgapur, Telangana 504306",,37RJ+GWX,Sirgapur,504306,Telangana,IN,https://www.google.com/maps/place/Masijd/data=!4m7!3m6!1s0x3bcdf33758e9a9e3:0xdf1a41fcd63d0884!8m2!3d19.0913546!4d78.2823573!16s%2Fg%2F11ssjwr2t4!19sChIJ46npWDfzzTsRhAg91vxBGt8?authuser=0&hl=en&rclk=1,"19.0913546,78.2823573"
Jama masjid,Mosque,"Jama masjid, Mahendher fertiliser, Ola, Telangana 504109",,Mahendher fertiliser,Ola,504109,Telangana,IN,https://www.google.com/maps/place/Jama+masjid/data=!4m7!3m6!1s0x3bd207e78142f0d5:0xfe16d5ecc5fee1da!8m2!3d19.1802439!4d78.0713271!16s%2Fg%2F11fv3lytz1!19sChIJ1fBCgecH0jsR2uH-xezVFv4?authuser=0&hl=en&rclk=1,"19.1802439,78.07132709999999"
Masjid E Mohammedia,Mosque,"3F7C+F76 Masjid E Mohammedia, New Kanjar, Lakshman Chanda, Nirmal, Kotha Lingampalle (R.C), Telangana 504310","New Kanjar, Lakshman Chanda",3F7C+F76,"Nirmal, Kotha Lingampalle (R.C)",504310,Telangana,IN,https://www.google.com/maps/place/Masjid+E+Mohammedia/data=!4m7!3m6!1s0x3bcd8f014549f7a1:0x195f63566a908af2!8m2!3d19.0636637!4d78.4706476!16s%2Fg%2F11rdcq32xf!19sChIJofdJRQGPzTsR8oqQalZjXxk?authuser=0&hl=en&rclk=1,"19.0636637,78.47064759999999"
Krishna Events/Drepary,Hindu temple,"Krishna Events/Drepary, Near Hanuman Temple Rama Man deer Road , Bagulawada Ayyannagari Rajendar Home, Nirmal, Telangana 504106",Indira Nagar,"Near Hanuman Temple Rama Man deer Road , Bagulawada Ayyannagari Rajendar Home",Nirmal,504106,Telangana,IN,https://www.google.com/maps/place/Krishna+Events%2FDrepary/data=!4m7!3m6!1s0x3bcd8df86e71bbc1:0x4686d8ba591c05a!8m2!3d19.0952521!4d78.346884!16s%2Fg%2F11g0gpspmb!19sChIJwbtxbviNzTsRWsCRpYttaAQ?authuser=0&hl=en&rclk=1,"19.0952521,78.346884"
JAMA MASJID,Mosque,"9829+4GF JAMA MASJID, Boath Buzurg, Telangana 504304",,9829+4GF,Boath Buzurg,504304,Telangana,IN,https://www.google.com/maps/place/JAMA+MASJID/data=!4m7!3m6!1s0x3bd272e975f77229:0x9b59ab055d5647d2!8m2!3d19.3503023!4d78.3188004!16s%2Fg%2F11fy9g9qym!19sChIJKXL3dely0jsR0kdWXQWrWZs?authuser=0&hl=en&rclk=1,"19.3503023,78.3188004"
Hanuman Temple,Hindu temple,"38WR+7FW Hanuman Temple, Kala Nagar, Priyadarshini Nagar, Nirmal, Telangana 504106","Kala Nagar, Priyadarshini Nagar",38WR+7FW,Nirmal,504106,Telangana,IN,https://www.google.com/maps/place/Hanuman+Temple/data=!4m7!3m6!1s0x3bcd8dcbfa168dbb:0xa0253ef14e61e1a8!8m2!3d19.0957369!4d78.3412054!16s%2Fg%2F11g1drg1dk!19sChIJu40W-suNzTsRqOFhTvE-JaA?authuser=0&hl=en&rclk=1,"19.0957369,78.34120539999999"
Masjid,Place of worship,"483V+958 Masjid, Budhwarpet Rd, Pinjari Gutta, Nirmal, Telangana 504106",Pinjari Gutta,"483V+958, Budhwarpet Rd",Nirmal,504106,Telangana,IN,https://www.google.com/maps/place/Masjid/data=!4m7!3m6!1s0x3bcd8b68702e7e9f:0x35dd6a4ba8924719!8m2!3d19.1034044!4d78.3429492!16s%2Fg%2F11rc46yr5p!19sChIJn34ucGiLzTsRGUeSqEtq3TU?authuser=0&hl=en&rclk=1,"19.1034044,78.34294919999999"
MASJID- E -SIDDIQ,Mosque,"39W3+9GR MASJID- E -SIDDIQ, Moghalpura, Nirmal, Telangana 504106",Moghalpura,39W3+9GR,Nirmal,504106,Telangana,IN,https://www.google.com/maps/place/MASJID-+E+-SIDDIQ/data=!4m7!3m6!1s0x3bcd8d77ced13693:0x2b1f9d1fdf452958!8m2!3d19.0959983!4d78.3537797!16s%2Fg%2F11g1gmhbgh!19sChIJkzbRzneNzTsRWClF3x-dHys?authuser=0&hl=en&rclk=1,"19.095998299999998,78.35377969999999"
Masjid bopparam,Mosque,"2CR5+8JC Masjid bopparam, Bapparam, Telangana 504105",,2CR5+8JC,Bapparam,504105,Telangana,IN,https://www.google.com/maps/place/Masjid+bopparam/data=!4m7!3m6!1s0x3bcd8e4188f2ae39:0xc07ac5e743d80df9!8m2!3d19.0408141!4d78.4090151!16s%2Fg%2F11f00qcn5d!19sChIJOa7yiEGOzTsR-Q3YQ-fFesA?authuser=0&hl=en&rclk=1,"19.0408141,78.40901509999999"
Jafrapur masjid,Mosque,"28JX+4Q7 Jafrapur masjid, Jafrapur, Telangana 504106",,28JX+4Q7,Jafrapur,,Telangana,IN,https://www.google.com/maps/place/Jafrapur+masjid/data=!4m7!3m6!1s0x3bcd8de5f97c0a17:0x9c89c26008a467fa!8m2!3d19.0302845!4d78.349426!16s%2Fg%2F11s4h10tjl!19sChIJFwp8-eWNzTsR-mekCGDCiZw?authuser=0&hl=en&rclk=1,"19.0302845,78.349426"
Bappurchakka,Mosque,"3FJ5+GJC Bappurchakka, Arepalle, Telangana 504310",,3FJ5+GJC,Arepalle,504310,Telangana,IN,https://www.google.com/maps/place/Bappurchakka/data=!4m7!3m6!1s0x3bcd8ffb5d4c3a27:0xb441f0c3e5d2be39!8m2!3d19.0813153!4d78.4590085!16s%2Fg%2F11jbc8dgq4!19sChIJJzpMXfuPzTsROb7S5cPwQbQ?authuser=0&hl=en&rclk=1,"19.0813153,78.4590085"
Hanuman Temple,Hindu temple,"483V+FVJ Hanuman Temple, Pinjari Gutta, Nirmal, Telangana 504106",Pinjari Gutta,483V+FVJ,Nirmal,504106,Telangana,IN,https://www.google.com/maps/place/Hanuman+Temple/data=!4m7!3m6!1s0x3bcd8b872c4cce35:0x7c4593ea0a50a33a!8m2!3d19.1037017!4d78.3446328!16s%2Fg%2F11bzyplhp0!19sChIJNc5MLIeLzTsROqNQCuqTRXw?authuser=0&hl=en&rclk=1,"19.1037017,78.3446328"
Jama Masjid Pardi B,Mosque,"6XCW+6F9 Jama Masjid Pardi B, Pardi Buzurg, Telangana 504103",,6XCW+6F9,Pardi Buzurg,,Telangana,IN,https://www.google.com/maps/place/Jama+Masjid+Pardi+B/data=!4m7!3m6!1s0x3bd20148945ee801:0xd11637936393bbec!8m2!3d19.2205263!4d77.9962228!16s%2Fg%2F11fthgbfmp!19sChIJAehelEgB0jsR7LuTY5M3FtE?authuser=0&hl=en&rclk=1,"19.2205263,77.9962228"
Hanuman Temple,Hindu temple,"38XR+MW6 Hanuman Temple, Venkatadripet, Nirmal, Telangana 504106",Priyadarshini Nagar,"38XR+MW6, Venkatadripet",Nirmal,504106,Telangana,IN,https://www.google.com/maps/place/Hanuman+Temple/data=!4m7!3m6!1s0x3bcd8c7f102986c9:0x991c7f4a31f3d739!8m2!3d19.099154!4d78.3422729!16s%2Fg%2F11g8xcxw66!19sChIJyYYpEH-MzTsROdfzMUp_HJk?authuser=0&hl=en&rclk=1,"19.099154,78.3422729"
"Masjid Mohammad Osman, Nirmal",Mosque,"486M+V9M Masjid Mohammad Osman, Nirmal, Gajulpet, Telangana 504106",,486M+V9M,Gajulpet,504106,Telangana,IN,"https://www.google.com/maps/place/Masjid+Mohammad+Osman,+Nirmal/data=!4m7!3m6!1s0x3bcd8b85fd08424d:0x8490656f1497e456!8m2!3d19.1122219!4d78.3334251!16s%2Fg%2F11l8tvx7lb!19sChIJTUII_YWLzTsRVuSXFG9lkIQ?authuser=0&hl=en&rclk=1","19.112221899999998,78.3334251"
Masjid E Yahya Noor,Mosque,"48GH+8X7 Masjid E Yahya Noor, Nirmal, Telangana 504106",,48GH+8X7,Nirmal,,Telangana,IN,https://www.google.com/maps/place/Masjid+E+Yahya+Noor/data=!4m7!3m6!1s0x3bcd8bfffa3ea767:0x2953448db738086!8m2!3d19.1257808!4d78.3299118!16s%2Fg%2F11kjg_cd_k!19sChIJZ6c--v-LzTsRhoBz20g0lQI?authuser=0&hl=en&rclk=1,"19.125780799999998,78.32991179999999"
KABUTAR KAMAN,Mosque,"484V+FQM KABUTAR KAMAN, Budhwarpet, Nirmal, Telangana 504106",Budhwarpet,"484V+FQM, KABUTAR KAMAN",Nirmal,504106,Telangana,IN,https://www.google.com/maps/place/KABUTAR+KAMAN/data=!4m7!3m6!1s0x3bcd8bd5708f26cb:0x792046c333cc67b!8m2!3d19.1062005!4d78.3444343!16s%2Fg%2F11sx05gtdm!19sChIJyyaPcNWLzTsRe8Y8M2wEkgc?authuser=0&hl=en&rclk=1,"19.1062005,78.3444343"
Masjid e zohra,Mosque,"38VR+WC6 Masjid e zohra, Maternity Hospital Rd, Eidgoan, Nirmal, Telangana 504106",Eidgoan,"38VR+WC6, Maternity Hospital Rd",Nirmal,504106,Telangana,IN,https://www.google.com/maps/place/Masjid+e+zohra/data=!4m7!3m6!1s0x3bcd8dad6ff99def:0xd1220326d03e7595!8m2!3d19.0947996!4d78.3410309!16s%2Fg%2F11mtd9pbxd!19sChIJ7535b62NzTsRlXU-0CYDItE?authuser=0&hl=en&rclk=1,"19.094799599999998,78.34103089999999"
Jama Masjid,Mosque,"4733+GPV Jama Masjid, Near the Nirmal Bhainsa main Road.Mdl: Dilawarpur. Dist:, Nirmal, Telangana 504306",,"4733+GPV, Near the Nirmal Bhainsa main Road.Mdl: Dilawarpur. Dist:","Nirmal, Lolam",504306,Telangana,IN,https://www.google.com/maps/place/Jama+Masjid/data=!4m7!3m6!1s0x3bcdfff87705fb39:0xd33edc6cec828713!8m2!3d19.1038707!4d78.2542839!16s%2Fg%2F11gtdzt517!19sChIJOfsFd_j_zTsRE4eC7GzcPtM?authuser=0&hl=en&rclk=1,"19.103870699999998,78.25428389999999"
Masjid-e-ubaidullah,Mosque,"6763+MPH Masjid-e-ubaidullah, Sarangpur, Telangana 504110",,6763+MPH,Sarangpur,,Telangana,IN,https://www.google.com/maps/place/Masjid-e-ubaidullah/data=!4m7!3m6!1s0x3bd20b252120dd91:0x7c73203f3c9c251a!8m2!3d19.2116901!4d78.2543469!16s%2Fg%2F11t9pbrlmq!19sChIJkd0gISUL0jsRGiWcPD8gc3w?authuser=0&hl=en&rclk=1,"19.2116901,78.2543469"
MASJID E EIDGAON NIRMAL,Mosque,"38PV+W2C MASJID E EIDGAON NIRMAL, Unnamed Road, Natraj Nagar, Eidgoan, Nirmal, Telangana 504106","Natraj Nagar, Eidgoan","38PV+W2C, Unnamed Road",Nirmal,504106,Telangana,IN,https://www.google.com/maps/place/MASJID+E+EIDGAON+NIRMAL/data=!4m7!3m6!1s0x3bcd8c6358878827:0x9e6de3030bed805a!8m2!3d19.0873155!4d78.3425302!16s%2Fg%2F11hd07t83z!19sChIJJ4iHWGOMzTsRWoDtCwPjbZ4?authuser=0&hl=en&rclk=1,"19.0873155,78.3425302"
Imli band,Mosque,"39G3+P77 Imli band, Nirmal, Telangana 504105",,39G3+P77,Nirmal,,Telangana,IN,https://www.google.com/maps/place/Imli+band/data=!4m7!3m6!1s0x3bcd8d4ee2077133:0x67250b3aa8a34700!8m2!3d19.0767975!4d78.3531705!16s%2Fg%2F11kjgkv9wq!19sChIJM3EH4k6NzTsRAEejqDoLJWc?authuser=0&hl=en&rclk=1,"19.076797499999998,78.35317049999999"
Wadoor baba dargah,Mosque,"38PQ+VR8 Wadoor baba dargah, NH 61, Eidgoam, Nirmal, Telangana 504106",Eidgoam,"38PQ+VR8, NH 61",Nirmal,504106,Telangana,IN,https://www.google.com/maps/place/Wadoor+baba+dargah/data=!4m7!3m6!1s0x3bcd8d8814bbbc03:0x8605111567a4de7d!8m2!3d19.0872029!4d78.3397263!16s%2Fg%2F11t0pvwm4d!19sChIJA7y7FIiNzTsRfd6kZxURBYY?authuser=0&hl=en&rclk=1,"19.087202899999998,78.3397263"
Mosjid,Mosque,"57VH+C32 Mosjid, Jam, Telangana 504110",,57VH+C32,Jam,504110,Telangana,IN,https://www.google.com/maps/place/Mosjid/data=!4m7!3m6!1s0x3bd20aa71fb74d15:0xcc40be7cde396639!8m2!3d19.1935185!4d78.2776496!16s%2Fg%2F1261h6240!19sChIJFU23H6cK0jsROWY53ny-QMw?authuser=0&hl=en&rclk=1,"19.1935185,78.27764959999999"
Thimmapur masjid,Mosque,"435F+Q9G Thimmapur masjid, Unnamed Road, Thimmapur, Telangana 504109",,"435F+Q9G, Unnamed Road",Thimmapur,504109,Telangana,IN,https://www.google.com/maps/place/Thimmapur+masjid/data=!4m7!3m6!1s0x3bcdf93c28513963:0x7dcfb1f3b4f8e7af!8m2!3d19.1094489!4d78.0734603!16s%2Fg%2F11qzbkts3t!19sChIJYzlRKDz5zTsRr-f4tPOxz30?authuser=0&hl=en&rclk=1,"19.1094489,78.0734603"
"EIDGAH, NARSAPUR (G)",Mosque,"4575+M2P EIDGAH, NARSAPUR (G), Mallanna temple road, Narsapur G, Dist:Nirmal, Telangana 504104",,"4575+M2P, Mallanna temple road, Narsapur G, Dist:Nirmal",Shakapur,504104,Telangana,IN,"https://www.google.com/maps/place/EIDGAH,+NARSAPUR+%28G%29/data=!4m7!3m6!1s0x3bcdf72f7b2bd6cf:0xd8b0b0a1390199e5!8m2!3d19.1142006!4d78.1575704!16s%2Fg%2F11ffw748c1!19sChIJz9Yrey_3zTsR5ZkBOaGwsNg?authuser=0&hl=en&rclk=1","19.1142006,78.1575704"
aassir khaanaa (piirlmsiidu),Mosque,"2F98+8RG aassir khaanaa (piirlmsiidu), Laxmanchanda, Telangana 504106",,2F98+8RG,Laxmanchanda,504106,Telangana,IN,https://www.google.com/maps/place/%E0%B0%86%E0%B0%B7%E0%B0%BF%E0%B0%B0%E0%B1%8D+%E0%B0%96%E0%B0%BE%E0%B0%A8%E0%B0%BE+%28%E0%B0%AA%E0%B1%80%E0%B0%B0%E0%B1%8D%E0%B0%B2%E0%B0%AE%E0%B0%B8%E0%B1%80%E0%B0%A6%E0%B1%81%29/data=!4m7!3m6!1s0x3bcd8f798aad29d5:0x94d62f736c41fc1f!8m2!3d19.0183009!4d78.4670933!16s%2Fg%2F11ffq48s_p!19sChIJ1SmtinmPzTsRH_xBbHMv1pQ?authuser=0&hl=en&rclk=1,"19.0183009,78.4670933"
Macca masjid Kuchanpally,Mosque,"2CF2+JG3 Macca masjid Kuchanpally, Kuchanpalli, Telangana 504105",,2CF2+JG3,Kuchanpalli,504105,Telangana,IN,https://www.google.com/maps/place/Macca+masjid+Kuchanpally/data=!4m7!3m6!1s0x3bcd8fe658bca58b:0xb4e37cabb874c898!8m2!3d19.0240113!4d78.4013!16s%2Fg%2F11s5ns0f1q!19sChIJi6W8WOaPzTsRmMh0uKt847Q?authuser=0&hl=en&rclk=1,"19.024011299999998,78.40129999999999"
JAMA MASJID DONIGAON,Mosque,"55FQ+XQ JAMA MASJID DONIGAON, Kamkati, Telangana 504306",,55FQ+XQ,Kamkati,,Telangana,IN,https://www.google.com/maps/place/JAMA+MASJID+DONIGAON/data=!4m7!3m6!1s0x3bcdf7f087ac0961:0x2f00dd62ed8835bd!8m2!3d19.174912!4d78.1893461!16s%2Fg%2F11rm__366k!19sChIJYQmsh_D3zTsRvTWI7WLdAC8?authuser=0&hl=en&rclk=1,"19.174912,78.1893461"
Jama masjid,Mosque,"9C9X+FR5 Jama masjid, Mukhra-B, Telangana 504307",,9C9X+FR5,Mukhra-B,504307,Telangana,IN,https://www.google.com/maps/place/Jama+masjid/data=!4m7!3m6!1s0x3bd271baede69955:0x5d9ae47fedd0e556!8m2!3d19.3686472!4d78.4496168!16s%2Fg%2F11qb3ykyy3!19sChIJVZnm7bpx0jsRVuXQ7X_kml0?authuser=0&hl=en&rclk=1,"19.368647199999998,78.4496168"
Nagarashvara Temple,Hindu temple,"38WV+CQX Nagarashvara Temple, Zohra Nagar Colony, Bagulwada, Nirmal, Telangana 504106","Zohra Nagar Colony, Bagulwada",38WV+CQX,Nirmal,504106,Telangana,IN,https://www.google.com/maps/place/Nagarashvara+Temple/data=!4m7!3m6!1s0x3bcd8dbd9fcfe1f9:0xb115931fa2473b76!8m2!3d19.0961077!4d78.3444701!16s%2Fg%2F11g2r88b8g!19sChIJ-eHPn72NzTsRdjtHoh-TFbE?authuser=0&hl=en&rclk=1,"19.096107699999997,78.3444701"
Jamamasjid,Mosque,"7W6V+HF4 Jamamasjid, Main Road, Kubeer, Telangana 504103",,"7W6V+HF4, Main Road",Kubeer,504103,Telangana,IN,https://www.google.com/maps/place/Jamamasjid/data=!4m7!3m6!1s0x3bd201f63f663507:0xcf27423fc86287f2!8m2!3d19.2613867!4d77.943711!16s%2Fg%2F11hd6y_1v0!19sChIJBzVmP_YB0jsR8odiyD9CJ88?authuser=0&hl=en&rclk=1,"19.2613867,77.943711"
Jama masjied wadoor,Mosque,"79PG+442 Jama masjied wadoor, Wadoor, Waddur, Telangana 504323",,79PG+442,"Wadoor, Waddur",,Telangana,IN,https://www.google.com/maps/place/Jama+masjied+wadoor/data=!4m7!3m6!1s0x3bd275d4012401f3:0x4f0ecc0883bae13b!8m2!3d19.2852661!4d78.3752639!16s%2Fg%2F11rw78tvx_!19sChIJ8wEkAdR10jsRO-G6gwjMDk8?authuser=0&hl=en&rclk=1,"19.285266099999998,78.3752639"
Masjid,Mosque,"99C5+Q23 Masjid, Unnamed Road, Kouta, Telangana 504304",,"99C5+Q23, Unnamed Road",Kouta,504304,Telangana,IN,https://www.google.com/maps/place/Masjid/data=!4m7!3m6!1s0x3bd273b7fe3f089d:0x6f89811a9f3116dc!8m2!3d19.3718832!4d78.3575559!16s%2Fg%2F11rclc79ch!19sChIJnQg__rdz0jsR3BYxnxqBiW8?authuser=0&hl=en&rclk=1,"19.3718832,78.3575559"
Nilofar Manzil,Housing complex,"485P+2C7 Nilofar Manzil, Gajulpet, Telangana 504106",,485P+2C7,Gajulpet,504106,Telangana,IN,https://www.google.com/maps/place/Nilofar+Manzil/data=!4m7!3m6!1s0x3bcd8b83a6ecbf07:0x84b821e4cbe14085!8m2!3d19.1075421!4d78.3360369!16s%2Fg%2F11s8855p1_!19sChIJB7_spoOLzTsRhUDhy-QhuIQ?authuser=0&hl=en&rclk=1,"19.1075421,78.3360369"
EIDGHA,Mosque,"4437+34C EIDGHA, Arli (Khurd), Telangana 504109",,4437+34C,Arli (Khurd),504109,Telangana,IN,https://www.google.com/maps/place/EIDGHA/data=!4m7!3m6!1s0x3bcdf758c3ab01ed:0x767d10e30bd7d358!8m2!3d19.1026851!4d78.1127769!16s%2Fg%2F11f_zp24v9!19sChIJ7QGrw1j3zTsRWNPXC-MQfXY?authuser=0&hl=en&rclk=1,"19.1026851,78.1127769"
Masjid e Hameeda,Mosque,"482M+GG9 Masjid e Hameeda, BARKATHPURA ROAD, Street No. 1, opposite MASJID E HAMEEDA, Priyadarshini Nagar, Nirmal, Telangana 504106",Priyadarshini Nagar,"482M+GG9, BARKATHPURA ROAD, Street No. 1, opposite MASJID E HAMEEDA",Nirmal,504106,Telangana,IN,https://www.google.com/maps/place/Masjid+e+Hameeda/data=!4m7!3m6!1s0x3bcd8b49775a452f:0x5f7719d97ca6869b!8m2!3d19.1012795!4d78.3338439!16s%2Fg%2F11t508g8hy!19sChIJL0Vad0mLzTsRm4amfNkZd18?authuser=0&hl=en&rclk=1,"19.1012795,78.33384389999999"
Masjid E Sujath,Mosque,"38XR+3XQ Masjid E Sujath, Priyadarshini Nagar, Nirmal, Telangana 504106",Priyadarshini Nagar,38XR+3XQ,Nirmal,504106,Telangana,IN,https://www.google.com/maps/place/Masjid+E+Sujath/data=!4m7!3m6!1s0x3bcd8d0cdf8db947:0xb940a3d6fcfd8e89!8m2!3d19.097701!4d78.3424829!16s%2Fg%2F11ty07dz60!19sChIJR7mN3wyNzTsRiY79_NajQLk?authuser=0&hl=en&rclk=1,"19.097701,78.3424829"
Masjid e ek qana Ahle sunnat,Mosque,"38XW+734 Masjid e ek qana Ahle sunnat, Chinthakunta Wada, Nirmal, Telangana 504106",Chinthakunta Wada,38XW+734,Nirmal,504106,Telangana,IN,https://www.google.com/maps/place/Masjid+e+ek+qana+Ahle+sunnat/data=!4m7!3m6!1s0x3bcd8d48e5bd11d1:0x50a266eda6fe4bb8!8m2!3d19.0982132!4d78.3452555!16s%2Fg%2F11t5wcvk7p!19sChIJ0RG95UiNzTsRuEv-pu1molA?authuser=0&hl=en&rclk=1,"19.0982132,78.3452555"
Chowk Masjid,Mosque,"484W+JHJ Chowk Masjid, Budhwarpet, Nirmal, Telangana 504106",Budhwarpet,484W+JHJ,Nirmal,504106,Telangana,IN,https://www.google.com/maps/place/Chowk+Masjid/data=!4m7!3m6!1s0x3bcd8b869a815555:0x72db1297ad447e04!8m2!3d19.1065965!4d78.3463755!16s%2Fg%2F11tgg7ngf0!19sChIJVVWBmoaLzTsRBH5ErZcS23I?authuser=0&hl=en&rclk=1,"19.1065965,78.3463755"
budhwarpet,Mosque,"483X+455 budhwarpet, Besthawar Pet, Brahmapuri, Nirmal, Telangana 504106","Besthawar Pet, Brahmapuri",483X+455,Nirmal,504106,Telangana,IN,https://www.google.com/maps/place/budhwarpet/data=!4m7!3m6!1s0x3bcd8bfb66f83783:0x717d61d1e9109098!8m2!3d19.1027657!4d78.3479759!16s%2Fg%2F11q4d6wx1y!19sChIJgzf4ZvuLzTsRmJAQ6dFhfXE?authuser=0&hl=en&rclk=1,"19.1027657,78.3479759"
MASJID-E-BADAR-E-OSMAN,Mosque,"39G5+MMQ MASJID-E-BADAR-E-OSMAN, Shanthi Nagar Rd, Shanthinagar, Nirmal, Venkatapur Rural, Telangana 504105",Shanthinagar,"39G5+MMQ, Shanthi Nagar Rd","Nirmal, Venkatapur Rural",504105,Telangana,IN,https://www.google.com/maps/place/MASJID-E-BADAR-E-OSMAN/data=!4m7!3m6!1s0x3bcd8ddf2947d8cf:0xbd62b8ccb8ea1745!8m2!3d19.0767226!4d78.3592358!16s%2Fg%2F11s8wxfjxv!19sChIJz9hHKd-NzTsRRRfquMy4Yr0?authuser=0&hl=en&rclk=1,"19.0767226,78.3592358"
Moti Masjid,Mosque,"38VX+Q23 Moti Masjid, Indira Nagar, Nirmal, Telangana 504106",Indira Nagar,38VX+Q23,Nirmal,504106,Telangana,IN,https://www.google.com/maps/place/Moti+Masjid/data=!4m7!3m6!1s0x3bcd8d81de0afe73:0xc3d36cad8b842584!8m2!3d19.094332!4d78.3485079!16s%2Fg%2F11tdc428l8!19sChIJc_4K3oGNzTsRhCWEi61s08M?authuser=0&hl=en&rclk=1,"19.094331999999998,78.3485079"
Muslim Grave Yard,Mosque,"48HP+C49 Muslim Grave Yard, Nirmal Rd, Telangana 504106",,"48HP+C49, Nirmal Rd",,504106,Telangana,IN,https://www.google.com/maps/place/Muslim+Grave+Yard/data=!4m7!3m6!1s0x3bcd8bd971e07cef:0x53003ac4c82628a3!8m2!3d19.1285475!4d78.3353687!16s%2Fg%2F11s0wn1j3y!19sChIJ73zgcdmLzTsRoygmyMQ6AFM?authuser=0&hl=en&rclk=1,"19.1285475,78.33536869999999"
Masjid E Anisa Rehman,Mosque,"38MM+H6W Masjid E Anisa Rehman, Adharsha Nagar, Nirmal, Telangana 504106",Adharsha Nagar,38MM+H6W,Nirmal,504106,Telangana,IN,https://www.google.com/maps/place/Masjid+E+Anisa+Rehman/data=!4m7!3m6!1s0x3bcd8d67f35dca5d:0xb622b1638f92c5fa!8m2!3d19.0839753!4d78.333078!16s%2Fg%2F11ty0pkpxq!19sChIJXcpd82eNzTsR-sWSj2OxIrY?authuser=0&hl=en&rclk=1,"19.0839753,78.333078"
Syed Anwar Hussain villa (house),Mosque,"38WX+V72 Syed Anwar Hussain villa (house), Bagulwada, Nirmal, Telangana 504106",Bagulwada,38WX+V72,Nirmal,504106,Telangana,IN,https://www.google.com/maps/place/Syed+Anwar+Hussain+villa+%28house%29/data=!4m7!3m6!1s0x3bcd8d59b24e7ea7:0x761d2da4070c8e2e!8m2!3d19.0971408!4d78.3481407!16s%2Fg%2F11v3mghvfr!19sChIJp35OslmNzTsRLo4MB6QtHXY?authuser=0&hl=en&rclk=1,"19.0971408,78.3481407"
Mosque,Mosque,"54G3+83C Mosque, Unnamed Road, Kuntala, Telangana 504109",,"54G3+83C, Unnamed Road",Kuntala,504109,Telangana,IN,https://www.google.com/maps/place/Mosque/data=!4m7!3m6!1s0x3bcdf9d025e5219f:0x95288131dbc628f8!8m2!3d19.1758173!4d78.1026331!16s%2Fg%2F11nn534w_k!19sChIJnyHlJdD5zTsR-CjG2zGBKJU?authuser=0&hl=en&rclk=1,"19.1758173,78.10263309999999"
Masjid E Noor,Mosque,"39C3+79P Masjid E Noor, Venkatapur Rural, Telangana 504105",,39C3+79P,Venkatapur Rural,504105,Telangana,IN,https://www.google.com/maps/place/Masjid+E+Noor/data=!4m7!3m6!1s0x3bcd8ddcb5d9d5cf:0xd152c6f472fdfbfa!8m2!3d19.0707081!4d78.3534421!16s%2Fg%2F11hv9slfb2!19sChIJz9XZtdyNzTsR-vv9cvTGUtE?authuser=0&hl=en&rclk=1,"19.070708099999997,78.3534421"
Eid-Gah Nirmal,Mosque,"38PQ+7GQ Eid-Gah Nirmal, Adharsha Nagar, Nirmal, Telangana 504106",Adharsha Nagar,38PQ+7GQ,Nirmal,504106,Telangana,IN,https://www.google.com/maps/place/Eid-Gah+Nirmal/data=!4m7!3m6!1s0x3bcd8d90b7d8d435:0x3a2ad0646c5b8835!8m2!3d19.0857081!4d78.3388489!16s%2Fg%2F11ty5vs19m!19sChIJNdTYt5CNzTsRNYhbbGTQKjo?authuser=0&hl=en&rclk=1,"19.085708099999998,78.3388489"
Boregaon masjid,Mosque,"575J+M85 Boregaon masjid, Rd, Boragaon, Boregaon, Telangana 504110",,"575J+M85, Rd","Boragaon, Boregaon",504110,Telangana,IN,https://www.google.com/maps/place/Boregaon+masjid/data=!4m7!3m6!1s0x3bcdf5a37f0f4a77:0xa7ed0f87592cc9dd!8m2!3d19.1591431!4d78.2808539!16s%2Fg%2F11nfw3wdvw!19sChIJd0oPf6P1zTsR3cksWYcP7ac?authuser=0&hl=en&rclk=1,"19.159143099999998,78.2808539"
Sofiya Mosque,Mosque,"38CX+3Q8 Sofiya Mosque, Hiderabad, Road, Nirmal, Telangana 504105",,"38CX+3Q8, Hiderabad, Road","Nirmal, Venkatapur Rural",504105,Telangana,IN,https://www.google.com/maps/place/Sofiya+Mosque/data=!4m7!3m6!1s0x3bcd8dc385d7e307:0xccf929d1913274a5!8m2!3d19.0701694!4d78.3494416!16s%2Fg%2F11f5q881pr!19sChIJB-PXhcONzTsRpXQykdEp-cw?authuser=0&hl=en&rclk=1,"19.070169399999997,78.34944159999999"
smshaanvaattik,Mosque,"539X+CCJ smshaanvaattik, adilaabaadu, Telangana 504109",,539X+CCJ,adilaabaadu,504109,Telangana,IN,https://www.google.com/maps/place/%E0%B0%B8%E0%B1%8D%E0%B0%AE%E0%B0%B6%E0%B0%BE%E0%B0%A8%E0%B0%B5%E0%B0%BE%E0%B0%9F%E0%B0%BF%E0%B0%95/data=!4m7!3m6!1s0x3bcdf97b97a183ab:0xe00cb011d279594d!8m2!3d19.1682263!4d78.0990057!16s%2Fg%2F11v5bbbfvm!19sChIJq4Ohl3v5zTsRTVl50hGwDOA?authuser=0&hl=en&rclk=1,"19.1682263,78.09900569999999"
DARGAAH HAZRAT MEER SHAA RAHMATULAH,Mosque,"489C+M7Q DARGAAH HAZRAT MEER SHAA RAHMATULAH, Vengwapet, Telangana 504106",,489C+M7Q,Vengwapet,,Telangana,IN,https://www.google.com/maps/place/DARGAAH+HAZRAT+MEER+SHAA+RAHMATULAH/data=!4m7!3m6!1s0x3bcd8be72bd4ef79:0x3dd9bbdb24acd742!8m2!3d19.1192122!4d78.3207473!16s%2Fg%2F11spxhygyw!19sChIJee_UK-eLzTsRQtesJNu72T0?authuser=0&hl=en&rclk=1,"19.1192122,78.3207473"
Eidgah Maidan,Mosque,"39G3+P6C Eidgah Maidan, Nirmal, Telangana 504105",,39G3+P6C,Nirmal,,Telangana,IN,https://www.google.com/maps/place/Eidgah+Maidan/data=!4m7!3m6!1s0x3bcd8de5e110d739:0xb7d80a9010e9a235!8m2!3d19.0768086!4d78.3530287!16s%2Fg%2F11ssvf7y9z!19sChIJOdcQ4eWNzTsRNaLpEJAK2Lc?authuser=0&hl=en&rclk=1,"19.0768086,78.3530287"
hazrath khader basha Quadri chincholi,Mosque,"56VJ+C62 hazrath khader basha Quadri chincholi, Chincholi, Telangana 504110",,56VJ+C62,Chincholi,504110,Telangana,IN,https://www.google.com/maps/place/hazrath+khader+basha+Quadri+chincholi/data=!4m7!3m6!1s0x3bd20b0ec69493f7:0x2344091ad9340cd0!8m2!3d19.1935169!4d78.230526!16s%2Fg%2F11kp_0rjxd!19sChIJ95OUxg4L0jsR0Aw02RoJRCM?authuser=0&hl=en&rclk=1,"19.1935169,78.230526"
Jama Masjid Limba,Mosque,"523V+7F2 Jama Masjid Limba, Limba Khurd, Telangana 504109",,523V+7F2,Limba Khurd,504109,Telangana,IN,https://www.google.com/maps/place/Jama+Masjid+Limba/data=!4m7!3m6!1s0x3bcdf91c30be5c01:0x41b0942c84df9744!8m2!3d19.1531407!4d78.0436445!16s%2Fg%2F11v9z80ywd!19sChIJAVy-MBz5zTsRRJffhCyUsEE?authuser=0&hl=en&rclk=1,"19.153140699999998,78.0436445"
JAMA MASJID,Mosque,"7567+C8R JAMA MASJID, Amalapur, Maharashtra 431803",,7567+C8R,Amalapur,431803,Maharashtra,IN,https://www.google.com/maps/place/JAMA+MASJID/data=!4m7!3m6!1s0x3bd2092178d55a79:0xbfa89a1459369698!8m2!3d19.2611077!4d78.1632587!16s%2Fg%2F11rsnzmrhp!19sChIJeVrVeCEJ0jsRmJY2WRSaqL8?authuser=0&hl=en&rclk=1,"19.2611077,78.1632587"
Masjid,Mosque,"37QX+CWH Masjid, Chityal Koutla Rd, Chityal, Telangana 504306",,"37QX+CWH, Chityal Koutla Rd",Chityal,504306,Telangana,IN,https://www.google.com/maps/place/Masjid/data=!4m7!3m6!1s0x3bcd8d133b6eb16b:0xefb97d0ff8dfe02!8m2!3d19.0885683!4d78.2998646!16s%2Fg%2F11ngpmn7g8!19sChIJa7FuOxONzTsRAv6N_9CX-w4?authuser=0&hl=en&rclk=1,"19.0885683,78.29986459999999"
MASJID,Mosque,"88VH+QXG MASJID, Boath Buzurg, Telangana 504304",,88VH+QXG,Boath Buzurg,504304,Telangana,IN,https://www.google.com/maps/place/MASJID/data=!4m7!3m6!1s0x3bd273a5ccb6c791:0xf37853e1363ccaa0!8m2!3d19.344726!4d78.330825!16s%2Fg%2F11snwzzbc5!19sChIJkce2zKVz0jsRoMo8NuFTePM?authuser=0&hl=en&rclk=1,"19.344725999999998,78.33082499999999"
Gulzar masjid,Mosque,"88W7+PVX Gulzar masjid, beside Gulzaar Masjid, Boath Buzurg, Telangana 504304",,"88W7+PVX, beside Gulzaar Masjid",Boath Buzurg,504304,Telangana,IN,https://www.google.com/maps/place/Gulzar+masjid/data=!4m7!3m6!1s0x3bd27302c48930b5:0xd6f8a49697d95467!8m2!3d19.3468045!4d78.3147885!16s%2Fg%2F11s8y5s4b7!19sChIJtTCJxAJz0jsRZ1TZl5ak-NY?authuser=0&hl=en&rclk=1,"19.346804499999998,78.31478849999999"
Eid Gah and muslim burial ground,Mosque,"F942+CJP Eid Gah and muslim burial ground, Bazarhatnoor Rd, Bazarhatnoor, Telangana 504304",,"F942+CJP, Bazarhatnoor Rd",Bazarhatnoor,504304,Telangana,IN,https://www.google.com/maps/place/Eid+Gah+and+muslim+burial+ground/data=!4m7!3m6!1s0x3bd26c68f55bd4df:0x37802d22bc216b99!8m2!3d19.4560996!4d78.3515659!16s%2Fg%2F11cmv2275y!19sChIJ39Rb9Whs0jsRmWshvCItgDc?authuser=0&hl=en&rclk=1,"19.456099599999998,78.3515659"
MASJIDE ZAHED,Mosque,"7W6W+6C8 MASJIDE ZAHED, Unnamed Road, Kubeer, Telangana 504103",,"7W6W+6C8, Unnamed Road",Kubeer,504103,Telangana,IN,https://www.google.com/maps/place/MASJIDE+ZAHED/data=!4m7!3m6!1s0x3bd201d240c1d4d9:0x9a09b54656d17b2f!8m2!3d19.2605386!4d77.9460674!16s%2Fg%2F11jfjjz3rr!19sChIJ2dTBQNIB0jsRL3vRVka1CZo?authuser=0&hl=en&rclk=1,"19.2605386,77.94606739999999"
KUSHI MOBILE WORLD,Electronics repair shop,"KUSHI MOBILE WORLD, Old Bus Stand Road, beside Jama Masjid, Pinjari Gutta, Nirmal, Telangana 504106",Pinjari Gutta,"Old Bus Stand Road, beside Jama Masjid",Nirmal,504106,Telangana,IN,https://www.google.com/maps/place/KUSHI+MOBILE+WORLD/data=!4m7!3m6!1s0x3bcd8dfc4b3b29db:0xe89097b6bbdc5287!8m2!3d19.100341!4d78.3436205!16s%2Fg%2F11v3tnv48d!19sChIJ2yk7S_yNzTsRh1Lcu7aXkOg?authuser=0&hl=en&rclk=1,"19.100341,78.3436205"
"Quikprint, Dabang Sahafat",Invitation printing service,"Quikprint, Dabang Sahafat, Jama masjid Complex, opp:New bus stand NIRMAL",Gandhi Nagar Colony,"Jama masjid Complex, opp:New bus stand NIRMAL",Nirmal,,Telangana,IN,"https://www.google.com/maps/place/Quikprint,+Dabang+Sahafat/data=!4m7!3m6!1s0x3bcd8c7f6e20fce5:0x301421ea865a253e!8m2!3d19.1001979!4d78.3422736!16s%2Fg%2F11bwyw8f1r!19sChIJ5fwgbn-MzTsRPiVahuohFDA?authuser=0&hl=en&rclk=1","19.100197899999998,78.3422736"
