name,main_category,address,address_ward,address_street,address_city,address_postal_code,address_state,address_country_code,link,coordinates
Jama Masjid,Mosque,"MGGQ+F5Q Jama Masjid, Jama Masjid Rd, Mahalaxmiwada, Adilabad, Telangana 504001",Mahalaxmiwada,"MGGQ+F5Q, Jama Masjid Rd",Adilabad,504001,Telangana,IN,https://www.google.com/maps/place/Jama+Masjid/data=!4m7!3m6!1s0x3bd25c75f87e8a01:0x25a95ee1fbab37d0!8m2!3d19.6762137!4d78.5379985!16s%2Fg%2F1tlqnfwv!19sChIJAYp--HVc0jsR0Der--FeqSU?authuser=0&hl=en&rclk=1,"19.676213699999998,78.5379985"
Gulzaar Masjid,Mosque,"MGCR+66Q Gulzaar Masjid, Bokkalguda St, Brahmanwadi, Adilabad, Telangana 504001",Brahmanwadi,"MGCR+66Q, Bokkalguda St",Adilabad,504001,Telangana,IN,https://www.google.com/maps/place/Gulzaar+Masjid/data=!4m7!3m6!1s0x3bd25c7477d00337:0x3dc61fe7489f62b1!8m2!3d19.6704596!4d78.5395986!16s%2Fg%2F1tcz6sjz!19sChIJNwPQd3Rc0jsRsWKfSOcfxj0?authuser=0&hl=en&rclk=1,"19.670459599999997,78.53959859999999"
Masjid e Noor Khursheed Nagar,Mosque,"Masjid e Noor Khursheed Nagar, khursheed Nagar, Adilabad, Telangana 504001",khursheed Nagar,,Adilabad,,Telangana,IN,https://www.google.com/maps/place/Masjid+e+Noor+Khursheed+Nagar/data=!4m7!3m6!1s0x3bd25b7f77891187:0xd64d9d2522c68201!8m2!3d19.6780656!4d78.5199255!16s%2Fg%2F1pp2x6dd1!19sChIJhxGJd39b0jsRAYLGIiWdTdY?authuser=0&hl=en&rclk=1,"19.6780656,78.5199255"
Masjid E Firdous,Mosque,"Masjid E Firdous, Utukur, Lakshettipet, Telangana 504215",,,"Utukur, Lakshettipet",,Telangana,IN,https://www.google.com/maps/place/Masjid+E+Firdous/data=!4m7!3m6!1s0x3bcd480ee90e2c3f:0xfcd8f71cabc7c5c8!8m2!3d18.8884431!4d79.2072006!16s%2Fg%2F1td5721r!19sChIJPywO6Q5IzTsRyMXHqxz32Pw?authuser=0&hl=en&rclk=1,"18.8884431,79.2072006"
Madeena Masjid,Mosque,"V6P3+8XJ Madeena Masjid, Unnamed Road, Lakshettipet, Utukur, Telangana 504215",,"V6P3+8XJ, Unnamed Road","Lakshettipet, Utukur",504215,Telangana,IN,https://www.google.com/maps/place/Madeena+Masjid/data=!4m7!3m6!1s0x3bcd4808b8069611:0xa08757891f8dc24f!8m2!3d18.8858394!4d79.2049032!16s%2Fg%2F11h9rd_j48!19sChIJEZYGuAhIzTsRT8KNH4lXh6A?authuser=0&hl=en&rclk=1,"18.8858394,79.20490319999999"
Jaame Masjid,Mosque,"22MM+M88 Jaame Masjid, Donthapur, Telangana 505425",,22MM+M88,Donthapur,505425,Telangana,IN,https://www.google.com/maps/place/Jaame+Masjid/data=!4m7!3m6!1s0x3bcd42bb0af194e7:0x637d967f2a20d1f7!8m2!3d19.0341733!4d79.0333137!16s%2Fg%2F11bx1hgl96!19sChIJ55TxCrtCzTsR99EgKn-WfWM?authuser=0&hl=en&rclk=1,"19.0341733,79.0333137"
Masjid E Aqsa,Mosque,"V6M3+CQ7 Masjid E Aqsa, Godavari Rd, Luxettipet, Utukur, Telangana 504215",,"V6M3+CQ7, Godavari Rd","Luxettipet, Utukur",504215,Telangana,IN,https://www.google.com/maps/place/Masjid+E+Aqsa/data=!4m7!3m6!1s0x3bcd4806170503ff:0x41898622cf17800e!8m2!3d18.8835328!4d79.204429!16s%2Fg%2F11dx9f8k5s!19sChIJ_wMFFwZIzTsRDoAXzyKGiUE?authuser=0&hl=en&rclk=1,"18.883532799999998,79.20442899999999"
MASJID,Mosque,"P5MR+3P9 MASJID, Dharmaram, Telangana 505416",,P5MR+3P9,Dharmaram,505416,Telangana,IN,https://www.google.com/maps/place/MASJID/data=!4m7!3m6!1s0x3bcd3a7d9f48ae57:0x86d0cdc6ca2be587!8m2!3d18.7326632!4d79.1918711!16s%2Fg%2F11c1tyx563!19sChIJV65In306zTsRh-UrysbN0IY?authuser=0&hl=en&rclk=1,"18.732663199999998,79.1918711"
Mosque CKDR,Mosque,"R32W+GGP Mosque CKDR, Chilvakodur, Telangana 505532",,R32W+GGP,Chilvakodur,505532,Telangana,IN,https://www.google.com/maps/place/Mosque+CKDR/data=!4m7!3m6!1s0x3bcd3f73b2e10561:0xb05753a7af11049e!8m2!3d18.8013409!4d79.0963389!16s%2Fg%2F11gm8p209y!19sChIJYQXhsnM_zTsRngQRr6dTV7A?authuser=0&hl=en&rclk=1,"18.8013409,79.09633889999999"
Mosque,Mosque,"X52G+R6F Mosque, Mutyampet, Telangana 504206",,X52G+R6F,Mutyampet,504206,Telangana,IN,https://www.google.com/maps/place/Mosque/data=!4m7!3m6!1s0x3bcd466d6eedd661:0x2921ef9d1613e136!8m2!3d18.9520508!4d79.1755405!16s%2Fg%2F11ddxvk81c!19sChIJYdbtbm1GzTsRNuETFp3vISk?authuser=0&hl=en&rclk=1,"18.9520508,79.1755405"
Masjid,Mosque,"Masjid, Masjid Area, Allipur, Telangana 505460",Masjid Area,,Allipur,505460,Telangana,IN,https://www.google.com/maps/place/Masjid/data=!4m7!3m6!1s0x3bcd6d2e36a3f90b:0x2b14f3eb5563439d!8m2!3d18.861378!4d78.8733175!16s%2Fg%2F1pp2tx0rj!19sChIJC_mjNi5tzTsRnUNjVevzFCs?authuser=0&hl=en&rclk=1,"18.861378,78.8733175"
EidGah Donthapur,Mosque,"22HH+393 EidGah Donthapur, Telangana 505454",,22HH+393,,505454,Telangana,IN,https://www.google.com/maps/place/EidGah+Donthapur/data=!4m7!3m6!1s0x3bcd42a2d1c7d42b:0xca626dc30ee13ca9!8m2!3d19.027628!4d79.0284177!16s%2Fg%2F11g9vmb82t!19sChIJK9TH0aJCzTsRqTzhDsNtYso?authuser=0&hl=en&rclk=1,"19.027628,79.02841769999999"
Masjid-E-Mohammadiya,Mosque,"Masjid-E-Mohammadiya, 1, Nirmal - Mancherial Rd, Jannaram, Telangana 504205",,"1, Nirmal - Mancherial Rd",Jannaram,504205,Telangana,IN,https://www.google.com/maps/place/Masjid-E-Mohammadiya/data=!4m7!3m6!1s0x3bcd673fccaa4f81:0xf85ddfa7fa77cdbb!8m2!3d19.1192404!4d78.9938765!16s%2Fg%2F11byvwzk4r!19sChIJgU-qzD9nzTsRu813-qffXfg?authuser=0&hl=en&rclk=1,"19.1192404,78.9938765"
Katkapur Mosque (kttkaapuur msiidu),Mosque,"XVVG+5RF Katkapur Mosque (kttkaapuur msiidu), near pond ( ceruvu dggr, Katkapur, Telangana 505460",,"XVVG+5RF, near pond ( ceruvu dggr",Katkapur,505460,Telangana,IN,https://www.google.com/maps/place/Katkapur+Mosque+%28%E0%B0%95%E0%B0%9F%E0%B1%8D%E0%B0%95%E0%B0%BE%E0%B0%AA%E0%B1%82%E0%B0%B0%E0%B1%8D+%E0%B0%AE%E0%B0%B8%E0%B1%80%E0%B0%A6%E0%B1%81%29/data=!4m7!3m6!1s0x3bcd6fb4c94e53ab:0xa93ccc3c7b6ec293!8m2!3d18.9894705!4d78.8750372!16s%2Fg%2F11fhr7tfd0!19sChIJq1NOybRvzTsRk8JuezzMPKk?authuser=0&hl=en&rclk=1,"18.9894705,78.8750372"
Veerapur Mosque ( Masjid ),Mosque,"Veerapur Mosque ( Masjid ), Veerapur, Telangana 505460",,,Veerapur,,Telangana,IN,https://www.google.com/maps/place/Veerapur+Mosque+%28+Masjid+%29/data=!4m7!3m6!1s0x3bcd6d9200071201:0x301f751968b31cdf!8m2!3d18.9160391!4d78.8495851!16s%2Fg%2F1pp2twn2b!19sChIJARIHAJJtzTsR3xyzaBl1HzA?authuser=0&hl=en&rclk=1,"18.9160391,78.8495851"
Mosque,Mosque,"Mosque, Devapur, Telangana 504218",,,Devapur,,Telangana,IN,https://www.google.com/maps/place/Mosque/data=!4m7!3m6!1s0x3bcd4d17c2ad90f3:0xab9c721020869a11!8m2!3d19.0355273!4d79.3571019!16s%2Fg%2F1tfzqcm7!19sChIJ85CtwhdNzTsREZqGIBBynKs?authuser=0&hl=en&rclk=1,"19.0355273,79.35710189999999"
Masjid E Ayesha,Mosque,"V6H2+8JM Masjid E Ayesha, Luxettipet, Telangana 504215",,V6H2+8JM,Luxettipet,504215,Telangana,IN,https://www.google.com/maps/place/Masjid+E+Ayesha/data=!4m7!3m6!1s0x3bcd49d98161d923:0x59d66f4dcf609572!8m2!3d18.8783282!4d79.2015539!16s%2Fg%2F11q24cd0db!19sChIJI9lhgdlJzTsRcpVgz01v1lk?authuser=0&hl=en&rclk=1,"18.8783282,79.2015539"
Masjid-e-Mahmoodunnisa,Mosque,"3435+9WM Masjid-e-Mahmoodunnisa, Thallapet, Tallapet, Telangana 504206",,3435+9WM,"Thallapet, Tallapet",504206,Telangana,IN,https://www.google.com/maps/place/Masjid-e-Mahmoodunnisa/data=!4m7!3m6!1s0x3bcd453f06c5e385:0x8bfd0695f73e7367!8m2!3d19.0534615!4d79.1098047!16s%2Fg%2F11ghs2kky5!19sChIJhePFBj9FzTsRZ3M-95UG_Ys?authuser=0&hl=en&rclk=1,"19.053461499999997,79.1098047"
Masjid,Mosque,"P8PM+23W Masjid, Gudipadu, Telangana 505416",,P8PM+23W,Gudipadu,505416,Telangana,IN,https://www.google.com/maps/place/Masjid/data=!4m7!3m6!1s0x3bcd3255b43543df:0xcc022fc705a04fd2!8m2!3d18.7351001!4d79.3327068!16s%2Fg%2F11g690sl7v!19sChIJ30M1tFUyzTsR0k-gBccvAsw?authuser=0&hl=en&rclk=1,"18.7351001,79.3327068"
MASJID E MOHAMMADIA Lachakkapet,Mosque,"VW86+GPF MASJID E MOHAMMADIA Lachakkapet, Lachakkapet, Telangana 505529",,VW86+GPF,Lachakkapet,505529,Telangana,IN,https://www.google.com/maps/place/MASJID+E+MOHAMMADIA+Lachakkapet/data=!4m7!3m6!1s0x3bcd6d3f383d71ab:0x4c34ef7d93c9c2db!8m2!3d18.866323!4d78.9118033!16s%2Fg%2F11stj50ww5!19sChIJq3E9OD9tzTsR28LJk33vNEw?authuser=0&hl=en&rclk=1,"18.866322999999998,78.9118033"
Masjid E Safia Sulaiman,Mosque,"X32W+V9F Masjid E Safia Sulaiman, Unnamed Road, Mamidiwada, Rotte Venkamma Illu, Dharmapuri, Telangana 505425","Mamidiwada, Rotte Venkamma Illu","X32W+V9F, Unnamed Road",Dharmapuri,505425,Telangana,IN,https://www.google.com/maps/place/Masjid+E+Safia+Sulaiman/data=!4m7!3m6!1s0x3bcd419c1140ecef:0x5738f10bd92bf8d1!8m2!3d18.9521875!4d79.0959375!16s%2Fg%2F11rcrh6mgm!19sChIJ7-xAEZxBzTsR0fgr2QvxOFc?authuser=0&hl=en&rclk=1,"18.9521875,79.09593749999999"
Godishelapeta,Mosque,"Q6QP+W6X Godishelapeta, N THIRUPATHI S/o chandhraiah 1-47 Godishelpet, Godishelpet, Telangana 505526",,"Q6QP+W6X, N THIRUPATHI S/o chandhraiah 1-47 Godishelpet",Godishelpet,505526,Telangana,IN,https://www.google.com/maps/place/Godishelapeta/data=!4m7!3m6!1s0x3bcd378fb3a39375:0x460af63baaa9be14!8m2!3d18.7909335!4d79.2366283!16s%2Fg%2F11h8kyq5wd!19sChIJdZOjs483zTsRFL6pqjv2CkY?authuser=0&hl=en&rclk=1,"18.790933499999998,79.23662829999999"
Masjide Wahida Unisa,Mosque,"V3V4+QGR Masjide Wahida Unisa, Velgonda, Telangana 505454",,V3V4+QGR,Velgonda,505454,Telangana,IN,https://www.google.com/maps/place/Masjide+Wahida+Unisa/data=!4m7!3m6!1s0x3bcd405b9ee52317:0x8fb1c9f68cb284a!8m2!3d18.8944821!4d79.0562564!16s%2Fg%2F11f15dx9xq!19sChIJFyPlnltAzTsRSijLaJ8c-wg?authuser=0&hl=en&rclk=1,"18.894482099999998,79.0562564"
Jama Mosque Devapur,Mosque,"29R3+5CH Jama Mosque Devapur, Devapur, Telangana 504218",,29R3+5CH,Devapur,504218,Telangana,IN,https://www.google.com/maps/place/Jama+Mosque+Devapur/data=!4m7!3m6!1s0x3bcd4d143d51615b:0xd161b4f792ad7f92!8m2!3d19.0404421!4d79.3536248!16s%2Fg%2F11hbvtzyrz!19sChIJW2FRPRRNzTsRkn-tkve0YdE?authuser=0&hl=en&rclk=1,"19.0404421,79.35362479999999"
Masjid,Mosque,"V6MR+V66 Masjid, Ankathipally, Telangana 504215",,V6MR+V66,Ankathipally,504215,Telangana,IN,https://www.google.com/maps/place/Masjid/data=!4m7!3m6!1s0x3bcd49bdc216284d:0x350592a99ce08e14!8m2!3d18.8846738!4d79.2405227!16s%2Fg%2F11h2hhxpqs!19sChIJTSgWwr1JzTsRFI7gnKmSBTU?authuser=0&hl=en&rclk=1,"18.884673799999998,79.2405227"
Masjid-e-Abdullah,Mosque,"3XR2+J23 Masjid-e-Abdullah, Jannaram - Kalamadugu Rd, Kalmadagu, Telangana 504205",,"3XR2+J23, Jannaram - Kalamadugu Rd",Kalmadagu,504205,Telangana,IN,https://www.google.com/maps/place/Masjid-e-Abdullah/data=!4m7!3m6!1s0x3bcd6660227f8177:0xe67839b827ba0ea4!8m2!3d19.0915155!4d78.9500358!16s%2Fg%2F11hbc1vfry!19sChIJd4F_ImBmzTsRpA66J7g5eOY?authuser=0&hl=en&rclk=1,"19.0915155,78.9500358"
Peerila Masjid,Mosque,"W3XW+8M8 Peerila Masjid, Dharmapuri, Telangana 505425",,W3XW+8M8,Dharmapuri,505425,Telangana,IN,https://www.google.com/maps/place/Peerila+Masjid/data=!4m7!3m6!1s0x3bcd41453495526d:0xd1b992ce8abbbd59!8m2!3d18.9482959!4d79.0967184!16s%2Fg%2F124t1g8cl!19sChIJbVKVNEVBzTsRWb27is6SudE?authuser=0&hl=en&rclk=1,"18.948295899999998,79.0967184"
Jama masjid Rapalli,Mosque,"V86F+95C Jama masjid Rapalli, Rapalli, Telangana 504209",,V86F+95C,Rapalli,,Telangana,IN,https://www.google.com/maps/place/Jama+masjid+Rapalli/data=!4m7!3m6!1s0x3bcd35a9ffe4bf57:0xce3045d1fdb31cb6!8m2!3d18.8609432!4d79.3228935!16s%2Fg%2F11llcjc3mt!19sChIJV7_k_6k1zTsRthyz_dFFMM4?authuser=0&hl=en&rclk=1,"18.860943199999998,79.32289349999999"
Masjid E Imam E Azam,Mosque,"2X2W+9H6 Masjid E Imam E Azam, Narsimlapalli, Telangana 505454",,2X2W+9H6,Narsimlapalli,505454,Telangana,IN,https://www.google.com/maps/place/Masjid+E+Imam+E+Azam/data=!4m7!3m6!1s0x3bcd6995d28d15b7:0xa8b1ff9dca1baa19!8m2!3d19.0009086!4d78.9963954!16s%2Fg%2F11j8hxt2lz!19sChIJtxWN0pVpzTsRGaobyp3_sag?authuser=0&hl=en&rclk=1,"19.0009086,78.9963954"
Masjid-e-Muhammadia. (msjd mHmdyh),Mosque,"R2WR+89P Masjid-e-Muhammadia. (msjd mHmdyh), Jagtial, Telangana 505454",,R2WR+89P,Jagtial,505454,Telangana,IN,https://www.google.com/maps/place/Masjid-e-Muhammadia.+%28%D9%85%D8%B3%D8%AC%D8%AF+%D9%85%D8%AD%D9%85%D8%AF%DB%8C%DB%81%29%E2%80%AD/data=!4m7!3m6!1s0x3bcd3feca676a9c5:0x8247b254cadb688b!8m2!3d18.8458253!4d79.0409409!16s%2Fg%2F11g65by1s3!19sChIJxal2puw_zTsRi2jbylSyR4I?authuser=0&hl=en&rclk=1,"18.845825299999998,79.0409409"
Khankha e mohammadi luxettipet,Mosque,"V6G2+MFW Khankha e mohammadi luxettipet, Unnamed Road, Luxettipet, Telangana 504215",,"V6G2+MFW, Unnamed Road",Luxettipet,504215,Telangana,IN,https://www.google.com/maps/place/Khankha+e+mohammadi+luxettipet/data=!4m7!3m6!1s0x3bcd494724f49b4d:0x987539901e1b05d2!8m2!3d18.8767471!4d79.2012099!16s%2Fg%2F11nt4bv2g0!19sChIJTZv0JEdJzTsR0gUbHpA5dZg?authuser=0&hl=en&rclk=1,"18.8767471,79.2012099"
Choti Masjid,Mosque,"Choti Masjid, 1, Nirmal - Mancherial Rd, Jannaram, Telangana 504205",,"1, Nirmal - Mancherial Rd",Jannaram,504205,Telangana,IN,https://www.google.com/maps/place/Choti+Masjid/data=!4m7!3m6!1s0x3bcd673e34ac2f77:0xc32f71faf30d7a5f!8m2!3d19.1184965!4d78.9931769!16s%2Fg%2F11bw5mbvt0!19sChIJdy-sND5nzTsRX3oN8_pxL8M?authuser=0&hl=en&rclk=1,"19.1184965,78.9931769"
Masjid e Amina Abdullah Rashod,Mosque,"X5W3+5FW Masjid e Amina Abdullah Rashod, bolishetty rajanna mro office, Dantepally, Telangana 504206",,"X5W3+5FW, bolishetty rajanna mro office",Dantepally,504206,Telangana,IN,https://www.google.com/maps/place/Masjid+e+Amina+Abdullah+Rashod/data=!4m7!3m6!1s0x3bcd45765b74900f:0xabe4778fa50cba8c!8m2!3d18.9954814!4d79.1537153!16s%2Fg%2F11n25bc1t1!19sChIJD5B0W3ZFzTsRjLoMpY935Ks?authuser=0&hl=en&rclk=1,"18.9954814,79.1537153"
"Mosque , arepalle",Mosque,"327F+R6Q Mosque , arepalle, Arepally Rd, Donthapur, Arpapalle, Telangana 505425",,"327F+R6Q, Arepally Rd","Donthapur, Arpapalle",505425,Telangana,IN,"https://www.google.com/maps/place/Mosque+,+arepalle/data=!4m7!3m6!1s0x3bcd5d8dd8a2592b:0x800db10c518ef6fa!8m2!3d19.0645903!4d79.0231206!16s%2Fg%2F11qg18z79k!19sChIJK1mi2I1dzTsR-vaOUQyxDYA?authuser=0&hl=en&rclk=1","19.0645903,79.0231206"
Masjid-e-Quba msjd qb (Syed Sufiyan),Mosque,"Masjid-e-Quba msjd qb (Syed Sufiyan), Vill:Yeshwanthraopet, Mdl:Buggaram, Dist:Jagtial Telangana,India 505454 Contact No:, 7893533269",,"Vill:Yeshwanthraopet, Mdl:Buggaram, Dist:Jagtial Telangana,India 505454 Contact No:",,7893533269,Telangana,IN,https://www.google.com/maps/place/Masjid-e-Quba+%D9%85%D8%B3%D8%AC%D8%AF+%D9%82%D8%A8%D8%A7%D8%A1+%28Syed+Sufiyan%29%E2%80%AD/data=!4m7!3m6!1s0x3bcd3f80eeda3bc1:0xcee56794071ae297!8m2!3d18.845809!4d79.04107!16s%2Fg%2F11h554__jv!19sChIJwTva7oA_zTsRl-IaB5Rn5c4?authuser=0&hl=en&rclk=1,"18.845809,79.04106999999999"
MASJID- E- HUDA,Mosque,"V994+7H7 MASJID- E- HUDA, Gudipet, Telangana 504209",,V994+7H7,Gudipet,504209,Telangana,IN,https://www.google.com/maps/place/MASJID-+E-+HUDA/data=!4m7!3m6!1s0x3bcd35851ef1ea0d:0x28b2fd586b6d1379!8m2!3d18.8681534!4d79.3564285!16s%2Fg%2F11kjjp9bk1!19sChIJDerxHoU1zTsReRNta1j9sig?authuser=0&hl=en&rclk=1,"18.8681534,79.35642849999999"
MASJID -E-HUDA,Mosque,"V9C6+23C MASJID -E-HUDA, Gudipet, Telangana 504209",,V9C6+23C,Gudipet,504209,Telangana,IN,https://www.google.com/maps/place/MASJID+-E-HUDA/data=!4m7!3m6!1s0x3bcd356b38b7731f:0xc3294b0d95965bcf!8m2!3d18.8700652!4d79.3601319!16s%2Fg%2F11sstt55j6!19sChIJH3O3OGs1zTsRz1uWlQ1LKcM?authuser=0&hl=en&rclk=1,"18.8700652,79.3601319"
Masjid E Yaqub Ali,Mosque,"R83X+854 Masjid E Yaqub Ali, Potial, Telangana 505187",,R83X+854,Potial,505187,Telangana,IN,https://www.google.com/maps/place/Masjid+E+Yaqub+Ali/data=!4m7!3m6!1s0x3bcd353c84f91ed1:0x836c93a56e1d021c!8m2!3d18.8032522!4d79.3479638!16s%2Fg%2F11l2xpxbkc!19sChIJ0R75hDw1zTsRHAIdbqWTbIM?authuser=0&hl=en&rclk=1,"18.8032522,79.3479638"
Masjid,Mosque,"V7J4+GG5 Masjid, Telangana 504215",,V7J4+GG5,,504215,Telangana,IN,https://www.google.com/maps/place/Masjid/data=!4m7!3m6!1s0x3bcd4949a9bf89a1:0xfedf2abfb93c1c36!8m2!3d18.8812544!4d79.2563521!16s%2Fg%2F11rw9wcgw5!19sChIJoYm_qUlJzTsRNhw8ub8q3_4?authuser=0&hl=en&rclk=1,"18.8812544,79.2563521"
Masjid - E - Mahamaadiya,Mosque,"R5F3+635 Masjid - E - Mahamaadiya, Unnamed Road, Jagdevpet, Telangana 505526",,"R5F3+635, Unnamed Road",Jagdevpet,505526,Telangana,IN,https://www.google.com/maps/place/Masjid+-+E+-+Mahamaadiya/data=!4m7!3m6!1s0x3bcd392b8cb46fcb:0x3d2e7f72c42bba7!8m2!3d18.8230147!4d79.1527337!16s%2Fg%2F11np4sc5d4!19sChIJy2-0jCs5zTsRp7tCLPfn0gM?authuser=0&hl=en&rclk=1,"18.823014699999998,79.1527337"
Masjid_e _Alhamd,Mosque,"V223+4H2 Masjid_e _Alhamd, kalleda, Telangana 505454",,V223+4H2,kalleda,505454,Telangana,IN,https://www.google.com/maps/place/Masjid_e+_Alhamd/data=!4m7!3m6!1s0x3bcd15a70aeedd85:0x3adaf54268392f50!8m2!3d18.8502621!4d79.0038972!16s%2Fg%2F11jrjdk2rf!19sChIJhd3uCqcVzTsRUC85aEL12jo?authuser=0&hl=en&rclk=1,"18.8502621,79.0038972"
mdrs sautul khuraan v sunnh,Mosque,"R2WR+5C mdrs sautul khuraan v sunnh, Yeshwanthraopet, Telangana 505454",,R2WR+5C,Yeshwanthraopet,,Telangana,IN,https://www.google.com/maps/place/%E0%B0%AE%E0%B0%A6%E0%B1%8D%E0%B0%B0%E0%B0%B8+%E0%B0%B8%E0%B1%8C%E0%B0%A4%E0%B1%81%E0%B0%B2%E0%B1%8D+%E0%B0%96%E0%B1%81%E0%B0%B0%E0%B0%BE%E0%B0%A8%E0%B1%8D+%E0%B0%B5+%E0%B0%B8%E0%B1%81%E0%B0%A8%E0%B1%8D%E0%B0%A8%E0%B0%B9%E0%B1%8D/data=!4m7!3m6!1s0x3bcd3f97f7f128d5:0x601fa02afc2aa2c1!8m2!3d18.845426!4d79.0411076!16s%2Fg%2F11rkf1fwdg!19sChIJ1Sjx95c_zTsRwaIq_CqgH2A?authuser=0&hl=en&rclk=1,"18.845426,79.04110759999999"
MASJID E MUBARAK,Mosque,"P2J9+CQ9 MASJID E MUBARAK, Suddapally, Telangana 505452",,P2J9+CQ9,Suddapally,505452,Telangana,IN,https://www.google.com/maps/place/MASJID+E+MUBARAK/data=!4m7!3m6!1s0x3bcd3d76e7bdd319:0xae325de6eab0e215!8m2!3d18.7310498!4d79.0194722!16s%2Fg%2F11vdnvrgd0!19sChIJGdO953Y9zTsRFeKw6uZdMq4?authuser=0&hl=en&rclk=1,"18.731049799999997,79.0194722"
Eidgah Lachakkapet,Mosque,"VW65+QJR Eidgah Lachakkapet, Laxmipur, Telangana 505529",,VW65+QJR,Laxmipur,505529,Telangana,IN,https://www.google.com/maps/place/Eidgah+Lachakkapet/data=!4m7!3m6!1s0x3bcd6db11fa7a651:0x69cd98fc5e610e56!8m2!3d18.8619863!4d78.9090067!16s%2Fg%2F11h75zck1r!19sChIJUaanH7FtzTsRVg5hXvyYzWk?authuser=0&hl=en&rclk=1,"18.861986299999998,78.90900669999999"
"jmaa mjid raaplli, haajipuur",Mosque,"V86F+852 jmaa mjid raaplli, haajipuur, Rapalle Main Rd, Rapalli, Telangana 504209",,"V86F+852, Rapalle Main Rd",Rapalli,504209,Telangana,IN,"https://www.google.com/maps/place/%E0%B0%9C%E0%B0%AE%E0%B0%BE+%E0%B0%AE%E0%B0%9C%E0%B0%BF%E0%B0%A6%E0%B1%8D+%E0%B0%B0%E0%B0%BE%E0%B0%AA%E0%B0%B2%E0%B1%8D%E0%B0%B2%E0%B0%BF,+%E0%B0%B9%E0%B0%BE%E0%B0%9C%E0%B0%BF%E0%B0%AA%E0%B1%82%E0%B0%B0%E0%B1%8D/data=!4m7!3m6!1s0x3bcd359f468c1c01:0xa19743b844253c65!8m2!3d18.8607686!4d79.3228892!16s%2Fg%2F11n_12hnd0!19sChIJARyMRp81zTsRZTwlRLhDl6E?authuser=0&hl=en&rclk=1","18.8607686,79.32288919999999"
Masjid,Mosque,"Q4F6+VX5 Masjid, Laxmipur, Telangana 505532",,Q4F6+VX5,Laxmipur,505532,Telangana,IN,https://www.google.com/maps/place/Masjid/data=!4m7!3m6!1s0x3bcd398cd87369e5:0xa04dc91ce91f0f04!8m2!3d18.775158!4d79.1120486!16s%2Fg%2F11k4psd7d8!19sChIJ5Wlz2Iw5zTsRBA8f6RzJTaA?authuser=0&hl=en&rclk=1,"18.775157999999998,79.1120486"
Alahamudh Masjid Of Kalleda,Place of worship,"V223+4QQ Alahamudh Masjid Of Kalleda, kalleda, Telangana 505454",,V223+4QQ,kalleda,505454,Telangana,IN,https://www.google.com/maps/place/Alahamudh+Masjid+Of+Kalleda/data=!4m7!3m6!1s0x3bcd15c20c28b203:0x59ff89d0022843a4!8m2!3d18.8503347!4d79.0044859!16s%2Fg%2F11fhwdtzpx!19sChIJA7IoDMIVzTsRpEMoAtCJ_1k?authuser=0&hl=en&rclk=1,"18.850334699999998,79.00448589999999"
Eedgaa,Mosque,"Eedgaa, Telangana 505529",,,,,Telangana,IN,https://www.google.com/maps/place/Eedgaa/data=!4m7!3m6!1s0x3bcd149582020a59:0x16749950d504da8a!8m2!3d18.8337286!4d78.9485961!16s%2Fg%2F11r8tfz20!19sChIJWQoCgpUUzTsRitoE1VCZdBY?authuser=0&hl=en&rclk=1,"18.8337286,78.9485961"
Jama Masjid 2,Mosque,"Q36J+CQ5 Jama Masjid 2, Thirmalapur (MP), Telangana 505532",,Q36J+CQ5,Thirmalapur (MP),505532,Telangana,IN,https://www.google.com/maps/place/Jama+Masjid+2/data=!4m7!3m6!1s0x3bcd3c235c78c4cd:0xde2472b5bed6f073!8m2!3d18.7610212!4d79.0819766!16s%2Fg%2F11fx8rg0kn!19sChIJzcR4XCM8zTsRc_DWvrVyJN4?authuser=0&hl=en&rclk=1,"18.7610212,79.08197659999999"
Al Madina college Masjid,Mosque,"RWMV+GFQ Al Madina college Masjid, Dharmapuri Rd, Telangana 505529",,"RWMV+GFQ, Dharmapuri Rd",,505529,Telangana,IN,https://www.google.com/maps/place/Al+Madina+college+Masjid/data=!4m7!3m6!1s0x3bcd1512b7cc7c99:0x62527280d37b2149!8m2!3d18.8338293!4d78.9437226!16s%2Fg%2F11h0hmt7jq!19sChIJmXzMtxIVzTsRSSF704ByUmI?authuser=0&hl=en&rclk=1,"18.833829299999998,78.9437226"
Masjid-E-Noor,Mosque,"Masjid-E-Noor, #101 ,Rechapally, Jagtial, Telangana",,"#101 ,Rechapally","Jagtial, Rechapalli",,Telangana,IN,https://www.google.com/maps/place/Masjid-E-Noor/data=!4m7!3m6!1s0x3bcd6be8cd809ef9:0x28c4237f1d69a774!8m2!3d18.9316153!4d78.9304784!16s%2Fg%2F11j8hhpjmy!19sChIJ-Z6AzehrzTsRdKdpHX8jxCg?authuser=0&hl=en&rclk=1,"18.9316153,78.9304784"
"Masjid E Osman,Mothe",Mosque,"QXQ2+MVH Masjid E Osman,Mothe, Mothe Rural, Telangana 505327",,QXQ2+MVH,Mothe Rural,,Telangana,IN,"https://www.google.com/maps/place/Masjid+E+Osman,Mothe/data=!4m7!3m6!1s0x3bcd14403cb918f5:0x3a0a2af828a13c5a!8m2!3d18.7891964!4d78.9522301!16s%2Fg%2F11hbnsx2w8!19sChIJ9Ri5PEAUzTsRWjyhKPgqCjo?authuser=0&hl=en&rclk=1","18.789196399999998,78.9522301"
Masjid E Mizba - Polasa Agricultural Form,Mosque,"RWPX+WXX Masjid E Mizba - Polasa Agricultural Form, Polasa, Telangana 505529",,RWPX+WXX,Polasa,505529,Telangana,IN,https://www.google.com/maps/place/Masjid+E+Mizba+-+Polasa+Agricultural+Form/data=!4m7!3m6!1s0x3bcd153109c3ad5f:0x708585d18ae1a549!8m2!3d18.8373583!4d78.9499717!16s%2Fg%2F11v04_cf7s!19sChIJX63DCTEVzTsRSaXhitGFhXA?authuser=0&hl=en&rclk=1,"18.837358299999998,78.94997169999999"
Masjid gullapet,Museum,"VX65+VJC Masjid gullapet, Hanuman St, Gullapeta, Telangana 505454",,"VX65+VJC, Hanuman St",Gullapeta,505454,Telangana,IN,https://www.google.com/maps/place/Masjid+gullapet/data=!4m7!3m6!1s0x3bcd6b68198baaad:0xe46de9d58e121c67!8m2!3d18.8621776!4d78.9590296!16s%2Fg%2F11ht6ttrql!19sChIJraqLGWhrzTsRZxwSjtXpbeQ?authuser=0&hl=en&rclk=1,"18.8621776,78.9590296"
Jama masjid luxettipet,Mosque,"W656+7GJ Jama masjid luxettipet, Luxettipet, Utukur, Telangana 504215",,W656+7GJ,"Luxettipet, Utukur",504215,Telangana,IN,https://www.google.com/maps/place/Jama+masjid+luxettipet/data=!4m7!3m6!1s0x3bcd495e1c762f25:0xa0cfa07634d3bb03!8m2!3d18.9082189!4d79.2112769!16s%2Fg%2F11vf2fh6z5!19sChIJJS92HF5JzTsRA7vTNHagz6A?authuser=0&hl=en&rclk=1,"18.908218899999998,79.2112769"
Badi masjid,Mosque,"V6M4+6G6 Badi masjid, Luxettipet, Utukur, Telangana 504215",,V6M4+6G6,"Luxettipet, Utukur",504215,Telangana,IN,https://www.google.com/maps/place/Badi+masjid/data=!4m7!3m6!1s0x3bcd4983c8455595:0x967acd0ca59d0e65!8m2!3d18.8830416!4d79.2062597!16s%2Fg%2F11vf2g1rj5!19sChIJlVVFyINJzTsRZQ6dpQzNepY?authuser=0&hl=en&rclk=1,"18.8830416,79.20625969999999"
Masjid e huda,Mosque,"V952+923 Masjid e huda, Sreepada Yellampalli Project Rd, Gudipet, Telangana 504209",,"V952+923, Sreepada Yellampalli Project Rd",Gudipet,,Telangana,IN,https://www.google.com/maps/place/Masjid+e+huda/data=!4m7!3m6!1s0x3bcd35a4b83cc6fb:0x359de6bfb8d84da8!8m2!3d18.8583928!4d79.350041!16s%2Fg%2F11kjjnt7pp!19sChIJ-8Y8uKQ1zTsRqE3YuL_mnTU?authuser=0&hl=en&rclk=1,"18.8583928,79.35004099999999"
Eid Gah,Mosque,"V6R3+844 Eid Gah, Lakshettipet, Utukur, Telangana 504215",,V6R3+844,"Lakshettipet, Utukur",504215,Telangana,IN,https://www.google.com/maps/place/Eid+Gah/data=!4m7!3m6!1s0x3bcd49633e4aa623:0xc8ba704d0873bb4a!8m2!3d18.8907702!4d79.202828!16s%2Fg%2F11q_1t7gt0!19sChIJI6ZKPmNJzTsRSrtzCE1wusg?authuser=0&hl=en&rclk=1,"18.8907702,79.202828"
MASJID E COURT AREA LUXETTIPET,Mosque,"V6Q3+JGJ MASJID E COURT AREA LUXETTIPET, Utukur, Telangana 504215",,V6Q3+JGJ,Utukur,504215,Telangana,IN,https://www.google.com/maps/place/MASJID+E+COURT+AREA+LUXETTIPET/data=!4m7!3m6!1s0x3bcd49085fcf7d37:0xb9935c9de9f0090d!8m2!3d18.8890885!4d79.2037506!16s%2Fg%2F11nn43__y4!19sChIJN33PXwhJzTsRDQnw6Z1ck7k?authuser=0&hl=en&rclk=1,"18.8890885,79.20375059999999"
Mosque,Mosque,"Q648+MRH Mosque, Pathagudur, Telangana 505416",,Q648+MRH,Pathagudur,505416,Telangana,IN,https://www.google.com/maps/place/Mosque/data=!4m7!3m6!1s0x3bcd312a04e689b7:0x3ed7debf2c70a13b!8m2!3d18.7566959!4d79.217114!16s%2Fg%2F11fhypx8lq!19sChIJt4nmBCoxzTsRO6FwLL_e1z4?authuser=0&hl=en&rclk=1,"18.7566959,79.217114"
Masjid e Saleh,Mosque,"X5W3+5FW Masjid e Saleh, bolishetty rajanna mro office, Dantepally, Telangana 504206",,"X5W3+5FW, bolishetty rajanna mro office",Dantepally,504206,Telangana,IN,https://www.google.com/maps/place/Masjid+e+Saleh/data=!4m7!3m6!1s0x3bcd45dc06307c6d:0xb5279caa5d165fe6!8m2!3d18.9954959!4d79.1537098!16s%2Fg%2F11n258mlmb!19sChIJbXwwBtxFzTsR5l8WXaqcJ7U?authuser=0&hl=en&rclk=1,"18.995495899999998,79.1537098"
Masjid Umm e Abdul Haadi,Mosque,"Masjid Umm e Abdul Haadi, Vill:Yeshwanthraopet, Yeshwanthraopet, Telangana 505454",,Vill:Yeshwanthraopet,Yeshwanthraopet,505454,Telangana,IN,https://www.google.com/maps/place/Masjid+Umm+e+Abdul+Haadi/data=!4m7!3m6!1s0x3bcd3fddb2cee285:0x4cb16a2946601131!8m2!3d18.8441999!4d79.0432947!16s%2Fg%2F11qnhzfdql!19sChIJheLOst0_zTsRMRFgRilqsUw?authuser=0&hl=en&rclk=1,"18.8441999,79.04329469999999"
MADHINA MASJID,Mosque,"MADHINA MASJID, 3-89, Jagtial - Dharmaram X Rd, near Hanuman Temple, Gullakota, Telangana 505526",,"3-89, Jagtial - Dharmaram X Rd, near Hanuman Temple",Gullakota,505526,Telangana,IN,https://www.google.com/maps/place/MADHINA+MASJID/data=!4m7!3m6!1s0x3bcd3b75753f01b5:0x4e63da8a32d3166d!8m2!3d18.7719137!4d79.1495881!16s%2Fg%2F11kjm5z6l5!19sChIJtQE_dXU7zTsRbRbTMoraY04?authuser=0&hl=en&rclk=1,"18.7719137,79.1495881"
MAJED MBD,Mosque,"33QC+436 MAJED MBD, Malyal1, Telangana 504205",,33QC+436,Malyal1,504205,Telangana,IN,https://www.google.com/maps/place/MAJED+MBD/data=!4m7!3m6!1s0x3bcd5dc7d8043ab9:0xd0a3a374a7512c1b!8m2!3d19.087524!4d79.070119!16s%2Fg%2F11t4_mj0wl!19sChIJuToE2MddzTsRGyxRp3Sjo9A?authuser=0&hl=en&rclk=1,"19.087524,79.07011899999999"
Mosque Mahammadabad,Mosque,"33QC+229 Mosque Mahammadabad, jannaram mahammadabad, 504205",,"33QC+229, jannaram mahammadabad",,504205,Telangana,IN,https://www.google.com/maps/place/Mosque+Mahammadabad/data=!4m7!3m6!1s0x3bcd5d75c529e10b:0x76390774d02a9d68!8m2!3d19.0875411!4d79.0700938!16s%2Fg%2F11t6ky02_j!19sChIJC-EpxXVdzTsRaJ0q0HQHOXY?authuser=0&hl=en&rclk=1,"19.0875411,79.0700938"
Arpapalli Masjid,Mosque,"VXG6+G6J Arpapalli Masjid, Arpapalli, Telangana 505454",,VXG6+G6J,Arpapalli,505454,Telangana,IN,https://www.google.com/maps/place/Arpapalli+Masjid/data=!4m7!3m6!1s0x3bcd6b1e5bd2ca9f:0xf70c13b1b76ce353!8m2!3d18.8763476!4d78.9605286!16s%2Fg%2F11ptzvdrt1!19sChIJn8rSWx5rzTsRU-Nst7ETDPc?authuser=0&hl=en&rclk=1,"18.8763476,78.9605286"
Mohemmadia masjid,Mosque,"R5FR+M62 Mohemmadia masjid, Near, Velgatoor, Telangana 505526",,"R5FR+M62, Near",Velgatoor,505526,Telangana,IN,https://www.google.com/maps/place/Mohemmadia+masjid/data=!4m7!3m6!1s0x3bcd396e0c55724d:0x9246d89c35515730!8m2!3d18.8241423!4d79.1905173!16s%2Fg%2F11vj4pvttk!19sChIJTXJVDG45zTsRMFdRNZzYRpI?authuser=0&hl=en&rclk=1,"18.8241423,79.1905173"
Masjid-E-Noor,Mosque,"WWPH+HVQ Masjid-E-Noor, Rechapalli, Telangana 505454",,WWPH+HVQ,Rechapalli,505454,Telangana,IN,https://www.google.com/maps/place/Masjid-E-Noor/data=!4m7!3m6!1s0x3bcd6b7331514d5f:0xff45f99cdcb0ecc8!8m2!3d18.9364588!4d78.9297201!16s%2Fg%2F11fvgfnlsd!19sChIJX01RMXNrzTsRyOyw3Jz5Rf8?authuser=0&hl=en&rclk=1,"18.9364588,78.9297201"
Mallanapet madeena masjid,Mosque,"Mallanapet madeena masjid, R233+W2X, Vengalapur, Rd, mp manal, Mallannapet, Gollapalli, Telangana 505529",mp manal,"R233+W2X, Vengalapur, Rd","Mallannapet, Gollapalli",505529,Telangana,IN,https://www.google.com/maps/place/Mallanapet+madeena+masjid/data=!4m7!3m6!1s0x3bcd15abf919a5d1:0x189e3e0e31ae628e!8m2!3d18.8048713!4d79.0025904!16s%2Fg%2F11v3ytjg5_!19sChIJ0aUZ-asVzTsRjmKuMQ4-nhg?authuser=0&hl=en&rclk=1,"18.8048713,79.0025904"
"Madina Masjid, Esala thakkallapalli.",Mosque,"P9GC+7WR Madina Masjid, Esala thakkallapalli., Esalatakkallapalle, Telangana 505187",,P9GC+7WR,Esalatakkallapalle,505187,Telangana,IN,"https://www.google.com/maps/place/Madina+Masjid,+Esala+thakkallapalli./data=!4m7!3m6!1s0x3bcd332f39091173:0xac1919ac69d1b321!8m2!3d18.7257199!4d79.3722604!16s%2Fg%2F11l27l91xd!19sChIJcxEJOS8zzTsRIbPRaawZGaw?authuser=0&hl=en&rclk=1","18.725719899999998,79.3722604"
EidGah kalleda,Mosque,"V253+XV8 EidGah kalleda, Nerella, Telangana 505454",,V253+XV8,Nerella,505454,Telangana,IN,https://www.google.com/maps/place/EidGah+kalleda/data=!4m7!3m6!1s0x3bcd1515fcfbd6cf:0xa25fcaaa3f188f57!8m2!3d18.859865!4d79.0052233!16s%2Fg%2F11ss51vnt7!19sChIJz9b7_BUVzTsRV48YP6rKX6I?authuser=0&hl=en&rclk=1,"18.859865,79.0052233"
Masjid-E-Ibrahimia,Mosque,"W3XR+6G5 Masjid-E-Ibrahimia, Dharmapuri Camp, Dharmapuri, Telangana 505425",Dharmapuri Camp,W3XR+6G5,Dharmapuri,505425,Telangana,IN,https://www.google.com/maps/place/Masjid-E-Ibrahimia/data=!4m7!3m6!1s0x3bcd417b204cbc55:0xfcf4ceb2cce74a88!8m2!3d18.9479993!4d79.091359!16s%2Fg%2F11rqh_2269!19sChIJVbxMIHtBzTsRiErnzLLO9Pw?authuser=0&hl=en&rclk=1,"18.9479993,79.091359"
Madeena majhid,Mosque,"X3MQ+P34 Madeena majhid, Unnamed Road, Rajaram, Telangana 505425",,"X3MQ+P34, Unnamed Road",Rajaram,505425,Telangana,IN,https://www.google.com/maps/place/Madeena+majhid/data=!4m7!3m6!1s0x3bcd4361bfcc1b0f:0xfe0d7c8a129ec417!8m2!3d18.9842711!4d79.0876911!16s%2Fg%2F11rb3r6v9n!19sChIJDxvMv2FDzTsRF8SeEop8Df4?authuser=0&hl=en&rclk=1,"18.9842711,79.0876911"
haji malang baba dargah sharif,Mosque,"Q3WR+Q4H haji malang baba dargah sharif, Chilvakodur, Telangana 505532",,Q3WR+Q4H,Chilvakodur,505532,Telangana,IN,https://www.google.com/maps/place/haji+malang+baba+dargah+sharif/data=!4m7!3m6!1s0x3bcd3faf22479545:0x395ef3b44a6c19fb!8m2!3d18.796948!4d79.090369!16s%2Fg%2F11t5jgw9sz!19sChIJRZVHIq8_zTsR-xlsSrTzXjk?authuser=0&hl=en&rclk=1,"18.796948,79.090369"
theegala dhrmaram eidgah,Mosque,"224Q+GM9 theegala dhrmaram eidgah, Theegala Dharmaram, Telangana 505454",,224Q+GM9,Theegala Dharmaram,,Telangana,IN,https://www.google.com/maps/place/theegala+dhrmaram+eidgah/data=!4m7!3m6!1s0x3bcd4368ad4018c5:0x790c17ab17e3aaa6!8m2!3d19.0062932!4d79.0392394!16s%2Fg%2F11j92b1npv!19sChIJxRhArWhDzTsRpqrjF6sXDHk?authuser=0&hl=en&rclk=1,"19.006293199999998,79.0392394"
Madina Masjid,Mosque,"W3XW+XWP Madina Masjid, Rotte Venkamma Illu, Dharmapuri, Telangana 505425",Rotte Venkamma Illu,W3XW+XWP,Dharmapuri,505425,Telangana,IN,https://www.google.com/maps/place/Madina+Masjid/data=!4m7!3m6!1s0x3bcd415a95e6aaab:0x91c9672ecbd81a34!8m2!3d18.9499598!4d79.097315!16s%2Fg%2F11txmzj9x5!19sChIJq6rmlVpBzTsRNBrYyy5nyZE?authuser=0&hl=en&rclk=1,"18.9499598,79.097315"
Jama Masjid,Mosque,"V6G3+54W Jama Masjid, Luxettipet, Telangana 504215",,V6G3+54W,Luxettipet,,Telangana,IN,https://www.google.com/maps/place/Jama+Masjid/data=!4m7!3m6!1s0x3bcd4970ae68eff7:0x61bbf5e4054c084d!8m2!3d18.8754757!4d79.2028155!16s%2Fg%2F11sdxmbcv_!19sChIJ9-9ornBJzTsRTQhMBeT1u2E?authuser=0&hl=en&rclk=1,"18.8754757,79.2028155"
