name,main_category,address,address_ward,address_street,address_city,address_postal_code,address_state,address_country_code,link,coordinates
Hamza Mosque,Mosque,"Hamza Mosque, 875, Pocket C, SGM Nagar, Sector 48, Faridabad, Haryana 121001","Pocket C, SGM Nagar, Sector 48",875,Faridabad,121001,Haryana,IN,https://www.google.com/maps/place/Hamza+Mosque/data=!4m7!3m6!1s0x390cddd62576b7cf:0x19df70cd8f8ca354!8m2!3d28.4082569!4d77.2870468!16s%2Fg%2F11bx5p7mrh!19sChIJz7d2JdbdDDkRVKOMj81w3xk?authuser=0&hl=en&rclk=1,"28.408256899999998,77.2870468"
WOOD WORKER,Mosque,"WOOD WORKER, Sector 50, Dabua Colony, Sector 50, Faridabad, Haryana 121001","Sector 50, Dabua Colony, Sector 50",,Faridabad,121001,Haryana,IN,https://www.google.com/maps/place/WOOD+WORKER/data=!4m7!3m6!1s0x390cdfc7ab663b71:0x4eec31ce6aef91f4!8m2!3d28.3837561!4d77.2794571!16s%2Fg%2F11h1ygvw6v!19sChIJcTtmq8ffDDkR9JHvas4x7E4?authuser=0&hl=en&rclk=1,"28.3837561,77.2794571"
Markaz Masjid,Mosque,"Markaz Masjid, 1044a, Baba Nagar, Sector 19, Faridabad, Haryana 121002","Baba Nagar, Sector 19",1044a,Faridabad,121002,Haryana,IN,https://www.google.com/maps/place/Markaz+Masjid/data=!4m7!3m6!1s0x390cddb94bffffff:0xf4193e9146593fdd!8m2!3d28.4200496!4d77.3139889!16s%2Fg%2F11b61jmwkv!19sChIJ____S7ndDDkR3T9ZRpE-GfQ?authuser=0&hl=en&rclk=1,"28.4200496,77.3139889"
Delhi Wali Masjid,Mosque,"C76M+342 Delhi Wali Masjid, MDR137, Pocket C, SGM Nagar, Sector 48, Faridabad, Haryana 121012","Pocket C, SGM Nagar, Sector 48","C76M+342, MDR137",Faridabad,121012,Haryana,IN,https://www.google.com/maps/place/Delhi+Wali+Masjid/data=!4m7!3m6!1s0x390cde79c790ba19:0x652fb2255b233432!8m2!3d28.4101324!4d77.2827663!16s%2Fg%2F11d_z0qh3k!19sChIJGbqQx3neDDkRMjQjWyWyL2U?authuser=0&hl=en&rclk=1,"28.4101324,77.28276629999999"
Masjid Hayat Madarsa Sahabia,Mosque,"F7XW+9R3 Masjid Hayat Madarsa Sahabia, Mehrauli - Badarpur Rd, Mittal Colony, Block RZ H, Pul Pehlad Pur, New Delhi, Faridabad, Delhi 110044","Mittal Colony, Block RZ H, Pul Pehlad Pur","F7XW+9R3, Mehrauli - Badarpur Rd","New Delhi, Faridabad",110044,Delhi,IN,https://www.google.com/maps/place/Masjid+Hayat+Madarsa+Sahabia/data=!4m7!3m6!1s0x390ce6d74f08cf85:0xcf35c38ec0e866ca!8m2!3d28.4983917!4d77.2970623!16s%2Fg%2F12hkbl23n!19sChIJhc8IT9fmDDkRymbowI7DNc8?authuser=0&hl=en&rclk=1,"28.4983917,77.2970623"
Local Mosque msjd,Mosque,"88H7+GQ8 Local Mosque msjd, Ajji Colony, Sector 60, Faridabad, Haryana 121004","Ajji Colony, Sector 60",88H7+GQ8,Faridabad,121004,Haryana,IN,https://www.google.com/maps/place/Local+Mosque+%D9%85%D8%B3%D8%AC%D8%AF%E2%80%AD/data=!4m7!3m6!1s0x390cdbbeb1c28167:0x1d57c3680cee4a85!8m2!3d28.3287953!4d77.3144469!16s%2Fg%2F1260q0dms!19sChIJZ4HCsb7bDDkRhUruDGjDVx0?authuser=0&hl=en&rclk=1,"28.3287953,77.3144469"
Noorani Masjid,Mosque,"C74M+G74 Noorani Masjid, Pocket C, SGM Nagar, Sector 48, Faridabad, Haryana 121012","Pocket C, SGM Nagar, Sector 48",C74M+G74,Faridabad,121012,Haryana,IN,https://www.google.com/maps/place/Noorani+Masjid/data=!4m7!3m6!1s0x390cde792ec68903:0xd9d9914c4cbc07f9!8m2!3d28.4062745!4d77.2832032!16s%2Fg%2F1261dxjc9!19sChIJA4nGLnneDDkR-Qe8TEyR2dk?authuser=0&hl=en&rclk=1,"28.4062745,77.2832032"
Jama Masjid,Mosque,"Jama Masjid, 783, Gurudwara Rd, Main Bazar, Sayad Wara, Old Faridabad, Faridabad, Haryana 121002","Main Bazar, Sayad Wara, Old Faridabad","783, Gurudwara Rd",Faridabad,121002,Haryana,IN,https://www.google.com/maps/place/Jama+Masjid/data=!4m7!3m6!1s0x390cddbca5b250eb:0xd1e2eb05824c0f5e!8m2!3d28.4212465!4d77.3197177!16s%2Fg%2F11f08_xwl1!19sChIJ61CypbzdDDkRXg9MggXr4tE?authuser=0&hl=en&rclk=1,"28.4212465,77.3197177"
Mosque,Mosque,"Mosque, 1165, Baba Nagar, Old Faridabad, Faridabad, Haryana 121002","Baba Nagar, Old Faridabad",1165,Faridabad,121002,Haryana,IN,https://www.google.com/maps/place/Mosque/data=!4m7!3m6!1s0x390cddb942be3f67:0x60e6dfe623f97027!8m2!3d28.4198263!4d77.314111!16s%2Fg%2F11cs4b8_z_!19sChIJZz--QrndDDkRJ3D5I-bf5mA?authuser=0&hl=en&rclk=1,"28.4198263,77.314111"
Noori Masjid,Mosque,"F858+P23 Noori Masjid, Rajeev Nagar, Sector 32, Faridabad, Haryana 121003","Rajeev Nagar, Sector 32",F858+P23,Faridabad,121003,Haryana,IN,https://www.google.com/maps/place/Noori+Masjid/data=!4m7!3m6!1s0x390ce7666fe98ee7:0xad8e1c427007f1f1!8m2!3d28.4592688!4d77.3150624!16s%2Fg%2F11b6hv8hmk!19sChIJ547pb2bnDDkR8fEHcEIcjq0?authuser=0&hl=en&rclk=1,"28.4592688,77.3150624"
KHAZURI RAZA MASJID AND MADARSA AHLESUNNAT HIDAYATUL ISLAM,Mosque,"KHAZURI RAZA MASJID AND MADARSA AHLESUNNAT HIDAYATUL ISLAM, Basantpur, Faridabad, Haryana 121013",Basantpur,,Faridabad,121013,Haryana,IN,https://www.google.com/maps/place/KHAZURI+RAZA+MASJID+AND+MADARSA+AHLESUNNAT+HIDAYATUL+ISLAM/data=!4m7!3m6!1s0x390ce65265b0d569:0x8e8df1188827a095!8m2!3d28.5009982!4d77.3429786!16s%2Fg%2F11c2yfjvrd!19sChIJadWwZVLmDDkRlaAniBjxjY4?authuser=0&hl=en&rclk=1,"28.500998199999998,77.3429786"
Dargah Wali Masjid msjd drgh wly,Mosque,"F8WP+FC2 Dargah Wali Masjid msjd drgh wly, Om Nagar, Molar Band, New Delhi, Faridabad, Haryana 110044","Om Nagar, Molar Band",F8WP+FC2,"New Delhi, Faridabad",110044,Haryana,IN,https://www.google.com/maps/place/Dargah+Wali+Masjid+%D9%85%D8%B3%D8%AC%D8%AF+%D8%AF%D8%B1%DA%AF%D8%A7%DB%81+%D9%88%D8%A7%D9%84%DB%8C%E2%80%AD/data=!4m7!3m6!1s0x390ce7ab2ff90b05:0x89271fca3d07afc2!8m2!3d28.4961322!4d77.3360182!16s%2Fg%2F11c0xpm68x!19sChIJBQv5L6vnDDkRwq8HPcofJ4k?authuser=0&hl=en&rclk=1,"28.496132199999998,77.3360182"
Raza Masjid And Madarsa,Mosque,"Raza Masjid And Madarsa, 121010, Dayal Basti, Dayal Basti Village, Sector 42, Faridabad, Haryana 121003","Dayal Basti, Dayal Basti Village, Sector 42",121010,Faridabad,121003,Haryana,IN,https://www.google.com/maps/place/Raza+Masjid+And+Madarsa/data=!4m7!3m6!1s0x390ce74771a24c67:0x4c293e3a48d1e3e8!8m2!3d28.469708!4d77.301419!16s%2Fg%2F11c6q7vyz2!19sChIJZ0yicUfnDDkR6OPRSDo-KUw?authuser=0&hl=en&rclk=1,"28.469707999999997,77.301419"
Masjid Noor msjd nwr,Mosque,"Masjid Noor msjd nwr, 60 Feet Road, Gali Number 3, Parvatiya Colony, New Industrial Township, Faridabad, Haryana 121005","Parvatiya Colony, New Industrial Township","60 Feet Road, Gali Number 3",Faridabad,121005,Haryana,IN,https://www.google.com/maps/place/Masjid+Noor+%D9%85%D8%B3%D8%AC%D8%AF+%D9%86%D9%88%D8%B1%E2%80%AD/data=!4m7!3m6!1s0x390cdea8ba4be415:0xf2e12bfeff329a67!8m2!3d28.3646982!4d77.2817165!16s%2Fg%2F1hm560k8n!19sChIJFeRLuqjeDDkRZ5oy__4r4fI?authuser=0&hl=en&rclk=1,"28.3646982,77.2817165"
Masjid Kail Gaon msjd,Mosque,"Masjid Kail Gaon msjd, Kail Gaon, Sector 58, Ballabhgarh, Faridabad, Haryana 121004","Jhar Sentli, Ballabhgarh","Kail Gaon, Sector 58","Faridabad, Kail Gaon",121004,Haryana,IN,https://www.google.com/maps/place/Masjid+Kail+Gaon+%D9%85%D8%B3%D8%AC%D8%AF%E2%80%AD/data=!4m7!3m6!1s0x390cda255a4a462d:0xb5094a702c296d8e!8m2!3d28.2975022!4d77.2970967!16s%2Fg%2F11d_7gdx3g!19sChIJLUZKWiXaDDkRjm0pLHBKCbU?authuser=0&hl=en&rclk=1,"28.2975022,77.2970967"
Juma Masjid,Mosque,"88H2+QX7 Juma Masjid, Sector 58, Faridabad, Haryana 121004",Sector 58,88H2+QX7,Faridabad,121004,Haryana,IN,https://www.google.com/maps/place/Juma+Masjid/data=!4m7!3m6!1s0x390cdbc299f6d133:0xb9cf82fc1b6a1a47!8m2!3d28.3294226!4d77.3024202!16s%2Fg%2F11f64hf0jw!19sChIJM9H2mcLbDDkRRxpqG_yCz7k?authuser=0&hl=en&rclk=1,"28.329422599999997,77.3024202"
Mohammadi Masjid msjd mHmdy,Mosque,"87WR+2PR Mohammadi Masjid msjd mHmdy, Labour Chowk, Gaunchhi Rd, Gaunchhi Gram Village, Sector 55, Faridabad, Haryana 121004","Gaunchhi Gram Village, Sector 55","87WR+2PR, Labour Chowk, Gaunchhi Rd",Faridabad,121004,Haryana,IN,https://www.google.com/maps/place/Mohammadi+Masjid+%D9%85%D8%B3%D8%AC%D8%AF+%D9%85%D8%AD%D9%85%D8%AF%DB%8C%E2%80%AD/data=!4m7!3m6!1s0x390cdbfca10169dd:0x61a4a3f23feb6617!8m2!3d28.345108!4d77.2917701!16s%2Fg%2F11bw7df4vz!19sChIJ3WkBofzbDDkRF2brP_KjpGE?authuser=0&hl=en&rclk=1,"28.345108,77.2917701"
Sector 62 Masjid,Religious destination,"Sector 62 Masjid, Sector 62, Faridabad, Haryana 121004",Sector 62,,Faridabad,121004,Haryana,IN,https://www.google.com/maps/place/Sector+62+Masjid/data=!4m7!3m6!1s0x390cdbab982bb255:0x1c8774152b9674c2!8m2!3d28.3159344!4d77.3279702!16s%2Fg%2F11gglt402q!19sChIJVbIrmKvbDDkRwnSWKxV0hxw?authuser=0&hl=en&rclk=1,"28.3159344,77.3279702"
Madarsha Gausia Rizvia Masjid,Mosque,"88VF+V7Q Madarsha Gausia Rizvia Masjid, East Chawla Colony, Sector 4, Ballabhgarh, Faridabad, Haryana 121004","East Chawla Colony, Sector 4, Ballabhgarh",88VF+V7Q,Faridabad,121004,Haryana,IN,https://www.google.com/maps/place/Madarsha+Gausia+Rizvia+Masjid/data=!4m7!3m6!1s0x390cdb9ae630fe97:0x384239d234016d33!8m2!3d28.3447081!4d77.3232339!16s%2Fg%2F11b7c8_k29!19sChIJl_4w5prbDDkRM20BNNI5Qjg?authuser=0&hl=en&rclk=1,"28.3447081,77.32323389999999"
Madina Masjid,Mosque,"Madina Masjid, C-157, Railway Rd, opp. Old Faridabad Railway Station, New Colony, Gandhi Colony, New Industrial Township, Faridabad, Haryana 121001","New Colony, Gandhi Colony, New Industrial Township","C-157, Railway Rd, opp. Old Faridabad Railway Station",Faridabad,121001,Haryana,IN,https://www.google.com/maps/place/Madina+Masjid/data=!4m7!3m6!1s0x390cddc8fce556ed:0x703ecc2f1aefd1af!8m2!3d28.411049!4d77.30601!16s%2Fg%2F11xjqxphk!19sChIJ7Vbl_MjdDDkRr9HvGi_MPnA?authuser=0&hl=en&rclk=1,"28.411049,77.30601"
Jama Masjid Gochhi,Mosque,"Jama Masjid Gochhi, Gaunchhi Rd Guanchhi Gram Sector 54 Faridabad hriyaannaa 121004 Republic of","Guanchhi Gram, Sector 54",Gaunchhi Rd Guanchhi Gram Sector 54 Faridabad hriyaannaa 121004 Republic of,Faridabad,,Haryana,IN,https://www.google.com/maps/place/Jama+Masjid+Gochhi/data=!4m7!3m6!1s0x390cd9581f8c3313:0xf5f958de845323ce!8m2!3d28.3447175!4d77.2838443!16s%2Fg%2F11bw67kq_m!19sChIJEzOMH1jZDDkRziNThN5Y-fU?authuser=0&hl=en&rclk=1,"28.344717499999998,77.2838443"
bdd'-vaalii msjid,Mosque,"bdd'-vaalii msjid, 26, Gaunchhi Rd, Jeevan Nagar, Gaunchhi Gram Village, Sector 54, Faridabad, Haryana 121004","Jeevan Nagar, Gaunchhi Gram Village, Sector 54","26, Gaunchhi Rd",Faridabad,121004,Haryana,IN,https://www.google.com/maps/place/%E0%A4%AC%E0%A4%A1%E0%A4%BC-%E0%A4%B5%E0%A4%BE%E0%A4%B2%E0%A5%80+%E0%A4%AE%E0%A4%B8%E0%A5%8D%E0%A4%9C%E0%A4%BF%E0%A4%A6/data=!4m7!3m6!1s0x390cd957ef8603f7:0x24009a3f83f47d2!8m2!3d28.3437304!4d77.2857374!16s%2Fg%2F11c3247ptm!19sChIJ9wOG71fZDDkR0kc_-KMJQAI?authuser=0&hl=en&rclk=1,"28.3437304,77.2857374"
Masjid E Moiniya msjd m`ynyh,Mosque,"Masjid E Moiniya msjd m`ynyh, Gali No. 19, Sanjay Colony, Sector 23, Faridabad, Haryana 121005","Block G, Sanjay Colony, Sector 23",Gali No. 19,Faridabad,121005,Haryana,IN,https://www.google.com/maps/place/Masjid+E+Moiniya+%D9%85%D8%B3%D8%AC%D8%AF+%D9%85%D8%B9%DB%8C%D9%86%DB%8C%D9%87%E2%80%AD/data=!4m7!3m6!1s0x390cdbf82164bde3:0xb46e8b8a10eec692!8m2!3d28.3538033!4d77.2976458!16s%2Fg%2F11fz8wq_fg!19sChIJ471kIfjbDDkRksbuEIqLbrQ?authuser=0&hl=en&rclk=1,"28.3538033,77.2976458"
Kadaria Masjid Saraswati Colony,Mosque,"F8J9+MVC Kadaria Masjid Saraswati Colony, Sarswati Colony Street Number 7, Sector 91, Saraswati Colony, Sehatpur, Faridabad, Haryana 121003","Sector 91, Saraswati Colony, Sehatpur","F8J9+MVC, Sarswati Colony Street Number 7",Faridabad,121003,Haryana,IN,https://www.google.com/maps/place/Kadaria+Masjid+Saraswati+Colony/data=!4m7!3m6!1s0x390ce71036111c25:0xbb0f3f172880f88c!8m2!3d28.4816895!4d77.3196273!16s%2Fg%2F11fzd1lfk6!19sChIJJRwRNhDnDDkRjPiAKBc_D7s?authuser=0&hl=en&rclk=1,"28.481689499999998,77.3196273"
Mohammadi Masjid,Mosque,"Mohammadi Masjid, block - c , gali no. 12 , shiv vihar part 2, Ismailpur Rd, Ekta Vihar, Basantpur, Faridabad, Delhi 121003","Ekta Vihar, Basantpur","block - c , gali no. 12 , shiv vihar part 2, Ismailpur Rd","Faridabad, New Delhi",121003,Delhi,IN,https://www.google.com/maps/place/Mohammadi+Masjid/data=!4m7!3m6!1s0x390ce65691d77451:0x37e5a2edf0d4bd81!8m2!3d28.5035617!4d77.3360423!16s%2Fg%2F12hmr57km!19sChIJUXTXkVbmDDkRgb3U8O2i5Tc?authuser=0&hl=en&rclk=1,"28.5035617,77.3360423"
3 NUMBER MASJID,Mosque,"97VP+QFJ 3 NUMBER MASJID, Nehru Colony, Sector 49, Faridabad, Haryana 121001","Nehru Colony, Sector 49",97VP+QFJ,Faridabad,121001,Haryana,IN,https://www.google.com/maps/place/3+NUMBER+MASJID/data=!4m7!3m6!1s0x390cdfcc90be0369:0x7ef22c5c04e82569!8m2!3d28.3944542!4d77.2861533!16s%2Fg%2F11n0dc7wnk!19sChIJaQO-kMzfDDkRaSXoBFws8n4?authuser=0&hl=en&rclk=1,"28.3944542,77.2861533"
Khudadad Masjid,Mosque,"F8G9+CV8 Khudadad Masjid, Chauhan Colony, Vedram Colony, Sehatpur, Faridabad, Haryana 121013","Chauhan Colony, Vedram Colony, Sehatpur",F8G9+CV8,Faridabad,121013,Haryana,IN,https://www.google.com/maps/place/Khudadad+Masjid/data=!4m7!3m6!1s0x390ce7126862945d:0x4d94f98c5826f24b!8m2!3d28.4760485!4d77.3196943!16s%2Fg%2F11hcs15qzg!19sChIJXZRiaBLnDDkRS_ImWIz5lE0?authuser=0&hl=en&rclk=1,"28.476048499999997,77.3196943"
Quadri Masjid qdry msjd,Mosque,"Quadri Masjid qdry msjd, A-61, Street Number 4, Deepawali Encalve, Roop Nagar, Molar Band, New Delhi, Faridabad, Haryana 121013","Deepawali Encalve, Roop Nagar, Molar Band","A-61, Street Number 4","New Delhi, Faridabad",121013,Haryana,IN,https://www.google.com/maps/place/Quadri+Masjid+%D9%82%D8%A7%D8%AF%D8%B1%DB%8C+%D9%85%D8%B3%D8%AC%D8%AF%E2%80%AD/data=!4m7!3m6!1s0x390ce7006f1971b5:0xce47563a318f7578!8m2!3d28.4944785!4d77.3314742!16s%2Fg%2F11gclpypbd!19sChIJtXEZbwDnDDkReHWPMTpWR84?authuser=0&hl=en&rclk=1,"28.4944785,77.3314742"
JAMA MASJID (BADI MASJID),Mosque,"C76G+FRP JAMA MASJID (BADI MASJID), bdddhkhl, Badkhal, Badkhal Village, Faridabad, Haryana 121012","bdddhkhl, Badkhal, Badkhal Village",C76G+FRP,Faridabad,121012,Haryana,IN,https://www.google.com/maps/place/JAMA+MASJID+%28BADI+MASJID%29/data=!4m7!3m6!1s0x390cde70776b0ca5:0x299e97326e3a208e!8m2!3d28.4112185!4d77.2770711!16s%2Fg%2F11cs9m3g0w!19sChIJpQxrd3DeDDkRjiA6bjKXnik?authuser=0&hl=en&rclk=1,"28.4112185,77.2770711"
RAZA MASJID,Mosque,"RAZA MASJID, 234, Pocket A, SGM Nagar, Sector 48, Faridabad, Haryana 121001","Pocket A, SGM Nagar, Sector 48",234,Faridabad,121001,Haryana,IN,https://www.google.com/maps/place/RAZA+MASJID/data=!4m7!3m6!1s0x390cdf8dff37516f:0x26599a86f9e09d98!8m2!3d28.3995558!4d77.2844248!16s%2Fg%2F11ghnd4b3h!19sChIJb1E3_43fDDkRmJ3g-YaaWSY?authuser=0&hl=en&rclk=1,"28.399555799999998,77.2844248"
Ayesha Masjid,Mosque,"C75G+582 Ayesha Masjid, Badkhal Village, Faridabad, Haryana 121012",Badkhal Village,C75G+582,Faridabad,121012,Haryana,IN,https://www.google.com/maps/place/Ayesha+Masjid/data=!4m7!3m6!1s0x390cde7b27dd67e3:0x1d00850022041f82!8m2!3d28.4078776!4d77.2757537!16s%2Fg%2F11fx7mk3p9!19sChIJ42fdJ3veDDkRgh8EIgCFAB0?authuser=0&hl=en&rclk=1,"28.4078776,77.2757537"
Madina Masjid,Mosque,"982Q+QCG Madina Masjid, Bypass Rd, 36 Guj Colony, Pocket 36, Masjid Or, Sector 3, Faridabad, Haryana 121004","36 Guj Colony, Pocket 36, Masjid Or, Sector 3","982Q+QCG, Bypass Rd",Faridabad,121004,Haryana,IN,https://www.google.com/maps/place/Madina+Masjid/data=!4m7!3m6!1s0x390cdbdc06c95e13:0x6d2d82760357c66a!8m2!3d28.3519277!4d77.3385693!16s%2Fg%2F11s4_z5d4f!19sChIJE17JBtzbDDkRasZXA3aCLW0?authuser=0&hl=en&rclk=1,"28.351927699999997,77.3385693"
chottii msjid Chhoti Masjid,Mosque,"77WX+P86 chottii msjid Chhoti Masjid, Sector 59, Kail Gaon, Haryana 121004",Sector 59,77WX+P86,Kail Gaon,121004,Haryana,IN,https://www.google.com/maps/place/%E0%A4%9B%E0%A5%8B%E0%A4%9F%E0%A5%80+%E0%A4%AE%E0%A4%B8%E0%A5%8D%E0%A4%9C%E0%A4%BF%E0%A4%A6+Chhoti+Masjid/data=!4m7!3m6!1s0x390cda3ab5c16987:0x39d5b581f3438634!8m2!3d28.2967927!4d77.2982776!16s%2Fg%2F11f_ltrpbz!19sChIJh2nBtTraDDkRNIZD84G11Tk?authuser=0&hl=en&rclk=1,"28.296792699999997,77.29827759999999"
Mustafa Masjid,Mosque,"C77J+4J3 Mustafa Masjid, Badkhal Village, Faridabad, Haryana 121012",Badkhal Village,C77J+4J3,Faridabad,121012,Haryana,IN,https://www.google.com/maps/place/Mustafa+Masjid/data=!4m7!3m6!1s0x390cde7747eb7041:0x1d4ae5c77a7b6753!8m2!3d28.4127534!4d77.2815415!16s%2Fg%2F11f15jbsh2!19sChIJQXDrR3feDDkRU2d7esflSh0?authuser=0&hl=en&rclk=1,"28.4127534,77.2815415"
Hira masjid,Mosque,"C88P+VC9 Hira masjid, padam nagar gali no -1, Tigaon Rd, Padam Nagar, Indra Complex Colony, Neharpar Faridabad, Faridabad, Haryana","Padam Nagar, Indra Complex Colony, Sector 87, Neharpar Faridabad","C88P+VC9, padam nagar gali no -1, Tigaon Rd",Faridabad,,Haryana,IN,https://www.google.com/maps/place/Hira+masjid/data=!4m7!3m6!1s0x390cddd463c830ff:0xdb81e8d5b86ed3db!8m2!3d28.4175978!4d77.3354202!16s%2Fg%2F11fq8y8nx4!19sChIJ_zDIY9TdDDkR29NuuNXogds?authuser=0&hl=en&rclk=1,"28.4175978,77.3354202"
Masjid msjd,Mosque,"Masjid msjd, 77, Shaheed Bhagat Singh Marg, Raghubir Colony, Bhudutt Colony, Ballabhgarh, Faridabad, Haryana 121004","Raghubir Colony, Bhudutt Colony, Ballabhgarh","77, Shaheed Bhagat Singh Marg",Faridabad,121004,Haryana,IN,https://www.google.com/maps/place/Masjid+%D9%85%D8%B3%D8%AC%D8%AF%E2%80%AD/data=!4m7!3m6!1s0x390cdb75e84a5973:0x67b79d0ea2114303!8m2!3d28.3407464!4d77.3337809!16s%2Fg%2F11c2lqxfmp!19sChIJc1lK6HXbDDkRA0MRog6dt2c?authuser=0&hl=en&rclk=1,"28.3407464,77.3337809"
NOORI MASJID SUBZI MANDI,Mosque,"NOORI MASJID SUBZI MANDI, 33 Feet Rd, Block E, Sanjay Colony, Sector 23, Faridabad, Haryana 121005","Block E, Sanjay Colony, Sector 23",33 Feet Rd,Faridabad,121005,Haryana,IN,https://www.google.com/maps/place/NOORI+MASJID+SUBZI+MANDI/data=!4m7!3m6!1s0x390cdbf955765595:0xf241d7d74c9dca89!8m2!3d28.3494405!4d77.2926562!16s%2Fg%2F11bwg46q1k!19sChIJlVV2VfnbDDkRicqdTNfXQfI?authuser=0&hl=en&rclk=1,"28.3494405,77.2926562"
Sulemaniya Masjid,Mosque,"G85R+3MX Sulemaniya Masjid, Faridabad, Haryana 110044",,G85R+3MX,Faridabad,110044,Haryana,IN,https://www.google.com/maps/place/Sulemaniya+Masjid/data=!4m7!3m6!1s0x390ce65044bb39bb:0x606704fbe3111fcb!8m2!3d28.5077409!4d77.3417297!16s%2Fg%2F11c59ytsp4!19sChIJuzm7RFDmDDkRyx8R4_sEZ2A?authuser=0&hl=en&rclk=1,"28.507740899999998,77.3417297"
HAZRAT KHAWAZA GHAREEBNAWAZ MADARSA/MOSQUE,Mosque,"HAZRAT KHAWAZA GHAREEBNAWAZ MADARSA/MOSQUE, A- 86, J-Block, Katan Pahari, Shiv Durga Vihar, Faridabad, Haryana 121009","J-Block, Katan Pahari, Shiv Durga Vihar",A- 86,Faridabad,121009,Haryana,IN,https://www.google.com/maps/place/HAZRAT+KHAWAZA+GHAREEBNAWAZ+MADARSA%2FMOSQUE/data=!4m7!3m6!1s0x390ce78157703497:0xe21fd854520706ee!8m2!3d28.4852031!4d77.2984223!16s%2Fg%2F11gnhkl0pt!19sChIJlzRwV4HnDDkR7gYHUlTYH-I?authuser=0&hl=en&rclk=1,"28.4852031,77.2984223"
Madina Masjid,Mosque,"C74H+H4 Madina Masjid, Unnamed Road, 121012, Badkhal Village, Faridabad, Haryana 121012",Badkhal Village,"C74H+H4, Unnamed Road, 121012",Faridabad,121012,Haryana,IN,https://www.google.com/maps/place/Madina+Masjid/data=!4m7!3m6!1s0x390cde7ba3ffc6d9:0x7de4506d1ffc33aa!8m2!3d28.4071757!4d77.2782453!16s%2Fg%2F11gcbkn2cr!19sChIJ2cb_o3veDDkRqjP8H21Q5H0?authuser=0&hl=en&rclk=1,"28.4071757,77.2782453"
Chhoti Masjid,Mosque,"C75H+P9R Chhoti Masjid, bdddhkhl, Badkhal, Badkhal Village, Faridabad, Haryana 121012","bdddhkhl, Badkhal, Badkhal Village",C75H+P9R,Faridabad,121012,Haryana,IN,https://www.google.com/maps/place/Chhoti+Masjid/data=!4m7!3m6!1s0x390cde7a5c61ecb9:0x63a894896e2b7335!8m2!3d28.4093683!4d77.2784027!16s%2Fg%2F11dxf35jd1!19sChIJuexhXHreDDkRNXMrbomUqGM?authuser=0&hl=en&rclk=1,"28.409368299999997,77.2784027"
Jama Masjid Ahle Sunnat Wal Jammat,Mosque,"C897+HPM Jama Masjid Ahle Sunnat Wal Jammat, Baba Nagar, Sector 19, Faridabad, Haryana 121002","Baba Nagar, Sector 19",C897+HPM,Faridabad,121002,Haryana,IN,https://www.google.com/maps/place/Jama+Masjid+Ahle+Sunnat+Wal+Jammat/data=!4m7!3m6!1s0x390cdd3d2f5a8b5b:0x8bf64a42ffdd22d9!8m2!3d28.4189545!4d77.3142867!16s%2Fg%2F11qn4xwgg2!19sChIJW4taLz3dDDkR2SLd_0JK9os?authuser=0&hl=en&rclk=1,"28.418954499999998,77.3142867"
Ranhera Khera masjid (Mosque),Mosque,"88M6+MJG Ranhera Khera masjid (Mosque), Ranhera Khera, Ranhera Khera Village, Sector 25, Faridabad, Haryana 121004","Ranhera Khera, Ranhera Khera Village, Sector 25",88M6+MJG,Faridabad,121004,Haryana,IN,https://www.google.com/maps/place/Ranhera+Khera+masjid+%28Mosque%29/data=!4m7!3m6!1s0x390cdb79f161205f:0x6e1dc4e06a486b0c!8m2!3d28.3341996!4d77.3115689!16s%2Fg%2F11fk95z0y3!19sChIJXyBh8XnbDDkRDGtIauDEHW4?authuser=0&hl=en&rclk=1,"28.334199599999998,77.3115689"
Makka Masjid,Mosque,"C74J+J77 Makka Masjid, Badkhal Village, Faridabad, Haryana 121012",Badkhal Village,C74J+J77,Faridabad,121012,Haryana,IN,https://www.google.com/maps/place/Makka+Masjid/data=!4m7!3m6!1s0x390cde7be26a9567:0x8a2d11e49f516b0b!8m2!3d28.4065432!4d77.2806577!16s%2Fg%2F1q62fnj7g!19sChIJZ5Vq4nveDDkRC2tRn-QRLYo?authuser=0&hl=en&rclk=1,"28.406543199999998,77.28065769999999"
Jama Masjid khandawli,Mosque,"873P+5G5 Jama Masjid khandawli, Khandawli, Sector 150, Faridabad, Haryana 121004","Khandawli, Sector 150",873P+5G5,Faridabad,121004,Haryana,IN,https://www.google.com/maps/place/Jama+Masjid+khandawli/data=!4m7!3m6!1s0x390cd9e08bdac165:0xc6928f7857d8a4d!8m2!3d28.302877!4d77.2863688!16s%2Fg%2F11gxmvrfhy!19sChIJZcHai-DZDDkRTYp9hfcoaQw?authuser=0&hl=en&rclk=1,"28.302877,77.28636879999999"
Gulshan Masjid,Mosque,"9876+Q26 Gulshan Masjid, Azad Colony, Sector 24, Faridabad, Haryana 121001","Azad Colony, Sector 24",9876+Q26,Faridabad,121001,Haryana,IN,https://www.google.com/maps/place/Gulshan+Masjid/data=!4m7!3m6!1s0x390cdd16d15cae39:0xa3246feb85425e89!8m2!3d28.3644223!4d77.3100284!16s%2Fg%2F11llyftj5b!19sChIJOa5c0RbdDDkRiV5ChetvJKM?authuser=0&hl=en&rclk=1,"28.364422299999998,77.3100284"
Jama masjid,Mosque,"97JH+VP3 Jama masjid, 33 Feet Rd, Sector 50, Dabua Colony, Faridabad, Haryana 121001","Sector 50, Dabua Colony","97JH+VP3, 33 Feet Rd",Faridabad,121001,Haryana,IN,https://www.google.com/maps/place/Jama+masjid/data=!4m7!3m6!1s0x390cdf0aa13904e1:0x73ce45cc0ba8a014!8m2!3d28.3821312!4d77.2792754!16s%2Fg%2F11v69l4pm7!19sChIJ4QQ5oQrfDDkRFKCoC8xFznM?authuser=0&hl=en&rclk=1,"28.3821312,77.2792754"
Jama Masjid (Tikawali),Mosque,"C9M9+95F Jama Masjid (Tikawali), Riwajpur, Tikawali, Faridabad, Haryana 121002","Riwajpur, Tikawali",C9M9+95F,Faridabad,121002,Haryana,IN,https://www.google.com/maps/place/Jama+Masjid+%28Tikawali%29/data=!4m7!3m6!1s0x390cddaa7a3effa9:0xa62dc99fbae83ce4!8m2!3d28.4334385!4d77.3679225!16s%2Fg%2F11grvjp0lk!19sChIJqf8-eqrdDDkR5Dzoup_JLaY?authuser=0&hl=en&rclk=1,"28.433438499999998,77.36792249999999"
Hazrat Usman Ghani Masjid,Mosque,"Hazrat Usman Ghani Masjid, panchsheel part 2, 106/4, Ismailpur Rd, near khajuri raza masjid, Basantpur, Faridabad, Haryana 121003",Basantpur,"panchsheel part 2, 106/4, Ismailpur Rd, near khajuri raza masjid",Faridabad,121003,Haryana,IN,https://www.google.com/maps/place/Hazrat+Usman+Ghani+Masjid/data=!4m7!3m6!1s0x390ce7785f4bdf65:0x7f9028f5b6873191!8m2!3d28.5010519!4d77.3416602!16s%2Fg%2F11h4s25yn4!19sChIJZd9LX3jnDDkRkTGHtvUokH8?authuser=0&hl=en&rclk=1,"28.5010519,77.34166019999999"
Madina Masjid,Mosque,"F8HQ+Q2G Madina Masjid, Main Surya Vihar Rd, Surya Vihar Part II, Sector 91, Faridabad, Haryana 121013","Surya Vihar Part II, Sector 91","F8HQ+Q2G, Main Surya Vihar Rd",Faridabad,121013,Haryana,IN,https://www.google.com/maps/place/Madina+Masjid/data=!4m7!3m6!1s0x390ce7a1518f2029:0x375254b4a25e2697!8m2!3d28.4794497!4d77.3375916!16s%2Fg%2F11c61vycqd!19sChIJKSCPUaHnDDkRlyZeorRUUjc?authuser=0&hl=en&rclk=1,"28.4794497,77.3375916"
Jama masjid sec 6,Mosque,"9839+VG6 Jama masjid sec 6, Jama Masjid, Sector 6, Faridabad, Haryana 121006",Sector 6,9839+VG6 Jama Masjid,Faridabad,121006,Haryana,IN,https://www.google.com/maps/place/Jama+masjid+sec+6/data=!4m7!3m6!1s0x390cdbfe726cd11b:0xb9c387b20ffa6cfa!8m2!3d28.3545966!4d77.3190452!16s%2Fg%2F11t7flq18f!19sChIJG9Fscv7bDDkR-mz6D7KHw7k?authuser=0&hl=en&rclk=1,"28.354596599999997,77.31904519999999"
Noor-e-elahi Masjid,Mosque,"Noor-e-elahi Masjid, E2, Pocket C, SGM Nagar, Sector 48, Faridabad, Haryana 121001","Pocket C, SGM Nagar, Sector 48",E2,Faridabad,121001,Haryana,IN,https://www.google.com/maps/place/Noor-e-elahi+Masjid/data=!4m7!3m6!1s0x390cddd929f9c761:0x9e9b0085e135c0d4!8m2!3d28.412003!4d77.287262!16s%2Fg%2F11fvlb73hf!19sChIJYcf5KdndDDkR1MA14YUAm54?authuser=0&hl=en&rclk=1,"28.412003,77.287262"
Mosque,Mosque,"Mosque, 2550, Neelam Bata Rd, AC Nagar, New Industrial Township, Faridabad, Haryana 121001","AC Nagar, New Industrial Township","2550, Neelam Bata Rd",Faridabad,121001,Haryana,IN,https://www.google.com/maps/place/Mosque/data=!4m7!3m6!1s0x390cdde4a799e3d7:0x51c37e6b6bd471a2!8m2!3d28.3808174!4d77.3087599!16s%2Fg%2F11t6jb3z3p!19sChIJ1-OZp-TdDDkRonHUa2t-w1E?authuser=0&hl=en&rclk=1,"28.380817399999998,77.3087599"
Jamia Imam E Aazam Wa Raza Jame Masjid,Mosque,"Jamia Imam E Aazam Wa Raza Jame Masjid, 95, Jiwan Colony II, Sector 53, Faridabad, Haryana 121004","Jiwan Colony II, Sector 53",95,Faridabad,121004,Haryana,IN,https://www.google.com/maps/place/Jamia+Imam+E+Aazam+Wa+Raza+Jame+Masjid/data=!4m7!3m6!1s0x390cd9bcea3dcd11:0xf19839fbe757e980!8m2!3d28.3483617!4d77.281015!16s%2Fg%2F11h6yx66y9!19sChIJEc096rzZDDkRgOlX5_s5mPE?authuser=0&hl=en&rclk=1,"28.348361699999998,77.281015"
Phool Mohmaddi masjid,Mosque,"C75J+4G3 Phool Mohmaddi masjid, Badkhal Village, Faridabad, Haryana 121012",Badkhal Village,C75J+4G3,Faridabad,121012,Haryana,IN,https://www.google.com/maps/place/Phool+Mohmaddi+masjid/data=!4m7!3m6!1s0x390cde79652baab9:0x16d815d4417296bf!8m2!3d28.4077639!4d77.2812924!16s%2Fg%2F11dxc1wmkj!19sChIJuaorZXneDDkRv5ZyQdQV2BY?authuser=0&hl=en&rclk=1,"28.4077639,77.2812924"
Chistiya masjid,Mosque,"Chistiya masjid, 3rd, near Mukul builder, 3rd, near Mukul builder, Sunrise Enclave, Surya Vihar Part III, Sector 91, Faridabad, Haryana 121013","Sunrise Enclave, Surya Vihar Part III, Sector 91","3rd, near Mukul builder, 3rd, near Mukul builder",Faridabad,121013,Haryana,IN,https://www.google.com/maps/place/Chistiya+masjid/data=!4m7!3m6!1s0x390ce77fd2e5ad49:0xd3fc2eb358bccbf0!8m2!3d28.4757623!4d77.3385958!16s%2Fg%2F11m_j83lct!19sChIJSa3l0n_nDDkR8Mu8WLMu_NM?authuser=0&hl=en&rclk=1,"28.4757623,77.3385958"
Talab wali masjid,Mosque,"Talab wali masjid, Khandawali Rd, Khandawli, Sector 150, Faridabad, Haryana 121002","Khandawli, Sector 150","Talab wali masjid, Khandawali Rd",Faridabad,121002,Haryana,IN,https://www.google.com/maps/place/Talab+wali+masjid/data=!4m7!3m6!1s0x390cdbc009b4ce0d:0x8140c0071cd86ff2!8m2!3d28.3037491!4d77.2903377!16s%2Fg%2F11h1ywsg90!19sChIJDc60CcDbDDkR8m_YHAfAQIE?authuser=0&hl=en&rclk=1,"28.303749099999997,77.2903377"
AAM WALI MASJID,Mosque,"AAM WALI MASJID, 1111B, Block - C, SGM Nagar, Sector 48, Faridabad, Haryana 121001","Block - C, SGM Nagar, Sector 48",1111B,Faridabad,121001,Haryana,IN,https://www.google.com/maps/place/AAM+WALI+MASJID/data=!4m7!3m6!1s0x390cdff3b200e749:0x23002d392d846f27!8m2!3d28.4078618!4d77.2847026!16s%2Fg%2F11rhf6vywh!19sChIJSecAsvPfDDkRJ2-ELTktACM?authuser=0&hl=en&rclk=1,"28.4078618,77.2847026"
Umar Masjid,Mosque,"C76J+CM3 Umar Masjid, Badkhal Village, Faridabad, Haryana 121012",Badkhal Village,C76J+CM3,Faridabad,121012,Haryana,IN,https://www.google.com/maps/place/Umar+Masjid/data=!4m7!3m6!1s0x390cde79e47b9231:0x576f2348f714e37!8m2!3d28.4110118!4d77.2816659!16s%2Fg%2F11g8tyf419!19sChIJMZJ75HneDDkRN05xjzTydgU?authuser=0&hl=en&rclk=1,"28.411011799999997,77.2816659"
Khawaja Garib nawaj jama masjid,Mosque,"F8HP+F6P Khawaja Garib nawaj jama masjid, Surya Vihar Part II, Sector 91, Faridabad, Haryana 121009","Surya Vihar Part II, Sector 91",F8HP+F6P,Faridabad,121009,Haryana,IN,https://www.google.com/maps/place/Khawaja+Garib+nawaj+jama+masjid/data=!4m7!3m6!1s0x390ce75da878b19d:0x2520bddb206888bf!8m2!3d28.4786553!4d77.3355881!16s%2Fg%2F11l2n1g99_!19sChIJnbF4qF3nDDkRv4hoINu9ICU?authuser=0&hl=en&rclk=1,"28.4786553,77.3355881"
Masjid Apna Ghar msjd,Mosque,"87WM+XRR Masjid Apna Ghar msjd, Gaunchhi Rd, Sector 54, Faridabad, Haryana 121004",Sector 54,"87WM+XRR, Gaunchhi Rd",Faridabad,121004,Haryana,IN,https://www.google.com/maps/place/Masjid+Apna+Ghar+%D9%85%D8%B3%D8%AC%D8%AF%E2%80%AD/data=!4m7!3m6!1s0x390cd9566f406c51:0x25377e4a06d87986!8m2!3d28.3474822!4d77.2845026!16s%2Fg%2F11bw7jwjxq!19sChIJUWxAb1bZDDkRhnnYBkp-NyU?authuser=0&hl=en&rclk=1,"28.347482199999998,77.2845026"
Noorani Jama Masjid jm` msjd nwrny,Mosque,"Noorani Jama Masjid jm` msjd nwrny, Photo ghrapher, Om Enclave Part 2, Om Enclave, Mithapur Extension, Mithapur, Faridabad, Haryana 121003","Om Enclave Part 2, Om Enclave, Mithapur Extension, Mithapur",Photo ghrapher,Faridabad,121003,Haryana,IN,https://www.google.com/maps/place/Noorani+Jama+Masjid+%D8%AC%D8%A7%D9%85%D8%B9+%D9%85%D8%B3%D8%AC%D8%AF+%D9%86%D9%88%D8%B1%D8%A7%D9%86%DB%8C%E2%80%AD/data=!4m7!3m6!1s0x390ce77e7e6acc6b:0x4a4223bf203186bc!8m2!3d28.4889212!4d77.3298814!16s%2Fg%2F11gz9ybbn1!19sChIJa8xqfn7nDDkRvIYxIL8jQko?authuser=0&hl=en&rclk=1,"28.4889212,77.32988139999999"
NAJMA JAMA MASJID njmh jm` msjd,Mosque,"G85V+H9V NAJMA JAMA MASJID njmh jm` msjd, Unnamed Road, Faridabad, Haryana 121013",,"G85V+H9V, Unnamed Road",Faridabad,121013,Haryana,IN,https://www.google.com/maps/place/NAJMA+JAMA+MASJID+%D9%86%D8%AC%D9%85%D9%87+%D8%AC%D8%A7%D9%85%D8%B9+%D9%85%D8%B3%D8%AC%D8%AF%E2%80%AD/data=!4m7!3m6!1s0x390ce7c1d588429f:0x346270d9d3df0078!8m2!3d28.5089767!4d77.3434161!16s%2Fg%2F11fj4dmk16!19sChIJn0KI1cHnDDkReADf09lwYjQ?authuser=0&hl=en&rclk=1,"28.508976699999998,77.3434161"
Hazrat Bilaal Masjid,Mosque,"Hazrat Bilaal Masjid, 33, Futta Rd, Nikhil Vihar Colony, Ismailpur Extension, Faridabad, Haryana 121009","Nikhil Vihar Colony, Ismailpur Extension","33, Futta Rd",Faridabad,121009,Haryana,IN,https://www.google.com/maps/place/Hazrat+Bilaal+Masjid/data=!4m7!3m6!1s0x390ce7adfd62a999:0xb3d1176ee847a0f9!8m2!3d28.491861!4d77.3433433!16s%2Fg%2F11c619zjy9!19sChIJmali_a3nDDkR-aBH6G4X0bM?authuser=0&hl=en&rclk=1,"28.491861,77.3433433"
Masjid Abu Bakr Siddique,Mosque,"Masjid Abu Bakr Siddique, near, aaliya farm, extn, Jaitpur Extension Part II, Vishwakarma Colony, Haryana 110044","Jaitpur Extension Part II, Vishwakarma Colony","near, aaliya farm, extn",Faridabad,110044,Haryana,IN,https://www.google.com/maps/place/Masjid+Abu+Bakr+Siddique/data=!4m7!3m6!1s0x390ce65acabd0ad5:0x4fd78768436bfb84!8m2!3d28.5106274!4d77.3438573!16s%2Fg%2F11fy1llv4d!19sChIJ1Qq9ylrmDDkRhPtrQ2iH108?authuser=0&hl=en&rclk=1,"28.510627399999997,77.3438573"
Masjid e ayesha,Mosque,"97GP+FPH Masjid e ayesha, Sector 50, New Janta Colony, Sector 50, Faridabad, Haryana 121005","Sector 50, New Janta Colony, Sector 50",97GP+FPH,Faridabad,121005,Haryana,IN,https://www.google.com/maps/place/Masjid+e+ayesha/data=!4m7!3m6!1s0x390cddb2b72701cf:0x63791cf3d04a39eb!8m2!3d28.3761768!4d77.2868683!16s%2Fg%2F11pxl9m2hx!19sChIJzwEnt7LdDDkR6zlK0PMceWM?authuser=0&hl=en&rclk=1,"28.3761768,77.2868683"
Umar Masjid,Mosque,"Umar Masjid, 22 23, chowk, Mujesar Village, Sector 24, Faridabad, Haryana 121001","Mujesar Village, Sector 24","22 23, chowk",Faridabad,,Haryana,IN,https://www.google.com/maps/place/Umar+Masjid/data=!4m7!3m6!1s0x390cdd1110d74837:0xebe26f6b30fc7fe9!8m2!3d28.3634396!4d77.3000582!16s%2Fg%2F11t28fm6wt!19sChIJN0jXEBHdDDkR6X_8MGtv4us?authuser=0&hl=en&rclk=1,"28.3634396,77.3000582"
Noor masjid,Place of worship,"97WX+88G Noor masjid, Rahul Colony, New Industrial Township, Faridabad, Haryana 121001","Rahul Colony, New Industrial Township",97WX+88G,Faridabad,121001,Haryana,IN,https://www.google.com/maps/place/Noor+masjid/data=!4m7!3m6!1s0x390cdde5cafb9243:0x64975375c951741!8m2!3d28.3958062!4d77.2983291!16s%2Fg%2F11fp36ymn7!19sChIJQ5L7yuXdDDkRQReVXDd1SQY?authuser=0&hl=en&rclk=1,"28.3958062,77.29832909999999"
Jama Masjid,Mosque,"88QF+6FV Jama Masjid, Atali, Baniawada, Sector 1, Ballabhgarh, Faridabad, Haryana 121004","Atali, Baniawada, Sector 1, Ballabhgarh",88QF+6FV,Faridabad,121004,Haryana,IN,https://www.google.com/maps/place/Jama+Masjid/data=!4m7!3m6!1s0x390cdbb9a94eb31b:0xe23dc3225ec8d9b2!8m2!3d28.3381233!4d77.3236771!16s%2Fg%2F11rzbcyh7w!19sChIJG7NOqbnbDDkRstnIXiLDPeI?authuser=0&hl=en&rclk=1,"28.3381233,77.3236771"
Khwaja Gharib Nawaz Masjid And Madrsa Faizane Ala Hazrat,Mosque,"F8XW+XMX Khwaja Gharib Nawaz Masjid And Madrsa Faizane Ala Hazrat, Shiv Enclave, Ismailpur Extension, Faridabad, Haryana 121013","Shiv Enclave, Ismailpur Extension",F8XW+XMX,Faridabad,121013,Haryana,IN,https://www.google.com/maps/place/Khwaja+Gharib+Nawaz+Masjid+And+Madrsa+Faizane+Ala+Hazrat/data=!4m7!3m6!1s0x390ce7e9c2a829cb:0x9f0a97e0d6d1869!8m2!3d28.5001209!4d77.3462988!16s%2Fg%2F11vdxfn44v!19sChIJyymowunnDDkRaRhtDX6p8Ak?authuser=0&hl=en&rclk=1,"28.5001209,77.3462988"
Mehmoodia Masjid,Mosque,"Mehmoodia Masjid, 6, Badkhal Ext, Badkhal Enclave, Badkhal Village, Faridabad, Haryana 121012","Badkhal Enclave, Badkhal Village","6, Badkhal Ext",Faridabad,121012,Haryana,IN,https://www.google.com/maps/place/Mehmoodia+Masjid/data=!4m7!3m6!1s0x390cde6357a8445b:0x2b6757b2a0951ec9!8m2!3d28.4048008!4d77.2744203!16s%2Fg%2F11c0r5g1py!19sChIJW0SoV2PeDDkRyR6VoLJXZys?authuser=0&hl=en&rclk=1,"28.4048008,77.2744203"
Haji Mangal Wali Masjid,Mosque,"873M+3X4 Haji Mangal Wali Masjid, Khandawli, Sector 150, Faridabad, Haryana 121004","Khandawli, Sector 150",873M+3X4,Faridabad,121004,Haryana,IN,https://www.google.com/maps/place/Haji+Mangal+Wali+Masjid/data=!4m7!3m6!1s0x390cd9054c268f5f:0xe9be08a462c7ea3d!8m2!3d28.3026271!4d77.2849487!16s%2Fg%2F11h1yx0_hb!19sChIJX48mTAXZDDkRPerHYqQIvuk?authuser=0&hl=en&rclk=1,"28.3026271,77.2849487"
Nangla Enclave Maszid,Mosque,"977F+6G7 Nangla Enclave Maszid, Nangla Gujran, Faridabad, Haryana 121005",Nangla Gujran,977F+6G7,Faridabad,121005,Haryana,IN,https://www.google.com/maps/place/Nangla+Enclave+Maszid/data=!4m7!3m6!1s0x390cdeb03ef066c1:0xfa47f51373340bd5!8m2!3d28.3630347!4d77.273796!16s%2Fg%2F11gfj_rcz_!19sChIJwWbwPrDeDDkR1Qs0cxP1R_o?authuser=0&hl=en&rclk=1,"28.3630347,77.27379599999999"
Masjid,Mosque,"98P5+9PP Masjid, Shahid Bhagat Singh Marg, Krishna Nagar, New Industrial Township, Faridabad, Haryana 121001","Krishna Nagar, New Industrial Township","98P5+9PP, Shahid Bhagat Singh Marg",Faridabad,121001,Haryana,IN,https://www.google.com/maps/place/Masjid/data=!4m7!3m6!1s0x390cdd4ef85c95ed:0xe15bc3649e3c1ebe!8m2!3d28.3861319!4d77.3096373!16s%2Fg%2F11j_5w2b25!19sChIJ7ZVc-E7dDDkRvh48nmTDW-E?authuser=0&hl=en&rclk=1,"28.3861319,77.30963729999999"
Mosque,Mosque,"Mosque, 18/4, Sector 20B, NH-19, Krishna Nagar, New Industrial Township, Faridabad, Haryana 121001","Krishna Nagar, New Industrial Township","18/4, Sector 20B, NH-19",Faridabad,121001,Haryana,IN,https://www.google.com/maps/place/Mosque/data=!4m7!3m6!1s0x390cdd3f6e640a07:0xc19458c7411891db!8m2!3d28.3910311!4d77.3121288!16s%2Fg%2F11jzy7jccv!19sChIJBwpkbj_dDDkR25EYQcdYlME?authuser=0&hl=en&rclk=1,"28.3910311,77.3121288"
Masjid sahupura,Mosque,"883M+2X2 Masjid sahupura, Sahupura Rd, Sector-65, Ballabhgarh, Faridabad, Shahupura, Haryana 121006","Sector-65, Ballabhgarh","883M+2X2, Sahupura Rd","Faridabad, Shahupura",121006,Haryana,IN,https://www.google.com/maps/place/Masjid+sahupura/data=!4m7!3m6!1s0x390cdb6c8e5f2591:0x6ead45d1e8e71fa2!8m2!3d28.3024398!4d77.3348642!16s%2Fg%2F11t6kpm7vh!19sChIJkSVfjmzbDDkRoh_n6NFFrW4?authuser=0&hl=en&rclk=1,"28.3024398,77.3348642"
Gausia Masjid msjd Gwthyh,Mosque,"Gausia Masjid msjd Gwthyh, 78, East Chawla Colony, Sector 4, Ballabhgarh, Faridabad, Haryana 121004","East Chawla Colony, Sector 4, Ballabhgarh",78,Faridabad,121004,Haryana,IN,https://www.google.com/maps/place/Gausia+Masjid+%D9%85%D8%B3%D8%AC%D8%AF+%D8%BA%D9%88%D8%AB%DB%8C%D9%87%E2%80%AD/data=!4m7!3m6!1s0x390cdb9ae7997d49:0x8fbf9987d7af7a9c!8m2!3d28.344885!4d77.3232579!16s%2Fg%2F11c1t5csly!19sChIJSX2Z55rbDDkRnHqv14eZv48?authuser=0&hl=en&rclk=1,"28.344884999999998,77.3232579"
Umar Masjid,Mosque,"Umar Masjid, F8MP+QCX, Gangaram colony, Vinay Nagar Chowk, Agwanpur, Sector 91, Faridabad, Haryana 121003","Agwanpur, Sector 91","F8MP+QCX, Gangaram colony, Vinay Nagar Chowk",Faridabad,121003,Haryana,IN,https://www.google.com/maps/place/Umar+Masjid/data=!4m7!3m6!1s0x390ce739d41601c3:0xbb0e7e5ec501bb03!8m2!3d28.4837913!4d77.3376619!16s%2Fg%2F11h_f_zwxg!19sChIJwwEW1DnnDDkRA7sBxV5-Drs?authuser=0&hl=en&rclk=1,"28.4837913,77.3376619"
MADEENA MASJID,Mosque,"MADEENA MASJID, Block E/2, Gali no-5 , jagmal enclave, Agwanpur, Roshan Nagar, Faridabad, Haryana 121013","Agwanpur, Roshan Nagar","Block E/2, Gali no-5 , jagmal enclave",Faridabad,121013,Haryana,IN,https://www.google.com/maps/place/MADEENA+MASJID/data=!4m7!3m6!1s0x390ce7591b98890b:0xd53b09fe69b96dce!8m2!3d28.4893057!4d77.3464167!16s%2Fg%2F11q9cnmxxm!19sChIJC4mYG1nnDDkRzm25af4JO9U?authuser=0&hl=en&rclk=1,"28.4893057,77.34641669999999"
Muslim masjid,Mosque,"Muslim masjid, Sector 17/18 (Old Faridabad, Sector 17, Faridabad, Haryana 121002",Sector 17,Sector 17/18 (Old Faridabad,Faridabad,121002,Haryana,IN,https://www.google.com/maps/place/Muslim+masjid/data=!4m7!3m6!1s0x390cdd22838f1c3b:0x6a64eb0541050999!8m2!3d28.4160627!4d77.3309117!16s%2Fg%2F11thhdp8yt!19sChIJOxyPgyLdDDkRmQkFQQXrZGo?authuser=0&hl=en&rclk=1,"28.416062699999998,77.3309117"
Takiya Wali Jama Masjid,Mosque,"873P+9V2 Takiya Wali Jama Masjid, Khandawli, Sector 150, Faridabad, Haryana 121004","Khandawli, Sector 150",873P+9V2,Faridabad,121004,Haryana,IN,https://www.google.com/maps/place/Takiya+Wali+Jama+Masjid/data=!4m7!3m6!1s0x390cdb30239986bf:0xe89a50645aaf0df4!8m2!3d28.3033866!4d77.2871536!16s%2Fg%2F11h1ywrqcf!19sChIJv4aZIzDbDDkR9A2vWmRQmug?authuser=0&hl=en&rclk=1,"28.3033866,77.2871536"
Lehru Wali Masjid msjd lhrw wly,Mosque,"874P+7FX Lehru Wali Masjid msjd lhrw wly, Khandawli, Sector 150, Faridabad, Haryana 121004","Khandawli, Sector 150",874P+7FX,Faridabad,121004,Haryana,IN,https://www.google.com/maps/place/Lehru+Wali+Masjid+%D9%85%D8%B3%D8%AC%D8%AF+%D9%84%DB%81%D8%B1%D9%88+%D9%88%D8%A7%D9%84%DB%8C%E2%80%AD/data=!4m7!3m6!1s0x390cd943879804db:0xf8316368a1cfed66!8m2!3d28.3057253!4d77.28623!16s%2Fg%2F11fhr1q_ty!19sChIJ2wSYh0PZDDkRZu3PoWhjMfg?authuser=0&hl=en&rclk=1,"28.3057253,77.28623"
Noorani masjid,Mosque,"98H7+X43 Noorani masjid, Ram Nagar, New Industrial Township, Faridabad, Haryana 121001","Ram Nagar, New Industrial Township",98H7+X43,Faridabad,121001,Haryana,IN,https://www.google.com/maps/place/Noorani+masjid/data=!4m7!3m6!1s0x390cdd4458d7d755:0xed4482795665c3ff!8m2!3d28.3800578!4d77.3127608!16s%2Fg%2F11tsls4kk9!19sChIJVdfXWETdDDkR_8NlVnmCRO0?authuser=0&hl=en&rclk=1,"28.3800578,77.31276079999999"
Yakubiya Masjid,Mosque,"Yakubiya Masjid, 517, Badkhal Village, Faridabad, Haryana 121001",Badkhal Village,517,Faridabad,121001,Haryana,IN,https://www.google.com/maps/place/Yakubiya+Masjid/data=!4m7!3m6!1s0x390cdf5a914dc8cb:0x61e65bbe4e90d90a!8m2!3d28.4110519!4d77.2798765!16s%2Fg%2F11qh415kgn!19sChIJy8hNkVrfDDkRCtmQTr5b5mE?authuser=0&hl=en&rclk=1,"28.4110519,77.2798765"
Jannat Masjid,Mosque,"C885+4GC Jannat Masjid, Pravesh Marg, Sant Nagar, Sector 20A, Faridabad, Haryana 121001","Sant Nagar, Sector 20A","C885+4GC, Pravesh Marg",Faridabad,121001,Haryana,IN,https://www.google.com/maps/place/Jannat+Masjid/data=!4m7!3m6!1s0x390cddebfaa8a5bb:0xd056d5337220ae58!8m2!3d28.4153071!4d77.3087593!16s%2Fg%2F11fl08j67y!19sChIJu6Wo-uvdDDkRWK4gcjPVVtA?authuser=0&hl=en&rclk=1,"28.4153071,77.30875929999999"
Shaane Ilahi Masjid,Mosque,"C77H+9WF Shaane Ilahi Masjid, Badkhal Village, Faridabad, Haryana 121012",Badkhal Village,C77H+9WF,Faridabad,121012,Haryana,IN,https://www.google.com/maps/place/Shaane+Ilahi+Masjid/data=!4m7!3m6!1s0x390cde70db3ad603:0xe1f51deb7d70b37a!8m2!3d28.4134331!4d77.2797981!16s%2Fg%2F11ggk730_t!19sChIJA9Y623DeDDkRerNwfesd9eE?authuser=0&hl=en&rclk=1,"28.4134331,77.2797981"
Peer Wali Masjid Badkhal,Mosque,"C75G+QH3 Peer Wali Masjid Badkhal, bdddhkhl, Badkhal, Badkhal Village, Faridabad, Haryana 121012","bdddhkhl, Badkhal, Badkhal Village",C75G+QH3,Faridabad,121012,Haryana,IN,https://www.google.com/maps/place/Peer+Wali+Masjid+Badkhal/data=!4m7!3m6!1s0x390cdfbab2128b03:0xdc787f4aec80c265!8m2!3d28.4093871!4d77.2764334!16s%2Fg%2F11n7jww83h!19sChIJA4sSsrrfDDkRZcKA7Ep_eNw?authuser=0&hl=en&rclk=1,"28.4093871,77.2764334"
Rahmani masjid qabrustan wali,Mosque,"C897+CPG Rahmani masjid qabrustan wali, Talab Rd, Baba Nagar, Sector 19, Faridabad, Haryana 121002","Baba Nagar, Sector 19","C897+CPG, Talab Rd",Faridabad,121002,Haryana,IN,https://www.google.com/maps/place/Rahmani+masjid+qabrustan+wali/data=!4m7!3m6!1s0x390cdd5642596d25:0xbbe630dcaa2b43c2!8m2!3d28.4185699!4d77.3143145!16s%2Fg%2F11h4ycwxy7!19sChIJJW1ZQlbdDDkRwkMrqtww5rs?authuser=0&hl=en&rclk=1,"28.418569899999998,77.3143145"
Tilpat masjid,Mosque,"Tilpat masjid, 153, Tilpat, Faridabad, Haryana 121003",Tilpat,153,Faridabad,121003,Haryana,IN,https://www.google.com/maps/place/Tilpat+masjid/data=!4m7!3m6!1s0x390ce7c450f9f599:0x39a4e35f223b818!8m2!3d28.4660806!4d77.3307133!16s%2Fg%2F11h18sjs8c!19sChIJmfX5UMTnDDkRGLgj8jVOmgM?authuser=0&hl=en&rclk=1,"28.466080599999998,77.3307133"
Rahmania Masjid,Mosque,"C76F+67M Rahmania Masjid, Faridabad, Haryana 121012",,C76F+67M,Faridabad,,Haryana,IN,https://www.google.com/maps/place/Rahmania+Masjid/data=!4m7!3m6!1s0x390cdf8e745f8045:0x1d281d9ebaf28574!8m2!3d28.4105783!4d77.2731807!16s%2Fg%2F11hf2429d6!19sChIJRYBfdI7fDDkRdIXyup4dKB0?authuser=0&hl=en&rclk=1,"28.410578299999997,77.2731807"
Makkah masjid,Mosque,"G83P+39J Makkah masjid, Ekta Vihar, Jaitpur, New Delhi, Faridabad, Haryana 110044","Ekta Vihar, Jaitpur",G83P+39J,"New Delhi, Faridabad",110044,Haryana,IN,https://www.google.com/maps/place/Makkah+masjid/data=!4m7!3m6!1s0x390ce73493b20e6f:0x2ba2fb63be6735d6!8m2!3d28.5027092!4d77.3358948!16s%2Fg%2F11fl3yb7yj!19sChIJbw6ykzTnDDkR1jVnvmP7ois?authuser=0&hl=en&rclk=1,"28.502709199999998,77.33589479999999"
Masajid,Mosque,"C864+CC7 Masajid, Railway Rd, Gandhi Colony, New Industrial Township, Faridabad, Haryana 121001","Gandhi Colony, New Industrial Township","C864+CC7, Railway Rd",Faridabad,121001,Haryana,IN,https://www.google.com/maps/place/Masajid/data=!4m7!3m6!1s0x390cddc8fc8d00eb:0xc159accfa1163f55!8m2!3d28.4110398!4d77.3060428!16s%2Fg%2F11gcq69qzs!19sChIJ6wCN_MjdDDkRVT8Woc-sWcE?authuser=0&hl=en&rclk=1,"28.411039799999998,77.3060428"
Mustafa masjid,Mosque,"F8FF+5X7 Mustafa masjid, Gali Number 1, Palla Number 1, Shiva Colony, Sector 91, Faridabad, Haryana 121003","Palla Number 1, Shiva Colony, Sector 91","F8FF+5X7, Gali Number 1",Faridabad,121003,Haryana,IN,https://www.google.com/maps/place/Mustafa+masjid/data=!4m7!3m6!1s0x390ce720e2ac9713:0x5cd249c5179c431f!8m2!3d28.4729079!4d77.324913!16s%2Fg%2F11q9m1m0w8!19sChIJE5es4iDnDDkRH0OcF8VJ0lw?authuser=0&hl=en&rclk=1,"28.4729079,77.324913"
Noori jama masjid,Mosque,"F8MF+CFJ Noori jama masjid, Chetan Market, Sehatpur, Faridabad, Haryana 121013","Chetan Market, Sehatpur",F8MF+CFJ,Faridabad,121013,Haryana,IN,https://www.google.com/maps/place/Noori+jama+masjid/data=!4m7!3m6!1s0x390ce74dd368e625:0xa29c438550b3de6!8m2!3d28.4837494!4d77.3235426!16s%2Fg%2F11jt568jny!19sChIJJeZo003nDDkR5j0LVTjEKQo?authuser=0&hl=en&rclk=1,"28.483749399999997,77.3235426"
Mosque ballabgarh,Mosque,"Mosque ballabgarh, 224, Chennai - Delhi Hwy, Ballabhgarh, Faridabad, Haryana 121004",Ballabhgarh,"224, Chennai - Delhi Hwy",Faridabad,121004,Haryana,IN,https://www.google.com/maps/place/Mosque+ballabgarh/data=!4m7!3m6!1s0x390cdbe9e2c8f61f:0x4f23a5ea61e25313!8m2!3d28.3350923!4d77.3141394!16s%2Fg%2F11r_rd013f!19sChIJH_bI4unbDDkRE1PiYeqlI08?authuser=0&hl=en&rclk=1,"28.3350923,77.3141394"
Qurashi Masjid,Mosque,"88W6+2GF Qurashi Masjid, near KR thermo pack pvt ltd, Sector 24, Faridabad, Haryana 121001",Sector 24,"88W6+2GF, near KR thermo pack pvt ltd",Faridabad,,Haryana,IN,https://www.google.com/maps/place/Qurashi+Masjid/data=!4m7!3m6!1s0x390cdb9543e14b2b:0xd2fac58728274681!8m2!3d28.3450555!4d77.3113104!16s%2Fg%2F11s0jhzyld!19sChIJK0vhQ5XbDDkRgUYnKIfF-tI?authuser=0&hl=en&rclk=1,"28.345055499999997,77.3113104"
Masjid,Place of worship,"98C6+5WP Masjid, Gali No. 1, Indra Nagar, Sector 5, Faridabad, Haryana 121001","Indra Nagar, Sector 5","98C6+5WP, Gali No. 1",Faridabad,121001,Haryana,IN,https://www.google.com/maps/place/Masjid/data=!4m7!3m6!1s0x390cdd404230ff7b:0xf94d987e43243686!8m2!3d28.3704681!4d77.3123141!16s%2Fg%2F11rmvvbh2x!19sChIJe_8wQkDdDDkRhjYkQ36YTfk?authuser=0&hl=en&rclk=1,"28.3704681,77.3123141"
Masjid Ghazipur,Mosque,"Masjid Ghazipur, 239, Block-DC, Feroz Gandhi Colony, Sector 51, Faridabad, Haryana 121005","Block-DC, Feroz Gandhi Colony, Sector 51",239,Faridabad,121005,Haryana,IN,https://www.google.com/maps/place/Masjid+Ghazipur/data=!4m7!3m6!1s0x390cdfd3a05ea56d:0x3edcaa9b94666060!8m2!3d28.3790079!4d77.2661154!16s%2Fg%2F11khw2k5q9!19sChIJbaVeoNPfDDkRYGBmlJuq3D4?authuser=0&hl=en&rclk=1,"28.379007899999998,77.26611539999999"
Madina masjid,Mosque,"Madina masjid, Plot. Number:-462/Gali No :-25, Masjid wali gali, Ganpati Colony Main Rd, Roshan Nagar, Faridabad, Haryana 121013","Ganpati Colony, Roshan Nagar","Plot. Number:-462/Gali No :-25, Masjid wali gali, Ganpati Colony Main Rd",Faridabad,121013,Haryana,IN,https://www.google.com/maps/place/Madina+masjid/data=!4m7!3m6!1s0x390ce7b9052a69bd:0x191819b579b19092!8m2!3d28.4851816!4d77.3429545!16s%2Fg%2F11snt56kwk!19sChIJvWkqBbnnDDkRkpCxebUZGBk?authuser=0&hl=en&rclk=1,"28.485181599999997,77.34295449999999"
Masjid,Mosque,"Masjid, 23, Old Sher Shah Suri Rd, Sarai Khawaja Village, Sector 36, Faridabad, Haryana 121003","Sarai Khawaja Village, Sector 36","23, Old Sher Shah Suri Rd",Faridabad,121003,Haryana,IN,https://www.google.com/maps/place/Masjid/data=!4m7!3m6!1s0x390ce7c01f2b1857:0xa21495bc726c382a!8m2!3d28.4755333!4d77.3098119!16s%2Fg%2F11l5vbx703!19sChIJVxgrH8DnDDkRKjhscryVFKI?authuser=0&hl=en&rclk=1,"28.4755333,77.3098119"
mosque,Mosque,"G86V+7G5 mosque, Faridabad, Haryana 110044",,G86V+7G5,Faridabad,110044,Haryana,IN,https://www.google.com/maps/place/mosque/data=!4m7!3m6!1s0x390ce65acab651f3:0x447b1c765bd3e2f6!8m2!3d28.5106318!4d77.3438519!16s%2Fg%2F11f_j9h3y1!19sChIJ81G2ylrmDDkR9uLTW3Yce0Q?authuser=0&hl=en&rclk=1,"28.5106318,77.34385189999999"
Fatima mosque,Mosque,"87WM+2XW Fatima mosque, Guanchhi Gram, Sector 54, Faridabad, Haryana 121005","Guanchhi Gram, Sector 54",87WM+2XW,Faridabad,121005,Haryana,IN,https://www.google.com/maps/place/Fatima+mosque/data=!4m7!3m6!1s0x390cd9b92cfcf173:0x74247fcfd9059440!8m2!3d28.3452624!4d77.2851578!16s%2Fg%2F11t7fl3x4w!19sChIJc_H8LLnZDDkRQJQF2c9_JHQ?authuser=0&hl=en&rclk=1,"28.3452624,77.2851578"
Noori masjid,Mosque,"C8HH+52H Noori masjid, Basilva Colony, Old Faridabad, Faridabad, Haryana 121002","Basilva Colony, Old Faridabad",C8HH+52H,Faridabad,121002,Haryana,IN,https://www.google.com/maps/place/Noori+masjid/data=!4m7!3m6!1s0x390cddb832d06651:0x8589a865a719bab2!8m2!3d28.4279288!4d77.3276178!16s%2Fg%2F11h8bx74dm!19sChIJUWbQMrjdDDkRsroZp2WoiYU?authuser=0&hl=en&rclk=1,"28.4279288,77.3276178"
MASJID REHMANIA ANJUMAN ISLAMIA,Mosque,"C898+C5F MASJID REHMANIA ANJUMAN ISLAMIA, Kapoori Colony, Sector 19, Faridabad, Haryana 121002","Kapoori Colony, Sector 19",C898+C5F,Faridabad,121002,Haryana,IN,https://www.google.com/maps/place/MASJID+REHMANIA+ANJUMAN+ISLAMIA/data=!4m7!3m6!1s0x390cdd257b9aacd3:0xf8546cbd50a58b83!8m2!3d28.4184216!4d77.3149505!16s%2Fg%2F11rzgp_qpx!19sChIJ06yaeyXdDDkRg4ulUL1sVPg?authuser=0&hl=en&rclk=1,"28.4184216,77.3149505"
Sainik Colony More Masjid,Mosque,"97VP+R99 Sainik Colony More Masjid, Nehru Colony, Sector 49, Faridabad, Haryana 121001","Nehru Colony, Sector 49",97VP+R99,Faridabad,121001,Haryana,IN,https://www.google.com/maps/place/Sainik+Colony+More+Masjid/data=!4m7!3m6!1s0x390cde82027aaaab:0x8459500ff1d4c65e!8m2!3d28.3945346!4d77.2859941!16s%2Fg%2F11kj3f2ms3!19sChIJq6p6AoLeDDkRXsbU8Q9QWYQ?authuser=0&hl=en&rclk=1,"28.3945346,77.2859941"
Masjid,Religious destination,"C76G+4V2 Masjid, bdddhkhl, Badkhal, Badkhal Village, Faridabad, Haryana 121012","bdddhkhl, Badkhal, Badkhal Village",C76G+4V2,Faridabad,121012,Haryana,IN,https://www.google.com/maps/place/Masjid/data=!4m7!3m6!1s0x390cdfea5b77a3c3:0x5398045c541005c1!8m2!3d28.4102556!4d77.2771512!16s%2Fg%2F11v0gyw3fw!19sChIJw6N3W-rfDDkRwQUQVFwEmFM?authuser=0&hl=en&rclk=1,"28.4102556,77.27715119999999"
Sher Mohammadi masjid badkal,Mosque,"C75H+78H Sher Mohammadi masjid badkal, Badkhal Village, Faridabad, Haryana 121012",Badkhal Village,C75H+78H,Faridabad,121012,Haryana,IN,https://www.google.com/maps/place/Sher+Mohammadi+masjid+badkal/data=!4m7!3m6!1s0x390cdfbc60df7bdd:0xa039520c008bb99b!8m2!3d28.4081881!4d77.2783571!16s%2Fg%2F11sz2rt4yk!19sChIJ3XvfYLzfDDkRm7mLAAxSOaA?authuser=0&hl=en&rclk=1,"28.4081881,77.2783571"
Mohammadi Masjid,Mosque,"97CC+HP6 Mohammadi Masjid, Ghazipur, Sector 51, Faridabad, Haryana 121001","Ghazipur, Sector 51",97CC+HP6,Faridabad,121001,Haryana,IN,https://www.google.com/maps/place/Mohammadi+Masjid/data=!4m7!3m6!1s0x390cdf099dfeba15:0x43336435858b800a!8m2!3d28.3714242!4d77.2717505!16s%2Fg%2F11twhtg7cm!19sChIJFbr-nQnfDDkRCoCLhTVkM0M?authuser=0&hl=en&rclk=1,"28.3714242,77.2717505"
Madina Masjid,Mosque,"Madina Masjid, 3689, Masjid Wali Gali, Janta Colony, Sector 60, Faridabad, Haryana 121004","Janta Colony, Sector 60","3689, Masjid Wali Gali",Faridabad,121004,Haryana,IN,https://www.google.com/maps/place/Madina+Masjid/data=!4m7!3m6!1s0x390cdb8855d8687b:0xbfcbbe5e372b44c4!8m2!3d28.319159!4d77.3201321!16s%2Fg%2F11pz2wlf7m!19sChIJe2jYVYjbDDkRxEQrN16-y78?authuser=0&hl=en&rclk=1,"28.319159,77.3201321"
Jamiya Mosque,Mosque,"C74G+VHP Jamiya Mosque, Badkhal Ext, Badkhal Village, Faridabad, Haryana 121012",Badkhal Village,"C74G+VHP, Badkhal Ext",Faridabad,121012,Haryana,IN,https://www.google.com/maps/place/Jamiya+Mosque/data=!4m7!3m6!1s0x390cdf177f020039:0x117298345703bc8c!8m2!3d28.407221!4d77.2764504!16s%2Fg%2F11nnzb0b7k!19sChIJOQACfxffDDkRjLwDVzSYchE?authuser=0&hl=en&rclk=1,"28.407221,77.2764504"
Masjid Gareeb Nawaz,Mosque,"98P6+M32 Masjid Gareeb Nawaz, Krishna Nagar, New Industrial Township, Faridabad, Haryana 121001","Krishna Nagar, New Industrial Township",98P6+M32,Faridabad,121001,Haryana,IN,https://www.google.com/maps/place/Masjid+Gareeb+Nawaz/data=!4m7!3m6!1s0x390cdd66fb1db00b:0xded118a88a9a5435!8m2!3d28.3866373!4d77.3101518!16s%2Fg%2F11j_5w1jrt!19sChIJC7Ad-2bdDDkRNVSaiqgY0d4?authuser=0&hl=en&rclk=1,"28.3866373,77.3101518"
Masjid ka gate,Mosque,"Masjid ka gate, 88QF+7F3 Near Masjid Wali Gali, NCR, Main Market, Ballabhgarh, Faridabad, Region, Haryana 121004","Main Market, Baniawada, Sector 1, Ballabhgarh","88QF+7F3 Near Masjid Wali Gali, NCR","Faridabad, Region",121004,Haryana,IN,https://www.google.com/maps/place/Masjid+ka+gate/data=!4m7!3m6!1s0x390cdb73704cd6bb:0xb3d151545d6af64c!8m2!3d28.3381324!4d77.3235832!16s%2Fg%2F11y1nbdcvx!19sChIJu9ZMcHPbDDkRTPZqXVRR0bM?authuser=0&hl=en&rclk=1,"28.3381324,77.3235832"
BILAL MASJID,Mosque,"F8WR+CXQ BILAL MASJID, Saraswati Colony, Nikhil Vihar Colony, Ismailpur Extension, New Delhi, Faridabad, Haryana 121013","Saraswati Colony, Nikhil Vihar Colony, Ismailpur Extension",F8WR+CXQ,"New Delhi, Faridabad",121013,Haryana,IN,https://www.google.com/maps/place/BILAL+MASJID/data=!4m7!3m6!1s0x390ce7b9aa1c0483:0x3543cc41cdbc784a!8m2!3d28.496086!4d77.3424926!16s%2Fg%2F11sv5nvhf_!19sChIJgwQcqrnnDDkRSni8zUHMQzU?authuser=0&hl=en&rclk=1,"28.496086,77.3424926"
Madina masjid,Mosque,"87XJ+29V Madina masjid, 45 Feet Road, Jeevan Nagar, Sector 54, Faridabad, Haryana 121004","Jeevan Nagar, Sector 54","87XJ+29V, 45 Feet Road",Faridabad,121004,Haryana,IN,https://www.google.com/maps/place/Madina+masjid/data=!4m7!3m6!1s0x390cd98f7d3c043f:0x1af8d4aebc864dcc!8m2!3d28.3476171!4d77.2809136!16s%2Fg%2F11sdtzd8g7!19sChIJPwQ8fY_ZDDkRzE2GvK7U-Bo?authuser=0&hl=en&rclk=1,"28.347617099999997,77.28091359999999"
Khuda bakhsh masjid,Mosque,"C74G+XR5 Khuda bakhsh masjid, Badkhal, Badkhal Village, Faridabad, Haryana 121012","Badkhal, Badkhal Village",C74G+XR5,Faridabad,121012,Haryana,IN,https://www.google.com/maps/place/Khuda+bakhsh+masjid/data=!4m7!3m6!1s0x390cdf3ef5e7650b:0x994c503e2f49d9eb!8m2!3d28.4073878!4d77.2771109!16s%2Fg%2F11vks819ty!19sChIJC2Xn9T7fDDkR69lJLz5QTJk?authuser=0&hl=en&rclk=1,"28.4073878,77.2771109"
