name,main_category,address,address_ward,address_street,address_city,address_postal_code,address_state,address_country_code,link,coordinates
Jama Masjid,Mosque,"Jama Masjid, Old Delhi, Delhi, 110006","Jama Masjid, Old Delhi",,Delhi,110006,Delhi,IN,https://www.google.com/maps/place/Jama+Masjid/data=!4m7!3m6!1s0x390cfd18df89b215:0xdd57369e29bf9d96!8m2!3d28.6506792!4d77.2334421!16zL20vMDR5emo1!19sChIJFbKJ3xj9DDkRlp2_KZ42V90?authuser=0&hl=en&rclk=1,"28.6506792,77.23344209999999"
Masjid Khilji - msjdi khljy,Mosque,"Masjid Khilji - msjdi khljy, Baoli Gate, Baoli Gate Road Hazrat, Nizamuddin, New Delhi, Delhi 110013","Nizamuddin, Nizammudin West Slum, Nizamuddin West","Baoli Gate, Baoli Gate Road Hazrat",New Delhi,110013,Delhi,IN,https://www.google.com/maps/place/Masjid+Khilji+-+%D9%85%D8%B3%D8%AC%D8%AF%D9%90+%D8%AE%D9%84%D8%AC%DB%8C%E2%80%AD/data=!4m7!3m6!1s0x390ce31d4ae038f5:0x4e434426d4dffe5a!8m2!3d28.5913522!4d77.2418087!16s%2Fg%2F11bwkbdykc!19sChIJ9TjgSh3jDDkRWv7f1CZEQ04?authuser=0&hl=en&rclk=1,"28.5913522,77.24180869999999"
Masjid Mujeeb Bagh,Mosque,"H74R+R4J Masjid Mujeeb Bagh, Mujeeb Bagh, Jamia Nagar, Okhla, New Delhi, Delhi 110025","Mujeeb Bagh, Jamia Nagar, Okhla",H74R+R4J,New Delhi,110025,Delhi,IN,https://www.google.com/maps/place/Masjid+Mujeeb+Bagh/data=!4m7!3m6!1s0x390ce40bc79e1ce9:0x18ab01f5fdcf10b3!8m2!3d28.5570856!4d77.2902574!16s%2Fg%2F11hbvrlrnj!19sChIJ6RyexwvkDDkRsxDP_fUBqxg?authuser=0&hl=en&rclk=1,"28.557085599999997,77.2902574"
Jama Masjid Qamrul Huda,Mosque,"Jama Masjid Qamrul Huda, B Blook 2/60 Street - 4 Kabir Nagar shahdara delhi, kabir nagar babar pur shahdara delhi, New Delhi, Delhi 110094","Block B, Kabir Nagar, Shahdara","B Blook 2/60 Street - 4 Kabir Nagar shahdara delhi, kabir nagar babar pur shahdara delhi","New Delhi, Delhi",110094,Delhi,IN,https://www.google.com/maps/place/Jama+Masjid+Qamrul+Huda/data=!4m7!3m6!1s0x390cfc76796c04bb:0xd43f4aad09267ef2!8m2!3d28.6924804!4d77.2840732!16s%2Fg%2F11g8dgh75k!19sChIJuwRseXb8DDkR8n4mCa1KP9Q?authuser=0&hl=en&rclk=1,"28.692480399999997,77.2840732"
JAMA MASJID KHYALA msjd,Mosque,"JAMA MASJID KHYALA msjd, A Block, 830 Bus Stop,Khyala, near kaisho pur Mandi, Khayala, Vishnu Garden, New Delhi, Delhi 110018","Khayala, Vishnu Garden","A Block, 830 Bus Stop,Khyala, near kaisho pur Mandi","New Delhi, Delhi",110018,Delhi,IN,https://www.google.com/maps/place/JAMA+MASJID+KHYALA+%D9%85%D8%B3%D8%AC%D8%AF%E2%80%AD/data=!4m7!3m6!1s0x390d0486a64bd433:0x1d4915a77e8074da!8m2!3d28.6521001!4d77.0963329!16s%2Fg%2F11bt_hw75j!19sChIJM9RLpoYEDTkR2nSAfqcVSR0?authuser=0&hl=en&rclk=1,"28.6521001,77.0963329"
Jama Masjid Karol Bagh,Mosque,"Jama Masjid Karol Bagh, 2579, Ajmal Khan Rd, Block 35M, Beadonpura, Karol Bagh, New Delhi, Delhi, 110005","Block 35M, Beadonpura, Karol Bagh","2579, Ajmal Khan Rd","New Delhi, Delhi",110005,Delhi,IN,https://www.google.com/maps/place/Jama+Masjid+Karol+Bagh/data=!4m7!3m6!1s0x390d029dfa3c1e01:0xa369c394e95dff11!8m2!3d28.6502862!4d77.1943191!16s%2Fg%2F12qfvxv2v!19sChIJAR48-p0CDTkREf9d6ZTDaaM?authuser=0&hl=en&rclk=1,"28.6502862,77.1943191"
Mohammadi Masjid,Mosque,"G7XX+C4X Mohammadi Masjid, Shaheen Bagh, Block E, Jamia Nagar, Okhla, New Delhi, Delhi 110025","Shaheen Bagh, Block E, Jamia Nagar, Okhla",G7XX+C4X,New Delhi,110025,Delhi,IN,https://www.google.com/maps/place/Mohammadi+Masjid/data=!4m7!3m6!1s0x390ce41acd709b67:0x8df25e5235479b77!8m2!3d28.5486052!4d77.2978715!16s%2Fg%2F11cp1893xh!19sChIJZ5twzRrkDDkRd5tHNVJe8o0?authuser=0&hl=en&rclk=1,"28.548605199999997,77.2978715"
MADINA MASJID,Mosque,"G7J9+XG8 MADINA MASJID, Ma Anandmayee Marg, Rajiv Gandhi Colony, Kalkaji Extension, Block A 10, Kalkaji Extension, Kalkaji, New Delhi, Delhi 110019","Rajiv Gandhi Colony, Kalkaji Extension, Block A 10, Kalkaji Extension, Kalkaji","G7J9+XG8, Ma Anandmayee Marg",New Delhi,110019,Delhi,IN,https://www.google.com/maps/place/MADINA+MASJID/data=!4m7!3m6!1s0x390ce15ec93f0d4b:0xe11c823a82ccf707!8m2!3d28.5324104!4d77.2688383!16s%2Fg%2F119tcv5by!19sChIJSw0_yV7hDDkRB_fMgjqCHOE?authuser=0&hl=en&rclk=1,"28.5324104,77.2688383"
Jama Masjid (Shaheen Bagh),Mosque,"Jama Masjid (Shaheen Bagh), 12, Kalindi Kunj Rd, Block B, Jamia Nagar, Jasola, New Delhi, Delhi 110025","Block B, Jamia Nagar, Jasola","12, Kalindi Kunj Rd",New Delhi,110025,Delhi,IN,https://www.google.com/maps/place/Jama+Masjid+%28Shaheen+Bagh%29/data=!4m7!3m6!1s0x390ce41a3d9d581b:0xc7b0e62465b11de9!8m2!3d28.5496905!4d77.3028252!16s%2Fg%2F11g7p2t2hd!19sChIJG1idPRrkDDkR6R2xZSTmsMc?authuser=0&hl=en&rclk=1,"28.549690499999997,77.3028252"
"Jama Masjid, Khadda Colony jm` msjd",Mosque,"Jama Masjid, Khadda Colony jm` msjd, D-202, near by Jama Masjid Gali, Jaitpur Extension Part II, Khadda Colony, Badarpur, New Delhi, Delhi 110044","Jaitpur Extension Part II, Khadda Colony, Badarpur","D-202, near by Jama Masjid Gali",New Delhi,110044,Delhi,IN,"https://www.google.com/maps/place/Jama+Masjid,+Khadda+Colony+%D8%AC%D8%A7%D9%85%D8%B9+%D9%85%D8%B3%D8%AC%D8%AF%E2%80%AD/data=!4m7!3m6!1s0x390ce65a1cc2d345:0x508d72d241ba7c2f!8m2!3d28.5094725!4d77.3384064!16s%2Fg%2F11b_23cdbd!19sChIJRdPCHFrmDDkRL3y6QdJyjVA?authuser=0&hl=en&rclk=1","28.509472499999998,77.3384064"
Masjid and Madarsa,Mosque,"H78P+G28 Masjid and Madarsa, Jamia, Batla House, Jamia Nagar, Okhla, New Delhi, Delhi 110025","Jamia, Batla House, Jamia Nagar, Okhla",H78P+G28,New Delhi,110025,Delhi,IN,https://www.google.com/maps/place/Masjid+and+Madarsa/data=!4m7!3m6!1s0x390ce38a18a5d97f:0xdcfc61f3d0f88168!8m2!3d28.5662905!4d77.2850829!16s%2Fg%2F1hg4wfd46!19sChIJf9mlGIrjDDkRaIH40PNh_Nw?authuser=0&hl=en&rclk=1,"28.566290499999997,77.28508289999999"
Jaame Masjid Makki,Mosque,"P24X+X45 Jaame Masjid Makki, Inder Enclave Rd., Phase II, Kirari Suleman Nagar, Delhi, 110086","Phase II, Kirari Suleman Nagar","P24X+X45, Inder Enclave Rd.",Delhi,110086,Delhi,IN,https://www.google.com/maps/place/Jaame+Masjid+Makki/data=!4m7!3m6!1s0x390d067affea217d:0xeffe8baecd8f912d!8m2!3d28.7073751!4d77.0478504!16s%2Fg%2F11g86pd5cz!19sChIJfSHq_3oGDTkRLZGPza6L_u8?authuser=0&hl=en&rclk=1,"28.7073751,77.0478504"
Masjid Umar ibn Khattab Ahle Hadees,Mosque,"G8X3+2R4 Masjid Umar ibn Khattab Ahle Hadees, Kalindi Kunj Rd, Shaheen Bagh, Jamia Nagar, Okhla, New Delhi, Delhi 110025","Shaheen Bagh, Jamia Nagar, Okhla","G8X3+2R4, Kalindi Kunj Rd",New Delhi,110025,Delhi,IN,https://www.google.com/maps/place/Masjid+Umar+ibn+Khattab+Ahle+Hadees/data=!4m7!3m6!1s0x390ce4196e33e035:0x7187e898e383e521!8m2!3d28.5475049!4d77.3045864!16s%2Fg%2F11ddwvd6j7!19sChIJNeAzbhnkDDkRIeWD45joh3E?authuser=0&hl=en&rclk=1,"28.5475049,77.30458639999999"
Jam'a Masjid Muhammadi (Badi Masjid),Mosque,"Jam'a Masjid Muhammadi (Badi Masjid), Open 24*365, From 'Fajr' Prayer to 'Isha' Prayer), Phase 2, i, Nangloi, Delhi, 110041","Block A, JJ Colony No 2, Nangloi","Open 24*365, From 'Fajr' Prayer to 'Isha' Prayer), Phase 2, i",Delhi,110041,Delhi,IN,https://www.google.com/maps/place/Jam%27a+Masjid+Muhammadi+%28Badi+Masjid%29/data=!4m7!3m6!1s0x390d0431466b1907:0x27ba04939e7e31f6!8m2!3d28.6839018!4d77.0633588!16s%2Fg%2F11bx6v55xw!19sChIJBxlrRjEEDTkR9jF-npMEuic?authuser=0&hl=en&rclk=1,"28.683901799999997,77.0633588"
Masjid Chakkarwali,Mosque,"H6VV+J99 Masjid Chakkarwali, Dr Zakir Hussain Marg, Nizamuddin, National Zoological Park, Sundar Nagar, New Delhi, Delhi 110003","Nizamuddin, National Zoological Park, Sundar Nagar","H6VV+J99, Dr Zakir Hussain Marg",New Delhi,110003,Delhi,IN,https://www.google.com/maps/place/Masjid+Chakkarwali/data=!4m7!3m6!1s0x390ce31d01969b01:0xa554bb4cb707340e!8m2!3d28.5940396!4d77.2434789!16s%2Fg%2F1tg6nhqh!19sChIJAZuWAR3jDDkRDjQHt0y7VKU?authuser=0&hl=en&rclk=1,"28.5940396,77.2434789"
bilal masjid.,Mosque,"P24V+6FG bilal masjid., Durga Mandir Rd, Phase 2, Inder Enclave, Rohini, New Delhi, Delhi, 110086","Phase 2, Inder Enclave, Rohini","P24V+6FG, Durga Mandir Rd","New Delhi, Delhi",110086,Delhi,IN,https://www.google.com/maps/place/bilal+masjid./data=!4m7!3m6!1s0x390d06709583ec61:0x52f266630d1af0ed!8m2!3d28.7055626!4d77.0437043!16s%2Fg%2F11g6r27xpk!19sChIJYeyDlXAGDTkR7fAaDWNm8lI?authuser=0&hl=en&rclk=1,"28.7055626,77.0437043"
Saeediya Masjid,Mosque,"Saeediya Masjid, 45, New Silampur Gali, Block A, Chauhan Banger, Shahdara, Delhi, 110031","Block A, Chauhan Banger, Shahdara","45, New Silampur Gali",Delhi,110031,Delhi,IN,https://www.google.com/maps/place/Saeediya+Masjid/data=!4m7!3m6!1s0x390cfc61230920b1:0xd4902005e34cb106!8m2!3d28.678415!4d77.2672561!16s%2Fg%2F11c6qcjmhv!19sChIJsSAJI2H8DDkRBrFM4wUgkNQ?authuser=0&hl=en&rclk=1,"28.678414999999998,77.2672561"
Kalimullah Masjid,Mosque,"Kalimullah Masjid, Makki Masjid, 145, Gali Number B, Block 2, Madanpur Khadar Phase 3, Madanpur Khadar, New Delhi, Delhi 110076","Block 2, Madanpur Khadar Phase 3, Madanpur Khadar","Makki Masjid, 145, Gali Number B",New Delhi,110076,Delhi,IN,https://www.google.com/maps/place/Kalimullah+Masjid/data=!4m7!3m6!1s0x390ce6897ef8478d:0x2304370c8a3d48bf!8m2!3d28.525354!4d77.3294863!16s%2Fg%2F11gckhfvpp!19sChIJjUf4fonmDDkRv0g9igw3BCM?authuser=0&hl=en&rclk=1,"28.525354,77.3294863"
Mohammadi Masjid,Mosque,"M7JC+4R2 Mohammadi Masjid, Chauhan Banger, Shahdara, Delhi, 110031","Chauhan Banger, Shahdara",M7JC+4R2,Delhi,110031,Delhi,IN,https://www.google.com/maps/place/Mohammadi+Masjid/data=!4m7!3m6!1s0x390cfc647f925475:0xea73bafddc2f968a!8m2!3d28.6802653!4d77.2720261!16s%2Fg%2F1tfldmh_!19sChIJdVSSf2T8DDkRipYv3P26c-o?authuser=0&hl=en&rclk=1,"28.6802653,77.27202609999999"
Jama masjid,Mosque,"Jama masjid, Metro station, Giri Nagar, Maa Anandmayee Marg, near Govindpuri, Kalkaji, New Delhi, Delhi 110019","Ami Chand Khand, Block AC, Giri Nagar, Kalkaji","Metro station, Giri Nagar, Maa Anandmayee Marg, near Govindpuri",New Delhi,110019,Delhi,IN,https://www.google.com/maps/place/Jama+masjid/data=!4m7!3m6!1s0x390ce3915ddf4023:0xc0785bd0f9e63fa0!8m2!3d28.5435534!4d77.2644385!16s%2Fg%2F11fj32cs9z!19sChIJI0DfXZHjDDkRoD_m-dBbeMA?authuser=0&hl=en&rclk=1,"28.5435534,77.2644385"
Ahle Sunnat wal jamaat RazaeMuhammadi Masjid,Mosque,"J6X8+JC2 Ahle Sunnat wal jamaat RazaeMuhammadi Masjid, Aram Nagar, Paharganj, New Delhi, Delhi 110055","Aram Nagar, Paharganj",J6X8+JC2,New Delhi,110055,Delhi,IN,https://www.google.com/maps/place/Ahle+Sunnat+wal+jamaat+RazaeMuhammadi+Masjid/data=!4m7!3m6!1s0x390cfd6b1c55570b:0xb6cbdaabca9cc6b2!8m2!3d28.6490022!4d77.2160178!16s%2Fg%2F11g6mj_5x9!19sChIJC1dVHGv9DDkRssacyqvay7Y?authuser=0&hl=en&rclk=1,"28.649002199999998,77.2160178"
Muhammadi Masjid,Mosque,"H74M+5RP Muhammadi Masjid, Street Number 12, Ghaffar Manzil Colony, Jamia Nagar, Okhla, New Delhi, Delhi 110025","Ghaffar Manzil Colony, Jamia Nagar, Okhla","H74M+5RP, Street Number 12",New Delhi,110025,Delhi,IN,https://www.google.com/maps/place/Muhammadi+Masjid/data=!4m7!3m6!1s0x390ce3f5d6d27a8f:0x9bb0c5ffba04ae9e!8m2!3d28.555462!4d77.2845884!16s%2Fg%2F12hk8llv8!19sChIJj3rS1vXjDDkRnq4Euv_FsJs?authuser=0&hl=en&rclk=1,"28.555462,77.28458839999999"
Noorani Masjid,Mosque,"F59M+H46 Noorani Masjid, Chandan Hola, New Delhi, Delhi 110074",Chandan Hola,F59M+H46,New Delhi,110074,Delhi,IN,https://www.google.com/maps/place/Noorani+Masjid/data=!4m7!3m6!1s0x390d1fc532333ee3:0x8f9790e5b736649b!8m2!3d28.4689233!4d77.1827702!16s%2Fg%2F11b7hpcszy!19sChIJ4z4zMsUfDTkRm2Q2t-WQl48?authuser=0&hl=en&rclk=1,"28.4689233,77.1827702"
"Noorani Masjid, (Zakir Nagar)",Mosque,"H7CH+9VG Noorani Masjid, (Zakir Nagar), Gali Number 39, Zakir Nagar, New Friends Colony, New Delhi, Delhi 110025","Zakir Nagar, New Friends Colony","H7CH+9VG, Gali Number 39",New Delhi,110025,Delhi,IN,"https://www.google.com/maps/place/Noorani+Masjid,+%28Zakir+Nagar%29/data=!4m7!3m6!1s0x390ce38f45a96e4d:0x7eeaca0dd75db25d!8m2!3d28.5709494!4d77.2796972!16s%2Fg%2F1hm5b98b0!19sChIJTW6pRY_jDDkRXbJd1w3K6n4?authuser=0&hl=en&rclk=1","28.5709494,77.2796972"
Jama Masjid,Mosque,"Jama Masjid, F-132, Kalindi Kunj Rd, Abul Fazal Enclave Part 1, Part 1 Abul Fazal Enclave, Block C, Jamia Nagar, Okhla, New Delhi, Delhi 110025","Abul Fazal Enclave Part 1, Part 1 Abul Fazal Enclave, Block C, Jamia Nagar, Okhla","F-132, Kalindi Kunj Rd",New Delhi,110025,Delhi,IN,https://www.google.com/maps/place/Jama+Masjid/data=!4m7!3m6!1s0x390ce474fc283e6d:0xbf47a3d3e25a4cad!8m2!3d28.560132!4d77.294788!16s%2Fg%2F12hkzr6p1!19sChIJbT4o_HTkDDkRrUxa4tOjR78?authuser=0&hl=en&rclk=1,"28.560132,77.294788"
Bagh Wali Masjid,Mosque,"G883+6W6 Bagh Wali Masjid, New, Gautampuri Awas, Badarpur, New Delhi, Delhi 110044","Gautampuri Awas, Badarpur","G883+6W6, New",New Delhi,110044,Delhi,IN,https://www.google.com/maps/place/Bagh+Wali+Masjid/data=!4m7!3m6!1s0x390ce6c0b8babe6b:0xc693f6450121cff1!8m2!3d28.5155365!4d77.3047507!16s%2Fg%2F11f_d7rxpt!19sChIJa766uMDmDDkR8c8hAUX2k8Y?authuser=0&hl=en&rclk=1,"28.5155365,77.3047507"
Khudadad Masjid,Mosque,"F8G9+CV8 Khudadad Masjid, Chauhan Colony, Vedram Colony, Sehatpur, Faridabad, Haryana 121013","Chauhan Colony, Vedram Colony, Sehatpur",F8G9+CV8,Faridabad,121013,Haryana,IN,https://www.google.com/maps/place/Khudadad+Masjid/data=!4m7!3m6!1s0x390ce7126862945d:0x4d94f98c5826f24b!8m2!3d28.4760485!4d77.3196943!16s%2Fg%2F11hcs15qzg!19sChIJXZRiaBLnDDkRS_ImWIz5lE0?authuser=0&hl=en&rclk=1,"28.476048499999997,77.3196943"
Mosque Chilla Hazrat Nizamuddin msjd,Mosque,"H7W2+2RP Mosque Chilla Hazrat Nizamuddin msjd, Nizamuddin, Nizamuddin East, New Delhi, Delhi 110013","Nizamuddin, Nizamuddin East",H7W2+2RP,New Delhi,110013,Delhi,IN,https://www.google.com/maps/place/Mosque+Chilla+Hazrat+Nizamuddin+%D9%85%D8%B3%D8%AC%D8%AF%E2%80%AD/data=!4m7!3m6!1s0x390ce3107fc9997d:0x997b210c51155e5d!8m2!3d28.5950956!4d77.2520691!16s%2Fg%2F11dzt4k954!19sChIJfZnJfxDjDDkRXV4VUQwhe5k?authuser=0&hl=en&rclk=1,"28.595095599999997,77.2520691"
Qunaa Wali Masjid,Mosque,"F59M+VJ9 Qunaa Wali Masjid, Chandan Hola, New Delhi, Delhi 110074",Chandan Hola,F59M+VJ9,New Delhi,110074,Delhi,IN,https://www.google.com/maps/place/Qunaa+Wali+Masjid/data=!4m7!3m6!1s0x390d1fdabf34fde1:0x4fef7387aa249da4!8m2!3d28.469673!4d77.1841123!16s%2Fg%2F11b7hnh4ym!19sChIJ4f00v9ofDTkRpJ0kqodz708?authuser=0&hl=en&rclk=1,"28.469673,77.1841123"
bengali masjid,Mosque,"H764+VVX bengali masjid, Captain Gaur Marg, B Block, Sri Niwaspuri, New Delhi, Delhi 110065","B Block, Sri Niwaspuri","H764+VVX, Captain Gaur Marg",New Delhi,110065,Delhi,IN,https://www.google.com/maps/place/bengali+masjid/data=!4m7!3m6!1s0x390ce3b939444715:0x2a65d4354b4231cf!8m2!3d28.5622322!4d77.257234!16s%2Fg%2F11f24v_2cr!19sChIJFUdEObnjDDkRzzFCSzXUZSo?authuser=0&hl=en&rclk=1,"28.5622322,77.257234"
Noori Masjid,Mosque,"Noori Masjid, Chander Vihar, Nilothi, Delhi, 110041","Chander Vihar, Nilothi",,Delhi,110041,Delhi,IN,https://www.google.com/maps/place/Noori+Masjid/data=!4m7!3m6!1s0x390d0456041cf913:0xee0e299e0ae548c9!8m2!3d28.6547668!4d77.0626354!16s%2Fg%2F11df7khvrs!19sChIJE_kcBFYEDTkRyUjlCp4pDu4?authuser=0&hl=en&rclk=1,"28.654766799999997,77.06263539999999"
Masjid Mashal Chiyan,Mosque,"Masjid Mashal Chiyan, 2100, Pahari Bhojla Rd, Pahari Bhojla, Sita Ram Bazar, Old Delhi, Delhi, 110006","Pahari Bhojla, Sita Ram Bazar, Old Delhi","2100, Pahari Bhojla Rd",Delhi,110006,Delhi,IN,https://www.google.com/maps/place/Masjid+Mashal+Chiyan/data=!4m7!3m6!1s0x390cfd225b6ed379:0x9d5cccd781f0a815!8m2!3d28.6454716!4d77.232231!16s%2Fg%2F11f1211zsv!19sChIJedNuWyL9DDkRFajwgdfMXJ0?authuser=0&hl=en&rclk=1,"28.6454716,77.232231"
Masjid Badi msjd,Mosque,"Masjid Badi msjd, 893,, Chittli Qabar Bazar Rd, Jama Masjid, Chandni Chowk, New Delhi, Delhi 110006","Bazar Chitli Qabar, Kucha Chelan, Jama Masjid, Chandni Chowk","893,, Chittli Qabar Bazar Rd","New Delhi, Delhi",110006,Delhi,IN,https://www.google.com/maps/place/Masjid+Badi+%D9%85%D8%B3%D8%AC%D8%AF%E2%80%AD/data=!4m7!3m6!1s0x390cfd219cfec1f3:0x93ccacb281d71709!8m2!3d28.645321!4d77.2357133!16s%2Fg%2F12m98gjn5!19sChIJ88H-nCH9DDkRCRfXgbKszJM?authuser=0&hl=en&rclk=1,"28.645321,77.2357133"
Masjid msjd,Mosque,"H6VX+34H Masjid msjd, Nizamuddin, Nizamuddin East, New Delhi, Delhi 110013","Nizamuddin, Nizamuddin East",H6VX+34H,New Delhi,110013,Delhi,IN,https://www.google.com/maps/place/Masjid+%D9%85%D8%B3%D8%AC%D8%AF%E2%80%AD/data=!4m7!3m6!1s0x390ce31b384dab99:0x1853a43e8d3f0e37!8m2!3d28.592699!4d77.247867!16s%2Fg%2F11g6vgsy16!19sChIJmatNOBvjDDkRNw4_jT6kUxg?authuser=0&hl=en&rclk=1,"28.592699,77.247867"
Masjid,Mosque,"H769+P87 Masjid, Block A, Friends Colony East, New Friends Colony, New Delhi, Delhi 110025","Block A, Friends Colony East, New Friends Colony",H769+P87,New Delhi,110025,Delhi,IN,https://www.google.com/maps/place/Masjid/data=!4m7!3m6!1s0x390ce3a3874c1a6d:0x3777b5148e43553a!8m2!3d28.5617917!4d77.2683072!16s%2Fg%2F11grc87l61!19sChIJbRpMh6PjDDkROlVDjhS1dzc?authuser=0&hl=en&rclk=1,"28.561791699999997,77.2683072"
Mosque / Masjid,Mosque,"Mosque / Masjid, A430, DDA Colony, Chaukhandi, Vishnu Garden, Delhi, 110018","DDA Colony, Chaukhandi, Vishnu Garden",A430,Delhi,110018,Delhi,IN,https://www.google.com/maps/place/Mosque+%2F+Masjid/data=!4m7!3m6!1s0x390d05579c83dfb9:0xadb490f25993e21b!8m2!3d28.645374!4d77.094016!16s%2Fg%2F11qn2351hz!19sChIJud-DnFcFDTkRG-KTWfKQtK0?authuser=0&hl=en&rclk=1,"28.645374,77.094016"
shhiidii msjid,Mosque,"shhiidii msjid, New Delhi, 309, Tyagi Park, Mundka, Delhi, 110041","Tyagi Park, Mundka","New Delhi, 309",Delhi,110041,Delhi,IN,https://www.google.com/maps/place/%E0%A4%B6%E0%A4%B9%E0%A5%80%E0%A4%A6%E0%A5%80+%E0%A4%AE%E0%A4%B8%E0%A5%8D%E0%A4%9C%E0%A4%BF%E0%A4%A6/data=!4m7!3m6!1s0x390d05f2c2deb825:0x2d7d2270444c0608!8m2!3d28.679862!4d77.027655!16s%2Fg%2F11ptshdj8h!19sChIJJbjewvIFDTkRCAZMRHAifS0?authuser=0&hl=en&rclk=1,"28.679862,77.027655"
JAMA MASJID UMAR BIN KHATTAB,Mosque,"G8W3+XWV JAMA MASJID UMAR BIN KHATTAB, Kalindi Kunj Rd, Block H, Jamia Nagar, Okhla, New Delhi, Delhi 110025","Block H, Jamia Nagar, Okhla","G8W3+XWV, Kalindi Kunj Rd",New Delhi,110025,Delhi,IN,https://www.google.com/maps/place/JAMA+MASJID+UMAR+BIN+KHATTAB/data=!4m7!3m6!1s0x390ce51eb7ea0bfd:0xe968824c610cc265!8m2!3d28.5474867!4d77.3047909!16s%2Fg%2F11h7p6jtqd!19sChIJ_Qvqtx7lDDkRZcIMYUyCaOk?authuser=0&hl=en&rclk=1,"28.5474867,77.3047909"
Masjid,Mosque,"2633+G4J Masjid, Kukkar Chati, Haryana 121103",,2633+G4J,Kukkar Chati,121103,Haryana,IN,https://www.google.com/maps/place/Masjid/data=!4m7!3m6!1s0x39732b996cfc1043:0xd0b5fc59e74806f1!8m2!3d28.0038399!4d77.2027798!16s%2Fg%2F11f5tcmx0p!19sChIJQxD8bJkrczkR8QZI51n8tdA?authuser=0&hl=en&rclk=1,"28.0038399,77.2027798"
SHAHI JAMA MASJID jm` msjd shhy,Mosque,"SHAHI JAMA MASJID jm` msjd shhy, 22, foot road, Shram Vihar, Pocket N, Madanpur Khadar, New Delhi, Delhi 110025","Shram Vihar, Pocket N, Madanpur Khadar","22, foot road",New Delhi,110025,Delhi,IN,https://www.google.com/maps/place/SHAHI+JAMA+MASJID+%D8%AC%D8%A7%D9%85%D8%B9+%D9%85%D8%B3%D8%AC%D8%AF+%D8%B4%D8%A7%DA%BE%DB%8C%E2%80%AD/data=!4m7!3m6!1s0x390ce5a36ba3a95d:0x7cb7c1435cda3fd2!8m2!3d28.5405938!4d77.3038368!16s%2Fg%2F11n733rllr!19sChIJXamja6PlDDkR0j_aXEPBt3w?authuser=0&hl=en&rclk=1,"28.5405938,77.3038368"
Masjid,Mosque,"Masjid, C-78/6, Ghazipur Dairy Farm, Ghazipur, New Delhi, Delhi, 110091","Ghazipur Dairy Farm, Ghazipur",C-78/6,"New Delhi, Delhi",110091,Delhi,IN,https://www.google.com/maps/place/Masjid/data=!4m7!3m6!1s0x390ce59d2385649b:0xb67be5c3e3ed3d8!8m2!3d28.621932!4d77.3237081!16s%2Fg%2F11r6dvzgp5!19sChIJm2SFI53lDDkR2NM-Ply-Zws?authuser=0&hl=en&rclk=1,"28.621931999999997,77.32370809999999"
Masjid Sanauji,Mosque,"Masjid Sanauji, Shop No. 1630, Lal Kuan, Lalkuan Bazar Rd, Baradari, Chandni Chowk, New Delhi, Delhi 110006","Bazar Sirkiwalan, Baradari, Chandni Chowk","Shop No. 1630, Lal Kuan, Lalkuan Bazar Rd","New Delhi, Delhi",110006,Delhi,IN,https://www.google.com/maps/place/Masjid+Sanauji/data=!4m7!3m6!1s0x390cfd13fe3ea72d:0x27ea23bc5f650202!8m2!3d28.6529317!4d77.2232485!16s%2Fg%2F12hplq4pp!19sChIJLac-_hP9DDkRAgJlX7wj6ic?authuser=0&hl=en&rclk=1,"28.6529317,77.2232485"
Noor masjid,Mosque,"Noor masjid, 88-A, Meharchand Market, Lodi Colony, New Delhi, Delhi 110003","Meharchand Market, Lodi Colony",88-A,New Delhi,110003,Delhi,IN,https://www.google.com/maps/place/Noor+masjid/data=!4m7!3m6!1s0x390ce3bde048d651:0x31a744236a19398c!8m2!3d28.5863397!4d77.2271578!16s%2Fg%2F11j0z5cnj_!19sChIJUdZI4L3jDDkRjDkZaiNEpzE?authuser=0&hl=en&rclk=1,"28.5863397,77.2271578"
Masjid Hussainiya,Mosque,"J6XM+GHP Masjid Hussainiya, Matia Mahal Rd, Kalan Mehal, Old Delhi, Delhi, 110006","Kalan Mehal, Old Delhi","J6XM+GHP, Matia Mahal Rd",Delhi,110006,Delhi,IN,https://www.google.com/maps/place/Masjid+Hussainiya/data=!4m7!3m6!1s0x390cfd18ba6b0bd5:0xced4d691b8d1a3fb!8m2!3d28.6488459!4d77.2339534!16s%2Fg%2F11gc9g4rkv!19sChIJ1Qtruhj9DDkR-6PRuJHW1M4?authuser=0&hl=en&rclk=1,"28.648845899999998,77.23395339999999"
Baghwali Masjid msjd bG wly,Mosque,"Baghwali Masjid msjd bG wly, 785, Nicholson Rd, Kashmere Gate, New Delhi, Delhi 110006","Ganda Nala Bazar, Kashmere Gate","785, Nicholson Rd","New Delhi, Delhi",110006,Delhi,IN,https://www.google.com/maps/place/Baghwali+Masjid+%D9%85%D8%B3%D8%AC%D8%AF+%D8%A8%D8%A7%D8%BA+%D9%88%D8%A7%D9%84%DB%8C%E2%80%AD/data=!4m7!3m6!1s0x390cfd092767785b:0xd4966cf4d21cbda8!8m2!3d28.6653187!4d77.2261277!16s%2Fg%2F12llwbr4n!19sChIJW3hnJwn9DDkRqL0c0vRsltQ?authuser=0&hl=en&rclk=1,"28.6653187,77.22612769999999"
Masjid,Mosque,"H77Q+868 Masjid, Okhla Village, Okhla, New Delhi, Delhi 110025","Okhla Village, Okhla",H77Q+868,New Delhi,110025,Delhi,IN,https://www.google.com/maps/place/Masjid/data=!4m7!3m6!1s0x390ce47512f7aa2b:0x544337a9b9e5d7a2!8m2!3d28.5632814!4d77.2880932!16s%2Fg%2F11gbtpj5td!19sChIJK6r3EnXkDDkRotfluak3Q1Q?authuser=0&hl=en&rclk=1,"28.563281399999997,77.28809319999999"
Ishaq Masjid,Mosque,"Ishaq Masjid, Ishaq Masjid Wali Gali, Block C, Sarai Kale Khan, New Delhi, Delhi 110013","Block C, Sarai Kale Khan",Ishaq Masjid Wali Gali,New Delhi,110013,Delhi,IN,https://www.google.com/maps/place/Ishaq+Masjid/data=!4m7!3m6!1s0x390ce376f8a80f59:0x43d242dbd3376818!8m2!3d28.5849571!4d77.2565889!16s%2Fg%2F11q2tx_6x1!19sChIJWQ-o-HbjDDkRGGg309tC0kM?authuser=0&hl=en&rclk=1,"28.5849571,77.2565889"
Mr.SAHEEM MALIK,Mosque,"Mr.SAHEEM MALIK, Gali no. 3 - Tirpal Factory Mustafabad, near Ayisha masjid, 25 Futa Rd, near by Aisha Masjid, chowk, Delhi 110094","Shakti Vihar, Old Mustafabad, chowk","Gali no. 3 - Tirpal Factory Mustafabad, near Ayisha masjid, 25 Futa Rd, near by Aisha Masjid",Delhi,110094,Delhi,IN,https://www.google.com/maps/place/Mr.SAHEEM+MALIK/data=!4m7!3m6!1s0x390cfd9a44cd4997:0xffdc8860c53e3f2b!8m2!3d28.7159667!4d77.272238!16s%2Fg%2F11h3cwgc8y!19sChIJl0nNRJr9DDkRKz8-xWCI3P8?authuser=0&hl=en&rclk=1,"28.7159667,77.272238"
Masjid -ul- Huda,Mosque,"Masjid -ul- Huda, Ghaffar Manzil Colony, Jamia Nagar, Okhla, New Delhi, Delhi 110025","Ghaffar Manzil Colony, Jamia Nagar, Okhla",,New Delhi,110025,Delhi,IN,https://www.google.com/maps/place/Masjid+-ul-+Huda/data=!4m7!3m6!1s0x390ce366343059d7:0xa0f02fd58939dd8c!8m2!3d28.5570011!4d77.2828061!16s%2Fg%2F11rqhr3cqm!19sChIJ11kwNGbjDDkRjN05idUv8KA?authuser=0&hl=en&rclk=1,"28.557001099999997,77.2828061"
Masjid Kuan Wali,Mosque,"J6WP+R3M Masjid Kuan Wali, Dakhni Rai St, Kalan Mehal, Old Delhi, New Delhi, Delhi, 110006","Kalan Mehal, Old Delhi","J6WP+R3M, Dakhni Rai St","New Delhi, Delhi",110006,Delhi,IN,https://www.google.com/maps/place/Masjid+Kuan+Wali/data=!4m7!3m6!1s0x390cfd21f12ffffb:0xa8c4b5fbf6d05e35!8m2!3d28.6470908!4d77.2351671!16s%2Fg%2F11g6_vvyf5!19sChIJ-_8v8SH9DDkRNV7Q9vu1xKg?authuser=0&hl=en&rclk=1,"28.647090799999997,77.2351671"
Masjid Akhundji,Mosque,"M63C+W27 Masjid Akhundji, Shardhanand Market, Farash Khana, Chandni Chowk, Delhi, 110006","Shardhanand Market, Farash Khana, Chandni Chowk",M63C+W27,Delhi,110006,Delhi,IN,https://www.google.com/maps/place/Masjid+Akhundji/data=!4m7!3m6!1s0x390cfd1304000001:0x72fdec335cb3985d!8m2!3d28.6547977!4d77.2200373!16s%2Fg%2F11cjkvmmtk!19sChIJAQAABBP9DDkRXZizXDPs_XI?authuser=0&hl=en&rclk=1,"28.6547977,77.2200373"
Masjid Khairunnisa,Mosque,"Masjid Khairunnisa, Dr Zakir Hussain Marg, Nizamuddin, National Zoological Park, Sundar Nagar, New Delhi, Delhi 110013","Nizamuddin, National Zoological Park, Sundar Nagar",Dr Zakir Hussain Marg,New Delhi,110013,Delhi,IN,https://www.google.com/maps/place/Masjid+Khairunnisa/data=!4m7!3m6!1s0x390ce3d200747f85:0x73902dfc0bf948c6!8m2!3d28.5949913!4d77.2432105!16s%2Fg%2F11fkcjf411!19sChIJhX90ANLjDDkRxkj5C_wtkHM?authuser=0&hl=en&rclk=1,"28.5949913,77.2432105"
Kadde vali masjid,Mosque,"J8GV+FXM Kadde vali masjid, Unnamed Road, Makanpur Colony, Sector 62A, Noida, Uttar Pradesh 201309","Makanpur Colony, Sector 62A","J8GV+FXM, Unnamed Road",Noida,201309,Uttar Pradesh,IN,https://www.google.com/maps/place/Kadde+vali+masjid/data=!4m7!3m6!1s0x390ce5b8c9f05415:0x40d62ad4b4b90e40!8m2!3d28.6262084!4d77.3449208!16s%2Fg%2F11h_3wc0bn!19sChIJFVTwybjlDDkRQA65tNQq1kA?authuser=0&hl=en&rclk=1,"28.6262084,77.3449208"
Masjid,Mosque,"Masjid, 2508, Fasil Rd, Gali Sakko Wali, Shah Ganj, Chandni Chowk, New Delhi, Delhi, 110006","Gali Sakko Wali, Shah Ganj, Chandni Chowk","2508, Fasil Rd","New Delhi, Delhi",110006,Delhi,IN,https://www.google.com/maps/place/Masjid/data=!4m7!3m6!1s0x390cfd15c9a8a4b1:0xf975aada141da03e!8m2!3d28.6491552!4d77.2220471!16s%2Fg%2F1hm4gjxkd!19sChIJsaSoyRX9DDkRPqAdFNqqdfk?authuser=0&hl=en&rclk=1,"28.6491552,77.2220471"
Masjid,Mosque,"Masjid, 191/1, JJ Colony, New Krishna Park, Vikaspuri, New Delhi, Delhi, 110018","JJ Colony, New Krishna Park, Vikaspuri",191/1,"New Delhi, Delhi",110018,Delhi,IN,https://www.google.com/maps/place/Masjid/data=!4m7!3m6!1s0x390d0523e13f6ebf:0xcf430f5986189794!8m2!3d28.6318645!4d77.0776203!16s%2Fg%2F11kq3krq6c!19sChIJv24_4SMFDTkRlJcYhlkPQ88?authuser=0&hl=en&rclk=1,"28.6318645,77.07762029999999"
Noori Masjid Ahle sunnat wal jamaat,Mosque,"Noori Masjid Ahle sunnat wal jamaat, S-118, Block S, Brahampuri, Shahdara, New Delhi, Delhi, 110053","Block S, Brahampuri, Shahdara",S-118,"New Delhi, Delhi",110053,Delhi,IN,https://www.google.com/maps/place/Noori+Masjid+Ahle+sunnat+wal+jamaat/data=!4m7!3m6!1s0x390cfd156842ce0b:0x11a740f124e18a98!8m2!3d28.6809426!4d77.2654004!16s%2Fg%2F11rfqp5ns4!19sChIJC85CaBX9DDkRmIrhJPFApxE?authuser=0&hl=en&rclk=1,"28.680942599999998,77.26540039999999"
msjid,Mosque,"msjid, 249, Swami Amardev Marg, Bara Bazar, Maharam Mohalla, Shahdara, Delhi, 110032","Bara Bazar, Maharam Mohalla, Shahdara","249, Swami Amardev Marg",Delhi,110032,Delhi,IN,https://www.google.com/maps/place/%E0%A4%AE%E0%A4%B8%E0%A5%8D%E0%A4%9C%E0%A4%BF%E0%A4%A6/data=!4m7!3m6!1s0x390cfb490b84c709:0x30ecad58f89bafaa!8m2!3d28.6687399!4d77.2917355!16s%2Fg%2F11n03hfp8k!19sChIJCceEC0n7DDkRqq-b-Fit7DA?authuser=0&hl=en&rclk=1,"28.6687399,77.2917355"
Masjid aalishan(mosque),Mosque,"M62W+Q9Q Masjid aalishan(mosque), behind Masjid Char Minar msjd chr mynr, Vijay Ghat, Raj Ghat, New Delhi, Delhi, 110002","Vijay Ghat, Raj Ghat","M62W+Q9Q, behind Masjid Char Minar msjd chr mynr","New Delhi, Delhi",110002,Delhi,IN,https://www.google.com/maps/place/Masjid+aalishan%28mosque%29/data=!4m7!3m6!1s0x390cfd3824d6a409:0xa8a4de7d6d4f4bfe!8m2!3d28.6520169!4d77.2458589!16s%2Fg%2F11s7bcb8mf!19sChIJCaTWJDj9DDkR_ktPbX3epKg?authuser=0&hl=en&rclk=1,"28.6520169,77.2458589"
Jama masjid,Mosque,"7VHQ+63J Jama masjid, Unnamed Road, Munda Khera, Uttar Pradesh 203131",,"7VHQ+63J, Unnamed Road",Munda Khera,203131,Uttar Pradesh,IN,https://www.google.com/maps/place/Jama+masjid/data=!4m7!3m6!1s0x390ca9619d87e15d:0x35083be6ac381b4e!8m2!3d28.278091!4d77.8876512!16s%2Fg%2F11ftybrjzm!19sChIJXeGHnWGpDDkRThs4rOY7CDU?authuser=0&hl=en&rclk=1,"28.278091,77.8876512"
Masjid,Mosque,"9M74+66G Masjid, Hirnoti, Uttar Pradesh 203203",,9M74+66G,Hirnoti,203203,Uttar Pradesh,IN,https://www.google.com/maps/place/Masjid/data=!4m7!3m6!1s0x390cbbdfa6584727:0x4a1e67c0bd32dfaf!8m2!3d28.36306!4d77.6555641!16s%2Fg%2F11dzwm3m09!19sChIJJ0dYpt-7DDkRr98yvcBnHko?authuser=0&hl=en&rclk=1,"28.363059999999997,77.65556409999999"
Jama masjid,Mosque,"Jama masjid, Jama Masjid, Abul Fazal Enclave Part 1, Part 1 Abul Fazal Enclave, Block I, Jamia Nagar, Chandni Chowk, New Delhi, Delhi 110025","Abul Fazal Enclave Part 1, Part 1 Abul Fazal Enclave, Block I, Jamia Nagar, Chandni Chowk",Jama Masjid,New Delhi,,Delhi,IN,https://www.google.com/maps/place/Jama+masjid/data=!4m7!3m6!1s0x390ce542b18bb9c1:0xcacf2517b90d6255!8m2!3d28.5545167!4d77.2972904!16s%2Fg%2F11kqc0mn0x!19sChIJwbmLsULlDDkRVWINuRclz8o?authuser=0&hl=en&rclk=1,"28.554516699999997,77.2972904"
Jama masjid,Mosque,"G7PG+8H3 Jama masjid, F Block, Pocket X, Okhla Phase II, Okhla Industrial Estate, New Delhi, Delhi 110020","F Block, Pocket X, Okhla Phase II, Okhla Industrial Estate",G7PG+8H3,New Delhi,,Delhi,IN,https://www.google.com/maps/place/Jama+masjid/data=!4m7!3m6!1s0x390ce10bb81649c7:0xebcbe96019fd666b!8m2!3d28.5357628!4d77.2764329!16s%2Fg%2F11v0nr84ms!19sChIJx0kWuAvhDDkRa2b9GWDpy-s?authuser=0&hl=en&rclk=1,"28.535762799999997,77.2764329"
Masjid Kaddan Wali,Mosque,"Masjid Kaddan Wali, 3800,, Charkhiwalan Gali, Khush Dil, Chandni Chowk, New Delhi, Delhi 110006","Khush Dil, Chandni Chowk","3800,, Charkhiwalan Gali","New Delhi, Delhi",110006,Delhi,IN,https://www.google.com/maps/place/Masjid+Kaddan+Wali/data=!4m7!3m6!1s0x390cfd19d610452b:0xf81efc1a357adee8!8m2!3d28.6506731!4d77.2290561!16s%2Fg%2F12hkbxr_7!19sChIJK0UQ1hn9DDkR6N56NRr8Hvg?authuser=0&hl=en&rclk=1,"28.6506731,77.2290561"
Masjid,Mosque,"Masjid, Gali No 19, Gali Number 1, Mustafabad Extn, New Mustafabad, Delhi, 110094","E2 Block, Mustafabad Extn, New Mustafabad","Gali No 19, Gali Number 1",Delhi,110094,Delhi,IN,https://www.google.com/maps/place/Masjid/data=!4m7!3m6!1s0x390cfc1b020b0e91:0xb48a3c3233e41cbd!8m2!3d28.711773!4d77.272563!16s%2Fg%2F12hpqnhjr!19sChIJkQ4LAhv8DDkRvRzkMzI8irQ?authuser=0&hl=en&rclk=1,"28.711772999999997,77.27256299999999"
"Masjid Rehman, Bhaskar Compound",Mosque,"Masjid Rehman, Bhaskar Compound, Unnamed Road, Abul Fazal Enclave Part 1, Part 1 Abul Fazal Enclave, Block D, Jamia Nagar, Okhla, New Delhi, Delhi 110025","Abul Fazal Enclave Part 1, Part 1 Abul Fazal Enclave, Block D, Jamia Nagar, Okhla","Unnamed Road, Abul Fazal Enclave Part 1",New Delhi,110025,Delhi,IN,"https://www.google.com/maps/place/Masjid+Rehman,+Bhaskar+Compound/data=!4m7!3m6!1s0x390ce56f6a5c2b79:0x74cb74cd42565ce2!8m2!3d28.5572909!4d77.2964623!16s%2Fg%2F11fmxtscr1!19sChIJeStcam_lDDkR4lxWQs10y3Q?authuser=0&hl=en&rclk=1","28.557290899999998,77.2964623"
Jamah Masjid Badi,Mosque,"G8J7+7F5 Jamah Masjid Badi, JJ Colony, Madanpur Khadar, New Delhi, Delhi 110076","JJ Colony, Madanpur Khadar",G8J7+7F5,New Delhi,110076,Delhi,IN,https://www.google.com/maps/place/Jamah+Masjid+Badi/data=!4m7!3m6!1s0x390ce7b78eb036b1:0x8f6236080c1ca163!8m2!3d28.5306406!4d77.3137464!16s%2Fg%2F11kk081p_j!19sChIJsTawjrfnDDkRY6EcDAg2Yo8?authuser=0&hl=en&rclk=1,"28.530640599999998,77.3137464"
Masjid,Mosque,"M794+RG5 Masjid, Block A, Shastri Park, Shahdara, Delhi, 110053","Block A, Shastri Park, Shahdara",M794+RG5,Delhi,,Delhi,IN,https://www.google.com/maps/place/Masjid/data=!4m7!3m6!1s0x390cfd74b6378221:0x2da5c9212f831088!8m2!3d28.6695164!4d77.2563643!16s%2Fg%2F11tb42z9g0!19sChIJIYI3tnT9DDkRiBCDLyHJpS0?authuser=0&hl=en&rclk=1,"28.6695164,77.2563643"
Masjid,Mosque,"Masjid, 20, Masjid Rd, Pervesh Nagar, Mubarakpur Dabas, New Delhi, Delhi, 110081","Pervesh Nagar, Mubarakpur Dabas","20, Masjid Rd","New Delhi, Delhi",110081,Delhi,IN,https://www.google.com/maps/place/Masjid/data=!4m7!3m6!1s0x390d075632dea237:0xe707b406c4cff64!8m2!3d28.7098866!4d77.0310854!16s%2Fg%2F11kq2cq2_1!19sChIJN6LeMlYHDTkRZP9MbEB7cA4?authuser=0&hl=en&rclk=1,"28.709886599999997,77.0310854"
MARKAZI BILAL MASJID,Mosque,"M3XC+M4J MARKAZI BILAL MASJID, Block H 1, Hari Enclave, Sultanpuri, New Delhi, Delhi, 110086","Block H 1, Hari Enclave, Sultanpuri",M3XC+M4J,"New Delhi, Delhi",,Delhi,IN,https://www.google.com/maps/place/MARKAZI+BILAL+MASJID/data=!4m7!3m6!1s0x390d05df0373e009:0xe87e2822a741fd18!8m2!3d28.6992054!4d77.0702581!16s%2Fg%2F11kpsjdgvk!19sChIJCeBzA98FDTkRGP1BpyIofug?authuser=0&hl=en&rclk=1,"28.6992054,77.07025809999999"
Mosque,Mosque,"Mosque, H-16/62 shop no-11 khurana complex gali no-4, Tank Rd, opp. gurudwara parking side, Mata Rameshwari Nehru Nagar, Karol Bagh, Delhi, 110005","Mata Rameshwari Nehru Nagar, Karol Bagh","H-16/62 shop no-11 khurana complex gali no-4, Tank Rd, opp. gurudwara parking side",Delhi,110005,Delhi,IN,https://www.google.com/maps/place/Mosque/data=!4m7!3m6!1s0x390d03c67a8aab33:0x21498747997e95e0!8m2!3d28.6504768!4d77.1804367!16s%2Fg%2F11s5wlsy8v!19sChIJM6uKesYDDTkR4JV-mUeHSSE?authuser=0&hl=en&rclk=1,"28.6504768,77.1804367"
Masjid,Mosque,"Shop No: 5035, Masjid, Netaji Subhash Marg, Daryaganj, New Delhi, Delhi, 110002",Daryaganj,"Shop No: 5035, Netaji Subhash Marg","New Delhi, Delhi",110002,Delhi,IN,https://www.google.com/maps/place/Masjid/data=!4m7!3m6!1s0x390cfdf175041b95:0x8ef57a2bc9f92c1c!8m2!3d28.6480954!4d77.2403964!16s%2Fg%2F11s664lvxh!19sChIJlRsEdfH9DDkRHCz5ySt69Y4?authuser=0&hl=en&rclk=1,"28.6480954,77.2403964"
Masjid,Mosque,"Masjid, L385, Block L, JJ Colony No 3, Nangloi, New Delhi, Delhi, 110041","Block L, JJ Colony No 3, Nangloi",L385,"New Delhi, Delhi",110041,Delhi,IN,https://www.google.com/maps/place/Masjid/data=!4m7!3m6!1s0x390d0530462f99ad:0xf47aa8290ce093fa!8m2!3d28.6842352!4d77.0742041!16s%2Fg%2F11smtj7p27!19sChIJrZkvRjAFDTkR-pPgDCmoevQ?authuser=0&hl=en&rclk=1,"28.6842352,77.0742041"
Masjid,Mosque,"J2WM+MXF Masjid, Sunni Masjid Rd, Deep Enclave, Hastsal, Delhi, 110059","Deep Enclave, Hastsal","J2WM+MXF, Sunni Masjid Rd",Delhi,110059,Delhi,IN,https://www.google.com/maps/place/Masjid/data=!4m7!3m6!1s0x390d05267bb46283:0xaef6f06f366d7113!8m2!3d28.6466834!4d77.0349292!16s%2Fg%2F11vl8tpxw1!19sChIJg2K0eyYFDTkRE3FtNm_w9q4?authuser=0&hl=en&rclk=1,"28.646683399999997,77.0349292"
Madina Masjid,Mosque,"Madina Masjid, 3689, Masjid Wali Gali, Janta Colony, Sector 60, Faridabad, Haryana 121004","Janta Colony, Sector 60","3689, Masjid Wali Gali",Faridabad,121004,Haryana,IN,https://www.google.com/maps/place/Madina+Masjid/data=!4m7!3m6!1s0x390cdb8855d8687b:0xbfcbbe5e372b44c4!8m2!3d28.319159!4d77.3201321!16s%2Fg%2F11pz2wlf7m!19sChIJe2jYVYjbDDkRxEQrN16-y78?authuser=0&hl=en&rclk=1,"28.319159,77.3201321"
Masjid,Mosque,"22V8+G6F Masjid, Malab, Haryana 122107",,22V8+G6F,Malab,122107,Haryana,IN,https://www.google.com/maps/place/Masjid/data=!4m7!3m6!1s0x3972d31cb89fa00b:0xb71b0488d8838ecb!8m2!3d28.0438171!4d77.0155502!16s%2Fg%2F11hnl6823s!19sChIJC6CfuBzTcjkRy46D2IgEG7c?authuser=0&hl=en&rclk=1,"28.0438171,77.01555019999999"
