name,main_category,address,address_ward,address_street,address_city,address_postal_code,address_state,address_country_code,link,coordinates
Jama Masjid,Mosque,"MGGQ+F5Q Jama Masjid, Jama Masjid Rd, Mahalaxmiwada, Adilabad, Telangana 504001",Mahalaxmiwada,"MGGQ+F5Q, Jama Masjid Rd",Adilabad,504001,Telangana,IN,https://www.google.com/maps/place/Jama+Masjid/data=!4m7!3m6!1s0x3bd25c75f87e8a01:0x25a95ee1fbab37d0!8m2!3d19.6762137!4d78.5379985!16s%2Fg%2F1tlqnfwv!19sChIJAYp--HVc0jsR0Der--FeqSU?authuser=0&hl=en&rclk=1,"19.676213699999998,78.5379985"
Gulzaar Masjid,Mosque,"MGCR+66Q Gulzaar Masjid, Bokkalguda St, Brahmanwadi, Adilabad, Telangana 504001",Brahmanwadi,"MGCR+66Q, Bokkalguda St",Adilabad,504001,Telangana,IN,https://www.google.com/maps/place/Gulzaar+Masjid/data=!4m7!3m6!1s0x3bd25c7477d00337:0x3dc61fe7489f62b1!8m2!3d19.6704596!4d78.5395986!16s%2Fg%2F1tcz6sjz!19sChIJNwPQd3Rc0jsRsWKfSOcfxj0?authuser=0&hl=en&rclk=1,"19.670459599999997,78.53959859999999"
Masjid-e-Firdous,Mosque,"MG6G+978 Masjid-e-Firdous, Rickshaw Colony, Adilabad, Telangana 504001",Rickshaw Colony,MG6G+978,Adilabad,504001,Telangana,IN,https://www.google.com/maps/place/Masjid-e-Firdous/data=!4m7!3m6!1s0x3bd25c6379b59d8d:0x6f222369871ef4cd!8m2!3d19.6609205!4d78.525713!16s%2Fg%2F11b6tqg984!19sChIJjZ21eWNc0jsRzfQeh2kjIm8?authuser=0&hl=en&rclk=1,"19.6609205,78.525713"
Masjid-E-Taneem,Mosque,"MG8P+GJ2 Masjid-E-Taneem, Shanti Nagar, Adilabad, Telangana 504001",Shanti Nagar,MG8P+GJ2,Adilabad,504001,Telangana,IN,https://www.google.com/maps/place/Masjid-E-Taneem/data=!4m7!3m6!1s0x3bd25c7196951817:0xe1695f659d337d7!8m2!3d19.6662707!4d78.5365283!16s%2Fg%2F11c52zx1f3!19sChIJFxiVlnFc0jsR1zfTWfaVFg4?authuser=0&hl=en&rclk=1,"19.6662707,78.5365283"
Mohammadia Masjid,Mosque,"MGFH+M8P Mohammadia Masjid, NH 44, Vidya Nagar, Adilabad, Telangana 504001",Vidya Nagar,"MGFH+M8P, NH 44",Adilabad,504001,Telangana,IN,https://www.google.com/maps/place/Mohammadia+Masjid/data=!4m7!3m6!1s0x3bd25c7892a2eb3b:0x89c3b0daf8ff360!8m2!3d19.6742243!4d78.5283275!16s%2Fg%2F1tjz1t_5!19sChIJO-uiknhc0jsRYPOPrw07nAg?authuser=0&hl=en&rclk=1,"19.6742243,78.5283275"
Masjid_E_Quba,Mosque,"Masjid_E_Quba, 2-5-216, beside Masjid E Quba Khila, Mohalla Badh, Adilabad, Telangana 504001",Mohalla Badh,"2-5-216, beside Masjid E Quba Khila",Adilabad,504001,Telangana,IN,https://www.google.com/maps/place/Masjid_E_Quba/data=!4m7!3m6!1s0x3bd25bedeaaaaaab:0xe29f9a411d92289b!8m2!3d19.6793188!4d78.5406475!16s%2Fg%2F11bwkvtnj8!19sChIJq6qq6u1b0jsRmyiSHUGan-I?authuser=0&hl=en&rclk=1,"19.6793188,78.54064749999999"
Masjid-e-Huda,Mosque,"Masjid-e-Huda, opp. Bus Stand, Asifabad, Telangana 504293",,opp. Bus Stand,Asifabad,,Telangana,IN,https://www.google.com/maps/place/Masjid-e-Huda/data=!4m7!3m6!1s0x3bd2ac1c5f823685:0x442868b52a3ced5e!8m2!3d19.3620003!4d79.2942735!16s%2Fg%2F11bw7cz2mz!19sChIJhTaCXxys0jsRXu08KrVoKEQ?authuser=0&hl=en&rclk=1,"19.3620003,79.2942735"
Masjid e Khadim,Mosque,"974W+GHR Masjid e Khadim, Asifabad, Telangana 504293",,974W+GHR,Asifabad,504293,Telangana,IN,https://www.google.com/maps/place/Masjid+e+Khadim/data=!4m7!3m6!1s0x3bd2ac0487a9f291:0x6fbe7074c3de740b!8m2!3d19.3563518!4d79.2964018!16s%2Fg%2F11cjj61r0q!19sChIJkfKphwSs0jsRC3Tew3Rwvm8?authuser=0&hl=en&rclk=1,"19.3563518,79.2964018"
Masjid-e-Meraj,Mosque,"Masjid-e-Meraj, Police lane, Sanjay Nagar, Adilabad, Bhattisavargaon, Telangana 504001",Sanjay Nagar,Police lane,"Adilabad, Bhattisavargaon",504001,Telangana,IN,https://www.google.com/maps/place/Masjid-e-Meraj/data=!4m7!3m6!1s0x3bd25c80a40634d7:0x99b706696d47a613!8m2!3d19.6674917!4d78.5163997!16s%2Fg%2F1tr7b846!19sChIJ1zQGpIBc0jsRE6ZHbWkGt5k?authuser=0&hl=en&rclk=1,"19.6674917,78.5163997"
Masjid E Abubaker,Mosque,"MG8V+54F Masjid E Abubaker, Shanti Nagar, Adilabad, Telangana 504001",Shanti Nagar,MG8V+54F,Adilabad,504001,Telangana,IN,https://www.google.com/maps/place/Masjid+E+Abubaker/data=!4m7!3m6!1s0x3bd25c72afd994d1:0x55e84f035f33b282!8m2!3d19.6654385!4d78.542794!16s%2Fg%2F11c1wsmygw!19sChIJ0ZTZr3Jc0jsRgrIzXwNP6FU?authuser=0&hl=en&rclk=1,"19.6654385,78.542794"
Jama Masjid,Mosque,"Jama Masjid, Bazarwadi,, Asifabad, Telangana 504293",,"Bazarwadi,",Asifabad,504293,Telangana,IN,https://www.google.com/maps/place/Jama+Masjid/data=!4m7!3m6!1s0x3bd2aea773cd3d43:0xc60c04b9f21fcf83!8m2!3d19.3622125!4d79.289124!16s%2Fg%2F11bw77yf0r!19sChIJQz3Nc6eu0jsRg88f8rkEDMY?authuser=0&hl=en&rclk=1,"19.3622125,79.289124"
Masjid-e-Namrah (Jamat-e-islami hind),Mosque,"Masjid-e-Namrah (Jamat-e-islami hind), Caltex Fly Over, Radagambhala Bhasti, Station Road Colony, Bellampalle, Telangana 504251","Radagambhala Bhasti, Station Road Colony",Caltex Fly Over,Bellampalle,504251,Telangana,IN,https://www.google.com/maps/place/Masjid-e-Namrah+%28Jamat-e-islami+hind%29/data=!4m7!3m6!1s0x3a32b1e88e7040b5:0xe7ba857867af821d!8m2!3d19.064002!4d79.4894995!16s%2Fg%2F11b6dd8kzr!19sChIJtUBwjuixMjoRHYKvZ3iFuuc?authuser=0&hl=en&rclk=1,"19.064002,79.4894995"
Madina Masjid mdynh msjd,Mosque,"MGCJ+GX8 Madina Masjid mdynh msjd, Netaji Chowk Rd, Ponnar, Bhuktapur, Telangana 504001",Ponnar,"MGCJ+GX8, Netaji Chowk Rd",Bhuktapur,504001,Telangana,IN,https://www.google.com/maps/place/Madina+Masjid+%D9%85%D8%AF%DB%8C%D9%86%DB%81+%D9%85%D8%B3%D8%AC%D8%AF%E2%80%AD/data=!4m7!3m6!1s0x3bd25c7742dd0b05:0xf2fb259a889bfa78!8m2!3d19.6712846!4d78.5324561!16s%2Fg%2F11fzzxxq7l!19sChIJBQvdQndc0jsRePqbiJol-_I?authuser=0&hl=en&rclk=1,"19.6712846,78.53245609999999"
Jama Masjid,Mosque,"3F9Q+X45 Jama Masjid, Belmuri, Hanman Basti, Bellampalle, Telangana 504251","Belmuri, Hanman Basti",3F9Q+X45,Bellampalle,504251,Telangana,IN,https://www.google.com/maps/place/Jama+Masjid/data=!4m7!3m6!1s0x3a32b1e6a4eb0557:0x32163b4072eb7836!8m2!3d19.0698971!4d79.4878633!16s%2Fg%2F11csb3stf2!19sChIJVwXrpOaxMjoRNnjrckA7FjI?authuser=0&hl=en&rclk=1,"19.0698971,79.4878633"
Masjid e Sahaba & Madarsa Tahfiz ul Quraan,Mosque,"Masjid e Sahaba & Madarsa Tahfiz ul Quraan, NAWAZISH NAGAR, Asifabad, Telangana 504293",,NAWAZISH NAGAR,Asifabad,504293,Telangana,IN,https://www.google.com/maps/place/Masjid+e+Sahaba+%26+Madarsa+Tahfiz+ul+Quraan/data=!4m7!3m6!1s0x3bd2aea7c6631baf:0x62b87d4b00422aba!8m2!3d19.3598125!4d79.2883125!16s%2Fg%2F113dzbrlr!19sChIJrxtjxqeu0jsRuipCAEt9uGI?authuser=0&hl=en&rclk=1,"19.3598125,79.28831249999999"
Fathima Masjid,Mosque,"MGFF+676 Fathima Masjid, Sanjay Nagar, Adilabad, Telangana 504001",Sanjay Nagar,MGFF+676,Adilabad,504001,Telangana,IN,https://www.google.com/maps/place/Fathima+Masjid/data=!4m7!3m6!1s0x3bd25c7fa619132f:0x3fc5279c8cd8c162!8m2!3d19.6730467!4d78.5231404!16s%2Fg%2F11g65c9p2q!19sChIJLxMZpn9c0jsRYsHYjJwnxT8?authuser=0&hl=en&rclk=1,"19.6730467,78.5231404"
Abubakr masjid,Mosque,"MG8R+J7F Abubakr masjid, Shanti Nagar, Adilabad, Telangana 504001",Shanti Nagar,MG8R+J7F,Adilabad,504001,Telangana,IN,https://www.google.com/maps/place/Abubakr+masjid/data=!4m7!3m6!1s0x3bd25c72f6f46bc9:0xcd16458f413f5d2e!8m2!3d19.6665675!4d78.5406681!16s%2Fg%2F11c607nzf4!19sChIJyWv09nJc0jsRLl0_QY9FFs0?authuser=0&hl=en&rclk=1,"19.6665675,78.54066809999999"
Masjid-e-Qadeem,Mosque,"8FXM+3MX Masjid-e-Qadeem, Nizamuddin Colony, Kagaznagar, Telangana 504296",Nizamuddin Colony,8FXM+3MX,Kagaznagar,504296,Telangana,IN,https://www.google.com/maps/place/Masjid-e-Qadeem/data=!4m7!3m6!1s0x3a2d56b063da2fbd:0xe321e240d18cecbb!8m2!3d19.3477485!4d79.4842215!16s%2Fg%2F11bw65hd1l!19sChIJvS_aY7BWLToRu-yM0UDiIeM?authuser=0&hl=en&rclk=1,"19.347748499999998,79.48422149999999"
MASJID-E-Bilal,Mosque,"MGHQ+H25 MASJID-E-Bilal, Adilabad - Nagpur Rd, Panjesha, Adilabad, Telangana 504001",Panjesha,"MGHQ+H25, Adilabad - Nagpur Rd",Adilabad,504001,Telangana,IN,https://www.google.com/maps/place/MASJID-E-Bilal/data=!4m7!3m6!1s0x3bd25b89846e6659:0x31ee36077b20474f!8m2!3d19.6788851!4d78.5375982!16s%2Fg%2F11gclzc6pn!19sChIJWWZuhIlb0jsRT0cgewc27jE?authuser=0&hl=en&rclk=1,"19.6788851,78.53759819999999"
Masjid E Hassan,Mosque,"MG8V+QPM Masjid E Hassan, Unnamed Road, Shanti Nagar, Adilabad, Telangana 504001",Shanti Nagar,"MG8V+QPM, Unnamed Road",Adilabad,504001,Telangana,IN,https://www.google.com/maps/place/Masjid+E+Hassan/data=!4m7!3m6!1s0x3bd25c0d29000079:0xa0cc092090b96993!8m2!3d19.6669651!4d78.5443022!16s%2Fg%2F11dfk_8lt4!19sChIJeQAAKQ1c0jsRk2m5kCAJzKA?authuser=0&hl=en&rclk=1,"19.6669651,78.54430219999999"
Masjid-e-gouse-ul-wara,Mosque,"3FGP+WXC Masjid-e-gouse-ul-wara, Bellampalle, Kannal Rural, Telangana 504251",,3FGP+WXC,"Bellampalle, Kannal Rural",504251,Telangana,IN,https://www.google.com/maps/place/Masjid-e-gouse-ul-wara/data=!4m7!3m6!1s0x3a32ae1e07a8f3a1:0x30d5ea744ddf5099!8m2!3d19.0773045!4d79.4873999!16s%2Fg%2F11dfmg17l2!19sChIJofOoBx6uMjoRmVDfTXTq1TA?authuser=0&hl=en&rclk=1,"19.0773045,79.4873999"
Masjid E Tayyaba,Mosque,"VF7F+3FH Masjid E Tayyaba, Flood Colony, Naspur, Mancherial, Telangana 504302",Flood Colony,VF7F+3FH,"Naspur, Mancherial",504302,Telangana,IN,https://www.google.com/maps/place/Masjid+E+Tayyaba/data=!4m7!3m6!1s0x3a32c9a33d61e42d:0x67ab2dc79cc1b591!8m2!3d18.8626989!4d79.4737213!16s%2Fg%2F11g4h2ms8d!19sChIJLeRhPaPJMjoRkbXBnMctq2c?authuser=0&hl=en&rclk=1,"18.862698899999998,79.4737213"
JAMA MASJID SULTANGUDA,Mosque,"C2RR+XGF JAMA MASJID SULTANGUDA, Sultanguda, Kerimeri, Adilabad, Telangana 504313",Sultanguda,C2RR+XGF,"Kerimeri, Adilabad",,Telangana,IN,https://www.google.com/maps/place/JAMA+MASJID+SULTANGUDA/data=!4m7!3m6!1s0x3bd2bd475cdd2b39:0x2b52fccf2d27bcc0!8m2!3d19.4424339!4d79.0413029!16s%2Fg%2F11d_5drtt9!19sChIJOSvdXEe90jsRwLwnLc_8Uis?authuser=0&hl=en&rclk=1,"19.442433899999997,79.04130289999999"
MASJID E MAHEBOOB E SUBHANI ( Markaz e Ahle Sunnat ),Mosque,"MASJID E MAHEBOOB E SUBHANI ( Markaz e Ahle Sunnat ), Sanjay Nagar, Adilabad, Telangana 504001",Sanjay Nagar,,Adilabad,504001,Telangana,IN,https://www.google.com/maps/place/MASJID+E+MAHEBOOB+E+SUBHANI+%28+Markaz+e+Ahle+Sunnat+%29/data=!4m7!3m6!1s0x3bd25c7cd0000001:0xe56e990e56fe962c!8m2!3d19.6669356!4d78.5213162!16s%2Fg%2F11c2kk77hk!19sChIJAQAA0Hxc0jsRLJb-Vg6ZbuU?authuser=0&hl=en&rclk=1,"19.6669356,78.5213162"
Masjid,Mosque,"HFPR+4Q8 Masjid, Adilabad, Telangana 504308",,HFPR+4Q8,Adilabad,504308,Telangana,IN,https://www.google.com/maps/place/Masjid/data=!4m7!3m6!1s0x3bd25d5bfe1eb429:0x753a217332ff9baa!8m2!3d19.5852914!4d78.4919588!16s%2Fg%2F11dxq2d28t!19sChIJKbQe_ltd0jsRqpv_MnMhOnU?authuser=0&hl=en&rclk=1,"19.5852914,78.49195879999999"
Masjid e Noor,Mosque,"976M+99C Masjid e Noor, Asifabad, Telangana 504293",,976M+99C,Asifabad,504293,Telangana,IN,https://www.google.com/maps/place/Masjid+e+Noor/data=!4m7!3m6!1s0x3bd2aea5cbc568eb:0x5aed9b5568109c20!8m2!3d19.3609381!4d79.283388!16s%2Fg%2F11cjj4r8cv!19sChIJ62jFy6Wu0jsRIJwQaFWb7Vo?authuser=0&hl=en&rclk=1,"19.3609381,79.283388"
Masjid Badar,Mosque,"MG8C+44M Masjid Badar, Rickshaw Colony, Adilabad, Telangana 504001",Rickshaw Colony,MG8C+44M,Adilabad,504001,Telangana,IN,https://www.google.com/maps/place/Masjid+Badar/data=!4m7!3m6!1s0x3bd25c878e7870c1:0x8e24c92e23dce198!8m2!3d19.6653455!4d78.5202985!16s%2Fg%2F11bbrlytdq!19sChIJwXB4jodc0jsRmOHcIy7JJI4?authuser=0&hl=en&rclk=1,"19.6653455,78.5202985"
Masjid e Bilala,Mosque,"Masjid e Bilala, Adilabad-Asifabad Rd, Jainoor, Telangana 504313",,Adilabad-Asifabad Rd,Jainoor,504313,Telangana,IN,https://www.google.com/maps/place/Masjid+e+Bilala/data=!4m7!3m6!1s0x3bd29bb7204a9e0f:0x706dab2553f72b79!8m2!3d19.3750134!4d78.9120455!16s%2Fg%2F11f6qq3rwz!19sChIJD55KILeb0jsReSv3UyWrbXA?authuser=0&hl=en&rclk=1,"19.3750134,78.91204549999999"
Masjid e Khadim,Mosque,"FHHF+MW9 Masjid e Khadim, Pet Mohalla, Sirpur, Telangana 504299",,FHHF+MW9 Pet Mohalla,Sirpur,504299,Telangana,IN,https://www.google.com/maps/place/Masjid+e+Khadim/data=!4m7!3m6!1s0x3a2d45425afd0481:0xbb8003f82b6742d8!8m2!3d19.4791742!4d79.5748539!16s%2Fg%2F11c3w0kdh5!19sChIJgQT9WkJFLToR2EJnK_gDgLs?authuser=0&hl=en&rclk=1,"19.4791742,79.5748539"
Masjid-e-hanfia,Mosque,"MGPM+2C4 Masjid-e-hanfia, Kranti Nagar, Gandhi Nagar, Adilabad, Telangana 504001","Kranti Nagar, Gandhi Nagar",MGPM+2C4,Adilabad,504001,Telangana,IN,https://www.google.com/maps/place/Masjid-e-hanfia/data=!4m7!3m6!1s0x3bd25b8fa218f2e1:0x18f2829bdf51eaf4!8m2!3d19.6850231!4d78.5335857!16s%2Fg%2F11dd_qtmkm!19sChIJ4fIYoo9b0jsR9OpR35uC8hg?authuser=0&hl=en&rclk=1,"19.6850231,78.5335857"
Masjid-E- Rahimaniya,Mosque,"MGRR+5G5 Masjid-E- Rahimaniya, Tirupally, Adilabad, Telangana 504001",Tirupally,MGRR+5G5,Adilabad,504001,Telangana,IN,https://www.google.com/maps/place/Masjid-E-+Rahimaniya/data=!4m7!3m6!1s0x3bd25ba3e27d5519:0x3ff2f3403e845bff!8m2!3d19.6903884!4d78.5413572!16s%2Fg%2F11gmblynz2!19sChIJGVV94qNb0jsR_1uEPkDz8j8?authuser=0&hl=en&rclk=1,"19.6903884,78.5413572"
Masjid E Mujtab Sunnatul Jamat,Mosque,"9F5V+PFV Masjid E Mujtab Sunnatul Jamat, Kagaznagar, Telangana 504296",,9F5V+PFV,Kagaznagar,504296,Telangana,IN,https://www.google.com/maps/place/Masjid+E+Mujtab+Sunnatul+Jamat/data=!4m7!3m6!1s0x3a2d51354e04ccd1:0xc6571f4357c154c3!8m2!3d19.3593655!4d79.4936785!16s%2Fg%2F11f00j6kvz!19sChIJ0cwETjVRLToRw1TBV0MfV8Y?authuser=0&hl=en&rclk=1,"19.3593655,79.4936785"
Masjid E Namrah,Mosque,"MGGM+7CV Masjid E Namrah, Ambedkar Chowk, Bhuktapur, Telangana 504001",,"MGGM+7CV, Ambedkar Chowk",Bhuktapur,,Telangana,IN,https://www.google.com/maps/place/Masjid+E+Namrah/data=!4m7!3m6!1s0x3bd25b8829cd21e7:0xb871a2b68c3b292c!8m2!3d19.6757458!4d78.5335363!16s%2Fg%2F11b6v0h3n3!19sChIJ5yHNKYhb0jsRLCk7jLaicbg?authuser=0&hl=en&rclk=1,"19.675745799999998,78.5335363"
Madina Masjid,Mosque,"2FGJ+3MF Madina Masjid, Somagudem, Telangana 504251",,2FGJ+3MF,Somagudem,504251,Telangana,IN,https://www.google.com/maps/place/Madina+Masjid/data=!4m7!3m6!1s0x3a32b1777d58ca9f:0xbdf6e76e68a3c393!8m2!3d19.0251994!4d79.4816842!16s%2Fg%2F11g875wdpp!19sChIJn8pYfXexMjoRk8OjaG7n9r0?authuser=0&hl=en&rclk=1,"19.025199399999998,79.48168419999999"
Masjid e Yaseen,Mosque,"Masjid e Yaseen, opp. Jail, Jankapur, Asifabad, Telangana 504293",Jankapur,opp. Jail,Asifabad,504293,Telangana,IN,https://www.google.com/maps/place/Masjid+e+Yaseen/data=!4m7!3m6!1s0x3bd2ae9ef5cade0b:0xa80f60e413fdcad2!8m2!3d19.374471!4d79.2873049!16s%2Fg%2F11cjpfh3jq!19sChIJC97K9Z6u0jsR0sr9E-RgD6g?authuser=0&hl=en&rclk=1,"19.374471,79.2873049"
Masjid,Mosque,"3F8M+FFQ Masjid, Bellampalle, Kannal Rural, Telangana 504251",,3F8M+FFQ,"Bellampalle, Kannal Rural",504251,Telangana,IN,https://www.google.com/maps/place/Masjid/data=!4m7!3m6!1s0x3a32b1b5f0822333:0xf2f1d40734fe9993!8m2!3d19.0662171!4d79.48373!16s%2Fg%2F11gl2hm2p0!19sChIJMyOC8LWxMjoRk5n-NAfU8fI?authuser=0&hl=en&rclk=1,"19.0662171,79.48373"
Masjid e Taiba,Mosque,"Masjid e Taiba, Industrial Area, near HP Petrol Pump, Kagaznagar, Telangana 504296",,"Industrial Area, near HP Petrol Pump",Kagaznagar,504296,Telangana,IN,https://www.google.com/maps/place/Masjid+e+Taiba/data=!4m7!3m6!1s0x3a2d56a9f9e46a0d:0x9a80284099893d90!8m2!3d19.3515515!4d79.4710951!16s%2Fg%2F11bw77v1l8!19sChIJDWrk-alWLToRkD2JmUAogJo?authuser=0&hl=en&rclk=1,"19.3515515,79.4710951"
Masjid E IBrahimiya,Mosque,"Masjid E IBrahimiya, Shanti Nagar, Adilabad, Telangana 504001",Shanti Nagar,,Adilabad,504001,Telangana,IN,https://www.google.com/maps/place/Masjid+E+IBrahimiya/data=!4m7!3m6!1s0x3bd25d44b0027dc7:0x5b9c582e308fceb0!8m2!3d19.6688451!4d78.5432386!16s%2Fg%2F11flbsbk92!19sChIJx30CsERd0jsRsM6PMC5YnFs?authuser=0&hl=en&rclk=1,"19.6688451,78.5432386"
Masjid E Yamani,Mosque,"FHJC+2FC Masjid E Yamani, Sirpur, Telangana 504299",,FHJC+2FC,Sirpur,504299,Telangana,IN,https://www.google.com/maps/place/Masjid+E+Yamani/data=!4m7!3m6!1s0x3a2d455d4b92b701:0xcc84f17f21214e9!8m2!3d19.4800738!4d79.5711285!16s%2Fg%2F11cky3tv6r!19sChIJAbeSS11FLToR6RQS8hdPyAw?authuser=0&hl=en&rclk=1,"19.4800738,79.5711285"
Eid-Gah Adilabad,Mosque,"MGFH+76M Eid-Gah Adilabad, Vidya Nagar, Adilabad, Telangana 504001",Vidya Nagar,MGFH+76M,Adilabad,504001,Telangana,IN,https://www.google.com/maps/place/Eid-Gah+Adilabad/data=!4m7!3m6!1s0x3bd25dc51f70cbab:0xb53df29e2fcc553b!8m2!3d19.6732088!4d78.5280509!16s%2Fg%2F11rd28b2_c!19sChIJq8twH8Vd0jsRO1XML57yPbU?authuser=0&hl=en&rclk=1,"19.673208799999998,78.5280509"
MASJID - E - WASIL,Mosque,"9Q7C+W9C MASJID - E - WASIL, Utnur, Telangana 504311",,9Q7C+W9C,Utnur,504311,Telangana,IN,https://www.google.com/maps/place/MASJID+-+E+-+WASIL/data=!4m7!3m6!1s0x3bd285b568212b3b:0xd48a9da29da1160e!8m2!3d19.3648093!4d78.7708923!16s%2Fg%2F11g6q_z_ty!19sChIJOyshaLWF0jsRDhahnaKditQ?authuser=0&hl=en&rclk=1,"19.364809299999997,78.7708923"
Masjid e Noorani,Mosque,"MGMQ+P66 Masjid e Noorani, Mahalaxmiwada, Adilabad, Telangana 504001",Mahalaxmiwada,MGMQ+P66,Adilabad,504001,Telangana,IN,https://www.google.com/maps/place/Masjid+e+Noorani/data=!4m7!3m6!1s0x3bd25b71656d7da1:0x9db65c4943296ea6!8m2!3d19.6842802!4d78.5380187!16s%2Fg%2F11gphd3bdg!19sChIJoX1tZXFb0jsRpm4pQ0lctp0?authuser=0&hl=en&rclk=1,"19.6842802,78.5380187"
Masjid-E-Aqsa,Mosque,"Masjid-E-Aqsa, Masjid-E-Aqsa Khanapur, Ambedkar Nagar, Khanapur, Telangana 504001",Ambedkar Nagar,Masjid-E-Aqsa Khanapur,Khanapur,504001,Telangana,IN,https://www.google.com/maps/place/Masjid-E-Aqsa/data=!4m7!3m6!1s0x3bd25dcc44670e61:0x730f194bf8b6847d!8m2!3d19.6716338!4d78.5448989!16s%2Fg%2F11j07wlncw!19sChIJYQ5nRMxd0jsRfYS2-EsZD3M?authuser=0&hl=en&rclk=1,"19.6716338,78.54489889999999"
MASJID E QUBA,Mosque,"MASJID E QUBA, Kagaznagar, Telangana 504296",,,Kagaznagar,504296,Telangana,IN,https://www.google.com/maps/place/MASJID+E+QUBA/data=!4m7!3m6!1s0x3a2d51c96628b40b:0x7b1d067f67bba92d!8m2!3d19.3596201!4d79.4954535!16s%2Fg%2F11g0h7vzht!19sChIJC7QoZslRLToRLam7Z38GHXs?authuser=0&hl=en&rclk=1,"19.3596201,79.4954535"
Masjid-E-Zohra,Mosque,"Masjid-E-Zohra, Masjid-E- Zohra, Ambedkar Nagar, Khanapur, Telangana 504001",Ambedkar Nagar,Masjid-E- Zohra,Khanapur,504001,Telangana,IN,https://www.google.com/maps/place/Masjid-E-Zohra/data=!4m7!3m6!1s0x3bd25dbaced23b33:0xe16af2c30b24656!8m2!3d19.6729258!4d78.5447961!16s%2Fg%2F11j000cqb1!19sChIJMzvSzrpd0jsRVkayMCyvFg4?authuser=0&hl=en&rclk=1,"19.672925799999998,78.5447961"
Masjid e Raza,Mosque,"MG9V+JPV Masjid e Raza, Shanti Nagar, Adilabad, Telangana 504001",Shanti Nagar,MG9V+JPV,Adilabad,504001,Telangana,IN,https://www.google.com/maps/place/Masjid+e+Raza/data=!4m7!3m6!1s0x3bd25d7fcd7b7ccd:0xe8779b7a8f75f499!8m2!3d19.6691213!4d78.5442846!16s%2Fg%2F11kh3x29df!19sChIJzXx7zX9d0jsRmfR1j3qbd-g?authuser=0&hl=en&rclk=1,"19.6691213,78.5442846"
Masjid-e- Amina,Mosque,"MGFR+G3G Masjid-e- Amina, Brahmanwadi, Adilabad, Telangana 504001",Brahmanwadi,MGFR+G3G,Adilabad,504001,Telangana,IN,https://www.google.com/maps/place/Masjid-e-+Amina/data=!4m7!3m6!1s0x3bd25ddc88f570b9:0x22cb1f0c107c4bc6!8m2!3d19.6738162!4d78.5401916!16s%2Fg%2F11k7xv923r!19sChIJuXD1iNxd0jsRxkt8EAwfyyI?authuser=0&hl=en&rclk=1,"19.673816199999997,78.5401916"
Masjid,Mosque,"V6MR+V66 Masjid, Ankathipally, Telangana 504215",,V6MR+V66,Ankathipally,504215,Telangana,IN,https://www.google.com/maps/place/Masjid/data=!4m7!3m6!1s0x3bcd49bdc216284d:0x350592a99ce08e14!8m2!3d18.8846738!4d79.2405227!16s%2Fg%2F11h2hhxpqs!19sChIJTSgWwr1JzTsRFI7gnKmSBTU?authuser=0&hl=en&rclk=1,"18.884673799999998,79.2405227"
MASJID-E-AQSA,Mosque,"9QCM+6FG MASJID-E-AQSA, Utnur, Telangana 504311",,9QCM+6FG,Utnur,504311,Telangana,IN,https://www.google.com/maps/place/MASJID-E-AQSA/data=!4m7!3m6!1s0x3bd285ae68120e2d:0x511a2112271c67ab!8m2!3d19.3705709!4d78.7836997!16s%2Fg%2F11d_8_t86t!19sChIJLQ4SaK6F0jsRq2ccJxIhGlE?authuser=0&hl=en&rclk=1,"19.3705709,78.7836997"
MASJID E IBRAHIMIA,Mosque,"MASJID E IBRAHIMIA, 2-5-275/1, tirpally, Adilabad, Telangana 504001",tirpally,2-5-275/1,Adilabad,504001,Telangana,IN,https://www.google.com/maps/place/MASJID+E+IBRAHIMIA/data=!4m7!3m6!1s0x3bd25b8b6628a527:0x550e60c0cd80575a!8m2!3d19.6814941!4d78.5416637!16s%2Fg%2F11f15jwjc0!19sChIJJ6UoZotb0jsRWleAzcBgDlU?authuser=0&hl=en&rclk=1,"19.6814941,78.5416637"
Noori Masjid,Mosque,"3F8M+CFJ Noori Masjid, Bellampalle, Kannal Rural, Telangana 504251",,3F8M+CFJ,"Bellampalle, Kannal Rural",504251,Telangana,IN,https://www.google.com/maps/place/Noori+Masjid/data=!4m7!3m6!1s0x3a32b184aa02b33f:0x94aeef8bbc03886b!8m2!3d19.0660901!4d79.4836267!16s%2Fg%2F11tmz9bq51!19sChIJP7MCqoSxMjoRa4gDvIvvrpQ?authuser=0&hl=en&rclk=1,"19.0660901,79.4836267"
Masjid e Afsana,Mosque,"JGRP+7WM Masjid e Afsana, KRK Rd, KRK Colony, Khoja Colony, Adilabad, Telangana 504001","KRK Colony, Khoja Colony","JGRP+7WM, KRK Rd",Adilabad,504001,Telangana,IN,https://www.google.com/maps/place/Masjid+e+Afsana/data=!4m7!3m6!1s0x3bd25d5d2e428473:0xd94d955bdaa63bd4!8m2!3d19.6407052!4d78.5372911!16s%2Fg%2F11t4wlk9cp!19sChIJc4RCLl1d0jsR1Dum2luVTdk?authuser=0&hl=en&rclk=1,"19.6407052,78.53729109999999"
Masjid-e-Khadijah,Mosque,"974R+XWR Masjid-e-Khadijah, Asifabad, Telangana 504293",,974R+XWR,Asifabad,504293,Telangana,IN,https://www.google.com/maps/place/Masjid-e-Khadijah/data=!4m7!3m6!1s0x3bd2ad43aa7c3d41:0xceb45b62869910bb!8m2!3d19.3574779!4d79.2922524!16s%2Fg%2F11sshd34_9!19sChIJQT18qkOt0jsRuxCZhmJbtM4?authuser=0&hl=en&rclk=1,"19.3574779,79.2922524"
Masjid-E-Kausar,Mosque,"MG8Q+6M8 Masjid-E-Kausar, Shanti Nagar, Adilabad, Telangana 504001",Shanti Nagar,MG8Q+6M8,Adilabad,504001,Telangana,IN,https://www.google.com/maps/place/Masjid-E-Kausar/data=!4m7!3m6!1s0x3bd25c726cbfffff:0xdcc8a30755b4260c!8m2!3d19.6655322!4d78.5391992!16s%2Fg%2F11txmzh9h_!19sChIJ__-_bHJc0jsRDCa0VQejyNw?authuser=0&hl=en&rclk=1,"19.665532199999998,78.5391992"
Masjid-E-ibraheem bin abbas,Mosque,"MGGX+2JV Masjid-E-ibraheem bin abbas, Ambedkar Nagar, Adilabad, Telangana 504001",Ambedkar Nagar,MGGX+2JV,Adilabad,504001,Telangana,IN,https://www.google.com/maps/place/Masjid-E-ibraheem+bin+abbas/data=!4m7!3m6!1s0x3bd25dca817e57db:0x80929612f281e68c!8m2!3d19.6751132!4d78.5490388!16s%2Fg%2F11jz2dzlg7!19sChIJ21d-gcpd0jsRjOaB8hKWkoA?authuser=0&hl=en&rclk=1,"19.6751132,78.54903879999999"
Masjid e Rahmania.,Mosque,"C4PQ+J2F Masjid e Rahmania., Surdhapur, Telangana 504293",,C4PQ+J2F,Surdhapur,504293,Telangana,IN,https://www.google.com/maps/place/Masjid+e+Rahmania./data=!4m7!3m6!1s0x3bd2bb9aeef31f5d:0x8ab4045f2e1b1acf!8m2!3d19.4365628!4d79.1375524!16s%2Fg%2F11h171bwhp!19sChIJXR_z7pq70jsRzxobLl8EtIo?authuser=0&hl=en&rclk=1,"19.4365628,79.13755239999999"
PIREELA MASEEDU,Mosque,"WCPV+V33 PIREELA MASEEDU, Gandhari Mysamma Qilla Rd, Bokkalagutta, Telangana 504207",,"WCPV+V33, Gandhari Mysamma Qilla Rd",Bokkalagutta,504207,Telangana,IN,https://www.google.com/maps/place/PIREELA+MASEEDU/data=!4m7!3m6!1s0x3a32b5fb88ae899b:0x3edf11b55b394673!8m2!3d18.93714!4d79.442663!16s%2Fg%2F11s3wv7jj1!19sChIJm4muiPu1MjoRc0Y5W7UR3z4?authuser=0&hl=en&rclk=1,"18.93714,79.442663"
Bilal masjid,Mosque,"3FCR+JFF Bilal masjid, Bellampalle, Telangana 504251",,3FCR+JFF,Bellampalle,504251,Telangana,IN,https://www.google.com/maps/place/Bilal+masjid/data=!4m7!3m6!1s0x3a32b173bceb72cd:0x6207918c86c64f91!8m2!3d19.0715572!4d79.4911758!16s%2Fg%2F11f62g432g!19sChIJzXLrvHOxMjoRkU_GhoyRB2I?authuser=0&hl=en&rclk=1,"19.0715572,79.4911758"
Madeena Masjid,Mosque,"89F9+473 Madeena Masjid, SH1, Khairgaon, Telangana 504292",,"89F9+473, SH1",Khairgaon,,Telangana,IN,https://www.google.com/maps/place/Madeena+Masjid/data=!4m7!3m6!1s0x3bd2ab55de777551:0xd86d0f49d393c93f!8m2!3d19.3227714!4d79.3681607!16s%2Fg%2F11gwm9j8f5!19sChIJUXV33lWr0jsRP8mT00kPbdg?authuser=0&hl=en&rclk=1,"19.3227714,79.36816069999999"
masjid,Mosque,"MGFX+R5C masjid, Ambedkar Nagar, Adilabad, Telangana 504001",Ambedkar Nagar,MGFX+R5C,Adilabad,504001,Telangana,IN,https://www.google.com/maps/place/masjid/data=!4m7!3m6!1s0x3bd25dea5bc85cff:0xa139fac0fe5bfbe8!8m2!3d19.6750538!4d78.549016!16s%2Fg%2F11tg1ql3mw!19sChIJ_1zIW-pd0jsR6Ptb_sD6OaE?authuser=0&hl=en&rclk=1,"19.6750538,78.549016"
Thumpalli Muslim colony,Mosque,"976V+Q6C Thumpalli Muslim colony, Asifabad, Telangana 504293",,976V+Q6C,Asifabad,504293,Telangana,IN,https://www.google.com/maps/place/Thumpalli+Muslim+colony/data=!4m7!3m6!1s0x3bd2ad06cba3abe5:0x931a22a7c0a7a4f6!8m2!3d19.3619289!4d79.2930146!16s%2Fg%2F11twtx7brp!19sChIJ5aujywat0jsR9qSnwKciGpM?authuser=0&hl=en&rclk=1,"19.3619289,79.29301459999999"
KHANKHA E MOHAMMADI ADILABAD,Mosque,"MG7H+84G KHANKHA E MOHAMMADI ADILABAD, Adilabad Main Rd, Satnala Quarters, chaitanyapuri, Adilabad, Telangana 504001","Satnala Quarters, chaitanyapuri","MG7H+84G, Adilabad Main Rd",Adilabad,504001,Telangana,IN,https://www.google.com/maps/place/KHANKHA+E+MOHAMMADI+ADILABAD/data=!4m7!3m6!1s0x3bd25d7de627a569:0x4868af4429eca682!8m2!3d19.6633136!4d78.5278399!16s%2Fg%2F11nxrkqmlw!19sChIJaaUn5n1d0jsRgqbsKUSvaEg?authuser=0&hl=en&rclk=1,"19.6633136,78.52783989999999"
MASJID,Mosque,"2PW9+WP9 MASJID, Lingapur, Telangana 504202",,2PW9+WP9,Lingapur,504202,Telangana,IN,https://www.google.com/maps/place/MASJID/data=!4m7!3m6!1s0x3bcd79ab085b9819:0xd6538f30239f99c!8m2!3d19.0472775!4d78.7193685!16s%2Fg%2F11rkf1p6nc!19sChIJGZhbCKt5zTsRnPk5AvM4ZQ0?authuser=0&hl=en&rclk=1,"19.0472775,78.7193685"
Masjid,Mosque,"XFGM+R8X Masjid, 2nd Zone, Mandamarri, Telangana 504251",2nd Zone,XFGM+R8X,Mandamarri,504251,Telangana,IN,https://www.google.com/maps/place/Masjid/data=!4m7!3m6!1s0x3a32b6b223feaaab:0x22a57634f474edc3!8m2!3d18.9771192!4d79.4833734!16s%2Fg%2F11sscsgn2t!19sChIJq6r-I7K2MjoRw-109DR2pSI?authuser=0&hl=en&rclk=1,"18.9771192,79.48337339999999"
