name,main_category,address,address_ward,address_street,address_city,address_postal_code,address_state,address_country_code,link,coordinates
Masjid E Abu Bakar,Mosque,"Masjid E Abu Bakar, Lenin Nagar, Anantapur, Andhra Pradesh 515002",Lenin Nagar,,Anantapur,515002,Andhra Pradesh,IN,https://www.google.com/maps/place/Masjid+E+Abu+Bakar/data=!4m7!3m6!1s0x3bb14bc967de9365:0xa8bf87632e83bbf4!8m2!3d14.6527687!4d77.6203447!16s%2Fg%2F11g4l9m9mf!19sChIJZZPeZ8lLsTsR9LuDLmOHv6g?authuser=0&hl=en&rclk=1,"14.6527687,77.62034469999999"
Noorani masjid,Mosque,"MJ94+F9G Noorani masjid, Drivers Colony, Anantapur, Andhra Pradesh 515001",Drivers Colony,MJ94+F9G,Anantapur,515001,Andhra Pradesh,IN,https://www.google.com/maps/place/Noorani+masjid/data=!4m7!3m6!1s0x3bb14ae220ad1d83:0xe8aba7922a7aac24!8m2!3d14.6686917!4d77.6059533!16s%2Fg%2F11btx0802q!19sChIJgx2tIOJKsTsRJKx6KpKnq-g?authuser=0&hl=en&rclk=1,"14.6686917,77.6059533"
Jangal Palli Masjid,Mosque,"MJJ4+F79 Jangal Palli Masjid, Old Town, Anantapur, Andhra Pradesh 515005",Old Town,MJJ4+F79,Anantapur,515005,Andhra Pradesh,IN,https://www.google.com/maps/place/Jangal+Palli+Masjid/data=!4m7!3m6!1s0x3bb14ad8c4950be1:0x2899ea016ebfd0f0!8m2!3d14.68117!4d77.6057344!16s%2Fg%2F11cs5lrrv2!19sChIJ4QuVxNhKsTsR8NC_bgHqmSg?authuser=0&hl=en&rclk=1,"14.68117,77.6057344"
Masjid E Rahamaniya,Mosque,"MJF2+3WX Masjid E Rahamaniya, 5th Cross Rd, Sai Nagar, Anantapur, Andhra Pradesh 515001",Sai Nagar,"MJF2+3WX, 5th Cross Rd",Anantapur,515001,Andhra Pradesh,IN,https://www.google.com/maps/place/Masjid+E+Rahamaniya/data=!4m7!3m6!1s0x3bb14ae0c95f7b09:0x2fe323d2d26c0547!8m2!3d14.6727489!4d77.6023461!16s%2Fg%2F1tfs98sx!19sChIJCXtfyeBKsTsRRwVs0tIj4y8?authuser=0&hl=en&rclk=1,"14.6727489,77.60234609999999"
Mohammad Tara Masjid.,Mosque,"MHMJ+55M Mohammad Tara Masjid., Rudrampeta, Anantapur, Andhra Pradesh 515004",Rudrampeta,MHMJ+55M,Anantapur,515004,Andhra Pradesh,IN,https://www.google.com/maps/place/Mohammad+Tara+Masjid./data=!4m7!3m6!1s0x3bb14ab99508a67b:0x39435baf5c9104d!8m2!3d14.6829575!4d77.5804357!16s%2Fg%2F11c2k437w5!19sChIJe6YIlblKsTsRTRDJ9bo1lAM?authuser=0&hl=en&rclk=1,"14.682957499999999,77.5804357"
Masjid-e-Raza Bhavaninagar,Mosque,"MJQ7+CG3 Masjid-e-Raza Bhavaninagar, Ram Nagar, Bhavani Nagar, Anantapur, Andhra Pradesh 515005","Ram Nagar, Bhavani Nagar",MJQ7+CG3,Anantapur,515005,Andhra Pradesh,IN,https://www.google.com/maps/place/Masjid-e-Raza+Bhavaninagar/data=!4m7!3m6!1s0x3bb14b2f2d97ceef:0x6838a1eaa994eec3!8m2!3d14.6885037!4d77.6137849!16s%2Fg%2F11csq4hfmm!19sChIJ786XLS9LsTsRw-6UqeqhOGg?authuser=0&hl=en&rclk=1,"14.6885037,77.6137849"
Mohammadiya masjid,Mosque,"MHPQ+MPR Mohammadiya masjid, 5th Rd, Revenue Colony, Rangaswamy Nagar, Anantapur, Andhra Pradesh 515004","Revenue Colony, Rangaswamy Nagar","MHPQ+MPR, 5th Rd",Anantapur,515004,Andhra Pradesh,IN,https://www.google.com/maps/place/Mohammadiya+masjid/data=!4m7!3m6!1s0x3bb14ac8ea7c4f27:0xbe863ccc9c9d525b!8m2!3d14.6867319!4d77.5892619!16s%2Fg%2F11c1xggl48!19sChIJJ0986shKsTsRW1KdnMw8hr4?authuser=0&hl=en&rclk=1,"14.6867319,77.5892619"
2nd Road Masjid,Mosque,"2nd Road Masjid, 1/143, Road No. 1, Georgepet, Rangaswamy Nagar, Anantapur, Andhra Pradesh 515004","Georgepet, Rangaswamy Nagar","1/143, Road No. 1",Anantapur,515004,Andhra Pradesh,IN,https://www.google.com/maps/place/2nd+Road+Masjid/data=!4m7!3m6!1s0x3bb14ace423778fd:0x193183b6072705f1!8m2!3d14.6895022!4d77.594509!16s%2Fg%2F11xw1d7wf!19sChIJ_Xg3Qs5KsTsR8QUnB7aDMRk?authuser=0&hl=en&rclk=1,"14.6895022,77.594509"
Masjid-E-Nimrah,Mosque,"MHFP+V57 Masjid-E-Nimrah, Kovur Nagar, Anantapur, Andhra Pradesh 515004",Kovur Nagar,MHFP+V57,Anantapur,515004,Andhra Pradesh,IN,https://www.google.com/maps/place/Masjid-E-Nimrah/data=!4m7!3m6!1s0x3bb14ac012c6d9a3:0xbc07a74fc92ae470!8m2!3d14.6746736!4d77.5854237!16s%2Fg%2F11c1p62d94!19sChIJo9nGEsBKsTsRcOQqyU-nB7w?authuser=0&hl=en&rclk=1,"14.6746736,77.58542369999999"
Towhid masjid,Mosque,"MJP5+JXP Towhid masjid, Rani Nagar, Anantapur, Andhra Pradesh 515005",Rani Nagar,MJP5+JXP,Anantapur,515005,Andhra Pradesh,IN,https://www.google.com/maps/place/Towhid+masjid/data=!4m7!3m6!1s0x3bb14b287a246459:0xa2c1087b7d294ec4!8m2!3d14.6865862!4d77.6099428!16s%2Fg%2F11c5gff65g!19sChIJWWQkeihLsTsRxE4pfXsIwaI?authuser=0&hl=en&rclk=1,"14.686586199999999,77.6099428"
Masjid E Naksh Bandiya,Mosque,"Masjid E Naksh Bandiya, 12, Bellary - Uravakonda - Anantapur Rd, Azad Nagar, Pilligundla, Anantapur, Andhra Pradesh 515004","Azad Nagar, Pilligundla","12, Bellary - Uravakonda - Anantapur Rd",Anantapur,515004,Andhra Pradesh,IN,https://www.google.com/maps/place/Masjid+E+Naksh+Bandiya/data=!4m7!3m6!1s0x3bb14ab7e300e141:0x5d428960bb0a1265!8m2!3d14.6856279!4d77.5846703!16s%2Fg%2F1pyqvpd5k!19sChIJQeEA47dKsTsRZRIKu2CJQl0?authuser=0&hl=en&rclk=1,"14.6856279,77.5846703"
Masjid E Mamoor Beside,Housing complex,"MH8R+PXF Masjid E Mamoor Beside, Aravinda Nagar, Maruthi Nagar, Anantapur, Andhra Pradesh 515002","Aravinda Nagar, Maruthi Nagar",MH8R+PXF,Anantapur,515002,Andhra Pradesh,IN,https://www.google.com/maps/place/Masjid+E+Mamoor+Beside/data=!4m7!3m6!1s0x3bb14aeedd2e6249:0xfdd9b99dd62de318!8m2!3d14.6668025!4d77.5924324!16s%2Fg%2F1td5_530!19sChIJSWIu3e5KsTsRGOMt1p252f0?authuser=0&hl=en&rclk=1,"14.6668025,77.59243239999999"
Masjid-e-Hajjaj Muhammad,Mosque,"Masjid-e-Hajjaj Muhammad, Housing Board Colony, Anantapur, Andhra Pradesh 515002",Housing Board Colony,,Anantapur,515002,Andhra Pradesh,IN,https://www.google.com/maps/place/Masjid-e-Hajjaj+Muhammad/data=!4m7!3m6!1s0x3bb14ae36a724e2f:0x3018368ddfe5469a!8m2!3d14.6643125!4d77.6031875!16s%2Fg%2F1ydxc3ppf!19sChIJL05yauNKsTsRmkbl3402GDA?authuser=0&hl=en&rclk=1,"14.6643125,77.60318749999999"
Macca Masjid,Mosque,"MHCP+286 Macca Masjid, near Crescent School, Kovur Nagar, Anantapur, Andhra Pradesh 515004",Kovur Nagar,"MHCP+286, near Crescent School",Anantapur,515004,Andhra Pradesh,IN,https://www.google.com/maps/place/Macca+Masjid/data=!4m7!3m6!1s0x3bb14aeb2387f0c1:0xa5a86e1e9d4514d6!8m2!3d14.6700423!4d77.5857623!16s%2Fg%2F1tlw7j65!19sChIJwfCHI-tKsTsR1hRFnR5uqKU?authuser=0&hl=en&rclk=1,"14.670042299999999,77.5857623"
Masjid e Ghouse Azam,Mosque,"MHHJ+QV3 Masjid e Ghouse Azam, Service Rd, Rudrampeta, Anantapur, Andhra Pradesh 515004",Rudrampeta,"MHHJ+QV3, Service Rd",Anantapur,515004,Andhra Pradesh,IN,https://www.google.com/maps/place/Masjid+e+Ghouse+Azam/data=!4m7!3m6!1s0x3bb14ab8d659bc07:0x6e5735b553009c3a!8m2!3d14.6793898!4d77.5821649!16s%2Fg%2F11g9dtywpz!19sChIJB7xZ1rhKsTsROpwAU7U1V24?authuser=0&hl=en&rclk=1,"14.6793898,77.5821649"
Masjid E Hussain,Mosque,"MJP7+H96 Masjid E Hussain, Vinayak Nagar, Bhavani Nagar, Anantapur, Andhra Pradesh 515005","Vinayak Nagar, Bhavani Nagar",MJP7+H96,Anantapur,515005,Andhra Pradesh,IN,https://www.google.com/maps/place/Masjid+E+Hussain/data=!4m7!3m6!1s0x3bb14b28aa91002b:0x1e6785ed35933f6e!8m2!3d14.6864195!4d77.6133753!16s%2Fg%2F11c59t4n7n!19sChIJKwCRqihLsTsRbj-TNe2FZx4?authuser=0&hl=en&rclk=1,"14.6864195,77.6133753"
JAMIA MASJID msjd,Mosque,"JAMIA MASJID msjd, 22348, Maldar St, Old Town, Anantapur, Andhra Pradesh 515005",Old Town,"22348, Maldar St",Anantapur,515005,Andhra Pradesh,IN,https://www.google.com/maps/place/JAMIA+MASJID+%D9%85%D8%B3%D8%AC%D8%AF%E2%80%AD/data=!4m7!3m6!1s0x3bb14b20824f85cf:0xfffd57709f881d9!8m2!3d14.6779137!4d77.6079217!16s%2Fg%2F11bysjtc4d!19sChIJz4VPgiBLsTsR2YH4CXfV_w8?authuser=0&hl=en&rclk=1,"14.6779137,77.60792169999999"
Masjid -E- Fatima,Mosque,"MHMH+5CF Masjid -E- Fatima, 4/660, Nani Rd, Vidyaranya Nagar, Rudrampeta, Anantapur, Andhra Pradesh 515004","Vidyaranya Nagar, Rudrampeta","MHMH+5CF, 4/660, Nani Rd",Anantapur,515004,Andhra Pradesh,IN,https://www.google.com/maps/place/Masjid+-E-+Fatima/data=!4m7!3m6!1s0x3bb14aba18201e85:0x99d340b1d3ac00eb!8m2!3d14.6830449!4d77.5786028!16s%2Fg%2F11dztxqmq_!19sChIJhR4gGLpKsTsR6wCs07FA05k?authuser=0&hl=en&rclk=1,"14.683044899999999,77.5786028"
Chandini Masjid (PTC),Mosque,"MHMQ+CQH Chandini Masjid (PTC), Georgepet, Rangaswamy Nagar, Anantapur, Andhra Pradesh 515004","Georgepet, Rangaswamy Nagar",MHMQ+CQH,Anantapur,515004,Andhra Pradesh,IN,https://www.google.com/maps/place/Chandini+Masjid+%28PTC%29/data=!4m7!3m6!1s0x3bb14ac66b736439:0x6f3089510da13ebc!8m2!3d14.683559!4d77.5894755!16s%2Fg%2F124yq8b41!19sChIJOWRza8ZKsTsRvD6hDVGJMG8?authuser=0&hl=en&rclk=1,"14.683558999999999,77.58947549999999"
Masjid-E-Mawa,Mosque,"JJV4+2Q6 Masjid-E-Mawa, Chinmaya Nagar, Prasannaya Palli, Anantapur, Andhra Pradesh 515001","Chinmaya Nagar, Prasannaya Palli",JJV4+2Q6,Anantapur,515001,Andhra Pradesh,IN,https://www.google.com/maps/place/Masjid-E-Mawa/data=!4m7!3m6!1s0x3bb14a533975c22f:0x777a59a18a7e32eb!8m2!3d14.6425272!4d77.6069042!16s%2Fg%2F11c0qj1w4v!19sChIJL8J1OVNKsTsR6zJ-iqFZenc?authuser=0&hl=en&rclk=1,"14.6425272,77.6069042"
Masjid-E-Aqsa,Mosque,"MJM5+539 Masjid-E-Aqsa, Gooty Rd, Rani Nagar, Anantapur, Andhra Pradesh 515005",Rani Nagar,"MJM5+539, Gooty Rd",Anantapur,,Andhra Pradesh,IN,https://www.google.com/maps/place/Masjid-E-Aqsa/data=!4m7!3m6!1s0x3bb14b277e3bc267:0x7255eec645673f62!8m2!3d14.6829155!4d77.607748!16s%2Fg%2F11h27mc34s!19sChIJZ8I7fidLsTsRYj9nRcbuVXI?authuser=0&hl=en&rclk=1,"14.6829155,77.607748"
Zakariya Masjid,Mosque,"MHQ2+8WP Zakariya Masjid, Kalyandurgam Rd, NR Colony, Pikottala, Anantapur, Andhra Pradesh 515004","NR Colony, Pikottala","MHQ2+8WP, Kalyandurgam Rd",Anantapur,515004,Andhra Pradesh,IN,https://www.google.com/maps/place/Zakariya+Masjid/data=!4m7!3m6!1s0x3bb14adab5d847f9:0x65126f19d00469ba!8m2!3d14.6883386!4d77.5523135!16s%2Fg%2F11c7smgcz5!19sChIJ-UfYtdpKsTsRumkE0BlvEmU?authuser=0&hl=en&rclk=1,"14.6883386,77.5523135"
Eidgah,Mosque,"MJ84+PJF Eidgah, Drivers Colony, Anantapur, Andhra Pradesh 515001",Drivers Colony,MJ84+PJF,Anantapur,515001,Andhra Pradesh,IN,https://www.google.com/maps/place/Eidgah/data=!4m7!3m6!1s0x3bb14ae26f39b24b:0xda41510d83a6dd20!8m2!3d14.6668017!4d77.6065332!16s%2Fg%2F1tnhwslc!19sChIJS7I5b-JKsTsRIN2mgw1RQdo?authuser=0&hl=en&rclk=1,"14.666801699999999,77.6065332"
Masjid-e-Madani,Mosque,"MHFR+2HJ Masjid-e-Madani, Baba Nagar, Anantapur, Andhra Pradesh 515001",Baba Nagar,MHFR+2HJ,Anantapur,515001,Andhra Pradesh,IN,https://www.google.com/maps/place/Masjid-e-Madani/data=!4m7!3m6!1s0x3bb14ae9ee6883a7:0x1b0fb97130887d85!8m2!3d14.6725946!4d77.5913836!16s%2Fg%2F1pv6ygrjr!19sChIJp4No7ulKsTsRhX2IMHG5Dxs?authuser=0&hl=en&rclk=1,"14.6725946,77.5913836"
Khwaja Gareeb Nawaz Mosque,Mosque,"MHHH+5GP Khwaja Gareeb Nawaz Mosque, Rudrampeta, Anantapur, Andhra Pradesh 515004",Rudrampeta,MHHH+5GP,Anantapur,515004,Andhra Pradesh,IN,https://www.google.com/maps/place/Khwaja+Gareeb+Nawaz+Mosque/data=!4m7!3m6!1s0x3bb14abc1cbadd0f:0xc77438aff80cd910!8m2!3d14.6779556!4d77.5788275!16s%2Fg%2F11fxvqcypw!19sChIJD926HLxKsTsRENkM-K84dMc?authuser=0&hl=en&rclk=1,"14.677955599999999,77.5788275"
Masjid E Hussainiya,Mosque,"MHHQ+8HM Masjid E Hussainiya, Unnamed Road, Lakshmi Nagar, Anantapur, Andhra Pradesh 515004",Lakshmi Nagar,"MHHQ+8HM, Unnamed Road",Anantapur,515004,Andhra Pradesh,IN,https://www.google.com/maps/place/Masjid+E+Hussainiya/data=!4m7!3m6!1s0x3bb14ac1307efecb:0xb2d10a1ba06d0d02!8m2!3d14.6783408!4d77.5889089!16s%2Fg%2F11gdgd5hn8!19sChIJy_5-MMFKsTsRAg1toBsK0bI?authuser=0&hl=en&rclk=1,"14.678340799999999,77.58890889999999"
Masjid-E-Muhammadiya,Mosque,"Masjid-E-Muhammadiya, Mohammadiya masjid, Georgepet, Rangaswamy Nagar, Anantapur, Andhra Pradesh 515004","Georgepet, Rangaswamy Nagar",Mohammadiya masjid,Anantapur,,Andhra Pradesh,IN,https://www.google.com/maps/place/Masjid-E-Muhammadiya/data=!4m7!3m6!1s0x3bb14ac92775a4ad:0xea64816febd1ef43!8m2!3d14.6879961!4d77.5896804!16s%2Fg%2F11c1xfy57q!19sChIJraR1J8lKsTsRQ-_R62-BZOo?authuser=0&hl=en&rclk=1,"14.6879961,77.58968039999999"
Masjid E Saad,Mosque,"MHVP+HRH Masjid E Saad, Sukhadeva Nagar, Somanath Nagar, Anantapur, Andhra Pradesh 515004","Sukhadeva Nagar, Somanath Nagar",MHVP+HRH,Anantapur,515004,Andhra Pradesh,IN,https://www.google.com/maps/place/Masjid+E+Saad/data=!4m7!3m6!1s0x3bb14acafa49c647:0x9550ed936e2b6cb3!8m2!3d14.6939372!4d77.5871095!16s%2Fg%2F11gblf93c2!19sChIJR8ZJ-spKsTsRs2wrbpPtUJU?authuser=0&hl=en&rclk=1,"14.693937199999999,77.5871095"
Al- FAKHRUDDIN MASJID,Mosque,"Al- FAKHRUDDIN MASJID, Nilam Sanjeevareddy Building Road, 3rd cross, 1st street, Kovur Nagar, Anantapur, Andhra Pradesh 515001",Kovur Nagar,"Nilam Sanjeevareddy Building Road, 3rd cross, 1st street",Anantapur,515001,Andhra Pradesh,IN,https://www.google.com/maps/place/Al-+FAKHRUDDIN+MASJID/data=!4m7!3m6!1s0x3bb14abf5eba3a87:0x9441934d62a0f7c3!8m2!3d14.6778693!4d77.5845345!16s%2Fg%2F11df310y1j!19sChIJhzq6Xr9KsTsRw_egYk2TQZQ?authuser=0&hl=en&rclk=1,"14.6778693,77.58453449999999"
Masjid -e- Ghouse Mohiuddin,Mosque,"JJW9+6VX Masjid -e- Ghouse Mohiuddin, Lenin Nagar, Anantapur, Andhra Pradesh 515002",Lenin Nagar,JJW9+6VX,Anantapur,515002,Andhra Pradesh,IN,https://www.google.com/maps/place/Masjid+-e-+Ghouse+Mohiuddin/data=!4m7!3m6!1s0x3bb14ba5f17671f5:0x6a037d28486fa8e4!8m2!3d14.6456023!4d77.6197359!16s%2Fg%2F11dft19gyq!19sChIJ9XF28aVLsTsR5KhvSCh9A2o?authuser=0&hl=en&rclk=1,"14.6456023,77.6197359"
MASJID - E - IBRAHIM KHALEELULLAH,Mosque,"MASJID - E - IBRAHIM KHALEELULLAH, Vijayanagar Colony, Anantapur, Andhra Pradesh 515005",Vijayanagar Colony,,Anantapur,515005,Andhra Pradesh,IN,https://www.google.com/maps/place/MASJID+-+E+-+IBRAHIM+KHALEELULLAH/data=!4m7!3m6!1s0x3bb14b1b2104b2db:0x8d4724d444e4dbc7!8m2!3d14.6647716!4d77.6161745!16s%2Fg%2F11g8xgv7jp!19sChIJ27IEIRtLsTsRx9vkRNQkR40?authuser=0&hl=en&rclk=1,"14.6647716,77.6161745"
Masjid E Qizra,Mosque,"MHVM+9CP Masjid E Qizra, Prashanti Nagar, syndicate nagar, Anantapur, Andhra Pradesh 515004","Prashanti Nagar, syndicate nagar",MHVM+9CP,Anantapur,515004,Andhra Pradesh,IN,https://www.google.com/maps/place/Masjid+E+Qizra/data=!4m7!3m6!1s0x3bb14ab575273e07:0xcd6445b13f68ee8!8m2!3d14.6934543!4d77.583579!16s%2Fg%2F11c6cx4wcj!19sChIJBz4ndbVKsTsR6I72E1tE1gw?authuser=0&hl=en&rclk=1,"14.693454299999999,77.583579"
Bismillah Masjid,Mosque,"MJV4+JV4 Bismillah Masjid, Yerranela Kottala, Anantapur, Andhra Pradesh 515005",Yerranela Kottala,MJV4+JV4,Anantapur,515005,Andhra Pradesh,IN,https://www.google.com/maps/place/Bismillah+Masjid/data=!4m7!3m6!1s0x3bb14ad585119a2d:0x9bda6da77be81ba4!8m2!3d14.6940056!4d77.6071989!16s%2Fg%2F11c60fd4yt!19sChIJLZoRhdVKsTsRpBvoe6dt2ps?authuser=0&hl=en&rclk=1,"14.694005599999999,77.6071989"
Masjid-E-Noori Mubarak,Mosque,"Masjid-E-Noori Mubarak, Near, Bangalore - Hyderabad Hwy, Netaji Nagar Colony, Priyanka Nagar, Anantapur, Andhra Pradesh 515001","Netaji Nagar Colony, Priyanka Nagar","Near, Bangalore - Hyderabad Hwy",Anantapur,515001,Andhra Pradesh,IN,https://www.google.com/maps/place/Masjid-E-Noori+Mubarak/data=!4m7!3m6!1s0x3bb6b531ccbcd741:0x121e4e7dee4e48fb!8m2!3d14.7053!4d77.5953!16s%2Fg%2F1pyqqg061!19sChIJQde8zDG1tjsR-0hO7n1OHhI?authuser=0&hl=en&rclk=1,"14.7053,77.5953"
Masjid - e - Anas,Mosque,"MJ75+6PX Masjid - e - Anas, Navodaya Colony Rd, Navodaya Colony, Anantapur, Andhra Pradesh 515002",Navodaya Colony,"MJ75+6PX, Navodaya Colony Rd",Anantapur,515002,Andhra Pradesh,IN,https://www.google.com/maps/place/Masjid+-+e+-+Anas/data=!4m7!3m6!1s0x3bb14b02caf775ad:0xbd976aa5e2283f9b!8m2!3d14.6631039!4d77.6093464!16s%2Fg%2F11gg466wdq!19sChIJrXX3ygJLsTsRmz8o4qVql70?authuser=0&hl=en&rclk=1,"14.6631039,77.60934639999999"
My paternal great grandfather Masjid,Mosque,"MHQV+QQX My paternal great grandfather Masjid, 2nd Rd, Georgepet, Rangaswamy Nagar, Anantapur, Andhra Pradesh 515004","Georgepet, Rangaswamy Nagar","MHQV+QQX, 2nd Rd",Anantapur,515004,Andhra Pradesh,IN,https://www.google.com/maps/place/My+paternal+great+grandfather+Masjid/data=!4m7!3m6!1s0x3bb14ace43ad5cfb:0xe84c58f5cecd2c8b!8m2!3d14.6894801!4d77.5944768!16s%2Fg%2F1pyqjm6_8!19sChIJ-1ytQ85KsTsRiyzNzvVYTOg?authuser=0&hl=en&rclk=1,"14.689480099999999,77.5944768"
Madeena Masjid,Mosque,"PH26+F2F Madeena Masjid, Unnamed Road, syndicate nagar, Papampeta, Anantapur, Andhra Pradesh 515001",syndicate nagar,"PH26+F2F, Unnamed Road","Papampeta, Anantapur",515001,Andhra Pradesh,IN,https://www.google.com/maps/place/Madeena+Masjid/data=!4m7!3m6!1s0x3bb6cb40565daec7:0x4bdaecf39d124312!8m2!3d14.701193!4d77.5600364!16s%2Fg%2F11g0dtzgh8!19sChIJx65dVkDLtjsREkMSnfPs2ks?authuser=0&hl=en&rclk=1,"14.701193,77.5600364"
Madrasa E Faizul Uloom Trust & Masjid E Biyabani,Mosque,"MJ64+G77 Madrasa E Faizul Uloom Trust & Masjid E Biyabani, Housing Board Colony, Anantapur, Andhra Pradesh 515002",Housing Board Colony,MJ64+G77,Anantapur,515002,Andhra Pradesh,IN,https://www.google.com/maps/place/Madrasa+E+Faizul+Uloom+Trust+%26+Masjid+E+Biyabani/data=!4m7!3m6!1s0x3bb14afd175aea21:0x4403f7b9ab41628c!8m2!3d14.6612883!4d77.6056707!16s%2Fg%2F11c0vylpp9!19sChIJIepaF_1KsTsRjGJBq7n3A0Q?authuser=0&hl=en&rclk=1,"14.661288299999999,77.60567069999999"
Majid-E-Noor,Mosque,"Majid-E-Noor, Vimala Farooq nagar, 515002, Rudrampeta, Anantapur, Andhra Pradesh 515002",Rudrampeta,"Vimala Farooq nagar, 515002",Anantapur,515002,Andhra Pradesh,IN,https://www.google.com/maps/place/Majid-E-Noor/data=!4m7!3m6!1s0x3bb14a908bd2cddf:0x44a094fd9fdb97f0!8m2!3d14.6643467!4d77.5745181!16s%2Fg%2F11f0kzpt1c!19sChIJ383Si5BKsTsR8Jfbn_2UoEQ?authuser=0&hl=en&rclk=1,"14.6643467,77.57451809999999"
Maszid- e - Moquaddas,Mosque,"MHWW+82P Maszid- e - Moquaddas, Indira Gandhi Nagar, Anantapur, Andhra Pradesh 515001",Indira Gandhi Nagar,MHWW+82P,Anantapur,515001,Andhra Pradesh,IN,https://www.google.com/maps/place/Maszid-+e+-+Moquaddas/data=!4m7!3m6!1s0x3bb14acd46e1d7db:0xb564233716608ae7!8m2!3d14.6958406!4d77.595083!16s%2Fg%2F11c2qsj83k!19sChIJ29fhRs1KsTsR54pgFjcjZLU?authuser=0&hl=en&rclk=1,"14.695840599999999,77.595083"
Masjid E Imam-E-Azam,Mosque,"MJH5+HXP Masjid E Imam-E-Azam, Nalband St, Old Town, Anantapur, Andhra Pradesh 515001",Old Town,"MJH5+HXP, Nalband St",Anantapur,515001,Andhra Pradesh,IN,https://www.google.com/maps/place/Masjid+E+Imam-E-Azam/data=!4m7!3m6!1s0x3bb14b20e7f8a539:0x51d8867fa84e67a6!8m2!3d14.6789721!4d77.6099686!16s%2Fg%2F11cp5qxs8l!19sChIJOaX45yBLsTsRpmdOqH-G2FE?authuser=0&hl=en&rclk=1,"14.6789721,77.6099686"
MASJID-E-UMAR msjd,Mosque,"JJX7+VXM MASJID-E-UMAR msjd, Ferrer Nagar, Anantapur, Andhra Pradesh 515002",Ferrer Nagar,JJX7+VXM,Anantapur,515002,Andhra Pradesh,IN,https://www.google.com/maps/place/MASJID-E-UMAR+%D9%85%D8%B3%D8%AC%D8%AF%E2%80%AD/data=!4m7!3m6!1s0x3bb14bdbfbab312d:0x7b8319d4be6f8848!8m2!3d14.6497119!4d77.6149358!16s%2Fg%2F11fcqnf58b!19sChIJLTGr-9tLsTsRSIhvvtQZg3s?authuser=0&hl=en&rclk=1,"14.6497119,77.6149358"
Masjide Inayat(msjd `nyt),Mosque,"Masjide Inayat(msjd `nyt), 6/6/2, Adarsh Colony, Maruthi Nagar, Anantapur, Andhra Pradesh 515004","Adarsh Colony, Maruthi Nagar",6/6/2,Anantapur,515004,Andhra Pradesh,IN,https://www.google.com/maps/place/Masjide+Inayat%28%D9%85%D8%B3%D8%AC%D8%AF+%D8%B9%D9%86%D8%A7%DB%8C%D8%AA%29%E2%80%AD/data=!4m7!3m6!1s0x3bb14af22573ff05:0xf51fc811bfc7a211!8m2!3d14.6601154!4d77.5899402!16s%2Fg%2F11c53s3_2f!19sChIJBf9zJfJKsTsREaLHvxHIH_U?authuser=0&hl=en&rclk=1,"14.660115399999999,77.5899402"
Bavani Nagar Masjid,Mosque,"Bavani Nagar Masjid, Cheruvu katta, Anantapur, Andhra Pradesh 515005",Cheruvu katta,,Anantapur,,Andhra Pradesh,IN,https://www.google.com/maps/place/Bavani+Nagar+Masjid/data=!4m7!3m6!1s0x3bb14b25b7ba69f7:0xea8565940cc86978!8m2!3d14.6841133!4d77.6150836!16s%2Fg%2F1pyqskx72!19sChIJ92m6tyVLsTsReGnIDJRlheo?authuser=0&hl=en&rclk=1,"14.6841133,77.61508359999999"
Firdous Masjid,Mosque,"MJQ4+CX4 Firdous Masjid, Old Town, Anantapur, Andhra Pradesh 515005",Old Town,MJQ4+CX4,Anantapur,515005,Andhra Pradesh,IN,https://www.google.com/maps/place/Firdous+Masjid/data=!4m7!3m6!1s0x3bb14ad7d6a757ef:0x62ab2f7707fdfbaa!8m2!3d14.6885036!4d77.607446!16s%2Fg%2F11fzf44sst!19sChIJ71en1tdKsTsRqvv9B3cvq2I?authuser=0&hl=en&rclk=1,"14.688503599999999,77.607446"
Masjid E Raziya And Jamiya Faizul Quran,Mosque,"MHVR+HWF Masjid E Raziya And Jamiya Faizul Quran, R K Nagar, Indira Gandhi Nagar, Anantapur, Andhra Pradesh 515001","R K Nagar, Indira Gandhi Nagar",MHVR+HWF,Anantapur,515001,Andhra Pradesh,IN,https://www.google.com/maps/place/Masjid+E+Raziya+And+Jamiya+Faizul+Quran/data=!4m7!3m6!1s0x3bb14accf5b55267:0xa6a4723f4e9ab8cb!8m2!3d14.6939417!4d77.5922955!16s%2Fg%2F11gc9js8mk!19sChIJZ1K19cxKsTsRy7iaTj9ypKY?authuser=0&hl=en&rclk=1,"14.6939417,77.59229549999999"
Al Habeeb Jamia Masjid,Mosque,"MJP2+3PG Al Habeeb Jamia Masjid, Khaja Nagar, Old Town, Anantapur, Andhra Pradesh 515001","Khaja Nagar, Old Town",MJP2+3PG,Anantapur,515001,Andhra Pradesh,IN,https://www.google.com/maps/place/Al+Habeeb+Jamia+Masjid/data=!4m7!3m6!1s0x3bb14ada030995ef:0x12e42024a133cac6!8m2!3d14.6851859!4d77.6018231!16s%2Fg%2F124ykzcls!19sChIJ75UJA9pKsTsRxsozoSQg5BI?authuser=0&hl=en&rclk=1,"14.685185899999999,77.60182309999999"
Masjid E Hassan,Mosque,"MHJM+JVX Masjid E Hassan, Azad Nagar, Kovur Nagar, Anantapur, Andhra Pradesh 515004","Azad Nagar, Kovur Nagar","MHJM+JVX, Azad Nagar",Anantapur,515004,Andhra Pradesh,IN,https://www.google.com/maps/place/Masjid+E+Hassan/data=!4m7!3m6!1s0x3bb14bcc5c4fd3a5:0x1a748d5f54f5204e!8m2!3d14.6816134!4d77.5847417!16s%2Fg%2F11f64hk_jy!19sChIJpdNPXMxLsTsRTiD1VF-NdBo?authuser=0&hl=en&rclk=1,"14.6816134,77.5847417"
Masjid E Ismail msjd sm`~l,Mosque,"MJF5+WRQ Masjid E Ismail msjd sm`~l, Munna Nagar, Anantapur, Andhra Pradesh 515001",Munna Nagar,MJF5+WRQ,Anantapur,515001,Andhra Pradesh,IN,https://www.google.com/maps/place/Masjid+E+Ismail+%D9%85%D8%B3%D8%AC%D8%AF+%D8%A7%D8%B3%D9%85%D8%A7%D8%B9%D9%89%D9%84%E2%80%AD/data=!4m7!3m6!1s0x3bb14bc9683d524f:0xff97f27b07ed7fc7!8m2!3d14.674846!4d77.6096207!16s%2Fg%2F11g047cnl0!19sChIJT1I9aMlLsTsRx3_tB3vyl_8?authuser=0&hl=en&rclk=1,"14.674845999999999,77.6096207"
Masjid-E-Adam,Mosque,"JJJ5+X9G Masjid-E-Adam, Indhirmma Colony, Chinmaya Nagar, Anantapur, Andhra Pradesh 515002","Indhirmma Colony, Chinmaya Nagar","JJJ5+X9G, Indhirmma Colony",Anantapur,515002,Andhra Pradesh,IN,https://www.google.com/maps/place/Masjid-E-Adam/data=!4m7!3m6!1s0x3bb14bb4c55813f9:0xc8cdf3fb96307dcf!8m2!3d14.6324499!4d77.6084598!16s%2Fg%2F11ggvzwqjs!19sChIJ-RNYxbRLsTsRz30wlvvzzcg?authuser=0&hl=en&rclk=1,"14.6324499,77.60845979999999"
Masjid-E-Noor-E-Mahammadiya,Mosque,"Masjid-E-Noor-E-Mahammadiya, 5/146, Maruru, BC Colony, Rapthadu, Andhra Pradesh 515722","Maruru, BC Colony",5/146,Rapthadu,515722,Andhra Pradesh,IN,https://www.google.com/maps/place/Masjid-E-Noor-E-Mahammadiya/data=!4m7!3m6!1s0x3bb14a328d6690f3:0x614430f7a67616b0!8m2!3d14.6185823!4d77.6056519!16s%2Fg%2F11d_1lb9pv!19sChIJ85BmjTJKsTsRsBZ2pvcwRGE?authuser=0&hl=en&rclk=1,"14.6185823,77.6056519"
Maszid-E-Hazirah,Mosque,"MHQQ+F36 Maszid-E-Hazirah, Indira Nagar, Hydervali Colony, Somanath Nagar, Anantapur, Andhra Pradesh 515004","Indira Nagar, Hydervali Colony, Somanath Nagar",MHQQ+F36,Anantapur,515004,Andhra Pradesh,IN,https://www.google.com/maps/place/Maszid-E-Hazirah/data=!4m7!3m6!1s0x3bb14ac9a6543867:0x411c64ae13ab6d9f!8m2!3d14.6886555!4d77.5876451!16s%2Fg%2F11c1ly7qj2!19sChIJZzhUpslKsTsRn22rE65kHEE?authuser=0&hl=en&rclk=1,"14.6886555,77.5876451"
Gooty Masjid,Mosque,"PH3P+F6G Gooty Masjid, A.Narayana Puram, Anantapur, Andhra Pradesh 515004",A.Narayana Puram,PH3P+F6G,Anantapur,515004,Andhra Pradesh,IN,https://www.google.com/maps/place/Gooty+Masjid/data=!4m7!3m6!1s0x3bb6b5362335669b:0x95f4fb722e2bb012!8m2!3d14.703687!4d77.585576!16s%2Fg%2F11c61c2xc9!19sChIJm2Y1Iza1tjsRErArLnL79JU?authuser=0&hl=en&rclk=1,"14.703686999999999,77.585576"
Masjid e Mohiddin Ashrafiya,Mosque,"MHRW+475 Masjid e Mohiddin Ashrafiya, Rangaswamy Nagar, Anantapur, Andhra Pradesh 515004",Rangaswamy Nagar,MHRW+475,Anantapur,515004,Andhra Pradesh,IN,https://www.google.com/maps/place/Masjid+e+Mohiddin+Ashrafiya/data=!4m7!3m6!1s0x3bb14b52b882c87b:0x88f728799b60fa4f!8m2!3d14.6902724!4d77.5957356!16s%2Fg%2F11h2j_dm_3!19sChIJe8iCuFJLsTsRT_pgm3ko94g?authuser=0&hl=en&rclk=1,"14.6902724,77.5957356"
Masjid E Arafath,Religious destination,"MH7Q+R69 Masjid E Arafath, Maruthi Nagar, Anantapur, Andhra Pradesh 515002",Maruthi Nagar,MH7Q+R69,Anantapur,515002,Andhra Pradesh,IN,https://www.google.com/maps/place/Masjid+E+Arafath/data=!4m7!3m6!1s0x3bb14bb4293fc4e5:0xf583bf76db1363c!8m2!3d14.6645397!4d77.5881033!16s%2Fg%2F11gyx0_90d!19sChIJ5cQ_KbRLsTsRPDaxbfc7WA8?authuser=0&hl=en&rclk=1,"14.664539699999999,77.5881033"
Masjid A Ilyaas,Mosque,"MJV8+C57 Masjid A Ilyaas, Anantapur, Andhra Pradesh 515001",,MJV8+C57,Anantapur,515001,Andhra Pradesh,IN,https://www.google.com/maps/place/Masjid+A+Ilyaas/data=!4m7!3m6!1s0x3bb14b2c3897096b:0x81a48124a1f338fc!8m2!3d14.693527!4d77.6154078!16s%2Fg%2F11f0394bzr!19sChIJawmXOCxLsTsR_DjzoSSBpIE?authuser=0&hl=en&rclk=1,"14.693527,77.6154078"
Sadaruddin Mosque,Mosque,"MHPX+9G7 Sadaruddin Mosque, Azad Nagar, Srinivas Nagar, Anantapur, Andhra Pradesh 515001","Azad Nagar, Srinivas Nagar",MHPX+9G7,Anantapur,515001,Andhra Pradesh,IN,https://www.google.com/maps/place/Sadaruddin+Mosque/data=!4m7!3m6!1s0x3bb14ad0793bc633:0x78dd41e212e839df!8m2!3d14.6859185!4d77.5987899!16s%2Fg%2F1pyqrzhqj!19sChIJM8Y7edBKsTsR3znoEuJB3Xg?authuser=0&hl=en&rclk=1,"14.6859185,77.5987899"
Masjid Islamic Center (Masjid E Biyabani),Mosque,"MH4Q+H7V Masjid Islamic Center (Masjid E Biyabani), Anantapur, Andhra Pradesh 515002",,MH4Q+H7V,Anantapur,515002,Andhra Pradesh,IN,https://www.google.com/maps/place/Masjid+Islamic+Center+%28Masjid+E+Biyabani%29/data=!4m7!3m6!1s0x3bb14bab2d9aab55:0x220db89fa80a391!8m2!3d14.6564809!4d77.5881775!16s%2Fg%2F11scl2rh4m!19sChIJVauaLatLsTsRkaOA-onbIAI?authuser=0&hl=en&rclk=1,"14.6564809,77.5881775"
Mosque Yerranela Kottala,Mosque,"Mosque Yerranela Kottala, 13-738, Main Rd, Revenue Colony, Yerranela Kottala, Anantapur, Andhra Pradesh 515001","Revenue Colony, Yerranela Kottala","13-738, Main Rd",Anantapur,515001,Andhra Pradesh,IN,https://www.google.com/maps/place/Mosque+Yerranela+Kottala/data=!4m7!3m6!1s0x3bb14ad235698055:0x16d0e86f9b3204b4!8m2!3d14.692633!4d77.599092!16s%2Fg%2F1pyqk3112!19sChIJVYBpNdJKsTsRtAQym2_o0BY?authuser=0&hl=en&rclk=1,"14.692632999999999,77.599092"
Hazard Masjid,Mosque,"MHQW+8GJ Hazard Masjid, Srinivas Nagar, Anantapur, Andhra Pradesh 515001",Srinivas Nagar,MHQW+8GJ,Anantapur,515001,Andhra Pradesh,IN,https://www.google.com/maps/place/Hazard+Masjid/data=!4m7!3m6!1s0x3bb14ace2a97bb6b:0x6aec81304cffd4ca!8m2!3d14.6883252!4d77.5962685!16s%2Fg%2F1pyqg6v4n!19sChIJa7uXKs5KsTsRytT_TDCB7Go?authuser=0&hl=en&rclk=1,"14.6883252,77.5962685"
Moulana Abdur Razak Masjid,Mosque,"MHGG+74J Moulana Abdur Razak Masjid, Unnamed Road, Rudrampeta, Anantapur, Andhra Pradesh 515001",Rudrampeta,"MHGG+74J, Unnamed Road",Anantapur,515001,Andhra Pradesh,IN,https://www.google.com/maps/place/Moulana+Abdur+Razak+Masjid/data=!4m7!3m6!1s0x3bb14b053de5517f:0x3133037848870c10!8m2!3d14.6757214!4d77.5752782!16s%2Fg%2F11fhww4hbj!19sChIJf1HlPQVLsTsREAyHSHgDMzE?authuser=0&hl=en&rclk=1,"14.675721399999999,77.5752782"
Masjid e umme salma,Mosque,"PH6J+92W Masjid e umme salma, Unnamed Road, A.Narayana Puram, Anantapur, Andhra Pradesh 515001",A.Narayana Puram,"PH6J+92W, Unnamed Road",Anantapur,515001,Andhra Pradesh,IN,https://www.google.com/maps/place/Masjid+e+umme+salma/data=!4m7!3m6!1s0x3bb6b531f4c0debf:0x86d072171b828ecb!8m2!3d14.7109771!4d77.5800745!16s%2Fg%2F11h02fdy5y!19sChIJv97A9DG1tjsRy46CGxdy0IY?authuser=0&hl=en&rclk=1,"14.7109771,77.5800745"
Masjid E Ghousia,Mosque,"MHFR+QX8 Masjid E Ghousia, 4th Cross Rd, Rahamat Nagar, Anantapur, Andhra Pradesh 515001",Rahamat Nagar,"MHFR+QX8, 4th Cross Rd",Anantapur,515001,Andhra Pradesh,IN,https://www.google.com/maps/place/Masjid+E+Ghousia/data=!4m7!3m6!1s0x3bb14ac271e5d85f:0xb10bafe163454ef2!8m2!3d14.6744141!4d77.5924544!16s%2Fg%2F11h2368d9y!19sChIJX9jlccJKsTsR8k5FY-GvC7E?authuser=0&hl=en&rclk=1,"14.6744141,77.5924544"
Masjide Munavvar Sunni Masjid,Mosque,"MJM3+268 Masjide Munavvar Sunni Masjid, 2nd Cross Rd, Khaja Nagar, Old Town, Anantapur, Andhra Pradesh 515001","Khaja Nagar, Old Town","MJM3+268, 2nd Cross Rd",Anantapur,515001,Andhra Pradesh,IN,https://www.google.com/maps/place/Masjide+Munavvar+Sunni+Masjid/data=!4m7!3m6!1s0x3bb14ad9714b589b:0xd62589e79236d7c6!8m2!3d14.6825299!4d77.6030823!16s%2Fg%2F11f542xyh_!19sChIJm1hLcdlKsTsRxtc2kueJJdY?authuser=0&hl=en&rclk=1,"14.682529899999999,77.6030823"
Musalla E Mehboob Umar,Mosque,"MJH3+PGP Musalla E Mehboob Umar, Kamalanagar, Anantapur, Andhra Pradesh 515001",Kamalanagar,MJH3+PGP,Anantapur,515001,Andhra Pradesh,IN,https://www.google.com/maps/place/Musalla+E+Mehboob+Umar/data=!4m7!3m6!1s0x3bb14bf522ec8ea3:0x9a56f27e30b6a618!8m2!3d14.6793395!4d77.6038288!16s%2Fg%2F11gn1_vtw_!19sChIJo47sIvVLsTsRGKa2MH7yVpo?authuser=0&hl=en&rclk=1,"14.6793395,77.6038288"
Masjid-e-Biyabani,Mosque,"MJ64+G69 Masjid-e-Biyabani, Housing Board Colony, Anantapur, Andhra Pradesh 515002",Housing Board Colony,MJ64+G69,Anantapur,515002,Andhra Pradesh,IN,https://www.google.com/maps/place/Masjid-e-Biyabani/data=!4m7!3m6!1s0x3bb14afd19eebd91:0x236c550c14dd673c!8m2!3d14.6612766!4d77.6056093!16s%2Fg%2F11c0phhjzc!19sChIJkb3uGf1KsTsRPGfdFAxVbCM?authuser=0&hl=en&rclk=1,"14.661276599999999,77.6056093"
Masjid-E-Muzzammil,Mosque,"MH5V+MF8 Masjid-E-Muzzammil, Naik Nagar, Adarsh Nagar, Anantapur, Andhra Pradesh 515002","Naik Nagar, Adarsh Nagar",MH5V+MF8,Anantapur,515002,Andhra Pradesh,IN,https://www.google.com/maps/place/Masjid-E-Muzzammil/data=!4m7!3m6!1s0x3bb14b60cb90ca0f:0x6f714cc76dd8a62f!8m2!3d14.6591732!4d77.5937007!16s%2Fg%2F11kh_w0l9w!19sChIJD8qQy2BLsTsRL6bYbcdMcW8?authuser=0&hl=en&rclk=1,"14.6591732,77.5937007"
Masjid-E-Arafath,Mosque,"MH6Q+MVG Masjid-E-Arafath, Adarsh Colony, Chinmay Nagar, Maruthi Nagar, Anantapur, Andhra Pradesh 515002","Adarsh Colony, Chinmay Nagar, Maruthi Nagar",MH6Q+MVG,Anantapur,515002,Andhra Pradesh,IN,https://www.google.com/maps/place/Masjid-E-Arafath/data=!4m7!3m6!1s0x3bb14b306d53c253:0xa7ffcab4e3396c72!8m2!3d14.6616779!4d77.5897018!16s%2Fg%2F11g1kltqs_!19sChIJU8JTbTBLsTsRcmw547TK_6c?authuser=0&hl=en&rclk=1,"14.661677899999999,77.5897018"
Masjid-E-Mohammadia,Mosque,"MJM8+J2Q Masjid-E-Mohammadia, Bhavani Nagar, Anantapur, Andhra Pradesh 515005",Bhavani Nagar,MJM8+J2Q,Anantapur,515005,Andhra Pradesh,IN,https://www.google.com/maps/place/Masjid-E-Mohammadia/data=!4m7!3m6!1s0x3bb14b25b7a9480f:0xea86e5a6b5b34b7e!8m2!3d14.6840958!4d77.6151107!16s%2Fg%2F11c6rxnmlh!19sChIJD0iptyVLsTsRfkuztablhuo?authuser=0&hl=en&rclk=1,"14.6840958,77.6151107"
Masjid e nijamuddin,Mosque,"PH2R+6P7 Masjid e nijamuddin, Unnamed Road, Priyanka Nagar, Anantapur, Andhra Pradesh 515001",Priyanka Nagar,"PH2R+6P7, Unnamed Road",Anantapur,515001,Andhra Pradesh,IN,https://www.google.com/maps/place/Masjid+e+nijamuddin/data=!4m7!3m6!1s0x3bb6b5d829d4fdd1:0x865e72dd0cb5a0!8m2!3d14.7005428!4d77.5918045!16s%2Fg%2F11lgxx2ltm!19sChIJ0f3UKdi1tjsRoLUM3XJehgA?authuser=0&hl=en&rclk=1,"14.7005428,77.5918045"
MASJID AR-REHMAN AHLEHADEES,Mosque,"MJV3+CQH MASJID AR-REHMAN AHLEHADEES, Gooty Rd, Yerranela Kottala, Anantapur, Andhra Pradesh 515005",Yerranela Kottala,"MJV3+CQH, Gooty Rd",Anantapur,515005,Andhra Pradesh,IN,https://www.google.com/maps/place/MASJID+AR-REHMAN+AHLEHADEES/data=!4m7!3m6!1s0x3bb14bc21b9cffa9:0xb1f86d486aad5f31!8m2!3d14.6941043!4d77.6053988!16s%2Fg%2F11t5lz1chp!19sChIJqf-cG8JLsTsRMV-takht-LE?authuser=0&hl=en&rclk=1,"14.6941043,77.6053988"
Masjid E Noorani,Mosque,"Masjid E Noorani, 2-581, syndicate nagar, Anantapur, Andhra Pradesh 515001",syndicate nagar,2-581,Anantapur,515001,Andhra Pradesh,IN,https://www.google.com/maps/place/Masjid+E+Noorani/data=!4m7!3m6!1s0x3bb6cb3fe94a5c31:0x1484bdf6c39d0402!8m2!3d14.6948921!4d77.5557989!16s%2Fg%2F11h4zkgjjr!19sChIJMVxK6T_LtjsRAgSdw_a9hBQ?authuser=0&hl=en&rclk=1,"14.694892099999999,77.5557989"
MASJID-E-ABRAR,Mosque,"MHWX+R67 MASJID-E-ABRAR, HLC Colony Ext, Ganga Nagar, Anantapur, Andhra Pradesh 515001","HLC Colony Ext, Ganga Nagar",MHWX+R67,Anantapur,515001,Andhra Pradesh,IN,https://www.google.com/maps/place/MASJID-E-ABRAR/data=!4m7!3m6!1s0x3bb6b5f6d55be10d:0x71f60f473d1ebff!8m2!3d14.6970437!4d77.5980465!16s%2Fg%2F11fnvd0vnh!19sChIJDeFb1fa1tjsR_-vRc_RgHwc?authuser=0&hl=en&rclk=1,"14.6970437,77.5980465"
Masjid e mahabube pak,Mosque,"Masjid e mahabube pak, Minority colony raptadu, Ram Nagar, Anantapur, Andhra Pradesh 515003",Ram Nagar,Minority colony raptadu,Anantapur,515003,Andhra Pradesh,IN,https://www.google.com/maps/place/Masjid+e+mahabube+pak/data=!4m7!3m6!1s0x3bb14b56f9f5e15f:0x588d3a57e2be751a!8m2!3d14.6271077!4d77.6182168!16s%2Fg%2F11ppw9zgv6!19sChIJX-H1-VZLsTsRGnW-4lc6jVg?authuser=0&hl=en&rclk=1,"14.6271077,77.6182168"
Siddiqia Masjid,Mosque,"MJJ4+F7X Siddiqia Masjid, Mahatma Gandhi Rd, near Jangal Palli Masjid, Old Town, Anantapur, Andhra Pradesh 515005",Old Town,"MJJ4+F7X, Mahatma Gandhi Rd, near Jangal Palli Masjid",Anantapur,515005,Andhra Pradesh,IN,https://www.google.com/maps/place/Siddiqia+Masjid/data=!4m7!3m6!1s0x3bb14ad8c3881537:0xffd8322b55fdef12!8m2!3d14.6812446!4d77.6057331!16s%2Fg%2F1pyqkykr_!19sChIJNxWIw9hKsTsREu_9VSsy2P8?authuser=0&hl=en&rclk=1,"14.6812446,77.6057331"
Masijd e Abdul Khader,Mosque,"MHX4+VHC Masijd e Abdul Khader, Main Rd, syndicate nagar, Anantapur, Andhra Pradesh 515004",syndicate nagar,"MHX4+VHC, Main Rd",Anantapur,515004,Andhra Pradesh,IN,https://www.google.com/maps/place/Masijd+e+Abdul+Khader/data=!4m7!3m6!1s0x3bb6cb912939d0c7:0xcdc6d0fcb20b48f4!8m2!3d14.6996908!4d77.5563754!16s%2Fg%2F11fmrf99_f!19sChIJx9A5KZHLtjsR9EgLsvzQxs0?authuser=0&hl=en&rclk=1,"14.699690799999999,77.5563754"
Masjid e musalla,Mosque,"Masjid e musalla, 12-1-483, 2nd Cross Rd, Ashok Nagar, Anantapur, Andhra Pradesh 515001",Ashok Nagar,"12-1-483, 2nd Cross Rd",Anantapur,515001,Andhra Pradesh,IN,https://www.google.com/maps/place/Masjid+e+musalla/data=!4m7!3m6!1s0x3bb14bcf903b9b07:0x39448db1261fc9a4!8m2!3d14.6703235!4d77.6035984!16s%2Fg%2F11sxwm6lb3!19sChIJB5s7kM9LsTsRpMkfJrGNRDk?authuser=0&hl=en&rclk=1,"14.670323499999999,77.6035984"
Masjid E Farooq,Mosque,"PH2R+C2H Masjid E Farooq, Indira Gandhi Nagar, Anantapur, Andhra Pradesh 515001",Indira Gandhi Nagar,PH2R+C2H,Anantapur,515001,Andhra Pradesh,IN,https://www.google.com/maps/place/Masjid+E+Farooq/data=!4m7!3m6!1s0x3bb6b53467ee67af:0x7a8096db84d3520e!8m2!3d14.7010742!4d77.5900992!16s%2Fg%2F11gdsfxh7l!19sChIJr2fuZzS1tjsRDlLThNuWgHo?authuser=0&hl=en&rclk=1,"14.701074199999999,77.5900992"
Masjid E Fatima,Mosque,"MJPG+G3H Masjid E Fatima, BKS Katta Rd, Cheruvu katta, Anantapur, Andhra Pradesh 515005",Cheruvu katta,"MJPG+G3H, BKS Katta Rd",Anantapur,515005,Andhra Pradesh,IN,https://www.google.com/maps/place/Masjid+E+Fatima/data=!4m7!3m6!1s0x3bb14b39f9c752d9:0xbcf9e09410d055f!8m2!3d14.686322!4d77.6252193!16s%2Fg%2F11c549cb7b!19sChIJ2VLH-TlLsTsRXwUNQQmezws?authuser=0&hl=en&rclk=1,"14.686321999999999,77.6252193"
Al habeeb mosque,Mosque,"MJQ3+MVJ Al habeeb mosque, Rtc Bus Stand Rd, Venugopal Nagar, Old Town, Anantapur, Andhra Pradesh 515001","Venugopal Nagar, Old Town","MJQ3+MVJ, Rtc Bus Stand Rd",Anantapur,515001,Andhra Pradesh,IN,https://www.google.com/maps/place/Al+habeeb+mosque/data=!4m7!3m6!1s0x3bb14ad6f93ce5e9:0x1bb319ad8f401047!8m2!3d14.6892008!4d77.6046543!16s%2Fg%2F11f50qtw7f!19sChIJ6eU8-dZKsTsRRxBAj60Zsxs?authuser=0&hl=en&rclk=1,"14.6892008,77.60465429999999"
Masjid-E-Biya Bani,Mosque,"MJ84+42V Masjid-E-Biya Bani, Housing Board Colony, Anantapur, Andhra Pradesh 515001",Housing Board Colony,MJ84+42V,Anantapur,,Andhra Pradesh,IN,https://www.google.com/maps/place/Masjid-E-Biya+Bani/data=!4m7!3m6!1s0x3bb14ae2fdb85163:0x878fe09ff5844596!8m2!3d14.6653703!4d77.6050467!16s%2Fg%2F11h2k1xd8l!19sChIJY1G4_eJKsTsRlkWE9Z_gj4c?authuser=0&hl=en&rclk=1,"14.6653703,77.6050467"
Mabusubhani Dargah,Mosque,"MJM3+3XX Mabusubhani Dargah, Old Town, Anantapur, Andhra Pradesh 515005",Old Town,MJM3+3XX,Anantapur,515005,Andhra Pradesh,IN,https://www.google.com/maps/place/Mabusubhani+Dargah/data=!4m7!3m6!1s0x3bb14ad8fe3dec37:0x392ed81581d4e80a!8m2!3d14.6827333!4d77.6049844!16s%2Fg%2F11f3n1djkf!19sChIJN-w9_thKsTsRCujUgRXYLjk?authuser=0&hl=en&rclk=1,"14.682733299999999,77.60498439999999"
Zakriya masjid khanqah e madani,Mosque,"MHQ3+J67 Zakriya masjid khanqah e madani, Pikottala, Anantapur, Andhra Pradesh 515004",Pikottala,MHQ3+J67,Anantapur,,Andhra Pradesh,IN,https://www.google.com/maps/place/Zakriya+masjid+khanqah+e+madani/data=!4m7!3m6!1s0x3bb1350b2e1d0619:0xef6a1fa7390745b5!8m2!3d14.6890398!4d77.5530314!16s%2Fg%2F11h1y3xt18!19sChIJGQYdLgs1sTsRtUUHOacfau8?authuser=0&hl=en&rclk=1,"14.6890398,77.5530314"
Masjid-E-SalehAliHasan,Mosque,"Masjid-E-SalehAliHasan, 28/3, 740Ferrer Nagar, Anantapur, Andhra Pradesh 515005",740Ferrer Nagar,28/3,Anantapur,515005,Andhra Pradesh,IN,https://www.google.com/maps/place/Masjid-E-SalehAliHasan/data=!4m7!3m6!1s0x3bb14bff90f1304b:0xb1e46c3a3043f7b1!8m2!3d14.6608599!4d77.6134139!16s%2Fg%2F11n_zhqb61!19sChIJSzDxkP9LsTsRsfdDMDps5LE?authuser=0&hl=en&rclk=1,"14.6608599,77.6134139"
Masjid E Rahmat,Mosque,"MH5G+P3X Masjid E Rahmat, Rudrampeta, Anantapur, Andhra Pradesh 515002",Rudrampeta,MH5G+P3X,Anantapur,515002,Andhra Pradesh,IN,https://www.google.com/maps/place/Masjid+E+Rahmat/data=!4m7!3m6!1s0x3bb14b0e828c87f3:0x40759ba51951422!8m2!3d14.6593567!4d77.5751674!16s%2Fg%2F11q4c4rqdv!19sChIJ84eMgg5LsTsRIhSVUbpZBwQ?authuser=0&hl=en&rclk=1,"14.6593567,77.5751674"
Masjid e Munawwara,Mosque,"PJ22+W2J Masjid e Munawwara, Priyanka Nagar, Anantapur, Andhra Pradesh 515001",Priyanka Nagar,PJ22+W2J,Anantapur,515001,Andhra Pradesh,IN,https://www.google.com/maps/place/Masjid+e+Munawwara/data=!4m7!3m6!1s0x3bb6b5b63fafe8af:0xb5a0049df0d1baa2!8m2!3d14.7023267!4d77.6000129!16s%2Fg%2F11mtjvzspy!19sChIJr-ivP7a1tjsRorrR8J0EoLU?authuser=0&hl=en&rclk=1,"14.702326699999999,77.6000129"
Ahle Hadees Mosque(Temporary),Mosque,"1st Floor, Ahle Hadees Mosque(Temporary), Neon Automobiles, Old Town, Anantapur, Andhra Pradesh 515001",Old Town,"1st Floor, Neon Automobiles",Anantapur,,Andhra Pradesh,IN,https://www.google.com/maps/place/Ahle+Hadees+Mosque%28Temporary%29/data=!4m7!3m6!1s0x3bb14b0b7e4ad213:0xdeb9042ec3c207a5!8m2!3d14.6859259!4d77.6017986!16s%2Fg%2F11p_7c_wpr!19sChIJE9JKfgtLsTsRpQfCwy4Eud4?authuser=0&hl=en&rclk=1,"14.685925899999999,77.6017986"
Masjid-e- Abu Hurairah,Mosque,"Masjid-e- Abu Hurairah, 13-1-525-164, lecturers colony, Anantapur, Andhra Pradesh 515001",lecturers colony,13-1-525-164,Anantapur,515001,Andhra Pradesh,IN,https://www.google.com/maps/place/Masjid-e-+Abu+Hurairah/data=!4m7!3m6!1s0x3bb6b54e3ba4270b:0xfae69809d51853f7!8m2!3d14.7011475!4d77.6034666!16s%2Fg%2F11h4nx147l!19sChIJCyekO061tjsR91MY1QmY5vo?authuser=0&hl=en&rclk=1,"14.7011475,77.60346659999999"
Masjid A Hazeera,Mosque,"MJ97+43M Masjid A Hazeera, Vijayanagar Colony, Anantapur, Andhra Pradesh 515005",Vijayanagar Colony,MJ97+43M,Anantapur,,Andhra Pradesh,IN,https://www.google.com/maps/place/Masjid+A+Hazeera/data=!4m7!3m6!1s0x3bb14b1c12f79575:0x8d450122626eb4dd!8m2!3d14.6678413!4d77.6126706!16s%2Fg%2F11gy2jhwlq!19sChIJdZX3EhxLsTsR3bRuYiIBRY0?authuser=0&hl=en&rclk=1,"14.6678413,77.6126706"
Masjid e rouh e mohammadi e,Mosque,"MJ3C+MQJ Masjid e rouh e mohammadi e, Unnamed Road, Lenin Nagar, Anantapur, Andhra Pradesh 515002",Lenin Nagar,"MJ3C+MQJ, Unnamed Road",Anantapur,515002,Andhra Pradesh,IN,https://www.google.com/maps/place/Masjid+e+rouh+e+mohammadi+e/data=!4m7!3m6!1s0x3bb14b28fe20510b:0xc3ff960cfda65349!8m2!3d14.6542133!4d77.6218919!16s%2Fg%2F11rcl9t7_7!19sChIJC1Eg_ihLsTsRSVOm_QyW_8M?authuser=0&hl=en&rclk=1,"14.654213299999999,77.6218919"
Masjid E Quba,Mosque,"JHVP+M28 Masjid E Quba, Anantapur, Andhra Pradesh 515002",,JHVP+M28,Anantapur,515002,Andhra Pradesh,IN,https://www.google.com/maps/place/Masjid+E+Quba/data=!4m7!3m6!1s0x3bb14b810b08d73d:0x3fbd908d1170073d!8m2!3d14.6441615!4d77.5850908!16s%2Fg%2F11srt_zl24!19sChIJPdcIC4FLsTsRPQdwEY2QvT8?authuser=0&hl=en&rclk=1,"14.6441615,77.5850908"
Hazarath Topi Peera Sayab Makanam,Mosque,"MH6V+JP4 Hazarath Topi Peera Sayab Makanam, Sharada Nagar, Anantapur, Andhra Pradesh 515001",Sharada Nagar,MH6V+JP4,Anantapur,515001,Andhra Pradesh,IN,https://www.google.com/maps/place/Hazarath+Topi+Peera+Sayab+Makanam/data=!4m7!3m6!1s0x3bb14af03afff745:0xfd8104fb3a43eec4!8m2!3d14.6615021!4d77.5943297!16s%2Fg%2F11fj48h926!19sChIJRff_OvBKsTsRxO5DOvsEgf0?authuser=0&hl=en&rclk=1,"14.6615021,77.5943297"
Masjid-E-Aala,Mosque,"MHXV+V54 Masjid-E-Aala, Sri Sri Nagar, Ganga Nagar, Anantapur, Andhra Pradesh 515001","Sri Sri Nagar, Ganga Nagar",MHXV+V54,Anantapur,515001,Andhra Pradesh,IN,https://www.google.com/maps/place/Masjid-E-Aala/data=!4m7!3m6!1s0x3bb6b59983420f89:0xaedaff607801a40f!8m2!3d14.7000019!4d77.5930225!16s%2Fg%2F11qgj826yp!19sChIJiQ9Cg5m1tjsRD6QBeGD_2q4?authuser=0&hl=en&rclk=1,"14.7000019,77.5930225"
Mosque Old City,Mosque,"Mosque Old City, 334, Rtc Bus Stand Rd, beside Khazana Jewellery, Khaja Nagar, Old Town, Anantapur, Andhra Pradesh 515001","Khaja Nagar, Old Town","334, Rtc Bus Stand Rd, beside Khazana Jewellery",Anantapur,515001,Andhra Pradesh,IN,https://www.google.com/maps/place/Mosque+Old+City/data=!4m7!3m6!1s0x3bb14ada05c4608b:0x6a45a7ac0c17d26d!8m2!3d14.6855123!4d77.6022833!16s%2Fg%2F1pyqn96kb!19sChIJi2DEBdpKsTsRbdIXDKynRWo?authuser=0&hl=en&rclk=1,"14.6855123,77.6022833"
Ahel E hadees masjid anantapur Andhra Pradesh,Mosque,"MJJ2+Q64 Ahel E hadees masjid anantapur Andhra Pradesh, Kamalanagar, Anantapur, Andhra Pradesh 515001",Kamalanagar,MJJ2+Q64,Anantapur,,Andhra Pradesh,IN,https://www.google.com/maps/place/Ahel+E+hadees+masjid+anantapur+Andhra+Pradesh/data=!4m7!3m6!1s0x3bb14b81bdf27e2b:0xecdeb7bd09a5e729!8m2!3d14.6818873!4d77.6005625!16s%2Fg%2F11srr_7ngk!19sChIJK37yvYFLsTsRKeelCb233uw?authuser=0&hl=en&rclk=1,"14.6818873,77.6005625"
Masjid e Noorani Sunni & Eidgah.,Mosque,"PH2J+C79 Masjid e Noorani Sunni & Eidgah., Tapovanam Rd, A.Narayana Puram, Anantapur, Andhra Pradesh 515001",A.Narayana Puram,"PH2J+C79, Tapovanam Rd",Anantapur,515001,Andhra Pradesh,IN,https://www.google.com/maps/place/Masjid+e+Noorani+Sunni+%26+Eidgah./data=!4m7!3m6!1s0x3bb6b5b2939fa01d:0xe1971e15bcb39e0b!8m2!3d14.701037!4d77.5807498!16s%2Fg%2F11ssblryc8!19sChIJHaCfk7K1tjsRC56zvBUel-E?authuser=0&hl=en&rclk=1,"14.701037,77.58074979999999"
Masjid e Fatima Abed,Mosque,"MJJ2+WJQ Masjid e Fatima Abed, Kamalanagar, Anantapur, Andhra Pradesh 515001",Kamalanagar,MJJ2+WJQ,Anantapur,,Andhra Pradesh,IN,https://www.google.com/maps/place/Masjid+e+Fatima+Abed/data=!4m7!3m6!1s0x3bb14b4fcf2f86bf:0x834fe123e2a4f386!8m2!3d14.6823435!4d77.6015996!16s%2Fg%2F11t302fns0!19sChIJv4Yvz09LsTsRhvOk4iPhT4M?authuser=0&hl=en&rclk=1,"14.6823435,77.6015996"
Masjid e Mohiuddin,Mosque,"MJP9+PH Masjid e Mohiuddin, Cheruvu katta, Anantapur, Andhra Pradesh 515005",Cheruvu katta,MJP9+PH,Anantapur,,Andhra Pradesh,IN,https://www.google.com/maps/place/Masjid+e+Mohiuddin/data=!4m7!3m6!1s0x3bb14b3b64befaad:0x53c2073b114db892!8m2!3d14.6868413!4d77.6189396!16s%2Fg%2F11sq91q1h5!19sChIJrfq-ZDtLsTsRkrhNETsHwlM?authuser=0&hl=en&rclk=1,"14.6868413,77.61893959999999"
Masjid e usman zunnoorin.,Mosque,"MHQP+W8C Masjid e usman zunnoorin., Hydervali Colony, Somanath Nagar, Anantapur, Andhra Pradesh 515004","Hydervali Colony, Somanath Nagar",MHQP+W8C,Anantapur,515004,Andhra Pradesh,IN,https://www.google.com/maps/place/Masjid+e+usman+zunnoorin./data=!4m7!3m6!1s0x3bb14b6d4683f34b:0x7ab799d9312e0f2e!8m2!3d14.6898232!4d77.5857683!16s%2Fg%2F11ssb8j1rv!19sChIJS_ODRm1LsTsRLg8uMdmZt3o?authuser=0&hl=en&rclk=1,"14.6898232,77.5857683"
Masjid e qhuba,Mosque,"MHH6+69W Masjid e qhuba, Masjid e Qhuba, Jayalakshmi villas, Kalyandurgam Rd, opposite Essar petrol bunk, Anantapur, Andhra Pradesh 515002",,"MHH6+69W, Masjid e Qhuba, Jayalakshmi villas, Kalyandurgam Rd, opposite Essar petrol bunk",Anantapur,515002,Andhra Pradesh,IN,https://www.google.com/maps/place/Masjid+e+qhuba/data=!4m7!3m6!1s0x3bb135fed3cbba91:0x85c651110ee97ed5!8m2!3d14.6781175!4d77.560957!16s%2Fg%2F11ng6fjy4b!19sChIJkbrL0_41sTsR1X7pDhFRxoU?authuser=0&hl=en&rclk=1,"14.678117499999999,77.560957"
Mohammad Tara Masjid Edge,Mosque,"MHP6+9W5 Mohammad Tara Masjid Edge, Dharmavaram - Kalyandurg Rd, Pilligundla, Anantapur, Papampeta, Andhra Pradesh 515004",Pilligundla,"MHP6+9W5, Dharmavaram - Kalyandurg Rd","Anantapur, Papampeta",,Andhra Pradesh,IN,https://www.google.com/maps/place/Mohammad+Tara+Masjid+Edge/data=!4m7!3m6!1s0x3bb14aa82925304b:0x2db0533af2e995f4!8m2!3d14.685881!4d77.5623735!16s%2Fg%2F11h238mzby!19sChIJSzAlKahKsTsR9JXp8jpTsC0?authuser=0&hl=en&rclk=1,"14.685881,77.56237349999999"
Musallah,Mosque,"MHQP+J3C Musallah, Hydervali Colony, Lb nagar, Anantapur, Andhra Pradesh 515004","Hydervali Colony, Lb nagar",MHQP+J3C,Anantapur,515004,Andhra Pradesh,IN,https://www.google.com/maps/place/Musallah/data=!4m7!3m6!1s0x3bb14b8f7ac47d91:0xe436c851380c0dac!8m2!3d14.6891042!4d77.5850013!16s%2Fg%2F11trw32t18!19sChIJkX3Eeo9LsTsRrA0MOFHINuQ?authuser=0&hl=en&rclk=1,"14.6891042,77.5850013"
Masjid_chandi Anantapur,Mosque,"MJH2+4Q6 Masjid_chandi Anantapur, Gulzarpet, Anantapur, Andhra Pradesh 515001",Gulzarpet,MJH2+4Q6,Anantapur,515001,Andhra Pradesh,IN,https://www.google.com/maps/place/Masjid_chandi+Anantapur/data=!4m7!3m6!1s0x3bb14adc2860b1f7:0xeeb64710d2e2050b!8m2!3d14.6777875!4d77.6019055!16s%2Fg%2F11f546fk20!19sChIJ97FgKNxKsTsRCwXi0hBHtu4?authuser=0&hl=en&rclk=1,"14.677787499999999,77.6019055"
PTC Masjid Anantapur,Mosque,"MHJQ+PJM PTC Masjid Anantapur, Unnamed Road, Lakshmi Nagar, Anantapur, Andhra Pradesh 515004",Lakshmi Nagar,"MHJQ+PJM, Unnamed Road",Anantapur,515004,Andhra Pradesh,IN,https://www.google.com/maps/place/PTC+Masjid+Anantapur/data=!4m7!3m6!1s0x3bb14bec6465711f:0x740e44289c97a1d0!8m2!3d14.6818372!4d77.5890319!16s%2Fg%2F11g2yyhh38!19sChIJH3FlZOxLsTsR0KGXnChEDnQ?authuser=0&hl=en&rclk=1,"14.681837199999999,77.5890319"
Masjid,Mosque,"MJF2+3XX Masjid, Sai Nagar, Anantapur, Andhra Pradesh 515001",Sai Nagar,MJF2+3XX,Anantapur,515001,Andhra Pradesh,IN,https://www.google.com/maps/place/Masjid/data=!4m7!3m6!1s0x3bb14bcbfd3f8c73:0x7fc051742f0f94e7!8m2!3d14.6727288!4d77.6024692!16s%2Fg%2F11l23t_1n0!19sChIJc4w__ctLsTsR55QPL3RRwH8?authuser=0&hl=en&rclk=1,"14.6727288,77.6024692"
Masjid e Salah Ali Hasan,Mosque,"Masjid e Salah Ali Hasan, Vincent, 28-3-748, Ferrer Nagar, 3corss, Anantapur, Andhra Pradesh 515005",Ferrer Nagar,"Vincent, 28-3-748","3corss, Anantapur",515005,Andhra Pradesh,IN,https://www.google.com/maps/place/Masjid+e+Salah+Ali+Hasan/data=!4m7!3m6!1s0x3bb14b132dc6aaed:0xb2ebd783e91c1b1a!8m2!3d14.6505769!4d77.6149542!16s%2Fg%2F11vd6mx8py!19sChIJ7arGLRNLsTsRGhsc6YPX67I?authuser=0&hl=en&rclk=1,"14.650576899999999,77.6149542"
Masjid e Ajijiya & Madarsa.,Mosque,"MHRM+479 Masjid e Ajijiya & Madarsa., Janasakthi Nagar, Anantapur, Andhra Pradesh 515004",Janasakthi Nagar,MHRM+479,Anantapur,515004,Andhra Pradesh,IN,https://www.google.com/maps/place/Masjid+e+Ajijiya+%26+Madarsa./data=!4m7!3m6!1s0x3bb14bb85e930c4d:0x35ef484ddbea600c!8m2!3d14.6902971!4d77.5832253!16s%2Fg%2F11ssl8vt3v!19sChIJTQyTXrhLsTsRDGDq201I7zU?authuser=0&hl=en&rclk=1,"14.690297099999999,77.5832253"
Masjid-e-Zahra,Mosque,"MJV2+QWG Masjid-e-Zahra, M.G.Colony, Yerranela Kottala, Anantapur, Andhra Pradesh 515001","M.G.Colony, Yerranela Kottala",MJV2+QWG,Anantapur,515001,Andhra Pradesh,IN,https://www.google.com/maps/place/Masjid-e-Zahra/data=!4m7!3m6!1s0x3bb14b94cf9895a9:0x4b9ccd633f279243!8m2!3d14.6947701!4d77.6035166!16s%2Fg%2F11qbts25lj!19sChIJqZWYz5RLsTsRQ5InP2PNnEs?authuser=0&hl=en&rclk=1,"14.6947701,77.60351659999999"
Masjid E Auliya,Mosque,"JHWC+72 Masjid E Auliya, Anantapur, Andhra Pradesh 515002",,JHWC+72,Anantapur,,Andhra Pradesh,IN,https://www.google.com/maps/place/Masjid+E+Auliya/data=!4m7!3m6!1s0x3bb14b0c8b98a67d:0x15270718434667ba!8m2!3d14.6457075!4d77.5700037!16s%2Fg%2F11s7679jv0!19sChIJfaaYiwxLsTsRumdGQxgHJxU?authuser=0&hl=en&rclk=1,"14.645707499999999,77.5700037"
Masjid A khaja mohinoddin,Mosque,"MJW9+3W7 Masjid A khaja mohinoddin, Unnamed Road, Anantapur, Andhra Pradesh 515001",,"MJW9+3W7, Unnamed Road",Anantapur,515001,Andhra Pradesh,IN,https://www.google.com/maps/place/Masjid+A+khaja+mohinoddin/data=!4m7!3m6!1s0x3bb14b5d5cbfb86b:0xf22961b9266b8377!8m2!3d14.6951535!4d77.6198125!16s%2Fg%2F11rcx77q5j!19sChIJa7i_XF1LsTsRd4NrJrlhKfI?authuser=0&hl=en&rclk=1,"14.6951535,77.6198125"
Omar khattala masjid,Mosque,"MHP6+F7Q Omar khattala masjid, Pilligundla, Anantapur, Andhra Pradesh 515001",Pilligundla,MHP6+F7Q,Anantapur,515001,Andhra Pradesh,IN,https://www.google.com/maps/place/Omar+khattala+masjid/data=!4m7!3m6!1s0x3bb13562496b5db9:0xe6b8cc5906f266cf!8m2!3d14.6862074!4d77.5607281!16s%2Fg%2F11tmrc9z05!19sChIJuV1rSWI1sTsRz2byBlnMuOY?authuser=0&hl=en&rclk=1,"14.686207399999999,77.56072809999999"
Masjid A khaja mohiniddin,Mosque,"Masjid A khaja mohiniddin, Hamali colony Mosque, Bukkarayasamudram, Anantapur, Andhra Pradesh 515701",,Hamali colony Mosque,"Bukkarayasamudram, Anantapur",515701,Andhra Pradesh,IN,https://www.google.com/maps/place/Masjid+A+khaja+mohiniddin/data=!4m7!3m6!1s0x3bb14bbe6780faaf:0x8ee793a630e12076!8m2!3d14.6959671!4d77.6165593!16s%2Fg%2F11k3t0nzlz!19sChIJr_qAZ75LsTsRdiDhMKaT544?authuser=0&hl=en&rclk=1,"14.695967099999999,77.61655929999999"
Billal Masjid,Mosque,"MHM6+QV2 Billal Masjid, Pilligundla, Anantapur, Andhra Pradesh 515004",Pilligundla,MHM6+QV2,Anantapur,515004,Andhra Pradesh,IN,https://www.google.com/maps/place/Billal+Masjid/data=!4m7!3m6!1s0x3bb14b373cf03d55:0xf75c9a4660e6050c!8m2!3d14.6843789!4d77.5621361!16s%2Fg%2F11j8p8xw1x!19sChIJVT3wPDdLsTsRDAXmYEaaXPc?authuser=0&hl=en&rclk=1,"14.684378899999999,77.5621361"
Ghouse-A-Azam,Mosque,"MJJ4+JX6 Ghouse-A-Azam, Old Town, Anantapur, Andhra Pradesh 515005",Old Town,MJJ4+JX6,Anantapur,515005,Andhra Pradesh,IN,https://www.google.com/maps/place/Ghouse-A-Azam/data=!4m7!3m6!1s0x3bb14ad8a22bae9d:0xeb1189f7c92b714a!8m2!3d14.6815296!4d77.6073802!16s%2Fg%2F11fhvr3jm3!19sChIJna4rothKsTsRSnEryfeJEes?authuser=0&hl=en&rclk=1,"14.6815296,77.6073802"
Sayyad Baba Phakruddin Makan,Mosque,"MHQQ+G8C Sayyad Baba Phakruddin Makan, 5th Rd, Revenue Colony, Rangaswamy Nagar, Anantapur, Andhra Pradesh 515004","Revenue Colony, Rangaswamy Nagar","MHQQ+G8C, 5th Rd",Anantapur,515004,Andhra Pradesh,IN,https://www.google.com/maps/place/Sayyad+Baba+Phakruddin+Makan/data=!4m7!3m6!1s0x3bb14ac90e61990f:0xa1d327728e510a41!8m2!3d14.6888237!4d77.5882782!16s%2Fg%2F11fhyprfvh!19sChIJD5lhDslKsTsRQQpRjnIn06E?authuser=0&hl=en&rclk=1,"14.688823699999999,77.58827819999999"
