name,main_category,address,address_ward,address_street,address_city,address_postal_code,address_state,address_country_code,link,coordinates
Noor Masjid,Mosque,"Noor Masjid, Jambul Marg, Juhu Nagar, Sector 9A, Vashi, Navi Mumbai, Maharashtra 400703","Juhu Nagar, Sector 9A, Vashi",Jambul Marg,Navi Mumbai,400703,Maharashtra,IN,https://www.google.com/maps/place/Noor+Masjid/data=!4m7!3m6!1s0x3be7c6cae75ad2c7:0x73b60a585d34d664!8m2!3d19.0754593!4d72.9922483!16s%2Fg%2F1thlljzb!19sChIJx9Ja58rG5zsRZNY0XVgKtnM?authuser=0&hl=en&rclk=1,"19.0754593,72.9922483"
IQRA THE TRUTH Masjid - Seawoods,Mosque,"IQRA THE TRUTH Masjid - Seawoods, 001 Innovative Pride C.H.S, Plot 71, near Auto Stand, New Sector-50, Seawoods, Navi Mumbai, Maharashtra 400706","New Sector-50/E, New Sector-50, Sector 50, Seawoods","001 Innovative Pride C.H.S, Plot 71, near Auto Stand",Navi Mumbai,400706,Maharashtra,IN,https://www.google.com/maps/place/IQRA+THE+TRUTH+Masjid+-+Seawoods/data=!4m7!3m6!1s0x3be7c3a3faa75565:0x45a049e0fca56931!8m2!3d19.013125!4d73.0221158!16s%2Fg%2F11b6z2cvp3!19sChIJZVWn-qPD5zsRMWml_OBJoEU?authuser=0&hl=en&rclk=1,"19.013125,73.0221158"
Habib Manzil Masjid,Mosque,"Habib Manzil Masjid, Fahad Education & Welfare Society , A-77/78, Habib Manzil Masjid, behind SBI Bank, Sector 20, Nerul West, Navi Mumbai, Maharashtra 400706","Sector 20, Nerul West, Nerul","Fahad Education & Welfare Society , A-77/78, Habib Manzil Masjid, behind SBI Bank",Navi Mumbai,400706,Maharashtra,IN,https://www.google.com/maps/place/Habib+Manzil+Masjid/data=!4m7!3m6!1s0x3be7c3df81b5b211:0xc38a69e4abd44824!8m2!3d19.0340753!4d73.0161993!16s%2Fg%2F11h_4yz277!19sChIJEbK1gd_D5zsRJEjUq-RpisM?authuser=0&hl=en&rclk=1,"19.034075299999998,73.0161993"
Al-Ahad Masjid,Mosque,"Al-Ahad Masjid, Guruprasad CHSL, Plot 87, Seawoods West, Sector 44, Seawoods, Navi Mumbai, Maharashtra 400706","Seawoods West, Sector 44, Seawoods","Guruprasad CHSL, Plot 87",Navi Mumbai,400706,Maharashtra,IN,https://www.google.com/maps/place/Al-Ahad+Masjid/data=!4m7!3m6!1s0x3be7c339629a8a23:0xd3e76851a9530b3e!8m2!3d19.0143922!4d73.0131518!16s%2Fg%2F11kj02zbwn!19sChIJI4qaYjnD5zsRPgtTqVFo59M?authuser=0&hl=en&rclk=1,"19.0143922,73.0131518"
Jama Masjid Nerul,Mosque,"22MC+W6P Jama Masjid Nerul, Jama Masjid Rd, Nerul East, Sector 15, Nerul, Navi Mumbai, Maharashtra 400706","Nerul East, Sector 15, Nerul","22MC+W6P, Jama Masjid Rd",Navi Mumbai,400706,Maharashtra,IN,https://www.google.com/maps/place/Jama+Masjid+Nerul/data=!4m7!3m6!1s0x3be7c3c16589307f:0x31f67f09464520b3!8m2!3d19.0348272!4d73.0205825!16s%2Fg%2F1vyxgwpl!19sChIJfzCJZcHD5zsRsyBFRgl_9jE?authuser=0&hl=en&rclk=1,"19.0348272,73.0205825"
Ulwe Jama Masjid,Mosque,"X2FH+4V7 Ulwe Jama Masjid, Sector 19, Ulwe, Navi Mumbai, Maharashtra 410206","Sector 19, Ulwe",X2FH+4V7,Navi Mumbai,410206,Maharashtra,IN,https://www.google.com/maps/place/Ulwe+Jama+Masjid/data=!4m7!3m6!1s0x3be7c32ff6f8c21d:0xae3ebccaa20931a5!8m2!3d18.9727952!4d73.0296706!16s%2Fg%2F11c5820x5s!19sChIJHcL49i_D5zsRpTEJosq8Pq4?authuser=0&hl=en&rclk=1,"18.9727952,73.0296706"
Jama Masjid Airoli,Mosque,"5X3V+CQW Jama Masjid Airoli, Sector 17, Airoli, Navi Mumbai, Maharashtra 400708","Sector 17, Airoli",5X3V+CQW,Navi Mumbai,400708,Maharashtra,IN,https://www.google.com/maps/place/Jama+Masjid+Airoli/data=!4m7!3m6!1s0x3be7bf52a0c5f735:0xf543e7910cec3b0a!8m2!3d19.1536111!4d72.9944444!16s%2Fg%2F1ygb7n9dm!19sChIJNffFoFK_5zsRCjvsDJHnQ_U?authuser=0&hl=en&rclk=1,"19.1536111,72.99444439999999"
Koparkhairane Jama Masjid,Mosque,"Koparkhairane Jama Masjid, Masjid, Gyan Vikas Road, Sector 14, Kopar Khairane, Navi Mumbai, Maharashtra 400709","Sector 14, Kopar Khairane","Masjid, Gyan Vikas Road",Navi Mumbai,400709,Maharashtra,IN,https://www.google.com/maps/place/Koparkhairane+Jama+Masjid/data=!4m7!3m6!1s0x3be7c0d5eff23957:0x8573432fdb3fcff9!8m2!3d19.0973242!4d72.9984245!16s%2Fg%2F11bzq101kq!19sChIJVzny79XA5zsR-c8_2y9Dc4U?authuser=0&hl=en&rclk=1,"19.0973242,72.9984245"
Sunni jama masjid,Mosque,"103, Sunni jama masjid, Shahbaz, Noor Manzil, PX-2, Pambrij Rd, near Sunni Jama Masjid Shahabaz, Shahbaz Village, Sector 19, CBD Belapur, Navi Mumbai, Maharashtra 400614","Shahbaz Village, Sector 19, CBD Belapur","103, Shahbaz, Noor Manzil, PX-2, Pambrij Rd, near Sunni Jama Masjid Shahabaz",Navi Mumbai,400614,Maharashtra,IN,https://www.google.com/maps/place/Sunni+jama+masjid/data=!4m7!3m6!1s0x3be7c3ca8269a20d:0x2470b02b12a2f119!8m2!3d19.0158356!4d73.0353927!16s%2Fg%2F11rvcttnb9!19sChIJDaJpgsrD5zsRGfGiEiuwcCQ?authuser=0&hl=en&rclk=1,"19.0158356,73.0353927"
Masjid E Suffa,Mosque,"X4Q4+4F2 Masjid E Suffa, Masjid E Suffa, Kaachi Mohalla, Old Panvel, Mahatma Gandhi Rd, Old Panvel, Panvel, Navi Mumbai, Maharashtra 410206","Old Panvel, Panvel","X4Q4+4F2, Masjid E Suffa, Kaachi Mohalla, Old Panvel, Mahatma Gandhi Rd",Navi Mumbai,410206,Maharashtra,IN,https://www.google.com/maps/place/Masjid+E+Suffa/data=!4m7!3m6!1s0x3be7e81424ab776f:0xf68134d6b74e34eb!8m2!3d18.9877579!4d73.1061451!16s%2Fg%2F11gz9md95!19sChIJb3erJBTo5zsR6zROt9Y0gfY?authuser=0&hl=en&rclk=1,"18.9877579,73.10614509999999"
Usmani Masjid Taloja,Mosque,"Usmani Masjid Taloja, Plot No 107, Phase 1 Main Rd, Taloja Phase 1, Taloja Panchanand, Taloja, Navi Mumbai, Maharashtra 410208","Taloja Phase 1, Taloja Panchanand, Taloja","Plot No 107, Phase 1 Main Rd",Navi Mumbai,410208,Maharashtra,IN,https://www.google.com/maps/place/Usmani+Masjid+Taloja/data=!4m7!3m6!1s0x3be7ea095a61e6f3:0x8b0369357c698991!8m2!3d19.0761106!4d73.0928396!16s%2Fg%2F11byx8p8gc!19sChIJ8-ZhWgnq5zsRkYlpfDVpA4s?authuser=0&hl=en&rclk=1,"19.0761106,73.09283959999999"
Masjid o Madrasa Anjuman faizan e noori siraji charitable trust kamothe,Mosque,"Masjid o Madrasa Anjuman faizan e noori siraji charitable trust kamothe, 106, Sion - Panvel Hwy, Sector 9, Kamothe, Panvel, Navi Mumbai, Maharashtra 410206","Sector 9, Kamothe, Panvel","106, Sion - Panvel Hwy",Navi Mumbai,410206,Maharashtra,IN,https://www.google.com/maps/place/Masjid+o+Madrasa+Anjuman+faizan+e+noori+siraji+charitable+trust+kamothe/data=!4m7!3m6!1s0x3be7e9f4ce955357:0xf43be7253e1637bb!8m2!3d19.0199872!4d73.0956841!16s%2Fg%2F11tf4wzp37!19sChIJV1OVzvTp5zsRuzcWPiXnO_Q?authuser=0&hl=en&rclk=1,"19.0199872,73.0956841"
Masjid-E-Suffa,Mosque,"24M3+CGV Masjid-E-Suffa, Sector 6E, Kalamboli, Panvel, Navi Mumbai, Maharashtra 410218","Sector 6E, Kalamboli, Panvel",24M3+CGV,Navi Mumbai,410218,Maharashtra,IN,https://www.google.com/maps/place/Masjid-E-Suffa/data=!4m7!3m6!1s0x3be7e9c3b974bc71:0x88031f176ea406f3!8m2!3d19.0336104!4d73.1037917!16s%2Fg%2F1th1b5bn!19sChIJcbx0ucPp5zsR8wakbhcfA4g?authuser=0&hl=en&rclk=1,"19.0336104,73.1037917"
Sunni Shafai Jama Masjid,Mosque,"Sunni Shafai Jama Masjid, Peer Dawood Shah Marg, Khairna Village, Sector 12, Kopar Khairane, Navi Mumbai, Maharashtra 400709","Khairna Village, Sector 12, Kopar Khairane",Peer Dawood Shah Marg,Navi Mumbai,400709,Maharashtra,IN,https://www.google.com/maps/place/Sunni+Shafai+Jama+Masjid/data=!4m7!3m6!1s0x3be7c120f1972b3d:0xa3a5f84c1e87bc02!8m2!3d19.0960946!4d73.0135406!16s%2Fg%2F11c5sngdl1!19sChIJPSuX8SDB5zsRAryHHkz4paM?authuser=0&hl=en&rclk=1,"19.0960946,73.0135406"
Koparkhairne Masjid,Mosque,"Koparkhairne Masjid, SS-385, Sector 3 and 4 Main Rd, Sector 6, Kopar Khairane, Navi Mumbai, Maharashtra 400709","Sector 6, Kopar Khairane","SS-385, Sector 3 and 4 Main Rd",Navi Mumbai,400709,Maharashtra,IN,https://www.google.com/maps/place/Koparkhairne+Masjid/data=!4m7!3m6!1s0x3be7c0da14a14f1b:0xf05a1d4bdcbf842b!8m2!3d19.1043909!4d73.0062318!16s%2Fg%2F1tj7cj1q!19sChIJG0-hFNrA5zsRK4S_3EsdWvA?authuser=0&hl=en&rclk=1,"19.1043909,73.0062318"
Jama Masjid Markaz,Mosque,"339Q+5RV Jama Masjid Markaz, Taloje Panchanand, Sector 40, Taloja, Navi Mumbai, Maharashtra 410210","Taloje Panchanand, Sector 40, Taloja",339Q+5RV,Navi Mumbai,410210,Maharashtra,IN,https://www.google.com/maps/place/Jama+Masjid+Markaz/data=!4m7!3m6!1s0x3be7ea07a1487323:0x3f2e734f2e01e307!8m2!3d19.0679973!4d73.0895417!16s%2Fg%2F1tf41f3t!19sChIJI3NIoQfq5zsRB-MBLk9zLj8?authuser=0&hl=en&rclk=1,"19.0679973,73.0895417"
Gulestan Masjid (Sunni),Mosque,"23WG+FGX Gulestan Masjid (Sunni), Gulestan masjid, Muslim burial ground masjid, Nr., Kesar Symphony, Sector 14, Kharghar, Navi Mumbai, Maharashtra 410210","Kesar Symphony, Sector 14, Kharghar","23WG+FGX, Gulestan masjid, Muslim burial ground masjid, Nr.",Navi Mumbai,410210,Maharashtra,IN,https://www.google.com/maps/place/Gulestan+Masjid+%28Sunni%29/data=!4m7!3m6!1s0x3be7c20ff8cb0e43:0xe0c73156b2fa9b55!8m2!3d19.0462479!4d73.0763581!16s%2Fg%2F11ckqrqc6b!19sChIJQw7L-A_C5zsRVZv6slYxx-A?authuser=0&hl=en&rclk=1,"19.0462479,73.0763581"
Jama Masjid Owe,Mosque,"338C+MQW Jama Masjid Owe, Owe Village, Sector 30, Kharghar, Navi Mumbai, Maharashtra 410210","Owe Village, Sector 30, Kharghar",338C+MQW,Navi Mumbai,410210,Maharashtra,IN,https://www.google.com/maps/place/Jama+Masjid+Owe/data=!4m7!3m6!1s0x3be7c1f1a352b82d:0x2426ddc10369001!8m2!3d19.0667416!4d73.0719637!16s%2Fg%2F11b_3h1_2d!19sChIJLbhSo_HB5zsRAZA2ENxtQgI?authuser=0&hl=en&rclk=1,"19.0667416,73.0719637"
Shamsh Masjid Sector 10,Mosque,"Shamsh Masjid Sector 10, Ground Floor, Shelter Empire, 255, Kopra, Sector 10, Kharghar, Navi Mumbai, Maharashtra 410210","Sector 10, Kharghar","Ground Floor, Shelter Empire, 255, Kopra",Navi Mumbai,410210,Maharashtra,IN,https://www.google.com/maps/place/Shamsh+Masjid+Sector+10/data=!4m7!3m6!1s0x3be7c26cd1abffff:0xfc0b1857ee4734d9!8m2!3d19.0342354!4d73.072381!16s%2Fg%2F11cmnk_d9b!19sChIJ__-r0WzC5zsR2TRH7lcYC_w?authuser=0&hl=en&rclk=1,"19.0342354,73.072381"
Masjid-e-Darul Aman,Mosque,"Masjid-e-Darul Aman, 35, Sector 3, New Panvel East, Panvel, Navi Mumbai, Maharashtra 410206","New Panvel East, Panvel","35, Sector 3",Navi Mumbai,410206,Maharashtra,IN,https://www.google.com/maps/place/Masjid-e-Darul+Aman/data=!4m7!3m6!1s0x3be7e8460fd71323:0x774c55e10e2ce402!8m2!3d19.0031799!4d73.116371!16s%2Fg%2F1tg59kz6!19sChIJIxPXD0bo5zsRAuQsDuFVTHc?authuser=0&hl=en&rclk=1,"19.0031799,73.116371"
"Jama Masjid (Zohar-1:30, Juma-1:30)",Mosque,"23FW+9VG Jama Masjid (Zohar-1:30, Juma-1:30), Near Hotel Venkatesh INN, Sector 6A, Kamothe, Panvel, Navi Mumbai, Maharashtra 410206","Sector 6A, Kamothe, Panvel","23FW+9VG, Near Hotel Venkatesh INN",Navi Mumbai,410206,Maharashtra,IN,"https://www.google.com/maps/place/Jama+Masjid+%28Zohar-1:30,+Juma-1:30%29/data=!4m7!3m6!1s0x3be7e9d05b72fc67:0xed7f0467e95270bb!8m2!3d19.0234273!4d73.0971909!16s%2Fg%2F1jglzcg4d!19sChIJZ_xyW9Dp5zsRu3BS6WcEf-0?authuser=0&hl=en&rclk=1","19.023427299999998,73.0971909"
Shalimar Masjid,Mosque,"336W+469 Shalimar Masjid, Navde, Taloja, Navi Mumbai, Maharashtra 410208","Navde, Taloja",336W+469,Navi Mumbai,410208,Maharashtra,IN,https://www.google.com/maps/place/Shalimar+Masjid/data=!4m7!3m6!1s0x3be7eb41ea79a99f:0x1bb6db12c879ee5c!8m2!3d19.0602958!4d73.0956234!16s%2Fg%2F11px4jjj0w!19sChIJn6l56kHr5zsRXO55yBLbths?authuser=0&hl=en&rclk=1,"19.0602958,73.0956234"
Masjid Qasim Ul Uloom,Mosque,"Masjid Qasim Ul Uloom, W-62, Rabale MIDC Rd, Rabale, Navi Mumbai, Maharashtra 400701",Rabale,"W-62, Rabale MIDC Rd",Navi Mumbai,400701,Maharashtra,IN,https://www.google.com/maps/place/Masjid+Qasim+Ul+Uloom/data=!4m7!3m6!1s0x3be7c0a7ff90650f:0xed464ae0613f2e8!8m2!3d19.1431636!4d73.0052323!16s%2Fg%2F11c2pg8b9r!19sChIJD2WQ_6fA5zsR6PITBq5k1A4?authuser=0&hl=en&rclk=1,"19.143163599999998,73.0052323"
Pada Mohalla Masjid,Mosque,"Pada Mohalla Masjid, 201, Maulana Azad Chowk, 351, Mahatma Gandhi Rd, Old Panvel, Panvel, Navi Mumbai, Maharashtra 410206","Old Panvel, Panvel","201, Maulana Azad Chowk, 351, Mahatma Gandhi Rd",Navi Mumbai,410206,Maharashtra,IN,https://www.google.com/maps/place/Pada+Mohalla+Masjid/data=!4m7!3m6!1s0x3be7e8146eb2be17:0xc81ba73e16989592!8m2!3d18.9871568!4d73.1073735!16s%2Fg%2F11cs3hj428!19sChIJF76ybhTo5zsRkpWYFj6nG8g?authuser=0&hl=en&rclk=1,"18.987156799999998,73.1073735"
Landmark Masjid,Mosque,"Landmark Masjid, Landmark Co Operative Housing Society, Darave Rd, Darave Village, Sector 23, Nerul, Navi Mumbai, Maharashtra 400706","Darave Village, Sector 23, Nerul","Landmark Co Operative Housing Society, Darave Rd",Navi Mumbai,400706,Maharashtra,IN,https://www.google.com/maps/place/Landmark+Masjid/data=!4m7!3m6!1s0x3be7c3bfc3bd191d:0x1e7cba6f6116a9b7!8m2!3d19.0276687!4d73.0178761!16s%2Fg%2F1v8g9h2h!19sChIJHRm9w7_D5zsRt6kWYW-6fB4?authuser=0&hl=en&rclk=1,"19.0276687,73.0178761"
Al Madina Madrasa Mosque,Mosque,"32J7+W3W Al Madina Madrasa Mosque, Sector 19F Vashi Rd, Sector 19F, Vashi, Navi Mumbai, Maharashtra 400703","Sector 19F, Vashi","32J7+W3W, Sector 19F Vashi Rd",Navi Mumbai,400703,Maharashtra,IN,https://www.google.com/maps/place/Al+Madina+Madrasa+Mosque/data=!4m7!3m6!1s0x3be7c13c41725b0d:0xa4006d80a2a26109!8m2!3d19.0823508!4d73.0127086!16s%2Fg%2F11gfl_t7j3!19sChIJDVtyQTzB5zsRCWGiooBtAKQ?authuser=0&hl=en&rclk=1,"19.0823508,73.0127086"
Ahle hadees Masjid Al Furqan,Mosque,"522P+2F3 Ahle hadees Masjid Al Furqan, Shilphata, Navi Mumbai, Thane, Maharashtra 421204",Shilphata,522P+2F3,"Navi Mumbai, Thane",421204,Maharashtra,IN,https://www.google.com/maps/place/Ahle+hadees+Masjid+Al+Furqan/data=!4m7!3m6!1s0x3be7bf7eebc669eb:0x4003389cabb664bd!8m2!3d19.1500238!4d73.0361688!16s%2Fg%2F11ckr4x5sq!19sChIJ62nG636_5zsRvWS2q5w4A0A?authuser=0&hl=en&rclk=1,"19.1500238,73.0361688"
Masjid-e-Ayesha,Mosque,"Masjid-e-Ayesha, 84, Bacchumiya Dhuru Marg, Belapur Village, Sector 20, CBD Belapur, Navi Mumbai, Maharashtra 400614","Belapur Village, Sector 20, CBD Belapur","84, Bacchumiya Dhuru Marg",Navi Mumbai,400614,Maharashtra,IN,https://www.google.com/maps/place/Masjid-e-Ayesha/data=!4m7!3m6!1s0x3be7c3a956f0388b:0xa866459164681ad6!8m2!3d19.0131757!4d73.0344105!16s%2Fg%2F11dym8trdb!19sChIJizjwVqnD5zsR1hpoZJFFZqg?authuser=0&hl=en&rclk=1,"19.013175699999998,73.03441049999999"
"Shia Imambargah, Vashi",Mosque,"32F6+5J3 Shia Imambargah, Vashi, Vashi-Turbhe Rd, opp. ICL School, Sector 21, Turbhe, Navi Mumbai, Maharashtra 400703","Sector 21, Turbhe","32F6+5J3, Vashi-Turbhe Rd, opp. ICL School",Navi Mumbai,400703,Maharashtra,IN,"https://www.google.com/maps/place/Shia+Imambargah,+Vashi/data=!4m7!3m6!1s0x3be7c140cefe93cd:0xad35f24f75dfaf4a!8m2!3d19.0728932!4d73.0115539!16s%2Fg%2F11b6gn_tfv!19sChIJzZP-zkDB5zsRSq_fdU_yNa0?authuser=0&hl=en&rclk=1","19.0728932,73.0115539"
At-Tawheed Masjid Kharghar,Mosque,"At-Tawheed Masjid Kharghar, 36/31, Block G, Sector 12, Kharghar, Navi Mumbai, Maharashtra 410210","Block G, Sector 12, Kharghar",36/31,Navi Mumbai,410210,Maharashtra,IN,https://www.google.com/maps/place/At-Tawheed+Masjid+Kharghar/data=!4m7!3m6!1s0x3be7c21724805d15:0xf6f39a64b830851b!8m2!3d19.0435515!4d73.0688469!16s%2Fg%2F11bxf_l0_4!19sChIJFV2AJBfC5zsRG4UwuGSa8_Y?authuser=0&hl=en&rclk=1,"19.0435515,73.0688469"
Masjid Prayer Room,Mosque,"1st Floor, Masjid Prayer Room, RAGHULEELA MALL, Sector 30, Vashi, Navi Mumbai, Maharashtra 400703","Sector 30, Vashi","1st Floor, RAGHULEELA MALL",Navi Mumbai,400703,Maharashtra,IN,https://www.google.com/maps/place/Masjid+Prayer+Room/data=!4m7!3m6!1s0x3be7c14db01c4127:0x90b9076a12e64790!8m2!3d19.0638142!4d72.9966684!16s%2Fg%2F11fyz9ztpf!19sChIJJ0EcsE3B5zsRkEfmEmoHuZA?authuser=0&hl=en&rclk=1,"19.0638142,72.99666839999999"
Momin Pada Masjid,Mosque,"X4M6+CQ5 Momin Pada Masjid, Mahatma Gandhi Rd, Mominpada, Old Panvel, Panvel, Navi Mumbai, Maharashtra 410206","Mominpada, Old Panvel, Panvel","X4M6+CQ5, Mahatma Gandhi Rd",Navi Mumbai,410206,Maharashtra,IN,https://www.google.com/maps/place/Momin+Pada+Masjid/data=!4m7!3m6!1s0x3be7e86d2822c1a1:0x7ad8e1a2a49562!8m2!3d18.9835105!4d73.1119946!16s%2Fg%2F1pty73ysy!19sChIJocEiKG3o5zsRYpWkouHYegA?authuser=0&hl=en&rclk=1,"18.983510499999998,73.1119946"
Mahape Masjid,Mosque,"Mahape Masjid, 63, S Central Rd, MIDC Industrial Area, Sector 1, Kopar Khairane, Navi Mumbai, Maharashtra 400710","MIDC Industrial Area, Sector 1, Kopar Khairane","63, S Central Rd",Navi Mumbai,400710,Maharashtra,IN,https://www.google.com/maps/place/Mahape+Masjid/data=!4m7!3m6!1s0x3be7c0e8ec2d598b:0x5c56a00eec23fa16!8m2!3d19.1119078!4d73.0207905!16s%2Fg%2F11c6049qdm!19sChIJi1kt7OjA5zsRFvoj7A6gVlw?authuser=0&hl=en&rclk=1,"19.1119078,73.02079049999999"
Munira Masjid Sec 35 Kamothe,Mosque,"23CQ+W96 Munira Masjid Sec 35 Kamothe, Sector 35, Kamothe, Panvel, Navi Mumbai, Maharashtra 410209","Sector 35, Kamothe, Panvel",23CQ+W96,Navi Mumbai,410209,Maharashtra,IN,https://www.google.com/maps/place/Munira+Masjid+Sec+35+Kamothe/data=!4m7!3m6!1s0x3be7c27874000001:0x59d4f7dee880df60!8m2!3d19.0222945!4d73.0883971!16s%2Fg%2F11b7gp9209!19sChIJAQAAdHjC5zsRYN-A6N731Fk?authuser=0&hl=en&rclk=1,"19.022294499999997,73.0883971"
Jama Masjid Sector 12,Mosque,"Jama Masjid Sector 12, B 47, Prime Mall Ln, Sector 12, Kharghar, Navi Mumbai, Maharashtra 410210","Sector 12, Kharghar","B 47, Prime Mall Ln",Navi Mumbai,410210,Maharashtra,IN,https://www.google.com/maps/place/Jama+Masjid+Sector+12/data=!4m7!3m6!1s0x3be7c2170a32df45:0xe3ad35fed6d2f930!8m2!3d19.0440281!4d73.0665833!16s%2Fg%2F11b_3fwvz5!19sChIJRd8yChfC5zsRMPnS1v41reM?authuser=0&hl=en&rclk=1,"19.0440281,73.06658329999999"
Seawoods Jama Masjid,Mosque,"Seawoods Jama Masjid, Plot No. 144, Sector-50 New, Seawoods, Nerul, Navi Mumbai, Maharashtra 400706","New Sector-50, Sector 50, Nerul","Plot No. 144, Sector-50 New, Seawoods",Navi Mumbai,400706,Maharashtra,IN,https://www.google.com/maps/place/Seawoods+Jama+Masjid/data=!4m7!3m6!1s0x3be7c3a3653605cd:0x1014085d118ee439!8m2!3d19.0161239!4d73.0221733!16s%2Fg%2F11gfmr8gv0!19sChIJzQU2ZaPD5zsROeSOEV0IFBA?authuser=0&hl=en&rclk=1,"19.0161239,73.02217329999999"
Madarsa Wa Masjid Madinatul Uloom,Mosque,"Madarsa Wa Masjid Madinatul Uloom, No.2093, chinchpada, behind bus stop, Airoli Naka, Airoli, Navi Mumbai, Maharashtra 400708","Airoli Naka, Airoli","No.2093, chinchpada, behind bus stop",Navi Mumbai,400708,Maharashtra,IN,https://www.google.com/maps/place/Madarsa+Wa+Masjid+Madinatul+Uloom/data=!4m7!3m6!1s0x3be7bf4a05b71f3b:0x92e74feba2e03ede!8m2!3d19.1661157!4d73.000233!16s%2Fg%2F12ltw3m8c!19sChIJOx-3BUq_5zsR3j7goutP55I?authuser=0&hl=en&rclk=1,"19.1661157,73.000233"
Sunni Taiba Masjid,Mosque,"5XFX+2FF Sunni Taiba Masjid, Thane - Belapur Rd, Digha Gaon, Sanjay Gandhi Nagar, Dighe, Navi Mumbai, Maharashtra 400708","Digha Gaon, Sanjay Gandhi Nagar, Dighe","5XFX+2FF, Thane - Belapur Rd",Navi Mumbai,400708,Maharashtra,IN,https://www.google.com/maps/place/Sunni+Taiba+Masjid/data=!4m7!3m6!1s0x3be7bf33e6fb0c63:0xd0952e73be97a7fe!8m2!3d19.1725519!4d72.9986824!16s%2Fg%2F1hm52_j3n!19sChIJYwz75jO_5zsR_qeXvnMuldA?authuser=0&hl=en&rclk=1,"19.1725519,72.99868239999999"
Masjid Nouman Taloja,Mosque,"Masjid Nouman Taloja, Taloje Panchanand, Sector 40, Taloja, Navi Mumbai, Maharashtra 410208","Taloje Panchanand, Sector 40, Taloja",,Navi Mumbai,410208,Maharashtra,IN,https://www.google.com/maps/place/Masjid+Nouman+Taloja/data=!4m7!3m6!1s0x3be7ea064c4a9e2f:0x5115423eae6f0cc4!8m2!3d19.0687019!4d73.0909143!16s%2Fg%2F11bxdzqwxp!19sChIJL55KTAbq5zsRxAxvrj5CFVE?authuser=0&hl=en&rclk=1,"19.0687019,73.0909143"
Masjid And Madarsa Ahle Sunnat Wa Jama'at Gulshane Madina,Mosque,"Masjid And Madarsa Ahle Sunnat Wa Jama'at Gulshane Madina, 32, Thane - Belapur Rd, Shivaji Nagar, Sector 1, Shiravane, Nerul, Navi Mumbai, Maharashtra 400706","Shivaji Nagar, Sector 1, Shiravane, Nerul","32, Thane - Belapur Rd",Navi Mumbai,400706,Maharashtra,IN,https://www.google.com/maps/place/Masjid+And+Madarsa+Ahle+Sunnat+Wa+Jama%27at+Gulshane+Madina/data=!4m7!3m6!1s0x3be7c3d937356cf9:0x7d261fb2ed3eaf2!8m2!3d19.0489277!4d73.0234579!16s%2Fg%2F11dxkvf6hm!19sChIJ-Ww1N9nD5zsR8urTLvth0gc?authuser=0&hl=en&rclk=1,"19.0489277,73.0234579"
Dawoodi Bohra Masjid,Mosque,"Dawoodi Bohra Masjid, WING-B, Nag Devi Rd, Seawoods West, Sector 40, Seawoods, Navi Mumbai, Maharashtra 400706","Seawoods West, Sector 40, Seawoods","WING-B, Nag Devi Rd",Navi Mumbai,400706,Maharashtra,IN,https://www.google.com/maps/place/Dawoodi+Bohra+Masjid/data=!4m7!3m6!1s0x3be7c395e947f38f:0xba40723aef71045b!8m2!3d19.024401!4d73.0157556!16s%2Fg%2F11c2j86l9j!19sChIJj_NH6ZXD5zsRWwRx7zpyQLo?authuser=0&hl=en&rclk=1,"19.024400999999997,73.01575559999999"
Shams Masjid,Mosque,"Shams Masjid, Wit centre, Bandar Rd, Old Panvel, Panvel, Navi Mumbai, Maharashtra 410206","Old Panvel, Panvel","Wit centre, Bandar Rd",Navi Mumbai,,Maharashtra,IN,https://www.google.com/maps/place/Shams+Masjid/data=!4m7!3m6!1s0x3be7e817b34f88db:0xc3862b78db395de6!8m2!3d18.9894369!4d73.1024587!16s%2Fg%2F11b8t66my6!19sChIJ24hPsxfo5zsR5l0523grhsM?authuser=0&hl=en&rclk=1,"18.989436899999998,73.1024587"
Sunni Masjid,Mosque,"Sunni Masjid, B-54, Sector 27, Nerul, Navi Mumbai, Maharashtra 400706","Sector 27, Nerul",B-54,Navi Mumbai,400706,Maharashtra,IN,https://www.google.com/maps/place/Sunni+Masjid/data=!4m7!3m6!1s0x3be7c3a4c3605d99:0x628fc55b50121130!8m2!3d19.0176041!4d73.0251077!16s%2Fg%2F11b_3h2dyk!19sChIJmV1gw6TD5zsRMBESUFvFj2I?authuser=0&hl=en&rclk=1,"19.0176041,73.02510769999999"
Noori Jama Masjid,Mosque,"X49M+H7P Noori Jama Masjid, Palaspe Phata, Panvel, Navi Mumbai, Maharashtra 410221","Palaspe Phata, Panvel",X49M+H7P,Navi Mumbai,410221,Maharashtra,IN,https://www.google.com/maps/place/Noori+Jama+Masjid/data=!4m7!3m6!1s0x3be7e7d5e78d35f3:0x1629723832f8b2ea!8m2!3d18.9689511!4d73.1331938!16s%2Fg%2F11dfmk5y5z!19sChIJ8zWN59Xn5zsR6rL4MjhyKRY?authuser=0&hl=en&rclk=1,"18.968951099999998,73.1331938"
Seawood Dargah & Sunni Masjid,Mosque,"Seawood Dargah & Sunni Masjid, 13, Mata Amritanandamayi Marg, Sector 28, Nerul, Navi Mumbai, Maharashtra 400706","Sector 28, Nerul","13, Mata Amritanandamayi Marg",Navi Mumbai,400706,Maharashtra,IN,https://www.google.com/maps/place/Seawood+Dargah+%26+Sunni+Masjid/data=!4m7!3m6!1s0x3be7c3948c93d6b1:0x977a58b35e0ce94!8m2!3d19.0263991!4d73.0123901!16s%2Fg%2F1tjx_z6c!19sChIJsdaTjJTD5zsRlM7gNYuldwk?authuser=0&hl=en&rclk=1,"19.0263991,73.01239009999999"
Aqsa Masjid Taloja,Mosque,"338R+F74 Aqsa Masjid Taloja, Taloje Panchanand, Sector 40, Taloja, Navi Mumbai, Maharashtra 410210","Taloje Panchanand, Sector 40, Taloja",338R+F74,Navi Mumbai,410210,Maharashtra,IN,https://www.google.com/maps/place/Aqsa+Masjid+Taloja/data=!4m7!3m6!1s0x3be7ea072063c641:0x33e08fb54a1db932!8m2!3d19.0661428!4d73.0907088!16s%2Fg%2F1pp2vlrp3!19sChIJQcZjIAfq5zsRMrkdSrWP4DM?authuser=0&hl=en&rclk=1,"19.066142799999998,73.0907088"
Masjid-E-Usman,Mosque,"Masjid-E-Usman, 3rd floor 54 opp. vohra chambers, 19C Sector, above andra highway corporation, Sector 19D, Vashi, Navi Mumbai, Maharashtra 400703","Sector 19C, Sector 19D, Vashi","3rd floor 54 opp. vohra chambers, 19C Sector, above andra highway corporation",Navi Mumbai,400703,Maharashtra,IN,https://www.google.com/maps/place/Masjid-E-Usman/data=!4m7!3m6!1s0x3be7c13a0df6b769:0xe23c7696624b9e1a!8m2!3d19.0810054!4d73.0059408!16s%2Fg%2F11c5_fwh96!19sChIJabf2DTrB5zsRGp5LYpZ2POI?authuser=0&hl=en&rclk=1,"19.0810054,73.00594079999999"
Bhusar Mohalla Masjid,Mosque,"Bhusar Mohalla Masjid, Republic of, 201, Mahatma Gandhi Rd, Old Panvel, Panvel, Navi Mumbai, Maharashtra 410206","Old Panvel, Panvel","Republic of, 201, Mahatma Gandhi Rd",Navi Mumbai,410206,Maharashtra,IN,https://www.google.com/maps/place/Bhusar+Mohalla+Masjid/data=!4m7!3m6!1s0x3be7e81478502ccb:0x880d4da0986ad51f!8m2!3d18.9864466!4d73.1079751!16s%2Fg%2F11ckr4_slt!19sChIJyyxQeBTo5zsRH9VqmKBNDYg?authuser=0&hl=en&rclk=1,"18.9864466,73.10797509999999"
Masjid-e-Gausiya ( Masjid-wa-Madarsa Gausiya Ahle Sunnat Trust ),Mosque,"Masjid-e-Gausiya ( Masjid-wa-Madarsa Gausiya Ahle Sunnat Trust ), BHEEM NAGAR, Central Rd N, Rabale, Navi Mumbai, Maharashtra 400701",Rabale,"BHEEM NAGAR, Central Rd N",Navi Mumbai,400701,Maharashtra,IN,https://www.google.com/maps/place/Masjid-e-Gausiya+%28+Masjid-wa-Madarsa+Gausiya+Ahle+Sunnat+Trust+%29/data=!4m7!3m6!1s0x3be7bf59e821586f:0x856ac86b025bb89b!8m2!3d19.147129!4d73.005788!16s%2Fg%2F1hm44gng7!19sChIJb1gh6Fm_5zsRm7hbAmvIaoU?authuser=0&hl=en&rclk=1,"19.147129,73.005788"
Husami Masjid - Bohra Community,Mosque,"X4M5+RVF Husami Masjid - Bohra Community, Uran Rd, Tapal Naka, Old Panvel, Panvel, Navi Mumbai, Maharashtra 410206","Tapal Naka, Old Panvel, Panvel","X4M5+RVF, Uran Rd",Navi Mumbai,410206,Maharashtra,IN,https://www.google.com/maps/place/Husami+Masjid+-+Bohra+Community/data=!4m7!3m6!1s0x3be7e8131452179b:0xc9ed74ec8d1444ff!8m2!3d18.9845523!4d73.1096762!16s%2Fg%2F1ptx6tdbs!19sChIJmxdSFBPo5zsR_0QUjex07ck?authuser=0&hl=en&rclk=1,"18.9845523,73.1096762"
"Masjid e Quba , Wazi Mohalla",Mosque,"X4M4+VMJ Masjid e Quba , Wazi Mohalla, Masjid e Quba Road, Wazi Mohalla, Old Panvel, Panvel, Navi Mumbai, Maharashtra 410206","Old Panvel, Panvel","X4M4+VMJ, Masjid e Quba Road, Wazi Mohalla",Navi Mumbai,410206,Maharashtra,IN,"https://www.google.com/maps/place/Masjid+e+Quba+,+Wazi+Mohalla/data=!4m7!3m6!1s0x3be7e813ebb6218f:0xf13f0a7272d9c20b!8m2!3d18.9847084!4d73.1066542!16s%2Fg%2F11gdhhfsb6!19sChIJjyG26xPo5zsRC8LZcnIKP_E?authuser=0&hl=en&rclk=1","18.9847084,73.1066542"
Masjid-E-Tuba,Mosque,"3488+6PH Masjid-E-Tuba, Taloja, Navi Mumbai, Maharashtra 410208",Taloja,3488+6PH,Navi Mumbai,410208,Maharashtra,IN,https://www.google.com/maps/place/Masjid-E-Tuba/data=!4m7!3m6!1s0x3be7ea21315b9a6b:0x6c54eafca6b7fa9a!8m2!3d19.0655545!4d73.1168565!16s%2Fg%2F11cm0314tz!19sChIJa5pbMSHq5zsRmvq3pvzqVGw?authuser=0&hl=en&rclk=1,"19.065554499999998,73.1168565"
Mosque,Mosque,"Mosque, 84, Bacchumiya Dhuru Marg, Sector 19, Bacchumiya Dhuru Marg, Belapur Village, Sector 20, CBD Belapur, Navi Mumbai, Maharashtra 400614","Belapur Village, Sector 20, CBD Belapur","84, Bacchumiya Dhuru Marg, Sector 19, Bacchumiya Dhuru Marg",Navi Mumbai,400614,Maharashtra,IN,https://www.google.com/maps/place/Mosque/data=!4m7!3m6!1s0x3be7c3a9566cc669:0x89ed8e90b94df824!8m2!3d19.0132328!4d73.0345251!16s%2Fg%2F11dym8lg0q!19sChIJacZsVqnD5zsRJPhNuZCO7Yk?authuser=0&hl=en&rclk=1,"19.0132328,73.0345251"
Sunni Takka Masjid,Mosque,"X4J9+M5W Sunni Takka Masjid, Takka Colony, Panvel, Navi Mumbai, Maharashtra 410206","Takka Colony, Panvel",X4J9+M5W,Navi Mumbai,410206,Maharashtra,IN,https://www.google.com/maps/place/Sunni+Takka+Masjid/data=!4m7!3m6!1s0x3be7e86e04da4623:0x6c2a7ee6f0271d93!8m2!3d18.9817399!4d73.1179404!16s%2Fg%2F12hpk13kv!19sChIJI0baBG7o5zsRkx0n8OZ-Kmw?authuser=0&hl=en&rclk=1,"18.9817399,73.1179404"
Islamic Peace Foundation (Ahle Hadees),Mosque,"Islamic Peace Foundation (Ahle Hadees), 51, Sector 18, Kopar Khairane, Navi Mumbai, Maharashtra 400709","Sector 18, Kopar Khairane",51,Navi Mumbai,400709,Maharashtra,IN,https://www.google.com/maps/place/Islamic+Peace+Foundation+%28Ahle+Hadees%29/data=!4m7!3m6!1s0x3be7c0da0a0d8bb3:0xde6eefc5dc8130ed!8m2!3d19.1034041!4d73.0027078!16s%2Fg%2F11cn6jdrb7!19sChIJs4sNCtrA5zsR7TCB3MXvbt4?authuser=0&hl=en&rclk=1,"19.1034041,73.0027078"
Ayesha Masjid,Mosque,"Ayesha Masjid, 410206, Old Panvel, Panvel, Navi Mumbai, Maharashtra 410206","Kacchi Mohalla, Old Panvel, Panvel",410206,Navi Mumbai,410206,Maharashtra,IN,https://www.google.com/maps/place/Ayesha+Masjid/data=!4m7!3m6!1s0x3be7e8167018e213:0x19b19534e7b0fc7d!8m2!3d18.9893963!4d73.1047209!16s%2Fg%2F11cs3bh2yc!19sChIJE-IYcBbo5zsRffyw5zSVsRk?authuser=0&hl=en&rclk=1,"18.9893963,73.1047209"
Hari masjid,Mosque,"Hari masjid, SEC# 30 Owe, Khargar Navi Mumbai SEC# 30 Owe, Khargar, Shahid Sukhdev Singh Marg, Owe Village, Sector 35E, Kharghar, Navi Mumbai, Maharashtra 410210","Owe Village, Sector 35E, Kharghar","SEC# 30 Owe, Khargar Navi Mumbai SEC# 30 Owe, Khargar, Shahid Sukhdev Singh Marg",Navi Mumbai,410210,Maharashtra,IN,https://www.google.com/maps/place/Hari+masjid/data=!4m7!3m6!1s0x3be7c1f1802632e7:0xbe48558c07e6b5f7!8m2!3d19.0658971!4d73.0702343!16s%2Fg%2F11c1mrmbt8!19sChIJ5zImgPHB5zsR97XmB4xVSL4?authuser=0&hl=en&rclk=1,"19.0658971,73.0702343"
Madina masjid,Mosque,"4263+P8W Madina masjid, Savoli, Sector 1, Ghansoli, Navi Mumbai, Maharashtra 400701","Savoli, Sector 1, Ghansoli",4263+P8W,Navi Mumbai,,Maharashtra,IN,https://www.google.com/maps/place/Madina+masjid/data=!4m7!3m6!1s0x3be7c11a2d7bdb85:0x414d491c1d905bb2!8m2!3d19.1118725!4d73.003332!16s%2Fg%2F11kptqz5c4!19sChIJhdt7LRrB5zsRsluQHRxJTUE?authuser=0&hl=en&rclk=1,"19.1118725,73.003332"
Lakda Bakhar Masjid/Madrasa,Mosque,"Lakda Bakhar Masjid/Madrasa, 2055, Paushibai R Madhvi Marg, Sector 1, Airoli, Navi Mumbai, Maharashtra 400708","Sector 1, Airoli","2055, Paushibai R Madhvi Marg",Navi Mumbai,400708,Maharashtra,IN,https://www.google.com/maps/place/Lakda+Bakhar+Masjid%2FMadrasa/data=!4m7!3m6!1s0x3be7bf4a069b2ae7:0x348800a839363aac!8m2!3d19.1651667!4d72.9987302!16s%2Fg%2F11c1ph62nj!19sChIJ5yqbBkq_5zsRrDo2OagAiDQ?authuser=0&hl=en&rclk=1,"19.1651667,72.9987302"
Madni Masjid Taloja,Mosque,"339Q+723 Madni Masjid Taloja, Taloja Panchanand, Sector 40, Taloja, Navi Mumbai, Maharashtra 410208","Taloja Panchanand, Sector 40, Taloja",339Q+723,Navi Mumbai,410208,Maharashtra,IN,https://www.google.com/maps/place/Madni+Masjid+Taloja/data=!4m7!3m6!1s0x3be7c1fd7ce37bc3:0xce32c11a5ab36062!8m2!3d19.0681368!4d73.0875433!16s%2Fg%2F11cmshp29f!19sChIJw3vjfP3B5zsRYmCzWhrBMs4?authuser=0&hl=en&rclk=1,"19.068136799999998,73.0875433"
Masjid Wa Madrasa Darussalam,Mosque,"32CC+26M Masjid Wa Madrasa Darussalam, Haribaba Sadhu Gaikwad Marg, Turbhe MIDC, Turbhe, Navi Mumbai, Maharashtra 400705","Turbhe MIDC, Turbhe","32CC+26M, Haribaba Sadhu Gaikwad Marg",Navi Mumbai,400705,Maharashtra,IN,https://www.google.com/maps/place/Masjid+Wa+Madrasa+Darussalam/data=!4m7!3m6!1s0x3be7c16bd774a517:0x868b569df3e1a049!8m2!3d19.0700798!4d73.0205413!16s%2Fg%2F11ddt38r94!19sChIJF6V012vB5zsRSaDh851Wi4Y?authuser=0&hl=en&rclk=1,"19.0700798,73.02054129999999"
Faizan E Basheban Masjid,Mosque,"15, Belapur, Faizan E Basheban Masjid, A2-13, Raintree Marg, Sector 2, CBD Belapur, Navi Mumbai, Maharashtra 400614","Sector 2, CBD Belapur","15, Belapur, A2-13, Raintree Marg",Navi Mumbai,400614,Maharashtra,IN,https://www.google.com/maps/place/Faizan+E+Basheban+Masjid/data=!4m7!3m6!1s0x3be7c3b4d32c03d9:0xd0f660eeb049e0b1!8m2!3d19.0281294!4d73.04049!16s%2Fg%2F11b7yrlxpn!19sChIJ2QMs07TD5zsRseBJsO5g9tA?authuser=0&hl=en&rclk=1,"19.028129399999997,73.04048999999999"
MASJID E GARIB NAWAZ,Mosque,"X4R9+8RX MASJID E GARIB NAWAZ, Forest Colony, Panvel, Navi Mumbai, Maharashtra 410206","Forest Colony, Panvel",X4R9+8RX,Navi Mumbai,410206,Maharashtra,IN,https://www.google.com/maps/place/MASJID+E+GARIB+NAWAZ/data=!4m7!3m6!1s0x3be7e9563ee10685:0x47976f89c0cdffe1!8m2!3d18.9908658!4d73.1196007!16s%2Fg%2F11gtzp_nf6!19sChIJhQbhPlbp5zsR4f_NwIlvl0c?authuser=0&hl=en&rclk=1,"18.990865799999998,73.11960069999999"
Maryam Masjid,Mosque,"Maryam Masjid, Suraj Nagar, bhoir compound, Thakur Pada Rd, Kiravli Village, Navi Mumbai, Adivali, Maharashtra 410210",Kiravli Village,"Suraj Nagar, bhoir compound, Thakur Pada Rd","Navi Mumbai, Adivali",410210,Maharashtra,IN,https://www.google.com/maps/place/Maryam+Masjid/data=!4m7!3m6!1s0x3be7c04ca492172d:0xe40d07f5dd2185a2!8m2!3d19.1031417!4d73.0576742!16s%2Fg%2F11f3rtnylf!19sChIJLReSpEzA5zsRooUh3fUHDeQ?authuser=0&hl=en&rclk=1,"19.1031417,73.0576742"
Masjid E-Bilal,Mosque,"32H9+VX3 Masjid E-Bilal, Turbhe Station (E, Thane - Belapur Rd, Shiv Shakti Nagar, Turbhe Store, Turbhe, Navi Mumbai, Maharashtra 400705","Shiv Shakti Nagar, Turbhe Store, Turbhe MIDC, Turbhe","32H9+VX3, Turbhe Station (E, Thane - Belapur Rd",Navi Mumbai,400705,Maharashtra,IN,https://www.google.com/maps/place/Masjid+E-Bilal/data=!4m7!3m6!1s0x3be7c1144b1d110b:0x17dbed84126c89ab!8m2!3d19.0796415!4d73.019919!16s%2Fg%2F11c1qsj__j!19sChIJCxEdSxTB5zsRq4lsEoTt2xc?authuser=0&hl=en&rclk=1,"19.079641499999997,73.019919"
Mahape Masjid,Mosque,"Mahape Masjid, A-580, Cross No 18 Road, MIDC Industrial Area, Mahape, Navi Mumbai, Maharashtra 400701","MIDC Industrial Area, Mahape","A-580, Cross No 18 Road",Navi Mumbai,400701,Maharashtra,IN,https://www.google.com/maps/place/Mahape+Masjid/data=!4m7!3m6!1s0x3be7c0ee2ecac943:0x1dc6c7034c7ec33b!8m2!3d19.1142038!4d73.0283189!16s%2Fg%2F11d_yvccwp!19sChIJQ8nKLu7A5zsRO8N-TAPHxh0?authuser=0&hl=en&rclk=1,"19.1142038,73.0283189"
Islamiya Masjid Taloja,Mosque,"339Q+R7V Islamiya Masjid Taloja, Mannan colony, Taloja Panchanand, Sector 40, Taloja, Navi Mumbai, Maharashtra 410208","Mannan colony, Taloja Panchanand, Sector 40, Taloja",339Q+R7V,Navi Mumbai,410208,Maharashtra,IN,https://www.google.com/maps/place/Islamiya+Masjid+Taloja/data=!4m7!3m6!1s0x3be7ea07f0a55c05:0xdbd3ebe226997f5b!8m2!3d19.0696211!4d73.08818!16s%2Fg%2F11cjpwf_dl!19sChIJBVyl8Afq5zsRW3-ZJuLr09s?authuser=0&hl=en&rclk=1,"19.0696211,73.08818"
Masjid-E-Ayesha Taloja,Mosque,"Plot No - 162, Masjid-E-Ayesha Taloja, Ground floor, Aakar residency, Sector 2, Taloja Phase 1 Rd, Petali, Taloja, Navi Mumbai, Maharashtra 410208","Petali, Taloja Panchanand, Taloja","Plot No - 162, Ground floor, Aakar residency, Sector 2, Taloja Phase 1 Rd",Navi Mumbai,410208,Maharashtra,IN,https://www.google.com/maps/place/Masjid-E-Ayesha+Taloja/data=!4m7!3m6!1s0x3be7eb02d0bf6ee3:0x15b7c20dcff4ce23!8m2!3d19.0801115!4d73.0913614!16s%2Fg%2F11fl5mb0nk!19sChIJ426_0ALr5zsRI870zw3CtxU?authuser=0&hl=en&rclk=1,"19.080111499999997,73.0913614"
"Madinah Masjid, Sector 21",Mosque,"Madinah Masjid, Sector 21, A2-297, Sector 21, Turbhe, Navi Mumbai, Maharashtra 400703","Sector 21, Turbhe",A2-297,Navi Mumbai,400703,Maharashtra,IN,"https://www.google.com/maps/place/Madinah+Masjid,+Sector+21/data=!4m7!3m6!1s0x3be7c1d83d743f07:0xb64ac52519dc1be6!8m2!3d19.0718066!4d73.0141601!16s%2Fg%2F11j2w7f04_!19sChIJBz90PdjB5zsR5hvcGSXFSrY?authuser=0&hl=en&rclk=1","19.0718066,73.0141601"
Sunni Masjid,Mosque,"X4J8+V48 Sunni Masjid, MCCH Society, Panvel, Navi Mumbai, Maharashtra 410206","MCCH Society, Panvel",X4J8+V48,Navi Mumbai,410206,Maharashtra,IN,https://www.google.com/maps/place/Sunni+Masjid/data=!4m7!3m6!1s0x3be7e86d96ecb883:0xfc8a96fa60547e63!8m2!3d18.9821731!4d73.115332!16s%2Fg%2F11b5yvhvtf!19sChIJg7jslm3o5zsRY35UYPqWivw?authuser=0&hl=en&rclk=1,"18.9821731,73.115332"
Noorani Masjid Taloja,Mosque,"Noorani Masjid Taloja, Taloja Panchanand, Sector 40, Taloja, Navi Mumbai, Maharashtra 410208","Taloja Panchanand, Sector 40, Taloja",,Navi Mumbai,410208,Maharashtra,IN,https://www.google.com/maps/place/Noorani+Masjid+Taloja/data=!4m7!3m6!1s0x3be7ea07cf9b20a5:0x1c654a07caaa8502!8m2!3d19.0697858!4d73.0900129!16s%2Fg%2F11c1g668wp!19sChIJpSCbzwfq5zsRAoWqygdKZRw?authuser=0&hl=en&rclk=1,"19.0697858,73.09001289999999"
Masjid APMC VASHI MARKET,Mosque,"32G5+WR7 Masjid APMC VASHI MARKET, APMC Market, Sector 19, Vashi, Navi Mumbai, Maharashtra 400703","APMC Market, Sector 19, Vashi",32G5+WR7,Navi Mumbai,400703,Maharashtra,IN,https://www.google.com/maps/place/Masjid+APMC+VASHI+MARKET/data=!4m7!3m6!1s0x3be7c138ea0d6965:0x37adda8f22638567!8m2!3d19.0772823!4d73.0095326!16s%2Fg%2F11f4m5dl8x!19sChIJZWkN6jjB5zsRZ4VjIo_arTc?authuser=0&hl=en&rclk=1,"19.0772823,73.0095326"
Noori Masjid & Madrasa Nooriya,Mosque,"Noori Masjid & Madrasa Nooriya, 13-3, Turbhe Belapur Rd, MIDC Industrial Area, Sanpada, Navi Mumbai, Maharashtra 400706","MIDC Industrial Area, Sanpada","13-3, Turbhe Belapur Rd",Navi Mumbai,400706,Maharashtra,IN,https://www.google.com/maps/place/Noori+Masjid+%26+Madrasa+Nooriya/data=!4m7!3m6!1s0x3be7c17062d93091:0x8455a579a1827ae4!8m2!3d19.0659158!4d73.0317158!16s%2Fg%2F11c5_yk74y!19sChIJkTDZYnDB5zsR5HqCoXmlVYQ?authuser=0&hl=en&rclk=1,"19.0659158,73.0317158"
Masjid,Mosque,"35J3+C5Q Masjid, Taloja, Navi Mumbai, Maharashtra 410208",Taloja,35J3+C5Q,Navi Mumbai,410208,Maharashtra,IN,https://www.google.com/maps/place/Masjid/data=!4m7!3m6!1s0x3be7ebc3f47213a1:0x7077d122136e92b4!8m2!3d19.0810832!4d73.1529945!16s%2Fg%2F1q5hrg600!19sChIJoRNy9MPr5zsRtJJuEyLRd3A?authuser=0&hl=en&rclk=1,"19.0810832,73.15299449999999"
Vadghar Jama Masjid,Mosque,"X4M3+MVF Vadghar Jama Masjid, Vadghar, Panvel, Navi Mumbai, Maharashtra 410206","Vadghar, Panvel",X4M3+MVF,Navi Mumbai,410206,Maharashtra,IN,https://www.google.com/maps/place/Vadghar+Jama+Masjid/data=!4m7!3m6!1s0x3be7e811114dd695:0x172eabc99394dd76!8m2!3d18.9841982!4d73.1046805!16s%2Fg%2F11f3wxpfgv!19sChIJldZNERHo5zsRdt2Uk8mrLhc?authuser=0&hl=en&rclk=1,"18.984198199999998,73.1046805"
Garib Nawaz Masjid,Mosque,"Garib Nawaz Masjid, 1353, KKR Rd, Turbhe Store, Turbhe MIDC, Turbhe, Navi Mumbai, Maharashtra 400705","Turbhe Store, Turbhe MIDC, Turbhe","1353, KKR Rd",Navi Mumbai,400705,Maharashtra,IN,https://www.google.com/maps/place/Garib+Nawaz+Masjid/data=!4m7!3m6!1s0x3be7c10bbcaec543:0x7922794d7d912524!8m2!3d19.0765852!4d73.0206396!16s%2Fg%2F11gy9k_83n!19sChIJQ8WuvAvB5zsRJCWRfU15Ink?authuser=0&hl=en&rclk=1,"19.0765852,73.0206396"
Masjid-e-Munawwarah,Mosque,"Masjid-e-Munawwarah, 181, Thane - Belapur Rd, Turbhe Store, MIDC Industrial Area, Turbhe, Navi Mumbai, Maharashtra 400703","Turbhe Store, MIDC Industrial Area, Turbhe","181, Thane - Belapur Rd",Navi Mumbai,400703,Maharashtra,IN,https://www.google.com/maps/place/Masjid-e-Munawwarah/data=!4m7!3m6!1s0x3be7c115128145c9:0x67f0b1e1ab78fe8c!8m2!3d19.0775681!4d73.0185549!16s%2Fg%2F11c2cly5lp!19sChIJyUWBEhXB5zsRjP54q-Gx8Gc?authuser=0&hl=en&rclk=1,"19.0775681,73.0185549"
Yunus Masjid Taloja,Mosque,"33CQ+M7G Yunus Masjid Taloja, Taloja Panchanand, Sector 40, Taloja, Navi Mumbai, Maharashtra 410208","Taloja Panchanand, Sector 40, Taloja",33CQ+M7G,Navi Mumbai,410208,Maharashtra,IN,https://www.google.com/maps/place/Yunus+Masjid+Taloja/data=!4m7!3m6!1s0x3be7ea08193b9da7:0xd8981bba08fa4a7f!8m2!3d19.0716802!4d73.0882078!16s%2Fg%2F11b_3cj6hk!19sChIJp507GQjq5zsRf0r6CLobmNg?authuser=0&hl=en&rclk=1,"19.0716802,73.08820779999999"
Jama Masjid Taloja (R.A.F. Camp),Mosque,"Jama Masjid Taloja (R.A.F. Camp), 410208, Sector 38, Taloja, Navi Mumbai, Maharashtra 410208","Sector 38, Taloja",410208,Navi Mumbai,410208,Maharashtra,IN,https://www.google.com/maps/place/Jama+Masjid+Taloja+%28R.A.F.+Camp%29/data=!4m7!3m6!1s0x3be7c1e1e523af71:0x601e2e7b18131d9a!8m2!3d19.0769921!4d73.0871422!16s%2Fg%2F11cpghky8y!19sChIJca8j5eHB5zsRmh0TGHsuHmA?authuser=0&hl=en&rclk=1,"19.0769921,73.0871422"
Masjid-e-Taqwa,Mosque,"Masjid-e-Taqwa, WING-B2, Kamaladevi Birajdar Marg, Vighnahar Co-Operative Housing Society, Sector 21, Nerul, Navi Mumbai, Maharashtra 400706","Vighnahar Co-Operative Housing Society, Sector 21, Nerul","WING-B2, Kamaladevi Birajdar Marg",Navi Mumbai,400706,Maharashtra,IN,https://www.google.com/maps/place/Masjid-e-Taqwa/data=!4m7!3m6!1s0x3be7c3d04b53b7db:0xf44acd0a7960fd1f!8m2!3d19.0333999!4d73.0209795!16s%2Fg%2F11ghnqrzd_!19sChIJ27dTS9DD5zsRH_1geQrNSvQ?authuser=0&hl=en&rclk=1,"19.0333999,73.0209795"
Quresh Masjid,Mosque,"32FC+6HW Quresh Masjid, Turbhe MIDC, Turbhe, Navi Mumbai, Maharashtra 400705","Turbhe MIDC, Turbhe",32FC+6HW,Navi Mumbai,400705,Maharashtra,IN,https://www.google.com/maps/place/Quresh+Masjid/data=!4m7!3m6!1s0x3be7c16b74f34e2b:0xa312e89638d03dee!8m2!3d19.0731011!4d73.0214645!16s%2Fg%2F11dzvty0q6!19sChIJK07zdGvB5zsR7j3QOJboEqM?authuser=0&hl=en&rclk=1,"19.0731011,73.0214645"
Sunni Muhammadiya Masjid,Mosque,"Sunni Muhammadiya Masjid, Palaspe Phata, Panvel, Navi Mumbai, Maharashtra 410221","Palaspe Phata, Panvel",,Navi Mumbai,410221,Maharashtra,IN,https://www.google.com/maps/place/Sunni+Muhammadiya+Masjid/data=!4m7!3m6!1s0x3be7e90aa14cd521:0x9930cc61557d235d!8m2!3d18.9721615!4d73.1294121!16s%2Fg%2F11n7jmhcm1!19sChIJIdVMoQrp5zsRXSN9VWHMMJk?authuser=0&hl=en&rclk=1,"18.9721615,73.1294121"
Masjid-E-Tabligh,Mosque,"Masjid-E-Tabligh, 736, Nerul East, Sector 20, Nerul, Navi Mumbai, Maharashtra 400706","Nerul East, Sector 20, Nerul",736,Navi Mumbai,400706,Maharashtra,IN,https://www.google.com/maps/place/Masjid-E-Tabligh/data=!4m7!3m6!1s0x3be7c3133ee77b33:0x7caa63e7eb65452e!8m2!3d19.034689!4d73.0165162!16s%2Fg%2F11gmgkqvh1!19sChIJM3vnPhPD5zsRLkVl6-djqnw?authuser=0&hl=en&rclk=1,"19.034689,73.0165162"
Darululoom Farooqia Masjid,Mosque,"Darululoom Farooqia Masjid, 219-A, Palm Beach Rd, Kopri Village, Kopripada, Sector 28, Vashi, Navi Mumbai, Maharashtra 400703","Kopri Village, Kopripada, Sector 28, Vashi","219-A, Palm Beach Rd",Navi Mumbai,400703,Maharashtra,IN,https://www.google.com/maps/place/Darululoom+Farooqia+Masjid/data=!4m7!3m6!1s0x3be7c123f2eff97b:0xcb7eec62ec8f22f9!8m2!3d19.0907235!4d73.0116105!16s%2Fg%2F11c2ps9dxx!19sChIJe_nv8iPB5zsR-SKP7GLsfss?authuser=0&hl=en&rclk=1,"19.0907235,73.0116105"
Masjid-e-suffah,Mosque,"24M2+4FM Masjid-e-suffah, Sector 11, Kalamboli, Panvel, Navi Mumbai, Maharashtra 410218","Sector 11, Kalamboli, Panvel",24M2+4FM,Navi Mumbai,410218,Maharashtra,IN,https://www.google.com/maps/place/Masjid-e-suffah/data=!4m7!3m6!1s0x3be7e9c36b20afcd:0xb978f7a9949485d8!8m2!3d19.0328499!4d73.1011657!16s%2Fg%2F11bttcr5m6!19sChIJza8ga8Pp5zsR2IWUlKn3eLk?authuser=0&hl=en&rclk=1,"19.0328499,73.1011657"
S.W.E.F. Trust Madrasa & Masjid,Mosque,"22FF+5WV S.W.E.F. Trust Madrasa & Masjid, Sector 27, Nerul, Navi Mumbai, Maharashtra 400706","Sector 27, Nerul",22FF+5WV,Navi Mumbai,400706,Maharashtra,IN,https://www.google.com/maps/place/S.W.E.F.+Trust+Madrasa+%26+Masjid/data=!4m7!3m6!1s0x3be7c3bbc71da90d:0xda3d28c895e90486!8m2!3d19.0229937!4d73.0247882!16s%2Fg%2F11hcjyrw37!19sChIJDakdx7vD5zsRhgTplcgoPdo?authuser=0&hl=en&rclk=1,"19.0229937,73.0247882"
Sunni Jama Masjid,Mosque,"35Q2+FR8 Sunni Jama Masjid, Wavanje, Taloja, Navi Mumbai, Maharashtra 410208","Wavanje, Taloja",35Q2+FR8,Navi Mumbai,410208,Maharashtra,IN,https://www.google.com/maps/place/Sunni+Jama+Masjid/data=!4m7!3m6!1s0x3be7ebb8af0d6f37:0x959f5c25338062be!8m2!3d19.088656!4d73.1520685!16s%2Fg%2F11f40s1t50!19sChIJN28Nr7jr5zsRvmKAMyVcn5U?authuser=0&hl=en&rclk=1,"19.088656,73.1520685"
Mohammadiya Masjid,Mosque,"Mohammadiya Masjid, A2-25, Sector 20, Turbhe, Navi Mumbai, Maharashtra 400703","Sector 20, Turbhe",A2-25,Navi Mumbai,400703,Maharashtra,IN,https://www.google.com/maps/place/Mohammadiya+Masjid/data=!4m7!3m6!1s0x3be7c13e52b7b8e7:0x919e0b629e96594f!8m2!3d19.0779718!4d73.0146137!16s%2Fg%2F11gdzv8460!19sChIJ57i3Uj7B5zsRT1mWnmILnpE?authuser=0&hl=en&rclk=1,"19.0779718,73.0146137"
Masjid e Madarsa Taiba Talimul Quran (Sunni Masjid),Mosque,"Masjid e Madarsa Taiba Talimul Quran (Sunni Masjid), A1-63/1, Vashi-Turbhe Rd, Sector 21, Turbhe, Navi Mumbai, Maharashtra 400703","Sector 21, Turbhe","A1-63/1, Vashi-Turbhe Rd",Navi Mumbai,400703,Maharashtra,IN,https://www.google.com/maps/place/Masjid+e+Madarsa+Taiba+Talimul+Quran+%28Sunni+Masjid%29/data=!4m7!3m6!1s0x3be7c1d2508f2303:0x57636fe41a9e8284!8m2!3d19.0729408!4d73.0110731!16s%2Fg%2F11fj8htdn4!19sChIJAyOPUNLB5zsRhIKeGuRvY1c?authuser=0&hl=en&rclk=1,"19.072940799999998,73.01107309999999"
Belapur Masjid,Mosque,"22MV+4JG Belapur Masjid, Sambhaji Nagar, Sector 8B, CBD Belapur, Navi Mumbai, Maharashtra 400614","Sambhaji Nagar, Sector 8B, CBD Belapur",22MV+4JG,Navi Mumbai,400614,Maharashtra,IN,https://www.google.com/maps/place/Belapur+Masjid/data=!4m7!3m6!1s0x3be7c3a7f331f679:0x7e4404b36dcb1006!8m2!3d19.0328203!4d73.0440647!16s%2Fg%2F11s_z1z1z9!19sChIJefYx86fD5zsRBhDLbbMERH4?authuser=0&hl=en&rclk=1,"19.0328203,73.04406469999999"
Masjid E Umar,Mosque,"Masjid E Umar, Shop no 4 Plot no 736 Sect 20 Nerul ( W, Nerul East, Sector 20, Nerul, Navi Mumbai, Maharashtra 400706","Nerul East, Sector 20, Nerul",Shop no 4 Plot no 736 Sect 20 Nerul ( W,Navi Mumbai,400706,Maharashtra,IN,https://www.google.com/maps/place/Masjid+E+Umar/data=!4m7!3m6!1s0x3be7c3675118a00b:0xa684118f1f1e2876!8m2!3d19.0459317!4d73.0141035!16s%2Fg%2F11sy3h3cmx!19sChIJC6AYUWfD5zsRdigeH48RhKY?authuser=0&hl=en&rclk=1,"19.0459317,73.01410349999999"
Sunni Ahmedi Masjid,Mosque,"4348+Q96 Sunni Ahmedi Masjid, Kiravli Village, Navi Mumbai, Maharashtra 410210",Kiravli Village,4348+Q96,Navi Mumbai,410210,Maharashtra,IN,https://www.google.com/maps/place/Sunni+Ahmedi+Masjid/data=!4m7!3m6!1s0x3be7c035bebe8fa7:0x9297a534195bc124!8m2!3d19.1069203!4d73.065883!16s%2Fg%2F11g6jql_fm!19sChIJp4--vjXA5zsRJMFbGTSll5I?authuser=0&hl=en&rclk=1,"19.1069203,73.065883"
Jama masjid old panvel,Mosque,"X4P4+8J8 Jama masjid old panvel, Old Panvel, Panvel, Navi Mumbai, Maharashtra 410206","Old Panvel, Panvel",X4P4+8J8,Navi Mumbai,410206,Maharashtra,IN,https://www.google.com/maps/place/Jama+masjid+old+panvel/data=!4m7!3m6!1s0x3be7e9f6bb604ae3:0x5c0779c03546943a!8m2!3d18.9857811!4d73.1065629!16s%2Fg%2F11tds67dfv!19sChIJ40pgu_bp5zsROpRGNcB5B1w?authuser=0&hl=en&rclk=1,"18.9857811,73.1065629"
Mosque,Mosque,"239Q+FJG Mosque, Sector 12, Kamothe, Panvel, Navi Mumbai, Maharashtra 410209","Sector 12, Kamothe, Panvel",239Q+FJG,Navi Mumbai,410209,Maharashtra,IN,https://www.google.com/maps/place/Mosque/data=!4m7!3m6!1s0x3be7e949e1dc8e8f:0xa2345bbd2986cfb!8m2!3d19.0186881!4d73.0890852!16s%2Fg%2F11gxg0schk!19sChIJj47c4Unp5zsR-2yY0rtFIwo?authuser=0&hl=en&rclk=1,"19.0186881,73.0890852"
Qabrastan Masjid,Mosque,"32R8+M5J Qabrastan Masjid, Sector 26, Vashi, Navi Mumbai, Maharashtra 400703","Sector 26, Vashi",32R8+M5J,Navi Mumbai,400703,Maharashtra,IN,https://www.google.com/maps/place/Qabrastan+Masjid/data=!4m7!3m6!1s0x3be7c12222c53557:0x3fb03f838dab568b!8m2!3d19.0917029!4d73.0153951!16s%2Fg%2F11c5_h6sks!19sChIJVzXFIiLB5zsRi1arjYM_sD8?authuser=0&hl=en&rclk=1,"19.091702899999998,73.01539509999999"
Masjid wa madrasa subaai JAMA'AT-E-GHURABA Ahle Hadees,Mosque,"Masjid wa madrasa subaai JAMA'AT-E-GHURABA Ahle Hadees, 180, Nerul East, Sector 21, Nerul, Navi Mumbai, Maharashtra 400706","Nerul East, Sector 21, Nerul",180,Navi Mumbai,400706,Maharashtra,IN,https://www.google.com/maps/place/Masjid+wa+madrasa+subaai+JAMA%27AT-E-GHURABA+Ahle+Hadees/data=!4m7!3m6!1s0x3be7c3bc9c993487:0x16a94171e63c6aec!8m2!3d19.0291332!4d73.0211113!16s%2Fg%2F11h7_nk3xj!19sChIJhzSZnLzD5zsR7Go85nFBqRY?authuser=0&hl=en&rclk=1,"19.0291332,73.0211113"
Sunni masjid lndira nagar,Mosque,"Sunni masjid lndira nagar, C - 432, T.T.C,Industrial Area, MIDC Turbhe, Opp.Lubrizol Gate No-3 & BASF, Navi Mumbai, Maharashtra 400705","Indira Nagar, MIDC Industrial Area, Turbhe","C - 432, T.T.C,Industrial Area, MIDC Turbhe, Opp.Lubrizol Gate No-3 & BASF",Navi Mumbai,400705,Maharashtra,IN,https://www.google.com/maps/place/Sunni+masjid+lndira+nagar/data=!4m7!3m6!1s0x3be7c15fc4598f89:0xe659bbfac33f313f!8m2!3d19.0756158!4d73.0281951!16s%2Fg%2F11fj9lmn_g!19sChIJiY9ZxF_B5zsRPzE_w_q7WeY?authuser=0&hl=en&rclk=1,"19.075615799999998,73.02819509999999"
Masjid,Mosque,"3277+PRW Masjid, Sector 5, Sanpada, Navi Mumbai, Maharashtra 400705","Sector 5, Sanpada",3277+PRW,Navi Mumbai,400705,Maharashtra,IN,https://www.google.com/maps/place/Masjid/data=!4m7!3m6!1s0x3be7c1a180f469f9:0x4c6745f47a98ac!8m2!3d19.0643712!4d73.0145892!16s%2Fg%2F11s2ym8f18!19sChIJ-Wn0gKHB5zsRrJh69EVnTAA?authuser=0&hl=en&rclk=1,"19.0643712,73.0145892"
Masjid Safai,Mosque,"X4CJ+MJH Masjid Safai, Peth, Kolkhe Village, Panvel, Navi Mumbai, Maharashtra 410221","Peth, Kolkhe Village, Panvel",X4CJ+MJH,Navi Mumbai,410221,Maharashtra,IN,https://www.google.com/maps/place/Masjid+Safai/data=!4m7!3m6!1s0x3be7e9aae69f910f:0xfd8a64fb298fb784!8m2!3d18.9716906!4d73.1316136!16s%2Fg%2F11gl16j_xp!19sChIJD5Gf5qrp5zsRhLePKftkiv0?authuser=0&hl=en&rclk=1,"18.9716906,73.1316136"
Sunni masjid,Mosque,"Sunni masjid, 144/5, TTC Industrial Area, MIDC Industrial Area, Kopar Khairane, Navi Mumbai, Maharashtra 400709","TTC Industrial Area, MIDC Industrial Area, Kopar Khairane",144/5,Navi Mumbai,400709,Maharashtra,IN,https://www.google.com/maps/place/Sunni+masjid/data=!4m7!3m6!1s0x3be7c180d4cc6c11:0x241b6b3c757d57dd!8m2!3d19.0942051!4d73.0224103!16s%2Fg%2F11ll4yjkjq!19sChIJEWzM1IDB5zsR3Vd9dTxrGyQ?authuser=0&hl=en&rclk=1,"19.0942051,73.02241029999999"
Jamma Masjid Nhava,Mosque,"XX77+MXC Jamma Masjid Nhava, Nhava Rd, Nhava, Navi Mumbai, Maharashtra 410206",Nhava,"XX77+MXC, Nhava Rd",Navi Mumbai,410206,Maharashtra,IN,https://www.google.com/maps/place/Jamma+Masjid+Nhava/data=!4m7!3m6!1s0x3be7c5e97fae164f:0x74c9c25bce02112a!8m2!3d18.9641966!4d72.9648983!16s%2Fg%2F11gx_zw00m!19sChIJTxauf-nF5zsRKhECzlvCyXQ?authuser=0&hl=en&rclk=1,"18.964196599999998,72.9648983"
Crescent West masjid,Mosque,"Crescent West masjid, WING -A, Sector 35D, Kutak Bandhan, Kharghar, Navi Mumbai, Maharashtra 410210","Sector 35D, Kutak Bandhan, Kharghar",WING -A,Navi Mumbai,410210,Maharashtra,IN,https://www.google.com/maps/place/Crescent+West+masjid/data=!4m7!3m6!1s0x3be7c1fe3e2b8471:0xe5c36c2cc39beccb!8m2!3d19.0716301!4d73.0781811!16s%2Fg%2F11frkxtnt5!19sChIJcYQrPv7B5zsRy-ybwyxsw-U?authuser=0&hl=en&rclk=1,"19.0716301,73.0781811"
Seawoods grand central mosque (masjid),Mosque,"1st Floor, Seawoods grand central mosque (masjid), Nexus Mall, behind Wildcraft, Nerul East, Sector 28, Seawoods, Navi Mumbai, Maharashtra 400706","Nerul East, Sector 28, Seawoods","1st Floor, Nexus Mall, behind Wildcraft",Navi Mumbai,400706,Maharashtra,IN,https://www.google.com/maps/place/Seawoods+grand+central+mosque+%28masjid%29/data=!4m7!3m6!1s0x3be7c321532ec88f:0x566b28dfe9aacba!8m2!3d19.0215873!4d73.0183585!16s%2Fg%2F11v3tzyfbt!19sChIJj8guUyHD5zsRuqya_o2yZgU?authuser=0&hl=en&rclk=1,"19.0215873,73.01835849999999"
Deobandi Masjid,Mosque,"Deobandi Masjid, A-184, Gyan Vikas Road, Shree Ganesh Panchami Society, Sector 23, Kopar Khairane, Navi Mumbai, Maharashtra 400709","Shree Ganesh Panchami Society, Sector 23, Kopar Khairane","A-184, Gyan Vikas Road",Navi Mumbai,400709,Maharashtra,IN,https://www.google.com/maps/place/Deobandi+Masjid/data=!4m7!3m6!1s0x3be7c0d5f01af43b:0xea986b36bbafd66d!8m2!3d19.0972127!4d72.9984065!16s%2Fg%2F11g72dz_f1!19sChIJO_Qa8NXA5zsRbdavuzZrmOo?authuser=0&hl=en&rclk=1,"19.0972127,72.9984065"
Sunni Almadina Masjid,Mosque,"Sunni Almadina Masjid, H/731-32, APMC FRUIT MARKET, Vashi, Navi Mumbai, Maharashtra 400703","APMC Fruits and Vegetable Market, Sector 19, Vashi","H/731-32, APMC FRUIT MARKET",Navi Mumbai,400703,Maharashtra,IN,https://www.google.com/maps/place/Sunni+Almadina+Masjid/data=!4m7!3m6!1s0x3be7c13f539004bb:0x55250ef7fbb972e3!8m2!3d19.0748732!4d73.0132508!16s%2Fg%2F11rtstyp9s!19sChIJuwSQUz_B5zsR43K5-_cOJVU?authuser=0&hl=en&rclk=1,"19.0748732,73.0132508"
Noor Madrasa & Masjid,Mosque,"Noor Madrasa & Masjid, kohinoor palace H.No.1441 Wavanje, Taloja, Tal, Panvel, Navi Mumbai, Maharashtra 410208",Panvel,"kohinoor palace H.No.1441 Wavanje, Taloja, Tal",Navi Mumbai,410208,Maharashtra,IN,https://www.google.com/maps/place/Noor+Madrasa+%26+Masjid/data=!4m7!3m6!1s0x3be7ebcb83e259e1:0x98ccaa86d5b791dc!8m2!3d19.0834746!4d73.1529999!16s%2Fg%2F11fnj20p7s!19sChIJ4Vnig8vr5zsR3JG31YaqzJg?authuser=0&hl=en&rclk=1,"19.0834746,73.1529999"
"Raza Masjid, Mirza House, rzaa msjid, mirjaa haauus",Mosque,"22M8+QH3 Raza Masjid, Mirza House, rzaa msjid, mirjaa haauus, Nerul East, Sector 20, Nerul, Navi Mumbai, Maharashtra 400706","Nerul East, Sector 20, Nerul",22M8+QH3,Navi Mumbai,400706,Maharashtra,IN,"https://www.google.com/maps/place/Raza+Masjid,+Mirza+House,+%E0%A4%B0%E0%A5%9B%E0%A4%BE+%E0%A4%AE%E0%A4%B8%E0%A5%8D%E0%A4%9C%E0%A4%BF%E0%A4%A6,+%E0%A4%AE%E0%A4%BF%E0%A4%B0%E0%A5%8D%E0%A4%9C%E0%A4%BE+%E0%A4%B9%E0%A4%BE%E0%A4%8A%E0%A4%B8/data=!4m7!3m6!1s0x3be7c3b86bc6df6b:0x5960035351036ee6!8m2!3d19.0343755!4d73.0164371!16s%2Fg%2F11f9vk_tdm!19sChIJa9_Ga7jD5zsR5m4DUVMDYFk?authuser=0&hl=en&rclk=1","19.0343755,73.01643709999999"
Masjid Ahle Hadees Rabale (near it box gali),Mosque,"42W3+W3C Masjid Ahle Hadees Rabale (near it box gali), Parulekar Wadi, Airoli, Navi Mumbai, Maharashtra 400701",Airoli,"42W3+W3C, Parulekar Wadi",Navi Mumbai,400701,Maharashtra,IN,https://www.google.com/maps/place/Masjid+Ahle+Hadees+Rabale+%28near+it+box+gali%29/data=!4m7!3m6!1s0x3be7bfe8346edbf7:0x4ad9c21d681413f!8m2!3d19.1473176!4d73.0026372!16s%2Fg%2F11j23skj9d!19sChIJ99tuNOi_5zsRP0GB1iGcrQQ?authuser=0&hl=en&rclk=1,"19.147317599999997,73.0026372"
Masjid Al Quba,Mosque,"Masjid Al Quba, 8, near Bank of India, Sector 35D, Sector 34C, Kutak Bandhan, Kharghar, Navi Mumbai, Maharashtra 410210","Sector 35D, Sector 34C, Kutak Bandhan, Kharghar","8, near Bank of India",Navi Mumbai,410210,Maharashtra,IN,https://www.google.com/maps/place/Masjid+Al+Quba/data=!4m7!3m6!1s0x3be7c153a1aff88d:0xd96d64aa8edf3bab!8m2!3d19.0714001!4d73.0783661!16s%2Fg%2F11rty68sd5!19sChIJjfivoVPB5zsRqzvfjqpkbdk?authuser=0&hl=en&rclk=1,"19.071400099999998,73.0783661"
Sunni masjid,Mosque,"339W+FG6 Sunni masjid, Sector 20, Taloja Panchanand, Taloja Phase 2, Taloja, Navi Mumbai, Maharashtra 410208","Sector 20, Taloja Panchanand, Taloja Phase 2, Taloja",339W+FG6,Navi Mumbai,410208,Maharashtra,IN,https://www.google.com/maps/place/Sunni+masjid/data=!4m7!3m6!1s0x3be7ebefc5b70743:0x6b58128feb65d2b6!8m2!3d19.0686647!4d73.096276!16s%2Fg%2F11s3rdz939!19sChIJQwe3xe_r5zsRttJl648SWGs?authuser=0&hl=en&rclk=1,"19.0686647,73.096276"
Mosque,Mosque,"Mosque, 351, Mahatma Gandhi Rd, Old Panvel, Panvel, Navi Mumbai, Maharashtra 410206","Old Panvel, Panvel","351, Mahatma Gandhi Rd",Navi Mumbai,410206,Maharashtra,IN,https://www.google.com/maps/place/Mosque/data=!4m7!3m6!1s0x3be7e81469684d17:0x89ced6c40be0b14e!8m2!3d18.9869707!4d73.1075707!16s%2Fg%2F11dyz4lxyg!19sChIJF01oaRTo5zsRTrHgC8TWzok?authuser=0&hl=en&rclk=1,"18.9869707,73.1075707"
Jama masjid kharghar sector 35,Mosque,"339J+HW6 Jama masjid kharghar sector 35, Sector 34C, Parsi, Kharghar, Navi Mumbai, Maharashtra 410210","Sector 34C, Parsi, Kharghar",339J+HW6,Navi Mumbai,410210,Maharashtra,IN,https://www.google.com/maps/place/Jama+masjid+kharghar+sector+35/data=!4m7!3m6!1s0x3be7c141cf6452f5:0x5e65cb8ab9443cad!8m2!3d19.0689203!4d73.0822735!16s%2Fg%2F11j00y8xk_!19sChIJ9VJkz0HB5zsRrTxEuYrLZV4?authuser=0&hl=en&rclk=1,"19.0689203,73.0822735"
Masjid-E-Umar,Mosque,"Masjid-E-Umar, Shop No. 2 Plot No C101, Sector 39, Mumbra, Panvel Rd, Taloja, Navi Mumbai, Maharashtra 410208","Taloje Panchanand, Sector 40, Taloja","Shop No. 2 Plot No C101, Sector 39, Mumbra, Panvel Rd",Navi Mumbai,410208,Maharashtra,IN,https://www.google.com/maps/place/Masjid-E-Umar/data=!4m7!3m6!1s0x3be7eb4f79e5f50b:0x53d0b2a76e173069!8m2!3d19.0731769!4d73.0888685!16s%2Fg%2F11r2r440n0!19sChIJC_XleU_r5zsRaTAXbqey0FM?authuser=0&hl=en&rclk=1,"19.0731769,73.0888685"
Sunni Masjid,Mosque,"435J+M2Q Sunni Masjid, Dhansar, Navi Mumbai, Maharashtra 410210",Dhansar,435J+M2Q,Navi Mumbai,410210,Maharashtra,IN,https://www.google.com/maps/place/Sunni+Masjid/data=!4m7!3m6!1s0x3be7c1dd059d05d5:0xeff102aee7f1e0ba!8m2!3d19.109219!4d73.0800971!16s%2Fg%2F11l1cg1ps6!19sChIJ1QWdBd3B5zsRuuDx564C8e8?authuser=0&hl=en&rclk=1,"19.109219,73.0800971"
Ahle Hadees Masjid,Mosque,"4336+R78 Ahle Hadees Masjid, Kiravli Village, Navi Mumbai, Adivali, Maharashtra 410210",Kiravli Village,4336+R78,"Navi Mumbai, Adivali",410210,Maharashtra,IN,https://www.google.com/maps/place/Ahle+Hadees+Masjid/data=!4m7!3m6!1s0x3be7c1bab3c75c9b:0x77b0d549323b49e0!8m2!3d19.1051236!4d73.0613314!16s%2Fg%2F11shw81g7c!19sChIJm1zHs7rB5zsR4Ek7MknVsHc?authuser=0&hl=en&rclk=1,"19.1051236,73.0613314"
Masjid a Rehmaniya,Mosque,"22M8+RJ2 Masjid a Rehmaniya, Nerul East, Sector 20, Nerul, Navi Mumbai, Maharashtra 400706","Nerul East, Sector 20, Nerul",22M8+RJ2,Navi Mumbai,400706,Maharashtra,IN,https://www.google.com/maps/place/Masjid+a+Rehmaniya/data=!4m7!3m6!1s0x3be7c3e282ba9105:0xd62c7652858b7e8e!8m2!3d19.034507!4d73.0165074!16s%2Fg%2F11rv2w_xjn!19sChIJBZG6guLD5zsRjn6LhVJ2LNY?authuser=0&hl=en&rclk=1,"19.034506999999998,73.0165074"
Masjid,Mosque,"Masjid, 43, Sector 6, Sanpada, Navi Mumbai, Maharashtra 400705","Sector 6, Sanpada",43,Navi Mumbai,400705,Maharashtra,IN,https://www.google.com/maps/place/Masjid/data=!4m7!3m6!1s0x3be7c17ef5185919:0x6d2593d174ff9c86!8m2!3d19.0606633!4d73.0146549!16s%2Fg%2F11l2_nmq2d!19sChIJGVkY9X7B5zsRhpz_dNGTJW0?authuser=0&hl=en&rclk=1,"19.060663299999998,73.0146549"
Masjid o madarsa DAR E ARQAM,Mosque,"32GH+C82 Masjid o madarsa DAR E ARQAM, Indira Nagar, MIDC Industrial Area, Turbhe, Navi Mumbai, Maharashtra 400705","Indira Nagar, MIDC Industrial Area, Turbhe",32GH+C82,Navi Mumbai,400705,Maharashtra,IN,https://www.google.com/maps/place/Masjid+o+madarsa+DAR+E+ARQAM/data=!4m7!3m6!1s0x3be7c10182e4155b:0x3490285b9c3e79bb!8m2!3d19.0759795!4d73.0283043!16s%2Fg%2F11jyk7w77c!19sChIJWxXkggHB5zsRu3k-nFsokDQ?authuser=0&hl=en&rclk=1,"19.0759795,73.0283043"
Janta Market Masjid,Mosque,"Janta Market Masjid, 12, Janta Market Rd, Sector 23, Turbhe, Navi Mumbai, Maharashtra 400703","Sector 23, Turbhe","12, Janta Market Rd",Navi Mumbai,400703,Maharashtra,IN,https://www.google.com/maps/place/Janta+Market+Masjid/data=!4m7!3m6!1s0x3be7c15e59339d8b:0xb3682ed1b27361c2!8m2!3d19.070328!4d73.01763!16s%2Fg%2F11twh6649c!19sChIJi50zWV7B5zsRwmFzstEuaLM?authuser=0&hl=en&rclk=1,"19.070328,73.01763"
Bait Ul Rahman Masjid,Mosque,"Plot No, Bait Ul Rahman Masjid, Sai Shraddha, 312, Morning Walkers Association Marg, Nerul East, Sector 21, Nerul, Navi Mumbai, Maharashtra 400706","Nerul East, Sector 21, Nerul","Plot No, Sai Shraddha, 312, Morning Walkers Association Marg",Navi Mumbai,400706,Maharashtra,IN,https://www.google.com/maps/place/Bait+Ul+Rahman+Masjid/data=!4m7!3m6!1s0x3be7c334ff2145c5:0xc60afc2cca18df10!8m2!3d19.0270299!4d73.0198843!16s%2Fg%2F11fmd6x291!19sChIJxUUh_zTD5zsREN8Yyiz8CsY?authuser=0&hl=en&rclk=1,"19.0270299,73.0198843"
