name,main_category,address,address_ward,address_street,address_city,address_postal_code,address_state,address_country_code,link,coordinates
Masjid-e-Bilal R.A. - msjdi byll,Mosque,"Masjid-e-Bilal R.A. - msjdi byll, Dr. Ambedkar Nagar, Sanjay Nagar, Mumbra, Thane, Maharashtra 400612","Dr. Ambedkar Nagar, Sanjay Nagar, Mumbra",,Thane,400612,Maharashtra,IN,https://www.google.com/maps/place/Masjid-e-Bilal+R.A.+-+%D9%85%D8%B3%D8%AC%D8%AF%D9%90+%D8%A8%DB%8C%D9%84%D8%A7%D9%84%E2%80%AD/data=!4m7!3m6!1s0x3be7bf19cfffffff:0x99d5bf0fea4113e1!8m2!3d19.1783585!4d73.0210831!16s%2Fg%2F11clvdl406!19sChIJ____zxm_5zsR4RNB6g-_1Zk?authuser=0&hl=en&rclk=1,"19.178358499999998,73.0210831"
Darul falah masjid,Mosque,"Darul falah masjid, Accord Complex, opposite City Light Co-op Hsg Society Ltd Bld - 3, Kausa, Mumbra, Thane, Maharashtra 400612","Kausa, Mumbra","Darul falah masjid, Accord Complex, opposite City Light Co-op Hsg Society Ltd Bld - 3",Thane,400612,Maharashtra,IN,https://www.google.com/maps/place/Darul+falah+masjid/data=!4m7!3m6!1s0x3be7bf13f67ce5df:0x911843ff5f7d80af!8m2!3d19.1725901!4d73.0229878!16s%2Fg%2F11fjtm7j5n!19sChIJ3-V89hO_5zsRr4B9X_9DGJE?authuser=0&hl=en&rclk=1,"19.1725901,73.0229878"
Kausa Jama Masjid,Mosque,"Shop No 1, Kausa Jama Masjid, Jama Masjid, Tetavli, Kausa, Mumbra, Thane, Maharashtra 400612","Tetavli, Kausa, Mumbra","Shop No 1, Jama Masjid",Thane,400612,Maharashtra,IN,https://www.google.com/maps/place/Kausa+Jama+Masjid/data=!4m7!3m6!1s0x3be7bf6d0d2dd68f:0xdfb0f402c81e32e1!8m2!3d19.1662561!4d73.0269451!16s%2Fg%2F1260ssm4h!19sChIJj9YtDW2_5zsR4TIeyAL0sN8?authuser=0&hl=en&rclk=1,"19.1662561,73.02694509999999"
Sunni Jama Masjid(jm` msjd hlsnt wljm`t),Mosque,"Sunni Jama Masjid(jm` msjd hlsnt wljm`t), Rizvi Baug, Old, Mumbai - Pune Rd, opp. Railway Station, Ilthan, Mumbra, Thane, Maharashtra 400612","Ilthan, Mumbra","Rizvi Baug, Old, Mumbai - Pune Rd, opp. Railway Station",Thane,400612,Maharashtra,IN,https://www.google.com/maps/place/Sunni+Jama+Masjid%28%D8%AC%D8%A7%D9%85%D8%B9+%D9%85%D8%B3%D8%AC%D8%AF+%D8%A7%DB%81%D9%84%D8%B3%D9%86%D8%AA+%D9%88%D8%A7%D9%84%D8%AC%D9%85%D8%A7%D8%B9%D8%AA%29%E2%80%AD/data=!4m7!3m6!1s0x3be7bf1e0bea0797:0xd87e49953347062b!8m2!3d19.1896982!4d73.0225403!16s%2Fg%2F11cjkgvpq2!19sChIJlwfqCx6_5zsRKwZHM5VJftg?authuser=0&hl=en&rclk=1,"19.1896982,73.0225403"
Masjid e Noor,Mosque,"Masjid e Noor, Dr Ansari Rd, 2nd, Rabodi, Thane West, Thane, Maharashtra 400601","2nd, Rabodi, Thane West",Dr Ansari Rd,Thane,400601,Maharashtra,IN,https://www.google.com/maps/place/Masjid+e+Noor/data=!4m7!3m6!1s0x3be7b93738e949fd:0x8e420f8df241e9c4!8m2!3d19.2052708!4d72.9831155!16s%2Fg%2F1vxz824l!19sChIJ_UnpODe55zsRxOlB8o0PQo4?authuser=0&hl=en&rclk=1,"19.205270799999997,72.9831155"
Gausiya Masjid(Gwthyh msjd),Mosque,"Gausiya Masjid(Gwthyh msjd), Old, Mumbai - Pune Rd, Dr. Ambedkar Nagar, Sanjay Nagar, Mumbra, Thane, Maharashtra 400612","Dr. Ambedkar Nagar, Sanjay Nagar, Mumbra","Old, Mumbai - Pune Rd",Thane,400612,Maharashtra,IN,https://www.google.com/maps/place/Gausiya+Masjid%28%D8%BA%D9%88%D8%AB%DB%8C%DB%81+%D9%85%D8%B3%D8%AC%D8%AF%29%E2%80%AD/data=!4m7!3m6!1s0x3be7bf19fc565995:0xc33e18993a6eca62!8m2!3d19.1795082!4d73.0223257!16s%2Fg%2F11ck6wjqpt!19sChIJlVlW_Bm_5zsRYspuOpkYPsM?authuser=0&hl=en&rclk=1,"19.1795082,73.0223257"
Bohra Mosque,Mosque,"52MF+WCH Bohra Mosque, Dr Syedna Mohammed Burhanuddin Marg, Zainy Colony, Anand Koliwada, Mumbra, Thane, Maharashtra 400612","Zainy Colony, Anand Koliwada, Mumbra","52MF+WCH, Dr Syedna Mohammed Burhanuddin Marg",Thane,400612,Maharashtra,IN,https://www.google.com/maps/place/Bohra+Mosque/data=!4m7!3m6!1s0x3be7bf1bf0eef9b7:0xdd9e4b9afdc0e689!8m2!3d19.184818!4d73.0236098!16s%2Fg%2F11bbrjg93c!19sChIJt_nu8Bu_5zsRiebA_ZpLnt0?authuser=0&hl=en&rclk=1,"19.184818,73.0236098"
Jumma Masjid jm`h msjd,Mosque,"Jumma Masjid jm`h msjd, Dr Ansari Rd, near Kazi Tower, Kolse Vadi, Bapuji Nagar, Thane West, Thane, Maharashtra 400601","Kolse Vadi, Bapuji Nagar, Thane West","Dr Ansari Rd, near Kazi Tower",Thane,400601,Maharashtra,IN,https://www.google.com/maps/place/Jumma+Masjid+%D8%AC%D9%85%D8%B9%DB%81+%D9%85%D8%B3%D8%AC%D8%AF%E2%80%AD/data=!4m7!3m6!1s0x3be7b93a033a123f:0x5ae52a0ec5160817!8m2!3d19.2039701!4d72.9809764!16s%2Fg%2F124ygssf4!19sChIJPxI6Azq55zsRFwgWxQ4q5Vo?authuser=0&hl=en&rclk=1,"19.2039701,72.9809764"
Tanwar Nagar Masjid,Mosque,"529G+X72 Tanwar Nagar Masjid, Tanwar Nagar Rd, Nasheman Colony, Greenfield Housing Society, Kausa, Mumbra, Thane, Maharashtra 400612","Nasheman Colony, Greenfield Housing Society, Kausa, Mumbra","529G+X72, Tanwar Nagar Rd",Thane,400612,Maharashtra,IN,https://www.google.com/maps/place/Tanwar+Nagar+Masjid/data=!4m7!3m6!1s0x3be7bf131de213f5:0x5f39a396aca21dbb!8m2!3d19.1698848!4d73.0256289!16s%2Fg%2F1yh8076c0!19sChIJ9RPiHRO_5zsRux2irJajOV8?authuser=0&hl=en&rclk=1,"19.1698848,73.0256289"
Sunni Jama Masjid,Mosque,"Sunni Jama Masjid, Kasarvadavali, Thane West, Thane, Maharashtra 400615","Kasarvadavali, Thane West",,Thane,400615,Maharashtra,IN,https://www.google.com/maps/place/Sunni+Jama+Masjid/data=!4m7!3m6!1s0x3be7bba1e7d9b461:0x9d9f3164539bc33c!8m2!3d19.2733171!4d72.9691453!16s%2Fg%2F11b6ljjg_d!19sChIJYbTZ56G75zsRPMObU2Qxn50?authuser=0&hl=en&rclk=1,"19.2733171,72.9691453"
Masjid Wa Madrasa Darul Uloom Faizan-e-Raza,Mosque,"5XRG+56J Masjid Wa Madrasa Darul Uloom Faizan-e-Raza, Shivaji Path, Ghantali, Thane West, Thane, Maharashtra 400602","Ghantali, Thane West","5XRG+56J, Shivaji Path",Thane,400602,Maharashtra,IN,https://www.google.com/maps/place/Masjid+Wa+Madrasa+Darul+Uloom+Faizan-e-Raza/data=!4m7!3m6!1s0x3be7b926d39100b9:0x3442cbf0224bcf48!8m2!3d19.1904655!4d72.9755004!16s%2Fg%2F11b6qwclrf!19sChIJuQCR0ya55zsRSM9LIvDLQjQ?authuser=0&hl=en&rclk=1,"19.1904655,72.9755004"
Sunni jama badar masjid madarsa va dargah Mulan wale Baba Hilaluddin chisty,Mosque,"Sunni jama badar masjid madarsa va dargah Mulan wale Baba Hilaluddin chisty, 248, Rd Number 22, Indira Nagar, Wagle Industrial Estate, Thane West, Thane, Maharashtra 400604","Indira Nagar, Wagle Industrial Estate, Thane West","248, Rd Number 22",Thane,400604,Maharashtra,IN,https://www.google.com/maps/place/Sunni+jama+badar+masjid+madarsa+va+dargah+Mulan+wale+Baba+Hilaluddin+chisty/data=!4m7!3m6!1s0x3be7b90b3bf86e8b:0xcf0848531346c86f!8m2!3d19.2059352!4d72.9500272!16s%2Fg%2F11c30qc03y!19sChIJi274Owu55zsRb8hGE1NICM8?authuser=0&hl=en&rclk=1,"19.2059352,72.9500272"
"Jummah Masjid, Pathan Shah Baba Dargah & Masjid",Mosque,"6X8H+H94 Jummah Masjid, Pathan Shah Baba Dargah & Masjid, MH SH 42, opp to paper product, Samata Nagar, Sainath Nagar, Majiwada, Thane, Maharashtra 400601","Samata Nagar, Sainath Nagar, Majiwada","6X8H+H94, MH SH 42, opp to paper product",Thane,400601,Maharashtra,IN,"https://www.google.com/maps/place/Jummah+Masjid,+Pathan+Shah+Baba+Dargah+%26+Masjid/data=!4m7!3m6!1s0x3be7b9443334f709:0x2c6087176fde6378!8m2!3d19.2163904!4d72.9784439!16s%2Fg%2F12ht2d42c!19sChIJCfc0M0S55zsReGPebxeHYCw?authuser=0&hl=en&rclk=1","19.216390399999998,72.9784439"
Markaz Masjid-e-Saad(mrkhaz msjdi s`d),Mosque,"527H+8QQ Markaz Masjid-e-Saad(mrkhaz msjdi s`d), 5, Moti Baugh, Almas Colony, Tetavli, Kausa, Mumbra, Thane, Maharashtra 400612","Almas Colony, Tetavli, Kausa, Mumbra","527H+8QQ, 5, Moti Baugh",Thane,400612,Maharashtra,IN,https://www.google.com/maps/place/Markaz+Masjid-e-Saad%28%D9%85%D8%B1%DA%A9%D9%8E%D8%B2+%D9%85%D8%B3%D8%AC%D8%AF%D9%90+%D8%B3%D8%B9%D8%AF%29%E2%80%AD/data=!4m7!3m6!1s0x3be7bf6b8f3fded3:0x69ed2b524b43c142!8m2!3d19.1641386!4d73.0224825!16s%2Fg%2F11cs08y4lb!19sChIJ094_j2u_5zsRQsFDS1Ir7Wk?authuser=0&hl=en&rclk=1,"19.164138599999998,73.0224825"
Siddique E Akber Masjid,Mosque,"6X6G+M43 Siddique E Akber Masjid, Majiwada Flyover, Oswal Park, Thane West, Thane, Maharashtra 400601","Oswal Park, Thane West","6X6G+M43, Majiwada Flyover",Thane,400601,Maharashtra,IN,https://www.google.com/maps/place/Siddique+E+Akber+Masjid/data=!4m7!3m6!1s0x3be7b940d22df077:0x2109a69adc4351ab!8m2!3d19.2116432!4d72.9753086!16s%2Fg%2F11bc965xg2!19sChIJd_At0kC55zsRq1FD3JqmCSE?authuser=0&hl=en&rclk=1,"19.211643199999997,72.97530859999999"
Raza Masjid,Mosque,"Raza Masjid, Mufti Azam Hind Chowk, Sharifa Rd, Amrut Nagar, Kausa, Mumbra, Thane, Maharashtra 400612","Amrut Nagar, Kausa, Mumbra","Mufti Azam Hind Chowk, Sharifa Rd",Thane,400612,Maharashtra,IN,https://www.google.com/maps/place/Raza+Masjid/data=!4m7!3m6!1s0x3be7bf13cadb8a09:0xbd8030e9e9ba899d!8m2!3d19.1734115!4d73.025688!16s%2Fg%2F12lvcsq9k!19sChIJCYrbyhO_5zsRnYm66ekwgL0?authuser=0&hl=en&rclk=1,"19.1734115,73.025688"
Takoli Masjid,Mosque,"Takoli Masjid, Teli Building, mohalla, 400 605, Shivram Patil Rd, Kalwa West, Takoli, Budhaji Nagar, Kalwa, Thane, Maharashtra 400605","Kalwa West, Takoli, Budhaji Nagar, Kalwa","Teli Building, mohalla, 400 605, Shivram Patil Rd",Thane,400605,Maharashtra,IN,https://www.google.com/maps/place/Takoli+Masjid/data=!4m7!3m6!1s0x3be7b92c0eabab75:0xd2e8d3cd214bece!8m2!3d19.1937401!4d72.9884917!16s%2Fg%2F1hm3sqcc_!19sChIJdaurDiy55zsRzr4U0jyNLg0?authuser=0&hl=en&rclk=1,"19.1937401,72.9884917"
Masjid E Rabbani,Mosque,"Masjid E Rabbani, Jilani Wadi, Road Number 9Q, Waghle estate, Rd Number 9, Ambika Nagar No 3, Thane West, Thane, Maharashtra 400604","MIDC Colony, Ambika Nagar No 3, Thane West","Jilani Wadi, Road Number 9Q, Waghle estate, Rd Number 9",Thane,400604,Maharashtra,IN,https://www.google.com/maps/place/Masjid+E+Rabbani/data=!4m7!3m6!1s0x3be7b91b56b58ba5:0x6eee28271d7e14a0!8m2!3d19.1908809!4d72.9583386!16s%2Fg%2F1pty1hwt8!19sChIJpYu1Vhu55zsRoBR-HSco7m4?authuser=0&hl=en&rclk=1,"19.1908809,72.95833859999999"
Sunni Shafi Jama Masjid KALWA,Mosque,"Sunni Shafi Jama Masjid KALWA, Jama Masjid Rd, Kalwa West, Budhaji Nagar, Kalwa, Thane, Maharashtra 400605","Kalwa West, Budhaji Nagar, Kalwa",Jama Masjid Rd,Thane,400605,Maharashtra,IN,https://www.google.com/maps/place/Sunni+Shafi+Jama+Masjid+KALWA/data=!4m7!3m6!1s0x3be7b92c363e944d:0xb61f3da59b2738a1!8m2!3d19.1959199!4d72.9884253!16s%2Fg%2F11b76ndr4l!19sChIJTZQ-Niy55zsRoTgnm6U9H7Y?authuser=0&hl=en&rclk=1,"19.1959199,72.9884253"
Makka Masjid,Mosque,"5XM3+X7V Makka Masjid, Shantaram Chavan Rd, Shivaji Nagar, Thane West, Thane, Maharashtra 400082","Shivaji Nagar, Thane West","5XM3+X7V, Shantaram Chavan Rd",Thane,400082,Maharashtra,IN,https://www.google.com/maps/place/Makka+Masjid/data=!4m7!3m6!1s0x3be7b90217a3c743:0xa5a886d30523cc47!8m2!3d19.1849872!4d72.9531606!16s%2Fg%2F11b61rqhqk!19sChIJQ8ejFwK55zsRR8wjBdOGqKU?authuser=0&hl=en&rclk=1,"19.1849872,72.95316059999999"
Mahagiri Sunni Jama Masjid,Mosque,"5XVJ+J88 Mahagiri Sunni Jama Masjid, Near Kharkar Road, Koliwada, Near Netaji Subhas Chandra Road, Mahagiri Koliwada Rd, Jambli Naka, Thane West, Thane, Maharashtra 400601","Jambli Naka, Thane West","5XVJ+J88, Near Kharkar Road, Koliwada, Near Netaji Subhas Chandra Road, Mahagiri Koliwada Rd",Thane,400601,Maharashtra,IN,https://www.google.com/maps/place/Mahagiri+Sunni+Jama+Masjid/data=!4m7!3m6!1s0x3be7b92592a0572f:0x264be2dde3d3a09!8m2!3d19.1940282!4d72.9808385!16s%2Fg%2F1ptyjwj4p!19sChIJL1egkiW55zsRCTo93i2-ZAI?authuser=0&hl=en&rclk=1,"19.194028199999998,72.98083849999999"
Masjid e Ashrafiya Sunni Circle,Mosque,"6X2J+XRX Masjid e Ashrafiya Sunni Circle, KK Rd, Rabodi, Thane West, Thane, Maharashtra 400601","Rabodi, Thane West","6X2J+XRX, KK Rd",Thane,400601,Maharashtra,IN,https://www.google.com/maps/place/Masjid+e+Ashrafiya+Sunni+Circle/data=!4m7!3m6!1s0x3be7b930ec8915fd:0x83506d443937c537!8m2!3d19.2024896!4d72.9821144!16s%2Fg%2F1ptvwq96b!19sChIJ_RWJ7DC55zsRN8U3OURtUIM?authuser=0&hl=en&rclk=1,"19.2024896,72.9821144"
Dawoodi Bohra Masjid,Mosque,"6XFH+6C3 Dawoodi Bohra Masjid, Kolshet Rd, Kailash Nagar, Thane West, Thane, Maharashtra 400607","Kailash Nagar, Thane West","6XFH+6C3, Kolshet Rd",Thane,400607,Maharashtra,IN,https://www.google.com/maps/place/Dawoodi+Bohra+Masjid/data=!4m7!3m6!1s0x3be7b95ae2067963:0xeba2e40107e9adcb!8m2!3d19.223018!4d72.978557!16s%2Fg%2F11r8hl34r!19sChIJY3kG4lq55zsRy63pBwHkous?authuser=0&hl=en&rclk=1,"19.223018,72.978557"
Sunni Gausiya Masjid,Mosque,"527H+WG9 Sunni Gausiya Masjid, Shimla Park, Kausa, Mumbra, Thane, Maharashtra 400612","Shimla Park, Kausa, Mumbra",527H+WG9,Thane,400612,Maharashtra,IN,https://www.google.com/maps/place/Sunni+Gausiya+Masjid/data=!4m7!3m6!1s0x3be7bf6d87b0f801:0xbe5f1e8d1ca8e29b!8m2!3d19.1647959!4d73.0288697!16s%2Fg%2F11ckvv4n7t!19sChIJAfiwh22_5zsRm-KoHI0eX74?authuser=0&hl=en&rclk=1,"19.164795899999998,73.0288697"
Masjid e Arqam - msjdi rqm,Mosque,"Masjid e Arqam - msjdi rqm, 15, Mumbai - Pune Rd, Amrut Nagar, Kausa, Mumbra, Thane, Maharashtra 400612","Amrut Nagar, Kausa, Mumbra","15, Mumbai - Pune Rd",Thane,400612,Maharashtra,IN,https://www.google.com/maps/place/Masjid+e+Arqam+-+%D9%85%D8%B3%D8%AC%D8%AF%D9%90+%D8%A7%D8%B1%D9%82%D9%85%E2%80%AD/data=!4m7!3m6!1s0x3be7bf1143f7f1e5:0xc69e96da05474447!8m2!3d19.175521!4d73.0240148!16s%2Fg%2F11bzt4cgrc!19sChIJ5fH3QxG_5zsRR0RHBdqWnsY?authuser=0&hl=en&rclk=1,"19.175521,73.0240148"
Gareeb Nawaz Masjid (Gryb nwz msjd hl snWt wljm`t),Mosque,"52PF+W87 Gareeb Nawaz Masjid (Gryb nwz msjd hl snWt wljm`t), Bombay Colony, Santosh Nagar, Mumbra, Thane, Maharashtra 400612","Bombay Colony, Santosh Nagar, Mumbra",52PF+W87,Thane,400612,Maharashtra,IN,https://www.google.com/maps/place/Gareeb+Nawaz+Masjid+%28%D8%BA%D8%B1%DB%8C%D8%A8+%D9%86%D9%88%D8%A7%D8%B2+%D9%85%D8%B3%D8%AC%D8%AF+%D8%A7%DB%81%D9%84+%D8%B3%D9%86%D9%91%D8%AA+%D9%88%D8%A7%D9%84%D8%AC%D9%85%D8%A7%D8%B9%D8%AA%29%E2%80%AD/data=!4m7!3m6!1s0x3be7bf1c25f6e3ab:0x9bdc440b2f5a94c0!8m2!3d19.1872952!4d73.0233024!16s%2Fg%2F11bxfkb_w5!19sChIJq-P2JRy_5zsRwJRaLwtE3Js?authuser=0&hl=en&rclk=1,"19.187295199999998,73.02330239999999"
Suhana - Shia Masjid & Imambada,Mosque,"Suhana - Shia Masjid & Imambada, 15, Mumbai - Pune Rd, Amrut Nagar, Kausa, Mumbra, Thane, Maharashtra 400612","Amrut Nagar, Kausa, Mumbra","15, Mumbai - Pune Rd",Thane,400612,Maharashtra,IN,https://www.google.com/maps/place/Suhana+-+Shia+Masjid+%26+Imambada/data=!4m7!3m6!1s0x3be7bf13f6d1c053:0x3c5904763f04590c!8m2!3d19.1728787!4d73.0226791!16s%2Fg%2F11fy4myxss!19sChIJU8DR9hO_5zsRDFkEP3YEWTw?authuser=0&hl=en&rclk=1,"19.1728787,73.02267909999999"
Madina Masjid,Mosque,"6X32+C6P Madina Masjid, near vegetable market, Ambewadi, Indira Nagar, Wagle Industrial Estate, Thane West, Thane, Maharashtra 400604","Ambewadi, Indira Nagar, Wagle Industrial Estate, Thane West","6X32+C6P, near vegetable market",Thane,400604,Maharashtra,IN,https://www.google.com/maps/place/Madina+Masjid/data=!4m7!3m6!1s0x3be7b90b98608bd3:0xeadc099559b09130!8m2!3d19.2035915!4d72.9505666!16s%2Fg%2F11c2y8fsx8!19sChIJ04tgmAu55zsRMJGwWZUJ3Oo?authuser=0&hl=en&rclk=1,"19.203591499999998,72.9505666"
Sunni Taiba Masjid,Mosque,"5XFX+2FF Sunni Taiba Masjid, Thane - Belapur Rd, Digha Gaon, Sanjay Gandhi Nagar, Dighe, Navi Mumbai, Maharashtra 400708","Digha Gaon, Sanjay Gandhi Nagar, Dighe","5XFX+2FF, Thane - Belapur Rd",Navi Mumbai,400708,Maharashtra,IN,https://www.google.com/maps/place/Sunni+Taiba+Masjid/data=!4m7!3m6!1s0x3be7bf33e6fb0c63:0xd0952e73be97a7fe!8m2!3d19.1725519!4d72.9986824!16s%2Fg%2F1hm52_j3n!19sChIJYwz75jO_5zsR_qeXvnMuldA?authuser=0&hl=en&rclk=1,"19.1725519,72.99868239999999"
"Masjid-e-Tayyaba Markaz, Thane city",Mosque,"Masjid-e-Tayyaba Markaz, Thane city, Rabodi Market, 2nd, 2, Dr Ansari Rd, near jumma masjeed, Kamgar Nagar, Rabodi, Thane West, Thane, Maharashtra 400601","Kamgar Nagar, Rabodi, Thane West","Rabodi Market, 2nd, 2, Dr Ansari Rd, near jumma masjeed",Thane,400601,Maharashtra,IN,"https://www.google.com/maps/place/Masjid-e-Tayyaba+Markaz,+Thane+city/data=!4m7!3m6!1s0x3be7b930cdb45431:0x207e2521fda1b824!8m2!3d19.2041364!4d72.9836452!16s%2Fg%2F11crzkrty9!19sChIJMVS0zTC55zsRJLih_SElfiA?authuser=0&hl=en&rclk=1","19.2041364,72.9836452"
Dargah And Masjid Pardesi Baba Dargah,Mosque,"Dargah And Masjid Pardesi Baba Dargah, B-11, Rutu Enclave, Anand Nagar, Thane West, Thane, Maharashtra 400615","Rutu Enclave, Anand Nagar, Thane West",B-11,Thane,400615,Maharashtra,IN,https://www.google.com/maps/place/Dargah+And+Masjid+Pardesi+Baba+Dargah/data=!4m7!3m6!1s0x3be7bbbc463fefb3:0x645f82a51fe7e1ad!8m2!3d19.2615965!4d72.9658604!16s%2Fg%2F11c61km4t9!19sChIJs-8_Rry75zsRreHnH6WCX2Q?authuser=0&hl=en&rclk=1,"19.2615965,72.9658604"
Masjid-e-Ashrafiya,Mosque,"526G+MWG Masjid-e-Ashrafiya, Rashid Compound, Kausa, Mumbra, Thane, Maharashtra 400612","Rashid Compound, Kausa, Mumbra",526G+MWG,Thane,400612,Maharashtra,IN,https://www.google.com/maps/place/Masjid-e-Ashrafiya/data=!4m7!3m6!1s0x3be7bf6e1325ccb7:0xe4fde1f2bcd3b037!8m2!3d19.1616841!4d73.027339!16s%2Fg%2F11cjkq3h0q!19sChIJt8wlE26_5zsRN7DTvPLh_eQ?authuser=0&hl=en&rclk=1,"19.1616841,73.027339"
Masjid Al Safa(msjd lSf),Mosque,"525J+JHR Masjid Al Safa(msjd lSf), NH4, Kausa, Mumbra, Thane, Maharashtra 400612","Kausa, Mumbra","525J+JHR, NH4",Thane,400612,Maharashtra,IN,https://www.google.com/maps/place/Masjid+Al+Safa%28%D9%85%D8%B3%D8%AC%D8%AF+%D8%A7%D9%84%D8%B5%D9%81%D8%A7%29%E2%80%AD/data=!4m7!3m6!1s0x3be7bf70590d7341:0x7fe2b5f8a27722ed!8m2!3d19.1591168!4d73.0313875!16s%2Fg%2F113dxbc57!19sChIJQXMNWXC_5zsR7SJ3ovi14n8?authuser=0&hl=en&rclk=1,"19.1591168,73.0313875"
Masjid Sunni.,Mosque,"Masjid Sunni., B-11, Rutu Enclave, Anand Nagar, Thane West, Thane, Maharashtra 400615","Rutu Enclave, Anand Nagar, Thane West",B-11,Thane,400615,Maharashtra,IN,https://www.google.com/maps/place/Masjid+Sunni./data=!4m7!3m6!1s0x3be7bbbc40d5fdf3:0xf90578ad79c96ae!8m2!3d19.261919!4d72.9658481!16s%2Fg%2F11g6tw9n24!19sChIJ8_3VQLy75zsRrpac14pXkA8?authuser=0&hl=en&rclk=1,"19.261919,72.9658481"
Masjid Al-Madina(msjdi lmdynh),Mosque,"Masjid Al-Madina(msjdi lmdynh), A/8, Moulana Azad Rd, Daulat Nagar, Greenfield Housing Society, Kausa, Mumbra, Thane, Maharashtra 400612","Daulat Nagar, Greenfield Housing Society, Kausa, Mumbra","A/8, Moulana Azad Rd",Thane,400612,Maharashtra,IN,https://www.google.com/maps/place/Masjid+Al-Madina%28%D9%85%D8%B3%D8%AC%D8%AF%D9%90+%D8%A7%D9%84%D9%85%D8%AF%DB%8C%D9%86%DB%81%29%E2%80%AD/data=!4m7!3m6!1s0x3be7bf12614488e1:0x1322c5b71d63ddf!8m2!3d19.1714533!4d73.0276593!16s%2Fg%2F11c48m24g8!19sChIJ4YhEYRK_5zsR3z3WcVssMgE?authuser=0&hl=en&rclk=1,"19.1714533,73.0276593"
Masjid E Umar - msjdi `mr,Mosque,"Masjid E Umar - msjdi `mr, D-2, Wafa Park, Tetavli, Kausa, Mumbra, Thane, Maharashtra 400612","Wafa Park, Tetavli, Kausa, Mumbra",D-2,Thane,400612,Maharashtra,IN,https://www.google.com/maps/place/Masjid+E+Umar+-+%D9%85%D8%B3%D8%AC%D8%AF%D9%90+%D8%B9%D9%85%D8%B1%E2%80%AD/data=!4m7!3m6!1s0x3be7bf6c8c48b35b:0x33fb91ab60f436f0!8m2!3d19.1656!4d73.0240393!16s%2Fg%2F11bw5yw6k9!19sChIJW7NIjGy_5zsR8Db0YKuR-zM?authuser=0&hl=en&rclk=1,"19.165599999999998,73.0240393"
Al-Furqan Masjid,Mosque,"52FG+93X Al-Furqan Masjid, Amrut Nagar, Mumbra, Thane, Maharashtra 400612","Amrut Nagar, Mumbra",52FG+93X,Thane,400612,Maharashtra,IN,https://www.google.com/maps/place/Al-Furqan+Masjid/data=!4m7!3m6!1s0x3be7bf13d6d36bf1:0x8a09411e0cf601d!8m2!3d19.1734918!4d73.0252433!16s%2Fg%2F1tvdh7vy!19sChIJ8WvT1hO_5zsRHWDP4BGUoAg?authuser=0&hl=en&rclk=1,"19.1734918,73.0252433"
Hidayatul Muslimeen Masjid,Mosque,"Hidayatul Muslimeen Masjid, Siddheshwar Appartment, B, 2, Rd Number 16, Kisan Nagar, Thane West, Thane, Maharashtra 400604","Kisan Nagar, Thane West","Siddheshwar Appartment, B, 2, Rd Number 16",Thane,400604,Maharashtra,IN,https://www.google.com/maps/place/Hidayatul+Muslimeen+Masjid/data=!4m7!3m6!1s0x3be7b906a4aada97:0x1a5c2ec64f49c5a2!8m2!3d19.1908942!4d72.9512271!16s%2Fg%2F11c2nc58q8!19sChIJl9qqpAa55zsRosVJT8YuXBo?authuser=0&hl=en&rclk=1,"19.1908942,72.9512271"
Masjid,Mosque,"Masjid, Makhmali Tank Rd, Dhobi Ali, Charai, Thane West, Thane, Maharashtra 400601","Dhobi Ali, Charai, Thane West",Makhmali Tank Rd,Thane,400601,Maharashtra,IN,https://www.google.com/maps/place/Masjid/data=!4m7!3m6!1s0x3be7b93d24b61a59:0x4409f7878481c4df!8m2!3d19.198536!4d72.971919!16s%2Fg%2F1ptwpp91j!19sChIJWRq2JD255zsR38SBhIf3CUQ?authuser=0&hl=en&rclk=1,"19.198536,72.971919"
Madina Masjid,Mosque,"5XVH+FW8 Madina Masjid, Stadium Road, Mahagiri Koliwada, Koliwada, Thane West, Thane, Maharashtra 400601","Mahagiri Koliwada, Koliwada, Thane West","5XVH+FW8, Stadium Road",Thane,400601,Maharashtra,IN,https://www.google.com/maps/place/Madina+Masjid/data=!4m7!3m6!1s0x3be7b925c17546b5:0x6f2ea4579a0db995!8m2!3d19.1936722!4d72.9798152!16s%2Fg%2F11clksxlqg!19sChIJtUZ1wSW55zsRlbkNmlekLm8?authuser=0&hl=en&rclk=1,"19.193672199999998,72.97981519999999"
Shanti Nagar Masjid,Mosque,"Shanti Nagar Masjid, Shantinagar Rd, Shanti Nagar, Shree Nagar, Thane West, Thane, Maharashtra 400604","Shanti Nagar, Shree Nagar, Thane West",Shantinagar Rd,Thane,400604,Maharashtra,IN,https://www.google.com/maps/place/Shanti+Nagar+Masjid/data=!4m7!3m6!1s0x3be7b9a833bcc9eb:0x4e45f7d001479c11!8m2!3d19.192361!4d72.9450584!16s%2Fg%2F11c14zqn5f!19sChIJ68m8M6i55zsREZxHAdD3RU4?authuser=0&hl=en&rclk=1,"19.192361,72.9450584"
Muhammadiya Ahle Hadees Masjid,Mosque,"Muhammadiya Ahle Hadees Masjid, Kranti Nagar, Thane West, Thane, Maharashtra 400601","Kranti Nagar, Thane West",,Thane,400601,Maharashtra,IN,https://www.google.com/maps/place/Muhammadiya+Ahle+Hadees+Masjid/data=!4m7!3m6!1s0x3be7b931a8604925:0x8985a5c80c427a8c!8m2!3d19.2014004!4d72.9851163!16s%2Fg%2F1q67hwxg5!19sChIJJUlgqDG55zsRjHpCDMilhYk?authuser=0&hl=en&rclk=1,"19.2014004,72.9851163"
Noorani Masjid,Mosque,"52QC+GQW Noorani Masjid, Shailesh Nagar, Mumbra, Thane, Maharashtra 400612","Shailesh Nagar, Mumbra",52QC+GQW,Thane,400612,Maharashtra,IN,https://www.google.com/maps/place/Noorani+Masjid/data=!4m7!3m6!1s0x3be7bf1e6eb15a6d:0xbdbef7d1d60aff82!8m2!3d19.1888668!4d73.0219538!16s%2Fg%2F11bxc5twmq!19sChIJbVqxbh6_5zsRgv8K1tH3vr0?authuser=0&hl=en&rclk=1,"19.1888668,73.02195379999999"
Noori Masjid,Mosque,"Noori Masjid, Kader palace, A/2, Moulana Azad Rd, Daulat Nagar, Greenfield Housing Society, Kausa, Mumbra, Thane, Maharashtra 400612","Daulat Nagar, Greenfield Housing Society, Kausa, Mumbra","Kader palace, A/2, Moulana Azad Rd",Thane,400612,Maharashtra,IN,https://www.google.com/maps/place/Noori+Masjid/data=!4m7!3m6!1s0x3be7bf72aa1773eb:0x6f96d28667c160e5!8m2!3d19.1686039!4d73.0286327!16s%2Fg%2F1pp2tw4b3!19sChIJ63MXqnK_5zsR5WDBZ4bSlm8?authuser=0&hl=en&rclk=1,"19.1686039,73.0286327"
Aqsa Masjid - qSy msjd,Mosque,"529F+8WX Aqsa Masjid - qSy msjd, Almas Colony, Tetavli, Kausa, Mumbra, Thane, Maharashtra 400612","Almas Colony, Tetavli, Kausa, Mumbra",529F+8WX,Thane,400612,Maharashtra,IN,https://www.google.com/maps/place/Aqsa+Masjid+-+%D8%A7%D9%82%D8%B5%D9%B0%DB%8C+%D9%85%D8%B3%D8%AC%D8%AF%E2%80%AD/data=!4m7!3m6!1s0x3be7bf1333cf40ab:0x1b98b3c6aa32be36!8m2!3d19.1683567!4d73.024854!16s%2Fg%2F11b5pj5k5g!19sChIJq0DPMxO_5zsRNr4yqsazmBs?authuser=0&hl=en&rclk=1,"19.1683567,73.02485399999999"
Masjid Wa Madarsa Abu-bakar Sidique Ahle-hadees,Mosque,"528F+RXR Masjid Wa Madarsa Abu-bakar Sidique Ahle-hadees, Wafa Park, Tetavli, Kausa, Mumbra, Thane, Maharashtra 400612","Wafa Park, Tetavli, Kausa, Mumbra",528F+RXR,Thane,400612,Maharashtra,IN,https://www.google.com/maps/place/Masjid+Wa+Madarsa+Abu-bakar+Sidique+Ahle-hadees/data=!4m7!3m6!1s0x3be7bf6cc4f0de6b:0x8f3881868cc8422d!8m2!3d19.1671021!4d73.024886!16s%2Fg%2F11bxjdh07z!19sChIJa97wxGy_5zsRLULIjIaBOI8?authuser=0&hl=en&rclk=1,"19.167102099999997,73.024886"
Taiba Masjid - msjdi Tybh,Mosque,"52FF+JGP Taiba Masjid - msjdi Tybh, Amrut Nagar, Mumbra, Thane, Maharashtra 400612","Amrut Nagar, Mumbra",52FF+JGP,Thane,400612,Maharashtra,IN,https://www.google.com/maps/place/Taiba+Masjid+-+%D9%85%D8%B3%D8%AC%D8%AF%D9%90+%D8%B7%DB%8C%D8%A8%DB%81%E2%80%AD/data=!4m7!3m6!1s0x3be7bf115be07a97:0x86f8a1b10b13cce5!8m2!3d19.1740792!4d73.0238345!16s%2Fg%2F11dymd1lct!19sChIJl3rgWxG_5zsR5cwTC7Gh-IY?authuser=0&hl=en&rclk=1,"19.174079199999998,73.02383449999999"
Rehma Masjid Wa Madrasa,Mosque,"Rehma Masjid Wa Madrasa, near St.John School, Bombay Colony, Mumbra, Thane, Maharashtra 400612","Bombay Colony, Mumbra",near St.John School,Thane,400612,Maharashtra,IN,https://www.google.com/maps/place/Rehma+Masjid+Wa+Madrasa/data=!4m7!3m6!1s0x3be7bf1c2cb8f4b9:0x1be3ccd0a4b59134!8m2!3d19.1880615!4d73.0233151!16s%2Fg%2F11c48dv98_!19sChIJufS4LBy_5zsRNJG1pNDM4xs?authuser=0&hl=en&rclk=1,"19.1880615,73.02331509999999"
Sunni Fatma Masjid,Mosque,"Sunni Fatma Masjid, Tahera Apartment, 1, Nilemore Rd, Kalsekar, Mumbra, Thane, Maharashtra 400612","Kalsekar, Mumbra","Tahera Apartment, 1, Nilemore Rd",Thane,400612,Maharashtra,IN,https://www.google.com/maps/place/Sunni+Fatma+Masjid/data=!4m7!3m6!1s0x3be7bf35575b7767:0xb8a76e9e8a589299!8m2!3d19.1593265!4d73.0247749!16s%2Fg%2F11q23fmp8k!19sChIJZ3dbVzW_5zsRmZJYip5up7g?authuser=0&hl=en&rclk=1,"19.1593265,73.0247749"
Madrasah Noor-ul-Islam Masjid Ahle Hadees,Mosque,"Madrasah Noor-ul-Islam Masjid Ahle Hadees, Jilani Wadi, Rd Number 9, Wagle Industrial Estate, Thane West, Thane, Maharashtra 400604","Wagle Industrial Estate, Thane West","Jilani Wadi, Rd Number 9",Thane,400604,Maharashtra,IN,https://www.google.com/maps/place/Madrasah+Noor-ul-Islam+Masjid+Ahle+Hadees/data=!4m7!3m6!1s0x3be7b91b358349bd:0x123fce5814662af2!8m2!3d19.191957!4d72.9580699!16s%2Fg%2F11clr_xjgg!19sChIJvUmDNRu55zsR8ipmFFjOPxI?authuser=0&hl=en&rclk=1,"19.191957,72.9580699"
Tanwar Complex Masjid,Mosque,"529F+MHJ Tanwar Complex Masjid, Dongre Nagar, Tetavli, Kausa, Mumbra, Thane, Maharashtra 400612","Dongre Nagar, Tetavli, Kausa, Mumbra",529F+MHJ,Thane,400612,Maharashtra,IN,https://www.google.com/maps/place/Tanwar+Complex+Masjid/data=!4m7!3m6!1s0x3be7bf13418073b7:0x80f250565e11f081!8m2!3d19.1692218!4d73.0238849!16s%2Fg%2F11f3m9vk2w!19sChIJt3OAQRO_5zsRgfARXlZQ8oA?authuser=0&hl=en&rclk=1,"19.1692218,73.0238849"
"Masjid-E-Gausia,Bhaskar Nagar",Mosque,"Masjid-E-Gausia,Bhaskar Nagar, Bhaskar Nagar, Chawl, Kalwa, Thane, Maharashtra 400605","Bhaskar Nagar, Chawl, Kalwa",,Thane,400605,Maharashtra,IN,"https://www.google.com/maps/place/Masjid-E-Gausia,Bhaskar+Nagar/data=!4m7!3m6!1s0x3be7bed9d47e1091:0x12858cee76b8d4b0!8m2!3d19.1922672!4d73.0054251!16s%2Fg%2F11dxbdhh2h!19sChIJkRB-1Nm-5zsRsNS4du6MhRI?authuser=0&hl=en&rclk=1","19.1922672,73.0054251"
Masjid wa Madrasa Usman bin Affan Ahle Hadees Masjid,Mosque,"52FC+MM9 Masjid wa Madrasa Usman bin Affan Ahle Hadees Masjid, New Gauripada, Sonaji Nagar, Mumbra, Thane, Maharashtra 400612","New Gauripada, Sonaji Nagar, Mumbra",52FC+MM9,Thane,400612,Maharashtra,IN,https://www.google.com/maps/place/Masjid+wa+Madrasa+Usman+bin+Affan+Ahle+Hadees+Masjid/data=!4m7!3m6!1s0x3be7bf16a4991ad5:0x17617f420b88bea7!8m2!3d19.1741584!4d73.0217454!16s%2Fg%2F11c3t8p30p!19sChIJ1RqZpBa_5zsRp76IC0J_YRc?authuser=0&hl=en&rclk=1,"19.1741584,73.0217454"
Sunni Masjid & Madarsa,Mosque,"526G+MVP Sunni Masjid & Madarsa, Ashrafiya Building, Mumbai - Pune Rd, Rashid Compound, Kausa, Mumbra West, Thane, Maharashtra 400612","Rashid Compound, Kausa, Mumbra West","526G+MVP, Ashrafiya Building, Mumbai - Pune Rd",Thane,400612,Maharashtra,IN,https://www.google.com/maps/place/Sunni+Masjid+%26+Madarsa/data=!4m7!3m6!1s0x3be7bf6e1332ccc9:0xe0839dad21aedf3d!8m2!3d19.1617047!4d73.0272008!16s%2Fg%2F1pwfcl_yj!19sChIJycwyE26_5zsRPd-uIa2dg-A?authuser=0&hl=en&rclk=1,"19.161704699999998,73.0272008"
Masjid E-Usman E-Gani & Madarsa - msjdi `thmn Gny w mdrsh,Mosque,"Masjid E-Usman E-Gani & Madarsa - msjdi `thmn Gny w mdrsh, Bldg. No.23, NH4, Shailesh Nagar, Mumbra, Thane, Maharashtra 400612","Shailesh Nagar, Mumbra","Bldg. No.23, NH4",Thane,400612,Maharashtra,IN,https://www.google.com/maps/place/Masjid+E-Usman+E-Gani+%26+Madarsa+-+%D9%85%D8%B3%D8%AC%D8%AF%D9%90+%D8%B9%D8%AB%D9%85%D8%A7%D9%86+%D8%BA%D9%86%DB%8C+%D9%88+%D9%85%D8%AF%D8%B1%D8%B3%DB%81%E2%80%AD/data=!4m7!3m6!1s0x3be7bf1ef93e7e93:0x2b60d2e686329e93!8m2!3d19.1875281!4d73.0203239!16s%2Fg%2F11b6t54qkd!19sChIJk34--R6_5zsRk54yhubSYCs?authuser=0&hl=en&rclk=1,"19.187528099999998,73.0203239"
Minar Masjid - 'mynr msjd',Mosque,"527J+2CM Minar Masjid - 'mynr msjd', Shimla Park, Kausa, Mumbra, Thane, Maharashtra 400612","Shimla Park, Kausa, Mumbra",527J+2CM,Thane,400612,Maharashtra,IN,https://www.google.com/maps/place/Minar+Masjid+-+%27%D9%85%DB%8C%D9%86%D8%A7%D8%B1+%D9%85%D8%B3%D8%AC%D8%AF%27%E2%80%AD/data=!4m7!3m6!1s0x3be7bf71866cddd3:0xd36d0079ac073f97!8m2!3d19.1625852!4d73.0310321!16s%2Fg%2F11g6bkv233!19sChIJ091shnG_5zsRlz8HrHkAbdM?authuser=0&hl=en&rclk=1,"19.1625852,73.03103209999999"
Fine Packers And Movers Kanjurmarg,Mosque,"5XPG+RP9 Fine Packers And Movers Kanjurmarg, Jambli Naka, Thane West, Thane, Maharashtra 400601","Jambli Naka, Thane West",5XPG+RP9,Thane,400601,Maharashtra,IN,https://www.google.com/maps/place/Fine+Packers+And+Movers+Kanjurmarg/data=!4m7!3m6!1s0x3be7b9275c540f2d:0xe183e32cf3409738!8m2!3d19.187029!4d72.976855!16s%2Fg%2F11c6dfczkp!19sChIJLQ9UXCe55zsROJdA8yzjg-E?authuser=0&hl=en&rclk=1,"19.187029,72.976855"
Jama Masjid,Mosque,"5XV5+JHW Jama Masjid, Hazuri Road, Hazuri Gaon Wagle Estate, Thane West, near Hazuri Dargah, Thane, Maharashtra 400604","Ambika Nagar No 3, Thane West","5XV5+JHW, Hazuri Road, Hazuri Gaon Wagle Estate, Thane West, near Hazuri Dargah",Thane,400604,Maharashtra,IN,https://www.google.com/maps/place/Jama+Masjid/data=!4m7!3m6!1s0x3be7b91adb5611df:0xcc13c8afc83e140d!8m2!3d19.1941115!4d72.9589464!16s%2Fg%2F11cm0c2030!19sChIJ3xFW2xq55zsRDRQ-yK_IE8w?authuser=0&hl=en&rclk=1,"19.194111499999998,72.9589464"
Masjid Sukoon Heights - msjd skhwn hy'ytt,Mosque,"52CJ+552 Masjid Sukoon Heights - msjd skhwn hy'ytt, Kausa, Mumbra, Thane, Maharashtra 400612","Kausa, Mumbra",52CJ+552,Thane,400612,Maharashtra,IN,https://www.google.com/maps/place/Masjid+Sukoon+Heights+-+%D9%85%D8%B3%D8%AC%D8%AF+%D8%B3%DA%A9%D9%88%D9%86+%DB%81%D8%A7%D8%A6%DB%8C%D9%B9%E2%80%AD/data=!4m7!3m6!1s0x3be7bf0d1380f2e7:0x36daf39f0645f193!8m2!3d19.1703832!4d73.0303951!16s%2Fg%2F11gdgd_sf3!19sChIJ5_KAEw2_5zsRk_FFBp_z2jY?authuser=0&hl=en&rclk=1,"19.1703832,73.03039509999999"
Ayesha Masjid,Mosque,"52PC+CPF Ayesha Masjid, Zainy Colony, Mumbra, Thane, Maharashtra 400612","Zainy Colony, Mumbra",52PC+CPF,Thane,400612,Maharashtra,IN,https://www.google.com/maps/place/Ayesha+Masjid/data=!4m7!3m6!1s0x3be7bf1ebb04b20b:0xc8c46dbb35c9df14!8m2!3d19.1860593!4d73.0217946!16s%2Fg%2F11c5bxh6y5!19sChIJC7IEux6_5zsRFN_JNbttxMg?authuser=0&hl=en&rclk=1,"19.1860593,73.02179459999999"
Hajra Masjid,Mosque,"52RC+GR7 Hajra Masjid, Mumbra Devi Road, Mahavir Nagar, Ilthan, Mumbra, Mumbra - Kausa, Thane, Maharashtra 400612","Mahavir Nagar, Ilthan, Mumbra","52RC+GR7, Mumbra Devi Road","Mumbra - Kausa, Thane",400612,Maharashtra,IN,https://www.google.com/maps/place/Hajra+Masjid/data=!4m7!3m6!1s0x3be7bee1e4a5ddf1:0xd1050e8b6e64b4c3!8m2!3d19.191293!4d73.0220332!16s%2Fg%2F12613gdpl!19sChIJ8d2l5OG-5zsRw7RkbosOBdE?authuser=0&hl=en&rclk=1,"19.191292999999998,73.0220332"
Masjid-E-Siddiq Akbar,Mosque,"6X2P+J2X Masjid-E-Siddiq Akbar, Kranti Nagar, Thane West, Thane, Maharashtra 400601","Kranti Nagar, Thane West",6X2P+J2X,Thane,400601,Maharashtra,IN,https://www.google.com/maps/place/Masjid-E-Siddiq+Akbar/data=!4m7!3m6!1s0x3be7b931a8122f61:0x24e844f5a1dbc70!8m2!3d19.2016073!4d72.9851233!16s%2Fg%2F11c3k57yk7!19sChIJYS8SqDG55zsRcLwdWk-ETgI?authuser=0&hl=en&rclk=1,"19.2016073,72.9851233"
Siddiqia Masjid & Madrasa(Sdyqyh msjd w mdrsh),Mosque,"528F+967 Siddiqia Masjid & Madrasa(Sdyqyh msjd w mdrsh), Madinah Colony, Near Wafa Hills,, Mumbra, Thane, Maharashtra 400612","Almas Colony, Tetavli, Kausa, Mumbra","528F+967, Madinah Colony, Near Wafa Hills,",Thane,400612,Maharashtra,IN,https://www.google.com/maps/place/Siddiqia+Masjid+%26+Madrasa%28%D8%B5%D8%AF%DB%8C%D9%82%DB%8C%DB%81+%D9%85%D8%B3%D8%AC%D8%AF+%D9%88+%D9%85%D8%AF%D8%B1%D8%B3%DB%81%29%E2%80%AD/data=!4m7!3m6!1s0x3be7bf6c9c579895:0x5cb72618bf638760!8m2!3d19.1659154!4d73.0230425!16s%2Fg%2F12hs0n3k_!19sChIJlZhXnGy_5zsRYIdjvxgmt1w?authuser=0&hl=en&rclk=1,"19.1659154,73.0230425"
Masjid e Umar Farooque,Mosque,"Masjid e Umar Farooque, 1st Dr Ansari Rd Thane, Rabodi, Thane West, Thane, Maharashtra 400601","Kolse Vadi, Rabodi, Thane West",1st Dr Ansari Rd Thane,Thane,400601,Maharashtra,IN,https://www.google.com/maps/place/Masjid+e+Umar+Farooque/data=!4m7!3m6!1s0x3be7b93a08a5656f:0xa9ccd04841b1aeb5!8m2!3d19.2034604!4d72.9811749!16s%2Fg%2F11dz_0xn0h!19sChIJb2WlCDq55zsRta6xQUjQzKk?authuser=0&hl=en&rclk=1,"19.2034604,72.9811749"
Qadriya Masjid,Mosque,"First Floor, Qadriya Masjid, Navnit Bharat CHS 2, above pakiza popular auto works, opp. Cafe, India Restaurant, Hardas Nagar, Azad Nagar, Thane West, Thane, Maharashtra 400601","Hardas Nagar, Azad Nagar, Thane West","First Floor, Navnit Bharat CHS 2, above pakiza popular auto works, opp. Cafe, India Restaurant",Thane,400601,Maharashtra,IN,https://www.google.com/maps/place/Qadriya+Masjid/data=!4m7!3m6!1s0x3be7b938e2211f57:0x760ea1c75abce086!8m2!3d19.2067397!4d72.9774185!16s%2Fg%2F11gd4hb3s0!19sChIJVx8h4ji55zsRhuC8WsehDnY?authuser=0&hl=en&rclk=1,"19.2067397,72.9774185"
Kohinoor Masjid(khwh nwr msjd),Mosque,"Kohinoor Masjid(khwh nwr msjd), A/8, Moulana Azad Rd, Daulat Nagar, Greenfield Housing Society, Kausa, Mumbra, Thane, Maharashtra 400612","Daulat Nagar, Greenfield Housing Society, Kausa, Mumbra","A/8, Moulana Azad Rd",Thane,400612,Maharashtra,IN,https://www.google.com/maps/place/Kohinoor+Masjid%28%DA%A9%D9%88%DB%81+%D9%86%D9%88%D8%B1+%D9%85%D8%B3%D8%AC%D8%AF%29%E2%80%AD/data=!4m7!3m6!1s0x3be7bf12e5447243:0x5005bde84119b05b!8m2!3d19.1704152!4d73.0261995!16s%2Fg%2F11dxryggt9!19sChIJQ3JE5RK_5zsRW7AZQei9BVA?authuser=0&hl=en&rclk=1,"19.1704152,73.02619949999999"
Masjid Madarsa Talimul Quran Salafiya Ahle Hadees Masjid Digha,Mosque,"5XCX+VHM Masjid Madarsa Talimul Quran Salafiya Ahle Hadees Masjid Digha, Thane - Belapur Rd, Digha Gaon, Sanjay Gandhi Nagar, Dighe, Navi Mumbai, Maharashtra 400708","Digha Gaon, Sanjay Gandhi Nagar, Dighe","5XCX+VHM, Thane - Belapur Rd",Navi Mumbai,400708,Maharashtra,IN,https://www.google.com/maps/place/Masjid+Madarsa+Talimul+Quran+Salafiya+Ahle+Hadees+Masjid+Digha/data=!4m7!3m6!1s0x3be7bf33e3058f9b:0x940cc9539bf0188b!8m2!3d19.1722192!4d72.9989345!16s%2Fg%2F1ptwx_p3b!19sChIJm48F4zO_5zsRixjwm1PJDJQ?authuser=0&hl=en&rclk=1,"19.1722192,72.99893449999999"
Masjid,Mosque,"Masjid, 8, Ghodbunder Rd, Samata Nagar, Sainath Nagar, Majiwada, Thane, Maharashtra 400601","Samata Nagar, Sainath Nagar, Majiwada","8, Ghodbunder Rd",Thane,400601,Maharashtra,IN,https://www.google.com/maps/place/Masjid/data=!4m7!3m6!1s0x3be7b905c143e9c5:0x54e307eefe52cec8!8m2!3d19.216429!4d72.9784495!16s%2Fg%2F11qp4y2nz4!19sChIJxelDwQW55zsRyM5S_u4H41Q?authuser=0&hl=en&rclk=1,"19.216428999999998,72.9784495"
Madarsa Faizul Quraan & Masjid Khadijatul Kubrah R.A,Mosque,"5XV5+GPJ Madarsa Faizul Quraan & Masjid Khadijatul Kubrah R.A, Hazuri Road, near Hazuri dargah, Wagle Estate, Ambika Nagar No 3, Thane West, Thane, Maharashtra 400604","Wagle Estate, Ambika Nagar No 3, Thane West","5XV5+GPJ, Hazuri Road, near Hazuri dargah",Thane,400604,Maharashtra,IN,https://www.google.com/maps/place/Madarsa+Faizul+Quraan+%26+Masjid+Khadijatul+Kubrah+R.A/data=!4m7!3m6!1s0x3be7b91adde0ea9d:0xc874e2ddf40a0f54!8m2!3d19.193841!4d72.9592579!16s%2Fg%2F11cllpv1_j!19sChIJnerg3Rq55zsRVA8K9N3idMg?authuser=0&hl=en&rclk=1,"19.193841,72.9592579"
Aqsa Masjid,Mosque,"523X+W76 Aqsa Masjid, bhoir compound shill diva road, near shill villageThane, Diva, Thane, Maharashtra 421204",Diva,"523X+W76, bhoir compound shill diva road, near shill villageThane",Thane,421204,Maharashtra,IN,https://www.google.com/maps/place/Aqsa+Masjid/data=!4m7!3m6!1s0x3be7bf84417ced4d:0x48f9c369eb50a9d1!8m2!3d19.1547788!4d73.0481289!16s%2Fg%2F11gbkxp0s5!19sChIJTe18QYS_5zsR0alQ62nD-Ug?authuser=0&hl=en&rclk=1,"19.1547788,73.0481289"
Darul Islah Masjid Shamshad Nagar,Mosque,"52HF+6CW Darul Islah Masjid Shamshad Nagar, Kausar Baug, Narayan Nagar, Shamshad Nagar, Thane, Maharashtra 400612","Kausar Baug, Narayan Nagar, Shamshad Nagar",52HF+6CW,Thane,400612,Maharashtra,IN,https://www.google.com/maps/place/Darul+Islah+Masjid+Shamshad+Nagar/data=!4m7!3m6!1s0x3be7bf10b821c5af:0xffa45820d3907c1!8m2!3d19.1781123!4d73.0235719!16s%2Fg%2F11fzf9sdh4!19sChIJr8UhuBC_5zsRwQc5DYJF-g8?authuser=0&hl=en&rclk=1,"19.1781123,73.0235719"
Ina'm Masjid - n`m msjd,Mosque,"52CG+HFR Ina'm Masjid - n`m msjd, Nagsen Nagar, Kausa, Mumbra, Thane, Maharashtra 400612","Nagsen Nagar, Kausa, Mumbra",52CG+HFR,Thane,400612,Maharashtra,IN,https://www.google.com/maps/place/Ina%27m+Masjid+-+%D8%A7%D9%86%D8%B9%D8%A7%D9%85+%D9%85%D8%B3%D8%AC%D8%AF%E2%80%AD/data=!4m7!3m6!1s0x3be7bf12517bfe2d:0xc924bdc067131f22!8m2!3d19.1714865!4d73.0261472!16s%2Fg%2F11cmt31csj!19sChIJLf57URK_5zsRIh8TZ8C9JMk?authuser=0&hl=en&rclk=1,"19.1714865,73.0261472"
Noorani Masjid,Mosque,"6X87+8JP Noorani Masjid, Bhimnagar, Vartak Nagar, Thane West, Thane, Maharashtra 400606","Bhimnagar, Vartak Nagar, Thane West",6X87+8JP,Thane,400606,Maharashtra,IN,https://www.google.com/maps/place/Noorani+Masjid/data=!4m7!3m6!1s0x3be7b94f6c52e975:0x25636c6b84055102!8m2!3d19.2158268!4d72.9640654!16s%2Fg%2F11rcwd6lsc!19sChIJdelSbE-55zsRAlEFhGtsYyU?authuser=0&hl=en&rclk=1,"19.2158268,72.9640654"
Masjid E Noman (msjd n`mn),Mosque,"52FG+9HH Masjid E Noman (msjd n`mn), 400612, Shadi Mahal Hall Rd, Amrut Nagar, Kausa, Mumbra, Thane, Maharashtra 400612","Amrut Nagar, Kausa, Mumbra","52FG+9HH, 400612, Shadi Mahal Hall Rd",Thane,400612,Maharashtra,IN,https://www.google.com/maps/place/Masjid+E+Noman+%28%D9%85%D8%B3%D8%AC%D8%AF+%D9%86%D8%B9%D9%85%D8%A7%D9%86%29%E2%80%AD/data=!4m7!3m6!1s0x3be7bf122ed2a2e7:0x6f6b8f52fe740d2!8m2!3d19.1735779!4d73.026279!16s%2Fg%2F11c6_z2gmy!19sChIJ56LSLhK_5zsR0kDnL_W49gY?authuser=0&hl=en&rclk=1,"19.173577899999998,73.026279"
MASJID-E-BAITUL ULUM TRUST(msjdibyt l`lwm),Mosque,"527F+2QG MASJID-E-BAITUL ULUM TRUST(msjdibyt l`lwm), Charnipada, Kausa, Mumbra, Thane, Maharashtra 400612","Charnipada, Kausa, Mumbra",527F+2QG,Thane,400612,Maharashtra,IN,https://www.google.com/maps/place/MASJID-E-BAITUL+ULUM+TRUST%28%D9%85%D8%B3%D8%AC%D8%AF%D9%90%D8%A8%DB%8C%D8%AA+%D8%A7%D9%84%D8%B9%D9%84%D9%88%D9%85%29%E2%80%AD/data=!4m7!3m6!1s0x3be7bf6c219986cd:0x42aac6b40bb0bcc7!8m2!3d19.1625546!4d73.0244416!16s%2Fg%2F11f38xb7r3!19sChIJzYaZIWy_5zsRx7ywC7TGqkI?authuser=0&hl=en&rclk=1,"19.1625546,73.0244416"
Najmi Dawoodi Bohra Masjid,Mosque,"Najmi Dawoodi Bohra Masjid, Nr. Thane Traders, Kharkar Alley Rd, Mahagiri Koliwada, Kharkar Alley, Thane West, Thane, Maharashtra 400601","Mahagiri Koliwada, Kharkar Alley, Thane West","Nr. Thane Traders, Kharkar Alley Rd",Thane,400601,Maharashtra,IN,https://www.google.com/maps/place/Najmi+Dawoodi+Bohra+Masjid/data=!4m7!3m6!1s0x3be7b925b1d17701:0x70c389eab3666d70!8m2!3d19.1946023!4d72.9791034!16s%2Fg%2F12q4tjhsc!19sChIJAXfRsSW55zsRcG1ms-qJw3A?authuser=0&hl=en&rclk=1,"19.1946023,72.9791034"
Usman Masjid,Mosque,"528H+X8X Usman Masjid, Kausa, Mumbra, Thane, Maharashtra 400612","Kausa, Mumbra",528H+X8X,Thane,400612,Maharashtra,IN,https://www.google.com/maps/place/Usman+Masjid/data=!4m7!3m6!1s0x3be7bf6d597fad65:0xa513875adc4c0f39!8m2!3d19.1674773!4d73.0283607!16s%2Fg%2F11c7t0s3n9!19sChIJZa1_WW2_5zsROQ9M3FqHE6U?authuser=0&hl=en&rclk=1,"19.167477299999998,73.0283607"
Shane Mohammedi Masjid(shni muHamWady msjd),Mosque,"Shane Mohammedi Masjid(shni muHamWady msjd), 400612, Amrut Nagar, Mumbra, Thane, Maharashtra 400612","Amrut Nagar, Mumbra",400612,Thane,400612,Maharashtra,IN,https://www.google.com/maps/place/Shane+Mohammedi+Masjid%28%D8%B4%D8%A7%D9%86%D9%90+%D9%85%D9%8F%D8%AD%D9%8E%D9%85%D9%91%D9%8E%D8%AF%DB%8C+%D9%85%D8%B3%D8%AC%D8%AF%29%E2%80%AD/data=!4m7!3m6!1s0x3be7bf1181d3d9ed:0x5e736d79b9662a7b!8m2!3d19.1740982!4d73.0258005!16s%2Fg%2F11dxkxwyd4!19sChIJ7dnTgRG_5zsReypmuXltc14?authuser=0&hl=en&rclk=1,"19.1740982,73.0258005"
Musafir Masjid-Sahyadri Hotel,Mosque,"5XPG+RPH Musafir Masjid-Sahyadri Hotel, Jambli Naka, Thane West, Thane, Maharashtra 400601","Jambli Naka, Thane West",5XPG+RPH,Thane,400601,Maharashtra,IN,https://www.google.com/maps/place/Musafir+Masjid-Sahyadri+Hotel/data=!4m7!3m6!1s0x3be7b9275cffec9b:0xb485f3d070959ad0!8m2!3d19.1870555!4d72.9768693!16s%2Fg%2F11g6w2tdbt!19sChIJm-z_XCe55zsR0JqVcNDzhbQ?authuser=0&hl=en&rclk=1,"19.1870555,72.97686929999999"
Tembhi Sunni Masjid,Mosque,"5XXG+FJH Tembhi Sunni Masjid, Sonumiya Rd, Dhobi Ali, Charai, Thane West, Thane, Maharashtra 400601","Dhobi Ali, Charai, Thane West","5XXG+FJH, Sonumiya Rd",Thane,400601,Maharashtra,IN,https://www.google.com/maps/place/Tembhi+Sunni+Masjid/data=!4m7!3m6!1s0x3be7b9dcc00ba33b:0xf9a6790e39f85335!8m2!3d19.1986939!4d72.9766175!16s%2Fg%2F11n0gp16pl!19sChIJO6MLwNy55zsRNVP4OQ55pvk?authuser=0&hl=en&rclk=1,"19.1986939,72.9766175"
Khadija Masjid(khdyjh msjd),Mosque,"Khadija Masjid(khdyjh msjd), Madini Tower-A, Kausa, Mumbra, Thane, Maharashtra 400612","Kausa, Mumbra",Madini Tower-A,Thane,400612,Maharashtra,IN,https://www.google.com/maps/place/Khadija+Masjid%28%D8%AE%D8%AF%DB%8C%D8%AC%DB%81+%D9%85%D8%B3%D8%AC%D8%AF%29%E2%80%AD/data=!4m7!3m6!1s0x3be7bf725804fd11:0x10d44ab0bce1b6d!8m2!3d19.165729!4d73.0308985!16s%2Fg%2F11g6vhdvfh!19sChIJEf0EWHK_5zsRbRvOC6tEDQE?authuser=0&hl=en&rclk=1,"19.165729,73.03089849999999"
Madrassa wa Masjid Hussain Ahle Hadees,Mosque,"Madrassa wa Masjid Hussain Ahle Hadees, 400612, Nagsen Nagar, Kausa, Mumbra, Thane, Maharashtra 400612","Nagsen Nagar, Kausa, Mumbra",400612,Thane,400612,Maharashtra,IN,https://www.google.com/maps/place/Madrassa+wa+Masjid+Hussain+Ahle+Hadees/data=!4m7!3m6!1s0x3be7bf13ce0e1a7f:0xa2e90d18a5992073!8m2!3d19.1730722!4d73.0253569!16s%2Fg%2F11d_20kvsy!19sChIJfxoOzhO_5zsRcyCZpRgN6aI?authuser=0&hl=en&rclk=1,"19.1730722,73.02535689999999"
Siddiquiah Masjid - Sdyqyh msjd,Mosque,"Siddiquiah Masjid - Sdyqyh msjd, Zainy Colony, Narayan Nagar, Mumbra, Thane, Maharashtra 400612","Zainy Colony, Narayan Nagar, Mumbra",,Thane,400612,Maharashtra,IN,https://www.google.com/maps/place/Siddiquiah+Masjid+-+%D8%B5%D8%AF%DB%8C%D9%82%DB%8C%DB%81+%D9%85%D8%B3%D8%AC%D8%AF%E2%80%AD/data=!4m7!3m6!1s0x3be7bf1bec572719:0x5e3ccc82cb3f4d9a!8m2!3d19.1842741!4d73.0240922!16s%2Fg%2F11hd6yzkrw!19sChIJGSdX7Bu_5zsRmk0_y4LMPF4?authuser=0&hl=en&rclk=1,"19.1842741,73.0240922"
Masjid,Mosque,"Masjid, Hotel Sahayadri , 1st floor, Jambli Naka, Thane West, Thane, Maharashtra 400601","Jambli Naka, Thane West","Hotel Sahayadri , 1st floor",Thane,400601,Maharashtra,IN,https://www.google.com/maps/place/Masjid/data=!4m7!3m6!1s0x3be7b9e573af1183:0xe3c0df34e54ec976!8m2!3d19.1870665!4d72.9768485!16s%2Fg%2F11qsqykqf3!19sChIJgxGvc-W55zsRdslO5TTfwOM?authuser=0&hl=en&rclk=1,"19.1870665,72.9768485"
"Masjid-e-Majidia, Sainik Nagar, Off Bypass Road, Kausa, Mumbra - msjdi mjydy, synk ngr",Mosque,"527C+493 Masjid-e-Majidia, Sainik Nagar, Off Bypass Road, Kausa, Mumbra - msjdi mjydy, synk ngr, Masjid-e-Majidia, Sainik Nagar, Off Bypass Road, Kausa, Mumbra, Thane, Maharashtra 400612","Almas Colony, Kausa, Mumbra","527C+493, Masjid-e-Majidia, Sainik Nagar, Off Bypass Road",Thane,400612,Maharashtra,IN,"https://www.google.com/maps/place/Masjid-e-Majidia,+Sainik+Nagar,+Off+Bypass+Road,+Kausa,+Mumbra+-+%D9%85%D8%B3%D8%AC%D8%AF%D9%90+%D9%85%D8%AC%DB%8C%D8%AF%DB%8C%D8%A7%D8%8C+%D8%B3%DB%8C%D9%86%D9%83+%D9%86%DA%AF%D8%B1%E2%80%AD/data=!4m7!3m6!1s0x3be7bf8748bc5d39:0x6861ea81ff1bbbac!8m2!3d19.1627592!4d73.020909!16s%2Fg%2F11hdq9snjz!19sChIJOV28SIe_5zsRrLsb_4HqYWg?authuser=0&hl=en&rclk=1","19.1627592,73.020909"
Dargah Masjid,Mosque,"5XRG+FW9 Dargah Masjid, Juhu Chandan Society, Jambli Naka, Thane West, Thane, Maharashtra 400601","Juhu Chandan Society, Jambli Naka, Thane West",5XRG+FW9,Thane,400601,Maharashtra,IN,https://www.google.com/maps/place/Dargah+Masjid/data=!4m7!3m6!1s0x3be7b9b687539dbb:0x9bea0ae1c48965cb!8m2!3d19.1911561!4d72.9773647!16s%2Fg%2F11fhnkh220!19sChIJu51Th7a55zsRy2WJxOEK6ps?authuser=0&hl=en&rclk=1,"19.1911561,72.9773647"
Faizan e attar mosque,Mosque,"Faizan e attar mosque, B/101,, B/101, Mumbai - Pune Rd, Uday Nagar, Shailesh Nagar, Mumbra, Thane, Maharashtra 400612","Uday Nagar, Shailesh Nagar, Mumbra","B/101,, B/101, Mumbai - Pune Rd",Thane,400612,Maharashtra,IN,https://www.google.com/maps/place/Faizan+e+attar+mosque/data=!4m7!3m6!1s0x3be7bf1e95929803:0xa2d2716be570de1b!8m2!3d19.186477!4d73.0221535!16s%2Fg%2F11csbmb8mp!19sChIJA5iSlR6_5zsRG95w5Wtx0qI?authuser=0&hl=en&rclk=1,"19.186477,73.0221535"
Masjid Hidayat Rasool - msjd hdyt rswl ,Mosque,"529G+VR7 Masjid Hidayat Rasool - msjd hdyt rswl , Moulana Azad Rd, Daulat Nagar, Greenfield Housing Society, Kausa, Mumbra, Thane, Maharashtra 400612","Daulat Nagar, Greenfield Housing Society, Kausa, Mumbra","529G+VR7, Moulana Azad Rd",Thane,400612,Maharashtra,IN,https://www.google.com/maps/place/Masjid+Hidayat+Rasool+-+%D9%85%D8%B3%D8%AC%D8%AF+%DB%81%D8%AF%D8%A7%DB%8C%D8%AA+%D8%B1%D8%B3%D9%88%D9%84+%EF%B7%BA%E2%80%AD/data=!4m7!3m6!1s0x3be7bfe600a5ef41:0x9fd9122a36403826!8m2!3d19.1696607!4d73.0270561!16s%2Fg%2F11h6v17tpp!19sChIJQe-lAOa_5zsRJjhANioS2Z8?authuser=0&hl=en&rclk=1,"19.169660699999998,73.0270561"
Masjid,Mosque,"52JC+HPJ Masjid, Ilthan, Anand Koliwada, Mumbra, Thane, Maharashtra 400612","Ilthan, Anand Koliwada, Mumbra",52JC+HPJ,Thane,400612,Maharashtra,IN,https://www.google.com/maps/place/Masjid/data=!4m7!3m6!1s0x3be7bf000c186c6b:0xba7a67a843093aba!8m2!3d19.1814646!4d73.0217738!16s%2Fg%2F11g4dflv80!19sChIJa2wYDAC_5zsRujoJQ6hnero?authuser=0&hl=en&rclk=1,"19.181464599999998,73.02177379999999"
Maqsood nagar masjid,Mosque,"Maqsood nagar masjid, Maqsood nagar, Almas colony, 21, Mumbai - Pune Rd, Wafa Park, Tetavli, Kausa, Mumbra, Thane, Maharashtra 400612","Wafa Park, Tetavli, Kausa, Mumbra","Maqsood nagar, Almas colony, 21, Mumbai - Pune Rd",Thane,400612,Maharashtra,IN,https://www.google.com/maps/place/Maqsood+nagar+masjid/data=!4m7!3m6!1s0x3be7bf3fa5592f4d:0x9d0f26495a593774!8m2!3d19.1671167!4d73.0231983!16s%2Fg%2F11qn3s3k00!19sChIJTS9ZpT-_5zsRdDdZWkkmD50?authuser=0&hl=en&rclk=1,"19.167116699999998,73.02319829999999"
Masjid,Mosque,"6W2R+5RW Masjid, Near Municipal Garden, Ram Nagar, Rd Number 28, Wagle Industrial Estate, Thane, 400604","Wagle Industrial Estate, Thane West","6W2R+5RW, Near Municipal Garden, Ram Nagar, Rd Number 28",Thane,400604,Maharashtra,IN,https://www.google.com/maps/place/Masjid/data=!4m7!3m6!1s0x3be7b99a15cde8b1:0xd28d3db20c7ee711!8m2!3d19.2004807!4d72.9420863!16s%2Fg%2F11gj5xm8kv!19sChIJsejNFZq55zsREed-DLI9jdI?authuser=0&hl=en&rclk=1,"19.2004807,72.9420863"
Mohammedi Masjid,Mosque,"6XFH+5F7 Mohammedi Masjid, Dhokali, Kolshet Rd, Kailash Nagar, Thane West, Thane, Maharashtra 400607","Kailash Nagar, Thane West","6XFH+5F7, Dhokali, Kolshet Rd",Thane,400607,Maharashtra,IN,https://www.google.com/maps/place/Mohammedi+Masjid/data=!4m7!3m6!1s0x3be7b93d2e2f2b9b:0xc87df33670b5f6e2!8m2!3d19.2229009!4d72.9786645!16s%2Fg%2F11hz38nb02!19sChIJmysvLj255zsR4va1cDbzfcg?authuser=0&hl=en&rclk=1,"19.2229009,72.9786645"
Nawabiya Masjid,Mosque,"6W3W+P7Q Nawabiya Masjid, Hanuman Nagar, Wagle Industrial Estate, Thane West, Thane, Maharashtra 400604","Hanuman Nagar, Wagle Industrial Estate, Thane West",6W3W+P7Q,Thane,400604,Maharashtra,IN,https://www.google.com/maps/place/Nawabiya+Masjid/data=!4m7!3m6!1s0x3be7b9a079efccab:0xe62f6eddc437bf2a!8m2!3d19.2043428!4d72.9457379!16s%2Fg%2F11gbl3_td8!19sChIJq8zveaC55zsRKr83xN1uL-Y?authuser=0&hl=en&rclk=1,"19.2043428,72.9457379"
"Darul Uloom Gausiya, Gulshan-E-Raza Masjid",Mosque,"52R2+94H Darul Uloom Gausiya, Gulshan-E-Raza Masjid, Vaghoba Nagar, Bhola Nagar, Kalwa, Thane, Maharashtra 400605","Vaghoba Nagar, Bhola Nagar, Kalwa",52R2+94H,Thane,400605,Maharashtra,IN,"https://www.google.com/maps/place/Darul+Uloom+Gausiya,+Gulshan-E-Raza+Masjid/data=!4m7!3m6!1s0x3be7bf356f4cae9b:0x833704ea6ea7a374!8m2!3d19.1907131!4d73.0004657!16s%2Fg%2F11pcxtnqq0!19sChIJm65MbzW_5zsRdKOnbuoEN4M?authuser=0&hl=en&rclk=1","19.1907131,73.00046569999999"
Madarasa Ahle Hadees Masjid,Mosque,"Madarasa Ahle Hadees Masjid, Abdul Hameed Marg, Kalwa West, Takoli, Budhaji Nagar, Kalwa, Thane, Maharashtra 400605","Kalwa West, Takoli, Budhaji Nagar, Kalwa",Abdul Hameed Marg,Thane,400605,Maharashtra,IN,https://www.google.com/maps/place/Madarasa+Ahle+Hadees+Masjid/data=!4m7!3m6!1s0x3be7b987bc441925:0xc431e152a17875d0!8m2!3d19.193458!4d72.9884966!16s%2Fg%2F11s8kbb5r3!19sChIJJRlEvIe55zsR0HV4oVLhMcQ?authuser=0&hl=en&rclk=1,"19.193458,72.98849659999999"
Dargah masjid drgh msjd,Mosque,"Dargah masjid drgh msjd, 101, Dargah Rd, Amrut Nagar, Sonaji Nagar, Mumbra, Thane, Maharashtra 400612","Amrut Nagar, Sonaji Nagar, Mumbra","101, Dargah Rd",Thane,400612,Maharashtra,IN,https://www.google.com/maps/place/Dargah+masjid+%D8%AF%D8%B1%DA%AF%D8%A7%DB%81+%D9%85%D8%B3%D8%AC%D8%AF%E2%80%AD/data=!4m7!3m6!1s0x3be7bf9bc71a397f:0x5ec93b81c0909acc!8m2!3d19.1739582!4d73.0199734!16s%2Fg%2F11k4sw7r8s!19sChIJfzkax5u_5zsRzJqQwIE7yV4?authuser=0&hl=en&rclk=1,"19.173958199999998,73.0199734"
Masjid-e-Fatima & Madrasa,Mosque,"Masjid-e-Fatima & Madrasa, Kashyap Apartment, Mumbai - Pune Rd, Uday Nagar, Ilthan, Mumbra, Thane, Maharashtra 400612","Uday Nagar, Ilthan, Mumbra","Kashyap Apartment, Mumbai - Pune Rd",Thane,400612,Maharashtra,IN,https://www.google.com/maps/place/Masjid-e-Fatima+%26+Madrasa/data=!4m7!3m6!1s0x3be7bf1eee2f5e7b:0x628ef418a3c8b0b4!8m2!3d19.1870618!4d73.0208327!16s%2Fg%2F11ggr_bdxd!19sChIJe14v7h6_5zsRtLDIoxj0jmI?authuser=0&hl=en&rclk=1,"19.1870618,73.0208327"
Bilal Masjid (Ahle Sunnat Wal Jamaat),Mosque,"52FG+W79 Bilal Masjid (Ahle Sunnat Wal Jamaat), Amrut Nagar, Mumbra, Thane, Maharashtra 400612","Amrut Nagar, Mumbra",52FG+W79,Thane,400612,Maharashtra,IN,https://www.google.com/maps/place/Bilal+Masjid+%28Ahle+Sunnat+Wal+Jamaat%29/data=!4m7!3m6!1s0x3be7bf1176327831:0xd5347280c8055d8!8m2!3d19.1747909!4d73.0257246!16s%2Fg%2F11fxvl6vsv!19sChIJMXgydhG_5zsR2FWADChHUw0?authuser=0&hl=en&rclk=1,"19.174790899999998,73.0257246"
Masjid Ali ibne Abi Talib,Mosque,"52C9+MJW Masjid Ali ibne Abi Talib, Near Mountain Valley, Azad Nagar, Khadi Machine Rd, Mumbra, Thane, Maharashtra 400612","Sonaji Nagar, Mumbra","52C9+MJW, Near Mountain Valley, Azad Nagar, Khadi Machine Rd",Thane,400612,Maharashtra,IN,https://www.google.com/maps/place/Masjid+Ali+ibne+Abi+Talib/data=!4m7!3m6!1s0x3be7bf433fe3778f:0x3273a8ef15ced408!8m2!3d19.1717404!4d73.0190818!16s%2Fg%2F11h0zf7_b2!19sChIJj3fjP0O_5zsRCNTOFe-oczI?authuser=0&hl=en&rclk=1,"19.1717404,73.0190818"
Masjid,Mosque,"42WV+3W4 Masjid, Kalyan - Shilphata Rd, Shilphata, Thane, Maharashtra 421204",Shilphata,"42WV+3W4, Kalyan - Shilphata Rd",Thane,,Maharashtra,IN,https://www.google.com/maps/place/Masjid/data=!4m7!3m6!1s0x3be7c15fc276c22d:0x183181962fed3cf6!8m2!3d19.1451359!4d73.0448403!16s%2Fg%2F11ndxz9j1z!19sChIJLcJ2wl_B5zsR9jztL5aBMRg?authuser=0&hl=en&rclk=1,"19.1451359,73.04484029999999"
Faizane Raza Madarsa and masjid,Mosque,"Faizane Raza Madarsa and masjid, 11, Slum Area, Kharegaon, Kalwa, Thane, Maharashtra 400605","Slum Area, Kharegaon, Kalwa",11,Thane,400605,Maharashtra,IN,https://www.google.com/maps/place/Faizane+Raza+Madarsa+and+masjid/data=!4m7!3m6!1s0x3be7bfcc664514f5:0x1ec9361859d4b1c!8m2!3d19.1938136!4d72.9992855!16s%2Fg%2F11t053k2dn!19sChIJ9RRFZsy_5zsRHEudhWGT7AE?authuser=0&hl=en&rclk=1,"19.1938136,72.9992855"
Masjid e Qadriya - msjdi qdryh,Mosque,"52PC+W9G Masjid e Qadriya - msjdi qdryh, Shailesh Nagar, Mumbra, Thane, Maharashtra 400612","Shailesh Nagar, Mumbra",52PC+W9G,Thane,400612,Maharashtra,IN,https://www.google.com/maps/place/Masjid+e+Qadriya+-+%D9%85%D8%B3%D8%AC%D8%AF%D9%90+%D9%82%D8%A7%D8%AF%D8%B1%DB%8C%DB%81%E2%80%AD/data=!4m7!3m6!1s0x3be7bfdb0bf6dfcd:0x4ab3457309c0bdea!8m2!3d19.1873036!4d73.020942!16s%2Fg%2F11tmy0npkk!19sChIJzd_2C9u_5zsR6r3ACXNFs0o?authuser=0&hl=en&rclk=1,"19.1873036,73.02094199999999"
Dargah Hazrat Shaikh Hasan Shah Qadri,Mosque,"Dargah Hazrat Shaikh Hasan Shah Qadri, 8, Ghodbunder Rd, Samata Nagar, Sainath Nagar, Majiwada, Thane, Maharashtra 400601","Samata Nagar, Sainath Nagar, Majiwada","8, Ghodbunder Rd",Thane,400601,Maharashtra,IN,https://www.google.com/maps/place/Dargah+Hazrat+Shaikh+Hasan+Shah+Qadri/data=!4m7!3m6!1s0x3be7b90cd1d6abad:0x42093b1a25aedf8d!8m2!3d19.2164263!4d72.9784576!16s%2Fg%2F11gy4wff5j!19sChIJravW0Qy55zsRjd-uJRo7CUI?authuser=0&hl=en&rclk=1,"19.2164263,72.9784576"
Sunni Raza masjid,Mosque,"Sunni Raza masjid, JaiBhim Nagar-2, ,MIDC Pipeline, behind Manisha nagar, Kalwa, Thane, Maharashtra 400605","Mahatma Jyotiba Phule Nagar, Kharegaon, Kalwa","JaiBhim Nagar-2, ,MIDC Pipeline, behind Manisha nagar",Thane,400605,Maharashtra,IN,https://www.google.com/maps/place/Sunni+Raza+masjid/data=!4m7!3m6!1s0x3be7bfa52726f0c7:0xb61f33d3beddf9f8!8m2!3d19.2053519!4d72.9941471!16s%2Fg%2F11r36bb_y5!19sChIJx_AmJ6W_5zsR-PndvtMzH7Y?authuser=0&hl=en&rclk=1,"19.2053519,72.99414709999999"
Masjid-E-Imame-Azam(msjd mm '`Zam),Mosque,"52GG+3G7 Masjid-E-Imame-Azam(msjd mm '`Zam), Amrut Nagar, Mumbra, Thane, Maharashtra 400612","Amrut Nagar, Mumbra",52GG+3G7,Thane,400612,Maharashtra,IN,https://www.google.com/maps/place/Masjid-E-Imame-Azam%28%D9%85%D8%B3%D8%AC%D8%AF+%D8%A7%D9%85%D8%A7%D9%85+%D8%A3%D8%B9%D8%B8%D9%8E%D9%85%29%E2%80%AD/data=!4m7!3m6!1s0x3be7bf11990f95a1:0xbbdc680470e0361!8m2!3d19.1751511!4d73.026283!16s%2Fg%2F11fxwbsxk8!19sChIJoZUPmRG_5zsRYQMOR4DGvQs?authuser=0&hl=en&rclk=1,"19.1751511,73.02628299999999"
Kadriya masjid o madarsa,Mosque,"Kadriya masjid o madarsa, Ambika Yoga Kutir, Hardas Nagar, Azad Nagar I, Thane West, Thane, Maharashtra 400601","Hardas Nagar, Azad Nagar I, Thane West",Ambika Yoga Kutir,Thane,400601,Maharashtra,IN,https://www.google.com/maps/place/Kadriya+masjid+o+madarsa/data=!4m7!3m6!1s0x3be7b970c0997b55:0x9eddb2cb3b82a68d!8m2!3d19.2070323!4d72.9772888!16s%2Fg%2F11h6m7vmf7!19sChIJVXuZwHC55zsRjaaCO8uy3Z4?authuser=0&hl=en&rclk=1,"19.207032299999998,72.9772888"
Dhobi ali masjid,Mosque,"5XXG+FM6 Dhobi ali masjid, Sonumiya Rd, Dhobi Ali, Charai, Thane West, Thane, Maharashtra 400601","Dhobi Ali, Charai, Thane West","5XXG+FM6, Sonumiya Rd",Thane,400601,Maharashtra,IN,https://www.google.com/maps/place/Dhobi+ali+masjid/data=!4m7!3m6!1s0x3be7b9913cd06bfb:0x8dd67d87aa96e2cf!8m2!3d19.1986664!4d72.9766531!16s%2Fg%2F11nnvxgk2s!19sChIJ-2vQPJG55zsRz-KWqod91o0?authuser=0&hl=en&rclk=1,"19.1986664,72.9766531"
Masjid & Madrasa Dare Arkam,Mosque,"Masjid & Madrasa Dare Arkam, Mahatma Jyotiba Phule Nagar, Kharegaon, Kalwa, Thane, Maharashtra 400605","Mahatma Jyotiba Phule Nagar, Kharegaon, Kalwa",,Thane,,Maharashtra,IN,https://www.google.com/maps/place/Masjid+%26+Madrasa+Dare+Arkam/data=!4m7!3m6!1s0x3be7bf6661a01069:0x918c7a12d2bbaa5!8m2!3d19.2032424!4d72.994035!16s%2Fg%2F11v5zwmp5d!19sChIJaRCgYWa_5zsRpborLaHHGAk?authuser=0&hl=en&rclk=1,"19.2032424,72.994035"
Gazi Madina Masjid,Mosque,"52Q9+WWM Gazi Madina Masjid, Aalishan road, Ilthan, Mumbra, Thane, Maharashtra 400612","Ilthan, Hill Area, Mumbra","52Q9+WWM, Aalishan road",Thane,400612,Maharashtra,IN,https://www.google.com/maps/place/Gazi+Madina+Masjid/data=!4m7!3m6!1s0x3be7bf19e94175a9:0x9e78872cc788249e!8m2!3d19.189835!4d73.019801!16s%2Fg%2F11pkct2t9p!19sChIJqXVB6Rm_5zsRniSIxyyHeJ4?authuser=0&hl=en&rclk=1,"19.189835,73.019801"
Noor Mohammadi Masjid,Mosque,"Noor Mohammadi Masjid, near AMAN COMPLEX, Shivaji Nagar, Sonaji Nagar, Mumbra, Thane, Maharashtra 400612","Shivaji Nagar, Sonaji Nagar, Mumbra",near AMAN COMPLEX,Thane,400612,Maharashtra,IN,https://www.google.com/maps/place/Noor+Mohammadi+Masjid/data=!4m7!3m6!1s0x3be7bf1438897e7f:0x23ecec046ba74943!8m2!3d19.1724188!4d73.0196809!16s%2Fg%2F11qg675vdc!19sChIJf36JOBS_5zsRQ0mnawTs7CM?authuser=0&hl=en&rclk=1,"19.1724188,73.0196809"
Chistiya masjid,Mosque,"6W4W+F2W Chistiya masjid, Rd Number 28, Hanuman Nagar, Wagle Industrial Estate, Thane West, Thane, Maharashtra 400604","Hanuman Nagar, Wagle Industrial Estate, Thane West","6W4W+F2W, Rd Number 28",Thane,400604,Maharashtra,IN,https://www.google.com/maps/place/Chistiya+masjid/data=!4m7!3m6!1s0x3be7b90574be99c5:0x3152aa711e51d6c!8m2!3d19.2062301!4d72.9450734!16s%2Fg%2F11h61r6g1r!19sChIJxZm-dAW55zsRbB3lEacqFQM?authuser=0&hl=en&rclk=1,"19.2062301,72.9450734"
Ajmeri masjid,Mosque,"Ajmeri masjid, 401 B islmia c.h.s, Almas Colony, Sainik, Kausa, Mumbra, Thane, Maharashtra 400612","Almas Colony, Sainik, Kausa, Mumbra",401 B islmia c.h.s,Thane,400612,Maharashtra,IN,https://www.google.com/maps/place/Ajmeri+masjid/data=!4m7!3m6!1s0x3be7bf67cb79f771:0x858aa391e7aa6381!8m2!3d19.1639454!4d73.0218531!16s%2Fg%2F11q57qw3hn!19sChIJcfd5y2e_5zsRgWOq55GjioU?authuser=0&hl=en&rclk=1,"19.1639454,73.0218531"
Masjid,Mosque,"5XRW+Q4W Masjid, Slum Area, Kharegaon, Kalwa, Thane, Maharashtra 400605","Slum Area, Kharegaon, Kalwa",5XRW+Q4W,Thane,400605,Maharashtra,IN,https://www.google.com/maps/place/Masjid/data=!4m7!3m6!1s0x3be7bff76f29254b:0x2c687953a9c49f06!8m2!3d19.1919777!4d72.995337!16s%2Fg%2F11mb68nkg4!19sChIJSyUpb_e_5zsRBp_EqVN5aCw?authuser=0&hl=en&rclk=1,"19.1919777,72.99533699999999"
MANARE mASJID,Mosque,"6W3X+QVW MANARE mASJID, car+transport+service+thane,Indira Nagar Wagle Industrial Estate, car+transport+service+mumbai, Thane West, Thane, Maharashtra 400604","Indira Nagar, Wagle Industrial Estate, Thane West","6W3X+QVW, car+transport+service+thane,Indira Nagar Wagle Industrial Estate, car+transport+service+mumbai",Thane,400604,Maharashtra,IN,https://www.google.com/maps/place/MANARE+mASJID/data=!4m7!3m6!1s0x3be7b949aadc5821:0x9611fa351286f1d2!8m2!3d19.2044793!4d72.9497102!16s%2Fg%2F11q27qmc5x!19sChIJIVjcqkm55zsR0vGGEjX6EZY?authuser=0&hl=en&rclk=1,"19.2044793,72.9497102"
Masjid,Mosque,"7XF6+H59 Masjid, Ovala Naka, Owale, Thane West, Thane, Maharashtra 400615","Ovala Naka, Owale, Thane West",7XF6+H59,Thane,400615,Maharashtra,IN,https://www.google.com/maps/place/Masjid/data=!4m7!3m6!1s0x3be7bb730cc36999:0x8ef3e06d5005dd23!8m2!3d19.2739117!4d72.9604903!16s%2Fg%2F11svtddjfh!19sChIJmWnDDHO75zsRI90FUG3g844?authuser=0&hl=en&rclk=1,"19.2739117,72.9604903"
