name,main_category,address,address_ward,address_street,address_city,address_postal_code,address_state,address_country_code,link,coordinates
Masjid-e-Ibad Ur Rahman,Mosque,"Masjid-e-Ibad Ur Rahman, 9-8-110/C/41, Dhankota Rd, near Fateh Darwaza, Dhankota, Saleh Nagar, Golconda Fort, Hyderabad, Telangana 500008","Dhankota, Saleh Nagar, Golconda Fort","9-8-110/C/41, Dhankota Rd, near Fateh Darwaza",Hyderabad,500008,Telangana,IN,https://www.google.com/maps/place/Masjid-e-Ibad+Ur+Rahman/data=!4m7!3m6!1s0x3bcb96f5f1aa623f:0xa942d5c8b980d481!8m2!3d17.3776952!4d78.41244!16s%2Fg%2F12qg8ywz6!19sChIJP2Kq8fWWyzsRgdSAucjVQqk?authuser=0&hl=en&rclk=1,"17.377695199999998,78.41243999999999"
Masjid Abdullah bin saif,Mosque,"G7FJ+988 Masjid Abdullah bin saif, Unnamed Road, Marks Nagar Colony, Sreeram Nagar Colony, Patancheruvu, Hyderabad, Telangana 502319","Marks Nagar Colony, Sreeram Nagar Colony","G7FJ+988, Unnamed Road","Patancheruvu, Hyderabad",502319,Telangana,IN,https://www.google.com/maps/place/Masjid+Abdullah+bin+saif/data=!4m7!3m6!1s0x3bcbf2ba8a2dcebb:0xeb17a84d8f935e1c!8m2!3d17.5234481!4d78.2806713!16s%2Fg%2F11c52c4tl3!19sChIJu84tirryyzsRHF6Tj02oF-s?authuser=0&hl=en&rclk=1,"17.5234481,78.2806713"
"MASJID E MOINUDDIN ZAHED, MAKTAB HAZRAT UMAR FAROOQ R.Z",Mosque,"MASJID E MOINUDDIN ZAHED, MAKTAB HAZRAT UMAR FAROOQ R.Z, SUNNAM BATTI, Edla Wada, Mancherial, Telangana 504208",,"SUNNAM BATTI, Edla Wada",Mancherial,504208,Telangana,IN,"https://www.google.com/maps/place/MASJID+E+MOINUDDIN+ZAHED,+MAKTAB+HAZRAT+UMAR+FAROOQ+R.Z/data=!4m7!3m6!1s0x3a32cbd20eb48977:0x15c91af9fdef8ae3!8m2!3d18.8653693!4d79.4573734!16s%2Fg%2F11swy46385!19sChIJd4m0DtLLMjoR44rv_fkayRU?authuser=0&hl=en&rclk=1","18.865369299999998,79.4573734"
Razvi TAiLORS masjid e Bilal,Mosque,"3F6V+V6V Razvi TAiLORS masjid e Bilal, Bellampalle, Telangana 504251",,3F6V+V6V,Bellampalle,504251,Telangana,IN,https://www.google.com/maps/place/Razvi+TAiLORS+masjid+e+Bilal/data=!4m7!3m6!1s0x3a32b10ed88c3029:0x4f65cd5899f32fc8!8m2!3d19.0622332!4d79.4930366!16s%2Fg%2F11f62g5tr5!19sChIJKTCM2A6xMjoRyC_zmVjNZU8?authuser=0&hl=en&rclk=1,"19.062233199999998,79.4930366"
Al-Masjid Al-Salafiyya Umm Ul Momineen Aisha Siddiqa Raadhiallahu Anha,Mosque,"Al-Masjid Al-Salafiyya Umm Ul Momineen Aisha Siddiqa Raadhiallahu Anha, 1-3-186, Indira Market, Kagaznagar, Telangana 504296",Ward Number 3,"1-3-186, Indira Market",Kagaznagar,504296,Telangana,IN,https://www.google.com/maps/place/Al-Masjid+Al-Salafiyya+Umm+Ul+Momineen+Aisha+Siddiqa+Raadhiallahu+Anha/data=!4m7!3m6!1s0x3a2d57122ab10c9b:0x2366cf8f27649544!8m2!3d19.343273!4d79.483942!16s%2Fg%2F11px9yb4sd!19sChIJmwyxKhJXLToRRJVkJ4_PZiM?authuser=0&hl=en&rclk=1,"19.343273,79.483942"
Jama Masjid,Mosque,"MGGQ+F5Q Jama Masjid, Jama Masjid Rd, Mahalaxmiwada, Adilabad, Telangana 504001",Mahalaxmiwada,"MGGQ+F5Q, Jama Masjid Rd",Adilabad,504001,Telangana,IN,https://www.google.com/maps/place/Jama+Masjid/data=!4m7!3m6!1s0x3bd25c75f87e8a01:0x25a95ee1fbab37d0!8m2!3d19.6762137!4d78.5379985!16s%2Fg%2F1tlqnfwv!19sChIJAYp--HVc0jsR0Der--FeqSU?authuser=0&hl=en&rclk=1,"19.676213699999998,78.5379985"
Gulzaar Masjid,Mosque,"MGCR+66Q Gulzaar Masjid, Bokkalguda St, Brahmanwadi, Adilabad, Telangana 504001",Brahmanwadi,"MGCR+66Q, Bokkalguda St",Adilabad,504001,Telangana,IN,https://www.google.com/maps/place/Gulzaar+Masjid/data=!4m7!3m6!1s0x3bd25c7477d00337:0x3dc61fe7489f62b1!8m2!3d19.6704596!4d78.5395986!16s%2Fg%2F1tcz6sjz!19sChIJNwPQd3Rc0jsRsWKfSOcfxj0?authuser=0&hl=en&rclk=1,"19.670459599999997,78.53959859999999"
Masjid E Mahboobia,Mosque,"38RV+23Q Masjid E Mahboobia, Madina colony, Eidgoan, Nirmal, Telangana 504106",Eidgoan,"38RV+23Q, Madina colony",Nirmal,504106,Telangana,IN,https://www.google.com/maps/place/Masjid+E+Mahboobia/data=!4m7!3m6!1s0x3bcd8c7cc72f32ad:0xc87a1e0f04aa3a5d!8m2!3d19.0900799!4d78.3427318!16s%2Fg%2F11b6njqqlh!19sChIJrTIvx3yMzTsRXTqqBA8eesg?authuser=0&hl=en&rclk=1,"19.0900799,78.3427318"
Madina Masjid,Mosque,"Madina Masjid, Government Junior College, Bhainsa, Telangana 504103",,Government Junior College,Bhainsa,504103,Telangana,IN,https://www.google.com/maps/place/Madina+Masjid/data=!4m7!3m6!1s0x3bcdfe5aef2fd1e3:0x48c8397dc97ab0f6!8m2!3d19.1096769!4d77.9643594!16s%2Fg%2F11b7w99d4p!19sChIJ49Ev71r-zTsR9rB6yX05yEg?authuser=0&hl=en&rclk=1,"19.1096769,77.96435939999999"
Masjid Panjesha,Mosque,"Masjid Panjesha, masjid, panjesha marg, Bhainsa, Telangana 504103",,"masjid, panjesha marg",Bhainsa,,Telangana,IN,https://www.google.com/maps/place/Masjid+Panjesha/data=!4m7!3m6!1s0x3bcdfe45594b318b:0xa9a4527a0d3bdd4e!8m2!3d19.1114013!4d77.9614446!16s%2Fg%2F11xfvxc4m!19sChIJizFLWUX-zTsRTt07DXpSpKk?authuser=0&hl=en&rclk=1,"19.1114013,77.9614446"
Masjid e Noor Khursheed Nagar,Mosque,"Masjid e Noor Khursheed Nagar, khursheed Nagar, Adilabad, Telangana 504001",khursheed Nagar,,Adilabad,,Telangana,IN,https://www.google.com/maps/place/Masjid+e+Noor+Khursheed+Nagar/data=!4m7!3m6!1s0x3bd25b7f77891187:0xd64d9d2522c68201!8m2!3d19.6780656!4d78.5199255!16s%2Fg%2F1pp2x6dd1!19sChIJhxGJd39b0jsRAYLGIiWdTdY?authuser=0&hl=en&rclk=1,"19.6780656,78.5199255"
Mohammadia Masjid,Mosque,"MGFH+M8P Mohammadia Masjid, NH 44, Vidya Nagar, Adilabad, Telangana 504001",Vidya Nagar,"MGFH+M8P, NH 44",Adilabad,504001,Telangana,IN,https://www.google.com/maps/place/Mohammadia+Masjid/data=!4m7!3m6!1s0x3bd25c7892a2eb3b:0x89c3b0daf8ff360!8m2!3d19.6742243!4d78.5283275!16s%2Fg%2F1tjz1t_5!19sChIJO-uiknhc0jsRYPOPrw07nAg?authuser=0&hl=en&rclk=1,"19.6742243,78.5283275"
Masjid e Khadim,Mosque,"974W+GHR Masjid e Khadim, Asifabad, Telangana 504293",,974W+GHR,Asifabad,504293,Telangana,IN,https://www.google.com/maps/place/Masjid+e+Khadim/data=!4m7!3m6!1s0x3bd2ac0487a9f291:0x6fbe7074c3de740b!8m2!3d19.3563518!4d79.2964018!16s%2Fg%2F11cjj61r0q!19sChIJkfKphwSs0jsRC3Tew3Rwvm8?authuser=0&hl=en&rclk=1,"19.3563518,79.2964018"
Eid-Gah,Mosque,"4XC4+J65 Eid-Gah, Palsi Road, Telangana 504103",,"4XC4+J65, Palsi Road",,504103,Telangana,IN,https://www.google.com/maps/place/Eid-Gah/data=!4m7!3m6!1s0x3bcdfe4b41f2b35b:0x49272df21ed88662!8m2!3d19.1215231!4d77.9556209!16s%2Fg%2F11b7lhbkzd!19sChIJW7PyQUv-zTsRYobYHvItJ0k?authuser=0&hl=en&rclk=1,"19.121523099999997,77.9556209"
MASJID-E-MOMINAN,Mosque,"4X76+4V9 MASJID-E-MOMINAN, mominan Galli, Siddhartha Nagar, Bhainsa, Telangana 504103",Siddhartha Nagar,"4X76+4V9, mominan Galli",Bhainsa,504103,Telangana,IN,https://www.google.com/maps/place/MASJID-E-MOMINAN/data=!4m7!3m6!1s0x3bcdfe4fe1772615:0x1ea8449dd9031e42!8m2!3d19.1127883!4d77.9622459!16s%2Fg%2F11bymwdg7g!19sChIJFSZ34U_-zTsRQh4D2Z1EqB4?authuser=0&hl=en&rclk=1,"19.1127883,77.9622459"
Masjid e Sahaba & Madarsa Tahfiz ul Quraan,Mosque,"Masjid e Sahaba & Madarsa Tahfiz ul Quraan, NAWAZISH NAGAR, Asifabad, Telangana 504293",,NAWAZISH NAGAR,Asifabad,504293,Telangana,IN,https://www.google.com/maps/place/Masjid+e+Sahaba+%26+Madarsa+Tahfiz+ul+Quraan/data=!4m7!3m6!1s0x3bd2aea7c6631baf:0x62b87d4b00422aba!8m2!3d19.3598125!4d79.2883125!16s%2Fg%2F113dzbrlr!19sChIJrxtjxqeu0jsRuipCAEt9uGI?authuser=0&hl=en&rclk=1,"19.3598125,79.28831249999999"
Masjid E Hassan,Mosque,"MG8V+QPM Masjid E Hassan, Unnamed Road, Shanti Nagar, Adilabad, Telangana 504001",Shanti Nagar,"MG8V+QPM, Unnamed Road",Adilabad,504001,Telangana,IN,https://www.google.com/maps/place/Masjid+E+Hassan/data=!4m7!3m6!1s0x3bd25c0d29000079:0xa0cc092090b96993!8m2!3d19.6669651!4d78.5443022!16s%2Fg%2F11dfk_8lt4!19sChIJeQAAKQ1c0jsRk2m5kCAJzKA?authuser=0&hl=en&rclk=1,"19.6669651,78.54430219999999"
Masjid-e-Garib Nawaz,Mosque,"MGPP+943 Masjid-e-Garib Nawaz, raza chowk, Jai Jawan Nagar, Tatiguda Colony, Adilabad, Telangana 504001","Kranti Nagar, Tatiguda Colony","MGPP+943, raza chowk, Jai Jawan Nagar",Adilabad,504001,Telangana,IN,https://www.google.com/maps/place/Masjid-e-Garib+Nawaz/data=!4m7!3m6!1s0x3bd25b8e4eca922b:0x9859180dd7cc6aa7!8m2!3d19.6858886!4d78.5352986!16s%2Fg%2F11g889_zry!19sChIJK5LKTo5b0jsRp2rM1w0YWZg?authuser=0&hl=en&rclk=1,"19.6858886,78.53529859999999"
Masjid e Muzdalfa,Mosque,"RM8X+V58 Masjid e Muzdalfa, Vemulawada Road Jagtial District, Korutla, Telangana 505326",Bilalpura,"RM8X+V58, Vemulawada Road Jagtial District",Korutla,505326,Telangana,IN,https://www.google.com/maps/place/Masjid+e+Muzdalfa/data=!4m7!3m6!1s0x3bcd0ae0c20b2b9d:0xd19cc70aa09051c6!8m2!3d18.8171704!4d78.6979487!16s%2Fg%2F11g_6xg4m!19sChIJnSsLwuAKzTsRxlGQoArHnNE?authuser=0&hl=en&rclk=1,"18.8171704,78.6979487"
Jama Masjid,Mosque,"4X76+PG6 Jama Masjid, Bhainsa, Telangana 504103",,4X76+PG6,Bhainsa,504103,Telangana,IN,https://www.google.com/maps/place/Jama+Masjid/data=!4m7!3m6!1s0x3bcdfe4fcb6d4d3b:0x5b221d8cd9bf7450!8m2!3d19.1142804!4d77.961278!16s%2Fg%2F11by_ln6gj!19sChIJO01ty0_-zTsRUHS_2YwdIls?authuser=0&hl=en&rclk=1,"19.1142804,77.961278"
Darul Uloom Siddiqiya,Mosque,"2JXP+FRQ Darul Uloom Siddiqiya, Nirmal - Mancherial Rd, Khanapur, Thimmapur, Telangana 504203",,"2JXP+FRQ, Nirmal - Mancherial Rd","Khanapur, Thimmapur",504203,Telangana,IN,https://www.google.com/maps/place/Darul+Uloom+Siddiqiya/data=!4m7!3m6!1s0x3bcd82be2d60a465:0xf21d1157576bb584!8m2!3d19.0487197!4d78.6371133!16s%2Fg%2F11b77l3wct!19sChIJZaRgLb6CzTsRhLVrV1cRHfI?authuser=0&hl=en&rclk=1,"19.0487197,78.6371133"
Masjid E Firdous,Mosque,"Masjid E Firdous, Utukur, Lakshettipet, Telangana 504215",,,"Utukur, Lakshettipet",,Telangana,IN,https://www.google.com/maps/place/Masjid+E+Firdous/data=!4m7!3m6!1s0x3bcd480ee90e2c3f:0xfcd8f71cabc7c5c8!8m2!3d18.8884431!4d79.2072006!16s%2Fg%2F1td5721r!19sChIJPywO6Q5IzTsRyMXHqxz32Pw?authuser=0&hl=en&rclk=1,"18.8884431,79.2072006"
Masjid E Tayyaba,Mosque,"VF7F+3FH Masjid E Tayyaba, Flood Colony, Naspur, Mancherial, Telangana 504302",Flood Colony,VF7F+3FH,"Naspur, Mancherial",504302,Telangana,IN,https://www.google.com/maps/place/Masjid+E+Tayyaba/data=!4m7!3m6!1s0x3a32c9a33d61e42d:0x67ab2dc79cc1b591!8m2!3d18.8626989!4d79.4737213!16s%2Fg%2F11g4h2ms8d!19sChIJLeRhPaPJMjoRkbXBnMctq2c?authuser=0&hl=en&rclk=1,"18.862698899999998,79.4737213"
Jamiya Masjid Ahlehadees,Mosque,"Jamiya Masjid Ahlehadees, Mortad, Telangana 503225",,,Mortad,,Telangana,IN,https://www.google.com/maps/place/Jamiya+Masjid+Ahlehadees/data=!4m7!3m6!1s0x3bcdbd4515e2f7f7:0xa458202683a0de80!8m2!3d18.8146068!4d78.4620595!16s%2Fg%2F1tfpn4lw!19sChIJ9_fiFUW9zTsRgN6ggyYgWKQ?authuser=0&hl=en&rclk=1,"18.8146068,78.4620595"
Abdullah Masjid,Mosque,"M3FR+WQ3 Abdullah Masjid, NRI Colony, Arsapally, Nizamabad, Telangana 503001","NRI Colony, Arsapally",M3FR+WQ3,Nizamabad,503001,Telangana,IN,https://www.google.com/maps/place/Abdullah+Masjid/data=!4m7!3m6!1s0x3bcddb233be2efa7:0xc2aaa7b71845e8eb!8m2!3d18.6747696!4d78.0919267!16s%2Fg%2F11bwl3p7rm!19sChIJp-_iOyPbzTsR6-hFGLenqsI?authuser=0&hl=en&rclk=1,"18.674769599999998,78.0919267"
JAMA MASJID SULTANGUDA,Mosque,"C2RR+XGF JAMA MASJID SULTANGUDA, Sultanguda, Kerimeri, Adilabad, Telangana 504313",Sultanguda,C2RR+XGF,"Kerimeri, Adilabad",,Telangana,IN,https://www.google.com/maps/place/JAMA+MASJID+SULTANGUDA/data=!4m7!3m6!1s0x3bd2bd475cdd2b39:0x2b52fccf2d27bcc0!8m2!3d19.4424339!4d79.0413029!16s%2Fg%2F11d_5drtt9!19sChIJOSvdXEe90jsRwLwnLc_8Uis?authuser=0&hl=en&rclk=1,"19.442433899999997,79.04130289999999"
Budharpet Masjid,Mosque,"483V+F49 Budharpet Masjid, Pinjari Gutta, Nirmal, Telangana 504106",Pinjari Gutta,483V+F49,Nirmal,504106,Telangana,IN,https://www.google.com/maps/place/Budharpet+Masjid/data=!4m7!3m6!1s0x3bcd8b80c2fc5e99:0xbd732aff04f66e07!8m2!3d19.1036542!4d78.3428597!16s%2Fg%2F11dxchc4cr!19sChIJmV78woCLzTsRB272BP8qc70?authuser=0&hl=en&rclk=1,"19.103654199999998,78.34285969999999"
Alamgir Masjid,Mosque,"V8CQ+R2F Alamgir Masjid, Qazi pura balkonda, Balkonda",,"V8CQ+R2F, Qazi pura balkonda",Balkonda,,Telangana,IN,https://www.google.com/maps/place/Alamgir+Masjid/data=!4m7!3m6!1s0x3bcd94ff48e71f77:0x6a2a4a38b4e84e55!8m2!3d18.872074!4d78.3375457!16s%2Fg%2F11csb15bgb!19sChIJdx_nSP-UzTsRVU7otDhKKmo?authuser=0&hl=en&rclk=1,"18.872073999999998,78.33754569999999"
Masjid e Ishaat-e-Islam,Mosque,"MH33+H28 Masjid e Ishaat-e-Islam, Adilabad, Telangana 504001",,MH33+H28,Adilabad,504001,Telangana,IN,https://www.google.com/maps/place/Masjid+e+Ishaat-e-Islam/data=!4m7!3m6!1s0x3bd25c17d761b9e3:0x9051e74decccc3da!8m2!3d19.653917!4d78.552592!16s%2Fg%2F11g9vtzndj!19sChIJ47lh1xdc0jsR2sPM7E3nUZA?authuser=0&hl=en&rclk=1,"19.653917,78.55259199999999"
MASJID-E-BILAL bll msjd,Mosque,"RP92+MP4 MASJID-E-BILAL bll msjd, Korutla, Telangana 505326",,RP92+MP4,Korutla,505326,Telangana,IN,https://www.google.com/maps/place/MASJID-E-BILAL+%D8%A8%D9%84%D8%A7%D9%84+%D9%85%D8%B3%D8%AC%D8%AF%E2%80%AD/data=!4m7!3m6!1s0x3bcd0bd540e16605:0xe48e6d02d37e3261!8m2!3d18.819129!4d78.7018186!16s%2Fg%2F11fcm7nf9x!19sChIJBWbhQNULzTsRYTJ-0wJtjuQ?authuser=0&hl=en&rclk=1,"18.819129,78.7018186"
Osman Masjid,Mosque,"4X47+RJX Osman Masjid, Asad Baba Nagar, Bhainsa, Telangana 504103",Asad Baba Nagar,4X47+RJX,Bhainsa,504103,Telangana,IN,https://www.google.com/maps/place/Osman+Masjid/data=!4m7!3m6!1s0x3bcdfe5b6bc0025d:0x854fb770d38fd2a3!8m2!3d19.107103!4d77.9641068!16s%2Fg%2F11cn6jvztk!19sChIJXQLAa1v-zTsRo9KP03C3T4U?authuser=0&hl=en&rclk=1,"19.107103,77.9641068"
masjid e noor,Mosque,"MG4Q+H92 masjid e noor, Sri Rama Colony, Adilabad, Telangana 504001",Sri Rama Colony,MG4Q+H92,Adilabad,504001,Telangana,IN,https://www.google.com/maps/place/masjid+e+noor/data=!4m7!3m6!1s0x3bd25c6bd009a42f:0x83777eaad70e454d!8m2!3d19.6563983!4d78.5384053!16s%2Fg%2F11c5t1smfj!19sChIJL6QJ0Gtc0jsRTUUO16p-d4M?authuser=0&hl=en&rclk=1,"19.6563983,78.5384053"
Masjid e Khadim,Mosque,"FHHF+MW9 Masjid e Khadim, Pet Mohalla, Sirpur, Telangana 504299",,FHHF+MW9 Pet Mohalla,Sirpur,504299,Telangana,IN,https://www.google.com/maps/place/Masjid+e+Khadim/data=!4m7!3m6!1s0x3a2d45425afd0481:0xbb8003f82b6742d8!8m2!3d19.4791742!4d79.5748539!16s%2Fg%2F11c3w0kdh5!19sChIJgQT9WkJFLToR2EJnK_gDgLs?authuser=0&hl=en&rclk=1,"19.4791742,79.5748539"
Khanka E Mohammadi,Mosque,"MGJV+P72 Khanka E Mohammadi, Tirupally, Adilabad, Telangana 504001",Tirupally,MGJV+P72,Adilabad,504001,Telangana,IN,https://www.google.com/maps/place/Khanka+E+Mohammadi/data=!4m7!3m6!1s0x3bd25bd22744411f:0x22b8cbaf2829e2c7!8m2!3d19.6817626!4d78.5431504!16s%2Fg%2F11g1rbmtkk!19sChIJH0FEJ9Jb0jsRx-IpKK_LuCI?authuser=0&hl=en&rclk=1,"19.6817626,78.5431504"
Masjid-e-Bilall,Diagnostic center,"Masjid-e-Bilall, Bilalpura, Korutla, Telangana 505326",Bilalpura,,Korutla,505326,Telangana,IN,https://www.google.com/maps/place/Masjid-e-Bilall/data=!4m7!3m6!1s0x3bcd0ae0070c6887:0xfc23cdd75824b486!8m2!3d18.8190955!4d78.7017632!16s%2Fg%2F11gzwlr7f!19sChIJh2gMB-AKzTsRhrQkWNfNI_w?authuser=0&hl=en&rclk=1,"18.8190955,78.7017632"
Burhaniya Masjid Pan Galli,Mosque,"38WW+P6V Burhaniya Masjid Pan Galli, Market Rd, Bagulwada, Nirmal, Telangana 504106",Bagulwada,"38WW+P6V, Market Rd",Nirmal,504106,Telangana,IN,https://www.google.com/maps/place/Burhaniya+Masjid+Pan+Galli/data=!4m7!3m6!1s0x3bcd8c794121c375:0xc5851a3786d85199!8m2!3d19.0968567!4d78.345553!16s%2Fg%2F11c5814380!19sChIJdcMhQXmMzTsRmVHYhjcahcU?authuser=0&hl=en&rclk=1,"19.0968567,78.345553"
JAMA masjid Devapur,Mosque,"JF65+PVQ JAMA masjid Devapur, Unnamed Road, Devpur, Telangana 504308",,"JF65+PVQ, Unnamed Road",Devpur,504308,Telangana,IN,https://www.google.com/maps/place/JAMA+masjid+Devapur/data=!4m7!3m6!1s0x3bd24302f69b407f:0x99ca94e9fc151aa!8m2!3d19.6118457!4d78.4597213!16s%2Fg%2F11j2c2qfql!19sChIJf0Cb9gJD0jsRqlHBn06pnAk?authuser=0&hl=en&rclk=1,"19.6118457,78.4597213"
Makka Masjid,Mosque,"CFG3+QPG Makka Masjid, Ichoda, Telangana 504307",,CFG3+QPG,Ichoda,504307,Telangana,IN,https://www.google.com/maps/place/Makka+Masjid/data=!4m7!3m6!1s0x3bd26f985b7ba91f:0xff30f7087fea8336!8m2!3d19.4269309!4d78.4543422!16s%2Fg%2F11fxx3q066!19sChIJH6l7W5hv0jsRNoPqfwj3MP8?authuser=0&hl=en&rclk=1,"19.4269309,78.4543422"
MASJID-E-QUBA,Mosque,"2JPW+5WR MASJID-E-QUBA, Al-Kareem Colony, Khanapur, Telangana 504203",Al-Kareem Colony,2JPW+5WR,Khanapur,,Telangana,IN,https://www.google.com/maps/place/MASJID-E-QUBA/data=!4m7!3m6!1s0x3bcd8321fdc21c5d:0x2b7379e6067077c!8m2!3d19.0354786!4d78.6472701!16s%2Fg%2F11gpncgy65!19sChIJXRzC_SGDzTsRfAdnYJ43twI?authuser=0&hl=en&rclk=1,"19.035478599999998,78.6472701"
Masjid E Salafia,Mosque,"QG53+4R5 Masjid E Salafia, Godavarikhani, Ramagundam, Telangana 505211",Godavarikhani,QG53+4R5,Ramagundam,505211,Telangana,IN,https://www.google.com/maps/place/Masjid+E+Salafia/data=!4m7!3m6!1s0x3a32cefa7dae5bf7:0x5efdb220fc170eec!8m2!3d18.7577625!4d79.5046248!16s%2Fg%2F11g01v3r_8!19sChIJ91uuffrOMjoR7A4X_CCy_V4?authuser=0&hl=en&rclk=1,"18.7577625,79.5046248"
Jama Masjid,Place of worship,"2MR3+56C Jama Masjid, Moghalpura, Khanapur, Telangana 504203",Moghalpura,2MR3+56C,Khanapur,,Telangana,IN,https://www.google.com/maps/place/Jama+Masjid/data=!4m7!3m6!1s0x3bcd82a7026b4805:0x8f6fdf40b983fcca!8m2!3d19.0404294!4d78.6530137!16s%2Fg%2F11b7m9jgn2!19sChIJBUhrAqeCzTsRyvyDuUDfb48?authuser=0&hl=en&rclk=1,"19.0404294,78.6530137"
Bilal Rz Masjid,Mosque,"29C7+8C3 Bilal Rz Masjid, Gamjal, Telangana 504105",,29C7+8C3,Gamjal,504105,Telangana,IN,https://www.google.com/maps/place/Bilal+Rz+Masjid/data=!4m7!3m6!1s0x3bcd8dfd5e8bef41:0x90088cf3276a00b4!8m2!3d19.0207686!4d78.3635425!16s%2Fg%2F11g1dywtz6!19sChIJQe-LXv2NzTsRtABqJ_OMCJA?authuser=0&hl=en&rclk=1,"19.0207686,78.3635425"
Noori Masjid,Mosque,"Noori Masjid, c.c.c, C.C.C Plant Rd, Gandhi nagar, Naspur, Mancherial, Telangana 504302",Gandhi nagar,"c.c.c, C.C.C Plant Rd","Naspur, Mancherial",504302,Telangana,IN,https://www.google.com/maps/place/Noori+Masjid/data=!4m7!3m6!1s0x3a32c9eba6e4957f:0x841ba9258603bdb!8m2!3d18.8687021!4d79.4891449!16s%2Fg%2F11gbz9rzkv!19sChIJf5XkpuvJMjoR2ztgWJK6QQg?authuser=0&hl=en&rclk=1,"18.8687021,79.4891449"
Jama masjid,Mosque,"CFH3+8WC Jama masjid, Ichoda, Telangana 504307",,CFH3+8WC,Ichoda,504307,Telangana,IN,https://www.google.com/maps/place/Jama+masjid/data=!4m7!3m6!1s0x3bd26fcb3b2536e3:0x24b38adada85879e!8m2!3d19.4283175!4d78.454781!16s%2Fg%2F11ppybzh_0!19sChIJ4zYlO8tv0jsRnoeF2tqKsyQ?authuser=0&hl=en&rclk=1,"19.4283175,78.454781"
Nagina Mosque,Mosque,"MGJM+HP5 Nagina Mosque, Tatiguda Colony, Adilabad, Telangana 504001",Tatiguda Colony,MGJM+HP5,Adilabad,504001,Telangana,IN,https://www.google.com/maps/place/Nagina+Mosque/data=!4m7!3m6!1s0x3bd25b4ce49791ef:0x49520374c45c5a0!8m2!3d19.6813908!4d78.5343507!16s%2Fg%2F11h6tjfc17!19sChIJ75GX5Exb0jsRoMVFTDcglQQ?authuser=0&hl=en&rclk=1,"19.6813908,78.53435069999999"
Katkapur Mosque (kttkaapuur msiidu),Mosque,"XVVG+5RF Katkapur Mosque (kttkaapuur msiidu), near pond ( ceruvu dggr, Katkapur, Telangana 505460",,"XVVG+5RF, near pond ( ceruvu dggr",Katkapur,505460,Telangana,IN,https://www.google.com/maps/place/Katkapur+Mosque+%28%E0%B0%95%E0%B0%9F%E0%B1%8D%E0%B0%95%E0%B0%BE%E0%B0%AA%E0%B1%82%E0%B0%B0%E0%B1%8D+%E0%B0%AE%E0%B0%B8%E0%B1%80%E0%B0%A6%E0%B1%81%29/data=!4m7!3m6!1s0x3bcd6fb4c94e53ab:0xa93ccc3c7b6ec293!8m2!3d18.9894705!4d78.8750372!16s%2Fg%2F11fhr7tfd0!19sChIJq1NOybRvzTsRk8JuezzMPKk?authuser=0&hl=en&rclk=1,"18.9894705,78.8750372"
Masjid-E-Aqsa,Mosque,"Masjid-E-Aqsa, Masjid-E-Aqsa Khanapur, Ambedkar Nagar, Khanapur, Telangana 504001",Ambedkar Nagar,Masjid-E-Aqsa Khanapur,Khanapur,504001,Telangana,IN,https://www.google.com/maps/place/Masjid-E-Aqsa/data=!4m7!3m6!1s0x3bd25dcc44670e61:0x730f194bf8b6847d!8m2!3d19.6716338!4d78.5448989!16s%2Fg%2F11j07wlncw!19sChIJYQ5nRMxd0jsRfYS2-EsZD3M?authuser=0&hl=en&rclk=1,"19.6716338,78.54489889999999"
Masjid-E-Zohra,Mosque,"Masjid-E-Zohra, Masjid-E- Zohra, Ambedkar Nagar, Khanapur, Telangana 504001",Ambedkar Nagar,Masjid-E- Zohra,Khanapur,504001,Telangana,IN,https://www.google.com/maps/place/Masjid-E-Zohra/data=!4m7!3m6!1s0x3bd25dbaced23b33:0xe16af2c30b24656!8m2!3d19.6729258!4d78.5447961!16s%2Fg%2F11j000cqb1!19sChIJMzvSzrpd0jsRVkayMCyvFg4?authuser=0&hl=en&rclk=1,"19.672925799999998,78.5447961"
Madina Masjid,Mosque,"2JXR+2QJ Madina Masjid, Bellala Rd, Vidyanagar, Subhash nagar, Khanapur, Thimmapur, Telangana 504203","Vidyanagar, Subhash nagar","2JXR+2QJ Madina Masjid, Bellala Rd","Khanapur, Thimmapur",504203,Telangana,IN,https://www.google.com/maps/place/Madina+Masjid/data=!4m7!3m6!1s0x3bcd838576afb3b7:0x577acc4d6ab0d65d!8m2!3d19.0471158!4d78.6429724!16s%2Fg%2F11k2jqt9dc!19sChIJt7OvdoWDzTsRXdawak3Melc?authuser=0&hl=en&rclk=1,"19.0471158,78.64297239999999"
Makka masjid,Mosque,"4X49+5GM Makka masjid, Owaisi nagar, Bhainsa, Telangana 504103",Owaisi nagar,4X49+5GM,Bhainsa,504103,Telangana,IN,https://www.google.com/maps/place/Makka+masjid/data=!4m7!3m6!1s0x3bcdff0eae709cdd:0x6854d10775edfe3!8m2!3d19.1054591!4d77.9688006!16s%2Fg%2F11j7cswkz7!19sChIJ3Zxwrg7_zTsR499edxBNhQY?authuser=0&hl=en&rclk=1,"19.105459099999997,77.9688006"
Masjide Wahida Unisa,Mosque,"V3V4+QGR Masjide Wahida Unisa, Velgonda, Telangana 505454",,V3V4+QGR,Velgonda,505454,Telangana,IN,https://www.google.com/maps/place/Masjide+Wahida+Unisa/data=!4m7!3m6!1s0x3bcd405b9ee52317:0x8fb1c9f68cb284a!8m2!3d18.8944821!4d79.0562564!16s%2Fg%2F11f15dx9xq!19sChIJFyPlnltAzTsRSijLaJ8c-wg?authuser=0&hl=en&rclk=1,"18.894482099999998,79.0562564"
Masjid-e-Nabawi,Mosque,"3M39+9HV Masjid-e-Nabawi, Dilawarpur Rd, Dilawarpur, Dilwarpur, Telangana 504203",,"3M39+9HV, Dilawarpur Rd","Dilawarpur, Dilwarpur",504203,Telangana,IN,https://www.google.com/maps/place/Masjid-e-Nabawi/data=!4m7!3m6!1s0x3bcd79c0659a9051:0xf6f7fe363db8997d!8m2!3d19.0534835!4d78.6689104!16s%2Fg%2F11jhygrlt6!19sChIJUZCaZcB5zTsRfZm4PTb-9_Y?authuser=0&hl=en&rclk=1,"19.0534835,78.6689104"
Masjid-e-Abdullah,Mosque,"3XR2+J23 Masjid-e-Abdullah, Jannaram - Kalamadugu Rd, Kalmadagu, Telangana 504205",,"3XR2+J23, Jannaram - Kalamadugu Rd",Kalmadagu,504205,Telangana,IN,https://www.google.com/maps/place/Masjid-e-Abdullah/data=!4m7!3m6!1s0x3bcd6660227f8177:0xe67839b827ba0ea4!8m2!3d19.0915155!4d78.9500358!16s%2Fg%2F11hbc1vfry!19sChIJd4F_ImBmzTsRpA66J7g5eOY?authuser=0&hl=en&rclk=1,"19.0915155,78.9500358"
Masjid-e-Hazrat Syedna Ali,Mosque,"Masjid-e-Hazrat Syedna Ali, Tatiguda Colony, Adilabad, Telangana 504001",Tatiguda Colony,,Adilabad,504001,Telangana,IN,https://www.google.com/maps/place/Masjid-e-Hazrat+Syedna+Ali/data=!4m7!3m6!1s0x3bd25b054f1b7477:0xbe5511ba6cbe653a!8m2!3d19.6844778!4d78.5344335!16s%2Fg%2F11h_488z3f!19sChIJd3QbTwVb0jsROmW-bLoRVb4?authuser=0&hl=en&rclk=1,"19.6844778,78.53443349999999"
Jama masjid bela,Mosque,"PQCC+JH9 Jama masjid bela, Bela, Telangana 504309",,PQCC+JH9,Bela,504309,Telangana,IN,https://www.google.com/maps/place/Jama+masjid+bela/data=!4m7!3m6!1s0x3bd2f1488630dd93:0xfcaa6b3e01b7e421!8m2!3d19.7215441!4d78.771485!16s%2Fg%2F11pzkgxv_6!19sChIJk90whkjx0jsRIeS3AT5rqvw?authuser=0&hl=en&rclk=1,"19.7215441,78.771485"
Osmania Masjid,Mosque,"MGGH+J95 Osmania Masjid, Unnamed Road, Osmania Nagar, Adilabad, Telangana 504001",Osmania Nagar,"MGGH+J95, Unnamed Road",Adilabad,504001,Telangana,IN,https://www.google.com/maps/place/Osmania+Masjid/data=!4m7!3m6!1s0x3bd25be4233f9883:0xb2c0a1b37d2b2191!8m2!3d19.6765118!4d78.5284822!16s%2Fg%2F11h76l8r35!19sChIJg5g_I-Rb0jsRkSErfbOhwLI?authuser=0&hl=en&rclk=1,"19.6765118,78.5284822"
Masjid e Abubakar Siddiqe Rz (Ahle Hadees),Mosque,"66W7+CXQ Masjid e Abubakar Siddiqe Rz (Ahle Hadees), Swarna, Ponkur, Telangana 504323",,66W7+CXQ,"Swarna, Ponkur",504323,Telangana,IN,https://www.google.com/maps/place/Masjid+e+Abubakar+Siddiqe+Rz+%28Ahle+Hadees%29/data=!4m7!3m6!1s0x3bd20b47175f92cd:0xcb2bb92ffbba3442!8m2!3d19.2460903!4d78.2149797!16s%2Fg%2F11s0xl6zg7!19sChIJzZJfF0cL0jsRQjS6-y-5K8s?authuser=0&hl=en&rclk=1,"19.2460903,78.2149797"
"Madarsa Jamia Kanzul Iman, Tajushariya Colony",Mosque,"Madarsa Jamia Kanzul Iman, Tajushariya Colony, Tajushshariah colony, sathnala road, Adilabad, Telangana 504001",,"Tajushshariah colony, sathnala road",Adilabad,504001,Telangana,IN,"https://www.google.com/maps/place/Madarsa+Jamia+Kanzul+Iman,+Tajushariya+Colony/data=!4m7!3m6!1s0x3bd25bf7e96ee307:0x951a6fc37998f72e!8m2!3d19.6781047!4d78.5569819!16s%2Fg%2F11tsz_q5km!19sChIJB-Nu6fdb0jsRLveYecNvGpU?authuser=0&hl=en&rclk=1","19.6781047,78.5569819"
Jama MaSjid,Mosque,"69HV+CH5 Jama MaSjid, Bondemregod, Telangana 504323",,69HV+CH5,Bondemregod,504323,Telangana,IN,https://www.google.com/maps/place/Jama+MaSjid/data=!4m7!3m6!1s0x3bd2767193830f55:0xb6bc8cfd60a42707!8m2!3d19.2285041!4d78.393985!16s%2Fg%2F11gf071m2m!19sChIJVQ-Dk3F20jsRByekYP2MvLY?authuser=0&hl=en&rclk=1,"19.2285041,78.393985"
Jama masjid,Mosque,"MC8G+7J9 Jama masjid, Unnamed Road, Umadam, Telangana 504001",,"MC8G+7J9, Unnamed Road",Umadam,504001,Telangana,IN,https://www.google.com/maps/place/Jama+masjid/data=!4m7!3m6!1s0x3bd2438922bc7361:0x90f6ce9e5e66ddca!8m2!3d19.6656543!4d78.426601!16s%2Fg%2F11qsvy6d57!19sChIJYXO8IolD0jsRyt1mXp7O9pA?authuser=0&hl=en&rclk=1,"19.6656543,78.42660099999999"
mosque,Mosque,"WQP8+PM6 mosque, Regunta, Telangana 505331",,WQP8+PM6,Regunta,,Telangana,IN,https://www.google.com/maps/place/mosque/data=!4m7!3m6!1s0x3bcd73e110000001:0xd250bf53bfc9418c!8m2!3d18.9367927!4d78.7666317!16s%2Fg%2F11gfm8l9dz!19sChIJAQAAEOFzzTsRjEHJv1O_UNI?authuser=0&hl=en&rclk=1,"18.936792699999998,78.76663169999999"
Masjid E Abu Bakar,Mosque,"2JXP+GVV Masjid E Abu Bakar, Nirmal - Mancherial Rd, Khanapur, Thimmapur, Telangana 504203",,"2JXP+GVV, Nirmal - Mancherial Rd","Khanapur, Thimmapur",504203,Telangana,IN,https://www.google.com/maps/place/Masjid+E+Abu+Bakar/data=!4m7!3m6!1s0x3bcd838be7675037:0x1ecef2637bebf20c!8m2!3d19.0488678!4d78.6371746!16s%2Fg%2F11kyxhjk80!19sChIJN1Bn54uDzTsRDPLre2Pyzh4?authuser=0&hl=en&rclk=1,"19.0488678,78.6371746"
MASJID-E-YAQOOB,Mosque,"MASJID-E-YAQOOB, Bus Stand, Near, Khanapur, Telangana 504203",,"Bus Stand, Near",Khanapur,504203,Telangana,IN,https://www.google.com/maps/place/MASJID-E-YAQOOB/data=!4m7!3m6!1s0x3bcd8352a87046d5:0xdf5258dbc7731492!8m2!3d19.0391692!4d78.6504292!16s%2Fg%2F11h7fm1krv!19sChIJ1UZwqFKDzTsRkhRzx9tYUt8?authuser=0&hl=en&rclk=1,"19.0391692,78.65042919999999"
Masjid E Arfath msjdi `rft arphaat msjid,Mosque,"Masjid E Arfath msjdi `rft arphaat msjid, Arfath Masjid, Arfath Colony, Khanapur, Thimmapur, Telangana 504203",Arfath Colony,Arfath Masjid,"Khanapur, Thimmapur",504203,Telangana,IN,https://www.google.com/maps/place/Masjid+E+Arfath+%D9%85%D8%B3%D8%AC%D8%AF%D9%90+%D8%B9%D8%B1%D9%81%D8%A7%D8%AA+%E0%B0%85%E0%B0%B0%E0%B1%8D%E0%B0%AB%E0%B0%BE%E0%B0%A4%E0%B1%8D+%E0%B0%AE%E0%B0%B8%E0%B1%8D%E0%B0%9C%E0%B0%BF%E0%B0%A6%E0%B1%8D%E2%80%AD/data=!4m7!3m6!1s0x3bcd83813c269355:0xc68706597a71d136!8m2!3d19.0405285!4d78.643919!16s%2Fg%2F11kyxfdbtt!19sChIJVZMmPIGDzTsRNtFxelkGh8Y?authuser=0&hl=en&rclk=1,"19.0405285,78.643919"
Masjid E Raheem Ahle Hadees,Mosque,"2JRW+7MF Masjid E Raheem Ahle Hadees, Momin pura, Khanapur, Telangana 504203",Momin pura,2JRW+7MF,Khanapur,504203,Telangana,IN,https://www.google.com/maps/place/Masjid+E+Raheem+Ahle+Hadees/data=!4m7!3m6!1s0x3bcd8397dce1adb5:0xb843a7220d3a9073!8m2!3d19.0406788!4d78.6466701!16s%2Fg%2F11fpfz4h7s!19sChIJta3h3JeDzTsRc5A6DSKnQ7g?authuser=0&hl=en&rclk=1,"19.0406788,78.6466701"
Masjid E Umar,Mosque,"PG3V+48M Masjid E Umar, Adilabad, Telangana 504001",,PG3V+48M,Adilabad,,Telangana,IN,https://www.google.com/maps/place/Masjid+E+Umar/data=!4m7!3m6!1s0x3bd25bdf0118b5d3:0x62b0f5a28ee4880c!8m2!3d19.7028448!4d78.5433019!16s%2Fg%2F11ns53vp9f!19sChIJ07UYAd9b0jsRDIjkjqL1sGI?authuser=0&hl=en&rclk=1,"19.702844799999998,78.5433019"
Masjid Waddadi,Mosque,"MFQ2+97H Masjid Waddadi, Waddadi, Telangana 504312",,MFQ2+97H,Waddadi,504312,Telangana,IN,https://www.google.com/maps/place/Masjid+Waddadi/data=!4m7!3m6!1s0x3bd24570a42893d9:0xa7a2fcdf69505a5c!8m2!3d19.6884309!4d78.4507428!16s%2Fg%2F11fk0ptcc4!19sChIJ2ZMopHBF0jsRXFpQad_8oqc?authuser=0&hl=en&rclk=1,"19.6884309,78.4507428"
Nazia Abdul Hamid Kabli Masjid,Mosque,"R7HQ+76V Nazia Abdul Hamid Kabli Masjid, Saraswathi Nagar, Pipri, Telangana 503217",Saraswathi Nagar,R7HQ+76V,Pipri,503217,Telangana,IN,https://www.google.com/maps/place/Nazia+Abdul+Hamid+Kabli+Masjid/data=!4m7!3m6!1s0x3bcdeb2e74d0ce39:0xe4755d833a3c95b6!8m2!3d18.8283295!4d78.2870097!16s%2Fg%2F11rq3vrxl3!19sChIJOc7QdC7rzTsRtpU8OoNddeQ?authuser=0&hl=en&rclk=1,"18.8283295,78.2870097"
Darul Uloom Faiz ul Quran,Mosque,"XWRC+9P3 Darul Uloom Faiz ul Quran, Adilabad, Telangana 504102",,XWRC+9P3,Adilabad,,Telangana,IN,https://www.google.com/maps/place/Darul+Uloom+Faiz+ul+Quran/data=!4m7!3m6!1s0x3bce0764d16d9c37:0x9f8a0bf244810834!8m2!3d18.9908992!4d77.9218055!16s%2Fg%2F11g1fv10bs!19sChIJN5xt0WQHzjsRNAiBRPILip8?authuser=0&hl=en&rclk=1,"18.990899199999998,77.92180549999999"
Wankidi Asifabad,Mosque,"F8JC+8JX Wankidi Asifabad, Shivakesnagar, Wankidi (Kalan), Telangana 504295",Shivakesnagar,F8JC+8JX,Wankidi (Kalan),504295,Telangana,IN,https://www.google.com/maps/place/Wankidi+Asifabad/data=!4m7!3m6!1s0x3bd2b3c315900b4b:0x458e3ebaa1a65d9!8m2!3d19.4810568!4d79.3216502!16s%2Fg%2F11sssc97q2!19sChIJSwuQFcOz0jsR2WUaquvjWAQ?authuser=0&hl=en&rclk=1,"19.481056799999998,79.3216502"
Owaisi masjid,Mosque,"4X3C+PVW Owaisi masjid, Rd number 2, Bhainsa, Telangana 504103",,"4X3C+PVW, Rd number 2",Bhainsa,504103,Telangana,IN,https://www.google.com/maps/place/Owaisi+masjid/data=!4m7!3m6!1s0x3bcdffb38f817769:0x3746a83dd7b84291!8m2!3d19.1044739!4d77.9714137!16s%2Fg%2F11s5627lk5!19sChIJaXeBj7P_zTsRkUK41z2oRjc?authuser=0&hl=en&rclk=1,"19.1044739,77.9714137"
Masjid -E-Mahboobia,Mosque,"Masjid -E-Mahboobia, Jangalapally, TTS Twp, Ramagundam, Telangana 505208",TTS Township,Jangalapally,Ramagundam,505208,Telangana,IN,https://www.google.com/maps/place/Masjid+-E-Mahboobia/data=!4m7!3m6!1s0x3a32cf53347c73bf:0x5d59322befab188b!8m2!3d18.7693942!4d79.481137!16s%2Fg%2F11tmrc4vwl!19sChIJv3N8NFPPMjoRixir7ysyWV0?authuser=0&hl=en&rclk=1,"18.7693942,79.48113699999999"
Masjid e Ilaqa e Mashaiq,Mosque,"4X86+MR9 Masjid e Ilaqa e Mashaiq, Old Bazar Rd, Bhainsa, Telangana 504103",,"4X86+MR9, Old Bazar Rd",Bhainsa,504103,Telangana,IN,https://www.google.com/maps/place/Masjid+e+Ilaqa+e+Mashaiq/data=!4m7!3m6!1s0x3bcdffbb718107df:0x308312419b8ea3ee!8m2!3d19.11667!4d77.9621098!16s%2Fg%2F11np7rc810!19sChIJ3weBcbv_zTsR7qOOm0ESgzA?authuser=0&hl=en&rclk=1,"19.11667,77.9621098"
mohammadiya masjid,Mosque,"2PXJ+CQ7 mohammadiya masjid, Yelagadapa, Telangana 504202",,2PXJ+CQ7,Yelagadapa,504202,Telangana,IN,https://www.google.com/maps/place/mohammadiya+masjid/data=!4m7!3m6!1s0x3bcd79eebda4377b:0xada75b3c1058bd41!8m2!3d19.0485421!4d78.7319151!16s%2Fg%2F11dxrwxb2j!19sChIJezekve55zTsRQb1YEDxbp60?authuser=0&hl=en&rclk=1,"19.0485421,78.7319151"
"Mosque , arepalle",Mosque,"327F+R6Q Mosque , arepalle, Arepally Rd, Donthapur, Arpapalle, Telangana 505425",,"327F+R6Q, Arepally Rd","Donthapur, Arpapalle",505425,Telangana,IN,"https://www.google.com/maps/place/Mosque+,+arepalle/data=!4m7!3m6!1s0x3bcd5d8dd8a2592b:0x800db10c518ef6fa!8m2!3d19.0645903!4d79.0231206!16s%2Fg%2F11qg18z79k!19sChIJK1mi2I1dzTsR-vaOUQyxDYA?authuser=0&hl=en&rclk=1","19.0645903,79.0231206"
masjid,Mosque,"masjid, Maddipadaga, Telangana 504202",,,Maddipadaga,504202,Telangana,IN,https://www.google.com/maps/place/masjid/data=!4m7!3m6!1s0x3bcd7a21c7cc2cbb:0xe9e11285f8ad7748!8m2!3d19.0577667!4d78.7512222!16s%2Fg%2F11fxxk97n4!19sChIJuyzMxyF6zTsRSHet-IUS4ek?authuser=0&hl=en&rclk=1,"19.0577667,78.7512222"
Masjid-e-mohammed ali khan,Mosque,"4X66+HJX Masjid-e-mohammed ali khan, Bhainsa, Telangana 504103",,4X66+HJX,Bhainsa,504103,Telangana,IN,https://www.google.com/maps/place/Masjid-e-mohammed+ali+khan/data=!4m7!3m6!1s0x3bcdff51973f1793:0x47b905b99f17ef30!8m2!3d19.1115918!4d77.9615985!16s%2Fg%2F11pzpc_hb7!19sChIJkxc_l1H_zTsRMO8Xn7kFuUc?authuser=0&hl=en&rclk=1,"19.1115918,77.9615985"
Masjid E Yaqub Ali,Mosque,"R83X+854 Masjid E Yaqub Ali, Potial, Telangana 505187",,R83X+854,Potial,505187,Telangana,IN,https://www.google.com/maps/place/Masjid+E+Yaqub+Ali/data=!4m7!3m6!1s0x3bcd353c84f91ed1:0x836c93a56e1d021c!8m2!3d18.8032522!4d79.3479638!16s%2Fg%2F11l2xpxbkc!19sChIJ0R75hDw1zTsRHAIdbqWTbIM?authuser=0&hl=en&rclk=1,"18.8032522,79.3479638"
Jamia Masjid,Mosque,"2943+7Q5 Jamia Masjid, Madapur, Telangana 504105",,2943+7Q5,Madapur,504105,Telangana,IN,https://www.google.com/maps/place/Jamia+Masjid/data=!4m7!3m6!1s0x3bcd9347e1eead8f:0xf2478850e4585955!8m2!3d19.0056265!4d78.3544954!16s%2Fg%2F11gjhlm3w3!19sChIJj63u4UeTzTsRVVlY5FCIR_I?authuser=0&hl=en&rclk=1,"19.005626499999998,78.35449539999999"
Masjid E Fatima Yousuf,Mosque,"3WG8+XMP Masjid E Fatima Yousuf, Revojipet New, Revojipet (Old), Telangana 504202",,3WG8+XMP,"Revojipet New, Revojipet (Old)",504202,Telangana,IN,https://www.google.com/maps/place/Masjid+E+Fatima+Yousuf/data=!4m7!3m6!1s0x3bcd6551fa8de007:0x1f6da9a6fdded8d8!8m2!3d19.0776595!4d78.9174451!16s%2Fg%2F11rmz_sv6c!19sChIJB-CN-lFlzTsR2Nje_aapbR8?authuser=0&hl=en&rclk=1,"19.0776595,78.9174451"
Masjid E Mizba - Polasa Agricultural Form,Mosque,"RWPX+WXX Masjid E Mizba - Polasa Agricultural Form, Polasa, Telangana 505529",,RWPX+WXX,Polasa,505529,Telangana,IN,https://www.google.com/maps/place/Masjid+E+Mizba+-+Polasa+Agricultural+Form/data=!4m7!3m6!1s0x3bcd153109c3ad5f:0x708585d18ae1a549!8m2!3d18.8373583!4d78.9499717!16s%2Fg%2F11v04_cf7s!19sChIJX63DCTEVzTsRSaXhitGFhXA?authuser=0&hl=en&rclk=1,"18.837358299999998,78.94997169999999"
Masjid-e-Taweed,Mosque,"W49M+X9V Masjid-e-Taweed, Ummeda, Telangana 503212",,W49M+X9V,Ummeda,503212,Telangana,IN,https://www.google.com/maps/place/Masjid-e-Taweed/data=!4m7!3m6!1s0x3bcdef84711adc7f:0x8386494f394d9ae7!8m2!3d18.9199843!4d78.1334202!16s%2Fg%2F11f9zdrpmj!19sChIJf9wacYTvzTsR55pNOU9JhoM?authuser=0&hl=en&rclk=1,"18.9199843,78.1334202"
Jaamaa Masjid(Bint Al Imaraat) Gutpa,Mosque,"Q5GW+3W6 Jaamaa Masjid(Bint Al Imaraat) Gutpa, Gutpa, Telangana 503213",,Q5GW+3W6,Gutpa,503213,Telangana,IN,https://www.google.com/maps/place/Jaamaa+Masjid%28Bint+Al+Imaraat%29+Gutpa/data=!4m7!3m6!1s0x3bcdc3a2b9523551:0x4dcbb621499e8f6d!8m2!3d18.7751662!4d78.1972772!16s%2Fg%2F11f6tj9vzk!19sChIJUTVSuaLDzTsRbY-eSSG2y00?authuser=0&hl=en&rclk=1,"18.775166199999997,78.1972772"
MASJID- E- HUDA,Mosque,"V994+7H7 MASJID- E- HUDA, Gudipet, Telangana 504209",,V994+7H7,Gudipet,504209,Telangana,IN,https://www.google.com/maps/place/MASJID-+E-+HUDA/data=!4m7!3m6!1s0x3bcd35851ef1ea0d:0x28b2fd586b6d1379!8m2!3d18.8681534!4d79.3564285!16s%2Fg%2F11kjjp9bk1!19sChIJDerxHoU1zTsReRNta1j9sig?authuser=0&hl=en&rclk=1,"18.8681534,79.35642849999999"
MASJID E EIDGAON NIRMAL,Mosque,"38PV+W2C MASJID E EIDGAON NIRMAL, Unnamed Road, Natraj Nagar, Eidgoan, Nirmal, Telangana 504106","Natraj Nagar, Eidgoan","38PV+W2C, Unnamed Road",Nirmal,504106,Telangana,IN,https://www.google.com/maps/place/MASJID+E+EIDGAON+NIRMAL/data=!4m7!3m6!1s0x3bcd8c6358878827:0x9e6de3030bed805a!8m2!3d19.0873155!4d78.3425302!16s%2Fg%2F11hd07t83z!19sChIJJ4iHWGOMzTsRWoDtCwPjbZ4?authuser=0&hl=en&rclk=1,"19.0873155,78.3425302"
Jamia Masjid,Mosque,"X8QP+XCM Jamia Masjid, Pakpatla, Telangana 504105",,X8QP+XCM,Pakpatla,504105,Telangana,IN,https://www.google.com/maps/place/Jamia+Masjid/data=!4m7!3m6!1s0x3bcd93fdbe33a335:0x8d4241faa54b72b7!8m2!3d18.9899607!4d78.3360374!16s%2Fg%2F11f6yvmh09!19sChIJNaMzvv2TzTsRt3JLpfpBQo0?authuser=0&hl=en&rclk=1,"18.989960699999997,78.3360374"
Khanapur Masjid,Mosque,"HHX5+RFF Khanapur Masjid, Khanapur, Maharashtra 431717",,HHX5+RFF,Khanapur,,Maharashtra,IN,https://www.google.com/maps/place/Khanapur+Masjid/data=!4m7!3m6!1s0x3bce43c4ee6ecec1:0xbd00122636ad7f30!8m2!3d18.5995693!4d77.5586563!16s%2Fg%2F11q1r5x86z!19sChIJwc5u7sRDzjsRMH-tNiYSAL0?authuser=0&hl=en&rclk=1,"18.5995693,77.5586563"
Masjid vittampeta,Mosque,"RH3Q+72 Masjid vittampeta, Vittampeta, Telangana 505325",,RH3Q+72,Vittampeta,505325,Telangana,IN,https://www.google.com/maps/place/Masjid+vittampeta/data=!4m7!3m6!1s0x3bcda166bbd72e3d:0xb7fb2b8c892dad62!8m2!3d18.8031382!4d78.5875832!16s%2Fg%2F11qb89v5cq!19sChIJPS7Xu2ahzTsRYq0tiYwr-7c?authuser=0&hl=en&rclk=1,"18.8031382,78.5875832"
Jama Masjid Kaddam,Mosque,"4Q2J+H79 Jama Masjid Kaddam, Market Road, Kadam Project, Telangana 504202",,"4Q2J+H79, Market Road",Kadam Project,504202,Telangana,IN,https://www.google.com/maps/place/Jama+Masjid+Kaddam/data=!4m7!3m6!1s0x3bcd7b8a08ff16e3:0x7cb5de71052ef6fa!8m2!3d19.1014217!4d78.7807301!16s%2Fg%2F11fb0p26qc!19sChIJ4xb_CIp7zTsR-vYuBXHetXw?authuser=0&hl=en&rclk=1,"19.1014217,78.7807301"
Shaik ramzan house,Mosque,"2MR3+F9H Shaik ramzan house, Bellala Rd, Khanapur, Telangana 504203",,"2MR3+F9H, Bellala Rd",Khanapur,504203,Telangana,IN,https://www.google.com/maps/place/Shaik+ramzan+house/data=!4m7!3m6!1s0x3bcd836c26cfec25:0xc7af4e766b0fc008!8m2!3d19.0419906!4d78.6533768!16s%2Fg%2F11vc5_fghn!19sChIJJezPJmyDzTsRCMAPa3ZOr8c?authuser=0&hl=en&rclk=1,"19.0419906,78.65337679999999"
Mohammadia Masjid,Mosque,"2JRX+V2F Mohammadia Masjid, Vidyanagar, Khanapur, Telangana 504203",Vidyanagar,2JRX+V2F,Khanapur,504203,Telangana,IN,https://www.google.com/maps/place/Mohammadia+Masjid/data=!4m7!3m6!1s0x3bcd82a4efbaaaab:0xdb8a92135f0cf531!8m2!3d19.0421992!4d78.6475422!16s%2Fg%2F11kj3f2_vn!19sChIJq6q676SCzTsRMfUMXxOSits?authuser=0&hl=en&rclk=1,"19.0421992,78.64754219999999"
MASJID,Mosque,"2PW9+WP9 MASJID, Lingapur, Telangana 504202",,2PW9+WP9,Lingapur,504202,Telangana,IN,https://www.google.com/maps/place/MASJID/data=!4m7!3m6!1s0x3bcd79ab085b9819:0xd6538f30239f99c!8m2!3d19.0472775!4d78.7193685!16s%2Fg%2F11rkf1p6nc!19sChIJGZhbCKt5zTsRnPk5AvM4ZQ0?authuser=0&hl=en&rclk=1,"19.0472775,78.7193685"
Masjid e Abu Hurera,Mosque,"MG3R+8F Masjid e Abu Hurera, Adilabad, Telangana 504001",,MG3R+8F,Adilabad,,Telangana,IN,https://www.google.com/maps/place/Masjid+e+Abu+Hurera/data=!4m7!3m6!1s0x3bd25d2ea7388ce5:0x955ec3718d1b00a1!8m2!3d19.6532544!4d78.5411588!16s%2Fg%2F11twgyhbqr!19sChIJ5Yw4py5d0jsRoQAbjXHDXpU?authuser=0&hl=en&rclk=1,"19.653254399999998,78.54115879999999"
Masjide Mera,Mosque,"Masjide Mera, Police line, Old Housing Board Colony, Ravindra Nagar Colony, Adilabad, Telangana 504001","Old Housing Board Colony, Ravindra Nagar Colony",Police line,Adilabad,,Telangana,IN,https://www.google.com/maps/place/Masjide+Mera/data=!4m7!3m6!1s0x3bd25d4f276d7737:0xfba7d6c285a2493a!8m2!3d19.6640624!4d78.5320107!16s%2Fg%2F11jt228q6b!19sChIJN3dtJ09d0jsROkmihcLWp_s?authuser=0&hl=en&rclk=1,"19.6640624,78.5320107"
Masjid-E-Bilal,Mosque,"87J6+9HP Masjid-E-Bilal, Thumpalle, Babapur, Telangana 504294",,87J6+9HP,"Thumpalle, Babapur",,Telangana,IN,https://www.google.com/maps/place/Masjid-E-Bilal/data=!4m7!3m6!1s0x3bd2a948559e9c4b:0xf625909021a2406d!8m2!3d19.3309518!4d79.2614523!16s%2Fg%2F11kjk9fcwg!19sChIJS5yeVUip0jsRbUCiIZCQJfY?authuser=0&hl=en&rclk=1,"19.330951799999998,79.2614523"
Baba Shadullah Dargah,Mosque,"JGVM+X4J Baba Shadullah Dargah, KRK Colony, Khoja Colony, Adilabad, Telangana 504001","KRK Colony, Khoja Colony",JGVM+X4J,Adilabad,504001,Telangana,IN,https://www.google.com/maps/place/Baba+Shadullah+Dargah/data=!4m7!3m6!1s0x3bd25dde609dddf1:0xb10548e403faacef!8m2!3d19.6449191!4d78.5327293!16s%2Fg%2F11kpt652yk!19sChIJ8d2dYN5d0jsR76z6A-RIBbE?authuser=0&hl=en&rclk=1,"19.6449191,78.5327293"
Masjid-E-Ayesha,Mosque,"MGCQ+XRX Masjid-E-Ayesha, Brahmanwadi, Adilabad, Telangana 504001",Brahmanwadi,MGCQ+XRX,Adilabad,504001,Telangana,IN,https://www.google.com/maps/place/Masjid-E-Ayesha/data=!4m7!3m6!1s0x3bd25c7445a55555:0xe3f8a99466fc71ef!8m2!3d19.6724753!4d78.5395986!16s%2Fg%2F11sscsfbvt!19sChIJVVWlRXRc0jsR73H8ZpSp-OM?authuser=0&hl=en&rclk=1,"19.6724753,78.53959859999999"
Masjid e Aqsa,Mosque,"9CPV+55W Masjid e Aqsa, Islamnagar, Telangana 504307",,9CPV+55W,Islamnagar,504307,Telangana,IN,https://www.google.com/maps/place/Masjid+e+Aqsa/data=!4m7!3m6!1s0x3bd271c95b560a13:0xeac4c3253af1fd04!8m2!3d19.3854802!4d78.4429394!16s%2Fg%2F11vdh6g0fk!19sChIJEwpWW8lx0jsRBP3xOiXDxOo?authuser=0&hl=en&rclk=1,"19.3854802,78.4429394"
Masjid E Madeena,Mosque,"3XX8+XMW Masjid E Madeena, Vinayak Nagar, Bhainsa, Telangana 504103",Vinayak Nagar,3XX8+XMW,Bhainsa,504103,Telangana,IN,https://www.google.com/maps/place/Masjid+E+Madeena/data=!4m7!3m6!1s0x3bcdfe67609b6a17:0xd10b98fe9ebd9b74!8m2!3d19.1!4d77.9667!16s%2Fg%2F11b7tns2dg!19sChIJF2qbYGf-zTsRdJu9nv6YC9E?authuser=0&hl=en&rclk=1,"19.099999999999998,77.9667"
Masjid e Fatima,Mosque,"4X5G+9P4 Masjid e Fatima, Bhainsa, Telangana 504103",,4X5G+9P4,Bhainsa,504103,Telangana,IN,https://www.google.com/maps/place/Masjid+e+Fatima/data=!4m7!3m6!1s0x3bcdffb3b5a3debf:0x2063de0cbf29b1de!8m2!3d19.1083892!4d77.9768327!16s%2Fg%2F11l29xysl3!19sChIJv96jtbP_zTsR3rEpvwzeYyA?authuser=0&hl=en&rclk=1,"19.108389199999998,77.9768327"
Madina masjid,Mosque,"HJX5+HJ6 Madina masjid, Lokari, Telangana 504001",,HJX5+HJ6,Lokari,504001,Telangana,IN,https://www.google.com/maps/place/Madina+masjid/data=!4m7!3m6!1s0x3bd25fd0b85e3af7:0x58b0d4e158d49e84!8m2!3d19.5986215!4d78.6098443!16s%2Fg%2F11s39q45km!19sChIJ9zpeuNBf0jsRhJ7UWOHUsFg?authuser=0&hl=en&rclk=1,"19.5986215,78.60984429999999"
BILALA MASJID,Mosque,"9WF5+HJJ BILALA MASJID, Jainoor, Telangana 504313",,9WF5+HJJ,Jainoor,504313,Telangana,IN,https://www.google.com/maps/place/BILALA+MASJID/data=!4m7!3m6!1s0x3bd29b2e07edb8d3:0xa2580038ac3fd778!8m2!3d19.3739522!4d78.9090191!16s%2Fg%2F11f77_fyxp!19sChIJ07jtBy6b0jsReNc_rDgAWKI?authuser=0&hl=en&rclk=1,"19.373952199999998,78.9090191"
AbDuL hAfEeZ,Mosque,"AbDuL hAfEeZ, Masjid E Bilal, Bilalpura, Korutla, Telangana 505326",Bilalpura,Masjid E Bilal,Korutla,505326,Telangana,IN,https://www.google.com/maps/place/AbDuL+hAfEeZ/data=!4m7!3m6!1s0x3bcd0b8720471089:0xf701c859355aa101!8m2!3d18.8190361!4d78.7012109!16s%2Fg%2F11ngl414bd!19sChIJiRBHIIcLzTsRAaFaNVnIAfc?authuser=0&hl=en&rclk=1,"18.819036099999998,78.70121089999999"
Sudarah Nagar Patan kirana Feroza khan,Mosque,"Sudarah Nagar Patan kirana Feroza khan, Masjid e durdana, Sundaraiah Nagar, khursheed Nagar, Adilabad, Telangana 504001","Sundaraiah Nagar, khursheed Nagar",Masjid e durdana,Adilabad,,Telangana,IN,https://www.google.com/maps/place/Sudarah+Nagar+Patan+kirana+Feroza+khan/data=!4m7!3m6!1s0x3bd25bdb37aefa07:0x2a1a0c954e06593f!8m2!3d19.6769183!4d78.5171223!16s%2Fg%2F11s8_g6_vk!19sChIJB_quN9tb0jsRP1kGTpUMGio?authuser=0&hl=en&rclk=1,"19.6769183,78.5171223"
Masjid e Saleh,Mosque,"X5W3+5FW Masjid e Saleh, bolishetty rajanna mro office, Dantepally, Telangana 504206",,"X5W3+5FW, bolishetty rajanna mro office",Dantepally,504206,Telangana,IN,https://www.google.com/maps/place/Masjid+e+Saleh/data=!4m7!3m6!1s0x3bcd45dc06307c6d:0xb5279caa5d165fe6!8m2!3d18.9954959!4d79.1537098!16s%2Fg%2F11n258mlmb!19sChIJbXwwBtxFzTsR5l8WXaqcJ7U?authuser=0&hl=en&rclk=1,"18.995495899999998,79.1537098"
Madarsa Imdadul uloom,Mosque,"MHH3+X3 Madarsa Imdadul uloom, Adilabad, Telangana 504001",,MHH3+X3,Adilabad,,Telangana,IN,https://www.google.com/maps/place/Madarsa+Imdadul+uloom/data=!4m7!3m6!1s0x3bd25b469a2a59b5:0x398d9511bd9f4f1!8m2!3d19.6798862!4d78.5526843!16s%2Fg%2F11s4t771x_!19sChIJtVkqmkZb0jsR8fTZG1HZmAM?authuser=0&hl=en&rclk=1,"19.6798862,78.5526843"
Makkah masjid Binola,Mosque,"V3Q5+XQQ Makkah masjid Binola, Binola, Telangana 503246",,V3Q5+XQQ,Binola,503246,Telangana,IN,https://www.google.com/maps/place/Makkah+masjid+Binola/data=!4m7!3m6!1s0x3bcde736e5d409a3:0x654b084de71f1403!8m2!3d18.8899684!4d78.0594874!16s%2Fg%2F11t7c6nbsr!19sChIJownU5TbnzTsRAxQf500IS2U?authuser=0&hl=en&rclk=1,"18.8899684,78.0594874"
Jama Masjid Limba,Mosque,"523V+7F2 Jama Masjid Limba, Limba Khurd, Telangana 504109",,523V+7F2,Limba Khurd,504109,Telangana,IN,https://www.google.com/maps/place/Jama+Masjid+Limba/data=!4m7!3m6!1s0x3bcdf91c30be5c01:0x41b0942c84df9744!8m2!3d19.1531407!4d78.0436445!16s%2Fg%2F11v9z80ywd!19sChIJAVy-MBz5zTsRRJffhCyUsEE?authuser=0&hl=en&rclk=1,"19.153140699999998,78.0436445"
Masjid e Muhammadiya Mangurla,Mosque,"JMQ7+G2 Masjid e Muhammadiya Mangurla, Mangurla, Telangana 504346",,JMQ7+G2,Mangurla,504346,Telangana,IN,https://www.google.com/maps/place/Masjid+e+Muhammadiya+Mangurla/data=!4m7!3m6!1s0x3bd2f580fd42be85:0x16a5654839535615!8m2!3d19.6388015!4d78.6625003!16s%2Fg%2F11s6xpgq0r!19sChIJhb5C_YD10jsRFVZTOUhlpRY?authuser=0&hl=en&rclk=1,"19.6388015,78.66250029999999"
Moti Masjid,Mosque,"38VX+Q23 Moti Masjid, Indira Nagar, Nirmal, Telangana 504106",Indira Nagar,38VX+Q23,Nirmal,504106,Telangana,IN,https://www.google.com/maps/place/Moti+Masjid/data=!4m7!3m6!1s0x3bcd8d81de0afe73:0xc3d36cad8b842584!8m2!3d19.094332!4d78.3485079!16s%2Fg%2F11tdc428l8!19sChIJc_4K3oGNzTsRhCWEi61s08M?authuser=0&hl=en&rclk=1,"19.094331999999998,78.3485079"
