name,main_category,address,address_ward,address_street,address_city,address_postal_code,address_state,address_country_code,link,coordinates
North Gazinagar Jame Masjid,Mosque,"North Gazinagar Jame Masjid, New Krishnapur, Dhuliyan, Anup Nagar, West Bengal 742202",New Krishnapur,,"Dhuliyan, Anup Nagar",742202,West Bengal,IN,https://www.google.com/maps/place/North+Gazinagar+Jame+Masjid/data=!4m7!3m6!1s0x39fa45c88629f027:0x661259e98c759b5a!8m2!3d24.6873941!4d87.9434635!16s%2Fg%2F11hz_31byr!19sChIJJ_AphshF-jkRWpt1jOlZEmY?authuser=0&hl=en&rclk=1,"24.6873941,87.9434635"
TARBAGAN JAME MASJID,Mosque,"MWJW+6GW TARBAGAN JAME MASJID, Samsherganj, Tarbagan, Dhuliyan, Anup Nagar, West Bengal 742202","Samsherganj, Tarbagan",MWJW+6GW,"Dhuliyan, Anup Nagar",742202,West Bengal,IN,https://www.google.com/maps/place/TARBAGAN+JAME+MASJID/data=!4m7!3m6!1s0x39fa44bc44b14041:0x28710d60c0d87402!8m2!3d24.6806105!4d87.9463303!16s%2Fg%2F11f_j2f0p0!19sChIJQUCxRLxE-jkRAnTYwGANcSg?authuser=0&hl=en&rclk=1,"24.6806105,87.9463303"
Gorurhat Jummah Masjid,Mosque,"MXH4+F2G Gorurhat Jummah Masjid, goruhat, Dhuliyan, West Bengal 742202",goruhat,MXH4+F2G,Dhuliyan,742202,West Bengal,IN,https://www.google.com/maps/place/Gorurhat+Jummah+Masjid/data=!4m7!3m6!1s0x39fa44c0386ccfbd:0x4a3152d87bce254d!8m2!3d24.6781129!4d87.9548438!16s%2Fg%2F1233145b6!19sChIJvc9sOMBE-jkRTSXOe9hSMUo?authuser=0&hl=en&rclk=1,"24.6781129,87.95484379999999"
Hijaltala jamemosjid,Mosque,"Hijaltala jamemosjid, Anup Nagar, West Bengal 742202",,,Anup Nagar,742202,West Bengal,IN,https://www.google.com/maps/place/Hijaltala+jamemosjid/data=!4m7!3m6!1s0x39fa4495315a60c7:0x65a2c0dbf6c39059!8m2!3d24.6747558!4d87.952751!16s%2Fg%2F11c6_x2xs1!19sChIJx2BaMZVE-jkRWZDD9tvAomU?authuser=0&hl=en&rclk=1,"24.6747558,87.95275099999999"
Kanchantala Juma Masjid,Mosque,"MWGX+2VH Kanchantala Juma Masjid, Anup Nagar, West Bengal 742202",,MWGX+2VH,Anup Nagar,742202,West Bengal,IN,https://www.google.com/maps/place/Kanchantala+Juma+Masjid/data=!4m7!3m6!1s0x39fa4495bd8b4f59:0x3c8b3125e1d920cb!8m2!3d24.6750718!4d87.949725!16s%2Fg%2F11c5j6xvc3!19sChIJWU-LvZVE-jkRyyDZ4SUxizw?authuser=0&hl=en&rclk=1,"24.675071799999998,87.949725"
Khodabandpur Jamia Masjid,Mosque,"PW6Q+7FG Khodabandpur Jamia Masjid, Khodabandpur Farakka, Arjunpur Rd, Paranpara, West Bengal 742202",,"PW6Q+7FG, Khodabandpur Farakka, Arjunpur Rd",Paranpara,742202,West Bengal,IN,https://www.google.com/maps/place/Khodabandpur+Jamia+Masjid/data=!4m7!3m6!1s0x39fa5b50b66d0e8d:0x2c9c1b34ea19e2c3!8m2!3d24.7106901!4d87.9387004!16s%2Fg%2F11dxdclnn9!19sChIJjQ5ttlBb-jkRw-IZ6jQbnCw?authuser=0&hl=en&rclk=1,"24.710690099999997,87.9387004"
Gobindopur Jumma Masjid,Mosque,"MX55+7M6 Gobindopur Jumma Masjid, Gobindopur, West Bengal 742202",,MX55+7M6,Gobindopur,742202,West Bengal,IN,https://www.google.com/maps/place/Gobindopur+Jumma+Masjid/data=!4m7!3m6!1s0x39fa44f6b83d8605:0x57c661d767d06545!8m2!3d24.6581535!4d87.959137!16s%2Fg%2F11c3182vnb!19sChIJBYY9uPZE-jkRRWXQZ9dhxlc?authuser=0&hl=en&rclk=1,"24.658153499999997,87.959137"
New Duckbanglow Railgate Jame Masjid,Mosque,"New Duckbanglow Railgate Jame Masjid, New Duckbanglow, near Railgate, Ratanpur, Dhuliyan, Jafrabad, West Bengal 742202",Ratanpur,"New Duckbanglow, near Railgate","Dhuliyan, Jafrabad",742202,West Bengal,IN,https://www.google.com/maps/place/New+Duckbanglow+Railgate+Jame+Masjid/data=!4m7!3m6!1s0x39fa4485f8caea99:0x9f51182834f2131!8m2!3d24.6592286!4d87.9432706!16s%2Fg%2F11dxbpbh9f!19sChIJmerK-IVE-jkRMSFPg4IR9Qk?authuser=0&hl=en&rclk=1,"24.6592286,87.94327059999999"
Samserganj Jumma Masjid,Mosque,"MWCX+777 Samserganj Jumma Masjid, Football Ground, Samserganj, Dhuliyan, West Bengal 742202",,"MWCX+777 Football Ground, Samserganj","Dhuliyan, Anup Nagar",742202,West Bengal,IN,https://www.google.com/maps/place/Samserganj+Jumma+Masjid/data=!4m7!3m6!1s0x39fa44ea461c29ed:0xd41d42fa11d728f!8m2!3d24.67445!4d87.9564719!16s%2Fg%2F11c5b1xk4d!19sChIJ7SkcRupE-jkRj3IdoS_UQQ0?authuser=0&hl=en&rclk=1,"24.67445,87.9564719"
Jotkashi Jama Masjid,Mosque,"MX28+G7C Jotkashi Jama Masjid, Kankuria, West Bengal 742202",,MX28+G7C,Kankuria,742202,West Bengal,IN,https://www.google.com/maps/place/Jotkashi+Jama+Masjid/data=!4m7!3m6!1s0x39fa4456495efbad:0x978d4b960a77c82b!8m2!3d24.651321!4d87.965651!16s%2Fg%2F11c5t4svx7!19sChIJrfteSVZE-jkRK8h3CpZLjZc?authuser=0&hl=en&rclk=1,"24.651321,87.965651"
Baghdad Nagar Jama Masjid,Mosque,"JXW9+96X Baghdad Nagar Jama Masjid, Nimtita, Kankuria, West Bengal 742202",,JXW9+96X,"Nimtita, Kankuria",742202,West Bengal,IN,https://www.google.com/maps/place/Baghdad+Nagar+Jama+Masjid/data=!4m7!3m6!1s0x39fa4453e6cca845:0xe7da84bc60ecb17e!8m2!3d24.6459804!4d87.9681079!16s%2Fg%2F11c38ks4dr!19sChIJRajM5lNE-jkRfrHsYLyE2uc?authuser=0&hl=en&rclk=1,"24.6459804,87.96810789999999"
Shibnagar Jumma Masjid,Mosque,"PW6H+C2C Shibnagar Jumma Masjid, Arjunpur Rd, Sibnagar, Bhabanipur, West Bengal 742202",,"PW6H+C2C, Arjunpur Rd","Sibnagar, Bhabanipur",742202,West Bengal,IN,https://www.google.com/maps/place/Shibnagar+Jumma+Masjid/data=!4m7!3m6!1s0x39fa5caf5b30e6e9:0xd7e9ef2a3b07fa6c!8m2!3d24.7110743!4d87.9275067!16s%2Fg%2F11c5wk7jf6!19sChIJ6eYwW69c-jkRbPoHOyrv6dc?authuser=0&hl=en&rclk=1,"24.7110743,87.9275067"
Battala Jame Masjid,Mosque,"PW2Q+58G Battala Jame Masjid, Paranpara, West Bengal 742202",,PW2Q+58G,Paranpara,742202,West Bengal,IN,https://www.google.com/maps/place/Battala+Jame+Masjid/data=!4m7!3m6!1s0x39fa5b54aa4109c5:0x41fcb73fe116af7b!8m2!3d24.7004349!4d87.938342!16s%2Fg%2F11c1vn883z!19sChIJxQlBqlRb-jkRe68W4T-3_EE?authuser=0&hl=en&rclk=1,"24.700434899999998,87.93834199999999"
Ratanpur Jumma Masjid,Mosque,"MWFX+229 Ratanpur Jumma Masjid, Dhuliyan, Anup Nagar, West Bengal 742202",,MWFX+229,"Dhuliyan, Anup Nagar",742202,West Bengal,IN,https://www.google.com/maps/place/Ratanpur+Jumma+Masjid/data=!4m7!3m6!1s0x39fa44969a04bd0d:0x1ead8368c92b6347!8m2!3d24.6725388!4d87.9476058!16s%2Fg%2F11_rd34tf!19sChIJDb0EmpZE-jkRR2MryWiDrR4?authuser=0&hl=en&rclk=1,"24.672538799999998,87.94760579999999"
Tofapur Jame Masjid,Mosque,"PW5G+W34 Tofapur Jame Masjid, Bhabanipur, West Bengal 742202",,PW5G+W34,Bhabanipur,742202,West Bengal,IN,https://www.google.com/maps/place/Tofapur+Jame+Masjid/data=!4m7!3m6!1s0x39fa5cafba1f275f:0x10e9503d47bd134b!8m2!3d24.7097505!4d87.925201!16s%2Fg%2F11f3ng7s6k!19sChIJXycfuq9c-jkRSxO9Rz1Q6RA?authuser=0&hl=en&rclk=1,"24.7097505,87.925201"
Sekhpur Jame Masjid,Mosque,"JWP7+QMF Sekhpur Jame Masjid, 0, Dhulian - Pakur Rd, Chandpur, West Bengal 742202",,"JWP7+QMF, 0, Dhulian - Pakur Rd",Chandpur,742202,West Bengal,IN,https://www.google.com/maps/place/Sekhpur+Jame+Masjid/data=!4m7!3m6!1s0x39fa439628e4a845:0x5c2352f4ff7562be!8m2!3d24.636975!4d87.9140605!16s%2Fg%2F11dxlbmrpk!19sChIJRajkKJZD-jkRvmJ1__RSI1w?authuser=0&hl=en&rclk=1,"24.636975,87.91406049999999"
BAITUL MOKARRAM JAME MASJID,Mosque,"MWMX+JR2 BAITUL MOKARRAM JAME MASJID, NEW MARKET,, Dhuliyan, West Bengal 742202",,"MWMX+JR2, NEW MARKET,","Dhuliyan, Anup Nagar",742202,West Bengal,IN,https://www.google.com/maps/place/BAITUL+MOKARRAM+JAME+MASJID/data=!4m7!3m6!1s0x39fa44b93e2435e7:0x7e876b5ad0fe22cb!8m2!3d24.6840217!4d87.9495173!16s%2Fg%2F11bywk_3h0!19sChIJ5zUkPrlE-jkRyyL-0Fprh34?authuser=0&hl=en&rclk=1,"24.6840217,87.9495173"
Ratanpur Eid Gaha Masjid,Mosque,"Ratanpur Eid Gaha Masjid, Bidhan Chandra Rd, Ratanpur, Jafrabad, West Bengal 742202",,Bidhan Chandra Rd,"Ratanpur, Jafrabad",742202,West Bengal,IN,https://www.google.com/maps/place/Ratanpur+Eid+Gaha+Masjid/data=!4m7!3m6!1s0x39fa449041f959c5:0xc93092ba3ff040cb!8m2!3d24.6665132!4d87.9445307!16s%2Fg%2F11fxb6nv8z!19sChIJxVn5QZBE-jkRy0DwP7qSMMk?authuser=0&hl=en&rclk=1,"24.666513199999997,87.9445307"
Debidaspur jame masjid,Mosque,"MX58+M4M Debidaspur jame masjid, Nimtala Main Rd, opposite to Nur Biri Factory, Ghanshyampur, Anup Nagar, West Bengal 742202",,"MX58+M4M, Nimtala Main Rd, opposite to Nur Biri Factory","Ghanshyampur, Anup Nagar",742202,West Bengal,IN,https://www.google.com/maps/place/Debidaspur+jame+masjid/data=!4m7!3m6!1s0x39fa44fa2b2f3fb9:0xebe40550811f0553!8m2!3d24.6592115!4d87.965293!16s%2Fg%2F11c1qxs3qh!19sChIJuT8vK_pE-jkRUwUfgVAF5Os?authuser=0&hl=en&rclk=1,"24.659211499999998,87.965293"
Momrejpur jame masjid,Mosque,"MWVQ+PC6 Momrejpur jame masjid, Paranpara, West Bengal 742202",,MWVQ+PC6,Paranpara,,West Bengal,IN,https://www.google.com/maps/place/Momrejpur+jame+masjid/data=!4m7!3m6!1s0x39fa453790c1c851:0xd70ec95b49cf2b8c!8m2!3d24.6942921!4d87.9385295!16s%2Fg%2F11grvk8tl8!19sChIJUcjBkDdF-jkRjCvPSVvJDtc?authuser=0&hl=en&rclk=1,"24.6942921,87.9385295"
Sulitala Eidgaha Maidan,Mosque,"MX62+CF2 Sulitala Eidgaha Maidan, Dhuliyan, West Bengal 742202",,MX62+CF2,Dhuliyan,742202,West Bengal,IN,https://www.google.com/maps/place/Sulitala+Eidgaha+Maidan/data=!4m7!3m6!1s0x39fa448cf0700671:0xff0c048bee5d1ccf!8m2!3d24.6610172!4d87.9511336!16s%2Fg%2F11c6vvhlmf!19sChIJcQZw8IxE-jkRzxxd7osEDP8?authuser=0&hl=en&rclk=1,"24.6610172,87.95113359999999"
Housenagar Jame Masjid,Mosque,"MX32+PWC Housenagar Jame Masjid, Jafrabad, West Bengal 742202",,MX32+PWC,Jafrabad,742202,West Bengal,IN,https://www.google.com/maps/place/Housenagar+Jame+Masjid/data=!4m7!3m6!1s0x39fa44f5262c171d:0xadb26682289527fa!8m2!3d24.6543061!4d87.9522537!16s%2Fg%2F11dxb11bfm!19sChIJHRcsJvVE-jkR-ieVKIJmsq0?authuser=0&hl=en&rclk=1,"24.6543061,87.9522537"
Antardwipa Jame Masjid,Mosque,"Antardwipa Jame Masjid, 0, Dhulian - Pakur Rd Chandpur, Dhulian - Pakur Rd, Chandpur, West Bengal 742202",,"0, Dhulian - Pakur Rd Chandpur, Dhulian - Pakur Rd",Chandpur,742202,West Bengal,IN,https://www.google.com/maps/place/Antardwipa+Jame+Masjid/data=!4m7!3m6!1s0x39fa4390d161acc9:0xa347abf72b28a50f!8m2!3d24.6380697!4d87.919095!16s%2Fg%2F11c73mwfxt!19sChIJyaxh0ZBD-jkRD6UoK_erR6M?authuser=0&hl=en&rclk=1,"24.6380697,87.919095"
Babupur Jumma MOSJID,Mosque,"MX47+H8R Babupur Jumma MOSJID, Ghanshyampur, West Bengal 742202",,MX47+H8R,Ghanshyampur,742202,West Bengal,IN,https://www.google.com/maps/place/Babupur+Jumma+MOSJID/data=!4m7!3m6!1s0x39fa44f9d16ef2c1:0x74b10a6deef052e8!8m2!3d24.6564762!4d87.9632509!16s%2Fg%2F11f3jh1wd4!19sChIJwfJu0flE-jkR6FLw7m0KsXQ?authuser=0&hl=en&rclk=1,"24.6564762,87.96325089999999"
Debidaspur Owakiya Mosjid,Mosque,"MX58+XQ8 Debidaspur Owakiya Mosjid, Debidaspur, Ghanshyampur, West Bengal 742202",Debidaspur,MX58+XQ8,Ghanshyampur,742202,West Bengal,IN,https://www.google.com/maps/place/Debidaspur+Owakiya+Mosjid/data=!4m7!3m6!1s0x39fa44fbef1753c3:0xbed6b5101575233a!8m2!3d24.6599226!4d87.9669672!16s%2Fg%2F11c6cyltlc!19sChIJw1MX7_tE-jkROiN1FRC11r4?authuser=0&hl=en&rclk=1,"24.659922599999998,87.9669672"
JUMA MASJID,Mosque,"MW6W+PGW JUMA MASJID, Jafrabad, West Bengal 742202",,MW6W+PGW,Jafrabad,742202,West Bengal,IN,https://www.google.com/maps/place/JUMA+MASJID/data=!4m7!3m6!1s0x39fa448e57886c0d:0x9a81dcb9e7b57ea1!8m2!3d24.6618728!4d87.9463411!16s%2Fg%2F11c2qt10rl!19sChIJDWyIV45E-jkRoX6157ncgZo?authuser=0&hl=en&rclk=1,"24.661872799999998,87.9463411"
Tinpakuria Jame Masjid,Mosque,"MX45+53X Tinpakuria Jame Masjid, Nimtala Main Rd, Kankuria, West Bengal 742202",,"MX45+53X, Nimtala Main Rd",Kankuria,742202,West Bengal,IN,https://www.google.com/maps/place/Tinpakuria+Jame+Masjid/data=!4m7!3m6!1s0x39fa44f5d77209a7:0x5a0ecb8b3b6481c6!8m2!3d24.6554774!4d87.9577205!16s%2Fg%2F11c2pknmc1!19sChIJpwly1_VE-jkRxoFkO4vLDlo?authuser=0&hl=en&rclk=1,"24.6554774,87.9577205"
Sulitala Jumma Masjid,Mosque,"Sulitala Jumma Masjid, Unnamed Road, Dhuliyan, Anup Nagar, West Bengal 742202",,Unnamed Road,"Dhuliyan, Anup Nagar",742202,West Bengal,IN,https://www.google.com/maps/place/Sulitala+Jumma+Masjid/data=!4m7!3m6!1s0x39fa4564a70ad9d9:0xca5bb756671cb910!8m2!3d24.6657783!4d87.9528999!16s%2Fg%2F11jd9w7vyr!19sChIJ2dkKp2RF-jkRELkcZ1a3W8o?authuser=0&hl=en&rclk=1,"24.6657783,87.95289989999999"
Kharbona Jame Masjid,Mosque,"MXP2+882 Kharbona Jame Masjid, Dhuliyan, West Bengal 742202",,MXP2+882,Dhuliyan,742202,West Bengal,IN,https://www.google.com/maps/place/Kharbona+Jame+Masjid/data=!4m7!3m6!1s0x39fa450d1afb858d:0xea4a513b88026c30!8m2!3d24.6857677!4d87.9507747!16s%2Fg%2F11f9f0x3g7!19sChIJjYX7Gg1F-jkRMGwCiDtRSuo?authuser=0&hl=en&rclk=1,"24.6857677,87.9507747"
NUTAN MOMREJPUR JAME MASJID,Mosque,"MWXH+2J7 NUTAN MOMREJPUR JAME MASJID, Mamrejpur, Paranpara, West Bengal 742202",,MWXH+2J7,"Mamrejpur, Paranpara",742202,West Bengal,IN,https://www.google.com/maps/place/NUTAN+MOMREJPUR+JAME+MASJID/data=!4m7!3m6!1s0x39fa435485cca217:0x4c6bb96881cc2c0c!8m2!3d24.6975485!4d87.9290419!16s%2Fg%2F11c70d7077!19sChIJF6LMhVRD-jkRDCzMgWi5a0w?authuser=0&hl=en&rclk=1,"24.6975485,87.9290419"
Jame Masjid,Mosque,"MW7Q+H8C Jame Masjid, NH12, Ratanpur, West Bengal 742202",,"MW7Q+H8C, NH12",Ratanpur,742202,West Bengal,IN,https://www.google.com/maps/place/Jame+Masjid/data=!4m7!3m6!1s0x39fa4483583ed217:0x9c4ff677e37670f2!8m2!3d24.6639273!4d87.938264!16s%2Fg%2F11c3wt1s2s!19sChIJF9I-WINE-jkR8nB243f2T5w?authuser=0&hl=en&rclk=1,"24.663927299999997,87.93826399999999"
Sahebnagar Jame Masjid (Dakshinpara),Mosque,"JXRH+4VH Sahebnagar Jame Masjid (Dakshinpara), Saheb nagar, Anantapur, Dhuliyan, West Bengal",,"JXRH+4VH, Saheb nagar, Anantapur","Dhuliyan, Uttar Mohammadpur",,West Bengal,IN,https://www.google.com/maps/place/Sahebnagar+Jame+Masjid+%28Dakshinpara%29/data=!4m7!3m6!1s0x39fa45b1cbfffe6d:0x12e32d5d2918275e!8m2!3d24.6403007!4d87.9797216!16s%2Fg%2F11d_845ndn!19sChIJbf7_y7FF-jkRXicYKV0t4xI?authuser=0&hl=en&rclk=1,"24.640300699999997,87.97972159999999"
Mahaldar Para Juma Masjid,Mosque,"MWGX+59W Mahaldar Para Juma Masjid, Bidhan Chandra Rd, Anup Nagar, West Bengal 742202",,"MWGX+59W, Bidhan Chandra Rd",Anup Nagar,742202,West Bengal,IN,https://www.google.com/maps/place/Mahaldar+Para+Juma+Masjid/data=!4m7!3m6!1s0x39fa4495e3fcb0d9:0xdb2946b21dd6a620!8m2!3d24.6754962!4d87.9484495!16s%2Fg%2F11g9qgl0ft!19sChIJ2bD845VE-jkRIKbWHbJGKds?authuser=0&hl=en&rclk=1,"24.675496199999998,87.9484495"
Sulitala Jame Masjid,Mosque,"MX62+22W Sulitala Jame Masjid, Nimtala Main Road, Jafrabad, West Bengal 742202",,"MX62+22W, Nimtala Main Road","Jafrabad, Dhuliyan",742202,West Bengal,IN,https://www.google.com/maps/place/Sulitala+Jame+Masjid/data=!4m7!3m6!1s0x39fa448c67b4f57d:0xa6da62cbb8fc7f89!8m2!3d24.6601079!4d87.9500771!16s%2Fg%2F11dxbm3vzc!19sChIJffW0Z4xE-jkRiX_8uMti2qY?authuser=0&hl=en&rclk=1,"24.6601079,87.9500771"
Dighri Jame Masjid,Mosque,"MX96+5XQ Dighri Jame Masjid, Lalupur, West Bengal 742202",,MX96+5XQ,Lalupur,742202,West Bengal,IN,https://www.google.com/maps/place/Dighri+Jame+Masjid/data=!4m7!3m6!1s0x39fa44ef78958ee1:0x413a9dca7e9ef073!8m2!3d24.6679693!4d87.9624998!16s%2Fg%2F11c7sbnnhw!19sChIJ4Y6VeO9E-jkRc_CefsqdOkE?authuser=0&hl=en&rclk=1,"24.6679693,87.96249979999999"
Anupnagar Jame Masjid,Mosque,"MXP2+VF7 Anupnagar Jame Masjid, Amit Rd, Dhuliyan, West Bengal 742202",,"MXP2+VF7, Amit Rd",Dhuliyan,742202,West Bengal,IN,https://www.google.com/maps/place/Anupnagar+Jame+Masjid/data=!4m7!3m6!1s0x39fa44b83712acdf:0x2b63917dab6ad3a7!8m2!3d24.6871648!4d87.9511755!16s%2Fg%2F11g02ts347!19sChIJ36wSN7hE-jkRp9Nqq32RYys?authuser=0&hl=en&rclk=1,"24.687164799999998,87.95117549999999"
DAKTARPARA JUMMA MASJID,Mosque,"MW8X+4HP DAKTARPARA JUMMA MASJID, Jafrabad, West Bengal 742202",,MW8X+4HP,Jafrabad,742202,West Bengal,IN,https://www.google.com/maps/place/DAKTARPARA+JUMMA+MASJID/data=!4m7!3m6!1s0x39fa44920faceb4b:0x8325f8dab9fb240!8m2!3d24.6653262!4d87.9489446!16s%2Fg%2F11c5_sr0gc!19sChIJS-usD5JE-jkRQLKfq41fMgg?authuser=0&hl=en&rclk=1,"24.6653262,87.94894459999999"
New Sikdarpur Choto Masjid,Mosque,"JXW8+2Q7 New Sikdarpur Choto Masjid, Nimtita, Kankuria, West Bengal 742202",,JXW8+2Q7,"Nimtita, Kankuria",742202,West Bengal,IN,https://www.google.com/maps/place/New+Sikdarpur+Choto+Masjid/data=!4m7!3m6!1s0x39fa454768f6c237:0x9ef9d958e6e1ce97!8m2!3d24.6450405!4d87.9669227!16s%2Fg%2F11gjj2yg04!19sChIJN8L2aEdF-jkRl87h5ljZ-Z4?authuser=0&hl=en&rclk=1,"24.6450405,87.9669227"
Babupur purbopara jama Masjid,Mosque,"MX47+7P5 Babupur purbopara jama Masjid, Babupur,kankuria, Samserganj, Kankuria, West Bengal 742202",,"MX47+7P5, Babupur,kankuria, Samserganj",Kankuria,742202,West Bengal,IN,https://www.google.com/maps/place/Babupur+purbopara+jama+Masjid/data=!4m7!3m6!1s0x39fa4552ceebbaed:0xe62ada539654a65b!8m2!3d24.6556301!4d87.9643472!16s%2Fg%2F11sfdc5sww!19sChIJ7brrzlJF-jkRW6ZUllPaKuY?authuser=0&hl=en&rclk=1,"24.6556301,87.96434719999999"
New Jumma Masjid,Mosque,"MWCX+C64 New Jumma Masjid, Vill +PO PS Samsherganj Dist, Ratanpur, West Bengal 742202",,"MWCX+C64, Vill +PO PS Samsherganj Dist","Ratanpur, Dhuliyan",742202,West Bengal,IN,https://www.google.com/maps/place/New+Jumma+Masjid/data=!4m7!3m6!1s0x39fa4496a989df4d:0x9cee41559d7c1f1c!8m2!3d24.6710027!4d87.9480912!16s%2Fg%2F11cssncmn9!19sChIJTd-JqZZE-jkRHB98nVVB7pw?authuser=0&hl=en&rclk=1,"24.6710027,87.9480912"
Ferighat Waktia Masjid,Mosque,"MXQ4+32P Ferighat Waktia Masjid, Dhuliyan, West Bengal 742202",,MXQ4+32P,Dhuliyan,742202,West Bengal,IN,https://www.google.com/maps/place/Ferighat+Waktia+Masjid/data=!4m7!3m6!1s0x39fa44c7ce576e07:0x890c58d155742633!8m2!3d24.6877158!4d87.9550748!16s%2Fg%2F11fzf2py9c!19sChIJB25XzsdE-jkRMyZ0VdFYDIk?authuser=0&hl=en&rclk=1,"24.6877158,87.95507479999999"
Housenagar Waktia Masjid,Mosque,"MX32+7Q6 Housenagar Waktia Masjid, Jafrabad, West Bengal 742202",,MX32+7Q6,Jafrabad,742202,West Bengal,IN,https://www.google.com/maps/place/Housenagar+Waktia+Masjid/data=!4m7!3m6!1s0x39fa448aa1c8976d:0x44c48549e14da130!8m2!3d24.6531715!4d87.9518936!16s%2Fg%2F11g6p6597m!19sChIJbZfIoYpE-jkRMKFN4UmFxEQ?authuser=0&hl=en&rclk=1,"24.6531715,87.95189359999999"
Kagjipara jumma masjid,Mosque,"MWVW+C2H Kagjipara jumma masjid, Mahadeb Nagar, West Bengal 742202",,MWVW+C2H,Mahadeb Nagar,742202,West Bengal,IN,https://www.google.com/maps/place/Kagjipara+jumma+masjid/data=!4m7!3m6!1s0x39fa45366199ba81:0xbe79f2d0a73d47b7!8m2!3d24.6935576!4d87.9450946!16s%2Fg%2F11jh66kd86!19sChIJgbqZYTZF-jkRt0c9p9Dyeb4?authuser=0&hl=en&rclk=1,"24.6935576,87.94509459999999"
Nutan Loharpur Jumma Masjid,Mosque,"JXPJ+3G2 Nutan Loharpur Jumma Masjid, Chachanda, West Bengal 742224",,JXPJ+3G2,Chachanda,742224,West Bengal,IN,https://www.google.com/maps/place/Nutan+Loharpur+Jumma+Masjid/data=!4m7!3m6!1s0x39fa45b74a01f933:0x148733c73288d2cc!8m2!3d24.6351306!4d87.9812699!16s%2Fg%2F11gh055_gk!19sChIJM_kBSrdF-jkRzNKIMsczhxQ?authuser=0&hl=en&rclk=1,"24.6351306,87.9812699"
Dhulian Station More Mosjid,Mosque,"MW9W+8CQ Dhulian Station More Mosjid, Jafrabad, West Bengal 742202",,MW9W+8CQ,Jafrabad,742202,West Bengal,IN,https://www.google.com/maps/place/Dhulian+Station+More+Mosjid/data=!4m7!3m6!1s0x39fa4544b4b61d07:0xd5b096ee9adaf53f!8m2!3d24.6683459!4d87.9461202!16s%2Fg%2F11h88t041q!19sChIJBx22tERF-jkRP_Xamu6WsNU?authuser=0&hl=en&rclk=1,"24.6683459,87.9461202"
Laxmi nagar oktiya Masjid,Mosque,"MXQ2+P42 Laxmi nagar oktiya Masjid, Amit Rd, New Krishnapur, Dhuliyan, West Bengal 742202",New Krishnapur,"MXQ2+P42, Amit Rd",Dhuliyan,742202,West Bengal,IN,https://www.google.com/maps/place/Laxmi+nagar+oktiya+Masjid/data=!4m7!3m6!1s0x39fa45c3e2b0093f:0xf6d8f4bdb92a8b48!8m2!3d24.689256!4d87.9502534!16s%2Fg%2F11fjb4mgzk!19sChIJPwmw4sNF-jkRSIsqub302PY?authuser=0&hl=en&rclk=1,"24.689256,87.9502534"
"shibtlaa,muskingr jumaa msjid",Mosque,"MWXR+7WV shibtlaa,muskingr jumaa msjid, Paranpara, West Bengal 742202",,MWXR+7WV,Paranpara,742202,West Bengal,IN,"https://www.google.com/maps/place/%E0%A6%B6%E0%A6%BF%E0%A6%AC%E0%A6%A4%E0%A6%B2%E0%A6%BE,%E0%A6%AE%E0%A7%81%E0%A6%B8%E0%A7%8D%E0%A6%95%E0%A6%BF%E0%A6%A8%E0%A6%97%E0%A6%B0+%E0%A6%9C%E0%A7%81%E0%A6%AE%E0%A6%BE+%E0%A6%AE%E0%A6%B8%E0%A6%9C%E0%A6%BF%E0%A6%A6/data=!4m7!3m6!1s0x39fa44ad6c338a2d:0x45b2458424142d62!8m2!3d24.6982346!4d87.9423078!16s%2Fg%2F11fz9_47zc!19sChIJLYozbK1E-jkRYi0UJIRFskU?authuser=0&hl=en&rclk=1","24.6982346,87.9423078"
Sahebnagar Jame Masjid,Mosque,"JWJ8+98Q Sahebnagar Jame Masjid, Chandpur, Bhasaipaikar, West Bengal 742202",,JWJ8+98Q,"Chandpur, Bhasaipaikar",742202,West Bengal,IN,https://www.google.com/maps/place/Sahebnagar+Jame+Masjid/data=!4m7!3m6!1s0x39fa439504d89935:0x36a6733cd6c72d79!8m2!3d24.6309654!4d87.9158606!16s%2Fg%2F11fxb7scgb!19sChIJNZnYBJVD-jkReS3H1jxzpjY?authuser=0&hl=en&rclk=1,"24.630965399999997,87.9158606"
Raghunadanpur jama mosjid 2,Mosque,"JXXC+R33 Raghunadanpur jama mosjid 2, Nimtita, Kankuria, West Bengal 742202",,JXXC+R33,"Nimtita, Kankuria",742202,West Bengal,IN,https://www.google.com/maps/place/Raghunadanpur+jama+mosjid+2/data=!4m7!3m6!1s0x39fa4454f808ee79:0x5c25fa0e38a44d4c!8m2!3d24.6495102!4d87.9701844!16s%2Fg%2F11c6sq5vzp!19sChIJee4I-FRE-jkRTE2kOA76JVw?authuser=0&hl=en&rclk=1,"24.649510199999998,87.9701844"
Moulapara Jame Masjid,Mosque,"MXF2+R6X Moulapara Jame Masjid, Hijaltala, Dhuliyan, Anup Nagar, West Bengal 742202",Hijaltala,MXF2+R6X,"Dhuliyan, Anup Nagar",742202,West Bengal,IN,https://www.google.com/maps/place/Moulapara+Jame+Masjid/data=!4m7!3m6!1s0x39fa4495082bef49:0x79e27a3c9e820a36!8m2!3d24.6746033!4d87.9506138!16s%2Fg%2F11gbwmdpws!19sChIJSe8rCJVE-jkRNgqCnjx64nk?authuser=0&hl=en&rclk=1,"24.674603299999998,87.9506138"
Dakshin Gazinagar Jummah Masjid,Mosque,"MWHR+H3C Dakshin Gazinagar Jummah Masjid, Station Rd, Dhuliyan, Anup Nagar, West Bengal 742202",,"MWHR+H3C, Station Rd","Dhuliyan, Anup Nagar",742202,West Bengal,IN,https://www.google.com/maps/place/Dakshin+Gazinagar+Jummah+Masjid/data=!4m7!3m6!1s0x39fa45f6d466cda3:0x4edbaead90dd4600!8m2!3d24.678947!4d87.9401362!16s%2Fg%2F11hfxx0c5z!19sChIJo81m1PZF-jkRAEbdkK2u204?authuser=0&hl=en&rclk=1,"24.678946999999997,87.9401362"
Uttarpara Jame Masjid,Mosque,"MWMJ+6H6 Uttarpara Jame Masjid, Ankura Rd, palpara, Mahadeb Nagar, West Bengal 742202",palpara,"MWMJ+6H6, Ankura Rd",Mahadeb Nagar,742202,West Bengal,IN,https://www.google.com/maps/place/Uttarpara+Jame+Masjid/data=!4m7!3m6!1s0x39fa4358d0a60c19:0x376e699fb47170e3!8m2!3d24.6830259!4d87.9313775!16s%2Fg%2F11gf0h_6kv!19sChIJGQym0FhD-jkR43BxtJ9pbjc?authuser=0&hl=en&rclk=1,"24.6830259,87.9313775"
Ghanshyampur Oktiya Masjid,Mosque,"MX59+XGP Ghanshyampur Oktiya Masjid, Debidaspur, Ghanshyampur, West Bengal 742202",Debidaspur,MX59+XGP,Ghanshyampur,742202,West Bengal,IN,https://www.google.com/maps/place/Ghanshyampur+Oktiya+Masjid/data=!4m7!3m6!1s0x39fa44fc10d260f3:0x15c2acfb7783a62d!8m2!3d24.6599545!4d87.968813!16s%2Fg%2F11f3082l8w!19sChIJ82DSEPxE-jkRLaaDd_uswhU?authuser=0&hl=en&rclk=1,"24.659954499999998,87.968813"
Dakshin Hijaltala aktiya masjid,Mosque,"MXC2+XCC Dakshin Hijaltala aktiya masjid, Anup Nagar, West Bengal 742202",,MXC2+XCC,Anup Nagar,742202,West Bengal,IN,https://www.google.com/maps/place/Dakshin+Hijaltala+aktiya+masjid/data=!4m7!3m6!1s0x39fa45eb824c5989:0x23f1b924da16c53b!8m2!3d24.6724419!4d87.9510143!16s%2Fg%2F11p0bm3kg7!19sChIJiVlMgutF-jkRO8UW2iS58SM?authuser=0&hl=en&rclk=1,"24.6724419,87.9510143"
Gazinagar Waqtiya Masjid,Mosque,"Gazinagar Waqtiya Masjid, Anup Nagar, West Bengal 742202",,,Anup Nagar,742202,West Bengal,IN,https://www.google.com/maps/place/Gazinagar+Waqtiya+Masjid/data=!4m7!3m6!1s0x39fa45d2cd66ea8f:0xce749520571b95b2!8m2!3d24.6854621!4d87.9432302!16s%2Fg%2F11l5tc55p4!19sChIJj-pmzdJF-jkRspUbVyCVdM4?authuser=0&hl=en&rclk=1,"24.6854621,87.9432302"
New Krishnapur Jame Masjid,Mosque,"MWQW+R5V New Krishnapur Jame Masjid, New Krishnapur, Anup Nagar, West Bengal 742202",New Krishnapur,MWQW+R5V,Anup Nagar,742202,West Bengal,IN,https://www.google.com/maps/place/New+Krishnapur+Jame+Masjid/data=!4m7!3m6!1s0x39fa459c7c766bbb:0xb4eb26b16d04c51d!8m2!3d24.6896112!4d87.9454188!16s%2Fg%2F11h6l4k637!19sChIJu2t2fJxF-jkRHcUEbbEm67Q?authuser=0&hl=en&rclk=1,"24.689611199999998,87.9454188"
Nimtala Masjid,Mosque,"JXWG+FJX Nimtala Masjid, Nimtala Main Rd, Nimtita, Sikdapur, West Bengal 742202",,"JXWG+FJX, Nimtala Main Rd","Nimtita, Sikdapur",742202,West Bengal,IN,https://www.google.com/maps/place/Nimtala+Masjid/data=!4m7!3m6!1s0x39fa45cadd184f37:0xe490396a7e42f78a!8m2!3d24.6462456!4d87.9766032!16s%2Fg%2F11lh6h3709!19sChIJN08Y3cpF-jkRivdCfmo5kOQ?authuser=0&hl=en&rclk=1,"24.6462456,87.9766032"
Babupur Roadpara Jame Masjid (baabupur roddpaadd'aa jaame msjid),Mosque,"MX35+QXJ Babupur Roadpara Jame Masjid (baabupur roddpaadd'aa jaame msjid), Nimtala Main Rd, Kankuria, West Bengal 742202",,"MX35+QXJ, Nimtala Main Rd",Kankuria,742202,West Bengal,IN,https://www.google.com/maps/place/Babupur+Roadpara+Jame+Masjid+%28%E0%A6%AC%E0%A6%BE%E0%A6%AC%E0%A7%81%E0%A6%AA%E0%A7%81%E0%A6%B0+%E0%A6%B0%E0%A7%8B%E0%A6%A1%E0%A6%AA%E0%A6%BE%E0%A6%A1%E0%A6%BC%E0%A6%BE+%E0%A6%9C%E0%A6%BE%E0%A6%AE%E0%A7%87+%E0%A6%AE%E0%A6%B8%E0%A6%9C%E0%A6%BF%E0%A6%A6%29/data=!4m7!3m6!1s0x39fa45e5bcac7d69:0x8f40a7ccb58fcd48!8m2!3d24.6544715!4d87.9598938!16s%2Fg%2F11pkfdh522!19sChIJaX2svOVF-jkRSM2PtcynQI8?authuser=0&hl=en&rclk=1,"24.6544715,87.95989379999999"
Jame Masjid Washroom,Mosque,"Jame Masjid Washroom, 0, Dhulian - Pakur Rd, Chandpur, West Bengal 742202",,"0, Dhulian - Pakur Rd",Chandpur,742202,West Bengal,IN,https://www.google.com/maps/place/Jame+Masjid+Washroom/data=!4m7!3m6!1s0x39fa432dea311dcb:0x70971313cae7f2fe!8m2!3d24.6369454!4d87.914161!16s%2Fg%2F11kqc1vlwx!19sChIJyx0x6i1D-jkR_vLnyhMTl3A?authuser=0&hl=en&rclk=1,"24.6369454,87.914161"
Mosque,Mosque,"MXH5+6VF Mosque, Lalupur, West Bengal 742202",,MXH5+6VF,Lalupur,742202,West Bengal,IN,https://www.google.com/maps/place/Mosque/data=!4m7!3m6!1s0x39fa45933896375d:0x8cbbe9de889c1ad4!8m2!3d24.678062!4d87.959676!16s%2Fg%2F11gxmcl_t_!19sChIJXTeWOJNF-jkR1BqciN7pu4w?authuser=0&hl=en&rclk=1,"24.678062,87.959676"
Gajinagar Jame Masjid,Mosque,"MWPR+3VQ Gajinagar Jame Masjid, Dhuliyan, Anup Nagar, West Bengal 742202",,MWPR+3VQ,"Dhuliyan, Anup Nagar",742202,West Bengal,IN,https://www.google.com/maps/place/Gajinagar+Jame+Masjid/data=!4m7!3m6!1s0x39fa45c9ce3ea80b:0x104a4a1fee00993!8m2!3d24.6852172!4d87.9422431!16s%2Fg%2F11tf07cp2v!19sChIJC6g-zslF-jkRkwng_qGkBAE?authuser=0&hl=en&rclk=1,"24.6852172,87.9422431"
Kharbona Mominpara Jame Masjid,Mosque,"MWPX+FGW Kharbona Mominpara Jame Masjid, Kharbona Rd, Dhuliyan, Anup Nagar, West Bengal 742202",,"MWPX+FGW, Kharbona Rd","Dhuliyan, Anup Nagar",742202,West Bengal,IN,https://www.google.com/maps/place/Kharbona+Mominpara+Jame+Masjid/data=!4m7!3m6!1s0x39fa45616ba054fd:0xadb060b73dd32d90!8m2!3d24.6862391!4d87.9488395!16s%2Fg%2F11jgz8sf7c!19sChIJ_VSga2FF-jkRkC3TPbdgsK0?authuser=0&hl=en&rclk=1,"24.686239099999998,87.94883949999999"
Shamserganj Waqtia Masjid,Mosque,"MXG3+VJG Shamserganj Waqtia Masjid, Unnamed Road, Dhuliyan, West Bengal 742202",,"MXG3+VJG, Unnamed Road",Dhuliyan,742202,West Bengal,IN,https://www.google.com/maps/place/Shamserganj+Waqtia+Masjid/data=!4m7!3m6!1s0x39fa45ccae4f716d:0xe0c2c87aea0ef8ec!8m2!3d24.6771925!4d87.9540822!16s%2Fg%2F11h7bg37r1!19sChIJbXFPrsxF-jkR7PgO6nrIwuA?authuser=0&hl=en&rclk=1,"24.6771925,87.9540822"
Gazinagar (Delar para),Mosque,"Gazinagar (Delar para), MWPR+GH2, Gazinagar, Mahadebnagar(Chowrangi, More, Dhuliyan, 742202",,"MWPR+GH2, Gazinagar, Mahadebnagar(Chowrangi, More","Dhuliyan, Mahadeb Nagar",742202,West Bengal,IN,https://www.google.com/maps/place/Gazinagar+%28Delar+para%29/data=!4m7!3m6!1s0x39fa45cf986778b3:0xaae3527bb735b3fb!8m2!3d24.6835115!4d87.9402359!16s%2Fg%2F11pyvnz_1f!19sChIJs3hnmM9F-jkR-7M1t3tS46o?authuser=0&hl=en&rclk=1,"24.683511499999998,87.94023589999999"
Jumma Masjid,Mosque,"MWF7+V5R Jumma Masjid, Phulandar, West Bengal 742202",,MWF7+V5R,Phulandar,742202,West Bengal,IN,https://www.google.com/maps/place/Jumma+Masjid/data=!4m7!3m6!1s0x39fa436248dcac83:0x4cafe493c3e5f78!8m2!3d24.6747315!4d87.912888!16s%2Fg%2F11fp31mb65!19sChIJg6zcSGJD-jkReF8-PEn-ygQ?authuser=0&hl=en&rclk=1,"24.6747315,87.912888"
Hijoltla jumma moszit,Association or organization,"MXF3+V3X Hijoltla jumma moszit, Anup Nagar, West Bengal 742202",,MXF3+V3X,Anup Nagar,742202,West Bengal,IN,https://www.google.com/maps/place/Hijoltla+jumma+moszit/data=!4m7!3m6!1s0x39fa45cc15fffe41:0x1dcbd9de77e554b4!8m2!3d24.6747376!4d87.9527225!16s%2Fg%2F11r27l81cp!19sChIJQf7_FcxF-jkRtFTld97Zyx0?authuser=0&hl=en&rclk=1,"24.6747376,87.9527225"
JUMMA MASJID,Mosque,"MXG3+225 JUMMA MASJID, Anup Nagar, West Bengal 742202",,MXG3+225,Anup Nagar,742202,West Bengal,IN,https://www.google.com/maps/place/JUMMA+MASJID/data=!4m7!3m6!1s0x39fa45da2a404b63:0x9d3faa1e80297697!8m2!3d24.6750022!4d87.9526056!16s%2Fg%2F11svjgj4g9!19sChIJY0tAKtpF-jkRl3YpgB6qP50?authuser=0&hl=en&rclk=1,"24.675002199999998,87.9526056"
Jumma masjid,Mosque,"MWJX+PQH Jumma masjid, Natun bazar, Thakurpara, Dhuliyan, Anup Nagar, West Bengal 742202",Thakurpara,"MWJX+PQH, Natun bazar","Dhuliyan, Anup Nagar",742202,West Bengal,IN,https://www.google.com/maps/place/Jumma+masjid/data=!4m7!3m6!1s0x39fa45ed7b2fcfb5:0x1d22df77568c7b78!8m2!3d24.6818144!4d87.9494894!16s%2Fg%2F11n0ds_xn9!19sChIJtc8ve-1F-jkReHuMVnffIh0?authuser=0&hl=en&rclk=1,"24.6818144,87.94948939999999"
KAMAT MOMIN PARA JAME MASJID,Mosque,"MWHX+65M KAMAT MOMIN PARA JAME MASJID, Anup Nagar, West Bengal 742202",,MWHX+65M,Anup Nagar,742202,West Bengal,IN,https://www.google.com/maps/place/KAMAT+MOMIN+PARA+JAME+MASJID/data=!4m7!3m6!1s0x39fa458aaf62b559:0x1f2bf75def2c365e!8m2!3d24.6779877!4d87.9475995!16s%2Fg%2F11kjdthb0t!19sChIJWbVir4pF-jkRXjYs7133Kx8?authuser=0&hl=en&rclk=1,"24.6779877,87.9475995"
Samsherganj Waqtia Masjid,Mosque,"MXF4+9W9 Samsherganj Waqtia Masjid, Anup Nagar, West Bengal 742202",,MXF4+9W9,Anup Nagar,742202,West Bengal,IN,https://www.google.com/maps/place/Samsherganj+Waqtia+Masjid/data=!4m7!3m6!1s0x39fa457b95e6a39f:0x7380c161070e9d6f!8m2!3d24.6735048!4d87.9573324!16s%2Fg%2F11t1b0qvc_!19sChIJn6PmlXtF-jkRb50OB2HBgHM?authuser=0&hl=en&rclk=1,"24.6735048,87.9573324"
Jamia Masjid Dhulian,Mosque,"6966+M9P Jamia Masjid Dhulian, Pindi Gheb-Khaur Rd, Dhulian, Attock, Punjab 43260, Pakistan",,"6966+M9P, Pindi Gheb-Khaur Rd",Dhulian,43260,"Attock, Punjab",PK,https://www.google.com/maps/place/Jamia+Masjid+Dhulian/data=!4m7!3m6!1s0x39209fc734864eb1:0xdd35ef877ca12064!8m2!3d33.2117053!4d72.3609417!16s%2Fg%2F11y88zmy8!19sChIJsU6GNMefIDkRZCChfIfvNd0?authuser=0&hl=en&rclk=1,"33.2117053,72.3609417"
SULITALA WAQTAYA MASJID,Mosque,"MX82+C8V SULITALA WAQTAYA MASJID, Dhuliyan, Anup Nagar, West Bengal 742202",,MX82+C8V,"Dhuliyan, Anup Nagar",742202,West Bengal,IN,https://www.google.com/maps/place/SULITALA+WAQTAYA+MASJID/data=!4m7!3m6!1s0x39fa4528508e1fbf:0x8cc2231ca1873175!8m2!3d24.6661154!4d87.9507969!16s%2Fg%2F11h7qxqptm!19sChIJvx-OUChF-jkRdTGHoRwjwow?authuser=0&hl=en&rclk=1,"24.6661154,87.9507969"
Aktarpur juma masjid,Mosque,"MXC4+G8W Aktarpur juma masjid, Samsherganj, Dhuliyan, Anup Nagar, West Bengal 742202",Samsherganj,MXC4+G8W,"Dhuliyan, Anup Nagar",742202,West Bengal,IN,https://www.google.com/maps/place/Aktarpur+juma+masjid/data=!4m7!3m6!1s0x39fa453f7e20a53d:0xde496d5f3c155fc9!8m2!3d24.671378!4d87.9558338!16s%2Fg%2F11tsdm7drk!19sChIJPaUgfj9F-jkRyV8VPF9tSd4?authuser=0&hl=en&rclk=1,"24.671377999999997,87.9558338"
Ratanpur Eid Gaha Road,Mosque,"Ratanpur Eid Gaha Road, Bidhan Chandra Rd, Ashrampara Para, Singh Para, Dhuliyan, West Bengal 742202","Ashrampara Para, Singh Para",Bidhan Chandra Rd,Dhuliyan,742202,West Bengal,IN,https://www.google.com/maps/place/Ratanpur+Eid+Gaha+Road/data=!4m7!3m6!1s0x39fa4576700dd1f1:0x7b285f2020ad884b!8m2!3d24.6813515!4d87.9537107!16s%2Fg%2F11h3v6v13j!19sChIJ8dENcHZF-jkRS4itICBfKHs?authuser=0&hl=en&rclk=1,"24.681351499999998,87.9537107"
Natun Momrejpur Eid gara maidan,Mosque,"MWXM+324 Natun Momrejpur Eid gara maidan, Jigri Dhulian Rd, Paranpara, West Bengal 742202",,"MWXM+324, Jigri Dhulian Rd",Paranpara,742202,West Bengal,IN,https://www.google.com/maps/place/Natun+Momrejpur+Eid+gara+maidan/data=!4m7!3m6!1s0x39fa435d79758bc5:0x474f5ef532e1a226!8m2!3d24.6973577!4d87.9328006!16s%2Fg%2F11s7cvf94c!19sChIJxYt1eV1D-jkRJqLhMvVeT0c?authuser=0&hl=en&rclk=1,"24.697357699999998,87.9328006"
"Khodabandpur,masjid",Mosque,"PW6P+5GQ Khodabandpur,masjid, Khodabandpur, Sibnagar, West Bengal 742202",,PW6P+5GQ,"Khodabandpur, Sibnagar",742202,West Bengal,IN,"https://www.google.com/maps/place/Khodabandpur,masjid/data=!4m7!3m6!1s0x39fa5b93a07eaa97:0x7afe0e3438938d8a!8m2!3d24.7104535!4d87.9363677!16s%2Fg%2F11v156wvxq!19sChIJl6p-oJNb-jkRio2TODQO_no?authuser=0&hl=en&rclk=1","24.7104535,87.93636769999999"
C. T. H Misbahul Uloom Madrasah,Mosque,"JWXX+FM C. T. H Misbahul Uloom Madrasah, Kankuria, West Bengal 742202",,JWXX+FM,Kankuria,,West Bengal,IN,https://www.google.com/maps/place/C.+T.+H+Misbahul+Uloom+Madrasah/data=!4m7!3m6!1s0x39fa45c0fee0987f:0x1be378c37c5a5841!8m2!3d24.6487215!4d87.949141!16s%2Fg%2F11s169hnnr!19sChIJf5jg_sBF-jkRQVhafMN44xs?authuser=0&hl=en&rclk=1,"24.6487215,87.949141"
AL-HERA MASJID aal-heraa msjid,Mosque,"AL-HERA MASJID aal-heraa msjid, Al-Hera Nagar, Sibnagar, West Bengal 742202",,Al-Hera Nagar,Sibnagar,742202,West Bengal,IN,https://www.google.com/maps/place/AL-HERA+MASJID+%E0%A6%86%E0%A6%B2-%E0%A6%B9%E0%A7%87%E0%A6%B0%E0%A6%BE+%E0%A6%AE%E0%A6%B8%E0%A6%9C%E0%A6%BF%E0%A6%A6/data=!4m7!3m6!1s0x39fa5dc3c1defb05:0x66090ad9f5c2921e!8m2!3d24.7066883!4d87.930842!16s%2Fg%2F11sj9y6hh7!19sChIJBfvewcNd-jkRHpLC9dkKCWY?authuser=0&hl=en&rclk=1,"24.7066883,87.930842"
Daktar para waqita masjid,Mosque,"MW8X+FJH Daktar para waqita masjid, Jafrabad, West Bengal 742202",,MW8X+FJH,Jafrabad,742202,West Bengal,IN,https://www.google.com/maps/place/Daktar+para+waqita+masjid/data=!4m7!3m6!1s0x39fa458eadaf5785:0xb1a886a7624766ad!8m2!3d24.6661808!4d87.9491163!16s%2Fg%2F11h4d31cq6!19sChIJhVevrY5F-jkRrWZHYqeGqLE?authuser=0&hl=en&rclk=1,"24.6661808,87.9491163"
Jama'at Office Masjid,Mosque,"MW6X+684 Jama'at Office Masjid, Old Duckbanglow, Jafrabad, West Bengal 742202",,"MW6X+684, Old Duckbanglow",Jafrabad,742202,West Bengal,IN,https://www.google.com/maps/place/Jama%27at+Office+Masjid/data=!4m7!3m6!1s0x39fa45615e2d716d:0xd9a632a305223775!8m2!3d24.6606696!4d87.9483974!16s%2Fg%2F11stpl1rc0!19sChIJbXEtXmFF-jkRdTciBaMyptk?authuser=0&hl=en&rclk=1,"24.6606696,87.94839739999999"
Masjid,Mosque,"MW8W+96C Masjid, Jafrabad, West Bengal 742202",,MW8W+96C,Jafrabad,742202,West Bengal,IN,https://www.google.com/maps/place/Masjid/data=!4m7!3m6!1s0x39fa45c9fd81bebf:0xa72c40151d67f25c!8m2!3d24.6659374!4d87.9455065!16s%2Fg%2F11lkzx2tl4!19sChIJv76B_clF-jkRXPJnHRVALKc?authuser=0&hl=en&rclk=1,"24.665937399999997,87.9455065"
Gazinagar jama masjid Road,Mosque,"Gazinagar jama masjid Road, New Krishnapur, Dhuliyan, Anup Nagar, West Bengal 742202",New Krishnapur,,"Dhuliyan, Anup Nagar",742202,West Bengal,IN,https://www.google.com/maps/place/Gazinagar+jama+masjid+Road/data=!4m7!3m6!1s0x39fa452a03821941:0xcc324897104682ef!8m2!3d24.6876787!4d87.9440968!16s%2Fg%2F11nyvf550l!19sChIJQRmCAypF-jkR74JGEJdIMsw?authuser=0&hl=en&rclk=1,"24.6876787,87.9440968"
ENAYETNAGAR &SHIBTALA JAMIA MASJID,Mosque,"MWWQ+3W8 ENAYETNAGAR &SHIBTALA JAMIA MASJID, Jigri Dhulian Rd, Paranpara, West Bengal 742202",,"MWWQ+3W8, Jigri Dhulian Rd",Paranpara,742202,West Bengal,IN,https://www.google.com/maps/place/ENAYETNAGAR+%26SHIBTALA+JAMIA+MASJID/data=!4m7!3m6!1s0x39fa45ecd11a986b:0x54ffa7c1e977b631!8m2!3d24.695158!4d87.9398409!16s%2Fg%2F11s85lq589!19sChIJa5ga0exF-jkRMbZ36cGn_1Q?authuser=0&hl=en&rclk=1,"24.695158,87.9398409"
Mosque,Mosque,"MW3X+2CV Mosque, West House Nagar, Tinpakuria, Jafrabad, West Bengal 742202",,"MW3X+2CV, West House Nagar, Tinpakuria",Jafrabad,742202,West Bengal,IN,https://www.google.com/maps/place/Mosque/data=!4m7!3m6!1s0x39fa45bf6a1e756f:0xb4fb413c8db31689!8m2!3d24.6520153!4d87.9476051!16s%2Fg%2F11tdbfq9qy!19sChIJb3Uear9F-jkRiRazjTxB-7Q?authuser=0&hl=en&rclk=1,"24.6520153,87.94760509999999"
Shibnagar Haripara Jame masjid,Mosque,"PW8M+4H5 Shibnagar Haripara Jame masjid, Sibnagar, West Bengal 742202",,PW8M+4H5,Sibnagar,742202,West Bengal,IN,https://www.google.com/maps/place/Shibnagar+Haripara+Jame+masjid/data=!4m7!3m6!1s0x39fa5b51dca60e1b:0xae694d9558b15ff0!8m2!3d24.7152505!4d87.933993!16s%2Fg%2F11y1wjdrtx!19sChIJGw6m3FFb-jkR8F-xWJVNaa4?authuser=0&hl=en&rclk=1,"24.7152505,87.933993"
Kankuria Jumma Masjid,Mosque,"Kankuria Jumma Masjid, Puraton Basti Jumma Masjid, Kankuria, West Bengal 742202",,Puraton Basti Jumma Masjid,Kankuria,742202,West Bengal,IN,https://www.google.com/maps/place/Kankuria+Jumma+Masjid/data=!4m7!3m6!1s0x39fa45c046b3a725:0xf054223051956a3a!8m2!3d24.6500587!4d87.9604345!16s%2Fg%2F11s5gsrqvk!19sChIJJaezRsBF-jkROmqVUTAiVPA?authuser=0&hl=en&rclk=1,"24.6500587,87.96043449999999"
Sahebnagar Taltala Waqtiya Masjid,Mosque,"JXRJ+M6G Sahebnagar Taltala Waqtiya Masjid, Sahebnagar, More, Taltala, Uttar Mohammadpur, West Bengal 742202",Taltala,"JXRJ+M6G Sahebnagar, More",Uttar Mohammadpur,742202,West Bengal,IN,https://www.google.com/maps/place/Sahebnagar+Taltala+Waqtiya+Masjid/data=!4m7!3m6!1s0x39fa45af3b45ca39:0x61a0e57822b64d66!8m2!3d24.6416129!4d87.9803635!16s%2Fg%2F11tfw4xzkd!19sChIJOcpFO69F-jkRZk22InjloGE?authuser=0&hl=en&rclk=1,"24.6416129,87.9803635"
New Sikdarpur Choto Masjid,Mosque,"MX26+25F New Sikdarpur Choto Masjid, Kankuria, West Bengal 742202",,MX26+25F,Kankuria,742202,West Bengal,IN,https://www.google.com/maps/place/New+Sikdarpur+Choto+Masjid/data=!4m7!3m6!1s0x39fa45f8a131e5e1:0x1c44582800620ee6!8m2!3d24.6500587!4d87.9604345!16s%2Fg%2F11f6yx98h9!19sChIJ4eUxofhF-jkR5g5iAChYRBw?authuser=0&hl=en&rclk=1,"24.6500587,87.96043449999999"
MASJID,Mosque,"PX4J+W9X MASJID, Par Deonapur, West Bengal 732210",,PX4J+W9X,Par Deonapur,,West Bengal,IN,https://www.google.com/maps/place/MASJID/data=!4m7!3m6!1s0x39fa5b52b81cefc1:0x183f165abcf2b960!8m2!3d24.7073596!4d87.9809728!16s%2Fg%2F11j2lnvgpf!19sChIJwe8cuFJb-jkRYLnyvFoWPxg?authuser=0&hl=en&rclk=1,"24.7073596,87.98097279999999"
Pratapganj Waqtiya Masjid,Mosque,"MX3F+HJ3 Pratapganj Waqtiya Masjid, Pratapganj, Anantpur, West Bengal 742202",Pratapganj,MX3F+HJ3,Anantpur,742202,West Bengal,IN,https://www.google.com/maps/place/Pratapganj+Waqtiya+Masjid/data=!4m7!3m6!1s0x39fa4590a2a11aed:0x5e84d354d83c78c0!8m2!3d24.6534402!4d87.974351!16s%2Fg%2F11vdvg8r4c!19sChIJ7RqhopBF-jkRwHg82FTThF4?authuser=0&hl=en&rclk=1,"24.6534402,87.974351"
Joykrishnapur Dakshin Para Jumma Masjid,Mosque,"JXPC+665 Joykrishnapur Dakshin Para Jumma Masjid, Unnamed Road, Jaykrishnapur, West Bengal 742202",,"JXPC+665, Unnamed Road",Jaykrishnapur,742202,West Bengal,IN,https://www.google.com/maps/place/Joykrishnapur+Dakshin+Para+Jumma+Masjid/data=!4m7!3m6!1s0x39fa45da8d2d65ed:0x7ac9c04aeff67861!8m2!3d24.6355059!4d87.970619!16s%2Fg%2F11rgrt27rj!19sChIJ7WUtjdpF-jkRYXj270rAyXo?authuser=0&hl=en&rclk=1,"24.6355059,87.970619"
