name,main_category,address,address_ward,address_street,address_city,address_postal_code,address_state,address_country_code,link,coordinates
Jamia Millia Islamia Central Mosque - jm` msjdi jm`h mlyh slmyh,Mosque,"Jamia Millia Islamia Central Mosque - jm` msjdi jm`h mlyh slmyh, Maulana Mohammad Ali Jauhar Marg, Jamia Millia Islamia, Jamia Nagar, Okhla, New Delhi, Delhi 110025","Jamia Millia Islamia, Jamia Nagar, Okhla",Maulana Mohammad Ali Jauhar Marg,New Delhi,110025,Delhi,IN,https://www.google.com/maps/place/Jamia+Millia+Islamia+Central+Mosque+-+%D8%AC%D8%A7%D9%85%D8%B9+%D9%85%D8%B3%D8%AC%D8%AF%D9%90+%D8%AC%D8%A7%D9%85%D8%B9%DB%81+%D9%85%D9%84%DB%8C%DB%81+%D8%A7%D8%B3%D9%84%D8%A7%D9%85%DB%8C%DB%81%E2%80%AD/data=!4m7!3m6!1s0x390ce38b112f4ff9:0xb882674201afdc30!8m2!3d28.5625429!4d77.2826111!16s%2Fg%2F1hhjtj1db!19sChIJ-U8vEYvjDDkRMNyvAUJngrg?authuser=0&hl=en&rclk=1,"28.5625429,77.2826111"
Abu Bakr 'abuw bakrin [Masjid],Mosque,"Abu Bakr 'abuw bakrin [Masjid], AP Perfect Star, Sahaspur Alinagar, Sahaspur, Uttar Pradesh 244222",,AP Perfect Star,"Sahaspur Alinagar, Sahaspur",244222,Uttar Pradesh,IN,https://www.google.com/maps/place/Abu+Bakr+%D8%A3%D9%8E%D8%A8%D9%8F%D9%88+%D8%A8%D9%8E%D9%83%D9%92%D8%B1%D9%8D+%5BMasjid%5D%E2%80%AD/data=!4m7!3m6!1s0x390b039bc83a16a9:0x8afe5e2f4b6d91d7!8m2!3d28.837461!4d78.5791095!16s%2Fg%2F11pkbzcfgk!19sChIJqRY6yJsDCzkR15FtSy9e_oo?authuser=0&hl=en&rclk=1,"28.837460999999998,78.5791095"
Masjid Abu bakar R.z Ahle Hadees,Mosque,"Masjid Abu bakar R.z Ahle Hadees, G.336 Juma bazar Road, Shaheed Nagar, Ghaziabad, Uttar Pradesh 201005",Shaheed Nagar,G.336 Juma bazar Road,Ghaziabad,201005,Uttar Pradesh,IN,https://www.google.com/maps/place/Masjid+Abu+bakar+R.z+Ahle+Hadees/data=!4m7!3m6!1s0x390cfb8374f606bb:0x8cdb3f4f490e4a2e!8m2!3d28.6806126!4d77.3359288!16s%2Fg%2F11h1pdqs72!19sChIJuwb2dIP7DDkRLkoOSU8_24w?authuser=0&hl=en&rclk=1,"28.6806126,77.33592879999999"
Jama Masjid Kahkashan jm` msjd,Mosque,"Jama Masjid Kahkashan jm` msjd, Block D, Shop No. E-1, Okhla Vihar Main Rd, Jamia Nagar, Okhla, New Delhi, Delhi 110025","Okhla Vihar, Okhla Vihar, Block D, Jamia Nagar, Okhla","Block D, Shop No. E-1, Okhla Vihar Main Rd",New Delhi,110025,Delhi,IN,https://www.google.com/maps/place/Jama+Masjid+Kahkashan+%D8%AC%D8%A7%D9%85%D8%B9+%D9%85%D8%B3%D8%AC%D8%AF%E2%80%AD/data=!4m7!3m6!1s0x390ce40964ba23d5:0x1bbbdd0080b3ca03!8m2!3d28.5551863!4d77.2898845!16s%2Fg%2F1pp2tynbb!19sChIJ1SO6ZAnkDDkRA8qzgADduxs?authuser=0&hl=en&rclk=1,"28.5551863,77.2898845"
Jama Masjid Abu Bakr Siddique Ahle Hadees,Mosque,"H78M+M32 Jama Masjid Abu Bakr Siddique Ahle Hadees, Zakir Nagar Main Rd, Mehboob Nagar, Jogabai Extension, Jamia Nagar, Okhla, New Delhi, Delhi 110025","Mehboob Nagar, Jogabai Extension, Jamia Nagar, Okhla","H78M+M32, Zakir Nagar Main Rd",New Delhi,110025,Delhi,IN,https://www.google.com/maps/place/Jama+Masjid+Abu+Bakr+Siddique+Ahle+Hadees/data=!4m7!3m6!1s0x390ce38962496867:0x3deed9e1febe9bfc!8m2!3d28.5666295!4d77.2826439!16s%2Fg%2F124srs5b7!19sChIJZ2hJYonjDDkR_Ju-_uHZ7j0?authuser=0&hl=en&rclk=1,"28.566629499999998,77.2826439"
"Moti Masjid,(Zakir Nagar)",Mosque,"H7CJ+68C Moti Masjid,(Zakir Nagar), Street Number 22, Jogabai Extension, Zakir Nagar, Okhla, New Delhi, Delhi 110025","Jogabai Extension, Zakir Nagar, Okhla","H7CJ+68C, Street Number 22",New Delhi,110025,Delhi,IN,"https://www.google.com/maps/place/Moti+Masjid,%28Zakir+Nagar%29/data=!4m7!3m6!1s0x390ce38f353f002d:0xcf47f401cf347829!8m2!3d28.5705609!4d77.2807799!16s%2Fg%2F1264gqdlr!19sChIJLQA_NY_jDDkRKXg0zwH0R88?authuser=0&hl=en&rclk=1","28.5705609,77.2807799"
Masjid Abu Bakr,Mosque,"VXCX+9H9 Masjid Abu Bakr, Chandan, Vibhuti Khand, Chandanapur, Indira Nagar, Lucknow, Uttar Pradesh 226010","Vibhuti Khand, Indira Nagar","VXCX+9H9, Chandan, Vibhuti Khand, Chandanapur, Indira Nagar",Lucknow,226010,Uttar Pradesh,IN,https://www.google.com/maps/place/Masjid+Abu+Bakr/data=!4m7!3m6!1s0x399be2ba65874d77:0x4ac585f6df935af6!8m2!3d26.8709033!4d80.9989949!16s%2Fg%2F11b66cmjqd!19sChIJd02HZbrimzkR9lqT3_aFxUo?authuser=0&hl=en&rclk=1,"26.8709033,80.9989949"
Qadri Masjid,Mosque,"Qadri Masjid, Abul Fazal Enclave Part 1, Part 1 Abul Fazal Enclave, Block K, Jamia Nagar, Jasola, New Delhi, Delhi 110025","Part 1 Abul Fazal Enclave, Block K, Jamia Nagar, Jasola",Abul Fazal Enclave Part 1,New Delhi,110025,Delhi,IN,https://www.google.com/maps/place/Qadri+Masjid/data=!4m7!3m6!1s0x390ce40fe0570add:0x99de0a46888db8c8!8m2!3d28.552211!4d77.2979359!16s%2Fg%2F1q5hrj9ft!19sChIJ3QpX4A_kDDkRyLiNiEYK3pk?authuser=0&hl=en&rclk=1,"28.552211,77.2979359"
Mustafa Masjid.,Mosque,"Mustafa Masjid., 15/5, Block S, Jogabai Extension, Okhla, New Delhi, Delhi 110025","Block S, Jogabai Extension, Okhla",15/5,New Delhi,110025,Delhi,IN,https://www.google.com/maps/place/Mustafa+Masjid./data=!4m7!3m6!1s0x390ce477f5b50bef:0x57f907ed9493508b!8m2!3d28.5725194!4d77.2876617!16s%2Fg%2F11cs26h4zl!19sChIJ7wu19XfkDDkRi1CTlO0H-Vc?authuser=0&hl=en&rclk=1,"28.572519399999997,77.2876617"
Jama Masjid Sanjay Colony,Mosque,"Jama Masjid Sanjay Colony, A-118, Sanjay Colony II, Pocket A, Sanjay Colony, Okhla Phase II, Okhla Industrial Estate, New Delhi, Delhi 110020","Sanjay Colony II, Pocket A, Sanjay Colony, Okhla Phase II, Okhla Industrial Estate",A-118,New Delhi,110020,Delhi,IN,https://www.google.com/maps/place/Jama+Masjid+Sanjay+Colony/data=!4m7!3m6!1s0x390ce3e33dd9b56b:0x506aac2de8cce5ea!8m2!3d28.5408078!4d77.2735475!16s%2Fg%2F11dymq0rfq!19sChIJa7XZPePjDDkR6uXM6C2salA?authuser=0&hl=en&rclk=1,"28.5408078,77.27354749999999"
Masjid Abu Bakar,Mosque,"Ward No-4, Masjid Abu Bakar, Rd Number 6, Bhanipura Mohalla, Nohar, Chak Rajasar, Rajasthan 335523",Bhanipura Mohalla,"Ward No-4, Rd Number 6","Nohar, Chak Rajasar",335523,Rajasthan,IN,https://www.google.com/maps/place/Masjid+Abu+Bakar/data=!4m7!3m6!1s0x39141ca0a3b64a43:0xda435ff29e4cce24!8m2!3d29.1853907!4d74.7627825!16s%2Fg%2F11c48t8l19!19sChIJQ0q2o6AcFDkRJM5MnvJfQ9o?authuser=0&hl=en&rclk=1,"29.1853907,74.7627825"
Masjid Abu Bakar msjd bwbkhr,Mosque,"6X76+QMV Masjid Abu Bakar msjd bwbkhr, sarpanch market sohna rod baypaas, Tauru, Haryana 122105",,"6X76+QMV, sarpanch market sohna rod baypaas","Tauru, Taorurural",122105,Haryana,IN,https://www.google.com/maps/place/Masjid+Abu+Bakar+%D9%85%D8%B3%D8%AC%D8%AF+%D8%A7%D8%A8%D9%88%D8%A8%DA%A9%D8%B1%E2%80%AD/data=!4m7!3m6!1s0x390d3089811e40e9:0x6537ba34315fcd62!8m2!3d28.2144766!4d76.9616797!16s%2Fg%2F11f4l9kkln!19sChIJ6UAegYkwDTkRYs1fMTS6N2U?authuser=0&hl=en&rclk=1,"28.214476599999998,76.96167969999999"
Masjid Abu Bakar Siddiq,Mosque,"3564+762 Masjid Abu Bakar Siddiq, Mandawa, Rajasthan 333704",,3564+762,Mandawa,333704,Rajasthan,IN,https://www.google.com/maps/place/Masjid+Abu+Bakar+Siddiq/data=!4m7!3m6!1s0x3913454cc716941f:0xc36e537a8298aed!8m2!3d28.0606451!4d75.155525!16s%2Fg%2F11f3ttl6gl!19sChIJH5QWx0xFEzkR7YopqDflNgw?authuser=0&hl=en&rclk=1,"28.0606451,75.155525"
masjid abubakar mithaan,Mosque,"masjid abubakar mithaan, Bijnor-Noorpur Rd, Mithan Kunwar Pratapsingh, Uttar Pradesh 246726",,Bijnor-Noorpur Rd,Mithan Kunwar Pratapsingh,246726,Uttar Pradesh,IN,https://www.google.com/maps/place/masjid+abubakar+mithaan/data=!4m7!3m6!1s0x390bbfefc84ec61b:0x438ff85471ab87db!8m2!3d29.2608543!4d78.3068401!16s%2Fg%2F11c2pff1pp!19sChIJG8ZOyO-_CzkR24ercVT4j0M?authuser=0&hl=en&rclk=1,"29.2608543,78.3068401"
Masjid Abu Bakr Assiddeeq,Mosque,"7M3X+F4P Masjid Abu Bakr Assiddeeq, Unnamed Road, Punjab 144411",,"7M3X+F4P, Unnamed Road",,144411,Punjab,IN,https://www.google.com/maps/place/Masjid+Abu+Bakr+Assiddeeq/data=!4m7!3m6!1s0x391a5fc70e8bea83:0x418d828560460b0d!8m2!3d31.2537035!4d75.697827!16s%2Fg%2F11hzstq_42!19sChIJg-qLDsdfGjkRDQtGYIWCjUE?authuser=0&hl=en&rclk=1,"31.2537035,75.69782699999999"
Masjid Abu Hurairah,Mosque,"W3MJ+9HW Masjid Abu Hurairah, Hamdard Nagar, Aligarh, Uttar Pradesh 202001",Hamdard Nagar,W3MJ+9HW,Aligarh,202001,Uttar Pradesh,IN,https://www.google.com/maps/place/Masjid+Abu+Hurairah/data=!4m7!3m6!1s0x3974a510dad05e1d:0xc190817f23acb1b6!8m2!3d27.9334839!4d78.0814651!16s%2Fg%2F11bymtdfv7!19sChIJHV7Q2hCldDkRtrGsI3-BkME?authuser=0&hl=en&rclk=1,"27.9334839,78.0814651"
Bilal masjid,Mosque,"Bilal masjid, Ward No 10, Dhaura Tanda, Thana, Bhoji Pura, Uttar Pradesh 243203",,"Ward No 10, Dhaura Tanda, Thana","Bhoji Pura, Dhaura Tanda",243203,Uttar Pradesh,IN,https://www.google.com/maps/place/Bilal+masjid/data=!4m7!3m6!1s0x39a00a5f4dc23251:0x65698084ba554a10!8m2!3d28.5822626!4d79.4123819!16s%2Fg%2F11dzzf0fw1!19sChIJUTLCTV8KoDkREEpVuoSAaWU?authuser=0&hl=en&rclk=1,"28.5822626,79.4123819"
"Masjid Abu Ayyub Ansari, Takiya kait",Mosque,"4JV7+2R2 Masjid Abu Ayyub Ansari, Takiya kait, Sardhana, Uttar Pradesh 250342",,4JV7+2R2,Sardhana,250342,Uttar Pradesh,IN,"https://www.google.com/maps/place/Masjid+Abu+Ayyub+Ansari,+Takiya+kait/data=!4m7!3m6!1s0x390c6bb61bc42697:0x5390e33d69c500d2!8m2!3d29.1425173!4d77.614524!16s%2Fg%2F11c5zv62j3!19sChIJlybEG7ZrDDkR0gDFaT3jkFM?authuser=0&hl=en&rclk=1","29.142517299999998,77.614524"
Abu Bakr Masjid,Mosque,"W3GH+QG2 Abu Bakr Masjid, Nagla Rd, Nagla, Ali Nagar Colony, Jamalpur, Aligarh, Uttar Pradesh 202001","Nagla, Ali Nagar Colony, Jamalpur","W3GH+QG2, Nagla Rd",Aligarh,202001,Uttar Pradesh,IN,https://www.google.com/maps/place/Abu+Bakr+Masjid/data=!4m7!3m6!1s0x3974a51b66aaaaab:0x3a80042b1d8f1a53!8m2!3d27.9268991!4d78.0787622!16s%2Fg%2F11c6mkz73y!19sChIJq6qqZhuldDkRUxqPHSsEgDo?authuser=0&hl=en&rclk=1,"27.9268991,78.0787622"
Masjid Abu Bakar,Mosque,"Masjid Abu Bakar, Momin Nagar, Campbell Rd, Husainabad, Lucknow, Uttar Pradesh 226003",Husainabad,"Momin Nagar, Campbell Rd",Lucknow,226003,Uttar Pradesh,IN,https://www.google.com/maps/place/Masjid+Abu+Bakar/data=!4m7!3m6!1s0x399bfe14f350d0ff:0xd3748ba9b50dec29!8m2!3d26.8630044!4d80.8810637!16s%2Fg%2F11gb_whp5k!19sChIJ_9BQ8xT-mzkRKewNtamLdNM?authuser=0&hl=en&rclk=1,"26.863004399999998,80.8810637"
Masjid Abu Bakr,Mosque,"7RQ3+6W2 Masjid Abu Bakr, Bisalpur, Uttar Pradesh 262201",,7RQ3+6W2,Bisalpur,262201,Uttar Pradesh,IN,https://www.google.com/maps/place/Masjid+Abu+Bakr/data=!4m7!3m6!1s0x399f8a7501e9ec33:0x83f3c0d7d53d52ad!8m2!3d28.2880019!4d79.8047599!16s%2Fg%2F11g6mtz8wk!19sChIJM-zpAXWKnzkRrVI91dfA84M?authuser=0&hl=en&rclk=1,"28.288001899999998,79.8047599"
MASJID E ABU BAKAR SIDDIQUE,Mosque,"VWVF+VJF MASJID E ABU BAKAR SIDDIQUE, Unnamed Road, Fazullaganj, Lucknow, Uttar Pradesh 226020",Fazullaganj,"VWVF+VJF, Unnamed Road",Lucknow,226020,Uttar Pradesh,IN,https://www.google.com/maps/place/MASJID+E+ABU+BAKAR+SIDDIQUE/data=!4m7!3m6!1s0x3999572d1c06c3b5:0xc63d117fd7820888!8m2!3d26.894694!4d80.9240368!16s%2Fg%2F11llhpldtp!19sChIJtcMGHC1XmTkRiAiC138RPcY?authuser=0&hl=en&rclk=1,"26.894693999999998,80.9240368"
Masjid Abu Bakar,Mosque,"Masjid Abu Bakar, Sector 80, Kakrala, Uttar Pradesh 201305",Block A,Sector 80,"Kakrala, Noida",201305,Uttar Pradesh,IN,https://www.google.com/maps/place/Masjid+Abu+Bakar/data=!4m7!3m6!1s0x390cef32efb90e69:0xcc748ff40f2db75f!8m2!3d28.5519093!4d77.4107881!16s%2Fg%2F11dfj97d8c!19sChIJaQ657zLvDDkRX7ctD_SPdMw?authuser=0&hl=en&rclk=1,"28.5519093,77.41078809999999"
Masjid-e-Hazrat Abutalib as.,Mosque,"2C33+HHW Masjid-e-Hazrat Abutalib as., Naugawan Sadat, Uttar Pradesh 244251",,2C33+HHW,Naugawan Sadat,244251,Uttar Pradesh,IN,https://www.google.com/maps/place/Masjid-e-Hazrat+Abutalib+as./data=!4m7!3m6!1s0x390ba6a10029ab51:0x153f80cd672cc000!8m2!3d29.003993!4d78.4039585!16s%2Fg%2F11cs2c7thg!19sChIJUaspAKGmCzkRAMAsZ82APxU?authuser=0&hl=en&rclk=1,"29.003992999999998,78.4039585"
Masjid Abu Bakr msjd bw bkhr,Mosque,"9C6M+MVX Masjid Abu Bakr msjd bw bkhr, Qureshi Nagar, Bareilly, Haziyapur, Uttar Pradesh 243005",Qureshi Nagar,9C6M+MVX,"Bareilly, Haziyapur",243005,Uttar Pradesh,IN,https://www.google.com/maps/place/Masjid+Abu+Bakr+%D9%85%D8%B3%D8%AC%D8%AF+%D8%A7%D8%A8%D9%88+%D8%A8%DA%A9%D8%B1%E2%80%AD/data=!4m7!3m6!1s0x39a006d191aa7fa5:0xc5327bd1199ac85a!8m2!3d28.3617337!4d79.434733!16s%2Fg%2F11g86mrs0_!19sChIJpX-qkdEGoDkRWsiaGdF7MsU?authuser=0&hl=en&rclk=1,"28.3617337,79.434733"
Masjid Abu Zar Ahle Hadith,Mosque,"R267+GXR Masjid Abu Zar Ahle Hadith, Mohalla Ghosiyan, Nr. Bapu Mall, Uttar Pradesh 244901",Patel Nagar,"R267+GXR, Mohalla Ghosiyan, Nr. Bapu Mall","Rampur, Benazeerpura Urf Ghatampur",244901,Uttar Pradesh,IN,https://www.google.com/maps/place/Masjid+Abu+Zar+Ahle+Hadith/data=!4m7!3m6!1s0x390af2cbf5ab0833:0xff4e1cfc332e2174!8m2!3d28.8113556!4d79.0148759!16s%2Fg%2F11f53fy6vm!19sChIJMwir9cvyCjkRdCEuM_wcTv8?authuser=0&hl=en&rclk=1,"28.8113556,79.01487589999999"
Masjid Abu Bakr Siddiq Educational Trust msjid abuu bkr siddiik ejukeshnl ttrstt,Mosque,"h no, Masjid Abu Bakr Siddiq Educational Trust msjid abuu bkr siddiik ejukeshnl ttrstt, 1542/43, B Block, JJ Colony, JJ Cluster Colony, Bawana, Delhi, 110039","B Block, JJ Colony, JJ Cluster Colony, Bawana","h no, 1542/43",Delhi,110039,Delhi,IN,https://www.google.com/maps/place/Masjid+Abu+Bakr+Siddiq+Educational+Trust+%E0%A4%AE%E0%A4%B8%E0%A5%8D%E0%A4%9C%E0%A4%BF%E0%A4%A6+%E0%A4%85%E0%A4%AC%E0%A5%82+%E0%A4%AC%E0%A4%95%E0%A4%B0+%E0%A4%B8%E0%A4%BF%E0%A4%A6%E0%A5%8D%E0%A4%A6%E0%A5%80%E0%A4%95+%E0%A4%8F%E0%A4%9C%E0%A5%81%E0%A4%95%E0%A5%87%E0%A4%B6%E0%A4%A8%E0%A4%B2+%E0%A4%9F%E0%A5%8D%E0%A4%B0%E0%A4%B8%E0%A5%8D%E0%A4%9F/data=!4m7!3m6!1s0x390da9f58e6632a1:0xd502aaf9d98bdad!8m2!3d28.8054144!4d77.0521577!16s%2Fg%2F11gjhg8r_c!19sChIJoTJmjvWpDTkRrb2Yna8qUA0?authuser=0&hl=en&rclk=1,"28.8054144,77.0521577"
Abbubakar Masjid,Mosque,"FM6R+CXW Abbubakar Masjid, Rehmat Nagar, Qidwai Naga, Muzaffarnagar, Uttar Pradesh 251002","Rehmat Nagar, Qidwai Naga",FM6R+CXW,Muzaffarnagar,251002,Uttar Pradesh,IN,https://www.google.com/maps/place/Abbubakar+Masjid/data=!4m7!3m6!1s0x390c1bf179b635f7:0xc7ed631cab497986!8m2!3d29.4611236!4d77.6924376!16s%2Fg%2F11ghtblb3g!19sChIJ9zW2efEbDDkRhnlJqxxj7cc?authuser=0&hl=en&rclk=1,"29.461123599999997,77.69243759999999"
Masjid Abu Abeedah,Mosque,"5X29+RGF Masjid Abu Abeedah, Jassi Pauwali, Bathinda, Punjab 151001",Jassi Pauwali,5X29+RGF,Bathinda,151001,Punjab,IN,https://www.google.com/maps/place/Masjid+Abu+Abeedah/data=!4m7!3m6!1s0x3910d3dd3739c6eb:0x2f95b57862e6247e!8m2!3d30.1520676!4d74.9687918!16s%2Fg%2F11g0kq43p8!19sChIJ68Y5N93TEDkRfiTmYni1lS8?authuser=0&hl=en&rclk=1,"30.1520676,74.96879179999999"
Masjid Abu Bakr Ahle Hadees,Mosque,"HCG9+HR8 Masjid Abu Bakr Ahle Hadees, Dhaura Tanda, Uttar Pradesh 243202",,HCG9+HR8,Dhaura Tanda,243202,Uttar Pradesh,IN,https://www.google.com/maps/place/Masjid+Abu+Bakr+Ahle+Hadees/data=!4m7!3m6!1s0x39a00a517e7e7bfd:0x79d730ad66834878!8m2!3d28.5764231!4d79.4195833!16s%2Fg%2F11g72mqfgz!19sChIJ_Xt-flEKoDkReEiDZq0w13k?authuser=0&hl=en&rclk=1,"28.5764231,79.4195833"
MASJID ABU BAKR naugawan,Mosque,"Q33Q+R7X MASJID ABU BAKR naugawan, Main Road, Naugawan, Tumaria, Uttar Pradesh 244901",,"Q33Q+R7X, Main Road","Naugawan, Tumaria",244901,Uttar Pradesh,IN,https://www.google.com/maps/place/MASJID+ABU+BAKR+naugawan/data=!4m7!3m6!1s0x390a9238191518c3:0x656c6cb4ff032727!8m2!3d28.7546236!4d79.0882474!16s%2Fg%2F11gfhdbtb9!19sChIJwxgVGTiSCjkRJycD_7RsbGU?authuser=0&hl=en&rclk=1,"28.7546236,79.0882474"
Masjid Abu Bakar,Mosque,"WWJM+HM7 Masjid Abu Bakar, Bhitauli, Bhitoli Khurd, Lucknow, Uttar Pradesh 226201",Bhitauli,WWJM+HM7,"Bhitoli Khurd, Lucknow",226201,Uttar Pradesh,IN,https://www.google.com/maps/place/Masjid+Abu+Bakar/data=!4m7!3m6!1s0x399956f853a0f589:0xc0ca74d9962c985f!8m2!3d26.9314244!4d80.9341671!16s%2Fg%2F11dxcvry4k!19sChIJifWgU_hWmTkRX5gsltl0ysA?authuser=0&hl=en&rclk=1,"26.931424399999997,80.9341671"
Masjid abu bakr,Mosque,"Masjid abu bakr, 20, Noorpur - Dhampur Rd, Mohammad Alipur Bhikan, Wazidpur, Uttar Pradesh 246761",,"20, Noorpur - Dhampur Rd","Mohammad Alipur Bhikan, Wazidpur",246761,Uttar Pradesh,IN,https://www.google.com/maps/place/Masjid+abu+bakr/data=!4m7!3m6!1s0x390bb7edd2b046f5:0x15d0f70f61d4f55f!8m2!3d29.2717594!4d78.4893647!16s%2Fg%2F11g6mhg6zl!19sChIJ9Uaw0u23CzkRX_XUYQ_30BU?authuser=0&hl=en&rclk=1,"29.271759399999997,78.4893647"
Masjid Abu Haneefa,Mosque,"RQ5F+FC7 Masjid Abu Haneefa, Rehmat Nagar, Moradabad, Uttar Pradesh 244001",Rehmat Nagar,RQ5F+FC7,Moradabad,244001,Uttar Pradesh,IN,https://www.google.com/maps/place/Masjid+Abu+Haneefa/data=!4m7!3m6!1s0x390afb0c4dbd5b19:0x22b84bd925d8b4a9!8m2!3d28.8086701!4d78.7735565!16s%2Fg%2F11h2mp_ds2!19sChIJGVu9TQz7CjkRqbTYJdlLuCI?authuser=0&hl=en&rclk=1,"28.808670099999997,78.7735565"
Masjid Abu Bakar,Mosque,"F8F2+H5X Masjid Abu Bakar, mohalla Agriyan, Jalesar, Uttar Pradesh 207302",,"F8F2+H5X, mohalla Agriyan",Jalesar,207302,Uttar Pradesh,IN,https://www.google.com/maps/place/Masjid+Abu+Bakar/data=!4m7!3m6!1s0x3974f529a3b5ef7f:0x49ded7cca4c61242!8m2!3d27.473978!4d78.3004842!16s%2Fg%2F11fzrqn6rq!19sChIJf--1oyn1dDkRQhLGpMzX3kk?authuser=0&hl=en&rclk=1,"27.473978,78.3004842"
Badi Masjid Abu Bakr,Mosque,"P5C3+Q4C Badi Masjid Abu Bakr, Chaniyan Kalan, Rajasthan 321023",,P5C3+Q4C,Chaniyan Kalan,321023,Rajasthan,IN,https://www.google.com/maps/place/Badi+Masjid+Abu+Bakr/data=!4m7!3m6!1s0x3972dfc72c55e50b:0x74a8ebeec7c80dfb!8m2!3d27.7222335!4d77.1521803!16s%2Fg%2F11ks1p5_nd!19sChIJC-VVLMffcjkR-w3Ix-7rqHQ?authuser=0&hl=en&rclk=1,"27.722233499999998,77.1521803"
Abeedi Jama Masjid,Mosque,"65M9+R43 Abeedi Jama Masjid, Sadabad, Jahanabad Bila Ahatmali, Uttar Pradesh 246725",,65M9+R43,"Sadabad, Jahanabad Bila Ahatmali",246725,Uttar Pradesh,IN,https://www.google.com/maps/place/Abeedi+Jama+Masjid/data=!4m7!3m6!1s0x390b93f576dae311:0xf0de86b2f5258140!8m2!3d29.2345022!4d78.1677884!16s%2Fg%2F11h107jyzp!19sChIJEePadvWTCzkRQIEl9bKG3vA?authuser=0&hl=en&rclk=1,"29.234502199999998,78.16778839999999"
Masjid Abu Bakr,Mosque,"X9CG+M5X Masjid Abu Bakr, Rampur Katra, Rampur Bhawanipur, Uttar Pradesh 225206",,X9CG+M5X,"Rampur Katra, Rampur Bhawanipur",225206,Uttar Pradesh,IN,https://www.google.com/maps/place/Masjid+Abu+Bakr/data=!4m7!3m6!1s0x39997cf1a89cafc7:0xf74d409490b5e565!8m2!3d26.9717323!4d81.3754692!16s%2Fg%2F11g6p41yrc!19sChIJx6-cqPF8mTkRZeW1kJRATfc?authuser=0&hl=en&rclk=1,"26.9717323,81.3754692"
Jamia Masjid,Mosque,"5C25+M3J Jamia Masjid, Noorpur, Uttar Pradesh 246734",,5C25+M3J,Noorpur,246734,Uttar Pradesh,IN,https://www.google.com/maps/place/Jamia+Masjid/data=!4m7!3m6!1s0x390bbba20e0642ef:0x1d2a04d4d4010750!8m2!3d29.1517059!4d78.4076442!16s%2Fg%2F11gcjb_psq!19sChIJ70IGDqK7CzkRUAcB1NQEKh0?authuser=0&hl=en&rclk=1,"29.1517059,78.4076442"
Abu Bakar Siddiq Masjid,Mosque,"RM9C+J7M Abu Bakar Siddiq Masjid, Pakwara, Uttar Pradesh 244102",,RM9C+J7M,Pakwara,244102,Uttar Pradesh,IN,https://www.google.com/maps/place/Abu+Bakar+Siddiq+Masjid/data=!4m7!3m6!1s0x390afdc8b22848f7:0x1734934bd31d8963!8m2!3d28.8190891!4d78.670685!16s%2Fg%2F11f6k9zm16!19sChIJ90gossj9CjkRY4kd00uTNBc?authuser=0&hl=en&rclk=1,"28.8190891,78.67068499999999"
Abu Bakar Masjid,Mosque,"HHWG+66J Abu Bakar Masjid, Hatim Sarai Khurd, Uttar Pradesh 244302",,HHWG+66J,Hatim Sarai Khurd,244302,Uttar Pradesh,IN,https://www.google.com/maps/place/Abu+Bakar+Masjid/data=!4m7!3m6!1s0x390b1f303b1b33c1:0x8072143fc8e0d68d!8m2!3d28.5955907!4d78.5755237!16s%2Fg%2F11c6_xp_1j!19sChIJwTMbOzAfCzkRjdbgyD8UcoA?authuser=0&hl=en&rclk=1,"28.5955907,78.57552369999999"
Masjid Abu Hurayra,Mosque,"WF48+983 Masjid Abu Hurayra, Satti Road, near Ali Sweets, Amroha, Uttar Pradesh 244221",Mohalla Mullana,"WF48+983, Satti Road, near Ali Sweets",Amroha,244221,Uttar Pradesh,IN,https://www.google.com/maps/place/Masjid+Abu+Hurayra/data=!4m7!3m6!1s0x390b080e4db35705:0x768289d948321b4d!8m2!3d28.9058765!4d78.4657834!16s%2Fg%2F11bw1_0dmr!19sChIJBVezTQ4ICzkRTRsySNmJgnY?authuser=0&hl=en&rclk=1,"28.905876499999998,78.46578339999999"
Abu bakar masjid Pavi abuu bkr msjid paavii,Mosque,"Q7GM+R44 Abu bakar masjid Pavi abuu bkr msjid paavii, Om Sai City, Pavi Sadakpur, Uttar Pradesh 201102",Om Sai City,Q7GM+R44,Pavi Sadakpur,201102,Uttar Pradesh,IN,https://www.google.com/maps/place/Abu+bakar+masjid+Pavi+%E0%A4%85%E0%A4%AC%E0%A5%82+%E0%A4%AC%E0%A4%95%E0%A4%B0+%E0%A4%AE%E0%A4%B8%E0%A4%9C%E0%A4%BF%E0%A4%A6+%E0%A4%AA%E0%A4%BE%E0%A4%B5%E0%A5%80/data=!4m7!3m6!1s0x390cffd2043f4cd9:0xece3dd106d0625ea!8m2!3d28.7770135!4d77.2828263!16s%2Fg%2F11mb_zwcz3!19sChIJ2Uw_BNL_DDkR6iUGbRDd4-w?authuser=0&hl=en&rclk=1,"28.7770135,77.2828263"
Aifa Clinic,Doctor,"Aifa Clinic, Near By Taj Masjid Ransika, Nuh, Haryana 122107",,Near By Taj Masjid Ransika,"Nuh, Ransika",122107,Haryana,IN,https://www.google.com/maps/place/Aifa+Clinic/data=!4m7!3m6!1s0x390d3281c7fb22c1:0x7d24edbfacfdc18!8m2!3d28.0412048!4d77.1486961!16s%2Fg%2F11ggpj4hmc!19sChIJwSL7x4EyDTkRGNzP-ttO0gc?authuser=0&hl=en&rclk=1,"28.0412048,77.1486961"
Masjid-e-sayyadna Abu Bakr,Mosque,"75HJ+75R Masjid-e-sayyadna Abu Bakr, Nimatpur, Uttar Pradesh 261203",,75HJ+75R,Nimatpur,261203,Uttar Pradesh,IN,https://www.google.com/maps/place/Masjid-e-sayyadna+Abu+Bakr/data=!4m7!3m6!1s0x399915494aedff03:0xbb980c25dbbdac8!8m2!3d27.2782466!4d81.1803905!16s%2Fg%2F11f0wh2k4t!19sChIJA__tSkkVmTkRyNq7XcKAuQs?authuser=0&hl=en&rclk=1,"27.2782466,81.1803905"
Masjid Abu Bakar,Mosque,"6346+QPR Masjid Abu Bakar, cuNgii T.Y, C. phes-2, Shahdara, Agra, Uttar Pradesh 282006","cuNgii T.Y, C. phes-2, Shahdara",6346+QPR,Agra,,Uttar Pradesh,IN,https://www.google.com/maps/place/Masjid+Abu+Bakar/data=!4m7!3m6!1s0x3974708bd7c5a99d:0x764493675b2401c7!8m2!3d27.2069795!4d78.0617701!16s%2Fg%2F11f4qlprrb!19sChIJnanF14twdDkRxwEkW2eTRHY?authuser=0&hl=en&rclk=1,"27.2069795,78.06177009999999"
Mumtaz Masjid,Mosque,"H79Q+MFC Mumtaz Masjid, Batla House, Jamia Nagar, Okhla, New Delhi, Delhi 110025","Batla House, Jamia Nagar, Okhla",H79Q+MFC,New Delhi,,Delhi,IN,https://www.google.com/maps/place/Mumtaz+Masjid/data=!4m7!3m6!1s0x390ce51ea4a1764d:0x7975b3d87786376a!8m2!3d28.5691957!4d77.2886424!16s%2Fg%2F11k3j1s_k9!19sChIJTXahpB7lDDkRajeGd9izdXk?authuser=0&hl=en&rclk=1,"28.569195699999998,77.2886424"
Masjid Abu bakar,Mosque,"J6X7+PFM Masjid Abu bakar, Nabi Karim, Paharganj, New Delhi, Delhi 110055","Nabi Karim, Paharganj",J6X7+PFM,New Delhi,110055,Delhi,IN,https://www.google.com/maps/place/Masjid+Abu+bakar/data=!4m7!3m6!1s0x390cfde2b1738f4b:0x1f9c6c0355d73bc8!8m2!3d28.6493283!4d77.2136816!16s%2Fg%2F11t4022myn!19sChIJS49zseL9DDkRyDvXVQNsnB8?authuser=0&hl=en&rclk=1,"28.649328299999997,77.2136816"
Abu Bakar Masjid,Mosque,"Q5CW+XRH Abu Bakar Masjid, Lakhnoti Aht Jadid, Shakerpur Shakroor Must., Uttar Pradesh 247341",,Q5CW+XRH,"Lakhnoti Aht Jadid, Shakerpur Shakroor Must.",247341,Uttar Pradesh,IN,https://www.google.com/maps/place/Abu+Bakar+Masjid/data=!4m7!3m6!1s0x390e89d6547b2da9:0x8efe790a15b1faed!8m2!3d29.7724294!4d77.1971023!16s%2Fg%2F11ggrltpb9!19sChIJqS17VNaJDjkR7fqxFQp5_o4?authuser=0&hl=en&rclk=1,"29.7724294,77.1971023"
Masjid Abubakar Siddiqui,Mosque,"VV5W+79Q Masjid Abubakar Siddiqui, Baharampur Badli, Uttar Pradesh 245205",,VV5W+79Q,Baharampur Badli,,Uttar Pradesh,IN,https://www.google.com/maps/place/Masjid+Abubakar+Siddiqui/data=!4m7!3m6!1s0x390c81609dd4dd89:0x6c1b38e408b241e3!8m2!3d28.858207!4d77.8959689!16s%2Fg%2F11s1qmvqbt!19sChIJid3UnWCBDDkR40GyCOQ4G2w?authuser=0&hl=en&rclk=1,"28.858207,77.8959689"
Hamza Masjid (Masjid Abu Ubaida) Iqra Colony Masjid msjd Hmzh,Mosque,"W39V+JPW Hamza Masjid (Masjid Abu Ubaida) Iqra Colony Masjid msjd Hmzh, Street No. 6, Maulana Azad Nagar, Iqra Colony, Aligarh, Uttar Pradesh 202002","Maulana Azad Nagar, Iqra Colony","W39V+JPW, Street No. 6",Aligarh,202002,Uttar Pradesh,IN,https://www.google.com/maps/place/Hamza+Masjid+%28Masjid+Abu+Ubaida%29+Iqra+Colony+Masjid+%D9%85%D8%B3%D8%AC%D8%AF+%D8%AD%D9%85%D8%B2%DB%81%E2%80%AD/data=!4m7!3m6!1s0x3974a5965137e6b9:0xa3cd80cf47214dbd!8m2!3d27.91912!4d78.0943375!16s%2Fg%2F11ghv9hx0d!19sChIJueY3UZaldDkRvU0hR8-AzaM?authuser=0&hl=en&rclk=1,"27.91912,78.0943375"
Masjid Abu Bakr,Mosque,"Ward no 2, Masjid Abu Bakr, behind Bharat Petrol Pump, Firozpur Jhirka, Haryana 122104",,"Ward no 2, behind Bharat Petrol Pump",Firozpur Jhirka,122104,Haryana,IN,https://www.google.com/maps/place/Masjid+Abu+Bakr/data=!4m7!3m6!1s0x3972c5bd8a2f08bb:0xbfb151b5b9a1ca1d!8m2!3d27.8027996!4d76.954817!16s%2Fg%2F11llx58hs3!19sChIJuwgvir3FcjkRHcqhubVRsb8?authuser=0&hl=en&rclk=1,"27.8027996,76.95481699999999"
Masjid Abu Bakar,Mosque,"Masjid Abu Bakar, 57/22/1 Masjid Abbu vakr Nagla vasi, Idgah Colony, Agra, Uttar Pradesh 282001","Kushwaha Colony, Syam Nagar, Idgah Colony",57/22/1 Masjid Abbu vakr Nagla vasi,Agra,282001,Uttar Pradesh,IN,https://www.google.com/maps/place/Masjid+Abu+Bakar/data=!4m7!3m6!1s0x397477c34f20556f:0x115e314b4993d869!8m2!3d27.1586897!4d77.9841764!16s%2Fg%2F11h91j4yh_!19sChIJb1UgT8N3dDkRadiTSUsxXhE?authuser=0&hl=en&rclk=1,"27.1586897,77.9841764"
Masjid Abu Bakr,Mosque,"WP5H+2QF Masjid Abu Bakr, Bari, Barhi Garhi, Uttar Pradesh 226102",,WP5H+2QF,"Bari, Barhi Garhi",226102,Uttar Pradesh,IN,https://www.google.com/maps/place/Masjid+Abu+Bakr/data=!4m7!3m6!1s0x399eab340010ea85:0xfcb567395f608ed1!8m2!3d26.9075701!4d80.7294133!16s%2Fg%2F11mb__cxmt!19sChIJheoQADSrnjkR0Y5gXzlntfw?authuser=0&hl=en&rclk=1,"26.907570099999997,80.72941329999999"
Masjid Abu Bakar,Mosque,"Q4CX+JV8 Masjid Abu Bakar, Lalbagh, Maqbara, Faizabad, Uttar Pradesh 224001","Lalbagh, Maqbara",Q4CX+JV8,Faizabad,224001,Uttar Pradesh,IN,https://www.google.com/maps/place/Masjid+Abu+Bakar/data=!4m7!3m6!1s0x399a07f0d6c93bd3:0xc9f31511735e0a36!8m2!3d26.7715393!4d82.1497078!16s%2Fg%2F11g4jjv959!19sChIJ0zvJ1vAHmjkRNgpecxEV88k?authuser=0&hl=en&rclk=1,"26.771539299999997,82.1497078"
Masjid Abu Bakr,Place of worship,"R24J+RG2 Masjid Abu Bakr, Unnamed Road, Mohalla Chipiyan, Purana Ganj, Rampur, Uttar Pradesh 244901","Mohalla Chipiyan, Purana Ganj","R24J+RG2, Unnamed Road",Rampur,244901,Uttar Pradesh,IN,https://www.google.com/maps/place/Masjid+Abu+Bakr/data=!4m7!3m6!1s0x390a8db1df90d10f:0x6384a12b59bb963e!8m2!3d28.8070202!4d79.0312662!16s%2Fg%2F11g251cqyf!19sChIJD9GQ37GNCjkRPpa7WSuhhGM?authuser=0&hl=en&rclk=1,"28.8070202,79.03126619999999"
Masjid Abu Saleh,Mosque,"W9FQ+9RP Masjid Abu Saleh, Saidpur Imma, Rasoolpur Ganwari, Uttar Pradesh 244236",,W9FQ+9RP,"Saidpur Imma, Rasoolpur Ganwari",244236,Uttar Pradesh,IN,https://www.google.com/maps/place/Masjid+Abu+Saleh/data=!4m7!3m6!1s0x390ba770c137aa1b:0xfd2edb72d1460d80!8m2!3d28.9234746!4d78.3895727!16s%2Fg%2F11jdy56v33!19sChIJG6o3wXCnCzkRgA1G0XLbLv0?authuser=0&hl=en&rclk=1,"28.9234746,78.3895727"
AbuBakr masjid Ahle Hadees,Mosque,"AbuBakr masjid Ahle Hadees, G-395, Block B, Old Mustafabad, New Mustafabad, New Delhi, Delhi, 110053","Block B, Old Mustafabad, New Mustafabad",G-395,"New Delhi, Delhi",110053,Delhi,IN,https://www.google.com/maps/place/AbuBakr+masjid+Ahle+Hadees/data=!4m7!3m6!1s0x390cfd722267a05d:0x32d00ac5a268d7e2!8m2!3d28.7140512!4d77.2717494!16s%2Fg%2F11rl99pg0l!19sChIJXaBnInL9DDkR4tdoosUK0DI?authuser=0&hl=en&rclk=1,"28.7140512,77.27174939999999"
JAMA MASJID ABUBAKAR SIDDIQUE rDy llh `nh,Mosque,"JAMA MASJID ABUBAKAR SIDDIQUE rDy llh `nh, 93, Arya Nagar, Hindan Vihar, Patel Nagar, Ghaziabad, Uttar Pradesh 201003","Arya Nagar, Hindan Vihar, Patel Nagar",93,Ghaziabad,201003,Uttar Pradesh,IN,https://www.google.com/maps/place/JAMA+MASJID+ABUBAKAR+SIDDIQUE+%D8%B1%D8%B6%D9%8A+%D8%A7%D9%84%D9%84%D9%87+%D8%B9%D9%86%D9%87%E2%80%AD/data=!4m7!3m6!1s0x390cf114bbaaa8d9:0xad93bba71f32d4cd!8m2!3d28.6725159!4d77.4117698!16s%2Fg%2F11tsf3z19q!19sChIJ2aiquxTxDDkRzdQyH6e7k60?authuser=0&hl=en&rclk=1,"28.672515899999997,77.4117698"
Masjid Abu Hurairah,Mosque,"PW62+2HP Masjid Abu Hurairah, Laharpur, Uttar Pradesh 261135",,PW62+2HP,Laharpur,261135,Uttar Pradesh,IN,https://www.google.com/maps/place/Masjid+Abu+Hurairah/data=!4m7!3m6!1s0x3998d78013d144eb:0xdf762a001a86c564!8m2!3d27.7100829!4d80.9014391!16s%2Fg%2F11vf5m464q!19sChIJ60TRE4DXmDkRZMWGGgAqdt8?authuser=0&hl=en&rclk=1,"27.7100829,80.90143909999999"
Masjid Abu Hurairah,Mosque,"Masjid Abu Hurairah, Madiyanva, Lucknow, Uttar Pradesh 226020",Madiyanva,,Lucknow,226020,Uttar Pradesh,IN,https://www.google.com/maps/place/Masjid+Abu+Hurairah/data=!4m7!3m6!1s0x39995702025f5e47:0x4d75e7fcb67e8621!8m2!3d26.9234192!4d80.9205518!16s%2Fg%2F11fpn0815m!19sChIJR15fAgJXmTkRIYZ-tvzndU0?authuser=0&hl=en&rclk=1,"26.923419199999998,80.9205518"
Masjid abubakr msjid abubkr,Mosque,"Masjid abubakr msjid abubkr, Begam Ganj Rd, Yahiyaganj, Lucknow, Uttar Pradesh 226003",Yahiyaganj,Begam Ganj Rd,Lucknow,226003,Uttar Pradesh,IN,https://www.google.com/maps/place/Masjid+abubakr+%E0%A4%AE%E0%A4%B8%E0%A5%8D%E0%A4%9C%E0%A4%BF%E0%A4%A6+%E0%A4%85%E0%A4%AC%E0%A5%81%E0%A4%AC%E0%A4%95%E0%A5%8D%E0%A4%B0/data=!4m7!3m6!1s0x399bfd0fb5758f63:0x982f1003279c45a9!8m2!3d26.8565648!4d80.9128396!16s%2Fg%2F11q8t88sm1!19sChIJY491tQ_9mzkRqUWcJwMQL5g?authuser=0&hl=en&rclk=1,"26.856564799999997,80.9128396"
Masjid abu ubaida,Mosque,"293W+F8J Masjid abu ubaida, karbala, Uttar Pradesh 244251",karbala,293W+F8J,,,Uttar Pradesh,IN,https://www.google.com/maps/place/Masjid+abu+ubaida/data=!4m7!3m6!1s0x390ba71d9c581e61:0xfc3ec002a3871e40!8m2!3d29.0037197!4d78.3957787!16s%2Fg%2F11ssj1ksfd!19sChIJYR5YnB2nCzkRQB6HowLAPvw?authuser=0&hl=en&rclk=1,"29.003719699999998,78.3957787"
MASJID ABU UBAIDA,Mosque,"RQ8G+HC5 MASJID ABU UBAIDA, Durgesh Nagar, karbala, Moradabad, Uttar Pradesh 244001","Durgesh Nagar, karbala",RQ8G+HC5,Moradabad,,Uttar Pradesh,IN,https://www.google.com/maps/place/MASJID+ABU+UBAIDA/data=!4m7!3m6!1s0x390afb45d47043cb:0xd20ab1b2ade602d1!8m2!3d28.8163754!4d78.7761135!16s%2Fg%2F11ssj0_4t5!19sChIJy0Nw1EX7CjkR0QLmrbKxCtI?authuser=0&hl=en&rclk=1,"28.8163754,78.7761135"
Abu bakr masjid,Mosque,"C4MP+XJM Abu bakr masjid, Bijnor, Uttar Pradesh 246701",,C4MP+XJM,Bijnor,246701,Uttar Pradesh,IN,https://www.google.com/maps/place/Abu+bakr+masjid/data=!4m7!3m6!1s0x390bef8c9e849805:0xba5d3a884f03870a!8m2!3d29.4349594!4d78.1365549!16s%2Fg%2F11c2q166f6!19sChIJBZiEnozvCzkRCocDT4g6Xbo?authuser=0&hl=en&rclk=1,"29.4349594,78.1365549"
Masjid Abu Bakar Siddique,Mosque,"P77C+HPC Masjid Abu Bakar Siddique, Block H, Mustafabad Extension, New Mustafabad, Delhi, 110094","Block H, Mustafabad Extension, New Mustafabad",P77C+HPC,Delhi,110094,Delhi,IN,https://www.google.com/maps/place/Masjid+Abu+Bakar+Siddique/data=!4m7!3m6!1s0x390cfd87da82180d:0x35fae9d7a7b61b5f!8m2!3d28.713947!4d77.2717655!16s%2Fg%2F11pl7q64zt!19sChIJDRiC2of9DDkRXxu2p9fp-jU?authuser=0&hl=en&rclk=1,"28.713946999999997,77.2717655"
Masjid Abu Bakr,Mosque,"4Q5J+FGV Masjid Abu Bakr, Lawar Khas Rural, Uttar Pradesh 250222",,4Q5J+FGV,Lawar Khas Rural,250222,Uttar Pradesh,IN,https://www.google.com/maps/place/Masjid+Abu+Bakr/data=!4m7!3m6!1s0x390c71a31e70e51d:0x6a8852eb14fa5673!8m2!3d29.1087263!4d77.7812944!16s%2Fg%2F11g9jf9d4v!19sChIJHeVwHqNxDDkRc1b6FOtSiGo?authuser=0&hl=en&rclk=1,"29.108726299999997,77.7812944"
Abu Hanifa Masjid,Mosque,"CMWX+F6W Abu Hanifa Masjid, Sakuntala Avas Vikash Colony, Muzaffarnagar, Sujroo, Uttar Pradesh 251002",Sakuntala Avas Vikash Colony,CMWX+F6W,"Muzaffarnagar, Sujroo",251002,Uttar Pradesh,IN,https://www.google.com/maps/place/Abu+Hanifa+Masjid/data=!4m7!3m6!1s0x390c1bfa902dd5bb:0x2acd6097782424be!8m2!3d29.4462373!4d77.6980671!16s%2Fg%2F11fhqqh82f!19sChIJu9UtkPobDDkRviQkeJdgzSo?authuser=0&hl=en&rclk=1,"29.4462373,77.6980671"
Abbubakar masjid,Mosque,"Q832+365 Abbubakar masjid, Abbubakar Masjid Rd, Loni Dehat, Ghaziabad, Uttar Pradesh 201102",Loni Dehat,"Q832+365, Abbubakar Masjid Rd",Ghaziabad,201102,Uttar Pradesh,IN,https://www.google.com/maps/place/Abbubakar+masjid/data=!4m7!3m6!1s0x390cf9aeef5b516d:0xc2ea0e01a0dcc9d1!8m2!3d28.7526391!4d77.3005995!16s%2Fg%2F11h07wtynk!19sChIJbVFb7675DDkR0cncoAEO6sI?authuser=0&hl=en&rclk=1,"28.7526391,77.30059949999999"
Masjid abu bakr (choti masjid),Mosque,"RQFP+7V Masjid abu bakr (choti masjid), Yarpur Urf Kvallanpur, Uttar Pradesh 242223",,RQFP+7V,Yarpur Urf Kvallanpur,242223,Uttar Pradesh,IN,https://www.google.com/maps/place/Masjid+abu+bakr+%28choti+masjid%29/data=!4m7!3m6!1s0x399fb93b7f1de993:0xb5e0bf12cde6db9b!8m2!3d27.8225124!4d79.7874739!16s%2Fg%2F11s9kyy09q!19sChIJk-kdfzu5nzkRm9vmzRK_4LU?authuser=0&hl=en&rclk=1,"27.822512399999997,79.7874739"
Masjid Abu Baqar,Mosque,"Masjid Abu Baqar, Sultanganj, Uttar Pradesh 205267",,,Sultanganj,,Uttar Pradesh,IN,https://www.google.com/maps/place/Masjid+Abu+Baqar/data=!4m7!3m6!1s0x3975994b138794ed:0xe5feb46446a7ee29!8m2!3d27.3160587!4d79.0982898!16s%2Fg%2F11vbtsfrmp!19sChIJ7ZSHE0uZdTkRKe6nRmS0_uU?authuser=0&hl=en&rclk=1,"27.3160587,79.0982898"
Masjid Abu Huraira,Mosque,"XV3C+J67 Masjid Abu Huraira, Jaisinghpura Khor, Jaipur, Rajasthan 302036",Jaisinghpura Khor,XV3C+J67,Jaipur,302036,Rajasthan,IN,https://www.google.com/maps/place/Masjid+Abu+Huraira/data=!4m7!3m6!1s0x396db120682a88ef:0x7be4380609e37fbd!8m2!3d26.9540431!4d75.8705534!16s%2Fg%2F11sfrsvl0b!19sChIJ74gqaCCxbTkRvX_jCQY45Hs?authuser=0&hl=en&rclk=1,"26.9540431,75.87055339999999"
Masjid abu bakr islaampuraa,Mosque,"GX4W+5RR Masjid abu bakr islaampuraa, Tranch Rd, Islampura, Singhal Basti, Morena, Madhya Pradesh 476001","Islampura, Singhal Basti","GX4W+5RR, Tranch Rd",Morena,476001,Madhya Pradesh,IN,https://www.google.com/maps/place/Masjid+abu+bakr+%E0%A4%87%E0%A4%B8%E0%A5%8D%E0%A4%B2%E0%A4%BE%E0%A4%AE%E0%A4%AA%E0%A5%81%E0%A4%B0%E0%A4%BE/data=!4m7!3m6!1s0x3976ad578f19b057:0xe08704eddf7e14cf!8m2!3d26.505486!4d77.997029!16s%2Fg%2F11k25yk9ml!19sChIJV7AZj1etdjkRzxR-3-0Eh-A?authuser=0&hl=en&rclk=1,"26.505485999999998,77.997029"
Masjid Abu Bakr,Mosque,"5Q2G+MWG Masjid Abu Bakr, Mahalka, Uttar Pradesh 250222",,5Q2G+MWG,Mahalka,250222,Uttar Pradesh,IN,https://www.google.com/maps/place/Masjid+Abu+Bakr/data=!4m7!3m6!1s0x390c73fca43c86ab:0x6ad55974f104d180!8m2!3d29.1516907!4d77.7773241!16s%2Fg%2F11p0w2lmlz!19sChIJq4Y8pPxzDDkRgNEE8XRZ1Wo?authuser=0&hl=en&rclk=1,"29.1516907,77.7773241"
Masjid Abu Bakr Siddique,Mosque,"P348+C99 Masjid Abu Bakr Siddique, Karan Vihar, Kirari Suleman Nagar, New Delhi, Delhi, 110086","Karan Vihar, Kirari Suleman Nagar",P348+C99,"New Delhi, Delhi",110086,Delhi,IN,https://www.google.com/maps/place/Masjid+Abu+Bakr+Siddique/data=!4m7!3m6!1s0x390d07d9aecfb14f:0x2e74edf07da35baa!8m2!3d28.706049!4d77.0659699!16s%2Fg%2F11q1wp06l0!19sChIJT7HPrtkHDTkRqlujffDtdC4?authuser=0&hl=en&rclk=1,"28.706049,77.0659699"
Masjid Abu Bakr Siddique (Rz),Mosque,"Masjid Abu Bakr Siddique (Rz), Railway Station Rd, Masuri, Uttar Pradesh 201015",,Railway Station Rd,Masuri,201015,Uttar Pradesh,IN,https://www.google.com/maps/place/Masjid+Abu+Bakr+Siddique+%28Rz%29/data=!4m7!3m6!1s0x390cf3df13b464b7:0xa1985d1ce7dbc28f!8m2!3d28.6922745!4d77.544577!16s%2Fg%2F11lg4n5z30!19sChIJt2S0E9_zDDkRj8Lb5xxdmKE?authuser=0&hl=en&rclk=1,"28.6922745,77.54457699999999"
Masjid Abu Bakr,Mosque,"5J26+5R5 Masjid Abu Bakr, Sardhana, Uttar Pradesh 250342",,5J26+5R5,Sardhana,250342,Uttar Pradesh,IN,https://www.google.com/maps/place/Masjid+Abu+Bakr/data=!4m7!3m6!1s0x390c6bb3caacb12b:0xe066e953bfb53424!8m2!3d29.1503956!4d77.61211!16s%2Fg%2F11fxx4c_f6!19sChIJK7GsyrNrDDkRJDS1v1PpZuA?authuser=0&hl=en&rclk=1,"29.1503956,77.61211"
Masjid Abu baqr siddiq RA,Mosque,"QJ9G+XJC Masjid Abu baqr siddiq RA, Bhojpur - Faridnagar - Pilkhua Road., Faridnagar, Uttar Pradesh 245304",,"QJ9G+XJC, Bhojpur - Faridnagar - Pilkhua Road.",Faridnagar,245304,Uttar Pradesh,IN,https://www.google.com/maps/place/Masjid+Abu+baqr+siddiq+RA/data=!4m7!3m6!1s0x390c8b850ec3e331:0x13d6ac9ec7a31de4!8m2!3d28.7698945!4d77.6261557!16s%2Fg%2F11s4y4qpqw!19sChIJMePDDoWLDDkR5B2jx56s1hM?authuser=0&hl=en&rclk=1,"28.7698945,77.6261557"
MASJID ABU HANIFA,Mosque,"C627+8VR MASJID ABU HANIFA, ARYAPURI, Arya Nagar, Kairana, Mannamajar, Uttar Pradesh 247774","ARYAPURI, Arya Nagar",C627+8VR,"Kairana, Mannamajar",,Uttar Pradesh,IN,https://www.google.com/maps/place/MASJID+ABU+HANIFA/data=!4m7!3m6!1s0x390c2d267fcc7f2f:0xba67e478395cb6b0!8m2!3d29.4008504!4d77.2146342!16s%2Fg%2F11k4j_3nwx!19sChIJL3_MfyYtDDkRsLZcOXjkZ7o?authuser=0&hl=en&rclk=1,"29.4008504,77.21463419999999"
Masjid Abu Bakr,Mosque,"V5QV+F9V Masjid Abu Bakr, Kakrala, Uttar Pradesh 243637",,V5QV+F9V,Kakrala,243637,Uttar Pradesh,IN,https://www.google.com/maps/place/Masjid+Abu+Bakr/data=!4m7!3m6!1s0x397542b171c59adb:0xcd066ab9950d628c!8m2!3d27.888741!4d79.1934248!16s%2Fg%2F11f3sb8yzg!19sChIJ25rFcbFCdTkRjGINlblqBs0?authuser=0&hl=en&rclk=1,"27.888741,79.1934248"
Masjid Abu Bakr,Mosque,"4H66+F3X Masjid Abu Bakr, Chak Bibipur, Kheda, Mewat, Uttar Pradesh",,"4H66+F3X, Chak Bibipur, Kheda","Mewat, Sunehti",,Uttar Pradesh,IN,https://www.google.com/maps/place/Masjid+Abu+Bakr/data=!4m7!3m6!1s0x390ee9e4b8e290b5:0x2fdfcfe04bc314b1!8m2!3d30.111228!4d77.5602232!16s%2Fg%2F11vln9qqby!19sChIJtZDiuOTpDjkRsRTDS-DP3y8?authuser=0&hl=en&rclk=1,"30.111227999999997,77.5602232"
New Masjid abu bakr rz,Mosque,"PXJF+8XC New Masjid abu bakr rz, Shahajadpur, Uttar Pradesh 261136",,PXJF+8XC,Shahajadpur,261136,Uttar Pradesh,IN,https://www.google.com/maps/place/New+Masjid+abu+bakr+rz/data=!4m7!3m6!1s0x3998d1482f16cd9d:0x68903ecb1200c98b!8m2!3d27.7308116!4d80.974889!16s%2Fg%2F11sgczppkg!19sChIJnc0WL0jRmDkRi8kAEss-kGg?authuser=0&hl=en&rclk=1,"27.7308116,80.97488899999999"
Abu Bakar Masjid,Mosque,"PWQP+G94 Abu Bakar Masjid, Barethi, Ganj Dundwara, Uttar Pradesh 207242",,PWQP+G94,"Barethi, Ganj Dundwara",207242,Uttar Pradesh,IN,https://www.google.com/maps/place/Abu+Bakar+Masjid/data=!4m7!3m6!1s0x397513d8ba513bd9:0xbbbc70ec0f2da73b!8m2!3d27.7387561!4d78.9359478!16s%2Fg%2F11fljjpfjt!19sChIJ2TtRutgTdTkRO6ctD-xwvLs?authuser=0&hl=en&rclk=1,"27.7387561,78.9359478"
Masjid Abu Bakr,Mosque,"HVJW+44V Masjid Abu Bakr, Mohiuddinpur, Rasoolpur, Uttar Pradesh 261207",,HVJW+44V,"Mohiuddinpur, Rasoolpur",261207,Uttar Pradesh,IN,https://www.google.com/maps/place/Masjid+Abu+Bakr/data=!4m7!3m6!1s0x39992b4b3f98c405:0x8ddccdacb9e0ad9f!8m2!3d27.5803508!4d80.8952972!16s%2Fg%2F11t_sp47fr!19sChIJBcSYP0srmTkRn63guazN3I0?authuser=0&hl=en&rclk=1,"27.580350799999998,80.8952972"
Abu Bakr Mosque,Mosque,"PR6G+4C9 Abu Bakr Mosque, Ram Nagar, Uttar Pradesh 261135",,PR6G+4C9,Ram Nagar,261135,Uttar Pradesh,IN,https://www.google.com/maps/place/Abu+Bakr+Mosque/data=!4m7!3m6!1s0x3998d5bd9df09a37:0x65cb0bc6d1b05e02!8m2!3d27.7102844!4d80.8261237!16s%2Fg%2F11sn3qxx2z!19sChIJN5rwnb3VmDkRAl6w0cYLy2U?authuser=0&hl=en&rclk=1,"27.7102844,80.8261237"
(msjd bw bkhr) Masjid Abu bakar,Mosque,"(msjd bw bkhr) Masjid Abu bakar, 411, Hakim Abdul Aziz Rd, Katra Bizanbeg, Chowk, Lucknow, Uttar Pradesh 226003","Katra Bizanbeg, Chowk","411, Hakim Abdul Aziz Rd",Lucknow,226003,Uttar Pradesh,IN,https://www.google.com/maps/place/%28%D9%85%D8%B3%D8%AC%D8%AF+%D8%A7%D8%A8%D9%88+%D8%A8%DA%A9%D8%B1%29+Masjid+Abu+bakar%E2%80%AD/data=!4m7!3m6!1s0x399bfd6ddefcfeb1:0x8e3c9e4565e405ee!8m2!3d26.863177!4d80.9030364!16s%2Fg%2F11kj7ldmxc!19sChIJsf783m39mzkR7gXkZUWePI4?authuser=0&hl=en&rclk=1,"26.863177,80.90303639999999"
Masjid Abu Huraira,Mosque,"J4CP+J42 Masjid Abu Huraira, Roshanganj Mohalla, Sikar, Rajasthan 332001",Roshanganj Mohalla,J4CP+J42,Sikar,332001,Rajasthan,IN,https://www.google.com/maps/place/Masjid+Abu+Huraira/data=!4m7!3m6!1s0x396ca57e59985f3d:0x3c10311ef00f84b!8m2!3d27.6217613!4d75.1353029!16s%2Fg%2F11kprp8kn_!19sChIJPV-YWX6lbDkRS_gA7xEDwQM?authuser=0&hl=en&rclk=1,"27.6217613,75.1353029"
Masjid Abu Bakr siddeeq,Mosque,"2RW7+WG Masjid Abu Bakr siddeeq, sameer choudhary, Zoya choudhary s/o, Masoompur, Uttar Pradesh 244402",,"2RW7+WG sameer choudhary, Zoya choudhary s/o",Masoompur,244402,Uttar Pradesh,IN,https://www.google.com/maps/place/Masjid+Abu+Bakr+siddeeq/data=!4m7!3m6!1s0x390a51f79e2eb4b1:0x66a8bd1805ca5550!8m2!3d29.0474514!4d78.8142912!16s%2Fg%2F11svyt7kly!19sChIJsbQunvdRCjkRUFXKBRi9qGY?authuser=0&hl=en&rclk=1,"29.0474514,78.8142912"
Masjid Abu Baqar,Mosque,"R2CF+PX9 Masjid Abu Baqar, Unnamed Road, Nalla Par Kalghar, Rampur, Uttar Pradesh 244901",Nalla Par Kalghar,"R2CF+PX9, Unnamed Road",Rampur,244901,Uttar Pradesh,IN,https://www.google.com/maps/place/Masjid+Abu+Baqar/data=!4m7!3m6!1s0x390a8d7f280d14f9:0x6149061a26a6263!8m2!3d28.821797!4d79.0249891!16s%2Fg%2F11fngcbd9g!19sChIJ-RQNKH-NCjkRY2JqomGQFAY?authuser=0&hl=en&rclk=1,"28.821797,79.0249891"
Abu Bakar Masjid,Mosque,"9PHQ+J8G Abu Bakar Masjid, Maniyawala, Narayanpur, Uttar Pradesh 246722",Maniyawala,9PHQ+J8G,Narayanpur,246722,Uttar Pradesh,IN,https://www.google.com/maps/place/Abu+Bakar+Masjid/data=!4m7!3m6!1s0x390a356ee036ee63:0xa6d7c8893741c0b5!8m2!3d29.3790604!4d78.7383414!16s%2Fg%2F11vlkf169t!19sChIJY-424G41CjkRtcBBN4nI16Y?authuser=0&hl=en&rclk=1,"29.3790604,78.7383414"
Masjid abu saeed,Mosque,"RQ68+Q7P Masjid abu saeed, Chandausi, Karula, Moradabad, Uttar Pradesh 244001","Chandausi, Karula",RQ68+Q7P,Moradabad,244001,Uttar Pradesh,IN,https://www.google.com/maps/place/Masjid+abu+saeed/data=!4m7!3m6!1s0x390afb11e52dbfb7:0x199f635e4d0e8813!8m2!3d28.8121701!4d78.7657546!16s%2Fg%2F11skxqg2r1!19sChIJt78t5RH7CjkRE4gOTV5jnxk?authuser=0&hl=en&rclk=1,"28.8121701,78.7657546"
Abu Bakar masjid,Mosque,"Abu Bakar masjid, 45, Rampura, Najibabad, Padarathpur, Uttar Pradesh 246149",Rampura,45,"Najibabad, Padarathpur",246149,Uttar Pradesh,IN,https://www.google.com/maps/place/Abu+Bakar+masjid/data=!4m7!3m6!1s0x390bdfcc649e3431:0x5081f78c010c5024!8m2!3d29.6148433!4d78.3348997!16s%2Fg%2F11l5h4_tnq!19sChIJMTSeZMzfCzkRJFAMAYz3gVA?authuser=0&hl=en&rclk=1,"29.6148433,78.3348997"
Masjid Abu Baker,Mosque,"HHV6+3VJ Masjid Abu Baker, Timar Dass Sarai kotla Utter Pradesh, Sambhal, Uttar Pradesh",Deepa Sarai,"HHV6+3VJ, Timar Dass Sarai kotla Utter Pradesh",Sambhal,,Uttar Pradesh,IN,https://www.google.com/maps/place/Masjid+Abu+Baker/data=!4m7!3m6!1s0x390b18cdb4307b1f:0x6a9756a21bfd2fb1!8m2!3d28.592714!4d78.562139!16s%2Fg%2F11fy7f_7rx!19sChIJH3swtM0YCzkRsS_9G6JWl2o?authuser=0&hl=en&rclk=1,"28.592713999999997,78.562139"
Masjid Abu Bakr,Mosque,"9C74+H8X Masjid Abu Bakr, Khannu mohalla hari zarat, Bareilly, Uttar Pradesh",Zakhira,"9C74+H8X, Khannu mohalla hari zarat",Bareilly,,Uttar Pradesh,IN,https://www.google.com/maps/place/Masjid+Abu+Bakr/data=!4m7!3m6!1s0x39a007e92a3966eb:0x91d6a128d8942c1d!8m2!3d28.3639965!4d79.4058455!16s%2Fg%2F11h764d7q4!19sChIJ62Y5KukHoDkRHSyU2Cih1pE?authuser=0&hl=en&rclk=1,"28.3639965,79.4058455"
Masjid Abu bakr,Mosque,"M7RM+486 Masjid Abu bakr, Block A, Kabir Nagar, Shahdara, Delhi, 110032","Block A, Kabir Nagar, Shahdara",M7RM+486,Delhi,110032,Delhi,IN,https://www.google.com/maps/place/Masjid+Abu+bakr/data=!4m7!3m6!1s0x390cfdc4bcd15c0d:0x5b83ea4de314c70!8m2!3d28.6902791!4d77.2832773!16s%2Fg%2F11rqqm6wgb!19sChIJDVzRvMT9DDkRcEwx3qQ-uAU?authuser=0&hl=en&rclk=1,"28.690279099999998,77.2832773"
masjid abu haneefa,Mosque,"HH35+VWJ masjid abu haneefa, Malhi Sarai, Uttar Pradesh 244303",,HH35+VWJ,Malhi Sarai,244303,Uttar Pradesh,IN,https://www.google.com/maps/place/masjid+abu+haneefa/data=!4m7!3m6!1s0x390b2335119f6455:0x66d84ce392399269!8m2!3d28.5547023!4d78.5597781!16s%2Fg%2F11fct0jtj4!19sChIJVWSfETUjCzkRaZI5kuNM2GY?authuser=0&hl=en&rclk=1,"28.5547023,78.5597781"
Masjid Abu baqer siddiki,Mosque,"A313, Masjid Abu baqer siddiki, Hari enclave, Block Z, Budh Vihar Phase I, Kirari Suleman Nagar, New Delhi, Delhi, 110086","Block Z, Budh Vihar Phase I, Kirari Suleman Nagar","A313, Hari enclave","New Delhi, Delhi",,Delhi,IN,https://www.google.com/maps/place/Masjid+Abu+baqer+siddiki/data=!4m7!3m6!1s0x390d0703597ec30f:0xe8f3bfe88ff8d124!8m2!3d28.701638!4d77.0478112!16s%2Fg%2F11szcz99zg!19sChIJD8N-WQMHDTkRJNH4j-i_8-g?authuser=0&hl=en&rclk=1,"28.701638,77.0478112"
Maszid Abu Bakar,Mosque,"XWHP+RV2 Maszid Abu Bakar, Unnamed Road, Tanda, Uttar Pradesh 244925",,"XWHP+RV2, Unnamed Road","Tanda, Khajuwa Khera",244925,Uttar Pradesh,IN,https://www.google.com/maps/place/Maszid+Abu+Bakar/data=!4m7!3m6!1s0x390a5f491c5a5d1d:0x358b7fb1e976e7b8!8m2!3d28.9795153!4d78.9371537!16s%2Fg%2F11g6ymlrpf!19sChIJHV1aHElfCjkRuOd26bF_izU?authuser=0&hl=en&rclk=1,"28.9795153,78.9371537"
Abu Talha Masjid,Mosque,"HCH8+H63 Abu Talha Masjid, Dhaura Tanda, Uttar Pradesh 243203",,HCH8+H63,Dhaura Tanda,243203,Uttar Pradesh,IN,https://www.google.com/maps/place/Abu+Talha+Masjid/data=!4m7!3m6!1s0x39a00be2dfcf060f:0x2d869305af901b83!8m2!3d28.5788553!4d79.4155199!16s%2Fg%2F11krgqq2bx!19sChIJDwbP3-ILoDkRgxuQrwWThi0?authuser=0&hl=en&rclk=1,"28.578855299999997,79.41551989999999"
Masjid Abu baqer siddiki,Mosque,"Masjid Abu baqer siddiki, A313, Hari enclave, Phase 1, Kirari Suleman Nagar Village, New Delhi, Delhi 110086","Phase 1, Kirari Suleman Nagar Village, Sultanpuri","A313, Hari enclave","New Delhi, Delhi",110086,Delhi,IN,https://www.google.com/maps/place/Masjid+Abu+baqer+siddiki/data=!4m7!3m6!1s0x390d05a9ccf2426d:0x3ca1464eeea82d7e!8m2!3d28.6963572!4d77.0668489!16s%2Fg%2F11qbq11_r7!19sChIJbULyzKkFDTkRfi2o7k5GoTw?authuser=0&hl=en&rclk=1,"28.696357199999998,77.0668489"
Masjid abu hanifa,Mosque,"Masjid abu hanifa, 110076, Raj Nagar, Madanpur Khadar, New Delhi, Delhi 110076","Raj Nagar, Madanpur Khadar",110076,New Delhi,110076,Delhi,IN,https://www.google.com/maps/place/Masjid+abu+hanifa/data=!4m7!3m6!1s0x390ce728c12261db:0x9112902e2c1f1ea9!8m2!3d28.5265373!4d77.3188675!16s%2Fg%2F11l5wjq67w!19sChIJ22EiwSjnDDkRqR4fLC6QEpE?authuser=0&hl=en&rclk=1,"28.526537299999998,77.3188675"
Imambargah Abu Talib a.s (Shia Masjid),Mosque,"RQWM+M4H Imambargah Abu Talib a.s (Shia Masjid), Nawabpura Road, Kisrol, Moradabad, Uttar Pradesh 244001",Kisrol,"RQWM+M4H, Nawabpura Road",Moradabad,244001,Uttar Pradesh,IN,https://www.google.com/maps/place/Imambargah+Abu+Talib+a.s+%28Shia+Masjid%29/data=!4m7!3m6!1s0x390afb5ee604372f:0x59f2b450b7fc8dc0!8m2!3d28.8467531!4d78.7829999!16s%2Fg%2F11ks6rhjvf!19sChIJLzcE5l77CjkRwI38t1C08lk?authuser=0&hl=en&rclk=1,"28.846753099999997,78.7829999"
masjid Imam E Azam Abu Hanifa Ground..,Mosque,"J5R9+VC6 masjid Imam E Azam Abu Hanifa Ground.., Tirah, Uttar Pradesh 243701",,J5R9+VC6,Tirah,,Uttar Pradesh,IN,https://www.google.com/maps/place/masjid+Imam+E+Azam+Abu+Hanifa+Ground../data=!4m7!3m6!1s0x390a977a3543d78f:0x53e0c39a780f4736!8m2!3d28.6421608!4d79.1685148!16s%2Fg%2F11h1kmtzqt!19sChIJj9dDNXqXCjkRNkcPeJrD4FM?authuser=0&hl=en&rclk=1,"28.6421608,79.1685148"
Mosque Abu-huraira Razi.,Mosque,"3Q94+VMP Mosque Abu-huraira Razi., Mohalla Nawada, Sahaswan, Uttar Pradesh 243638",Kolhar,"3Q94+VMP, Mohalla Nawada",Sahaswan,243638,Uttar Pradesh,IN,https://www.google.com/maps/place/Mosque+Abu-huraira+Razi./data=!4m7!3m6!1s0x39752f21cef5d0af:0xdebec8601ec378e0!8m2!3d28.069702!4d78.7567155!16s%2Fg%2F11jrt0m6b4!19sChIJr9D1ziEvdTkR4HjDHmDIvt4?authuser=0&hl=en&rclk=1,"28.069702,78.7567155"
Masjid Abu hurairah,Mosque,"V384+86P Masjid Abu hurairah, Islam Nagar Mulla Para Bhujpura, Mullapara, Aligarh, Uttar Pradesh 202001",Mullapara,"V384+86P, Islam Nagar Mulla Para Bhujpura",Aligarh,202001,Uttar Pradesh,IN,https://www.google.com/maps/place/Masjid+Abu+hurairah/data=!4m7!3m6!1s0x3974a3caf7b70f13:0x9b13f4b4d836826e!8m2!3d27.8658463!4d78.055569!16s%2Fg%2F11p66q7wj4!19sChIJEw-398qjdDkRboI22LT0E5s?authuser=0&hl=en&rclk=1,"27.865846299999998,78.05556899999999"
Masjid Abu Zar Gheffari,Mosque,"W3HR+R46 Masjid Abu Zar Gheffari, Dhourra Mafi, Aligarh, Uttar Pradesh 202001",Dhourra Mafi,W3HR+R46,Aligarh,202001,Uttar Pradesh,IN,https://www.google.com/maps/place/Masjid+Abu+Zar+Gheffari/data=!4m7!3m6!1s0x3974a59ab5495393:0xde994f069fa5a285!8m2!3d27.9289579!4d78.0903908!16s%2Fg%2F11kbsk74t6!19sChIJk1NJtZqldDkRhaKlnwZPmd4?authuser=0&hl=en&rclk=1,"27.9289579,78.0903908"
Masjid Abu Bakr (RA) Bajariya,Mosque,"JWXJ+V54 Masjid Abu Bakr (RA) Bajariya, Shahabad, Jogipur, Uttar Pradesh 241124",,JWXJ+V54,"Shahabad, Jogipur",241124,Uttar Pradesh,IN,https://www.google.com/maps/place/Masjid+Abu+Bakr+%28RA%29+Bajariya/data=!4m7!3m6!1s0x399fad6da337d1a9:0x1624495d31f6ab1c!8m2!3d27.6496275!4d79.9304606!16s%2Fg%2F11t_lnhn5y!19sChIJqdE3o22tnzkRHKv2MV1JJBY?authuser=0&hl=en&rclk=1,"27.649627499999998,79.93046059999999"
Masjid sayyadna abubakar zulaho wale,Mosque,"G8X5+C2 Masjid sayyadna abubakar zulaho wale, Garhi Pukhta, Uttar Pradesh 247778",,G8X5+C2,Garhi Pukhta,,Uttar Pradesh,IN,https://www.google.com/maps/place/Masjid+sayyadna+abubakar+zulaho+wale/data=!4m7!3m6!1s0x390e8336643e4241:0xc0a28ecaa4988790!8m2!3d29.5485512!4d77.3074978!16s%2Fg%2F11pd2kcsjd!19sChIJQUI-ZDaDDjkRkIeYpMqOosA?authuser=0&hl=en&rclk=1,"29.5485512,77.3074978"
Masjid Abu Bakar,Mosque,"HHFQ+2P Masjid Abu Bakar, Nazir Pura, Bahraich, Uttar Pradesh 271801",Nazir Pura,HHFQ+2P,Bahraich,,Uttar Pradesh,IN,https://www.google.com/maps/place/Masjid+Abu+Bakar/data=!4m7!3m6!1s0x3999a9f2ce2d127d:0x8a3aadb4db8a0671!8m2!3d27.5725014!4d81.5893489!16s%2Fg%2F11sszj7_rq!19sChIJfRItzvKpmTkRcQaK27StOoo?authuser=0&hl=en&rclk=1,"27.5725014,81.58934889999999"
Masjid Abu Bakar Rz,Mosque,"Masjid Abu Bakar Rz, Pakka Bagh, Sheikh Sarain, Karanpur, Joshitola, Khairabad, Uttar Pradesh 261131","Sheikh Sarain, Karanpur, Joshitola",Pakka Bagh,Khairabad,261131,Uttar Pradesh,IN,https://www.google.com/maps/place/Masjid+Abu+Bakar+Rz/data=!4m7!3m6!1s0x399ed39b5a879521:0x1da420467eca569a!8m2!3d27.5210081!4d80.7496757!16s%2Fg%2F11rms_m0_5!19sChIJIZWHWpvTnjkRmlbKfkYgpB0?authuser=0&hl=en&rclk=1,"27.5210081,80.7496757"
Masjid Abu bakar,Mosque,"WCJG+C69 Masjid Abu bakar, Bela Rd, Jagatpur, Punjab 140111",,"WCJG+C69, Bela Rd",Jagatpur,,Punjab,IN,https://www.google.com/maps/place/Masjid+Abu+bakar/data=!4m7!3m6!1s0x391aab8f8d9a3475:0x4e4e26304ba1554a!8m2!3d30.9310435!4d76.425598!16s%2Fg%2F11vkg5mvw7!19sChIJdTSajY-rGjkRSlWhSzAmTk4?authuser=0&hl=en&rclk=1,"30.931043499999998,76.425598"
MASJID ABU BAKR (R.A),Mosque,"MASJID ABU BAKR (R.A), 586, Ganpati Nagar, Jaipur, Rajasthan 302006",Ganpati Nagar,586,Jaipur,302006,Rajasthan,IN,https://www.google.com/maps/place/MASJID+ABU+BAKR+%28R.A%29/data=!4m7!3m6!1s0x396db5736963daff:0x57048ce8e51d3430!8m2!3d26.9137757!4d75.7836432!16s%2Fg%2F11rw_gpbtk!19sChIJ_9pjaXO1bTkRMDQd5eiMBFc?authuser=0&hl=en&rclk=1,"26.9137757,75.7836432"
Masjid Abu Bakr Siddique,Mosque,"J49R+RQV Masjid Abu Bakr Siddique, Fatehpur Rd, near islamia school, Mochiwara, Sikar, Rajasthan 332001",Mochiwara,"J49R+RQV, Fatehpur Rd, near islamia school",Sikar,332001,Rajasthan,IN,https://www.google.com/maps/place/Masjid+Abu+Bakr+Siddique/data=!4m7!3m6!1s0x396ca51dfa7186d3:0x59d58afb586fb9ad!8m2!3d27.6196137!4d75.1418451!16s%2Fg%2F11v0z19_dz!19sChIJ04Zx-h2lbDkRrblvWPuK1Vk?authuser=0&hl=en&rclk=1,"27.6196137,75.1418451"
