name,main_category,address,address_ward,address_street,address_city,address_postal_code,address_state,address_country_code,link,coordinates
Jama Masjid,Mosque,"6922+H4H Jama Masjid, Sector 6, Bhilai, Chhattisgarh 490021",Sector 6,6922+H4H,Bhilai,490021,Chhattisgarh,IN,https://www.google.com/maps/place/Jama+Masjid/data=!4m7!3m6!1s0x3a29232891b406cd:0x703bd6abd867cef8!8m2!3d21.2014388!4d81.3503537!16s%2Fg%2F1tf1m796!19sChIJzQa0kSgjKToR-M5n2KvWO3A?authuser=0&hl=en&rclk=1,"21.2014388,81.3503537"
Falaknuma Masjid,Mosque,"Falaknuma Masjid, BHILAI IN FRON OF FALAKNUMA MASJID, KGN HERO JUNWANI ROAD KOKHA JUNAWANI, Bhilai, Chhattisgarh 490020",,"BHILAI IN FRON OF FALAKNUMA MASJID, KGN HERO JUNWANI ROAD KOKHA JUNAWANI",Bhilai,490020,Chhattisgarh,IN,https://www.google.com/maps/place/Falaknuma+Masjid/data=!4m7!3m6!1s0x3a293d31f181ad6b:0x37c275c15045d76!8m2!3d21.2177597!4d81.3342685!16s%2Fg%2F1tkrk6m6!19sChIJa62B8TE9KToRdl0EFVwnfAM?authuser=0&hl=en&rclk=1,"21.2177597,81.3342685"
Nuri Masjid,Mosque,"689R+H7W Nuri Masjid, Kohka, Bajarang Para, Bhilai, Chhattisgarh 490023",Kohka,689R+H7W,"Bajarang Para, Bhilai",490023,Chhattisgarh,IN,https://www.google.com/maps/place/Nuri+Masjid/data=!4m7!3m6!1s0x3a2922cd3a61dc7d:0x1e1fe3fef413b817!8m2!3d21.219!4d81.3407!16s%2Fg%2F1pyqt11_3!19sChIJfdxhOs0iKToRF7gT9P7jHx4?authuser=0&hl=en&rclk=1,"21.218999999999998,81.3407"
brry msjd,Mosque,"696F+PR9 brry msjd, Camp 2, Bhilai, Chhattisgarh 490022",Camp 2,696F+PR9,Bhilai,490022,Chhattisgarh,IN,https://www.google.com/maps/place/%D8%A8%DA%91%DB%8C+%D9%85%D8%B3%D8%AC%D8%AF%E2%80%AD/data=!4m7!3m6!1s0x3a2922fc96c685f5:0x9192d681313e703!8m2!3d21.2118!4d81.3746!16s%2Fg%2F1pyqshk6v!19sChIJ9YXGlvwiKToRA-cTE2gtGQk?authuser=0&hl=en&rclk=1,"21.2118,81.3746"
Noori Masjid Kelabadi,Mosque,"Noori Masjid Kelabadi, Noori Masjid, Mazar Road, Kelabadi, Durg, Chhattisgarh 491001, Kelabedi, Chhattisgarh 491001",,"Noori Masjid, Mazar Road, Kelabadi, Durg, Chhattisgarh 491001","Kelabedi, Durg",491001,Chhattisgarh,IN,https://www.google.com/maps/place/Noori+Masjid+Kelabadi/data=!4m7!3m6!1s0x3a293c5d30534393:0x842aa442ade49ae7!8m2!3d21.1800625!4d81.2853487!16s%2Fg%2F11c5439_gb!19sChIJk0NTMF08KToR55rkrUKkKoQ?authuser=0&hl=en&rclk=1,"21.1800625,81.2853487"
MASJID KHAIRUL ANAAM,Mosque,"57GP+C22 MASJID KHAIRUL ANAAM, Subhash Nagar,, Kelabedi, Chhattisgarh 491001",,"57GP+C22, Subhash Nagar,","Kelabedi, Subhash Nagar",491001,Chhattisgarh,IN,https://www.google.com/maps/place/MASJID+KHAIRUL+ANAAM/data=!4m7!3m6!1s0x3a293c67d5fbd145:0x49c166ef7f38198e!8m2!3d21.1760051!4d81.2850047!16s%2Fg%2F11c5t0816z!19sChIJRdH71Wc8KToRjhk4f-9mwUk?authuser=0&hl=en&rclk=1,"21.176005099999998,81.2850047"
Faridiya Masjid,Mosque,"687V+C33 Faridiya Masjid, Farid Nagar, Bhilai, Chhattisgarh 490023",,687V+C33,"Farid Nagar, Bhilai",490023,Chhattisgarh,IN,https://www.google.com/maps/place/Faridiya+Masjid/data=!4m7!3m6!1s0x3a2922d30788fc79:0xb362f22a00406210!8m2!3d21.213505!4d81.342679!16s%2Fg%2F1pyqp8q50!19sChIJefyIB9MiKToREGJAACryYrM?authuser=0&hl=en&rclk=1,"21.213504999999998,81.34267899999999"
Gosiya Masjid,Mosque,"6987+7W6 Gosiya Masjid, Camp 1, Ram Nagar, Bhilai, Chhattisgarh 490023",Camp 1,6987+7W6,"Ram Nagar, Bhilai",490023,Chhattisgarh,IN,https://www.google.com/maps/place/Gosiya+Masjid/data=!4m7!3m6!1s0x3a2922e7acb27e8f:0x5fbf3802ed95854b!8m2!3d21.2156657!4d81.3647563!16s%2Fg%2F1pyqqm5l6!19sChIJj36yrOciKToRS4WV7QI4v18?authuser=0&hl=en&rclk=1,"21.2156657,81.3647563"
Hazrat Sayyad Baba Rahmatullah Masjid Ahle Sunnat Wal jamat,Mosque,"6C4G+8JC Hazrat Sayyad Baba Rahmatullah Masjid Ahle Sunnat Wal jamat, Raipur-Bhilai-Durg Expressway Road (NH6), Bajrang para, Bhilai, Chhattisgarh 490021",Bajrang para,"6C4G+8JC, Raipur-Bhilai-Durg Expressway Road (NH6)",Bhilai,490021,Chhattisgarh,IN,https://www.google.com/maps/place/Hazrat+Sayyad+Baba+Rahmatullah+Masjid+Ahle+Sunnat+Wal+jamat/data=!4m7!3m6!1s0x3a2923d59816f87f:0xf79f0cc787c153fa!8m2!3d21.2058157!4d81.426515!16s%2Fg%2F1pyqhqghs!19sChIJf_gWmNUjKToR-lPBh8cMn_c?authuser=0&hl=en&rclk=1,"21.2058157,81.426515"
HUDCO Masjid,Mosque,"58V5+J43 HUDCO Masjid, Hudco Colony, Hudco, Bhilai, Chhattisgarh 490009","Hudco Colony, Hudco",58V5+J43,Bhilai,490009,Chhattisgarh,IN,https://www.google.com/maps/place/HUDCO+Masjid/data=!4m7!3m6!1s0x3a293ce52502f881:0x5d2a89a44b973e4!8m2!3d21.194!4d81.3077979!16s%2Fg%2F1tglfr5g!19sChIJgfgCJeU8KToR5HO5RJqo0gU?authuser=0&hl=en&rclk=1,"21.194,81.3077979"
Markazi Masjid,Mosque,"697G+FHJ Markazi Masjid, Camp 2, Bhilai, Chhattisgarh 490001",Camp 2,697G+FHJ,Bhilai,490001,Chhattisgarh,IN,https://www.google.com/maps/place/Markazi+Masjid/data=!4m7!3m6!1s0x3a2922fb900c1635:0x720e7f421992a313!8m2!3d21.2137!4d81.3764!16s%2Fg%2F1pyqh9l9q!19sChIJNRYMkPsiKToRE6OSGUJ_DnI?authuser=0&hl=en&rclk=1,"21.2137,81.37639999999999"
Abu Bakr Masjid,Mosque,"688M+3MH Abu Bakr Masjid, Ayyapa Nagar, Bhilai, Chhattisgarh 490023",,688M+3MH,"Ayyapa Nagar, Bhilai",490023,Chhattisgarh,IN,https://www.google.com/maps/place/Abu+Bakr+Masjid/data=!4m7!3m6!1s0x3a293d2dfdfdecff:0x2e00376d6ce0451d!8m2!3d21.2151984!4d81.3342413!16s%2Fg%2F11c53rygn1!19sChIJ_-z9_S09KToRHUXgbG03AC4?authuser=0&hl=en&rclk=1,"21.2151984,81.3342413"
Masjid Imam Bada,Mosque,"687R+9VM Masjid Imam Bada, Farid Nagar, Bhilai, Chhattisgarh 490023",,687R+9VM,"Farid Nagar, Bhilai",490023,Chhattisgarh,IN,https://www.google.com/maps/place/Masjid+Imam+Bada/data=!4m7!3m6!1s0x3a2922d305a102b7:0xc04b626ab45f0acd!8m2!3d21.213458!4d81.342187!16s%2Fg%2F1pyqkwr84!19sChIJtwKhBdMiKToRzQpftGpiS8A?authuser=0&hl=en&rclk=1,"21.213458,81.342187"
Sher - E - Khuda Masjid Sunni,Mosque,"69P9+CHM Sher - E - Khuda Masjid Sunni, Housing Board Colony, Kailash Nagar, Vasuri, Bhilai, Chhattisgarh 490026","Kailash Nagar, Vasuri","69P9+CHM, Housing Board Colony",Bhilai,490026,Chhattisgarh,IN,https://www.google.com/maps/place/Sher+-+E+-+Khuda+Masjid+Sunni/data=!4m7!3m6!1s0x3a292293dfbe238b:0x580b2c4745ae7e99!8m2!3d21.2360852!4d81.3689209!16s%2Fg%2F11h1kqgv2!19sChIJiyO-35MiKToRmX6uRUcsC1g?authuser=0&hl=en&rclk=1,"21.236085199999998,81.36892089999999"
rD jm` msjd,Mosque,"696F+QR5 rD jm` msjd, Camp 2, Bhilai, Chhattisgarh 490022",Camp 2,696F+QR5,Bhilai,490022,Chhattisgarh,IN,https://www.google.com/maps/place/%D8%B1%D8%B6%D8%A7+%D8%AC%D8%A7%D9%85%D8%B9+%D9%85%D8%B3%D8%AC%D8%AF%E2%80%AD/data=!4m7!3m6!1s0x3a2922fc97243693:0x4dfb8d740a2c32d6!8m2!3d21.2119!4d81.3746!16s%2Fg%2F1pyqvcnmg!19sChIJkzYkl_wiKToR1jIsCnSN-00?authuser=0&hl=en&rclk=1,"21.2119,81.3746"
Jmma Masjid,Mosque,"685X+WXC Jmma Masjid, Purani Basti, Supela, Bhilai, Chhattisgarh 490023","Purani Basti, Supela",685X+WXC,Bhilai,490023,Chhattisgarh,IN,https://www.google.com/maps/place/Jmma+Masjid/data=!4m7!3m6!1s0x3a2922d76bd8d66b:0x31f87d18d7dc3c90!8m2!3d21.2098!4d81.3499!16s%2Fg%2F1pyqk41_c!19sChIJa9bYa9ciKToRkDzc1xh9-DE?authuser=0&hl=en&rclk=1,"21.209799999999998,81.34989999999999"
Macca Masjid,Mosque,"687V+MW7 Macca Masjid, Farid Nagar Rd, Supela, Bhilai, Chhattisgarh 490023",Supela,"687V+MW7, Farid Nagar Rd",Bhilai,490023,Chhattisgarh,IN,https://www.google.com/maps/place/Macca+Masjid/data=!4m7!3m6!1s0x3a2922d3d2bb514b:0x4ca97bc2f76fdbf5!8m2!3d21.2141566!4d81.3447988!16s%2Fg%2F11hbnkzsz7!19sChIJS1G70tMiKToR9dtv98J7qUw?authuser=0&hl=en&rclk=1,"21.2141566,81.34479879999999"
Masjid Nur-ul-Islam,Religious destination,"687V+FXC Masjid Nur-ul-Islam, Supela, Krishna Nager, Bhilai, Chhattisgarh 490023",Supela,687V+FXC,"Krishna Nager, Bhilai",490023,Chhattisgarh,IN,https://www.google.com/maps/place/Masjid+Nur-ul-Islam/data=!4m7!3m6!1s0x3a2922d3d1b24273:0x90021888a7a7c712!8m2!3d21.2136897!4d81.3448776!16s%2Fg%2F11c0rtzh0b!19sChIJc0Ky0dMiKToREsenp4gYApA?authuser=0&hl=en&rclk=1,"21.2136897,81.34487759999999"
Masjid Mohammadi,Mosque,"57JR+H2X Masjid Mohammadi, Durg,, Padmanabhpur, Chhattisgarh 491001",,"57JR+H2X, Durg,","Padmanabhpur, Durg",491001,Chhattisgarh,IN,https://www.google.com/maps/place/Masjid+Mohammadi/data=!4m7!3m6!1s0x3a293c5dd40538e5:0xf9845a1107a5138b!8m2!3d21.1814828!4d81.2901115!16s%2Fg%2F11c2qtx70q!19sChIJ5TgF1F08KToRixOlBxFahPk?authuser=0&hl=en&rclk=1,"21.181482799999998,81.2901115"
Masjid Ayesha,Mosque,"Masjid Ayesha, Fauji Nagar, Light Industrial Area, Bhilai, Chhattisgarh 490026",Light Industrial Area,Fauji Nagar,Bhilai,490026,Chhattisgarh,IN,https://www.google.com/maps/place/Masjid+Ayesha/data=!4m7!3m6!1s0x3a2922f244f88e61:0x9a01ecc04cafc4dc!8m2!3d21.2266671!4d81.374797!16s%2Fg%2F11f54__hsk!19sChIJYY74RPIiKToR3MSvTMDsAZo?authuser=0&hl=en&rclk=1,"21.2266671,81.374797"
Masjid Rahmaniya,Mosque,"58V4+XVP Masjid Rahmaniya, Hudco Colony, Hudco, Titurdiha, Bhilai, Chhattisgarh 490009","Hudco Colony, Hudco",58V4+XVP,"Titurdiha, Bhilai",490009,Chhattisgarh,IN,https://www.google.com/maps/place/Masjid+Rahmaniya/data=!4m7!3m6!1s0x3a293cfb22510d87:0xd4d487bea39798c1!8m2!3d21.1949673!4d81.3072181!16s%2Fg%2F1pyql3kbv!19sChIJhw1RIvs8KToRwZiXo76H1NQ?authuser=0&hl=en&rclk=1,"21.1949673,81.3072181"
rysly msjd,Mosque,"586X+922 rysly msjd, Ispat Nagar, Bhilai, Chhattisgarh 490006",,586X+922,"Ispat Nagar, Bhilai",490006,Chhattisgarh,IN,https://www.google.com/maps/place/%D8%B1%DB%8C%D8%B3%D8%A7%D9%84%DB%8C+%D9%85%D8%B3%D8%AC%D8%AF%E2%80%AD/data=!4m7!3m6!1s0x3a29235659de0855:0x88f2fcba57c022f9!8m2!3d21.1608833!4d81.3475087!16s%2Fg%2F1hm3lggsb!19sChIJVQjeWVYjKToR-SLAV7r88og?authuser=0&hl=en&rclk=1,"21.1608833,81.34750869999999"
Masjid E Aqsha Gaffar Colony,Mosque,"69CM+W7F Masjid E Aqsha Gaffar Colony, Gaffar Colony, Light Industrial Area, Bhilai, Chhattisgarh 490026","Gaffar Colony, Light Industrial Area",69CM+W7F,Bhilai,490026,Chhattisgarh,IN,https://www.google.com/maps/place/Masjid+E+Aqsha+Gaffar+Colony/data=!4m7!3m6!1s0x3a2922f62d9b960d:0xd8eb787768a3e413!8m2!3d21.2223242!4d81.3831633!16s%2Fg%2F11cm_hb_m1!19sChIJDZabLfYiKToRE-SjaHd469g?authuser=0&hl=en&rclk=1,"21.2223242,81.38316329999999"
Hazrat Bilal Masjid,Mosque,"58V4+XVR Hazrat Bilal Masjid, Hudco Colony, Hudco, Titurdiha, Bhilai, Chhattisgarh 491001","Hudco Colony, Hudco",58V4+XVR,"Titurdiha, Bhilai",491001,Chhattisgarh,IN,https://www.google.com/maps/place/Hazrat+Bilal+Masjid/data=!4m7!3m6!1s0x3a293dd3fe1274a5:0xf06c168f66325baa!8m2!3d21.1949851!4d81.3071379!16s%2Fg%2F11ghpzhss8!19sChIJpXQS_tM9KToRqlsyZo8WbPA?authuser=0&hl=en&rclk=1,"21.1949851,81.3071379"
Madina Masjid,Mosque,"672X+WH3 Madina Masjid, Titurdiha Durg, Durg, Chhattisgarh 491001",,672X+WH3,"Titurdiha Durg, Durg",491001,Chhattisgarh,IN,https://www.google.com/maps/place/Madina+Masjid/data=!4m7!3m6!1s0x3a293cfe2d8a6b35:0x399c46b98b096b49!8m2!3d21.2022609!4d81.2989186!16s%2Fg%2F11g6b32s0s!19sChIJNWuKLf48KToRSWsJi7lGnDk?authuser=0&hl=en&rclk=1,"21.2022609,81.2989186"
Hnfy msjdhli snt wjm`t,Mosque,"68FV+8GV Hnfy msjdhli snt wjm`t, Kurud Rd, Kohka, Bhilai, Chhattisgarh 490023",Kohka,"68FV+8GV, Kurud Rd",Bhilai,490023,Chhattisgarh,IN,https://www.google.com/maps/place/%D8%AD%D9%86%D9%81%DB%8C+%D9%85%D8%B3%D8%AC%D8%AF%D8%A7%DA%BE%D9%84%D9%90+%D8%B3%D9%86%D8%AA+%D9%88%D8%AC%D9%85%D8%A7%D8%B9%D8%AA%E2%80%AD/data=!4m7!3m6!1s0x3a29233f398fe5d5:0x8c760c70f68ae314!8m2!3d21.223366!4d81.3438039!16s%2Fg%2F11ghfd09cn!19sChIJ1eWPOT8jKToRFOOK9nAMdow?authuser=0&hl=en&rclk=1,"21.223366,81.3438039"
msjd rysly sykhrrr,Religious destination,"msjd rysly sykhrrr, 4/12, Risali Rd, Ispat Nagar, Bhilai, Chhattisgarh 490006",,"4/12, Risali Rd","Ispat Nagar, Bhilai",490006,Chhattisgarh,IN,https://www.google.com/maps/place/%D9%85%D8%B3%D8%AC%D8%AF+%D8%B1%DB%8C%D8%B3%D8%A7%D9%84%DB%8C+%D8%B3%DB%8C%DA%A9%DA%91%D8%B1%E2%80%AD/data=!4m7!3m6!1s0x3a292356568c8023:0x46c192de132e07e6!8m2!3d21.1609333!4d81.3478366!16s%2Fg%2F11fx9tp_0f!19sChIJI4CMVlYjKToR5gcuE96SwUY?authuser=0&hl=en&rclk=1,"21.1609333,81.3478366"
`ydgh mydn jm` msjd,Mosque,"6922+R23 `ydgh mydn jm` msjd, Sector 6, sectore, Bhilai, Chhattisgarh 490021",Sector 6,6922+R23,"sectore, Bhilai",,Chhattisgarh,IN,https://www.google.com/maps/place/%D8%B9%DB%8C%D8%AF%DA%AF%D8%A7%DB%81+%D9%85%DB%8C%D8%AF%D8%A7%D9%86+%D8%AC%D8%A7%D9%85%D8%B9+%D9%85%D8%B3%D8%AC%D8%AF%E2%80%AD/data=!4m7!3m6!1s0x3a2923b386505511:0x249f778946331759!8m2!3d21.2020102!4d81.3500419!16s%2Fg%2F11f7jshfb8!19sChIJEVVQhrMjKToRWRczRol3nyQ?authuser=0&hl=en&rclk=1,"21.2020102,81.3500419"
Noor Masjid,Mosque,"6956+2RP Noor Masjid, Shastri Nagar, Bhilai, Chhattisgarh 490023",Shastri Nagar,6956+2RP,Bhilai,490023,Chhattisgarh,IN,https://www.google.com/maps/place/Noor+Masjid/data=!4m7!3m6!1s0x3a2922e00ae3b5df:0xfc30010e8034a2e3!8m2!3d21.2075976!4d81.3620752!16s%2Fg%2F1pyqm22t6!19sChIJ37XjCuAiKToR46I0gA4BMPw?authuser=0&hl=en&rclk=1,"21.2075976,81.36207519999999"
Darul Uloom Sarkare Aala Hazrat,Mosque,"688V+5Q2 Darul Uloom Sarkare Aala Hazrat, Farid Nagar, Bhilai, Chhattisgarh 490023",,688V+5Q2,"Farid Nagar, Bhilai",490023,Chhattisgarh,IN,https://www.google.com/maps/place/Darul+Uloom+Sarkare+Aala+Hazrat/data=!4m7!3m6!1s0x3a2923d837a97d15:0xb48902dcee028f07!8m2!3d21.2153906!4d81.3444039!16s%2Fg%2F11f61f0z2y!19sChIJFX2pN9gjKToRB48C7twCibQ?authuser=0&hl=en&rclk=1,"21.2153906,81.3444039"
Masjid,Mosque,"69P9+CH9 Masjid, Vasuri, Bhilai, Chhattisgarh 490026",Vasuri,69P9+CH9,Bhilai,490026,Chhattisgarh,IN,https://www.google.com/maps/place/Masjid/data=!4m7!3m6!1s0x3a2922915a6bd1f5:0x525356e8b12548a8!8m2!3d21.2360499!4d81.3689984!16s%2Fg%2F1pyqlh8jy!19sChIJ9dFrWpEiKToRqEglsehWU1I?authuser=0&hl=en&rclk=1,"21.236049899999998,81.3689984"
msjd khwjh Gryb nwz,Mosque,"6962+23C msjd khwjh Gryb nwz, Purani Basti, Supela, Bhilai, Chhattisgarh 490023","Purani Basti, Supela",6962+23C,Bhilai,490023,Chhattisgarh,IN,https://www.google.com/maps/place/%D9%85%D8%B3%D8%AC%D8%AF+%D8%AE%D9%88%D8%A7%D8%AC%DB%81+%D8%BA%D8%B1%DB%8C%D8%A8+%D9%86%D9%88%D8%A7%D8%B2%E2%80%AD/data=!4m7!3m6!1s0x3a29235b532cc219:0x195658967e4348b4!8m2!3d21.2100655!4d81.3501552!16s%2Fg%2F11fl3ynpq4!19sChIJGcIsU1sjKToRtEhDfpZYVhk?authuser=0&hl=en&rclk=1,"21.2100655,81.3501552"
Masjid-E-Gausulwara,Mosque,"577R+64H Masjid-E-Gausulwara, Durg, Chhattisgarh 491001",,577R+64H,Durg,491001,Chhattisgarh,IN,https://www.google.com/maps/place/Masjid-E-Gausulwara/data=!4m7!3m6!1s0x3a293de65a44e5e5:0x1a491842e7859ea1!8m2!3d21.1630703!4d81.290345!16s%2Fg%2F11rl8yvrgl!19sChIJ5eVEWuY9KToRoZ6F50IYSRo?authuser=0&hl=en&rclk=1,"21.163070299999998,81.290345"
Mohmmadiya Masjid Khedamara Nayatalab Bhilai Jamul,Mosque,"79HM+8WV Mohmmadiya Masjid Khedamara Nayatalab Bhilai Jamul, Nawataria, Bhilai, Chhattisgarh 490024",Nawataria,79HM+8WV,Bhilai,490024,Chhattisgarh,IN,https://www.google.com/maps/place/Mohmmadiya+Masjid+Khedamara+Nayatalab+Bhilai+Jamul/data=!4m7!3m6!1s0x3a2919b52c3f13d5:0x45f4f310c90fc552!8m2!3d21.2783632!4d81.3847902!16s%2Fg%2F11rxwk0h7l!19sChIJ1RM_LLUZKToRUsUPyRDz9EU?authuser=0&hl=en&rclk=1,"21.278363199999998,81.3847902"
Sayyad Baba Ka Mazar,Mosque,"687W+257 Sayyad Baba Ka Mazar, Supela, Farid Nagar, Bhilai, Chhattisgarh 490023",Supela,687W+257,"Farid Nagar, Bhilai",490023,Chhattisgarh,IN,https://www.google.com/maps/place/Sayyad+Baba+Ka+Mazar/data=!4m7!3m6!1s0x3a292329fe6e6053:0x3207e2c6a4720580!8m2!3d21.2125452!4d81.3454212!16s%2Fg%2F11g1q73lh2!19sChIJU2Bu_ikjKToRgAVypMbiBzI?authuser=0&hl=en&rclk=1,"21.212545199999997,81.34542119999999"
Masjid Roabandha,Mosque,"58GG+H6X Masjid Roabandha, Ruabandha, Bhilai, Chhattisgarh 490006",Ruabandha,58GG+H6X,Bhilai,490006,Chhattisgarh,IN,https://www.google.com/maps/place/Masjid+Roabandha/data=!4m7!3m6!1s0x3a293d5eb1cacb8d:0x4b0e2ce9ca95ff24!8m2!3d21.176487!4d81.3255956!16s%2Fg%2F11g07_5qng!19sChIJjcvKsV49KToRJP-VyuksDks?authuser=0&hl=en&rclk=1,"21.176486999999998,81.3255956"
Darul fala madrasa,Mosque,"Darul fala madrasa, Kohka, Bhilai, Chhattisgarh 490023",Kohka,,Bhilai,490023,Chhattisgarh,IN,https://www.google.com/maps/place/Darul+fala+madrasa/data=!4m7!3m6!1s0x3a2923414c868fad:0x3f84354637aaab1e!8m2!3d21.2237731!4d81.3440834!16s%2Fg%2F11gq_1jrtb!19sChIJrY-GTEEjKToRHquqN0Y1hD8?authuser=0&hl=en&rclk=1,"21.2237731,81.3440834"
`ydgh mydn rysly msjd,Mosque,"586W+5WX `ydgh mydn rysly msjd, Ispat Nagar, Bhilai, Chhattisgarh 490006",,586W+5WX,"Ispat Nagar, Bhilai",490006,Chhattisgarh,IN,https://www.google.com/maps/place/%D8%B9%DB%8C%D8%AF%DA%AF%D8%A7%DB%81+%D9%85%DB%8C%D8%AF%D8%A7%D9%86+%D8%B1%DB%8C%D8%B3%D8%A7%D9%84%DB%8C+%D9%85%D8%B3%D8%AC%D8%AF%E2%80%AD/data=!4m7!3m6!1s0x3a2923522a664641:0x54ed0a2ecdbe75ec!8m2!3d21.1604935!4d81.3473694!16s%2Fg%2F11ghznhf1g!19sChIJQUZmKlIjKToR7HW-zS4K7VQ?authuser=0&hl=en&rclk=1,"21.160493499999998,81.34736939999999"
Ashrafi Masjid,Mosque,"58GG+H6H Ashrafi Masjid, Ruabandha, Bhilai, Chhattisgarh 490006",Ruabandha,58GG+H6H,Bhilai,490006,Chhattisgarh,IN,https://www.google.com/maps/place/Ashrafi+Masjid/data=!4m7!3m6!1s0x3a293d805d5e3839:0x5158768121748be7!8m2!3d21.1764329!4d81.3255966!16s%2Fg%2F11gsz5_gty!19sChIJOTheXYA9KToR54t0IYF2WFE?authuser=0&hl=en&rclk=1,"21.1764329,81.3255966"
Taj Darbar Bhilai (Md Aftab Taji),Mosque,"59V2+G9P Taj Darbar Bhilai (Md Aftab Taji), Sector 6, Bhilai, Chhattisgarh 490006",Sector 6,59V2+G9P,Bhilai,,Chhattisgarh,IN,https://www.google.com/maps/place/Taj+Darbar+Bhilai+%28Md+Aftab+Taji%29/data=!4m7!3m6!1s0x3a292319e3dbb189:0x688801cb45750468!8m2!3d21.1938475!4d81.3509416!16s%2Fg%2F11td211h8g!19sChIJibHb4xkjKToRaAR1RcsBiGg?authuser=0&hl=en&rclk=1,"21.1938475,81.3509416"
Masjid Madani,Mosque,"688V+C8H Masjid Madani, Farid Nagar, Bhilai, Chhattisgarh 490023",,688V+C8H,"Farid Nagar, Bhilai",490023,Chhattisgarh,IN,https://www.google.com/maps/place/Masjid+Madani/data=!4m7!3m6!1s0x3a2923c50c3fab35:0xe102adf577a4de71!8m2!3d21.2160684!4d81.3433438!16s%2Fg%2F11gw2ql2x1!19sChIJNas_DMUjKToRcd6kd_WtAuE?authuser=0&hl=en&rclk=1,"21.216068399999997,81.3433438"
Tayyaba Masjid,Mosque,"69C2+QMP Tayyaba Masjid, Vaishali Nagar, Bhilai, Chhattisgarh 490023",,69C2+QMP,"Vaishali Nagar, Bhilai",490023,Chhattisgarh,IN,https://www.google.com/maps/place/Tayyaba+Masjid/data=!4m7!3m6!1s0x3a29232b4bcf1939:0xc87c5afbeec1f545!8m2!3d21.2219783!4d81.3516613!16s%2Fg%2F11k4stwybm!19sChIJORnPSysjKToRRfXB7vtafMg?authuser=0&hl=en&rclk=1,"21.2219783,81.35166129999999"
mynri bhyly,Mosque,"586X+92J mynri bhyly, Risali Rd, Ispat Nagar, Bhilai, Chhattisgarh 490006",,"586X+92J, Risali Rd","Ispat Nagar, Bhilai",490006,Chhattisgarh,IN,https://www.google.com/maps/place/%D9%85%DB%8C%D9%86%D8%A7%D8%B1%D9%90+%D8%A8%DA%BE%DB%8C%D9%84%D8%A7%DB%8C%E2%80%AD/data=!4m7!3m6!1s0x3a29239171979bdb:0x688538195ffa953!8m2!3d21.1609597!4d81.347523!16s%2Fg%2F11g1lmwdcd!19sChIJ25uXcZEjKToRU6n_lYFTiAY?authuser=0&hl=en&rclk=1,"21.1609597,81.347523"
iidgaah graauNdd sNrkssit bhuumi,Mosque,"69P9+3WP iidgaah graauNdd sNrkssit bhuumi, Bhilai, Chhattisgarh 490026",,69P9+3WP,Bhilai,490026,Chhattisgarh,IN,https://www.google.com/maps/place/%E0%A4%88%E0%A4%A6%E0%A4%97%E0%A4%BE%E0%A4%B9+%E0%A4%97%E0%A5%8D%E0%A4%B0%E0%A4%BE%E0%A4%89%E0%A4%82%E0%A4%A1+%E0%A4%B8%E0%A4%82%E0%A4%B0%E0%A4%95%E0%A5%8D%E0%A4%B7%E0%A4%BF%E0%A4%A4+%E0%A4%AD%E0%A5%82%E0%A4%AE%E0%A4%BF/data=!4m7!3m6!1s0x3a2923449b0a50b9:0xbdb93bd72e473f3e!8m2!3d21.2352127!4d81.3698218!16s%2Fg%2F11jzfl3n4w!19sChIJuVAKm0QjKToRPj9HLtc7ub0?authuser=0&hl=en&rclk=1,"21.235212699999998,81.3698218"
nwry msjd (Noori Masjid),Mosque,"688V+C5C nwry msjd (Noori Masjid), Farid Nagar, Bhilai, Chhattisgarh 490023",,688V+C5C,"Farid Nagar, Bhilai",490023,Chhattisgarh,IN,https://www.google.com/maps/place/%D9%86%D9%88%D8%B1%DB%8C+%D9%85%D8%B3%D8%AC%D8%AF+%28Noori+Masjid%29%E2%80%AD/data=!4m7!3m6!1s0x3a2923aaff324f19:0x26af40205a74af16!8m2!3d21.2160392!4d81.3428634!16s%2Fg%2F11tjn2mrqm!19sChIJGU8y_6ojKToRFq90WiBAryY?authuser=0&hl=en&rclk=1,"21.216039199999997,81.3428634"
MASJID JAMUL {msjd jml },Mosque,"793P+VV2 MASJID JAMUL {msjd jml }, Nakapara, Jamul, Bhilai, Chhattisgarh 490024",Nakapara,793P+VV2,"Jamul, Bhilai",490024,Chhattisgarh,IN,https://www.google.com/maps/place/MASJID+JAMUL+%7B%D9%85%D8%B3%D8%AC%D8%AF+%D8%AC%D8%A7%D9%85%D9%84+%7D%E2%80%AD/data=!4m7!3m6!1s0x3a292346e9d0a9c5:0xc28e36dc7684257f!8m2!3d21.2545046!4d81.3870061!16s%2Fg%2F11svyw1b5s!19sChIJxanQ6UYjKToRfyWEdtw2jsI?authuser=0&hl=en&rclk=1,"21.2545046,81.3870061"
Nuri Masjid Farid Nagar,Mosque,"688V+G8X Nuri Masjid Farid Nagar, Farid Nagar, Bhilai, Chhattisgarh 490023",,688V+G8X,"Farid Nagar, Bhilai",,Chhattisgarh,IN,https://www.google.com/maps/place/Nuri+Masjid+Farid+Nagar/data=!4m7!3m6!1s0x3a29232c31375b6f:0xd862eb6632645b89!8m2!3d21.2163577!4d81.3433485!16s%2Fg%2F11s7n11w5t!19sChIJb1s3MSwjKToRiVtkMmbrYtg?authuser=0&hl=en&rclk=1,"21.2163577,81.34334849999999"
Masjid,Mosque,"5CWG+QVJ Masjid, Purena, Bhilai Steel Plant, Bhilai, Chhattisgarh 490021","Purena, Bhilai Steel Plant",5CWG+QVJ,Bhilai,,Chhattisgarh,IN,https://www.google.com/maps/place/Masjid/data=!4m7!3m6!1s0x3a29238b839e9dfb:0xf6e7ad20d0cbef91!8m2!3d21.1969657!4d81.4271391!16s%2Fg%2F11s19mltnw!19sChIJ-52eg4sjKToRke_L0CCt5_Y?authuser=0&hl=en&rclk=1,"21.1969657,81.42713909999999"
Wahabi Masjid-e-Darul Falah Kurus Road Kohka,Mosque,"68FV+GJ5 Wahabi Masjid-e-Darul Falah Kurus Road Kohka, Kurud Rd, Kohka, Bhilai, Chhattisgarh 490023",Kohka,"68FV+GJ5, Kurud Rd",Bhilai,490023,Chhattisgarh,IN,https://www.google.com/maps/place/Wahabi+Masjid-e-Darul+Falah+Kurus+Road+Kohka/data=!4m7!3m6!1s0x3a29236d1e1713fb:0xa8f8b3e2c7daea60!8m2!3d21.223754!4d81.3441246!16s%2Fg%2F11s81qz_cw!19sChIJ-xMXHm0jKToRYOrax-Kz-Kg?authuser=0&hl=en&rclk=1,"21.223754,81.3441246"
Karbala,Mosque,"6956+2RP Karbala, Shastri Nagar, Bhilai, Chhattisgarh 490023",Shastri Nagar,6956+2RP,Bhilai,490023,Chhattisgarh,IN,https://www.google.com/maps/place/Karbala/data=!4m7!3m6!1s0x3a2923c272c6c581:0x9d1be4813042a5e9!8m2!3d21.207625!4d81.3620689!16s%2Fg%2F11v3wx6g7m!19sChIJgcXGcsIjKToR6aVCMIHkG50?authuser=0&hl=en&rclk=1,"21.207625,81.3620689"
mHmdyh msjd,Mosque,"58FH+XFV mHmdyh msjd, Ruabandha, Bhilai, Chhattisgarh 4 90006",Ruabandha,58FH+XFV,Bhilai,4 90006,Chhattisgarh,IN,https://www.google.com/maps/place/%D9%85%D8%AD%D9%85%D8%AF%DB%8C%DB%81+%D9%85%D8%B3%D8%AC%D8%AF%E2%80%AD/data=!4m7!3m6!1s0x3a293d52a92c6803:0xf7f9d67ba3a11222!8m2!3d21.1749901!4d81.3286809!16s%2Fg%2F11h_cnn0cf!19sChIJA2gsqVI9KToRIhKho3vW-fc?authuser=0&hl=en&rclk=1,"21.1749901,81.3286809"
Sunni hanfi.. masjid,Mosque,"79HM+8WV Sunni hanfi.. masjid, Nawataria, Bhilai, Chhattisgarh 490024",Nawataria,79HM+8WV,Bhilai,490024,Chhattisgarh,IN,https://www.google.com/maps/place/Sunni+hanfi..+masjid/data=!4m7!3m6!1s0x3a2919ab04f611dd:0xd3125d5fc5fa652e!8m2!3d21.2783632!4d81.3847902!16s%2Fg%2F11t2dfk6yz!19sChIJ3RH2BKsZKToRLmX6xV9dEtM?authuser=0&hl=en&rclk=1,"21.278363199999998,81.3847902"
