name,main_category,address,address_ward,address_street,address_city,address_postal_code,address_state,address_country_code,link,coordinates
Khowai DM Office,State government office,"3J96+8WF Khowai DM Office, Khowai, Tripura 799202",,3J96+8WF,Khowai,799202,Tripura,IN,https://www.google.com/maps/place/Khowai+DM+Office/data=!4m7!3m6!1s0x3753d9392ca552d5:0xc9378a5e3f6de7e4!8m2!3d24.0683114!4d91.612301!16s%2Fg%2F11g5zzss82!19sChIJ1VKlLDnZUzcR5OdtP16KN8k?authuser=0&hl=en&rclk=1,"24.0683114,91.612301"
Khowai SDM Office,Government office,"3J96+JGG Khowai SDM Office, Khowai, Tripura 799202",,3J96+JGG,Khowai,799202,Tripura,IN,https://www.google.com/maps/place/Khowai+SDM+Office/data=!4m7!3m6!1s0x3753d9396e91e67f:0xeea2c62ea62b282a!8m2!3d24.0690615!4d91.6113238!16s%2Fg%2F11bz_1yh0q!19sChIJf-aRbjnZUzcRKigrpi7Gou4?authuser=0&hl=en&rclk=1,"24.0690615,91.6113238"
Muslim para jama masjid,Mosque,"RJPW+M65 Muslim para jama masjid, Teliamura, Tripura 799205",,RJPW+M65,Teliamura,,Tripura,IN,https://www.google.com/maps/place/Muslim+para+jama+masjid/data=!4m7!3m6!1s0x3753c7e7797f04df:0x8884475ebaf77b08!8m2!3d23.8366298!4d91.6456093!16s%2Fg%2F11t5kch7xz!19sChIJ3wR_eefHUzcRCHv3ul5HhIg?authuser=0&hl=en&rclk=1,"23.836629799999997,91.64560929999999"
Khowai,Bank,"Khowai, ICICI Bank Ltd., Khowai Office Road, PO, Kamalpur - Khowai Rd, Town, Ganki, Khowai, Tripura 799202",Town,"ICICI Bank Ltd., Khowai Office Road, PO, Kamalpur - Khowai Rd","Ganki, Khowai",799202,Tripura,IN,https://www.google.com/maps/place/Khowai/data=!4m7!3m6!1s0x3753d96e23e5525d:0xb33468467153ea92!8m2!3d24.0683403!4d91.6107104!16s%2Fg%2F11l5qsr0lq!19sChIJXVLlI27ZUzcRkupTcUZoNLM?authuser=0&hl=en&rclk=1,"24.0683403,91.6107104"
Baitun Noor Sharchhari National Park Jame Masjid,Mosque,"4CGR+V67 Baitun Noor Sharchhari National Park Jame Masjid, Madhabpur - Habiganj Hwy, Bangladesh",,"4CGR+V67, Madhabpur - Habiganj Hwy",,,,BD,https://www.google.com/maps/place/Baitun+Noor+Sharchhari+National+Park+Jame+Masjid/data=!4m7!3m6!1s0x3753e2031a28803f:0x5fdc8ad404cae15c!8m2!3d24.1271573!4d91.4405622!16s%2Fg%2F11ckqr7_0s!19sChIJP4AoGgPiUzcRXOHKBNSK3F8?authuser=0&hl=en&rclk=1,"24.1271573,91.4405622"
Kailashahar Bazar Jama Masjid,Religious organization,"8XCW+359 Kailashahar Bazar Jama Masjid, Kailashahar, Tripura 799277",,8XCW+359,Kailashahar,799277,Tripura,IN,https://www.google.com/maps/place/Kailashahar+Bazar+Jama+Masjid/data=!4m7!3m6!1s0x37518ffd77d32cb5:0x356b399ce02135e3!8m2!3d24.3201696!4d91.9954973!16s%2Fg%2F11c6__kmc6!19sChIJtSzTd_2PUTcR4zUh4Jw5azU?authuser=0&hl=en&rclk=1,"24.3201696,91.9954973"
Manikbhander Masjid,Religious destination,"4RM7+6CJ Manikbhander Masjid, Manik Bhandar, Tripura 799287",,4RM7+6CJ,Manik Bhandar,799287,Tripura,IN,https://www.google.com/maps/place/Manikbhander+Masjid/data=!4m7!3m6!1s0x3753d55ff53b5723:0x671942635cc7bbe2!8m2!3d24.1330851!4d91.813507!16s%2Fg%2F11f1dlcyws!19sChIJI1c79V_VUzcR4rvHXGNCGWc?authuser=0&hl=en&rclk=1,"24.1330851,91.813507"
Doulat Pur Jame Masjid,Mosque,"8GCH+5PW Doulat Pur Jame Masjid, N2, Bangladesh",,"8GCH+5PW, N2",,,,BD,https://www.google.com/maps/place/Doulat+Pur+Jame+Masjid/data=!4m7!3m6!1s0x375167fb5fe24499:0x8b96cc088c128fa!8m2!3d24.3204774!4d91.5293419!16s%2Fg%2F11bwf8brf2!19sChIJmUTiX_tnUTcR-ijBiMBsuQg?authuser=0&hl=en&rclk=1,"24.320477399999998,91.52934189999999"
Chargaon Jame Masjid,Mosque,"8G8F+5VG Chargaon Jame Masjid, N2, 3310, Bangladesh",,"8G8F+5VG, N2",,3310,,BD,https://www.google.com/maps/place/Chargaon+Jame+Masjid/data=!4m7!3m6!1s0x375167f9e89a02a7:0x9aa3e077a65de32d!8m2!3d24.3154301!4d91.5247017!16s%2Fg%2F11byvfzfg3!19sChIJpwKa6PlnUTcRLeNdpnfgo5o?authuser=0&hl=en&rclk=1,"24.3154301,91.5247017"
Halhali Masjid,Mosque,"4R6F+J7Q Halhali Masjid, Ambassa - Kamalpur Rd, Halhuli, Tripura 799287",,"4R6F+J7Q, Ambassa - Kamalpur Rd",Halhuli,799287,Tripura,IN,https://www.google.com/maps/place/Halhali+Masjid/data=!4m7!3m6!1s0x3753d54867e66531:0xb96e72216f427944!8m2!3d24.1115896!4d91.8232399!16s%2Fg%2F11f0sjr8k1!19sChIJMWXmZ0jVUzcRRHlCbyFybrk?authuser=0&hl=en&rclk=1,"24.1115896,91.82323989999999"
Lakshmipur Jame Masjid,Mosque,"5GPG+F44 Lakshmipur Jame Masjid, Asampara - Balla Rd, Bangladesh",,"5GPG+F44, Asampara - Balla Rd",,,,BD,https://www.google.com/maps/place/Lakshmipur+Jame+Masjid/data=!4m7!3m6!1s0x37516080d1e18d3f:0xd884ed933ba941f3!8m2!3d24.1861403!4d91.5253428!16s%2Fg%2F11bw2_9pr9!19sChIJP43h0YBgUTcR80GpO5PthNg?authuser=0&hl=en&rclk=1,"24.186140299999998,91.52534279999999"
Saheb nagar Jame Masjid - saaheb ngr jaame msjid,Mosque,"3979+X2R Saheb nagar Jame Masjid - saaheb ngr jaame msjid, Madhabpur, Bangladesh",,3979+X2R,Madhabpur,,,BD,https://www.google.com/maps/place/Saheb+nagar+Jame+Masjid+-+%E0%A6%B8%E0%A6%BE%E0%A6%B9%E0%A7%87%E0%A6%AC+%E0%A6%A8%E0%A6%97%E0%A6%B0+%E0%A6%9C%E0%A6%BE%E0%A6%AE%E0%A7%87+%E0%A6%AE%E0%A6%B8%E0%A6%9C%E0%A6%BF%E0%A6%A6/data=!4m7!3m6!1s0x3753e34a9525b735:0xf07b9916914b2833!8m2!3d24.064985!4d91.3675058!16s%2Fg%2F11hcj0rr6h!19sChIJNbcllUrjUzcRMyhLkRaZe_A?authuser=0&hl=en&rclk=1,"24.064985,91.36750579999999"
"Halhali Muslimpara, Uttar Masjid",Mosque,"4RC9+3X7 Halhali Muslimpara, Uttar Masjid, Halhuli, Tripura 799286",,4RC9+3X7,Halhuli,,Tripura,IN,"https://www.google.com/maps/place/Halhali+Muslimpara,+Uttar+Masjid/data=!4m7!3m6!1s0x3753d591bef5b8bd:0x2304570920408d69!8m2!3d24.1201595!4d91.8199087!16s%2Fg%2F11h08955_9!19sChIJvbj1vpHVUzcRaY1AIAlXBCM?authuser=0&hl=en&rclk=1","24.1201595,91.8199087"
Lamagaon Jame Masjid,Mosque,"8M3C+4PQ Lamagaon Jame Masjid, N207, Bangladesh",,"8M3C+4PQ, N207",,,,BD,https://www.google.com/maps/place/Lamagaon+Jame+Masjid/data=!4m7!3m6!1s0x3751654a3d3b8413:0xd35309001d056211!8m2!3d24.3028321!4d91.6718615!16s%2Fg%2F1q2wgf1y7!19sChIJE4Q7PUplUTcREWIFHQAJU9M?authuser=0&hl=en&rclk=1,"24.3028321,91.67186149999999"
Amuroad Bazar Masjid,Mosque,"Amuroad Bazar Masjid, Bazar, Road, Amuroad, Bangladesh",,"Bazar, Road",Amuroad,,,BD,https://www.google.com/maps/place/Amuroad+Bazar+Masjid/data=!4m7!3m6!1s0x3753df898f006731:0xbfb93509a4fbe8af!8m2!3d24.1341018!4d91.5455264!16s%2Fg%2F11bw5m7yd2!19sChIJMWcAj4nfUzcRr-j7pAk1ub8?authuser=0&hl=en&rclk=1,"24.1341018,91.5455264"
Gazipur Shahi Masjid msjd,Mosque,"3HWH+CPV Gazipur Shahi Masjid msjd, Asampara - Balla Rd, Bangladesh",,"3HWH+CPV, Asampara - Balla Rd",,,,BD,https://www.google.com/maps/place/Gazipur+Shahi+Masjid+%D9%85%D8%B3%D8%AC%D8%AF%E2%80%AD/data=!4m7!3m6!1s0x3753df2279c98e35:0x2a0a84f25d9382db!8m2!3d24.0961166!4d91.5792847!16s%2Fg%2F11bw1h25j1!19sChIJNY7JeSLfUzcR24KTXfKECio?authuser=0&hl=en&rclk=1,"24.0961166,91.5792847"
Manikbhandar Old Masjid,Mosque,"4RJ8+M57 Manikbhandar Old Masjid, Ambassa - Kamalpur Rd, Manik Bhandar, Tripura 799287",,"4RJ8+M57, Ambassa - Kamalpur Rd",Manik Bhandar,799287,Tripura,IN,https://www.google.com/maps/place/Manikbhandar+Old+Masjid/data=!4m7!3m6!1s0x3753d525cb08ffe1:0xf162d58599070814!8m2!3d24.1316513!4d91.8154227!16s%2Fg%2F11hf4xxhkp!19sChIJ4f8IyyXVUzcRFAgHmYXVYvE?authuser=0&hl=en&rclk=1,"24.131651299999998,91.8154227"
Rajar Bazar Madrasa Masjid,Mosque,"5G2W+56F Rajar Bazar Madrasa Masjid, Razar Bazar - Bashulla Bazar Rd, Bangladesh",,"5G2W+56F, Razar Bazar - Bashulla Bazar Rd",,,,BD,https://www.google.com/maps/place/Rajar+Bazar+Madrasa+Masjid/data=!4m7!3m6!1s0x3751603b63d6cb61:0x26d7cfad083094b1!8m2!3d24.1504345!4d91.5455382!16s%2Fg%2F11b90f2qbv!19sChIJYcvWYztgUTcRsZQwCK3P1yY?authuser=0&hl=en&rclk=1,"24.1504345,91.5455382"
Ranirkut Bazar Masjid,Mosque,"5G4R+XF4 Ranirkut Bazar Masjid, Chunarughat - Asampara Rd, Ranirkut, Bangladesh",,"5G4R+XF4, Chunarughat - Asampara Rd",Ranirkut,,,BD,https://www.google.com/maps/place/Ranirkut+Bazar+Masjid/data=!4m7!3m6!1s0x3751603fc958cb61:0x1b66942fa93a61af!8m2!3d24.1573803!4d91.5411973!16s%2Fg%2F11bw5m6qdv!19sChIJYctYyT9gUTcRr2E6qS-UZhs?authuser=0&hl=en&rclk=1,"24.1573803,91.5411973"
Joypur Masjid,Mosque,"29JG+99F Joypur Masjid, Bangladesh",,29JG+99F,,,,BD,https://www.google.com/maps/place/Joypur+Masjid/data=!4m7!3m6!1s0x3753e4a5559d6505:0xccab506e71cc4f3a!8m2!3d24.0309499!4d91.3759092!16s%2Fg%2F11b6gcbrvz!19sChIJBWWdVaXkUzcROk_McW5Qq8w?authuser=0&hl=en&rclk=1,"24.0309499,91.3759092"
sundrpur baajaar jaame msjid,Mosque,"7G5M+23G sundrpur baajaar jaame msjid, Unnamed Road, Bangladesh",,"7G5M+23G, Unnamed Road",,,,BD,https://www.google.com/maps/place/%E0%A6%B8%E0%A7%81%E0%A6%A8%E0%A7%8D%E0%A6%A6%E0%A6%B0%E0%A6%AA%E0%A7%81%E0%A6%B0+%E0%A6%AC%E0%A6%BE%E0%A6%9C%E0%A6%BE%E0%A6%B0+%E0%A6%9C%E0%A6%BE%E0%A6%AE%E0%A7%87+%E0%A6%AE%E0%A6%B8%E0%A6%9C%E0%A6%BF%E0%A6%A6/data=!4m7!3m6!1s0x375167e3c32d668f:0x58f2dac6fd784474!8m2!3d24.2575728!4d91.5327039!16s%2Fg%2F11fpjgwxr5!19sChIJj2Ytw-NnUTcRdER4_cba8lg?authuser=0&hl=en&rclk=1,"24.2575728,91.5327039"
Echalia Bazar Jame Masjid,Mosque,"4H5F+89R Echalia Bazar Jame Masjid, Rema Rd, Bangladesh",,"4H5F+89R, Rema Rd",,,,BD,https://www.google.com/maps/place/Echalia+Bazar+Jame+Masjid/data=!4m7!3m6!1s0x3753df1390806613:0x3d60e5ecdcfc9865!8m2!3d24.1083563!4d91.5733937!16s%2Fg%2F11bw2gt19b!19sChIJE2aAkBPfUzcRZZj83OzlYD0?authuser=0&hl=en&rclk=1,"24.1083563,91.5733937"
Baitul Karim Jame Masjid,Mosque,"4HC6+QPG Baitul Karim Jame Masjid, Asampara - Balla Rd, Bangladesh",,"4HC6+QPG, Asampara - Balla Rd",,,,BD,https://www.google.com/maps/place/Baitul+Karim+Jame+Masjid/data=!4m7!3m6!1s0x3753df77a63d38fd:0xcea8be159b49153e!8m2!3d24.1219383!4d91.5618128!16s%2Fg%2F11bw2_f_dw!19sChIJ_Tg9pnffUzcRPhVJmxW-qM4?authuser=0&hl=en&rclk=1,"24.1219383,91.5618128"
"Jami Masjid, Baligaon",Mosque,"6R2G+5HQ Jami Masjid, Baligaon, Kamalpur, Noagaon, Tripura 799285",,6R2G+5HQ,"Kamalpur, Noagaon",799285,Tripura,IN,"https://www.google.com/maps/place/Jami+Masjid,+Baligaon/data=!4m7!3m6!1s0x37517f5240b813a5:0x5cba267aed01e53!8m2!3d24.2004662!4d91.8264784!16s%2Fg%2F11gj77wdg1!19sChIJpRO4QFJ_UTcRUx7QrmeiywU?authuser=0&hl=en&rclk=1","24.200466199999997,91.8264784"
msjid kaalikaapur,Mosque,"6H2C+6H9 msjid kaalikaapur, Unnamed Road, Bangladesh",,"6H2C+6H9, Unnamed Road",,,,BD,https://www.google.com/maps/place/%E0%A6%AE%E0%A6%B8%E0%A6%9C%E0%A6%BF%E0%A6%A6+%E0%A6%95%E0%A6%BE%E0%A6%B2%E0%A6%BF%E0%A6%95%E0%A6%BE%E0%A6%AA%E0%A7%81%E0%A6%B0/data=!4m7!3m6!1s0x3751614d3684b819:0x6fd039e46452453f!8m2!3d24.2005318!4d91.5714801!16s%2Fg%2F11h8fdf54z!19sChIJGbiENk1hUTcRP0VSZOQ50G8?authuser=0&hl=en&rclk=1,"24.2005318,91.5714801"
Rahmania Mosque,Mosque,"Rahmania Mosque, Ashidron UP, Bangladesh",,,Ashidron UP,,,BD,https://www.google.com/maps/place/Rahmania+Mosque/data=!4m7!3m6!1s0x3751652b1119d16d:0xa062e1394e5bddec!8m2!3d24.281274!4d91.6744778!16s%2Fg%2F11cs5_0224!19sChIJbdEZEStlUTcR7N1bTjnhYqA?authuser=0&hl=en&rclk=1,"24.281274,91.67447779999999"
Bhumihin Masjid,Mosque,"2RW6+PJQ Bhumihin Masjid, Abhanga, Tripura 799286",,2RW6+PJQ,Abhanga,799286,Tripura,IN,https://www.google.com/maps/place/Bhumihin+Masjid/data=!4m7!3m6!1s0x3753d53541d0314f:0x76b1d6b4e5afbf35!8m2!3d24.0468317!4d91.8116199!16s%2Fg%2F11gpgxn71d!19sChIJTzHQQTXVUzcRNb-v5bTWsXY?authuser=0&hl=en&rclk=1,"24.0468317,91.8116199"
Zarulia Jame Masjid,Mosque,"4H78+47P Zarulia Jame Masjid, Zarulia, Bangladesh",,4H78+47P,Zarulia,,,BD,https://www.google.com/maps/place/Zarulia+Jame+Masjid/data=!4m7!3m6!1s0x3753df7337e719dd:0x5f5af8ff56600acd!8m2!3d24.1128338!4d91.5656939!16s%2Fg%2F11c3q12dv1!19sChIJ3RnnN3PfUzcRzQpgVv_4Wl8?authuser=0&hl=en&rclk=1,"24.1128338,91.5656939"
Holong Mwtai,Hindu temple,"XMV2+H44 Holong Mwtai, Khowai, Tripura 799207",,XMV2+H44,Khowai,,Tripura,IN,https://www.google.com/maps/place/Holong+Mwtai/data=!4m7!3m6!1s0x3753dbf132078217:0x8702b499fd8862c6!8m2!3d23.9938798!4d91.650321!16s%2Fg%2F11fsw5gndy!19sChIJF4IHMvHbUzcRxmKI_Zm0Aoc?authuser=0&hl=en&rclk=1,"23.9938798,91.65032099999999"
mtignj jaame msjid,Mosque,"8M3G+J77 mtignj jaame msjid, Dhaka - Moulvibazar Hwy, Bangladesh",,"8M3G+J77, Dhaka - Moulvibazar Hwy",,,,BD,https://www.google.com/maps/place/%E0%A6%AE%E0%A6%A4%E0%A6%BF%E0%A6%97%E0%A6%A8%E0%A7%8D%E0%A6%9C+%E0%A6%9C%E0%A6%BE%E0%A6%AE%E0%A7%87+%E0%A6%AE%E0%A6%B8%E0%A6%9C%E0%A6%BF%E0%A6%A6/data=!4m7!3m6!1s0x3751657b89470cf1:0x4f7798d5613d73af!8m2!3d24.3040386!4d91.6756678!16s%2Fg%2F11h4h2_3vf!19sChIJ8QxHiXtlUTcRr3M9YdWYd08?authuser=0&hl=en&rclk=1,"24.3040386,91.6756678"
Alinagar Kendriyo Sunni Jame Masjid,Mosque,"Alinagar Kendriyo Sunni Jame Masjid, 3320, Bangladesh",,,,3320,,BD,https://www.google.com/maps/place/Alinagar+Kendriyo+Sunni+Jame+Masjid/data=!4m7!3m6!1s0x3753df58531324cf:0x9c5b5448620e06a9!8m2!3d24.1323855!4d91.5913284!16s%2Fg%2F11h401zml_!19sChIJzyQTU1jfUzcRqQYOYkhUW5w?authuser=0&hl=en&rclk=1,"24.132385499999998,91.5913284"
Karisha Basti Jame Masjid,Mosque,"4H6V+9Q9 Karisha Basti Jame Masjid, Rema Rd, Bangladesh",,"4H6V+9Q9, Rema Rd",,,,BD,https://www.google.com/maps/place/Karisha+Basti+Jame+Masjid/data=!4m7!3m6!1s0x3753df35ec2fe25d:0xcf1b4494ce4a91a0!8m2!3d24.1109071!4d91.5944928!16s%2Fg%2F11bw3c69sj!19sChIJXeIv7DXfUzcRoJFKzpREG88?authuser=0&hl=en&rclk=1,"24.1109071,91.5944928"
Union Parishad Masjid,Mosque,"4GMW+7HR Union Parishad Masjid, Amuroad - Bazar Rd, Amuroad, Bangladesh",,"4GMW+7HR, Amuroad - Bazar Rd",Amuroad,,,BD,https://www.google.com/maps/place/Union+Parishad+Masjid/data=!4m7!3m6!1s0x3753df89a06c70af:0x22a4482958816879!8m2!3d24.1332426!4d91.5463753!16s%2Fg%2F11bw3cctgp!19sChIJr3BsoInfUzcReWiBWClIpCI?authuser=0&hl=en&rclk=1,"24.1332426,91.5463753"
Bongoan jame masjid,Mosque,"82JC+W7P Bongoan jame masjid, Kailashahar, Tripura 799277",,82JC+W7P,Kailashahar,799277,Tripura,IN,https://www.google.com/maps/place/Bongoan+jame+masjid/data=!4m7!3m6!1s0x37519196df7577c7:0xa3c27ffaaf6bd5ca!8m2!3d24.3323273!4d92.02069!16s%2Fg%2F11mtddc2_m!19sChIJx3d135aRUTcRytVrr_p_wqM?authuser=0&hl=en&rclk=1,"24.3323273,92.02069"
Bogadubi Jame Mosque,Mosque,"5G2P+9FF Bogadubi Jame Mosque, Bogadubi, Bangladesh",,5G2P+9FF,Bogadubi,,,BD,https://www.google.com/maps/place/Bogadubi+Jame+Mosque/data=!4m7!3m6!1s0x375160172667ec1d:0xf36183b927512273!8m2!3d24.1509437!4d91.5361762!16s%2Fg%2F1pt_w3w34!19sChIJHexnJhdgUTcRcyJRJ7mDYfM?authuser=0&hl=en&rclk=1,"24.1509437,91.5361762"
Rashidpur Tea Garden Masjid,Mosque,"8H64+G8R Rashidpur Tea Garden Masjid, teastate Road, Bangladesh",,"8H64+G8R, teastate Road",,,,BD,https://www.google.com/maps/place/Rashidpur+Tea+Garden+Masjid/data=!4m7!3m6!1s0x3751677290fcc8a7:0x5649ebc8adb618db!8m2!3d24.3113731!4d91.5557616!16s%2Fg%2F11k0myk4pg!19sChIJp8j8kHJnUTcR2xi2rcjrSVY?authuser=0&hl=en&rclk=1,"24.311373099999997,91.5557616"
Kamalpur Baitun Nur Masjid,Mosque,"393G+R32 Kamalpur Baitun Nur Masjid, Madhabpur, Bangladesh",,393G+R32,Madhabpur,,,BD,https://www.google.com/maps/place/Kamalpur+Baitun+Nur+Masjid/data=!4m7!3m6!1s0x3753e3501d79f729:0xc3f5a6349a9bb490!8m2!3d24.0545074!4d91.3751288!16s%2Fg%2F11gdt24fwk!19sChIJKfd5HVDjUzcRkLSbmjSm9cM?authuser=0&hl=en&rclk=1,"24.0545074,91.3751288"
Masjid-e-Noor,Mosque,"4R6G+4JX Masjid-e-Noor, Ambassa - Kamalpur Rd, Halhuli, Tripura 799287",,"4R6G+4JX, Ambassa - Kamalpur Rd",Halhuli,799287,Tripura,IN,https://www.google.com/maps/place/Masjid-e-Noor/data=!4m7!3m6!1s0x3753d5356fb4fca9:0x2888bc323fad7546!8m2!3d24.1103612!4d91.8266034!16s%2Fg%2F11llt0xn44!19sChIJqfy0bzXVUzcRRnWtPzK8iCg?authuser=0&hl=en&rclk=1,"24.1103612,91.8266034"
Mosque,Mosque,"7G4V+RM6 Mosque, Bangladesh",,7G4V+RM6,,,,BD,https://www.google.com/maps/place/Mosque/data=!4m7!3m6!1s0x37516782a199ad9d:0x2af518fc8df0dcfc!8m2!3d24.2570397!4d91.5441367!16s%2Fg%2F11ptlkm2vk!19sChIJna2ZoYJnUTcR_NzwjfwY9So?authuser=0&hl=en&rclk=1,"24.2570397,91.5441367"
Dip Char Jame Masjid,Mosque,"4H6R+X9V Dip Char Jame Masjid, Rema Rd, Bangladesh",,"4H6R+X9V, Rema Rd",,,,BD,https://www.google.com/maps/place/Dip+Char+Jame+Masjid/data=!4m7!3m6!1s0x3753df482db579c7:0x2b3ee03ef1973896!8m2!3d24.112486!4d91.5909196!16s%2Fg%2F11bw3cc9yp!19sChIJx3m1LUjfUzcRljiX8T7gPis?authuser=0&hl=en&rclk=1,"24.112486,91.59091959999999"
Satgaon Railway Jame Mosque,Mosque,"7MQ8+C5M Satgaon Railway Jame Mosque, Bangladesh",,7MQ8+C5M,,,,BD,https://www.google.com/maps/place/Satgaon+Railway+Jame+Mosque/data=!4m7!3m6!1s0x3751653aee1e5bc1:0xbc00566e994fa437!8m2!3d24.2885753!4d91.6654161!16s%2Fg%2F11flwbb2lh!19sChIJwVse7jplUTcRN6RPmW5WALw?authuser=0&hl=en&rclk=1,"24.288575299999998,91.6654161"
ksbaa krimpur jaame msjid,Mosque,"ksbaa krimpur jaame msjid, karimpur Jame masjid, Bangladesh",,karimpur Jame masjid,,,,BD,https://www.google.com/maps/place/%E0%A6%95%E0%A6%B8%E0%A6%AC%E0%A6%BE+%E0%A6%95%E0%A6%B0%E0%A6%BF%E0%A6%AE%E0%A6%AA%E0%A7%81%E0%A6%B0+%E0%A6%9C%E0%A6%BE%E0%A6%AE%E0%A7%87+%E0%A6%AE%E0%A6%B8%E0%A6%9C%E0%A6%BF%E0%A6%A6/data=!4m7!3m6!1s0x3751679afbf5def1:0x8943885e9c2047aa!8m2!3d24.3251506!4d91.5430782!16s%2Fg%2F11tk7bvq48!19sChIJ8d71-5pnUTcRqkcgnF6IQ4k?authuser=0&hl=en&rclk=1,"24.3251506,91.5430782"
Golchhari Jame Masjid,Mosque,"4H7Q+G97 Golchhari Jame Masjid, Rema Rd, Bangladesh",,"4H7Q+G97, Rema Rd",,,,BD,https://www.google.com/maps/place/Golchhari+Jame+Masjid/data=!4m7!3m6!1s0x3753df47dead0bfb:0x8b606526b7e6d5d7!8m2!3d24.1137886!4d91.5884256!16s%2Fg%2F11bw3c65v_!19sChIJ-wut3kffUzcR19XmtyZlYIs?authuser=0&hl=en&rclk=1,"24.1137886,91.5884256"
Moynabad Jame Masjid,Mosque,"5G7Q+R23 Moynabad Jame Masjid, Bangladesh",,5G7Q+R23,,,,BD,https://www.google.com/maps/place/Moynabad+Jame+Masjid/data=!4m7!3m6!1s0x375161f8fad40291:0xf0e9740fe146bc87!8m2!3d24.1645244!4d91.5375378!16s%2Fg%2F11t10qp77c!19sChIJkQLU-vhhUTcRh7xG4Q906fA?authuser=0&hl=en&rclk=1,"24.164524399999998,91.5375378"
Chankhala Jame Masjid,Mosque,"Chankhala Jame Masjid, Chankhala, Bangladesh",,Chankhala,,,,BD,https://www.google.com/maps/place/Chankhala+Jame+Masjid/data=!4m7!3m6!1s0x3753df6ae6118479:0xa1b46f76b697becd!8m2!3d24.1264285!4d91.5710118!16s%2Fg%2F11jp4tf5qf!19sChIJeYQR5mrfUzcRzb6XtnZvtKE?authuser=0&hl=en&rclk=1,"24.1264285,91.5710118"
Hugliya Jame Masjid,Mosque,"6MR5+7RV Hugliya Jame Masjid, Sindurkhan UP, Bangladesh",,6MR5+7RV,Sindurkhan UP,,,BD,https://www.google.com/maps/place/Hugliya+Jame+Masjid/data=!4m7!3m6!1s0x375165ea153cdd01:0x9258d2036a23dab6!8m2!3d24.2407383!4d91.6595414!16s%2Fg%2F11nnnjd16h!19sChIJAd08FeplUTcRttojagPSWJI?authuser=0&hl=en&rclk=1,"24.2407383,91.6595414"
West Dulna Masjid,Mosque,"4G3P+35Q West Dulna Masjid, Bangladesh",,4G3P+35Q,,,,BD,https://www.google.com/maps/place/West+Dulna+Masjid/data=!4m7!3m6!1s0x3753df27f88bb3b9:0x4cad63cab3a67f16!8m2!3d24.1027181!4d91.5354822!16s%2Fg%2F11nmj1_nqv!19sChIJubOL-CffUzcRFn-ms8pjrUw?authuser=0&hl=en&rclk=1,"24.1027181,91.53548219999999"
Rahmania Jame Masjid,Mosque,"7MP3+5XF Rahmania Jame Masjid, W Laiyarkul path, Bangladesh",,"7MP3+5XF, W Laiyarkul path",,,,BD,https://www.google.com/maps/place/Rahmania+Jame+Masjid/data=!4m7!3m6!1s0x375165ea610a6369:0xd35f90c1075f5cbb!8m2!3d24.2854475!4d91.6549283!16s%2Fg%2F11hz60nhmh!19sChIJaWMKYeplUTcRu1xfB8GQX9M?authuser=0&hl=en&rclk=1,"24.2854475,91.6549283"
Nayan Pur Jame Masjid,Mosque,"29WR+9H8 Nayan Pur Jame Masjid, Bangladesh",,29WR+9H8,,,,BD,https://www.google.com/maps/place/Nayan+Pur+Jame+Masjid/data=!4m7!3m6!1s0x3753e3dcbe6a2d5f:0xd7eeea4e2303f356!8m2!3d24.0459107!4d91.3914643!16s%2Fg%2F11llhprfkv!19sChIJXy1qvtzjUzcRVvMDI07q7tc?authuser=0&hl=en&rclk=1,"24.0459107,91.3914643"
Enatabad notun masjid,Mosque,"5G6C+9GP Enatabad notun masjid, Bangladesh",,5G6C+9GP,,,,BD,https://www.google.com/maps/place/Enatabad+notun+masjid/data=!4m7!3m6!1s0x3751611c1ed31605:0x5901a7b5b2632d8e!8m2!3d24.1609747!4d91.5213352!16s%2Fg%2F11tc1m49kn!19sChIJBRbTHhxhUTcRji1jsrWnAVk?authuser=0&hl=en&rclk=1,"24.1609747,91.5213352"
Masjid-E-Bilal,Mosque,"5G2W+579 Masjid-E-Bilal, Bashulla Bazar Rd, Bangladesh",,"5G2W+579, Bashulla Bazar Rd",,,,BD,https://www.google.com/maps/place/Masjid-E-Bilal/data=!4m7!3m6!1s0x3751603b70655137:0x17bd5119260ca5d8!8m2!3d24.1504104!4d91.5457215!16s%2Fg%2F11hd08pw2t!19sChIJN1FlcDtgUTcR2KUMJhlRvRc?authuser=0&hl=en&rclk=1,"24.1504104,91.5457215"
Paschim Noabadi Jama Masjid,Mosque,"V85C+GRC Paschim Noabadi Jama Masjid, West Noabadi, Agartala, Tripura 799006",West Noabadi,V85C+GRC,Agartala,799006,Tripura,IN,https://www.google.com/maps/place/Paschim+Noabadi+Jama+Masjid/data=!4m7!3m6!1s0x3753f1b7351bf7b3:0x22f9e55db1f88858!8m2!3d23.8588081!4d91.3220015!16s%2Fg%2F11m_zhh78h!19sChIJs_cbNbfxUzcRWIj4sV3l-SI?authuser=0&hl=en&rclk=1,"23.858808099999997,91.3220015"
Uttar Kalikapur Jame Masjid,Mosque,"X9V8+9MC Uttar Kalikapur Jame Masjid, Dharmaghar, Bangladesh",,X9V8+9MC,Dharmaghar,,,BD,https://www.google.com/maps/place/Uttar+Kalikapur+Jame+Masjid/data=!4m7!3m6!1s0x3753e526db655167:0x7867a2fab6c99aa1!8m2!3d23.9934252!4d91.366633!16s%2Fg%2F11szbx4wnj!19sChIJZ1Fl2yblUzcRoZrJtvqiZ3g?authuser=0&hl=en&rclk=1,"23.993425199999997,91.366633"
Nischinto Pur Jame Masjid,Mosque,"5H9G+VPM Nischinto Pur Jame Masjid, khoyyaai baaNdh srrk, Bangladesh",,"5H9G+VPM, khoyyaai baaNdh srrk",,,,BD,https://www.google.com/maps/place/Nischinto+Pur+Jame+Masjid/data=!4m7!3m6!1s0x375161bd1aa55599:0xad6c0340d011e066!8m2!3d24.1697092!4d91.5768117!16s%2Fg%2F11ckqs1mtr!19sChIJmVWlGr1hUTcRZuAR0EADbK0?authuser=0&hl=en&rclk=1,"24.1697092,91.5768117"
cauptt jaame msjid Choupot Jami Masjid,Mosque,"7G2G+HFR cauptt jaame msjid Choupot Jami Masjid, Choupot, Bangladesh",,7G2G+HFR,Choupot,,,BD,https://www.google.com/maps/place/%E0%A6%9A%E0%A7%8C%E0%A6%AA%E0%A6%9F+%E0%A6%9C%E0%A6%BE%E0%A6%AE%E0%A7%87+%E0%A6%AE%E0%A6%B8%E0%A6%9C%E0%A6%BF%E0%A6%A6+Choupot+Jami+Masjid/data=!4m7!3m6!1s0x37516798da8af803:0x41f84b1358851e6f!8m2!3d24.251494!4d91.52613!16s%2Fg%2F11n046_bq1!19sChIJA_iK2phnUTcRbx6FWBNL-EE?authuser=0&hl=en&rclk=1,"24.251493999999997,91.52613"
Daulatpur be the Jama Masjid,Mosque,"8GFH+497 Daulatpur be the Jama Masjid, N2, Bahubal 3310, Bangladesh",,"8GFH+497, N2",Bahubal,3310,,BD,https://www.google.com/maps/place/Daulatpur+be+the+Jama+Masjid/data=!4m7!3m6!1s0x375167fcf9fc38b5:0x45ab3972fee75fb3!8m2!3d24.3227917!4d91.5284148!16s%2Fg%2F11bwyz_vpb!19sChIJtTj8-fxnUTcRs1_n_nI5q0U?authuser=0&hl=en&rclk=1,"24.3227917,91.5284148"
Teliapara Jame Masjid,Mosque,"49J8+5QM Teliapara Jame Masjid, Madhabpur - Habiganj Hwy, Bangladesh",,"49J8+5QM, Madhabpur - Habiganj Hwy",,,,BD,https://www.google.com/maps/place/Teliapara+Jame+Masjid/data=!4m7!3m6!1s0x3753e2acb8700001:0xccda5020775f868e!8m2!3d24.1304654!4d91.366932!16s%2Fg%2F11sscsdzl6!19sChIJAQBwuKziUzcRjoZfdyBQ2sw?authuser=0&hl=en&rclk=1,"24.1304654,91.36693199999999"
Teghoria Shahjalal (R) Jame Mosque,Mosque,"9C6F+CFC Teghoria Shahjalal (R) Jame Mosque, Khowai Embankment, Habiganj, Bangladesh",,"9C6F+CFC, Khowai Embankment",Habiganj,,,BD,https://www.google.com/maps/place/Teghoria+Shahjalal+%28R%29+Jame+Mosque/data=!4m7!3m6!1s0x37514532e2300d5d:0xd3300c3d9307c53f!8m2!3d24.361056!4d91.423635!16s%2Fg%2F11rgdnc0gh!19sChIJXQ0w4jJFUTcRP8UHkz0MMNM?authuser=0&hl=en&rclk=1,"24.361055999999998,91.42363499999999"
Jama Masjid,Religious destination,"3HRW+C8 Jama Masjid, Tripura",,3HRW+C8,,,Tripura,IN,https://www.google.com/maps/place/Jama+Masjid/data=!4m7!3m6!1s0x3753dfe6c32e7a45:0x1bb56729fb8142db!8m2!3d24.0905172!4d91.5961816!16s%2Fg%2F11vcm0yqgf!19sChIJRXouw-bfUzcR20KB-ylntRs?authuser=0&hl=en&rclk=1,"24.090517199999997,91.5961816"
Kachua Jame Masjid,Mosque,"5GCR+8XW Kachua Jame Masjid, Ranirkut, Bangladesh",,5GCR+8XW,Ranirkut,,,BD,https://www.google.com/maps/place/Kachua+Jame+Masjid/data=!4m7!3m6!1s0x37516042d91aaaab:0x2175612213e237bc!8m2!3d24.1708724!4d91.5424654!16s%2Fg%2F11kj3f3l6y!19sChIJq6oa2UJgUTcRvDfiEyJhdSE?authuser=0&hl=en&rclk=1,"24.1708724,91.5424654"
Ladiya Jame Masjid,Mosque,"5H62+GX6 Ladiya Jame Masjid, Ranirkut, Bangladesh",,5H62+GX6,Ranirkut,,,BD,https://www.google.com/maps/place/Ladiya+Jame+Masjid/data=!4m7!3m6!1s0x37516049cabaaaab:0x6b5d38a307b530f7!8m2!3d24.1613!4d91.5523814!16s%2Fg%2F11kj3f8_pf!19sChIJq6q6yklgUTcR9zC1B6M4XWs?authuser=0&hl=en&rclk=1,"24.1613,91.5523814"
bdd'juss baajaar jaame msjid / Barjush Bazar Jame Masjid,Mosque,"5HXG+2RC bdd'juss baajaar jaame msjid / Barjush Bazar Jame Masjid, Barjush Bazar, Bangladesh",,"5HXG+2RC, Barjush Bazar",,,,BD,https://www.google.com/maps/place/%E0%A6%AC%E0%A6%A1%E0%A6%BC%E0%A6%9C%E0%A7%81%E0%A6%B7+%E0%A6%AC%E0%A6%BE%E0%A6%9C%E0%A6%BE%E0%A6%B0+%E0%A6%9C%E0%A6%BE%E0%A6%AE%E0%A7%87+%E0%A6%AE%E0%A6%B8%E0%A6%9C%E0%A6%BF%E0%A6%A6+%2F+Barjush+Bazar+Jame+Masjid/data=!4m7!3m6!1s0x3751617ba5330021:0x28eee9cb3942aa2a!8m2!3d24.1975579!4d91.5770236!16s%2Fg%2F11jzcyrjr8!19sChIJIQAzpXthUTcRKqpCOcvp7ig?authuser=0&hl=en&rclk=1,"24.1975579,91.57702359999999"
 Baitul Aman Masjid purba pacher gow ,Mosque,"6HQ5+84V  Baitul Aman Masjid purba pacher gow , Bangladesh",,6HQ5+84V,,,,BD,https://www.google.com/maps/place/%F0%9F%95%8C+Baitul+Aman+Masjid+purba+pacher+gow+%F0%9F%95%8C/data=!4m7!3m6!1s0x375167826043878f:0xeecee48b96f7fc6c!8m2!3d24.2383568!4d91.5578116!16s%2Fg%2F11v5bb2sm5!19sChIJj4dDYIJnUTcRbPz3lovkzu4?authuser=0&hl=en&rclk=1,"24.2383568,91.5578116"
Amo Bagan Jame Masjid,Mosque,"4G97+874 Amo Bagan Jame Masjid, Bangladesh",,4G97+874,,,,BD,https://www.google.com/maps/place/Amo+Bagan+Jame+Masjid/data=!4m7!3m6!1s0x3753e1138ad42085:0xb581e399fcc5884b!8m2!3d24.1182742!4d91.513193!16s%2Fg%2F11s92hd96_!19sChIJhSDUihPhUzcRS4jF_JnjgbU?authuser=0&hl=en&rclk=1,"24.1182742,91.513193"
"Abubaker Jam'e Masjid, Kachuadi",Mosque,"8G4F+92 Abubaker Jam'e Masjid, Kachuadi, Olipur, Bangladesh",,8G4F+92,Olipur,,,BD,"https://www.google.com/maps/place/Abubaker+Jam%27e+Masjid,+Kachuadi/data=!4m7!3m6!1s0x3751673b1e61e4ef:0xb72241489674efa1!8m2!3d24.3065445!4d91.5231145!16s%2Fg%2F11v5ytcqhq!19sChIJ7-RhHjtnUTcRoe90lkhBIrc?authuser=0&hl=en&rclk=1","24.306544499999998,91.52311449999999"
Nalua Tea Estate Jame Masjid,Mosque,"3GWG+JG7 Nalua Tea Estate Jame Masjid, Bangladesh",,3GWG+JG7,,,,BD,https://www.google.com/maps/place/Nalua+Tea+Estate+Jame+Masjid/data=!4m7!3m6!1s0x3753df8f5de32309:0xf89512af5548725b!8m2!3d24.0965251!4d91.5263105!16s%2Fg%2F11q2kdgknb!19sChIJCSPjXY_fUzcRW3JIVa8Slfg?authuser=0&hl=en&rclk=1,"24.096525099999997,91.5263105"
Garamchhari Jame Masjid,Mosque,"6J74+XH9 Garamchhari Jame Masjid, Garomchori, Mirashi, Chunarughat, Bangladesh",,"6J74+XH9, Garomchori, Mirashi, Chunarughat",,,,BD,https://www.google.com/maps/place/Garamchhari+Jame+Masjid/data=!4m7!3m6!1s0x375163e5bb16c19d:0xa6d0e0dd8bab54f8!8m2!3d24.2149086!4d91.6064809!16s%2Fg%2F11bbw_qf3z!19sChIJncEWu-VjUTcR-FSri93g0KY?authuser=0&hl=en&rclk=1,"24.214908599999998,91.6064809"
Abdaputiya Old Masjid,Mosque,"8G5F+WF4 Abdaputiya Old Masjid, Bangladesh",,8G5F+WF4,,,,BD,https://www.google.com/maps/place/Abdaputiya+Old+Masjid/data=!4m7!3m6!1s0x375167a9031cd611:0x19005b460c3997fd!8m2!3d24.3097644!4d91.5236919!16s%2Fg%2F11nx1m2jck!19sChIJEdYcA6lnUTcR_Zc5DEZbABk?authuser=0&hl=en&rclk=1,"24.3097644,91.5236919"
Khowai,,"Khowai, Tripura",,,,,Tripura,IN,https://www.google.com/maps/place/Khowai/data=!4m7!3m6!1s0x3753d921d2112545:0x1cbb71b20edbff13!8m2!3d24.0688601!4d91.6037825!16s%2Fg%2F11sppcs0cf!19sChIJRSUR0iHZUzcRE__bDrJxuxw?authuser=0&hl=en&rclk=1,"24.0688601,91.6037825"
Taqwa Masjid,Mosque,"6MV2+3FQ Taqwa Masjid, Gazipur-Birubasti Bus Stand, Sindurkhan UP, Bangladesh",,6MV2+3FQ Gazipur-Birubasti Bus Stand,Sindurkhan UP,,,BD,https://www.google.com/maps/place/Taqwa+Masjid/data=!4m7!3m6!1s0x37516514d789bfdf:0xedf10e8a24909ad9!8m2!3d24.2427152!4d91.6512281!16s%2Fg%2F11s0zctdvg!19sChIJ37-J1xRlUTcR2ZqQJIoO8e0?authuser=0&hl=en&rclk=1,"24.2427152,91.6512281"
Khandakar Bari Masjid,Mosque,"6G6M+V66 Khandakar Bari Masjid, Khandakar Bari Road, Bangladesh",,"6G6M+V66, Khandakar Bari Road",,,,BD,https://www.google.com/maps/place/Khandakar+Bari+Masjid/data=!4m7!3m6!1s0x3751617ded9bbb2f:0x63ab37e611ce0948!8m2!3d24.2121523!4d91.5330119!16s%2Fg%2F11hz0fckbh!19sChIJL7ub7X1hUTcRSAnOEeY3q2M?authuser=0&hl=en&rclk=1,"24.2121523,91.53301189999999"
khowai,Apartment building,"3JF4+PRP khowai, Khowai, Tripura 799202",,3JF4+PRP,Khowai,799202,Tripura,IN,https://www.google.com/maps/place/khowai/data=!4m7!3m6!1s0x3753d970cfe0b969:0x9a69706a8dc60040!8m2!3d24.0743375!4d91.6070781!16s%2Fg%2F11kqr3n08q!19sChIJabngz3DZUzcRQADGjWpwaZo?authuser=0&hl=en&rclk=1,"24.0743375,91.6070781"
Khowai,Apartment building,"3J85+Q2X Khowai, office tilla, Road, Khowai, Tripura 799202","office tilla, Road",3J85+Q2X,Khowai,799202,Tripura,IN,https://www.google.com/maps/place/Khowai/data=!4m7!3m6!1s0x3753d9fae0910ea7:0x6cebbd3b13319ead!8m2!3d24.066964!4d91.6076108!16s%2Fg%2F11s92rbb2j!19sChIJpw6R4PrZUzcRrZ4xEzu962w?authuser=0&hl=en&rclk=1,"24.066964,91.60761079999999"
jaame msjid (haajii baadd'i),Mosque,"jaame msjid (haajii baadd'i), Bahubal 3301, Bangladesh",,,Bahubal,3301,,BD,https://www.google.com/maps/place/%E0%A6%9C%E0%A6%BE%E0%A6%AE%E0%A7%87+%E0%A6%AE%E0%A6%B8%E0%A6%9C%E0%A6%BF%E0%A6%A6+%28%E0%A6%B9%E0%A6%BE%E0%A6%9C%E0%A7%80+%E0%A6%AC%E0%A6%BE%E0%A6%A1%E0%A6%BC%E0%A6%BF%29/data=!4m7!3m6!1s0x37516739d9bcc703:0x338f506594aa113e!8m2!3d24.3085437!4d91.5218599!16s%2Fg%2F11pys3nx35!19sChIJA8e82TlnUTcRPhGqlGVQjzM?authuser=0&hl=en&rclk=1,"24.308543699999998,91.5218599"
Kalichung Jame Masjid,Religious organization,"Kalichung Jame Masjid, Kalichung jame Masjid, Kachua Bazar Rd, Bangladesh",,"Kalichung jame Masjid, Kachua Bazar Rd",,,,BD,https://www.google.com/maps/place/Kalichung+Jame+Masjid/data=!4m7!3m6!1s0x375161ac41fc6957:0x7329c9c8a4d24d67!8m2!3d24.1707404!4d91.5417463!16s%2Fg%2F11gy1v94s9!19sChIJV2n8QaxhUTcRZ03SpMjJKXM?authuser=0&hl=en&rclk=1,"24.1707404,91.5417463"
Panjegana mosjid,Mosque,"Panjegana mosjid, 3310 Faysal Rd, Bangladesh",,3310 Faysal Rd,,,,BD,https://www.google.com/maps/place/Panjegana+mosjid/data=!4m7!3m6!1s0x3751674d1c4c5821:0xe8c0ed707a96c89d!8m2!3d24.3231614!4d91.5245468!16s%2Fg%2F11q22nvy_8!19sChIJIVhMHE1nUTcRnciWenDtwOg?authuser=0&hl=en&rclk=1,"24.3231614,91.5245468"
Khowai,,"Khowai, Tripura",,,Khowai,,Tripura,IN,https://www.google.com/maps/place/Khowai/data=!4m7!3m6!1s0x3753d92fc1be46c1:0xa65c2f9c1c5aa090!8m2!3d24.0671796!4d91.6056718!16zL20vMGJfaGho!19sChIJwUa-wS_ZUzcRkKBaHJwvXKY?authuser=0&hl=en&rclk=1,"24.0671796,91.6056718"
