name,main_category,address,address_ward,address_street,address_city,address_postal_code,address_state,address_country_code,link,coordinates
Noraani Masjid Aland,Mosque,"HH97+9GV Noraani Masjid Aland, moholla, Noorani Mohalla, Manolli, Karnataka",Noorani Mohalla,"HH97+9GV, moholla","Manolli, Aland",,Karnataka,IN,https://www.google.com/maps/place/Noraani+Masjid+Aland/data=!4m7!3m6!1s0x3bc8acbb9bbeb193:0xd35f6460278372c!8m2!3d17.5684797!4d76.5637817!16s%2Fg%2F11b825h2ml!19sChIJk7G-m7usyDsRLDd4Akb2NQ0?authuser=0&hl=en&rclk=1,"17.568479699999997,76.56378169999999"
Ladlemashak Darga,Mosque,"HH55+GR Ladlemashak Darga, Aland, Karnataka 585302",,HH55+GR,Aland,,Karnataka,IN,https://www.google.com/maps/place/Ladlemashak+Darga/data=!4m7!3m6!1s0x3bc8ad34b0e38631:0x66b879b25f58a!8m2!3d17.5587873!4d76.559565!16s%2Fg%2F11ptpg9ntf!19sChIJMYbjsDStyDsRivUlm4drBgA?authuser=0&hl=en&rclk=1,"17.5587873,76.55956499999999"
Jamia Masjid,Mosque,"HH69+PC4 Jamia Masjid, Aland, Karnataka 585302",,HH69+PC4,Aland,585302,Karnataka,IN,https://www.google.com/maps/place/Jamia+Masjid/data=!4m7!3m6!1s0x3bc8ac9586ef4f23:0x72674ea0ff8f4ef4!8m2!3d17.561768!4d76.5685755!16s%2Fg%2F12hz1zyy3!19sChIJI0_vhpWsyDsR9E6P_6BOZ3I?authuser=0&hl=en&rclk=1,"17.561768,76.5685755"
Didi Masjid,Mosque,"HH88+FH2 Didi Masjid, Aland, Karnataka 585302",,HH88+FH2,Aland,585302,Karnataka,IN,https://www.google.com/maps/place/Didi+Masjid/data=!4m7!3m6!1s0x3bc8acbe9f707587:0xbd746a09a9c9e206!8m2!3d17.5661485!4d76.5663815!16s%2Fg%2F12hnrff1n!19sChIJh3Vwn76syDsRBuLJqQlqdL0?authuser=0&hl=en&rclk=1,"17.5661485,76.56638149999999"
Ali Farhaad Khan Masjid (Kali Masjid),Mosque,"HH45+PC2 Ali Farhaad Khan Masjid (Kali Masjid), New Makhdoompura, SH 34, behind dargah, Aland, Karnataka 585302",,"HH45+PC2, New Makhdoompura, SH 34, behind dargah",Aland,585302,Karnataka,IN,https://www.google.com/maps/place/Ali+Farhaad+Khan+Masjid+%28Kali+Masjid%29/data=!4m7!3m6!1s0x3bc8ac9996894155:0x98f9609304c68e67!8m2!3d17.5567613!4d76.5585132!16s%2Fg%2F11gbk1c168!19sChIJVUGJlpmsyDsRZ47GBJNg-Zg?authuser=0&hl=en&rclk=1,"17.556761299999998,76.5585132"
Jama Masjid Aland,Mosque,"5HW2+G7F Jama Masjid Aland, Aland, Maharashtra 431151",Aland,5HW2+G7F,,431151,Maharashtra,IN,https://www.google.com/maps/place/Jama+Masjid+Aland/data=!4m7!3m6!1s0x3bdbc8b61f213cf5:0x4f44704252d36d2!8m2!3d20.1963039!4d75.5506691!16s%2Fg%2F11bzt9j743!19sChIJ9TwhH7bI2zsR0jYtJQRH9AQ?authuser=0&hl=en&rclk=1,"20.1963039,75.5506691"
Siddiqui Masjid,Mosque,"HH89+QCG Siddiqui Masjid, SH 32, Aland, Karnataka 585302",,"HH89+QCG, SH 32",Aland,585302,Karnataka,IN,https://www.google.com/maps/place/Siddiqui+Masjid/data=!4m7!3m6!1s0x3bc8acbed31c15e5:0x8c65bfe1d7bad2d9!8m2!3d17.566945!4d76.5685862!16s%2Fg%2F11cjh_zqm0!19sChIJ5RUc076syDsR2dK61-G_ZYw?authuser=0&hl=en&rclk=1,"17.566945,76.5685862"
Badi Masjid,Mosque,"HH88+MVJ Badi Masjid, Aland, Karnataka 585302",,HH88+MVJ,Aland,585302,Karnataka,IN,https://www.google.com/maps/place/Badi+Masjid/data=!4m7!3m6!1s0x3bc8acbebbbff307:0x310fa31a6c2117dc!8m2!3d17.5667046!4d76.5671536!16s%2Fg%2F11c7hdtp5k!19sChIJB_O_u76syDsR3BchbBqjDzE?authuser=0&hl=en&rclk=1,"17.566704599999998,76.5671536"
Gadi Masjid,Mosque,"HH79+26W Gadi Masjid, Sri Ram Market Rd, Sri Ram Market, Aland, Karnataka 585302",Sri Ram Market,"HH79+26W, Sri Ram Market Rd",Aland,585302,Karnataka,IN,https://www.google.com/maps/place/Gadi+Masjid/data=!4m7!3m6!1s0x3bc8acbe0e9e63bf:0xec5efa65fc42aebf!8m2!3d17.5626052!4d76.5680719!16s%2Fg%2F11b8064248!19sChIJv2OeDr6syDsRv65C_GX6Xuw?authuser=0&hl=en&rclk=1,"17.5626052,76.56807189999999"
Aqsa Jamia Masjid,Mosque,"GHV7+8VG Aqsa Jamia Masjid, Aland, Karnataka 585302",,GHV7+8VG,Aland,585302,Karnataka,IN,https://www.google.com/maps/place/Aqsa+Jamia+Masjid/data=!4m7!3m6!1s0x3bc8ac8938a8f69f:0x2a1e9e794742d3e!8m2!3d17.5433!4d76.5647051!16s%2Fg%2F11c72v3fnd!19sChIJn_aoOImsyDsRPi10lOfpoQI?authuser=0&hl=en&rclk=1,"17.5433,76.5647051"
Khazi Street & Darga Panch peer,Mosque,"HH69+GPQ Khazi Street & Darga Panch peer, khazi galli, Aland, Karnataka 585302",,"HH69+GPQ, khazi galli",Aland,585302,Karnataka,IN,https://www.google.com/maps/place/Khazi+Street+%26+Darga+Panch+peer/data=!4m7!3m6!1s0x3bc8ac9579ae3edf:0x1f4bc189fa365161!8m2!3d17.5613375!4d76.5693749!16s%2Fg%2F11c30qpzvv!19sChIJ3z6ueZWsyDsRYVE2-onBSx8?authuser=0&hl=en&rclk=1,"17.5613375,76.5693749"
Qayampura Masjid,Mosque,"HH78+RGX Qayampura Masjid, Aland, Karnataka 585302",,HH78+RGX,Aland,585302,Karnataka,IN,https://www.google.com/maps/place/Qayampura+Masjid/data=!4m7!3m6!1s0x3bc8acbe7e4cb925:0x7fce47e0e3e9f621!8m2!3d17.5646247!4d76.5663469!16s%2Fg%2F11c72n20sk!19sChIJJblMfr6syDsRIfbp4-BHzn8?authuser=0&hl=en&rclk=1,"17.5646247,76.5663469"
Masjid-e-Shahana,Mosque,"HH65+PM2 Masjid-e-Shahana, Station Rd, Aland, Karnataka 585302",,"HH65+PM2, Station Rd",Aland,585302,Karnataka,IN,https://www.google.com/maps/place/Masjid-e-Shahana/data=!4m7!3m6!1s0x3bc8aca2a3d26411:0x854eebf31b4eb55b!8m2!3d17.5617527!4d76.5591314!16s%2Fg%2F1hc457tz2!19sChIJEWTSo6KsyDsRW7VOG_PrToU?authuser=0&hl=en&rclk=1,"17.5617527,76.5591314"
Jahangir Shah Masjid,Mosque,"HH68+9GF Jahangir Shah Masjid, Aland, Karnataka 585302",,HH68+9GF,Aland,585302,Karnataka,IN,https://www.google.com/maps/place/Jahangir+Shah+Masjid/data=!4m7!3m6!1s0x3bc8ac95e31e21a3:0x2e3db040e2d3d4e!8m2!3d17.5609428!4d76.5663045!16s%2Fg%2F1tfq7pc1!19sChIJoyEe45WsyDsRTj0tDgTb4wI?authuser=0&hl=en&rclk=1,"17.5609428,76.5663045"
Ladlepura Masjid,Mosque,"HH57+WP6 Ladlepura Masjid, SH 34, Aland, Karnataka 585302",,"HH57+WP6, SH 34",Aland,585302,Karnataka,IN,https://www.google.com/maps/place/Ladlepura+Masjid/data=!4m7!3m6!1s0x3bc8ac96446b06cd:0xc457daf9710fe0c6!8m2!3d17.5597913!4d76.5642786!16s%2Fg%2F11b75hyvwv!19sChIJzQZrRJasyDsRxuAPcfnaV8Q?authuser=0&hl=en&rclk=1,"17.5597913,76.5642786"
Mutawalli Masjid,Mosque,"HH78+879 Mutawalli Masjid, Aland, Karnataka 585302",,HH78+879,Aland,585302,Karnataka,IN,https://www.google.com/maps/place/Mutawalli+Masjid/data=!4m7!3m6!1s0x3bc8acbdddf29ca1:0x4a437322b4908748!8m2!3d17.5632896!4d76.5657346!16s%2Fg%2F11g6_53447!19sChIJoZzy3b2syDsRSIeQtCJzQ0o?authuser=0&hl=en&rclk=1,"17.5632896,76.5657346"
Quraish Masjid,Mosque,"HH68+96R Quraish Masjid, Aland, Karnataka 585302",,HH68+96R,Aland,585302,Karnataka,IN,https://www.google.com/maps/place/Quraish+Masjid/data=!4m7!3m6!1s0x3bc8ac960f974c1f:0x180c1521c5a3ab6f!8m2!3d17.560999!4d76.5655032!16s%2Fg%2F1tplns1y!19sChIJH0yXD5asyDsRb6ujxSEVDBg?authuser=0&hl=en&rclk=1,"17.560999,76.5655032"
al-hussaini masjid,Mosque,"HH68+V84 al-hussaini masjid, Aland, Karnataka 585302",,HH68+V84,Aland,585302,Karnataka,IN,https://www.google.com/maps/place/al-hussaini+masjid/data=!4m7!3m6!1s0x3bc8adbb1151c95f:0x15d72f9396a9e418!8m2!3d17.5621283!4d76.5658179!16s%2Fg%2F11g4f5mwj8!19sChIJX8lREbutyDsRGOSplpMv1xU?authuser=0&hl=en&rclk=1,"17.562128299999998,76.5658179"
Masjid e Abubakar Siddiq,Mosque,"HH87+2C7 Masjid e Abubakar Siddiq, Unnamed Road, Aland, Karnataka 585302",,"HH87+2C7, Unnamed Road",Aland,585302,Karnataka,IN,https://www.google.com/maps/place/Masjid+e+Abubakar+Siddiq/data=!4m7!3m6!1s0x3bc8acbc56c231cd:0x92650eee5f6ba73!8m2!3d17.5650291!4d76.5635527!16s%2Fg%2F11hbv52ndt!19sChIJzTHCVrysyDsRc7r25e5QJgk?authuser=0&hl=en&rclk=1,"17.5650291,76.5635527"
Masjid e Ansariya,Mosque,"HH58+XHV Masjid e Ansariya, Aland, Karnataka 585302",,HH58+XHV,Aland,585302,Karnataka,IN,https://www.google.com/maps/place/Masjid+e+Ansariya/data=!4m7!3m6!1s0x3bc8ac95d938baf7:0x5d9a86f0b480d6a4!8m2!3d17.5599754!4d76.5664297!16s%2Fg%2F1tdy2y9_!19sChIJ97o42ZWsyDsRpNaAtPCGml0?authuser=0&hl=en&rclk=1,"17.5599754,76.5664297"
Mahommad ail Masjid,Mosque,"HH64+672 Mahommad ail Masjid, Aland, Karnataka 585302",,HH64+672,Aland,585302,Karnataka,IN,https://www.google.com/maps/place/Mahommad+ail+Masjid/data=!4m7!3m6!1s0x3bc8adbf2a6deef7:0x371c7d9a11086562!8m2!3d17.5605064!4d76.5556503!16s%2Fg%2F11kprmhbcw!19sChIJ9-5tKr-tyDsRYmUIEZp9HDc?authuser=0&hl=en&rclk=1,"17.560506399999998,76.5556503"
Gaibisaab Dargah Masque Aqsa Masjid,Mosque,"HH98+2FQ Gaibisaab Dargah Masque Aqsa Masjid, Bangarga, Aland, Karnataka 585302",Bangarga,HH98+2FQ,Aland,,Karnataka,IN,https://www.google.com/maps/place/Gaibisaab+Dargah+Masque+Aqsa+Masjid/data=!4m7!3m6!1s0x3bc8adf7dca05ec7:0xc51cc686ad12c93e!8m2!3d17.5675984!4d76.5662461!16s%2Fg%2F11s5mnj1_h!19sChIJx16g3PetyDsRPskSrYbGHMU?authuser=0&hl=en&rclk=1,"17.567598399999998,76.5662461"
Mulla Masjid Aland,Mosque,"7JHX+P2J Mulla Masjid Aland, Aland, Maharashtra 431537",,7JHX+P2J,Aland,431537,Maharashtra,IN,https://www.google.com/maps/place/Mulla+Masjid+Aland/data=!4m7!3m6!1s0x3bd01157f9a2839b:0x57febcad364c7ddc!8m2!3d19.2793411!4d76.6475015!16s%2Fg%2F11q2s4rp5n!19sChIJm4Oi-VcR0DsR3H1MNq28_lc?authuser=0&hl=en&rclk=1,"19.2793411,76.64750149999999"
HAZRATH KALESHAH BABA,Mosque,"HAZRATH KALESHAH BABA, Aland, Karnataka 585302",,,Aland,585302,Karnataka,IN,https://www.google.com/maps/place/HAZRATH+KALESHAH+BABA/data=!4m7!3m6!1s0x3bc8ad448eddc24b:0x431aa4cc6854fc6c!8m2!3d17.5618715!4d76.5703732!16s%2Fg%2F11pby71d0x!19sChIJS8LdjkStyDsRbPxUaMykGkM?authuser=0&hl=en&rclk=1,"17.5618715,76.57037319999999"
Hazrat Shaikh maqdum Alauddin ansari urf Ladle mashaik Ansari rahmutullah ala,Mosque,"HH98+2FQ Hazrat Shaikh maqdum Alauddin ansari urf Ladle mashaik Ansari rahmutullah ala, Aland, Karnataka 585302",,HH98+2FQ,Aland,585302,Karnataka,IN,https://www.google.com/maps/place/Hazrat+Shaikh+maqdum+Alauddin+ansari+urf+Ladle+mashaik+Ansari+rahmutullah+ala/data=!4m7!3m6!1s0x3bc8ad7a67b8fd8b:0xeb234ee5b6db9ce9!8m2!3d17.5675984!4d76.5662461!16s%2Fg%2F11t7sy1d0z!19sChIJi_24Z3qtyDsR6ZzbtuVOI-s?authuser=0&hl=en&rclk=1,"17.567598399999998,76.5662461"
