name,main_category,address,address_ward,address_street,address_city,address_postal_code,address_state,address_country_code,link,coordinates
"Masjid-e-Taj, Gajulpet",Mosque,"484M+GW7 Masjid-e-Taj, Gajulpet, Gajulpet, Telangana 504106",,484M+GW7,Gajulpet,504106,Telangana,IN,"https://www.google.com/maps/place/Masjid-e-Taj,+Gajulpet/data=!4m7!3m6!1s0x3bcd8b7ecb94f33f:0xa1733fcc34181556!8m2!3d19.1062844!4d78.3347824!16s%2Fg%2F1yg4v7gr2!19sChIJP_OUy36LzTsRVhUYNMw_c6E?authuser=0&hl=en&rclk=1","19.1062844,78.3347824"
Masjid E Shaikh Sahab Pet,Mosque,"Masjid E Shaikh Sahab Pet, Shaikh Sahab Pet, Teachers Colony, Besthawar Pet, Brahmapuri, Nirmal, Telangana 504106","Teachers Colony, Besthawar Pet, Brahmapuri",Shaikh Sahab Pet,Nirmal,504106,Telangana,IN,https://www.google.com/maps/place/Masjid+E+Shaikh+Sahab+Pet/data=!4m7!3m6!1s0x3bcd8b87fcfc70f9:0x89094e6bd421c225!8m2!3d19.1025254!4d78.3497556!16s%2Fg%2F1vc6bvmr!19sChIJ-XD8_IeLzTsRJcIh1GtOCYk?authuser=0&hl=en&rclk=1,"19.102525399999998,78.3497556"
Jama Masjid,Mosque,"MGGQ+F5Q Jama Masjid, Jama Masjid Rd, Mahalaxmiwada, Adilabad, Telangana 504001",Mahalaxmiwada,"MGGQ+F5Q, Jama Masjid Rd",Adilabad,504001,Telangana,IN,https://www.google.com/maps/place/Jama+Masjid/data=!4m7!3m6!1s0x3bd25c75f87e8a01:0x25a95ee1fbab37d0!8m2!3d19.6762137!4d78.5379985!16s%2Fg%2F1tlqnfwv!19sChIJAYp--HVc0jsR0Der--FeqSU?authuser=0&hl=en&rclk=1,"19.676213699999998,78.5379985"
Gulzaar Masjid,Mosque,"MGCR+66Q Gulzaar Masjid, Bokkalguda St, Brahmanwadi, Adilabad, Telangana 504001",Brahmanwadi,"MGCR+66Q, Bokkalguda St",Adilabad,504001,Telangana,IN,https://www.google.com/maps/place/Gulzaar+Masjid/data=!4m7!3m6!1s0x3bd25c7477d00337:0x3dc61fe7489f62b1!8m2!3d19.6704596!4d78.5395986!16s%2Fg%2F1tcz6sjz!19sChIJNwPQd3Rc0jsRsWKfSOcfxj0?authuser=0&hl=en&rclk=1,"19.670459599999997,78.53959859999999"
Gulzar Masjid Nirmal,Mosque,"Gulzar Masjid Nirmal, Masjid-e-Gulzar, Post Office Rd, Balajiwada, Pinjari Gutta, Nirmal, Telangana 504106","Balajiwada, Pinjari Gutta","Masjid-e-Gulzar, Post Office Rd",Nirmal,504106,Telangana,IN,https://www.google.com/maps/place/Gulzar+Masjid+Nirmal/data=!4m7!3m6!1s0x3bcd8c78647f2d69:0x2baca699c5ac6b20!8m2!3d19.1007782!4d78.3476027!16s%2Fg%2F11cn93xd9y!19sChIJaS1_ZHiMzTsRIGusxZmmrCs?authuser=0&hl=en&rclk=1,"19.1007782,78.3476027"
Jama Masjid,Mosque,"482V+69G Jama Masjid, Gandhi Nagar Colony, Nirmal, Telangana 504106",Gandhi Nagar Colony,482V+69G,Nirmal,504106,Telangana,IN,https://www.google.com/maps/place/Jama+Masjid/data=!4m7!3m6!1s0x3bcd8c7f5b318beb:0xb8ae867a173de72b!8m2!3d19.1005579!4d78.343457!16s%2Fg%2F11dz19vt9b!19sChIJ64sxW3-MzTsRK-c9F3qGrrg?authuser=0&hl=en&rclk=1,"19.1005579,78.343457"
Masjid E Mahboobia,Mosque,"38RV+23Q Masjid E Mahboobia, Madina colony, Eidgoan, Nirmal, Telangana 504106",Eidgoan,"38RV+23Q, Madina colony",Nirmal,504106,Telangana,IN,https://www.google.com/maps/place/Masjid+E+Mahboobia/data=!4m7!3m6!1s0x3bcd8c7cc72f32ad:0xc87a1e0f04aa3a5d!8m2!3d19.0900799!4d78.3427318!16s%2Fg%2F11b6njqqlh!19sChIJrTIvx3yMzTsRXTqqBA8eesg?authuser=0&hl=en&rclk=1,"19.0900799,78.3427318"
Masjid-E-Taneem,Mosque,"MG8P+GJ2 Masjid-E-Taneem, Shanti Nagar, Adilabad, Telangana 504001",Shanti Nagar,MG8P+GJ2,Adilabad,504001,Telangana,IN,https://www.google.com/maps/place/Masjid-E-Taneem/data=!4m7!3m6!1s0x3bd25c7196951817:0xe1695f659d337d7!8m2!3d19.6662707!4d78.5365283!16s%2Fg%2F11c52zx1f3!19sChIJFxiVlnFc0jsR1zfTWfaVFg4?authuser=0&hl=en&rclk=1,"19.6662707,78.5365283"
Masjid E Chand Sultana,Mosque,"Masjid E Chand Sultana, 504106, Vidyanagar, Adharsha Nagar, Nirmal, Telangana 504106","Vidyanagar, Adharsha Nagar",504106,Nirmal,504106,Telangana,IN,https://www.google.com/maps/place/Masjid+E+Chand+Sultana/data=!4m7!3m6!1s0x3bcd8c644575ee19:0x37cd15e32a13fd32!8m2!3d19.0859119!4d78.3464606!16s%2Fg%2F11fzb16hxz!19sChIJGe51RWSMzTsRMv0TKuMVzTc?authuser=0&hl=en&rclk=1,"19.0859119,78.3464606"
Masjid e Noor Khursheed Nagar,Mosque,"Masjid e Noor Khursheed Nagar, khursheed Nagar, Adilabad, Telangana 504001",khursheed Nagar,,Adilabad,,Telangana,IN,https://www.google.com/maps/place/Masjid+e+Noor+Khursheed+Nagar/data=!4m7!3m6!1s0x3bd25b7f77891187:0xd64d9d2522c68201!8m2!3d19.6780656!4d78.5199255!16s%2Fg%2F1pp2x6dd1!19sChIJhxGJd39b0jsRAYLGIiWdTdY?authuser=0&hl=en&rclk=1,"19.6780656,78.5199255"
Mohammadia Masjid,Mosque,"MGFH+M8P Mohammadia Masjid, NH 44, Vidya Nagar, Adilabad, Telangana 504001",Vidya Nagar,"MGFH+M8P, NH 44",Adilabad,504001,Telangana,IN,https://www.google.com/maps/place/Mohammadia+Masjid/data=!4m7!3m6!1s0x3bd25c7892a2eb3b:0x89c3b0daf8ff360!8m2!3d19.6742243!4d78.5283275!16s%2Fg%2F1tjz1t_5!19sChIJO-uiknhc0jsRYPOPrw07nAg?authuser=0&hl=en&rclk=1,"19.6742243,78.5283275"
Mohammadia Masjid,Mosque,"38JR+55J Mohammadia Masjid, Adharsha Nagar, Nirmal, Telangana 504106",Adharsha Nagar,38JR+55J,Nirmal,504106,Telangana,IN,https://www.google.com/maps/place/Mohammadia+Masjid/data=!4m7!3m6!1s0x3bcd8c604b0a54d3:0x67084e8473077f46!8m2!3d19.0804551!4d78.340404!16s%2Fg%2F11bzq338xz!19sChIJ01QKS2CMzTsRRn8Hc4ROCGc?authuser=0&hl=en&rclk=1,"19.0804551,78.34040399999999"
Masjid E Bilal Haq,Mosque,"483M+C39 Masjid E Bilal Haq, Nirmal, Gajulpet, Telangana 504106",,"483M+C39, Nirmal",Gajulpet,504106,Telangana,IN,https://www.google.com/maps/place/Masjid+E+Bilal+Haq/data=!4m7!3m6!1s0x3bcd8b7c2b493a63:0xf421e956b0a01151!8m2!3d19.1035383!4d78.3327297!16s%2Fg%2F11dftfsfpm!19sChIJYzpJK3yLzTsRURGgsFbpIfQ?authuser=0&hl=en&rclk=1,"19.1035383,78.3327297"
Masjid_E_Quba,Mosque,"Masjid_E_Quba, 2-5-216, beside Masjid E Quba Khila, Mohalla Badh, Adilabad, Telangana 504001",Mohalla Badh,"2-5-216, beside Masjid E Quba Khila",Adilabad,504001,Telangana,IN,https://www.google.com/maps/place/Masjid_E_Quba/data=!4m7!3m6!1s0x3bd25bedeaaaaaab:0xe29f9a411d92289b!8m2!3d19.6793188!4d78.5406475!16s%2Fg%2F11bwkvtnj8!19sChIJq6qq6u1b0jsRmyiSHUGan-I?authuser=0&hl=en&rclk=1,"19.6793188,78.54064749999999"
Masjid-e-Meraj,Mosque,"Masjid-e-Meraj, Police lane, Sanjay Nagar, Adilabad, Bhattisavargaon, Telangana 504001",Sanjay Nagar,Police lane,"Adilabad, Bhattisavargaon",504001,Telangana,IN,https://www.google.com/maps/place/Masjid-e-Meraj/data=!4m7!3m6!1s0x3bd25c80a40634d7:0x99b706696d47a613!8m2!3d19.6674917!4d78.5163997!16s%2Fg%2F1tr7b846!19sChIJ1zQGpIBc0jsRE6ZHbWkGt5k?authuser=0&hl=en&rclk=1,"19.6674917,78.5163997"
Masjid E Abubaker,Mosque,"MG8V+54F Masjid E Abubaker, Shanti Nagar, Adilabad, Telangana 504001",Shanti Nagar,MG8V+54F,Adilabad,504001,Telangana,IN,https://www.google.com/maps/place/Masjid+E+Abubaker/data=!4m7!3m6!1s0x3bd25c72afd994d1:0x55e84f035f33b282!8m2!3d19.6654385!4d78.542794!16s%2Fg%2F11c1wsmygw!19sChIJ0ZTZr3Jc0jsRgrIzXwNP6FU?authuser=0&hl=en&rclk=1,"19.6654385,78.542794"
Madina Masjid mdynh msjd,Mosque,"MGCJ+GX8 Madina Masjid mdynh msjd, Netaji Chowk Rd, Ponnar, Bhuktapur, Telangana 504001",Ponnar,"MGCJ+GX8, Netaji Chowk Rd",Bhuktapur,504001,Telangana,IN,https://www.google.com/maps/place/Madina+Masjid+%D9%85%D8%AF%DB%8C%D9%86%DB%81+%D9%85%D8%B3%D8%AC%D8%AF%E2%80%AD/data=!4m7!3m6!1s0x3bd25c7742dd0b05:0xf2fb259a889bfa78!8m2!3d19.6712846!4d78.5324561!16s%2Fg%2F11fzzxxq7l!19sChIJBQvdQndc0jsRePqbiJol-_I?authuser=0&hl=en&rclk=1,"19.6712846,78.53245609999999"
Masjid E Tawheed Ahle Hadees,Mosque,"MG9R+3FF Masjid E Tawheed Ahle Hadees, Bokkalguda St, Opp. Sanober Urdu School, Shanti Nagar, Adilabad, Telangana 504001",Shanti Nagar,"MG9R+3FF, Bokkalguda St, Opp. Sanober Urdu School",Adilabad,504001,Telangana,IN,https://www.google.com/maps/place/Masjid+E+Tawheed+Ahle+Hadees/data=!4m7!3m6!1s0x3bd25c72fd255f2d:0x9b9a25549484aac6!8m2!3d19.6676945!4d78.5411635!16s%2Fg%2F11b6wlm0t4!19sChIJLV8l_XJc0jsRxqqElFQlmps?authuser=0&hl=en&rclk=1,"19.6676945,78.5411635"
Kambalposh Masjid,Mosque,"483X+3J9 Kambalposh Masjid, near Islampura, Teachers Colony, Besthawar Pet, Brahmapuri, Nirmal, Telangana 504106","Teachers Colony, Besthawar Pet, Brahmapuri","483X+3J9, near Islampura",Nirmal,504106,Telangana,IN,https://www.google.com/maps/place/Kambalposh+Masjid/data=!4m7!3m6!1s0x3bcd8b87c21236b1:0xa29a076725ba96c7!8m2!3d19.1026649!4d78.3491077!16s%2Fg%2F1tfr8n87!19sChIJsTYSwoeLzTsRx5a6JWcHmqI?authuser=0&hl=en&rclk=1,"19.1026649,78.34910769999999"
Masjid-e- Iqbal Unnisa AHLE SUNNATUL JAMAT,Mosque,"38XP+FC7 Masjid-e- Iqbal Unnisa AHLE SUNNATUL JAMAT, Priyadarshini Nagar, Nirmal, Telangana 504106",Priyadarshini Nagar,38XP+FC7,Nirmal,504106,Telangana,IN,https://www.google.com/maps/place/Masjid-e-+Iqbal+Unnisa+AHLE+SUNNATUL+JAMAT/data=!4m7!3m6!1s0x3bcd8c804d6de91f:0x214df4f286e1b21b!8m2!3d19.0986635!4d78.336057!16s%2Fg%2F11bv38dnzs!19sChIJH-ltTYCMzTsRG7LhhvL0TSE?authuser=0&hl=en&rclk=1,"19.0986635,78.336057"
Masjid e Taqwa Ahle Hadees,Mosque,"Masjid e Taqwa Ahle Hadees, masjid e taqwa ahle hadees nirmal, Chinthakunta Wada, Nirmal, Telangana 504106",Chinthakunta Wada,masjid e taqwa ahle hadees nirmal,Nirmal,504106,Telangana,IN,https://www.google.com/maps/place/Masjid+e+Taqwa+Ahle+Hadees/data=!4m7!3m6!1s0x3bcd8c7f22186eef:0x6626c5f9da825cae!8m2!3d19.0985389!4d78.3436692!16s%2Fg%2F11f3_s861n!19sChIJ724YIn-MzTsRrlyC2vnFJmY?authuser=0&hl=en&rclk=1,"19.098538899999998,78.3436692"
Masjid e Khair Unnisa,Mosque,"38MV+W9G Masjid e Khair Unnisa, Eidgoam, Nirmal, Telangana 504106",Eidgoam,38MV+W9G,Nirmal,504106,Telangana,IN,https://www.google.com/maps/place/Masjid+e+Khair+Unnisa/data=!4m7!3m6!1s0x3bcd8c63ec272937:0x3c3ca7aa8f837a71!8m2!3d19.0848121!4d78.3434432!16s%2Fg%2F11bxf29qv6!19sChIJNykn7GOMzTsRcXqDj6qnPDw?authuser=0&hl=en&rclk=1,"19.0848121,78.3434432"
MASJID-E-Bilal,Mosque,"MGHQ+H25 MASJID-E-Bilal, Adilabad - Nagpur Rd, Panjesha, Adilabad, Telangana 504001",Panjesha,"MGHQ+H25, Adilabad - Nagpur Rd",Adilabad,504001,Telangana,IN,https://www.google.com/maps/place/MASJID-E-Bilal/data=!4m7!3m6!1s0x3bd25b89846e6659:0x31ee36077b20474f!8m2!3d19.6788851!4d78.5375982!16s%2Fg%2F11gclzc6pn!19sChIJWWZuhIlb0jsRT0cgewc27jE?authuser=0&hl=en&rclk=1,"19.6788851,78.53759819999999"
Masjid-e-Arfath,Mosque,"485P+MVR Masjid-e-Arfath, Gajulpet, Telangana 504106",,485P+MVR,Gajulpet,504106,Telangana,IN,https://www.google.com/maps/place/Masjid-e-Arfath/data=!4m7!3m6!1s0x3bcd8b78f38929b7:0xf1f6598f1f63e972!8m2!3d19.1092323!4d78.3371349!16s%2Fg%2F11g6xq1bxz!19sChIJtymJ83iLzTsRculjH49Z9vE?authuser=0&hl=en&rclk=1,"19.1092323,78.3371349"
Masjid E Hassan,Mosque,"MG8V+QPM Masjid E Hassan, Unnamed Road, Shanti Nagar, Adilabad, Telangana 504001",Shanti Nagar,"MG8V+QPM, Unnamed Road",Adilabad,504001,Telangana,IN,https://www.google.com/maps/place/Masjid+E+Hassan/data=!4m7!3m6!1s0x3bd25c0d29000079:0xa0cc092090b96993!8m2!3d19.6669651!4d78.5443022!16s%2Fg%2F11dfk_8lt4!19sChIJeQAAKQ1c0jsRk2m5kCAJzKA?authuser=0&hl=en&rclk=1,"19.6669651,78.54430219999999"
MASJID-E-QUBA,Mosque,"38RR+PH2 MASJID-E-QUBA, Sarad Mahel, AN Reddy Colony, Ibrahim Bagh, Nirmal, Telangana 504106","AN Reddy Colony, Ibrahim Bagh","38RR+PH2, Sarad Mahel",Nirmal,504106,Telangana,IN,https://www.google.com/maps/place/MASJID-E-QUBA/data=!4m7!3m6!1s0x3bcd8c7d02e4632f:0x2fdcde6ba3e79613!8m2!3d19.0917623!4d78.341401!16s%2Fg%2F11h9rsxsx8!19sChIJL2PkAn2MzTsRE5bno2ve3C8?authuser=0&hl=en&rclk=1,"19.0917623,78.34140099999999"
MADEENA MASJID ECHODA,Mosque,"CFG3+256 MADEENA MASJID ECHODA, Ichoda, Telangana 504307",,CFG3+256,Ichoda,504307,Telangana,IN,https://www.google.com/maps/place/MADEENA+MASJID+ECHODA/data=!4m7!3m6!1s0x3bd26f98044820f1:0xb0592db733389086!8m2!3d19.42503!4d78.4529037!16s%2Fg%2F11c3tqr4t1!19sChIJ8SBIBJhv0jsRhpA4M7ctWbA?authuser=0&hl=en&rclk=1,"19.42503,78.4529037"
Budharpet Masjid,Mosque,"483V+F49 Budharpet Masjid, Pinjari Gutta, Nirmal, Telangana 504106",Pinjari Gutta,483V+F49,Nirmal,504106,Telangana,IN,https://www.google.com/maps/place/Budharpet+Masjid/data=!4m7!3m6!1s0x3bcd8b80c2fc5e99:0xbd732aff04f66e07!8m2!3d19.1036542!4d78.3428597!16s%2Fg%2F11dxchc4cr!19sChIJmV78woCLzTsRB272BP8qc70?authuser=0&hl=en&rclk=1,"19.103654199999998,78.34285969999999"
Masjid,Mosque,"HFPR+4Q8 Masjid, Adilabad, Telangana 504308",,HFPR+4Q8,Adilabad,504308,Telangana,IN,https://www.google.com/maps/place/Masjid/data=!4m7!3m6!1s0x3bd25d5bfe1eb429:0x753a217332ff9baa!8m2!3d19.5852914!4d78.4919588!16s%2Fg%2F11dxq2d28t!19sChIJKbQe_ltd0jsRqpv_MnMhOnU?authuser=0&hl=en&rclk=1,"19.5852914,78.49195879999999"
Saleem Masjid,Mosque,"38WV+VRM Saleem Masjid, Panjesha Gallay, Zohra Nagar Colony, Kasba, Nirmal, Telangana 504106","Zohra Nagar Colony, Kasba","38WV+VRM, Panjesha Gallay",Nirmal,504106,Telangana,IN,https://www.google.com/maps/place/Saleem+Masjid/data=!4m7!3m6!1s0x3bcd8d6819c1f8c7:0x61f36d2f219cd7ef!8m2!3d19.0972042!4d78.3445486!16s%2Fg%2F11f6gz16dy!19sChIJx_jBGWiNzTsR79ecIS9t82E?authuser=0&hl=en&rclk=1,"19.0972042,78.3445486"
MASJID - E - RIYAZUL HAQ,Mosque,"38WX+Q76 MASJID - E - RIYAZUL HAQ, Bagulwada, Nirmal, Telangana 504106",Bagulwada,38WX+Q76,Nirmal,504106,Telangana,IN,https://www.google.com/maps/place/MASJID+-+E+-+RIYAZUL+HAQ/data=!4m7!3m6!1s0x3bcd8c79971e96a1:0x16fef0fe66a6bb49!8m2!3d19.0969176!4d78.3481556!16s%2Fg%2F11ddxp28l8!19sChIJoZYel3mMzTsRSbumZv7w_hY?authuser=0&hl=en&rclk=1,"19.096917599999998,78.3481556"
Masjid Badar,Mosque,"MG8C+44M Masjid Badar, Rickshaw Colony, Adilabad, Telangana 504001",Rickshaw Colony,MG8C+44M,Adilabad,504001,Telangana,IN,https://www.google.com/maps/place/Masjid+Badar/data=!4m7!3m6!1s0x3bd25c878e7870c1:0x8e24c92e23dce198!8m2!3d19.6653455!4d78.5202985!16s%2Fg%2F11bbrlytdq!19sChIJwXB4jodc0jsRmOHcIy7JJI4?authuser=0&hl=en&rclk=1,"19.6653455,78.5202985"
Osman Masjid,Mosque,"4X47+RJX Osman Masjid, Asad Baba Nagar, Bhainsa, Telangana 504103",Asad Baba Nagar,4X47+RJX,Bhainsa,504103,Telangana,IN,https://www.google.com/maps/place/Osman+Masjid/data=!4m7!3m6!1s0x3bcdfe5b6bc0025d:0x854fb770d38fd2a3!8m2!3d19.107103!4d77.9641068!16s%2Fg%2F11cn6jvztk!19sChIJXQLAa1v-zTsRo9KP03C3T4U?authuser=0&hl=en&rclk=1,"19.107103,77.9641068"
Masjid e Noor,Mosque,"976M+99C Masjid e Noor, Asifabad, Telangana 504293",,976M+99C,Asifabad,504293,Telangana,IN,https://www.google.com/maps/place/Masjid+e+Noor/data=!4m7!3m6!1s0x3bd2aea5cbc568eb:0x5aed9b5568109c20!8m2!3d19.3609381!4d79.283388!16s%2Fg%2F11cjj4r8cv!19sChIJ62jFy6Wu0jsRIJwQaFWb7Vo?authuser=0&hl=en&rclk=1,"19.3609381,79.283388"
masjid e noor,Mosque,"MG4Q+H92 masjid e noor, Sri Rama Colony, Adilabad, Telangana 504001",Sri Rama Colony,MG4Q+H92,Adilabad,504001,Telangana,IN,https://www.google.com/maps/place/masjid+e+noor/data=!4m7!3m6!1s0x3bd25c6bd009a42f:0x83777eaad70e454d!8m2!3d19.6563983!4d78.5384053!16s%2Fg%2F11c5t1smfj!19sChIJL6QJ0Gtc0jsRTUUO16p-d4M?authuser=0&hl=en&rclk=1,"19.6563983,78.5384053"
Masjid e Bilala,Mosque,"Masjid e Bilala, Adilabad-Asifabad Rd, Jainoor, Telangana 504313",,Adilabad-Asifabad Rd,Jainoor,504313,Telangana,IN,https://www.google.com/maps/place/Masjid+e+Bilala/data=!4m7!3m6!1s0x3bd29bb7204a9e0f:0x706dab2553f72b79!8m2!3d19.3750134!4d78.9120455!16s%2Fg%2F11f6qq3rwz!19sChIJD55KILeb0jsReSv3UyWrbXA?authuser=0&hl=en&rclk=1,"19.3750134,78.91204549999999"
Jama Masjid,Mosque,"GJ2X+6JW Jama Masjid, Keslaguda, Telangana 504346",,GJ2X+6JW,Keslaguda,504346,Telangana,IN,https://www.google.com/maps/place/Jama+Masjid/data=!4m7!3m6!1s0x3bd261f970258be5:0x54b1787a0dcfac1b!8m2!3d19.5006085!4d78.6490645!16s%2Fg%2F11b6c8wzlm!19sChIJ5YslcPlh0jsRG6zPDXp4sVQ?authuser=0&hl=en&rclk=1,"19.5006085,78.6490645"
Masjid-e-hanfia,Mosque,"MGPM+2C4 Masjid-e-hanfia, Kranti Nagar, Gandhi Nagar, Adilabad, Telangana 504001","Kranti Nagar, Gandhi Nagar",MGPM+2C4,Adilabad,504001,Telangana,IN,https://www.google.com/maps/place/Masjid-e-hanfia/data=!4m7!3m6!1s0x3bd25b8fa218f2e1:0x18f2829bdf51eaf4!8m2!3d19.6850231!4d78.5335857!16s%2Fg%2F11dd_qtmkm!19sChIJ4fIYoo9b0jsR9OpR35uC8hg?authuser=0&hl=en&rclk=1,"19.6850231,78.5335857"
Jama Masjid,Mosque,"3CP2+VC4 Jama Masjid, Ratnapurkandla, Telangana 504106",,3CP2+VC4,Ratnapurkandla,504106,Telangana,IN,https://www.google.com/maps/place/Jama+Masjid/data=!4m7!3m6!1s0x3bcd8f4bdaaf8ff7:0x7e6311228e965496!8m2!3d19.0871397!4d78.4010718!16s%2Fg%2F11gjs05kwn!19sChIJ94-v2kuPzTsRllSWjiIRY34?authuser=0&hl=en&rclk=1,"19.087139699999998,78.4010718"
Masjid-E- Rahimaniya,Mosque,"MGRR+5G5 Masjid-E- Rahimaniya, Tirupally, Adilabad, Telangana 504001",Tirupally,MGRR+5G5,Adilabad,504001,Telangana,IN,https://www.google.com/maps/place/Masjid-E-+Rahimaniya/data=!4m7!3m6!1s0x3bd25ba3e27d5519:0x3ff2f3403e845bff!8m2!3d19.6903884!4d78.5413572!16s%2Fg%2F11gmblynz2!19sChIJGVV94qNb0jsR_1uEPkDz8j8?authuser=0&hl=en&rclk=1,"19.6903884,78.5413572"
Burhaniya Masjid Pan Galli,Mosque,"38WW+P6V Burhaniya Masjid Pan Galli, Market Rd, Bagulwada, Nirmal, Telangana 504106",Bagulwada,"38WW+P6V, Market Rd",Nirmal,504106,Telangana,IN,https://www.google.com/maps/place/Burhaniya+Masjid+Pan+Galli/data=!4m7!3m6!1s0x3bcd8c794121c375:0xc5851a3786d85199!8m2!3d19.0968567!4d78.345553!16s%2Fg%2F11c5814380!19sChIJdcMhQXmMzTsRmVHYhjcahcU?authuser=0&hl=en&rclk=1,"19.0968567,78.345553"
Jama Masjid,Mosque,"Jama Masjid, Bus Station, Old, Utnur, Telangana 504311",Sevadas Nagar,"Bus Station, Old",Utnur,504311,Telangana,IN,https://www.google.com/maps/place/Jama+Masjid/data=!4m7!3m6!1s0x3bd285b42543f7db:0xfbc9083caa3eda41!8m2!3d19.3679744!4d78.7738921!16s%2Fg%2F11c2p12cr7!19sChIJ2_dDJbSF0jsRQdo-qjwIyfs?authuser=0&hl=en&rclk=1,"19.367974399999998,78.7738921"
Masjid E Namrah,Mosque,"MGGM+7CV Masjid E Namrah, Ambedkar Chowk, Bhuktapur, Telangana 504001",,"MGGM+7CV, Ambedkar Chowk",Bhuktapur,,Telangana,IN,https://www.google.com/maps/place/Masjid+E+Namrah/data=!4m7!3m6!1s0x3bd25b8829cd21e7:0xb871a2b68c3b292c!8m2!3d19.6757458!4d78.5335363!16s%2Fg%2F11b6v0h3n3!19sChIJ5yHNKYhb0jsRLCk7jLaicbg?authuser=0&hl=en&rclk=1,"19.675745799999998,78.5335363"
Masjid -e- Dawathul Haq,Mosque,"CFH2+G89 Masjid -e- Dawathul Haq, Ichoda Main Rd, Ichoda, Telangana 504307",,"CFH2+G89, Ichoda Main Rd",Ichoda,504307,Telangana,IN,https://www.google.com/maps/place/Masjid+-e-+Dawathul+Haq/data=!4m7!3m6!1s0x3bd26fa240811f53:0x84ebb182ea5a35e4!8m2!3d19.4287993!4d78.4508528!16s%2Fg%2F11b75hw8dx!19sChIJUx-BQKJv0jsR5DVa6oKx64Q?authuser=0&hl=en&rclk=1,"19.428799299999998,78.45085279999999"
Masjid-E-Noor,Mosque,"9Q8G+JJX Masjid-E-Noor, Mominpura, Sevadas Nagar, Utnur, Telangana 504311","Mominpura, Sevadas Nagar",9Q8G+JJX,Utnur,,Telangana,IN,https://www.google.com/maps/place/Masjid-E-Noor/data=!4m7!3m6!1s0x3bd285b3f2afb185:0x2ec78038b9f918ae!8m2!3d19.3675545!4d78.7769558!16s%2Fg%2F1pp2tk8bd!19sChIJhbGv8rOF0jsRrhj5uTiAxy4?authuser=0&hl=en&rclk=1,"19.3675545,78.7769558"
Umar Masjid,Mosque,"MG2H+9J7 Umar Masjid, Pittalwada, Khoja Colony, Adilabad, Telangana 504001","Pittalwada, Khoja Colony",MG2H+9J7,Adilabad,504001,Telangana,IN,https://www.google.com/maps/place/Umar+Masjid/data=!4m7!3m6!1s0x3bd25c5d9e45a7ff:0xd9937a4c4bfe8c53!8m2!3d19.6509166!4d78.5290486!16s%2Fg%2F11fx95lqmp!19sChIJ_6dFnl1c0jsRU4z-S0x6k9k?authuser=0&hl=en&rclk=1,"19.6509166,78.5290486"
Masjid E Umar Farooq,Mosque,"CFG3+GFW Masjid E Umar Farooq, Ichoda, Telangana 504307",,CFG3+GFW,Ichoda,504307,Telangana,IN,https://www.google.com/maps/place/Masjid+E+Umar+Farooq/data=!4m7!3m6!1s0x3bd26f986a32f5f1:0xa79367774c71be95!8m2!3d19.4263502!4d78.4537135!16s%2Fg%2F11f03zm31b!19sChIJ8fUyaphv0jsRlb5xTHdnk6c?authuser=0&hl=en&rclk=1,"19.426350199999998,78.45371349999999"
MASJID=E=SAMAD,Mosque,"38HM+G5M MASJID=E=SAMAD, Hufaaz nagar, Nirmal, Telangana 504106",Hufaaz nagar,38HM+G5M,Nirmal,,Telangana,IN,https://www.google.com/maps/place/MASJID%3DE%3DSAMAD/data=!4m7!3m6!1s0x3bcd8c8c9e48e331:0xff3b8e9d1631c776!8m2!3d19.0788383!4d78.3329139!16s%2Fg%2F11f4_h6mlx!19sChIJMeNInoyMzTsRdscxFp2OO_8?authuser=0&hl=en&rclk=1,"19.078838299999997,78.3329139"
NOORANI JAMA MASJID,Mosque,"NOORANI JAMA MASJID, Narnoor, Telangana 504311",,,Narnoor,504311,Telangana,IN,https://www.google.com/maps/place/NOORANI+JAMA+MASJID/data=!4m7!3m6!1s0x3bd291faf32c3cc1:0x9b5e439f89b47085!8m2!3d19.4987577!4d78.8481544!16s%2Fg%2F11g9mh63k9!19sChIJwTws8_qR0jsRhXC0iZ9DXps?authuser=0&hl=en&rclk=1,"19.4987577,78.8481544"
jm` msjd ndr wyly. (Jama Masjid indervelly ),Mosque,"FMVF+HC2 jm` msjd ndr wyly. (Jama Masjid indervelly ), Indervelly, Telangana 504346",,FMVF+HC2,Indervelly,504346,Telangana,IN,https://www.google.com/maps/place/%D8%AC%D8%A7%D9%85%D8%B9+%D9%85%D8%B3%D8%AC%D8%AF+%D8%A7%D9%86%D8%AF%D8%B1+%D9%88%DB%8C%D9%84%DB%8C%DB%94+%28Jama+Masjid+indervelly+%29%E2%80%AD/data=!4m7!3m6!1s0x3bd289e8469486f1:0xf56a332b39f02da9!8m2!3d19.4938815!4d78.6735064!16s%2Fg%2F11h21prn9w!19sChIJ8YaURuiJ0jsRqS3wOSszavU?authuser=0&hl=en&rclk=1,"19.4938815,78.6735064"
Jama Masjid E Yaseen,Mosque,"48XM+F6C Jama Masjid E Yaseen, Hanuman Temple Road, Chincholi Buzurg, Telangana 504106",,"48XM+F6C, Hanuman Temple Road",Chincholi Buzurg,504106,Telangana,IN,https://www.google.com/maps/place/Jama+Masjid+E+Yaseen/data=!4m7!3m6!1s0x3bcd8afe0a8621e5:0x8fe4dfebe2fa5c5e!8m2!3d19.148678!4d78.3330188!16s%2Fg%2F11f2wfb5z6!19sChIJ5SGGCv6KzTsRXlz64uvf5I8?authuser=0&hl=en&rclk=1,"19.148678,78.33301879999999"
Jama Masjid,Mosque,"36QG+MQ8 Jama Masjid, Dilawarpur, Telangana 504306",,36QG+MQ8,Dilawarpur,504306,Telangana,IN,https://www.google.com/maps/place/Jama+Masjid/data=!4m7!3m6!1s0x3bcdf38b6d895ff3:0xfb92232411ea544f!8m2!3d19.0891544!4d78.2269668!16s%2Fg%2F11g7cxjty8!19sChIJ81-JbYvzzTsRT1TqESQjkvs?authuser=0&hl=en&rclk=1,"19.089154399999998,78.2269668"
Masjid E IBrahimiya,Mosque,"Masjid E IBrahimiya, Shanti Nagar, Adilabad, Telangana 504001",Shanti Nagar,,Adilabad,504001,Telangana,IN,https://www.google.com/maps/place/Masjid+E+IBrahimiya/data=!4m7!3m6!1s0x3bd25d44b0027dc7:0x5b9c582e308fceb0!8m2!3d19.6688451!4d78.5432386!16s%2Fg%2F11flbsbk92!19sChIJx30CsERd0jsRsM6PMC5YnFs?authuser=0&hl=en&rclk=1,"19.6688451,78.5432386"
"Jama Masjid, Muktapur",Mosque,"3C62+Q28 Jama Masjid, Muktapur, Muktapur, Telangana 504106",,3C62+Q28,Muktapur,,Telangana,IN,"https://www.google.com/maps/place/Jama+Masjid,+Muktapur/data=!4m7!3m6!1s0x3bcd8f9258c7c083:0x2f260bf9d293a969!8m2!3d19.0619098!4d78.4000766!16s%2Fg%2F11g1lsp89d!19sChIJg8DHWJKPzTsRaamT0vkLJi8?authuser=0&hl=en&rclk=1","19.0619098,78.40007659999999"
Bilal Rz Masjid,Mosque,"29C7+8C3 Bilal Rz Masjid, Gamjal, Telangana 504105",,29C7+8C3,Gamjal,504105,Telangana,IN,https://www.google.com/maps/place/Bilal+Rz+Masjid/data=!4m7!3m6!1s0x3bcd8dfd5e8bef41:0x90088cf3276a00b4!8m2!3d19.0207686!4d78.3635425!16s%2Fg%2F11g1dywtz6!19sChIJQe-LXv2NzTsRtABqJ_OMCJA?authuser=0&hl=en&rclk=1,"19.0207686,78.3635425"
Macca Masjid,Mosque,"39G5+MMQ Macca Masjid, Shanthi Nagar Rd, Shanthinagar, Nirmal, Venkatapur Rural, Telangana 504105",Shanthinagar,"39G5+MMQ, Shanthi Nagar Rd","Nirmal, Venkatapur Rural",504105,Telangana,IN,https://www.google.com/maps/place/Macca+Masjid/data=!4m7!3m6!1s0x3bcd8db23dfdf8ed:0xe146a9cb766c453d!8m2!3d19.0767234!4d78.3592417!16s%2Fg%2F11h5lk1kll!19sChIJ7fj9PbKNzTsRPUVsdsupRuE?authuser=0&hl=en&rclk=1,"19.0767234,78.3592417"
"jama masjid,temburni",Mosque,"35FQ+GJ7 jama masjid,temburni, Temborni, Telangana 504306",,35FQ+GJ7,Temborni,504306,Telangana,IN,"https://www.google.com/maps/place/jama+masjid,temburni/data=!4m7!3m6!1s0x3bcdf143602b1c57:0x1b94be4d9345b7c4!8m2!3d19.0737876!4d78.1890329!16s%2Fg%2F11hc_7v5pb!19sChIJVxwrYEPxzTsRxLdFk02-lBs?authuser=0&hl=en&rclk=1","19.0737876,78.1890329"
New EIDGAH NIRMAL,Mosque,"48PM+98W New EIDGAH NIRMAL, Chincholi Buzurg, Telangana 504110",,48PM+98W,Chincholi Buzurg,,Telangana,IN,https://www.google.com/maps/place/New+EIDGAH+NIRMAL/data=!4m7!3m6!1s0x3bcd8bb04ad05d83:0x31334f9c1ae9f252!8m2!3d19.1359868!4d78.3333393!16s%2Fg%2F11p0z5x1bs!19sChIJg13QSrCLzTsRUvLpGpxPMzE?authuser=0&hl=en&rclk=1,"19.135986799999998,78.33333929999999"
Jama Masjid,Mosque,"X9HH+P64 Jama Masjid, Doodgaon, Telangana 503219",,X9HH+P64,Doodgaon,503219,Telangana,IN,https://www.google.com/maps/place/Jama+Masjid/data=!4m7!3m6!1s0x3bcd9224192c96bd:0x2e7e62bc05d54e75!8m2!3d18.9792705!4d78.3780674!16s%2Fg%2F11clsctqzf!19sChIJvZYsGSSSzTsRdU7VBbxifi4?authuser=0&hl=en&rclk=1,"18.9792705,78.37806739999999"
Masjid e Noorani,Mosque,"MGMQ+P66 Masjid e Noorani, Mahalaxmiwada, Adilabad, Telangana 504001",Mahalaxmiwada,MGMQ+P66,Adilabad,504001,Telangana,IN,https://www.google.com/maps/place/Masjid+e+Noorani/data=!4m7!3m6!1s0x3bd25b71656d7da1:0x9db65c4943296ea6!8m2!3d19.6842802!4d78.5380187!16s%2Fg%2F11gphd3bdg!19sChIJoX1tZXFb0jsRpm4pQ0lctp0?authuser=0&hl=en&rclk=1,"19.6842802,78.5380187"
MASJID - E - WASIL,Mosque,"9Q7C+W9C MASJID - E - WASIL, Utnur, Telangana 504311",,9Q7C+W9C,Utnur,504311,Telangana,IN,https://www.google.com/maps/place/MASJID+-+E+-+WASIL/data=!4m7!3m6!1s0x3bd285b568212b3b:0xd48a9da29da1160e!8m2!3d19.3648093!4d78.7708923!16s%2Fg%2F11g6q_z_ty!19sChIJOyshaLWF0jsRDhahnaKditQ?authuser=0&hl=en&rclk=1,"19.364809299999997,78.7708923"
Mosque,Mosque,"Mosque, shiva temple, Nallur mosque near lord, Nallur, Telangana",,"shiva temple, Nallur mosque near lord",Nallur,,Telangana,IN,https://www.google.com/maps/place/Mosque/data=!4m7!3m6!1s0x3bcd93ecce3162e9:0x89da8c7144c19593!8m2!3d18.9305867!4d78.3619769!16s%2Fg%2F11f53flxxq!19sChIJ6WIxzuyTzTsRk5XBRHGM2ok?authuser=0&hl=en&rclk=1,"18.9305867,78.3619769"
Zakariya Masjid,Mosque,"39W2+36R Zakariya Masjid, Unnamed Road, Nirmal, Telangana 504106",,"39W2+36R, Unnamed Road",Nirmal,504106,Telangana,IN,https://www.google.com/maps/place/Zakariya+Masjid/data=!4m7!3m6!1s0x3bcd8c70af3e69d3:0x5bd0199c0b37c400!8m2!3d19.0952397!4d78.3505245!16s%2Fg%2F11gg94g7gs!19sChIJ02k-r3CMzTsRAMQ3C5wZ0Fs?authuser=0&hl=en&rclk=1,"19.0952397,78.35052449999999"
Masjid Mohammadia,Mosque,"9QCG+VR7 Masjid Mohammadia, Utnoor Rd, Utnur, Telangana 504311",,"9QCG+VR7, Utnoor Rd",Utnur,504311,Telangana,IN,https://www.google.com/maps/place/Masjid+Mohammadia/data=!4m7!3m6!1s0x3bd285b0dc0d26a7:0xf6fa3333ae2948b7!8m2!3d19.3721507!4d78.7770528!16s%2Fg%2F11c2p105cs!19sChIJpyYN3LCF0jsRt0gprjMz-vY?authuser=0&hl=en&rclk=1,"19.3721507,78.77705279999999"
masjid E Osmania,Mosque,"484V+CR6 masjid E Osmania, Kabutar Kaman, Pinjari Gutta, Nirmal, Telangana 504106",Pinjari Gutta,"484V+CR6, Kabutar Kaman",Nirmal,504106,Telangana,IN,https://www.google.com/maps/place/masjid+E+Osmania/data=!4m7!3m6!1s0x3bcd8b2fce0274ed:0xfcbe244bbc5ab10a!8m2!3d19.1060285!4d78.3445019!16s%2Fg%2F11fl94rxxh!19sChIJ7XQCzi-LzTsRCrFavEskvvw?authuser=0&hl=en&rclk=1,"19.1060285,78.3445019"
Masjid-E-Zohra,Mosque,"Masjid-E-Zohra, Masjid-E- Zohra, Ambedkar Nagar, Khanapur, Telangana 504001",Ambedkar Nagar,Masjid-E- Zohra,Khanapur,504001,Telangana,IN,https://www.google.com/maps/place/Masjid-E-Zohra/data=!4m7!3m6!1s0x3bd25dbaced23b33:0xe16af2c30b24656!8m2!3d19.6729258!4d78.5447961!16s%2Fg%2F11j000cqb1!19sChIJMzvSzrpd0jsRVkayMCyvFg4?authuser=0&hl=en&rclk=1,"19.672925799999998,78.5447961"
Masjid e Raza,Mosque,"MG9V+JPV Masjid e Raza, Shanti Nagar, Adilabad, Telangana 504001",Shanti Nagar,MG9V+JPV,Adilabad,504001,Telangana,IN,https://www.google.com/maps/place/Masjid+e+Raza/data=!4m7!3m6!1s0x3bd25d7fcd7b7ccd:0xe8779b7a8f75f499!8m2!3d19.6691213!4d78.5442846!16s%2Fg%2F11kh3x29df!19sChIJzXx7zX9d0jsRmfR1j3qbd-g?authuser=0&hl=en&rclk=1,"19.6691213,78.5442846"
Masjid-E-Aqsa,Mosque,"Masjid-E-Aqsa, Masjid-E-Aqsa Khanapur, Ambedkar Nagar, Khanapur, Telangana 504001",Ambedkar Nagar,Masjid-E-Aqsa Khanapur,Khanapur,504001,Telangana,IN,https://www.google.com/maps/place/Masjid-E-Aqsa/data=!4m7!3m6!1s0x3bd25dcc44670e61:0x730f194bf8b6847d!8m2!3d19.6716338!4d78.5448989!16s%2Fg%2F11j07wlncw!19sChIJYQ5nRMxd0jsRfYS2-EsZD3M?authuser=0&hl=en&rclk=1,"19.6716338,78.54489889999999"
Masjid-e- Amina,Mosque,"MGFR+G3G Masjid-e- Amina, Brahmanwadi, Adilabad, Telangana 504001",Brahmanwadi,MGFR+G3G,Adilabad,504001,Telangana,IN,https://www.google.com/maps/place/Masjid-e-+Amina/data=!4m7!3m6!1s0x3bd25ddc88f570b9:0x22cb1f0c107c4bc6!8m2!3d19.6738162!4d78.5401916!16s%2Fg%2F11k7xv923r!19sChIJuXD1iNxd0jsRxkt8EAwfyyI?authuser=0&hl=en&rclk=1,"19.673816199999997,78.5401916"
Masjid,Mosque,"X2CC+HV5 Masjid, Cherial Mandal, Akunoor, 506223",,"X2CC+HV5, Cherial Mandal",Akunoor,506223,Telangana,IN,https://www.google.com/maps/place/Masjid/data=!4m7!3m6!1s0x3bccbd7f77b35435:0x7c5b8dba74a27c47!8m2!3d17.9713949!4d79.0222368!16s%2Fg%2F12qgtpd93!19sChIJNVSzd3-9zDsRR3yidLqNW3w?authuser=0&hl=en&rclk=1,"17.9713949,79.0222368"
msjd slym,Mosque,"38WV+RVR msjd slym, Market Rd, Zohra Nagar Colony, Moghalpura, Nirmal, Telangana 504106","Zohra Nagar Colony, Moghalpura","38WV+RVR, Market Rd",Nirmal,504106,Telangana,IN,https://www.google.com/maps/place/%D9%85%D8%B3%D8%AC%D8%AF+%D8%B3%D9%84%DB%8C%D9%85%E2%80%AD/data=!4m7!3m6!1s0x3bcd8d93a5254703:0x4da948bd804a0de8!8m2!3d19.0971183!4d78.3446414!16s%2Fg%2F11ft8n_qd4!19sChIJA0clpZONzTsR6A1KgL1IqU0?authuser=0&hl=en&rclk=1,"19.097118299999998,78.3446414"
MASJID-E-AQSA,Mosque,"9QCM+6FG MASJID-E-AQSA, Utnur, Telangana 504311",,9QCM+6FG,Utnur,504311,Telangana,IN,https://www.google.com/maps/place/MASJID-E-AQSA/data=!4m7!3m6!1s0x3bd285ae68120e2d:0x511a2112271c67ab!8m2!3d19.3705709!4d78.7836997!16s%2Fg%2F11d_8_t86t!19sChIJLQ4SaK6F0jsRq2ccJxIhGlE?authuser=0&hl=en&rclk=1,"19.3705709,78.7836997"
Monammadia Masjid,Mosque,"FMX7+QP5 Monammadia Masjid, HEERAPUR, Indervelly, Heerapur, Telangana 504346",HEERAPUR,FMX7+QP5,"Indervelly, Heerapur",,Telangana,IN,https://www.google.com/maps/place/Monammadia+Masjid/data=!4m7!3m6!1s0x3bd28b5088306d5f:0x145d9a5d18c98ff!8m2!3d19.4993952!4d78.6643571!16s%2Fg%2F11gr5_09c8!19sChIJX20wiFCL0jsR_5iM0aXZRQE?authuser=0&hl=en&rclk=1,"19.4993952,78.66435709999999"
MASJID E SARWARI,Mosque,"48FJ+PHV MASJID E SARWARI, Telangana 504106",,48FJ+PHV,,504106,Telangana,IN,https://www.google.com/maps/place/MASJID+E+SARWARI/data=!4m7!3m6!1s0x3bcd8b00651e8ffd:0xa8f7ee52c6590d!8m2!3d19.1243734!4d78.3314346!16s%2Fg%2F11ry25t2vy!19sChIJ_Y8eZQCLzTsRDVnGUu73qAA?authuser=0&hl=en&rclk=1,"19.1243734,78.3314346"
Masijd,Mosque,"37RJ+GWX Masijd, Sirgapur, Telangana 504306",,37RJ+GWX,Sirgapur,504306,Telangana,IN,https://www.google.com/maps/place/Masijd/data=!4m7!3m6!1s0x3bcdf33758e9a9e3:0xdf1a41fcd63d0884!8m2!3d19.0913546!4d78.2823573!16s%2Fg%2F11ssjwr2t4!19sChIJ46npWDfzzTsRhAg91vxBGt8?authuser=0&hl=en&rclk=1,"19.0913546,78.2823573"
Masjid,Mosque,"575J+M85 Masjid, Rd, Boragaon, Boregaon, Telangana 504110",,"575J+M85, Rd","Boragaon, Boregaon",504110,Telangana,IN,https://www.google.com/maps/place/Masjid/data=!4m7!3m6!1s0x3bcdf5566038f497:0x4b6461d2e0d594e4!8m2!3d19.1591405!4d78.2808603!16s%2Fg%2F11r9h611j1!19sChIJl_Q4YFb1zTsR5JTV4NJhZEs?authuser=0&hl=en&rclk=1,"19.1591405,78.2808603"
Masjid e Afsana,Mosque,"JGRP+7WM Masjid e Afsana, KRK Rd, KRK Colony, Khoja Colony, Adilabad, Telangana 504001","KRK Colony, Khoja Colony","JGRP+7WM, KRK Rd",Adilabad,504001,Telangana,IN,https://www.google.com/maps/place/Masjid+e+Afsana/data=!4m7!3m6!1s0x3bd25d5d2e428473:0xd94d955bdaa63bd4!8m2!3d19.6407052!4d78.5372911!16s%2Fg%2F11t4wlk9cp!19sChIJc4RCLl1d0jsR1Dum2luVTdk?authuser=0&hl=en&rclk=1,"19.6407052,78.53729109999999"
Masjid E Hamza Ramnagar Adilabad,Mosque,"MG4C+F8M Masjid E Hamza Ramnagar Adilabad, Ramnagar Colony, Adilabad, Telangana 504001",Ramnagar Colony,MG4C+F8M,Adilabad,504001,Telangana,IN,https://www.google.com/maps/place/Masjid+E+Hamza+Ramnagar+Adilabad/data=!4m7!3m6!1s0x3bd25d6d632224ef:0xc12bfcc836f7600c!8m2!3d19.6562608!4d78.5213636!16s%2Fg%2F11r_w2kkk1!19sChIJ7yQiY21d0jsRDGD3Nsj8K8E?authuser=0&hl=en&rclk=1,"19.6562608,78.5213636"
Jafrapur masjid,Mosque,"28JX+4Q7 Jafrapur masjid, Jafrapur, Telangana 504106",,28JX+4Q7,Jafrapur,,Telangana,IN,https://www.google.com/maps/place/Jafrapur+masjid/data=!4m7!3m6!1s0x3bcd8de5f97c0a17:0x9c89c26008a467fa!8m2!3d19.0302845!4d78.349426!16s%2Fg%2F11s4h10tjl!19sChIJFwp8-eWNzTsR-mekCGDCiZw?authuser=0&hl=en&rclk=1,"19.0302845,78.349426"
Masjid bopparam,Mosque,"2CR5+8JC Masjid bopparam, Bapparam, Telangana 504105",,2CR5+8JC,Bapparam,504105,Telangana,IN,https://www.google.com/maps/place/Masjid+bopparam/data=!4m7!3m6!1s0x3bcd8e4188f2ae39:0xc07ac5e743d80df9!8m2!3d19.0408141!4d78.4090151!16s%2Fg%2F11f00qcn5d!19sChIJOa7yiEGOzTsR-Q3YQ-fFesA?authuser=0&hl=en&rclk=1,"19.0408141,78.40901509999999"
MASJID- E -SIDDIQ,Mosque,"39W3+9GR MASJID- E -SIDDIQ, Moghalpura, Nirmal, Telangana 504106",Moghalpura,39W3+9GR,Nirmal,504106,Telangana,IN,https://www.google.com/maps/place/MASJID-+E+-SIDDIQ/data=!4m7!3m6!1s0x3bcd8d77ced13693:0x2b1f9d1fdf452958!8m2!3d19.0959983!4d78.3537797!16s%2Fg%2F11g1gmhbgh!19sChIJkzbRzneNzTsRWClF3x-dHys?authuser=0&hl=en&rclk=1,"19.095998299999998,78.35377969999999"
MASJID E EIDGAON NIRMAL,Mosque,"38PV+W2C MASJID E EIDGAON NIRMAL, Unnamed Road, Natraj Nagar, Eidgoan, Nirmal, Telangana 504106","Natraj Nagar, Eidgoan","38PV+W2C, Unnamed Road",Nirmal,504106,Telangana,IN,https://www.google.com/maps/place/MASJID+E+EIDGAON+NIRMAL/data=!4m7!3m6!1s0x3bcd8c6358878827:0x9e6de3030bed805a!8m2!3d19.0873155!4d78.3425302!16s%2Fg%2F11hd07t83z!19sChIJJ4iHWGOMzTsRWoDtCwPjbZ4?authuser=0&hl=en&rclk=1,"19.0873155,78.3425302"
Masjid e zohra,Mosque,"38VR+WC6 Masjid e zohra, Maternity Hospital Rd, Eidgoan, Nirmal, Telangana 504106",Eidgoan,"38VR+WC6, Maternity Hospital Rd",Nirmal,504106,Telangana,IN,https://www.google.com/maps/place/Masjid+e+zohra/data=!4m7!3m6!1s0x3bcd8dad6ff99def:0xd1220326d03e7595!8m2!3d19.0947996!4d78.3410309!16s%2Fg%2F11mtd9pbxd!19sChIJ7535b62NzTsRlXU-0CYDItE?authuser=0&hl=en&rclk=1,"19.094799599999998,78.34103089999999"
Masjid-E-Kausar,Mosque,"MG8Q+6M8 Masjid-E-Kausar, Shanti Nagar, Adilabad, Telangana 504001",Shanti Nagar,MG8Q+6M8,Adilabad,504001,Telangana,IN,https://www.google.com/maps/place/Masjid-E-Kausar/data=!4m7!3m6!1s0x3bd25c726cbfffff:0xdcc8a30755b4260c!8m2!3d19.6655322!4d78.5391992!16s%2Fg%2F11txmzh9h_!19sChIJ__-_bHJc0jsRDCa0VQejyNw?authuser=0&hl=en&rclk=1,"19.665532199999998,78.5391992"
DARGAH HAZRATH SYED SADIQ PUNJABI R.A.,Mosque,"9QFH+82V DARGAH HAZRATH SYED SADIQ PUNJABI R.A., Utnoor Rd, Utnur, Telangana 504311",,"9QFH+82V, Utnoor Rd",Utnur,,Telangana,IN,https://www.google.com/maps/place/DARGAH+HAZRATH+SYED+SADIQ+PUNJABI+R.A./data=!4m7!3m6!1s0x3bd285e8982a5b59:0xa6f27cae7e3b2eb8!8m2!3d19.37336!4d78.7775539!16s%2Fg%2F11q3lkmfrb!19sChIJWVsqmOiF0jsRuC47fq588qY?authuser=0&hl=en&rclk=1,"19.373359999999998,78.7775539"
Masjid-E-ibraheem bin abbas,Mosque,"MGGX+2JV Masjid-E-ibraheem bin abbas, Ambedkar Nagar, Adilabad, Telangana 504001",Ambedkar Nagar,MGGX+2JV,Adilabad,504001,Telangana,IN,https://www.google.com/maps/place/Masjid-E-ibraheem+bin+abbas/data=!4m7!3m6!1s0x3bd25dca817e57db:0x80929612f281e68c!8m2!3d19.6751132!4d78.5490388!16s%2Fg%2F11jz2dzlg7!19sChIJ21d-gcpd0jsRjOaB8hKWkoA?authuser=0&hl=en&rclk=1,"19.6751132,78.54903879999999"
Jamia Masjid,Mosque,"2943+7Q5 Jamia Masjid, Madapur, Telangana 504105",,2943+7Q5,Madapur,504105,Telangana,IN,https://www.google.com/maps/place/Jamia+Masjid/data=!4m7!3m6!1s0x3bcd9347e1eead8f:0xf2478850e4585955!8m2!3d19.0056265!4d78.3544954!16s%2Fg%2F11gjhlm3w3!19sChIJj63u4UeTzTsRVVlY5FCIR_I?authuser=0&hl=en&rclk=1,"19.005626499999998,78.35449539999999"
Makkah Masjid,Mosque,"JGVP+75 Makkah Masjid, Khoja Colony, Adilabad, Telangana 504001",Khoja Colony,JGVP+75,Adilabad,504001,Telangana,IN,https://www.google.com/maps/place/Makkah+Masjid/data=!4m7!3m6!1s0x3bd25d02ee832577:0x98776ac946be5479!8m2!3d19.6431637!4d78.5353692!16s%2Fg%2F11r_wlfhm2!19sChIJdyWD7gJd0jsReVS-Rslqd5g?authuser=0&hl=en&rclk=1,"19.6431637,78.53536919999999"
Wadoor baba dargah,Mosque,"38PQ+VR8 Wadoor baba dargah, NH 61, Eidgoam, Nirmal, Telangana 504106",Eidgoam,"38PQ+VR8, NH 61",Nirmal,504106,Telangana,IN,https://www.google.com/maps/place/Wadoor+baba+dargah/data=!4m7!3m6!1s0x3bcd8d8814bbbc03:0x8605111567a4de7d!8m2!3d19.0872029!4d78.3397263!16s%2Fg%2F11t0pvwm4d!19sChIJA7y7FIiNzTsRfd6kZxURBYY?authuser=0&hl=en&rclk=1,"19.087202899999998,78.3397263"
Masjid e Dawood,Mosque,"485W+W49 Masjid e Dawood, Naidiwada, Nirmal, Telangana 504106",Naidiwada,485W+W49,Nirmal,504106,Telangana,IN,https://www.google.com/maps/place/Masjid+e+Dawood/data=!4m7!3m6!1s0x3bcd8b846475af3d:0x82ca3b48733cef62!8m2!3d19.1097927!4d78.3453625!16s%2Fg%2F11gbx8td_p!19sChIJPa91ZISLzTsRYu88c0g7yoI?authuser=0&hl=en&rclk=1,"19.1097927,78.3453625"
Jama Masjid,Mosque,"4733+GPV Jama Masjid, Near the Nirmal Bhainsa main Road.Mdl: Dilawarpur. Dist:, Nirmal, Telangana 504306",,"4733+GPV, Near the Nirmal Bhainsa main Road.Mdl: Dilawarpur. Dist:","Nirmal, Lolam",504306,Telangana,IN,https://www.google.com/maps/place/Jama+Masjid/data=!4m7!3m6!1s0x3bcdfff87705fb39:0xd33edc6cec828713!8m2!3d19.1038707!4d78.2542839!16s%2Fg%2F11gtdzt517!19sChIJOfsFd_j_zTsRE4eC7GzcPtM?authuser=0&hl=en&rclk=1,"19.103870699999998,78.25428389999999"
"Masjid Mohammad Osman, Nirmal",Mosque,"486M+V9M Masjid Mohammad Osman, Nirmal, Gajulpet, Telangana 504106",,486M+V9M,Gajulpet,504106,Telangana,IN,"https://www.google.com/maps/place/Masjid+Mohammad+Osman,+Nirmal/data=!4m7!3m6!1s0x3bcd8b85fd08424d:0x8490656f1497e456!8m2!3d19.1122219!4d78.3334251!16s%2Fg%2F11l8tvx7lb!19sChIJTUII_YWLzTsRVuSXFG9lkIQ?authuser=0&hl=en&rclk=1","19.112221899999998,78.3334251"
Imli band,Mosque,"39G3+P77 Imli band, Nirmal, Telangana 504105",,39G3+P77,Nirmal,,Telangana,IN,https://www.google.com/maps/place/Imli+band/data=!4m7!3m6!1s0x3bcd8d4ee2077133:0x67250b3aa8a34700!8m2!3d19.0767975!4d78.3531705!16s%2Fg%2F11kjgkv9wq!19sChIJM3EH4k6NzTsRAEejqDoLJWc?authuser=0&hl=en&rclk=1,"19.076797499999998,78.35317049999999"
KABUTAR KAMAN,Mosque,"484V+FQM KABUTAR KAMAN, Budhwarpet, Nirmal, Telangana 504106",Budhwarpet,"484V+FQM, KABUTAR KAMAN",Nirmal,504106,Telangana,IN,https://www.google.com/maps/place/KABUTAR+KAMAN/data=!4m7!3m6!1s0x3bcd8bd5708f26cb:0x792046c333cc67b!8m2!3d19.1062005!4d78.3444343!16s%2Fg%2F11sx05gtdm!19sChIJyyaPcNWLzTsRe8Y8M2wEkgc?authuser=0&hl=en&rclk=1,"19.1062005,78.3444343"
Masjid E Yahya Noor,Mosque,"48GH+8X7 Masjid E Yahya Noor, Nirmal, Telangana 504106",,48GH+8X7,Nirmal,,Telangana,IN,https://www.google.com/maps/place/Masjid+E+Yahya+Noor/data=!4m7!3m6!1s0x3bcd8bfffa3ea767:0x2953448db738086!8m2!3d19.1257808!4d78.3299118!16s%2Fg%2F11kjg_cd_k!19sChIJZ6c--v-LzTsRhoBz20g0lQI?authuser=0&hl=en&rclk=1,"19.125780799999998,78.32991179999999"
Masjid,Mosque,"CQ24+936 Masjid, X-Road, Nagapur, Telangana 504311",X-Road,CQ24+936,Nagapur,504311,Telangana,IN,https://www.google.com/maps/place/Masjid/data=!4m7!3m6!1s0x3bd28542302b9163:0x87197ab60c077a2c!8m2!3d19.4009106!4d78.7551464!16s%2Fg%2F11qnl8lv7j!19sChIJY5ErMEKF0jsRLHoHDLZ6GYc?authuser=0&hl=en&rclk=1,"19.4009106,78.7551464"
jaam msiid bttttpuur,Mosque,"WCJX+6HV jaam msiid bttttpuur, Battapur, Telangana 503308",,WCJX+6HV,Battapur,503308,Telangana,IN,https://www.google.com/maps/place/%E0%B0%9C%E0%B0%BE%E0%B0%AE+%E0%B0%AE%E0%B0%B8%E0%B1%80%E0%B0%A6%E0%B1%8D+%E0%B0%AC%E0%B0%9F%E0%B1%8D%E0%B0%9F%E0%B0%AA%E0%B1%82%E0%B0%B0%E0%B1%8D/data=!4m7!3m6!1s0x3bcd918b3f47d8ad:0xfe854f6f76021030!8m2!3d18.930614!4d78.448918!16s%2Fg%2F11nxqyzj_v!19sChIJrdhHP4uRzTsRMBACdm9Phf4?authuser=0&hl=en&rclk=1,"18.930614,78.44891799999999"
Jama Masjid Syeda Roohi,Mosque,"WFV8+M43 Jama Masjid Syeda Roohi, Tadpakal, Telangana 503308",,WFV8+M43,Tadpakal,503308,Telangana,IN,https://www.google.com/maps/place/Jama+Masjid+Syeda+Roohi/data=!4m7!3m6!1s0x3bcd914010ad5771:0x82701093c9534e2a!8m2!3d18.944138!4d78.4653123!16s%2Fg%2F11stvsm9bs!19sChIJcVetEECRzTsRKk5TyZMQcII?authuser=0&hl=en&rclk=1,"18.944138,78.4653123"
MASJID-E-BADAR-E-OSMAN,Mosque,"39G5+MMQ MASJID-E-BADAR-E-OSMAN, Shanthi Nagar Rd, Shanthinagar, Nirmal, Venkatapur Rural, Telangana 504105",Shanthinagar,"39G5+MMQ, Shanthi Nagar Rd","Nirmal, Venkatapur Rural",504105,Telangana,IN,https://www.google.com/maps/place/MASJID-E-BADAR-E-OSMAN/data=!4m7!3m6!1s0x3bcd8ddf2947d8cf:0xbd62b8ccb8ea1745!8m2!3d19.0767226!4d78.3592358!16s%2Fg%2F11s8wxfjxv!19sChIJz9hHKd-NzTsRRRfquMy4Yr0?authuser=0&hl=en&rclk=1,"19.0767226,78.3592358"
Masjid E Noor,Mosque,"39C3+79P Masjid E Noor, Venkatapur Rural, Telangana 504105",,39C3+79P,Venkatapur Rural,504105,Telangana,IN,https://www.google.com/maps/place/Masjid+E+Noor/data=!4m7!3m6!1s0x3bcd8ddcb5d9d5cf:0xd152c6f472fdfbfa!8m2!3d19.0707081!4d78.3534421!16s%2Fg%2F11hv9slfb2!19sChIJz9XZtdyNzTsR-vv9cvTGUtE?authuser=0&hl=en&rclk=1,"19.070708099999997,78.3534421"
Masjid,Mosque,"VG97+495 Masjid, Uploor, Telangana 503308",,VG97+495,Uploor,503308,Telangana,IN,https://www.google.com/maps/place/Masjid/data=!4m7!3m6!1s0x3bcd99b7214be065:0x2124425edd8c9c!8m2!3d18.8677678!4d78.5134778!16s%2Fg%2F11rylh59lj!19sChIJZeBLIbeZzTsRnIzdXkIkIQA?authuser=0&hl=en&rclk=1,"18.8677678,78.51347779999999"
Moti Masjid,Mosque,"38VX+Q23 Moti Masjid, Indira Nagar, Nirmal, Telangana 504106",Indira Nagar,38VX+Q23,Nirmal,504106,Telangana,IN,https://www.google.com/maps/place/Moti+Masjid/data=!4m7!3m6!1s0x3bcd8d81de0afe73:0xc3d36cad8b842584!8m2!3d19.094332!4d78.3485079!16s%2Fg%2F11tdc428l8!19sChIJc_4K3oGNzTsRhCWEi61s08M?authuser=0&hl=en&rclk=1,"19.094331999999998,78.3485079"
Masjid-e-Umar Faruq,Mosque,"Masjid-e-Umar Faruq, 5-990, near Bhim Nagar, Indervelly, Telangana 504346",,"5-990, near Bhim Nagar",Indervelly,504346,Telangana,IN,https://www.google.com/maps/place/Masjid-e-Umar+Faruq/data=!4m7!3m6!1s0x3bd28977e7eaf70d:0x8258704df043e015!8m2!3d19.4936269!4d78.6706737!16s%2Fg%2F11st_xzdb0!19sChIJDffq53eJ0jsRFeBD8E1wWII?authuser=0&hl=en&rclk=1,"19.4936269,78.6706737"
Sofiya Mosque,Mosque,"38CX+3Q8 Sofiya Mosque, Hiderabad, Road, Nirmal, Telangana 504105",,"38CX+3Q8, Hiderabad, Road","Nirmal, Venkatapur Rural",504105,Telangana,IN,https://www.google.com/maps/place/Sofiya+Mosque/data=!4m7!3m6!1s0x3bcd8dc385d7e307:0xccf929d1913274a5!8m2!3d19.0701694!4d78.3494416!16s%2Fg%2F11f5q881pr!19sChIJB-PXhcONzTsRpXQykdEp-cw?authuser=0&hl=en&rclk=1,"19.070169399999997,78.34944159999999"
KHANKHA E MOHAMMADI ADILABAD,Mosque,"MG7H+84G KHANKHA E MOHAMMADI ADILABAD, Adilabad Main Rd, Satnala Quarters, chaitanyapuri, Adilabad, Telangana 504001","Satnala Quarters, chaitanyapuri","MG7H+84G, Adilabad Main Rd",Adilabad,504001,Telangana,IN,https://www.google.com/maps/place/KHANKHA+E+MOHAMMADI+ADILABAD/data=!4m7!3m6!1s0x3bd25d7de627a569:0x4868af4429eca682!8m2!3d19.6633136!4d78.5278399!16s%2Fg%2F11nxrkqmlw!19sChIJaaUn5n1d0jsRgqbsKUSvaEg?authuser=0&hl=en&rclk=1,"19.6633136,78.52783989999999"
Madina masjid,Mosque,"HJX5+HJ6 Madina masjid, Lokari, Telangana 504001",,HJX5+HJ6,Lokari,504001,Telangana,IN,https://www.google.com/maps/place/Madina+masjid/data=!4m7!3m6!1s0x3bd25fd0b85e3af7:0x58b0d4e158d49e84!8m2!3d19.5986215!4d78.6098443!16s%2Fg%2F11s39q45km!19sChIJ9zpeuNBf0jsRhJ7UWOHUsFg?authuser=0&hl=en&rclk=1,"19.5986215,78.60984429999999"
budhwarpet,Mosque,"483X+455 budhwarpet, Besthawar Pet, Brahmapuri, Nirmal, Telangana 504106","Besthawar Pet, Brahmapuri",483X+455,Nirmal,504106,Telangana,IN,https://www.google.com/maps/place/budhwarpet/data=!4m7!3m6!1s0x3bcd8bfb66f83783:0x717d61d1e9109098!8m2!3d19.1027657!4d78.3479759!16s%2Fg%2F11q4d6wx1y!19sChIJgzf4ZvuLzTsRmJAQ6dFhfXE?authuser=0&hl=en&rclk=1,"19.1027657,78.3479759"
Abbubakar masjid,Mosque,"9WG5+JJV Abbubakar masjid, Jainoor, Telangana 504313",,9WG5+JJV,Jainoor,504313,Telangana,IN,https://www.google.com/maps/place/Abbubakar+masjid/data=!4m7!3m6!1s0x3bd29bab25333f2b:0x3b3f437925c3c48c!8m2!3d19.3766247!4d78.909049!16s%2Fg%2F11rs2wxm5k!19sChIJKz8zJaub0jsRjMTDJXlDPzs?authuser=0&hl=en&rclk=1,"19.3766247,78.909049"
Syed Anwar Hussain villa (house),Mosque,"38WX+V72 Syed Anwar Hussain villa (house), Bagulwada, Nirmal, Telangana 504106",Bagulwada,38WX+V72,Nirmal,504106,Telangana,IN,https://www.google.com/maps/place/Syed+Anwar+Hussain+villa+%28house%29/data=!4m7!3m6!1s0x3bcd8d59b24e7ea7:0x761d2da4070c8e2e!8m2!3d19.0971408!4d78.3481407!16s%2Fg%2F11v3mghvfr!19sChIJp35OslmNzTsRLo4MB6QtHXY?authuser=0&hl=en&rclk=1,"19.0971408,78.3481407"
Masjid E Sujath,Mosque,"38XR+3XQ Masjid E Sujath, Priyadarshini Nagar, Nirmal, Telangana 504106",Priyadarshini Nagar,38XR+3XQ,Nirmal,504106,Telangana,IN,https://www.google.com/maps/place/Masjid+E+Sujath/data=!4m7!3m6!1s0x3bcd8d0cdf8db947:0xb940a3d6fcfd8e89!8m2!3d19.097701!4d78.3424829!16s%2Fg%2F11ty07dz60!19sChIJR7mN3wyNzTsRiY79_NajQLk?authuser=0&hl=en&rclk=1,"19.097701,78.3424829"
Masjid e ek qana Ahle sunnat,Mosque,"38XW+734 Masjid e ek qana Ahle sunnat, Chinthakunta Wada, Nirmal, Telangana 504106",Chinthakunta Wada,38XW+734,Nirmal,504106,Telangana,IN,https://www.google.com/maps/place/Masjid+e+ek+qana+Ahle+sunnat/data=!4m7!3m6!1s0x3bcd8d48e5bd11d1:0x50a266eda6fe4bb8!8m2!3d19.0982132!4d78.3452555!16s%2Fg%2F11t5wcvk7p!19sChIJ0RG95UiNzTsRuEv-pu1molA?authuser=0&hl=en&rclk=1,"19.0982132,78.3452555"
MOHAMMADIA MASJID,Mosque,"FMVC+JFR MOHAMMADIA MASJID, Heerapur, Indervelly, Telangana",,"FMVC+JFR, Heerapur",Indervelly,,Telangana,IN,https://www.google.com/maps/place/MOHAMMADIA+MASJID/data=!4m7!3m6!1s0x3bd289c55f8ff47d:0x2d649ece3f38847e!8m2!3d19.494116!4d78.6711451!16s%2Fg%2F11fcnd7c7s!19sChIJffSPX8WJ0jsRfoQ4P86eZC0?authuser=0&hl=en&rclk=1,"19.494115999999998,78.67114509999999"
Masjid E Anisa Rehman,Mosque,"38MM+H6W Masjid E Anisa Rehman, Adharsha Nagar, Nirmal, Telangana 504106",Adharsha Nagar,38MM+H6W,Nirmal,504106,Telangana,IN,https://www.google.com/maps/place/Masjid+E+Anisa+Rehman/data=!4m7!3m6!1s0x3bcd8d67f35dca5d:0xb622b1638f92c5fa!8m2!3d19.0839753!4d78.333078!16s%2Fg%2F11ty0pkpxq!19sChIJXcpd82eNzTsR-sWSj2OxIrY?authuser=0&hl=en&rclk=1,"19.0839753,78.333078"
Masjid e Hameeda,Mosque,"482M+GG9 Masjid e Hameeda, BARKATHPURA ROAD, Street No. 1, opposite MASJID E HAMEEDA, Priyadarshini Nagar, Nirmal, Telangana 504106",Priyadarshini Nagar,"482M+GG9, BARKATHPURA ROAD, Street No. 1, opposite MASJID E HAMEEDA",Nirmal,504106,Telangana,IN,https://www.google.com/maps/place/Masjid+e+Hameeda/data=!4m7!3m6!1s0x3bcd8b49775a452f:0x5f7719d97ca6869b!8m2!3d19.1012795!4d78.3338439!16s%2Fg%2F11t508g8hy!19sChIJL0Vad0mLzTsRm4amfNkZd18?authuser=0&hl=en&rclk=1,"19.1012795,78.33384389999999"
Eid-Gah Nirmal,Mosque,"38PQ+7GQ Eid-Gah Nirmal, Adharsha Nagar, Nirmal, Telangana 504106",Adharsha Nagar,38PQ+7GQ,Nirmal,504106,Telangana,IN,https://www.google.com/maps/place/Eid-Gah+Nirmal/data=!4m7!3m6!1s0x3bcd8d90b7d8d435:0x3a2ad0646c5b8835!8m2!3d19.0857081!4d78.3388489!16s%2Fg%2F11ty5vs19m!19sChIJNdTYt5CNzTsRNYhbbGTQKjo?authuser=0&hl=en&rclk=1,"19.085708099999998,78.3388489"
BILALA MASJID,Mosque,"9WF5+HJJ BILALA MASJID, Jainoor, Telangana 504313",,9WF5+HJJ,Jainoor,504313,Telangana,IN,https://www.google.com/maps/place/BILALA+MASJID/data=!4m7!3m6!1s0x3bd29b2e07edb8d3:0xa2580038ac3fd778!8m2!3d19.3739522!4d78.9090191!16s%2Fg%2F11f77_fyxp!19sChIJ07jtBy6b0jsReNc_rDgAWKI?authuser=0&hl=en&rclk=1,"19.373952199999998,78.9090191"
Chowk Masjid,Mosque,"484W+JHJ Chowk Masjid, Budhwarpet, Nirmal, Telangana 504106",Budhwarpet,484W+JHJ,Nirmal,504106,Telangana,IN,https://www.google.com/maps/place/Chowk+Masjid/data=!4m7!3m6!1s0x3bcd8b869a815555:0x72db1297ad447e04!8m2!3d19.1065965!4d78.3463755!16s%2Fg%2F11tgg7ngf0!19sChIJVVWBmoaLzTsRBH5ErZcS23I?authuser=0&hl=en&rclk=1,"19.1065965,78.3463755"
Boregaon masjid,Mosque,"575J+M85 Boregaon masjid, Rd, Boragaon, Boregaon, Telangana 504110",,"575J+M85, Rd","Boragaon, Boregaon",504110,Telangana,IN,https://www.google.com/maps/place/Boregaon+masjid/data=!4m7!3m6!1s0x3bcdf5a37f0f4a77:0xa7ed0f87592cc9dd!8m2!3d19.1591431!4d78.2808539!16s%2Fg%2F11nfw3wdvw!19sChIJd0oPf6P1zTsR3cksWYcP7ac?authuser=0&hl=en&rclk=1,"19.159143099999998,78.2808539"
Nouman,Mosque,"X89R+CCX Nouman, Sri Ram Sagar Project, Telangana 503219",,X89R+CCX,Sri Ram Sagar Project,,Telangana,IN,https://www.google.com/maps/place/Nouman/data=!4m7!3m6!1s0x3bcd93de54aa4221:0x7987f7179a034d22!8m2!3d18.9686106!4d78.3411074!16s%2Fg%2F11nxc31hh7!19sChIJIUKqVN6TzTsRIk0Dmhf3h3k?authuser=0&hl=en&rclk=1,"18.968610599999998,78.3411074"
masjid e mahboob unnisa,Mosque,"masjid e mahboob unnisa, charwadan Opposite:, Government Girls High school and Jr College, near Vidyanikethan High School, Azam Pura, Siddipet, Telangana 502103",Azam Pura,"charwadan Opposite:, Government Girls High school and Jr College, near Vidyanikethan High School",Siddipet,502103,Telangana,IN,https://www.google.com/maps/place/masjid+e+mahboob+unnisa/data=!4m7!3m6!1s0x3bcceda03f27bc1b:0xaaef2113b810d0b!8m2!3d18.1072369!4d78.8471118!16s%2Fg%2F11frqnt23j!19sChIJG7wnP6DtzDsRCw2BOxHyrgo?authuser=0&hl=en&rclk=1,"18.1072369,78.8471118"
