name,main_category,address,address_ward,address_street,address_city,address_postal_code,address_state,address_country_code,link,coordinates
Jama Masjid,Mosque,"Jama Masjid, Old Delhi, Delhi, 110006","Jama Masjid, Old Delhi",,Delhi,110006,Delhi,IN,https://www.google.com/maps/place/Jama+Masjid/data=!4m7!3m6!1s0x390cfd18df89b215:0xdd57369e29bf9d96!8m2!3d28.6506792!4d77.2334421!16zL20vMDR5emo1!19sChIJFbKJ3xj9DDkRlp2_KZ42V90?authuser=0&hl=en&rclk=1,"28.6506792,77.23344209999999"
Masjid Shah Abdul Hadi,Mosque,"WF68+5QX Masjid Shah Abdul Hadi, Fazalpur, Amroha, Uttar Pradesh 244221",Fazalpur,WF68+5QX,Amroha,244221,Uttar Pradesh,IN,https://www.google.com/maps/place/Masjid+Shah+Abdul+Hadi/data=!4m7!3m6!1s0x390b098a2ded2829:0x20c634bd928c7af2!8m2!3d28.9104812!4d78.466983!16s%2Fg%2F11g0lckz7f!19sChIJKSjtLYoJCzkR8nqMkr00xiA?authuser=0&hl=en&rclk=1,"28.9104812,78.466983"
Chanda masjid,Mosque,"7Q4R+WXR Chanda masjid, Nichlaul Range, Uttar Pradesh 273304",,7Q4R+WXR,Nichlaul Range,273304,Uttar Pradesh,IN,https://www.google.com/maps/place/Chanda+masjid/data=!4m7!3m6!1s0x399411c065ece3ad:0xac3b7ebc515dc006!8m2!3d27.2573893!4d83.7926235!16s%2Fg%2F11v19sf57d!19sChIJrePsZcARlDkRBsBdUbx-O6w?authuser=0&hl=en&rclk=1,"27.2573893,83.79262349999999"
Banglewali Masjid Nizamuddin Delhi,Mosque,"H6RV+Q92 Banglewali Masjid Nizamuddin Delhi, Nizamuddin, Nizamuddin West, New Delhi, Delhi 110013","Nizamuddin, Nizamuddin West",H6RV+Q92,New Delhi,110013,Delhi,IN,https://www.google.com/maps/place/Banglewali+Masjid+Nizamuddin+Delhi/data=!4m7!3m6!1s0x390ce3a6d502fcdd:0x815ff619eadff235!8m2!3d28.5918991!4d77.2433834!16s%2Fm%2F04ybd07!19sChIJ3fwC1abjDDkRNfLf6hn2X4E?authuser=0&hl=en&rclk=1,"28.5918991,77.2433834"
Chandni Masjid,Mosque,"Chandni Masjid, R3-A2 Block, Block N 2, Mohan Garden, Razapur Khurd, Delhi, 110059","R3-A2 Block, Block N 2, Mohan Garden, Razapur Khurd",,Delhi,110059,Delhi,IN,https://www.google.com/maps/place/Chandni+Masjid/data=!4m7!3m6!1s0x390d05138ed56ac7:0xc98e44c96cd806b2!8m2!3d28.6349843!4d77.0370805!16s%2Fg%2F11gbl4mmgg!19sChIJx2rVjhMFDTkRsgbYbMlEjsk?authuser=0&hl=en&rclk=1,"28.6349843,77.0370805"
Sabz Masjid,Mosque,"Sabz Masjid, 3571, Lalkuan Bazar Rd, Bazar Sirkiwalan, Lal Kuan Bazar, Chandni Chowk, Delhi, 110006","Bazar Sirkiwalan, Lal Kuan Bazar, Chandni Chowk","3571, Lalkuan Bazar Rd",Delhi,110006,Delhi,IN,https://www.google.com/maps/place/Sabz+Masjid/data=!4m7!3m6!1s0x390cfd16a94877a7:0x7b35bb653cd42e20!8m2!3d28.652163!4d77.223599!16s%2Fm%2F04q247t!19sChIJp3dIqRb9DDkRIC7UPGW7NXs?authuser=0&hl=en&rclk=1,"28.652162999999998,77.223599"
Shahi Masjid Vasant Vihar msjd shhy,Mosque,"H47X+FQ4 Shahi Masjid Vasant Vihar msjd shhy, Muradabad Pahari, D3 St, near Shri Raam School, Vasant Vihar, New Delhi, Delhi 110057",Vasant Vihar,"H47X+FQ4, Muradabad Pahari, D3 St, near Shri Raam School",New Delhi,110057,Delhi,IN,https://www.google.com/maps/place/Shahi+Masjid+Vasant+Vihar+%D9%85%D8%B3%D8%AC%D8%AF+%D8%B4%D8%A7%DB%81%DB%8C%E2%80%AD/data=!4m7!3m6!1s0x390d1dacc6b7318b:0xd650b525228c3634!8m2!3d28.5636477!4d77.1494618!16s%2Fg%2F1xg5r1k0!19sChIJizG3xqwdDTkRNDaMIiW1UNY?authuser=0&hl=en&rclk=1,"28.563647699999997,77.1494618"
Chand Masjid,Mosque,"2, Chand Masjid, 10, Jafrabad Main Rd, New Seelampur, Shahdara, Delhi, 110053","New Seelampur, Shahdara","2, 10, Jafrabad Main Rd",Delhi,110053,Delhi,IN,https://www.google.com/maps/place/Chand+Masjid/data=!4m7!3m6!1s0x390cfc63cd51dcb5:0xa9326b0b79e84cf8!8m2!3d28.6768679!4d77.270182!16s%2Fg%2F1tq8gyhd!19sChIJtdxRzWP8DDkR-EzoeQtrMqk?authuser=0&hl=en&rclk=1,"28.676867899999998,77.27018199999999"
Chand Masjid Delhi msjd chnd,Mosque,"M8HJ+Q89 Chand Masjid Delhi msjd chnd, Block D, Old Seemapuri, Delhi, 110095","Block D, Old Seemapuri",M8HJ+Q89,Delhi,110095,Delhi,IN,https://www.google.com/maps/place/Chand+Masjid+Delhi+%D9%85%D8%B3%D8%AC%D8%AF+%DA%86%D8%A7%D9%86%D8%AF%E2%80%AD/data=!4m7!3m6!1s0x390cfb007267e3d3:0xf76fdcb0b751b4ae!8m2!3d28.6794231!4d77.3308684!16s%2Fg%2F1tt1flys!19sChIJ0-NncgD7DDkRrrRRt7Dcb_c?authuser=0&hl=en&rclk=1,"28.679423099999998,77.3308684"
Chand Masjid Sector-7 Dwarka,Mosque,"Chand Masjid Sector-7 Dwarka, Dada Dev Colony, Block C, Block RZ, Palam, Delhi, 110075","Dada Dev Colony, Block C, Block RZ, Palam",,Delhi,110075,Delhi,IN,https://www.google.com/maps/place/Chand+Masjid+Sector-7+Dwarka/data=!4m7!3m6!1s0x390d1b14514238f9:0x6508b6cea92bffd6!8m2!3d28.5835973!4d77.0761507!16s%2Fg%2F11cn17wycw!19sChIJ-ThCURQbDTkR1v8rqc62CGU?authuser=0&hl=en&rclk=1,"28.583597299999997,77.0761507"
Chand Masjid msjd chnd,Mosque,"J7FR+HCJ Chand Masjid msjd chnd, Block B, Saraswati Gali, Vinod Nagar East, Delhi, 110092","Block B, Saraswati Gali, Vinod Nagar East",J7FR+HCJ,Delhi,110092,Delhi,IN,https://www.google.com/maps/place/Chand+Masjid+%D9%85%D8%B3%D8%AC%D8%AF+%DA%86%D8%A7%D9%86%D8%AF%E2%80%AD/data=!4m7!3m6!1s0x390ce4a95cda3d2b:0xcab349efd1a3d0e5!8m2!3d28.6239676!4d77.2910017!16s%2Fg%2F11xw1d7j7!19sChIJKz3aXKnkDDkR5dCj0e9Js8o?authuser=0&hl=en&rclk=1,"28.6239676,77.2910017"
Chand Masjid,Mosque,"Chand Masjid, H225, Gali No. 6, Block F, Shastri Park, Shahdara, New Delhi, Delhi, 110053","Block F, Shastri Park, Shahdara","H225, Gali No. 6","New Delhi, Delhi",110053,Delhi,IN,https://www.google.com/maps/place/Chand+Masjid/data=!4m7!3m6!1s0x390cfc58b38c07bb:0xbe9c4240480cbed0!8m2!3d28.6740505!4d77.2574231!16s%2Fg%2F11bx5q0rf1!19sChIJuweMs1j8DDkR0L4MSEBCnL4?authuser=0&hl=en&rclk=1,"28.6740505,77.2574231"
Dibiya wali Masjid,Mosque,"G54H+M78 Dibiya wali Masjid, Mehrauli-Gurgaon Road, M G Road, Dr Ambedkar Colony, Chhatarpur, New Delhi, Delhi 110030","Dr Ambedkar Colony, Chhatarpur","G54H+M78, Mehrauli-Gurgaon Road, M G Road",New Delhi,110030,Delhi,IN,https://www.google.com/maps/place/Dibiya+wali+Masjid/data=!4m7!3m6!1s0x390d1e16e71c9d4d:0x176d7f6163772932!8m2!3d28.5091206!4d77.1796709!16s%2Fg%2F119w0d7q4!19sChIJTZ0c5xYeDTkRMil3Y2F_bRc?authuser=0&hl=en&rclk=1,"28.5091206,77.17967089999999"
Masjid Basant Vihar Jumma,Mosque,"Masjid Basant Vihar Jumma, Juma 2:30 Shankar Vihar, near IGI Airport, Shankar Vihar, New Delhi, Delhi 110010",Shankar Vihar,"Juma 2:30 Shankar Vihar, near IGI Airport",New Delhi,110010,Delhi,IN,https://www.google.com/maps/place/Masjid+Basant+Vihar+Jumma/data=!4m7!3m6!1s0x390d1cf9351869c5:0x4156c39cbdc5bc6e!8m2!3d28.5744872!4d77.1426721!16s%2Fg%2F11c7swq8tz!19sChIJxWkYNfkcDTkRbrzFvZzDVkE?authuser=0&hl=en&rclk=1,"28.5744872,77.1426721"
Saeediya Masjid,Mosque,"Saeediya Masjid, 45, New Silampur Gali, Block A, Chauhan Banger, Shahdara, Delhi, 110031","Block A, Chauhan Banger, Shahdara","45, New Silampur Gali",Delhi,110031,Delhi,IN,https://www.google.com/maps/place/Saeediya+Masjid/data=!4m7!3m6!1s0x390cfc61230920b1:0xd4902005e34cb106!8m2!3d28.678415!4d77.2672561!16s%2Fg%2F11c6qcjmhv!19sChIJsSAJI2H8DDkRBrFM4wUgkNQ?authuser=0&hl=en&rclk=1,"28.678414999999998,77.2672561"
Masjid Shahi shhy msjd,Mosque,"Masjid Shahi shhy msjd, Sector 5 Rd, Sector 5, Rama Krishna Puram, New Delhi, Delhi 110022","Sector 5, Rama Krishna Puram",Sector 5 Rd,New Delhi,110022,Delhi,IN,https://www.google.com/maps/place/Masjid+Shahi+%D8%B4%D8%A7%DB%81%DB%8C+%D9%85%D8%B3%D8%AC%D8%AF%E2%80%AD/data=!4m7!3m6!1s0x390d1d980824e25f:0x2dae857cbcc7831f!8m2!3d28.562477!4d77.17156!16s%2Fg%2F1ptx9jy5j!19sChIJX-IkCJgdDTkRH4PHvHyFri0?authuser=0&hl=en&rclk=1,"28.562476999999998,77.17156"
Chand Masjid,Mosque,"Chand Masjid, E-2, Gali No. 2, Nehru Vihar, Old Mustafabad, New Mustafabad, New Delhi, Delhi, 110094","Nehru Vihar, Old Mustafabad, New Mustafabad","E-2, Gali No. 2","New Delhi, Delhi",110094,Delhi,IN,https://www.google.com/maps/place/Chand+Masjid/data=!4m7!3m6!1s0x390cfc19cd939201:0x5fba93c8c441398e!8m2!3d28.7124118!4d77.2708219!16s%2Fg%2F1pp2vk4kc!19sChIJAZKTzRn8DDkRjjlBxMiTul8?authuser=0&hl=en&rclk=1,"28.712411799999998,77.2708219"
Masjid Chishtiya,Mosque,"Masjid Chishtiya, A Block, Resettlement Colony, Sector 1 Dwarka, Dwarka, New Delhi, Delhi 110075","Sector 1 Dwarka, Dwarka","A Block, Resettlement Colony","New Delhi, Delhi",110075,Delhi,IN,https://www.google.com/maps/place/Masjid+Chishtiya/data=!4m7!3m6!1s0x390d1b39fc220e61:0xafc3334e15039693!8m2!3d28.5978695!4d77.0740838!16s%2Fg%2F12hv2l16_!19sChIJYQ4i_DkbDTkRk5YDFU4zw68?authuser=0&hl=en&rclk=1,"28.597869499999998,77.0740838"
Gaosieya Jama Masjid,Mosque,"Gaosieya Jama Masjid, 9, Block C, Madhu Vihar, Delhi, 110059","Block C, Block D, Madhu Vihar",9,Delhi,110059,Delhi,IN,https://www.google.com/maps/place/Gaosieya+Jama+Masjid/data=!4m7!3m6!1s0x390d1b2e6b01c6f9:0x4a2448fa4f9cbcb!8m2!3d28.6018899!4d77.0663549!16s%2Fg%2F11f15j2zfy!19sChIJ-cYBay4bDTkRy8v5pI9EogQ?authuser=0&hl=en&rclk=1,"28.6018899,77.0663549"
Chand masjid,Mosque,"M399+FX5 Chand masjid, G-Block, Nihal Vihar, Nangloi, Delhi, 110041","Nihal Vihar, Nangloi","M399+FX5, G-Block",Delhi,110041,Delhi,IN,https://www.google.com/maps/place/Chand+masjid/data=!4m7!3m6!1s0x390d044510305a0b:0x9a8b0e4485cf382b!8m2!3d28.6686328!4d77.0699742!16s%2Fg%2F11gb405b6f!19sChIJC1owEEUEDTkRKzjPhUQOi5o?authuser=0&hl=en&rclk=1,"28.668632799999997,77.06997419999999"
Masjid Dhobiyan,Mosque,"Masjid Dhobiyan, 3280, Delhi Gate Bazar, Kucha Alam, Old Dariya Ganj, New Delhi, Delhi 110002","Chatta lal Miya, Chandni Mahal, Old Delhi","3280, Delhi Gate Bazar, Kucha Alam, Old Dariya Ganj","New Delhi, Delhi",110002,Delhi,IN,https://www.google.com/maps/place/Masjid+Dhobiyan/data=!4m7!3m6!1s0x390cfd273340d127:0x7d6d2edf4a35f8d9!8m2!3d28.6425263!4d77.2386389!16s%2Fg%2F11cs5s2vzb!19sChIJJ9FAMyf9DDkR2fg1St8ubX0?authuser=0&hl=en&rclk=1,"28.6425263,77.2386389"
Masjid chaar chaand Wali,Mosque,"Masjid chaar chaand Wali, 110002, SKD Basti, Press Enclave, Ajmeri Gate, New Delhi, Delhi 110002","SKD Basti, Press Enclave, Ajmeri Gate",110002,"New Delhi, Delhi",110002,Delhi,IN,https://www.google.com/maps/place/Masjid+chaar+chaand+Wali/data=!4m7!3m6!1s0x390cfd24ca5725d7:0xf2ede4e030e7f940!8m2!3d28.6401283!4d77.2291827!16s%2Fg%2F11c2l47c0w!19sChIJ1yVXyiT9DDkRQPnnMODk7fI?authuser=0&hl=en&rclk=1,"28.640128299999997,77.2291827"
Chand Masjid msjd chnd,Mosque,"G722+6QH Chand Masjid msjd chnd, Block H, Sangam Vihar, New Delhi, Delhi 110062","Block H, Sangam Vihar",G722+6QH,New Delhi,110062,Delhi,IN,https://www.google.com/maps/place/Chand+Masjid+%D9%85%D8%B3%D8%AC%D8%AF+%DA%86%D8%A7%D9%86%D8%AF%E2%80%AD/data=!4m7!3m6!1s0x390ce10fffdac40d:0x5e63edae8007a0dc!8m2!3d28.5005721!4d77.2519693!16s%2Fg%2F11g6ngyjk_!19sChIJDcTa_w_hDDkR3KAHgK7tY14?authuser=0&hl=en&rclk=1,"28.5005721,77.2519693"
Bulaki Shaha Masjid,Mosque,"RVWW+5MM Bulaki Shaha Masjid, Mahan Road, Bulaki Adda Chouraha, Lucknow, Uttar Pradesh 226003",Tikaitganj,"RVWW+5MM, Mahan Road, Bulaki Adda Chouraha",Lucknow,226003,Uttar Pradesh,IN,https://www.google.com/maps/place/Bulaki+Shaha+Masjid/data=!4m7!3m6!1s0x399bfe7790f447c7:0x3b22fac8287bab43!8m2!3d26.845462!4d80.896678!16s%2Fg%2F1jgm1w0kj!19sChIJx0f0kHf-mzkRQ6t7KMj6Ijs?authuser=0&hl=en&rclk=1,"26.845461999999998,80.896678"
Madina Masjid,Mosque,"WJFX+R9P Madina Masjid, Chanda Colony,, Bijainagar, Rajasthan",,"WJFX+R9P, Chanda Colony,",Bijainagar,,Rajasthan,IN,https://www.google.com/maps/place/Madina+Masjid/data=!4m7!3m6!1s0x39693f0253f992b3:0x1533f02bbc589b9f!8m2!3d25.9245953!4d74.6484421!16s%2Fg%2F11cn6jw7nh!19sChIJs5L5UwI_aTkRn5tYvCvwMxU?authuser=0&hl=en&rclk=1,"25.9245953,74.6484421"
Masjid CHAND msjd chnd,Mosque,"P752+82G Masjid CHAND msjd chnd, Gali Number 16, Shriram Colony, Block D, Rajiv Nagar, Gokalpur, Delhi, 110094","Shriram Colony, Block D, Rajiv Nagar, Gokalpur","P752+82G, Gali Number 16",Delhi,110094,Delhi,IN,https://www.google.com/maps/place/Masjid+CHAND+%D9%85%D8%B3%D8%AC%D8%AF+%DA%86%D8%A7%D9%86%D8%AF%E2%80%AD/data=!4m7!3m6!1s0x390cfc2fc1c4103d:0x783f9558de6c3bdf!8m2!3d28.7083045!4d77.2500813!16s%2Fg%2F11cn0rsg4b!19sChIJPRDEwS_8DDkR3zts3liVP3g?authuser=0&hl=en&rclk=1,"28.708304499999997,77.25008129999999"
Rahmani masjid msjd rHmny,Mosque,"Rahmani masjid msjd rHmny, A Block Street No.8, Shri Ram Colony, Block A, Rajiv Nagar, Khazoori Khas, Delhi, 110094","Shri Ram Colony, Block A, Rajiv Nagar, Khazoori Khas",A Block Street No.8,Delhi,110094,Delhi,IN,https://www.google.com/maps/place/Rahmani+masjid+%D9%85%D8%B3%D8%AC%D8%AF+%D8%B1%D8%AD%D9%85%D8%A7%D9%86%DB%8C%E2%80%AD/data=!4m7!3m6!1s0x390cfc2461bfdfff:0xa929b8f05fcc2bde!8m2!3d28.7093639!4d77.2564304!16s%2Fg%2F11c34p1fh3!19sChIJ_9-_YST8DDkR3ivMX_C4Kak?authuser=0&hl=en&rclk=1,"28.7093639,77.2564304"
CHAND MASJID (Choti Masjid),Mosque,"CHAND MASJID (Choti Masjid), Sayed Gaon, Nangloi Saiyed Village, Paschim Vihar, New Delhi, Delhi, 110087","Sayed Gaon, Nangloi Saiyed Village, Paschim Vihar",,"New Delhi, Delhi",110087,Delhi,IN,https://www.google.com/maps/place/CHAND+MASJID+%28Choti+Masjid%29/data=!4m7!3m6!1s0x390d05d48be0c7df:0x602d623500a0a553!8m2!3d28.6608357!4d77.0820913!16s%2Fg%2F11fk8zm9k5!19sChIJ38fgi9QFDTkRU6WgADViLWA?authuser=0&hl=en&rclk=1,"28.6608357,77.0820913"
Chand Masjid,Mosque,"Chand Masjid, 2433 Chand masjid, Gali Number 15, Block L 1, Devli, Sangam Vihar, New Delhi, Delhi 110080","Block L 1, Devli, Sangam Vihar","2433 Chand masjid, Gali Number 15",New Delhi,110080,Delhi,IN,https://www.google.com/maps/place/Chand+Masjid/data=!4m7!3m6!1s0x390ce1838aeb0cdf:0x69969d9fc729696a!8m2!3d28.4904987!4d77.2320345!16s%2Fg%2F11ghrkmr6x!19sChIJ3wzrioPhDDkRamkpx5-dlmk?authuser=0&hl=en&rclk=1,"28.4904987,77.2320345"
Masjid Shah Rehmatullah,Mosque,"WF69+H96 Masjid Shah Rehmatullah, Mohalla Qureshi, Fazalpur, Amroha, Uttar Pradesh 244221",Fazalpur,"WF69+H96, Mohalla Qureshi",Amroha,244221,Uttar Pradesh,IN,https://www.google.com/maps/place/Masjid+Shah+Rehmatullah/data=!4m7!3m6!1s0x390b0805c8affc3d:0x37fa2da6cccb2478!8m2!3d28.9114175!4d78.4684026!16s%2Fg%2F11df2xdf_h!19sChIJPfyvyAUICzkReCTLzKYt-jc?authuser=0&hl=en&rclk=1,"28.9114175,78.46840259999999"
Masjid Mashal Chiyan,Mosque,"Masjid Mashal Chiyan, 2100, Pahari Bhojla Rd, Pahari Bhojla, Sita Ram Bazar, Old Delhi, Delhi, 110006","Pahari Bhojla, Sita Ram Bazar, Old Delhi","2100, Pahari Bhojla Rd",Delhi,110006,Delhi,IN,https://www.google.com/maps/place/Masjid+Mashal+Chiyan/data=!4m7!3m6!1s0x390cfd225b6ed379:0x9d5cccd781f0a815!8m2!3d28.6454716!4d77.232231!16s%2Fg%2F11f1211zsv!19sChIJedNuWyL9DDkRFajwgdfMXJ0?authuser=0&hl=en&rclk=1,"28.6454716,77.232231"
Masjid Badi msjd,Mosque,"Masjid Badi msjd, 893,, Chittli Qabar Bazar Rd, Jama Masjid, Chandni Chowk, New Delhi, Delhi 110006","Bazar Chitli Qabar, Kucha Chelan, Jama Masjid, Chandni Chowk","893,, Chittli Qabar Bazar Rd","New Delhi, Delhi",110006,Delhi,IN,https://www.google.com/maps/place/Masjid+Badi+%D9%85%D8%B3%D8%AC%D8%AF%E2%80%AD/data=!4m7!3m6!1s0x390cfd219cfec1f3:0x93ccacb281d71709!8m2!3d28.645321!4d77.2357133!16s%2Fg%2F12m98gjn5!19sChIJ88H-nCH9DDkRCRfXgbKszJM?authuser=0&hl=en&rclk=1,"28.645321,77.2357133"
Chand Masjid,Mosque,"V75R+CX5 Chand Masjid, Khekra, Uttar Pradesh 250101",,V75R+CX5,Khekra,250101,Uttar Pradesh,IN,https://www.google.com/maps/place/Chand+Masjid/data=!4m7!3m6!1s0x390c567de1a8f57f:0x3285b18afee4e6f0!8m2!3d28.8585222!4d77.2924698!16s%2Fg%2F11c5j7cgff!19sChIJf_Wo4X1WDDkR8Obk_oqxhTI?authuser=0&hl=en&rclk=1,"28.8585222,77.29246979999999"
Chand Masjid,Mosque,"H3RQ+2GJ Chand Masjid, Block B, Mangalpuri II, Palam, New Delhi, Delhi, 110045","Block B, Mangalpuri II, Palam",H3RQ+2GJ,"New Delhi, Delhi",110045,Delhi,IN,https://www.google.com/maps/place/Chand+Masjid/data=!4m7!3m6!1s0x390d1b42f1d28cff:0xf521c16f1f453e9c!8m2!3d28.590076!4d77.0887635!16s%2Fg%2F11hcds8s65!19sChIJ_4zS8UIbDTkRnD5FH2_BIfU?authuser=0&hl=en&rclk=1,"28.590076,77.0887635"
Masjid Chand Wali,Mosque,"M62P+M65 Masjid Chand Wali, GALI KHAN KHANA, Jama Masjid, Chandni Chowk, Delhi, 110006","Meena Bazaar, Jama Masjid, Chandni Chowk","M62P+M65, GALI KHAN KHANA",Delhi,110006,Delhi,IN,https://www.google.com/maps/place/Masjid+Chand+Wali/data=!4m7!3m6!1s0x390cfd1ec5555559:0x16c411cacfe948ea!8m2!3d28.6516284!4d77.2356067!16s%2Fg%2F11fx7ss058!19sChIJWVVVxR79DDkR6kjpz8oRxBY?authuser=0&hl=en&rclk=1,"28.6516284,77.23560669999999"
masjida-e-chand,Mosque,"Q66V+3V9 masjida-e-chand, Ghaziabad, Uttar Pradesh 201102",,Q66V+3V9,Ghaziabad,201102,Uttar Pradesh,IN,https://www.google.com/maps/place/masjida-e-chand/data=!4m7!3m6!1s0x390cfefef31f7c41:0xb88af4ba744fb9af!8m2!3d28.7601726!4d77.2447387!16s%2Fg%2F11f_j1kks8!19sChIJQXwf8_7-DDkRr7lPdLr0irg?authuser=0&hl=en&rclk=1,"28.760172599999997,77.2447387"
Jama Masjid Chanda,Mosque,"GXJG+H38 Jama Masjid Chanda, Chanda, Dhanseshpur, Bihar 852116",,GXJG+H38,"Chanda, Dhanseshpur",852116,Bihar,IN,https://www.google.com/maps/place/Jama+Masjid+Chanda/data=!4m7!3m6!1s0x39f02c0683e3c33f:0xfc953eaaa097495!8m2!3d25.5314107!4d86.9752145!16s%2Fg%2F11fy_qx32z!19sChIJP8PjgwYs8DkRlXQJqupTyQ8?authuser=0&hl=en&rclk=1,"25.5314107,86.97521449999999"
Masjid Chandi Wali,Mosque,"J6XF+P3C Masjid Chandi Wali, Kucha Pandit Rd, Gali Sakko Wali, Shah Ganj, Old Delhi, New Delhi, Delhi, 110006","Gali Sakko Wali, Shah Ganj, Old Delhi","J6XF+P3C, Kucha Pandit Rd","New Delhi, Delhi",110006,Delhi,IN,https://www.google.com/maps/place/Masjid+Chandi+Wali/data=!4m7!3m6!1s0x390cfd15d1f3bf65:0x8f482c2361976a57!8m2!3d28.6493133!4d77.2226521!16s%2Fg%2F11fz6bb8hb!19sChIJZb_z0RX9DDkRV2qXYSMsSI8?authuser=0&hl=en&rclk=1,"28.6493133,77.22265209999999"
Chand Masjid Kalchhina,Mosque,"QH9M+VRW Chand Masjid Kalchhina, Kalchhina, Uttar Pradesh 245304",,QH9M+VRW,Kalchhina,,Uttar Pradesh,IN,https://www.google.com/maps/place/Chand+Masjid+Kalchhina/data=!4m7!3m6!1s0x390c8b41d4a18723:0x4cb39e0b7abe5aa7!8m2!3d28.769726!4d77.5845707!16s%2Fg%2F11f383q945!19sChIJI4eh1EGLDDkRp1q-egues0w?authuser=0&hl=en&rclk=1,"28.769726,77.5845707"
Ansari Chanda masjid,Mosque,"38FR+G7M Ansari Chanda masjid, Mahuar Kalan, Ilia, Bihar 232118",,38FR+G7M,"Mahuar Kalan, Ilia",,Bihar,IN,https://www.google.com/maps/place/Ansari+Chanda+masjid/data=!4m7!3m6!1s0x398e6d22d7282521:0xb31570c7c7f66010!8m2!3d25.0738498!4d83.3406711!16s%2Fg%2F11gwmf9grw!19sChIJISUo1yJtjjkREGD2x8dwFbM?authuser=0&hl=en&rclk=1,"25.073849799999998,83.3406711"
Masjid Sanauji,Mosque,"Masjid Sanauji, Shop No. 1630, Lal Kuan, Lalkuan Bazar Rd, Baradari, Chandni Chowk, New Delhi, Delhi 110006","Bazar Sirkiwalan, Baradari, Chandni Chowk","Shop No. 1630, Lal Kuan, Lalkuan Bazar Rd","New Delhi, Delhi",110006,Delhi,IN,https://www.google.com/maps/place/Masjid+Sanauji/data=!4m7!3m6!1s0x390cfd13fe3ea72d:0x27ea23bc5f650202!8m2!3d28.6529317!4d77.2232485!16s%2Fg%2F12hplq4pp!19sChIJLac-_hP9DDkRAgJlX7wj6ic?authuser=0&hl=en&rclk=1,"28.6529317,77.2232485"
Chand Masjid,Mosque,"HQCM+97P Chand Masjid, Bhamra, Uttar Pradesh 203408",,HQCM+97P,Bhamra,203408,Uttar Pradesh,IN,https://www.google.com/maps/place/Chand+Masjid/data=!4m7!3m6!1s0x390c99d63de479f3:0xfe2a5004dd3b6613!8m2!3d28.5709654!4d77.7831994!16s%2Fg%2F11q24bgr73!19sChIJ83nkPdaZDDkRE2Y73QRQKv4?authuser=0&hl=en&rclk=1,"28.5709654,77.7831994"
Kuwe wali masjid,Mosque,"F866+X3V Kuwe wali masjid, Unnamed Road, Sunpata, Baramjidpur Chanda, Uttar Pradesh 246764",,"F866+X3V, Unnamed Road","Sunpata, Baramjidpur Chanda",246764,Uttar Pradesh,IN,https://www.google.com/maps/place/Kuwe+wali+masjid/data=!4m7!3m6!1s0x390bdd4287af3fff:0x6c0bdf6c1cdb7f0e!8m2!3d29.4624897!4d78.3101649!16s%2Fg%2F11h_yrrk_5!19sChIJ_z-vh0LdCzkRDn_bHGzfC2w?authuser=0&hl=en&rclk=1,"29.4624897,78.31016489999999"
Zama Masjid Chandaus,Mosque,"3RJX+XCC Zama Masjid Chandaus, Zama masjid, Chandaus, Uttar Pradesh 202132",,"3RJX+XCC, Zama masjid",Chandaus,202132,Uttar Pradesh,IN,https://www.google.com/maps/place/Zama+Masjid+Chandaus/data=!4m7!3m6!1s0x39735462b5fde8a1:0x57c77f30984fc271!8m2!3d28.0824331!4d77.8485156!16s%2Fg%2F11g6xqxqk_!19sChIJoej9tWJUczkRccJPmDB_x1c?authuser=0&hl=en&rclk=1,"28.0824331,77.8485156"
Masjid,Mosque,"Masjid, Shadab Textile Mills, Ltd. Shahkot, Lahore - Sheikhupura - Faisalabad Rd, Chak 85 RB Dala Chanda Singh, Nankana Sahib, Punjab, Pakistan",,"Masjid, Shadab Textile Mills, Ltd. Shahkot, Lahore - Sheikhupura - Faisalabad Rd",Chak 85 RB Dala Chanda Singh,,"Nankana Sahib, Punjab",PK,https://www.google.com/maps/place/Masjid/data=!4m7!3m6!1s0x39189efbe953bda3:0x8b389c631ed08466!8m2!3d31.5838057!4d73.5192648!16s%2Fg%2F11x9pzhnl!19sChIJo71T6fueGDkRZoTQHmOcOIs?authuser=0&hl=en&rclk=1,"31.5838057,73.5192648"
chanda khan tola masjid,Mosque,"GXVG+QPP chanda khan tola masjid, Hidaetullah Jamadar Ja, Bihar 852116",,GXVG+QPP,Hidaetullah Jamadar Ja,852116,Bihar,IN,https://www.google.com/maps/place/chanda+khan+tola+masjid/data=!4m7!3m6!1s0x39f02b0278ef8f83:0x87df57113cae8cba!8m2!3d25.544456!4d86.976825!16s%2Fg%2F11f8hym1xn!19sChIJg4_veAIr8DkRuoyuPBFX34c?authuser=0&hl=en&rclk=1,"25.544456,86.97682499999999"
Masjid,Mosque,"Q7JJ+7WC Masjid, Pavi Sadakpur, Uttar Pradesh 201102",,Q7JJ+7WC,Pavi Sadakpur,201102,Uttar Pradesh,IN,https://www.google.com/maps/place/Masjid/data=!4m7!3m6!1s0x390cff3247b3c4d7:0xf1b7407f946dd8cc!8m2!3d28.7806806!4d77.2822504!16s%2Fg%2F11ggz8tfhy!19sChIJ18SzRzL_DDkRzNhtlH9At_E?authuser=0&hl=en&rclk=1,"28.7806806,77.2822504"
Jama Masjid Chandheri,Mosque,"7F9P+2V2 Jama Masjid Chandheri, Chandheri, Uttar Pradesh 251309",,7F9P+2V2,Chandheri,251309,Uttar Pradesh,IN,https://www.google.com/maps/place/Jama+Masjid+Chandheri/data=!4m7!3m6!1s0x390c3fe1304b95ef:0x494a3bf62457618c!8m2!3d29.2675113!4d77.4871537!16s%2Fg%2F11kj_bnmnr!19sChIJ75VLMOE_DDkRjGFXJPY7Skk?authuser=0&hl=en&rclk=1,"29.2675113,77.4871537"
Chand Masjid,Mosque,"RRQG+H2M Chand Masjid, Near Police Station, Doraha, Uttar Pradesh",,"RRQG+H2M, Near Police Station","Doraha, Moradabad",,Uttar Pradesh,IN,https://www.google.com/maps/place/Chand+Masjid/data=!4m7!3m6!1s0x390afa1258998489:0x6bf67413fca5a90d!8m2!3d28.8389713!4d78.8250602!16s%2Fg%2F11gglsfprt!19sChIJiYSZWBL6CjkRDaml_BN09ms?authuser=0&hl=en&rclk=1,"28.838971299999997,78.8250602"
Chanda Masjid,Mosque,"7VWW+27F Chanda Masjid, GT Rd, New Colony, Srikakulam, Andhra Pradesh 532001",New Colony,"7VWW+27F, GT Rd",Srikakulam,,Andhra Pradesh,IN,https://www.google.com/maps/place/Chanda+Masjid/data=!4m7!3m6!1s0x3a3c151b4e01c6a3:0xd7a5d0a28a6ca705!8m2!3d18.2950623!4d83.8956704!16s%2Fg%2F11gfngz6cn!19sChIJo8YBThsVPDoRBadsiqLQpdc?authuser=0&hl=en&rclk=1,"18.295062299999998,83.8956704"
Masjid Hakeem Noor- Ud- Din,Mosque,"Masjid Hakeem Noor- Ud- Din, 993, Chittli Qabar Bazar Rd, Bazar , Chittli Qabar , Jama Masjid, Sheesh Mahal, Old Delhi, Delhi, 110006","Bazar , Chittli Qabar , Jama Masjid, Sheesh Mahal, Old Delhi","993, Chittli Qabar Bazar Rd",Delhi,110006,Delhi,IN,https://www.google.com/maps/place/Masjid+Hakeem+Noor-+Ud-+Din/data=!4m7!3m6!1s0x390cfd2187c0212b:0xcb35bc06021712d1!8m2!3d28.6457364!4d77.234858!16s%2Fg%2F11b5qw82xw!19sChIJKyHAhyH9DDkR0RIXAga8Ncs?authuser=0&hl=en&rclk=1,"28.645736399999997,77.234858"
Masjid Chanda Khan,Mosque,"R27J+QVG Masjid Chanda Khan, Unnamed Road, Kuncha Lala Miyan, Rampur, Uttar Pradesh 244901",Kuncha Lala Miyan,"R27J+QVG, Unnamed Road",Rampur,244901,Uttar Pradesh,IN,https://www.google.com/maps/place/Masjid+Chanda+Khan/data=!4m7!3m6!1s0x390a8d88b6599cbb:0xc399b8fc5471ab7b!8m2!3d28.814445!4d79.0321919!16s%2Fg%2F11gjhnnzfk!19sChIJu5xZtoiNCjkRe6txVPy4mcM?authuser=0&hl=en&rclk=1,"28.814445,79.0321919"
Madeena masjid,Mosque,"WF7C+774 Madeena masjid, Shivdwara, Katkui, Amroha, Uttar Pradesh 244221","Shivdwara, Katkui",WF7C+774,Amroha,244221,Uttar Pradesh,IN,https://www.google.com/maps/place/Madeena+masjid/data=!4m7!3m6!1s0x390b09c62f7be765:0xe3d7ed7221f002c3!8m2!3d28.9131436!4d78.4707104!16s%2Fg%2F11qh32bypv!19sChIJZed7L8YJCzkRwwLwIXLt1-M?authuser=0&hl=en&rclk=1,"28.913143599999998,78.4707104"
Jama Masjid Chanda,Mosque,"JQ3P+3HC Jama Masjid Chanda, Chanda, Bihar 802160",,JQ3P+3HC,Chanda,802160,Bihar,IN,https://www.google.com/maps/place/Jama+Masjid+Chanda/data=!4m7!3m6!1s0x3992a86efffffff9:0x57af4df326abad94!8m2!3d25.6026962!4d84.7863813!16s%2Fg%2F11gbkrp__z!19sChIJ-f___26okjkRlK2rJvNNr1c?authuser=0&hl=en&rclk=1,"25.6026962,84.7863813"
Madina Masjid,Mosque,"X3X7+J2J Madina Masjid, Chaanda, Uttar Pradesh 242306",,X3X7+J2J,Chaanda,242306,Uttar Pradesh,IN,https://www.google.com/maps/place/Madina+Masjid/data=!4m7!3m6!1s0x399f9e5af212ec79:0x43840d419e378b33!8m2!3d27.999088!4d80.0625229!16s%2Fg%2F11dyzb46d9!19sChIJeewS8lqenzkRM4s3nkENhEM?authuser=0&hl=en&rclk=1,"27.999088,80.06252289999999"
Chanda Jama masjid,Mosque,"84XV+5C Chanda Jama masjid, Khaira, Bihar 854338",,84XV+5C,Khaira,,Bihar,IN,https://www.google.com/maps/place/Chanda+Jama+masjid/data=!4m7!3m6!1s0x39efa13b5a6ec455:0x8b9dfcb8f146d117!8m2!3d26.3479018!4d87.1435092!16s%2Fg%2F11sw383ybg!19sChIJVcRuWjuh7zkRF9FG8bj8nYs?authuser=0&hl=en&rclk=1,"26.3479018,87.1435092"
Masjid Chah hathi,Mosque,"M63M+FM7 Masjid Chah hathi, Kucha Bulaki Begam, Chandni Chowk, New Delhi, Delhi, 110006","Kucha Bulaki Begam, Chandni Chowk",M63M+FM7,"New Delhi, Delhi",110006,Delhi,IN,https://www.google.com/maps/place/Masjid+Chah+hathi/data=!4m7!3m6!1s0x390cfd21be28681f:0x89414e118639a027!8m2!3d28.6536676!4d77.2341741!16s%2Fg%2F11g5ssbglz!19sChIJH2goviH9DDkRJ6A5hhFOQYk?authuser=0&hl=en&rclk=1,"28.6536676,77.23417409999999"
Masjid,Mosque,"Masjid, 2508, Fasil Rd, Gali Sakko Wali, Shah Ganj, Chandni Chowk, New Delhi, Delhi, 110006","Gali Sakko Wali, Shah Ganj, Chandni Chowk","2508, Fasil Rd","New Delhi, Delhi",110006,Delhi,IN,https://www.google.com/maps/place/Masjid/data=!4m7!3m6!1s0x390cfd15c9a8a4b1:0xf975aada141da03e!8m2!3d28.6491552!4d77.2220471!16s%2Fg%2F1hm4gjxkd!19sChIJsaSoyRX9DDkRPqAdFNqqdfk?authuser=0&hl=en&rclk=1,"28.6491552,77.2220471"
Masjid,Mosque,"Masjid, 191/1, JJ Colony, New Krishna Park, Vikaspuri, New Delhi, Delhi, 110018","JJ Colony, New Krishna Park, Vikaspuri",191/1,"New Delhi, Delhi",110018,Delhi,IN,https://www.google.com/maps/place/Masjid/data=!4m7!3m6!1s0x390d0523e13f6ebf:0xcf430f5986189794!8m2!3d28.6318645!4d77.0776203!16s%2Fg%2F11kq3krq6c!19sChIJv24_4SMFDTkRlJcYhlkPQ88?authuser=0&hl=en&rclk=1,"28.6318645,77.07762029999999"
Masjid,Mosque,"P9HF+33Q Masjid, Farukh Nagar, Uttar Pradesh 201003",,P9HF+33Q,Farukh Nagar,201003,Uttar Pradesh,IN,https://www.google.com/maps/place/Masjid/data=!4m7!3m6!1s0x390cfa018875b495:0xeea7b0caec7e470d!8m2!3d28.7277145!4d77.3727433!16s%2Fg%2F11f0krqvls!19sChIJlbR1iAH6DDkRDUd-7Mqwp-4?authuser=0&hl=en&rclk=1,"28.727714499999998,77.3727433"
Chand Masjid,Mosque,"W67Q+8WW Chand Masjid, Pali, Uttar Pradesh 250609",,W67Q+8WW,Pali,250609,Uttar Pradesh,IN,https://www.google.com/maps/place/Chand+Masjid/data=!4m7!3m6!1s0x390c53461245f90d:0x699c52aea0a98cc3!8m2!3d28.9136078!4d77.2401827!16s%2Fg%2F11qh7qvpv3!19sChIJDflFEkZTDDkRw4ypoK5SnGk?authuser=0&hl=en&rclk=1,"28.913607799999998,77.24018269999999"
Chand Masjid,Mosque,"QHW9+2GV Chand Masjid, Abidpur Manki, Uttar Pradesh 201204",,QHW9+2GV,Abidpur Manki,,Uttar Pradesh,IN,https://www.google.com/maps/place/Chand+Masjid/data=!4m7!3m6!1s0x390c8ad616ba1c29:0xd2df2f1d37f61c6!8m2!3d28.7951086!4d77.5687971!16s%2Fg%2F11gdqrs4jk!19sChIJKRy6FtaKDDkRxmF_0_HyLQ0?authuser=0&hl=en&rclk=1,"28.7951086,77.5687971"
Hargaon chandan masjid,Mosque,"CCH5+229 Hargaon chandan masjid, Near masjid, kalakedi road, hargaon chandan, Nizampur, Uttar Pradesh 246762",,"CCH5+229, Near masjid, kalakedi road, hargaon chandan",Nizampur,246762,Uttar Pradesh,IN,https://www.google.com/maps/place/Hargaon+chandan+masjid/data=!4m7!3m6!1s0x390bc5ae1152d6c9:0xcc3cca6ac3f3adf6!8m2!3d29.4275265!4d78.4075966!16s%2Fg%2F11hzbvx9ls!19sChIJydZSEa7FCzkR9q3zw2rKPMw?authuser=0&hl=en&rclk=1,"29.4275265,78.40759659999999"
Masjid Shareef Chanda Pora,Mosque,"3RX5+Q4X Masjid Shareef Chanda Pora, Sokalipora, Srinagar, Jammu and Kashmir 190002",Sokalipora,3RX5+Q4X,Srinagar,190002,Jammu and Kashmir,IN,https://www.google.com/maps/place/Masjid+Shareef+Chanda+Pora/data=!4m7!3m6!1s0x38e18568ef3e7613:0x6645b7b856598553!8m2!3d34.0994831!4d74.8078582!16s%2Fg%2F1ptxjtr_3!19sChIJE3Y-72iF4TgRU4VZVri3RWY?authuser=0&hl=en&rclk=1,"34.0994831,74.8078582"
jama Masjid Chanda,Mosque,"73V2+5XM jama Masjid Chanda, Dhaneshpur, Bihar 802217",,73V2+5XM,Dhaneshpur,802217,Bihar,IN,https://www.google.com/maps/place/jama+Masjid+Chanda/data=!4m7!3m6!1s0x398d911b15555553:0xf809b0986c3e24fa!8m2!3d25.2929739!4d84.0524236!16s%2Fg%2F11fy_qgvvp!19sChIJU1VVFRuRjTkR-iQ-bJiwCfg?authuser=0&hl=en&rclk=1,"25.2929739,84.0524236"
CHAND TARA MASJID,Mosque,"M3W8+G76 CHAND TARA MASJID, Balbir Nagar, Kirari Suleman Nagar Village, Sultanpuri, Delhi, 110086","Balbir Nagar, Kirari Suleman Nagar Village, Sultanpuri",M3W8+G76,Delhi,110086,Delhi,IN,https://www.google.com/maps/place/CHAND+TARA+MASJID/data=!4m7!3m6!1s0x390d05f6dea56bd5:0xdb25c51e43afb7cc!8m2!3d28.6962875!4d77.0656406!16s%2Fg%2F11ssd95zpk!19sChIJ1Wul3vYFDTkRzLevQx7FJds?authuser=0&hl=en&rclk=1,"28.6962875,77.0656406"
Chand masjid caaNd msjid,Mosque,"P7RJ+XJ3 Chand masjid caaNd msjid, Nasbandi Colony, Ghaziabad, Uttar Pradesh 201102",Nasbandi Colony,P7RJ+XJ3,Ghaziabad,201102,Uttar Pradesh,IN,https://www.google.com/maps/place/Chand+masjid+%E0%A4%9A%E0%A4%BE%E0%A4%82%E0%A4%A6+%E0%A4%AE%E0%A4%B8%E0%A5%8D%E0%A4%9C%E0%A4%BF%E0%A4%A6/data=!4m7!3m6!1s0x390cff51369290b5:0xadd9573c07eab872!8m2!3d28.7423886!4d77.2815486!16s%2Fg%2F11qq5c8ly4!19sChIJtZCSNlH_DDkRcrjqBzxX2a0?authuser=0&hl=en&rclk=1,"28.742388599999998,77.2815486"
Masjid Chand Wali,Mosque,"Masjid Chand Wali, 2707, Gali Arya Samaj, Sita Ram Bazar, Chandni Chowk, Delhi, 110006","Sita Ram Bazar, Chandni Chowk","2707, Gali Arya Samaj",Delhi,110006,Delhi,IN,https://www.google.com/maps/place/Masjid+Chand+Wali/data=!4m7!3m6!1s0x390cfdfa355e287d:0x592d53bf5ca2d826!8m2!3d28.6449129!4d77.2287833!16s%2Fg%2F11j09_b2zb!19sChIJfSheNfr9DDkRJtiiXL9TLVk?authuser=0&hl=en&rclk=1,"28.644912899999998,77.2287833"
Syed Hasan Masjid,Mosque,"Syed Hasan Masjid, 124, Sector C, Gole Market, New Delhi, Delhi 110001","Sector C, Gole Market",124,New Delhi,110001,Delhi,IN,https://www.google.com/maps/place/Syed+Hasan+Masjid/data=!4m7!3m6!1s0x390cfd263f536697:0x174e102183d9d2d1!8m2!3d28.63939!4d77.2065116!16s%2Fg%2F11pvclr7q6!19sChIJl2ZTPyb9DDkR0dLZgyEQThc?authuser=0&hl=en&rclk=1,"28.63939,77.2065116"
chandni masjid,Mosque,"GJRX+J3W chandni masjid, Noorpur, Uttar Pradesh 203207",,GJRX+J3W,Noorpur,203207,Uttar Pradesh,IN,https://www.google.com/maps/place/chandni+masjid/data=!4m7!3m6!1s0x390c9424202f165b:0xdb8520de46e502cc!8m2!3d28.5416161!4d77.6476932!16s%2Fg%2F11gfmzg0st!19sChIJWxYvICSUDDkRzALlRt4ghds?authuser=0&hl=en&rclk=1,"28.5416161,77.64769319999999"
Chand masjid chnd msjd,Mosque,"Chand masjid chnd msjd, ke peeche, Bijli Ghar, and, Thanabhawan, Thana Bhawan, Uttar Pradesh 247777",,"ke peeche, Bijli Ghar, and",Thanabhawan,,Uttar Pradesh,IN,https://www.google.com/maps/place/Chand+masjid+%DA%86%D8%A7%D9%86%D8%AF+%D9%85%D8%B3%D8%AC%D8%AF%E2%80%AD/data=!4m7!3m6!1s0x390e9dceebe7298d:0x4be43e7710a5da2a!8m2!3d29.5936292!4d77.4250313!16s%2Fg%2F11rxm4x48z!19sChIJjSnn686dDjkRKtqlEHc-5Es?authuser=0&hl=en&rclk=1,"29.5936292,77.4250313"
Dakshin wali masjid,Mosque,"F865+RJM Dakshin wali masjid, Unnamed Road, Sunpata, Baramjidpur Chanda, Uttar Pradesh 246764",,"F865+RJM, Unnamed Road","Sunpata, Baramjidpur Chanda",246764,Uttar Pradesh,IN,https://www.google.com/maps/place/Dakshin+wali+masjid/data=!4m7!3m6!1s0x390bdd293e563d31:0x797d10f856867201!8m2!3d29.4620976!4d78.3090377!16s%2Fg%2F11fnsxyx42!19sChIJMT1WPindCzkRAXKGVvgQfXk?authuser=0&hl=en&rclk=1,"29.4620976,78.30903769999999"
Dr.chanda masjid,Mosque,"R3W8+CJV Dr.chanda masjid, Bilhaur, Uttar Pradesh 209202",,R3W8+CJV,Bilhaur,209202,Uttar Pradesh,IN,https://www.google.com/maps/place/Dr.chanda+masjid/data=!4m7!3m6!1s0x399e7fcc84564a5d:0x7c00c5ced5556ac8!8m2!3d26.846113!4d80.0665546!16s%2Fg%2F11gn1whrhc!19sChIJXUpWhMx_njkRyGpV1c7FAHw?authuser=0&hl=en&rclk=1,"26.846113,80.0665546"
Masjid Shan e Mohammadi,Mosque,"XPC3+CM6 Masjid Shan e Mohammadi, Mahmud Nagar, Meerut, Uttar Pradesh 250002",Mahmud Nagar,XPC3+CM6,Meerut,250002,Uttar Pradesh,IN,https://www.google.com/maps/place/Masjid+Shan+e+Mohammadi/data=!4m7!3m6!1s0x390c65b7e09d3963:0xc3fe143897c95afe!8m2!3d28.9710269!4d77.7041398!16s%2Fg%2F11j10rc_s0!19sChIJYzmd4LdlDDkR_lrJlzgU_sM?authuser=0&hl=en&rclk=1,"28.9710269,77.7041398"
Masjid,Mosque,"9M74+66G Masjid, Hirnoti, Uttar Pradesh 203203",,9M74+66G,Hirnoti,203203,Uttar Pradesh,IN,https://www.google.com/maps/place/Masjid/data=!4m7!3m6!1s0x390cbbdfa6584727:0x4a1e67c0bd32dfaf!8m2!3d28.36306!4d77.6555641!16s%2Fg%2F11dzwm3m09!19sChIJJ0dYpt-7DDkRr98yvcBnHko?authuser=0&hl=en&rclk=1,"28.363059999999997,77.65556409999999"
Dj Aks,DJ service,"Dj Aks, Army Gate, near masjid compund, Rangpuri Pahari, Mahipalpur, New Delhi, Delhi 110037","Rangpuri Pahari, Mahipalpur","Army Gate, near masjid compund",New Delhi,110037,Delhi,IN,https://www.google.com/maps/place/Dj+Aks/data=!4m7!3m6!1s0x390d1d68e81ae8f9:0xff260b92f4517834!8m2!3d28.5332622!4d77.1298204!16s%2Fg%2F11kjp7bbxr!19sChIJ-ega6GgdDTkRNHhR9JILJv8?authuser=0&hl=en&rclk=1,"28.5332622,77.1298204"
Eid Gaah,Mosque,"GF3X+88J Eid Gaah, Unnamed Road, Barkatpur, Uttar Pradesh 246762",,"GF3X+88J, Unnamed Road",Barkatpur,246762,Uttar Pradesh,IN,https://www.google.com/maps/place/Eid+Gaah/data=!4m7!3m6!1s0x390bd172a42f1653:0x527a44dabab6888!8m2!3d29.5033333!4d78.498274!16s%2Fg%2F11fm66yb09!19sChIJUxYvpHLRCzkRiGirq02kJwU?authuser=0&hl=en&rclk=1,"29.503333299999998,78.498274"
Laxmanpura Masjid,Mosque,"H3QM+VPH Laxmanpura Masjid, Chanda Khedi, Madhya Pradesh 473110",,H3QM+VPH,Chanda Khedi,473110,Madhya Pradesh,IN,https://www.google.com/maps/place/Laxmanpura+Masjid/data=!4m7!3m6!1s0x397af16724862db9:0x1a9ae3811eaae5a5!8m2!3d24.5886037!4d77.0838588!16s%2Fg%2F11t15m1d5q!19sChIJuS2GJGfxejkRpeWqHoHjmho?authuser=0&hl=en&rclk=1,"24.5886037,77.0838588"
Chand Masjid (chnd msjd),Mosque,"P7XX+V66 Chand Masjid (chnd msjd), Chand Masjid Rd, Mustafabad, Uttar Pradesh 201102",Mustafabad,"P7XX+V66, Chand Masjid Rd",,201102,Uttar Pradesh,IN,https://www.google.com/maps/place/Chand+Masjid+%28%DA%86%D8%A7%D9%86%D8%AF+%D9%85%D8%B3%D8%AC%D8%AF%29%E2%80%AD/data=!4m7!3m6!1s0x390cf99f75a12b83:0x2d369b057c1818fe!8m2!3d28.7495089!4d77.2979855!16s%2Fg%2F11l37gmmrd!19sChIJgyuhdZ_5DDkR_hgYfAWbNi0?authuser=0&hl=en&rclk=1,"28.7495089,77.2979855"
Masjid Kaddan Wali,Mosque,"Masjid Kaddan Wali, 3800,, Charkhiwalan Gali, Khush Dil, Chandni Chowk, New Delhi, Delhi 110006","Khush Dil, Chandni Chowk","3800,, Charkhiwalan Gali","New Delhi, Delhi",110006,Delhi,IN,https://www.google.com/maps/place/Masjid+Kaddan+Wali/data=!4m7!3m6!1s0x390cfd19d610452b:0xf81efc1a357adee8!8m2!3d28.6506731!4d77.2290561!16s%2Fg%2F12hkbxr_7!19sChIJK0UQ1hn9DDkR6N56NRr8Hvg?authuser=0&hl=en&rclk=1,"28.6506731,77.2290561"
Masjid msjid,Mosque,"Masjid msjid, A 95, Chanchal Park, Laxmi Park, Ranhola Extesion, Delhi, 110041","Chanchal Park, Laxmi Park, Ranhola Extesion",A 95,Delhi,110041,Delhi,IN,https://www.google.com/maps/place/Masjid+%E0%A4%AE%E0%A4%B8%E0%A5%8D%E0%A4%9C%E0%A4%BF%E0%A4%A6/data=!4m7!3m6!1s0x390d0570d033b0bb:0x480768d95ae5b61d!8m2!3d28.6495218!4d77.0230135!16s%2Fg%2F11rf4j7m64!19sChIJu7Az0HAFDTkRHbblWtloB0g?authuser=0&hl=en&rclk=1,"28.6495218,77.02301349999999"
Masjid,Mosque,"H4Q9+GQ2 Masjid, Sadar Bazaar, Delhi Cantonment, New Delhi, Delhi 110010","Sadar Bazaar, Delhi Cantonment",H4Q9+GQ2,New Delhi,110010,Delhi,IN,https://www.google.com/maps/place/Masjid/data=!4m7!3m6!1s0x390d1de7a344966b:0x439561fcffba0204!8m2!3d28.5887553!4d77.1193923!16s%2Fg%2F11vlmpcmn5!19sChIJa5ZEo-cdDTkRBAK6__xhlUM?authuser=0&hl=en&rclk=1,"28.5887553,77.1193923"
Chand Masjid,Mosque,"QVF3+V36 Chand Masjid, Malakpur, Uttar Pradesh 245201",,QVF3+V36,Malakpur,245201,Uttar Pradesh,IN,https://www.google.com/maps/place/Chand+Masjid/data=!4m7!3m6!1s0x390c8125ce560bc1:0xee3d4148492cac79!8m2!3d28.7746641!4d77.8526561!16s%2Fg%2F11nmqqrghh!19sChIJwQtWziWBDDkReawsSUhBPe4?authuser=0&hl=en&rclk=1,"28.7746641,77.85265609999999"
Chaand masjid,Mosque,"6CWH+38Q Chaand masjid, Baroda Marg, Brouda, Uttar Pradesh 251309",,"6CWH+38Q, Baroda Marg",Brouda,251309,Uttar Pradesh,IN,https://www.google.com/maps/place/Chaand+masjid/data=!4m7!3m6!1s0x390c395a4ec9132d:0xeda84642276f96c9!8m2!3d29.2452101!4d77.4283734!16s%2Fg%2F11rwmbbppb!19sChIJLRPJTlo5DDkRyZZvJ0JGqO0?authuser=0&hl=en&rclk=1,"29.245210099999998,77.4283734"
Masjid Chandol,Mosque,"FGRV+CJ6 Masjid Chandol, Chandol - Nilaheri Rd, Chandol, Haryana 124109",,"FGRV+CJ6, Chandol - Nilaheri Rd",Chandol,124109,Haryana,IN,https://www.google.com/maps/place/Masjid+Chandol/data=!4m7!3m6!1s0x390d63bda9804349:0xc163fad01b17b6b5!8m2!3d28.491625!4d76.5447082!16s%2Fg%2F11t7k05ly6!19sChIJSUOAqb1jDTkRtbYXG9D6Y8E?authuser=0&hl=en&rclk=1,"28.491625,76.5447082"
Chand Masjid,Mosque,"8G5V+H5 Chand Masjid, Kaserwa, Uttar Pradesh 251318",,8G5V+H5,Kaserwa,,Uttar Pradesh,IN,https://www.google.com/maps/place/Chand+Masjid/data=!4m7!3m6!1s0x390c3da9604152b7:0x22b746a334e9a235!8m2!3d29.308903!4d77.5429501!16s%2Fg%2F11rdcxrtkt!19sChIJt1JBYKk9DDkRNaLpNKNGtyI?authuser=0&hl=en&rclk=1,"29.308902999999997,77.5429501"
Masjid,Mosque,"Masjid, 8/2, Budh Bazar, Block L 1, Devli, Sangam Vihar, New Delhi, Delhi 110062","Budh Bazar, Block L 1, Devli, Sangam Vihar",8/2,New Delhi,110062,Delhi,IN,https://www.google.com/maps/place/Masjid/data=!4m7!3m6!1s0x390ce1dde82b3bc3:0x4d3537cacd38aec4!8m2!3d28.4940769!4d77.2261653!16s%2Fg%2F11rk33_10p!19sChIJwzsr6N3hDDkRxK44zco3NU0?authuser=0&hl=en&rclk=1,"28.4940769,77.22616529999999"
Chand Masjid,Mosque,"FW8Q+FH5 Chand Masjid, Ahmed Nagar, Morna, Uttar Pradesh 251316",Ahmed Nagar,FW8Q+FH5,Morna,,Uttar Pradesh,IN,https://www.google.com/maps/place/Chand+Masjid/data=!4m7!3m6!1s0x390bf97afe03d3f1:0x98cfc975542599b0!8m2!3d29.4661336!4d77.9389764!16s%2Fg%2F11tc20dv5l!19sChIJ8dMD_nr5CzkRsJklVHXJz5g?authuser=0&hl=en&rclk=1,"29.4661336,77.9389764"
Chand mosque,Mosque,"95FX+JVF Chand mosque, Jharkheri, Uttar Pradesh 247774",,95FX+JVF,Jharkheri,247774,Uttar Pradesh,IN,https://www.google.com/maps/place/Chand+mosque/data=!4m7!3m6!1s0x390c2df66b4a23d3:0xfb0b864fd45b2291!8m2!3d29.3745766!4d77.1993771!16s%2Fg%2F11sdwjm_r7!19sChIJ0yNKa_YtDDkRkSJb1E-GC_s?authuser=0&hl=en&rclk=1,"29.374576599999997,77.19937709999999"
Mosque,Mosque,"F5WM+8X7 Mosque, Rajpur Khurd Village, Chhatarpur, New Delhi, Delhi 110074","Rajpur Khurd Village, Chhatarpur",F5WM+8X7,New Delhi,110074,Delhi,IN,https://www.google.com/maps/place/Mosque/data=!4m7!3m6!1s0x390d1fc4fdfb9307:0xe4e5c8d1b6e763b5!8m2!3d28.4957943!4d77.1849127!16s%2Fg%2F11s4t7kwt7!19sChIJB5P7_cQfDTkRtWPnttHI5eQ?authuser=0&hl=en&rclk=1,"28.4957943,77.1849127"
caaNd msjid,Mosque,"7C9Q+QH7 caaNd msjid, Vigyana, Uttar Pradesh 251309",,7C9Q+QH7,Vigyana,251309,Uttar Pradesh,IN,https://www.google.com/maps/place/%E0%A4%9A%E0%A4%BE%E0%A4%82%E0%A4%A6+%E0%A4%AE%E0%A4%B8%E0%A5%8D%E0%A4%9C%E0%A4%BF%E0%A4%A6/data=!4m7!3m6!1s0x390c398aa49e134d:0xe99673a9b564e0c6!8m2!3d29.2694059!4d77.438924!16s%2Fg%2F11rr4z4mj8!19sChIJTROepIo5DDkRxuBktalzluk?authuser=0&hl=en&rclk=1,"29.2694059,77.438924"
al-aqsa mosque,Mosque,"973R+H6H al-aqsa mosque, Mohanpur, Uttar Pradesh 246728",,973R+H6H,Mohanpur,246728,Uttar Pradesh,IN,https://www.google.com/maps/place/al-aqsa+mosque/data=!4m7!3m6!1s0x390bebc1a11ea03d:0x31f7ea80bee6d6a4!8m2!3d29.353934!4d78.2906166!16s%2Fg%2F11ng2f54zy!19sChIJPaAeocHrCzkRpNbmvoDq9zE?authuser=0&hl=en&rclk=1,"29.353934,78.29061659999999"
Chanda masjid,Mosque,"65G5+XG Chanda masjid, Chak 41 MB, Khushab, Punjab, Pakistan",,65G5+XG,Chak 41 MB,,"Khushab, Punjab",PK,https://www.google.com/maps/place/Chanda+masjid/data=!4m7!3m6!1s0x3921399924a04417:0x66b1ef307d19d6d4!8m2!3d32.2274028!4d72.1588293!16s%2Fg%2F11p736zqm8!19sChIJF0SgJJk5ITkR1NYZfTDvsWY?authuser=0&hl=en&rclk=1,"32.2274028,72.1588293"
Chanda Masjid,Mosque,"5JFJ+H6J Chanda Masjid, Rehman Abad, Kohat, Khyber Pakhtunkhwa, Pakistan",,5JFJ+H6J,Rehman Abad,,"Kohat, Khyber Pakhtunkhwa",PK,https://www.google.com/maps/place/Chanda+Masjid/data=!4m7!3m6!1s0x38d8a1aafd509bc3:0x3fac83a8bbf923ee!8m2!3d33.1739563!4d71.6305143!16s%2Fg%2F11hnpf5ng1!19sChIJw5tQ_aqh2DgR7iP5u6iDrD8?authuser=0&hl=en&rclk=1,"33.1739563,71.6305143"
Chanda Wali Masjid (Gulzar-e-Madina),Mosque,"5F68+8G3 Chanda Wali Masjid (Gulzar-e-Madina), No.01, Peer Colony Multan, Punjab, Pakistan",Peer Colony,"5F68+8G3, No.01",Multan,,"Multan, Punjab",PK,https://www.google.com/maps/place/Chanda+Wali+Masjid+%28Gulzar-e-Madina%29/data=!4m7!3m6!1s0x393b310d91e4d86d:0xdc9962c0bdd31096!8m2!3d30.1607701!4d71.4662986!16s%2Fg%2F11h7r3w743!19sChIJbdjkkQ0xOzkRlhDTvcBimdw?authuser=0&hl=en&rclk=1,"30.160770099999997,71.4662986"
Mehendi masjid,Mosque,"Mehendi masjid, 3331, Lal Kuan Bazar, Chandni Chowk, New Delhi, Delhi, 110006","Lal Kuan Bazar, Chandni Chowk",3331,"New Delhi, Delhi",110006,Delhi,IN,https://www.google.com/maps/place/Mehendi+masjid/data=!4m7!3m6!1s0x390cfd11d6254933:0x7c1821bcb713efad!8m2!3d28.6516061!4d77.2214466!16s%2Fg%2F11rn0l2gk4!19sChIJM0kl1hH9DDkRre8Tt7whGHw?authuser=0&hl=en&rclk=1,"28.6516061,77.2214466"
Masjid,Mosque,"Masjid, 20, Masjid Rd, Pervesh Nagar, Mubarakpur Dabas, New Delhi, Delhi, 110081","Pervesh Nagar, Mubarakpur Dabas","20, Masjid Rd","New Delhi, Delhi",110081,Delhi,IN,https://www.google.com/maps/place/Masjid/data=!4m7!3m6!1s0x390d075632dea237:0xe707b406c4cff64!8m2!3d28.7098866!4d77.0310854!16s%2Fg%2F11kq2cq2_1!19sChIJN6LeMlYHDTkRZP9MbEB7cA4?authuser=0&hl=en&rclk=1,"28.709886599999997,77.0310854"
Masjid,Mosque,"Shop No: 5035, Masjid, Netaji Subhash Marg, Daryaganj, New Delhi, Delhi, 110002",Daryaganj,"Shop No: 5035, Netaji Subhash Marg","New Delhi, Delhi",110002,Delhi,IN,https://www.google.com/maps/place/Masjid/data=!4m7!3m6!1s0x390cfdf175041b95:0x8ef57a2bc9f92c1c!8m2!3d28.6480954!4d77.2403964!16s%2Fg%2F11s664lvxh!19sChIJlRsEdfH9DDkRHCz5ySt69Y4?authuser=0&hl=en&rclk=1,"28.6480954,77.2403964"
Masjid msjd,Mosque,"P33Q+5Q5 Masjid msjd, Y Block, Mangolpuri, Delhi, 110085","Pocket C, Sector 1, Mangolpuri","P33Q+5Q5, Y Block",Delhi,110085,Delhi,IN,https://www.google.com/maps/place/Masjid+%D9%85%D8%B3%D8%AC%D8%AF%E2%80%AD/data=!4m7!3m6!1s0x390d075006af1d37:0x77cfb359c992ee54!8m2!3d28.702881!4d77.089479!16s%2Fg%2F11pzyfmlyd!19sChIJNx2vBlAHDTkRVO6SyVmzz3c?authuser=0&hl=en&rclk=1,"28.702880999999998,77.089479"
Masjid,Mosque,"J2WM+MXF Masjid, Sunni Masjid Rd, Deep Enclave, Hastsal, Delhi, 110059","Deep Enclave, Hastsal","J2WM+MXF, Sunni Masjid Rd",Delhi,110059,Delhi,IN,https://www.google.com/maps/place/Masjid/data=!4m7!3m6!1s0x390d05267bb46283:0xaef6f06f366d7113!8m2!3d28.6466834!4d77.0349292!16s%2Fg%2F11vl8tpxw1!19sChIJg2K0eyYFDTkRE3FtNm_w9q4?authuser=0&hl=en&rclk=1,"28.646683399999997,77.0349292"
Chand masjid,Mosque,"XH5M+3CF Chand masjid, Bafar, Uttar Pradesh 250501",,XH5M+3CF,Bafar,250501,Uttar Pradesh,IN,https://www.google.com/maps/place/Chand+masjid/data=!4m7!3m6!1s0x390c676b8ba6bb85:0x5f1689fb27141e33!8m2!3d28.9576847!4d77.5835534!16s%2Fg%2F11y1f8t8kp!19sChIJhbumi2tnDDkRMx4UJ_uJFl8?authuser=0&hl=en&rclk=1,"28.957684699999998,77.5835534"
Chand Masjid (  ),Mosque,"8HCH+3J3 Chand Masjid (  ), Deri Village, Uttar Pradesh 203201",,8HCH+3J3,Deri Village,203201,Uttar Pradesh,IN,https://www.google.com/maps/place/Chand+Masjid+%28+%F0%9F%95%8C+%29/data=!4m7!3m6!1s0x390cb9ce51dddded:0x786a3d0f49026b4!8m2!3d28.3201377!4d77.5790451!16s%2Fg%2F11l33rjpkx!19sChIJ7d3dUc65DDkRtCaQ9NCjhgc?authuser=0&hl=en&rclk=1,"28.3201377,77.5790451"
Chand Masjid,Mosque,"Chand Masjid, Dhankosiya patti, Chhaprauli, Chhaprauli Dehat, Uttar Pradesh 250617",,Dhankosiya patti,"Chhaprauli, Chhaprauli Dehat",,Uttar Pradesh,IN,https://www.google.com/maps/place/Chand+Masjid/data=!4m7!3m6!1s0x390dcb7087c1bbbd:0xad9fd1ef33f96c6a!8m2!3d29.2094241!4d77.1711452!16s%2Fg%2F11qbdvq7s7!19sChIJvbvBh3DLDTkRamz5M-_Rn60?authuser=0&hl=en&rclk=1,"29.2094241,77.1711452"
Chand Masjid,Mosque,"57WM+84 Chand Masjid, Kishanpur, Kishanpur Baral, Uttar Pradesh 250623",,57WM+84,"Kishanpur, Kishanpur Baral",250623,Uttar Pradesh,IN,https://www.google.com/maps/place/Chand+Masjid/data=!4m7!3m6!1s0x390c35f9f5d65d01:0x455ec5eb879104e!8m2!3d29.1958994!4d77.2827876!16s%2Fg%2F11svpxbkwf!19sChIJAV3W9fk1DDkRThB5uF7sVQQ?authuser=0&hl=en&rclk=1,"29.1958994,77.28278759999999"
Chand masjid,Mosque,"GX25+74H Chand masjid, Aurangabad, Uttar Pradesh 203401",,GX25+74H,Aurangabad,203401,Uttar Pradesh,IN,https://www.google.com/maps/place/Chand+masjid/data=!4m7!3m6!1s0x390b5fa5f1fa1967:0x6c05728e0ded876f!8m2!3d28.5006464!4d77.9579018!16s%2Fg%2F11v3qqtrpj!19sChIJZxn68aVfCzkRb4ftDY5yBWw?authuser=0&hl=en&rclk=1,"28.500646399999997,77.9579018"
CHAND MASJID,Mosque,"59P3+4Q7 CHAND MASJID, Mahdood Nashon, Jalalpur Deepa, Uttar Pradesh 246734",,59P3+4Q7,"Mahdood Nashon, Jalalpur Deepa",246734,Uttar Pradesh,IN,https://www.google.com/maps/place/%F0%9F%8C%99CHAND+MASJID%F0%9F%95%8C/data=!4m7!3m6!1s0x390bbd2570c90701:0x19c9196d72f868a9!8m2!3d29.1856069!4d78.3546786!16s%2Fg%2F11t_v1xm7g!19sChIJAQfJcCW9CzkRqWj4cm0ZyRk?authuser=0&hl=en&rclk=1,"29.1856069,78.3546786"
chand masjid,Mosque,"WX99+8J3 chand masjid, Saharia Narpat, Uttar Pradesh 244927",,WX99+8J3,Saharia Narpat,,Uttar Pradesh,IN,https://www.google.com/maps/place/chand+masjid/data=!4m7!3m6!1s0x390af502818dc1ef:0x91a746123b9aad90!8m2!3d28.9182516!4d78.9690604!16s%2Fg%2F11t82gym30!19sChIJ78GNgQL1CjkRkK2aOxJGp5E?authuser=0&hl=en&rclk=1,"28.918251599999998,78.96906039999999"
Sadir Vegitable Shop,Fruit and vegetable store,"Sadir Vegitable Shop, Gali No. 4, Chandu Nagar, Chanda Nagar, New Delhi, Delhi, 110084","Chandu Nagar, Chanda Nagar",Gali No. 4,"New Delhi, Delhi",110084,Delhi,IN,https://www.google.com/maps/place/Sadir+Vegitable+Shop/data=!4m7!3m6!1s0x390cfd60f3ac5f7f:0x2ffaf6ce9c69538b!8m2!3d28.7102011!4d77.2633102!16s%2Fg%2F11tp0592k1!19sChIJf1-s82D9DDkRi1NpnM72-i8?authuser=0&hl=en&rclk=1,"28.7102011,77.26331019999999"
Masjid,Mosque,"H3QW+PJ9 Masjid, Unnamed Road, Dharnawada, Chanda Khedi, Madhya Pradesh 473110",,"H3QW+PJ9, Unnamed Road","Dharnawada, Chanda Khedi",,Madhya Pradesh,IN,https://www.google.com/maps/place/Masjid/data=!4m7!3m6!1s0x397af14250474649:0xc6daf8b7531a06bd!8m2!3d24.5892991!4d77.0966151!16s%2Fg%2F11fmy_3n1c!19sChIJSUZHUELxejkRvQYaU7f42sY?authuser=0&hl=en&rclk=1,"24.589299099999998,77.0966151"
Chanda barayTamir e Raja Masjid,Mosque,"Chanda barayTamir e Raja Masjid, Khalgaw, Bihar 841441",,,Khalgaw,841441,Bihar,IN,https://www.google.com/maps/place/Chanda+barayTamir+e+Raja+Masjid/data=!4m7!3m6!1s0x3993a5e4f3109d0d:0x1730c82e10ec32bd!8m2!3d26.5427903!4d84.145309!16s%2Fg%2F11s5z6hw5n!19sChIJDZ0Q8-SlkzkRvTLsEC7IMBc?authuser=0&hl=en&rclk=1,"26.5427903,84.145309"
Chanda Masjid,Mosque,"Chanda Masjid, Lachi Rehmanabad, 26381, Pakistan",,Lachi Rehmanabad,,26381,"Kohat, Khyber Pakhtunkhwa",PK,https://www.google.com/maps/place/Chanda+Masjid/data=!4m7!3m6!1s0x38d8a3a79cd12bab:0x6cccc3449c454846!8m2!3d33.2065878!4d71.5765446!16s%2Fg%2F11l4c_3nsk!19sChIJqyvRnKej2DgRRkhFnETDzGw?authuser=0&hl=en&rclk=1,"33.2065878,71.57654459999999"
Jama masjid islamnagar chanda,Mosque,"5F22+27P Jama masjid islamnagar chanda, Chanda, Jharkhand 813208",,5F22+27P,Chanda,813208,Jharkhand,IN,https://www.google.com/maps/place/Jama+masjid+islamnagar+chanda/data=!4m7!3m6!1s0x39f0710baf31d21b:0x9b8ef86e79ce118!8m2!3d25.1500776!4d87.4506926!16s%2Fg%2F11kpnn5j9n!19sChIJG9Ixrwtx8DkRGOGc54bvuAk?authuser=0&hl=en&rclk=1,"25.1500776,87.4506926"
Jamea Masjid Ahl-e-Hadees,Mosque,"F6VG+824 Jamea Masjid Ahl-e-Hadees, Doburji Chanda Singh, Sialkot, Punjab, Pakistan",,F6VG+824,Doburji Chanda Singh,,"Sialkot, Punjab",PK,https://www.google.com/maps/place/Jamea+Masjid+Ahl-e-Hadees/data=!4m7!3m6!1s0x391ee1d310ae22a3:0xe2e128a4132dff73!8m2!3d32.4932717!4d74.2250841!16s%2Fg%2F11gzrvwbc8!19sChIJoyKuENPhHjkRc_8tE6Qo4eI?authuser=0&hl=en&rclk=1,"32.4932717,74.2250841"
JAI CHANDA NAMKEEN,Restaurant,"M62J+66P JAI CHANDA NAMKEEN, Chawri Bazar Rd, Jama Masjid, Chandni Chowk, New Delhi, Delhi, 110006","Jama Masjid, Chandni Chowk","M62J+66P, Chawri Bazar Rd","New Delhi, Delhi",110006,Delhi,IN,https://www.google.com/maps/place/JAI+CHANDA+NAMKEEN/data=!4m7!3m6!1s0x390cfdcedf6bb46f:0xb6c390ca6bbb4ec7!8m2!3d28.6505828!4d77.2305739!16s%2Fg%2F11pv66r5sk!19sChIJb7Rr3879DDkRx067a8qQw7Y?authuser=0&hl=en&rclk=1,"28.6505828,77.2305739"
Jai Chanda File Product,Stationery store,"Jai Chanda File Product, 2477, Chawri Bazar Rd, Nai Wala, Chandni Chowk, New Delhi, Delhi, 110006","Nai Wala, Chandni Chowk","2477, Chawri Bazar Rd","New Delhi, Delhi",110006,Delhi,IN,https://www.google.com/maps/place/Jai+Chanda+File+Product/data=!4m7!3m6!1s0x390cfd19beec0c6b:0xa8f71c77ae7c511d!8m2!3d28.6516018!4d77.230719!16s%2Fg%2F11tcwlvrpw!19sChIJawzsvhn9DDkRHVF8rncc96g?authuser=0&hl=en&rclk=1,"28.651601799999998,77.230719"
