name,main_category,address,address_ward,address_street,address_city,address_postal_code,address_state,address_country_code,link,coordinates
Jama Masjid,Mosque,"Jama Masjid, Old Delhi, Delhi, 110006","Jama Masjid, Old Delhi",,Delhi,110006,Delhi,IN,https://www.google.com/maps/place/Jama+Masjid/data=!4m7!3m6!1s0x390cfd18df89b215:0xdd57369e29bf9d96!8m2!3d28.6506792!4d77.2334421!16zL20vMDR5emo1!19sChIJFbKJ3xj9DDkRlp2_KZ42V90?authuser=0&hl=en&rclk=1,"28.6506792,77.23344209999999"
Bhandaghar Masjid,Mosque,"Bhandaghar Masjid, Republic of, Ajamapur, Odisha 752119",,Republic of,Ajamapur,752119,Odisha,IN,https://www.google.com/maps/place/Bhandaghar+Masjid/data=!4m7!3m6!1s0x3a198981fe6cd13d:0xdbb060c8b4442666!8m2!3d20.0103724!4d86.2158933!16s%2Fg%2F11b6_frl7z!19sChIJPdFs_oGJGToRZiZEtMhgsNs?authuser=0&hl=en&rclk=1,"20.010372399999998,86.21589329999999"
MARKAZ-E-JAMA MASJID msjd BENGBATI,Mosque,"MARKAZ-E-JAMA MASJID msjd BENGBATI, Bengabati, Nuagaon, Po: Athantan, PS-Balipatana Khurda, Balipatana, Odisha 752102",,"Bengabati, Nuagaon, Po: Athantan, PS-Balipatana Khurda",Balipatana,752102,Odisha,IN,https://www.google.com/maps/place/MARKAZ-E-JAMA+MASJID+%D9%85%D8%B3%D8%AC%D8%AF+BENGBATI%E2%80%AD/data=!4m7!3m6!1s0x3a19992fd96d6593:0x44f9a5366e810611!8m2!3d20.179935!4d85.981288!16s%2Fg%2F11f3m9pfxz!19sChIJk2Vt2S-ZGToREQaBbjal-UQ?authuser=0&hl=en&rclk=1,"20.179935,85.98128799999999"
MASJID-E-MAKKAH JHARKUL,Mosque,"MASJID-E-MAKKAH JHARKUL, Jharkul, Charinangal, Odisha 754292",Charinangal,Jharkul,,754292,Odisha,IN,https://www.google.com/maps/place/MASJID-E-MAKKAH+JHARKUL/data=!4m7!3m6!1s0x3a19602e9bbd4575:0x18bc5b36ca1988f7!8m2!3d20.6304655!4d86.249683!16s%2Fg%2F11crz_v5qv!19sChIJdUW9my5gGToR94gZyjZbvBg?authuser=0&hl=en&rclk=1,"20.6304655,86.24968299999999"
Masjid-e-ABRAR BK Mohalla Alti,Mosque,"J6GW+VW2 Masjid-e-ABRAR BK Mohalla Alti, Charinangal, Ambasouri, Odisha 754292",Charinangal,J6GW+VW2,Ambasouri,,Odisha,IN,https://www.google.com/maps/place/Masjid-e-ABRAR+BK+Mohalla+Alti/data=!4m7!3m6!1s0x3a19602d9dd48dbb:0xc99cfd6418c00ab5!8m2!3d20.6271441!4d86.2472704!16s%2Fg%2F11gds0nm37!19sChIJu43UnS1gGToRtQrAGGT9nMk?authuser=0&hl=en&rclk=1,"20.6271441,86.24727039999999"
Masjid Hamd,Mosque,"7RGM+P8J Masjid Hamd, Unit 4, Bhouma Nagar, Bhubaneswar, Odisha 751001","Unit 4, Bhouma Nagar",7RGM+P8J,Bhubaneswar,751001,Odisha,IN,https://www.google.com/maps/place/Masjid+Hamd/data=!4m7!3m6!1s0x3a19a7b5ff550783:0xe57d79fd5c29433d!8m2!3d20.2768302!4d85.8332627!16s%2Fg%2F11tg1_xqh3!19sChIJgwdV_7WnGToRPUMpXP15feU?authuser=0&hl=en&rclk=1,"20.2768302,85.83326269999999"
Jharpada Sunni Masjid,Mosque,"7VF7+3FF Jharpada Sunni Masjid, Jharapada, Bhubaneswar, Odisha 751006",Jharapada,7VF7+3FF,Bhubaneswar,751006,Odisha,IN,https://www.google.com/maps/place/Jharpada+Sunni+Masjid/data=!4m7!3m6!1s0x3a19a0a48361be97:0x4de1ec858bda43d2!8m2!3d20.2726911!4d85.8636629!16s%2Fg%2F11c5_64z0v!19sChIJl75hg6SgGToR0kPai4Xs4U0?authuser=0&hl=en&rclk=1,"20.2726911,85.8636629"
Sabz Masjid,Mosque,"Sabz Masjid, 3571, Lalkuan Bazar Rd, Bazar Sirkiwalan, Lal Kuan Bazar, Chandni Chowk, Delhi, 110006","Bazar Sirkiwalan, Lal Kuan Bazar, Chandni Chowk","3571, Lalkuan Bazar Rd",Delhi,110006,Delhi,IN,https://www.google.com/maps/place/Sabz+Masjid/data=!4m7!3m6!1s0x390cfd16a94877a7:0x7b35bb653cd42e20!8m2!3d28.652163!4d77.223599!16s%2Fm%2F04q247t!19sChIJp3dIqRb9DDkRIC7UPGW7NXs?authuser=0&hl=en&rclk=1,"28.652162999999998,77.223599"
Jame Masjid e Habibia,Mosque,"7RCW+G95 Jame Masjid e Habibia, Railway Yard and Washing Line, Kharvela Nagar, Bhubaneswar, Odisha 751001","Railway Yard and Washing Line, Kharvela Nagar",7RCW+G95,Bhubaneswar,751001,Odisha,IN,https://www.google.com/maps/place/Jame+Masjid+e+Habibia/data=!4m7!3m6!1s0x3a19a752604bc58d:0x935ce78fba8d72a2!8m2!3d20.2712553!4d85.8459717!16s%2Fg%2F1tctk61c!19sChIJjcVLYFKnGToRonKNuo_nXJM?authuser=0&hl=en&rclk=1,"20.2712553,85.84597169999999"
Masjid-E-Hamda Bhubaneswar -Tablighi Jamaat (Sunni Hanafi),Mosque,"7RH8+5F4 Masjid-E-Hamda Bhubaneswar -Tablighi Jamaat (Sunni Hanafi), CRP - DAV Rd, Sabera Colony, Nilakantha Nagar, Nayapalli, Bhubaneswar, Odisha 751012","Sabera Colony, Nilakantha Nagar, Nayapalli","7RH8+5F4, CRP - DAV Rd",Bhubaneswar,751012,Odisha,IN,https://www.google.com/maps/place/Masjid-E-Hamda+Bhubaneswar+-Tablighi+Jamaat+%28Sunni+Hanafi%29/data=!4m7!3m6!1s0x3a19a77ce3b8c32b:0x9d90c1fcf87c3ec!8m2!3d20.2778984!4d85.8162159!16s%2Fg%2F11dd_pfkz2!19sChIJK8O443ynGToR7MOHzx8M2Qk?authuser=0&hl=en&rclk=1,"20.277898399999998,85.8162159"
Dibiya wali Masjid,Mosque,"G54H+M78 Dibiya wali Masjid, Mehrauli-Gurgaon Road, M G Road, Dr Ambedkar Colony, Chhatarpur, New Delhi, Delhi 110030","Dr Ambedkar Colony, Chhatarpur","G54H+M78, Mehrauli-Gurgaon Road, M G Road",New Delhi,110030,Delhi,IN,https://www.google.com/maps/place/Dibiya+wali+Masjid/data=!4m7!3m6!1s0x390d1e16e71c9d4d:0x176d7f6163772932!8m2!3d28.5091206!4d77.1796709!16s%2Fg%2F119w0d7q4!19sChIJTZ0c5xYeDTkRMil3Y2F_bRc?authuser=0&hl=en&rclk=1,"28.5091206,77.17967089999999"
Masjid E Aulia Bhubaneswar - Sunni Hanafi,Mosque,"7RVH+C78 Masjid E Aulia Bhubaneswar - Sunni Hanafi, Reserved, Police Colony, Acharya Vihar, Bhubaneswar, Odisha 751013","Police Colony, Acharya Vihar","7RVH+C78, Reserved",Bhubaneswar,751013,Odisha,IN,https://www.google.com/maps/place/Masjid+E+Aulia+Bhubaneswar+-+Sunni+Hanafi/data=!4m7!3m6!1s0x3a1909e801c62b23:0xfd9386b5fe9c918!8m2!3d20.2935311!4d85.8282155!16s%2Fg%2F1tdb77lk!19sChIJIyvGAegJGToRGMnpX2s42Q8?authuser=0&hl=en&rclk=1,"20.2935311,85.8282155"
Masjid in Balianta Bhubaneswar,Mosque,"8V2R+CCJ Masjid in Balianta Bhubaneswar, Balianta Bazar Road, Near Balianta Bazar Bali anta, Andilo, Bhubaneswar, Odisha 752101",Andilo,"8V2R+CCJ, Balianta Bazar Road, Near Balianta Bazar Bali anta",Bhubaneswar,752101,Odisha,IN,https://www.google.com/maps/place/Masjid+in+Balianta+Bhubaneswar/data=!4m7!3m6!1s0x3a190a8a217f1f87:0x9c6874df939fa87a!8m2!3d20.301077!4d85.891003!16s%2Fg%2F11bw5m7sf1!19sChIJhx9_IYoKGToReqifk990aJw?authuser=0&hl=en&rclk=1,"20.301077,85.891003"
Madarse Wali Masjid Bhubaneswar - Tablighi Jamaat (Sunni Hanafi),Mosque,"6QQV+H24 Madarse Wali Masjid Bhubaneswar - Tablighi Jamaat (Sunni Hanafi), Jodupur Rd, Jadupur, Dumduma, Bhubaneswar, Odisha 751019","Jadupur, Dumduma","6QQV+H24, Jodupur Rd",Bhubaneswar,751019,Odisha,IN,https://www.google.com/maps/place/Madarse+Wali+Masjid+Bhubaneswar+-+Tablighi+Jamaat+%28Sunni+Hanafi%29/data=!4m7!3m6!1s0x3a19a7b3fe0a4b13:0x9df29942574b5dc5!8m2!3d20.2388942!4d85.7925707!16s%2Fg%2F113hj_zv6!19sChIJE0sK_rOnGToRxV1LV0KZ8p0?authuser=0&hl=en&rclk=1,"20.2388942,85.7925707"
Gajapati Nagar JAMA MASJID Ahle Hadees (SALAFI)JATNI,Mosque,"5P66+5X5 Gajapati Nagar JAMA MASJID Ahle Hadees (SALAFI)JATNI, Jatni, Khordha, Odisha 752050",,5P66+5X5,"Jatni, Khordha",752050,Odisha,IN,https://www.google.com/maps/place/Gajapati+Nagar+JAMA+MASJID+Ahle+Hadees+%28SALAFI%29JATNI/data=!4m7!3m6!1s0x3a19aec27b5e59b9:0x2997a37159be73c6!8m2!3d20.160394!4d85.712476!16s%2Fg%2F11f03q2j98!19sChIJuVlee8KuGToRxnO-WXGjlyk?authuser=0&hl=en&rclk=1,"20.160394,85.712476"
Jama Masjid Badi Masjid of Jatni Bhubaneswar,Mosque,"5P63+477 Jama Masjid Badi Masjid of Jatni Bhubaneswar, Jatni, Bhubaneswar, Odisha 752050",Ramchandrapur Bazar,"5P63+477, Jatni","Bhubaneswar, Khordha",752050,Odisha,IN,https://www.google.com/maps/place/Jama+Masjid+Badi+Masjid+of+Jatni+Bhubaneswar/data=!4m7!3m6!1s0x3a19aebfcffa38a5:0x24ae400ea994bb9a!8m2!3d20.160289!4d85.7031619!16s%2Fg%2F11b90d5gjc!19sChIJpTj6z7-uGToRmruUqQ5AriQ?authuser=0&hl=en&rclk=1,"20.160289,85.7031619"
Jama Masjid 2 Bhubaneswar - Tablighi Jamaat (Sunni Hanafi),Mosque,"Jama Masjid 2 Bhubaneswar - Tablighi Jamaat (Sunni Hanafi), 751019, Jadupur, Dumduma, Bhubaneswar, Odisha 751019","Jadupur, Dumduma",751019,Bhubaneswar,751019,Odisha,IN,https://www.google.com/maps/place/Jama+Masjid+2+Bhubaneswar+-+Tablighi+Jamaat+%28Sunni+Hanafi%29/data=!4m7!3m6!1s0x3a19a7b2fe946b1b:0x3b484704e8210a74!8m2!3d20.2357323!4d85.7950768!16s%2Fg%2F11d_7hkpfx!19sChIJG2uU_rKnGToRdAoh6ARHSDs?authuser=0&hl=en&rclk=1,"20.2357323,85.79507679999999"
Madani Mosque,Mosque,"Madani Mosque, Madani Nagar, Balubisi Road, Krushnanandapur, Balubisi, Odisha 754135",,"Madani Nagar, Balubisi Road","Krushnanandapur, Balubisi",754135,Odisha,IN,https://www.google.com/maps/place/Madani+Mosque/data=!4m7!3m6!1s0x3a1bd58e5441f963:0x7c08127a97036d60!8m2!3d20.3538557!4d86.2643179!16s%2Fg%2F1tg_dgh6!19sChIJY_lBVI7VGzoRYG0Dl3oSCHw?authuser=0&hl=en&rclk=1,"20.3538557,86.2643179"
Jama Masjid Bhubaneswar - Tablighi Jamaat Markaz (Sunni Hanafi),Mosque,"7RHM+6WX Jama Masjid Bhubaneswar - Tablighi Jamaat Markaz (Sunni Hanafi), Unit 4, Bhouma Nagar, Bhubaneswar, Odisha 751001","Unit 4, Bhouma Nagar",7RHM+6WX,Bhubaneswar,751001,Odisha,IN,https://www.google.com/maps/place/Jama+Masjid+Bhubaneswar+-+Tablighi+Jamaat+Markaz+%28Sunni+Hanafi%29/data=!4m7!3m6!1s0x3a19a75923bfffff:0x70ccb7ee4bc4084e!8m2!3d20.2781033!4d85.8348519!16s%2Fg%2F11txmzdq8c!19sChIJ__-_I1mnGToRTgjES-63zHA?authuser=0&hl=en&rclk=1,"20.278103299999998,85.83485189999999"
Masjid Mukund Prassad Masjid,Mosque,"5JPP+73G Masjid Mukund Prassad Masjid, Khordha, Odisha 752050",,5JPP+73G,Khordha,752050,Odisha,IN,https://www.google.com/maps/place/Masjid+Mukund+Prassad+Masjid/data=!4m7!3m6!1s0x3a19ab7cf1f5c765:0x30e212323a859928!8m2!3d20.185695!4d85.6352179!16s%2Fg%2F11f04pdvb7!19sChIJZcf18XyrGToRKJmFOjIS4jA?authuser=0&hl=en&rclk=1,"20.185695,85.6352179"
Masjid e Gousia in Apollo Hospitals Road Bhubaneswar - Sunni Hanafi,Mosque,"8R8M+W9C Masjid e Gousia in Apollo Hospitals Road Bhubaneswar - Sunni Hanafi, Laxmi Nagar, Bhubaneswar, Odisha 751017",Laxmi Nagar,8R8M+W9C,Bhubaneswar,751017,Odisha,IN,https://www.google.com/maps/place/Masjid+e+Gousia+in+Apollo+Hospitals+Road+Bhubaneswar+-+Sunni+Hanafi/data=!4m7!3m6!1s0x3a19099a005dee61:0xc8527b796183e305!8m2!3d20.3173009!4d85.8334025!16s%2Fg%2F11bccd2gvp!19sChIJYe5dAJoJGToRBeODYXl7Usg?authuser=0&hl=en&rclk=1,"20.3173009,85.83340249999999"
Madina Masjid Mendhasal,Mosque,"7M8X+XRW Madina Masjid Mendhasal, Mendhasala, Odisha 752054",,7M8X+XRW,Mendhasala,752054,Odisha,IN,https://www.google.com/maps/place/Madina+Masjid+Mendhasal/data=!4m7!3m6!1s0x3a19a9e5e417a317:0xb3fa78adf0f1c3b3!8m2!3d20.2674808!4d85.6995858!16s%2Fg%2F11hb4jsz_f!19sChIJF6MX5OWpGToRs8Px8K14-rM?authuser=0&hl=en&rclk=1,"20.267480799999998,85.6995858"
Masjid E Umar Farooque Bhubaneswar,Mosque,"Masjid E Umar Farooque Bhubaneswar, Azad Nagar, Sundarpada, Bhubaneswar, Odisha 751002","Azad Nagar, Sundarpada",,Bhubaneswar,751002,Odisha,IN,https://www.google.com/maps/place/Masjid+E+Umar+Farooque+Bhubaneswar/data=!4m7!3m6!1s0x3a19a78b1e05c547:0x95941c80d1e8ec75!8m2!3d20.2318664!4d85.8090913!16s%2Fg%2F11gk6g8d4d!19sChIJR8UFHounGToRdezo0YAclJU?authuser=0&hl=en&rclk=1,"20.231866399999998,85.80909129999999"
"Nurani Masjid , Barahal",Mosque,"4WH9+PC8 Nurani Masjid , Barahal, Rajas - Raid Rd, Rajas, Odisha 752114",,"4WH9+PC8, Rajas - Raid Rd",Rajas,752114,Odisha,IN,"https://www.google.com/maps/place/Nurani+Masjid+,+Barahal/data=!4m7!3m6!1s0x3a19a28fd95cf1cb:0xc632ebc095ccde48!8m2!3d20.1292754!4d85.9185687!16s%2Fg%2F11c60jj9hj!19sChIJy_Fc2Y-iGToRSN7MlcDrMsY?authuser=0&hl=en&rclk=1","20.129275399999997,85.9185687"
Gababasta Masjid,Mosque,"8WQX+Q84 Gababasta Masjid, Sainso, Gababasta, Santol, Odisha 754001",Sainso,8WQX+Q84,"Gababasta, Santol",754001,Odisha,IN,https://www.google.com/maps/place/Gababasta+Masjid/data=!4m7!3m6!1s0x3a1974ddb52b2da5:0x24710d6ea6479510!8m2!3d20.3393917!4d85.9483388!16s%2Fg%2F11f0krm3rw!19sChIJpS0rtd10GToREJVHpm4NcSQ?authuser=0&hl=en&rclk=1,"20.3393917,85.9483388"
Sasanbard Sunni Bada Masjid,Mosque,"R659+7X8 Sasanbard Sunni Bada Masjid, Jaleswar, Odisha 756086",,R659+7X8,Jaleswar,,Odisha,IN,https://www.google.com/maps/place/Sasanbard+Sunni+Bada+Masjid/data=!4m7!3m6!1s0x3a1ce10d72701b4f:0x6fd9bc6eb1060fc5!8m2!3d21.8081529!4d87.2199641!16s%2Fg%2F11gnpz702x!19sChIJTxtwcg3hHDoRxQ8GsW682W8?authuser=0&hl=en&rclk=1,"21.8081529,87.2199641"
Masjid in Kesora Bhubaneswar,Mosque,"7VFG+C44 Masjid in Kesora Bhubaneswar, Kesora, Bhubaneswar, Odisha 752101",,7VFG+C44,"Kesora, Bhubaneswar",752101,Odisha,IN,https://www.google.com/maps/place/Masjid+in+Kesora+Bhubaneswar/data=!4m7!3m6!1s0x3a19a09a34de3f0f:0xc2520255fa32c68b!8m2!3d20.2735109!4d85.8753144!16s%2Fg%2F11f3p26525!19sChIJDz_eNJqgGToRi8Yy-lUCUsI?authuser=0&hl=en&rclk=1,"20.273510899999998,85.8753144"
Masjid Mahmood msjd,Mosque,"6HQ7+W9R Masjid Mahmood msjd, Kerang, Odisha 752057",,6HQ7+W9R,Kerang,752057,Odisha,IN,https://www.google.com/maps/place/Masjid+Mahmood+%D9%85%D8%B3%D8%AC%D8%AF%E2%80%AD/data=!4m7!3m6!1s0x3a1855087b363b2b:0xbdfb639610d8598a!8m2!3d20.2398719!4d85.563379!16s%2Fg%2F11gfc_r53y!19sChIJKzs2ewhVGDoRilnYEJZj-70?authuser=0&hl=en&rclk=1,"20.2398719,85.563379"
BILAL MASJID,Mosque,"97H7+2RW BILAL MASJID, Tyendakuda Road, Tendakuda, Odisha 754134",,"97H7+2RW, Tyendakuda Road",Tendakuda,754134,Odisha,IN,https://www.google.com/maps/place/BILAL+MASJID/data=!4m7!3m6!1s0x3a1bd5fb02f7be47:0x67afe9d7f06f5a69!8m2!3d20.3776125!4d86.2645784!16s%2Fg%2F11dxbsb8bt!19sChIJR773AvvVGzoRaVpv8Nfpr2c?authuser=0&hl=en&rclk=1,"20.377612499999998,86.26457839999999"
"Madrasa Masjid, Niladri Vihar",Mosque,"8RH5+9HX Madrasa Masjid, Niladri Vihar, Neeladri Vihar, Chandrasekharpur, Bhubaneswar, Odisha 751021","Neeladri Vihar, Chandrasekharpur",8RH5+9HX,Bhubaneswar,751021,Odisha,IN,"https://www.google.com/maps/place/Madrasa+Masjid,+Niladri+Vihar/data=!4m7!3m6!1s0x3a1909bfc1473f0f:0x9d5e2b26d90dae5c!8m2!3d20.3284809!4d85.8089952!16s%2Fg%2F11jzpjt5cq!19sChIJDz9Hwb8JGToRXK4N2SYrXp0?authuser=0&hl=en&rclk=1","20.3284809,85.8089952"
Baitul Mamur Masjid Bhubaneswar - Tablighi Jamaat (Sunni Hanafi),Mosque,"Baitul Mamur Masjid Bhubaneswar - Tablighi Jamaat (Sunni Hanafi), Qabarstan Mosque, Jadupur, Jadupur, Dumduma, Dumduma-II, Jadupur, Dumduma, Bhubaneswar, Odisha 751019","Jadupur, Dumduma","Qabarstan Mosque, Jadupur, Jadupur, Dumduma, Dumduma-II",Bhubaneswar,751019,Odisha,IN,https://www.google.com/maps/place/Baitul+Mamur+Masjid+Bhubaneswar+-+Tablighi+Jamaat+%28Sunni+Hanafi%29/data=!4m7!3m6!1s0x3a19a7b45da83455:0xb17bcf9415343f8f!8m2!3d20.23648!4d85.79088!16s%2Fg%2F11ckqs_wkg!19sChIJVTSoXbSnGToRjz80FZTPe7E?authuser=0&hl=en&rclk=1,"20.23648,85.79088"
Mancheswar Mosque,Mosque,"8RCH+3V8 Mancheswar Mosque, Masjid Road, Adimata Colony, Mancheswar, Bhubaneswar, Odisha 751017","Adimata Colony, Mancheswar","8RCH+3V8, Masjid Road",Bhubaneswar,751017,Odisha,IN,https://www.google.com/maps/place/Mancheswar+Mosque/data=!4m7!3m6!1s0x3a190998f5e7a841:0x526b4f4ef737183d!8m2!3d20.320174!4d85.8297121!16s%2Fg%2F11clzr6pm_!19sChIJQajn9ZgJGToRPRg3905Pa1I?authuser=0&hl=en&rclk=1,"20.320173999999998,85.8297121"
Gausiya Habibia Masjid,Mosque,"7QXG+2XH Gausiya Habibia Masjid, Bharatpur, Bhubaneswar, Odisha 751003",Bharatpur,7QXG+2XH,Bhubaneswar,751003,Odisha,IN,https://www.google.com/maps/place/Gausiya+Habibia+Masjid/data=!4m7!3m6!1s0x3a1909b2b96245b7:0x4812f9c402622e3f!8m2!3d20.2975518!4d85.7774879!16s%2Fg%2F11sylpq_zm!19sChIJt0ViubIJGToRPy5iAsT5Ekg?authuser=0&hl=en&rclk=1,"20.2975518,85.7774879"
Sasinda Tehtul Masjid,Mosque,"Q9JF+485 Sasinda Tehtul Masjid, At/Po, Sasanda, Odisha 755027",Sasanda,"Q9JF+485, At/Po",,755027,Odisha,IN,https://www.google.com/maps/place/Sasinda+Tehtul+Masjid/data=!4m7!3m6!1s0x3a1be5bf637bce41:0x6b62d3515725864d!8m2!3d20.7802584!4d86.3733675!16s%2Fg%2F11fd73v57t!19sChIJQc57Y7_lGzoRTYYlV1HTYms?authuser=0&hl=en&rclk=1,"20.780258399999997,86.3733675"
Masjid in Haridaspur Bhubaneswar,Mosque,"Masjid in Haridaspur Bhubaneswar, 752101, Haridaspur, Naharkanta, Bhubaneswar, Odisha 752101","Haridaspur, Naharkanta",752101,Bhubaneswar,752101,Odisha,IN,https://www.google.com/maps/place/Masjid+in+Haridaspur+Bhubaneswar/data=!4m7!3m6!1s0x3a190bb3d77293ef:0x4c7c8123d9b0bc5b!8m2!3d20.3358255!4d85.8762015!16s%2Fg%2F11dxm732tk!19sChIJ75Ny17MLGToRW7yw2SOBfEw?authuser=0&hl=en&rclk=1,"20.3358255,85.8762015"
Adda Wali Masjid,Mosque,"P4QJ+F54 Adda Wali Masjid, Bus stand Kathaul, Pahari, 321204",,"P4QJ+F54, Bus stand Kathaul","Pahari, Kathaul",321204,Rajasthan,IN,https://www.google.com/maps/place/Adda+Wali+Masjid/data=!4m7!3m6!1s0x3972df3bb1dd59c3:0xa894449d8f6f9465!8m2!3d27.7386424!4d77.1304527!16s%2Fg%2F11h23lqn65!19sChIJw1ndsTvfcjkRZZRvj51ElKg?authuser=0&hl=en&rclk=1,"27.7386424,77.13045269999999"
Masjid Umar Faroque,Mosque,"HP8J+J3W Masjid Umar Faroque, Sambalpur - Angul - Dhenkanal - Cuttack Rd, Odisha 754029",,"HP8J+J3W, Sambalpur - Angul - Dhenkanal - Cuttack Rd",,754029,Odisha,IN,https://www.google.com/maps/place/Masjid+Umar+Faroque/data=!4m7!3m6!1s0x3a191980cfea0ed1:0x5fb2fa818175936f!8m2!3d20.566622!4d85.7302049!16s%2Fg%2F11g6w59mlm!19sChIJ0Q7qz4AZGToRb5N1gYH6sl8?authuser=0&hl=en&rclk=1,"20.566622,85.73020489999999"
Meherabpur Masjid msjd,Mosque,"XF8Q+5C9 Meherabpur Masjid msjd, Nuagarh, Odisha 752021",,XF8Q+5C9,Nuagarh,752021,Odisha,IN,https://www.google.com/maps/place/Meherabpur+Masjid+%D9%85%D8%B3%D8%AC%D8%AF%E2%80%AD/data=!4m7!3m6!1s0x3a184913026e7c93:0x9649faafb5f5dc5!8m2!3d19.9654103!4d85.4886005!16s%2Fg%2F11f6dtq7nf!19sChIJk3xuAhNJGDoRxV1f-6qfZAk?authuser=0&hl=en&rclk=1,"19.9654103,85.48860049999999"
Jamia Masjid Bhubaneswar - Tablighi Jamaat (Sunni Hanafi),Mosque,"6RV5+W52 Jamia Masjid Bhubaneswar - Tablighi Jamaat (Sunni Hanafi), Gandamunda, Pokhariput, Bhubaneswar, Odisha 751020","Gandamunda, Pokhariput",6RV5+W52,Bhubaneswar,751020,Odisha,IN,https://www.google.com/maps/place/Jamia+Masjid+Bhubaneswar+-+Tablighi+Jamaat+%28Sunni+Hanafi%29/data=!4m7!3m6!1s0x3a19a707fb1da937:0x82cb55a84be19a43!8m2!3d20.2447606!4d85.8078753!16s%2Fg%2F11gchbjz1r!19sChIJN6kd-wenGToRQ5rhS6hVy4I?authuser=0&hl=en&rclk=1,"20.2447606,85.80787529999999"
Badi Markazi Masjid,Mosque,"4M57+7XW Badi Markazi Masjid, Benapanjari, Odisha 752050",,4M57+7XW,Benapanjari,,Odisha,IN,https://www.google.com/maps/place/Badi+Markazi+Masjid/data=!4m7!3m6!1s0x3a19ad9d90e306fb:0x49ca65b7b3ce43dd!8m2!3d20.1082407!4d85.6649546!16s%2Fg%2F11fd56s8rq!19sChIJ-wbjkJ2tGToR3UPOs7dlykk?authuser=0&hl=en&rclk=1,"20.1082407,85.6649546"
Masjid Helal Trust,Mosque,"9R5F+284 Masjid Helal Trust, Sikharchandi Vihar, Patia, Bhubaneswar, Odisha 751024","Sikharchandi Vihar, Patia",9R5F+284,Bhubaneswar,751024,Odisha,IN,https://www.google.com/maps/place/Masjid+Helal+Trust/data=!4m7!3m6!1s0x3a1909bfc302f105:0xd76dea52caf02400!8m2!3d20.3575068!4d85.8233335!16s%2Fg%2F11j_7vw1gx!19sChIJBfECw78JGToRACTwylLqbdc?authuser=0&hl=en&rclk=1,"20.3575068,85.82333349999999"
Sainso Masjid msjd,Mosque,"Sainso Masjid msjd, Sainso Rd, Gababasta, Odisha 754001",,Sainso Rd,Gababasta,754001,Odisha,IN,https://www.google.com/maps/place/Sainso+Masjid+%D9%85%D8%B3%D8%AC%D8%AF%E2%80%AD/data=!4m7!3m6!1s0x3a197552030e0013:0xe7a4ffddca55e66b!8m2!3d20.3407386!4d85.9576307!16s%2Fg%2F11g07tvhmh!19sChIJEwAOA1J1GToRa-ZVyt3_pOc?authuser=0&hl=en&rclk=1,"20.340738599999998,85.9576307"
Purani Masjid,Mosque,"J49J+P5C Purani Masjid, Dobandhia, Odisha 754204",,J49J+P5C,Dobandhia,754204,Odisha,IN,https://www.google.com/maps/place/Purani+Masjid/data=!4m7!3m6!1s0x3a196654923fb96d:0x191bc582dad8af95!8m2!3d20.6193035!4d86.1303839!16s%2Fg%2F11f_z_9t5r!19sChIJbbk_klRmGToRla_Y2oLFGxk?authuser=0&hl=en&rclk=1,"20.619303499999997,86.1303839"
Masjid-e-Tayiba,Mosque,"7VG6+QR5 Masjid-e-Tayiba, Stage-4, Jharapada, Bhubaneswar, Odisha 751006","Stage-4, Jharapada",7VG6+QR5,Bhubaneswar,751006,Odisha,IN,https://www.google.com/maps/place/Masjid-e-Tayiba/data=!4m7!3m6!1s0x3a19a0a69ada037b:0xac45d77e321cd438!8m2!3d20.2768769!4d85.8621092!16s%2Fg%2F11c2pl125t!19sChIJewPamqagGToRONQcMn7XRaw?authuser=0&hl=en&rclk=1,"20.276876899999998,85.86210919999999"
Peer Bazar Sunni Masjid,Mosque,"CV8H+9JP Peer Bazar Sunni Masjid, Cuttack - Bhubaneswar Road, Peer Bazar, Urali, Odisha 753011",,"CV8H+9JP, Cuttack - Bhubaneswar Road, Peer Bazar",Urali,753011,Odisha,IN,https://www.google.com/maps/place/Peer+Bazar+Sunni+Masjid/data=!4m7!3m6!1s0x3a190c4fd6be20dd:0xbdffa6d2cadd2377!8m2!3d20.4159717!4d85.8790701!16s%2Fg%2F11c1t63jgx!19sChIJ3SC-1k8MGToRdyPdytKm_70?authuser=0&hl=en&rclk=1,"20.4159717,85.87907009999999"
Tanchhana Masjid,Mosque,"83FP+JV3 Tanchhana Masjid, Gopinathpur, Odisha 754102",,83FP+JV3,Gopinathpur,754102,Odisha,IN,https://www.google.com/maps/place/Tanchhana+Masjid/data=!4m7!3m6!1s0x3a197785930fa575:0x1de11d5acd582e37!8m2!3d20.3240137!4d86.0871787!16s%2Fg%2F11g8whyg35!19sChIJdaUPk4V3GToRNy5YzVod4R0?authuser=0&hl=en&rclk=1,"20.3240137,86.0871787"
"Jama Masjid, Barahal",Mosque,"4WHC+MHW Jama Masjid, Barahal, Rajas, Odisha 752102",,4WHC+MHW,Rajas,752102,Odisha,IN,"https://www.google.com/maps/place/Jama+Masjid,+Barahal/data=!4m7!3m6!1s0x3a19a3e7950e6f55:0xc5ea8339ffed9f4d!8m2!3d20.1292364!4d85.9214609!16s%2Fg%2F11gv0xk2lw!19sChIJVW8OleejGToRTZ_t_zmD6sU?authuser=0&hl=en&rclk=1","20.1292364,85.9214609"
Fahmida Masjid and Muslim Qabristan Satya Nagar Bhubaneswar,Mosque,"Fahmida Masjid and Muslim Qabristan Satya Nagar Bhubaneswar, 76, Kalimandir Rd, Satya Nagar, Bhubaneswar, Odisha 751007",Satya Nagar,"76, Kalimandir Rd",Bhubaneswar,751007,Odisha,IN,https://www.google.com/maps/place/Fahmida+Masjid+and+Muslim+Qabristan+Satya+Nagar+Bhubaneswar/data=!4m7!3m6!1s0x3a1909e6bf25e5dd:0x6c3a790c9650ff96!8m2!3d20.2831738!4d85.8451718!16s%2Fg%2F11jybdwpqr!19sChIJ3eUlv-YJGToRlv9Qlgx5Omw?authuser=0&hl=en&rclk=1,"20.2831738,85.8451718"
Jama Masjid,Mosque,"7WRV+WQQ Jama Masjid, Rasulpur, Uttar Pradesh 251315",,7WRV+WQQ,Rasulpur,251315,Uttar Pradesh,IN,https://www.google.com/maps/place/Jama+Masjid/data=!4m7!3m6!1s0x390bf564d7b50837:0xf802a85767922708!8m2!3d29.2923305!4d77.9444991!16s%2Fg%2F11f7qzf7dt!19sChIJNwi112T1CzkRCCeSZ1eoAvg?authuser=0&hl=en&rclk=1,"29.2923305,77.9444991"
Zama Maszid Muslim Basti,Mosque,"J55X+XHC Zama Maszid Muslim Basti, Nuapani sahi., Hindol, Odisha 759022",,"J55X+XHC, Nuapani sahi.",Hindol,759022,Odisha,IN,https://www.google.com/maps/place/Zama+Maszid+Muslim+Basti/data=!4m7!3m6!1s0x3a1895d009c75d57:0x13e5230da043dbdf!8m2!3d20.6099444!4d85.1988918!16s%2Fg%2F11bx85l89t!19sChIJV13HCdCVGDoR39tDoA0j5RM?authuser=0&hl=en&rclk=1,"20.6099444,85.1988918"
"Madarsha Chistiya- Sultan- Ul- Hind , Kalunga",Mosque,"6PCM+623 Madarsha Chistiya- Sultan- Ul- Hind , Kalunga, Kanshbahal, Rourkela, Odisha 770031",Kanshbahal,6PCM+623,Rourkela,770031,Odisha,IN,"https://www.google.com/maps/place/Madarsha+Chistiya-+Sultan-+Ul-+Hind+,+Kalunga/data=!4m7!3m6!1s0x3a20171e3e0bce15:0xa469441764528bbb!8m2!3d22.2205215!4d84.7325475!16s%2Fg%2F11ddzhg5bs!19sChIJFc4LPh4XIDoRu4tSZBdEaaQ?authuser=0&hl=en&rclk=1","22.2205215,84.7325475"
New Mosque,Mosque,"9755+M5R New Mosque, Mir Mohalla, Krushnanandapur, Odisha 754135",Mir Mohalla,9755+M5R,Krushnanandapur,754135,Odisha,IN,https://www.google.com/maps/place/New+Mosque/data=!4m7!3m6!1s0x3a1bd58a5e147c95:0x2981b08bd51b8493!8m2!3d20.3592302!4d86.2578863!16s%2Fg%2F11f4qgvr73!19sChIJlXwUXorVGzoRk4Qb1YuwgSk?authuser=0&hl=en&rclk=1,"20.3592302,86.2578863"
Sikharchandi Mosque,Mosque,"9R4F+P96 Sikharchandi Mosque, Sikharchandi Vihar, Patia, Bhubaneswar, Odisha 751024","Sikharchandi Vihar, Patia",9R4F+P96,Bhubaneswar,751024,Odisha,IN,https://www.google.com/maps/place/Sikharchandi+Mosque/data=!4m7!3m6!1s0x3a19093e99455555:0xd1b13371e7eb760c!8m2!3d20.356777!4d85.8233852!16s%2Fg%2F11sscs8hbv!19sChIJVVVFmT4JGToRDHbr53EzsdE?authuser=0&hl=en&rclk=1,"20.356776999999997,85.82338519999999"
Madina Masjid msjd,Mosque,"838G+5V8 Madina Masjid msjd, Village, Bhawanipur, Balia, Chasikhanda, Odisha 754102",Bhawanipur,"838G+5V8, Village","Balia, Chasikhanda",754102,Odisha,IN,https://www.google.com/maps/place/Madina+Masjid+%D9%85%D8%B3%D8%AC%D8%AF%E2%80%AD/data=!4m7!3m6!1s0x3a197796d809729d:0xed4a821e599475c2!8m2!3d20.3154202!4d86.0771947!16s%2Fg%2F11dfqyft2s!19sChIJnXIJ2JZ3GToRwnWUWR6CSu0?authuser=0&hl=en&rclk=1,"20.3154202,86.07719469999999"
Berahimpur mosque(Masjid),Mosque,"Berahimpur mosque(Masjid), SH 43, Satapuradhanipur, Odisha 754102",,SH 43,Satapuradhanipur,754102,Odisha,IN,https://www.google.com/maps/place/Berahimpur+mosque%28Masjid%29/data=!4m7!3m6!1s0x3a19786f8b0bb0ab:0xd6852911b2165323!8m2!3d20.3017699!4d86.1240443!16s%2Fg%2F1q4knkm1g!19sChIJq7ALi294GToRI1MWshEphdY?authuser=0&hl=en&rclk=1,"20.3017699,86.1240443"
Baitul Ma'bood Masjid,Mosque,"P6RV+HJR Baitul Ma'bood Masjid, Brahmabarada, Odisha 755005",,P6RV+HJR,Brahmabarada,755005,Odisha,IN,https://www.google.com/maps/place/Baitul+Ma%27bood+Masjid/data=!4m7!3m6!1s0x3a195f68358e28f7:0x1f4d231788db45a1!8m2!3d20.7414867!4d86.2440045!16s%2Fg%2F11dymf_13j!19sChIJ9yiONWhfGToRoUXbiBcjTR8?authuser=0&hl=en&rclk=1,"20.7414867,86.2440045"
MARKAZ MASJID(JAMA MASJID),Mosque,"JF5V+PW9 MARKAZ MASJID(JAMA MASJID), Chaudakulat, Odisha 754222",,JF5V+PW9,Chaudakulat,754222,Odisha,IN,https://www.google.com/maps/place/MARKAZ+MASJID%28JAMA+MASJID%29/data=!4m7!3m6!1s0x3a1bc3da42ee9a77:0xf3e76999b4f0fc15!8m2!3d20.6093318!4d86.4948507!16s%2Fg%2F11vcpq8t4q!19sChIJd5ruQtrDGzoRFfzwtJlp5_M?authuser=0&hl=en&rclk=1,"20.6093318,86.4948507"
Begunia mosque Sayed Ashiana,Mosque,"l519, Begunia mosque Sayed Ashiana, h. b, Phase 3, Dumduma, Bhubaneswar, Odisha 751019","Phase 3, Dumduma","l519, h. b",Bhubaneswar,751019,Odisha,IN,https://www.google.com/maps/place/Begunia+mosque+Sayed+Ashiana/data=!4m7!3m6!1s0x3a19a7c527926273:0xa9b089d07a023b64!8m2!3d20.2406868!4d85.7962469!16s%2Fg%2F11gyd86mtw!19sChIJc2KSJ8WnGToRZDsCetCJsKk?authuser=0&hl=en&rclk=1,"20.2406868,85.7962469"
Mojahid Nagar Masjid,Mosque,"F3X2+RQV Mojahid Nagar Masjid, Sauri, Odisha 754200",,F3X2+RQV,Sauri,754200,Odisha,IN,https://www.google.com/maps/place/Mojahid+Nagar+Masjid/data=!4m7!3m6!1s0x3a196e3516d2d271:0x9a1c6ce712d44396!8m2!3d20.4996211!4d86.0519315!16s%2Fg%2F11gf8fbg5s!19sChIJcdLSFjVuGToRlkPUEudsHJo?authuser=0&hl=en&rclk=1,"20.4996211,86.0519315"
Jama Masjid,Mosque,"Q7V9+F7P Jama Masjid, Baruan, Jamadhar, Odisha 755009",Baruan,Q7V9+F7P,Jamadhar,755009,Odisha,IN,https://www.google.com/maps/place/Jama+Masjid/data=!4m7!3m6!1s0x3a1be34165e752d5:0x5358154294fc8518!8m2!3d20.7937147!4d86.268207!16s%2Fg%2F11gvy0v2d8!19sChIJ1VLnZUHjGzoRGIX8lEIVWFM?authuser=0&hl=en&rclk=1,"20.7937147,86.26820699999999"
Deobandi Makkah masjid,Mosque,"3G89+9H2 Deobandi Makkah masjid, SH 9, Bankashi, Bhadrak, Odisha 756100",Bankashi,"3G89+9H2, SH 9",Bhadrak,756100,Odisha,IN,https://www.google.com/maps/place/Deobandi+Makkah+masjid/data=!4m7!3m6!1s0x3a1c0b483dcd21ff:0x8ec01dc232c2ef9c!8m2!3d21.0658799!4d86.5188987!16s%2Fg%2F11gnphzdk8!19sChIJ_yHNPUgLHDoRnO_CMsIdwI4?authuser=0&hl=en&rclk=1,"21.0658799,86.5188987"
Habibnagar masjid,Mosque,"Habibnagar masjid, Habibnagar, College Chhak, Bhadrak, Odisha 756100",College Chhak,Habibnagar,Bhadrak,,Odisha,IN,https://www.google.com/maps/place/Habibnagar+masjid/data=!4m7!3m6!1s0x3a1bf51e85fcfddb:0xa30c0da274e7415d!8m2!3d21.0510674!4d86.5047968!16s%2Fg%2F11ny0j16f4!19sChIJ2_38hR71GzoRXUHndKINDKM?authuser=0&hl=en&rclk=1,"21.051067399999997,86.5047968"
"Masjid-e-Abu Bakr, Gohar Nagar, Alti",Mosque,"J793+47X Masjid-e-Abu Bakr, Gohar Nagar, Alti, Charinangal, Baujanga, Odisha 754205",Charinangal,J793+47X,Baujanga,754205,Odisha,IN,"https://www.google.com/maps/place/Masjid-e-Abu+Bakr,+Gohar+Nagar,+Alti/data=!4m7!3m6!1s0x3a1961da1f89f44f:0xc4123b50b40aad56!8m2!3d20.6178661!4d86.2532343!16s%2Fg%2F11fjn947wn!19sChIJT_SJH9phGToRVq0KtFA7EsQ?authuser=0&hl=en&rclk=1","20.6178661,86.2532343"
SUNNI MASJID 786 msjd,Mosque,"2RH7+VVG SUNNI MASJID 786 msjd, Nuagodi, Bangarapara, Odisha 752046",,2RH7+VVG,"Nuagodi, Bangarapara",752046,Odisha,IN,https://www.google.com/maps/place/SUNNI+MASJID+786+%D9%85%D8%B3%D8%AC%D8%AF%E2%80%AD/data=!4m7!3m6!1s0x3a19bbb1b9d8f589:0xb9acea98e4212348!8m2!3d20.0296798!4d85.8146989!16s%2Fg%2F11dxd2ss_5!19sChIJifXYubG7GToRSCMh5JjqrLk?authuser=0&hl=en&rclk=1,"20.0296798,85.8146989"
Rizvi Masjid of Satya Nagar Bhubaneswar - Sunni Hanafi,Mosque,"7VJ3+73H Rizvi Masjid of Satya Nagar Bhubaneswar - Sunni Hanafi, H.B Colony, Satya Nagar, Bhubaneswar, Odisha 751007","H.B Colony, Satya Nagar",7VJ3+73H,Bhubaneswar,751007,Odisha,IN,https://www.google.com/maps/place/Rizvi+Masjid+of+Satya+Nagar+Bhubaneswar+-+Sunni+Hanafi/data=!4m7!3m6!1s0x3a19a16e8cc666cd:0xadb62e0f0c9d992a!8m2!3d20.2806783!4d85.8527225!16s%2Fg%2F11ghns5jx_!19sChIJzWbGjG6hGToRKpmdDA8utq0?authuser=0&hl=en&rclk=1,"20.280678299999998,85.8527225"
RAZA SUNNI MASJID SABLANG,Mosque,"RAZA SUNNI MASJID SABLANG, Kanipara Rd, Sablang, Bharatpada, Odisha 754208",,Kanipara Rd,"Sablang, Bharatpada",754208,Odisha,IN,https://www.google.com/maps/place/RAZA+SUNNI+MASJID+SABLANG/data=!4m7!3m6!1s0x3a1bd86c858b6e31:0xfec7c9c040edff49!8m2!3d20.5080834!4d86.2711297!16s%2Fg%2F11df7p6g9g!19sChIJMW6LhWzYGzoRSf_tQMDJx_4?authuser=0&hl=en&rclk=1,"20.5080834,86.2711297"
Ballabhapur Masjid,Mosque,"Ballabhapur Masjid, Ballabhapur, Naiguan, Naiguan, Odisha 754202",,"Ballabhapur, Naiguan","Naiguan, Balia",754202,Odisha,IN,https://www.google.com/maps/place/Ballabhapur+Masjid/data=!4m7!3m6!1s0x3a19656d83c810e7:0x1e3b320449163766!8m2!3d20.4976879!4d86.0967331!16s%2Fg%2F11k6gq5vn8!19sChIJ5xDIg21lGToRZjcWSQQyOx4?authuser=0&hl=en&rclk=1,"20.4976879,86.0967331"
Barigola Jama Masjid,Mosque,"F4R8+WC2 Barigola Jama Masjid, Barigola, Bodamundei, Odisha 754202",,"F4R8+WC2, Barigola","Bodamundei, Salipur",754202,Odisha,IN,https://www.google.com/maps/place/Barigola+Jama+Masjid/data=!4m7!3m6!1s0x3a196538458b9d87:0x38bf58d0cc491f2c!8m2!3d20.4922659!4d86.1160214!16s%2Fg%2F11g9q5dg7_!19sChIJh52LRThlGToRLB9JzNBYvzg?authuser=0&hl=en&rclk=1,"20.4922659,86.1160214"
Munibass Masjid,Mosque,"W4CF+QRC Munibass Masjid, Ter, Haryana 122508",,W4CF+QRC,Ter,122508,Haryana,IN,https://www.google.com/maps/place/Munibass+Masjid/data=!4m7!3m6!1s0x3972d721cc409293:0x8b6f9193af51463d!8m2!3d27.921946!4d77.124531!16s%2Fg%2F11g8wh0nv0!19sChIJk5JAzCHXcjkRPUZRr5ORb4s?authuser=0&hl=en&rclk=1,"27.921946,77.12453099999999"
SUNNI HABBIB MASJID,Mosque,"9486+9JX SUNNI HABBIB MASJID, Sarapur, Odisha 754130",,9486+9JX,Sarapur,,Odisha,IN,https://www.google.com/maps/place/SUNNI+HABBIB+MASJID/data=!4m7!3m6!1s0x3a197918fb009509:0x8741bb0b1a9ddc72!8m2!3d20.3659778!4d86.1115989!16s%2Fg%2F11ff5k5wxx!19sChIJCZUA-xh5GToRctydGgu7QYc?authuser=0&hl=en&rclk=1,"20.3659778,86.11159889999999"
Chandpur Sunni Masjid,Mosque,"84XW+WP5 Chandpur Sunni Masjid, Chandapur, Odisha 754102",,84XW+WP5,Chandapur,754102,Odisha,IN,https://www.google.com/maps/place/Chandpur+Sunni+Masjid/data=!4m7!3m6!1s0x3a197942ceac0d03:0xaa7e4cfd884053b4!8m2!3d20.3497701!4d86.1468448!16s%2Fg%2F11rrs1188n!19sChIJAw2szkJ5GToRtFNAiP1Mfqo?authuser=0&hl=en&rclk=1,"20.3497701,86.1468448"
Sayed Mohala Masjid,Mosque,"4VMR+VWR Sayed Mohala Masjid, Mukunda Das Pur, Binayakpur, Odisha 752102",Mukunda Das Pur,4VMR+VWR,Binayakpur,752102,Odisha,IN,https://www.google.com/maps/place/Sayed+Mohala+Masjid/data=!4m7!3m6!1s0x3a19a3ac0f406293:0x6ed03760d2899c82!8m2!3d20.1347294!4d85.8922502!16s%2Fg%2F11glgts_x7!19sChIJk2JAD6yjGToRgpyJ0mA30G4?authuser=0&hl=en&rclk=1,"20.134729399999998,85.89225019999999"
Sunni Masjid,Mosque,"8RH2+977 Sunni Masjid, Neeladri Vihar, Chandrasekharpur, Bhubaneswar, Odisha 751021","Neeladri Vihar, Chandrasekharpur",8RH2+977,Bhubaneswar,751021,Odisha,IN,https://www.google.com/maps/place/Sunni+Masjid/data=!4m7!3m6!1s0x3a1909b709dac0ef:0xaf376c8f3e1d0c1b!8m2!3d20.3284219!4d85.8007062!16s%2Fg%2F11jzy23rjm!19sChIJ78DaCbcJGToRGwwdPo9sN68?authuser=0&hl=en&rclk=1,"20.3284219,85.8007062"
"Bari Jama Masjid ,(Deobandi)",Mosque,"Bari Jama Masjid ,(Deobandi), 755003, Bari Rd, Bari, Odisha 755003",Bari,"755003, Bari Rd",Bari,755003,Odisha,IN,"https://www.google.com/maps/place/Bari+Jama+Masjid+,%28Deobandi%29/data=!4m7!3m6!1s0x3a1be78e26b2c2d7:0x4bae3cd93b77db01!8m2!3d20.6911281!4d86.3466071!16s%2Fg%2F11hsdr55sv!19sChIJ18KyJo7nGzoRAdt3O9k8rks?authuser=0&hl=en&rclk=1","20.6911281,86.3466071"
Masjid By Suraj Khan,Mosque,"XW66+PHQ Masjid By Suraj Khan, Sukinda, Odisha 755018",,XW66+PHQ,Sukinda,755018,Odisha,IN,https://www.google.com/maps/place/Masjid+By+Suraj+Khan/data=!4m7!3m6!1s0x3a1935edd67bbb43:0x53e1be99492b33ae!8m2!3d20.9618357!4d85.9114729!16s%2Fg%2F11fj46f9hv!19sChIJQ7t71u01GToRrjMrSZm-4VM?authuser=0&hl=en&rclk=1,"20.961835699999998,85.91147289999999"
Ambulsahi-Jama Masjid,Mosque,"83VQ+8M6 Ambulsahi-Jama Masjid, Adhangagarha, Adhanga, Odisha 754102",,83VQ+8M6,"Adhangagarha, Adhanga",754102,Odisha,IN,https://www.google.com/maps/place/Ambulsahi-Jama+Masjid/data=!4m7!3m6!1s0x3a19778cdc57520b:0x830aee8f589202a3!8m2!3d20.3432881!4d86.0891334!16s%2Fg%2F11tt2c_wcf!19sChIJC1JX3Ix3GToRowKSWI_uCoM?authuser=0&hl=en&rclk=1,"20.3432881,86.0891334"
Masjid E Bilal,Mosque,"5JQQ+8R4 Masjid E Bilal, NH57, Khordha, Odisha 752050",,"5JQQ+8R4, NH57",Khordha,752050,Odisha,IN,https://www.google.com/maps/place/Masjid+E+Bilal/data=!4m7!3m6!1s0x3a19ab40897ea4f3:0x61b4fdc2a319fbf3!8m2!3d20.1882603!4d85.6395893!16s%2Fg%2F11r6ss4ts4!19sChIJ86R-iUCrGToR8_sZo8L9tGE?authuser=0&hl=en&rclk=1,"20.1882603,85.6395893"
MASJID-E-HABIBYA,Mosque,"M8FF+JX8 MASJID-E-HABIBYA, Aruhabarti No-1, Odisha 756079",,M8FF+JX8,Aruhabarti No-1,,Odisha,IN,https://www.google.com/maps/place/MASJID-E-HABIBYA/data=!4m7!3m6!1s0x3a1cdb168aeb1059:0x79d5ceea8c830c05!8m2!3d21.6740252!4d87.3249493!16s%2Fg%2F11jtyvzd9j!19sChIJWRDrihbbHDoRBQyDjOrO1Xk?authuser=0&hl=en&rclk=1,"21.6740252,87.3249493"
Bhauria Masjid,Mosque,"G5JP+28V Bhauria Masjid, Bhaunria, Odisha 754221",,G5JP+28V,Bhaunria,,Odisha,IN,https://www.google.com/maps/place/Bhauria+Masjid/data=!4m7!3m6!1s0x3a1963937fddbc31:0xbb5803afe94599e8!8m2!3d20.5301074!4d86.1857888!16s%2Fg%2F11fmbhwk_g!19sChIJMbzdf5NjGToR6JlF6a8DWLs?authuser=0&hl=en&rclk=1,"20.5301074,86.1857888"
"Sunni, Hanafi, Quadri Nayee Masjid",Mosque,"8W3R+W7X Sunni, Hanafi, Quadri Nayee Masjid, SH 60, Kurang-padhan, Uttamapur, Odisha 754001",,"8W3R+W7X, SH 60","Kurang-padhan, Uttamapur",754001,Odisha,IN,"https://www.google.com/maps/place/Sunni,+Hanafi,+Quadri+Nayee+Masjid/data=!4m7!3m6!1s0x3a19758acadb5ec5:0xcff243d823c94a19!8m2!3d20.304863!4d85.9407439!16s%2Fg%2F11h3m7jkgh!19sChIJxV7byop1GToRGUrJI9hD8s8?authuser=0&hl=en&rclk=1","20.304862999999997,85.9407439"
IMAM SAHEB ROOM,Mosque,"6QQM+28X IMAM SAHEB ROOM, Hanuman Temple Rd 2, Dumduma, Bhubaneswar, Ranasinghpur, Odisha 751019",Dumduma,"6QQM+28X, Hanuman Temple Rd 2","Bhubaneswar, Ranasinghpur",751019,Odisha,IN,https://www.google.com/maps/place/IMAM+SAHEB+ROOM/data=!4m7!3m6!1s0x3a19a752bc09e277:0xb01c8afeb7b227b9!8m2!3d20.2376184!4d85.7833606!16s%2Fg%2F11rbz04_8h!19sChIJd-IJvFKnGToRuSeyt_6KHLA?authuser=0&hl=en&rclk=1,"20.2376184,85.7833606"
Hazrat kutbudin Saah Baba R.a.,Mosque,"Q5PQ+QM8 Hazrat kutbudin Saah Baba R.a., Jaleswar, Militaribazar, Odisha",,"Q5PQ+QM8, Jaleswar",Militaribazar,,Odisha,IN,https://www.google.com/maps/place/Hazrat+kutbudin+Saah+Baba+R.a./data=!4m7!3m6!1s0x3a1ce1292bae9cd3:0x55e9af5709916cd1!8m2!3d21.7869164!4d87.1892012!16s%2Fg%2F11q4dt5g4h!19sChIJ05yuKynhHDoR0WyRCVev6VU?authuser=0&hl=en&rclk=1,"21.7869164,87.1892012"
Masjid E Taqwa Of Jamia Umar Farooq - Tablighi Jamaat (Sunni Hanafi),Mosque,"Masjid E Taqwa Of Jamia Umar Farooq - Tablighi Jamaat (Sunni Hanafi), Madrasa Jamia Umar Farooq, Millat Nagar, Barbil, Odisha 758035",Millat Nagar,Madrasa Jamia Umar Farooq,Barbil,758035,Odisha,IN,https://www.google.com/maps/place/Masjid+E+Taqwa+Of+Jamia+Umar+Farooq+-+Tablighi+Jamaat+%28Sunni+Hanafi%29/data=!4m7!3m6!1s0x3a1fb9a77bdb7e7d:0x92af006fcecdaac7!8m2!3d22.1101748!4d85.4027602!16s%2Fg%2F11h7cbs5fz!19sChIJfX7be6e5HzoRx6rNzm8Ar5I?authuser=0&hl=en&rclk=1,"22.1101748,85.4027602"
Bankeswar Masjid,Mosque,"Bankeswar Masjid, Kakatpur-Patharpaka Road, Ajamapur, Bhandagarh, Odisha 752119",,Kakatpur-Patharpaka Road,"Ajamapur, Bhandagarh",752119,Odisha,IN,https://www.google.com/maps/place/Bankeswar+Masjid/data=!4m7!3m6!1s0x3a19894436b4dbf3:0x16752d0d61b9bcae!8m2!3d20.0160772!4d86.219357!16s%2Fg%2F11lrhh5q6m!19sChIJ89u0NkSJGToRrry5YQ0tdRY?authuser=0&hl=en&rclk=1,"20.016077199999998,86.219357"
Bayabar masjid,Mosque,"Bayabar masjid, Terahalla, Odisha 752105",,,Terahalla,752105,Odisha,IN,https://www.google.com/maps/place/Bayabar+masjid/data=!4m7!3m6!1s0x3a19bda094a8b571:0x309e92643cb7060d!8m2!3d20.0510029!4d85.8849657!16s%2Fg%2F11t31_z9hz!19sChIJcbWolKC9GToRDQa3PGSSnjA?authuser=0&hl=en&rclk=1,"20.0510029,85.8849657"
Ahmadiya maszid,Mosque,"8R96+RV6 Ahmadiya maszid, Rail Vihar, Chandrasekharpur, Bhubaneswar, Odisha 751023","Rail Vihar, Chandrasekharpur",8R96+RV6,Bhubaneswar,751023,Odisha,IN,https://www.google.com/maps/place/Ahmadiya+maszid/data=!4m7!3m6!1s0x3a19095c14644d85:0xc2fc3ee30dbb4aa7!8m2!3d20.3195288!4d85.8121502!16s%2Fg%2F11rn59cvlm!19sChIJhU1kFFwJGToRp0q7DeM-_MI?authuser=0&hl=en&rclk=1,"20.3195288,85.81215019999999"
Bangla Wali Masjid Adbar,Mosque,"32PP+5FW Bangla Wali Masjid Adbar, Adbar, Haryana 122107",,32PP+5FW,Adbar,122107,Haryana,IN,https://www.google.com/maps/place/Bangla+Wali+Masjid+Adbar/data=!4m7!3m6!1s0x390d2d130827a457:0x810d1f5ccabf1211!8m2!3d28.0854793!4d77.0362139!16s%2Fg%2F11f3rn4sj4!19sChIJV6QnCBMtDTkRERK_ylwfDYE?authuser=0&hl=en&rclk=1,"28.0854793,77.03621389999999"
Mugabhanga Jame Masjid,Mosque,"9VFV+8PF Mugabhanga Jame Masjid, Mugabhanga Rd, Bamphakuda, Odisha 754001",,"9VFV+8PF, Mugabhanga Rd",Bamphakuda,754001,Odisha,IN,https://www.google.com/maps/place/Mugabhanga+Jame+Masjid/data=!4m7!3m6!1s0x3a190b7fe10d0c31:0x28580662aeae25ce!8m2!3d20.3733016!4d85.8942937!16s%2Fg%2F11s31mn57t!19sChIJMQwN4X8LGToRziWurmIGWCg?authuser=0&hl=en&rclk=1,"20.373301599999998,85.89429369999999"
Juma Masjid,Mosque,"Juma Masjid, NH 5 pahal, Bhubaneswar, Odisha 752101",,NH 5 pahal,Bhubaneswar,752101,Odisha,IN,https://www.google.com/maps/place/Juma+Masjid/data=!4m7!3m6!1s0x3a190bdede037d0d:0xd12b63375d1c68bd!8m2!3d20.3294809!4d85.8835625!16s%2Fg%2F11stsgv11j!19sChIJDX0D3t4LGToRvWgcXTdjK9E?authuser=0&hl=en&rclk=1,"20.3294809,85.8835625"
Kesura Masjid,Mosque,"7VFJ+GQ2 Kesura Masjid, Kesora, Bhubaneswar, Odisha 752101",,7VFJ+GQ2,"Kesora, Bhubaneswar",,Odisha,IN,https://www.google.com/maps/place/Kesura+Masjid/data=!4m7!3m6!1s0x3a19a18058f7ff5b:0x85da26f4eaa9a911!8m2!3d20.2737523!4d85.8818829!16s%2Fg%2F11swj1h1n3!19sChIJW__3WIChGToREamp6vQm2oU?authuser=0&hl=en&rclk=1,"20.273752299999998,85.8818829"
Habibi Barelvi masjid,Mosque,"97H7+R26 Habibi Barelvi masjid, Tendakuda, Odisha 754134",,97H7+R26,Tendakuda,754134,Odisha,IN,https://www.google.com/maps/place/Habibi+Barelvi+masjid/data=!4m7!3m6!1s0x3a1bd58e690f40bf:0x632edfbb777812e0!8m2!3d20.379535!4d86.2625141!16s%2Fg%2F11mv4tzfwp!19sChIJv0APaY7VGzoR4BJ4d7vfLmM?authuser=0&hl=en&rclk=1,"20.379535,86.26251409999999"
Madani masjid bahabalpur,Mosque,"F5J9+H9W Madani masjid bahabalpur, Unnamed Road, Mahajanpur, Odisha 754207",,"F5J9+H9W, Unnamed Road",Mahajanpur,754207,Odisha,IN,https://www.google.com/maps/place/Madani+masjid+bahabalpur/data=!4m7!3m6!1s0x3a1965e2cdae506f:0x9175105fc9089d43!8m2!3d20.4814953!4d86.1684551!16s%2Fg%2F11nn18p79f!19sChIJb1CuzeJlGToRQ50IyV8QdZE?authuser=0&hl=en&rclk=1,"20.4814953,86.1684551"
Qur'an Institute (Faizaane Taajusshariah),Mosque,"New, New, Plot No 180, Qur'an Institute (Faizaane Taajusshariah), Azad Nagar, Sundarpada, Bhubaneswar, Ebaranga, Odisha 751002","Azad Nagar, Sundarpada","New, New, Plot No 180","Bhubaneswar, Ebaranga",751002,Odisha,IN,https://www.google.com/maps/place/Qur%27an+Institute+%28Faizaane+Taajusshariah%29/data=!4m7!3m6!1s0x3a19a72efeac3c2f:0xe8410dd9ab914175!8m2!3d20.2306725!4d85.8103563!16s%2Fg%2F11sdnmjjvr!19sChIJLzys_i6nGToRdUGRq9kNQeg?authuser=0&hl=en&rclk=1,"20.2306725,85.8103563"
Imam Bala Darga,Mosque,"VXM8+PMX Imam Bala Darga, Bhalughara, Odisha 757020",,VXM8+PMX,Bhalughara,,Odisha,IN,https://www.google.com/maps/place/Imam+Bala+Darga/data=!4m7!3m6!1s0x3a1d013eef0d06b9:0xd9ec906ce3a6c8fd!8m2!3d21.8843503!4d86.9667468!16s%2Fg%2F11g_x_2d72!19sChIJuQYN7z4BHToR_cim42yQ7Nk?authuser=0&hl=en&rclk=1,"21.884350299999998,86.9667468"
Choramuhan Masjid,Mosque,"Q5G8+RCF Choramuhan Masjid, Chora Muhan, Dharmasala, Odisha 755008",Chora Muhan,Q5G8+RCF,Dharmasala,755008,Odisha,IN,https://www.google.com/maps/place/Choramuhan+Masjid/data=!4m7!3m6!1s0x3a195b97e4de4a9d:0x4d7b78bd33b0bc21!8m2!3d20.777054!4d86.1660551!16s%2Fg%2F11ssrv0fv_!19sChIJnUre5JdbGToRIbywM714e00?authuser=0&hl=en&rclk=1,"20.777054,86.1660551"
SUNNI NOORI MASJID (sunnii nuurii msjid),Mosque,"9WJJ+FJ9 SUNNI NOORI MASJID (sunnii nuurii msjid), Canal Rd, Dhanaghara Pada, Sankataras, Odisha 753011",Dhanaghara Pada,"9WJJ+FJ9, Canal Rd",Sankataras,753011,Odisha,IN,https://www.google.com/maps/place/SUNNI+NOORI+MASJID+%28%E0%A4%B8%E0%A5%81%E0%A4%A8%E0%A5%8D%E0%A4%A8%E0%A5%80+%E0%A4%A8%E0%A5%82%E0%A4%B0%E0%A5%80+%E0%A4%AE%E0%A4%B8%E0%A5%8D%E0%A4%9C%E0%A4%BF%E0%A4%A6%29/data=!4m7!3m6!1s0x3a1973b231833279:0x3cd159e83bfa844b!8m2!3d20.3809311!4d85.9319338!16s%2Fg%2F11khwz_vmj!19sChIJeTKDMbJzGToRS4T6O-hZ0Tw?authuser=0&hl=en&rclk=1,"20.380931099999998,85.9319338"
Eid Gah Azadnagar,Mosque,"6RJ7+H9V Eid Gah Azadnagar, Azad Nagar, Sundarpada, Bhubaneswar, Ebaranga, Odisha 751002","Azad Nagar, Sundarpada",6RJ7+H9V,"Bhubaneswar, Ebaranga",751002,Odisha,IN,https://www.google.com/maps/place/Eid+Gah+Azadnagar/data=!4m7!3m6!1s0x3a19a718d2512d71:0xc465d080959c77ab!8m2!3d20.2314835!4d85.813413!16s%2Fg%2F11h5vm26z1!19sChIJcS1R0hinGToRq3eclYDQZcQ?authuser=0&hl=en&rclk=1,"20.2314835,85.813413"
Islamic Center,Mosque,"8RMC+JG4 Islamic Center, Kanak Durga Nagar, Patia, Bhubaneswar, Odisha 751024","Kanak Durga Nagar, Patia",8RMC+JG4,Bhubaneswar,,Odisha,IN,https://www.google.com/maps/place/Islamic+Center/data=!4m7!3m6!1s0x3a19096023853263:0x2b43be8a2ed1a16b!8m2!3d20.3340197!4d85.8213366!16s%2Fg%2F11k4lqkzmg!19sChIJYzKFI2AJGToRa6HRLoq-Qys?authuser=0&hl=en&rclk=1,"20.3340197,85.8213366"
MOHAMMADIYA MASJID,Mosque,"PPW4+GHF MOHAMMADIYA MASJID, Baghabuda, Arasa, Odisha 754220",,PPW4+GHF,"Baghabuda, Arasa",,Odisha,IN,https://www.google.com/maps/place/MOHAMMADIYA+MASJID/data=!4m7!3m6!1s0x3a1b971bff8cf43d:0x34e7db24a46afa2d!8m2!3d20.7463168!4d86.7064066!16s%2Fg%2F11f40ybhxq!19sChIJPfSM_xuXGzoRLfpqpCTb5zQ?authuser=0&hl=en&rclk=1,"20.7463168,86.7064066"
Masjid e Quba,Mosque,"P6MP+48W Masjid e Quba, Brahmabarada, Odisha 755005",,P6MP+48W,Brahmabarada,,Odisha,IN,https://www.google.com/maps/place/Masjid+e+Quba/data=!4m7!3m6!1s0x3a195fba164cd8b3:0xbc68fe4f72088322!8m2!3d20.732874!4d86.2358194!16s%2Fg%2F11tfnvfh1r!19sChIJs9hMFrpfGToRIoMIck_-aLw?authuser=0&hl=en&rclk=1,"20.732874,86.2358194"
Imaam Badha Sunni Masjid,Mosque,"9V44+45Q Imaam Badha Sunni Masjid, Singada, Injana - Singada Rd, Injana, Odisha 751024",,"9V44+45Q, Singada, Injana - Singada Rd","Injana, Bhubaneswar",751024,Odisha,IN,https://www.google.com/maps/place/Imaam+Badha+Sunni+Masjid/data=!4m7!3m6!1s0x3a190bc287737b95:0xec527b2514723311!8m2!3d20.3553299!4d85.8554964!16s%2Fg%2F11h4z28m9w!19sChIJlXtzh8ILGToRETNyFCV7Uuw?authuser=0&hl=en&rclk=1,"20.355329899999997,85.85549639999999"
Madhab mosque,Mosque,"33MX+X9P Madhab mosque, At/po-madhab, ps-niali, dist, Padhansahi, Odisha 754004",,"33MX+X9P, At/po-madhab, ps-niali, dist",Padhansahi,754004,Odisha,IN,https://www.google.com/maps/place/Madhab+mosque/data=!4m7!3m6!1s0x3a198f7ae4e0be95:0xb2cdaa4939744349!8m2!3d20.0849687!4d86.0984407!16s%2Fg%2F11shm82vrc!19sChIJlb7g5HqPGToRSUN0OUmqzbI?authuser=0&hl=en&rclk=1,"20.084968699999997,86.0984407"
Madani Jama Masjid Kanipada Sablang,Mosque,"G759+F7Q Madani Jama Masjid Kanipada Sablang, Bharatpada, Odisha 754208",,G759+F7Q,Bharatpada,754208,Odisha,IN,https://www.google.com/maps/place/Madani+Jama+Masjid+Kanipada+Sablang/data=!4m7!3m6!1s0x3a1bd9a05d986a77:0xae6cde729505dd75!8m2!3d20.5088047!4d86.2683774!16s%2Fg%2F11sw6p7c5t!19sChIJd2qYXaDZGzoRdd0FlXLebK4?authuser=0&hl=en&rclk=1,"20.5088047,86.26837739999999"
Masjid e Hameeda,Mosque,"X59G+FJ Masjid e Hameeda, Korai, Odisha 755022",,X59G+FJ,Korai,,Odisha,IN,https://www.google.com/maps/place/Masjid+e+Hameeda/data=!4m7!3m6!1s0x3a1955a186fba983:0x8b7b50c3d95786bb!8m2!3d20.968666!4d86.1765185!16s%2Fg%2F11rql58344!19sChIJg6n7hqFVGToRu4ZX2cNQe4s?authuser=0&hl=en&rclk=1,"20.968666,86.1765185"
Masjid aqsa Haji hameeda baas,Mosque,"Masjid aqsa Haji hameeda baas, Sanwler, Rajasthan 321204",,,Sanwler,321204,Rajasthan,IN,https://www.google.com/maps/place/Masjid+aqsa+Haji+hameeda+baas/data=!4m7!3m6!1s0x3972df5464ecad97:0xe7c3870a52b69e27!8m2!3d27.7137559!4d77.1395106!16s%2Fg%2F11p01h44ql!19sChIJl63sZFTfcjkRJ562UgqHw-c?authuser=0&hl=en&rclk=1,"27.7137559,77.1395106"
Bahubandh Masjid,Mosque,"HGC8+5RV Bahubandh Masjid, Odisha 757041",,HGC8+5RV,,757041,Odisha,IN,https://www.google.com/maps/place/Bahubandh+Masjid/data=!4m7!3m6!1s0x3a1c39c5ef90a669:0x98ddf4248a32fe06!8m2!3d21.5700952!4d86.517567!16s%2Fg%2F11rvjfdzyp!19sChIJaaaQ78U5HDoRBv4yiiT03Zg?authuser=0&hl=en&rclk=1,"21.570095199999997,86.517567"
Mir mahalla masjid,Mosque,"6QMV+G2V Mir mahalla masjid, Jadupur, Dumduma, Bhubaneswar, Odisha 751019","Jadupur, Dumduma",6QMV+G2V,Bhubaneswar,751019,Odisha,IN,https://www.google.com/maps/place/Mir+mahalla+masjid/data=!4m7!3m6!1s0x3a19a7837c50d68b:0x6cfff1b8aa01bf2e!8m2!3d20.2338524!4d85.7925431!16s%2Fg%2F11khmxym_r!19sChIJi9ZQfIOnGToRLr8Bqrjx_2w?authuser=0&hl=en&rclk=1,"20.2338524,85.7925431"
MASJID E MUHAMMADIA msjide muhmmdiyaa msjdi ` mHmdyh,Mosque,"8V33+MXR MASJID E MUHAMMADIA msjide muhmmdiyaa msjdi ` mHmdyh, Block B, Sector A, Mancheswar Industrial Estate, Bhubaneswar, Odisha 751007","Block B, Sector A, Mancheswar Industrial Estate",8V33+MXR,Bhubaneswar,751007,Odisha,IN,https://www.google.com/maps/place/MASJID+E+MUHAMMADIA+%E0%A4%AE%E0%A4%B8%E0%A5%8D%E0%A4%9C%E0%A4%BF%E0%A4%A6%E0%A5%87+%E0%A4%AE%E0%A5%81%E0%A4%B9%E0%A4%AE%E0%A5%8D%E0%A4%AE%E0%A4%A6%E0%A4%BF%E0%A4%AF%E0%A4%BE+%D9%85%D8%B3%D8%AC%D8%AF%D9%90+%D8%B9+%D9%85%D8%AD%D9%85%D8%AF%DB%8C%DB%81%E2%80%AD/data=!4m7!3m6!1s0x3a190b726b8049cd:0xc80b1ed378aecf80!8m2!3d20.3042366!4d85.854882!16s%2Fg%2F11vdx9gf08!19sChIJzUmAa3ILGToRgM-ueNMeC8g?authuser=0&hl=en&rclk=1,"20.3042366,85.85488199999999"
Sunni Masjid Nadigaon,Mosque,"VGW6+2JG Sunni Masjid Nadigaon, Bhattasahi, Bhatasahi, Falapur, Odisha 756119",Bhattasahi,VGW6+2JG,"Bhatasahi, Falapur",,Odisha,IN,https://www.google.com/maps/place/Sunni+Masjid+Nadigaon/data=!4m7!3m6!1s0x3a1bf34716db3243:0x1fef72a24b49e108!8m2!3d20.8950729!4d86.5115888!16s%2Fg%2F11v9lh2trg!19sChIJQzLbFkfzGzoRCOFJS6Jy7x8?authuser=0&hl=en&rclk=1,"20.8950729,86.5115888"
Bhaunria Masjid,Mosque,"G5HV+MM5 Bhaunria Masjid, Bhaunria, Odisha 754221",,G5HV+MM5,Bhaunria,,Odisha,IN,https://www.google.com/maps/place/Bhaunria+Masjid/data=!4m7!3m6!1s0x3a19639feaaaaaab:0xe47be24e989c2c08!8m2!3d20.5291329!4d86.1942458!16s%2Fg%2F11gdkprj19!19sChIJq6qq6p9jGToRCCycmE7ie-Q?authuser=0&hl=en&rclk=1,"20.5291329,86.19424579999999"
Bhubankalua Masjid (maasjide belaal),Mosque,"8V3P+53P Bhubankalua Masjid (maasjide belaal), Bhubankalua, Tamluk ,kelomal, Bhubunkalua",,"8V3P+53P, Bhubankalua, Tamluk ,kelomal",Bhubunkalua,,West Bengal,IN,https://www.google.com/maps/place/Bhubankalua+Masjid+%28%E0%A6%AE%E0%A6%BE%E0%A6%B8%E0%A6%9C%E0%A6%BF%E0%A6%A6%E0%A7%87+%E0%A6%AC%E0%A7%87%E0%A6%B2%E0%A6%BE%E0%A6%B2%29/data=!4m7!3m6!1s0x3a029515a468aebd:0xf6d747ac8917ac8!8m2!3d22.3029681!4d87.8851937!16s%2Fg%2F11t4h2x240!19sChIJva5opBWVAjoRyHqRyHp0bQ8?authuser=0&hl=en&rclk=1,"22.302968099999998,87.8851937"
Madhuban Sunni Barelvi Masjid,Mosque,"F6PV+MF4 Madhuban Sunni Barelvi Masjid, Julukipada, Odisha 754208",,F6PV+MF4,Julukipada,754208,Odisha,IN,https://www.google.com/maps/place/Madhuban+Sunni+Barelvi+Masjid/data=!4m7!3m6!1s0x3a1963b0fbaa0029:0x2d8a7f41e8e994d2!8m2!3d20.4866408!4d86.243692!16s%2Fg%2F11v0jtft30!19sChIJKQCq-7BjGToR0pTp6EF_ii0?authuser=0&hl=en&rclk=1,"20.4866408,86.243692"
Ghousia Razvia Masjid (Sunni),Mosque,"Q7W5+8P8 Ghousia Razvia Masjid (Sunni), Baruan, Gopinath pur, Gopinathapur, Odisha 755017",Baruan,Q7W5+8P8,"Gopinath pur, Gopinathapur",,Odisha,IN,https://www.google.com/maps/place/Ghousia+Razvia+Masjid+%28Sunni%29/data=!4m7!3m6!1s0x3a1be3df3737e03d:0x9304378d24abb586!8m2!3d20.7957976!4d86.2593239!16s%2Fg%2F11tdp1m7p7!19sChIJPeA3N9_jGzoRhrWrJI03BJM?authuser=0&hl=en&rclk=1,"20.7957976,86.2593239"
BEGUNIA MASJID,Mosque,"6G98+3X8 BEGUNIA MASJID, Begunia Village Rd, Totapada, Odisha 756134",,"6G98+3X8, Begunia Village Rd",Totapada,756134,Odisha,IN,https://www.google.com/maps/place/BEGUNIA+MASJID/data=!4m7!3m6!1s0x3a1c0d20c6331a41:0x7c7ee492e00f480c!8m2!3d21.2169975!4d86.518125!16s%2Fg%2F11kht055s_!19sChIJQRozxiANHDoRDEgP4JLkfnw?authuser=0&hl=en&rclk=1,"21.216997499999998,86.518125"
Khurda,Mosque,"7RWF+CRF Khurda, Doordarshan Colony, Gajapati Nagar, Bhubaneswar, Odisha 751013","Doordarshan Colony, Gajapati Nagar",7RWF+CRF,Bhubaneswar,,Odisha,IN,https://www.google.com/maps/place/Khurda/data=!4m7!3m6!1s0x3a19093b3901fcf9:0x58612f4a663d6264!8m2!3d20.2960587!4d85.8245398!16s%2Fg%2F11tcd7vdty!19sChIJ-fwBOTsJGToRZGI9ZkovYVg?authuser=0&hl=en&rclk=1,"20.2960587,85.8245398"
CRPF Masjid,Mosque,"7RP2+QV8 CRPF Masjid, CRPF Colony, IRC Village, Nayapalli, Bhubaneswar, Odisha 751011","CRPF Colony, IRC Village, Nayapalli",7RP2+QV8,Bhubaneswar,751011,Odisha,IN,https://www.google.com/maps/place/CRPF+Masjid/data=!4m7!3m6!1s0x3a19098bec4ad019:0x9d3825e738d7574e!8m2!3d20.2869331!4d85.8022789!16s%2Fg%2F11l1f047gd!19sChIJGdBK7IsJGToRTlfXOOclOJ0?authuser=0&hl=en&rclk=1,"20.2869331,85.80227889999999"
Sunni masjid,Mosque,"Q77R+H3V Sunni masjid, Erbank, Odisha 755017",,Q77R+H3V,Erbank,755017,Odisha,IN,https://www.google.com/maps/place/Sunni+masjid/data=!4m7!3m6!1s0x3a1be165033839a7:0xab4010f0c1d2752f!8m2!3d20.7639768!4d86.2901711!16s%2Fg%2F11rmnhswpq!19sChIJpzk4A2XhGzoRL3XSwfAQQKs?authuser=0&hl=en&rclk=1,"20.7639768,86.2901711"
Sultan nagar masjid,Mosque,"3RXC+355 Sultan nagar masjid, Danogohir Rd, Uttarasahi, Odisha 752104",,"3RXC+355, Danogohir Rd",Uttarasahi,752104,Odisha,IN,https://www.google.com/maps/place/Sultan+nagar+masjid/data=!4m7!3m6!1s0x3a19a5294696d2ed:0xcafa8adad2b4c89e!8m2!3d20.0976288!4d85.820476!16s%2Fg%2F11td374wqg!19sChIJ7dKWRimlGToRnsi00tqK-so?authuser=0&hl=en&rclk=1,"20.0976288,85.820476"
Mosque,Mosque,"6995+VXF Mosque, Ibrisingh, Odisha 754138",,6995+VXF,Ibrisingh,754138,Odisha,IN,https://www.google.com/maps/place/Mosque/data=!4m7!3m6!1s0x3a1a2c3fa5400001:0x1f7d393fbb06cf17!8m2!3d20.2196969!4d86.3599316!16s%2Fg%2F11kj3f6bhb!19sChIJAQBApT8sGjoRF88Guz85fR8?authuser=0&hl=en&rclk=1,"20.2196969,86.3599316"
