name,main_category,address,address_ward,address_street,address_city,address_postal_code,address_state,address_country_code,link,coordinates
College Masjid,Mosque,"RQ8R+M7F College Masjid, Ambicapatty, Uttar Krishnapur Part-I, Assam 788001",Ambicapatty,RQ8R+M7F,Uttar Krishnapur Part-I,788001,Assam,IN,https://www.google.com/maps/place/College+Masjid/data=!4m7!3m6!1s0x374e4a6f0617c669:0x66346c3b41ce38cb!8m2!3d24.8166882!4d92.7906675!16s%2Fg%2F11c2khyxtc!19sChIJacYXBm9KTjcRyzjOQTtsNGY?authuser=0&hl=en&rclk=1,"24.816688199999998,92.7906675"
Silchar Boro Masjid,Mosque,"RRF2+FF2 Silchar Boro Masjid, T Rd, Gopal Ganj, Kanakpur, Silchar, Assam 788001","Gopal Ganj, Kanakpur","RRF2+FF2, T Rd",Silchar,788001,Assam,IN,https://www.google.com/maps/place/Silchar+Boro+Masjid/data=!4m7!3m6!1s0x374e4a5c3bd05b73:0x3b2fe49b0b6284fa!8m2!3d24.8236413!4d92.8011408!16s%2Fg%2F1vlj_y2l!19sChIJc1vQO1xKTjcR-oRiC5vkLzs?authuser=0&hl=en&rclk=1,"24.8236413,92.8011408"
Tarapur Masjid,Mosque,"RQHR+HWV Tarapur Masjid, NH-53, Ambicapatty, Silchar, Assam 788003",Ambicapatty,"RQHR+HWV, NH-53",Silchar,788003,Assam,IN,https://www.google.com/maps/place/Tarapur+Masjid/data=!4m7!3m6!1s0x374e4a623cb28fa3:0x52ab1cc372e67232!8m2!3d24.828993!4d92.79229!16s%2Fg%2F1pyqhv6x_!19sChIJo4-yPGJKTjcRMnLmcsMcq1I?authuser=0&hl=en&rclk=1,"24.828993,92.79229"
Meherpur Jama Masjid,Mosque,"QQWR+RM3 Meherpur Jama Masjid, Meherpur Rd, Meherpur, Birbal Bazar, Silchar, Ambicapur Pt VI, Assam 788012","Meherpur, Birbal Bazar","QQWR+RM3, Meherpur Rd","Silchar, Ambicapur Pt VI",788012,Assam,IN,https://www.google.com/maps/place/Meherpur+Jama+Masjid/data=!4m7!3m6!1s0x374e4a10c1ba906b:0x3094c0da3d74c9f3!8m2!3d24.7970108!4d92.7916859!16s%2Fg%2F1pyqpqd38!19sChIJa5C6wRBKTjcR88l0PdrAlDA?authuser=0&hl=en&rclk=1,"24.7970108,92.79168589999999"
Dargah Masjid,Mosque,"RRC3+7XP Dargah Masjid, Chamragudam, Madhurbond, Uttar Krishnapur Pt II, Silchar, Assam 788001","Chamragudam, Madhurbond",RRC3+7XP,"Uttar Krishnapur Pt II, Silchar",788001,Assam,IN,https://www.google.com/maps/place/Dargah+Masjid/data=!4m7!3m6!1s0x374e4a5b1bccc099:0xf89b440a6a5ffeef!8m2!3d24.8207147!4d92.8049519!16s%2Fg%2F11cs6c86cd!19sChIJmcDMG1tKTjcR7_5fagpEm_g?authuser=0&hl=en&rclk=1,"24.8207147,92.80495189999999"
Fatok Bazar Jame Masjid,Mosque,"RRF3+37V Fatok Bazar Jame Masjid, Kali Bari Road, Fatak Bazar, Kanakpur, Silchar, Assam 788001","Fatak Bazar, Kanakpur","RRF3+37V, Kali Bari Road",Silchar,788001,Assam,IN,https://www.google.com/maps/place/Fatok+Bazar+Jame+Masjid/data=!4m7!3m6!1s0x374e4a5c75f4faf9:0x880770123c91d8a!8m2!3d24.8227342!4d92.8031776!16s%2Fg%2F11csqbjltz!19sChIJ-fr0dVxKTjcRih3JIwF3gAg?authuser=0&hl=en&rclk=1,"24.8227342,92.8031776"
Ghaniwala Markaz Maszid,Mosque,"Ghaniwala Markaz Maszid, 16, Itkhola Rd, Itkhola, Tarapur, Silchar, Assam 788002","Itkhola, Tarapur","16, Itkhola Rd",Silchar,788002,Assam,IN,https://www.google.com/maps/place/Ghaniwala+Markaz+Maszid/data=!4m7!3m6!1s0x374e4af1b0a7ddad:0xb4e55dd4332f8bec!8m2!3d24.8405794!4d92.8048509!16s%2Fg%2F11gbk4yrqj!19sChIJrd2nsPFKTjcR7IsvM9Rd5bQ?authuser=0&hl=en&rclk=1,"24.8405794,92.80485089999999"
Madhurband Boro Masjid,Mosque,"RR96+F23 Madhurband Boro Masjid, Part xi, Madhurbond, Silchar, Uttar Krishnapur Pt II, Assam 788001","Part xi, Madhurbond",RR96+F23,"Silchar, Uttar Krishnapur Pt II",788001,Assam,IN,https://www.google.com/maps/place/Madhurband+Boro+Masjid/data=!4m7!3m6!1s0x374e4a4fd6738749:0x74807bb665e176ef!8m2!3d24.8186312!4d92.8100575!16s%2Fg%2F1pyqgcg_2!19sChIJSYdz1k9KTjcR73bhZbZ7gHQ?authuser=0&hl=en&rclk=1,"24.8186312,92.8100575"
Medical College nearby Masjid,Mosque,"Medical College nearby Masjid, medical collage, near medical mosjid, Masimpur, Silchar, Silcoorie Grant, Assam 788014",Masimpur,"medical collage, near medical mosjid","Silchar, Silcoorie Grant",788014,Assam,IN,https://www.google.com/maps/place/Medical+College+nearby+Masjid/data=!4m7!3m6!1s0x374e49f15b1bb299:0xea2244d858fa5810!8m2!3d24.77646!4d92.7924022!16s%2Fg%2F11f00plz2g!19sChIJmbIbW_FJTjcREFj6WNhEIuo?authuser=0&hl=en&rclk=1,"24.77646,92.7924022"
Tarani Road Masjid,Mosque,"RQ6V+V5R Tarani Road Masjid, Ambicapatty, Kanakpur Part-II, Assam 788005",Ambicapatty,RQ6V+V5R,Kanakpur Part-II,788005,Assam,IN,https://www.google.com/maps/place/Tarani+Road+Masjid/data=!4m7!3m6!1s0x374e4a6c087f5399:0x2e6e3c3279fd5612!8m2!3d24.8122298!4d92.792881!16s%2Fg%2F11dymqjf90!19sChIJmVN_CGxKTjcRElb9eTI8bi4?authuser=0&hl=en&rclk=1,"24.812229799999997,92.792881"
Mazumdar bazar Masjid and Dewar Mukam,Mosque,"Mazumdar bazar Masjid and Dewar Mukam, Mazumder Bazar, Ramnagar, Silchar, Assam 788003",Ramnagar,Mazumder Bazar,Silchar,788003,Assam,IN,https://www.google.com/maps/place/Mazumdar+bazar+Masjid+and+Dewar+Mukam/data=!4m7!3m6!1s0x374e3563060792a7:0xdeea4db91f11b1a1!8m2!3d24.845889!4d92.7749682!16s%2Fg%2F11c5_n0js9!19sChIJp5IHBmM1TjcRobERH7lN6t4?authuser=0&hl=en&rclk=1,"24.845889,92.77496819999999"
Jame Masjid msjd,Mosque,"Jame Masjid msjd, Rangirkhari, Central Rd Ambicapatty, Central Rd, Ambicapatty, Silchar, Kanakpur Part-II, Assam 788005",Ambicapatty,"Rangirkhari, Central Rd Ambicapatty, Central Rd","Silchar, Kanakpur Part-II",788005,Assam,IN,https://www.google.com/maps/place/Jame+Masjid+%D9%85%D8%B3%D8%AC%D8%AF%E2%80%AD/data=!4m7!3m6!1s0x374e4a4266894af3:0xa91e1029040a6125!8m2!3d24.8153152!4d92.7988888!16s%2Fg%2F11g6nkw4wg!19sChIJ80qJZkJKTjcRJWEKBCkQHqk?authuser=0&hl=en&rclk=1,"24.8153152,92.7988888"
Alitikar Jame Masjid,Mosque,"QQRW+VVG Alitikar Jame Masjid, Alitikar Rd, Meherpur, Birbal Bazar, Silchar, Assam 788015","Meherpur, Birbal Bazar","QQRW+VVG, Alitikar Rd",Silchar,788015,Assam,IN,https://www.google.com/maps/place/Alitikar+Jame+Masjid/data=!4m7!3m6!1s0x374e4a2286ce1197:0xa0c1305d97a9dcc3!8m2!3d24.7921832!4d92.7972165!16s%2Fg%2F11cs4y4jcf!19sChIJlxHOhiJKTjcRw9ypl10wwaA?authuser=0&hl=en&rclk=1,"24.7921832,92.79721649999999"
Itkhola Idgah Masjid,Mosque,"RRM2+C3J Itkhola Idgah Masjid, Itkhola Rd, Malugram, Tarapur, Silchar, Assam 788001","Malugram, Tarapur","RRM2+C3J, Itkhola Rd",Silchar,788001,Assam,IN,https://www.google.com/maps/place/Itkhola+Idgah+Masjid/data=!4m7!3m6!1s0x374e4af50206f567:0x2273afec24448ac9!8m2!3d24.8335983!4d92.8001253!16s%2Fg%2F11f126hqt3!19sChIJZ_UGAvVKTjcRyYpEJOyvcyI?authuser=0&hl=en&rclk=1,"24.8335983,92.80012529999999"
Kachari Masjid,Mosque,"RRJ3+3HP Kachari Masjid, Janiganj Rd, Tarapur, Silchar, Assam 788001",Tarapur,"RRJ3+3HP, Janiganj Rd",Silchar,788001,Assam,IN,https://www.google.com/maps/place/Kachari+Masjid/data=!4m7!3m6!1s0x374e4a58a3d041a5:0xbfd181944b9880a3!8m2!3d24.830225!4d92.8039594!16s%2Fg%2F11h13rrsh!19sChIJpUHQo1hKTjcRo4CYS5SB0b8?authuser=0&hl=en&rclk=1,"24.830225,92.8039594"
Awlia Jame Masjid,Mosque,"Awlia Jame Masjid, near Awliya Bazar, Birbal Bazar, Silchar, Assam 788006",Birbal Bazar,near Awliya Bazar,Silchar,788006,Assam,IN,https://www.google.com/maps/place/Awlia+Jame+Masjid/data=!4m7!3m6!1s0x374e4a29c0e609e3:0xce8aa508d8019aea!8m2!3d24.7842458!4d92.8118804!16s%2Fg%2F11c0t917t1!19sChIJ4wnmwClKTjcR6poB2Ailis4?authuser=0&hl=en&rclk=1,"24.784245799999997,92.81188039999999"
Masjid msjd,Mosque,"RQCP+WXH Masjid msjd, Vivekananda Rd, Tarapur, Silchar, Uttar Krishnapur Part-I, Assam 788001",Tarapur,"RQCP+WXH, Vivekananda Rd","Silchar, Uttar Krishnapur Part-I",788001,Assam,IN,https://www.google.com/maps/place/Masjid+%D9%85%D8%B3%D8%AC%D8%AF%E2%80%AD/data=!4m7!3m6!1s0x374e4a7b2f54c1a9:0xff4992915c2633f9!8m2!3d24.8223102!4d92.7874864!16s%2Fg%2F11c2l13gcf!19sChIJqcFUL3tKTjcR-TMmXJGSSf8?authuser=0&hl=en&rclk=1,"24.8223102,92.78748639999999"
Meherpur Old Jame Masjid,Mosque,"Meherpur Old Jame Masjid, Kathal Point, Hailakandi Rd, Silchar, Assam 788005",,"Kathal Point, Hailakandi Rd",Silchar,788005,Assam,IN,https://www.google.com/maps/place/Meherpur+Old+Jame+Masjid/data=!4m7!3m6!1s0x374e4a115a6f26b7:0x79940afc83932b1f!8m2!3d24.8006473!4d92.7922429!16s%2Fg%2F11g9h7fgct!19sChIJtyZvWhFKTjcRHyuTg_wKlHk?authuser=0&hl=en&rclk=1,"24.800647299999998,92.79224289999999"
Hazrat Pir Fazalshahar Mukaam,Mosque,"RQ8Q+5XR Hazrat Pir Fazalshahar Mukaam, Panchayat Rd, Ambicapatty, Silchar, Uttar Krishnapur Part-I, Assam 788007",Ambicapatty,"RQ8Q+5XR, Panchayat Rd","Silchar, Uttar Krishnapur Part-I",788007,Assam,IN,https://www.google.com/maps/place/Hazrat+Pir+Fazalshahar+Mukaam/data=!4m7!3m6!1s0x374e4a6e51ca3e87:0x983d78d83f23ddfc!8m2!3d24.8154788!4d92.7898799!16s%2Fg%2F11fy1j_pyp!19sChIJhz7KUW5KTjcR_N0jP9h4PZg?authuser=0&hl=en&rclk=1,"24.815478799999998,92.7898799"
Hazrat Peer Bakharshah Mukaam,Mosque,"RR88+2GH Hazrat Peer Bakharshah Mukaam, Madhurbond, Silchar, Berenga Pt II, Assam 788001",Madhurbond,RR88+2GH,"Silchar, Berenga Pt II",788001,Assam,IN,https://www.google.com/maps/place/Hazrat+Peer+Bakharshah+Mukaam/data=!4m7!3m6!1s0x374e4a4ce6c10aeb:0x9f3c1712af42a728!8m2!3d24.8150708!4d92.816364!16s%2Fg%2F11f022dhjh!19sChIJ6wrB5kxKTjcRKKdCrxIXPJ8?authuser=0&hl=en&rclk=1,"24.815070799999997,92.816364"
Meherpur Purbokandi Jama Masjid,Mosque,"Meherpur Purbokandi Jama Masjid, MHC Lane, Meherpur (Hailakandi) Road, Meherpur, Silchar, Assam, Pin. 788015","Meherpur, Birbal Bazar","MHC Lane, Meherpur (Hailakandi) Road, Meherpur, Silchar, Assam, Pin. 788015",Silchar,,Assam,IN,https://www.google.com/maps/place/Meherpur+Purbokandi+Jama+Masjid/data=!4m7!3m6!1s0x374e4a177055e5f7:0x421d384bf116f529!8m2!3d24.7960308!4d92.7948343!16s%2Fg%2F11b6qzmvc7!19sChIJ9-VVcBdKTjcRKfUW8Us4HUI?authuser=0&hl=en&rclk=1,"24.7960308,92.79483429999999"
Nurani Mosjid,Mosque,"RR55+28V Nurani Mosjid, Kanakpur, Uttar Krishnapur Pt II, Assam 788005",Kanakpur,RR55+28V,Uttar Krishnapur Pt II,788005,Assam,IN,https://www.google.com/maps/place/Nurani+Mosjid/data=!4m7!3m6!1s0x374e4a480f72698f:0x14e0cd332cea5436!8m2!3d24.8076098!4d92.8082979!16s%2Fg%2F11c5_rb435!19sChIJj2lyD0hKTjcRNlTqLDPN4BQ?authuser=0&hl=en&rclk=1,"24.807609799999998,92.8082979"
Kanakpur Road Jame Masjid,Mosque,"RR63+3GQ Kanakpur Road Jame Masjid, Kanakpur Rd, Kanakpur, Silchar, Uttar Krishnapur Pt II, Assam 788005",Kanakpur,"RR63+3GQ, Kanakpur Rd","Silchar, Uttar Krishnapur Pt II",788005,Assam,IN,https://www.google.com/maps/place/Kanakpur+Road+Jame+Masjid/data=!4m7!3m6!1s0x374e4a46dece6639:0xdb69e008a8143be2!8m2!3d24.8102116!4d92.8038598!16s%2Fg%2F11gfmx0724!19sChIJOWbO3kZKTjcR4jsUqAjgads?authuser=0&hl=en&rclk=1,"24.8102116,92.8038598"
Ram Nagar Paka Masjid,Mosque,"RQJ3+M94 Ram Nagar Paka Masjid, Ramnagar Road ( NH-53), Ramnagar, Silchar, Tarapur Pt V, Assam 788026",Ramnagar,"RQJ3+M94, Ramnagar Road ( NH-53)","Silchar, Tarapur Pt V",788026,Assam,IN,https://www.google.com/maps/place/Ram+Nagar+Paka+Masjid/data=!4m7!3m6!1s0x374e350a07300851:0x34d58a64f63dc8ca!8m2!3d24.831649!4d92.753443!16s%2Fg%2F1pyqk_12w!19sChIJUQgwBwo1TjcRysg99mSK1TQ?authuser=0&hl=en&rclk=1,"24.831649,92.75344299999999"
Rahmania Masjid,Mosque,"QRX3+4QG Rahmania Masjid, Kanakpur, Silchar, Assam 788006",Kanakpur,QRX3+4QG,Silchar,788006,Assam,IN,https://www.google.com/maps/place/Rahmania+Masjid/data=!4m7!3m6!1s0x374e4a3b08eaab3b:0x395feb6184534b2d!8m2!3d24.7978118!4d92.8044668!16s%2Fg%2F11byp5_ncq!19sChIJO6vqCDtKTjcRLUtThGHrXzk?authuser=0&hl=en&rclk=1,"24.797811799999998,92.8044668"
Kabiura Masjid,Mosque,"QQPX+75Q Kabiura Masjid, Birbal Bazar, Silchar, Assam 788015",Birbal Bazar,QQPX+75Q,Silchar,788015,Assam,IN,https://www.google.com/maps/place/Kabiura+Masjid/data=!4m7!3m6!1s0x374e4a2029cc08f3:0xdf9189ef68d524f6!8m2!3d24.7857212!4d92.7979996!16s%2Fg%2F11dybddhdn!19sChIJ8wjMKSBKTjcR9iTVaO-Jkd8?authuser=0&hl=en&rclk=1,"24.785721199999998,92.7979996"
Masjid E Alamin Modhurbond,Mosque,"RRC6+9VP Masjid E Alamin Modhurbond, MADHURBOND (P.H.E ROAD, Alhaj Gulam Rabbani Ln, Chamragudam, Madhurbond, Silchar, Assam 788001","Chamragudam, Madhurbond","RRC6+9VP, MADHURBOND (P.H.E ROAD, Alhaj Gulam Rabbani Ln","Silchar, Uttar Krishnapur Pt II",788001,Assam,IN,https://www.google.com/maps/place/Masjid+E+Alamin+Modhurbond/data=!4m7!3m6!1s0x374e4a519ade23bd:0x3b3cebb7acb6abea!8m2!3d24.8209531!4d92.8122143!16s%2Fg%2F11b69jh2lv!19sChIJvSPemlFKTjcR6qu2rLfrPDs?authuser=0&hl=en&rclk=1,"24.8209531,92.8122143"
Mosque Tarapur,Mosque,"RQ7Q+MW5 Mosque Tarapur, Ambicapatty, Silchar, Uttar Krishnapur Part-I, Assam 788004",Ambicapatty,RQ7Q+MW5,"Silchar, Uttar Krishnapur Part-I",788004,Assam,IN,https://www.google.com/maps/place/Mosque+Tarapur/data=!4m7!3m6!1s0x374e4a6e65e69c89:0x2774b0a0b64e6ffe!8m2!3d24.814132!4d92.789867!16s%2Fg%2F1pyqkhkf0!19sChIJiZzmZW5KTjcR_m9OtqCwdCc?authuser=0&hl=en&rclk=1,"24.814131999999997,92.789867"
Tupkhana Pakka Masjid,Mosque,"VQ37+WCF Tupkhana Pakka Masjid, part 1, Ramnagar, Tupkhana, Silchar, Assam 788003","part 1, Ramnagar",VQ37+WCF,"Tupkhana, Silchar",,Assam,IN,https://www.google.com/maps/place/Tupkhana+Pakka+Masjid/data=!4m7!3m6!1s0x374e35ddf5a66f59:0xfb5f7c7eb922ac98!8m2!3d24.8548113!4d92.7635457!16s%2Fg%2F11f61t80wb!19sChIJWW-m9d01TjcRmKwiuX58X_s?authuser=0&hl=en&rclk=1,"24.854811299999998,92.7635457"
NAGA TILLA JAMA MASJID,Mosque,"QRQ5+X5H NAGA TILLA JAMA MASJID, Kanakpur Part - I, Uttar Krishnapur Pt II, Assam 788006",Kanakpur Part - I,QRQ5+X5H,Uttar Krishnapur Pt II,788006,Assam,IN,https://www.google.com/maps/place/NAGA+TILLA+JAMA+MASJID/data=!4m7!3m6!1s0x374e4a2f590197b3:0x2e25d26b41780ea2!8m2!3d24.7899332!4d92.8079947!16s%2Fg%2F11fy2px9ch!19sChIJs5cBWS9KTjcRog54QWvSJS4?authuser=0&hl=en&rclk=1,"24.7899332,92.8079947"
Chirukandi masjid,Religious institution,"RQGF+GCW Chirukandi masjid, CR Ave, Tarapur, Ambikapur Part-X, Silchar, Assam 788012",Tarapur,"RQGF+GCW, CR Ave","Ambikapur Part-X, Silchar",788012,Assam,IN,https://www.google.com/maps/place/Chirukandi+masjid/data=!4m7!3m6!1s0x374e35c85f475df9:0xc71be29f8098fc4d!8m2!3d24.8263541!4d92.7735728!16s%2Fg%2F11qndn08vr!19sChIJ-V1HX8g1TjcRTfyYgJ_iG8c?authuser=0&hl=en&rclk=1,"24.8263541,92.7735728"
Kanakpur Idgah Masjid,Mosque,"RR26+3XX Kanakpur Idgah Masjid, Kanakpur Part - I, Silchar, Gangapur, Assam 788006",Kanakpur Part - I,RR26+3XX,"Silchar, Gangapur",788006,Assam,IN,https://www.google.com/maps/place/Kanakpur+Idgah+Masjid/data=!4m7!3m6!1s0x374e4a31511f4f81:0x156b07b9cd855034!8m2!3d24.8002267!4d92.8124926!16s%2Fg%2F11c1_tg2zs!19sChIJgU8fUTFKTjcRNFCFzbkHaxU?authuser=0&hl=en&rclk=1,"24.8002267,92.8124926"
Madhurbond Mukam Masjid,Mosque,"RRC7+8JC Madhurbond Mukam Masjid, Chirua, Madhurbond, Silchar, Uttar Krishnapur Pt II, Assam 788001","Chirua, Madhurbond",RRC7+8JC,"Silchar, Uttar Krishnapur Pt II",788001,Assam,IN,https://www.google.com/maps/place/Madhurbond+Mukam+Masjid/data=!4m7!3m6!1s0x374e4a52379708ed:0x6765c69f3192aa3!8m2!3d24.820809!4d92.814004!16s%2Fg%2F11_d_pj3z!19sChIJ7QiXN1JKTjcRoyoZ82lcdgY?authuser=0&hl=en&rclk=1,"24.820809,92.814004"
Malugram Jama Maszid,Mosque,"RRQ5+4Q5 Malugram Jama Maszid, Silchar, Assam 788002",,RRQ5+4Q5,Silchar,788002,Assam,IN,https://www.google.com/maps/place/Malugram+Jama+Maszid/data=!4m7!3m6!1s0x374e4afa38c2225f:0x33a112176a1c03c8!8m2!3d24.83777!4d92.8094936!16s%2Fg%2F11c5blhcbs!19sChIJXyLCOPpKTjcRyAMcahcSoTM?authuser=0&hl=en&rclk=1,"24.83777,92.8094936"
Uttar Krishnapur Jame Masjid,Mosque,"QRQ5+HR9 Uttar Krishnapur Jame Masjid, Sikandar Ali Mazumder Lane, Silchar, Uttarkrishnapur, Assam 788006",Kanakpur,"QRQ5+HR9, Sikandar Ali Mazumder Lane, Silchar",Uttarkrishnapur,788006,Assam,IN,https://www.google.com/maps/place/Uttar+Krishnapur+Jame+Masjid/data=!4m7!3m6!1s0x374e4a28cd050239:0xe805220e7e056269!8m2!3d24.7889007!4d92.8095971!16s%2Fg%2F11f3b2d4d3!19sChIJOQIFzShKTjcRaWIFfg4iBeg?authuser=0&hl=en&rclk=1,"24.7889007,92.80959709999999"
Atalbasti Jame Masjid,Mosque,"QQMQ+296 Atalbasti Jame Masjid, Birbal Bazar, Silchar, Ambicapur Pt VI, Assam 788118",Birbal Bazar,QQMQ+296,"Silchar, Ambicapur Pt VI",788118,Assam,IN,https://www.google.com/maps/place/Atalbasti+Jame+Masjid/data=!4m7!3m6!1s0x374e49f7f0fa79e1:0x5156453d04562cc2!8m2!3d24.7825449!4d92.7883802!16s%2Fg%2F11g88c7zjc!19sChIJ4Xn68PdJTjcRwixWBD1FVlE?authuser=0&hl=en&rclk=1,"24.782544899999998,92.78838019999999"
Choudhury Masjid,Mosque,"RR37+PX3 Choudhury Masjid, Kanakpur, Gangapur, Assam 788006",Kanakpur,RR37+PX3,Gangapur,788006,Assam,IN,https://www.google.com/maps/place/Choudhury+Masjid/data=!4m7!3m6!1s0x374e4a35af070a65:0x3c807d44efc466e8!8m2!3d24.8042747!4d92.8149256!16s%2Fg%2F11f3x5nkzp!19sChIJZQoHrzVKTjcR6GbE70R9gDw?authuser=0&hl=en&rclk=1,"24.8042747,92.8149256"
Dakhin Packa Masjid,Mosque,"QRW6+68W Dakhin Packa Masjid, Kanakpur Part - I, Silchar, Assam 788006",Kanakpur Part - I,QRW6+68W,Silchar,788006,Assam,IN,https://www.google.com/maps/place/Dakhin+Packa+Masjid/data=!4m7!3m6!1s0x374e4a31ce240de1:0x18189651eee556c1!8m2!3d24.795624!4d92.8108159!16s%2Fg%2F11cmt_8r_w!19sChIJ4Q0kzjFKTjcRwVbl7lGWGBg?authuser=0&hl=en&rclk=1,"24.795624,92.8108159"
Tupkhana Madani Masjid,Mosque,"VQ58+M37 Tupkhana Madani Masjid, part 1, Ramnagar, Tupkhana, Silchar, Assam 788003","part 1, Ramnagar",VQ58+M37,"Tupkhana, Silchar",,Assam,IN,https://www.google.com/maps/place/Tupkhana+Madani+Masjid/data=!4m7!3m6!1s0x374e35101026b671:0xd5a8b698ccbe652b!8m2!3d24.8591594!4d92.7651771!16s%2Fg%2F11f61t2chp!19sChIJcbYmEBA1TjcRK2W-zJi2qNU?authuser=0&hl=en&rclk=1,"24.8591594,92.7651771"
Jame Masjid,Mosque,"RQ7Q+MW9 Jame Masjid, Panchayat Rd, Tarapur, Silchar, Uttar Krishnapur Part-I, Assam 788004",Tarapur,"RQ7Q+MW9, Panchayat Rd","Silchar, Uttar Krishnapur Part-I",788004,Assam,IN,https://www.google.com/maps/place/Jame+Masjid/data=!4m7!3m6!1s0x374e4a6e67d23615:0xf059ec6628703931!8m2!3d24.8141608!4d92.7898547!16s%2Fg%2F11c5rq5v55!19sChIJFTbSZ25KTjcRMTlwKGbsWfA?authuser=0&hl=en&rclk=1,"24.8141608,92.78985469999999"
Kanakpur Bondor Masjid,Mosque,"RR36+GR4 Kanakpur Bondor Masjid, Kanakpur, Gangapur, Assam 788006",Kanakpur,RR36+GR4,Gangapur,788006,Assam,IN,https://www.google.com/maps/place/Kanakpur+Bondor+Masjid/data=!4m7!3m6!1s0x374e4a3662848c9b:0xe2ea133e8664ba40!8m2!3d24.8037722!4d92.8120799!16s%2Fg%2F11gf95ymn9!19sChIJm4yEYjZKTjcRQLpkhj4T6uI?authuser=0&hl=en&rclk=1,"24.803772199999997,92.8120799"
Noorani Masjid,Mosque,"RR76+3JC Noorani Masjid, Kanakpur Rd, Kanakpur, Silchar, Uttar Krishnapur Pt II, Assam 788006",Kanakpur,"RR76+3JC, Kanakpur Rd","Silchar, Uttar Krishnapur Pt II",788006,Assam,IN,https://www.google.com/maps/place/Noorani+Masjid/data=!4m7!3m6!1s0x374e4b976655290d:0xcc804781d391f26e!8m2!3d24.8126752!4d92.811508!16s%2Fg%2F11ghdrdmgs!19sChIJDSlVZpdLTjcRbvKR04FHgMw?authuser=0&hl=en&rclk=1,"24.812675199999997,92.81150799999999"
PANITOLA JAME MASJID,Mosque,"PANITOLA JAME MASJID, Rongpur Part III, Rongpur, Silchar, Assam 788009","Rongpur Part III, Rongpur",,Silchar,788009,Assam,IN,https://www.google.com/maps/place/PANITOLA+JAME+MASJID/data=!4m7!3m6!1s0x374e4b0134cedf7d:0x387746814953495a!8m2!3d24.8345705!4d92.8225169!16s%2Fg%2F11b6mmgx4z!19sChIJfd_ONAFLTjcRWklTSYFGdzg?authuser=0&hl=en&rclk=1,"24.834570499999998,92.8225169"
Modhurbond Chirua Jama Mosjid,Mosque,"RR97+96C Modhurbond Chirua Jama Mosjid, Chamragudam, Madhurbond, Uttar Krishnapur Pt II, Assam 788006","Chamragudam, Madhurbond",RR97+96C,Uttar Krishnapur Pt II,788006,Assam,IN,https://www.google.com/maps/place/Modhurbond+Chirua+Jama+Mosjid/data=!4m7!3m6!1s0x374e4a4dff153c5d:0xadd17394c9dadfe4!8m2!3d24.8184494!4d92.8130092!16s%2Fg%2F11g9w57qjl!19sChIJXTwV_01KTjcR5N_ayZRz0a0?authuser=0&hl=en&rclk=1,"24.8184494,92.8130092"
FURKANIA MASJID,Mosque,"QRX6+QVG FURKANIA MASJID, Kanakpur, Silchar, Gangapur, Assam 788006",Kanakpur,QRX6+QVG,"Silchar, Gangapur",788006,Assam,IN,https://www.google.com/maps/place/FURKANIA+MASJID/data=!4m7!3m6!1s0x374e4b9bee707751:0xae0096fc67b3d814!8m2!3d24.7991722!4d92.812159!16s%2Fg%2F11t_vkr2jj!19sChIJUXdw7ptLTjcRFNizZ_yWAK4?authuser=0&hl=en&rclk=1,"24.799172199999997,92.812159"
Dakshin Krishnapur Kunargram Masjid,Mosque,"Dakshin Krishnapur Kunargram Masjid, Swej Mazumder Residence, Dakshin Krishnapur, Mazumder Ln, Silchar, Assam 788013",Saidpur,"Swej Mazumder Residence, Dakshin Krishnapur, Mazumder Ln","Silchar, Saidpur Pt I",788013,Assam,IN,https://www.google.com/maps/place/Dakshin+Krishnapur+Kunargram+Masjid/data=!4m7!3m6!1s0x374e496f91315e4d:0x8bbd44e697ffcc3f!8m2!3d24.769732!4d92.8294707!16s%2Fg%2F11b6ybs4kl!19sChIJTV4xkW9JTjcRP8z_l-ZEvYs?authuser=0&hl=en&rclk=1,"24.769731999999998,92.8294707"
"Municipal Muslim Grave Yard, Ganiwala, Silchar",Mosque,"RRR4+M3P Municipal Muslim Grave Yard, Ganiwala, Silchar, Tarapur, Silchar, Assam 788003",Tarapur,RRR4+M3P,Silchar,788003,Assam,IN,"https://www.google.com/maps/place/Municipal+Muslim+Grave+Yard,+Ganiwala,+Silchar/data=!4m7!3m6!1s0x374e4af1d27b8adb:0xcc9e3d1972691f53!8m2!3d24.8417035!4d92.8051974!16s%2Fg%2F11f38b9qy6!19sChIJ24p70vFKTjcRUx9pchk9nsw?authuser=0&hl=en&rclk=1","24.841703499999998,92.8051974"
Laskar Masjid,Mosque,"Laskar Masjid, Old Lakhipur Rd, Bhagadhar, Silchar, Berenga Pt I, Assam 788006",Bhagadhar,Old Lakhipur Rd,"Silchar, Berenga Pt I",788006,Assam,IN,https://www.google.com/maps/place/Laskar+Masjid/data=!4m7!3m6!1s0x374e4bbeaea68d75:0x4d0dd0bef42a2d4b!8m2!3d24.811835!4d92.8331002!16s%2Fg%2F11xvzn16_!19sChIJdY2mrr5LTjcRSy0q9L7QDU0?authuser=0&hl=en&rclk=1,"24.811835,92.83310019999999"
Makashah Mukam,Mosque,"RRV3+4QX Makashah Mukam, Tarapur, Silchar, Assam 788003",Tarapur,RRV3+4QX,Silchar,788003,Assam,IN,https://www.google.com/maps/place/Makashah+Mukam/data=!4m7!3m6!1s0x374e4bb83bf5813d:0x9229b71fa45e6729!8m2!3d24.8428548!4d92.8044847!16s%2Fg%2F11qr5z9ncc!19sChIJPYH1O7hLTjcRKWdepB-3KZI?authuser=0&hl=en&rclk=1,"24.842854799999998,92.80448469999999"
DUDPATIL ITKHOLAGHAT PUCCA MASJID,Mosque,"RQVX+42V DUDPATIL ITKHOLAGHAT PUCCA MASJID, Tarapur, Silchar, Assam 788003",Tarapur,RQVX+42V,Silchar,788003,Assam,IN,https://www.google.com/maps/place/DUDPATIL+ITKHOLAGHAT+PUCCA+MASJID/data=!4m7!3m6!1s0x374e4a92a94392bb:0x7fec71021d04d445!8m2!3d24.8428565!4d92.7975364!16s%2Fg%2F11d_8g66d6!19sChIJu5JDqZJKTjcRRdQEHQJx7H8?authuser=0&hl=en&rclk=1,"24.8428565,92.7975364"
Sangjurai Notun Masjid (Ramnagar khelma),Mosque,"RQJ4+95G Sangjurai Notun Masjid (Ramnagar khelma), Ramnagar, Silchar, Tarapur Pt V, Assam 788026",Ramnagar,RQJ4+95G,"Silchar, Tarapur Pt V",788026,Assam,IN,https://www.google.com/maps/place/Sangjurai+Notun+Masjid+%28Ramnagar+khelma%29/data=!4m7!3m6!1s0x374e350ce50dc6af:0xdde5ea2d215ae3a3!8m2!3d24.8309412!4d92.7554534!16s%2Fg%2F11rfddv3zl!19sChIJr8YN5Qw1TjcRo-NaIS3q5d0?authuser=0&hl=en&rclk=1,"24.830941199999998,92.7554534"
Purbo Bhagatpur Jame Masjid,Mosque,"RQ2Q+PG6 Purbo Bhagatpur Jame Masjid, Khatal Rd, Tarutajabari Pt I, Silchar, Assam 788006",,"RQ2Q+PG6, Khatal Rd","Tarutajabari Pt I, Silchar",788006,Assam,IN,https://www.google.com/maps/place/Purbo+Bhagatpur+Jame+Masjid/data=!4m7!3m6!1s0x374e4a121a4dfd47:0x41552c45599979ec!8m2!3d24.8017899!4d92.7887594!16s%2Fg%2F11d_ycl77_!19sChIJR_1NGhJKTjcR7HmZWUUsVUE?authuser=0&hl=en&rclk=1,"24.8017899,92.78875939999999"
West Bhakatpur Jama masjid,Mosque,"West Bhakatpur Jama masjid, Khatal Rd, Silchar, Assam 788005",,Khatal Rd,Silchar,788005,Assam,IN,https://www.google.com/maps/place/West+Bhakatpur+Jama+masjid/data=!4m7!3m6!1s0x374e4beea30545fd:0x209bd203a3475f58!8m2!3d24.8033905!4d92.7824922!16s%2Fg%2F11s2lg8p92!19sChIJ_UUFo-5LTjcRWF9HowPSmyA?authuser=0&hl=en&rclk=1,"24.8033905,92.7824922"
Rehmania Jame Masjid,Mosque,"RR83+3M9 Rehmania Jame Masjid, Laskar Ln, Bilpar, Kanakpur, Silchar, Uttar Krishnapur Pt II, Assam 788001","Bilpar, Kanakpur","RR83+3M9, Laskar Ln","Silchar, Uttar Krishnapur Pt II",788001,Assam,IN,https://www.google.com/maps/place/Rehmania+Jame+Masjid/data=!4m7!3m6!1s0x374e4be052c879c9:0x878b6d6ed629d334!8m2!3d24.8151539!4d92.8042458!16s%2Fg%2F11rw6n3k_5!19sChIJyXnIUuBLTjcRNNMp1m5ti4c?authuser=0&hl=en&rclk=1,"24.8151539,92.80424579999999"
Uttargram Jame Masjid,Mosque,"RQP9+FGR Uttargram Jame Masjid, Tarapur Ramnagar, Pt-VI, Silchar, Assam 788003",Ramnagar,"RQP9+FGR, Tarapur Ramnagar, Pt-VI","Silchar, Ambicapur Pt I",788003,Assam,IN,https://www.google.com/maps/place/Uttargram+Jame+Masjid/data=!4m7!3m6!1s0x374e356c3ec3c4ed:0x8fddb41a06844b07!8m2!3d24.8362417!4d92.7687676!16s%2Fg%2F11qg16kfws!19sChIJ7cTDPmw1TjcRB0uEBhq03Y8?authuser=0&hl=en&rclk=1,"24.8362417,92.76876759999999"
IDGA MASJID,Mosque,"QRM3+WJX IDGA MASJID, Silchar Rd, Birbal Bazar, Uttar Krishnapur Part-I, Assam 788006",Birbal Bazar,"QRM3+WJX, Silchar Rd",Uttar Krishnapur Part-I,788006,Assam,IN,https://www.google.com/maps/place/IDGA+MASJID/data=!4m7!3m6!1s0x374e4a273e27e611:0x3eefc98e8060c7ab!8m2!3d24.7848616!4d92.8041206!16s%2Fg%2F11fxy5ljrt!19sChIJEeYnPidKTjcRq8dggI7J7z4?authuser=0&hl=en&rclk=1,"24.7848616,92.80412059999999"
KAJUR WALA JAMA MASJID,Mosque,"QRM4+329 KAJUR WALA JAMA MASJID, Silchar Rd, Birbal Bazar, Uttar Krishnapur Part-I, Assam 788006",Birbal Bazar,"QRM4+329, Silchar Rd",Uttar Krishnapur Part-I,788006,Assam,IN,https://www.google.com/maps/place/KAJUR+WALA+JAMA+MASJID/data=!4m7!3m6!1s0x374e4989d3941341:0x7c5738d165d5db0e!8m2!3d24.7826708!4d92.805115!16s%2Fg%2F11fxy3qp1x!19sChIJQROU04lJTjcRDtvVZdE4V3w?authuser=0&hl=en&rclk=1,"24.782670799999998,92.805115"
Masjid-a-Kuba,Mosque,"RRX7+J6R Masjid-a-Kuba, Dolu Mainarband Road, Dudpatil, Part-6, Assam","Part-6, Tarapur","RRX7+J6R, Dolu Mainarband Road, Dudpatil",Rangpur Pt III,,Assam,IN,https://www.google.com/maps/place/Masjid-a-Kuba/data=!4m7!3m6!1s0x374e4bbe0deb6421:0xa6b59f06df066f83!8m2!3d24.8491199!4d92.8130167!16s%2Fg%2F11fjn3b0st!19sChIJIWTrDb5LTjcRg28G3waftaY?authuser=0&hl=en&rclk=1,"24.849119899999998,92.81301669999999"
Khemla gram Masjid,Mosque,"RRMG+VRC Khemla gram Masjid, Manipur Rd, Part IV, Rongpur, Silchar, Berenga Pt IV, Assam 788009","Part IV, Rongpur","RRMG+VRC, Manipur Rd","Silchar, Berenga Pt IV",788009,Assam,IN,https://www.google.com/maps/place/Khemla+gram+Masjid/data=!4m7!3m6!1s0x374e4b0616353019:0x26885b3a67c16527!8m2!3d24.8346784!4d92.8270154!16s%2Fg%2F11g8zy3swx!19sChIJGTA1FgZLTjcRJ2XBZzpbiCY?authuser=0&hl=en&rclk=1,"24.834678399999998,92.8270154"
Water Works Road Masjid,Mosque,"RRC4+WCV Water Works Road Masjid, Water Works Rd, Kanakpur, Silchar, Assam 788001",Kanakpur,"RRC4+WCV, Water Works Rd",Silchar,788001,Assam,IN,https://www.google.com/maps/place/Water+Works+Road+Masjid/data=!4m7!3m6!1s0x374e4b70202df493:0xe04752607133af76!8m2!3d24.8223514!4d92.8060451!16s%2Fg%2F11h79xkmt_!19sChIJk_QtIHBLTjcRdq8zcWBSR-A?authuser=0&hl=en&rclk=1,"24.8223514,92.80604509999999"
Hussainya Jama Masjid,Mosque,"QRP4+5W6 Hussainya Jama Masjid, Kajur Wala Jama Masjid Rd, Birbal Bazar, Silchar, Assam 788015",Birbal Bazar,"QRP4+5W6, Kajur Wala Jama Masjid Rd",Silchar,788015,Assam,IN,https://www.google.com/maps/place/Hussainya+Jama+Masjid/data=!4m7!3m6!1s0x374e4bab4c45db59:0xc9e23c42fb52fb4d!8m2!3d24.7854228!4d92.8072564!16s%2Fg%2F11grc886h9!19sChIJWdtFTKtLTjcRTftS-0I84sk?authuser=0&hl=en&rclk=1,"24.7854228,92.8072564"
Berakhal Jama Masjid,Mosque,"Berakhal Jama Masjid, Unnamed Road, Ramnagar, Silchar, Tarapur Pt V, Assam 788026",Ramnagar,Unnamed Road,"Silchar, Tarapur Pt V",788026,Assam,IN,https://www.google.com/maps/place/Berakhal+Jama+Masjid/data=!4m7!3m6!1s0x374e35e375d246df:0x4a11960378a732ef!8m2!3d24.840788!4d92.757897!16s%2Fg%2F11hybyn5qw!19sChIJ30bSdeM1TjcR7zKneAOWEUo?authuser=0&hl=en&rclk=1,"24.840788,92.757897"
Chirukhandi Jame Masjid,Mosque,"Chirukhandi Jame Masjid, NH37, Ramnagar Rd, Ramnagar, Ambikapur Part-X, Silchar, Assam 788026",Ramnagar,"NH37, Ramnagar Rd","Ambikapur Part-X, Silchar",788026,Assam,IN,https://www.google.com/maps/place/Chirukhandi+Jame+Masjid/data=!4m7!3m6!1s0x374e35be6dda1913:0x5e405e1c7400a448!8m2!3d24.833713!4d92.773676!16s%2Fg%2F11h4v2_8g7!19sChIJExnabb41TjcRSKQAdBxeQF4?authuser=0&hl=en&rclk=1,"24.833713,92.773676"
Masjid E Noor,Mosque,"QRP5+WFW Masjid E Noor, Kanakpur, Silchar, Assam 788015",Kanakpur,QRP5+WFW,Silchar,788015,Assam,IN,https://www.google.com/maps/place/Masjid+E+Noor/data=!4m7!3m6!1s0x374e4b6b2d067745:0x5706a37f861c34b!8m2!3d24.7873735!4d92.8086936!16s%2Fg%2F11h5n91fhc!19sChIJRXcGLWtLTjcRS8Nh-DdqcAU?authuser=0&hl=en&rclk=1,"24.787373499999998,92.8086936"
Afor Eidgah Masjid,Mosque,"VQ3H+4X9 Afor Eidgah Masjid, Ramnagar, Dudhpatil Pt IV, Silchar, Assam 788003",Ramnagar,VQ3H+4X9,"Dudhpatil Pt IV, Silchar",,Assam,IN,https://www.google.com/maps/place/Afor+Eidgah+Masjid/data=!4m7!3m6!1s0x374e4bc55bb580ad:0xa4e7a0bcc8ccd599!8m2!3d24.852795!4d92.7799999!16s%2Fg%2F11nn2gnfrb!19sChIJrYC1W8VLTjcRmdXMyLyg56Q?authuser=0&hl=en&rclk=1,"24.852795,92.77999989999999"
College road mukham,Mosque,"RQMH+8H2 College road mukham, College Rd, Ramnagar, Silchar, Assam 788025",Ramnagar,"RQMH+8H2, College Rd",Silchar,788025,Assam,IN,https://www.google.com/maps/place/College+road+mukham/data=!4m7!3m6!1s0x374e4b861fef21cf:0x4b894b4a55233242!8m2!3d24.8332708!4d92.7789054!16s%2Fg%2F11tdn9c7wl!19sChIJzyHvH4ZLTjcRQjIjVUpLiUs?authuser=0&hl=en&rclk=1,"24.833270799999998,92.7789054"
Masjid Mosque,Mosque,"QQGR+HWJ Masjid Mosque, Hailakandi Rd, Ghungoor, Masimpur, Silchar, Silcoorie Grant, Assam 788014","Ghungoor, Masimpur","QQGR+HWJ, Hailakandi Rd","Silchar, Silcoorie Grant",788014,Assam,IN,https://www.google.com/maps/place/Masjid+Mosque/data=!4m7!3m6!1s0x374e49ecfd99975d:0x198ef56e3e3b323d!8m2!3d24.7764725!4d92.7922787!16s%2Fg%2F11h51j55kc!19sChIJXZeZ_exJTjcRPTI7Pm71jhk?authuser=0&hl=en&rclk=1,"24.7764725,92.7922787"
Madhurbond Hazari Masjid,Mosque,"RR86+QJW Madhurbond Hazari Masjid, Chamragudam, Madhurbond, Silchar, Uttar Krishnapur Pt II, Assam 788001","Chamragudam, Madhurbond",RR86+QJW,"Silchar, Uttar Krishnapur Pt II",788001,Assam,IN,https://www.google.com/maps/place/Madhurbond+Hazari+Masjid/data=!4m7!3m6!1s0x374e4bfec7084939:0x2c1dad975e69a7e2!8m2!3d24.8169807!4d92.8115679!16s%2Fg%2F11p_48m90l!19sChIJOUkIx_5LTjcR4qdpXpetHSw?authuser=0&hl=en&rclk=1,"24.8169807,92.8115679"
Madhurbond jamme masjid,Mosque,"RRF4+4R3 Madhurbond jamme masjid, Madhurbond, Silchar, Assam 788001",Madhurbond,RRF4+4R3,Silchar,788001,Assam,IN,https://www.google.com/maps/place/Madhurbond+jamme+masjid/data=!4m7!3m6!1s0x374e4b7de4de6d73:0x66eb4f113d42e095!8m2!3d24.8227658!4d92.8070443!16s%2Fg%2F11fnwddsln!19sChIJc23e5H1LTjcRleBCPRFP62Y?authuser=0&hl=en&rclk=1,"24.8227658,92.8070443"
MUKAM,Mosque,"RRG6+3VJ MUKAM, Rajpath Rd, Rongpur, Silchar, Assam 788009",Rongpur,"RRG6+3VJ, Rajpath Rd",Silchar,788009,Assam,IN,https://www.google.com/maps/place/MUKAM/data=!4m7!3m6!1s0x374e4b647320e429:0x173f782e89d492d!8m2!3d24.8252017!4d92.8121545!16s%2Fg%2F11s4350dwg!19sChIJKeQgc2RLTjcRLUmd6IL3cwE?authuser=0&hl=en&rclk=1,"24.825201699999997,92.81215449999999"
"Zilani Choudhury Lane, Near Old Jame Masjid",Housing society,"RQ2R+7W7 Zilani Choudhury Lane, Near Old Jame Masjid, NS Ave, Tarapur, Silchar, Assam 788006",Tarapur,"RQ2R+7W7, NS Ave",Silchar,788006,Assam,IN,"https://www.google.com/maps/place/Zilani+Choudhury+Lane,+Near+Old+Jame+Masjid/data=!4m7!3m6!1s0x374e4b0659b5e10b:0x19799eec52d6e68d!8m2!3d24.8006657!4d92.7922904!16s%2Fg%2F11nxsjbv16!19sChIJC-G1WQZLTjcRjebWUuyeeRk?authuser=0&hl=en&rclk=1","24.8006657,92.7922904"
Masjid,Mosque,"QR93+79X Masjid, Masimpur, Silchar, Silcoorie Grant, Assam 788014",Masimpur,QR93+79X,"Silchar, Silcoorie Grant",788014,Assam,IN,https://www.google.com/maps/place/Masjid/data=!4m7!3m6!1s0x374e497e54a11d4b:0xd4fa43bda5d00031!8m2!3d24.7671524!4d92.8035734!16s%2Fg%2F11vcw99zs1!19sChIJSx2hVH5JTjcRMQDQpb1D-tQ?authuser=0&hl=en&rclk=1,"24.7671524,92.80357339999999"
MOHAMMODIA JAME MASJID,Mosque,"QRV2+7XX MOHAMMODIA JAME MASJID, Kanakpur Part - I, Silchar, Assam 788006",Kanakpur Part - I,QRV2+7XX,Silchar,788006,Assam,IN,https://www.google.com/maps/place/MOHAMMODIA+JAME+MASJID/data=!4m7!3m6!1s0x374e4bc66848379b:0x4d5a60c26cdbb187!8m2!3d24.7932478!4d92.8024713!16s%2Fg%2F11j8lq9hc1!19sChIJmzdIaMZLTjcRh7HbbMJgWk0?authuser=0&hl=en&rclk=1,"24.7932478,92.8024713"
Uttar krishnapur Masjid 1,Mosque,"QRQ5+X59 Uttar krishnapur Masjid 1, Kanakpur, Silchar, Assam 788015",Kanakpur,QRQ5+X59,Silchar,788015,Assam,IN,https://www.google.com/maps/place/Uttar+krishnapur+Masjid+1/data=!4m7!3m6!1s0x374e4bd17d85e6c5:0x3d88475a196ea108!8m2!3d24.7899123!4d92.8079972!16s%2Fg%2F11s0wfnnl5!19sChIJxeaFfdFLTjcRCKFuGVpHiD0?authuser=0&hl=en&rclk=1,"24.789912299999997,92.8079972"
Al AQSA MOSJID,Mosque,"Al AQSA MOSJID, kalapar, Kanakpur Rd, Kanakpur, Silchar, Assam 788006",Kanakpur,"kalapar, Kanakpur Rd","Silchar, Uttar Krishnapur Pt II",788006,Assam,IN,https://www.google.com/maps/place/Al+AQSA+MOSJID/data=!4m7!3m6!1s0x374e4b7f07163bfd:0x33c45195be383592!8m2!3d24.8127243!4d92.8112614!16s%2Fg%2F11nn2yxyrs!19sChIJ_TsWB39LTjcRkjU4vpVRxDM?authuser=0&hl=en&rclk=1,"24.8127243,92.81126139999999"
Kunagram jame masjid,Mosque,"RR54+W49 Kunagram jame masjid, Kanakpur, Uttar Krishnapur Pt II, Assam 788006",Kanakpur,RR54+W49,Uttar Krishnapur Pt II,788006,Assam,IN,https://www.google.com/maps/place/Kunagram+jame+masjid/data=!4m7!3m6!1s0x374e4bb0fc5669bf:0xdcce7e819f5156db!8m2!3d24.8097975!4d92.8053731!16s%2Fg%2F11qbdp98_n!19sChIJv2lW_LBLTjcR21ZRn4F-ztw?authuser=0&hl=en&rclk=1,"24.8097975,92.8053731"
Halka masjid,Religious organization,"Halka masjid, RRC3+944, L.P. Road, Mahutpara, Lane No. 1, Chamragudam, Kanakpur, Silchar, Assam 788001","Chamragudam, Kanakpur","RRC3+944, L.P. Road, Mahutpara, Lane No. 1",Silchar,788001,Assam,IN,https://www.google.com/maps/place/Halka+masjid/data=!4m7!3m6!1s0x374e4b2718c96079:0xa2853698ddfb015b!8m2!3d24.8208875!4d92.8028281!16s%2Fg%2F11sxfxkd6p!19sChIJeWDJGCdLTjcRWwH73Zg2haI?authuser=0&hl=en&rclk=1,"24.820887499999998,92.8028281"
