name,main_category,address,address_ward,address_street,address_city,address_postal_code,address_state,address_country_code,link,coordinates
Village Nangla blaiya Masjid,Mosque,"Village Nangla blaiya Masjid, Nagla Balaiya, Rajasthan 301026",,,Nagla Balaiya,301026,Rajasthan,IN,https://www.google.com/maps/place/Village+Nangla+blaiya+Masjid/data=!4m7!3m6!1s0x39729544902d30f3:0x1fe67f9cb25f5ade!8m2!3d27.5820251!4d76.7907712!16s%2Fg%2F11fll1_2ls!19sChIJ8zAtkESVcjkR3lpfspx_5h8?authuser=0&hl=en&rclk=1,"27.5820251,76.7907712"
Jumma Masjid Ramgarh Alwar Rajasthan,Mosque,"Jumma Masjid Ramgarh Alwar Rajasthan, mdrsaa & msjid, Mazahir Uloom Madarsa & Mosque mzaahir uluum, Joshi Mohalla, Ramgarh, Rajasthan 301026",Joshi Mohalla,"mdrsaa & msjid, Mazahir Uloom Madarsa & Mosque mzaahir uluum",Ramgarh,301026,Rajasthan,IN,https://www.google.com/maps/place/Jumma+Masjid+Ramgarh+Alwar+Rajasthan/data=!4m7!3m6!1s0x397294baccabaf63:0x1b37d119e4d8e608!8m2!3d27.5843341!4d76.8125207!16s%2Fg%2F11gd4g33l0!19sChIJY6-rzLqUcjkRCObY5BnRNxs?authuser=0&hl=en&rclk=1,"27.5843341,76.8125207"
Umar Masjid umar,Mosque,"Umar Masjid umar, umar8umar colony puliya no.2 dilhi bay pass umarumar coloniumar, NH248, Laxmi Narayan Puri, Jaipur, Rajasthan 302002",Laxmi Narayan Puri,"umar8umar colony puliya no.2 dilhi bay pass umarumar coloniumar, NH248",Jaipur,302002,Rajasthan,IN,https://www.google.com/maps/place/Umar+Masjid+umar/data=!4m7!3m6!1s0x396db12da75f4dd1:0x99ebd67aefa4d0d1!8m2!3d26.926518!4d75.8444088!16s%2Fg%2F11c318913b!19sChIJ0U1fpy2xbTkR0dCk73rW65k?authuser=0&hl=en&rclk=1,"26.926517999999998,75.8444088"
"Noor Masjid, Ramgarh Mod",Mosque,"WRXV+V72 Noor Masjid, Ramgarh Mod, Hazrat Ali Colony Rd, Arjun Colony, Bramhapuri, Karbala, Jaipur, Rajasthan 302002","Arjun Colony, Bramhapuri, Karbala","WRXV+V72, Hazrat Ali Colony Rd",Jaipur,302002,Rajasthan,IN,"https://www.google.com/maps/place/Noor+Masjid,+Ramgarh+Mod/data=!4m7!3m6!1s0x396db119cbe4d6dd:0x2867166caf2d8b6a!8m2!3d26.9496447!4d75.8431556!16s%2Fg%2F11ddxz0rqj!19sChIJ3dbkyxmxbTkRaostr2wWZyg?authuser=0&hl=en&rclk=1","26.9496447,75.8431556"
Quba Masjid,Mosque,"5X8F+243 Quba Masjid, Ward No.5, Athuna Mohalla, Ramgarh Shekhawati, Rajasthan 331024","Ward No.5, Athuna Mohalla",5X8F+243,Ramgarh Shekhawati,331024,Rajasthan,IN,https://www.google.com/maps/place/Quba+Masjid/data=!4m7!3m6!1s0x39135fd04a7746e5:0x1dc52a7590a1cda6!8m2!3d28.1650224!4d74.9728088!16s%2Fg%2F11fflx89sz!19sChIJ5UZ3StBfEzkRps2hkHUqxR0?authuser=0&hl=en&rclk=1,"28.165022399999998,74.9728088"
"Jumma Masjid, Kakrali meo",Mosque,"JM8R+C4C Jumma Masjid, Kakrali meo, Kakrali, Rajasthan 301028",,JM8R+C4C,Kakrali,301028,Rajasthan,IN,"https://www.google.com/maps/place/Jumma+Masjid,+Kakrali+meo/data=!4m7!3m6!1s0x39729652f8aed831:0x3f045c893864d65a!8m2!3d27.6160579!4d76.6902676!16s%2Fg%2F11gf1cjcj3!19sChIJMdiu-FKWcjkRWtZkOIlcBD8?authuser=0&hl=en&rclk=1","27.616057899999998,76.6902676"
Tahira Masjid,Mosque,"XV9V+WM3 Tahira Masjid, Nai Ki Thadi, Ramgarh Road Jaipur, Amer","Kunda, Amer","XV9V+WM3, Nai Ki Thadi, Ramgarh Road Jaipur",,,Rajasthan,IN,https://www.google.com/maps/place/Tahira+Masjid/data=!4m7!3m6!1s0x396db08152ec4a6d:0x3c59e51a12662f2f!8m2!3d26.9697634!4d75.8941776!16s%2Fg%2F11b7vvs9xt!19sChIJbUrsUoGwbTkRLy9mEhrlWTw?authuser=0&hl=en&rclk=1,"26.969763399999998,75.89417759999999"
Madina Masjid,Mosque,"5X8J+29P Madina Masjid, Athuna Mohalla, Ramgarh Shekhawati, Rajasthan 331024",Athuna Mohalla,5X8J+29P,Ramgarh Shekhawati,331024,Rajasthan,IN,https://www.google.com/maps/place/Madina+Masjid/data=!4m7!3m6!1s0x39135f9d18350ed3:0x9f43e5a2b6df2286!8m2!3d28.165096!4d74.9809579!16s%2Fg%2F11bzt7z98h!19sChIJ0w41GJ1fEzkRhiLftqLlQ58?authuser=0&hl=en&rclk=1,"28.165096,74.98095789999999"
Masjid Madrasa Izharul Uloom,Mosque,"5X78+GQ3 Masjid Madrasa Izharul Uloom, Athuna Mohalla, Ramgarh Shekhawati, Rajasthan 331024",Athuna Mohalla,5X78+GQ3,Ramgarh Shekhawati,331024,Rajasthan,IN,https://www.google.com/maps/place/Masjid+Madrasa+Izharul+Uloom/data=!4m7!3m6!1s0x3914a07f9ca8d827:0xcb2174f5f489277e!8m2!3d28.1637652!4d74.9669256!16s%2Fg%2F11d_cxzwgk!19sChIJJ9ionH-gFDkRfieJ9PV0Ics?authuser=0&hl=en&rclk=1,"28.1637652,74.9669256"
Badi Masjid Jadoli,Mosque,"GVR9+G77 Badi Masjid Jadoli, jadoli, Ramgarh, Rajasthan 301021",jadoli,GVR9+G77,Ramgarh,,Rajasthan,IN,https://www.google.com/maps/place/Badi+Masjid+Jadoli/data=!4m7!3m6!1s0x3972ecf9a488c6dd:0x87f1de3c64a7331c!8m2!3d27.541299!4d76.8681648!16s%2Fg%2F11f37ft6mx!19sChIJ3caIpPnscjkRHDOnZDze8Yc?authuser=0&hl=en&rclk=1,"27.541299,76.8681648"
Teliyan Masjid,Mosque,"Teliyan Masjid, ward no 24 Ramgarh Shekhawati, shekhaavaattii, Rajasthan 331024",Bhargav Colony,ward no 24 Ramgarh Shekhawati,"shekhaavaattii, Ramgarh Shekhawati",331024,Rajasthan,IN,https://www.google.com/maps/place/Teliyan+Masjid/data=!4m7!3m6!1s0x39135f9a8ed84635:0x79a37209df910d95!8m2!3d28.1735447!4d74.982022!16s%2Fg%2F11f4qy_6bv!19sChIJNUbYjppfEzkRlQ2R3wlyo3k?authuser=0&hl=en&rclk=1,"28.173544699999997,74.982022"
Jama Masjid Milakpur,Mosque,"HV3C+42F Jama Masjid Milakpur, Milkpur, Rajasthan 301021",,HV3C+42F,Milkpur,301021,Rajasthan,IN,https://www.google.com/maps/place/Jama+Masjid+Milakpur/data=!4m7!3m6!1s0x3972ecf50f3a0933:0x4bab9bac810fa780!8m2!3d27.5528247!4d76.8700504!16s%2Fg%2F11gcz_t3d6!19sChIJMwk6D_XscjkRgKcPgaybq0s?authuser=0&hl=en&rclk=1,"27.5528247,76.8700504"
Ramgarh Mosque,Mosque,"754J+RQP Ramgarh Mosque, Anantpura, Danta Ramgarh, Rajasthan 332703",,754J+RQP,"Anantpura, Danta Ramgarh",332703,Rajasthan,IN,https://www.google.com/maps/place/Ramgarh+Mosque/data=!4m7!3m6!1s0x396c8f0d8a0594dd:0xee692c6bfe139ad3!8m2!3d27.2570939!4d75.1819385!16s%2Fg%2F11b8c4zz6s!19sChIJ3ZQFig2PbDkR05oT_mssae4?authuser=0&hl=en&rclk=1,"27.257093899999997,75.1819385"
Divakari Masjid,Mosque,"HM36+Q56 Divakari Masjid, Vikas Nagar, Alwar, Rajasthan 301001",Vikas Nagar,HM36+Q56,Alwar,301001,Rajasthan,IN,https://www.google.com/maps/place/Divakari+Masjid/data=!4m7!3m6!1s0x397290b443612a3f:0x67885c632eba804b!8m2!3d27.554419!4d76.660381!16s%2Fg%2F1pyqqt_d8!19sChIJPyphQ7SQcjkRS4C6LmNciGc?authuser=0&hl=en&rclk=1,"27.554419,76.660381"
Madina Masjid,Mosque,"Madina Masjid, Ward no.12, Railway Colony, Danta Ramgarh Railway Station, near to Ranoli, Shishu, Rajasthan 332403",,"Ward no.12, Railway Colony, Danta Ramgarh Railway Station, near to Ranoli","Shishu, Sheeshyoo",332403,Rajasthan,IN,https://www.google.com/maps/place/Madina+Masjid/data=!4m7!3m6!1s0x396cbfd6da258fb7:0x137961f338484ff6!8m2!3d27.5161051!4d75.3029762!16s%2Fg%2F1hm4c094z!19sChIJt48l2ta_bDkR9k9IOPNheRM?authuser=0&hl=en&rclk=1,"27.516105099999997,75.3029762"
AADINAKA BAS MASJID,Mosque,"AADINAKA BAS MASJID, AADINAKA BAS, Ramgarh, Adee Naka, Rajasthan 301026",,AADINAKA BAS,"Ramgarh, Adee Naka",,Rajasthan,IN,https://www.google.com/maps/place/AADINAKA+BAS+MASJID/data=!4m7!3m6!1s0x397295aa9e4ba6f9:0x8e58311b1228085d!8m2!3d27.6304397!4d76.8042181!16s%2Fg%2F11lbggqylj!19sChIJ-aZLnqqVcjkRXQgoEhsxWI4?authuser=0&hl=en&rclk=1,"27.6304397,76.8042181"
Madina Masjid Beejwa,Mosque,"JRRW+3JR Madina Masjid Beejwa, raemgeo, Beejwa, Goojarpur Kalan, Rajasthan 301025",raemgeo,JRRW+3JR,"Beejwa, Goojarpur Kalan",301025,Rajasthan,IN,https://www.google.com/maps/place/Madina+Masjid+Beejwa/data=!4m7!3m6!1s0x3972eac1086008f5:0x5761a211a14c76ce!8m2!3d27.6414887!4d76.8459726!16s%2Fg%2F11f1fr0ygy!19sChIJ9QhgCMHqcjkRznZMoRGiYVc?authuser=0&hl=en&rclk=1,"27.6414887,76.8459726"
Hussaini Masjid,Mosque,"5XFJ+47C Hussaini Masjid, Bhargav Colony, Ramgarh Shekhawati, Rajasthan 331024",Bhargav Colony,5XFJ+47C,Ramgarh Shekhawati,331024,Rajasthan,IN,https://www.google.com/maps/place/Hussaini+Masjid/data=!4m7!3m6!1s0x39135f22dda2690d:0xe461d94e88f820e!8m2!3d28.1728091!4d74.9806461!16s%2Fg%2F11pqtnfbxw!19sChIJDWmi3SJfEzkRDoKP6JQdRg4?authuser=0&hl=en&rclk=1,"28.1728091,74.9806461"
Masjid Mohammadi,Mosque,"5X7J+3MW Masjid Mohammadi, Goplana Road, Athuna Mohalla, Ramgarh Shekhawati, Rajasthan 331024",Athuna Mohalla,"5X7J+3MW, Goplana Road",Ramgarh Shekhawati,331024,Rajasthan,IN,https://www.google.com/maps/place/Masjid+Mohammadi/data=!4m7!3m6!1s0x39135f77d6fda633:0x78bc156d966157f3!8m2!3d28.1627447!4d74.9817066!16s%2Fg%2F11dxjwj7nc!19sChIJM6b91ndfEzkR81dhlm0VvHg?authuser=0&hl=en&rclk=1,"28.162744699999998,74.9817066"
jamma Maszid,Mosque,"42M7+PJ4 jamma Maszid, Takhalsar, Kayamsar, Rajasthan 331024",,42M7+PJ4,"Takhalsar, Kayamsar",331024,Rajasthan,IN,https://www.google.com/maps/place/jamma+Maszid/data=!4m7!3m6!1s0x39135f278f2c60dd:0x9700ac2b2844b601!8m2!3d28.1342745!4d75.0140687!16s%2Fg%2F11ddyk9d4j!19sChIJ3WAsjydfEzkRAbZEKCusAJc?authuser=0&hl=en&rclk=1,"28.1342745,75.0140687"
msjid Meena Ka Bass,Mosque,"FVVM+54Q msjid Meena Ka Bass, Alwar, Rajasthan 301021",,FVVM+54Q,Alwar,,Rajasthan,IN,https://www.google.com/maps/place/%E0%A4%AE%E0%A4%B8%E0%A5%8D%E0%A4%9C%E0%A4%BF%E0%A4%A6+Meena+Ka+Bass/data=!4m7!3m6!1s0x3972edc9183febc9:0xe210421c3026e815!8m2!3d27.4929516!4d76.8828741!16s%2Fg%2F11f6g1h316!19sChIJyes_GMntcjkRFegmMBxCEOI?authuser=0&hl=en&rclk=1,"27.492951599999998,76.8828741"
Masjid Kholabas,Mosque,"PR63+9H7 Masjid Kholabas, Neekach, Ramgarh, Boojaka, Rajasthan 301025",Neekach,PR63+9H7,"Ramgarh, Boojaka",,Rajasthan,IN,https://www.google.com/maps/place/Masjid+Kholabas/data=!4m7!3m6!1s0x3972bfb16862e399:0x55ed6791c3d7605c!8m2!3d27.7109044!4d76.8039343!16s%2Fg%2F11ghnb_82k!19sChIJmeNiaLG_cjkRXGDXw5Fn7VU?authuser=0&hl=en&rclk=1,"27.7109044,76.8039343"
Jama Masjid,Mosque,"428H+32F Jama Masjid, Lawanda, Rajasthan 331024",,428H+32F,Lawanda,331024,Rajasthan,IN,https://www.google.com/maps/place/Jama+Masjid/data=!4m7!3m6!1s0x39135931bffefbdb:0xdf03f07ba9e5ddda!8m2!3d28.1151978!4d75.0275392!16s%2Fg%2F11g8pbcfzd!19sChIJ2_v-vzFZEzkR2t3lqXvwA98?authuser=0&hl=en&rclk=1,"28.115197799999997,75.02753919999999"
Jama Mewat Masjid,Mosque,"JQ4J+HRG Jama Mewat Masjid, Dohli, Kota Khurd, Rajasthan 301026",,JQ4J+HRG,"Dohli, Kota Khurd",301026,Rajasthan,IN,https://www.google.com/maps/place/Jama+Mewat+Masjid/data=!4m7!3m6!1s0x3972954e835f09bd:0xe927bad2b6f09278!8m2!3d27.6064359!4d76.7820895!16s%2Fg%2F11h00911xc!19sChIJvQlfg06VcjkReJLwttK6J-k?authuser=0&hl=en&rclk=1,"27.606435899999997,76.7820895"
Madni Masjid,Mosque,"Madni Masjid, ward no 22 mohalla teliyan, Ramgarh Shekhawati, Rajasthan",Bhargav Colony,ward no 22 mohalla teliyan,Ramgarh Shekhawati,,Rajasthan,IN,https://www.google.com/maps/place/Madni+Masjid/data=!4m7!3m6!1s0x39135f6fdc10ea0b:0xa0b0c69d5eea2d5!8m2!3d28.173484!4d74.9822519!16s%2Fg%2F11h_48vk1v!19sChIJC-oQ3G9fEzkR1aLu1WkMCwo?authuser=0&hl=en&rclk=1,"28.173484,74.9822519"
Noorani Masjid,Mosque,"Noorani Masjid, Kama Nagar , Lalwas Ka Bandha Ramgarh Road, Alwar - Jaipur Rd, Kunda, Amer, Jaipur, Rajasthan 302027","Kunda, Amer","Kama Nagar , Lalwas Ka Bandha Ramgarh Road, Alwar - Jaipur Rd",Jaipur,302027,Rajasthan,IN,https://www.google.com/maps/place/Noorani+Masjid/data=!4m7!3m6!1s0x396db088c02a4fad:0x21cfeded0b4d0ce3!8m2!3d26.9699599!4d75.8866201!16s%2Fg%2F11b8_rj65r!19sChIJrU8qwIiwbTkR4wxNC-3tzyE?authuser=0&hl=en&rclk=1,"26.9699599,75.8866201"
Sabra Masjid Ahle Sunnat Wa Jama'at,Mosque,"Sabra Masjid Ahle Sunnat Wa Jama'at, Thana Ramgarh, DEEDAMAI, Firozabad, 283203",Madina Colony,"Thana Ramgarh, DEEDAMAI","Firozabad, Didamai",283203,Uttar Pradesh,IN,https://www.google.com/maps/place/Sabra+Masjid+Ahle+Sunnat+Wa+Jama%27at/data=!4m7!3m6!1s0x3974473c831b609f:0xcf1c5f74ad9c8317!8m2!3d27.1541588!4d78.4190068!16s%2Fg%2F11f779qfp7!19sChIJn2AbgzxHdDkRF4OcrXRfHM8?authuser=0&hl=en&rclk=1,"27.154158799999998,78.41900679999999"
JAMA MASJID BHANDARA,Mosque,"P69C+CGH JAMA MASJID BHANDARA, Bhandara, Chaniyan Khurd, Rajasthan 321023",,P69C+CGH,"Bhandara, Chaniyan Khurd",321023,Rajasthan,IN,https://www.google.com/maps/place/JAMA+MASJID+BHANDARA/data=!4m7!3m6!1s0x397321811f18b385:0x6c0e08a8feb62edd!8m2!3d27.7185681!4d77.2213648!16s%2Fg%2F11my2lb4ww!19sChIJhbMYH4EhczkR3S62_qgIDmw?authuser=0&hl=en&rclk=1,"27.7185681,77.2213648"
Bilal Masjid Choma,Mosque,"JV5Q+CV4 Bilal Masjid Choma, vpo choma, Ramgarh, Rajasthan",,"JV5Q+CV4, vpo choma","Ramgarh, Chauma",,Rajasthan,IN,https://www.google.com/maps/place/Bilal+Masjid+Choma/data=!4m7!3m6!1s0x3972eb91729eab4d:0xe3c0db0d0b436049!8m2!3d27.608515!4d76.8897154!16s%2Fg%2F11gycb7g2y!19sChIJTauecpHrcjkRSWBDCw3bwOM?authuser=0&hl=en&rclk=1,"27.608514999999997,76.8897154"
Jama Masjid moti ka bass piproli,Mosque,"HQ5J+8QM Jama Masjid moti ka bass piproli, Peeproli, Rajasthan 301026",,HQ5J+8QM,Peeproli,,Rajasthan,IN,https://www.google.com/maps/place/Jama+Masjid+moti+ka+bass+piproli/data=!4m7!3m6!1s0x3972930c2f0fa8b7:0xee0c48c14ea9b042!8m2!3d27.5583272!4d76.7819073!16s%2Fg%2F11lkmhr1vl!19sChIJt6gPLwyTcjkRQrCpTsFIDO4?authuser=0&hl=en&rclk=1,"27.558327199999997,76.7819073"
Bhayari Masjid,Mosque,"GR6V+FHF Bhayari Masjid, Barodameo, Naya Bas, Rajasthan 301021",,GR6V+FHF,"Barodameo, Naya Bas",,Rajasthan,IN,https://www.google.com/maps/place/Bhayari+Masjid/data=!4m7!3m6!1s0x3972ed6cd574427b:0x241e61e5e7ee57dc!8m2!3d27.5111814!4d76.8439106!16s%2Fg%2F11grtyq412!19sChIJe0J01WztcjkR3Ffu5-VhHiQ?authuser=0&hl=en&rclk=1,"27.511181399999998,76.8439106"
Masjid Musalla,Mosque,"M75F+GMP Masjid Musalla, Jheel Kuranja, Jheel Khurenja, Geeta Colony, Delhi, 110031","Jheel Kuranja, Jheel Khurenja, Geeta Colony",M75F+GMP,Delhi,110031,Delhi,IN,https://www.google.com/maps/place/Masjid+Musalla/data=!4m7!3m6!1s0x390cfdcedfa7fe77:0xfad03951c02d26e8!8m2!3d28.6588293!4d77.2742!16s%2Fg%2F11q4d20g0_!19sChIJd_6n3879DDkR6CYtwFE50Po?authuser=0&hl=en&rclk=1,"28.658829299999997,77.2742"
makkah masjid,Mosque,"75XR+HCV makkah masjid, Danta, Rajasthan 332702",,75XR+HCV,Danta,332702,Rajasthan,IN,https://www.google.com/maps/place/makkah+masjid/data=!4m7!3m6!1s0x396c8fcf47f94317:0xbdd02747014952c0!8m2!3d27.2989844!4d75.1910525!16s%2Fg%2F11ddxt3sbz!19sChIJF0P5R8-PbDkRwFJJAUcn0L0?authuser=0&hl=en&rclk=1,"27.2989844,75.1910525"
Jama Masjid,Mosque,"5X9F+GFJ Jama Masjid, Athuna Mohalla, Ramgarh Shekhawati, Rajasthan 331024",Athuna Mohalla,5X9F+GFJ,Ramgarh Shekhawati,331024,Rajasthan,IN,https://www.google.com/maps/place/Jama+Masjid/data=!4m7!3m6!1s0x39135f544508fc5d:0x3742f7810f2fc3b1!8m2!3d28.1688253!4d74.9736481!16s%2Fg%2F11fj7sh5lt!19sChIJXfwIRVRfEzkRscMvD4H3Qjc?authuser=0&hl=en&rclk=1,"28.168825299999998,74.97364809999999"
Masjid Teliyan,Mosque,"5XGM+JV7 Masjid Teliyan, Holi Dhora, Ramgarh Shekhawati, Rajasthan 331024",Holi Dhora,5XGM+JV7,Ramgarh Shekhawati,331024,Rajasthan,IN,https://www.google.com/maps/place/Masjid+Teliyan/data=!4m7!3m6!1s0x39135f99f0000017:0x186254438ed028f1!8m2!3d28.176531!4d74.9846593!16s%2Fg%2F11f4qz18d2!19sChIJFwAA8JlfEzkR8SjQjkNUYhg?authuser=0&hl=en&rclk=1,"28.176530999999997,74.98465929999999"
Masjid Khera Wali,Mosque,"H4MH+PF6 Masjid Khera Wali, Kaithwara, Rajasthan 321024",,H4MH+PF6,Kaithwara,321024,Rajasthan,IN,https://www.google.com/maps/place/Masjid+Khera+Wali/data=!4m7!3m6!1s0x3972e3c174f4017d:0xd999649349b0685a!8m2!3d27.5842761!4d77.1286301!16s%2Fg%2F11ggr5g1vh!19sChIJfQH0dMHjcjkRWmiwSZNkmdk?authuser=0&hl=en&rclk=1,"27.5842761,77.1286301"
Masjid Rasgan,Mosque,"JWGR+QM9 Masjid Rasgan, Rasgan, Rajasthan 301026",,JWGR+QM9,Rasgan,,Rajasthan,IN,https://www.google.com/maps/place/Masjid+Rasgan/data=!4m7!3m6!1s0x3972e9c6c2e4d533:0x4a0fb862764835ef!8m2!3d27.6269137!4d76.9417268!16s%2Fg%2F11h1s9k5lz!19sChIJM9XkwsbpcjkR7zVIdmK4D0o?authuser=0&hl=en&rclk=1,"27.6269137,76.9417268"
Masjid - Village Goha,Mosque,"HQGQ+G2W Masjid - Village Goha, Goha, Rajasthan 301026",,HQGQ+G2W,Goha,301026,Rajasthan,IN,https://www.google.com/maps/place/Masjid+-+Village+Goha/data=!4m7!3m6!1s0x3972950c7d50f6cd:0x186820ad5ec69cbc!8m2!3d27.5763614!4d76.7875752!16s%2Fg%2F11gj0t4gqv!19sChIJzfZQfQyVcjkRvJzGXq0gaBg?authuser=0&hl=en&rclk=1,"27.5763614,76.78757519999999"
Masjid baadi-bass,Mosque,"PR45+GVR Masjid baadi-bass, Nikach, Ramgarh, Rajasthan 301025",Nikach,PR45+GVR,Ramgarh,,Rajasthan,IN,https://www.google.com/maps/place/Masjid+baadi-bass/data=!4m7!3m6!1s0x3972bfed9c95bef9:0x41b2ea2adbb55789!8m2!3d27.7063601!4d76.8096485!16s%2Fg%2F11h0mrgv5k!19sChIJ-b6VnO2_cjkRiVe12yrqskE?authuser=0&hl=en&rclk=1,"27.706360099999998,76.8096485"
Jannati Masjid,Mosque,"5C27+MWW Jannati Masjid, Ramgarh Rd, Madina Colony, Firozabad, Didamai, Uttar Pradesh 283203",Madina Colony,"5C27+MWW, Ramgarh Rd","Firozabad, Didamai",283203,Uttar Pradesh,IN,https://www.google.com/maps/place/Jannati+Masjid/data=!4m7!3m6!1s0x3974469a5caddb4d:0x6acee11dbc6737de!8m2!3d27.1517456!4d78.4148391!16s%2Fg%2F11f57wwp3q!19sChIJTdutXJpGdDkR3jdnvB3hzmo?authuser=0&hl=en&rclk=1,"27.151745599999998,78.4148391"
Eidgah Masjid Kharkhari,Mosque,"MRQ8+7V6 Eidgah Masjid Kharkhari, kharkhadi, road, Garhi, Rajasthan 301025",,"MRQ8+7V6, kharkhadi, road",Garhi,301025,Rajasthan,IN,https://www.google.com/maps/place/Eidgah+Masjid+Kharkhari/data=!4m7!3m6!1s0x3972bfd52be6b12f:0x15d0c67650427c6f!8m2!3d27.6881694!4d76.8171492!16s%2Fg%2F11gmcl2g7x!19sChIJL7HmK9W_cjkRb3xCUHbG0BU?authuser=0&hl=en&rclk=1,"27.6881694,76.8171492"
Masjid Mohammadi,Mosque,"Masjid Mohammadi, Masjid muhmadi, Dholpuria Colony, Ramgarh Shekhawati, Rajasthan 331024",Dholpuria Colony,Masjid muhmadi,Ramgarh Shekhawati,331024,Rajasthan,IN,https://www.google.com/maps/place/Masjid+Mohammadi/data=!4m7!3m6!1s0x39135f0824f1806b:0x88937107a3db922c!8m2!3d28.169384!4d74.985544!16s%2Fg%2F11ftt2xqdx!19sChIJa4DxJAhfEzkRLJLbowdxk4g?authuser=0&hl=en&rclk=1,"28.169383999999997,74.98554399999999"
jaamaa msjid,Mosque,"PV95+3H3 jaamaa msjid, paattaa, maatoriyaa kaa baas, Ramgarh, Rajasthan 301025",maatoriyaa kaa baas,"PV95+3H3, paattaa","Ramgarh, Pata",301025,Rajasthan,IN,https://www.google.com/maps/place/%E0%A4%9C%E0%A4%BE%E0%A4%AE%E0%A4%BE+%E0%A4%AE%E0%A4%B8%E0%A5%8D%E0%A4%9C%E0%A4%BF%E0%A4%A6/data=!4m7!3m6!1s0x3972c10ca8dddce5:0xc8a1c904e020c5e3!8m2!3d27.7176253!4d76.8589251!16s%2Fg%2F11qngg1x3j!19sChIJ5dzdqAzBcjkR48Ug4ATJocg?authuser=0&hl=en&rclk=1,"27.717625299999998,76.8589251"
aysha masjid,Mosque,"HVXW+M7J aysha masjid, Unnamed Road, Choma, Chauma, Rajasthan 301026",,"HVXW+M7J, Unnamed Road","Choma, Chauma",301026,Rajasthan,IN,https://www.google.com/maps/place/aysha+masjid/data=!4m7!3m6!1s0x3972eb8860824957:0x822240a3b2b1c2b7!8m2!3d27.5992242!4d76.8956271!16s%2Fg%2F11fj44tbsz!19sChIJV0mCYIjrcjkRt8KxsqNAIoI?authuser=0&hl=en&rclk=1,"27.5992242,76.8956271"
JAMA MASJID,Mosque,"JAMA MASJID, Ward Number 9, Sikar - Danta Ramgarh Rd, Rajasthan 332703",,"Ward Number 9, Sikar - Danta Ramgarh Rd","Danta Ramgarh, Anantpura",332703,Rajasthan,IN,https://www.google.com/maps/place/JAMA+MASJID/data=!4m7!3m6!1s0x396c8f38146fac4b:0x96c63c2c3449a259!8m2!3d27.2584851!4d75.1769707!16s%2Fg%2F11hyrx04ff!19sChIJS6xvFDiPbDkRWaJJNCw8xpY?authuser=0&hl=en&rclk=1,"27.258485099999998,75.1769707"
Aqsa Masjid,Mosque,"5X8C+J6R Aqsa Masjid, Athuna Mohalla, Ramgarh Shekhawati, Rajasthan 331024",Athuna Mohalla,5X8C+J6R,Ramgarh Shekhawati,331024,Rajasthan,IN,https://www.google.com/maps/place/Aqsa+Masjid/data=!4m7!3m6!1s0x39135f17c9ccada3:0xe8bf876e200bfe69!8m2!3d28.1666242!4d74.9705137!16s%2Fg%2F11kj0x65nd!19sChIJo63MyRdfEzkRaf4LIG6Hv-g?authuser=0&hl=en&rclk=1,"28.166624199999998,74.9705137"
Usmaniya Masjid,Mosque,"5XFF+M73 Usmaniya Masjid, Khatiko Ka Mohalla, Ramgarh Shekhawati, Rajasthan 331024",Khatiko Ka Mohalla,5XFF+M73,Ramgarh Shekhawati,331024,Rajasthan,IN,https://www.google.com/maps/place/Usmaniya+Masjid/data=!4m7!3m6!1s0x39135fdafa9566c5:0x311603393872ed87!8m2!3d28.174145!4d74.9731627!16s%2Fg%2F11f66cf94k!19sChIJxWaV-tpfEzkRh-1yODkDFjE?authuser=0&hl=en&rclk=1,"28.174145,74.9731627"
Madina masjid mukandwas,Mosque,"JQGC+7JC Madina masjid mukandwas, Mukandwas, Rajasthan 301026",,JQGC+7JC,Mukandwas,301026,Rajasthan,IN,https://www.google.com/maps/place/Madina+masjid+mukandwas/data=!4m7!3m6!1s0x3972954c075ac38b:0xb1e637b01f2399cf!8m2!3d27.6256923!4d76.7715202!16s%2Fg%2F11ny2fn4d2!19sChIJi8NaB0yVcjkRz5kjH7A35rE?authuser=0&hl=en&rclk=1,"27.625692299999997,76.7715202"
Mohd Aslam,Mosque,"P5FC+XJG Mohd Aslam, Bhalswa Jahangirpuri, Jahangirpuri, Delhi, 110033","Bhalswa Jahangirpuri, Jahangirpuri",P5FC+XJG,Delhi,,Delhi,IN,https://www.google.com/maps/place/Mohd+Aslam/data=!4m7!3m6!1s0x390d0105eadd56b7:0x360b2a3ed39278af!8m2!3d28.7249447!4d77.1715904!16s%2Fg%2F11sx7xy4rv!19sChIJt1bd6gUBDTkRr3iS0z4qCzY?authuser=0&hl=en&rclk=1,"28.724944699999998,77.1715904"
Masjid muhmadi,Place of worship,"5X9P+Q57 Masjid muhmadi, masjid muhmadi, Dholpuria Colony, Ramgarh Shekhawati, Rajasthan 331024",Dholpuria Colony,"5X9P+Q57, masjid muhmadi",Ramgarh Shekhawati,,Rajasthan,IN,https://www.google.com/maps/place/Masjid+muhmadi/data=!4m7!3m6!1s0x39135f9954269b17:0xe2d58acf11b94023!8m2!3d28.1694178!4d74.9854107!16s%2Fg%2F11bttgw5hd!19sChIJF5smVJlfEzkRI0C5Ec-K1eI?authuser=0&hl=en&rclk=1,"28.169417799999998,74.9854107"
Gumbaj wali masjid,Mosque,"5XFJ+4C4 Gumbaj wali masjid, Bhargav Colony, Ramgarh Shekhawati, Rajasthan 331024",Bhargav Colony,5XFJ+4C4,Ramgarh Shekhawati,331024,Rajasthan,IN,https://www.google.com/maps/place/Gumbaj+wali+masjid/data=!4m7!3m6!1s0x39135ff589fc2da1:0xaa2e794ef3395a21!8m2!3d28.1727512!4d74.9810769!16s%2Fg%2F11h_z7j4pn!19sChIJoS38ifVfEzkRIVo58055Lqo?authuser=0&hl=en&rclk=1,"28.1727512,74.98107689999999"
Masjid arafat,Mosque,"5X9Q+65 Masjid arafat, Dholpuria Colony, Ramgarh Shekhawati, Rajasthan 331024",Dholpuria Colony,5X9Q+65,Ramgarh Shekhawati,,Rajasthan,IN,https://www.google.com/maps/place/Masjid+arafat/data=!4m7!3m6!1s0x39135fba77a24bc1:0xf49f593aa0eae9ea!8m2!3d28.1680414!4d74.987884!16s%2Fg%2F11srjmf_8t!19sChIJwUuid7pfEzkR6unqoDpZn_Q?authuser=0&hl=en&rclk=1,"28.1680414,74.987884"
Madina Masjid,Mosque,"B, Madina Masjid, shanti nagar, Nai Ki Thade, Ramgarh, road, Jaipur, Kishanpura at Lalwas, Rajasthan 302027","Nai Ki Thade, Ramgarh, road","B, shanti nagar","Jaipur, Kishanpura at Lalwas",,Rajasthan,IN,https://www.google.com/maps/place/Madina+Masjid/data=!4m7!3m6!1s0x396db1b373f6edf5:0x5d17fe258d118a11!8m2!3d26.9623392!4d75.8988779!16s%2Fg%2F11sqsgvn1l!19sChIJ9e32c7OxbTkREYoRjSX-F10?authuser=0&hl=en&rclk=1,"26.9623392,75.8988779"
Jama Masjid Bardod,Mosque,"HQXP+H57 Jama Masjid Bardod, Bardod, Rajasthan 301026",,HQXP+H57,Bardod,301026,Rajasthan,IN,https://www.google.com/maps/place/Jama+Masjid+Bardod/data=!4m7!3m6!1s0x397295a4ddd11101:0xf09632b362acc9b6!8m2!3d27.5989204!4d76.7854078!16s%2Fg%2F11ghzlp5r9!19sChIJARHR3aSVcjkRtsmsYrMylvA?authuser=0&hl=en&rclk=1,"27.598920399999997,76.7854078"
Badi masjid hajipur,Mosque,"MVQV+8RX Badi masjid hajipur, Hajipur, Danwari, Rajasthan 301025",,MVQV+8RX,"Hajipur, Danwari",,Rajasthan,IN,https://www.google.com/maps/place/Badi+masjid+hajipur/data=!4m7!3m6!1s0x3972c1a292710d71:0x327701b2673ecf1d!8m2!3d27.6883537!4d76.8945979!16s%2Fg%2F11q4hx9hl9!19sChIJcQ1xkqLBcjkRHc8-Z7IBdzI?authuser=0&hl=en&rclk=1,"27.6883537,76.8945979"
Masjid bara,Mosque,"HX5X+4W Masjid bara, Sahanka, Rajasthan 301604",,HX5X+4W,Sahanka,301604,Rajasthan,IN,https://www.google.com/maps/place/Masjid+bara/data=!4m7!3m6!1s0x3972efcb51a7b94b:0x853151f8ea536427!8m2!3d27.5577448!4d76.9998319!16s%2Fg%2F11rk07c9fw!19sChIJS7mnUcvvcjkRJ2RT6vhRMYU?authuser=0&hl=en&rclk=1,"27.5577448,76.99983189999999"
MASJID RAMGARH,Mosque,"9FFX+W5 MASJID RAMGARH, Raghwa, Rajasthan 345022",,9FFX+W5,Raghwa,,Rajasthan,IN,https://www.google.com/maps/place/MASJID+RAMGARH/data=!4m7!3m6!1s0x3938039440ae52b1:0x52242c2a30ac8f37!8m2!3d27.3748037!4d70.497972!16s%2Fg%2F11s43g0r3x!19sChIJsVKuQJQDODkRN4-sMCosJFI?authuser=0&hl=en&rclk=1,"27.374803699999998,70.49797199999999"
Old Masjid Mubarikpur,Mosque,"MRVX+GX6 Old Masjid Mubarikpur, Mubarikpur, Ramgarh, Rajasthan",,"MRVX+GX6, Mubarikpur","Ramgarh, Mubarikpur",,Rajasthan,IN,https://www.google.com/maps/place/Old+Masjid+Mubarikpur/data=!4m7!3m6!1s0x3972c1239d3c001d:0xd8e9bed3713c8dc7!8m2!3d27.6937936!4d76.8498962!16s%2Fg%2F11f66dm1kk!19sChIJHQA8nSPBcjkRx408cdO-6dg?authuser=0&hl=en&rclk=1,"27.6937936,76.8498962"
Umar masjid,Mosque,"5X7P+FM6 Umar masjid, Mochiyon Ka Mohalla, Ramgarh Shekhawati, Rajasthan 331024",Mochiyon Ka Mohalla,5X7P+FM6,Ramgarh Shekhawati,331024,Rajasthan,IN,https://www.google.com/maps/place/Umar+masjid/data=!4m7!3m6!1s0x39135f813e000af7:0x7fb2cf24c985d9fe!8m2!3d28.1636698!4d74.9866468!16s%2Fg%2F11p4_0hkvq!19sChIJ9woAPoFfEzkR_tmFySTPsn8?authuser=0&hl=en&rclk=1,"28.163669799999997,74.9866468"
Masjid,Mosque,"3W3H+3HH Masjid, Mahwa, Ramgarh, Rajasthan 321608",,3W3H+3HH,"Mahwa, Ramgarh",321608,Rajasthan,IN,https://www.google.com/maps/place/Masjid/data=!4m7!3m6!1s0x3972451947c907ed:0xc9da504494961abe!8m2!3d27.0523226!4d76.9287118!16s%2Fg%2F11rky0q98p!19sChIJ7QfJRxlFcjkRvhqWlERQ2sk?authuser=0&hl=en&rclk=1,"27.0523226,76.9287118"
Jama masjid Hajipur by Haris khan,Mosque,"MVQV+7QM Jama masjid Hajipur by Haris khan, Hazipur, Ramgarh, Rajasthan",,"MVQV+7QM, Hazipur","Ramgarh, Danwari",,Rajasthan,IN,https://www.google.com/maps/place/Jama+masjid+Hajipur+by+Haris+khan/data=!4m7!3m6!1s0x3972c1e710fd516b:0xeecc547a6b066beb!8m2!3d27.688205!4d76.8944344!16s%2Fg%2F11rvhbzfmh!19sChIJa1H9EOfBcjkR62sGa3pUzO4?authuser=0&hl=en&rclk=1,"27.688205,76.8944344"
pddaavdaa,Mosque,"HRQ8+3XC pddaavdaa, Ramgarh, Rajasthan 301026",,HRQ8+3XC,Ramgarh,301026,Rajasthan,IN,https://www.google.com/maps/place/%E0%A4%AA%E0%A4%A1%E0%A4%BE%E0%A4%B5%E0%A4%A6%E0%A4%BE/data=!4m7!3m6!1s0x39729544336c774b:0xb5072ed10f5c383d!8m2!3d27.5876832!4d76.8173753!16s%2Fg%2F11snvxx6gj!19sChIJS3dsM0SVcjkRPThcD9EuB7U?authuser=0&hl=en&rclk=1,"27.587683199999997,76.8173753"
Chajjubass masjid,Mosque,"JQHX+4F3 Chajjubass masjid, Khilora, Rajasthan 301026",,JQHX+4F3,Khilora,301026,Rajasthan,IN,https://www.google.com/maps/place/Chajjubass+masjid/data=!4m7!3m6!1s0x39729577fea4442d:0x6e3d5d6d8ab04315!8m2!3d27.6277722!4d76.7986655!16s%2Fg%2F11p74d2lbv!19sChIJLUSk_neVcjkRFUOwim1dPW4?authuser=0&hl=en&rclk=1,"27.6277722,76.7986655"
Nora ni masjid,Mosque,"JVF2+VF Nora ni masjid, Beejwa, Rajasthan 301026",,JVF2+VF,Beejwa,,Rajasthan,IN,https://www.google.com/maps/place/Nora+ni+masjid/data=!4m7!3m6!1s0x3972eb51770786fd:0x1513d9f91f709f93!8m2!3d27.6252499!4d76.8508123!16s%2Fg%2F11t0n2rnfn!19sChIJ_YYHd1HrcjkRk59wH_nZExU?authuser=0&hl=en&rclk=1,"27.6252499,76.8508123"
Masjid Thengi ka bass,Mosque,"HPFG+MJP Masjid Thengi ka bass, Thegi Ka Bas, Rajasthan 301026",,HPFG+MJP,Thegi Ka Bas,301026,Rajasthan,IN,https://www.google.com/maps/place/Masjid+Thengi+ka+bass/data=!4m7!3m6!1s0x397297f4dd292a93:0xe2f7373f00431c9!8m2!3d27.5742185!4d76.7265741!16s%2Fg%2F11q88ypvg3!19sChIJkyop3fSXcjkRyTEE8HNzLw4?authuser=0&hl=en&rclk=1,"27.574218499999997,76.7265741"
Jama masjid Thengi ka bass Sahdoli,Mosque,"HPGG+G2C Jama masjid Thengi ka bass Sahdoli, Thegi Ka Bas, Rajasthan 301026",,HPGG+G2C,Thegi Ka Bas,301026,Rajasthan,IN,https://www.google.com/maps/place/Jama+masjid+Thengi+ka+bass+Sahdoli/data=!4m7!3m6!1s0x39729790c16476f9:0xc42996acce56a56c!8m2!3d27.5763078!4d76.7250043!16s%2Fg%2F11rqcfhww4!19sChIJ-XZkwZCXcjkRbKVWzqyWKcQ?authuser=0&hl=en&rclk=1,"27.5763078,76.7250043"
Jumma masjid,Mosque,"FXWW+MP7 Jumma masjid, Semla Rd, Govind Garh, Rajasthan 301604",,"FXWW+MP7, Semla Rd",Govind Garh,301604,Rajasthan,IN,https://www.google.com/maps/place/Jumma+masjid/data=!4m7!3m6!1s0x3972f161acf4b21b:0x1af3293a7808e31b!8m2!3d27.4966671!4d76.9968104!16s%2Fg%2F11rbfkj6br!19sChIJG7L0rGHxcjkRG-MIeDop8xo?authuser=0&hl=en&rclk=1,"27.4966671,76.9968104"
Masjid e Hanafiyyah,Mosque,"5C39+JGH Masjid e Hanafiyyah, Ramgarh Rd, Madina Colony, Firozabad, Didamai, Uttar Pradesh 283203",Madina Colony,"5C39+JGH, Ramgarh Rd","Firozabad, Didamai",283203,Uttar Pradesh,IN,https://www.google.com/maps/place/Masjid+e+Hanafiyyah/data=!4m7!3m6!1s0x3974477d65f5fb35:0xc6c12e1cb47678b6!8m2!3d27.1540693!4d78.4188751!16s%2Fg%2F11t2w5dp_x!19sChIJNfv1ZX1HdDkRtnh2tBwuwcY?authuser=0&hl=en&rclk=1,"27.1540693,78.4188751"
Purani gaon wali masjid,Mosque,"MV93+P9C Purani gaon wali masjid, Unnamed Road, Mubarikpur, Meghawas, Rajasthan 301025",,"MV93+P9C, Unnamed Road","Mubarikpur, Meghawas",301025,Rajasthan,IN,https://www.google.com/maps/place/Purani+gaon+wali+masjid/data=!4m7!3m6!1s0x3972c156f9fdb895:0x32b9137741ced3bf!8m2!3d27.6693237!4d76.8533938!16s%2Fg%2F11h54gp018!19sChIJlbj9-VbBcjkRv9POQXcTuTI?authuser=0&hl=en&rclk=1,"27.6693237,76.85339379999999"
Purani masjid Sirmour,Mosque,"GWP6+6VF Purani masjid Sirmour, RJ SH 45, Poothka, Sirmaur, Rajasthan 301021",,"GWP6+6VF, RJ SH 45","Poothka, Sirmaur",301021,Rajasthan,IN,https://www.google.com/maps/place/Purani+masjid+Sirmour/data=!4m7!3m6!1s0x3972ed35615fc427:0x72fe2fa3546b49ab!8m2!3d27.5355736!4d76.9121738!16s%2Fg%2F11lxkxp_km!19sChIJJ8RfYTXtcjkRq0lrVKMv_nI?authuser=0&hl=en&rclk=1,"27.5355736,76.91217379999999"
Masjid-e-Taqwa Ramgarh Jama Masjid,Mosque,"46QX+5F9 Masjid-e-Taqwa Ramgarh Jama Masjid, Chang, Rajasthan 306102",,46QX+5F9,Chang,306102,Rajasthan,IN,https://www.google.com/maps/place/Masjid-e-Taqwa+Ramgarh+Jama+Masjid/data=!4m7!3m6!1s0x396979ccefedc399:0xc71813918274b340!8m2!3d26.1379024!4d74.2487488!16s%2Fg%2F11h05l0nfp!19sChIJmcPt78x5aTkRQLN0gpETGMc?authuser=0&hl=en&rclk=1,"26.137902399999998,74.2487488"
Mdina Mewat Masjid Roopbas,Mosque,"PR8R+9P5 Mdina Mewat Masjid Roopbas, Roopbas, Rajasthan 301025",,PR8R+9P5,Roopbas,301025,Rajasthan,IN,https://www.google.com/maps/place/Mdina+Mewat+Masjid+Roopbas/data=!4m7!3m6!1s0x3972c1d2f91eb41d:0x52a4bcb43924ed77!8m2!3d27.7158817!4d76.8418732!16s%2Fg%2F11sqp0t7bc!19sChIJHbQe-dLBcjkRd-0kObS8pFI?authuser=0&hl=en&rclk=1,"27.715881699999997,76.8418732"
Kheda masjid,Mosque,"GV7P+QRJ Kheda masjid, Unnamed Road, Bhatpura, Rajasthan 301021",,"GV7P+QRJ, Unnamed Road",Bhatpura,301021,Rajasthan,IN,https://www.google.com/maps/place/Kheda+masjid/data=!4m7!3m6!1s0x3972edf516873e31:0x339bef7eb89b3328!8m2!3d27.5144589!4d76.8870087!16s%2Fg%2F11kt9fty32!19sChIJMT6HFvXtcjkRKDObuH7vmzM?authuser=0&hl=en&rclk=1,"27.514458899999997,76.8870087"
Ramgarh masjid,Mosque,"HRQ8+3XC Ramgarh masjid, Ramgarh, Rajasthan 301026",,HRQ8+3XC,Ramgarh,,Rajasthan,IN,https://www.google.com/maps/place/Ramgarh+masjid/data=!4m7!3m6!1s0x397295cd135802b9:0xbc09a2a330af4442!8m2!3d27.5876834!4d76.8173753!16s%2Fg%2F11syl1rbqs!19sChIJuQJYE82VcjkRQkSvMKOiCbw?authuser=0&hl=en&rclk=1,"27.5876834,76.8173753"
MEWAT MASJID BALOT NAGER RAMGARH,Mosque,"HRR8+VRC MEWAT MASJID BALOT NAGER RAMGARH, Dohli, Rajasthan 301026",,HRR8+VRC,Dohli,301026,Rajasthan,IN,https://www.google.com/maps/place/MEWAT+MASJID+BALOT+NAGER+RAMGARH/data=!4m7!3m6!1s0x39729579687845d5:0xd07df567841f9dd4!8m2!3d27.5921899!4d76.817004!16s%2Fg%2F11sr62qlxr!19sChIJ1UV4aHmVcjkR1J0fhGf1fdA?authuser=0&hl=en&rclk=1,"27.592189899999997,76.817004"
Masjid Ramgarh chhana,Mosque,"963R+6QV Masjid Ramgarh chhana, Ramgarh Chhana, Punjab 147201",,963R+6QV,Ramgarh Chhana,147201,Punjab,IN,https://www.google.com/maps/place/Masjid+Ramgarh+chhana/data=!4m7!3m6!1s0x39103bf64558f57b:0x2faa8602d66ac49c!8m2!3d30.3531058!4d76.2419232!16s%2Fg%2F11v4j615rw!19sChIJe_VYRfY7EDkRnMRq1gKGqi8?authuser=0&hl=en&rclk=1,"30.353105799999998,76.2419232"
Ramgarh Shekhawati (sikar),Store,"22 Ward no, Ramgarh Shekhawati (sikar), teliyon ka mohhla, madni masjid, 2, Ward No 2, Lakhi Nath Kuti, Mehrauli, New Delhi, Delhi 110030","Ward No 2, Lakhi Nath Kuti, Mehrauli","22 Ward no, teliyon ka mohhla, madni masjid, 2",New Delhi,110030,Delhi,IN,https://www.google.com/maps/place/Ramgarh+Shekhawati+%28sikar%29/data=!4m7!3m6!1s0x390d1fece4370b2d:0xc4e26e9a4702c217!8m2!3d28.5243626!4d77.175888!16s%2Fg%2F11sd99z81_!19sChIJLQs35OwfDTkRF8ICR5pu4sQ?authuser=0&hl=en&rclk=1,"28.5243626,77.175888"
Nurani masjid jalalkan,Mosque,"Nurani masjid jalalkan, Unnamed Road, Bhargav Colony, Ramgarh Shekhawati, Rajasthan 331024",Bhargav Colony,Unnamed Road,Ramgarh Shekhawati,331024,Rajasthan,IN,https://www.google.com/maps/place/Nurani+masjid+jalalkan/data=!4m7!3m6!1s0x39135ff37d1e5243:0x5291962b8edb01c4!8m2!3d28.1714587!4d74.9821424!16s%2Fg%2F11rglk860n!19sChIJQ1IeffNfEzkRxAHbjiuWkVI?authuser=0&hl=en&rclk=1,"28.1714587,74.9821424"
Bissmila masjid,Mosque,"5XFP+X38 Bissmila masjid, Unnamed Road, Holi Dhora, Ramgarh Shekhawati, Rajasthan 331024",Holi Dhora,"5XFP+X38, Unnamed Road",Ramgarh Shekhawati,331024,Rajasthan,IN,https://www.google.com/maps/place/Bissmila+masjid/data=!4m7!3m6!1s0x39135fe7dc91b9e1:0x408b1e30612d0b94!8m2!3d28.1749234!4d74.9852041!16s%2Fg%2F11p12ms4c3!19sChIJ4bmR3OdfEzkRlAstYTAei0A?authuser=0&hl=en&rclk=1,"28.174923399999997,74.98520409999999"
Masjid usmania,Mosque,"2WXF+QV2 Masjid usmania, Ramgarh, Rajasthan 321608",,2WXF+QV2,Ramgarh,321608,Rajasthan,IN,https://www.google.com/maps/place/Masjid+usmania/data=!4m7!3m6!1s0x39724569c44bda71:0x7984a694cc41ccd8!8m2!3d27.0493857!4d76.9246538!16s%2Fg%2F11r9nqdw_h!19sChIJcdpLxGlFcjkR2MxBzJSmhHk?authuser=0&hl=en&rclk=1,"27.0493857,76.9246538"
Qutubi Masjid,Mosque,"Qutubi Masjid, Kutakpur, Ramgarh Urf Ummargarh, Tundla, Ramgarh Urf Ummergarh, Uttar Pradesh 207302",,"Kutakpur, Ramgarh Urf Ummargarh","Tundla, Ramgarh Urf Ummergarh",,Uttar Pradesh,IN,https://www.google.com/maps/place/Qutubi+Masjid/data=!4m7!3m6!1s0x39745f08a7887411:0x4e3cc62042bdcb80!8m2!3d27.3825673!4d78.3518754!16s%2Fg%2F11st80x66y!19sChIJEXSIpwhfdDkRgMu9QiDGPE4?authuser=0&hl=en&rclk=1,"27.382567299999998,78.3518754"
Fathe islam masjid,Mosque,"4XRR+FC2 Fathe islam masjid, Ramgarh Shekhawati, Narsara, Rajasthan 331024",,4XRR+FC2,"Ramgarh Shekhawati, Narsara",331024,Rajasthan,IN,https://www.google.com/maps/place/Fathe+islam+masjid/data=!4m7!3m6!1s0x39135f277cca5547:0xa86d2d7c94bf1330!8m2!3d28.141145!4d74.9910112!16s%2Fg%2F11v5fcx8vc!19sChIJR1XKfCdfEzkRMBO_lHwtbag?authuser=0&hl=en&rclk=1,"28.141144999999998,74.9910112"
aksa masjid Jahanpur,Mosque,"aksa masjid Jahanpur, Jahanpur to shajpur, Alwar, Rajasthan 301026",,Jahanpur to shajpur,"Alwar, Ramgarh",301026,Rajasthan,IN,https://www.google.com/maps/place/aksa+masjid+Jahanpur/data=!4m7!3m6!1s0x397295ebc02e6f5f:0xb3d03300b3a537f1!8m2!3d27.5865085!4d76.815313!16s%2Fg%2F11v0x7hp4c!19sChIJX28uwOuVcjkR8TelswAz0LM?authuser=0&hl=en&rclk=1,"27.586508499999997,76.815313"
"Madeena Masjid Hetamsar , mdiinaa msjid hetmsr",Mosque,"3XFJ+JMR Madeena Masjid Hetamsar , mdiinaa msjid hetmsr, Hetamsar, Ramgarh Shekhawati, Rajasthan 332303",,"3XFJ+JMR, Hetamsar","Ramgarh Shekhawati, Goriya Chhota",332303,Rajasthan,IN,"https://www.google.com/maps/place/Madeena+Masjid+Hetamsar+,+%E0%A4%AE%E0%A4%A6%E0%A5%80%E0%A4%A8%E0%A4%BE+%E0%A4%AE%E0%A4%B8%E0%A5%8D%E0%A4%9C%E0%A4%BF%E0%A4%A6+%E0%A4%B9%E0%A5%87%E0%A4%A4%E0%A4%AE%E0%A4%B8%E0%A4%B0/data=!4m7!3m6!1s0x391359852c115fe3:0x9fca05a9fbc65fda!8m2!3d28.0741041!4d74.9816412!16s%2Fg%2F11nx5nmz_3!19sChIJ418RLIVZEzkR2l_G-6kFyp8?authuser=0&hl=en&rclk=1","28.0741041,74.9816412"
Qutubi Masjid,Mosque,"9994+825 Qutubi Masjid, Qutubi Masjid Kutakpur, Ramgarh urf ummargarh, Tundla, Uttar Pradesh 283204",,"9994+825, Qutubi Masjid Kutakpur, Ramgarh urf ummargarh","Tundla, Ramgarh Urf Ummergarh",283204,Uttar Pradesh,IN,https://www.google.com/maps/place/Qutubi+Masjid/data=!4m7!3m6!1s0x39745f57df6d1b17:0x33c7eebd33783103!8m2!3d27.3682502!4d78.3551165!16s%2Fg%2F11t_jspgbf!19sChIJFxtt31dfdDkRAzF4M73uxzM?authuser=0&hl=en&rclk=1,"27.3682502,78.3551165"
MASJID PATAN Udaipuri,Mosque,"PW23+62X MASJID PATAN Udaipuri, Ramgarh, Khohar, Rajasthan 301026",,PW23+62X,"Ramgarh, Khohar",301026,Rajasthan,IN,https://www.google.com/maps/place/MASJID+PATAN+Udaipuri/data=!4m7!3m6!1s0x3972c1dd44dd5cb5:0x13a8ea37347ff9ba!8m2!3d27.7006048!4d76.9026165!16s%2Fg%2F11v6507mt3!19sChIJtVzdRN3BcjkRuvl_NDfqqBM?authuser=0&hl=en&rclk=1,"27.700604799999997,76.9026165"
Masjid Zaitun,Mosque,"Masjid Zaitun, 112, Govind Puri (east, Ramgarhmode, Jaipur, Rajasthan","Ramgarhmode, Karbala","112, Govind Puri (east",Jaipur,,Rajasthan,IN,https://www.google.com/maps/place/Masjid+Zaitun/data=!4m7!3m6!1s0x396db184bb521e81:0xe597eff8462783c9!8m2!3d26.9471261!4d75.8419825!16s%2Fg%2F11rrs2_jw8!19sChIJgR5Su4SxbTkRyYMnRvjvl-U?authuser=0&hl=en&rclk=1,"26.9471261,75.8419825"
Madina masjid,Place of worship,"89VH+57 Madina masjid, Ramgarh Urf Ummergarh, Uttar Pradesh 207302",,89VH+57,Ramgarh Urf Ummergarh,207302,Uttar Pradesh,IN,https://www.google.com/maps/place/Madina+masjid/data=!4m7!3m6!1s0x39745d9d6f7e58ad:0x9b13998408f7a315!8m2!3d27.3429369!4d78.3782372!16s%2Fg%2F11q9_2vg74!19sChIJrVh-b51ddDkRFaP3CISZE5s?authuser=0&hl=en&rclk=1,"27.342936899999998,78.3782372"
Masjid,Mosque,"JRC6+MJM Masjid, Chajjubass, Khilora, Rajasthan 301026",Chajjubass,JRC6+MJM,Khilora,,Rajasthan,IN,https://www.google.com/maps/place/Masjid/data=!4m7!3m6!1s0x397295975884e7f3:0x1a7c5a383c5120e9!8m2!3d27.6217069!4d76.8115458!16s%2Fg%2F11ry7vx2v3!19sChIJ8-eEWJeVcjkR6SBRPDhafBo?authuser=0&hl=en&rclk=1,"27.6217069,76.81154579999999"
Rod Wali Masjid Malpur Mod Chidwai,Mosque,"GVWJ+WHJ Rod Wali Masjid Malpur Mod Chidwai, Alwar, Rajasthan 301021",,GVWJ+WHJ,Alwar,,Rajasthan,IN,https://www.google.com/maps/place/Rod+Wali+Masjid+Malpur+Mod+Chidwai/data=!4m7!3m6!1s0x3972ed920c23bf7f:0x5c905893e6cdf82d!8m2!3d27.5473459!4d76.8813935!16s%2Fg%2F11rwnf6hlm!19sChIJf78jDJLtcjkRLfjN5pNYkFw?authuser=0&hl=en&rclk=1,"27.5473459,76.8813935"
Sayyada Masjid,Mosque,"5C39+F6V Sayyada Masjid, Ramgarh Rd, Madina Colony, Firozabad, Didamai, Uttar Pradesh 283203",Madina Colony,"5C39+F6V, Ramgarh Rd","Firozabad, Didamai",283203,Uttar Pradesh,IN,https://www.google.com/maps/place/Sayyada+Masjid/data=!4m7!3m6!1s0x39744793e51697b3:0xb8536538dabcdd8c!8m2!3d27.1537496!4d78.4180361!16s%2Fg%2F11gyyb_9f2!19sChIJs5cW5ZNHdDkRjN282jhlU7g?authuser=0&hl=en&rclk=1,"27.153749599999998,78.4180361"
NURANI MEWAT MASJID Mukandbaas,Mosque,"JQH7+836 NURANI MEWAT MASJID Mukandbaas, Sotka, Rajasthan 301026",,JQH7+836,Sotka,301026,Rajasthan,IN,https://www.google.com/maps/place/NURANI+MEWAT+MASJID+Mukandbaas/data=!4m7!3m6!1s0x39729525d8ed0ff7:0x759cf1e0280f5a85!8m2!3d27.6282782!4d76.7626535!16s%2Fg%2F11pztmlzzm!19sChIJ9w_t2CWVcjkRhVoPKODxnHU?authuser=0&hl=en&rclk=1,"27.6282782,76.7626535"
Mdina Masjid,Mosque,"JHWW+RVF Mdina Masjid, Alwar, Kasba Dahra, Rajasthan 301001",,JHWW+RVF,"Alwar, Kasba Dahra",301001,Rajasthan,IN,https://www.google.com/maps/place/Mdina+Masjid/data=!4m7!3m6!1s0x3972a33c3dd07cd3:0xcaa960ef598c43d!8m2!3d27.6470596!4d76.5971641!16s%2Fg%2F11rwk_yl1j!19sChIJ03zQPTyjcjkRPcSY9Q6Wqgw?authuser=0&hl=en&rclk=1,"27.6470596,76.5971641"
Jama masjid dohli,Mosque,"Jama masjid dohli, Jama masjid, Dohli, Kota Khurd, Rajasthan 301026",,Jama masjid,"Dohli, Kota Khurd",,Rajasthan,IN,https://www.google.com/maps/place/Jama+masjid+dohli/data=!4m7!3m6!1s0x3972959ce67c92d3:0xe284a8572e150e4!8m2!3d27.6075358!4d76.7801616!16s%2Fg%2F11r_9k4gv5!19sChIJ05J85pyVcjkR5FDhcoVKKA4?authuser=0&hl=en&rclk=1,"27.607535799999997,76.7801616"
Madeena masjid poothi,Mosque,"HRRJ+CJ Madeena masjid poothi, Sonagarh, Rajasthan 301026",,HRRJ+CJ,Sonagarh,,Rajasthan,IN,https://www.google.com/maps/place/Madeena+masjid+poothi/data=!4m7!3m6!1s0x3972eb3484fa4861:0x90e63d6ea1679311!8m2!3d27.5910014!4d76.8315161!16s%2Fg%2F11twdh0g17!19sChIJYUj6hDTrcjkREZNnoW495pA?authuser=0&hl=en&rclk=1,"27.5910014,76.8315161"
Asif Khan kerala,Mosque,"Asif Khan kerala, Jannati Masjid, Ramgarh Rd, hbiib gNj, puraanaa thaanaa, Didamai, Uttar Pradesh 283203",hbiib gNj,"Jannati Masjid, Ramgarh Rd","puraanaa thaanaa, Didamai",283203,Uttar Pradesh,IN,https://www.google.com/maps/place/Asif+Khan+kerala/data=!4m7!3m6!1s0x397447aa70fcf535:0x4527d840a68ecb8e!8m2!3d27.1517456!4d78.4148391!16s%2Fg%2F11sgq_2dhv!19sChIJNfX8cKpHdDkRjsuOpkDYJ0U?authuser=0&hl=en&rclk=1,"27.151745599999998,78.4148391"
MDINA Masjid Jugrawar1,Mosque,"GR2C+VPG MDINA Masjid Jugrawar1, Jugrawar, Rajasthan 301021",,GR2C+VPG,Jugrawar,301021,Rajasthan,IN,https://www.google.com/maps/place/MDINA+Masjid+Jugrawar1/data=!4m7!3m6!1s0x39729319374d50e3:0xb3549edafd7c4c98!8m2!3d27.5021867!4d76.8218173!16s%2Fg%2F11t1gj4h0z!19sChIJ41BNNxmTcjkRmEx8_dqeVLM?authuser=0&hl=en&rclk=1,"27.5021867,76.82181729999999"
BILAL MEWAT MASJID Khanpur kala,Mosque,"HR29+3XV BILAL MEWAT MASJID Khanpur kala, Kheri, Rajasthan 301026",,HR29+3XV,Kheri,301026,Rajasthan,IN,https://www.google.com/maps/place/BILAL+MEWAT+MASJID+Khanpur+kala/data=!4m7!3m6!1s0x397293352f50c6f9:0x2aae336f3174ec54!8m2!3d27.5502423!4d76.8199295!16s%2Fg%2F11pz1433rp!19sChIJ-cZQLzWTcjkRVOx0MW8zrio?authuser=0&hl=en&rclk=1,"27.550242299999997,76.8199295"
Madina Mewat masjid semlaa khurd,Mosque,"F27F+FRG Madina Mewat masjid semlaa khurd, Boolaheri, Rajasthan 301604",,F27F+FRG,Boolaheri,301604,Rajasthan,IN,https://www.google.com/maps/place/Madina+Mewat+masjid+%E0%A4%B8%E0%A5%87%E0%A4%AE%E0%A4%B2%E0%A4%BE+%E0%A4%96%E0%A5%81%E0%A4%B0%E0%A5%8D%E0%A4%A6/data=!4m7!3m6!1s0x3972fb442e08c595:0x685eff6ff4f60713!8m2!3d27.4636856!4d77.0245825!16s%2Fg%2F11q904r7sj!19sChIJlcUILkT7cjkREwf29G__Xmg?authuser=0&hl=en&rclk=1,"27.463685599999998,77.0245825"
Mehendi masjid,Mosque,"Mehendi masjid, 3331, Lal Kuan Bazar, Chandni Chowk, New Delhi, Delhi, 110006","Lal Kuan Bazar, Chandni Chowk",3331,"New Delhi, Delhi",110006,Delhi,IN,https://www.google.com/maps/place/Mehendi+masjid/data=!4m7!3m6!1s0x390cfd11d6254933:0x7c1821bcb713efad!8m2!3d28.6516061!4d77.2214466!16s%2Fg%2F11rn0l2gk4!19sChIJM0kl1hH9DDkRre8Tt7whGHw?authuser=0&hl=en&rclk=1,"28.6516061,77.2214466"
Rizwan home,Mosque,"GRVM+8R5 Rizwan home, Khanpur Kalan, Rajasthan 301026",,GRVM+8R5,Khanpur Kalan,,Rajasthan,IN,https://www.google.com/maps/place/Rizwan+home/data=!4m7!3m6!1s0x3972ed8c7b26625f:0xcfd7fc20d9fb1f5b!8m2!3d27.543261!4d76.8346161!16s%2Fg%2F11jzd651gs!19sChIJX2Ime4ztcjkRWx_72SD8188?authuser=0&hl=en&rclk=1,"27.543260999999998,76.83461609999999"
iidgaah doholii j'auheddh raamgddh' alvr raajsthaan,Mosque,"JQ5H+P42 iidgaah doholii j'auheddh raamgddh' alvr raajsthaan, Kota Khurd, Rajasthan 301026",,JQ5H+P42,Kota Khurd,301026,Rajasthan,IN,https://www.google.com/maps/place/%E0%A4%88%E0%A4%A6%E0%A4%97%E0%A4%BE%E0%A4%B9+%E0%A4%A6%E0%A5%8B%E0%A4%B9%E0%A5%8B%E0%A4%B2%E0%A5%80+%E0%A4%9C%E0%A4%BC%E0%A5%8C%E0%A4%B9%E0%A5%87%E0%A4%A2+%E0%A4%B0%E0%A4%BE%E0%A4%AE%E0%A4%97%E0%A4%A2%E0%A4%BC+%E0%A4%85%E0%A4%B2%E0%A4%B5%E0%A4%B0+%E0%A4%B0%E0%A4%BE%E0%A4%9C%E0%A4%B8%E0%A5%8D%E0%A4%A5%E0%A4%BE%E0%A4%A8/data=!4m7!3m6!1s0x397295de7dee9541:0x3294b819211610d7!8m2!3d27.6092702!4d76.7777526!16s%2Fg%2F11k51t1rzc!19sChIJQZXufd6VcjkR1xAWIRm4lDI?authuser=0&hl=en&rclk=1,"27.609270199999997,76.7777526"
Noorani Masjid,Mosque,"QGR4+89X Noorani Masjid, Morinda City Rd, Ramgarh Alias Manda, Morinda, Punjab 140101",Ramgarh Alias Manda,"QGR4+89X, Morinda City Rd",Morinda,140101,Punjab,IN,https://www.google.com/maps/place/Noorani+Masjid/data=!4m7!3m6!1s0x390ffdef9e417a4b:0xfcb9bb8fabbbe4e!8m2!3d30.7908946!4d76.5060347!16s%2Fg%2F11k58zx1xw!19sChIJS3pBnu_9DzkRTr67-ribyw8?authuser=0&hl=en&rclk=1,"30.790894599999998,76.5060347"
Mdina Masjid naswari,Mosque,"GWXH+583 Mdina Masjid naswari, Naswari, Rajasthan 301026",,GWXH+583,Naswari,301026,Rajasthan,IN,https://www.google.com/maps/place/Mdina+Masjid+naswari/data=!4m7!3m6!1s0x3972ef06a4fed5ff:0xa85d57d0d88c8765!8m2!3d27.5479!4d76.9282876!16s%2Fg%2F11q951j1mc!19sChIJ_9X-pAbvcjkRZYeM2NBXXag?authuser=0&hl=en&rclk=1,"27.5479,76.92828759999999"
