name,main_category,address,address_ward,address_street,address_city,address_postal_code,address_state,address_country_code,link,coordinates
Jama Masjid,Mosque,"Jama Masjid, Old Delhi, Delhi, 110006","Jama Masjid, Old Delhi",,Delhi,110006,Delhi,IN,https://www.google.com/maps/place/Jama+Masjid/data=!4m7!3m6!1s0x390cfd18df89b215:0xdd57369e29bf9d96!8m2!3d28.6506792!4d77.2334421!16zL20vMDR5emo1!19sChIJFbKJ3xj9DDkRlp2_KZ42V90?authuser=0&hl=en&rclk=1,"28.6506792,77.23344209999999"
Masjid Mujeeb Bagh,Mosque,"H74R+R4J Masjid Mujeeb Bagh, Mujeeb Bagh, Jamia Nagar, Okhla, New Delhi, Delhi 110025","Mujeeb Bagh, Jamia Nagar, Okhla",H74R+R4J,New Delhi,110025,Delhi,IN,https://www.google.com/maps/place/Masjid+Mujeeb+Bagh/data=!4m7!3m6!1s0x390ce40bc79e1ce9:0x18ab01f5fdcf10b3!8m2!3d28.5570856!4d77.2902574!16s%2Fg%2F11hbvrlrnj!19sChIJ6RyexwvkDDkRsxDP_fUBqxg?authuser=0&hl=en&rclk=1,"28.557085599999997,77.2902574"
Moti Masjid,Mosque,"M64V+P7J Moti Masjid, Lal Qila, Old Delhi, New Delhi, Delhi, 110006","Lal Qila, Old Delhi",M64V+P7J,"New Delhi, Delhi",110006,Delhi,IN,https://www.google.com/maps/place/Moti+Masjid/data=!4m7!3m6!1s0x390cfce252446dcd:0xdd83160d9aa6cbf1!8m2!3d28.6568443!4d77.2431421!16zL20vMDZ2cV92!19sChIJzW1EUuL8DDkR8cummg0Wg90?authuser=0&hl=en&rclk=1,"28.6568443,77.2431421"
Mohammadi Masjid,Mosque,"G7XX+C4X Mohammadi Masjid, Shaheen Bagh, Block E, Jamia Nagar, Okhla, New Delhi, Delhi 110025","Shaheen Bagh, Block E, Jamia Nagar, Okhla",G7XX+C4X,New Delhi,110025,Delhi,IN,https://www.google.com/maps/place/Mohammadi+Masjid/data=!4m7!3m6!1s0x390ce41acd709b67:0x8df25e5235479b77!8m2!3d28.5486052!4d77.2978715!16s%2Fg%2F11cp1893xh!19sChIJZ5twzRrkDDkRd5tHNVJe8o0?authuser=0&hl=en&rclk=1,"28.548605199999997,77.2978715"
Masjid Patherwali msjd,Mosque,"1608, Masjid Patherwali msjd, 32, Block 39E, Nai Walan, Karol Bagh, New Delhi, Delhi, 110005","Block 39E, Nai Walan, Karol Bagh","1608, 32","New Delhi, Delhi",110005,Delhi,IN,https://www.google.com/maps/place/Masjid+Patherwali+%D9%85%D8%B3%D8%AC%D8%AF%E2%80%AD/data=!4m7!3m6!1s0x390cfd61ca03d689:0x8ff36a5a3c66d0bd!8m2!3d28.6475823!4d77.1958499!16s%2Fg%2F12hm6x9t2!19sChIJidYDymH9DDkRvdBmPFpq848?authuser=0&hl=en&rclk=1,"28.6475823,77.1958499"
Masjid Umar Farooq,Mosque,"Masjid Umar Farooq, F-56, Allama Shibli Nomani Road, Shaheen Bagh, Okhla, New Delhi, Delhi 110025","Shaheen Bagh, Okhla","F-56, Allama Shibli Nomani Road",New Delhi,110025,Delhi,IN,https://www.google.com/maps/place/Masjid+Umar+Farooq/data=!4m7!3m6!1s0x390ce41c85bb1f59:0x6e5c74657b2ef350!8m2!3d28.5444786!4d77.3006375!16s%2Fg%2F12qfsrfxd!19sChIJWR-7hRzkDDkRUPMue2V0XG4?authuser=0&hl=en&rclk=1,"28.544478599999998,77.3006375"
Chhappar Wali Masjid,Mosque,"Chhappar Wali Masjid, 48, Okhla Rd, Jamia Nagar, Okhla, New Delhi, Delhi 110025","Jamia Nagar, Okhla","48, Okhla Rd",New Delhi,110025,Delhi,IN,https://www.google.com/maps/place/Chhappar+Wali+Masjid/data=!4m7!3m6!1s0x390ce47512f9ba69:0xdab55473377f5c32!8m2!3d28.5632638!4d77.2880895!16s%2Fg%2F11cn9tyv1h!19sChIJabr5EnXkDDkRMlx_N3NUtdo?authuser=0&hl=en&rclk=1,"28.563263799999998,77.2880895"
Masjid Umar msjd `mr,Mosque,"Masjid Umar msjd `mr, 1 4 1/4 Sarita Vihar nii dillii South Delhi Delhi 110076 Republic of, 110076","Pocket C, Sarita Vihar",1 4 1/4 Sarita Vihar nii dillii South Delhi Delhi 110076 Republic of,New Delhi,110076,Delhi,IN,https://www.google.com/maps/place/Masjid+Umar+%D9%85%D8%B3%D8%AC%D8%AF+%D8%B9%D9%85%D8%B1%E2%80%AD/data=!4m7!3m6!1s0x390ce6adbd0bc659:0x14d11a36b3ba5396!8m2!3d28.5285501!4d77.290258!16s%2Fg%2F11b6sk8sg0!19sChIJWcYLva3mDDkRllO6szYa0RQ?authuser=0&hl=en&rclk=1,"28.5285501,77.290258"
Masjid Umar,Mosque,"Masjid Umar, H Block, Abul Fazal Enclave, Jamia Nagar, Okhla, New Delhi, Delhi 110025","Abul Fazal Enclave, Jamia Nagar, Okhla",H Block,New Delhi,110025,Delhi,IN,https://www.google.com/maps/place/Masjid+Umar/data=!4m7!3m6!1s0x390ce40e52efde7f:0x5e0487c814d4c357!8m2!3d28.5535005!4d77.2956955!16s%2Fg%2F11b6snzn79!19sChIJf97vUg7kDDkRV8PUFMiHBF4?authuser=0&hl=en&rclk=1,"28.5535005,77.2956955"
Masjid and Madarsa,Mosque,"H78P+G28 Masjid and Madarsa, Jamia, Batla House, Jamia Nagar, Okhla, New Delhi, Delhi 110025","Jamia, Batla House, Jamia Nagar, Okhla",H78P+G28,New Delhi,110025,Delhi,IN,https://www.google.com/maps/place/Masjid+and+Madarsa/data=!4m7!3m6!1s0x390ce38a18a5d97f:0xdcfc61f3d0f88168!8m2!3d28.5662905!4d77.2850829!16s%2Fg%2F1hg4wfd46!19sChIJf9mlGIrjDDkRaIH40PNh_Nw?authuser=0&hl=en&rclk=1,"28.566290499999997,77.28508289999999"
bilal masjid.,Mosque,"P24V+6FG bilal masjid., Durga Mandir Rd, Phase 2, Inder Enclave, Rohini, New Delhi, Delhi, 110086","Phase 2, Inder Enclave, Rohini","P24V+6FG, Durga Mandir Rd","New Delhi, Delhi",110086,Delhi,IN,https://www.google.com/maps/place/bilal+masjid./data=!4m7!3m6!1s0x390d06709583ec61:0x52f266630d1af0ed!8m2!3d28.7055626!4d77.0437043!16s%2Fg%2F11g6r27xpk!19sChIJYeyDlXAGDTkR7fAaDWNm8lI?authuser=0&hl=en&rclk=1,"28.7055626,77.0437043"
Juma masjid,Mosque,"Juma masjid, E-1036, Budh Nagar, Inder Puri, New Delhi, Delhi 110028","Budh Nagar, Inder Puri",E-1036,New Delhi,110028,Delhi,IN,https://www.google.com/maps/place/Juma+masjid/data=!4m7!3m6!1s0x390d032879be52fb:0xc9b01a823cc3564f!8m2!3d28.6338571!4d77.1449417!16s%2Fg%2F11mvx680k2!19sChIJ-1K-eSgDDTkRT1bDPIIasMk?authuser=0&hl=en&rclk=1,"28.6338571,77.14494169999999"
Jama Masjid,Mosque,"6J29+948 Jama Masjid, Kayasthwara Mohalla, Rewari, Kanmajra, Haryana 123401",Kayasthwara Mohalla,6J29+948,"Rewari, Kanmajra",123401,Haryana,IN,https://www.google.com/maps/place/Jama+Masjid/data=!4m7!3m6!1s0x390d5a9f79665751:0x8f45f817913a0c5a!8m2!3d28.2009209!4d76.6178169!16s%2Fg%2F11h0_z_pg!19sChIJUVdmeZ9aDTkRWgw6kRf4RY8?authuser=0&hl=en&rclk=1,"28.2009209,76.6178169"
Masjid Dai-Wali,Mosque,"Shop No, Masjid Dai-Wali, 3136, Delhi Gate Bazar, Kucha Alam, Khabas Pura, Daryaganj, New Delhi, Delhi, 110002","Kucha Alam, Khabas Pura, Daryaganj","Shop No, 3136, Delhi Gate Bazar","New Delhi, Delhi",110002,Delhi,IN,https://www.google.com/maps/place/Masjid+Dai-Wali/data=!4m7!3m6!1s0x390cfd20da360d31:0x7e303aff50cc4c2b!8m2!3d28.6435772!4d77.2380546!16s%2Fg%2F1jky_pbsw!19sChIJMQ022iD9DDkRK0zMUP86MH4?authuser=0&hl=en&rclk=1,"28.6435772,77.2380546"
MASJID RANGREZ msjd rng ryz,Mosque,"MASJID RANGREZ msjd rng ryz, 2503 chilli Qabar, Jama Masjid, Delhi","Bazar Chitli Qabar, Jama Masjid, Chandni Chowk",2503 chilli Qabar,Delhi,,Delhi,IN,https://www.google.com/maps/place/MASJID+RANGREZ+%D9%85%D8%B3%D8%AC%D8%AF+%D8%B1%D9%86%DA%AF+%D8%B1%DB%8C%D8%B2%E2%80%AD/data=!4m7!3m6!1s0x390cfd22182eb1e7:0x3a0dd8cfd0c15fdc!8m2!3d28.6466083!4d77.234047!16s%2Fg%2F11d_x26n4d!19sChIJ57EuGCL9DDkR3F_B0M_YDTo?authuser=0&hl=en&rclk=1,"28.6466083,77.23404699999999"
MASJID,Mosque,"MASJID, Wz 173a/1 new ranjeet nagar, Guru Nanak Nagar, Shadipur, Delhi 110008","Guru Nanak Nagar, Shadipur",Wz 173a/1 new ranjeet nagar,New Delhi,110008,Delhi,IN,https://www.google.com/maps/place/MASJID/data=!4m7!3m6!1s0x390d0327bb6f6129:0xe8342be2eca63326!8m2!3d28.6456917!4d77.1597324!16s%2Fg%2F11h5lkhmc2!19sChIJKWFvuycDDTkRJjOm7OIrNOg?authuser=0&hl=en&rclk=1,"28.6456917,77.1597324"
Madina MASJID,Mosque,"Madina MASJID, 385, Manak Vihar Rd, Manak Vihar, Tihar Village, New Delhi, Delhi, 110018","Manak Vihar, Tihar Village","385, Manak Vihar Rd","New Delhi, Delhi",110018,Delhi,IN,https://www.google.com/maps/place/Madina+MASJID/data=!4m7!3m6!1s0x390d035e46292a5b:0x99c49dd2b7697b17!8m2!3d28.6340679!4d77.1061559!16s%2Fg%2F11c1n36l08!19sChIJWyopRl4DDTkRF3tpt9KdxJk?authuser=0&hl=en&rclk=1,"28.634067899999998,77.10615589999999"
Masjid Muslim Bhiwani Haryana,Mosque,"Q5V2+2F6 Masjid Muslim Bhiwani Haryana, Old Bharat Nagar, Bhiwani, Haryana 127021",Old Bharat Nagar,Q5V2+2F6,Bhiwani,127021,Haryana,IN,https://www.google.com/maps/place/Masjid+Muslim+Bhiwani+Haryana/data=!4m7!3m6!1s0x391266cb39ec2fc9:0xbf3468c17fd93cb4!8m2!3d28.7925277!4d76.151142!16s%2Fg%2F11dzzzjrsw!19sChIJyS_sOctmEjkRtDzZf8FoNL8?authuser=0&hl=en&rclk=1,"28.792527699999997,76.151142"
Khan Wali Masjid,Mosque,"F8W4+5WH Khan Wali Masjid, Block A, Budh Vihar Rd, Mohan Baba Nagar, Tajpur Pahari Village, Badarpur, New Delhi, Delhi 110044","Mohan Baba Nagar, Tajpur Pahari Village, Badarpur","F8W4+5WH, Block A, Budh Vihar Rd",New Delhi,110044,Delhi,IN,https://www.google.com/maps/place/Khan+Wali+Masjid/data=!4m7!3m6!1s0x390ce6df96e26425:0xd93b4e574216e193!8m2!3d28.4954259!4d77.3073575!16s%2Fg%2F11gdkqgk_w!19sChIJJWTilt_mDDkRk-EWQldOO9k?authuser=0&hl=en&rclk=1,"28.495425899999997,77.3073575"
Masjid Harsh Vihar msjd hrsh whr,Mosque,"Masjid Harsh Vihar msjd hrsh whr, 10A, Tanki Rd, Harsh Vihar, Badarpur, New Delhi, Delhi 110044","Harsh Vihar, Badarpur","10A, Tanki Rd",New Delhi,110044,Delhi,IN,https://www.google.com/maps/place/Masjid+Harsh+Vihar+%D9%85%D8%B3%D8%AC%D8%AF+%DA%BE%D8%B1%D8%B4+%D9%88%DB%81%D8%A7%D8%B1%E2%80%AD/data=!4m7!3m6!1s0x390ce6fee36498a7:0xdcaf1b79beed3b9c!8m2!3d28.4999889!4d77.3292359!16s%2Fg%2F11ddx3myrf!19sChIJp5hk4_7mDDkRnDvtvnkbr9w?authuser=0&hl=en&rclk=1,"28.499988899999998,77.3292359"
MADINA MASJID,Mosque,"M5X6+558 MADINA MASJID, Block A, Wazirpur Industrial Area, Ashok Vihar, Delhi, 110052","Block A, Wazirpur Industrial Area, Ashok Vihar",M5X6+558,Delhi,110052,Delhi,IN,https://www.google.com/maps/place/MADINA+MASJID/data=!4m7!3m6!1s0x390d023aab0ed955:0x822db20eda2dd64c!8m2!3d28.697902!4d77.1604397!16s%2Fg%2F11f2b01ft3!19sChIJVdkOqzoCDTkRTNYt2g6yLYI?authuser=0&hl=en&rclk=1,"28.697902,77.1604397"
Gausiya Masjid,Mosque,"Gausiya Masjid, 122, Gali No. 10, New Seelampur, Jafrabad, Shahdara, Delhi, 110053","New Seelampur, Jafrabad, Shahdara","122, Gali No. 10",Delhi,110053,Delhi,IN,https://www.google.com/maps/place/Gausiya+Masjid/data=!4m7!3m6!1s0x390cfc63ceb84969:0x52a9b75ed1d9025e!8m2!3d28.6775577!4d77.2702337!16s%2Fg%2F11c74cy737!19sChIJaUm4zmP8DDkRXgLZ0V63qVI?authuser=0&hl=en&rclk=1,"28.677557699999998,77.27023369999999"
Nurani Masjid,Mosque,"G87P+9FG Nurani Masjid, Shamshul Marg, Jaitpur Extension Part II, Khadda Colony, Badarpur, New Delhi, Delhi 110044","Jaitpur Extension Part II, Khadda Colony, Badarpur","G87P+9FG, Shamshul Marg",New Delhi,110044,Delhi,IN,https://www.google.com/maps/place/Nurani+Masjid/data=!4m7!3m6!1s0x390ce65930824353:0xc2da84d501d29ac9!8m2!3d28.5134438!4d77.3362129!16s%2Fg%2F11bv1cg3ng!19sChIJU0OCMFnmDDkRyZrSAdWE2sI?authuser=0&hl=en&rclk=1,"28.513443799999997,77.33621289999999"
Allah Rasool Masjid,Mosque,"Allah Rasool Masjid, f-495, Khajuri khas Extension, Khazoori Khas, Delhi, 110094","Khajuri khas Extension, Khazoori Khas",f-495,Delhi,110094,Delhi,IN,https://www.google.com/maps/place/Allah+Rasool+Masjid/data=!4m7!3m6!1s0x390cfc3d9a59be9b:0xfdc31ce49253f00b!8m2!3d28.7044871!4d77.26259!16s%2Fg%2F11fz96_61r!19sChIJm75Zmj38DDkRC_BTkuQcw_0?authuser=0&hl=en&rclk=1,"28.704487099999998,77.26259"
Muhammadi Masjid,Mosque,"Muhammadi Masjid, 2/55, Moonga Nagar, New Mustafabad, New Delhi, Delhi, 110094","Moonga Nagar, New Mustafabad",2/55,"New Delhi, Delhi",110094,Delhi,IN,https://www.google.com/maps/place/Muhammadi+Masjid/data=!4m7!3m6!1s0x390cfc175aee92eb:0xaa6d7ae014408908!8m2!3d28.7081354!4d77.2682226!16s%2Fg%2F11c5sz6frk!19sChIJ65LuWhf8DDkRCIlAFOB6bao?authuser=0&hl=en&rclk=1,"28.7081354,77.2682226"
Masjid Amaniya Jamalu ka Bagh msjd mnyh jmlw kh bG,Mosque,"Masjid Amaniya Jamalu ka Bagh msjd mnyh jmlw kh bG, Main, Maujpur Rd, Shahdara, Delhi, 110053",Shahdara,"Main, Maujpur Rd",Delhi,110053,Delhi,IN,https://www.google.com/maps/place/Masjid+Amaniya+Jamalu+ka+Bagh+%D9%85%D8%B3%D8%AC%D8%AF+%D8%A7%D9%85%D8%A7%D9%86%DB%8C%DB%81+%D8%AC%D9%85%D8%A7%D9%84%D9%88+%DA%A9%D8%A7+%D8%A8%D8%A7%D8%BA%E2%80%AD/data=!4m7!3m6!1s0x390cfc7abcd4bae7:0xe8588606af183e3c!8m2!3d28.6855897!4d77.2762341!16s%2Fg%2F11bxdtk5g1!19sChIJ57rUvHr8DDkRPD4YrwaGWOg?authuser=0&hl=en&rclk=1,"28.685589699999998,77.2762341"
Dhaka Basti Masjid,Mosque,"5JRC+PGV Dhaka Basti Masjid, Rajeev Nagar, krishna Nagar, Rewari, Haryana 123401","Rajeev Nagar, krishna Nagar",5JRC+PGV,Rewari,123401,Haryana,IN,https://www.google.com/maps/place/Dhaka+Basti+Masjid/data=!4m7!3m6!1s0x390d500c9486d085:0xf39f260c28ea5228!8m2!3d28.1918701!4d76.6212863!16s%2Fg%2F11f2w5j6wq!19sChIJhdCGlAxQDTkRKFLqKAwmn_M?authuser=0&hl=en&rclk=1,"28.1918701,76.6212863"
Fakhrul Masjid msjd,Mosque,"Fakhrul Masjid msjd, 1268, Bara Bazar Rd, Chabi Ganj, Kashmere Gate, New Delhi, Delhi, 110006","Chabi Ganj, Kashmere Gate","1268, Bara Bazar Rd","New Delhi, Delhi",110006,Delhi,IN,https://www.google.com/maps/place/Fakhrul+Masjid+%D9%85%D8%B3%D8%AC%D8%AF%E2%80%AD/data=!4m7!3m6!1s0x390cfd060683b301:0xc9d92074bb420992!8m2!3d28.665012!4d77.2295583!16s%2Fg%2F11cmytc3k3!19sChIJAbODBgb9DDkRkglCu3Qg2ck?authuser=0&hl=en&rclk=1,"28.665011999999997,77.2295583"
Ata E Rasool Masjid,Mosque,"P744+V55 Ata E Rasool Masjid, Shriram Colony, Block A, Rajiv Nagar, Sonia Vihar, Delhi, 110094","Shriram Colony, Block A, Rajiv Nagar, Sonia Vihar",P744+V55,Delhi,110094,Delhi,IN,https://www.google.com/maps/place/Ata+E+Rasool+Masjid/data=!4m7!3m6!1s0x390cfc3b2d10341f:0xd365e06455e65096!8m2!3d28.7071349!4d77.2554772!16s%2Fg%2F11dxrw2d2x!19sChIJHzQQLTv8DDkRllDmVWTgZdM?authuser=0&hl=en&rclk=1,"28.7071349,77.2554772"
Masjid E Bilal(R.A),Mosque,"Masjid E Bilal(R.A), 313/83, Tulsi Nagar, Inderlok, New Delhi, Delhi, 110035","Tulsi Nagar, Inderlok",313/83,"New Delhi, Delhi",,Delhi,IN,https://www.google.com/maps/place/Masjid+E+Bilal%28R.A%29/data=!4m7!3m6!1s0x390d0305415347cd:0xf0ebc396d5163f98!8m2!3d28.6718945!4d77.1637325!16s%2Fg%2F11k5j1wwbz!19sChIJzUdTQQUDDTkRmD8W1ZbD6_A?authuser=0&hl=en&rclk=1,"28.671894499999997,77.1637325"
Masjid-e-Anjum,Mosque,"Masjid-e-Anjum, Indira Gandhi Camp Part 2, New Friends Colony, New Delhi, Delhi 110065","Block A, Taimoor Nagar, New Friends Colony","Indira Gandhi Camp Part 2, New Friends Colony",New Delhi,110065,Delhi,IN,https://www.google.com/maps/place/Masjid-e-Anjum/data=!4m7!3m6!1s0x390ce39a2cbe5dad:0x263099a5cc320902!8m2!3d28.573773!4d77.2696933!16s%2Fg%2F11ckkxbn_t!19sChIJrV2-LJrjDDkRAgkyzKWZMCY?authuser=0&hl=en&rclk=1,"28.573773,77.2696933"
raza jama masjed,Mosque,"5VXC+QR6 raza jama masjed, RIICO Industrial Area, Bhiwadi, Rajasthan 301019",RIICO Industrial Area,5VXC+QR6,Bhiwadi,301019,Rajasthan,IN,https://www.google.com/maps/place/raza+jama+masjed/data=!4m7!3m6!1s0x390d37a0076be8b1:0x178a1afa2e72c660!8m2!3d28.1994019!4d76.8720255!16s%2Fg%2F11hbg9wb3k!19sChIJsehrB6A3DTkRYMZyLvoaihc?authuser=0&hl=en&rclk=1,"28.199401899999998,76.87202549999999"
Masjid Badi msjd,Mosque,"Masjid Badi msjd, 893,, Chittli Qabar Bazar Rd, Jama Masjid, Chandni Chowk, New Delhi, Delhi 110006","Bazar Chitli Qabar, Kucha Chelan, Jama Masjid, Chandni Chowk","893,, Chittli Qabar Bazar Rd","New Delhi, Delhi",110006,Delhi,IN,https://www.google.com/maps/place/Masjid+Badi+%D9%85%D8%B3%D8%AC%D8%AF%E2%80%AD/data=!4m7!3m6!1s0x390cfd219cfec1f3:0x93ccacb281d71709!8m2!3d28.645321!4d77.2357133!16s%2Fg%2F12m98gjn5!19sChIJ88H-nCH9DDkRCRfXgbKszJM?authuser=0&hl=en&rclk=1,"28.645321,77.2357133"
GHUSBEETHI MASJID,Mosque,"627G+HVQ GHUSBEETHI MASJID, Sehsaula, Haryana 122103",,627G+HVQ,Sehsaula,,Haryana,IN,https://www.google.com/maps/place/GHUSBEETHI+MASJID/data=!4m7!3m6!1s0x390d2fc21b74396b:0x3ba539d5003f8a08!8m2!3d28.2139708!4d77.0272282!16s%2Fg%2F11gfn7kv9q!19sChIJazl0G8IvDTkRCIo_ANU5pTs?authuser=0&hl=en&rclk=1,"28.2139708,77.0272282"
Umar farooq masjid,Mosque,"Umar farooq masjid, R-796, Saqlain Rd, Jogabai Extension, Joga Bai Extension, Okhla, New Delhi, Delhi 110025","Jogabai Extension, Joga Bai Extension, Okhla","R-796, Saqlain Rd",New Delhi,110025,Delhi,IN,https://www.google.com/maps/place/Umar+farooq+masjid/data=!4m7!3m6!1s0x390ce3e6c04e5bf3:0xc44f3ef2afb9d703!8m2!3d28.5725938!4d77.2846812!16s%2Fg%2F11j4890g67!19sChIJ81tOwObjDDkRA9e5r_I-T8Q?authuser=0&hl=en&rclk=1,"28.5725938,77.2846812"
Masjid,Mosque,"H769+P87 Masjid, Block A, Friends Colony East, New Friends Colony, New Delhi, Delhi 110025","Block A, Friends Colony East, New Friends Colony",H769+P87,New Delhi,110025,Delhi,IN,https://www.google.com/maps/place/Masjid/data=!4m7!3m6!1s0x390ce3a3874c1a6d:0x3777b5148e43553a!8m2!3d28.5617917!4d77.2683072!16s%2Fg%2F11grc87l61!19sChIJbRpMh6PjDDkROlVDjhS1dzc?authuser=0&hl=en&rclk=1,"28.561791699999997,77.2683072"
Mosque / Masjid,Mosque,"Mosque / Masjid, A430, DDA Colony, Chaukhandi, Vishnu Garden, Delhi, 110018","DDA Colony, Chaukhandi, Vishnu Garden",A430,Delhi,110018,Delhi,IN,https://www.google.com/maps/place/Mosque+%2F+Masjid/data=!4m7!3m6!1s0x390d05579c83dfb9:0xadb490f25993e21b!8m2!3d28.645374!4d77.094016!16s%2Fg%2F11qn2351hz!19sChIJud-DnFcFDTkRG-KTWfKQtK0?authuser=0&hl=en&rclk=1,"28.645374,77.094016"
Jama Masjid,Mosque,"RVPJ+55X Jama Masjid, Kithor Rd, Harnathpur Kota, Muzaffara Bagarpur, Uttar Pradesh 245207",,"RVPJ+55X, Kithor Rd","Harnathpur Kota, Muzaffara Bagarpur",245207,Uttar Pradesh,IN,https://www.google.com/maps/place/Jama+Masjid/data=!4m7!3m6!1s0x390c80e517e92849:0x32e3d4a8ab52c675!8m2!3d28.8354917!4d77.8804804!16s%2Fg%2F11g8kv5f9d!19sChIJSSjpF-WADDkRdcZSq6jU4zI?authuser=0&hl=en&rclk=1,"28.8354917,77.8804804"
SHAHI JAMA MASJID jm` msjd shhy,Mosque,"SHAHI JAMA MASJID jm` msjd shhy, 22, foot road, Shram Vihar, Pocket N, Madanpur Khadar, New Delhi, Delhi 110025","Shram Vihar, Pocket N, Madanpur Khadar","22, foot road",New Delhi,110025,Delhi,IN,https://www.google.com/maps/place/SHAHI+JAMA+MASJID+%D8%AC%D8%A7%D9%85%D8%B9+%D9%85%D8%B3%D8%AC%D8%AF+%D8%B4%D8%A7%DA%BE%DB%8C%E2%80%AD/data=!4m7!3m6!1s0x390ce5a36ba3a95d:0x7cb7c1435cda3fd2!8m2!3d28.5405938!4d77.3038368!16s%2Fg%2F11n733rllr!19sChIJXamja6PlDDkR0j_aXEPBt3w?authuser=0&hl=en&rclk=1,"28.5405938,77.3038368"
Masjid Sanauji,Mosque,"Masjid Sanauji, Shop No. 1630, Lal Kuan, Lalkuan Bazar Rd, Baradari, Chandni Chowk, New Delhi, Delhi 110006","Bazar Sirkiwalan, Baradari, Chandni Chowk","Shop No. 1630, Lal Kuan, Lalkuan Bazar Rd","New Delhi, Delhi",110006,Delhi,IN,https://www.google.com/maps/place/Masjid+Sanauji/data=!4m7!3m6!1s0x390cfd13fe3ea72d:0x27ea23bc5f650202!8m2!3d28.6529317!4d77.2232485!16s%2Fg%2F12hplq4pp!19sChIJLac-_hP9DDkRAgJlX7wj6ic?authuser=0&hl=en&rclk=1,"28.6529317,77.2232485"
Mosque msjd,Mosque,"Mosque msjd, 3696, Mori Gate, New Delhi, Delhi 110006",Mori Gate,3696,"New Delhi, Delhi",110006,Delhi,IN,https://www.google.com/maps/place/Mosque+%D9%85%D8%B3%D8%AC%D8%AF%E2%80%AD/data=!4m7!3m6!1s0x390cfd0c79fa6f11:0x326ac233054d2efa!8m2!3d28.6635017!4d77.2212005!16s%2Fg%2F12lkq2186!19sChIJEW_6eQz9DDkR-i5NBTPCajI?authuser=0&hl=en&rclk=1,"28.663501699999998,77.2212005"
Jama Masjid,Mosque,"P9GG+R9W Jama Masjid, Farukh Nagar, Uttar Pradesh 201003",,P9GG+R9W,Farukh Nagar,201003,Uttar Pradesh,IN,https://www.google.com/maps/place/Jama+Masjid/data=!4m7!3m6!1s0x390cfa00f8d09641:0xb3e38bbfa6df3671!8m2!3d28.7271212!4d77.3759422!16s%2Fg%2F11f0kyv34v!19sChIJQZbQ-AD6DDkRcTbfpr-L47M?authuser=0&hl=en&rclk=1,"28.7271212,77.3759422"
Madarse Wali Masjid,Mosque,"Madarse Wali Masjid, New Badarpur, Tronica City Rd, Loni, Ghaziabad, Uttar Pradesh 201102",Loni,"New Badarpur, Tronica City Rd",Ghaziabad,201102,Uttar Pradesh,IN,https://www.google.com/maps/place/Madarse+Wali+Masjid/data=!4m7!3m6!1s0x390cffed0569630d:0x8b68d9d3c1c9f19!8m2!3d28.7896224!4d77.2328337!16s%2Fg%2F11h6drgby7!19sChIJDWNpBe3_DDkRGZ8cPJ2Ntgg?authuser=0&hl=en&rclk=1,"28.7896224,77.2328337"
Masjid,Mosque,"RFW6+4GQ Masjid, Kumheda, Uttar Pradesh 201206",,RFW6+4GQ,Kumheda,201206,Uttar Pradesh,IN,https://www.google.com/maps/place/Masjid/data=!4m7!3m6!1s0x390c58b0e1125b4d:0xfd9e63316d494a36!8m2!3d28.8453408!4d77.4613748!16s%2Fg%2F11gclz8wp4!19sChIJTVsS4bBYDDkRNkpJbTFjnv0?authuser=0&hl=en&rclk=1,"28.8453408,77.4613748"
Jama masjid,Mosque,"479P+M97 Jama masjid, Radaur road, Rampura Industrial Area, Yamuna Nagar, Haryana 135001",Rampura Industrial Area,"479P+M97, Radaur road",Yamuna Nagar,,Haryana,IN,https://www.google.com/maps/place/Jama+masjid/data=!4m7!3m6!1s0x390ef9aa98990c8d:0x5a06fdbc8ab8a01b!8m2!3d30.1191615!4d77.2859306!16s%2Fg%2F11t1_n_8hs!19sChIJjQyZmKr5DjkRG6C4irz9Blo?authuser=0&hl=en&rclk=1,"30.119161499999997,77.2859306"
Masjid,Mosque,"RX74+6HJ Masjid, near NH 248A, Dhanwala, Haryana 122104",,"RX74+6HJ, near NH 248A",Dhanwala,122104,Haryana,IN,https://www.google.com/maps/place/Masjid/data=!4m7!3m6!1s0x3972c453b844f149:0x24ec54e8ddf55acd!8m2!3d27.8130983!4d76.9563768!16s%2Fg%2F11ggbl6j5z!19sChIJSfFEuFPEcjkRzVr13ehU7CQ?authuser=0&hl=en&rclk=1,"27.8130983,76.9563768"
Masjid,Mosque,"H77Q+868 Masjid, Okhla Village, Okhla, New Delhi, Delhi 110025","Okhla Village, Okhla",H77Q+868,New Delhi,110025,Delhi,IN,https://www.google.com/maps/place/Masjid/data=!4m7!3m6!1s0x390ce47512f7aa2b:0x544337a9b9e5d7a2!8m2!3d28.5632814!4d77.2880932!16s%2Fg%2F11gbtpj5td!19sChIJK6r3EnXkDDkRotfluak3Q1Q?authuser=0&hl=en&rclk=1,"28.563281399999997,77.28809319999999"
Masjid Aashikan-E-Rasool,Mosque,"Masjid Aashikan-E-Rasool, B168A, Block B, Baljit Nagar, Patel Nagar, New Delhi, Delhi, 110008","Block B, Baljit Nagar, Patel Nagar",B168A,"New Delhi, Delhi",110008,Delhi,IN,https://www.google.com/maps/place/Masjid+Aashikan-E-Rasool/data=!4m7!3m6!1s0x390d03568277eb99:0x27959f1a230ab399!8m2!3d28.6610366!4d77.1631945!16s%2Fg%2F11qz5hv88s!19sChIJmet3glYDDTkRmbMKIxqflSc?authuser=0&hl=en&rclk=1,"28.6610366,77.1631945"
Masjid,Mosque,"QG9R+7R7 Masjid, Yusufpur Manota, Uttar Pradesh 201206",,QG9R+7R7,Yusufpur Manota,201206,Uttar Pradesh,IN,https://www.google.com/maps/place/Masjid/data=!4m7!3m6!1s0x390cf528647461f3:0xbc2c99d91cefca68!8m2!3d28.7681695!4d77.5420497!16s%2Fg%2F11rcvdcvyq!19sChIJ82F0ZCj1DDkRaMrvHNmZLLw?authuser=0&hl=en&rclk=1,"28.7681695,77.54204969999999"
Taqwa Masjid,Mosque,"P762+WPQ Taqwa Masjid, Gali Number 9, Shriram Colony, Rajiv Nagar, Sonia Vihar, Delhi, 110094","Shriram Colony, Rajiv Nagar, Sonia Vihar","P762+WPQ, Gali Number 9",Delhi,110094,Delhi,IN,https://www.google.com/maps/place/Taqwa+Masjid/data=!4m7!3m6!1s0x390cfd3098738a71:0xdf9ffdf1110cbcf0!8m2!3d28.7123381!4d77.2518666!16s%2Fg%2F11ghpzsmlw!19sChIJcYpzmDD9DDkR8LwMEfH9n98?authuser=0&hl=en&rclk=1,"28.7123381,77.2518666"
Haji Rojdaar Wali Masjid,Mosque,"Haji Rojdaar Wali Masjid, 110074, Kharak, Sat Bari, New Delhi, Delhi 110074","Kharak, Sat Bari",110074,New Delhi,110074,Delhi,IN,https://www.google.com/maps/place/Haji+Rojdaar+Wali+Masjid/data=!4m7!3m6!1s0x390ce024a51f068f:0x1d8c2d91ee022fdd!8m2!3d28.4679055!4d77.2051939!16s%2Fg%2F11c5_hph3y!19sChIJjwYfpSTgDDkR3S8C7pEtjB0?authuser=0&hl=en&rclk=1,"28.467905499999997,77.2051939"
Ijaba Masjid,Mosque,"Ijaba Masjid, 1489/16, Block D, Chand Vihar, New Mustafabad, Delhi, 110094","Block D, Chand Vihar, New Mustafabad",1489/16,Delhi,110094,Delhi,IN,https://www.google.com/maps/place/Ijaba+Masjid/data=!4m7!3m6!1s0x390cfd4112cff819:0x124578cf76e8540b!8m2!3d28.7086594!4d77.2713446!16s%2Fg%2F11j08711wr!19sChIJGfjPEkH9DDkRC1Tods94RRI?authuser=0&hl=en&rclk=1,"28.7086594,77.27134459999999"
Mr.SAHEEM MALIK,Mosque,"Mr.SAHEEM MALIK, Gali no. 3 - Tirpal Factory Mustafabad, near Ayisha masjid, 25 Futa Rd, near by Aisha Masjid, chowk, Delhi 110094","Shakti Vihar, Old Mustafabad, chowk","Gali no. 3 - Tirpal Factory Mustafabad, near Ayisha masjid, 25 Futa Rd, near by Aisha Masjid",Delhi,110094,Delhi,IN,https://www.google.com/maps/place/Mr.SAHEEM+MALIK/data=!4m7!3m6!1s0x390cfd9a44cd4997:0xffdc8860c53e3f2b!8m2!3d28.7159667!4d77.272238!16s%2Fg%2F11h3cwgc8y!19sChIJl0nNRJr9DDkRKz8-xWCI3P8?authuser=0&hl=en&rclk=1,"28.7159667,77.272238"
Masjid,Mosque,"Q7JJ+7WC Masjid, Pavi Sadakpur, Uttar Pradesh 201102",,Q7JJ+7WC,Pavi Sadakpur,201102,Uttar Pradesh,IN,https://www.google.com/maps/place/Masjid/data=!4m7!3m6!1s0x390cff3247b3c4d7:0xf1b7407f946dd8cc!8m2!3d28.7806806!4d77.2822504!16s%2Fg%2F11ggz8tfhy!19sChIJ18SzRzL_DDkRzNhtlH9At_E?authuser=0&hl=en&rclk=1,"28.7806806,77.2822504"
Masjid,Mosque,"Q6MJ+5H5 Masjid, Badarpur, Madanpur Khadar, New Delhi, 110084",Madanpur Khadar,"Q6MJ+5H5, Badarpur","New Delhi, Delhi",110084,Delhi,IN,https://www.google.com/maps/place/Masjid/data=!4m7!3m6!1s0x390cffb780460377:0x9fe224e9c653e965!8m2!3d28.7828891!4d77.2314704!16s%2Fg%2F11qn790lvq!19sChIJdwNGgLf_DDkRZelTxukk4p8?authuser=0&hl=en&rclk=1,"28.7828891,77.23147039999999"
Madina Masjid,Mosque,"6V2G+3QX Madina Masjid, Rampura, Rajasthan 301019",,6V2G+3QX,Rampura,301019,Rajasthan,IN,https://www.google.com/maps/place/Madina+Masjid/data=!4m7!3m6!1s0x390d3772e49f2a21:0x925ae5a65968bc59!8m2!3d28.2002274!4d76.876978!16s%2Fg%2F11j07vw8kw!19sChIJISqf5HI3DTkRWbxoWablWpI?authuser=0&hl=en&rclk=1,"28.2002274,76.876978"
Nurani Masjid,Mosque,"PJ6X+8G4 Nurani Masjid, Unnamed Road, Gandhi Colony, Pilkhuwa, Uttar Pradesh 245304",Gandhi Colony,"PJ6X+8G4, Unnamed Road",Pilkhuwa,245304,Uttar Pradesh,IN,https://www.google.com/maps/place/Nurani+Masjid/data=!4m7!3m6!1s0x390c8d5912f97edd:0x27f9742a1ee07c3f!8m2!3d28.7107511!4d77.64883!16s%2Fg%2F11h56jdb70!19sChIJ3X75ElmNDDkRP3zgHip0-Sc?authuser=0&hl=en&rclk=1,"28.7107511,77.64882999999999"
Chand masjid,Mosque,"FFJ2+7QG Chand masjid, Unnamed Road, Rampura Mafi, Uttar Pradesh 243407",,"FFJ2+7QG, Unnamed Road",Rampura Mafi,243407,Uttar Pradesh,IN,https://www.google.com/maps/place/Chand+masjid/data=!4m7!3m6!1s0x39a009ee62c45457:0x43af8cbcbed2e0d5!8m2!3d28.4806945!4d79.4519421!16s%2Fg%2F11q8s01rc6!19sChIJV1TEYu4JoDkR1eDSvryMr0M?authuser=0&hl=en&rclk=1,"28.4806945,79.4519421"
Madina masjid near sokat colony,Mosque,"6V2F+GM6 Madina masjid near sokat colony, Suraj Cinema Rd, RIICO Industrial Area, Rampura, Rajasthan 301019",RIICO Industrial Area,"6V2F+GM6, Suraj Cinema Rd",Rampura,301019,Rajasthan,IN,https://www.google.com/maps/place/Madina+masjid+near+sokat+colony/data=!4m7!3m6!1s0x390d37a22032ea3b:0x19362fa244f53ce6!8m2!3d28.201287!4d76.8741527!16s%2Fg%2F11rz460hk5!19sChIJO-oyIKI3DTkR5jz1RKIvNhk?authuser=0&hl=en&rclk=1,"28.201286999999997,76.8741527"
HADHRAT UMAR MASJID ALMAROOF CHOTI MASJID,Mosque,"HADHRAT UMAR MASJID ALMAROOF CHOTI MASJID, Chotti Masjid, Street number 9, Mulla Colony, Gharoli Extension, Gharoli, Delhi, 110096","Mulla Colony, Gharoli Extension, Gharoli","Chotti Masjid, Street number 9",Delhi,110096,Delhi,IN,https://www.google.com/maps/place/HADHRAT+UMAR+MASJID+ALMAROOF+CHOTI+MASJID/data=!4m7!3m6!1s0x390ce5c6cf830b2f:0x6bb8084dadf0d513!8m2!3d28.6213398!4d77.3314246!16s%2Fg%2F11sy4vfb7s!19sChIJLwuDz8blDDkRE9XwrU0IuGs?authuser=0&hl=en&rclk=1,"28.621339799999998,77.33142459999999"
Masjid,Mosque,"P9HF+33Q Masjid, Farukh Nagar, Uttar Pradesh 201003",,P9HF+33Q,Farukh Nagar,201003,Uttar Pradesh,IN,https://www.google.com/maps/place/Masjid/data=!4m7!3m6!1s0x390cfa018875b495:0xeea7b0caec7e470d!8m2!3d28.7277145!4d77.3727433!16s%2Fg%2F11f0krqvls!19sChIJlbR1iAH6DDkRDUd-7Mqwp-4?authuser=0&hl=en&rclk=1,"28.727714499999998,77.3727433"
msjid,Mosque,"msjid, 249, Swami Amardev Marg, Bara Bazar, Maharam Mohalla, Shahdara, Delhi, 110032","Bara Bazar, Maharam Mohalla, Shahdara","249, Swami Amardev Marg",Delhi,110032,Delhi,IN,https://www.google.com/maps/place/%E0%A4%AE%E0%A4%B8%E0%A5%8D%E0%A4%9C%E0%A4%BF%E0%A4%A6/data=!4m7!3m6!1s0x390cfb490b84c709:0x30ecad58f89bafaa!8m2!3d28.6687399!4d77.2917355!16s%2Fg%2F11n03hfp8k!19sChIJCceEC0n7DDkRqq-b-Fit7DA?authuser=0&hl=en&rclk=1,"28.6687399,77.2917355"
Masjid,Mosque,"Masjid, 2508, Fasil Rd, Gali Sakko Wali, Shah Ganj, Chandni Chowk, New Delhi, Delhi, 110006","Gali Sakko Wali, Shah Ganj, Chandni Chowk","2508, Fasil Rd","New Delhi, Delhi",110006,Delhi,IN,https://www.google.com/maps/place/Masjid/data=!4m7!3m6!1s0x390cfd15c9a8a4b1:0xf975aada141da03e!8m2!3d28.6491552!4d77.2220471!16s%2Fg%2F1hm4gjxkd!19sChIJsaSoyRX9DDkRPqAdFNqqdfk?authuser=0&hl=en&rclk=1,"28.6491552,77.2220471"
Masjid,Mosque,"Masjid, 191/1, JJ Colony, New Krishna Park, Vikaspuri, New Delhi, Delhi, 110018","JJ Colony, New Krishna Park, Vikaspuri",191/1,"New Delhi, Delhi",110018,Delhi,IN,https://www.google.com/maps/place/Masjid/data=!4m7!3m6!1s0x390d0523e13f6ebf:0xcf430f5986189794!8m2!3d28.6318645!4d77.0776203!16s%2Fg%2F11kq3krq6c!19sChIJv24_4SMFDTkRlJcYhlkPQ88?authuser=0&hl=en&rclk=1,"28.6318645,77.07762029999999"
jama masjid Mohalla Malik Sahab,Mosque,"9MR2+CVR jama masjid Mohalla Malik Sahab, Rampura, Uttar Pradesh 244410",,9MR2+CVR,Rampura,244410,Uttar Pradesh,IN,https://www.google.com/maps/place/jama+masjid+Mohalla+Malik+Sahab/data=!4m7!3m6!1s0x390b27f2ff19cc2d:0x4ccbac296a0126bb!8m2!3d28.3911022!4d78.6521256!16s%2Fg%2F11h64v040x!19sChIJLcwZ__InCzkRuyYBaimsy0w?authuser=0&hl=en&rclk=1,"28.3911022,78.65212559999999"
NOORI MASJID Rampura Mafi,Mosque,"J8QV+3X2 NOORI MASJID Rampura Mafi, Rampura Rd, Rampura, Uttar Pradesh 243505",,"J8QV+3X2, Rampura Rd",Rampura,243505,Uttar Pradesh,IN,https://www.google.com/maps/place/NOORI+MASJID+Rampura+Mafi/data=!4m7!3m6!1s0x390a9fc7e816febf:0x10cbd65b193968e6!8m2!3d28.6376455!4d79.3449032!16s%2Fg%2F11h6gm8h7_!19sChIJv_4W6MefCjkR5mg5GVvWyxA?authuser=0&hl=en&rclk=1,"28.637645499999998,79.34490319999999"
Masjid,Mosque,"85XJ+38C Masjid, Rampura, Uttar Pradesh 285127",,85XJ+38C,Rampura,285127,Uttar Pradesh,IN,https://www.google.com/maps/place/Masjid/data=!4m7!3m6!1s0x39763d2307ab7b85:0x9687863abb66cf91!8m2!3d26.3476961!4d79.1807806!16s%2Fg%2F11fxcft1sm!19sChIJhXurByM9djkRkc9muzqGh5Y?authuser=0&hl=en&rclk=1,"26.3476961,79.18078059999999"
Gadriya wali gali,Housing complex,"M5G4+Q3G Gadriya wali gali, Hansa Puri, Rampura Industrial Area, Tri Nagar, Delhi, 110034","Hansa Puri, Rampura Industrial Area, Tri Nagar",M5G4+Q3G,Delhi,110034,Delhi,IN,https://www.google.com/maps/place/Gadriya+wali+gali/data=!4m7!3m6!1s0x390d0313fe382813:0xadb4d7838a64745a!8m2!3d28.6769476!4d77.1551904!16s%2Fg%2F11p5gdf_j8!19sChIJEyg4_hMDDTkRWnRkioPXtK0?authuser=0&hl=en&rclk=1,"28.6769476,77.1551904"
Jama Masjid Rampura,Mosque,"FC9Q+V84 Jama Masjid Rampura, Rampura, Madhya Pradesh 458118",,FC9Q+V84,Rampura,458118,Madhya Pradesh,IN,https://www.google.com/maps/place/Jama+Masjid+Rampura/data=!4m7!3m6!1s0x3965bb9ae311fe4b:0x631f3e0832eeb2d3!8m2!3d24.4696301!4d75.4383212!16s%2Fg%2F11hjl2mpvm!19sChIJS_4R45q7ZTkR07LuMgg-H2M?authuser=0&hl=en&rclk=1,"24.4696301,75.43832119999999"
Chhoti Masjid Hussaini Masjid,Mosque,"85WJ+G7W Chhoti Masjid Hussaini Masjid, Rampura, Uttar Pradesh 285127",,85WJ+G7W,Rampura,285127,Uttar Pradesh,IN,https://www.google.com/maps/place/Chhoti+Masjid+Hussaini+Masjid/data=!4m7!3m6!1s0x39763d23b6eb21d7:0x89e37802caf036cb!8m2!3d26.3463661!4d79.1806944!16s%2Fg%2F11g8pb8t8t!19sChIJ1yHrtiM9djkRyzbwygJ444k?authuser=0&hl=en&rclk=1,"26.346366099999997,79.1806944"
Munwara Masjid,Mosque,"Munwara Masjid, E-130, Gali No.6, Third Pusta Main Rd, Jagjeet Nagar, Delhi, 110053","Third Pushta, Nayagaon, Jagjeet Nagar, Shahdara","E-130, Gali No.6, Third Pusta Main Rd",Delhi,110053,Delhi,IN,https://www.google.com/maps/place/Munwara+Masjid/data=!4m7!3m6!1s0x390cfc44ec3cee7b:0x6817d8194e44c0a7!8m2!3d28.6861966!4d77.2559837!16s%2Fg%2F12hq6qdwg!19sChIJe-487ET8DDkRp8BEThnYF2g?authuser=0&hl=en&rclk=1,"28.6861966,77.2559837"
Masjid Amania,Mosque,"Masjid Amania, Main, Maujpur Rd, Shahdara, Delhi, 110053",Shahdara,"Main, Maujpur Rd",Delhi,110053,Delhi,IN,https://www.google.com/maps/place/Masjid+Amania/data=!4m7!3m6!1s0x390cfd4212229ecb:0x56b4673279cdc3f1!8m2!3d28.6855897!4d77.2762341!16s%2Fg%2F11s0s2pf6g!19sChIJy54iEkL9DDkR8cPNeTJntFY?authuser=0&hl=en&rclk=1,"28.685589699999998,77.2762341"
Mosque,Mosque,"Mosque, A-830, Keshopur Rd, Ravi Nagar, Vishnu Garden, New Delhi, Delhi, 110018","Ravi Nagar, Vishnu Garden","A-830, Keshopur Rd","New Delhi, Delhi",110018,Delhi,IN,https://www.google.com/maps/place/Mosque/data=!4m7!3m6!1s0x390d0486a97a083b:0x40e0b6317f726861!8m2!3d28.6520933!4d77.0963313!16s%2Fg%2F11g68xqdm_!19sChIJOwh6qYYEDTkRYWhyfzG24EA?authuser=0&hl=en&rclk=1,"28.652093299999997,77.0963313"
Masjid,Mosque,"Masjid, Molarband, Badarpur, New Delhi, Delhi 110044","Molarband, Badarpur",,New Delhi,110044,Delhi,IN,https://www.google.com/maps/place/Masjid/data=!4m7!3m6!1s0x390ce75604c9317b:0x95388f2bb1f0f9b2!8m2!3d28.5063324!4d77.3130947!16s%2Fg%2F11rkpbdy5r!19sChIJezHJBFbnDDkRsvnwsSuPOJU?authuser=0&hl=en&rclk=1,"28.506332399999998,77.3130947"
Masjid,Mosque,"9M74+66G Masjid, Hirnoti, Uttar Pradesh 203203",,9M74+66G,Hirnoti,203203,Uttar Pradesh,IN,https://www.google.com/maps/place/Masjid/data=!4m7!3m6!1s0x390cbbdfa6584727:0x4a1e67c0bd32dfaf!8m2!3d28.36306!4d77.6555641!16s%2Fg%2F11dzwm3m09!19sChIJJ0dYpt-7DDkRr98yvcBnHko?authuser=0&hl=en&rclk=1,"28.363059999999997,77.65556409999999"
Jama Masjid,Mosque,"FFJ3+6W3 Jama Masjid, Rampura Mafi, Uttar Pradesh 243407",,FFJ3+6W3,Rampura Mafi,243407,Uttar Pradesh,IN,https://www.google.com/maps/place/Jama+Masjid/data=!4m7!3m6!1s0x39a009804e85eb5b:0xe8d09958a8262f4d!8m2!3d28.4805012!4d79.454798!16s%2Fg%2F11sqr95gy4!19sChIJW-uFToAJoDkRTS8mqFiZ0Og?authuser=0&hl=en&rclk=1,"28.4805012,79.454798"
Masjid,Mosque,"5P6M+C34 Masjid, Jalebi Chowk, Shaheed Bhagat singh Park, Road, near Shubham Cosmetics & Gift Corner, Vivek Nagar, Raipur, Hisar, Haryana 125001",Vivek Nagar,"5P6M+C34 Jalebi Chowk, Shaheed Bhagat singh Park, Road, near Shubham Cosmetics & Gift Corner","Raipur, Hisar",125001,Haryana,IN,https://www.google.com/maps/place/Masjid/data=!4m7!3m6!1s0x39123399304904c1:0xb0fef4715b8c223d!8m2!3d29.1612066!4d75.7327677!16s%2Fg%2F11v9v6th6_!19sChIJwQRJMJkzEjkRPSKMW3H0_rA?authuser=0&hl=en&rclk=1,"29.1612066,75.7327677"
Masjid Shatoot Wali,Mosque,"M67H+G5Q Masjid Shatoot Wali, Chhota Bazar, Mori Gate, New Delhi, Delhi, 110006","Chhota Bazar, Mori Gate",M67H+G5Q,"New Delhi, Delhi",110006,Delhi,IN,https://www.google.com/maps/place/Masjid+Shatoot+Wali/data=!4m7!3m6!1s0x390cfdd8114d08fd:0x326042596014276a!8m2!3d28.663827!4d77.2279973!16s%2Fg%2F11g4h_zjtj!19sChIJ_QhNEdj9DDkRaicUYFlCYDI?authuser=0&hl=en&rclk=1,"28.663826999999998,77.2279973"
Masjid,Mosque,"289, Masjid, Indra Market, Muradnagar, Uttar Pradesh 201206",,"289, Indra Market",Muradnagar,201206,Uttar Pradesh,IN,https://www.google.com/maps/place/Masjid/data=!4m7!3m6!1s0x390cf51147d007eb:0x30f23314874815d6!8m2!3d28.7713207!4d77.5067395!16s%2Fg%2F11q_ng8w37!19sChIJ6wfQRxH1DDkR1hVIhxQz8jA?authuser=0&hl=en&rclk=1,"28.7713207,77.5067395"
Masjid,Mosque,"Masjid, Gali No 19, Gali Number 1, Mustafabad Extn, New Mustafabad, Delhi, 110094","E2 Block, Mustafabad Extn, New Mustafabad","Gali No 19, Gali Number 1",Delhi,110094,Delhi,IN,https://www.google.com/maps/place/Masjid/data=!4m7!3m6!1s0x390cfc1b020b0e91:0xb48a3c3233e41cbd!8m2!3d28.711773!4d77.272563!16s%2Fg%2F12hpqnhjr!19sChIJkQ4LAhv8DDkRvRzkMzI8irQ?authuser=0&hl=en&rclk=1,"28.711772999999997,77.27256299999999"
Quba Masjid,Mosque,"J2PQ+W2C Quba Masjid, Rajan Vihar, Mohan Garden, Razapur Khurd, Delhi, 110059","Rajan Vihar, Mohan Garden, Razapur Khurd",J2PQ+W2C,Delhi,110059,Delhi,IN,https://www.google.com/maps/place/Quba+Masjid/data=!4m7!3m6!1s0x390d0575960c51f5:0x9645edf750a7026b!8m2!3d28.6373071!4d77.0375001!16s%2Fg%2F11swj1dfg4!19sChIJ9VEMlnUFDTkRawKnUPftRZY?authuser=0&hl=en&rclk=1,"28.637307099999997,77.0375001"
Masjid msjid,Mosque,"Masjid msjid, A 95, Chanchal Park, Laxmi Park, Ranhola Extesion, Delhi, 110041","Chanchal Park, Laxmi Park, Ranhola Extesion",A 95,Delhi,110041,Delhi,IN,https://www.google.com/maps/place/Masjid+%E0%A4%AE%E0%A4%B8%E0%A5%8D%E0%A4%9C%E0%A4%BF%E0%A4%A6/data=!4m7!3m6!1s0x390d0570d033b0bb:0x480768d95ae5b61d!8m2!3d28.6495218!4d77.0230135!16s%2Fg%2F11rf4j7m64!19sChIJu7Az0HAFDTkRHbblWtloB0g?authuser=0&hl=en&rclk=1,"28.6495218,77.02301349999999"
msjdqwt l slm,Mosque,"M3M2+H2G msjdqwt l slm, Rajdhani Park, Mubarkpur, Delhi, 110041","Rajdhani Park, Mubarkpur",M3M2+H2G,Delhi,110041,Delhi,IN,https://www.google.com/maps/place/%D9%85%D8%B3%D8%AC%D8%AF%D9%82%D9%88%D8%AA+%D8%A7%D9%84+%D8%A7%D8%B3%D9%84%D8%A7%D9%85%E2%80%AD/data=!4m7!3m6!1s0x390d0504c7afee0d:0x51dba4fd779abaa9!8m2!3d28.6838992!4d77.0500734!16s%2Fg%2F11s4x1v2h4!19sChIJDe6vxwQFDTkRqbqad_2k21E?authuser=0&hl=en&rclk=1,"28.6838992,77.0500734"
Masjid,Mosque,"Masjid, 8/2, Budh Bazar, Block L 1, Devli, Sangam Vihar, New Delhi, Delhi 110062","Budh Bazar, Block L 1, Devli, Sangam Vihar",8/2,New Delhi,110062,Delhi,IN,https://www.google.com/maps/place/Masjid/data=!4m7!3m6!1s0x390ce1dde82b3bc3:0x4d3537cacd38aec4!8m2!3d28.4940769!4d77.2261653!16s%2Fg%2F11rk33_10p!19sChIJwzsr6N3hDDkRxK44zco3NU0?authuser=0&hl=en&rclk=1,"28.4940769,77.22616529999999"
Masjid,Mosque,"R8MQ+8WC Masjid, Rataul, Uttar Pradesh 250101",,R8MQ+8WC,Rataul,250101,Uttar Pradesh,IN,https://www.google.com/maps/place/Masjid/data=!4m7!3m6!1s0x390c57cef24cc299:0x81fa3191b7d3d3d!8m2!3d28.8333117!4d77.3397708!16s%2Fg%2F11dd_r6cjs!19sChIJmcJM8s5XDDkRPT19GxmjHwg?authuser=0&hl=en&rclk=1,"28.8333117,77.3397708"
Zama Maszid Rampura,Mosque,"V972+783 Zama Maszid Rampura, Rampura Bujurg, Paipura, Uttar Pradesh 244921",,V972+783,"Rampura Bujurg, Paipura",244921,Uttar Pradesh,IN,https://www.google.com/maps/place/Zama+Maszid+Rampura/data=!4m7!3m6!1s0x390a83318bc3a159:0xc91e6286dd799ccb!8m2!3d28.8631469!4d79.3507867!16s%2Fg%2F11rs0hwmg8!19sChIJWaHDizGDCjkRy5x53YZiHsk?authuser=0&hl=en&rclk=1,"28.8631469,79.3507867"
Masjid Sharif,Mosque,"XJPC+7M9 Masjid Sharif, Chhijlet, Uttar Pradesh 244501",,XJPC+7M9,Chhijlet,244501,Uttar Pradesh,IN,https://www.google.com/maps/place/Masjid+Sharif/data=!4m7!3m6!1s0x390bab04a0c512eb:0x554d52918f1e4e65!8m2!3d28.9856569!4d78.6217312!16s%2Fg%2F11fy4hgb5r!19sChIJ6xLFoASrCzkRZU4ej5FSTVU?authuser=0&hl=en&rclk=1,"28.9856569,78.6217312"
Masque-Masjid,Mosque,"2FGQ+P6H Masque-Masjid, Peeragarhi, Haryana 121107",,2FGQ+P6H,Peeragarhi,121107,Haryana,IN,https://www.google.com/maps/place/Masque-Masjid/data=!4m7!3m6!1s0x397335deb9b20f4f:0x48a52cb13f504d6f!8m2!3d28.0268195!4d77.4881018!16s%2Fg%2F11kmvmkfqm!19sChIJTw-yud41czkRb01QP7EspUg?authuser=0&hl=en&rclk=1,"28.0268195,77.4881018"
Masjid,Mosque,"767P+G5P Masjid, National Highway 64, Rampura Phul, Punjab 151103",,"767P+G5P, National Highway 64",Rampura Phul,151103,Punjab,IN,https://www.google.com/maps/place/Masjid/data=!4m7!3m6!1s0x3910c490b2afffff:0xd3764b2c3d2b9812!8m2!3d30.2638255!4d75.2354633!16s%2Fg%2F11tgg7jrty!19sChIJ__-vspDEEDkREpgrPSxLdtM?authuser=0&hl=en&rclk=1,"30.2638255,75.23546329999999"
NASEEB DHBVN GALI NO 24,Mosque,"NASEEB DHBVN GALI NO 24, 25, Dabur Colony, Daber Colony, Bhiwani, Haryana 127021","Dabur Colony, Daber Colony",25,Bhiwani,127021,Haryana,IN,https://www.google.com/maps/place/NASEEB+DHBVN+GALI+NO+24/data=!4m7!3m6!1s0x391267dc8a47cacf:0x36c3a716f89e57d4!8m2!3d28.7881254!4d76.108725!16s%2Fg%2F11pkfq2kds!19sChIJz8pHitxnEjkR1Fee-BanwzY?authuser=0&hl=en&rclk=1,"28.7881254,76.10872499999999"
MASJID E NAMRA,Mosque,"6V3M+HXQ MASJID E NAMRA, Rampura, Rajasthan 301019",,6V3M+HXQ,Rampura,301019,Rajasthan,IN,https://www.google.com/maps/place/MASJID+E+NAMRA/data=!4m7!3m6!1s0x390d3726788aa599:0x24ccea9c32c7998f!8m2!3d28.204188!4d76.884525!16s%2Fg%2F11srhp2jd4!19sChIJmaWKeCY3DTkRj5nHMpzqzCQ?authuser=0&hl=en&rclk=1,"28.204188,76.884525"
Jamah Masjid Badi,Mosque,"G8J7+7F5 Jamah Masjid Badi, JJ Colony, Madanpur Khadar, New Delhi, Delhi 110076","JJ Colony, Madanpur Khadar",G8J7+7F5,New Delhi,110076,Delhi,IN,https://www.google.com/maps/place/Jamah+Masjid+Badi/data=!4m7!3m6!1s0x390ce7b78eb036b1:0x8f6236080c1ca163!8m2!3d28.5306406!4d77.3137464!16s%2Fg%2F11kk081p_j!19sChIJsTawjrfnDDkRY6EcDAg2Yo8?authuser=0&hl=en&rclk=1,"28.530640599999998,77.3137464"
Masjid,Mosque,"M794+RG5 Masjid, Block A, Shastri Park, Shahdara, Delhi, 110053","Block A, Shastri Park, Shahdara",M794+RG5,Delhi,,Delhi,IN,https://www.google.com/maps/place/Masjid/data=!4m7!3m6!1s0x390cfd74b6378221:0x2da5c9212f831088!8m2!3d28.6695164!4d77.2563643!16s%2Fg%2F11tb42z9g0!19sChIJIYI3tnT9DDkRiBCDLyHJpS0?authuser=0&hl=en&rclk=1,"28.6695164,77.2563643"
Mosque,Mosque,"Mosque, H-16/62 shop no-11 khurana complex gali no-4, Tank Rd, opp. gurudwara parking side, Mata Rameshwari Nehru Nagar, Karol Bagh, Delhi, 110005","Mata Rameshwari Nehru Nagar, Karol Bagh","H-16/62 shop no-11 khurana complex gali no-4, Tank Rd, opp. gurudwara parking side",Delhi,110005,Delhi,IN,https://www.google.com/maps/place/Mosque/data=!4m7!3m6!1s0x390d03c67a8aab33:0x21498747997e95e0!8m2!3d28.6504768!4d77.1804367!16s%2Fg%2F11s5wlsy8v!19sChIJM6uKesYDDTkR4JV-mUeHSSE?authuser=0&hl=en&rclk=1,"28.6504768,77.1804367"
Masjid msjd,Mosque,"P33Q+5Q5 Masjid msjd, Y Block, Mangolpuri, Delhi, 110085","Pocket C, Sector 1, Mangolpuri","P33Q+5Q5, Y Block",Delhi,110085,Delhi,IN,https://www.google.com/maps/place/Masjid+%D9%85%D8%B3%D8%AC%D8%AF%E2%80%AD/data=!4m7!3m6!1s0x390d075006af1d37:0x77cfb359c992ee54!8m2!3d28.702881!4d77.089479!16s%2Fg%2F11pzyfmlyd!19sChIJNx2vBlAHDTkRVO6SyVmzz3c?authuser=0&hl=en&rclk=1,"28.702880999999998,77.089479"
Masjid,Mosque,"Masjid, 20, Masjid Rd, Pervesh Nagar, Mubarakpur Dabas, New Delhi, Delhi, 110081","Pervesh Nagar, Mubarakpur Dabas","20, Masjid Rd","New Delhi, Delhi",110081,Delhi,IN,https://www.google.com/maps/place/Masjid/data=!4m7!3m6!1s0x390d075632dea237:0xe707b406c4cff64!8m2!3d28.7098866!4d77.0310854!16s%2Fg%2F11kq2cq2_1!19sChIJN6LeMlYHDTkRZP9MbEB7cA4?authuser=0&hl=en&rclk=1,"28.709886599999997,77.0310854"
Masjid,Mosque,"J2WM+MXF Masjid, Sunni Masjid Rd, Deep Enclave, Hastsal, Delhi, 110059","Deep Enclave, Hastsal","J2WM+MXF, Sunni Masjid Rd",Delhi,110059,Delhi,IN,https://www.google.com/maps/place/Masjid/data=!4m7!3m6!1s0x390d05267bb46283:0xaef6f06f366d7113!8m2!3d28.6466834!4d77.0349292!16s%2Fg%2F11vl8tpxw1!19sChIJg2K0eyYFDTkRE3FtNm_w9q4?authuser=0&hl=en&rclk=1,"28.646683399999997,77.0349292"
Masjid,Mosque,"Masjid, L385, Block L, JJ Colony No 3, Nangloi, New Delhi, Delhi, 110041","Block L, JJ Colony No 3, Nangloi",L385,"New Delhi, Delhi",110041,Delhi,IN,https://www.google.com/maps/place/Masjid/data=!4m7!3m6!1s0x390d0530462f99ad:0xf47aa8290ce093fa!8m2!3d28.6842352!4d77.0742041!16s%2Fg%2F11smtj7p27!19sChIJrZkvRjAFDTkR-pPgDCmoevQ?authuser=0&hl=en&rclk=1,"28.6842352,77.0742041"
Masjid Road,Mosque,"M3X2+MWG Masjid Road, Block W, Prem Nagar I, Kirari Suleman Nagar, Delhi, 110086","Block W, Prem Nagar I, Kirari Suleman Nagar","M3X2+MWG, Masjid Road",Delhi,110086,Delhi,IN,https://www.google.com/maps/place/Masjid+Road/data=!4m7!3m6!1s0x390d07a86e5263e9:0x9201e9cfb39a2044!8m2!3d28.6991868!4d77.052315!16s%2Fg%2F11vfb9h06f!19sChIJ6WNSbqgHDTkRRCCas8_pAZI?authuser=0&hl=en&rclk=1,"28.6991868,77.052315"
Masjid,Mosque,"Shop No: 5035, Masjid, Netaji Subhash Marg, Daryaganj, New Delhi, Delhi, 110002",Daryaganj,"Shop No: 5035, Netaji Subhash Marg","New Delhi, Delhi",110002,Delhi,IN,https://www.google.com/maps/place/Masjid/data=!4m7!3m6!1s0x390cfdf175041b95:0x8ef57a2bc9f92c1c!8m2!3d28.6480954!4d77.2403964!16s%2Fg%2F11s664lvxh!19sChIJlRsEdfH9DDkRHCz5ySt69Y4?authuser=0&hl=en&rclk=1,"28.6480954,77.2403964"
Masjid Mohammadiya,Mosque,"M675+4VF Masjid Mohammadiya, Bahadurgarh Rd, Hathi Khana, Sadar Bazaar, New Delhi, Delhi, 110006","Hathi Khana, Sadar Bazaar","M675+4VF, Bahadurgarh Rd","New Delhi, Delhi",110006,Delhi,IN,https://www.google.com/maps/place/Masjid+Mohammadiya/data=!4m7!3m6!1s0x390cfd1e19b763d7:0xf26449d51a7a5a53!8m2!3d28.6628007!4d77.2096573!16s%2Fg%2F11tfwp5hs4!19sChIJ12O3GR79DDkRU1p6GtVJZPI?authuser=0&hl=en&rclk=1,"28.6628007,77.2096573"
Rampura,,"Rampura, Golden Park, Tri Nagar, Delhi, 110035","Rampura, Golden Park, Tri Nagar",,Delhi,,Delhi,IN,https://www.google.com/maps/place/Rampura/data=!4m7!3m6!1s0x390d02523c9523cb:0xaba9129d83f0df03!8m2!3d28.6732479!4d77.1526506!16s%2Fg%2F1ptzgqzpy!19sChIJyyOVPFICDTkRA9_wg50Sqas?authuser=0&hl=en&rclk=1,"28.6732479,77.1526506"
Noorani Masjid,Mosque,"9MR2+PQ5 Noorani Masjid, Rampura, Uttar Pradesh 244410",,9MR2+PQ5,Rampura,244410,Uttar Pradesh,IN,https://www.google.com/maps/place/Noorani+Masjid/data=!4m7!3m6!1s0x390b2764ff7d2db9:0x7013dbe7e241a7d0!8m2!3d28.3917015!4d78.6519411!16s%2Fg%2F11s_ry1r1k!19sChIJuS19_2QnCzkR0KdB4ufbE3A?authuser=0&hl=en&rclk=1,"28.3917015,78.6519411"
Raza masjid,Mosque,"FFJ4+7JW Raza masjid, Rampura Mafi, Uttar Pradesh 243407",,FFJ4+7JW,Rampura Mafi,243407,Uttar Pradesh,IN,https://www.google.com/maps/place/Raza+masjid/data=!4m7!3m6!1s0x39a009115b07a92d:0x82576ad91761cd3e!8m2!3d28.4807278!4d79.4565706!16s%2Fg%2F11pvhkg_vk!19sChIJLakHWxEJoDkRPs1hF9lqV4I?authuser=0&hl=en&rclk=1,"28.4807278,79.45657059999999"
Rampura,,"Rampura, Sector 78, Gurugram, Haryana 122004","Rampura, Sector 78",,Gurugram,,Haryana,IN,https://www.google.com/maps/place/Rampura/data=!4m7!3m6!1s0x390d3d05dbceb303:0x7ca25d21170a9fc5!8m2!3d28.3812327!4d76.9625057!16s%2Fg%2F1td2s8h_!19sChIJA7PO2wU9DTkRxZ8KFyFdonw?authuser=0&hl=en&rclk=1,"28.381232699999998,76.9625057"
Masjid,Mosque,"W4X5+C3X Masjid, Bazidpur, Haryana 122508",,W4X5+C3X,Bazidpur,,Haryana,IN,https://www.google.com/maps/place/Masjid/data=!4m7!3m6!1s0x3972d78636d1a3c5:0xee4f8d1680829d38!8m2!3d27.9486005!4d77.1077437!16s%2Fg%2F11k02z3y7b!19sChIJxaPRNobXcjkROJ2CgBaNT-4?authuser=0&hl=en&rclk=1,"27.948600499999998,77.1077437"
Rampura,,"Rampura, Haryana",,,Rampura,,Haryana,IN,https://www.google.com/maps/place/Rampura/data=!4m7!3m6!1s0x3912b1a6545cc05b:0xb026a6f2ce6cd176!8m2!3d28.079758!4d76.3260992!16s%2Fg%2F12hy_jgd6!19sChIJW8BcVKaxEjkRdtFszvKmJrA?authuser=0&hl=en&rclk=1,"28.079757999999998,76.3260992"
School wali majid,Mosque,"76CQ+3W4 School wali majid, Rampura Phul, Punjab 151103",,76CQ+3W4,Rampura Phul,,Punjab,IN,https://www.google.com/maps/place/School+wali+majid/data=!4m7!3m6!1s0x3910c51cfee4d5f9:0x4e9c3ebe09f96714!8m2!3d30.2701375!4d75.2398219!16s%2Fg%2F11sqd9wsk1!19sChIJ-dXk_hzFEDkRFGf5Cb4-nE4?authuser=0&hl=en&rclk=1,"30.270137499999997,75.2398219"
Rampura,,"Rampura, Haryana",,,Rampura,,Haryana,IN,https://www.google.com/maps/place/Rampura/data=!4m7!3m6!1s0x3912f4ca96a21be9:0xa71d7bafc383fdc6!8m2!3d28.6280972!4d76.0885011!16s%2Fg%2F12jvylwn6!19sChIJ6Ruilsr0EjkRxv2Dw697Hac?authuser=0&hl=en&rclk=1,"28.6280972,76.0885011"
Rampura,,"Rampura, Haryana 123401",,,Rampura,,Haryana,IN,https://www.google.com/maps/place/Rampura/data=!4m7!3m6!1s0x390d506415349fd5:0x7b9e5e65ec9c2ea8!8m2!3d28.1821505!4d76.6037222!16s%2Fg%2F12hqghfwb!19sChIJ1Z80FWRQDTkRqC6c7GVenns?authuser=0&hl=en&rclk=1,"28.1821505,76.60372219999999"
Rampura,,"Rampura, Rajasthan",,,Rampura,,Rajasthan,IN,https://www.google.com/maps/place/Rampura/data=!4m7!3m6!1s0x390d377572b456bd:0xfbc6857942d37571!8m2!3d28.2046029!4d76.87642!16s%2Fg%2F12hkd7t1z!19sChIJvVa0cnU3DTkRcXXTQnmFxvs?authuser=0&hl=en&rclk=1,"28.204602899999998,76.87642"
AQSA Masjid Rampura,Mosque,"R887+J25 AQSA Masjid Rampura, Rampura, Bahawalnagar, Punjab, Pakistan",,R887+J25,Rampura,,"Bahawalnagar, Punjab",PK,https://www.google.com/maps/place/AQSA+Masjid+Rampura/data=!4m7!3m6!1s0x393d83a320dcdcab:0x8d9dcf36e6d8869a!8m2!3d29.8165136!4d73.3126034!16s%2Fg%2F11jvj6lprk!19sChIJq9zcIKODPTkRmobY5jbPnY0?authuser=0&hl=en&rclk=1,"29.8165136,73.3126034"
