name,main_category,address,address_ward,address_street,address_city,address_postal_code,address_state,address_country_code,link,coordinates
TNTJ,Mosque,"2X99+WRM TNTJ, Opposite G.P. Hospital, Coimbatore, Tamil Nadu 641012",Opposite G.P. Hospital,2X99+WRM,Coimbatore,641012,Tamil Nadu,IN,https://www.google.com/maps/place/TNTJ/data=!4m7!3m6!1s0x3ba85856a8e1d391:0x1fd2f86fda9b7158!8m2!3d11.0198436!4d76.9695433!16s%2Fg%2F11bzrj3v95!19sChIJkdPhqFZYqDsRWHGb2m_40h8?authuser=0&hl=en&rclk=1,"11.0198436,76.9695433"
Makkha Masjid Dheenul Islam Sunnath Jama-Ath,Mosque,"3, Makkha Masjid Dheenul Islam Sunnath Jama-Ath, Makkah Masjid Rd, Sundarapuram, Coimbatore, Kurichi, Tamil Nadu 641024",Sundarapuram,"3, Makkah Masjid Rd","Coimbatore, Kurichi",641024,Tamil Nadu,IN,https://www.google.com/maps/place/Makkha+Masjid+Dheenul+Islam+Sunnath+Jama-Ath/data=!4m7!3m6!1s0x3ba85a312b9c0963:0xc9178239e1529308!8m2!3d10.9534341!4d76.9726083!16s%2Fg%2F1thzs6y3!19sChIJYwmcKzFaqDsRCJNS4TmCF8k?authuser=0&hl=en&rclk=1,"10.953434099999999,76.97260829999999"
Ahmadiyya muslim jamath,Mosque,"Ahmadiyya muslim jamath, Bharathi Nagar, Kuniyamuthur, Tamil Nadu 641008",Bharathi Nagar,,Kuniyamuthur,641008,Tamil Nadu,IN,https://www.google.com/maps/place/Ahmadiyya+muslim+jamath/data=!4m7!3m6!1s0x3ba85bd7e3a5425f:0x5a4faa6acf7c27e3!8m2!3d10.9682479!4d76.9534945!16s%2Fg%2F11b8jct6zv!19sChIJX0Kl49dbqDsR4yd8z2qqT1o?authuser=0&hl=en&rclk=1,"10.9682479,76.95349449999999"
Masjidul Mubeen.TNTJ,Mosque,"Masjidul Mubeen.TNTJ, M.C.R 2nd street Azad Nagar Karumbukkadai.Coimbatore - 641008",,M.C.R 2nd street Azad Nagar Karumbukkadai.Coimbatore - 641008,Coimbatore,,Tamil Nadu,IN,https://www.google.com/maps/place/Masjidul+Mubeen.TNTJ/data=!4m7!3m6!1s0x3ba8597bdea6faf3:0xcc58affa88cc03bf!8m2!3d10.9764671!4d76.9581985!16s%2Fg%2F11bycfqc37!19sChIJ8_qm3ntZqDsRvwPMiPqvWMw?authuser=0&hl=en&rclk=1,"10.976467099999999,76.9581985"
Markaz Al Baydha,Mosque,"Markaz Al Baydha, Cheran Towers, near K G Hospital, Gopalapuram, Coimbatore, Tamil Nadu 641018",Gopalapuram,"Cheran Towers, near K G Hospital",Coimbatore,641018,Tamil Nadu,IN,https://www.google.com/maps/place/Markaz+Al+Baydha/data=!4m7!3m6!1s0x3ba8594a13131cfb:0x546e36dd79c756ce!8m2!3d10.9982588!4d76.9712358!16s%2Fg%2F11lgkft2n7!19sChIJ-xwTE0pZqDsRzlbHed02blQ?authuser=0&hl=en&rclk=1,"10.9982588,76.9712358"
Masjid Arafa,Mosque,"Masjid Arafa, 70, Rose Park, 4th St, South Ukkadam, Coimbatore, Tamil Nadu 641001","Anbu Nagar, South Ukkadam","70, Rose Park, 4th St",Coimbatore,641001,Tamil Nadu,IN,https://www.google.com/maps/place/Masjid+Arafa/data=!4m7!3m6!1s0x3ba859dc987dd883:0xbb5ebfb49a65f6d3!8m2!3d10.9812255!4d76.9743703!16s%2Fg%2F11hvk2_g7t!19sChIJg9h9mNxZqDsR0_ZlmrS_Xrs?authuser=0&hl=en&rclk=1,"10.981225499999999,76.97437029999999"
Masjidul Aqsa,Mosque,"6, Masjidul Aqsa, Noorabad, 11, Masthan Sahib St, Podanur, Tamil Nadu 641023","Teachers Colony, Sakthi Nagar","6, Noorabad, 11, Masthan Sahib St",Podanur,641023,Tamil Nadu,IN,https://www.google.com/maps/place/Masjidul+Aqsa/data=!4m7!3m6!1s0x3ba85b1d5af12e53:0xe2ac7374b77f5f43!8m2!3d10.9594714!4d76.9832184!16s%2Fg%2F11s6573nx9!19sChIJUy7xWh1bqDsRQ19_t3RzrOI?authuser=0&hl=en&rclk=1,"10.9594714,76.9832184"
Ahle Sunnath Jamath Masjid,Mosque,"2X99+X2F Ahle Sunnath Jamath Masjid, 4th St, Gandhipuram, Coimbatore, Tamil Nadu 641012",,"2X99+X2F, 4th St","Gandhipuram, Coimbatore",641012,Tamil Nadu,IN,https://www.google.com/maps/place/Ahle+Sunnath+Jamath+Masjid/data=!4m7!3m6!1s0x3ba858568683dd9f:0x837b1b28f8c8e6de!8m2!3d11.0199288!4d76.9675333!16s%2Fg%2F11r8jf6yc!19sChIJn92DhlZYqDsR3ubI-Cgbe4M?authuser=0&hl=en&rclk=1,"11.019928799999999,76.9675333"
Hyder Ali Tippu Sultan Sunnath Jamaath Masjid,Mosque,"Hyder Ali Tippu Sultan Sunnath Jamaath Masjid, 835, Puthiyavan Nagar, Sukrawar Pettai, R.S. Puram, Coimbatore, Tamil Nadu 641001","Puthiyavan Nagar, Sukrawar Pettai, R.S. Puram",835,Coimbatore,641001,Tamil Nadu,IN,https://www.google.com/maps/place/Hyder+Ali+Tippu+Sultan+Sunnath+Jamaath+Masjid/data=!4m7!3m6!1s0x3ba8590464adf617:0xd1db75da690e6ad3!8m2!3d11.0073947!4d76.9554292!16s%2Fg%2F11c75wlclh!19sChIJF_atZARZqDsR02oOadp129E?authuser=0&hl=en&rclk=1,"11.007394699999999,76.9554292"
Neelambur Masjid (palli Vasal),Mosque,"335J+MQV Neelambur Masjid (palli Vasal), 1/503 Y, Avinashi Rd, Neelambur, Tamil Nadu 641062",,"335J+MQV, 1/503 Y, Avinashi Rd",Neelambur,641062,Tamil Nadu,IN,https://www.google.com/maps/place/Neelambur+Masjid+%28palli+Vasal%29/data=!4m7!3m6!1s0x3ba8561f1f6ffeb5:0xe701106641a7a48f!8m2!3d11.0592464!4d77.0819938!16s%2Fg%2F11b76krc0b!19sChIJtf5vHx9WqDsRj6SnQWYQAec?authuser=0&hl=en&rclk=1,"11.0592464,77.08199379999999"
Masjid Jannathul Firdouse,Mosque,"3X8X+85V Masjid Jannathul Firdouse, Saravanampatti, Siranandha Puram, Coimbatore, Tamil Nadu 641049",Saravanampatti,3X8X+85V,"Siranandha Puram, Coimbatore",641049,Tamil Nadu,IN,https://www.google.com/maps/place/Masjid+Jannathul+Firdouse/data=!4m7!3m6!1s0x3ba8f7e4bad99d5b:0x5695a79660afaae1!8m2!3d11.0658605!4d76.997914!16s%2Fg%2F11b6cvpr2g!19sChIJW53ZuuT3qDsR4aqvYJanlVY?authuser=0&hl=en&rclk=1,"11.0658605,76.997914"
Masjid e Quba,Mosque,"Masjid e Quba, 62, NGR St, BR Puram, Hope College, Saravanampatti, Coimbatore, Tamil Nadu 641004","BR Puram, Hope College, Saravanampatti","62, NGR St",Coimbatore,641004,Tamil Nadu,IN,https://www.google.com/maps/place/Masjid+e+Quba/data=!4m7!3m6!1s0x3ba8578f7634676f:0x6812b44cd186e65a!8m2!3d11.0281148!4d77.0189499!16s%2Fg%2F1hhjkrnbb!19sChIJb2c0do9XqDsRWuaG0Uy0Emg?authuser=0&hl=en&rclk=1,"11.028114799999999,77.0189499"
Masjid Taqwa,Mosque,"2, Masjid Taqwa, 6, Gandhi Nagar Main Rd, Ganapathy Housing Unit, Gandhi Nagar, Ganapathy, Coimbatore, Tamil Nadu 641006","Ganapathy Housing Unit, Gandhi Nagar, Ganapathy","2, 6, Gandhi Nagar Main Rd",Coimbatore,641006,Tamil Nadu,IN,https://www.google.com/maps/place/Masjid+Taqwa/data=!4m7!3m6!1s0x3ba85842152d889b:0x8d07c07a7e3931b3!8m2!3d11.0353096!4d76.9801943!16s%2Fg%2F11b6jfwbfl!19sChIJm4gtFUJYqDsRszE5fnrAB40?authuser=0&hl=en&rclk=1,"11.0353096,76.9801943"
Madarase Taqwa & Jumma Masjid Brindhavan Nagar,Mosque,"22HQ+836 Madarase Taqwa & Jumma Masjid Brindhavan Nagar, Rd Number 1, Peelamedu, Brindhavan Nagar, Civil Aerodrome Post, Coimbatore, Tamil Nadu 641014","Peelamedu, Brindhavan Nagar, Civil Aerodrome Post","22HQ+836, Rd Number 1",Coimbatore,641014,Tamil Nadu,IN,https://www.google.com/maps/place/Madarase+Taqwa+%26+Jumma+Masjid+Brindhavan+Nagar/data=!4m7!3m6!1s0x3ba857bcc9ff43a9:0xa0d66acdc16034d8!8m2!3d11.0282785!4d77.03765!16s%2Fg%2F11c4b2wym4!19sChIJqUP_ybxXqDsR2DRgwc1q1qA?authuser=0&hl=en&rclk=1,"11.028278499999999,77.03765"
"Ponvizha Nagar, Sunnath Jamath Masjid",Mosque,"XXJ9+H5G Ponvizha Nagar, Sunnath Jamath Masjid, Ponvizha Nagar, South Ukkadam, Coimbatore, Tamil Nadu 641008","Ponvizha Nagar, South Ukkadam",XXJ9+H5G,Coimbatore,641008,Tamil Nadu,IN,"https://www.google.com/maps/place/Ponvizha+Nagar,+Sunnath+Jamath+Masjid/data=!4m7!3m6!1s0x3ba8599cc49c18dd:0x222dcdbac19055a1!8m2!3d10.9814371!4d76.9679598!16s%2Fg%2F12hw4xfbb!19sChIJ3RicxJxZqDsRoVWQwbrNLSI?authuser=0&hl=en&rclk=1","10.981437099999999,76.9679598"
Mosque- Quwathul Islam Ahlus Sunnath Val Jamath,Mosque,"Mosque- Quwathul Islam Ahlus Sunnath Val Jamath, 197, V. K., Peelmadu Market Gandhima Nagar Road, Peelamedu, Tamil Nadu 641004",Peelamedu,"197, V. K., Peelmadu Market Gandhima Nagar Road",Coimbatore,641004,Tamil Nadu,IN,https://www.google.com/maps/place/Mosque-+Quwathul+Islam+Ahlus+Sunnath+Val+Jamath/data=!4m7!3m6!1s0x3ba858246b391eed:0xd35077e61ed3aa95!8m2!3d11.0282878!4d77.0016126!16s%2Fg%2F11c76jx7hm!19sChIJ7R45ayRYqDsRlarTHuZ3UNM?authuser=0&hl=en&rclk=1,"11.0282878,77.0016126"
Qurrathul Ain Hanafi Sunnath Jama-ath,Mosque,"2X53+36X Qurrathul Ain Hanafi Sunnath Jama-ath, Sir Shanmugam Rd, R.S. Puram, Coimbatore, Tamil Nadu 641002",R.S. Puram,"2X53+36X, Sir Shanmugam Rd",Coimbatore,641002,Tamil Nadu,IN,https://www.google.com/maps/place/Qurrathul+Ain+Hanafi+Sunnath+Jama-ath/data=!4m7!3m6!1s0x3ba85904a9f9cdf5:0x8aee00feb56719c7!8m2!3d11.0077287!4d76.9531047!16s%2Fg%2F12lkxdtrk!19sChIJ9c35qQRZqDsRxxlntf4A7oo?authuser=0&hl=en&rclk=1,"11.0077287,76.9531047"
North Coimbatore Mosque/ Juma Masjid,Mosque,"North Coimbatore Mosque/ Juma Masjid, 238, Mettupalayam Rd, Tatabad, Kuppakonam Pudur, Coimbatore, Tamil Nadu 641043","Tatabad, Kuppakonam Pudur","238, Mettupalayam Rd",Coimbatore,641043,Tamil Nadu,IN,https://www.google.com/maps/place/North+Coimbatore+Mosque%2F+Juma+Masjid/data=!4m7!3m6!1s0x3ba858ede737813f:0xb3f93d3f3f604b5!8m2!3d11.0301082!4d76.9513841!16s%2Fg%2F11cp7jmvjq!19sChIJP4E35-1YqDsRtQT289OTPws?authuser=0&hl=en&rclk=1,"11.030108199999999,76.9513841"
Masjidhul Muslimeen- Run by JAQH,Mosque,"XXR8+H4H Masjidhul Muslimeen- Run by JAQH, Ukkadam, Coimbatore, Tamil Nadu 641001",Ukkadam,XXR8+H4H,Coimbatore,641001,Tamil Nadu,IN,https://www.google.com/maps/place/Masjidhul+Muslimeen-+Run+by+JAQH/data=!4m7!3m6!1s0x3ba8599ff6a1781b:0xe5e2d5f0a4a430af!8m2!3d10.9914341!4d76.9653664!16s%2Fg%2F11b8_pxyxt!19sChIJG3ih9p9ZqDsRrzCkpPDV4uU?authuser=0&hl=en&rclk=1,"10.9914341,76.9653664"
Uppillipalayam Mosque,Mosque,"Uppillipalayam Mosque, No 804-A, Avinashi Road, Opp. Thandumariamman Koil, Uppilipalayam, Coimbatore, Tamil Nadu 641018","Near Dhandumariamman Kovil, ATT Colony, Gopalapuram","No 804-A, Avinashi Road, Opp. Thandumariamman Koil, Uppilipalayam",Coimbatore,641018,Tamil Nadu,IN,https://www.google.com/maps/place/Uppillipalayam+Mosque/data=!4m7!3m6!1s0x3ba859a87fd94edd:0x6c1baec8ca4eec4f!8m2!3d11.0027217!4d76.9674077!16s%2Fg%2F1263n9pk4!19sChIJ3U7Zf6hZqDsRT-xOysiuG2w?authuser=0&hl=en&rclk=1,"11.0027217,76.9674077"
Mosque msjd,Mosque,"Mosque msjd, 50, State Bank Rd Opp.Railway Station, State Bank Rd, Opp.Railway Station, Gopalapuram, Coimbatore, Tamil Nadu 641018","Opp.Railway Station, Gopalapuram","50, State Bank Rd Opp.Railway Station, State Bank Rd",Coimbatore,641018,Tamil Nadu,IN,https://www.google.com/maps/place/Mosque+%D9%85%D8%B3%D8%AC%D8%AF%E2%80%AD/data=!4m7!3m6!1s0x3ba859a124a2c34b:0x1acc77e65d82248d!8m2!3d10.9967006!4d76.9676602!16s%2Fg%2F11dfhvhhlk!19sChIJS8OiJKFZqDsRjSSCXeZ3zBo?authuser=0&hl=en&rclk=1,"10.996700599999999,76.9676602"
Athar Jamaath Masjid msjd,Mosque,"XXV5+9VJ Athar Jamaath Masjid msjd, Oppanakara St., Prakasam, Ukkadam, Coimbatore, Tamil Nadu 641001","Prakasam, Ukkadam","XXV5+9VJ, Oppanakara St.",Coimbatore,641001,Tamil Nadu,IN,https://www.google.com/maps/place/Athar+Jamaath+Masjid+%D9%85%D8%B3%D8%AC%D8%AF%E2%80%AD/data=!4m7!3m6!1s0x3ba8590b7169c297:0xb9a33af3b777ba4c!8m2!3d10.9934543!4d76.9596559!16s%2Fm%2F0wz1dr0!19sChIJl8JpcQtZqDsRTLp3t_M6o7k?authuser=0&hl=en&rclk=1,"10.9934543,76.9596559"
TNAU Masjid msjd,Mosque,"2W4Q+RP3 TNAU Masjid msjd, Robertson Rd, Tamil Nadu Agricultural University, P N Pudur, Coimbatore, Tamil Nadu 641003",Tamil Nadu Agricultural University,"2W4Q+RP3, Robertson Rd","P N Pudur, Coimbatore",641003,Tamil Nadu,IN,https://www.google.com/maps/place/TNAU+Masjid+%D9%85%D8%B3%D8%AC%D8%AF%E2%80%AD/data=!4m7!3m6!1s0x3ba85922270f15ef:0x74647d843e8193fe!8m2!3d11.0070053!4d76.9392974!16s%2Fg%2F11bycl8x2d!19sChIJ7xUPJyJZqDsR_pOBPoR9ZHQ?authuser=0&hl=en&rclk=1,"11.0070053,76.9392974"
Masjid-un-Noor msjd,Mosque,"XX8C+RXV Masjid-un-Noor msjd, Thirumarai Nagar, Kurichi, Coimbatore, Tamil Nadu 641024",Thirumarai Nagar,XX8C+RXV,"Kurichi, Coimbatore",641024,Tamil Nadu,IN,https://www.google.com/maps/place/Masjid-un-Noor+%D9%85%D8%B3%D8%AC%D8%AF%E2%80%AD/data=!4m7!3m6!1s0x3ba85a29a9d53c1f:0x86fb36046d584f8c!8m2!3d10.967117!4d76.9724116!16s%2Fg%2F1260qb59f!19sChIJHzzVqSlaqDsRjE9YbQQ2-4Y?authuser=0&hl=en&rclk=1,"10.967117,76.9724116"
Rathinapuri Mosque,Mosque,"Rathinapuri Mosque, 4G2, 4th St, Viswanathapuram, Lakshmipuram, Ganapathypudur, Coimbatore,, Tamil Nadu 641006, 4th Street, Viswanathapuram, Lakshmipuram, Ganapathypudur, Lakshmipuram, Tatabad, Coimbatore, Tamil Nadu 641006","Lakshmipuram, Tatabad","4G2, 4th St, Viswanathapuram, Lakshmipuram, Ganapathypudur, Coimbatore,, Tamil Nadu 641006, 4th Street, Viswanathapuram, Lakshmipuram, Ganapathypudur",Coimbatore,641006,Tamil Nadu,IN,https://www.google.com/maps/place/Rathinapuri+Mosque/data=!4m7!3m6!1s0x3ba85859eb3fd553:0x9f6a3005d00be71a!8m2!3d11.0263616!4d76.9688987!16s%2Fg%2F11d_2j2kmg!19sChIJU9U_61lYqDsRGucL0AUwap8?authuser=0&hl=en&rclk=1,"11.0263616,76.9688987"
Ondipudur Masjid,Mosque,"X3X4+M6R Ondipudur Masjid, Kamban Nagar, Ondipudur, Coimbatore, Tamil Nadu 641016",Kamban Nagar,X3X4+M6R,"Ondipudur, Coimbatore",641016,Tamil Nadu,IN,https://www.google.com/maps/place/Ondipudur+Masjid/data=!4m7!3m6!1s0x3ba8571c3b1e07dd:0x98dfb2cf258b574a!8m2!3d11.0018263!4d77.0526651!16s%2Fg%2F1hm553848!19sChIJ3QceOxxXqDsRSleLJc-y35g?authuser=0&hl=en&rclk=1,"11.0018263,77.0526651"
Islam Masjid msjd,Mosque,"WWXH+7JG Islam Masjid msjd, Sivan Nagar, Kovaipudur, Tamil Nadu 641042",Sivan Nagar,WWXH+7JG,Kovaipudur,641042,Tamil Nadu,IN,https://www.google.com/maps/place/Islam+Masjid+%D9%85%D8%B3%D8%AC%D8%AF%E2%80%AD/data=!4m7!3m6!1s0x3ba85bf28593e12f:0xe7f30ee20f2276c0!8m2!3d10.9481888!4d76.9290778!16s%2Fg%2F12hn4mxn2!19sChIJL-GThfJbqDsRwHYiD-IO8-c?authuser=0&hl=en&rclk=1,"10.948188799999999,76.9290778"
Masjide Noor,Mosque,"XXWP+CX3 Masjide Noor, Karunanidhi Nagar, Ramanathapuram, Coimbatore, Tamil Nadu 641045",Karunanidhi Nagar,XXWP+CX3,"Ramanathapuram, Coimbatore",641045,Tamil Nadu,IN,https://www.google.com/maps/place/Masjide+Noor/data=!4m7!3m6!1s0x3ba859c081ed6a87:0xfc9b4b6ccdf12bee!8m2!3d10.9960139!4d76.9874286!16s%2Fg%2F11f3wl5ghk!19sChIJh2rtgcBZqDsR7ivxzWxLm_w?authuser=0&hl=en&rclk=1,"10.9960139,76.9874286"
Masjid Ahlehadees,Mosque,"Masjid Ahlehadees, Masjid-e-Ahle Hadees, Ismail St, Near Five Corner, Town Hall, Coimbatore, Tamil Nadu 641001","Near Five Corner, Town Hall","Masjid-e-Ahle Hadees, Ismail St",Coimbatore,641001,Tamil Nadu,IN,https://www.google.com/maps/place/Masjid+Ahlehadees/data=!4m7!3m6!1s0x3ba8590bb6b40001:0x7e23da317a44912c!8m2!3d10.9953413!4d76.9609979!16s%2Fg%2F11dxrxcl8l!19sChIJAQC0tgtZqDsRLJFEejHaI34?authuser=0&hl=en&rclk=1,"10.9953413,76.9609979"
Misbahul Islam Ahle Sunnathval Jamath Masjid & Madrasa,Mosque,"Misbahul Islam Ahle Sunnathval Jamath Masjid & Madrasa, 2/21, 3rd Street, Malar Avenue, 3rd St, Malar Avenue, Cheran ma Nagar, Coimbatore, Tamil Nadu 641035","Malar Avenue, Cheran ma Nagar","2/21, 3rd Street, Malar Avenue, 3rd St",Coimbatore,641035,Tamil Nadu,IN,https://www.google.com/maps/place/Misbahul+Islam+Ahle+Sunnathval+Jamath+Masjid+%26+Madrasa/data=!4m7!3m6!1s0x3ba857fc89ba21c3:0xc5e623fb9ae974b1!8m2!3d11.055838!4d77.0193078!16s%2Fg%2F11c37lgsjc!19sChIJwyG6ifxXqDsRsXTpmvsj5sU?authuser=0&hl=en&rclk=1,"11.055838,77.01930779999999"
Al Masjidul QUTBI,Mosque,"14, Al Masjidul QUTBI, 14, Krishnarayapuram, Illango Nagar, Coimbatore, Tamil Nadu 641006","Krishnarayapuram, Illango Nagar","14, 14",Coimbatore,641006,Tamil Nadu,IN,https://www.google.com/maps/place/Al+Masjidul+QUTBI/data=!4m7!3m6!1s0x3ba8583b9680ac1f:0xa459bd1b6a0c3b1!8m2!3d11.030351!4d76.994753!16s%2Fg%2F11b6n8_dcn!19sChIJH6yAljtYqDsRscOgttGbRQo?authuser=0&hl=en&rclk=1,"11.030351,76.994753"
Lawley Road Masjid,Mosque,"2W6R+RXM Lawley Road Masjid, Lawley Rd, Coimbatore, Tamil Nadu 641003",Lawley Rd,2W6R+RXM,Coimbatore,641003,Tamil Nadu,IN,https://www.google.com/maps/place/Lawley+Road+Masjid/data=!4m7!3m6!1s0x3ba8591fe8958f7f:0x2e9b7409821b81dd!8m2!3d11.0120811!4d76.9424325!16s%2Fg%2F12cpfx0n0!19sChIJf4-V6B9ZqDsR3YEbggl0my4?authuser=0&hl=en&rclk=1,"11.0120811,76.9424325"
Mosque msjd,Mosque,"Mosque msjd, #81, Nehru St, Peranaidu Layout, Ram Nagar, Coimbatore, Tamil Nadu 641009","Peranaidu Layout, Ram Nagar","#81, Nehru St",Coimbatore,641009,Tamil Nadu,IN,https://www.google.com/maps/place/Mosque+%D9%85%D8%B3%D8%AC%D8%AF%E2%80%AD/data=!4m7!3m6!1s0x3ba858ffb7659743:0xafe7f6bf2bb142c7!8m2!3d11.0151645!4d76.9628347!16s%2Fg%2F11c1qlm7zl!19sChIJQ5dlt_9YqDsRx0KxK7_2568?authuser=0&hl=en&rclk=1,"11.0151645,76.9628347"
Salafi Masjid Coimbatore,Mosque,"XXW6+G5W Salafi Masjid Coimbatore, Near Five Corner, Town Hall, Coimbatore, Tamil Nadu 641001","Near Five Corner, Town Hall",XXW6+G5W,Coimbatore,641001,Tamil Nadu,IN,https://www.google.com/maps/place/Salafi+Masjid+Coimbatore/data=!4m7!3m6!1s0x3ba8590bdb495899:0x8130f279070c93fe!8m2!3d10.9963634!4d76.9604463!16s%2Fg%2F11f0wlw19v!19sChIJmVhJ2wtZqDsR_pMMB3nyMIE?authuser=0&hl=en&rclk=1,"10.9963634,76.9604463"
Shaafiya Sunnath Jamath Pallivasal,Mosque,"XXM7+999 Shaafiya Sunnath Jamath Pallivasal, 1st St, Al-Ameen Colony, Rose Garden, South Ukkadam, Coimbatore, Tamil Nadu 641001","Al-Ameen Colony, Rose Garden, South Ukkadam","XXM7+999, 1st St",Coimbatore,641001,Tamil Nadu,IN,https://www.google.com/maps/place/Shaafiya+Sunnath+Jamath+Pallivasal/data=!4m7!3m6!1s0x3ba859763b0f674f:0x92a7aa6dc3fd0553!8m2!3d10.9834214!4d76.9634928!16s%2Fg%2F12hl8h4r1!19sChIJT2cPO3ZZqDsRUwX9w22qp5I?authuser=0&hl=en&rclk=1,"10.9834214,76.9634928"
Kerala Jamath Masjid,Mosque,"XXR6+HMW Kerala Jamath Masjid, back side naaz theatre, Old Market Rd, Ukkadam, Coimbatore, Tamil Nadu 641001",Ukkadam,"XXR6+HMW back side naaz theatre, Old Market Rd",Coimbatore,641001,Tamil Nadu,IN,https://www.google.com/maps/place/Kerala+Jamath+Masjid/data=!4m7!3m6!1s0x3ba859752ae045ed:0xad08e05a883fb235!8m2!3d10.9914759!4d76.9617176!16s%2Fg%2F1thp6fhg!19sChIJ7UXgKnVZqDsRNbI_iFrgCK0?authuser=0&hl=en&rclk=1,"10.9914759,76.9617176"
Masjidhuth Thaqwa - JAQH Masjid,Mosque,"XX82+V62 Masjidhuth Thaqwa - JAQH Masjid, Brindhavan Circle, Kuniyamuthur, Tamil Nadu 641008",Brindhavan Circle,XX82+V62,Kuniyamuthur,641008,Tamil Nadu,IN,https://www.google.com/maps/place/Masjidhuth+Thaqwa+-+JAQH+Masjid/data=!4m7!3m6!1s0x3ba85bd85b6f01f7:0x827984603d4b1656!8m2!3d10.967146!4d76.9505006!16s%2Fg%2F12qf4sz11!19sChIJ9wFvW9hbqDsRVhZLPWCEeYI?authuser=0&hl=en&rclk=1,"10.967146,76.9505006"
Masjid Hidhayathul Islam Shafiya Sunnath,Mosque,"Masjid Hidhayathul Islam Shafiya Sunnath, 397, 217, Periyar Nagar 3rd Cross St, Puliakulam, Coimbatore, Tamil Nadu 641045",Puliakulam,"397, 217, Periyar Nagar 3rd Cross St",Coimbatore,641045,Tamil Nadu,IN,https://www.google.com/maps/place/Masjid+Hidhayathul+Islam+Shafiya+Sunnath/data=!4m7!3m6!1s0x3ba859c5609ebb1f:0xad4232337988f1b1!8m2!3d11.0039199!4d76.9974081!16s%2Fg%2F11gbkxmc7w!19sChIJH7ueYMVZqDsRsfGIeTMyQq0?authuser=0&hl=en&rclk=1,"11.0039199,76.9974081"
Hanafi Sunnah Muslim Mosque - Masjid-e-Ibrahim,Mosque,"XX9G+G95 Hanafi Sunnah Muslim Mosque - Masjid-e-Ibrahim, Podanur Main Rd, Zam Zam Nagar, Kurichi Pirivu, Coimbatore, Tamil Nadu 641023",Zam Zam Nagar,"XX9G+G95, Podanur Main Rd","Kurichi Pirivu, Coimbatore",641023,Tamil Nadu,IN,https://www.google.com/maps/place/Hanafi+Sunnah+Muslim+Mosque+-+Masjid-e-Ibrahim/data=!4m7!3m6!1s0x3ba85a27e08127dd:0x572dafdd8d879f72!8m2!3d10.9687687!4d76.9759987!16s%2Fg%2F12lkwyg36!19sChIJ3SeB4CdaqDsRcp-Hjd2vLVc?authuser=0&hl=en&rclk=1,"10.9687687,76.97599869999999"
Tajul Islam Sunnath Jama-ath Mosque,Mosque,"Tajul Islam Sunnath Jama-ath Mosque, 97, Palakkad Main Rd, Kuniyamuthur, Tamil Nadu 641008",,"97, Palakkad Main Rd",Kuniyamuthur,641008,Tamil Nadu,IN,https://www.google.com/maps/place/Tajul+Islam+Sunnath+Jama-ath+Mosque/data=!4m7!3m6!1s0x3ba85bd71f15f9cb:0xfb8939677854d881!8m2!3d10.9650513!4d76.9554096!16s%2Fg%2F11c53dlm9h!19sChIJy_kVH9dbqDsRgdhUeGc5ifs?authuser=0&hl=en&rclk=1,"10.965051299999999,76.9554096"
masjid,Mosque,"XXF5+2GM masjid, Palakkad Main Rd, Azad Nagar, Aathupalam, Coimbatore, Tamil Nadu 641024","Azad Nagar, Aathupalam","XXF5+2GM, Palakkad Main Rd",Coimbatore,641024,Tamil Nadu,IN,https://www.google.com/maps/place/masjid/data=!4m7!3m6!1s0x3ba8597e83900be7:0xf42ac799a131382e!8m2!3d10.9725864!4d76.9587923!16s%2Fg%2F1hjg_yvwf!19sChIJ5wuQg35ZqDsRLjgxoZnHKvQ?authuser=0&hl=en&rclk=1,"10.972586399999999,76.9587923"
Izzathul Islam Shafia Sunnath Jamath & Matharasa,Mosque,"2XH5+GRM Izzathul Islam Shafia Sunnath Jamath & Matharasa, Pallivasal St, Tatabad, Rathinapuri, Tatabad, Coimbatore, Tamil Nadu 641027","Tatabad, Rathinapuri, Tatabad","2XH5+GRM, Pallivasal St",Coimbatore,641027,Tamil Nadu,IN,https://www.google.com/maps/place/Izzathul+Islam+Shafia+Sunnath+Jamath+%26+Matharasa/data=!4m7!3m6!1s0x3ba858f6b896c209:0xe78330292b34ab51!8m2!3d11.0288372!4d76.9595544!16s%2Fg%2F11b7f_9yyj!19sChIJCcKWuPZYqDsRUas0Kykwg-c?authuser=0&hl=en&rclk=1,"11.0288372,76.9595544"
Chinna Palli masjid msjd,Mosque,"XXQ7+Q77 Chinna Palli masjid msjd, Eswaran koil street, fort, Ukkadam, Coimbatore, Tamil Nadu 641001",Ukkadam,"XXQ7+Q77, Eswaran koil street, fort",Coimbatore,641001,Tamil Nadu,IN,https://www.google.com/maps/place/Chinna+Palli+masjid+%D9%85%D8%B3%D8%AC%D8%AF%E2%80%AD/data=!4m7!3m6!1s0x3ba85975722aa651:0xe1a225d7d127b326!8m2!3d10.9894204!4d76.9631817!16s%2Fg%2F12hlnq_zp!19sChIJUaYqcnVZqDsRJrMn0dclouE?authuser=0&hl=en&rclk=1,"10.9894204,76.96318169999999"
Minhajul Islam Masjid,Mosque,"Minhajul Islam Masjid, 8, Anaikatti Rd, Kalappa Naicken Palayam, Coimbatore, Tamil Nadu 641108",Kalappa Naicken Palayam,"8, Anaikatti Rd",Coimbatore,641108,Tamil Nadu,IN,https://www.google.com/maps/place/Minhajul+Islam+Masjid/data=!4m7!3m6!1s0x3ba8f5f02f42a991:0x975bc6279fc04235!8m2!3d11.0661155!4d76.9044749!16s%2Fg%2F11cnc7_0fn!19sChIJkalCL_D1qDsRNULAnyfGW5c?authuser=0&hl=en&rclk=1,"11.066115499999999,76.9044749"
Gandhipuram Masjid msjd,Mosque,"Gandhipuram Masjid msjd, 134, 4th St, Gandhipuram, Coimbatore, Tamil Nadu 641012",,"134, 4th St","Gandhipuram, Coimbatore",641012,Tamil Nadu,IN,https://www.google.com/maps/place/Gandhipuram+Masjid+%D9%85%D8%B3%D8%AC%D8%AF%E2%80%AD/data=!4m7!3m6!1s0x3ba858542f02e095:0xe1da7607b559a98a!8m2!3d11.0199409!4d76.9675436!16s%2Fg%2F11bt_gtn5x!19sChIJleACL1RYqDsRiqlZtQd22uE?authuser=0&hl=en&rclk=1,"11.0199409,76.9675436"
Quba Hanafi Sunnath Jamath Masjid,Mosque,"XW8X+H52 Quba Hanafi Sunnath Jamath Masjid, Brindhavan Circle, Kuniyamuthur, Tamil Nadu 641008",Brindhavan Circle,XW8X+H52,Kuniyamuthur,641008,Tamil Nadu,IN,https://www.google.com/maps/place/Quba+Hanafi+Sunnath+Jamath+Masjid/data=!4m7!3m6!1s0x3ba85bd8da29e59d:0xf143b77c68b80d42!8m2!3d10.9663981!4d76.9478962!16s%2Fg%2F1ptwzl9fs!19sChIJneUp2thbqDsRQg24aHy3Q_E?authuser=0&hl=en&rclk=1,"10.9663981,76.9478962"
Salafi Masjid,Mosque,"XX9H+25V Salafi Masjid, Dr Rajendra Prasad Rd, Sundarapuram, Amman Nagar, Podanur, Coimbatore, Tamil Nadu 641024","Sundarapuram, Amman Nagar","XX9H+25V, Dr Rajendra Prasad Rd","Podanur, Coimbatore",641024,Tamil Nadu,IN,https://www.google.com/maps/place/Salafi+Masjid/data=!4m7!3m6!1s0x3ba85a27b26d155f:0xbef6b26af61fac9!8m2!3d10.9676028!4d76.9779366!16s%2Fg%2F11f122r8h_!19sChIJXxVtsidaqDsRyfphryZr7ws?authuser=0&hl=en&rclk=1,"10.9676028,76.97793659999999"
Masjid Near Dr Nanjapan Road,Mosque,"Masjid Near Dr Nanjapan Road, 803-A, Avinashi Rd, Opp. Dhandumariamman Koil, Near Dhandumariamman Kovil, ATT Colony, Uppilipalayam, Coimbatore, Tamil Nadu 641018","Near Dhandumariamman Kovil, ATT Colony, Uppilipalayam","803-A, Avinashi Rd, Opp. Dhandumariamman Koil",Coimbatore,641018,Tamil Nadu,IN,https://www.google.com/maps/place/Masjid+Near+Dr+Nanjapan+Road/data=!4m7!3m6!1s0x3ba859a62baa8ea7:0xd6039dc8321c48b4!8m2!3d11.0027219!4d76.9674076!16s%2Fg%2F11dylt602c!19sChIJp46qK6ZZqDsRtEgcMsidA9Y?authuser=0&hl=en&rclk=1,"11.0027219,76.9674076"
Masjid -a-noor koundampalayam,Mosque,"2WVW+3Q4 Masjid -a-noor koundampalayam, Koundampalayam, Coimbatore, Tamil Nadu 641030",Koundampalayam,2WVW+3Q4,Coimbatore,641030,Tamil Nadu,IN,https://www.google.com/maps/place/Masjid+-a-noor+koundampalayam/data=!4m7!3m6!1s0x3ba8589818fa35d9:0xdb5439a0b185da25!8m2!3d11.0426344!4d76.9469531!16s%2Fg%2F11f03p9gpj!19sChIJ2TX6GJhYqDsRJdqFsaA5VNs?authuser=0&hl=en&rclk=1,"11.042634399999999,76.9469531"
Masjidul Janna Hanafi Sunnath Jamath,Mosque,"XXC9+G59 Masjidul Janna Hanafi Sunnath Jamath, Podanur Main Rd, Kurichi, Coimbatore, Tamil Nadu 641023",,"XXC9+G59, Podanur Main Rd","Kurichi, Coimbatore",641023,Tamil Nadu,IN,https://www.google.com/maps/place/Masjidul+Janna+Hanafi+Sunnath+Jamath/data=!4m7!3m6!1s0x3ba85980edbd5299:0x383e39a44491cc74!8m2!3d10.9712854!4d76.9679993!16s%2Fg%2F12ll8lg5x!19sChIJmVK97YBZqDsRdMyRRKQ5Pjg?authuser=0&hl=en&rclk=1,"10.9712854,76.9679993"
Juma Masjid / Masjid Mehfooz,Mosque,"Juma Masjid / Masjid Mehfooz, 1, Police Quarters Rd, Peelamedu, Gandhimaa Nagar, Coimbatore, Tamil Nadu 641004","Peelamedu, Gandhimaa Nagar","1, Police Quarters Rd",Coimbatore,641004,Tamil Nadu,IN,https://www.google.com/maps/place/Juma+Masjid+%2F+Masjid+Mehfooz/data=!4m7!3m6!1s0x3ba85810656e4135:0x8021ec341319f6dc!8m2!3d11.0470179!4d76.9979948!16s%2Fg%2F11c0plr9h_!19sChIJNUFuZRBYqDsR3PYZEzTsIYA?authuser=0&hl=en&rclk=1,"11.0470179,76.9979948"
Home,Home help,"2XG9+GHM Home, Lakshmipuram, Tatabad, Coimbatore, Tamil Nadu 641006","Lakshmipuram, Tatabad",2XG9+GHM,Coimbatore,641006,Tamil Nadu,IN,https://www.google.com/maps/place/Home/data=!4m7!3m6!1s0x3ba85859eb3e1f5f:0x7ad344491680fd5e!8m2!3d11.0263327!4d76.9689305!16s%2Fg%2F11dfsk246z!19sChIJXx8-61lYqDsRXv2AFklE03o?authuser=0&hl=en&rclk=1,"11.0263327,76.9689305"
Sunny Muslims Masjid,Mosque,"3X8X+856 Sunny Muslims Masjid, Moreind Road, Saravanampatti, Coimbatore, Tamil Nadu 641035",Saravanampatti,"3X8X+856, Moreind Road",Coimbatore,641035,Tamil Nadu,IN,https://www.google.com/maps/place/Sunny+Muslims+Masjid/data=!4m7!3m6!1s0x3ba8f7e4bb35f2df:0x31616e6cfd6d919c!8m2!3d11.0657963!4d76.9978791!16s%2Fg%2F1tg8h52h!19sChIJ3_I1u-T3qDsRnJFt_WxuYTE?authuser=0&hl=en&rclk=1,"11.065796299999999,76.99787909999999"
Masjid Ajeeziya,Mosque,"XX7J+V35 Masjid Ajeeziya, Umar Nagar, Sundarapuram, Coimbatore, Kurichi, Tamil Nadu 641024",Sundarapuram,"XX7J+V35, Umar Nagar","Coimbatore, Kurichi",641024,Tamil Nadu,IN,https://www.google.com/maps/place/Masjid+Ajeeziya/data=!4m7!3m6!1s0x3ba85a241f941007:0xde7ed17da7298b1!8m2!3d10.9646375!4d76.9802302!16s%2Fg%2F12lk63j15!19sChIJBxCUHyRaqDsRsZhy2hft5w0?authuser=0&hl=en&rclk=1,"10.9646375,76.9802302"
GM Mosque msjd,Mosque,"XXQC+53V GM Mosque msjd, GM Nagar, Pulian Thoppu, Coimbatore, Tamil Nadu 641001","GM Nagar, Pulian Thoppu",XXQC+53V,Coimbatore,641001,Tamil Nadu,IN,https://www.google.com/maps/place/GM+Mosque+%D9%85%D8%B3%D8%AC%D8%AF%E2%80%AD/data=!4m7!3m6!1s0x3ba8599934fae25d:0x8f2ac4b120d1d21!8m2!3d10.9879777!4d76.9701828!16s%2Fg%2F11gd6tzsgc!19sChIJXeL6NJlZqDsRIR0NEkus8gg?authuser=0&hl=en&rclk=1,"10.9879777,76.9701828"
Al-Madeena Kaundampalayam Sunnath Jamath Masjid,Mosque,"2WXQ+5VW Al-Madeena Kaundampalayam Sunnath Jamath Masjid, Unnamed Road, Ashok Nagar West, Siva Nagar, Koundampalayam, Coimbatore, Tamil Nadu 641030","Ashok Nagar West, Siva Nagar, Koundampalayam","2WXQ+5VW, Unnamed Road",Coimbatore,641030,Tamil Nadu,IN,https://www.google.com/maps/place/Al-Madeena+Kaundampalayam+Sunnath+Jamath+Masjid/data=!4m7!3m6!1s0x3ba858a2ed67ec55:0x325b209fe65fd55f!8m2!3d11.0479912!4d76.9397187!16s%2Fg%2F11h9wjhx6k!19sChIJVexn7aJYqDsRX9Vf5p8gWzI?authuser=0&hl=en&rclk=1,"11.0479912,76.9397187"
Masjid-e-Madeenah Hanafi Sunnath Jamaath,Mosque,"XX7P+RQ8 Masjid-e-Madeenah Hanafi Sunnath Jamaath, Podanur Main Rd, Sundarapuram, Coimbatore, Kurichi, Tamil Nadu 641024",Sundarapuram,"XX7P+RQ8, Podanur Main Rd","Coimbatore, Kurichi",641024,Tamil Nadu,IN,https://www.google.com/maps/place/Masjid-e-Madeenah+Hanafi+Sunnath+Jamaath/data=!4m7!3m6!1s0x3ba85a220421fcaf:0x1684313069b8735b!8m2!3d10.9645391!4d76.9869679!16s%2Fg%2F12ll870c5!19sChIJr_whBCJaqDsRW3O4aTAxhBY?authuser=0&hl=en&rclk=1,"10.9645391,76.9869679"
Masjidur raheem Mosque,Mosque,"Masjidur raheem Mosque, 80, Ramamurthy Rd, TNHB, Selvapuram North, Coimbatore, Tamil Nadu 641026","TNHB, Selvapuram North","80, Ramamurthy Rd",Coimbatore,641026,Tamil Nadu,IN,https://www.google.com/maps/place/Masjidur+raheem+Mosque/data=!4m7!3m6!1s0x3ba8593e2ca54fd3:0x74eb6d9075d854db!8m2!3d10.9934827!4d76.9408545!16s%2Fg%2F11cspv45yc!19sChIJ00-lLD5ZqDsR21TYdZBt63Q?authuser=0&hl=en&rclk=1,"10.9934827,76.9408545"
Muhammediyya masjid nehru nagar,Mosque,"322P+2MX Muhammediyya masjid nehru nagar, Unnamed Road, GKD Nagar, Nehru Nagar West, Coimbatore, Tamil Nadu 641004","GKD Nagar, Nehru Nagar West","322P+2MX, Unnamed Road",Coimbatore,641004,Tamil Nadu,IN,https://www.google.com/maps/place/Muhammediyya+masjid+nehru+nagar/data=!4m7!3m6!1s0x3ba85769ddaa9e55:0x770f0945b9cb3361!8m2!3d11.0501007!4d77.0367367!16s%2Fg%2F11fklk27sr!19sChIJVZ6q3WlXqDsRYTPLuUUJD3c?authuser=0&hl=en&rclk=1,"11.0501007,77.03673669999999"
Masjid maalikul mulk (JAQH),Mosque,"XXJC+QJP Masjid maalikul mulk (JAQH), 6th St, Anbu Nagar, South Ukkadam, Coimbatore, Tamil Nadu 641001","Anbu Nagar, South Ukkadam","XXJC+QJP, 6th St",Coimbatore,641001,Tamil Nadu,IN,https://www.google.com/maps/place/Masjid+maalikul+mulk+%28JAQH%29/data=!4m7!3m6!1s0x3ba859e47809506f:0xf753b1db0597d697!8m2!3d10.9819627!4d76.9715828!16s%2Fg%2F11fkd56qxg!19sChIJb1AJeORZqDsRl9aXBduxU_c?authuser=0&hl=en&rclk=1,"10.981962699999999,76.9715828"
Masjidur Rahman msjd,Mosque,"XXM7+VJ4 Masjidur Rahman msjd, Alameen colony, Ukkadam, Coimbatore, Tamil Nadu 641001","Al-Ameen Colony, Bilal Nagar, Ukkadam","XXM7+VJ4, Alameen colony",Coimbatore,641001,Tamil Nadu,IN,https://www.google.com/maps/place/Masjidur+Rahman+%D9%85%D8%B3%D8%AC%D8%AF%E2%80%AD/data=!4m7!3m6!1s0x3ba8597621b7c775:0xe2854fd8877c38cd!8m2!3d10.9846406!4d76.9640887!16s%2Fg%2F1hc3tz5n3!19sChIJdce3IXZZqDsRzTh8h9hPheI?authuser=0&hl=en&rclk=1,"10.984640599999999,76.96408869999999"
Sunnath Jama-ath Masjid,Mosque,"XXP8+C3Q Sunnath Jama-ath Masjid, Lorry Pettai Rd, Bilal Nagar, Pulian Thoppu, Coimbatore, Tamil Nadu 641008","Bilal Nagar, Pulian Thoppu","XXP8+C3Q, Lorry Pettai Rd",Coimbatore,641008,Tamil Nadu,IN,https://www.google.com/maps/place/Sunnath+Jama-ath+Masjid/data=!4m7!3m6!1s0x3ba8599dfdc11897:0x2ab5fd9ff449e40f!8m2!3d10.9860763!4d76.965234!16s%2Fg%2F12ll65f2j!19sChIJlxjB_Z1ZqDsRD-RJ9J_9tSo?authuser=0&hl=en&rclk=1,"10.986076299999999,76.965234"
Kuvathul Islam Hanafi Sunnath Jama-ath,Mosque,"Kuvathul Islam Hanafi Sunnath Jama-ath, RamaMoorthy Nagar,, Ramamurthy Rd, Selvapuram North, Coimbatore, Tamil Nadu 641026",Selvapuram North,"RamaMoorthy Nagar,, Ramamurthy Rd",Coimbatore,641026,Tamil Nadu,IN,https://www.google.com/maps/place/Kuvathul+Islam+Hanafi+Sunnath+Jama-ath/data=!4m7!3m6!1s0x3ba8594075c9b2af:0x6aec159d720fd81b!8m2!3d10.9905304!4d76.9395287!16s%2Fg%2F12lkjzjrk!19sChIJr7LJdUBZqDsRG9gPcp0V7Go?authuser=0&hl=en&rclk=1,"10.990530399999999,76.9395287"
Masjid msjd,Mosque,"Masjid msjd, 2, Paal Mariamman Koil Street Rathinapuri, Sanganoor, Paal Mariamman Koil St, Rathinapuri, Sanganoor, Coimbatore, Tamil Nadu 641027","Rathinapuri, Sanganoor","2, Paal Mariamman Koil Street Rathinapuri, Sanganoor, Paal Mariamman Koil St",Coimbatore,641027,Tamil Nadu,IN,https://www.google.com/maps/place/Masjid+%D9%85%D8%B3%D8%AC%D8%AF%E2%80%AD/data=!4m7!3m6!1s0x3ba858f370eebc93:0x5841ac7f3b89a406!8m2!3d11.0333427!4d76.957709!16s%2Fg%2F11ddxl_v5q!19sChIJk7zucPNYqDsRBqSJO3-sQVg?authuser=0&hl=en&rclk=1,"11.033342699999999,76.957709"
Mosque,Mosque,"XWMQ+QX3 Mosque, Selvapuram Muthuswamy Colony, Selvapuram South, Coimbatore, Tamil Nadu 641008","Selvapuram Muthuswamy Colony, Selvapuram South",XWMQ+QX3,Coimbatore,641008,Tamil Nadu,IN,https://www.google.com/maps/place/Mosque/data=!4m7!3m6!1s0x3ba85942186eb651:0xc34a155ca020b757!8m2!3d10.9843958!4d76.9399086!16s%2Fg%2F11dzd8h1lq!19sChIJUbZuGEJZqDsRV7cgoFwVSsM?authuser=0&hl=en&rclk=1,"10.9843958,76.9399086"
Mosque msjd,Mosque,"Mosque msjd, KLR Complex, 569, Cross Cut Rd, Varuthiangara Palayam, Seth Narang Das Layout, Ranganathapuram, Gandhipuram, Coimbatore, Tamil Nadu 641012","Varuthiangara Palayam, Seth Narang Das Layout, Ranganathapuram","KLR Complex, 569, Cross Cut Rd","Gandhipuram, Coimbatore",641012,Tamil Nadu,IN,https://www.google.com/maps/place/Mosque+%D9%85%D8%B3%D8%AC%D8%AF%E2%80%AD/data=!4m7!3m6!1s0x3ba858fc454bb2d3:0xe4aa7c11006fc001!8m2!3d11.0166323!4d76.9566745!16s%2Fg%2F11fxcftn0w!19sChIJ07JLRfxYqDsRAcBvABF8quQ?authuser=0&hl=en&rclk=1,"11.0166323,76.95667449999999"
Mosque,Mosque,"Mosque, 215, Puliakulam Rd, Ramasamy Nagar, Puliakulam, Coimbatore, Tamil Nadu 641045","Ramasamy Nagar, Puliakulam","215, Puliakulam Rd",Coimbatore,641045,Tamil Nadu,IN,https://www.google.com/maps/place/Mosque/data=!4m7!3m6!1s0x3ba859c56115986b:0x1b0b907b43fa51cc!8m2!3d11.0039802!4d76.9971937!16s%2Fg%2F11g8xkg1y3!19sChIJa5gVYcVZqDsRzFH6Q3uQCxs?authuser=0&hl=en&rclk=1,"11.003980199999999,76.9971937"
Masjid,Mosque,"XX9R+43M Masjid, Nanjundapuram Rd, Amman Nagar, Podanur, Tamil Nadu 641024",Amman Nagar,"XX9R+43M, Nanjundapuram Rd",Podanur,641024,Tamil Nadu,IN,https://www.google.com/maps/place/Masjid/data=!4m7!3m6!1s0x3ba85a1f006d8951:0x7167a3c9d7e57357!8m2!3d10.967833!4d76.9901591!16s%2Fg%2F1hjgtrfkd!19sChIJUYltAB9aqDsRV3Pl18mjZ3E?authuser=0&hl=en&rclk=1,"10.967832999999999,76.9901591"
Masjiduth Thaqwa,Mosque,"Masjiduth Thaqwa, 170, palanisamy thottam, Govindaswamy Road, Selvapuram Muthuswamy Colony, Selvapuram South, Coimbatore, Tamil Nadu 641026","Selvapuram Muthuswamy Colony, Selvapuram South","170, palanisamy thottam, Govindaswamy Road",Coimbatore,641026,Tamil Nadu,IN,https://www.google.com/maps/place/Masjiduth+Thaqwa/data=!4m7!3m6!1s0x3ba85941e4e5e3a5:0x9196e740c6fb9897!8m2!3d10.9859048!4d76.9407612!16s%2Fg%2F11h9zfvyf1!19sChIJpePl5EFZqDsRl5j7xkDnlpE?authuser=0&hl=en&rclk=1,"10.9859048,76.9407612"
Badrul Islam Sunnath Jama-ath Masjid,Mosque,"XXG5+52C Badrul Islam Sunnath Jama-ath Masjid, Palakkad Main Rd, Azad Nagar, Aathupalam, Kuniyamuthur, Coimbatore, Tamil Nadu 641008","Azad Nagar, Aathupalam","XXG5+52C, Palakkad Main Rd","Kuniyamuthur, Coimbatore",641008,Tamil Nadu,IN,https://www.google.com/maps/place/Badrul+Islam+Sunnath+Jama-ath+Masjid/data=!4m7!3m6!1s0x3ba8597bf1e3acb3:0x96a3e3e0d6f70577!8m2!3d10.9754458!4d76.9575226!16s%2Fg%2F12lll_rlj!19sChIJs6zj8XtZqDsRdwX31uDjo5Y?authuser=0&hl=en&rclk=1,"10.9754458,76.95752259999999"
Mosque Thaha Shafiya,Mosque,"Mosque Thaha Shafiya, 13th street Fathima ummer avenue, Sri Sathya Sai Nagar, Podanur, Tamil Nadu 641023","Amman Nagar, Sri Sathya Sai Nagar",13th street Fathima ummer avenue,Podanur,641023,Tamil Nadu,IN,https://www.google.com/maps/place/Mosque+Thaha+Shafiya/data=!4m7!3m6!1s0x3ba8598aa917d3fd:0x476dbafbd708b769!8m2!3d10.9708188!4d76.9867681!16s%2Fg%2F11fxxlx9n5!19sChIJ_dMXqYpZqDsRabcI1_u6bUc?authuser=0&hl=en&rclk=1,"10.9708188,76.98676809999999"
Jamathul Muthakeem Shafiayya Sunnathval Jamath Masjid,Mosque,"XXH8+Q49 Jamathul Muthakeem Shafiayya Sunnathval Jamath Masjid, Fathima Nagar, Karumbukkadai, Coimbatore, Tamil Nadu 641008",Fathima Nagar,XXH8+Q49,"Karumbukkadai, Coimbatore",641008,Tamil Nadu,IN,https://www.google.com/maps/place/Jamathul+Muthakeem+Shafiayya+Sunnathval+Jamath+Masjid/data=!4m7!3m6!1s0x3ba859d25e2d8c8d:0xa8db0fe68d4dfa83!8m2!3d10.9794054!4d76.9653487!16s%2Fg%2F11f7b4x4n3!19sChIJjYwtXtJZqDsRg_pNjeYP26g?authuser=0&hl=en&rclk=1,"10.9794054,76.96534869999999"
Masjid E Mahfuz - Sunni Muslims Masjid,Mosque,"2XWX+G45 Masjid E Mahfuz - Sunni Muslims Masjid, Ganapathi Police Quarters, KK Nagar, Coimbatore, Tamil Nadu 641004","Ganapathi Police Quarters, KK Nagar",2XWX+G45,Coimbatore,641004,Tamil Nadu,IN,https://www.google.com/maps/place/Masjid+E+Mahfuz+-+Sunni+Muslims+Masjid/data=!4m7!3m6!1s0x3ba85810653f3117:0x13c8a41ef8dfd8da!8m2!3d11.0462574!4d76.9978656!16s%2Fg%2F1thvr3p9!19sChIJFzE_ZRBYqDsR2tjf-B6kyBM?authuser=0&hl=en&rclk=1,"11.0462574,76.9978656"
Masjid,Mosque,"Masjid, Ra, Variety Hall Rd, Sukrawar Pettai, Town Hall, Coimbatore, Tamil Nadu 641001","Sukrawar Pettai, Town Hall","Ra, Variety Hall Rd",Coimbatore,641001,Tamil Nadu,IN,https://www.google.com/maps/place/Masjid/data=!4m7!3m6!1s0x3ba859099da39f87:0x2815969d0e4bc7aa!8m2!3d10.9979689!4d76.9615325!16s%2Fg%2F1tcztcsd!19sChIJh5-jnQlZqDsRqsdLDp2WFSg?authuser=0&hl=en&rclk=1,"10.9979689,76.96153249999999"
Shafiya Hayathul Islam Sunnath Jamath Masjid,Mosque,"Shafiya Hayathul Islam Sunnath Jamath Masjid, N.P Ittery, 2nd Street, Kurichipirivu, NH 209, Kurichi, Tamil Nadu 641008",,"N.P Ittery, 2nd Street, Kurichipirivu, NH 209","Kurichi, Coimbatore",641008,Tamil Nadu,IN,https://www.google.com/maps/place/Shafiya+Hayathul+Islam+Sunnath+Jamath+Masjid/data=!4m7!3m6!1s0x3ba85980fce1c369:0xb4c7f9ad40d8a58a!8m2!3d10.9722675!4d76.9678009!16s%2Fg%2F1tgx0g6g!19sChIJacPh_IBZqDsRiqXYQK35x7Q?authuser=0&hl=en&rclk=1,"10.9722675,76.9678009"
Masjid Tawba msjit tvpaa,Mosque,"XWMR+JGQ Masjid Tawba msjit tvpaa, Selvapuram Muthuswamy Colony, Selvapuram South, Coimbatore, Tamil Nadu 641008","Selvapuram Muthuswamy Colony, Selvapuram South",XWMR+JGQ,Coimbatore,641008,Tamil Nadu,IN,https://www.google.com/maps/place/Masjid+Tawba+%E0%AE%AE%E0%AE%B8%E0%AF%8D%E0%AE%9C%E0%AE%BF%E0%AE%A4%E0%AF%8D+%E0%AE%A4%E0%AE%B5%E0%AF%8D%E0%AE%AA%E0%AE%BE/data=!4m7!3m6!1s0x3ba85969e18d8919:0xdd8677e320bd5ad!8m2!3d10.984076!4d76.9413593!16s%2Fg%2F1q5hrmycb!19sChIJGYmN4WlZqDsRrdULMn5n2A0?authuser=0&hl=en&rclk=1,"10.984076,76.9413593"
Ahle Sunnath Jamath Takni Masjid,Mosque,"WXX3+XGH Ahle Sunnath Jamath Takni Masjid, Palakkad Main Rd, Kumuram Garden, Kurichi, Kuniyamuthur, Tamil Nadu 641008",Kumuram Garden,"WXX3+XGH, Palakkad Main Rd","Kurichi, Kuniyamuthur",641008,Tamil Nadu,IN,https://www.google.com/maps/place/Ahle+Sunnath+Jamath+Takni+Masjid/data=!4m7!3m6!1s0x3ba85bc889b1c7af:0xa9f98f38076698c!8m2!3d10.9499365!4d76.9538712!16s%2Fg%2F11clyfm42s!19sChIJr8exichbqDsRjGl2gPOYnwo?authuser=0&hl=en&rclk=1,"10.9499365,76.9538712"
Jummah Masjid Sundarapuram,Mosque,"Jummah Masjid Sundarapuram, Salafi Masjid, Podanur Main Rd, Zam Zam Nagar, Coimbatore, Kurichi, Tamil Nadu 641024",Zam Zam Nagar,"Salafi Masjid, Podanur Main Rd","Coimbatore, Kurichi",641024,Tamil Nadu,IN,https://www.google.com/maps/place/Jummah+Masjid+Sundarapuram/data=!4m7!3m6!1s0x3ba85a27b21aaaab:0xa84bcef073347df3!8m2!3d10.9676258!4d76.9779341!16s%2Fg%2F11d_w_lmf9!19sChIJq6oasidaqDsR8300c_DOS6g?authuser=0&hl=en&rclk=1,"10.967625799999999,76.9779341"
Mosque,Mosque,"2X56+7C9 Mosque, Unnamed Road, Kaleeswara Nagar, Ram Nagar, Coimbatore, Tamil Nadu 641009","Kaleeswara Nagar, Ram Nagar","2X56+7C9, Unnamed Road",Coimbatore,641009,Tamil Nadu,IN,https://www.google.com/maps/place/Mosque/data=!4m7!3m6!1s0x3ba8593f6af261f1:0x5c09086ceb6bf1a2!8m2!3d11.0081586!4d76.9611142!16s%2Fg%2F11fn2hcxdn!19sChIJ8WHyaj9ZqDsRovFr62wICVw?authuser=0&hl=en&rclk=1,"11.0081586,76.9611142"
MASJID-UL-QHAIF,Mosque,"XW5W+FV9 MASJID-UL-QHAIF, Kuniyamuthur, Tamil Nadu 641008",,XW5W+FV9,Kuniyamuthur,641008,Tamil Nadu,IN,https://www.google.com/maps/place/MASJID-UL-QHAIF/data=!4m7!3m6!1s0x3ba85bdb591f3483:0x62d1bdfc52a48ab9!8m2!3d10.9586672!4d76.947224!16s%2Fg%2F11c48nql3n!19sChIJgzQfWdtbqDsRuYqkUvy90WI?authuser=0&hl=en&rclk=1,"10.958667199999999,76.94722399999999"
Nagamohalla Masjid,Mosque,"2X26+357 Nagamohalla Masjid, Maniathottam Street Number 2, Town Hall, Coimbatore, Tamil Nadu 641001",Town Hall,"2X26+357, Maniathottam Street Number 2",Coimbatore,641001,Tamil Nadu,IN,https://www.google.com/maps/place/Nagamohalla+Masjid/data=!4m7!3m6!1s0x3ba85936f9938681:0x9ea29915c0a728ce!8m2!3d11.0001581!4d76.9604217!16s%2Fg%2F11g0nyb__k!19sChIJgYaT-TZZqDsRziinwBWZop4?authuser=0&hl=en&rclk=1,"11.0001581,76.9604217"
Dharusalam Sunath Jamath Masjid & Madrasa,Mosque,"XXX5+JVV Dharusalam Sunath Jamath Masjid & Madrasa, N H Road, Jamedar Street Variety Hall Rd, Town Hall, Coimbatore, Tamil Nadu 641001",Town Hall,"XXX5+JVV, N H Road, Jamedar Street Variety Hall Rd",Coimbatore,641001,Tamil Nadu,IN,https://www.google.com/maps/place/Dharusalam+Sunath+Jamath+Masjid+%26+Madrasa/data=!4m7!3m6!1s0x3ba8590923496ded:0xc4b21256473e12a4!8m2!3d10.999123!4d76.9596747!16s%2Fg%2F1q6b1fw37!19sChIJ7W1JIwlZqDsRpBI-R1YSssQ?authuser=0&hl=en&rclk=1,"10.999122999999999,76.9596747"
Masjid ul ihsaan,Mosque,"Masjid ul ihsaan, Masjidul Ihsan, Karumbukkadai, Coimbatore, Tamil Nadu 641008",,Masjidul Ihsan,"Karumbukkadai, Coimbatore",641008,Tamil Nadu,IN,https://www.google.com/maps/place/Masjid+ul+ihsaan/data=!4m7!3m6!1s0x3ba859867aee80fb:0x67a6c2166d2dcef6!8m2!3d10.9763667!4d76.9641108!16s%2Fg%2F11qn38m2cr!19sChIJ-4DueoZZqDsR9s4tbRbCpmc?authuser=0&hl=en&rclk=1,"10.9763667,76.9641108"
Al Masjidul Madinah Ahalus Sunnath Val Jamath,Mosque,"Al Masjidul Madinah Ahalus Sunnath Val Jamath, Gopalapuram, 40, Podanur Main Rd, opposite Jaya Bakery, Podanur, Tamil Nadu 641023","Opp.Railway Station, Gopalapuram","Gopalapuram, 40, Podanur Main Rd, opposite Jaya Bakery","Podanur, Coimbatore",641023,Tamil Nadu,IN,https://www.google.com/maps/place/Al+Masjidul+Madinah+Ahalus+Sunnath+Val+Jamath/data=!4m7!3m6!1s0x3ba859a124c839fd:0x468b38ebeb2ebfa0!8m2!3d10.9967354!4d76.9676729!16s%2Fg%2F1wfvl2v0!19sChIJ_TnIJKFZqDsRoL8u6-s4i0Y?authuser=0&hl=en&rclk=1,"10.9967354,76.9676729"
Madrasye Thanvirul Islam,Mosque,"2X25+2X5 Madrasye Thanvirul Islam, Nawab Hakim Rd, Town Hall, Coimbatore, Tamil Nadu 641001",Town Hall,"2X25+2X5, Nawab Hakim Rd",Coimbatore,641001,Tamil Nadu,IN,https://www.google.com/maps/place/Madrasye+Thanvirul+Islam/data=!4m7!3m6!1s0x3ba85908de27cf47:0xbe598c528280ff51!8m2!3d11.0000212!4d76.9599718!16s%2Fg%2F11b5wlcfrt!19sChIJR88n3ghZqDsRUf-AglKMWb4?authuser=0&hl=en&rclk=1,"11.000021199999999,76.95997179999999"
Ahle Sunnath Jamath Dhakkini Masjid,Mosque,"XX36+C5H Ahle Sunnath Jamath Dhakkini Masjid, Edayarpalayam, Kurichi, Kuniyamuthur, Tamil Nadu 641008",Edayarpalayam,XX36+C5H,"Kurichi, Kuniyamuthur",641008,Tamil Nadu,IN,https://www.google.com/maps/place/Ahle+Sunnath+Jamath+Dhakkini+Masjid/data=!4m7!3m6!1s0x3ba85bae3ebd339d:0xfaa5220948c15178!8m2!3d10.9535536!4d76.9604925!16s%2Fg%2F11t_zjybql!19sChIJnTO9Pq5bqDsReFHBSAkipfo?authuser=0&hl=en&rclk=1,"10.9535536,76.9604925"
Masjidul Haq (JAQH),Mosque,"XX74+RVW Masjidul Haq (JAQH), Kuniyamuthur, Tamil Nadu 641008",,XX74+RVW,Kuniyamuthur,641008,Tamil Nadu,IN,https://www.google.com/maps/place/Masjidul+Haq+%28JAQH%29/data=!4m7!3m6!1s0x3ba85bd6b892d33b:0xb06a8bd4c999b8b2!8m2!3d10.9646028!4d76.9571944!16s%2Fg%2F11gfgdp27z!19sChIJO9OSuNZbqDsRsriZydSLarA?authuser=0&hl=en&rclk=1,"10.9646028,76.95719439999999"
BADHRIYYA ADH-DAA-WATHIL ISLAMIYYA MASJID,Mosque,"XXCH+Q4 BADHRIYYA ADH-DAA-WATHIL ISLAMIYYA MASJID, Coimbatore, Tamil Nadu 641008",,XXCH+Q4,Coimbatore,641008,Tamil Nadu,IN,https://www.google.com/maps/place/BADHRIYYA+ADH-DAA-WATHIL+ISLAMIYYA+MASJID/data=!4m7!3m6!1s0x3ba85948f4db4bd3:0xf4b577f02fad7452!8m2!3d10.9719375!4d76.9778125!16s%2Fg%2F11rtvyw1yx!19sChIJ00vb9EhZqDsRUnStL_B3tfQ?authuser=0&hl=en&rclk=1,"10.9719375,76.9778125"
"Kovai Dheenul IslamShafiya Sunnath Val Jamaath Masjid, Kalavaai",Mosque,"XXC4+XX6 Kovai Dheenul IslamShafiya Sunnath Val Jamaath Masjid, Kalavaai, Sunnambu Kalavaai,, Palakkad Main Rd, Kuniyamuthur, Tamil Nadu 641008",,"XXC4+XX6, Sunnambu Kalavaai,, Palakkad Main Rd","Kuniyamuthur, Coimbatore",641008,Tamil Nadu,IN,"https://www.google.com/maps/place/Kovai+Dheenul+IslamShafiya+Sunnath+Val+Jamaath+Masjid,+Kalavaai/data=!4m7!3m6!1s0x3ba8597c36bfaa7d:0xff90c3a7ca964da0!8m2!3d10.9724045!4d76.9573878!16s%2Fg%2F12ll3xq1g!19sChIJfaq_NnxZqDsRoE2WyqfDkP8?authuser=0&hl=en&rclk=1","10.9724045,76.95738779999999"
Noorul Uloom Sunnath Juma Masjid,Mosque,"2XH4+FXX Noorul Uloom Sunnath Juma Masjid, Pallivasal St, Kannappa Nagar, Tatabad, Coimbatore, Tamil Nadu 641027","Kannappa Nagar, Tatabad","2XH4+FXX, Pallivasal St",Coimbatore,641027,Tamil Nadu,IN,https://www.google.com/maps/place/Noorul+Uloom+Sunnath+Juma+Masjid/data=!4m7!3m6!1s0x3ba858f14769c085:0x94cd3e57d6d10985!8m2!3d11.0287378!4d76.9574933!16s%2Fg%2F11dfgntqx0!19sChIJhcBpR_FYqDsRhQnR1lc-zZQ?authuser=0&hl=en&rclk=1,"11.0287378,76.9574933"
Masjid Noor,Mosque,"XW7X+545 Masjid Noor, Ganga Nagar, Kuniyamuthur, Tamil Nadu 641008",Ganga Nagar,XW7X+545,Kuniyamuthur,641008,Tamil Nadu,IN,https://www.google.com/maps/place/Masjid+Noor/data=!4m7!3m6!1s0x3ba85bdbe499ef4f:0x8520785d393225b8!8m2!3d10.9628959!4d76.9478506!16s%2Fg%2F1hjgxgr_r!19sChIJT--Z5NtbqDsRuCUyOV14IIU?authuser=0&hl=en&rclk=1,"10.9628959,76.9478506"
Masjid Ui Hudha msjd,Mosque,"XXH7+233 Masjid Ui Hudha msjd, Karumbukkadai, Coimbatore, Tamil Nadu 641008",,XXH7+233,"Karumbukkadai, Coimbatore",641008,Tamil Nadu,IN,https://www.google.com/maps/place/Masjid+Ui+Hudha+%D9%85%D8%B3%D8%AC%D8%AF%E2%80%AD/data=!4m7!3m6!1s0x3ba85978f4606891:0x68deb64766c24d75!8m2!3d10.9775114!4d76.9626735!16s%2Fg%2F11c59zpgt4!19sChIJkWhg9HhZqDsRdU3CZke23mg?authuser=0&hl=en&rclk=1,"10.9775114,76.9626735"
Darul Hikma Masjid,Mosque,"XXQ9+32X Darul Hikma Masjid, JK Garden, Raha Avenue, Pulian Thoppu, Coimbatore, Tamil Nadu 641001","JK Garden, Raha Avenue, Pulian Thoppu",XXQ9+32X,Coimbatore,641001,Tamil Nadu,IN,https://www.google.com/maps/place/Darul+Hikma+Masjid/data=!4m7!3m6!1s0x3ba859798afc5b87:0x29f55761e249cbb0!8m2!3d10.9877484!4d76.9676196!16s%2Fg%2F11gr64sw3_!19sChIJh1v8inlZqDsRsMtJ4mFX9Sk?authuser=0&hl=en&rclk=1,"10.9877484,76.96761959999999"
Masjid Kousar Coimbatore,Mosque,"Masjid Kousar Coimbatore, 165, G.M NAGAR, GM Nagar, Pulian Thoppu, Kurichi, Coimbatore, Tamil Nadu 641024","GM Nagar, Pulian Thoppu","165, G.M NAGAR","Kurichi, Coimbatore",641024,Tamil Nadu,IN,https://www.google.com/maps/place/Masjid+Kousar+Coimbatore/data=!4m7!3m6!1s0x3ba859ce3ca25e27:0xc1e1782cb5e344f0!8m2!3d10.9851445!4d76.9752249!16s%2Fg%2F11q2rvr6_q!19sChIJJ16iPM5ZqDsR8ETjtSx44cE?authuser=0&hl=en&rclk=1,"10.985144499999999,76.9752249"
Masjid -ul-salaam,Mosque,"Masjid -ul-salaam, 3rd street, Arul nagar ,extension super garden, South Ukkadam, Coimbatore, Tamil Nadu 641001",South Ukkadam,"3rd street, Arul nagar ,extension super garden",Coimbatore,641001,Tamil Nadu,IN,https://www.google.com/maps/place/Masjid+-ul-salaam/data=!4m7!3m6!1s0x3ba859428f6c6eb9:0xd59b93d27bce3212!8m2!3d10.9805287!4d76.9691011!16s%2Fg%2F11ftg20v69!19sChIJuW5sj0JZqDsREjLOe9KTm9U?authuser=0&hl=en&rclk=1,"10.980528699999999,76.9691011"
Masjidul Mamoor Sunnath Jamath & Matharasa,Mosque,"Masjidul Mamoor Sunnath Jamath & Matharasa, 10, Gandhimaa Nagar, Coimbatore, Tamil Nadu 641006",Gandhimaa Nagar,10,Coimbatore,641006,Tamil Nadu,IN,https://www.google.com/maps/place/Masjidul+Mamoor+Sunnath+Jamath+%26+Matharasa/data=!4m7!3m6!1s0x3ba859bfb4d4d46b:0x56bd257e34761ff9!8m2!3d11.0449569!4d77.0001042!16s%2Fg%2F11ssrb5rg4!19sChIJa9TUtL9ZqDsR-R92NH4lvVY?authuser=0&hl=en&rclk=1,"11.044956899999999,77.0001042"
Ayisha jummah masjid,Mosque,"XXC4+J5P Ayisha jummah masjid, Unnamed Road, Kuniyamuthur, Coimbatore, Tamil Nadu 641024",,"XXC4+J5P, Unnamed Road","Kuniyamuthur, Coimbatore",641024,Tamil Nadu,IN,https://www.google.com/maps/place/Ayisha+jummah+masjid/data=!4m7!3m6!1s0x3ba85910eb1d720b:0x16b237fbb29adabf!8m2!3d10.9715895!4d76.9554429!16s%2Fg%2F11j2f4z3x8!19sChIJC3Id6xBZqDsRv9qasvs3shY?authuser=0&hl=en&rclk=1,"10.9715895,76.9554429"
INTJ - MASJIDHUR RAYAAN,Mosque,"XXF5+XJ7 INTJ - MASJIDHUR RAYAAN, Asath Nagar, 6th St, Muthuswamy Colony, Coimbatore, Tamil Nadu 641008",Muthuswamy Colony,"XXF5+XJ7, Asath Nagar, 6th St",Coimbatore,641008,Tamil Nadu,IN,https://www.google.com/maps/place/INTJ+-+MASJIDHUR+RAYAAN/data=!4m7!3m6!1s0x3ba859c8bf0ae7cb:0x6586ed186b706bc4!8m2!3d10.9749126!4d76.9590403!16s%2Fg%2F11rd2fl2n4!19sChIJy-cKv8hZqDsRxGtwaxjthmU?authuser=0&hl=en&rclk=1,"10.9749126,76.9590403"
Madhrasathul Hussaini Masjidh,Mosque,"XXR5+8G7 Madhrasathul Hussaini Masjidh, Town Hall, Coimbatore, Tamil Nadu 641001",Town Hall,XXR5+8G7,Coimbatore,641001,Tamil Nadu,IN,https://www.google.com/maps/place/Madhrasathul+Hussaini+Masjidh/data=!4m7!3m6!1s0x3ba85908e87d52d9:0xa306324026ecb9c2!8m2!3d10.9907792!4d76.9588118!16s%2Fg%2F11g4d8l0ch!19sChIJ2VJ96AhZqDsRwrnsJkAyBqM?authuser=0&hl=en&rclk=1,"10.990779199999999,76.95881179999999"
Masjid Siddiqul Akbar,Mosque,"XXPF+VR2 Masjid Siddiqul Akbar, Unnamed Road, GM Nagar, Pulian Thoppu, Coimbatore, Tamil Nadu 641024","GM Nagar, Pulian Thoppu","XXPF+VR2, Unnamed Road",Coimbatore,641024,Tamil Nadu,IN,https://www.google.com/maps/place/Masjid+Siddiqul+Akbar/data=!4m7!3m6!1s0x3ba8597f45913f0d:0x99153e11cee24a39!8m2!3d10.9871346!4d76.9745178!16s%2Fg%2F11fjczx_1r!19sChIJDT-RRX9ZqDsROUrizhE-FZk?authuser=0&hl=en&rclk=1,"10.9871346,76.9745178"
MASJIDUS SAALHEEN JAQH MARKAZ,Mosque,"MASJIDUS SAALHEEN JAQH MARKAZ, Street No - 7, Kurichi, Coimbatore, Tamil Nadu 641024",,Street No - 7,"Kurichi, Coimbatore",641024,Tamil Nadu,IN,https://www.google.com/maps/place/MASJIDUS+SAALHEEN+JAQH+MARKAZ/data=!4m7!3m6!1s0x3ba85980d1c6eeab:0xb6c65c67b55dce40!8m2!3d10.9719008!4d76.9695872!16s%2Fg%2F11dxdb40mx!19sChIJq-7G0YBZqDsRQM5dtWdcxrY?authuser=0&hl=en&rclk=1,"10.9719008,76.96958719999999"
Masjithur Rayyan,Mosque,"XXF5+XHM Masjithur Rayyan, Asath Nagar, 6th St, Coimbatore, Tamil Nadu 641008",Muthuswamy Colony,"XXF5+XHM, Asath Nagar, 6th St",Coimbatore,641008,Tamil Nadu,IN,https://www.google.com/maps/place/Masjithur+Rayyan/data=!4m7!3m6!1s0x3ba859050e849ee1:0x9a7a4afbb783f2a!8m2!3d10.9749528!4d76.9589366!16s%2Fg%2F11rgydvrg2!19sChIJ4Z6EDgVZqDsRKj94u6-kpwk?authuser=0&hl=en&rclk=1,"10.974952799999999,76.9589366"
Masjid,Mosque,"XXQ4+RRP Masjid, Kempatty Colony, Town Hall, Coimbatore, Tamil Nadu 641008","Kempatty Colony, Town Hall",XXQ4+RRP,Coimbatore,641008,Tamil Nadu,IN,https://www.google.com/maps/place/Masjid/data=!4m7!3m6!1s0x3ba859ba0a4f7493:0xa076b35f506a79de!8m2!3d10.989618!4d76.9571012!16s%2Fg%2F11t2_7kwp2!19sChIJk3RPCrpZqDsR3nlqUF-zdqA?authuser=0&hl=en&rclk=1,"10.989618,76.9571012"
Masjid NH road,Mosque,"Masjid NH road, 52, Nagapattinam - Coimbatore - Gundlupet Hwy, Town Hall, Coimbatore, Tamil Nadu 641001",Town Hall,"52, Nagapattinam - Coimbatore - Gundlupet Hwy",Coimbatore,641001,Tamil Nadu,IN,https://www.google.com/maps/place/Masjid+NH+road/data=!4m7!3m6!1s0x3ba859d1deb5ccc9:0xcdbdc03b48d69785!8m2!3d10.9992888!4d76.9599511!16s%2Fg%2F11r35rrx8w!19sChIJycy13tFZqDsRhZfWSDvAvc0?authuser=0&hl=en&rclk=1,"10.999288799999999,76.9599511"
Masjid Akram,Mosque,"XXJ9+V4G Masjid Akram, Ponvizha Nagar Road, Anbu Nagar, Ukkadam, Coimbatore, Tamil Nadu 641001","Anbu Nagar, Ukkadam","XXJ9+V4G, Ponvizha Nagar Road",Coimbatore,641001,Tamil Nadu,IN,https://www.google.com/maps/place/Masjid+Akram/data=!4m7!3m6!1s0x3ba8591e97dbd9bb:0x271ad358ee807c41!8m2!3d10.9821793!4d76.9678408!16s%2Fg%2F11rc48mxj0!19sChIJu9nblx5ZqDsRQXyA7ljTGic?authuser=0&hl=en&rclk=1,"10.9821793,76.96784079999999"
Assam hazrath Masjid,Mosque,"Assam hazrath Masjid, 489 489/2, 2nd St, Semmozhi Nagar, Sundakkamuthur, Kuniyamuthur, Coimbatore, Tamil Nadu 641008","Semmozhi Nagar, Sundakkamuthur","489 489/2, 2nd St","Kuniyamuthur, Coimbatore",641008,Tamil Nadu,IN,https://www.google.com/maps/place/Assam+hazrath+Masjid/data=!4m7!3m6!1s0x3ba85bbc152e3985:0x99e39a7ed3789f1d!8m2!3d10.9643378!4d76.9397449!16s%2Fg%2F11t5b8wl13!19sChIJhTkuFbxbqDsRHZ94036a45k?authuser=0&hl=en&rclk=1,"10.9643378,76.9397449"
Jumma Masjid,Mosque,"113/b, first floor, Jumma Masjid, Coimbatore, Tamil Nadu 641012",,"113/b, first floor",Coimbatore,641012,Tamil Nadu,IN,https://www.google.com/maps/place/Jumma+Masjid/data=!4m7!3m6!1s0x3ba8594e88e298ab:0x2b3540b56b402463!8m2!3d11.0202565!4d76.9673701!16s%2Fg%2F11tsk6d9l3!19sChIJq5jiiE5ZqDsRYyRAa7VANSs?authuser=0&hl=en&rclk=1,"11.0202565,76.9673701"
Sunnath Jamath Masjid,Religious destination,"2WVW+2QW Sunnath Jamath Masjid, Koundampalayam, Coimbatore, Tamil Nadu 641030",Koundampalayam,2WVW+2QW,Coimbatore,641030,Tamil Nadu,IN,https://www.google.com/maps/place/Sunnath+Jamath+Masjid/data=!4m7!3m6!1s0x3ba85896ccdeaaab:0x8ad02b2d0f0d9ff3!8m2!3d11.0426018!4d76.9469544!16s%2Fg%2F11txmz8fc3!19sChIJq6rezJZYqDsR858NDy0r0Io?authuser=0&hl=en&rclk=1,"11.0426018,76.9469544"
MASJIDUL IHSAAN,Mosque,"XXH7+8JF MASJIDUL IHSAAN, Salamath Nagar, Karumbukkadai, Coimbatore, Tamil Nadu 641008",Salamath Nagar,XXH7+8JF,"Karumbukkadai, Coimbatore",641008,Tamil Nadu,IN,https://www.google.com/maps/place/MASJIDUL+IHSAAN/data=!4m7!3m6!1s0x3ba859273abdb0e5:0x630e4ad01b70c2ee!8m2!3d10.978316!4d76.9640331!16s%2Fg%2F11v03m6fjc!19sChIJ5bC9OidZqDsR7sJwG9BKDmM?authuser=0&hl=en&rclk=1,"10.978316,76.9640331"
Masjid Bilal,Mosque,"Masjid Bilal, 9/278, Valangkulam, Coimbatore, Tamil Nadu 641001",Valangkulam,9/278,Coimbatore,641001,Tamil Nadu,IN,https://www.google.com/maps/place/Masjid+Bilal/data=!4m7!3m6!1s0x3ba8591c6cb8ad47:0x287d5a8fc3fb2097!8m2!3d10.9699811!4d76.95568!16s%2Fg%2F11tcl_c81s!19sChIJR624bBxZqDsRlyD7w49afSg?authuser=0&hl=en&rclk=1,"10.9699811,76.95568"
Al-Madheena Mosque,Mosque,"2WXQ+6VF Al-Madheena Mosque, Ashok Nagar West, Siva Nagar, Koundampalayam, Coimbatore, Tamil Nadu 641030","Ashok Nagar West, Siva Nagar, Koundampalayam",2WXQ+6VF,Coimbatore,641030,Tamil Nadu,IN,https://www.google.com/maps/place/Al-Madheena+Mosque/data=!4m7!3m6!1s0x3ba859cce2ec285b:0x47e32b9f8abd80a!8m2!3d11.0480693!4d76.9396856!16s%2Fg%2F11h38m9df3!19sChIJWyjs4sxZqDsRCtir-LkyfgQ?authuser=0&hl=en&rclk=1,"11.0480693,76.93968559999999"
Nagamohallah Dhakni Ahale Sunnath Jamath Masjidh,Mosque,"Nagamohallah Dhakni Ahale Sunnath Jamath Masjidh, 17/24, Maniyathottam Street No:02, Nawab Hakkim Road, Coimbatore",Town Hall,"17/24, Maniyathottam Street No:02, Nawab Hakkim Road",Coimbatore,,Tamil Nadu,IN,https://www.google.com/maps/place/Nagamohallah+Dhakni+Ahale+Sunnath+Jamath+Masjidh/data=!4m7!3m6!1s0x3ba859fc763c1773:0x9d615c3b69ff12da!8m2!3d11.0005309!4d76.9596826!16s%2Fg%2F11t0stwnmc!19sChIJcxc8dvxZqDsR2hL_aTtcYZ0?authuser=0&hl=en&rclk=1,"11.0005309,76.9596826"
Tntj,Mosque,"Tntj, S.S Kovil Street, Fort, 131, Ukkadam, Coimbatore, Tamil Nadu 641001",Ukkadam,"S.S Kovil Street, Fort, 131",Coimbatore,641001,Tamil Nadu,IN,https://www.google.com/maps/place/Tntj/data=!4m7!3m6!1s0x3ba8598c4a6f01e3:0xa51b3ba110a4b72!8m2!3d10.9903612!4d76.9643971!16s%2Fg%2F11lm41rrnq!19sChIJ4wFvSoxZqDsRcksKEbqzUQo?authuser=0&hl=en&rclk=1,"10.990361199999999,76.9643971"
BURHANI GUARDS COIMBATORE,Mosque,"BURHANI GUARDS COIMBATORE, Qutbi Masjid, Peelamedu, Krishnarayapuram, Illango Nagar, Coimbatore, Tamil Nadu 641004","Peelamedu, Krishnarayapuram, Illango Nagar",Qutbi Masjid,Coimbatore,641004,Tamil Nadu,IN,https://www.google.com/maps/place/BURHANI+GUARDS+COIMBATORE/data=!4m7!3m6!1s0x3ba8592605198cf9:0xf4449f3bf0ec4cd3!8m2!3d11.032896!4d76.9949825!16s%2Fg%2F11nxsgh4zt!19sChIJ-YwZBSZZqDsR00zs8DufRPQ?authuser=0&hl=en&rclk=1,"11.032896,76.99498249999999"
"Kottaimedu Mosque, Coimbatore",Mosque,"XXQ7+XVW Kottaimedu Mosque, Coimbatore, Ukkadam, Coimbatore, Tamil Nadu 641001",Ukkadam,XXQ7+XVW,Coimbatore,641001,Tamil Nadu,IN,"https://www.google.com/maps/place/Kottaimedu+Mosque,+Coimbatore/data=!4m7!3m6!1s0x3ba8599fdbe5a741:0xd7d07b1093e1c6e7!8m2!3d10.9898922!4d76.9647038!16s%2Fg%2F11sw4s1njr!19sChIJQafl259ZqDsR58bhkxB70Nc?authuser=0&hl=en&rclk=1","10.9898922,76.9647038"
