name,main_category,address,address_ward,address_street,address_city,address_postal_code,address_state,address_country_code,link,coordinates
Jama Masjid Ahle Sunnat Wal Jamaat,Mosque,"Jama Masjid Ahle Sunnat Wal Jamaat, Ghanta Ghar, road, Badi Omti, Jabalpur, Madhya Pradesh 482002",Badi Omti,"Ghanta Ghar, road",Jabalpur,482002,Madhya Pradesh,IN,https://www.google.com/maps/place/Jama+Masjid+Ahle+Sunnat+Wal+Jamaat/data=!4m7!3m6!1s0x3981ae13a169fc93:0x2cbdbeebc11e93d6!8m2!3d23.170712!4d79.9384637!16s%2Fg%2F1tdwnhhq!19sChIJk_xpoROugTkR1pMeweu-vSw?authuser=0&hl=en&rclk=1,"23.170711999999998,79.9384637"
Jama Masjid Jahangirabad,Mosque,"Jama Masjid Jahangirabad, 1035, Jehangirabad, Wright Town, Jabalpur, Madhya Pradesh 482002",Wright Town,"1035, Jehangirabad",Jabalpur,482002,Madhya Pradesh,IN,https://www.google.com/maps/place/Jama+Masjid+Jahangirabad/data=!4m7!3m6!1s0x3981ae106ee67b01:0x98382717b149832b!8m2!3d23.1681141!4d79.9314437!16s%2Fg%2F1v6p2pkm!19sChIJAXvmbhCugTkRK4NJsRcnOJg?authuser=0&hl=en&rclk=1,"23.1681141,79.9314437"
Lakadganj Masjid,Mosque,"5WGQ+5VQ Lakadganj Masjid, Hanumantal Ward, Jabalpur, Madhya Pradesh 482002",Hanumantal Ward,5WGQ+5VQ,Jabalpur,482002,Madhya Pradesh,IN,https://www.google.com/maps/place/Lakadganj+Masjid/data=!4m7!3m6!1s0x3981ae14e28af8b1:0x10524aef796543eb!8m2!3d23.1754524!4d79.9397389!16s%2Fg%2F11f2vb2828!19sChIJsfiK4hSugTkR60Nlee9KUhA?authuser=0&hl=en&rclk=1,"23.175452399999998,79.9397389"
Ghareeb Nawaz Masjid Ground,Mosque,"5WRX+597 Ghareeb Nawaz Masjid Ground, Adhartal, Jabalpur, Madhya Pradesh 482002",Adhartal,5WRX+597,Jabalpur,482002,Madhya Pradesh,IN,https://www.google.com/maps/place/Ghareeb+Nawaz+Masjid+Ground/data=!4m7!3m6!1s0x3981ae45f402f9f3:0xc59c73a15d204c8e!8m2!3d23.1904121!4d79.948423!16s%2Fg%2F11bw75xg3g!19sChIJ8_kC9EWugTkRjkwgXaFznMU?authuser=0&hl=en&rclk=1,"23.1904121,79.94842299999999"
MAKKA MASJID,Mosque,"5WVX+GP3 MAKKA MASJID, Azad Nagar, Makka Nagar, Adhartal, Jabalpur, Madhya Pradesh 482004","Azad Nagar, Makka Nagar, Adhartal",5WVX+GP3,Jabalpur,,Madhya Pradesh,IN,https://www.google.com/maps/place/MAKKA+MASJID/data=!4m7!3m6!1s0x3981ae4f1d44b065:0x568366aa452e1ad6!8m2!3d23.1937669!4d79.9492861!16s%2Fg%2F11c5gz7_gq!19sChIJZbBEHU-ugTkR1houRapmg1Y?authuser=0&hl=en&rclk=1,"23.1937669,79.9492861"
Katra Masjid msjd,Mosque,"5WXX+5RM Katra Masjid msjd, Unnamed Road, Mansarovar Colony, Adhartal, Jabalpur, Madhya Pradesh 482004","Mansarovar Colony, Adhartal","5WXX+5RM, Unnamed Road",Jabalpur,482004,Madhya Pradesh,IN,https://www.google.com/maps/place/Katra+Masjid+%D9%85%D8%B3%D8%AC%D8%AF%E2%80%AD/data=!4m7!3m6!1s0x3981ae4c3aa350d3:0x106d654c9d4265ed!8m2!3d23.1975685!4d79.9493068!16s%2Fg%2F1260b37g6!19sChIJ01CjOkyugTkR7WVCnUxlbRA?authuser=0&hl=en&rclk=1,"23.1975685,79.9493068"
Masjid Salar Gazi Miya ground (salar nagar),Mosque,"5WRP+XMV Masjid Salar Gazi Miya ground (salar nagar), Ganji Nagar, Adhartal, Jabalpur, GCF Jabalpur, Madhya Pradesh 482002","Ganji Nagar, Adhartal",5WRP+XMV,"Jabalpur, GCF Jabalpur",482002,Madhya Pradesh,IN,https://www.google.com/maps/place/Masjid+Salar+Gazi+Miya+ground+%28salar+nagar%29/data=!4m7!3m6!1s0x3981ae372f72b929:0x3c28953a0069c38a!8m2!3d23.1924947!4d79.9366753!16s%2Fg%2F11c5_hmklz!19sChIJKblyLzeugTkRisNpADqVKDw?authuser=0&hl=en&rclk=1,"23.192494699999997,79.93667529999999"
gosh pak Dargaah,Mosque,"4WX2+M3X gosh pak Dargaah, Gurudev Colony, Jabalpur, Madhya Pradesh 482001",Gurudev Colony,4WX2+M3X,Jabalpur,482001,Madhya Pradesh,IN,https://www.google.com/maps/place/gosh+pak+Dargaah/data=!4m7!3m6!1s0x3981b21ef9ad0435:0x1bd4bf76c0a08030!8m2!3d23.1492415!4d79.9002385!16s%2Fg%2F1hm6l8kzw!19sChIJNQSt-R6ygTkRMICgwHa_1Bs?authuser=0&hl=en&rclk=1,"23.1492415,79.9002385"
"Hanfiya Masjid Madani Markaj ,Bahora Bagh",Mosque,"5WQR+78P Hanfiya Masjid Madani Markaj ,Bahora Bagh, Gohalpur, Jabalpur, Madhya Pradesh 482002",Gohalpur,5WQR+78P,Jabalpur,482002,Madhya Pradesh,IN,"https://www.google.com/maps/place/Hanfiya+Masjid+Madani+Markaj+,Bahora+Bagh/data=!4m7!3m6!1s0x3981ae386fbce155:0x7bacff360f70b55e!8m2!3d23.1882242!4d79.9408311!16s%2Fg%2F11cshjt9lh!19sChIJVeG8bziugTkRXrVwDzb_rHs?authuser=0&hl=en&rclk=1","23.1882242,79.9408311"
Masjid Sulemani,Mosque,"Masjid Sulemani, Charlie, Sneh Nagar Chowk, Gohalpur, Jabalpur, Madhya Pradesh 482002",Gohalpur,"Charlie, Sneh Nagar Chowk",Jabalpur,482002,Madhya Pradesh,IN,https://www.google.com/maps/place/Masjid+Sulemani/data=!4m7!3m6!1s0x3981ae392dbf18fd:0xfaaa81ca8385d97b!8m2!3d23.1845603!4d79.9382991!16s%2Fg%2F11c4jz9qwr!19sChIJ_Ri_LTmugTkRe9mFg8qBqvo?authuser=0&hl=en&rclk=1,"23.184560299999998,79.9382991"
Masjid Anwarganj,Mosque,"5WJQ+MVV Masjid Anwarganj, Gohalpur, Jabalpur, Madhya Pradesh 482002",Gohalpur,5WJQ+MVV,Jabalpur,482002,Madhya Pradesh,IN,https://www.google.com/maps/place/Masjid+Anwarganj/data=!4m7!3m6!1s0x3981ae3f08cfefe3:0xf0349fe0276cf1e6!8m2!3d23.1817447!4d79.9396847!16s%2Fg%2F11bx564wqk!19sChIJ4-_PCD-ugTkR5vFsJ-CfNPA?authuser=0&hl=en&rclk=1,"23.1817447,79.9396847"
Gazi Masjid Ahle Sunnat nai basti ansar nagar,Mosque,"Gazi Masjid Ahle Sunnat nai basti ansar nagar, 545, Ansar Nagar, Gohalpur, Vehicle Fac. Jabalpur, Jabalpur, Madhya Pradesh 482002","Ansar Nagar, Gohalpur",545,"Vehicle Fac. Jabalpur, Jabalpur",482002,Madhya Pradesh,IN,https://www.google.com/maps/place/Gazi+Masjid+Ahle+Sunnat+nai+basti+ansar+nagar/data=!4m7!3m6!1s0x3981ae3767f93ca9:0x4e476b02e8161152!8m2!3d23.190821!4d79.9374609!16s%2Fg%2F11c2njqkkz!19sChIJqTz5ZzeugTkRUhEW6AJrR04?authuser=0&hl=en&rclk=1,"23.190821,79.93746089999999"
Jama Masjid Ahle-hadees,Mosque,"5WFM+FP5 Jama Masjid Ahle-hadees, Andherdeo, Ganjipura, Jabalpur, Madhya Pradesh 482002","Andherdeo, Ganjipura",5WFM+FP5,Jabalpur,482002,Madhya Pradesh,IN,https://www.google.com/maps/place/Jama+Masjid+Ahle-hadees/data=!4m7!3m6!1s0x3981ae16e39d0af7:0x72a436c20bf2a895!8m2!3d23.1736475!4d79.9343445!16s%2Fg%2F11b6n_84gn!19sChIJ9wqd4xaugTkRlajyC8I2pHI?authuser=0&hl=en&rclk=1,"23.173647499999998,79.9343445"
Aayesha Masjid,Mosque,"Aayesha Masjid, Aayesha Nagar, Khirkiya Khurd, Jabalpur, Madhya Pradesh 482004",,Aayesha Nagar,"Khirkiya Khurd, Jabalpur",482004,Madhya Pradesh,IN,https://www.google.com/maps/place/Aayesha+Masjid/data=!4m7!3m6!1s0x3981afe8a4dca549:0xab27b0ab9037a39c!8m2!3d23.2298781!4d79.9310387!16s%2Fg%2F11c5h30qr_!19sChIJSaXcpOivgTkRnKM3kKuwJ6s?authuser=0&hl=en&rclk=1,"23.2298781,79.9310387"
Burhan Masjid,Mosque,"5WGQ+W2X Burhan Masjid, Burhan Chowk, Pootatal Road, Jabalpur, Madhya Pradesh 482002",,"5WGQ+W2X, Burhan Chowk, Pootatal Road",Jabalpur,482002,Madhya Pradesh,IN,https://www.google.com/maps/place/Burhan+Masjid/data=!4m7!3m6!1s0x3981ae15930e04b5:0xb57eda6a5d8d4733!8m2!3d23.1773556!4d79.9376221!16s%2Fg%2F11cp7fq04m!19sChIJtQQOkxWugTkRM0eNXWrafrU?authuser=0&hl=en&rclk=1,"23.1773556,79.9376221"
Rampur Noorani Masjid,Mosque,"4WPG+G2C Rampur Noorani Masjid, Rampur, Jabalpur, Madhya Pradesh 482008",Rampur,4WPG+G2C,Jabalpur,482008,Madhya Pradesh,IN,https://www.google.com/maps/place/Rampur+Noorani+Masjid/data=!4m7!3m6!1s0x3981adf1557d90d7:0x829e73a29a33ec9b!8m2!3d23.1363137!4d79.9250091!16s%2Fg%2F11f0wlmghj!19sChIJ15B9VfGtgTkRm-wzmqJznoI?authuser=0&hl=en&rclk=1,"23.1363137,79.9250091"
Markaz Madeena Masjid msjd,Mosque,"Markaz Madeena Masjid msjd, Markaz Madeena Masjid, Markaz Madeena Masjid, Mominpura Talaiya, Gohalpur, Mominpura Talaiya, Gohalpur, Jabalpur, Madhya Pradesh 482002",Gohalpur,"Markaz Madeena Masjid, Markaz Madeena Masjid, Mominpura Talaiya, Gohalpur, Mominpura Talaiya",Jabalpur,482002,Madhya Pradesh,IN,https://www.google.com/maps/place/Markaz+Madeena+Masjid+%D9%85%D8%B3%D8%AC%D8%AF%E2%80%AD/data=!4m7!3m6!1s0x3981ae39bfa2f2af:0x78381e830d2864!8m2!3d23.188102!4d79.937064!16s%2Fg%2F11c5xwl371!19sChIJr_KivzmugTkRZCgNgx44eAA?authuser=0&hl=en&rclk=1,"23.188102,79.93706399999999"
Auliya Masjid,Mosque,"5WQC+RPQ Auliya Masjid, Damoh Road, Shiv Nagar, beside Sai Temple, Jabalpur, Madhya Pradesh 482002",Transport Nagar,"5WQC+RPQ, Damoh Road, Shiv Nagar, beside Sai Temple","Jabalpur, GCF Jabalpur",482002,Madhya Pradesh,IN,https://www.google.com/maps/place/Auliya+Masjid/data=!4m7!3m6!1s0x3981ae287c4f6b05:0x3a733484b908fc4f!8m2!3d23.189598!4d79.9218549!16s%2Fg%2F11c0xsk4hc!19sChIJBWtPfCiugTkRT_wIuYQ0czo?authuser=0&hl=en&rclk=1,"23.189598,79.9218549"
Masjid Gora Bazar,Mosque,"Masjid Gora Bazar, Gora Bazar, Jabalpur, Madhya Pradesh 482001",Gora Bazar,,Jabalpur,482001,Madhya Pradesh,IN,https://www.google.com/maps/place/Masjid+Gora+Bazar/data=!4m7!3m6!1s0x3981add2273b8e95:0xd883faada44d6e95!8m2!3d23.146238!4d79.9585562!16s%2Fg%2F11f2wd0_8k!19sChIJlY47J9KtgTkRlW5NpK36g9g?authuser=0&hl=en&rclk=1,"23.146238,79.95855619999999"
Falah Darain Masjid Ahle Hadees,Mosque,"5W9Q+H9G Falah Darain Masjid Ahle Hadees, Naya Mohalla, Jabalpur, Madhya Pradesh 482001",Naya Mohalla,5W9Q+H9G,Jabalpur,482001,Madhya Pradesh,IN,https://www.google.com/maps/place/Falah+Darain+Masjid+Ahle+Hadees/data=!4m7!3m6!1s0x3981ae1250a3aaf9:0x5da657c11aed085!8m2!3d23.1689491!4d79.9384533!16s%2Fg%2F11bx1z5y1r!19sChIJ-aqjUBKugTkRhdCuEXxl2gU?authuser=0&hl=en&rclk=1,"23.1689491,79.93845329999999"
Jama Masjid Jamiat Ul Quresh,Mosque,"Jama Masjid Jamiat Ul Quresh, Haji Riyaz Street Mandi, Madar Tekri Rd, Raza Chowk, Jabalpur, Madhya Pradesh 482002",Raza Chowk,"Haji Riyaz Street Mandi, Madar Tekri Rd",Jabalpur,482002,Madhya Pradesh,IN,https://www.google.com/maps/place/Jama+Masjid+Jamiat+Ul+Quresh/data=!4m7!3m6!1s0x3981ae3894de0a71:0x1a303a0c12d2c4cc!8m2!3d23.1860739!4d79.9404499!16s%2Fg%2F11g88w68pj!19sChIJcQrelDiugTkRzMTSEgw6MBo?authuser=0&hl=en&rclk=1,"23.1860739,79.94044989999999"
Miskin Shah Masjid,Mosque,"Miskin Shah Masjid, Sarafa Rd, Hanumantal Ward, Jabalpur, Madhya Pradesh 482002",Hanumantal Ward,Sarafa Rd,Jabalpur,482002,Madhya Pradesh,IN,https://www.google.com/maps/place/Miskin+Shah+Masjid/data=!4m7!3m6!1s0x3981ae3d9b731d9f:0x84d28ae2e9d7d68e!8m2!3d23.1790299!4d79.933739!16s%2Fg%2F12qfvxv3l!19sChIJnx1zmz2ugTkRjtbX6eKK0oQ?authuser=0&hl=en&rclk=1,"23.1790299,79.933739"
Masjid Aliganj,Mosque,"5WGP+H8W Masjid Aliganj, Ganjipura, Jabalpur, Madhya Pradesh 482002",Ganjipura,5WGP+H8W,Jabalpur,482002,Madhya Pradesh,IN,https://www.google.com/maps/place/Masjid+Aliganj/data=!4m7!3m6!1s0x3981ae1674474af3:0x7adf978d364e52ce!8m2!3d23.176484!4d79.9358334!16s%2Fg%2F11fy_fm8rg!19sChIJ80pHdBaugTkRzlJONo2X33o?authuser=0&hl=en&rclk=1,"23.176484,79.93583339999999"
Masjid-e-taiyyaba,Mosque,"5WWQ+R89 Masjid-e-taiyyaba, Bhumi Vikash Bank Colony, Adhartal, Jabalpur, GCF Jabalpur, Madhya Pradesh 482002","Bhumi Vikash Bank Colony, Adhartal",5WWQ+R89,"Jabalpur, GCF Jabalpur",482002,Madhya Pradesh,IN,https://www.google.com/maps/place/Masjid-e-taiyyaba/data=!4m7!3m6!1s0x3981ae343160c8e9:0xd22daf87277718f1!8m2!3d23.1970301!4d79.9383574!16s%2Fg%2F11b_2qhzzt!19sChIJ6chgMTSugTkR8Rh3J4evLdI?authuser=0&hl=en&rclk=1,"23.1970301,79.9383574"
Saif Masjid,Mosque,"5WVV+J85 Saif Masjid, Saif Nagar, Anand Nagar, Adhartal, Jabalpur, Madhya Pradesh 482002","Saif Nagar, Anand Nagar, Adhartal",5WVV+J85,Jabalpur,482002,Madhya Pradesh,IN,https://www.google.com/maps/place/Saif+Masjid/data=!4m7!3m6!1s0x3981ae49b6c5c64d:0xed87973ffbb4a7cf!8m2!3d23.1940029!4d79.9433631!16s%2Fg%2F11df81rh46!19sChIJTcbFtkmugTkRz6e0-z-Xh-0?authuser=0&hl=en&rclk=1,"23.194002899999997,79.9433631"
Bangali Masjid,Mosque,"Bangali Masjid, 1994, Naudra Bridge, Napier Town, Jabalpur, Madhya Pradesh 482001, Naudra Bridge, Napier Town, Jabalpur, Madhya Pradesh 482001",Napier Town,"1994, Naudra Bridge, Napier Town, Jabalpur, Madhya Pradesh 482001, Naudra Bridge",Jabalpur,482001,Madhya Pradesh,IN,https://www.google.com/maps/place/Bangali+Masjid/data=!4m7!3m6!1s0x3981ae1275ce34b1:0xdbaa48d26a66687a!8m2!3d23.1670473!4d79.9377777!16s%2Fg%2F11dztxsg60!19sChIJsTTOdRKugTkRemhmatJIqts?authuser=0&hl=en&rclk=1,"23.1670473,79.9377777"
Badi Shaan Wala Masjid and dargah,Mosque,"5W9Q+HVV Badi Shaan Wala Masjid and dargah, Ghantaghar Square, Ghantaghar, Jabalpur, Madhya Pradesh 482001",Naya Mohalla,"5W9Q+HVV, Ghantaghar Square, Ghantaghar",Jabalpur,482001,Madhya Pradesh,IN,https://www.google.com/maps/place/Badi+Shaan+Wala+Masjid+and+dargah/data=!4m7!3m6!1s0x3981ae12e56b43f1:0xe797ce8b7aef1f56!8m2!3d23.1689899!4d79.939662!16s%2Fg%2F11c0wcdg64!19sChIJ8UNr5RKugTkRVh_veovOl-c?authuser=0&hl=en&rclk=1,"23.1689899,79.939662"
"Jama Masjid, Qazi mohalla",Mosque,"5W63+267 Jama Masjid, Qazi mohalla, Garha, Jabalpur, Madhya Pradesh 482003",Garha,5W63+267,Jabalpur,482003,Madhya Pradesh,IN,"https://www.google.com/maps/place/Jama+Masjid,+Qazi+mohalla/data=!4m7!3m6!1s0x3981b1f167a39fd3:0x6831756d52d1e68b!8m2!3d23.1600319!4d79.9030354!16s%2Fg%2F11csp8mv4m!19sChIJ05-jZ_GxgTkRi-bRUm11MWg?authuser=0&hl=en&rclk=1","23.1600319,79.9030354"
Masjid FIAZAN E JAMAL E MUSTAFA,Mosque,"5WVX+66F Masjid FIAZAN E JAMAL E MUSTAFA, Azad Nagar, Adhartal, Jabalpur, Madhya Pradesh 482004","Azad Nagar, Adhartal",5WVX+66F,Jabalpur,482004,Madhya Pradesh,IN,https://www.google.com/maps/place/Masjid+FIAZAN+E+JAMAL+E+MUSTAFA/data=!4m7!3m6!1s0x3981ae4f24e3a691:0x1c4f4b8644d1eb30!8m2!3d23.1930645!4d79.9480429!16s%2Fg%2F11g8dhfk58!19sChIJkabjJE-ugTkRMOvRRIZLTxw?authuser=0&hl=en&rclk=1,"23.1930645,79.94804289999999"
Hamza Masjid,Mosque,"5WRV+X82 Hamza Masjid, Noori Nagar, Pasiyana, Jabalpur, Madhya Pradesh 482002","Noori Nagar, Pasiyana",5WRV+X82,Jabalpur,482002,Madhya Pradesh,IN,https://www.google.com/maps/place/Hamza+Masjid/data=!4m7!3m6!1s0x3981ae4846182201:0x55d7cdb653ec16a0!8m2!3d23.1923973!4d79.9432604!16s%2Fg%2F11fzfcy_d3!19sChIJASIYRkiugTkRoBbsU7bN11U?authuser=0&hl=en&rclk=1,"23.1923973,79.9432604"
Tohid Mosque,Mosque,"5WWX+F4P Tohid Mosque, tohid mosque, durga nagar,, Adhartal, Jabalpur, Madhya Pradesh 482004","Anand Nagar, Adhartal","5WWX+F4P, tohid mosque, durga nagar,",Jabalpur,482004,Madhya Pradesh,IN,https://www.google.com/maps/place/Tohid+Mosque/data=!4m7!3m6!1s0x3981ae4eaf3d951b:0xe81cb2ca0be0e181!8m2!3d23.1962123!4d79.9478343!16s%2Fg%2F11c1ws868s!19sChIJG5U9r06ugTkRgeHgC8qyHOg?authuser=0&hl=en&rclk=1,"23.1962123,79.9478343"
Masjid Chuttu Miya Ki Talaiya,Mosque,"5WGP+746 Masjid Chuttu Miya Ki Talaiya, Ganjipura, Jabalpur, Madhya Pradesh 482002",Ganjipura,5WGP+746,Jabalpur,482002,Madhya Pradesh,IN,https://www.google.com/maps/place/Masjid+Chuttu+Miya+Ki+Talaiya/data=!4m7!3m6!1s0x3981ae16649997db:0x784864efc82e6243!8m2!3d23.1756515!4d79.9352558!16s%2Fg%2F11c6_z0rbz!19sChIJ25eZZBaugTkRQ2IuyO9kSHg?authuser=0&hl=en&rclk=1,"23.175651499999997,79.9352558"
Suji Mohalla Masjid,Mosque,"5WPM+3JR Suji Mohalla Masjid, Suji Mohalla, Gohalpur, Jabalpur, GCF Jabalpur, Madhya Pradesh 482002","Suji Mohalla, Gohalpur",5WPM+3JR,"Jabalpur, GCF Jabalpur",482002,Madhya Pradesh,IN,https://www.google.com/maps/place/Suji+Mohalla+Masjid/data=!4m7!3m6!1s0x3981ae3b96456f59:0x9c2b25448ff7ae18!8m2!3d23.185238!4d79.9340201!16s%2Fg%2F11f3n3rc3_!19sChIJWW9FljuugTkRGK73j0QlK5w?authuser=0&hl=en&rclk=1,"23.185238,79.9340201"
Maulvi Nasrullah Ahle Hadees Masjid,Mosque,"Maulvi Nasrullah Ahle Hadees Masjid, 148, Bharipur Rd, Ganjipura, Jabalpur, Madhya Pradesh 482002",Ganjipura,"148, Bharipur Rd",Jabalpur,482002,Madhya Pradesh,IN,https://www.google.com/maps/place/Maulvi+Nasrullah+Ahle+Hadees+Masjid/data=!4m7!3m6!1s0x3981ae130a91aa7d:0x60e5f1f5bf8b978b!8m2!3d23.1711431!4d79.9390669!16s%2Fg%2F11g8dct1ll!19sChIJfaqRChOugTkRi5eLv_Xx5WA?authuser=0&hl=en&rclk=1,"23.1711431,79.9390669"
MASJID AL RAZA,Mosque,"MASJID AL RAZA, 482004, Anand Nagar, Adhartal, Jabalpur, Madhya Pradesh 482002","Anand Nagar, Adhartal",482004,Jabalpur,482002,Madhya Pradesh,IN,https://www.google.com/maps/place/MASJID+AL+RAZA/data=!4m7!3m6!1s0x3981ae48afc59cb9:0xd42ae8b6e8e831f2!8m2!3d23.1913809!4d79.946679!16s%2Fg%2F11df04px1z!19sChIJuZzFr0iugTkR8jHo6LboKtQ?authuser=0&hl=en&rclk=1,"23.1913809,79.946679"
Nageena Masjid,Mosque,"5WQP+PHX Nageena Masjid, Gohalpur, Jabalpur, Madhya Pradesh 482002",Gohalpur,5WQP+PHX,Jabalpur,482002,Madhya Pradesh,IN,https://www.google.com/maps/place/Nageena+Masjid/data=!4m7!3m6!1s0x3981ae39fa13b677:0x5ab6263b00bcfdc1!8m2!3d23.1893713!4d79.9364805!16s%2Fg%2F11dfq6vsm_!19sChIJd7YT-jmugTkRwf28ADsmtlo?authuser=0&hl=en&rclk=1,"23.189371299999998,79.9364805"
Shia Dawoodi Bohra Masjid,Mosque,"5WJM+2Q3 Shia Dawoodi Bohra Masjid, Hanumantal Ward, Jabalpur, Madhya Pradesh 482002",Hanumantal Ward,5WJM+2Q3,Jabalpur,482002,Madhya Pradesh,IN,https://www.google.com/maps/place/Shia+Dawoodi+Bohra+Masjid/data=!4m7!3m6!1s0x3981ae3db93694e7:0x61f5eca966ed5fec!8m2!3d23.1800052!4d79.9344136!16s%2Fg%2F11c2k4n968!19sChIJ55Q2uT2ugTkR7F_tZqns9WE?authuser=0&hl=en&rclk=1,"23.1800052,79.9344136"
Namazgah Ansar Nagar,Mosque,"Namazgah Ansar Nagar, 897, Ansar Nagar, Gohalpur, Jabalpur, Madhya Pradesh 482002","Ansar Nagar, Gohalpur",897,Jabalpur,482002,Madhya Pradesh,IN,https://www.google.com/maps/place/Namazgah+Ansar+Nagar/data=!4m7!3m6!1s0x3981ae379454ba23:0x38ea838f08a79643!8m2!3d23.1915637!4d79.9400633!16s%2Fg%2F11g8bgc988!19sChIJI7pUlDeugTkRQ5anCI-D6jg?authuser=0&hl=en&rclk=1,"23.1915637,79.94006329999999"
Masjid Police Line,Mosque,"5X92+W7H Masjid Police Line, Police Lines, South Civil Lines, Jabalpur, Madhya Pradesh 482007","Police Lines, South Civil Lines",5X92+W7H,Jabalpur,482007,Madhya Pradesh,IN,https://www.google.com/maps/place/Masjid+Police+Line/data=!4m7!3m6!1s0x3981af73b880536b:0x63fc674aee3ca74c!8m2!3d23.1698106!4d79.9507306!16s%2Fg%2F11gl0_33sl!19sChIJa1OAuHOvgTkRTKc87kpn_GM?authuser=0&hl=en&rclk=1,"23.169810599999998,79.9507306"
Al Jamiatul Gausiya Khanqah E Qasmiya,Mosque,"5WPP+P9J Al Jamiatul Gausiya Khanqah E Qasmiya, Gohalpur, Jabalpur, Madhya Pradesh 482002",Gohalpur,5WPP+P9J,Jabalpur,482002,Madhya Pradesh,IN,https://www.google.com/maps/place/Al+Jamiatul+Gausiya+Khanqah+E+Qasmiya/data=!4m7!3m6!1s0x3981ae3bd5b1bbfd:0xf54298f515c76a3a!8m2!3d23.1868338!4d79.9358845!16s%2Fg%2F11g8xg7kjj!19sChIJ_bux1TuugTkROmrHFfWYQvU?authuser=0&hl=en&rclk=1,"23.1868338,79.9358845"
Eidgah Sadar Bazar,Mosque,"5W2X+P9C Eidgah Sadar Bazar, Sadar, Jabalpur, Madhya Pradesh 482001",Sadar,5W2X+P9C,Jabalpur,482001,Madhya Pradesh,IN,https://www.google.com/maps/place/Eidgah+Sadar+Bazar/data=!4m7!3m6!1s0x3981add923363acf:0x12e55decd83642b5!8m2!3d23.1518231!4d79.9483895!16s%2Fg%2F11d_74fk5r!19sChIJzzo2I9mtgTkRtUI22Oxd5RI?authuser=0&hl=en&rclk=1,"23.151823099999998,79.94838949999999"
Momin Eidgah,Mosque,"5WRP+354 Momin Eidgah, Miloni Ganj Road, Suji Mohalla, Gohalpur, Jabalpur, GCF Jabalpur, Madhya Pradesh 482002","Suji Mohalla, Gohalpur","5WRP+354, Miloni Ganj Road","Jabalpur, GCF Jabalpur",482002,Madhya Pradesh,IN,https://www.google.com/maps/place/Momin+Eidgah/data=!4m7!3m6!1s0x3981ae30a85c3b99:0x4993359d1b5bddbc!8m2!3d23.1901404!4d79.9354619!16s%2Fg%2F11c4lq5v15!19sChIJmTtcqDCugTkRvN1bG501k0k?authuser=0&hl=en&rclk=1,"23.1901404,79.93546189999999"
MASJID,Mosque,"5W52+CCM MASJID, Garha, Jabalpur, Madhya Pradesh 482003",Garha,5W52+CCM,Jabalpur,482003,Madhya Pradesh,IN,https://www.google.com/maps/place/MASJID/data=!4m7!3m6!1s0x3981b1f38b37f63f:0x2910e00f4931f4f3!8m2!3d23.158593!4d79.901035!16s%2Fg%2F11f155r734!19sChIJP_Y3i_OxgTkR8_QxSQ_gECk?authuser=0&hl=en&rclk=1,"23.158593,79.901035"
Madai Ki Masjid richai,Mosque,"6X9P+2MM Madai Ki Masjid richai, madai bharat colony vfj new durga mandir shiv mandir bharat colony sant xavier school ke samne, Jabalpur","Billapur Colony, Madai","6X9P+2MM, madai bharat colony vfj new durga mandir shiv mandir bharat colony sant xavier school ke samne",Jabalpur,,Madhya Pradesh,IN,https://www.google.com/maps/place/Madai+Ki+Masjid+richai/data=!4m7!3m6!1s0x3981af6674510325:0x978d48b4bdd33d15!8m2!3d23.2175947!4d79.9866721!16s%2Fg%2F11h045m3t4!19sChIJJQNRdGavgTkRFT3TvbRIjZc?authuser=0&hl=en&rclk=1,"23.2175947,79.98667209999999"
Chhoti Masjid Ansar Nagar,Mosque,"5WRQ+6GH Chhoti Masjid Ansar Nagar, Ansar Nagar, Gohalpur, Jabalpur, Madhya Pradesh 482002","Ansar Nagar, Gohalpur",5WRQ+6GH,Jabalpur,482002,Madhya Pradesh,IN,https://www.google.com/maps/place/Chhoti+Masjid+Ansar+Nagar/data=!4m7!3m6!1s0x3981ae377f551f09:0x395b6d0c78ff059f!8m2!3d23.1905624!4d79.9388469!16s%2Fg%2F11c4stx0sv!19sChIJCR9VfzeugTkRnwX_eAxtWzk?authuser=0&hl=en&rclk=1,"23.190562399999997,79.9388469"
Masjid Sharfabad,Mosque,"5WVW+H9Q Masjid Sharfabad, Anand Nagar, Adhartal, Jabalpur, Madhya Pradesh 482004","Anand Nagar, Adhartal",5WVW+H9Q,Jabalpur,482004,Madhya Pradesh,IN,https://www.google.com/maps/place/Masjid+Sharfabad/data=!4m7!3m6!1s0x3981ae49218882d7:0x523b98a42c954a95!8m2!3d23.1939573!4d79.9459819!16s%2Fg%2F11g5_f9ys2!19sChIJ14KIIUmugTkRlUqVLKSYO1I?authuser=0&hl=en&rclk=1,"23.193957299999997,79.94598189999999"
Hanfiya Masjid Madani Markaz Dawateislami,Mosque,"5WQR+Q4Q Hanfiya Masjid Madani Markaz Dawateislami, Bahorabag, Jabalpur, Ansar Nagar, Gohalpur, Jabalpur, Madhya Pradesh 482002","Ansar Nagar, Gohalpur","5WQR+Q4Q, Bahorabag, Jabalpur",Jabalpur,482002,Madhya Pradesh,IN,https://www.google.com/maps/place/Hanfiya+Masjid+Madani+Markaz+Dawateislami/data=!4m7!3m6!1s0x3981ae3817bc2c0b:0x6baee2cd3f26a3b!8m2!3d23.1894572!4d79.9403667!16s%2Fg%2F11dz3fflcp!19sChIJCyy8FziugTkRO2ry0yzuugY?authuser=0&hl=en&rclk=1,"23.1894572,79.9403667"
FAIZAN E MADINA JABALPUR,Mosque,"5XW2+H57 FAIZAN E MADINA JABALPUR, Mansarovar Colony, Adhartal, Jabalpur, Madhya Pradesh 482004","Mansarovar Colony, Adhartal",5XW2+H57,Jabalpur,482004,Madhya Pradesh,IN,https://www.google.com/maps/place/FAIZAN+E+MADINA+JABALPUR/data=!4m7!3m6!1s0x3981af1d3b7bb3a9:0x25097433d8fc7d1f!8m2!3d23.1964194!4d79.9504321!16s%2Fg%2F11rgx35fqy!19sChIJqbN7Ox2vgTkRH3382DN0CSU?authuser=0&hl=en&rclk=1,"23.1964194,79.9504321"
Ahmadi Namaj Gah,Mosque,"5WVM+344 Ahmadi Namaj Gah, Ahmad Nagar, Gohalpur, Jabalpur, Madhya Pradesh 482001","Ahmad Nagar, Adhartal","5WVM+344, Ahmad Nagar, Gohalpur","Jabalpur, GCF Jabalpur",482001,Madhya Pradesh,IN,https://www.google.com/maps/place/Ahmadi+Namaj+Gah/data=!4m7!3m6!1s0x3981ae30536c9a41:0x7039aa6865242a6a!8m2!3d23.1926414!4d79.9328313!16s%2Fg%2F11cr_m46cm!19sChIJQZpsUzCugTkRaiokZWiqOXA?authuser=0&hl=en&rclk=1,"23.1926414,79.93283129999999"
Kunjrai Masjid,Mosque,"5WHR+R5J Kunjrai Masjid, Bhantalaiya, Anwar Ganj, Jabalpur, Madhya Pradesh 482002","Bhantalaiya, Anwar Ganj",5WHR+R5J,Jabalpur,482002,Madhya Pradesh,IN,https://www.google.com/maps/place/Kunjrai+Masjid/data=!4m7!3m6!1s0x3981ae3fe985f347:0xbad98af1f8dfabdd!8m2!3d23.1795958!4d79.9403888!16s%2Fg%2F11bz0sj1rn!19sChIJR_OF6T-ugTkR3avf-PGK2bo?authuser=0&hl=en&rclk=1,"23.179595799999998,79.9403888"
Jama Masjid Type 2,Mosque,"Jama Masjid Type 2, Type 2, EastLand Khamaria, Jabalpur, Bilpura, Madhya Pradesh 482005","Type 2, EastLand Khamaria",,"Jabalpur, Bilpura",482005,Madhya Pradesh,IN,https://www.google.com/maps/place/Jama+Masjid+Type+2/data=!4m7!3m6!1s0x3981a9120fdf8d11:0xfff62aa153cf0d66!8m2!3d23.2084311!4d80.0389577!16s%2Fg%2F11gv276f0c!19sChIJEY3fDxKpgTkRZg3PU6Eq9v8?authuser=0&hl=en&rclk=1,"23.2084311,80.0389577"
MASJID NORANI,Mosque,"482002, MASJID NORANI, 632-948, Machharhai Rd, Andherdeo, Ganjipura, Jabalpur, Madhya Pradesh 482002","Andherdeo, Ganjipura","482002, 632-948, Machharhai Rd",Jabalpur,482002,Madhya Pradesh,IN,https://www.google.com/maps/place/MASJID+NORANI/data=!4m7!3m6!1s0x3981ae17165f541b:0x4b7078b8c62c685d!8m2!3d23.1737674!4d79.9323201!16s%2Fg%2F11f08q924z!19sChIJG1RfFheugTkRXWgsxrh4cEs?authuser=0&hl=en&rclk=1,"23.1737674,79.9323201"
Masjid Bawli,Mosque,"5W86+PM8 Masjid Bawli, Garha Rd, Jai Nagar, Yadav Colony, Jabalpur, New Adaresh Colony, Madhya Pradesh 482002","Jai Nagar, Yadav Colony","5W86+PM8, Garha Rd","Jabalpur, New Adaresh Colony",482002,Madhya Pradesh,IN,https://www.google.com/maps/place/Masjid+Bawli/data=!4m7!3m6!1s0x3981b1ccb2dec873:0x28557738fc832ee3!8m2!3d23.1667862!4d79.9116996!16s%2Fg%2F11hz9bm9xd!19sChIJc8jessyxgTkR4y6D_Dh3VSg?authuser=0&hl=en&rclk=1,"23.1667862,79.91169959999999"
MASJID UMAR FAROOKH,Mosque,"5WXQ+8RP MASJID UMAR FAROOKH, Rahim Nagar, Bhumi Vikash Bank Colony, Adhartal, Jabalpur, Madhya Pradesh 482004","Bhumi Vikash Bank Colony, Adhartal","5WXQ+8RP, Rahim Nagar",Jabalpur,482004,Madhya Pradesh,IN,https://www.google.com/maps/place/MASJID+UMAR+FAROOKH/data=!4m7!3m6!1s0x3981ae35e979b381:0x16be8d1a361da4b9!8m2!3d23.1983436!4d79.9395678!16s%2Fg%2F11g8_26kqn!19sChIJgbN56TWugTkRuaQdNhqNvhY?authuser=0&hl=en&rclk=1,"23.198343599999998,79.93956779999999"
Masjid Abubakar Rz,Mosque,"5WQQ+FMR Masjid Abubakar Rz, Char Khamba Rd, Ansar Nagar, Gohalpur, Jabalpur, Madhya Pradesh 482002","Ansar Nagar, Gohalpur","5WQQ+FMR, Char Khamba Rd",Jabalpur,482002,Madhya Pradesh,IN,https://www.google.com/maps/place/Masjid+Abubakar+Rz/data=!4m7!3m6!1s0x3981ae382a56a8b7:0x6bf90c3e91189df2!8m2!3d23.1887334!4d79.9391376!16s%2Fg%2F11g9w6l3hh!19sChIJt6hWKjiugTkR8p0YkT4M-Ws?authuser=0&hl=en&rclk=1,"23.1887334,79.9391376"
hjrt saiyyd kutub shaah alii murtujaa rhmtullaah alaih gddhaa jblpur,Mosque,"5V6W+3X8 hjrt saiyyd kutub shaah alii murtujaa rhmtullaah alaih gddhaa jblpur, 10, Garha Bazar Rd, Subhash Nagar, Garha, Jabalpur, Madhya Pradesh 482003","Subhash Nagar, Garha","5V6W+3X8, 10, Garha Bazar Rd",Jabalpur,482003,Madhya Pradesh,IN,https://www.google.com/maps/place/%E0%A4%B9%E0%A4%9C%E0%A4%B0%E0%A4%A4+%E0%A4%B8%E0%A5%88%E0%A4%AF%E0%A5%8D%E0%A4%AF%E0%A4%A6+%E0%A4%95%E0%A5%81%E0%A4%A4%E0%A5%81%E0%A4%AC+%E0%A4%B6%E0%A4%BE%E0%A4%B9+%E0%A4%85%E0%A4%B2%E0%A5%80+%E0%A4%AE%E0%A5%81%E0%A4%B0%E0%A5%8D%E0%A4%A4%E0%A5%81%E0%A4%9C%E0%A4%BE+%E0%A4%B0%E0%A4%B9%E0%A4%AE%E0%A4%A4%E0%A5%81%E0%A4%B2%E0%A5%8D%E0%A4%B2%E0%A4%BE%E0%A4%B9+%E0%A4%85%E0%A4%B2%E0%A5%88%E0%A4%B9+%E0%A4%97%E0%A4%A2%E0%A4%BE+%E0%A4%9C%E0%A4%AC%E0%A4%B2%E0%A4%AA%E0%A5%81%E0%A4%B0/data=!4m7!3m6!1s0x3981b1f7fffcc8d1:0x9fd0e53ca113378f!8m2!3d23.161039!4d79.8973548!16s%2Fg%2F11thc1blmz!19sChIJ0cj8__exgTkRjzcToTzl0J8?authuser=0&hl=en&rclk=1,"23.161039,79.8973548"
Muhammadi masjid ahlehadees,Mosque,"5WQQ+XM4 Muhammadi masjid ahlehadees, Ansar Nagar, Gohalpur, Jabalpur, Madhya Pradesh 482002","Ansar Nagar, Gohalpur",5WQQ+XM4,Jabalpur,482002,Madhya Pradesh,IN,https://www.google.com/maps/place/Muhammadi+masjid+ahlehadees/data=!4m7!3m6!1s0x3981af2f02785a49:0xbca06a2d97feaeb3!8m2!3d23.1898946!4d79.9392174!16s%2Fg%2F11j7_y8nls!19sChIJSVp4Ai-vgTkRs67-ly1qoLw?authuser=0&hl=en&rclk=1,"23.1898946,79.93921739999999"
Jama Masjid Allle Sunmat,Mosque,"Jama Masjid Allle Sunmat, Narayan Nagar ,Garha, MP SH 22, Gole Bazar, Garha, Jabalpur, Madhya Pradesh 482003","Gole Bazar, Garha","Narayan Nagar ,Garha, MP SH 22",Jabalpur,482003,Madhya Pradesh,IN,https://www.google.com/maps/place/Jama+Masjid+Allle+Sunmat/data=!4m7!3m6!1s0x3981b1f326730439:0x665e6736c3c49ec4!8m2!3d23.1607137!4d79.8976763!16s%2Fg%2F11c0xtlcx7!19sChIJOQRzJvOxgTkRxJ7EwzZnXmY?authuser=0&hl=en&rclk=1,"23.1607137,79.8976763"
Abu Zar Radhiallahu Anhu Mosque,Mosque,"5WXQ+8RP Abu Zar Radhiallahu Anhu Mosque, Rahim Nagar, Bhumi Vikash Bank Colony, Adhartal, Jabalpur, Madhya Pradesh 482002","Bhumi Vikash Bank Colony, Adhartal","5WXQ+8RP, Rahim Nagar",Jabalpur,482002,Madhya Pradesh,IN,https://www.google.com/maps/place/Abu+Zar+Radhiallahu+Anhu+Mosque/data=!4m7!3m6!1s0x3981ae346b5bc405:0x9bac422be1997d96!8m2!3d23.1983436!4d79.9395678!16s%2Fg%2F11ggw7sq_3!19sChIJBcRbazSugTkRln2Z4StCrJs?authuser=0&hl=en&rclk=1,"23.198343599999998,79.93956779999999"
Masjid Burhaniya Gokalpur,Mosque,"5XQM+V29 Masjid Burhaniya Gokalpur, near Panchyati Kua, Ranjhi, Gokalpur, Jabalpur, Madhya Pradesh 482011","Ranjhi, Gokalpur","5XQM+V29, near Panchyati Kua",Jabalpur,482011,Madhya Pradesh,IN,https://www.google.com/maps/place/Masjid+Burhaniya+Gokalpur/data=!4m7!3m6!1s0x3981aee91bf6a533:0xa2597fac7f586d4d!8m2!3d23.189673!4d79.982625!16s%2Fg%2F11bzzvdfqk!19sChIJM6X2G-mugTkRTW1Yf6x_WaI?authuser=0&hl=en&rclk=1,"23.189673,79.982625"
D.M. office,Mosque,"D.M. office, Adhartal D.m office , Madhya Pradesh 482002",Adhartal,Adhartal D.m office ,"Jabalpur, Vehicle Fac. Jabalpur",482002,Madhya Pradesh,IN,https://www.google.com/maps/place/D.M.+office/data=!4m7!3m6!1s0x3981afa7e445b0c1:0xa608451c2ae4aa19!8m2!3d23.1900629!4d79.9498652!16s%2Fg%2F11h0mhw_2l!19sChIJwbBF5KevgTkRGarkKhxFCKY?authuser=0&hl=en&rclk=1,"23.190062899999997,79.94986519999999"
"Mosque, Gorakhpur, msj'id",Mosque,"Mosque, Gorakhpur, msj'id, 1399, Gorakhpur Rd, Gorakhpur, Jabalpur, Madhya Pradesh 482001",Gorakhpur,"1399, Gorakhpur Rd",Jabalpur,482001,Madhya Pradesh,IN,"https://www.google.com/maps/place/Mosque,+Gorakhpur,+%E0%A4%AE%E0%A4%B8%E0%A5%8D%E0%A4%9C%E0%A4%BC%E0%A4%BF%E0%A4%A6/data=!4m7!3m6!1s0x3981adc6f863cc15:0x541f68538e023186!8m2!3d23.1518299!4d79.9325095!16s%2Fg%2F11hdz86ypj!19sChIJFcxj-MatgTkRhjECjlNoH1Q?authuser=0&hl=en&rclk=1","23.1518299,79.9325095"
MASJID Khatija tul Kubra ( Huda Madarsa),Mosque,"5WPQ+V9H MASJID Khatija tul Kubra ( Huda Madarsa), Gohalpur, Jabalpur, Madhya Pradesh 482002",Gohalpur,5WPQ+V9H,Jabalpur,482002,Madhya Pradesh,IN,https://www.google.com/maps/place/MASJID+Khatija+tul+Kubra+%28+Huda+Madarsa%29/data=!4m7!3m6!1s0x3981ae3907528475:0x5e6d4a1f0372d284!8m2!3d23.1871887!4d79.9384982!16s%2Fg%2F11dz_2rk_t!19sChIJdYRSBzmugTkRhNJyAx9KbV4?authuser=0&hl=en&rclk=1,"23.1871887,79.9384982"
Machine wale baba ki dargah,Mosque,"5W9Q+HVV Machine wale baba ki dargah, Ghantaghar Square Ghantaghar, Madhya Pradesh 482001",Naya Mohalla,"5W9Q+HVV, Ghantaghar Square Ghantaghar",Jabalpur,482001,Madhya Pradesh,IN,https://www.google.com/maps/place/Machine+wale+baba+ki+dargah/data=!4m7!3m6!1s0x3981afcffc1e0d95:0xf9abaf3e385c0166!8m2!3d23.1689899!4d79.939662!16s%2Fg%2F11h_tf4hcc!19sChIJlQ0e_M-vgTkRZgFcOD6vq_k?authuser=0&hl=en&rclk=1,"23.1689899,79.939662"
Masjid Kale Kha,Mosque,"5WGV+56P Masjid Kale Kha, Gurandi, Jabalpur, Madhya Pradesh 482002",Gurandi,5WGV+56P,Jabalpur,482002,Madhya Pradesh,IN,https://www.google.com/maps/place/Masjid+Kale+Kha/data=!4m7!3m6!1s0x3981ae6b1f598c7d:0x71666ad831b3ae23!8m2!3d23.175456!4d79.9430709!16s%2Fg%2F11f3zm8lz0!19sChIJfYxZH2uugTkRI66zMdhqZnE?authuser=0&hl=en&rclk=1,"23.175456,79.9430709"
MASJID DHUMAN KHAN,Mosque,"5WFR+HW7 MASJID DHUMAN KHAN, Gurandi, Jabalpur, Madhya Pradesh 482002",Gurandi,5WFR+HW7,Jabalpur,482002,Madhya Pradesh,IN,https://www.google.com/maps/place/MASJID+DHUMAN+KHAN/data=!4m7!3m6!1s0x3981ae6b48badb53:0x68fd228daeb63089!8m2!3d23.1739122!4d79.9423066!16s%2Fg%2F11fxdzr6jw!19sChIJU9u6SGuugTkRiTC2ro0i_Wg?authuser=0&hl=en&rclk=1,"23.1739122,79.9423066"
masjid noor e madina,Mosque,"5XJP+HHM masjid noor e madina, Central Ordinance Depot Area, Jabalpur, Madhya Pradesh 482001",Central Ordinance Depot Area,5XJP+HHM,Jabalpur,,Madhya Pradesh,IN,https://www.google.com/maps/place/masjid+noor+e+madina/data=!4m7!3m6!1s0x3981aff57c3d4825:0x8d9c48e7d4c6f4a8!8m2!3d23.1814669!4d79.986407!16s%2Fg%2F11grpr95b1!19sChIJJUg9fPWvgTkRqPTG1OdInI0?authuser=0&hl=en&rclk=1,"23.1814669,79.986407"
Gulshane Tayyaba Masjid,Mosque,"5W32+X6R Gulshane Tayyaba Masjid, Gurudev Colony, Jabalpur, Madhya Pradesh 482003",Gurudev Colony,5W32+X6R,Jabalpur,482003,Madhya Pradesh,IN,https://www.google.com/maps/place/Gulshane+Tayyaba+Masjid/data=!4m7!3m6!1s0x3981b1bc97abfc45:0xcd5b5338e2585117!8m2!3d23.1549932!4d79.9005144!16s%2Fg%2F11fk1sc680!19sChIJRfyrl7yxgTkRF1FY4jhTW80?authuser=0&hl=en&rclk=1,"23.1549932,79.90051439999999"
Masjid Aqsa-E-Raza Ahl-E-Sunnat Wal Jamaat,Mosque,"Masjid Aqsa-E-Raza Ahl-E-Sunnat Wal Jamaat, 1161, Neta Colony, Adhartal, Jabalpur, Madhya Pradesh 482002","Neta Colony, Adhartal",1161,Jabalpur,482002,Madhya Pradesh,IN,https://www.google.com/maps/place/Masjid+Aqsa-E-Raza+Ahl-E-Sunnat+Wal+Jamaat/data=!4m7!3m6!1s0x3981af7235682ec7:0x89b1464cd768ade1!8m2!3d23.1946984!4d79.9532582!16s%2Fg%2F11t1qtnm1z!19sChIJxy5oNXKvgTkR4a1o10xGsYk?authuser=0&hl=en&rclk=1,"23.1946984,79.9532582"
Rasheed Ganz Masjid,Mosque,"5WCP+3WQ Rasheed Ganz Masjid, Naya Mohalla, Jabalpur, Madhya Pradesh 482002",Naya Mohalla,5WCP+3WQ,Jabalpur,482002,Madhya Pradesh,IN,https://www.google.com/maps/place/Rasheed+Ganz+Masjid/data=!4m7!3m6!1s0x3981ae13c7deee71:0xc96d7be214585bf1!8m2!3d23.1702088!4d79.9373531!16s%2Fg%2F11bztf5t0w!19sChIJce7exxOugTkR8VtYFOJ7bck?authuser=0&hl=en&rclk=1,"23.170208799999997,79.9373531"
masjid tajus salam,Mosque,"5WMV+F3W masjid tajus salam, badi madar tekri, Madhya Pradesh 482002",Gohalpur,"5WMV+F3W, badi madar tekri","Jabalpur, Vehicle Fac. Jabalpur",482002,Madhya Pradesh,IN,https://www.google.com/maps/place/masjid+tajus+salam/data=!4m7!3m6!1s0x3981af3f88d571d3:0xa8998dd7773e61c3!8m2!3d23.1837496!4d79.9427123!16s%2Fg%2F11gy9tn1sk!19sChIJ03HViD-vgTkRw2E-d9eNmag?authuser=0&hl=en&rclk=1,"23.1837496,79.9427123"
Madni Masjid,Mosque,"Madni Masjid, 464, Mukadam Ganj Rd, Galgala, Mukadam Ganj Rd, Galgala, Jabalpur, Madhya Pradesh 482002",Galgala,"464, Mukadam Ganj Rd, Galgala, Mukadam Ganj Rd",Jabalpur,482002,Madhya Pradesh,IN,https://www.google.com/maps/place/Madni+Masjid/data=!4m7!3m6!1s0x3981ae16a69e962f:0xd0d80bda23016a56!8m2!3d23.1733238!4d79.9357258!16s%2Fg%2F11dylwqmrd!19sChIJL5aephaugTkRVmoBI9oL2NA?authuser=0&hl=en&rclk=1,"23.1733238,79.9357258"
Bajrang Colony Masjid,Mosque,"5X94+MXC Bajrang Colony Masjid, Rail Sourabh Colony, Jabalpur, Madhya Pradesh 482001",Rail Sourabh Colony,5X94+MXC,Jabalpur,482001,Madhya Pradesh,IN,https://www.google.com/maps/place/Bajrang+Colony+Masjid/data=!4m7!3m6!1s0x3981afa9b9581075:0x6b075e3331e75ff!8m2!3d23.1691846!4d79.9573977!16s%2Fg%2F11hm2mmcs5!19sChIJdRBYuamvgTkR_3UeM-N1sAY?authuser=0&hl=en&rclk=1,"23.169184599999998,79.9573977"
Shia Jama Masjid,Mosque,"5WGQ+H8X Shia Jama Masjid, Sarafa Rd, Lakadganj, Hanumantal Ward, Jabalpur, Madhya Pradesh 482002","Lakadganj, Hanumantal Ward","5WGQ+H8X, Sarafa Rd",Jabalpur,482002,Madhya Pradesh,IN,https://www.google.com/maps/place/Shia+Jama+Masjid/data=!4m7!3m6!1s0x3981af741cebe473:0xa5e8b4400dbc5d92!8m2!3d23.1764853!4d79.9383648!16s%2Fg%2F11mxdb7ryv!19sChIJc-TrHHSvgTkRkl28DUC06KU?authuser=0&hl=en&rclk=1,"23.1764853,79.9383648"
Masjid-e-Quba,Mosque,"5WQX+2Q6 Masjid-e-Quba, Adhartal, Jabalpur, Madhya Pradesh 482002",Adhartal,5WQX+2Q6,Jabalpur,482002,Madhya Pradesh,IN,https://www.google.com/maps/place/Masjid-e-Quba/data=!4m7!3m6!1s0x3981afc9f71d28ad:0x3c7167993542983d!8m2!3d23.1875428!4d79.9493789!16s%2Fg%2F11hzsmxqb2!19sChIJrSgd98mvgTkRPZhCNZlncTw?authuser=0&hl=en&rclk=1,"23.1875428,79.9493789"
MASJID GOSIYA,Mosque,"5WGP+QW4 MASJID GOSIYA, Khatik Mohalla, Jabalpur, Madhya Pradesh 482002",Khatik Mohalla,5WGP+QW4,Jabalpur,482002,Madhya Pradesh,IN,https://www.google.com/maps/place/MASJID+GOSIYA/data=!4m7!3m6!1s0x3981ae15ea84e74f:0x19db503298c21748!8m2!3d23.1768809!4d79.9373366!16s%2Fg%2F11g8_0gt1g!19sChIJT-eE6hWugTkRSBfCmDJQ2xk?authuser=0&hl=en&rclk=1,"23.1768809,79.9373366"
Zubeidaa Masjid Transport Nagar,Place of worship,"6XQ8+Q4G Zubeidaa Masjid Transport Nagar, Maharajpur, Jabalpur, GCF Jabalpur, Madhya Pradesh 482004",Maharajpur,6XQ8+Q4G,"Jabalpur, GCF Jabalpur",482004,Madhya Pradesh,IN,https://www.google.com/maps/place/Zubeidaa+Masjid+Transport+Nagar/data=!4m7!3m6!1s0x3981af7818d29969:0x72c127c075c5f0f1!8m2!3d23.2394294!4d79.9653167!16s%2Fg%2F11gbt22xgc!19sChIJaZnSGHivgTkR8fDFdcAnwXI?authuser=0&hl=en&rclk=1,"23.2394294,79.9653167"
Bilal masjid,Mosque,"Bilal masjid, Akbar ka bada, Ganga sagar, Madan Mahal Railway Station Rd, Jabalpur, 482003",Ranipur,"Akbar ka bada, Ganga sagar, Madan Mahal Railway Station Rd",Jabalpur,482003,Madhya Pradesh,IN,https://www.google.com/maps/place/Bilal+masjid/data=!4m7!3m6!1s0x3981b1b285672d69:0x2f2cfa0180d347c1!8m2!3d23.1594774!4d79.9109852!16s%2Fg%2F11ptz_fnvm!19sChIJaS1nhbKxgTkRwUfTgAH6LC8?authuser=0&hl=en&rclk=1,"23.1594774,79.9109852"
masjid Subhedar,Mosque,"5WHR+F76 masjid Subhedar, Hanumantal Ward, Jabalpur, Madhya Pradesh 482002",Hanumantal Ward,5WHR+F76,Jabalpur,482002,Madhya Pradesh,IN,https://www.google.com/maps/place/masjid+Subhedar/data=!4m7!3m6!1s0x3981afc482502bdd:0x4b693ee08c2e2e23!8m2!3d23.1786517!4d79.9406336!16s%2Fg%2F11gh9fn_8q!19sChIJ3StQgsSvgTkRIy4ujOA-aUs?authuser=0&hl=en&rclk=1,"23.1786517,79.9406336"
Chistiya Masjid ahle sunnat wal jamaat,Mosque,"5WGQ+5W6 Chistiya Masjid ahle sunnat wal jamaat, Lakarganj Masjid Rd, Hanumantal Ward, Jabalpur, Madhya Pradesh 482002",Hanumantal Ward,"5WGQ+5W6, Lakarganj Masjid Rd",Jabalpur,482002,Madhya Pradesh,IN,https://www.google.com/maps/place/Chistiya+Masjid+ahle+sunnat+wal+jamaat/data=!4m7!3m6!1s0x3981afed387a53eb:0xfb906fe1ace6f5d4!8m2!3d23.1754183!4d79.9397661!16s%2Fg%2F11kpvzhn5n!19sChIJ61N6OO2vgTkR1PXmrOFvkPs?authuser=0&hl=en&rclk=1,"23.1754183,79.9397661"
Noor Masjid,Mosque,"5WQM+2W7 Noor Masjid, Suji Mohalla, Gohalpur, Jabalpur, GCF Jabalpur, Madhya Pradesh 482002","Suji Mohalla, Gohalpur",5WQM+2W7,"Jabalpur, GCF Jabalpur",482002,Madhya Pradesh,IN,https://www.google.com/maps/place/Noor+Masjid/data=!4m7!3m6!1s0x3981af091ee0f19b:0x48b2ec137855958a!8m2!3d23.1875384!4d79.9347849!16s%2Fg%2F11h07fyhy5!19sChIJm_HgHgmvgTkRipVVeBPsskg?authuser=0&hl=en&rclk=1,"23.187538399999998,79.9347849"
Military masjid,Mosque,"4XX5+76Q Military masjid, Mandla - Jabalpur Rd, Cantt, Jabalpur, Madhya Pradesh 482001",Cantt,"4XX5+76Q, Mandla - Jabalpur Rd",Jabalpur,482001,Madhya Pradesh,IN,https://www.google.com/maps/place/Military+masjid/data=!4m7!3m6!1s0x3981ad9e44244dd5:0xa7a94dec374e29ed!8m2!3d23.1482057!4d79.9581166!16s%2Fg%2F11q_p70l51!19sChIJ1U0kRJ6tgTkR7SlON-xNqac?authuser=0&hl=en&rclk=1,"23.1482057,79.9581166"
Masjid Shareef Ridge Road,Place of worship,"5X2F+HRG Masjid Shareef Ridge Road, Lekha Nagar, Jabalpur, Madhya Pradesh 482001",Lekha Nagar,5X2F+HRG,Jabalpur,482001,Madhya Pradesh,IN,https://www.google.com/maps/place/Masjid+Shareef+Ridge+Road/data=!4m7!3m6!1s0x3981ac2f5366f71f:0xc0bc08b3d484301!8m2!3d23.1514306!4d79.9745789!16s%2Fg%2F11cls7fm2h!19sChIJH_dmUy-sgTkRAUNIPYvACww?authuser=0&hl=en&rclk=1,"23.151430599999998,79.9745789"
Galgala Shia Imambada,Mosque,"5WGP+7XC Galgala Shia Imambada, Footatal Chowk, Khatik Mohalla, Jabalpur, Madhya Pradesh 482002","Footatal Chowk, Khatik Mohalla",5WGP+7XC,Jabalpur,482002,Madhya Pradesh,IN,https://www.google.com/maps/place/Galgala+Shia+Imambada/data=!4m7!3m6!1s0x3981af0de6d3fe79:0x51d122be6483383b!8m2!3d23.1756989!4d79.9373784!16s%2Fg%2F11f669gh2t!19sChIJef7T5g2vgTkROziDZL4i0VE?authuser=0&hl=en&rclk=1,"23.1756989,79.9373784"
Aala Hazrat Namazgah,Mosque,"5WRW+5FH Aala Hazrat Namazgah, Adhartal, Jabalpur, Madhya Pradesh 482002",Adhartal,5WRW+5FH,Jabalpur,482002,Madhya Pradesh,IN,https://www.google.com/maps/place/Aala+Hazrat+Namazgah/data=!4m7!3m6!1s0x3981afd9810f8c11:0xa1f6ed2ad345503f!8m2!3d23.1904274!4d79.9462216!16s%2Fg%2F11lggml6r5!19sChIJEYwPgdmvgTkRP1BF0yrt9qE?authuser=0&hl=en&rclk=1,"23.190427399999997,79.9462216"
Masjid Salmaan Darul Uloom Haqqia,Mosque,"5XV2+3M5 Masjid Salmaan Darul Uloom Haqqia, Azad Nagar, Adhartal, Jabalpur, Madhya Pradesh 482004","Azad Nagar, Adhartal",5XV2+3M5,Jabalpur,482004,Madhya Pradesh,IN,https://www.google.com/maps/place/Masjid+Salmaan+Darul+Uloom+Haqqia/data=!4m7!3m6!1s0x3981afd3ebfd845b:0x8fe4d00e3a3daa42!8m2!3d23.1926275!4d79.9517225!16s%2Fg%2F11qn0bw3s8!19sChIJW4T969OvgTkRQqo9Og7Q5I8?authuser=0&hl=en&rclk=1,"23.1926275,79.9517225"
Masjid Noor E Madina,Mosque,"5WVP+PPV Masjid Noor E Madina, Bharat Nagar, Adhartal, Jabalpur, GCF Jabalpur, Madhya Pradesh 482002","Bharat Nagar, Adhartal",5WVP+PPV,"Jabalpur, GCF Jabalpur",482002,Madhya Pradesh,IN,https://www.google.com/maps/place/Masjid+Noor+E+Madina/data=!4m7!3m6!1s0x3981af54d9e40b3d:0xb3317816440a7356!8m2!3d23.194372!4d79.9367822!16s%2Fg%2F11j01pw327!19sChIJPQvk2VSvgTkRVnMKRBZ4MbM?authuser=0&hl=en&rclk=1,"23.194371999999998,79.9367822"
Masjid-e-Umar Bin Khattab(RZ),Mosque,"4VPH+8Q5 Masjid-e-Umar Bin Khattab(RZ), Bargi Hills, Jabalpur, Madhya Pradesh 482003",Bargi Hills,4VPH+8Q5,Jabalpur,482003,Madhya Pradesh,IN,https://www.google.com/maps/place/Masjid-e-Umar+Bin+Khattab%28RZ%29/data=!4m7!3m6!1s0x3981b342ab711ca1:0x54a9142f79014409!8m2!3d23.1357671!4d79.8794864!16s%2Fg%2F11fnx6h5gp!19sChIJoRxxq0KzgTkRCUQBeS8UqVQ?authuser=0&hl=en&rclk=1,"23.1357671,79.87948639999999"
Masjid Patthar Phod msjid ptthr phodd',Mosque,"5WPQ+W8J Masjid Patthar Phod msjid ptthr phodd', Gohalpur, Jabalpur, Madhya Pradesh 482002",Gohalpur,5WPQ+W8J,Jabalpur,482002,Madhya Pradesh,IN,https://www.google.com/maps/place/Masjid+Patthar+Phod+%E0%A4%AE%E0%A4%B8%E0%A5%8D%E0%A4%9C%E0%A4%BF%E0%A4%A6+%E0%A4%AA%E0%A4%A4%E0%A5%8D%E0%A4%A5%E0%A4%B0+%E0%A4%AB%E0%A5%8B%E0%A4%A1%E0%A4%BC/data=!4m7!3m6!1s0x3981af4ec0ac3a81:0xbc293d54558a5c8e!8m2!3d23.1873475!4d79.9382523!16s%2Fg%2F11j3gbh3z2!19sChIJgTqswE6vgTkRjlyKVVQ9Kbw?authuser=0&hl=en&rclk=1,"23.187347499999998,79.9382523"
Masjid Zulaikha (Ahle Sunnat),Mosque,"6W3J+VG Masjid Zulaikha (Ahle Sunnat), GCF Jabalpur, Madhya Pradesh 482004",,6W3J+VG,GCF Jabalpur,,Madhya Pradesh,IN,https://www.google.com/maps/place/Masjid+Zulaikha+%28Ahle+Sunnat%29/data=!4m7!3m6!1s0x3981af57c752b0c1:0x61f8ba00f217fe5e!8m2!3d23.204634!4d79.9313686!16s%2Fg%2F11t2b4hdqn!19sChIJwbBSx1evgTkRXv4X8gC6-GE?authuser=0&hl=en&rclk=1,"23.204634,79.9313686"
Madrasa Mohammadi,Mosque,"5WVR+GQ3 Madrasa Mohammadi, Noori Nagar, Narmada Nagar, Jabalpur, Madhya Pradesh 482002","Noori Nagar, Narmada Nagar",5WVR+GQ3,Jabalpur,482002,Madhya Pradesh,IN,https://www.google.com/maps/place/Madrasa+Mohammadi/data=!4m7!3m6!1s0x3981af403128d341:0x57574441c05bbbd9!8m2!3d23.193757!4d79.9419257!16s%2Fg%2F11kgg0tz9x!19sChIJQdMoMUCvgTkR2btbwEFEV1c?authuser=0&hl=en&rclk=1,"23.193756999999998,79.9419257"
hzrt saiyyd jlaaluddiin jlaalshaah rhmtullaah alaih,Mosque,"4WHH+GP2 hzrt saiyyd jlaaluddiin jlaalshaah rhmtullaah alaih, Adarsh Nagar, Rampur, Jabalpur, Madhya Pradesh 482008","Adarsh Nagar, Rampur",4WHH+GP2,Jabalpur,482008,Madhya Pradesh,IN,https://www.google.com/maps/place/%E0%A4%B9%E0%A5%9B%E0%A4%B0%E0%A4%A4+%E0%A4%B8%E0%A5%88%E0%A4%AF%E0%A5%8D%E0%A4%AF%E0%A4%A6+%E0%A4%9C%E0%A4%B2%E0%A4%BE%E0%A4%B2%E0%A5%81%E0%A4%A6%E0%A5%8D%E0%A4%A6%E0%A5%80%E0%A4%A8+%E0%A4%9C%E0%A4%B2%E0%A4%BE%E0%A4%B2%E0%A4%B6%E0%A4%BE%E0%A4%B9+%E0%A4%B0%E0%A4%B9%E0%A4%AE%E0%A4%A4%E0%A5%81%E0%A4%B2%E0%A5%8D%E0%A4%B2%E0%A4%BE%E0%A4%B9+%E0%A4%85%E0%A4%B2%E0%A5%88%E0%A4%B9/data=!4m7!3m6!1s0x3981ad12a5140b79:0xdd42e67650b6c018!8m2!3d23.1287686!4d79.9292559!16s%2Fg%2F11t859j93s!19sChIJeQsUpRKtgTkRGMC2UHbmQt0?authuser=0&hl=en&rclk=1,"23.128768599999997,79.9292559"
Masjid faizan-e-ameere muaviya,Mosque,"6WJP+628 Masjid faizan-e-ameere muaviya, Ayesha nagar, Gurda, Jabalpur Byp Rd, Khajri, Madhya Pradesh 482004",,"6WJP+628, Ayesha nagar, Gurda, Jabalpur Byp Rd","Khajri, Gurda",482004,Madhya Pradesh,IN,https://www.google.com/maps/place/Masjid+faizan-e-ameere+muaviya/data=!4m7!3m6!1s0x3981af3de43f30d9:0xcff61a38bb972cd2!8m2!3d23.23053!4d79.9350898!16s%2Fg%2F11lgxbl4vk!19sChIJ2TA_5D2vgTkR0iyXuzga9s8?authuser=0&hl=en&rclk=1,"23.230529999999998,79.9350898"
Noore madina,Mosque,"5WWP+6FP Noore madina, Ganji Nagar, Adhartal, Jabalpur, GCF Jabalpur, Madhya Pradesh 482002","Ganji Nagar, Adhartal",5WWP+6FP,"Jabalpur, GCF Jabalpur",482002,Madhya Pradesh,IN,https://www.google.com/maps/place/Noore+madina/data=!4m7!3m6!1s0x3981afbf97a568a5:0xd8053bad3f20e933!8m2!3d23.1955907!4d79.93621!16s%2Fg%2F11rb3pw692!19sChIJpWill7-vgTkRM-kgP607Bdg?authuser=0&hl=en&rclk=1,"23.1955907,79.93621"
Madarsa Shahnawaz namazgah ahle sunnat wal jamaat,Mosque,"5WQW+PP3 Madarsa Shahnawaz namazgah ahle sunnat wal jamaat, Unnamed Road, Adhartal, Jabalpur, Madhya Pradesh 482002",Adhartal,"5WQW+PP3, Unnamed Road",Jabalpur,482002,Madhya Pradesh,IN,https://www.google.com/maps/place/Madarsa+Shahnawaz+namazgah+ahle+sunnat+wal+jamaat/data=!4m7!3m6!1s0x3981afa8e6d6f2b5:0x21993355119b4e33!8m2!3d23.1892552!4d79.9467826!16s%2Fg%2F11nm_w85_g!19sChIJtfLW5qivgTkRM06bEVUzmSE?authuser=0&hl=en&rclk=1,"23.189255199999998,79.94678259999999"
Sadar Jama Masjid Jabalpur,Mosque,"Sadar Jama Masjid Jabalpur, Street No.10, Azad Chowk, beside Masjid, Sadar Bazar, Sadar, Jabalpur, Madhya Pradesh 482001","Sadar Bazar, Sadar","Street No.10, Azad Chowk, beside Masjid",Jabalpur,482001,Madhya Pradesh,IN,https://www.google.com/maps/place/Sadar+Jama+Masjid+Jabalpur/data=!4m7!3m6!1s0x3981ad2849c7dbe3:0xed422440116f912!8m2!3d23.1530842!4d79.9468263!16s%2Fg%2F11sshfdch2!19sChIJ49vHSSitgTkREvkWAUQi1A4?authuser=0&hl=en&rclk=1,"23.1530842,79.9468263"
Jama Masjid Garha Bazar,Mosque,"5V6W+7W7 Jama Masjid Garha Bazar, Garha Bazar Rd, Mohan Vihar Colony, Garha, Jabalpur, Madhya Pradesh 482003","Mohan Vihar Colony, Garha","5V6W+7W7, Garha Bazar Rd",Jabalpur,482003,Madhya Pradesh,IN,https://www.google.com/maps/place/Jama+Masjid+Garha+Bazar/data=!4m7!3m6!1s0x3981b19f0b2a8f9d:0xd0c4a5a1669c3da7!8m2!3d23.1606506!4d79.8972991!16s%2Fg%2F11t26d2w3q!19sChIJnY8qC5-xgTkRpz2cZqGlxNA?authuser=0&hl=en&rclk=1,"23.1606506,79.8972991"
CHAR HAAI (jrHy) MASJID Juma 2 pm,Mosque,"5WMP+H24 CHAR HAAI (jrHy) MASJID Juma 2 pm, Ram Nagar, Suji Mohalla, Gohalpur, Jabalpur, GCF Jabalpur, Madhya Pradesh 482002","Ram Nagar, Suji Mohalla, Gohalpur",5WMP+H24,"Jabalpur, GCF Jabalpur",482002,Madhya Pradesh,IN,https://www.google.com/maps/place/CHAR+HAAI+%28%D8%AC%D8%B1%D8%AD%D8%A7%DB%92%29+MASJID+Juma+2+pm%E2%80%AD/data=!4m7!3m6!1s0x3981af60c79560dd:0x34904f7a873bf57b!8m2!3d23.1838829!4d79.9350829!16s%2Fg%2F11ft6wls99!19sChIJ3WCVx2CvgTkRe_U7h3pPkDQ?authuser=0&hl=en&rclk=1,"23.1838829,79.9350829"
"JAMA MASZID, JAK RRC",Mosque,"4WRV+Q5W JAMA MASZID, JAK RRC, Cantt, Jabalpur, Madhya Pradesh 482001",Cantt,4WRV+Q5W,Jabalpur,482001,Madhya Pradesh,IN,"https://www.google.com/maps/place/JAMA+MASZID,+JAK+RRC/data=!4m7!3m6!1s0x3981ad09b51abcb7:0x60eaa268ff2c9a6f!8m2!3d23.1419906!4d79.9429661!16s%2Fg%2F11pg_vm77v!19sChIJt7watQmtgTkRb5os_2ii6mA?authuser=0&hl=en&rclk=1","23.1419906,79.94296609999999"
Masjid E Tayyaba,Mosque,"Masjid E Tayyaba, jamia chowk, gaji nagar raddi, Chowki, Madhya Pradesh",Central Ordinance Depot Area,"jamia chowk, gaji nagar raddi","Chowki, Jabalpur",,Madhya Pradesh,IN,https://www.google.com/maps/place/Masjid+E+Tayyaba/data=!4m7!3m6!1s0x3981af9bcc83441d:0x994e9af4b5d5c732!8m2!3d23.1814669!4d79.986407!16s%2Fg%2F11gjp7m2wd!19sChIJHUSDzJuvgTkRMsfVtfSaTpk?authuser=0&hl=en&rclk=1,"23.1814669,79.986407"
nmaajgaah umr phaarukh,Mosque,"5WXQ+8RP nmaajgaah umr phaarukh, Rahim Nagar, Bhumi Vikash Bank Colony, Adhartal, Jabalpur, Madhya Pradesh 482004","Bhumi Vikash Bank Colony, Adhartal","5WXQ+8RP, Rahim Nagar",Jabalpur,482004,Madhya Pradesh,IN,https://www.google.com/maps/place/%E0%A4%A8%E0%A4%AE%E0%A4%BE%E0%A4%9C%E0%A4%97%E0%A4%BE%E0%A4%B9+%E0%A4%89%E0%A4%AE%E0%A4%B0+%E0%A4%AB%E0%A4%BE%E0%A4%B0%E0%A5%81%E0%A4%96/data=!4m7!3m6!1s0x3981afb1bb795693:0x206f9d5bfc4b1737!8m2!3d23.1983436!4d79.9395678!16s%2Fg%2F11lfqdqpyz!19sChIJk1Z5u7GvgTkRNxdL_FudbyA?authuser=0&hl=en&rclk=1,"23.198343599999998,79.93956779999999"
Dargha Hazrat Saiyed Nisar Ali,Mosque,"5W3P+8RH Dargha Hazrat Saiyed Nisar Ali, dhyanadh swarsati ward, Jabalpur, Madhya Pradesh 482001","Nehru Railway Colony, Gorakhpur","5W3P+8RH, dhyanadh swarsati ward",Jabalpur,482001,Madhya Pradesh,IN,https://www.google.com/maps/place/Dargha+Hazrat+Saiyed+Nisar+Ali/data=!4m7!3m6!1s0x3981adc1da96c1a9:0x82f0a2a4e40b3817!8m2!3d23.1533172!4d79.9371225!16s%2Fg%2F11shdm4f1n!19sChIJqcGW2sGtgTkRFzgL5KSi8II?authuser=0&hl=en&rclk=1,"23.1533172,79.9371225"
khatik mohalla,Mosque,"5WGP+J84 khatik mohalla, Ganjipura, Jabalpur, Madhya Pradesh 482002",Ganjipura,5WGP+J84,Jabalpur,482002,Madhya Pradesh,IN,https://www.google.com/maps/place/khatik+mohalla/data=!4m7!3m6!1s0x3981af1e9b123e0f:0x28accb5b296330a2!8m2!3d23.1765208!4d79.9358188!16s%2Fg%2F11p011wlp0!19sChIJDz4Smx6vgTkRojBjKVvLrCg?authuser=0&hl=en&rclk=1,"23.1765208,79.93581879999999"
Peshkari Masjid,Mosque,"5WCQ+JQW Peshkari Masjid, Unnamed Road, Badi Omti, Jabalpur, Madhya Pradesh 482002",Badi Omti,"5WCQ+JQW, Unnamed Road",Jabalpur,482002,Madhya Pradesh,IN,https://www.google.com/maps/place/Peshkari+Masjid/data=!4m7!3m6!1s0x3981af4db49bef45:0xaf581fef5a66d354!8m2!3d23.1716062!4d79.9394639!16s%2Fg%2F11h_12d42t!19sChIJRe-btE2vgTkRVNNmWu8fWK8?authuser=0&hl=en&rclk=1,"23.1716062,79.93946389999999"
Masjid Noori Mustafai madarsa Ahle sunnat,Mosque,"5WPW+V99 Masjid Noori Mustafai madarsa Ahle sunnat, Sindhi camp, near fakeer chand akhada, Adhartal, Jabalpur, Madhya Pradesh 482002",Adhartal,"5WPW+V99 Sindhi camp, near fakeer chand akhada",Jabalpur,482002,Madhya Pradesh,IN,https://www.google.com/maps/place/Masjid+Noori+Mustafai+madarsa+Ahle+sunnat/data=!4m7!3m6!1s0x3981af814aff4f19:0x4935d6a2468e4b8c!8m2!3d23.1872907!4d79.9457591!16s%2Fg%2F11kc8l1jhy!19sChIJGU__SoGvgTkRjEuORqLWNUk?authuser=0&hl=en&rclk=1,"23.1872907,79.94575909999999"
GHAZI MASJID AHLE SUNNAT WAL JAMAAT MASLAK E AALA HAZRAT,Mosque,"5WVQ+2PR GHAZI MASJID AHLE SUNNAT WAL JAMAAT MASLAK E AALA HAZRAT, Nai Basti, Ansar Nagar, Gohalpur, Jabalpur, Madhya Pradesh 482002","Nai Basti, Ansar Nagar, Gohalpur",5WVQ+2PR,Jabalpur,482002,Madhya Pradesh,IN,https://www.google.com/maps/place/GHAZI+MASJID+AHLE+SUNNAT+WAL+JAMAAT+MASLAK+E+AALA+HAZRAT/data=!4m7!3m6!1s0x3981af016f0f5995:0x571d3f94298e3cf2!8m2!3d23.1926006!4d79.9392664!16s%2Fg%2F11ssnhg0vr!19sChIJlVkPbwGvgTkR8jyOKZQ_HVc?authuser=0&hl=en&rclk=1,"23.1926006,79.9392664"
Masjid Barkatullah,Mosque,"Masjid Barkatullah, Bahora Bagh, Noori Nagar, Adhartal, Jabalpur, Madhya Pradesh 482002","Noori Nagar, Adhartal",Bahora Bagh,Jabalpur,,Madhya Pradesh,IN,https://www.google.com/maps/place/Masjid+Barkatullah/data=!4m7!3m6!1s0x3981afdf8b6e1149:0x5376c4a37f531657!8m2!3d23.1904817!4d79.941112!16s%2Fg%2F11kb_bs31t!19sChIJSRFui9-vgTkRVxZTf6PEdlM?authuser=0&hl=en&rclk=1,"23.1904817,79.94111199999999"
Ahl-E-Hadis Masjid,Mosque,"Ahl-E-Hadis Masjid, 17/1, Bharipur Rd, Badi Omti, Jabalpur, Madhya Pradesh 482002",Badi Omti,"17/1, Bharipur Rd",Jabalpur,482002,Madhya Pradesh,IN,https://www.google.com/maps/place/Ahl-E-Hadis+Masjid/data=!4m7!3m6!1s0x3981affeaeb0c047:0x171405a8477e9e3e!8m2!3d23.1709545!4d79.9388643!16s%2Fg%2F11tyblwnpg!19sChIJR8Cwrv6vgTkRPp5-R6gFFBc?authuser=0&hl=en&rclk=1,"23.1709545,79.93886429999999"
Masjid-E-AKSA Ahle sunnat wal jamat,Mosque,"5XV3+X7R Masjid-E-AKSA Ahle sunnat wal jamat, Neta Colony, Adhartal, Jabalpur, Madhya Pradesh 482004","Neta Colony, Adhartal",5XV3+X7R,Jabalpur,482004,Madhya Pradesh,IN,https://www.google.com/maps/place/Masjid-E-AKSA+Ahle+sunnat+wal+jamat/data=!4m7!3m6!1s0x3981af127cfdf51f:0xa1428d1fa260c693!8m2!3d23.1949882!4d79.953129!16s%2Fg%2F11sryx2827!19sChIJH_X9fBKvgTkRk8Zgoh-NQqE?authuser=0&hl=en&rclk=1,"23.194988199999997,79.95312899999999"
Masjid noore madina,Mosque,"Masjid noore madina, Ghamapur, Jabalpur, Madhya Pradesh 482002",Ghamapur,,Jabalpur,482002,Madhya Pradesh,IN,https://www.google.com/maps/place/Masjid+noore+madina/data=!4m7!3m6!1s0x3981af986b4a6abf:0x31a4ba7e6705234a!8m2!3d23.1794132!4d79.9564933!16s%2Fg%2F11v3m7ysq3!19sChIJv2pKa5ivgTkRSiMFZ366pDE?authuser=0&hl=en&rclk=1,"23.1794132,79.95649329999999"
Masjid,Taoist temple,"6X3X+59R Masjid, Raksha Karmachari Colony, Jabalpur, Madhya Pradesh 482011",Raksha Karmachari Colony,6X3X+59R,Jabalpur,482011,Madhya Pradesh,IN,https://www.google.com/maps/place/Masjid/data=!4m7!3m6!1s0x3981af6dfe6df049:0x24b07abefc09936a!8m2!3d23.2029879!4d79.9983954!16s%2Fg%2F11n69rprgl!19sChIJSfBt_m2vgTkRapMJ_L56sCQ?authuser=0&hl=en&rclk=1,"23.2029879,79.99839539999999"
Madarsha gosiya namazgaah,Mosque,"Madarsha gosiya namazgaah, Thakkar Gram, Vehicle Fac. Jabalpur, Jabalpur, Madhya Pradesh 482002",Thakkar Gram,,"Vehicle Fac. Jabalpur, Jabalpur",482002,Madhya Pradesh,IN,https://www.google.com/maps/place/Madarsha+gosiya+namazgaah/data=!4m7!3m6!1s0x3981afbdc6822727:0x67036373d8f0e79!8m2!3d23.1896992!4d79.9445104!16s%2Fg%2F11rc98m4_t!19sChIJJyeCxr2vgTkReQ6PPTc2cAY?authuser=0&hl=en&rclk=1,"23.1896992,79.9445104"
Hazrat sayeed sadar ala hazrat,Mosque,"5W8Q+FVM Hazrat sayeed sadar ala hazrat, Naya Mohalla, Jabalpur, Madhya Pradesh 482001",Naya Mohalla,5W8Q+FVM,Jabalpur,482001,Madhya Pradesh,IN,https://www.google.com/maps/place/Hazrat+sayeed+sadar+ala+hazrat/data=!4m7!3m6!1s0x3981af88aacd5ec3:0xc9ce11c44a2ff65f!8m2!3d23.1662163!4d79.9396791!16s%2Fg%2F11mv4j5pf_!19sChIJw17NqoivgTkRX_YvSsQRzsk?authuser=0&hl=en&rclk=1,"23.1662163,79.93967909999999"
Ni,Mosque,"4W5R+F8C Ni, Gwarighat, Jabalpur, Madhya Pradesh 482008",Gwarighat,4W5R+F8C,Jabalpur,482008,Madhya Pradesh,IN,https://www.google.com/maps/place/Ni/data=!4m7!3m6!1s0x3981ad9b34f672db:0x5e46c588ce09f4b3!8m2!3d23.1093204!4d79.9412499!16s%2Fg%2F11t7k63hs_!19sChIJ23L2NJutgTkRs_QJzojFRl4?authuser=0&hl=en&rclk=1,"23.109320399999998,79.9412499"
