name,main_category,address,address_ward,address_street,address_city,address_postal_code,address_state,address_country_code,link,coordinates
Ahmadiya Juma Masjid,Mosque,"XFR3+3C2 Ahmadiya Juma Masjid, Mannarkkad PO, Kozhikode - Palakkad Hwy, Mannarkkad, Kerala 678582",,"XFR3+3C2, Mannarkkad PO, Kozhikode - Palakkad Hwy","Mannarkkad, Mannarkad-I",678582,Kerala,IN,https://www.google.com/maps/place/Ahmadiya+Juma+Masjid/data=!4m7!3m6!1s0x3ba7d580349b78a7:0x579b68b4a1017d17!8m2!3d10.9901342!4d76.4535295!16s%2Fg%2F11h0f10rd!19sChIJp3ibNIDVpzsRF30BobRom1c?authuser=0&hl=en&rclk=1,"10.9901342,76.4535295"
Chungam Masjid,Mosque,"XCQH+4FM Chungam Masjid, NH 966, Kumaramputhur Chungam, Kumaramputhur, Kerala 678583",Kumaramputhur Chungam,"XCQH+4FM, NH 966",Kumaramputhur,678583,Kerala,IN,https://www.google.com/maps/place/Chungam+Masjid/data=!4m7!3m6!1s0x3ba7d5a0dd029985:0x3aaa5889a02a769d!8m2!3d10.9878473!4d76.4286726!16s%2Fg%2F11gz_lmx8!19sChIJhZkC3aDVpzsRnXYqoIlYqjo?authuser=0&hl=en&rclk=1,"10.9878473,76.4286726"
Manaladi Mosque msjd,Mosque,"Manaladi Mosque msjd, Mannarkad-II, Kerala 678582",,,Mannarkad-II,678582,Kerala,IN,https://www.google.com/maps/place/Manaladi+Mosque+%D9%85%D8%B3%D8%AC%D8%AF%E2%80%AD/data=!4m7!3m6!1s0x3ba87f974926caa9:0xac5e881eba485b69!8m2!3d11.0042731!4d76.4741855!16s%2Fg%2F11dxsr2tgm!19sChIJqcomSZd_qDsRaVtIuh6IXqw?authuser=0&hl=en&rclk=1,"11.004273099999999,76.47418549999999"
Chomeri Garden Salafi Masjid,Mosque,"XCQX+R5J Chomeri Garden Salafi Masjid, Mannarkkad, Mannarkad-I, Kerala 678762",,XCQX+R5J,"Mannarkkad, Mannarkad-I",678762,Kerala,IN,https://www.google.com/maps/place/Chomeri+Garden+Salafi+Masjid/data=!4m7!3m6!1s0x3ba7d582609a3885:0x91b6a32c074b6d93!8m2!3d10.9895914!4d76.4478751!16s%2Fg%2F11cjvg7xs5!19sChIJhTiaYILVpzsRk21LByyjtpE?authuser=0&hl=en&rclk=1,"10.9895914,76.44787509999999"
Nottamala Juma Masjid,Mosque,"XFQG+M9X Nottamala Juma Masjid, Nottanmala, Kerala 678598",,XFQG+M9X,Nottanmala,678598,Kerala,IN,https://www.google.com/maps/place/Nottamala+Juma+Masjid/data=!4m7!3m6!1s0x3ba87f7452510587:0x9b10c0f84848a0cd!8m2!3d10.9892376!4d76.4759786!16s%2Fg%2F11csrqnd8f!19sChIJhwVRUnR_qDsRzaBISPjAEJs?authuser=0&hl=en&rclk=1,"10.9892376,76.47597859999999"
Kottiyode Juma Masjid,Mosque,"XFMQ+65P Kottiyode Juma Masjid, National Highway 213, Kottiyodu, Palakkad, Pottassery- Ii, Kerala 678593",Kottiyodu,"XFMQ+65P, National Highway 213","Palakkad, Pottassery- Ii",678593,Kerala,IN,https://www.google.com/maps/place/Kottiyode+Juma+Masjid/data=!4m7!3m6!1s0x3ba87f0e35ce6755:0x90f42010e109b968!8m2!3d10.9830831!4d76.487957!16s%2Fg%2F1vfp21q9!19sChIJVWfONQ5_qDsRaLkJ4RAg9JA?authuser=0&hl=en&rclk=1,"10.9830831,76.487957"
Ambazhakode Juma Masjid,Mosque,"2C48+595 Ambazhakode Juma Masjid, POST, Ambazhakode Road, Kottoppadam-I, 678583",,"2C48+595, POST, Ambazhakode Road","Kottoppadam-I, Ambhazhakode",678583,Kerala,IN,https://www.google.com/maps/place/Ambazhakode+Juma+Masjid/data=!4m7!3m6!1s0x3ba7d51bf7815757:0xbe24ece6bf4982d6!8m2!3d11.0053937!4d76.41599!16s%2Fg%2F11b6j89s8s!19sChIJV1eB9xvVpzsR1oJJv-bsJL4?authuser=0&hl=en&rclk=1,"11.005393699999999,76.41599"
"Masjid Thaqwa, Kodathippadi",Mosque,"XFQ2+HFX Masjid Thaqwa, Kodathippadi, National Highway 213, Kodathippadi, Mannarkkad, Mannarkad-I, Kerala 678762",Kodathippadi,"XFQ2+HFX, National Highway 213","Mannarkkad, Mannarkad-I",678762,Kerala,IN,"https://www.google.com/maps/place/Masjid+Thaqwa,+Kodathippadi/data=!4m7!3m6!1s0x3ba7d5818fea481f:0xb5fc4cd7eac43cf!8m2!3d10.9889983!4d76.4512356!16s%2Fg%2F1tjddmh7!19sChIJH0jqj4HVpzsRz0Osfs3EXws?authuser=0&hl=en&rclk=1","10.988998299999999,76.45123559999999"
Nellippuzha Juma Masjid,Mosque,"XFV9+FCQ Nellippuzha Juma Masjid, NH 213, Nellippuzha, Mannarkkad, Mannarkad-I, Kerala 678582",Nellippuzha,"XFV9+FCQ, NH 213","Mannarkkad, Mannarkad-I",678582,Kerala,IN,https://www.google.com/maps/place/Nellippuzha+Juma+Masjid/data=!4m7!3m6!1s0x3ba87f9d3a74058d:0x8e9f56dac7f67434!8m2!3d10.9937062!4d76.4686221!16s%2Fg%2F1tgq526b!19sChIJjQV0Op1_qDsRNHT2x9pWn44?authuser=0&hl=en&rclk=1,"10.9937062,76.46862209999999"
Parambulli Masjid,Mosque,"XCCR+959 Parambulli Masjid, Changaleeri Rd, Mannarkkad, Kerala 678762",,"XCCR+959, Changaleeri Rd",Mannarkkad,678762,Kerala,IN,https://www.google.com/maps/place/Parambulli+Masjid/data=!4m7!3m6!1s0x3ba7d5930ca2afa7:0xb18f46f4966007d2!8m2!3d10.970906!4d76.4404904!16s%2Fg%2F11c59z2lzb!19sChIJp6-iDJPVpzsR0gdglvRGj7E?authuser=0&hl=en&rclk=1,"10.970906,76.4404904"
Mundekarad Masjid,Mosque,"XFC6+V5R Mundekarad Masjid, Mannarkkad, Mannarkad-I, Kerala 678593",,XFC6+V5R,"Mannarkkad, Mannarkad-I",678593,Kerala,IN,https://www.google.com/maps/place/Mundekarad+Masjid/data=!4m7!3m6!1s0x3ba87f64bf174759:0x4501dbb8728f84ef!8m2!3d10.9722481!4d76.4603816!16s%2Fg%2F11f10f3rqy!19sChIJWUcXv2R_qDsR74SPcrjbAUU?authuser=0&hl=en&rclk=1,"10.9722481,76.46038159999999"
MASJID ABOOBACKAR,Mosque,"XCWQ+9PW MASJID ABOOBACKAR, Kerala 678583",,XCWQ+9PW,,678583,Kerala,IN,https://www.google.com/maps/place/MASJID+ABOOBACKAR/data=!4m7!3m6!1s0x3ba7d576aceae63b:0x9630de2d1804c7bc!8m2!3d10.9959972!4d76.4393186!16s%2Fg%2F11hb48lkz7!19sChIJO-bqrHbVpzsRvMcEGC3eMJY?authuser=0&hl=en&rclk=1,"10.9959972,76.4393186"
Vadakkumannam Juma Masjid,Mosque,"2F28+4HG Vadakkumannam Juma Masjid, Mannarkkad, Mannarkad-I, Kerala 678582",,2F28+4HG,"Mannarkkad, Mannarkad-I",678582,Kerala,IN,https://www.google.com/maps/place/Vadakkumannam+Juma+Masjid/data=!4m7!3m6!1s0x3ba87f8521721a31:0x7cbac067dfbdfba7!8m2!3d11.0003174!4d76.466441!16s%2Fg%2F11c0tklb90!19sChIJMRpyIYV_qDsRp_u932fAunw?authuser=0&hl=en&rclk=1,"11.0003174,76.466441"
Pullissery Masjid,Mosque,"XF57+765 Pullissery Masjid, Pullissery- Pallikurup Road, Mannarkad-I, Kerala 678593",,"XF57+765, Pullissery- Pallikurup Road",Mannarkad-I,678593,Kerala,IN,https://www.google.com/maps/place/Pullissery+Masjid/data=!4m7!3m6!1s0x3ba87f50a412062f:0xbc631f2db9288ddd!8m2!3d10.9581336!4d76.4631141!16s%2Fg%2F11f3c3fgt_!19sChIJLwYSpFB_qDsR3Y0ouS0fY7w?authuser=0&hl=en&rclk=1,"10.9581336,76.4631141"
Mannarkkad Town Salafi Masjid,Mosque,"XFR3+QWW Mannarkkad Town Salafi Masjid, Mannarkkad, Mannarkad-I, Kerala 678762",,XFR3+QWW,"Mannarkkad, Mannarkad-I",678762,Kerala,IN,https://www.google.com/maps/place/Mannarkkad+Town+Salafi+Masjid/data=!4m7!3m6!1s0x3ba7d57f92b206cb:0xd649a9f962428e05!8m2!3d10.9919855!4d76.4548403!16s%2Fg%2F11ddwn2m1k!19sChIJywaykn_VpzsRBY5CYvmpSdY?authuser=0&hl=en&rclk=1,"10.9919855,76.4548403"
First Mile Masjid,Mosque,"XCFX+QGP First Mile Masjid, Changaleeri Rd, Mannarkkad, Mannarkad-I, Kerala 678762",,"XCFX+QGP, Changaleeri Rd","Mannarkkad, Mannarkad-I",678762,Kerala,IN,https://www.google.com/maps/place/First+Mile+Masjid/data=!4m7!3m6!1s0x3ba7d58e9e3cf413:0x70f6d250329b6173!8m2!3d10.974461!4d76.4488229!16s%2Fg%2F11c1wwf7x0!19sChIJE_Q8no7VpzsRc2GbMlDS9nA?authuser=0&hl=en&rclk=1,"10.974461,76.4488229"
Randam Mile Sunni Juma Masjid,Mosque,"XC8Q+F85 Randam Mile Sunni Juma Masjid, Palakkad, Kerala 679513",,XC8Q+F85,Palakkad,679513,Kerala,IN,https://www.google.com/maps/place/Randam+Mile+Sunni+Juma+Masjid/data=!4m7!3m6!1s0x3ba7d5eb7a5bfd07:0x1a711981984b345a!8m2!3d10.9661476!4d76.4383469!16s%2Fg%2F11d_bgrsjh!19sChIJB_1beuvVpzsRWjRLmIEZcRo?authuser=0&hl=en&rclk=1,"10.9661476,76.4383469"
Valluvambuzha Juma Masjid,Mosque,"XC7R+HR7 Valluvambuzha Juma Masjid, Changaleeri, Kerala 679513",,XC7R+HR7,Changaleeri,679513,Kerala,IN,https://www.google.com/maps/place/Valluvambuzha+Juma+Masjid/data=!4m7!3m6!1s0x3ba7d5edcdabfb17:0x9d4de03153d4c14e!8m2!3d10.9639006!4d76.4420483!16s%2Fg%2F11c6cqks9d!19sChIJF_urze3VpzsRTsHUUzHgTZ0?authuser=0&hl=en&rclk=1,"10.963900599999999,76.4420483"
Perimbadari 1st Mile Juma Masjid,Mosque,"XCCX+HQ3 Perimbadari 1st Mile Juma Masjid, Koompara Road, Mannarkkad, Kerala 678762",,"XCCX+HQ3, Koompara Road",Mannarkkad,678762,Kerala,IN,https://www.google.com/maps/place/Perimbadari+1st+Mile+Juma+Masjid/data=!4m7!3m6!1s0x3ba7d58c8bf09551:0x2179402d7b12a106!8m2!3d10.971391!4d76.4494157!16s%2Fg%2F1hc4dfmjf!19sChIJUZXwi4zVpzsRBqESey1AeSE?authuser=0&hl=en&rclk=1,"10.971390999999999,76.4494157"
Kolpadam Juma Masjid,Mosque,"2F4R+4MX Kolpadam Juma Masjid, Kolpadam Rd, Mannarkad-II, Kerala 678582",,"2F4R+4MX, Kolpadam Rd",Mannarkad-II,678582,Kerala,IN,https://www.google.com/maps/place/Kolpadam+Juma+Masjid/data=!4m7!3m6!1s0x3ba87fb072a9bbc1:0x9b9898a5a65abd5f!8m2!3d11.0053726!4d76.4917248!16s%2Fg%2F1hc4dd__q!19sChIJwbupcrB_qDsRX71apqWYmJs?authuser=0&hl=en&rclk=1,"11.0053726,76.4917248"
Kanhiram Juma Masjid,Mosque,"XCHX+3VF Kanhiram Juma Masjid, Perimbadari, Mannarkad-I, Kerala 678762",Perimbadari,XCHX+3VF,Mannarkad-I,678762,Kerala,IN,https://www.google.com/maps/place/Kanhiram+Juma+Masjid/data=!4m7!3m6!1s0x3ba7d58f25a4c761:0x85a46f59b6098e90!8m2!3d10.9776869!4d76.4496826!16s%2Fg%2F11g98s9p5j!19sChIJYcekJY_VpzsRkI4JtllvpIU?authuser=0&hl=en&rclk=1,"10.9776869,76.4496826"
"Salafi Masjid, Changaleeri",Mosque,"XC8R+369 Salafi Masjid, Changaleeri, Changaleeri Rd, Changaleeri, Kerala 679513",,"XC8R+369, Changaleeri Rd",Changaleeri,679513,Kerala,IN,"https://www.google.com/maps/place/Salafi+Masjid,+Changaleeri/data=!4m7!3m6!1s0x3ba7d5ec5daee9e3:0x524d1ac24ce4d23a!8m2!3d10.9651594!4d76.4406229!16s%2Fg%2F11csqtx3m8!19sChIJ4-muXezVpzsROtLkTMIaTVI?authuser=0&hl=en&rclk=1","10.9651594,76.4406229"
Masjid,Mosque,"2C3G+9Q2 Masjid, Pallikkunnu Mailampadam road, Mannarkkad, Kerala",,"2C3G+9Q2, Pallikkunnu Mailampadam road",Mannarkkad,,Kerala,IN,https://www.google.com/maps/place/Masjid/data=!4m7!3m6!1s0x3ba7d51184662295:0xb7a594ee5177097e!8m2!3d11.0033835!4d76.4268848!16s%2Fg%2F11d_x47lx6!19sChIJlSJmhBHVpzsRfgl3Ue6Upbc?authuser=0&hl=en&rclk=1,"11.0033835,76.4268848"
Anakkam Palliyel Masjid,Mosque,"XF9F+QHW Anakkam Palliyel Masjid, Palakkad, Kerala 678014",,XF9F+QHW,Palakkad,678014,Kerala,IN,https://www.google.com/maps/place/Anakkam+Palliyel+Masjid/data=!4m7!3m6!1s0x3ba87f41fbe34b07:0x44a023954f91ec4c!8m2!3d10.9694764!4d76.4739633!16s%2Fg%2F11cs1svcq4!19sChIJB0vj-0F_qDsRTOyRT5UjoEQ?authuser=0&hl=en&rclk=1,"10.9694764,76.4739633"
Ederam Sunni Juma Masjid,Mosque,"2C6V+QPG Ederam Sunni Juma Masjid, Payyanadam Po, Ederam Juma masjid Rd, Ederam, Kerala 678583",,"2C6V+QPG, Payyanadam Po, Ederam Juma masjid Rd",Ederam,678583,Kerala,IN,https://www.google.com/maps/place/Ederam+Sunni+Juma+Masjid/data=!4m7!3m6!1s0x3ba7d5680ed56951:0x45b33c606d572bfc!8m2!3d11.0119481!4d76.444326!16s%2Fg%2F11g_07nxb!19sChIJUWnVDmjVpzsR_CtXbWA8s0U?authuser=0&hl=en&rclk=1,"11.0119481,76.44432599999999"
Mundakanni Masjid,Mosque,"2F69+XJ6 Mundakanni Masjid, Mannarkad-II, Kerala 678582",,2F69+XJ6,Mannarkad-II,678582,Kerala,IN,https://www.google.com/maps/place/Mundakanni+Masjid/data=!4m7!3m6!1s0x3ba87f8e0080669d:0xecc0cc29b3226eed!8m2!3d11.0124096!4d76.4690226!16s%2Fg%2F11gr3n17c1!19sChIJnWaAAI5_qDsR7W4isynMwOw?authuser=0&hl=en&rclk=1,"11.0124096,76.4690226"
Noorul Islam Masjid Kaithachira,Mosque,"2F74+925 Noorul Islam Masjid Kaithachira, Mannarkad-I, Kerala 678583",,2F74+925,Mannarkad-I,678583,Kerala,IN,https://www.google.com/maps/place/Noorul+Islam+Masjid+Kaithachira/data=!4m7!3m6!1s0x3ba7d5f48abd2f23:0x24ad2c3dbe8dd2dd!8m2!3d11.0133798!4d76.4551046!16s%2Fg%2F11gm8qx7t9!19sChIJIy-9ivTVpzsR3dKNvj0srSQ?authuser=0&hl=en&rclk=1,"11.0133798,76.4551046"
BADARIYYA JUMA MASJID,Mosque,"XCXF+4RC BADARIYYA JUMA MASJID, Kalyanakkappu, Mannarkkad, Kerala",,"XCXF+4RC, Kalyanakkappu",Mannarkkad,,Kerala,IN,https://www.google.com/maps/place/BADARIYYA+JUMA+MASJID/data=!4m7!3m6!1s0x3ba7d50efe0758ad:0x216b358237910441!8m2!3d10.9978227!4d76.4245184!16s%2Fg%2F11d_x4kzsz!19sChIJrVgH_g7VpzsRQQSRN4I1ayE?authuser=0&hl=en&rclk=1,"10.997822699999999,76.4245184"
Kunthippuzha Masjid,Mosque,"XCRV+F7G Kunthippuzha Masjid, Kunthipuzha, Mannarkad-I, Kerala 678583",Kunthipuzha,XCRV+F7G,Mannarkad-I,678583,Kerala,IN,https://www.google.com/maps/place/Kunthippuzha+Masjid/data=!4m7!3m6!1s0x3ba7d577ddbde3bf:0x2d7505e61216b9d3!8m2!3d10.9911797!4d76.4431993!16s%2Fg%2F11f3wlmx2p!19sChIJv-O93XfVpzsR07kWEuYFdS0?authuser=0&hl=en&rclk=1,"10.9911797,76.4431993"
Konnakkode Juma Masjid,Mosque,"XFFF+872 Konnakkode Juma Masjid, Mannarkad-I, Kerala 678593",,XFFF+872,Mannarkad-I,678593,Kerala,IN,https://www.google.com/maps/place/Konnakkode+Juma+Masjid/data=!4m7!3m6!1s0x3ba87f697baa3e97:0x6f4dac9572d530fb!8m2!3d10.973252!4d76.4731361!16s%2Fg%2F11cs5scrsw!19sChIJlz6qe2l_qDsR-zDVcpWsTW8?authuser=0&hl=en&rclk=1,"10.973251999999999,76.47313609999999"
Masjid Ibraheem ul khaleel,Mosque,"Masjid Ibraheem ul khaleel, Mannarkkad, Kerala 678582",,,Mannarkkad,678582,Kerala,IN,https://www.google.com/maps/place/Masjid+Ibraheem+ul+khaleel/data=!4m7!3m6!1s0x3ba87ff427860587:0xc7dfa1eb37bd9c54!8m2!3d11.002563!4d76.4722624!16s%2Fg%2F11fkddvq26!19sChIJhwWGJ_R_qDsRVJy9N-uh38c?authuser=0&hl=en&rclk=1,"11.002563,76.47226239999999"
Salafi Masjid,Mosque,"XFM2+GMC Salafi Masjid, Perimbadari Road, Perimbadari, Mannarkkad, Mannarkad-I, Kerala 678762",Perimbadari,"XFM2+GMC, Perimbadari Road","Mannarkkad, Mannarkad-I",678762,Kerala,IN,https://www.google.com/maps/place/Salafi+Masjid/data=!4m7!3m6!1s0x3ba7d58693e53e6f:0x32d1a70e1a4044bf!8m2!3d10.9838083!4d76.4516473!16s%2Fg%2F11y22yzr6!19sChIJbz7lk4bVpzsRv0RAGg6n0TI?authuser=0&hl=en&rclk=1,"10.9838083,76.45164729999999"
Masjid,Mosque,"XCXJ+2HP Masjid, Chungam Pallikkunnu road, Mannarkkad, Kerala",,"XCXJ+2HP, Chungam Pallikkunnu road",Mannarkkad,,Kerala,IN,https://www.google.com/maps/place/Masjid/data=!4m7!3m6!1s0x3ba7d50ce93d53cb:0x71f0f71b9c594c67!8m2!3d10.9975902!4d76.4314546!16s%2Fg%2F11fxy1np1k!19sChIJy1M96QzVpzsRZ0xZnBv38HE?authuser=0&hl=en&rclk=1,"10.9975902,76.4314546"
Juma Masjid,Mosque,"2FH2+QP5 Juma Masjid, Thathengalam - Mannarkkad Rd, Mannarkad-I, Kerala 678582",,"2FH2+QP5, Thathengalam - Mannarkkad Rd",Mannarkad-I,678582,Kerala,IN,https://www.google.com/maps/place/Juma+Masjid/data=!4m7!3m6!1s0x3ba7d556a23da69f:0x5af982f1c588633c!8m2!3d11.029394!4d76.4518726!16s%2Fg%2F11cn8t5dv7!19sChIJn6Y9olbVpzsRPGOIxfGC-Vo?authuser=0&hl=en&rclk=1,"11.029394,76.4518726"
cherikkappadam juma masjid,Mosque,"XF43+8HP cherikkappadam juma masjid, Palakkad, Kerala 678593",,XF43+8HP,Palakkad,,Kerala,IN,https://www.google.com/maps/place/cherikkappadam+juma+masjid/data=!4m7!3m6!1s0x3ba7d5f851abc721:0x6ef4d138696f23b1!8m2!3d10.9558413!4d76.4539412!16s%2Fg%2F11f4lm8jx3!19sChIJIcerUfjVpzsRsSNvaTjR9G4?authuser=0&hl=en&rclk=1,"10.9558413,76.4539412"
"Bilal Juma Masjid, Anamooly",Mosque,"2GH6+7M6 Bilal Juma Masjid, Anamooly, Mannarkad-II, Kerala 678582",,2GH6+7M6,Mannarkad-II,,Kerala,IN,"https://www.google.com/maps/place/Bilal+Juma+Masjid,+Anamooly/data=!4m7!3m6!1s0x3ba87e2fc97f3cfd:0x658f348dfef8ff9e!8m2!3d11.0281666!4d76.5116262!16s%2Fg%2F11hbk617sb!19sChIJ_Tx_yS9-qDsRnv_4_o00j2U?authuser=0&hl=en&rclk=1","11.028166599999999,76.5116262"
Nambiyampadi Mosque,Mosque,"XF97+MCC Nambiyampadi Mosque, Mannarkad-I, Kerala 678593",,XF97+MCC,Mannarkad-I,,Kerala,IN,https://www.google.com/maps/place/Nambiyampadi+Mosque/data=!4m7!3m6!1s0x3ba87f5df4b26fc7:0x5e49a3743cf7832c!8m2!3d10.9691907!4d76.4635006!16s%2Fg%2F11hckgmfmh!19sChIJx2-y9F1_qDsRLIP3PHSjSV4?authuser=0&hl=en&rclk=1,"10.969190699999999,76.4635006"
Pallikkurup Masjid (Juma Not Available),Mosque,"XF8G+CH3 Pallikkurup Masjid (Juma Not Available), Pallikurup, Kerala 678593",Pallikurup,XF8G+CH3,,678593,Kerala,IN,https://www.google.com/maps/place/Pallikkurup+Masjid+%28Juma+Not+Available%29/data=!4m7!3m6!1s0x3ba87f411f8e427f:0x4db8cdfbbca26130!8m2!3d10.9660203!4d76.4764332!16s%2Fg%2F11cs3j_fry!19sChIJf0KOH0F_qDsRMGGivPvNuE0?authuser=0&hl=en&rclk=1,"10.9660203,76.4764332"
Mannarkkad Town Jumma Masjid mnnnnaakkaatt tt+ jumaa msjid,Mosque,"XFV7+PXH Mannarkkad Town Jumma Masjid mnnnnaakkaatt tt+ jumaa msjid, Hospital Junction, Mannarkkad, Mannarkad-I, Kerala 678582",Hospital Junction,XFV7+PXH,"Mannarkkad, Mannarkad-I",,Kerala,IN,https://www.google.com/maps/place/Mannarkkad+Town+Jumma+Masjid+%E0%B4%AE%E0%B4%A3%E0%B5%8D%E0%B4%A3%E0%B4%BE%E0%B5%BC%E0%B4%95%E0%B5%8D%E0%B4%95%E0%B4%BE%E0%B4%9F%E0%B5%8D+%E0%B4%9F%E0%B5%97%E0%B5%BA+%E0%B4%9C%E0%B5%81%E0%B4%AE%E0%B4%BE+%E0%B4%AE%E0%B4%B8%E0%B5%8D%E0%B4%9C%E0%B4%BF%E0%B4%A6%E0%B5%8D/data=!4m7!3m6!1s0x3ba87f98c1149f13:0x38357779e8d39ac1!8m2!3d10.9943232!4d76.4649775!16s%2Fg%2F11gm7m_k1q!19sChIJE58UwZh_qDsRwZrT6Hl3NTg?authuser=0&hl=en&rclk=1,"10.9943232,76.4649775"
Salafi Masjid Ibraheem Al Khaleel,Mosque,"2F2C+244 Salafi Masjid Ibraheem Al Khaleel, Mannarkkad, Kerala 678582",,2F2C+244,Mannarkkad,,Kerala,IN,https://www.google.com/maps/place/Salafi+Masjid+Ibraheem+Al+Khaleel/data=!4m7!3m6!1s0x3ba87f9b03c5c4c1:0x3082916399c5a861!8m2!3d11.0000137!4d76.4703423!16s%2Fg%2F11f2xy57h0!19sChIJwcTFA5t_qDsRYajFmWORgjA?authuser=0&hl=en&rclk=1,"11.0000137,76.4703423"
Badriyya Juma Masjid,Mosque,"2F6Q+39C Badriyya Juma Masjid, Mannarkkad - Anakkatti Rd, Mannarkad-II, Kerala 678582",,"2F6Q+39C, Mannarkkad - Anakkatti Rd",Mannarkad-II,678582,Kerala,IN,https://www.google.com/maps/place/Badriyya+Juma+Masjid/data=!4m7!3m6!1s0x3ba87fb99c7eabb7:0xb510e0974f092bf8!8m2!3d11.010179!4d76.4884008!16s%2Fg%2F11dfr3fph2!19sChIJt6t-nLl_qDsR-CsJT5fgELU?authuser=0&hl=en&rclk=1,"11.010178999999999,76.4884008"
Karimbanathottam Masjid,Mosque,"XFHH+J7F Karimbanathottam Masjid, Pottassery- Ii, Kerala 678598",,XFHH+J7F,Pottassery- Ii,678598,Kerala,IN,https://www.google.com/maps/place/Karimbanathottam+Masjid/data=!4m7!3m6!1s0x3ba87f6d22e20b87:0x24e0a7ed0c2bf8ce!8m2!3d10.979069!4d76.478177!16s%2Fg%2F11dx92cydz!19sChIJhwviIm1_qDsRzvgrDO2n4CQ?authuser=0&hl=en&rclk=1,"10.979068999999999,76.478177"
Mundampokku Mosque,Mosque,"XF6M+3GG Mundampokku Mosque, Kerala 678593",,XF6M+3GG,,,Kerala,IN,https://www.google.com/maps/place/Mundampokku+Mosque/data=!4m7!3m6!1s0x3ba87f39e840d42d:0xe3ead626f627a98a!8m2!3d10.9601877!4d76.483837!16s%2Fg%2F11f2wl1368!19sChIJLdRA6Dl_qDsRiqkn9ibW6uM?authuser=0&hl=en&rclk=1,"10.960187699999999,76.483837"
Thenkara Juma Masjid,Mosque,"2F9X+3RF Thenkara Juma Masjid, Thenkara, Kerala 678582",,2F9X+3RF,Thenkara,,Kerala,IN,https://www.google.com/maps/place/Thenkara+Juma+Masjid/data=!4m7!3m6!1s0x3ba87f8e6be75817:0x38ef33053045684b!8m2!3d11.0176922!4d76.4995429!16s%2Fg%2F11g3y6q5lk!19sChIJF1jna45_qDsRS2hFMAUz7zg?authuser=0&hl=en&rclk=1,"11.017692199999999,76.4995429"
Masjid Irshad (mosque),Mosque,"XFR4+W6X Masjid Irshad (mosque), Mannarkkad, Mannarkad-I, Kerala 678762",,XFR4+W6X,"Mannarkkad, Mannarkad-I",678762,Kerala,IN,https://www.google.com/maps/place/Masjid+Irshad+%28mosque%29/data=!4m7!3m6!1s0x3ba7d57fe61b476b:0xd3ad3c465505047a!8m2!3d10.9923682!4d76.4556136!16s%2Fg%2F11c4wy8t2_!19sChIJa0cb5n_VpzsRegQFVUY8rdM?authuser=0&hl=en&rclk=1,"10.9923682,76.45561359999999"
Juma Masjid,Mosque,"2C2R+4JG Juma Masjid, Akkippadam, Mylambadam Road, Mannarkkad, Kerala",Akkippadom,"2C2R+4JG, Akkippadam, Mylambadam Road",Mannarkkad,,Kerala,IN,https://www.google.com/maps/place/Juma+Masjid/data=!4m7!3m6!1s0x3ba7d571ca06a2a5:0xfc770aad59b75228!8m2!3d11.0003187!4d76.4415628!16s%2Fg%2F11gbfc4szp!19sChIJpaIGynHVpzsRKFK3Wa0Kd_w?authuser=0&hl=en&rclk=1,"11.0003187,76.4415628"
Campus Masjid,Mosque,"XCRP+JHG Campus Masjid, College PO, Mylampadam Rd, Kerala 678582",,"XCRP+JHG, College PO, Mylampadam Rd",,678582,Kerala,IN,https://www.google.com/maps/place/Campus+Masjid/data=!4m7!3m6!1s0x3ba7d575993440dd:0x97495c138447d03c!8m2!3d10.9915644!4d76.4364465!16s%2Fg%2F11h031p4w!19sChIJ3UA0mXXVpzsRPNBHhBNcSZc?authuser=0&hl=en&rclk=1,"10.9915644,76.4364465"
Chirapadam Masjid,Mosque,"2GG3+337 Chirapadam Masjid, Thenkara, Mannarkad-II, Kerala 678582",,2GG3+337,"Thenkara, Mannarkad-II",,Kerala,IN,https://www.google.com/maps/place/Chirapadam+Masjid/data=!4m7!3m6!1s0x3ba87fdfc38f46e3:0x526e3bdb4569163e!8m2!3d11.0251528!4d76.5026787!16s%2Fg%2F11g3z549b2!19sChIJ40aPw99_qDsRPhZpRds7blI?authuser=0&hl=en&rclk=1,"11.025152799999999,76.50267869999999"
Masjid,Mosque,"XFX9+MVG Masjid, Mannarkkad, Kerala 678582",,XFX9+MVG,Mannarkkad,,Kerala,IN,https://www.google.com/maps/place/Masjid/data=!4m7!3m6!1s0x3ba87f9b115160d5:0x3b8b30e3144415d9!8m2!3d10.9991997!4d76.4697079!16s%2Fg%2F11f53gy47h!19sChIJ1WBREZt_qDsR2RVEFOMwizs?authuser=0&hl=en&rclk=1,"10.9991997,76.4697079"
Town Juma Masjid,Mosque,"XFR4+FCX Town Juma Masjid, Chanthappadi, Mannarkkad, Mannarkad-I, Kerala 678762",Chanthappadi,XFR4+FCX,"Mannarkkad, Mannarkad-I",,Kerala,IN,https://www.google.com/maps/place/Town+Juma+Masjid/data=!4m7!3m6!1s0x3ba7d58001cc6eed:0x61c39bac018a9774!8m2!3d10.9912431!4d76.4561145!16s%2Fg%2F11f3zwkp0q!19sChIJ7W7MAYDVpzsRdJeKAaybw2E?authuser=0&hl=en&rclk=1,"10.9912431,76.4561145"
Masjid Al Noor,Mosque,"XFV3+2CC Masjid Al Noor, Mannarkkad, Mannarkad-I, Kerala 678762",,XFV3+2CC,"Mannarkkad, Mannarkad-I",,Kerala,IN,https://www.google.com/maps/place/Masjid+Al+Noor/data=!4m7!3m6!1s0x3ba7d5186ced7295:0x449fd24956368e7e!8m2!3d10.9925528!4d76.4535128!16s%2Fg%2F11g1mn2db2!19sChIJlXLtbBjVpzsRfo42VknSn0Q?authuser=0&hl=en&rclk=1,"10.9925528,76.4535128"
Mannarkkad sunni centre,Mosque,"XFQ3+VJC Mannarkkad sunni centre, Kozhikode - Palakkad Hwy, Kodathippadi, Mannarkkad, Mannarkad-I, Kerala 678582",Kodathippadi,"XFQ3+VJC, Kozhikode - Palakkad Hwy","Mannarkkad, Mannarkad-I",678582,Kerala,IN,https://www.google.com/maps/place/Mannarkkad+sunni+centre/data=!4m7!3m6!1s0x3ba7d5ca7cc36e19:0x45203361caae689c!8m2!3d10.9896908!4d76.454008!16s%2Fg%2F11hdgxnt0_!19sChIJGW7DfMrVpzsRnGiuymEzIEU?authuser=0&hl=en&rclk=1,"10.9896908,76.454008"
Masjidul Badariyya,Mosque,"XFPH+65F Masjidul Badariyya, Nottanmala, Kerala 678598",,XFPH+65F,Nottanmala,678598,Kerala,IN,https://www.google.com/maps/place/Masjidul+Badariyya/data=!4m7!3m6!1s0x3ba87f736a8ac8a9:0x6fb902c05854a778!8m2!3d10.9855557!4d76.4779367!16s%2Fg%2F11clw65jwg!19sChIJqciKanN_qDsReKdUWMACuW8?authuser=0&hl=en&rclk=1,"10.985555699999999,76.4779367"
"Islamic Center, Masjid",Mosque,"XCRQ+26F Islamic Center, Masjid, Shortcut to Mylampadam Road, Kunthipuzha, Kerala 678762",Kunthipuzha,"XCRQ+26F, Shortcut to Mylampadam Road",,678762,Kerala,IN,"https://www.google.com/maps/place/Islamic+Center,+Masjid/data=!4m7!3m6!1s0x3ba7d59e1b87c2cb:0x7555ca5ac7faa36!8m2!3d10.9900533!4d76.4380459!16s%2Fg%2F11dftcd433!19sChIJy8KHG57VpzsRNqp_rKVcVQc?authuser=0&hl=en&rclk=1","10.9900533,76.43804589999999"
Kunthipuzha Juma Masjid,Mosque,"Kunthipuzha Juma Masjid, Kerala 678583",,,,,Kerala,IN,https://www.google.com/maps/place/Kunthipuzha+Juma+Masjid/data=!4m7!3m6!1s0x3ba7d59db2fd8edf:0x8941920217f085f!8m2!3d10.9886967!4d76.4409813!16s%2Fg%2F1vp6ymmp!19sChIJ3479sp3VpzsRXwh_ISAZlAg?authuser=0&hl=en&rclk=1,"10.9886967,76.44098129999999"
Masjid,Mosque,"2C6J+H28 Masjid, Balipadi, Kerala 678583",,2C6J+H28,Balipadi,678583,Kerala,IN,https://www.google.com/maps/place/Masjid/data=!4m7!3m6!1s0x3ba7d5159ce3a7c5:0x259a6688f39814cc!8m2!3d11.0114244!4d76.430074!16s%2Fg%2F11fxb338kq!19sChIJxafjnBXVpzsRzBSY84hmmiU?authuser=0&hl=en&rclk=1,"11.0114244,76.43007399999999"
Maruthumkadu Masjid,Mosque,"2CGG+5WH Maruthumkadu Masjid, Avanakunnu, Kerala 678583",,2CGG+5WH,Avanakunnu,678583,Kerala,IN,https://www.google.com/maps/place/Maruthumkadu+Masjid/data=!4m7!3m6!1s0x3ba7d530d32d893b:0x33b024f0883a0bae!8m2!3d11.025446!4d76.4273693!16s%2Fg%2F11c2p8vf74!19sChIJO4kt0zDVpzsRrgs6iPAksDM?authuser=0&hl=en&rclk=1,"11.025445999999999,76.4273693"
Modamtode Masjid,Mosque,"2C5G+472 Modamtode Masjid, Kerala 678583",,2C5G+472,,678583,Kerala,IN,https://www.google.com/maps/place/Modamtode+Masjid/data=!4m7!3m6!1s0x3ba7d536463d4b75:0x8b6d727d615491a8!8m2!3d11.0077639!4d76.4256463!16s%2Fg%2F11fl_b2gpl!19sChIJdUs9RjbVpzsRqJFUYX1ybYs?authuser=0&hl=en&rclk=1,"11.007763899999999,76.4256463"
Mundekkarad alinjodu Masjid (no juma),Mosque,"XFH7+4HH Mundekkarad alinjodu Masjid (no juma), Tippu Sulthan Rd, Mannarkkad, Mannarkad-I, Kerala 678598",,"XFH7+4HH, Tippu Sulthan Rd","Mannarkkad, Mannarkad-I",678598,Kerala,IN,https://www.google.com/maps/place/Mundekkarad+alinjodu+Masjid+%28no+juma%29/data=!4m7!3m6!1s0x3ba87f5289a2fe8f:0xd199a230fa4fb77c!8m2!3d10.9778186!4d76.4639801!16s%2Fg%2F11j8p1lxzy!19sChIJj_6iiVJ_qDsRfLdP-jCimdE?authuser=0&hl=en&rclk=1,"10.977818599999999,76.4639801"
Al Huda Juma Masjid Punchakode Para,Mosque,"2F5G+JQW Al Huda Juma Masjid Punchakode Para, Mannarkkad - Anakkatti Rd, Thenkara, Mannarkad-II, Kerala 678582",,"2F5G+JQW, Mannarkkad - Anakkatti Rd","Thenkara, Mannarkad-II",,Kerala,IN,https://www.google.com/maps/place/Al+Huda+Juma+Masjid+Punchakode+Para/data=!4m7!3m6!1s0x3ba87fec74a71a79:0xa1873146228fd90d!8m2!3d11.0091075!4d76.4769549!16s%2Fg%2F11gv28c76j!19sChIJeRqndOx_qDsRDdmPIkYxh6E?authuser=0&hl=en&rclk=1,"11.009107499999999,76.4769549"
Pattanikkad masjid thaqwa,Mosque,"XCX7+WRC Pattanikkad masjid thaqwa, Ambazhakode Road, Kottoppadam-II, Kerala 678583",,"XCX7+WRC, Ambazhakode Road",Kottoppadam-II,678583,Kerala,IN,https://www.google.com/maps/place/Pattanikkad+masjid+thaqwa/data=!4m7!3m6!1s0x3ba7d5e9e8b5af7b:0x26a93d7ce03515ec!8m2!3d10.9998233!4d76.4145261!16s%2Fg%2F11fm9n64gt!19sChIJe6-16OnVpzsR7BU14Hw9qSY?authuser=0&hl=en&rclk=1,"10.9998233,76.4145261"
Masjid thouheed Mannarkkad,Mosque,"XFR5+7M9 Masjid thouheed Mannarkkad, Mannarkad-I, Kerala 678762",,XFR5+7M9,Mannarkad-I,678762,Kerala,IN,https://www.google.com/maps/place/Masjid+thouheed+Mannarkkad/data=!4m7!3m6!1s0x3ba87f55445e5e2d:0xe04b77191b27c9d1!8m2!3d10.9906738!4d76.4592409!16s%2Fg%2F11kplcwrqf!19sChIJLV5eRFV_qDsR0cknGxl3S-A?authuser=0&hl=en&rclk=1,"10.9906738,76.4592409"
Salafi Masjid,Mosque,"XFR5+6QG Salafi Masjid, Mannarkkad, Mannarkad-I, Kerala 678762",,XFR5+6QG,"Mannarkkad, Mannarkad-I",678762,Kerala,IN,https://www.google.com/maps/place/Salafi+Masjid/data=!4m7!3m6!1s0x3ba87f154f31d00f:0x3bad5dc01ae133a8!8m2!3d10.9905741!4d76.4594142!16s%2Fg%2F11rh_qw7n7!19sChIJD9AxTxV_qDsRqDPhGsBdrTs?authuser=0&hl=en&rclk=1,"10.9905741,76.4594142"
Masjidu Noor,Mosque,"XFQG+P95 Masjidu Noor, Nottanmala, Kerala 678598",,XFQG+P95,Nottanmala,678598,Kerala,IN,https://www.google.com/maps/place/Masjidu+Noor/data=!4m7!3m6!1s0x3ba87f745257c769:0x828c5d22eb77540b!8m2!3d10.9892714!4d76.4759752!16s%2Fg%2F11c2mcwdq1!19sChIJacdXUnR_qDsRC1R36yJdjII?authuser=0&hl=en&rclk=1,"10.9892714,76.4759752"
Mosque,Mosque,"XCRV+F78 Mosque, Kunthipuzha, Mannarkad-I, Kerala 678583",Kunthipuzha,XCRV+F78,Mannarkad-I,678583,Kerala,IN,https://www.google.com/maps/place/Mosque/data=!4m7!3m6!1s0x3ba7d577ddc02025:0x1ac74f7a78a70752!8m2!3d10.9911518!4d76.4432027!16s%2Fg%2F11gdkqjlnx!19sChIJJSDA3XfVpzsRUgeneHpPxxo?authuser=0&hl=en&rclk=1,"10.991151799999999,76.4432027"
Chullimunda hamza (rr) masjid,Mosque,"XF69+JXW Chullimunda hamza (rr) masjid, Mannarkad-I, Kerala 678593",,XF69+JXW,Mannarkad-I,,Kerala,IN,https://www.google.com/maps/place/Chullimunda+hamza+%28%E0%B4%B1%29+masjid/data=!4m7!3m6!1s0x3ba87f60bd0c9a95:0x576b70aa7ca9f078!8m2!3d10.9616159!4d76.4699444!16s%2Fg%2F11h7vhmyw9!19sChIJlZoMvWB_qDsRePCpfKpwa1c?authuser=0&hl=en&rclk=1,"10.9616159,76.4699444"
Salafi Masjid Pandikkad,Mosque,"XCVQ+6JH Salafi Masjid Pandikkad, Pandikkad, Kerala 678583",Pandikkad,XCVQ+6JH,,678583,Kerala,IN,https://www.google.com/maps/place/Salafi+Masjid+Pandikkad/data=!4m7!3m6!1s0x3ba7d578c0c8645f:0x4422814d2ec11820!8m2!3d10.9930611!4d76.4390955!16s%2Fg%2F11fb0yd648!19sChIJX2TIwHjVpzsRIBjBLk2BIkQ?authuser=0&hl=en&rclk=1,"10.9930611,76.4390955"
Hanafi Mosque,Mosque,"XFV8+P29 Hanafi Mosque, NH 966, Hospital Junction, Mannarkkad, Mannarkad-I, Kerala 678582",Hospital Junction,"XFV8+P29, NH 966","Mannarkkad, Mannarkad-I",678582,Kerala,IN,https://www.google.com/maps/place/Hanafi+Mosque/data=!4m7!3m6!1s0x3ba87f82ff096aab:0x72eb86f92fbea596!8m2!3d10.9942868!4d76.4651033!16s%2Fg%2F11tgg7k9ht!19sChIJq2oJ_4J_qDsRlqW-L_mG63I?authuser=0&hl=en&rclk=1,"10.9942868,76.4651033"
Kolassery kunnu masjid,Mosque,"2F5F+73W Kolassery kunnu masjid, Mannarkad-II, Kerala 678582",,2F5F+73W,Mannarkad-II,678582,Kerala,IN,https://www.google.com/maps/place/Kolassery+kunnu+masjid/data=!4m7!3m6!1s0x3ba87f31e3e34eff:0x5ad5b4351f05789a!8m2!3d11.0082494!4d76.4727332!16s%2Fg%2F11l5nc103m!19sChIJ_07j4zF_qDsRmngFHzW01Vo?authuser=0&hl=en&rclk=1,"11.008249399999999,76.4727332"
Irshad School Masjid,Mosque,"XCFR+JMV Irshad School Masjid, Palakkad, Kerala 678762",,XCFR+JMV,Palakkad,678762,Kerala,IN,https://www.google.com/maps/place/Irshad+School+Masjid/data=!4m7!3m6!1s0x3ba7d593d57de275:0xfede3f25344dcbe1!8m2!3d10.974113!4d76.4416792!16s%2Fg%2F11f125qzry!19sChIJdeJ91ZPVpzsR4ctNNCU_3v4?authuser=0&hl=en&rclk=1,"10.974113,76.4416792"
masjid noor nariyamkode,Mosque,"2F2Q+FRR masjid noor nariyamkode, Nariyamkode Road, Pottassery- Ii, Pottassery- I, Kerala 678598",,"2F2Q+FRR, Nariyamkode Road","Pottassery- Ii, Pottassery- I",678598,Kerala,IN,https://www.google.com/maps/place/masjid+noor+nariyamkode/data=!4m7!3m6!1s0x3ba87f843b47acc9:0xd6acf3c93e539cd5!8m2!3d11.0012284!4d76.4895188!16s%2Fg%2F11qh96wvtq!19sChIJyaxHO4R_qDsR1ZxTPsnzrNY?authuser=0&hl=en&rclk=1,"11.001228399999999,76.4895188"
Randam Mile Juma Masjid,Mosque,"Randam Mile Juma Masjid, 2nd Mile, Changaleeri Rd, Kerala 679513",,"2nd Mile, Changaleeri Rd",,679513,Kerala,IN,https://www.google.com/maps/place/Randam+Mile+Juma+Masjid/data=!4m7!3m6!1s0x3ba7d55aa8a6d467:0xaba879e81be934be!8m2!3d10.9673142!4d76.4390764!16s%2Fg%2F11pz4zbc5d!19sChIJZ9SmqFrVpzsRvjTpG-h5qKs?authuser=0&hl=en&rclk=1,"10.967314199999999,76.43907639999999"
Masjid rahman,Mosque,"XC4W+3X Masjid rahman, Karimpuzha-II, Kerala 679513",,XC4W+3X,Karimpuzha-II,,Kerala,IN,https://www.google.com/maps/place/Masjid+rahman/data=!4m7!3m6!1s0x3ba7d5c1174326db:0x3102191bbfe050a5!8m2!3d10.955259!4d76.4474521!16s%2Fg%2F11pkg8932h!19sChIJ2yZDF8HVpzsRpVDgvxsZAjE?authuser=0&hl=en&rclk=1,"10.955259,76.44745209999999"
