name,main_category,address,address_ward,address_street,address_city,address_postal_code,address_state,address_country_code,link,coordinates
Jama Masjid,Mosque,"MGGQ+F5Q Jama Masjid, Jama Masjid Rd, Mahalaxmiwada, Adilabad, Telangana 504001",Mahalaxmiwada,"MGGQ+F5Q, Jama Masjid Rd",Adilabad,504001,Telangana,IN,https://www.google.com/maps/place/Jama+Masjid/data=!4m7!3m6!1s0x3bd25c75f87e8a01:0x25a95ee1fbab37d0!8m2!3d19.6762137!4d78.5379985!16s%2Fg%2F1tlqnfwv!19sChIJAYp--HVc0jsR0Der--FeqSU?authuser=0&hl=en&rclk=1,"19.676213699999998,78.5379985"
Gulzaar Masjid,Mosque,"MGCR+66Q Gulzaar Masjid, Bokkalguda St, Brahmanwadi, Adilabad, Telangana 504001",Brahmanwadi,"MGCR+66Q, Bokkalguda St",Adilabad,504001,Telangana,IN,https://www.google.com/maps/place/Gulzaar+Masjid/data=!4m7!3m6!1s0x3bd25c7477d00337:0x3dc61fe7489f62b1!8m2!3d19.6704596!4d78.5395986!16s%2Fg%2F1tcz6sjz!19sChIJNwPQd3Rc0jsRsWKfSOcfxj0?authuser=0&hl=en&rclk=1,"19.670459599999997,78.53959859999999"
Masjid e Noor Khursheed Nagar,Mosque,"Masjid e Noor Khursheed Nagar, khursheed Nagar, Adilabad, Telangana 504001",khursheed Nagar,,Adilabad,,Telangana,IN,https://www.google.com/maps/place/Masjid+e+Noor+Khursheed+Nagar/data=!4m7!3m6!1s0x3bd25b7f77891187:0xd64d9d2522c68201!8m2!3d19.6780656!4d78.5199255!16s%2Fg%2F1pp2x6dd1!19sChIJhxGJd39b0jsRAYLGIiWdTdY?authuser=0&hl=en&rclk=1,"19.6780656,78.5199255"
Mohammadia Masjid,Mosque,"MGFH+M8P Mohammadia Masjid, NH 44, Vidya Nagar, Adilabad, Telangana 504001",Vidya Nagar,"MGFH+M8P, NH 44",Adilabad,504001,Telangana,IN,https://www.google.com/maps/place/Mohammadia+Masjid/data=!4m7!3m6!1s0x3bd25c7892a2eb3b:0x89c3b0daf8ff360!8m2!3d19.6742243!4d78.5283275!16s%2Fg%2F1tjz1t_5!19sChIJO-uiknhc0jsRYPOPrw07nAg?authuser=0&hl=en&rclk=1,"19.6742243,78.5283275"
Masjid_E_Quba,Mosque,"Masjid_E_Quba, 2-5-216, beside Masjid E Quba Khila, Mohalla Badh, Adilabad, Telangana 504001",Mohalla Badh,"2-5-216, beside Masjid E Quba Khila",Adilabad,504001,Telangana,IN,https://www.google.com/maps/place/Masjid_E_Quba/data=!4m7!3m6!1s0x3bd25bedeaaaaaab:0xe29f9a411d92289b!8m2!3d19.6793188!4d78.5406475!16s%2Fg%2F11bwkvtnj8!19sChIJq6qq6u1b0jsRmyiSHUGan-I?authuser=0&hl=en&rclk=1,"19.6793188,78.54064749999999"
Masjid-e-Meraj,Mosque,"Masjid-e-Meraj, Police lane, Sanjay Nagar, Adilabad, Bhattisavargaon, Telangana 504001",Sanjay Nagar,Police lane,"Adilabad, Bhattisavargaon",504001,Telangana,IN,https://www.google.com/maps/place/Masjid-e-Meraj/data=!4m7!3m6!1s0x3bd25c80a40634d7:0x99b706696d47a613!8m2!3d19.6674917!4d78.5163997!16s%2Fg%2F1tr7b846!19sChIJ1zQGpIBc0jsRE6ZHbWkGt5k?authuser=0&hl=en&rclk=1,"19.6674917,78.5163997"
Masjid E Abubaker,Mosque,"MG8V+54F Masjid E Abubaker, Shanti Nagar, Adilabad, Telangana 504001",Shanti Nagar,MG8V+54F,Adilabad,504001,Telangana,IN,https://www.google.com/maps/place/Masjid+E+Abubaker/data=!4m7!3m6!1s0x3bd25c72afd994d1:0x55e84f035f33b282!8m2!3d19.6654385!4d78.542794!16s%2Fg%2F11c1wsmygw!19sChIJ0ZTZr3Jc0jsRgrIzXwNP6FU?authuser=0&hl=en&rclk=1,"19.6654385,78.542794"
Jama Masjid,Mosque,"9WF4+RQQ Jama Masjid, Jainoor, Telangana 504313",,9WF4+RQQ,Jainoor,504313,Telangana,IN,https://www.google.com/maps/place/Jama+Masjid/data=!4m7!3m6!1s0x3bd29a35900ac135:0x7391ef599ce08a2c!8m2!3d19.3745916!4d78.9069837!16s%2Fg%2F11f34m3m7b!19sChIJNcEKkDWa0jsRLIrgnFnvkXM?authuser=0&hl=en&rclk=1,"19.3745916,78.9069837"
Madina Masjid mdynh msjd,Mosque,"MGCJ+GX8 Madina Masjid mdynh msjd, Netaji Chowk Rd, Ponnar, Bhuktapur, Telangana 504001",Ponnar,"MGCJ+GX8, Netaji Chowk Rd",Bhuktapur,504001,Telangana,IN,https://www.google.com/maps/place/Madina+Masjid+%D9%85%D8%AF%DB%8C%D9%86%DB%81+%D9%85%D8%B3%D8%AC%D8%AF%E2%80%AD/data=!4m7!3m6!1s0x3bd25c7742dd0b05:0xf2fb259a889bfa78!8m2!3d19.6712846!4d78.5324561!16s%2Fg%2F11fzzxxq7l!19sChIJBQvdQndc0jsRePqbiJol-_I?authuser=0&hl=en&rclk=1,"19.6712846,78.53245609999999"
Fathima Masjid,Mosque,"MGFF+676 Fathima Masjid, Sanjay Nagar, Adilabad, Telangana 504001",Sanjay Nagar,MGFF+676,Adilabad,504001,Telangana,IN,https://www.google.com/maps/place/Fathima+Masjid/data=!4m7!3m6!1s0x3bd25c7fa619132f:0x3fc5279c8cd8c162!8m2!3d19.6730467!4d78.5231404!16s%2Fg%2F11g65c9p2q!19sChIJLxMZpn9c0jsRYsHYjJwnxT8?authuser=0&hl=en&rclk=1,"19.6730467,78.5231404"
Masjid E Hassan,Mosque,"MG8V+QPM Masjid E Hassan, Unnamed Road, Shanti Nagar, Adilabad, Telangana 504001",Shanti Nagar,"MG8V+QPM, Unnamed Road",Adilabad,504001,Telangana,IN,https://www.google.com/maps/place/Masjid+E+Hassan/data=!4m7!3m6!1s0x3bd25c0d29000079:0xa0cc092090b96993!8m2!3d19.6669651!4d78.5443022!16s%2Fg%2F11dfk_8lt4!19sChIJeQAAKQ1c0jsRk2m5kCAJzKA?authuser=0&hl=en&rclk=1,"19.6669651,78.54430219999999"
MADEENA MASJID ECHODA,Mosque,"CFG3+256 MADEENA MASJID ECHODA, Ichoda, Telangana 504307",,CFG3+256,Ichoda,504307,Telangana,IN,https://www.google.com/maps/place/MADEENA+MASJID+ECHODA/data=!4m7!3m6!1s0x3bd26f98044820f1:0xb0592db733389086!8m2!3d19.42503!4d78.4529037!16s%2Fg%2F11c3tqr4t1!19sChIJ8SBIBJhv0jsRhpA4M7ctWbA?authuser=0&hl=en&rclk=1,"19.42503,78.4529037"
JAMA MASJID SULTANGUDA,Mosque,"C2RR+XGF JAMA MASJID SULTANGUDA, Sultanguda, Kerimeri, Adilabad, Telangana 504313",Sultanguda,C2RR+XGF,"Kerimeri, Adilabad",,Telangana,IN,https://www.google.com/maps/place/JAMA+MASJID+SULTANGUDA/data=!4m7!3m6!1s0x3bd2bd475cdd2b39:0x2b52fccf2d27bcc0!8m2!3d19.4424339!4d79.0413029!16s%2Fg%2F11d_5drtt9!19sChIJOSvdXEe90jsRwLwnLc_8Uis?authuser=0&hl=en&rclk=1,"19.442433899999997,79.04130289999999"
Masjid,Mosque,"HFPR+4Q8 Masjid, Adilabad, Telangana 504308",,HFPR+4Q8,Adilabad,504308,Telangana,IN,https://www.google.com/maps/place/Masjid/data=!4m7!3m6!1s0x3bd25d5bfe1eb429:0x753a217332ff9baa!8m2!3d19.5852914!4d78.4919588!16s%2Fg%2F11dxq2d28t!19sChIJKbQe_ltd0jsRqpv_MnMhOnU?authuser=0&hl=en&rclk=1,"19.5852914,78.49195879999999"
Masjid Badar,Mosque,"MG8C+44M Masjid Badar, Rickshaw Colony, Adilabad, Telangana 504001",Rickshaw Colony,MG8C+44M,Adilabad,504001,Telangana,IN,https://www.google.com/maps/place/Masjid+Badar/data=!4m7!3m6!1s0x3bd25c878e7870c1:0x8e24c92e23dce198!8m2!3d19.6653455!4d78.5202985!16s%2Fg%2F11bbrlytdq!19sChIJwXB4jodc0jsRmOHcIy7JJI4?authuser=0&hl=en&rclk=1,"19.6653455,78.5202985"
Masjid e Bilala,Mosque,"Masjid e Bilala, Adilabad-Asifabad Rd, Jainoor, Telangana 504313",,Adilabad-Asifabad Rd,Jainoor,504313,Telangana,IN,https://www.google.com/maps/place/Masjid+e+Bilala/data=!4m7!3m6!1s0x3bd29bb7204a9e0f:0x706dab2553f72b79!8m2!3d19.3750134!4d78.9120455!16s%2Fg%2F11f6qq3rwz!19sChIJD55KILeb0jsReSv3UyWrbXA?authuser=0&hl=en&rclk=1,"19.3750134,78.91204549999999"
Jama Masjid,Mosque,"GJ2X+6JW Jama Masjid, Keslaguda, Telangana 504346",,GJ2X+6JW,Keslaguda,504346,Telangana,IN,https://www.google.com/maps/place/Jama+Masjid/data=!4m7!3m6!1s0x3bd261f970258be5:0x54b1787a0dcfac1b!8m2!3d19.5006085!4d78.6490645!16s%2Fg%2F11b6c8wzlm!19sChIJ5YslcPlh0jsRG6zPDXp4sVQ?authuser=0&hl=en&rclk=1,"19.5006085,78.6490645"
masjid e noor,Mosque,"MG4Q+H92 masjid e noor, Sri Rama Colony, Adilabad, Telangana 504001",Sri Rama Colony,MG4Q+H92,Adilabad,504001,Telangana,IN,https://www.google.com/maps/place/masjid+e+noor/data=!4m7!3m6!1s0x3bd25c6bd009a42f:0x83777eaad70e454d!8m2!3d19.6563983!4d78.5384053!16s%2Fg%2F11c5t1smfj!19sChIJL6QJ0Gtc0jsRTUUO16p-d4M?authuser=0&hl=en&rclk=1,"19.6563983,78.5384053"
Masjid E-munawar,Mosque,"MGHG+WFR Masjid E-munawar, Indira Nagar, Bhagya Nagar, Adilabad, Telangana 504001","Indira Nagar, Bhagya Nagar",MGHG+WFR,Adilabad,504001,Telangana,IN,https://www.google.com/maps/place/Masjid+E-munawar/data=!4m7!3m6!1s0x3bd25b814a89a5d1:0x13757a533e5d9127!8m2!3d19.6798716!4d78.5261472!16s%2Fg%2F11g5_f9f2n!19sChIJ0aWJSoFb0jsRJ5FdPlN6dRM?authuser=0&hl=en&rclk=1,"19.6798716,78.5261472"
Masjid-e-hanfia,Mosque,"MGPM+2C4 Masjid-e-hanfia, Kranti Nagar, Gandhi Nagar, Adilabad, Telangana 504001","Kranti Nagar, Gandhi Nagar",MGPM+2C4,Adilabad,504001,Telangana,IN,https://www.google.com/maps/place/Masjid-e-hanfia/data=!4m7!3m6!1s0x3bd25b8fa218f2e1:0x18f2829bdf51eaf4!8m2!3d19.6850231!4d78.5335857!16s%2Fg%2F11dd_qtmkm!19sChIJ4fIYoo9b0jsR9OpR35uC8hg?authuser=0&hl=en&rclk=1,"19.6850231,78.5335857"
Jama Masjid,Mosque,"Jama Masjid, Bus Station, Old, Utnur, Telangana 504311",Sevadas Nagar,"Bus Station, Old",Utnur,504311,Telangana,IN,https://www.google.com/maps/place/Jama+Masjid/data=!4m7!3m6!1s0x3bd285b42543f7db:0xfbc9083caa3eda41!8m2!3d19.3679744!4d78.7738921!16s%2Fg%2F11c2p12cr7!19sChIJ2_dDJbSF0jsRQdo-qjwIyfs?authuser=0&hl=en&rclk=1,"19.367974399999998,78.7738921"
Masjid-E-Mohammadiya,Mosque,"Masjid-E-Mohammadiya, 1, Nirmal - Mancherial Rd, Jannaram, Telangana 504205",,"1, Nirmal - Mancherial Rd",Jannaram,504205,Telangana,IN,https://www.google.com/maps/place/Masjid-E-Mohammadiya/data=!4m7!3m6!1s0x3bcd673fccaa4f81:0xf85ddfa7fa77cdbb!8m2!3d19.1192404!4d78.9938765!16s%2Fg%2F11byvwzk4r!19sChIJgU-qzD9nzTsRu813-qffXfg?authuser=0&hl=en&rclk=1,"19.1192404,78.9938765"
Masjid-E-Noor,Mosque,"9Q8G+JJX Masjid-E-Noor, Mominpura, Sevadas Nagar, Utnur, Telangana 504311","Mominpura, Sevadas Nagar",9Q8G+JJX,Utnur,,Telangana,IN,https://www.google.com/maps/place/Masjid-E-Noor/data=!4m7!3m6!1s0x3bd285b3f2afb185:0x2ec78038b9f918ae!8m2!3d19.3675545!4d78.7769558!16s%2Fg%2F1pp2tk8bd!19sChIJhbGv8rOF0jsRrhj5uTiAxy4?authuser=0&hl=en&rclk=1,"19.3675545,78.7769558"
NOORANI JAMA MASJID,Mosque,"NOORANI JAMA MASJID, Narnoor, Telangana 504311",,,Narnoor,504311,Telangana,IN,https://www.google.com/maps/place/NOORANI+JAMA+MASJID/data=!4m7!3m6!1s0x3bd291faf32c3cc1:0x9b5e439f89b47085!8m2!3d19.4987577!4d78.8481544!16s%2Fg%2F11g9mh63k9!19sChIJwTws8_qR0jsRhXC0iZ9DXps?authuser=0&hl=en&rclk=1,"19.4987577,78.8481544"
jm` msjd ndr wyly. (Jama Masjid indervelly ),Mosque,"FMVF+HC2 jm` msjd ndr wyly. (Jama Masjid indervelly ), Indervelly, Telangana 504346",,FMVF+HC2,Indervelly,504346,Telangana,IN,https://www.google.com/maps/place/%D8%AC%D8%A7%D9%85%D8%B9+%D9%85%D8%B3%D8%AC%D8%AF+%D8%A7%D9%86%D8%AF%D8%B1+%D9%88%DB%8C%D9%84%DB%8C%DB%94+%28Jama+Masjid+indervelly+%29%E2%80%AD/data=!4m7!3m6!1s0x3bd289e8469486f1:0xf56a332b39f02da9!8m2!3d19.4938815!4d78.6735064!16s%2Fg%2F11h21prn9w!19sChIJ8YaURuiJ0jsRqS3wOSszavU?authuser=0&hl=en&rclk=1,"19.4938815,78.6735064"
Syed safdar Ali baba dargah,Mosque,"9G6Q+7G6 Syed safdar Ali baba dargah, Gundala, Telangana 504203",,9G6Q+7G6,Gundala,504203,Telangana,IN,https://www.google.com/maps/place/Syed+safdar+Ali+baba+dargah/data=!4m7!3m6!1s0x3bd27b14930cd77d:0x6edc0f90d9881f5d!8m2!3d19.3606523!4d78.5387547!16s%2Fg%2F11qb3wct7p!19sChIJfdcMkxR70jsRXR-I2ZAP3G4?authuser=0&hl=en&rclk=1,"19.360652299999998,78.5387547"
Masjid E Umar Farooq,Mosque,"CFG3+GFW Masjid E Umar Farooq, Ichoda, Telangana 504307",,CFG3+GFW,Ichoda,504307,Telangana,IN,https://www.google.com/maps/place/Masjid+E+Umar+Farooq/data=!4m7!3m6!1s0x3bd26f986a32f5f1:0xa79367774c71be95!8m2!3d19.4263502!4d78.4537135!16s%2Fg%2F11f03zm31b!19sChIJ8fUyaphv0jsRlb5xTHdnk6c?authuser=0&hl=en&rclk=1,"19.426350199999998,78.45371349999999"
Umar Masjid,Mosque,"MG2H+9J7 Umar Masjid, Pittalwada, Khoja Colony, Adilabad, Telangana 504001","Pittalwada, Khoja Colony",MG2H+9J7,Adilabad,504001,Telangana,IN,https://www.google.com/maps/place/Umar+Masjid/data=!4m7!3m6!1s0x3bd25c5d9e45a7ff:0xd9937a4c4bfe8c53!8m2!3d19.6509166!4d78.5290486!16s%2Fg%2F11fx95lqmp!19sChIJ_6dFnl1c0jsRU4z-S0x6k9k?authuser=0&hl=en&rclk=1,"19.6509166,78.5290486"
MOHAMMAD IS MASJID,Mosque,"GHF6+VQ6 MOHAMMAD IS MASJID, Tosham, Telangana 504308",,GHF6+VQ6,Tosham,504308,Telangana,IN,https://www.google.com/maps/place/MOHAMMAD+IS+MASJID/data=!4m7!3m6!1s0x3bd267780b316d2b:0x43def7ea72223fa!8m2!3d19.5246611!4d78.5618857!16s%2Fg%2F11fjyxlpk6!19sChIJK20xC3hn0jsR-iMip37vPQQ?authuser=0&hl=en&rclk=1,"19.5246611,78.56188569999999"
MASJID - E - WASIL,Mosque,"9Q7C+W9C MASJID - E - WASIL, Utnur, Telangana 504311",,9Q7C+W9C,Utnur,504311,Telangana,IN,https://www.google.com/maps/place/MASJID+-+E+-+WASIL/data=!4m7!3m6!1s0x3bd285b568212b3b:0xd48a9da29da1160e!8m2!3d19.3648093!4d78.7708923!16s%2Fg%2F11g6q_z_ty!19sChIJOyshaLWF0jsRDhahnaKditQ?authuser=0&hl=en&rclk=1,"19.364809299999997,78.7708923"
Masjid e Noorani,Mosque,"MGMQ+P66 Masjid e Noorani, Mahalaxmiwada, Adilabad, Telangana 504001",Mahalaxmiwada,MGMQ+P66,Adilabad,504001,Telangana,IN,https://www.google.com/maps/place/Masjid+e+Noorani/data=!4m7!3m6!1s0x3bd25b71656d7da1:0x9db65c4943296ea6!8m2!3d19.6842802!4d78.5380187!16s%2Fg%2F11gphd3bdg!19sChIJoX1tZXFb0jsRpm4pQ0lctp0?authuser=0&hl=en&rclk=1,"19.6842802,78.5380187"
Masjid Mohammadia,Mosque,"9QCG+VR7 Masjid Mohammadia, Utnoor Rd, Utnur, Telangana 504311",,"9QCG+VR7, Utnoor Rd",Utnur,504311,Telangana,IN,https://www.google.com/maps/place/Masjid+Mohammadia/data=!4m7!3m6!1s0x3bd285b0dc0d26a7:0xf6fa3333ae2948b7!8m2!3d19.3721507!4d78.7770528!16s%2Fg%2F11c2p105cs!19sChIJpyYN3LCF0jsRt0gprjMz-vY?authuser=0&hl=en&rclk=1,"19.3721507,78.77705279999999"
Masjid-E-Zohra,Mosque,"Masjid-E-Zohra, Masjid-E- Zohra, Ambedkar Nagar, Khanapur, Telangana 504001",Ambedkar Nagar,Masjid-E- Zohra,Khanapur,504001,Telangana,IN,https://www.google.com/maps/place/Masjid-E-Zohra/data=!4m7!3m6!1s0x3bd25dbaced23b33:0xe16af2c30b24656!8m2!3d19.6729258!4d78.5447961!16s%2Fg%2F11j000cqb1!19sChIJMzvSzrpd0jsRVkayMCyvFg4?authuser=0&hl=en&rclk=1,"19.672925799999998,78.5447961"
MASJID-E-AQSA,Mosque,"9QCM+6FG MASJID-E-AQSA, Utnur, Telangana 504311",,9QCM+6FG,Utnur,504311,Telangana,IN,https://www.google.com/maps/place/MASJID-E-AQSA/data=!4m7!3m6!1s0x3bd285ae68120e2d:0x511a2112271c67ab!8m2!3d19.3705709!4d78.7836997!16s%2Fg%2F11d_8_t86t!19sChIJLQ4SaK6F0jsRq2ccJxIhGlE?authuser=0&hl=en&rclk=1,"19.3705709,78.7836997"
Madina Masjid,Mosque,"FRXW+J8M Madina Masjid, Narnoor, Telangana 504311",,FRXW+J8M,Narnoor,504311,Telangana,IN,https://www.google.com/maps/place/Madina+Masjid/data=!4m7!3m6!1s0x3bd291fb09c29f61:0x3a9088300dabf574!8m2!3d19.4990794!4d78.8457857!16s%2Fg%2F11fy93lty3!19sChIJYZ_CCfuR0jsRdPWrDTCIkDo?authuser=0&hl=en&rclk=1,"19.4990794,78.8457857"
Monammadia Masjid,Mosque,"FMX7+QP5 Monammadia Masjid, HEERAPUR, Indervelly, Heerapur, Telangana 504346",HEERAPUR,FMX7+QP5,"Indervelly, Heerapur",,Telangana,IN,https://www.google.com/maps/place/Monammadia+Masjid/data=!4m7!3m6!1s0x3bd28b5088306d5f:0x145d9a5d18c98ff!8m2!3d19.4993952!4d78.6643571!16s%2Fg%2F11gr5_09c8!19sChIJX20wiFCL0jsR_5iM0aXZRQE?authuser=0&hl=en&rclk=1,"19.4993952,78.66435709999999"
Masjid-e-Abdullah,Mosque,"3XR2+J23 Masjid-e-Abdullah, Jannaram - Kalamadugu Rd, Kalmadagu, Telangana 504205",,"3XR2+J23, Jannaram - Kalamadugu Rd",Kalmadagu,504205,Telangana,IN,https://www.google.com/maps/place/Masjid-e-Abdullah/data=!4m7!3m6!1s0x3bcd6660227f8177:0xe67839b827ba0ea4!8m2!3d19.0915155!4d78.9500358!16s%2Fg%2F11hbc1vfry!19sChIJd4F_ImBmzTsRpA66J7g5eOY?authuser=0&hl=en&rclk=1,"19.0915155,78.9500358"
Jama Masjid,Mosque,"FFMW+HFQ Jama Masjid, Mannur, Telangana 504308",,FFMW+HFQ,Mannur,,Telangana,IN,https://www.google.com/maps/place/Jama+Masjid/data=!4m7!3m6!1s0x3bd265e0439525af:0xbcf454f7611c69b0!8m2!3d19.4839707!4d78.4962288!16s%2Fg%2F11gfn_jq8n!19sChIJryWVQ-Bl0jsRsGkcYfdU9Lw?authuser=0&hl=en&rclk=1,"19.4839707,78.4962288"
Jama majid,Mosque,"8FWR+WX2 Jama majid, Keshavpatnam, Telangana 504307",,8FWR+WX2,Keshavpatnam,,Telangana,IN,https://www.google.com/maps/place/Jama+majid/data=!4m7!3m6!1s0x3bd27bc616f4a32b:0x73549259eda0cd01!8m2!3d19.3472728!4d78.4923811!16s%2Fg%2F11pw51w37y!19sChIJK6P0FsZ70jsRAc2g7VmSVHM?authuser=0&hl=en&rclk=1,"19.3472728,78.4923811"
MOSQUE,Mosque,"FW74+MMH MOSQUE, Unnamed Road, Patnapur, Telangana 504311",,"FW74+MMH, Unnamed Road",Patnapur,504311,Telangana,IN,https://www.google.com/maps/place/MOSQUE/data=!4m7!3m6!1s0x3bd29171978b6b7d:0xf6c2e30fdc4b6e09!8m2!3d19.464189!4d78.906724!16s%2Fg%2F11n_v2540n!19sChIJfWuLl3GR0jsRCW5L3A_jwvY?authuser=0&hl=en&rclk=1,"19.464188999999998,78.906724"
JAMA MASJID Patnapur,Mosque,"FV7X+CXQ JAMA MASJID Patnapur, Karimguda patnapur, distt, asifabad, Telangana",,"FV7X+CXQ, Karimguda patnapur, distt","asifabad, Nagolkonda",,Telangana,IN,https://www.google.com/maps/place/JAMA+MASJID+Patnapur/data=!4m7!3m6!1s0x3bd291e86e1a7d69:0x9834c04e32b8b593!8m2!3d19.4635955!4d78.8999868!16s%2Fg%2F11s42vdj81!19sChIJaX0abuiR0jsRk7W4Mk7ANJg?authuser=0&hl=en&rclk=1,"19.4635955,78.8999868"
Masjid e umar,Mosque,"9W95+WC9 Masjid e umar, Jainoor, Telangana 504313",,9W95+WC9,Jainoor,504313,Telangana,IN,https://www.google.com/maps/place/Masjid+e+umar/data=!4m7!3m6!1s0x3bd29b093593e477:0xe65cd53a2848ead0!8m2!3d19.3700184!4d78.9089038!16s%2Fg%2F11t27x9_rj!19sChIJd-STNQmb0jsR0OpIKDrVXOY?authuser=0&hl=en&rclk=1,"19.3700184,78.90890379999999"
Mohammadia Masjid,Mosque,"GGG7+V2V Mohammadia Masjid, Gudihathinur, Telangana 504308",,GGG7+V2V,Gudihathinur,,Telangana,IN,https://www.google.com/maps/place/Mohammadia+Masjid/data=!4m7!3m6!1s0x3bd2672db3af8d75:0xa3d2136c5bb1609!8m2!3d19.5272339!4d78.5125611!16s%2Fg%2F11fljg89lb!19sChIJdY2vsy1n0jsRCRa7xTYhPQo?authuser=0&hl=en&rclk=1,"19.5272339,78.5125611"
Choti Masjid,Mosque,"Choti Masjid, 1, Nirmal - Mancherial Rd, Jannaram, Telangana 504205",,"1, Nirmal - Mancherial Rd",Jannaram,504205,Telangana,IN,https://www.google.com/maps/place/Choti+Masjid/data=!4m7!3m6!1s0x3bcd673e34ac2f77:0xc32f71faf30d7a5f!8m2!3d19.1184965!4d78.9931769!16s%2Fg%2F11bw5mbvt0!19sChIJdy-sND5nzTsRX3oN8_pxL8M?authuser=0&hl=en&rclk=1,"19.1184965,78.9931769"
JAMA MASJID TOSHAM,Mosque,"GHH7+PQH JAMA MASJID TOSHAM, Tosham, Telangana 504308",,GHH7+PQH,Tosham,504308,Telangana,IN,https://www.google.com/maps/place/JAMA+MASJID+TOSHAM/data=!4m7!3m6!1s0x3bd2679d129ca44d:0x37c41b1b017dded8!8m2!3d19.529309!4d78.5644921!16s%2Fg%2F11llhm5gzr!19sChIJTaScEp1n0jsR2N59ARsbxDc?authuser=0&hl=en&rclk=1,"19.529308999999998,78.5644921"
Masjid e Afsana,Mosque,"JGRP+7WM Masjid e Afsana, KRK Rd, KRK Colony, Khoja Colony, Adilabad, Telangana 504001","KRK Colony, Khoja Colony","JGRP+7WM, KRK Rd",Adilabad,504001,Telangana,IN,https://www.google.com/maps/place/Masjid+e+Afsana/data=!4m7!3m6!1s0x3bd25d5d2e428473:0xd94d955bdaa63bd4!8m2!3d19.6407052!4d78.5372911!16s%2Fg%2F11t4wlk9cp!19sChIJc4RCLl1d0jsR1Dum2luVTdk?authuser=0&hl=en&rclk=1,"19.6407052,78.53729109999999"
DARGAH HAZRATH SYED SADIQ PUNJABI R.A.,Mosque,"9QFH+82V DARGAH HAZRATH SYED SADIQ PUNJABI R.A., Utnoor Rd, Utnur, Telangana 504311",,"9QFH+82V, Utnoor Rd",Utnur,,Telangana,IN,https://www.google.com/maps/place/DARGAH+HAZRATH+SYED+SADIQ+PUNJABI+R.A./data=!4m7!3m6!1s0x3bd285e8982a5b59:0xa6f27cae7e3b2eb8!8m2!3d19.37336!4d78.7775539!16s%2Fg%2F11q3lkmfrb!19sChIJWVsqmOiF0jsRuC47fq588qY?authuser=0&hl=en&rclk=1,"19.373359999999998,78.7775539"
Masjid-e-umarfarooq,Mosque,"9QCH+PGP Masjid-e-umarfarooq, Rahmathpura, Utnur, Telangana 504311",Rahmathpura,9QCH+PGP,Utnur,,Telangana,IN,https://www.google.com/maps/place/Masjid-e-umarfarooq/data=!4m7!3m6!1s0x3bd2857a91093a6b:0x26c68fcbfbdadda6!8m2!3d19.3718367!4d78.7788405!16s%2Fg%2F11g1bbd1gd!19sChIJazoJkXqF0jsRpt3a-8uPxiY?authuser=0&hl=en&rclk=1,"19.3718367,78.7788405"
Masjid,Mosque,"CQ24+936 Masjid, X-Road, Nagapur, Telangana 504311",X-Road,CQ24+936,Nagapur,504311,Telangana,IN,https://www.google.com/maps/place/Masjid/data=!4m7!3m6!1s0x3bd28542302b9163:0x87197ab60c077a2c!8m2!3d19.4009106!4d78.7551464!16s%2Fg%2F11qnl8lv7j!19sChIJY5ErMEKF0jsRLHoHDLZ6GYc?authuser=0&hl=en&rclk=1,"19.4009106,78.7551464"
Jama masjid,Mosque,"CQ8W+HQ Jama masjid, Hasnapur, Telangana 504311",,CQ8W+HQ,Hasnapur,504311,Telangana,IN,https://www.google.com/maps/place/Jama+masjid/data=!4m7!3m6!1s0x3bd28f3b13450bef:0x6a2f533252729bc0!8m2!3d19.4159327!4d78.7972924!16s%2Fg%2F11t2sb2b39!19sChIJ7wtFEzuP0jsRwJtyUjJTL2o?authuser=0&hl=en&rclk=1,"19.4159327,78.7972924"
JAMA MASJID,Mosque,"GGJ7+3R2 JAMA MASJID, Bazar road, Gudihathinur, Telangana 504308",,"GGJ7+3R2, Bazar road",Gudihathinur,504308,Telangana,IN,https://www.google.com/maps/place/JAMA+MASJID/data=!4m7!3m6!1s0x3bd2679cecb7be7b:0x2adf95c1083f777b!8m2!3d19.5301375!4d78.5145156!16s%2Fg%2F11sq265ndj!19sChIJe7637Jxn0jsRe3c_CMGV3yo?authuser=0&hl=en&rclk=1,"19.5301375,78.5145156"
Pangdi masjid,Mosque,"9263+5W Pangdi masjid, Seetagondi, Telangana 504313",,9263+5W,Seetagondi,,Telangana,IN,https://www.google.com/maps/place/Pangdi+masjid/data=!4m7!3m6!1s0x3bd299407103a9bf:0xc33d1edde125fb60!8m2!3d19.3603172!4d79.0060313!16s%2Fg%2F11s57ytdlj!19sChIJv6kDcUCZ0jsRYPsl4d0ePcM?authuser=0&hl=en&rclk=1,"19.3603172,79.00603129999999"
Masjid E Fatima Yousuf,Mosque,"3WG8+XMP Masjid E Fatima Yousuf, Revojipet New, Revojipet (Old), Telangana 504202",,3WG8+XMP,"Revojipet New, Revojipet (Old)",504202,Telangana,IN,https://www.google.com/maps/place/Masjid+E+Fatima+Yousuf/data=!4m7!3m6!1s0x3bcd6551fa8de007:0x1f6da9a6fdded8d8!8m2!3d19.0776595!4d78.9174451!16s%2Fg%2F11rmz_sv6c!19sChIJB-CN-lFlzTsR2Nje_aapbR8?authuser=0&hl=en&rclk=1,"19.0776595,78.9174451"
Masjid-E-Kausar,Mosque,"MG8Q+6M8 Masjid-E-Kausar, Shanti Nagar, Adilabad, Telangana 504001",Shanti Nagar,MG8Q+6M8,Adilabad,504001,Telangana,IN,https://www.google.com/maps/place/Masjid-E-Kausar/data=!4m7!3m6!1s0x3bd25c726cbfffff:0xdcc8a30755b4260c!8m2!3d19.6655322!4d78.5391992!16s%2Fg%2F11txmzh9h_!19sChIJ__-_bHJc0jsRDCa0VQejyNw?authuser=0&hl=en&rclk=1,"19.665532199999998,78.5391992"
Madina Masjid,Mosque,"9Q7H+P3C Madina Masjid, Mominpura, Utnur, Telangana 504311",Mominpura,9Q7H+P3C,Utnur,504311,Telangana,IN,https://www.google.com/maps/place/Madina+Masjid/data=!4m7!3m6!1s0x3bd285b33e155555:0x13e010187828103f!8m2!3d19.3643116!4d78.777638!16s%2Fg%2F11txmzdqbx!19sChIJVVUVPrOF0jsRPxAoeBgQ4BM?authuser=0&hl=en&rclk=1,"19.3643116,78.777638"
Jama-masjid,Mosque,"8RG9+858 Jama-masjid, danthanpalli, Utnur, Danthanpalle, Telangana 504311",,"8RG9+858, danthanpalli","Utnur, Danthanpalle",504311,Telangana,IN,https://www.google.com/maps/place/Jama-masjid/data=!4m7!3m6!1s0x3bd2854382fca6b1:0x7f6af6c9c5f66375!8m2!3d19.3257758!4d78.8177888!16s%2Fg%2F11t_m6qb3v!19sChIJsab8gkOF0jsRdWP2xcn2an8?authuser=0&hl=en&rclk=1,"19.3257758,78.8177888"
Jama-masjid,Mosque,"8RC9+GMX Jama-masjid, Danthanpalle, Telangana 504311",,8RC9+GMX,Danthanpalle,504311,Telangana,IN,https://www.google.com/maps/place/Jama-masjid/data=!4m7!3m6!1s0x3bd285b1acb03325:0xe09602827bfd9960!8m2!3d19.3213959!4d78.8191368!16s%2Fg%2F11t_k688fm!19sChIJJTOwrLGF0jsRYJn9e4ICluA?authuser=0&hl=en&rclk=1,"19.3213959,78.8191368"
MASJID SHANTAPUR,Mosque,"FGFP+C5C MASJID SHANTAPUR, Gudihathnoor Mandal, Shantapur, Telangana 504308",,FGFP+C5C Gudihathnoor Mandal,Shantapur,504308,Telangana,IN,https://www.google.com/maps/place/MASJID+SHANTAPUR/data=!4m7!3m6!1s0x3bd2654db6a04cab:0xf7f3553ee06f6434!8m2!3d19.4739955!4d78.5351779!16s%2Fg%2F11tgc9r3cf!19sChIJq0ygtk1l0jsRNGRv4D5V8_c?authuser=0&hl=en&rclk=1,"19.473995499999997,78.5351779"
Late Shakkar baap bhai's House,Mosque,"9Q8G+XPH Late Shakkar baap bhai's House, Utnur, Telangana 504311",,9Q8G+XPH,Utnur,,Telangana,IN,https://www.google.com/maps/place/Late+Shakkar+baap+bhai%27s+House/data=!4m7!3m6!1s0x3bd28599f6383c27:0x19c105667d80cd2a!8m2!3d19.367426!4d78.7768553!16s%2Fg%2F11t7x70mz7!19sChIJJzw49pmF0jsRKs2AfWYFwRk?authuser=0&hl=en&rclk=1,"19.367426,78.7768553"
Masjid-e-Umar Faruq,Mosque,"Masjid-e-Umar Faruq, 5-990, near Bhim Nagar, Indervelly, Telangana 504346",,"5-990, near Bhim Nagar",Indervelly,504346,Telangana,IN,https://www.google.com/maps/place/Masjid-e-Umar+Faruq/data=!4m7!3m6!1s0x3bd28977e7eaf70d:0x8258704df043e015!8m2!3d19.4936269!4d78.6706737!16s%2Fg%2F11st_xzdb0!19sChIJDffq53eJ0jsRFeBD8E1wWII?authuser=0&hl=en&rclk=1,"19.4936269,78.6706737"
JAMA MASJID NAGALKONDA,Place of worship,"FV9F+MJ5 JAMA MASJID NAGALKONDA, Nagolkonda, Telangana 504311",,FV9F+MJ5,Nagolkonda,,Telangana,IN,https://www.google.com/maps/place/JAMA+MASJID+NAGALKONDA/data=!4m7!3m6!1s0x3bd291a2f4aca2af:0x753fee629972f001!8m2!3d19.4691403!4d78.8740939!16s%2Fg%2F11ft1zb_k0!19sChIJr6Ks9KKR0jsRAfBymWLuP3U?authuser=0&hl=en&rclk=1,"19.4691403,78.87409389999999"
Abbubakar masjid,Mosque,"9WG5+JJV Abbubakar masjid, Jainoor, Telangana 504313",,9WG5+JJV,Jainoor,504313,Telangana,IN,https://www.google.com/maps/place/Abbubakar+masjid/data=!4m7!3m6!1s0x3bd29bab25333f2b:0x3b3f437925c3c48c!8m2!3d19.3766247!4d78.909049!16s%2Fg%2F11rs2wxm5k!19sChIJKz8zJaub0jsRjMTDJXlDPzs?authuser=0&hl=en&rclk=1,"19.3766247,78.909049"
Jama e masjid,Mosque,"CHP6+V5V Jama e masjid, Sirikonda, Telangana 504307",,CHP6+V5V,Sirikonda,504307,Telangana,IN,https://www.google.com/maps/place/Jama+e+masjid/data=!4m7!3m6!1s0x3bd265a0c4b67e19:0xeef9904049bc52ba!8m2!3d19.4372379!4d78.5604069!16s%2Fg%2F11t6n00ddy!19sChIJGX62xKBl0jsRulK8SUCQ-e4?authuser=0&hl=en&rclk=1,"19.4372379,78.56040689999999"
MOHAMMADIA MASJID,Mosque,"FMVC+JFR MOHAMMADIA MASJID, Heerapur, Indervelly, Telangana",,"FMVC+JFR, Heerapur",Indervelly,,Telangana,IN,https://www.google.com/maps/place/MOHAMMADIA+MASJID/data=!4m7!3m6!1s0x3bd289c55f8ff47d:0x2d649ece3f38847e!8m2!3d19.494116!4d78.6711451!16s%2Fg%2F11fcnd7c7s!19sChIJffSPX8WJ0jsRfoQ4P86eZC0?authuser=0&hl=en&rclk=1,"19.494115999999998,78.67114509999999"
Jama masjid,Mosque,"9XX2+F85 Jama masjid, Unnamed Road, Daboli, Telangana 504313",,"9XX2+F85, Unnamed Road",Daboli,504313,Telangana,IN,https://www.google.com/maps/place/Jama+masjid/data=!4m7!3m6!1s0x3bd29962bbeafef3:0x74b0832244550441!8m2!3d19.3986432!4d78.9508508!16s%2Fg%2F11h4v7zns2!19sChIJ8_7qu2KZ0jsRQQRVRCKDsHQ?authuser=0&hl=en&rclk=1,"19.3986432,78.9508508"
BILALA MASJID,Mosque,"9WF5+HJJ BILALA MASJID, Jainoor, Telangana 504313",,9WF5+HJJ,Jainoor,504313,Telangana,IN,https://www.google.com/maps/place/BILALA+MASJID/data=!4m7!3m6!1s0x3bd29b2e07edb8d3:0xa2580038ac3fd778!8m2!3d19.3739522!4d78.9090191!16s%2Fg%2F11f77_fyxp!19sChIJ07jtBy6b0jsReNc_rDgAWKI?authuser=0&hl=en&rclk=1,"19.373952199999998,78.9090191"
Dongargao eidgha,Mosque,"GG95+FRR Dongargao eidgha, Dongargaon, Gudihathinur, Telangana 504308",,GG95+FRR,"Dongargaon, Gudihathinur",,Telangana,IN,https://www.google.com/maps/place/Dongargao+eidgha/data=!4m7!3m6!1s0x3bd2672897490ae7:0x77f77cd4973b7dd8!8m2!3d19.5187376!4d78.5095172!16s%2Fg%2F11k46qqdyg!19sChIJ5wpJlyhn0jsR2H07l9R893c?authuser=0&hl=en&rclk=1,"19.518737599999998,78.50951719999999"
"JAM-E-MASJID,MANNUR",Mosque,"FFPW+29F JAM-E-MASJID,MANNUR, AH43, Mannur, Telangana 504308",,"FFPW+29F, AH43",Mannur,504308,Telangana,IN,"https://www.google.com/maps/place/JAM-E-MASJID,MANNUR/data=!4m7!3m6!1s0x3bd265bcb2478de3:0x3dc9202eefabe3bc!8m2!3d19.4850021!4d78.496046!16s%2Fg%2F11twqt17yj!19sChIJ441Hsrxl0jsRvOOr7y4gyT0?authuser=0&hl=en&rclk=1","19.4850021,78.49604599999999"
Jama masjid kawal,Mosque,"5X97+M8M Jama masjid kawal, Kawal, Telangana 504205",,5X97+M8M,Kawal,504205,Telangana,IN,https://www.google.com/maps/place/Jama+masjid+kawal/data=!4m7!3m6!1s0x3bcd61db9faed409:0xc8e57351b72be292!8m2!3d19.1707652!4d78.9627696!16s%2Fg%2F11tgfrbxkx!19sChIJCdSun9thzTsRkuIrt1Fz5cg?authuser=0&hl=en&rclk=1,"19.170765199999998,78.9627696"
Community Hall,Mosque,"2WW5+6JR Community Hall, Godserial, Telangana 504202",,2WW5+6JR,Godserial,,Telangana,IN,https://www.google.com/maps/place/Community+Hall/data=!4m7!3m6!1s0x3bcd6533481136a9:0x70724a69a268e136!8m2!3d19.0456115!4d78.9090214!16s%2Fg%2F11swmqtzks!19sChIJqTYRSDNlzTsRNuFoomlKcnA?authuser=0&hl=en&rclk=1,"19.0456115,78.9090214"
HAZRAT ALI BABA KARBALA DEVUNIGUDA,Mosque,"5X2G+64G HAZRAT ALI BABA KARBALA DEVUNIGUDA, Devuniguda, Kamanpalle, Telangana 504205",,5X2G+64G,"Devuniguda, Kamanpalle",504205,Telangana,IN,https://www.google.com/maps/place/HAZRAT+ALI+BABA+KARBALA+DEVUNIGUDA/data=!4m7!3m6!1s0x3bcd61dd37a84fc3:0x4c9c24dbaaf795de!8m2!3d19.1505631!4d78.9753296!16s%2Fg%2F11qt448pc7!19sChIJw0-oN91hzTsR3pX3qtsknEw?authuser=0&hl=en&rclk=1,"19.1505631,78.9753296"
