name,main_category,address,address_ward,address_street,address_city,address_postal_code,address_state,address_country_code,link,coordinates
Jame e Masjid,Mosque,"RQH3+644 Jame e Masjid, Venkatapur, Telangana 505326",,RQH3+644,Venkatapur,505326,Telangana,IN,https://www.google.com/maps/place/Jame+e+Masjid/data=!4m7!3m6!1s0x3bcd0ca1530e0327:0x3685976d8ab2a4b1!8m2!3d18.8280248!4d78.7528321!16s%2Fg%2F11c30sywj1!19sChIJJwMOU6EMzTsRsaSyim2XhTY?authuser=0&hl=en&rclk=1,"18.828024799999998,78.75283209999999"
Jam-E-Masjid (korutla),Mosque,"Jam-E-Masjid (korutla), Nizampura, Korutla, Telangana 505326",Nizampura,,Korutla,505326,Telangana,IN,https://www.google.com/maps/place/Jam-E-Masjid+%28korutla%29/data=!4m7!3m6!1s0x3bcd0b186c759cf3:0x659d4698d4bde07c!8m2!3d18.8187274!4d78.7119368!16s%2Fg%2F1hf6jkgv5!19sChIJ85x1bBgLzTsRfOC91JhGnWU?authuser=0&hl=en&rclk=1,"18.8187274,78.71193679999999"
Masjid -e- Ayesha,Mosque,"Masjid -e- Ayesha, Bheemuni Dubba, Rahmath Pura, Korutla, Telangana 505326","Bheemuni Dubba, Rahmath Pura",,Korutla,505326,Telangana,IN,https://www.google.com/maps/place/Masjid+-e-+Ayesha/data=!4m7!3m6!1s0x3bcd0b3bdf53722d:0xb8010ac30d2a5435!8m2!3d18.8279431!4d78.7192512!16s%2Fg%2F11cffzvh4!19sChIJLXJT3zsLzTsRNVQqDcMKAbg?authuser=0&hl=en&rclk=1,"18.8279431,78.7192512"
EK MINAR Masjid Gajulpet,Mosque,"VJ4H+65V EK MINAR Masjid Gajulpet, Metpally, Telangana 505325",,VJ4H+65V,Metpally,505325,Telangana,IN,https://www.google.com/maps/place/EK+MINAR+Masjid+Gajulpet/data=!4m7!3m6!1s0x3bcd9f9152eb8917:0x13ddf12d59bc2b37!8m2!3d18.8556199!4d78.6279287!16s%2Fg%2F11b6gl0r7c!19sChIJF4nrUpGfzTsRNyu8WS3x3RM?authuser=0&hl=en&rclk=1,"18.8556199,78.6279287"
"Jamae Masjid ,, Muslimpura",Mosque,"VJ2G+6JF Jamae Masjid ,, Muslimpura, Muslimpura, Head Post Office Rd, Chaitanya Nagar, Metpally, Telangana 505325","Jai Shree Ram Nagar, Chaitanya Nagar","VJ2G+6JF, Muslimpura, Head Post Office Rd",Metpally,505325,Telangana,IN,"https://www.google.com/maps/place/Jamae+Masjid+,,+Muslimpura/data=!4m7!3m6!1s0x3bcd9f91c5192a0b:0xedbe9c4d704f2203!8m2!3d18.8505562!4d78.6265513!16s%2Fg%2F11b6grqrs8!19sChIJCyoZxZGfzTsRAyJPcE2cvu0?authuser=0&hl=en&rclk=1","18.8505562,78.6265513"
Masjide Jamal . Sultanpura Metpally,Mosque,"RJRC+JR9 Masjide Jamal . Sultanpura Metpally, Sultanpura, Boyawada, Metpally, Telangana 505325","Sultanpura, Boyawada",RJRC+JR9,Metpally,505325,Telangana,IN,https://www.google.com/maps/place/Masjide+Jamal+.+Sultanpura+Metpally/data=!4m7!3m6!1s0x3bcd9f863ad1dec7:0xc6953b78602002fd!8m2!3d18.8415373!4d78.6221122!16s%2Fg%2F11btm18_5t!19sChIJx97ROoafzTsR_QIgYHg7lcY?authuser=0&hl=en&rclk=1,"18.8415373,78.62211219999999"
Masjid-e-omar,Mosque,"Masjid-e-omar, Street number 4, Masjid-e-Omar Rd, Mominpura, Korutla, Telangana 505326","Sairampura Colony, Mominpura","Street number 4, Masjid-e-Omar Rd",Korutla,505326,Telangana,IN,https://www.google.com/maps/place/Masjid-e-omar/data=!4m7!3m6!1s0x3bcd0b3e2e4fa021:0x13d39f3cc50b6ab3!8m2!3d18.8209895!4d78.7216232!16s%2Fg%2F11b7jhby1b!19sChIJIaBPLj4LzTsRs2oLxTyf0xM?authuser=0&hl=en&rclk=1,"18.8209895,78.7216232"
Bismillah Masjid,Mosque,"RJXG+4RJ Bismillah Masjid, Chaitanya Nagar, Metpally, Telangana 505325",Chaitanya Nagar,RJXG+4RJ,Metpally,505325,Telangana,IN,https://www.google.com/maps/place/Bismillah+Masjid/data=!4m7!3m6!1s0x3bcd9f912298a2cf:0x462adc9195938487!8m2!3d18.8478281!4d78.627007!16s%2Fg%2F11b6gpdw2g!19sChIJz6KYIpGfzTsRh4STlZHcKkY?authuser=0&hl=en&rclk=1,"18.847828099999997,78.62700699999999"
Morthad Masjid,Mosque,"RFG4+J3W Morthad Masjid, Nizamabad, Mortad, Telangana 503225",,RFG4+J3W,"Nizamabad, Mortad",503225,Telangana,IN,https://www.google.com/maps/place/Morthad+Masjid/data=!4m7!3m6!1s0x3bcdbd5f9d40b315:0x5a0dad30e23ddda!8m2!3d18.8266017!4d78.4552162!16s%2Fg%2F11c72vbkw5!19sChIJFbNAnV-9zTsR2t0jDtPaoAU?authuser=0&hl=en&rclk=1,"18.826601699999998,78.4552162"
"Masjid Al Huda, Eidgah",Mosque,"RJWF+H6X Masjid Al Huda, Eidgah, NH 16, Boyawada, Metpally, Telangana 505325",Boyawada,"RJWF+H6X, NH 16",Metpally,505325,Telangana,IN,"https://www.google.com/maps/place/Masjid+Al+Huda,+Eidgah/data=!4m7!3m6!1s0x3bcd9f8f7f6be0f1:0x33d8a6d45cc53bb4!8m2!3d18.8464967!4d78.6231137!16s%2Fg%2F11b8v9hh9b!19sChIJ8eBrf4-fzTsRtDvFXNSm2DM?authuser=0&hl=en&rclk=1","18.8464967,78.62311369999999"
Masjid e Muzdalfa,Mosque,"RM8X+V58 Masjid e Muzdalfa, Vemulawada Road Jagtial District, Korutla, Telangana 505326",Bilalpura,"RM8X+V58, Vemulawada Road Jagtial District",Korutla,505326,Telangana,IN,https://www.google.com/maps/place/Masjid+e+Muzdalfa/data=!4m7!3m6!1s0x3bcd0ae0c20b2b9d:0xd19cc70aa09051c6!8m2!3d18.8171704!4d78.6979487!16s%2Fg%2F11g_6xg4m!19sChIJnSsLwuAKzTsRxlGQoArHnNE?authuser=0&hl=en&rclk=1,"18.8171704,78.6979487"
Masjid-e-Imam,Mosque,"RPHF+5RJ Masjid-e-Imam, Hajipura, Korutla, Telangana 505326",Hajipura,RPHF+5RJ,Korutla,505326,Telangana,IN,https://www.google.com/maps/place/Masjid-e-Imam/data=!4m7!3m6!1s0x3bcd0b3898b92449:0xd395c041225a0698!8m2!3d18.8279598!4d78.7245231!16s%2Fg%2F11g_q6707!19sChIJSSS5mDgLzTsRmAZaIkHAldM?authuser=0&hl=en&rclk=1,"18.8279598,78.7245231"
"Madeena Masjid,Barkatpura",Mosque,"VJ2C+CJ8 Madeena Masjid,Barkatpura, Barkatpura St, Dubbawada, Metpally, Telangana 505325",Dubbawada,"VJ2C+CJ8, Barkatpura St",Metpally,505325,Telangana,IN,"https://www.google.com/maps/place/Madeena+Masjid,Barkatpura/data=!4m7!3m6!1s0x3bcd9f8feb4782d9:0xb985019cba454c75!8m2!3d18.8510436!4d78.6215866!16s%2Fg%2F11b6gqfh12!19sChIJ2YJH64-fzTsRdUxFupwBhbk?authuser=0&hl=en&rclk=1","18.8510436,78.6215866"
Jama Masjid,Mosque,"RGQ7+4HJ Jama Masjid, Kammarpally, Telangana 503308",,RGQ7+4HJ,Kammarpally,503308,Telangana,IN,https://www.google.com/maps/place/Jama+Masjid/data=!4m7!3m6!1s0x3bcd987beeb4c553:0x23844acf21f1f28e!8m2!3d18.8378492!4d78.513904!16s%2Fg%2F11c6zymf64!19sChIJU8W07nuYzTsRjvLxIc9KhCM?authuser=0&hl=en&rclk=1,"18.8378492,78.513904"
Masjid-e-Quba,Mosque,"Masjid-e-Quba, NH 63, Hajipura, Korutla, Telangana 505326",Hajipura,NH 63,Korutla,505326,Telangana,IN,https://www.google.com/maps/place/Masjid-e-Quba/data=!4m7!3m6!1s0x3bcd0b3ec321b473:0xc0d4542e7cdf4ff6!8m2!3d18.8249804!4d78.7213218!16s%2Fg%2F11cffk4ws!19sChIJc7Qhwz4LzTsR9k_ffC5U1MA?authuser=0&hl=en&rclk=1,"18.824980399999998,78.7213218"
MASJID-E-BILAL bll msjd,Mosque,"RP92+MP4 MASJID-E-BILAL bll msjd, Korutla, Telangana 505326",,RP92+MP4,Korutla,505326,Telangana,IN,https://www.google.com/maps/place/MASJID-E-BILAL+%D8%A8%D9%84%D8%A7%D9%84+%D9%85%D8%B3%D8%AC%D8%AF%E2%80%AD/data=!4m7!3m6!1s0x3bcd0bd540e16605:0xe48e6d02d37e3261!8m2!3d18.819129!4d78.7018186!16s%2Fg%2F11fcm7nf9x!19sChIJBWbhQNULzTsRYTJ-0wJtjuQ?authuser=0&hl=en&rclk=1,"18.819129,78.7018186"
EIDGAH,Mosque,"RM6X+H38 EIDGAH, Ayyappa Gutta Colony, Korutla, Telangana 505326",Ayyappa Gutta Colony,RM6X+H38,Korutla,505326,Telangana,IN,https://www.google.com/maps/place/EIDGAH/data=!4m7!3m6!1s0x3bcd0ae3947ac619:0x206a7a8083dac842!8m2!3d18.8114134!4d78.6977019!16s%2Fg%2F11g9qgrhv7!19sChIJGcZ6lOMKzTsRQsjag4B6aiA?authuser=0&hl=en&rclk=1,"18.8114134,78.6977019"
Sarwar Masjid,Mosque,"RP83+HQW Sarwar Masjid, Korutla, Telangana 505326",,RP83+HQW,Korutla,505326,Telangana,IN,https://www.google.com/maps/place/Sarwar+Masjid/data=!4m7!3m6!1s0x3bcd0b1fad451409:0x25512178a727b202!8m2!3d18.8164903!4d78.7044454!16s%2Fg%2F11gg9ch80l!19sChIJCRRFrR8LzTsRArInp3ghUSU?authuser=0&hl=en&rclk=1,"18.816490299999998,78.7044454"
Masjid-e-Mohammadia,Mosque,"Masjid-e-Mohammadia, Korutla, Telangana 505326",,,Korutla,,Telangana,IN,https://www.google.com/maps/place/Masjid-e-Mohammadia/data=!4m7!3m6!1s0x3bcd0b166f329e15:0x269f9248997903f9!8m2!3d18.818146!4d78.7182212!16s%2Fg%2F11h1423k6!19sChIJFZ4ybxYLzTsR-QN5mUiSnyY?authuser=0&hl=en&rclk=1,"18.818146,78.7182212"
Masjid e Sufiya (Ahle Sunnat Wal Jamaat),Mosque,"RP77+6MG Masjid e Sufiya (Ahle Sunnat Wal Jamaat), Korutla, Jagtial, Telangana 505326",,RP77+6MG,"Korutla, Jagtial",505326,Telangana,IN,https://www.google.com/maps/place/Masjid+e+Sufiya+%28Ahle+Sunnat+Wal+Jamaat%29/data=!4m7!3m6!1s0x3bcd0b10aa79a783:0x931a36020615e2a2!8m2!3d18.8130695!4d78.714214!16s%2Fg%2F11c5w77wzp!19sChIJg6d5qhALzTsRouIVBgI2GpM?authuser=0&hl=en&rclk=1,"18.813069499999997,78.714214"
Masjid -E- Inaamul Hassan,Mosque,"RPG5+XMW Masjid -E- Inaamul Hassan, Nayeem Nagar, Korutla, Telangana 505326",Nayeem Nagar,RPG5+XMW,Korutla,505326,Telangana,IN,https://www.google.com/maps/place/Masjid+-E-+Inaamul+Hassan/data=!4m7!3m6!1s0x3bcd0b2438fc85fd:0x69d3d28bfa0dd945!8m2!3d18.8274867!4d78.7091979!16s%2Fg%2F11g8wpmlhh!19sChIJ_YX8OCQLzTsRRdkN-ovS02k?authuser=0&hl=en&rclk=1,"18.827486699999998,78.70919789999999"
Masjid-e-Ali,Mosque,"RPJG+3C8 Masjid-e-Ali, Koratla - Raikal Rd, Korutla, Telangana 505326",,"RPJG+3C8, Koratla - Raikal Rd",Korutla,505326,Telangana,IN,https://www.google.com/maps/place/Masjid-e-Ali/data=!4m7!3m6!1s0x3bcd0b4799dda211:0xe89519bb9ff0697a!8m2!3d18.8301667!4d78.7260928!16s%2Fg%2F1hg4s785t!19sChIJEaLdmUcLzTsRemnwn7sZleg?authuser=0&hl=en&rclk=1,"18.8301667,78.7260928"
Masjid-e-Bilall,Diagnostic center,"Masjid-e-Bilall, Bilalpura, Korutla, Telangana 505326",Bilalpura,,Korutla,505326,Telangana,IN,https://www.google.com/maps/place/Masjid-e-Bilall/data=!4m7!3m6!1s0x3bcd0ae0070c6887:0xfc23cdd75824b486!8m2!3d18.8190955!4d78.7017632!16s%2Fg%2F11gzwlr7f!19sChIJh2gMB-AKzTsRhrQkWNfNI_w?authuser=0&hl=en&rclk=1,"18.8190955,78.7017632"
Jama-Masjid Choutpally,Mosque,"QGHF+C78 Jama-Masjid Choutpally, Choutupalle, Telangana 503308",,QGHF+C78,Choutupalle,,Telangana,IN,https://www.google.com/maps/place/Jama-Masjid+Choutpally/data=!4m7!3m6!1s0x3bcda392406574a3:0xe7aefea1e53990bc!8m2!3d18.7785478!4d78.5231964!16s%2Fg%2F11f5vg4hpp!19sChIJo3RlQJKjzTsRvJA55aH-ruc?authuser=0&hl=en&rclk=1,"18.7785478,78.5231964"
Masjid E Yaasin.. Mohanraopet,Mosque,"Masjid E Yaasin.. Mohanraopet, Nizamabad - Mancherial - Jagdalpur Rd, Mohanrao Peta, Telangana 505453",,Nizamabad - Mancherial - Jagdalpur Rd,Mohanrao Peta,505453,Telangana,IN,https://www.google.com/maps/place/Masjid+E+Yaasin..+Mohanraopet/data=!4m7!3m6!1s0x3bcd0cf08593493b:0x9198d180230433cc!8m2!3d18.8089174!4d78.7809757!16s%2Fg%2F11fxzkj752!19sChIJO0mThfAMzTsRzDMEI4DRmJE?authuser=0&hl=en&rclk=1,"18.8089174,78.7809757"
Masjid E Haleema,Mosque,"RMCW+4H7 Masjid E Haleema, Kanchikacherla, Korutla, Telangana 505326",Kanchikacherla,RMCW+4H7,Korutla,505326,Telangana,IN,https://www.google.com/maps/place/Masjid+E+Haleema/data=!4m7!3m6!1s0x3bcd0b9ac6ea0c4f:0x71adaccda982aaf9!8m2!3d18.8202986!4d78.6964142!16s%2Fg%2F11g_zkv4c_!19sChIJTwzqxpoLzTsR-aqCqc2srXE?authuser=0&hl=en&rclk=1,"18.820298599999997,78.69641419999999"
Masjid e Minar,Mosque,"RF58+G9J Masjid e Minar, Mortad, Telangana 503225",,RF58+G9J,Mortad,503225,Telangana,IN,https://www.google.com/maps/place/Masjid+e+Minar/data=!4m7!3m6!1s0x3bcdbd48e89f01a3:0xdc30a0fa6f64fe7c!8m2!3d18.8088382!4d78.4658961!16s%2Fg%2F11g6680rpm!19sChIJowGf6Ei9zTsRfP5kb_qgMNw?authuser=0&hl=en&rclk=1,"18.8088382,78.4658961"
Masjid Al Imaan ( Kallur ),Mosque,"VP7P+CVX Masjid Al Imaan ( Kallur ), Karimnagar, Telangana 505330",,VP7P+CVX,Karimnagar,505330,Telangana,IN,https://www.google.com/maps/place/Masjid+Al+Imaan+%28+Kallur+%29/data=!4m7!3m6!1s0x3bcd74a346e366e9:0x6eb0042ce8842f5b!8m2!3d18.8636111!4d78.7372209!16s%2Fg%2F11fxb44_cc!19sChIJ6WbjRqN0zTsRWy-E6CwEsG4?authuser=0&hl=en&rclk=1,"18.8636111,78.7372209"
Masjid e khasim,Mosque,"RJWP+2FR Masjid e khasim, Beedi Colony, Metpally, Telangana 505325",Beedi Colony,RJWP+2FR,Metpally,505325,Telangana,IN,https://www.google.com/maps/place/Masjid+e+khasim/data=!4m7!3m6!1s0x3bcd9fa147e6c5f3:0x96f6cb4d50c1fba!8m2!3d18.8451187!4d78.6361455!16s%2Fg%2F11f9z45tt0!19sChIJ88XmR6GfzTsRuh8M1bRsbwk?authuser=0&hl=en&rclk=1,"18.8451187,78.6361455"
0smam e bin affan Islampura Masjid,Mosque,"RJWH+C2R 0smam e bin affan Islampura Masjid, Boyawada, Metpally, Telangana 505325",Boyawada,RJWH+C2R,Metpally,505325,Telangana,IN,https://www.google.com/maps/place/0smam+e+bin+affan+Islampura+Masjid/data=!4m7!3m6!1s0x3bcd9f891622a3b3:0xf538d67cce63adb6!8m2!3d18.8461081!4d78.627511!16s%2Fg%2F11b6hsq4vx!19sChIJs6MiFomfzTsRtq1jznzWOPU?authuser=0&hl=en&rclk=1,"18.8461081,78.627511"
Rehan Masjid,Mosque,"Rehan Masjid, Yaseen Gutta, Kanchikacherla, Korutla, Telangana 505326",Kanchikacherla,Yaseen Gutta,Korutla,505326,Telangana,IN,https://www.google.com/maps/place/Rehan+Masjid/data=!4m7!3m6!1s0x3bcd0ac32793b823:0xa7eb63052e3b28ed!8m2!3d18.8214536!4d78.6904977!16s%2Fg%2F11fzd0xvn9!19sChIJI7iTJ8MKzTsR7Sg7LgVj66c?authuser=0&hl=en&rclk=1,"18.821453599999998,78.6904977"
Masjid-e-Arafat,Mosque,"RP97+4RF Masjid-e-Arafat, Arfath Pura, Korutla, Telangana 505326",Arfath Pura,RP97+4RF,Korutla,505326,Telangana,IN,https://www.google.com/maps/place/Masjid-e-Arafat/data=!4m7!3m6!1s0x3bcd0b17909ea515:0x51df82e6a7bf60a0!8m2!3d18.8178055!4d78.714561!16s%2Fg%2F11cfcdr6c!19sChIJFaWekBcLzTsRoGC_p-aC31E?authuser=0&hl=en&rclk=1,"18.8178055,78.714561"
Masjid-e-Ejabah,Mosque,"RP75+VGG Masjid-e-Ejabah, Korutla, Telangana 505326",,RP75+VGG,Korutla,505326,Telangana,IN,https://www.google.com/maps/place/Masjid-e-Ejabah/data=!4m7!3m6!1s0x3bcd0b5440739fab:0x171f2b4df1e5440e!8m2!3d18.814691!4d78.708843!16s%2Fg%2F11gl21ftmj!19sChIJq59zQFQLzTsRDkTl8U0rHxc?authuser=0&hl=en&rclk=1,"18.814691,78.708843"
jame masjid godhur,Mosque,"VJW9+CRF jame masjid godhur, Godur, Telangana 505325",,VJW9+CRF,Godur,505325,Telangana,IN,https://www.google.com/maps/place/jame+masjid+godhur/data=!4m7!3m6!1s0x3bcd9e5082733b33:0x552f5b3a36bda65b!8m2!3d18.8960736!4d78.6195507!16s%2Fg%2F11cs0dx_yd!19sChIJMztzglCezTsRW6a9NjpbL1U?authuser=0&hl=en&rclk=1,"18.896073599999998,78.61955069999999"
Masjid,Mosque,"WP3W+C42 Masjid, Sataram, Telangana 505331",,WP3W+C42,Sataram,505331,Telangana,IN,https://www.google.com/maps/place/Masjid/data=!4m7!3m6!1s0x3bcd750bef8fa8f5:0xd921bbcf20a822e2!8m2!3d18.9035073!4d78.7452518!16s%2Fg%2F11fn8q0x5f!19sChIJ9aiP7wt1zTsR4iKoIM-7Idk?authuser=0&hl=en&rclk=1,"18.903507299999998,78.74525179999999"
Masjid,Mosque,"W974+PWJ Masjid, Mukpal, Telangana 503218",,W974+PWJ,Mukpal,503218,Telangana,IN,https://www.google.com/maps/place/Masjid/data=!4m7!3m6!1s0x3bcd94758d02d67f:0x6283cbf356c32a5a!8m2!3d18.9143341!4d78.3572587!16s%2Fg%2F11g8160wmd!19sChIJf9YCjXWUzTsRWirDVvPLg2I?authuser=0&hl=en&rclk=1,"18.914334099999998,78.3572587"
Purani Masjid,Mosque,"QQ7M+FG4 Purani Masjid, Kalvakota, Telangana 505453",,QQ7M+FG4,Kalvakota,505453,Telangana,IN,https://www.google.com/maps/place/Purani+Masjid/data=!4m7!3m6!1s0x3bcd0c2fc79ed1b3:0xe3e4129a0a784ff8!8m2!3d18.7636494!4d78.7838348!16s%2Fg%2F11d_8zbhrq!19sChIJs9Gexy8MzTsR-E94CpoS5OM?authuser=0&hl=en&rclk=1,"18.7636494,78.7838348"
Masjid_E_Aksa,Mosque,"Masjid_E_Aksa, Madhapur Colony, Korutla, Telangana 505326",Madhapur Colony,,Korutla,,Telangana,IN,https://www.google.com/maps/place/Masjid_E_Aksa/data=!4m7!3m6!1s0x3bcd0b43f6143f53:0x34238994f2b6b9ce!8m2!3d18.8268007!4d78.7316054!16s%2Fg%2F1ptw88j5h!19sChIJUz8U9kMLzTsRzrm28pSJIzQ?authuser=0&hl=en&rclk=1,"18.8268007,78.73160539999999"
Masjid-e-EIDGAH (I-B ROAD) KORUTLA,Mosque,"Masjid-e-EIDGAH (I-B ROAD) KORUTLA, Eidgah Masjid, Korutla, Telangana 505326",,Eidgah Masjid,Korutla,505326,Telangana,IN,https://www.google.com/maps/place/Masjid-e-EIDGAH+%28I-B+ROAD%29+KORUTLA/data=!4m7!3m6!1s0x3bcd0b88e242f725:0x698e60630776b82f!8m2!3d18.8185709!4d78.7070961!16s%2Fg%2F11rl9n81g7!19sChIJJfdC4ogLzTsRL7h2B2Ngjmk?authuser=0&hl=en&rclk=1,"18.818570899999997,78.7070961"
Hasakothur Masjid,Mosque,"RG27+522 Hasakothur Masjid, Hasakothur, Telangana 503308",,RG27+522,Hasakothur,503308,Telangana,IN,https://www.google.com/maps/place/Hasakothur+Masjid/data=!4m7!3m6!1s0x3bcda2f1737c9ba9:0xd24193414647f611!8m2!3d18.8003902!4d78.5125039!16s%2Fg%2F11f0l4kfvz!19sChIJqZt8c_GizTsREfZHRkGTQdI?authuser=0&hl=en&rclk=1,"18.8003902,78.5125039"
MASJID-E- AL NOOR,Mosque,"RJW8+P23 MASJID-E- AL NOOR, Metpally, Telangana 505325",,RJW8+P23,Metpally,505325,Telangana,IN,https://www.google.com/maps/place/MASJID-E-+AL+NOOR/data=!4m7!3m6!1s0x3bcd9f936779f2ad:0x5f677ae0d578613c!8m2!3d18.846319!4d78.615288!16s%2Fg%2F11syf8pqhv!19sChIJrfJ5Z5OfzTsRPGF41eB6Z18?authuser=0&hl=en&rclk=1,"18.846318999999998,78.61528799999999"
Makkah Masjid,Mosque,"RJX9+RC5 Makkah Masjid, SRSP Camp, Metpally, Telangana 505325",SRSP Camp,RJX9+RC5,Metpally,505325,Telangana,IN,https://www.google.com/maps/place/Makkah+Masjid/data=!4m7!3m6!1s0x3bcd9f84d2c65e0f:0x56fada3ffed2e131!8m2!3d18.8495135!4d78.6186233!16s%2Fg%2F11b6gpcj_2!19sChIJD17G0oSfzTsRMeHS_j_a-lY?authuser=0&hl=en&rclk=1,"18.8495135,78.6186233"
Masjid Khalid Bin Waleed rDy llh `nh,Mosque,"RP93+W5C Masjid Khalid Bin Waleed rDy llh `nh, Bilalpura, Korutla, Telangana 505326",Bilalpura,RP93+W5C,Korutla,505326,Telangana,IN,https://www.google.com/maps/place/Masjid+Khalid+Bin+Waleed+%D8%B1%D8%B6%DB%8C+%D8%A7%D9%84%D9%84%DB%81+%D8%B9%D9%86%DB%81%E2%80%AD/data=!4m7!3m6!1s0x3bcd0b7102b3ce57:0x76dc4b49c8a5b916!8m2!3d18.8198032!4d78.7028997!16s%2Fg%2F11nms9ccq0!19sChIJV86zAnELzTsRFrmlyElL3HY?authuser=0&hl=en&rclk=1,"18.8198032,78.7028997"
Masjid-E-Saleema,Mosque,"RGM7+59X Masjid-E-Saleema, Nizamabad, Kammarpally, Telangana 503308",,RGM7+59X,"Nizamabad, Kammarpally",,Telangana,IN,https://www.google.com/maps/place/Masjid-E-Saleema/data=!4m7!3m6!1s0x3bcd992a4babcf4b:0x13dd6dc79729e38c!8m2!3d18.8329853!4d78.5134791!16s%2Fg%2F11gjhf7q_j!19sChIJS8-rSyqZzTsRjOMpl8dt3RM?authuser=0&hl=en&rclk=1,"18.8329853,78.5134791"
mosque,Mosque,"WQP8+PM6 mosque, Regunta, Telangana 505331",,WQP8+PM6,Regunta,,Telangana,IN,https://www.google.com/maps/place/mosque/data=!4m7!3m6!1s0x3bcd73e110000001:0xd250bf53bfc9418c!8m2!3d18.9367927!4d78.7666317!16s%2Fg%2F11gfm8l9dz!19sChIJAQAAEOFzzTsRjEHJv1O_UNI?authuser=0&hl=en&rclk=1,"18.936792699999998,78.76663169999999"
Jama Masjid uploor,Mosque,"VG97+366 Jama Masjid uploor, Uploor, Telangana 503308",,VG97+366,Uploor,503308,Telangana,IN,https://www.google.com/maps/place/Jama+Masjid+uploor/data=!4m7!3m6!1s0x3bcd9850ece777c9:0x7008dc292db9c674!8m2!3d18.8676716!4d78.5130148!16s%2Fg%2F11g9vszn8s!19sChIJyXfn7FCYzTsRdMa5LSncCHA?authuser=0&hl=en&rclk=1,"18.867671599999998,78.5130148"
MOSQUE,Mosque,"QJP8+6GW MOSQUE, Jaggasagar, Telangana 505325",,QJP8+6GW,Jaggasagar,505325,Telangana,IN,https://www.google.com/maps/place/MOSQUE/data=!4m7!3m6!1s0x3bcda0febaf76667:0x75bf39482a4be96d!8m2!3d18.7856029!4d78.6163351!16s%2Fg%2F11f15j_vyn!19sChIJZ2b3uv6gzTsRbelLKkg5v3U?authuser=0&hl=en&rclk=1,"18.7856029,78.6163351"
Masjid Puranipet,Mosque,"MFX6+R84 Masjid Puranipet, Bheemgal, Telangana 503307",,MFX6+R84,Bheemgal,503307,Telangana,IN,https://www.google.com/maps/place/Masjid+Puranipet/data=!4m7!3m6!1s0x3bcdbb125b3d720d:0x12c3c2b5a1e76ca9!8m2!3d18.6995132!4d78.4608264!16s%2Fg%2F11f8hwtzkt!19sChIJDXI9WxK7zTsRqWznobXCwxI?authuser=0&hl=en&rclk=1,"18.6995132,78.4608264"
Masjid e Ayesha Siddiqa,Mosque,"Masjid e Ayesha Siddiqa, 1-25, Anksapoor, Telangana 503311",,1-25,Anksapoor,503311,Telangana,IN,https://www.google.com/maps/place/Masjid+e+Ayesha+Siddiqa/data=!4m7!3m6!1s0x3bcdbdfb773f1347:0x61094329c497792d!8m2!3d18.8143018!4d78.3907164!16s%2Fg%2F11g7z7mx_p!19sChIJRxM_d_u9zTsRLXmXxClDCWE?authuser=0&hl=en&rclk=1,"18.8143018,78.3907164"
"MASJID-E-ALI, MOMINPURA - METPALLY.",Mosque,"VJ38+PQF MASJID-E-ALI, MOMINPURA - METPALLY., Mominpura, Metpally, Telangana 505325",Mominpura,VJ38+PQF,Metpally,,Telangana,IN,"https://www.google.com/maps/place/MASJID-E-ALI,+MOMINPURA+-+METPALLY./data=!4m7!3m6!1s0x3bcd9fb09a75e071:0xda09d7367db8736a!8m2!3d18.854317!4d78.6169182!16s%2Fg%2F11l0bw_58_!19sChIJceB1mrCfzTsRanO4fTbXCdo?authuser=0&hl=en&rclk=1","18.854316999999998,78.6169182"
Rabbani mosque,Mosque,"VJ28+5CH Rabbani mosque, Metpally, Telangana 505325",,VJ28+5CH,Metpally,505325,Telangana,IN,https://www.google.com/maps/place/Rabbani+mosque/data=!4m7!3m6!1s0x3bcd9faadea109f5:0xb011789d3c1cb721!8m2!3d18.8504266!4d78.6161077!16s%2Fg%2F11sz19fvb1!19sChIJ9Qmh3qqfzTsRIbccPJ14EbA?authuser=0&hl=en&rclk=1,"18.8504266,78.6161077"
"pedd gutttt, vittttNpeett (padda Gutta, Vittampet)",Mosque,"QHWC+J52 pedd gutttt, vittttNpeett (padda Gutta, Vittampet), Unnamed Road, Vittampeta, Telangana 505325",,"QHWC+J52, Unnamed Road",Vittampeta,505325,Telangana,IN,"https://www.google.com/maps/place/%E0%B0%AA%E0%B1%86%E0%B0%A6%E0%B1%8D%E0%B0%A6+%E0%B0%97%E0%B1%81%E0%B0%9F%E0%B1%8D%E0%B0%9F,+%E0%B0%B5%E0%B0%BF%E0%B0%9F%E0%B1%8D%E0%B0%9F%E0%B0%82%E0%B0%AA%E0%B1%87%E0%B0%9F%E0%B1%8D+%28padda+Gutta,+Vittampet%29/data=!4m7!3m6!1s0x3bcda1269a85dd57:0x683a7afdca8736f5!8m2!3d18.7965185!4d78.5703969!16s%2Fg%2F11r_dfjypl!19sChIJV92FmiahzTsR9TaHyv16Omg?authuser=0&hl=en&rclk=1","18.796518499999998,78.57039689999999"
Masjjd e Raheem,Mosque,"RPG4+4Q8 Masjjd e Raheem, Korutla, Telangana 505326",,RPG4+4Q8,Korutla,505326,Telangana,IN,https://www.google.com/maps/place/Masjjd+e+Raheem/data=!4m7!3m6!1s0x3bcd0bd57f7ec3e7:0x719d3040c54e808c!8m2!3d18.8252903!4d78.7069494!16s%2Fg%2F11h5_vyn8_!19sChIJ58N-f9ULzTsRjIBOxUAwnXE?authuser=0&hl=en&rclk=1,"18.8252903,78.7069494"
Masjid-e-Hussain,Mosque,"RPHH+22 Masjid-e-Hussain, Korutla, Telangana 505326",,RPHH+22,Korutla,,Telangana,IN,https://www.google.com/maps/place/Masjid-e-Hussain/data=!4m7!3m6!1s0x3bcd0bfa4a67741f:0x21ab1675eb722344!8m2!3d18.8275322!4d78.7275521!16s%2Fg%2F11twf9633_!19sChIJH3RnSvoLzTsRRCNy63UWqyE?authuser=0&hl=en&rclk=1,"18.8275322,78.7275521"
Masjid E Ali,Place of worship,"VMP6+R4H Masjid E Ali, Muthyampet, Telangana 505331",,VMP6+R4H,Muthyampet,505331,Telangana,IN,https://www.google.com/maps/place/Masjid+E+Ali/data=!4m7!3m6!1s0x3bcd75dd01ef683f:0x9d237937fa2dd973!8m2!3d18.8870577!4d78.6603586!16s%2Fg%2F11sx75jyn1!19sChIJP2jvAd11zTsRc9kt-jd5I50?authuser=0&hl=en&rclk=1,"18.8870577,78.6603586"
Peerila Masidu,Mosque,"PRV9+59X Peerila Masidu, Kacharam, Telangana 505452",,PRV9+59X,Kacharam,505452,Telangana,IN,https://www.google.com/maps/place/Peerila+Masidu/data=!4m7!3m6!1s0x3bcd0f206ee67365:0x40d2db69ca7f86cf!8m2!3d18.7429837!4d78.8184699!16s%2Fg%2F11hdy_ywhq!19sChIJZXPmbiAPzTsRz4Z_ymnb0kA?authuser=0&hl=en&rclk=1,"18.7429837,78.8184699"
Masjid E Abu Bakar,Mosque,"2JXP+GVV Masjid E Abu Bakar, Nirmal - Mancherial Rd, Khanapur, Thimmapur, Telangana 504203",,"2JXP+GVV, Nirmal - Mancherial Rd","Khanapur, Thimmapur",504203,Telangana,IN,https://www.google.com/maps/place/Masjid+E+Abu+Bakar/data=!4m7!3m6!1s0x3bcd838be7675037:0x1ecef2637bebf20c!8m2!3d19.0488678!4d78.6371746!16s%2Fg%2F11kyxhjk80!19sChIJN1Bn54uDzTsRDPLre2Pyzh4?authuser=0&hl=en&rclk=1,"19.0488678,78.6371746"
Masjid,Mosque,"PCXV+4JG Masjid, Nizamabad, Telangana 503307",,PCXV+4JG,Nizamabad,503307,Telangana,IN,https://www.google.com/maps/place/Masjid/data=!4m7!3m6!1s0x3bcdbc910034219d:0x87b1f16ddef67a87!8m2!3d18.7478025!4d78.4440886!16s%2Fg%2F11df3fxhf_!19sChIJnSE0AJG8zTsRh3r23m3xsYc?authuser=0&hl=en&rclk=1,"18.7478025,78.4440886"
Masjid E Khalil Ashraf,Mosque,"RPP9+9P4 Masjid E Khalil Ashraf, Khalil pura, Korutla, Telangana 505326",Khalil pura,RPP9+9P4,Korutla,505326,Telangana,IN,https://www.google.com/maps/place/Masjid+E+Khalil+Ashraf/data=!4m7!3m6!1s0x3bcd0bd0b8a8788d:0x92ff4720389c6625!8m2!3d18.8358953!4d78.7193145!16s%2Fg%2F11gs6l37ll!19sChIJjXiouNALzTsRJWacOCBH_5I?authuser=0&hl=en&rclk=1,"18.8358953,78.7193145"
Masjid bopparam,Mosque,"2CR5+8JC Masjid bopparam, Bapparam, Telangana 504105",,2CR5+8JC,Bapparam,504105,Telangana,IN,https://www.google.com/maps/place/Masjid+bopparam/data=!4m7!3m6!1s0x3bcd8e4188f2ae39:0xc07ac5e743d80df9!8m2!3d19.0408141!4d78.4090151!16s%2Fg%2F11f00qcn5d!19sChIJOa7yiEGOzTsR-Q3YQ-fFesA?authuser=0&hl=en&rclk=1,"19.0408141,78.40901509999999"
Makka masjid,Mosque,"Makka masjid, Makkah Masjid, Municipal Road, Korutla, Telangana 505326",,"Makkah Masjid, Municipal Road",Korutla,505326,Telangana,IN,https://www.google.com/maps/place/Makka+masjid/data=!4m7!3m6!1s0x3bcd0b5d2f376041:0x3a536b6b2cc0e96b!8m2!3d18.8259174!4d78.7165351!16s%2Fg%2F11s0xy1qyw!19sChIJQWA3L10LzTsRa-nALGtrUzo?authuser=0&hl=en&rclk=1,"18.825917399999998,78.7165351"
Masjid,Mosque,"QPX5+63M Masjid, Sangem, Telangana 505462",,QPX5+63M,Sangem,505462,Telangana,IN,https://www.google.com/maps/place/Masjid/data=!4m7!3m6!1s0x3bcd0b00cc5f50f3:0x845e568146e9605d!8m2!3d18.7980996!4d78.7076819!16s%2Fg%2F11gfd8ykx9!19sChIJ81BfzAALzTsRXWDpRoFWXoQ?authuser=0&hl=en&rclk=1,"18.7980996,78.7076819"
Masjid Noor,Mosque,"QM6W+XH5 Masjid Noor, Sirikonda, Telangana 505462",,QM6W+XH5,Sirikonda,505462,Telangana,IN,https://www.google.com/maps/place/Masjid+Noor/data=!4m7!3m6!1s0x3bcd0b69aec503bf:0xef5009aca1e8a322!8m2!3d18.7623914!4d78.6964817!16s%2Fg%2F11ghdgn3bc!19sChIJvwPFrmkLzTsRIqPooawJUO8?authuser=0&hl=en&rclk=1,"18.7623914,78.69648169999999"
"MASJID - E -BILAAL, BILAALPURA",Mosque,"RJW9+H3Q MASJID - E -BILAAL, BILAALPURA, near Sangam Hospital, Metpally, Telangana 505325",,"RJW9+H3Q, near Sangam Hospital",Metpally,505325,Telangana,IN,"https://www.google.com/maps/place/MASJID+-+E+-BILAAL,+BILAALPURA/data=!4m7!3m6!1s0x3bcd9f99d06b4261:0xabe0fd93f7da9f5b!8m2!3d18.846457!4d78.6177426!16s%2Fg%2F11jblxq712!19sChIJYUJr0JmfzTsRW5_a95P94Ks?authuser=0&hl=en&rclk=1","18.846457,78.6177426"
"MAIDAAN - E - EIDGAH, Metpally.",Mosque,"VJ24+52H MAIDAAN - E - EIDGAH, Metpally., Venkatraopet, Metpally, 505325",,"VJ24+52H, Venkatraopet",Metpally,505325,Telangana,IN,"https://www.google.com/maps/place/MAIDAAN+-+E+-+EIDGAH,+Metpally./data=!4m7!3m6!1s0x3bcd9ffbe8297b3d:0x774b0f26011cbb46!8m2!3d18.850448!4d78.6051075!16s%2Fg%2F11qm11bbcc!19sChIJPXsp6PufzTsRRrscASYPS3c?authuser=0&hl=en&rclk=1","18.850448,78.6051075"
Masjid e sadiq,Mosque,"RH9W+RRQ Masjid e sadiq, Venkatraopet, Telangana 505325",,RH9W+RRQ,Venkatraopet,505325,Telangana,IN,https://www.google.com/maps/place/Masjid+e+sadiq/data=!4m7!3m6!1s0x3bcda13029a185ad:0x5592ef36cdd822eb!8m2!3d18.8199976!4d78.5975121!16s%2Fg%2F11p5z_tp63!19sChIJrYWhKTChzTsR6yLYzTbvklU?authuser=0&hl=en&rclk=1,"18.8199976,78.5975121"
Masjid vittampeta,Mosque,"RH3Q+72 Masjid vittampeta, Vittampeta, Telangana 505325",,RH3Q+72,Vittampeta,505325,Telangana,IN,https://www.google.com/maps/place/Masjid+vittampeta/data=!4m7!3m6!1s0x3bcda166bbd72e3d:0xb7fb2b8c892dad62!8m2!3d18.8031382!4d78.5875832!16s%2Fg%2F11qb89v5cq!19sChIJPS7Xu2ahzTsRYq0tiYwr-7c?authuser=0&hl=en&rclk=1,"18.8031382,78.5875832"
Masjid-e-ammar,Mosque,"Masjid-e-ammar, Khaja Ahmed Manzil, Star Function Hall Rd, Hajipura, Korutla, Telangana 505326",Hajipura,"Khaja Ahmed Manzil, Star Function Hall Rd",Korutla,505326,Telangana,IN,https://www.google.com/maps/place/Masjid-e-ammar/data=!4m7!3m6!1s0x3bcd0bcbf0300819:0x9ed518a253298d5b!8m2!3d18.8282609!4d78.7224816!16s%2Fg%2F11mxtvd9l0!19sChIJGQgw8MsLzTsRW40pU6IY1Z4?authuser=0&hl=en&rclk=1,"18.8282609,78.7224816"
Mosque,Mosque,"RQRH+CPH Mosque, Chinna Metpalli, Telangana 505453",,RQRH+CPH,Chinna Metpalli,505453,Telangana,IN,https://www.google.com/maps/place/Mosque/data=!4m7!3m6!1s0x3bcd0d43915942ff:0x9677bb33c06933fb!8m2!3d18.8410701!4d78.779346!16s%2Fg%2F11n0128r76!19sChIJ_0JZkUMNzTsR-zNpwDO7d5Y?authuser=0&hl=en&rclk=1,"18.8410701,78.77934599999999"
Masjid-E-Noor,Mosque,"Masjid-E-Noor, Mominpura Rd, Sairampura Colony, Mominpura, Korutla, Telangana 505326","Sairampura Colony, Mominpura",Mominpura Rd,Korutla,505326,Telangana,IN,https://www.google.com/maps/place/Masjid-E-Noor/data=!4m7!3m6!1s0x3bcd0b51f6850849:0xa961f96ff19f5f50!8m2!3d18.8224353!4d78.7215485!16s%2Fg%2F11rvjvhcq_!19sChIJSQiF9lELzTsRUF-f8W_5Yak?authuser=0&hl=en&rclk=1,"18.8224353,78.7215485"
Masjid E Madeena,Mosque,"PMM3+H59 Masjid E Madeena, Bheemgal Road, BC Colony, Bhushanrao Peta, Ootpalle, Telangana 505462",BC Colony,"PMM3+H59, Bheemgal Road","Bhushanrao Peta, Ootpalle",505462,Telangana,IN,https://www.google.com/maps/place/Masjid+E+Madeena/data=!4m7!3m6!1s0x3bcda7a1d7310bdf:0x8eeafe0a32e967f8!8m2!3d18.7338752!4d78.6529895!16s%2Fg%2F11v0vk4njm!19sChIJ3wsx16GnzTsR-GfpMgr-6o4?authuser=0&hl=en&rclk=1,"18.7338752,78.65298949999999"
Eidgah / `yd gh - Kammarpally,Mosque,"RGQF+2H9 Eidgah / `yd gh - Kammarpally, Nizamabad - Mancherial - Jagdalpur Rd, Uploor, Telangana 503308",,"RGQF+2H9, Nizamabad - Mancherial - Jagdalpur Rd",Uploor,503308,Telangana,IN,https://www.google.com/maps/place/Eidgah+%2F+%D8%B9%DB%8C%D8%AF+%DA%AF%D8%A7%DB%81+-+Kammarpally%E2%80%AD/data=!4m7!3m6!1s0x3bcd9996e8ddfaf9:0x132ad191713368c!8m2!3d18.8385027!4d78.5243022!16s%2Fg%2F11tnlw13cr!19sChIJ-frd6JaZzTsRjDYTFxmtMgE?authuser=0&hl=en&rclk=1,"18.8385027,78.5243022"
Masjid Aziz Jamal,Mosque,"VF5F+68V Masjid Aziz Jamal, Masjid Rd, Thimmapur, Telangana 503225",,"VF5F+68V, Masjid Rd",Thimmapur,503225,Telangana,IN,https://www.google.com/maps/place/Masjid+Aziz+Jamal/data=!4m7!3m6!1s0x3bcd97ddca583221:0x1e9beb7e2e83a620!8m2!3d18.8581!4d78.4733!16s%2Fg%2F11h18f8cj9!19sChIJITJYyt2XzTsRIKaDLn7rmx4?authuser=0&hl=en&rclk=1,"18.8581,78.4733"
Masjid,Mosque,"WH4P+C9V Masjid, Ibrahimpatnam, Telangana 505450",,WH4P+C9V,Ibrahimpatnam,505450,Telangana,IN,https://www.google.com/maps/place/Masjid/data=!4m7!3m6!1s0x3bcd9fa64c093d31:0x8ec74ef77663d4d2!8m2!3d18.9061019!4d78.5859283!16s%2Fg%2F11h579hdm9!19sChIJMT0JTKafzTsR0tRjdvdOx44?authuser=0&hl=en&rclk=1,"18.9061019,78.58592829999999"
Thatipally masjid,Mosque,"QRWJ+GWV Thatipally masjid, Telangana 505453",,QRWJ+GWV,,505453,Telangana,IN,https://www.google.com/maps/place/Thatipally+masjid/data=!4m7!3m6!1s0x3bcd0dd270aef2dd:0x3f9bbe9adc23b130!8m2!3d18.7963686!4d78.8323067!16s%2Fg%2F11nykjhj5g!19sChIJ3fKucNINzTsRMLEj3Jq-mz8?authuser=0&hl=en&rclk=1,"18.796368599999997,78.83230669999999"
New masjid,Mosque,"QQ7M+M3P New masjid, Rangapoor Rd, Kalvakota, Telangana 505453",,"QQ7M+M3P, Rangapoor Rd",Kalvakota,505453,Telangana,IN,https://www.google.com/maps/place/New+masjid/data=!4m7!3m6!1s0x3bcd0de05719d0c1:0x2986381283ca39bd!8m2!3d18.7642007!4d78.7827142!16s%2Fg%2F11h2l8pyqd!19sChIJwdAZV-ANzTsRvTnKgxI4hik?authuser=0&hl=en&rclk=1,"18.7642007,78.7827142"
Marrichettu Darga,Mosque,"VF3F+V4H Marrichettu Darga, Thimmapur, Telangana 503225",,VF3F+V4H,Thimmapur,503225,Telangana,IN,https://www.google.com/maps/place/Marrichettu+Darga/data=!4m7!3m6!1s0x3bcd9741439e4b6f:0x29a0e533a4532a0e!8m2!3d18.8546994!4d78.4728735!16s%2Fg%2F11n86pgv7n!19sChIJb0ueQ0GXzTsRDipTpDPloCk?authuser=0&hl=en&rclk=1,"18.854699399999998,78.47287349999999"
Jama Masjid,Mosque,"3GCJ+95Q Jama Masjid, Kothasangvi(RC), Dimmadurthy, Telangana 504310",,3GCJ+95Q,"Kothasangvi(RC), Dimmadurthy",,Telangana,IN,https://www.google.com/maps/place/Jama+Masjid/data=!4m7!3m6!1s0x3bcd8505e6c6eae1:0xd408ba91882127a3!8m2!3d19.070963!4d78.5304924!16s%2Fg%2F11t1dp83y3!19sChIJ4erG5gWFzTsRoychiJG6CNQ?authuser=0&hl=en&rclk=1,"19.070963,78.5304924"
Masjid Konaraopet,Hindu temple,"QMQ6+M4C Masjid Konaraopet, Konaraopet, Telangana 505325",,QMQ6+M4C,Konaraopet,505325,Telangana,IN,https://www.google.com/maps/place/Masjid+Konaraopet/data=!4m7!3m6!1s0x3bcd0b95b61c872b:0x116ea0ae3629d4dc!8m2!3d18.7891785!4d78.660268!16s%2Fg%2F11gnst4pd0!19sChIJK4cctpULzTsR3NQpNq6gbhE?authuser=0&hl=en&rclk=1,"18.7891785,78.660268"
Mosque( msjdmasjid ),Mosque,"X9C4+GWJ Mosque( msjdmasjid ), Pochampadu Camp, Sonpet & Pochampad, Telangana 503219",Pochampadu Camp,X9C4+GWJ,Sonpet & Pochampad,503219,Telangana,IN,https://www.google.com/maps/place/Mosque%28+%D9%85%D8%B3%D8%AC%D8%AF%E2%80%8Emasjid+%29%E2%80%AD/data=!4m7!3m6!1s0x3bcd9248e82c3223:0x5994e7883c31c9b9!8m2!3d18.9713482!4d78.3572591!16s%2Fg%2F11clyqz22b!19sChIJIzIs6EiSzTsRuckxPIjnlFk?authuser=0&hl=en&rclk=1,"18.971348199999998,78.3572591"
Masjid e shamshuddin,Mosque,"X99F+W2 Masjid e shamshuddin, Sonpet & Pochampad, Telangana 503219",,X99F+W2,Sonpet & Pochampad,,Telangana,IN,https://www.google.com/maps/place/Masjid+e+shamshuddin/data=!4m7!3m6!1s0x3bcd935faa4e0f05:0xf30579b261f9a81b!8m2!3d18.9698712!4d78.3725981!16s%2Fg%2F11sk0xtvqj!19sChIJBQ9Oql-TzTsRG6j5YbJ5BfM?authuser=0&hl=en&rclk=1,"18.9698712,78.37259809999999"
Masjid,Mosque,"WM27+H5P Masjid, Khanapur Rd, Hussen Nagar, Telangana 505331",,"WM27+H5P, Khanapur Rd",Hussen Nagar,505331,Telangana,IN,https://www.google.com/maps/place/Masjid/data=!4m7!3m6!1s0x3bcd75e0b881e6ef:0x5f1e37d02cc852d7!8m2!3d18.9014598!4d78.6629432!16s%2Fg%2F11rsq9m10k!19sChIJ7-aBuOB1zTsR11LILNA3Hl8?authuser=0&hl=en&rclk=1,"18.901459799999998,78.6629432"
MASJID-E-MOHAMMAD KABLI,Mosque,"PGHC+6XM MASJID-E-MOHAMMAD KABLI, Konasamandar, Telangana 503307",,PGHC+6XM,Konasamandar,503307,Telangana,IN,https://www.google.com/maps/place/MASJID-E-MOHAMMAD+KABLI/data=!4m7!3m6!1s0x3bcda57fa4da551b:0x1bfa981f8d56beaf!8m2!3d18.7279249!4d78.5227166!16s%2Fg%2F11vj2qbflw!19sChIJG1XapH-lzTsRr75WjR-Y-hs?authuser=0&hl=en&rclk=1,"18.727924899999998,78.5227166"
Jamia Masjid,Mosque,"2943+7Q5 Jamia Masjid, Madapur, Telangana 504105",,2943+7Q5,Madapur,504105,Telangana,IN,https://www.google.com/maps/place/Jamia+Masjid/data=!4m7!3m6!1s0x3bcd9347e1eead8f:0xf2478850e4585955!8m2!3d19.0056265!4d78.3544954!16s%2Fg%2F11gjhlm3w3!19sChIJj63u4UeTzTsRVVlY5FCIR_I?authuser=0&hl=en&rclk=1,"19.005626499999998,78.35449539999999"
Jame masjid,Place of worship,"RM2C+J24 Jame masjid, Ramarao Palle, Telangana 505325",,RM2C+J24,Ramarao Palle,505325,Telangana,IN,https://www.google.com/maps/place/Jame+masjid/data=!4m7!3m6!1s0x3bcd0be2606cd25f:0x87cae319a6762dd4!8m2!3d18.801525!4d78.6700717!16s%2Fg%2F11v9k4d88k!19sChIJX9JsYOILzTsR1C12phnjyoc?authuser=0&hl=en&rclk=1,"18.801524999999998,78.6700717"
Madina Masjid,Mosque,"QQ7M+J6V Madina Masjid, Karimnagar, Kalvakota, Telangana 505453",,QQ7M+J6V,"Karimnagar, Kalvakota",505453,Telangana,IN,https://www.google.com/maps/place/Madina+Masjid/data=!4m7!3m6!1s0x3bcd0c2feaaaaaab:0x7ee51624faff5930!8m2!3d18.7641212!4d78.7830383!16s%2Fg%2F11fx9mxxnl!19sChIJq6qq6i8MzTsRMFn_-iQW5X4?authuser=0&hl=en&rclk=1,"18.764121199999998,78.7830383"
Mosque masjid,Mosque,"WQGG+643 Mosque masjid, Itikyala, Telangana 505460",,WQGG+643,Itikyala,505460,Telangana,IN,https://www.google.com/maps/place/Mosque+masjid/data=!4m7!3m6!1s0x3bcd7370aa707a5b:0x885057fe07e7005b!8m2!3d18.9255019!4d78.7752818!16s%2Fg%2F11h01t7s6p!19sChIJW3pwqnBzzTsRWwDnB_5XUIg?authuser=0&hl=en&rclk=1,"18.9255019,78.7752818"
aassir khaanaa (piirlmsiidu),Mosque,"2F98+8RG aassir khaanaa (piirlmsiidu), Laxmanchanda, Telangana 504106",,2F98+8RG,Laxmanchanda,504106,Telangana,IN,https://www.google.com/maps/place/%E0%B0%86%E0%B0%B7%E0%B0%BF%E0%B0%B0%E0%B1%8D+%E0%B0%96%E0%B0%BE%E0%B0%A8%E0%B0%BE+%28%E0%B0%AA%E0%B1%80%E0%B0%B0%E0%B1%8D%E0%B0%B2%E0%B0%AE%E0%B0%B8%E0%B1%80%E0%B0%A6%E0%B1%81%29/data=!4m7!3m6!1s0x3bcd8f798aad29d5:0x94d62f736c41fc1f!8m2!3d19.0183009!4d78.4670933!16s%2Fg%2F11ffq48s_p!19sChIJ1SmtinmPzTsRH_xBbHMv1pQ?authuser=0&hl=en&rclk=1,"19.0183009,78.4670933"
NURUL HUDA MASJID,Mosque,"VJ4H+75X NURUL HUDA MASJID, near EK MINAR Masjid, Gajulpet, Metpally, Telangana 505325",Gajulpet,"VJ4H+75X, near EK MINAR Masjid",Metpally,505325,Telangana,IN,https://www.google.com/maps/place/NURUL+HUDA+MASJID/data=!4m7!3m6!1s0x3bcd9f31dc86c84f:0xb1be87a47684d1c0!8m2!3d18.8557397!4d78.6279709!16s%2Fg%2F11p5n7lx6l!19sChIJT8iG3DGfzTsRwNGEdqSHvrE?authuser=0&hl=en&rclk=1,"18.8557397,78.6279709"
Madina masjid Barkathpura,Mosque,"RJXG+MFR Madina masjid Barkathpura, Dubbawada, Metpally, Telangana 505325",Dubbawada,RJXG+MFR,Metpally,,Telangana,IN,https://www.google.com/maps/place/Madina+masjid+Barkathpura/data=!4m7!3m6!1s0x3bcd9f4801e8bc27:0x5caa990365141f06!8m2!3d18.8492342!4d78.6261455!16s%2Fg%2F11q9tc79vm!19sChIJJ7zoAUifzTsRBh8UZQOZqlw?authuser=0&hl=en&rclk=1,"18.849234199999998,78.62614549999999"
Nizam masjide Ali,Mosque,"VJ29+4HW Nizam masjide Ali, SRSP Camp, Dubbawada, Metpally, Telangana 505325","SRSP Camp, Dubbawada",VJ29+4HW,Metpally,505325,Telangana,IN,https://www.google.com/maps/place/Nizam+masjide+Ali/data=!4m7!3m6!1s0x3bcd9f9cfce056b1:0x51041e006f14c732!8m2!3d18.8503513!4d78.6189488!16s%2Fg%2F11hf04pgsr!19sChIJsVbg_JyfzTsRMscUbwAeBFE?authuser=0&hl=en&rclk=1,"18.8503513,78.6189488"
JAMA MASJID,Mosque,"RJXG+MFR JAMA MASJID, YSR COLONY, Dubbawada, Metpally, Telangana 505325","YSR COLONY, Dubbawada",RJXG+MFR,Metpally,505325,Telangana,IN,https://www.google.com/maps/place/JAMA+MASJID/data=!4m7!3m6!1s0x3bcd9f3c195c37fb:0x899f7d07c236cc39!8m2!3d18.8492342!4d78.6261455!16s%2Fg%2F11jz01m5n3!19sChIJ-zdcGTyfzTsROcw2wgd9n4k?authuser=0&hl=en&rclk=1,"18.849234199999998,78.62614549999999"
ONLY FOR FUN,Mosque,"VJ2G+CW9 ONLY FOR FUN, Jai Shree Ram Nagar, Chaitanya Nagar, Metpally, Telangana 505325","Jai Shree Ram Nagar, Chaitanya Nagar",VJ2G+CW9,Metpally,505325,Telangana,IN,https://www.google.com/maps/place/ONLY+FOR+FUN/data=!4m7!3m6!1s0x3bcd9fe6bc995d81:0xce1c6a87ea606940!8m2!3d18.8510362!4d78.6273631!16s%2Fg%2F11vl1mjsgr!19sChIJgV2ZvOafzTsRQGlg6odqHM4?authuser=0&hl=en&rclk=1,"18.8510362,78.6273631"
Majidh,Mosque,"QHQQ+VJW Majidh, Metlachittapur, Telangana 505325",,QHQQ+VJW,Metlachittapur,505325,Telangana,IN,https://www.google.com/maps/place/Majidh/data=!4m7!3m6!1s0x3bcda1578b478987:0x1669eb261a67761a!8m2!3d18.7897422!4d78.5890701!16s%2Fg%2F11tghq51gf!19sChIJh4lHi1ehzTsRGnZnGibraRY?authuser=0&hl=en&rclk=1,"18.7897422,78.5890701"
JAMA MASJID. VELLULLA,Mosque,"JAMA MASJID. VELLULLA, H.No. 8-158, Brahmapuri wada, Metpally, Vellulla, Telangana 505325",,"H.No. 8-158, Brahmapuri wada, Metpally",Vellulla,505325,Telangana,IN,https://www.google.com/maps/place/JAMA+MASJID.+VELLULLA/data=!4m7!3m6!1s0x3bcda195a90cd427:0xcc32c332e0d8c520!8m2!3d18.8168803!4d78.6164572!16s%2Fg%2F11rtrjdzm8!19sChIJJ9QMqZWhzTsRIMXY4DLDMsw?authuser=0&hl=en&rclk=1,"18.816880299999998,78.6164572"
Mosque,Mosque,"QHQQ+VJM Mosque, Metlachittapur, Telangana 505325",,QHQQ+VJM,Metlachittapur,505325,Telangana,IN,https://www.google.com/maps/place/Mosque/data=!4m7!3m6!1s0x3bcda1fd9ecbf8a5:0x2b6bb9dac6bc1f09!8m2!3d18.7897149!4d78.5890557!16s%2Fg%2F11kp_0_s3n!19sChIJpfjLnv2hzTsRCR-8xtq5ays?authuser=0&hl=en&rclk=1,"18.7897149,78.5890557"
AbDuL hAfEeZ,Mosque,"AbDuL hAfEeZ, Masjid E Bilal, Bilalpura, Korutla, Telangana 505326",Bilalpura,Masjid E Bilal,Korutla,505326,Telangana,IN,https://www.google.com/maps/place/AbDuL+hAfEeZ/data=!4m7!3m6!1s0x3bcd0b8720471089:0xf701c859355aa101!8m2!3d18.8190361!4d78.7012109!16s%2Fg%2F11ngl414bd!19sChIJiRBHIIcLzTsRAaFaNVnIAfc?authuser=0&hl=en&rclk=1,"18.819036099999998,78.70121089999999"
Hymad,Mosque,"WJ88+RPC Hymad, Thimmapur, Telangana 505450",,WJ88+RPC,Thimmapur,505450,Telangana,IN,https://www.google.com/maps/place/Hymad/data=!4m7!3m6!1s0x3bcd9faea32920fb:0xf8c968b7e1d536f2!8m2!3d18.9170578!4d78.6167552!16s%2Fg%2F11q42yx1jw!19sChIJ-yApo66fzTsR8jbV4bdoyfg?authuser=0&hl=en&rclk=1,"18.9170578,78.6167552"
Masjid-e-Kagzipura,Mosque,"RP87+X6C Masjid-e-Kagzipura, Kagzipura, Korutla, Telangana 505326",Kagzipura,RP87+X6C,Korutla,505326,Telangana,IN,https://www.google.com/maps/place/Masjid-e-Kagzipura/data=!4m7!3m6!1s0x3bcd0b182e46aaab:0xd304827f4c5c0239!8m2!3d18.81744!4d78.71301!16s%2Fg%2F11kj3f121c!19sChIJq6pGLhgLzTsROQJcTH-CBNM?authuser=0&hl=en&rclk=1,"18.817439999999998,78.71301"
COLONY MASJID - NDSL,Mosque,"VMPG+7C5 COLONY MASJID - NDSL, NDSL Employees Colony, Muthyampet, Telangana 505331",NDSL Employees Colony,VMPG+7C5,Muthyampet,,Telangana,IN,https://www.google.com/maps/place/COLONY+MASJID+-+NDSL/data=!4m7!3m6!1s0x3bcd7525af5bae3b:0xd938b95f88dcfe4a!8m2!3d18.885636!4d78.6760971!16s%2Fg%2F11lfhc8x23!19sChIJO65bryV1zTsRSv7ciF-5ONk?authuser=0&hl=en&rclk=1,"18.885635999999998,78.67609709999999"
Masjid-e-Osman,Mosque,"Masjid-e-Osman, Allahmiya gutta, Korutla, Telangana 505326",Allahmiya gutta,,Korutla,505326,Telangana,IN,https://www.google.com/maps/place/Masjid-e-Osman/data=!4m7!3m6!1s0x3bcd0b8c80ec8a7f:0x2a6b779181984596!8m2!3d18.8253384!4d78.7148047!16s%2Fg%2F11n035219z!19sChIJf4rsgIwLzTsRlkWYgZF3ayo?authuser=0&hl=en&rclk=1,"18.8253384,78.7148047"
Jame masjid ailapur,Mosque,"Jame masjid ailapur, Near, Nehru road, Besthawada, Ailapur, Telangana 505330",Besthawada,"Near, Nehru road",Ailapur,,Telangana,IN,https://www.google.com/maps/place/Jame+masjid+ailapur/data=!4m7!3m6!1s0x3bcd75c30dfe83a9:0xf653dc0ed627e550!8m2!3d18.870281!4d78.6985201!16s%2Fg%2F11rv9160kx!19sChIJqYP-DcN1zTsRUOUn1g7cU_Y?authuser=0&hl=en&rclk=1,"18.870281,78.6985201"
Mootapally Masjid,Mosque,"WRW3+85V Mootapally Masjid, Mootapalle, Telangana 505460",,WRW3+85V,Mootapalle,505460,Telangana,IN,https://www.google.com/maps/place/Mootapally+Masjid/data=!4m7!3m6!1s0x3bcd71db465b554b:0xddbad2d7da006c8b!8m2!3d18.9458573!4d78.8029347!16s%2Fg%2F11hz77v8xp!19sChIJS1VbRttxzTsRi2wA2tfSut0?authuser=0&hl=en&rclk=1,"18.9458573,78.8029347"
Masjid,Mosque,"VG97+495 Masjid, Uploor, Telangana 503308",,VG97+495,Uploor,503308,Telangana,IN,https://www.google.com/maps/place/Masjid/data=!4m7!3m6!1s0x3bcd99b7214be065:0x2124425edd8c9c!8m2!3d18.8677678!4d78.5134778!16s%2Fg%2F11rylh59lj!19sChIJZeBLIbeZzTsRnIzdXkIkIQA?authuser=0&hl=en&rclk=1,"18.8677678,78.51347779999999"
masjid-E-AMIR,Mosque,"masjid-E-AMIR, Khaja Ahmed Manzil, Star Function Hall Rd, Hajipura, Korutla, Telangana 505326",Hajipura,"Khaja Ahmed Manzil, Star Function Hall Rd",Korutla,505326,Telangana,IN,https://www.google.com/maps/place/masjid-E-AMIR/data=!4m7!3m6!1s0x3bcd0b20167a905b:0xd928dab922ea6d65!8m2!3d18.8279681!4d78.7224404!16s%2Fg%2F11pgvwkm8y!19sChIJW5B6FiALzTsRZW3qIrnaKNk?authuser=0&hl=en&rclk=1,"18.8279681,78.7224404"
Masjid e Minah (Godow road),Mosque,"RPF5+96F Masjid e Minah (Godow road), Masjid-e-Mina, Korutla, Telangana 505326",,RPF5+96F Masjid-e-Mina,Korutla,505326,Telangana,IN,https://www.google.com/maps/place/Masjid+e+Minah+%28Godow+road%29/data=!4m7!3m6!1s0x3bcd0ba8bed75abf:0xd890f32870b125d5!8m2!3d18.8233711!4d78.7081778!16s%2Fg%2F11sc14d8cg!19sChIJv1rXvqgLzTsR1SWxcCjzkNg?authuser=0&hl=en&rclk=1,"18.8233711,78.7081778"
Madina Masjid - Reheempura - Korutla,Mosque,"RPC9+XF4 Madina Masjid - Reheempura - Korutla, Hajipura, Korutla, Telangana 505326",Hajipura,RPC9+XF4,Korutla,505326,Telangana,IN,https://www.google.com/maps/place/Madina+Masjid+-+Reheempura+-+Korutla/data=!4m7!3m6!1s0x3bcd0b9dd70dc6a3:0xfafac5537e31007b!8m2!3d18.822388!4d78.718702!16s%2Fg%2F11kqj175rp!19sChIJo8YN150LzTsRewAxflPF-vo?authuser=0&hl=en&rclk=1,"18.822388,78.718702"
Masjid-e-Hirah,Mosque,"RP86+CGG Masjid-e-Hirah, Korutla, Telangana 505326",,RP86+CGG,Korutla,505326,Telangana,IN,https://www.google.com/maps/place/Masjid-e-Hirah/data=!4m7!3m6!1s0x3bcd0bce82e8de9f:0x20923ac464bb22af!8m2!3d18.8160657!4d78.7113339!16s%2Fg%2F11sbw78rw2!19sChIJn97ogs4LzTsRryK7ZMQ6kiA?authuser=0&hl=en&rclk=1,"18.8160657,78.7113339"
Pani tankei,Mosque,"RGP6+478 Pani tankei, Kammarpally, Telangana 503308",,RGP6+478,Kammarpally,503308,Telangana,IN,https://www.google.com/maps/place/Pani+tankei/data=!4m7!3m6!1s0x3bcd998e3f3d92a9:0xdedf15a0533d341d!8m2!3d18.8352882!4d78.5107145!16s%2Fg%2F11jsd22_sw!19sChIJqZI9P46ZzTsRHTQ9U6AV394?authuser=0&hl=en&rclk=1,"18.8352882,78.51071449999999"
Rehmania masjid,Mosque,"RPG6+Q3J Rehmania masjid, Nayeem Nagar, Korutla, Telangana 505326",Nayeem Nagar,RPG6+Q3J,Korutla,505326,Telangana,IN,https://www.google.com/maps/place/Rehmania+masjid/data=!4m7!3m6!1s0x3bcd0bee245b7d65:0xa45ac597039ddc94!8m2!3d18.8269596!4d78.710132!16s%2Fg%2F11ty29t071!19sChIJZX1bJO4LzTsRlNydA5fFWqQ?authuser=0&hl=en&rclk=1,"18.8269596,78.710132"
Khaja Monjil Shajalalia Jame Mosjed,Mosque,"Khaja Monjil Shajalalia Jame Mosjed, Khaja Manzil, Bheemuni Dubba Rd, Bheemuni Dubba, Korutla, Telangana 505326",Bheemuni Dubba,"Khaja Manzil, Bheemuni Dubba Rd",Korutla,505326,Telangana,IN,https://www.google.com/maps/place/Khaja+Monjil+Shajalalia+Jame+Mosjed/data=!4m7!3m6!1s0x3bcd0b9376b41b8f:0x129e9d47e944afe4!8m2!3d18.8265758!4d78.7165536!16s%2Fg%2F11hhqxydhb!19sChIJjxu0dpMLzTsR5K9E6UednhI?authuser=0&hl=en&rclk=1,"18.8265758,78.7165536"
Jame Masjid Sirikonda,Mosque,"QM6W+WH8 Jame Masjid Sirikonda, Vemulawada - Chandurthi - Rudrangi - Korutla Rd, Sirikonda, Telangana 505462",,"QM6W+WH8, Vemulawada - Chandurthi - Rudrangi - Korutla Rd",Sirikonda,505462,Telangana,IN,https://www.google.com/maps/place/Jame+Masjid+Sirikonda/data=!4m7!3m6!1s0x3bcd0b3e35b9037d:0x6f565d1c735dae6b!8m2!3d18.7622828!4d78.6964575!16s%2Fg%2F11j8qw9804!19sChIJfQO5NT4LzTsRa65dcxxdVm8?authuser=0&hl=en&rclk=1,"18.762282799999998,78.6964575"
Maszid,Mosque,"WRQJ+FV9 Maszid, Bhoopathipur, Telangana 505460",,WRQJ+FV9,Bhoopathipur,505460,Telangana,IN,https://www.google.com/maps/place/Maszid/data=!4m7!3m6!1s0x3bcd739cf323adb7:0xd43dafd32a372a54!8m2!3d18.9386736!4d78.8322355!16s%2Fg%2F11q_c6cq6l!19sChIJt60j85xzzTsRVCo3KtOvPdQ?authuser=0&hl=en&rclk=1,"18.938673599999998,78.8322355"
MASJID NAJAM-UN-NISA RAGHAVAPET,Mosque,"WMF6+P8W MASJID NAJAM-UN-NISA RAGHAVAPET, Raghavapeta, Telangana 505331",,WMF6+P8W,Raghavapeta,,Telangana,IN,https://www.google.com/maps/place/MASJID+NAJAM-UN-NISA+RAGHAVAPET/data=!4m7!3m6!1s0x3bcd7521d90e6c43:0x9065cf8f12ebb814!8m2!3d18.9243651!4d78.6608246!16s%2Fg%2F11t9_tn2c2!19sChIJQ2wO2SF1zTsRFLjrEo_PZZA?authuser=0&hl=en&rclk=1,"18.9243651,78.6608246"
Jama masjid sirpoor,Mosque,"WMPH+GGF Jama masjid sirpoor, Sirpur, Telangana 505331",,WMPH+GGF,Sirpur,505331,Telangana,IN,https://www.google.com/maps/place/Jama+masjid+sirpoor/data=!4m7!3m6!1s0x3bcd776349ffa569:0xc822dce33540a4c4!8m2!3d18.9363041!4d78.678784!16s%2Fg%2F11kc4_hgmd!19sChIJaaX_SWN3zTsRxKRANePcIsg?authuser=0&hl=en&rclk=1,"18.936304099999997,78.678784"
masjid,Mosque,"WQP8+PJH masjid, Regunta, Telangana 505331",,WQP8+PJH,Regunta,505331,Telangana,IN,https://www.google.com/maps/place/masjid/data=!4m7!3m6!1s0x3bcd73e10f087a0d:0xb743367ca6f6556b!8m2!3d18.9368128!4d78.7666167!16s%2Fg%2F11hbt4fzsw!19sChIJDXoID-FzzTsRa1X2pnw2Q7c?authuser=0&hl=en&rclk=1,"18.9368128,78.7666167"
Dharga,Mosque,"VMPR+WPV Dharga, Chittapur, Telangana 505331",,VMPR+WPV,Chittapur,505331,Telangana,IN,https://www.google.com/maps/place/Dharga/data=!4m7!3m6!1s0x3bcd7500b426802d:0xabd81a01fbd44bd7!8m2!3d18.8873569!4d78.6917991!16s%2Fg%2F11ppmcnhn_!19sChIJLYAmtAB1zTsR10vU-wEa2Ks?authuser=0&hl=en&rclk=1,"18.8873569,78.6917991"
iidgaa,Mosque,"QRG4+58Q iidgaa, Kondapur, Telangana 505453",,QRG4+58Q,Kondapur,505453,Telangana,IN,https://www.google.com/maps/place/%E0%B0%88%E0%B0%A6%E0%B1%8D%E0%B0%97%E0%B0%BE/data=!4m7!3m6!1s0x3bcd0da6dd65f4f1:0x8e0dc943356e2bd1!8m2!3d18.7754522!4d78.8058664!16s%2Fg%2F11h_9xv8cs!19sChIJ8fRl3aYNzTsR0StuNUPJDY4?authuser=0&hl=en&rclk=1,"18.7754522,78.8058664"
Mahbub Subani (goNgddibaabaa)drgaa,Mosque,"2FFG+GJC Mahbub Subani (goNgddibaabaa)drgaa, Adilabad, Telangana 504106",,2FFG+GJC,Adilabad,,Telangana,IN,https://www.google.com/maps/place/Mahbub+Subani+%28%E0%B0%97%E0%B1%8A%E0%B0%82%E0%B0%97%E0%B0%A1%E0%B0%BF%E0%B0%AC%E0%B0%BE%E0%B0%AC%E0%B0%BE%29%E0%B0%A6%E0%B0%B0%E0%B1%8D%E0%B0%97%E0%B0%BE/data=!4m7!3m6!1s0x3bcd85636392bb5b:0x3e152acce6704a6!8m2!3d19.0238235!4d78.4765277!16s%2Fg%2F11gsg2nh7f!19sChIJW7uSY2OFzTsRpgRnzqxS4QM?authuser=0&hl=en&rclk=1,"19.0238235,78.47652769999999"
MASEED VENKATRAOPET,Mosque,"PRG3+5M6 MASEED VENKATRAOPET, Venkatraopet, Telangana 505453",,PRG3+5M6,Venkatraopet,505453,Telangana,IN,https://www.google.com/maps/place/MASEED+VENKATRAOPET/data=!4m7!3m6!1s0x3bcd0f09dc5aba85:0x9c0713acdf6651ef!8m2!3d18.7254008!4d78.804142!16s%2Fg%2F11s5npwjq_!19sChIJhbpa3AkPzTsR71Fm36wTB5w?authuser=0&hl=en&rclk=1,"18.7254008,78.804142"
