name,main_category,address,address_ward,address_street,address_city,address_postal_code,address_state,address_country_code,link,coordinates
Jama Masjid,Mosque,"Jama Masjid, Shahpur Road, Field Gunj, Ludhiana, Punjab 141008","Near Jama Masjid, Field Gunj",Shahpur Road,Ludhiana,141008,Punjab,IN,https://www.google.com/maps/place/Jama+Masjid/data=!4m7!3m6!1s0x391a830a02bc609b:0xffdf92543f415f10!8m2!3d30.907975!4d75.8541239!16s%2Fg%2F11b636x7q8!19sChIJm2C8AgqDGjkREF9BP1SS3_8?authuser=0&hl=en&rclk=1,"30.907974999999997,75.85412389999999"
Darul Bai'at Ahmadiyya Muslim Mission,Mosque,"Darul Bai'at Ahmadiyya Muslim Mission, Punjab Store, Naya Mohalla, Ludhiana, Punjab 141008",Naya Mohalla,Punjab Store,Ludhiana,141008,Punjab,IN,https://www.google.com/maps/place/Darul+Bai%27at+Ahmadiyya+Muslim+Mission/data=!4m7!3m6!1s0x391a830acf6530b1:0x378be8e945331401!8m2!3d30.9129978!4d75.8553446!16s%2Fg%2F11b6hlp9pv!19sChIJsTBlzwqDGjkRARQzRenoizc?authuser=0&hl=en&rclk=1,"30.9129978,75.8553446"
Suffianbad Masjid,Mosque,"Suffianbad Masjid, 269, GT Road, Opp. Noon Chat Dargah, Near Suffian Bagh Chowk, Kidwai Nagar, Ludhiana, Amarpura, Punjab 141008","Near Suffian Bagh Chowk, Kidwai Nagar","269, GT Road, Opp. Noon Chat Dargah","Ludhiana, Amarpura",141008,Punjab,IN,https://www.google.com/maps/place/Suffianbad+Masjid/data=!4m7!3m6!1s0x391a831ab86f3355:0x55f1811e5f51a76!8m2!3d30.9022625!4d75.8658648!16s%2Fg%2F11b6chnpv0!19sChIJVTNvuBqDGjkRdhr15REYXwU?authuser=0&hl=en&rclk=1,"30.9022625,75.8658648"
Masjid Abu Bakr msjd(L block Masjid),Mosque,"Masjid Abu Bakr msjd(L block Masjid), Sunet, GHS Sunet, Bhai Randhir Singh Nagar, Ludhiana, Punjab 141012","Sunet, GHS Sunet, Bhai Randhir Singh Nagar",,Ludhiana,141012,Punjab,IN,https://www.google.com/maps/place/Masjid+Abu+Bakr+%D9%85%D8%B3%D8%AC%D8%AF%28L+block+Masjid%29%E2%80%AD/data=!4m7!3m6!1s0x391a8181aae7d621:0x96a04b8467cc2055!8m2!3d30.8827305!4d75.8039877!16s%2Fg%2F11dxj4xmkb!19sChIJIdbnqoGBGjkRVSDMZ4RLoJY?authuser=0&hl=en&rclk=1,"30.882730499999997,75.8039877"
Maeraj Masjid,Mosque,"WV83+G76 Maeraj Masjid, Pindi St, Sadar Bazar, Chaura Bazar, Old Ludhiana, Ludhiana, Punjab 141008","Sadar Bazar, Chaura Bazar, Old Ludhiana","WV83+G76, Pindi St",Ludhiana,141008,Punjab,IN,https://www.google.com/maps/place/Maeraj+Masjid/data=!4m7!3m6!1s0x391a839e2b3ed087:0x4740d78d01e36293!8m2!3d30.9162971!4d75.8531365!16s%2Fg%2F11bbwp81cm!19sChIJh9A-K56DGjkRk2LjAY3XQEc?authuser=0&hl=en&rclk=1,"30.916297099999998,75.85313649999999"
Sunni Sabri Jama Masjid,Mosque,"WVX3+FX2 Sunni Sabri Jama Masjid, Phambra Rd, Guru Preet Nagar, Ludhiana, Punjab 141008",Guru Preet Nagar,"WVX3+FX2, Phambra Rd",Ludhiana,141008,Punjab,IN,https://www.google.com/maps/place/Sunni+Sabri+Jama+Masjid/data=!4m7!3m6!1s0x391a8566634c7177:0x92ce2f88dacaa180!8m2!3d30.9486472!4d75.8548996!16s%2Fg%2F11ghqckxr8!19sChIJd3FMY2aFGjkRgKHK2ogvzpI?authuser=0&hl=en&rclk=1,"30.9486472,75.8548996"
"mrkhzy sny nwry jm` msjd, msjid",Mosque,"mrkhzy sny nwry jm` msjd, msjid, 2553, Master Colony, New Shiv Puri, Ludhiana, Punjab 141008","Master Colony, New Shiv Puri",2553,Ludhiana,141008,Punjab,IN,"https://www.google.com/maps/place/%D9%85%D8%B1%DA%A9%D8%B2%DB%8C+%D8%B3%D9%86%DB%8C+%D9%86%D9%88%D8%B1%DB%8C+%D8%AC%D8%A7%D9%85%D8%B9+%D9%85%D8%B3%D8%AC%D8%AF,+%E0%A8%AE%E0%A8%B8%E0%A8%9C%E0%A8%BF%E0%A8%A6%E2%80%AD/data=!4m7!3m6!1s0x391a8381e624e487:0xc6902f6282daf0ca!8m2!3d30.931405!4d75.8527067!16s%2Fg%2F11c6sq4pht!19sChIJh-Qk5oGDGjkRyvDagmIvkMY?authuser=0&hl=en&rclk=1","30.931404999999998,75.8527067"
Ek Minara Masjid Mayapuri,Mosque,"WVGJ+7M5 Ek Minara Masjid Mayapuri, Punjabi Bagh, Subhash Nagar, Ludhiana, Punjab 141007","Punjabi Bagh, Subhash Nagar",WVGJ+7M5,Ludhiana,141007,Punjab,IN,https://www.google.com/maps/place/Ek+Minara+Masjid+Mayapuri/data=!4m7!3m6!1s0x391a83437aa867bb:0x68cae08d53a52721!8m2!3d30.9256374!4d75.8817259!16s%2Fg%2F11csq236kn!19sChIJu2eoekODGjkRISelU43gymg?authuser=0&hl=en&rclk=1,"30.9256374,75.88172589999999"
Tarikhi Sunni Jama Masjid Ghausia,Mosque,"Tarikhi Sunni Jama Masjid Ghausia, Sunet, GHS Sunet, Bhai Randhir Singh Nagar, Ludhiana, Punjab 141012","Sunet, GHS Sunet, Bhai Randhir Singh Nagar",,Ludhiana,141012,Punjab,IN,https://www.google.com/maps/place/Tarikhi+Sunni+Jama+Masjid+Ghausia/data=!4m7!3m6!1s0x391a8181820e1d2b:0xada90b32d486b1bb!8m2!3d30.882433!4d75.8013341!16s%2Fg%2F11dx93xb4t!19sChIJKx0OgoGBGjkRu7GG1DILqa0?authuser=0&hl=en&rclk=1,"30.882433,75.80133409999999"
Masjid Hazrat Bilal,Mosque,"Masjid Hazrat Bilal, near Bilal Masjid, Hargovind Pura, Guru Hargobind Nagar, Ludhiana, Punjab 141001","Hargovind Pura, Guru Hargobind Nagar",near Bilal Masjid,Ludhiana,141001,Punjab,IN,https://www.google.com/maps/place/Masjid+Hazrat+Bilal/data=!4m7!3m6!1s0x391a838ea99d4d95:0xadc5fd180ea3ab05!8m2!3d30.9279866!4d75.8361334!16s%2Fg%2F11b6dv93yz!19sChIJlU2dqY6DGjkRBaujDhj9xa0?authuser=0&hl=en&rclk=1,"30.927986599999997,75.8361334"
Peer Sunet shah wai ji,Mosque,"Peer Sunet shah wai ji, 529, D-Block, Punjab Agricultural University, Ludhiana, Punjab 141004","D-Block, Punjab Agricultural University",529,Ludhiana,141004,Punjab,IN,https://www.google.com/maps/place/Peer+Sunet+shah+wai+ji/data=!4m7!3m6!1s0x391a83e757e4f25d:0x6644980dd07c7dae!8m2!3d30.9090248!4d75.8133921!16s%2Fg%2F11c6cwdrv_!19sChIJXfLkV-eDGjkRrn180A2YRGY?authuser=0&hl=en&rclk=1,"30.909024799999997,75.8133921"
Sunni Noori Jama Masjid,Mosque,"VVQQ+4CP Sunni Noori Jama Masjid, Jodhewaal, Balsingh Nagar, Ludhiana, Punjab 141009","Jodhewaal, Balsingh Nagar",VVQQ+4CP,Ludhiana,141009,Punjab,IN,https://www.google.com/maps/place/Sunni+Noori+Jama+Masjid/data=!4m7!3m6!1s0x391a82d0a1fc553f:0x6d4866316d65624b!8m2!3d30.8878467!4d75.8885802!16s%2Fg%2F11cn0xx7ff!19sChIJP1X8odCCGjkRS2JlbTFmSG0?authuser=0&hl=en&rclk=1,"30.887846699999997,75.88858019999999"
Sunni Munawwarah Jame Masjid,Mosque,"Sunni Munawwarah Jame Masjid, 141014, Deep Colony, Dhandari Khurd, Dhandari Kalan, Ludhiana, Punjab 141014","Deep Colony, Dhandari Khurd, Dhandari Kalan",141014,Ludhiana,141014,Punjab,IN,https://www.google.com/maps/place/Sunni+Munawwarah+Jame+Masjid/data=!4m7!3m6!1s0x391a9d6923dfc6ad:0x8c418ce84eed82a6!8m2!3d30.8686222!4d75.9277207!16s%2Fg%2F11c70cgtzn!19sChIJrcbfI2mdGjkRpoLtTuiMQYw?authuser=0&hl=en&rclk=1,"30.868622199999997,75.9277207"
Masjid Bagh -i-Wali,Mosque,"Chamber No. 114, 1st Floor, Masjid Bagh -i-Wali, District Courts Complex, Main Hambran Rd, Police Lines, Civil Lines, Ludhiana, Punjab 141001","Police Lines, Civil Lines","Chamber No. 114, 1st Floor, District Courts Complex, Main Hambran Rd",Ludhiana,141001,Punjab,IN,https://www.google.com/maps/place/Masjid+Bagh+-i-Wali/data=!4m7!3m6!1s0x391a83eb5ffe77ef:0x1ce756fca0345527!8m2!3d30.9163265!4d75.8287113!16s%2Fg%2F11fzn657m1!19sChIJ73f-X-uDGjkRJ1U0oPxW5xw?authuser=0&hl=en&rclk=1,"30.9163265,75.8287113"
Masjid e Muhammadia,Mosque,"Masjid e Muhammadia, Punjab Agricultural University, D-Block, Haibowal Khurd, Ludhiana, Punjab 141004","D-Block, Haibowal Khurd",Punjab Agricultural University,Ludhiana,141004,Punjab,IN,https://www.google.com/maps/place/Masjid+e+Muhammadia/data=!4m7!3m6!1s0x391a83e74f1baf81:0xb78d3c0b0825f81d!8m2!3d30.9097576!4d75.8133161!16s%2Fg%2F11c6sm0ygd!19sChIJga8bT-eDGjkRHfglCAs8jbc?authuser=0&hl=en&rclk=1,"30.9097576,75.8133161"
Masjid e ahmad satjot nagar,Mosque,"Masjid e ahmad satjot nagar, 142, Basant Ave, Basant Avenue, Basant Enclave, Urban Estate Dugri, Ludhiana, Punjab 141013","Basant Avenue, Basant Enclave, Urban Estate Dugri","142, Basant Ave",Ludhiana,141013,Punjab,IN,https://www.google.com/maps/place/Masjid+e+ahmad+satjot+nagar/data=!4m7!3m6!1s0x391a827295de5365:0x726cb03c9909ffa7!8m2!3d30.8537507!4d75.831707!16s%2Fg%2F11d_80qksg!19sChIJZVPelXKCGjkRp_8JmTywbHI?authuser=0&hl=en&rclk=1,"30.8537507,75.831707"
Madina masjid barewal road,Mosque,"VQWM+4VH Madina masjid barewal road, 953/3, Prakash Colony Rd, Pushp Vihar, Shant Park Colony, Ludhiana, Punjab 141012","Pushp Vihar, Shant Park Colony","VQWM+4VH, 953/3, Prakash Colony Rd",Ludhiana,141012,Punjab,IN,https://www.google.com/maps/place/Madina+masjid+barewal+road/data=!4m7!3m6!1s0x391a8112b5a9a843:0x25c5fee45bac885a!8m2!3d30.8956783!4d75.7834664!16s%2Fg%2F11c7607266!19sChIJQ6iptRKBGjkRWoisW-T-xSU?authuser=0&hl=en&rclk=1,"30.8956783,75.7834664"
Masjid Bali Hospital,Mosque,"VRRX+WHP Masjid Bali Hospital, Jammu Colony, Ludhiana, Punjab 141002",Jammu Colony,VRRX+WHP,Ludhiana,141002,Punjab,IN,https://www.google.com/maps/place/Masjid+Bali+Hospital/data=!4m7!3m6!1s0x391a83ab6cea1ab3:0xa5de312f6319641!8m2!3d30.8923311!4d75.8489442!16s%2Fg%2F11f_3p4dl1!19sChIJsxrqbKuDGjkRQZYx9hLjXQo?authuser=0&hl=en&rclk=1,"30.8923311,75.84894419999999"
Masjid E Belal msjd,Mosque,"WRHP+5C4 Masjid E Belal msjd, Hargovind Pura, Haibowal Kalan, Sandhu Nagar, Ludhiana, Punjab 141001","Hargovind Pura, Haibowal Kalan",WRHP+5C4,"Sandhu Nagar, Ludhiana",141001,Punjab,IN,https://www.google.com/maps/place/Masjid+E+Belal+%D9%85%D8%B3%D8%AC%D8%AF%E2%80%AD/data=!4m7!3m6!1s0x391a838ea9b24131:0xf3361a78c0cce488!8m2!3d30.9278802!4d75.8360937!16s%2Fg%2F1pp2x9d2n!19sChIJMUGyqY6DGjkRiOTMwHgaNvM?authuser=0&hl=en&rclk=1,"30.927880199999997,75.83609369999999"
masjid bilal,Mosque,"VX72+W96 masjid bilal, Mata Bhag Kaur Nagar, Ludhiana, Punjab 141017",Mata Bhag Kaur Nagar,VX72+W96,Ludhiana,141017,Punjab,IN,https://www.google.com/maps/place/masjid+bilal/data=!4m7!3m6!1s0x391a9d8399254545:0x41da9970c4af5b1d!8m2!3d30.8647978!4d75.9508863!16s%2Fg%2F11c70hf7bj!19sChIJRUUlmYOdGjkRHVuvxHCZ2kE?authuser=0&hl=en&rclk=1,"30.864797799999998,75.9508863"
Masjid Ahrar msjd Hrr,Mosque,"WV55+PMQ Masjid Ahrar msjd Hrr, Brown Rd, CMC Campus, Ludhiana, Punjab 141008",CMC Campus,"WV55+PMQ, Brown Rd",Ludhiana,141008,Punjab,IN,https://www.google.com/maps/place/Masjid+Ahrar+%D9%85%D8%B3%D8%AC%D8%AF+%D8%A7%D8%AD%D8%B1%D8%A7%D8%B1%E2%80%AD/data=!4m7!3m6!1s0x391a830bb99769ab:0xdcc0db5e516e8d37!8m2!3d30.9093318!4d75.8592241!16s%2Fg%2F11gg73fpyy!19sChIJq2mXuQuDGjkRN41uUV7bwNw?authuser=0&hl=en&rclk=1,"30.9093318,75.85922409999999"
Meena Masjid,Mosque,"WV9H+X7M Meena Masjid, New Preet Nagar, Shakti Nagar, Haibowal, Ludhiana, Punjab 141007","New Preet Nagar, Shakti Nagar, Haibowal",WV9H+X7M,Ludhiana,141007,Punjab,IN,https://www.google.com/maps/place/Meena+Masjid/data=!4m7!3m6!1s0x391a83f53fec06d7:0x28a4259057d51cf7!8m2!3d30.9199584!4d75.8781785!16s%2Fg%2F11g0l4_2tv!19sChIJ1wbsP_WDGjkR9xzVV5AlpCg?authuser=0&hl=en&rclk=1,"30.9199584,75.87817849999999"
Peer Baba Abdullah Sah Ki Dargha,Mosque,"WV25+W88 Peer Baba Abdullah Sah Ki Dargha, Islam Ganj Rd, Islam Ganj, Ludhiana, Amarpura, Punjab 141008",Islam Ganj,"WV25+W88, Islam Ganj Rd","Ludhiana, Amarpura",141008,Punjab,IN,https://www.google.com/maps/place/Peer+Baba+Abdullah+Sah+Ki+Dargha/data=!4m7!3m6!1s0x391a83fecbae29bd:0x4a5db4ad3d173c48!8m2!3d30.9022979!4d75.8583343!16s%2Fg%2F11f6yxl1mg!19sChIJvSmuy_6DGjkRSDwXPa20XUo?authuser=0&hl=en&rclk=1,"30.902297899999997,75.8583343"
Lal Masjid msjd Ahle Hadees,Mosque,"WV95+RV6 Lal Masjid msjd Ahle Hadees, Lal Masjid Rd, Wait Ganj, Naughara, Dal Bazar, Ludhiana, Punjab 141008","Wait Ganj, Naughara, Dal Bazar","WV95+RV6, Lal Masjid Rd",Ludhiana,141008,Punjab,IN,https://www.google.com/maps/place/Lal+Masjid+%D9%85%D8%B3%D8%AC%D8%AF+Ahle+Hadees%E2%80%AD/data=!4m7!3m6!1s0x391a8371539f0b23:0x4e4ad4cd9c5b9af1!8m2!3d30.919547!4d75.85963!16s%2Fg%2F11b6hn0xs5!19sChIJIwufU3GDGjkR8ZpbnM3USk4?authuser=0&hl=en&rclk=1,"30.919546999999998,75.85963"
Mosque focal point Ludhiana,Mosque,"Mosque focal point Ludhiana, Urban Estate Phase 1, Jamalpur, Ludhiana, Punjab 141010","Urban Estate Phase 1, Jamalpur",,Ludhiana,141010,Punjab,IN,https://www.google.com/maps/place/Mosque+focal+point+Ludhiana/data=!4m7!3m6!1s0x391a9d85ed2a100d:0x802c7e07aefb2561!8m2!3d30.8933181!4d75.9005002!16s%2Fg%2F11f7bjm97p!19sChIJDRAq7YWdGjkRYSX7rgd-LIA?authuser=0&hl=en&rclk=1,"30.8933181,75.9005002"
Fatima masjid,Mosque,"No.2 Ward no, Fatima masjid, Street, 11, Tibba Rd, Punjabi Bagh, Ludhiana, Punjab 141007","Punjabi Bagh, Subhash Nagar","No.2 Ward no, Street, 11, Tibba Rd",Ludhiana,141007,Punjab,IN,https://www.google.com/maps/place/Fatima+masjid/data=!4m7!3m6!1s0x391a8344140a23bf:0x4ada0117172060fc!8m2!3d30.9234823!4d75.8835491!16s%2Fg%2F11gf97609s!19sChIJvyMKFESDGjkR_GAgFxcB2ko?authuser=0&hl=en&rclk=1,"30.9234823,75.8835491"
Sunni Madina Masjid,Mosque,"Sunni Madina Masjid, near PSN Sr. Sec. School, Ram Nagar, Mundian Kalan, Ludhiana, Punjab 141014","Ram Nagar, Mundian Kalan",near PSN Sr. Sec. School,Ludhiana,141014,Punjab,IN,https://www.google.com/maps/place/Sunni+Madina+Masjid/data=!4m7!3m6!1s0x391a9dc54665ef31:0xbc299f0b58ebee38!8m2!3d30.9030173!4d75.9404599!16s%2Fg%2F11h_ts5s65!19sChIJMe9lRsWdGjkROO7rWAufKbw?authuser=0&hl=en&rclk=1,"30.9030173,75.9404599"
Gill Masjid,Mosque,"VV27+H54 Gill Masjid, Gill, Punjab 141006",,VV27+H54,Gill,141006,Punjab,IN,https://www.google.com/maps/place/Gill+Masjid/data=!4m7!3m6!1s0x391a82836d0d9e45:0xbaf6f3419d282007!8m2!3d30.8513908!4d75.8629389!16s%2Fg%2F11f55jcxxf!19sChIJRZ4NbYOCGjkRByAonUHz9ro?authuser=0&hl=en&rclk=1,"30.851390799999997,75.8629389"
Madina masjid,Mosque,"Madina masjid, 448-B, Gill Rd, Industrial Area-B, Ludhiana, Punjab 141003",Industrial Area-B,"448-B, Gill Rd",Ludhiana,141003,Punjab,IN,https://www.google.com/maps/place/Madina+masjid/data=!4m7!3m6!1s0x391a83848dcc04bf:0xe28bf58a234bf053!8m2!3d30.8881071!4d75.8586964!16s%2Fg%2F11h75dszt6!19sChIJvwTMjYSDGjkRU_BLI4r1i-I?authuser=0&hl=en&rclk=1,"30.8881071,75.8586964"
Sunni Qadri Jama Masjid,Mosque,"WVCH+CFM Sunni Qadri Jama Masjid, Mayapuri, Subhash Nagar, Ludhiana, Punjab 141007","Mayapuri, Subhash Nagar",WVCH+CFM,Ludhiana,141007,Punjab,IN,https://www.google.com/maps/place/Sunni+Qadri+Jama+Masjid/data=!4m7!3m6!1s0x391a83b352e22517:0x265f8aa32d506d7e!8m2!3d30.9210767!4d75.8786641!16s%2Fg%2F11qngx66zw!19sChIJFyXiUrODGjkRfm1QLaOKXyY?authuser=0&hl=en&rclk=1,"30.921076699999997,75.8786641"
Sherpur Masjid,Mosque,"Sherpur Masjid, 1176-A, Sherpur Kalan, Muslim Colony, Focal Point, Ludhiana, Punjab 142036","Sherpur Kalan, Muslim Colony, Focal Point",1176-A,Ludhiana,142036,Punjab,IN,https://www.google.com/maps/place/Sherpur+Masjid/data=!4m7!3m6!1s0x391a8334092a623f:0xf152afa8517357ea!8m2!3d30.8904512!4d75.8956927!16s%2Fg%2F11p656pm7s!19sChIJP2IqCTSDGjkR6ldzUaivUvE?authuser=0&hl=en&rclk=1,"30.890451199999998,75.8956927"
jhugii msjid(Khwaja Garib Nawaz Masjid),Mosque,"jhugii msjid(Khwaja Garib Nawaz Masjid), naginder Nagar steet, no .6, Rahon Rd, Ludhiana, Punjab 141008","Naginder Nagar, Vardhman Nagar, Ghelewal","naginder Nagar steet, no .6, Rahon Rd","Ludhiana, Meharban",141008,Punjab,IN,https://www.google.com/maps/place/%E0%A4%9D%E0%A5%81%E0%A4%97%E0%A5%80+%E0%A4%AE%E0%A4%B8%E0%A5%8D%E0%A4%9C%E0%A4%BF%E0%A4%A6%28Khwaja+Garib+Nawaz+Masjid%29/data=!4m7!3m6!1s0x391a855867494959:0xe0717a13cc5d422d!8m2!3d30.9451327!4d75.8863724!16s%2Fg%2F11g24qbvb5!19sChIJWUlJZ1iFGjkRLUJdzBN6ceA?authuser=0&hl=en&rclk=1,"30.9451327,75.8863724"
MASJID E UMAR FAROOQ,Mosque,"WVFM+24V MASJID E UMAR FAROOQ, Mayapuri, Haibowal, Ludhiana, Punjab 141007","Mayapuri, Haibowal",WVFM+24V,Ludhiana,141007,Punjab,IN,https://www.google.com/maps/place/MASJID+E+UMAR+FAROOQ/data=!4m7!3m6!1s0x391a8381b3403ee5:0x7c7207a378693e14!8m2!3d30.9226029!4d75.8827826!16s%2Fg%2F11frpgtq0d!19sChIJ5T5As4GDGjkRFD5peKMHcnw?authuser=0&hl=en&rclk=1,"30.922602899999998,75.8827826"
Madeena Masjid,Mosque,"Madeena Masjid, B-32 street no. 7, Rahon Rd, Vardhman Nagar, CHUNGI, Ludhiana, Punjab 141007","Vardhman Nagar, CHUNGI","B-32 street no. 7, Rahon Rd","Ludhiana, Meharban",141007,Punjab,IN,https://www.google.com/maps/place/Madeena+Masjid/data=!4m7!3m6!1s0x391a85c18e8d90c9:0x4185bf9052e6d0fe!8m2!3d30.9475474!4d75.8891624!16s%2Fg%2F11gty_c77t!19sChIJyZCNjsGFGjkR_tDmUpC_hUE?authuser=0&hl=en&rclk=1,"30.947547399999998,75.8891624"
Sunni Mohammadi Masjid,Place of worship,"VVFW+F7R Sunni Mohammadi Masjid, Happy Readymade Emporium, Giaspura, Ludhiana, Punjab, Ludhiana","Gurmeet Nagar, Giaspura","VVFW+F7R, Happy Readymade Emporium, Giaspura, Ludhiana, Punjab",Ludhiana,,Punjab,IN,https://www.google.com/maps/place/Sunni+Mohammadi+Masjid/data=!4m7!3m6!1s0x391a82ca72efcd09:0xd08833e72634aa7e!8m2!3d30.8737356!4d75.8956441!16s%2Fg%2F11b7079xcp!19sChIJCc3vcsqCGjkRfqo0JucziNA?authuser=0&hl=en&rclk=1,"30.8737356,75.8956441"
Masjid New Shivpuri,Mosque,"Masjid New Shivpuri, 539/18/1, Number-5 Gali, Master Colony, New Shiv Puri, Ludhiana, Punjab 141008","Master Colony, New Shiv Puri","539/18/1, Number-5 Gali",Ludhiana,141008,Punjab,IN,https://www.google.com/maps/place/Masjid+New+Shivpuri/data=!4m7!3m6!1s0x391a83247db23b81:0x2e110131ffef1061!8m2!3d30.9308148!4d75.8530932!16s%2Fg%2F11h3tdzg31!19sChIJgTuyfSSDGjkRYRDv_zEBES4?authuser=0&hl=en&rclk=1,"30.9308148,75.8530932"
MASJID E RAHMAN,Mosque,"VW9J+77M MASJID E RAHMAN, Prem Nagar, Dhandari Khurd, Dhandari Kalan, Ludhiana, Punjab 141014","Prem Nagar, Dhandari Khurd, Dhandari Kalan",VW9J+77M,Ludhiana,141014,Punjab,IN,https://www.google.com/maps/place/MASJID+E+RAHMAN/data=!4m7!3m6!1s0x391a9db17dbf33b1:0xfe00653c206bc06b!8m2!3d30.868221!4d75.9306844!16s%2Fg%2F11fmm9vjk8!19sChIJsTO_fbGdGjkRa8BrIDxlAP4?authuser=0&hl=en&rclk=1,"30.868221,75.93068439999999"
sny Hsyny msjd,Mosque,"XV3G+5R6 sny Hsyny msjd, Bajrah, Ludhiana, Punjab 141007",Bajrah,XV3G+5R6,Ludhiana,141007,Punjab,IN,https://www.google.com/maps/place/%D8%B3%D9%86%DB%8C+%D8%AD%D8%B3%DB%8C%D9%86%DB%8C+%D9%85%D8%B3%D8%AC%D8%AF%E2%80%AD/data=!4m7!3m6!1s0x391a85bf82aac799:0xc46e015c03696d08!8m2!3d30.9529104!4d75.8770112!16s%2Fg%2F11gj730t2m!19sChIJmceqgr-FGjkRCG1pA1wBbsQ?authuser=0&hl=en&rclk=1,"30.952910399999997,75.8770112"
Noorani Masjid msjd,Mosque,"WVMW+X84 Noorani Masjid msjd, Kakka Village, Subhash Nagar, Jagirpur, Punjab 141007","Kakka Village, Subhash Nagar",WVMW+X84,Jagirpur,141007,Punjab,IN,https://www.google.com/maps/place/Noorani+Masjid+%D9%85%D8%B3%D8%AC%D8%AF%E2%80%AD/data=!4m7!3m6!1s0x391a83538a3aa42f:0x44086ebc2f72d619!8m2!3d30.9348863!4d75.8958252!16s%2Fg%2F11hcyzt21x!19sChIJL6Q6ilODGjkRGdZyL7xuCEQ?authuser=0&hl=en&rclk=1,"30.9348863,75.89582519999999"
Masjid Ahle Hadees,Mosque,"VW3R+F4G Masjid Ahle Hadees, Unnamed Road, Jugiana, Ludhiana, Gobindgarh, Punjab 141017",Jugiana,"VW3R+F4G, Unnamed Road","Ludhiana, Gobindgarh",141017,Punjab,IN,https://www.google.com/maps/place/Masjid+Ahle+Hadees/data=!4m7!3m6!1s0x391077724581cd6f:0x31dddf7b3ab5eade!8m2!3d30.8536847!4d75.9403247!16s%2Fg%2F11n0d8f_tz!19sChIJb82BRXJ3EDkR3uq1Onvf3TE?authuser=0&hl=en&rclk=1,"30.8536847,75.94032469999999"
Kifayatullah Masjid,Mosque,"Kifayatullah Masjid, # 11/1, Green Avenue, Balloke Road, Haibowal Kalan, Ludhiana, Punjab 141001","Golden Avenue Colony, Haibowal Kalan","# 11/1, Green Avenue, Balloke Road",Ludhiana,141001,Punjab,IN,https://www.google.com/maps/place/Kifayatullah+Masjid/data=!4m7!3m6!1s0x391a877c76c512b7:0xbea089c20152c47d!8m2!3d30.9306343!4d75.7993542!16s%2Fg%2F11h18k2lsr!19sChIJtxLFdnyHGjkRfcRSAcKJoL4?authuser=0&hl=en&rclk=1,"30.930634299999998,75.7993542"
Makkar Colony Masjid,Mosque,"Makkar Colony Masjid, near, Sua Rd, Makar Colony, Giaspura, Ludhiana, Punjab 141014","Makar Colony, Giaspura","near, Sua Rd",Ludhiana,141014,Punjab,IN,https://www.google.com/maps/place/Makkar+Colony+Masjid/data=!4m7!3m6!1s0x391a9d31fea958a7:0xcbcaac932455c982!8m2!3d30.8655109!4d75.9044435!16s%2Fg%2F11fm3yl6zr!19sChIJp1ip_jGdGjkRgslVJJOsyss?authuser=0&hl=en&rclk=1,"30.8655109,75.9044435"
Masjid e Taqwa,Mosque,"WW3R+MMX Masjid e Taqwa, Ram Nagar, Mundian, Ludhiana, Punjab 141015","Ram Nagar, Mundian",WW3R+MMX,Ludhiana,141015,Punjab,IN,https://www.google.com/maps/place/Masjid+e+Taqwa/data=!4m7!3m6!1s0x391a9d0c8df59325:0x2db65a29db7d36ba!8m2!3d30.9042272!4d75.9417382!16s%2Fg%2F11f66831k6!19sChIJJZP1jQydGjkRujZ92ylati0?authuser=0&hl=en&rclk=1,"30.904227199999998,75.9417382"
Tegh E Auliya Masjid,Mosque,"Tegh E Auliya Masjid, St.no.5 Banda bahadur Singh colony, near urban community health center, New Subhash Nagar, Ludhiana, Punjab 141007","Swatanter Nagar, New Subhash Nagar","St.no.5 Banda bahadur Singh colony, near urban community health center",Ludhiana,141007,Punjab,IN,https://www.google.com/maps/place/Tegh+E+Auliya+Masjid/data=!4m7!3m6!1s0x391a83a5fea1a40b:0x6e184f84b4da5e48!8m2!3d30.9355002!4d75.8860897!16s%2Fg%2F11g0l5_y6b!19sChIJC6Sh_qWDGjkRSF7atIRPGG4?authuser=0&hl=en&rclk=1,"30.9355002,75.8860897"
Tajush Shari'ah ahle sunnat wal jamaat,Mosque,"WRR7+PPV Tajush Shari'ah ahle sunnat wal jamaat, Haibowal Kalan, Ludhiana, Punjab 141001",Haibowal Kalan,WRR7+PPV,Ludhiana,141001,Punjab,IN,https://www.google.com/maps/place/Tajush+Shari%27ah+ahle+sunnat+wal+jamaat/data=!4m7!3m6!1s0x391a85f60512a23f:0x8953f8c0933a917c!8m2!3d30.9418607!4d75.8143077!16s%2Fg%2F11kjm5zf10!19sChIJP6ISBfaFGjkRfJE6k8D4U4k?authuser=0&hl=en&rclk=1,"30.9418607,75.8143077"
Masjid Abubakar,Mosque,"Masjid Abubakar, Maszid abubkar model clony street no no 3, Jagirpur Rd, Ludhiana",Jai Singh Nagar,"Maszid abubkar model clony street no no 3, Jagirpur Rd","Ludhiana, Meharban",,Punjab,IN,https://www.google.com/maps/place/Masjid+Abubakar/data=!4m7!3m6!1s0x391a85448045caad:0x45b205a0bf676866!8m2!3d30.9449239!4d75.895045!16s%2Fg%2F11h51j65zr!19sChIJrcpFgESFGjkRZmhnv6AFskU?authuser=0&hl=en&rclk=1,"30.9449239,75.895045"
noorani Masjid,Mosque,"VVRW+68H noorani Masjid, Muslim Colony, Focal Point, Ludhiana, Punjab 141009","Muslim Colony, Focal Point",VVRW+68H,Ludhiana,141009,Punjab,IN,https://www.google.com/maps/place/noorani+Masjid/data=!4m7!3m6!1s0x391a82d473d5e301:0xa351722ecd16f8e2!8m2!3d30.8905543!4d75.8958708!16s%2Fg%2F11f3pm1s6k!19sChIJAePVc9SCGjkR4vgWzS5yUaM?authuser=0&hl=en&rclk=1,"30.890554299999998,75.8958708"
Masjid Huda,Mosque,"Masjid Huda, Guru Ram Das Nagar, Bhamian Khurd, Ludhiana, Punjab 141015","Guru Ram Das Nagar, Bhamian Khurd",,Ludhiana,141015,Punjab,IN,https://www.google.com/maps/place/Masjid+Huda/data=!4m7!3m6!1s0x391a9d79cfabd077:0x69aebba0fd68a1cc!8m2!3d30.9194622!4d75.9183829!16s%2Fg%2F11qsw1cqmm!19sChIJd9Crz3mdGjkRzKFo_aC7rmk?authuser=0&hl=en&rclk=1,"30.919462199999998,75.9183829"
Masjid jatt wali,Mosque,"Masjid jatt wali, B-V-S-8-1023 CHOWAK BAGGA LALARI, Purana Bazar, Ludhiana, Punjab","Purana Bazar, Naughara, Dal Bazar",B-V-S-8-1023 CHOWAK BAGGA LALARI,Ludhiana,,Punjab,IN,https://www.google.com/maps/place/Masjid+jatt+wali/data=!4m7!3m6!1s0x391a8385c011a209:0xa927e5b40cb11c37!8m2!3d30.920696!4d75.855897!16s%2Fg%2F11h6m0p2dx!19sChIJCaIRwIWDGjkRNxyxDLTlJ6k?authuser=0&hl=en&rclk=1,"30.920696,75.855897"
Masjid,Mosque,"XR7F+J4P Masjid, Bhattian, Ludhiana, Punjab 141008",Bhattian,XR7F+J4P,Ludhiana,141008,Punjab,IN,https://www.google.com/maps/place/Masjid/data=!4m7!3m6!1s0x391a85946bd4d29d:0xb9e9e84e54b590ec!8m2!3d30.9640897!4d75.8228272!16s%2Fg%2F11l3cxzvd1!19sChIJndLUa5SFGjkR7JC1VE7o6bk?authuser=0&hl=en&rclk=1,"30.9640897,75.82282719999999"
Masjid Juggi Wali msjid juggii vaalii,Mosque,"VVXH+2F8 Masjid Juggi Wali msjid juggii vaalii, Transport Nagar, Industrial Area- A, Ludhiana, Punjab 141008","Transport Nagar, Industrial Area- A",VVXH+2F8,Ludhiana,,Punjab,IN,https://www.google.com/maps/place/Masjid+Juggi+Wali+%E0%A4%AE%E0%A4%B8%E0%A5%8D%E0%A4%9C%E0%A4%BF%E0%A4%A6+%E0%A4%9C%E0%A5%81%E0%A4%97%E0%A5%8D%E0%A4%97%E0%A5%80+%E0%A4%B5%E0%A4%BE%E0%A4%B2%E0%A5%80/data=!4m7!3m6!1s0x391a83a1a705a8cb:0x78148bc65aadac50!8m2!3d30.8975383!4d75.8787023!16s%2Fg%2F11rqrqpbjw!19sChIJy6gFp6GDGjkRUKytWsaLFHg?authuser=0&hl=en&rclk=1,"30.897538299999997,75.8787023"
Do manzila masjid,Mosque,"Do manzila masjid, 1st Floor Happy House,Near Wool Wali Gali, No.4, Lakkar Bazar Rd, Mochpura Bazar, Mochpura, Ludhiana, Punjab 141008","Mochpura Bazar, Mochpura","1st Floor Happy House,Near Wool Wali Gali, No.4, Lakkar Bazar Rd",Ludhiana,141008,Punjab,IN,https://www.google.com/maps/place/Do+manzila+masjid/data=!4m7!3m6!1s0x391a83ebbd06a6b1:0xad27f112ff3df39c!8m2!3d30.9126755!4d75.8565897!16s%2Fg%2F11nnsdv9nb!19sChIJsaYGveuDGjkRnPM9_xLxJ60?authuser=0&hl=en&rclk=1,"30.9126755,75.8565897"
Sgeer Masjid,Mosque,"Sgeer Masjid, street 4, Rahon Rd, Vardhman Nagar, CHUNGI, Ludhiana, 141007","Vardhman Nagar, CHUNGI","street 4, Rahon Rd","Ludhiana, Meharban",141007,Punjab,IN,https://www.google.com/maps/place/Sgeer+Masjid/data=!4m7!3m6!1s0x391a85635cd719f7:0x41a53e24edfe02d0!8m2!3d30.9475799!4d75.8877753!16s%2Fg%2F11gnpj2q68!19sChIJ9xnXXGOFGjkR0AL-7SQ-pUE?authuser=0&hl=en&rclk=1,"30.947579899999997,75.8877753"
jai baabaa peecee shaah jii,Mosque,"VRHV+94F jai baabaa peecee shaah jii, Urban Estate Dugri, Ludhiana, Punjab 141003",Urban Estate Dugri,VRHV+94F,Ludhiana,141003,Punjab,IN,https://www.google.com/maps/place/%E0%A8%9C%E0%A9%88+%E0%A8%AC%E0%A8%BE%E0%A8%AC%E0%A8%BE+%E0%A8%AA%E0%A9%87%E0%A8%9A%E0%A9%87+%E0%A8%B6%E0%A8%BE%E0%A8%B9+%E0%A8%9C%E0%A9%80/data=!4m7!3m6!1s0x391a833156729dd7:0x9c27a9f726be69b8!8m2!3d30.8784422!4d75.8427946!16s%2Fg%2F11gy3jbd4c!19sChIJ151yVjGDGjkRuGm-JvepJ5w?authuser=0&hl=en&rclk=1,"30.8784422,75.84279459999999"
Masjid e aqsa,Religious destination,"VR86+RMF Masjid e aqsa, New Moti Bagh Colony, Phullanwal, Ludhiana, Punjab 141013","New Moti Bagh Colony, Phullanwal",VR86+RMF,Ludhiana,141013,Punjab,IN,https://www.google.com/maps/place/Masjid+e+aqsa/data=!4m7!3m6!1s0x391a83ed16379f01:0x2133725fa71ede0!8m2!3d30.8671504!4d75.8116697!16s%2Fg%2F11t0r7cdhn!19sChIJAZ83Fu2DGjkR4O1x-iU3EwI?authuser=0&hl=en&rclk=1,"30.8671504,75.8116697"
Darul Uloom Mujjadid Alf E Sani,Mosque,"Darul Uloom Mujjadid Alf E Sani, 243, Sunet, GHS Sunet, Bhai Randhir Singh Nagar, Ludhiana, Punjab 141012","Sunet, GHS Sunet, Bhai Randhir Singh Nagar",243,Ludhiana,141012,Punjab,IN,https://www.google.com/maps/place/Darul+Uloom+Mujjadid+Alf+E+Sani/data=!4m7!3m6!1s0x391a8182299f40ad:0x90c4e2480ef52d80!8m2!3d30.8827478!4d75.800933!16s%2Fg%2F11dflk73qf!19sChIJrUCfKYKBGjkRgC31DkjixJA?authuser=0&hl=en&rclk=1,"30.882747799999997,75.800933"
Masjid msjd,Mosque,"WV64+X92 Masjid msjd, Gali Number 5, Mochpura Bazar, Naya Mohalla, Ludhiana, Punjab 141008","Mochpura Bazar, Naya Mohalla","WV64+X92, Gali Number 5",Ludhiana,141008,Punjab,IN,https://www.google.com/maps/place/Masjid+%D9%85%D8%B3%D8%AC%D8%AF%E2%80%AD/data=!4m7!3m6!1s0x391a830adddd7491:0x8bedc4e49594ba01!8m2!3d30.9123754!4d75.8559006!16s%2Fg%2F11b6gk4hf1!19sChIJkXTd3QqDGjkRAbqUleTE7Ys?authuser=0&hl=en&rclk=1,"30.9123754,75.8559006"
Masjid ummul madaris,Mosque,"Masjid ummul madaris, 336 ,shahpur road near subhani building, chowk, Ludhiana",chowk,"336 ,shahpur road near subhani building",Ludhiana,,Punjab,IN,https://www.google.com/maps/place/Masjid+ummul+madaris/data=!4m7!3m6!1s0x391a838b25c886af:0xed9af2528f78b62d!8m2!3d30.9103517!4d75.856216!16s%2Fg%2F11j81dz3tp!19sChIJr4bIJYuDGjkRLbZ4j1Lymu0?authuser=0&hl=en&rclk=1,"30.9103517,75.856216"
Sunni Hussaini Jama Masjid,Mosque,"XV3G+5R6 Sunni Hussaini Jama Masjid, Bajrah, Ludhiana, Punjab 141007",Bajrah,XV3G+5R6,Ludhiana,141007,Punjab,IN,https://www.google.com/maps/place/Sunni+Hussaini+Jama+Masjid/data=!4m7!3m6!1s0x391a85a535ff1999:0xb9a52980b4c28b7e!8m2!3d30.9529104!4d75.8770112!16s%2Fg%2F11h2jx0vmj!19sChIJmRn_NaWFGjkRfovCtIAppbk?authuser=0&hl=en&rclk=1,"30.952910399999997,75.8770112"
Sunni Masjid Bilal,Mosque,"VVWJ+W94 Sunni Masjid Bilal, Transport Nagar, Industrial Area- A, Ludhiana, Punjab 141003","Transport Nagar, Industrial Area- A",VVWJ+W94,Ludhiana,141003,Punjab,IN,https://www.google.com/maps/place/Sunni+Masjid+Bilal/data=!4m7!3m6!1s0x391a83760ab9c6db:0x9664ad3a492be86d!8m2!3d30.8971933!4d75.881234!16s%2Fg%2F11kqs7dtz3!19sChIJ28a5CnaDGjkRbegrSTqtZJY?authuser=0&hl=en&rclk=1,"30.897193299999998,75.88123399999999"
Masjid Shimla Puri,Mosque,"VV5Q+RQM Masjid Shimla Puri, Unnamed Road, Shimlapuri, Ludhiana, Punjab 141003",Shimlapuri,"VV5Q+RQM, Unnamed Road",Ludhiana,141003,Punjab,IN,https://www.google.com/maps/place/Masjid+Shimla+Puri/data=!4m7!3m6!1s0x391a8377af91bd05:0x42004a9a1fa3f329!8m2!3d30.8595801!4d75.8894237!16s%2Fg%2F11gv_4b40_!19sChIJBb2Rr3eDGjkRKfOjH5pKAEI?authuser=0&hl=en&rclk=1,"30.8595801,75.8894237"
Mosque Ahrar Gil Ludhiana Punjab,Mosque,"VV27+H26 Mosque Ahrar Gil Ludhiana Punjab, Gill, Punjab 141006",,VV27+H26,Gill,141006,Punjab,IN,https://www.google.com/maps/place/Mosque+Ahrar+Gil+Ludhiana+Punjab/data=!4m7!3m6!1s0x391a8283739acfd9:0xd963d3ad5d47b256!8m2!3d30.8514173!4d75.8625188!16s%2Fg%2F11ggszl0mb!19sChIJ2c-ac4OCGjkRVrJHXa3TY9k?authuser=0&hl=en&rclk=1,"30.851417299999998,75.86251879999999"
Masjid Meharban Ludhiyana,Mosque,"XV2X+V84 Masjid Meharban Ludhiyana, Ludhiana - Rahon Rd, Harkrishan Vihar Colony, Meharban, Punjab 141007",Harkrishan Vihar Colony,"XV2X+V84, Ludhiana - Rahon Rd",Meharban,,Punjab,IN,https://www.google.com/maps/place/Masjid+Meharban+Ludhiyana/data=!4m7!3m6!1s0x391a85abc06845eb:0x7e394dec5a22e5bd!8m2!3d30.9521364!4d75.8983144!16s%2Fg%2F11t1w_snwx!19sChIJ60VowKuFGjkRveUiWuxNOX4?authuser=0&hl=en&rclk=1,"30.952136399999997,75.89831439999999"
Masjid e aqsa,Mosque,"VR9F+WJC Masjid e aqsa, Tibba road sandhu, Colony Rd, opp. jagirpura, Ludhiana, Punjab 141007","Phase 3, Urban Estate Dugri","VR9F+WJC, Tibba road sandhu, Colony Rd, opp. jagirpura",Ludhiana,141007,Punjab,IN,https://www.google.com/maps/place/Masjid+e+aqsa/data=!4m7!3m6!1s0x391a837f5785b553:0xeb976066c0fa6c!8m2!3d30.8698021!4d75.8240195!16s%2Fg%2F11t1dsv_jd!19sChIJU7WFV3-DGjkRbPrAZmCX6wA?authuser=0&hl=en&rclk=1,"30.869802099999998,75.82401949999999"
Bismillah masjid,Mosque,"WVFM+43M Bismillah masjid, Mayapuri, Subhash Nagar, Ludhiana, Punjab 141007","Mayapuri, Subhash Nagar",WVFM+43M,Ludhiana,141007,Punjab,IN,https://www.google.com/maps/place/Bismillah+masjid/data=!4m7!3m6!1s0x391a83364520df01:0xb563385007d4431a!8m2!3d30.9228371!4d75.8826824!16s%2Fg%2F11hhld_q2t!19sChIJAd8gRTaDGjkRGkPUB1A4Y7U?authuser=0&hl=en&rclk=1,"30.9228371,75.8826824"
Masjid sufiyan bagh,Mosque,"Masjid sufiyan bagh, masjid, Suffian Bagh Rd, Near Suffian Bagh Chowk, Kidwai Nagar, Ludhiana, Amarpura, Punjab 141008","Near Suffian Bagh Chowk, Kidwai Nagar","masjid, Suffian Bagh Rd","Ludhiana, Amarpura",,Punjab,IN,https://www.google.com/maps/place/Masjid+sufiyan+bagh/data=!4m7!3m6!1s0x391a835172a480b1:0x490552c70d991ef6!8m2!3d30.9020478!4d75.8659047!16s%2Fg%2F11ff1xzblw!19sChIJsYCkclGDGjkR9h6ZDcdSBUk?authuser=0&hl=en&rclk=1,"30.9020478,75.8659047"
HUSSAINI MASJID,Mosque,"HUSSAINI MASJID, Samrat colony, Street No. 2, near jio cell tower, Makar Colony, Giaspura, Ludhiana, Punjab 141014","Makar Colony, Giaspura","Samrat colony, Street No. 2, near jio cell tower",Ludhiana,,Punjab,IN,https://www.google.com/maps/place/HUSSAINI+MASJID/data=!4m7!3m6!1s0x391a9dfe673c076d:0x8df02cd2bf7818b9!8m2!3d30.8632894!4d75.9015431!16s%2Fg%2F11ss5pdd9z!19sChIJbQc8Z_6dGjkRuRh4v9Is8I0?authuser=0&hl=en&rclk=1,"30.8632894,75.9015431"
Nur Masjid,Mosque,"WVFH+5H9 Nur Masjid, Unnamed Road, Mayapuri, Haibowal, Ludhiana, Punjab 141007","Mayapuri, Haibowal","WVFH+5H9, Unnamed Road",Ludhiana,141007,Punjab,IN,https://www.google.com/maps/place/Nur+Masjid/data=!4m7!3m6!1s0x391a8342313710c3:0xab08f2fe91a4dc1b!8m2!3d30.9229059!4d75.8789747!16s%2Fg%2F11hcbbkrby!19sChIJwxA3MUKDGjkRG9ykkf7yCKs?authuser=0&hl=en&rclk=1,"30.9229059,75.8789747"
Masjid Ummul Madaris Jamia Habibiya,Mosque,"Masjid Ummul Madaris Jamia Habibiya, 314, Shahpur Rd, Block 12, Field Gunj, Ludhiana, Punjab 141003","Block 12, Field Gunj","314, Shahpur Rd",Ludhiana,141003,Punjab,IN,https://www.google.com/maps/place/Masjid+Ummul+Madaris+Jamia+Habibiya/data=!4m7!3m6!1s0x391a8394fe3b6dad:0xc11556106487d9fd!8m2!3d30.9094266!4d75.8554003!16s%2Fg%2F11h51kcs0g!19sChIJrW07_pSDGjkR_dmHZBBWFcE?authuser=0&hl=en&rclk=1,"30.9094266,75.8554003"
Masjid,Mosque,"WV66+QHX Masjid, Sikandari road, near cmc hospital, Khud Mohalla, Naulakha Garden Colony, Ludhiana, Punjab 141008","Khud Mohalla, Naulakha Garden Colony","WV66+QHX, Sikandari road, near cmc hospital",Ludhiana,141008,Punjab,IN,https://www.google.com/maps/place/Masjid/data=!4m7!3m6!1s0x391a834a4df9d2c9:0x1d53b90d1a6d6603!8m2!3d30.9120191!4d75.8615531!16s%2Fg%2F11kj4nrz5d!19sChIJydL5TUqDGjkRA2ZtGg25Ux0?authuser=0&hl=en&rclk=1,"30.9120191,75.8615531"
Bilal Masjid,Mosque,"WWCH+JH2 Bilal Masjid, Bhamia Kalan, Ludhiana, Punjab 141015",Bhamia Kalan,WWCH+JH2,Ludhiana,141015,Punjab,IN,https://www.google.com/maps/place/Bilal+Masjid/data=!4m7!3m6!1s0x391a9d37c3f28b21:0x500e916db3d0069b!8m2!3d30.9215077!4d75.9289025!16s%2Fg%2F11plt1d9h6!19sChIJIYvywzedGjkRmwbQs22RDlA?authuser=0&hl=en&rclk=1,"30.9215077,75.92890249999999"
Masjid E Gosiya,Mosque,"WV7R+4RX Masjid E Gosiya, Bal Singh Nagar Rd, Guru Arjan Dev Nagar, Ludhiana, Punjab 141008",Guru Arjan Dev Nagar,"WV7R+4RX, Bal Singh Nagar Rd",Ludhiana,141008,Punjab,IN,https://www.google.com/maps/place/Masjid+E+Gosiya/data=!4m7!3m6!1s0x391a831597703f25:0x3b90d037fa72d8!8m2!3d30.9128693!4d75.892098!16s%2Fg%2F11t29gb6v7!19sChIJJT9wlxWDGjkR2HL6N9CQOwA?authuser=0&hl=en&rclk=1,"30.912869299999997,75.89209799999999"
Masjid E Rahmaniya,Mosque,"Masjid E Rahmaniya, 327, Street Number 7, Gulab Bagh, Subhash Nagar, Ludhiana, Punjab 141007","Gulab Bagh, Subhash Nagar","327, Street Number 7",Ludhiana,141007,Punjab,IN,https://www.google.com/maps/place/Masjid+E+Rahmaniya/data=!4m7!3m6!1s0x391a83cf1acd8dfb:0xa0894455c40c4fe2!8m2!3d30.9251424!4d75.8882476!16s%2Fg%2F11sxv5dpwx!19sChIJ-43NGs-DGjkR4k8MxFVEiaA?authuser=0&hl=en&rclk=1,"30.9251424,75.8882476"
Aisha masjid,Mosque,"VV5Q+XP2 Aisha masjid, Shimlapuri, Ludhiana, Punjab 141016",Shimlapuri,VV5Q+XP2,Ludhiana,141016,Punjab,IN,https://www.google.com/maps/place/Aisha+masjid/data=!4m7!3m6!1s0x391a83904ee0cc65:0x80745fa35a32b508!8m2!3d30.8598933!4d75.8892636!16s%2Fg%2F11s2pp_5vh!19sChIJZczgTpCDGjkRCLUyWqNfdIA?authuser=0&hl=en&rclk=1,"30.8598933,75.88926359999999"
madina masjid,Mosque,"WW9R+87R madina masjid, Bhamia Kalan, Ludhiana, Tajpur, Punjab 141015",Bhamia Kalan,WW9R+87R,"Ludhiana, Tajpur",141015,Punjab,IN,https://www.google.com/maps/place/madina+masjid/data=!4m7!3m6!1s0x391a9de77df745d3:0xa427e2b43683a2c0!8m2!3d30.9183697!4d75.9406281!16s%2Fg%2F11s5cvf_m5!19sChIJ00X3feedGjkRwKKDNrTiJ6Q?authuser=0&hl=en&rclk=1,"30.9183697,75.9406281"
MASJID USMAN E GHANI,Mosque,"WVGH+5W4 MASJID USMAN E GHANI, Tibba Rd, Satsang Ghar, New Subhash Nagar, Ludhiana, Punjab 141007","Satsang Ghar, New Subhash Nagar","WVGH+5W4, Tibba Rd",Ludhiana,,Punjab,IN,https://www.google.com/maps/place/MASJID+USMAN+E+GHANI/data=!4m7!3m6!1s0x391a83ccb6502b91:0x90e32810db68d766!8m2!3d30.9253766!4d75.8798224!16s%2Fg%2F11pv9bbz9y!19sChIJkStQtsyDGjkRZtdo2xAo45A?authuser=0&hl=en&rclk=1,"30.9253766,75.8798224"
Faishal,Mosque,"Faishal, Jain Colony, Sunder Nagar, Ludhiana, Punjab 141007","Jain Colony, Sunder Nagar",,Ludhiana,141007,Punjab,IN,https://www.google.com/maps/place/Faishal/data=!4m7!3m6!1s0x391a83ef173ff831:0x609d2fa8eb8088a0!8m2!3d30.9250799!4d75.8704209!16s%2Fg%2F11t74k5z2h!19sChIJMfg_F--DGjkRoIiA66gvnWA?authuser=0&hl=en&rclk=1,"30.9250799,75.8704209"
jhugii msjid msjd,Mosque,"WVWP+785 jhugii msjid msjd, Vardhman Nagar, Ghelewal, Ludhiana, Meharban, Punjab 141007","Vardhman Nagar, Ghelewal",WVWP+785,"Ludhiana, Meharban",141007,Punjab,IN,https://www.google.com/maps/place/%E0%A4%9D%E0%A5%81%E0%A4%97%E0%A5%80+%E0%A4%AE%E0%A4%B8%E0%A5%8D%E0%A4%9C%E0%A4%BF%E0%A4%A6+%D9%85%D8%B3%D8%AC%D8%AF%E2%80%AD/data=!4m7!3m6!1s0x391a8505eacc54b1:0x695cacba7a81e983!8m2!3d30.9456296!4d75.8858734!16s%2Fg%2F11gl4b6rpt!19sChIJsVTM6gWFGjkRg-mBerqsXGk?authuser=0&hl=en&rclk=1,"30.9456296,75.8858734"
Masjid dholak wali transport Nagar Ludhiana,Mosque,"Masjid dholak wali transport Nagar Ludhiana, 95A, Near BSNL Exchange, Transport Nagar, Industrial Area- A, Ludhiana, Punjab 141010","Near BSNL Exchange, Transport Nagar, Industrial Area- A",95A,Ludhiana,141010,Punjab,IN,https://www.google.com/maps/place/Masjid+dholak+wali+transport+Nagar+Ludhiana/data=!4m7!3m6!1s0x391a832649ea5779:0x2b0f49719fde90d3!8m2!3d30.9068228!4d75.8797768!16s%2Fg%2F11vc0hx8fk!19sChIJeVfqSSaDGjkR05Den3FJDys?authuser=0&hl=en&rclk=1,"30.906822799999997,75.8797768"
Masjid,Mosque,"WRM7+FG5 Masjid, Jassian Village Rd, Jawala Singh Nagar, New Tagore Nagar, Haibowal Kalan, Ludhiana, Punjab 141001","Jawala Singh Nagar, New Tagore Nagar, Haibowal Kalan","WRM7+FG5, Jassian Village Rd",Ludhiana,141001,Punjab,IN,https://www.google.com/maps/place/Masjid/data=!4m7!3m6!1s0x391a85b406cc6067:0xced1fbdddee8073c!8m2!3d30.9336383!4d75.8138615!16s%2Fg%2F11j_8mvnjn!19sChIJZ2DMBrSFGjkRPAfo3t370c4?authuser=0&hl=en&rclk=1,"30.9336383,75.8138615"
Juggi wali masjid markaz,Mosque,"Juggi wali masjid markaz, 95A, Near BSNL Exchange, Transport Nagar, Industrial Area- A, Ludhiana, Punjab 141010","Near BSNL Exchange, Transport Nagar, Industrial Area- A",95A,Ludhiana,141010,Punjab,IN,https://www.google.com/maps/place/Juggi+wali+masjid+markaz/data=!4m7!3m6!1s0x391a83f3d2274f39:0x8894c7241276ba40!8m2!3d30.9060819!4d75.8796285!16s%2Fg%2F11krdsm4gl!19sChIJOU8n0vODGjkRQLp2EiTHlIg?authuser=0&hl=en&rclk=1,"30.9060819,75.8796285"
Masjid,Mosque,"WWCG+C53 Masjid, Guru Ram Das Nagar, Bhamian Khurd, Ludhiana, Punjab 141015","Guru Ram Das Nagar, Bhamian Khurd",WWCG+C53,Ludhiana,141015,Punjab,IN,https://www.google.com/maps/place/Masjid/data=!4m7!3m6!1s0x391a9d01b81f0679:0x6d2a925169de7918!8m2!3d30.921305!4d75.9254036!16s%2Fg%2F11t29g9qtb!19sChIJeQYfuAGdGjkRGHneaVGSKm0?authuser=0&hl=en&rclk=1,"30.921305,75.9254036"
Masjid e aqsa,Mosque,"Masjid e aqsa, Sandhu colony, Tibba Rd, near govt school, Kakka Village, Subhash Nagar, Ludhiana, Bhoda, Punjab 141007","Kakka Village, Subhash Nagar","Sandhu colony, Tibba Rd, near govt school","Ludhiana, Bhoda",141007,Punjab,IN,https://www.google.com/maps/place/Masjid+e+aqsa/data=!4m7!3m6!1s0x391a9d444e83cffd:0x3c5327271f7f0ab0!8m2!3d30.9331651!4d75.904439!16s%2Fg%2F11krgb6hcr!19sChIJ_c-DTkSdGjkRsAp_HycnUzw?authuser=0&hl=en&rclk=1,"30.9331651,75.904439"
Baba farid Masjid Jugiana Ludhiana,Mosque,"Baba farid Masjid Jugiana Ludhiana, Sunni Baba Farid Masjid, Jugiana, Ludhiana, Punjab 141017",Jugiana,Sunni Baba Farid Masjid,Ludhiana,141017,Punjab,IN,https://www.google.com/maps/place/Baba+farid+Masjid+Jugiana+Ludhiana/data=!4m7!3m6!1s0x3910779b602a64cb:0x72b0624d2054f1be!8m2!3d30.8487083!4d75.9289046!16s%2Fg%2F11s5twmfdb!19sChIJy2QqYJt3EDkRvvFUIE1isHI?authuser=0&hl=en&rclk=1,"30.8487083,75.9289046"
Masjid e aqsa,Mosque,"Masjid e aqsa, sandhu clony, Tibba road, road, opp. jagirpura, Ludhiana","Kishan Vihar, Ramesh Nagar","sandhu clony, Tibba road, road, opp. jagirpura",Ludhiana,,Punjab,IN,https://www.google.com/maps/place/Masjid+e+aqsa/data=!4m7!3m6!1s0x391a834dc428cbbb:0x5f4af21ab5178778!8m2!3d30.9243401!4d75.8916894!16s%2Fg%2F11s_vd6qgw!19sChIJu8soxE2DGjkReIcXtRrySl8?authuser=0&hl=en&rclk=1,"30.9243401,75.89168939999999"
Noor Masjid,Mosque,"WRGW+JV8 Noor Masjid, Fatehgarh Mohalla, Gandhi Nagar, Ludhiana, Punjab 141008","Fatehgarh Mohalla, Gandhi Nagar",WRGW+JV8,Ludhiana,,Punjab,IN,https://www.google.com/maps/place/Noor+Masjid/data=!4m7!3m6!1s0x391a83de8033aee3:0xbc5154f78da8810a!8m2!3d30.9265454!4d75.8472122!16s%2Fg%2F11sj61sljl!19sChIJ464zgN6DGjkRCoGojfdUUbw?authuser=0&hl=en&rclk=1,"30.9265454,75.8472122"
Masjid jalal din,Mosque,"RVWP+5PM Masjid jalal din, Dhoke lohara Punjab Pakistan, Ludhiana",Lohara,"RVWP+5PM, Dhoke lohara Punjab Pakistan",Ludhiana,,Punjab,IN,https://www.google.com/maps/place/Masjid+jalal+din/data=!4m7!3m6!1s0x3910797bf11d11c5:0xd9f2933862c7f986!8m2!3d30.8454614!4d75.8867987!16s%2Fg%2F11rvbh8vjy!19sChIJxREd8Xt5EDkRhvnHYjiT8tk?authuser=0&hl=en&rclk=1,"30.845461399999998,75.8867987"
Meri nahi ki kabar,Mosque,"WR9Q+Q75 Meri nahi ki kabar, Kundan Puri, Civil Lines, Ludhiana, Punjab 141008","Kundan Puri, Civil Lines",WR9Q+Q75,Ludhiana,141008,Punjab,IN,https://www.google.com/maps/place/Meri+nahi+ki+kabar/data=!4m7!3m6!1s0x391a838140b48471:0xbe0623c349e7f883!8m2!3d30.9193998!4d75.8382325!16s%2Fg%2F11kprkyfbw!19sChIJcYS0QIGDGjkRg_jnScMjBr4?authuser=0&hl=en&rclk=1,"30.919399799999997,75.83823249999999"
Hazrat Sheak Abdul Qadir Jilani,Mosque,"VVP9+XP8 Hazrat Sheak Abdul Qadir Jilani, Street Number 23, Ram Nagar, Parbhat Nagar, Sahibjada Ajit singh Nagar, Ludhiana, Punjab 141003","Ram Nagar, Parbhat Nagar, Sahibjada Ajit singh Nagar","VVP9+XP8, Street Number 23",Ludhiana,141003,Punjab,IN,https://www.google.com/maps/place/Hazrat+Sheak+Abdul+Qadir+Jilani/data=!4m7!3m6!1s0x391a8368543d681f:0x9dbbfb9229387e93!8m2!3d30.8874118!4d75.8693361!16s%2Fg%2F11tnd79bxv!19sChIJH2g9VGiDGjkRk344KZL7u50?authuser=0&hl=en&rclk=1,"30.8874118,75.8693361"
Masjid Tajushariya,Housing society,"Masjid Tajushariya, 3no, Jassian Village Rd, Sarop Nagar, Ludhiana, Punjab 141001",Sarop Nagar,"3no, Jassian Village Rd",Ludhiana,141001,Punjab,IN,https://www.google.com/maps/place/Masjid+Tajushariya/data=!4m7!3m6!1s0x391a85a5ee72fc09:0x30fcfc0682ac4958!8m2!3d30.9450342!4d75.822624!16s%2Fg%2F11y1cfw77n!19sChIJCfxy7qWFGjkRWEmsggb8_DA?authuser=0&hl=en&rclk=1,"30.9450342,75.82262399999999"
Masjid Tajushariya,Housing society,"VQWH+WXJ Masjid Tajushariya, New friends colony, Ludhiana, Punjab 141027",New friends colony,VQWH+WXJ,Ludhiana,,Punjab,IN,https://www.google.com/maps/place/Masjid+Tajushariya/data=!4m7!3m6!1s0x391a81938fc92c53:0x4ab42aa0808653d2!8m2!3d30.8973392!4d75.779891!16s%2Fg%2F11krhr2ysw!19sChIJUyzJj5OBGjkR0lOGgKAqtEo?authuser=0&hl=en&rclk=1,"30.897339199999998,75.77989099999999"
Zakir baba,Mosque,"Zakir baba, Zakir baba divya colony gali, Street Number 11, Ram Nagar, Ludhiana, Punjab 141015",Ram Nagar,"Zakir baba divya colony gali, Street Number 11",Ludhiana,141015,Punjab,IN,https://www.google.com/maps/place/Zakir+baba/data=!4m7!3m6!1s0x391a831d7fdbf181:0x4583b433b9781523!8m2!3d30.913058!4d75.869656!16s%2Fg%2F11p661kb0g!19sChIJgfHbfx2DGjkRIxV4uTO0g0U?authuser=0&hl=en&rclk=1,"30.913058,75.86965599999999"
Jahangir Alam,Mosque,"Jahangir Alam, Sunni Baba Farid Masjid, Jugiana, Ludhiana, Gobindgarh, Punjab 141017",Jugiana,Sunni Baba Farid Masjid,"Ludhiana, Gobindgarh",141017,Punjab,IN,https://www.google.com/maps/place/Jahangir+Alam/data=!4m7!3m6!1s0x391077f8dfe55083:0xcba17d0bfc9e50e7!8m2!3d30.8537893!4d75.9403173!16s%2Fg%2F11s5xp75k2!19sChIJg1Dl3_h3EDkR51Ce_At9ocs?authuser=0&hl=en&rclk=1,"30.8537893,75.94031729999999"
Dargah E Sharif Hazrat Bibi Rahimo Ji (Khandan Kadri),Mosque,"VWX7+V4Q Dargah E Sharif Hazrat Bibi Rahimo Ji (Khandan Kadri), Urban Estate Phase II, Jamalpur, Ludhiana, Punjab 141010","Urban Estate Phase II, Jamalpur",VWX7+V4Q,Ludhiana,141010,Punjab,IN,https://www.google.com/maps/place/Dargah+E+Sharif+Hazrat+Bibi+Rahimo+Ji+%28Khandan+Kadri%29/data=!4m7!3m6!1s0x391a9ddd9ada4087:0x67fd4ca0aee2e922!8m2!3d30.8997029!4d75.9128649!16s%2Fg%2F11qg0r54lm!19sChIJh0Damt2dGjkRIunirqBM_Wc?authuser=0&hl=en&rclk=1,"30.899702899999998,75.9128649"
