name,main_category,address,address_ward,address_street,address_city,address_postal_code,address_state,address_country_code,link,coordinates
masjid bhatta colony,Mosque,"P2RG+8JF masjid bhatta colony, bhatta colony, Hindaun, Rajasthan 322230",Amrit Puri,"P2RG+8JF, bhatta colony",Hindaun,322230,Rajasthan,IN,https://www.google.com/maps/place/masjid+bhatta+colony/data=!4m7!3m6!1s0x39722fec8ea7df3f:0xcd975f1438855822!8m2!3d26.7408211!4d77.0265505!16s%2Fg%2F11c453_t7y!19sChIJP9-njuwvcjkRIliFOBRfl80?authuser=0&hl=en&rclk=1,"26.740821099999998,77.0265505"
Masjid,Mosque,"P2XF+WF8 Masjid, Khanna Colony, Dwarkapura, Hindaun, Rajasthan 322230","Khanna Colony, Dwarkapura",P2XF+WF8,Hindaun,322230,Rajasthan,IN,https://www.google.com/maps/place/Masjid/data=!4m7!3m6!1s0x39722fe563cd0109:0x56c4e275781f56b3!8m2!3d26.7497906!4d77.0237138!16s%2Fg%2F11f30p0l3r!19sChIJCQHNY-UvcjkRs1YfeHXixFY?authuser=0&hl=en&rclk=1,"26.749790599999997,77.0237138"
Masjid E Usmaniya Chove Para Hinduan City,Mosque,"P2JQ+M7Q Masjid E Usmaniya Chove Para Hinduan City, Baddi Chopar, Hindaun, Rajasthan 322230",Baddi Chopar,P2JQ+M7Q,Hindaun,322230,Rajasthan,IN,https://www.google.com/maps/place/Masjid+E+Usmaniya+Chove+Para+Hinduan+City/data=!4m7!3m6!1s0x39722fbc6e875e37:0xe7d7a04e51f817e8!8m2!3d26.7317!4d77.0382332!16s%2Fg%2F11dxqgkw1k!19sChIJN16HbrwvcjkR6Bf4UU6g1-c?authuser=0&hl=en&rclk=1,"26.7317,77.0382332"
Jama masjid,Mosque,"P2HQ+97C Jama masjid, Shahganj, Hindaun, Rajasthan 322230",Shahganj,P2HQ+97C,Hindaun,322230,Rajasthan,IN,https://www.google.com/maps/place/Jama+masjid/data=!4m7!3m6!1s0x39722fbcb0a74da1:0x43977a226ee4b00!8m2!3d26.7284463!4d77.0381553!16s%2Fg%2F11g719fr22!19sChIJoU2nsLwvcjkRAEvuJqJ3OQQ?authuser=0&hl=en&rclk=1,"26.728446299999998,77.0381553"
NAGINA MASJID ngiinaa msjid,Mosque,"P2JM+2R2 NAGINA MASJID ngiinaa msjid, byaaniyaa paaddaa, Hindaun, Rajasthan 322230",Baddi Chopar,"P2JM+2R2, byaaniyaa paaddaa",Hindaun,322230,Rajasthan,IN,https://www.google.com/maps/place/NAGINA+MASJID+%E0%A4%A8%E0%A4%97%E0%A5%80%E0%A4%A8%E0%A4%BE+%E0%A4%AE%E0%A4%B8%E0%A5%8D%E0%A4%9C%E0%A4%BF%E0%A4%A6/data=!4m7!3m6!1s0x39722fbd740f3ae5:0x1b76a878cb1db9ee!8m2!3d26.7300094!4d77.0345137!16s%2Fg%2F11f0wnlgmm!19sChIJ5ToPdL0vcjkR7rkdy3iodhs?authuser=0&hl=en&rclk=1,"26.7300094,77.03451369999999"
MASJID GUD BALI,Mosque,"P2RJ+WG6 MASJID GUD BALI, Mohan Nagar, Hindaun, Rajasthan 322230",Mohan Nagar,P2RJ+WG6,Hindaun,322230,Rajasthan,IN,https://www.google.com/maps/place/MASJID+GUD+BALI/data=!4m7!3m6!1s0x39722fea50098aa7:0xf3d4ad12301b3f41!8m2!3d26.7422863!4d77.0312529!16s%2Fg%2F11f15bfpsz!19sChIJp4oJUOovcjkRQT8bMBKt1PM?authuser=0&hl=en&rclk=1,"26.7422863,77.0312529"
dini tableegi markaz,Mosque,"P2HP+V77 dini tableegi markaz, Mohalla Qureshi, Hindaun, Rajasthan 322230",Mohalla Qureshi,P2HP+V77,Hindaun,,Rajasthan,IN,https://www.google.com/maps/place/dini+tableegi+markaz/data=!4m7!3m6!1s0x39722fbd1abff30d:0xc812b1a28c29be04!8m2!3d26.7296692!4d77.0356677!16s%2Fg%2F11clwnlln5!19sChIJDfO_Gr0vcjkRBL4pjKKxEsg?authuser=0&hl=en&rclk=1,"26.7296692,77.03566769999999"
MADINA MASJID,Mosque,"P2JP+44M MADINA MASJID, Madina market Choori Bazaar, Hindaun, Rajasthan 322230",Baddi Chopar,"P2JP+44M, Madina market Choori Bazaar",Hindaun,322230,Rajasthan,IN,https://www.google.com/maps/place/MADINA+MASJID/data=!4m7!3m6!1s0x39722fbda75199d9:0xaa7581e0471817ab!8m2!3d26.730347!4d77.0352894!16s%2Fg%2F11gc8jm78s!19sChIJ2ZlRp70vcjkRqxcYR-CBdao?authuser=0&hl=en&rclk=1,"26.730347,77.0352894"
mosque aayisha,Mosque,"P2PQ+J6H mosque aayisha, jaat ki saraay, Hindaun, Rajasthan","Jatav Basti, Mohan Nagar","P2PQ+J6H, jaat ki saraay",Hindaun,,Rajasthan,IN,https://www.google.com/maps/place/mosque+aayisha/data=!4m7!3m6!1s0x39722fbf20cae9d3:0x2fd1eeca521cfe7d!8m2!3d26.7365728!4d77.0380941!16s%2Fg%2F11bwn93r3b!19sChIJ0-nKIL8vcjkRff4cUsru0S8?authuser=0&hl=en&rclk=1,"26.736572799999998,77.0380941"
Shahi Masjid Luharo Bali,Mosque,"P2HQ+RV5 Shahi Masjid Luharo Bali, Chhota Bazaar Shahganj, Hindaun, Rajasthan 322230",Baddi Chopar,"P2HQ+RV5, Chhota Bazaar Shahganj",Hindaun,322230,Rajasthan,IN,https://www.google.com/maps/place/Shahi+Masjid+Luharo+Bali/data=!4m7!3m6!1s0x39722fbb67bd3201:0x5a73f3270d73bc50!8m2!3d26.7295052!4d77.0397261!16s%2Fg%2F11g8vcrnvq!19sChIJATK9Z7svcjkRULxzDSfzc1o?authuser=0&hl=en&rclk=1,"26.7295052,77.0397261"
Masjid Shekh Pada,Mosque,"P2JR+9MJ Masjid Shekh Pada, puraanii kchrii bdd'ii baakhr, Shekh PadaHindaun, Hindaun, Rajasthan 322230",Shekh PadaHindaun,P2JR+9MJ puraanii kchrii bdd'ii baakhr,Hindaun,322230,Rajasthan,IN,https://www.google.com/maps/place/Masjid+Shekh+Pada/data=!4m7!3m6!1s0x39722f4a656f6905:0xc623af79b3d6bc24!8m2!3d26.7309655!4d77.0416363!16s%2Fg%2F11ry0ly2kz!19sChIJBWlvZUovcjkRJLzWs3mvI8Y?authuser=0&hl=en&rclk=1,"26.7309655,77.0416363"
DERA BALI MASJID,Mosque,"P2HP+7HM DERA BALI MASJID, DERA OLD POLISH CHOKI, Hindaun, Rajasthan 322230",Baddi Chopar,"P2HP+7HM, DERA OLD POLISH CHOKI",Hindaun,322230,Rajasthan,IN,https://www.google.com/maps/place/DERA+BALI+MASJID/data=!4m7!3m6!1s0x39722fbcd7ac227b:0x72a8426ff730e747!8m2!3d26.7282154!4d77.036423!16s%2Fg%2F11d_d1k4f5!19sChIJeyKs17wvcjkRR-cw929CqHI?authuser=0&hl=en&rclk=1,"26.7282154,77.036423"
FARUKHIYA MASJID SARAI BALI,Mosque,"P2HQ+9J8 FARUKHIYA MASJID SARAI BALI, Chhota Bazar Shahganj, Hindaun, Rajasthan 322230",Baddi Chopar,"P2HQ+9J8, Chhota Bazar Shahganj",Hindaun,322230,Rajasthan,IN,https://www.google.com/maps/place/FARUKHIYA+MASJID+SARAI+BALI/data=!4m7!3m6!1s0x39722fbca9b575a5:0x63950efa36b754b5!8m2!3d26.7284152!4d77.0390704!16s%2Fg%2F11gb3y8648!19sChIJpXW1qbwvcjkRtVS3NvoOlWM?authuser=0&hl=en&rclk=1,"26.728415199999997,77.0390704"
Pilu Wali Masjid Kachhwaya Pada,Mosque,"P2JP+57W Pilu Wali Masjid Kachhwaya Pada, Baddi Chopar, Hindaun, Rajasthan 322230",Baddi Chopar,P2JP+57W,Hindaun,322230,Rajasthan,IN,https://www.google.com/maps/place/Pilu+Wali+Masjid+Kachhwaya+Pada/data=!4m7!3m6!1s0x39722f432e004f15:0xcc9fe571a292ebdb!8m2!3d26.7304909!4d77.0357184!16s%2Fg%2F11fj7_767x!19sChIJFU8ALkMvcjkR2-uSonHln8w?authuser=0&hl=en&rclk=1,"26.7304909,77.0357184"
Umar Masjid (Tamoli Wali),Mosque,"P2HP+F8H Umar Masjid (Tamoli Wali), Jalsen ke paas Hammal Para, Hindaun, Rajasthan 322230",Baddi Chopar,"P2HP+F8H, Jalsen ke paas Hammal Para",Hindaun,322230,Rajasthan,IN,https://www.google.com/maps/place/Umar+Masjid+%28Tamoli+Wali%29/data=!4m7!3m6!1s0x39722fbd23f3f663:0x280313658d568c72!8m2!3d26.7286951!4d77.0358653!16s%2Fg%2F11fx7vf_r6!19sChIJY_bzI70vcjkRcoxWjWUTAyg?authuser=0&hl=en&rclk=1,"26.7286951,77.0358653"
MIRZA MASJID,Mosque,"P2HQ+MG9 MIRZA MASJID, Mirza Para Kumhar mohlla Shahganj, Hindaun, Rajasthan 322230",Baddi Chopar,"P2HQ+MG9, Mirza Para Kumhar mohlla Shahganj",Hindaun,322230,Rajasthan,IN,https://www.google.com/maps/place/MIRZA+MASJID/data=!4m7!3m6!1s0x39722fbca1bad7f9:0x4b2511144350530c!8m2!3d26.729173!4d77.0388712!16s%2Fg%2F11fx7r8d4h!19sChIJ-de6obwvcjkRDFNQQxQRJUs?authuser=0&hl=en&rclk=1,"26.729173,77.0388712"
Firdos Masjid,Mosque,"P28J+PXV Firdos Masjid, Unnamed Road, Hindaun, Rajasthan 322230",,"P28J+PXV, Unnamed Road",Hindaun,322230,Rajasthan,IN,https://www.google.com/maps/place/Firdos+Masjid/data=!4m7!3m6!1s0x39722f219e5cebc1:0x8c1335603ae72cdb!8m2!3d26.7168532!4d77.032432!16s%2Fg%2F11py7681fx!19sChIJwetcniEvcjkR2yznOmA1E4w?authuser=0&hl=en&rclk=1,"26.7168532,77.032432"
CHAMAN MASJID cmn msjid,Mosque,"P2HQ+254 CHAMAN MASJID cmn msjid, Chopra Kua Shahganj, Hindaun, Rajasthan 322230",Baddi Chopar,"P2HQ+254, Chopra Kua Shahganj",Hindaun,322230,Rajasthan,IN,https://www.google.com/maps/place/CHAMAN+MASJID+%E0%A4%9A%E0%A4%AE%E0%A4%A8+%E0%A4%AE%E0%A4%B8%E0%A5%8D%E0%A4%9C%E0%A4%BF%E0%A4%A6/data=!4m7!3m6!1s0x39722fa34be62e99:0xd2b2da3674d595b1!8m2!3d26.7275133!4d77.0379396!16s%2Fg%2F11f0wn93cg!19sChIJmS7mS6MvcjkRsZXVdDbastI?authuser=0&hl=en&rclk=1,"26.7275133,77.0379396"
MAKKA MASJID,Mosque,"P2JJ+3M6 MAKKA MASJID, Keshav Pura, Hindaun, Rajasthan 322230",Keshav Pura,P2JJ+3M6,Hindaun,322230,Rajasthan,IN,https://www.google.com/maps/place/MAKKA+MASJID/data=!4m7!3m6!1s0x39722f964b5dd3ad:0x218c9b9215aad0ed!8m2!3d26.7301702!4d77.0316431!16s%2Fg%2F11f159_7n7!19sChIJrdNdS5YvcjkR7dCqFZKbjCE?authuser=0&hl=en&rclk=1,"26.7301702,77.0316431"
Ek minar masjid,Mosque,"P2GC+9Q Ek minar masjid, Gau Shala, Hindaun, Rajasthan 322230",Gau Shala,P2GC+9Q,Hindaun,,Rajasthan,IN,https://www.google.com/maps/place/Ek+minar+masjid/data=!4m7!3m6!1s0x39722ff97e075457:0xd290305bdd252196!8m2!3d26.725992!4d77.021936!16s%2Fg%2F11p768gnry!19sChIJV1QHfvkvcjkRliEl3VswkNI?authuser=0&hl=en&rclk=1,"26.725991999999998,77.021936"
Masjid aksa,Mosque,"P2CF+JCJ Masjid aksa, Muslim shah calony, Hindaun, Rajasthan 322230",,P2CF+JCJ Muslim shah calony,Hindaun,,Rajasthan,IN,https://www.google.com/maps/place/Masjid+aksa/data=!4m7!3m6!1s0x39722ffcd21ac3ad:0xc98b5baeeb62567d!8m2!3d26.7215763!4d77.0235224!16s%2Fg%2F11rb3p13tk!19sChIJrcMa0vwvcjkRfVZi665bi8k?authuser=0&hl=en&rclk=1,"26.7215763,77.02352239999999"
Masjied,Mosque,"P28J+FWW Masjied, raj, Hindaun, Rajasthan",,"P28J+FWW, raj",Hindaun,,Rajasthan,IN,https://www.google.com/maps/place/Masjied/data=!4m7!3m6!1s0x39722fee4696e4bb:0xa00920c1d98fe60!8m2!3d26.7162394!4d77.0323424!16s%2Fg%2F11rbsfm9dg!19sChIJu-SWRu4vcjkRYP6YHQySAAo?authuser=0&hl=en&rclk=1,"26.7162394,77.03234239999999"
Darji Bali Masjid Maniharan,Mosque,"Darji Bali Masjid Maniharan, Darji, Bali Masjid Maniharan, Baddi Chopar, Hindaun, Rajasthan 322230",Baddi Chopar,"Darji, Bali Masjid Maniharan",Hindaun,322230,Rajasthan,IN,https://www.google.com/maps/place/Darji+Bali+Masjid+Maniharan/data=!4m7!3m6!1s0x39722fbce7440757:0xace682920d6cd8aa!8m2!3d26.7291793!4d77.0367239!16s%2Fg%2F11dfj0_5_n!19sChIJVwdE57wvcjkRqthsDZKC5qw?authuser=0&hl=en&rclk=1,"26.7291793,77.0367239"
Ek minar masjid Gulshan colony,Indian Muslim restaurant,"P2GC+CQ7 Ek minar masjid Gulshan colony, Gau Shala, Hingonia, Hindaun, Rajasthan 322230",Gau Shala,P2GC+CQ7,"Hingonia, Hindaun",,Rajasthan,IN,https://www.google.com/maps/place/Ek+minar+masjid+Gulshan+colony/data=!4m7!3m6!1s0x39722f7b9edbda81:0xc9e63a8d3811373d!8m2!3d26.7260302!4d77.0219272!16s%2Fg%2F11t7bvq2g2!19sChIJgdrbnnsvcjkRPTcROI065sk?authuser=0&hl=en&rclk=1,"26.7260302,77.0219272"
MASJID KHIZRA,Mosque,"P2HQ+WXF MASJID KHIZRA, Mohalla Shahganj Chhota Bazar, Hindaun, Rajasthan 322230",Baddi Chopar,"P2HQ+WXF, Mohalla Shahganj Chhota Bazar",Hindaun,322230,Rajasthan,IN,https://www.google.com/maps/place/MASJID+KHIZRA/data=!4m7!3m6!1s0x39722fbb6f4e0571:0x1c81bc448340e204!8m2!3d26.7298041!4d77.039927!16s%2Fg%2F11g9q97b_q!19sChIJcQVOb7svcjkRBOJAg0S8gRw?authuser=0&hl=en&rclk=1,"26.7298041,77.03992699999999"
Masjid Maniharaan msjd mnyhrn,Mosque,"P2MH+JVV Masjid Maniharaan msjd mnyhrn, Maniharon ka rasta, Coori Baazar, Keshav Pura, Hindaun, Rajasthan 322230","Coori Baazar, Keshav Pura","P2MH+JVV, Maniharon ka rasta",Hindaun,322230,Rajasthan,IN,https://www.google.com/maps/place/Masjid+Maniharaan+%D9%85%D8%B3%D8%AC%D8%AF+%D9%85%D9%86%D9%8A%D9%87%D8%A7%D8%B1%D8%A7%D9%86%E2%80%AD/data=!4m7!3m6!1s0x39722fdaa0289931:0xf990ab00ef5243cd!8m2!3d26.7341201!4d77.0296837!16s%2Fg%2F11tndfy3n6!19sChIJMZkooNovcjkRzUNS7wCrkPk?authuser=0&hl=en&rclk=1,"26.7341201,77.02968369999999"
BADI MASZID,Mosque,"BADI MASZID, Kazi pada, Baddi Chopar, Hindaun, Rajasthan 322230",Baddi Chopar,Kazi pada,Hindaun,322230,Rajasthan,IN,https://www.google.com/maps/place/BADI+MASZID/data=!4m7!3m6!1s0x39722fef1a8b7cdf:0x6add3551ff035ecd!8m2!3d26.7303331!4d77.039042!16s%2Fg%2F11sxydm1jh!19sChIJ33yLGu8vcjkRzV4D_1E13Wo?authuser=0&hl=en&rclk=1,"26.7303331,77.039042"
Imran khan Singam wale,Mosque,"P2GC+9Q Imran khan Singam wale, Gulshan coloni ek minar masjid ke pas, Imran khan Singam wale, Hindaun, Rajasthan",Gau Shala,"P2GC+9Q Gulshan coloni ek minar masjid ke pas, Imran khan Singam wale",Hindaun,,Rajasthan,IN,https://www.google.com/maps/place/Imran+khan+Singam+wale/data=!4m7!3m6!1s0x39722f2420b7720d:0x789e7a232f2dbdbb!8m2!3d26.725992!4d77.021936!16s%2Fg%2F11tjh984z5!19sChIJDXK3ICQvcjkRu70tLyN6nng?authuser=0&hl=en&rclk=1,"26.725991999999998,77.021936"
Teacher Sharafat ali,Housing society,"Teacher Sharafat ali, Chaman masjid, Baddi Chopar, Hindaun, Rajasthan 322230",Baddi Chopar,Chaman masjid,Hindaun,,Rajasthan,IN,https://www.google.com/maps/place/Teacher+Sharafat+ali/data=!4m7!3m6!1s0x39722f7a1e6c67c1:0x21a6f0e44b0845dd!8m2!3d26.7279365!4d77.038083!16s%2Fg%2F11tn00t9fh!19sChIJwWdsHnovcjkR3UUIS-TwpiE?authuser=0&hl=en&rclk=1,"26.7279365,77.038083"
