name,main_category,address,address_ward,address_street,address_city,address_postal_code,address_state,address_country_code,link,coordinates
Jama Masjid,Mosque,"Jama Masjid, Old Delhi, Delhi, 110006","Jama Masjid, Old Delhi",,Delhi,110006,Delhi,IN,https://www.google.com/maps/place/Jama+Masjid/data=!4m7!3m6!1s0x390cfd18df89b215:0xdd57369e29bf9d96!8m2!3d28.6506792!4d77.2334421!16zL20vMDR5emo1!19sChIJFbKJ3xj9DDkRlp2_KZ42V90?authuser=0&hl=en&rclk=1,"28.6506792,77.23344209999999"
Anjuman Jama Masjid,Mosque,"Anjuman Jama Masjid, Dharm Marg, Block C, Sushant Lok III, Sector 57, Gurugram, Haryana 122413","Block C, Sushant Lok III, Sector 57",Dharm Marg,Gurugram,122413,Haryana,IN,https://www.google.com/maps/place/Anjuman+Jama+Masjid/data=!4m7!3m6!1s0x390d22744de7ffcf:0x5b34f6fc683c66a0!8m2!3d28.4230634!4d77.0757236!16s%2Fg%2F11b62xj25s!19sChIJz__nTXQiDTkRoGY8aPz2NFs?authuser=0&hl=en&rclk=1,"28.4230634,77.0757236"
Masjid Shah Abdul Hadi,Mosque,"WF68+5QX Masjid Shah Abdul Hadi, Fazalpur, Amroha, Uttar Pradesh 244221",Fazalpur,WF68+5QX,Amroha,244221,Uttar Pradesh,IN,https://www.google.com/maps/place/Masjid+Shah+Abdul+Hadi/data=!4m7!3m6!1s0x390b098a2ded2829:0x20c634bd928c7af2!8m2!3d28.9104812!4d78.466983!16s%2Fg%2F11g0lckz7f!19sChIJKSjtLYoJCzkR8nqMkr00xiA?authuser=0&hl=en&rclk=1,"28.9104812,78.466983"
Hari Patti,Store,"Hari Patti, Near, 2738 Masjid, Khari Baoli Rd, Fatehpuri, Chandni Chowk, Delhi, 110006","Naya Bazar, Fatehpuri, Chandni Chowk","Near, 2738 Masjid, Khari Baoli Rd",Delhi,110006,Delhi,IN,https://www.google.com/maps/place/Hari+Patti/data=!4m7!3m6!1s0x390cfd12a033e4d1:0x97c17734677da8cc!8m2!3d28.6577521!4d77.2188633!16s%2Fg%2F12lsjtcld!19sChIJ0eQzoBL9DDkRzKh9ZzR3wZc?authuser=0&hl=en&rclk=1,"28.6577521,77.2188633"
Jannatul Firdose Masjid msjd jn@lfrdws,Mosque,"G8J6+H6X Jannatul Firdose Masjid msjd jn@lfrdws, Madanpur Khadar Extension, Block A, Madanpur Khadar, New Delhi, Delhi 110076","Madanpur Khadar Extension, Block A, Madanpur Khadar",G8J6+H6X,New Delhi,110076,Delhi,IN,https://www.google.com/maps/place/Jannatul+Firdose+Masjid+%D9%85%D8%B3%D8%AC%D8%AF+%D8%AC%D9%86%D8%A9%D8%A7%D9%84%D9%81%D8%B1%D8%AF%D9%88%D8%B3%E2%80%AD/data=!4m7!3m6!1s0x390ce698614a56a5:0x1c3fad641cabab20!8m2!3d28.5314784!4d77.3106246!16s%2Fg%2F11dybr1nt3!19sChIJpVZKYZjmDDkRIKurHGStPxw?authuser=0&hl=en&rclk=1,"28.531478399999997,77.3106246"
Masjid Insha Allah,Mosque,"Masjid Insha Allah, A671, Brahampuri Rd, New Seelampur, Shahdara, Delhi, 110053","New Seelampur, Shahdara","A671, Brahampuri Rd",Delhi,110053,Delhi,IN,https://www.google.com/maps/place/Masjid+Insha+Allah/data=!4m7!3m6!1s0x390cfc60e3af2f17:0x39c88b23869c5a85!8m2!3d28.6777809!4d77.2666514!16s%2Fg%2F11byyr3rlc!19sChIJFy-v42D8DDkRhVqchiOLyDk?authuser=0&hl=en&rclk=1,"28.6777809,77.2666514"
Jama Masjid Pipaka,Mosque,"62HV+9HX Jama Masjid Pipaka, Sehsaula, Haryana 122103",,62HV+9HX,Sehsaula,122103,Haryana,IN,https://www.google.com/maps/place/Jama+Masjid+Pipaka/data=!4m7!3m6!1s0x390d2f8fe4f9cb79:0x9a17f0fc30fe1c2f!8m2!3d28.2284816!4d77.0439866!16s%2Fg%2F11c317_rs7!19sChIJecv55I8vDTkRLxz-MPzwF5o?authuser=0&hl=en&rclk=1,"28.2284816,77.0439866"
Chand Masjid,Mosque,"8JJC+HG5 Chand Masjid, Aliyarpur, Deh, Uttar Pradesh 251318",,"8JJC+HG5, Aliyarpur","Deh, Mubarikpur",251318,Uttar Pradesh,IN,https://www.google.com/maps/place/Chand+Masjid/data=!4m7!3m6!1s0x390c16edd81f32c1:0xe209a8b764c45d7d!8m2!3d29.3313797!4d77.621358!16s%2Fg%2F11g7_hckp6!19sChIJwTIf2O0WDDkRfV3EZLeoCeI?authuser=0&hl=en&rclk=1,"29.3313797,77.621358"
Noorani Masjid,Mosque,"Noorani Masjid, Moti Masjid, Avas Vikas Colony, Hapur, Uttar Pradesh 245101",Avas Vikas Colony,Moti Masjid,Hapur,245101,Uttar Pradesh,IN,https://www.google.com/maps/place/Noorani+Masjid/data=!4m7!3m6!1s0x390c8506cf34866f:0xf2401e04df0e3415!8m2!3d28.7182873!4d77.7846658!16s%2Fg%2F11fx7pbf8_!19sChIJb4Y0zwaFDDkRFTQO3wQeQPI?authuser=0&hl=en&rclk=1,"28.7182873,77.7846658"
Nageena Masjid,Mosque,"PQ9M+XJC Nageena Masjid, Niwazipura, Bhanda Patti, Hapur, Uttar Pradesh 245101",Bhanda Patti,"PQ9M+XJC, Niwazipura",Hapur,245101,Uttar Pradesh,IN,https://www.google.com/maps/place/Nageena+Masjid/data=!4m7!3m6!1s0x390c85072321a97b:0x8c1ad494ca64f526!8m2!3d28.7199343!4d77.7840202!16s%2Fg%2F11g8wd2scg!19sChIJe6khIweFDDkRJvVkypTUGow?authuser=0&hl=en&rclk=1,"28.7199343,77.7840202"
Barkatee Masjid,Mosque,"Q4PR+V8W Barkatee Masjid, Gaura, Patti, Faizabad, Uttar Pradesh 224001",Hasnu Katra,"Q4PR+V8W, Gaura, Patti",Faizabad,224001,Uttar Pradesh,IN,https://www.google.com/maps/place/Barkatee+Masjid/data=!4m7!3m6!1s0x399a061250ecea2b:0xf43d5cf72943c743!8m2!3d26.7872282!4d82.1408214!16s%2Fg%2F11hcdlj3vk!19sChIJK-rsUBIGmjkRQ8dDKfdcPfQ?authuser=0&hl=en&rclk=1,"26.787228199999998,82.1408214"
Umar Masjid,Mosque,"Umar Masjid, Jahangeer Patti, Amba Vihar, Sujroo, Uttar Pradesh 251003",Amba Vihar,Jahangeer Patti,Sujroo,251003,Uttar Pradesh,IN,https://www.google.com/maps/place/Umar+Masjid/data=!4m7!3m6!1s0x390c1bac9618cc27:0xf6b1fca960487959!8m2!3d29.4462087!4d77.6924838!16s%2Fg%2F11c562ms86!19sChIJJ8wYlqwbDDkRWXlIYKn8sfY?authuser=0&hl=en&rclk=1,"29.4462087,77.69248379999999"
Jama Masjid Hapur,Mosque,"PQCM+WM3 Jama Masjid Hapur, Sikandarpur, Hapur, Uttar Pradesh 245101",Sikandarpur,PQCM+WM3,Hapur,245101,Uttar Pradesh,IN,https://www.google.com/maps/place/Jama+Masjid+Hapur/data=!4m7!3m6!1s0x390c85a9947d00eb:0xa6d000f1e5b9742d!8m2!3d28.7222699!4d77.78417!16s%2Fg%2F11gfm9483n!19sChIJ6wB9lKmFDDkRLXS55fEA0KY?authuser=0&hl=en&rclk=1,"28.722269899999997,77.78417"
Qile wali Masjid,Mosque,"4735+5GG Qile wali Masjid, Chhaproli road, Baraut, Uttar Pradesh 250611",Naya Bazar,"4735+5GG, Chhaproli road",Baraut,250611,Uttar Pradesh,IN,https://www.google.com/maps/place/Qile+wali+Masjid/data=!4m7!3m6!1s0x390c4b940959c809:0x27f6077d5c3928fb!8m2!3d29.102926!4d77.2588207!16s%2Fg%2F11g6bzkq2s!19sChIJCchZCZRLDDkR-yg5XH0H9ic?authuser=0&hl=en&rclk=1,"29.102926,77.2588207"
Madina Masjid,Mosque,"R6QQ+5JP Madina Masjid, Gajraula, Uttar Pradesh 244235",,R6QQ+5JP,Gajraula,244235,Uttar Pradesh,IN,https://www.google.com/maps/place/Madina+Masjid/data=!4m7!3m6!1s0x390b745b792065ed:0x51ec960e3a5d4d7a!8m2!3d28.837971!4d78.2390787!16s%2Fg%2F11ddzcnfjs!19sChIJ7WUgeVt0CzkRek1dOg6W7FE?authuser=0&hl=en&rclk=1,"28.837971,78.2390787"
Masjid Ashraf Ali,Mosque,"Masjid Ashraf Ali, Phalawda Rural, Uttar Pradesh 250401",,,Phalawda Rural,250401,Uttar Pradesh,IN,https://www.google.com/maps/place/Masjid+Ashraf+Ali/data=!4m7!3m6!1s0x390c73794c67f7fd:0xda2bc7279d18bc91!8m2!3d29.1896983!4d77.8307899!16s%2Fg%2F11g8kqn57h!19sChIJ_fdnTHlzDDkRkbwYnSfHK9o?authuser=0&hl=en&rclk=1,"29.1896983,77.8307899"
Mecca Masjid,Mosque,"CMVR+JG8 Mecca Masjid, Kungar Patti, Amba Vihar, Sujroo, Uttar Pradesh 251003","Kungar Patti, Amba Vihar","CMVR+JG8, Kungar Patti, Amba Vihar",Sujroo,251003,Uttar Pradesh,IN,https://www.google.com/maps/place/Mecca+Masjid/data=!4m7!3m6!1s0x390c1a526ed7b277:0x33dab570021c8f1!8m2!3d29.4440304!4d77.6913375!16s%2Fg%2F11cn6b2dzy!19sChIJd7LXblIaDDkR8cghAFerPQM?authuser=0&hl=en&rclk=1,"29.4440304,77.6913375"
MASJID JANNATUL FIRDAUS,Mosque,"4755+255 MASJID JANNATUL FIRDAUS, Patti Choudhran, Baraut, Uttar Pradesh 250611",Patti Choudhran,4755+255,Baraut,250611,Uttar Pradesh,IN,https://www.google.com/maps/place/MASJID+JANNATUL+FIRDAUS/data=!4m7!3m6!1s0x390c4b95e3321609:0x74aeb8279f2a1ba6!8m2!3d29.1075235!4d77.257987!16s%2Fg%2F11f105fg4q!19sChIJCRYy45VLDDkRphsqnye4rnQ?authuser=0&hl=en&rclk=1,"29.1075235,77.257987"
Nafees Masjid,Mosque,"PQ8M+XQJ Nafees Masjid, Bhanda Patti, Hapur, Uttar Pradesh 245101",Bhanda Patti,PQ8M+XQJ,Hapur,245101,Uttar Pradesh,IN,https://www.google.com/maps/place/Nafees+Masjid/data=!4m7!3m6!1s0x390c8506badf0437:0x75e14200b5f80359!8m2!3d28.7174513!4d77.7843786!16s%2Fg%2F11g8ty4vxz!19sChIJNwTfugaFDDkRWQP4tQBC4XU?authuser=0&hl=en&rclk=1,"28.7174513,77.7843786"
Ayesha Masjid,Mosque,"Ayesha Masjid, 251002, Kungar Patti, Amba Vihar, Sujroo, Uttar Pradesh","Kungar Patti, Amba Vihar","251002, Kungar Patti, Amba Vihar",Sujroo,,Uttar Pradesh,IN,https://www.google.com/maps/place/Ayesha+Masjid/data=!4m7!3m6!1s0x390c1a51f3528bfd:0xdcd20b7588c00f3f!8m2!3d29.440196!4d77.689391!16s%2Fg%2F11g8vmw6d3!19sChIJ_YtS81EaDDkRPw_AiHUL0tw?authuser=0&hl=en&rclk=1,"29.440196,77.689391"
raza Jama Masjid Patti Belhara,Mosque,"66RR+6GM raza Jama Masjid Patti Belhara, Belahra, Uttar Pradesh 225305",,66RR+6GM,Belahra,225305,Uttar Pradesh,IN,https://www.google.com/maps/place/raza+Jama+Masjid+Patti+Belhara/data=!4m7!3m6!1s0x39996b18780e8c5f:0x9a9abd96f73deac9!8m2!3d27.2405846!4d81.2412887!16s%2Fg%2F11f6ct3461!19sChIJX4wOeBhrmTkRyeo995a9mpo?authuser=0&hl=en&rclk=1,"27.2405846,81.2412887"
Masjid ABUBAKR In MusePatti,Mosque,"CGP9+RWF Masjid ABUBAKR In MusePatti, Muse Patti, Uttar Pradesh 271902",,CGP9+RWF,Muse Patti,271902,Uttar Pradesh,IN,https://www.google.com/maps/place/Masjid+ABUBAKR+In+MusePatti/data=!4m7!3m6!1s0x3999a78138421fe9:0x73ec88df0f2075b1!8m2!3d27.4370529!4d81.5197835!16s%2Fg%2F11hd92c5xj!19sChIJ6R9COIGnmTkRsXUgD9-I7HM?authuser=0&hl=en&rclk=1,"27.437052899999998,81.5197835"
Noori Masjid,Mosque,"R8JJ+FVF Noori Masjid, Ansari Rd, Noorpur, Zaidpur, Uttar Pradesh 225414",Noorpur,"R8JJ+FVF, Ansari Rd",Zaidpur,225414,Uttar Pradesh,IN,https://www.google.com/maps/place/Noori+Masjid/data=!4m7!3m6!1s0x399bd9e6963b65a5:0x2327fdeac325ce05!8m2!3d26.8311806!4d81.3321777!16s%2Fg%2F1z44zmy_5!19sChIJpWU7lubZmzkRBc4lw-r9JyM?authuser=0&hl=en&rclk=1,"26.8311806,81.3321777"
Madina Jama masjid,Mosque,"Q64X+XF2 Madina Jama masjid, Ghaziabad, Uttar Pradesh 201102",,Q64X+XF2,Ghaziabad,201102,Uttar Pradesh,IN,https://www.google.com/maps/place/Madina+Jama+masjid/data=!4m7!3m6!1s0x390cfefb9b184d05:0x7577c5ba1b997f13!8m2!3d28.7573767!4d77.2486348!16s%2Fg%2F11fy96f1vk!19sChIJBU0Ym_v-DDkRE3-ZG7rFd3U?authuser=0&hl=en&rclk=1,"28.7573767,77.24863479999999"
Deedar Patti Masjid,Mosque,"CCRW+J6J Deedar Patti Masjid, Unnamed Road, Didar Patti, Uttar Pradesh 243122",,"CCRW+J6J, Unnamed Road",Didar Patti,243122,Uttar Pradesh,IN,https://www.google.com/maps/place/Deedar+Patti+Masjid/data=!4m7!3m6!1s0x39a0076fd0264107:0x1d75d7085f30f938!8m2!3d28.44159!4d79.4455246!16s%2Fg%2F11g3wy6x5m!19sChIJB0Em0G8HoDkROPkwXwjXdR0?authuser=0&hl=en&rclk=1,"28.441589999999998,79.4455246"
iidgaah bhaadrpur,Mosque,"MP8H+72R iidgaah bhaadrpur, Bahadurpur Patti Kanugo, Rajasthan 301028",,MP8H+72R,Bahadurpur Patti Kanugo,301028,Rajasthan,IN,https://www.google.com/maps/place/%E0%A4%88%E0%A4%A6%E0%A4%97%E0%A4%BE%E0%A4%B9+%E0%A4%AC%E0%A4%B9%E0%A4%BE%E0%A4%A6%E0%A4%B0%E0%A4%AA%E0%A5%81%E0%A4%B0/data=!4m7!3m6!1s0x3972bdfb79529c41:0xa9349de07abbad60!8m2!3d27.6657328!4d76.7275121!16s%2Fg%2F11g8x30gmq!19sChIJQZxSefu9cjkRYK27euCdNKk?authuser=0&hl=en&rclk=1,"27.665732799999997,76.7275121"
Mairaj Masjid,Mosque,"CMRV+RP2 Mairaj Masjid, Kungar Patti, Amba Vihar, Sujroo, Uttar Pradesh 251002","Kungar Patti, Amba Vihar",CMRV+RP2,Sujroo,251002,Uttar Pradesh,IN,https://www.google.com/maps/place/Mairaj+Masjid/data=!4m7!3m6!1s0x390c1b6a64f2c65d:0xd9ca49ea6cbd6aa8!8m2!3d29.4420124!4d77.6942704!16s%2Fg%2F11gmcgvg_r!19sChIJXcbyZGobDDkRqGq9bOpJytk?authuser=0&hl=en&rclk=1,"29.4420124,77.6942704"
JAMA MASJID PATTI,Mosque,"4CFH+477 JAMA MASJID PATTI, Patti, Salempur Khas, Uttar Pradesh 271312",Patti,4CFH+477,Salempur Khas,271312,Uttar Pradesh,IN,https://www.google.com/maps/place/JAMA+MASJID+PATTI/data=!4m7!3m6!1s0x39974f7e01e8658d:0x9a1143da6d9d34aa!8m2!3d27.1227999!4d82.4281704!16s%2Fg%2F11h3dl8n5m!19sChIJjWXoAX5PlzkRqjSdbdpDEZo?authuser=0&hl=en&rclk=1,"27.1227999,82.4281704"
Eidgah Jhoondpur,Mosque,"5FQ6+795 Eidgah Jhoondpur, Jhundpur, Tabelagarhi, Uttar Pradesh 250622",,5FQ6+795,"Jhundpur, Tabelagarhi",250622,Uttar Pradesh,IN,https://www.google.com/maps/place/Eidgah+Jhoondpur/data=!4m7!3m6!1s0x390c470f7e42efe3:0x47ab963520b47844!8m2!3d29.1881447!4d77.4609997!16s%2Fg%2F11gxjtzmbw!19sChIJ4-9Cfg9HDDkRRHi0IDWWq0c?authuser=0&hl=en&rclk=1,"29.1881447,77.4609997"
Masjid,Mosque,"R56G+CQX Masjid, patti post tigri, Moharka, Uttar Pradesh",,"R56G+CQX, patti post tigri",Moharka,,Uttar Pradesh,IN,https://www.google.com/maps/place/Masjid/data=!4m7!3m6!1s0x390b76c9a5703263:0xa7c3cb1bc17fc7fb!8m2!3d28.8111244!4d78.1769886!16s%2Fg%2F11f12rtdc_!19sChIJYzJwpcl2CzkR-8d_wRvLw6c?authuser=0&hl=en&rclk=1,"28.811124399999997,78.1769886"
New Masjid Salarpur,Mosque,"QRPJ+5X7 New Masjid Salarpur, Patti Katesar, Uttar Pradesh 262721",,QRPJ+5X7,Patti Katesar,262721,Uttar Pradesh,IN,https://www.google.com/maps/place/New+Masjid+Salarpur/data=!4m7!3m6!1s0x3998d2955e1284ab:0x1b46ca2b52e7ed0d!8m2!3d27.7854242!4d80.8324294!16s%2Fg%2F11fz9y3zpr!19sChIJq4QSXpXSmDkRDe3nUivKRhs?authuser=0&hl=en&rclk=1,"27.785424199999998,80.8324294"
Markaz Masjid msjd,Mosque,"QH9J+HXH Markaz Masjid msjd, Kalchhina, Uttar Pradesh 245304",,QH9J+HXH,Kalchhina,,Uttar Pradesh,IN,https://www.google.com/maps/place/Markaz+Masjid+%D9%85%D8%B3%D8%AC%D8%AF%E2%80%AD/data=!4m7!3m6!1s0x390c8b41af1275bf:0x35cb00566a2f7108!8m2!3d28.768948!4d77.5824878!16s%2Fg%2F11gfjcxdwr!19sChIJv3USr0GLDDkRCHEvalYAyzU?authuser=0&hl=en&rclk=1,"28.768947999999998,77.5824878"
Masjid Tokra,Mosque,"V57P+R85 Masjid Tokra, Rehdara, Pakhroula Hashampur, Uttar Pradesh 244235",Rehdara,V57P+R85,Pakhroula Hashampur,244235,Uttar Pradesh,IN,https://www.google.com/maps/place/Masjid+Tokra/data=!4m7!3m6!1s0x390b77a669ed57e5:0xc803db2d59634b54!8m2!3d28.8645201!4d78.1858513!16s%2Fg%2F11h3g770pm!19sChIJ5VftaaZ3CzkRVEtjWS3bA8g?authuser=0&hl=en&rclk=1,"28.8645201,78.1858513"
makka masjid jhoodpur,Mosque,"5FP6+V25 makka masjid jhoodpur, Jhundpur, Uttar Pradesh 250622",,5FP6+V25,Jhundpur,250622,Uttar Pradesh,IN,https://www.google.com/maps/place/makka+masjid+jhoodpur/data=!4m7!3m6!1s0x390c47908d87ed31:0xd0720f6ff0c06bba!8m2!3d29.1871457!4d77.4600958!16s%2Fg%2F11fhngp0k6!19sChIJMe2HjZBHDDkRumvA8G8PctA?authuser=0&hl=en&rclk=1,"29.1871457,77.46009579999999"
Masjid RiyazulJannah,Mosque,"Masjid RiyazulJannah, Moti Masjid, Avas Vikas Colony, Hapur, Uttar Pradesh 245101",Avas Vikas Colony,Moti Masjid,Hapur,245101,Uttar Pradesh,IN,https://www.google.com/maps/place/Masjid+RiyazulJannah/data=!4m7!3m6!1s0x390c8506ea0be257:0xce398f146c8d73a1!8m2!3d28.718107!4d77.7837533!16s%2Fg%2F11fx7nl34q!19sChIJV-IL6gaFDDkRoXONbBSPOc4?authuser=0&hl=en&rclk=1,"28.718107,77.7837533"
Masjid Shane Mustaffa,Religious institution,"M7Q7+M64 Masjid Shane Mustaffa, Unnamed Road, Ghonda Patti Chauhan, Gautam Vihar, Shahdara, Delhi, 110053","Ghonda Patti Chauhan, Gautam Vihar, Shahdara","M7Q7+M64, Unnamed Road",Delhi,110053,Delhi,IN,https://www.google.com/maps/place/Masjid+Shane+Mustaffa/data=!4m7!3m6!1s0x390cfd85df579741:0xe03575480bdbaa8a!8m2!3d28.6891473!4d77.2630831!16s%2Fg%2F11gj731ttx!19sChIJQZdX34X9DDkRiqrbC0h1NeA?authuser=0&hl=en&rclk=1,"28.6891473,77.2630831"
Masjid Markaz Akera,Mosque,"2X7X+FRP Masjid Markaz Akera, Akera, Haryana 122108",,2X7X+FRP,Akera,,Haryana,IN,https://www.google.com/maps/place/Masjid+Markaz+Akera/data=!4m7!3m6!1s0x3972cded60fe6c79:0x7c4a2c9714923813!8m2!3d28.013705!4d76.9995779!16s%2Fg%2F11hzstq8zr!19sChIJeWz-YO3NcjkREziSFJcsSnw?authuser=0&hl=en&rclk=1,"28.013704999999998,76.99957789999999"
Uttar Patti Jama Masjid,Mosque,"Uttar Patti Jama Masjid, post Hindi, Uttar Patti, Hindu Baghaila",,"post Hindi, Uttar Patti","Hindu Baghaila, Baraiyakazi",,Uttar Pradesh,IN,https://www.google.com/maps/place/Uttar+Patti+Jama+Masjid/data=!4m7!3m6!1s0x399041b18085d8ef:0x2378195b5e29a306!8m2!3d25.8603785!4d82.617617!16s%2Fg%2F11ql_5ngcy!19sChIJ79iFgLFBkDkRBqMpXlsZeCM?authuser=0&hl=en&rclk=1,"25.8603785,82.617617"
"Jama Masjid , Bilawat Patti",Mosque,"RXXV+2P8 Jama Masjid , Bilawat Patti, Sakras, Haryana 122108",,RXXV+2P8,Sakras,122108,Haryana,IN,"https://www.google.com/maps/place/Jama+Masjid+,+Bilawat+Patti/data=!4m7!3m6!1s0x3972c5de2a768707:0xc6dcae4209ebeaf6!8m2!3d27.8475483!4d76.9943158!16s%2Fg%2F11h7v1kq2x!19sChIJB4d2Kt7FcjkR9urrCUKu3MY?authuser=0&hl=en&rclk=1","27.8475483,76.9943158"
Madina Masjid Jhil Patti,Mosque,"H56V+JFG Madina Masjid Jhil Patti, Jhil Patti, Road, Khera, Jhilpatti, Rajasthan 321022",,"H56V+JFG Jhil Patti, Road","Khera, Jhilpatti",321022,Rajasthan,IN,https://www.google.com/maps/place/Madina+Masjid+Jhil+Patti/data=!4m7!3m6!1s0x3972e306a0f5faa5:0x796d0ed141a3167c!8m2!3d27.5615625!4d77.1936875!16s%2Fg%2F11qh1k9msf!19sChIJpfr1oAbjcjkRfBajQdEObXk?authuser=0&hl=en&rclk=1,"27.561562499999997,77.1936875"
Bilali Masjid Patti Ramdas,Mosque,"WR54+657 Bilali Masjid Patti Ramdas, Lakhimpur, Kheri, Uttar Pradesh 262701",,WR54+657,"Lakhimpur, Kheri",262701,Uttar Pradesh,IN,https://www.google.com/maps/place/Bilali+Masjid+Patti+Ramdas/data=!4m7!3m6!1s0x399f35ca93f59751:0x5d5fc9d264401100!8m2!3d27.9080399!4d80.8054939!16s%2Fg%2F11q3txq4dk!19sChIJUZf1k8o1nzkRABFAZNLJX10?authuser=0&hl=en&rclk=1,"27.9080399,80.8054939"
Mecca Masjid,Mosque,"4736+MX7 Mecca Masjid, Patti Choudhran, Baraut, Uttar Pradesh 250611",Patti Choudhran,4736+MX7,Baraut,250611,Uttar Pradesh,IN,https://www.google.com/maps/place/Mecca+Masjid/data=!4m7!3m6!1s0x390c4b9cb76cbc6f:0xc1fcad7f50ec0edd!8m2!3d29.1041708!4d77.2624154!16s%2Fg%2F11fd3gskgw!19sChIJb7xst5xLDDkR3Q7sUH-t_ME?authuser=0&hl=en&rclk=1,"29.1041708,77.2624154"
GULLSAHA MASJID,Mosque,"4755+FC5 GULLSAHA MASJID, Saharanpur - Delhi Rd, Nai Basti, Patti Choudhran, Baraut, Uttar Pradesh 250611","Nai Basti, Patti Choudhran","4755+FC5, Saharanpur - Delhi Rd",Baraut,250611,Uttar Pradesh,IN,https://www.google.com/maps/place/GULLSAHA+MASJID/data=!4m7!3m6!1s0x390c4b9ff73cf719:0x54e611af439fcbfc!8m2!3d29.1086387!4d77.2585938!16s%2Fg%2F11gw2qqwx1!19sChIJGfc8959LDDkR_MufQ68R5lQ?authuser=0&hl=en&rclk=1,"29.1086387,77.2585938"
Noori masjid,Mosque,"XF7W+W2R Noori masjid, Jaura Patti Chandarbhan, Uttar Pradesh 242303",,XF7W+W2R,Jaura Patti Chandarbhan,242303,Uttar Pradesh,IN,https://www.google.com/maps/place/Noori+masjid/data=!4m7!3m6!1s0x399fe72400569cfd:0x8124806f9b746f06!8m2!3d27.9648561!4d79.4950271!16s%2Fg%2F11t93zz0y4!19sChIJ_ZxWACTnnzkRBm90m2-AJIE?authuser=0&hl=en&rclk=1,"27.9648561,79.4950271"
Sahvlayat Masjid,Mosque,"Sahvlayat Masjid, Unnamed Road, Bhanda Patti, Hapur, Uttar Pradesh 245101",Bhanda Patti,Unnamed Road,Hapur,245101,Uttar Pradesh,IN,https://www.google.com/maps/place/Sahvlayat+Masjid/data=!4m7!3m6!1s0x390c85cf0e44890f:0x9c6be6ecb68223b4!8m2!3d28.7217759!4d77.7826109!16s%2Fg%2F11f6xzx1m_!19sChIJD4lEDs-FDDkRtCOCtuzma5w?authuser=0&hl=en&rclk=1,"28.721775899999997,77.7826109"
Masjid,Mosque,"Q6MJ+5H5 Masjid, Badarpur, Madanpur Khadar, New Delhi, 110084",Madanpur Khadar,"Q6MJ+5H5, Badarpur","New Delhi, Delhi",110084,Delhi,IN,https://www.google.com/maps/place/Masjid/data=!4m7!3m6!1s0x390cffb780460377:0x9fe224e9c653e965!8m2!3d28.7828891!4d77.2314704!16s%2Fg%2F11qn790lvq!19sChIJdwNGgLf_DDkRZelTxukk4p8?authuser=0&hl=en&rclk=1,"28.7828891,77.23147039999999"
Masjid Ayesha Ahle Hadees,Mosque,"P6VX+XX2 Masjid Ayesha Ahle Hadees, Sabhapur, Delhi, 110094",Sabhapur,P6VX+XX2,Delhi,110094,Delhi,IN,https://www.google.com/maps/place/Masjid+Ayesha+Ahle+Hadees/data=!4m7!3m6!1s0x390cffadaa32c1af:0x3977e8436fb27de!8m2!3d28.7448769!4d77.2498794!16s%2Fg%2F11qn59sd6m!19sChIJr8Eyqq3_DDkR3if7NoR-lwM?authuser=0&hl=en&rclk=1,"28.744876899999998,77.2498794"
Noori Masjid,Mosque,"XM3W+VGV Noori Masjid, Madhav Puram, Meerut, Uttar Pradesh 250002",Madhav Puram,XM3W+VGV,Meerut,250002,Uttar Pradesh,IN,https://www.google.com/maps/place/Noori+Masjid/data=!4m7!3m6!1s0x390c65060382b1c7:0x617cd280e94af0bc!8m2!3d28.9547492!4d77.6962958!16s%2Fg%2F11fhn5zy18!19sChIJx7GCAwZlDDkRvPBK6YDSfGE?authuser=0&hl=en&rclk=1,"28.9547492,77.6962958"
PATTI MAJAR SARIF,Mosque,"4CFG+HW7 PATTI MAJAR SARIF, Patti, Salempur Khas, Uttar Pradesh 271312",Patti,4CFG+HW7,Salempur Khas,271312,Uttar Pradesh,IN,https://www.google.com/maps/place/PATTI+MAJAR+SARIF/data=!4m7!3m6!1s0x39974fb79ffda453:0x6415e2ce393a969e!8m2!3d27.1239186!4d82.4272874!16s%2Fg%2F11fjz61xp6!19sChIJU6T9n7dPlzkRnpY6Oc7iFWQ?authuser=0&hl=en&rclk=1,"27.1239186,82.4272874"
Masjid Aik Minar,Mosque,"2XR9+9CH Masjid Aik Minar, Meoli, Haryana 122107",,2XR9+9CH,Meoli,122107,Haryana,IN,https://www.google.com/maps/place/Masjid+Aik+Minar/data=!4m7!3m6!1s0x3972cdc162181b4d:0xbad19f8f1293c79c!8m2!3d28.0409497!4d76.9685944!16s%2Fg%2F11lgkf_9lx!19sChIJTRsYYsHNcjkRnMeTEo-f0bo?authuser=0&hl=en&rclk=1,"28.0409497,76.9685944"
Madina Masjid,Mosque,"P5J4+R47 Madina Masjid, Unnamed Road, Tambaur, Uttar Pradesh 261208",,"P5J4+R47, Unnamed Road",Tambaur,261208,Uttar Pradesh,IN,https://www.google.com/maps/place/Madina+Masjid/data=!4m7!3m6!1s0x3998de07ab548f95:0xeeeb7184c41e8adf!8m2!3d27.7320467!4d81.1553073!16s%2Fg%2F11g9q4yphf!19sChIJlY9UqwfemDkR34oexIRx6-4?authuser=0&hl=en&rclk=1,"27.732046699999998,81.15530729999999"
Lakkad Patti Masjid,Mosque,"JJ42+49R Lakkad Patti Masjid, Hasanpur Shahpur Hakimpur Marg, Kutesra, Uttar Pradesh 251311",,"JJ42+49R, Hasanpur Shahpur Hakimpur Marg",Kutesra,251311,Uttar Pradesh,IN,https://www.google.com/maps/place/Lakkad+Patti+Masjid/data=!4m7!3m6!1s0x390ea05bdcbf52ed:0xce9c7517d2656bad!8m2!3d29.6053595!4d77.600879!16s%2Fg%2F11dz5b1hw4!19sChIJ7VK_3FugDjkRrWtl0hd1nM4?authuser=0&hl=en&rclk=1,"29.6053595,77.60087899999999"
Jodiya Patti masjid,Mosque,"MPQP+CG2 Jodiya Patti masjid, Bahadurpur Patti Joriya, Kithoor, Rajasthan 301028",,MPQP+CG2,"Bahadurpur Patti Joriya, Kithoor",,Rajasthan,IN,https://www.google.com/maps/place/Jodiya+Patti+masjid/data=!4m7!3m6!1s0x3972bf6c256b8d35:0x339102b217f70579!8m2!3d27.6885214!4d76.7362553!16s%2Fg%2F11nx02n2mp!19sChIJNY1rJWy_cjkReQX3F7ICkTM?authuser=0&hl=en&rclk=1,"27.6885214,76.7362553"
Wahidiya masjid,Mosque,"Wahidiya masjid, Wahidiya chowk, 50 Feet Road Nearest, naseeb vihar, Chauhan Patti, Loni, Ghaziabad, Uttar Pradesh 201102","naseeb vihar, Chauhan Patti, Loni","Wahidiya chowk, 50 Feet Road Nearest",Ghaziabad,201102,Uttar Pradesh,IN,https://www.google.com/maps/place/Wahidiya+masjid/data=!4m7!3m6!1s0x390cffe88c60c0ff:0xbbae3df57386c8cf!8m2!3d28.7562387!4d77.2484872!16s%2Fg%2F11vdrptwn6!19sChIJ_8BgjOj_DDkRz8iGc_U9rrs?authuser=0&hl=en&rclk=1,"28.756238699999997,77.2484872"
Ahle Hadis Masjid,Mosque,"V9X7+MWV Ahle Hadis Masjid, Andooa Patti, Hodal, Haryana 121106",Andooa Patti,V9X7+MWV,Hodal,121106,Haryana,IN,https://www.google.com/maps/place/Ahle+Hadis+Masjid/data=!4m7!3m6!1s0x39732502b5394031:0x278d2e0dd728ad21!8m2!3d27.8992498!4d77.3648124!16s%2Fg%2F11gjv6qdpj!19sChIJMUA5tQIlczkRIa0o1w0ujSc?authuser=0&hl=en&rclk=1,"27.8992498,77.36481239999999"
Tahira Maszid,Mosque,"HC9F+7QV Tahira Maszid, Khamriya Hardo Patti, Uttar Pradesh 271824",,HC9F+7QV,Khamriya Hardo Patti,271824,Uttar Pradesh,IN,https://www.google.com/maps/place/Tahira+Maszid/data=!4m7!3m6!1s0x399903ff1aa42143:0x92360f8fa042d3aa!8m2!3d27.5682396!4d81.4244065!16s%2Fg%2F11g6mhczml!19sChIJQyGkGv8DmTkRqtNCoI8PNpI?authuser=0&hl=en&rclk=1,"27.5682396,81.42440649999999"
Hamza Masjid,Mosque,"PQ9M+98F Hamza Masjid, Avas Vikas Colony Road, Kotla Mewatiyn Purani Chungi, Hapur, Uttar Pradesh 245101",Kotla Mewatiyn Purani Chungi,"PQ9M+98F, Avas Vikas Colony Road",Hapur,245101,Uttar Pradesh,IN,https://www.google.com/maps/place/Hamza+Masjid/data=!4m7!3m6!1s0x390c85a426d9df27:0xb2597be9e3f817d!8m2!3d28.7184398!4d77.7833055!16s%2Fg%2F11fj7ft5sc!19sChIJJ9_ZJqSFDDkRfYE_nr6XJQs?authuser=0&hl=en&rclk=1,"28.7184398,77.7833055"
Bhag Wali Masjid,Mosque,"4H96+V76 Bhag Wali Masjid, Jewar, Uttar Pradesh 203135",,4H96+V76,Jewar,203135,Uttar Pradesh,IN,https://www.google.com/maps/place/Bhag+Wali+Masjid/data=!4m7!3m6!1s0x390ccb990b0e2b83:0x8ce586df5d427aa8!8m2!3d28.11967!4d77.5606292!16s%2Fg%2F11ghnpf305!19sChIJgysOC5nLDDkRqHpCXd-G5Yw?authuser=0&hl=en&rclk=1,"28.11967,77.5606292"
Salpur Jama Masjid saalpur jaamaa msjid,Mosque,"52CV+5WP Salpur Jama Masjid saalpur jaamaa msjid, Salpur Samera, Tikria, Uttar Pradesh 271601",,52CV+5WP,"Salpur Samera, Tikria",271601,Uttar Pradesh,IN,https://www.google.com/maps/place/Salpur+Jama+Masjid+%E0%A4%B8%E0%A4%BE%E0%A4%B2%E0%A4%AA%E0%A5%81%E0%A4%B0+%E0%A4%9C%E0%A4%BE%E0%A4%AE%E0%A4%BE+%E0%A4%AE%E0%A4%B8%E0%A5%8D%E0%A4%9C%E0%A4%BF%E0%A4%A6/data=!4m7!3m6!1s0x3999e5c7f3bf763d:0x25caf67922e3dfca!8m2!3d27.1704606!4d82.0448178!16s%2Fg%2F11q30z8kvv!19sChIJPXa_88flmTkRyt_jInn2yiU?authuser=0&hl=en&rclk=1,"27.1704606,82.04481779999999"
Jama Masjid Patti Shah,Mosque,"W5QH+Q3W Jama Masjid Patti Shah, Patti Shah, Uttar Pradesh 212652",,W5QH+Q3W,Patti Shah,212652,Uttar Pradesh,IN,https://www.google.com/maps/place/Jama+Masjid+Patti+Shah/data=!4m7!3m6!1s0x399b12b8f6629855:0x56aa605f677c4f49!8m2!3d25.9394973!4d81.1777079!16s%2Fg%2F11ckw282jn!19sChIJVZhi9rgSmzkRSU98Z19gqlY?authuser=0&hl=en&rclk=1,"25.9394973,81.1777079"
Sabri Masjid,Mosque,"MQRW+628 Sabri Masjid, Jatpura, Jaitpur Patti, Uttar Pradesh 244301",,MQRW+628,"Jatpura, Jaitpur Patti",244301,Uttar Pradesh,IN,https://www.google.com/maps/place/Sabri+Masjid/data=!4m7!3m6!1s0x390ae5bcac66cc8f:0x15ecb84ceadd53a2!8m2!3d28.6903997!4d78.795101!16s%2Fg%2F11s7vmw0d_!19sChIJj8xmrLzlCjkRolPd6ky47BU?authuser=0&hl=en&rclk=1,"28.6903997,78.795101"
Mosque,Mosque,"9RJC+978 Mosque, Gangarua, Uttar Pradesh 203001",,9RJC+978,Gangarua,203001,Uttar Pradesh,IN,https://www.google.com/maps/place/Mosque/data=!4m7!3m6!1s0x390ca524377139ef:0xf950fa89c3cd644f!8m2!3d28.3809088!4d77.8207111!16s%2Fg%2F11rssh_4py!19sChIJ7zlxNySlDDkRT2TNw4n6UPk?authuser=0&hl=en&rclk=1,"28.3809088,77.8207111"
Raza Masjid,Mosque,"73CH+4GF Raza Masjid, Unnamed Road, Uttar Pradesh 271602",,"73CH+4GF, Unnamed Road",Mohanpur Asdha,271602,Uttar Pradesh,IN,https://www.google.com/maps/place/Raza+Masjid/data=!4m7!3m6!1s0x3999e7f85aa177f7:0x3fbccc6d7f457114!8m2!3d27.2703037!4d82.0788088!16s%2Fg%2F11h3mbmcfg!19sChIJ93ehWvjnmTkRFHFFf23MvD8?authuser=0&hl=en&rclk=1,"27.2703037,82.07880879999999"
Jahangiri Masjid (Patti Wali),Mosque,"RQ7W+P44 Jahangiri Masjid (Patti Wali), Unnamed Road, Kanth, Uttar Pradesh 242223",,"RQ7W+P44, Unnamed Road",Kanth,242223,Uttar Pradesh,IN,https://www.google.com/maps/place/Jahangiri+Masjid+%28Patti+Wali%29/data=!4m7!3m6!1s0x399fb9b0ac7dfd8f:0xe16beb56d550a32!8m2!3d27.8142588!4d79.7953323!16s%2Fg%2F11q1jlwdpz!19sChIJj_19rLC5nzkRMgpVbbW-Fg4?authuser=0&hl=en&rclk=1,"27.814258799999998,79.7953323"
Masjid-e-Umar,Mosque,"5W2H+C8F Masjid-e-Umar, Patti, Dilvasi, Uttar Pradesh 226203",,5W2H+C8F,"Patti, Dilvasi",226203,Uttar Pradesh,IN,https://www.google.com/maps/place/Masjid-e-Umar/data=!4m7!3m6!1s0x39994fed22ef150f:0xa35b48b9f16110f3!8m2!3d27.151052!4d80.9283036!16s%2Fg%2F11kb92dztm!19sChIJDxXvIu1PmTkR8xBh8blIW6M?authuser=0&hl=en&rclk=1,"27.151052,80.92830359999999"
Masjid Firdos,Mosque,"WRHV+74P Masjid Firdos, Mohalla dakotan, Panch Rang Patti, Bas Badanpura, Jaipur, Rajasthan 302002","Panch Rang Patti, Bas Badanpura","WRHV+74P, Mohalla dakotan",Jaipur,302002,Rajasthan,IN,https://www.google.com/maps/place/Masjid+Firdos/data=!4m7!3m6!1s0x396db1b5e61d5b9d:0x87c7ade6d40686ae!8m2!3d26.9282064!4d75.8428231!16s%2Fg%2F11t0sz89d6!19sChIJnVsd5rWxbTkRroYG1Oatx4c?authuser=0&hl=en&rclk=1,"26.9282064,75.84282309999999"
Bilaal Masjid,Mosque,"MM7V+C4R Bilaal Masjid, Rasid Patti, Uttar Pradesh 224118",,MM7V+C4R,Rasid Patti,224118,Uttar Pradesh,IN,https://www.google.com/maps/place/Bilaal+Masjid/data=!4m7!3m6!1s0x399a3a09b9112fd5:0xd8a5d261e1de63ca!8m2!3d26.663619!4d81.6927518!16s%2Fg%2F11hc_zzlp3!19sChIJ1S8RuQk6mjkRymPe4WHSpdg?authuser=0&hl=en&rclk=1,"26.663618999999997,81.6927518"
Julla wali masjid gauri patti,Mosque,"Q72R+V3J Julla wali masjid gauri patti, Loni Dehat, Uttar Pradesh 201102",Loni Dehat,Q72R+V3J,,201102,Uttar Pradesh,IN,https://www.google.com/maps/place/Julla+wali+masjid+gauri+patti/data=!4m7!3m6!1s0x390cf955fdad368f:0x71869699ee0742fa!8m2!3d28.7522008!4d77.2901296!16s%2Fg%2F11rs05cskz!19sChIJjzat_VX5DDkR-kIH7pmWhnE?authuser=0&hl=en&rclk=1,"28.752200799999997,77.2901296"
Tauheed Masjid,Mosque,"Q72R+QPW Tauheed Masjid, Gauri Patti, Loni Dehat, Ghaziabad, Uttar Pradesh 201102",Loni Dehat,"Q72R+QPW Tauheed Masjid, Gauri Patti",Ghaziabad,201102,Uttar Pradesh,IN,https://www.google.com/maps/place/Tauheed+Masjid/data=!4m7!3m6!1s0x390cf95a97d0e6e9:0xa341f49d18e0e92f!8m2!3d28.7519862!4d77.2918161!16s%2Fg%2F11pt_9ckxl!19sChIJ6ebQl1r5DDkRL-ngGJ30QaM?authuser=0&hl=en&rclk=1,"28.751986199999997,77.29181609999999"
Mosque near by from this location,Mosque,"V77J+Q6Q Mosque near by from this location, Patti-Mundala, Khekra, Uttar Pradesh 250101",Patti-Mundala,V77J+Q6Q,Khekra,250101,Uttar Pradesh,IN,https://www.google.com/maps/place/Mosque+near+by+from+this+location/data=!4m7!3m6!1s0x390c551ed07d99d3:0xc4fa7ba7d1f01a44!8m2!3d28.8644717!4d77.2806207!16s%2Fg%2F11t4m8npx_!19sChIJ05l90B5VDDkRRBrw0ad7-sQ?authuser=0&hl=en&rclk=1,"28.8644717,77.2806207"
Masjid nagaria patti devari,Mosque,"M82G+HHR Masjid nagaria patti devari, Nagaria Patti Devari, Uttar Pradesh 204214",,M82G+HHR,Nagaria Patti Devari,204214,Uttar Pradesh,IN,https://www.google.com/maps/place/Masjid+nagaria+patti+devari/data=!4m7!3m6!1s0x3974ed551101f8f5:0xfdc7c7ca2015bd30!8m2!3d27.6514947!4d78.3263914!16s%2Fg%2F11s0zk0hq9!19sChIJ9fgBEVXtdDkRML0VIMrHx_0?authuser=0&hl=en&rclk=1,"27.651494699999997,78.32639139999999"
"Gausiya Chaman Jama Masjid, Patti",Mosque,"R57C+QJ7 Gausiya Chaman Jama Masjid, Patti, Moharka, Uttar Pradesh 244235",,R57C+QJ7,Moharka,244235,Uttar Pradesh,IN,"https://www.google.com/maps/place/Gausiya+Chaman+Jama+Masjid,+Patti/data=!4m7!3m6!1s0x390b77ec9da31737:0x285ed2a132449715!8m2!3d28.8144094!4d78.1715947!16s%2Fg%2F11v5tfm9vd!19sChIJNxejnex3CzkRFZdEMqHSXig?authuser=0&hl=en&rclk=1","28.8144094,78.1715947"
Madina Masjid,Mosque,"W2Q6+H5P Madina Masjid, Tiha, patti, Bhadas, Haryana 122108",patti,"W2Q6+H5P, Tiha",Bhadas,122108,Haryana,IN,https://www.google.com/maps/place/Madina+Masjid/data=!4m7!3m6!1s0x3972d1f0535e5d67:0xdf18c3afbfab3c57!8m2!3d27.9389749!4d77.0104668!16s%2Fg%2F11llcqf70h!19sChIJZ11eU_DRcjkRVzyrv6_DGN8?authuser=0&hl=en&rclk=1,"27.938974899999998,77.0104668"
Mecca Masjid(Madarsa faizul Quran),Mosque,"6CWM+8R3 Mecca Masjid(Madarsa faizul Quran), Baroda Marg, near safi pur Patti satedi, Brouda, Uttar Pradesh 251309",,"6CWM+8R3, Baroda Marg, near safi pur Patti satedi",Brouda,251309,Uttar Pradesh,IN,https://www.google.com/maps/place/Mecca+Masjid%28Madarsa+faizul+Quran%29/data=!4m7!3m6!1s0x390c39d22910a30d:0xf523fffd0dad262b!8m2!3d29.2457567!4d77.4345608!16s%2Fg%2F11gxmh1x0z!19sChIJDaMQKdI5DDkRKyatDf3_I_U?authuser=0&hl=en&rclk=1,"29.245756699999998,77.4345608"
Masjid Makkah Patuka,Mosque,"628Q+X3G Masjid Makkah Patuka, Sehsaula, Haryana 122103",,628Q+X3G,Sehsaula,,Haryana,IN,https://www.google.com/maps/place/Masjid+Makkah+Patuka/data=!4m7!3m6!1s0x390d2f3dfcfb4747:0xb6fa4d7108f0ad91!8m2!3d28.2174367!4d77.0376903!16s%2Fg%2F11ry0qbwyy!19sChIJR0f7_D0vDTkRka3wCHFN-rY?authuser=0&hl=en&rclk=1,"28.2174367,77.0376903"
Abdur Raheem Masjid Baraut,Mosque,"37X6+VQ6 Abdur Raheem Masjid Baraut, Circular Rd, Patti Choudhran, Baraut, Uttar Pradesh 250611",Patti Choudhran,"37X6+VQ6, Circular Rd",Baraut,250611,Uttar Pradesh,IN,https://www.google.com/maps/place/Abdur+Raheem+Masjid+Baraut/data=!4m7!3m6!1s0x390c4bca64c2832f:0x7c94b8355733edbf!8m2!3d29.0996553!4d77.2618854!16s%2Fg%2F11ks6rlgq8!19sChIJL4PCZMpLDDkRv-0zVzW4lHw?authuser=0&hl=en&rclk=1,"29.0996553,77.2618854"
"Husan-Aara MASJID, (husn-aaraa msjid), Husn ar msjd",Mosque,"CMVV+34H Husan-Aara MASJID, (husn-aaraa msjid), Husn ar msjd, Eid Gah Rd, Kungar Patti, Amba Vihar, Sujroo, Uttar Pradesh 251002","Kungar Patti, Amba Vihar","CMVV+34H, Eid Gah Rd",Sujroo,251002,Uttar Pradesh,IN,"https://www.google.com/maps/place/Husan-Aara+MASJID,+%28%E0%A4%B9%E0%A5%81%E0%A4%B8%E0%A4%A8-%E0%A4%86%E0%A4%B0%E0%A4%BE+%E0%A4%AE%E0%A4%B8%E0%A5%8D%E0%A4%9C%E0%A4%BF%E0%A4%A6%29,+%D8%AD%D9%8F%D8%B3%D9%86+%D8%A2%D8%B1%D8%A7+%D9%85%D8%B3%D8%AC%D8%AF%E2%80%AD/data=!4m7!3m6!1s0x390c1b6bd331527f:0x69b063b49251a379!8m2!3d29.4426972!4d77.6928717!16s%2Fg%2F11twgy36jp!19sChIJf1Ix02sbDDkReaNRkrRjsGk?authuser=0&hl=en&rclk=1","29.442697199999998,77.6928717"
msjid tthaakur dvaaraa,Mosque,"6XQ9+HQJ msjid tthaakur dvaaraa, Dariyapur Hardo Patti, Uttar Pradesh 271202",,6XQ9+HQJ,Dariyapur Hardo Patti,271202,Uttar Pradesh,IN,https://www.google.com/maps/place/%E0%A4%AE%E0%A4%B8%E0%A5%8D%E0%A4%9C%E0%A4%BF%E0%A4%A6+%E0%A4%A0%E0%A4%BE%E0%A4%95%E0%A5%81%E0%A4%B0+%E0%A4%A6%E0%A5%8D%E0%A4%B5%E0%A4%BE%E0%A4%B0%E0%A4%BE/data=!4m7!3m6!1s0x3999e9966548dde9:0x330613a8890b0d31!8m2!3d27.2389605!4d81.9693935!16s%2Fg%2F11sy1nrjlx!19sChIJ6d1IZZbpmTkRMQ0LiagTBjM?authuser=0&hl=en&rclk=1,"27.238960499999997,81.9693935"
Masjid Noor Ahmad Shah,Mosque,"HCFP+V8Q Masjid Noor Ahmad Shah, Khamriya Hardo Patti, Udawapur, Uttar Pradesh 241824",,HCFP+V8Q,"Khamriya Hardo Patti, Udawapur",241824,Uttar Pradesh,IN,https://www.google.com/maps/place/Masjid+Noor+Ahmad+Shah/data=!4m7!3m6!1s0x3999015108a483f7:0x8e9e47081c814b8!8m2!3d27.574712!4d81.4358588!16s%2Fg%2F11f3y3sy4n!19sChIJ94OkCFEBmTkRuBTIgXDk6Qg?authuser=0&hl=en&rclk=1,"27.574711999999998,81.43585879999999"
Musheraan Mosque,Mosque,"RXWV+4QX Musheraan Mosque, Masjid Musheraan, Bilawat Patti, Punhana Road, Sakras",,"RXWV+4QX, Masjid Musheraan, Bilawat Patti, Punhana Road",Sakras,,Haryana,IN,https://www.google.com/maps/place/Musheraan+Mosque/data=!4m7!3m6!1s0x3972c5be6b7d273d:0x121897f00a954861!8m2!3d27.8453601!4d76.9944832!16s%2Fg%2F11j9cr_sth!19sChIJPSd9a77FcjkRYUiVCvCXGBI?authuser=0&hl=en&rclk=1,"27.845360099999997,76.99448319999999"
Khan Masjid,Mosque,"P46R+FMP Khan Masjid, Sohria, Uttar Pradesh 261208",,P46R+FMP,Sohria,261208,Uttar Pradesh,IN,https://www.google.com/maps/place/Khan+Masjid/data=!4m7!3m6!1s0x3998dfa9235ceec3:0x47a63999a1af9c47!8m2!3d27.7112074!4d81.1416933!16s%2Fg%2F11n063p95j!19sChIJw-5cI6nfmDkRR5yvoZk5pkc?authuser=0&hl=en&rclk=1,"27.7112074,81.1416933"
Sahukar Wali Masjid Bahadurpur alwar rajasthan,Mosque,"MP9P+6Q7 Sahukar Wali Masjid Bahadurpur alwar rajasthan, Bahadurgarh, Bahadurpur Patti Joriya, Rajasthan 301028",,MP9P+6Q7,"Bahadurgarh, Bahadurpur Patti Joriya",301028,Rajasthan,IN,https://www.google.com/maps/place/Sahukar+Wali+Masjid+Bahadurpur+alwar+rajasthan/data=!4m7!3m6!1s0x3972bf3209d9f8bb:0xf62de81978a04383!8m2!3d27.6680302!4d76.7369311!16s%2Fg%2F11f6bdz4f5!19sChIJu_jZCTK_cjkRg0OgeBnoLfY?authuser=0&hl=en&rclk=1,"27.6680302,76.73693109999999"
AKBARI MASJID,Mosque,"VV64+HQM AKBARI MASJID, Jasora, Uttar Pradesh 245206",,VV64+HQM,Jasora,245206,Uttar Pradesh,IN,https://www.google.com/maps/place/AKBARI+MASJID/data=!4m7!3m6!1s0x390c80a1832a4967:0xa2ddcd72be537bb3!8m2!3d28.861454!4d77.8569263!16s%2Fg%2F11c38f0m7b!19sChIJZ0kqg6GADDkRs3tTvnLN3aI?authuser=0&hl=en&rclk=1,"28.861454,77.8569263"
Masjid E Firdaus,Mosque,"Masjid E Firdaus, Masjid, Baghonwali Rd, Baghonwali, Uttar Pradesh 251001",,"Masjid, Baghonwali Rd",Baghonwali,251001,Uttar Pradesh,IN,https://www.google.com/maps/place/Masjid+E+Firdaus/data=!4m7!3m6!1s0x390c1d0d917c1445:0x2b8904e82e711d9b!8m2!3d29.5184955!4d77.7300511!16s%2Fg%2F11js64l5sd!19sChIJRRR8kQ0dDDkRmx1xLugEiSs?authuser=0&hl=en&rclk=1,"29.5184955,77.7300511"
PattiShah Masjid,Mosque,"W5PH+VJM PattiShah Masjid, Patti Shah, Uttar Pradesh 212652",,W5PH+VJM,Patti Shah,212652,Uttar Pradesh,IN,https://www.google.com/maps/place/PattiShah+Masjid/data=!4m7!3m6!1s0x399b13b682f68cd3:0xfe7ddcf66a46ba17!8m2!3d25.9372034!4d81.1790472!16s%2Fg%2F11j626_hwh!19sChIJ04z2grYTmzkRF7pGavbcff4?authuser=0&hl=en&rclk=1,"25.937203399999998,81.1790472"
Madeena Masjid,Mosque,"28MM+WFR Madeena Masjid, Patti Pachosiya, Dhanaura Silvernagar",,"28MM+WFR, Patti Pachosiya",Dhanaura Silvernagar,,Uttar Pradesh,IN,https://www.google.com/maps/place/Madeena+Masjid/data=!4m7!3m6!1s0x390c4f79063d75f9:0xd43353e05e068b12!8m2!3d29.0348504!4d77.3336545!16s%2Fg%2F11rc02kdf2!19sChIJ-XU9BnlPDDkREosGXuBTM9Q?authuser=0&hl=en&rclk=1,"29.0348504,77.3336545"
Madeena masjid dhanari patti balushanker,Mosque,"8GX2+HX7 Madeena masjid dhanari patti balushanker, Dhanaripatti Balu Shankar, Uttar Pradesh 243751",,8GX2+HX7,Dhanaripatti Balu Shankar,243751,Uttar Pradesh,IN,https://www.google.com/maps/place/Madeena+masjid+dhanari+patti+balushanker/data=!4m7!3m6!1s0x390b2f5ad2e954c7:0x4a46af4c0b317cf2!8m2!3d28.3489373!4d78.5024392!16s%2Fg%2F11smt0rm7b!19sChIJx1Tp0lovCzkR8nwxC0yvRko?authuser=0&hl=en&rclk=1,"28.3489373,78.5024392"
Baraut Masjid Juma 1.15 PM,Mosque,"37X6+VQ2 Baraut Masjid Juma 1.15 PM, Delhi Shami road, Baraut, Uttar Pradesh 250611",,"37X6+VQ2, Delhi Shami road",Baraut,,Uttar Pradesh,IN,https://www.google.com/maps/place/Baraut+Masjid+Juma+1.15+PM/data=!4m7!3m6!1s0x390c4b256a89b1f9:0xd115945b089f2f7c!8m2!3d29.0996364!4d77.2619018!16s%2Fg%2F11q41gqb3r!19sChIJ-bGJaiVLDDkRfC-fCFuUFdE?authuser=0&hl=en&rclk=1,"29.099636399999998,77.26190179999999"
Madina Masjid,Mosque,"8JJF+H3G Madina Masjid, Aliyarpur Dei, Mubarikpur, Uttar Pradesh 251318",,8JJF+H3G,"Aliyarpur Dei, Mubarikpur",251318,Uttar Pradesh,IN,https://www.google.com/maps/place/Madina+Masjid/data=!4m7!3m6!1s0x390c17756579e203:0x3ea59dcd53a25f86!8m2!3d29.3322414!4d77.6230386!16s%2Fg%2F11tx7m6ws7!19sChIJA-J5ZXUXDDkRhl-iU82dpT4?authuser=0&hl=en&rclk=1,"29.332241399999997,77.6230386"
MASJID PATTI MOHALLA NARAULI nrwly msjd,Mosque,"PMQ9+RJ8 MASJID PATTI MOHALLA NARAULI nrwly msjd, NARAULI Eid gah road, Rasoolpur Newada, Uttar Pradesh 224120",,"PMQ9+RJ8, NARAULI Eid gah road",Rasoolpur Newada,224120,Uttar Pradesh,IN,https://www.google.com/maps/place/MASJID+PATTI+MOHALLA+NARAULI+%D9%86%D8%B1%D9%88%D9%84%D9%8A+%D9%85%D8%B3%D8%AC%D8%AF%E2%80%AD/data=!4m7!3m6!1s0x399a31f2654733d5:0x10a8365a10ed6659!8m2!3d26.7395402!4d81.6690664!16s%2Fg%2F11rfp6310j!19sChIJ1TNHZfIxmjkRWWbtEFo2qBA?authuser=0&hl=en&rclk=1,"26.7395402,81.66906639999999"
Masjid Mohalla Patti Paintepur,Mosque,"Masjid Mohalla Patti Paintepur, Mohalla Patti, Mahmudabad, Uttar Pradesh 261203",,Mohalla Patti,"Mahmudabad, Nimatpur",261203,Uttar Pradesh,IN,https://www.google.com/maps/place/Masjid+Mohalla+Patti+Paintepur/data=!4m7!3m6!1s0x399915c56cc3bdf1:0xe730d3292d5bca6e!8m2!3d27.2801052!4d81.1784747!16s%2Fg%2F11rj_t6w8s!19sChIJ8b3DbMUVmTkRbspbLSnTMOc?authuser=0&hl=en&rclk=1,"27.280105199999998,81.1784747"
Chand Masjid,Mosque,"Chand Masjid, Dhankosiya patti, Chhaprauli, Chhaprauli Dehat, Uttar Pradesh 250617",,Dhankosiya patti,"Chhaprauli, Chhaprauli Dehat",,Uttar Pradesh,IN,https://www.google.com/maps/place/Chand+Masjid/data=!4m7!3m6!1s0x390dcb7087c1bbbd:0xad9fd1ef33f96c6a!8m2!3d29.2094241!4d77.1711452!16s%2Fg%2F11qbdvq7s7!19sChIJvbvBh3DLDTkRamz5M-_Rn60?authuser=0&hl=en&rclk=1,"29.2094241,77.1711452"
Bhandiyo Wali Masjid,Mosque,"4736+7C8 Bhandiyo Wali Masjid, Patti Choudhran, Baraut, Uttar Pradesh 250611",Patti Choudhran,4736+7C8,Baraut,250611,Uttar Pradesh,IN,https://www.google.com/maps/place/Bhandiyo+Wali+Masjid/data=!4m7!3m6!1s0x390c4b2e1268045d:0x33b0c62ba95b5706!8m2!3d29.1031701!4d77.26108!16s%2Fg%2F11vkpnd2m9!19sChIJXQRoEi5LDDkRBldbqSvGsDM?authuser=0&hl=en&rclk=1,"29.1031701,77.26107999999999"
Aysha Masjid Jatau patti,Mosque,"GF3Q+3W Aysha Masjid Jatau patti, Makrandpur Pitam Rai, Uttar Pradesh 243407",,GF3Q+3W,Makrandpur Pitam Rai,,Uttar Pradesh,IN,https://www.google.com/maps/place/Aysha+Masjid+Jatau+patti/data=!4m7!3m6!1s0x39a00fc106a85b81:0x473ca6d8de53d0f9!8m2!3d28.502714!4d79.4897596!16s%2Fg%2F11ryzdf7lv!19sChIJgVuoBsEPoDkR-dBT3timPEc?authuser=0&hl=en&rclk=1,"28.502713999999997,79.4897596"
Umar masjid,Mosque,"PQ8J+VRW Umar masjid, Unnamed Road, Bhanda Patti, Hapur, Uttar Pradesh 245101",Bhanda Patti,"PQ8J+VRW, Unnamed Road",Hapur,245101,Uttar Pradesh,IN,https://www.google.com/maps/place/Umar+masjid/data=!4m7!3m6!1s0x390c8550020bfc9d:0x5229fe77ee13d743!8m2!3d28.7172345!4d77.7820774!16s%2Fg%2F11qmr9wm3p!19sChIJnfwLAlCFDDkRQ9cT7nf-KVI?authuser=0&hl=en&rclk=1,"28.7172345,77.78207739999999"
Masjid Ya Rasulullah,Mosque,"Masjid Ya Rasulullah, Masjid Ya Rasulullah nai basti Gauri patti, Nithora Rd, near rashid ali gate, Loni, Ghaziabad, Uttar Pradesh 201102",Loni,"Masjid Ya Rasulullah nai basti Gauri patti, Nithora Rd, near rashid ali gate",Ghaziabad,201102,Uttar Pradesh,IN,https://www.google.com/maps/place/Masjid+Ya+Rasulullah/data=!4m7!3m6!1s0x390cf9bb8dd690b1:0xc8f519f09e17bc26!8m2!3d28.7517452!4d77.2924957!16s%2Fg%2F11rtlkkxzm!19sChIJsZDWjbv5DDkRJrwXnvAZ9cg?authuser=0&hl=en&rclk=1,"28.7517452,77.2924957"
msjid e bilaal,Mosque,"6JC3+58C msjid e bilaal, Janigaon Patti, Uttar Pradesh 241203",,6JC3+58C,Janigaon Patti,241203,Uttar Pradesh,IN,https://www.google.com/maps/place/%E0%A4%AE%E0%A4%B8%E0%A5%8D%E0%A4%9C%E0%A4%BF%E0%A4%A6+%E0%A4%8F+%E0%A4%AC%E0%A4%BF%E0%A4%B2%E0%A4%BE%E0%A4%B2/data=!4m7!3m6!1s0x399eb921ecc4e6af:0x9e6962f7dc3580bc!8m2!3d27.2204282!4d80.6032701!16s%2Fg%2F11kj2n6df9!19sChIJr-bE7CG5njkRvIA13PdiaZ4?authuser=0&hl=en&rclk=1,"27.220428199999997,80.6032701"
Shahi masjid kiruri,Mosque,"62GH+XP6 Shahi masjid kiruri, Sehsoula, patti, kiruri",,"62GH+XP6, Sehsoula, patti","kiruri, Sehsaula",,Haryana,IN,https://www.google.com/maps/place/Shahi+masjid+kiruri/data=!4m7!3m6!1s0x390d2f96789d925f:0x6a6d60170435e5a9!8m2!3d28.2274037!4d77.0292572!16s%2Fg%2F11t6ws3jx9!19sChIJX5KdeJYvDTkRqeU1BBdgbWo?authuser=0&hl=en&rclk=1,"28.2274037,77.0292572"
Madina Jama Masjid Mohammad Farid House,Mosque,"Q64X+HQ6 Madina Jama Masjid Mohammad Farid House, Ghaziabad, Uttar Pradesh 201102",,Q64X+HQ6,Ghaziabad,201102,Uttar Pradesh,IN,https://www.google.com/maps/place/Madina+Jama+Masjid+Mohammad+Farid+House/data=!4m7!3m6!1s0x390cffe30169a569:0x47f70dedc071d56e!8m2!3d28.7564226!4d77.2493782!16s%2Fg%2F11rj01vvjs!19sChIJaaVpAeP_DDkRbtVxwO0N90c?authuser=0&hl=en&rclk=1,"28.756422599999997,77.2493782"
Santosh Gajak Patti,General store,"Shop No d57, Santosh Gajak Patti, Meena Bazaar, Jama Masjid, Chandni Chowk, New Delhi, Delhi, 110006","Meena Bazaar, Jama Masjid, Chandni Chowk",Shop No d57,"New Delhi, Delhi",110006,Delhi,IN,https://www.google.com/maps/place/Santosh+Gajak+Patti/data=!4m7!3m6!1s0x390cfd44184f9f6d:0xaa209705a541a99f!8m2!3d28.6512586!4d77.2362628!16s%2Fg%2F11y22flf9q!19sChIJbZ9PGET9DDkRn6lBpQWXIKo?authuser=0&hl=en&rclk=1,"28.6512586,77.23626279999999"
Moti Masjid,Mosque,"PQGM+RG7 Moti Masjid, Maheshwari Ganj, Gandhi Ganj, Hapur, Uttar Pradesh 245101","Maheshwari Ganj, Gandhi Ganj",PQGM+RG7,Hapur,245101,Uttar Pradesh,IN,https://www.google.com/maps/place/Moti+Masjid/data=!4m7!3m6!1s0x390c85a93873ffff:0x86d0977ceea381a7!8m2!3d28.7270329!4d77.783805!16s%2Fg%2F11kj3f3zm3!19sChIJ__9zOKmFDDkRp4Gj7nyX0IY?authuser=0&hl=en&rclk=1,"28.727032899999998,77.783805"
Masjid Katra Hiddu,Mosque,"M639+6WG Masjid Katra Hiddu, Shardhanand Market, Farash Khana, Chandni Chowk, Delhi, 110006","Shardhanand Market, Farash Khana, Chandni Chowk",M639+6WG,Delhi,110006,Delhi,IN,https://www.google.com/maps/place/Masjid+Katra+Hiddu/data=!4m7!3m6!1s0x390cfd9a0edb734f:0xa06989a35f14f038!8m2!3d28.6530707!4d77.2198192!16s%2Fg%2F11qprlc2n4!19sChIJT3PbDpr9DDkROPAUX6OJaaA?authuser=0&hl=en&rclk=1,"28.653070699999997,77.2198192"
msjid jmaalgddhiyaa,Mosque,"VX2R+623 msjid jmaalgddhiyaa, Sakras, Haryana 122108",,VX2R+623,Sakras,,Haryana,IN,https://www.google.com/maps/place/%E0%A4%AE%E0%A4%B8%E0%A5%8D%E0%A4%9C%E0%A4%BF%E0%A4%A6+%E0%A4%9C%E0%A4%AE%E0%A4%BE%E0%A4%B2%E0%A4%97%E0%A4%A2%E0%A4%BF%E0%A4%AF%E0%A4%BE/data=!4m7!3m6!1s0x3972c5f19908eacb:0x6c3c47e3aaf44cce!8m2!3d27.8505024!4d76.9900622!16s%2Fg%2F11fmz95xtx!19sChIJy-oImfHFcjkRzkz0quNHPGw?authuser=0&hl=en&rclk=1,"27.8505024,76.9900622"
Dedhainya patti masjid,Mosque,"8WPV+5JF Dedhainya patti masjid, Dharawa, Uttar Pradesh 228155",,8WPV+5JF,Dharawa,228155,Uttar Pradesh,IN,https://www.google.com/maps/place/Dedhainya+patti+masjid/data=!4m7!3m6!1s0x399a6706d957e71f:0xdf70c232ff5d8bbc!8m2!3d26.3354935!4d81.9440784!16s%2Fg%2F11l36z7b5c!19sChIJH-dX2QZnmjkRvItd_zLCcN8?authuser=0&hl=en&rclk=1,"26.3354935,81.9440784"
Jama Masjid,Mosque,"7RFX+2Q5 Jama Masjid, Kahia wala chownk, Sarhali Rd, Patti, Punjab 143416",,"7RFX+2Q5, Kahia wala chownk, Sarhali Rd",Patti,143416,Punjab,IN,https://www.google.com/maps/place/Jama+Masjid/data=!4m7!3m6!1s0x391985441c6426c1:0x7e1e6c69dbbb6de0!8m2!3d31.2724978!4d74.849513!16s%2Fg%2F11jzs6vq4q!19sChIJwSZkHESFGTkR4G2722lsHn4?authuser=0&hl=en&rclk=1,"31.2724978,74.849513"
