name,main_category,address,address_ward,address_street,address_city,address_postal_code,address_state,address_country_code,link,coordinates
jaayin mauNtt ministtriis,Church of Christ,"jaayin mauNtt ministtriis, Srirampur Colony, Mancherial, Telangana 504303",Srirampur Colony,,Mancherial,504303,Telangana,IN,https://www.google.com/maps/place/%E0%B0%9C%E0%B0%BE%E0%B0%AF%E0%B0%BF%E0%B0%A8%E0%B1%8D+%E0%B0%AE%E0%B1%8C%E0%B0%82%E0%B0%9F%E0%B1%8D+%E0%B0%AE%E0%B0%BF%E0%B0%A8%E0%B0%BF%E0%B0%B8%E0%B1%8D%E0%B0%9F%E0%B1%8D%E0%B0%B0%E0%B1%80%E0%B0%B8%E0%B1%8D/data=!4m7!3m6!1s0x3a32c9c6a6516151:0xe4e17f6f2c0e032b!8m2!3d18.8700725!4d79.5009254!16s%2Fg%2F11c605mqls!19sChIJUWFRpsbJMjoRKwMOLG9_4eQ?authuser=0&hl=en&rclk=1,"18.8700725,79.5009254"
"MASJID E MOINUDDIN ZAHED, MAKTAB HAZRAT UMAR FAROOQ R.Z",Mosque,"MASJID E MOINUDDIN ZAHED, MAKTAB HAZRAT UMAR FAROOQ R.Z, SUNNAM BATTI, Edla Wada, Mancherial, Telangana 504208",,"SUNNAM BATTI, Edla Wada",Mancherial,504208,Telangana,IN,"https://www.google.com/maps/place/MASJID+E+MOINUDDIN+ZAHED,+MAKTAB+HAZRAT+UMAR+FAROOQ+R.Z/data=!4m7!3m6!1s0x3a32cbd20eb48977:0x15c91af9fdef8ae3!8m2!3d18.8653693!4d79.4573734!16s%2Fg%2F11swy46385!19sChIJd4m0DtLLMjoR44rv_fkayRU?authuser=0&hl=en&rclk=1","18.865369299999998,79.4573734"
Madina Masjid Ahlesunnat 5 Incline,Mosque,"Madina Masjid Ahlesunnat 5 Incline, Masjid Complex, Godavarikhani, Ramagundam, Telangana 505209",Godavarikhani,Masjid Complex,Ramagundam,505209,Telangana,IN,https://www.google.com/maps/place/Madina+Masjid+Ahlesunnat+5+Incline/data=!4m7!3m6!1s0x3a32cfae1dfbdb55:0xf954e1cdb2f1d221!8m2!3d18.7383921!4d79.5220246!16s%2Fg%2F11bwkdwn7p!19sChIJVdv7Ha7PMjoRIdLxss3hVPk?authuser=0&hl=en&rclk=1,"18.7383921,79.5220246"
JAMIA MASJID (MARKAZ) MANCHERIAL,Mosque,"JAMIA MASJID (MARKAZ) MANCHERIAL, Maqsood Nagar, Railway Sta Rd, Mancherial, Telangana 504208",,"Maqsood Nagar, Railway Sta Rd",Mancherial,504208,Telangana,IN,https://www.google.com/maps/place/JAMIA+MASJID+%28MARKAZ%29+MANCHERIAL/data=!4m7!3m6!1s0x3a32ca7332981fc3:0x904801a97d7d4749!8m2!3d18.8786662!4d79.4481227!16s%2Fg%2F11_t9gzls!19sChIJwx-YMnPKMjoRSUd9fakBSJA?authuser=0&hl=en&rclk=1,"18.878666199999998,79.4481227"
Sai Baba Temple,Hindu temple,"VG66+MM5 Sai Baba Temple, RK 8 Colony, Srirampur Colony, Singapur, Mancherial, Telangana 504303","RK 8 Colony, Srirampur Colony",VG66+MM5,"Singapur, Mancherial",504303,Telangana,IN,https://www.google.com/maps/place/Sai+Baba+Temple/data=!4m7!3m6!1s0x3a32c9b47019a461:0x796a3c744fe06d13!8m2!3d18.8616351!4d79.5117238!16s%2Fg%2F1yf4rdwhz!19sChIJYaQZcLTJMjoRE23gT3Q8ank?authuser=0&hl=en&rclk=1,"18.8616351,79.5117238"
Masjid-E-zaffar,Mosque,"VCMX+966 Masjid-E-zaffar, Zafar Nagar, Mancherial, Telangana 504208",Zafar Nagar,VCMX+966,Mancherial,504208,Telangana,IN,https://www.google.com/maps/place/Masjid-E-zaffar/data=!4m7!3m6!1s0x3a32ca0b2b7b5ea1:0xe0b727326da73e2c!8m2!3d18.8834195!4d79.4480221!16s%2Fg%2F11cr_fbjhp!19sChIJoV57KwvKMjoRLD6nbTInt-A?authuser=0&hl=en&rclk=1,"18.8834195,79.4480221"
MASJID-E-JABAL,Mosque,"MASJID-E-JABAL, 8333, State Highway 1, Annapoorna Colony, Jyothi Nagar, Ramagundam, Telangana 505208","Annapoorna Colony, Jyothi Nagar","8333, State Highway 1, Annapoorna Colony, Jyothi Nagar",Ramagundam,505208,Telangana,IN,https://www.google.com/maps/place/MASJID-E-JABAL/data=!4m7!3m6!1s0x3a32ce9deb465e61:0x840237a29406bf93!8m2!3d18.7634328!4d79.4715152!16s%2Fg%2F11c51vn5h4!19sChIJYV5G653OMjoRk78GlKI3AoQ?authuser=0&hl=en&rclk=1,"18.7634328,79.4715152"
MASJID-E-ABBAS Ntpc Mominnagar Ramagundam,Mosque,"MASJID-E-ABBAS Ntpc Mominnagar Ramagundam, 8333, SH1, mominnagar Ramagundum, TTS Twp, Ramagundam, Telangana 505208","Annapoorna Colony, TTS Township","8333, SH1, mominnagar Ramagundum",Ramagundam,505208,Telangana,IN,https://www.google.com/maps/place/MASJID-E-ABBAS+Ntpc+Mominnagar+Ramagundam/data=!4m7!3m6!1s0x3a32cc27155b57bd:0x723da47a750f2058!8m2!3d18.7634087!4d79.4689864!16s%2Fg%2F11g69h8ssv!19sChIJvVdbFSfMMjoRWCAPdXqkPXI?authuser=0&hl=en&rclk=1,"18.7634087,79.46898639999999"
Masjid E Ahle Hadees,Mosque,"VCHV+RXH Masjid E Ahle Hadees, near A1 Hotel, Iqbal Ahmed Nagar, Mancherial, Telangana 504208",Iqbal Ahmed Nagar,"VCHV+RXH, near A1 Hotel",Mancherial,504208,Telangana,IN,https://www.google.com/maps/place/Masjid+E+Ahle+Hadees/data=!4m7!3m6!1s0x3a32ca739dbc90b5:0x396d12ab7c93be86!8m2!3d18.8795742!4d79.4449801!16s%2Fg%2F11g6yk8qs1!19sChIJtZC8nXPKMjoRhr6TfKsSbTk?authuser=0&hl=en&rclk=1,"18.8795742,79.4449801"
Madina Masjid,Mosque,"VF6H+HRF Madina Masjid, Naspur Colony, Naspur, Mancherial, Telangana 504302",Naspur Colony,VF6H+HRF,"Naspur, Mancherial",504302,Telangana,IN,https://www.google.com/maps/place/Madina+Masjid/data=!4m7!3m6!1s0x3a32c98c60135b39:0xf6135a4c8f0dcb3b!8m2!3d18.8614304!4d79.479548!16s%2Fg%2F1tgn80xm!19sChIJOVsTYIzJMjoRO8sNj0xaE_Y?authuser=0&hl=en&rclk=1,"18.8614304,79.479548"
MASJID-E-RIZWAN,Mosque,"VCWW+C27 MASJID-E-RIZWAN, Mancherial, Telangana 504209",,VCWW+C27,Mancherial,504209,Telangana,IN,https://www.google.com/maps/place/MASJID-E-RIZWAN/data=!4m7!3m6!1s0x3a32b58da7fca97b:0xb169a17a1ec89dec!8m2!3d18.8960394!4d79.4450408!16s%2Fg%2F1hc2rzj_z!19sChIJe6n8p421MjoR7J3IHnqhabE?authuser=0&hl=en&rclk=1,"18.8960394,79.4450408"
Masjid-E-Arafath,Mosque,"VCMR+3H2 Masjid-E-Arafath, Islampura, Mancherial, Telangana 504208",Islampura,VCMR+3H2,Mancherial,504208,Telangana,IN,https://www.google.com/maps/place/Masjid-E-Arafath/data=!4m7!3m6!1s0x3a32ca7691caee01:0xfcc8cbca71e2ae52!8m2!3d18.8826432!4d79.4413931!16s%2Fg%2F11fxcdj5cf!19sChIJAe7KkXbKMjoRUq7iccrLyPw?authuser=0&hl=en&rclk=1,"18.8826432,79.4413931"
Masjid -e- Waheed,Mosque,"VCPW+3Q3 Masjid -e- Waheed, Mancherial, Telangana 504208",,VCPW+3Q3,Mancherial,504208,Telangana,IN,https://www.google.com/maps/place/Masjid+-e-+Waheed/data=!4m7!3m6!1s0x3a32ca7538a3edc1:0xb2ec2d8d60f8c3ec!8m2!3d18.8851382!4d79.4469226!16s%2Fg%2F11c60ckx1x!19sChIJwe2jOHXKMjoR7MP4YI0t7LI?authuser=0&hl=en&rclk=1,"18.8851382,79.4469226"
Jam-e-masjid,Mosque,"RGCH+5VH Jam-e-masjid, Unnamed Road, Kasimpally, Indaram, Telangana 504216",Kasimpally,"RGCH+5VH, Unnamed Road",Indaram,504216,Telangana,IN,https://www.google.com/maps/place/Jam-e-masjid/data=!4m7!3m6!1s0x3a32c8c27c6f8c5d:0x1c6dcbccf5e6bfa0!8m2!3d18.8204262!4d79.5297329!16s%2Fg%2F11h9rbtcfx!19sChIJXYxvfMLIMjoRoL_m9czLbRw?authuser=0&hl=en&rclk=1,"18.8204262,79.5297329"
Krishna Colony Masjid,Mosque,"VGC4+P8Q Krishna Colony Masjid, Srirampur Colony, Mancherial, Telangana 504303",Srirampur Colony,VGC4+P8Q,Mancherial,504303,Telangana,IN,https://www.google.com/maps/place/Krishna+Colony+Masjid/data=!4m7!3m6!1s0x3a32c9c8c9117427:0x5384663c433ceea2!8m2!3d18.8718323!4d79.5058457!16s%2Fg%2F11gdt6f3n1!19sChIJJ3QRycjJMjoRou48QzxmhFM?authuser=0&hl=en&rclk=1,"18.871832299999998,79.5058457"
Jame Masjid CCC,Mosque,"VFFQ+M4M Jame Masjid CCC, Masjid rd, R K 5 Colony, Naspur, Mancherial, Telangana 504302",R K 5 Colony,"VFFQ+M4M, Masjid rd","Naspur, Mancherial",504302,Telangana,IN,https://www.google.com/maps/place/Jame+Masjid+CCC/data=!4m7!3m6!1s0x3a32c9e92835d0cd:0x2e5ad0d10d935b4a!8m2!3d18.87421!4d79.4878097!16s%2Fg%2F11c32c7c71!19sChIJzdA1KOnJMjoRSluTDdHQWi4?authuser=0&hl=en&rclk=1,"18.874209999999998,79.4878097"
MASJID-E-HUDA,Mosque,"VCJP+XH6 MASJID-E-HUDA, Gautami Nagar, Mancherial, Telangana 504208",Gautami Nagar,VCJP+XH6,Mancherial,504208,Telangana,IN,https://www.google.com/maps/place/MASJID-E-HUDA/data=!4m7!3m6!1s0x3a32ca79d70e4bb7:0x2dc21fc4d0147e98!8m2!3d18.8824203!4d79.4363988!16s%2Fg%2F11cs6drznx!19sChIJt0sO13nKMjoRmH4U0MQfwi0?authuser=0&hl=en&rclk=1,"18.8824203,79.43639879999999"
Masjid E Salafiya,Mosque,"QF7H+J34 Masjid E Salafiya, Jyothi Nagar, Ramagundam, Telangana 505208",Jyothi Nagar,QF7H+J34,Ramagundam,505208,Telangana,IN,https://www.google.com/maps/place/Masjid+E+Salafiya/data=!4m7!3m6!1s0x3a32ce9bed16ca67:0xc4e361ea32992834!8m2!3d18.7640102!4d79.4777028!16s%2Fg%2F11f3q4_bkv!19sChIJZ8oW7ZvOMjoRNCiZMuph48Q?authuser=0&hl=en&rclk=1,"18.764010199999998,79.4777028"
Masjid E Tayyaba,Mosque,"VF7F+3FH Masjid E Tayyaba, Flood Colony, Naspur, Mancherial, Telangana 504302",Flood Colony,VF7F+3FH,"Naspur, Mancherial",504302,Telangana,IN,https://www.google.com/maps/place/Masjid+E+Tayyaba/data=!4m7!3m6!1s0x3a32c9a33d61e42d:0x67ab2dc79cc1b591!8m2!3d18.8626989!4d79.4737213!16s%2Fg%2F11g4h2ms8d!19sChIJLeRhPaPJMjoRkbXBnMctq2c?authuser=0&hl=en&rclk=1,"18.862698899999998,79.4737213"
MUSLIMS GRAVE YARD,Mosque,"QCGP+73J MUSLIMS GRAVE YARD, Brahmana Palli, Ramagundam, Telangana 505208",Brahmana Palli,QCGP+73J,Ramagundam,505208,Telangana,IN,https://www.google.com/maps/place/MUSLIMS+GRAVE+YARD/data=!4m7!3m6!1s0x3a32cc65c1bf093f:0x444526ba3785f40c!8m2!3d18.7757132!4d79.4351304!16s%2Fg%2F11gfd2byvh!19sChIJPwm_wWXMMjoRDPSFN7omRUQ?authuser=0&hl=en&rclk=1,"18.7757132,79.43513039999999"
MASJID-E-SHAHEEN,Mosque,"VCCX+6FH MASJID-E-SHAHEEN, Unnamed Road, Mancherial, Telangana 504208",,"VCCX+6FH, Unnamed Road",Mancherial,504208,Telangana,IN,https://www.google.com/maps/place/MASJID-E-SHAHEEN/data=!4m7!3m6!1s0x3a32cb56c214794b:0xd2ade06bb92c76bd!8m2!3d18.8705651!4d79.4487429!16s%2Fg%2F11g07z4sts!19sChIJS3kUwlbLMjoRvXYsuWvgrdI?authuser=0&hl=en&rclk=1,"18.8705651,79.4487429"
Masjid-E-Azam Kareem Auliya,Mosque,"VCJM+P49 Masjid-E-Azam Kareem Auliya, Unnamed Road, Mancherial, Telangana 504208",,"VCJM+P49, Unnamed Road",Mancherial,504208,Telangana,IN,https://www.google.com/maps/place/Masjid-E-Azam+Kareem+Auliya/data=!4m7!3m6!1s0x3a32ca7913d90aa7:0x1c1fe168ba7a4fae!8m2!3d18.8817829!4d79.4328725!16s%2Fg%2F11hc_tjzf2!19sChIJpwrZE3nKMjoRrk96umjhHxw?authuser=0&hl=en&rclk=1,"18.881782899999997,79.4328725"
MADEENA MASJID,Mosque,"VCQQ+GX9 MADEENA MASJID, Vikas Nagar, Mancherial, Telangana 504208",Vikas Nagar,VCQQ+GX9,Mancherial,504208,Telangana,IN,https://www.google.com/maps/place/MADEENA+MASJID/data=!4m7!3m6!1s0x3a32b5be457777e1:0xa94b12275a77ac85!8m2!3d18.8887758!4d79.4399999!16s%2Fg%2F11gh5l0d1z!19sChIJ4Xd3Rb61MjoRhax3WicSS6k?authuser=0&hl=en&rclk=1,"18.888775799999998,79.43999989999999"
EIDGAH (MNCL),Mosque,"WC2J+85F EIDGAH (MNCL), Thimmapur, Mancherial, Telangana 504208",,WC2J+85F,"Thimmapur, Mancherial",504208,Telangana,IN,https://www.google.com/maps/place/EIDGAH+%28MNCL%29/data=!4m7!3m6!1s0x3a32b59c7b13114f:0x5545818116bb1634!8m2!3d18.9008225!4d79.4304188!16s%2Fg%2F11cs6fdkyw!19sChIJTxETe5y1MjoRNBa7FoGBRVU?authuser=0&hl=en&rclk=1,"18.9008225,79.4304188"
"Masjid-e-hamd, Chandanapoor",Mosque,"PHCM+H32 Masjid-e-hamd, Chandanapoor, Karimnagar, Telangana 505209",,PHCM+H32,Karimnagar,505209,Telangana,IN,"https://www.google.com/maps/place/Masjid-e-hamd,+Chandanapoor/data=!4m7!3m6!1s0x3a32c5477f06e2ed:0x1c142c762723fe45!8m2!3d18.7213866!4d79.5826321!16s%2Fg%2F11d_bfc5h3!19sChIJ7eIGf0fFMjoRRf4jJ3YsFBw?authuser=0&hl=en&rclk=1","18.7213866,79.5826321"
JAMA MASJID NASPUR,Mosque,"RFW6+MVV JAMA MASJID NASPUR, Naspur, Mancherial, Telangana 504302",,RFW6+MVV,"Naspur, Mancherial",,Telangana,IN,https://www.google.com/maps/place/JAMA+MASJID+NASPUR/data=!4m7!3m6!1s0x3a32ca2e813ace9f:0x311a6126e0864141!8m2!3d18.846748!4d79.4621718!16s%2Fg%2F11f5dfn2_c!19sChIJn846gS7KMjoRQUGG4CZhGjE?authuser=0&hl=en&rclk=1,"18.846747999999998,79.4621718"
MASJID-E-NOORAIN,Mosque,"VCFQ+9FV MASJID-E-NOORAIN, Reddy Colony, Mancherial, Telangana 504208",Reddy Colony,VCFQ+9FV,Mancherial,504208,Telangana,IN,https://www.google.com/maps/place/MASJID-E-NOORAIN/data=!4m7!3m6!1s0x3a32cb27edba3829:0x47d4434a72563692!8m2!3d18.8734981!4d79.4386736!16s%2Fg%2F11ghnfl4km!19sChIJKTi67SfLMjoRkjZWckpD1Ec?authuser=0&hl=en&rclk=1,"18.8734981,79.4386736"
MASJID E KHAIRUNNISA,Mosque,"MASJID E KHAIRUNNISA, Mancherial, Telangana 504302",,,Mancherial,504302,Telangana,IN,https://www.google.com/maps/place/MASJID+E+KHAIRUNNISA/data=!4m7!3m6!1s0x3a32cb4d1d8d163b:0x61ae25ddffab28b1!8m2!3d18.8658925!4d79.4523998!16s%2Fg%2F11ndzf94qz!19sChIJOxaNHU3LMjoRsSir_90lrmE?authuser=0&hl=en&rclk=1,"18.865892499999998,79.4523998"
Masjid-e-rahmaniya,Mosque,"RGGM+4P5 Masjid-e-rahmaniya, Indaram, Telangana 504216",,RGGM+4P5,Indaram,,Telangana,IN,https://www.google.com/maps/place/Masjid-e-rahmaniya/data=!4m7!3m6!1s0x3a32c8eba359f015:0x28a65bc22f56449e!8m2!3d18.8252519!4d79.5343653!16s%2Fg%2F11gdlwlz7k!19sChIJFfBZo-vIMjoRnkRWL8Jbpig?authuser=0&hl=en&rclk=1,"18.825251899999998,79.53436529999999"
RK6 Market Perila Gundam,Mosque,"VG95+P7M RK6 Market Perila Gundam, Srirampur Colony, Mancherial, Telangana 504303",Srirampur Colony,VG95+P7M,Mancherial,504303,Telangana,IN,https://www.google.com/maps/place/RK6+Market+Perila+Gundam/data=!4m7!3m6!1s0x3a32c95fb9fc0339:0x85e654cb128fe533!8m2!3d18.8697025!4d79.5074927!16s%2Fg%2F11rw_hh8g_!19sChIJOQP8uV_JMjoRM-WPEstU5oU?authuser=0&hl=en&rclk=1,"18.8697025,79.5074927"
Noori Masjid,Mosque,"Noori Masjid, c.c.c, C.C.C Plant Rd, Gandhi nagar, Naspur, Mancherial, Telangana 504302",Gandhi nagar,"c.c.c, C.C.C Plant Rd","Naspur, Mancherial",504302,Telangana,IN,https://www.google.com/maps/place/Noori+Masjid/data=!4m7!3m6!1s0x3a32c9eba6e4957f:0x841ba9258603bdb!8m2!3d18.8687021!4d79.4891449!16s%2Fg%2F11gbz9rzkv!19sChIJf5XkpuvJMjoR2ztgWJK6QQg?authuser=0&hl=en&rclk=1,"18.8687021,79.4891449"
EIDGAH CCC,Mosque,"VFCM+5XR EIDGAH CCC, C.C.C Plant Rd, Naspur, Mancherial, Telangana 504302",,"VFCM+5XR, C.C.C Plant Rd","Naspur, Mancherial",504302,Telangana,IN,https://www.google.com/maps/place/EIDGAH+CCC/data=!4m7!3m6!1s0x3a32c9ec2e22eddf:0xc0ed524327c3f205!8m2!3d18.8704978!4d79.4848961!16s%2Fg%2F11fzfb_t27!19sChIJ3-0iLuzJMjoRBfLDJ0NS7cA?authuser=0&hl=en&rclk=1,"18.8704978,79.4848961"
Masjid,Mosque,"RHWQ+J4Q Masjid, behind M.R. OFFICE, Jaipur, Telangana 50421",,"RHWQ+J4Q, behind M.R. OFFICE",Jaipur,50421,Telangana,IN,https://www.google.com/maps/place/Masjid/data=!4m7!3m6!1s0x3a32c724784a525d:0xd61958ed536f0986!8m2!3d18.8465869!4d79.5878703!16s%2Fg%2F11fr6w0qj5!19sChIJXVJKeCTHMjoRhglvU-1YGdY?authuser=0&hl=en&rclk=1,"18.8465869,79.58787029999999"
Madina Masjid,Mosque,"WFH8+MCG Madina Masjid, A-Zone, Ramakrishnapur, Telangana 504301",,"WFH8+MCG, A-Zone",Ramakrishnapur,504301,Telangana,IN,https://www.google.com/maps/place/Madina+Masjid/data=!4m7!3m6!1s0x3a32b5d418c84c13:0xbc21949cc38e6a2!8m2!3d18.9291986!4d79.4660747!16s%2Fg%2F11c1s_28b6!19sChIJE0zIGNS1MjoRouY4zEkZwgs?authuser=0&hl=en&rclk=1,"18.9291986,79.4660747"
Masjid E Meraj,Mosque,"WFHG+HQ5 Masjid E Meraj, Rama Krishnapuram Rd, B Zone, Ramakrishnapur, Telangana 504301",B Zone,"WFHG+HQ5, Rama Krishnapuram Rd",Ramakrishnapur,504301,Telangana,IN,https://www.google.com/maps/place/Masjid+E+Meraj/data=!4m7!3m6!1s0x3a32b67bf10b3e61:0xf5a4cd303f549393!8m2!3d18.928884!4d79.4769752!16s%2Fg%2F1262gb4_5!19sChIJYT4L8Xu2MjoRk5NUPzDNpPU?authuser=0&hl=en&rclk=1,"18.928884,79.4769752"
Masjid-e-nazeeria,Mosque,"RGHH+CFR Masjid-e-nazeeria, Nazeerpally, Indaram, Telangana 504216",Nazeerpally,RGHH+CFR,Indaram,504216,Telangana,IN,https://www.google.com/maps/place/Masjid-e-nazeeria/data=!4m7!3m6!1s0x3a32c9d64be9488d:0xe2f693fe24dfe4e4!8m2!3d18.8286241!4d79.5286379!16s%2Fg%2F11gkrlkw8g!19sChIJjUjpS9bJMjoR5OTfJP6T9uI?authuser=0&hl=en&rclk=1,"18.8286241,79.52863789999999"
Masjid-e-Umar Ahle sunnat wal jamath Barelvi,Mosque,"Masjid-e-Umar Ahle sunnat wal jamath Barelvi, 4-2-316/388, PK Ramaiah Colony, Jyothi Nagar, Ramagundam, Telangana 505208","PK Ramaiah Colony, Jyothi Nagar",4-2-316/388,Ramagundam,505208,Telangana,IN,https://www.google.com/maps/place/Masjid-e-Umar+Ahle+sunnat+wal+jamath+Barelvi/data=!4m7!3m6!1s0x3a32cddcd6c86517:0x13ee44a75a732468!8m2!3d18.7762557!4d79.4689544!16s%2Fg%2F11pv0kqbpz!19sChIJF2XI1tzNMjoRaCRzWqdE7hM?authuser=0&hl=en&rclk=1,"18.7762557,79.4689544"
Makka Masjid Ahle-sunnat,Mosque,"Makka Masjid Ahle-sunnat, 16-05-117,Thirumala, Ramesh Nagar, Godavarikhani, Ramagundam, Telangana 505209",Godavarikhani,"16-05-117,Thirumala, Ramesh Nagar",Ramagundam,505209,Telangana,IN,https://www.google.com/maps/place/Makka+Masjid+Ahle-sunnat/data=!4m7!3m6!1s0x3a32cfae1cfee40d:0x6272e18f38efbb4a!8m2!3d18.7448044!4d79.511275!16s%2Fg%2F11n8wp1rgw!19sChIJDeT-HK7PMjoRSrvvOI_hcmI?authuser=0&hl=en&rclk=1,"18.7448044,79.511275"
Eid Gah,Mosque,"Eid Gah, 91/6, Flood Colony, Naspur, Mancherial, Telangana 504302",Flood Colony,91/6,"Naspur, Mancherial",504302,Telangana,IN,https://www.google.com/maps/place/Eid+Gah/data=!4m7!3m6!1s0x3a32c954c13ca8c9:0x9bbf13e306419306!8m2!3d18.8639623!4d79.4728178!16s%2Fg%2F11trwz7gfq!19sChIJyag8wVTJMjoRBpNBBuMTv5s?authuser=0&hl=en&rclk=1,"18.8639623,79.4728178"
Sri Laxmi Ganesh Baktha Mandali,Place of worship,"VG75+33Q Sri Laxmi Ganesh Baktha Mandali, RK 8 Colony, Srirampur Colony, Mancherial, Telangana 504303","RK 8 Colony, Srirampur Colony",VG75+33Q,Mancherial,504303,Telangana,IN,https://www.google.com/maps/place/Sri+Laxmi+Ganesh+Baktha+Mandali/data=!4m7!3m6!1s0x3a32c93bdd0f430f:0x810aafbfbf292e0b!8m2!3d18.862723!4d79.5077375!16s%2Fg%2F11fjl8c1xh!19sChIJD0MP3TvJMjoRCy4pv7-vCoE?authuser=0&hl=en&rclk=1,"18.862723,79.50773749999999"
Bilal Masjid,Mosque,"Bilal Masjid, 239, Ramakrishnapur, Telangana 504301",,"239, Ramakrishnapur",Ramakrishnapur,504301,Telangana,IN,https://www.google.com/maps/place/Bilal+Masjid/data=!4m7!3m6!1s0x3a32b42b770d68b1:0xeba45575d4f1ea69!8m2!3d18.9371057!4d79.4662879!16s%2Fg%2F1261y2qj1!19sChIJsWgNdyu0MjoRaerx1HVVpOs?authuser=0&hl=en&rclk=1,"18.9371057,79.4662879"
GS GANESH MANDALI,Hindu temple,"VGF3+P5H GS GANESH MANDALI, Srirampur Colony, Mancherial, Telangana 504303",Srirampur Colony,VGF3+P5H,Mancherial,504303,Telangana,IN,https://www.google.com/maps/place/GS+GANESH+MANDALI/data=!4m7!3m6!1s0x3a32c905fb5c741f:0xd0726e5af1c94107!8m2!3d18.8743164!4d79.5029853!16s%2Fg%2F11gv16lcxm!19sChIJH3Rc-wXJMjoRB0HJ8VpuctA?authuser=0&hl=en&rclk=1,"18.874316399999998,79.50298529999999"
masjid-E-habeebia,Mosque,"VG55+97M masjid-E-habeebia, Srirampur Bus Stand Rd, RK 8 Colony, Srirampur Colony, Singapur, Mancherial, Telangana 504303","RK 8 Colony, Srirampur Colony","VG55+97M, Srirampur Bus Stand Rd","Singapur, Mancherial",504303,Telangana,IN,https://www.google.com/maps/place/masjid-E-habeebia/data=!4m7!3m6!1s0x3a32c9b10d0bcd0d:0x9ac37439be13846d!8m2!3d18.8584683!4d79.5081639!16s%2Fg%2F11c2l9c6q7!19sChIJDc0LDbHJMjoRbYQTvjl0w5o?authuser=0&hl=en&rclk=1,"18.8584683,79.5081639"
MASJID - E- RAHMANIA,Mosque,"MASJID - E- RAHMANIA, Unnamed Road, Ram nagar, Teachers Colony, Mancherial, Telangana 504208","Ram nagar, Teachers Colony",Unnamed Road,Mancherial,504208,Telangana,IN,https://www.google.com/maps/place/MASJID+-+E-+RAHMANIA/data=!4m7!3m6!1s0x3a32cb65eed92881:0x980ff0a870d468bf!8m2!3d18.8666919!4d79.4418169!16s%2Fg%2F11ry77cyq4!19sChIJgSjZ7mXLMjoRv2jUcKjwD5g?authuser=0&hl=en&rclk=1,"18.8666919,79.44181689999999"
Masjid,Place of worship,"VF7H+76V Masjid, Atm line, Naspur Colony, Naspur, Telangana 504302",Naspur Colony,"VF7H+76V, Atm line","Naspur, Mancherial",504302,Telangana,IN,https://www.google.com/maps/place/Masjid/data=!4m7!3m6!1s0x3a32c9e5b2f6610f:0xf3876f4fa52bcbac!8m2!3d18.8632353!4d79.4780346!16s%2Fg%2F11pfyr4y6c!19sChIJD2H2suXJMjoRrMsrpU9vh_M?authuser=0&hl=en&rclk=1,"18.8632353,79.4780346"
Gandhinagar Eidgah,Mosque,"VF8Q+VGM Gandhinagar Eidgah, Naspur, Mancherial, Telangana 504302",,VF8Q+VGM,"Naspur, Mancherial",504302,Telangana,IN,https://www.google.com/maps/place/Gandhinagar+Eidgah/data=!4m7!3m6!1s0x3a32c92093a7ea91:0xf92e5d2264ee6944!8m2!3d18.8672076!4d79.4888034!16s%2Fg%2F11kgpd_qwf!19sChIJkeqnkyDJMjoRRGnuZCJdLvk?authuser=0&hl=en&rclk=1,"18.8672076,79.4888034"
MASJID-E .MOHAMMAD QAYYUM BHURHANODDIN,Mosque,"VFJ3+6V9 MASJID-E .MOHAMMAD QAYYUM BHURHANODDIN, Gopalwada, Mancherial, Telangana 504302",Gopalwada,VFJ3+6V9,Mancherial,504302,Telangana,IN,https://www.google.com/maps/place/MASJID-E+.MOHAMMAD+QAYYUM+BHURHANODDIN/data=!4m7!3m6!1s0x3a32cb37fcaafae9:0xbdc711c22ddcd3f1!8m2!3d18.8805301!4d79.4547464!16s%2Fg%2F11jghxyc13!19sChIJ6fqq_DfLMjoR8dPcLcIRx70?authuser=0&hl=en&rclk=1,"18.880530099999998,79.45474639999999"
Masjid*e*Bilal,Mosque,"WF37+P44 Masjid*e*Bilal, Mancherial, Telangana 504301",,WF37+P44,Mancherial,504301,Telangana,IN,https://www.google.com/maps/place/Masjid*e*Bilal/data=!4m7!3m6!1s0x3a32b532c64fb987:0x53849b45891c6c53!8m2!3d18.904606!4d79.4625825!16s%2Fg%2F11rcxc5zw0!19sChIJh7lPxjK1MjoRU2wciUWbhFM?authuser=0&hl=en&rclk=1,"18.904605999999998,79.4625825"
Mosque,Mosque,"VFF8+G4 Mosque, Tilak Nagar, Mancherial, Telangana 504302",Tilak Nagar,VFF8+G4,Mancherial,,Telangana,IN,https://www.google.com/maps/place/Mosque/data=!4m7!3m6!1s0x3a32cbc3d04de8c7:0xe4e3c24f1875a200!8m2!3d18.8738898!4d79.4652723!16s%2Fg%2F11rnhxsq7g!19sChIJx-hN0MPLMjoRAKJ1GE_C4-Q?authuser=0&hl=en&rclk=1,"18.8738898,79.4652723"
MASJID E MEHRAJ NTR COLONY,Mosque,"MASJID E MEHRAJ NTR COLONY, NTR Nagar, Mancherial, Telangana 504208",NTR Nagar,,Mancherial,504208,Telangana,IN,https://www.google.com/maps/place/MASJID+E+MEHRAJ+NTR+COLONY/data=!4m7!3m6!1s0x3a32cbc51c245f8f:0xf6785f73f7fdce32!8m2!3d18.8622587!4d79.4380173!16s%2Fg%2F11np3647yv!19sChIJj18kHMXLMjoRMs7993NfePY?authuser=0&hl=en&rclk=1,"18.862258699999998,79.4380173"
MASJID-E-MOHAMMADIYA,Mosque,"WC2J+837 MASJID-E-MOHAMMADIYA, Unnamed Road, Mancherial, Telangana 504208",,"WC2J+837, Unnamed Road",Mancherial,504208,Telangana,IN,https://www.google.com/maps/place/MASJID-E-MOHAMMADIYA/data=!4m7!3m6!1s0x3a32b5f855f4d8b3:0x287c4d3bec085754!8m2!3d18.9007761!4d79.4301579!16s%2Fg%2F11f5v06jv7!19sChIJs9j0Vfi1MjoRVFcI7DtNfCg?authuser=0&hl=en&rclk=1,"18.900776099999998,79.4301579"
Masjid-e-mohammadiya,Mosque,"RGFQ+M27 Masjid-e-mohammadiya, Indaram, Telangana 504216",,RGFQ+M27,Indaram,504216,Telangana,IN,https://www.google.com/maps/place/Masjid-e-mohammadiya/data=!4m7!3m6!1s0x3a32c974918f142f:0xd2bee67d7aad50ae!8m2!3d18.8241572!4d79.5375442!16s%2Fg%2F11fj8h8mmk!19sChIJLxSPkXTJMjoRrlCten3mvtI?authuser=0&hl=en&rclk=1,"18.8241572,79.5375442"
Sri Nadeshwara Ganesh Mandali,Hindu temple,"VGF2+63H Sri Nadeshwara Ganesh Mandali, Srirampur Colony, Singapur, Mancherial, Telangana 504303",Srirampur Colony,VGF2+63H,"Singapur, Mancherial",504303,Telangana,IN,https://www.google.com/maps/place/Sri+Nadeshwara+Ganesh+Mandali/data=!4m7!3m6!1s0x3a32c9543a7d2e95:0x8d6d4c57d33e1f6b!8m2!3d18.8730587!4d79.5002268!16s%2Fg%2F11fb11t4t6!19sChIJlS59OlTJMjoRax8-01dMbY0?authuser=0&hl=en&rclk=1,"18.873058699999998,79.5002268"
Pirila masid,Mosque,"VG75+GQ5 Pirila masid, Mandamarri - Godavarikhani Rd, RK 8 Colony, Srirampur Colony, Singapur, Mancherial, Telangana 504303","RK 8 Colony, Srirampur Colony","VG75+GQ5, Mandamarri - Godavarikhani Rd","Singapur, Mancherial",504303,Telangana,IN,https://www.google.com/maps/place/Pirila+masid/data=!4m7!3m6!1s0x3a32c9965732b525:0x6df658b5a96bf2c2!8m2!3d18.8637554!4d79.5094735!16s%2Fg%2F11h_6ff1ph!19sChIJJbUyV5bJMjoRwvJrqbVY9m0?authuser=0&hl=en&rclk=1,"18.8637554,79.5094735"
Madina Masjid &Madarsa-e-Islamia,Mosque,"WFFG+34M Madina Masjid &Madarsa-e-Islamia, B Zone, B.S.Nagar, Ramakrishnapur, Telangana 504301","B Zone, B.S.Nagar",WFFG+34M,Ramakrishnapur,504301,Telangana,IN,https://www.google.com/maps/place/Madina+Masjid+%26Madarsa-e-Islamia/data=!4m7!3m6!1s0x3a32b7a3affc7f61:0x74e632100146ab44!8m2!3d18.9227218!4d79.4753102!16s%2Fg%2F11h4z3ky9c!19sChIJYX_8r6O3MjoRRKtGARAy5nQ?authuser=0&hl=en&rclk=1,"18.922721799999998,79.4753102"
msjd mHmdyh jm`t hl Hdyth mhmmdiiy msjid,Mosque,"WFHG+GVW msjd mHmdyh jm`t hl Hdyth mhmmdiiy msjid, B Zone, Ramakrishnapur, Telangana 504301",B Zone,WFHG+GVW,Ramakrishnapur,504301,Telangana,IN,https://www.google.com/maps/place/%D9%85%D8%B3%D8%AC%D8%AF+%D9%85%D8%AD%D9%85%D8%AF%D9%8A%D9%87+%D8%AC%D9%85%D8%A7%D8%B9%D8%AA+%D8%A7%D9%87%D9%84+%D8%AD%D8%AF%D9%8A%D8%AB+%E0%B0%AE%E0%B0%B9%E0%B0%AE%E0%B1%8D%E0%B0%AE%E0%B0%A6%E0%B1%80%E0%B0%AF+%E0%B0%AE%E0%B0%B8%E0%B1%8D%E0%B0%9C%E0%B0%BF%E0%B0%A6%E0%B1%8D%E2%80%AD/data=!4m7!3m6!1s0x3a32b67bf2528b55:0x7515e78bff2371af!8m2!3d18.928871!4d79.4772052!16s%2Fg%2F11g03qh721!19sChIJVYtS8nu2MjoRr3Ej_4vnFXU?authuser=0&hl=en&rclk=1,"18.928871,79.4772052"
Gouse Paak Chillah Sherif Chowk,Mosque,"VCGV+6CC Gouse Paak Chillah Sherif Chowk, Chintapandu Wada, Reddy Colony, Mancherial, Telangana 504208","Chintapandu Wada, Reddy Colony",VCGV+6CC,Mancherial,504208,Telangana,IN,https://www.google.com/maps/place/Gouse+Paak+Chillah+Sherif+Chowk/data=!4m7!3m6!1s0x3a32cb08c3b8ea41:0x502a4c898a114dd0!8m2!3d18.8755726!4d79.4435151!16s%2Fg%2F11t9pykf15!19sChIJQeq4wwjLMjoR0E0RiolMKlA?authuser=0&hl=en&rclk=1,"18.875572599999998,79.4435151"
Baba,Mosque,"WFM6+5VH Baba, Shivaji Nagar, Kakatiya Colony, Ramakrishnapur, Telangana 504301","Shivaji Nagar, Kakatiya Colony",WFM6+5VH,Ramakrishnapur,504301,Telangana,IN,https://www.google.com/maps/place/Baba/data=!4m7!3m6!1s0x3a32b59edd9539e7:0x40d259f8646a776f!8m2!3d18.9344956!4d79.4618487!16s%2Fg%2F11snlmgpb_!19sChIJ5zmV3Z61MjoRb3dqZPhZ0kA?authuser=0&hl=en&rclk=1,"18.934495599999998,79.46184869999999"
Bandenawaz,Mosque,"VFF4+57C Bandenawaz, Mancherial, Telangana 504302",,VFF4+57C,Mancherial,,Telangana,IN,https://www.google.com/maps/place/Bandenawaz/data=!4m7!3m6!1s0x3a32cb0ee4da2b3b:0xef4813e0ab1a4d92!8m2!3d18.8729491!4d79.4556449!16s%2Fg%2F11stwpkmk_!19sChIJOyva5A7LMjoRkk0aq-ATSO8?authuser=0&hl=en&rclk=1,"18.8729491,79.4556449"
ThilakNagar Masidh,Mosque,"WFQC+WF9 ThilakNagar Masidh, Ramakrishnapur, Telangana 504301",,WFQC+WF9,Ramakrishnapur,504301,Telangana,IN,https://www.google.com/maps/place/ThilakNagar+Masidh/data=!4m7!3m6!1s0x3a32b7544d87770f:0xe6cbb2a0378d5!8m2!3d18.9398846!4d79.4712895!16s%2Fg%2F11t505dglk!19sChIJD3eHTVS3MjoR1XgDKrtsDgA?authuser=0&hl=en&rclk=1,"18.9398846,79.4712895"
