name,main_category,address,address_ward,address_street,address_city,address_postal_code,address_state,address_country_code,link,coordinates
Phusro,Train station,"Phusro, Jharkhand 829144",,,Phusro,829144,Jharkhand,IN,https://www.google.com/maps/place/Phusro/data=!4m7!3m6!1s0x39f41429a1926207:0x5456b7837d97cace!8m2!3d23.7678813!4d86.010405!16s%2Fg%2F1tqpxnq4!19sChIJB2KSoSkU9DkRzsqXfYO3VlQ?authuser=0&hl=en&rclk=1,"23.7678813,86.01040499999999"
Noori Masjid Chas,Mosque,"Noori Masjid Chas, Ansar Nagar, Ansari Colony, Chas, Bokaro Steel City, Jharkhand 827013","Ansar Nagar, Ansari Colony",,"Chas, Bokaro Steel City",827013,Jharkhand,IN,https://www.google.com/maps/place/Noori+Masjid+Chas/data=!4m7!3m6!1s0x39f423e048b658eb:0xa52248f2e35dbb0!8m2!3d23.6426519!4d86.1735442!16s%2Fg%2F11b6s024hx!19sChIJ61i2SOAj9DkRsNs1Lo8kUgo?authuser=0&hl=en&rclk=1,"23.6426519,86.1735442"
Ukrid Makka Masjid,Mosque,"J4QH+X6R Ukrid Makka Masjid, Ukrid, NH 23, Bokaro Steel City, Jharkhand 827012",Ritudih,"J4QH+X6R, Ukrid, NH 23","Bokaro Steel City, Ukrid",827012,Jharkhand,IN,https://www.google.com/maps/place/Ukrid+Makka+Masjid/data=!4m7!3m6!1s0x39f42372edad3d73:0x6d744d3ce0dd7d1d!8m2!3d23.6399933!4d86.128006!16s%2Fg%2F1ptzm0mpc!19sChIJcz2t7XIj9DkRHX3d4DxNdG0?authuser=0&hl=en&rclk=1,"23.6399933,86.128006"
Azad Nagar Masjid,Mosque,"J4R3+HRW Azad Nagar Masjid, Dumro, Azad Nager, Bokaro Steel City, Jharkhand 827010","Dumro, Azad Nager",J4R3+HRW,Bokaro Steel City,827010,Jharkhand,IN,https://www.google.com/maps/place/Azad+Nagar+Masjid/data=!4m7!3m6!1s0x39f4234638430003:0x6793c00761b70eb1!8m2!3d23.6414943!4d86.1045896!16s%2Fg%2F1pxwqdm9n!19sChIJAwBDOEYj9DkRsQ63YQfAk2c?authuser=0&hl=en&rclk=1,"23.641494299999998,86.1045896"
City Park Mazar,Mosque,"City Park Mazar, sec3, Bokaro Steel City, Jharkhand",Sector 3,sec3,Bokaro Steel City,,Jharkhand,IN,https://www.google.com/maps/place/City+Park+Mazar/data=!4m7!3m6!1s0x39f42348d7c846a7:0xe0f9168c5f19e7bd!8m2!3d23.6540047!4d86.1551114!16s%2Fg%2F11f9xlnv8r!19sChIJp0bI10gj9DkRvecZX4wW-eA?authuser=0&hl=en&rclk=1,"23.654004699999998,86.1551114"
Ghousia Masjid,Mosque,"M53C+24W Ghousia Masjid, Netaji Subhash Nagar, Bharra, Bokaro Steel City, Jharkhand 827013","Netaji Subhash Nagar, Bharra",M53C+24W,Bokaro Steel City,827013,Jharkhand,IN,https://www.google.com/maps/place/Ghousia+Masjid/data=!4m7!3m6!1s0x39f423d963dd0f51:0x4956d34ee3d186dc!8m2!3d23.6526199!4d86.1703205!16s%2Fg%2F1hd_c9027!19sChIJUQ_dY9kj9DkR3IbR407TVkk?authuser=0&hl=en&rclk=1,"23.652619899999998,86.1703205"
Behisti Maszid Bhisti Para,Mosque,"QCRQ+V2C Behisti Maszid Bhisti Para, HE School Road, Bhistipara Road, Hirapur, Dhanbad, Jharkhand 826001","Hirapur, Pandey Muhalla","QCRQ+V2C, HE School Road, Bhistipara Road",Dhanbad,826001,Jharkhand,IN,https://www.google.com/maps/place/Behisti+Maszid+Bhisti+Para/data=!4m7!3m6!1s0x39f6bcc041cf6413:0xdc6b5bb4666eb151!8m2!3d23.7921918!4d86.437505!16s%2Fg%2F1ptyt7r2g!19sChIJE2TPQcC89jkRUbFuZrRba9w?authuser=0&hl=en&rclk=1,"23.792191799999998,86.437505"
Balidih Masjid,Mosque,"M2CX+RGM Balidih Masjid, Balidih, konddraa ttaaeNNdd', Tanr Balidih, Jharkhand 827014","Balidih, konddraa ttaaeNNdd'",M2CX+RGM,Tanr Balidih,827014,Jharkhand,IN,https://www.google.com/maps/place/Balidih+Masjid/data=!4m7!3m6!1s0x39f43da993f5f6b1:0xb47e4527faaea8a7!8m2!3d23.6720949!4d86.0489075!16s%2Fg%2F11v6x310m8!19sChIJsfb1k6k99DkRp6iu-idFfrQ?authuser=0&hl=en&rclk=1,"23.672094899999998,86.0489075"
Shiv mandir old bdo office dhori,Hindu temple,"QX8Q+Q7C Shiv mandir old bdo office dhori, Phusro, Jharkhand 829144",,QX8Q+Q7C,Phusro,829144,Jharkhand,IN,https://www.google.com/maps/place/Shiv+mandir+old+bdo+office+dhori/data=!4m7!3m6!1s0x39f414491659db87:0xd4ecb6ec23671bec!8m2!3d23.7669464!4d85.9881287!16s%2Fg%2F11f0ksgngv!19sChIJh9tZFkkU9DkR7BtnI-y27NQ?authuser=0&hl=en&rclk=1,"23.7669464,85.98812869999999"
saharia masjid,Mosque,"V3MG+JG9 saharia masjid, Saharia, Bhendra, Jharkhand",,"V3MG+JG9, Saharia","Bhendra, Sahria",,Jharkhand,IN,https://www.google.com/maps/place/saharia+masjid/data=!4m7!3m6!1s0x39f410144ee0ab5b:0xf5caafa9268cc4f9!8m2!3d23.8840348!4d86.076356!16s%2Fg%2F11ggrtpgkj!19sChIJW6vgThQQ9DkR-cSMJqmvyvU?authuser=0&hl=en&rclk=1,"23.8840348,86.07635599999999"
Jamha Masjid,Mosque,"QW8Q+4H5 Jamha Masjid, post office, Jaridih Bazar, Jharkhand 829114",,"QW8Q+4H5, post office",Jaridih Bazar,829114,Jharkhand,IN,https://www.google.com/maps/place/Jamha+Masjid/data=!4m7!3m6!1s0x39f414d0e98b1523:0x894832668b55f2ba!8m2!3d23.7652626!4d85.9389698!16s%2Fg%2F11ckkrkw0x!19sChIJIxWL6dAU9DkRuvJVi2YySIk?authuser=0&hl=en&rclk=1,"23.7652626,85.9389698"
"Jama Masjid, Kurpania",Mosque,"QWPM+RJ3 Jama Masjid, Kurpania, Kurpania, Jharkhand 829104",,QWPM+RJ3,Kurpania,829104,Jharkhand,IN,"https://www.google.com/maps/place/Jama+Masjid,+Kurpania/data=!4m7!3m6!1s0x39f414b4740d0393:0x74ca86bce6171992!8m2!3d23.7870128!4d85.9340569!16s%2Fg%2F11b7lmkd9h!19sChIJkwMNdLQU9DkRkhkX5ryGynQ?authuser=0&hl=en&rclk=1","23.7870128,85.9340569"
Masjid Karharia,Mosque,"J2JP+6R6 Masjid Karharia, Karhia, Jharkhand 829301",,J2JP+6R6,Karhia,829301,Jharkhand,IN,https://www.google.com/maps/place/Masjid+Karharia/data=!4m7!3m6!1s0x39f43c6def778929:0x24d2bf02287ddfea!8m2!3d23.6305289!4d86.0370133!16s%2Fg%2F11c563y_6x!19sChIJKYl372089DkR6t99KAK_0iQ?authuser=0&hl=en&rclk=1,"23.630528899999998,86.0370133"
Jama masjid chirudih,Mosque,"V322+5HV Jama masjid chirudih, Chirudih, Jharkhand 829144",,V322+5HV,Chirudih,829144,Jharkhand,IN,https://www.google.com/maps/place/Jama+masjid+chirudih/data=!4m7!3m6!1s0x39f4110192023b2b:0xc9deb3716e758e89!8m2!3d23.8504867!4d86.0514115!16s%2Fg%2F11hbtf6_w1!19sChIJKzsCkgER9DkRiY51bnGz3sk?authuser=0&hl=en&rclk=1,"23.850486699999998,86.0514115"
Raza Masjid Chhappergarha,Mosque,"PVR7+WFJ Raza Masjid Chhappergarha, Gharwatanr Baludih, Jharkhand 829123",,PVR7+WFJ,Gharwatanr Baludih,829123,Jharkhand,IN,https://www.google.com/maps/place/Raza+Masjid+Chhappergarha/data=!4m7!3m6!1s0x39f46a3a2d1f7ac9:0x74e2884ec9189d77!8m2!3d23.7423413!4d85.8636394!16s%2Fg%2F11cn5rl70m!19sChIJyXofLTpq9DkRd50YyU6I4nQ?authuser=0&hl=en&rclk=1,"23.7423413,85.8636394"
jama masjid alargo,Mosque,"Q3F9+R89 jama masjid alargo, Alargo, Bhandaridah, Chandrapura, Alargo, Jharkhand 828403","Alargo, Bhandaridah",Q3F9+R89,"Chandrapura, Alargo",,Jharkhand,IN,https://www.google.com/maps/place/jama+masjid+alargo/data=!4m7!3m6!1s0x39f41712590c7c3f:0x141aa0ffe4717d8e!8m2!3d23.7745331!4d86.0683604!16s%2Fg%2F11gfk109sq!19sChIJP3wMWRIX9DkRjn1x5P-gGhQ?authuser=0&hl=en&rclk=1,"23.7745331,86.0683604"
Abu Bakr Masjid bw bkr lSdyq msjd,Mosque,"Abu Bakr Masjid bw bkr lSdyq msjd, islampur, Siwandih, Bokaro Steel City, Jharkhand 827010","islampur, Siwandih",,Bokaro Steel City,827010,Jharkhand,IN,https://www.google.com/maps/place/Abu+Bakr+Masjid+%D8%A7%D8%A8%D9%88+%D8%A8%D9%83%D8%B1+%D8%A7%D9%84%D8%B5%D8%AF%D9%8A%D9%82+%D9%85%D8%B3%D8%AC%D8%AF%E2%80%AD/data=!4m7!3m6!1s0x39f4234ea9a7053b:0xd9850c54ba527856!8m2!3d23.6366126!4d86.0988874!16s%2Fg%2F11b7tyln6s!19sChIJOwWnqU4j9DkRVnhSulQMhdk?authuser=0&hl=en&rclk=1,"23.6366126,86.0988874"
Shahi Masjid,Mosque,"J5HR+PFF Shahi Masjid, Bhawani Pur Site, Bokaro Steel City, Jharkhand 827013",Bhawani Pur Site,J5HR+PFF,Bokaro Steel City,827013,Jharkhand,IN,https://www.google.com/maps/place/Shahi+Masjid/data=!4m7!3m6!1s0x39f42149397e7f0d:0x1130ab4b69fbf35!8m2!3d23.6293111!4d86.1911742!16s%2Fg%2F11f03mpky_!19sChIJDX9-OUkh9DkRNb-ftrQKEwE?authuser=0&hl=en&rclk=1,"23.6293111,86.19117419999999"
Mazar Sharif,Mosque,"V2QM+CXJ Mazar Sharif, Surhi, Jharkhand 829144",,V2QM+CXJ,Surhi,829144,Jharkhand,IN,https://www.google.com/maps/place/Mazar+Sharif/data=!4m7!3m6!1s0x39f411c2fcbe17bd:0xddc98d16638d584c!8m2!3d23.8885794!4d86.0348858!16s%2Fg%2F11c1wygcn0!19sChIJvRe-_MIR9DkRTFiNYxaNyd0?authuser=0&hl=en&rclk=1,"23.888579399999998,86.0348858"
Maheshpur Masjid,Mosque,"P468+WF3 Maheshpur Masjid, Bokaro Steel City, Jharkhand 827001",,P468+WF3,Bokaro Steel City,827001,Jharkhand,IN,https://www.google.com/maps/place/Maheshpur+Masjid/data=!4m7!3m6!1s0x39f4229faf2520d5:0x518659daf89d29d1!8m2!3d23.7122726!4d86.1161657!16s%2Fg%2F11bx1xz4hq!19sChIJ1SAlr58i9DkR0Smd-NpZhlE?authuser=0&hl=en&rclk=1,"23.7122726,86.1161657"
mosque kathara,Mosque,"QV9P+4XW mosque kathara, Staff Colony Rd, Staff colony, Kathara, Bokaro, Jharkhand 829116",Staff colony,"QV9P+4XW, Staff Colony Rd","Kathara, Bokaro",829116,Jharkhand,IN,https://www.google.com/maps/place/mosque+kathara/data=!4m7!3m6!1s0x39f46ba87bdff69d:0xb52dc498a9cbf651!8m2!3d23.7678577!4d85.8874615!16s%2Fg%2F11b7278j01!19sChIJnfbfe6hr9DkRUfbLqZjELbU?authuser=0&hl=en&rclk=1,"23.7678577,85.8874615"
Garib Nawaz Masjid,Mosque,"J4R2+3JR Garib Nawaz Masjid, Dumro, Siwandih, Bokaro Steel City, Jharkhand 827010","Dumro, Siwandih",J4R2+3JR,Bokaro Steel City,827010,Jharkhand,IN,https://www.google.com/maps/place/Garib+Nawaz+Masjid/data=!4m7!3m6!1s0x39f4234855099b01:0x50ad2765af27c018!8m2!3d23.6402268!4d86.1015232!16s%2Fg%2F1pxw2q8t9!19sChIJAZsJVUgj9DkRGMAnr2UnrVA?authuser=0&hl=en&rclk=1,"23.6402268,86.1015232"
Auliya masjid,Mosque,"QWJ8+W6G Auliya masjid, Barwabera, Jharkhand 829104",,QWJ8+W6G,Barwabera,829104,Jharkhand,IN,https://www.google.com/maps/place/Auliya+masjid/data=!4m7!3m6!1s0x39f46b4749d4d589:0x4b8392d91766f81!8m2!3d23.7823032!4d85.9155885!16s%2Fg%2F11cjkvrn_g!19sChIJidXUSUdr9DkRgW92kS05uAQ?authuser=0&hl=en&rclk=1,"23.782303199999998,85.9155885"
Ahardih Masjid,Mosque,"W323+H8H Ahardih Masjid, Ahardih, Jharkhand 829144",,W323+H8H,Ahardih,829144,Jharkhand,IN,https://www.google.com/maps/place/Ahardih+Masjid/data=!4m7!3m6!1s0x39f4102ac93efb53:0x5fc0c76f0d784575!8m2!3d23.901437!4d86.05337!16s%2Fg%2F11cp74xdyg!19sChIJU_s-ySoQ9DkRdUV4DW_HwF8?authuser=0&hl=en&rclk=1,"23.901436999999998,86.05337"
makka masjid patel nagar,Mosque,"QX6X+599 makka masjid patel nagar, Phusro, Jharkhand 829144",,QX6X+599,Phusro,,Jharkhand,IN,https://www.google.com/maps/place/makka+masjid+patel+nagar/data=!4m7!3m6!1s0x39f41506eeec3333:0x1a08d3dc747a151a!8m2!3d23.7604134!4d85.9984709!16s%2Fg%2F11gxm9fkln!19sChIJMzPs7gYV9DkRGhV6dNzTCBo?authuser=0&hl=en&rclk=1,"23.760413399999997,85.9984709"
Purani Masjid Siwandih,Mosque,"J3WR+85C Purani Masjid Siwandih, Marafari, Bokaro Steel City, Jharkhand 827010",Marafari,J3WR+85C,Bokaro Steel City,827010,Jharkhand,IN,https://www.google.com/maps/place/Purani+Masjid+Siwandih/data=!4m7!3m6!1s0x39f43ccbb2d71ab5:0x76d0bb1e9dd2a6d0!8m2!3d23.6458071!4d86.0904004!16s%2Fg%2F11fz9kyt42!19sChIJtRrXsss89DkR0KbSnR670HY?authuser=0&hl=en&rclk=1,"23.6458071,86.0904004"
Baru Noori Jama Masjid,Mosque,"MW8X+2QC Baru Noori Jama Masjid, Baaru Basti, Baru, Jharkhand 829301",Baaru Basti,MW8X+2QC,Baru,829301,Jharkhand,IN,https://www.google.com/maps/place/Baru+Noori+Jama+Masjid/data=!4m7!3m6!1s0x39f43f9fbcef1c93:0xb5037d8710f0c43b!8m2!3d23.6650612!4d85.9493967!16s%2Fg%2F11c2pcdkkb!19sChIJkxzvvJ8_9DkRO8TwEId9A7U?authuser=0&hl=en&rclk=1,"23.6650612,85.9493967"
Badi Masjid,Mosque,"QVW3+GCC Badi Masjid, SWANG MADINA GALI MAHAVIR STHAN, Gumia, Jharkhand 829128",,"QVW3+GCC, SWANG MADINA GALI MAHAVIR STHAN",Gumia,829128,Jharkhand,IN,https://www.google.com/maps/place/Badi+Masjid/data=!4m7!3m6!1s0x39f46bfc089b338b:0x55e4e87de9508ee5!8m2!3d23.7963043!4d85.8535149!16s%2Fg%2F11dxkz2mhd!19sChIJizObCPxr9DkR5Y5Q6X3o5FU?authuser=0&hl=en&rclk=1,"23.7963043,85.8535149"
Phusro,Apartment complex,"QX6W+4W3 Phusro, Jharkhand 829144",,QX6W+4W3,Phusro,,Jharkhand,IN,https://www.google.com/maps/place/Phusro/data=!4m7!3m6!1s0x39f4151c3b8184a5:0xa3e5c2ed2007cb1f!8m2!3d23.7604277!4d85.9974079!16s%2Fg%2F11p_881c_3!19sChIJpYSBOxwV9DkRH8sHIO3C5aM?authuser=0&hl=en&rclk=1,"23.760427699999997,85.9974079"
Masjid-e-taiba,Mosque,"QV6X+CW7 Masjid-e-taiba, Asna Pani, Kathara, Jharkhand 829113",Asna Pani,QV6X+CW7,Kathara,829113,Jharkhand,IN,https://www.google.com/maps/place/Masjid-e-taiba/data=!4m7!3m6!1s0x39f46b1ccac3d4ad:0x9dee85023faf4a18!8m2!3d23.7610311!4d85.8997888!16s%2Fg%2F11d_v93fnd!19sChIJrdTDyhxr9DkRGEqvPwKF7p0?authuser=0&hl=en&rclk=1,"23.7610311,85.8997888"
Darul Uloom Ghausia Rizwia,Mosque,"QVQH+QFP Darul Uloom Ghausia Rizwia, Raja Bazar, Bokaro Thermal, Jharkhand 829107",Raja Bazar,QVQH+QFP,Bokaro Thermal,829107,Jharkhand,IN,https://www.google.com/maps/place/Darul+Uloom+Ghausia+Rizwia/data=!4m7!3m6!1s0x39f46b907ab465cd:0x8d97a36f98f6b0bf!8m2!3d23.7894663!4d85.8786977!16s%2Fg%2F11c2r4tcn_!19sChIJzWW0epBr9DkRv7D2mG-jl40?authuser=0&hl=en&rclk=1,"23.789466299999997,85.87869769999999"
Noori Masjid,Place of worship,"J4R3+2JV Noori Masjid, Dumro, Siwandih, Bokaro Steel City, Jharkhand 827010","Dumro, Siwandih",J4R3+2JV,Bokaro Steel City,827010,Jharkhand,IN,https://www.google.com/maps/place/Noori+Masjid/data=!4m7!3m6!1s0x39f423462ad989fd:0x2d85ad8e0cc4f312!8m2!3d23.6401168!4d86.1040582!16s%2Fg%2F11cllykg7f!19sChIJ_YnZKkYj9DkREvPEDI6thS0?authuser=0&hl=en&rclk=1,"23.640116799999998,86.1040582"
Manjhladih Mosque,Mosque,"M3H8+CJ4 Manjhladih Mosque, Balidih, Bokaro Steel City, Jharkhand 827014",Balidih,M3H8+CJ4,Bokaro Steel City,827014,Jharkhand,IN,https://www.google.com/maps/place/Manjhladih+Mosque/data=!4m7!3m6!1s0x39f43d109a68a523:0xf755c99080217eb!8m2!3d23.6785043!4d86.0665644!16s%2Fg%2F1pxwkb8_f!19sChIJI6VomhA99DkR6xcCCJlcdQ8?authuser=0&hl=en&rclk=1,"23.6785043,86.06656439999999"
Jama Masjid Chalkari Basti,Mosque,"QX44+6CQ Jama Masjid Chalkari Basti, Chalkari Basti, Jharkhand 829114",,QX44+6CQ,Chalkari Basti,829114,Jharkhand,IN,https://www.google.com/maps/place/Jama+Masjid+Chalkari+Basti/data=!4m7!3m6!1s0x39f4151dd676f6f5:0xed0a62cf1797ad77!8m2!3d23.755585!4d85.9561069!16s%2Fg%2F11fy162hmd!19sChIJ9fZ21h0V9DkRd62XF89iCu0?authuser=0&hl=en&rclk=1,"23.755585,85.9561069"
D.P.P Corriar Phusro,Shopping mall,"QX7V+M3C D.P.P Corriar Phusro, Rahimganj, Phusro, Jharkhand 829144",Rahimganj,QX7V+M3C,Phusro,829144,Jharkhand,IN,https://www.google.com/maps/place/D.P.P+Corriar+Phusro/data=!4m7!3m6!1s0x39f41435ef3cf753:0x81b5e7574037daa2!8m2!3d23.7641872!4d85.9926336!16s%2Fg%2F11h9ywhy95!19sChIJU_c87zUU9DkRoto3QFfntYE?authuser=0&hl=en&rclk=1,"23.7641872,85.99263359999999"
Jama Masjid Mungo,Mosque,"Q3R6+WRM Jama Masjid Mungo, Mungo, Jharkhand 828403",,Q3R6+WRM,Mungo,,Jharkhand,IN,https://www.google.com/maps/place/Jama+Masjid+Mungo/data=!4m7!3m6!1s0x39f41724c2292cf9:0x78132c95a79aa04e!8m2!3d23.7923399!4d86.0620342!16s%2Fg%2F11gfb3xzk2!19sChIJ-SwpwiQX9DkRTqCap5UsE3g?authuser=0&hl=en&rclk=1,"23.792339899999998,86.0620342"
Jama Masjid,Mosque,"QX7R+WHJ Jama Masjid, Rahimganj, Phusro, Jharkhand 829144",Rahimganj,QX7R+WHJ,Phusro,829144,Jharkhand,IN,https://www.google.com/maps/place/Jama+Masjid/data=!4m7!3m6!1s0x39f4144a023ca9a9:0x7844e6b911ec9422!8m2!3d23.7648487!4d85.9913811!16s%2Fg%2F11f_f6dqyn!19sChIJqak8AkoU9DkRIpTsEbnmRHg?authuser=0&hl=en&rclk=1,"23.764848699999998,85.9913811"
Noori Masjid,Mosque,"PXJM+QW9 Noori Masjid, Angwali, Jharkhand 828102",,PXJM+QW9,Angwali,828102,Jharkhand,IN,https://www.google.com/maps/place/Noori+Masjid/data=!4m7!3m6!1s0x39f41596f721caff:0xed63a3f1026707ff!8m2!3d23.7319061!4d85.9848736!16s%2Fg%2F11f2wcs9c6!19sChIJ_8oh95YV9DkR_wdnAvGjY-0?authuser=0&hl=en&rclk=1,"23.7319061,85.9848736"
Madarsa Islamia,Mosque,"Madarsa Islamia, near millat club, Kurpania, Jharkhand 829127",,near millat club,Kurpania,829127,Jharkhand,IN,https://www.google.com/maps/place/Madarsa+Islamia/data=!4m7!3m6!1s0x39f414b0fff804e5:0x96cddb4de79f8af7!8m2!3d23.7903563!4d85.9380596!16s%2Fg%2F11c5xsh804!19sChIJ5QT4_7AU9DkR94qf503bzZY?authuser=0&hl=en&rclk=1,"23.7903563,85.9380596"
Raza Zama Masjid,Mosque,"Raza Zama Masjid, Jena, Jaina, Jharkhand 829301",Jena,,Jaina,829301,Jharkhand,IN,https://www.google.com/maps/place/Raza+Zama+Masjid/data=!4m7!3m6!1s0x39f43dd3cc885675:0xbe9b4e082f552d72!8m2!3d23.6696539!4d86.0196605!16s%2Fg%2F11f4gwbz3s!19sChIJdVaIzNM99DkRci1VLwhOm74?authuser=0&hl=en&rclk=1,"23.6696539,86.0196605"
Koklodih Masjid,Mosque,"V2JW+46C Koklodih Masjid, Koklodih, Jharkhand 829144",,V2JW+46C,Koklodih,829144,Jharkhand,IN,https://www.google.com/maps/place/Koklodih+Masjid/data=!4m7!3m6!1s0x39f41168ac73ddfb:0x9749e659ac9e11d0!8m2!3d23.8803229!4d86.0455198!16s%2Fg%2F11g1lmbdpd!19sChIJ-91zrGgR9DkR0BGerFnmSZc?authuser=0&hl=en&rclk=1,"23.8803229,86.0455198"
Panchora Masjid,Mosque,"Panchora Masjid, PANCHORA, Bokaro Steel City, Jharkhand 827009",,PANCHORA,Bokaro Steel City,827009,Jharkhand,IN,https://www.google.com/maps/place/Panchora+Masjid/data=!4m7!3m6!1s0x39f4180afe8fadcd:0x73e432bd8d78bec7!8m2!3d23.7173764!4d86.1118279!16s%2Fg%2F11hb2ppjt1!19sChIJza2P_goY9DkRx754jb0y5HM?authuser=0&hl=en&rclk=1,"23.7173764,86.1118279"
"Islamia Masjid, Manjhlitand",Mosque,"R3H6+5H2 Islamia Masjid, Manjhlitand, Manjhlitand, Birni, Jharkhand 829144",Manjhlitand,R3H6+5H2,Birni,829144,Jharkhand,IN,"https://www.google.com/maps/place/Islamia+Masjid,+Manjhlitand/data=!4m7!3m6!1s0x39f410dced00fb5b:0xe8ea281b977a195!8m2!3d23.8278758!4d86.0613916!16s%2Fg%2F11g696n23d!19sChIJW_sA7dwQ9DkRlaF3uYGijg4?authuser=0&hl=en&rclk=1","23.827875799999997,86.0613916"
Aqsa Masjid,Mosque,"QWPW+JWP Aqsa Masjid, Gandhi Nagar Colony, Bermo, Jharkhand 829104",Gandhi Nagar Colony,"QWPW+JWP, Gandhi Nagar Colony",Bermo,829104,Jharkhand,IN,https://www.google.com/maps/place/Aqsa+Masjid/data=!4m7!3m6!1s0x39f414be9403ce9b:0x809d9e7949e9fa8c!8m2!3d23.7865912!4d85.9473131!16s%2Fg%2F11g9vjdcjd!19sChIJm84DlL4U9DkRjPrpSXmenYA?authuser=0&hl=en&rclk=1,"23.7865912,85.9473131"
belal e masjid,Mosque,"P3M7+R65 belal e masjid, Muslim Tola, Jharkhand 829132",Muslim Tola,P3M7+R65,,829132,Jharkhand,IN,https://www.google.com/maps/place/belal+e+masjid/data=!4m7!3m6!1s0x39f417c87f5b16f1:0x79d9844741ffdd78!8m2!3d23.7345029!4d86.063122!16s%2Fg%2F11gd21q32r!19sChIJ8RZbf8gX9DkReN3_QUeE2Xk?authuser=0&hl=en&rclk=1,"23.7345029,86.06312199999999"
Masjid,Mosque,"V2QW+79R Masjid, Surhi, Jharkhand 829144",,V2QW+79R,Surhi,829144,Jharkhand,IN,https://www.google.com/maps/place/Masjid/data=!4m7!3m6!1s0x39f411ce57ec240b:0xc304258a6cec7b49!8m2!3d23.8882488!4d86.0458962!16s%2Fg%2F11c1vlpyg5!19sChIJCyTsV84R9DkRSXvsbIolBMM?authuser=0&hl=en&rclk=1,"23.8882488,86.0458962"
Makka Masjid,Mosque,"J5RF+W36 Makka Masjid, Eidgah Rd Ansari Muhalla Chas, Ansar Nagar, Ansari Colony, Chas, Bokaro Steel City, Jharkhand 827013","Ansar Nagar, Ansari Colony","J5RF+W36, Eidgah Rd Ansari Muhalla Chas","Chas, Bokaro Steel City",827013,Jharkhand,IN,https://www.google.com/maps/place/Makka+Masjid/data=!4m7!3m6!1s0x39f423e400000007:0x797c3b147d04e4ec!8m2!3d23.6422842!4d86.1726336!16s%2Fg%2F11f54lzv_c!19sChIJBwAAAOQj9DkR7OQEfRQ7fHk?authuser=0&hl=en&rclk=1,"23.6422842,86.1726336"
Rajabera Mosque,Mosque,"Q265+GF7 Rajabera Mosque, Rajabeda, Phusro, Jharkhand 829144",Rajabeda,Q265+GF7,Phusro,829144,Jharkhand,IN,https://www.google.com/maps/place/Rajabera+Mosque/data=!4m7!3m6!1s0x39f4142b14122c19:0x55ebfbef0fb637f5!8m2!3d23.7612937!4d86.0086687!16s%2Fg%2F11g027ylch!19sChIJGSwSFCsU9DkR9Te2D-_761U?authuser=0&hl=en&rclk=1,"23.7612937,86.0086687"
Jame Masjid Nawadih,Mosque,"R2WQ+C85 Jame Masjid Nawadih, Nawadih, Jharkhand 829144",,R2WQ+C85,Nawadih,829144,Jharkhand,IN,https://www.google.com/maps/place/Jame+Masjid+Nawadih/data=!4m7!3m6!1s0x39f4110e64a4032f:0xd0b8dd16b28dd96c!8m2!3d23.8460188!4d86.0383578!16s%2Fg%2F11c55v7lrt!19sChIJLwOkZA4R9DkRbNmNshbduNA?authuser=0&hl=en&rclk=1,"23.8460188,86.0383578"
Jama Masjid Pathalgadda,Mosque,"V3GR+HQC Jama Masjid Pathalgadda, Sahria, Jharkhand 829144",,V3GR+HQC,Sahria,,Jharkhand,IN,https://www.google.com/maps/place/Jama+Masjid+Pathalgadda/data=!4m7!3m6!1s0x39f41170e0eda515:0x6817228038de0df4!8m2!3d23.8764351!4d86.0919004!16s%2Fg%2F11ghds2cnm!19sChIJFaXt4HAR9DkR9A3eOIAiF2g?authuser=0&hl=en&rclk=1,"23.8764351,86.0919004"
Sunni Mosque And Madrasa Gulsane Ajmer,Mosque,"QX8Q+C6X Sunni Mosque And Madrasa Gulsane Ajmer, Phusro, Jharkhand 829144",,QX8Q+C6X,Phusro,829144,Jharkhand,IN,https://www.google.com/maps/place/Sunni+Mosque+And+Madrasa+Gulsane+Ajmer/data=!4m7!3m6!1s0x39f414496bda5fd9:0x838a042e2439ea40!8m2!3d23.7661179!4d85.9881082!16s%2Fg%2F11c7_tjvxx!19sChIJ2V_aa0kU9DkRQOo5JC4EioM?authuser=0&hl=en&rclk=1,"23.766117899999998,85.9881082"
Ahle Sunnat Quadria Nooria Masjid,Mosque,"QW87+FMR Ahle Sunnat Quadria Nooria Masjid, Jarangdih, Jharkhand 829113",,QW87+FMR,Jarangdih,829113,Jharkhand,IN,https://www.google.com/maps/place/Ahle+Sunnat+Quadria+Nooria+Masjid/data=!4m7!3m6!1s0x39f46b23740335d7:0x8e1a164643b550d7!8m2!3d23.7662357!4d85.9141475!16s%2Fg%2F11c2kctnk3!19sChIJ1zUDdCNr9DkR11C1Q0YWGo4?authuser=0&hl=en&rclk=1,"23.7662357,85.9141475"
Mosque,Mosque,"QWJM+XR8 Mosque, Sunday Bazar, Bermo, Jharkhand 829104",Sunday Bazar,QWJM+XR8,Bermo,829104,Jharkhand,IN,https://www.google.com/maps/place/Mosque/data=!4m7!3m6!1s0x39f414b5ec0ffe35:0x8c264ae25acd4671!8m2!3d23.7824024!4d85.9345631!16s%2Fg%2F11g6nvvq5j!19sChIJNf4P7LUU9DkRcUbNWuJKJow?authuser=0&hl=en&rclk=1,"23.7824024,85.93456309999999"
Raza Jama Masjid,Place of worship,"J4R2+4M6 Raza Jama Masjid, Dumro, Siwandih, Bokaro Steel City, Jharkhand 827010","Dumro, Siwandih",J4R2+4M6,Bokaro Steel City,827010,Jharkhand,IN,https://www.google.com/maps/place/Raza+Jama+Masjid/data=!4m7!3m6!1s0x39f4233e93c10f21:0x17b026ebc2da8f64!8m2!3d23.6402833!4d86.1016499!16s%2Fg%2F11h_wjllh1!19sChIJIQ_Bkz4j9DkRZI_awusmsBc?authuser=0&hl=en&rclk=1,"23.6402833,86.1016499"
Khetko Dargah mohalla,Religious destination,"Khetko Dargah mohalla, Dargah mohallah, Khetko, Jharkhand 829113",Dargah mohallah,,Khetko,829113,Jharkhand,IN,https://www.google.com/maps/place/Khetko+Dargah+mohalla/data=!4m7!3m6!1s0x39f46b73734b870f:0x5b1e94eb1de4ce71!8m2!3d23.7577536!4d85.9121122!16s%2Fg%2F11rh_767bl!19sChIJD4dLc3Nr9DkRcc7kHeuUHls?authuser=0&hl=en&rclk=1,"23.757753599999997,85.9121122"
MARAFARI MASJID,Mosque,"M37R+9W7 MARAFARI MASJID, Marafari, Bokaro Steel City, Jharkhand 827011",Marafari,M37R+9W7,Bokaro Steel City,827011,Jharkhand,IN,https://www.google.com/maps/place/MARAFARI+MASJID/data=!4m7!3m6!1s0x39f43d95c69aeac7:0xffa4620ddbeb5f0f!8m2!3d23.6634043!4d86.0923075!16s%2Fg%2F11fjwzpqcz!19sChIJx-qaxpU99DkRD1_r2w1ipP8?authuser=0&hl=en&rclk=1,"23.6634043,86.09230749999999"
"Raza masjid, Kharpito",Mosque,"V2CF+972 Raza masjid, Kharpito, Kharpito, Jharkhand 829144",,V2CF+972,Kharpito,829144,Jharkhand,IN,"https://www.google.com/maps/place/Raza+masjid,+Kharpito/data=!4m7!3m6!1s0x39f411e43d19723d:0xcabdb1e6da1fd38c!8m2!3d23.8708889!4d86.0231417!16s%2Fg%2F11rl9_blf8!19sChIJPXIZPeQR9DkRjNMf2uaxvco?authuser=0&hl=en&rclk=1","23.8708889,86.0231417"
Zama masjid,Mosque,"R377+JP2 Zama masjid, Birni, Jharkhand 828403",,R377+JP2,Birni,,Jharkhand,IN,https://www.google.com/maps/place/Zama+masjid/data=!4m7!3m6!1s0x39f41138cc2aa6af:0x591d1908e1128acb!8m2!3d23.8140239!4d86.064275!16s%2Fg%2F11mx9pq86q!19sChIJr6YqzDgR9DkRy4oS4QgZHVk?authuser=0&hl=en&rclk=1,"23.8140239,86.064275"
Arita Masjid,Mosque,"P3M6+WVR Arita Masjid, Muslim Tola, Jharkhand 829132",Muslim Tola,P3M6+WVR,,829132,Jharkhand,IN,https://www.google.com/maps/place/Arita+Masjid/data=!4m7!3m6!1s0x39f417c866245adf:0xc8351a9350d39609!8m2!3d23.7348663!4d86.0621505!16s%2Fg%2F11f00j0z_q!19sChIJ31okZsgX9DkRCZbTUJMaNcg?authuser=0&hl=en&rclk=1,"23.7348663,86.0621505"
Sunni Masjid,Mosque,"QW7R+XHX Sunni Masjid, Jaridih Bazar, Jharkhand 829114",,QW7R+XHX,Jaridih Bazar,829114,Jharkhand,IN,https://www.google.com/maps/place/Sunni+Masjid/data=!4m7!3m6!1s0x39f415fd33e0fab9:0x5b005e0729afb79f!8m2!3d23.7649905!4d85.9414748!16s%2Fg%2F11rcvjmws6!19sChIJufrgM_0V9DkRn7evKQdeAFs?authuser=0&hl=en&rclk=1,"23.7649905,85.9414748"
"Masjid , Pichhari",Mosque,"P2XF+WR3 Masjid , Pichhari, Pichhari, Jharkhand 829144",,P2XF+WR3,Pichhari,829144,Jharkhand,IN,"https://www.google.com/maps/place/Masjid+,+Pichhari/data=!4m7!3m6!1s0x39f417f2d96fbb3f:0x39cce28c3a8e284d!8m2!3d23.7497574!4d86.0245527!16s%2Fg%2F11h4t2b749!19sChIJP7tv2fIX9DkRTSiOOozizDk?authuser=0&hl=en&rclk=1","23.7497574,86.0245527"
Masjid,Mosque,"QVQH+QFP Masjid, Raja Bazar, Bokaro Thermal, Jharkhand 829107",Raja Bazar,QVQH+QFP,Bokaro Thermal,829107,Jharkhand,IN,https://www.google.com/maps/place/Masjid/data=!4m7!3m6!1s0x39f46b2969e609d9:0x48bba4dc7730b21a!8m2!3d23.7894525!4d85.8787148!16s%2Fg%2F11rk5h8lgp!19sChIJ2QnmaSlr9DkRGrIwd9yku0g?authuser=0&hl=en&rclk=1,"23.7894525,85.8787148"
Raza Jama Masjid Noori Nagar,Mosque,"RV2Q+22C Raza Jama Masjid Noori Nagar, Noori Nagar, Bokaro Thermal, Jharkhand 829107",Noori Nagar,RV2Q+22C,Bokaro Thermal,829107,Jharkhand,IN,https://www.google.com/maps/place/Raza+Jama+Masjid+Noori+Nagar/data=!4m7!3m6!1s0x39f46bddb801c41b:0x84264dac086a5249!8m2!3d23.8000749!4d85.8875269!16s%2Fg%2F11ll46yp8q!19sChIJG8QBuN1r9DkRSVJqCKxNJoQ?authuser=0&hl=en&rclk=1,"23.8000749,85.8875269"
jama masjid kharpito,Mosque,"V2GG+V25 jama masjid kharpito, Kharpito, Jharkhand 829144",,V2GG+V25,Kharpito,829144,Jharkhand,IN,https://www.google.com/maps/place/jama+masjid+kharpito/data=!4m7!3m6!1s0x39f4111fb20931cd:0x7898b7b36364bdb0!8m2!3d23.8771285!4d86.0251089!16s%2Fg%2F11gmf1mx73!19sChIJzTEJsh8R9DkRsL1kY7O3mHg?authuser=0&hl=en&rclk=1,"23.877128499999998,86.02510889999999"
Amlo basti Karbala,Mosque,"QXHQ+W4Q Amlo basti Karbala, Unnamed Road, Jharkhand 828102",,"QXHQ+W4Q, Unnamed Road",,828102,Jharkhand,IN,https://www.google.com/maps/place/Amlo+basti+Karbala/data=!4m7!3m6!1s0x39f415307581c7a1:0xc9e8d951cbb6c019!8m2!3d23.7798327!4d85.9878736!16s%2Fg%2F11nnz9rt9r!19sChIJoceBdTAV9DkRGcC2y1HZ6Mk?authuser=0&hl=en&rclk=1,"23.7798327,85.9878736"
Jama Masjid,Mosque,"QW8P+2PH Jama Masjid, Jaridih, Jaridih Bazar, Jharkhand 829114",Jaridih,QW8P+2PH,Jaridih Bazar,829114,Jharkhand,IN,https://www.google.com/maps/place/Jama+Masjid/data=!4m7!3m6!1s0x39f4157e3564cf15:0xa22e4901fc23735b!8m2!3d23.7650661!4d85.9368511!16s%2Fg%2F11txf3v392!19sChIJFc9kNX4V9DkRW3Mj_AFJLqI?authuser=0&hl=en&rclk=1,"23.7650661,85.9368511"
Masjid,Mosque,"QVWJ+PC7 Masjid, Janta Nagar Colony, Bokaro Thermal, Jharkhand 829107",Janta Nagar Colony,QVWJ+PC7,Bokaro Thermal,,Jharkhand,IN,https://www.google.com/maps/place/Masjid/data=!4m7!3m6!1s0x39f46b52735d66cd:0xe5506495c0e16dbd!8m2!3d23.7967882!4d85.8810577!16s%2Fg%2F11tj534hnq!19sChIJzWZdc1Jr9DkRvW3hwJVkUOU?authuser=0&hl=en&rclk=1,"23.796788199999998,85.8810577"
JAMA MASJID kurpania,Mosque,"QWW9+833 JAMA MASJID kurpania, Karo Special Phase 2, Kurpania, Jharkhand 829104",Karo Special Phase 2,QWW9+833,Kurpania,829104,Jharkhand,IN,https://www.google.com/maps/place/JAMA+MASJID+kurpania/data=!4m7!3m6!1s0x39f46b939842b311:0x494059c2221e7370!8m2!3d23.7957682!4d85.917677!16s%2Fg%2F11gy9zyw7p!19sChIJEbNCmJNr9DkRcHMeIsJZQEk?authuser=0&hl=en&rclk=1,"23.795768199999998,85.917677"
LEMBODIH MASJID lymbwddyh msjd,Mosque,"R3Q2+6GG LEMBODIH MASJID lymbwddyh msjd, Unnamed Road, Katghara, Jharkhand 829144",,"R3Q2+6GG, Unnamed Road",Katghara,829144,Jharkhand,IN,https://www.google.com/maps/place/LEMBODIH+MASJID+%D9%84%DB%8C%D9%85%D8%A8%D9%88%DA%88%DB%8C%DB%81+%D9%85%D8%B3%D8%AC%D8%AF%E2%80%AD/data=!4m7!3m6!1s0x39f4111f88dac8b1:0xdd6bfe7ea2bd6145!8m2!3d23.8380504!4d86.051336!16s%2Fg%2F11qfpfv503!19sChIJscjaiB8R9DkRRWG9on7-a90?authuser=0&hl=en&rclk=1,"23.8380504,86.05133599999999"
Garib Nawaz Madarsa,Mosque,"M37H+GQ4 Garib Nawaz Madarsa, Balidih, Bokaro Steel City, Jharkhand 827014",Balidih,M37H+GQ4,Bokaro Steel City,827014,Jharkhand,IN,https://www.google.com/maps/place/Garib+Nawaz+Madarsa/data=!4m7!3m6!1s0x39f43cd8dc334c5d:0xdb97304ec956f03c!8m2!3d23.663765!4d86.0794648!16s%2Fg%2F11c5rpw4m7!19sChIJXUwz3Ng89DkRPPBWyU4wl9s?authuser=0&hl=en&rclk=1,"23.663764999999998,86.0794648"
JAMA MASJID,Mosque,"M548+VQG JAMA MASJID, Main Rd, St Xavier Colony, Bharra, Bokaro Steel City, Jharkhand 827013","St Xavier Colony, Bharra","M548+VQG, Main Rd",Bokaro Steel City,827013,Jharkhand,IN,https://www.google.com/maps/place/JAMA+MASJID/data=!4m7!3m6!1s0x39f4234695b5d0b5:0xc1640abee4d7795e!8m2!3d23.6571891!4d86.1669557!16s%2Fg%2F11sr_w4btb!19sChIJtdC1lUYj9DkRXnnX5L4KZME?authuser=0&hl=en&rclk=1,"23.6571891,86.1669557"
"Sawang,Imam Bada",Mosque,"Sawang, Sawang,Imam Bada, Mahabir Sthan, Badi Masjid, 2nd lane, Gumia, Jharkhand 829128",,"Sawang, Mahabir Sthan, Badi Masjid, 2nd lane",Gumia,829128,Jharkhand,IN,"https://www.google.com/maps/place/Sawang,Imam+Bada/data=!4m7!3m6!1s0x39f46b68dca5ff41:0x138272c52105bf84!8m2!3d23.7963107!4d85.8542459!16s%2Fg%2F11v0258xmb!19sChIJQf-l3Ghr9DkRhL8FIcVyghM?authuser=0&hl=en&rclk=1","23.7963107,85.8542459"
surhi jama masjid,School,"V2QW+89G surhi jama masjid, Surhi, Jharkhand 829144",,V2QW+89G,Surhi,,Jharkhand,IN,https://www.google.com/maps/place/surhi+jama+masjid/data=!4m7!3m6!1s0x39f41156d39ebc6d:0x56b9d6ca1817e58a!8m2!3d23.8883107!4d86.0459666!16s%2Fg%2F11g0nmr8n0!19sChIJbbye01YR9DkRiuUXGMrWuVY?authuser=0&hl=en&rclk=1,"23.888310699999998,86.0459666"
Ghutiyatand Masjid,Mosque,"QX8C+F8X Ghutiyatand Masjid, Unnamed Road, Phusro, Jharkhand 828102",,"QX8C+F8X, Unnamed Road",Phusro,828102,Jharkhand,IN,https://www.google.com/maps/place/Ghutiyatand+Masjid/data=!4m7!3m6!1s0x39f41597dce930ed:0xcf256c7a6e94f356!8m2!3d23.7662295!4d85.9708693!16s%2Fg%2F11j2zq42ng!19sChIJ7TDp3JcV9DkRVvOUbnpsJc8?authuser=0&hl=en&rclk=1,"23.766229499999998,85.97086929999999"
Madarsa Friday bazar,Mosque,"QWGM+8J4 Madarsa Friday bazar, Bermo, Jharkhand 829104",,QWGM+8J4,Bermo,,Jharkhand,IN,https://www.google.com/maps/place/Madarsa+Friday+bazar/data=!4m7!3m6!1s0x39f415d4ed1c7239:0x5db353f97f4c45ef!8m2!3d23.7757566!4d85.9340662!16s%2Fg%2F11k2w_rfyl!19sChIJOXIc7dQV9DkR70VMf_lTs10?authuser=0&hl=en&rclk=1,"23.775756599999998,85.93406619999999"
KHETKO JAMA MASJID ,Mosque,"QW57+35F KHETKO JAMA MASJID , Khetko, Jharkhand 829113",,QW57+35F,Khetko,829113,Jharkhand,IN,https://www.google.com/maps/place/KHETKO+JAMA+MASJID+%F0%9F%95%8C/data=!4m7!3m6!1s0x39f46b18eb035f49:0x2a8fb3d0470de415!8m2!3d23.7576797!4d85.912924!16s%2Fg%2F11vbjv2bk1!19sChIJSV8D6xhr9DkRFeQNR9Czjyo?authuser=0&hl=en&rclk=1,"23.7576797,85.91292399999999"
Gattigara garib nawaj masjid,Mosque,"M3W4+Q3F Gattigara garib nawaj masjid, Industrial Area Rd, Balidih, Bokaro Steel City, Jharkhand 827014",Balidih,"M3W4+Q3F, Industrial Area Rd",Bokaro Steel City,827014,Jharkhand,IN,https://www.google.com/maps/place/Gattigara+garib+nawaj+masjid/data=!4m7!3m6!1s0x39f43d2a2e50acc1:0x644434c6e5722340!8m2!3d23.6969488!4d86.0551756!16s%2Fg%2F11r5zxv7pr!19sChIJwaxQLio99DkRQCNy5cY0RGQ?authuser=0&hl=en&rclk=1,"23.696948799999998,86.0551756"
"Masjid, fitter tola",Mosque,"QRVX+HG Masjid, fitter tola, Gumia, Jharkhand 829111",,QRVX+HG,Gumia,,Jharkhand,IN,"https://www.google.com/maps/place/Masjid,+fitter+tola/data=!4m7!3m6!1s0x39f46b66f07cd93f:0x3c358a421a1d338c!8m2!3d23.7939149!4d85.8488316!16s%2Fg%2F11tk31lcr8!19sChIJP9l88GZr9DkRjDMdGkKKNTw?authuser=0&hl=en&rclk=1","23.793914899999997,85.8488316"
Noori Masjid,Mosque,"Noori Masjid, Noori Masjid Bandhdih Road 1 Noori Mohalla upper tola, Bandhdih Basti, Bandhdih, Jharkhand 829301",Bandhdih Basti,Noori Masjid Bandhdih Road 1 Noori Mohalla upper tola,Bandhdih,829301,Jharkhand,IN,https://www.google.com/maps/place/Noori+Masjid/data=!4m7!3m6!1s0x39f43fe3749e9189:0xfc6bc434d0f28017!8m2!3d23.6580985!4d86.0091016!16s%2Fg%2F11qnj_vf5z!19sChIJiZGedOM_9DkRF4Dy0DTEa_w?authuser=0&hl=en&rclk=1,"23.658098499999998,86.0091016"
Bandhdih Masjid,Mosque,"M227+HPH Bandhdih Masjid, Bandhdih Basti, Bandhdih, Jharkhand 829301",Bandhdih Basti,M227+HPH,Bandhdih,829301,Jharkhand,IN,https://www.google.com/maps/place/Bandhdih+Masjid/data=!4m7!3m6!1s0x39f43c27c983ffff:0xca4b30e8226c1816!8m2!3d23.6514307!4d86.0143696!16s%2Fg%2F11sscs2947!19sChIJ__-DySc89DkRFhhsIugwS8o?authuser=0&hl=en&rclk=1,"23.6514307,86.0143696"
Imaam Bada,Mosque,"QWF8+HG4 Imaam Bada, Unnamed Road, Jarangdih, Jharkhand 829113",,"QWF8+HG4, Unnamed Road",Jarangdih,829113,Jharkhand,IN,https://www.google.com/maps/place/Imaam+Bada/data=!4m7!3m6!1s0x39f46b1a761cdee7:0x9096a1b4002955ed!8m2!3d23.7738878!4d85.9163227!16s%2Fg%2F11qr119qhx!19sChIJ594cdhpr9DkR7VUpALShlpA?authuser=0&hl=en&rclk=1,"23.7738878,85.9163227"
Sarkki Masjid,Mosque,"sarkki, Sarkki Masjid, Nawadih, Jharkhand 815302",,sarkki,Nawadih,815302,Jharkhand,IN,https://www.google.com/maps/place/Sarkki+Masjid/data=!4m7!3m6!1s0x39f411b28a811921:0x9bd9daff66a44e25!8m2!3d23.8525308!4d86.0453122!16s%2Fg%2F11h2md6sn9!19sChIJIRmBirIR9DkRJU6kZv_a2Zs?authuser=0&hl=en&rclk=1,"23.8525308,86.0453122"
Shahe Batha Jama Masjid,Mosque,"Q264+6PJ Shahe Batha Jama Masjid, Unnamed Road, Rajabeda, Phusro, Jharkhand 829144",Rajabeda,"Q264+6PJ, Unnamed Road",Phusro,829144,Jharkhand,IN,https://www.google.com/maps/place/Shahe+Batha+Jama+Masjid/data=!4m7!3m6!1s0x39f4154c543f673f:0xd24be2454982639e!8m2!3d23.7605869!4d86.0067517!16s%2Fg%2F11h578z26w!19sChIJP2c_VEwV9DkRnmOCSUXiS9I?authuser=0&hl=en&rclk=1,"23.7605869,86.0067517"
Noori Jama Masjid,Mosque,"P2V8+MXW Noori Jama Masjid, Purnatand, hussainabad, Bokaro Steel City, Pichhari, Jharkhand 829132",hussainabad,"P2V8+MXW, Purnatand","Bokaro Steel City, Pichhari",829132,Jharkhand,IN,https://www.google.com/maps/place/Noori+Jama+Masjid/data=!4m7!3m6!1s0x39f417da77170337:0x7c3e84e9f00a4438!8m2!3d23.744232!4d86.0174583!16s%2Fg%2F11vkfc3z4h!19sChIJNwMXd9oX9DkROEQK8OmEPnw?authuser=0&hl=en&rclk=1,"23.744232,86.0174583"
Noori masjid,Mosque,"PWQ8+P29 Noori masjid, Khetko, Jharkhand 829113",,PWQ8+P29,Khetko,,Jharkhand,IN,https://www.google.com/maps/place/Noori+masjid/data=!4m7!3m6!1s0x39f46b009709c711:0xfc2dd7cae0b54064!8m2!3d23.7392793!4d85.9151211!16s%2Fg%2F11skb378js!19sChIJEccJlwBr9DkRZEC14MrXLfw?authuser=0&hl=en&rclk=1,"23.7392793,85.9151211"
Tantri Masjid,Mosque,"Tantri Masjid, 06, Kalal Tola, Mungo, Tantri, Jharkhand 829144",Kalal Tola,06,"Mungo, Tantri",829144,Jharkhand,IN,https://www.google.com/maps/place/Tantri+Masjid/data=!4m7!3m6!1s0x39f41708cbf840d9:0x964a6e643a424411!8m2!3d23.7383694!4d86.0497102!16s%2Fg%2F11krpgttwj!19sChIJ2UD4ywgX9DkREURCOmRuSpY?authuser=0&hl=en&rclk=1,"23.7383694,86.04971019999999"
Sunni masjid jarindih,Mosque,"QWF8+5V8 Sunni masjid jarindih, Jarangdih, Jharkhand 829113",,QWF8+5V8,Jarangdih,829113,Jharkhand,IN,https://www.google.com/maps/place/Sunni+masjid+jarindih/data=!4m7!3m6!1s0x39f46b06cebecf6d:0x3b205ceb40214a02!8m2!3d23.7729186!4d85.9172011!16s%2Fg%2F11rl96pvy8!19sChIJbc--zgZr9DkRAkohQOtcIDs?authuser=0&hl=en&rclk=1,"23.7729186,85.9172011"
RAZA MASJID,Mosque,"R3W4+P6R RAZA MASJID, Chirudih, Jharkhand 829144",,R3W4+P6R,Chirudih,,Jharkhand,IN,https://www.google.com/maps/place/RAZA+MASJID/data=!4m7!3m6!1s0x39f411e4ec1aa305:0xdcae7149c625787!8m2!3d23.8468523!4d86.0555095!16s%2Fg%2F11s7687z12!19sChIJBaMa7OQR9DkRh1dinBTnyg0?authuser=0&hl=en&rclk=1,"23.8468523,86.0555095"
Sunni jama masjid,Mosque,"Sunni jama masjid, Suriya, Nawadih, Jharkhand 829144",,Suriya,Nawadih,829144,Jharkhand,IN,https://www.google.com/maps/place/Sunni+jama+masjid/data=!4m7!3m6!1s0x39f4113a8e51c189:0x8d273fb68283f801!8m2!3d23.8525308!4d86.0453123!16s%2Fg%2F11kqw5nwmx!19sChIJicFRjjoR9DkRAfiDgrY_J40?authuser=0&hl=en&rclk=1,"23.8525308,86.04531229999999"
rza masjid khutibad,Mosque,"P23V+QFM rza masjid khutibad, Khutribad, Khutri, Jharkhand 815312",,P23V+QFM,"Khutribad, Khutri",815312,Jharkhand,IN,https://www.google.com/maps/place/rza+masjid+khutibad/data=!4m7!3m6!1s0x39f43d5cd46f2ffd:0x369e4138ad33ac9f!8m2!3d23.7044674!4d86.043671!16s%2Fg%2F11sg_j0y6_!19sChIJ_S9v1Fw99DkRn6wzrThBnjY?authuser=0&hl=en&rclk=1,"23.7044674,86.04367099999999"
Jama Masjid Raza Nagar Junodih,Mosque,"V2CW+559 Jama Masjid Raza Nagar Junodih, Junodih, Jharkhand 829144",,V2CW+559,Junodih,,Jharkhand,IN,https://www.google.com/maps/place/Jama+Masjid+Raza+Nagar+Junodih/data=!4m7!3m6!1s0x39f41155a1473f8f:0xc1a3f50ef955b152!8m2!3d23.8704174!4d86.0454945!16s%2Fg%2F11sqqbz81h!19sChIJjz9HoVUR9DkRUrFV-Q71o8E?authuser=0&hl=en&rclk=1,"23.870417399999997,86.04549449999999"
Bandhdih Masjid,Mosque,"J2X9+Q9 Bandhdih Masjid, Bandhdih, Jharkhand 829301",,J2X9+Q9,Bandhdih,,Jharkhand,IN,https://www.google.com/maps/place/Bandhdih+Masjid/data=!4m7!3m6!1s0x39f43d00450ad4c5:0xe32e556baed21ff9!8m2!3d23.64945!4d86.0184083!16s%2Fg%2F11lccyj1c4!19sChIJxdQKRQA99DkR-R_SrmtVLuM?authuser=0&hl=en&rclk=1,"23.649449999999998,86.01840829999999"
Phusro,Warehouse,"Q283+M76 Phusro, Jharkhand 829144",,Q283+M76,Phusro,,Jharkhand,IN,https://www.google.com/maps/place/Phusro/data=!4m7!3m6!1s0x39f41517d71eb8b9:0x199627ed01f8d43e!8m2!3d23.7666591!4d86.0031455!16s%2Fg%2F11vjg1snqf!19sChIJubge1xcV9DkRPtT4Ae0nlhk?authuser=0&hl=en&rclk=1,"23.7666591,86.0031455"
Phusro,,"Phusro, Jharkhand",,,Phusro,,Jharkhand,IN,https://www.google.com/maps/place/Phusro/data=!4m7!3m6!1s0x39f41435e3d34db1:0x5e736fc75976c192!8m2!3d23.7622641!4d86.0020693!16zL20vMGY1X3Nz!19sChIJsU3T4zUU9DkRksF2Wcdvc14?authuser=0&hl=en&rclk=1,"23.7622641,86.0020693"
Phusro,School,"Q262+VRV Phusro, Jharkhand 829144",,Q262+VRV,Phusro,,Jharkhand,IN,https://www.google.com/maps/place/Phusro/data=!4m7!3m6!1s0x39f415d5ed52fded:0x67d38dbab9a88253!8m2!3d23.7622404!4d86.0020513!16s%2Fg%2F11j_0pvc_d!19sChIJ7f1S7dUV9DkRU4KoubqN02c?authuser=0&hl=en&rclk=1,"23.7622404,86.00205129999999"
Kalakaar Chandrika saw,Hindu temple,"V2FF+GCW Kalakaar Chandrika saw, Unnamed Road, Kharpito, Jharkhand 829144",,"V2FF+GCW, Unnamed Road",Kharpito,829144,Jharkhand,IN,https://www.google.com/maps/place/Kalakaar+Chandrika+saw/data=!4m7!3m6!1s0x39f4119ac20418b1:0x2cd2c08cc6be7f10!8m2!3d23.8738546!4d86.0235928!16s%2Fg%2F11qpz36mt3!19sChIJsRgEwpoR9DkREH--xozA0iw?authuser=0&hl=en&rclk=1,"23.873854599999998,86.0235928"
Raja Construction and Company,Coal Supplier,"Raja Construction and Company, Ghutiatand colony, near Masjid, Phusro, Jharkhand 829104",,"Ghutiatand colony, near Masjid",Phusro,829104,Jharkhand,IN,https://www.google.com/maps/place/Raja+Construction+and+Company/data=!4m7!3m6!1s0x39f4159f99cbd72d:0x929db2cb0f073c05!8m2!3d23.7660061!4d85.970983!16s%2Fg%2F11vm28551b!19sChIJLdfLmZ8V9DkRBTwHD8uynZI?authuser=0&hl=en&rclk=1,"23.7660061,85.97098299999999"
Chandni Singar Store,Jeweler,"Chandni Singar Store, jama masjid, Chalkari Basti bermo, Phusro, Jharkhand 829114",,"jama masjid, Chalkari Basti bermo","Phusro, Chalkari Basti",829114,Jharkhand,IN,https://www.google.com/maps/place/Chandni+Singar+Store/data=!4m7!3m6!1s0x39f41558c44e490f:0x169f85c4410c700f!8m2!3d23.7566502!4d85.9547235!16s%2Fg%2F11sn_dc6gr!19sChIJD0lOxFgV9DkRD3AMQcSFnxY?authuser=0&hl=en&rclk=1,"23.7566502,85.9547235"
Paan Store,General store,"Paan Store, Kargali Main Road, Phusro, Jharkhand 829116",,Kargali Main Road,Phusro,829116,Jharkhand,IN,https://www.google.com/maps/place/Paan+Store/data=!4m7!3m6!1s0x39f4158376437e65:0x54004ada4987e9d6!8m2!3d23.7698183!4d85.9720831!16s%2Fg%2F11jz_mcq3l!19sChIJZX5DdoMV9DkR1umHSdpKAFQ?authuser=0&hl=en&rclk=1,"23.769818299999997,85.97208309999999"
