name,main_category,address,address_ward,address_street,address_city,address_postal_code,address_state,address_country_code,link,coordinates
Satto Peer Baba Mazaar,Mosque,"Satto Peer Baba Mazaar, 15, PK Bishwas Rd, Puratan Bazar, Khardaha, West Bengal 700117",Puratan Bazar,"15, PK Bishwas Rd",Khardaha,700117,West Bengal,IN,https://www.google.com/maps/place/Satto+Peer+Baba+Mazaar/data=!4m7!3m6!1s0x39f89b9eb4236b15:0xa887ec784267cc78!8m2!3d22.7260726!4d88.3673327!16s%2Fg%2F11csqwrlv2!19sChIJFWsjtJ6b-DkReMxnQnjsh6g?authuser=0&hl=en&rclk=1,"22.7260726,88.36733269999999"
Titagarh Ata Mohammed Khan Masjid,Mosque,"Titagarh Ata Mohammed Khan Masjid, AP Devi Path, Titagarh, Kolkata, Barrackpore, West Bengal 700119",Titagarh,AP Devi Path,"Kolkata, Barrackpore",700119,West Bengal,IN,https://www.google.com/maps/place/Titagarh+Ata+Mohammed+Khan+Masjid/data=!4m7!3m6!1s0x39f89ba4eb81af3b:0xac5726c7ecea3944!8m2!3d22.7386764!4d88.370329!16s%2Fg%2F11dxst4t3v!19sChIJO6-B66Sb-DkRRDnq7McmV6w?authuser=0&hl=en&rclk=1,"22.7386764,88.370329"
KORATI PARA MASJID,Mosque,"KORATI PARA MASJID, 7/B ABDUL KHALEK SARANI, Abdul Kalam Azad Rd, Konnagar, West Bengal 712235",Konnagar,"7/B ABDUL KHALEK SARANI, Abdul Kalam Azad Rd",,712235,West Bengal,IN,https://www.google.com/maps/place/KORATI+PARA+MASJID/data=!4m7!3m6!1s0x39f89dd81ae17389:0x8ac0eeff4cf552a!8m2!3d22.7042682!4d88.354151!16s%2Fg%2F11py71mqyl!19sChIJiXPhGtid-DkRKlXP9O8OrAg?authuser=0&hl=en&rclk=1,"22.704268199999998,88.354151"
Kamarhati Badi Masjid,Mosque,"Kamarhati Badi Masjid, new line, Sabji Bagan Rd, Kamarhati, Kolkata, West Bengal 700058",Kamarhati,"new line, Sabji Bagan Rd",Kolkata,700058,West Bengal,IN,https://www.google.com/maps/place/Kamarhati+Badi+Masjid/data=!4m7!3m6!1s0x39f89c5957fe6eb7:0x9e921699476e6ff1!8m2!3d22.6763298!4d88.3675103!16s%2Fg%2F1tp1x707!19sChIJt27-V1mc-DkR8W9uR5kWkp4?authuser=0&hl=en&rclk=1,"22.676329799999998,88.36751029999999"
Badi Masjid Khardah,Mosque,"P9G8+XX4 Badi Masjid Khardah, Titagarh, Khardaha, Kolkata, West Bengal 700117",Titagarh,P9G8+XX4,"Khardaha, Kolkata",700117,West Bengal,IN,https://www.google.com/maps/place/Badi+Masjid+Khardah/data=!4m7!3m6!1s0x39f89b9ed3c0dc37:0xde0cd13ba3dbe1a8!8m2!3d22.7273935!4d88.3674383!16s%2Fg%2F1hjhdy5v5!19sChIJN9zA056b-DkRqOHbozvRDN4?authuser=0&hl=en&rclk=1,"22.727393499999998,88.36743829999999"
Bangla jama masjid,Mosque,"Bangla jama masjid, 18, Barrackpore Trunk Rd, Titagarh, Barrackpore, Titagarh, West Bengal 700119",Titagarh,"18, Barrackpore Trunk Rd","Barrackpore, Titagarh",700119,West Bengal,IN,https://www.google.com/maps/place/Bangla+jama+masjid/data=!4m7!3m6!1s0x39f89bbac563b889:0x823c2f6702682169!8m2!3d22.7395768!4d88.373019!16s%2Fg%2F1hjgh9sd1!19sChIJibhjxbqb-DkRaSFoAmcvPII?authuser=0&hl=en&rclk=1,"22.7395768,88.373019"
Noori Jamia Masjid,Mosque,"Noori Jamia Masjid, 110, PB Ghat Rd, Kamarhati, Agarpara, Panihati, West Bengal 700058","Kamarhati, Agarpara","110, PB Ghat Rd",Panihati,700058,West Bengal,IN,https://www.google.com/maps/place/Noori+Jamia+Masjid/data=!4m7!3m6!1s0x39f89c5d77d64389:0xbda4efbdc760e456!8m2!3d22.6822623!4d88.3700771!16s%2Fg%2F1thtm_zh!19sChIJiUPWd12c-DkRVuRgx73vpL0?authuser=0&hl=en&rclk=1,"22.682262299999998,88.37007709999999"
Iswaripur Jama Masjid,Mosque,"PCP6+837 Iswaripur Jama Masjid, Nilganj Rd, Ruiya, Iswaripur, West Bengal 700118",Ruiya,"PCP6+837, Nilganj Rd",Iswaripur,700118,West Bengal,IN,https://www.google.com/maps/place/Iswaripur+Jama+Masjid/data=!4m7!3m6!1s0x39f899251037cf2b:0x72563c2dde77386!8m2!3d22.7357809!4d88.4101736!16s%2Fg%2F11vkkbtkr5!19sChIJK883ECWZ-DkRhnPn3cJjJQc?authuser=0&hl=en&rclk=1,"22.735780899999998,88.4101736"
Iqra masjid,Mosque,"P9RJ+V5X Iqra masjid, Math Para, Barrackpore,, Titagarh, West Bengal","Math Para, Titagarh","P9RJ+V5X, Math Para, Barrackpore,","Titagarh, Barrackpore",,West Bengal,IN,https://www.google.com/maps/place/Iqra+masjid/data=!4m7!3m6!1s0x39f89bb825085a07:0x557cd4340a453c3c!8m2!3d22.7422453!4d88.3804918!16s%2Fg%2F11c2pmz95p!19sChIJB1oIJbib-DkRPDxFCjTUfFU?authuser=0&hl=en&rclk=1,"22.7422453,88.3804918"
Gaushia Islahi Masjid,Mosque,"Gaushia Islahi Masjid, 92, Craig St, Kamarhati, Agarpara, Panihati, West Bengal 700058","Kamarhati, Agarpara","92, Craig St",Panihati,700058,West Bengal,IN,https://www.google.com/maps/place/Gaushia+Islahi+Masjid/data=!4m7!3m6!1s0x39f89c5c3a1618e7:0x68337308caacb817!8m2!3d22.6793258!4d88.3685001!16s%2Fg%2F11c1p2k_xt!19sChIJ5xgWOlyc-DkRF7isyghzM2g?authuser=0&hl=en&rclk=1,"22.679325799999997,88.36850009999999"
Tegharia Jame-Un-Nur Masjid,Mosque,"MCP8+JW6 Tegharia Jame-Un-Nur Masjid, Navapalli, Nimta, Kolkata, Teghari, West Bengal 700049","Navapalli, Nimta",MCP8+JW6,"Kolkata, Teghari",700049,West Bengal,IN,https://www.google.com/maps/place/Tegharia+Jame-Un-Nur+Masjid/data=!4m7!3m6!1s0x39f89ebe60190847:0x8ec2396c02f0a1ec!8m2!3d22.6865481!4d88.4172787!16s%2Fg%2F124szmb4k!19sChIJRwgZYL6e-DkR7KHwAmw5wo4?authuser=0&hl=en&rclk=1,"22.6865481,88.4172787"
MOHAMMADI MASJID,Mosque,"MOHAMMADI MASJID, 38, Ramkrishna Rd, Bangur Park, Serampore, West Bengal 712248","Bangur Park, Serampore","38, Ramkrishna Rd",,712248,West Bengal,IN,https://www.google.com/maps/place/MOHAMMADI+MASJID/data=!4m7!3m6!1s0x39f89b6cbce95255:0xf0d564ddcb0151f8!8m2!3d22.7293074!4d88.3488439!16s%2Fg%2F11c2y6w9r5!19sChIJVVLpvGyb-DkR-FEBy91k1fA?authuser=0&hl=en&rclk=1,"22.7293074,88.34884389999999"
GHOLA MUSLIM PARA MASJID,Mosque,"GHOLA MUSLIM PARA MASJID, 620, Ghola, Agarpara, Barrackpore, Panihati, West Bengal 700111","Ghola, Agarpara",620,"Barrackpore, Panihati",700111,West Bengal,IN,https://www.google.com/maps/place/GHOLA+MUSLIM+PARA+MASJID/data=!4m7!3m6!1s0x39f89ea3eee1e96b:0x668284af1ae20e0!8m2!3d22.688449!4d88.4072151!16s%2Fg%2F11c5bj73l5!19sChIJa-nh7qOe-DkR4CCu8UooaAY?authuser=0&hl=en&rclk=1,"22.688449,88.4072151"
Agarpara Jama Masjid Kamarhati,Mosque,"3, Agarpara Jama Masjid Kamarhati, 1, Graham Rd, Kamarhati, Ariadaha, Panihati, West Bengal 700058","Kamarhati, Ariadaha","3, 1, Graham Rd",Panihati,700058,West Bengal,IN,https://www.google.com/maps/place/Agarpara+Jama+Masjid+Kamarhati/data=!4m7!3m6!1s0x39f89c4355d1754b:0x2310ce6c3c38de8c!8m2!3d22.677446!4d88.3726847!16s%2Fg%2F11hblpqphq!19sChIJS3XRVUOc-DkRjN44PGzOECM?authuser=0&hl=en&rclk=1,"22.677446,88.3726847"
Noorani Masjid,Mosque,"Noorani Masjid, Anwar Bagan, 700058, Kamarhati, Kolkata","Rojan Bagan, Kamarhati","Anwar Bagan, 700058",Kolkata,,West Bengal,IN,https://www.google.com/maps/place/Noorani+Masjid/data=!4m7!3m6!1s0x39f89c5a4c02a0ed:0x2152282b81572a68!8m2!3d22.6737944!4d88.3692233!16s%2Fg%2F11g6vjnjdm!19sChIJ7aACTFqc-DkRaCpXgSsoUiE?authuser=0&hl=en&rclk=1,"22.6737944,88.3692233"
BAGKHAL JAMA MASJID,Mosque,"P972+V67 BAGKHAL JAMA MASJID, Jawahar Lal Nehru Sarani, Bagkhal, Rishra, West Bengal 712248","Jawahar Lal Nehru Sarani, Bagkhal, Rishra",P972+V67,,712248,West Bengal,IN,https://www.google.com/maps/place/BAGKHAL+JAMA+MASJID/data=!4m7!3m6!1s0x39f89b6458e98b89:0x43e0cf2588aa6f11!8m2!3d22.7146742!4d88.3505508!16s%2Fg%2F11f3m97hzq!19sChIJiYvpWGSb-DkREW-qiCXP4EM?authuser=0&hl=en&rclk=1,"22.714674199999997,88.3505508"
Mallickpara Boro Masjid,Mosque,"Mallickpara Boro Masjid, 35, Mallicpara, Ghoramara, Serampore, Hooghly, Dakshin Rajyadharpur, West Bengal 712203","Mallicpara, Ghoramara, Serampore",35,"Hooghly, Dakshin Rajyadharpur",712203,West Bengal,IN,https://www.google.com/maps/place/Mallickpara+Boro+Masjid/data=!4m7!3m6!1s0x39f89b2615b66fa1:0xd3287412d141f44e!8m2!3d22.7497311!4d88.3345819!16s%2Fg%2F11c6cd1jt2!19sChIJoW-2FSab-DkRTvRB0RJ0KNM?authuser=0&hl=en&rclk=1,"22.749731099999998,88.33458189999999"
Noorani Masjid,Mosque,"Noorani Masjid, 20, P.K.Das Lane, Rishra), near Fatema Girls High School Risora, Serampore, 712248",Serampore,"20, P.K.Das Lane, Rishra), near Fatema Girls High School Risora",,712248,West Bengal,IN,https://www.google.com/maps/place/Noorani+Masjid/data=!4m7!3m6!1s0x39f89b6cd2dfa4eb:0xf473cfb951cee525!8m2!3d22.7304193!4d88.3501827!16s%2Fg%2F11g68wjsyk!19sChIJ66Tf0myb-DkRJeXOUbnPc_Q?authuser=0&hl=en&rclk=1,"22.730419299999998,88.35018269999999"
Masjid Zahoor Ali Sah R.A,Mosque,"Masjid Zahoor Ali Sah R.A, 10A, Old Nimta Rd, Adarsha Pally, Belghoria, Kolkata, West Bengal 700058","Adarsha Pally, Belghoria","10A, Old Nimta Rd",Kolkata,700058,West Bengal,IN,https://www.google.com/maps/place/Masjid+Zahoor+Ali+Sah+R.A/data=!4m7!3m6!1s0x39f89c45f6f0bd45:0x4cbdebf91ddb23c3!8m2!3d22.6714908!4d88.3765475!16s%2Fg%2F11f2hd10fk!19sChIJRb3w9kWc-DkRwyPbHfnrvUw?authuser=0&hl=en&rclk=1,"22.671490799999997,88.3765475"
Gheedah Jame Masjid,Mosque,"Gheedah Jame Masjid, Chapuria, Barrackpore, Teleni Para, West Bengal 700121",Chapuria,,"Barrackpore, Teleni Para",700121,West Bengal,IN,https://www.google.com/maps/place/Gheedah+Jame+Masjid/data=!4m7!3m6!1s0x39f89999f4134b41:0x293e719357ac59a9!8m2!3d22.7657794!4d88.4164023!16s%2Fg%2F1hc8974gw!19sChIJQUsT9JmZ-DkRqVmsV5NxPik?authuser=0&hl=en&rclk=1,"22.7657794,88.4164023"
Khardah Choti Masjid,Mosque,"P9H9+PF6 Khardah Choti Masjid, Titagarh, Kolkata, West Bengal 700119",Titagarh,P9H9+PF6,Kolkata,700119,West Bengal,IN,https://www.google.com/maps/place/Khardah+Choti+Masjid/data=!4m7!3m6!1s0x39f89b98c09e333b:0x1606c2414aa324c4!8m2!3d22.7292755!4d88.3686349!16s%2Fg%2F1q6jkbm_h!19sChIJOzOewJib-DkRxCSjSkHCBhY?authuser=0&hl=en&rclk=1,"22.7292755,88.36863489999999"
Mathpara Masjid,Mosque,"P9PJ+WX9 Mathpara Masjid, Math Para, Titagarh, Barrackpore, West Bengal 700118","Math Para, Titagarh",P9PJ+WX9,Barrackpore,700118,West Bengal,IN,https://www.google.com/maps/place/Mathpara+Masjid/data=!4m7!3m6!1s0x39f89bc756ae7419:0x145e919d6d93ab78!8m2!3d22.737285!4d88.3824901!16s%2Fg%2F11gdyvl05x!19sChIJGXSuVseb-DkReKuTbZ2RXhQ?authuser=0&hl=en&rclk=1,"22.737285,88.3824901"
"Ruiya Mosque, Ruiya, Patulia, Ps-khardaha, Kolkata, West Bengal",Mosque,"P9XR+P5H Ruiya Mosque, Ruiya, Patulia, Ps-khardaha, Kolkata, West Bengal, Mondal Para, Titagarh, Barrackpore, West Bengal 700120","Mondal Para, Titagarh",P9XR+P5H,Barrackpore,700120,West Bengal,IN,"https://www.google.com/maps/place/Ruiya+Mosque,+Ruiya,+Patulia,+Ps-khardaha,+Kolkata,+West+Bengal/data=!4m7!3m6!1s0x39f89b15c34e5dd1:0x1e06336c0c3a86ce!8m2!3d22.749309!4d88.3904744!16s%2Fg%2F11svnh2rw5!19sChIJ0V1OwxWb-DkRzoY6DGwzBh4?authuser=0&hl=en&rclk=1","22.749309,88.3904744"
Tetultalla Masjid msjd,Mosque,"Tetultalla Masjid msjd, 24/1, Barrackpore Trunk Rd, Tetultala, Matagiri Harna Pally, Agarpara, Panihati, West Bengal 700109","Tetultala, Matagiri Harna Pally, Agarpara","24/1, Barrackpore Trunk Rd",Panihati,700109,West Bengal,IN,https://www.google.com/maps/place/Tetultalla+Masjid+%D9%85%D8%B3%D8%AC%D8%AF%E2%80%AD/data=!4m7!3m6!1s0x39f89c69c849c6ff:0xc727bcff325aa408!8m2!3d22.6845699!4d88.3753965!16s%2Fg%2F11c0xz367h!19sChIJ_8ZJyGmc-DkRCKRaMv-8J8c?authuser=0&hl=en&rclk=1,"22.6845699,88.3753965"
Ahle Sunnat Bichli Masjid,Mosque,"Ahle Sunnat Bichli Masjid, 10, AB Rd, Bangur Park, Rishra, West Bengal 712248","Bangur Park, Rishra","10, AB Rd",,712248,West Bengal,IN,https://www.google.com/maps/place/Ahle+Sunnat+Bichli+Masjid/data=!4m7!3m6!1s0x39f89b6dbd2357bb:0xc66339b7306dace5!8m2!3d22.726879!4d88.351724!16s%2Fg%2F1q6jd_y7w!19sChIJu1cjvW2b-DkR5axtMLc5Y8Y?authuser=0&hl=en&rclk=1,"22.726879,88.35172399999999"
BARA MASJID,Mosque,"P9H3+H45 BARA MASJID, Grand Trunk Road, Rishra, Hooghly, West Bengal 712248","Bangur Park, Rishra","P9H3+H45, Grand Trunk Road, Rishra",Hooghly,712248,West Bengal,IN,https://www.google.com/maps/place/BARA+MASJID/data=!4m7!3m6!1s0x39f89b6d61186c93:0x8b81f5235438f1a0!8m2!3d22.728892!4d88.3528504!16s%2Fg%2F11c5_v39bf!19sChIJk2wYYW2b-DkRoPE4VCP1gYs?authuser=0&hl=en&rclk=1,"22.728892,88.3528504"
Umar Mosque,Mosque,"Umar Mosque, 67, Kamarhati, Agarpara, Panihati, West Bengal 700109","Kamarhati, Agarpara",67,Panihati,700109,West Bengal,IN,https://www.google.com/maps/place/Umar+Mosque/data=!4m7!3m6!1s0x39f89c5d1ce8514b:0x5bb2a9072ccfc39e!8m2!3d22.6796679!4d88.3705281!16s%2Fg%2F11dxj2g2_v!19sChIJS1HoHF2c-DkRnsPPLAepsls?authuser=0&hl=en&rclk=1,"22.6796679,88.3705281"
Isha Khan Masjid,Mosque,"Isha Khan Masjid, Titagarh, Barrackpore, West Bengal 700119",Titagarh,,"Titagarh, Barrackpore",700119,West Bengal,IN,https://www.google.com/maps/place/Isha+Khan+Masjid/data=!4m7!3m6!1s0x39f89baffd377535:0xbca88c1227bc6a36!8m2!3d22.74333!4d88.3722746!16s%2Fg%2F11f1yghl38!19sChIJNXU3_a-b-DkRNmq8JxKMqLw?authuser=0&hl=en&rclk=1,"22.74333,88.3722746"
Kachchi Mosque,Mosque,"P9H2+FFR Kachchi Mosque, Abdul Kalam Azad Rd, Bangur Park, Kali Tala, West Bengal 712248","Bangur Park, Kali Tala","P9H2+FFR, Abdul Kalam Azad Rd",,712248,West Bengal,IN,https://www.google.com/maps/place/Kachchi+Mosque/data=!4m7!3m6!1s0x39f89b6d1987b79b:0xc60574b4edc66002!8m2!3d22.7287375!4d88.3511348!16s%2Fg%2F1q6j8f75g!19sChIJm7eHGW2b-DkRAmDG7bR0BcY?authuser=0&hl=en&rclk=1,"22.728737499999998,88.3511348"
Usha Bhuiyar Mather Masjid,Mosque,"MCGR+C35 Usha Bhuiyar Mather Masjid, South Kodalia, Ushakanan, Michael Nagar, New Barrakpur, Kolkata, West Bengal 700133","South Kodalia, Ushakanan, Michael Nagar, New Barrakpur",MCGR+C35,Kolkata,700133,West Bengal,IN,https://www.google.com/maps/place/Usha+Bhuiyar+Mather+Masjid/data=!4m7!3m6!1s0x39f89ee2742b01fb:0xf25621e2c4680bef!8m2!3d22.6760247!4d88.440221!16s%2Fg%2F1tdmc9j8!19sChIJ-wErdOKe-DkR7wtoxOIhVvI?authuser=0&hl=en&rclk=1,"22.6760247,88.440221"
Abdullah Jama Masjid,Mosque,"Abdullah Jama Masjid, 14/2, Kumar Patty, Math Para, Titagarh, Kolkata, Barrackpore, West Bengal 700119","Math Para, Titagarh","14/2, Kumar Patty","Kolkata, Barrackpore",700119,West Bengal,IN,https://www.google.com/maps/place/Abdullah+Jama+Masjid/data=!4m7!3m6!1s0x39f89bb992492b3f:0x7911b9cd7b4dcb30!8m2!3d22.7410329!4d88.3780769!16s%2Fg%2F11c7vvh8kd!19sChIJPytJkrmb-DkRMMtNe825EXk?authuser=0&hl=en&rclk=1,"22.7410329,88.3780769"
Masjid wa Madarsah Muhammadia,Mosque,"Masjid wa Madarsah Muhammadia, 90, Mackenzie Rd, Toot Bagan, Rojan Bagan, Kamarhati, Ariadaha, Kolkata, West Bengal 700058","Toot Bagan, Rojan Bagan, Kamarhati, Ariadaha","90, Mackenzie Rd",Kolkata,700058,West Bengal,IN,https://www.google.com/maps/place/Masjid+wa+Madarsah+Muhammadia/data=!4m7!3m6!1s0x39f89c5be003eaf5:0x11b267b679af7636!8m2!3d22.6758673!4d88.3676492!16s%2Fg%2F11c7157jq8!19sChIJ9eoD4Fuc-DkRNnavebZnshE?authuser=0&hl=en&rclk=1,"22.6758673,88.3676492"
Raza Jama Masjid,Mosque,"Raza Jama Masjid, 65/1, Dasu Babu Bagan, Kamarhati, Kolkata, West Bengal 700058",Kamarhati,"65/1, Dasu Babu Bagan",Kolkata,700058,West Bengal,IN,https://www.google.com/maps/place/Raza+Jama+Masjid/data=!4m7!3m6!1s0x39f89d8637b0827d:0x1b13593ef7ec8b3a!8m2!3d22.6758815!4d88.3708708!16s%2Fg%2F11g1k7dnj2!19sChIJfYKwN4ad-DkROovs9z5ZExs?authuser=0&hl=en&rclk=1,"22.6758815,88.37087079999999"
MOHAMMADI MASJID AHLE HADEES,Mosque,"MOHAMMADI MASJID AHLE HADEES, 105, GC Rd, Math Para, Titagarh, Barrackpore, West Bengal 700119","Math Para, Titagarh","105, GC Rd",Barrackpore,700119,West Bengal,IN,https://www.google.com/maps/place/MOHAMMADI+MASJID+AHLE+HADEES/data=!4m7!3m6!1s0x39f89bb8ff841f41:0xf6ffefe82a1e4804!8m2!3d22.7398016!4d88.3798619!16s%2Fg%2F11c50q04mn!19sChIJQR-E_7ib-DkRBEgeKujv__Y?authuser=0&hl=en&rclk=1,"22.7398016,88.3798619"
Doperia Mosque,Mosque,"PCJ4+84Q Doperia Mosque, Bandipur, Doperia Village, Kolkata, Dopere, West Bengal Kol-700119","Bandipur, Doperia Village",PCJ4+84Q,"Kolkata, Dopere",Kol-700119,West Bengal,IN,https://www.google.com/maps/place/Doperia+Mosque/data=!4m7!3m6!1s0x39f8995e1f3384fb:0x5126be1bd1426801!8m2!3d22.730839!4d88.4053626!16s%2Fg%2F11gbx9z032!19sChIJ-4QzH16Z-DkRAWhC0Ru-JlE?authuser=0&hl=en&rclk=1,"22.730839,88.40536259999999"
Dentia Jame Masjid,Mosque,"Dentia Jame Masjid, Dentia, Bandipur, Khardaha, Iswaripur, West Bengal 700119",,"Dentia, Bandipur","Khardaha, Iswaripur",700119,West Bengal,IN,https://www.google.com/maps/place/Dentia+Jame+Masjid/data=!4m7!3m6!1s0x39f89967815c5f1f:0x12402459e0ab4aa5!8m2!3d22.7315026!4d88.4091453!16s%2Fg%2F11f3v9pc8k!19sChIJH19cgWeZ-DkRpUqr4FkkQBI?authuser=0&hl=en&rclk=1,"22.7315026,88.40914529999999"
MOREPUKUR MASJID,Mosque,"P8CQ+X23 MOREPUKUR MASJID, Karl Marx Sarani, Morepukur, Subhash Nagar 2, Rishra, West Bengal 712249","Morepukur, Subhash Nagar 2, Rishra","P8CQ+X23, Karl Marx Sarani",,712249,West Bengal,IN,https://www.google.com/maps/place/MOREPUKUR+MASJID/data=!4m7!3m6!1s0x39f89b4468c58725:0xafb2384c2197ddc0!8m2!3d22.7223855!4d88.3375561!16s%2Fg%2F1hm5l75fz!19sChIJJYfFaESb-DkRwN2XIUw4sq8?authuser=0&hl=en&rclk=1,"22.722385499999998,88.3375561"
Fakirpara Masjid,Mosque,"MC66+MH8 Fakirpara Masjid, Madhusudan Banerjee Rd, Alipore, Nimta, North Dumdum, West Bengal 700049","Alipore, Nimta","MC66+MH8, Madhusudan Banerjee Rd",North Dumdum,700049,West Bengal,IN,https://www.google.com/maps/place/Fakirpara+Masjid/data=!4m7!3m6!1s0x39f89e88760c90b7:0x944699436247eb19!8m2!3d22.6616692!4d88.4114542!16s%2Fg%2F1jglvlsg7!19sChIJt5AMdoie-DkRGetHYkOZRpQ?authuser=0&hl=en&rclk=1,"22.6616692,88.4114542"
Masjid Masunda,Mosque,"149, Masjid Masunda, 104 Udbhas, 1, Netaji Subhash Bose Rd, New Barrakpur, Kolkata, West Bengal 700131",New Barrakpur,"149, 104 Udbhas, 1, Netaji Subhash Bose Rd",Kolkata,700131,West Bengal,IN,https://www.google.com/maps/place/Masjid+Masunda/data=!4m7!3m6!1s0x39f89ed89e63a5c9:0x702b703a83f6a8a6!8m2!3d22.6917678!4d88.4399351!16s%2Fg%2F1q67d3881!19sChIJyaVjntie-DkRpqj2gzpwK3A?authuser=0&hl=en&rclk=1,"22.691767799999997,88.4399351"
Golder Para Mosque,Mosque,"P9FR+3HX Golder Para Mosque, Kalyan Nagar, Rahara, Kolkata, Khardaha, West Bengal 700119","Kalyan Nagar, Rahara",P9FR+3HX,"Kolkata, Khardaha",700119,West Bengal,IN,https://www.google.com/maps/place/Golder+Para+Mosque/data=!4m7!3m6!1s0x39f89bef7bfa3255:0xf0fd283a83757976!8m2!3d22.72273!4d88.391485!16s%2Fg%2F11c59zf5sd!19sChIJVTL6e--b-DkRdnl1gzoo_fA?authuser=0&hl=en&rclk=1,"22.72273,88.391485"
Kora Biswaspara Masjid,Mosque,"Kora Biswaspara Masjid, Biswas Para, Kora, Madhyamgram, Kolkata, West Bengal 700130","Kora, Madhyamgram",Biswas Para,Kolkata,700130,West Bengal,IN,https://www.google.com/maps/place/Kora+Biswaspara+Masjid/data=!4m7!3m6!1s0x39f898cc6812ac9b:0xdf1e9c3c72e9899a!8m2!3d22.7116305!4d88.4538276!16s%2Fg%2F11g9m8l_fp!19sChIJm6wSaMyY-DkRmonpcjycHt8?authuser=0&hl=en&rclk=1,"22.7116305,88.4538276"
Kora Uttarpara Jame Masjid,Mosque,"PF94+2G5 Kora Uttarpara Jame Masjid, Kora Uttarpara, P.O- Kora Chandigarh, P.S- Madhyamgram, Dist, Kolkata, 700130","Ramkrishnapally, Hridaypur","PF94+2G5, Kora Uttarpara, P.O- Kora Chandigarh, P.S- Madhyamgram, Dist",Kolkata,700130,West Bengal,IN,https://www.google.com/maps/place/Kora+Uttarpara+Jame+Masjid/data=!4m7!3m6!1s0x39f899f4a3e929f9:0x54d4b697440aa3d2!8m2!3d22.7175153!4d88.4563512!16s%2Fg%2F11gnq8622w!19sChIJ-Snpo_SZ-DkR0qMKRJe21FQ?authuser=0&hl=en&rclk=1,"22.7175153,88.4563512"
Hazrat Bilal Masjid,Mosque,"M9F8+3PH Hazrat Bilal Masjid, Kamarhati, Kolkata, West Bengal 700057",Kamarhati,M9F8+3PH,Kolkata,,West Bengal,IN,https://www.google.com/maps/place/Hazrat+Bilal+Masjid/data=!4m7!3m6!1s0x39f89d45de2110e5:0x4c53063d035909a6!8m2!3d22.6726916!4d88.3668676!16s%2Fg%2F11gq_sxyqj!19sChIJ5RAh3kWd-DkRpglZAz0GU0w?authuser=0&hl=en&rclk=1,"22.6726916,88.36686759999999"
KHANDAKAR PARA JUMA MASJID,Mosque,"Q8CH+4G4 KHANDAKAR PARA JUMA MASJID, Grand Trunk Rd, Sheoraphuli, West Bengal 712223",Sheoraphuli,"Q8CH+4G4, Grand Trunk Rd",,712223,West Bengal,IN,https://www.google.com/maps/place/KHANDAKAR+PARA+JUMA+MASJID/data=!4m7!3m6!1s0x39f89ace9e6ae219:0x34f877eba8d9e0b2!8m2!3d22.770269!4d88.328843!16s%2Fg%2F11d_ww1wyj!19sChIJGeJqns6a-DkRsuDZqOt3-DQ?authuser=0&hl=en&rclk=1,"22.770269,88.32884299999999"
Khardah Jame masjid,Mosque,"G2H3+3M7 Khardah Jame masjid, Khardaha, West Bengal 711401",,G2H3+3M7,Khardaha,711401,West Bengal,IN,https://www.google.com/maps/place/Khardah+Jame+masjid/data=!4m7!3m6!1s0x3a029cb0fc5edb0d:0x6b95d0f3687a8c5c!8m2!3d22.5276735!4d88.0041759!16s%2Fg%2F11bxjcp0ww!19sChIJDdte_LCcAjoRXIx6aPPQlWs?authuser=0&hl=en&rclk=1,"22.5276735,88.00417589999999"
Kamarhati Muhammadi Masjid,Mosque,"Kamarhati Muhammadi Masjid, 91, Toot Bagan, Nehaboot Nagar, Ariadaha, Kolkata, West Bengal 700058","Toot Bagan, Nehaboot Nagar, Ariadaha",91,Kolkata,700058,West Bengal,IN,https://www.google.com/maps/place/Kamarhati+Muhammadi+Masjid/data=!4m7!3m6!1s0x39f89c595f7d8a37:0x4f11f54687d4420a!8m2!3d22.6758702!4d88.3676388!16s%2Fg%2F11gdsfdp85!19sChIJN4p9X1mc-DkRCkLUh0b1EU8?authuser=0&hl=en&rclk=1,"22.6758702,88.3676388"
MADINA MASJID,Mosque,"MADINA MASJID, paschim Para Madina masjid, Mondal Para, Ruiya, Barrackpore, West Bengal 700119","Mondal Para, Ruiya",paschim Para Madina masjid,Barrackpore,700119,West Bengal,IN,https://www.google.com/maps/place/MADINA+MASJID/data=!4m7!3m6!1s0x39f89b2cbf686249:0x5a964ae29408a0b8!8m2!3d22.7458819!4d88.3858409!16s%2Fg%2F11ll1yxf8g!19sChIJSWJovyyb-DkRuKAIlOJKllo?authuser=0&hl=en&rclk=1,"22.7458819,88.38584089999999"
Dangadighila Purano Masjid,Mosque,"PCQ2+5GF Dangadighila Purano Masjid, Duttapukur - Nilgunj Rd, Ruiya, Dangadihila, Iswaripur, West Bengal 700119",Ruiya,"PCQ2+5GF, Duttapukur - Nilgunj Rd","Dangadihila, Iswaripur",700119,West Bengal,IN,https://www.google.com/maps/place/Dangadighila+Purano+Masjid/data=!4m7!3m6!1s0x39f89bd8a5d9ca65:0x821eb7204c24bf77!8m2!3d22.7379485!4d88.4013008!16s%2Fg%2F11clgrhr_d!19sChIJZcrZpdib-DkRd78kTCC3HoI?authuser=0&hl=en&rclk=1,"22.737948499999998,88.4013008"
Masjid Umar Farooq - Ruhani Markaz msjd,Mosque,"M9G8+QWP Masjid Umar Farooq - Ruhani Markaz msjd, Unnamed Road, Rojan Bagan, Nehaboot Nagar, Ariadaha, Kolkata, West Bengal 700109","Rojan Bagan, Nehaboot Nagar, Ariadaha","M9G8+QWP, Unnamed Road",Kolkata,700109,West Bengal,IN,https://www.google.com/maps/place/Masjid+Umar+Farooq+-+Ruhani+Markaz+%D9%85%D8%B3%D8%AC%D8%AF%E2%80%AD/data=!4m7!3m6!1s0x39f89c59537c1d6b:0x7773c2e18d7e2b69!8m2!3d22.6769744!4d88.3673379!16s%2Fg%2F11gf5zkkql!19sChIJax18U1mc-DkRaSt-jeHCc3c?authuser=0&hl=en&rclk=1,"22.6769744,88.3673379"
Masjid E Ahle Hadees Kamarhati,Mosque,"M9G9+83R Masjid E Ahle Hadees Kamarhati, Toot Bagan, Rojan Bagan, Nehaboot Nagar, Ariadaha, Kolkata, West Bengal 700058","Toot Bagan, Rojan Bagan, Nehaboot Nagar, Ariadaha",M9G9+83R,Kolkata,700058,West Bengal,IN,https://www.google.com/maps/place/Masjid+E+Ahle+Hadees+Kamarhati/data=!4m7!3m6!1s0x39f89d8c5a1983b1:0xbd86aabf877926e2!8m2!3d22.6758673!4d88.3676515!16s%2Fg%2F11fjznf8y5!19sChIJsYMZWoyd-DkR4iZ5h7-qhr0?authuser=0&hl=en&rclk=1,"22.6758673,88.3676515"
Craig Street Tazia Commitee Karbala,Mosque,"Craig Street Tazia Commitee Karbala, 196, SH 1, Angles Nagar Colony, Kamarhati, Agarpara, Kolkata, Panihati, West Bengal 700109","Angles Nagar Colony, Kamarhati, Agarpara","196, SH 1","Kolkata, Panihati",700109,West Bengal,IN,https://www.google.com/maps/place/Craig+Street+Tazia+Commitee+Karbala/data=!4m7!3m6!1s0x39f89d1ecb4226b5:0xb4a4529fd6b4b9dc!8m2!3d22.6873358!4d88.3750464!16s%2Fg%2F11gr426jgb!19sChIJtSZCyx6d-DkR3Lm01p9SpLQ?authuser=0&hl=en&rclk=1,"22.6873358,88.3750464"
ALLAHABADI MASJID,Mosque,"ALLAHABADI MASJID, 4, P. C. DAW BAZAR ROAD, Rishra, 712248","Bangur Park, Rishra","4, P. C. DAW BAZAR ROAD",,712248,West Bengal,IN,https://www.google.com/maps/place/ALLAHABADI+MASJID/data=!4m7!3m6!1s0x39f89b624291aa71:0xaec640ce3584841!8m2!3d22.726084!4d88.3520166!16s%2Fg%2F11gjyk46xl!19sChIJcaqRQmKb-DkRQUhY4wxk7Ao?authuser=0&hl=en&rclk=1,"22.726084,88.3520166"
Jamiat ahle hadees khardah library,Mosque,"Line Number 3, Jamiat ahle hadees khardah library, Deshbandhu Pally, Jelepara, Surjaysen Nagar, Khardaha, Kolkata, West Bengal 700117","Deshbandhu Pally, Jelepara, Surjaysen Nagar, Khardaha",Line Number 3,Kolkata,700117,West Bengal,IN,https://www.google.com/maps/place/Jamiat+ahle+hadees+khardah+library/data=!4m7!3m6!1s0x39f89be39c4d5a23:0xb2f947a2b13d77ac!8m2!3d22.7265817!4d88.3698255!16s%2Fg%2F11twqyrg8t!19sChIJI1pNnOOb-DkRrHc9saJH-bI?authuser=0&hl=en&rclk=1,"22.7265817,88.36982549999999"
Garib Nawaz Masjid,Mosque,"M9FC+24G Garib Nawaz Masjid, Unnamed Road, Nehaboot Nagar, Kolkata, West Bengal 700058",Nehaboot Nagar,"M9FC+24G, Unnamed Road",Kolkata,700058,West Bengal,IN,https://www.google.com/maps/place/Garib+Nawaz+Masjid/data=!4m7!3m6!1s0x39f89d594ca5102b:0xfc4db99d9c4df394!8m2!3d22.6725646!4d88.3703284!16s%2Fg%2F11fl0wwn3v!19sChIJKxClTFmd-DkRlPNNnJ25Tfw?authuser=0&hl=en&rclk=1,"22.672564599999998,88.37032839999999"
BANGIHATI MASJID,Mosque,"P8P7+C27 BANGIHATI MASJID, Bangihati Village, Bangihati, West Bengal 712249",Bangihati Village,P8P7+C27,Bangihati,712249,West Bengal,IN,https://www.google.com/maps/place/BANGIHATI+MASJID/data=!4m7!3m6!1s0x39f884c6764cc769:0x3b991e6a058739ba!8m2!3d22.7360314!4d88.3125446!16s%2Fg%2F11g70c8rv1!19sChIJacdMdsaE-DkRujmHBWoemTs?authuser=0&hl=en&rclk=1,"22.736031399999998,88.3125446"
Mosque,Mosque,"QC66+92P Mosque, Sewli Telinipara, Barrackpore, West Bengal 700120",Sewli Telinipara,QC66+92P,Barrackpore,700120,West Bengal,IN,https://www.google.com/maps/place/Mosque/data=!4m7!3m6!1s0x39f899836001555d:0x97db617a63233eb7!8m2!3d22.7609611!4d88.4100903!16s%2Fg%2F12htq1pn0!19sChIJXVUBYIOZ-DkRtz4jY3ph25c?authuser=0&hl=en&rclk=1,"22.7609611,88.4100903"
Ghola masjid,Mosque,"Ghola masjid, 315, Sodepur Barasat Rd, C Block, Sodepur, Kolkata, Panihati, West Bengal 700111","C Block, Sodepur","315, Sodepur Barasat Rd","Kolkata, Panihati",700111,West Bengal,IN,https://www.google.com/maps/place/Ghola+masjid/data=!4m7!3m6!1s0x39f89f7004edc12b:0x35db0b510d4b07b1!8m2!3d22.6944539!4d88.4047513!16s%2Fg%2F11rgfxc_ss!19sChIJK8HtBHCf-DkRsQdLDVEL2zU?authuser=0&hl=en&rclk=1,"22.6944539,88.4047513"
Rahmania Masjid,Mosque,"P8XX+R2X Rahmania Masjid, Dey St, Sirishtala, Khash Bagan, Serampore, West Bengal 712201","Sirishtala, Khash Bagan, Serampore","P8XX+R2X, Dey St",,712201,West Bengal,IN,https://www.google.com/maps/place/Rahmania+Masjid/data=!4m7!3m6!1s0x39f89b179a60b72b:0x7ce224a188acb9c4!8m2!3d22.7496179!4d88.3476061!16s%2Fg%2F11qvdxss9r!19sChIJK7dgmheb-DkRxLmsiKEk4nw?authuser=0&hl=en&rclk=1,"22.7496179,88.3476061"
Sabri jama masjid,Mosque,"Sabri jama masjid, 150, Barrackpore Trunk Rd, No. 3 Deshbondhu Nagar, Panihati, Kol115, Khardaha, West Bengal 700110","No. 3 Deshbondhu Nagar, Panihati","150, Barrackpore Trunk Rd","Kol115, Khardaha",700110,West Bengal,IN,https://www.google.com/maps/place/Sabri+jama+masjid/data=!4m7!3m6!1s0x39f89d0f1df20447:0xa7ab96013dbbb128!8m2!3d22.7039234!4d88.3749224!16s%2Fg%2F11qprd_sd6!19sChIJRwTyHQ-d-DkRKLG7PQGWq6c?authuser=0&hl=en&rclk=1,"22.703923399999997,88.3749224"
Mondol Para Syed Nurunnabi Jame Masjid,Mosque,"P9WJ+PPM Mondol Para Syed Nurunnabi Jame Masjid, Old Calcutta Rd, Math Para, Titagarh, Kolkata, Barrackpore, West Bengal 700119","Math Para, Titagarh","P9WJ+PPM, Old Calcutta Rd","Kolkata, Barrackpore",700119,West Bengal,IN,https://www.google.com/maps/place/Mondol+Para+Syed+Nurunnabi+Jame+Masjid/data=!4m7!3m6!1s0x39f89bb6a1211539:0xfa9f7cdd13c07595!8m2!3d22.7468461!4d88.3818056!16s%2Fg%2F11h1mbh0n5!19sChIJORUhobab-DkRlXXAE918n_o?authuser=0&hl=en&rclk=1,"22.7468461,88.38180559999999"
Bandipur Jame Masjid,Mosque,"P9FV+RFR Bandipur Jame Masjid, Kalyan Nagar, Rahara, Khardaha, West Bengal 700119","Kalyan Nagar, Rahara",P9FV+RFR,Khardaha,700119,West Bengal,IN,https://www.google.com/maps/place/Bandipur+Jame+Masjid/data=!4m7!3m6!1s0x39f89bddff96ab2f:0x1e9835f7bf725e7a!8m2!3d22.7246427!4d88.3936549!16s%2Fg%2F11rll69wm3!19sChIJL6uW_92b-DkRel5yv_c1mB4?authuser=0&hl=en&rclk=1,"22.7246427,88.3936549"
Morolpara mosque,Mosque,"58, Morolpara mosque, 58, Bandipur Saibone Rd, Bandipur, Ramkrishna Pally, Rahara, Barrackpore, Khardaha, West Bengal 700118","Bandipur, Ramkrishna Pally, Rahara","58, 58, Bandipur Saibone Rd","Barrackpore, Khardaha",700118,West Bengal,IN,https://www.google.com/maps/place/Morolpara+mosque/data=!4m7!3m6!1s0x39f89b46d76dd06d:0x938e3e13130f50be!8m2!3d22.7249427!4d88.3957121!16s%2Fg%2F11plj2bs8c!19sChIJbdBt10ab-DkRvlAPExM-jpM?authuser=0&hl=en&rclk=1,"22.7249427,88.3957121"
Chiriyamor moti bibi masjid,Mosque,"Chiriyamor moti bibi masjid, 12, SN Banerjee Rd, Chiria More, Barrackpore, Kolkata, Barrackpur Cantonment, West Bengal 700120","Chiria More, Barrackpore","12, SN Banerjee Rd","Kolkata, Barrackpur Cantonment",700120,West Bengal,IN,https://www.google.com/maps/place/Chiriyamor+moti+bibi+masjid/data=!4m7!3m6!1s0x39f89b63d02a4c85:0xee7dd0f0cc82ad4b!8m2!3d22.7621049!4d88.3653748!16s%2Fg%2F11pc9y6cbr!19sChIJhUwq0GOb-DkRS62CzPDQfe4?authuser=0&hl=en&rclk=1,"22.7621049,88.3653748"
"Khardah Masjid Committee,Head office",Association or organization,"P9G8+XW3 Khardah Masjid Committee,Head office, Titagarh, Kolkata, West Bengal 700116",Titagarh,P9G8+XW3,Kolkata,700116,West Bengal,IN,"https://www.google.com/maps/place/Khardah+Masjid+Committee,Head+office/data=!4m7!3m6!1s0x39f89bea631ad2a3:0x817017e03229e897!8m2!3d22.7273938!4d88.3672814!16s%2Fg%2F11rwzhy856!19sChIJo9IaY-qb-DkRl-gpMuAXcIE?authuser=0&hl=en&rclk=1","22.727393799999998,88.3672814"
Masjid-E- Masroor,Mosque,"Masjid-E- Masroor, 99, GC Rd, Math Para, Titagarh, Kolkata, Barrackpore, West Bengal 700119","Math Para, Titagarh","99, GC Rd","Kolkata, Barrackpore",700119,West Bengal,IN,https://www.google.com/maps/place/Masjid-E-+Masroor/data=!4m7!3m6!1s0x39f89bdbf1bdf97b:0x37f022f1c99d2203!8m2!3d22.7388112!4d88.3774251!16s%2Fg%2F11rck799d_!19sChIJe_m98dub-DkRAyKdyfEi8Dc?authuser=0&hl=en&rclk=1,"22.7388112,88.3774251"
SYEDABAD MASJID,Mosque,"P9XG+2Q5 SYEDABAD MASJID, Math Para, Titagarh, Barrackpore, West Bengal 700120","Math Para, Titagarh",P9XG+2Q5,Barrackpore,700120,West Bengal,IN,https://www.google.com/maps/place/SYEDABAD+MASJID/data=!4m7!3m6!1s0x39f89b61fcd83b55:0xa173e61ac2ddd1e5!8m2!3d22.7475035!4d88.376974!16s%2Fg%2F11h1j1sljv!19sChIJVTvY_GGb-DkR5dHdwhrmc6E?authuser=0&hl=en&rclk=1,"22.7475035,88.37697399999999"
Khaldhar Madina Masjid,Mosque,"P9XC+P3F Khaldhar Madina Masjid, Krishna Prasad Rd, Titagarh, Barrackpore, West Bengal 700120",Titagarh,"P9XC+P3F, Krishna Prasad Rd",Barrackpore,700120,West Bengal,IN,https://www.google.com/maps/place/Khaldhar+Madina+Masjid/data=!4m7!3m6!1s0x39f89bf15840eedb:0xb4382fdeffaaa092!8m2!3d22.7493244!4d88.3701738!16s%2Fg%2F11r_r3ktq0!19sChIJ2-5AWPGb-DkRkqCq_94vOLQ?authuser=0&hl=en&rclk=1,"22.7493244,88.37017379999999"
Manik danga masjid ( maanikddaangaa msjid ),Mosque,"MCV7+FFC Manik danga masjid ( maanikddaangaa msjid ), Navapalli, Jugberia, Muragachha, West Bengal 700111","Navapalli, Jugberia",MCV7+FFC,Muragachha,700111,West Bengal,IN,https://www.google.com/maps/place/Manik+danga+masjid+%28+%E0%A6%AE%E0%A6%BE%E0%A6%A8%E0%A6%BF%E0%A6%95%E0%A6%A1%E0%A6%BE%E0%A6%99%E0%A6%BE+%E0%A6%AE%E0%A6%B8%E0%A6%9C%E0%A6%BF%E0%A6%A6+%29/data=!4m7!3m6!1s0x39f89fc46a826099:0x7fdd04a43f14317d!8m2!3d22.6936833!4d88.4136345!16s%2Fg%2F11lt021rxm!19sChIJmWCCasSf-DkRfTEUP6QE3X8?authuser=0&hl=en&rclk=1,"22.6936833,88.4136345"
Masjid,Mosque,"Masjid, 8, Nazrul Sarani Rd, Arabinda Pally, Konnagar, Uttarpara, West Bengal 712233","Arabinda Pally, Konnagar","8, Nazrul Sarani Rd",Uttarpara,712233,West Bengal,IN,https://www.google.com/maps/place/Masjid/data=!4m7!3m6!1s0x39f89d0777cb7a17:0xacfd9e6fe804fa27!8m2!3d22.6902209!4d88.3564683!16s%2Fg%2F11nnng143r!19sChIJF3rLdwed-DkRJ_oE6G-e_aw?authuser=0&hl=en&rclk=1,"22.6902209,88.3564683"
Kathuria Masjid (kaatthuriyyaa msjid) msjd ktwr,Mosque,"PCJW+WV6 Kathuria Masjid (kaatthuriyyaa msjid) msjd ktwr, Katura, West Bengal 700126",,PCJW+WV6,Katura,700126,West Bengal,IN,https://www.google.com/maps/place/Kathuria+Masjid+%28%E0%A6%95%E0%A6%BE%E0%A6%A0%E0%A7%81%E0%A6%B0%E0%A6%BF%E0%A7%9F%E0%A6%BE+%E0%A6%AE%E0%A6%B8%E0%A6%9C%E0%A6%BF%E0%A6%A6%29+%D9%85%D8%B3%D8%AC%D8%AF+%D9%83%D8%A7%D8%AA%D9%88%D8%B1%D8%A7%E2%80%AD/data=!4m7!3m6!1s0x39f899708d7f2fc3:0x805ba9ef24eb85a2!8m2!3d22.732101!4d88.4470885!16s%2Fg%2F11kj8kndzd!19sChIJwy9_jXCZ-DkRooXrJO-pW4A?authuser=0&hl=en&rclk=1,"22.732101,88.44708849999999"
Jalsukha Ban Masjid (jaalshukhaa bn msjid),Mosque,"QC3F+7M Jalsukha Ban Masjid (jaalshukhaa bn msjid), Kolkata, Jalsukha, West Bengal 700121",,QC3F+7M,"Kolkata, Jalsukha",,West Bengal,IN,https://www.google.com/maps/place/Jalsukha+Ban+Masjid+%28%E0%A6%9C%E0%A6%BE%E0%A6%B2%E0%A6%B6%E0%A7%81%E0%A6%96%E0%A6%BE+%E0%A6%AC%E0%A6%A8+%E0%A6%AE%E0%A6%B8%E0%A6%9C%E0%A6%BF%E0%A6%A6%29/data=!4m7!3m6!1s0x39f899e91192d56f:0x2f0caab41d74c6be!8m2!3d22.7533396!4d88.4238904!16s%2Fg%2F11s9gmqp2z!19sChIJb9WSEemZ-DkRvsZ0HbSqDC8?authuser=0&hl=en&rclk=1,"22.7533396,88.42389039999999"
BT ROAD NEAR SABRI JAMA MASHJID PANIHATI(M) PS KHARDAH KOLKATA 700115,Mosque,"BT ROAD NEAR SABRI JAMA MASHJID PANIHATI(M) PS KHARDAH KOLKATA 700115, 13a, Barrackpore Trunk Rd, No. 3 Deshbondhu Nagar, Titagarh, Kolkata, Khardaha, West Bengal 700119","No. 3 Deshbondhu Nagar, Titagarh","13a, Barrackpore Trunk Rd","Kolkata, Khardaha",700119,West Bengal,IN,https://www.google.com/maps/place/BT+ROAD+NEAR+SABRI+JAMA+MASHJID+PANIHATI%28M%29+PS+KHARDAH+KOLKATA+700115/data=!4m7!3m6!1s0x39f89dcf61fb7b51:0xea0bacff7a6a2e27!8m2!3d22.7039618!4d88.3749486!16s%2Fg%2F11qprf711x!19sChIJUXv7Yc-d-DkRJy5qev-sC-o?authuser=0&hl=en&rclk=1,"22.7039618,88.3749486"
Haji Banku Line Masjid,Mosque,"P973+8G9 Haji Banku Line Masjid, Haji Banku Ln, Jawahar Lal Nehru Sarani, Konnagar, West Bengal 712235","Jawahar Lal Nehru Sarani, Konnagar","P973+8G9, Haji Banku Ln",,712235,West Bengal,IN,https://www.google.com/maps/place/Haji+Banku+Line+Masjid/data=!4m7!3m6!1s0x39f89b8adeaa54e3:0x85c24aa910452112!8m2!3d22.7132873!4d88.3538692!16s%2Fg%2F11fnwbm7hz!19sChIJ41Sq3oqb-DkREiFFEKlKwoU?authuser=0&hl=en&rclk=1,"22.713287299999998,88.35386919999999"
Craig street masjid,Mosque,"M9H9+MFG Craig street masjid, Craig St, Kamarhati, Agarpara, Panihati, West Bengal 700109","Kamarhati, Agarpara","M9H9+MFG, Craig St",Panihati,700109,West Bengal,IN,https://www.google.com/maps/place/Craig+street+masjid/data=!4m7!3m6!1s0x39f89d7670873147:0x4792a90911a22cd7!8m2!3d22.6791774!4d88.3686903!16s%2Fg%2F11mxzcqt43!19sChIJRzGHcHad-DkR1yyiEQmpkkc?authuser=0&hl=en&rclk=1,"22.6791774,88.3686903"
Doperia mosque,Mosque,"P9GX+GP8 Doperia mosque, Doperia Village, Kolkata, Dopere, West Bengal 700119",Doperia Village,P9GX+GP8,"Kolkata, Dopere",700119,West Bengal,IN,https://www.google.com/maps/place/Doperia+mosque/data=!4m7!3m6!1s0x39f89b6cd9cc5b43:0x9dfdc62e2febc9cc!8m2!3d22.7262856!4d88.399322!16s%2Fg%2F11rll99fwf!19sChIJQ1vM2Wyb-DkRzMnrLy7G_Z0?authuser=0&hl=en&rclk=1,"22.7262856,88.399322"
MASJID E UMAR FARUK (R ),Mosque,"MCF5+6H7 MASJID E UMAR FARUK (R ), Abdul Aziz Rd, Shyamaprasad Nagar, Gol Bagan, Diri Para, Nimta, Kolkata, North Dumdum, West Bengal 700049","Shyamaprasad Nagar, Gol Bagan, Diri Para, Nimta","MCF5+6H7, Abdul Aziz Rd","Kolkata, North Dumdum",700049,West Bengal,IN,https://www.google.com/maps/place/MASJID+E+UMAR+FARUK+%28R+%29/data=!4m7!3m6!1s0x39f89feffefe601f:0x2ab72bb6e74966b!8m2!3d22.6730494!4d88.4089273!16s%2Fg%2F11sdwqgf79!19sChIJH2D-_u-f-DkRa5Z0brtyqwI?authuser=0&hl=en&rclk=1,"22.6730494,88.4089273"
"Belal Masjid Ariadaha, Kolkata",Mosque,"M9F8+4HJ Belal Masjid Ariadaha, Kolkata, Sastitala Rd, Nehaboot Nagar, Ariadaha, Kolkata, West Bengal 700057","Nehaboot Nagar, Ariadaha","M9F8+4HJ, Sastitala Rd",Kolkata,700057,West Bengal,IN,"https://www.google.com/maps/place/Belal+Masjid+Ariadaha,+Kolkata/data=!4m7!3m6!1s0x39f89ddf5ff3e4ff:0x5498e81877725b3c!8m2!3d22.6728352!4d88.3663949!16s%2Fg%2F11ryrmvvs3!19sChIJ_-TzX9-d-DkRPFtydxjomFQ?authuser=0&hl=en&rclk=1","22.672835199999998,88.3663949"
Ahira masjid aahiraa msjid,Mosque,"PCGJ+CJR Ahira masjid aahiraa msjid, Kolkata, Ahira, West Bengal 700126",,PCGJ+CJR,"Kolkata, Ahira",700126,West Bengal,IN,https://www.google.com/maps/place/Ahira+masjid+%E0%A6%86%E0%A6%B9%E0%A6%BF%E0%A6%B0%E0%A6%BE+%E0%A6%AE%E0%A6%B8%E0%A6%9C%E0%A6%BF%E0%A6%A6/data=!4m7!3m6!1s0x39f899a044c019c5:0x5beb18453a61ff6!8m2!3d22.7261145!4d88.4315072!16s%2Fg%2F11t6jb0843!19sChIJxRnARKCZ-DkR9h-mU4SxvgU?authuser=0&hl=en&rclk=1,"22.726114499999998,88.4315072"
Khardah Eidgah,Mosque,"Khardah Eidgah, 1, State Hwy 1, Nutan Pally, Surjaysen Nagar, Khardaha, Barrackpore, West Bengal 700119","Nutan Pally, Surjaysen Nagar, Khardaha","1, State Hwy 1",Barrackpore,700119,West Bengal,IN,https://www.google.com/maps/place/Khardah+Eidgah/data=!4m7!3m6!1s0x39f89baa9936b6cb:0x14973224a589e986!8m2!3d22.727849!4d88.3738405!16s%2Fg%2F11qg59_p1n!19sChIJy7Y2maqb-DkRhumJpSQylxQ?authuser=0&hl=en&rclk=1,"22.727849,88.3738405"
Kulinpara Masjid,Mosque,"P978+RQ4 Kulinpara Masjid, Kulinpara, Khardaha, West Bengal 700116","Kulinpara, Khardaha",P978+RQ4,Khardaha,700116,West Bengal,IN,https://www.google.com/maps/place/Kulinpara+Masjid/data=!4m7!3m6!1s0x39f89b8444e470ab:0xe4f5eb5f8e4f0876!8m2!3d22.71454!4d88.3669451!16s%2Fg%2F11v6t1cfr1!19sChIJq3DkRISb-DkRdghPjl_r9eQ?authuser=0&hl=en&rclk=1,"22.71454,88.3669451"
Masjid Quba (for All Genders),Mosque,"Masjid Quba (for All Genders), 8/1, Abdul Kalam Azad Rd, Bangur Park, Rishra, Hooghly, West Bengal 712248","Bangur Park, Rishra","8/1, Abdul Kalam Azad Rd",Hooghly,712248,West Bengal,IN,https://www.google.com/maps/place/Masjid+Quba+%28for+All+Genders%29/data=!4m7!3m6!1s0x39f89bd56e8e8459:0x39331c18a9b51450!8m2!3d22.7290424!4d88.350765!16s%2Fg%2F11v6xc_7ch!19sChIJWYSObtWb-DkRUBS1qRgcMzk?authuser=0&hl=en&rclk=1,"22.729042399999997,88.350765"
Din Muhammad Juma Masjid,Mosque,"Din Muhammad Juma Masjid, Mondal Para, Titagarh, Barrackpore, West Bengal 700120","Mondal Para, Titagarh",,Barrackpore,700120,West Bengal,IN,https://www.google.com/maps/place/Din+Muhammad+Juma+Masjid/data=!4m7!3m6!1s0x39f89b68fcc34295:0xe6516bd7add947ff!8m2!3d22.7472836!4d88.3860141!16s%2Fg%2F11s8y2ngtw!19sChIJlULD_Gib-DkR_0fZrddrUeY?authuser=0&hl=en&rclk=1,"22.7472836,88.3860141"
MASJID -UL- AMEEN,Mosque,"65, MASJID -UL- AMEEN, 1, Ramkrishna Rd, Mahesh Colony, Rishra, Kolkata, West Bengal 712248","Mahesh Colony, Rishra","65, 1, Ramkrishna Rd",Kolkata,712248,West Bengal,IN,https://www.google.com/maps/place/MASJID+-UL-+AMEEN/data=!4m7!3m6!1s0x39f89b0c848f1a07:0x305a79ab3b436d93!8m2!3d22.7307859!4d88.3470729!16s%2Fg%2F11k3lq63qf!19sChIJBxqPhAyb-DkRk21DO6t5WjA?authuser=0&hl=en&rclk=1,"22.730785899999997,88.3470729"
Iswaripur Block Masjid,Mosque,"PCM6+QW7 Iswaripur Block Masjid, Iswaripur, West Bengal 700118",,PCM6+QW7,Iswaripur,700118,West Bengal,IN,https://www.google.com/maps/place/Iswaripur+Block+Masjid/data=!4m7!3m6!1s0x39f8996727ab901f:0x1fc4e1c892a293e2!8m2!3d22.7344076!4d88.4122885!16s%2Fg%2F11l6kzb71r!19sChIJH5CrJ2eZ-DkR4pOiksjhxB8?authuser=0&hl=en&rclk=1,"22.734407599999997,88.4122885"
Eidgah,Mosque,"Eidgah, 19/5, Old Calcutta Rd, Mondal Para, Anandapuri, Kolkata, Barrackpore, West Bengal 700123","Mondal Para, Anandapuri","19/5, Old Calcutta Rd","Kolkata, Barrackpore",700123,West Bengal,IN,https://www.google.com/maps/place/Eidgah/data=!4m7!3m6!1s0x39f89ba871da235f:0x7c8a9a297fe8abc5!8m2!3d22.7438656!4d88.3837686!16s%2Fg%2F11r8j51zhx!19sChIJXyPacaib-DkRxavofymainw?authuser=0&hl=en&rclk=1,"22.7438656,88.3837686"
