name,main_category,address,address_ward,address_street,address_city,address_postal_code,address_state,address_country_code,link,coordinates
ABUBAKAR MASJID,Mosque,"V8PX+9H2 ABUBAKAR MASJID, Bari Colony, Kiradpura, Aurangabad, Maharashtra 431003","Bari Colony, Kiradpura",V8PX+9H2,Aurangabad,431003,Maharashtra,IN,https://www.google.com/maps/place/ABUBAKAR+MASJID/data=!4m7!3m6!1s0x3bdba2a243d0a92f:0x298ae9ab0d4c2537!8m2!3d19.8858929!4d75.3488946!16s%2Fg%2F1pv2l7p_x!19sChIJL6nQQ6Ki2zsRNyVMDavpiik?authuser=0&hl=en&rclk=1,"19.885892899999998,75.3488946"
Meraj Masjid,Mosque,"Meraj Masjid, juna Munda, Old Mondha Rd, nizam ganj colony, Sanjay Nagar, Mondha, Aurangabad, Maharashtra 431001","Sanjay Nagar, Mondha","juna Munda, Old Mondha Rd, nizam ganj colony",Aurangabad,431001,Maharashtra,IN,https://www.google.com/maps/place/Meraj+Masjid/data=!4m7!3m6!1s0x3bdb987551a63aeb:0xe41f9e16f8863903!8m2!3d19.8830248!4d75.3406465!16s%2Fg%2F1tcy2rrl!19sChIJ6zqmUXWY2zsRAzmG-BaeH-Q?authuser=0&hl=en&rclk=1,"19.883024799999998,75.34064649999999"
Jama Masjid,Mosque,"V8RG+JC7 Jama Masjid, Station Rd, Buddi lane, Naralibag, Aurangabad, Maharashtra 431001","Buddi lane, Naralibag","V8RG+JC7, Station Rd",Aurangabad,431001,Maharashtra,IN,https://www.google.com/maps/place/Jama+Masjid/data=!4m7!3m6!1s0x3bdb9810fb2d45a5:0xc44346060f0ae89a!8m2!3d19.8915478!4d75.3260378!16s%2Fm%2F0gvs97n!19sChIJpUUt-xCY2zsRmugKDwZGQ8Q?authuser=0&hl=en&rclk=1,"19.891547799999998,75.3260378"
Shahganj Masjid,Mosque,"Shahganj Masjid, Trilok Plaza, Sarafa Rd, Mahavir Chowk, Shahgunj, Aurangabad, Maharashtra 431001","Mahavir Chowk, Shahgunj","Trilok Plaza, Sarafa Rd",Aurangabad,431001,Maharashtra,IN,https://www.google.com/maps/place/Shahganj+Masjid/data=!4m7!3m6!1s0x3bdb980c7605cd0f:0xf0ef833db98a8ab1!8m2!3d19.8871954!4d75.3349619!16s%2Fg%2F11c0wf0p05!19sChIJD80FdgyY2zsRsYqKuT2D7_A?authuser=0&hl=en&rclk=1,"19.8871954,75.3349619"
Mubarak,Men's clothing store,"V8QJ+C83 Mubarak, City Chowk Majjid, City Chowk, Aurangabad, Maharashtra 431001","City Chowk, Sarafa Bazaar, Shahgunj","V8QJ+C83, City Chowk Majjid",Aurangabad,431001,Maharashtra,IN,https://www.google.com/maps/place/Mubarak/data=!4m7!3m6!1s0x3bdb980e72562725:0x1405c99f2c829731!8m2!3d19.8885079!4d75.330785!16s%2Fg%2F1hm41835s!19sChIJJSdWcg6Y2zsRMZeCLJ_JBRQ?authuser=0&hl=en&rclk=1,"19.8885079,75.33078499999999"
Amanullah Motiwala Masjid,Mosque,"V9H2+WP2 Amanullah Motiwala Masjid, Motiwala Nagar, Indira Nagar, M G M, Aurangabad, Maharashtra 431003","Motiwala Nagar, Indira Nagar, M G M",V9H2+WP2,Aurangabad,431003,Maharashtra,IN,https://www.google.com/maps/place/Amanullah+Motiwala+Masjid/data=!4m7!3m6!1s0x3bdba299e93ac58d:0x444202ed7fe905f6!8m2!3d19.8797555!4d75.3517568!16s%2Fg%2F1tj4fhtk!19sChIJjcU66Zmi2zsR9gXpf-0CQkQ?authuser=0&hl=en&rclk=1,"19.879755499999998,75.35175679999999"
Chistiya Masjid,Mosque,"Chistiya Masjid, Main Rd, behind Chistiya Masjid, Arun Uday Colony, N-6, Cidco, Aurangabad, Maharashtra 431001","Arun Uday Colony, N-6, Cidco","Main Rd, behind Chistiya Masjid",Aurangabad,431001,Maharashtra,IN,https://www.google.com/maps/place/Chistiya+Masjid/data=!4m7!3m6!1s0x3bdba294155f8de9:0xa31e215af23e451c!8m2!3d19.8811355!4d75.3601729!16s%2Fg%2F1hm3zzkn_!19sChIJ6Y1fFZSi2zsRHEU-8lohHqM?authuser=0&hl=en&rclk=1,"19.8811355,75.3601729"
Masjid Tauheed (Ahle Hadith Masjid),Mosque,"V8RG+343 Masjid Tauheed (Ahle Hadith Masjid), Town Hall, Buddi lane, Naralibag, Aurangabad, Maharashtra 431001","Town Hall, Buddi lane, Naralibag",V8RG+343,Aurangabad,431001,Maharashtra,IN,https://www.google.com/maps/place/Masjid+Tauheed+%28Ahle+Hadith+Masjid%29/data=!4m7!3m6!1s0x3bdb98111795b88b:0x9ec0a2cd552252b1!8m2!3d19.8901453!4d75.3252918!16s%2Fg%2F11c54bd_bt!19sChIJi7iVFxGY2zsRsVIiVc2iwJ4?authuser=0&hl=en&rclk=1,"19.8901453,75.3252918"
Shahi Masjid (Alamgir Mosque) Aurangabad,Mosque,"Shahi Masjid (Alamgir Mosque) Aurangabad, Govt.College, Qila Arq, Aurangabad, Maharashtra 431004",Qila Arq,Govt.College,Aurangabad,431004,Maharashtra,IN,https://www.google.com/maps/place/Shahi+Masjid+%28Alamgir+Mosque%29+Aurangabad/data=!4m7!3m6!1s0x3bdb980583be1d81:0xb4e5ba184d626f42!8m2!3d19.8949872!4d75.3327911!16s%2Fg%2F1w0qzcmb!19sChIJgR2-gwWY2zsRQm9iTRi65bQ?authuser=0&hl=en&rclk=1,"19.8949872,75.3327911"
Noor Masjid,Mosque,"Noor Masjid, Near, Lane Number 8, New Baijipura, Indira Nagar, M G M, Aurangabad, Maharashtra 431001","New Baijipura, Indira Nagar, M G M","Near, Lane Number 8",Aurangabad,431001,Maharashtra,IN,https://www.google.com/maps/place/Noor+Masjid/data=!4m7!3m6!1s0x3bdba2986292c1a9:0xd6895243a3dbe87a!8m2!3d19.8834551!4d75.350049!16s%2Fg%2F11b7xkmv5v!19sChIJqcGSYpii2zsReujbo0NSidY?authuser=0&hl=en&rclk=1,"19.8834551,75.350049"
"Masjid Islam Batis Ahle Hadees (Zohar-1:00, Juma-12:50, Isha-9:00) & Madrasa Usman Ghani",Mosque,"V9M3+F7J Masjid Islam Batis Ahle Hadees (Zohar-1:00, Juma-12:50, Isha-9:00) & Madrasa Usman Ghani, I & II Floor, Masjid Islam Batais,, Central Naka Rd, Indira Nagar, Jaswantpura, Aurangabad, Maharashtra 431001","Indira Nagar, Jaswantpura","V9M3+F7J, I & II Floor, Masjid Islam Batais,, Central Naka Rd",Aurangabad,431001,Maharashtra,IN,"https://www.google.com/maps/place/Masjid+Islam+Batis+Ahle+Hadees+%28Zohar-1:00,+Juma-12:50,+Isha-9:00%29+%26+Madrasa+Usman+Ghani/data=!4m7!3m6!1s0x3bdba297f73fe1f1:0x6dfe56d3a68d3669!8m2!3d19.883722!4d75.3531375!16s%2Fg%2F11b5yss2dz!19sChIJ8eE_95ei2zsRaTaNptNW_m0?authuser=0&hl=en&rclk=1","19.883722,75.3531375"
Masjid -e-Rahmaniya(Ahle Sunnat Wa Jamaat),Mosque,"Masjid -e-Rahmaniya(Ahle Sunnat Wa Jamaat), Standard Silk Mills Compound, Paithan Rd, beside flyover, Aurangabad, Maharashtra 431010","Standard Silk Mills Compound, Sadat Nagar","Standard Silk Mills Compound, Paithan Rd, beside flyover",Aurangabad,431010,Maharashtra,IN,https://www.google.com/maps/place/Masjid+-e-Rahmaniya%28Ahle+Sunnat+Wa+Jamaat%29/data=!4m7!3m6!1s0x3bdb9857d420b25b:0xb951a8a876fcaece!8m2!3d19.8573717!4d75.3036561!16s%2Fg%2F1ts2yr85!19sChIJW7Ig1FeY2zsRzq78dqioUbk?authuser=0&hl=en&rclk=1,"19.857371699999998,75.3036561"
Imad Masjid `md msjd,Mosque,"V8RV+8VH Imad Masjid `md msjd, Islam Darwaza, Younus Colony, Sharif Colony, Kiradpura, Aurangabad, Maharashtra 431003","Younus Colony, Sharif Colony, Kiradpura","V8RV+8VH, Islam Darwaza",Aurangabad,431003,Maharashtra,IN,https://www.google.com/maps/place/Imad+Masjid+%D8%B9%D9%85%D8%A7%D8%AF+%D9%85%D8%B3%D8%AC%D8%AF%E2%80%AD/data=!4m7!3m6!1s0x3bdba2a6dc14180d:0x76e2dff84b4e2960!8m2!3d19.8908022!4d75.3447492!16s%2Fg%2F11h0p3dn7!19sChIJDRgU3Kai2zsRYClOS_jf4nY?authuser=0&hl=en&rclk=1,"19.8908022,75.3447492"
Mohammadi Masjid,Mosque,"Mohammadi Masjid, V8QR+4WX Shah Bazar, Champa Chowk Rd, Kaiser Colony, Shahgunj, Aurangabad, Maharashtra 431001","Kaiser Colony, Shahgunj","V8QR+4WX Shah Bazar, Champa Chowk Rd",Aurangabad,431001,Maharashtra,IN,https://www.google.com/maps/place/Mohammadi+Masjid/data=!4m7!3m6!1s0x3bdba2a095cff9b5:0xbbfcd66cd5af6195!8m2!3d19.8878576!4d75.3423501!16s%2Fg%2F11b6v8p9wf!19sChIJtfnPlaCi2zsRlWGv1WzW_Ls?authuser=0&hl=en&rclk=1,"19.8878576,75.34235009999999"
Sadat Masjid,Mosque,"V8QW+W42 Sadat Masjid, Azam Colony, Sharif Colony, Jaswantpura, Aurangabad, Maharashtra 431001","Azam Colony, Sharif Colony, Jaswantpura",V8QW+W42,Aurangabad,431001,Maharashtra,IN,https://www.google.com/maps/place/Sadat+Masjid/data=!4m7!3m6!1s0x3bdba2a6cca1481b:0xcf8f7a13e399bac2!8m2!3d19.8897715!4d75.3452522!16s%2Fg%2F1q6kk0c20!19sChIJG0ihzKai2zsRwrqZ4xN6j88?authuser=0&hl=en&rclk=1,"19.8897715,75.34525219999999"
"Sunheri Masjid, Aurangabad - snhry msjd, wrngbd",Mosque,"V8PJ+MX8 Sunheri Masjid, Aurangabad - snhry msjd, wrngbd, Pandariba Rd, Mahavir Chowk, Shahgunj, Aurangabad, Maharashtra 431001","Mahavir Chowk, Shahgunj","V8PJ+MX8, Pandariba Rd",Aurangabad,431001,Maharashtra,IN,"https://www.google.com/maps/place/Sunheri+Masjid,+Aurangabad+-+%D8%B3%D9%86%DB%81%D8%B1%DB%8C+%D9%85%D8%B3%D8%AC%D8%AF%D8%8C+%D8%A7%D9%88%D8%B1%D8%A7%D9%86%DA%AF%D8%A7%D8%A8%D8%A7%D8%AF%E2%80%AD/data=!4m7!3m6!1s0x3bdb980db329b967:0xa00c85c71c662a45!8m2!3d19.886658!4d75.332442!16s%2Fg%2F11b6zqmtqx!19sChIJZ7kpsw2Y2zsRRSpmHMeFDKA?authuser=0&hl=en&rclk=1","19.886658,75.332442"
Aulia Masjid.msjd wly,Mosque,"W83V+R2P Aulia Masjid.msjd wly, Harsul Rd, near Primary School, Rauza Baug, N 2, Cidco, Aurangabad, Maharashtra 431001","Rauza Baug, N 2, Cidco","W83V+R2P, Harsul Rd, near Primary School",Aurangabad,431001,Maharashtra,IN,https://www.google.com/maps/place/Aulia+Masjid.%D9%85%D8%B3%D8%AC%D8%AF+%D8%A7%D9%88%D9%84%DB%8C%D8%A7%D8%A1%E2%80%AD/data=!4m7!3m6!1s0x3bdba2aa8d01e71b:0x548019f7861466c5!8m2!3d19.904595!4d75.3425709!16s%2Fg%2F1ptw12qlc!19sChIJG-cBjaqi2zsRxWYUhvcZgFQ?authuser=0&hl=en&rclk=1,"19.904595,75.3425709"
Usmaniya Masjid,Mosque,"V8VW+7G7 Usmaniya Masjid, Aurangabad Times Colony, Sadaf Colony, N 10, Times Colony, Aurangabad, Maharashtra 431001","Aurangabad Times Colony, Sadaf Colony, N 10, Times Colony",V8VW+7G7,Aurangabad,431001,Maharashtra,IN,https://www.google.com/maps/place/Usmaniya+Masjid/data=!4m7!3m6!1s0x3bdba2a664c9b113:0x7a8b3d36149d4f2b!8m2!3d19.8931738!4d75.3462855!16s%2Fg%2F11b6xr6lyp!19sChIJE7HJZKai2zsRK0-dFDY9i3o?authuser=0&hl=en&rclk=1,"19.8931738,75.3462855"
MASJID JAMIL BAIG AURANGABAD,Mosque,"V8Q8+XF7 MASJID JAMIL BAIG AURANGABAD, in front of Mohamood Darwaja, Panchakki, Naralibag, Aurangabad, Maharashtra 431001",Naralibag,"V8Q8+XF7, in front of Mohamood Darwaja, Panchakki",Aurangabad,431001,Maharashtra,IN,https://www.google.com/maps/place/MASJID+JAMIL+BAIG+AURANGABAD/data=!4m7!3m6!1s0x3bdb983da6daace3:0x7a629d13eb9e5e83!8m2!3d19.8899173!4d75.3161641!16s%2Fg%2F1tcyq8_t!19sChIJ46zapj2Y2zsRg16e6xOdYno?authuser=0&hl=en&rclk=1,"19.8899173,75.3161641"
Kali Masjid T.T.S(Ahle Sunnat Wa Jamaat),Mosque,"V8QQ+FR5 Kali Masjid T.T.S(Ahle Sunnat Wa Jamaat), Shah Bazar Rd, Labar Colony, Shah Bazar, Aurangabad, Maharashtra 431003","Labar Colony, Shah Bazar","V8QQ+FR5, Shah Bazar Rd",Aurangabad,431003,Maharashtra,IN,https://www.google.com/maps/place/Kali+Masjid+T.T.S%28Ahle+Sunnat+Wa+Jamaat%29/data=!4m7!3m6!1s0x3bdb980a22ef1399:0x2c6f2b54af2dd572!8m2!3d19.8886445!4d75.3396184!16s%2Fg%2F11cm0hknwg!19sChIJmRPvIgqY2zsRctUtr1Qrbyw?authuser=0&hl=en&rclk=1,"19.888644499999998,75.33961839999999"
"Jama Masjid Chawni, Aurangabad - jm` msjd chhw'ny, wrngbd",Mosque,"Jama Masjid Chawni, Aurangabad - jm` msjd chhw'ny, wrngbd, Ward Number 1,Cantonment, Gaulipura, Aurangabad, Maharashtra 431002","Ward Number 1, Aurangabad Cantonment, Gaulipura","Ward Number 1,Cantonment",Aurangabad,431002,Maharashtra,IN,"https://www.google.com/maps/place/Jama+Masjid+Chawni,+Aurangabad+-+%D8%AC%D8%A7%D9%85%D8%B9+%D9%85%D8%B3%D8%AC%D8%AF+%DA%86%DA%BE%D8%A7%D8%A4%D9%86%DB%8C%D8%8C+%D8%A7%D9%88%D8%B1%D8%A7%D9%86%DA%AF%D8%A7%D8%A8%D8%A7%D8%AF%E2%80%AD/data=!4m7!3m6!1s0x3bdb98385d57a999:0x8e9e8838900e8f33!8m2!3d19.8822406!4d75.308449!16s%2Fg%2F11bwky0w1b!19sChIJmalXXTiY2zsRM48OkDiIno4?authuser=0&hl=en&rclk=1","19.8822406,75.308449"
INAAYA MANZIL,Mosque,"H.no 5, INAAYA MANZIL, 19-75, sabzi mandi, near bagwan masjid, Paithan Gate, Khokadpura, Banjara Colony, Aurangabad, Maharashtra 431001","Paithan Gate, Khokadpura, Banjara Colony","H.no 5, 19-75, sabzi mandi, near bagwan masjid",Aurangabad,431001,Maharashtra,IN,https://www.google.com/maps/place/INAAYA+MANZIL/data=!4m7!3m6!1s0x3bdb98727e805761:0xdd266416de015526!8m2!3d19.8790274!4d75.3298429!16s%2Fg%2F11b6qn_q77!19sChIJYVeAfnKY2zsRJlUB3hZkJt0?authuser=0&hl=en&rclk=1,"19.8790274,75.3298429"
Choti Masjid,Mosque,"V8V8+R7G Choti Masjid, Jaisingpura, Begumpura, Aurangabad, Maharashtra 431001","Jaisingpura, Begumpura",V8V8+R7G,Aurangabad,431001,Maharashtra,IN,https://www.google.com/maps/place/Choti+Masjid/data=!4m7!3m6!1s0x3bdb9822e7fd2f6b:0xd38a98af3485ef16!8m2!3d19.894551!4d75.315699!16s%2Fg%2F11b6ws3k9m!19sChIJay_95yKY2zsRFu-FNK-YitM?authuser=0&hl=en&rclk=1,"19.894551,75.315699"
Masjid e shekhan (hari masjid),Mosque,"V8MP+7R9 Masjid e shekhan (hari masjid), hari masjid,nawabpura road, Aurangabad","Juna Mondha, Old Mondha, Mondha","V8MP+7R9, hari masjid,nawabpura road",Aurangabad,,Maharashtra,IN,https://www.google.com/maps/place/Masjid+e+shekhan+%28hari+masjid%29/data=!4m7!3m6!1s0x3bdb9874cb3b8f15:0x8d6d23daf6897f0d!8m2!3d19.8831582!4d75.3371062!16s%2Fg%2F11csbnt8zq!19sChIJFY87y3SY2zsRDX-J9tojbY0?authuser=0&hl=en&rclk=1,"19.8831582,75.3371062"
Abubakar masjid,Mosque,"V8WW+G3F Abubakar masjid, N 10, Cidco, Aurangabad, Maharashtra 431003","N 10, Cidco",V8WW+G3F,Aurangabad,431003,Maharashtra,IN,https://www.google.com/maps/place/Abubakar+masjid/data=!4m7!3m6!1s0x3bdba2a890b00cf3:0x550a70f5f68fda84!8m2!3d19.896302!4d75.3451824!16s%2Fg%2F1ygjd46hn!19sChIJ8wywkKii2zsRhNqP9vVwClU?authuser=0&hl=en&rclk=1,"19.896302,75.3451824"
Alamgir Masjid,Mosque,"V83W+998 Alamgir Masjid, Gadiya Vihar Road, Indranagar, Garkheda, Aurangabad, Maharashtra 431005","Indranagar, Garkheda","V83W+998, Gadiya Vihar Road",Aurangabad,431005,Maharashtra,IN,https://www.google.com/maps/place/Alamgir+Masjid/data=!4m7!3m6!1s0x3bdba27969f65855:0x5009c3a20f30e1f0!8m2!3d19.8534052!4d75.3459656!16s%2Fg%2F11c2lpm4gc!19sChIJVVj2aXmi2zsR8OEwD6LDCVA?authuser=0&hl=en&rclk=1,"19.853405199999997,75.3459656"
"Rahim Masjid,Aurangabad",Mosque,"R9X2+WQ3 Rahim Masjid,Aurangabad, Beed Bypass Rd, Deolali Chowk, Rahim Nagar, Aurangabad, Maharashtra 431001","Deolali Chowk, Rahim Nagar","R9X2+WQ3, Beed Bypass Rd",Aurangabad,431001,Maharashtra,IN,"https://www.google.com/maps/place/Rahim+Masjid,Aurangabad/data=!4m7!3m6!1s0x3bdba27aa127a2e9:0xd13d818b34681a82!8m2!3d19.849767!4d75.351925!16s%2Fg%2F1tfxwh0d!19sChIJ6aInoXqi2zsRghpoNIuBPdE?authuser=0&hl=en&rclk=1","19.849767,75.351925"
Muhammadi Masjid,Mosque,"V8WV+JHH Muhammadi Masjid, Majnu Hill Rd, Rashidpura, N 10, Cidco, Aurangabad, Maharashtra 431003","Rashidpura, N 10, Cidco","V8WV+JHH, Majnu Hill Rd",Aurangabad,431003,Maharashtra,IN,https://www.google.com/maps/place/Muhammadi+Masjid/data=!4m7!3m6!1s0x3bdba2a8f552e299:0x8d1d7497bc06d609!8m2!3d19.8965713!4d75.3439976!16s%2Fg%2F11ddwxq220!19sChIJmeJS9aii2zsRCdYGvJd0HY0?authuser=0&hl=en&rclk=1,"19.896571299999998,75.3439976"
Arif Masjid,Mosque,"Arif Masjid, 196, 196, Arif Colony, Aurangabad, Maharashtra 431004",Arif Colony,"196, 196",Aurangabad,431004,Maharashtra,IN,https://www.google.com/maps/place/Arif+Masjid/data=!4m7!3m6!1s0x3bdb981bc11af693:0xfca49bc9c332493e!8m2!3d19.8979546!4d75.3248714!16s%2Fg%2F11c4jvn07k!19sChIJk_YawRuY2zsRPkkyw8mbpPw?authuser=0&hl=en&rclk=1,"19.8979546,75.32487139999999"
Makkah Masjid,Mosque,"V8QH+8H2 Makkah Masjid, Juna Bazar, City Chowk, Juna Bazaar, Shahgunj, Aurangabad, Maharashtra 431001","Juna Bazar, City Chowk, Juna Bazaar, Shahgunj",V8QH+8H2,Aurangabad,431001,Maharashtra,IN,https://www.google.com/maps/place/Makkah+Masjid/data=!4m7!3m6!1s0x3bdb9822a0ac0a89:0xffbc2df1222956de!8m2!3d19.888251!4d75.328879!16s%2Fg%2F1yfh_kmt4!19sChIJiQqsoCKY2zsR3lYpIvEtvP8?authuser=0&hl=en&rclk=1,"19.888251,75.328879"
Motikaranja Masjid,Mosque,"V8MM+8J6 Motikaranja Masjid, Khokadpura, Mondha, Aurangabad, Maharashtra 431001","Khokadpura, Mondha",V8MM+8J6,Aurangabad,431001,Maharashtra,IN,https://www.google.com/maps/place/Motikaranja+Masjid/data=!4m7!3m6!1s0x3bdb980cb59ec3cd:0xa6509a6e09217c45!8m2!3d19.8832865!4d75.3340147!16s%2Fg%2F1tjys1xs!19sChIJzcOetQyY2zsRRXwhCW6aUKY?authuser=0&hl=en&rclk=1,"19.8832865,75.3340147"
Choti Masjid Chawni,Mosque,"Choti Masjid Chawni, 659, CBS Road, Pensionpura, Aurangabad Cantonment, Mhada, Aurangabad, Maharashtra 431002","Pensionpura, Aurangabad Cantonment, Mhada","659, CBS Road",Aurangabad,431002,Maharashtra,IN,https://www.google.com/maps/place/Choti+Masjid+Chawni/data=!4m7!3m6!1s0x3bdb98388f858ee9:0xe3ee11ed7e3c9070!8m2!3d19.8817002!4d75.3097709!16s%2Fg%2F11bwptn6hp!19sChIJ6Y6FjziY2zsRcJA8fu0R7uM?authuser=0&hl=en&rclk=1,"19.881700199999997,75.30977089999999"
Shia Masjid,Mosque,"Shia Masjid, 1-12-85, opposite Shia masjid, Rauf Colony, Buddi lane, Naralibag, Aurangabad, Maharashtra 431001","Rauf Colony, Buddi lane, Naralibag","1-12-85, opposite Shia masjid",Aurangabad,431001,Maharashtra,IN,https://www.google.com/maps/place/Shia+Masjid/data=!4m7!3m6!1s0x3bdb9811eb12df3f:0x764cadb0464a7ee8!8m2!3d19.8895167!4d75.3282261!16s%2Fg%2F11b6z00p2d!19sChIJP98S6xGY2zsR6H5KRrCtTHY?authuser=0&hl=en&rclk=1,"19.889516699999998,75.3282261"
Toti Ki Masjid (Juma-1:00),Mosque,"V8QP+J7F Toti Ki Masjid (Juma-1:00), Naralibag Rd, near toti ki masjid, Chelipura, Naralibag, Aurangabad, Maharashtra 431001","Chelipura, Naralibag","V8QP+J7F, Naralibag Rd, near toti ki masjid",Aurangabad,431001,Maharashtra,IN,https://www.google.com/maps/place/Toti+Ki+Masjid+%28Juma-1:00%29/data=!4m7!3m6!1s0x3bdb980955b583bb:0xefb7f88b8429b1f5!8m2!3d19.8890567!4d75.3356615!16s%2Fg%2F11b6t_fx6p!19sChIJu4O1VQmY2zsR9bEphIv4t-8?authuser=0&hl=en&rclk=1,"19.889056699999998,75.3356615"
"Taha Masjid, Aurangabad - msjd, wrngbd",Mosque,"V9V2+99X Taha Masjid, Aurangabad - msjd, wrngbd, Aurangabad - Phulambri - Sillod Rd, Babar Colony, Kat Kat Gate, Jaswantpura, Aurangabad, Maharashtra 431003","Babar Colony, Kat Kat Gate, Jaswantpura","V9V2+99X, Aurangabad - Phulambri - Sillod Rd",Aurangabad,431003,Maharashtra,IN,"https://www.google.com/maps/place/Taha+Masjid,+Aurangabad+-+%D9%85%D8%B3%D8%AC%D8%AF%D8%8C+%D8%A7%D9%88%D8%B1%D8%A7%D9%86%DA%AF%D8%A7%D8%A8%D8%A7%D8%AF%E2%80%AD/data=!4m7!3m6!1s0x3bdba2a51bf1460f:0x54340e6886a58536!8m2!3d19.8934949!4d75.3509921!16s%2Fg%2F11b6z_cgz_!19sChIJD0bxG6Wi2zsRNoWlhmgONFQ?authuser=0&hl=en&rclk=1","19.8934949,75.3509921"
Kali Masjid City Chowk,Mosque,"V8QH+4QX Kali Masjid City Chowk, Rangar Galli, near Surat Tex, City Chowk, Gulmandi, Shahgunj, Aurangabad, Maharashtra 431001","City Chowk, Gulmandi, Shahgunj","V8QH+4QX, Rangar Galli, near Surat Tex",Aurangabad,431001,Maharashtra,IN,https://www.google.com/maps/place/Kali+Masjid+City+Chowk/data=!4m7!3m6!1s0x3bdb980a229c350f:0xca591f511a516524!8m2!3d19.8878524!4d75.3294777!16s%2Fg%2F1hhgf7kwr!19sChIJDzWcIgqY2zsRJGVRGlEfWco?authuser=0&hl=en&rclk=1,"19.8878524,75.3294777"
Rahema Masjid,Mosque,"V8MW+QXM Rahema Masjid, Indira Nagar, M G M, Aurangabad, Maharashtra 431003","Indira Nagar, M G M",V8MW+QXM,Aurangabad,431003,Maharashtra,IN,https://www.google.com/maps/place/Rahema+Masjid/data=!4m7!3m6!1s0x3bdba2a206aa0aab:0x3cb2c97d2d74cafa!8m2!3d19.8844552!4d75.3474294!16s%2Fg%2F11b8_glskk!19sChIJqwqqBqKi2zsR-sp0LX3Jsjw?authuser=0&hl=en&rclk=1,"19.884455199999998,75.3474294"
"Jama Masjid, Rauza Bagh",Mosque,"W84V+69V Jama Masjid, Rauza Bagh, beside Azad College, Rauza Baug, N 2, Cidco, Aurangabad, Maharashtra 431001","Rauza Baug, N 2, Cidco","W84V+69V, beside Azad College",Aurangabad,431001,Maharashtra,IN,"https://www.google.com/maps/place/Jama+Masjid,+Rauza+Bagh/data=!4m7!3m6!1s0x3bdba2aadd4da865:0x7d1a4c04f487a0d3!8m2!3d19.9056001!4d75.3434161!16s%2Fg%2F11c6qcmjsy!19sChIJZahN3aqi2zsR06CH9ARMGn0?authuser=0&hl=en&rclk=1","19.905600099999997,75.3434161"
Najmi Masjid,Mosque,"V8PM+V39 Najmi Masjid, Sarafa Rd, Mahavir Chowk, Bohri Kathra, Aurangabad, Maharashtra 431001","Mahavir Chowk, Bohri Kathra","V8PM+V39, Sarafa Rd",Aurangabad,431001,Maharashtra,IN,https://www.google.com/maps/place/Najmi+Masjid/data=!4m7!3m6!1s0x3bdb980c4a6c041f:0x3c9c1b1eaa849ee2!8m2!3d19.8871528!4d75.3327246!16s%2Fg%2F11bw7cwbwm!19sChIJHwRsSgyY2zsR4p6Eqh4bnDw?authuser=0&hl=en&rclk=1,"19.8871528,75.33272459999999"
Muhammadiya Masjid,Mosque,"V9P2+7W6 Muhammadiya Masjid, Altamash Colony, Rahemania Colony, Kiradpura, Aurangabad, Maharashtra 431003","Altamash Colony, Rahemania Colony, Kiradpura",V9P2+7W6,Aurangabad,431003,Maharashtra,IN,https://www.google.com/maps/place/Muhammadiya+Masjid/data=!4m7!3m6!1s0x3bdba2a2b9e79803:0x138ff8ade5d711f6!8m2!3d19.8856704!4d75.352265!16s%2Fg%2F11c326z25f!19sChIJA5jnuaKi2zsR9hHX5a34jxM?authuser=0&hl=en&rclk=1,"19.8856704,75.352265"
Masjid-e-Ilyas,Mosque,"V9Q3+VH3 Masjid-e-Ilyas, Rahemania Colony, Jaswantpura, Aurangabad, Maharashtra 431003","Rahemania Colony, Jaswantpura",V9Q3+VH3,Aurangabad,431003,Maharashtra,IN,https://www.google.com/maps/place/Masjid-e-Ilyas/data=!4m7!3m6!1s0x3bdba2bcbb470c71:0xc85508284d364bdd!8m2!3d19.8896435!4d75.3539284!16s%2Fg%2F11dy1mt084!19sChIJcQxHu7yi2zsR3Us2TSgIVcg?authuser=0&hl=en&rclk=1,"19.8896435,75.3539284"
Badi masjid Jaising Pura,Mosque,"V8V7+RRH Badi masjid Jaising Pura, Jaisingpura, Begumpura, Aurangabad, Maharashtra 431004","Jaisingpura, Begumpura",V8V7+RRH,Aurangabad,431004,Maharashtra,IN,https://www.google.com/maps/place/Badi+masjid+Jaising+Pura/data=!4m7!3m6!1s0x3bdb982318d265b7:0x67246f14f33f06f5!8m2!3d19.8945625!4d75.3146094!16s%2Fg%2F11df65z1j7!19sChIJt2XSGCOY2zsR9QY_8xRvJGc?authuser=0&hl=en&rclk=1,"19.8945625,75.3146094"
Arfat Masjid,Mosque,"V845+22W Arfat Masjid, Beed Bypass Rd, beside safa cominication, Hamid Colony, MIDC, Hamid chowk, Aurangabad, Maharashtra 431002","Hamid Colony, MIDC, Hamid chowk","V845+22W Arfat Masjid, Beed Bypass Rd, beside safa cominication",Aurangabad,431002,Maharashtra,IN,https://www.google.com/maps/place/Arfat+Masjid/data=!4m7!3m6!1s0x3bdb98f797659c49:0xf74f97f0ee29e255!8m2!3d19.8553689!4d75.3074504!16s%2Fg%2F11c0p_k34j!19sChIJSZxll_eY2zsRVeIp7vCXT_c?authuser=0&hl=en&rclk=1,"19.8553689,75.3074504"
Jannati Masjid TTS(Ahle Sunnat Wa Jamaat),Mosque,"V8RP+22P Jannati Masjid TTS(Ahle Sunnat Wa Jamaat), New Manzoorpura Rd, Labar Colony, Naralibag, Aurangabad, Maharashtra 431001","Labar Colony, Naralibag","V8RP+22P, New Manzoorpura Rd",Aurangabad,,Maharashtra,IN,https://www.google.com/maps/place/Jannati+Masjid+TTS%28Ahle+Sunnat+Wa+Jamaat%29/data=!4m7!3m6!1s0x3bdb980eb4398cf5:0xe4edffa562462978!8m2!3d19.8900896!4d75.3350933!16s%2Fg%2F11b6t5q8rz!19sChIJ9Yw5tA6Y2zsReClGYqX_7eQ?authuser=0&hl=en&rclk=1,"19.8900896,75.3350933"
Kohinoor Masjid,Mosque,"V8P8+Q7F Kohinoor Masjid, Naralibag, Aurangabad, Maharashtra 431001",Naralibag,V8P8+Q7F,Aurangabad,431001,Maharashtra,IN,https://www.google.com/maps/place/Kohinoor+Masjid/data=!4m7!3m6!1s0x3bdb983e795548e7:0x57342e3900111edb!8m2!3d19.8869358!4d75.3156575!16s%2Fg%2F1tc_zysr!19sChIJ50hVeT6Y2zsR2x4RADkuNFc?authuser=0&hl=en&rclk=1,"19.8869358,75.3156575"
"Aman Masjid, Aurangabad - mn msjd, wrngbd",Mosque,"V9P4+39Q Aman Masjid, Aurangabad - mn msjd, wrngbd, Sambhaji Colony, Mathura Nagar, N-6, Cidco, Aurangabad, Maharashtra 431003","Sambhaji Colony, Mathura Nagar, N-6, Cidco",V9P4+39Q,Aurangabad,431003,Maharashtra,IN,"https://www.google.com/maps/place/Aman+Masjid,+Aurangabad+-+%D8%A7%D9%85%D9%86+%D9%85%D8%B3%D8%AC%D8%AF%D8%8C+%D8%A7%D9%88%D8%B1%D8%A7%D9%86%DA%AF%D8%A7%D8%A8%D8%A7%D8%AF%E2%80%AD/data=!4m7!3m6!1s0x3bdba2bd83d2cd49:0x1d7d270a24e87ff7!8m2!3d19.8852069!4d75.355975!16s%2Fg%2F11b6wsfdg4!19sChIJSc3Sg72i2zsR93_oJAonfR0?authuser=0&hl=en&rclk=1","19.8852069,75.355975"
Kohinoor Masjid,Mosque,"W86X+G47 Kohinoor Masjid, Jalgaon Rd, Hudco, Yadav Nagar, N 11, Cidco, Aurangabad, Maharashtra 431003","Hudco, Yadav Nagar, N 11, Cidco","W86X+G47, Jalgaon Rd",Aurangabad,431003,Maharashtra,IN,https://www.google.com/maps/place/Kohinoor+Masjid/data=!4m7!3m6!1s0x3bdbbd5391e1cb11:0x70bccdb62dce1b0c!8m2!3d19.9112801!4d75.3477815!16s%2Fg%2F11ckqsyndw!19sChIJEcvhkVO92zsRDBvOLbbNvHA?authuser=0&hl=en&rclk=1,"19.9112801,75.3477815"
Mominpura Masjid msjd,Mosque,"V8QM+RGX Mominpura Masjid msjd, Lota Karanja Rd, Manzoor Pura, Naralibag, Aurangabad, Maharashtra 431001","Manzoor Pura, Naralibag","V8QM+RGX, Lota Karanja Rd",Aurangabad,431001,Maharashtra,IN,https://www.google.com/maps/place/Mominpura+Masjid+%D9%85%D8%B3%D8%AC%D8%AF%E2%80%AD/data=!4m7!3m6!1s0x3bdb980e97c65669:0xc6138a3d34b284dd!8m2!3d19.889618!4d75.3338519!16s%2Fg%2F11b6z5bsh5!19sChIJaVbGlw6Y2zsR3YSyND2KE8Y?authuser=0&hl=en&rclk=1,"19.889618,75.3338519"
Bilal Masjid T.T.S (Ahle Sunnat Wa Jamaat),Mosque,"V8RR+R8V Bilal Masjid T.T.S (Ahle Sunnat Wa Jamaat), Labar Colony, St Colony, Shah Bazar, Aurangabad, Maharashtra 431003","Labar Colony, Saint Colony, Shah Bazar",V8RR+R8V,Aurangabad,431003,Maharashtra,IN,https://www.google.com/maps/place/Bilal+Masjid+T.T.S+%28Ahle+Sunnat+Wa+Jamaat%29/data=!4m7!3m6!1s0x3bdb9809d36e5d3b:0xd7d77f009b5fdfb3!8m2!3d19.892125!4d75.3407913!16s%2Fg%2F11dyqswwpv!19sChIJO11u0wmY2zsRs99fmwB_19c?authuser=0&hl=en&rclk=1,"19.892125,75.34079129999999"
Roshan Masjid(Ahle Sunnat Wa Jamaat),Mosque,"V8QW+RPM Roshan Masjid(Ahle Sunnat Wa Jamaat), Sharif Colony, Jaswantpura, Aurangabad, Maharashtra 431003","Sharif Colony, Jaswantpura",V8QW+RPM,Aurangabad,431003,Maharashtra,IN,https://www.google.com/maps/place/Roshan+Masjid%28Ahle+Sunnat+Wa+Jamaat%29/data=!4m7!3m6!1s0x3bdba2a15126767d:0x1384dd33931b4b44!8m2!3d19.889584!4d75.3468122!16s%2Fg%2F1hhjsm1wr!19sChIJfXYmUaGi2zsRREsbkzPdhBM?authuser=0&hl=en&rclk=1,"19.889584,75.3468122"
Masjid Abdul Rehman Bin Auf,Mosque,"Plot no.35, Masjid Abdul Rehman Bin Auf, Beed Bypass Rd, Patel Nagar, MIDC, Satara Parisar, Aurangabad, Maharashtra 431005","Patel Nagar, MIDC, Satara Parisar","Plot no.35, Beed Bypass Rd",Aurangabad,431005,Maharashtra,IN,https://www.google.com/maps/place/Masjid+Abdul+Rehman+Bin+Auf/data=!4m7!3m6!1s0x3bdb98f6f38cf833:0xe65d7cbe62979a7b!8m2!3d19.854449!4d75.3103435!16s%2Fg%2F11ddz8nv2l!19sChIJM_iM8_aY2zsRe5qXYr58XeY?authuser=0&hl=en&rclk=1,"19.854449,75.3103435"
Bari Masjid,Mosque,"255, Bari Masjid, 8-19-255, Cidco Rd, Bari Colony, Kiradpura, Aurangabad, Maharashtra 432001","Bari Colony, Kiradpura","255, 8-19-255, Cidco Rd",Aurangabad,432001,Maharashtra,IN,https://www.google.com/maps/place/Bari+Masjid/data=!4m7!3m6!1s0x3bdba2a24b2a90dd:0x76958870b158297e!8m2!3d19.8870954!4d75.3486911!16s%2Fg%2F11bw71l2dx!19sChIJ3ZAqS6Ki2zsRfilYsXCIlXY?authuser=0&hl=en&rclk=1,"19.8870954,75.3486911"
"Jama Masjid Bada Takiya Masjid (Zohar-1:45, Juma-1:45)",Mosque,"Jama Masjid Bada Takiya Masjid (Zohar-1:45, Juma-1:45), 126, Nirala Bazar Rd, Sillikhana, Nutan Colony, Samarth Nagar, Aurangabad, Maharashtra 431001","Sillikhana, Nutan Colony, Samarth Nagar","126, Nirala Bazar Rd",Aurangabad,431001,Maharashtra,IN,"https://www.google.com/maps/place/Jama+Masjid+Bada+Takiya+Masjid+%28Zohar-1:45,+Juma-1:45%29/data=!4m7!3m6!1s0x3bdb986c347d9233:0xd85816a747a00ec3!8m2!3d19.8776458!4d75.3264559!16s%2Fg%2F1v82_kjj!19sChIJM5J9NGyY2zsRww6gR6cWWNg?authuser=0&hl=en&rclk=1","19.8776458,75.3264559"
Ayesha Masjid,Mosque,"W84Q+5FP Ayesha Masjid, Unnamed Rd, Wankhede Nagar, Mahmoodpura, Aurangabad, Maharashtra 431003","Wankhede Nagar, Mahmoodpura","W84Q+5FP, Unnamed Rd",Aurangabad,431003,Maharashtra,IN,https://www.google.com/maps/place/Ayesha+Masjid/data=!4m7!3m6!1s0x3bdb980036a444a5:0x3c19e436d16cc634!8m2!3d19.9054583!4d75.3386982!16s%2Fg%2F11cjk1y871!19sChIJpUSkNgCY2zsRNMZs0TbkGTw?authuser=0&hl=en&rclk=1,"19.9054583,75.3386982"
"Ashrafiya Masjid (Zohar-2:00, Juma-2:20)",Mosque,"V8VR+HXH Ashrafiya Masjid (Zohar-2:00, Juma-2:20), behind panchayat samiti, Rahat Colony, N 10, Cidco, Aurangabad, Maharashtra 431003","Rahat Colony, N 10, Cidco","V8VR+HXH, behind panchayat samiti",Aurangabad,431003,Maharashtra,IN,"https://www.google.com/maps/place/Ashrafiya+Masjid+%28Zohar-2:00,+Juma-2:20%29/data=!4m7!3m6!1s0x3bdba2a7eb1f1031:0x3b3e6812866c7021!8m2!3d19.8939451!4d75.3424788!16s%2Fg%2F11bzv179wt!19sChIJMRAf66ei2zsRIXBshhJoPjs?authuser=0&hl=en&rclk=1","19.8939451,75.3424788"
Masjid Kranti Chowk,Mosque,"V889+VMX Masjid Kranti Chowk, Railway Station Rd, Kranti Chowk, Rachanakar Colony, New Usmanpura, Aurangabad, Maharashtra 431001","Kranti Chowk, Rachanakar Colony, New Usmanpura","V889+VMX, Railway Station Rd",Aurangabad,431001,Maharashtra,IN,https://www.google.com/maps/place/Masjid+Kranti+Chowk/data=!4m7!3m6!1s0x3bdb986e3943d09f:0xaf952a91ca95dc14!8m2!3d19.8672386!4d75.3192192!16s%2Fg%2F1hm25gby1!19sChIJn9BDOW6Y2zsRFNyVypEqla8?authuser=0&hl=en&rclk=1,"19.8672386,75.31921919999999"
Bismillah Masjid (Ahle Sunnat Wa Jamaat),Mosque,"V844+7R4 Bismillah Masjid (Ahle Sunnat Wa Jamaat), Aurangabad Rd, Hamid Colony, Silk Mill Colony, Aurangabad, Maharashtra 431005","Hamid Colony, Silk Mill Colony","V844+7R4, Aurangabad Rd",Aurangabad,431005,Maharashtra,IN,https://www.google.com/maps/place/Bismillah+Masjid+%28Ahle+Sunnat+Wa+Jamaat%29/data=!4m7!3m6!1s0x3bdb98f7922148cb:0xe432256addea25af!8m2!3d19.8556323!4d75.307072!16s%2Fg%2F11cjpb3l4x!19sChIJy0ghkveY2zsRryXq3WolMuQ?authuser=0&hl=en&rclk=1,"19.8556323,75.30707199999999"
Kali Masjid Nawabpura,Mosque,"V8MQ+VPQ Kali Masjid Nawabpura, Nawabpura, Mondha, Aurangabad, Maharashtra 431003","Nawabpura, Mondha",V8MQ+VPQ,Aurangabad,431003,Maharashtra,IN,https://www.google.com/maps/place/Kali+Masjid+Nawabpura/data=!4m7!3m6!1s0x3bdb980ac22e3341:0xa596fdcf668acdd4!8m2!3d19.8847213!4d75.3393543!16s%2Fg%2F11cm0mwryc!19sChIJQTMuwgqY2zsR1M2KZs_9lqU?authuser=0&hl=en&rclk=1,"19.8847213,75.3393543"
Ambia Masjid,Mosque,"Ambia Masjid, 126, Nirala Bazar Rd, Sanmitra Colony, Samarth Nagar, Aurangabad, Maharashtra 431001","Sanmitra Colony, Samarth Nagar","126, Nirala Bazar Rd",Aurangabad,431001,Maharashtra,IN,https://www.google.com/maps/place/Ambia+Masjid/data=!4m7!3m6!1s0x3bdb986b876aa077:0xa30f1f80b6eee5a4!8m2!3d19.8787421!4d75.3236403!16s%2Fg%2F11c6pn0zn2!19sChIJd6Bqh2uY2zsRpOXutoAfD6M?authuser=0&hl=en&rclk=1,"19.8787421,75.3236403"
Mubarak Masjid,Mosque,"V8PW+RM8 Mubarak Masjid, Roshan Gate Rd, Wahed Colony, Sharif Colony, Jaswantpura, Aurangabad, Maharashtra 431003","Wahed Colony, Sharif Colony, Jaswantpura","V8PW+RM8, Roshan Gate Rd",Aurangabad,431003,Maharashtra,IN,https://www.google.com/maps/place/Mubarak+Masjid/data=!4m7!3m6!1s0x3bdba2a17f361c21:0xfe853a49864170ab!8m2!3d19.8870291!4d75.3467106!16s%2Fg%2F11c582h6t9!19sChIJIRw2f6Gi2zsRq3BBhkk6hf4?authuser=0&hl=en&rclk=1,"19.8870291,75.3467106"
"Chaush Colony Masjid (Zohar-1:35, Juma-1:25)",Mosque,"V8RQ+FMF Chaush Colony Masjid (Zohar-1:35, Juma-1:25), Labar Colony, Shah Bazar, Aurangabad, Maharashtra 431003","Labar Colony, Shah Bazar",V8RQ+FMF,Aurangabad,431003,Maharashtra,IN,"https://www.google.com/maps/place/Chaush+Colony+Masjid+%28Zohar-1:35,+Juma-1:25%29/data=!4m7!3m6!1s0x3bdb9809bb04faed:0xe5b9be9daf9ba15b!8m2!3d19.8911779!4d75.3391772!16s%2Fg%2F11c6d9rh7b!19sChIJ7foEuwmY2zsRW6Gbr52-ueU?authuser=0&hl=en&rclk=1","19.8911779,75.3391772"
Memon Masjid,Mosque,"V9F4+C4H Memon Masjid, Rana Nagar, Vidya Nagar, Nyay Nagar, Aurangabad, Maharashtra 431009","Rana Nagar, Vidya Nagar, Nyay Nagar",V9F4+C4H,Aurangabad,431009,Maharashtra,IN,https://www.google.com/maps/place/Memon+Masjid/data=!4m7!3m6!1s0x3bdba2902ebc1d89:0xb701721b816115a1!8m2!3d19.8735625!4d75.3553594!16s%2Fg%2F11g6ms0l_4!19sChIJiR28LpCi2zsRoRVhgRtyAbc?authuser=0&hl=en&rclk=1,"19.8735625,75.3553594"
Hamd Masjid,Mosque,"V8WG+X3X Hamd Masjid, Arif Colony, Aurangabad, Maharashtra 431004",Arif Colony,V8WG+X3X,Aurangabad,431004,Maharashtra,IN,https://www.google.com/maps/place/Hamd+Masjid/data=!4m7!3m6!1s0x3bdb981bb7399239:0x41bb1ec89776541d!8m2!3d19.8974928!4d75.3252425!16s%2Fg%2F11c603zvbw!19sChIJOZI5txuY2zsRHVR2l8geu0E?authuser=0&hl=en&rclk=1,"19.8974928,75.3252425"
Ayesha Masjid,Mosque,"V8VV+2JP Ayesha Masjid, Cidco Rd, Younus Colony, N 10, Cidco, Aurangabad, Maharashtra 431001","Younus Colony, N 10, Cidco","V8VV+2JP, Cidco Rd",Aurangabad,431001,Maharashtra,IN,https://www.google.com/maps/place/Ayesha+Masjid/data=!4m7!3m6!1s0x3bdba2a7aaba8f25:0x60824b213c4485d!8m2!3d19.8925832!4d75.3440724!16s%2Fg%2F11b6q46sv5!19sChIJJY-6qqei2zsRXUjEE7IkCAY?authuser=0&hl=en&rclk=1,"19.8925832,75.3440724"
Syeda masjid Aurangabad,Mosque,"Syeda masjid Aurangabad, 431003, 3-2-34, Gali Number 10, Rahemania Colony, Jaswantpura, Aurangabad, Maharashtra 431001","Rahemania Colony, Jaswantpura","431003, 3-2-34, Gali Number 10",Aurangabad,431001,Maharashtra,IN,https://www.google.com/maps/place/Syeda+masjid+Aurangabad/data=!4m7!3m6!1s0x3bdba2a4b3521a93:0xdb3029daeb50db6f!8m2!3d19.891404!4d75.3528576!16s%2Fg%2F11c6t0gtmj!19sChIJkxpSs6Si2zsRb9tQ69opMNs?authuser=0&hl=en&rclk=1,"19.891403999999998,75.3528576"
Masjid e Aziz Khusro,Mosque,"V8VV+VJ9 Masjid e Aziz Khusro, Aurangabad Times Colony, Sadaf Colony, N 10, Cidco, Aurangabad, Maharashtra 431001","Aurangabad Times Colony, Sadaf Colony, N 10, Cidco",V8VV+VJ9,Aurangabad,431001,Maharashtra,IN,https://www.google.com/maps/place/Masjid+e+Aziz+Khusro/data=!4m7!3m6!1s0x3bdba2a7cd525ba3:0xaf711b1131bfea3a!8m2!3d19.8946721!4d75.3441196!16s%2Fg%2F11cktgdg1v!19sChIJo1tSzaei2zsROuq_MREbca8?authuser=0&hl=en&rclk=1,"19.894672099999998,75.3441196"
Minara Masjid,Mosque,"V8PR+VW4 Minara Masjid, Kaiser Colony, Mondha, Aurangabad, Maharashtra 431003","Kaiser Colony, Mondha",V8PR+VW4,Aurangabad,431003,Maharashtra,IN,https://www.google.com/maps/place/Minara+Masjid/data=!4m7!3m6!1s0x3bdba2a10c1cbd5f:0xb644f03b29cfd1d7!8m2!3d19.8871339!4d75.3423339!16s%2Fg%2F1tdmt2bm!19sChIJX70cDKGi2zsR19HPKTvwRLY?authuser=0&hl=en&rclk=1,"19.8871339,75.3423339"
Basra Masjid (AHLE HADEES),Mosque,"V8XG+WMQ Basra Masjid (AHLE HADEES), Bismillah Colony Rd, Bismillah Colony, Aurangabad, Maharashtra 431004",Bismillah Colony,"V8XG+WMQ, Bismillah Colony Rd",Aurangabad,431004,Maharashtra,IN,https://www.google.com/maps/place/Basra+Masjid+%28AHLE+HADEES%29/data=!4m7!3m6!1s0x3bdb981c8022a52d:0xec41d61426bb09ee!8m2!3d19.8998329!4d75.3267355!16s%2Fg%2F11b7q9k1_n!19sChIJLaUigByY2zsR7gm7JhTWQew?authuser=0&hl=en&rclk=1,"19.8998329,75.3267355"
Sadat Masjid,Mosque,"W83R+Q62 Sadat Masjid, Aurangabad Rd, Rauza Baug, Wankhede Nagar, Mahmoodpura, Aurangabad, Maharashtra 431003","Rauza Baug, Wankhede Nagar, Mahmoodpura","W83R+Q62, Aurangabad Rd",Aurangabad,431003,Maharashtra,IN,https://www.google.com/maps/place/Sadat+Masjid/data=!4m7!3m6!1s0x3bdb980065735d1d:0x733ae0b24cc2a85d!8m2!3d19.9043909!4d75.3405211!16s%2Fg%2F11bwyxh2yp!19sChIJHV1zZQCY2zsRXajCTLLgOnM?authuser=0&hl=en&rclk=1,"19.9043909,75.3405211"
Masjid,Mosque,"Masjid, V/B-4, Jawahar Colony Rd, Uttam Nagar, Vishnu Nagar, Sindhi Colony, Aurangabad, Maharashtra 431001","Uttam Nagar, Vishnu Nagar, Sindhi Colony","V/B-4, Jawahar Colony Rd",Aurangabad,431001,Maharashtra,IN,https://www.google.com/maps/place/Masjid/data=!4m7!3m6!1s0x3bdba283320c8289:0x37037946e9439084!8m2!3d19.8719769!4d75.3448847!16s%2Fg%2F12359xzyf!19sChIJiYIMMoOi2zsRhJBD6UZ5Azc?authuser=0&hl=en&rclk=1,"19.8719769,75.3448847"
Masjid Marwa,Mosque,"V845+2HH Masjid Marwa, Abrar Colony, MIDC, Aurangabad, Maharashtra 431005","Abrar Colony, MIDC",V845+2HH,Aurangabad,431005,Maharashtra,IN,https://www.google.com/maps/place/Masjid+Marwa/data=!4m7!3m6!1s0x3bdb98f7ab7911fb:0x941bb0289c04c4bf!8m2!3d19.8550615!4d75.3089816!16s%2Fg%2F11b7ttv7q_!19sChIJ-xF5q_eY2zsRv8QEnCiwG5Q?authuser=0&hl=en&rclk=1,"19.855061499999998,75.3089816"
Noorani Masjid (Ahle Sunnat Wa Jamaat),Mosque,"V8QR+66X Noorani Masjid (Ahle Sunnat Wa Jamaat), Shah Bazar, Aurangabad, Maharashtra 431001",Shah Bazar,V8QR+66X,Aurangabad,431001,Maharashtra,IN,https://www.google.com/maps/place/Noorani+Masjid+%28Ahle+Sunnat+Wa+Jamaat%29/data=!4m7!3m6!1s0x3bdb980a0db6eec5:0x5475b2debc04de32!8m2!3d19.8881229!4d75.340616!16s%2Fg%2F11b6v73l52!19sChIJxe62DQqY2zsRMt4EvN6ydVQ?authuser=0&hl=en&rclk=1,"19.8881229,75.340616"
"Ambari Masjid (Zohar-2:15, Isha-8:45, Juma-2:55)",Mosque,"V8RH+5WM Ambari Masjid (Zohar-2:15, Isha-8:45, Juma-2:55), mina hall, Aurangabad, Maharashtra 431001","Deodi Bazar, Buddi lane, Naralibag","V8RH+5WM, mina hall",Aurangabad,431001,Maharashtra,IN,"https://www.google.com/maps/place/Ambari+Masjid+%28Zohar-2:15,+Isha-8:45,+Juma-2:55%29/data=!4m7!3m6!1s0x3bdb980e2645314b:0xbefa9364c450ccca!8m2!3d19.8904708!4d75.3297919!16s%2Fg%2F1hhkcc12p!19sChIJSzFFJg6Y2zsRysxQxGST-r4?authuser=0&hl=en&rclk=1","19.8904708,75.3297919"
Auliya Masjid,Mosque,"V8FG+PHQ Auliya Masjid, Samta Nagar, Aurangabad, Maharashtra 431001",Samta Nagar,V8FG+PHQ,Aurangabad,431001,Maharashtra,IN,https://www.google.com/maps/place/Auliya+Masjid/data=!4m7!3m6!1s0x3bdb986ef829bfe3:0x55e3c0d1225aeb2a!8m2!3d19.8743449!4d75.3264879!16s%2Fg%2F11bysjv97b!19sChIJ478p-G6Y2zsRKutaItHA41U?authuser=0&hl=en&rclk=1,"19.8743449,75.3264879"
Bismillah Masjid Bharat Nagar Garkheda Parisar Aurangabad,Mosque,"V955+6G9 Bismillah Masjid Bharat Nagar Garkheda Parisar Aurangabad, Bharat Nagar, Sara Raaj Nagar, Garkheda, Aurangabad, Maharashtra 431007","Bharat Nagar, Sara Raaj Nagar, Garkheda",V955+6G9,Aurangabad,431007,Maharashtra,IN,https://www.google.com/maps/place/Bismillah+Masjid+Bharat+Nagar+Garkheda+Parisar+Aurangabad/data=!4m7!3m6!1s0x3bdba261714edcfb:0x8fed77eb67acdc6d!8m2!3d19.8580326!4d75.3588637!16s%2Fg%2F11gdmcwhzj!19sChIJ-9xOcWGi2zsRbdysZ-t37Y8?authuser=0&hl=en&rclk=1,"19.858032599999998,75.3588637"
TOOTI KI MASJID,Mosque,"V8QQ+C4M TOOTI KI MASJID, Chelipura Rd, Chelipura, Naralibag, Aurangabad, Maharashtra 431001","Chelipura, Naralibag","V8QQ+C4M, Chelipura Rd",Aurangabad,431001,Maharashtra,IN,https://www.google.com/maps/place/TOOTI+KI+MASJID/data=!4m7!3m6!1s0x3bdb980955b695e5:0xfdfb8c17ac1e2689!8m2!3d19.8885786!4d75.337803!16s%2Fg%2F11b6z2cyyx!19sChIJ5ZW2VQmY2zsRiSYerBeM-_0?authuser=0&hl=en&rclk=1,"19.8885786,75.337803"
Madina Masjid,Mosque,"V8QH+73F Madina Masjid, City Chowk, Juna Bazaar, Naralibag, Aurangabad, Maharashtra 431001","City Chowk, Juna Bazaar, Naralibag",V8QH+73F,Aurangabad,431001,Maharashtra,IN,https://www.google.com/maps/place/Madina+Masjid/data=!4m7!3m6!1s0x3bdb98122744966d:0x9e6f5ac100f39687!8m2!3d19.8881973!4d75.3276706!16s%2Fg%2F11dz5phc9w!19sChIJbZZEJxKY2zsRh5bzAMFab54?authuser=0&hl=en&rclk=1,"19.888197299999998,75.32767059999999"
Pasha Masjid Aurangabad,Mosque,"V9R2+GG9 Pasha Masjid Aurangabad, Rahemania Colony, Jaswantpura, Aurangabad, Maharashtra 431001","Rahemania Colony, Jaswantpura",V9R2+GG9,Aurangabad,431001,Maharashtra,IN,https://www.google.com/maps/place/Pasha+Masjid+Aurangabad/data=!4m7!3m6!1s0x3bdba2a4960dc327:0x8d96e8390ae6306d!8m2!3d19.8912875!4d75.3513594!16s%2Fg%2F11b6xc0bkn!19sChIJJ8MNlqSi2zsRbTDmCjnolo0?authuser=0&hl=en&rclk=1,"19.8912875,75.35135939999999"
Hashmi Masjid,Mosque,"V8VC+XXF Hashmi Masjid, Bismillah Colony, Aurangabad, Maharashtra 431004","Bismillah Colony, Anand Nagar, Navkhanda","V8VC+XXF, Bismillah Colony",Aurangabad,431004,Maharashtra,IN,https://www.google.com/maps/place/Hashmi+Masjid/data=!4m7!3m6!1s0x3bdb9819eafc8351:0xf118badced46ca0f!8m2!3d19.8949271!4d75.3224095!16s%2Fg%2F1ptw49wdg!19sChIJUYP86hmY2zsRD8pG7dy6GPE?authuser=0&hl=en&rclk=1,"19.8949271,75.32240949999999"
Habibiya Masjid,Mosque,"V8JR+GPV Habibiya Masjid, Old Mondha, Mondha, Aurangabad, Maharashtra 431001","Old Mondha, Mondha",V8JR+GPV,Aurangabad,431001,Maharashtra,IN,https://www.google.com/maps/place/Habibiya+Masjid/data=!4m7!3m6!1s0x3bdba29fd0b06cf1:0x2c79a5c47e2ea7f9!8m2!3d19.881352!4d75.341782!16s%2Fg%2F11b6xfpk79!19sChIJ8Wyw0J-i2zsR-acufsSleSw?authuser=0&hl=en&rclk=1,"19.881352,75.341782"
Mecca Masjid,Mosque,"V76W+4MH Mecca Masjid, Unnamed Road, Sadat Nagar, Aurangabad, Maharashtra 431136",Sadat Nagar,"V76W+4MH, Unnamed Road",Aurangabad,431136,Maharashtra,IN,https://www.google.com/maps/place/Mecca+Masjid/data=!4m7!3m6!1s0x3bdb9854efe1be5b:0xc19f38d15b2a07c8!8m2!3d19.8603221!4d75.2967483!16s%2Fg%2F11c71g7rz1!19sChIJW77h71SY2zsRyAcqW9E4n8E?authuser=0&hl=en&rclk=1,"19.860322099999998,75.29674829999999"
Masjid e Akhtar Raza Sunni,Mosque,"W82G+MJG Masjid e Akhtar Raza Sunni, HIMAYAT NAGAR, near AL-HILAL COLONY, Aurangabad, Maharashtra 431001",Begumpura,"W82G+MJG, HIMAYAT NAGAR, near AL-HILAL COLONY",Aurangabad,431001,Maharashtra,IN,https://www.google.com/maps/place/Masjid+e+Akhtar+Raza+Sunni/data=!4m7!3m6!1s0x3bdb99425c9f312f:0x6fdfa503340a1b12!8m2!3d19.9016913!4d75.3265734!16s%2Fg%2F11rrs7fjdh!19sChIJLzGfXEKZ2zsREhsKNAOl328?authuser=0&hl=en&rclk=1,"19.9016913,75.3265734"
Makka Masjid,Mosque,"V8XQ+6J3 Makka Masjid, Alamgir Colony Rd, Aalamgir Colony, Collector Office Campus, Aurangabad, Maharashtra 431001","Aalamgir Colony, Collector Office Campus","V8XQ+6J3, Alamgir Colony Rd",Aurangabad,431001,Maharashtra,IN,https://www.google.com/maps/place/Makka+Masjid/data=!4m7!3m6!1s0x3bdb9807087508ff:0xbae6c3f538d8f3de!8m2!3d19.8980177!4d75.3390394!16s%2Fg%2F11csccy8wg!19sChIJ_wh1CAeY2zsR3vPYOPXD5ro?authuser=0&hl=en&rclk=1,"19.8980177,75.33903939999999"
Noor Masjid,Mosque,"V7JP+PX3 Noor Masjid, Padegaon, Aurangabad, Dharmapur, Maharashtra 431002",Padegaon,V7JP+PX3,"Aurangabad, Dharmapur",431002,Maharashtra,IN,https://www.google.com/maps/place/Noor+Masjid/data=!4m7!3m6!1s0x3bdb99cf2e0572ab:0xc5035c2dbe3aa237!8m2!3d19.8817671!4d75.2874137!16s%2Fg%2F11fx7wngbm!19sChIJq3IFLs-Z2zsRN6I6vi1cA8U?authuser=0&hl=en&rclk=1,"19.881767099999998,75.2874137"
Masjid e ilahi,Mosque,"V9XR+754 Masjid e ilahi, Naregaon, Chilkalthana, Aurangabad, Maharashtra 431006","Naregaon, Chilkalthana",V9XR+754,Aurangabad,431006,Maharashtra,IN,https://www.google.com/maps/place/Masjid+e+ilahi/data=!4m7!3m6!1s0x3bdba327cbc27601:0xaaaf1bcb37013fd0!8m2!3d19.898128!4d75.3904635!16s%2Fg%2F11ddyd2hh1!19sChIJAXbCyyej2zsR0D8BN8sbr6o?authuser=0&hl=en&rclk=1,"19.898128,75.3904635"
KHANA MASJID AURANGABAD,Mosque,"V8QH+CFV KHANA MASJID AURANGABAD, Juna Bazar, City Chowk, Buddi lane, Naralibag, Aurangabad, Maharashtra 431001","Juna Bazar, City Chowk, Buddi lane, Naralibag",V8QH+CFV,Aurangabad,431001,Maharashtra,IN,https://www.google.com/maps/place/KHANA+MASJID+AURANGABAD/data=!4m7!3m6!1s0x3bdb9811f6d672f9:0xdffcdeff8c1dd61f!8m2!3d19.8886002!4d75.3286676!16s%2Fg%2F11c2cpp57z!19sChIJ-XLW9hGY2zsRH9YdjP_e_N8?authuser=0&hl=en&rclk=1,"19.8886002,75.3286676"
"Jama Masjid Usman Pura, Aurangabad - jm` msjd, `thmnpwrh, wrngbd",Mosque,"V88F+9X4 Jama Masjid Usman Pura, Aurangabad - jm` msjd, `thmnpwrh, wrngbd, Eknath Nagar Rd, Rachanakar Colony, New Usmanpura, Aurangabad, Maharashtra 431005","Rachanakar Colony, New Usmanpura","V88F+9X4, Eknath Nagar Rd",Aurangabad,431005,Maharashtra,IN,"https://www.google.com/maps/place/Jama+Masjid+Usman+Pura,+Aurangabad+-+%D8%AC%D8%A7%D9%85%D8%B9+%D9%85%D8%B3%D8%AC%D8%AF%D8%8C+%D8%B9%D8%AB%D9%85%D8%A7%D9%86%D9%BE%D9%88%D8%B1%DB%81%D8%8C+%D8%A7%D9%88%D8%B1%D8%A7%D9%86%DA%AF%D8%A7%D8%A8%D8%A7%D8%AF%E2%80%AD/data=!4m7!3m6!1s0x3bdb99458f929efd:0xb06a94208b2cfc98!8m2!3d19.8658954!4d75.3249641!16s%2Fg%2F11h57wbrp9!19sChIJ_Z6Sj0WZ2zsRmPwsiyCUarA?authuser=0&hl=en&rclk=1","19.8658954,75.3249641"
Munawwar Masjid (Jaali Ki Masjid),Mosque,"V8MP+QQ9 Munawwar Masjid (Jaali Ki Masjid), Nawabpura, Mondha, Aurangabad, Maharashtra 431001","Nawabpura, Mondha",V8MP+QQ9,Aurangabad,431001,Maharashtra,IN,https://www.google.com/maps/place/Munawwar+Masjid+%28Jaali+Ki+Masjid%29/data=!4m7!3m6!1s0x3bdb980b3eb78e37:0xf4418a9feced148!8m2!3d19.884407!4d75.336994!16s%2Fg%2F11b7ffgbfy!19sChIJN463PguY2zsRSNHO_qkYRA8?authuser=0&hl=en&rclk=1,"19.884407,75.33699399999999"
Mina Masjid,Mosque,"V834+5GP Mina Masjid, Satara Parisar, Aurangabad, Maharashtra 431010",Satara Parisar,V834+5GP,Aurangabad,431010,Maharashtra,IN,https://www.google.com/maps/place/Mina+Masjid/data=!4m7!3m6!1s0x3bdb98f75feab667:0xe0715aa168690527!8m2!3d19.85296!4d75.3063186!16s%2Fg%2F1tf801f4!19sChIJZ7bqX_eY2zsRJwVpaKFaceA?authuser=0&hl=en&rclk=1,"19.85296,75.3063186"
Masjid Ghulam Gaus,Mosque,"V8QM+FMW Masjid Ghulam Gaus, Sarafa Bazaar, Shahgunj, Aurangabad, Maharashtra 431001","Sarafa Bazaar, Shahgunj",V8QM+FMW,Aurangabad,431001,Maharashtra,IN,https://www.google.com/maps/place/Masjid+Ghulam+Gaus/data=!4m7!3m6!1s0x3bdb980c1e3d97cf:0x2e2c9ae1cd91ffbb!8m2!3d19.8887352!4d75.3341978!16s%2Fg%2F11clshscq9!19sChIJz5c9HgyY2zsRu_-RzeGaLC4?authuser=0&hl=en&rclk=1,"19.8887352,75.3341978"
Yusufiya Masjid,Mosque,"R8XQ+RCP Yusufiya Masjid, Beed Bypass Rd, Sangram Nagar, Aurangabad, Maharashtra 431005",Sangram Nagar,"R8XQ+RCP, Beed Bypass Rd",Aurangabad,431005,Maharashtra,IN,https://www.google.com/maps/place/Yusufiya+Masjid/data=!4m7!3m6!1s0x3bdb9882deb54eb1:0x6badc4ccb76d37e4!8m2!3d19.8495819!4d75.3385802!16s%2Fg%2F11bz_3vf9t!19sChIJsU613oKY2zsR5Ddtt8zErWs?authuser=0&hl=en&rclk=1,"19.8495819,75.3385802"
Hafiz Masjid,Mosque,"V9R2+XFC Hafiz Masjid, Jaswantpura, Near water tank, Rahemania Colony, Aurangabad, Maharashtra 431001","Kat Kat Gate, Rahemania Colony, Jaswantpura","V9R2+XFC, Jaswantpura, Near water tank",Aurangabad,431001,Maharashtra,IN,https://www.google.com/maps/place/Hafiz+Masjid/data=!4m7!3m6!1s0x3bdba2a4e619d77d:0x672eb290147d4160!8m2!3d19.8924359!4d75.3511329!16s%2Fg%2F11cry0sm6s!19sChIJfdcZ5qSi2zsRYEF9FJCyLmc?authuser=0&hl=en&rclk=1,"19.8924359,75.3511329"
"Masjid E Quba, Aurangabad - msjdikhwb, wrngbd",Mosque,"W83R+8M9 Masjid E Quba, Aurangabad - msjdikhwb, wrngbd, Chatrapathi Nagar, N 12, Aurangabad, Maharashtra 431003","Chatrapathi Nagar, N 12",W83R+8M9,Aurangabad,431003,Maharashtra,IN,"https://www.google.com/maps/place/Masjid+E+Quba,+Aurangabad+-+%D9%85%D8%B3%D8%AC%D8%AF%D9%90%DA%A9%D9%88%D8%A8%D8%A7%D8%8C+%D8%A7%D9%88%D8%B1%D8%A7%D9%86%DA%AF%D8%A7%D8%A8%D8%A7%D8%AF%E2%80%AD/data=!4m7!3m6!1s0x3bdba2aa7a648bb9:0x7820ab5fe8730e2c!8m2!3d19.9032822!4d75.341737!16s%2Fg%2F11btwk7dh_!19sChIJuYtkeqqi2zsRLA5z6F-rIHg?authuser=0&hl=en&rclk=1","19.9032822,75.341737"
HAMZA MASJID,Mosque,"V8MV+RR6 HAMZA MASJID, Main Rd, near Khad Gate, Baijipura, Kaiser Colony, Mondha, Aurangabad, Maharashtra 431003","Baijipura, Kaiser Colony, Mondha","V8MV+RR6, Main Rd, near Khad Gate",Aurangabad,431003,Maharashtra,IN,https://www.google.com/maps/place/HAMZA+MASJID/data=!4m7!3m6!1s0x3bdba3da23617743:0xbc8e49e785a5f8fb!8m2!3d19.8845429!4d75.3445045!16s%2Fg%2F11fkhgs1__!19sChIJQ3dhI9qj2zsR-_ilhedJjrw?authuser=0&hl=en&rclk=1,"19.8845429,75.3445045"
Masjid Ul Usmaniya,Mosque,"W82R+M2W Masjid Ul Usmaniya, Delhi Gate Rd, in front of Salim Ali Lake, Himayat Bagh, Aurangabad, Maharashtra 431004",Himayat Bagh,"W82R+M2W, Delhi Gate Rd, in front of Salim Ali Lake",Aurangabad,431004,Maharashtra,IN,https://www.google.com/maps/place/Masjid+Ul+Usmaniya/data=!4m7!3m6!1s0x3bdb9800ba1f832d:0x2ffdbc97f4b55b07!8m2!3d19.9017456!4d75.3400885!16s%2Fg%2F11dxbm__sy!19sChIJLYMfugCY2zsRB1u19Je8_S8?authuser=0&hl=en&rclk=1,"19.901745599999998,75.3400885"
Zuhra Masjid,Mosque,"lane no 16, Zuhra Masjid, Baijipura, Indira Nagar, Mondha, Aurangabad, Maharashtra 431003","Baijipura, Indira Nagar, Mondha",lane no 16,Aurangabad,431003,Maharashtra,IN,https://www.google.com/maps/place/Zuhra+Masjid/data=!4m7!3m6!1s0x3bdba2983c37c599:0x3335ac77c7b02587!8m2!3d19.8827921!4d75.3518722!16s%2Fg%2F11bv1btynp!19sChIJmcU3PJii2zsRhyWwx3esNTM?authuser=0&hl=en&rclk=1,"19.8827921,75.3518722"
"EK- KHANA MASJID, Aurangabad - y'kh khnh msjd, wrngbd",Mosque,"V8QG+968 EK- KHANA MASJID, Aurangabad - y'kh khnh msjd, wrngbd, Post Office, Naralibag, Aurangabad, Maharashtra 431001","Post Office, Naralibag",V8QG+968,Aurangabad,431001,Maharashtra,IN,"https://www.google.com/maps/place/EK-+KHANA+MASJID,+Aurangabad+-+%D8%A7%D8%A6%DA%A9+%D8%AE%D8%A7%D9%86%DB%81+%D9%85%D8%B3%D8%AC%D8%AF%D8%8C+%D8%A7%D9%88%D8%B1%D8%A7%D9%86%DA%AF%D8%A7%D8%A8%D8%A7%D8%AF%E2%80%AD/data=!4m7!3m6!1s0x3bdb981163fa9b33:0x2f7c016d50c7cf8c!8m2!3d19.8884009!4d75.325592!16s%2Fg%2F11b6zqpstz!19sChIJM5v6YxGY2zsRjM_HUG0BfC8?authuser=0&hl=en&rclk=1","19.8884009,75.325592"
"Qamar Masjid (Zohar-1:15, Juma-1:15)",Mosque,"Qamar Masjid (Zohar-1:15, Juma-1:15), Central Naka Rd, Indira Nagar, M G M, Aurangabad, Maharashtra 431003","Indira Nagar, M G M",Central Naka Rd,Aurangabad,431003,Maharashtra,IN,"https://www.google.com/maps/place/Qamar+Masjid+%28Zohar-1:15,+Juma-1:15%29/data=!4m7!3m6!1s0x3bdba2978f195953:0x9d87c5f4412d36b1!8m2!3d19.8825468!4d75.3531881!16s%2Fg%2F11cmz70t3f!19sChIJU1kZj5ei2zsRsTYtQfTFh50?authuser=0&hl=en&rclk=1","19.8825468,75.3531881"
Safa Al Kareem Masjid,Mosque,"W85R+FMM Safa Al Kareem Masjid, Wankhede Nagar, Mahmoodpura, Aurangabad, Maharashtra 431003","Wankhede Nagar, Mahmoodpura",W85R+FMM,Aurangabad,431003,Maharashtra,IN,https://www.google.com/maps/place/Safa+Al+Kareem+Masjid/data=!4m7!3m6!1s0x3bdbbd5564164ad5:0x59528a7dcefe3de3!8m2!3d19.9087248!4d75.341667!16s%2Fg%2F11gf5wcr76!19sChIJ1UoWZFW92zsR4z3-zn2KUlk?authuser=0&hl=en&rclk=1,"19.908724799999998,75.341667"
"Aflatoon Masjid (Zohar-1:30, Juma-1:45pm)",Mosque,"Aflatoon Masjid (Zohar-1:30, Juma-1:45pm), Labar Colony, Fazalpura, Aurangabad, Maharashtra 431001","Fazalpura, Naralibag",Labar Colony,Aurangabad,431001,Maharashtra,IN,"https://www.google.com/maps/place/Aflatoon+Masjid+%28Zohar-1:30,+Juma-1:45pm%29/data=!4m7!3m6!1s0x3bdb98093e362767:0xf9a39bc6dd27eff8!8m2!3d19.890695!4d75.3367388!16s%2Fg%2F11bw2j538p!19sChIJZyc2PgmY2zsR-O8n3cabo_k?authuser=0&hl=en&rclk=1","19.890694999999997,75.33673879999999"
Hussain Masjid,Mosque,"V826+858 Hussain Masjid, Soniya Nagar, Satara Parisar, Aurangabad, Maharashtra 431010","Soniya Nagar, Satara Parisar",V826+858,Aurangabad,431010,Maharashtra,IN,https://www.google.com/maps/place/Hussain+Masjid/data=!4m7!3m6!1s0x3bdb98f13f246623:0x12af9f8f5a648481!8m2!3d19.8507955!4d75.3104554!16s%2Fg%2F11dxmqx0tm!19sChIJI2YkP_GY2zsRgYRkWo-frxI?authuser=0&hl=en&rclk=1,"19.8507955,75.3104554"
Zainab Masjid,Mosque,"W82G+8VH Zainab Masjid, Bismillah Colony, Aurangabad, Maharashtra 431004",Bismillah Colony,W82G+8VH,Aurangabad,431004,Maharashtra,IN,https://www.google.com/maps/place/Zainab+Masjid/data=!4m7!3m6!1s0x3bdb981c8bd2bb7f:0x46ea9fc64d975670!8m2!3d19.9008165!4d75.32722!16s%2Fg%2F1260ss9b7!19sChIJf7vSixyY2zsRcFaXTcaf6kY?authuser=0&hl=en&rclk=1,"19.900816499999998,75.32722"
Gulshan Masjid,Mosque,"V8HJ+XGC Gulshan Masjid, Khokadpura, Banjara Colony, Aurangabad, Maharashtra 431001","Khokadpura, Banjara Colony",V8HJ+XGC,Aurangabad,431001,Maharashtra,IN,https://www.google.com/maps/place/Gulshan+Masjid/data=!4m7!3m6!1s0x3bdb9872f5bfc4e3:0x1573f6692239bdee!8m2!3d19.8799299!4d75.3312802!16s%2Fg%2F11dfgrg2n6!19sChIJ48S_9XKY2zsR7r05Imn2cxU?authuser=0&hl=en&rclk=1,"19.8799299,75.3312802"
Nawab Masjid,Mosque,"V8RM+W5R Nawab Masjid, Naralibag, Aurangabad, Maharashtra 431001",Naralibag,V8RM+W5R,Aurangabad,431001,Maharashtra,IN,https://www.google.com/maps/place/Nawab+Masjid/data=!4m7!3m6!1s0x3bdb99a68c5abc91:0x1ca75221cc30f42d!8m2!3d19.8923609!4d75.3328956!16s%2Fg%2F11f8h5m1wy!19sChIJkbxajKaZ2zsRLfQwzCFSpxw?authuser=0&hl=en&rclk=1,"19.8923609,75.3328956"
Arab Khidki Masjid,Mosque,"V8W8+CHX Arab Khidki Masjid, Jaisingpura, Begumpura, Aurangabad, Maharashtra 431001","Jaisingpura, Begumpura",V8W8+CHX,Aurangabad,431001,Maharashtra,IN,https://www.google.com/maps/place/Arab+Khidki+Masjid/data=!4m7!3m6!1s0x3bdb9822603f3d37:0x9e7f02d95cc10226!8m2!3d19.8961141!4d75.3164795!16s%2Fg%2F11b6xr9q1r!19sChIJNz0_YCKY2zsRJgLBXNkCf54?authuser=0&hl=en&rclk=1,"19.8961141,75.3164795"
Zakariya Masjid,Mosque,"V8W2+V9C Zakariya Masjid, Unnamed Road, Bhavshingpura, Padegaon, Aurangabad, Maharashtra 431002","Bhavshingpura, Padegaon","V8W2+V9C, Unnamed Road",Aurangabad,431002,Maharashtra,IN,https://www.google.com/maps/place/Zakariya+Masjid/data=!4m7!3m6!1s0x3bdb982eae9bbaf1:0x53941a1fbede1261!8m2!3d19.8971876!4d75.3008847!16s%2Fg%2F11gd1tzd85!19sChIJ8bqbri6Y2zsRYRLevh8alFM?authuser=0&hl=en&rclk=1,"19.8971876,75.3008847"
Masjid Hamza,Mosque,"Masjid Hamza, 8-22-538, Kat Kat Gate Rd, Kat Kat Gate, Farzad Colony, Jaswantpura, Aurangabad, Maharashtra 431003","Kat Kat Gate, Farzad Colony, Jaswantpura","8-22-538, Kat Kat Gate Rd",Aurangabad,431003,Maharashtra,IN,https://www.google.com/maps/place/Masjid+Hamza/data=!4m7!3m6!1s0x3bdba3da61b18f8b:0x71a206b5551f33ff!8m2!3d19.8940123!4d75.348857!16s%2Fg%2F11j3lmxsgr!19sChIJi4-xYdqj2zsR_zMfVbUGonE?authuser=0&hl=en&rclk=1,"19.8940123,75.348857"
Hamidiya Masjid ( Ahle Sunnat Wa Jamaat),Mosque,"V833+6JC Hamidiya Masjid ( Ahle Sunnat Wa Jamaat), Beed Bypass Rd, Silk Mill Colony, Satara Parisar, Aurangabad, Maharashtra 431010","Silk Mill Colony, Satara Parisar","V833+6JC, Beed Bypass Rd",Aurangabad,431010,Maharashtra,IN,https://www.google.com/maps/place/Hamidiya+Masjid+%28+Ahle+Sunnat+Wa+Jamaat%29/data=!4m7!3m6!1s0x3bdb98f9a4ca485f:0x1ddf16d1fc91f5ad!8m2!3d19.8530731!4d75.3040305!16s%2Fg%2F11g8ss1_wk!19sChIJX0jKpPmY2zsRrfWR_NEW3x0?authuser=0&hl=en&rclk=1,"19.8530731,75.3040305"
Arish masjid,Mosque,"V8RV+M6Q Arish masjid, Cidco Rd, Younus Colony, N 10, Cidco, Aurangabad, Maharashtra 431003","Younus Colony, N 10, Cidco","V8RV+M6Q, Cidco Rd",Aurangabad,431003,Maharashtra,IN,https://www.google.com/maps/place/Arish+masjid/data=!4m7!3m6!1s0x3bdba34d9dd6bfbb:0xcd19d7be2eeb3838!8m2!3d19.8916974!4d75.3431081!16s%2Fg%2F11k3pydjt4!19sChIJu7_WnU2j2zsRODjrLr7XGc0?authuser=0&hl=en&rclk=1,"19.891697399999998,75.3431081"
Jagirdar Masjid,Mosque,"V8VC+673 Jagirdar Masjid, Ghati Gautam Nagar, Burhani Colony, Jaibhim Nagar, Aurangabad, Maharashtra 431004","Ghati Gautam Nagar, Burhani Colony, Jaibhim Nagar",V8VC+673,Aurangabad,431004,Maharashtra,IN,https://www.google.com/maps/place/Jagirdar+Masjid/data=!4m7!3m6!1s0x3bdb98178237dca1:0x602abec718e34c33!8m2!3d19.8930207!4d75.320667!16s%2Fg%2F1pv2bsrfs!19sChIJodw3gheY2zsRM0zjGMe-KmA?authuser=0&hl=en&rclk=1,"19.893020699999997,75.320667"
Kuba Masjid,Mosque,"Kuba Masjid, Beside Ibrahim Patel General Store, Jaswantpura, 9, Gali No. 6, Kuba Masjid Rd, Raheem Nagar, Rahemania Colony, Kiradpura, Aurangabad, Maharashtra 431001","Raheem Nagar, Rahemania Colony, Kiradpura","Beside Ibrahim Patel General Store, Jaswantpura, 9, Gali No. 6, Kuba Masjid Rd",Aurangabad,431001,Maharashtra,IN,https://www.google.com/maps/place/Kuba+Masjid/data=!4m7!3m6!1s0x3bdba2a481d31ee3:0xc089fe70b434984e!8m2!3d19.8901634!4d75.3501515!16s%2Fg%2F11c4bm_msw!19sChIJ4x7TgaSi2zsRTpg0tHD-icA?authuser=0&hl=en&rclk=1,"19.8901634,75.3501515"
Qadeem Masjid,Mosque,"V8FH+R89 Qadeem Masjid, Kotla Colony, Samta Nagar, Aurangabad, Maharashtra 431001","Kotla Colony, Samta Nagar",V8FH+R89,Aurangabad,431001,Maharashtra,IN,https://www.google.com/maps/place/Qadeem+Masjid/data=!4m7!3m6!1s0x3bdb998bcacd8c6b:0x85341dd0e5efbae9!8m2!3d19.8745375!4d75.3283594!16s%2Fg%2F11j0879484!19sChIJa4zNyouZ2zsR6brv5dAdNIU?authuser=0&hl=en&rclk=1,"19.8745375,75.3283594"
Masjid,Mosque,"V9J6+6FW Masjid, Gulmohar Colony, Sahyadri Nagar, N 5, Cidco, Aurangabad, Maharashtra 431003","Gulmohar Colony, Sahyadri Nagar, N 5, Cidco",V9J6+6FW,Aurangabad,431003,Maharashtra,IN,https://www.google.com/maps/place/Masjid/data=!4m7!3m6!1s0x3bdba328d36d723f:0xf8e086dc7ede31b6!8m2!3d19.8806185!4d75.3612119!16s%2Fg%2F11h2dj30fn!19sChIJP3Jt0yij2zsRtjHeftyG4Pg?authuser=0&hl=en&rclk=1,"19.8806185,75.3612119"
Salma Masjid,Mosque,"Salma Masjid, Sanjay Nagar, Galli No. 15-A, Sanjay Nagar, Aurangabad, Maharashtra 431003","Sanjay Nagar, Mondha","Sanjay Nagar, Galli No. 15-A",Aurangabad,431003,Maharashtra,IN,https://www.google.com/maps/place/Salma+Masjid/data=!4m7!3m6!1s0x3bdba36d1f7890c1:0x6ed1cdfc677f42b0!8m2!3d19.8841569!4d75.3428951!16s%2Fg%2F11h4zp0zgj!19sChIJwZB4H22j2zsRsEJ_Z_zN0W4?authuser=0&hl=en&rclk=1,"19.8841569,75.34289509999999"
Rahima Masjid,Mosque,"V9J3+QC4 Rahima Masjid, Baijipura, Indira Nagar, road, Aurangabad, Maharashtra 431003","Baijipura, Indira Nagar, road",V9J3+QC4,Aurangabad,,Maharashtra,IN,https://www.google.com/maps/place/Rahima+Masjid/data=!4m7!3m6!1s0x3bdba388a3355ddb:0x757794a074a44324!8m2!3d19.8818866!4d75.3535885!16s%2Fg%2F11rn08qlss!19sChIJ2101o4ij2zsRJEOkdKCUd3U?authuser=0&hl=en&rclk=1,"19.881886599999998,75.3535885"
Murmura Masjid,Mosque,"V8QP+FXH Murmura Masjid, Chelipura Rd, Chelipura, Mondha, Aurangabad, Maharashtra 431001","Chelipura, Mondha","V8QP+FXH, Chelipura Rd",Aurangabad,431001,Maharashtra,IN,https://www.google.com/maps/place/Murmura+Masjid/data=!4m7!3m6!1s0x3bdb99b2cb70622f:0x619c348a67f8ab43!8m2!3d19.8886885!4d75.3374748!16s%2Fg%2F11qnttv5bv!19sChIJL2Jwy7KZ2zsRQ6v4Z4o0nGE?authuser=0&hl=en&rclk=1,"19.8886885,75.3374748"
AURANZEB MASJID,Mosque,"V8PG+9W3 AURANZEB MASJID, Gulmandi, Aurangpura, Aurangabad, Maharashtra 431001","Gulmandi, Aurangpura",V8PG+9W3,Aurangabad,431001,Maharashtra,IN,https://www.google.com/maps/place/AURANZEB+MASJID/data=!4m7!3m6!1s0x3bdb998b786bf5b7:0x4e6bbf3b0be5871b!8m2!3d19.8858814!4d75.3272962!16s%2Fg%2F11k4jd2vx3!19sChIJt_VreIuZ2zsRG4flCzu_a04?authuser=0&hl=en&rclk=1,"19.8858814,75.32729619999999"
Ali masjid,Mosque,"V9XC+658 Ali masjid, Bhavani Nagar, Misarwadi, Aurangabad, Maharashtra 431006","Bhavani Nagar, Misarwadi",V9XC+658,Aurangabad,431006,Maharashtra,IN,https://www.google.com/maps/place/Ali+masjid/data=!4m7!3m6!1s0x3bdba3b4d67f8bf7:0xf8cacd84f04d5b91!8m2!3d19.8980315!4d75.3704427!16s%2Fg%2F11shstqxjk!19sChIJ94t_1rSj2zsRkVtN8ITNyvg?authuser=0&hl=en&rclk=1,"19.8980315,75.3704427"
Masjid,Mosque,"Masjid, 3-11-758, Indira Nagar, Mondha, Aurangabad, Maharashtra 431003","Indira Nagar, Mondha",3-11-758,Aurangabad,431003,Maharashtra,IN,https://www.google.com/maps/place/Masjid/data=!4m7!3m6!1s0x3bdba3f6e4d16dc7:0x4a24a5e95f20653a!8m2!3d19.8806043!4d75.3492071!16s%2Fg%2F11kqmrlznw!19sChIJx23R5Paj2zsROmUgX-mlJEo?authuser=0&hl=en&rclk=1,"19.880604299999998,75.3492071"
