name,main_category,address,address_ward,address_street,address_city,address_postal_code,address_state,address_country_code,link,coordinates
Hosur JAMIYA MASJID (Ahle Sunnah) jaamiyaa msjit ocuur,Mosque,"PRMH+62R Hosur JAMIYA MASJID (Ahle Sunnah) jaamiyaa msjit ocuur, MG Rd, Hamumanthapuram, Kamaraj Colony, Hosur, Tamil Nadu 635109","Hamumanthapuram, Kamaraj Colony","PRMH+62R, MG Rd",Hosur,635109,Tamil Nadu,IN,https://www.google.com/maps/place/Hosur+JAMIYA+MASJID+%28Ahle+Sunnah%29+%E0%AE%9C%E0%AE%BE%E0%AE%AE%E0%AE%BF%E0%AE%AF%E0%AE%BE+%E0%AE%AE%E0%AE%B8%E0%AF%8D%E0%AE%9C%E0%AE%BF%E0%AE%A4%E0%AF%8D+%E0%AE%92%E0%AE%9A%E0%AF%82%E0%AE%B0%E0%AF%8D/data=!4m7!3m6!1s0x3bae70c8fa155d6f:0xd29b37600f774a23!8m2!3d12.7331038!4d77.8275009!16s%2Fg%2F11bysjr3cj!19sChIJb10V-shwrjsRI0p3D2A3m9I?authuser=0&hl=en&rclk=1,"12.7331038,77.82750089999999"
Bathalapalli Mosque (Masjid-E-Bilal),Mosque,"PVF7+8X4 Bathalapalli Mosque (Masjid-E-Bilal), Baskardas Nagar, Bathlapalli, Tamil Nadu 635109",Baskardas Nagar,PVF7+8X4,Bathlapalli,635109,Tamil Nadu,IN,https://www.google.com/maps/place/Bathalapalli+Mosque+%28Masjid-E-Bilal%29/data=!4m7!3m6!1s0x3bae77692bdf91f9:0x2731d070a52ca9f8!8m2!3d12.7232547!4d77.8649582!16s%2Fg%2F1tdq906s!19sChIJ-ZHfK2l3rjsR-KkspXDQMSc?authuser=0&hl=en&rclk=1,"12.7232547,77.86495819999999"
Madinah Masjid. Ahle Sunnah Wal Jamah.,Mosque,"PRJM+J7H Madinah Masjid. Ahle Sunnah Wal Jamah., Hamumanthapuram, Kamaraj Colony, Hosur, Tamil Nadu 635109","Hamumanthapuram, Kamaraj Colony",PRJM+J7H,Hosur,635109,Tamil Nadu,IN,https://www.google.com/maps/place/Madinah+Masjid.+Ahle+Sunnah+Wal+Jamah./data=!4m7!3m6!1s0x3bae70ca5d23fee3:0xc190021fe31a9675!8m2!3d12.7315579!4d77.8332223!16s%2Fg%2F11c0xn93h0!19sChIJ4_4jXcpwrjsRdZYa4x8CkME?authuser=0&hl=en&rclk=1,"12.731557899999999,77.8332223"
Markazi Masjid e Ahle Hadees (Choti Masjid )coottttii msjit,Mosque,"PRJJ+M63 Markazi Masjid e Ahle Hadees (Choti Masjid )coottttii msjit, Nethaji Road, Hamumanthapuram, Kamaraj Colony, Hosur, Tamil Nadu 635109","Hamumanthapuram, Kamaraj Colony","PRJJ+M63, Nethaji Road",Hosur,635109,Tamil Nadu,IN,https://www.google.com/maps/place/Markazi+Masjid+e+Ahle+Hadees+%28Choti+Masjid+%29%E0%AE%9A%E0%AF%8B%E0%AE%9F%E0%AF%8D%E0%AE%9F%E0%AF%80+%E0%AE%AE%E0%AE%B8%E0%AF%8D%E0%AE%9C%E0%AE%BF%E0%AE%A4%E0%AF%8D/data=!4m7!3m6!1s0x3bae70c98c2d8531:0x69c78c6d2745474f!8m2!3d12.7316328!4d77.8305401!16s%2Fg%2F1pyqr1mmf!19sChIJMYUtjMlwrjsRT0dFJ22Mx2k?authuser=0&hl=en&rclk=1,"12.7316328,77.8305401"
Masjid E Noor Elahi Zuzuwadi,Mosque,"QQ9Q+R84 Masjid E Noor Elahi Zuzuwadi, Zuzuvadi, Tamil Nadu 635126",,QQ9Q+R84,Zuzuvadi,635126,Tamil Nadu,IN,https://www.google.com/maps/place/Masjid+E+Noor+Elahi+Zuzuwadi/data=!4m7!3m6!1s0x3bae71a0e34bd35f:0x544939062ed80381!8m2!3d12.7695098!4d77.7883278!16s%2Fg%2F11dylqptn5!19sChIJX9NL46BxrjsRgQPYLgY5SVQ?authuser=0&hl=en&rclk=1,"12.7695098,77.78832779999999"
Masjid-e-Eesa,Mosque,"Masjid-e-Eesa, 635109, Rayakottah Housing Board, Shanthi Nagar East, Hosur, Tamil Nadu 635109","Rayakottah Housing Board, Shanthi Nagar East",635109,Hosur,635109,Tamil Nadu,IN,https://www.google.com/maps/place/Masjid-e-Eesa/data=!4m7!3m6!1s0x3bae70b6ad98b48b:0xca0d11213beded72!8m2!3d12.724418!4d77.8303805!16s%2Fg%2F11ddxz227r!19sChIJi7SYrbZwrjsRcu3tOyERDco?authuser=0&hl=en&rclk=1,"12.724418,77.83038049999999"
Masjid E Rizwan,Mosque,"QR46+XM4 Masjid E Rizwan, Bedrapalli, Hosur, Tamil Nadu 635126",Bedrapalli,QR46+XM4,Hosur,635126,Tamil Nadu,IN,https://www.google.com/maps/place/Masjid+E+Rizwan/data=!4m7!3m6!1s0x3bae7118cd806ed9:0xa3174a74e3645b07!8m2!3d12.7573974!4d77.8117147!16s%2Fg%2F11c14v5s5t!19sChIJ2W6AzRhxrjsRB1tk43RKF6M?authuser=0&hl=en&rclk=1,"12.757397399999999,77.8117147"
Masjid E Jadeed,Mosque,"Masjid E Jadeed, Mg Road Opp Jamiya Masjid Post Off Road, MG Rd, Hosur, Tamil Nadu 635109",Hamumanthapuram,"Mg Road Opp Jamiya Masjid Post Off Road, MG Rd",Hosur,635109,Tamil Nadu,IN,https://www.google.com/maps/place/Masjid+E+Jadeed/data=!4m7!3m6!1s0x3bae70c8b9becfaf:0xf0082b7e1b77c20!8m2!3d12.7331995!4d77.8276407!16s%2Fg%2F11c1s6gmq9!19sChIJr8--uchwrjsRIHy34beCAA8?authuser=0&hl=en&rclk=1,"12.7331995,77.8276407"
Dinnur Ahle Sunnah Wal Jamah Masjid,Mosque,"PR59+7H3 Dinnur Ahle Sunnah Wal Jamah Masjid, Navadhi, Hosur, Tamil Nadu 635109",Navadhi,PR59+7H3,Hosur,635109,Tamil Nadu,IN,https://www.google.com/maps/place/Dinnur+Ahle+Sunnah+Wal+Jamah+Masjid/data=!4m7!3m6!1s0x3bae70a0b7e4a7bf:0x7b6fe6239ff428c4!8m2!3d12.7081485!4d77.818907!16s%2Fg%2F11c4bd5mkl!19sChIJv6fkt6BwrjsRxCj0nyPmb3s?authuser=0&hl=en&rclk=1,"12.7081485,77.818907"
Masjid Ahle Hadees,Mosque,"PRFF+4XV Masjid Ahle Hadees, Shanthi Nagar East, Periyar Nagar, Hosur, Tamil Nadu 635109",Shanthi Nagar East,PRFF+4XV,"Periyar Nagar, Hosur",635109,Tamil Nadu,IN,https://www.google.com/maps/place/Masjid+Ahle+Hadees/data=!4m7!3m6!1s0x3bae70ba0c080a4b:0x366df91710772fc7!8m2!3d12.7228636!4d77.8249303!16s%2Fg%2F124yqft74!19sChIJSwoIDLpwrjsRxy93EBf5bTY?authuser=0&hl=en&rclk=1,"12.7228636,77.82493029999999"
Masjid-e-Nimrah,Mosque,"Masjid-e-Nimrah, 12, 7th Cross Rd, New ASTC Hudco, SBM Colony, Anthivadi, Hosur, Tamil Nadu 635109","New ASTC Hudco, SBM Colony, Anthivadi","12, 7th Cross Rd",Hosur,635109,Tamil Nadu,IN,https://www.google.com/maps/place/Masjid-e-Nimrah/data=!4m7!3m6!1s0x3bae70c1826ab3d5:0xaadb3811c4cfd2c!8m2!3d12.734425!4d77.8166288!16s%2Fg%2F1hm3yfr42!19sChIJ1bNqgsFwrjsRLP1MHIGzrQo?authuser=0&hl=en&rclk=1,"12.734425,77.81662879999999"
Masjid-E-Zaitoon,Mosque,"QR32+JH3 Masjid-E-Zaitoon, Mookondapalli, Hosur, Tamil Nadu 635126",,QR32+JH3,"Mookondapalli, Hosur",635126,Tamil Nadu,IN,https://www.google.com/maps/place/Masjid-E-Zaitoon/data=!4m7!3m6!1s0x3bae7103274444e1:0x46b93bc0625de3b0!8m2!3d12.7540194!4d77.8014283!16s%2Fg%2F11fylxdftf!19sChIJ4UREJwNxrjsRsONdYsA7uUY?authuser=0&hl=en&rclk=1,"12.754019399999999,77.8014283"
Siddique Masjid,Mosque,"PRFH+538 Siddique Masjid, Siva Sakthi Nagar, Hosur, Tamil Nadu 635109",Siva Sakthi Nagar,PRFH+538,Hosur,635109,Tamil Nadu,IN,https://www.google.com/maps/place/Siddique+Masjid/data=!4m7!3m6!1s0x3bae70b0dc466747:0xb3aeea9a559cf336!8m2!3d12.7229133!4d77.8276876!16s%2Fg%2F1hm28bj3_!19sChIJR2dG3LBwrjsRNvOcVZrqrrM?authuser=0&hl=en&rclk=1,"12.7229133,77.82768759999999"
Madeena Masjid,Mosque,"MRQ3+QJ6 Madeena Masjid, Mathigiri, Hosur, Tamil Nadu 635110",,MRQ3+QJ6,"Mathigiri, Hosur",635110,Tamil Nadu,IN,https://www.google.com/maps/place/Madeena+Masjid/data=!4m7!3m6!1s0x3bae7a6f35ca3cff:0x2a1eb626b651fa25!8m2!3d12.6894112!4d77.8040067!16s%2Fg%2F11b8tx48yj!19sChIJ_zzKNW96rjsRJfpRtia2Hio?authuser=0&hl=en&rclk=1,"12.689411199999999,77.8040067"
Masjid-E-Ansaar annncaar msjit,Mosque,"PRGF+M6C Masjid-E-Ansaar annncaar msjit, Shanthi Nagar West, Hosur, Tamil Nadu 635109",Shanthi Nagar West,PRGF+M6C,Hosur,635109,Tamil Nadu,IN,https://www.google.com/maps/place/Masjid-E-Ansaar+%E0%AE%85%E0%AE%A9%E0%AF%8D%E0%AE%9A%E0%AE%BE%E0%AE%B0%E0%AF%8D+%E0%AE%AE%E0%AE%B8%E0%AF%8D%E0%AE%9C%E0%AE%BF%E0%AE%A4%E0%AF%8D/data=!4m7!3m6!1s0x3bae70b85266e741:0x5aaec699309e8f6a!8m2!3d12.7266792!4d77.8230219!16s%2Fg%2F124t0ghz2!19sChIJQedmUrhwrjsRao-eMJnGrlo?authuser=0&hl=en&rclk=1,"12.7266792,77.8230219"
Rahmaniya Masjid,Mosque,"Rahmaniya Masjid, Teachers Colony, Avalapalli Hudco, Tamil Nadu 635109",Teachers Colony,,Avalapalli Hudco,635109,Tamil Nadu,IN,https://www.google.com/maps/place/Rahmaniya+Masjid/data=!4m7!3m6!1s0x3bae70d25b8c0863:0x443e2b4534874f37!8m2!3d12.7430728!4d77.8334183!16s%2Fg%2F1pyqqbtz9!19sChIJYwiMW9JwrjsRN0-HNEUrPkQ?authuser=0&hl=en&rclk=1,"12.7430728,77.83341829999999"
Masjid E Bilal,Mosque,"QQJX+647 Masjid E Bilal, Begepalli, Hosur, Tamil Nadu 635126",,QQJX+647,"Begepalli, Hosur",635126,Tamil Nadu,IN,https://www.google.com/maps/place/Masjid+E+Bilal/data=!4m7!3m6!1s0x3bae7171405890f1:0x5025fa20845c6bbb!8m2!3d12.7805357!4d77.7978116!16s%2Fg%2F11c2ntjwtp!19sChIJ8ZBYQHFxrjsRu2tchCD6JVA?authuser=0&hl=en&rclk=1,"12.7805357,77.7978116"
Fathima Masjid,Mosque,"PRWX+472 Fathima Masjid, Thotagiri, Hosur, Tamil Nadu 635109",Thotagiri,PRWX+472,Hosur,635109,Tamil Nadu,IN,https://www.google.com/maps/place/Fathima+Masjid/data=!4m7!3m6!1s0x3bae772f7d8ebe15:0x21911b632a8611b!8m2!3d12.7452613!4d77.8481352!16s%2Fg%2F11c2lb7wp_!19sChIJFb6OfS93rjsRG2GoMrYRGQI?authuser=0&hl=en&rclk=1,"12.7452613,77.8481352"
Masjid e Thaqwa (Shafi Kerala),Mosque,"PRMF+QHC Masjid e Thaqwa (Shafi Kerala), Hosur - Krishnagiri Rd, Anna Nagar, Hosur, Tamil Nadu 635109",,"PRMF+QHC, Hosur - Krishnagiri Rd","Anna Nagar, Hosur",635109,Tamil Nadu,IN,https://www.google.com/maps/place/Masjid+e+Thaqwa+%28Shafi+Kerala%29/data=!4m7!3m6!1s0x3bae70c612b3a38f:0xcd4dc16479cb6ed3!8m2!3d12.7344387!4d77.8238758!16s%2Fg%2F11cp7rdkcv!19sChIJj6OzEsZwrjsR027LeWTBTc0?authuser=0&hl=en&rclk=1,"12.7344387,77.8238758"
Ram Nagar Mosque,Mosque,"PRPF+C5H Ram Nagar Mosque, Ram Nagar, SBM Colony, Anthivadi, Hosur, Tamil Nadu 635109","Ram Nagar, SBM Colony, Anthivadi",PRPF+C5H,Hosur,635109,Tamil Nadu,IN,https://www.google.com/maps/place/Ram+Nagar+Mosque/data=!4m7!3m6!1s0x3bae70c5cf069b21:0x32dec72b09e42178!8m2!3d12.7360647!4d77.8229997!16s%2Fg%2F11hc9jmf2g!19sChIJIZsGz8VwrjsReCHkCSvH3jI?authuser=0&hl=en&rclk=1,"12.7360647,77.8229997"
Masjid-e-Azam,Mosque,"PRJJ+G58 Masjid-e-Azam, Nethaji Road, imambada, Hosur, Tamil Nadu 635109",imambada,"PRJJ+G58, Nethaji Road",Hosur,635109,Tamil Nadu,IN,https://www.google.com/maps/place/Masjid-e-Azam/data=!4m7!3m6!1s0x3bae71d42d99b8a3:0xbbe3030c21fda9f!8m2!3d12.7312974!4d77.8304461!16s%2Fg%2F11f9y26wr5!19sChIJo7iZLdRxrjsRn9ofwjAwvgs?authuser=0&hl=en&rclk=1,"12.731297399999999,77.8304461"
Masjid,Mosque,"PRPH+JPG Masjid, Bsnl Office (from Bagalur Rd to Telephone Exchange), Surya Nagar, Sri Nagar, Hosur, Tamil Nadu 635109","Surya Nagar, Sri Nagar","PRPH+JPG, Bsnl Office (from Bagalur Rd to Telephone Exchange)",Hosur,635109,Tamil Nadu,IN,https://www.google.com/maps/place/Masjid/data=!4m7!3m6!1s0x3bae70cec1398b07:0x976a7df925907399!8m2!3d12.7365651!4d77.8293344!16s%2Fg%2F1ptwjd689!19sChIJB4s5wc5wrjsRmXOQJfl9apc?authuser=0&hl=en&rclk=1,"12.7365651,77.8293344"
Masjid E Mina,Mosque,"PRHW+CQ2 Masjid E Mina, Hosur, Tamil Nadu 635109",,PRHW+CQ2,Hosur,,Tamil Nadu,IN,https://www.google.com/maps/place/Masjid+E+Mina/data=!4m7!3m6!1s0x3bae77419e65da13:0x9cf67ac3792d5394!8m2!3d12.728505!4d77.8468758!16s%2Fg%2F11f61v_p3v!19sChIJE9plnkF3rjsRlFMtecN69pw?authuser=0&hl=en&rclk=1,"12.728505,77.84687579999999"
Masjid - e - Aala,Mosque,"Masjid - e - Aala, Parvathi Nagar, Sanasandiram, Hosur, Tamil Nadu 635109","Parvathi Nagar, Sanasandiram",,Hosur,635109,Tamil Nadu,IN,https://www.google.com/maps/place/Masjid+-+e+-+Aala/data=!4m7!3m6!1s0x3bae70cab4d34583:0x17512e18c78ab8e0!8m2!3d12.7313582!4d77.8366983!16s%2Fg%2F11clzkjb7h!19sChIJg0XTtMpwrjsR4LiKxxguURc?authuser=0&hl=en&rclk=1,"12.731358199999999,77.8366983"
Noorani Masjid,Mosque,"MRQ3+XHC Noorani Masjid, Behind SBM bank, H. C. F post, mathigiri, Hosur",,"MRQ3+XHC, Behind SBM bank, H. C. F post, mathigiri",Hosur,,Tamil Nadu,IN,https://www.google.com/maps/place/Noorani+Masjid/data=!4m7!3m6!1s0x3bae7a6f404d6515:0x8c35be3106738b90!8m2!3d12.6899369!4d77.8038965!16s%2Fg%2F11b825vndw!19sChIJFWVNQG96rjsRkItzBjG-NYw?authuser=0&hl=en&rclk=1,"12.6899369,77.8038965"
Maakah Masjid,Mosque,"PRW7+CHC Maakah Masjid, Makkah Musjid building, Amirtha Nagar, Dharga, Tamil Nadu 635126",Amirtha Nagar,"PRW7+CHC, Makkah Musjid building","Dharga, Hosur",635126,Tamil Nadu,IN,https://www.google.com/maps/place/Maakah+Masjid/data=!4m7!3m6!1s0x3bae714daf492335:0xa0b78dcaf408aa8d!8m2!3d12.7460626!4d77.8139027!16s%2Fg%2F11hz0wssks!19sChIJNSNJr01xrjsRjaoI9MqNt6A?authuser=0&hl=en&rclk=1,"12.7460626,77.8139027"
Masjid e Aqsa,Mosque,"PRHR+973 Masjid e Aqsa, Sanasandiram, Hosur, Tamil Nadu 635109",Sanasandiram,PRHR+973,Hosur,635109,Tamil Nadu,IN,https://www.google.com/maps/place/Masjid+e+Aqsa/data=!4m7!3m6!1s0x3bae774a442a47e7:0x106ec82fad35b08!8m2!3d12.7283995!4d77.8406819!16s%2Fg%2F11bwkgn71t!19sChIJ50cqREp3rjsRCFvT-oLsBgE?authuser=0&hl=en&rclk=1,"12.7283995,77.84068189999999"
Urdu Mosque,Mosque,"QQJX+63X Urdu Mosque, Begepalli, Hosur, Tamil Nadu 635126",,QQJX+63X,"Begepalli, Hosur",635126,Tamil Nadu,IN,https://www.google.com/maps/place/Urdu+Mosque/data=!4m7!3m6!1s0x3bae717138b1be79:0xebf429f339caf6e8!8m2!3d12.7806032!4d77.7977414!16s%2Fg%2F11df64q_j5!19sChIJeb6xOHFxrjsR6PbKOfMp9Os?authuser=0&hl=en&rclk=1,"12.7806032,77.79774139999999"
Kurubatti Masjid,Mosque,"MRV9+C39 Kurubatti Masjid, Kuruppatti, Hosur, Tamil Nadu 635109",,MRV9+C39,"Kuruppatti, Hosur",635109,Tamil Nadu,IN,https://www.google.com/maps/place/Kurubatti+Masjid/data=!4m7!3m6!1s0x3bae7a12443d08fd:0x56c50708074e9a26!8m2!3d12.693544!4d77.8177205!16s%2Fg%2F11bvv4zwl9!19sChIJ_Qg9RBJ6rjsRJppOBwgHxVY?authuser=0&hl=en&rclk=1,"12.693544,77.8177205"
Kalekuntta Masjid,Mosque,"PRJP+53G Kalekuntta Masjid, Sanasandiram, Hosur, Tamil Nadu 635109",Sanasandiram,PRJP+53G,Hosur,635109,Tamil Nadu,IN,https://www.google.com/maps/place/Kalekuntta+Masjid/data=!4m7!3m6!1s0x3bae70ca9f34da89:0xc56986673fc5e46a!8m2!3d12.7304355!4d77.8351933!16s%2Fg%2F11d_tlghtc!19sChIJido0n8pwrjsRauTFP2eGacU?authuser=0&hl=en&rclk=1,"12.730435499999999,77.8351933"
Ahle Hadees Masjid,Mosque,"MRV3+Q8F Ahle Hadees Masjid, Behind Mathigiri Police station, Hosur",Idayanallur,"MRV3+Q8F, Behind Mathigiri Police station",Hosur,,Tamil Nadu,IN,https://www.google.com/maps/place/Ahle+Hadees+Masjid/data=!4m7!3m6!1s0x3bae7a6fe379d611:0xb655ca2c86ff0c25!8m2!3d12.6944458!4d77.8032979!16s%2Fg%2F11bvv51p54!19sChIJEdZ54296rjsRJQz_hizKVbY?authuser=0&hl=en&rclk=1,"12.694445799999999,77.80329789999999"
Masjid E Quba,Mosque,"Masjid E Quba, Vasanth Nagar, Rajeev Nagar, Hosur, Tamil Nadu 635109",Vasanth Nagar,,"Rajeev Nagar, Hosur",635109,Tamil Nadu,IN,https://www.google.com/maps/place/Masjid+E+Quba/data=!4m7!3m6!1s0x3bae7179ed64a5e5:0xb8b01a44a603e73e!8m2!3d12.7343698!4d77.8333402!16s%2Fg%2F11h01wsl7k!19sChIJ5aVk7XlxrjsRPucDpkQasLg?authuser=0&hl=en&rclk=1,"12.7343698,77.8333402"
Mathigiri Eidgah,Mosque,"MRQ4+HP8 Mathigiri Eidgah, Mathigiri, Hosur, Tamil Nadu 635110",,MRQ4+HP8,"Mathigiri, Hosur",635110,Tamil Nadu,IN,https://www.google.com/maps/place/Mathigiri+Eidgah/data=!4m7!3m6!1s0x3bae7a69498c0255:0x65c580759852795e!8m2!3d12.6889001!4d77.8068176!16s%2Fg%2F11d_75n_vk!19sChIJVQKMSWl6rjsRXnlSmHWAxWU?authuser=0&hl=en&rclk=1,"12.6889001,77.8068176"
Titan Township Masjid,Mosque,"MRQ5+934 Titan Township Masjid, Eidgah Road, TitanTownship, Mathigiri, Hosur, Tamil Nadu 635109",TitanTownship,"MRQ5+934, Eidgah Road","Mathigiri, Hosur",635109,Tamil Nadu,IN,https://www.google.com/maps/place/Titan+Township+Masjid/data=!4m7!3m6!1s0x3bae7b3aa1913907:0xd371c89cdb6af1ee!8m2!3d12.688395!4d77.807694!16s%2Fg%2F11g4fgqdr6!19sChIJBzmRoTp7rjsR7vFq25zIcdM?authuser=0&hl=en&rclk=1,"12.688395,77.807694"
Mosque,Mosque,"QQJX+47M Mosque, Begepalli, Hosur, Tamil Nadu 635126",,QQJX+47M,"Begepalli, Hosur",635126,Tamil Nadu,IN,https://www.google.com/maps/place/Mosque/data=!4m7!3m6!1s0x3bae71716a6ddeaf:0x59fb80b3f7234247!8m2!3d12.7803288!4d77.7981789!16s%2Fg%2F11c6yz43k4!19sChIJr95tanFxrjsRR0Ij97OA-1k?authuser=0&hl=en&rclk=1,"12.7803288,77.7981789"
Masjid-E-Khudadad,Mosque,"Masjid-E-Khudadad, 105/2, TitanTownship, Mathigiri, Hosur, Tamil Nadu 635109",TitanTownship,105/2,"Mathigiri, Hosur",635109,Tamil Nadu,IN,https://www.google.com/maps/place/Masjid-E-Khudadad/data=!4m7!3m6!1s0x3bae7bd906d62ed3:0xfbf8dec216a9527e!8m2!3d12.6884067!4d77.8077007!16s%2Fg%2F11h6v0vr91!19sChIJ0y7WBtl7rjsRflKpFsLe-Ps?authuser=0&hl=en&rclk=1,"12.6884067,77.8077007"
Eidgah Masjid Sipcot Hosur,Mosque,"PRX8+QVG Eidgah Masjid Sipcot Hosur, Sipcot Ph. I, Hosur, Tamil Nadu 635126",Sipcot Ph. I,PRX8+QVG,Hosur,635126,Tamil Nadu,IN,https://www.google.com/maps/place/Eidgah+Masjid+Sipcot+Hosur/data=!4m7!3m6!1s0x3bae70df047fe52b:0xef716e479a738528!8m2!3d12.7494368!4d77.8171999!16s%2Fg%2F11fxdz6ln3!19sChIJK-V_BN9wrjsRKIVzmkduce8?authuser=0&hl=en&rclk=1,"12.7494368,77.81719989999999"
Eid-Gah,Mosque,"PRVJ+HGM Eid-Gah, Avalapalli Hudco, Tamil Nadu 635109",,PRVJ+HGM,Avalapalli Hudco,635109,Tamil Nadu,IN,https://www.google.com/maps/place/Eid-Gah/data=!4m7!3m6!1s0x3bae70d22b48a565:0x309da245bb851686!8m2!3d12.7439714!4d77.8312978!16s%2Fg%2F1hm49bll_!19sChIJZaVIK9JwrjsRhhaFu0WinTA?authuser=0&hl=en&rclk=1,"12.7439714,77.8312978"
Mosque,Mosque,"PVC7+PQC Mosque, Moranapalli, Hosur, Tamil Nadu 635109",,PVC7+PQC,"Moranapalli, Hosur",635109,Tamil Nadu,IN,https://www.google.com/maps/place/Mosque/data=!4m7!3m6!1s0x3bae776971ad26ef:0x189c9c32860cf413!8m2!3d12.7218221!4d77.8643761!16s%2Fg%2F11hz9d62bt!19sChIJ7yatcWl3rjsRE_QMhjKcnBg?authuser=0&hl=en&rclk=1,"12.721822099999999,77.8643761"
Masjid-E-Mohammadiya,Mosque,"PRMR+H27 Masjid-E-Mohammadiya, Venkatesh nagar, Hosur, Tamil Nadu 635109",Venkatesh nagar,PRMR+H27,Hosur,635109,Tamil Nadu,IN,https://www.google.com/maps/place/Masjid-E-Mohammadiya/data=!4m7!3m6!1s0x3bae777fd9747943:0xdcb482a19e32e57b!8m2!3d12.7339119!4d77.8400458!16s%2Fg%2F11fm5mjpmq!19sChIJQ3l02X93rjsRe-UynqGCtNw?authuser=0&hl=en&rclk=1,"12.733911899999999,77.8400458"
Masjid e jameela kottor hosur,Mosque,"Masjid e jameela kottor hosur, 3, Sai Residency Rd, Muneeswara Nagar, Hosur, Tamil Nadu 635126",Muneeswara Nagar,"3, Sai Residency Rd",Hosur,635126,Tamil Nadu,IN,https://www.google.com/maps/place/Masjid+e+jameela+kottor+hosur/data=!4m7!3m6!1s0x3bae71e0d3c3dd0d:0xd20807d2f0cdeb6!8m2!3d12.7310863!4d77.8030464!16s%2Fg%2F11pyznr44w!19sChIJDd3D0-BxrjsRtt4ML32AIA0?authuser=0&hl=en&rclk=1,"12.7310863,77.8030464"
ASTC MOSQUE,Mosque,"ASTC MOSQUE, MIG - 83, Old Astc Hudco, SBM Colony, Anthivadi, Hosur, Tamil Nadu 635109","Old Astc Hudco, SBM Colony, Anthivadi",MIG - 83,Hosur,635109,Tamil Nadu,IN,https://www.google.com/maps/place/ASTC+MOSQUE/data=!4m7!3m6!1s0x3bae71efa2b6d8cb:0xdffcd64de4899e0e!8m2!3d12.736323!4d77.817185!16s%2Fg%2F11mx324thv!19sChIJy9i2ou9xrjsRDp6J5E3W_N8?authuser=0&hl=en&rclk=1,"12.736322999999999,77.817185"
sharfi masjid,Mosque,"PV8M+CH sharfi masjid, Sipcot Phase II Industrial Complex, Sipcot Ph 2, Hosur, Tamil Nadu 635109","Sipcot Phase II Industrial Complex, Sipcot Ph 2",PV8M+CH,Hosur,,Tamil Nadu,IN,https://www.google.com/maps/place/sharfi+masjid/data=!4m7!3m6!1s0x3bae77ecc5696aff:0x89d39724a9e9b1e!8m2!3d12.7160114!4d77.8840319!16s%2Fg%2F11t53zk42y!19sChIJ_2ppxex3rjsRHpueSnI5nQg?authuser=0&hl=en&rclk=1,"12.7160114,77.8840319"
Jamiya Masjid,Mosque,"QR2W+Q5M Jamiya Masjid, Sultanpet, Hosur, Tamil Nadu 635109",Sultanpet,QR2W+Q5M,Hosur,635109,Tamil Nadu,IN,https://www.google.com/maps/place/Jamiya+Masjid/data=!4m7!3m6!1s0x3bae77c43a37a52b:0x320d546bf316f128!8m2!3d12.7519591!4d77.8454356!16s%2Fg%2F11fflttlr5!19sChIJK6U3OsR3rjsRKPEW82tUDTI?authuser=0&hl=en&rclk=1,"12.751959099999999,77.8454356"
Masjid e tooba,Mosque,"PRFX+764 Masjid e tooba, Hosur, Tamil Nadu 635109",,PRFX+764,Hosur,,Tamil Nadu,IN,https://www.google.com/maps/place/Masjid+e+tooba/data=!4m7!3m6!1s0x3bae7728843f437d:0x9aaac6c0de545ac6!8m2!3d12.7231393!4d77.8480687!16s%2Fg%2F11s233drd5!19sChIJfUM_hCh3rjsRxlpU3sDGqpo?authuser=0&hl=en&rclk=1,"12.7231393,77.8480687"
Masjid E Subhaniya,Mosque,"PVP4+P3C Masjid E Subhaniya, Unnamed Road, Kelavarapalli, Tamil Nadu 635109",,"PVP4+P3C, Unnamed Road",Kelavarapalli,635109,Tamil Nadu,IN,https://www.google.com/maps/place/Masjid+E+Subhaniya/data=!4m7!3m6!1s0x3bae77e72362c825:0x3a55efb7dabc91!8m2!3d12.7368018!4d77.8551484!16s%2Fg%2F11ft91ccfr!19sChIJJchiI-d3rjsRkbzat-9VOgA?authuser=0&hl=en&rclk=1,"12.7368018,77.85514839999999"
Masjid Ahle Hadees,Mosque,"Masjid Ahle Hadees, 2/705, kadavul nagar, Sanasandiram, Hosur, Tamil Nadu 635109","kadavul nagar, Sanasandiram",2/705,Hosur,635109,Tamil Nadu,IN,https://www.google.com/maps/place/Masjid+Ahle+Hadees/data=!4m7!3m6!1s0x3bae77317fb473ad:0x364e514241100d11!8m2!3d12.7214527!4d77.8437939!16s%2Fg%2F11tp26xt60!19sChIJrXO0fzF3rjsREQ0QQUJRTjY?authuser=0&hl=en&rclk=1,"12.721452699999999,77.8437939"
JUMMAH MASJITH,Mosque,"MRV9+F4X JUMMAH MASJITH, Karuppatti Rd, Hosur, Tamil Nadu 635109",,"MRV9+F4X, Karuppatti Rd",Hosur,635109,Tamil Nadu,IN,https://www.google.com/maps/place/JUMMAH+MASJITH/data=!4m7!3m6!1s0x3bae7b0feed0eb01:0x6003288a33561f63!8m2!3d12.6937373!4d77.8178516!16s%2Fg%2F11rxrmmv1j!19sChIJAevQ7g97rjsRYx9WM4ooA2A?authuser=0&hl=en&rclk=1,"12.693737299999999,77.8178516"
Mosque,Mosque,"Mosque, Nanjundeswara Koil street, Denkanikotta Rd, Hamumanthapuram, Anna Nagar, Hosur, Tamil Nadu 635109",Hamumanthapuram,"Nanjundeswara Koil street, Denkanikotta Rd","Anna Nagar, Hosur",635109,Tamil Nadu,IN,https://www.google.com/maps/place/Mosque/data=!4m7!3m6!1s0x3bae70c8b8400001:0xfc30761dfd85f159!8m2!3d12.7345378!4d77.8266325!16s%2Fg%2F11tgg7j0qn!19sChIJAQBAuMhwrjsRWfGF_R12MPw?authuser=0&hl=en&rclk=1,"12.7345378,77.8266325"
Masjid Al khair Rahmat Nagar,Place of worship,"Masjid Al khair Rahmat Nagar, Divya Garments, Samathuvapuram, Hosur, Tamil Nadu 635109",Samathuvapuram,Divya Garments,Hosur,635109,Tamil Nadu,IN,https://www.google.com/maps/place/Masjid+Al+khair+Rahmat+Nagar/data=!4m7!3m6!1s0x3bae779d6f8db613:0xd50f08ddb347a6e5!8m2!3d12.7543455!4d77.8435408!16s%2Fg%2F11j24lzxxg!19sChIJE7aNb513rjsR5aZHs90ID9U?authuser=0&hl=en&rclk=1,"12.7543455,77.8435408"
Tsentralna dzhamiia Khosur,Mosque,"Tsentralna dzhamiia Khosur, Jama Masjid, Hamumanthapuram, Kamaraj Colony, Hosur, Tamil Nadu 635109","Hamumanthapuram, Kamaraj Colony",Jama Masjid,Hosur,635109,Tamil Nadu,IN,https://www.google.com/maps/place/%D0%A6%D0%B5%D0%BD%D1%82%D1%80%D0%B0%D0%BB%D0%BD%D0%B0+%D0%B4%D0%B6%D0%B0%D0%BC%D0%B8%D1%8F+%D0%A5%D0%BE%D1%81%D1%83%D1%80/data=!4m7!3m6!1s0x3bae70c973e30b8b:0xb2ac4daee2ff65e3!8m2!3d12.7330688!4d77.8299225!16s%2Fg%2F11c32606r8!19sChIJiwvjc8lwrjsR42X_4q5NrLI?authuser=0&hl=en&rclk=1,"12.7330688,77.8299225"
Noorani masjid & Arabic madrasa,Place of worship,"MRV9+F4W Noorani masjid & Arabic madrasa, Kuruppatti, Hosur, Tamil Nadu 635109",,MRV9+F4W,"Kuruppatti, Hosur",,Tamil Nadu,IN,https://www.google.com/maps/place/Noorani+masjid+%26+Arabic+madrasa/data=!4m7!3m6!1s0x3bae7b02ad401d09:0x637841746ea1036c!8m2!3d12.6937252!4d77.8178358!16s%2Fg%2F11sr7zn0nh!19sChIJCR1ArQJ7rjsRbAOhbnRBeGM?authuser=0&hl=en&rclk=1,"12.6937252,77.8178358"
Masjid e munawara,Mosque,"Masjid e munawara, Danam Store, PRJ6+G94 Mukkalu sent, Noor Nagar, Hosur, Tamil Nadu 635109","Krishna Nagar, Noor Nagar","Danam Store, PRJ6+G94 Mukkalu sent",Hosur,635109,Tamil Nadu,IN,https://www.google.com/maps/place/Masjid+e+munawara/data=!4m7!3m6!1s0x3bae715c1094ae2d:0x38dee066608a8ac3!8m2!3d12.74575!4d77.8213124!16s%2Fg%2F11sk1sc5vg!19sChIJLa6UEFxxrjsRw4qKYGbg3jg?authuser=0&hl=en&rclk=1,"12.74575,77.8213124"
Masjid-e-mohamadia,Mosque,"PRP4+RH7 Masjid-e-mohamadia, Motham Agraharam, Hosur, Tamil Nadu 635126",,PRP4+RH7,"Motham Agraharam, Hosur",635126,Tamil Nadu,IN,https://www.google.com/maps/place/Masjid-e-mohamadia/data=!4m7!3m6!1s0x3bae71f9740ef55b:0xf41c387468625dd3!8m2!3d12.7370497!4d77.806428!16s%2Fg%2F11js78_4sw!19sChIJW_UOdPlxrjsR011iaHQ4HPQ?authuser=0&hl=en&rclk=1,"12.7370497,77.806428"
Masjid e ballur,Mosque,"QQ5R+32C Masjid e ballur, Ballur, Hosur, Karnataka 635126",Ballur,QQ5R+32C,Hosur,635126,Karnataka,IN,https://www.google.com/maps/place/Masjid+e+ballur/data=!4m7!3m6!1s0x3bae717444de4de1:0xb8c8f2039bf5f9ad!8m2!3d12.7581193!4d77.7902553!16s%2Fg%2F11kqst5dkk!19sChIJ4U3eRHRxrjsRrfn1mwPyyLg?authuser=0&hl=en&rclk=1,"12.758119299999999,77.7902553"
Mathigiri Muslim Kabristan,Mosque,"MRQ4+XH5 Mathigiri Muslim Kabristan, Mathigiri, Hosur, Tamil Nadu 635110",,MRQ4+XH5,"Mathigiri, Hosur",,Tamil Nadu,IN,https://www.google.com/maps/place/Mathigiri+Muslim+Kabristan/data=!4m7!3m6!1s0x3bae7b0e8a26f6b5:0x7645c2108a2b6415!8m2!3d12.6898778!4d77.8064827!16s%2Fg%2F11qb5qt36j!19sChIJtfYmig57rjsRFWQrihDCRXY?authuser=0&hl=en&rclk=1,"12.6898778,77.80648269999999"
Madina masjid hosur,Education center,"PRRG+948 Madina masjid hosur, Hosur, Avalapalli Hudco, Tamil Nadu 635109",,PRRG+948,"Hosur, Avalapalli Hudco",,Tamil Nadu,IN,https://www.google.com/maps/place/Madina+masjid+hosur/data=!4m7!3m6!1s0x3bae7130193e53ed:0xbd5f896f983d4392!8m2!3d12.7409194!4d77.8253377!16s%2Fg%2F11vc2lzlsk!19sChIJ7VM-GTBxrjsRkkM9mG-JX70?authuser=0&hl=en&rclk=1,"12.7409194,77.82533769999999"
Masjid-E-Firdosue,Museum,"Masjid-E-Firdosue, 20, 3rd Cross Rd, MM Nagar, Mookondapalli, Hosur, Tamil Nadu 635126",MM Nagar,"20, 3rd Cross Rd","Mookondapalli, Hosur",635126,Tamil Nadu,IN,https://www.google.com/maps/place/Masjid-E-Firdosue/data=!4m7!3m6!1s0x3bae718960a4add1:0x38bca72abb899681!8m2!3d12.7448221!4d77.8029195!16s%2Fg%2F11j59qvbd2!19sChIJ0a2kYIlxrjsRgZaJuyqnvDg?authuser=0&hl=en&rclk=1,"12.744822099999999,77.8029195"
