name,main_category,address,address_ward,address_street,address_city,address_postal_code,address_state,address_country_code,link,coordinates
"rHmtl lyl l'myn {Jamia masjid , Palma}",Mosque,"rHmtl lyl l'myn {Jamia masjid , Palma}, Jamia masjid, palma, Jammu and Kashmir 185132",,Jamia masjid,palma,185132,Jammu and Kashmir,IN,"https://www.google.com/maps/place/%D8%B1%D8%AD%D9%85%D8%AA%D9%84+%D9%84%DB%8C%D9%84+%D8%A7%D9%84%D8%A3%D9%85%DB%8C%D9%86+%7BJamia+masjid+,+Palma%7D%E2%80%AD/data=!4m7!3m6!1s0x391e2f5a91c1b9d1:0xd53e8b9280f1b22!8m2!3d33.3806014!4d74.3663686!16s%2Fg%2F11px366tk5!19sChIJ0bnBkVovHjkRIhsPKLnoUw0?authuser=0&hl=en&rclk=1","33.380601399999996,74.3663686"
"Jamia masjid , farwala",Mosque,"Jamia masjid , farwala, Palam Palam, Rajouri, Jammu and Kashmir 185132",,Palam Palam,"Rajouri, Palam",185132,Jammu and Kashmir,IN,"https://www.google.com/maps/place/Jamia+masjid+,+farwala/data=!4m7!3m6!1s0x391e2f2fe06bc2bb:0xa5b6d58a347fb367!8m2!3d33.3513975!4d74.3880699!16s%2Fg%2F11t59_7496!19sChIJu8Jr4C8vHjkRZ7N_NIrVtqU?authuser=0&hl=en&rclk=1","33.3513975,74.38806989999999"
Mehraj masjid,Mosque,"Mehraj masjid, Idgah Rd, Janta Colony, Subhash Park, Shahdara, Delhi, 110053","Janta Colony, Subhash Park, Shahdara","Mehraj masjid, Idgah Rd",Delhi,110053,Delhi,IN,https://www.google.com/maps/place/Mehraj+masjid/data=!4m7!3m6!1s0x390cfd694e906471:0x3808bf8783b4b9ae!8m2!3d28.6798103!4d77.2757147!16s%2Fg%2F11flc6dbc_!19sChIJcWSQTmn9DDkRrrm0g4e_CDg?authuser=0&hl=en&rclk=1,"28.6798103,77.2757147"
Sunehri Masjid,Mosque,"M62Q+5QW Sunehri Masjid, Nishad Raj Marg, Lal Qila, Old Delhi, New Delhi, Delhi, 110006","Lal Qila, Old Delhi","M62Q+5QW, Nishad Raj Marg","New Delhi, Delhi",110006,Delhi,IN,https://www.google.com/maps/place/Sunehri+Masjid/data=!4m7!3m6!1s0x390cfd1e2ed1ec0d:0xb341e6c5c83f65e7!8m2!3d28.650487!4d77.2394481!16s%2Fm%2F0zwr167!19sChIJDezRLh79DDkR52U_yMXmQbM?authuser=0&hl=en&rclk=1,"28.650487,77.23944809999999"
JAMA MASJID KHYALA msjd,Mosque,"JAMA MASJID KHYALA msjd, A Block, 830 Bus Stop,Khyala, near kaisho pur Mandi, Khayala, Vishnu Garden, New Delhi, Delhi 110018","Khayala, Vishnu Garden","A Block, 830 Bus Stop,Khyala, near kaisho pur Mandi","New Delhi, Delhi",110018,Delhi,IN,https://www.google.com/maps/place/JAMA+MASJID+KHYALA+%D9%85%D8%B3%D8%AC%D8%AF%E2%80%AD/data=!4m7!3m6!1s0x390d0486a64bd433:0x1d4915a77e8074da!8m2!3d28.6521001!4d77.0963329!16s%2Fg%2F11bt_hw75j!19sChIJM9RLpoYEDTkR2nSAfqcVSR0?authuser=0&hl=en&rclk=1,"28.6521001,77.0963329"
Hari Nagar Masjid (Masjid Faiz E Aam),Mosque,"J4G7+CRV Hari Nagar Masjid (Masjid Faiz E Aam), Hari Enclave, Hari Nagar, New Delhi, Delhi, 110064","Hari Enclave, Hari Nagar",J4G7+CRV,"New Delhi, Delhi",110064,Delhi,IN,https://www.google.com/maps/place/Hari+Nagar+Masjid+%28Masjid+Faiz+E+Aam%29/data=!4m7!3m6!1s0x390d03454925c8c9:0xe533a91ccf555436!8m2!3d28.6261154!4d77.1145358!16s%2Fg%2F1tw_lmmr!19sChIJycglSUUDDTkRNlRVzxypM-U?authuser=0&hl=en&rclk=1,"28.6261154,77.1145358"
ehle islam masjid,Mosque,"M424+RPW ehle islam masjid, Road No. 28, Block F, Tagore Garden, Tagore Garden Extension, Delhi, 110027","Block F, Tagore Garden, Tagore Garden Extension","M424+RPW, Road No. 28",Delhi,110027,Delhi,IN,https://www.google.com/maps/place/ehle+islam+masjid/data=!4m7!3m6!1s0x390d037c17da8ec7:0x293fd9ad00fa4988!8m2!3d28.6521245!4d77.1068316!16s%2Fg%2F1260w63bx!19sChIJx47aF3wDDTkRiEn6AK3ZPyk?authuser=0&hl=en&rclk=1,"28.6521245,77.10683159999999"
Aqsa Masjid,Mosque,"J4V4+RF8 Aqsa Masjid, Block K, Shyam Nagar, Vishnu Garden, New Delhi, Delhi, 110018","Block K, Shyam Nagar, Vishnu Garden",J4V4+RF8,"New Delhi, Delhi",110018,Delhi,IN,https://www.google.com/maps/place/Aqsa+Masjid/data=!4m7!3m6!1s0x390d03630625fadf:0xb38cbe8f95ab75d4!8m2!3d28.6445374!4d77.1061898!16s%2Fg%2F11cs5hdgrw!19sChIJ3_olBmMDDTkR1HWrlY--jLM?authuser=0&hl=en&rclk=1,"28.644537399999997,77.1061898"
Jamia Masjid Near Police Line,Mosque,"9898+W92 Jamia Masjid Near Police Line, Panja Bus Stop,, Gujjar Nagar, Rajouri",Gujjar Nagar,"9898+W92, Panja Bus Stop,",Rajouri,,,IN,https://www.google.com/maps/place/Jamia+Masjid+Near+Police+Line/data=!4m7!3m6!1s0x391e2e809ea5b749:0xc26c3c981174e286!8m2!3d33.3697665!4d74.3158822!16s%2Fg%2F11bw22cj2t!19sChIJSbelnoAuHjkRhuJ0EZg8bMI?authuser=0&hl=en&rclk=1,"33.3697665,74.31588219999999"
Jamia-Mosque Kotranka,Mosque,"Jamia-Mosque Kotranka, 185136, Kotranka-khwas road, Near main chowk kotranka, Rajouri Jammu & Kashmir",,"185136, Kotranka-khwas road, Near main chowk kotranka, Rajouri Jammu & Kashmir",Kotranka,,,IN,https://www.google.com/maps/place/Jamia-Mosque+Kotranka/data=!4m7!3m6!1s0x391e2306cd2d0a5d:0xc37d1663465ee7ce!8m2!3d33.3592661!4d74.5202831!16s%2Fg%2F11gk8nfhb8!19sChIJXQotzQYjHjkRzudeRmMWfcM?authuser=0&hl=en&rclk=1,"33.3592661,74.5202831"
Madina MASJID,Mosque,"Madina MASJID, 385, Manak Vihar Rd, Manak Vihar, Tihar Village, New Delhi, Delhi, 110018","Manak Vihar, Tihar Village","385, Manak Vihar Rd","New Delhi, Delhi",110018,Delhi,IN,https://www.google.com/maps/place/Madina+MASJID/data=!4m7!3m6!1s0x390d035e46292a5b:0x99c49dd2b7697b17!8m2!3d28.6340679!4d77.1061559!16s%2Fg%2F11c1n36l08!19sChIJWyopRl4DDTkRF3tpt9KdxJk?authuser=0&hl=en&rclk=1,"28.634067899999998,77.10615589999999"
Jamia Masjid Danidhar,Mosque,"98JG+6JW Jamia Masjid Danidhar, University Road, Rajouri, 185131",,"98JG+6JW, University Road",Rajouri,185131,,IN,https://www.google.com/maps/place/Jamia+Masjid+Danidhar/data=!4m7!3m6!1s0x391e2e8e34e7389d:0xabdcdd1d39fd5b65!8m2!3d33.3806145!4d74.3265844!16s%2Fg%2F11clys_06b!19sChIJnTjnNI4uHjkRZVv9OR3d3Ks?authuser=0&hl=en&rclk=1,"33.3806145,74.3265844"
Jamia Masjid,Mosque,"Jamia Masjid, NH 144A, Kheora, Rajouri, Jammu and Kashmir 185131",Kheora,NH 144A,Rajouri,185131,Jammu and Kashmir,IN,https://www.google.com/maps/place/Jamia+Masjid/data=!4m7!3m6!1s0x391e2ea1a0616d43:0x1dced59b5b5b1727!8m2!3d33.3940314!4d74.3160523!16s%2Fg%2F11cm0jlkqm!19sChIJQ21hoKEuHjkRJxdbW5vVzh0?authuser=0&hl=en&rclk=1,"33.394031399999996,74.3160523"
857 Wali Masjid,Mosque,"857 Wali Masjid, 857, Block F, Raghubir Nagar, Tagore Garden Extension, Delhi, 110027","Block F, Raghubir Nagar, Tagore Garden Extension",857,Delhi,110027,Delhi,IN,https://www.google.com/maps/place/857+Wali+Masjid/data=!4m7!3m6!1s0x390d038c0c611129:0x28e5230bc3751715!8m2!3d28.6520018!4d77.1063829!16s%2Fg%2F11smynhfw0!19sChIJKRFhDIwDDTkRFRd1wwsj5Sg?authuser=0&hl=en&rclk=1,"28.652001799999997,77.1063829"
Jamia Masjid kas,Mosque,"986J+XFF Jamia Masjid kas, Chaprian Rd, Chaprian, Rajouri, Jammu and Kashmir 185132",Chaprian,"986J+XFF, Chaprian Rd",Rajouri,185132,Jammu and Kashmir,IN,https://www.google.com/maps/place/Jamia+Masjid+kas/data=!4m7!3m6!1s0x391e2e66418263a3:0x7a9c555a45f9ad62!8m2!3d33.3624429!4d74.3311627!16s%2Fg%2F11cnm6c9cy!19sChIJo2OCQWYuHjkRYq35RVpVnHo?authuser=0&hl=en&rclk=1,"33.3624429,74.3311627"
Fakhrul Masjid msjd,Mosque,"Fakhrul Masjid msjd, 1268, Bara Bazar Rd, Chabi Ganj, Kashmere Gate, New Delhi, Delhi, 110006","Chabi Ganj, Kashmere Gate","1268, Bara Bazar Rd","New Delhi, Delhi",110006,Delhi,IN,https://www.google.com/maps/place/Fakhrul+Masjid+%D9%85%D8%B3%D8%AC%D8%AF%E2%80%AD/data=!4m7!3m6!1s0x390cfd060683b301:0xc9d92074bb420992!8m2!3d28.665012!4d77.2295583!16s%2Fg%2F11cmytc3k3!19sChIJAbODBgb9DDkRkglCu3Qg2ck?authuser=0&hl=en&rclk=1,"28.665011999999997,77.2295583"
Choti Maszid,Mosque,"Choti Maszid, Wz 572, H 157, Manak Vihar, Tihar Village, New Delhi, Delhi 110018","Manak Vihar, Tihar Village","Wz 572, H 157","New Delhi, Delhi",110018,Delhi,IN,https://www.google.com/maps/place/Choti+Maszid/data=!4m7!3m6!1s0x390d035e50ee310d:0x6caf3fe9f0340942!8m2!3d28.6332153!4d77.1060315!16s%2Fg%2F11bwl3tcv9!19sChIJDTHuUF4DDTkRQgk08Ok_r2w?authuser=0&hl=en&rclk=1,"28.6332153,77.1060315"
Jamia Masjid Nagrota,Mosque,"987X+WV2 Jamia Masjid Nagrota, Samote Loharan Hwy, Tralla Gujjran, 185151",,"987X+WV2, Samote Loharan Hwy",Tralla Gujjran,185151,,IN,https://www.google.com/maps/place/Jamia+Masjid+Nagrota/data=!4m7!3m6!1s0x391e2e504dcc0aab:0x6e21ee405376d10!8m2!3d33.3647725!4d74.3496517!16s%2Fg%2F11clvyjqgy!19sChIJqwrMTVAuHjkREG03BeQe4gY?authuser=0&hl=en&rclk=1,"33.3647725,74.3496517"
Khawaja Garib Nawaz Masjid.,Mosque,"Khawaja Garib Nawaz Masjid., ward no 2 Dc colony Rajouri. pincode 185131 (j&K",DC Colony,ward no 2 Dc colony Rajouri. pincode 185131 (j&K,Rajouri,,,IN,https://www.google.com/maps/place/Khawaja+Garib+Nawaz+Masjid./data=!4m7!3m6!1s0x391e2f1d6e8607cb:0xbd0d7ab789c8f41c!8m2!3d33.382275!4d74.3140103!16s%2Fg%2F11gjvfg6q_!19sChIJyweGbh0vHjkRHPTIibd6Db0?authuser=0&hl=en&rclk=1,"33.382275,74.31401029999999"
Faizan e mustafa masjid shareef (Markazi masjid of dawat-e-islami),Mosque,"Faizan e mustafa masjid shareef (Markazi masjid of dawat-e-islami), Ward no 3 Bella/Madina colony (Markazi masjid of dawat-e-islami, near new bridge, Madina Colony, Rajouri, Jammu and Kashmir 185131",Madina Colony,"Ward no 3 Bella/Madina colony (Markazi masjid of dawat-e-islami, near new bridge",Rajouri,185131,Jammu and Kashmir,IN,https://www.google.com/maps/place/Faizan+e+mustafa+masjid+shareef+%28Markazi+masjid+of+dawat-e-islami%29/data=!4m7!3m6!1s0x391e2de829a3d931:0x3ce77d9c7bf57ce1!8m2!3d33.3816268!4d74.310468!16s%2Fg%2F11n0x1dnrw!19sChIJMdmjKegtHjkR4Xz1e5x95zw?authuser=0&hl=en&rclk=1,"33.3816268,74.310468"
Jamia Masjid BGSBU,Mosque,"98WX+XC4 Jamia Masjid BGSBU, University Road, Rajouri, Jammu and Kashmir 185234",,"98WX+XC4, University Road",Rajouri,185234,Jammu and Kashmir,IN,https://www.google.com/maps/place/Jamia+Masjid+BGSBU/data=!4m7!3m6!1s0x391e2edd165217d9:0x23f7f30cdec5cc3b!8m2!3d33.397386!4d74.3485702!16s%2Fg%2F11cls_mnn4!19sChIJ2RdSFt0uHjkRO8zF3gzz9yM?authuser=0&hl=en&rclk=1,"33.397386,74.3485702"
Masjid-Al-Huda,Mosque,"98H6+7XJ Masjid-Al-Huda, Darhal Rd, Bella Colony, Rajouri, Jammu and Kashmir 185131",Bella Colony,"98H6+7XJ, Darhal Rd",Rajouri,185131,Jammu and Kashmir,IN,https://www.google.com/maps/place/Masjid-Al-Huda/data=!4m7!3m6!1s0x391e2e829a2cde45:0xd42afdf05581ed18!8m2!3d33.3782132!4d74.3123764!16s%2Fg%2F12cpm9_r_!19sChIJRd4smoIuHjkRGO2BVfD9KtQ?authuser=0&hl=en&rclk=1,"33.3782132,74.31237639999999"
Ghausiya Rajviya Masjid,Mosque,"Ghausiya Rajviya Masjid, K-1/183/18-C G/F, k Block, Ratiya Marg, Sangam Vihar, New Delhi, Delhi 110080","Block I 1, Sangam Vihar","K-1/183/18-C G/F, k Block, Ratiya Marg",New Delhi,110080,Delhi,IN,https://www.google.com/maps/place/Ghausiya+Rajviya+Masjid/data=!4m7!3m6!1s0x390ce11ad89c6201:0xf0683425acb0e1d1!8m2!3d28.497293!4d77.2527601!16s%2Fg%2F11fy_q196g!19sChIJAWKc2BrhDDkR0eGwrCU0aPA?authuser=0&hl=en&rclk=1,"28.497293,77.2527601"
Madarasa Islamiah,Mosque,"Madarasa Islamiah, 935, Ratan Park, Basai Dara pur, Bali Nagar, New Delhi, Delhi, 110015","Ratan Park, Basai Dara pur, Bali Nagar",935,"New Delhi, Delhi",110015,Delhi,IN,https://www.google.com/maps/place/Madarasa+Islamiah/data=!4m7!3m6!1s0x390d030ec26a124f:0xcbb44624280fcac8!8m2!3d28.6541062!4d77.1331441!16s%2Fg%2F11d_7x83ym!19sChIJTxJqwg4DDTkRyMoPKCRGtMs?authuser=0&hl=en&rclk=1,"28.654106199999998,77.1331441"
Masjid Dhanore,Mosque,"98WP+29J Masjid Dhanore, University Road, Rajouri, 185234",,"98WP+29J, University Road",Rajouri,185234,,IN,https://www.google.com/maps/place/Masjid+Dhanore/data=!4m7!3m6!1s0x391e2ec00da4a075:0x45247d0a523bf6de!8m2!3d33.3950845!4d74.3359044!16s%2Fg%2F11clyt1cbx!19sChIJdaCkDcAuHjkR3vY7Ugp9JEU?authuser=0&hl=en&rclk=1,"33.395084499999996,74.33590439999999"
Mosque msjd,Mosque,"Mosque msjd, 3696, Mori Gate, New Delhi, Delhi 110006",Mori Gate,3696,"New Delhi, Delhi",110006,Delhi,IN,https://www.google.com/maps/place/Mosque+%D9%85%D8%B3%D8%AC%D8%AF%E2%80%AD/data=!4m7!3m6!1s0x390cfd0c79fa6f11:0x326ac233054d2efa!8m2!3d28.6635017!4d77.2212005!16s%2Fg%2F12lkq2186!19sChIJEW_6eQz9DDkR-i5NBTPCajI?authuser=0&hl=en&rclk=1,"28.663501699999998,77.2212005"
RAZA MASJID,Mosque,"RAZA MASJID, J-Block Prem Nagar -ll, 70, Futa Rd, Kirari Suleman Nagar, Delhi, 110086","Block J, Prem Nagar I, Kirari Suleman Nagar","J-Block Prem Nagar -ll, 70, Futa Rd",Delhi,110086,Delhi,IN,https://www.google.com/maps/place/RAZA+MASJID/data=!4m7!3m6!1s0x390d05d34e3a258f:0x3878088d975a63bb!8m2!3d28.6930517!4d77.05596!16s%2Fg%2F11hd70s_gr!19sChIJjyU6TtMFDTkRu2Nal40IeDg?authuser=0&hl=en&rclk=1,"28.693051699999998,77.05596"
Masjid Saiyn Jaan Muhammad,Mosque,"9865+3HX Masjid Saiyn Jaan Muhammad, Chachara jungle, Dasal, 185131",,"9865+3HX, Chachara jungle, Dasal",,185131,,IN,https://www.google.com/maps/place/Masjid+Saiyn+Jaan+Muhammad/data=!4m7!3m6!1s0x391e2d833493de69:0xe3276a1e1f4a215b!8m2!3d33.3602327!4d74.3089914!16s%2Fg%2F11pbrdshz0!19sChIJad6TNIMtHjkRWyFKHx5qJ-M?authuser=0&hl=en&rclk=1,"33.3602327,74.3089914"
Jamia masjid rajouri,Mosque,"98G7+39F Jamia masjid rajouri, Rajouri, 185131",,98G7+39F,Rajouri,,,IN,https://www.google.com/maps/place/Jamia+masjid+rajouri/data=!4m7!3m6!1s0x391e2f2d20d576dd:0x12569c2616c93f1f!8m2!3d33.3751936!4d74.3134221!16s%2Fg%2F11q9j3zmxh!19sChIJ3XbVIC0vHjkRHz_JFiacVhI?authuser=0&hl=en&rclk=1,"33.375193599999996,74.3134221"
Dhanore Tindian Masjid,Mosque,"Dhanore Tindian Masjid, R/O VILLAGE DHANORE TINDIAN TEHSIL AND DISTRICT RAJOURI PIN CODE 185132 STATE, Jammu and Kashmir",,R/O VILLAGE DHANORE TINDIAN TEHSIL AND DISTRICT RAJOURI PIN CODE 185132 STATE,Rajouri,,Jammu and Kashmir,IN,https://www.google.com/maps/place/Dhanore+Tindian+Masjid/data=!4m7!3m6!1s0x391e2f8afe65ac87:0x54559d122c4d34fd!8m2!3d33.3851361!4d74.3343494!16s%2Fg%2F11h24ncchv!19sChIJh6xl_oovHjkR_TRNLBKdVVQ?authuser=0&hl=en&rclk=1,"33.3851361,74.3343494"
Noorani Masjid Dhanore Jarallan,Mosque,"98WG+JWR Noorani Masjid Dhanore Jarallan, Rajouri, 185131",,98WG+JWR,Rajouri,,,IN,https://www.google.com/maps/place/Noorani+Masjid+Dhanore+Jarallan/data=!4m7!3m6!1s0x391e2fe1f3f8c21d:0xf5775c99af21babb!8m2!3d33.3966249!4d74.3272539!16s%2Fg%2F11lrscktmr!19sChIJHcL48-EvHjkRu7ohr5lcd_U?authuser=0&hl=en&rclk=1,"33.3966249,74.3272539"
Masjid Aashikan-E-Rasool,Mosque,"Masjid Aashikan-E-Rasool, B168A, Block B, Baljit Nagar, Patel Nagar, New Delhi, Delhi, 110008","Block B, Baljit Nagar, Patel Nagar",B168A,"New Delhi, Delhi",110008,Delhi,IN,https://www.google.com/maps/place/Masjid+Aashikan-E-Rasool/data=!4m7!3m6!1s0x390d03568277eb99:0x27959f1a230ab399!8m2!3d28.6610366!4d77.1631945!16s%2Fg%2F11qz5hv88s!19sChIJmet3glYDDTkRmbMKIxqflSc?authuser=0&hl=en&rclk=1,"28.6610366,77.1631945"
Jamia Masjid Dara,Mosque,"GCV3+HHJ Jamia Masjid Dara, Dara, Rajouri, Thannamandi, Jammu and Kashmir 185212",,"GCV3+HHJ, Dara, Rajouri","Thannamandi, Dara",185212,Jammu and Kashmir,IN,https://www.google.com/maps/place/Jamia+Masjid+Dara/data=!4m7!3m6!1s0x38e1d7886dc5ef9f:0x4608e5d7a245938d!8m2!3d33.54397!4d74.4038944!16s%2Fg%2F11bxfz426j!19sChIJn-_FbYjX4TgRjZNFotflCEY?authuser=0&hl=en&rclk=1,"33.54397,74.4038944"
Ishaq Masjid,Mosque,"Ishaq Masjid, Ishaq Masjid Wali Gali, Block C, Sarai Kale Khan, New Delhi, Delhi 110013","Block C, Sarai Kale Khan",Ishaq Masjid Wali Gali,New Delhi,110013,Delhi,IN,https://www.google.com/maps/place/Ishaq+Masjid/data=!4m7!3m6!1s0x390ce376f8a80f59:0x43d242dbd3376818!8m2!3d28.5849571!4d77.2565889!16s%2Fg%2F11q2tx_6x1!19sChIJWQ-o-HbjDDkRGGg309tC0kM?authuser=0&hl=en&rclk=1,"28.5849571,77.2565889"
Mir Masjid,Mosque,"P27J+8VC Mir Masjid, Block A, Meer Vihar, Mubarakpur Dabas, Delhi, 110081","Block A, Meer Vihar, Mubarakpur Dabas",P27J+8VC,Delhi,110081,Delhi,IN,https://www.google.com/maps/place/Mir+Masjid/data=!4m7!3m6!1s0x390d061341a10179:0xe56f005aff3cf287!8m2!3d28.7133006!4d77.0321507!16s%2Fg%2F11f00d0rll!19sChIJeQGhQRMGDTkRh_I8_1oAb-U?authuser=0&hl=en&rclk=1,"28.7133006,77.0321507"
Dhanore Jarallan Masjid,Mosque,"98QJ+7Q Dhanore Jarallan Masjid, R/O VILLAGE DHANORE JARALLAN,TEHSIL AND DISTRICT RAJOURI, PINCODE 185132, STATE, Rajouri, Jammu and Kashmir",,"98QJ+7Q, R/O VILLAGE DHANORE JARALLAN,TEHSIL AND DISTRICT RAJOURI, PINCODE 185132, STATE",Rajouri,,Jammu and Kashmir,IN,https://www.google.com/maps/place/Dhanore+Jarallan+Masjid/data=!4m7!3m6!1s0x391e2fe8e30057c7:0x2db3e168416d16cb!8m2!3d33.3900698!4d74.3339725!16s%2Fg%2F11h24ns91y!19sChIJx1cA4-gvHjkRyxZtQWjhsy0?authuser=0&hl=en&rclk=1,"33.3900698,74.3339725"
Masjid sharief,Mosque,"6F52+8V3 Masjid sharief, Jungerial, 185201",,6F52+8V3,Jungerial,,,IN,https://www.google.com/maps/place/Masjid+sharief/data=!4m7!3m6!1s0x391e399393578e55:0x4c03e17c78b350f4!8m2!3d33.2082551!4d74.452173!16s%2Fg%2F11rn3w2znl!19sChIJVY5Xk5M5HjkR9FCzeHzhA0w?authuser=0&hl=en&rclk=1,"33.208255099999995,74.452173"
Jamia Masjid Androoth,Mosque,"65VP+XPP Jamia Masjid Androoth, Androoth, Qila Darhal, 185151",,"65VP+XPP, Androoth","Qila Darhal, Bagla",185151,,IN,https://www.google.com/maps/place/Jamia+Masjid+Androoth/data=!4m7!3m6!1s0x391fcd5f1cf6d9cf:0xc3155d3cdef9983!8m2!3d33.2449592!4d74.1868376!16s%2Fg%2F11mnkwfr4w!19sChIJz9n2HF_NHzkRg5nvzdNVMQw?authuser=0&hl=en&rclk=1,"33.2449592,74.18683759999999"
Jamia Masjid,Mosque,"98W7+QW8 Jamia Masjid, RESIDENCY ROAD, opposite JAMAI MASJID, Aitey, Jammu and Kashmir 185131",,"98W7+QW8, RESIDENCY ROAD, opposite JAMAI MASJID",Aitey,185131,Jammu and Kashmir,IN,https://www.google.com/maps/place/Jamia+Masjid/data=!4m7!3m6!1s0x391e2f12745f19ff:0x2c88ee3282fcdc1d!8m2!3d33.3969095!4d74.3148232!16s%2Fg%2F11lg2rdgp9!19sChIJ_xlfdBIvHjkRHdz8gjLuiCw?authuser=0&hl=en&rclk=1,"33.3969095,74.31482319999999"
"Jamia Masjid-Forest Park, Palma",Mosque,"Jamia Masjid-Forest Park, Palma, Kotranka road Palma, 185132",,Kotranka road Palma,,185132,,IN,"https://www.google.com/maps/place/Jamia+Masjid-Forest+Park,+Palma/data=!4m7!3m6!1s0x391e2f725dd85a93:0x39832c4a144d0ab2!8m2!3d33.376964!4d74.3740042!16s%2Fg%2F11lsrjvjgx!19sChIJk1rYXXIvHjkRsgpNFEosgzk?authuser=0&hl=en&rclk=1","33.376964,74.3740042"
Jamia Masjid,Mosque,"98M8+Q8X Jamia Masjid, Rajouri, 185131",,98M8+Q8X,Rajouri,,,IN,https://www.google.com/maps/place/Jamia+Masjid/data=!4m7!3m6!1s0x391e2fa328b5eebb:0x43af608f090b064e!8m2!3d33.3844967!4d74.3158508!16s%2Fg%2F11qmr933_n!19sChIJu-61KKMvHjkRTgYLCY9gr0M?authuser=0&hl=en&rclk=1,"33.3844967,74.31585079999999"
Raj ki masjid,Mosque,"J6H9+856 Raj ki masjid, Janpath Ln, Janpath, Connaught Place, New Delhi, Delhi 110001","Janpath, Connaught Place","J6H9+856, Janpath Ln",New Delhi,110001,Delhi,IN,https://www.google.com/maps/place/Raj+ki+masjid/data=!4m7!3m6!1s0x390cfd35f0d20bdb:0x6a589fe7aea64422!8m2!3d28.6282976!4d77.2178997!16s%2Fg%2F11fxxthr4h!19sChIJ2wvS8DX9DDkRIkSmruefWGo?authuser=0&hl=en&rclk=1,"28.6282976,77.21789969999999"
Ziarat peer Baba,Mosque,"77HX+FWH Ziarat peer Baba, Kellar, Rajouri, 185151",Kellar,77HX+FWH,Rajouri,,,IN,https://www.google.com/maps/place/Ziarat+peer+Baba/data=!4m7!3m6!1s0x391e33456cf637a5:0x7a7d3fcff2611658!8m2!3d33.2786771!4d74.2998575!16s%2Fg%2F11rk874ljw!19sChIJpTf2bEUzHjkRWBZh8s8_fXo?authuser=0&hl=en&rclk=1,"33.278677099999996,74.2998575"
Masjid Syed Rafai,Mosque,"J6WM+QH6 Masjid Syed Rafai, Bazar Chitli Qabar, Sheesh Mahal, Old Delhi, Delhi, 110006","Bazar Chitli Qabar, Sheesh Mahal, Old Delhi",J6WM+QH6,Delhi,110006,Delhi,IN,https://www.google.com/maps/place/Masjid+Syed+Rafai/data=!4m7!3m6!1s0x390cfd221053c913:0x87b5fec533d754bb!8m2!3d28.6469176!4d77.2338965!16s%2Fg%2F11g86m2x49!19sChIJE8lTECL9DDkRu1TXM8X-tYc?authuser=0&hl=en&rclk=1,"28.6469176,77.2338965"
Noori Masjid,Mosque,"Noori Masjid, S286, Block S, Brahampuri, Shahdara, Delhi, 110053","Block S, Brahampuri, Shahdara",S286,Delhi,110053,Delhi,IN,https://www.google.com/maps/place/Noori+Masjid/data=!4m7!3m6!1s0x390cfd49000e16b7:0x7fdd492a359ff0ad!8m2!3d28.68057!4d77.2665461!16s%2Fg%2F11rc9rdr_1!19sChIJtxYOAEn9DDkRrfCfNSpJ3X8?authuser=0&hl=en&rclk=1,"28.68057,77.2665461"
Rasheediya Masjid,Mosque,"Q76W+J7G Rasheediya Masjid, Loni Dehat, Uttar Pradesh 201102",Loni Dehat,Q76W+J7G,,201102,Uttar Pradesh,IN,https://www.google.com/maps/place/Rasheediya+Masjid/data=!4m7!3m6!1s0x390cf977c9c09b4d:0x6b69c09e0fbc6f3c!8m2!3d28.761574!4d77.2956928!16s%2Fg%2F11qp903qbz!19sChIJTZvAyXf5DDkRPG-8D57AaWs?authuser=0&hl=en&rclk=1,"28.761574,77.2956928"
Rajoli masjid,Mosque,"RX2C+V8F Rajoli masjid, Ferozepur Jhirka Rural, Haryana 122104",,RX2C+V8F,Ferozepur Jhirka Rural,122104,Haryana,IN,https://www.google.com/maps/place/Rajoli+masjid/data=!4m7!3m6!1s0x3972c531ff10a21d:0xccca53b17530013f!8m2!3d27.8021874!4d76.9708!16s%2Fg%2F11qslsc0b_!19sChIJHaIQ_zHFcjkRPwEwdbFTysw?authuser=0&hl=en&rclk=1,"27.802187399999998,76.9708"
Jamia Masjid,Mosque,"878H+RVG Jamia Masjid, Meari Gujran, 185151",,878H+RVG,Meari Gujran,185151,,IN,https://www.google.com/maps/place/Jamia+Masjid/data=!4m7!3m6!1s0x391e3339a9313f2f:0xc457d7649c9a7802!8m2!3d33.3170685!4d74.2797171!16s%2Fg%2F11qzg_7y40!19sChIJLz8xqTkzHjkRAnianGTXV8Q?authuser=0&hl=en&rclk=1,"33.3170685,74.2797171"
"Jamia Masjid, Sawani",Mosque,"875M+R76 Jamia Masjid, Sawani, Meari Gujran, 185151",,875M+R76,Meari Gujran,185151,,IN,"https://www.google.com/maps/place/Jamia+Masjid,+Sawani/data=!4m7!3m6!1s0x391e33f45dd82791:0x12d11a6ebb888021!8m2!3d33.3095409!4d74.2831538!16s%2Fg%2F11nsysqckg!19sChIJkSfYXfQzHjkRIYCIu24a0RI?authuser=0&hl=en&rclk=1","33.3095409,74.2831538"
Jeerey Masjid,Mosque,"C76R+RP6 Jeerey Masjid, Kakora, 185131",,C76R+RP6,Kakora,185131,,IN,https://www.google.com/maps/place/Jeerey+Masjid/data=!4m7!3m6!1s0x391e2b786a36aa6d:0x8dd10e1d2e68b980!8m2!3d33.4120345!4d74.2917576!16s%2Fg%2F11mqxdtqm3!19sChIJbao2angrHjkRgLloLh0O0Y0?authuser=0&hl=en&rclk=1,"33.4120345,74.2917576"
Jamia Masjid Ahlihadees Rajouri,Mosque,"Ward no.02, Jamia Masjid Ahlihadees Rajouri, 98H7+F5M, medina Colony, Rajouri, 185131",Bella Colony,"Ward no.02, 98H7+F5M, medina Colony",Rajouri,185131,,IN,https://www.google.com/maps/place/Jamia+Masjid+Ahlihadees+Rajouri/data=!4m7!3m6!1s0x391e2f3ffad07d23:0x3d0fc88f79a5d5e6!8m2!3d33.3787125!4d74.3129219!16s%2Fg%2F11nytbf4z8!19sChIJI33Q-j8vHjkR5tWleY_IDz0?authuser=0&hl=en&rclk=1,"33.3787125,74.31292189999999"
Jamia Masjid Sawani,Mosque,"Jamia Masjid Sawani, Swani ward no 2, Rajouri, Jammu and Kashmir 185151",,Swani ward no 2,Rajouri,185151,Jammu and Kashmir,IN,https://www.google.com/maps/place/Jamia+Masjid+Sawani/data=!4m7!3m6!1s0x391e2fa52906a535:0x79677593311e3a8f!8m2!3d33.3717007!4d74.312823!16s%2Fg%2F11r6dcdmzm!19sChIJNaUGKaUvHjkRjzoeMZN1Z3k?authuser=0&hl=en&rclk=1,"33.3717007,74.312823"
jm`h msjd shryf chwdN khwtt,Mosque,"C6G8+F9P jm`h msjd shryf chwdN khwtt, nykhh pnjgry'yN, Rajouri, Tarkundi, Jammu and Kashmir 185131",,"C6G8+F9P, nykhh pnjgry'yN","Rajouri, Tarkundi",185131,Jammu and Kashmir,IN,https://www.google.com/maps/place/%D8%AC%D8%A7%D9%85%D8%B9%DB%81+%D9%85%D8%B3%D8%AC%D8%AF+%D8%B4%D8%B1%DB%8C%D9%81+%DA%86%D9%88%D8%AF%D8%A7%DA%BA+%DA%A9%D9%88%D9%B9%E2%80%AD/data=!4m7!3m6!1s0x391fd5f79bb6ee35:0x2871edabc07429e4!8m2!3d33.4262052!4d74.2159547!16s%2Fg%2F11nyky_z6n!19sChIJNe62m_fVHzkR5Cl0wKvtcSg?authuser=0&hl=en&rclk=1,"33.4262052,74.2159547"
Jamia Masjid Saaj-B Khokher Mohalla,Mosque,"F88R+HF9 Jamia Masjid Saaj-B Khokher Mohalla, Bidha Kanna, 185132",,F88R+HF9,Bidha Kanna,185132,,IN,https://www.google.com/maps/place/Jamia+Masjid+Saaj-B+Khokher+Mohalla/data=!4m7!3m6!1s0x391e2964754b5b7b:0x8d2745e014cf0fc2!8m2!3d33.4645953!4d74.3393333!16s%2Fg%2F11rw_qlc38!19sChIJe1tLdWQpHjkRwg_PFOBFJ40?authuser=0&hl=en&rclk=1,"33.4645953,74.33933329999999"
Jamia Masjid Sokar,Mosque,"CCX6+5JV Jamia Masjid Sokar, Sokar, Sagrawat, 185132",,CCX6+5JV,"Sokar, Sagrawat",185132,,IN,https://www.google.com/maps/place/Jamia+Masjid+Sokar/data=!4m7!3m6!1s0x391e27a58334f351:0xb626c0bbc6715ab1!8m2!3d33.4479842!4d74.4115618!16s%2Fg%2F11pkcrf3mj!19sChIJUfM0g6UnHjkRsVpxxrvAJrY?authuser=0&hl=en&rclk=1,"33.4479842,74.4115618"
Mughalia Jamia Masjid Rajouri,Historical landmark,"96JR+MHM Mughalia Jamia Masjid Rajouri, 98G7+M36Rajouri, Panj Grian, Jammu and Kashmir 185131",,96JR+MHM,"98G7+M36Rajouri, Panj Grian",185131,Jammu and Kashmir,IN,https://www.google.com/maps/place/Mughalia+Jamia+Masjid+Rajouri/data=!4m7!3m6!1s0x391e2d0e943a9fbf:0x6a34a15ba071c251!8m2!3d33.3817121!4d74.2414092!16s%2Fg%2F11svs9x5x_!19sChIJv586lA4tHjkRUcJxoFuhNGo?authuser=0&hl=en&rclk=1,"33.3817121,74.24140919999999"
Masjid-e-Baraqat,Mosque,"Masjid-e-Baraqat, Farwalla palma, Rajouri, Kot Dhra, Jammu and Kashmir 185151",,Farwalla palma,"Rajouri, Kot Dhra",,Jammu and Kashmir,IN,https://www.google.com/maps/place/Masjid-e-Baraqat/data=!4m7!3m6!1s0x391e2fc1a0c33d07:0xae90b5db34afeb90!8m2!3d33.3770939!4d74.3889501!16s%2Fg%2F11pd31xb3l!19sChIJBz3DoMEvHjkRkOuvNNu1kK4?authuser=0&hl=en&rclk=1,"33.3770939,74.3889501"
Ahla hadees Masjid,Mosque,"98C8+J3W Ahla hadees Masjid, Rajouri, Jammu and Kashmir 185131",,98C8+J3W,Rajouri,,Jammu and Kashmir,IN,https://www.google.com/maps/place/Ahla+hadees+Masjid/data=!4m7!3m6!1s0x391e2fad13b1d15d:0xbc175e36a4b71762!8m2!3d33.3716143!4d74.315191!16s%2Fg%2F11s4c0s8yt!19sChIJXdGxE60vHjkRYhe3pDZeF7w?authuser=0&hl=en&rclk=1,"33.3716143,74.315191"
Masjid al-noor Norani,Mosque,"Masjid al-noor Norani, Ward no 4, Rajouri, 185131",,Ward no 4,Rajouri,185131,,IN,https://www.google.com/maps/place/Masjid+al-noor+Norani/data=!4m7!3m6!1s0x391e2fa4db7c481d:0xce05fdbc13bb4ce6!8m2!3d33.372822!4d74.3119436!16s%2Fg%2F11pwb_xq6d!19sChIJHUh826QvHjkR5ky7E7z9Bc4?authuser=0&hl=en&rclk=1,"33.372822,74.31194359999999"
Rooh-e-bilal masjid,Mosque,"9896+XVC Rooh-e-bilal masjid, Rajouri, 185131",,9896+XVC,Rajouri,,,IN,https://www.google.com/maps/place/Rooh-e-bilal+masjid/data=!4m7!3m6!1s0x391e2fd4a8213125:0x48e5964852ee229d!8m2!3d33.369942!4d74.3121357!16s%2Fg%2F11qsmbzzfd!19sChIJJTEhqNQvHjkRnSLuUkiW5Ug?authuser=0&hl=en&rclk=1,"33.369942,74.3121357"
Masjid/prayer room,Mosque,"H76F+7H6 Masjid/prayer room, Fortis Escorts Hospital Sukhdev metro station, Delhi",New Friends Colony,"H76F+7H6, Fortis Escorts Hospital Sukhdev metro station","Delhi, New Delhi",,Delhi,IN,https://www.google.com/maps/place/Masjid%2Fprayer+room/data=!4m7!3m6!1s0x390ce3c02d7da811:0x388ca404d02fd2b3!8m2!3d28.5606583!4d77.2739036!16s%2Fg%2F11rj_njv5d!19sChIJEah9LcDjDDkRs9Iv0ASkjDg?authuser=0&hl=en&rclk=1,"28.5606583,77.2739036"
msjd shryf Bella Colony,Mosque,"Ward no, 2, msjd shryf Bella Colony, Bella Colony, Rajouri, 185131",Bella Colony,"Ward no, 2",Rajouri,185131,,IN,https://www.google.com/maps/place/%D9%85%D8%B3%D8%AC%D8%AF+%D8%B4%D8%B1%DB%8C%D9%81+Bella+Colony%E2%80%AD/data=!4m7!3m6!1s0x391e2fc97b2b5865:0x42172fa9a801e722!8m2!3d33.3795197!4d74.31194!16s%2Fg%2F11pf2lkz56!19sChIJZVgre8kvHjkRIucBqKkvF0I?authuser=0&hl=en&rclk=1,"33.379519699999996,74.31193999999999"
Ward No 4 Near by Jamia Masjid Rooh. -e- Bilaal,Mosque,"Ward no, Ward No 4 Near by Jamia Masjid Rooh. -e- Bilaal, Rooh-e-Bilaal, 4, Jamia Masjid Rd, Rajouri, 185131",,"Ward no, Rooh-e-Bilaal, 4, Jamia Masjid Rd",Rajouri,185131,,IN,https://www.google.com/maps/place/Ward+No+4+Near+by+Jamia+Masjid+Rooh.+-e-+Bil%C3%A0al/data=!4m7!3m6!1s0x391e2f0f6d3bbc7d:0x9f69e797962a6190!8m2!3d33.3687347!4d74.3141681!16s%2Fg%2F11q2xhcvkb!19sChIJfbw7bQ8vHjkRkGEqlpfnaZ8?authuser=0&hl=en&rclk=1,"33.3687347,74.3141681"
Masjid Narian,Mosque,"677X+55H Masjid Narian, Village Narian Potha, Tehsil Nowhere.,District Rajouri, State, Jammu and Kashmir Pincode 185151",,"677X+55H, Village Narian Potha, Tehsil Nowhere.,District Rajouri, State",Forest Block,Pincode 185151,Jammu and Kashmir,IN,https://www.google.com/maps/place/Masjid+Narian/data=!4m7!3m6!1s0x391e3547187f047d:0xca67ea50bcb49725!8m2!3d33.2129488!4d74.2979883!16s%2Fg%2F11h7p9nht4!19sChIJfQR_GEc1HjkRJZe0vFDqZ8o?authuser=0&hl=en&rclk=1,"33.2129488,74.2979883"
"Masjid Sokalipora,",Mosque,"Masjid Sokalipora,, Mirwaiz Manzil, Wazpora Rd, Rajouri Kadal, Sokalipora, Srinagar, Jammu and Kashmir 190002","Rajouri Kadal, Sokalipora","Mirwaiz Manzil, Wazpora Rd",Srinagar,190002,Jammu and Kashmir,IN,"https://www.google.com/maps/place/Masjid+Sokalipora,/data=!4m7!3m6!1s0x38e18561c09ba23f:0xab3126e2ba52ece0!8m2!3d34.0982015!4d74.8045138!16s%2Fg%2F11n159nxzw!19sChIJP6KbwGGF4TgR4OxSuuImMas?authuser=0&hl=en&rclk=1","34.0982015,74.8045138"
Muradpur jatt land,Mosque,"88JC+VJM Muradpur jatt land, Muradpur, Rajouri, 185151",Muradpur,88JC+VJM,Rajouri,,,IN,https://www.google.com/maps/place/Muradpur+jatt+land/data=!4m7!3m6!1s0x391e2f01a9fe7f79:0x3170c5c04e499ed2!8m2!3d33.3322203!4d74.3215599!16s%2Fg%2F11s33kp0xp!19sChIJeX_-qQEvHjkR0p5JTsDFcDE?authuser=0&hl=en&rclk=1,"33.332220299999996,74.3215599"
Jamia Masjid Baroota Saaj,Mosque,"F83R+6WG Jamia Masjid Baroota Saaj, Bhattian, 185131",,F83R+6WG,Bhattian,,,IN,https://www.google.com/maps/place/Jamia+Masjid+Baroota+Saaj/data=!4m7!3m6!1s0x391e29065e891a59:0x7bde56f44e959be9!8m2!3d33.4530607!4d74.3423222!16s%2Fg%2F11q8v1fnys!19sChIJWRqJXgYpHjkR6ZuVTvRW3ns?authuser=0&hl=en&rclk=1,"33.4530607,74.3423222"
Al Noor Masjid Hillan,Mosque,"9FXG+R6 Al Noor Masjid Hillan, Saun Kot, 185151",,9FXG+R6,Saun Kot,,,IN,https://www.google.com/maps/place/Al+Noor+Masjid+Hillan/data=!4m7!3m6!1s0x391e2538bdce2c9b:0x76fc7ddaf74703b7!8m2!3d33.3995337!4d74.4756049!16s%2Fg%2F11s0wn1r9x!19sChIJmyzOvTglHjkRtwNH99p9_HY?authuser=0&hl=en&rclk=1,"33.3995337,74.4756049"
Raza-e-Mustafa,Mosque,"98Q8+V3M Raza-e-Mustafa, Kheora, Rajouri, Jammu and Kashmir 185131",Kheora,98Q8+V3M,Rajouri,185131,Jammu and Kashmir,IN,https://www.google.com/maps/place/Raza-e-Mustafa/data=!4m7!3m6!1s0x391e2f22d1109925:0x734c22f58bcfcc60!8m2!3d33.3897247!4d74.3151826!16s%2Fg%2F11v603rfh4!19sChIJJZkQ0SIvHjkRYMzPi_UiTHM?authuser=0&hl=en&rclk=1,"33.389724699999995,74.3151826"
Masjid,Religious destination,"98R7+VQG Masjid, Kheora, Rajouri, Jammu and Kashmir 185131",Kheora,98R7+VQG,Rajouri,185131,Jammu and Kashmir,IN,https://www.google.com/maps/place/Masjid/data=!4m7!3m6!1s0x391e2f2b04808631:0x23db6e6f869a1b10!8m2!3d33.3921996!4d74.3144558!16s%2Fg%2F11txjgj51n!19sChIJMYaABCsvHjkREBuahm9u2yM?authuser=0&hl=en&rclk=1,"33.3921996,74.31445579999999"
Masjid sharief main bazar,Mosque,"98G4+9RP Masjid sharief main bazar, Main Bazar, Rajouri, Rajouri, Jammu and Kashmir 185131","Main Bazar, Rajouri",98G4+9RP,Rajouri,,Jammu and Kashmir,IN,https://www.google.com/maps/place/Masjid+sharief+main+bazar/data=!4m7!3m6!1s0x391e2d86c7c2bfdf:0x662d6f1e8dc5a010!8m2!3d33.375956!4d74.3070904!16s%2Fg%2F11sv735ph9!19sChIJ37_Cx4YtHjkREKDFjR5vLWY?authuser=0&hl=en&rclk=1,"33.375955999999995,74.30709039999999"
Jamia Masjid Dhanore Loharan,Mosque,"C83R+GGX Jamia Masjid Dhanore Loharan, Rajouri, 185132",,C83R+GGX,Rajouri,,,IN,https://www.google.com/maps/place/Jamia+Masjid+Dhanore+Loharan/data=!4m7!3m6!1s0x391e2f47f28a3fb7:0x8c729de188da5332!8m2!3d33.4038531!4d74.3413546!16s%2Fg%2F11rk522pqb!19sChIJtz-K8kcvHjkRMlPaiOGdcow?authuser=0&hl=en&rclk=1,"33.4038531,74.3413546"
Masjid Farwalla,Mosque,"99FX+HQM Masjid Farwalla, Rajouri, San Kari, Jammu and Kashmir 185151",,99FX+HQM,"Rajouri, San Kari",,Jammu and Kashmir,IN,https://www.google.com/maps/place/Masjid+Farwalla/data=!4m7!3m6!1s0x391e2fbd80651c13:0x75f412a2ef1e82a0!8m2!3d33.3739512!4d74.3994076!16s%2Fg%2F11t_ztsy_6!19sChIJExxlgL0vHjkRoIIe76IS9HU?authuser=0&hl=en&rclk=1,"33.3739512,74.3994076"
Masjid E Abu Bakr,Mosque,"98Q7+455 Masjid E Abu Bakr, Danishabad, Kheora, Rajouri, 185131","Danishabad, Kheora",98Q7+455,Rajouri,185131,,IN,https://www.google.com/maps/place/Masjid+E+Abu+Bakr/data=!4m7!3m6!1s0x391e2f960a2481af:0x30747366fd3de31f!8m2!3d33.3879283!4d74.3135576!16s%2Fg%2F11s4ffsznz!19sChIJr4EkCpYvHjkRH-M9_WZzdDA?authuser=0&hl=en&rclk=1,"33.3879283,74.3135576"
Eidgah-rajauri,Mosque,"98G7+4CH Eidgah-rajauri, Rajouri, Jammu and Kashmir 185131",,98G7+4CH,Rajouri,185131,Jammu and Kashmir,IN,https://www.google.com/maps/place/Eidgah-rajauri/data=!4m7!3m6!1s0x391e2e82234cfbe9:0x384a6331625e266b!8m2!3d33.3753159!4d74.3135955!16s%2Fg%2F11txmz76hs!19sChIJ6ftMI4IuHjkRayZeYjFjSjg?authuser=0&hl=en&rclk=1,"33.3753159,74.31359549999999"
TABLEEGHI MARKAZ ANDARKOTE RAJOURI,Mosque,"98F5+2J9 TABLEEGHI MARKAZ ANDARKOTE RAJOURI, Main Bazar, Rajouri, Goverdhan Bala, 185131","Main Bazar, Rajouri",98F5+2J9,Goverdhan Bala,185131,,IN,https://www.google.com/maps/place/TABLEEGHI+MARKAZ+ANDARKOTE+RAJOURI/data=!4m7!3m6!1s0x391e2d3dd34fc431:0xab3ab4f24c7211b4!8m2!3d33.3725363!4d74.3091136!16s%2Fg%2F11ptq5676g!19sChIJMcRP0z0tHjkRtBFyTPK0Oqs?authuser=0&hl=en&rclk=1,"33.3725363,74.3091136"
Jamiya Islamiya Markzi Darul Uloom Plangerh Jadid Saaj Rajouri,Mosque,"F984+2M5 Jamiya Islamiya Markzi Darul Uloom Plangerh Jadid Saaj Rajouri, Bidha Kanna, Jammu and Kashmir 185132",,F984+2M5,Bidha Kanna,185132,Jammu and Kashmir,IN,https://www.google.com/maps/place/Jamiya+Islamiya+Markzi+Darul+Uloom+Plangerh+Jadid+Saaj+Rajouri/data=!4m7!3m6!1s0x391e29bcd566cb71:0x77e5762d9bdc5f7c!8m2!3d33.465049!4d74.356715!16s%2Fg%2F11krhl04tv!19sChIJcctm1bwpHjkRfF_cmy125Xc?authuser=0&hl=en&rclk=1,"33.465049,74.356715"
Masjid Hanfia,Mosque,"98M7+JM5 Masjid Hanfia, DC Colony, Rajouri, 185131",DC Colony,98M7+JM5,Rajouri,185131,,IN,https://www.google.com/maps/place/Masjid+Hanfia/data=!4m7!3m6!1s0x391e2f18f898d45b:0x9f312abeed3deb7!8m2!3d33.384014!4d74.3142271!16s%2Fg%2F11r4h2x1w7!19sChIJW9SY-BgvHjkRt97T7qsS8wk?authuser=0&hl=en&rclk=1,"33.384014,74.3142271"
"Masjid Abubakr, Behrote",Mosque,"F8WR+8XQ Masjid Abubakr, Behrote, Rajouri, Bharot, Jammu and Kashmir 185212",,F8WR+8XQ,"Rajouri, Bharot",,Jammu and Kashmir,IN,"https://www.google.com/maps/place/Masjid+Abubakr,+Behrote/data=!4m7!3m6!1s0x391e297abc9959a7:0x6e6b5f3db6a714fa!8m2!3d33.4958379!4d74.3424791!16s%2Fg%2F11krwpnwgl!19sChIJp1mZvHopHjkR-hSntj1fa24?authuser=0&hl=en&rclk=1","33.4958379,74.34247909999999"
Ajaz malik home,Mosque,"Ajaz malik home, Dhanore jarralan noorani jamia masjid, Rajouri, 185131",,Dhanore jarralan noorani jamia masjid,Rajouri,,,IN,https://www.google.com/maps/place/Ajaz+malik+home/data=!4m7!3m6!1s0x391e2fca424af77f:0xf022a0ee977c6153!8m2!3d33.3986534!4d74.325534!16s%2Fg%2F11qb3nkm0r!19sChIJf_dKQsovHjkRU2F8l-6gIvA?authuser=0&hl=en&rclk=1,"33.3986534,74.32553399999999"
Masjid Dhanore Gorssian,Mosque,"Masjid Dhanore Gorssian, Dhanore Gorrisan, Rajouri, Jammu and Kashmir 185132",,Dhanore Gorrisan,Rajouri,,Jammu and Kashmir,IN,https://www.google.com/maps/place/Masjid+Dhanore+Gorssian/data=!4m7!3m6!1s0x391e2f4fef01cffb:0x9c79b67071370b49!8m2!3d33.3994621!4d74.3394281!16s%2Fg%2F11p00b4k65!19sChIJ-88B708vHjkRSQs3cXC2eZw?authuser=0&hl=en&rclk=1,"33.3994621,74.33942809999999"
Masjid Sharif Korah,Mosque,"Masjid Sharif Korah, 185212",,,,185212,,IN,https://www.google.com/maps/place/Masjid+Sharif+Korah/data=!4m7!3m6!1s0x38e1d78a83f7db2f:0x97488fb6d529b2c!8m2!3d33.5613992!4d74.379622!16s%2Fg%2F11qnjvrqb9!19sChIJL9v3g4rX4TgRLJtSbfuIdAk?authuser=0&hl=en&rclk=1,"33.5613992,74.379622"
Masjid dhanore dhendian,Mosque,"98PM+9M5 Masjid dhanore dhendian, Rajouri, 185132",,98PM+9M5,Rajouri,185132,,IN,https://www.google.com/maps/place/Masjid+dhanore+dhendian/data=!4m7!3m6!1s0x391e2f7c5a32eec7:0x9b0127ef51aab632!8m2!3d33.3851013!4d74.3341436!16s%2Fg%2F11qb5l3qwt!19sChIJx-4yWnwvHjkRMraqUe8nAZs?authuser=0&hl=en&rclk=1,"33.385101299999995,74.33414359999999"
Mohammadi chok,Mosque,"J7FR+32J Mohammadi chok, Gali No. 6, Vishwanath Puri, Bhalswa Dairy, Jahangirpura, Delhi, 110092","Vishwanath Puri, Bhalswa Dairy, Jahangirpura","J7FR+32J, Gali No. 6",Delhi,,Delhi,IN,https://www.google.com/maps/place/Mohammadi+chok/data=!4m7!3m6!1s0x390ce550f506fef5:0xe4af3a6402a8db93!8m2!3d28.6227077!4d77.290014!16s%2Fg%2F11kbb29r2c!19sChIJ9f4G9VDlDDkRk9uoAmQ6r-Q?authuser=0&hl=en&rclk=1,"28.6227077,77.290014"
Ziyarat wali Masjid Katarmal,Mosque,"C7M5+89M Ziyarat wali Masjid Katarmal, Katarmal, Sarola, 185131",,C7M5+89M,"Katarmal, Sarola",,,IN,https://www.google.com/maps/place/Ziyarat+wali+Masjid+Katarmal/data=!4m7!3m6!1s0x391e2bf7f9fdd551:0xce768a6799698e6e!8m2!3d33.4333336!4d74.2584158!16s%2Fg%2F11kl0s3bt3!19sChIJUdX9-fcrHjkRbo5pmWeKds4?authuser=0&hl=en&rclk=1,"33.4333336,74.2584158"
Saaj Rajouri Jammu and Kashmir,Mosque,"Saaj Rajouri Jammu and Kashmir, Bidha Kanna, Jammu and Kashmir 185132",,,Bidha Kanna,,Jammu and Kashmir,IN,https://www.google.com/maps/place/Saaj+Rajouri+Jammu+and+Kashmir/data=!4m7!3m6!1s0x391e294f3283519d:0xf7e6666bb76a546a!8m2!3d33.4650115!4d74.3567425!16s%2Fg%2F11krhl8byf!19sChIJnVGDMk8pHjkRalRqt2tm5vc?authuser=0&hl=en&rclk=1,"33.465011499999996,74.3567425"
Al saood jama masjid,Mosque,"9898+PHR Al saood jama masjid, Gujjar Nagar, Rajouri, 185131",Gujjar Nagar,9898+PHR,Rajouri,,,IN,https://www.google.com/maps/place/Al+saood+jama+masjid/data=!4m7!3m6!1s0x391e2f5841cffedb:0x20fb9f35dc2fc516!8m2!3d33.3693641!4d74.3163846!16s%2Fg%2F11rrb70lgd!19sChIJ2_7PQVgvHjkRFsUv3DWf-yA?authuser=0&hl=en&rclk=1,"33.3693641,74.31638459999999"
Ghonsiya Masjid Shareef Kohli Mohalla kheora Rajouri,Mosque,"98QC+W5X Ghonsiya Masjid Shareef Kohli Mohalla kheora Rajouri, Kheora, Rajouri, 185131",Kheora,98QC+W5X,Rajouri,,,IN,https://www.google.com/maps/place/Ghonsiya+Masjid+Shareef+Kohli+Mohalla+kheora+Rajouri/data=!4m7!3m6!1s0x391e2f7614c57f23:0x7817cc382502c4a2!8m2!3d33.389868!4d74.3204984!16s%2Fg%2F11rzpy4bpy!19sChIJI3_FFHYvHjkRosQCJTjMF3g?authuser=0&hl=en&rclk=1,"33.389868,74.32049839999999"
"msjdl'nSr , Masjid Al Ansar 'The Mosque of Helpers'",Mosque,"msjdl'nSr , Masjid Al Ansar 'The Mosque of Helpers', Boys Hostel, Road, Rajouri, Jammu and Kashmir 185132",,"Boys Hostel, Road",Rajouri,,Jammu and Kashmir,IN,"https://www.google.com/maps/place/%D9%85%D8%B3%D8%AC%D8%AF%D8%A7%D9%84%D8%A3%D9%86%D8%B5%D8%A7%D8%B1+,+Masjid+Al+Ansar+%27The+Mosque+of+Helpers%27%E2%80%AD/data=!4m7!3m6!1s0x391e2f6680b6005b:0xf9a14a88ddaa0e4e!8m2!3d33.3721607!4d74.342734!16s%2Fg%2F11twkcmt16!19sChIJWwC2gGYvHjkRTg6q3YhKofk?authuser=0&hl=en&rclk=1","33.3721607,74.342734"
Ahmadiyya Mission Rajouri,Mosque,"98M8+XFG Ahmadiyya Mission Rajouri, Rajouri, Jammu and Kashmir 185131",,98M8+XFG,Rajouri,,Jammu and Kashmir,IN,https://www.google.com/maps/place/Ahmadiyya+Mission+Rajouri/data=!4m7!3m6!1s0x391e2f745698e75d:0x34dd6f31a7f27e25!8m2!3d33.3849312!4d74.3161881!16s%2Fg%2F11ks12gymt!19sChIJXeeYVnQvHjkRJX7ypzFv3TQ?authuser=0&hl=en&rclk=1,"33.3849312,74.31618809999999"
Masjid,Mosque,"Masjid, NH144A, Gujjar Nagar, Jawahar Nagar, Goverdhan Pain, 185131","Gujjar Nagar, Jawahar Nagar",NH144A,"Goverdhan Pain, Rajouri",185131,,IN,https://www.google.com/maps/place/Masjid/data=!4m7!3m6!1s0x391e2f03ce9a99c1:0xeff074536eb1f694!8m2!3d33.3693406!4d74.3163494!16s%2Fg%2F11pkdry0lk!19sChIJwZmazgMvHjkRlPaxblN08O8?authuser=0&hl=en&rclk=1,"33.3693406,74.3163494"
FAZAL JAMIA MASJID KHEORA,Mosque,"98J8+5C FAZAL JAMIA MASJID KHEORA, Rajouri, Jammu and Kashmir 185131",,98J8+5C,Rajouri,,Jammu and Kashmir,IN,https://www.google.com/maps/place/FAZAL+JAMIA+MASJID+KHEORA/data=!4m7!3m6!1s0x391e2f7b11fc1623:0xdf2730cbb6470bf!8m2!3d33.3804333!4d74.3160507!16s%2Fg%2F11ssnhygpc!19sChIJIxb8EXsvHjkRv3Bkuwxz8g0?authuser=0&hl=en&rclk=1,"33.3804333,74.31605069999999"
Masjid sharief Marghan,Mosque,"C998+W7P Masjid sharief Marghan, Rajouri, Jammu and Kashmir 185132",,C998+W7P,Rajouri,,Jammu and Kashmir,IN,https://www.google.com/maps/place/Masjid+sharief+Marghan/data=!4m7!3m6!1s0x391e2979c512530b:0x9d970bb02eae49be!8m2!3d33.419848!4d74.3657074!16s%2Fg%2F11krs4m0t3!19sChIJC1MSxXkpHjkRvkmuLrALl50?authuser=0&hl=en&rclk=1,"33.419848,74.36570739999999"
Majid Barhoi,Mosque,"98G5+6J Majid Barhoi, Main Bazar, Rajouri, Goverdhan Bala, 185131","Main Bazar, Rajouri",98G5+6J,Goverdhan Bala,,,IN,https://www.google.com/maps/place/Majid+Barhoi/data=!4m7!3m6!1s0x391e2d690f06a583:0x26c29be95c31fd7f!8m2!3d33.3755277!4d74.3090833!16s%2Fg%2F11sg_3jx5q!19sChIJg6UGD2ktHjkRf_0xXOmbwiY?authuser=0&hl=en&rclk=1,"33.3755277,74.3090833"
Ziarat sharif,Mosque,"984W+F69 Ziarat sharif, Rajouri, Jammu and Kashmir 185151",,984W+F69,Rajouri,,Jammu and Kashmir,IN,https://www.google.com/maps/place/Ziarat+sharif/data=!4m7!3m6!1s0x391e2f0a68ef71a7:0x5dffda1cb4d6cfe7!8m2!3d33.3561603!4d74.3456141!16s%2Fg%2F11kqx_k5nh!19sChIJp3HvaAovHjkR58_WtBza_10?authuser=0&hl=en&rclk=1,"33.3561603,74.34561409999999"
Jamia hanfiya nizamiya Atti Rajouri,Mosque,"98C8+J3W Jamia hanfiya nizamiya Atti Rajouri, Rajouri, Jammu and Kashmir 185131",,98C8+J3W,Rajouri,,Jammu and Kashmir,IN,https://www.google.com/maps/place/Jamia+hanfiya+nizamiya+Atti+Rajouri/data=!4m7!3m6!1s0x391e2f38d35c7e89:0x7efab5d072c61293!8m2!3d33.3716143!4d74.315191!16s%2Fg%2F11rzq1p2cd!19sChIJiX5c0zgvHjkRkxLGctC1-n4?authuser=0&hl=en&rclk=1,"33.3716143,74.315191"
Jamia Masjid ganni,Mosque,"98R8+7J6 Jamia Masjid ganni, Kheora, Rajouri, 185131",Kheora,98R8+7J6,Rajouri,185131,,IN,https://www.google.com/maps/place/Jamia+Masjid+ganni/data=!4m7!3m6!1s0x391e2f9aa05ce527:0xb89a47f2045d935!8m2!3d33.390658!4d74.3165294!16s%2Fg%2F11nwx9grmz!19sChIJJ-VcoJovHjkRNdlFIH-kiQs?authuser=0&hl=en&rclk=1,"33.390658,74.3165294"
SAOOD MASJID MURADPUR,Mosque,"88JC+VJH SAOOD MASJID MURADPUR, Rajouri, Jammu and Kashmir 185151",,88JC+VJH,Rajouri,,Jammu and Kashmir,IN,https://www.google.com/maps/place/SAOOD+MASJID+MURADPUR/data=!4m7!3m6!1s0x391e2f945bffebf5:0xf540f6aa3859b9bd!8m2!3d33.3321774!4d74.3216124!16s%2Fg%2F11v3q5nn2x!19sChIJ9ev_W5QvHjkRvblZOKr2QPU?authuser=0&hl=en&rclk=1,"33.3321774,74.32161239999999"
mzr myN ll dyn trlh rjwry,Mosque,"98C8+J3W mzr myN ll dyn trlh rjwry, trlh gjrN, Rajouri, Jammu and Kashmir 185131",,"98C8+J3W, trlh gjrN",Rajouri,,Jammu and Kashmir,IN,https://www.google.com/maps/place/%D9%85%D8%B2%D8%A7%D8%B1+%D9%85%DB%8C%D8%A7%DA%BA+%D9%84%D8%A7%D9%84+%D8%AF%DB%8C%D9%86+%D8%AA%D8%B1%D8%A7%D9%84%DB%81+%D8%B1%D8%A7%D8%AC%D9%88%D8%B1%DB%8C%E2%80%AD/data=!4m7!3m6!1s0x391e2fc713c9286b:0xcaa35e28d241d303!8m2!3d33.3716143!4d74.315191!16s%2Fg%2F11r9twcgjr!19sChIJayjJE8cvHjkRA9NB0iheo8o?authuser=0&hl=en&rclk=1,"33.3716143,74.315191"
Buch Masjid Rajouri Kadal,Mosque,"3RX3+JCG Buch Masjid Rajouri Kadal, Rajouri Kadal, Sokalipora, Srinagar, Jammu and Kashmir 190002","Rajouri Kadal, Sokalipora",3RX3+JCG,Srinagar,190002,Jammu and Kashmir,IN,https://www.google.com/maps/place/Buch+Masjid+Rajouri+Kadal/data=!4m7!3m6!1s0x38e1853c0962095b:0x5aaf1ce894c5d89b!8m2!3d34.099075!4d74.8035666!16s%2Fg%2F11mhlh98m1!19sChIJWwliCTyF4TgRm9jFlOgcr1o?authuser=0&hl=en&rclk=1,"34.099075,74.8035666"
Masjid al madni,Place of worship,"Masjid al madni, Boys Hostel, Road, Rajouri, Jammu and Kashmir 185132",,"Boys Hostel, Road",Rajouri,,Jammu and Kashmir,IN,https://www.google.com/maps/place/Masjid+al+madni/data=!4m7!3m6!1s0x391e2f0f9137c931:0x494b092f6131beaf!8m2!3d33.3725508!4d74.3428222!16s%2Fg%2F11kpy6gplx!19sChIJMck3kQ8vHjkRr74xYS8JS0k?authuser=0&hl=en&rclk=1,"33.3725508,74.3428222"
Masjid Moulvi Muhammad Baqir Dehlavi,Mosque,"Masjid Moulvi Muhammad Baqir Dehlavi, Durga motor mkt, Punja Sharif Rd, Chhota Bazar, Kashmere Gate, Delhi, 110006","Chhota Bazar, Kashmere Gate","Durga motor mkt, Punja Sharif Rd",Delhi,110006,Delhi,IN,https://www.google.com/maps/place/Masjid+Moulvi+Muhammad+Baqir+Dehlavi/data=!4m7!3m6!1s0x390cfd28962f937b:0xbd98130b8f919c4e!8m2!3d28.6638068!4d77.2272271!16s%2Fg%2F11tfxtj2_l!19sChIJe5Mvlij9DDkRTpyRjwsTmL0?authuser=0&hl=en&rclk=1,"28.6638068,77.2272271"
Jamamasjid tannoni,Mosque,"985R+5HR Jamamasjid tannoni, Rajouri, 185151",,985R+5HR,Rajouri,,,IN,https://www.google.com/maps/place/Jamamasjid+tannoni/data=!4m7!3m6!1s0x391e2fec8a57337f:0xd2ff7745e2d10d67!8m2!3d33.3579944!4d74.3413848!16s%2Fg%2F11py6nl0k6!19sChIJfzNXiuwvHjkRZw3R4kV3_9I?authuser=0&hl=en&rclk=1,"33.357994399999995,74.3413848"
Jamia Masjid Umar bin Khattab Dhanore Gorsian,Mosque,"98WV+RRV Jamia Masjid Umar bin Khattab Dhanore Gorsian, Rajouri, 185234",,98WV+RRV,Rajouri,,,IN,https://www.google.com/maps/place/Jamia+Masjid+Umar+bin+Khattab+Dhanore+Gorsian/data=!4m7!3m6!1s0x391e2f57a5b36059:0xab38dc34c69b9a92!8m2!3d33.3971228!4d74.3445354!16s%2Fg%2F11pv9hfyzh!19sChIJWWCzpVcvHjkRkpqbxjTcOKs?authuser=0&hl=en&rclk=1,"33.3971228,74.3445354"
Ghousia Jamia Masjid Dhanwan ,Mosque,"98C8+J3W Ghousia Jamia Masjid Dhanwan , Rajouri, Jammu and Kashmir 185131",,98C8+J3W,Rajouri,,Jammu and Kashmir,IN,https://www.google.com/maps/place/Ghousia+Jamia+Masjid+Dhanwan+%F0%9F%95%8C/data=!4m7!3m6!1s0x391e2fc403d0dfa9:0x82952c8e1eeab3a5!8m2!3d33.3716143!4d74.315191!16s%2Fg%2F11txkx0b3q!19sChIJqd_QA8QvHjkRpbPqHo4slYI?authuser=0&hl=en&rclk=1,"33.3716143,74.315191"
Ahmadiyya Bait al ziker,Mosque,"98M8+XC7 Ahmadiyya Bait al ziker, Rajouri, Jammu and Kashmir 185131",,98M8+XC7,Rajouri,,Jammu and Kashmir,IN,https://www.google.com/maps/place/Ahmadiyya+Bait+al+ziker/data=!4m7!3m6!1s0x391e2f2dab86f9c7:0x1ac8d6be1e1ca2a3!8m2!3d33.3849021!4d74.316042!16s%2Fg%2F11kjggh97l!19sChIJx_mGqy0vHjkRo6IcHr7WyBo?authuser=0&hl=en&rclk=1,"33.3849021,74.316042"
Masjid Usman (RA) Purana Thanna,Mosque,"Masjid Usman (RA) Purana Thanna, Old Thanna Mandi ,Thanna Mandi, Rajouri, Jammu and Kashmir",,"Old Thanna Mandi ,Thanna Mandi, Rajouri, Jammu and Kashmir",,,,IN,https://www.google.com/maps/place/Masjid+Usman+%28RA%29+Purana+Thanna/data=!4m7!3m6!1s0x38e1d7608e31b579:0x7873688a3ee4aaad!8m2!3d33.5384723!4d74.3763956!16s%2Fg%2F11gj43m9z1!19sChIJebUxjmDX4TgRrarkPopoc3g?authuser=0&hl=en&rclk=1,"33.538472299999995,74.3763956"
MADARSA ZIA UL ISLAM MANJAKOTE,Mosque,"F795+RF4 MADARSA ZIA UL ISLAM MANJAKOTE, Rajouri, Dabrot, 185212",,F795+RF4,"Rajouri, Dabrot",,,IN,https://www.google.com/maps/place/MADARSA+ZIA+UL+ISLAM+MANJAKOTE/data=!4m7!3m6!1s0x391e2b0db91e8a05:0x7783193829e5f7b8!8m2!3d33.4695159!4d74.2587158!16s%2Fg%2F11s63jk6cp!19sChIJBYoeuQ0rHjkRuPflKTgZg3c?authuser=0&hl=en&rclk=1,"33.4695159,74.25871579999999"
Jamia masjid Badhal Khawas,Mosque,"9G59+GJG Jamia masjid Badhal Khawas, Jammu and Kashmir Rajouri Khawas, Kotranka",,"9G59+GJG, Jammu and Kashmir Rajouri Khawas",Kotranka,,,IN,https://www.google.com/maps/place/Jamia+masjid+Badhal+Khawas/data=!4m7!3m6!1s0x391e23388586f9c1:0xc3f37bcec38d4483!8m2!3d33.3588185!4d74.5190823!16s%2Fg%2F11tfgt8z7b!19sChIJwfmGhTgjHjkRg0SNw85788M?authuser=0&hl=en&rclk=1,"33.3588185,74.5190823"
District rajouri Badhoon,Mosque,"88XM+C4J District rajouri Badhoon, Bahdaun, Jammu and Kashmir 185151",,88XM+C4J,Bahdaun,,Jammu and Kashmir,IN,https://www.google.com/maps/place/District+rajouri+Badhoon/data=!4m7!3m6!1s0x391e2f9251f7ef31:0x11e356422f10cbf7!8m2!3d33.3485848!4d74.3327809!16s%2Fg%2F11l6yc1dny!19sChIJMe_3UZIvHjkR98sQL0JW4xE?authuser=0&hl=en&rclk=1,"33.3485848,74.3327809"
Dargah Sharif Mian Nagri Rajouri Very famous Dargah,Mosque,"97H4+29 Dargah Sharif Mian Nagri Rajouri Very famous Dargah, Panj Grian, Jammu and Kashmir 185131",,97H4+29,Panj Grian,,Jammu and Kashmir,IN,https://www.google.com/maps/place/Dargah+Sharif+Mian+Nagri+Rajouri+Very+famous+Dargah/data=!4m7!3m6!1s0x391e2d1cf4af8789:0x32de0e5350be1c09!8m2!3d33.3775731!4d74.2559045!16s%2Fg%2F11krcm982_!19sChIJiYev9BwtHjkRCRy-UFMO3jI?authuser=0&hl=en&rclk=1,"33.3775731,74.2559045"
Masjid Sharif Katarmal,Mosque,"C7J5+827 Masjid Sharif Katarmal, Sarola, 185131",,C7J5+827,Sarola,,,IN,https://www.google.com/maps/place/Masjid+Sharif+Katarmal/data=!4m7!3m6!1s0x391e2bd33f3dc931:0x487dde4ad5739f5d!8m2!3d33.4307762!4d74.2575594!16s%2Fg%2F11kl078c6s!19sChIJMck9P9MrHjkRXZ9z1UrefUg?authuser=0&hl=en&rclk=1,"33.4307762,74.25755939999999"
REHAN GUJJARAN,Mosque,"9CWP+53H REHAN GUJJARAN, Rajouri, Ponda Naka, Jammu and Kashmir 185151",,9CWP+53H,"Rajouri, Ponda Naka",,Jammu and Kashmir,IN,https://www.google.com/maps/place/REHAN+GUJJARAN/data=!4m7!3m6!1s0x391e252eb21b7f3f:0x2a53d3234bdb8176!8m2!3d33.3954279!4d74.435246!16s%2Fg%2F11l59v6tpn!19sChIJP38bsi4lHjkRdoHbSyPTUyo?authuser=0&hl=en&rclk=1,"33.3954279,74.43524599999999"
Masjid,Mosque,"Shop No: 5035, Masjid, Netaji Subhash Marg, Daryaganj, New Delhi, Delhi, 110002",Daryaganj,"Shop No: 5035, Netaji Subhash Marg","New Delhi, Delhi",110002,Delhi,IN,https://www.google.com/maps/place/Masjid/data=!4m7!3m6!1s0x390cfdf175041b95:0x8ef57a2bc9f92c1c!8m2!3d28.6480954!4d77.2403964!16s%2Fg%2F11s664lvxh!19sChIJlRsEdfH9DDkRHCz5ySt69Y4?authuser=0&hl=en&rclk=1,"28.6480954,77.2403964"
Masjid e Bilal Nerojal,Mosque,"C8XP+CH8 Masjid e Bilal Nerojal, Dodarsan Bala, 185131",,C8XP+CH8,Dodarsan Bala,185131,,IN,https://www.google.com/maps/place/Masjid+e+Bilal+Nerojal/data=!4m7!3m6!1s0x391e2995869cbf4d:0x2bee9fd8f1f3558f!8m2!3d33.4485272!4d74.3364609!16s%2Fg%2F11rscygp1h!19sChIJTb-chpUpHjkRj1Xz8dif7is?authuser=0&hl=en&rclk=1,"33.4485272,74.33646089999999"
