name,main_category,address,address_ward,address_street,address_city,address_postal_code,address_state,address_country_code,link,coordinates
Jama Masjid,Mosque,"Jama Masjid, Old Delhi, Delhi, 110006","Jama Masjid, Old Delhi",,Delhi,110006,Delhi,IN,https://www.google.com/maps/place/Jama+Masjid/data=!4m7!3m6!1s0x390cfd18df89b215:0xdd57369e29bf9d96!8m2!3d28.6506792!4d77.2334421!16zL20vMDR5emo1!19sChIJFbKJ3xj9DDkRlp2_KZ42V90?authuser=0&hl=en&rclk=1,"28.6506792,77.23344209999999"
Jama Masjid Kasba Kheri (Dargah Shareef Chheda Miyan),Mosque,"Jama Masjid Kasba Kheri (Dargah Shareef Chheda Miyan), MDR 75C, Mohalla Sayyed Wada, Kheri, Uttar Pradesh 262701",Mohalla Sayyed Wada,MDR 75C,Kheri,262701,Uttar Pradesh,IN,https://www.google.com/maps/place/Jama+Masjid+Kasba+Kheri+%28Dargah+Shareef+Chheda+Miyan%29/data=!4m7!3m6!1s0x399f34a8b655d48f:0x4eba76ab09bf9215!8m2!3d27.9033061!4d80.8002403!16s%2Fg%2F1hm5gf351!19sChIJj9RVtqg0nzkRFZK_Cat2uk4?authuser=0&hl=en&rclk=1,"27.9033061,80.8002403"
Lal Masjid,Mosque,"Lal Masjid, BHIWANI STAND, Quilla Rd, Babra Mohalla, Rohtak, Haryana 124001",Babra Mohalla,"BHIWANI STAND, Quilla Rd",Rohtak,124001,Haryana,IN,https://www.google.com/maps/place/Lal+Masjid/data=!4m7!3m6!1s0x390d85bb93c615c1:0xb2b4dbf78f3f80f1!8m2!3d28.897572!4d76.5794456!16s%2Fg%2F1hjh6p95f!19sChIJwRXGk7uFDTkR8YA_j_fbtLI?authuser=0&hl=en&rclk=1,"28.897572,76.5794456"
Masjid Umar,Mosque,"Masjid Umar, H Block, Abul Fazal Enclave, Jamia Nagar, Okhla, New Delhi, Delhi 110025","Abul Fazal Enclave, Jamia Nagar, Okhla",H Block,New Delhi,110025,Delhi,IN,https://www.google.com/maps/place/Masjid+Umar/data=!4m7!3m6!1s0x390ce40e52efde7f:0x5e0487c814d4c357!8m2!3d28.5535005!4d77.2956955!16s%2Fg%2F11b6snzn79!19sChIJf97vUg7kDDkRV8PUFMiHBF4?authuser=0&hl=en&rclk=1,"28.5535005,77.2956955"
Bilal Masjid Kanchan Kunj,Mosque,"G8P7+PMQ Bilal Masjid Kanchan Kunj, B Block, Kanchan Kunj Rd, Madanpur Khadar, New Delhi, Delhi 110076",Madanpur Khadar,"G8P7+PMQ, B Block, Kanchan Kunj Rd",New Delhi,110076,Delhi,IN,https://www.google.com/maps/place/Bilal+Masjid+Kanchan+Kunj/data=!4m7!3m6!1s0x390ce69e96b88007:0x4d33fa96165f2195!8m2!3d28.5368253!4d77.3142368!16s%2Fg%2F11c6qdv7tb!19sChIJB4C4lp7mDDkRlSFfFpb6M00?authuser=0&hl=en&rclk=1,"28.5368253,77.3142368"
Masjid Al Hidayah (Ahle Hadees),Mosque,"G8X3+83X Masjid Al Hidayah (Ahle Hadees), Thokar No 8, Shaheen Bagh, Jamia Nagar, Okhla, New Delhi, Delhi 110025","Thokar No 8, Shaheen Bagh, Jamia Nagar, Okhla",G8X3+83X,New Delhi,110025,Delhi,IN,https://www.google.com/maps/place/Masjid+Al+Hidayah+%28Ahle+Hadees%29/data=!4m7!3m6!1s0x390ce41a2d3fdd2f:0xb2247703c6448a76!8m2!3d28.548359!4d77.3027282!16s%2Fg%2F11g6rfqqmp!19sChIJL90_LRrkDDkRdopExgN3JLI?authuser=0&hl=en&rclk=1,"28.548358999999998,77.30272819999999"
MAKKI MASJID,Mosque,"MAKKI MASJID, Madanpur Khadar Phase 3, Madanpur Khadar, New Delhi, Delhi 110076","Madanpur Khadar Phase 3, Madanpur Khadar",,New Delhi,110076,Delhi,IN,https://www.google.com/maps/place/MAKKI+MASJID/data=!4m7!3m6!1s0x390ce68f0ccaece9:0x1faeec3feeae38b2!8m2!3d28.5288025!4d77.3242821!16s%2Fg%2F11dyzbp8k1!19sChIJ6ezKDI_mDDkRsjiu7j_srh8?authuser=0&hl=en&rclk=1,"28.528802499999998,77.32428209999999"
Khajuri Masjid,Mosque,"H82R+WPM Khajuri Masjid, Street Number - 39, Khajur Colony, Block D, Sector 44, Noida, Uttar Pradesh 201301","Khajur Colony, Block D, Sector 44","H82R+WPM, Street Number - 39",Noida,201301,Uttar Pradesh,IN,https://www.google.com/maps/place/Khajuri+Masjid/data=!4m7!3m6!1s0x390ce5d0f679a0a1:0x5cf9f3b35114cd12!8m2!3d28.5523449!4d77.3417993!16s%2Fg%2F11dxd4yxlm!19sChIJoaB59tDlDDkREs0UUbPz-Vw?authuser=0&hl=en&rclk=1,"28.552344899999998,77.34179929999999"
Kalimullah Masjid,Mosque,"Kalimullah Masjid, Makki Masjid, 145, Gali Number B, Block 2, Madanpur Khadar Phase 3, Madanpur Khadar, New Delhi, Delhi 110076","Block 2, Madanpur Khadar Phase 3, Madanpur Khadar","Makki Masjid, 145, Gali Number B",New Delhi,110076,Delhi,IN,https://www.google.com/maps/place/Kalimullah+Masjid/data=!4m7!3m6!1s0x390ce6897ef8478d:0x2304370c8a3d48bf!8m2!3d28.525354!4d77.3294863!16s%2Fg%2F11gckhfvpp!19sChIJjUf4fonmDDkRv0g9igw3BCM?authuser=0&hl=en&rclk=1,"28.525354,77.3294863"
mrkjii msjid kheddii,Mosque,"5W76+HCM mrkjii msjid kheddii, Kheri, Rajasthan 301018",,5W76+HCM,Kheri,,Rajasthan,IN,https://www.google.com/maps/place/%E0%A4%AE%E0%A4%B0%E0%A4%95%E0%A4%9C%E0%A5%80+%E0%A4%AE%E0%A4%B8%E0%A5%8D%E0%A4%9C%E0%A4%BF%E0%A4%A6+%E0%A4%96%E0%A5%87%E0%A4%A1%E0%A5%80/data=!4m7!3m6!1s0x390d36ceb64a7cb1:0x601f07093e79f0a7!8m2!3d28.1639552!4d76.9110528!16s%2Fg%2F11hctyzfw8!19sChIJsXxKts42DTkRp_B5PgkHH2A?authuser=0&hl=en&rclk=1,"28.1639552,76.9110528"
Masjid,Mosque,"X2WF+G66 Masjid, sonipat, Bus Stand Rd, Sukhdev Nagar, Old Housing Board Colony, Panipat, Haryana 132103","Sukhdev Nagar, Old Housing Board Colony","X2WF+G66, sonipat, Bus Stand Rd","Panipat, Sonipat",132103,Haryana,IN,https://www.google.com/maps/place/Masjid/data=!4m7!3m6!1s0x390db06d7189a905:0xea553834564f78f7!8m2!3d28.996292!4d77.0230012!16s%2Fg%2F11g6xspltl!19sChIJBamJcW2wDTkR93hPVjQ4Veo?authuser=0&hl=en&rclk=1,"28.996292,77.0230012"
Selakhari Umar Masjid,Mosque,"956V+6X4 Selakhari Umar Masjid, village :-silakhri, post:-dhauj, dist:, Haryana 121004",,"956V+6X4, village :-silakhri, post:-dhauj, dist:",Selakhari,121004,Haryana,IN,https://www.google.com/maps/place/Selakhari+Umar+Masjid/data=!4m7!3m6!1s0x390cdfa6d459a051:0xfcb3b7f54538c32e!8m2!3d28.3605013!4d77.1949668!16s%2Fg%2F11h2hdpfg_!19sChIJUaBZ1KbfDDkRLsM4RfW3s_w?authuser=0&hl=en&rclk=1,"28.3605013,77.1949668"
Gousia Masjid Khairi,Mosque,"4VWQ+HFF Gousia Masjid Khairi, SH 51, Khairi, Uttar Pradesh 243633",,"4VWQ+HFF, SH 51",Khairi,243633,Uttar Pradesh,IN,https://www.google.com/maps/place/Gousia+Masjid+Khairi/data=!4m7!3m6!1s0x3975336e2629d025:0xe370ccd4d1b72f7e!8m2!3d28.1464306!4d78.8886779!16s%2Fg%2F11gy26l7nk!19sChIJJdApJm4zdTkRfi-30dTMcOM?authuser=0&hl=en&rclk=1,"28.1464306,78.88867789999999"
Iqra Masjid,Mosque,"7W8R+84P Iqra Masjid, Bhoomma, Uttar Pradesh 251315",,7W8R+84P,Bhoomma,,Uttar Pradesh,IN,https://www.google.com/maps/place/Iqra+Masjid/data=!4m7!3m6!1s0x390bf5686551b213:0x928af36ca77e58d2!8m2!3d29.2658348!4d77.9403434!16s%2Fg%2F11f3s0mttf!19sChIJE7JRZWj1CzkR0lh-p2zzipI?authuser=0&hl=en&rclk=1,"29.2658348,77.9403434"
Khodna Masjid,Mosque,"GGW3+872 Khodna Masjid, Khodna Khurd, Greater Noida, Uttar Pradesh 203207",Khodna Khurd,GGW3+872,Greater Noida,203207,Uttar Pradesh,IN,https://www.google.com/maps/place/Khodna+Masjid/data=!4m7!3m6!1s0x390ceb903e2cc62f:0x4c5c7b5bcb6c56cd!8m2!3d28.5457638!4d77.5031469!16s%2Fg%2F11c5wq16f2!19sChIJL8YsPpDrDDkRzVZsy1t7XEw?authuser=0&hl=en&rclk=1,"28.5457638,77.50314689999999"
AHLE SUNNAT SAKKO WALI MASJID,Mosque,"HH32+4R5 AHLE SUNNAT SAKKO WALI MASJID, KHARI KUAN, Dadri, Uttar Pradesh 203207",KHARI KUAN,HH32+4R5,Dadri,203207,Uttar Pradesh,IN,https://www.google.com/maps/place/AHLE+SUNNAT+SAKKO+WALI+MASJID/data=!4m7!3m6!1s0x390ceb503efbae3d:0x87f2f1b93a870da7!8m2!3d28.552768!4d77.5520946!16s%2Fg%2F11gcdz_kp6!19sChIJPa77PlDrDDkRpw2HOrnx8oc?authuser=0&hl=en&rclk=1,"28.552768,77.55209459999999"
Jama Masjid,Mosque,"7RG5+H8M Jama Masjid, Kheri Kuresh, Uttar Pradesh 251201",,7RG5+H8M,Kheri Kuresh,251201,Uttar Pradesh,IN,https://www.google.com/maps/place/Jama+Masjid/data=!4m7!3m6!1s0x390c0c5f33b36b87:0xb9e62cf160939fe6!8m2!3d29.2764546!4d77.8082878!16s%2Fg%2F11f40l8k58!19sChIJh2uzM18MDDkR5p-TYPEs5rk?authuser=0&hl=en&rclk=1,"29.276454599999997,77.8082878"
Jama masjid,Mosque,"CV57+2JC Jama masjid, Kheri Ferozabad, Uttar Pradesh 251316",,CV57+2JC,Kheri Ferozabad,,Uttar Pradesh,IN,https://www.google.com/maps/place/Jama+masjid/data=!4m7!3m6!1s0x390c08999839674d:0x4dc0a77fc8aa8702!8m2!3d29.4075675!4d77.864001!16s%2Fg%2F11hblp2mdb!19sChIJTWc5mJkIDDkRAoeqyH-nwE0?authuser=0&hl=en&rclk=1,"29.4075675,77.864001"
Ghosia Masjid,Mosque,"Ghosia Masjid, 244241, Bawan Kheri, Bamhori Renguwan, Madhya Pradesh",Bawan Kheri,244241,"Bamhori Renguwan, Hajipur Bhoor",,Madhya Pradesh,IN,https://www.google.com/maps/place/Ghosia+Masjid/data=!4m7!3m6!1s0x390b0d0525769c0b:0xe36d637b635a6482!8m2!3d28.7614877!4d78.3280994!16s%2Fg%2F11cs5v_lg_!19sChIJC5x2JQUNCzkRgmRaY3tjbeM?authuser=0&hl=en&rclk=1,"28.7614877,78.3280994"
Basta wali masjid sarrafan,Mosque,"Basta wali masjid sarrafan, 239, Sarafan, Shivpuri, Khatauli, Uttar Pradesh 251201",Shivpuri,"239, Sarafan",Khatauli,251201,Uttar Pradesh,IN,https://www.google.com/maps/place/Basta+wali+masjid+sarrafan/data=!4m7!3m6!1s0x390c13e8fe2d2689:0x4b2963581172f70e!8m2!3d29.278208!4d77.727677!16s%2Fg%2F11lrrby3xz!19sChIJiSYt_ugTDDkRDvdyEVhjKUs?authuser=0&hl=en&rclk=1,"29.278208,77.727677"
Badi Masjid,Mosque,"482M+RH3 Badi Masjid, Angadpur, Uttar Pradesh 250345",,482M+RH3,Angadpur,250345,Uttar Pradesh,IN,https://www.google.com/maps/place/Badi+Masjid/data=!4m7!3m6!1s0x390c48d7b83d6e89:0x2181b4641709b208!8m2!3d29.1020057!4d77.3339262!16s%2Fg%2F11c2p9tyg1!19sChIJiW49uNdIDDkRCLIJF2S0gSE?authuser=0&hl=en&rclk=1,"29.1020057,77.3339262"
Jama Masjid Sinoura,Mosque,"RG4H+QF5 Jama Masjid Sinoura, Sinaura Jalalabad, Jalalpur Majra Sinora, Uttar Pradesh 244222",,RG4H+QF5,"Sinaura Jalalabad, Jalalpur Majra Sinora",244222,Uttar Pradesh,IN,https://www.google.com/maps/place/Jama+Masjid+Sinoura/data=!4m7!3m6!1s0x390b052bd956a949:0xcff7491ee564737e!8m2!3d28.8068901!4d78.5287452!16s%2Fg%2F11f7ss7qcr!19sChIJSalW2SsFCzkRfnNk5R5J988?authuser=0&hl=en&rclk=1,"28.8068901,78.5287452"
Madarsa Sautul Qur'an,Mosque,"9W3W+4RH Madarsa Sautul Qur'an, Mahrana, Panipat, Haryana 132106",Mahrana,9W3W+4RH,Panipat,132106,Haryana,IN,https://www.google.com/maps/place/Madarsa+Sautul+Qur%27an/data=!4m7!3m6!1s0x390ddb1608134499:0xf316835b354e18d5!8m2!3d29.3528146!4d76.9471079!16s%2Fg%2F11fx8cydxq!19sChIJmUQTCBbbDTkR1RhONVuDFvM?authuser=0&hl=en&rclk=1,"29.3528146,76.94710789999999"
Shiv Mandir Salawatpur Kheri,Hindu temple,"W856+4Q7 Shiv Mandir Salawatpur Kheri, Salawatpur Kheri, Basi, Uttar Pradesh 250615",,W856+4Q7,"Salawatpur Kheri, Basi",250615,Uttar Pradesh,IN,https://www.google.com/maps/place/Shiv+Mandir+Salawatpur+Kheri/data=!4m7!3m6!1s0x390c518bc0c4a5af:0xee84a8004dcfbb7d!8m2!3d28.9077821!4d77.3119196!16s%2Fg%2F11j6x56516!19sChIJr6XEwItRDDkRfbvPTQCohO4?authuser=0&hl=en&rclk=1,"28.9077821,77.3119196"
"Mosque, Maigalganj Kheri",Mosque,"P89V+WWJ Mosque, Maigalganj Kheri, MDR 14C, Maigalganj, Uttar Pradesh 261505",,"P89V+WWJ, MDR 14C",Maigalganj,261505,Uttar Pradesh,IN,"https://www.google.com/maps/place/Mosque,+Maigalganj+Kheri/data=!4m7!3m6!1s0x399f1bc9c1316619:0x814416414b3773b1!8m2!3d27.7198479!4d80.3447503!16s%2Fg%2F124ydbsjp!19sChIJGWYxwckbnzkRsXM3S0EWRIE?authuser=0&hl=en&rclk=1","27.719847899999998,80.3447503"
Masjid,Mosque,"WQ2W+48Q Masjid, Lakhimpur, Kheri, Uttar Pradesh 262701",,WQ2W+48Q,"Lakhimpur, Kheri",262701,Uttar Pradesh,IN,https://www.google.com/maps/place/Masjid/data=!4m7!3m6!1s0x399f34a703e70573:0x1025d47d1548833d!8m2!3d27.9003444!4d80.7958672!16s%2Fg%2F11g69g60mr!19sChIJcwXnA6c0nzkRPYNIFX3UJRA?authuser=0&hl=en&rclk=1,"27.900344399999998,80.79586719999999"
Jama Masjid,Mosque,"3Q53+R85 Jama Masjid, Chand Kheri, Uttar Pradesh 244401",,3Q53+R85,Chand Kheri,244401,Uttar Pradesh,IN,https://www.google.com/maps/place/Jama+Masjid/data=!4m7!3m6!1s0x390a515e077bed1d:0x2dc39e6c7ac7fbeb!8m2!3d29.0595006!4d78.7533514!16s%2Fg%2F11hd1mm24h!19sChIJHe17B15RCjkR6_vHemyewy0?authuser=0&hl=en&rclk=1,"29.0595006,78.7533514"
Noori Masjid,Mosque,"XV7F+9CX Noori Masjid, Bahoranpur Kalan, Uttar Pradesh 244402",,XV7F+9CX,Bahoranpur Kalan,244402,Uttar Pradesh,IN,https://www.google.com/maps/place/Noori+Masjid/data=!4m7!3m6!1s0x390a587a5e2fd8a5:0xaeefa1d58abfd4b5!8m2!3d28.9634757!4d78.8736075!16s%2Fg%2F11ddzvwn7d!19sChIJpdgvXnpYCjkRtdS_itWh764?authuser=0&hl=en&rclk=1,"28.9634757,78.87360749999999"
Jama masjid Mithanpur,Mosque,"RG9Q+58W Jama masjid Mithanpur, Mithanpur Rd, Siwora, Uttar Pradesh 244221",,"RG9Q+58W, Mithanpur Rd",Siwora,,Uttar Pradesh,IN,https://www.google.com/maps/place/Jama+masjid+Mithanpur/data=!4m7!3m6!1s0x390b0552447cd1bd:0xbbb9e6fccb74d8f2!8m2!3d28.81798!4d78.5383266!16s%2Fg%2F11f9htfcyq!19sChIJvdF8RFIFCzkR8th0y_zmubs?authuser=0&hl=en&rclk=1,"28.81798,78.53832659999999"
Masjid-e-fatima,Mosque,"C8V2+2QV Masjid-e-fatima, Shamli, Uttar Pradesh 247776",,C8V2+2QV,Shamli,247776,Uttar Pradesh,IN,https://www.google.com/maps/place/Masjid-e-fatima/data=!4m7!3m6!1s0x390c2eba69647109:0x3eccf6146474bf60!8m2!3d29.4426018!4d77.3019303!16s%2Fg%2F11gfj5nhgw!19sChIJCXFkabouDDkRYL90ZBT2zD4?authuser=0&hl=en&rclk=1,"29.4426018,77.3019303"
Masjid-E-Aaisha-Dhakadei,Mosque,"Q9JX+W4C Masjid-E-Aaisha-Dhakadei, Dhakadei, Uttar Pradesh 247451",,Q9JX+W4C,Dhakadei,247451,Uttar Pradesh,IN,https://www.google.com/maps/place/Masjid-E-Aaisha-Dhakadei/data=!4m7!3m6!1s0x390e91e2ad0c3873:0xb55718999a0e08e3!8m2!3d29.7823146!4d77.3977781!16s%2Fg%2F11rhc7zh2b!19sChIJczgMreKRDjkR4wgOmpkYV7U?authuser=0&hl=en&rclk=1,"29.7823146,77.3977781"
Juma Masjid Badi Kheri,Mosque,"V27R+GJ4 Juma Masjid Badi Kheri, Kherli Kalan, Haryana 122108",,V27R+GJ4,Kherli Kalan,,Haryana,IN,https://www.google.com/maps/place/Juma+Masjid+Badi+Kheri/data=!4m7!3m6!1s0x3972db75e62fd9a1:0x6534926f063582c5!8m2!3d27.8637579!4d77.0415722!16s%2Fg%2F11ghgvcb7g!19sChIJodkv5nXbcjkRxYI1Bm-SNGU?authuser=0&hl=en&rclk=1,"27.8637579,77.04157219999999"
Muhammadi Masjid,Mosque,"WC3F+QXX Muhammadi Masjid, Tamba Kheri, Rajasthan 331023",,WC3F+QXX,Tamba Kheri,331023,Rajasthan,IN,https://www.google.com/maps/place/Muhammadi+Masjid/data=!4m7!3m6!1s0x3913bf11b610cf9f:0xada1a0d915290d92!8m2!3d28.9044778!4d75.4249762!16s%2Fg%2F11g1gq4w_q!19sChIJn88QthG_EzkRkg0pFdmgoa0?authuser=0&hl=en&rclk=1,"28.9044778,75.4249762"
Dargah Sareef Hajrat Saah Gulam Jilani Rah,Mosque,"Dargah Sareef Hajrat Saah Gulam Jilani Rah, 642/6, Quilla Rd, quilla Mohalla, Rohtak, Haryana 124001",quilla Mohalla,"642/6, Quilla Rd",Rohtak,124001,Haryana,IN,https://www.google.com/maps/place/Dargah+Sareef+Hajrat+Saah+Gulam+Jilani+Rah/data=!4m7!3m6!1s0x390d85bc7b9978f9:0x806da633a78e54ee!8m2!3d28.8990675!4d76.5801787!16s%2Fg%2F11c2pldg17!19sChIJ-XiZe7yFDTkR7lSOpzOmbYA?authuser=0&hl=en&rclk=1,"28.899067499999997,76.58017869999999"
Masjid munda khera khadar,Mosque,"W5QJ+5XV Masjid munda khera khadar, MONDHA KHADER, Uttar Pradesh 244225",,W5QJ+5XV,MONDHA KHADER,244225,Uttar Pradesh,IN,https://www.google.com/maps/place/Masjid+munda+khera+khadar/data=!4m7!3m6!1s0x390b9d5041262db1:0x72b80a2f72bcc595!8m2!3d28.9379781!4d78.1824238!16s%2Fg%2F11r7hgltqp!19sChIJsS0mQVCdCzkRlcW8ci8KuHI?authuser=0&hl=en&rclk=1,"28.9379781,78.1824238"
Sunni Gosiya masjid Quresh mohalla,Mosque,"Sunni Gosiya masjid Quresh mohalla, Dahagwan, Uttar Pradesh 243638",,,Dahagwan,243638,Uttar Pradesh,IN,https://www.google.com/maps/place/Sunni+Gosiya+masjid+Quresh+mohalla/data=!4m7!3m6!1s0x3974d53c41f45d17:0x12a5efd50f2e2392!8m2!3d28.1332743!4d78.6252993!16s%2Fg%2F11fvkgw9nk!19sChIJF130QTzVdDkRkiMuD9XvpRI?authuser=0&hl=en&rclk=1,"28.1332743,78.6252993"
Madina Masjid,Mosque,"Madina Masjid, Islam Nagar, Khatauli, Khatauli Rural, Uttar Pradesh 251201",Islam Nagar,,"Khatauli, Khatauli Rural",251201,Uttar Pradesh,IN,https://www.google.com/maps/place/Madina+Masjid/data=!4m7!3m6!1s0x390c126479ef1d0f:0x3ec6048654d41619!8m2!3d29.2732577!4d77.7304189!16s%2Fg%2F11cn2v964n!19sChIJDx3veWQSDDkRGRbUVIYExj4?authuser=0&hl=en&rclk=1,"29.2732577,77.73041889999999"
Jamia Sabeel Ul Falah,Religious institution,"4F98+R3W Jamia Sabeel Ul Falah, Kheri Kalan, Uttar Pradesh 250344",,4F98+R3W,Kheri Kalan,,Uttar Pradesh,IN,https://www.google.com/maps/place/Jamia+Sabeel+Ul+Falah/data=!4m7!3m6!1s0x390c476a3d8dfe1f:0x46d1eb44a727ef9a!8m2!3d29.119623!4d77.4652125!16s%2Fg%2F11ghlvgyt9!19sChIJH_6NPWpHDDkRmu8np0Tr0UY?authuser=0&hl=en&rclk=1,"29.119622999999997,77.46521249999999"
Jaama Masjid,Mosque,"PC54+3VW Jaama Masjid, Gram Haryana, Bagli, Uttar Pradesh 244242",,PC54+3VW,"Gram Haryana, Bagli",244242,Uttar Pradesh,IN,https://www.google.com/maps/place/Jaama+Masjid/data=!4m7!3m6!1s0x390b11bfe310d5db:0x3d643c1373c755a1!8m2!3d28.7077354!4d78.407206!16s%2Fg%2F11fxx43rxr!19sChIJ29UQ478RCzkRoVXHcxM8ZD0?authuser=0&hl=en&rclk=1,"28.707735399999997,78.407206"
Nosana Jama Maszid,Mosque,"PM3R+RVR Nosana Jama Maszid, Nosna Shekhoopur, Uttar Pradesh 244301",,PM3R+RVR,Nosna Shekhoopur,244301,Uttar Pradesh,IN,https://www.google.com/maps/place/Nosana+Jama+Maszid/data=!4m7!3m6!1s0x390ae306e31d967f:0xb0c9fdcd7371fcfc!8m2!3d28.7046206!4d78.6921414!16s%2Fg%2F11ghnckb79!19sChIJf5Yd4wbjCjkR_Pxxc839ybA?authuser=0&hl=en&rclk=1,"28.7046206,78.6921414"
Jama Masjid dhakadei,Mosque,"Q9JX+88G Jama Masjid dhakadei, Unnamed Road, Dhakadei, Uttar Pradesh 247451",,"Q9JX+88G, Unnamed Road",Dhakadei,247451,Uttar Pradesh,IN,https://www.google.com/maps/place/Jama+Masjid+dhakadei/data=!4m7!3m6!1s0x390e912441d1e171:0x105f1512d95b670f!8m2!3d29.7808136!4d77.3983212!16s%2Fg%2F11h1kxyb96!19sChIJceHRQSSRDjkRD2db2RIVXxA?authuser=0&hl=en&rclk=1,"29.7808136,77.3983212"
Masjid-E-Ikhramu,Mosque,"Masjid-E-Ikhramu, Lilon, Kheri Karmu, Uttar Pradesh 247776",,,"Lilon, Kheri Karmu",247776,Uttar Pradesh,IN,https://www.google.com/maps/place/Masjid-E-Ikhramu/data=!4m7!3m6!1s0x390c2e9ebf63d9d7:0xf2bc6e26b7c8d52!8m2!3d29.4270487!4d77.2910754!16s%2Fg%2F11fym9dfzx!19sChIJ19ljv54uDDkRUo18a-LGKw8?authuser=0&hl=en&rclk=1,"29.4270487,77.2910754"
Dargah Wali Masjid,Mosque,"Q85G+MGV Dargah Wali Masjid, Bahan Kheri, Uttar Pradesh 244241",,"Q85G+MGV, Bahan Kheri",Doom Khera,244241,Uttar Pradesh,IN,https://www.google.com/maps/place/Dargah+Wali+Masjid/data=!4m7!3m6!1s0x390b0d1aa6d25b59:0xdc377d7fa6989ccc!8m2!3d28.7592356!4d78.3263031!16s%2Fg%2F11f0w_qd4w!19sChIJWVvSphoNCzkRzJyYpn99N9w?authuser=0&hl=en&rclk=1,"28.7592356,78.32630309999999"
asharaf Mosque,Mosque,"H8F2+249 asharaf Mosque, Kherki, Uttar Pradesh 247778",,H8F2+249,Kherki,247778,Uttar Pradesh,IN,https://www.google.com/maps/place/asharaf+Mosque/data=!4m7!3m6!1s0x390e823ce524284f:0x556934129f065a00!8m2!3d29.5725431!4d77.3003556!16s%2Fg%2F11f1zlbq8w!19sChIJTygk5TyCDjkRAFoGnxI0aVU?authuser=0&hl=en&rclk=1,"29.572543099999997,77.3003556"
Ayesha Masjid,Mosque,"CV46+F9V Ayesha Masjid, Kheri Ferozabad, Uttar Pradesh 251316",,CV46+F9V,Kheri Ferozabad,251316,Uttar Pradesh,IN,https://www.google.com/maps/place/Ayesha+Masjid/data=!4m7!3m6!1s0x390c09a882b9a273:0xce656b164d7cf905!8m2!3d29.406238!4d77.8609235!16s%2Fg%2F11ll7fwy7c!19sChIJc6K5gqgJDDkRBfl8TRZrZc4?authuser=0&hl=en&rclk=1,"29.406238,77.8609235"
Badi masjid,Mosque,"R9QM+HWC Badi masjid, Gauna, Uttar Pradesh 250101",,R9QM+HWC,Gauna,250101,Uttar Pradesh,IN,https://www.google.com/maps/place/Badi+masjid/data=!4m7!3m6!1s0x390c581a45f447cd:0x2bb6ad82b31f92bd!8m2!3d28.838945!4d77.3847729!16s%2Fg%2F11g8dhd330!19sChIJzUf0RRpYDDkRvZIfs4Kttis?authuser=0&hl=en&rclk=1,"28.838945,77.3847729"
Bilal Masjid,Mosque,"694G+HRR Bilal Masjid, Unnamed Road, Turabnagar, Uttar Pradesh 246737",,"694G+HRR, Unnamed Road",Turabnagar,246737,Uttar Pradesh,IN,https://www.google.com/maps/place/Bilal+Masjid/data=!4m7!3m6!1s0x390bbf35fe5c70c9:0xcfff9ae671e055a4!8m2!3d29.2064963!4d78.377031!16s%2Fg%2F11fkq8f598!19sChIJyXBc_jW_CzkRpFXgceaa_88?authuser=0&hl=en&rclk=1,"29.206496299999998,78.377031"
Gado Ki Masjid,Mosque,"VGF3+PJW Gado Ki Masjid, Mohanpur gada, Dipa Kheri, Uttar Pradesh 247451",,VGF3+PJW,"Mohanpur gada, Dipa Kheri",247451,Uttar Pradesh,IN,https://www.google.com/maps/place/Gado+Ki+Masjid/data=!4m7!3m6!1s0x390e945aa5a90f0b:0x1f5052bd5c39beaa!8m2!3d29.8743713!4d77.5040857!16s%2Fg%2F11dzdhb85h!19sChIJCw-ppVqUDjkRqr45XL1SUB8?authuser=0&hl=en&rclk=1,"29.8743713,77.50408569999999"
Noori Maojid nuurii msjd,Mosque,"V47M+883 Noori Maojid nuurii msjd, Unnamed Road, Chholabari, Uttar Pradesh 261505",,"V47M+883, Unnamed Road",Chholabari,261505,Uttar Pradesh,IN,https://www.google.com/maps/place/Noori+Maojid+%E0%A4%A8%E0%A5%82%E0%A4%B0%E0%A5%80+%E0%A4%AE%E0%A4%B8%E0%A5%8D%E0%A4%9C%E0%A4%A6/data=!4m7!3m6!1s0x399f0b2b358e5ac7:0x3dae8f2af83aa55f!8m2!3d27.8632657!4d80.1332833!16s%2Fg%2F11gtzh4c6l!19sChIJx1qONSsLnzkRX6U6-CqPrj0?authuser=0&hl=en&rclk=1,"27.8632657,80.1332833"
Jama Masjid Kheri Gujjar,Mosque,"5X7C+GPJ Jama Masjid Kheri Gujjar, Kheri Gujar, Haryana 131101",,5X7C+GPJ,Kheri Gujar,131101,Haryana,IN,https://www.google.com/maps/place/Jama+Masjid+Kheri+Gujjar/data=!4m7!3m6!1s0x390dc7f80e82e5c7:0xe080b8fa670dfa50!8m2!3d29.1638269!4d76.9717517!16s%2Fg%2F11fj2qv1sn!19sChIJx-WCDvjHDTkRUPoNZ_q4gOA?authuser=0&hl=en&rclk=1,"29.1638269,76.9717517"
Madeena Masjid kheri,Museum,"3GJC+GJC Madeena Masjid kheri, Shahapur, Balla Nangla, Uttar Pradesh 246727",,3GJC+GJC,"Shahapur, Balla Nangla",,Uttar Pradesh,IN,https://www.google.com/maps/place/Madeena+Masjid+kheri/data=!4m7!3m6!1s0x390bafde453746e3:0xbcf6fe3802244002!8m2!3d29.0813028!4d78.5215273!16s%2Fg%2F11fd4_0c30!19sChIJ40Y3Rd6vCzkRAkAkAjj-9rw?authuser=0&hl=en&rclk=1,"29.0813028,78.5215273"
Badi masjid,Mosque,"39C4+PG4 Badi masjid, Bijwara, Uttar Pradesh 250345",,39C4+PG4,Bijwara,250345,Uttar Pradesh,IN,https://www.google.com/maps/place/Badi+masjid/data=!4m7!3m6!1s0x390c4f7d05a27321:0x2d62323ed5dc20ad!8m2!3d29.0717626!4d77.3563294!16s%2Fg%2F11h8fjb05t!19sChIJIXOiBX1PDDkRrSDc1T4yYi0?authuser=0&hl=en&rclk=1,"29.0717626,77.35632939999999"
MASJID AL GOSIYA MOHALLA QURESHIYAN,Mosque,"M955+J6H MASJID AL GOSIYA MOHALLA QURESHIYAN, Government Hospital Rd, Ujhari, Uttar Pradesh 244242",,"M955+J6H, Government Hospital Rd",Ujhari,244242,Uttar Pradesh,IN,https://www.google.com/maps/place/MASJID+AL+GOSIYA+MOHALLA+QURESHIYAN/data=!4m7!3m6!1s0x390b13ea78410e83:0x5f89595a9ba5992!8m2!3d28.6590607!4d78.3581132!16s%2Fg%2F11h3g7wvvv!19sChIJgw5BeOoTCzkRklm6qZWV-AU?authuser=0&hl=en&rclk=1,"28.659060699999998,78.35811319999999"
Uchana Masjid,Mosque,"F5CJ+9P9 Uchana Masjid, Uchana, Haryana 126115",,F5CJ+9P9,Uchana,126115,Haryana,IN,https://www.google.com/maps/place/Uchana+Masjid/data=!4m7!3m6!1s0x3911f679051b15f1:0xcd01deb8ad3f56d9!8m2!3d29.4709027!4d76.1818449!16s%2Fg%2F11g9qgd2yq!19sChIJ8RUbBXn2ETkR2VY_rbjeAc0?authuser=0&hl=en&rclk=1,"29.4709027,76.1818449"
Badi Masjid,Mosque,"39FM+7Q Badi Masjid, Sirsal Darkaoda, Darkawda, Uttar Pradesh 250345",,39FM+7Q,"Sirsal Darkaoda, Darkawda",,Uttar Pradesh,IN,https://www.google.com/maps/place/Badi+Masjid/data=!4m7!3m6!1s0x390c4517c8506909:0x31bf452acfe215f1!8m2!3d29.0731723!4d77.3844155!16s%2Fg%2F11sfh4xjns!19sChIJCWlQyBdFDDkR8RXizypFvzE?authuser=0&hl=en&rclk=1,"29.0731723,77.3844155"
Masjid-e-Umar,Mosque,"GGXX+RV8 Masjid-e-Umar, Railway Rd, GB Nagar, Dadri, Uttar Pradesh 203207",GB Nagar,"GGXX+RV8, Railway Rd",Dadri,203207,Uttar Pradesh,IN,https://www.google.com/maps/place/Masjid-e-Umar/data=!4m7!3m6!1s0x390ceb456f4b72d7:0x20a92403f93fef4f!8m2!3d28.5495438!4d77.5497158!16s%2Fg%2F11g8tg09t4!19sChIJ13JLb0XrDDkRT-8_-QMkqSA?authuser=0&hl=en&rclk=1,"28.5495438,77.5497158"
vaisno mata chowki darbar,Place of worship,"vaisno mata chowki darbar, Kheri gujjar, near Masjid, Ganaur, Haryana 131101",,"Kheri gujjar, near Masjid","Ganaur, Kheri Gujar",131101,Haryana,IN,https://www.google.com/maps/place/vaisno+mata+chowki+darbar/data=!4m7!3m6!1s0x390dc7f99a1adb83:0xbd219ec0fa7ea709!8m2!3d29.1643145!4d76.9714368!16s%2Fg%2F11q4h1_h3p!19sChIJg9samvnHDTkRCad--sCeIb0?authuser=0&hl=en&rclk=1,"29.1643145,76.97143679999999"
Mosque Kheri,Mosque,"VX9J+MX4 Mosque Kheri, Kherli Khurd, Haryana 122108",,VX9J+MX4,Kherli Khurd,122108,Haryana,IN,https://www.google.com/maps/place/Mosque+Kheri/data=!4m7!3m6!1s0x3972cf298eb512e3:0xff0585d35509f1d4!8m2!3d27.8691402!4d76.9824655!16s%2Fg%2F11hz2xlz59!19sChIJ4xK1jinPcjkR1PEJVdOFBf8?authuser=0&hl=en&rclk=1,"27.8691402,76.9824655"
Badi Masjid,Mosque,"26HM+Q6V Badi Masjid, Sarurpur, Uttar Pradesh 250619",,26HM+Q6V,Sarurpur,250619,Uttar Pradesh,IN,https://www.google.com/maps/place/Badi+Masjid/data=!4m7!3m6!1s0x390c4d0446659915:0x94e98f5609633ca2!8m2!3d29.0294869!4d77.2330467!16s%2Fg%2F11hb1vdytc!19sChIJFZllRgRNDDkRojxjCVaP6ZQ?authuser=0&hl=en&rclk=1,"29.0294869,77.2330467"
Ak minar masjid,Mosque,"CV56+7HJ Ak minar masjid, Kheri Ferozabad, Uttar Pradesh 251316",,CV56+7HJ,Kheri Ferozabad,,Uttar Pradesh,IN,https://www.google.com/maps/place/Ak+minar+masjid/data=!4m7!3m6!1s0x390c093046b7e40d:0x14acfc1f481f0209!8m2!3d29.40822!4d77.8613925!16s%2Fg%2F11jcvd1y1w!19sChIJDeS3RjAJDDkRCQIfSB_8rBQ?authuser=0&hl=en&rclk=1,"29.40822,77.8613925"
Sajida Mosque. saajidaa msjid l,Mosque,"Sajida Mosque. saajidaa msjid l, Unnamed Road, Chand Kheri, Uttar Pradesh 244401",,Unnamed Road,Chand Kheri,244401,Uttar Pradesh,IN,https://www.google.com/maps/place/Sajida+Mosque.+%E0%A4%B8%E0%A4%BE%E0%A4%9C%E0%A4%BF%E0%A4%A6%E0%A4%BE+%E0%A4%AE%E0%A4%B8%E0%A5%8D%E0%A4%9C%E0%A4%BF%E0%A4%A6+l/data=!4m7!3m6!1s0x390a51bd3da8bfd3:0x63e04478c8bf2822!8m2!3d29.0609524!4d78.7542795!16s%2Fg%2F11j1wcll_w!19sChIJ07-oPb1RCjkRIii_yHhE4GM?authuser=0&hl=en&rclk=1,"29.060952399999998,78.7542795"
Masjid Ayesha,Mosque,"Masjid Ayesha, Chand Kheri, Uttar Pradesh 244401",,,Chand Kheri,244401,Uttar Pradesh,IN,https://www.google.com/maps/place/Masjid+Ayesha/data=!4m7!3m6!1s0x390a51669c3151a3:0x2e125864bc22be5c!8m2!3d29.0598393!4d78.7556343!16s%2Fg%2F11f6g076kj!19sChIJo1ExnGZRCjkRXL4ivGRYEi4?authuser=0&hl=en&rclk=1,"29.0598393,78.7556343"
masjid betul mukarram,Mosque,"H8Q8+7R4 masjid betul mukarram, Bhatukhedi, Uttar Pradesh 247778",,H8Q8+7R4,Bhatukhedi,247778,Uttar Pradesh,IN,https://www.google.com/maps/place/masjid+betul+mukarram/data=!4m7!3m6!1s0x390e83f822760bd9:0x70aa744564877900!8m2!3d29.5881302!4d77.3170763!16s%2Fg%2F11mv_nf9dr!19sChIJ2Qt2IviDDjkRAHmHZEV0qnA?authuser=0&hl=en&rclk=1,"29.5881302,77.3170763"
Noori masjid,Mosque,"833R+Q84 Noori masjid, Mazhowa, Uttar Pradesh 243301",,833R+Q84,Mazhowa,,Uttar Pradesh,IN,https://www.google.com/maps/place/Noori+masjid/data=!4m7!3m6!1s0x390ab57266b6a3e9:0xe87943e4a8be5260!8m2!3d28.3043771!4d79.090841!16s%2Fg%2F11mtfpmyng!19sChIJ6aO2ZnK1CjkRYFK-qORDeeg?authuser=0&hl=en&rclk=1,"28.3043771,79.090841"
Masjid Mirzapura,Mosque,"G52X+66C Masjid Mirzapura, Kiratpur, Taqarubpur Israj Kheri, Uttar Pradesh 246731",,G52X+66C,"Kiratpur, Taqarubpur Israj Kheri",246731,Uttar Pradesh,IN,https://www.google.com/maps/place/Masjid+Mirzapura/data=!4m7!3m6!1s0x390be578ca2c5369:0xa0a84335b5c31ac7!8m2!3d29.5005682!4d78.1980066!16s%2Fg%2F11h0y8s37z!19sChIJaVMsynjlCzkRxxrDtTVDqKA?authuser=0&hl=en&rclk=1,"29.5005682,78.1980066"
Mosque,Mosque,"C24V+J4V Mosque, Mohali, Haryana 132103",,C24V+J4V,Mohali,132103,Haryana,IN,https://www.google.com/maps/place/Mosque/data=!4m7!3m6!1s0x390dd0e8258c9735:0x4448663886499b1f!8m2!3d29.4066004!4d77.042782!16s%2Fg%2F11c716056z!19sChIJNZeMJejQDTkRH5tJhjhmSEQ?authuser=0&hl=en&rclk=1,"29.4066004,77.042782"
kheri kchchi msjid,Mosque,"WQMQ+JFR kheri kchchi msjid, Kheri Rd, Kashinagar, Lakhimpur, Uttar Pradesh 262701",Kashinagar,"WQMQ+JFR, Kheri Rd",Lakhimpur,262701,Uttar Pradesh,IN,https://www.google.com/maps/place/kheri+kchchi+msjid/data=!4m7!3m6!1s0x399f34dd6f861e4f:0xd1816e4610912107!8m2!3d27.9341234!4d80.7886501!16s%2Fg%2F11dzz_t0z2!19sChIJTx6Gb900nzkRByGREEZugdE?authuser=0&hl=en&rclk=1,"27.934123399999997,80.7886501"
Jama masjid,Mosque,"V5J4+9HW Jama masjid, Kheri Radan, Laxmangarh, Rajasthan 332401",,V5J4+9HW,"Kheri Radan, Laxmangarh",332401,Rajasthan,IN,https://www.google.com/maps/place/Jama+masjid/data=!4m7!3m6!1s0x39134dc64bc3af79:0x9f1b92bb5c470e73!8m2!3d27.880992!4d75.156457!16s%2Fg%2F11gmw8q96y!19sChIJea_DS8ZNEzkRcw5HXLuSG58?authuser=0&hl=en&rclk=1,"27.880992,75.156457"
Miraj masjid,Mosque,"87X2+V7C Miraj masjid, Kheri Gujran, Haryana 121004",,87X2+V7C,Kheri Gujran,121004,Haryana,IN,https://www.google.com/maps/place/Miraj+masjid/data=!4m7!3m6!1s0x390cd99bc3d4464d:0xfb2c4b090881c198!8m2!3d28.3496768!4d77.2506323!16s%2Fg%2F11nh2l_l_c!19sChIJTUbUw5vZDDkRmMGBCAlLLPs?authuser=0&hl=en&rclk=1,"28.349676799999997,77.25063229999999"
Mohammadi Masjid,Mosque,"FJM8+F73 Mohammadi Masjid, Unnamed Road, Kheri Duda Dhari, Uttar Pradesh 251306",,"FJM8+F73, Unnamed Road",Kheri Duda Dhari,251306,Uttar Pradesh,IN,https://www.google.com/maps/place/Mohammadi+Masjid/data=!4m7!3m6!1s0x390c191870dc4397:0x99d88dffbc42082d!8m2!3d29.4836288!4d77.6156728!16s%2Fg%2F11fpntfttx!19sChIJl0PccBgZDDkRLQhCvP-N2Jk?authuser=0&hl=en&rclk=1,"29.483628799999998,77.6156728"
Madeena masjid,Mosque,"CV47+H84 Madeena masjid, Kheri Ferozabad, Uttar Pradesh 251316",,CV47+H84,Kheri Ferozabad,,Uttar Pradesh,IN,https://www.google.com/maps/place/Madeena+masjid/data=!4m7!3m6!1s0x390c09192a8e168f:0xb229f3b7ed5a1139!8m2!3d29.4063761!4d77.8633204!16s%2Fg%2F11mtrrprx9!19sChIJjxaOKhkJDDkRORFa7bfzKbI?authuser=0&hl=en&rclk=1,"29.4063761,77.86332039999999"
Jama Masjid,Mosque,"Jama Masjid, Neeli Kheri Road, Neeli Kheri, Uttar Pradesh 244222",,Neeli Kheri Road,Neeli Kheri,244222,Uttar Pradesh,IN,https://www.google.com/maps/place/Jama+Masjid/data=!4m7!3m6!1s0x390b05cb302628db:0xbaed7be7fa8bba67!8m2!3d28.8274054!4d78.5493584!16s%2Fg%2F11h_dv4rvy!19sChIJ2ygmMMsFCzkRZ7qL-ud77bo?authuser=0&hl=en&rclk=1,"28.8274054,78.5493584"
Panjatani masjid,Mosque,"XCQ2+J4F Panjatani masjid, Bans Kheri, Uttar Pradesh 244251",,XCQ2+J4F,Bans Kheri,244251,Uttar Pradesh,IN,https://www.google.com/maps/place/Panjatani+masjid/data=!4m7!3m6!1s0x390ba7ef25e1c657:0x5446e9d966e4e0a!8m2!3d28.9890544!4d78.4002944!16s%2Fg%2F11j8p274cy!19sChIJV8bhJe-nCzkRCk5ulp1uRAU?authuser=0&hl=en&rclk=1,"28.989054399999997,78.40029439999999"
Madrasha islamia arabiya imdadul muslimin,Mosque,"V66R+56Q Madrasha islamia arabiya imdadul muslimin, Sankroud, Uttar Pradesh 250101",,V66R+56Q,Sankroud,,Uttar Pradesh,IN,https://www.google.com/maps/place/Madrasha+islamia+arabiya+imdadul+muslimin/data=!4m7!3m6!1s0x390c55b884286d39:0xb78df2009b0ff7c2!8m2!3d28.8604708!4d77.2406082!16s%2Fg%2F11mx9gvbr0!19sChIJOW0ohLhVDDkRwvcPmwDyjbc?authuser=0&hl=en&rclk=1,"28.860470799999998,77.2406082"
Noori masjid,Mosque,"735H+M8 Noori masjid, Doongon, Uttar Pradesh 243725",,735H+M8,Doongon,,Uttar Pradesh,IN,https://www.google.com/maps/place/Noori+masjid/data=!4m7!3m6!1s0x390ab57cfc0c6f39:0x5aadcaf0e72ce835!8m2!3d28.2591901!4d79.0783034!16s%2Fg%2F11pk_82d59!19sChIJOW8M_Hy1CjkRNegs5_DKrVo?authuser=0&hl=en&rclk=1,"28.259190099999998,79.0783034"
"Jama Masjid, Bahadarpur",Mosque,"CQ46+43V Jama Masjid, Bahadarpur, Mansurpur, Uttar Pradesh 251203",,CQ46+43V,Mansurpur,251203,Uttar Pradesh,IN,"https://www.google.com/maps/place/Jama+Masjid,+Bahadarpur/data=!4m7!3m6!1s0x390c0f0d25aa9b65:0x1a5797f8ae8a596a!8m2!3d29.405352!4d77.760175!16s%2Fg%2F11nh6j8x09!19sChIJZZuqJQ0PDDkRalmKrviXVxo?authuser=0&hl=en&rclk=1","29.405351999999997,77.76017499999999"
Sayyad peer kanhaheri,Mosque,"HGRF+695 Sayyad peer kanhaheri, Unnamed Road, Kanahheri, Uttar Pradesh 247772",,"HGRF+695, Unnamed Road",Kanahheri,247772,Uttar Pradesh,IN,https://www.google.com/maps/place/Sayyad+peer+kanhaheri/data=!4m7!3m6!1s0x390e9f2a49282113:0x479fee71bdb5c1bb!8m2!3d29.5905132!4d77.5234738!16s%2Fg%2F11hzmpgmm_!19sChIJEyEoSSqfDjkRu8G1vXHun0c?authuser=0&hl=en&rclk=1,"29.5905132,77.52347379999999"
Noori Masjid,Mosque,"QG82+4F Noori Masjid, Nartho, Uttar Pradesh 244304",,QG82+4F,Nartho,,Uttar Pradesh,IN,https://www.google.com/maps/place/Noori+Masjid/data=!4m7!3m6!1s0x390b05e5a0d0c195:0x18aaff6e743e4847!8m2!3d28.7653217!4d78.5011775!16s%2Fg%2F11rm_8s97f!19sChIJlcHQoOUFCzkRR0g-dG7_qhg?authuser=0&hl=en&rclk=1,"28.765321699999998,78.5011775"
Masjid FarraShaan,Mosque,"H274+CR5 Masjid FarraShaan, Shahabad, Uttar Pradesh 244922",,H274+CR5,Shahabad,244922,Uttar Pradesh,IN,https://www.google.com/maps/place/Masjid+FarraShaan/data=!4m7!3m6!1s0x390ac15264be7865:0x8a9d4ab3cd305104!8m2!3d28.563509!4d79.0071239!16s%2Fg%2F11fd51y9b2!19sChIJZXi-ZFLBCjkRBFEwzbNKnYo?authuser=0&hl=en&rclk=1,"28.563509,79.0071239"
naugjaa piir mhaaraaj,Hindu temple,"5X6C+F8M naugjaa piir mhaaraaj, Kheri Gujar - Ganaur Rd, Kheri Gujar, Haryana 131101",,"5X6C+F8M, Kheri Gujar - Ganaur Rd",Kheri Gujar,131101,Haryana,IN,https://www.google.com/maps/place/%E0%A4%A8%E0%A5%8C%E0%A4%97%E0%A4%9C%E0%A4%BE+%E0%A4%AA%E0%A5%80%E0%A4%B0+%E0%A4%AE%E0%A4%B9%E0%A4%BE%E0%A4%B0%E0%A4%BE%E0%A4%9C/data=!4m7!3m6!1s0x390dc762910287a3:0x93d765d0c30ab624!8m2!3d29.1612051!4d76.9708115!16s%2Fg%2F11j2zbl0z7!19sChIJo4cCkWLHDTkRJLYKw9Bl15M?authuser=0&hl=en&rclk=1,"29.1612051,76.9708115"
Jama Masjid Gardaha Up Kheri,Mosque,"X75V+9R9 Jama Masjid Gardaha Up Kheri, Garh Sagar, Uttar Pradesh 262804",,X75V+9R9,Garh Sagar,262804,Uttar Pradesh,IN,https://www.google.com/maps/place/Jama+Masjid+Gardaha+Up+Kheri/data=!4m7!3m6!1s0x399f6d8862ea00db:0x4fb4d0171b39d65a!8m2!3d27.958409!4d80.294622!16s%2Fg%2F11g14rk1sq!19sChIJ2wDqYohtnzkRWtY5GxfQtE8?authuser=0&hl=en&rclk=1,"27.958409,80.29462199999999"
Aaysha masjid,Mosque,"W886+CWG Aaysha masjid, Salawatpur Kheri, Uttar Pradesh 250615",,W886+CWG,Salawatpur Kheri,250615,Uttar Pradesh,IN,https://www.google.com/maps/place/Aaysha+masjid/data=!4m7!3m6!1s0x390c5140a75a7a7b:0xee7626fd8f7d62c3!8m2!3d28.9167794!4d77.3110971!16s%2Fg%2F11s4900n61!19sChIJe3pap0BRDDkRw2J9j_0mdu4?authuser=0&hl=en&rclk=1,"28.9167794,77.3110971"
madeena masjid,Mosque,"57MV+82X madeena masjid, Kasimpur Kheri, Uttar Pradesh 250623",,57MV+82X,Kasimpur Kheri,250623,Uttar Pradesh,IN,https://www.google.com/maps/place/madeena+masjid/data=!4m7!3m6!1s0x390c37484183df57:0xae40e0601383417b!8m2!3d29.1833661!4d77.2925963!16s%2Fg%2F11ftctyyvf!19sChIJV9-DQUg3DDkRe0GDE2DgQK4?authuser=0&hl=en&rclk=1,"29.183366099999997,77.2925963"
Chand Masjid Kalina,Religious destination,"3FGC+76R Chand Masjid Kalina, Kalina, Kheri Nizd Kalina, Uttar Pradesh 250344",,3FGC+76R,"Kalina, Kheri Nizd Kalina",250344,Uttar Pradesh,IN,https://www.google.com/maps/place/Chand+Masjid+Kalina/data=!4m7!3m6!1s0x390c43f7739f244f:0x280e894ee0b33d31!8m2!3d29.0764833!4d77.4710117!16s%2Fg%2F11sk8brc_c!19sChIJTySfc_dDDDkRMT2z4E6JDig?authuser=0&hl=en&rclk=1,"29.0764833,77.47101169999999"
Masjid Dr.Munawwar,Mosque,"HF65+3H9 Masjid Dr.Munawwar, Niralsi Urf Makh Kheri, Uttar Pradesh 251301",,HF65+3H9,Niralsi Urf Makh Kheri,,Uttar Pradesh,IN,https://www.google.com/maps/place/Masjid+Dr.Munawwar/data=!4m7!3m6!1s0x390c27c4baa33e21:0x43cd7703e1834a0d!8m2!3d29.5601585!4d77.4589815!16s%2Fg%2F11fr_y3d7j!19sChIJIT6jusQnDDkRDUqD4QN3zUM?authuser=0&hl=en&rclk=1,"29.5601585,77.4589815"
Noori Masjid,Mosque,"P3RJ+M9J Noori Masjid, Majra, Nagli, Uttar Pradesh 244924",,P3RJ+M9J,"Majra, Nagli",244924,Uttar Pradesh,IN,https://www.google.com/maps/place/Noori+Masjid/data=!4m7!3m6!1s0x390b7af140000001:0x3c68848e4e7c7dcc!8m2!3d28.7417182!4d78.0808823!16s%2Fg%2F11ggr4x_66!19sChIJAQAAQPF6CzkRzH18To6EaDw?authuser=0&hl=en&rclk=1,"28.741718199999998,78.0808823"
Masjid Umar (Juma 12:50),Mosque,"7PHF+PFG Masjid Umar (Juma 12:50), Shivpuri, Khatauli, Uttar Pradesh 251201",Shivpuri,7PHF+PFG,Khatauli,251201,Uttar Pradesh,IN,https://www.google.com/maps/place/Masjid+Umar+%28Juma+12:50%29/data=!4m7!3m6!1s0x390c1387757eaef9:0xacec70208e4d2471!8m2!3d29.2793109!4d77.7237074!16s%2Fg%2F11sqdb9vnb!19sChIJ-a5-dYcTDDkRcSRNjiBw7Kw?authuser=0&hl=en&rclk=1,"29.2793109,77.7237074"
Mosque,Mosque,"P6JW+QFF Mosque, Lakhnoti Aht., Kutub Kheri, Uttar Pradesh 247341",,P6JW+QFF,"Lakhnoti Aht., Kutub Kheri",,Uttar Pradesh,IN,https://www.google.com/maps/place/Mosque/data=!4m7!3m6!1s0x390e88867fc331e3:0x576d77f24a16b5a2!8m2!3d29.731943!4d77.246159!16s%2Fg%2F11f30910wp!19sChIJ4zHDf4aIDjkRorUWSvJ3bVc?authuser=0&hl=en&rclk=1,"29.731942999999998,77.24615899999999"
noori Masjid msjid,Mosque,"369X+685 noori Masjid msjid, Nazarpur Rd, Bundra Kalan, Uttar Pradesh 246736",,"369X+685, Nazarpur Rd",Bundra Kalan,246736,Uttar Pradesh,IN,https://www.google.com/maps/place/noori+Masjid+%E0%A4%AE%E0%A4%B8%E0%A5%8D%E0%A4%9C%E0%A4%BF%E0%A4%A6/data=!4m7!3m6!1s0x390b9979b7b5c4b9:0x4e4a93e1ee746ec5!8m2!3d29.0680077!4d78.2483611!16s%2Fg%2F11h2hhz2_n!19sChIJucS1t3mZCzkRxW507uGTSk4?authuser=0&hl=en&rclk=1,"29.0680077,78.2483611"
Jama masjid khedi,Mosque,"23CM+2RM Jama masjid khedi, Kheri Dab Dalan, Haryana 136132",,23CM+2RM,Kheri Dab Dalan,136132,Haryana,IN,https://www.google.com/maps/place/Jama+masjid+khedi/data=!4m7!3m6!1s0x390e5bd164336885:0xec50cc8947dfa8bc!8m2!3d30.0198498!4d77.0858845!16s%2Fg%2F11v9mnrt6r!19sChIJhWgzZNFbDjkRvKjfR4nMUOw?authuser=0&hl=en&rclk=1,"30.0198498,77.08588449999999"
"New masjid kherli Bahadur, govindgarh alwar",Mosque,"GXWG+3QF New masjid kherli Bahadur, govindgarh alwar, Kherli Bahadar, Rajasthan 301604",,GXWG+3QF,Kherli Bahadar,,Rajasthan,IN,"https://www.google.com/maps/place/New+masjid+kherli+Bahadur,+govindgarh+alwar/data=!4m7!3m6!1s0x3972ef9a45fcdccf:0x23c25ede01a1f7de!8m2!3d27.54518!4d76.9769304!16s%2Fg%2F11jnybb6ql!19sChIJz9z8RZrvcjkR3vehAd5ewiM?authuser=0&hl=en&rclk=1","27.54518,76.9769304"
Masjid,Mosque,"79XV+QWH Masjid, Fatehpur Kheri, Uttar Pradesh 247775",,79XV+QWH,Fatehpur Kheri,247775,Uttar Pradesh,IN,https://www.google.com/maps/place/Masjid/data=!4m7!3m6!1s0x390c3bffe88c4ef5:0xe2c4bda4250163a0!8m2!3d29.2994276!4d77.3948712!16s%2Fg%2F11ty704r4t!19sChIJ9U6M6P87DDkRoGMBJaS9xOI?authuser=0&hl=en&rclk=1,"29.299427599999998,77.3948712"
Masjid,Mosque,"8CWX+86F Masjid, Kheri Gani-Mohammadpur Rd, Gaanv Kheri Gani, Kheri Gani, Uttar Pradesh 251309",,"8CWX+86F, Kheri Gani-Mohammadpur Rd","Gaanv Kheri Gani, Kheri Gani",251309,Uttar Pradesh,IN,https://www.google.com/maps/place/Masjid/data=!4m7!3m6!1s0x390c3b6d253f3dbb:0x512a0a9f15095c20!8m2!3d29.3458094!4d77.4480587!16s%2Fg%2F1hhvnrhr3!19sChIJuz0_JW07DDkRIFwJFZ8KKlE?authuser=0&hl=en&rclk=1,"29.3458094,77.44805869999999"
MASJID ANSARIYAAN,Mosque,"8M5P+HH7 MASJID ANSARIYAAN, Nawal khedi TAGAN, Kheri Tangan, Uttar Pradesh 251201",,"8M5P+HH7, Nawal khedi TAGAN",Kheri Tangan,,Uttar Pradesh,IN,https://www.google.com/maps/place/MASJID+ANSARIYAAN/data=!4m7!3m6!1s0x390c11bf68cb17a5:0x25f9ecf9acc83f5f!8m2!3d29.3089206!4d77.6864341!16s%2Fg%2F11vhy8zd9z!19sChIJpRfLaL8RDDkRXz_IrPns-SU?authuser=0&hl=en&rclk=1,"29.3089206,77.6864341"
Masjid siddiqui Akber,Mosque,"XCQ2+84P Masjid siddiqui Akber, Bans Kheri, Uttar Pradesh 244251",,XCQ2+84P,Bans Kheri,244251,Uttar Pradesh,IN,https://www.google.com/maps/place/Masjid+siddiqui+Akber/data=!4m7!3m6!1s0x390ba7210a11c851:0x3624e360f95ce6c3!8m2!3d28.9883262!4d78.4003244!16s%2Fg%2F11h7_tc2sy!19sChIJUcgRCiGnCzkRw-Zc-WDjJDY?authuser=0&hl=en&rclk=1,"28.9883262,78.4003244"
Jama Masjid,Mosque,"Q86H+37P Jama Masjid, Bawan Kheri, Hajipur Bhoor, Uttar Pradesh 244242",,Q86H+37P,"Bawan Kheri, Hajipur Bhoor",244242,Uttar Pradesh,IN,https://www.google.com/maps/place/Jama+Masjid/data=!4m7!3m6!1s0x390b0d0545cc54dd:0x5950920f8d313b1e!8m2!3d28.7602103!4d78.3282018!16s%2Fg%2F11b75jpph2!19sChIJ3VTMRQUNCzkRHjsxjQ-SUFk?authuser=0&hl=en&rclk=1,"28.760210299999997,78.3282018"
Gypsies Masjid,Place of worship,"Q88P+VW7 Gypsies Masjid, Bawan Kheri, Uttar Pradesh 244242",,Q88P+VW7,Bawan Kheri,244242,Uttar Pradesh,IN,https://www.google.com/maps/place/Gypsies+Masjid/data=!4m7!3m6!1s0x390b0d00c0000001:0xdafbe2f0128bffae!8m2!3d28.7671631!4d78.3372839!16s%2Fg%2F11bxd7ny03!19sChIJAQAAwAANCzkRrv-LEvDi-9o?authuser=0&hl=en&rclk=1,"28.767163099999998,78.3372839"
Madina Masjid,Mosque,"RG5H+8Q2 Madina Masjid, Sinaura Jalalabad, Uttar Pradesh 244222",,RG5H+8Q2,Sinaura Jalalabad,244222,Uttar Pradesh,IN,https://www.google.com/maps/place/Madina+Masjid/data=!4m7!3m6!1s0x390b0593665f6c53:0xaee60035976e3d80!8m2!3d28.8082623!4d78.5294016!16s%2Fg%2F11kqr87837!19sChIJU2xfZpMFCzkRgD1ulzUA5q4?authuser=0&hl=en&rclk=1,"28.8082623,78.5294016"
Aaysha Masjid,Mosque,"HF65+27C Aaysha Masjid, Bhaisani Islampur, Niralsi Urf Makh Kheri, Uttar Pradesh 247777",,HF65+27C,"Bhaisani Islampur, Niralsi Urf Makh Kheri",247777,Uttar Pradesh,IN,https://www.google.com/maps/place/Aaysha+Masjid/data=!4m7!3m6!1s0x390c2771a7ea0b75:0xd1b6dd2b4e15ee7a!8m2!3d29.5600558!4d77.4581288!16s%2Fg%2F11vb4d96_h!19sChIJdQvqp3EnDDkReu4VTivdttE?authuser=0&hl=en&rclk=1,"29.560055799999997,77.4581288"
Sahanur Hossain,Mosque,"QRF3+RGV Sahanur Hossain, Kheri Sampla, Haryana 124501",,QRF3+RGV,Kheri Sampla,124501,Haryana,IN,https://www.google.com/maps/place/Sahanur+Hossain/data=!4m7!3m6!1s0x390d9f9f274129b9:0xe25a697ff58eb40c!8m2!3d28.7748157!4d76.8038263!16s%2Fg%2F11t5kmkfh2!19sChIJuSlBJ5-fDTkRDLSO9X9pWuI?authuser=0&hl=en&rclk=1,"28.774815699999998,76.8038263"
Badi Masjid (bdd'ii msjid),Mosque,"28PM+PV5 Badi Masjid (bdd'ii msjid), Dhanaura Silvernagar, Uttar Pradesh 250611",,28PM+PV5,Dhanaura Silvernagar,250611,Uttar Pradesh,IN,https://www.google.com/maps/place/Badi+Masjid+%28%E0%A4%AC%E0%A4%A1%E0%A4%BC%E0%A5%80+%E0%A4%AE%E0%A4%B8%E0%A5%8D%E0%A4%9C%E0%A4%BF%E0%A4%A6%29/data=!4m7!3m6!1s0x390c4f65c78a1ce5:0x6b988c9074414f14!8m2!3d29.0369094!4d77.3349014!16s%2Fg%2F11qh8c3n6w!19sChIJ5RyKx2VPDDkRFE9BdJCMmGs?authuser=0&hl=en&rclk=1,"29.0369094,77.33490139999999"
Badi masjid,Mosque,"Q67M+CC9 Badi masjid, Mathana, Uttar Pradesh 244235",,Q67M+CC9,Mathana,244235,Uttar Pradesh,IN,https://www.google.com/maps/place/Badi+masjid/data=!4m7!3m6!1s0x390b73e619a05bdf:0x83b12418f1d7251!8m2!3d28.7635354!4d78.2336043!16s%2Fg%2F11pd1z2bmf!19sChIJ31ugGeZzCzkRUXIdj0ESOwg?authuser=0&hl=en&rclk=1,"28.7635354,78.2336043"
Chhappar wali masjid,Mosque,"5VJ4+27R Chhappar wali masjid, Unnamed Road, Amroli Urf Baragoan, Uttar Pradesh 250401",,"5VJ4+27R, Unnamed Road",Amroli Urf Baragoan,250401,Uttar Pradesh,IN,https://www.google.com/maps/place/Chhappar+wali+masjid/data=!4m7!3m6!1s0x390c75035eb41a31:0x75f9d159470af9bb!8m2!3d29.1801243!4d77.8556365!16s%2Fg%2F11q843nzk2!19sChIJMRq0XgN1DDkRu_kKR1nR-XU?authuser=0&hl=en&rclk=1,"29.1801243,77.8556365"
Masjid e Sabri fazle Rahmani,Mosque,"87W4+48G Masjid e Sabri fazle Rahmani, Rd, Kureshipur, Kheri Gujran, Haryana 121004",,"87W4+48G, Rd","Kureshipur, Kheri Gujran",121004,Haryana,IN,https://www.google.com/maps/place/Masjid+e+Sabri+fazle+Rahmani/data=!4m7!3m6!1s0x390cd90075492537:0xc25adbe1c70f6c9c!8m2!3d28.3453683!4d77.2557246!16s%2Fg%2F11y288zzkt!19sChIJNyVJdQDZDDkRnGwPx-HbWsI?authuser=0&hl=en&rclk=1,"28.345368299999997,77.2557246"
Mata Of Kheri Kuresh,Place of worship,"7RF6+Q24 Mata Of Kheri Kuresh, Kheri Kuresh, Uttar Pradesh 251201",,7RF6+Q24,Kheri Kuresh,251201,Uttar Pradesh,IN,https://www.google.com/maps/place/Mata+Of+Kheri+Kuresh/data=!4m7!3m6!1s0x390c0d3a71b465ef:0xb19e9f48f1fca99!8m2!3d29.2743972!4d77.8100899!16s%2Fg%2F11flgjtphs!19sChIJ72W0cToNDDkRmcofj_TpGQs?authuser=0&hl=en&rclk=1,"29.2743972,77.8100899"
saiyd baabaa shaah kmruuddiin,Mosque,"C7JV+8JC saiyd baabaa shaah kmruuddiin, SH 57, Shamli, Uttar Pradesh 247776",,"C7JV+8JC, SH 57",Shamli,247776,Uttar Pradesh,IN,https://www.google.com/maps/place/%E0%A4%B8%E0%A5%88%E0%A4%AF%E0%A4%A6+%E0%A4%AC%E0%A4%BE%E0%A4%AC%E0%A4%BE+%E0%A4%B6%E0%A4%BE%E0%A4%B9+%E0%A4%95%E0%A4%AE%E0%A4%B0%E0%A5%82%E0%A4%A6%E0%A5%8D%E0%A4%A6%E0%A5%80%E0%A4%A8/data=!4m7!3m6!1s0x390c2fd4b31da651:0x7d966cf804f07e15!8m2!3d29.4308091!4d77.2940195!16s%2Fg%2F11nyqpn1nd!19sChIJUaYds9QvDDkRFX7wBPhsln0?authuser=0&hl=en&rclk=1,"29.430809099999998,77.29401949999999"
Kheri,,"Kheri, Uttar Pradesh 203207",,,Kheri,,Uttar Pradesh,IN,https://www.google.com/maps/place/Kheri/data=!4m7!3m6!1s0x390ceb87aef81165:0x20fed1143b74f402!8m2!3d28.5560211!4d77.5074774!16s%2Fg%2F12jm3wmxk!19sChIJZRH4rofrDDkRAvR0OxTR_iA?authuser=0&hl=en&rclk=1,"28.5560211,77.5074774"
BILAL MEWAT MASJID Khanpur kala,Mosque,"HR29+3XV BILAL MEWAT MASJID Khanpur kala, Kheri, Rajasthan 301026",,HR29+3XV,Kheri,301026,Rajasthan,IN,https://www.google.com/maps/place/BILAL+MEWAT+MASJID+Khanpur+kala/data=!4m7!3m6!1s0x397293352f50c6f9:0x2aae336f3174ec54!8m2!3d27.5502423!4d76.8199295!16s%2Fg%2F11pz1433rp!19sChIJ-cZQLzWTcjkRVOx0MW8zrio?authuser=0&hl=en&rclk=1,"27.550242299999997,76.8199295"
Madinah Masjid,Mosque,"WFH2+VJ3 Madinah Masjid, Bandu Kheri, Uttar Pradesh 247232",,WFH2+VJ3,Bandu Kheri,,Uttar Pradesh,IN,https://www.google.com/maps/place/Madinah+Masjid/data=!4m7!3m6!1s0x390eeded425cf011:0x1f8ac0219c28b98a!8m2!3d29.9296398!4d77.4515525!16s%2Fg%2F11fm2_287f!19sChIJEfBcQu3tDjkRirkonCHAih8?authuser=0&hl=en&rclk=1,"29.9296398,77.45155249999999"
Rampur mukhiya Tola Jama Masjid,Mosque,"Rampur mukhiya Tola Jama Masjid, Mukhiya Tola, Mohsin -E- Azam Colony, K. Nagar, Rampur, Purnea, Uttar Pradesh 244901","Mohsin -E- Azam Colony, K. Nagar",Mukhiya Tola,"Rampur, Purnea",244901,Uttar Pradesh,IN,https://www.google.com/maps/place/Rampur+mukhiya+Tola+Jama+Masjid/data=!4m7!3m6!1s0x390a8d4d56ce1f9f:0x98e8940716504e35!8m2!3d28.7983593!4d79.0219177!16s%2Fg%2F11nfm9r6x5!19sChIJnx_OVk2NCjkRNU5QFgeU6Jg?authuser=0&hl=en&rclk=1,"28.798359299999998,79.0219177"
Kheri,,"Kheri, Rajasthan 301018",,,Kheri,,Rajasthan,IN,https://www.google.com/maps/place/Kheri/data=!4m7!3m6!1s0x390d36c94ffdccc7:0x280080d68d0dcf4a!8m2!3d28.1661713!4d76.9095647!16s%2Fg%2F12hsqs1tn!19sChIJx8z9T8k2DTkRSs8NjdaAACg?authuser=0&hl=en&rclk=1,"28.1661713,76.90956469999999"
Kheri,,"Kheri, Uttar Pradesh",,,Kheri,,Uttar Pradesh,IN,https://www.google.com/maps/place/Kheri/data=!4m7!3m6!1s0x390b61e1f6030047:0x1c44aaf911a6b534!8m2!3d28.5816919!4d77.9296001!16s%2Fg%2F1hjh3b3fz!19sChIJRwAD9uFhCzkRNLWmEfmqRBw?authuser=0&hl=en&rclk=1,"28.5816919,77.9296001"
Kheri,,"Kheri, Ashok Vihar, Sector 3, Gurugram, Haryana 122006","Kheri, Ashok Vihar, Sector 3",,Gurugram,,Haryana,IN,https://www.google.com/maps/place/Kheri/data=!4m7!3m6!1s0x390d19dfdb17da27:0x623be2d5694c98fb!8m2!3d28.4882707!4d77.0125445!16s%2Fg%2F1tp8yfcp!19sChIJJ9oX298ZDTkR-5hMadXiO2I?authuser=0&hl=en&rclk=1,"28.488270699999998,77.01254449999999"
Kheri,,"Kheri, Uttar Pradesh 246727",,,Kheri,,Uttar Pradesh,IN,https://www.google.com/maps/place/Kheri/data=!4m7!3m6!1s0x390bafb838cdf9b1:0x4131476e195c5553!8m2!3d29.0818353!4d78.5064473!16s%2Fg%2F12hlgyqd4!19sChIJsfnNOLivCzkRU1VcGW5HMUE?authuser=0&hl=en&rclk=1,"29.081835299999998,78.50644729999999"
Majid khan,Housing society,"Majid khan, D-467, Pusta Number 3, Sonia Vihar, New Delhi, Delhi, 110090","Pusta Number 3, Sonia Vihar",D-467,"New Delhi, Delhi",110090,Delhi,IN,https://www.google.com/maps/place/Majid+khan/data=!4m7!3m6!1s0x390cff1421e0bc31:0xf5cf28905a58c116!8m2!3d28.7278126!4d77.2464385!16s%2Fg%2F11kb3n_xxh!19sChIJMbzgIRT_DDkRFsFYWpAoz_U?authuser=0&hl=en&rclk=1,"28.7278126,77.2464385"
Kherdi Rangdhan Jama Masjid,Mosque,"47X2+M2X Kherdi Rangdhan Jama Masjid, Kheri Ranghran, Haryana 135002",,47X2+M2X,Kheri Ranghran,135002,Haryana,IN,https://www.google.com/maps/place/Kherdi+Rangdhan+Jama+Masjid/data=!4m7!3m6!1s0x390ef94ee34f9a89:0xba46a6c5ef98a945!8m2!3d30.1492299!4d77.2501125!16s%2Fg%2F11flt73bvk!19sChIJiZpP4075DjkRRamY78WmRro?authuser=0&hl=en&rclk=1,"30.149229899999998,77.2501125"
