name,main_category,address,address_ward,address_street,address_city,address_postal_code,address_state,address_country_code,link,coordinates
Taj ul Masjid,Mosque,"Taj ul Masjid, NH 12, Kohefiza, Bhopal, Madhya Pradesh 462001",Kohefiza,NH 12,Bhopal,462001,Madhya Pradesh,IN,https://www.google.com/maps/place/Taj+ul+Masjid/data=!4m7!3m6!1s0x397c681a7d83af6b:0x7dda3ac9601ed629!8m2!3d23.262987!4d77.3928231!16s%2Fm%2F02pzv2d!19sChIJa6-DfRpofDkRKdYeYMk62n0?authuser=0&hl=en&rclk=1,"23.262987,77.3928231"
Damdi Masjid,Mosque,"4Q36+F4Q Damdi Masjid, Mukundnagar, Ahmednagar, Maharashtra 414001",Mukundnagar,4Q36+F4Q,Ahmednagar,414001,Maharashtra,IN,https://www.google.com/maps/place/Damdi+Masjid/data=!4m7!3m6!1s0x3bdcb00d8eae818d:0x80b6f1257a3ff4b0!8m2!3d19.1037224!4d74.7603482!16s%2Fg%2F1262tscwh!19sChIJjYGujg2w3DsRsPQ_eiXxtoA?authuser=0&hl=en&rclk=1,"19.1037224,74.7603482"
Masjid Faizane Madina O Jamiatul Madina Akola (Dawateislami India),Mosque,"PX9V+5CR Masjid Faizane Madina O Jamiatul Madina Akola (Dawateislami India), Mahta Mill Rd, near nice bakery, Firdous Colony, Bhawani Peth, Akola, Maharashtra 444001","Firdous Colony, Bhawani Peth","PX9V+5CR, Mahta Mill Rd, near nice bakery",Akola,444001,Maharashtra,IN,https://www.google.com/maps/place/Masjid+Faizane+Madina+O+Jamiatul+Madina+Akola+%28Dawateislami+India%29/data=!4m7!3m6!1s0x3bd731c22bffbe8f:0x999ea11fa64a36ae!8m2!3d20.7179965!4d76.9935145!16s%2Fg%2F11c1nzr3p9!19sChIJj77_K8Ix1zsRrjZKph-hnpk?authuser=0&hl=en&rclk=1,"20.717996499999998,76.9935145"
Masjid,Mosque,"Masjid, Baghaura, Orai, Uttar Pradesh 285001",Baghaura,,Orai,285001,Uttar Pradesh,IN,https://www.google.com/maps/place/Masjid/data=!4m7!3m6!1s0x399d7f395040094b:0x94545f326005d2de!8m2!3d26.0038941!4d79.4541235!16s%2Fg%2F11c31xwxgq!19sChIJSwlAUDl_nTkR3tIFYDJfVJQ?authuser=0&hl=en&rclk=1,"26.0038941,79.4541235"
Masjid E Kausar,Mosque,"FVFV+53X Masjid E Kausar, Kausar bagh, near RC kitchen Kausar bagh masjid, Pune, Maharashtra 411037","Kausar Baugh, Kondhwa","FVFV+53X, Kausar bagh, near RC kitchen Kausar bagh masjid",Pune,411037,Maharashtra,IN,https://www.google.com/maps/place/Masjid+E+Kausar/data=!4m7!3m6!1s0x3bc2ea63181c523d:0xf1fc83bc1b53a3ac!8m2!3d18.4729798!4d73.8927424!16s%2Fg%2F12m99ds7f!19sChIJPVIcGGPqwjsRrKNTG7yD_PE?authuser=0&hl=en&rclk=1,"18.472979799999997,73.8927424"
Jama Masjid,Mosque,"6922+H4H Jama Masjid, Sector 6, Bhilai, Chhattisgarh 490021",Sector 6,6922+H4H,Bhilai,490021,Chhattisgarh,IN,https://www.google.com/maps/place/Jama+Masjid/data=!4m7!3m6!1s0x3a29232891b406cd:0x703bd6abd867cef8!8m2!3d21.2014388!4d81.3503537!16s%2Fg%2F1tf1m796!19sChIJzQa0kSgjKToR-M5n2KvWO3A?authuser=0&hl=en&rclk=1,"21.2014388,81.3503537"
"Jama Masjid, (Marqaz), Sagar",Mosque,"RPRR+53R Jama Masjid, (Marqaz), Sagar, State Highway-15, Chandrashekhar Ward, Moti Nagar, Sagar, Madhya Pradesh 470001","Chandrashekhar Ward, Moti Nagar","RPRR+53R, State Highway-15",Sagar,470001,Madhya Pradesh,IN,"https://www.google.com/maps/place/Jama+Masjid,+%28Marqaz%29,+Sagar/data=!4m7!3m6!1s0x3978d6b1115cfd77:0x5a64146fba93f586!8m2!3d23.8404916!4d78.7401372!16s%2Fg%2F1tgxggpm!19sChIJd_1cEbHWeDkRhvWTum8UZFo?authuser=0&hl=en&rclk=1","23.8404916,78.74013719999999"
Jami Masjid,Historical landmark,"89XX+948 Jami Masjid, Jahaj Mahal Internal Rd, Mandu, Mandav, Madhya Pradesh 454010",Mandu,"89XX+948, Jahaj Mahal Internal Rd",Mandav,454010,Madhya Pradesh,IN,https://www.google.com/maps/place/Jami+Masjid/data=!4m7!3m6!1s0x396241cf3ce618c1:0x22f045de88117605!8m2!3d22.3484016!4d75.3978167!16s%2Fg%2F11g8vwmpkh!19sChIJwRjmPM9BYjkRBXYRiN5F8CI?authuser=0&hl=en&rclk=1,"22.3484016,75.39781669999999"
Faizane Madina Masjid (fyDni mdynh msjd),Mosque,"Faizane Madina Masjid (fyDni mdynh msjd), 1A, Meeta Nagar, Kondhwa, Pune, Maharashtra 411048","Meeta Nagar, Kondhwa",1A,Pune,411048,Maharashtra,IN,https://www.google.com/maps/place/Faizane+Madina+Masjid+%28%D9%81%DB%8C%D8%B6%D8%A7%D9%86%D9%90+%D9%85%D8%AF%DB%8C%D9%86%DB%81+%D9%85%D8%B3%D8%AC%D8%AF%29%E2%80%AD/data=!4m7!3m6!1s0x3bc2ea8bed163fe3:0x42e36245b8403c19!8m2!3d18.4674189!4d73.883748!16s%2Fg%2F11cr_pjm0l!19sChIJ4z8W7YvqwjsRGTxAuEVi40I?authuser=0&hl=en&rclk=1,"18.4674189,73.883748"
Masjid-E-Mahmoodia,Mosque,"C4RV+9HQ Masjid-E-Mahmoodia, Rd Number 1, Hussainipura, Karimnagar, Telangana 505001",Hussainipura,"C4RV+9HQ, Rd Number 1",Karimnagar,505001,Telangana,IN,https://www.google.com/maps/place/Masjid-E-Mahmoodia/data=!4m7!3m6!1s0x3bccd904aedeb399:0x9bfc7aeeface7749!8m2!3d18.4409711!4d79.1439836!16s%2Fg%2F1tp06kjq!19sChIJmbPergTZzDsRSXfO-u56_Js?authuser=0&hl=en&rclk=1,"18.4409711,79.1439836"
Noorani Masjid,Mosque,"6JXX+JWM Noorani Masjid, Pandri Rd, Noorani Chowk, Govind Nagar, Raipur, Chhattisgarh 492001","Noorani Chowk, Govind Nagar","6JXX+JWM, Pandri Rd",Raipur,492001,Chhattisgarh,IN,https://www.google.com/maps/place/Noorani+Masjid/data=!4m7!3m6!1s0x3a28dd75c957b5a9:0xf6acd8a4a2a01340!8m2!3d21.2490904!4d81.6498048!16s%2Fg%2F1wf207zh!19sChIJqbVXyXXdKDoRQBOgoqTYrPY?authuser=0&hl=en&rclk=1,"21.2490904,81.6498048"
Burhani Masjid,Mosque,"JM7M+CMG Burhani Masjid, Fatehpura, Udaipur, Rajasthan 313001",Fatehpura,JM7M+CMG,Udaipur,313001,Rajasthan,IN,https://www.google.com/maps/place/Burhani+Masjid/data=!4m7!3m6!1s0x3967e51c387a8f23:0x6cc0d7b7a9d03a12!8m2!3d24.6135542!4d73.6842037!16s%2Fg%2F1hm2r9095!19sChIJI496OBzlZzkREjrQqbfXwGw?authuser=0&hl=en&rclk=1,"24.6135542,73.6842037"
MASJID-E-FATIMA,Mosque,"HW4F+7CV MASJID-E-FATIMA, Shri Home Housing Society, Wadgaon Sheri, Pune, Maharashtra 411014","Shri Home Housing Society, Wadgaon Sheri",HW4F+7CV,Pune,411014,Maharashtra,IN,https://www.google.com/maps/place/MASJID-E-FATIMA/data=!4m7!3m6!1s0x3bc2c1687d5b5845:0x7e15d08559c9a0d0!8m2!3d18.5557283!4d73.9235322!16s%2Fg%2F11b6p41z8x!19sChIJRVhbfWjBwjsR0KDJWYXQFX4?authuser=0&hl=en&rclk=1,"18.5557283,73.9235322"
Masjid Ahbab Colony - Hbb khlwny msjd,Mosque,"53J6+MW9 Masjid Ahbab Colony - Hbb khlwny msjd, Kaleem Rd, Ahbab Colony, SBI Colony, New Mankapur, Nagpur, Maharashtra 440013","Ahbab Colony, SBI Colony, New Mankapur","53J6+MW9, Kaleem Rd",Nagpur,440013,Maharashtra,IN,https://www.google.com/maps/place/Masjid+Ahbab+Colony+-+%D8%A7%D8%AD%D8%A8%D8%A7%D8%A8+%DA%A9%D8%A7%D9%84%D9%88%D9%86%DB%8C+%D9%85%D8%B3%D8%AC%D8%AF%E2%80%AD/data=!4m7!3m6!1s0x3bd4c1a7a98f876d:0x9f6de9f899ca7fa0!8m2!3d21.1816554!4d79.0623459!16s%2Fg%2F11bbrjpydj!19sChIJbYePqafB1DsRoH_KmfjpbZ8?authuser=0&hl=en&rclk=1,"21.1816554,79.0623459"
Masjid e Quba,Mosque,"583M+936 Masjid e Quba, Deglour Naka, Nanded, Nanded-Waghala, Maharashtra 431601",Deglour Naka,583M+936,"Nanded, Nanded-Waghala",431601,Maharashtra,IN,https://www.google.com/maps/place/Masjid+e+Quba/data=!4m7!3m6!1s0x3bd1d7b52bb975bd:0x3dd9e6d8b903783b!8m2!3d19.1534055!4d77.3326486!16s%2Fg%2F1tgfv27k!19sChIJvXW5K7XX0TsRO3gDudjm2T0?authuser=0&hl=en&rclk=1,"19.153405499999998,77.3326486"
Shahi Jama Masjid,Mosque,"868J+GW9 Shahi Jama Masjid, Sunarpatti Rd, Chandrakala,, Burhanpur, Madhya Pradesh",Monin Pura,"868J+GW9, Sunarpatti Rd, Chandrakala,",Burhanpur,,Madhya Pradesh,IN,https://www.google.com/maps/place/Shahi+Jama+Masjid/data=!4m7!3m6!1s0x3bd832e43e55e2fb:0xf9fdaa5a3d60e2dc!8m2!3d21.316288!4d76.2323499!16s%2Fg%2F1hc22fg8m!19sChIJ--JVPuQy2DsR3OJgPVqq_fk?authuser=0&hl=en&rclk=1,"21.316288,76.2323499"
Masjid e AzamGanj - msjdi zmgnj,Mosque,"CH2M+5RQ Masjid e AzamGanj - msjdi zmgnj, Masjid Rd, Ganj Golai, Latur, Maharashtra 413512",Ganj Golai,"CH2M+5RQ, Masjid Rd",Latur,413512,Maharashtra,IN,https://www.google.com/maps/place/Masjid+e+AzamGanj+-+%D9%85%D8%B3%D8%AC%D8%AF%D9%90+%D8%A7%D8%B2%D9%85%DA%AF%D9%86%D8%AC%E2%80%AD/data=!4m7!3m6!1s0x3bcf83983df29c0f:0x2b21303885548254!8m2!3d18.4004579!4d76.584604!16s%2Fg%2F11bvcv6b24!19sChIJD5zyPZiDzzsRVIJUhTgwISs?authuser=0&hl=en&rclk=1,"18.4004579,76.584604"
Dhai Seedhi Ki Masjid,Mosque,"796R+22G Dhai Seedhi Ki Masjid, Medical College Campus, Bhopal, Madhya Pradesh 462001",Medical College Campus,796R+22G,Bhopal,462001,Madhya Pradesh,IN,https://www.google.com/maps/place/Dhai+Seedhi+Ki+Masjid/data=!4m7!3m6!1s0x397c681b2b875f47:0x38facbde07f86aa2!8m2!3d23.2600509!4d77.3900844!16s%2Fg%2F1hc1r8_ys!19sChIJR1-HKxtofDkRomr4B97L-jg?authuser=0&hl=en&rclk=1,"23.2600509,77.39008439999999"
"Mominpura Masjid - mwmynpur msjd, akhwl",Mosque,"PX6X+RCR Mominpura Masjid - mwmynpur msjd, akhwl, Mominpura, Akola, Maharashtra 444001",Mominpura,PX6X+RCR,Akola,444001,Maharashtra,IN,https://www.google.com/maps/place/Mominpura+Masjid+-+%D9%85%D9%88%D9%85%DB%8C%D9%86%D9%BE%D9%8F%D8%B1%D8%A7+%D9%85%D8%B3%D8%AC%D8%AF%D8%8C+%D8%A2%DA%A9%D9%88%D9%84%D8%A7%E2%80%AD/data=!4m7!3m6!1s0x3bd731e89a354421:0xa5a425d8f3f2e265!8m2!3d20.712124!4d76.9985011!16s%2Fg%2F12hmcsmkr!19sChIJIUQ1mugx1zsRZeLy89glpKU?authuser=0&hl=en&rclk=1,"20.712124,76.9985011"
Inamiya Masjid,Mosque,"FV95+4RW Inamiya Masjid, Panchod, Balaji Nagar, Pune, Maharashtra 411043","Panchod, Balaji Nagar",FV95+4RW,Pune,411043,Maharashtra,IN,https://www.google.com/maps/place/Inamiya+Masjid/data=!4m7!3m6!1s0x3bc2eabc07db7179:0x941aeda4b636f4e2!8m2!3d18.4678557!4d73.8595893!16s%2Fg%2F1yfdp8w4t!19sChIJeXHbB7zqwjsR4vQ2tqTtGpQ?authuser=0&hl=en&rclk=1,"18.467855699999998,73.8595893"
Jama Masjid Ahl E Sunnat Wal Jamaat,Mosque,"Jama Masjid Ahl E Sunnat Wal Jamaat, Mahaveer Chowk, MG Road, Hulshur, Camp, Pune, Maharashtra 411001","Hulshur, Camp","Mahaveer Chowk, MG Road",Pune,411001,Maharashtra,IN,https://www.google.com/maps/place/Jama+Masjid+Ahl+E+Sunnat+Wal+Jama%C3%A4t/data=!4m7!3m6!1s0x3bc2c048d3d95129:0x48b40ea278d35564!8m2!3d18.5138767!4d73.8789314!16s%2Fg%2F1tdp81zf!19sChIJKVHZ00jAwjsRZFXTeKIOtEg?authuser=0&hl=en&rclk=1,"18.5138767,73.8789314"
Paltan Masjid msjid,Mosque,"Paltan Masjid msjid, 1st Military Line, Brahmapur, Odisha 760002",Baidiya Nath Pur,1st Military Line,Brahmapur,760002,Odisha,IN,https://www.google.com/maps/place/Paltan+Masjid+%E0%AC%AE%E0%AC%B8%E0%AC%9C%E0%AC%BF%E0%AC%A6/data=!4m7!3m6!1s0x3a3d500dee54a66d:0xb3ed248b87176513!8m2!3d19.3153405!4d84.7885813!16s%2Fg%2F1ptwb88d7!19sChIJbaZU7g1QPToRE2UXh4sk7bM?authuser=0&hl=en&rclk=1,"19.315340499999998,84.78858129999999"
Masjid - msjd,Mosque,"572, Masjid - msjd, Mahatma Gandhi Rd, Opposite Cypse Petrol Pump, Sanghi Colony, South Tukoganj, Indore, Madhya Pradesh 452001","Sanghi Colony, South Tukoganj","572, Mahatma Gandhi Rd, Opposite Cypse Petrol Pump",Indore,452001,Madhya Pradesh,IN,https://www.google.com/maps/place/Masjid+-+%D9%85%D8%B3%D8%AC%D8%AF%E2%80%AD/data=!4m7!3m6!1s0x3962fd15bc27f8bb:0x94a8bd4d5c812503!8m2!3d22.7210037!4d75.8749525!16s%2Fg%2F1z44z6cdv!19sChIJu_gnvBX9YjkRAyWBXE29qJQ?authuser=0&hl=en&rclk=1,"22.7210037,75.87495249999999"
Usmaniya Masjid Chandan Nagar Indore M.P - `thmnyh msjd,Mosque,"Usmaniya Masjid Chandan Nagar Indore M.P - `thmnyh msjd, 12S, Dhar Rd, Chandan Nagar, Indore, Madhya Pradesh 452002",Chandan Nagar,"12S, Dhar Rd",Indore,452002,Madhya Pradesh,IN,https://www.google.com/maps/place/Usmaniya+Masjid+Chandan+Nagar+Indore+M.P+-+%D8%B9%D8%AB%D9%85%D8%A7%D9%86%DB%8C%DB%81+%D9%85%D8%B3%D8%AC%D8%AF%E2%80%AD/data=!4m7!3m6!1s0x3962fdc8ba14742d:0xd3bcffda5d893fd6!8m2!3d22.7080419!4d75.8250836!16s%2Fg%2F11g6wgcllf!19sChIJLXQUusj9YjkR1j-JXdr_vNM?authuser=0&hl=en&rclk=1,"22.708041899999998,75.8250836"
Mohammadiya Masjid,Mosque,"Mohammadiya Masjid, H 18, Giridhar Nagar, Warje, Pune, Maharashtra 411058","Giridhar Nagar, Warje",H 18,Pune,411058,Maharashtra,IN,https://www.google.com/maps/place/Mohammadiya+Masjid/data=!4m7!3m6!1s0x3bc2bfd43b2e347d:0x899fc1b47cb3230a!8m2!3d18.482632!4d73.799965!16s%2Fg%2F11g8zzsn7y!19sChIJfTQuO9S_wjsRCiOzfLTBn4k?authuser=0&hl=en&rclk=1,"18.482632,73.799965"
Jama Masjid (Sunni Masjid) - brry msjd,Mosque,"Jama Masjid (Sunni Masjid) - brry msjd, Kharbi Rd, near Main Gate, Hasanbag, Nandanvan, Nagpur, Maharashtra 440009","Hasanbag, Nandanvan","Kharbi Rd, near Main Gate",Nagpur,440009,Maharashtra,IN,https://www.google.com/maps/place/Jama+Masjid+%28Sunni+Masjid%29+-+%D8%A8%DA%91%DB%8C+%D9%85%D8%B3%D8%AC%D8%AF%E2%80%AD/data=!4m7!3m6!1s0x3bd4c75b84069c11:0xd9c7458c1a62230f!8m2!3d21.1324585!4d79.1258814!16s%2Fg%2F1tfldq29!19sChIJEZwGhFvH1DsRDyNiGoxFx9k?authuser=0&hl=en&rclk=1,"21.1324585,79.1258814"
Masjid Char Minar (msjd chr mynr),Mosque,"7C49+GH8 Masjid Char Minar (msjd chr mynr), Khatik Colony Rd, Aish Bagh, Bhopal, Madhya Pradesh 462008",Aish Bagh,"7C49+GH8, Khatik Colony Rd",Bhopal,462008,Madhya Pradesh,IN,https://www.google.com/maps/place/Masjid+Char+Minar+%28%D9%85%D8%B3%D8%AC%D8%AF+%DA%86%D8%A7%D8%B1+%D9%85%DB%8C%D9%86%D8%A7%D8%B1%29%E2%80%AD/data=!4m7!3m6!1s0x397c682a2f301b2d:0x341990703e9df550!8m2!3d23.2562755!4d77.4189591!16s%2Fg%2F12641rp6j!19sChIJLRswLypofDkRUPWdPnCQGTQ?authuser=0&hl=en&rclk=1,"23.256275499999997,77.4189591"
Chhoti Masjid (Sunni Masjid ) - chhtty msjd,Mosque,"43VP+V56 Chhoti Masjid (Sunni Masjid ) - chhtty msjd, Main Rd, Sitabuldi, Nagpur, Maharashtra 440012",Sitabuldi,"43VP+V56, Main Rd",Nagpur,440012,Maharashtra,IN,https://www.google.com/maps/place/Chhoti+Masjid+%28Sunni+Masjid+%29+-+%DA%86%DA%BE%D9%B9%DB%8C+%D9%85%D8%B3%D8%AC%D8%AF%E2%80%AD/data=!4m7!3m6!1s0x3bd4c0d075a26669:0x4b2829c133fb50d8!8m2!3d21.1446536!4d79.0853926!16s%2Fg%2F1thd5475!19sChIJaWaiddDA1DsR2FD7M8EpKEs?authuser=0&hl=en&rclk=1,"21.144653599999998,79.08539259999999"
Kali Masjid T.T.S(Ahle Sunnat Wa Jamaat),Mosque,"V8QQ+FR5 Kali Masjid T.T.S(Ahle Sunnat Wa Jamaat), Shah Bazar Rd, Labar Colony, Shah Bazar, Aurangabad, Maharashtra 431003","Labar Colony, Shah Bazar","V8QQ+FR5, Shah Bazar Rd",Aurangabad,431003,Maharashtra,IN,https://www.google.com/maps/place/Kali+Masjid+T.T.S%28Ahle+Sunnat+Wa+Jamaat%29/data=!4m7!3m6!1s0x3bdb980a22ef1399:0x2c6f2b54af2dd572!8m2!3d19.8886445!4d75.3396184!16s%2Fg%2F11cm0hknwg!19sChIJmRPvIgqY2zsRctUtr1Qrbyw?authuser=0&hl=en&rclk=1,"19.888644499999998,75.33961839999999"
Masjid E Gareeb Nawaz,Mosque,"Masjid E Gareeb Nawaz, Gausiya Chowk, Sanjay Nagar, Tikrapara, Raipur, Umang Colony, Chhattisgarh 492001","Sanjay Nagar, Tikrapara",Gausiya Chowk,"Raipur, Umang Colony",492001,Chhattisgarh,IN,https://www.google.com/maps/place/Masjid+E+Gareeb+Nawaz/data=!4m7!3m6!1s0x3a28dc533aaaaaab:0xc21f5768ee5f50ab!8m2!3d21.2186799!4d81.6394036!16s%2Fg%2F11c525x1pt!19sChIJq6qqOlPcKDoRq1Bf7mhXH8I?authuser=0&hl=en&rclk=1,"21.218679899999998,81.6394036"
Aam Wali Masjid,Mosque,"7C3M+426 Aam Wali Masjid, Punjabi Bagh, Jahangirabad, Bhopal, Madhya Pradesh 462008","Punjabi Bagh, Jahangirabad",7C3M+426,Bhopal,462008,Madhya Pradesh,IN,https://www.google.com/maps/place/Aam+Wali+Masjid/data=!4m7!3m6!1s0x397c4283ea83a10d:0xad70bf45ba65f3b5!8m2!3d23.2527765!4d77.4325066!16s%2Fg%2F1tdgypy2!19sChIJDaGD6oNCfDkRtfNlukW_cK0?authuser=0&hl=en&rclk=1,"23.2527765,77.4325066"
Jama Masjid,Mosque,"Jama Masjid, Mir Nasir Colony, Nasriganj, Bihar 821310",,Mir Nasir Colony,Nasriganj,821310,Bihar,IN,https://www.google.com/maps/place/Jama+Masjid/data=!4m7!3m6!1s0x398d09115a19d92f:0x3f413a34890d3c36!8m2!3d25.0507811!4d84.3270909!16s%2Fg%2F11b8v9j02l!19sChIJL9kZWhEJjTkRNjwNiTQ6QT8?authuser=0&hl=en&rclk=1,"25.0507811,84.3270909"
Haidery Jama Masjid Nagpur (Shia) - Hydry jm`h msjd,Mosque,"Haidery Jama Masjid Nagpur (Shia) - Hydry jm`h msjd, 17, Haidry Rd, Kasabpura, Hansapuri, Nagpur, Maharashtra 440018","Kasabpura, Hansapuri","17, Haidry Rd",Nagpur,440018,Maharashtra,IN,https://www.google.com/maps/place/Haidery+Jama+Masjid+Nagpur+%28Shia%29+-+%D8%AD%DB%8C%D8%AF%D8%B1%DB%8C+%D8%AC%D9%85%D8%B9%DB%81+%D9%85%D8%B3%D8%AC%D8%AF%E2%80%AD/data=!4m7!3m6!1s0x3bd4c0cf811283cd:0x8cbf3e725d449c48!8m2!3d21.155421!4d79.09837!16s%2Fg%2F11fy90sdjw!19sChIJzYMSgc_A1DsRSJxEXXI-v4w?authuser=0&hl=en&rclk=1,"21.155421,79.09837"
Adam baug mosque masjid,Mosque,"Adam baug mosque masjid, Adambag masjid, 2166, Saras Baug Rd, Saras Baug, Shukrawar Peth, Pune, Maharashtra 411030","Saras Baug, Shukrawar Peth","Adambag masjid, 2166, Saras Baug Rd",Pune,411030,Maharashtra,IN,https://www.google.com/maps/place/Adam+baug+mosque+masjid/data=!4m7!3m6!1s0x3bc2c155e2fb275d:0x3cb5c14b125224ba!8m2!3d18.5046379!4d73.8533557!16s%2Fg%2F11kqw34wrh!19sChIJXSf74lXBwjsRuiRSEkvBtTw?authuser=0&hl=en&rclk=1,"18.5046379,73.8533557"
"Noorani Masjid Sunapali, Sambalpur",Mosque,"sunapali, Noorani Masjid Sunapali, Sambalpur, Main Rd, Sakhipara, Sambalpur, Odisha 768001",Sakhipara,"sunapali, Main Rd",Sambalpur,768001,Odisha,IN,"https://www.google.com/maps/place/Noorani+Masjid+Sunapali,+Sambalpur/data=!4m7!3m6!1s0x3a211698b6c98a8f:0x4cebcd3ceacd9848!8m2!3d21.4694326!4d83.9946022!16s%2Fg%2F11c585hs_j!19sChIJj4rJtpgWIToRSJjN6jzN60w?authuser=0&hl=en&rclk=1","21.469432599999998,83.9946022"
Chuchaiyapara Masjid,Mosque,"353H+F52 Chuchaiyapara Masjid, Dhuma Rd, ChuchuhiyaPara, Bilaspur, Chhattisgarh 495004",ChuchuhiyaPara,"353H+F52, Dhuma Rd",Bilaspur,495004,Chhattisgarh,IN,https://www.google.com/maps/place/Chuchaiyapara+Masjid/data=!4m7!3m6!1s0x3a280ad36d945067:0x2e5299a72bccff0a!8m2!3d22.0536427!4d82.1778923!16s%2Fg%2F11csb366m0!19sChIJZ1CUbdMKKDoRCv_MK6eZUi4?authuser=0&hl=en&rclk=1,"22.053642699999997,82.1778923"
Jam-E-Masjid (korutla),Mosque,"Jam-E-Masjid (korutla), Nizampura, Korutla, Telangana 505326",Nizampura,,Korutla,505326,Telangana,IN,https://www.google.com/maps/place/Jam-E-Masjid+%28korutla%29/data=!4m7!3m6!1s0x3bcd0b186c759cf3:0x659d4698d4bde07c!8m2!3d18.8187274!4d78.7119368!16s%2Fg%2F1hf6jkgv5!19sChIJ85x1bBgLzTsRfOC91JhGnWU?authuser=0&hl=en&rclk=1,"18.8187274,78.71193679999999"
Gaushiya Masjid,Mosque,"6J7R+3FM Gaushiya Masjid, Santoshi Nagar, Raipur, Mathpurena, Chhattisgarh 492013",Santoshi Nagar,6J7R+3FM,"Raipur, Mathpurena",492013,Chhattisgarh,IN,https://www.google.com/maps/place/Gaushiya+Masjid/data=!4m7!3m6!1s0x3a28dc51377e3ea9:0xd899a629d80f5625!8m2!3d21.2127154!4d81.6411849!16s%2Fg%2F11c5_yr55k!19sChIJqT5-N1HcKDoRJVYP2Cmmmdg?authuser=0&hl=en&rclk=1,"21.2127154,81.6411849"
Haidary Masjid,Mosque,"Haidary Masjid, Tatyapara, Mominpara, Raipur, Chhattisgarh 492001","Tatyapara, Mominpara",,Raipur,492001,Chhattisgarh,IN,https://www.google.com/maps/place/Haidary+Masjid/data=!4m7!3m6!1s0x3a28ddbe0dd0d389:0x7f77c3c6a0d76832!8m2!3d21.2424905!4d81.6303432!16s%2Fg%2F1tfb4_78!19sChIJidPQDb7dKDoRMmjXoMbDd38?authuser=0&hl=en&rclk=1,"21.2424905,81.6303432"
Juni Masjid,Mosque,"HG2M+7M6 Juni Masjid, Nishat Rd, Somwar Ward, Islampura, Malegaon, Maharashtra 423203","Somwar Ward, Islampura","HG2M+7M6, Nishat Rd",Malegaon,423203,Maharashtra,IN,https://www.google.com/maps/place/Juni+Masjid/data=!4m7!3m6!1s0x3bde99b9f902b81f:0x7b2218921943ba76!8m2!3d20.5506621!4d74.5341307!16s%2Fg%2F1hf3hg5gt!19sChIJH7gC-bmZ3jsRdrpDGZIYIns?authuser=0&hl=en&rclk=1,"20.5506621,74.53413069999999"
Masjid e firdous,Mosque,"XQF9+5JQ Masjid e firdous, Lekha Nagar, Nashik, Maharashtra 422010",Lekha Nagar,XQF9+5JQ,Nashik,422010,Maharashtra,IN,https://www.google.com/maps/place/Masjid+e+firdous/data=!4m7!3m6!1s0x3bddebb06351316f:0xc4c0f9f5273c18e4!8m2!3d19.9729183!4d73.7690276!16s%2Fg%2F11shy88y2_!19sChIJbzFRY7Dr3TsR5Bg8J_X5wMQ?authuser=0&hl=en&rclk=1,"19.9729183,73.7690276"
Sunni Raza Jamma Masjid,Mosque,"MRG8+5P2 Sunni Raza Jamma Masjid, Kudalwadi, Chikhali, Pimpri-Chinchwad, Maharashtra 411062","Kudalwadi, Chikhali",MRG8+5P2,Pimpri-Chinchwad,411062,Maharashtra,IN,https://www.google.com/maps/place/Sunni+Raza+Jamma+Masjid/data=!4m7!3m6!1s0x3bc2b78d687bad4d:0x8e825622eef42b57!8m2!3d18.6753877!4d73.8167605!16s%2Fg%2F11_y0xgx3!19sChIJTa17aI23wjsRVyv07iJWgo4?authuser=0&hl=en&rclk=1,"18.675387699999998,73.8167605"
Shahi Masjid Dudeshwar,Mosque,"Shahi Masjid Dudeshwar, shahi masjid, Dudheshwar Rd, Kirti Kunj Society, Tavdipura, Kazipur Dariyapur, Ahmedabad, Gujarat 380004","Kirti Kunj Society, Tavdipura, Kazipur Dariyapur","shahi masjid, Dudheshwar Rd",Ahmedabad,380004,Gujarat,IN,https://www.google.com/maps/place/Shahi+Masjid+Dudeshwar/data=!4m7!3m6!1s0x395e8534ba22e11f:0x11292b687b4bf667!8m2!3d23.0476405!4d72.5812646!16s%2Fm%2F012gbsjf!19sChIJH-EiujSFXjkRZ_ZLe2grKRE?authuser=0&hl=en&rclk=1,"23.0476405,72.5812646"
Sikandari Masjid,Mosque,"7C87+GQX Sikandari Masjid, Bajariya, Sikandari Saray, Bhopal, Madhya Pradesh 462010","Bajariya, Sikandari Saray",7C87+GQX,Bhopal,462010,Madhya Pradesh,IN,https://www.google.com/maps/place/Sikandari+Masjid/data=!4m7!3m6!1s0x397c68303c25a12f:0xeec1e4b2c0663c55!8m2!3d23.2663515!4d77.4144852!16s%2Fg%2F1hjgyc7pv!19sChIJL6ElPDBofDkRVTxmwLLkwe4?authuser=0&hl=en&rclk=1,"23.2663515,77.4144852"
Aqsa Masjid,Mosque,"Aqsa Masjid, Aqsa St, New Shahinshah Nagar Rd, Shahinshah Nagar, Bir, Beed, Maharashtra 431122","Shahinshah Nagar, Bir","Aqsa St, New Shahinshah Nagar Rd",Beed,431122,Maharashtra,IN,https://www.google.com/maps/place/Aqsa+Masjid/data=!4m7!3m6!1s0x3bc52ae14fcd6d07:0xa7e6d54c066538c6!8m2!3d18.9827444!4d75.7551701!16s%2Fg%2F11fxz_hrfc!19sChIJB23NT-EqxTsRxjhlBkzV5qc?authuser=0&hl=en&rclk=1,"18.982744399999998,75.7551701"
Masjid,Mosque,"6JMR+CJV Masjid, Near ashirwad Bhawan, Infront of Holy cross Byron Bazar School, Janta Colony, Raipur, Chhattisgarh 492001","Byron Bazar, Janta Colony","6JMR+CJV, Near ashirwad Bhawan, Infront of Holy cross Byron Bazar School",Raipur,492001,Chhattisgarh,IN,https://www.google.com/maps/place/Masjid/data=!4m7!3m6!1s0x3a28dda5dde397d1:0x6568065cca56996e!8m2!3d21.2336007!4d81.6415373!16s%2Fg%2F119tbk556!19sChIJ0Zfj3aXdKDoRbplWylwGaGU?authuser=0&hl=en&rclk=1,"21.2336007,81.6415373"
Muhammadiya Masjid,Mosque,"V9P2+7W6 Muhammadiya Masjid, Altamash Colony, Rahemania Colony, Kiradpura, Aurangabad, Maharashtra 431003","Altamash Colony, Rahemania Colony, Kiradpura",V9P2+7W6,Aurangabad,431003,Maharashtra,IN,https://www.google.com/maps/place/Muhammadiya+Masjid/data=!4m7!3m6!1s0x3bdba2a2b9e79803:0x138ff8ade5d711f6!8m2!3d19.8856704!4d75.352265!16s%2Fg%2F11c326z25f!19sChIJA5jnuaKi2zsR9hHX5a34jxM?authuser=0&hl=en&rclk=1,"19.8856704,75.352265"
Bagban Masjid (hl snt wljm`t) Ahle Sunnat Wal Jamaat,Mosque,"Bagban Masjid (hl snt wljm`t) Ahle Sunnat Wal Jamaat, 23, Mirza Galib Rd, Kapad Ganj, Raviwar Peth, Pune, Maharashtra 411002","Kapad Ganj, Raviwar Peth","23, Mirza Galib Rd",Pune,411002,Maharashtra,IN,https://www.google.com/maps/place/Bagban+Masjid+%28%D8%A7%DB%81%D9%84+%D8%B3%D9%86%D8%AA+%D9%88%D8%A7%D9%84%D8%AC%D9%85%D8%A7%D8%B9%D8%AA%29+Ahle+Sunnat+Wal+Jamaat%E2%80%AD/data=!4m7!3m6!1s0x3bc2c10d0729cfad:0x83805e19a80e50dc!8m2!3d18.513115!4d73.8613388!16s%2Fg%2F11ngyp3f90!19sChIJrc8pBw3BwjsR3FAOqBlegIM?authuser=0&hl=en&rclk=1,"18.513115,73.8613388"
Markaz Masjid Sherani Pura,Mosque,"82FX+94R Markaz Masjid Sherani Pura, Mochi Pura, Sherani Pura, Ratlam, Madhya Pradesh 457001","Mochi Pura, Sherani Pura",82FX+94R,Ratlam,457001,Madhya Pradesh,IN,https://www.google.com/maps/place/Markaz+Masjid+Sherani+Pura/data=!4m7!3m6!1s0x3963fc1ce2043d47:0x66c7f0589229eb0!8m2!3d23.3234935!4d75.0477641!16s%2Fg%2F11gcygy6z5!19sChIJRz0E4hz8YzkRsJ4iiQV_bAY?authuser=0&hl=en&rclk=1,"23.323493499999998,75.0477641"
Buddukha Ka Minara Masjid - bdw khn khy mynrh msjd,Mosque,"44X3+VV4 Buddukha Ka Minara Masjid - bdw khn khy mynrh msjd, Buddhu Khan Ka Minara Rd, Chhota Loharpura, Gandhibagh, Nagpur, Maharashtra 440002","Chhota Loharpura, Gandhibagh","44X3+VV4, Buddhu Khan Ka Minara Rd",Nagpur,440002,Maharashtra,IN,https://www.google.com/maps/place/Buddukha+Ka+Minara+Masjid+-+%D8%A8%D8%AF%D9%88+%D8%AE%D8%A7%D9%86+%DA%A9%DB%8C+%D9%85%DB%8C%D9%86%D8%A7%D8%B1%DB%81+%D9%85%D8%B3%D8%AC%D8%AF%E2%80%AD/data=!4m7!3m6!1s0x3bd4c0cbd01883df:0xe08c8ab7b75130b3!8m2!3d21.1496358!4d79.1046954!16s%2Fg%2F11c5826p1q!19sChIJ34MY0MvA1DsRszBRt7eKjOA?authuser=0&hl=en&rclk=1,"21.1496358,79.1046954"
Jamai masjid,Mosque,"JVXW+6MM Jamai masjid, Rakasipet, Pandu Tarfa (Bodhan Urban), Telangana 503185",Rakasipet,JVXW+6MM,Pandu Tarfa (Bodhan Urban),503185,Telangana,IN,https://www.google.com/maps/place/Jamai+masjid/data=!4m7!3m6!1s0x3bce77b253186085:0x69bc8fe94714898e!8m2!3d18.6480856!4d77.8966715!16s%2Fg%2F1tx_4tsf!19sChIJhWAYU7J3zjsRjokUR-mPvGk?authuser=0&hl=en&rclk=1,"18.648085599999998,77.8966715"
Sunni Tarabahar Nagina Masjid,Mosque,"3586+C5V Sunni Tarabahar Nagina Masjid, Madhuban Rd, Bilaspur, Chhattisgarh 495004",,"3586+C5V, Madhuban Rd",Bilaspur,495004,Chhattisgarh,IN,https://www.google.com/maps/place/Sunni+Tarabahar+Nagina+Masjid/data=!4m7!3m6!1s0x3a280b3b32a0d647:0x18c156704edf1b6a!8m2!3d22.0661158!4d82.1604194!16s%2Fg%2F11c1nbp47f!19sChIJR9agMjsLKDoRahvfTnBWwRg?authuser=0&hl=en&rclk=1,"22.0661158,82.1604194"
Baba Bagdadiya Masjid (Sunni masjid),Mosque,"Baba Bagdadiya Masjid (Sunni masjid), 174, Godhani Road, Ingole Layout, Zingabai Takli, Nagpur, Maharashtra 440030","Ingole Layout, Zingabai Takli","174, Godhani Road",Nagpur,440030,Maharashtra,IN,https://www.google.com/maps/place/Baba+Bagdadiya+Masjid+%28Sunni+masjid%29/data=!4m7!3m6!1s0x3bd4c173addd5375:0x774df4d8be17dab7!8m2!3d21.1946719!4d79.0726936!16s%2Fg%2F11c61v315y!19sChIJdVPdrXPB1DsRt9oXvtj0TXc?authuser=0&hl=en&rclk=1,"21.1946719,79.0726936"
Madina Masjid,Mosque,"Madina Masjid, 7, Lane Number 5A, Survey Number 230, Sanjay Park, Pune, Maharashtra 411032","Survey Number 230, Sanjay Park","7, Lane Number 5A",Pune,411032,Maharashtra,IN,https://www.google.com/maps/place/Madina+Masjid/data=!4m7!3m6!1s0x3bc2c130c155a117:0xb9aafcf56a709e80!8m2!3d18.5708403!4d73.9057166!16s%2Fg%2F11df0mx7gl!19sChIJF6FVwTDBwjsRgJ5wavX8qrk?authuser=0&hl=en&rclk=1,"18.5708403,73.90571659999999"
Masjid Qutbi,Mosque,"6CV2+C8R Masjid Qutbi, Qutbi lane, behind Nagar Nigam Park, MP Nagar, Krishna Nagar, Professors Colony, Bhopal, Madhya Pradesh 462002","MP Nagar, Krishna Nagar, Professors Colony","6CV2+C8R, Qutbi lane, behind Nagar Nigam Park",Bhopal,462002,Madhya Pradesh,IN,https://www.google.com/maps/place/Masjid+Qutbi/data=!4m7!3m6!1s0x397c42a287bd6f99:0xa4bcc8195fc5545f!8m2!3d23.243625!4d77.4007712!16s%2Fg%2F1q67ck5g2!19sChIJmW-9h6JCfDkRX1TFXxnIvKQ?authuser=0&hl=en&rclk=1,"23.243624999999998,77.4007712"
TAQWA Masjid,Mosque,"GV8G+5J9 TAQWA Masjid, Dastur Meher Rd, Camp, Pune, Maharashtra 411001",Camp,"GV8G+5J9, Dastur Meher Rd",Pune,411001,Maharashtra,IN,https://www.google.com/maps/place/TAQWA+Masjid/data=!4m7!3m6!1s0x3bc2c045f3b4e5bd:0xe8cb34cb24318fba!8m2!3d18.5154215!4d73.8766179!16s%2Fg%2F11hd4_k4yl!19sChIJveW080XAwjsRuo8xJMs0y-g?authuser=0&hl=en&rclk=1,"18.5154215,73.8766179"
Masjid e Arafat - msjdi `rft,Mosque,"CH6X+34X Masjid e Arafat - msjdi `rft, near Alfalha urdu school, Sanat Nagar, Iqubal Chowk, Latur, Maharashtra 413512","Sanat Nagar, Iqubal Chowk","CH6X+34X, near Alfalha urdu school",Latur,413512,Maharashtra,IN,https://www.google.com/maps/place/Masjid+e+Arafat+-+%D9%85%D8%B3%D8%AC%D8%AF%D9%90+%D8%B9%D8%B1%D9%81%D8%A7%D8%AA%E2%80%AD/data=!4m7!3m6!1s0x3bcf83779e364609:0xf368cc270e2d9f6!8m2!3d18.4102326!4d76.5978612!16s%2Fg%2F11c5_5y1mv!19sChIJCUY2nneDzzsR9tnicMKMNg8?authuser=0&hl=en&rclk=1,"18.4102326,76.5978612"
Jama Masjid,Mosque,"32RP+62R Jama Masjid, Baspaipara, Rajnandgaon, Chhattisgarh 491441",Baspaipara,32RP+62R,Rajnandgaon,491441,Chhattisgarh,IN,https://www.google.com/maps/place/Jama+Masjid/data=!4m7!3m6!1s0x3a2945abbbf940a5:0x49d2a7372995be45!8m2!3d21.0906042!4d81.0350265!16s%2Fg%2F11ckr4fcs3!19sChIJpUD5u6tFKToRRb6VKTen0kk?authuser=0&hl=en&rclk=1,"21.090604199999998,81.0350265"
Noorani Masjid Talapara,Mosque,"34FX+859 Noorani Masjid Talapara, Sharda Nagar Rd, Talapara, Bilaspur, Chhattisgarh 495004",Talapara,"34FX+859, Sharda Nagar Rd",Bilaspur,495004,Chhattisgarh,IN,https://www.google.com/maps/place/Noorani+Masjid+Talapara/data=!4m7!3m6!1s0x3a280b40215f0b87:0x5c78d330bdd9e0ab!8m2!3d22.0732857!4d82.1479779!16s%2Fg%2F11cs05q747!19sChIJhwtfIUALKDoRq-DZvTDTeFw?authuser=0&hl=en&rclk=1,"22.0732857,82.1479779"
"Shaikh Naubat Masjid, Chetganj, Varanasi",Mosque,"Shaikh Naubat Masjid, Chetganj, Varanasi, Cantt, Near Kalika Hotel, Vidyapeeth Rd, Englishiyaline, Vijay Nagar Colony, Chetganj, Varanasi, Uttar Pradesh 221002","Englishiyaline, Vijay Nagar Colony, Chetganj","Cantt, Near Kalika Hotel, Vidyapeeth Rd",Varanasi,221002,Uttar Pradesh,IN,"https://www.google.com/maps/place/Shaikh+Naubat+Masjid,+Chetganj,+Varanasi/data=!4m7!3m6!1s0x398e2de3ff2e4193:0xf5a383064ab0f256!8m2!3d25.3240868!4d82.9880374!16s%2Fg%2F11b6hx0t3d!19sChIJk0Eu_-MtjjkRVvKwSgaDo_U?authuser=0&hl=en&rclk=1","25.3240868,82.9880374"
Masjid - msjd Ahle Sunnat wal jat,Mosque,"MR8M+F9W Masjid - msjd Ahle Sunnat wal jat, Bijalpur Main Rd, Rau, Indore, Madhya Pradesh 452012",Rau,"MR8M+F9W, Bijalpur Main Rd",Indore,452012,Madhya Pradesh,IN,https://www.google.com/maps/place/Masjid+-+%D9%85%D8%B3%D8%AC%D8%AF+Ahle+Sunnat+wal+jat%E2%80%AD/data=!4m7!3m6!1s0x3962fc6c56f48979:0x1b09e7ffedee0c11!8m2!3d22.66624!4d75.8334427!16s%2Fg%2F11ddx798md!19sChIJeYn0Vmz8YjkREQzu7f_nCRs?authuser=0&hl=en&rclk=1,"22.66624,75.83344269999999"
Nagina Masjid msjdi ngynh,Mosque,"GGVM+C8V Nagina Masjid msjdi ngynh, Kapse Ln, Motipura, Gulshanabad, Malegaon, Maharashtra 423203","Motipura, Gulshanabad","GGVM+C8V, Kapse Ln",Malegaon,423203,Maharashtra,IN,https://www.google.com/maps/place/Nagina+Masjid+%D9%85%D8%B3%D8%AC%D8%AF%D9%90+%D9%86%DA%AF%DB%8C%D9%86%DB%81%E2%80%AD/data=!4m7!3m6!1s0x3bde99a5470ecb7f:0xc2198b36f3a75a5b!8m2!3d20.543607!4d74.5332884!16s%2Fg%2F11b8_qmm1z!19sChIJf8sOR6WZ3jsRW1qn8zaLGcI?authuser=0&hl=en&rclk=1,"20.543606999999998,74.5332884"
Khawaja Garib Nawaz Masjid (Ahle Sunnat Wal Jamaat Masjid),Mosque,"Khawaja Garib Nawaz Masjid (Ahle Sunnat Wal Jamaat Masjid), FV6F+8CM, Upper, Kasat Nagar, Kondhwa Budruk, Pune, Maharashtra 411048","Kasat Nagar, Kondhwa Budruk","FV6F+8CM, Upper",Pune,411048,Maharashtra,IN,https://www.google.com/maps/place/Khawaja+Garib+Nawaz+Masjid+%28Ahle+Sunnat+Wal+Jamaat+Masjid%29/data=!4m7!3m6!1s0x3bc2eaecdd4adf9d:0x19f601f84a848adb!8m2!3d18.4608375!4d73.8735469!16s%2Fg%2F1pp2wy0rz!19sChIJnd9K3ezqwjsR24qESvgB9hk?authuser=0&hl=en&rclk=1,"18.4608375,73.8735469"
Hamd Masjid,Mosque,"V8WG+X3X Hamd Masjid, Arif Colony, Aurangabad, Maharashtra 431004",Arif Colony,V8WG+X3X,Aurangabad,431004,Maharashtra,IN,https://www.google.com/maps/place/Hamd+Masjid/data=!4m7!3m6!1s0x3bdb981bb7399239:0x41bb1ec89776541d!8m2!3d19.8974928!4d75.3252425!16s%2Fg%2F11c603zvbw!19sChIJOZI5txuY2zsRHVR2l8geu0E?authuser=0&hl=en&rclk=1,"19.8974928,75.3252425"
Ayesha Masjid,Mosque,"V8VV+2JP Ayesha Masjid, Cidco Rd, Younus Colony, N 10, Cidco, Aurangabad, Maharashtra 431001","Younus Colony, N 10, Cidco","V8VV+2JP, Cidco Rd",Aurangabad,431001,Maharashtra,IN,https://www.google.com/maps/place/Ayesha+Masjid/data=!4m7!3m6!1s0x3bdba2a7aaba8f25:0x60824b213c4485d!8m2!3d19.8925832!4d75.3440724!16s%2Fg%2F11b6q46sv5!19sChIJJY-6qqei2zsRXUjEE7IkCAY?authuser=0&hl=en&rclk=1,"19.8925832,75.3440724"
Masjid-E-Hazrat Bilal R.A. (Indira Nagar),Mosque,"Masjid-E-Hazrat Bilal R.A. (Indira Nagar), 92/93, Indra Nagar, Indira Nagar, Phulenagar, Yerawada, Pune, Maharashtra 411006","Indra Nagar, Indira Nagar, Phulenagar, Yerawada",92/93,Pune,411006,Maharashtra,IN,https://www.google.com/maps/place/Masjid-E-Hazrat+Bilal+R.A.+%28Indira+Nagar%29/data=!4m7!3m6!1s0x3bc2c0c313dd678d:0x54e4bcd0821d5a85!8m2!3d18.5585034!4d73.8752582!16s%2Fg%2F11cndbj659!19sChIJjWfdE8PAwjsRhVodgtC85FQ?authuser=0&hl=en&rclk=1,"18.5585034,73.87525819999999"
Masjid Baab-e-Hashim (Sunni Masjid) - msjdi bb y hshm,Mosque,"5432+GMJ Masjid Baab-e-Hashim (Sunni Masjid) - msjdi bb y hshm, Mansoor Baba St, Hansapuri, Nagpur, Maharashtra 440018",Hansapuri,"5432+GMJ, Mansoor Baba St",Nagpur,440018,Maharashtra,IN,https://www.google.com/maps/place/Masjid+Baab-e-Hashim+%28Sunni+Masjid%29+-+%D9%85%D8%B3%D8%AC%D8%AF%D9%90+%D8%A8%D8%A7%D8%A8+%D8%A7%DB%92+%DB%81%D8%A7%D8%B4%D9%85%E2%80%AD/data=!4m7!3m6!1s0x3bd4c0cee4a4d9bb:0xb831066dd420a9b5!8m2!3d21.1538382!4d79.1016269!16s%2Fg%2F11b6q3r4zf!19sChIJu9mk5M7A1DsRtakg1G0GMbg?authuser=0&hl=en&rclk=1,"21.1538382,79.1016269"
Sunni Hanfi Masjid Nayapara,Mosque,"6JRJ+4H6 Sunni Hanfi Masjid Nayapara, Gousiya Chowk, Tatyapara, Nayapara, Raipur, Chhattisgarh 492001","Tatyapara, Nayapara","6JRJ+4H6, Gousiya Chowk",Raipur,492001,Chhattisgarh,IN,https://www.google.com/maps/place/Sunni+Hanfi+Masjid+Nayapara/data=!4m7!3m6!1s0x3a28ddbc2e0bbc31:0x29bb9a38c66a7b9a!8m2!3d21.2402963!4d81.6314047!16s%2Fg%2F11gfdwk754!19sChIJMbwLLrzdKDoRmntqxjiauyk?authuser=0&hl=en&rclk=1,"21.2402963,81.63140469999999"
Masjid E Almas Badnera,Mosque,"VP8M+MXF Masjid E Almas Badnera, Juni Basti, Amravati, Maharashtra 444607",Juni Basti,VP8M+MXF,Amravati,444607,Maharashtra,IN,https://www.google.com/maps/place/Masjid+E+Almas+Badnera/data=!4m7!3m6!1s0x3bd6bac8668b1e09:0x6fa5c65a8e5de3eb!8m2!3d20.8666758!4d77.7349183!16s%2Fg%2F11g6z3nsjt!19sChIJCR6LZsi61jsR6-NdjlrGpW8?authuser=0&hl=en&rclk=1,"20.8666758,77.73491829999999"
Tamboli masjid,Mosque,"Tamboli masjid, next to police station, Kapad Ganj, Raviwar Peth, Pune, Maharashtra 411002","Kapad Ganj, Raviwar Peth","Tamboli masjid, next to police station",Pune,411002,Maharashtra,IN,https://www.google.com/maps/place/Tamboli+masjid/data=!4m7!3m6!1s0x3bc2c1c1d7cfa663:0xeb2c391c5fdfc54!8m2!3d18.5161913!4d73.8598599!16s%2Fg%2F11rvhc9zjj!19sChIJY6bP18HBwjsRVPz9xZHDsg4?authuser=0&hl=en&rclk=1,"18.5161913,73.8598599"
Akhtari Masjid,Mosque,"Akhtari Masjid, Peth Mohalla, Parli Vaijnath, Maharashtra 431515",Peth Mohalla,,Parli Vaijnath,431515,Maharashtra,IN,https://www.google.com/maps/place/Akhtari+Masjid/data=!4m7!3m6!1s0x3bcff7248f3267d3:0x3c56be0cf13b57fc!8m2!3d18.846266!4d76.5322346!16s%2Fg%2F11f3gn7k1q!19sChIJ02cyjyT3zzsR_Fc78Qy-Vjw?authuser=0&hl=en&rclk=1,"18.846266,76.5322346"
JAMA MASJID,Mosque,"HH73+HVQ JAMA MASJID, Gorabazar, Mishra Bazar, Fullanpur, Lanka, Ghazipur, Uttar Pradesh 233001","Gorabazar, Mishra Bazar, Fullanpur, Lanka",HH73+HVQ,Ghazipur,233001,Uttar Pradesh,IN,https://www.google.com/maps/place/JAMA+MASJID/data=!4m7!3m6!1s0x3991ffabe0c2b475:0xe0af6cfd7a82938a!8m2!3d25.5639674!4d83.5547446!16s%2Fg%2F11gb406d7q!19sChIJdbTC4Kv_kTkRipOCev1sr-A?authuser=0&hl=en&rclk=1,"25.5639674,83.55474459999999"
Raza Masjid Udayganj,Mosque,"J7HR+7PP Raza Masjid Udayganj, Amba, Bihar 824111",,J7HR+7PP,Amba,824111,Bihar,IN,https://www.google.com/maps/place/Raza+Masjid+Udayganj/data=!4m7!3m6!1s0x398cf83fc313888d:0xf204bbe370e7f465!8m2!3d24.628214!4d84.2918367!16s%2Fg%2F11c5zhc_l1!19sChIJjYgTwz_4jDkRZfTncOO7BPI?authuser=0&hl=en&rclk=1,"24.628214,84.29183669999999"
madni masjid,Mosque,"697P+W9H madni masjid, Janjgiri, Subhash Nagar, Chhattisgarh 490011",Janjgiri,697P+W9H,Subhash Nagar,490011,Chhattisgarh,IN,https://www.google.com/maps/place/madni+masjid/data=!4m7!3m6!1s0x3a29225668060351:0xc80eafca7e01d335!8m2!3d21.2148108!4d81.3859751!16s%2Fg%2F11f3n24nf0!19sChIJUQMGaFYiKToRNdMBfsqvDsg?authuser=0&hl=en&rclk=1,"21.2148108,81.3859751"
Aqsa Masjid,Mosque,"RVMR+8Q9 Aqsa Masjid, Railway Station Rd, Jalna, Maharashtra 431213",Jalna,"RVMR+8Q9, Railway Station Rd",Jalna,431213,Maharashtra,IN,https://www.google.com/maps/place/Aqsa+Masjid/data=!4m7!3m6!1s0x3bda57670535d011:0xd7d9eefecb742915!8m2!3d19.8332983!4d75.8919847!16s%2Fg%2F1pyqv1nmy!19sChIJEdA1BWdX2jsRFSl0y_7u2dc?authuser=0&hl=en&rclk=1,"19.8332983,75.8919847"
Aqsa Masjid. Jumma at 1:10,Mosque,"Aqsa Masjid. Jumma at 1:10, Aqsa Colony Beed by Pass Parisar 431005, Satara, Aurangabad, Maharashtra 431010","Soniya Nagar, Satara",Aqsa Colony Beed by Pass Parisar 431005,Aurangabad,431010,Maharashtra,IN,https://www.google.com/maps/place/Aqsa+Masjid.+Jumma+at+1:10/data=!4m7!3m6!1s0x3bdb98f1b7035591:0xc5bea8f54d752822!8m2!3d19.8477576!4d75.3097075!16s%2Fg%2F11c4mf66pq!19sChIJkVUDt_GY2zsRIih1TfWovsU?authuser=0&hl=en&rclk=1,"19.847757599999998,75.3097075"
Dhakwa Jama Masjid (Sunni Masjid),Mosque,"4722+P2P Dhakwa Jama Masjid (Sunni Masjid), Dhakwa, Piparopur, Uttar Pradesh 276404",,"4722+P2P, Dhakwa",Piparopur,276404,Uttar Pradesh,IN,https://www.google.com/maps/place/Dhakwa+Jama+Masjid+%28Sunni+Masjid%29/data=!4m7!3m6!1s0x3991a3089847aec9:0x21ac7e608117553f!8m2!3d26.1018375!4d83.2500845!16s%2Fg%2F11gk8q99sh!19sChIJya5HmAijkTkRP1UXgWB-rCE?authuser=0&hl=en&rclk=1,"26.1018375,83.2500845"
Masjid-e-Charbhai,Mosque,"H6W9+2MC Masjid-e-Charbhai, NH 44, Dichpally, Telangana 503322",,"H6W9+2MC, NH 44",Dichpally,503322,Telangana,IN,https://www.google.com/maps/place/Masjid-e-Charbhai/data=!4m7!3m6!1s0x3bcdc8c3f5f4318b:0xb96f0e4800c8cc5c!8m2!3d18.5950729!4d78.2191446!16s%2Fg%2F11b6p4j0sd!19sChIJizH09cPIzTsRXMzIAEgOb7k?authuser=0&hl=en&rclk=1,"18.595072899999998,78.21914459999999"
Umar Masjid,Mosque,"GWH9+6MF Umar Masjid, Dhayarkar Colony, Pingale Wasti, Koregaon Park Annexe, Mundhwa, Pune, Maharashtra 411036","Dhayarkar Colony, Pingale Wasti, Koregaon Park Annexe, Mundhwa",GWH9+6MF,Pune,411036,Maharashtra,IN,https://www.google.com/maps/place/Umar+Masjid/data=!4m7!3m6!1s0x3bc2c19bc28e50f9:0x139dd700ff174c35!8m2!3d18.528055!4d73.9191813!16s%2Fg%2F11f3vgf5lv!19sChIJ-VCOwpvBwjsRNUwX_wDXnRM?authuser=0&hl=en&rclk=1,"18.528055,73.91918129999999"
Aqsa Masjid,Mosque,"RVWH+H8J Aqsa Masjid, Millat Nagar, Bhawani Nagar, Jalna, Maharashtra 431213","Millat Nagar, Bhawani Nagar",RVWH+H8J,Jalna,431213,Maharashtra,IN,https://www.google.com/maps/place/Aqsa+Masjid/data=!4m7!3m6!1s0x3bda5748748aa141:0x126d624892d0b29b!8m2!3d19.846472!4d75.878266!16s%2Fg%2F1pyqhp_sk!19sChIJQaGKdEhX2jsRm7LQkkhibRI?authuser=0&hl=en&rclk=1,"19.846472,75.878266"
Masjid Abu Bakar Markaj takiya para durg,Mosque,"57VH+2W6 Masjid Abu Bakar Markaj takiya para durg, Takiya Para, Durg, Chhattisgarh 491001",Takiya Para,57VH+2W6,Durg,491001,Chhattisgarh,IN,https://www.google.com/maps/place/Masjid+Abu+Bakar+Markaj+takiya+para+durg/data=!4m7!3m6!1s0x3a293c4f2e7f2379:0x6ebc13dc2ffd95b!8m2!3d21.1925313!4d81.2797606!16s%2Fg%2F11df3wvgsj!19sChIJeSN_Lk88KToRW9n_wj3B6wY?authuser=0&hl=en&rclk=1,"21.1925313,81.2797606"
Aqsa Masjid,Mosque,"57VJ+277 Aqsa Masjid, Takiya Para, Durg, Chhattisgarh 491001",Takiya Para,57VJ+277,Durg,491001,Chhattisgarh,IN,https://www.google.com/maps/place/Aqsa+Masjid/data=!4m7!3m6!1s0x3a293c4f30c65897:0xd2a8e4cbed0d0fa!8m2!3d21.1925349!4d81.2806591!16s%2Fg%2F1pyqjs52k!19sChIJl1jGME88KToR-tDQvkyOKg0?authuser=0&hl=en&rclk=1,"21.1925349,81.2806591"
"Hari Masjid Allahabad - hry msjd, lh abd",Mosque,"FR5Q+Q27 Hari Masjid Allahabad - hry msjd, lh abd, Gayatripuram Colony, Civil Lines, Prayagraj, Uttar Pradesh 211001","Gayatripuram Colony, Civil Lines",FR5Q+Q27,Prayagraj,211001,Uttar Pradesh,IN,https://www.google.com/maps/place/Hari+Masjid+Allahabad+-+%DB%81%D8%B1%DB%8C+%D9%85%D8%B3%D8%AC%D8%AF%D8%8C+%D8%A7%D9%84%DB%81+%D8%A2%D8%A8%D8%A7%D8%AF%E2%80%AD/data=!4m7!3m6!1s0x399acb021a71d19f:0x9a5c6b6d143f7892!8m2!3d25.459409!4d81.8375367!16s%2Fg%2F11t572k2nd!19sChIJn9FxGgLLmjkRkng_FG1rXJo?authuser=0&hl=en&rclk=1,"25.459408999999997,81.8375367"
Shahi Masjid (Since 1682),Mosque,"Shahi Masjid (Since 1682), Ambekar Layout, near Chor khidki, Chandrapur, Maharashtra 442402",Ramnagar,"Ambekar Layout, near Chor khidki",Chandrapur,442402,Maharashtra,IN,https://www.google.com/maps/place/Shahi+Masjid+%28Since+1682%29/data=!4m7!3m6!1s0x3bd2d681a2c35e95:0x8fac8307cd31811f!8m2!3d19.9531462!4d79.2878569!16s%2Fg%2F11c2kbqf2t!19sChIJlV7DooHW0jsRH4ExzQeDrI8?authuser=0&hl=en&rclk=1,"19.9531462,79.2878569"
Shamsa Masjid msjd shmsh,Mosque,"2HG8+H6M Shamsa Masjid msjd shmsh, Masjid E Ali Rd, Gara, Uttar Pradesh 275305",,"2HG8+H6M, Masjid E Ali Rd",Gara,275305,Uttar Pradesh,IN,https://www.google.com/maps/place/Shamsa+Masjid+%D9%85%D8%B3%D8%AC%D8%AF+%D8%B4%D9%85%D8%B3%DB%81%E2%80%AD/data=!4m7!3m6!1s0x3991897a9fe35a8b:0x5e4adeae032f7c2c!8m2!3d26.0264744!4d83.5655536!16s%2Fg%2F11qn6vl6c1!19sChIJi1rjn3qJkTkRLHwvA67eSl4?authuser=0&hl=en&rclk=1,"26.026474399999998,83.5655536"
Masjid E Taibah (Tabligi Jamat),Mosque,"WPRW+CPR Masjid E Taibah (Tabligi Jamat), Janta Colony, Habib Nagar, No.1, Amravati, Maharashtra 444601","Janta Colony, Habib Nagar, No.1",WPRW+CPR,Amravati,444601,Maharashtra,IN,https://www.google.com/maps/place/Masjid+E+Taibah+%28Tabligi+Jamat%29/data=!4m7!3m6!1s0x3bd6a3549f119567:0xf90a42c997eb7d0c!8m2!3d20.9411013!4d77.7467564!16s%2Fg%2F11gfc9j_2r!19sChIJZ5URn1Sj1jsRDH3rl8lCCvk?authuser=0&hl=en&rclk=1,"20.9411013,77.7467564"
"AZIZ MASJID (IB GROUP, INDAMARA)",Mosque,"3XV4+W3 AZIZ MASJID (IB GROUP, INDAMARA), Indamara, Chhattisgarh 491441",,3XV4+W3,Indamara,491441,Chhattisgarh,IN,"https://www.google.com/maps/place/AZIZ+MASJID+%28IB+GROUP,+INDAMARA%29/data=!4m7!3m6!1s0x3a295b34a70a243d:0x9f8c0212d41b5f45!8m2!3d21.0956292!4d80.9539594!16s%2Fg%2F11tx6gcmt0!19sChIJPSQKpzRbKToRRV8b1BICjJ8?authuser=0&hl=en&rclk=1","21.095629199999998,80.9539594"
Madina Masjid,Mosque,"57XW+RR5 Madina Masjid, Katulbod, Durg, Chhattisgarh 491001",Katulbod,57XW+RR5,Durg,491001,Chhattisgarh,IN,https://www.google.com/maps/place/Madina+Masjid/data=!4m7!3m6!1s0x3a293cff738ffe73:0xf84fea6053e1f2d6!8m2!3d21.1995124!4d81.2971207!16s%2Fg%2F1hm5b4d7p!19sChIJc_6Pc_88KToR1vLhU2DqT_g?authuser=0&hl=en&rclk=1,"21.1995124,81.2971207"
Macca Masjid,Mosque,"687V+MW7 Macca Masjid, Farid Nagar Rd, Supela, Bhilai, Chhattisgarh 490023",Supela,"687V+MW7, Farid Nagar Rd",Bhilai,490023,Chhattisgarh,IN,https://www.google.com/maps/place/Macca+Masjid/data=!4m7!3m6!1s0x3a2922d3d2bb514b:0x4ca97bc2f76fdbf5!8m2!3d21.2141566!4d81.3447988!16s%2Fg%2F11hbnkzsz7!19sChIJS1G70tMiKToR9dtv98J7qUw?authuser=0&hl=en&rclk=1,"21.2141566,81.34479879999999"
Shahi Masjid,Mosque,"4P6X+P5Q Shahi Masjid, Nagardeole, Ahmednagar, Maharashtra 414001",Nagardeole,4P6X+P5Q,Ahmednagar,414001,Maharashtra,IN,https://www.google.com/maps/place/Shahi+Masjid/data=!4m7!3m6!1s0x3bdcb077abd67453:0x4d50bdcb995c7a67!8m2!3d19.1118352!4d74.7479779!16s%2Fg%2F124sysst1!19sChIJU3TWq3ew3DsRZ3pcmcu9UE0?authuser=0&hl=en&rclk=1,"19.111835199999998,74.7479779"
Chhipa Masjid,Mosque,"Chhipa Masjid, 06, University Rd, Shabri Colony, Ayad, Pahada, Udaipur, Rajasthan 313001","Shabri Colony, Ayad, Pahada","06, University Rd",Udaipur,313001,Rajasthan,IN,https://www.google.com/maps/place/Chhipa+Masjid/data=!4m7!3m6!1s0x3967e590542442f5:0x285ec4aa3c03d72c!8m2!3d24.588379!4d73.7149251!16s%2Fg%2F11b70_c5_j!19sChIJ9UIkVJDlZzkRLNcDPKrEXig?authuser=0&hl=en&rclk=1,"24.588379,73.7149251"
Masjid E Aqsa,Mosque,"Masjid E Aqsa, 1691, VIP Road, Khanugaon, Bhopal, Madhya Pradesh 462030",Khanugaon,"1691, VIP Road",Bhopal,462030,Madhya Pradesh,IN,https://www.google.com/maps/place/Masjid+E+Aqsa/data=!4m7!3m6!1s0x397c67facf562ce7:0xfbcfe4ca87f69f9c!8m2!3d23.2608632!4d77.3686862!16s%2Fg%2F11g_s9k97!19sChIJ5yxWz_pnfDkRnJ_2h8rkz_s?authuser=0&hl=en&rclk=1,"23.2608632,77.3686862"
Masjid,Mosque,"29X3+7R7 Masjid, Nima Kalan, Jharkhand 814165",,29X3+7R7,Nima Kalan,814165,Jharkhand,IN,https://www.google.com/maps/place/Masjid/data=!4m7!3m6!1s0x39f0656cc301ad13:0x84a3530c4c6998cb!8m2!3d25.0481695!4d87.3545394!16s%2Fg%2F11g8b5644p!19sChIJE60Bw2xl8DkRy5hpTAxTo4Q?authuser=0&hl=en&rclk=1,"25.0481695,87.3545394"
SHAHI MASJID,Mosque,"GVF3+743 SHAHI MASJID, Gaothan, Shivajinagar, Pune, Maharashtra 411005","Gaothan, Shivajinagar",GVF3+743,Pune,411005,Maharashtra,IN,https://www.google.com/maps/place/SHAHI+MASJID/data=!4m7!3m6!1s0x3bc2c1e0eaefce07:0xdd2e64c83d0a2bd9!8m2!3d18.5231314!4d73.8528078!16s%2Fg%2F11s5hj2t89!19sChIJB87v6uDBwjsR2SsKPchkLt0?authuser=0&hl=en&rclk=1,"18.5231314,73.8528078"
Kalimi Masjid,Mosque,"Kalimi Masjid, BURHANI PARK SOCIETY, Kondhwa Budruk, Pune, Maharashtra 411048",Kondhwa Budruk,BURHANI PARK SOCIETY,Pune,411048,Maharashtra,IN,https://www.google.com/maps/place/Kalimi+Masjid/data=!4m7!3m6!1s0x3bc2ebaa8ba8b785:0x669e1057ce8944b6!8m2!3d18.4447044!4d73.8860862!16s%2Fg%2F11rvmcs24l!19sChIJhbeoi6rrwjsRtkSJzlcQnmY?authuser=0&hl=en&rclk=1,"18.4447044,73.8860862"
Masjid-E-Hasan,Mosque,"XQGW+497 Masjid-E-Hasan, Tirumla Nagar, Hussani Bagh, Nashik, Maharashtra 422214","Tirumla Nagar, Hussani Bagh",XQGW+497,Nashik,422214,Maharashtra,IN,https://www.google.com/maps/place/Masjid-E-Hasan/data=!4m7!3m6!1s0x3bddebdc3baacc95:0xa3fc3d684cd8f89d!8m2!3d19.9752413!4d73.7957578!16s%2Fg%2F11kb9s6yw3!19sChIJlcyqO9zr3TsRnfjYTGg9_KM?authuser=0&hl=en&rclk=1,"19.9752413,73.79575779999999"
Zilla Masjid Mosque,Mosque,"533F+J2M Zilla Masjid Mosque, Civil Lines, Nagpur, Maharashtra 440001",Civil Lines,533F+J2M,Nagpur,440001,Maharashtra,IN,https://www.google.com/maps/place/Zilla+Masjid+Mosque/data=!4m7!3m6!1s0x3bd4c15aa61234eb:0x3cbd84010d91adcc!8m2!3d21.1540812!4d79.0725467!16s%2Fg%2F11gjjdf8zq!19sChIJ6zQSplrB1DsRzK2RDQGEvTw?authuser=0&hl=en&rclk=1,"21.1540812,79.07254669999999"
Mughalpura Masjid,Mosque,"W2W9+VR7 Mughalpura Masjid, Hetimpur, Sasaram, Pratapganj, Bihar 821115",Hetimpur,W2W9+VR7,"Sasaram, Pratapganj",821115,Bihar,IN,https://www.google.com/maps/place/Mughalpura+Masjid/data=!4m7!3m6!1s0x398db0cba978bda3:0x693b566456e25b8d!8m2!3d24.9471691!4d84.0195547!16s%2Fg%2F11ggmg5mkb!19sChIJo714qcuwjTkRjVviVmRWO2k?authuser=0&hl=en&rclk=1,"24.9471691,84.0195547"
rysly msjd,Mosque,"586X+922 rysly msjd, Ispat Nagar, Bhilai, Chhattisgarh 490006",,586X+922,"Ispat Nagar, Bhilai",490006,Chhattisgarh,IN,https://www.google.com/maps/place/%D8%B1%DB%8C%D8%B3%D8%A7%D9%84%DB%8C+%D9%85%D8%B3%D8%AC%D8%AF%E2%80%AD/data=!4m7!3m6!1s0x3a29235659de0855:0x88f2fcba57c022f9!8m2!3d21.1608833!4d81.3475087!16s%2Fg%2F1hm3lggsb!19sChIJVQjeWVYjKToR-SLAV7r88og?authuser=0&hl=en&rclk=1,"21.1608833,81.34750869999999"
AKBARI MASJID. AKBER NAGAR,Mosque,"WPVM+5J8 AKBARI MASJID. AKBER NAGAR, Transport Nagar, Amravati, Maharashtra 444601",Transport Nagar,WPVM+5J8,Amravati,444601,Maharashtra,IN,https://www.google.com/maps/place/AKBARI+MASJID.+AKBER+NAGAR/data=!4m7!3m6!1s0x3bd6bcaf7c0dce6b:0xf58041c633475815!8m2!3d20.9429081!4d77.7340756!16s%2Fg%2F11gb3qtbxv!19sChIJa84NfK-81jsRFVhHM8ZBgPU?authuser=0&hl=en&rclk=1,"20.9429081,77.7340756"
Khadeeja Masjid,Mosque,"V9V2+QMP Khadeeja Masjid, Babar Colony, Kat Kat Gate, Farzad Colony, Jaswantpura, Aurangabad, Maharashtra 431003","Babar Colony, Kat Kat Gate, Farzad Colony, Jaswantpura",V9V2+QMP,Aurangabad,431003,Maharashtra,IN,https://www.google.com/maps/place/Khadeeja+Masjid/data=!4m7!3m6!1s0x3bdba2a513ffffff:0x292c4d66869de352!8m2!3d19.8944524!4d75.3517173!16s%2Fg%2F11gb3r4kys!19sChIJ____E6Wi2zsRUuOdhmZNLCk?authuser=0&hl=en&rclk=1,"19.8944524,75.35171729999999"
Madina Masjid,Mosque,"672X+WH3 Madina Masjid, Titurdiha Durg, Durg, Chhattisgarh 491001",,672X+WH3,"Titurdiha Durg, Durg",491001,Chhattisgarh,IN,https://www.google.com/maps/place/Madina+Masjid/data=!4m7!3m6!1s0x3a293cfe2d8a6b35:0x399c46b98b096b49!8m2!3d21.2022609!4d81.2989186!16s%2Fg%2F11g6b32s0s!19sChIJNWuKLf48KToRSWsJi7lGnDk?authuser=0&hl=en&rclk=1,"21.2022609,81.2989186"
Masjid E Zainab,Mosque,"M4Q6+2XJ Masjid E Zainab, Chandrashekar Colony, Nizamabad, Telangana 503002",Chandrashekar Colony,M4Q6+2XJ,Nizamabad,503002,Telangana,IN,https://www.google.com/maps/place/Masjid+E+Zainab/data=!4m7!3m6!1s0x3bcdc4ca95ba81ff:0xf3c9635b74ec6956!8m2!3d18.6875836!4d78.1123873!16s%2Fg%2F11c72l2_ws!19sChIJ_4G6lcrEzTsRVmnsdFtjyfM?authuser=0&hl=en&rclk=1,"18.6875836,78.1123873"
SUNNI MASJID,Mosque,"5VV7+P62 SUNNI MASJID, Fertilizer Twp, Rourkela, Odisha 769007",Fertilizer Township,5VV7+P62,Rourkela,769007,Odisha,IN,https://www.google.com/maps/place/SUNNI+MASJID/data=!4m7!3m6!1s0x3a201f2e17244ce1:0xb02105f2525e2b4d!8m2!3d22.194271!4d84.8630104!16s%2Fg%2F11gh343s0j!19sChIJ4UwkFy4fIDoRTSteUvIFIbA?authuser=0&hl=en&rclk=1,"22.194271,84.8630104"
Arish masjid,Mosque,"V8RV+M6Q Arish masjid, Cidco Rd, Younus Colony, N 10, Cidco, Aurangabad, Maharashtra 431003","Younus Colony, N 10, Cidco","V8RV+M6Q, Cidco Rd",Aurangabad,431003,Maharashtra,IN,https://www.google.com/maps/place/Arish+masjid/data=!4m7!3m6!1s0x3bdba34d9dd6bfbb:0xcd19d7be2eeb3838!8m2!3d19.8916974!4d75.3431081!16s%2Fg%2F11k3pydjt4!19sChIJu7_WnU2j2zsRODjrLr7XGc0?authuser=0&hl=en&rclk=1,"19.891697399999998,75.3431081"
Mahuaari Masjid,Mosque,"2PHJ+55M Mahuaari Masjid, Mahoharpur, Uttar Pradesh 231304",,2PHJ+55M,Mahoharpur,231304,Uttar Pradesh,IN,https://www.google.com/maps/place/Mahuaari+Masjid/data=!4m7!3m6!1s0x398fb95fee142da5:0x7c3270f636de3a7f!8m2!3d25.0279711!4d82.7304247!16s%2Fg%2F11gtpt3vvv!19sChIJpS0U7l-5jzkRfzreNvZwMnw?authuser=0&hl=en&rclk=1,"25.0279711,82.7304247"
SUNNI MASJID 786 msjd,Mosque,"2RH7+VVG SUNNI MASJID 786 msjd, Nuagodi, Bangarapara, Odisha 752046",,2RH7+VVG,"Nuagodi, Bangarapara",752046,Odisha,IN,https://www.google.com/maps/place/SUNNI+MASJID+786+%D9%85%D8%B3%D8%AC%D8%AF%E2%80%AD/data=!4m7!3m6!1s0x3a19bbb1b9d8f589:0xb9acea98e4212348!8m2!3d20.0296798!4d85.8146989!16s%2Fg%2F11dxd2ss_5!19sChIJifXYubG7GToRSCMh5JjqrLk?authuser=0&hl=en&rclk=1,"20.0296798,85.8146989"
Masjid Noor-e-ilahi,Mosque,"Masjid Noor-e-ilahi, 17/17, Durga Nagar, Bhanpuri, Raipur, Chhattisgarh 493221","Durga Nagar, Bhanpuri",17/17,Raipur,493221,Chhattisgarh,IN,https://www.google.com/maps/place/Masjid+Noor-e-ilahi/data=!4m7!3m6!1s0x3a28e719e844062b:0xf9b50bc4cf591e2e!8m2!3d21.3013972!4d81.6331301!16s%2Fg%2F11mw778d_r!19sChIJKwZE6BnnKDoRLh5Zz8QLtfk?authuser=0&hl=en&rclk=1,"21.3013972,81.6331301"
ek minara masjid - ykh mynrh msjd,Mosque,"ek minara masjid - ykh mynrh msjd, Ek Minara Masjid Rd, near Sindhiban Thakur plot, Solanki Patil Wadi, Nagpur, Maharashtra 440024",Solanki Patil Wadi,"Ek Minara Masjid Rd, near Sindhiban Thakur plot",Nagpur,440024,Maharashtra,IN,https://www.google.com/maps/place/ek+minara+masjid+-+%D8%A7%DB%8C%DA%A9+%D9%85%DB%8C%D9%86%D8%A7%D8%B1%DB%81+%D9%85%D8%B3%D8%AC%D8%AF%E2%80%AD/data=!4m7!3m6!1s0x3bd4b9bdf670ff63:0xd5692f288378ad53!8m2!3d21.1170105!4d79.1204211!16s%2Fg%2F11lgzc640z!19sChIJY_9w9r251DsRU614gygvadU?authuser=0&hl=en&rclk=1,"21.1170105,79.1204211"
Mubarakiya Masjid,Mosque,"3XF4+643 Mubarakiya Masjid, Shastri Nagar, Arni, Maharashtra 445103",Shastri Nagar,3XF4+643,Arni,445103,Maharashtra,IN,https://www.google.com/maps/place/Mubarakiya+Masjid/data=!4m7!3m6!1s0x3bd3d76e357caf91:0x6f0d77016e45e84c!8m2!3d20.0730068!4d77.9552833!16s%2Fg%2F11h_vttby5!19sChIJka98NW7X0zsRTOhFbgF3DW8?authuser=0&hl=en&rclk=1,"20.073006799999998,77.95528329999999"
Masjid e Noor - msjdi nwr,Mosque,"CG9X+WRP Masjid e Noor - msjdi nwr, Sohel Nagar, Deep Jyoti Nagar, Latur, Maharashtra 413512","Sohel Nagar, Deep Jyoti Nagar",CG9X+WRP,Latur,413512,Maharashtra,IN,https://www.google.com/maps/place/Masjid+e+Noor+-+%D9%85%D8%B3%D8%AC%D8%AF%D9%90+%D9%86%D9%88%D8%B1%E2%80%AD/data=!4m7!3m6!1s0x3bcf85e75141911d:0xd5bdca996b0d7dbe!8m2!3d18.4198277!4d76.5495928!16s%2Fg%2F11rj65f1h4!19sChIJHZFBUeeFzzsRvn0Na5nKvdU?authuser=0&hl=en&rclk=1,"18.4198277,76.5495928"
Masjid Rehmaniya,Mosque,"6CG9+FHP Masjid Rehmaniya, Arjun nagar, Arera Hills, Bhopal, Madhya Pradesh 462016",Arera Hills,"6CG9+FHP, Arjun nagar",Bhopal,462016,Madhya Pradesh,IN,https://www.google.com/maps/place/Masjid+Rehmaniya/data=!4m7!3m6!1s0x397c4370f5c4b875:0x74c3e915366b93a9!8m2!3d23.226225!4d77.418947!16s%2Fg%2F11q46h_kms!19sChIJdbjE9XBDfDkRqZNrNhXpw3Q?authuser=0&hl=en&rclk=1,"23.226225,77.418947"
Sharifa masjid,Mosque,"Sharifa masjid, ASIM NAGAR, Transport Nagar, Amravati, Maharashtra 444602",Transport Nagar,ASIM NAGAR,Amravati,444602,Maharashtra,IN,https://www.google.com/maps/place/Sharifa+masjid/data=!4m7!3m6!1s0x3bd6bd83029ad96d:0x73ebc24ffaba031!8m2!3d20.9541783!4d77.7357552!16s%2Fg%2F11h12t4lgx!19sChIJbdmaAoO91jsRMaCr_yS8Pgc?authuser=0&hl=en&rclk=1,"20.9541783,77.7357552"
RAZA MASJID ( AHLE SUNNAT WAL JAMAT),Mosque,"CH4P+75G RAZA MASJID ( AHLE SUNNAT WAL JAMAT), Hatte Nagar, Latur, Maharashtra 413512",Hatte Nagar,CH4P+75G,Latur,413512,Maharashtra,IN,https://www.google.com/maps/place/RAZA+MASJID+%28+AHLE+SUNNAT+WAL+JAMAT%29/data=!4m7!3m6!1s0x3bcf838dea5f2a3f:0xb0569bbd1966093b!8m2!3d18.4056857!4d76.585467!16s%2Fg%2F11j8t9syds!19sChIJPypf6o2DzzsROwlmGb2bVrA?authuser=0&hl=en&rclk=1,"18.4056857,76.585467"
Masjid Abu Huraira Ahlehadees Tayba Nagar,Mosque,"CVMC+W53 Masjid Abu Huraira Ahlehadees Tayba Nagar, Samiullah Compound, WakanPada, Vasai Phata, Vasai(e, Wakanpada, Nalasopara East, Dhaniv, Maharashtra 401208","Wakanpada, Nalasopara East","CVMC+W53, Samiullah Compound, WakanPada, Vasai Phata, Vasai(e",Dhaniv,401208,Maharashtra,IN,https://www.google.com/maps/place/Masjid+Abu+Huraira+Ahlehadees+Tayba+Nagar/data=!4m7!3m6!1s0x3be7a98911641c5b:0x888e2a53ad0d8a16!8m2!3d19.4347526!4d72.870407!16s%2Fg%2F11n8sgsmht!19sChIJWxxkEYmp5zsRFooNrVMqjog?authuser=0&hl=en&rclk=1,"19.4347526,72.870407"
Lal masjid ujjain,Mosque,"5QMH+G4V Lal masjid ujjain, Lal Masjid Chauraha, Malipura, Ujjain, Madhya Pradesh 456006",Malipura,"5QMH+G4V, Lal Masjid Chauraha",Ujjain,456006,Madhya Pradesh,IN,https://www.google.com/maps/place/Lal+masjid+ujjain/data=!4m7!3m6!1s0x3963755338afee45:0x9afb563310abc32e!8m2!3d23.1838552!4d75.7777994!16s%2Fg%2F11rvhzgxgq!19sChIJRe6vOFN1YzkRLsOrEDNW-5o?authuser=0&hl=en&rclk=1,"23.1838552,75.77779939999999"
