name,main_category,address,address_ward,address_street,address_city,address_postal_code,address_state,address_country_code,link,coordinates
Manjakulam Darga Shareef,Mosque,"QJ9X+PPX Manjakulam Darga Shareef, Valakkad, Palakkad, Kerala 678001",Valakkad,QJ9X+PPX,Palakkad,678001,Kerala,IN,https://www.google.com/maps/place/Manjakulam+Darga+Shareef/data=!4m7!3m6!1s0x3ba86dfa679ed88b:0xb8d6daa6ec44b9c9!8m2!3d10.7693568!4d76.6493743!16s%2Fg%2F1tp2ytxt!19sChIJi9ieZ_ptqDsRyblE7Kba1rg?authuser=0&hl=en&rclk=1,"10.769356799999999,76.64937429999999"
Mepparamba Juma Masjid,Mosque,"Mepparamba Juma Masjid, Mosque, Palakkad - Ponnani Rd, Mepparambu, Kavilpad, Palakkad, Pirayiri, Kerala 678006","Mepparambu, Kavilpad","Mosque, Palakkad - Ponnani Rd","Palakkad, Pirayiri",678006,Kerala,IN,https://www.google.com/maps/place/Mepparamba+Juma+Masjid/data=!4m7!3m6!1s0x3ba87203196b1c35:0x7e522dcceca8517c!8m2!3d10.7751724!4d76.63145!16s%2Fg%2F1tk9p61h!19sChIJNRxrGQNyqDsRfFGo7MwtUn4?authuser=0&hl=en&rclk=1,"10.775172399999999,76.63145"
Pazhaya Kotta Hanafi Juma Masjid,Mosque,"QMM2+J4M Pazhaya Kotta Hanafi Juma Masjid, Vidyut Nagar, Palakkad, Kerala 678001",Vidyut Nagar,QMM2+J4M,Palakkad,678001,Kerala,IN,https://www.google.com/maps/place/Pazhaya+Kotta+Hanafi+Juma+Masjid/data=!4m7!3m6!1s0x3ba86e067b71abcd:0x5d19bb92324acdfa!8m2!3d10.784094!4d76.6503084!16s%2Fg%2F1wnbwf_9!19sChIJzatxewZuqDsR-s1KMpK7GV0?authuser=0&hl=en&rclk=1,"10.784094,76.6503084"
Ummini Shafi Sunni Juma Masjid,Mosque,"RJCH+35X Ummini Shafi Sunni Juma Masjid, India, Olavakode Dhoni Rd, Palakkad, Kerala 678009",Puthuppariyaram,"RJCH+35X, India, Olavakode Dhoni Rd",Palakkad,678009,Kerala,IN,https://www.google.com/maps/place/Ummini+Shafi+Sunni+Juma+Masjid/data=!4m7!3m6!1s0x3ba871cd1239552d:0x45c8851356c4b7b3!8m2!3d10.8202297!4d76.6279986!16s%2Fg%2F1pyql0t60!19sChIJLVU5Es1xqDsRs7fEVhOFyEU?authuser=0&hl=en&rclk=1,"10.820229699999999,76.6279986"
Sunni Juma Masjid,Mosque,"QJXQ+CJC Sunni Juma Masjid, Railway Station Rd, Olavakode, Palakkad, Kerala 678002",Olavakode,"QJXQ+CJC, Railway Station Rd",Palakkad,678002,Kerala,IN,https://www.google.com/maps/place/Sunni+Juma+Masjid/data=!4m7!3m6!1s0x3ba871e0506c5e81:0x19fc9c2fb634eeba!8m2!3d10.7985667!4d76.6390023!16s%2Fg%2F1trtsrk_!19sChIJgV5sUOBxqDsRuu40ti-c_Bk?authuser=0&hl=en&rclk=1,"10.7985667,76.6390023"
Salafi Jumu'ah Masjid,Mosque,"QMCM+RW9 Salafi Jumu'ah Masjid, Pirivusala, Palakkad, Kerala",,"QMCM+RW9, Pirivusala",Palakkad,,Kerala,IN,https://www.google.com/maps/place/Salafi+Jumu%27ah+Masjid/data=!4m7!3m6!1s0x3ba86dd2feb79b15:0x7e5210a61030f46e!8m2!3d10.7720464!4d76.6848631!16s%2Fg%2F11csrvg7wh!19sChIJFZu3_tJtqDsRbvQwEKYQUn4?authuser=0&hl=en&rclk=1,"10.772046399999999,76.6848631"
Kurissamkulam Salafi Juma Masjid,Mosque,"Kurissamkulam Salafi Juma Masjid, 2nd miles, Palakkad - Ponnani Rd, Palakkad, Kerala 678006",Kavilpad,"2nd miles, Palakkad - Ponnani Rd","Palakkad, Pirayiri",678006,Kerala,IN,https://www.google.com/maps/place/Kurissamkulam+Salafi+Juma+Masjid/data=!4m7!3m6!1s0x3ba871f647abc907:0x972ad481716d865a!8m2!3d10.779664!4d76.6258163!16s%2Fg%2F1tj94w32!19sChIJB8mrR_ZxqDsRWoZtcYHUKpc?authuser=0&hl=en&rclk=1,"10.779664,76.6258163"
Kalmandapam Juma Masjid,Mosque,"Kalmandapam Juma Masjid, Juma Masjid, Coimbatore Rd, Prathiba Nagar, Kalmandapam, Palakkad, Kerala 678013","Prathiba Nagar, Kalmandapam","Juma Masjid, Coimbatore Rd",Palakkad,678013,Kerala,IN,https://www.google.com/maps/place/Kalmandapam+Juma+Masjid/data=!4m7!3m6!1s0x3ba86ddb0bb83777:0x989e70dc644c11a7!8m2!3d10.7715516!4d76.6718393!16s%2Fg%2F11x9jgf54!19sChIJdze4C9ttqDsRpxFMZNxwnpg?authuser=0&hl=en&rclk=1,"10.771551599999999,76.6718393"
Murikkavu Mosque,Mosque,"QM32+QR8 Murikkavu Mosque, AKG Nagar, Murikkavu, West Yakkara, Palakkad, Kerala 678001","Tippusulthan Nagar, Haritha Nagar, West Yakkara","QM32+QR8, AKG Nagar, Murikkavu, West Yakkara",Palakkad,678001,Kerala,IN,https://www.google.com/maps/place/Murikkavu+Mosque/data=!4m7!3m6!1s0x3ba86d856f780d95:0x38ea42108b66d5b1!8m2!3d10.7544127!4d76.6520721!16s%2Fg%2F11b6wlbklh!19sChIJlQ14b4VtqDsRsdVmixBC6jg?authuser=0&hl=en&rclk=1,"10.7544127,76.6520721"
Kalmandapam Sunni Jumma Masjid,Mosque,"QMFC+6C8 Kalmandapam Sunni Jumma Masjid, TKV Nagar, Kalmandapam, Palakkad, Kerala 605106","TKV Nagar, Kalmandapam",QMFC+6C8,"Kalmandapam, Palakkad",605106,Kerala,IN,https://www.google.com/maps/place/Kalmandapam+Sunni+Jumma+Masjid/data=!4m7!3m6!1s0x3ba86ddb9316646f:0x2daa7692e910944!8m2!3d10.7730263!4d76.6710723!16s%2Fg%2F1tcwddvs!19sChIJb2QWk9ttqDsRRAmRLmmn2gI?authuser=0&hl=en&rclk=1,"10.7730263,76.67107229999999"
Manjakulam Musjid,Mosque,"QJ9X+RQ6 Manjakulam Musjid, Valakkad, Palakkad, Kerala 678001",Valakkad,QJ9X+RQ6,Palakkad,678001,Kerala,IN,https://www.google.com/maps/place/Manjakulam+Musjid/data=!4m7!3m6!1s0x3ba86d06e13fbd05:0xcaf25cd88470112d!8m2!3d10.7695363!4d76.6493757!16s%2Fg%2F11g0dvd3xj!19sChIJBb0_4QZtqDsRLRFwhNhc8so?authuser=0&hl=en&rclk=1,"10.7695363,76.6493757"
Hanafi Urdu Juma Masjid Palakkad,Mosque,"QMH3+4X7 Hanafi Urdu Juma Masjid Palakkad, Daira St, Parakkunnam, Palakkad, Kerala 678001",Parakkunnam,"QMH3+4X7, Daira St",Palakkad,678001,Kerala,IN,https://www.google.com/maps/place/Hanafi+Urdu+Juma+Masjid+Palakkad/data=!4m7!3m6!1s0x3ba86de2ec62698d:0xf6a2594f6a224740!8m2!3d10.7777751!4d76.6549357!16s%2Fg%2F11bzyn7ck3!19sChIJjWli7OJtqDsRQEciak9ZovY?authuser=0&hl=en&rclk=1,"10.7777751,76.6549357"
pllllikkullN msjid/ Pallikkulam Juma masjid,Mosque,"QJ99+VP7 pllllikkullN msjid/ Pallikkulam Juma masjid, Thirunellayi, Palakkad, Pirayiri, Kerala 678004",Thirunellayi,QJ99+VP7,"Palakkad, Pirayiri",678004,Kerala,IN,https://www.google.com/maps/place/%E0%B4%AA%E0%B4%B3%E0%B5%8D%E0%B4%B3%E0%B4%BF%E0%B4%95%E0%B5%8D%E0%B4%95%E0%B5%81%E0%B4%B3%E0%B4%82+%E0%B4%AE%E0%B4%B8%E0%B5%8D%E0%B4%9C%E0%B4%BF%E0%B4%A6%E0%B5%8D%2F+Pallikkulam+Juma+masjid/data=!4m7!3m6!1s0x3ba872188a2fb7dd:0x8efb3641a5d2bf4d!8m2!3d10.7696691!4d76.6192891!16s%2Fg%2F1pyqmhcrp!19sChIJ3bcvihhyqDsRTb_SpUE2-44?authuser=0&hl=en&rclk=1,"10.7696691,76.6192891"
Shafi Juma Masjid,Mosque,"QJ8W+C63 Shafi Juma Masjid, Pudupalli Theruvu, Nurani, Palakkad, Kerala 678004","Pudupalli Theruvu, Nurani",QJ8W+C63,Palakkad,678004,Kerala,IN,https://www.google.com/maps/place/Shafi+Juma+Masjid/data=!4m7!3m6!1s0x3ba86df716326c75:0x53c006ae171e6c4a!8m2!3d10.7660064!4d76.6455538!16s%2Fg%2F11fy_4g3xz!19sChIJdWwyFvdtqDsRSmweF64GwFM?authuser=0&hl=en&rclk=1,"10.7660064,76.6455538"
Kadamkode Juma Masjid,Mosque,"QM5C+2WM Kadamkode Juma Masjid, Kadamkod, Kalmandapam, Cheruvathur, Palakkad, Kerala 678013","Kadamkod, Kalmandapam",QM5C+2WM,"Cheruvathur, Palakkad",678013,Kerala,IN,https://www.google.com/maps/place/Kadamkode+Juma+Masjid/data=!4m7!3m6!1s0x3ba86db89b2fdabb:0xd714e003dcaee911!8m2!3d10.7575833!4d76.6722931!16s%2Fg%2F11gcdnlmrf!19sChIJu9ovm7htqDsREemu3APgFNc?authuser=0&hl=en&rclk=1,"10.7575833,76.67229309999999"
Stadium Jama'at Islami Jumu'ah Masjid,Mosque,"QMF6+CJP Stadium Jama'at Islami Jumu'ah Masjid, Coimbatore Rd, Sheshadri Nagar, Koppam, Palakkad, Kerala 678013","Sheshadri Nagar, Koppam","QMF6+CJP, Coimbatore Rd",Palakkad,678013,Kerala,IN,https://www.google.com/maps/place/Stadium+Jama%27at+Islami+Jumu%27ah+Masjid/data=!4m7!3m6!1s0x3ba86de729bf4b7d:0x8aace888eac580aa!8m2!3d10.7735945!4d76.6615908!16s%2Fg%2F11c567tw6j!19sChIJfUu_KedtqDsRqoDF6ojorIo?authuser=0&hl=en&rclk=1,"10.7735945,76.6615908"
Hanafi Juma Masjid,Mosque,"QJ8X+W9F Hanafi Juma Masjid, Pudupalli Theruvu, Nurani, Palakkad, Kerala 678001","Pudupalli Theruvu, Nurani",QJ8X+W9F,Palakkad,678001,Kerala,IN,https://www.google.com/maps/place/Hanafi+Juma+Masjid/data=!4m7!3m6!1s0x3ba86df0bd1915a1:0x2decd84e4e480b93!8m2!3d10.7673194!4d76.6484083!16s%2Fg%2F1tmxc_kf!19sChIJoRUZvfBtqDsRkwtITk7Y7C0?authuser=0&hl=en&rclk=1,"10.7673194,76.6484083"
Erattayal Hanafi Jumua Masjid,Mosque,"QM7X+4F3 Erattayal Hanafi Jumua Masjid, Kodumba, Palakkad, Kerala 678007",Kodumba,QM7X+4F3,Palakkad,678007,Kerala,IN,https://www.google.com/maps/place/Erattayal+Hanafi+Jumua+Masjid/data=!4m7!3m6!1s0x3ba86c3763792a9b:0x3d4509f1b84cf34b!8m2!3d10.7627747!4d76.6986794!16s%2Fg%2F11c2099hbp!19sChIJmyp5YzdsqDsRS_NMuPEJRT0?authuser=0&hl=en&rclk=1,"10.7627747,76.6986794"
Arikkara Street Hanafi Juma Masjid,Mosque,"Arikkara Street Hanafi Juma Masjid, Harikkaratheruvu, Palakkad - Koduvayur - Meenakshipuram Hwy, Sultanpet, Palakkad, Kerala 678013",Sultanpet,"Harikkaratheruvu, Palakkad - Koduvayur - Meenakshipuram Hwy",Palakkad,678013,Kerala,IN,https://www.google.com/maps/place/Arikkara+Street+Hanafi+Juma+Masjid/data=!4m7!3m6!1s0x3ba86de67a51bbf3:0xa62b72a378f72c89!8m2!3d10.7707914!4d76.6588042!16s%2Fg%2F11c4btkms9!19sChIJ87tReuZtqDsRiSz3eKNyK6Y?authuser=0&hl=en&rclk=1,"10.7707914,76.65880419999999"
Havathul Juma Masjid,Mosque,"QMCQ+X2M Havathul Juma Masjid, Salem- Kanyakumari Highway(NH-47), Chandranagar Colony Extension, Palakkad, Kerala 678007",Chandranagar Colony Extension,"QMCQ+X2M, Salem- Kanyakumari Highway(NH-47)",Palakkad,678007,Kerala,IN,https://www.google.com/maps/place/Havathul+Juma+Masjid/data=!4m7!3m6!1s0x3ba86c2d2aa0f5f7:0x82f8d546dd8a1282!8m2!3d10.772465!4d76.687549!16s%2Fg%2F1pyqnq5rb!19sChIJ9_WgKi1sqDsRghKK3UbV-II?authuser=0&hl=en&rclk=1,"10.772464999999999,76.68754899999999"
Manthakkad Masjid,Mosque,"RM97+Q56 Manthakkad Masjid, Olavakode Malampuzha Road, Malampuzha-I, Kerala 678651",,"RM97+Q56, Olavakode Malampuzha Road",Malampuzha-I,678651,Kerala,IN,https://www.google.com/maps/place/Manthakkad+Masjid/data=!4m7!3m6!1s0x3ba86e49ff02014f:0x73526ecf771490fa!8m2!3d10.8181677!4d76.6646222!16s%2Fg%2F12hny60z8!19sChIJTwEC_0luqDsR-pAUd89uUnM?authuser=0&hl=en&rclk=1,"10.8181677,76.6646222"
Hanafi Juma Masjid,Mosque,"QMQF+3FV Hanafi Juma Masjid, Milma Rd, Kalepully, Palakkad, Kerala 678005",Kalepully,"QMQF+3FV, Milma Rd",Palakkad,678005,Kerala,IN,https://www.google.com/maps/place/Hanafi+Juma+Masjid/data=!4m7!3m6!1s0x3ba86e70fab524e7:0x8f270a9c8ff108fd!8m2!3d10.7877299!4d76.6736752!16s%2Fg%2F1ptw3_spx!19sChIJ5yS1-nBuqDsR_Qjxj5wKJ48?authuser=0&hl=en&rclk=1,"10.787729899999999,76.67367519999999"
Juma Masjid,Mosque,"RH9X+VXH Juma Masjid, National Highway 213, Palakkad, Kerala 500066",,"RH9X+VXH, National Highway 213",Palakkad,500066,Kerala,IN,https://www.google.com/maps/place/Juma+Masjid/data=!4m7!3m6!1s0x3ba871ab42996d71:0x3d83ce9bde718532!8m2!3d10.8196812!4d76.5999799!16s%2Fg%2F1td_3m8s!19sChIJcW2ZQqtxqDsRMoVx3pvOgz0?authuser=0&hl=en&rclk=1,"10.8196812,76.5999799"
Munavvara Sunni Juma Masjid,Mosque,"QJ5W+R9F Munavvara Sunni Juma Masjid, Karim Nagar, Palakkad, Kerala 678004","Tippusulthan Nagar, West Yakkara","QJ5W+R9F, Karim Nagar",Palakkad,678004,Kerala,IN,https://www.google.com/maps/place/Munavvara+Sunni+Juma+Masjid/data=!4m7!3m6!1s0x3ba86df48a19e8f9:0xc27f3a9d9d8e122f!8m2!3d10.7595621!4d76.6459223!16s%2Fg%2F11f0_gggmh!19sChIJ-egZivRtqDsRLxKOnZ06f8I?authuser=0&hl=en&rclk=1,"10.7595621,76.6459223"
Dakni Masjid,Mosque,"QMG3+8XR Dakni Masjid, Parakkunnam, Vidyut Nagar, Palakkad, Kerala 678001","Parakkunnam, Vidyut Nagar",QMG3+8XR,Palakkad,678001,Kerala,IN,https://www.google.com/maps/place/Dakni+Masjid/data=!4m7!3m6!1s0x3ba86de3106d96cf:0x499044b275641ff2!8m2!3d10.7758542!4d76.6548896!16s%2Fg%2F1pyqq5j4s!19sChIJz5ZtEONtqDsR8h9kdbJEkEk?authuser=0&hl=en&rclk=1,"10.7758542,76.65488959999999"
Chadanam Kurussi Shafi Juma Masjid,Mosque,"QJ3R+37W Chadanam Kurussi Shafi Juma Masjid, Chadanankurussi, Palakkad, Kerala 678004",Chadanankurussi,QJ3R+37W,Palakkad,678004,Kerala,IN,https://www.google.com/maps/place/Chadanam+Kurussi+Shafi+Juma+Masjid/data=!4m7!3m6!1s0x3ba872758db300d3:0xc0830f9cf54eca71!8m2!3d10.7527377!4d76.6407187!16s%2Fg%2F1pyqjws0k!19sChIJ0wCzjXVyqDsRccpO9ZwPg8A?authuser=0&hl=en&rclk=1,"10.752737699999999,76.6407187"
Masjidul Mujahideen Iruppakkad,Mosque,"QJ89+R7X Masjidul Mujahideen Iruppakkad, Iruppakkad, Palakkad, Pirayiri, Kerala 678014",Iruppakkad,QJ89+R7X,"Palakkad, Pirayiri",678014,Kerala,IN,https://www.google.com/maps/place/Masjidul+Mujahideen+Iruppakkad/data=!4m7!3m6!1s0x3ba87218076a0453:0x5b2d220d5a48245a!8m2!3d10.7671175!4d76.6182336!16s%2Fg%2F11cnb01p32!19sChIJUwRqBxhyqDsRWiRIWg0iLVs?authuser=0&hl=en&rclk=1,"10.7671175,76.6182336"
Masjidul Hudha,Mosque,"QJ6V+XPV Masjidul Hudha, Pudupalli Theruvu, Nurani, Palakkad, Kerala 678004","Pudupalli Theruvu, Nurani",QJ6V+XPV,Palakkad,678004,Kerala,IN,https://www.google.com/maps/place/Masjidul+Hudha/data=!4m7!3m6!1s0x3ba86df680583acd:0x34e239a18de58a1b!8m2!3d10.7624821!4d76.6442916!16s%2Fg%2F12mkw9bvz!19sChIJzTpYgPZtqDsRG4rljaE54jQ?authuser=0&hl=en&rclk=1,"10.7624821,76.6442916"
Thazhemurali Masjid,Mosque,"RJ6G+Q8G Thazhemurali Masjid, Puthuppariyaram, Palakkad, Kerala 678009",Puthuppariyaram,RJ6G+Q8G,"Puthuppariyaram, Palakkad",678009,Kerala,IN,https://www.google.com/maps/place/Thazhemurali+Masjid/data=!4m7!3m6!1s0x3ba871cf6f5d38f1:0x7fcc1ae249201a89!8m2!3d10.8119404!4d76.6258363!16s%2Fg%2F11dxjynxbn!19sChIJ8Thdb89xqDsRiRogSeIazH8?authuser=0&hl=en&rclk=1,"10.8119404,76.6258363"
Mosque,Mosque,"QMC5+6GX Mosque, Sultanpet, Palakkad, Kerala 678013",Sultanpet,QMC5+6GX,Palakkad,678013,Kerala,IN,https://www.google.com/maps/place/Mosque/data=!4m7!3m6!1s0x3ba86de679ea9d71:0x813a55f9b3caee06!8m2!3d10.7706134!4d76.6588687!16s%2Fg%2F11c53gqc_4!19sChIJcZ3qeeZtqDsRBu7Ks_lVOoE?authuser=0&hl=en&rclk=1,"10.7706134,76.6588687"
Hanafi Jamiya Masjid,Mosque,"QJFX+RR4 Hanafi Jamiya Masjid, Police Quarters, Vadakkanthara, Palakkad, Kerala 678001","Police Quarters, Vadakkanthara",QJFX+RR4,Palakkad,678001,Kerala,IN,https://www.google.com/maps/place/Hanafi+Jamiya+Masjid/data=!4m7!3m6!1s0x3ba86dfc8842b595:0x29a4f69dc7ec42fd!8m2!3d10.7745213!4d76.6495809!16s%2Fg%2F1hhkz3mqv!19sChIJlbVCiPxtqDsR_ULsx532pCk?authuser=0&hl=en&rclk=1,"10.7745213,76.64958089999999"
Mourid Al Abrar Juma Masjid Thabligh (Markaz),Mosque,"QMC3+9Q8 Mourid Al Abrar Juma Masjid Thabligh (Markaz), Santhi Nagar, Sultanpet, Palakkad, Kerala 678001","Santhi Nagar, Sultanpet",QMC3+9Q8,Palakkad,678001,Kerala,IN,https://www.google.com/maps/place/Mourid+Al+Abrar+Juma+Masjid+Thabligh+%28Markaz%29/data=!4m7!3m6!1s0x3ba86de51e4d75fb:0x571ac0c122a8fe0d!8m2!3d10.770907!4d76.654458!16s%2Fg%2F123333bx1!19sChIJ-3VNHuVtqDsRDf6oIsHAGlc?authuser=0&hl=en&rclk=1,"10.770907,76.65445799999999"
"Sunni Juma Masjid, Kavilpad",Mosque,"QJQJ+9VH Sunni Juma Masjid, Kavilpad, Mepparamba Kavilpad Rd, Pezhumkara, Kavilpad, Palakkad, Kerala 678017","Pezhumkara, Kavilpad","QJQJ+9VH, Mepparamba Kavilpad Rd",Palakkad,678017,Kerala,IN,"https://www.google.com/maps/place/Sunni+Juma+Masjid,+Kavilpad/data=!4m7!3m6!1s0x3ba871fadbdeb6fb:0x84a398886a74ee94!8m2!3d10.7884374!4d76.6322283!16s%2Fg%2F1pyqnb4kb!19sChIJ-7be2_pxqDsRlO50aoiYo4Q?authuser=0&hl=en&rclk=1","10.7884374,76.6322283"
Mosque,Mosque,"QJ4R+HM7 Mosque, Chadanankurussi, Palakkad, Kerala 678004",Chadanankurussi,QJ4R+HM7,Palakkad,678004,Kerala,IN,https://www.google.com/maps/place/Mosque/data=!4m7!3m6!1s0x3ba86d8aac0c319d:0xc59f4892e4db32c1!8m2!3d10.7564123!4d76.6416644!16s%2Fg%2F11c6rxxym3!19sChIJnTEMrIptqDsRwTLb5JJIn8U?authuser=0&hl=en&rclk=1,"10.7564123,76.6416644"
City Juma Masjid,Mosque,"QMC2+Q75 City Juma Masjid, Valakkad, Palakkad, Kerala 678001",Valakkad,QMC2+Q75,Palakkad,678001,Kerala,IN,https://www.google.com/maps/place/City+Juma+Masjid/data=!4m7!3m6!1s0x3ba86dfb0912bb15:0x3c126cb738f62ab4!8m2!3d10.7718821!4d76.6507413!16s%2Fg%2F11b_01j0zr!19sChIJFbsSCfttqDsRtCr2OLdsEjw?authuser=0&hl=en&rclk=1,"10.7718821,76.65074129999999"
Salafi Juma Masjid,Mosque,"QM64+JQR Salafi Juma Masjid, S Fort Rd, Kenathuparambu, Kunathurmedu, Palakkad, Kerala 678001","Kenathuparambu, Kunathurmedu","QM64+JQR, S Fort Rd",Palakkad,678001,Kerala,IN,https://www.google.com/maps/place/Salafi+Juma+Masjid/data=!4m7!3m6!1s0x3ba86dedc5d3290b:0xbf74b6a185d186fe!8m2!3d10.7616124!4d76.6568796!16s%2Fg%2F11bw5_f9xs!19sChIJCynTxe1tqDsR_obRhaG2dL8?authuser=0&hl=en&rclk=1,"10.761612399999999,76.6568796"
Salafi Juma Masjid,Mosque,"QJ7W+G8H Salafi Juma Masjid, Pudupalli Theruvu, Nurani, Palakkad, Kerala 678004","Pudupalli Theruvu, Nurani",QJ7W+G8H,Palakkad,678004,Kerala,IN,https://www.google.com/maps/place/Salafi+Juma+Masjid/data=!4m7!3m6!1s0x3ba86df6c0911bef:0xef4ce9e7a3fcf042!8m2!3d10.763819!4d76.645844!16s%2Fg%2F1pyqjlrwn!19sChIJ7xuRwPZtqDsRQvD8o-fpTO8?authuser=0&hl=en&rclk=1,"10.763819,76.645844"
Hidhayatul Islam Shafi Juma-Masjid,Mosque,"QJ6W+Q4R Hidhayatul Islam Shafi Juma-Masjid, Unnamed Road, Pudupalli Theruvu, Nurani, Palakkad, Kerala 678004","Pudupalli Theruvu, Nurani","QJ6W+Q4R, Unnamed Road",Palakkad,678004,Kerala,IN,https://www.google.com/maps/place/Hidhayatul+Islam+Shafi+Juma-Masjid/data=!4m7!3m6!1s0x3ba86df423db52d5:0xf75c07e171275686!8m2!3d10.7619762!4d76.6452702!16s%2Fg%2F11c6zxh0x6!19sChIJ1VLbI_RtqDsRhlYnceEHXPc?authuser=0&hl=en&rclk=1,"10.7619762,76.6452702"
Kalima Nagar Masjid,Mosque,"QJ7H+RQX Kalima Nagar Masjid, Thirunellayi, Palakkad, Kerala 678004",Thirunellayi,QJ7H+RQX,Palakkad,678004,Kerala,IN,https://www.google.com/maps/place/Kalima+Nagar+Masjid/data=!4m7!3m6!1s0x3ba87211d17e4b6f:0xa83c2eed30543bd!8m2!3d10.7646083!4d76.6294851!16s%2Fg%2F11d_d2jqrt!19sChIJb0t-0RFyqDsRvUMF0-7Cgwo?authuser=0&hl=en&rclk=1,"10.764608299999999,76.6294851"
"Hanafi Juma Masjid, Narikuthy",Mosque,"Hanafi Juma Masjid, Narikuthy, Parakkunnam, Palakkad, Kerala 678001",Parakkunnam,,Palakkad,678001,Kerala,IN,"https://www.google.com/maps/place/Hanafi+Juma+Masjid,+Narikuthy/data=!4m7!3m6!1s0x3ba86e0797a2ce27:0x7ffce8cc2235ecf3!8m2!3d10.7803912!4d76.6507554!16s%2Fg%2F11fxvyqhqq!19sChIJJ86ilwduqDsR8-w1Iszo_H8?authuser=0&hl=en&rclk=1","10.7803912,76.6507554"
Athar Jhamath Masjid,Mosque,"QMG3+8GX Athar Jhamath Masjid, Mettuppalayam St, Parakkunnam, Vidyut Nagar, Palakkad, Kerala 678001","Parakkunnam, Vidyut Nagar","QMG3+8GX, Mettuppalayam St",Palakkad,678001,Kerala,IN,https://www.google.com/maps/place/Athar+Jhamath+Masjid/data=!4m7!3m6!1s0x3ba86de324c7541d:0xe8195d0e1ccc3846!8m2!3d10.7758691!4d76.6538469!16s%2Fg%2F1pyqq1lnk!19sChIJHVTHJONtqDsRRjjMHA5dGeg?authuser=0&hl=en&rclk=1,"10.7758691,76.65384689999999"
Ansarrul Islam Sunni Juma Masjid,Mosque,"QJCH+23H Ansarrul Islam Sunni Juma Masjid, Krishna Nagar Rd, Junction, Pirayiri, Palakkad, Kerala 678004",Junction,"QJCH+23H, Krishna Nagar Rd","Pirayiri, Palakkad",678004,Kerala,IN,https://www.google.com/maps/place/Ansarrul+Islam+Sunni+Juma+Masjid/data=!4m7!3m6!1s0x3ba8721b1c5449fd:0xa9e2be2d7ff488eb!8m2!3d10.770056!4d76.627746!16s%2Fg%2F11f0l1sv03!19sChIJ_UlUHBtyqDsR64j0fy2-4qk?authuser=0&hl=en&rclk=1,"10.770056,76.627746"
Kallikkad Juma Masjid,Mosque,"QJ9P+62W Kallikkad Juma Masjid, Kallikkad, Pallippuram, Palakkad, Kerala 678004","Kallikkad, Pallippuram",QJ9P+62W,Palakkad,678004,Kerala,IN,https://www.google.com/maps/place/Kallikkad+Juma+Masjid/data=!4m7!3m6!1s0x3ba87369f70613cb:0x5f33b98ace205801!8m2!3d10.7681207!4d76.6350866!16s%2Fg%2F11hzgt2yzm!19sChIJyxMG92lzqDsRAVggzoq5M18?authuser=0&hl=en&rclk=1,"10.768120699999999,76.6350866"
Salafi Masjid,Mosque,"QJQR+8JM Salafi Masjid, Jainmedu, Vadakkanthara, Palakkad, Kerala 678001","Jainmedu, Vadakkanthara",QJQR+8JM,Palakkad,678001,Kerala,IN,https://www.google.com/maps/place/Salafi+Masjid/data=!4m7!3m6!1s0x3ba86e029f421ccf:0x162d17f15e778ef5!8m2!3d10.7883478!4d76.6415514!16s%2Fg%2F1pyqryh6_!19sChIJzxxCnwJuqDsR9Y53XvEXLRY?authuser=0&hl=en&rclk=1,"10.7883478,76.6415514"
Kallelkulangara Masjid,Mosque,"RJ6P+3C2 Kallelkulangara Masjid, Kallekkulangara, Puthuppariyaram, Palakkad, Kerala 678009","Kallekkulangara, Puthuppariyaram",RJ6P+3C2,Palakkad,678009,Kerala,IN,https://www.google.com/maps/place/Kallelkulangara+Masjid/data=!4m7!3m6!1s0x3ba871d9f2ca7d59:0x833f0a20636656ee!8m2!3d10.8101463!4d76.6360294!16s%2Fg%2F1tdkf1__!19sChIJWX3K8tlxqDsR7lZmYyAKP4M?authuser=0&hl=en&rclk=1,"10.8101463,76.6360294"
Hanafi Juma Masjid,Mosque,"QJCV+FR4 Hanafi Juma Masjid, Chakkanthara, Palakkad, Kerala 678006",Chakkanthara,QJCV+FR4,Palakkad,678006,Kerala,IN,https://www.google.com/maps/place/Hanafi+Juma+Masjid/data=!4m7!3m6!1s0x3ba86df91ab558a3:0x8e9df15ecab4290!8m2!3d10.7711425!4d76.6445689!16s%2Fg%2F1pyqknv22!19sChIJo1i1GvltqDsRkEKr7BXf6Qg?authuser=0&hl=en&rclk=1,"10.7711425,76.6445689"
Mukram Palli Hanafi Jamia Masjid,Mosque,"QMCQ+X2W Mukram Palli Hanafi Jamia Masjid, Salem-Ernakulam Highway, Koottupaatha, Palakkad, Kerala 678007",Koottupaatha,"QMCQ+X2W, Salem-Ernakulam Highway",Palakkad,678007,Kerala,IN,https://www.google.com/maps/place/Mukram+Palli+Hanafi+Jamia+Masjid/data=!4m7!3m6!1s0x3ba86c2cd5593447:0x5ba87bf9c0fc3023!8m2!3d10.772499!4d76.6875797!16s%2Fg%2F1hhxtkt0t!19sChIJRzRZ1SxsqDsRIzD8wPl7qFs?authuser=0&hl=en&rclk=1,"10.772499,76.6875797"
"Masjithul Falah - Juma Masjid, Sanguvarathode",Mosque,"QJQW+5CH Masjithul Falah - Juma Masjid, Sanguvarathode, Chunnambuthara, Vadakkanthara, Palakkad, Kerala 678003","Chunnambuthara, Vadakkanthara",QJQW+5CH,Palakkad,678003,Kerala,IN,"https://www.google.com/maps/place/Masjithul+Falah+-+Juma+Masjid,+Sanguvarathode/data=!4m7!3m6!1s0x3ba86e0313346daf:0xe5344d797b73d685!8m2!3d10.7879292!4d76.6461175!16s%2Fg%2F1pyqgcf9j!19sChIJr200EwNuqDsRhdZze3lNNOU?authuser=0&hl=en&rclk=1","10.787929199999999,76.6461175"
Kallekkad Juma Masjid,Mosque,"Kallekkad Juma Masjid, madrasa & Mosque, misbahul islam, Kallekkad, Palakkad, Kerala 678006",Kallekkad,"madrasa & Mosque, misbahul islam","Palakkad, Pirayiri",678006,Kerala,IN,https://www.google.com/maps/place/Kallekkad+Juma+Masjid/data=!4m7!3m6!1s0x3ba8714d378a2c31:0xdc7ac801427f834e!8m2!3d10.7844476!4d76.6057281!16s%2Fg%2F11h2fvfj2g!19sChIJMSyKN01xqDsRToN_QgHIetw?authuser=0&hl=en&rclk=1,"10.7844476,76.6057281"
Masjidhul Islah,Mosque,"QJGG+H59 Masjidhul Islah, Mepparambu - Kallekkad Sub Rd, Mepparambu, Thirunellayi, Pirayiri, Kerala 678006","Mepparambu, Thirunellayi","QJGG+H59, Mepparambu - Kallekkad Sub Rd",Pirayiri,678006,Kerala,IN,https://www.google.com/maps/place/Masjidhul+Islah/data=!4m7!3m6!1s0x3ba8721dbf6ac51d:0x3c1a5e93190f5902!8m2!3d10.7764106!4d76.6254732!16s%2Fg%2F11c0tky855!19sChIJHcVqvx1yqDsRAlkPGZNeGjw?authuser=0&hl=en&rclk=1,"10.7764106,76.6254732"
Vadeenoor Stadium Hanafi Jumua Masjid,Mosque,"Vadeenoor Stadium Hanafi Jumua Masjid, 678013, Mankavu, Palakkad, Kerala 678013",Mankavu,678013,Palakkad,678013,Kerala,IN,https://www.google.com/maps/place/Vadeenoor+Stadium+Hanafi+Jumua+Masjid/data=!4m7!3m6!1s0x3ba86de0acd9c831:0x1ea44b030e4ce5ab!8m2!3d10.7742466!4d76.6638449!16s%2Fg%2F11fzyt77_t!19sChIJMcjZrOBtqDsRq-VMDgNLpB4?authuser=0&hl=en&rclk=1,"10.7742466,76.6638449"
Pirivushala salafi center,Mosque,"QMCM+VJ3 Pirivushala salafi center, Palakkad, Kerala 678007",,QMCM+VJ3,Palakkad,,Kerala,IN,https://www.google.com/maps/place/Pirivushala+salafi+center/data=!4m7!3m6!1s0x3ba86d0b31a4f0ff:0x375ce4214a1ec8e7!8m2!3d10.7721443!4d76.6840443!16s%2Fg%2F11h6lqkf1m!19sChIJ__CkMQttqDsR58geSiHkXDc?authuser=0&hl=en&rclk=1,"10.772144299999999,76.6840443"
Noor Masjid (Mrkz),Mosque,"QJGF+VF3 Noor Masjid (Mrkz), mepparamb, Kunnath Paramb Rd, Kalpakanchery, Kerala 676551",Thirunellayi,"QJGF+VF3, mepparamb, Kunnath Paramb Rd","Kalpakanchery, Pirayiri",676551,Kerala,IN,https://www.google.com/maps/place/Noor+Masjid+%28Mrkz%29/data=!4m7!3m6!1s0x3ba8721e08f933b5:0xe6528147a456aa!8m2!3d10.777143!4d76.6236693!16s%2Fg%2F11c6ml1yw_!19sChIJtTP5CB5yqDsRqlakR4FS5gA?authuser=0&hl=en&rclk=1,"10.777142999999999,76.6236693"
Al Farook Juma Masjid,Mosque,"QJH9+QXH Al Farook Juma Masjid, Thirunellayi, Palakkad, Pirayiri, Kerala 678006",Thirunellayi,QJH9+QXH,"Palakkad, Pirayiri",678006,Kerala,IN,https://www.google.com/maps/place/Al+Farook+Juma+Masjid/data=!4m7!3m6!1s0x3ba871f57a1cc241:0x23e353692268e8c!8m2!3d10.7794376!4d76.619986!16s%2Fg%2F11g02cq64x!19sChIJQcIcevVxqDsRjI4mkjY1PgI?authuser=0&hl=en&rclk=1,"10.7794376,76.619986"
Ahmadiyya Masjid Palakkad,Mosque,"QJJC+XGX Ahmadiyya Masjid Palakkad, Thirunellayi, Palakkad, Pirayiri, Kerala 678006",Thirunellayi,QJJC+XGX,"Palakkad, Pirayiri",678006,Kerala,IN,https://www.google.com/maps/place/Ahmadiyya+Masjid+Palakkad/data=!4m7!3m6!1s0x3ba87186b79cffeb:0x562637edbae49009!8m2!3d10.7824774!4d76.621356!16s%2Fg%2F11h22ph_s9!19sChIJ6_-ct4ZxqDsRCZDkuu03JlY?authuser=0&hl=en&rclk=1,"10.7824774,76.62135599999999"
Civil Station Juma Masjid ( Mujahid),Mosque,"QM64+MQ2 Civil Station Juma Masjid ( Mujahid), Kenathuparambu, Kunathurmedu, Palakkad, Kerala 678001","Kenathuparambu, Kunathurmedu",QM64+MQ2,Palakkad,678001,Kerala,IN,https://www.google.com/maps/place/Civil+Station+Juma+Masjid+%28+Mujahid%29/data=!4m7!3m6!1s0x3ba86d5f9b721343:0x122d847edff252a4!8m2!3d10.7616425!4d76.656897!16s%2Fg%2F11gl5klfxm!19sChIJQxNym19tqDsRpFLy336ELRI?authuser=0&hl=en&rclk=1,"10.761642499999999,76.656897"
Hanafi Juma Masjid,Mosque,"QJQW+F6R Hanafi Juma Masjid, Chunnambuthara, Vadakkanthara, Palakkad, Kerala 678003","Chunnambuthara, Vadakkanthara",QJQW+F6R,Palakkad,678003,Kerala,IN,https://www.google.com/maps/place/Hanafi+Juma+Masjid/data=!4m7!3m6!1s0x3ba86e033fa004eb:0x8a8be35a10ae86ec!8m2!3d10.788737!4d76.645511!16s%2Fg%2F1pyqnylxf!19sChIJ6wSgPwNuqDsR7IauEFrji4o?authuser=0&hl=en&rclk=1,"10.788737,76.645511"
Hayathul Islam Madrassa & Masjid,Mosque,"QJVG+GVP Hayathul Islam Madrassa & Masjid, Kavilpad, Palakkad, Kerala 678009",Kavilpad,QJVG+GVP,Palakkad,678009,Kerala,IN,https://www.google.com/maps/place/Hayathul+Islam+Madrassa+%26+Masjid/data=!4m7!3m6!1s0x3ba871ef25d79031:0xf66d930acb8391f2!8m2!3d10.7938399!4d76.6271995!16s%2Fg%2F11f0kvd1xz!19sChIJMZDXJe9xqDsR8pGDywqTbfY?authuser=0&hl=en&rclk=1,"10.7938399,76.6271995"
Thassarack Masjid,Mosque,"Thassarack Masjid, Kannadi Rd, Kannadi-II, Kerala 678701",,Kannadi Rd,Kannadi-II,678701,Kerala,IN,https://www.google.com/maps/place/Thassarack+Masjid/data=!4m7!3m6!1s0x3ba86d02b24a1135:0xe8fc027b5da3ad8b!8m2!3d10.7468414!4d76.6494424!16s%2Fg%2F11bytpn80_!19sChIJNRFKsgJtqDsRi62jXXsC_Og?authuser=0&hl=en&rclk=1,"10.7468414,76.6494424"
Mujahidin Masjid,Mosque,"QJCW+M43 Mujahidin Masjid, Chakkanthara, Palakkad, Kerala 678006",Chakkanthara,QJCW+M43,Palakkad,678006,Kerala,IN,https://www.google.com/maps/place/Mujahidin+Masjid/data=!4m7!3m6!1s0x3ba86df914078453:0x23e62b8f339f71db!8m2!3d10.7716456!4d76.6452959!16s%2Fg%2F1pyqhqgkm!19sChIJU4QHFPltqDsR23GfM48r5iM?authuser=0&hl=en&rclk=1,"10.7716456,76.6452959"
Vahdi Rahma masjid,Mosque,"QPG5+G9G Vahdi Rahma masjid, NH544, Pudussery West, Kerala 678622",,"QPG5+G9G, NH544",Pudussery West,678622,Kerala,IN,https://www.google.com/maps/place/Vahdi+Rahma+masjid/data=!4m7!3m6!1s0x3ba86d12d66bd6d9:0x1fddbbd3d8b35ae1!8m2!3d10.7763206!4d76.7084538!16s%2Fg%2F11flgbrh2g!19sChIJ2dZr1hJtqDsR4Vqz2NO73R8?authuser=0&hl=en&rclk=1,"10.7763206,76.7084538"
Salafi Juma Masjid,Mosque,"QJ6M+CM6 Salafi Juma Masjid, West Vennakkara, Nurani, Palakkad, Kerala 678004","West Vennakkara, Nurani",QJ6M+CM6,Palakkad,678004,Kerala,IN,https://www.google.com/maps/place/Salafi+Juma+Masjid/data=!4m7!3m6!1s0x3ba8720c17b707e7:0x2c8ffb47e9758a69!8m2!3d10.761049!4d76.634153!16s%2Fg%2F1pyqs4gfq!19sChIJ5we3FwxyqDsRaYp16Uf7jyw?authuser=0&hl=en&rclk=1,"10.761049,76.634153"
Sunni Juma Masjid,Mosque,"QJPR+PCQ Sunni Juma Masjid, Jainmedu, Vadakkanthara, Palakkad, Kerala 678012","Jainmedu, Vadakkanthara",QJPR+PCQ,Palakkad,678012,Kerala,IN,https://www.google.com/maps/place/Sunni+Juma+Masjid/data=!4m7!3m6!1s0x3ba871f4bd8da7a5:0xf25aeee2fc92f371!8m2!3d10.7868489!4d76.6411075!16s%2Fg%2F11g234_00_!19sChIJpaeNvfRxqDsRcfOS_OLuWvI?authuser=0&hl=en&rclk=1,"10.786848899999999,76.64110749999999"
Salafi Juma Masjid,Mosque,"QMQF+9VC Salafi Juma Masjid, Kuzhiyakkad Rd, Kalepully, Palakkad, Kerala 678005",Kalepully,"QMQF+9VC, Kuzhiyakkad Rd",Palakkad,678005,Kerala,IN,https://www.google.com/maps/place/Salafi+Juma+Masjid/data=!4m7!3m6!1s0x3ba86e708a844591:0x180adf34d07ee919!8m2!3d10.7884281!4d76.6746287!16s%2Fg%2F11b8t74djd!19sChIJkUWEinBuqDsRGel-0DTfChg?authuser=0&hl=en&rclk=1,"10.788428099999999,76.6746287"
Jamia Masjid,Mosque,"RJ49+JQ4 Jamia Masjid, Kozhikode - Palakkad Hwy, Puthuppariyaram, Palakkad, Kerala 678009",Puthuppariyaram,"RJ49+JQ4, Kozhikode - Palakkad Hwy",Palakkad,678009,Kerala,IN,https://www.google.com/maps/place/Jamia+Masjid/data=!4m7!3m6!1s0x3ba871c765a2273f:0x7d103c2e8c5eb5cd!8m2!3d10.8065125!4d76.6194462!16s%2Fg%2F1pyqmrwvj!19sChIJPyeiZcdxqDsRzbVejC48EH0?authuser=0&hl=en&rclk=1,"10.8065125,76.6194462"
Masjid Alhikma,Mosque,"QJCH+CX4 Masjid Alhikma, Thirunellayi, Pirayiri, Kerala 678006",Thirunellayi,QJCH+CX4,Pirayiri,678006,Kerala,IN,https://www.google.com/maps/place/Masjid+Alhikma/data=!4m7!3m6!1s0x3ba87388c671988f:0x5be564359480bf1c!8m2!3d10.7710238!4d76.6299428!16s%2Fg%2F11rmryw8c4!19sChIJj5hxxohzqDsRHL-AlDVk5Vs?authuser=0&hl=en&rclk=1,"10.7710238,76.6299428"
Pezhumkara Juma Masjid,Mosque,"QJMM+5C2 Pezhumkara Juma Masjid, Mepparamba Kavilpad Rd, Pezhumkara, Moothanthara, Kavilpad, Palakkad, Pirayiri, Kerala 678012","Pezhumkara, Moothanthara, Kavilpad","QJMM+5C2, Mepparamba Kavilpad Rd","Palakkad, Pirayiri",678012,Kerala,IN,https://www.google.com/maps/place/Pezhumkara+Juma+Masjid/data=!4m7!3m6!1s0x3ba8715435cc3cad:0xadbd412be5455d60!8m2!3d10.782887!4d76.6335205!16s%2Fg%2F11lh6gfrz1!19sChIJrTzMNVRxqDsRYF1F5StBva0?authuser=0&hl=en&rclk=1,"10.782886999999999,76.6335205"
Manalanchery Masjid,Mosque,"Manalanchery Masjid, Sekharipuram, Manalanchery, Palakkad, Kerala 678010","Sekharipuram, Manalanchery",,Palakkad,,Kerala,IN,https://www.google.com/maps/place/Manalanchery+Masjid/data=!4m7!3m6!1s0x3ba86e0f11009ce5:0xf4bd41a6f17e5627!8m2!3d10.7867303!4d76.6547932!16s%2Fg%2F11gfkjrxj_!19sChIJ5ZwAEQ9uqDsRJ1Z-8aZBvfQ?authuser=0&hl=en&rclk=1,"10.7867303,76.6547932"
Salafi Masjid,Mosque,"QJG9+X7X Salafi Masjid, Thirunellayi, Palakkad, Pirayiri, Kerala 678006",Thirunellayi,QJG9+X7X,"Palakkad, Pirayiri",678006,Kerala,IN,https://www.google.com/maps/place/Salafi+Masjid/data=!4m7!3m6!1s0x3ba87316875d8217:0x9c9689b586589b9c!8m2!3d10.7774824!4d76.6182245!16s%2Fg%2F11h_kggm2k!19sChIJF4JdhxZzqDsRnJtYhrWJlpw?authuser=0&hl=en&rclk=1,"10.7774824,76.6182245"
MASJID MADRASATHUL ULOOM MANALANJERY,Mosque,"QJ6F+5MC MASJID MADRASATHUL ULOOM MANALANJERY, Thirunellayi, Palakkad, Pirayiri, Kerala 678004",Thirunellayi,QJ6F+5MC,"Palakkad, Pirayiri",678004,Kerala,IN,https://www.google.com/maps/place/MASJID+MADRASATHUL+ULOOM+MANALANJERY/data=!4m7!3m6!1s0x3ba87397515b1fbb:0x5d8992947bb9751d!8m2!3d10.760437!4d76.6241259!16s%2Fg%2F11fltwc2dw!19sChIJux9bUZdzqDsRHXW5e5SSiV0?authuser=0&hl=en&rclk=1,"10.760437,76.6241259"
Masjed Norah,Mosque,"QMCF+84M Masjed Norah, Prathiba Nagar, Kalmandapam, Palakkad, Kerala 678013","Prathiba Nagar, Kalmandapam",QMCF+84M,Palakkad,678013,Kerala,IN,https://www.google.com/maps/place/Masjed+Norah/data=!4m7!3m6!1s0x3ba86ddb1c2ff7a3:0xdb79f06b93785dbb!8m2!3d10.7708367!4d76.6728098!16s%2Fg%2F11f50szfzh!19sChIJo_cvHNttqDsRu114k2vweds?authuser=0&hl=en&rclk=1,"10.7708367,76.6728098"
Pookkarathottam Salfi Madrasa,Mosque,"QJVR+H78 Pookkarathottam Salfi Madrasa, Pookkarathottam, Olavakode, Palakkad, Kerala 678002","Pookkarathottam, Olavakode",QJVR+H78,Palakkad,678002,Kerala,IN,https://www.google.com/maps/place/Pookkarathottam+Salfi+Madrasa/data=!4m7!3m6!1s0x3ba871e20d28b2c5:0xa4d4d38195509711!8m2!3d10.793913!4d76.6407074!16s%2Fg%2F11g9qv369m!19sChIJxbIoDeJxqDsREZdQlYHT1KQ?authuser=0&hl=en&rclk=1,"10.793913,76.6407074"
Al Rashidiyya Juma masjid,Mosque,"QJP9+CG8 Al Rashidiyya Juma masjid, Unnamed Road, Kavilpad, Palakkad, Pirayiri, Kerala 678012",Kavilpad,"QJP9+CG8, Unnamed Road","Palakkad, Pirayiri",678012,Kerala,IN,https://www.google.com/maps/place/Al+Rashidiyya+Juma+masjid/data=!4m7!3m6!1s0x3ba871bea32f0a53:0x6537a0626af65c8b!8m2!3d10.7860423!4d76.6188287!16s%2Fg%2F11lfcqjnn_!19sChIJUwovo75xqDsRi1z2amKgN2U?authuser=0&hl=en&rclk=1,"10.7860423,76.6188287"
Valiyangadi Juma masjid,Mosque,"Valiyangadi Juma masjid, Valiyangadi, Palakkad, Kerala 678014",Valiyangadi,,Palakkad,678014,Kerala,IN,https://www.google.com/maps/place/Valiyangadi+Juma+masjid/data=!4m7!3m6!1s0x3ba86d5e0411c403:0x25731ec5e4441194!8m2!3d10.773382!4d76.6464537!16s%2Fg%2F11j8xjhv8v!19sChIJA8QRBF5tqDsRlBFE5MUecyU?authuser=0&hl=en&rclk=1,"10.773382,76.6464537"
Masjid Al furqan,Mosque,"QJ5R+8M Masjid Al furqan, Chadanankurussi, Palakkad, Kerala 678004",Chadanankurussi,QJ5R+8M,Palakkad,,Kerala,IN,https://www.google.com/maps/place/Masjid+Al+furqan/data=!4m7!3m6!1s0x3ba86d96d4c8a927:0xbcd552363794b83d!8m2!3d10.7583128!4d76.6416892!16s%2Fg%2F11p739cf41!19sChIJJ6nI1JZtqDsRPbiUNzZS1bw?authuser=0&hl=en&rclk=1,"10.758312799999999,76.6416892"
Mosque,Mosque,"QMJ7+22R Mosque, Kozhikode - Palakkad Hwy, Koppam, Palakkad, Kerala 678014",Koppam,"QMJ7+22R, Kozhikode - Palakkad Hwy",Palakkad,678014,Kerala,IN,https://www.google.com/maps/place/Mosque/data=!4m7!3m6!1s0x3ba86f9649b5b595:0xc5b6c462f1750902!8m2!3d10.7800161!4d76.6622002!16s%2Fg%2F11sybr1gcd!19sChIJlbW1SZZvqDsRAgl18WLEtsU?authuser=0&hl=en&rclk=1,"10.7800161,76.6622002"
Masjidul mujahidheen kallikkad,Mosque,"QJ8J+PMJ Masjidul mujahidheen kallikkad, Kallikkad, Pallippuram, Palakkad, Kerala 678004","Kallikkad, Pallippuram",QJ8J+PMJ,Palakkad,678004,Kerala,IN,https://www.google.com/maps/place/Masjidul+mujahidheen+kallikkad/data=!4m7!3m6!1s0x3ba873fba28cc9b3:0xdc80c9f09381e615!8m2!3d10.7668453!4d76.6316348!16s%2Fg%2F11rq28w2tg!19sChIJs8mMovtzqDsRFeaBk_DJgNw?authuser=0&hl=en&rclk=1,"10.7668453,76.6316348"
Muhiyudheen Masjid Valiyangadi,Mosque,"QJFW+9HP Muhiyudheen Masjid Valiyangadi, Valiyangadi, Valakkad, Palakkad, Kerala 678001","Valiyangadi, Valakkad",QJFW+9HP,Palakkad,,Kerala,IN,https://www.google.com/maps/place/Muhiyudheen+Masjid+Valiyangadi/data=!4m7!3m6!1s0x3ba86db4ba7bc08b:0xd5d75e28c3520651!8m2!3d10.7734575!4d76.6464575!16s%2Fg%2F11j3r_679q!19sChIJi8B7urRtqDsRUQZSwyhe19U?authuser=0&hl=en&rclk=1,"10.7734575,76.6464575"
Saddam junction,Mosque,"QJ7W+HFJ Saddam junction, Unnamed Road, Pudupalli Theruvu, Nurani, Palakkad, Kerala 678004","Pudupalli Theruvu, Nurani","QJ7W+HFJ, Unnamed Road",Palakkad,678004,Kerala,IN,https://www.google.com/maps/place/Saddam+junction/data=!4m7!3m6!1s0x3ba86dd7571a003d:0xe7b8305782eef191!8m2!3d10.7639703!4d76.6461358!16s%2Fg%2F11rc0ffpy3!19sChIJPQAaV9dtqDsRkfHuglcwuOc?authuser=0&hl=en&rclk=1,"10.763970299999999,76.6461358"
Sunniya jumma masjid,Mosque,"QJGG+8VH Sunniya jumma masjid, Mepparambu - Kallekkad Sub Rd, Mepparambu, Thirunellayi, Palakkad, Pirayiri, Kerala 678006","Mepparambu, Thirunellayi","QJGG+8VH, Mepparambu - Kallekkad Sub Rd","Palakkad, Pirayiri",678006,Kerala,IN,https://www.google.com/maps/place/Sunniya+jumma+masjid/data=!4m7!3m6!1s0x3ba873b2849217c7:0x6242bcfbb7e3b527!8m2!3d10.775805!4d76.6272326!16s%2Fg%2F11h8k9vg9v!19sChIJxxeShLJzqDsRJ7Xjt_u8QmI?authuser=0&hl=en&rclk=1,"10.775805,76.6272326"
"Masjidunnoor, Pezumkara",Mosque,"Masjidunnoor, Pezumkara, 4/194, Mepparamba Kavilpad Bypass Rd, Pezhumkara, Mepparamba, Pirayiri, Mepparamba Kavilpad Rd, Pezhumkara, Moothanthara, Kavilpad, Pirayiri, Kerala 678006","Pezhumkara, Moothanthara, Kavilpad","4/194, Mepparamba Kavilpad Bypass Rd, Pezhumkara, Mepparamba, Pirayiri, Mepparamba Kavilpad Rd",Pirayiri,678006,Kerala,IN,"https://www.google.com/maps/place/Masjidunnoor,+Pezumkara/data=!4m7!3m6!1s0x3ba871f8bb8489d1:0x9b56cecc8b987d85!8m2!3d10.7793187!4d76.6344461!16s%2Fg%2F11g6bkhs05!19sChIJ0YmEu_hxqDsRhX2Yi8zOVps?authuser=0&hl=en&rclk=1","10.7793187,76.63444609999999"
M.A.AKBAR MEMORIAL,Mosque,"QM92+4QC M.A.AKBAR MEMORIAL, Hajees Complex, English Church Rd, near Mission School, Thayilpatti, Sultanpet, Palakkad, Kerala 678001","Thayilpatti, Sultanpet","QM92+4QC Hajees Complex, English Church Rd, near Mission School",Palakkad,678001,Kerala,IN,https://www.google.com/maps/place/M.A.AKBAR+MEMORIAL/data=!4m7!3m6!1s0x3ba86d9902b1a7b1:0xe3a76ae3ec70fd5b!8m2!3d10.7677291!4d76.6519885!16s%2Fg%2F11v6cdpcg7!19sChIJsaexApltqDsRW_1w7ONqp-M?authuser=0&hl=en&rclk=1,"10.7677291,76.6519885"
ICC Town Juma Masjid Palakkad,Mosque,"QMC7+MJG ICC Town Juma Masjid Palakkad, Indira Nagar, Selvapalayam, Palakkad, Kerala 678001","Indira Nagar, Selvapalayam",QMC7+MJG,Palakkad,678001,Kerala,IN,https://www.google.com/maps/place/ICC+Town+Juma+Masjid+Palakkad/data=!4m7!3m6!1s0x3ba86ddea7c85d6d:0x90943608dc6ec716!8m2!3d10.7717464!4d76.6640287!16s%2Fg%2F11k45v09fs!19sChIJbV3Ip95tqDsRFsdu3Ag2lJA?authuser=0&hl=en&rclk=1,"10.7717464,76.6640287"
Milakudeen Sunni Jumma Masjid,Mosque,"QJ6M+R4R Milakudeen Sunni Jumma Masjid, East Vennakkara, Nurani, Palakkad, Kerala 678004","East Vennakkara, Nurani",QJ6M+R4R,Palakkad,678004,Kerala,IN,https://www.google.com/maps/place/Milakudeen+Sunni+Jumma+Masjid/data=!4m7!3m6!1s0x3ba873fa564db893:0x12c1459eb3992b33!8m2!3d10.7621198!4d76.6327759!16s%2Fg%2F11r98l244r!19sChIJk7hNVvpzqDsRMyuZs55FwRI?authuser=0&hl=en&rclk=1,"10.762119799999999,76.6327759"
Masjid,Mosque,"QM32+QR8 Masjid, Murikkavu, Tippusulthan Nagar, AKG Nagar, West Yakkara, Palakkad, Kerala 678001","Tippusulthan Nagar, AKG Nagar, West Yakkara","QM32+QR8, Murikkavu",Palakkad,678001,Kerala,IN,https://www.google.com/maps/place/Masjid/data=!4m7!3m6!1s0x3ba86df5347e5c73:0x73ad3851e1f7a67e!8m2!3d10.754401!4d76.6521568!16s%2Fg%2F11txtrtyyc!19sChIJc1x-NPVtqDsRfqb34VE4rXM?authuser=0&hl=en&rclk=1,"10.754401,76.6521568"
Wisdom Salafi Masjid,Mosque,"QJ6R+6Q6 Wisdom Salafi Masjid, Bharath Nagar, Nurani, Palakkad, Kerala 678004","Bharath Nagar, Nurani",QJ6R+6Q6,Palakkad,678004,Kerala,IN,https://www.google.com/maps/place/Wisdom+Salafi+Masjid/data=!4m7!3m6!1s0x3ba86d6275531801:0x84d95c8c64b38750!8m2!3d10.7603933!4d76.641938!16s%2Fg%2F11trp6vlxm!19sChIJARhTdWJtqDsRUIezZIxc2YQ?authuser=0&hl=en&rclk=1,"10.760393299999999,76.641938"
Hanafi Jamiya Masjid (khbsthaa) niskaar plllli.,Mosque,"QM95+7P8 Hanafi Jamiya Masjid (khbsthaa) niskaar plllli., Unnamed Road, Sultanpet, Palakkad, Kerala 678013",Sultanpet,"QM95+7P8, Unnamed Road",Palakkad,678013,Kerala,IN,https://www.google.com/maps/place/Hanafi+Jamiya+Masjid+%28%E0%B4%96%E0%B4%AC%E0%B5%BC%E0%B4%B8%E0%B5%8D%E0%B4%A5%E0%B4%BE%E0%B5%BB%29+%E0%B4%A8%E0%B4%BF%E0%B4%B8%E0%B5%8D%E0%B4%95%E0%B4%BE%E0%B4%B0+%E0%B4%AA%E0%B4%B3%E0%B5%8D%E0%B4%B3%E0%B4%BF./data=!4m7!3m6!1s0x3ba86d4a748b0ff1:0xe15b99b79d4e235c!8m2!3d10.7681592!4d76.6593309!16s%2Fg%2F11fsxhnmgr!19sChIJ8Q-LdEptqDsRXCNOnbeZW-E?authuser=0&hl=en&rclk=1,"10.7681592,76.6593309"
POOCHIRA MOSQUE,Mosque,"RJ6G+9MC POOCHIRA MOSQUE, mosque, Poochira, Puthuppariyaram, Palakkad, Kerala 678009",Puthuppariyaram,"RJ6G+9MC, mosque, Poochira",Palakkad,678009,Kerala,IN,https://www.google.com/maps/place/POOCHIRA+MOSQUE/data=!4m7!3m6!1s0x3ba8711f48385d91:0xd6a4e81d8c4cb4c2!8m2!3d10.8109367!4d76.626628!16s%2Fg%2F11rdfk9vx5!19sChIJkV04SB9xqDsRwrRMjB3opNY?authuser=0&hl=en&rclk=1,"10.8109367,76.626628"
