name,main_category,address,address_ward,address_street,address_city,address_postal_code,address_state,address_country_code,link,coordinates
Choori Salafi Masjid,Mosque,"Choori Salafi Masjid, P.O R.D Nagar, Choori, Kasaragod, Kerala 671124",Choori,P.O R.D Nagar,"Kasaragod, Kudlu",671124,Kerala,IN,https://www.google.com/maps/place/Choori+Salafi+Masjid/data=!4m7!3m6!1s0x3ba482f569184d93:0xbe902523f3019cff!8m2!3d12.5174961!4d74.9929416!16s%2Fg%2F11bt_j510s!19sChIJk00YafWCpDsR_5wB8yMlkL4?authuser=0&hl=en&rclk=1,"12.517496099999999,74.9929416"
Malik Deenar Juma Masjid,Mosque,"FXMQ+WHH Malik Deenar Juma Masjid, Malik Deenar Nagar, Thalangara, Kasaragod, Kerala 671122","Malik Deenar Nagar, Thalangara",FXMQ+WHH,Kasaragod,671122,Kerala,IN,https://www.google.com/maps/place/Malik+Deenar+Juma+Masjid/data=!4m7!3m6!1s0x3ba48217b08d6309:0x38a345b56c593e24!8m2!3d12.4848027!4d74.9889767!16zL20vMDl5ejVu!19sChIJCWONsBeCpDsRJD5ZbLVFozg?authuser=0&hl=en&rclk=1,"12.4848027,74.9889767"
Firdouse Masjid,Mosque,"GX2Q+3V2 Firdouse Masjid, Firdouse Rd, Thayalangadi, Kasaragod, Kerala 671121",Thayalangadi,"GX2Q+3V2, Firdouse Rd",Kasaragod,671121,Kerala,IN,https://www.google.com/maps/place/Firdouse+Masjid/data=!4m7!3m6!1s0x3ba48269ed0def4d:0xde079d8f9202da7f!8m2!3d12.5001442!4d74.98963!16s%2Fg%2F11f29_c4k8!19sChIJTe8N7WmCpDsRf9oCko-dB94?authuser=0&hl=en&rclk=1,"12.5001442,74.98962999999999"
Eriyal Juma Masjid,Mosque,"Eriyal Juma Masjid, eriyal po kudlu 671124, Kasaragod, Kerala",,eriyal po kudlu 671124,"Kasaragod, Kudlu",,Kerala,IN,https://www.google.com/maps/place/Eriyal+Juma+Masjid/data=!4m7!3m6!1s0x3ba48283a4abb471:0xe9f45e6d411b7718!8m2!3d12.5227501!4d74.9715524!16s%2Fg%2F1hc49czg1!19sChIJcbSrpIOCpDsRGHcbQW1e9Ok?authuser=0&hl=en&rclk=1,"12.5227501,74.9715524"
Hydrose Juma Masjid,Mosque,"FXRQ+3C8 Hydrose Juma Masjid, Juma Masjid,, Railway Station Road, Theruvath, Thayalangadi, Kasaragod, Kerala 671121","Theruvath, Thayalangadi","FXRQ+3C8, Juma Masjid,, Railway Station Road",Kasaragod,671121,Kerala,IN,https://www.google.com/maps/place/Hydrose+Juma+Masjid/data=!4m7!3m6!1s0x3ba48215b1db07c1:0x6a59b53d4ced9c48!8m2!3d12.4901636!4d74.9885777!16s%2Fg%2F11bw1zxthv!19sChIJwQfbsRWCpDsRSJztTD21WWo?authuser=0&hl=en&rclk=1,"12.490163599999999,74.9885777"
Badar Juma Masjid Naimarmoola,Mosque,"G28F+736 Badar Juma Masjid Naimarmoola, SH31, Padinharmoola, Kasaragod, Kerala 671123",Padinharmoola,"G28F+736, SH31",Kasaragod,671123,Kerala,IN,https://www.google.com/maps/place/Badar+Juma+Masjid+Naimarmoola/data=!4m7!3m6!1s0x3ba483a9aee825f3:0x3f0762ff7fb7c7d0!8m2!3d12.5156559!4d75.0226514!16s%2Fg%2F1vn16z9h!19sChIJ8yXorqmDpDsR0Me3f_9iBz8?authuser=0&hl=en&rclk=1,"12.515655899999999,75.0226514"
Mubarak Masjid,Mosque,"GX2R+G5W Mubarak Masjid, MG Rd, Kasaragod, Kerala 671121",,"GX2R+G5W, MG Rd",Kasaragod,671121,Kerala,IN,https://www.google.com/maps/place/Mubarak+Masjid/data=!4m7!3m6!1s0x3ba48269da5f6a9f:0x3d6ee3df4b0e293c!8m2!3d12.501373!4d74.9904391!16s%2Fg%2F11xdxv42p!19sChIJn2pf2mmCpDsRPCkOS9_jbj0?authuser=0&hl=en&rclk=1,"12.501373,74.9904391"
Masjidul Hasanathul Jariya,Mosque,"FXXP+PP2 Masjidul Hasanathul Jariya, Railway Station Road, Thayalangadi, Kasaragod, Kerala 671123",Thayalangadi,"FXXP+PP2, Railway Station Road",Kasaragod,671123,Kerala,IN,https://www.google.com/maps/place/Masjidul+Hasanathul+Jariya/data=!4m7!3m6!1s0x3ba48269607208b7:0x26cdab1ebe4d63b6!8m2!3d12.499253!4d74.9867709!16s%2Fg%2F1tgdl_l5!19sChIJtwhyYGmCpDsRtmNNvh6rzSY?authuser=0&hl=en&rclk=1,"12.499253,74.9867709"
"Mohiyuddeen Juma Masjid, Nellikunnu",Mosque,"GX2H+58Q Mohiyuddeen Juma Masjid, Nellikunnu, Nellikunnu, Kadappuram, Kasaragod, Kerala 671121","Nellikunnu, Kadappuram",GX2H+58Q,Kasaragod,671121,Kerala,IN,"https://www.google.com/maps/place/Mohiyuddeen+Juma+Masjid,+Nellikunnu/data=!4m7!3m6!1s0x3ba48271c4a7989b:0x9b7628899b497f73!8m2!3d12.5004684!4d74.9783655!16s%2Fg%2F1vcq60rs!19sChIJm5inxHGCpDsRc39Jm4kodps?authuser=0&hl=en&rclk=1","12.500468399999999,74.9783655"
Choori Old Juma Masjid,Mosque,"GX7Q+G4G Choori Old Juma Masjid, Izzath Nagar Choori, Kasaragod",Choori,"GX7Q+G4G, Izzath Nagar Choori",Kasaragod,,Kerala,IN,https://www.google.com/maps/place/Choori+Old+Juma+Masjid/data=!4m7!3m6!1s0x3ba48261adecd12f:0xeeffa10471a21952!8m2!3d12.5138047!4d74.9878136!16s%2Fg%2F11bv1cczjq!19sChIJL9HsrWGCpDsRUhmicQSh_-4?authuser=0&hl=en&rclk=1,"12.5138047,74.9878136"
Thuruthi Muhiyudheen Juma Masjid,Mosque,"G236+Q5M Thuruthi Muhiyudheen Juma Masjid, Thuruthi, Kasaragod, Kerala 671121",Thuruthi,G236+Q5M,Kasaragod,671121,Kerala,IN,https://www.google.com/maps/place/Thuruthi+Muhiyudheen+Juma+Masjid/data=!4m7!3m6!1s0x3ba4824dbcd2686b:0xd9482ccb74e65d22!8m2!3d12.504467!4d75.0104089!16s%2Fg%2F1hc13rq7b!19sChIJa2jSvE2CpDsRIl3mdMssSNk?authuser=0&hl=en&rclk=1,"12.504467,75.0104089"
Chemnad Juma Masjid,Mosque,"FXVX+XWQ Chemnad Juma Masjid, SH57, Chemnad, Kerala 671317",,"FXVX+XWQ, SH57",Chemnad,671317,Kerala,IN,https://www.google.com/maps/place/Chemnad+Juma+Masjid/data=!4m7!3m6!1s0x3ba482471cd05fc7:0x2daf8724b360a76d!8m2!3d12.494958!4d74.9998689!16s%2Fg%2F11g_v64k3!19sChIJx1_QHEeCpDsRbadgsySHry0?authuser=0&hl=en&rclk=1,"12.494957999999999,74.9998689"
Nellikunnu Darga Shareef | nellikuNje drgaa shriiph,Mosque,"Nellikunnu Darga Shareef | nellikuNje drgaa shriiph, Nellikunnu, Kadappuram, Kasaragod, Kerala 671123","Nellikunnu, Kadappuram",,Kasaragod,671123,Kerala,IN,https://www.google.com/maps/place/Nellikunnu+Darga+Shareef+%7C+%E0%B2%A8%E0%B3%86%E0%B2%B2%E0%B3%8D%E0%B2%B2%E0%B2%BF%E0%B2%95%E0%B3%81%E0%B2%82%E0%B2%9C%E0%B3%86+%E0%B2%A6%E0%B2%B0%E0%B3%8D%E0%B2%97%E0%B2%BE+%E0%B2%B6%E0%B2%B0%E0%B3%80%E0%B2%AB%E0%B3%8D/data=!4m7!3m6!1s0x3ba48303df79c5b1:0xe03377aa7f0894ca!8m2!3d12.5003796!4d74.9788503!16s%2Fg%2F11fpmjbzgy!19sChIJscV53wODpDsRypQIf6p3M-A?authuser=0&hl=en&rclk=1,"12.500379599999999,74.97885029999999"
Aramana Masjid,Mosque,"GX4Q+587 Aramana Masjid, Bank Rd, Kasaragod, Kerala 671121",,"GX4Q+587, Bank Rd",Kasaragod,671121,Kerala,IN,https://www.google.com/maps/place/Aramana+Masjid/data=!4m7!3m6!1s0x3ba48267d25c3cfb:0xd7cf1f1ff87b0b59!8m2!3d12.5054176!4d74.9882984!16s%2Fg%2F1260qhzw6!19sChIJ-zxc0meCpDsRWQt7-B8fz9c?authuser=0&hl=en&rclk=1,"12.5054176,74.98829839999999"
Ansar Masjid,Mosque,"GX4W+Q45 Ansar Masjid, opp. New Bus stand, Kasaragod, Kerala 671121",,"GX4W+Q45, opp. New Bus stand",Kasaragod,671121,Kerala,IN,https://www.google.com/maps/place/Ansar+Masjid/data=!4m7!3m6!1s0x3ba4825ceb35fb99:0xe57230b817feb6b!8m2!3d12.5068781!4d74.9953724!16s%2Fg%2F11bw208qbs!19sChIJmfs161yCpDsRa-t_gQsjVw4?authuser=0&hl=en&rclk=1,"12.5068781,74.9953724"
"Hydros Juma Masjid, Choori",Mosque,"GX9R+974 Hydros Juma Masjid, Choori, Choori, Kasaragod, Kudlu, Kerala 671123",Choori,GX9R+974,"Kasaragod, Kudlu",671123,Kerala,IN,"https://www.google.com/maps/place/Hydros+Juma+Masjid,+Choori/data=!4m7!3m6!1s0x3ba4828ad232dad1:0x7f4cefe00f301c62!8m2!3d12.5183797!4d74.9907003!16s%2Fg%2F11c30wb9fy!19sChIJ0doy0oqCpDsRYhwwD-DvTH8?authuser=0&hl=en&rclk=1","12.518379699999999,74.9907003"
Bangod Hydrose Juma Masjid,Mosque,"FXMW+WX3 Bangod Hydrose Juma Masjid, Bangod, Kasaragod, Kerala 671122",Bangod,FXMW+WX3,Kasaragod,671122,Kerala,IN,https://www.google.com/maps/place/Bangod+Hydrose+Juma+Masjid/data=!4m7!3m6!1s0x3ba4823b6661e175:0x666093340249c316!8m2!3d12.4847637!4d74.997423!16s%2Fg%2F11c192y0bd!19sChIJdeFhZjuCpDsRFsNJAjSTYGY?authuser=0&hl=en&rclk=1,"12.4847637,74.997423"
Masjid Sunni Centre,Mosque,"GX5V+297 Masjid Sunni Centre, Kasaragod, Kerala 671123",,GX5V+297,Kasaragod,671123,Kerala,IN,https://www.google.com/maps/place/Masjid+Sunni+Centre/data=!4m7!3m6!1s0x3ba4825d04371537:0x59cfe5c294d7e3c7!8m2!3d12.507533!4d74.9934291!16s%2Fg%2F11c2kbz92f!19sChIJNxU3BF2CpDsRx-PXlMLlz1k?authuser=0&hl=en&rclk=1,"12.507532999999999,74.9934291"
"Salafi Masjid, Amey Road. MG Road, Kasaragod",Mosque,"GX3V+HG3 Salafi Masjid, Amey Road. MG Road, Kasaragod, Kasaragod, Kerala 671121",,GX3V+HG3,Kasaragod,671121,Kerala,IN,"https://www.google.com/maps/place/Salafi+Masjid,+Amey+Road.+MG+Road,+Kasaragod/data=!4m7!3m6!1s0x3ba48242dfaee69b:0xa9978a5c85b970a!8m2!3d12.503885!4d74.9937825!16s%2Fg%2F11css6m7ky!19sChIJm-au30KCpDsRCpdbyKV4mQo?authuser=0&hl=en&rclk=1","12.503884999999999,74.9937825"
Cherangai Jumma Masjid,Mosque,"Cherangai Jumma Masjid, Cherangai Eriyal, P O, Kudlu, Kerala 671124","Adkathbail, Siraj Nagar","Cherangai Eriyal, P O","Kudlu, Kasaragod",671124,Kerala,IN,https://www.google.com/maps/place/Cherangai+Jumma+Masjid/data=!4m7!3m6!1s0x3ba482819cfe05f3:0x593d9201f3cea476!8m2!3d12.5198909!4d74.9703831!16s%2Fg%2F1hc6wywj3!19sChIJ8wX-nIGCpDsRdqTO8wGSPVk?authuser=0&hl=en&rclk=1,"12.5198909,74.97038309999999"
Khizar Juma Masjid,Mosque,"FXWP+JFC Khizar Juma Masjid, Railway Station Road, Thayalangadi, Kasaragod, Kerala 671121",Thayalangadi,"FXWP+JFC, Railway Station Road",Kasaragod,671121,Kerala,IN,https://www.google.com/maps/place/Khizar+Juma+Masjid/data=!4m7!3m6!1s0x3ba4826b9c5ad281:0x783dd31234f532ae!8m2!3d12.4965588!4d74.9861258!16s%2Fg%2F1260t_p1f!19sChIJgdJanGuCpDsRrjL1NBLTPXg?authuser=0&hl=en&rclk=1,"12.496558799999999,74.9861258"
Muhiyuddin Juma Masjid Adkathabail,Mosque,"GX8H+89F Muhiyuddin Juma Masjid Adkathabail, Edapally - Panvel Hwy, Adkathbail, Kasaragod, Kerala 671123",Adkathbail,"GX8H+89F, Edapally - Panvel Hwy",Kasaragod,671123,Kerala,IN,https://www.google.com/maps/place/Muhiyuddin+Juma+Masjid+Adkathabail/data=!4m7!3m6!1s0x3ba48287eaf17841:0xebf42c5bb27bb5d0!8m2!3d12.5158193!4d74.9784084!16s%2Fg%2F1hc9fw0hn!19sChIJQXjx6oeCpDsR0LV7slss9Os?authuser=0&hl=en&rclk=1,"12.515819299999999,74.97840839999999"
Wisdom library And Dawa Centre,Mosque,"GX2V+P3P Wisdom library And Dawa Centre, opposite municipal vayojana mithram, Kasaragod, Kerala 671121",,"GX2V+P3P, opposite municipal vayojana mithram",Kasaragod,,Kerala,IN,https://www.google.com/maps/place/Wisdom+library+And+Dawa+Centre/data=!4m7!3m6!1s0x3ba482425b520579:0x31738ddfcb2bcc8a!8m2!3d12.501842!4d74.9926893!16s%2Fg%2F11fxvgq9x3!19sChIJeQVSW0KCpDsRiswry9-NczE?authuser=0&hl=en&rclk=1,"12.501842,74.9926893"
Juma Masjid,Mosque,"GX5V+GRH Juma Masjid, Choori, Kasaragod, Kerala 671341",Choori,GX5V+GRH,Kasaragod,671341,Kerala,IN,https://www.google.com/maps/place/Juma+Masjid/data=!4m7!3m6!1s0x3ba4825c4fba22ab:0x69ce244e924002c6!8m2!3d12.508819!4d74.9945947!16s%2Fg%2F1v75qbd5!19sChIJqyK6T1yCpDsRxgJAkk4kzmk?authuser=0&hl=en&rclk=1,"12.508818999999999,74.9945947"
Quvari masjid bangod,Mosque,"FXQW+367 Quvari masjid bangod, Thalangara, Kasaragod, Kerala 671122",Thalangara,FXQW+367,Kasaragod,671122,Kerala,IN,https://www.google.com/maps/place/Quvari+masjid+bangod/data=!4m7!3m6!1s0x3ba4823c176eef65:0x3927ebfa69aea7f!8m2!3d12.4876718!4d74.995561!16s%2Fg%2F11clsd5lht!19sChIJZe9uFzyCpDsRf-qapr9-kgM?authuser=0&hl=en&rclk=1,"12.4876718,74.995561"
Gazzali Masjid,Mosque,"FXMV+M4H Gazzali Masjid, Gazzali Nagar, Thalangara, Kasaragod, Kerala 671122",Thalangara,"FXMV+M4H, Gazzali Nagar",Kasaragod,671122,Kerala,IN,https://www.google.com/maps/place/Gazzali+Masjid/data=!4m7!3m6!1s0x3ba4823d15e4c11d:0x9d5a40410bd276b7!8m2!3d12.4841875!4d74.992862!16s%2Fg%2F11dxd18ymn!19sChIJHcHkFT2CpDsRt3bSC0FAWp0?authuser=0&hl=en&rclk=1,"12.484187499999999,74.992862"
Badriya Masjid,Mosque,"FXPR+PX2 Badriya Masjid, Thalangara, Kasaragod, Kerala 671122",Thalangara,FXPR+PX2,Kasaragod,671122,Kerala,IN,https://www.google.com/maps/place/Badriya+Masjid/data=!4m7!3m6!1s0x3ba4823d95743a95:0x86bbe6923ed9220c!8m2!3d12.4867667!4d74.9924002!16s%2Fg%2F11f402b07f!19sChIJlTp0lT2CpDsRDCLZPpLmu4Y?authuser=0&hl=en&rclk=1,"12.486766699999999,74.99240019999999"
Adkathbail Old Juma Masjid Arjal,Mosque,"GX7G+JXW Adkathbail Old Juma Masjid Arjal, Arjal Rd, Adkathbail, Kasaragod, Kerala 671123",Adkathbail,"GX7G+JXW, Arjal Rd",Kasaragod,671123,Kerala,IN,https://www.google.com/maps/place/Adkathbail+Old+Juma+Masjid+Arjal/data=!4m7!3m6!1s0x3ba4827d3ef9ecf7:0xe49cddba17328790!8m2!3d12.5141042!4d74.9774596!16s%2Fg%2F11c6dgvxq9!19sChIJ9-z5Pn2CpDsRkIcyF7rdnOQ?authuser=0&hl=en&rclk=1,"12.5141042,74.9774596"
Noorul Hudha Masjid,Mosque,"GX8V+42P Noorul Hudha Masjid, Choori, Kasaragod, Kerala 671123",Choori,GX8V+42P,Kasaragod,671123,Kerala,IN,https://www.google.com/maps/place/Noorul+Hudha+Masjid/data=!4m7!3m6!1s0x3ba4825f931e1219:0xc51ff47af5e4f57a!8m2!3d12.5153455!4d74.9925824!16s%2Fg%2F11g8btvsbx!19sChIJGRIek1-CpDsRevXk9Xr0H8U?authuser=0&hl=en&rclk=1,"12.515345499999999,74.9925824"
RAHMATH MASJID KORAKKODE,Mosque,"FXRV+FPP RAHMATH MASJID KORAKKODE, Kasaragod, Kerala 671121",,FXRV+FPP,Kasaragod,671121,Kerala,IN,https://www.google.com/maps/place/RAHMATH+MASJID+KORAKKODE/data=!4m7!3m6!1s0x3ba4823ef6d1aa41:0x2e6fcb7ed7768237!8m2!3d12.4912215!4d74.9943297!16s%2Fg%2F11f123222f!19sChIJQarR9j6CpDsRN4J2137Lby4?authuser=0&hl=en&rclk=1,"12.4912215,74.9943297"
Bilal Masjid GT Road,Mosque,"GX9J+63W Bilal Masjid GT Road, Kasaragod, Kerala 671123",,GX9J+63W,Kasaragod,,Kerala,IN,https://www.google.com/maps/place/Bilal+Masjid+GT+Road/data=!4m7!3m6!1s0x3ba48288630364cd:0x876ffa346c3c1fb7!8m2!3d12.5181157!4d74.9802002!16s%2Fg%2F11f39gymbl!19sChIJzWQDY4iCpDsRtx88bDT6b4c?authuser=0&hl=en&rclk=1,"12.5181157,74.9802002"
Masjid Amalu Swalih,Mosque,"FXQQ+4P6 Masjid Amalu Swalih, Thalangara, Kasaragod, Kerala 671121",Thalangara,FXQQ+4P6,Kasaragod,671121,Kerala,IN,https://www.google.com/maps/place/Masjid+Amalu+Swalih/data=!4m7!3m6!1s0x3ba4821673f55275:0xd89d491fab7aa5ed!8m2!3d12.4877933!4d74.9892754!16s%2Fg%2F11c5qmqg9w!19sChIJdVL1cxaCpDsR7aV6qx9Jndg?authuser=0&hl=en&rclk=1,"12.4877933,74.9892754"
Sunni masjid,Mosque,"Sunni masjid, 116, Kasargod Madhur Rd, Kudlu, Kerala 671124",,"116, Kasargod Madhur Rd",Kudlu,671124,Kerala,IN,https://www.google.com/maps/place/Sunni+masjid/data=!4m7!3m6!1s0x3ba482f50df6e301:0xb2ecb1a7e80bb33!8m2!3d12.5179156!4d74.9932049!16s%2Fg%2F11dxd2b1n8!19sChIJAeP2DfWCpDsRM7uAfhrLLgs?authuser=0&hl=en&rclk=1,"12.5179156,74.9932049"
Islamic Center Masjid,Mosque,"GX4R+9HH Islamic Center Masjid, Kasaragod, Kerala 671123",,GX4R+9HH,Kasaragod,671123,Kerala,IN,https://www.google.com/maps/place/Islamic+Center+Masjid/data=!4m7!3m6!1s0x3ba4825d5bbbffff:0x6dca9d9043e7e405!8m2!3d12.5059409!4d74.9914905!16s%2Fg%2F11g8bg_zn1!19sChIJ__-7W12CpDsRBeTnQ5Cdym0?authuser=0&hl=en&rclk=1,"12.505940899999999,74.9914905"
Thaha Masjid,Mosque,"Thaha Masjid, Thalangara, Kasaragod, Kerala 671122",Thalangara,,Kasaragod,671122,Kerala,IN,https://www.google.com/maps/place/Thaha+Masjid/data=!4m7!3m6!1s0x3ba4823ccb5d5f2d:0x46068b94e3d7da76!8m2!3d12.4830211!4d74.9951361!16s%2Fg%2F11c565dq83!19sChIJLV9dyzyCpDsRdtrX45SLBkY?authuser=0&hl=en&rclk=1,"12.4830211,74.9951361"
"Kizar Juma Masjid ,kollambady",Mosque,"G255+73F Kizar Juma Masjid ,kollambady, Kasaragod, Kerala 671121",,G255+73F,Kasaragod,671121,Kerala,IN,"https://www.google.com/maps/place/Kizar+Juma+Masjid+,kollambady/data=!4m7!3m6!1s0x3ba482519af3ccf1:0xf4eceeb9e2e24dbc!8m2!3d12.5081894!4d75.0076816!16s%2Fg%2F11c2k9m705!19sChIJ8czzmlGCpDsRvE3i4rnu7PQ?authuser=0&hl=en&rclk=1","12.5081894,75.0076816"
Hydrose Juma Masjid,Mosque,"FXHV+CJF Hydrose Juma Masjid, Thalangara, Kasaragod, Kerala 671122",Thalangara,FXHV+CJF,Kasaragod,671122,Kerala,IN,https://www.google.com/maps/place/Hydrose+Juma+Masjid/data=!4m7!3m6!1s0x3ba48223caf2ef4b:0x6e5e0bb4c351e47d!8m2!3d12.478569!4d74.994047!16s%2Fg%2F11ddwxqlvq!19sChIJS-_yyiOCpDsRfeRRw7QLXm4?authuser=0&hl=en&rclk=1,"12.478569,74.994047"
Masjid Al Huda,Mosque,"GX9V+HGW Masjid Al Huda, Shihab Thangal St, Kudlu, Meepuguri, Kerala 671123",,"GX9V+HGW, Shihab Thangal St","Kudlu, Meepuguri",671123,Kerala,IN,https://www.google.com/maps/place/Masjid+Al+Huda/data=!4m7!3m6!1s0x3ba482f527feeaa3:0x5cc262f8a26b446c!8m2!3d12.5189813!4d74.9938212!16s%2Fg%2F11c5wl29qg!19sChIJo-r-J_WCpDsRbERrovhiwlw?authuser=0&hl=en&rclk=1,"12.5189813,74.9938212"
Rifayi Masjid,Mosque,"FXWP+9PJ Rifayi Masjid, 2nd Fort Cross Rd, Thayalangadi, Kasaragod, Kerala 671121",Thayalangadi,"FXWP+9PJ, 2nd Fort Cross Rd",Kasaragod,671121,Kerala,IN,https://www.google.com/maps/place/Rifayi+Masjid/data=!4m7!3m6!1s0x3ba4826b0c907bd9:0x6d7ef6897db94861!8m2!3d12.4959748!4d74.9867561!16s%2Fg%2F125_y92hx!19sChIJ2XuQDGuCpDsRYUi5fYn2fm0?authuser=0&hl=en&rclk=1,"12.495974799999999,74.9867561"
Rifahiya Masjid Kandathil,Mosque,"FXXJ+P4J Rifahiya Masjid Kandathil, Kandathil Rd, Nellikunnu, Kadappuram, Kasaragod, Kerala 671121","Nellikunnu, Kadappuram","FXXJ+P4J, Kandathil Rd",Kasaragod,671121,Kerala,IN,https://www.google.com/maps/place/Rifahiya+Masjid+Kandathil/data=!4m7!3m6!1s0x3ba4826e0e524525:0x1f90a15dcb968357!8m2!3d12.4993476!4d74.9802518!16s%2Fg%2F11bw4v9zbn!19sChIJJUVSDm6CpDsRV4OWy12hkB8?authuser=0&hl=en&rclk=1,"12.4993476,74.98025179999999"
Mohiyuddheen Masjid Thalangara,Mosque,"FXJV+327 Mohiyuddheen Masjid Thalangara, WEST, Thalangara West Hill, P O, Thalangara, Kasaragod, Kerala 671122","Thalangara West Hill, P O, Thalangara","FXJV+327, WEST",Kasaragod,671122,Kerala,IN,https://www.google.com/maps/place/Mohiyuddheen+Masjid+Thalangara/data=!4m7!3m6!1s0x3ba4822292735ac5:0xc8f75ef5e481dc01!8m2!3d12.4806679!4d74.992248!16s%2Fg%2F11f0_dqfq3!19sChIJxVpzkiKCpDsRAdyB5PVe98g?authuser=0&hl=en&rclk=1,"12.4806679,74.992248"
Palathil Masjid Eriyal,Mosque,"GXCF+CHF Palathil Masjid Eriyal, Edappally - Panvel Hwy, Adkathbail, Mogralputhur, Kasaragod, Kerala 671124",Adkathbail,"GXCF+CHF, Edappally - Panvel Hwy","Mogralputhur, Kasaragod",671124,Kerala,IN,https://www.google.com/maps/place/Palathil+Masjid+Eriyal/data=!4m7!3m6!1s0x3ba4828403ecfdd9:0xa2682bc6abdb35de!8m2!3d12.5210654!4d74.9739359!16s%2Fg%2F1hc3vffz9!19sChIJ2f3sA4SCpDsR3jXbq8YraKI?authuser=0&hl=en&rclk=1,"12.5210654,74.9739359"
Bilal Masjid,Mosque,"FXVW+34H Bilal Masjid, Kasaragod, Kerala 671121",,FXVW+34H,Kasaragod,671121,Kerala,IN,https://www.google.com/maps/place/Bilal+Masjid/data=!4m7!3m6!1s0x3ba4823f6aad5eb9:0x3eb15ffc07a6bcbf!8m2!3d12.4926759!4d74.995349!16s%2Fg%2F11d_7t9y5q!19sChIJuV6taj-CpDsRv7ymB_xfsT4?authuser=0&hl=en&rclk=1,"12.4926759,74.99534899999999"
"Salafi Masjid Pulikunnu, Kasaragod",Mosque,"FXXW+RCC Salafi Masjid Pulikunnu, Kasaragod, Behind Kasaragod Town Hall, Pulikunnu, Kasaragod, Kasaragod, Kerala 671121",,"FXXW+RCC, Behind Kasaragod Town Hall, Pulikunnu, Kasaragod",Kasaragod,671121,Kerala,IN,"https://www.google.com/maps/place/Salafi+Masjid+Pulikunnu,+Kasaragod/data=!4m7!3m6!1s0x3ba482415849868d:0xe85209d109d12614!8m2!3d12.4995728!4d74.9960205!16s%2Fg%2F11bbrlbr_b!19sChIJjYZJWEGCpDsRFCbRCdEJUug?authuser=0&hl=en&rclk=1","12.4995728,74.9960205"
"Pallath Koya Masjid,koyas lane",Mosque,"FXQR+JGF Pallath Koya Masjid,koyas lane, Thalangara, Kasaragod, Kerala 671121",Thalangara,FXQR+JGF,Kasaragod,671121,Kerala,IN,"https://www.google.com/maps/place/Pallath+Koya+Masjid,koyas+lane/data=!4m7!3m6!1s0x3ba4823e1c933bd3:0xb5e82b1063f60363!8m2!3d12.4890524!4d74.9912956!16s%2Fg%2F11f0wyb01z!19sChIJ0zuTHD6CpDsRYwP2YxAr6LU?authuser=0&hl=en&rclk=1","12.4890524,74.9912956"
Malik Deenar Great Juma Masjid Committee,Office of Vital Records,"FXPQ+3R3 Malik Deenar Great Juma Masjid Committee, Old Railway Station Rd, Malik Deenar Nagar, Thalangara, Kasaragod, Kerala 671122","Malik Deenar Nagar, Thalangara","FXPQ+3R3, Old Railway Station Rd",Kasaragod,671122,Kerala,IN,https://www.google.com/maps/place/Malik+Deenar+Great+Juma+Masjid+Committee/data=!4m7!3m6!1s0x3ba483013ca24ec1:0xf8e00292f814b0b!8m2!3d12.4851257!4d74.9895568!16s%2Fg%2F11fmrm_j35!19sChIJwU6iPAGDpDsRC0uBLykAjg8?authuser=0&hl=en&rclk=1,"12.4851257,74.9895568"
Salafi Masjid Kollambady,Mosque,"G264+9QH Salafi Masjid Kollambady, Arafa Rd, Kasaragod, Kerala 671123",,"G264+9QH, Arafa Rd",Kasaragod,671123,Kerala,IN,https://www.google.com/maps/place/Salafi+Masjid+Kollambady/data=!4m7!3m6!1s0x3ba482516b9693d5:0xcbc3c4eae2679e13!8m2!3d12.5109366!4d75.006983!16s%2Fg%2F11d_d1jljn!19sChIJ1ZOWa1GCpDsRE55n4urEw8s?authuser=0&hl=en&rclk=1,"12.510936599999999,75.00698299999999"
Badar Juma Masjid Uliyathaduka,Mosque,"G2R2+77Q Badar Juma Masjid Uliyathaduka, Kasaragod, Kerala 671124",,G2R2+77Q,Kasaragod,671124,Kerala,IN,https://www.google.com/maps/place/Badar+Juma+Masjid+Uliyathaduka/data=!4m7!3m6!1s0x3ba482c2ec2f2c0b:0xe932085cc96046ad!8m2!3d12.540725!4d75.0007244!16s%2Fg%2F11g8dk1vqz!19sChIJCywv7MKCpDsRrUZgyVwIMuk?authuser=0&hl=en&rclk=1,"12.540725,75.0007244"
HYDROSE JUMA MASJID,Mosque,"FXRQ+3C4 HYDROSE JUMA MASJID, Railway Station Road, Theruvath, Thayalangadi, Kasaragod, Kerala 671121","Theruvath, Thayalangadi","FXRQ+3C4, Railway Station Road",Kasaragod,671121,Kerala,IN,https://www.google.com/maps/place/HYDROSE+JUMA+MASJID/data=!4m7!3m6!1s0x3ba48366e3a15967:0x280142f21b97f16b!8m2!3d12.4901482!4d74.9885908!16s%2Fg%2F11qr31lhfp!19sChIJZ1mh42aDpDsRa_GXG_JCASg?authuser=0&hl=en&rclk=1,"12.4901482,74.9885908"
Sayed Alavi Juma Masjid,Mosque,"FXHW+W7F Sayed Alavi Juma Masjid, Railway Station Road, Thalangara, Kasaragod, Kerala 671122",Thalangara,"FXHW+W7F, Railway Station Road",Kasaragod,671122,Kerala,IN,https://www.google.com/maps/place/Sayed+Alavi+Juma+Masjid/data=!4m7!3m6!1s0x3ba482239eb2a10b:0x913d950854f622f3!8m2!3d12.4798049!4d74.9956848!16s%2Fg%2F1hjh001kg!19sChIJC6GyniOCpDsR8yL2VAiVPZE?authuser=0&hl=en&rclk=1,"12.4798049,74.99568479999999"
Salafi Masjid Opp Muncipal Office,Mosque,"GX2V+P3V Salafi Masjid Opp Muncipal Office, Kasaragod, Kerala 671121",,GX2V+P3V,Kasaragod,,Kerala,IN,https://www.google.com/maps/place/Salafi+Masjid+Opp+Muncipal+Office/data=!4m7!3m6!1s0x3ba482425c4557dd:0x34165ab66c049867!8m2!3d12.5018501!4d74.9926875!16s%2Fg%2F11hcdchbvs!19sChIJ3VdFXEKCpDsRZ5gEbLZaFjQ?authuser=0&hl=en&rclk=1,"12.501850099999999,74.9926875"
Hydros juma masjid,Mosque,"FXXM+G9H Hydros juma masjid, Pallam Rd, Kadappuram, Kasaragod, Kerala 671121",Kadappuram,"FXXM+G9H, Pallam Rd",Kasaragod,671121,Kerala,IN,https://www.google.com/maps/place/Hydros+juma+masjid/data=!4m7!3m6!1s0x3ba483220504d211:0x1dc04bdaadb6720a!8m2!3d12.4988239!4d74.9834859!16s%2Fg%2F11h8lgbbyp!19sChIJEdIEBSKDpDsRCnK2rdpLwB0?authuser=0&hl=en&rclk=1,"12.4988239,74.98348589999999"
Al Nihmathul Jadeed Masjid,Mosque,"FXPW+CCQ Al Nihmathul Jadeed Masjid, Jadeed Rd, Thalangara, Kasaragod, Kerala 671122",Thalangara,"FXPW+CCQ, Jadeed Rd",Kasaragod,671122,Kerala,IN,https://www.google.com/maps/place/Al+Nihmathul+Jadeed+Masjid/data=!4m7!3m6!1s0x3ba4823c63568e71:0xbe55a44b6883aadc!8m2!3d12.4860773!4d74.9960969!16s%2Fg%2F11b620g64r!19sChIJcY5WYzyCpDsR3KqDaEukVb4?authuser=0&hl=en&rclk=1,"12.4860773,74.9960969"
Kandathil Masjid,Mosque,"GXGC+2G4 Kandathil Masjid, Kudlu, Kerala 671124",,GXGC+2G4,Kudlu,671124,Kerala,IN,https://www.google.com/maps/place/Kandathil+Masjid/data=!4m7!3m6!1s0x3ba482833cc8b319:0xc1b064d0752a13e1!8m2!3d12.52502!4d74.971331!16s%2Fg%2F11f00m_5l_!19sChIJGbPIPIOCpDsR4RMqddBksME?authuser=0&hl=en&rclk=1,"12.52502,74.97133099999999"
Badar Masjid,Mosque,"F2X2+G26 Badar Masjid, near Chandragiri River, Thayalangadi, Kasaragod, Chemnad, Kerala 671121",Thayalangadi,"F2X2+G26, near Chandragiri River","Kasaragod, Chemnad",671121,Kerala,IN,https://www.google.com/maps/place/Badar+Masjid/data=!4m7!3m6!1s0x3ba483e4850d0827:0x5325cf569f61da42!8m2!3d12.4987751!4d75.000021!16s%2Fg%2F11h8j4904l!19sChIJJwgNheSDpDsRQtphn1bPJVM?authuser=0&hl=en&rclk=1,"12.4987751,75.00002099999999"
"Mubarak Masjid, Beach Road",Mosque,"GX3M+FCF Mubarak Masjid, Beach Road, Beeranthabail Road, Siraj Nagar, Kasaragod, Kerala 671123",Bangarakunnu,"GX3M+FCF, Beeranthabail Road, Siraj Nagar",Kasaragod,671123,Kerala,IN,"https://www.google.com/maps/place/Mubarak+Masjid,+Beach+Road/data=!4m7!3m6!1s0x3ba4826f69a9787b:0xe79ac131aff4c21d!8m2!3d12.5036769!4d74.9835342!16s%2Fg%2F11f_d7twkc!19sChIJe3ipaW-CpDsRHcL0rzHBmuc?authuser=0&hl=en&rclk=1","12.5036769,74.9835342"
Muhiyudheen Juma Masjid Pulikkunnu,Mosque,"FXWW+PR7 Muhiyudheen Juma Masjid Pulikkunnu, Kasaragod, Kerala 671121",,FXWW+PR7,Kasaragod,,Kerala,IN,https://www.google.com/maps/place/Muhiyudheen+Juma+Masjid+Pulikkunnu/data=!4m7!3m6!1s0x3ba4835dd2f27395:0x5c7033c9ed5381b5!8m2!3d12.4967857!4d74.9970562!16s%2Fg%2F11fqbnxkzd!19sChIJlXPy0l2DpDsRtYFT7ckzcFw?authuser=0&hl=en&rclk=1,"12.4967857,74.9970562"
Malik Deenar Main Gate Minara,Mosque,"FXPR+4GP Malik Deenar Main Gate Minara, Malik Deenar Nagar, Thalangara, Kasaragod, Kerala 671122","Malik Deenar Nagar, Thalangara",FXPR+4GP,Kasaragod,671122,Kerala,IN,https://www.google.com/maps/place/Malik+Deenar+Main+Gate+Minara/data=!4m7!3m6!1s0x3ba4838a208dae01:0x8131d56cde4679ec!8m2!3d12.4853267!4d74.9913296!16s%2Fg%2F11tmw8dl75!19sChIJAa6NIIqDpDsR7HlG3mzVMYE?authuser=0&hl=en&rclk=1,"12.4853267,74.9913296"
Badar Juma Masjid-Anangoor,Mosque,"G264+VQ5 Badar Juma Masjid-Anangoor, Anangoor Rd, Kasaragod, Kerala 671123",,"G264+VQ5, Anangoor Rd",Kasaragod,671123,Kerala,IN,https://www.google.com/maps/place/Badar+Juma+Masjid-Anangoor/data=!4m7!3m6!1s0x3ba483b85d0e5695:0x88ec8a6d6ed56c8d!8m2!3d12.5121376!4d75.0069787!16s%2Fg%2F11h71ncswl!19sChIJlVYOXbiDpDsRjWzVbm2K7Ig?authuser=0&hl=en&rclk=1,"12.512137599999999,75.00697869999999"
Khazi Haji Abdul Rahiman Musliyar Masjid,Mosque,"GX4G+QH6 Khazi Haji Abdul Rahiman Musliyar Masjid, Bangarakunnu, Kasaragod, Kerala 671123",Bangarakunnu,GX4G+QH6,Kasaragod,671123,Kerala,IN,https://www.google.com/maps/place/Khazi+Haji+Abdul+Rahiman+Musliyar+Masjid/data=!4m7!3m6!1s0x3ba4827a5551faf5:0x33bd08fc56c3470c!8m2!3d12.5069105!4d74.9763758!16s%2Fg%2F11f3x5lw58!19sChIJ9fpRVXqCpDsRDEfDVvwIvTM?authuser=0&hl=en&rclk=1,"12.5069105,74.9763758"
Malikdeenar Makham & Masjid,Mosque,"FXMR+MX9 Malikdeenar Makham & Masjid, Malik Deenar Nagar, Thalangara, Kasaragod, Kerala 671122","Malik Deenar Nagar, Thalangara",FXMR+MX9,Kasaragod,671122,Kerala,IN,https://www.google.com/maps/place/Malikdeenar+Makham+%26+Masjid/data=!4m7!3m6!1s0x3ba483c5e6f501db:0x3a1a78fd79d649bd!8m2!3d12.4841579!4d74.9924704!16s%2Fg%2F11t17846xd!19sChIJ2wH15sWDpDsRvUnWef14Gjo?authuser=0&hl=en&rclk=1,"12.4841579,74.9924704"
"Mohiyuddeen Masjid, K K Puram",Mosque,"FXJX+XRR Mohiyuddeen Masjid, K K Puram, Thalangara, Kasaragod, Kerala 671122",Thalangara,FXJX+XRR,Kasaragod,671122,Kerala,IN,"https://www.google.com/maps/place/Mohiyuddeen+Masjid,+K+K+Puram/data=!4m7!3m6!1s0x3ba4833b07ac172b:0x145388a457096119!8m2!3d12.4824953!4d74.99951!16s%2Fg%2F11r9fl982h!19sChIJKxesBzuDpDsRGWEJV6SIUxQ?authuser=0&hl=en&rclk=1","12.4824953,74.99951"
Khilhar Masjid-Cherangai Kadappuram,Mosque,"GX79+XM Khilhar Masjid-Cherangai Kadappuram, Kasaragod, Kerala 671123",,GX79+XM,Kasaragod,,Kerala,IN,https://www.google.com/maps/place/Khilhar+Masjid-Cherangai+Kadappuram/data=!4m7!3m6!1s0x3ba4839a5bf0b097:0x13d4a0d93e8725c2!8m2!3d12.5150248!4d74.9692965!16s%2Fg%2F11pv677k0z!19sChIJl7DwW5qDpDsRwiWHPtmg1BM?authuser=0&hl=en&rclk=1,"12.515024799999999,74.9692965"
Aboobacker Siddeeq Masjid,Mosque,"G264+536 Aboobacker Siddeeq Masjid, Kasaragod, Kerala 671123",,G264+536,Kasaragod,671123,Kerala,IN,https://www.google.com/maps/place/Aboobacker+Siddeeq+Masjid/data=!4m7!3m6!1s0x3ba48250d231d053:0x8b7723e22544bfd0!8m2!3d12.5104178!4d75.0051332!16s%2Fg%2F11g8vqjt7m!19sChIJU9Ax0lCCpDsR0L9EJeIjd4s?authuser=0&hl=en&rclk=1,"12.510417799999999,75.0051332"
Badar Masjid,Mosque,"FXWM+5MV Badar Masjid, Thayalangadi, Kasaragod, Kerala 671123",Thayalangadi,FXWM+5MV,Kasaragod,671123,Kerala,IN,https://www.google.com/maps/place/Badar+Masjid/data=!4m7!3m6!1s0x3ba483d3ed7a4127:0x7b1bd2e570d1f8e0!8m2!3d12.4955181!4d74.984127!16s%2Fg%2F11kq2cxb4_!19sChIJJ0F67dODpDsR4PjRcOXSG3s?authuser=0&hl=en&rclk=1,"12.4955181,74.984127"
Deli Junction Juma Masjid,Mosque,"GX6P+33M Deli Junction Juma Masjid, Anangoor, Choori, Kasaragod, Kerala 671123","Anangoor, Choori",GX6P+33M,Kasaragod,671123,Kerala,IN,https://www.google.com/maps/place/Deli+Junction+Juma+Masjid/data=!4m7!3m6!1s0x3ba48263ffffffff:0x938d9ec15a81986d!8m2!3d12.5102239!4d74.9851678!16s%2Fg%2F11dxbl_19j!19sChIJ_____2OCpDsRbZiBWsGejZM?authuser=0&hl=en&rclk=1,"12.5102239,74.9851678"
Taqwa Masjid,Mosque,"FXQV+V87 Taqwa Masjid, Ceramics Rd, Bangod, Kasaragod, Kerala 671121",Bangod,"FXQV+V87, Ceramics Rd",Kasaragod,671121,Kerala,IN,https://www.google.com/maps/place/Taqwa+Masjid/data=!4m7!3m6!1s0x3ba483f654b80d9f:0xf80314e12368828c!8m2!3d12.4896621!4d74.9933071!16s%2Fg%2F11h4np8xs2!19sChIJnw24VPaDpDsRjIJoI-EUA_g?authuser=0&hl=en&rclk=1,"12.4896621,74.9933071"
Aboobacker Sidhiq Masjid,Mosque,"GX5V+FRV Aboobacker Sidhiq Masjid, NH 66, Kasaragod, Kerala 671123",,"GX5V+FRV, NH 66",Kasaragod,671123,Kerala,IN,https://www.google.com/maps/place/Aboobacker+Sidhiq+Masjid/data=!4m7!3m6!1s0x3ba4836c87987fdf:0x10e0dd45032d80c0!8m2!3d12.5087421!4d74.994561!16s%2Fg%2F11fl9nls03!19sChIJ33-Yh2yDpDsRwIAtA0Xd4BA?authuser=0&hl=en&rclk=1,"12.5087421,74.99456099999999"
Prayer Room - Masjid,Mosque,"Prayer Room - Masjid, 2 wheeler parking, Aramana hospital, NH 66, Ashwini Nagar, Kasaragod, Kerala 671121",Ashwini Nagar,"2 wheeler parking, Aramana hospital, NH 66",Kasaragod,671121,Kerala,IN,https://www.google.com/maps/place/Prayer+Room+-+Masjid/data=!4m7!3m6!1s0x3ba48346712cea13:0xa0a1a7fe72e6fad9!8m2!3d12.5073453!4d74.9905227!16s%2Fg%2F11tczylbvt!19sChIJE-oscUaDpDsR2frmcv6noaA?authuser=0&hl=en&rclk=1,"12.507345299999999,74.9905227"
Noor Masjid,Mosque,"F2C2+PV3 Noor Masjid, Kadavath, Chaliyangod Kadavath Rd, Keezhur, Kalnad, Kerala 671317",Keezhur,"F2C2+PV3, Kadavath, Chaliyangod Kadavath Rd",Kalnad,671317,Kerala,IN,https://www.google.com/maps/place/Noor+Masjid/data=!4m7!3m6!1s0x3ba481880478f233:0xec7ee559bdbb7937!8m2!3d12.4717583!4d75.0021788!16s%2Fg%2F11cltrw6kd!19sChIJM_J4BIiBpDsRN3m7vVnlfuw?authuser=0&hl=en&rclk=1,"12.4717583,75.0021788"
Badar Juma Masjid,Mosque,"GX3R+QFR Badar Juma Masjid, Kasaragod, Kerala 671123",,GX3R+QFR,Kasaragod,671123,Kerala,IN,https://www.google.com/maps/place/Badar+Juma+Masjid/data=!4m7!3m6!1s0x3ba48242a9b3ffff:0x43a9342386e818bc!8m2!3d12.504482!4d74.9911253!16s%2Fg%2F11sscs9253!19sChIJ__-zqUKCpDsRvBjohiM0qUM?authuser=0&hl=en&rclk=1,"12.504482,74.9911253"
Aboobacker Siddeeque Juma Masjid,Mosque,"GX5C+GMV Aboobacker Siddeeque Juma Masjid, Kasaragod, Kerala 671121",,GX5C+GMV,Kasaragod,671121,Kerala,IN,https://www.google.com/maps/place/Aboobacker+Siddeeque+Juma+Masjid/data=!4m7!3m6!1s0x3ba4827937340001:0xf16fe04222be6b08!8m2!3d12.50887!4d74.9716771!16s%2Fg%2F11txmzndnz!19sChIJAQA0N3mCpDsRCGu-IkLgb_E?authuser=0&hl=en&rclk=1,"12.50887,74.9716771"
Masjid,Mosque,"Masjid, Arafa Centre, Kasaragod, Kerala 671123",,Arafa Centre,Kasaragod,671123,Kerala,IN,https://www.google.com/maps/place/Masjid/data=!4m7!3m6!1s0x3ba48374aa92b163:0xd810b34650a4101!8m2!3d12.5109178!4d74.9970491!16s%2Fg%2F11vfb395sc!19sChIJY7GSqnSDpDsRAUEKZTQLgQ0?authuser=0&hl=en&rclk=1,"12.5109178,74.9970491"
Badriya Masjid-Firdouse Nagar,Mosque,"GX3G+786 Badriya Masjid-Firdouse Nagar, Bangarakunnu, Kasaragod, Kerala 671123",Bangarakunnu,GX3G+786,Kasaragod,671123,Kerala,IN,https://www.google.com/maps/place/Badriya+Masjid-Firdouse+Nagar/data=!4m7!3m6!1s0x3ba482708e3fffff:0x65544a035ebba89!8m2!3d12.5031534!4d74.9757632!16s%2Fg%2F11kj3f4cqh!19sChIJ__8_jnCCpDsRibrrNaBEVQY?authuser=0&hl=en&rclk=1,"12.503153399999999,74.9757632"
Pallam masjid,Mosque,"FXXM+HGP Pallam masjid, Kadappuram, Kasaragod, Kerala 671123",Kadappuram,FXXM+HGP,Kasaragod,671123,Kerala,IN,https://www.google.com/maps/place/Pallam+masjid/data=!4m7!3m6!1s0x3ba4835e88378cf9:0x37f6f1a1ca2c62d3!8m2!3d12.4989036!4d74.9837233!16s%2Fg%2F11v0x5tlw5!19sChIJ-Yw3iF6DpDsR02IsyqHx9jc?authuser=0&hl=en&rclk=1,"12.4989036,74.9837233"
PALLIKKAL KANDATHIL MASJID,Mosque,"FXQR+5F3 PALLIKKAL KANDATHIL MASJID, Muhyaddin Pallickal Madrassa Rd, Thalangara, Kasaragod, Kerala 671121",Thalangara,"FXQR+5F3, Muhyaddin Pallickal Madrassa Rd",Kasaragod,671121,Kerala,IN,https://www.google.com/maps/place/PALLIKKAL+KANDATHIL+MASJID/data=!4m7!3m6!1s0x3ba483fb49c493df:0xa10fc8c139f5c9c1!8m2!3d12.4879372!4d74.9912001!16s%2Fg%2F11n5q90c7m!19sChIJ35PESfuDpDsRwcn1OcHID6E?authuser=0&hl=en&rclk=1,"12.4879372,74.9912001"
Kasargod,Mosque,"FXWP+J44 Kasargod, Pallam Koppal, Kadappuram, Kasaragod, Kerala 671123","Pallam Koppal, Kadappuram",FXWP+J44,Kasaragod,671123,Kerala,IN,https://www.google.com/maps/place/Kasargod/data=!4m7!3m6!1s0x3ba483caa87eca93:0x2cfe0c21c9c215c3!8m2!3d12.496368!4d74.985528!16s%2Fg%2F11kk68h9xm!19sChIJk8p-qMqDpDsRwxXCySEM_iw?authuser=0&hl=en&rclk=1,"12.496367999999999,74.985528"
Kandathil Masjid Eriyapady,Mosque,"FXXP+VQ3 Kandathil Masjid Eriyapady, Eriyapady, Kasaragod, Kerala 671123",,FXXP+VQ3,"Eriyapady, Kasaragod",,Kerala,IN,https://www.google.com/maps/place/Kandathil+Masjid+Eriyapady/data=!4m7!3m6!1s0x3ba48316cefdafab:0xc983719b752a5a8!8m2!3d12.4996357!4d74.9869271!16s%2Fg%2F11l6shdfy4!19sChIJq6_9zhaDpDsRqKVStxk3mAw?authuser=0&hl=en&rclk=1,"12.499635699999999,74.9869271"
Salafi Masjid Kappanayadukkam,Mosque,"FXXP+VQ3 Salafi Masjid Kappanayadukkam, Kappanayadukkam, Kasaragod, Kerala 671123",Kappanayadukkam,FXXP+VQ3,Kasaragod,,Kerala,IN,https://www.google.com/maps/place/Salafi+Masjid+Kappanayadukkam/data=!4m7!3m6!1s0x3ba4832ebe8a0eb3:0x595076e07786bc09!8m2!3d12.4996357!4d74.9869271!16s%2Fg%2F11vl8dy0bg!19sChIJsw6Kvi6DpDsRCbyGd-B2UFk?authuser=0&hl=en&rclk=1,"12.499635699999999,74.9869271"
Badar Juma Masjid Belooradka,Mosque,"GX6P+33M Badar Juma Masjid Belooradka, Belooradka po kallakatta alampady road, Kasaragod, Kerala","Anangoor, Choori","GX6P+33M, Belooradka po kallakatta alampady road",Kasaragod,,Kerala,IN,https://www.google.com/maps/place/Badar+Juma+Masjid+Belooradka/data=!4m7!3m6!1s0x3ba48263ffffffff:0xd0d378b29cc09430!8m2!3d12.5102239!4d74.9851678!16s%2Fg%2F11gdp_j3bn!19sChIJ_____2OCpDsRMJTAnLJ409A?authuser=0&hl=en&rclk=1,"12.5102239,74.9851678"
