name,main_category,address,address_ward,address_street,address_city,address_postal_code,address_state,address_country_code,link,coordinates
Jama Masjid Rohini jm` msjd rwhny,Mosque,"Jama Masjid Rohini jm` msjd rwhny, Sector 16, Rohini, Delhi, 110088","Pocket 1, Sector 16B, Rohini","Sector 16, Rohini",Delhi,110088,Delhi,IN,https://www.google.com/maps/place/Jama+Masjid+Rohini+%D8%AC%D8%A7%D9%85%D8%B9+%D9%85%D8%B3%D8%AC%D8%AF+%D8%B1%D9%88%DB%81%D9%86%DB%8C%E2%80%AD/data=!4m7!3m6!1s0x390d01165d0388bf:0xd78034c5204e63b!8m2!3d28.7367264!4d77.1277866!16s%2Fg%2F1hjgsf2m4!19sChIJv4gDXRYBDTkRO-YEUkwDeA0?authuser=0&hl=en&rclk=1,"28.7367264,77.1277866"
Jama Masjid Avantika jm` msjd,Mosque,"Jama Masjid Avantika jm` msjd, 1186, MCD Staff Quarters Rd, Avantika, Sector 1, Rohini, New Delhi, Delhi, 110085","Avantika, Sector 1, Rohini","1186, MCD Staff Quarters Rd","New Delhi, Delhi",110085,Delhi,IN,https://www.google.com/maps/place/Jama+Masjid+Avantika+%D8%AC%D8%A7%D9%85%D8%B9+%D9%85%D8%B3%D8%AC%D8%AF%E2%80%AD/data=!4m7!3m6!1s0x390d0401fbb51ff1:0x5a17c5a3808c54cb!8m2!3d28.703017!4d77.0971963!16s%2Fg%2F11bxb9hyfr!19sChIJ8R-1-wEEDTkRy1SMgKPFF1o?authuser=0&hl=en&rclk=1,"28.703017,77.0971963"
Madina Masjid msjd mdynh,Mosque,"P472+P2R Madina Masjid msjd mdynh, Budh Bazar Rd, Vijay vihar Phase I, Vijay Vihar, Sector 5, Rohini, Delhi, 110085","Vijay vihar Phase I, Vijay Vihar, Sector 5, Rohini","P472+P2R, Budh Bazar Rd",Delhi,110085,Delhi,IN,https://www.google.com/maps/place/Madina+Masjid+%D9%85%D8%B3%D8%AC%D8%AF+%D9%85%D8%AF%DB%8C%D9%86%D9%87%E2%80%AD/data=!4m7!3m6!1s0x390d06ad79b8e4a5:0xca0b7c3ef8fe52c8!8m2!3d28.7143548!4d77.1000022!16s%2Fg%2F1ptyk184_!19sChIJpeS4ea0GDTkRyFL--D58C8o?authuser=0&hl=en&rclk=1,"28.7143548,77.10000219999999"
Jaame Masjid Makki,Mosque,"P24X+X45 Jaame Masjid Makki, Inder Enclave Rd., Phase II, Kirari Suleman Nagar, Delhi, 110086","Phase II, Kirari Suleman Nagar","P24X+X45, Inder Enclave Rd.",Delhi,110086,Delhi,IN,https://www.google.com/maps/place/Jaame+Masjid+Makki/data=!4m7!3m6!1s0x390d067affea217d:0xeffe8baecd8f912d!8m2!3d28.7073751!4d77.0478504!16s%2Fg%2F11g86pd5cz!19sChIJfSHq_3oGDTkRLZGPza6L_u8?authuser=0&hl=en&rclk=1,"28.7073751,77.0478504"
bilal masjid.,Mosque,"P24V+6FG bilal masjid., Durga Mandir Rd, Phase 2, Inder Enclave, Rohini, New Delhi, Delhi, 110086","Phase 2, Inder Enclave, Rohini","P24V+6FG, Durga Mandir Rd","New Delhi, Delhi",110086,Delhi,IN,https://www.google.com/maps/place/bilal+masjid./data=!4m7!3m6!1s0x390d06709583ec61:0x52f266630d1af0ed!8m2!3d28.7055626!4d77.0437043!16s%2Fg%2F11g6r27xpk!19sChIJYeyDlXAGDTkR7fAaDWNm8lI?authuser=0&hl=en&rclk=1,"28.7055626,77.0437043"
Badli Masjid,Mosque,"Badli Masjid, W274, W274, Rohini, Delhi, 110042","Sector 19, Rohini","W274, W274",Delhi,110042,Delhi,IN,https://www.google.com/maps/place/Badli+Masjid/data=!4m7!3m6!1s0x390d01752b45f39b:0x812d58d82bcec2ea!8m2!3d28.7310738!4d77.1460236!16s%2Fg%2F11bv38jy25!19sChIJm_NFK3UBDTkR6sLOK9hYLYE?authuser=0&hl=en&rclk=1,"28.731073799999997,77.14602359999999"
Noor Masjid msjd nwr,Mosque,"Noor Masjid msjd nwr, B4/10A, Amar Jyoti Colony, opposite, Sector17, Rohini, Delhi, 110042","Amar Jyoti Colony, opposite, Sector17, Rohini",B4/10A,Delhi,110042,Delhi,IN,https://www.google.com/maps/place/Noor+Masjid+%D9%85%D8%B3%D8%AC%D8%AF+%D9%86%D9%88%D8%B1%E2%80%AD/data=!4m7!3m6!1s0x390d01240853daf5:0x1040fcac7d1c21bf!8m2!3d28.7449397!4d77.1196028!16s%2Fg%2F11b6ycmlp3!19sChIJ9dpTCCQBDTkRvyEcfaz8QBA?authuser=0&hl=en&rclk=1,"28.7449397,77.1196028"
Sunni Masjid Ahlesunnat msjd,Mosque,"Sunni Masjid Ahlesunnat msjd, Badli Industrial Area Phase 2, Mount abu international school, Raja Vihar, Rohini, Delhi, 110042","Mount abu international school, Raja Vihar, Rohini",Badli Industrial Area Phase 2,Delhi,110042,Delhi,IN,https://www.google.com/maps/place/Sunni+Masjid+Ahlesunnat+%D9%85%D8%B3%D8%AC%D8%AF%E2%80%AD/data=!4m7!3m6!1s0x390d011954894bcb:0x1f32e4687cd4861f!8m2!3d28.7461526!4d77.1305395!16s%2Fg%2F11btxkc11t!19sChIJy0uJVBkBDTkRH4bUfGjkMh8?authuser=0&hl=en&rclk=1,"28.7461526,77.1305395"
Masjid ( Choti Masjid ),Mosque,"Masjid ( Choti Masjid ), 65, Begam Vihar, Sector 33, Rohini, Delhi, 110086","Begam Vihar, Sector 33, Rohini",65,Delhi,110086,Delhi,IN,https://www.google.com/maps/place/Masjid+%28+Choti+Masjid+%29/data=!4m7!3m6!1s0x390d06f06dfec941:0xbca4837574c8326!8m2!3d28.7342048!4d77.066187!16s%2Fg%2F11f54kwhgw!19sChIJQcn-bfAGDTkRJoNMVzdIygs?authuser=0&hl=en&rclk=1,"28.734204799999997,77.066187"
Tayyaba Jama Masjid,Mosque,"Tayyaba Jama Masjid, 26/29, Block D, Prahladpur, Rohini, Delhi, 110042","Block D, Prahladpur, Rohini",26/29,Delhi,110042,Delhi,IN,https://www.google.com/maps/place/Tayyaba+Jama+Masjid/data=!4m7!3m6!1s0x390d06d133473043:0xdcafecebd5df8c14!8m2!3d28.7442511!4d77.0947534!16s%2Fg%2F11dxnsspc_!19sChIJQzBHM9EGDTkRFIzf1evsr9w?authuser=0&hl=en&rclk=1,"28.7442511,77.0947534"
Masjid Umar,Mosque,"Masjid Umar, Suraj Park, Pocket A, Sector 18, Rohini, Delhi, 110089","Pocket A, Sector 18, Rohini",Suraj Park,Delhi,110089,Delhi,IN,https://www.google.com/maps/place/Masjid+Umar/data=!4m7!3m6!1s0x390d01c040d40665:0x5ab411a259b4c83f!8m2!3d28.7443094!4d77.1365012!16s%2Fg%2F11f624ly7j!19sChIJZQbUQMABDTkRP8i0WaIRtFo?authuser=0&hl=en&rclk=1,"28.7443094,77.1365012"
Aayesha Masjid,Mosque,"Aayesha Masjid, D-1/37, near Mother Dairy, Sharma Colony, Budh Vihar Phase II, Rohini, Delhi, 110086","Sharma Colony, Budh Vihar Phase II, Rohini","D-1/37, near Mother Dairy",Delhi,110086,Delhi,IN,https://www.google.com/maps/place/Aayesha+Masjid/data=!4m7!3m6!1s0x390d075841318ca7:0x7aa763f954c4f717!8m2!3d28.7223903!4d77.0903101!16s%2Fg%2F11j8lvgqsh!19sChIJp4wxQVgHDTkRF_fEVPljp3o?authuser=0&hl=en&rclk=1,"28.722390299999997,77.0903101"
Sham E Raza Masjid Madarsha,Mosque,"P35V+H6F Sham E Raza Masjid Madarsha, Vijay Vihar Phase II, Sector 4, Rohini, Delhi, 110085","Vijay Vihar Phase II, Sector 4, Rohini",P35V+H6F,Delhi,110085,Delhi,IN,https://www.google.com/maps/place/Sham+E+Raza+Masjid+Madarsha/data=!4m7!3m6!1s0x390d070c5189c8c5:0x22474a09588bec01!8m2!3d28.7089497!4d77.0930613!16s%2Fg%2F11j1xrktl3!19sChIJxciJUQwHDTkRAeyLWAlKRyI?authuser=0&hl=en&rclk=1,"28.708949699999998,77.0930613"
Noori Masjid,Mosque,"Noori Masjid, 13, Pocket 12, Sector 20, Rohini, Delhi, 110086","Pocket 12, Sector 20, Rohini",13,Delhi,110086,Delhi,IN,https://www.google.com/maps/place/Noori+Masjid/data=!4m7!3m6!1s0x390d07dc4b9043ed:0x25ca043e651e4997!8m2!3d28.7104009!4d77.0685119!16s%2Fg%2F11q2sz8rjd!19sChIJ7UOQS9wHDTkRl0keZT4EyiU?authuser=0&hl=en&rclk=1,"28.7104009,77.06851189999999"
Choti Masjid,Mosque,"P37X+3G9 Choti Masjid, Vijay vihar Phase I, Phase 1, Pocket G, Sector 4, Rohini, Delhi, 110085","Vijay vihar Phase I, Phase 1, Pocket G, Sector 4, Rohini",P37X+3G9,Delhi,110085,Delhi,IN,https://www.google.com/maps/place/Choti+Masjid/data=!4m7!3m6!1s0x390d076416b96413:0x706a8e9c269a3572!8m2!3d28.7126655!4d77.0988727!16s%2Fg%2F11l3ck9z62!19sChIJE2S5FmQHDTkRcjWaJpyOanA?authuser=0&hl=en&rclk=1,"28.7126655,77.0988727"
Masjid,Mosque,"P26W+G9R Masjid, Sharma Enclave, Phase II, Rohini, New Delhi, Delhi, 110086","Sharma Enclave, Phase II, Rohini",P26W+G9R,"New Delhi, Delhi",110086,Delhi,IN,https://www.google.com/maps/place/Masjid/data=!4m7!3m6!1s0x390d0665424343cf:0xe967304e46362a9e!8m2!3d28.7113688!4d77.045882!16s%2Fg%2F11gfgxlbhp!19sChIJz0NDQmUGDTkRnio2Rk4wZ-k?authuser=0&hl=en&rclk=1,"28.7113688,77.04588199999999"
"Batla masjid, pappu colony",Mosque,"P3VH+9CQ Batla masjid, pappu colony, Pappu Colony, Sector 31, Rohini, Delhi, 110039","Pappu Colony, Sector 31, Rohini",P3VH+9CQ,Delhi,110039,Delhi,IN,"https://www.google.com/maps/place/Batla+masjid,+pappu+colony/data=!4m7!3m6!1s0x390d0793c6418ce1:0x2245762de64c4bc4!8m2!3d28.7434716!4d77.0786193!16s%2Fg%2F11s38kv0jp!19sChIJ4YxBxpMHDTkRxEtM5i12RSI?authuser=0&hl=en&rclk=1","28.7434716,77.0786193"
Bilal Masjid,Mosque,"P4JW+CCV Bilal Masjid, Badli, Rohini, New Delhi, Delhi, 110042","Badli, Rohini",P4JW+CCV,"New Delhi, Delhi",,Delhi,IN,https://www.google.com/maps/place/Bilal+Masjid/data=!4m7!3m6!1s0x390d01a085f3e577:0xd9747950c6dea1fc!8m2!3d28.7311147!4d77.1460377!16s%2Fg%2F11qbdj1s7d!19sChIJd-XzhaABDTkR_KHexlB5dNk?authuser=0&hl=en&rclk=1,"28.7311147,77.1460377"
Jamia Masjid Shalipora,Mosque,"P432+JXG Jamia Masjid Shalipora, Pocket 25, Sector 3G, Rohini, Delhi, 110085","Pocket 25, Sector 3G, Rohini",P432+JXG,Delhi,,Delhi,IN,https://www.google.com/maps/place/Jamia+Masjid+Shalipora/data=!4m7!3m6!1s0x390d01e748dee987:0xa3e53c52f8c3508a!8m2!3d28.7040585!4d77.1024588!16s%2Fg%2F11gj4hx_w9!19sChIJh-neSOcBDTkRilDD-FI85aM?authuser=0&hl=en&rclk=1,"28.7040585,77.1024588"
Madina Maszid,Mosque,"P432+JXG Madina Maszid, Pocket 25, Sector 3G, Rohini, Delhi, 110085","Pocket 25, Sector 3G, Rohini",P432+JXG,Delhi,110085,Delhi,IN,https://www.google.com/maps/place/Madina+Maszid/data=!4m7!3m6!1s0x390d018613fc13e1:0xb7a57d9d5623c997!8m2!3d28.7040585!4d77.1024588!16s%2Fg%2F11f6dnn289!19sChIJ4RP8E4YBDTkRl8kjVp19pbc?authuser=0&hl=en&rclk=1,"28.7040585,77.1024588"
