name,main_category,address,address_ward,address_street,address_city,address_postal_code,address_state,address_country_code,link,coordinates
Raza Masjid Madarsa E Ahle Sunnat,Mosque,"J9HW+VVW Raza Masjid Madarsa E Ahle Sunnat, Chhajarsi Colony, Noida, Uttar Pradesh 201307",Chhajarsi Colony,J9HW+VVW,Noida,201307,Uttar Pradesh,IN,https://www.google.com/maps/place/Raza+Masjid+Madarsa+E+Ahle+Sunnat/data=!4m7!3m6!1s0x390cefe617cf7dd1:0xdefb82e1389d56c9!8m2!3d28.6297357!4d77.3972007!16s%2Fg%2F11dfsy42q3!19sChIJ0X3PF-bvDDkRyVadOOGC-94?authuser=0&hl=en&rclk=1,"28.629735699999998,77.3972007"
Bilal Masjid msjd bll,Mosque,"J8JR+953 Bilal Masjid msjd bll, Makanpur Colony, Sector 62A, Noida, Uttar Pradesh 201010","Makanpur Colony, Sector 62A",J8JR+953,Noida,201010,Uttar Pradesh,IN,https://www.google.com/maps/place/Bilal+Masjid+%D9%85%D8%B3%D8%AC%D8%AF+%D8%A8%D9%84%D8%A7%D9%84%E2%80%AD/data=!4m7!3m6!1s0x390ce5a4952e1435:0xd702eea4e2eb5ffd!8m2!3d28.6308947!4d77.3404245!16s%2Fg%2F11g3y_nv46!19sChIJNRQulaTlDDkR_V_r4qTuAtc?authuser=0&hl=en&rclk=1,"28.6308947,77.3404245"
Madina Masjid,Mosque,"GC9P+RFH Madina Masjid, Kulesara, Greater Noida, Uttar Pradesh 201306",Kulesara,GC9P+RFH,Greater Noida,201306,Uttar Pradesh,IN,https://www.google.com/maps/place/Madina+Masjid/data=!4m7!3m6!1s0x390ce9c2beb86cc7:0x3b4df685526d2cb8!8m2!3d28.5195699!4d77.4363515!16s%2Fg%2F11h24xk7wy!19sChIJx2y4vsLpDDkRuCxtUoX2TTs?authuser=0&hl=en&rclk=1,"28.5195699,77.4363515"
Jama Masjid sector 8 noida,Mosque,"Jama Masjid sector 8 noida, jama masjid, B Block, Sector 8, Noida, Uttar Pradesh 201301","B Block, Sector 8",jama masjid,Noida,201301,Uttar Pradesh,IN,https://www.google.com/maps/place/Jama+Masjid+sector+8+noida/data=!4m7!3m6!1s0x390ce4fc07ed18ab:0x506330ac087ac76f!8m2!3d28.5935005!4d77.3269181!16s%2Fg%2F11b76tbdb1!19sChIJqxjtB_zkDDkRb8d6CKwwY1A?authuser=0&hl=en&rclk=1,"28.593500499999998,77.3269181"
Madina Masjid mdynh msjd,Mosque,"Madina Masjid mdynh msjd, Mandir, Masjid Wali Gali, Nithari, Nithari Village, Sector 31, Noida, Uttar Pradesh 201301","Nithari, Nithari Village, Sector 31","Mandir, Masjid Wali Gali",Noida,201301,Uttar Pradesh,IN,https://www.google.com/maps/place/Madina+Masjid+%D9%85%D8%AF%DB%8C%D9%86%DB%81+%D9%85%D8%B3%D8%AC%D8%AF%E2%80%AD/data=!4m7!3m6!1s0x390ce5baef7b30a1:0x52759aa50f772677!8m2!3d28.5764906!4d77.3462343!16s%2Fg%2F1ptw_nrr_!19sChIJoTB777rlDDkRdyZ3D6WadVI?authuser=0&hl=en&rclk=1,"28.5764906,77.34623429999999"
Noida Markaz Masjid nwy'ydd mrkhz msjd,Mosque,"Noida Markaz Masjid nwy'ydd mrkhz msjd, Amrapali Princely Estate, Sector 76, Noida, Uttar Pradesh 201304","Amrapali Princely Estate, Sector 78","Amrapali Princely Estate, Sector 76",Noida,201304,Uttar Pradesh,IN,https://www.google.com/maps/place/Noida+Markaz+Masjid+%D9%86%D9%88%D8%A6%DB%8C%DA%88%D8%A7+%D9%85%D8%B1%DA%A9%D8%B2+%D9%85%D8%B3%D8%AC%D8%AF%E2%80%AD/data=!4m7!3m6!1s0x390cef5f29f43823:0x9c67d8fa24ad35d9!8m2!3d28.5646731!4d77.3811769!16s%2Fg%2F11c40q2zzw!19sChIJIzj0KV_vDDkR2TWtJPrYZ5w?authuser=0&hl=en&rclk=1,"28.5646731,77.3811769"
Masjid Gejha,Mosque,"Masjid Gejha, Masjid, Gejha, Sector 93, Noida, Uttar Pradesh 201304","Gejha, Sector 93",Masjid,Noida,201304,Uttar Pradesh,IN,https://www.google.com/maps/place/Masjid+Gejha/data=!4m7!3m6!1s0x390ce89f6928d40d:0x7bdcb893bd8c4e49!8m2!3d28.5240911!4d77.3822085!16s%2Fg%2F11c2nt4mg4!19sChIJDdQoaZ_oDDkRSU6MvZO43Hs?authuser=0&hl=en&rclk=1,"28.5240911,77.38220849999999"
Shiya Mosque and Imam Bargah msjd shy`h,Mosque,"Shiya Mosque and Imam Bargah msjd shy`h, E-97/C, E Block, Sector 50, Noida, Uttar Pradesh 201301","E Block, Sector 50","E-97/C, E Block, Sector 50",Noida,201301,Uttar Pradesh,IN,https://www.google.com/maps/place/Shiya+Mosque+and+Imam+Bargah+%D9%85%D8%B3%D8%AC%D8%AF+%D8%B4%DB%8C%D8%B9%DB%81%E2%80%AD/data=!4m7!3m6!1s0x390ce58de198a9bf:0x7f9b12c8aa5f8cf!8m2!3d28.5744186!4d77.3681432!16s%2Fg%2F1tfzvwdj!19sChIJv6mY4Y3lDDkRz_iliiyx-Qc?authuser=0&hl=en&rclk=1,"28.574418599999998,77.36814319999999"
Ittar,Mosque,"Ittar, Khoda clony madina masjid ke piche wali gali, Noida, Uttar Pradesh 201301","Deepak Vihar, Shital Vihar, Khora Colony, Sector 62",Khoda clony madina masjid ke piche wali gali,Noida,201301,Uttar Pradesh,IN,https://www.google.com/maps/place/Ittar/data=!4m7!3m6!1s0x390ce515a17e5c79:0x7267cfaf1b407065!8m2!3d28.6115424!4d77.3534016!16s%2Fg%2F11bxfl533r!19sChIJeVx-oRXlDDkRZXBAG6_PZ3I?authuser=0&hl=en&rclk=1,"28.611542399999998,77.3534016"
Al Flah Masjid,Mosque,"J9MR+6F5 Al Flah Masjid, Chhijarsi, Sector 63 A, Noida, Uttar Pradesh 201307","Chhijarsi, Sector 63 A",J9MR+6F5,Noida,201307,Uttar Pradesh,IN,https://www.google.com/maps/place/Al+Flah+Masjid/data=!4m7!3m6!1s0x390cefe4b8aab215:0x7127aeff0483688b!8m2!3d28.6330232!4d77.3912402!16s%2Fg%2F11dyzdhw1s!19sChIJFbKquOTvDDkRi2iDBP-uJ3E?authuser=0&hl=en&rclk=1,"28.6330232,77.3912402"
Makki Masjid Bhangel,Mosque,"Makki Masjid Bhangel, Kunda Colony Makki Masjid Sector 110, Goyal Colony, Salarpur Khadar, Noida, Uttar Pradesh 201304","Goyal Colony, Salarpur Khadar, Sector 102",Kunda Colony Makki Masjid Sector 110,Noida,201304,Uttar Pradesh,IN,https://www.google.com/maps/place/Makki+Masjid+Bhangel/data=!4m7!3m6!1s0x390ce8a55acf5f77:0x8d35b1e691c58680!8m2!3d28.5357789!4d77.3882229!16s%2Fg%2F1td4n1_z!19sChIJd1_PWqXoDDkRgIbFkeaxNY0?authuser=0&hl=en&rclk=1,"28.5357789,77.3882229"
Madina Masjid,Mosque,"J9HV+FPV Madina Masjid, Chhajarsi Colony, Noida, Uttar Pradesh 201307",Chhajarsi Colony,J9HV+FPV,Noida,201307,Uttar Pradesh,IN,https://www.google.com/maps/place/Madina+Masjid/data=!4m7!3m6!1s0x390cefe5f54aa305:0xfeefee117cd66f5d!8m2!3d28.6287257!4d77.3942989!16s%2Fg%2F1pp2vfp0v!19sChIJBaNK9eXvDDkRXW_WfBHu7_4?authuser=0&hl=en&rclk=1,"28.6287257,77.3942989"
Noorani Masjid,Mosque,"Noorani Masjid, A-27D, A Block, Sector 16, Noida, Uttar Pradesh 201301","A Block, Sector 16",A-27D,Noida,201301,Uttar Pradesh,IN,https://www.google.com/maps/place/Noorani+Masjid/data=!4m7!3m6!1s0x390ce45cf8cffc77:0x90d071db697bf979!8m2!3d28.5777983!4d77.3127416!16s%2Fg%2F11byyq5613!19sChIJd_zP-FzkDDkRefl7adtx0JA?authuser=0&hl=en&rclk=1,"28.577798299999998,77.3127416"
Accher Kabristaan Masjid,Mosque,"Accher Kabristaan Masjid, Masjid, Masjid Rd, Accher, Pi I & II, Greater Noida, Uttar Pradesh 201310","Accher, Pi I & II","Masjid, Masjid Rd",Greater Noida,201310,Uttar Pradesh,IN,https://www.google.com/maps/place/Accher+Kabristaan+Masjid/data=!4m7!3m6!1s0x390ce982deef0b0b:0xc0898927475ae73c!8m2!3d28.4671021!4d77.5380385!16s%2Fg%2F1tn0451r!19sChIJCwvv3oLpDDkRPOdaRyeJicA?authuser=0&hl=en&rclk=1,"28.467102099999998,77.5380385"
Noorani Jama Masjid Khoda Colony jm` msjd nwrny,Mosque,"J8JX+37W Noorani Jama Masjid Khoda Colony jm` msjd nwrny, Gali Noorani Masjid, Makanpur Colony, Sector 62A, Noida, Uttar Pradesh 201014","Makanpur Colony, Sector 62A","J8JX+37W, Gali Noorani Masjid",Noida,201014,Uttar Pradesh,IN,https://www.google.com/maps/place/Noorani+Jama+Masjid+Khoda+Colony+%D8%AC%D8%A7%D9%85%D8%B9+%D9%85%D8%B3%D8%AC%D8%AF+%D9%86%D9%88%D8%B1%D8%A7%D9%86%DB%8C%E2%80%AD/data=!4m7!3m6!1s0x390ce5c4cdc8f90f:0x703f8f20cc4dbaf6!8m2!3d28.6302362!4d77.3481958!16s%2Fg%2F11hzv4q2b7!19sChIJD_nIzcTlDDkR9rpNzCCPP3A?authuser=0&hl=en&rclk=1,"28.6302362,77.3481958"
Madina-E- Masjid,Mosque,"Madina-E- Masjid, 415, Gali Number 1, Chhalera, Chhalera Bangar, Sector 44, Noida, Uttar Pradesh 201303","Chhalera, Chhalera Bangar, Sector 44","415, Gali Number 1",Noida,201303,Uttar Pradesh,IN,https://www.google.com/maps/place/Madina-E-+Masjid/data=!4m7!3m6!1s0x390ce5cf08701c65:0x55b808221187305!8m2!3d28.5578557!4d77.3418185!16s%2Fg%2F11g7zwmb1t!19sChIJZRxwCM_lDDkRBXMYIYKAWwU?authuser=0&hl=en&rclk=1,"28.557855699999998,77.3418185"
Imambargah Anjuman Nasraine Ahlebait,Mosque,"Imambargah Anjuman Nasraine Ahlebait, church sec 50","E Block, Sector 50",church sec 50,Noida,,Uttar Pradesh,IN,https://www.google.com/maps/place/Imambargah+Anjuman+Nasraine+Ahlebait/data=!4m7!3m6!1s0x390ce58de1c80fc5:0x623a041fc8bb8993!8m2!3d28.5744621!4d77.3681102!16s%2Fg%2F11clyswmct!19sChIJxQ_I4Y3lDDkRk4m7yB8EOmI?authuser=0&hl=en&rclk=1,"28.574462099999998,77.36811019999999"
Masjid Umar,Mosque,"Masjid Umar, Noida-Greater Noida Expy, Raipur Khadar, Sector 126, near Akansha Stationary Store, Noida, Uttar Pradesh 201313","Raipur Khadar, Sector 126","Noida-Greater Noida Expy, Raipur Khadar, Sector 126, near Akansha Stationary Store",Noida,201313,Uttar Pradesh,IN,https://www.google.com/maps/place/Masjid+Umar/data=!4m7!3m6!1s0x390ce678bd924cf9:0x4ecd946c6faa6ec6!8m2!3d28.5423387!4d77.3395738!16s%2Fg%2F11bxk9qkr9!19sChIJ-UySvXjmDDkRxm6qb2yUzU4?authuser=0&hl=en&rclk=1,"28.5423387,77.3395738"
Masjid Namaz Room msjd,Mosque,"H88C+WFJ Masjid Namaz Room msjd, Staff Canteen, Basement Area, DLF Mall of India, Sector 18, Noida, Uttar Pradesh 201301",Sector 18,"H88C+WFJ, Staff Canteen, Basement Area, DLF Mall of India",Noida,201301,Uttar Pradesh,IN,https://www.google.com/maps/place/Masjid+Namaz+Room+%D9%85%D8%B3%D8%AC%D8%AF%E2%80%AD/data=!4m7!3m6!1s0x390ce4489fa6993b:0xe99be10b4e852f53!8m2!3d28.5673409!4d77.3211303!16s%2Fg%2F11f__7tqs7!19sChIJO5mmn0jkDDkRUy-FTgvhm-k?authuser=0&hl=en&rclk=1,"28.567340899999998,77.3211303"
Sector 120 Mosque,Mosque,"Sector 120 Mosque, 201307, RG Residency, Sector 120, Noida, Uttar Pradesh 201307","RG Residency, Sector 120",201307,Noida,201307,Uttar Pradesh,IN,https://www.google.com/maps/place/Sector+120+Mosque/data=!4m7!3m6!1s0x390cef73f597e295:0x4c5448204f103c3b!8m2!3d28.588635!4d77.396808!16s%2Fg%2F11cs6bj42k!19sChIJleKX9XPvDDkROzwQTyBIVEw?authuser=0&hl=en&rclk=1,"28.588635,77.396808"
Khajuri Masjid,Mosque,"H82R+WPM Khajuri Masjid, Street Number - 39, Khajur Colony, Block D, Sector 44, Noida, Uttar Pradesh 201301","Khajur Colony, Block D, Sector 44","H82R+WPM, Street Number - 39",Noida,201301,Uttar Pradesh,IN,https://www.google.com/maps/place/Khajuri+Masjid/data=!4m7!3m6!1s0x390ce5d0f679a0a1:0x5cf9f3b35114cd12!8m2!3d28.5523449!4d77.3417993!16s%2Fg%2F11dxd4yxlm!19sChIJoaB59tDlDDkREs0UUbPz-Vw?authuser=0&hl=en&rclk=1,"28.552344899999998,77.34179929999999"
Khawaja Garib Nawaz Jama Masjid khwjh Gryb nwz jm` msjd,Mosque,"Khawaja Garib Nawaz Jama Masjid khwjh Gryb nwz jm` msjd, Shital Vihar, Khora Colony, Sector 62A, Noida, Uttar Pradesh 201309","Shital Vihar, Khora Colony, Sector 62A",,Noida,201309,Uttar Pradesh,IN,https://www.google.com/maps/place/Khawaja+Garib+Nawaz+Jama+Masjid+%D8%AE%D9%88%D8%A7%D8%AC%DB%81+%D8%BA%D8%B1%DB%8C%D8%A8+%D9%86%D9%88%D8%A7%D8%B2+%D8%AC%D8%A7%D9%85%D8%B9+%D9%85%D8%B3%D8%AC%D8%AF%E2%80%AD/data=!4m7!3m6!1s0x390ce51560beaa35:0x2993b2e03a9a6028!8m2!3d28.6130844!4d77.3539095!16s%2Fg%2F11f3bg_tkn!19sChIJNaq-YBXlDDkRKGCaOuCykyk?authuser=0&hl=en&rclk=1,"28.613084399999998,77.3539095"
Ilahi Masjid,Mosque,"J8HW+HR5 Ilahi Masjid, Makanpur Colony, Sector 62A, Noida, Uttar Pradesh 201010","Makanpur Colony, Sector 62A",J8HW+HR5,Noida,201010,Uttar Pradesh,IN,https://www.google.com/maps/place/Ilahi+Masjid/data=!4m7!3m6!1s0x390ce53170e3bd5d:0xfbf82c09cfa6d3aa!8m2!3d28.6288947!4d77.3471098!16s%2Fg%2F11d_7y8d1z!19sChIJXb3jcDHlDDkRqtOmzwks-Ps?authuser=0&hl=en&rclk=1,"28.6288947,77.3471098"
Masjid E Noor,Mosque,"FCV8+H4C Masjid E Noor, Masjid Rd, Chhaprauli Bangar, Sector 167, Noida, Uttar Pradesh 201306","Chhaprauli Bangar, Sector 167","FCV8+H4C, Masjid Rd",Noida,201306,Uttar Pradesh,IN,https://www.google.com/maps/place/Masjid+E+Noor/data=!4m7!3m6!1s0x390ce9bc395523d1:0xaea0f43a8d21aed2!8m2!3d28.493934!4d77.415251!16s%2Fg%2F11rgp0n_9s!19sChIJ0SNVObzpDDkR0q4hjTr0oK4?authuser=0&hl=en&rclk=1,"28.493934,77.415251"
Makki Masjid mkhWy msjd,Mosque,"J8JW+5HF Makki Masjid mkhWy msjd, Makanpur Colony, Sector 62A, Noida, Uttar Pradesh 201010","Makanpur Colony, Sector 62A",J8JW+5HF,Noida,201010,Uttar Pradesh,IN,https://www.google.com/maps/place/Makki+Masjid+%D9%85%DA%A9%D9%91%DB%8C+%D9%85%D8%B3%D8%AC%D8%AF%E2%80%AD/data=!4m7!3m6!1s0x390ce5322e793e75:0x551ab2fd6af89427!8m2!3d28.6304435!4d77.3464252!16s%2Fg%2F11c57czs1h!19sChIJdT55LjLlDDkRJ5T4av2yGlU?authuser=0&hl=en&rclk=1,"28.6304435,77.3464252"
Noor Masjid,Mosque,"GF5G+QCJ Noor Masjid, Surajpur, Greater Noida, Uttar Pradesh 201306",Surajpur,GF5G+QCJ,Greater Noida,201306,Uttar Pradesh,IN,https://www.google.com/maps/place/Noor+Masjid/data=!4m7!3m6!1s0x390cea2ca850b333:0x919796c885527f47!8m2!3d28.5094516!4d77.4760217!16s%2Fg%2F1tggrxc6!19sChIJM7NQqCzqDDkRR39ShciWl5E?authuser=0&hl=en&rclk=1,"28.5094516,77.47602169999999"
Kabristan Masjid,Mosque,"G8VH+3GG Kabristan Masjid, Sector 125, Noida, Uttar Pradesh 201313",Sector 125,G8VH+3GG,Noida,201313,Uttar Pradesh,IN,https://www.google.com/maps/place/Kabristan+Masjid/data=!4m7!3m6!1s0x390ce42a707ecd6b:0xb3f35d4c4e8e67ec!8m2!3d28.5426997!4d77.3288423!16s%2Fg%2F11dzt73f85!19sChIJa81-cCrkDDkR7GeOTkxd87M?authuser=0&hl=en&rclk=1,"28.5426997,77.32884229999999"
Mosque,Mosque,"Mosque, 58, Bishanpura Rd, Shital Vihar, Khora Colony, Sector 62A, Noida, Uttar Pradesh 201301","Shital Vihar, Khora Colony, Sector 62A","58, Bishanpura Rd",Noida,201301,Uttar Pradesh,IN,https://www.google.com/maps/place/Mosque/data=!4m7!3m6!1s0x390ce5151ba6997b:0xe648b8d9ff9c2876!8m2!3d28.6109411!4d77.3534596!16s%2Fg%2F11c58551kp!19sChIJe5mmGxXlDDkRdiic_9m4SOY?authuser=0&hl=en&rclk=1,"28.610941099999998,77.3534596"
SABRI MOSQUE Ahle Sunnat,Mosque,"SABRI MOSQUE Ahle Sunnat, Dadri Main Road, Block A, Noida Phase-2, Yakubpur, Noida, Uttar Pradesh 201305","Block A, Yakubpur","Dadri Main Road, Block A, Noida Phase-2, Yakubpur",Noida,201305,Uttar Pradesh,IN,https://www.google.com/maps/place/SABRI+MOSQUE+Ahle+Sunnat/data=!4m7!3m6!1s0x390ce8b85804924d:0x46db13b207f8c963!8m2!3d28.5344568!4d77.3991987!16s%2Fg%2F11f11ctf5k!19sChIJTZIEWLjoDDkRY8n4B7IT20Y?authuser=0&hl=en&rclk=1,"28.534456799999997,77.3991987"
Abu-Bakr Masjid,Mosque,"FCRH+CF4 Abu-Bakr Masjid, Sector 144, Noida, Uttar Pradesh 201306",Sector 144,FCRH+CF4,Noida,201306,Uttar Pradesh,IN,https://www.google.com/maps/place/Abu-Bakr+Masjid/data=!4m7!3m6!1s0x390ce9c820c71173:0xcad169eb0df56d22!8m2!3d28.4910076!4d77.4287138!16s%2Fg%2F11gj0tpxz7!19sChIJcxHHIMjpDDkRIm31Detp0co?authuser=0&hl=en&rclk=1,"28.4910076,77.4287138"
Alivardipur Masjid,Mosque,"GCPQ+55R Alivardipur Masjid, Kulesara, Noida, Greater Noida, Uttar Pradesh 201306",Kulesara,GCPQ+55R,"Noida, Greater Noida",201306,Uttar Pradesh,IN,https://www.google.com/maps/place/Alivardipur+Masjid/data=!4m7!3m6!1s0x390ce93b63454b07:0x55a00fd129bd3d7!8m2!3d28.5354898!4d77.4378761!16s%2Fg%2F11f15dmk8s!19sChIJB0tFYzvpDDkR19ObEv0AWgU?authuser=0&hl=en&rclk=1,"28.535489799999997,77.4378761"
Chand Masjid,Mosque,"J8FX+355 Chand Masjid, Unnamed Road, Khora Colony, Sector 62A, Noida, Uttar Pradesh 201309","Khora Colony, Sector 62A","J8FX+355, Unnamed Road",Noida,201309,Uttar Pradesh,IN,https://www.google.com/maps/place/Chand+Masjid/data=!4m7!3m6!1s0x390ce53a40ded997:0xad896fa7dca36270!8m2!3d28.622628!4d77.3479725!16s%2Fg%2F11f3n32h8z!19sChIJl9neQDrlDDkRcGKj3Kdvia0?authuser=0&hl=en&rclk=1,"28.622628,77.3479725"
Friday Mosque Namaz,Mosque,"Friday Mosque Namaz, G-246, G Block, Sector 65, Noida, Chotpur, Uttar Pradesh 201301","G Block, Sector 65",G-246,"Noida, Chotpur",201301,Uttar Pradesh,IN,https://www.google.com/maps/place/Friday+Mosque+Namaz/data=!4m7!3m6!1s0x390cef92a3713b6f:0x535e2bd50a7f439d!8m2!3d28.6155091!4d77.3916596!16s%2Fg%2F11bwgwdfd6!19sChIJbztxo5LvDDkRnUN_CtUrXlM?authuser=0&hl=en&rclk=1,"28.615509099999997,77.3916596"
Masjid e Aqsa msjdi qSy,Mosque,"G9X2+R38 Masjid e Aqsa msjdi qSy, Sadarpur, Sector-45, Noida, Uttar Pradesh 201303","Sadarpur, Sector-45",G9X2+R38,Noida,201303,Uttar Pradesh,IN,https://www.google.com/maps/place/Masjid+e+Aqsa+%D9%85%D8%B3%D8%AC%D8%AF%D9%90+%D8%A7%D9%82%D8%B5%D9%B0%DB%8C%E2%80%AD/data=!4m7!3m6!1s0x390ce5deaf29b341:0x3cccf01e014599a2!8m2!3d28.549526!4d77.3501959!16s%2Fg%2F11c55w0s_h!19sChIJQbMpr97lDDkRoplFAR7wzDw?authuser=0&hl=en&rclk=1,"28.549526,77.3501959"
Madrasa Qadriya Raza - E- Mustafa msjd,Mosque,"Madrasa Qadriya Raza - E- Mustafa msjd, J.J Colony, Near Naya Baria, Sector 16, Gautham Budh Nagar, Noida, Uttar Pradesh 201301","Gautam Budh Nagar, A Block, Sector 16","J.J Colony, Near Naya Baria, Sector 16, Gautham Budh Nagar",Noida,201301,Uttar Pradesh,IN,https://www.google.com/maps/place/Madrasa+Qadriya+Raza+-+E-+Mustafa+%D9%85%D8%B3%D8%AC%D8%AF%E2%80%AD/data=!4m7!3m6!1s0x390ce45cf95d7ff3:0xeed67e6807e0b392!8m2!3d28.577611!4d77.312788!16s%2Fg%2F11bxfy3xyw!19sChIJ839d-VzkDDkRkrPgB2h-1u4?authuser=0&hl=en&rclk=1,"28.577610999999997,77.312788"
Jama Masjid Peer Wali,Mosque,"Jama Masjid Peer Wali, New Ajanta Park, Sangam Vihar, Khora Colony, Sector 62A, Noida, Uttar Pradesh 201309","New Ajanta Park, Sangam Vihar, Khora Colony, Sector 62A",,Noida,201309,Uttar Pradesh,IN,https://www.google.com/maps/place/Jama+Masjid+Peer+Wali/data=!4m7!3m6!1s0x390ce5b7b684573b:0x2f14349e9fd2d098!8m2!3d28.6207014!4d77.3434!16s%2Fg%2F11h8xphnyx!19sChIJO1eEtrflDDkRmNDSn540FC8?authuser=0&hl=en&rclk=1,"28.620701399999998,77.3434"
Rabbani Masjid,Mosque,"J8FV+9G2 Rabbani Masjid, Makanpur Colony, Sector 62A, Noida, Uttar Pradesh 201309","Makanpur Colony, Sector 62A",J8FV+9G2,Noida,201309,Uttar Pradesh,IN,https://www.google.com/maps/place/Rabbani+Masjid/data=!4m7!3m6!1s0x390ce52553045121:0x7fcc77ace2520ad0!8m2!3d28.6233858!4d77.3437808!16s%2Fg%2F11ggls6hls!19sChIJIVEEUyXlDDkR0ApS4qx3zH8?authuser=0&hl=en&rclk=1,"28.623385799999998,77.34378079999999"
Bilal Masjid And Madarsa Gulshan-e-raza,Mosque,"Bilal Masjid And Madarsa Gulshan-e-raza, Bilal Masjid and madrasa gulshan-e-raza, near bd international school, Noida, Uttar Pradesh 201307","Yusufpur, Nai Basti Dundahera","Bilal Masjid and madrasa gulshan-e-raza, near bd international school","Noida, Ghaziabad",201307,Uttar Pradesh,IN,https://www.google.com/maps/place/Bilal+Masjid+And+Madarsa+Gulshan-e-raza/data=!4m7!3m6!1s0x390cefb6ef005263:0xa7ee4eda65fc4bf2!8m2!3d28.6180991!4d77.4136615!16s%2Fg%2F11dzx1htyf!19sChIJY1IA77bvDDkR8kv8ZdpO7qc?authuser=0&hl=en&rclk=1,"28.6180991,77.4136615"
Aqsaa Masjid,Mosque,"J9HX+HRP Aqsaa Masjid, Chotpur Colony, Chhajarsi Colony, Noida, Uttar Pradesh 201307","Chotpur Colony, Chhajarsi Colony",J9HX+HRP,Noida,201307,Uttar Pradesh,IN,https://www.google.com/maps/place/Aqsaa+Masjid/data=!4m7!3m6!1s0x390cefe8762c7c45:0xdd6533c8d58cfa3b!8m2!3d28.6289611!4d77.3995647!16s%2Fg%2F11f3yvw0vv!19sChIJRXwsdujvDDkRO_qM1cgzZd0?authuser=0&hl=en&rclk=1,"28.628961099999998,77.3995647"
Saabri Madina Masjid,Mosque,"J982+43J Saabri Madina Masjid, Unnamed Road, Khora Colony, Sector 62A, Noida, Uttar Pradesh 201309","Khora Colony, Sector 62A","J982+43J, Unnamed Road",Noida,201309,Uttar Pradesh,IN,https://www.google.com/maps/place/Saabri+Madina+Masjid/data=!4m7!3m6!1s0x390ce53e7a40e463:0x570770526bc3336f!8m2!3d28.6153273!4d77.3501367!16s%2Fg%2F11f3jjj7m_!19sChIJY-RAej7lDDkRbzPDa1JwB1c?authuser=0&hl=en&rclk=1,"28.615327299999997,77.3501367"
SUNNI ASHRAFIA JAMA MASJID,Mosque,"J9MW+C3J SUNNI ASHRAFIA JAMA MASJID, RAZA GALI, Sector 63, Noida, Uttar Pradesh 201307",Sector 63,"J9MW+C3J, RAZA GALI",Noida,201307,Uttar Pradesh,IN,https://www.google.com/maps/place/SUNNI+ASHRAFIA+JAMA+MASJID/data=!4m7!3m6!1s0x390cef8cbb7aa98f:0xc1f7be54de6d5a20!8m2!3d28.6335893!4d77.3951444!16s%2Fg%2F11gy4qwzj0!19sChIJj6l6u4zvDDkRIFpt3lS-98E?authuser=0&hl=en&rclk=1,"28.633589299999997,77.39514439999999"
Firdous Masjid,Mosque,"J8GV+PVG Firdous Masjid, Bharat Nagar, Khora Colony, Sector 62A, Ghaziabad, Noida, Uttar Pradesh 201309","Khora Colony, Sector 62A","J8GV+PVG, Bharat Nagar","Ghaziabad, Noida",,Uttar Pradesh,IN,https://www.google.com/maps/place/Firdous+Masjid/data=!4m7!3m6!1s0x390ce53f5ac780af:0xdc3053dcb6c1adb1!8m2!3d28.6268132!4d77.3446965!16s%2Fg%2F11f61581yg!19sChIJr4DHWj_lDDkRsa3BttxTMNw?authuser=0&hl=en&rclk=1,"28.626813199999997,77.3446965"
Masjid Abu Baker,Mosque,"G8XX+QMC Masjid Abu Baker, Village Chhalera & Sadarpur, Sadarpur, Sector-45, Noida, Uttar Pradesh 201303","Village Chhalera & Sadarpur, Sadarpur, Sector-45",G8XX+QMC,Noida,201303,Uttar Pradesh,IN,https://www.google.com/maps/place/Masjid+Abu+Baker/data=!4m7!3m6!1s0x390ce5d951285c39:0x178d19211d6f7e01!8m2!3d28.5494424!4d77.349128!16s%2Fg%2F11c55vdcvq!19sChIJOVwoUdnlDDkRAX5vHSEZjRc?authuser=0&hl=en&rclk=1,"28.5494424,77.349128"
Madina Masjid Haldoni,Mosque,"GCQR+WJ6 Madina Masjid Haldoni, Jalpura, Greater Noida, Uttar Pradesh 201306",Jalpura,GCQR+WJ6,Greater Noida,201306,Uttar Pradesh,IN,https://www.google.com/maps/place/Madina+Masjid+Haldoni/data=!4m7!3m6!1s0x390ce93a2007c659:0xf9004ae02b98b65!8m2!3d28.5397813!4d77.4415041!16s%2Fg%2F11g8xdmg4d!19sChIJWcYHIDrpDDkRZYu5Aq4EkA8?authuser=0&hl=en&rclk=1,"28.539781299999998,77.4415041"
Salmaan Farsi Mosque,Mosque,"GCVM+PP4 Salmaan Farsi Mosque, Vyapari Gali, Jalpura, Greater Noida, Uttar Pradesh 201306","Vyapari Gali, Jalpura",GCVM+PP4,Greater Noida,201306,Uttar Pradesh,IN,https://www.google.com/maps/place/Salmaan+Farsi+Mosque/data=!4m7!3m6!1s0x390ce92e38797747:0x3d20ce50f671c219!8m2!3d28.5442746!4d77.4343347!16s%2Fg%2F11dxf0qz9m!19sChIJR3d5OC7pDDkRGcJx9lDOID0?authuser=0&hl=en&rclk=1,"28.544274599999998,77.4343347"
Madina Masjid,Mosque,"Madina Masjid, 201306, Bisrakh Rd, Jalpura, Greater Noida, Uttar Pradesh 201009",Jalpura,"201306, Bisrakh Rd",Greater Noida,201009,Uttar Pradesh,IN,https://www.google.com/maps/place/Madina+Masjid/data=!4m7!3m6!1s0x390ce9310072b0f3:0x1e5e3e71c6858c64!8m2!3d28.5438856!4d77.4387029!16s%2Fg%2F11c6z02b40!19sChIJ87ByADHpDDkRZIyFxnE-Xh4?authuser=0&hl=en&rclk=1,"28.5438856,77.4387029"
Madina Masjid msjd mdynh,Mosque,"Madina Masjid msjd mdynh, I-61, I Block, Sector 9, Noida, Uttar Pradesh 201301","I Block, Sector 9",I-61,Noida,201301,Uttar Pradesh,IN,https://www.google.com/maps/place/Madina+Masjid+%D9%85%D8%B3%D8%AC%D8%AF+%D9%85%D8%AF%DB%8C%D9%86%DB%81%E2%80%AD/data=!4m7!3m6!1s0x390ce51fb8bcd53f:0x163ca53a2e104f4d!8m2!3d28.589211!4d77.3274391!16s%2Fg%2F11g0jcsl16!19sChIJP9W8uB_lDDkRTU8QLjqlPBY?authuser=0&hl=en&rclk=1,"28.589211,77.32743909999999"
Rehmania Masjid,Mosque,"J85X+XC7 Rehmania Masjid, Police Chowki Rd, Shital Vihar, Khora Colony, Sector 62A, Noida, Uttar Pradesh 201309","Shital Vihar, Khora Colony, Sector 62A","J85X+XC7, Police Chowki Rd",Noida,201309,Uttar Pradesh,IN,https://www.google.com/maps/place/Rehmania+Masjid/data=!4m7!3m6!1s0x390ce51c4e4b18dd:0x782217b118a849f5!8m2!3d28.6099166!4d77.3485521!16s%2Fg%2F11gtz63p_h!19sChIJ3RhLThzlDDkR9UmoGLEXIng?authuser=0&hl=en&rclk=1,"28.6099166,77.34855209999999"
Masjid Asgarpur,Mosque,"G9C2+2H2 Masjid Asgarpur, Sector 128, Noida, Uttar Pradesh 201304",Sector 128,G9C2+2H2,Noida,201304,Uttar Pradesh,IN,https://www.google.com/maps/place/Masjid+Asgarpur/data=!4m7!3m6!1s0x390ce7d9beb89d59:0xac2163d336a4e0e8!8m2!3d28.5200036!4d77.3513987!16s%2Fg%2F11gslv2gcz!19sChIJWZ24vtnnDDkR6OCkNtNjIaw?authuser=0&hl=en&rclk=1,"28.5200036,77.35139869999999"
Chand Masjid,Mosque,"G9XQ+37P Chand Masjid, Masjid Wali Gali, Salarpur Khadar, Salarpur, Noida, Uttar Pradesh 201304","Salarpur Khadar, Salarpur","G9XQ+37P, Masjid Wali Gali",Noida,201304,Uttar Pradesh,IN,https://www.google.com/maps/place/Chand+Masjid/data=!4m7!3m6!1s0x390cef28990a5c6b:0x4750d78febfb924a!8m2!3d28.5477201!4d77.3881941!16s%2Fg%2F11fggyj_gl!19sChIJa1wKmSjvDDkRSpL764_XUEc?authuser=0&hl=en&rclk=1,"28.5477201,77.38819409999999"
Mosque,Mosque,"HCW7+XVV Mosque, Ambedkar City, Noida, Uttar Pradesh",Ambedkar City,HCW7+XVV,Noida,,Uttar Pradesh,IN,https://www.google.com/maps/place/Mosque/data=!4m7!3m6!1s0x390cefa838c87725:0x3069da86101995cf!8m2!3d28.5974756!4d77.4146565!16s%2Fg%2F11f3jlykfr!19sChIJJXfIOKjvDDkRz5UZEIbaaTA?authuser=0&hl=en&rclk=1,"28.5974756,77.41465649999999"
Noor Masjid,Mosque,"Noor Masjid, Noor Colony, Jalpura, Greater Noida, Uttar Pradesh 201306","Noor Colony, Jalpura",Noor Masjid,Greater Noida,201306,Uttar Pradesh,IN,https://www.google.com/maps/place/Noor+Masjid/data=!4m7!3m6!1s0x390ce937650f3ad9:0x15ba5a0d0b8a84a4!8m2!3d28.5419486!4d77.4434913!16s%2Fg%2F11hb43fhp4!19sChIJ2ToPZTfpDDkRpISKCw1auhU?authuser=0&hl=en&rclk=1,"28.541948599999998,77.44349129999999"
Madina Masjid Kakrala,Mosque,"Madina Masjid Kakrala, 96, Block A, Kakrala, Noida, Uttar Pradesh 201305","Block A, Kakrala",96,Noida,201305,Uttar Pradesh,IN,https://www.google.com/maps/place/Madina+Masjid+Kakrala/data=!4m7!3m6!1s0x390cef32dd09d923:0x68fa20e072e718af!8m2!3d28.551243!4d77.4100009!16s%2Fg%2F11c80hlb2l!19sChIJI9kJ3TLvDDkRrxjncuAg-mg?authuser=0&hl=en&rclk=1,"28.551243,77.4100009"
Mosque Jaypee Hospital,Mosque,"G97C+XMM Mosque Jaypee Hospital, Goberdhanpur, Sector 128, Noida, Shahpur Govardhanpur Bangar, Uttar Pradesh","Goberdhanpur, Sector 128",G97C+XMM,"Noida, Shahpur Govardhanpur Bangar",,Uttar Pradesh,IN,https://www.google.com/maps/place/Mosque+Jaypee+Hospital/data=!4m7!3m6!1s0x390ce730a9e26bfb:0x53d6c7e5ca7bc5fb!8m2!3d28.5149558!4d77.3716603!16s%2Fg%2F11ffv1xwk0!19sChIJ-2viqTDnDDkR-8V7yuXH1lM?authuser=0&hl=en&rclk=1,"28.5149558,77.3716603"
Al Qaim Masjid (Shia Juma Masjid),Mosque,"J8CV+7PG Al Qaim Masjid (Shia Juma Masjid), New Ajanta Park, Partap Vihar, Khora Colony, Sector 62A, Noida, Uttar Pradesh 201309","New Ajanta Park, Partap Vihar, Khora Colony, Sector 62A",J8CV+7PG,Noida,201309,Uttar Pradesh,IN,https://www.google.com/maps/place/Al+Qaim+Masjid+%28Shia+Juma+Masjid%29/data=!4m7!3m6!1s0x390ce5020f9ca5c9:0xcf9ad167ba08ce5b!8m2!3d28.6206884!4d77.3443188!16s%2Fg%2F11f6by1b0b!19sChIJyaWcDwLlDDkRW84IumfRms8?authuser=0&hl=en&rclk=1,"28.6206884,77.3443188"
Ajmeri Masjid,Mosque,"Ajmeri Masjid, Streer Number 2 Pawan Vihar, Khora Colony, (Sector 62A noida, dist, Ghaziabad, Uttar Pradesh 201309","Makanpur Colony, Sector 62A","Streer Number 2 Pawan Vihar, Khora Colony, (Sector 62A noida, dist","Ghaziabad, Noida",201309,Uttar Pradesh,IN,https://www.google.com/maps/place/Ajmeri+Masjid/data=!4m7!3m6!1s0x390ce5ed0019a8e1:0x37f4f271e3d10232!8m2!3d28.6284562!4d77.3510169!16s%2Fg%2F11fn9j9cyx!19sChIJ4agZAO3lDDkRMgLR43Hy9Dc?authuser=0&hl=en&rclk=1,"28.6284562,77.35101689999999"
Sunni Gausiya Jama Masjid,Mosque,"JCC3+XXH Sunni Gausiya Jama Masjid, Chhajarsi Colony, Noida, Uttar Pradesh 201307",Chhajarsi Colony,JCC3+XXH,Noida,201307,Uttar Pradesh,IN,https://www.google.com/maps/place/Sunni+Gausiya+Jama+Masjid/data=!4m7!3m6!1s0x390cef232ee1f2bb:0x4eaa8d97d9739e40!8m2!3d28.6224437!4d77.4049815!16s%2Fg%2F11k_nsmclk!19sChIJu_LhLiPvDDkRQJ5z2ZeNqk4?authuser=0&hl=en&rclk=1,"28.622443699999998,77.40498149999999"
Madeena masjid,Mosque,"JC9V+J98 Madeena masjid, Noida Extension, Shahberi, Ghaziabad, Uttar Pradesh 201009","Noida Extension, Shahberi",JC9V+J98,Ghaziabad,201009,Uttar Pradesh,IN,https://www.google.com/maps/place/Madeena+masjid/data=!4m7!3m6!1s0x390cef4b6cb4ddc1:0xc8c678aab685554e!8m2!3d28.6190436!4d77.4434672!16s%2Fg%2F11sqscsybb!19sChIJwd20bEvvDDkRTlWFtqp4xsg?authuser=0&hl=en&rclk=1,"28.619043599999998,77.4434672"
Juma masjid sector 8 msjd,Mosque,"Juma masjid sector 8 msjd, D-24, near Bank of India, D Block, Sector 9, Noida, Uttar Pradesh 201301","D Block, Sector 9","D-24, near Bank of India",Noida,201301,Uttar Pradesh,IN,https://www.google.com/maps/place/Juma+masjid+sector+8+%D9%85%D8%B3%D8%AC%D8%AF%E2%80%AD/data=!4m7!3m6!1s0x390ce52cc7a2d9e9:0xd965ecf4a01c8db2!8m2!3d28.5935531!4d77.3262843!16s%2Fg%2F11rx0m_rrp!19sChIJ6dmixyzlDDkRso0coPTsZdk?authuser=0&hl=en&rclk=1,"28.593553099999998,77.3262843"
Masjid,Religious destination,"H8PH+R7V Masjid, Sector 9, Noida, Uttar Pradesh 201301",Sector 9,H8PH+R7V,Noida,201301,Uttar Pradesh,IN,https://www.google.com/maps/place/Masjid/data=!4m7!3m6!1s0x390ce506f2bdaef3:0xca68b64615430a3e!8m2!3d28.5871004!4d77.3281598!16s%2Fg%2F11h_4sg39q!19sChIJ86698gblDDkRPgpDFUa2aMo?authuser=0&hl=en&rclk=1,"28.587100399999997,77.3281598"
Ghousia masjid,Mosque,"J8HW+WG8 Ghousia masjid, Sunday Market Rd, Khora Colony, Shalimar Garden, Ghaziabad, Noida, Uttar Pradesh 201309","Khora Colony, Shalimar Garden","J8HW+WG8, Sunday Market Rd","Ghaziabad, Noida",201309,Uttar Pradesh,IN,https://www.google.com/maps/place/Ghousia+masjid/data=!4m7!3m6!1s0x390ce55f73bb1793:0x56f0581dedf24a58!8m2!3d28.6297878!4d77.3463256!16s%2Fg%2F11fs2myy_r!19sChIJkxe7c1_lDDkRWEry7R1Y8FY?authuser=0&hl=en&rclk=1,"28.6297878,77.3463256"
Tayyeba masjid Jamia Colony Jalpura,Mosque,"GCRP+WCH Tayyeba masjid Jamia Colony Jalpura, Jalpura, Greater Noida, Uttar Pradesh 201306",Jalpura,GCRP+WCH,Greater Noida,201306,Uttar Pradesh,IN,https://www.google.com/maps/place/Tayyeba+masjid+Jamia+Colony+Jalpura/data=!4m7!3m6!1s0x390ce930218eec93:0x2ee641583dda166f!8m2!3d28.5423049!4d77.4361028!16s%2Fg%2F11cls6xccv!19sChIJk-yOITDpDDkRbxbaPVhB5i4?authuser=0&hl=en&rclk=1,"28.542304899999998,77.4361028"
"Gausiya Masjid,Madarsa Faizan-a-Gausul Wara",Mosque,"GCXH+338 Gausiya Masjid,Madarsa Faizan-a-Gausul Wara, Jalpura, Greater Noida, Uttar Pradesh 201306",Jalpura,GCXH+338,Greater Noida,201306,Uttar Pradesh,IN,"https://www.google.com/maps/place/Gausiya+Masjid,Madarsa+Faizan-a-Gausul+Wara/data=!4m7!3m6!1s0x390ce9523f17c343:0xd9135eb8080a0f9b!8m2!3d28.5476625!4d77.4277177!16s%2Fg%2F11f61t307l!19sChIJQ8MXP1LpDDkRmw8KCLheE9k?authuser=0&hl=en&rclk=1","28.547662499999998,77.4277177"
Masjid Abu Bakar,Mosque,"Masjid Abu Bakar, Sector 80, Kakrala, Uttar Pradesh 201305",Block A,Sector 80,"Kakrala, Noida",201305,Uttar Pradesh,IN,https://www.google.com/maps/place/Masjid+Abu+Bakar/data=!4m7!3m6!1s0x390cef32efb90e69:0xcc748ff40f2db75f!8m2!3d28.5519093!4d77.4107881!16s%2Fg%2F11dfj97d8c!19sChIJaQ657zLvDDkRX7ctD_SPdMw?authuser=0&hl=en&rclk=1,"28.5519093,77.41078809999999"
Amity Masjid msjd,Mosque,"Amity Masjid msjd, Village, Raipur Rd, Raipur Khadar, Sector 126, Noida, Uttar Pradesh 201304","Raipur Khadar, Sector 126","Village, Raipur Rd",Noida,201304,Uttar Pradesh,IN,https://www.google.com/maps/place/Amity+Masjid+%D9%85%D8%B3%D8%AC%D8%AF%E2%80%AD/data=!4m7!3m6!1s0x390ce76cb0f68bb1:0xe0de79f2059ac253!8m2!3d28.5423487!4d77.3395416!16s%2Fg%2F11sgdjh0rf!19sChIJsYv2sGznDDkRU8KaBfJ53uA?authuser=0&hl=en&rclk=1,"28.542348699999998,77.33954159999999"
Mosque,Mosque,"H8GW+HFJ Mosque, Nithari, Nithari Village, Sector 31, Noida, Uttar Pradesh 201303","Nithari, Nithari Village, Sector 31",H8GW+HFJ,Noida,201303,Uttar Pradesh,IN,https://www.google.com/maps/place/Mosque/data=!4m7!3m6!1s0x390ce5bae6055555:0x53e34f4ddcba07cc!8m2!3d28.5764671!4d77.3461266!16s%2Fg%2F11sscs0m9j!19sChIJVVUF5rrlDDkRzAe63E1P41M?authuser=0&hl=en&rclk=1,"28.5764671,77.34612659999999"
Jama Masjid Kakrala,Mosque,"Jama Masjid Kakrala, 96, Block A, Kakrala, Noida, Uttar Pradesh 201305","Block A, Kakrala",96,Noida,201305,Uttar Pradesh,IN,https://www.google.com/maps/place/Jama+Masjid+Kakrala/data=!4m7!3m6!1s0x390cef32dc7c885b:0x13d6868840ad4457!8m2!3d28.5509421!4d77.4104686!16s%2Fg%2F11g86j2vvs!19sChIJW4h83DLvDDkRV0StQIiG1hM?authuser=0&hl=en&rclk=1,"28.5509421,77.4104686"
Chand Masjid,Mosque,"GCMM+3WV Chand Masjid, Greater Noida, Uttar Pradesh 201306",,GCMM+3WV,Greater Noida,201306,Uttar Pradesh,IN,https://www.google.com/maps/place/Chand+Masjid/data=!4m7!3m6!1s0x390ce92324caa475:0xc2f0c29b03b8b852!8m2!3d28.5327308!4d77.4347895!16s%2Fg%2F11g8yk8t2x!19sChIJdaTKJCPpDDkRUri4A5vC8MI?authuser=0&hl=en&rclk=1,"28.5327308,77.4347895"
Madrasa Mosque Sarfabad,Mosque,"H9QP+27Q Madrasa Mosque Sarfabad, Sarfabad Village, Sarfabad, Sector 73, Noida, Uttar Pradesh 201307","Sarfabad Village, Sarfabad, Sector 73",H9QP+27Q,Noida,201307,Uttar Pradesh,IN,https://www.google.com/maps/place/Madrasa+Mosque+Sarfabad/data=!4m7!3m6!1s0x390cefc23fcdf7f9:0xa162492a46398848!8m2!3d28.5875777!4d77.3857199!16s%2Fg%2F11sbxv7cz2!19sChIJ-ffNP8LvDDkRSIg5RipJYqE?authuser=0&hl=en&rclk=1,"28.587577699999997,77.3857199"
Bilal masjid,Mosque,"J9JV+GW9 Bilal masjid, bilal Masjid, bilaal msjid, Chhajarsi Colony, Sector 63, Noida, Uttar Pradesh 201307",Sector 63,"J9JV+GW9, bilal Masjid, bilaal msjid, Chhajarsi Colony",Noida,201307,Uttar Pradesh,IN,https://www.google.com/maps/place/Bilal+masjid/data=!4m7!3m6!1s0x390cef65132a0c11:0x548403f20e8f905c!8m2!3d28.6312948!4d77.3948689!16s%2Fg%2F11q_jj56tm!19sChIJEQwqE2XvDDkRXJCPDvIDhFQ?authuser=0&hl=en&rclk=1,"28.6312948,77.39486889999999"
Masjid Azmat E Mustafa Brelvi,Mosque,"Masjid Azmat E Mustafa Brelvi, Block A, Block A, Budh Vihar, Bahrampur, Nai Basti Dundahera, Ghaziabad, Uttar Pradesh 201307","Block A, Budh Vihar, Bahrampur, Nai Basti Dundahera",Block A,Ghaziabad,201307,Uttar Pradesh,IN,https://www.google.com/maps/place/Masjid+Azmat+E+Mustafa+Brelvi/data=!4m7!3m6!1s0x390cefdd61750d3b:0x5dc24b5488d11d23!8m2!3d28.6310444!4d77.4015255!16s%2Fg%2F11hd1mmzr8!19sChIJOw11Yd3vDDkRIx3RiFRLwl0?authuser=0&hl=en&rclk=1,"28.6310444,77.40152549999999"
Jama masjid,Mosque,"G9XQ+469 Jama masjid, Salarpur Khadar, Salarpur, Noida, Uttar Pradesh 201304","Salarpur Khadar, Salarpur",G9XQ+469,Noida,201304,Uttar Pradesh,IN,https://www.google.com/maps/place/Jama+masjid/data=!4m7!3m6!1s0x390cefbfc6ca56b3:0x5cf55f5e32857d60!8m2!3d28.5477921!4d77.3881023!16s%2Fg%2F11h194611y!19sChIJs1bKxr_vDDkRYH2FMl5f9Vw?authuser=0&hl=en&rclk=1,"28.5477921,77.3881023"
BAGH WALI MASJID NEAR K K FOODS HABIBPUR,Mosque,"GCXQ+RFJ BAGH WALI MASJID NEAR K K FOODS HABIBPUR, Jalpura, Greater Noida, Uttar Pradesh 201306",Jalpura,GCXQ+RFJ,Greater Noida,201306,Uttar Pradesh,IN,https://www.google.com/maps/place/BAGH+WALI+MASJID+NEAR+K+K+FOODS+HABIBPUR/data=!4m7!3m6!1s0x390ce913b50d09db:0x9773adb35340e76b!8m2!3d28.5496!4d77.4386429!16s%2Fg%2F11fl3220l_!19sChIJ2wkNtRPpDDkRa-dAU7Otc5c?authuser=0&hl=en&rclk=1,"28.549599999999998,77.43864289999999"
Abubakar masjid,Mosque,"Abubakar masjid, 15, Street Number 1, Chotpur Colony, Tigri, Chhajarsi Colony, Noida, Uttar Pradesh 201307","Chotpur Colony, Tigri, Chhajarsi Colony","15, Street Number 1",Noida,201307,Uttar Pradesh,IN,https://www.google.com/maps/place/Abubakar+masjid/data=!4m7!3m6!1s0x390cef20d456ee11:0xf0683e915d27200a!8m2!3d28.626885!4d77.4059246!16s%2Fg%2F11jfh71vnf!19sChIJEe5W1CDvDDkRCiAnXZE-aPA?authuser=0&hl=en&rclk=1,"28.626884999999998,77.40592459999999"
Asarfiya Masjid,Mosque,"J9MW+C3J Asarfiya Masjid, chhajarsi colony, Sector 63, Noida, Uttar Pradesh 201307",Sector 63,"J9MW+C3J, chhajarsi colony",Noida,201307,Uttar Pradesh,IN,https://www.google.com/maps/place/Asarfiya+Masjid/data=!4m7!3m6!1s0x390cefffbd215c99:0xaba740f65d6e1989!8m2!3d28.6335819!4d77.3951267!16s%2Fg%2F11gy4qvpw8!19sChIJmVwhvf_vDDkRiRluXfZAp6s?authuser=0&hl=en&rclk=1,"28.6335819,77.39512669999999"
Haji Naseem Masjid,Mosque,"Haji Naseem Masjid, Vill No -232, Lotus Villa Rd, Sector -1, Jalpura, Greater Noida, Uttar Pradesh 201306","Sector -1, Jalpura","Vill No -232, Lotus Villa Rd",Greater Noida,201306,Uttar Pradesh,IN,https://www.google.com/maps/place/Haji+Naseem+Masjid/data=!4m7!3m6!1s0x390ceff9c3da8971:0x54fe7050446c2933!8m2!3d28.5532116!4d77.440224!16s%2Fg%2F11k9gmyvnz!19sChIJcYnaw_nvDDkRMylsRFBw_lQ?authuser=0&hl=en&rclk=1,"28.553211599999997,77.440224"
Chand Masjid,Mosque,"GF6H+922 Chand Masjid, Surajpur, Greater Noida, Uttar Pradesh 201306",Surajpur,GF6H+922,Greater Noida,201306,Uttar Pradesh,IN,https://www.google.com/maps/place/Chand+Masjid/data=!4m7!3m6!1s0x390ceb86f5a5f635:0x91b8dd38a87fd802!8m2!3d28.5108792!4d77.47751!16s%2Fg%2F11ll9mn74n!19sChIJNfal9YbrDDkRAth_qDjduJE?authuser=0&hl=en&rclk=1,"28.510879199999998,77.47751"
Baag Wali Masjid,Mosque,"Baag Wali Masjid, Habibpur Rd, near KK Food, Chauganpur, Jalpura, Greater Noida, Uttar Pradesh 201306","Chauganpur, Jalpura","Habibpur Rd, near KK Food",Greater Noida,201306,Uttar Pradesh,IN,https://www.google.com/maps/place/Baag+Wali+Masjid/data=!4m7!3m6!1s0x390ce961dcab6475:0xa3c9a9f1ed6ee256!8m2!3d28.5439872!4d77.4484235!16s%2Fg%2F11lq253v3z!19sChIJdWSr3GHpDDkRVuJu7fGpyaM?authuser=0&hl=en&rclk=1,"28.5439872,77.44842349999999"
Jama Masjid Haldoni,Mosque,"GCQQ+RQH Jama Masjid Haldoni, Jalpura, Greater Noida, Uttar Pradesh 201306",Jalpura,GCQQ+RQH,Greater Noida,,Uttar Pradesh,IN,https://www.google.com/maps/place/Jama+Masjid+Haldoni/data=!4m7!3m6!1s0x390ce95e6f987e7d:0x956b660498b5aaa!8m2!3d28.5395627!4d77.4394969!16s%2Fg%2F11kqvkbwjl!19sChIJfX6Yb17pDDkRqlqLSWC2Vgk?authuser=0&hl=en&rclk=1,"28.539562699999998,77.4394969"
Hasan Raza Jama Masjid (Barelvi),Mosque,"GCX8+CM7 Hasan Raza Jama Masjid (Barelvi), Kakrala, Noida, Uttar Pradesh 201305",Kakrala,GCX8+CM7,Noida,201305,Uttar Pradesh,IN,https://www.google.com/maps/place/Hasan+Raza+Jama+Masjid+%28Barelvi%29/data=!4m7!3m6!1s0x390ce9e2188bec3f:0x95acf4f948fed921!8m2!3d28.5485336!4d77.4166796!16s%2Fg%2F11h69wvzt7!19sChIJP-yLGOLpDDkRIdn-SPn0rJU?authuser=0&hl=en&rclk=1,"28.5485336,77.4166796"
Noori Masjid,Mosque,"Noori Masjid, 447, Makanpur Colony, Sector 62A, Ghaziabad, Noida, Uttar Pradesh 201010","Makanpur Colony, Sector 62A",447,"Ghaziabad, Noida",201010,Uttar Pradesh,IN,https://www.google.com/maps/place/Noori+Masjid/data=!4m7!3m6!1s0x390ce5cd3dc7a787:0x3141127a1db2c40a!8m2!3d28.6263205!4d77.3448668!16s%2Fg%2F11q25kd333!19sChIJh6fHPc3lDDkRCsSyHXoSQTE?authuser=0&hl=en&rclk=1,"28.6263205,77.34486679999999"
Ishaq Masjid,Mosque,"GCMQ+W5V Ishaq Masjid, Jalpura, Greater Noida, Uttar Pradesh 201306",Jalpura,GCMQ+W5V,Greater Noida,201306,Uttar Pradesh,IN,https://www.google.com/maps/place/Ishaq+Masjid/data=!4m7!3m6!1s0x390ce944cfc267ef:0x99aeab8220b21ddd!8m2!3d28.5348681!4d77.4379284!16s%2Fg%2F11rrncs1d9!19sChIJ72fCz0TpDDkR3R2yIIKrrpk?authuser=0&hl=en&rclk=1,"28.534868099999997,77.43792839999999"
Masjid noida,Mosque,"G9PQ+969 Masjid noida, Goyal Colony, Salarpur Khadar, Sector 102, Noida, Uttar Pradesh 201304","Goyal Colony, Salarpur Khadar, Sector 102",G9PQ+969,Noida,201304,Uttar Pradesh,IN,https://www.google.com/maps/place/Masjid+noida/data=!4m7!3m6!1s0x390ce968566589ad:0x1fac7bfd6dcedf31!8m2!3d28.535909!4d77.3881125!16s%2Fg%2F11snqfjj9_!19sChIJrYllVmjpDDkRMd_Obf17rB8?authuser=0&hl=en&rclk=1,"28.535909,77.38811249999999"
Masjid-Mohammadi Madrasa Islahul Muslimeen Pustapar Kakrala Sector 80 Noida,Mosque,"HC28+Q3J Masjid-Mohammadi Madrasa Islahul Muslimeen Pustapar Kakrala Sector 80 Noida, Chotpur Rd, Block A, Sector 80, Noida, Uttar Pradesh 201305","Block A, Sector 80","HC28+Q3J, Chotpur Rd",Noida,201305,Uttar Pradesh,IN,https://www.google.com/maps/place/Masjid-Mohammadi+Madrasa+Islahul+Muslimeen+Pustapar+Kakrala+Sector+80+Noida/data=!4m7!3m6!1s0x390cef87a0169d2d:0x9b90f3558d168731!8m2!3d28.55197!4d77.415147!16s%2Fg%2F11fj3lrmw6!19sChIJLZ0WoIfvDDkRMYcWjVXzkJs?authuser=0&hl=en&rclk=1,"28.551969999999997,77.41514699999999"
Mosque,Place of worship,"H89H+V63 Mosque, Sector 28, Noida, Uttar Pradesh 201301",Sector 28,H89H+V63,Noida,201301,Uttar Pradesh,IN,https://www.google.com/maps/place/Mosque/data=!4m7!3m6!1s0x390ce521968ac6e9:0xa09b62638b150d95!8m2!3d28.5696316!4d77.3280564!16s%2Fg%2F11txrhgm2y!19sChIJ6caKliHlDDkRlQ0Vi2Nim6A?authuser=0&hl=en&rclk=1,"28.569631599999997,77.3280564"
Masjid peer baba,Mosque,"HCW7+XVV Masjid peer baba, B Block Ambedkar City, Sector 123, Noida, Uttar Pradesh",Sector 123,"HCW7+XVV, B Block Ambedkar City",Noida,,Uttar Pradesh,IN,https://www.google.com/maps/place/Masjid+peer+baba/data=!4m7!3m6!1s0x390cef5789f0fa39:0x92d0d761f9571b08!8m2!3d28.5974976!4d77.4146646!16s%2Fg%2F11qn971jnf!19sChIJOfrwiVfvDDkRCBtX-WHX0JI?authuser=0&hl=en&rclk=1,"28.597497599999997,77.4146646"
Madina Masjid,Place of worship,"Madina Masjid, 63, Sector Rd, Yusufpur, Nai Basti Dundahera, Noida, Ghaziabad, Uttar Pradesh 201307","Yusufpur, Nai Basti Dundahera","63, Sector Rd","Noida, Ghaziabad",201307,Uttar Pradesh,IN,https://www.google.com/maps/place/Madina+Masjid/data=!4m7!3m6!1s0x390cef34edbb4b6d:0xf2da950a9a24767c!8m2!3d28.6142645!4d77.4056914!16s%2Fg%2F11ss4ghmfh!19sChIJbUu77TTvDDkRfHYkmgqV2vI?authuser=0&hl=en&rclk=1,"28.614264499999997,77.4056914"
Masjid,Mosque,"Masjid, 42C, Central Auto Market, Block B, Sector 16, Noida, Uttar Pradesh 201301","Central Auto Market, Block B, Sector 16",42C,Noida,201301,Uttar Pradesh,IN,https://www.google.com/maps/place/Masjid/data=!4m7!3m6!1s0x390ce45b6e8b8d05:0x1c6debc04866e60!8m2!3d28.577362!4d77.31624!16s%2Fg%2F11c6rj0f0y!19sChIJBY2LblvkDDkRYG6GBLzexgE?authuser=0&hl=en&rclk=1,"28.577361999999997,77.31624"
Kadde vali masjid,Mosque,"J8GV+FXM Kadde vali masjid, Unnamed Road, Makanpur Colony, Sector 62A, Noida, Uttar Pradesh 201309","Makanpur Colony, Sector 62A","J8GV+FXM, Unnamed Road",Noida,201309,Uttar Pradesh,IN,https://www.google.com/maps/place/Kadde+vali+masjid/data=!4m7!3m6!1s0x390ce5b8c9f05415:0x40d62ad4b4b90e40!8m2!3d28.6262084!4d77.3449208!16s%2Fg%2F11h_3wc0bn!19sChIJFVTwybjlDDkRQA65tNQq1kA?authuser=0&hl=en&rclk=1,"28.6262084,77.3449208"
Mosque,Mosque,"Mosque, Amanhind education and health awareness society, Gejha, Sector 93, Noida, Uttar Pradesh 201304","Gejha, Sector 93",Amanhind education and health awareness society,Noida,,Uttar Pradesh,IN,https://www.google.com/maps/place/Mosque/data=!4m7!3m6!1s0x390ce9964deb9f61:0x807c799f66ec290e!8m2!3d28.5233186!4d77.3823954!16s%2Fg%2F11k9glswy4!19sChIJYZ_rTZbpDDkRDinsZp95fIA?authuser=0&hl=en&rclk=1,"28.5233186,77.3823954"
Peer wali maszid,Mosque,"Peer wali maszid, B Block, Ambedkar City Rd, Sector 123, Noida, Uttar Pradesh 201306",Sector 123,"B Block, Ambedkar City Rd",Noida,201306,Uttar Pradesh,IN,https://www.google.com/maps/place/Peer+wali+maszid/data=!4m7!3m6!1s0x390cef4fdcce4f1b:0xea8ccad3ced69260!8m2!3d28.5975715!4d77.4147943!16s%2Fg%2F11jv4gx3x1!19sChIJG0_O3E_vDDkRYJLWztPKjOo?authuser=0&hl=en&rclk=1,"28.597571499999997,77.4147943"
Ajhari masjid,Mosque,"Ajhari masjid, payal colony, Sector 63, Noida, Uttar Pradesh 201307",Sector 63,payal colony,Noida,201307,Uttar Pradesh,IN,https://www.google.com/maps/place/Ajhari+masjid/data=!4m7!3m6!1s0x390cef61f5379f51:0x2ae9a859b74664a!8m2!3d28.6321497!4d77.3976309!16s%2Fg%2F11jzr295yd!19sChIJUZ839WHvDDkRSmZ0m4WargI?authuser=0&hl=en&rclk=1,"28.6321497,77.3976309"
Garib Nawaz Masjid msjd Gryb nwz,Mosque,"H8QG+VWW Garib Nawaz Masjid msjd Gryb nwz, Sector 9, Noida, Uttar Pradesh 201301",Sector 9,H8QG+VWW,Noida,201301,Uttar Pradesh,IN,https://www.google.com/maps/place/Garib+Nawaz+Masjid+%D9%85%D8%B3%D8%AC%D8%AF+%D8%BA%D8%B1%DB%8C%D8%A8+%D9%86%D9%88%D8%A7%D8%B2%E2%80%AD/data=!4m7!3m6!1s0x390ce5422cc0b949:0xbba35294538bc4d!8m2!3d28.5897383!4d77.3273272!16s%2Fg%2F11pgyvk6ky!19sChIJSbnALELlDDkRTbw4RSk1ugs?authuser=0&hl=en&rclk=1,"28.589738299999997,77.3273272"
Masjid musalla,Mosque,"Masjid musalla, A-89, A Block, Sector 10, Noida, Uttar Pradesh 201301","A Block, Sector 10",A-89,Noida,201301,Uttar Pradesh,IN,https://www.google.com/maps/place/Masjid+musalla/data=!4m7!3m6!1s0x390ce5901959d42b:0x7fb1c9f04066b8b5!8m2!3d28.5883346!4d77.3290123!16s%2Fg%2F11kbpj87y4!19sChIJK9RZGZDlDDkRtbhmQPDJsX8?authuser=0&hl=en&rclk=1,"28.5883346,77.3290123"
Jumma namaz noida,Mosque,"J9HW+XRW Jumma namaz noida, Sector 63, Noida, Uttar Pradesh 201307",Sector 63,J9HW+XRW,Noida,201307,Uttar Pradesh,IN,https://www.google.com/maps/place/Jumma+namaz+noida/data=!4m7!3m6!1s0x390cefb41a8e8501:0x5d794e638275adb7!8m2!3d28.6298859!4d77.3970993!16s%2Fg%2F11pd_bcny3!19sChIJAYWOGrTvDDkRt611gmNOeV0?authuser=0&hl=en&rclk=1,"28.629885899999998,77.3970993"
Namaz -E- masjid,Mosque,"GCWG+54Q Namaz -E- masjid, Jalpura, Greater Noida, Uttar Pradesh 201306",Jalpura,GCWG+54Q,Greater Noida,201306,Uttar Pradesh,IN,https://www.google.com/maps/place/Namaz+-E-+masjid/data=!4m7!3m6!1s0x390ce94566dc71a5:0x967fe65a0c517875!8m2!3d28.5454625!4d77.4253633!16s%2Fg%2F11j8p29n_l!19sChIJpXHcZkXpDDkRdXhRDFrmf5Y?authuser=0&hl=en&rclk=1,"28.5454625,77.4253633"
Jafar Nagar Masjid,Mosque,"GCPW+CX Jafar Nagar Masjid, Kulesara, Greater Noida, Uttar Pradesh 201306",Kulesara,GCPW+CX,Greater Noida,,Uttar Pradesh,IN,https://www.google.com/maps/place/Jafar+Nagar+Masjid/data=!4m7!3m6!1s0x390ce9ad38dcdb91:0x2d6a8e92f67c00d1!8m2!3d28.5360757!4d77.4474791!16s%2Fg%2F11swrzhqlk!19sChIJkdvcOK3pDDkR0QB89pKOai0?authuser=0&hl=en&rclk=1,"28.536075699999998,77.4474791"
Madina Masjid,Mosque,"Madina Masjid, 25 Futta Road, Block A, Budh Vihar, Sector 63, Ghaziabad, Uttar Pradesh 201307","Budh Vihar, Bahrampur, Sector 63","25 Futta Road, Block A",Ghaziabad,201307,Uttar Pradesh,IN,https://www.google.com/maps/place/Madina+Masjid/data=!4m7!3m6!1s0x390cef3864d48c8b:0xd77a0e72e82058cf!8m2!3d28.6327011!4d77.4003404!16s%2Fg%2F11h29rlm25!19sChIJi4zUZDjvDDkRz1gg6HIOetc?authuser=0&hl=en&rclk=1,"28.6327011,77.40034039999999"
Masjid E Mahira,Place of worship,"Masjid E Mahira, Masjid, E Mahira, Sector 28, Noida, Uttar Pradesh 201301",Sector 28,"Masjid, E Mahira",Noida,201301,Uttar Pradesh,IN,https://www.google.com/maps/place/Masjid+E+Mahira/data=!4m7!3m6!1s0x390ce562884ef6c9:0x20dc67fca0bc01f1!8m2!3d28.5719134!4d77.3317436!16s%2Fg%2F11kj6j4jkd!19sChIJyfZOiGLlDDkR8QG8oPxn3CA?authuser=0&hl=en&rclk=1,"28.5719134,77.3317436"
Badi Masjid,Mosque,"GCQP+HFM Badi Masjid, Kulesara, Noida, Greater Noida, Uttar Pradesh 201306",Kulesara,GCQP+HFM,"Noida, Greater Noida",201306,Uttar Pradesh,IN,https://www.google.com/maps/place/Badi+Masjid/data=!4m7!3m6!1s0x390ce9b27647bdd7:0x8d61f35560f66757!8m2!3d28.5389716!4d77.436138!16s%2Fg%2F11khvq7fy4!19sChIJ171HdrLpDDkRV2f2YFXzYY0?authuser=0&hl=en&rclk=1,"28.5389716,77.436138"
Masjid Salarpur,Mosque,"G9WQ+G9M Masjid Salarpur, Salarpur Khadar, Salarpur, Noida, Uttar Pradesh","Salarpur Khadar, Salarpur",G9WQ+G9M,Noida,,Uttar Pradesh,IN,https://www.google.com/maps/place/Masjid+Salarpur/data=!4m7!3m6!1s0x390ce9d7c68a644b:0x8e7b553da13aa19f!8m2!3d28.5463281!4d77.388425!16s%2Fg%2F11gzpwf5c9!19sChIJS2SKxtfpDDkRn6E6oT1Ve44?authuser=0&hl=en&rclk=1,"28.5463281,77.388425"
Masjid,Mosque,"G9MX+RQ2 Masjid, Block A, Noida Phase-2, Yakubpur, Noida, Uttar Pradesh 201305","Block A, Noida Phase-2, Yakubpur",G9MX+RQ2,Noida,201305,Uttar Pradesh,IN,https://www.google.com/maps/place/Masjid/data=!4m7!3m6!1s0x390ce93564d6afa9:0x71370e5feda9885e!8m2!3d28.5345054!4d77.3993601!16s%2Fg%2F11v09236yp!19sChIJqa_WZDXpDDkRXoip7V8ON3E?authuser=0&hl=en&rclk=1,"28.5345054,77.3993601"
Madrasa a navasi Sector 10 Noida,Mosque,"H8RJ+5PJ Madrasa a navasi Sector 10 Noida, C Block, Sector 10, Noida, Uttar Pradesh 201301","C Block, Sector 10",H8RJ+5PJ,Noida,201301,Uttar Pradesh,IN,https://www.google.com/maps/place/Madrasa+a+navasi+Sector+10+Noida/data=!4m7!3m6!1s0x390ce50e438caf43:0x59a8c43c39397f72!8m2!3d28.5904673!4d77.3317569!16s%2Fg%2F11sysswscr!19sChIJQ6-MQw7lDDkRcn85OTzEqFk?authuser=0&hl=en&rclk=1,"28.5904673,77.3317569"
New Huda Masjid Aliverdipur G.B.N,Mosque,"GCPP+J8R New Huda Masjid Aliverdipur G.B.N, Chotpur Rd, Jalpura, Greater Noida, Uttar Pradesh 201306",Jalpura,"GCPP+J8R, Chotpur Rd",Greater Noida,201306,Uttar Pradesh,IN,https://www.google.com/maps/place/New+Huda+Masjid+Aliverdipur+G.B.N/data=!4m7!3m6!1s0x390ce949e177cefd:0x4c105cebae293223!8m2!3d28.5366171!4d77.4357516!16s%2Fg%2F11nz0xzwg9!19sChIJ_c534UnpDDkRIzIprutcEEw?authuser=0&hl=en&rclk=1,"28.536617099999997,77.4357516"
Juma namaz(Marigold Export),Mosque,"Juma namaz(Marigold Export), A22, B Block Rd, B Block, Sector 64, Noida, Uttar Pradesh 201301","B Block, Sector 64","A22, B Block Rd",Noida,201301,Uttar Pradesh,IN,https://www.google.com/maps/place/Juma+namaz%28Marigold+Export%29/data=!4m7!3m6!1s0x390cefd610e576f7:0x2045e20f9e3ccf4f!8m2!3d28.6132067!4d77.3793217!16s%2Fg%2F11v9kmp_1x!19sChIJ93blENbvDDkRT888ng_iRSA?authuser=0&hl=en&rclk=1,"28.6132067,77.37932169999999"
Masjid,Place of worship,"GCQ5+C26 Masjid, Block A, Phase-2, Noida, Uttar Pradesh 201305","Block A, Phase-2",GCQ5+C26,Noida,201305,Uttar Pradesh,IN,https://www.google.com/maps/place/Masjid/data=!4m7!3m6!1s0x390ce9aa78e5e739:0x5cd3e2837495d4bc!8m2!3d28.5385481!4d77.4075181!16s%2Fg%2F11v5bxzv1n!19sChIJOefleKrpDDkRvNSVdIPi01w?authuser=0&hl=en&rclk=1,"28.5385481,77.40751809999999"
Masjid,Mosque,"HCV2+M3 Masjid, Parthala Khanjarpur, Sector 122, Noida, Uttar Pradesh 201307","Parthala Khanjarpur, Sector 122",HCV2+M3,Noida,201307,Uttar Pradesh,IN,https://www.google.com/maps/place/Masjid/data=!4m7!3m6!1s0x390cef94464fda9f:0x9575b0957fd002cf!8m2!3d28.5942649!4d77.4002011!16s%2Fg%2F11l20xgh8k!19sChIJn9pPRpTvDDkRzwLQf5WwdZU?authuser=0&hl=en&rclk=1,"28.5942649,77.40020109999999"
Masjid Madarse Wali,Mosque,"HC26+X4X Masjid Madarse Wali, Unnamed Road, Block A, Sector 80, Noida, Uttar Pradesh 201305","Block A, Sector 80","HC26+X4X, Unnamed Road",Noida,201305,Uttar Pradesh,IN,https://www.google.com/maps/place/Masjid+Madarse+Wali/data=!4m7!3m6!1s0x390cef6fdb57516b:0x1e6ab33cfbf50240!8m2!3d28.5524812!4d77.4103523!16s%2Fg%2F11j7hjxln1!19sChIJa1FX22_vDDkRQAL1-zyzah4?authuser=0&hl=en&rclk=1,"28.5524812,77.4103523"
Jama Masjid Bahlolpur,Religious destination,"J97X+9W9 Jama Masjid Bahlolpur, Bahlolpur, Noida, Yusufpur Chak Saberi, Uttar Pradesh 201307",Bahlolpur,J97X+9W9,"Noida, Yusufpur Chak Saberi",201307,Uttar Pradesh,IN,https://www.google.com/maps/place/Jama+Masjid+Bahlolpur/data=!4m7!3m6!1s0x390cef602b7a8f8f:0x5a79843054903f4!8m2!3d28.6134002!4d77.399869!16s%2Fg%2F11ryh0h92k!19sChIJj496K2DvDDkR9ANJBUOYpwU?authuser=0&hl=en&rclk=1,"28.613400199999997,77.399869"
Masjid,Mosque,"H83H+29J Masjid, Sector 94, Noida, Uttar Pradesh 201303",Sector 94,H83H+29J,Noida,201303,Uttar Pradesh,IN,https://www.google.com/maps/place/Masjid/data=!4m7!3m6!1s0x390ce5523d4d368d:0xcf5974716566d4a3!8m2!3d28.5525905!4d77.3283803!16s%2Fg%2F11l6bhrqhb!19sChIJjTZNPVLlDDkRo9RmZXF0Wc8?authuser=0&hl=en&rclk=1,"28.552590499999997,77.32838029999999"
Masjid,Place of worship,"J8HX+V8X Masjid, Makanpur Colony, Sector 62A, Lakhmiya, Noida, Uttar Pradesh 244231","Makanpur Colony, Sector 62A",J8HX+V8X,"Lakhmiya, Noida",244231,Uttar Pradesh,IN,https://www.google.com/maps/place/Masjid/data=!4m7!3m6!1s0x390ce5220f1928eb:0x6bb64dd58946c0f0!8m2!3d28.629736!4d77.3483748!16s%2Fg%2F11q311mkl0!19sChIJ6ygZDyLlDDkR8MBGidVNtms?authuser=0&hl=en&rclk=1,"28.629735999999998,77.3483748"
Ayesha masjid,Mosque,"GCMR+GPW Ayesha masjid, Dadri Main Rd, Jalpura, Greater Noida, Uttar Pradesh 201306",Jalpura,"GCMR+GPW, Dadri Main Rd",Greater Noida,201306,Uttar Pradesh,IN,https://www.google.com/maps/place/Ayesha+masjid/data=!4m7!3m6!1s0x390ce9809b7b452b:0x64770af6f9f8a3d2!8m2!3d28.5338748!4d77.4418357!16s%2Fg%2F11tf7_vjl1!19sChIJK0V7m4DpDDkR0qP4-fYKd2Q?authuser=0&hl=en&rclk=1,"28.5338748,77.4418357"
Ajhari masjid,Mosque,"Ajhari masjid, Payal colony, near, Chhat Ghat Rd, Yusufpur, Chhajarsi Colony, Noida, Yusufpur Chak Saberi, Uttar Pradesh 63","Yusufpur, Chhajarsi Colony","Payal colony, near, Chhat Ghat Rd","Noida, Yusufpur Chak Saberi",63,Uttar Pradesh,IN,https://www.google.com/maps/place/Ajhari+masjid/data=!4m7!3m6!1s0x390cef328699663f:0x95f0390f2ff1716f!8m2!3d28.6207817!4d77.4069492!16s%2Fg%2F11jzr256t3!19sChIJP2aZhjLvDDkRb3HxLw858JU?authuser=0&hl=en&rclk=1,"28.6207817,77.4069492"
New ayesha masjid,Mosque,"GCQQ+M9V New ayesha masjid, Bisrakh Rd, Jalpura, Greater Noida, Uttar Pradesh 201306",Jalpura,"GCQQ+M9V, Bisrakh Rd",Greater Noida,201306,Uttar Pradesh,IN,https://www.google.com/maps/place/New+ayesha+masjid/data=!4m7!3m6!1s0x390ce946fe5dd613:0x4814a97f7a8d5659!8m2!3d28.5392339!4d77.4384143!16s%2Fg%2F11tf805qj6!19sChIJE9Zd_kbpDDkRWVaNen-pFEg?authuser=0&hl=en&rclk=1,"28.5392339,77.43841429999999"
MADINA MASJID,Mosque,"MADINA MASJID, India Yamaha Motor, UPSIDC Site A, Surajpur, Greater Noida, Uttar Pradesh 201306","UPSIDC Site A, Surajpur",India Yamaha Motor,Greater Noida,201306,Uttar Pradesh,IN,https://www.google.com/maps/place/MADINA+MASJID/data=!4m7!3m6!1s0x390ceb969fb26b17:0xfc39d8ed2cd3f5e2!8m2!3d28.520453!4d77.4723483!16s%2Fg%2F11smlksdlg!19sChIJF2uyn5brDDkR4vXTLO3YOfw?authuser=0&hl=en&rclk=1,"28.520453,77.4723483"
Haji nurani masjid,Mosque,"GC9P+JCJ Haji nurani masjid, Kulesara, Greater Noida, Uttar Pradesh 201306",Kulesara,GC9P+JCJ,Greater Noida,201306,Uttar Pradesh,IN,https://www.google.com/maps/place/Haji+nurani+masjid/data=!4m7!3m6!1s0x390ce9d066166781:0xea970d1f2424f10a!8m2!3d28.5190867!4d77.4360026!16s%2Fg%2F11kjm5n9dl!19sChIJgWcWZtDpDDkRCvEkJB8Nl-o?authuser=0&hl=en&rclk=1,"28.5190867,77.4360026"
Masjid,Chicken & Mutton Shop,"G9JM+V9J Masjid, Lotus Panache, Sector 110, Noida, Uttar Pradesh","Lotus Panache, Sector 110",G9JM+V9J,Noida,,Uttar Pradesh,IN,https://www.google.com/maps/place/Masjid/data=!4m7!3m6!1s0x390ce95648bbacb3:0xbfef880bc9f9ef8!8m2!3d28.5322238!4d77.3834021!16s%2Fg%2F11rqp1fb60!19sChIJs6y7SFbpDDkR-J6fvID4_gs?authuser=0&hl=en&rclk=1,"28.532223799999997,77.3834021"
