name,main_category,address,address_ward,address_street,address_city,address_postal_code,address_state,address_country_code,link,coordinates
Farah Jamiya Masjid Mahedavia,Mosque,"ward No 2, Farah Jamiya Masjid Mahedavia, Vidya Nagar, Pathan Wadi, Gangavathi, Karnataka 583227",Vidya Nagar,ward No 2,"Pathan Wadi, Gangavathi",583227,Karnataka,IN,https://www.google.com/maps/place/Farah+Jamiya+Masjid+Mahedavia/data=!4m7!3m6!1s0x3bb7816d1a310791:0x1ee0b25b9d4a6f63!8m2!3d15.4282075!4d76.5275751!16s%2Fg%2F1tltktl4!19sChIJkQcxGm2BtzsRY29KnVuy4B4?authuser=0&hl=en&rclk=1,"15.4282075,76.52757509999999"
Masjid-E-Jaunpur Mahdavia,Mosque,"Masjid-E-Jaunpur Mahdavia, 30th Ward, Virupapur Nagar, Gangavathi, Karnataka 583227",Hirejantkal,"30th Ward, Virupapur Nagar",Gangavathi,583227,Karnataka,IN,https://www.google.com/maps/place/Masjid-E-Jaunpur+Mahdavia/data=!4m7!3m6!1s0x3bb781ea85f12bb5:0xc2d80cabec29d752!8m2!3d15.4162401!4d76.5358566!16s%2Fg%2F11q2qy21y4!19sChIJtSvxheqBtzsRUtcp7KsM2MI?authuser=0&hl=en&rclk=1,"15.4162401,76.5358566"
Madeena Masjid,Mosque,"CGRC+896 Madeena Masjid, SH 23, Ilahi colony, Islampur, Gangavathi, Karnataka 583235","Ilahi colony, Islampur","CGRC+896, SH 23",Gangavathi,583235,Karnataka,IN,https://www.google.com/maps/place/Madeena+Masjid/data=!4m7!3m6!1s0x3bb7813e93c8d7c7:0xc936d682eb96d5ec!8m2!3d15.4407814!4d76.5208986!16s%2Fg%2F1tdqm2rd!19sChIJx9fIkz6BtzsR7NWW64LWNsk?authuser=0&hl=en&rclk=1,"15.440781399999999,76.5208986"
Hazrat Bilal Masjid,Mosque,"CGMM+W8X Hazrat Bilal Masjid, Hajrat Bilal Masjid Road, July Nagar, Gangavathi, Karnataka 583227",July Nagar,"CGMM+W8X, Hajrat Bilal Masjid Road",Gangavathi,583227,Karnataka,IN,https://www.google.com/maps/place/Hazrat+Bilal+Masjid/data=!4m7!3m6!1s0x3bb7816909f974c1:0x15d70ada2af61f38!8m2!3d15.4348524!4d76.5333471!16s%2Fg%2F1ygltgc_0!19sChIJwXT5CWmBtzsROB_2KtoK1xU?authuser=0&hl=en&rclk=1,"15.434852399999999,76.5333471"
Khankha-e-Fazal Bandanawazi Gvt,Mosque,"CGRC+PG9 Khankha-e-Fazal Bandanawazi Gvt, Ilahi Colony Rd, Prashanti Nagar, Gangavathi, Karnataka 583235",Prashanti Nagar,"CGRC+PG9, Ilahi Colony Rd",Gangavathi,583235,Karnataka,IN,https://www.google.com/maps/place/Khankha-e-Fazal+Bandanawazi+Gvt/data=!4m7!3m6!1s0x3bb7813ec8620667:0x85d0657dcd85fcfc!8m2!3d15.4417765!4d76.521369!16s%2Fg%2F11b808cp5l!19sChIJZwZiyD6BtzsR_PyFzX1l0IU?authuser=0&hl=en&rclk=1,"15.4417765,76.52136899999999"
Jamia Masjid Ahle Sunnat Wal Jamaat,Mosque,"1, Jamia Masjid Ahle Sunnat Wal Jamaat, Jamai Masjid Complex, MG Rd, opp. CPS School, Killa Area, Vidya Nagar, Gangavathi, Karnataka 583227","Killa Area, Vidya Nagar","1, Jamai Masjid Complex, MG Rd, opp. CPS School",Gangavathi,583227,Karnataka,IN,https://www.google.com/maps/place/Jamia+Masjid+Ahle+Sunnat+Wal+Jamaat/data=!4m7!3m6!1s0x3bb78184b96ac4a5:0xcda96fc19a562c26!8m2!3d15.4307658!4d76.5279615!16s%2Fg%2F11sycvsdyy!19sChIJpcRquYSBtzsRJixWmsFvqc0?authuser=0&hl=en&rclk=1,"15.4307658,76.5279615"
Gousiya Masjid,Mosque,"Gousiya Masjid, 583227, Gousiya Colony, Vidya Nagar, Gangavathi, Karnataka 583227","Gousiya Colony, Vidya Nagar",583227,Gangavathi,583227,Karnataka,IN,https://www.google.com/maps/place/Gousiya+Masjid/data=!4m7!3m6!1s0x3bb78115c7c42a73:0x125625240dd11414!8m2!3d15.434895!4d76.5212416!16s%2Fg%2F11c5s4fls0!19sChIJcyrExxWBtzsRFBTRDSQlVhI?authuser=0&hl=en&rclk=1,"15.434895,76.5212416"
Ilahi Masjid,Mosque,"CGRF+PC3 Ilahi Masjid, Prashanthi Nagar, Islampur, Gangavathi, Karnataka 583227","Prashanthi Nagar, Islampur",CGRF+PC3,Gangavathi,583227,Karnataka,IN,https://www.google.com/maps/place/Ilahi+Masjid/data=!4m7!3m6!1s0x3bb7813f160344b1:0xa8ced40f6109a3a4!8m2!3d15.4417552!4d76.5235369!16s%2Fg%2F11b6gfdkml!19sChIJsUQDFj-BtzsRpKMJYQ_Uzqg?authuser=0&hl=en&rclk=1,"15.4417552,76.5235369"
Jamiya Masjid Islampur,Mosque,"CGQG+2P2 Jamiya Masjid Islampur, Islampur, Gangavathi, Karnataka 583227",Islampur,CGQG+2P2,Gangavathi,583227,Karnataka,IN,https://www.google.com/maps/place/Jamiya+Masjid+Islampur/data=!4m7!3m6!1s0x3bb781401c2c049b:0x8845097f93f24ea4!8m2!3d15.4375172!4d76.5267598!16s%2Fg%2F11f2wd5cbt!19sChIJmwQsHECBtzsRpE7yk38JRYg?authuser=0&hl=en&rclk=1,"15.437517199999998,76.5267598"
Quadriya Masjid,Mosque,"Quadriya Masjid, 19th ward joger wada, SH 130, Pampa Nagar, Gangavathi, Karnataka 583227",Pampa Nagar,"19th ward joger wada, SH 130",Gangavathi,583227,Karnataka,IN,https://www.google.com/maps/place/Quadriya+Masjid/data=!4m7!3m6!1s0x3bb7816d8eb035f3:0xc3178b6caf1838b0!8m2!3d15.4264284!4d76.5296233!16s%2Fg%2F1tfx3bv3!19sChIJ8zWwjm2BtzsRsDgYr2yLF8M?authuser=0&hl=en&rclk=1,"15.426428399999999,76.5296233"
Masjid E Umar Islampur,Mosque,"CGQF+4RP Masjid E Umar Islampur, Gangavathi, Karnataka 583227",,CGQF+4RP,Gangavathi,583227,Karnataka,IN,https://www.google.com/maps/place/Masjid+E+Umar+Islampur/data=!4m7!3m6!1s0x3bb7813fe60dd6d1:0x9721525d3d9b64f9!8m2!3d15.4378315!4d76.5245809!16s%2Fg%2F11bw2h7qzs!19sChIJ0dYN5j-BtzsR-WSbPV1SIZc?authuser=0&hl=en&rclk=1,"15.4378315,76.52458089999999"
Masjid-E-Hazrath Umar-E-Farooq R.A,Mosque,"CGHF+WQQ Masjid-E-Hazrath Umar-E-Farooq R.A, Idgah Rd, Rajajinagar, Vidya Nagar, Gangavathi, Karnataka 583227","Rajajinagar, Vidya Nagar","CGHF+WQQ, Idgah Rd",Gangavathi,,Karnataka,IN,https://www.google.com/maps/place/Masjid-E-Hazrath+Umar-E-Farooq+R.A/data=!4m7!3m6!1s0x3bb781133f03a19f:0x5db361a29600bf81!8m2!3d15.4298468!4d76.5244689!16s%2Fg%2F11gfjb4wzx!19sChIJn6EDPxOBtzsRgb8AlqJhs10?authuser=0&hl=en&rclk=1,"15.4298468,76.5244689"
Barkat-e-raza Maszid,Mosque,"CGVC+XWQ Barkat-e-raza Maszid, Gangavathi, Karnataka 583227",,CGVC+XWQ,Gangavathi,583227,Karnataka,IN,https://www.google.com/maps/place/Barkat-e-raza+Maszid/data=!4m7!3m6!1s0x3bb7813904c99623:0x272f82e2838e5f27!8m2!3d15.4449575!4d76.522351!16s%2Fg%2F11csrg_00x!19sChIJI5bJBDmBtzsRJ1-Og-KCLyc?authuser=0&hl=en&rclk=1,"15.4449575,76.522351"
HAZRAT USMANE GANI MASJID & MADARSA,School,"CGHQ+C8J HAZRAT USMANE GANI MASJID & MADARSA, Usmane Gani Road Laxmi Camp, Gangavathi, Karnataka 583227",Gundamma Camp,"CGHQ+C8J, Usmane Gani Road Laxmi Camp",Gangavathi,583227,Karnataka,IN,https://www.google.com/maps/place/HAZRAT+USMANE+GANI+MASJID+%26+MADARSA/data=!4m7!3m6!1s0x3bb78133d6de7b7f:0x14ce944ec70e45e3!8m2!3d15.4285988!4d76.538255!16s%2Fg%2F11h60f67j1!19sChIJf3ve1jOBtzsR40UOx06UzhQ?authuser=0&hl=en&rclk=1,"15.4285988,76.53825499999999"
Jumma Masjid Sangapur,Mosque,"9GWG+447 Jumma Masjid Sangapur, Sangapur, Karnataka 583227",,9GWG+447,Sangapur,583227,Karnataka,IN,https://www.google.com/maps/place/Jumma+Masjid+Sangapur/data=!4m7!3m6!1s0x3bb781be240863ab:0x988a4333b9bfbbf!8m2!3d15.3952964!4d76.5252907!16s%2Fg%2F11dfswbjq8!19sChIJq2MIJL6BtzsRv_ubOzOkiAk?authuser=0&hl=en&rclk=1,"15.3952964,76.5252907"
Masjid-E-Haza Islampur,Mosque,"CGPG+PVF Masjid-E-Haza Islampur, Islampur, Gangavathi, Karnataka 583227",Islampur,CGPG+PVF,Gangavathi,583227,Karnataka,IN,https://www.google.com/maps/place/Masjid-E-Haza+Islampur/data=!4m7!3m6!1s0x3bb7816a98812bff:0xdae7e2da32e85241!8m2!3d15.4368173!4d76.5271672!16s%2Fg%2F11g70x04q9!19sChIJ_yuBmGqBtzsRQVLoMtri59o?authuser=0&hl=en&rclk=1,"15.4368173,76.5271672"
Abu Bakar Mosque,Mosque,"CGJG+2J3 Abu Bakar Mosque, Valmiki Rd, Killa Area, Rajajinagar, Vidya Nagar, Gangavathi, Karnataka 583227","Killa Area, Rajajinagar, Vidya Nagar","CGJG+2J3, Valmiki Rd",Gangavathi,583227,Karnataka,IN,https://www.google.com/maps/place/Abu+Bakar+Mosque/data=!4m7!3m6!1s0x3bb7816cc7baeacb:0x44196c65d646e619!8m2!3d15.4300091!4d76.5265528!16s%2Fg%2F11g8xfnt5v!19sChIJy-q6x2yBtzsRGeZG1mVsGUQ?authuser=0&hl=en&rclk=1,"15.4300091,76.52655279999999"
Jamiya Masjid,Mosque,"CG8R+MC2 Jamiya Masjid, Hirejantkal, Gangavathi, Karnataka 583227",Hirejantkal,CG8R+MC2,Gangavathi,583227,Karnataka,IN,https://www.google.com/maps/place/Jamiya+Masjid/data=!4m7!3m6!1s0x3bb7817892d8cca5:0x97d6c5f5b84f73cc!8m2!3d15.4166318!4d76.5410007!16s%2Fg%2F11c30wmrbc!19sChIJpczYkniBtzsRzHNPuPXF1pc?authuser=0&hl=en&rclk=1,"15.4166318,76.5410007"
Maheboobiya Masjid,Mosque,"Maheboobiya Masjid, 6th Ward, near Govt School, Maheboob Nagar, Gangavathi, Karnataka","Maheboob Nagar, Vidya Nagar","6th Ward, near Govt School",Gangavathi,,Karnataka,IN,https://www.google.com/maps/place/Maheboobiya+Masjid/data=!4m7!3m6!1s0x3bb7813fd4ff9de7:0x2a1de259e4094d88!8m2!3d15.4372404!4d76.5229681!16s%2Fg%2F11gfjd6p8r!19sChIJ553_1D-BtzsRiE0J5FniHSo?authuser=0&hl=en&rclk=1,"15.437240399999999,76.5229681"
Ahle Hadees Masjid,Mosque,"CGQF+4VV Ahle Hadees Masjid, Gangavathi, Karnataka 583227",,CGQF+4VV,Gangavathi,583227,Karnataka,IN,https://www.google.com/maps/place/Ahle+Hadees+Masjid/data=!4m7!3m6!1s0x3bb7813fe5f1047d:0x98e1b27ccd0faa59!8m2!3d15.4378741!4d76.5246748!16s%2Fg%2F11f03y_hdp!19sChIJfQTx5T-BtzsRWaoPzXyy4Zg?authuser=0&hl=en&rclk=1,"15.4378741,76.5246748"
Masjid Hafeez,Mosque,"CGVF+M53 Masjid Hafeez, Gangavathi, Karnataka 583227",,CGVF+M53,Gangavathi,583227,Karnataka,IN,https://www.google.com/maps/place/Masjid+Hafeez/data=!4m7!3m6!1s0x3bb78138dfb90a4b:0x533e4568a4a99a09!8m2!3d15.4441434!4d76.5229337!16s%2Fg%2F11b70q_pyh!19sChIJSwq53ziBtzsRCZqppGhFPlM?authuser=0&hl=en&rclk=1,"15.4441434,76.5229337"
BERUNI AABADI MASJID,Mosque,"BERUNI AABADI MASJID, Gundamma Camp, Gangavathi, Karnataka 583227",Gundamma Camp,,Gangavathi,583227,Karnataka,IN,https://www.google.com/maps/place/BERUNI+AABADI+MASJID/data=!4m7!3m6!1s0x3bb7816e9b15c433:0xb573ce32f9f26e0a!8m2!3d15.4298801!4d76.5317427!16s%2Fg%2F11f0_clhzd!19sChIJM8QVm26BtzsRCm7y-TLOc7U?authuser=0&hl=en&rclk=1,"15.4298801,76.5317427"
Muneer Maszid,Mosque,"CGMR+5QM Muneer Maszid, Amar Bhagat Singh Nagar, Gangavathi, Karnataka 583227",Amar Bhagat Singh Nagar,CGMR+5QM,Gangavathi,583227,Karnataka,IN,https://www.google.com/maps/place/Muneer+Maszid/data=!4m7!3m6!1s0x3bb78166a3f32213:0x8672b5cd65159050!8m2!3d15.432958!4d76.541927!16s%2Fg%2F11dymm56g_!19sChIJEyLzo2aBtzsRUJAVZc21coY?authuser=0&hl=en&rclk=1,"15.432958,76.541927"
Mohmmadiya Noorani Masjid Gangavathi,Mosque,"CGCP+P55 Mohmmadiya Noorani Masjid Gangavathi, Ambedkar Nagar, Gangavathi, Karnataka 583227",Ambedkar Nagar,CGCP+P55,Gangavathi,583227,Karnataka,IN,https://www.google.com/maps/place/Mohmmadiya+Noorani+Masjid+Gangavathi/data=!4m7!3m6!1s0x3bb781e587502d81:0x3b1c805fb04ed4d8!8m2!3d15.4217663!4d76.5354732!16s%2Fg%2F11f658svb9!19sChIJgS1Qh-WBtzsR2NROsF-AHDs?authuser=0&hl=en&rclk=1,"15.4217663,76.5354732"
Gouse pak Darga(Zanda katta),Mosque,"Gouse pak Darga(Zanda katta), Lakshmi camp Gouli nagar 27th ward, Gangavathi, Karnataka 583227",Gundamma Camp,Lakshmi camp Gouli nagar 27th ward,Gangavathi,583227,Karnataka,IN,https://www.google.com/maps/place/Gouse+pak+Darga%28Zanda+katta%29/data=!4m7!3m6!1s0x3bb7819a48f6d073:0x42644fc5078c84a1!8m2!3d15.4278255!4d76.5400099!16s%2Fg%2F11n6jdk_ky!19sChIJc9D2SJqBtzsRoYSMB8VPZEI?authuser=0&hl=en&rclk=1,"15.427825499999999,76.5400099"
Jamiya Masjid Vaddartti camp,Mosque,"FG33+3GJ Jamiya Masjid Vaddartti camp, Baglapura, Karnataka 583235",,FG33+3GJ,Baglapura,583235,Karnataka,IN,https://www.google.com/maps/place/Jamiya+Masjid+Vaddartti+camp/data=!4m7!3m6!1s0x3bb781a6188f334d:0xac5a404f514f1e67!8m2!3d15.4527133!4d76.5037616!16s%2Fg%2F11qrng079q!19sChIJTTOPGKaBtzsRZx5PUU9AWqw?authuser=0&hl=en&rclk=1,"15.4527133,76.50376159999999"
Makka Maszid,Mosque,"Makka Maszid, 583227, Saroja Nagar, Virpapur, Gangavathi, Karnataka 583227","Saroja Nagar, Virpapur",583227,Gangavathi,583227,Karnataka,IN,https://www.google.com/maps/place/Makka+Maszid/data=!4m7!3m6!1s0x3bb7817703b04c2b:0x8b26b12a996c4dcc!8m2!3d15.4182232!4d76.5345546!16s%2Fg%2F11dymmh24d!19sChIJK0ywA3eBtzsRzE1smSqxJos?authuser=0&hl=en&rclk=1,"15.4182232,76.53455459999999"
Weekly Market Masjid,Mosque,"CGMF+PRX Weekly Market Masjid, Vidya Nagar, Gangavathi, Karnataka 583227",Vidya Nagar,CGMF+PRX,Gangavathi,583227,Karnataka,IN,https://www.google.com/maps/place/Weekly+Market+Masjid/data=!4m7!3m6!1s0x3bb781152760d047:0xd3112bad02cebbf4!8m2!3d15.4343592!4d76.5246214!16s%2Fg%2F11fx_4wnc7!19sChIJR9BgJxWBtzsR9LvOAq0rEdM?authuser=0&hl=en&rclk=1,"15.4343592,76.5246214"
Jamia Masjid Oddarhatti,Mosque,"CGV4+7QG Jamia Masjid Oddarhatti, Unnamed Road, Gaddi, Karnataka 583235",,"CGV4+7QG, Unnamed Road",Gaddi,583235,Karnataka,IN,https://www.google.com/maps/place/Jamia+Masjid+Oddarhatti/data=!4m7!3m6!1s0x3bb7811b08b77a6b:0x66c7c1df2d411438!8m2!3d15.4431986!4d76.5069593!16s%2Fg%2F11h3gx4600!19sChIJa3q3CBuBtzsROBRBLd_Bx2Y?authuser=0&hl=en&rclk=1,"15.443198599999999,76.50695929999999"
Noorani Masjid & Madarasa,Mosque,"Noorani Masjid & Madarasa, Amar Bhagat Singh Nagar, Gangavathi, Karnataka 583227",Amar Bhagat Singh Nagar,,Gangavathi,583227,Karnataka,IN,https://www.google.com/maps/place/Noorani+Masjid+%26+Madarasa/data=!4m7!3m6!1s0x3bb78168b2baaaab:0x20bb63ec525f1cda!8m2!3d15.4322267!4d76.5364947!16s%2Fg%2F11tgg7qw72!19sChIJq6q6smiBtzsR2hxfUuxjuyA?authuser=0&hl=en&rclk=1,"15.4322267,76.53649469999999"
Abubakar masjid,Mosque,"CGJG+Q8R Abubakar masjid, Unnamed Road, Ward Number 5, Rajajinagar, Vidya Nagar, Gangavathi, Karnataka 583227","Ward Number 5, Rajajinagar, Vidya Nagar","CGJG+Q8R, Unnamed Road",Gangavathi,583227,Karnataka,IN,https://www.google.com/maps/place/Abubakar+masjid/data=!4m7!3m6!1s0x3bb7819a0ba18da9:0x7c5f01cd6d3c3404!8m2!3d15.4319903!4d76.5257592!16s%2Fg%2F11rkp1sdpm!19sChIJqY2hC5qBtzsRBDQ8bc0BX3w?authuser=0&hl=en&rclk=1,"15.431990299999999,76.5257592"
Panch Masjid Hirejantakal,Mosque,"CG8Q+MQ3 Panch Masjid Hirejantakal, Hirejantkal, Gangavathi, Karnataka 583227",Hirejantkal,CG8Q+MQ3,Gangavathi,583227,Karnataka,IN,https://www.google.com/maps/place/Panch+Masjid+Hirejantakal/data=!4m7!3m6!1s0x3bb781baa667d527:0x43709a26d4619ffd!8m2!3d15.4166386!4d76.5394101!16s%2Fg%2F11gtymc14c!19sChIJJ9VnprqBtzsR_Z9h1CaacEM?authuser=0&hl=en&rclk=1,"15.416638599999999,76.5394101"
Berooni Abadi Masque,Mosque,"CGHJ+XQ2 Berooni Abadi Masque, Masjid, Bus Stand Rd, Gundamma Camp, Gangavathi, Karnataka 583227",Gundamma Camp,"CGHJ+XQ2 Masjid, Bus Stand Rd",Gangavathi,583227,Karnataka,IN,https://www.google.com/maps/place/Berooni+Abadi+Masque/data=!4m7!3m6!1s0x3bb78104f4ebac9d:0x1ca957c3df3a87b6!8m2!3d15.4298475!4d76.531844!16s%2Fg%2F11nynjw19m!19sChIJnazr9ASBtzsRtoc638NXqRw?authuser=0&hl=en&rclk=1,"15.4298475,76.53184399999999"
msjid ii aks,Mosque,"CGVF+M6C msjid ii aks, aks kaalooni, niyr kebin gaarddn, Gangavathi, Karnataka 583227","aks kaalooni, niyr kebin gaarddn",CGVF+M6C,Gangavathi,583227,Karnataka,IN,https://www.google.com/maps/place/%E0%B2%AE%E0%B2%B8%E0%B3%8D%E0%B2%9C%E0%B2%BF%E0%B2%A6%E0%B3%8D+%E0%B2%88+%E0%B2%85%E0%B2%95%E0%B3%8D%E0%B2%B8%E0%B3%8D/data=!4m7!3m6!1s0x3bb781fa7cf75939:0xe6994b6b779fd49d!8m2!3d15.4441767!4d76.5230232!16s%2Fg%2F11sb93_hzc!19sChIJOVn3fPqBtzsRndSfd2tLmeY?authuser=0&hl=en&rclk=1,"15.4441767,76.5230232"
Masjid e aqsa,Mosque,"CGVF+M63 Masjid e aqsa, Gangavathi, Karnataka 583227",,CGVF+M63,Gangavathi,583227,Karnataka,IN,https://www.google.com/maps/place/Masjid+e+aqsa/data=!4m7!3m6!1s0x3bb78197b6524e8f:0xb0a40eeb38ea4046!8m2!3d15.4441296!4d76.523041!16s%2Fg%2F11tjh6b5z6!19sChIJj05StpeBtzsRRkDqOOsOpLA?authuser=0&hl=en&rclk=1,"15.4441296,76.52304099999999"
Masjid E Rahmaniya,Mosque,"CGPC+99V Masjid E Rahmaniya, Gousia Colony Rd, Gousiya Colony, Vidya Nagar, Gangavathi, Karnataka 583227","Gousiya Colony, Vidya Nagar","CGPC+99V, Gousia Colony Rd",Gangavathi,583227,Karnataka,IN,https://www.google.com/maps/place/Masjid+E+Rahmaniya/data=!4m7!3m6!1s0x3bb781d7971678b5:0xe55c55ed07fa956a!8m2!3d15.4359936!4d76.5209261!16s%2Fg%2F11rb0frcx_!19sChIJtXgWl9eBtzsRapX6B-1VXOU?authuser=0&hl=en&rclk=1,"15.4359936,76.5209261"
Islampur masjid,Mosque,"CGQG+JJW Islampur masjid, Kanakagiri Rd, Prashanthi Nagar, Islampur, Gangavathi, Karnataka 583227","Prashanthi Nagar, Islampur","CGQG+JJW, Kanakagiri Rd",Gangavathi,,Karnataka,IN,https://www.google.com/maps/place/Islampur+masjid/data=!4m7!3m6!1s0x3bb7810a4608fea3:0x4d9b5c214ab31022!8m2!3d15.4391169!4d76.5265914!16s%2Fg%2F11kjm8sksw!19sChIJo_4IRgqBtzsRIhCzSiFcm00?authuser=0&hl=en&rclk=1,"15.4391169,76.5265914"
Masjid sharnabashweshwara camp,Mosque,"FG7F+3HV Masjid sharnabashweshwara camp, Kishkindha, Gonal, Gangavathi, Karnataka 583227",Kishkindha,FG7F+3HV,"Gonal, Gangavathi",583227,Karnataka,IN,https://www.google.com/maps/place/Masjid+sharnabashweshwara+camp/data=!4m7!3m6!1s0x3bb7876fc8a0a72f:0x9dc530a8609ab558!8m2!3d15.4627429!4d76.5239167!16s%2Fg%2F11pckk6cf7!19sChIJL6egyG-HtzsRWLWaYKgwxZ0?authuser=0&hl=en&rclk=1,"15.462742899999999,76.5239167"
E Raja E Raja,Mosque,"CHF4+WM8 E Raja E Raja, Unnamed Road, Hosalli, Gangavathi, Gangawati Rural, Karnataka 583227",Hosalli,"CHF4+WM8, Unnamed Road","Gangavathi, Gangawati Rural",583227,Karnataka,IN,https://www.google.com/maps/place/E+Raja+E+Raja/data=!4m7!3m6!1s0x3bb783c3d1b2d3e1:0x3bf1712d61d63435!8m2!3d15.4247851!4d76.5567092!16s%2Fg%2F11rg0555z5!19sChIJ4dOy0cODtzsRNTTWYS1x8Ts?authuser=0&hl=en&rclk=1,"15.4247851,76.5567092"
idgah maidan,Mosque,"CGHF+MRJ idgah maidan, Rajajinagar, Vidya Nagar, Gangavathi, Karnataka 583227","Rajajinagar, Vidya Nagar",CGHF+MRJ,Gangavathi,583227,Karnataka,IN,https://www.google.com/maps/place/idgah+maidan/data=!4m7!3m6!1s0x3bb7811323155555:0x3a5b16479ae91de!8m2!3d15.4292071!4d76.5245264!16s%2Fg%2F11sscs7354!19sChIJVVUVIxOBtzsR3pGueWSxpQM?authuser=0&hl=en&rclk=1,"15.4292071,76.5245264"
