name,main_category,address,address_ward,address_street,address_city,address_postal_code,address_state,address_country_code,link,coordinates
Haveli Dharampura,Hotel,"Haveli Dharampura, Haveli Dharampura, 2293, Gali Gulian, Chandni Chowk, New Delhi, Delhi 110006","Kucha Alam, Chandni Chowk","Haveli Dharampura, 2293, Gali Gulian, Chandni Chowk","New Delhi, Delhi",110006,Delhi,IN,https://www.google.com/maps/place/Haveli+Dharampura/data=!4m10!3m9!1s0x390cfd197dd6fb4b:0x749b9a5abf91404b!5m2!4m1!1i2!8m2!3d28.6533046!4d77.2322728!16s%2Fg%2F11g0289gzb!19sChIJS_vWfRn9DDkRS0CRv1qam3Q?authuser=0&hl=en&rclk=1,"28.6533046,77.23227279999999"
Jama Masjid,Mosque,"VQ9F+C4X Jama Masjid, Dharampur, Samastipur, Bihar 848101",Dharampur,VQ9F+C4X,Samastipur,848101,Bihar,IN,https://www.google.com/maps/place/Jama+Masjid/data=!4m7!3m6!1s0x39ed90a4124fa891:0x220483af8a358def!8m2!3d25.8686219!4d85.7728627!16s%2Fg%2F11bzz_hczl!19sChIJkahPEqSQ7TkR7401iq-DBCI?authuser=0&hl=en&rclk=1,"25.868621899999997,85.77286269999999"
Dharampur Jama Masjid,Mosque,"MW6G+G5J Dharampur Jama Masjid, IISCO Steel Plant, Dharampur, Asansol, West Bengal 713325","IISCO Steel Plant, Dharampur",MW6G+G5J,Asansol,713325,West Bengal,IN,https://www.google.com/maps/place/Dharampur+Jama+Masjid/data=!4m7!3m6!1s0x39f71e6a79b57d7d:0x57fca3b592d9099e!8m2!3d23.6613349!4d86.9253973!16s%2Fg%2F11f0kzsdqj!19sChIJfX21eWoe9zkRngnZkrWj_Fc?authuser=0&hl=en&rclk=1,"23.6613349,86.9253973"
Sunni Bilaal Masjid sny bll msjd,Mosque,"38RH+GJM Sunni Bilaal Masjid sny bll msjd, Dharampur, Bihar 843113",,38RH+GJM,Dharampur,843113,Bihar,IN,https://www.google.com/maps/place/Sunni+Bilaal+Masjid+%D8%B3%D9%86%DB%8C+%D8%A8%D9%84%D8%A7%D9%84+%D9%85%D8%B3%D8%AC%D8%AF%E2%80%AD/data=!4m7!3m6!1s0x39ed16eeb4c5e2c3:0xec3d91027e4b06cd!8m2!3d26.0913482!4d85.3290578!16s%2Fg%2F11c6lkxssb!19sChIJw-LFtO4W7TkRzQZLfgKRPew?authuser=0&hl=en&rclk=1,"26.0913482,85.3290578"
Jama Masjd,Mosque,"WRWG+VHX Jama Masjd, Juma Masjid St, Fatehpuri, Bhojpur, Bhojpur Dharampur Ahatmali, Uttar Pradesh 244402",Fatehpuri,"WRWG+VHX, Juma Masjid St","Bhojpur, Bhojpur Dharampur Ahatmali",244402,Uttar Pradesh,IN,https://www.google.com/maps/place/Jama+Masjd/data=!4m7!3m6!1s0x390af8089bdcdee1:0x187aa997f2de6841!8m2!3d28.947237!4d78.8264842!16s%2Fg%2F11cn6h7_1g!19sChIJ4d7cmwj4CjkRQWje8pepehg?authuser=0&hl=en&rclk=1,"28.947236999999998,78.8264842"
Jama Masjid Dharampur,Mosque,"Jama Masjid Dharampur, Darbhanga, Bihar 847306",,,Darbhanga,847306,Bihar,IN,https://www.google.com/maps/place/Jama+Masjid+Dharampur/data=!4m7!3m6!1s0x39edb3e3843ac39b:0x634e4d4297a33372!8m2!3d26.2703716!4d85.8353451!16s%2Fg%2F11c5s3ptzw!19sChIJm8M6hOOz7TkRcjOjl0JNTmM?authuser=0&hl=en&rclk=1,"26.270371599999997,85.8353451"
Masjid e Mohammadi,Mosque,"G5QG+X6C Masjid e Mohammadi, Dharampur, Gujarat 396050",,G5QG+X6C,Dharampur,396050,Gujarat,IN,https://www.google.com/maps/place/Masjid+e+Mohammadi/data=!4m7!3m6!1s0x3be0b95377817ff7:0x664bce8f62ff6a44!8m2!3d20.5399404!4d73.1755023!16s%2Fg%2F11bzt0vhnr!19sChIJ93-Bd1O54DsRRGr_Yo_OS2Y?authuser=0&hl=en&rclk=1,"20.5399404,73.17550229999999"
Dharampur School Chowk Masjid,Mosque,"32RH+W6G Dharampur School Chowk Masjid, Dharampur, West Bengal 733210",,32RH+W6G,Dharampur,733210,West Bengal,IN,https://www.google.com/maps/place/Dharampur+School+Chowk+Masjid/data=!4m7!3m6!1s0x39e519c6cf4f6b69:0x20ee6556a0b7953!8m2!3d26.0923138!4d88.0280882!16s%2Fg%2F11gg95w3ff!19sChIJaWtPz8YZ5TkRU3kLalXmDgI?authuser=0&hl=en&rclk=1,"26.0923138,88.0280882"
DHARAMPUR JUMMA MASJID,Mosque,"7V3W+F39 DHARAMPUR JUMMA MASJID, Sarddha-Dharampur Rd, Dharampur, West Bengal 731242",,"7V3W+F39, Sarddha-Dharampur Rd",Dharampur,731242,West Bengal,IN,https://www.google.com/maps/place/DHARAMPUR+JUMMA+MASJID/data=!4m7!3m6!1s0x39fa23b4a377735d:0x151ea631357e51c8!8m2!3d24.2536697!4d87.8952407!16s%2Fg%2F11g86_lwq_!19sChIJXXN3o7Qj-jkRyFF-NTGmHhU?authuser=0&hl=en&rclk=1,"24.2536697,87.8952407"
Dharampur Basti Masjid,Mosque,"32QJ+8P3 Dharampur Basti Masjid, Dharampur, West Bengal 733208",,32QJ+8P3,Dharampur,733208,West Bengal,IN,https://www.google.com/maps/place/Dharampur+Basti+Masjid/data=!4m7!3m6!1s0x39e519b80c1e8191:0xc4045bd838742c64!8m2!3d26.088252!4d88.0317928!16s%2Fg%2F11gf06rmk2!19sChIJkYEeDLgZ5TkRZCx0ONhbBMQ?authuser=0&hl=en&rclk=1,"26.088251999999997,88.03179279999999"
Kabuli Miya Masjid,Mosque,"WRWH+RCW Kabuli Miya Masjid, Kabuli Miya Rd, Fatehpuri, Bhojpur, Bhojpur Dharampur, Uttar Pradesh 244402",Fatehpuri,"WRWH+RCW, Kabuli Miya Rd","Bhojpur, Bhojpur Dharampur",244402,Uttar Pradesh,IN,https://www.google.com/maps/place/Kabuli+Miya+Masjid/data=!4m7!3m6!1s0x390af80641b75fef:0x5cbeb66951571343!8m2!3d28.9471194!4d78.8285753!16s%2Fg%2F1q69x7bzy!19sChIJ71-3QQb4CjkRQxNXUWm2vlw?authuser=0&hl=en&rclk=1,"28.9471194,78.8285753"
Dharampur Uttar Para Masjid,Mosque,"32RH+56G Dharampur Uttar Para Masjid, Dharampur, West Bengal 733210",,32RH+56G,Dharampur,733210,West Bengal,IN,https://www.google.com/maps/place/Dharampur+Uttar+Para+Masjid/data=!4m7!3m6!1s0x39e51906b791038d:0x87c7567faf6c6f31!8m2!3d26.0904282!4d88.0280756!16s%2Fg%2F11gr1199f7!19sChIJjQORtwYZ5TkRMW9sr39Wx4c?authuser=0&hl=en&rclk=1,"26.090428199999998,88.0280756"
Jamadar Para Masjid,Mosque,"PR28+6XV Jamadar Para Masjid, Dharampur, West Bengal 712406",,PR28+6XV,Dharampur,712406,West Bengal,IN,https://www.google.com/maps/place/Jamadar+Para+Masjid/data=!4m7!3m6!1s0x39f80b692dd05399:0xb8c6717585cc98b0!8m2!3d22.7006112!4d87.8174191!16s%2Fg%2F11gmygk2sl!19sChIJmVPQLWkL-DkRsJjMhXVxxrg?authuser=0&hl=en&rclk=1,"22.700611199999997,87.8174191"
Dharampur Jama Mosque,Mosque,"2G63+6H4 Dharampur Jama Mosque, Dhobni-Dharampur, Bihar 845449",,2G63+6H4,Dhobni-Dharampur,845449,Bihar,IN,https://www.google.com/maps/place/Dharampur+Jama+Mosque/data=!4m7!3m6!1s0x399363c8ffd775ef:0x95f4b1ee8dc4f414!8m2!3d27.0105173!4d84.5039546!16s%2Fg%2F1v7pwwwp!19sChIJ73XX_8hjkzkRFPTEje6x9JU?authuser=0&hl=en&rclk=1,"27.0105173,84.5039546"
Dharampur Jame Masjid,Mosque,"W39X+W4F Dharampur Jame Masjid, Chatridoyal, Assam 788107",,W39X+W4F,Chatridoyal,788107,Assam,IN,https://www.google.com/maps/place/Dharampur+Jame+Masjid/data=!4m7!3m6!1s0x374f01994079256f:0x699863222f56ff58!8m2!3d24.9198008!4d93.0977995!16s%2Fg%2F11gvrqjrk7!19sChIJbyV5QJkBTzcRWP9WLyJjmGk?authuser=0&hl=en&rclk=1,"24.919800799999997,93.0977995"
Dharampur Puraton Jumma Jame Masjid,Mosque,"W2VJ+WXJ Dharampur Puraton Jumma Jame Masjid, Dharampur, West Bengal 732207",,W2VJ+WXJ,Dharampur,732207,West Bengal,IN,https://www.google.com/maps/place/Dharampur+Puraton+Jumma+Jame+Masjid/data=!4m7!3m6!1s0x39faf91a06eb1265:0xd191aa27f2555290!8m2!3d24.9448496!4d88.0323906!16s%2Fg%2F11gmwq2hpm!19sChIJZRLrBhr5-jkRkFJV8ieqkdE?authuser=0&hl=en&rclk=1,"24.944849599999998,88.0323906"
NOORI MASJID DHARAMPUR,Mosque,"NOORI MASJID DHARAMPUR, NOORI MASJID, Dharampur, Uttar Pradesh 271872",,NOORI MASJID,Dharampur,271872,Uttar Pradesh,IN,https://www.google.com/maps/place/NOORI+MASJID+DHARAMPUR/data=!4m7!3m6!1s0x3999a5b547b99d55:0xe77ee4d7dddcdef8!8m2!3d27.4224305!4d81.6902683!16s%2Fg%2F11j36j93gr!19sChIJVZ25R7WlmTkR-N7c3dfkfuc?authuser=0&hl=en&rclk=1,"27.422430499999997,81.6902683"
Noorani masjid dharmpur,Religious destination,"8JM8+75J Noorani masjid dharmpur, Dharampur Rd, Bihar 843312",,"8JM8+75J, Dharampur Rd",,843312,Bihar,IN,https://www.google.com/maps/place/Noorani+masjid+dharmpur/data=!4m7!3m6!1s0x39edabdd95005461:0x699f62877d315c34!8m2!3d26.3332162!4d85.6153882!16s%2Fg%2F11t25pzm82!19sChIJYVQAld2r7TkRNFwxfYdin2k?authuser=0&hl=en&rclk=1,"26.3332162,85.6153882"
Sihma masjid,Mosque,"W7H7+9FF Sihma masjid, Unnamed Road, Dharampur Jarang, Bihar 844123",,"W7H7+9FF, Unnamed Road",Dharampur Jarang,844123,Bihar,IN,https://www.google.com/maps/place/Sihma+masjid/data=!4m7!3m6!1s0x39ed4193295ebe65:0x8af3166a35b0c19f!8m2!3d25.928433!4d85.263672!16s%2Fg%2F11lfg68vzs!19sChIJZb5eKZNB7TkRn8GwNWoW84o?authuser=0&hl=en&rclk=1,"25.928433,85.263672"
Jama -a Masjid Dharampur,Mosque,"8JQ7+VRH Jama -a Masjid Dharampur, Ratwara Bindwara Deoriya Pashchim, Bihar 843312",,8JQ7+VRH,Ratwara Bindwara Deoriya Pashchim,843312,Bihar,IN,https://www.google.com/maps/place/Jama+-a+Masjid+Dharampur/data=!4m7!3m6!1s0x39edabb54a9567b1:0x43c8e9cb70e05332!8m2!3d26.3396755!4d85.614608!16s%2Fg%2F11jp9vmz_0!19sChIJsWeVSrWr7TkRMlPgcMvpyEM?authuser=0&hl=en&rclk=1,"26.3396755,85.61460799999999"
Ayesha Masjid,Mosque,"H53V+54F Ayesha Masjid, Dharampur - Vansda Rd, Asura, Gujarat 396055",,"H53V+54F, Dharampur - Vansda Rd",Asura,396055,Gujarat,IN,https://www.google.com/maps/place/Ayesha+Masjid/data=!4m7!3m6!1s0x3be0bdf0d26cc321:0x4c6c922eeda48e5e!8m2!3d20.552935!4d73.1928029!16s%2Fg%2F11j2p2zn6j!19sChIJIcNs0vC94DsRXo6k7S6SbEw?authuser=0&hl=en&rclk=1,"20.552934999999998,73.1928029"
Jama Masjid,Mosque,"XR2J+V2P Jama Masjid, Fatehpuri, Bhojpur, Bhojpur Dharampur, Uttar Pradesh 244402",Fatehpuri,XR2J+V2P,"Bhojpur, Bhojpur Dharampur",244402,Uttar Pradesh,IN,https://www.google.com/maps/place/Jama+Masjid/data=!4m7!3m6!1s0x390a57fda6194fff:0x8d9b4a3cad0b7523!8m2!3d28.952207!4d78.8300895!16s%2Fg%2F11f03xjzzh!19sChIJ_08Zpv1XCjkRI3ULrTxKm40?authuser=0&hl=en&rclk=1,"28.952206999999998,78.8300895"
Shaikh Siqandar masjid,Mosque,"Shaikh Siqandar masjid, Fatehpuri, Bhojpur Dharampur, Uttar Pradesh 244402",Fatehpuri,,Bhojpur Dharampur,244402,Uttar Pradesh,IN,https://www.google.com/maps/place/Shaikh+Siqandar+masjid/data=!4m7!3m6!1s0x390af990c51a8fcf:0x9b1c418e285de384!8m2!3d28.9498752!4d78.8292156!16s%2Fg%2F11rwq6xdh9!19sChIJz48axZD5CjkRhONdKI5BHJs?authuser=0&hl=en&rclk=1,"28.949875199999997,78.8292156"
Gausia Masjid Dharampur,Mosque,"Gausia Masjid Dharampur, Gausia Masjid ward no. 2, Dharampur, Samastipur, Bihar 848101",Dharampur,Gausia Masjid ward no. 2,Samastipur,848101,Bihar,IN,https://www.google.com/maps/place/Gausia+Masjid+Dharampur/data=!4m7!3m6!1s0x39ed910476786f17:0x1f85391d72bf22b6!8m2!3d25.8707482!4d85.7727694!16s%2Fg%2F11llffzcp5!19sChIJF294dgSR7TkRtiK_ch05hR8?authuser=0&hl=en&rclk=1,"25.870748199999998,85.7727694"
Masjid e Kuba,Mosque,"G5QG+684 Masjid e Kuba, Dharampur, Gujarat 396050",,G5QG+684,Dharampur,,Gujarat,IN,https://www.google.com/maps/place/Masjid+e+Kuba/data=!4m7!3m6!1s0x3be0b92dab5fb31d:0xf06f8aafc1574931!8m2!3d20.5380068!4d73.1758155!16s%2Fg%2F11h4dg0026!19sChIJHbNfqy254DsRMUlXwa-Kb_A?authuser=0&hl=en&rclk=1,"20.538006799999998,73.1758155"
Dharampur Binpara Masjid,Mosque,"32QH+M37 Dharampur Binpara Masjid, Dharampur, West Bengal 733210",,32QH+M37,Dharampur,733210,West Bengal,IN,https://www.google.com/maps/place/Dharampur+Binpara+Masjid/data=!4m7!3m6!1s0x39e5190782279e99:0xc407dd1894b65e44!8m2!3d26.0891693!4d88.0276819!16s%2Fg%2F11h125_q_7!19sChIJmZ4nggcZ5TkRRF62lBjdB8Q?authuser=0&hl=en&rclk=1,"26.0891693,88.02768189999999"
Dharampur Dakkhen Para Masjid 2,Mosque,"32PF+7XJ Dharampur Dakkhen Para Masjid 2, Dharampur, West Bengal 733210",,32PF+7XJ,Dharampur,733210,West Bengal,IN,https://www.google.com/maps/place/Dharampur+Dakkhen+Para+Masjid+2/data=!4m7!3m6!1s0x39e5196a6661ce71:0xad98f3ec3019e66b!8m2!3d26.0857103!4d88.02488!16s%2Fg%2F11h6v3lb72!19sChIJcc5hZmoZ5TkRa-YZMOzzmK0?authuser=0&hl=en&rclk=1,"26.0857103,88.02488"
Bilal Masjid bll msjd,Mosque,"VQCF+Q6J Bilal Masjid bll msjd, Dharampur, Samastipur, Bihar 848101",Dharampur,VQCF+Q6J,Samastipur,848101,Bihar,IN,https://www.google.com/maps/place/Bilal+Masjid+%D8%A8%D9%84%D8%A7%D9%84+%D9%85%D8%B3%D8%AC%D8%AF%E2%80%AD/data=!4m7!3m6!1s0x39ed916d89985e27:0x44c65c9bdc92a4bd!8m2!3d25.8719665!4d85.7730066!16s%2Fg%2F11mvx5hg3w!19sChIJJ16YiW2R7TkRvaSS3JtcxkQ?authuser=0&hl=en&rclk=1,"25.8719665,85.7730066"
masjid' e dharampur,Mosque,"HCJ8+J26 masjid' e dharampur, Unnamed Road, Rampur Tengarahi, Bihar 841505",,"HCJ8+J26, Unnamed Road",Rampur Tengarahi,,Bihar,IN,https://www.google.com/maps/place/masjid%27+e+dharampur/data=!4m7!3m6!1s0x39930f253011874f:0x5afc2467cd752473!8m2!3d26.5815437!4d84.4150136!16s%2Fg%2F11h39slgt8!19sChIJT4cRMCUPkzkRcyR1zWck_Fo?authuser=0&hl=en&rclk=1,"26.581543699999997,84.4150136"
Dharampur jame masjid,Mosque,"FW8Q+XPC Dharampur jame masjid, Dharampur, chandipur, Srichandrapur, West Bengal 732140",,"FW8Q+XPC, Dharampur, chandipur",Srichandrapur,732140,West Bengal,IN,https://www.google.com/maps/place/Dharampur+jame+masjid/data=!4m7!3m6!1s0x39facf81e848ae99:0x53429db34e5b04b5!8m2!3d25.467448!4d87.9392631!16s%2Fg%2F11pwb_d9mh!19sChIJma5I6IHP-jkRtQRbTrOdQlM?authuser=0&hl=en&rclk=1,"25.467447999999997,87.93926309999999"
"Dharampur Jame Masjid, Dharampur",Mosque,"H2HW+RVP Dharampur Jame Masjid, Dharampur, Choudhury Rd, Ichhlampur, West Bengal 742201",,"H2HW+RVP, Choudhury Rd",Ichhlampur,742201,West Bengal,IN,"https://www.google.com/maps/place/Dharampur+Jame+Masjid,+Dharampur/data=!4m7!3m6!1s0x39fa48e121cae5a7:0xbecf63d5abd4bed3!8m2!3d24.5795873!4d88.0472051!16s%2Fg%2F11f39rx48x!19sChIJp-XKIeFI-jkR077Uq9Vjz74?authuser=0&hl=en&rclk=1","24.5795873,88.0472051"
Jama Masjid Dharmpur Garvi,Mosque,"2W7W+M63 Jama Masjid Dharmpur Garvi, Unnamed Road, Dharampur, Devipura Mazra, Uttar Pradesh 244925",,"2W7W+M63, Unnamed Road","Dharampur, Devipura Mazra",244925,Uttar Pradesh,IN,https://www.google.com/maps/place/Jama+Masjid+Dharmpur+Garvi/data=!4m7!3m6!1s0x390a5f0f47b21975:0x5351b5669c7a5f1d!8m2!3d29.0141475!4d78.9455317!16s%2Fg%2F11qh69ktkf!19sChIJdRmyRw9fCjkRHV96nGa1UVM?authuser=0&hl=en&rclk=1,"29.0141475,78.94553169999999"
SABRI MASJID (saabrii msjid),Mosque,"SABRI MASJID (saabrii msjid), Sabri masjid Maniharan, Bhojpur, Bhojpur Dharampur, Uttar Pradesh 244402",,Sabri masjid Maniharan,"Bhojpur, Bhojpur Dharampur",244402,Uttar Pradesh,IN,https://www.google.com/maps/place/SABRI+MASJID+%28%E0%A4%B8%E0%A4%BE%E0%A4%AC%E0%A4%B0%E0%A5%80+%E0%A4%AE%E0%A4%B8%E0%A5%8D%E0%A4%9C%E0%A4%BF%E0%A4%A6%29/data=!4m7!3m6!1s0x390af956c2faba75:0xa86121d755358269!8m2!3d28.942281!4d78.8261151!16s%2Fg%2F11jt3gdrbp!19sChIJdbr6wlb5CjkRaYI1VdchYag?authuser=0&hl=en&rclk=1,"28.942280999999998,78.8261151"
Dharampur masjid bilal,Mosque,"QV35+9P Dharampur masjid bilal, Bajha, Dharampur, Uttar Pradesh 230402",,QV35+9P,"Bajha, Dharampur",,Uttar Pradesh,IN,https://www.google.com/maps/place/Dharampur+masjid+bilal/data=!4m7!3m6!1s0x399ac1ba4c471a1b:0xc5cbafd2df17980a!8m2!3d25.7578718!4d81.8530034!16s%2Fg%2F11spkg5f8n!19sChIJGxpHTLrBmjkRCpgX39Kvy8U?authuser=0&hl=en&rclk=1,"25.7578718,81.85300339999999"
MASJID-E-TAIBA,Mosque,"PR3F+MJ MASJID-E-TAIBA, Dharampur, West Bengal 712406",,PR3F+MJ,Dharampur,712406,West Bengal,IN,https://www.google.com/maps/place/MASJID-E-TAIBA/data=!4m7!3m6!1s0x39f80d06a6497855:0x41aac7f55398467c!8m2!3d22.7041771!4d87.8239061!16s%2Fg%2F11swz9x5t1!19sChIJVXhJpgYN-DkRfEaYU_XHqkE?authuser=0&hl=en&rclk=1,"22.7041771,87.8239061"
Madeena masjid,Mosque,"WRWH+F4X Madeena masjid, Fatehpuri, Bhojpur Dharampur, Uttar Pradesh 244402",Fatehpuri,WRWH+F4X,Bhojpur Dharampur,244402,Uttar Pradesh,IN,https://www.google.com/maps/place/Madeena+masjid/data=!4m7!3m6!1s0x390af928847d0fcd:0xf306adc972f4837d!8m2!3d28.9462385!4d78.8278558!16s%2Fg%2F11pxwn4m1w!19sChIJzQ99hCj5CjkRfYP0csmtBvM?authuser=0&hl=en&rclk=1,"28.9462385,78.8278558"
Masjid-E-Sharafti,Mosque,"Masjid-E-Sharafti, Pipalsana Bai paas, Railway Station Rd, Bhojpur, Bhojpur Dharampur, Uttar Pradesh 244402",,"Pipalsana Bai paas, Railway Station Rd","Bhojpur, Bhojpur Dharampur",244402,Uttar Pradesh,IN,https://www.google.com/maps/place/Masjid-E-Sharafti/data=!4m7!3m6!1s0x390af92ba5bff599:0x2b61df5576214110!8m2!3d28.9418474!4d78.8289139!16s%2Fg%2F11np1wypdf!19sChIJmfW_pSv5CjkREEEhdlXfYSs?authuser=0&hl=en&rclk=1,"28.9418474,78.8289139"
Dharampur Jama Masjid,Mosque,"8VMM+3F Dharampur Jama Masjid, Mahachanda, West Bengal 713104",,8VMM+3F,Mahachanda,,West Bengal,IN,https://www.google.com/maps/place/Dharampur+Jama+Masjid/data=!4m7!3m6!1s0x39f84bf3cf2487f1:0x9e89882e794e583b!8m2!3d23.3326875!4d87.8836875!16s%2Fg%2F11rq9f6k5p!19sChIJ8Yckz_NL-DkRO1hOeS6IiZ4?authuser=0&hl=en&rclk=1,"23.3326875,87.8836875"
Masjid Dharampur,Mosque,"W7H7+QM4 Masjid Dharampur, Unnamed Road, Dharampur Jarang, Swiam Kanth, Bihar 844123",,"W7H7+QM4, Unnamed Road","Dharampur Jarang, Swiam Kanth",844123,Bihar,IN,https://www.google.com/maps/place/Masjid+Dharampur/data=!4m7!3m6!1s0x39ed419fd181a2b1:0x4cd5fac5fd9772d5!8m2!3d25.9293942!4d85.2642016!16s%2Fg%2F11py9hftd8!19sChIJsaKB0Z9B7TkR1XKX_cX61Uw?authuser=0&hl=en&rclk=1,"25.929394199999997,85.26420159999999"
Dharampur mollickpara masjid,Mosque,"PR3G+56J Dharampur mollickpara masjid, Dharampur, West Bengal 712406",,PR3G+56J,Dharampur,712406,West Bengal,IN,https://www.google.com/maps/place/Dharampur+mollickpara+masjid/data=!4m7!3m6!1s0x39f80df98fe6d1a3:0x4d0f26ec44554d9f!8m2!3d22.7029585!4d87.8255035!16s%2Fg%2F11smzrt9jd!19sChIJo9Hmj_kN-DkRn01VROwmD00?authuser=0&hl=en&rclk=1,"22.702958499999998,87.8255035"
dhrmpur beltlaa jaame msjid (Dharampur Beltola Jame Masjid),Mosque,"PR3C+F56 dhrmpur beltlaa jaame msjid (Dharampur Beltola Jame Masjid), Dharampur, West Bengal 712406",,PR3C+F56,Dharampur,712406,West Bengal,IN,https://www.google.com/maps/place/%E0%A6%A7%E0%A6%B0%E0%A6%AE%E0%A6%AA%E0%A7%81%E0%A6%B0+%E0%A6%AC%E0%A7%87%E0%A6%B2%E0%A6%A4%E0%A6%B2%E0%A6%BE+%E0%A6%9C%E0%A6%BE%E0%A6%AE%E0%A7%87+%E0%A6%AE%E0%A6%B8%E0%A6%9C%E0%A6%BF%E0%A6%A6+%28Dharampur+Beltola+Jame+Masjid%29/data=!4m7!3m6!1s0x39f80dcfb6455197:0x78d274b8ed2d760!8m2!3d22.7045812!4d87.8214927!16s%2Fg%2F11t6vx7ghg!19sChIJl1FFts8N-DkRYNfSjksnjQc?authuser=0&hl=en&rclk=1,"22.7045812,87.8214927"
Noorani Masjid Fakiran Purwa Dharampur,Mosque,"V8RF+QJV Noorani Masjid Fakiran Purwa Dharampur, Unnamed Road, Dharampur, Jiv Narainpur, Uttar Pradesh 272130",,"V8RF+QJV, Unnamed Road","Dharampur, Jiv Narainpur",272130,Uttar Pradesh,IN,https://www.google.com/maps/place/Noorani+Masjid+Fakiran+Purwa+Dharampur/data=!4m7!3m6!1s0x3990ad0cdbdf491f:0x9ffc386b9b17229!8m2!3d26.8919856!4d82.3240322!16s%2Fg%2F11pb0w9xdj!19sChIJH0nf2wytkDkRKXKxuYbD_wk?authuser=0&hl=en&rclk=1,"26.891985599999998,82.32403219999999"
Khan Dera Jame Masjid,Mosque,"RW2V+268 Khan Dera Jame Masjid, Raipur, West Bengal 722134",,RW2V+268,Raipur,722134,West Bengal,IN,https://www.google.com/maps/place/Khan+Dera+Jame+Masjid/data=!4m7!3m6!1s0x39f7cd16f3734cbb:0x12c6c08db8d69506!8m2!3d22.8000287!4d86.9430773!16s%2Fg%2F11pkllxs5j!19sChIJu0xz8xbN9zkRBpXWuI3AxhI?authuser=0&hl=en&rclk=1,"22.8000287,86.9430773"
Jama masjid Dharampur,Mosque,"WWQG+5XV Jama masjid Dharampur, Dharampur, Uttar Pradesh 244402",,WWQG+5XV,Dharampur,,Uttar Pradesh,IN,https://www.google.com/maps/place/Jama+masjid+Dharampur/data=!4m7!3m6!1s0x390af7db6e028df1:0x6615ddca24aea540!8m2!3d28.937999!4d78.9274099!16s%2Fg%2F11shqbj07p!19sChIJ8Y0Cbtv3CjkRQKWuJMrdFWY?authuser=0&hl=en&rclk=1,"28.937998999999998,78.9274099"
Narayanwala,Mosque,"CQFQ+XQF Narayanwala, Dharampur, Uttar Pradesh 246722",,CQFQ+XQF,"Narayanwala, Dharampur",246722,Uttar Pradesh,IN,https://www.google.com/maps/place/Narayanwala/data=!4m7!3m6!1s0x390a31f9c51a531d:0x10dfb2f2356ba7e5!8m2!3d29.4249294!4d78.7894122!16s%2Fg%2F11t59gfntz!19sChIJHVMaxfkxCjkR5adrNfKy3xA?authuser=0&hl=en&rclk=1,"29.4249294,78.7894122"
Dharampur Jame masjid,Mosque,"G5RH+3M5 Dharampur Jame masjid, Dharampur, Gujarat 396050",,G5RH+3M5,Dharampur,,Gujarat,IN,https://www.google.com/maps/place/Dharampur+Jame+masjid/data=!4m7!3m6!1s0x3be0b977e22692e5:0x74603c78daa69544!8m2!3d20.540147!4d73.1792228!16s%2Fg%2F11s93mv715!19sChIJ5ZIm4ne54DsRRJWm2ng8YHQ?authuser=0&hl=en&rclk=1,"20.540146999999997,73.17922279999999"
Sunni masjid,Mosque,"7Q6F+MGG Sunni masjid, Baisan purwa, Dubaha Bazar, Dharampur, Uttar Pradesh 271503",Baisan purwa,7Q6F+MGG,"Dubaha Bazar, Dharampur",,Uttar Pradesh,IN,https://www.google.com/maps/place/Sunni+masjid/data=!4m7!3m6!1s0x39999761d92a9bcf:0xdc0492564a8bca1d!8m2!3d27.2616926!4d81.773841!16s%2Fg%2F11svbvzmqj!19sChIJz5sq2WGXmTkRHcqLSlaSBNw?authuser=0&hl=en&rclk=1,"27.2616926,81.77384099999999"
Masjid dharampur,Mosque,"QV35+HG7 Masjid dharampur, Rampur, Uttar Pradesh 230402",,QV35+HG7,Rampur,230402,Uttar Pradesh,IN,https://www.google.com/maps/place/Masjid+dharampur/data=!4m7!3m6!1s0x399ac1b2cdbc8bb9:0xc9366a48ea9db02d!8m2!3d25.7539155!4d81.8588123!16s%2Fg%2F11v0p8pr04!19sChIJuYu8zbLBmjkRLbCd6khqNsk?authuser=0&hl=en&rclk=1,"25.753915499999998,81.8588123"
Khanqah Dharampur Jama Masjid,Mosque,"WVHR+8CR Khanqah Dharampur Jama Masjid, Amba, Bihar 811315",,WVHR+8CR,Amba,811315,Bihar,IN,https://www.google.com/maps/place/Khanqah+Dharampur+Jama+Masjid/data=!4m7!3m6!1s0x39f24b35a14e6b3f:0x1d1569983e8e9183!8m2!3d24.9283525!4d85.8910083!16s%2Fg%2F11sv7f9y1t!19sChIJP2tOoTVL8jkRg5GOPphpFR0?authuser=0&hl=en&rclk=1,"24.9283525,85.8910083"
Masjid Dharampur,Mosque,"QX8Q+P59 Masjid Dharampur, Unnamed Road, Rohua, Bihar 848117",,"QX8Q+P59, Unnamed Road",Rohua,848117,Bihar,IN,https://www.google.com/maps/place/Masjid+Dharampur/data=!4m7!3m6!1s0x39edf33955ee5967:0x89f7018e819bb6c6!8m2!3d25.7667911!4d85.9879709!16s%2Fg%2F11q2x6mmcx!19sChIJZ1nuVTnz7TkRxrabgY4B94k?authuser=0&hl=en&rclk=1,"25.7667911,85.9879709"
Sankarpur Juma Masjid,Mosque,"2C8C+QC6 Sankarpur Juma Masjid, Sankarpur, Dharampur, Hariharpara, West Bengal pin number 742166",Dharampur,"2C8C+QC6, Sankarpur",Hariharpara,pin number 742166,West Bengal,IN,https://www.google.com/maps/place/Sankarpur+Juma+Masjid/data=!4m7!3m6!1s0x39f9676e63d390e7:0x5d4208542f35305b!8m2!3d24.0169231!4d88.4210006!16s%2Fg%2F11swzg7wyj!19sChIJ55DTY25n-TkRWzA1L1QIQl0?authuser=0&hl=en&rclk=1,"24.0169231,88.4210006"
new bathan masjid,Mosque,"G5RH+3M5 new bathan masjid, Dharampur, Gujarat 396050",,G5RH+3M5,Dharampur,,Gujarat,IN,https://www.google.com/maps/place/new+bathan+masjid/data=!4m7!3m6!1s0x3be0b99bc8b94af7:0x4a73051d8aa3b54!8m2!3d20.540147!4d73.1792228!16s%2Fg%2F11smsk81hk!19sChIJ90q5yJu54DsRVDuq2FEwpwQ?authuser=0&hl=en&rclk=1,"20.540146999999997,73.17922279999999"
Mollah Para Masjid,Mosque,"PR2C+33H Mollah Para Masjid, Dharampur, West Bengal 712406",,PR2C+33H,Dharampur,712406,West Bengal,IN,https://www.google.com/maps/place/Mollah+Para+Masjid/data=!4m7!3m6!1s0x39f80b7e03c40001:0x823b4374a93f11e9!8m2!3d22.7001873!4d87.8202217!16s%2Fg%2F11tgg7mxr7!19sChIJAQDEA34L-DkR6RE_qXRDO4I?authuser=0&hl=en&rclk=1,"22.7001873,87.82022169999999"
