name,main_category,address,address_ward,address_street,address_city,address_postal_code,address_state,address_country_code,link,coordinates
Jama Masjid Malerkotla,Mosque,"GVJH+246 Jama Masjid Malerkotla, Tapa Mohalla, Malerkotla, Punjab 148023",Tapa Mohalla,GVJH+246,Malerkotla,148023,Punjab,IN,https://www.google.com/maps/place/Jama+Masjid+Malerkotla/data=!4m7!3m6!1s0x391067ca65d4eb4b:0xbf563aa8b916f6d5!8m2!3d30.5300273!4d75.8777679!16s%2Fg%2F1ttdwv8l!19sChIJS-vUZcpnEDkR1fYWuag6Vr8?authuser=0&hl=en&rclk=1,"30.530027299999997,75.8777679"
"Markaz Tablighi Jamaat, Madni Masjid",Mosque,"GVQJ+5H4 Markaz Tablighi Jamaat, Madni Masjid, Islamabad, Malerkotla, Punjab 148023",Islamabad,GVQJ+5H4,Malerkotla,148023,Punjab,IN,"https://www.google.com/maps/place/Markaz+Tablighi+Jamaat,+Madni+Masjid/data=!4m7!3m6!1s0x391066346c8912e1:0x344dfb53bee3b78f!8m2!3d30.5378958!4d75.8814442!16s%2Fg%2F11g_g__l2!19sChIJ4RKJbDRmEDkRj7fjvlP7TTQ?authuser=0&hl=en&rclk=1","30.537895799999998,75.88144419999999"
Masjid Bangle Wali,Mosque,"GVHF+PVM Masjid Bangle Wali, Milkh bazaar Rd, Tapa Mohalla, Malerkotla, Punjab 148023",Tapa Mohalla,"GVHF+PVM, Milkh bazaar Rd",Malerkotla,148023,Punjab,IN,https://www.google.com/maps/place/Masjid+Bangle+Wali/data=!4m7!3m6!1s0x391067b5b051bc7f:0x3f231bfe3248d2e4!8m2!3d30.5293411!4d75.8746615!16s%2Fg%2F11bxjjv75r!19sChIJf7xRsLVnEDkR5NJIMv4bIz8?authuser=0&hl=en&rclk=1,"30.5293411,75.8746615"
Masjid Shehzadpura,Mosque,"GVPC+2C7 Masjid Shehzadpura, Eid Gah Rd, Shahzadpura, Chohatta, Malerkotla, Punjab 148023","Shahzadpura, Chohatta","GVPC+2C7, Eid Gah Rd",Malerkotla,148023,Punjab,IN,https://www.google.com/maps/place/Masjid+Shehzadpura/data=!4m7!3m6!1s0x3910664b7e75fd03:0xc2745953f681b43c!8m2!3d30.53505!4d75.8710315!16s%2Fg%2F11b8078gr4!19sChIJA_11fktmEDkRPLSB9lNZdMI?authuser=0&hl=en&rclk=1,"30.53505,75.8710315"
Badi Masjid,Mosque,"GVMQ+3Q9 Badi Masjid, Pakka Darwaza, Jamalpura, Malerkotla, Punjab 148023",Jamalpura,"GVMQ+3Q9, Pakka Darwaza","Malerkotla, Damam Mehli",148023,Punjab,IN,https://www.google.com/maps/place/Badi+Masjid/data=!4m7!3m6!1s0x391067d2924db2a1:0x8f84fe15d0478ef2!8m2!3d30.5326628!4d75.8894749!16s%2Fg%2F11cn6cxtty!19sChIJobJNktJnEDkR8o5H0BX-hI8?authuser=0&hl=en&rclk=1,"30.532662799999997,75.8894749"
Minah Masjid,Mosque,"Minah Masjid, Sabzi Mandi, Guru Teg Bahadur Colony, Malerkotla, Punjab 148023",Guru Teg Bahadur Colony,Sabzi Mandi,Malerkotla,,Punjab,IN,https://www.google.com/maps/place/Minah+Masjid/data=!4m7!3m6!1s0x391067c5001913e5:0x7df77320804377d0!8m2!3d30.5201049!4d75.8853493!16s%2Fg%2F11b7w5g65m!19sChIJ5RMZAMVnEDkR0HdDgCBz930?authuser=0&hl=en&rclk=1,"30.5201049,75.8853493"
Muhammadi Masjid,Mosque,"Muhammadi Masjid, Bus Stand Rd, opp. Bus Stand, Agar Nagar, Malerkotla, Punjab 148023",Agar Nagar,"Bus Stand Rd, opp. Bus Stand",Malerkotla,148023,Punjab,IN,https://www.google.com/maps/place/Muhammadi+Masjid/data=!4m7!3m6!1s0x391067c63c031211:0x5c3914a48c32982a!8m2!3d30.521331!4d75.880664!16s%2Fg%2F11cn6dzfkb!19sChIJERIDPMZnEDkRKpgyjKQUOVw?authuser=0&hl=en&rclk=1,"30.521331,75.880664"
Jama Masjid Ahle Hadees,Mosque,"GVMJ+X2H Jama Masjid Ahle Hadees, Islamabad, Malerkotla, Punjab 148023",Islamabad,GVMJ+X2H,Malerkotla,148023,Punjab,IN,https://www.google.com/maps/place/Jama+Masjid+Ahle+Hadees/data=!4m7!3m6!1s0x39106634dd73d029:0x470562d28e356c3d!8m2!3d30.5349375!4d75.8801094!16s%2Fg%2F1pt_zcb67!19sChIJKdBz3TRmEDkRPWw1jtJiBUc?authuser=0&hl=en&rclk=1,"30.534937499999998,75.8801094"
Aqsa Masjid,Mosque,"GV7P+9F2 Aqsa Masjid, Somsons Colony, Malerkotla, Punjab 148023",Somsons Colony,GV7P+9F2,Malerkotla,148023,Punjab,IN,https://www.google.com/maps/place/Aqsa+Masjid/data=!4m7!3m6!1s0x391067c2f26dc6eb:0x89744dd565377861!8m2!3d30.5133974!4d75.8861323!16s%2Fg%2F11fxc0ksbz!19sChIJ68Zt8sJnEDkRYXg3ZdVNdIk?authuser=0&hl=en&rclk=1,"30.5133974,75.8861323"
Masjid Faraz Ali Khan,Mosque,"Masjid Faraz Ali Khan, Faraz Ali Khan, Masjid, Club Chowk Rd, Jamalpura, Malerkotla, Punjab 148023",Jamalpura,"Faraz Ali Khan, Masjid, Club Chowk Rd",Malerkotla,148023,Punjab,IN,https://www.google.com/maps/place/Masjid+Faraz+Ali+Khan/data=!4m7!3m6!1s0x391067cf28a0dc27:0x506c13664065f295!8m2!3d30.5252462!4d75.8831665!16s%2Fg%2F1tf5c3th!19sChIJJ9ygKM9nEDkRlfJlQGYTbFA?authuser=0&hl=en&rclk=1,"30.525246199999998,75.8831665"
Rehmani Masjid,Mosque,"GW73+FMQ Rehmani Masjid, Faiz Nagar, Nabha - Malerkotla Rd, Malerkotla, Punjab 148023",Sangrur,"GW73+FMQ, Faiz Nagar, Nabha - Malerkotla Rd",Malerkotla,148023,Punjab,IN,https://www.google.com/maps/place/Rehmani+Masjid/data=!4m7!3m6!1s0x39106874b556aae9:0xd7e95e9ac77d08a5!8m2!3d30.5137099!4d75.9042456!16s%2Fg%2F11c44g1hxd!19sChIJ6apWtXRoEDkRpQh9x5pe6dc?authuser=0&hl=en&rclk=1,"30.5137099,75.9042456"
Shehzad Masjid,Mosque,"GVCH+7MH Shehzad Masjid, Bus Stand Rd, Agar Nagar, Malerkotla, Punjab 148023",Agar Nagar,"GVCH+7MH, Bus Stand Rd",Malerkotla,148023,Punjab,IN,https://www.google.com/maps/place/Shehzad+Masjid/data=!4m7!3m6!1s0x391067c7b5c6b9c3:0x68faa61d430f400d!8m2!3d30.5206942!4d75.8792474!16s%2Fg%2F11c3k9f9zs!19sChIJw7nGtcdnEDkRDUAPQx2m-mg?authuser=0&hl=en&rclk=1,"30.520694199999998,75.8792474"
Haleema Masjid,Mosque,"GVQC+X2C Haleema Masjid, opposite Eid Gah, Chohatta, Malerkotla, Punjab 148023",Chohatta,"GVQC+X2C, opposite Eid Gah",Malerkotla,148023,Punjab,IN,https://www.google.com/maps/place/Haleema+Masjid/data=!4m7!3m6!1s0x391067f51b182861:0xf4e2e4d0edc24bd8!8m2!3d30.5399379!4d75.8700066!16s%2Fg%2F11fhm50j57!19sChIJYSgYG_VnEDkR2EvC7dDk4vQ?authuser=0&hl=en&rclk=1,"30.539937899999998,75.8700066"
Masjid Bagh Wali,Mosque,"GVHP+F2C Masjid Bagh Wali, Sajida Colony, Malerkotla, Punjab 148023",Sajida Colony,GVHP+F2C,Malerkotla,148023,Punjab,IN,https://www.google.com/maps/place/Masjid+Bagh+Wali/data=!4m7!3m6!1s0x391067cc29635415:0x5e6439c5c4f10e4a!8m2!3d30.5286866!4d75.8850059!16s%2Fg%2F11dym9kdx6!19sChIJFVRjKcxnEDkRSg7xxMU5ZF4?authuser=0&hl=en&rclk=1,"30.5286866,75.8850059"
Khalifa Masjid,Mosque,"GVQF+3GH Khalifa Masjid, Shahzadpura, Chohatta, Malerkotla, Punjab 148023","Shahzadpura, Chohatta",GVQF+3GH,Malerkotla,148023,Punjab,IN,https://www.google.com/maps/place/Khalifa+Masjid/data=!4m7!3m6!1s0x391067596da6bf5d:0xc40906c679b5f5f0!8m2!3d30.53769!4d75.8738696!16s%2Fg%2F11ghzms3vm!19sChIJXb-mbVlnEDkR8PW1ecYGCcQ?authuser=0&hl=en&rclk=1,"30.537689999999998,75.87386959999999"
Masjid Bholu Wali,Mosque,"GVHH+332 Masjid Bholu Wali, Shaeed Abdul Hameed Road, inside Sunami Gate, Tapa Mohalla, Malerkotla, Punjab 148023",Tapa Mohalla,"GVHH+332, Shaeed Abdul Hameed Road, inside Sunami Gate",Malerkotla,148023,Punjab,IN,https://www.google.com/maps/place/Masjid+Bholu+Wali/data=!4m7!3m6!1s0x391067ae98b12b8f:0x3f32085623be2467!8m2!3d30.5276479!4d75.8776403!16s%2Fg%2F11mmjn6tf4!19sChIJjyuxmK5nEDkRZyS-I1YIMj8?authuser=0&hl=en&rclk=1,"30.527647899999998,75.8776403"
Masjid,Mosque,"GV7J+XJP Masjid, Agar Nagar, Malerkotla, Punjab 148023",Agar Nagar,GV7J+XJP,Malerkotla,148023,Punjab,IN,https://www.google.com/maps/place/Masjid/data=!4m7!3m6!1s0x391067c15d6e6a57:0xe97ac77bba1dc5d9!8m2!3d30.5149655!4d75.8815897!16s%2Fg%2F11gffpslvm!19sChIJV2puXcFnEDkR2cUdunvHeuk?authuser=0&hl=en&rclk=1,"30.5149655,75.88158969999999"
Noorani Masjid,Mosque,"GW93+5RW Noorani Masjid, Abbaspura, Malerkotla, Punjab 148023",Abbaspura,GW93+5RW,Malerkotla,148023,Punjab,IN,https://www.google.com/maps/place/Noorani+Masjid/data=!4m7!3m6!1s0x391069682c59d0c7:0xbce87f636bc3d034!8m2!3d30.5179957!4d75.9045853!16s%2Fg%2F11gm7qb4m7!19sChIJx9BZLGhpEDkRNNDDa2N_6Lw?authuser=0&hl=en&rclk=1,"30.5179957,75.9045853"
Bilal Masjid,Mosque,"Bilal Masjid, Malerkotla - Barnala Rd, Agar Nagar, Malerkotla, Punjab 148023",Agar Nagar,Malerkotla - Barnala Rd,Malerkotla,148023,Punjab,IN,https://www.google.com/maps/place/Bilal+Masjid/data=!4m7!3m6!1s0x3910670667017363:0x3bf7e1578e4746ad!8m2!3d30.514133!4d75.8754733!16s%2Fg%2F11qn7cbqlc!19sChIJY3MBZwZnEDkRrUZHjlfh9zs?authuser=0&hl=en&rclk=1,"30.514132999999998,75.8754733"
Masjid,Mosque,"GVPM+2P7 Masjid, Jamalpura, Malerkotla, Punjab 148023",Jamalpura,GVPM+2P7,Malerkotla,148023,Punjab,IN,https://www.google.com/maps/place/Masjid/data=!4m7!3m6!1s0x391067b1725f1f93:0x8dec45b131a79bd6!8m2!3d30.5350328!4d75.8842896!16s%2Fg%2F11g20jksp3!19sChIJkx9fcrFnEDkR1punMbFF7I0?authuser=0&hl=en&rclk=1,"30.5350328,75.8842896"
