name,main_category,address,address_ward,address_street,address_city,address_postal_code,address_state,address_country_code,link,coordinates
Badi Masjid Khardah,Mosque,"P9G8+XX4 Badi Masjid Khardah, Titagarh, Khardaha, Kolkata, West Bengal 700117",Titagarh,P9G8+XX4,"Khardaha, Kolkata",700117,West Bengal,IN,https://www.google.com/maps/place/Badi+Masjid+Khardah/data=!4m7!3m6!1s0x39f89b9ed3c0dc37:0xde0cd13ba3dbe1a8!8m2!3d22.7273935!4d88.3674383!16s%2Fg%2F1hjhdy5v5!19sChIJN9zA056b-DkRqOHbozvRDN4?authuser=0&hl=en&rclk=1,"22.727393499999998,88.36743829999999"
MOHAMMADI MASJID,Mosque,"MOHAMMADI MASJID, 38, Ramkrishna Rd, Bangur Park, Serampore, West Bengal 712248","Bangur Park, Serampore","38, Ramkrishna Rd",,712248,West Bengal,IN,https://www.google.com/maps/place/MOHAMMADI+MASJID/data=!4m7!3m6!1s0x39f89b6cbce95255:0xf0d564ddcb0151f8!8m2!3d22.7293074!4d88.3488439!16s%2Fg%2F11c2y6w9r5!19sChIJVVLpvGyb-DkR-FEBy91k1fA?authuser=0&hl=en&rclk=1,"22.7293074,88.34884389999999"
Mallickpara Boro Masjid,Mosque,"Mallickpara Boro Masjid, 35, Mallicpara, Ghoramara, Serampore, Hooghly, Dakshin Rajyadharpur, West Bengal 712203","Mallicpara, Ghoramara, Serampore",35,"Hooghly, Dakshin Rajyadharpur",712203,West Bengal,IN,https://www.google.com/maps/place/Mallickpara+Boro+Masjid/data=!4m7!3m6!1s0x39f89b2615b66fa1:0xd3287412d141f44e!8m2!3d22.7497311!4d88.3345819!16s%2Fg%2F11c6cd1jt2!19sChIJoW-2FSab-DkRTvRB0RJ0KNM?authuser=0&hl=en&rclk=1,"22.749731099999998,88.33458189999999"
BAGKHAL JAMA MASJID,Mosque,"P972+V67 BAGKHAL JAMA MASJID, Jawahar Lal Nehru Sarani, Bagkhal, Rishra, West Bengal 712248","Jawahar Lal Nehru Sarani, Bagkhal, Rishra",P972+V67,,712248,West Bengal,IN,https://www.google.com/maps/place/BAGKHAL+JAMA+MASJID/data=!4m7!3m6!1s0x39f89b6458e98b89:0x43e0cf2588aa6f11!8m2!3d22.7146742!4d88.3505508!16s%2Fg%2F11f3m97hzq!19sChIJiYvpWGSb-DkREW-qiCXP4EM?authuser=0&hl=en&rclk=1,"22.714674199999997,88.3505508"
Noorani Masjid,Mosque,"Noorani Masjid, 20, P.K.Das Lane, Rishra), near Fatema Girls High School Risora, Serampore, 712248",Serampore,"20, P.K.Das Lane, Rishra), near Fatema Girls High School Risora",,712248,West Bengal,IN,https://www.google.com/maps/place/Noorani+Masjid/data=!4m7!3m6!1s0x39f89b6cd2dfa4eb:0xf473cfb951cee525!8m2!3d22.7304193!4d88.3501827!16s%2Fg%2F11g68wjsyk!19sChIJ66Tf0myb-DkRJeXOUbnPc_Q?authuser=0&hl=en&rclk=1,"22.730419299999998,88.35018269999999"
Ahle Sunnat Bichli Masjid,Mosque,"Ahle Sunnat Bichli Masjid, 10, AB Rd, Bangur Park, Rishra, West Bengal 712248","Bangur Park, Rishra","10, AB Rd",,712248,West Bengal,IN,https://www.google.com/maps/place/Ahle+Sunnat+Bichli+Masjid/data=!4m7!3m6!1s0x39f89b6dbd2357bb:0xc66339b7306dace5!8m2!3d22.726879!4d88.351724!16s%2Fg%2F1q6jd_y7w!19sChIJu1cjvW2b-DkR5axtMLc5Y8Y?authuser=0&hl=en&rclk=1,"22.726879,88.35172399999999"
BARA MASJID,Mosque,"P9H3+H45 BARA MASJID, Grand Trunk Road, Rishra, Hooghly, West Bengal 712248","Bangur Park, Rishra","P9H3+H45, Grand Trunk Road, Rishra",Hooghly,712248,West Bengal,IN,https://www.google.com/maps/place/BARA+MASJID/data=!4m7!3m6!1s0x39f89b6d61186c93:0x8b81f5235438f1a0!8m2!3d22.728892!4d88.3528504!16s%2Fg%2F11c5_v39bf!19sChIJk2wYYW2b-DkRoPE4VCP1gYs?authuser=0&hl=en&rclk=1,"22.728892,88.3528504"
Isha Khan Masjid,Mosque,"Isha Khan Masjid, Titagarh, Barrackpore, West Bengal 700119",Titagarh,,"Titagarh, Barrackpore",700119,West Bengal,IN,https://www.google.com/maps/place/Isha+Khan+Masjid/data=!4m7!3m6!1s0x39f89baffd377535:0xbca88c1227bc6a36!8m2!3d22.74333!4d88.3722746!16s%2Fg%2F11f1yghl38!19sChIJNXU3_a-b-DkRNmq8JxKMqLw?authuser=0&hl=en&rclk=1,"22.74333,88.3722746"
Kachchi Mosque,Mosque,"P9H2+FFR Kachchi Mosque, Abdul Kalam Azad Rd, Bangur Park, Kali Tala, West Bengal 712248","Bangur Park, Kali Tala","P9H2+FFR, Abdul Kalam Azad Rd",,712248,West Bengal,IN,https://www.google.com/maps/place/Kachchi+Mosque/data=!4m7!3m6!1s0x39f89b6d1987b79b:0xc60574b4edc66002!8m2!3d22.7287375!4d88.3511348!16s%2Fg%2F1q6j8f75g!19sChIJm7eHGW2b-DkRAmDG7bR0BcY?authuser=0&hl=en&rclk=1,"22.728737499999998,88.3511348"
Panchloki Bamunari Masjid,Mosque,"P89F+PRQ Panchloki Bamunari Masjid, Bamunari Road, Babanari, Rishra, Bamunari, West Bengal 712250","Babanari, Rishra","P89F+PRQ, Bamunari Road",Bamunari,712250,West Bengal,IN,https://www.google.com/maps/place/Panchloki+Bamunari+Masjid/data=!4m7!3m6!1s0x39f89b4d459b9547:0x755ef13470ae036a!8m2!3d22.7193321!4d88.3246236!16s%2Fg%2F1q6j8w1vt!19sChIJR5WbRU2b-DkRagOucDTxXnU?authuser=0&hl=en&rclk=1,"22.7193321,88.3246236"
RUHANI MASJID,Mosque,"RUHANI MASJID, 8, Anjuman Road, Rishra, Hooghly, West Bengal 712248","Bangur Park, Rishra","8, Anjuman Road, Rishra",Hooghly,712248,West Bengal,IN,https://www.google.com/maps/place/RUHANI+MASJID/data=!4m7!3m6!1s0x39f89b6daaef4fe9:0xcfe9003dddd33f93!8m2!3d22.7274711!4d88.3507438!16s%2Fg%2F11c5_s6n9g!19sChIJ6U_vqm2b-DkRkz_T3T0A6c8?authuser=0&hl=en&rclk=1,"22.7274711,88.35074379999999"
MOREPUKUR MASJID,Mosque,"P8CQ+X23 MOREPUKUR MASJID, Karl Marx Sarani, Morepukur, Subhash Nagar 2, Rishra, West Bengal 712249","Morepukur, Subhash Nagar 2, Rishra","P8CQ+X23, Karl Marx Sarani",,712249,West Bengal,IN,https://www.google.com/maps/place/MOREPUKUR+MASJID/data=!4m7!3m6!1s0x39f89b4468c58725:0xafb2384c2197ddc0!8m2!3d22.7223855!4d88.3375561!16s%2Fg%2F1hm5l75fz!19sChIJJYfFaESb-DkRwN2XIUw4sq8?authuser=0&hl=en&rclk=1,"22.722385499999998,88.3375561"
SUNNI MADINA MASJID,Mosque,"SUNNI MADINA MASJID, R. K ROAD NEAR BECHALI GOLA 712248 RISHRA, Bangur Park, Kali Tala, West Bengal","Bangur Park, Kali Tala",R. K ROAD NEAR BECHALI GOLA 712248 RISHRA,,,West Bengal,IN,https://www.google.com/maps/place/SUNNI+MADINA+MASJID/data=!4m7!3m6!1s0x39f89bdd76b880ad:0x814a095557c041b6!8m2!3d22.7291081!4d88.3497134!16s%2Fg%2F11g0dgxb0j!19sChIJrYC4dt2b-DkRtkHAV1UJSoE?authuser=0&hl=en&rclk=1,"22.729108099999998,88.3497134"
amritya para Mosque msjd,Mosque,"Q5GG+786 amritya para Mosque msjd, Sehakhala, Srirampur, West Bengal 712707",Sehakhala,Q5GG+786,Srirampur,712707,West Bengal,IN,https://www.google.com/maps/place/amritya+para+Mosque+%D9%85%D8%B3%D8%AC%D8%AF%E2%80%AD/data=!4m7!3m6!1s0x39f8878d2f350219:0x3ed69aa000e21b6b!8m2!3d22.7756678!4d88.1757625!16s%2Fg%2F12hl354xq!19sChIJGQI1L42H-DkRaxviAKCa1j4?authuser=0&hl=en&rclk=1,"22.775667799999997,88.17576249999999"
Sil Bagan Masjid,Mosque,"Sil Bagan Masjid, 19, parsi lane, Serampore, West Bengal 712201",Serampore,"19, parsi lane",,712201,West Bengal,IN,https://www.google.com/maps/place/Sil+Bagan+Masjid/data=!4m7!3m6!1s0x39f89ae0381a29c5:0x2ba41410e3f0fbf1!8m2!3d22.7557763!4d88.3451535!16s%2Fg%2F11gfd2w3_4!19sChIJxSkaOOCa-DkR8fvw4xAUpCs?authuser=0&hl=en&rclk=1,"22.755776299999997,88.3451535"
KHANDAKAR PARA JUMA MASJID,Mosque,"Q8CH+4G4 KHANDAKAR PARA JUMA MASJID, Grand Trunk Rd, Sheoraphuli, West Bengal 712223",Sheoraphuli,"Q8CH+4G4, Grand Trunk Rd",,712223,West Bengal,IN,https://www.google.com/maps/place/KHANDAKAR+PARA+JUMA+MASJID/data=!4m7!3m6!1s0x39f89ace9e6ae219:0x34f877eba8d9e0b2!8m2!3d22.770269!4d88.328843!16s%2Fg%2F11d_ww1wyj!19sChIJGeJqns6a-DkRsuDZqOt3-DQ?authuser=0&hl=en&rclk=1,"22.770269,88.32884299999999"
Masjid Serampore,Mosque,"Q83R+GR2 Masjid Serampore, Serampore, West Bengal 712201",Serampore,Q83R+GR2,,712201,West Bengal,IN,https://www.google.com/maps/place/Masjid+Serampore/data=!4m7!3m6!1s0x39f89b207300f935:0x9d7201f737512549!8m2!3d22.7537623!4d88.3420022!16s%2Fg%2F11fx91d45_!19sChIJNfkAcyCb-DkRSSVRN_cBcp0?authuser=0&hl=en&rclk=1,"22.753762299999998,88.3420022"
Mosque,Mosque,"Q8CJ+59H Mosque, Chatra Musalmanpara Rd, Sheoraphuli, West Bengal 712223",Sheoraphuli,"Q8CJ+59H, Chatra Musalmanpara Rd",,712223,West Bengal,IN,https://www.google.com/maps/place/Mosque/data=!4m7!3m6!1s0x39f89acee0df1d63:0x98cda546ceef1!8m2!3d22.7704326!4d88.3309774!16s%2Fg%2F11dzd314g1!19sChIJYx3f4M6a-DkR8e5sVNqMCQA?authuser=0&hl=en&rclk=1,"22.7704326,88.3309774"
Monirampur Masjid,Mosque,"Q8JP+5J6 Monirampur Masjid, Airport Area Barrackpore, Barrackpore, North Barrackpur, West Bengal 743122",Airport Area Barrackpore,Q8JP+5J6,"Barrackpore, North Barrackpur",743122,West Bengal,IN,https://www.google.com/maps/place/Monirampur+Masjid/data=!4m7!3m6!1s0x39f89ab8fa7b2549:0x96692d9dd43c52b2!8m2!3d22.7804055!4d88.3365274!16s%2Fg%2F11c594n0hg!19sChIJSSV7-ria-DkRslI81J0taZY?authuser=0&hl=en&rclk=1,"22.7804055,88.3365274"
Shrirampur Puraton Masjid,Mosque,"RF8F+P5W Shrirampur Puraton Masjid, Shrirampur, West Bengal 743221",,RF8F+P5W,Shrirampur,743221,West Bengal,IN,https://www.google.com/maps/place/Shrirampur+Puraton+Masjid/data=!4m7!3m6!1s0x39f897e4eafe9e5d:0x885cecc7ab1fe95f!8m2!3d22.8168517!4d88.4729524!16s%2Fg%2F11gfkqsybg!19sChIJXZ7-6uSX-DkRX-kfq8fsXIg?authuser=0&hl=en&rclk=1,"22.816851699999997,88.4729524"
Rahaman Saheb Boro Masjid Sheoraphuli,Mosque,"Rahaman Saheb Boro Masjid Sheoraphuli, Seoraphuli, Road, 35, Musalmanpara Ln, Serampore, West Bengal 712223",Serampore,"Seoraphuli, Road, 35, Musalmanpara Ln",,712223,West Bengal,IN,https://www.google.com/maps/place/Rahaman+Saheb+Boro+Masjid+Sheoraphuli/data=!4m7!3m6!1s0x39f89b2ddc82a92d:0x359ffc61949886ef!8m2!3d22.7711114!4d88.3303636!16s%2Fg%2F11gk3bfgn7!19sChIJLamC3C2b-DkR74aYlGH8nzU?authuser=0&hl=en&rclk=1,"22.7711114,88.3303636"
RISHRA JAMA MASJID,Place of worship,"P9H3+H45 RISHRA JAMA MASJID, Grand Trunk Road, Rishra, Hooghly, West Bengal 712248","Bangur Park, Rishra","P9H3+H45, Grand Trunk Road, Rishra",Hooghly,712248,West Bengal,IN,https://www.google.com/maps/place/RISHRA+JAMA+MASJID/data=!4m7!3m6!1s0x39f89ba33c6fe30b:0x8c96ec4eee9bb834!8m2!3d22.728892!4d88.3528504!16s%2Fg%2F11hzc23c4p!19sChIJC-NvPKOb-DkRNLib7k7slow?authuser=0&hl=en&rclk=1,"22.728892,88.3528504"
Kanai Dewantala River Side Jama'ah Masjid,Mosque,"Kanai Dewantala River Side Jama'ah Masjid, dui pisaar ghaatt, Serampore, West Bengal 712223",Serampore,dui pisaar ghaatt,,712223,West Bengal,IN,https://www.google.com/maps/place/Kanai+Dewantala+River+Side+Jama%27ah+Masjid/data=!4m7!3m6!1s0x39f89be9b00b4ad5:0x5a5fa1b02b8daa1c!8m2!3d22.771476!4d88.3321853!16s%2Fg%2F11qg5rnpns!19sChIJ1UoLsOmb-DkRHKqNK7ChX1o?authuser=0&hl=en&rclk=1,"22.771476,88.33218529999999"
ALLAHABADI MASJID,Mosque,"ALLAHABADI MASJID, 4, P. C. DAW BAZAR ROAD, Rishra, 712248","Bangur Park, Rishra","4, P. C. DAW BAZAR ROAD",,712248,West Bengal,IN,https://www.google.com/maps/place/ALLAHABADI+MASJID/data=!4m7!3m6!1s0x39f89b624291aa71:0xaec640ce3584841!8m2!3d22.726084!4d88.3520166!16s%2Fg%2F11gjyk46xl!19sChIJcaqRQmKb-DkRQUhY4wxk7Ao?authuser=0&hl=en&rclk=1,"22.726084,88.3520166"
Jhautala Masjid,Mosque,"Jhautala Masjid, 30, K.M Bhattacharjee St, Serampore, West Bengal 712201",Serampore,"30, K.M Bhattacharjee St",,712201,West Bengal,IN,https://www.google.com/maps/place/Jhautala+Masjid/data=!4m7!3m6!1s0x39f89b8875691c01:0xbddf3d20f827b220!8m2!3d22.75285!4d88.3440747!16s%2Fg%2F11frnz6ybb!19sChIJARxpdYib-DkRILIn-CA9370?authuser=0&hl=en&rclk=1,"22.75285,88.3440747"
Sheoraphuli Jama Masjid,Mosque,"Q8FH+37P Sheoraphuli Jama Masjid, Sheoraphuli, West Bengal 712223",Sheoraphuli,Q8FH+37P,,712223,West Bengal,IN,https://www.google.com/maps/place/Sheoraphuli+Jama+Masjid/data=!4m7!3m6!1s0x39f89acbfaa0628b:0x5b288c6fb0f8c98b!8m2!3d22.7727079!4d88.3282052!16s%2Fg%2F11d_pxpr_g!19sChIJi2Kg-sua-DkRi8n4sG-MKFs?authuser=0&hl=en&rclk=1,"22.7727079,88.3282052"
Srirampur Dakshin Para Masjid,Mosque,"RF6F+WVR Srirampur Dakshin Para Masjid, Shrirampur, West Bengal 743221",,RF6F+WVR,Shrirampur,743221,West Bengal,IN,https://www.google.com/maps/place/Srirampur+Dakshin+Para+Masjid/data=!4m7!3m6!1s0x39f897fc873087a3:0xa1602ece8b397008!8m2!3d22.8123579!4d88.4746344!16s%2Fg%2F11hb27g7b9!19sChIJo4cwh_yX-DkRCHA5i84uYKE?authuser=0&hl=en&rclk=1,"22.8123579,88.4746344"
BANGIHATI MASJID,Mosque,"P8P7+C27 BANGIHATI MASJID, Bangihati Village, Bangihati, West Bengal 712249",Bangihati Village,P8P7+C27,Bangihati,712249,West Bengal,IN,https://www.google.com/maps/place/BANGIHATI+MASJID/data=!4m7!3m6!1s0x39f884c6764cc769:0x3b991e6a058739ba!8m2!3d22.7360314!4d88.3125446!16s%2Fg%2F11g70c8rv1!19sChIJacdMdsaE-DkRujmHBWoemTs?authuser=0&hl=en&rclk=1,"22.736031399999998,88.3125446"
Rahmania Masjid,Mosque,"P8XX+R2X Rahmania Masjid, Dey St, Sirishtala, Khash Bagan, Serampore, West Bengal 712201","Sirishtala, Khash Bagan, Serampore","P8XX+R2X, Dey St",,712201,West Bengal,IN,https://www.google.com/maps/place/Rahmania+Masjid/data=!4m7!3m6!1s0x39f89b179a60b72b:0x7ce224a188acb9c4!8m2!3d22.7496179!4d88.3476061!16s%2Fg%2F11qvdxss9r!19sChIJK7dgmheb-DkRxLmsiKEk4nw?authuser=0&hl=en&rclk=1,"22.7496179,88.3476061"
"Jama Masjid,Musalman Para.",Mosque,"Q8CJ+59G Jama Masjid,Musalman Para., Sheoraphuli, West Bengal 712223",Sheoraphuli,Q8CJ+59G,,712223,West Bengal,IN,"https://www.google.com/maps/place/Jama+Masjid,Musalman+Para./data=!4m7!3m6!1s0x39f89acee0dbcf27:0x7d27106e4e69e045!8m2!3d22.7704324!4d88.3309643!16s%2Fg%2F11g8cxvb7n!19sChIJJ8_b4M6a-DkRReBpTm4QJ30?authuser=0&hl=en&rclk=1","22.7704324,88.33096429999999"
Ghosia Masjid,Mosque,"Ghosia Masjid, 6, Grey St, Chatra, Serampore, West Bengal 712204","Chatra, Serampore","6, Grey St",,712204,West Bengal,IN,https://www.google.com/maps/place/Ghosia+Masjid/data=!4m7!3m6!1s0x39f89bcf22c6e6db:0x956b2224b8f5bf51!8m2!3d22.769936!4d88.3330657!16s%2Fg%2F11gvxy0mhn!19sChIJ2-bGIs-b-DkRUb_1uCQia5U?authuser=0&hl=en&rclk=1,"22.769935999999998,88.33306569999999"
Badamtola Mosque,Mosque,"Q835+HGV Badamtola Mosque, Milki Badamtola, Piarapur P, West Bengal 712223",Milki Badamtola,Q835+HGV,Piarapur P,712223,West Bengal,IN,https://www.google.com/maps/place/Badamtola+Mosque/data=!4m7!3m6!1s0x39f8850fc6515e77:0xd3ec4b84169541de!8m2!3d22.7539874!4d88.3087901!16s%2Fg%2F11ghzt3_t_!19sChIJd15Rxg-F-DkR3kGVFoRL7NM?authuser=0&hl=en&rclk=1,"22.7539874,88.3087901"
MALLICKPARA CHOTO MASJID,Mosque,"MALLICKPARA CHOTO MASJID, 272, Mallicpara, Binod Behari Pally, Serampore, Howrah, West Bengal 712201","Mallicpara, Binod Behari Pally, Serampore",272,Howrah,712201,West Bengal,IN,https://www.google.com/maps/place/MALLICKPARA+CHOTO+MASJID/data=!4m7!3m6!1s0x39f89b9305d94737:0xcc93538283a8feac!8m2!3d22.7485518!4d88.3365949!16s%2Fg%2F11rc7j_5y6!19sChIJN0fZBZOb-DkRrP6og4JTk8w?authuser=0&hl=en&rclk=1,"22.748551799999998,88.3365949"
Masjid,Mosque,"26, Masjid, 5, Serampore, Hooghly, West Bengal 712201",Serampore,"26, 5",Hooghly,712201,West Bengal,IN,https://www.google.com/maps/place/Masjid/data=!4m7!3m6!1s0x39f89b0d6f940817:0x569d976a5884bc4e!8m2!3d22.7501353!4d88.3514131!16s%2Fg%2F11lbv50frb!19sChIJFwiUbw2b-DkRTryEWGqXnVY?authuser=0&hl=en&rclk=1,"22.7501353,88.3514131"
Serampore Jama Masjid,Mosque,"10, Serampore Jama Masjid, Dr. T.P, Nabin Chandra Chakraborty Ln, Jhautala, Serampore, West Bengal 712201","Jhautala, Serampore","10, Dr. T.P, Nabin Chandra Chakraborty Ln",,712201,West Bengal,IN,https://www.google.com/maps/place/Serampore+Jama+Masjid/data=!4m7!3m6!1s0x39f89b58546d67ab:0xddf9373e14624eb4!8m2!3d22.7648974!4d88.3308308!16s%2Fg%2F11jxxs1nb9!19sChIJq2dtVFib-DkRtE5iFD43-d0?authuser=0&hl=en&rclk=1,"22.7648974,88.3308308"
MALLICK PARA SIDIKIA HAPJIA MADRASHA,Mosque,"MALLICK PARA SIDIKIA HAPJIA MADRASHA, 2, Mallicpara, Binod Behari Pally, Serampore, West Bengal 712203","Mallicpara, Binod Behari Pally, Serampore",2,Serampore,712203,West Bengal,IN,https://www.google.com/maps/place/MALLICK+PARA+SIDIKIA+HAPJIA+MADRASHA/data=!4m7!3m6!1s0x39f89bb385d6d5bd:0x197a13d56e434e23!8m2!3d22.7496538!4d88.3381182!16s%2Fg%2F11h_vps3qn!19sChIJvdXWhbOb-DkRI05DbtUTehk?authuser=0&hl=en&rclk=1,"22.749653799999997,88.3381182"
Bangihati Dakshin Para Masjid,Mosque,"P8M6+4CM Bangihati Dakshin Para Masjid, Unnamed Road, Bangihati Village, Bangihati, West Bengal 712249",Bangihati Village,"P8M6+4CM, Unnamed Road",Bangihati,712249,West Bengal,IN,https://www.google.com/maps/place/Bangihati+Dakshin+Para+Masjid/data=!4m7!3m6!1s0x39f885207f83ddbd:0xc71390d85b5a624d!8m2!3d22.7328271!4d88.3110536!16s%2Fg%2F11nft2ksp7!19sChIJvd2DfyCF-DkRTWJaW9iQE8c?authuser=0&hl=en&rclk=1,"22.732827099999998,88.3110536"
Eid ghah,Mosque,"Eid ghah, 45/1A, Firingi Danga Rd, Mallicpara, Ghoramara, Serampore, Hooghly, West Bengal 712203","Mallicpara, Ghoramara, Serampore","45/1A, Firingi Danga Rd",Hooghly,712203,West Bengal,IN,https://www.google.com/maps/place/Eid+ghah/data=!4m7!3m6!1s0x39f89baddba181ef:0x141928a9dcfa126e!8m2!3d22.746683!4d88.334001!16s%2Fg%2F11k03g67r5!19sChIJ74Gh262b-DkRbhL63KkoGRQ?authuser=0&hl=en&rclk=1,"22.746682999999997,88.334001"
MASJID -UL- AMEEN,Mosque,"65, MASJID -UL- AMEEN, 1, Ramkrishna Rd, Mahesh Colony, Rishra, Kolkata, West Bengal 712248","Mahesh Colony, Rishra","65, 1, Ramkrishna Rd",Kolkata,712248,West Bengal,IN,https://www.google.com/maps/place/MASJID+-UL-+AMEEN/data=!4m7!3m6!1s0x39f89b0c848f1a07:0x305a79ab3b436d93!8m2!3d22.7307859!4d88.3470729!16s%2Fg%2F11k3lq63qf!19sChIJBxqPhAyb-DkRk21DO6t5WjA?authuser=0&hl=en&rclk=1,"22.730785899999997,88.3470729"
Sreerampur Hazrapara Eidgah shriiraampur haajraapaarraa iidgaah,Mosque,"Q82R+664 Sreerampur Hazrapara Eidgah shriiraampur haajraapaarraa iidgaah, Sreerampur Hazrapara, Puthiya, Rajshahi, Serampore",Serampore,"Q82R+664, Sreerampur Hazrapara, Puthiya, Rajshahi",,,West Bengal,IN,https://www.google.com/maps/place/Sreerampur+Hazrapara+Eidgah+%E0%A6%B6%E0%A7%8D%E0%A6%B0%E0%A7%80%E0%A6%B0%E0%A6%BE%E0%A6%AE%E0%A6%AA%E0%A7%81%E0%A6%B0+%E0%A6%B9%E0%A6%BE%E0%A6%9C%E0%A6%B0%E0%A6%BE%E0%A6%AA%E0%A6%BE%E0%A7%9C%E0%A6%BE+%E0%A6%88%E0%A6%A6%E0%A6%97%E0%A6%BE%E0%A6%B9%E0%A7%8D/data=!4m7!3m6!1s0x39f89b5d04817df3:0x5d73bcad8d3f862f!8m2!3d22.7505213!4d88.3405772!16s%2Fg%2F11s450p0vv!19sChIJ832BBF2b-DkRL4Y_ja28c10?authuser=0&hl=en&rclk=1,"22.7505213,88.3405772"
Masjid Quba (for All Genders),Mosque,"Masjid Quba (for All Genders), 8/1, Abdul Kalam Azad Rd, Bangur Park, Rishra, Hooghly, West Bengal 712248","Bangur Park, Rishra","8/1, Abdul Kalam Azad Rd",Hooghly,712248,West Bengal,IN,https://www.google.com/maps/place/Masjid+Quba+%28for+All+Genders%29/data=!4m7!3m6!1s0x39f89bd56e8e8459:0x39331c18a9b51450!8m2!3d22.7290424!4d88.350765!16s%2Fg%2F11v6xc_7ch!19sChIJWYSObtWb-DkRUBS1qRgcMzk?authuser=0&hl=en&rclk=1,"22.729042399999997,88.350765"
Mallickpara eidgah,Mosque,"Mallickpara eidgah, 163, Mallicpara, Binod Behari Pally, Serampore, Howrah, West Bengal 712201","Mallicpara, Binod Behari Pally, Serampore",163,Howrah,712201,West Bengal,IN,https://www.google.com/maps/place/Mallickpara+eidgah/data=!4m7!3m6!1s0x39f89b62bf11d2e9:0xb9d1562cc6fb6801!8m2!3d22.7473283!4d88.3377462!16s%2Fg%2F11sv9ykj4w!19sChIJ6dIRv2Kb-DkRAWj7xixW0bk?authuser=0&hl=en&rclk=1,"22.7473283,88.3377462"
shriiraampur mdhypaarraa jaame msjid,Mosque,"Q82R+664 shriiraampur mdhypaarraa jaame msjid, shriiraampur, baaliyyaarraanggaa,nbaabgnyj, Serampore",Serampore,"Q82R+664, shriiraampur, baaliyyaarraanggaa,nbaabgnyj",,,West Bengal,IN,https://www.google.com/maps/place/%E0%A6%B6%E0%A7%8D%E0%A6%B0%E0%A7%80%E0%A6%B0%E0%A6%BE%E0%A6%AE%E0%A6%AA%E0%A7%81%E0%A6%B0+%E0%A6%AE%E0%A6%A7%E0%A7%8D%E0%A6%AF%E0%A6%AA%E0%A6%BE%E0%A7%9C%E0%A6%BE+%E0%A6%9C%E0%A6%BE%E0%A6%AE%E0%A7%87+%E0%A6%AE%E0%A6%B8%E0%A6%9C%E0%A6%BF%E0%A6%A6/data=!4m7!3m6!1s0x39f89b9c1fb2e99b:0xaf027d9924f43b29!8m2!3d22.7505213!4d88.3405772!16s%2Fg%2F11jf9krnrd!19sChIJm-myH5yb-DkRKTv0JJl9Aq8?authuser=0&hl=en&rclk=1,"22.7505213,88.3405772"
