name,main_category,address,address_ward,address_street,address_city,address_postal_code,address_state,address_country_code,link,coordinates
Masjid Yaseen Bee Sahiba,Mosque,"5FQ2+RJP Masjid Yaseen Bee Sahiba, Narmadapuram Rd, Adarsh Nagar, Ahmedpur, Bagmugaliya, Bhopal, Madhya Pradesh 462026","Adarsh Nagar, Ahmedpur, Bagmugaliya","5FQ2+RJP, Narmadapuram Rd",Bhopal,462026,Madhya Pradesh,IN,https://www.google.com/maps/place/Masjid+Yaseen+Bee+Sahiba/data=!4m7!3m6!1s0x397c43c1755bc6e9:0xc9ad532d79837c5e!8m2!3d23.1895969!4d77.4515725!16s%2Fg%2F1261f1qfz!19sChIJ6cZbdcFDfDkRXnyDeS1Trck?authuser=0&hl=en&rclk=1,"23.189596899999998,77.4515725"
Akbari masjid balaganj,Mosque,"QP47+WWP Akbari masjid balaganj, Balaganj, Narmadapuram, Madhya Pradesh 461001",Balaganj,QP47+WWP,Narmadapuram,461001,Madhya Pradesh,IN,https://www.google.com/maps/place/Akbari+masjid+balaganj/data=!4m7!3m6!1s0x397dcfb3c1504525:0xcfccc8478832e1dc!8m2!3d22.757348!4d77.7148352!16s%2Fg%2F11c6w1b6jw!19sChIJJUVQwbPPfTkR3OEyiEfIzM8?authuser=0&hl=en&rclk=1,"22.757348,77.7148352"
Masjid Seth Muhammad Fazil,Mosque,"Masjid Seth Muhammad Fazil, Badi Bajaria, Ward No. 6, 461001,, Narmadapuram, Madhya Pradesh",Jagdish Pura,"Badi Bajaria, Ward No. 6, 461001,",Narmadapuram,,Madhya Pradesh,IN,https://www.google.com/maps/place/Masjid+Seth+Muhammad+Fazil/data=!4m7!3m6!1s0x397dcfb46150893f:0x712f0b7480a73e41!8m2!3d22.759031!4d77.7176982!16s%2Fg%2F11c1vkj2z8!19sChIJP4lQYbTPfTkRQT6ngHQLL3E?authuser=0&hl=en&rclk=1,"22.759031,77.7176982"
Majar,Mosque,"QP4F+W8C Majar, Narmadapuram, Madhya Pradesh 461001",,QP4F+W8C,Narmadapuram,461001,Madhya Pradesh,IN,https://www.google.com/maps/place/Majar/data=!4m7!3m6!1s0x397dcfc97f399087:0xf7a27f03440dad4!8m2!3d22.757307!4d77.7232661!16s%2Fg%2F12hnh8g5d!19sChIJh5A5f8nPfTkR1NpANPAneg8?authuser=0&hl=en&rclk=1,"22.757306999999997,77.7232661"
Sunni Saani Jama Masjid Hoshangabad,Mosque,"QP47+9G6 Sunni Saani Jama Masjid Hoshangabad, Near Rathore Building, Naga Mohalla, Balaganj, Narmadapuram, Madhya Pradesh 461001","Naga Mohalla, Balaganj","QP47+9G6, Near Rathore Building",Narmadapuram,461001,Madhya Pradesh,IN,https://www.google.com/maps/place/Sunni+Saani+Jama+Masjid+Hoshangabad/data=!4m7!3m6!1s0x397dcfb17f155dc7:0xb3b36d53ab9712c2!8m2!3d22.7559011!4d77.7137537!16s%2Fg%2F11b6r8m0xh!19sChIJx10Vf7HPfTkRwhKXq1Nts7M?authuser=0&hl=en&rclk=1,"22.7559011,77.7137537"
Makkah masjid mahima nagar spm,Mosque,"PPW6+584 Makkah masjid mahima nagar spm, Hoshangabad - Harda Rd, SPM Colony, Narmadapuram, Madhya Pradesh 461005",SPM Colony,"PPW6+584, Hoshangabad - Harda Rd",Narmadapuram,461005,Madhya Pradesh,IN,https://www.google.com/maps/place/Makkah+masjid+mahima+nagar+spm/data=!4m7!3m6!1s0x397dcfa4b4c5203f:0x538c8ce692d2dfea!8m2!3d22.7453872!4d77.7108137!16s%2Fg%2F11c1_vr436!19sChIJPyDFtKTPfTkR6t_SkuaMjFM?authuser=0&hl=en&rclk=1,"22.7453872,77.7108137"
Madina Masjid H. Bagar,Mosque,"G674+FC4 Madina Masjid H. Bagar, Hasanpur Bagar, Bihar 848201",,G674+FC4,Hasanpur Bagar,848201,Bihar,IN,https://www.google.com/maps/place/Madina+Masjid+H.+Bagar/data=!4m7!3m6!1s0x39f203d753e14c69:0x6e83d7419537417b!8m2!3d25.5136379!4d86.206065!16s%2Fg%2F11dyq__xbc!19sChIJaUzhU9cD8jkRe0E3lUHXg24?authuser=0&hl=en&rclk=1,"25.5136379,86.206065"
Chotee Bajariya Masjid,Mosque,"QP58+JC6 Chotee Bajariya Masjid, Jagdish Pura, Narmadapuram, Madhya Pradesh 461001",Jagdish Pura,QP58+JC6,Narmadapuram,461001,Madhya Pradesh,IN,https://www.google.com/maps/place/Chotee+Bajariya+Masjid/data=!4m7!3m6!1s0x397dcfb3831d4f23:0xf54be10cf3eeda73!8m2!3d22.759037!4d77.716009!16s%2Fg%2F11fx91dtz3!19sChIJI08dg7PPfTkRc9ru8wzhS_U?authuser=0&hl=en&rclk=1,"22.759037,77.716009"
Masjid Ae-Ayesha Gulshan Ae- Adab,Mosque,"Masjid Ae-Ayesha Gulshan Ae- Adab, Eidgah, Near, Mominpura, Madhya Pradesh 461001",Gwaltoli,"Eidgah, Near","Mominpura, Narmadapuram",461001,Madhya Pradesh,IN,https://www.google.com/maps/place/Masjid+Ae-Ayesha+Gulshan+Ae-+Adab/data=!4m7!3m6!1s0x397dcfae3d46d935:0xfdcb1284f8d34ab6!8m2!3d22.7543267!4d77.7100504!16s%2Fg%2F11c5bjnmqw!19sChIJNdlGPa7PfTkRtkrT-IQSy_0?authuser=0&hl=en&rclk=1,"22.7543267,77.7100504"
"Darul Uloom Siddiquia, Madarsa Malakhedi, Hoshangabad",Mosque,"QQ34+C46 Darul Uloom Siddiquia, Madarsa Malakhedi, Hoshangabad, Unnamed Road, Malakhedi, Narmadapuram, Madhya Pradesh 461001",Malakhedi,"QQ34+C46, Unnamed Road",Narmadapuram,461001,Madhya Pradesh,IN,"https://www.google.com/maps/place/Darul+Uloom+Siddiquia,+Madarsa+Malakhedi,+Hoshangabad/data=!4m7!3m6!1s0x397dd11176f69c25:0xa422eec5c9bcf165!8m2!3d22.7535462!4d77.7552594!16s%2Fg%2F11h6tzbfth!19sChIJJZz2dhHRfTkRZfG8ycXuIqQ?authuser=0&hl=en&rclk=1","22.7535462,77.7552594"
Mohammadi Masjid Eidgaha Mohalla,Mosque,"QP46+826 Mohammadi Masjid Eidgaha Mohalla, Eidgah Colony, Gwaltoli, Narmadapuram, Madhya Pradesh 461001","Eidgah Colony, Gwaltoli",QP46+826,Narmadapuram,461001,Madhya Pradesh,IN,https://www.google.com/maps/place/Mohammadi+Masjid+Eidgaha+Mohalla/data=!4m7!3m6!1s0x397dcf97e79f1971:0x4f5d88ef06454394!8m2!3d22.7557828!4d77.7100278!16s%2Fg%2F11fjyxl4jn!19sChIJcRmf55fPfTkRlENFBu-IXU8?authuser=0&hl=en&rclk=1,"22.7557828,77.71002779999999"
Jama Masjid Jumerati,Mosque,"QP66+5WW Jama Masjid Jumerati, Ward No-3, Jagdish Pura, Narmadapuram, Madhya Pradesh 461001","Ward No-3, Jagdish Pura",QP66+5WW,Narmadapuram,,Madhya Pradesh,IN,https://www.google.com/maps/place/Jama+Masjid+Jumerati/data=!4m7!3m6!1s0x397dcfbd0e352e2d:0x5dccf15d81a4c6!8m2!3d22.7604923!4d77.7123431!16s%2Fg%2F11g0ftn9mh!19sChIJLS41Dr3PfTkRxqSBXfHMXQA?authuser=0&hl=en&rclk=1,"22.7604923,77.7123431"
Masjid Afzal Colony,Mosque,"Masjid Afzal Colony, Ward No 16, Afzal Colony, Babai Rd, Narmadapuram, Madhya Pradesh 461001",Kalika Nagar,"Ward No 16, Afzal Colony, Babai Rd",Narmadapuram,461001,Madhya Pradesh,IN,https://www.google.com/maps/place/Masjid+Afzal+Colony/data=!4m7!3m6!1s0x397dd157c6b2ba41:0x32017df8f56b4486!8m2!3d22.7420651!4d77.7535226!16s%2Fg%2F11fmr5v2k3!19sChIJQbqyxlfRfTkRhkRr9fh9ATI?authuser=0&hl=en&rclk=1,"22.742065099999998,77.7535226"
jaafrii gNj msjid,Mosque,"jaafrii gNj msjid, Jagdish Pura, Narmadapuram, Madhya Pradesh 461001",Jagdish Pura,,Narmadapuram,461001,Madhya Pradesh,IN,https://www.google.com/maps/place/%E0%A4%9C%E0%A4%BE%E0%A5%9E%E0%A4%B0%E0%A5%80+%E0%A4%97%E0%A4%82%E0%A4%9C+%E0%A4%AE%E0%A4%B8%E0%A5%8D%E0%A4%9C%E0%A4%BF%E0%A4%A6/data=!4m7!3m6!1s0x397dcfb303aaa61d:0xe15c6f181fe35940!8m2!3d22.7596413!4d77.7138921!16s%2Fg%2F11c72rj_4_!19sChIJHaaqA7PPfTkRQFnjHxhvXOE?authuser=0&hl=en&rclk=1,"22.7596413,77.7138921"
Masjid,Mosque,"P5R6+6JF Masjid, Sapri, Sakarpura, Bihar 848205",,P5R6+6JF,"Sapri, Sakarpura",848205,Bihar,IN,https://www.google.com/maps/place/Masjid/data=!4m7!3m6!1s0x39edfb35580670e1:0x63aedc8fa01df3d5!8m2!3d25.7405124!4d86.1615419!16s%2Fg%2F11kpyfmfln!19sChIJ4XAGWDX77TkR1fMdoI_crmM?authuser=0&hl=en&rclk=1,"25.7405124,86.1615419"
hmiidiyaa msjid sbjii mNddii,Mosque,"QP57+8GP hmiidiyaa msjid sbjii mNddii, Unnamed Road, Balaganj, Narmadapuram, Madhya Pradesh 461001",Balaganj,"QP57+8GP, Unnamed Road",Narmadapuram,461001,Madhya Pradesh,IN,https://www.google.com/maps/place/%E0%A4%B9%E0%A4%AE%E0%A5%80%E0%A4%A6%E0%A4%BF%E0%A4%AF%E0%A4%BE+%E0%A4%AE%E0%A4%B8%E0%A5%8D%E0%A4%9C%E0%A4%BF%E0%A4%A6+%E0%A4%B8%E0%A4%AC%E0%A5%8D%E0%A4%9C%E0%A5%80+%E0%A4%AE%E0%A4%82%E0%A4%A1%E0%A5%80/data=!4m7!3m6!1s0x397dcffbb7ecd597:0xc2f54cc57c129e9c!8m2!3d22.7583432!4d77.7138318!16s%2Fg%2F11fmzk0084!19sChIJl9Xst_vPfTkRnJ4SfMVM9cI?authuser=0&hl=en&rclk=1,"22.7583432,77.7138318"
mdyn msjyd,Mosque,"C2WX+Q6F mdyn msjyd, Bathauli Dhala Rd, Bihar 851210",,"C2WX+Q6F, Bathauli Dhala Rd",,851210,Bihar,IN,https://www.google.com/maps/place/%D9%85%D8%AF%DB%8C%D9%86%D8%A7+%D9%85%D8%B3%D8%AC%DB%8C%D8%AF%E2%80%AD/data=!4m7!3m6!1s0x39f20f52f25d77d3:0xf7874a875f8e15a5!8m2!3d25.446944!4d86.0480544!16s%2Fg%2F11h465s58z!19sChIJ03dd8lIP8jkRpRWOX4dKh_c?authuser=0&hl=en&rclk=1,"25.446944,86.0480544"
Jama Masjid,Mosque,"RQWW+WPF Jama Masjid, Shahganj, Madhya Pradesh 466554",,RQWW+WPF,Shahganj,466554,Madhya Pradesh,IN,https://www.google.com/maps/place/Jama+Masjid/data=!4m7!3m6!1s0x397dd3c7a5159449:0x21981c009b6483f0!8m2!3d22.8473116!4d77.7967848!16s%2Fg%2F11jdmgxwr6!19sChIJSZQVpcfTfTkR8INkmwAcmCE?authuser=0&hl=en&rclk=1,"22.847311599999998,77.7967848"
Sunni Gosiya Mosque,Mosque,"Sunni Gosiya Mosque, dargha, 41 ahemadpur, Narmadapuram Rd, Bhopal","Surendra Garden, Bagmugaliya","dargha, 41 ahemadpur, Narmadapuram Rd",Bhopal,,Madhya Pradesh,IN,https://www.google.com/maps/place/Sunni+Gosiya+Mosque/data=!4m7!3m6!1s0x397c43fdc51714f9:0xbae28265abf46b1d!8m2!3d23.1926096!4d77.4516195!16s%2Fg%2F11tf8bkr8l!19sChIJ-RQXxf1DfDkRHWv0q2WC4ro?authuser=0&hl=en&rclk=1,"23.192609599999997,77.45161949999999"
Masjid,Mosque,"F227+J8 Masjid, Mohammadpur Baro, Bihar 851210",,F227+J8,Mohammadpur Baro,851210,Bihar,IN,https://www.google.com/maps/place/Masjid/data=!4m7!3m6!1s0x39f20f98cd93a03f:0x55b576be3dba6ada!8m2!3d25.4515611!4d86.0130898!16s%2Fg%2F11sc99nlwb!19sChIJP6CTzZgP8jkR2mq6Pb52tVU?authuser=0&hl=en&rclk=1,"25.4515611,86.0130898"
fazil Seth Masjid,Mosque,"QP58+9VX fazil Seth Masjid, Itwara Bazar, Jagdish Pura, Narmadapuram, Madhya Pradesh 461001","Itwara Bazar, Jagdish Pura",QP58+9VX,Narmadapuram,461001,Madhya Pradesh,IN,https://www.google.com/maps/place/fazil+Seth+Masjid/data=!4m7!3m6!1s0x397dcf81a137b42b:0x61a597237dcd6ddb!8m2!3d22.7584782!4d77.7172482!16s%2Fg%2F11fjyx9nt9!19sChIJK7Q3oYHPfTkR223NfSOXpWE?authuser=0&hl=en&rclk=1,"22.7584782,77.7172482"
Masjid,Mosque,"H4F2+RR7 Masjid, SH 55, Thatha, Bihar 848202",,"H4F2+RR7, SH 55",Thatha,848202,Bihar,IN,https://www.google.com/maps/place/Masjid/data=!4m7!3m6!1s0x39f20757718b5167:0x8dcf46893c5cce2e!8m2!3d25.5745759!4d86.1020532!16s%2Fg%2F11tp5208bn!19sChIJZ1GLcVcH8jkRLs5cPIlGz40?authuser=0&hl=en&rclk=1,"25.5745759,86.1020532"
Bheelpure wali masjid,Mosque,"QP75+898 Bheelpure wali masjid, Jumerati Colony, Narmadapuram, Madhya Pradesh 461001",Jumerati Colony,QP75+898,Narmadapuram,461001,Madhya Pradesh,IN,https://www.google.com/maps/place/Bheelpure+wali+masjid/data=!4m7!3m6!1s0x397dcf43cb076ccf:0x4751a2bfafb4a397!8m2!3d22.7632765!4d77.7084637!16s%2Fg%2F11t1rgdgtd!19sChIJz2wHy0PPfTkRl6O0r7-iUUc?authuser=0&hl=en&rclk=1,"22.7632765,77.7084637"
Hamidiya masjid hoshangabad,Museum,"QP57+CGM Hamidiya masjid hoshangabad, Jagdish Pura, Narmadapuram, Madhya Pradesh 461001",Jagdish Pura,QP57+CGM,Narmadapuram,461001,Madhya Pradesh,IN,https://www.google.com/maps/place/Hamidiya+masjid+hoshangabad/data=!4m7!3m6!1s0x397dcf7439a8d34f:0x62657b1fdfe0e09f!8m2!3d22.7585896!4d77.7137888!16s%2Fg%2F11h55zltsb!19sChIJT9OoOXTPfTkRn-Dg3x97ZWI?authuser=0&hl=en&rclk=1,"22.7585896,77.7137888"
