name,main_category,address,address_ward,address_street,address_city,address_postal_code,address_state,address_country_code,link,coordinates
Nagina Masjid,Mosque,"5JCV+F7H Nagina Masjid, Basni, Rajasthan 341021",,5JCV+F7H,Basni,341021,Rajasthan,IN,https://www.google.com/maps/place/Nagina+Masjid/data=!4m7!3m6!1s0x396a9b3e335d3785:0x56989efcea0f7d0a!8m2!3d27.1717425!4d73.6439313!16s%2Fg%2F11lm7fhzm3!19sChIJhTddMz6bajkRCn0P6vyemFY?authuser=0&hl=en&rclk=1,"27.171742499999997,73.64393129999999"
Jama Masjid - Basni,Mosque,"Jama Masjid - Basni, Behind Police Station, 2nd Phase, M.I.A. 1st Phase, Basni, Basni, Jodhpur, Rajasthan 342005","2nd Phase, M.I.A. 1st Phase, Basni, Basni",Behind Police Station,Jodhpur,342005,Rajasthan,IN,https://www.google.com/maps/place/Jama+Masjid+-+Basni/data=!4m7!3m6!1s0x39418bfa4d52a9fb:0x965f466d41dac3a7!8m2!3d26.2311863!4d73.0021306!16s%2Fg%2F11bw7g7bbf!19sChIJ-6lSTfqLQTkRp8PaQW1GX5Y?authuser=0&hl=en&rclk=1,"26.231186299999997,73.0021306"
Aaysha Masjid Basni Belima,Mosque,"5JGV+CF3 Aaysha Masjid Basni Belima, Basni, Rajasthan 341021",,5JGV+CF3,Basni,341021,Rajasthan,IN,https://www.google.com/maps/place/Aaysha+Masjid+Basni+Belima/data=!4m7!3m6!1s0x396a9a851151a8b3:0x8dc90e00105fc0a8!8m2!3d27.1760086!4d73.6436766!16s%2Fg%2F11b781bcld!19sChIJs6hREYWaajkRqMBfEAAOyY0?authuser=0&hl=en&rclk=1,"27.1760086,73.64367659999999"
Makkah Masjid,Mosque,"5JGW+6Q4 Makkah Masjid, Belima, Basni, Rajasthan 341021",,5JGW+6Q4,"Belima, Basni",341021,Rajasthan,IN,https://www.google.com/maps/place/Makkah+Masjid/data=!4m7!3m6!1s0x396a9a84bb239327:0xadd3fa8e1daaaf90!8m2!3d27.1755153!4d73.6469523!16s%2Fg%2F11gzd1l6z!19sChIJJ5Mju4SaajkRkK-qHY76060?authuser=0&hl=en&rclk=1,"27.175515299999997,73.6469523"
JAMA MASJID,Mosque,"5JCV+384 JAMA MASJID, Basni, Rajasthan 341021",,5JCV+384,Basni,341021,Rajasthan,IN,https://www.google.com/maps/place/JAMA+MASJID/data=!4m7!3m6!1s0x396a9a9a6a09fa97:0x2ec67f3ea1d1e554!8m2!3d27.1701375!4d73.643317!16s%2Fg%2F11f1437yqs!19sChIJl_oJapqaajkRVOXRoT5_xi4?authuser=0&hl=en&rclk=1,"27.1701375,73.643317"
Masjid msjd,Mosque,"62J2+8RC Masjid msjd, MIA 2nd Phase, Basni, Jodhpur, Rajasthan 342005","MIA 2nd Phase, Basni",62J2+8RC,Jodhpur,342005,Rajasthan,IN,https://www.google.com/maps/place/Masjid+%D9%85%D8%B3%D8%AC%D8%AF%E2%80%AD/data=!4m7!3m6!1s0x39418bfbac8f6dc1:0xce3b3a04ea1f63b4!8m2!3d26.2308101!4d73.0020003!16s%2Fg%2F11c55vn909!19sChIJwW2PrPuLQTkRtGMf6gQ6O84?authuser=0&hl=en&rclk=1,"26.2308101,73.00200029999999"
Sabri Masjid,Mosque,"5JCW+3J7 Sabri Masjid, MDR37A, Belima, Basni, Rajasthan 341021",,"5JCW+3J7, MDR37A","Belima, Basni",341021,Rajasthan,IN,https://www.google.com/maps/place/Sabri+Masjid/data=!4m7!3m6!1s0x396a9a9bead66ae5:0xd99e5f5fef0a116f!8m2!3d27.1701527!4d73.6465384!16s%2Fg%2F11h051wn5!19sChIJ5WrW6puaajkRbxEK719fntk?authuser=0&hl=en&rclk=1,"27.1701527,73.6465384"
Noorie Masjid,Mosque,"5MF2+G8W Noorie Masjid, Phulpura, Basni, Rajasthan 341021",Phulpura,5MF2+G8W,Basni,,Rajasthan,IN,https://www.google.com/maps/place/Noorie+Masjid/data=!4m7!3m6!1s0x396a9a9d2118b8d7:0x26b260ce7d774bce!8m2!3d27.1738707!4d73.6508293!16s%2Fg%2F11b806w681!19sChIJ17gYIZ2aajkRzkt3fc5gsiY?authuser=0&hl=en&rclk=1,"27.1738707,73.6508293"
GARDEZIYA BASNI,Mosque,"CF4W+HP4 GARDEZIYA BASNI, Gardejya Basni, Rajasthan 341303",,CF4W+HP4,Gardejya Basni,341303,Rajasthan,IN,https://www.google.com/maps/place/GARDEZIYA+BASNI/data=!4m7!3m6!1s0x396b1609a1e33c43:0x1d889e7fb6f976ba!8m2!3d27.4063809!4d74.4968406!16s%2Fg%2F1pp2txj5q!19sChIJQzzjoQkWazkRunb5tn-eiB0?authuser=0&hl=en&rclk=1,"27.4063809,74.4968406"
Raza Masjid rzaa msjid,Mosque,"Raza Masjid rzaa msjid, Joshiyad Rd, Basni, Rajasthan 341021",,Joshiyad Rd,Basni,341021,Rajasthan,IN,https://www.google.com/maps/place/Raza+Masjid+%E0%A4%B0%E0%A5%9B%E0%A4%BE+%E0%A4%AE%E0%A4%B8%E0%A5%8D%E0%A4%9C%E0%A4%BF%E0%A4%A6/data=!4m7!3m6!1s0x396a9b34dc81c639:0x33301f3bf295db3c!8m2!3d27.1719471!4d73.6404528!16s%2Fg%2F11n0dgn2d9!19sChIJOcaB3DSbajkRPNuV8jsfMDM?authuser=0&hl=en&rclk=1,"27.171947099999997,73.64045279999999"
Garib Nawaz Masjid,Mosque,"5MC3+2CF Garib Nawaz Masjid, basni, Phoolpura",,"5MC3+2CF, basni","Phoolpura, Basni",,Rajasthan,IN,https://www.google.com/maps/place/Garib+Nawaz+Masjid/data=!4m7!3m6!1s0x396a9a9df8b9ad5b:0x37e103ca93c19573!8m2!3d27.1700581!4d73.6535407!16s%2Fg%2F11bt_grxsw!19sChIJW625-J2aajkRc5XBk8oD4Tc?authuser=0&hl=en&rclk=1,"27.1700581,73.6535407"
Badi Masjid,Mosque,"Badi Masjid, Jindrano ka mohallah, behlim, Basni, Rajasthan",,"Jindrano ka mohallah, behlim",Basni,,Rajasthan,IN,https://www.google.com/maps/place/Badi+Masjid/data=!4m7!3m6!1s0x396a9a9a0b66d08f:0x6609f37c607cb77c!8m2!3d27.1696211!4d73.6421896!16s%2Fg%2F11b6xkh62n!19sChIJj9BmC5qaajkRfLd8YHzzCWY?authuser=0&hl=en&rclk=1,"27.1696211,73.6421896"
Sultan -E- Hind Masjid,Mosque,"Sultan -E- Hind Masjid, 341021 nya mohalla, MDR37A, Basni, Rajasthan 341021",,"341021 nya mohalla, MDR37A",Basni,341021,Rajasthan,IN,https://www.google.com/maps/place/Sultan+-E-+Hind+Masjid/data=!4m7!3m6!1s0x396a9a976a04de53:0xf48271ddfba1b32!8m2!3d27.1667009!4d73.640767!16s%2Fg%2F11b7ldszl0!19sChIJU94EapeaajkRMhu63x0nSA8?authuser=0&hl=en&rclk=1,"27.1667009,73.640767"
Jama Masjid Khinchiya basni,Mosque,"CJ79+XHJ Jama Masjid Khinchiya basni, Khinchi ya basni, Didwana, Rajasthan 341303",,"CJ79+XHJ, Khinchi ya basni",Didwana,341303,Rajasthan,IN,https://www.google.com/maps/place/Jama+Masjid+Khinchiya+basni/data=!4m7!3m6!1s0x396b6a951a87e18b:0x8c43c2031fa7e8d0!8m2!3d27.4149579!4d74.6189039!16s%2Fg%2F11f040gpc1!19sChIJi-GHGpVqazkR0OinHwPCQ4w?authuser=0&hl=en&rclk=1,"27.414957899999997,74.61890389999999"
Eidgah,Mosque,"5J7R+6RV Eidgah, Basni, Rajasthan 341021",,5J7R+6RV,Basni,341021,Rajasthan,IN,https://www.google.com/maps/place/Eidgah/data=!4m7!3m6!1s0x396a9a9803023d89:0xda9daeced4ea2f29!8m2!3d27.1631232!4d73.642037!16s%2Fg%2F11dxlggyvf!19sChIJiT0CA5iaajkRKS_q1M6undo?authuser=0&hl=en&rclk=1,"27.163123199999998,73.642037"
Saabri Maszid,Mosque,"Saabri Maszid, MDR37A, Nagour road,, Basni, Rajasthan 341021",,"MDR37A, Nagour road,",Basni,341021,Rajasthan,IN,https://www.google.com/maps/place/Saabri+Maszid/data=!4m7!3m6!1s0x396a9a9beb04cab1:0x83894c0d20238ff0!8m2!3d27.1701004!4d73.6464754!16s%2Fg%2F11cn9545fn!19sChIJscoE65uaajkR8I8jIA1MiYM?authuser=0&hl=en&rclk=1,"27.1701004,73.6464754"
Jama Masjid Shekha Basni,Mosque,"9JR7+V46 Jama Masjid Shekha Basni, Sekha Basni, Rajasthan 341303",,9JR7+V46,Sekha Basni,341303,Rajasthan,IN,https://www.google.com/maps/place/Jama+Masjid+Shekha+Basni/data=!4m7!3m6!1s0x396b6adf1db3e3a5:0x600ae3f3d56df3d8!8m2!3d27.3921663!4d74.6127651!16s%2Fg%2F11hbr7h3fz!19sChIJpeOzHd9qazkR2PNt1fPjCmA?authuser=0&hl=en&rclk=1,"27.3921663,74.61276509999999"
Madina Masjid,Mosque,"Madina Masjid, MDR37A, Belima, Basni, Rajasthan 341021",,MDR37A,"Belima, Basni",341021,Rajasthan,IN,https://www.google.com/maps/place/Madina+Masjid/data=!4m7!3m6!1s0x396a9a9c753fffff:0xac874f3e16ed4aae!8m2!3d27.1704848!4d73.6478262!16s%2Fg%2F11txmzlndq!19sChIJ__8_dZyaajkRrkrtFj5Ph6w?authuser=0&hl=en&rclk=1,"27.170484799999997,73.6478262"
Sufiya Masjid,Mosque,"5MF4+FV7 Sufiya Masjid, Basni, Rajasthan 341021",,5MF4+FV7,Basni,341021,Rajasthan,IN,https://www.google.com/maps/place/Sufiya+Masjid/data=!4m7!3m6!1s0x396a90770f99c339:0x44994c832aa3cade!8m2!3d27.1736597!4d73.657169!16s%2Fg%2F11f55p6y8k!19sChIJOcOZD3eQajkR3sqjKoNMmUQ?authuser=0&hl=en&rclk=1,"27.173659699999998,73.657169"
Raza Masjid Road,Mosque,"5JCR+27G Raza Masjid Road, Basni, Rajasthan 341021",,5JCR+27G,Basni,341021,Rajasthan,IN,https://www.google.com/maps/place/Raza+Masjid+Road/data=!4m7!3m6!1s0x396a9b8a218ed4c7:0x3c3c4aa5cb5c5b2b!8m2!3d27.1700688!4d73.6406918!16s%2Fg%2F11ss6j2qc7!19sChIJx9SOIYqbajkRK1tcy6VKPDw?authuser=0&hl=en&rclk=1,"27.1700688,73.6406918"
