name,main_category,address,address_ward,address_street,address_city,address_postal_code,address_state,address_country_code,link,coordinates
Jama Masjid Kahkashan jm` msjd,Mosque,"Jama Masjid Kahkashan jm` msjd, Block D, Shop No. E-1, Okhla Vihar Main Rd, Jamia Nagar, Okhla, New Delhi, Delhi 110025","Okhla Vihar, Okhla Vihar, Block D, Jamia Nagar, Okhla","Block D, Shop No. E-1, Okhla Vihar Main Rd",New Delhi,110025,Delhi,IN,https://www.google.com/maps/place/Jama+Masjid+Kahkashan+%D8%AC%D8%A7%D9%85%D8%B9+%D9%85%D8%B3%D8%AC%D8%AF%E2%80%AD/data=!4m7!3m6!1s0x390ce40964ba23d5:0x1bbbdd0080b3ca03!8m2!3d28.5551863!4d77.2898845!16s%2Fg%2F1pp2tynbb!19sChIJ1SO6ZAnkDDkRA8qzgADduxs?authuser=0&hl=en&rclk=1,"28.5551863,77.2898845"
"Jama Masjid, Khadda Colony jm` msjd",Mosque,"Jama Masjid, Khadda Colony jm` msjd, D-202, near by Jama Masjid Gali, Jaitpur Extension Part II, Khadda Colony, Badarpur, New Delhi, Delhi 110044","Jaitpur Extension Part II, Khadda Colony, Badarpur","D-202, near by Jama Masjid Gali",New Delhi,110044,Delhi,IN,"https://www.google.com/maps/place/Jama+Masjid,+Khadda+Colony+%D8%AC%D8%A7%D9%85%D8%B9+%D9%85%D8%B3%D8%AC%D8%AF%E2%80%AD/data=!4m7!3m6!1s0x390ce65a1cc2d345:0x508d72d241ba7c2f!8m2!3d28.5094725!4d77.3384064!16s%2Fg%2F11b_23cdbd!19sChIJRdPCHFrmDDkRL3y6QdJyjVA?authuser=0&hl=en&rclk=1","28.509472499999998,77.3384064"
Jama Masjid,Mosque,"659V+4R9 Jama Masjid, Manappuram, Kamptee, Maharashtra 441001",Manappuram,659V+4R9,Kamptee,441001,Maharashtra,IN,https://www.google.com/maps/place/Jama+Masjid/data=!4m7!3m6!1s0x3bd4c6014bf740b3:0xae412836bb4e347e!8m2!3d21.2177846!4d79.1946113!16s%2Fg%2F1tgdgfvx!19sChIJs0D3SwHG1DsRfjROuzYoQa4?authuser=0&hl=en&rclk=1,"21.217784599999998,79.19461129999999"
Masjid Umar ibn Khattab Ahle Hadees,Mosque,"G8X3+2R4 Masjid Umar ibn Khattab Ahle Hadees, Kalindi Kunj Rd, Shaheen Bagh, Jamia Nagar, Okhla, New Delhi, Delhi 110025","Shaheen Bagh, Jamia Nagar, Okhla","G8X3+2R4, Kalindi Kunj Rd",New Delhi,110025,Delhi,IN,https://www.google.com/maps/place/Masjid+Umar+ibn+Khattab+Ahle+Hadees/data=!4m7!3m6!1s0x390ce4196e33e035:0x7187e898e383e521!8m2!3d28.5475049!4d77.3045864!16s%2Fg%2F11ddwvd6j7!19sChIJNeAzbhnkDDkRIeWD45joh3E?authuser=0&hl=en&rclk=1,"28.5475049,77.30458639999999"
Badi Masjid,Mosque,"659V+WR7 Badi Masjid, Manappuram, Kamptee, Maharashtra 441001",Manappuram,659V+WR7,Kamptee,441001,Maharashtra,IN,https://www.google.com/maps/place/Badi+Masjid/data=!4m7!3m6!1s0x3bd4c600d4f583bf:0xfec70c0f22843565!8m2!3d21.219791!4d79.1945386!16s%2Fg%2F1vqmgt_b!19sChIJv4P11ADG1DsRZTWEIg8Mx_4?authuser=0&hl=en&rclk=1,"21.219791,79.1945386"
Rahmania Masjid,Mosque,"Rahmania Masjid, Block k1- 110080, 18, Sangam Vihar Road, New Delhi, Delhi","Block I 1, Sangam Vihar","Block k1- 110080, 18, Sangam Vihar Road",New Delhi,,Delhi,IN,https://www.google.com/maps/place/Rahmania+Masjid/data=!4m7!3m6!1s0x390ce10f5faec92b:0x2b16865962054a1!8m2!3d28.4973244!4d77.2517175!16s%2Fg%2F11cjqb9s92!19sChIJK8muXw_hDDkRoVQglmVosQI?authuser=0&hl=en&rclk=1,"28.4973244,77.2517175"
Gausia Masjid (Ishtiyak),Mosque,"Gausia Masjid (Ishtiyak), gali no.24 L block 110080, Sangam Vihar, New Delhi, Delhi 110080","Block L 2, Devli, Sangam Vihar",gali no.24 L block 110080,New Delhi,110080,Delhi,IN,https://www.google.com/maps/place/Gausia+Masjid+%28Ishtiyak%29/data=!4m7!3m6!1s0x390ce1af8789b4d3:0x9a3ff5f69c351894!8m2!3d28.4984758!4d77.2312984!16s%2Fg%2F11g9djgs2m!19sChIJ07SJh6_hDDkRlBg1nPb1P5o?authuser=0&hl=en&rclk=1,"28.498475799999998,77.2312984"
Masjid Umar Farooq,Mosque,"Masjid Umar Farooq, 47, Kalamna Rd, B.B colony, New Colony, Yerkheda, Kalamna Rd, B.B colony, New Colony, Yerkheda, Maharashtra 441001","B.B colony, New Colony","47, Kalamna Rd, B.B colony, New Colony, Yerkheda, Kalamna Rd",Yerkheda,441001,Maharashtra,IN,https://www.google.com/maps/place/Masjid+Umar+Farooq/data=!4m7!3m6!1s0x3bd4c611aef08d2d:0xdcde2612322f043!8m2!3d21.2077364!4d79.185411!16s%2Fg%2F11d_bf3h_l!19sChIJLY3wrhHG1DsRQ_AiI2HizQ0?authuser=0&hl=en&rclk=1,"21.207736399999998,79.185411"
Makka Jama Masjid,Mosque,"Makka Jama Masjid, Nai Basti Rd, near Habib Nagar Teka, Teka, Teka Naka, Nagpur, Maharashtra 440017","Teka, Teka Naka","Nai Basti Rd, near Habib Nagar Teka",Nagpur,440017,Maharashtra,IN,https://www.google.com/maps/place/Makka+Jama+Masjid/data=!4m7!3m6!1s0x3bd4c6d4ed2945cf:0xa5de690d5ae5e6da!8m2!3d21.1744773!4d79.1116499!16s%2Fg%2F1q6jyvfv_!19sChIJz0Up7dTG1DsR2ublWg1p3qU?authuser=0&hl=en&rclk=1,"21.1744773,79.1116499"
Madina Masjid,Mosque,"54F6+M6Q Madina Masjid, Teka Habib Nagar Rd Nai Basti, Near Teka Naka, Madina Masjid, Azaad Nagar, Nagpur, Maharashtra 440017","Azaad Nagar, Teka Naka","54F6+M6Q, Teka Habib Nagar Rd Nai Basti, Near Teka Naka, Madina Masjid",Nagpur,440017,Maharashtra,IN,https://www.google.com/maps/place/Madina+Masjid/data=!4m7!3m6!1s0x3bd4c6d4daa560ff:0x9e15efabf2b31d2c!8m2!3d21.1742119!4d79.1105962!16s%2Fg%2F1q6kk7rdm!19sChIJ_2Cl2tTG1DsRLB2z8qvvFZ4?authuser=0&hl=en&rclk=1,"21.1742119,79.1105962"
Kolsa Taal Masjid Kamptee,Mosque,"65CX+64F Kolsa Taal Masjid Kamptee, masjid kolsatal, Shiv Panchayat Nagar, Kamptee, Maharashtra 441002",Shiv Panchayat Nagar,"65CX+64F, masjid kolsatal",Kamptee,441002,Maharashtra,IN,https://www.google.com/maps/place/Kolsa+Taal+Masjid+Kamptee/data=!4m7!3m6!1s0x3bd4c6005a7ee529:0x75adb8f81d9ef095!8m2!3d21.2205711!4d79.1977898!16s%2Fg%2F11cn3t7rn3!19sChIJKeV-WgDG1DsRlfCeHfi4rXU?authuser=0&hl=en&rclk=1,"21.2205711,79.1977898"
Mohammadi Masjid,Mosque,"54G7+95Q Mohammadi Masjid, Farooque Nagar, Teka Naka, Nagpur, Maharashtra 440002","Farooque Nagar, Teka Naka",54G7+95Q,Nagpur,440002,Maharashtra,IN,https://www.google.com/maps/place/Mohammadi+Masjid/data=!4m7!3m6!1s0x3bd4c6d4791c6c33:0xc3bcc62a8962a77!8m2!3d21.1759709!4d79.1129967!16s%2Fg%2F1q5btp2r8!19sChIJM2wcedTG1DsRdyqWqGLMOww?authuser=0&hl=en&rclk=1,"21.1759709,79.1129967"
Masjid Amaanullah Seth - msjd mnwllh sytth,Mosque,"535W+4WH Masjid Amaanullah Seth - msjd mnwllh sytth, Kabaristan Rd, Bakramandi, Mominpura, Nagpur, Maharashtra 440002","Bakramandi, Mominpura","535W+4WH, Kabaristan Rd",Nagpur,440002,Maharashtra,IN,https://www.google.com/maps/place/Masjid+Amaanullah+Seth+-+%D9%85%D8%B3%D8%AC%D8%AF+%D8%A7%D9%85%D8%A7%D9%86%D9%88%D9%84%D9%84%DB%81+%D8%B3%DB%8C%D9%B9%DA%BE%E2%80%AD/data=!4m7!3m6!1s0x3bd4c0dab1524ea7:0xb2d0da5259679f95!8m2!3d21.1578033!4d79.0973521!16s%2Fg%2F1q65d2zm0!19sChIJp05SsdrA1DsRlZ9nWVLa0LI?authuser=0&hl=en&rclk=1,"21.157803299999998,79.0973521"
Dr. Sheikh Bunker Colony Masjid,Mosque,"Dr. Sheikh Bunker Colony Masjid, 1, Dr Sheikh Bunker Colony, Shufi Nagar, Kamptee, Maharashtra 441001",Shufi Nagar,"1, Dr Sheikh Bunker Colony",Kamptee,441001,Maharashtra,IN,https://www.google.com/maps/place/Dr.+Sheikh+Bunker+Colony+Masjid/data=!4m7!3m6!1s0x3bd4c744bd6f074d:0xb310fd248a8e8669!8m2!3d21.214436!4d79.1893447!16s%2Fg%2F1w0j2nkf!19sChIJTQdvvUTH1DsRaYaOiiT9ELM?authuser=0&hl=en&rclk=1,"21.214436,79.18934469999999"
Sufi Nagar Masjid,Mosque,"Sufi Nagar Masjid, 1, Old Kamptee Rd, Shufi Nagar, Kamptee, Maharashtra 441001",Shufi Nagar,"1, Old Kamptee Rd",Kamptee,441001,Maharashtra,IN,https://www.google.com/maps/place/Sufi+Nagar+Masjid/data=!4m7!3m6!1s0x3bd4c605b18a2827:0xa9111d0eddfb5cc1!8m2!3d21.2143689!4d79.191164!16s%2Fg%2F11yvn49m7!19sChIJJyiKsQXG1DsRwVz73Q4dEak?authuser=0&hl=en&rclk=1,"21.2143689,79.191164"
Masjid Sayeed Nagar,Mosque,"652G+RR2 Masjid Sayeed Nagar, Kalamna Rd, Sayeed Nagar, Kamptee, Ranala, Maharashtra 441002",Sayeed Nagar,"652G+RR2, Kalamna Rd","Kamptee, Ranala",441002,Maharashtra,IN,https://www.google.com/maps/place/Masjid+Sayeed+Nagar/data=!4m7!3m6!1s0x3bd4c66b36910c87:0x356986c3410f0a5d!8m2!3d21.2020198!4d79.1770141!16s%2Fg%2F11c4bp04y4!19sChIJhwyRNmvG1DsRXQoPQcOGaTU?authuser=0&hl=en&rclk=1,"21.2020198,79.1770141"
Masjid H.Bilal,Mosque,"Masjid H.Bilal, 47, Kalamna Rd, B.B colony, New Colony, Maharashtra 441002","B.B colony, New Colony","47, Kalamna Rd",,441002,Maharashtra,IN,https://www.google.com/maps/place/Masjid+H.Bilal/data=!4m7!3m6!1s0x3bd4c6106d2308b1:0xee61efdbdb0f45eb!8m2!3d21.2087687!4d79.1878643!16s%2Fg%2F11c57mlfbz!19sChIJsQgjbRDG1DsR60UP29vvYe4?authuser=0&hl=en&rclk=1,"21.2087687,79.1878643"
Mustafa Raza Masjid,Mosque,"55P4+PH9 Mustafa Raza Masjid, Bhilgaon, Nagpur, Maharashtra 441001",Bhilgaon,55P4+PH9,Nagpur,441001,Maharashtra,IN,https://www.google.com/maps/place/Mustafa+Raza+Masjid/data=!4m7!3m6!1s0x3bd4c65843064ed7:0x906295321b91895c!8m2!3d21.1867936!4d79.1564777!16s%2Fg%2F11f04k1bs2!19sChIJ104GQ1jG1DsRXImRGzKVYpA?authuser=0&hl=en&rclk=1,"21.186793599999998,79.1564777"
Jama Masjid Qazi Wali,Mosque,"Jama Masjid Qazi Wali, 1116, Main Bazar Rd, Ratan Lal Market, Kaseru Walan, Paharganj, New Delhi, Delhi 110055","Ratan Lal Market, Kaseru Walan, Paharganj","1116, Main Bazar Rd",New Delhi,110055,Delhi,IN,https://www.google.com/maps/place/Jama+Masjid+Qazi+Wali/data=!4m7!3m6!1s0x390cfd4126b39e0d:0x81053f8c811d6429!8m2!3d28.641262!4d77.21435!16s%2Fg%2F11cn0q9crp!19sChIJDZ6zJkH9DDkRKWQdgYw_BYE?authuser=0&hl=en&rclk=1,"28.641261999999998,77.21435"
Masjid Wazir Sahab (aadi masjid),Mosque,"65CV+HW8 Masjid Wazir Sahab (aadi masjid), naya bazar, Kamptee, Maharashtra 441002",naya bazar,65CV+HW8,Kamptee,441002,Maharashtra,IN,https://www.google.com/maps/place/Masjid+Wazir+Sahab+%28aadi+masjid%29/data=!4m7!3m6!1s0x3bd4c600b6af259b:0x8e847a4defecee68!8m2!3d21.2214187!4d79.1948149!16s%2Fg%2F11g9l91zng!19sChIJmyWvtgDG1DsRaO7s7016hI4?authuser=0&hl=en&rclk=1,"21.221418699999997,79.1948149"
Masjid Badi msjd,Mosque,"Masjid Badi msjd, 893,, Chittli Qabar Bazar Rd, Jama Masjid, Chandni Chowk, New Delhi, Delhi 110006","Bazar Chitli Qabar, Kucha Chelan, Jama Masjid, Chandni Chowk","893,, Chittli Qabar Bazar Rd","New Delhi, Delhi",110006,Delhi,IN,https://www.google.com/maps/place/Masjid+Badi+%D9%85%D8%B3%D8%AC%D8%AF%E2%80%AD/data=!4m7!3m6!1s0x390cfd219cfec1f3:0x93ccacb281d71709!8m2!3d28.645321!4d77.2357133!16s%2Fg%2F12m98gjn5!19sChIJ88H-nCH9DDkRCRfXgbKszJM?authuser=0&hl=en&rclk=1,"28.645321,77.2357133"
Phool Oli Masjid,Mosque,"659W+HJG Phool Oli Masjid, Phool Oli Rd, Shiv Panchayat Nagar, Kamptee, Maharashtra 441002",Shiv Panchayat Nagar,"659W+HJG, Phool Oli Rd",Kamptee,441002,Maharashtra,IN,https://www.google.com/maps/place/Phool+Oli+Masjid/data=!4m7!3m6!1s0x3bd4c6010f8f2233:0xb2bebaa69efbb732!8m2!3d21.218942!4d79.1965918!16s%2Fg%2F11cmyshlmp!19sChIJMyKPDwHG1DsRMrf7nqa6vrI?authuser=0&hl=en&rclk=1,"21.218942,79.1965918"
Umar farooq masjid,Mosque,"Umar farooq masjid, R-796, Saqlain Rd, Jogabai Extension, Joga Bai Extension, Okhla, New Delhi, Delhi 110025","Jogabai Extension, Joga Bai Extension, Okhla","R-796, Saqlain Rd",New Delhi,110025,Delhi,IN,https://www.google.com/maps/place/Umar+farooq+masjid/data=!4m7!3m6!1s0x390ce3e6c04e5bf3:0xc44f3ef2afb9d703!8m2!3d28.5725938!4d77.2846812!16s%2Fg%2F11j4890g67!19sChIJ81tOwObjDDkRA9e5r_I-T8Q?authuser=0&hl=en&rclk=1,"28.5725938,77.2846812"
Mosque,Mosque,"762F+2XG Mosque, Tekadi(CT), Maharashtra 441404",,762F+2XG,Tekadi(CT),441404,Maharashtra,IN,https://www.google.com/maps/place/Mosque/data=!4m7!3m6!1s0x3bd4cff553d9b9c7:0xd268d67c3856dd7d!8m2!3d21.2500715!4d79.2249669!16s%2Fg%2F11fhkswf0t!19sChIJx7nZU_XP1DsRfd1WOHzWaNI?authuser=0&hl=en&rclk=1,"21.2500715,79.2249669"
Darbar Hazrat BaBa Gul Ali shah,Mosque,"65QG+9G8 Darbar Hazrat BaBa Gul Ali shah, Road, near GRC KAMPTEE CANTEEN, Kamptee, Maharashtra 441001",,"65QG+9G8, Road, near GRC KAMPTEE CANTEEN",Kamptee,441001,Maharashtra,IN,https://www.google.com/maps/place/Darbar+Hazrat+BaBa+Gul+Ali+shah/data=!4m7!3m6!1s0x3bd4c5fc82d41f59:0x94778a712279f529!8m2!3d21.2384149!4d79.1763251!16s%2Fg%2F11g_qpvyc1!19sChIJWR_UgvzF1DsRKfV5InGKd5Q?authuser=0&hl=en&rclk=1,"21.2384149,79.1763251"
Madrasa wa Masjid Ibrahim,Mosque,"654P+C4W Madrasa wa Masjid Ibrahim, New Colony, Kamptee, Maharashtra 441002",New Colony,654P+C4W,Kamptee,441002,Maharashtra,IN,https://www.google.com/maps/place/Madrasa+wa+Masjid+Ibrahim/data=!4m7!3m6!1s0x3bd4c6111987663b:0xa66ab85aced5b4d7!8m2!3d21.206106!4d79.185333!16s%2Fg%2F11fxc7t2c_!19sChIJO2aHGRHG1DsR17TVzlq4aqY?authuser=0&hl=en&rclk=1,"21.206106,79.185333"
Masjid Nale Par,Mosque,"65CW+V29 Masjid Nale Par, Kamptee, Maharashtra 441001",,65CW+V29,Kamptee,441001,Maharashtra,IN,https://www.google.com/maps/place/Masjid+Nale+Par/data=!4m7!3m6!1s0x3bd4c600a5fb436d:0x8a9291ddedfaa2e3!8m2!3d21.2221575!4d79.1950982!16s%2Fg%2F11g9k2glcv!19sChIJbUP7pQDG1DsR46L67d2Rkoo?authuser=0&hl=en&rclk=1,"21.222157499999998,79.19509819999999"
Masjid E Bilal,Mosque,"Masjid E Bilal, House No. 418, 419, Yashodhara Nagar Chowk, Kamptee Rd, Uppalwadi, Nagpur, Maharashtra 440026","Uppalwadi, Sidharth Nagar","House No. 418, 419, Yashodhara Nagar Chowk, Kamptee Rd",Nagpur,440026,Maharashtra,IN,https://www.google.com/maps/place/Masjid+E+Bilal/data=!4m7!3m6!1s0x3bd4c6dcec7b87b5:0x1fc984959c655bb7!8m2!3d21.181033!4d79.1282109!16s%2Fg%2F11g9vp2ymq!19sChIJtYd77NzG1DsRt1tlnJWEyR8?authuser=0&hl=en&rclk=1,"21.181033,79.1282109"
JAMA MASJID UMAR BIN KHATTAB,Mosque,"G8W3+XWV JAMA MASJID UMAR BIN KHATTAB, Kalindi Kunj Rd, Block H, Jamia Nagar, Okhla, New Delhi, Delhi 110025","Block H, Jamia Nagar, Okhla","G8W3+XWV, Kalindi Kunj Rd",New Delhi,110025,Delhi,IN,https://www.google.com/maps/place/JAMA+MASJID+UMAR+BIN+KHATTAB/data=!4m7!3m6!1s0x390ce51eb7ea0bfd:0xe968824c610cc265!8m2!3d28.5474867!4d77.3047909!16s%2Fg%2F11h7p6jtqd!19sChIJ_Qvqtx7lDDkRZcIMYUyCaOk?authuser=0&hl=en&rclk=1,"28.5474867,77.3047909"
Madina Masjid,Mosque,"Madina Masjid, Bhaji Mandi, Shiv Panchayat Nagar, Kamptee, Maharashtra 441001",Shiv Panchayat Nagar,Bhaji Mandi,Kamptee,441001,Maharashtra,IN,https://www.google.com/maps/place/Madina+Masjid/data=!4m7!3m6!1s0x3bd4c601c4c56997:0xd8477c187e14b104!8m2!3d21.2187049!4d79.1992392!16s%2Fg%2F11cn3ppl4m!19sChIJl2nFxAHG1DsRBLEUfhh8R9g?authuser=0&hl=en&rclk=1,"21.2187049,79.1992392"
Masjid Sabir msjd,Mosque,"54QV+3JH Masjid Sabir msjd, Bhilgaon, Nagpur, Maharashtra 441001",Bhilgaon,54QV+3JH,Nagpur,441001,Maharashtra,IN,https://www.google.com/maps/place/Masjid+Sabir+%D9%85%D8%B3%D8%AC%D8%AF%E2%80%AD/data=!4m7!3m6!1s0x3bd4c6f1da88a20f:0xc2016991c82134c9!8m2!3d21.1876923!4d79.1441029!16s%2Fg%2F11cp5vjdbp!19sChIJD6KI2vHG1DsRyTQhyJFpAcI?authuser=0&hl=en&rclk=1,"21.1876923,79.1441029"
masjid abu bakr siddeeq r.a,Mosque,"6635+GQF masjid abu bakr siddeeq r.a, Kumbhare Colony, Gautam Nagar, Kamptee, Maharashtra 441001","Kumbhare Colony, Gautam Nagar",6635+GQF,Kamptee,441001,Maharashtra,IN,https://www.google.com/maps/place/masjid+abu+bakr+siddeeq+r.a/data=!4m7!3m6!1s0x3bd4c8a31119223d:0x1fb37ab91c9587f!8m2!3d21.2038247!4d79.2094135!16s%2Fg%2F11bx2kdsq9!19sChIJPSIZEaPI1DsRf1jJkas3-wE?authuser=0&hl=en&rclk=1,"21.2038247,79.2094135"
Masjid Raza-e-tajul Auliya,Mosque,"652G+6HX Masjid Raza-e-tajul Auliya, NEW COLONY ,Chishtiya chowk, SAYEED NAGAR ,Kalamna Rd, Ranala, Kamptee, Maharashtra 441002",Sayeed Nagar,"652G+6HX, NEW COLONY ,Chishtiya chowk, SAYEED NAGAR ,Kalamna Rd, Ranala","Kamptee, Ranala",441002,Maharashtra,IN,https://www.google.com/maps/place/Masjid+Raza-e-tajul+Auliya/data=!4m7!3m6!1s0x3bd4c66ad8e43413:0xcf74fe7597267b76!8m2!3d21.200607!4d79.1764833!16s%2Fg%2F11css_yfc4!19sChIJEzTk2GrG1DsRdnsml3X-dM8?authuser=0&hl=en&rclk=1,"21.200606999999998,79.1764833"
Masjid Nagin A Noori - msjdi ngn y nwry,Mosque,"54M8+QX8 Masjid Nagin A Noori - msjdi ngn y nwry, Kamptee Road Sharda Chowk, opp. Maruti Showroom, Teka Naka, Nagpur, Maharashtra 440026",Teka Naka,"54M8+QX8, Kamptee Road Sharda Chowk, opp. Maruti Showroom",Nagpur,440026,Maharashtra,IN,https://www.google.com/maps/place/Masjid+Nagin+A+Noori+-+%D9%85%D8%B3%D8%AC%D8%AF%D9%90+%D9%86%D8%A7%DA%AF%D9%86+%D8%A7%DB%92+%D9%86%D9%88%D8%B1%DB%8C%E2%80%AD/data=!4m7!3m6!1s0x3bd4c6ce523fd485:0x479dae87de862248!8m2!3d21.1844155!4d79.1174622!16s%2Fg%2F1q64tjb5w!19sChIJhdQ_Us7G1DsRSCKG3oeunUc?authuser=0&hl=en&rclk=1,"21.1844155,79.11746219999999"
Abubakar Masjid,Mosque,"65CX+JJF Abubakar Masjid, Kolsataal Rd, Shiv Panchayat Nagar, Kamptee, Maharashtra 441001",Shiv Panchayat Nagar,"65CX+JJF, Kolsataal Rd",Kamptee,441001,Maharashtra,IN,https://www.google.com/maps/place/Abubakar+Masjid/data=!4m7!3m6!1s0x3bd4c70d9b301a45:0x4f2cf818d5a6e388!8m2!3d21.2215612!4d79.1990521!16s%2Fg%2F11hdvgd5lp!19sChIJRRowmw3H1DsRiOOm1Rj4LE8?authuser=0&hl=en&rclk=1,"21.2215612,79.1990521"
Madrasa Noor-e-Muhammadi,Mosque,"654P+37X Madrasa Noor-e-Muhammadi, New Colony, Kamptee, Maharashtra 441002",New Colony,654P+37X,Kamptee,441002,Maharashtra,IN,https://www.google.com/maps/place/Madrasa+Noor-e-Muhammadi/data=!4m7!3m6!1s0x3bd4c61127a729a3:0x935ba83311ae8a45!8m2!3d21.2052298!4d79.1857379!16s%2Fg%2F11bvvzrg8d!19sChIJoymnJxHG1DsRRYquETOoW5M?authuser=0&hl=en&rclk=1,"21.205229799999998,79.18573789999999"
Masjid,Mosque,"H77Q+868 Masjid, Okhla Village, Okhla, New Delhi, Delhi 110025","Okhla Village, Okhla",H77Q+868,New Delhi,110025,Delhi,IN,https://www.google.com/maps/place/Masjid/data=!4m7!3m6!1s0x390ce47512f7aa2b:0x544337a9b9e5d7a2!8m2!3d28.5632814!4d77.2880932!16s%2Fg%2F11gbtpj5td!19sChIJK6r3EnXkDDkRotfluak3Q1Q?authuser=0&hl=en&rclk=1,"28.563281399999997,77.28809319999999"
Masid Ibrahim Square,Mosque,"Masid Ibrahim Square, 441002, Kamptee Rd, Civil Lines, Maharashtra",Civil Lines,"441002, Kamptee Rd",,,Maharashtra,IN,https://www.google.com/maps/place/Masid+Ibrahim+Square/data=!4m7!3m6!1s0x3bd4c6110bab6c89:0xecf6b6e559ba66c!8m2!3d21.2070117!4d79.1846551!16s%2Fg%2F11fxc2r76_!19sChIJiWyrCxHG1DsRbKabVW5rzw4?authuser=0&hl=en&rclk=1,"21.2070117,79.1846551"
DADIMA MASJID,Mosque,"DADIMA MASJID, Memon Colony, Old Kamptee Rd, opposite daadima masjid, SH260, Kalmana, Nagpur, Maharashtra 440026","SH260, Kalmana","Memon Colony, Old Kamptee Rd, opposite daadima masjid",Nagpur,440026,Maharashtra,IN,https://www.google.com/maps/place/DADIMA+MASJID/data=!4m7!3m6!1s0x3bd4c79a8d18b643:0x67a268fa6852b0c3!8m2!3d21.1745556!4d79.1430299!16s%2Fg%2F11l2lkp3m1!19sChIJQ7YYjZrH1DsRw7BSaPpoomc?authuser=0&hl=en&rclk=1,"21.174555599999998,79.1430299"
Masjid Kasab Pura,Mosque,"6692+G64 Masjid Kasab Pura, Quraishi Nagar,, Kamptee, Maharashtra 441002",Sanjay Nagar Bengali Colony,"6692+G64, Quraishi Nagar,",Kamptee,441002,Maharashtra,IN,https://www.google.com/maps/place/Masjid+Kasab+Pura/data=!4m7!3m6!1s0x3bd4c8aa724744fb:0x738f77dac082f8ee!8m2!3d21.218764!4d79.2005863!16s%2Fg%2F11cn3qkpbb!19sChIJ-0RHcqrI1DsR7viCwNp3j3M?authuser=0&hl=en&rclk=1,"21.218764,79.2005863"
Kadar jhanda choti Masjid,Mosque,"6683+XW6 Kadar jhanda choti Masjid, Sanjay Nagar Bengali Colony, Kamptee, Maharashtra 441002",Sanjay Nagar Bengali Colony,6683+XW6,Kamptee,441002,Maharashtra,IN,https://www.google.com/maps/place/Kadar+jhanda+choti+Masjid/data=!4m7!3m6!1s0x3bd4c964e8d6a55f:0xa231ed6184400489!8m2!3d21.2174031!4d79.2047699!16s%2Fg%2F11kmc9s4qj!19sChIJX6XW6GTJ1DsRiQRAhGHtMaI?authuser=0&hl=en&rclk=1,"21.2174031,79.2047699"
MASJID,Mosque,"655J+97V MASJID, Dattaraya Nagar, Kamptee, Maharashtra 441002",Dattaraya Nagar,655J+97V,Kamptee,441002,Maharashtra,IN,https://www.google.com/maps/place/MASJID/data=!4m7!3m6!1s0x3bd4c74ea65aeab5:0xc19b1b727f415edc!8m2!3d21.2084992!4d79.1806628!16s%2Fg%2F11nfqb8mlw!19sChIJtepapk7H1DsR3F5Bf3Ibm8E?authuser=0&hl=en&rclk=1,"21.2084992,79.1806628"
Chodhary Masjid Quraish Nagar Kamptee Nagpur Maharashtra,Place of worship,"6692+G6C Chodhary Masjid Quraish Nagar Kamptee Nagpur Maharashtra, Sanjay Nagar Bengali Colony, Kamptee, Maharashtra 441002",Sanjay Nagar Bengali Colony,6692+G6C,Kamptee,441002,Maharashtra,IN,https://www.google.com/maps/place/Chodhary+Masjid+Quraish+Nagar+Kamptee+Nagpur+Maharashtra/data=!4m7!3m6!1s0x3bd4c8aa73d23d8b:0xf2eece641ab11e7!8m2!3d21.218814!4d79.2005055!16s%2Fg%2F11cm_j0pqs!19sChIJiz3Sc6rI1DsR5xGrQebsLg8?authuser=0&hl=en&rclk=1,"21.218814,79.20050549999999"
Masjid Tajulbarkaat,Mosque,"548J+PMC Masjid Tajulbarkaat, Ramsumer Baba Nagar, Shantinagar Colony, Nagpur, Maharashtra 440002","Ramsumer Baba Nagar, Shantinagar Colony",548J+PMC,Nagpur,440002,Maharashtra,IN,https://www.google.com/maps/place/Masjid+Tajulbarkaat/data=!4m7!3m6!1s0x3bd4c70abc163473:0xe37f46cbbbc5d6ee!8m2!3d21.1668049!4d79.1316394!16s%2Fg%2F11j0_18lnw!19sChIJczQWvArH1DsR7tbFu8tGf-M?authuser=0&hl=en&rclk=1,"21.1668049,79.1316394"
MADRASA DARUL HUDA,Mosque,"659V+C22 MADRASA DARUL HUDA, Futana Ollie Rd, Manappuram, Kamptee, Maharashtra 441001",Manappuram,"659V+C22, Futana Ollie Rd",Kamptee,441001,Maharashtra,IN,https://www.google.com/maps/place/MADRASA+DARUL+HUDA/data=!4m7!3m6!1s0x3bd4c74f80563291:0xdb99a3cfd376d74c!8m2!3d21.2185092!4d79.1925172!16s%2Fg%2F11mwkfr5y3!19sChIJkTJWgE_H1DsRTNd208-jmds?authuser=0&hl=en&rclk=1,"21.2185092,79.1925172"
Madarasa Noor Al Islam,Mosque,"6673+5G7 Madarasa Noor Al Islam, Gautam Colony, Kamptee, Maharashtra 441002",Gautam Colony,6673+5G7,Kamptee,441002,Maharashtra,IN,https://www.google.com/maps/place/Madarasa+Noor+Al+Islam/data=!4m7!3m6!1s0x3bd4c9685957ba69:0xb35a68550af73c3c!8m2!3d21.2129086!4d79.2038039!16s%2Fg%2F11hzy8j8sn!19sChIJabpXWWjJ1DsRPDz3ClVoWrM?authuser=0&hl=en&rclk=1,"21.2129086,79.2038039"
Idara Darul Islam Masjid,Mosque,"Idara Darul Islam Masjid, aamna town, Kamptee Rd, Nagpur, Maharashtra 441001",,"aamna town, Kamptee Rd",Nagpur,,Maharashtra,IN,https://www.google.com/maps/place/Idara+Darul+Islam+Masjid/data=!4m7!3m6!1s0x3bd4c7d0ed6029f3:0x6866e236f10df09c!8m2!3d21.2023584!4d79.1380013!16s%2Fg%2F11j4dp8kgh!19sChIJ8ylg7dDH1DsRnPAN8TbiZmg?authuser=0&hl=en&rclk=1,"21.202358399999998,79.1380013"
Masjid Madarsa Mohammadiya Arabia,Mosque,"658R+73X Masjid Madarsa Mohammadiya Arabia, Shufi Nagar, Kamptee, Maharashtra 441002",Shufi Nagar,658R+73X,Kamptee,441002,Maharashtra,IN,https://www.google.com/maps/place/Masjid+Madarsa+Mohammadiya+Arabia/data=!4m7!3m6!1s0x3bd4c7efefb5c519:0xde5796899f40de23!8m2!3d21.2157282!4d79.1902263!16s%2Fg%2F11ft116dvc!19sChIJGcW17-_H1DsRI95An4mWV94?authuser=0&hl=en&rclk=1,"21.215728199999997,79.19022629999999"
Chowdhury masjid,Mosque,"Chowdhury masjid, 441002, Loiya Marg, Shiv Panchayat Nagar, Kamptee, Maharashtra 441002",Shiv Panchayat Nagar,"441002, Loiya Marg",Kamptee,441002,Maharashtra,IN,https://www.google.com/maps/place/Chowdhury+masjid/data=!4m7!3m6!1s0x3bd4c72c5c98748b:0x4aa1598d8eed052d!8m2!3d21.218385!4d79.1998046!16s%2Fg%2F11j20tfmzt!19sChIJi3SYXCzH1DsRLQXtjo1ZoUo?authuser=0&hl=en&rclk=1,"21.218384999999998,79.1998046"
Maszid,Mosque,"66HQ+V6W Maszid, Kanhan, Maharashtra 441401",,66HQ+V6W,Kanhan,441401,Maharashtra,IN,https://www.google.com/maps/place/Maszid/data=!4m7!3m6!1s0x3bd4cf2c6aaaaaab:0x2b24b4d5e4c27bc3!8m2!3d21.229727!4d79.2380664!16s%2Fg%2F11d_z4m9vb!19sChIJq6qqaizP1DsRw3vC5NW0JCs?authuser=0&hl=en&rclk=1,"21.229727,79.2380664"
Noushahi Taj Masjid,Mosque,"657C+4C8 Noushahi Taj Masjid, Bharat town, New Yerkheda, Kamptee, Maharashtra 441002",,"657C+4C8, Bharat town, New Yerkheda","Kamptee, Bharat Town",441002,Maharashtra,IN,https://www.google.com/maps/place/Noushahi+Taj+Masjid/data=!4m7!3m6!1s0x3bd4c79cb30bf195:0x37389dd6c1417803!8m2!3d21.2127905!4d79.171081!16s%2Fg%2F11fmf2m4n8!19sChIJlfELs5zH1DsRA3hBwdadODc?authuser=0&hl=en&rclk=1,"21.2127905,79.171081"
Noorani Masjid,Mosque,"656Q+3QH Noorani Masjid, Kamgar Nagar, Lakad Ganj, Kamptee, Maharashtra 441002","Kamgar Nagar, Lakad Ganj",656Q+3QH,Kamptee,,Maharashtra,IN,https://www.google.com/maps/place/Noorani+Masjid/data=!4m7!3m6!1s0x3bd4c79b93efdbcd:0xc0781d8a4a7afb58!8m2!3d21.2101815!4d79.1894699!16s%2Fg%2F11hz1q_rfj!19sChIJzdvvk5vH1DsRWPt6SoodeMA?authuser=0&hl=en&rclk=1,"21.210181499999997,79.18946989999999"
Masjid - msjd,Mosque,"54H5+9FW Masjid - msjd, Kamptee Rd, Near Kamptee Road, Old Teka Naka, Teka Naka, Nagpur, Maharashtra 440017","Near Kamptee Road, Old Teka Naka, Teka Naka","54H5+9FW, Kamptee Rd",Nagpur,440017,Maharashtra,IN,https://www.google.com/maps/place/Masjid+-+%D9%85%D8%B3%D8%AC%D8%AF%E2%80%AD/data=!4m7!3m6!1s0x3bd4c12cd93c108d:0xb0908a407fabc9bb!8m2!3d21.1784759!4d79.1087011!16s%2Fg%2F1q663hr53!19sChIJjRA82SzB1DsRu8mrf0CKkLA?authuser=0&hl=en&rclk=1,"21.1784759,79.10870109999999"
AMINA MASJID,Mosque,"656R+459 AMINA MASJID, Kamgar nager, Kamptee, Maharashtra 441002",Kamgar nager,656R+459,Kamptee,441002,Maharashtra,IN,https://www.google.com/maps/place/AMINA+MASJID/data=!4m7!3m6!1s0x3bd4c721ae3a77a7:0x35ec5bad3ac34688!8m2!3d21.2102831!4d79.1904814!16s%2Fg%2F11fm5cx1q5!19sChIJp3c6riHH1DsRiEbDOq1b7DU?authuser=0&hl=en&rclk=1,"21.210283099999998,79.1904814"
Hazrat Baba Farid Mosque,Mosque,"654Q+FRM Hazrat Baba Farid Mosque, Ghorpad Rd, Ravidas Nagar, Kamptee, Maharashtra 441002",Ravidas Nagar,"654Q+FRM, Ghorpad Rd",Kamptee,441002,Maharashtra,IN,https://www.google.com/maps/place/Hazrat+Baba+Farid+Mosque/data=!4m7!3m6!1s0x3bd4c72b3c446457:0xac97df04ed44d045!8m2!3d21.2062028!4d79.1895416!16s%2Fg%2F11nx2v1tjs!19sChIJV2REPCvH1DsRRdBE7QTfl6w?authuser=0&hl=en&rclk=1,"21.2062028,79.1895416"
Hazratt Masjid Abbubkr Siddiqe,Mosque,"65HR+228 Hazratt Masjid Abbubkr Siddiqe, Abbubakr colony, Kamptee, Maharashtra 441001",Abbubakr colony,65HR+228,Kamptee,,Maharashtra,IN,https://www.google.com/maps/place/Hazratt+Masjid+Abbubkr+Siddiqe/data=!4m7!3m6!1s0x3bd4c5153a760ba3:0x67329b8e39773387!8m2!3d21.2275311!4d79.1900833!16s%2Fg%2F11hy__rmrp!19sChIJowt2OhXF1DsRhzN3OY6bMmc?authuser=0&hl=en&rclk=1,"21.2275311,79.1900833"
Coopati,Mosque,"Coopati, friday market shop no.18, Manappuram, Kamptee, Maharashtra 441002",Manappuram,friday market shop no.18,Kamptee,441002,Maharashtra,IN,https://www.google.com/maps/place/Coopati/data=!4m7!3m6!1s0x3bd4c7c9b842c3e7:0x1150976ae42b2172!8m2!3d21.21641!4d79.193624!16s%2Fg%2F11t7ng_6tt!19sChIJ58NCuMnH1DsRciEr5GqXUBE?authuser=0&hl=en&rclk=1,"21.21641,79.193624"
Sunni Raza Masjid Mosque,Mosque,"66HJ+G35 Sunni Raza Masjid Mosque, Swami Vivekanand Nagar, Kanhan, Maharashtra 441404",Swami Vivekanand Nagar,66HJ+G35,Kanhan,441404,Maharashtra,IN,https://www.google.com/maps/place/Sunni+Raza+Masjid+Mosque/data=!4m7!3m6!1s0x3bd4cf64e71dc77b:0x335db179085449a3!8m2!3d21.2287511!4d79.2302219!16s%2Fg%2F11lrrc_t23!19sChIJe8cd52TP1DsRo0lUCHmxXTM?authuser=0&hl=en&rclk=1,"21.2287511,79.23022189999999"
Kamna Nagar Masjid,Mosque,"Kamna Nagar Masjid, 36, Kalmana, Nagpur, Maharashtra",Kalmana,36,Nagpur,,Maharashtra,IN,https://www.google.com/maps/place/Kamna+Nagar+Masjid/data=!4m7!3m6!1s0x3bd4c7874152a4bb:0x95bf58551030020b!8m2!3d21.171485!4d79.151433!16s%2Fg%2F11q3mvdx1k!19sChIJu6RSQYfH1DsRCwIwEFVYv5U?authuser=0&hl=en&rclk=1,"21.171485,79.151433"
Bhoi Line Sufi Nagar Masjid,Store,"Bhoi Line Sufi Nagar Masjid, Poline Line, behind Bhoi Line, Kamptee, Maharashtra 441001",,"Poline Line, behind Bhoi Line",Kamptee,441001,Maharashtra,IN,https://www.google.com/maps/place/Bhoi+Line+Sufi+Nagar+Masjid/data=!4m7!3m6!1s0x3bd4c5c670d0e457:0x237f50c1cd6cccd5!8m2!3d21.2242712!4d79.1893609!16s%2Fg%2F11thl4_4qv!19sChIJV-TQcMbF1DsR1cxszcFQfyM?authuser=0&hl=en&rclk=1,"21.2242712,79.1893609"
