name,main_category,address,address_ward,address_street,address_city,address_postal_code,address_state,address_country_code,link,coordinates
masjid of Ahle Hadees Thakurapur,Mosque,"3VMH+4WV masjid of Ahle Hadees Thakurapur, Road, Thakurapur, Uttar Pradesh 271125",,"3VMH+4WV, Road",Thakurapur,,Uttar Pradesh,IN,https://www.google.com/maps/place/masjid+of+Ahle+Hadees+Thakurapur/data=!4m7!3m6!1s0x3999f39938841177:0x8675527407183913!8m2!3d27.0828513!4d81.8797976!16s%2Fg%2F11f5tgxyh6!19sChIJdxGEOJnzmTkREzkYB3RSdYY?authuser=0&hl=en&rclk=1,"27.082851299999998,81.8797976"
Mittoopur Azamgarh,Bazar,"6PXC+XMG Mittoopur Azamgarh, Dattapur, Uttar Pradesh 276143",,6PXC+XMG,Dattapur,276143,Uttar Pradesh,IN,https://www.google.com/maps/place/Mittoopur+Azamgarh/data=!4m7!3m6!1s0x3990f7b5ab83afcb:0x7f2d195addbbd169!8m2!3d26.2499321!4d82.721693!16s%2Fg%2F11qsqfw4w_!19sChIJy6-Dq7X3kDkRadG73VoZLX8?authuser=0&hl=en&rclk=1,"26.2499321,82.721693"
JAMA MASJID TURSHAMPUR (JAMIA MOSQUE ),Mosque,"HP69+363 JAMA MASJID TURSHAMPUR (JAMIA MOSQUE ), Vill Turshampur,Po. Distt., Deogaon, Uttar Pradesh 224153",,"HP69+363, Vill Turshampur,Po. Distt.","Deogaon, Ranikpur",224153,Uttar Pradesh,IN,https://www.google.com/maps/place/JAMA+MASJID+TURSHAMPUR+%28JAMIA+MOSQUE+%29/data=!4m7!3m6!1s0x399a3874226798af:0xa12edcbb8d62028!8m2!3d26.5601284!4d81.7180457!16s%2Fg%2F11f0l3vt3_!19sChIJr5hnInQ4mjkRKCDWuMvtEgo?authuser=0&hl=en&rclk=1,"26.5601284,81.71804569999999"
Adampur Masjid,Mosque,"Adampur Masjid, Masjid, Adampur, Gangrouli, Uttar Pradesh 799285",,Masjid,"Adampur, Gangrouli",799285,Uttar Pradesh,IN,https://www.google.com/maps/place/Adampur+Masjid/data=!4m7!3m6!1s0x399a1fe58c879077:0xe4d6e40ae8cc1737!8m2!3d26.9284324!4d81.8809952!16s%2Fg%2F11dzt5r10n!19sChIJd5CHjOUfmjkRNxfM6Ark1uQ?authuser=0&hl=en&rclk=1,"26.9284324,81.8809952"
Raheemia Purani Masjid Turshampur,Mosque,"HP5C+75R Raheemia Purani Masjid Turshampur, Turshampur, Deogaon, Uttar Pradesh 224153",,"HP5C+75R, Turshampur","Deogaon, Ranikpur",224153,Uttar Pradesh,IN,https://www.google.com/maps/place/Raheemia+Purani+Masjid+Turshampur/data=!4m7!3m6!1s0x399a38765b20e47b:0x1ed312f727c740db!8m2!3d26.5582319!4d81.7203973!16s%2Fg%2F11gb3z4vxt!19sChIJe-QgW3Y4mjkR20DHJ_cS0x4?authuser=0&hl=en&rclk=1,"26.5582319,81.7203973"
Badi Masjid,Mosque,"2QMH+RM3 Badi Masjid, Paraspur, Uttar Pradesh 271504",,2QMH+RM3,Paraspur,271504,Uttar Pradesh,IN,https://www.google.com/maps/place/Badi+Masjid/data=!4m7!3m6!1s0x39998c020ce8b6a5:0x9a62d2ecc20d3f62!8m2!3d27.0345088!4d81.7791866!16s%2Fg%2F11c2jw76_x!19sChIJpbboDAKMmTkRYj8NwuzSYpo?authuser=0&hl=en&rclk=1,"27.034508799999998,81.7791866"
Masjid,Mosque,"FM7X+5HR Masjid, Daulatpur, Uttar Pradesh 227816",,FM7X+5HR,Daulatpur,227816,Uttar Pradesh,IN,https://www.google.com/maps/place/Masjid/data=!4m7!3m6!1s0x399a46070ee62603:0x76079b77ed7078e2!8m2!3d26.4629811!4d81.6989031!16s%2Fg%2F11bwywg5cz!19sChIJAybmDgdGmjkR4nhw7XebB3Y?authuser=0&hl=en&rclk=1,"26.4629811,81.6989031"
Jama Masjid Baddopur jaamaa msjid bddopuur,Mosque,"2JCV+4F3 Jama Masjid Baddopur jaamaa msjid bddopuur, Gorari Rd, Shahganj, Baddopur, Uttar Pradesh 222139",,"2JCV+4F3, Gorari Rd","Shahganj, Baddopur",222139,Uttar Pradesh,IN,https://www.google.com/maps/place/Jama+Masjid+Baddopur+%E0%A4%9C%E0%A4%BE%E0%A4%AE%E0%A4%BE+%E0%A4%AE%E0%A4%B8%E0%A4%9C%E0%A4%BF%E0%A4%A6+%E0%A4%AC%E0%A4%A6%E0%A4%A6%E0%A5%8B%E0%A4%AA%E0%A5%82%E0%A4%B0/data=!4m7!3m6!1s0x3990435e1ae428a7:0xa18e59b0e52fb1f!8m2!3d26.0202619!4d82.6436614!16s%2Fg%2F11hbsmsdz1!19sChIJpyjkGl5DkDkRH_tSDpvlGAo?authuser=0&hl=en&rclk=1,"26.020261899999998,82.6436614"
Madina Masjid,Mosque,"QW7X+RXX Madina Masjid, Akbalpore, Uttar Pradesh 276201",,QW7X+RXX,Akbalpore,276201,Uttar Pradesh,IN,https://www.google.com/maps/place/Madina+Masjid/data=!4m7!3m6!1s0x3991cc87fee20f0f:0x783809f48f32ce6e!8m2!3d25.7646005!4d82.9499859!16s%2Fg%2F11gcdqhtt1!19sChIJDw_i_ofMkTkRbs4yj_QJOHg?authuser=0&hl=en&rclk=1,"25.7646005,82.9499859"
Noori masjid Sarurpur,Mosque,"HVH6+53W Noori masjid Sarurpur, Saroorpur Kalan, Tendha, Uttar Pradesh",,"HVH6+53W, Saroorpur Kalan","Tendha, Bawan",,Uttar Pradesh,IN,https://www.google.com/maps/place/Noori+masjid+Sarurpur/data=!4m7!3m6!1s0x399a3fe49ac081b1:0x1a0fb61920e428cf!8m2!3d26.5779839!4d81.8601979!16s%2Fg%2F11f5d3nqqb!19sChIJsYHAmuQ_mjkRzyjkIBm2Dxo?authuser=0&hl=en&rclk=1,"26.5779839,81.8601979"
Madina Masjid Dhanapur,Mosque,"F83X+66F Madina Masjid Dhanapur, Dhanapur, Uttar Pradesh 232105",,F83X+66F,Dhanapur,232105,Uttar Pradesh,IN,https://www.google.com/maps/place/Madina+Masjid+Dhanapur/data=!4m7!3m6!1s0x398e1dfa7da2f381:0x51d7633c012dec35!8m2!3d25.4530749!4d83.3480604!16s%2Fg%2F11fhv3q2t_!19sChIJgfOiffodjjkRNewtATxj11E?authuser=0&hl=en&rclk=1,"25.453074899999997,83.3480604"
Damodarpur Masjid,Mosque,"F998+VF6 Damodarpur Masjid, Damodarpur,Rudaupur, Sugauti, Uttar Pradesh",,"F998+VF6, Damodarpur,Rudaupur","Sugauti, Gora",,Uttar Pradesh,IN,https://www.google.com/maps/place/Damodarpur+Masjid/data=!4m7!3m6!1s0x39909bc66f7b8ca3:0xe1820ccc25ab4aa3!8m2!3d26.4696618!4d82.3661495!16s%2Fg%2F11h3m9yxgh!19sChIJo4x7b8abkDkRo0qrJcwMguE?authuser=0&hl=en&rclk=1,"26.469661799999997,82.36614949999999"
Jama Masjid Khudadadpur jm` msjd,Mosque,"W86V+WM3 Jama Masjid Khudadadpur jm` msjd, Afajalpur, Uttar Pradesh 276402",,W86V+WM3,Afajalpur,276402,Uttar Pradesh,IN,https://www.google.com/maps/place/Jama+Masjid+Khudadadpur+%D8%AC%D8%A7%D9%85%D8%B9+%D9%85%D8%B3%D8%AC%D8%AF%E2%80%AD/data=!4m7!3m6!1s0x3991935d7f9ae073:0x3acd1bf8190d9a5f!8m2!3d25.912275!4d83.3441798!16s%2Fg%2F11g87440t9!19sChIJc-Caf12TkTkRX5oNGfgbzTo?authuser=0&hl=en&rclk=1,"25.912274999999998,83.34417979999999"
Madeena Masjid,Mosque,"2QJM+V65 Madeena Masjid, Paraspur, Uttar Pradesh 271504",,2QJM+V65,Paraspur,271504,Uttar Pradesh,IN,https://www.google.com/maps/place/Madeena+Masjid/data=!4m7!3m6!1s0x39998c0146cd99e5:0x4d2f73ad0cdaa145!8m2!3d27.0321422!4d81.7831089!16s%2Fg%2F11b_2phh5_!19sChIJ5ZnNRgGMmTkRRaHaDK1zL00?authuser=0&hl=en&rclk=1,"27.0321422,81.7831089"
Masjid-e-Aqsa Gangapur,Mosque,"Masjid-e-Aqsa Gangapur, Gangapur, Kunda - Pratapgarh Rd, Tajpur, Kunda, Uttar Pradesh 230204",Tajpur,"Gangapur, Kunda - Pratapgarh Rd",Kunda,230204,Uttar Pradesh,IN,https://www.google.com/maps/place/Masjid-e-Aqsa+Gangapur/data=!4m7!3m6!1s0x399adfd7abde8307:0xccf11e3e2623e3ee!8m2!3d25.7272123!4d81.5493019!16s%2Fg%2F11rn1ktmsv!19sChIJB4Peq9ffmjkR7uMjJj4e8cw?authuser=0&hl=en&rclk=1,"25.727212299999998,81.5493019"
Madina masjid maidipur,Mosque,"VJWP+C8G Madina masjid maidipur, Maidipur, Fattapur Kalan, Udaimau, Uttar Pradesh 225401",Maidipur,VJWP+C8G,"Fattapur Kalan, Udaimau",225401,Uttar Pradesh,IN,https://www.google.com/maps/place/Madina+masjid+maidipur/data=!4m7!3m6!1s0x399a297edd9876b3:0x18dd04eade333d4e!8m2!3d26.8960545!4d81.635825!16s%2Fg%2F11lsjn14gz!19sChIJs3aY3X4pmjkRTj0z3uoE3Rg?authuser=0&hl=en&rclk=1,"26.896054499999998,81.635825"
Rahmani Masjid Gaddopur,Mosque,"2RW4+3Q5 Rahmani Masjid Gaddopur, Gaddopur, Khadara, Uttar Pradesh 223222",,2RW4+3Q5,"Gaddopur, Khadara",223222,Uttar Pradesh,IN,https://www.google.com/maps/place/Rahmani+Masjid+Gaddopur/data=!4m7!3m6!1s0x39904e1b85d1057b:0x1d492636bb5e5b51!8m2!3d26.0451332!4d82.8069689!16s%2Fg%2F11gfd7h8xf!19sChIJewXRhRtOkDkRUVteuzYmSR0?authuser=0&hl=en&rclk=1,"26.0451332,82.8069689"
"Mosque, Mahajitpur",Mosque,"72C9+F2X Mosque, Mahajitpur, Sultanpur, Uttar Pradesh 227808",,72C9+F2X,Sultanpur,227808,Uttar Pradesh,IN,"https://www.google.com/maps/place/Mosque,+Mahajitpur/data=!4m7!3m6!1s0x399a639fe0239d7d:0x7751834cb2314a16!8m2!3d26.2712306!4d82.0176138!16s%2Fg%2F11ffmdr3qt!19sChIJfZ0j4J9jmjkRFkoxskyDUXc?authuser=0&hl=en&rclk=1","26.2712306,82.01761379999999"
Noorani masjid darjipura,Mosque,"W69F+C4W Noorani masjid darjipura, Unnamed Road, Madhwapur, Doulatpur, Uttar Pradesh 271319",,"W69F+C4W, Unnamed Road","Madhwapur, Doulatpur",271319,Uttar Pradesh,IN,https://www.google.com/maps/place/Noorani+masjid+darjipura/data=!4m7!3m6!1s0x3990ab323f0add61:0x83172d4702f3f3f6!8m2!3d26.9186212!4d82.2228281!16s%2Fg%2F11rs2nytv1!19sChIJYd0KPzKrkDkR9vPzAkctF4M?authuser=0&hl=en&rclk=1,"26.9186212,82.2228281"
Daulatpur IDGAH,Mosque,"FM7X+7H3 Daulatpur IDGAH, Daulatpur, Uttar Pradesh 227816",,FM7X+7H3,Daulatpur,227816,Uttar Pradesh,IN,https://www.google.com/maps/place/Daulatpur+IDGAH/data=!4m7!3m6!1s0x399a46070f594fbd:0x1e9e2ca194120e64!8m2!3d26.4631289!4d81.6989143!16s%2Fg%2F11hbgnkc98!19sChIJvU9ZDwdGmjkRZA4SlKEsnh4?authuser=0&hl=en&rclk=1,"26.463128899999997,81.6989143"
Masjide Umar Mohiddinpur,Mosque,"X2PJ+75X Masjide Umar Mohiddinpur, Uttar Pradesh 276205",,X2PJ+75X,,276205,Uttar Pradesh,IN,https://www.google.com/maps/place/Masjide+Umar+Mohiddinpur/data=!4m7!3m6!1s0x3991b12400d8bd89:0x5a806a182ba45bd0!8m2!3d25.9857424!4d83.0304891!16s%2Fg%2F11dylwxf5s!19sChIJib3YACSxkTkR0FukKxhqgFo?authuser=0&hl=en&rclk=1,"25.9857424,83.0304891"
MASJID,Mosque,"W86V+PRF MASJID, Afajalpur, Uttar Pradesh 276402",,W86V+PRF,Afajalpur,276402,Uttar Pradesh,IN,https://www.google.com/maps/place/MASJID/data=!4m7!3m6!1s0x3991935d9d39dc23:0x9786b3398f217374!8m2!3d25.9118032!4d83.3445522!16s%2Fg%2F11g9fmrgsf!19sChIJI9w5nV2TkTkRdHMhjzmzhpc?authuser=0&hl=en&rclk=1,"25.911803199999998,83.3445522"
Masjid,Mosque,"GFJR+2QQ Masjid, Barnapur, Tajawapur, Uttar Pradesh 271825",,GFJR+2QQ,"Barnapur, Tajawapur",271825,Uttar Pradesh,IN,https://www.google.com/maps/place/Masjid/data=!4m7!3m6!1s0x3999070c9a6cf48b:0x7174ac96f76f0dd0!8m2!3d27.5300856!4d81.4919884!16s%2Fg%2F11gcm0x2ht!19sChIJi_RsmgwHmTkR0A1v95asdHE?authuser=0&hl=en&rclk=1,"27.5300856,81.4919884"
Masjid Dumkaapur,Mosque,"PPM2+FQM Masjid Dumkaapur, Gularia, Uttar Pradesh 242223",,PPM2+FQM,Gularia,,Uttar Pradesh,IN,https://www.google.com/maps/place/Masjid+Dumkaapur/data=!4m7!3m6!1s0x399fc75998218553:0x2039ba62080faaf7!8m2!3d27.7337016!4d79.7019244!16s%2Fg%2F11gn21sq43!19sChIJU4UhmFnHnzkR96oPCGK6OSA?authuser=0&hl=en&rclk=1,"27.7337016,79.7019244"
Madina masjid tiwaripur mdiinaa msjid tivaariipur,Mosque,"QW6X+HW4 Madina masjid tiwaripur mdiinaa msjid tivaariipur, Taukalpur, Tiwaripur, Gobardhanpur, Uttar Pradesh 230404",Taukalpur,QW6X+HW4,"Tiwaripur, Gobardhanpur",230404,Uttar Pradesh,IN,https://www.google.com/maps/place/Madina+masjid+tiwaripur+%E0%A4%AE%E0%A4%A6%E0%A5%80%E0%A4%A8%E0%A4%BE+%E0%A4%AE%E0%A4%B8%E0%A5%8D%E0%A4%9C%E0%A4%BF%E0%A4%A6+%E0%A4%A4%E0%A4%BF%E0%A4%B5%E0%A4%BE%E0%A4%B0%E0%A5%80%E0%A4%AA%E0%A5%81%E0%A4%B0/data=!4m7!3m6!1s0x399abfd30a6d229f:0xb1c0177a790d10bd!8m2!3d25.7613881!4d81.9498143!16s%2Fg%2F11sv_0h5x0!19sChIJnyJtCtO_mjkRvRANeXoXwLE?authuser=0&hl=en&rclk=1,"25.761388099999998,81.9498143"
Masjid msjd,Mosque,"8255+CR6 Masjid msjd, Dullapur, Uttar Pradesh 227808",,8255+CR6,Dullapur,227808,Uttar Pradesh,IN,https://www.google.com/maps/place/Masjid+%D9%85%D8%B3%D8%AC%D8%AF%E2%80%AD/data=!4m7!3m6!1s0x399a64918b05211f:0xfc276c80aeb83439!8m2!3d26.30853!4d82.0095089!16s%2Fg%2F1hm4wtqgl!19sChIJHyEFi5FkmjkROTS4roBsJ_w?authuser=0&hl=en&rclk=1,"26.308529999999998,82.0095089"
Khurda masjid,Mosque,"9C73+8X2 Khurda masjid, Unnamed Road, Utraula, Uttar Pradesh 271604",,"9C73+8X2, Unnamed Road",Utraula,271604,Uttar Pradesh,IN,https://www.google.com/maps/place/Khurda+masjid/data=!4m7!3m6!1s0x3997697b0d639883:0x7f8554da484f246d!8m2!3d27.3632667!4d82.4048761!16s%2Fg%2F11p9vhz7q2!19sChIJg5hjDXtplzkRbSRPSNpUhX8?authuser=0&hl=en&rclk=1,"27.3632667,82.4048761"
Jangipur khurd Masjid,Mosque,"RPW4+VH4 Jangipur khurd Masjid, Jangipur Khurd, Uttar Pradesh 222003",,RPW4+VH4,Jangipur Khurd,222003,Uttar Pradesh,IN,https://www.google.com/maps/place/Jangipur+khurd+Masjid/data=!4m7!3m6!1s0x399039e82f74515f:0xd3409122f33bbadc!8m2!3d25.8471275!4d82.7064508!16s%2Fg%2F11qnkfhvkd!19sChIJX1F0L-g5kDkR3Lo78yKRQNM?authuser=0&hl=en&rclk=1,"25.8471275,82.7064508"
Jama Masjid Dhanapur,Mosque,"F942+V39 Jama Masjid Dhanapur, Dhanapur, Uttar Pradesh 232105",,F942+V39,Dhanapur,232105,Uttar Pradesh,IN,https://www.google.com/maps/place/Jama+Masjid+Dhanapur/data=!4m7!3m6!1s0x398e1d1cc509b993:0x1b23b951278a0a0c!8m2!3d25.457266!4d83.350211!16s%2Fg%2F11q3vp3z3b!19sChIJk7kJxRwdjjkRDAqKJ1G5Ixs?authuser=0&hl=en&rclk=1,"25.457266,83.350211"
MOHAMMADI MASJID JHAPATPUR,Mosque,"7JQC+QMC MOHAMMADI MASJID JHAPATPUR, Jhapatpur, Bhidyari, Uttar Pradesh 271903",,7JQC+QMC,"Jhapatpur, Bhidyari",271903,Uttar Pradesh,IN,https://www.google.com/maps/place/MOHAMMADI+MASJID+JHAPATPUR/data=!4m7!3m6!1s0x399999f929e75f4f:0x9df52a9087ebbce3!8m2!3d27.2894258!4d81.6216404!16s%2Fg%2F11k_1w2x_5!19sChIJT1_nKfmZmTkR47zrh5Aq9Z0?authuser=0&hl=en&rclk=1,"27.2894258,81.62164039999999"
Sayiapur Noori Jama Masjid,Mosque,"6CJG+3JQ Sayiapur Noori Jama Masjid, Sayiapur, Banjeria, Uttar Pradesh 271604",,6CJG+3JQ,"Sayiapur, Banjeria",271604,Uttar Pradesh,IN,https://www.google.com/maps/place/Sayiapur+Noori+Jama+Masjid/data=!4m7!3m6!1s0x399745d220a71e6b:0x5775c6bd04d990a!8m2!3d27.2302111!4d82.4266141!16s%2Fg%2F11f712dh7w!19sChIJax6nINJFlzkRCplN0GtcdwU?authuser=0&hl=en&rclk=1,"27.2302111,82.4266141"
Aqsa Masjid Mangolpur,Mosque,"PW24+V92 Aqsa Masjid Mangolpur, Laharpur, Uttar Pradesh 261135",,PW24+V92,Laharpur,261135,Uttar Pradesh,IN,https://www.google.com/maps/place/Aqsa+Masjid+Mangolpur/data=!4m7!3m6!1s0x3998d740d286644b:0xd70ee35e2c591be9!8m2!3d27.7021267!4d80.9058834!16s%2Fg%2F11rgftp78p!19sChIJS2SG0kDXmDkR6RtZLF7jDtc?authuser=0&hl=en&rclk=1,"27.702126699999997,80.9058834"
Eidgah Masjid samodhpur,Mosque,"3F8G+3R5 Eidgah Masjid samodhpur, Samodhpur, road, Jamauli, Uttar Pradesh 223102",,"3F8G+3R5, Samodhpur, road","Jamauli, Mewpur Barchauli",223102,Uttar Pradesh,IN,https://www.google.com/maps/place/Eidgah+Masjid+samodhpur/data=!4m7!3m6!1s0x39906791270ffa27:0xae6d50d3f210ee8!8m2!3d26.0651384!4d82.4771142!16s%2Fg%2F11qzkjjdz_!19sChIJJ_oPJ5FnkDkR6A4hPw3V5go?authuser=0&hl=en&rclk=1,"26.0651384,82.4771142"
Masjid e bilal,Mosque,"Masjid e bilal, Jafarpur, Dullahapur, Gangapur, Uttar Pradesh 275202",Jafarpur,,"Dullahapur, Gangapur",275202,Uttar Pradesh,IN,https://www.google.com/maps/place/Masjid+e+bilal/data=!4m7!3m6!1s0x3991f1a802c98159:0x236d65b2e9106f2a!8m2!3d25.7902419!4d83.4409385!16s%2Fg%2F11j4y1706d!19sChIJWYHJAqjxkTkRKm8Q6bJlbSM?authuser=0&hl=en&rclk=1,"25.790241899999998,83.4409385"
Juma masjid,Mosque,"CQVM+48H Juma masjid, Dodo, Uttar Pradesh 224129",,CQVM+48H,Dodo,224129,Uttar Pradesh,IN,https://www.google.com/maps/place/Juma+masjid/data=!4m7!3m6!1s0x3990e51ecab5c6a5:0xba7c984bd29721d0!8m2!3d26.4428068!4d82.7833582!16s%2Fg%2F11n05lvb28!19sChIJpca1yh7lkDkR0CGX0kuYfLo?authuser=0&hl=en&rclk=1,"26.4428068,82.7833582"
"Chishtiya Usmaniya Sunni Masjid, Dattapur, Dhamangaon(cishtiyaa usmaaniyaa sunnii msjid",Mosque,"Q4HQ+3JQ Chishtiya Usmaniya Sunni Masjid, Dattapur, Dhamangaon(cishtiyaa usmaaniyaa sunnii msjid, Dattapur Dhamangaon, Dattapur, Maharashtra 444709",,Q4HQ+3JQ,"Dattapur Dhamangaon, Dattapur",444709,Maharashtra,IN,"https://www.google.com/maps/place/Chishtiya+Usmaniya+Sunni+Masjid,+Dattapur,+Dhamangaon%28%E0%A4%9A%E0%A4%BF%E0%A4%B6%E0%A5%8D%E0%A4%A4%E0%A4%BF%E0%A4%AF%E0%A4%BE+%E0%A4%89%E0%A4%B8%E0%A5%8D%E0%A4%AE%E0%A4%BE%E0%A4%A8%E0%A4%BF%E0%A4%AF%E0%A4%BE+%E0%A4%B8%E0%A5%81%E0%A4%A8%E0%A5%8D%E0%A4%A8%E0%A5%80+%E0%A4%AE%E0%A4%B8%E0%A5%8D%E0%A4%9C%E0%A4%BF%E0%A4%A6/data=!4m7!3m6!1s0x3bd40f7ff089ae7f:0xdafc17a45f4497ca!8m2!3d20.7777079!4d78.1385968!16s%2Fg%2F11sv747zxb!19sChIJf66J8H8P1DsRypdEX6QX_No?authuser=0&hl=en&rclk=1","20.7777079,78.1385968"
Hussainya masjid damodarpur,Mosque,"7PH6+32W Hussainya masjid damodarpur, Narayanpur Kalan, Uttar Pradesh 271503",,7PH6+32W,Narayanpur Kalan,271503,Uttar Pradesh,IN,https://www.google.com/maps/place/Hussainya+masjid+damodarpur/data=!4m7!3m6!1s0x399997587ac33a43:0x79c77e8af0267d1c!8m2!3d27.2777481!4d81.7100725!16s%2Fg%2F11syxdgmnm!19sChIJQzrDeliXmTkRHH0m8Ip-x3k?authuser=0&hl=en&rclk=1,"27.2777481,81.7100725"
Historical Mosque,Mosque,"7P2C+64V Historical Mosque, Jalalpur - Surhurpur Rd, Mittupur, Dattapur, Uttar Pradesh 276143",,"7P2C+64V, Jalalpur - Surhurpur Rd","Mittupur, Dattapur",276143,Uttar Pradesh,IN,https://www.google.com/maps/place/Historical+Mosque/data=!4m7!3m6!1s0x3990f7c7d3a02849:0xf19f034b0f013a00!8m2!3d26.2506046!4d82.7202819!16s%2Fg%2F11pxkvhc3t!19sChIJSSig08f3kDkRADoBD0sDn_E?authuser=0&hl=en&rclk=1,"26.2506046,82.7202819"
Jama Masjid Daulatpur,Mosque,"M2XP+2RP Jama Masjid Daulatpur, Daulat Pur, Uttar Pradesh 224127",,M2XP+2RP,Daulat Pur,224127,Uttar Pradesh,IN,https://www.google.com/maps/place/Jama+Masjid+Daulatpur/data=!4m7!3m6!1s0x399a11380b071e5f:0xf6e421f4ffecec63!8m2!3d26.6975938!4d82.0370894!16s%2Fg%2F11shfp4ky1!19sChIJXx4HCzgRmjkRY-zs__Qh5PY?authuser=0&hl=en&rclk=1,"26.6975938,82.0370894"
Fatima Masjid Aminpur Donakka,Mosque,"HJCH+QGR Fatima Masjid Aminpur Donakka, Aminpur Nagraur, Dularpur, Uttar Pradesh 271801",,HJCH+QGR,"Aminpur Nagraur, Dularpur",271801,Uttar Pradesh,IN,https://www.google.com/maps/place/Fatima+Masjid+Aminpur+Donakka/data=!4m7!3m6!1s0x3999af826aac7de7:0x5171cdac0cc738c3!8m2!3d27.5719918!4d81.6287509!16s%2Fg%2F11jk8b7wv1!19sChIJ532saoKvmTkRwzjHDKzNcVE?authuser=0&hl=en&rclk=1,"27.5719918,81.6287509"
Durjanpur Masjid,Mosque,"W6JF+897 Durjanpur Masjid, pachumi, Durjanpur, Uttar Pradesh",,"W6JF+897, pachumi","Durjanpur, Hanuman Nagar",,Uttar Pradesh,IN,https://www.google.com/maps/place/Durjanpur+Masjid/data=!4m7!3m6!1s0x3990aa99973547b1:0x2c3ec5fcae889522!8m2!3d26.9307762!4d82.2234298!16s%2Fg%2F11b8_rg57m!19sChIJsUc1l5mqkDkRIpWIrvzFPiw?authuser=0&hl=en&rclk=1,"26.9307762,82.22342979999999"
Usman Masjid Ashrafpur,Mosque,"46RX+VGF Usman Masjid Ashrafpur, Ashrafpur Block 1, Ashrafpur, Uttar Pradesh 276125",Ashrafpur Block 1,46RX+VGF,Ashrafpur,276125,Uttar Pradesh,IN,https://www.google.com/maps/place/Usman+Masjid+Ashrafpur/data=!4m7!3m6!1s0x3991a3b1a24ccd23:0x90f1c968fac3880b!8m2!3d26.1420524!4d83.2484907!16s%2Fg%2F11ptymk6y9!19sChIJI81MorGjkTkRC4jD-mjJ8ZA?authuser=0&hl=en&rclk=1,"26.142052399999997,83.24849069999999"
Madni Masjid mdny msjd (Baradari),Mosque,"PW34+C6C Madni Masjid mdny msjd (Baradari), Laharpur, Uttar Pradesh 261135",,PW34+C6C,Laharpur,261135,Uttar Pradesh,IN,https://www.google.com/maps/place/Madni+Masjid+%D9%85%D8%AF%D9%86%DB%8C+%D9%85%D8%B3%D8%AC%D8%AF+%28Baradari%29%E2%80%AD/data=!4m7!3m6!1s0x3998d733dfeb0037:0xe125358936309948!8m2!3d27.7035506!4d80.9055008!16s%2Fg%2F11smgprkg0!19sChIJNwDr3zPXmDkRSJkwNok1JeE?authuser=0&hl=en&rclk=1,"27.7035506,80.9055008"
Masjid Basatnpur,Mosque,"P52J+QJQ Masjid Basatnpur, Sikandar Bojhi, Uttar Pradesh 271207",,P52J+QJQ,Sikandar Bojhi,271207,Uttar Pradesh,IN,https://www.google.com/maps/place/Masjid+Basatnpur/data=!4m7!3m6!1s0x3999d59de492c157:0x2392daa5337e47ea!8m2!3d27.7019732!4d82.1816123!16s%2Fg%2F11k8j4vdbh!19sChIJV8GS5J3VmTkR6kd-M6XakiM?authuser=0&hl=en&rclk=1,"27.701973199999998,82.1816123"
Gaddipur Masjid,Mosque,"P9CP+8C6 Gaddipur Masjid, Chandpur, Uttar Pradesh 222143",,P9CP+8C6,Chandpur,222143,Uttar Pradesh,IN,https://www.google.com/maps/place/Gaddipur+Masjid/data=!4m7!3m6!1s0x39900f79dbb3a29f:0xd35dfed90b0c62b9!8m2!3d25.7207844!4d82.3860113!16s%2Fg%2F11hz2dk97d!19sChIJn6Kz23kPkDkRuWIMC9n-XdM?authuser=0&hl=en&rclk=1,"25.7207844,82.38601129999999"
Masjid,Mosque,"F7G2+QGV Masjid, Dariya pur, Uttar Pradesh 232107",,F7G2+QGV,Dariya pur,232107,Uttar Pradesh,IN,https://www.google.com/maps/place/Masjid/data=!4m7!3m6!1s0x398e1fa19147a0b3:0x923d278f54a85315!8m2!3d25.476995!4d83.2512895!16s%2Fg%2F11rr5gkyqj!19sChIJs6BHkaEfjjkRFVOoVI8nPZI?authuser=0&hl=en&rclk=1,"25.476995,83.2512895"
MADINA MASJID TIKULAHANPURWA,Mosque,"3RFH+F77 MADINA MASJID TIKULAHANPURWA, Paraspur, Semari, Uttar Pradesh 271504",,3RFH+F77,"Paraspur, Semari",271504,Uttar Pradesh,IN,https://www.google.com/maps/place/MADINA+MASJID+TIKULAHANPURWA/data=!4m7!3m6!1s0x39998dbd2e654169:0xc868a6a9c87b79da!8m2!3d27.073665!4d81.8281841!16s%2Fg%2F11v0td75s0!19sChIJaUFlLr2NmTkR2nl7yKmmaMg?authuser=0&hl=en&rclk=1,"27.073665,81.8281841"
Madni Masjid Taavakkalpur,Mosque,"VJGV+FRQ Madni Masjid Taavakkalpur, Fattapur Kalan, Uttar Pradesh 225401",,VJGV+FRQ,Fattapur Kalan,,Uttar Pradesh,IN,https://www.google.com/maps/place/Madni+Masjid+Taavakkalpur/data=!4m7!3m6!1s0x399a29568943f15d:0x38d6e31d3db12113!8m2!3d26.8762191!4d81.6446049!16s%2Fg%2F11h9k0gn15!19sChIJXfFDiVYpmjkREyGxPR3j1jg?authuser=0&hl=en&rclk=1,"26.8762191,81.64460489999999"
Masjid Peerpur,Mosque,"9HQ2+M3R Masjid Peerpur, Peerpur, Uttar Pradesh 224235",,9HQ2+M3R,Peerpur,224235,Uttar Pradesh,IN,https://www.google.com/maps/place/Masjid+Peerpur/data=!4m7!3m6!1s0x39908d381619c5c9:0xe10e888c9490f6a5!8m2!3d26.3892349!4d82.5501257!16s%2Fg%2F11gchvqhtx!19sChIJycUZFjiNkDkRpfaQlIyIDuE?authuser=0&hl=en&rclk=1,"26.389234899999998,82.5501257"
Jama Masjid Jaitapur,Mosque,"CCCQ+RVM Jama Masjid Jaitapur, Jaitapur, Kodahi, Uttar Pradesh 271902",,CCCQ+RVM,"Jaitapur, Kodahi",271902,Uttar Pradesh,IN,https://www.google.com/maps/place/Jama+Masjid+Jaitapur/data=!4m7!3m6!1s0x3999099c46f5b05f:0xccd89d494c7c0369!8m2!3d27.4220864!4d81.4396586!16s%2Fg%2F11t5k84d8x!19sChIJX7D1RpwJmTkRaQN8TEmd2Mw?authuser=0&hl=en&rclk=1,"27.422086399999998,81.4396586"
Masjid-e-Usmani,Mosque,"HHHF+88W Masjid-e-Usmani, Hunsepur, Daulatpuriksara, Uttar Pradesh 224190",,HHHF+88W,"Hunsepur, Daulatpuriksara",224190,Uttar Pradesh,IN,https://www.google.com/maps/place/Masjid-e-Usmani/data=!4m7!3m6!1s0x3990eb774632fe21:0x472dea167b2b1495!8m2!3d26.5783562!4d82.5733337!16s%2Fg%2F11rgh1zbzr!19sChIJIf4yRnfrkDkRlRQrexbqLUc?authuser=0&hl=en&rclk=1,"26.578356199999998,82.57333369999999"
Masjid jamunapur msjid jmunaapur,Mosque,"CFG7+7J9 Masjid jamunapur msjid jmunaapur, Unnamed Road, Amilia, Uttar Pradesh 261401",,"CFG7+7J9, Unnamed Road",Amilia,261401,Uttar Pradesh,IN,https://www.google.com/maps/place/Masjid+jamunapur+%E0%A4%AE%E0%A4%B8%E0%A5%8D%E0%A4%9C%E0%A4%BF%E0%A4%A6+%E0%A4%9C%E0%A4%AE%E0%A5%81%E0%A4%A8%E0%A4%BE%E0%A4%AA%E0%A5%81%E0%A4%B0/data=!4m7!3m6!1s0x399eddc674b6ccf3:0x7773b3e90f6525e2!8m2!3d27.4256569!4d80.4641116!16s%2Fg%2F11n31ggxd3!19sChIJ88y2dMbdnjkR4iVlD-mzc3c?authuser=0&hl=en&rclk=1,"27.4256569,80.4641116"
MASJID E MOHAMMADI,Mosque,"27V3+5P3 MASJID E MOHAMMADI, Sadruddinpur Rd, Tera Daulatpur, Uttar Pradesh 225301",,"27V3+5P3, Sadruddinpur Rd",Tera Daulatpur,,Uttar Pradesh,IN,https://www.google.com/maps/place/MASJID+E+MOHAMMADI/data=!4m7!3m6!1s0x399965beb98fa801:0x484fa55e7c54cc1b!8m2!3d27.0428961!4d81.2542996!16s%2Fg%2F11ryq_zx7z!19sChIJAaiPub5lmTkRG8xUfF6lT0g?authuser=0&hl=en&rclk=1,"27.0428961,81.2542996"
Masjide Ahle sunnat,Mosque,"2QVW+WW9 Masjide Ahle sunnat, Singariya, Uttar Pradesh 271504",,2QVW+WW9,Singariya,271504,Uttar Pradesh,IN,https://www.google.com/maps/place/%F0%9D%91%B4%F0%9D%92%82%F0%9D%92%94%F0%9D%92%8B%F0%9D%92%8A%F0%9D%92%85%F0%9D%92%86+%F0%9D%91%A8%F0%9D%92%89%F0%9D%92%8D%F0%9D%92%86+%F0%9D%92%94%F0%9D%92%96%F0%9D%92%8F%F0%9D%92%8F%F0%9D%92%82%F0%9D%92%95/data=!4m7!3m6!1s0x39998d159aff6eeb:0x5e861fd9f9eff90d!8m2!3d27.0447899!4d81.7973609!16s%2Fg%2F11qn4_gjfh!19sChIJ627_mhWNmTkRDfnv-dkfhl4?authuser=0&hl=en&rclk=1,"27.044789899999998,81.7973609"
Mosque msjid,Mosque,"6V63+3MH Mosque msjid, Almapur, Uttar Pradesh 261303",,6V63+3MH,Almapur,261303,Uttar Pradesh,IN,https://www.google.com/maps/place/Mosque+%E0%A4%AE%E0%A4%B8%E0%A5%8D%E0%A4%9C%E0%A4%BF%E0%A4%A6/data=!4m7!3m6!1s0x39994bcc9c9d5817:0x78fbb0d9b0a76359!8m2!3d27.2101999!4d80.8542379!16s%2Fg%2F11h9grf1r6!19sChIJF1idnMxLmTkRWWOnsNmw-3g?authuser=0&hl=en&rclk=1,"27.2101999,80.8542379"
Masjid=Aqsa DAULATPUR,Mosque,"WHXV+QCH Masjid=Aqsa DAULATPUR, Daulatpur, Uttar Pradesh 226103",,WHXV+QCH,Daulatpur,,Uttar Pradesh,IN,https://www.google.com/maps/place/Masjid%3DAqsa+DAULATPUR/data=!4m7!3m6!1s0x399ea782213c9fbd:0x1cb9190d97cd40f0!8m2!3d26.949431!4d80.593609!16s%2Fg%2F11j4y4rgwk!19sChIJvZ88IYKnnjkR8EDNlw0ZuRw?authuser=0&hl=en&rclk=1,"26.949430999999997,80.593609"
Madina masjid,Mosque,"9585+G3 Madina masjid, Piyarepur, Uttar Pradesh 229303",,9585+G3,Piyarepur,,Uttar Pradesh,IN,https://www.google.com/maps/place/Madina+masjid/data=!4m7!3m6!1s0x399b97d2ae97e2c5:0x5f5cf1b06bf87e5f!8m2!3d26.3663986!4d81.1577485!16s%2Fg%2F11r_qpq8sq!19sChIJxeKXrtKXmzkRX374a7DxXF8?authuser=0&hl=en&rclk=1,"26.3663986,81.1577485"
Badi Jama Masjid Molnapur,Mosque,"5R6V+386 Badi Jama Masjid Molnapur, Atamauwa, Uttar Pradesh 223225",,5R6V+386,Atamauwa,223225,Uttar Pradesh,IN,https://www.google.com/maps/place/Badi+Jama+Masjid+Molnapur/data=!4m7!3m6!1s0x39905585d97f9e31:0xb961815433dc184f!8m2!3d26.1610959!4d82.8434255!16s%2Fg%2F11t7t1v8y7!19sChIJMZ5_2YVVkDkRTxjcM1SBYbk?authuser=0&hl=en&rclk=1,"26.1610959,82.8434255"
"Noori Masjid, nwry msjd",Mosque,"XHR5+FRC Noori Masjid, nwry msjd, Chandpur, Gendpur, Uttar Pradesh 271881",,XHR5+FRC,"Chandpur, Gendpur",,Uttar Pradesh,IN,"https://www.google.com/maps/place/Noori+Masjid,+%D9%86%D9%88%D8%B1%DB%8C+%D9%85%D8%B3%D8%AC%D8%AF%E2%80%AD/data=!4m7!3m6!1s0x39985f2b263a9339:0xb5735233d8bdfa98!8m2!3d27.9911822!4d81.5595254!16s%2Fg%2F11pwwsjbvr!19sChIJOZM6JitfmDkRmPq92DNSc7U?authuser=0&hl=en&rclk=1","27.991182199999997,81.5595254"
Masjid-e- Hafiz-e-Millat(jama masjid),Mosque,"Masjid-e- Hafiz-e-Millat(jama masjid), Line-3, Kasba Deo Gaon, Uttar Pradesh 276201",,Line-3,"Kasba Deo Gaon, Deogaon",276201,Uttar Pradesh,IN,https://www.google.com/maps/place/Masjid-e-+Hafiz-e-Millat%28jama+masjid%29/data=!4m7!3m6!1s0x3991cdea29539b23:0xd6921421ec3ff663!8m2!3d25.7498754!4d82.9885659!16s%2Fg%2F11mnbzrbwn!19sChIJI5tTKerNkTkRY_Y_7CEUktY?authuser=0&hl=en&rclk=1,"25.7498754,82.9885659"
Makhdoompur masjid,Mosque,"84C4+2CF Makhdoompur masjid, Laxmipur, Uttar Pradesh 271202",,84C4+2CF,Laxmipur,271202,Uttar Pradesh,IN,https://www.google.com/maps/place/Makhdoompur+masjid/data=!4m7!3m6!1s0x3999e7d512071a29:0xeaaf1c1dda68147!8m2!3d27.3200581!4d82.1060501!16s%2Fg%2F11rtq_3x7x!19sChIJKRoHEtXnmTkRR4Gm3cHxqg4?authuser=0&hl=en&rclk=1,"27.320058099999997,82.10605009999999"
Madina masjid,Mosque,"2PV2+J4Q Madina masjid, Sakatpur, Uttar Pradesh 271504",,2PV2+J4Q,Sakatpur,271504,Uttar Pradesh,IN,https://www.google.com/maps/place/Madina+masjid/data=!4m7!3m6!1s0x39998feb39522795:0xb7f68f713c42dd62!8m2!3d27.0433106!4d81.6991569!16s%2Fg%2F11v150nj3c!19sChIJlSdSOeuPmTkRYt1CPHGP9rc?authuser=0&hl=en&rclk=1,"27.043310599999998,81.69915689999999"
Nyamatpur masjid,Mosque,"75RV+X4V Nyamatpur masjid, Lodhaurawajid Ali, Uttar Pradesh 261203",,75RV+X4V,Lodhaurawajid Ali,,Uttar Pradesh,IN,https://www.google.com/maps/place/Nyamatpur+masjid/data=!4m7!3m6!1s0x3999158733f87b67:0x23da7a3c8adaed26!8m2!3d27.2924751!4d81.1927994!16s%2Fg%2F11ry5cc2rw!19sChIJZ3v4M4cVmTkRJu3aijx62iM?authuser=0&hl=en&rclk=1,"27.292475099999997,81.1927994"
DOMANPUR MASJID,Mosque,"2M7C+MH3 DOMANPUR MASJID, Domanpur, Uttar Pradesh 222139",,2M7C+MH3,Domanpur,222139,Uttar Pradesh,IN,https://www.google.com/maps/place/DOMANPUR+MASJID/data=!4m7!3m6!1s0x39904573e3603219:0x3729d0b150087f13!8m2!3d26.0141403!4d82.6714289!16s%2Fg%2F11txs_wp6y!19sChIJGTJg43NFkDkRE38IULHQKTc?authuser=0&hl=en&rclk=1,"26.014140299999998,82.6714289"
Masjid,Mosque,"F545+2RV Masjid, Kawe - Lamichaur - Husepur Rd, Lachhmipur, Dikshitauli, Bihar 841426",,"F545+2RV, Kawe - Lamichaur - Husepur Rd","Lachhmipur, Dikshitauli",841426,Bihar,IN,https://www.google.com/maps/place/Masjid/data=!4m7!3m6!1s0x3993afed77569abb:0xeec2ee2d8ac83908!8m2!3d26.4551187!4d84.1595556!16s%2Fg%2F11v04tbvg7!19sChIJu5pWd-2vkzkRCDnIii3uwu4?authuser=0&hl=en&rclk=1,"26.4551187,84.15955559999999"
Eidgah,Mosque,"48HC+G62 Eidgah, Dharsara, Uttar Pradesh 276124",,48HC+G62,Dharsara,276124,Uttar Pradesh,IN,https://www.google.com/maps/place/Eidgah/data=!4m7!3m6!1s0x399199de8cf5a349:0xf5f9e2ad3e98bcb!8m2!3d26.1287514!4d83.3205159!16s%2Fg%2F11sfpcjv63!19sChIJSaP1jN6ZkTkRy4vp0yqeXw8?authuser=0&hl=en&rclk=1,"26.1287514,83.32051589999999"
jummaa msjid,Mosque,"5946+9HF jummaa msjid, Azmatgarh, Uttar Pradesh 276124",,5946+9HF,Azmatgarh,276124,Uttar Pradesh,IN,https://www.google.com/maps/place/%E0%A4%9C%E0%A5%81%E0%A4%AE%E0%A5%8D%E0%A4%AE%E0%A4%BE+%E0%A4%AE%E0%A4%B8%E0%A5%8D%E0%A4%9C%E0%A4%BF%E0%A4%A6/data=!4m7!3m6!1s0x39919bf0aa9b800d:0x8b3ec0055e1cd151!8m2!3d26.1563986!4d83.3612014!16s%2Fg%2F11v9_j51p5!19sChIJDYCbqvCbkTkRUdEcXgXAPos?authuser=0&hl=en&rclk=1,"26.1563986,83.3612014"
madarsa darul oloom jameerpur masjid,Mosque,"madarsa darul oloom jameerpur masjid, Jameerpur urf puranpur 276126 Jameerpur, Rasepur, Uttar Pradesh 276126",,Jameerpur urf puranpur 276126 Jameerpur,"Rasepur, Kasba Pahalwanpur",276126,Uttar Pradesh,IN,https://www.google.com/maps/place/madarsa+darul+oloom+jameerpur+masjid/data=!4m7!3m6!1s0x3991eb870df215df:0xdc461ced17db277a!8m2!3d25.823343!4d83.3039168!16s%2Fg%2F11nf_6c9wq!19sChIJ3xXyDYfrkTkReifbF-0cRtw?authuser=0&hl=en&rclk=1,"25.823342999999998,83.3039168"
Juma Masjid FATTUPUR,Mosque,"P6G4+P83 Juma Masjid FATTUPUR, Fattupur Kalan, Uttar Pradesh 222202",,P6G4+P83,Fattupur Kalan,222202,Uttar Pradesh,IN,https://www.google.com/maps/place/Juma+Masjid+FATTUPUR/data=!4m7!3m6!1s0x399aa73f00a6960f:0xfc7f16e4ccbd861c!8m2!3d25.7267745!4d82.2058013!16s%2Fg%2F11j1134jvd!19sChIJD5amAD-nmjkRHIa9zOQWf_w?authuser=0&hl=en&rclk=1,"25.726774499999998,82.20580129999999"
Jama Masjid( badi masjid jethapura),Mosque,"Jama Masjid( badi masjid jethapura), Gaddipur, Uttar Pradesh 222138",,,Gaddipur,222138,Uttar Pradesh,IN,https://www.google.com/maps/place/Jama+Masjid%28+badi+masjid+jethapura%29/data=!4m7!3m6!1s0x39903b6511569735:0x81b62920d917d469!8m2!3d25.6771817!4d82.7045038!16s%2Fg%2F11rsptm2yq!19sChIJNZdWEWU7kDkRadQX2SAptoE?authuser=0&hl=en&rclk=1,"25.6771817,82.7045038"
BADHDHOPUR MOSQUE,Mosque,"QF5G+8Q2 BADHDHOPUR MOSQUE, Malethi, Uttar Pradesh 233300",,QF5G+8Q2,Malethi,233300,Uttar Pradesh,IN,https://www.google.com/maps/place/BADHDHOPUR+MOSQUE/data=!4m7!3m6!1s0x3991f116f2c9b86b:0x28c9706cd310f7b2!8m2!3d25.7582543!4d83.4768944!16s%2Fg%2F11p74hpgzg!19sChIJa7jJ8hbxkTkRsvcQ02xwySg?authuser=0&hl=en&rclk=1,"25.758254299999997,83.47689439999999"
Madina Masjid,Mosque,"C5G7+39F Madina Masjid, Damgarha, ta, utraon",,"C5G7+39F, Damgarha, ta","utraon, Banpurwa",,Uttar Pradesh,IN,https://www.google.com/maps/place/Madina+Masjid/data=!4m7!3m6!1s0x398555aab7a74a7b:0x6928bb0e98645367!8m2!3d25.4251762!4d82.1634268!16s%2Fg%2F11s18d36dy!19sChIJe0qnt6pVhTkRZ1NkmA67KGk?authuser=0&hl=en&rclk=1,"25.4251762,82.1634268"
