name,main_category,address,address_ward,address_street,address_city,address_postal_code,address_state,address_country_code,link,coordinates
NOOR E NABI MASJID SECTOR A/5 POCKET 14 NARELA DELHI 40,Mosque,"V453+F2 NOOR E NABI MASJID SECTOR A/5 POCKET 14 NARELA DELHI 40, POCKET 14, 40, Sector A5, Narela, Delhi, 110040","Sector A5, Narela","V453+F2, POCKET 14, 40",Delhi,110040,Delhi,IN,https://www.google.com/maps/place/NOOR+E+NABI+MASJID+SECTOR+A%2F5+POCKET+14+NARELA+DELHI+40/data=!4m7!3m6!1s0x390da96207dd2b41:0xa3f586f4c9dc72bd!8m2!3d28.8579354!4d77.102546!16s%2Fg%2F11ddx4yz_w!19sChIJQSvdB2KpDTkRvXLcyfSG9aM?authuser=0&hl=en&rclk=1,"28.8579354,77.10254599999999"
"NOOR E ILAHI JAMA MASJID PKT 11,SEC 6 NARELA",Mosque,"R4X3+P8C NOOR E ILAHI JAMA MASJID PKT 11,SEC 6 NARELA, Pocket 11, Sector A6, Narela, Delhi, 110040","Pocket 11, Sector A6, Narela",R4X3+P8C,Delhi,110040,Delhi,IN,"https://www.google.com/maps/place/NOOR+E+ILAHI+JAMA+MASJID+PKT+11,SEC+6+NARELA/data=!4m7!3m6!1s0x390dabd63ab7fa99:0x1e065e2435b7030f!8m2!3d28.8493024!4d77.1032728!16s%2Fg%2F11c2qr360z!19sChIJmfq3OtarDTkRDwO3NSReBh4?authuser=0&hl=en&rclk=1","28.8493024,77.1032728"
Noor Masjid Kureni msjd nwr,Mosque,"Noor Masjid Kureni msjd nwr, 359, Alipur Rd, Narela Mandi, Narela, Delhi, 110040","Narela Mandi, Narela","359, Alipur Rd",Delhi,110040,Delhi,IN,https://www.google.com/maps/place/Noor+Masjid+Kureni+%D9%85%D8%B3%D8%AC%D8%AF+%D9%86%D9%88%D8%B1%E2%80%AD/data=!4m7!3m6!1s0x390da982933feba9:0x4884f2f7fb7ea621!8m2!3d28.8391444!4d77.0928501!16s%2Fg%2F11c2y88kn_!19sChIJqes_k4KpDTkRIaZ--_fyhEg?authuser=0&hl=en&rclk=1,"28.8391444,77.09285009999999"
Madina Masjid Khajoor Wali,Mosque,"Madina Masjid Khajoor Wali, 5, Pocket 11, Pocket 3, Sector A9, Narela, Delhi, 110040","Pocket 11, Pocket 3, Sector A9, Narela",5,Delhi,110040,Delhi,IN,https://www.google.com/maps/place/Madina+Masjid+Khajoor+Wali/data=!4m7!3m6!1s0x390dabd7f7a86b15:0xd8ff3dfd46938f4f!8m2!3d28.8528587!4d77.1033487!16s%2Fg%2F11c5_gcfnp!19sChIJFWuo99erDTkRT4-TRv09_9g?authuser=0&hl=en&rclk=1,"28.8528587,77.1033487"
Jama Masjid Kureni,Mosque,"Jama Masjid Kureni, 95, Kurenai Village, Narela, nii dillii, Delhi, 110040","Kurenai Village, Narela",95,"nii dillii, Delhi",110040,Delhi,IN,https://www.google.com/maps/place/Jama+Masjid+Kureni/data=!4m7!3m6!1s0x390da9827a3e1b95:0x7e46b36eb0ddacf5!8m2!3d28.840315!4d77.094486!16s%2Fg%2F11d_yz0q58!19sChIJlRs-eoKpDTkR9azdsG6zRn4?authuser=0&hl=en&rclk=1,"28.840315,77.094486"
NOORANI JAMA MASJID jm` msjd nwrny,Mosque,"NOORANI JAMA MASJID jm` msjd nwrny, Sector-A/10, Pocket 7, Sector-A/10, Slum Area, Narela, Delhi, 110040","Pocket 7, Sector-A/10, Slum Area, Narela",Sector-A/10,Delhi,110040,Delhi,IN,https://www.google.com/maps/place/NOORANI+JAMA+MASJID+%D8%AC%D8%A7%D9%85%D8%B9+%D9%85%D8%B3%D8%AC%D8%AF+%D9%86%D9%88%D8%B1%D8%A7%D9%86%DB%8C%E2%80%AD/data=!4m7!3m6!1s0x390da9804ee30f3f:0xb8b55094577846f5!8m2!3d28.8397442!4d77.1000306!16s%2Fg%2F11c2q3xv8g!19sChIJPw_jToCpDTkR9UZ4V5RQtbg?authuser=0&hl=en&rclk=1,"28.8397442,77.1000306"
JAMA MASJID MAMURPUR,Mosque,"JAMA MASJID MAMURPUR, 1616, Arya Samaj Rd, Shyam Colony, Narela Mandi, Narela, Delhi, 110040","Shyam Colony, Narela Mandi, Narela","1616, Arya Samaj Rd",Delhi,110040,Delhi,IN,https://www.google.com/maps/place/JAMA+MASJID+MAMURPUR/data=!4m7!3m6!1s0x390da965854aeea7:0xdfd566bfd8dfdef3!8m2!3d28.8554181!4d77.0916828!16s%2Fg%2F11c6cxhtxl!19sChIJp-5KhWWpDTkR897f2L9m1d8?authuser=0&hl=en&rclk=1,"28.855418099999998,77.0916828"
Peer Fateh Shah Masjid,Mosque,"Peer Fateh Shah Masjid, 9-A, Gali No. 6, Rajeev Colony, Narela Mandi, Narela, Delhi, 110040","Rajeev Colony, Narela Mandi, Narela","9-A, Gali No. 6",Delhi,110040,Delhi,IN,https://www.google.com/maps/place/Peer+Fateh+Shah+Masjid/data=!4m7!3m6!1s0x390da96f9d1e5987:0xa79d25291aff2f2c!8m2!3d28.854467!4d77.090157!16s%2Fg%2F11dxbp8tzz!19sChIJh1kenW-pDTkRLC__Giklnac?authuser=0&hl=en&rclk=1,"28.854467,77.09015699999999"
ARSH WALI MASJID,Mosque,"R3XX+PCJ ARSH WALI MASJID, Gandhi Ashram Talab Rd, Sector A9, Narela, Delhi, 110040","Sector A9, Narela","R3XX+PCJ, Gandhi Ashram Talab Rd",Delhi,110040,Delhi,IN,https://www.google.com/maps/place/ARSH+WALI+MASJID/data=!4m7!3m6!1s0x390da97c5ea921b3:0xb191f8bc78b06363!8m2!3d28.8493428!4d77.0985149!16s%2Fg%2F11c60j9b5d!19sChIJsyGpXnypDTkRY2OweLz4kbE?authuser=0&hl=en&rclk=1,"28.8493428,77.0985149"
MASJID,Mosque,"MASJID, 1973/3, Narela Lampur Railway Under Bridge, Vijay Nagar, Narela, Delhi, 110040","Vijay Nagar, Narela","1973/3, Narela Lampur Railway Under Bridge",Delhi,110040,Delhi,IN,https://www.google.com/maps/place/MASJID/data=!4m7!3m6!1s0x390da96dc7edb325:0x71d9cb8783ecbffc!8m2!3d28.8532498!4d77.083843!16s%2Fg%2F11g6b2h_ds!19sChIJJbPtx22pDTkR_L_sg4fL2XE?authuser=0&hl=en&rclk=1,"28.8532498,77.083843"
Masjid Al-haram,Mosque,"R4H6+PQM Masjid Al-haram, DSIDC Industrial Area, Narela, Delhi, 110040","DSIDC Industrial Area, Narela",R4H6+PQM,Delhi,110040,Delhi,IN,https://www.google.com/maps/place/Masjid+Al-haram/data=!4m7!3m6!1s0x390dabd315213287:0x693ac2aaac177cd9!8m2!3d28.8293472!4d77.1119327!16s%2Fg%2F11nnpq2wlm!19sChIJhzIhFdOrDTkR2XwXrKrCOmk?authuser=0&hl=en&rclk=1,"28.829347199999997,77.1119327"
QABRISTAN,Mosque,"QABRISTAN, 33, Gali Number 1, Punjabi Colony, Narela Mandi, Narela, Delhi 110040","Rajeev Colony, Narela Mandi, Narela","33, Gali Number 1, Punjabi Colony, Narela Mandi","Narela, Delhi",110040,Delhi,IN,https://www.google.com/maps/place/QABRISTAN/data=!4m7!3m6!1s0x390da97a58ce0a11:0xba9445147ad1fb!8m2!3d28.849038!4d77.092802!16s%2Fg%2F11g6mfhqxw!19sChIJEQrOWHqpDTkR-9F6FEWUugA?authuser=0&hl=en&rclk=1,"28.849038,77.09280199999999"
Masjid Aksha,Mosque,"V443+M9R Masjid Aksha, Pocket 4, Sector A6, Marmurpur, Delhi, 110040","Pocket 4, Sector A6, Marmurpur",V443+M9R,Delhi,110040,Delhi,IN,https://www.google.com/maps/place/Masjid+Aksha/data=!4m7!3m6!1s0x390dabd891b8cad5:0x9e9001a505689bd5!8m2!3d28.8567349!4d77.103382!16s%2Fg%2F11f4_4x549!19sChIJ1cq4kdirDTkR1ZtoBaUBkJ4?authuser=0&hl=en&rclk=1,"28.8567349,77.103382"
Masjid,Mosque,"R4MF+735 Masjid, Unnamed Road, Tikri Khurd Village, Tikri Khurd, Delhi, 110040","Tikri Khurd Village, Tikri Khurd","R4MF+735, Unnamed Road",Delhi,110040,Delhi,IN,https://www.google.com/maps/place/Masjid/data=!4m7!3m6!1s0x390daa379e6932df:0xc32d1bd89555ed4a!8m2!3d28.8331259!4d77.122749!16s%2Fg%2F11c32f__g1!19sChIJ3zJpnjeqDTkRSu1VldgbLcM?authuser=0&hl=en&rclk=1,"28.8331259,77.122749"
Sabri masjid Education Trust,Mosque,"V3CW+9PR Sabri masjid Education Trust, Narela, Delhi, Haryana 131029",Narela,V3CW+9PR,Delhi,131029,Haryana,IN,https://www.google.com/maps/place/Sabri+masjid+Education+Trust/data=!4m7!3m6!1s0x390da91c7616b16f:0xc6e499e43a5d0e0d!8m2!3d28.8709884!4d77.0967721!16s%2Fg%2F11nx127ync!19sChIJb7EWdhypDTkRDQ5dOuSZ5MY?authuser=0&hl=en&rclk=1,"28.870988399999998,77.0967721"
Masjid,Mosque,"R3JV+23P Masjid, Unnamed Road, Bhorgarh, Narela, Delhi, 110040","Bhorgarh, Narela","R3JV+23P, Unnamed Road",Delhi,110040,Delhi,IN,https://www.google.com/maps/place/Masjid/data=!4m7!3m6!1s0x390da92a5b1090c7:0x1889962a72a5e29b!8m2!3d28.8300918!4d77.0926889!16s%2Fg%2F11fm4rdzz2!19sChIJx5AQWyqpDTkRm-KlciqWiRg?authuser=0&hl=en&rclk=1,"28.830091799999998,77.0926889"
Masjid Bilaal,Mosque,"V33J+W98 Masjid Bilaal, Bankner Village, Narela, Delhi, 110040","Bankner Village, Narela",V33J+W98,Delhi,110040,Delhi,IN,https://www.google.com/maps/place/Masjid+Bilaal/data=!4m7!3m6!1s0x390da99015c9129f:0x49f2c8ded4a9ad0f!8m2!3d28.8547782!4d77.0809528!16s%2Fg%2F11h891s2s8!19sChIJnxLJFZCpDTkRD62p1N7I8kk?authuser=0&hl=en&rclk=1,"28.8547782,77.08095279999999"
Madina Masjid,Place of worship,"Madina Masjid, Near, gali no-29b, Gonda Rd, Swatantra Nagar, Narela, Delhi, 110040","Swatantra Nagar, Narela","Near, gali no-29b, Gonda Rd",Delhi,110040,Delhi,IN,https://www.google.com/maps/place/Madina+Masjid/data=!4m7!3m6!1s0x390da9e9e62e1405:0xa3e53257d061d6df!8m2!3d28.8407809!4d77.0774918!16s%2Fg%2F11ff549tgf!19sChIJBRQu5umpDTkR39Zh0Fcy5aM?authuser=0&hl=en&rclk=1,"28.8407809,77.07749179999999"
Masjid shamme elahi,Mosque,"Masjid shamme elahi, Police Colony, Sector A5, Narela, Delhi, 131028","Sector A5, Narela",Police Colony,Delhi,131028,Delhi,IN,https://www.google.com/maps/place/Masjid+shamme+elahi/data=!4m7!3m6!1s0x390da97891576351:0xa61d548c0c12992c!8m2!3d28.8617958!4d77.1014657!16s%2Fg%2F11q8y66k33!19sChIJUWNXkXipDTkRLJkSDIxUHaY?authuser=0&hl=en&rclk=1,"28.8617958,77.10146569999999"
Masjid namaj is the best,Parsi temple,"Masjid namaj is the best, 13, North, Sector B4, Narela, New Delhi, Delhi, 110040","Sector B4, Narela","13, North","New Delhi, Delhi",110040,Delhi,IN,https://www.google.com/maps/place/Masjid+namaj+is+the+best/data=!4m7!3m6!1s0x390dabc573f944f9:0x5c4b221563bdc978!8m2!3d28.828294!4d77.1128879!16s%2Fg%2F11rg7s1bsv!19sChIJ-UT5c8WrDTkReMm9YxUiS1w?authuser=0&hl=en&rclk=1,"28.828294,77.11288789999999"
