name,main_category,address,address_ward,address_street,address_city,address_postal_code,address_state,address_country_code,link,coordinates
Masjid e AzamGanj - msjdi zmgnj,Mosque,"CH2M+5RQ Masjid e AzamGanj - msjdi zmgnj, Masjid Rd, Ganj Golai, Latur, Maharashtra 413512",Ganj Golai,"CH2M+5RQ, Masjid Rd",Latur,413512,Maharashtra,IN,https://www.google.com/maps/place/Masjid+e+AzamGanj+-+%D9%85%D8%B3%D8%AC%D8%AF%D9%90+%D8%A7%D8%B2%D9%85%DA%AF%D9%86%D8%AC%E2%80%AD/data=!4m7!3m6!1s0x3bcf83983df29c0f:0x2b21303885548254!8m2!3d18.4004579!4d76.584604!16s%2Fg%2F11bvcv6b24!19sChIJD5zyPZiDzzsRVIJUhTgwISs?authuser=0&hl=en&rclk=1,"18.4004579,76.584604"
Sofiya Masjid (Swfyh msjd),Mosque,"Sofiya Masjid (Swfyh msjd), C/o Umardaraj Mukadam, Anand Nagar, Latur, Maharashtra 413512",Anand Nagar,C/o Umardaraj Mukadam,Latur,413512,Maharashtra,IN,https://www.google.com/maps/place/Sofiya+Masjid+%28%D8%B5%D9%88%D9%81%DB%8C%DB%81+%D9%85%D8%B3%D8%AC%D8%AF%29%E2%80%AD/data=!4m7!3m6!1s0x3bcf83a1b4d3e60b:0xa74eafbc43804451!8m2!3d18.3975434!4d76.5926433!16s%2Fg%2F11c4b6qmv7!19sChIJC-bTtKGDzzsRUUSAQ7yvTqc?authuser=0&hl=en&rclk=1,"18.3975434,76.59264329999999"
Chand Tara Masjid (chnd tr msjd),Mosque,"Chand Tara Masjid (chnd tr msjd), Sharda Nagar, Latur, Maharashtra 413512",Sharda Nagar,,Latur,413512,Maharashtra,IN,https://www.google.com/maps/place/Chand+Tara+Masjid+%28%DA%86%D8%A7%D9%86%D8%AF+%D8%AA%D8%A7%D8%B1%D8%A7+%D9%85%D8%B3%D8%AC%D8%AF%29%E2%80%AD/data=!4m7!3m6!1s0x3bcf84752ddc775f:0x4e43a5d29a3ae9df!8m2!3d18.42291!4d76.5720801!16s%2Fg%2F119tqgf_5!19sChIJX3fcLXWEzzsR3-k6mtKlQ04?authuser=0&hl=en&rclk=1,"18.422909999999998,76.5720801"
Makka Masjid - mkhWh msjd,Mosque,"CH2H+4J3 Makka Masjid - mkhWh msjd, Gandhi Market, Sawe Wadi, Latur, Maharashtra 413531","Gandhi Market, Sawe Wadi",CH2H+4J3,Latur,413531,Maharashtra,IN,https://www.google.com/maps/place/Makka+Masjid+-+%D9%85%DA%A9%D9%91%DB%81+%D9%85%D8%B3%D8%AC%D8%AF%E2%80%AD/data=!4m7!3m6!1s0x3bcf83966a3c8bd1:0xe9f0d0cd36cd8f28!8m2!3d18.4002651!4d76.5790566!16s%2Fg%2F11cp7rvwqp!19sChIJ0Ys8apaDzzsRKI_NNs3Q8Ok?authuser=0&hl=en&rclk=1,"18.4002651,76.5790566"
"Madina Masjid mdynh msjd(Zohar-2:00, Juma-2:00)",Mosque,"9HX8+MR9 Madina Masjid mdynh msjd(Zohar-2:00, Juma-2:00), Khori Galli, Mitra Nagar, Sawe Wadi, Latur, Maharashtra 413531","Mitra Nagar, Sawe Wadi","9HX8+MR9, Khori Galli",Latur,413531,Maharashtra,IN,"https://www.google.com/maps/place/Madina+Masjid+%D9%85%D8%AF%DB%8C%D9%86%DB%81+%D9%85%D8%B3%D8%AC%D8%AF%28Zohar-2:00,+Juma-2:00%29%E2%80%AD/data=!4m7!3m6!1s0x3bcf83ea17defbdf:0x6bebea3272c0f401!8m2!3d18.3991583!4d76.5671191!16s%2Fg%2F1tj31l0c!19sChIJ3_veF-qDzzsRAfTAcjLq62s?authuser=0&hl=en&rclk=1","18.3991583,76.5671191"
Masjid e Mahboobia - msjdi mHbwbh,Mosque,"CH38+34G Masjid e Mahboobia - msjdi mHbwbh, Sawe Wadi, Latur, Maharashtra 413531",Sawe Wadi,CH38+34G,Latur,413531,Maharashtra,IN,https://www.google.com/maps/place/Masjid+e+Mahboobia+-+%D9%85%D8%B3%D8%AC%D8%AF%D9%90+%D9%85%D8%AD%D8%A8%D9%88%D8%A8%DB%81%E2%80%AD/data=!4m7!3m6!1s0x3bcf83e94fbf9847:0x66c6ee4e851b8c30!8m2!3d18.4026766!4d76.5653415!16s%2Fg%2F11d_9gsmm6!19sChIJR5i_T-mDzzsRMIwbhU7uxmY?authuser=0&hl=en&rclk=1,"18.4026766,76.5653415"
Masjid Al Riyaz - msjd l ryD,Mosque,"Masjid Al Riyaz - msjd l ryD, Riyaz Colony, Take Nagar, Latur, Maharashtra 413531",Take Nagar,Riyaz Colony,Latur,413531,Maharashtra,IN,https://www.google.com/maps/place/Masjid+Al+Riyaz+-+%D9%85%D8%B3%D8%AC%D8%AF+%D8%A7%D9%84+%D8%B1%DB%8C%D8%A7%D8%B6%E2%80%AD/data=!4m7!3m6!1s0x3bcf83ee4a6fa951:0xdd8cb3bfe8fb3436!8m2!3d18.4072651!4d76.5645033!16s%2Fg%2F11g9q5lgfw!19sChIJUalvSu6DzzsRNjT76L-zjN0?authuser=0&hl=en&rclk=1,"18.4072651,76.5645033"
Masjid-e-Tek - msjdi ttykh,Mosque,"9HXG+X56 Masjid-e-Tek - msjdi ttykh, Sawe Wadi, Latur, Maharashtra 413531",Sawe Wadi,9HXG+X56,Latur,413531,Maharashtra,IN,https://www.google.com/maps/place/Masjid-e-Tek+-+%D9%85%D8%B3%D8%AC%D8%AF%D9%90+%D9%B9%DB%8C%DA%A9%E2%80%AD/data=!4m7!3m6!1s0x3bcf8395bc84679f:0xddfdde44130fd75!8m2!3d18.3999014!4d76.5753879!16s%2Fg%2F11c0qksdvf!19sChIJn2eEvJWDzzsRdf0wQeTd3w0?authuser=0&hl=en&rclk=1,"18.399901399999997,76.5753879"
Markaz masjid Latur (mrkhz msjd),Mosque,"CH2M+5WQ Markaz masjid Latur (mrkhz msjd), Ganj Golai, Latur, Maharashtra 413512",Ganj Golai,CH2M+5WQ,Latur,413512,Maharashtra,IN,https://www.google.com/maps/place/Markaz+masjid+Latur+%28%D9%85%D8%B1%DA%A9%D8%B2+%D9%85%D8%B3%D8%AC%D8%AF%29%E2%80%AD/data=!4m7!3m6!1s0x3bcf83625278d2b3:0xc50f7dc8fae3dcd5!8m2!3d18.4004595!4d76.5848471!16s%2Fg%2F11plw2bzs6!19sChIJs9J4UmKDzzsR1dzj-sh9D8U?authuser=0&hl=en&rclk=1,"18.4004595,76.58484709999999"
Masjid-E-Bilal(IslamPura) - msjdi bll slmpr,Mosque,"9HVW+F42 Masjid-E-Bilal(IslamPura) - msjdi bll slmpr, Anand Nagar, Latur, Maharashtra 413512",Anand Nagar,9HVW+F42,Latur,413512,Maharashtra,IN,https://www.google.com/maps/place/Masjid-E-Bilal%28IslamPura%29+-+%D9%85%D8%B3%D8%AC%D8%AF%D9%90+%D8%A8%D9%84%D8%A7%D9%84+%D8%A7%D8%B3%D9%84%D9%85%D9%BE%D8%B1%D8%A7%E2%80%AD/data=!4m7!3m6!1s0x3bcf8309fefc793d:0xd98c62ea73778aea!8m2!3d18.3936465!4d76.5952682!16s%2Fg%2F11g87dly2_!19sChIJPXn8_gmDzzsR6op3c-pijNk?authuser=0&hl=en&rclk=1,"18.3936465,76.59526819999999"
Masjid e Arafat - msjdi `rft,Mosque,"CH6X+34X Masjid e Arafat - msjdi `rft, near Alfalha urdu school, Sanat Nagar, Iqubal Chowk, Latur, Maharashtra 413512","Sanat Nagar, Iqubal Chowk","CH6X+34X, near Alfalha urdu school",Latur,413512,Maharashtra,IN,https://www.google.com/maps/place/Masjid+e+Arafat+-+%D9%85%D8%B3%D8%AC%D8%AF%D9%90+%D8%B9%D8%B1%D9%81%D8%A7%D8%AA%E2%80%AD/data=!4m7!3m6!1s0x3bcf83779e364609:0xf368cc270e2d9f6!8m2!3d18.4102326!4d76.5978612!16s%2Fg%2F11c5_5y1mv!19sChIJCUY2nneDzzsR9tnicMKMNg8?authuser=0&hl=en&rclk=1,"18.4102326,76.5978612"
Masjid-E-Ansar - msjdi nSr,Mosque,"CH4Q+FQJ Masjid-E-Ansar - msjdi nSr, Ansar Colony, Hatte Nagar, Latur, Maharashtra 413512","Ansar Colony, Hatte Nagar",CH4Q+FQJ,Latur,413512,Maharashtra,IN,https://www.google.com/maps/place/Masjid-E-Ansar+-+%D9%85%D8%B3%D8%AC%D8%AF%D9%90+%D8%A7%D9%86%D8%B5%D8%A7%D8%B1%E2%80%AD/data=!4m7!3m6!1s0x3bcf839c0a3bb4df:0x3d4d24905e7c4d06!8m2!3d18.4062078!4d76.5894012!16s%2Fg%2F11g88b6rz3!19sChIJ37Q7CpyDzzsRBk18XpAkTT0?authuser=0&hl=en&rclk=1,"18.4062078,76.5894012"
Masjid-e-Asma - msjdi sm,Mosque,"CH7W+98Q Masjid-e-Asma - msjdi sm, Siddeshwar Mandir Road, Adam Nagar, Barkat Nagar, Hatte Nagar, Latur, Maharashtra 413512","Adam Nagar, Barkat Nagar, Hatte Nagar","CH7W+98Q, Siddeshwar Mandir Road",Latur,413512,Maharashtra,IN,https://www.google.com/maps/place/Masjid-e-Asma+-+%D9%85%D8%B3%D8%AC%D8%AF%D9%90+%D8%A7%D8%B3%D9%85%D8%A7%D8%A1%E2%80%AD/data=!4m7!3m6!1s0x3bcf83786fee56f1:0x18a939ddc653b78c!8m2!3d18.4134551!4d76.59587!16s%2Fg%2F1td7rnhb!19sChIJ8Vbub3iDzzsRjLdTxt05qRg?authuser=0&hl=en&rclk=1,"18.4134551,76.59586999999999"
Masjid-E-Quba,Mosque,"CH3M+FV9 Masjid-E-Quba, Hatte Nagar, Latur, Maharashtra 413512",Hatte Nagar,CH3M+FV9,Latur,413512,Maharashtra,IN,https://www.google.com/maps/place/Masjid-E-Quba/data=!4m7!3m6!1s0x3bcf839daaaaaaab:0x2765a48bbc8fbf10!8m2!3d18.4036675!4d76.5847297!16s%2Fg%2F11btxjfd53!19sChIJq6qqqp2DzzsREL-PvIukZSc?authuser=0&hl=en&rclk=1,"18.403667499999997,76.5847297"
AL NASER MASJID Islampura - l nSr msjd slmpr,Mosque,"9HRV+RRJ AL NASER MASJID Islampura - l nSr msjd slmpr, Anand Nagar, Latur, Maharashtra 413512",Anand Nagar,9HRV+RRJ,Latur,413512,Maharashtra,IN,https://www.google.com/maps/place/AL+NASER+MASJID+Islampura+-+%D8%A7%D9%84+%D9%86%D8%A7%D8%B5%D8%B1+%D9%85%D8%B3%D8%AC%D8%AF+%D8%A7%D8%B3%D9%84%D9%85%D9%BE%D8%B1%D8%A7%E2%80%AD/data=!4m7!3m6!1s0x3bcf83a766f69db3:0x68390cc9f7302a7c!8m2!3d18.392095!4d76.5945004!16s%2Fg%2F11c761rh_n!19sChIJs532ZqeDzzsRfCow98kMOWg?authuser=0&hl=en&rclk=1,"18.392094999999998,76.5945004"
Take Nagar Mosque - ttykh ngr msjd,Mosque,"CH58+J8R Take Nagar Mosque - ttykh ngr msjd, Take Nagar, Deep Jyoti Nagar, Latur, Maharashtra 413531","Take Nagar, Deep Jyoti Nagar",CH58+J8R,Latur,413531,Maharashtra,IN,https://www.google.com/maps/place/Take+Nagar+Mosque+-+%D9%B9%DB%8C%DA%A9+%D9%86%DA%AF%D8%B1+%D9%85%D8%B3%D8%AC%D8%AF%E2%80%AD/data=!4m7!3m6!1s0x3bcf83ee020029f5:0x4319f8a4bd034aa7!8m2!3d18.4091208!4d76.56576!16s%2Fg%2F11bvcvjsbl!19sChIJ9SkAAu6DzzsRp0oDvaT4GUM?authuser=0&hl=en&rclk=1,"18.4091208,76.56576"
Akbari Masjid - khbry msjd,Mosque,"9HQH+QR7 Akbari Masjid - khbry msjd, Akbari Masjid,Hanumant Wadi, Take Nagar, Latur, Maharashtra","Take Nagar, Moti Nagar","9HQH+QR7, Akbari Masjid,Hanumant Wadi",Latur,,Maharashtra,IN,https://www.google.com/maps/place/Akbari+Masjid+-+%D8%A7%DA%A9%D8%A8%D8%B1%DB%8C+%D9%85%D8%B3%D8%AC%D8%AF%E2%80%AD/data=!4m7!3m6!1s0x3bcf831f63093b77:0xc61d432a266823fe!8m2!3d18.3894151!4d76.5795568!16s%2Fg%2F11g20fqwgz!19sChIJdzsJYx-DzzsR_iNoJipDHcY?authuser=0&hl=en&rclk=1,"18.3894151,76.57955679999999"
Hussainiya Masjid (Hsynyh msjd),Mosque,"CH66+5PC Hussainiya Masjid (Hsynyh msjd), Deep Jyoti Nagar, Latur, Maharashtra 413531",Deep Jyoti Nagar,CH66+5PC,Latur,413531,Maharashtra,IN,https://www.google.com/maps/place/Hussainiya+Masjid+%28%D8%AD%D8%B3%DB%8C%D9%86%DB%8C%DB%81+%D9%85%D8%B3%D8%AC%D8%AF%29%E2%80%AD/data=!4m7!3m6!1s0x3bcf83f06abd57bd:0xa23a487bb83a69c!8m2!3d18.4104409!4d76.5617576!16s%2Fg%2F11ckkynxb1!19sChIJvVe9avCDzzsRnKaDu4ekIwo?authuser=0&hl=en&rclk=1,"18.410440899999998,76.56175759999999"
RAZA MASJID ( AHLE SUNNAT WAL JAMAT),Mosque,"CH4P+75G RAZA MASJID ( AHLE SUNNAT WAL JAMAT), Hatte Nagar, Latur, Maharashtra 413512",Hatte Nagar,CH4P+75G,Latur,413512,Maharashtra,IN,https://www.google.com/maps/place/RAZA+MASJID+%28+AHLE+SUNNAT+WAL+JAMAT%29/data=!4m7!3m6!1s0x3bcf838dea5f2a3f:0xb0569bbd1966093b!8m2!3d18.4056857!4d76.585467!16s%2Fg%2F11j8t9syds!19sChIJPypf6o2DzzsROwlmGb2bVrA?authuser=0&hl=en&rclk=1,"18.4056857,76.585467"
Masjid-E-UmarFarukh R.A,Mosque,"9HVG+H9J Masjid-E-UmarFarukh R.A, Mataji Nagar, Moti Nagar, Latur, Maharashtra 413512","Mataji Nagar, Moti Nagar",9HVG+H9J,Latur,413512,Maharashtra,IN,https://www.google.com/maps/place/Masjid-E-UmarFarukh+R.A/data=!4m7!3m6!1s0x3bcf8352c121b4e7:0xb0c7154a77c5044d!8m2!3d18.3939503!4d76.5759024!16s%2Fg%2F11f794h9mr!19sChIJ57QhwVKDzzsRTQTFd0oVx7A?authuser=0&hl=en&rclk=1,"18.3939503,76.57590239999999"
