name,main_category,address,address_ward,address_street,address_city,address_postal_code,address_state,address_country_code,link,coordinates
Jama Masjid,Mosque,"Jama Masjid, Old Delhi, Delhi, 110006","Jama Masjid, Old Delhi",,Delhi,110006,Delhi,IN,https://www.google.com/maps/place/Jama+Masjid/data=!4m7!3m6!1s0x390cfd18df89b215:0xdd57369e29bf9d96!8m2!3d28.6506792!4d77.2334421!16zL20vMDR5emo1!19sChIJFbKJ3xj9DDkRlp2_KZ42V90?authuser=0&hl=en&rclk=1,"28.6506792,77.23344209999999"
Fatehpuri Masjid,Mosque,"Fatehpuri Masjid, 39, Chandni Chowk Rd, Fatehpuri, Chandni Chowk, New Delhi, Delhi, 110006","Fatehpuri, Chandni Chowk","39, Chandni Chowk Rd","New Delhi, Delhi",110006,Delhi,IN,https://www.google.com/maps/place/Fatehpuri+Masjid/data=!4m7!3m6!1s0x390cfd12236c41c7:0x5f3e70ba058095f!8m2!3d28.6566489!4d77.2227706!16s%2Fm%2F0532f6p!19sChIJx0FsIxL9DDkRXwlYoAvn8wU?authuser=0&hl=en&rclk=1,"28.6566489,77.22277059999999"
"Ghausia Masjid, Jasola",Mosque,"Ghausia Masjid, Jasola, 171, Jasola, Jasola Vihar, New Delhi, Delhi 110025","Jasola, Jasola Vihar",171,New Delhi,110025,Delhi,IN,"https://www.google.com/maps/place/Ghausia+Masjid,+Jasola/data=!4m7!3m6!1s0x390ce5c200a37205:0xfebb591e8a3c8619!8m2!3d28.5488829!4d77.2921906!16s%2Fg%2F11nl7bc3f7!19sChIJBXKjAMLlDDkRGYY8ih5Zu_4?authuser=0&hl=en&rclk=1","28.5488829,77.2921906"
Masjid Moth,Mosque,"Masjid Moth, 92, Masjid Moth Rd, South Extension II, Masjid Moth Village, New Delhi, Delhi 110049","South Extension II, Masjid Moth Village","92, Masjid Moth Rd",New Delhi,110049,Delhi,IN,https://www.google.com/maps/place/Masjid+Moth/data=!4m7!3m6!1s0x390ce242799950e9:0xb2f0ba5418b140f8!8m2!3d28.562458!4d77.2176906!16s%2Fm%2F05zxh9f!19sChIJ6VCZeULiDDkR-ECxGFS68LI?authuser=0&hl=en&rclk=1,"28.562458,77.2176906"
Jama Masjid (Shaheen Bagh),Mosque,"Jama Masjid (Shaheen Bagh), 12, Kalindi Kunj Rd, Block B, Jamia Nagar, Jasola, New Delhi, Delhi 110025","Block B, Jamia Nagar, Jasola","12, Kalindi Kunj Rd",New Delhi,110025,Delhi,IN,https://www.google.com/maps/place/Jama+Masjid+%28Shaheen+Bagh%29/data=!4m7!3m6!1s0x390ce41a3d9d581b:0xc7b0e62465b11de9!8m2!3d28.5496905!4d77.3028252!16s%2Fg%2F11g7p2t2hd!19sChIJG1idPRrkDDkR6R2xZSTmsMc?authuser=0&hl=en&rclk=1,"28.549690499999997,77.3028252"
Masjid Mubarak Begum,Mosque,"Masjid Mubarak Begum, 4959, Hauz Qazi Chowk, Bazar Sirkiwalan, Kaccha Pandit Main Bazar, Lal Kuan Bazar, Chandni Chowk, New Delhi, Delhi, 110006","Bazar Sirkiwalan, Kaccha Pandit Main Bazar, Lal Kuan Bazar, Chandni Chowk","4959, Hauz Qazi Chowk","New Delhi, Delhi",110006,Delhi,IN,https://www.google.com/maps/place/Masjid+Mubarak+Begum/data=!4m7!3m6!1s0x390cfd1654f26d27:0x1a2a01ea4e297fd3!8m2!3d28.6497554!4d77.2260268!16s%2Fg%2F11jlq7lcc_!19sChIJJ23yVBb9DDkR038pTuoBKho?authuser=0&hl=en&rclk=1,"28.6497554,77.2260268"
Sabz Masjid,Mosque,"Sabz Masjid, 3571, Lalkuan Bazar Rd, Bazar Sirkiwalan, Lal Kuan Bazar, Chandni Chowk, Delhi, 110006","Bazar Sirkiwalan, Lal Kuan Bazar, Chandni Chowk","3571, Lalkuan Bazar Rd",Delhi,110006,Delhi,IN,https://www.google.com/maps/place/Sabz+Masjid/data=!4m7!3m6!1s0x390cfd16a94877a7:0x7b35bb653cd42e20!8m2!3d28.652163!4d77.223599!16s%2Fm%2F04q247t!19sChIJp3dIqRb9DDkRIC7UPGW7NXs?authuser=0&hl=en&rclk=1,"28.652162999999998,77.223599"
"Jama Masjid, Khadda Colony jm` msjd",Mosque,"Jama Masjid, Khadda Colony jm` msjd, D-202, near by Jama Masjid Gali, Jaitpur Extension Part II, Khadda Colony, Badarpur, New Delhi, Delhi 110044","Jaitpur Extension Part II, Khadda Colony, Badarpur","D-202, near by Jama Masjid Gali",New Delhi,110044,Delhi,IN,"https://www.google.com/maps/place/Jama+Masjid,+Khadda+Colony+%D8%AC%D8%A7%D9%85%D8%B9+%D9%85%D8%B3%D8%AC%D8%AF%E2%80%AD/data=!4m7!3m6!1s0x390ce65a1cc2d345:0x508d72d241ba7c2f!8m2!3d28.5094725!4d77.3384064!16s%2Fg%2F11b_23cdbd!19sChIJRdPCHFrmDDkRL3y6QdJyjVA?authuser=0&hl=en&rclk=1","28.509472499999998,77.3384064"
Masjid Jangal Wali,Mosque,"M674+7HP Masjid Jangal Wali, Rani Jhansi Road, Azad Market Rd, Beri Wala Bagh, New Delhi, Delhi 110006","Beri Wala Bagh, Kishan Ganj","M674+7HP, Rani Jhansi Road, Azad Market Rd","New Delhi, Delhi",110006,Delhi,IN,https://www.google.com/maps/place/Masjid+Jangal+Wali/data=!4m7!3m6!1s0x390cfd77593db671:0x5a37e8931116682b!8m2!3d28.6632219!4d77.2064568!16s%2Fg%2F11b70qvvxr!19sChIJcbY9WXf9DDkRK2gWEZPoN1o?authuser=0&hl=en&rclk=1,"28.6632219,77.2064568"
Masjid Hayat Madarsa Sahabia,Mosque,"F7XW+9R3 Masjid Hayat Madarsa Sahabia, Mehrauli - Badarpur Rd, Mittal Colony, Block RZ H, Pul Pehlad Pur, New Delhi, Faridabad, Delhi 110044","Mittal Colony, Block RZ H, Pul Pehlad Pur","F7XW+9R3, Mehrauli - Badarpur Rd","New Delhi, Faridabad",110044,Delhi,IN,https://www.google.com/maps/place/Masjid+Hayat+Madarsa+Sahabia/data=!4m7!3m6!1s0x390ce6d74f08cf85:0xcf35c38ec0e866ca!8m2!3d28.4983917!4d77.2970623!16s%2Fg%2F12hkbl23n!19sChIJhc8IT9fmDDkRymbowI7DNc8?authuser=0&hl=en&rclk=1,"28.4983917,77.2970623"
Barkatia Masjid msjd brkhtyh,Mosque,"Barkatia Masjid msjd brkhtyh, Shiv Vihar Rd, Vikas Nagar, Deepak Vihar, Uttam Nagar, Delhi, 110059","Vikas Nagar, Deepak Vihar, Uttam Nagar",Shiv Vihar Rd,Delhi,110059,Delhi,IN,https://www.google.com/maps/place/Barkatia+Masjid+%D9%85%D8%B3%D8%AC%D8%AF+%D8%A8%D8%B1%DA%A9%D8%A7%D8%AA%DB%8C%DB%81%E2%80%AD/data=!4m7!3m6!1s0x390d050404a3178f:0xf1d12bad6707917c!8m2!3d28.6470217!4d77.0500458!16s%2Fg%2F11cmr0l2c2!19sChIJjxejBAQFDTkRfJEHZ60r0fE?authuser=0&hl=en&rclk=1,"28.6470217,77.05004579999999"
Nurani Masjid msjd nwrny,Mosque,"Nurani Masjid msjd nwrny, 110062, Block G 12, Block G 1, Talimabad, Sangam Vihar, New Delhi, Delhi 110062","Block G 12, Block G 1, Talimabad, Sangam Vihar",110062,New Delhi,110062,Delhi,IN,https://www.google.com/maps/place/Nurani+Masjid+%D9%85%D8%B3%D8%AC%D8%AF+%D9%86%D9%88%D8%B1%D8%A7%D9%86%DB%8C%E2%80%AD/data=!4m7!3m6!1s0x390ce111696bf857:0xfeca9714a645d6b6!8m2!3d28.5055667!4d77.2560729!16s%2Fg%2F11c5_5fpyv!19sChIJV_hraRHhDDkRttZFphSXyv4?authuser=0&hl=en&rclk=1,"28.5055667,77.25607289999999"
Saeediya Masjid,Mosque,"Saeediya Masjid, 45, New Silampur Gali, Block A, Chauhan Banger, Shahdara, Delhi, 110031","Block A, Chauhan Banger, Shahdara","45, New Silampur Gali",Delhi,110031,Delhi,IN,https://www.google.com/maps/place/Saeediya+Masjid/data=!4m7!3m6!1s0x390cfc61230920b1:0xd4902005e34cb106!8m2!3d28.678415!4d77.2672561!16s%2Fg%2F11c6qcjmhv!19sChIJsSAJI2H8DDkRBrFM4wUgkNQ?authuser=0&hl=en&rclk=1,"28.678414999999998,77.2672561"
Kotla Mosque msjd khwttlh,Mosque,"J76X+9CG Kotla Mosque msjd khwttlh, Kotla Village, Mayur Vihar, New Delhi, Delhi, 110091","Kotla Village, Mayur Vihar",J76X+9CG,"New Delhi, Delhi",110091,Delhi,IN,https://www.google.com/maps/place/Kotla+Mosque+%D9%85%D8%B3%D8%AC%D8%AF+%DA%A9%D9%88%D9%B9%D9%84%DB%81%E2%80%AD/data=!4m7!3m6!1s0x390ce4bd25e39f0f:0xfe2551fd00707f0!8m2!3d28.6109416!4d77.2985798!16s%2Fg%2F12hszwgcl!19sChIJD5_jJb3kDDkR8AcH0B9V4g8?authuser=0&hl=en&rclk=1,"28.6109416,77.2985798"
Puliya Wali Masjid,Mosque,"J6R9+Q48 Puliya Wali Masjid, Main Bazar Rd, Ratan Lal Market, Aram Bagh, Paharganj, New Delhi, Delhi, 110055","Ratan Lal Market, Aram Bagh, Paharganj","J6R9+Q48, Main Bazar Rd","New Delhi, Delhi",110055,Delhi,IN,https://www.google.com/maps/place/Puliya+Wali+Masjid/data=!4m7!3m6!1s0x390cfd3f5dcc4137:0x1ed0072a0c155076!8m2!3d28.6419015!4d77.2178423!16s%2Fg%2F12q4q_hw8!19sChIJN0HMXT_9DDkRdlAVDCoH0B4?authuser=0&hl=en&rclk=1,"28.6419015,77.2178423"
Gausia Masjid (Ishtiyak),Mosque,"Gausia Masjid (Ishtiyak), gali no.24 L block 110080, Sangam Vihar, New Delhi, Delhi 110080","Block L 2, Devli, Sangam Vihar",gali no.24 L block 110080,New Delhi,110080,Delhi,IN,https://www.google.com/maps/place/Gausia+Masjid+%28Ishtiyak%29/data=!4m7!3m6!1s0x390ce1af8789b4d3:0x9a3ff5f69c351894!8m2!3d28.4984758!4d77.2312984!16s%2Fg%2F11g9djgs2m!19sChIJ07SJh6_hDDkRlBg1nPb1P5o?authuser=0&hl=en&rclk=1,"28.498475799999998,77.2312984"
Noorani Masjid nwrny mshjyd. nuraanii msjid,Mosque,"M2VX+99G Noorani Masjid nwrny mshjyd. nuraanii msjid, Gali Number 8, Block Z, Prem Nagar II, Prem Nagar, Delhi, 110086","Block Z, Prem Nagar II, Prem Nagar","M2VX+99G, Gali Number 8",Delhi,110086,Delhi,IN,https://www.google.com/maps/place/Noorani+Masjid+%D9%86%D9%88%D8%B1%D8%A7%D9%86%DB%8C+%D9%85%D8%B4%D8%AC%DB%8C%D8%AF.+%E0%A4%A8%E0%A5%81%E0%A4%B0%E0%A4%BE%E0%A4%A8%E0%A5%80+%E0%A4%AE%E0%A4%B8%E0%A4%9C%E0%A4%BF%E0%A4%A6%E2%80%AD/data=!4m7!3m6!1s0x390d05d6d210ca85:0xc7f34310ea86c42d!8m2!3d28.6934292!4d77.0484676!16s%2Fg%2F11g6mc5pgf!19sChIJhcoQ0tYFDTkRLcSG6hBD88c?authuser=0&hl=en&rclk=1,"28.693429199999997,77.0484676"
Jannatul Firdose Masjid msjd jn@lfrdws,Mosque,"G8J6+H6X Jannatul Firdose Masjid msjd jn@lfrdws, Madanpur Khadar Extension, Block A, Madanpur Khadar, New Delhi, Delhi 110076","Madanpur Khadar Extension, Block A, Madanpur Khadar",G8J6+H6X,New Delhi,110076,Delhi,IN,https://www.google.com/maps/place/Jannatul+Firdose+Masjid+%D9%85%D8%B3%D8%AC%D8%AF+%D8%AC%D9%86%D8%A9%D8%A7%D9%84%D9%81%D8%B1%D8%AF%D9%88%D8%B3%E2%80%AD/data=!4m7!3m6!1s0x390ce698614a56a5:0x1c3fad641cabab20!8m2!3d28.5314784!4d77.3106246!16s%2Fg%2F11dybr1nt3!19sChIJpVZKYZjmDDkRIKurHGStPxw?authuser=0&hl=en&rclk=1,"28.531478399999997,77.3106246"
Gausiya Masjid,Mosque,"Gausiya Masjid, 122, Gali No. 10, New Seelampur, Jafrabad, Shahdara, Delhi, 110053","New Seelampur, Jafrabad, Shahdara","122, Gali No. 10",Delhi,110053,Delhi,IN,https://www.google.com/maps/place/Gausiya+Masjid/data=!4m7!3m6!1s0x390cfc63ceb84969:0x52a9b75ed1d9025e!8m2!3d28.6775577!4d77.2702337!16s%2Fg%2F11c74cy737!19sChIJaUm4zmP8DDkRXgLZ0V63qVI?authuser=0&hl=en&rclk=1,"28.677557699999998,77.27023369999999"
Mosque,Mosque,"M747+V64 Mosque, Pushta Rd, Multani Mohalla, Gandhi Nagar, Shahdara, New Delhi, Delhi, 110031","Multani Mohalla, Gandhi Nagar, Shahdara","M747+V64, Pushta Rd","New Delhi, Delhi",110031,Delhi,IN,https://www.google.com/maps/place/Mosque/data=!4m7!3m6!1s0x390cfcecc3c3a38d:0x1e72f8e84718020c!8m2!3d28.6571357!4d77.2630907!16s%2Fg%2F1jkvzp3j_!19sChIJjaPDw-z8DDkRDAIYR-j4ch4?authuser=0&hl=en&rclk=1,"28.657135699999998,77.26309069999999"
Masjid Nizamia,Mosque,"Masjid Nizamia, Gali Number 4, 110053, Kardam Puri, Sabzi Mandi Old, Delhi","Kardampuri Extn, Kardam Puri, Sabzi Mandi Old","Gali Number 4, 110053",Delhi,,Delhi,IN,https://www.google.com/maps/place/Masjid+Nizamia/data=!4m7!3m6!1s0x390cfc7503a5a4fd:0xf763759b5c823f50!8m2!3d28.6961464!4d77.2838551!16s%2Fg%2F11c2y8m5h1!19sChIJ_aSlA3X8DDkRUD-CXJt1Y_c?authuser=0&hl=en&rclk=1,"28.6961464,77.2838551"
Markaz Masjid,Mosque,"QCWP+W52 Markaz Masjid, Kosi Kalan, Uttar Pradesh 281403",,QCWP+W52,Kosi Kalan,281403,Uttar Pradesh,IN,https://www.google.com/maps/place/Markaz+Masjid/data=!4m7!3m6!1s0x39733c6618d33121:0xb69b9dc8dc20e19!8m2!3d27.7972576!4d77.4353866!16s%2Fg%2F12lv2v32j!19sChIJITHTGGY8czkRGQ7Cjdy5aQs?authuser=0&hl=en&rclk=1,"27.7972576,77.4353866"
Masjid Peeron Wali.,Mosque,"G56M+FRR Masjid Peeron Wali., MB Road Near Outab Minar Metro Station, New Delhi, Delhi 110030","Mittal Garden, Sainik Farm","G56M+FRR, MB Road Near Outab Minar Metro Station",New Delhi,110030,Delhi,IN,https://www.google.com/maps/place/Masjid+Peeron+Wali./data=!4m7!3m6!1s0x390d1e198abd9ec1:0xdbb19552d12b6dd3!8m2!3d28.5112252!4d77.1845169!16s%2Fg%2F11cn8z5txr!19sChIJwZ69ihkeDTkR020r0VKVsds?authuser=0&hl=en&rclk=1,"28.5112252,77.18451689999999"
MASJID KHASTA GUL,Mosque,"MASJID KHASTA GUL, T16353, Goutampuri, Shahdara, Delhi, 110053","Goutampuri, Shahdara",T16353,Delhi,110053,Delhi,IN,https://www.google.com/maps/place/MASJID+KHASTA+GUL/data=!4m7!3m6!1s0x390cfc674ffe69a9:0xf03028dcb171102a!8m2!3d28.6802209!4d77.2642006!16s%2Fg%2F11g8ngh1ss!19sChIJqWn-T2f8DDkRKhBxsdwoMPA?authuser=0&hl=en&rclk=1,"28.6802209,77.2642006"
Jamia masjid delhi,Mosque,"M62M+7MX Jamia masjid delhi, Jama Masjid, Old Delhi, Delhi, 110006","Jama Masjid, Old Delhi",M62M+7MX,Delhi,110006,Delhi,IN,https://www.google.com/maps/place/Jamia+masjid+delhi/data=!4m7!3m6!1s0x390cfdf9aa594345:0xdbfb5c229943975e!8m2!3d28.6507366!4d77.2342448!16s%2Fg%2F11v3h02xv7!19sChIJRUNZqvn9DDkRXpdDmSJc-9s?authuser=0&hl=en&rclk=1,"28.6507366,77.2342448"
Qunaa Wali Masjid,Mosque,"F59M+VJ9 Qunaa Wali Masjid, Chandan Hola, New Delhi, Delhi 110074",Chandan Hola,F59M+VJ9,New Delhi,110074,Delhi,IN,https://www.google.com/maps/place/Qunaa+Wali+Masjid/data=!4m7!3m6!1s0x390d1fdabf34fde1:0x4fef7387aa249da4!8m2!3d28.469673!4d77.1841123!16s%2Fg%2F11b7hnh4ym!19sChIJ4f00v9ofDTkRpJ0kqodz708?authuser=0&hl=en&rclk=1,"28.469673,77.1841123"
Dilkusha Masjid jm` msjd dlkhsh,Mosque,"G5CH+FRC Dilkusha Masjid jm` msjd dlkhsh, Near Police Station, Main Market, Mehrauli, New Delhi, Delhi 110030","Ward Number 4, Mehrauli Village, Mehrauli","G5CH+FRC, Near Police Station, Main Market, Mehrauli",New Delhi,110030,Delhi,IN,https://www.google.com/maps/place/Dilkusha+Masjid+%D8%AC%D8%A7%D9%85%D8%B9+%D9%85%D8%B3%D8%AC%D8%AF+%D8%AF%D9%84%DA%A9%D8%B4%D8%A7%E2%80%AD/data=!4m7!3m6!1s0x390d1e0edb670645:0xf1101808a36c4fcb!8m2!3d28.521199!4d77.179529!16s%2Fg%2F1pty6n9_6!19sChIJRQZn2w4eDTkRy09sowgYEPE?authuser=0&hl=en&rclk=1,"28.521199,77.179529"
Sarai Masjid,Mosque,"QCVQ+85H Sarai Masjid, Old GT Rd, Kosi Kalan, Uttar Pradesh 281403",,"QCVQ+85H, Old GT Rd",Kosi Kalan,281403,Uttar Pradesh,IN,https://www.google.com/maps/place/Sarai+Masjid/data=!4m7!3m6!1s0x39733c6828bc0b9b:0xc2099141f10decf8!8m2!3d27.7933137!4d77.4379881!16s%2Fg%2F11b7kfmr6z!19sChIJmwu8KGg8czkR-OwN8UGRCcI?authuser=0&hl=en&rclk=1,"27.7933137,77.4379881"
Masjid Adda Wali Bisambra,Mosque,"RG6M+FXP Masjid Adda Wali Bisambra, Bishambhara, Uttar Pradesh 281401",,RG6M+FXP,Bishambhara,281401,Uttar Pradesh,IN,https://www.google.com/maps/place/Masjid+Adda+Wali+Bisambra/data=!4m7!3m6!1s0x39733f39a49d311b:0xdef350f7b6e49929!8m2!3d27.8112139!4d77.5349498!16s%2Fg%2F11gdsnx4g4!19sChIJGzGdpDk_czkRKZnktvdQ894?authuser=0&hl=en&rclk=1,"27.8112139,77.53494979999999"
Masjid Mashal Chiyan,Mosque,"Masjid Mashal Chiyan, 2100, Pahari Bhojla Rd, Pahari Bhojla, Sita Ram Bazar, Old Delhi, Delhi, 110006","Pahari Bhojla, Sita Ram Bazar, Old Delhi","2100, Pahari Bhojla Rd",Delhi,110006,Delhi,IN,https://www.google.com/maps/place/Masjid+Mashal+Chiyan/data=!4m7!3m6!1s0x390cfd225b6ed379:0x9d5cccd781f0a815!8m2!3d28.6454716!4d77.232231!16s%2Fg%2F11f1211zsv!19sChIJedNuWyL9DDkRFajwgdfMXJ0?authuser=0&hl=en&rclk=1,"28.6454716,77.232231"
Masjid Badi msjd,Mosque,"Masjid Badi msjd, 893,, Chittli Qabar Bazar Rd, Jama Masjid, Chandni Chowk, New Delhi, Delhi 110006","Bazar Chitli Qabar, Kucha Chelan, Jama Masjid, Chandni Chowk","893,, Chittli Qabar Bazar Rd","New Delhi, Delhi",110006,Delhi,IN,https://www.google.com/maps/place/Masjid+Badi+%D9%85%D8%B3%D8%AC%D8%AF%E2%80%AD/data=!4m7!3m6!1s0x390cfd219cfec1f3:0x93ccacb281d71709!8m2!3d28.645321!4d77.2357133!16s%2Fg%2F12m98gjn5!19sChIJ88H-nCH9DDkRCRfXgbKszJM?authuser=0&hl=en&rclk=1,"28.645321,77.2357133"
Badi Jama Masjid Zakopur,Mosque,"Badi Jama Masjid Zakopur, Village, Zakopur, Tikri Khera, Haryana 121004",,Village,"Zakopur, Tikri Khera",121004,Haryana,IN,https://www.google.com/maps/place/Badi+Jama+Masjid+Zakopur/data=!4m7!3m6!1s0x390cd891a56cc19d:0x266d5ed9f9d605e5!8m2!3d28.3149639!4d77.2096919!16s%2Fg%2F11hbg8q2p3!19sChIJncFspZHYDDkR5QXW-dlebSY?authuser=0&hl=en&rclk=1,"28.3149639,77.2096919"
gosiiyaa msjid,Mosque,"gosiiyaa msjid, 02, New Delhi Main Rd, D Block, Madanpur Khadar, New Delhi, Delhi 110076, New Delhi Main Rd, D Block, Madanpur Khadar, New Delhi, Delhi 110076","D Block, Madanpur Khadar","02, New Delhi Main Rd, D Block, Madanpur Khadar, New Delhi, Delhi 110076, New Delhi Main Rd",New Delhi,110076,Delhi,IN,https://www.google.com/maps/place/%E0%A4%97%E0%A5%8B%E0%A4%B8%E0%A5%80%E0%A4%AF%E0%A4%BE+%E0%A4%AE%E0%A4%B8%E0%A5%8D%E0%A4%9C%E0%A4%BF%E0%A4%A6/data=!4m7!3m6!1s0x390ce69a677df04b:0x404fbe46be663e7f!8m2!3d28.5310436!4d77.317571!16s%2Fg%2F11g6rfnfc8!19sChIJS_B9Z5rmDDkRfz5mvka-T0A?authuser=0&hl=en&rclk=1,"28.5310436,77.317571"
Shahi Masjid,Mosque,"QCVQ+497 Shahi Masjid, Kosi Kalan, Uttar Pradesh 281403",,QCVQ+497,Kosi Kalan,281403,Uttar Pradesh,IN,https://www.google.com/maps/place/Shahi+Masjid/data=!4m7!3m6!1s0x39733c428118d23d:0x7cfd40a4a95e7300!8m2!3d27.7927827!4d77.4384236!16s%2Fg%2F12mkw97c9!19sChIJPdIYgUI8czkRAHNeqaRA_Xw?authuser=0&hl=en&rclk=1,"27.7927827,77.4384236"
Ek Burj Wali Masjid,Mosque,"Ek Burj Wali Masjid, 1285, pahari imli New, Sita Ram Bazar, Chandni Chowk, New Delhi, Delhi 110006","Sita Ram Bazar, Chandni Chowk","1285, pahari imli New","New Delhi, Delhi",110006,Delhi,IN,https://www.google.com/maps/place/Ek+Burj+Wali+Masjid/data=!4m7!3m6!1s0x390cfd22798933e9:0x952ef97cdf0d7140!8m2!3d28.6473909!4d77.2324918!16s%2Fg%2F11ddx07xmx!19sChIJ6TOJeSL9DDkRQHEN33z5LpU?authuser=0&hl=en&rclk=1,"28.647390899999998,77.23249179999999"
"Shahi Masjid, Tughlaqi Masjid",Mosque,"CGPP+9CP Shahi Masjid, Tughlaqi Masjid, Kasna Village, Greater Noida, Uttar Pradesh 201310",Kasna Village,CGPP+9CP,Greater Noida,201310,Uttar Pradesh,IN,"https://www.google.com/maps/place/Shahi+Masjid,+Tughlaqi+Masjid/data=!4m7!3m6!1s0x390cc1fd567656b1:0x3495ea54a861ad84!8m2!3d28.4359502!4d77.5360903!16s%2Fg%2F11rh816jjf!19sChIJsVZ2Vv3BDDkRhK1hqFTqlTQ?authuser=0&hl=en&rclk=1","28.435950199999997,77.5360903"
shhiidii msjid,Mosque,"shhiidii msjid, New Delhi, 309, Tyagi Park, Mundka, Delhi, 110041","Tyagi Park, Mundka","New Delhi, 309",Delhi,110041,Delhi,IN,https://www.google.com/maps/place/%E0%A4%B6%E0%A4%B9%E0%A5%80%E0%A4%A6%E0%A5%80+%E0%A4%AE%E0%A4%B8%E0%A5%8D%E0%A4%9C%E0%A4%BF%E0%A4%A6/data=!4m7!3m6!1s0x390d05f2c2deb825:0x2d7d2270444c0608!8m2!3d28.679862!4d77.027655!16s%2Fg%2F11ptshdj8h!19sChIJJbjewvIFDTkRCAZMRHAifS0?authuser=0&hl=en&rclk=1,"28.679862,77.027655"
Idgaah,Mosque,"RC3M+43R Idgaah, Uttar Pradesh 281403",,RC3M+43R,,281403,Uttar Pradesh,IN,https://www.google.com/maps/place/Idgaah/data=!4m7!3m6!1s0x39733c64deeb4feb:0x52622f12fa82faf3!8m2!3d27.8028696!4d77.4326384!16s%2Fg%2F12lry5k11!19sChIJ60_r3mQ8czkR8_qC-hIvYlI?authuser=0&hl=en&rclk=1,"27.802869599999998,77.4326384"
Chhoti Masjid,Mosque,"5462+XHW Chhoti Masjid, Nawabgarh, Nuh, Haryana 122103",Nawabgarh,5462+XHW,Nuh,,Haryana,IN,https://www.google.com/maps/place/Chhoti+Masjid/data=!4m7!3m6!1s0x390d2f8f13d9f7bd:0x6f87bae86378578c!8m2!3d28.1624846!4d77.1014469!16s%2Fg%2F11f62t8fwq!19sChIJvffZE48vDTkRjFd4Y-i6h28?authuser=0&hl=en&rclk=1,"28.1624846,77.1014469"
Masjid Sanauji,Mosque,"Masjid Sanauji, Shop No. 1630, Lal Kuan, Lalkuan Bazar Rd, Baradari, Chandni Chowk, New Delhi, Delhi 110006","Bazar Sirkiwalan, Baradari, Chandni Chowk","Shop No. 1630, Lal Kuan, Lalkuan Bazar Rd","New Delhi, Delhi",110006,Delhi,IN,https://www.google.com/maps/place/Masjid+Sanauji/data=!4m7!3m6!1s0x390cfd13fe3ea72d:0x27ea23bc5f650202!8m2!3d28.6529317!4d77.2232485!16s%2Fg%2F12hplq4pp!19sChIJLac-_hP9DDkRAgJlX7wj6ic?authuser=0&hl=en&rclk=1,"28.6529317,77.2232485"
Mosque msjd,Mosque,"Mosque msjd, 3696, Mori Gate, New Delhi, Delhi 110006",Mori Gate,3696,"New Delhi, Delhi",110006,Delhi,IN,https://www.google.com/maps/place/Mosque+%D9%85%D8%B3%D8%AC%D8%AF%E2%80%AD/data=!4m7!3m6!1s0x390cfd0c79fa6f11:0x326ac233054d2efa!8m2!3d28.6635017!4d77.2212005!16s%2Fg%2F12lkq2186!19sChIJEW_6eQz9DDkR-i5NBTPCajI?authuser=0&hl=en&rclk=1,"28.663501699999998,77.2212005"
Madina Masjid Chharora Colony,Mosque,"5X65+Q9W Madina Masjid Chharora Colony, MDR132, Silkhoh, Haryana 122015",,"5X65+Q9W, MDR132",Silkhoh,122015,Haryana,IN,https://www.google.com/maps/place/Madina+Masjid+Chharora+Colony/data=!4m7!3m6!1s0x390d317354317ba3:0xbd00dd02febef236!8m2!3d28.1619816!4d76.9584464!16s%2Fg%2F11f15cy1pt!19sChIJo3sxVHMxDTkRNvK-_gLdAL0?authuser=0&hl=en&rclk=1,"28.161981599999997,76.9584464"
Gosiya Masjid msjd Gwthyh,Mosque,"Gosiya Masjid msjd Gwthyh, Dmrc Staff Quarters Shastri Park Gosiya Masjid, Metro Vihar, Shastri Park, Shahdara, New Delhi, Delhi, 110053","Metro Vihar, Shastri Park, Shahdara",Dmrc Staff Quarters Shastri Park Gosiya Masjid,"New Delhi, Delhi",110053,Delhi,IN,https://www.google.com/maps/place/Gosiya+Masjid+%D9%85%D8%B3%D8%AC%D8%AF+%D8%BA%D9%88%D8%AB%DB%8C%D9%87%E2%80%AD/data=!4m7!3m6!1s0x390cfcf78954d34b:0xbcdda649271d1b79!8m2!3d28.6707658!4d77.2523782!16s%2Fg%2F1tlmlq9w!19sChIJS9NUiff8DDkReRsdJ0mm3bw?authuser=0&hl=en&rclk=1,"28.670765799999998,77.2523782"
Jama Masjid Saray Sahi( jaamaa msjid chaataa),Mosque,"PGF4+RGF Jama Masjid Saray Sahi( jaamaa msjid chaataa), Chhata, Uttar Pradesh 281401",,PGF4+RGF,Chhata,281401,Uttar Pradesh,IN,https://www.google.com/maps/place/Jama+Masjid+Saray+Sahi%28+%E0%A4%9C%E0%A4%BE%E0%A4%AE%E0%A4%BE+%E0%A4%AE%E0%A4%B8%E0%A5%8D%E0%A4%9C%E0%A4%BF%E0%A4%A6+%E0%A4%9B%E0%A4%BE%E0%A4%A4%E0%A4%BE%29/data=!4m7!3m6!1s0x39731549f9662009:0xfbdbf4d1afd0053f!8m2!3d27.724552!4d77.5062829!16s%2Fg%2F11gznrs8pn!19sChIJCSBm-UkVczkRPwXQr9H02_s?authuser=0&hl=en&rclk=1,"27.724552,77.5062829"
Qureshian Masjid Shahpur,Mosque,"WG26+PW9 Qureshian Masjid Shahpur, Shahpur Khadar, Uttar Pradesh 281403",,WG26+PW9,Shahpur Khadar,,Uttar Pradesh,IN,https://www.google.com/maps/place/Qureshian+Masjid+Shahpur/data=!4m7!3m6!1s0x397339658c762be3:0xecec89e14321e593!8m2!3d27.9017798!4d77.5123549!16s%2Fg%2F11ff5k017w!19sChIJ4yt2jGU5czkRk-UhQ-GJ7Ow?authuser=0&hl=en&rclk=1,"27.9017798,77.51235489999999"
Ghosiyan Masjid,Mosque,"J6XF+928 Ghosiyan Masjid, Garstin Baston Rd, Gali Sakko Wali, Shah Ganj, Old Delhi, New Delhi, Delhi, 110006","Gali Sakko Wali, Shah Ganj, Old Delhi","J6XF+928, Garstin Baston Rd","New Delhi, Delhi",110006,Delhi,IN,https://www.google.com/maps/place/Ghosiyan+Masjid/data=!4m7!3m6!1s0x390cfd19cb4fdef5:0x5a233f6c05fd37ea!8m2!3d28.6484192!4d77.2225897!16s%2Fg%2F11g6bkbkd_!19sChIJ9d5Pyxn9DDkR6jf9BWw_I1o?authuser=0&hl=en&rclk=1,"28.6484192,77.2225897"
Mosque msjd,Mosque,"J76X+W9R Mosque msjd, New, Kotla Village, Mayur Vihar, New Delhi, Delhi 110091","Kotla Village, Mayur Vihar","J76X+W9R, New","New Delhi, Delhi",110091,Delhi,IN,https://www.google.com/maps/place/Mosque+%D9%85%D8%B3%D8%AC%D8%AF%E2%80%AD/data=!4m7!3m6!1s0x390ce4bcc9c6272b:0x172c875eb9dd78e2!8m2!3d28.612373!4d77.2984052!16s%2Fg%2F11c3182y_w!19sChIJKyfGybzkDDkR4njduV6HLBc?authuser=0&hl=en&rclk=1,"28.612372999999998,77.29840519999999"
Qaziyon Ki Masjid msjd qDywN khy,Mosque,"Qaziyon Ki Masjid msjd qDywN khy, 1091/1, Ambawatta Complex, Internal Path, Mehrauli Village, Mehrauli, New Delhi, Delhi 110030","Mehrauli Village, Mehrauli","1091/1, Ambawatta Complex, Internal Path",New Delhi,110030,Delhi,IN,https://www.google.com/maps/place/Qaziyon+Ki+Masjid+%D9%85%D8%B3%D8%AC%D8%AF+%D9%82%D8%A7%D8%B6%DB%8C%D9%88%DA%BA+%DA%A9%DB%8C%E2%80%AD/data=!4m7!3m6!1s0x390d1e08ca8810ed:0x3b88df5382ea5830!8m2!3d28.52261!4d77.181538!16s%2Fg%2F11gfd8b5cs!19sChIJ7RCIyggeDTkRMFjqglPfiDs?authuser=0&hl=en&rclk=1,"28.52261,77.181538"
Noori Maszid (badi masjid),Mosque,"J27C+HG4 Noori Maszid (badi masjid), Nand Vihar, Sector 16A, Dwarka, Delhi, 110078","Nand Vihar, Sector 16A, Dwarka",J27C+HG4,Delhi,110078,Delhi,IN,https://www.google.com/maps/place/Noori+Maszid+%28badi+masjid%29/data=!4m7!3m6!1s0x390d05bf275b70e9:0x9f51b66f707a87d6!8m2!3d28.6138779!4d77.021329!16s%2Fg%2F11pdxz9qp3!19sChIJ6XBbJ78FDTkR1od6cG-2UZ8?authuser=0&hl=en&rclk=1,"28.6138779,77.021329"
Baghwali Masjid msjd bG wly,Mosque,"Baghwali Masjid msjd bG wly, 785, Nicholson Rd, Kashmere Gate, New Delhi, Delhi 110006","Ganda Nala Bazar, Kashmere Gate","785, Nicholson Rd","New Delhi, Delhi",110006,Delhi,IN,https://www.google.com/maps/place/Baghwali+Masjid+%D9%85%D8%B3%D8%AC%D8%AF+%D8%A8%D8%A7%D8%BA+%D9%88%D8%A7%D9%84%DB%8C%E2%80%AD/data=!4m7!3m6!1s0x390cfd092767785b:0xd4966cf4d21cbda8!8m2!3d28.6653187!4d77.2261277!16s%2Fg%2F12llwbr4n!19sChIJW3hnJwn9DDkRqL0c0vRsltQ?authuser=0&hl=en&rclk=1,"28.6653187,77.22612769999999"
khastagul Masjid,Mosque,"M7X5+VPJ khastagul Masjid, Street No. 17, Block C, Goutampuri, Shahdara, Delhi, 110053","Block C, Goutampuri, Shahdara","M7X5+VPJ, Street No. 17",Delhi,110053,Delhi,IN,https://www.google.com/maps/place/khastagul+Masjid/data=!4m7!3m6!1s0x390cfc3ee7e64d6b:0x2eaf347ee8a2fd14!8m2!3d28.6997085!4d77.2592707!16s%2Fg%2F11f2w6w5kj!19sChIJa03m5z78DDkRFP2i6H40ry4?authuser=0&hl=en&rclk=1,"28.6997085,77.2592707"
Mosque,Mosque,"2H35+MMQ Mosque, Narvari, Uttar Pradesh 202165",,2H35+MMQ,Narvari,202165,Uttar Pradesh,IN,https://www.google.com/maps/place/Mosque/data=!4m7!3m6!1s0x397336024afd3835:0x66eb75f1f504f5c5!8m2!3d28.004215!4d77.5592486!16s%2Fg%2F11fxqt9xw7!19sChIJNTj9SgI2czkRxfUE9fF162Y?authuser=0&hl=en&rclk=1,"28.004215,77.55924859999999"
Masjid,Mosque,"H77Q+868 Masjid, Okhla Village, Okhla, New Delhi, Delhi 110025","Okhla Village, Okhla",H77Q+868,New Delhi,110025,Delhi,IN,https://www.google.com/maps/place/Masjid/data=!4m7!3m6!1s0x390ce47512f7aa2b:0x544337a9b9e5d7a2!8m2!3d28.5632814!4d77.2880932!16s%2Fg%2F11gbtpj5td!19sChIJK6r3EnXkDDkRotfluak3Q1Q?authuser=0&hl=en&rclk=1,"28.563281399999997,77.28809319999999"
Ishaq Masjid,Mosque,"Ishaq Masjid, Ishaq Masjid Wali Gali, Block C, Sarai Kale Khan, New Delhi, Delhi 110013","Block C, Sarai Kale Khan",Ishaq Masjid Wali Gali,New Delhi,110013,Delhi,IN,https://www.google.com/maps/place/Ishaq+Masjid/data=!4m7!3m6!1s0x390ce376f8a80f59:0x43d242dbd3376818!8m2!3d28.5849571!4d77.2565889!16s%2Fg%2F11q2tx_6x1!19sChIJWQ-o-HbjDDkRGGg309tC0kM?authuser=0&hl=en&rclk=1,"28.5849571,77.2565889"
Masjid Noorul Islam(chotti masjid),Mosque,"G8GH+84X Masjid Noorul Islam(chotti masjid), Madanpur Khadar Phase 3, Madanpur Khadar, New Delhi, Delhi 110076","Madanpur Khadar Phase 3, Madanpur Khadar",G8GH+84X,New Delhi,110076,Delhi,IN,https://www.google.com/maps/place/Masjid+Noorul+Islam%28chotti+masjid%29/data=!4m7!3m6!1s0x390ce71a1a382a2f:0xf70170af0a005edc!8m2!3d28.5258612!4d77.3278717!16s%2Fg%2F11gmyh4_c2!19sChIJLyo4GhrnDDkR3F4ACq9wAfc?authuser=0&hl=en&rclk=1,"28.525861199999998,77.3278717"
Kanija masjid,Mosque,"Kanija masjid, C-162, Street Number 9/3, Shiv Mandir Marg, Maujpur, Delhi, 110053","Maujpur, Shahdara","C-162, Street Number 9/3, Shiv Mandir Marg",Delhi,110053,Delhi,IN,https://www.google.com/maps/place/Kanija+masjid/data=!4m7!3m6!1s0x390cfd0122c7a6a3:0xaa6de10f0dcff6c5!8m2!3d28.6873469!4d77.2707536!16s%2Fg%2F11fp3201_c!19sChIJo6bHIgH9DDkRxfbPDQ_hbao?authuser=0&hl=en&rclk=1,"28.687346899999998,77.27075359999999"
Ijaba Masjid,Mosque,"Ijaba Masjid, 1489/16, Block D, Chand Vihar, New Mustafabad, Delhi, 110094","Block D, Chand Vihar, New Mustafabad",1489/16,Delhi,110094,Delhi,IN,https://www.google.com/maps/place/Ijaba+Masjid/data=!4m7!3m6!1s0x390cfd4112cff819:0x124578cf76e8540b!8m2!3d28.7086594!4d77.2713446!16s%2Fg%2F11j08711wr!19sChIJGfjPEkH9DDkRC1Tods94RRI?authuser=0&hl=en&rclk=1,"28.7086594,77.27134459999999"
Mr.SAHEEM MALIK,Mosque,"Mr.SAHEEM MALIK, Gali no. 3 - Tirpal Factory Mustafabad, near Ayisha masjid, 25 Futa Rd, near by Aisha Masjid, chowk, Delhi 110094","Shakti Vihar, Old Mustafabad, chowk","Gali no. 3 - Tirpal Factory Mustafabad, near Ayisha masjid, 25 Futa Rd, near by Aisha Masjid",Delhi,110094,Delhi,IN,https://www.google.com/maps/place/Mr.SAHEEM+MALIK/data=!4m7!3m6!1s0x390cfd9a44cd4997:0xffdc8860c53e3f2b!8m2!3d28.7159667!4d77.272238!16s%2Fg%2F11h3cwgc8y!19sChIJl0nNRJr9DDkRKz8-xWCI3P8?authuser=0&hl=en&rclk=1,"28.7159667,77.272238"
Ishaq Masjid,Mosque,"GCMQ+W5V Ishaq Masjid, Jalpura, Greater Noida, Uttar Pradesh 201306",Jalpura,GCMQ+W5V,Greater Noida,201306,Uttar Pradesh,IN,https://www.google.com/maps/place/Ishaq+Masjid/data=!4m7!3m6!1s0x390ce944cfc267ef:0x99aeab8220b21ddd!8m2!3d28.5348681!4d77.4379284!16s%2Fg%2F11rrncs1d9!19sChIJ72fCz0TpDDkR3R2yIIKrrpk?authuser=0&hl=en&rclk=1,"28.534868099999997,77.43792839999999"
Masjid,Mosque,"M647+7CW Masjid, Narain Market, Sadar Bazaar, New Delhi, Delhi, 110006","Narain Market, Sadar Bazaar",M647+7CW,"New Delhi, Delhi",110006,Delhi,IN,https://www.google.com/maps/place/Masjid/data=!4m7!3m6!1s0x390cfde8cbf21c77:0x8550d15998f1660d!8m2!3d28.6557316!4d77.2135821!16s%2Fg%2F11gx_wrsm_!19sChIJdxzyy-j9DDkRDWbxmFnRUIU?authuser=0&hl=en&rclk=1,"28.6557316,77.2135821"
Noorani Mosque msjd,Mosque,"J6X9+264 Noorani Mosque msjd, Ram Nagar Market, Prem Nagar, Paharganj, New Delhi, Delhi, 110006","Ram Nagar Market, Prem Nagar, Paharganj",J6X9+264,"New Delhi, Delhi",110006,Delhi,IN,https://www.google.com/maps/place/Noorani+Mosque+%D9%85%D8%B3%D8%AC%D8%AF%E2%80%AD/data=!4m7!3m6!1s0x390cfd15484b7eeb:0xa62a930e2393d479!8m2!3d28.6475072!4d77.218065!16s%2Fg%2F11gdm60sn2!19sChIJ635LSBX9DDkRedSTIw6TKqY?authuser=0&hl=en&rclk=1,"28.6475072,77.218065"
Masjid,Mosque,"Q7JJ+7WC Masjid, Pavi Sadakpur, Uttar Pradesh 201102",,Q7JJ+7WC,Pavi Sadakpur,201102,Uttar Pradesh,IN,https://www.google.com/maps/place/Masjid/data=!4m7!3m6!1s0x390cff3247b3c4d7:0xf1b7407f946dd8cc!8m2!3d28.7806806!4d77.2822504!16s%2Fg%2F11ggz8tfhy!19sChIJ18SzRzL_DDkRzNhtlH9At_E?authuser=0&hl=en&rclk=1,"28.7806806,77.2822504"
rjaa msj'id,Mosque,"rjaa msj'id, Meena nagar, Kosi Kalan, Uttar Pradesh 281403",,Meena nagar,Kosi Kalan,281403,Uttar Pradesh,IN,https://www.google.com/maps/place/%E0%A4%B0%E0%A4%9C%E0%A4%BE+%E0%A4%AE%E0%A4%B8%E0%A5%8D%E0%A4%9C%E0%A4%BC%E0%A4%BF%E0%A4%A6/data=!4m7!3m6!1s0x39733d6cd74981c9:0x3b78ed189ed0e618!8m2!3d27.7873343!4d77.4487076!16s%2Fg%2F11j1121xxs!19sChIJyYFJ12w9czkRGObQnhjteDs?authuser=0&hl=en&rclk=1,"27.787334299999998,77.44870759999999"
Masjid,Mosque,"Q6MJ+5H5 Masjid, Badarpur, Madanpur Khadar, New Delhi, 110084",Madanpur Khadar,"Q6MJ+5H5, Badarpur","New Delhi, Delhi",110084,Delhi,IN,https://www.google.com/maps/place/Masjid/data=!4m7!3m6!1s0x390cffb780460377:0x9fe224e9c653e965!8m2!3d28.7828891!4d77.2314704!16s%2Fg%2F11qn790lvq!19sChIJdwNGgLf_DDkRZelTxukk4p8?authuser=0&hl=en&rclk=1,"28.7828891,77.23147039999999"
Noorani Masjid Chhata,Mosque,"PGF3+PRC Noorani Masjid Chhata, Chhata Rural, Chhata, Uttar Pradesh 281401",,PGF3+PRC,"Chhata Rural, Chhata",281401,Uttar Pradesh,IN,https://www.google.com/maps/place/Noorani+Masjid+Chhata/data=!4m7!3m6!1s0x39731530f3da68a3:0xf9a14d41801ed0ae!8m2!3d27.7243174!4d77.5045034!16s%2Fg%2F11h6t956mw!19sChIJo2ja8zAVczkRrtAegEFNofk?authuser=0&hl=en&rclk=1,"27.7243174,77.50450339999999"
Khursheed Masjid,Mosque,"Khursheed Masjid, D 17, Thokar No 8, Block C, Jamia Nagar, Okhla, New Delhi, Delhi 110025","Thokar No 8, Block C, Jamia Nagar, Okhla",D 17,New Delhi,110025,Delhi,IN,https://www.google.com/maps/place/Khursheed+Masjid/data=!4m7!3m6!1s0x390ce526eeb26a01:0x4942915bfad8187!8m2!3d28.5476974!4d77.3006104!16s%2Fg%2F11j97xp9l9!19sChIJAWqy7iblDDkRh4GtvxUplAQ?authuser=0&hl=en&rclk=1,"28.547697399999997,77.3006104"
Noori Masjid,Mosque,"Noori Masjid, S286, Block S, Brahampuri, Shahdara, Delhi, 110053","Block S, Brahampuri, Shahdara",S286,Delhi,110053,Delhi,IN,https://www.google.com/maps/place/Noori+Masjid/data=!4m7!3m6!1s0x390cfd49000e16b7:0x7fdd492a359ff0ad!8m2!3d28.68057!4d77.2665461!16s%2Fg%2F11rc9rdr_1!19sChIJtxYOAEn9DDkRrfCfNSpJ3X8?authuser=0&hl=en&rclk=1,"28.68057,77.2665461"
Shekhon Ki Masjid,Mosque,"5JRQ+8MW Shekhon Ki Masjid, Rasoolpur kalan, Bastoi Sikri, Uttar Pradesh 243638",,5JRQ+8MW,"Rasoolpur kalan, Bastoi Sikri",243638,Uttar Pradesh,IN,https://www.google.com/maps/place/Shekhon+Ki+Masjid/data=!4m7!3m6!1s0x3974d53b511480e3:0x3606c67de3ecf762!8m2!3d28.1908571!4d78.6391957!16s%2Fg%2F11fct1zk7t!19sChIJ44AUUTvVdDkRYvfs433GBjY?authuser=0&hl=en&rclk=1,"28.1908571,78.6391957"
Masjid,Mosque,"Masjid, 242, Masjid Jheel Pio, Near ITO metro GateNo.3, Bahadur Shah Zafar Marg, Balmiki Basti, Vikram Nagar, Delhi, 110002","Bahadur Shah Zafar Marg, Balmiki Basti, Vikram Nagar","242, Masjid Jheel Pio, Near ITO metro GateNo.3, Bahadur Shah Zafar Marg",Delhi,110002,Delhi,IN,https://www.google.com/maps/place/Masjid/data=!4m7!3m6!1s0x390cfd441769149d:0xa1929f1b4f5921d6!8m2!3d28.6298914!4d77.2415098!16s%2Fg%2F11s2n38r9b!19sChIJnRRpF0T9DDkR1iFZTxufkqE?authuser=0&hl=en&rclk=1,"28.629891399999998,77.2415098"
Gosiyan masjid msjd,Mosque,"M6C3+6MM Gosiyan masjid msjd, Arya Pura, Sabzi Mandi Old, Delhi, 110007","Arya Pura, Sabzi Mandi Old",M6C3+6MM,Delhi,110007,Delhi,IN,https://www.google.com/maps/place/Gosiyan+masjid+%D9%85%D8%B3%D8%AC%D8%AF%E2%80%AD/data=!4m7!3m6!1s0x390cfd5ef95c48f9:0x4f3b43266a74c420!8m2!3d28.6705759!4d77.2041848!16s%2Fg%2F11g4db0xfq!19sChIJ-Uhc-V79DDkRIMR0aiZDO08?authuser=0&hl=en&rclk=1,"28.6705759,77.2041848"
Old Mugal Masjid,Mosque,"J6X9+P3V Old Mugal Masjid, Qutab Rd, Ram Nagar Market, Aram Nagar, Paharganj, New Delhi, Delhi, 110055","Ram Nagar Market, Aram Nagar, Paharganj","J6X9+P3V, Qutab Rd","New Delhi, Delhi",110055,Delhi,IN,https://www.google.com/maps/place/Old+Mugal+Masjid/data=!4m7!3m6!1s0x390cfd152b1b0125:0x49e032c4a3927074!8m2!3d28.6493546!4d77.2176682!16s%2Fg%2F11ggw008kv!19sChIJJQEbKxX9DDkRdHCSo8Qy4Ek?authuser=0&hl=en&rclk=1,"28.6493546,77.21766819999999"
Makka Masjid,Mosque,"QCWM+QGC Makka Masjid, Unnamed Road, Kosi Kalan, Uttar Pradesh 281403",,"QCWM+QGC, Unnamed Road",Kosi Kalan,281403,Uttar Pradesh,IN,https://www.google.com/maps/place/Makka+Masjid/data=!4m7!3m6!1s0x39733d2f85d03279:0x55ab50a7ec960965!8m2!3d27.7969414!4d77.4337552!16s%2Fg%2F11jkn5y_sk!19sChIJeTLQhS89czkRZQmW7KdQq1U?authuser=0&hl=en&rclk=1,"27.796941399999998,77.4337552"
Kothi wali Masjid,Mosque,"X8P9+2JX Kothi wali Masjid, King Rd, Basaud, Uttar Pradesh 250601",,"X8P9+2JX, King Rd",Basaud,250601,Uttar Pradesh,IN,https://www.google.com/maps/place/Kothi+wali+Masjid/data=!4m7!3m6!1s0x390c51f9daf3c30f:0xf46c7e33d7ee604d!8m2!3d28.9851095!4d77.3191042!16s%2Fg%2F11qnk7jt1s!19sChIJD8Pz2vlRDDkRTWDu1zN-bPQ?authuser=0&hl=en&rclk=1,"28.9851095,77.3191042"
Talab shahi majid (RIHAN),Mosque,"Talab shahi majid (RIHAN), 2800, nikasa, talab shahi mosque, Kosi Kalan, Uttar Pradesh 281403",,"2800, nikasa, talab shahi mosque",Kosi Kalan,281403,Uttar Pradesh,IN,https://www.google.com/maps/place/Talab+shahi+majid+%28RIHAN%29/data=!4m7!3m6!1s0x39733da1feeb0cdb:0x3e96106fa208ba96!8m2!3d27.7961881!4d77.4351949!16s%2Fg%2F11j78j7h3t!19sChIJ2wzr_qE9czkRlroIom8Qlj4?authuser=0&hl=en&rclk=1,"27.7961881,77.4351949"
JAMA MASJID GARHI SAHAB NAGAR JATWARI,Mosque,"QHM4+8FG JAMA MASJID GARHI SAHAB NAGAR JATWARI, Kosi Kalan - Shergarh Rd, Guheta 10 Biswa, Jatwari, Uttar Pradesh 281404",,"QHM4+8FG, Kosi Kalan - Shergarh Rd","Guheta 10 Biswa, Jatwari",,Uttar Pradesh,IN,https://www.google.com/maps/place/JAMA+MASJID+GARHI+SAHAB+NAGAR+JATWARI/data=!4m7!3m6!1s0x39733f63fc0bae07:0x11917e944a805ffd!8m2!3d27.783306!4d77.5562135!16s%2Fg%2F11smct7l0z!19sChIJB64L_GM_czkR_V-ASpR-kRE?authuser=0&hl=en&rclk=1,"27.783306,77.5562135"
Kothi Wali Masjid,Mosque,"V7FV+2G3 Kothi Wali Masjid, MDR131, Indana, Haryana 121106",,"V7FV+2G3, MDR131",Indana,121106,Haryana,IN,https://www.google.com/maps/place/Kothi+Wali+Masjid/data=!4m7!3m6!1s0x397325df68be5d2f:0x36ed75e4c10be068!8m2!3d27.8725204!4d77.2938123!16s%2Fg%2F11n73k1gzv!19sChIJL12-aN8lczkRaOALweR17TY?authuser=0&hl=en&rclk=1,"27.8725204,77.2938123"
Masjid/prayer room,Mosque,"H76F+7H6 Masjid/prayer room, Fortis Escorts Hospital Sukhdev metro station, Delhi",New Friends Colony,"H76F+7H6, Fortis Escorts Hospital Sukhdev metro station","Delhi, New Delhi",,Delhi,IN,https://www.google.com/maps/place/Masjid%2Fprayer+room/data=!4m7!3m6!1s0x390ce3c02d7da811:0x388ca404d02fd2b3!8m2!3d28.5606583!4d77.2739036!16s%2Fg%2F11rj_njv5d!19sChIJEah9LcDjDDkRs9Iv0ASkjDg?authuser=0&hl=en&rclk=1,"28.5606583,77.2739036"
Sunni Gaushia Masjid,Mosque,"J2G4+2V6 Sunni Gaushia Masjid, Jai Vihar, Baprola, Delhi, 110043","Jai Vihar, Baprola",J2G4+2V6,Delhi,110043,Delhi,IN,https://www.google.com/maps/place/Sunni+Gaushia+Masjid/data=!4m7!3m6!1s0x390d0f38f1f1298d:0x71ca81b3161c1c21!8m2!3d28.6251837!4d77.0071325!16s%2Fg%2F11rws0qt_m!19sChIJjSnx8TgPDTkRIRwcFrOBynE?authuser=0&hl=en&rclk=1,"28.625183699999997,77.0071325"
Qureshian Masjid,Mosque,"Q73Q+2H4 Qureshian Masjid, Gali Number 1, Loni Dehat, Uttar Pradesh 201102",Loni Dehat,"Q73Q+2H4, Gali Number 1",,201102,Uttar Pradesh,IN,https://www.google.com/maps/place/Qureshian+Masjid/data=!4m7!3m6!1s0x390cf9d82e5f0c3b:0x539af06219ba6aeb!8m2!3d28.7525076!4d77.2889607!16s%2Fg%2F11rfp3hn45!19sChIJOwxfLtj5DDkR62q6GWLwmlM?authuser=0&hl=en&rclk=1,"28.752507599999998,77.28896069999999"
"Isha masjid, Pavi",Mosque,"Q7GM+XXP Isha masjid, Pavi, Om Sai City, Pavi Sadakpur, Uttar Pradesh 201102",Om Sai City,Q7GM+XXP,Pavi Sadakpur,201102,Uttar Pradesh,IN,"https://www.google.com/maps/place/Isha+masjid,+Pavi/data=!4m7!3m6!1s0x390cff28774477f7:0xb012b1fd482103f2!8m2!3d28.7774615!4d77.2849603!16s%2Fg%2F11mqvrj29_!19sChIJ93dEdyj_DDkR8gMhSP2xErA?authuser=0&hl=en&rclk=1","28.777461499999998,77.2849603"
Mandi wali masjid Nikasa,Mosque,"QCWP+C38 Mandi wali masjid Nikasa, Kosi Kalan, Uttar Pradesh",,"QCWP+C38, Mandi wali masjid Nikasa",Kosi Kalan,,Uttar Pradesh,IN,https://www.google.com/maps/place/Mandi+wali+masjid+Nikasa/data=!4m7!3m6!1s0x39733ddd6579d94b:0xe40fa6c2f78f9ace!8m2!3d27.7960381!4d77.4351896!16s%2Fg%2F11pys4w_25!19sChIJS9l5Zd09czkRzpqP98KmD-Q?authuser=0&hl=en&rclk=1,"27.796038099999997,77.4351896"
Masjid (Station/Kabrstan)Wali,Mosque,"QCPW+Q25 Masjid (Station/Kabrstan)Wali, RJ SH 44, Kosi Kalan, Uttar Pradesh 281403",,"QCPW+Q25, RJ SH 44",Kosi Kalan,281403,Uttar Pradesh,IN,https://www.google.com/maps/place/Masjid+%28Station%2FKabrstan%29Wali/data=!4m7!3m6!1s0x39733d928ad7781f:0xf6b0c20028f7312d!8m2!3d27.7868894!4d77.4451247!16s%2Fg%2F11gvz4rpkv!19sChIJH3jXipI9czkRLTH3KADCsPY?authuser=0&hl=en&rclk=1,"27.7868894,77.4451247"
Mandy wali masjid khoh,Mosque,"G6QV+CR2 Mandy wali masjid khoh, Kalyanpur, Rajasthan 321203",,G6QV+CR2,Kalyanpur,,Rajasthan,IN,https://www.google.com/maps/place/Mandy+wali+masjid+khoh/data=!4m7!3m6!1s0x39731dcf1dbcb3a1:0x538ff1a6107fcc98!8m2!3d27.5385179!4d77.2445022!16s%2Fg%2F11swrtnckg!19sChIJobO8Hc8dczkRmMx_EKbxj1M?authuser=0&hl=en&rclk=1,"27.5385179,77.2445022"
Jama masjid Kot jaamaa msjid kott jm` msjd khwtt,Mosque,"X65H+GFX Jama masjid Kot jaamaa msjid kott jm` msjd khwtt, Kot, Haryana 121103",,X65H+GFX,Kot,121103,Haryana,IN,https://www.google.com/maps/place/Jama+masjid+Kot+%E0%A4%9C%E0%A4%BE%E0%A4%AE%E0%A4%BE+%E0%A4%AE%E0%A4%B8%E0%A5%8D%E0%A4%9C%E0%A4%BF%E0%A4%A6+%E0%A4%95%E0%A5%8B%E0%A4%9F+%D8%AC%D8%A7%D9%85%D8%B9+%D9%85%D8%B3%D8%AC%D8%AF+%DA%A9%D9%88%D9%B9%E2%80%AD/data=!4m7!3m6!1s0x397329899757ad49:0x233251c5ca6471f5!8m2!3d27.9588543!4d77.2287234!16s%2Fg%2F11t9_7n4m7!19sChIJSa1Xl4kpczkR9XFkysVRMiM?authuser=0&hl=en&rclk=1,"27.9588543,77.22872339999999"
Badi Masjid,Mosque,"Q6JX+2MF Badi Masjid, Bamni, Rajasthan 321023",,Q6JX+2MF,Bamni,321023,Rajasthan,IN,https://www.google.com/maps/place/Badi+Masjid/data=!4m7!3m6!1s0x39732137d5e2bb13:0x6c90f5431928b29b!8m2!3d27.7800576!4d77.2491717!16s%2Fg%2F11kn0r3232!19sChIJE7vi1TchczkRm7IoGUP1kGw?authuser=0&hl=en&rclk=1,"27.7800576,77.24917169999999"
Masjid,Mosque,"2F8H+86X Masjid, Nagla Surjan, Haryana 121107",,2F8H+86X,Nagla Surjan,121107,Haryana,IN,https://www.google.com/maps/place/Masjid/data=!4m7!3m6!1s0x397335387e9dc35f:0xe4ab0cc56928b6ee!8m2!3d28.0158532!4d77.4781065!16s%2Fg%2F11qpyml5dv!19sChIJX8Odfjg1czkR7rYoacUMq-Q?authuser=0&hl=en&rclk=1,"28.0158532,77.4781065"
Masjid,Mosque,"RX4J+M39 Masjid, Rajoli, Sulela, Haryana 122104",,RX4J+M39,"Rajoli, Sulela",122104,Haryana,IN,https://www.google.com/maps/place/Masjid/data=!4m7!3m6!1s0x3972c534275ef4ab:0xdc27d3a7ace97738!8m2!3d27.8066544!4d76.9802205!16s%2Fg%2F11j3xmhg73!19sChIJq_ReJzTFcjkROHfprKfTJ9w?authuser=0&hl=en&rclk=1,"27.8066544,76.9802205"
Masjid,Mosque,"Masjid, 8/2, Budh Bazar, Block L 1, Devli, Sangam Vihar, New Delhi, Delhi 110062","Budh Bazar, Block L 1, Devli, Sangam Vihar",8/2,New Delhi,110062,Delhi,IN,https://www.google.com/maps/place/Masjid/data=!4m7!3m6!1s0x390ce1dde82b3bc3:0x4d3537cacd38aec4!8m2!3d28.4940769!4d77.2261653!16s%2Fg%2F11rk33_10p!19sChIJwzsr6N3hDDkRxK44zco3NU0?authuser=0&hl=en&rclk=1,"28.4940769,77.22616529999999"
Masjid,Mosque,"Masjid, Gali No 19, Gali Number 1, Mustafabad Extn, New Mustafabad, Delhi, 110094","E2 Block, Mustafabad Extn, New Mustafabad","Gali No 19, Gali Number 1",Delhi,110094,Delhi,IN,https://www.google.com/maps/place/Masjid/data=!4m7!3m6!1s0x390cfc1b020b0e91:0xb48a3c3233e41cbd!8m2!3d28.711773!4d77.272563!16s%2Fg%2F12hpqnhjr!19sChIJkQ4LAhv8DDkRvRzkMzI8irQ?authuser=0&hl=en&rclk=1,"28.711772999999997,77.27256299999999"
Masjid msjid,Mosque,"Masjid msjid, A 95, Chanchal Park, Laxmi Park, Ranhola Extesion, Delhi, 110041","Chanchal Park, Laxmi Park, Ranhola Extesion",A 95,Delhi,110041,Delhi,IN,https://www.google.com/maps/place/Masjid+%E0%A4%AE%E0%A4%B8%E0%A5%8D%E0%A4%9C%E0%A4%BF%E0%A4%A6/data=!4m7!3m6!1s0x390d0570d033b0bb:0x480768d95ae5b61d!8m2!3d28.6495218!4d77.0230135!16s%2Fg%2F11rf4j7m64!19sChIJu7Az0HAFDTkRHbblWtloB0g?authuser=0&hl=en&rclk=1,"28.6495218,77.02301349999999"
Masjid Kaddan Wali,Mosque,"Masjid Kaddan Wali, 3800,, Charkhiwalan Gali, Khush Dil, Chandni Chowk, New Delhi, Delhi 110006","Khush Dil, Chandni Chowk","3800,, Charkhiwalan Gali","New Delhi, Delhi",110006,Delhi,IN,https://www.google.com/maps/place/Masjid+Kaddan+Wali/data=!4m7!3m6!1s0x390cfd19d610452b:0xf81efc1a357adee8!8m2!3d28.6506731!4d77.2290561!16s%2Fg%2F12hkbxr_7!19sChIJK0UQ1hn9DDkR6N56NRr8Hvg?authuser=0&hl=en&rclk=1,"28.6506731,77.2290561"
Masjid Qureshiyaan,Mosque,"GMJ3+348 Masjid Qureshiyaan, Mohalla Abbas Nagar, Chholas, Uttar Pradesh 203207",Mohalla Abbas Nagar,GMJ3+348,Chholas,203207,Uttar Pradesh,IN,https://www.google.com/maps/place/Masjid+Qureshiyaan/data=!4m7!3m6!1s0x390c942a6e346be7:0x1eafc690a5d649ff!8m2!3d28.5301699!4d77.652825!16s%2Fg%2F11c1rfrv0f!19sChIJ52s0biqUDDkR_0nWpZDGrx4?authuser=0&hl=en&rclk=1,"28.530169899999997,77.65282499999999"
Kothi Masjid,Mosque,"X8Q9+FGX Kothi Masjid, Basaud, Uttar Pradesh 250601",,X8Q9+FGX,Basaud,,Uttar Pradesh,IN,https://www.google.com/maps/place/Kothi+Masjid/data=!4m7!3m6!1s0x390c51d9a5048d25:0x2de29144f94634ca!8m2!3d28.9887429!4d77.3188578!16s%2Fg%2F11fmh77c0j!19sChIJJY0EpdlRDDkRyjRG-USR4i0?authuser=0&hl=en&rclk=1,"28.9887429,77.3188578"
Ghosya Masjid,Mosque,"P738+RWM Ghosya Masjid, E - Block, Street Number 7, Chand Bagh, Tukhmirpur, New Delhi, Delhi 110094","E Block, Chand Bagh, Tukhmirpur","P738+RWM, E - Block, Street Number 7","New Delhi, Delhi",110094,Delhi,IN,https://www.google.com/maps/place/Ghosya+Masjid/data=!4m7!3m6!1s0x390cfc16eef75851:0x8500dcb001947f77!8m2!3d28.704583!4d77.267294!16s%2Fg%2F1pv21gjy9!19sChIJUVj37hb8DDkRd3-UAbDcAIU?authuser=0&hl=en&rclk=1,"28.704583,77.26729399999999"
Masjid Sakkon wali,Mosque,"Masjid Sakkon wali, Abdul H.No.1896 G/F Cheera khana, Nai Sarak, Delhi, 110006","Jogiwara, Chandni Chowk","Abdul H.No.1896 G/F Cheera khana, Nai Sarak",Delhi,110006,Delhi,IN,https://www.google.com/maps/place/Masjid+Sakkon+wali/data=!4m7!3m6!1s0x390cfd3f6a03f181:0xed1527e6ba2fbb62!8m2!3d28.6531378!4d77.2286249!16s%2Fg%2F11sz_140cr!19sChIJgfEDaj_9DDkRYrsvuuYnFe0?authuser=0&hl=en&rclk=1,"28.6531378,77.2286249"
Noori Masjid,Mosque,"Noori Masjid, 263C, Block G 1, Talimabad, Sangam Vihar, New Delhi, Delhi 110080","Block G 1, Talimabad, Sangam Vihar",263C,New Delhi,110080,Delhi,IN,https://www.google.com/maps/place/Noori+Masjid/data=!4m7!3m6!1s0x390ce1ce9bad762d:0x8b1bd5983da6f608!8m2!3d28.5055544!4d77.2562686!16s%2Fg%2F11sjght1nw!19sChIJLXatm87hDDkRCPamPZjVG4s?authuser=0&hl=en&rclk=1,"28.505554399999998,77.2562686"
Masjid,Mosque,"Shop No: 5035, Masjid, Netaji Subhash Marg, Daryaganj, New Delhi, Delhi, 110002",Daryaganj,"Shop No: 5035, Netaji Subhash Marg","New Delhi, Delhi",110002,Delhi,IN,https://www.google.com/maps/place/Masjid/data=!4m7!3m6!1s0x390cfdf175041b95:0x8ef57a2bc9f92c1c!8m2!3d28.6480954!4d77.2403964!16s%2Fg%2F11s664lvxh!19sChIJlRsEdfH9DDkRHCz5ySt69Y4?authuser=0&hl=en&rclk=1,"28.6480954,77.2403964"
Masjid,Mosque,"Masjid, L385, Block L, JJ Colony No 3, Nangloi, New Delhi, Delhi, 110041","Block L, JJ Colony No 3, Nangloi",L385,"New Delhi, Delhi",110041,Delhi,IN,https://www.google.com/maps/place/Masjid/data=!4m7!3m6!1s0x390d0530462f99ad:0xf47aa8290ce093fa!8m2!3d28.6842352!4d77.0742041!16s%2Fg%2F11smtj7p27!19sChIJrZkvRjAFDTkR-pPgDCmoevQ?authuser=0&hl=en&rclk=1,"28.6842352,77.0742041"
"BILAL MASJID, KOSI KALAN",Mosque,"QCRQ+FWR BILAL MASJID, KOSI KALAN, Kosi Kalan, Uttar Pradesh 281403",,QCRQ+FWR,Kosi Kalan,281403,Uttar Pradesh,IN,"https://www.google.com/maps/place/BILAL+MASJID,+KOSI+KALAN/data=!4m7!3m6!1s0x39733c42468c460d:0x8472be3c456447ee!8m2!3d27.7912389!4d77.4397733!16s%2Fg%2F11hblnkpw5!19sChIJDUaMRkI8czkR7kdkRTy-coQ?authuser=0&hl=en&rclk=1","27.7912389,77.4397733"
Raza Masjid near of Railway station,Mosque,"QCPW+Q39 Raza Masjid near of Railway station, near of Railway Station Road, Kosi Kalan, Uttar Pradesh 281403",,"QCPW+Q39, near of Railway Station Road",Kosi Kalan,281403,Uttar Pradesh,IN,https://www.google.com/maps/place/Raza+Masjid+near+of+Railway+station/data=!4m7!3m6!1s0x39733dbaeb6039d3:0x1b5ba3ac074ab2a9!8m2!3d27.7869086!4d77.4452466!16s%2Fg%2F11spf9yj2b!19sChIJ0zlg67o9czkRqbJKB6yjWxs?authuser=0&hl=en&rclk=1,"27.7869086,77.44524659999999"
Garib nawaz masjid mina Nagar Kosi Kalan Mathura,Mosque,"QCVX+V58 Garib nawaz masjid mina Nagar Kosi Kalan Mathura, Mina Nagar, near of Railway Station Road, Kosi Kalan, Uttar Pradesh 281403",,"QCVX+V58, Mina Nagar, near of Railway Station Road","Kosi Kalan, Kosikalan Rural",281403,Uttar Pradesh,IN,https://www.google.com/maps/place/Garib+nawaz+masjid+mina+Nagar+Kosi+Kalan+Mathura/data=!4m7!3m6!1s0x39733d2cbd389e9d:0xce27da65784f7198!8m2!3d27.794669!4d77.4479622!16s%2Fg%2F11py_82mh0!19sChIJnZ44vSw9czkRmHFPeGXaJ84?authuser=0&hl=en&rclk=1,"27.794669,77.44796219999999"
Gausiya Masjid,Mosque,"Gausiya Masjid, near of police station, Kosi Kalan, Uttar Pradesh 281404",,near of police station,Kosi Kalan,281404,Uttar Pradesh,IN,https://www.google.com/maps/place/Gausiya+Masjid/data=!4m7!3m6!1s0x39733d3547407853:0xf8596db6be19925e!8m2!3d27.7909802!4d77.4385528!16s%2Fg%2F11rq0cw00g!19sChIJU3hARzU9czkRXpIZvrZtWfg?authuser=0&hl=en&rclk=1,"27.7909802,77.4385528"
Madina masjid,Mosque,"QCXJ+9X5 Madina masjid, Kosi Kalan, Uttar Pradesh 281403",,QCXJ+9X5,Kosi Kalan,281403,Uttar Pradesh,IN,https://www.google.com/maps/place/Madina+masjid/data=!4m7!3m6!1s0x39733d2dac70f765:0xf13c9bb54ebef9c4!8m2!3d27.7983773!4d77.4324736!16s%2Fg%2F11nn5387_j!19sChIJZfdwrC09czkRxPm-TrWbPPE?authuser=0&hl=en&rclk=1,"27.7983773,77.4324736"
Aqsa masjid,Mosque,"QCWP+WGV Aqsa masjid, Marqaj Masjid Rd, Kosi Kalan, Uttar Pradesh 281403",,"QCWP+WGV, Marqaj Masjid Rd",Kosi Kalan,281403,Uttar Pradesh,IN,https://www.google.com/maps/place/Aqsa+masjid/data=!4m7!3m6!1s0x39733d1744e7fe85:0x2fd86a70f27f4d4d!8m2!3d27.7973251!4d77.4363506!16s%2Fg%2F11vbzqy864!19sChIJhf7nRBc9czkRTU1_8nBq2C8?authuser=0&hl=en&rclk=1,"27.7973251,77.4363506"
Maryam masjid,Mosque,"QCXQ+C43 Maryam masjid, Kosi Kalan, Uttar Pradesh 281403",,QCXQ+C43,Kosi Kalan,281403,Uttar Pradesh,IN,https://www.google.com/maps/place/Maryam+masjid/data=!4m7!3m6!1s0x39733db89aeceb63:0x34acb39ee78aab12!8m2!3d27.7985648!4d77.4370808!16s%2Fg%2F11vf8r2nsk!19sChIJY-vsmrg9czkREquK556zrDQ?authuser=0&hl=en&rclk=1,"27.798564799999998,77.43708079999999"
Masjid e Aaisha,Mosque,"M8PX+X97 Masjid e Aaisha, Kosi, Uttar Pradesh 281403",,M8PX+X97,Kosi,281403,Uttar Pradesh,IN,https://www.google.com/maps/place/Masjid+e+Aaisha/data=!4m7!3m6!1s0x39731930d4115a0b:0xf9e13b3ca8f87b53!8m2!3d27.6871583!4d77.3488805!16s%2Fg%2F11krcfvmf3!19sChIJC1oR1DAZczkRU3v4qDw74fk?authuser=0&hl=en&rclk=1,"27.6871583,77.34888049999999"
masjid nasruddeen ahlehadees sahabnagar,Mosque,"masjid nasruddeen ahlehadees sahabnagar, SahabNagar Jatwari, Kosi Kalan - Shergarh Rd, City*Mathura, Uttar Pradesh 281404",,"SahabNagar Jatwari, Kosi Kalan - Shergarh Rd","City*Mathura, Jatwari",281404,Uttar Pradesh,IN,https://www.google.com/maps/place/masjid+nasruddeen+ahlehadees+sahabnagar/data=!4m7!3m6!1s0x39733f4ace75f5e1:0x24c004adf29e3ea4!8m2!3d27.7833615!4d77.5577613!16s%2Fg%2F11ptl7lx9z!19sChIJ4fV1zko_czkRpD6e8q0EwCQ?authuser=0&hl=en&rclk=1,"27.783361499999998,77.5577613"
Rihan qureshi,Mosque,"Rihan qureshi, 2800, nikasa, talab shahi mosque, Kosi Kalan, Uttar Pradesh 281403",,"2800, nikasa, talab shahi mosque",Kosi Kalan,281403,Uttar Pradesh,IN,https://www.google.com/maps/place/Rihan+qureshi/data=!4m7!3m6!1s0x39733d3deb23c525:0xdfec5beef706a1b5!8m2!3d27.7961793!4d77.4351989!16s%2Fg%2F11jnkvp296!19sChIJJcUj6z09czkRtaEG9-5b7N8?authuser=0&hl=en&rclk=1,"27.7961793,77.4351989"
Thane wali Masjid,Police academy,"QCRQ+994 Thane wali Masjid, Khajan Digamber Wali Gali, Kosi Kalan, Uttar Pradesh 281403",,"QCRQ+994, Khajan Digamber Wali Gali",Kosi Kalan,281403,Uttar Pradesh,IN,https://www.google.com/maps/place/Thane+wali+Masjid/data=!4m7!3m6!1s0x39733d89c0720067:0xeca4c0252ce595a9!8m2!3d27.7908933!4d77.438465!16s%2Fg%2F11nnshqm4d!19sChIJZwBywIk9czkRqZXlLCXApOw?authuser=0&hl=en&rclk=1,"27.7908933,77.438465"
Sunni Qubristan sny qbrstn sunnii k'bristaan,Shrine,"QCPW+M2C Sunni Qubristan sny qbrstn sunnii k'bristaan, Railway Station Rd, near of Raza Masjid and, Kosi Kalan, Uttar Pradesh 281403",,"QCPW+M2C, Railway Station Rd, near of Raza Masjid and",Kosi Kalan,281403,Uttar Pradesh,IN,https://www.google.com/maps/place/Sunni+Qubristan+%D8%B3%D9%86%DB%8C+%D9%82%D8%A8%D8%B1%D8%B3%D8%AA%D8%A7%D9%86+%E0%A4%B8%E0%A5%81%E0%A4%A8%E0%A4%A8%E0%A5%80+%E0%A4%95%E0%A4%BC%E0%A4%AC%E0%A5%8D%E0%A4%B0%E0%A4%BF%E0%A4%B8%E0%A5%8D%E0%A4%A4%E0%A4%BE%E0%A4%A8%E2%80%AD/data=!4m7!3m6!1s0x39733da9a5486025:0x490c000543c5da00!8m2!3d27.7866795!4d77.4450242!16s%2Fg%2F11spf9ryr2!19sChIJJWBIpak9czkRANrFQwUADEk?authuser=0&hl=en&rclk=1,"27.786679499999998,77.44502419999999"
Chhoti masjid Rosiyaka,Housing society,"M6WV+R6R Chhoti masjid Rosiyaka, Akata, Moonsepur, Rajasthan 321022",,M6WV+R6R,"Akata, Moonsepur",321022,Rajasthan,IN,https://www.google.com/maps/place/Chhoti+masjid+Rosiyaka/data=!4m7!3m6!1s0x39731fe1ccd37c69:0xefc2d63bb123f316!8m2!3d27.6971102!4d77.2430032!16s%2Fg%2F11rjykmq92!19sChIJaXzTzOEfczkRFvMjsTvWwu8?authuser=0&hl=en&rclk=1,"27.697110199999997,77.24300319999999"
