name,main_category,address,address_ward,address_street,address_city,address_postal_code,address_state,address_country_code,link,coordinates
"Khidma Juma Masjid,Unity Centre Kakkad",Mosque,"Khidma Juma Masjid,Unity Centre Kakkad, opposite Kannur Municipal Corporation Zonal Office, Puzhathi, Kerala 670005",,opposite Kannur Municipal Corporation Zonal Office,Puzhathi,670005,Kerala,IN,"https://www.google.com/maps/place/Khidma+Juma+Masjid,Unity+Centre+Kakkad/data=!4m7!3m6!1s0x3ba43ddffcb9d63f:0xb29cb347a6acee22!8m2!3d11.8967953!4d75.3847225!16s%2Fg%2F11sqqb8s0k!19sChIJP9a5_N89pDsRIu6spkeznLI?authuser=0&hl=en&rclk=1","11.896795299999999,75.3847225"
Kannur City Juma MASJID,Mosque,"V96H+CCX Kannur City Juma MASJID, City - chirakkal kulam, road, Kannur, Kerala 670007",Thavakkara,"V96H+CCX, City - chirakkal kulam, road",Kannur,670007,Kerala,IN,https://www.google.com/maps/place/Kannur+City+Juma+MASJID/data=!4m7!3m6!1s0x3ba422d1ad17796d:0x95302d59ffc4ff35!8m2!3d11.8611111!4d75.3786111!16s%2Fg%2F1tkks97n!19sChIJbXkXrdEipDsRNf_E_1ktMJU?authuser=0&hl=en&rclk=1,"11.861111099999999,75.3786111"
JUMA MASJID KANNUR BUS STAND,Mosque,"V9G8+PMQ JUMA MASJID KANNUR BUS STAND, Yogasala Rd, Talap, Kannur, Kerala 670001",Talap,"V9G8+PMQ, Yogasala Rd",Kannur,670001,Kerala,IN,https://www.google.com/maps/place/JUMA+MASJID+KANNUR+BUS+STAND/data=!4m7!3m6!1s0x3ba43d364b975eab:0x48f75eb25cc68e6f!8m2!3d11.8768446!4d75.3667246!16s%2Fg%2F124yb46sp!19sChIJq16XSzY9pDsRb47GXLJe90g?authuser=0&hl=en&rclk=1,"11.8768446,75.3667246"
Thana Zakkariya Juma Masjid,Mosque,"V9FM+F4R Thana Zakkariya Juma Masjid, Thana - Anayidukku Rd, Thana, Kannur, Kerala 670012",Thana,"V9FM+F4R, Thana - Anayidukku Rd",Kannur,670012,Kerala,IN,https://www.google.com/maps/place/Thana+Zakkariya+Juma+Masjid/data=!4m7!3m6!1s0x3ba43d2b8fcbfa73:0x20db2e0e03531985!8m2!3d11.8737289!4d75.3827564!16s%2Fg%2F1ptxshsk5!19sChIJc_rLjys9pDsRhRlTAw4u2yA?authuser=0&hl=en&rclk=1,"11.8737289,75.38275639999999"
Chalad Juma Masjid,Mosque,"V9M3+4PR Chalad Juma Masjid, Manal, Kannur, Kerala 670014",Manal,V9M3+4PR,Kannur,670014,Kerala,IN,https://www.google.com/maps/place/Chalad+Juma+Masjid/data=!4m7!3m6!1s0x3ba43d44c2644f8d:0x94581e47f2caad7d!8m2!3d11.8828583!4d75.3542751!16s%2Fg%2F1ths7sq3!19sChIJjU9kwkQ9pDsRfa3K8kceWJQ?authuser=0&hl=en&rclk=1,"11.882858299999999,75.3542751"
Camp Bazar Juma Masjid,Mosque,"Camp Bazar Juma Masjid, MA Rd, Kannur, Kerala 670001",,MA Rd,Kannur,670001,Kerala,IN,https://www.google.com/maps/place/Camp+Bazar+Juma+Masjid/data=!4m7!3m6!1s0x3ba43d359e592ce9:0x9f4885022f8f5c5b!8m2!3d11.8712405!4d75.365677!16s%2Fg%2F1hc1cd4j7!19sChIJ6SxZnjU9pDsRW1yPLwKFSJ8?authuser=0&hl=en&rclk=1,"11.871240499999999,75.36567699999999"
Burnassery Muhiyudheen Juma Masjid,Mosque,"V967+44M Burnassery Muhiyudheen Juma Masjid, Burnacherry, Kannur, Kerala 670013",Burnacherry,V967+44M,Kannur,670013,Kerala,IN,https://www.google.com/maps/place/Burnassery+Muhiyudheen+Juma+Masjid/data=!4m7!3m6!1s0x3ba422b64a8efb53:0xfcae227c6ff5f736!8m2!3d11.8603273!4d75.3627874!16s%2Fg%2F11c2pmm5fw!19sChIJU_uOSrYipDsRNvf1b3wirvw?authuser=0&hl=en&rclk=1,"11.8603273,75.3627874"
Chirakkal kulam Juma Masjid.,Mosque,"V97G+FM6 Chirakkal kulam Juma Masjid., Thavakkara, Kannur, Kerala 670007",Thavakkara,V97G+FM6,Kannur,670007,Kerala,IN,https://www.google.com/maps/place/Chirakkal+kulam+Juma+Masjid./data=!4m7!3m6!1s0x3ba422d1f8a33507:0xd710ef8561548f5e!8m2!3d11.8636582!4d75.376634!16s%2Fg%2F1pv0c008p!19sChIJBzWj-NEipDsRXo9UYYXvENc?authuser=0&hl=en&rclk=1,"11.8636582,75.376634"
Madeena Masjid,Mosque,"V9C7+9WJ Madeena Masjid, Rajiv Gandhi Rd, Kannur, Kerala 670001",,"V9C7+9WJ, Rajiv Gandhi Rd",Kannur,670001,Kerala,IN,https://www.google.com/maps/place/Madeena+Masjid/data=!4m7!3m6!1s0x3ba43d357c479539:0x8186eb94c2b665cb!8m2!3d11.870968!4d75.3647706!16s%2Fg%2F1tycv21b!19sChIJOZVHfDU9pDsRy2W2wpTrhoE?authuser=0&hl=en&rclk=1,"11.870968,75.3647706"
"Mohyidheen juma Masjid, Ayikara",Mosque,"V95G+QG3 Mohyidheen juma Masjid, Ayikara, Ayikkara Government Hospital Rd, Thavakkara, Kannur, Kerala 670003",Thavakkara,"V95G+QG3, Ayikkara Government Hospital Rd",Kannur,670003,Kerala,IN,"https://www.google.com/maps/place/Mohyidheen+juma+Masjid,+Ayikara/data=!4m7!3m6!1s0x3ba422d01fb9857f:0x86b658e57a3f01db!8m2!3d11.8593957!4d75.376293!16s%2Fg%2F124ykrgfw!19sChIJf4W5H9AipDsR2wE_euVYtoY?authuser=0&hl=en&rclk=1","11.8593957,75.37629299999999"
Masjid Al-Abrar,Mosque,"Masjid Al-Abrar, Nr. Caltex junction,, Kannur, Kerala 670001",Thavakkara,"Nr. Caltex junction,",Kannur,670001,Kerala,IN,https://www.google.com/maps/place/Masjid+Al-Abrar/data=!4m7!3m6!1s0x3ba43d3221299005:0xafe01c65e45362f8!8m2!3d11.8743668!4d75.3747789!16s%2Fg%2F11c0x8c9b8!19sChIJBZApITI9pDsR-GJT5GUc4K8?authuser=0&hl=en&rclk=1,"11.874366799999999,75.3747789"
Kannur City Salafi Masjid,Mosque,"V95H+PVW Kannur City Salafi Masjid, Ayikkara Government Hospital Rd, Thavakkara, Kannur, Kerala 670007",Thavakkara,"V95H+PVW, Ayikkara Government Hospital Rd",Kannur,670007,Kerala,IN,https://www.google.com/maps/place/Kannur+City+Salafi+Masjid/data=!4m7!3m6!1s0x3ba422d08dd765eb:0x26673f785bf1d8c9!8m2!3d11.859365!4d75.379699!16s%2Fg%2F11c5s5s4ll!19sChIJ62XXjdAipDsRydjxW3g_ZyY?authuser=0&hl=en&rclk=1,"11.859364999999999,75.379699"
Thayyil Juma Masjid,Mosque,"V94P+HWX Thayyil Juma Masjid, Thayyil, Kannur, Kerala",Kodaparamba,"V94P+HWX, Thayyil",Kannur,,Kerala,IN,https://www.google.com/maps/place/Thayyil+Juma+Masjid/data=!4m7!3m6!1s0x3ba422d87a4e65ff:0x15c6bf6ff97c4ac6!8m2!3d11.8564811!4d75.3873602!16s%2Fg%2F11y27w40y!19sChIJ_2VOetgipDsRxkp8-W-_xhU?authuser=0&hl=en&rclk=1,"11.8564811,75.3873602"
Salafi Masjid,Mosque,"V9FG+93W Salafi Masjid, Thayatheru Rd, Thayatheru, Thana, Kannur, Kerala 670002","Thayatheru, Thana","V9FG+93W, Thayatheru Rd",Kannur,670002,Kerala,IN,https://www.google.com/maps/place/Salafi+Masjid/data=!4m7!3m6!1s0x3ba43d321323c1cd:0xb9584a51c92c3596!8m2!3d11.8734773!4d75.375206!16s%2Fg%2F11cfgncw3!19sChIJzcEjEzI9pDsRljUsyVFKWLk?authuser=0&hl=en&rclk=1,"11.8734773,75.37520599999999"
Kunhipalli bathakkapalam p.o.kakkad,Mosque,"V96G+CRM Kunhipalli bathakkapalam p.o.kakkad, Manappuram,city,Kannur,Kerala, Kannur, Kerala 670003",Thavakkara,"V96G+CRM, Manappuram,city,Kannur,Kerala",Kannur,670003,Kerala,IN,https://www.google.com/maps/place/Kunhipalli+bathakkapalam+p.o.kakkad/data=!4m7!3m6!1s0x3ba422d1b4933211:0xb89f7c8a1c72d04a!8m2!3d11.8610801!4d75.3770448!16s%2Fg%2F1260m3ysb!19sChIJETKTtNEipDsRStByHIp8n7g?authuser=0&hl=en&rclk=1,"11.861080099999999,75.3770448"
South Bazar Juma Masjid,Mosque,"V9HF+7P8 South Bazar Juma Masjid, Edapally Panvel Highway, South Bazar, Talap, Kannur, Kerala 670002","South Bazar, Talap","V9HF+7P8, Edapally Panvel Highway",Kannur,670002,Kerala,IN,https://www.google.com/maps/place/South+Bazar+Juma+Masjid/data=!4m7!3m6!1s0x3ba43d30460fe871:0xf09d56881863172!8m2!3d11.8781737!4d75.3743323!16s%2Fg%2F11df6f_f4g!19sChIJcegPRjA9pDsRcjGGgWjVCQ8?authuser=0&hl=en&rclk=1,"11.8781737,75.37433229999999"
Anayiduk Moideen Masjid,Mosque,"V98J+5G2 Anayiduk Moideen Masjid, Thana, Kannur, Kerala 670012",Thana,V98J+5G2,Kannur,670012,Kerala,IN,https://www.google.com/maps/place/Anayiduk+Moideen+Masjid/data=!4m7!3m6!1s0x3ba422d39235a5df:0x37ce69f3a686bbd1!8m2!3d11.8653842!4d75.3812709!16s%2Fg%2F11dftk1x6b!19sChIJ36U1ktMipDsR0buGpvNpzjc?authuser=0&hl=en&rclk=1,"11.8653842,75.38127089999999"
Shaduli Masjid,Mosque,"V998+FQV Shaduli Masjid, Fort Rd, Thavakkara, Kannur, Kerala 670003",Thavakkara,"V998+FQV, Fort Rd",Kannur,670003,Kerala,IN,https://www.google.com/maps/place/Shaduli+Masjid/data=!4m7!3m6!1s0x3ba43d352d39ee97:0x8d3a900bf40f788!8m2!3d11.8687489!4d75.3669169!16s%2Fg%2F11gf21x0fl!19sChIJl-45LTU9pDsRiPdAvwCp0wg?authuser=0&hl=en&rclk=1,"11.8687489,75.36691689999999"
Unity Center Masjid,Mosque,"V9FF+533 Unity Center Masjid, Thavakkara, Kannur, Kerala 670012",Thavakkara,V9FF+533,Kannur,670012,Kerala,IN,https://www.google.com/maps/place/Unity+Center+Masjid/data=!4m7!3m6!1s0x3ba43d33b7310597:0xf41523cc6c3f35a1!8m2!3d11.8728936!4d75.3726754!16s%2Fg%2F11g8xd3whs!19sChIJlwUxtzM9pDsRoTU_bMwjFfQ?authuser=0&hl=en&rclk=1,"11.8728936,75.37267539999999"
kaoser juma masjid,Mosque,"V989+X3W kaoser juma masjid, Thavakkara, Kannur, Kerala 670001",Thavakkara,V989+X3W,Kannur,670001,Kerala,IN,https://www.google.com/maps/place/kaoser+juma+masjid/data=!4m7!3m6!1s0x3ba422cb21c0c1e7:0x27441e310339cdad!8m2!3d11.8674835!4d75.3676928!16s%2Fg%2F124yf3qrq!19sChIJ58HAIcsipDsRrc05AzEeRCc?authuser=0&hl=en&rclk=1,"11.867483499999999,75.3676928"
Mullankandipalam Masjid,Mosque,"V8GX+CRH Mullankandipalam Masjid, Manjapalam, Kannur, Kerala 670014",Manjapalam,V8GX+CRH,Kannur,670014,Kerala,IN,https://www.google.com/maps/place/Mullankandipalam+Masjid/data=!4m7!3m6!1s0x3ba43d5101f61b35:0x9b077ff3b25540a1!8m2!3d11.8760559!4d75.3496239!16s%2Fg%2F11d_wvm6dl!19sChIJNRv2AVE9pDsRoUBVsvN_B5s?authuser=0&hl=en&rclk=1,"11.876055899999999,75.3496239"
Chovva Jumah Masjid,Mosque,"VC84+PXX Chovva Jumah Masjid, NH 17, Kannur, Elayavoor, Kerala 670018",,"VC84+PXX, NH 17","Kannur, Elayavoor",670018,Kerala,IN,https://www.google.com/maps/place/Chovva+Jumah+Masjid/data=!4m7!3m6!1s0x3ba42334467917b3:0x11a4f188e35f4340!8m2!3d11.8668706!4d75.4074834!16s%2Fg%2F1tjpnyhb!19sChIJsxd5RjQjpDsRQENf44jxpBE?authuser=0&hl=en&rclk=1,"11.866870599999999,75.40748339999999"
"Masjid Noor, Ahmadiyya Muslim Jamaath, Juma Masjid kannur",Mosque,"V988+WP8 Masjid Noor, Ahmadiyya Muslim Jamaath, Juma Masjid kannur, Thavakkara, Kannur, Kerala 670001",Thavakkara,V988+WP8,Kannur,670001,Kerala,IN,"https://www.google.com/maps/place/Masjid+Noor,+Ahmadiyya+Muslim+Jamaath,+Juma+Masjid+kannur/data=!4m7!3m6!1s0x3ba422cae696146b:0x38e3da4ea60f1f4b!8m2!3d11.8672761!4d75.3668143!16s%2Fg%2F124ynx66m!19sChIJaxSW5soipDsRSx8Ppk7a4zg?authuser=0&hl=en&rclk=1","11.8672761,75.3668143"
Anchampeedika Juma Masjid,Mosque,"Anchampeedika Juma Masjid, Kannur, Kerala 670001",,,Kannur,670001,Kerala,IN,https://www.google.com/maps/place/Anchampeedika+Juma+Masjid/data=!4m7!3m6!1s0x3ba43e18711232ef:0x3c5b3fdb8fcdd09c!8m2!3d11.9785842!4d75.350957!16s%2Fg%2F11c1rtmhkx!19sChIJ7zIScRg-pDsRnNDNj9s_Wzw?authuser=0&hl=en&rclk=1,"11.9785842,75.350957"
"Bilal Masjid, Payyambalam",Mosque,"V9C4+WFP Bilal Masjid, Payyambalam, kannur, Payyambalam, Kerala 670001",Payyambalam,"V9C4+WFP, kannur","Payyambalam, Kannur",670001,Kerala,IN,"https://www.google.com/maps/place/Bilal+Masjid,+Payyambalam/data=!4m7!3m6!1s0x3ba43d4c36707321:0x143560ab52ce24a8!8m2!3d11.8723358!4d75.3561887!16s%2Fg%2F11gfj1_0z6!19sChIJIXNwNkw9pDsRqCTOUqtgNRQ?authuser=0&hl=en&rclk=1","11.8723358,75.35618869999999"
Arattakkapalli Masjid,Mosque,"V96J+7JH Arattakkapalli Masjid, Aratakkapalli Rd, Kodaparamba, Kannur, Kerala 670007",Kodaparamba,"V96J+7JH, Aratakkapalli Rd",Kannur,670007,Kerala,IN,https://www.google.com/maps/place/Arattakkapalli+Masjid/data=!4m7!3m6!1s0x3ba422d0d255c129:0x80a1ee13937e0e0d!8m2!3d11.8606934!4d75.3816096!16s%2Fg%2F1261077tm!19sChIJKcFV0tAipDsRDQ5-kxPuoYA?authuser=0&hl=en&rclk=1,"11.860693399999999,75.38160959999999"
Uruvachal Juma Masjid,Mosque,"V97X+H6X Uruvachal Juma Masjid, Marakkarkandy, Kannur, Kerala 670007",Marakkarkandy,V97X+H6X,Kannur,670007,Kerala,IN,https://www.google.com/maps/place/Uruvachal+Juma+Masjid/data=!4m7!3m6!1s0x3ba4232e12da92b1:0xf05efd39559a87d4!8m2!3d11.8639949!4d75.398103!16s%2Fg%2F1pyqtxyl9!19sChIJsZLaEi4jpDsR1IeaVTn9XvA?authuser=0&hl=en&rclk=1,"11.8639949,75.39810299999999"
Neerchal Juma Masjid,Mosque,"V95M+JRR Neerchal Juma Masjid, Neerchal,Kannur City,Kerala, Kannur, Kerala 670003",Kodaparamba,"V95M+JRR, Neerchal,Kannur City,Kerala",Kannur,670003,Kerala,IN,https://www.google.com/maps/place/Neerchal+Juma+Masjid/data=!4m7!3m6!1s0x3ba422d77bab7859:0xc5d5f7df5d7a9059!8m2!3d11.8591015!4d75.3845223!16s%2Fg%2F1263jnhj9!19sChIJWXire9cipDsRWZB6Xd_31cU?authuser=0&hl=en&rclk=1,"11.8591015,75.3845223"
Rashid n k,Mosque,"Rashid n k, Adikadalayi alivayidiyar road, near Noor juma masjid, Kannur, Kerala 670003",,"Adikadalayi alivayidiyar road, near Noor juma masjid",Kannur,670003,Kerala,IN,https://www.google.com/maps/place/Rashid+n+k/data=!4m7!3m6!1s0x3ba42317806292c3:0x6b7073057d97fbc9!8m2!3d11.8457047!4d75.3994385!16s%2Fg%2F11c6ldp8s4!19sChIJw5JigBcjpDsRyfuXfQVzcGs?authuser=0&hl=en&rclk=1,"11.845704699999999,75.3994385"
Hira Masjid,Mosque,"V9J4+22G Hira Masjid, Manjapalam, Kannur, Kerala 670014",Manjapalam,V9J4+22G,Kannur,670014,Kerala,IN,https://www.google.com/maps/place/Hira+Masjid/data=!4m7!3m6!1s0x3ba43d45702835ab:0xfaab1c2b06ed5278!8m2!3d11.8800603!4d75.355069!16s%2Fg%2F1tdx7445!19sChIJqzUocEU9pDsReFLtBiscq_o?authuser=0&hl=en&rclk=1,"11.8800603,75.355069"
Arafa Juma Masjid,Mosque,"W9H3+29P Arafa Juma Masjid, Kasaragod - Kannur Rd, Near Sagar Hotel, Valapattanam, Kannur, Kerala 670011",Valapattanam,"W9H3+29P, Kasaragod - Kannur Rd, Near Sagar Hotel",Kannur,670011,Kerala,IN,https://www.google.com/maps/place/Arafa+Juma+Masjid/data=!4m7!3m6!1s0x3ba43d91dd06c3bb:0xc75b0bbffba9d758!8m2!3d11.9275931!4d75.3534396!16s%2Fg%2F1260134s1!19sChIJu8MG3ZE9pDsRWNep-78LW8c?authuser=0&hl=en&rclk=1,"11.9275931,75.3534396"
Aanayidukku Juma Masjid.,Mosque,"V98J+5F4 Aanayidukku Juma Masjid., Thana - Anayidukku Rd, Nallupura, Thana, Kannur, Kerala 670007","Nallupura, Thana","V98J+5F4, Thana - Anayidukku Rd",Kannur,670007,Kerala,IN,https://www.google.com/maps/place/Aanayidukku+Juma+Masjid./data=!4m7!3m6!1s0x3ba422d3edb4885b:0x8eb4fee0f9457494!8m2!3d11.8653841!4d75.381216!16s%2Fg%2F12603k8sv!19sChIJW4i07dMipDsRlHRF-eD-tI4?authuser=0&hl=en&rclk=1,"11.8653841,75.381216"
Thayatheru Elatt Juma Masjid,Mosque,"V9CG+47F Thayatheru Elatt Juma Masjid, Thayatheru, Thavakkara, Kannur, Kerala 670002","Thayatheru, Thavakkara",V9CG+47F,Kannur,670002,Kerala,IN,https://www.google.com/maps/place/Thayatheru+Elatt+Juma+Masjid/data=!4m7!3m6!1s0x3ba43d32a39a16ad:0xd3553899e3371f90!8m2!3d11.8703176!4d75.3756734!16s%2Fg%2F1ptw88hq8!19sChIJrRaaozI9pDsRkB8345k4VdM?authuser=0&hl=en&rclk=1,"11.8703176,75.3756734"
Sabeelul Rashad Juma Masjid,Mosque,"Sabeelul Rashad Juma Masjid, North, Thalikkavu Rd, Manjapalam, Kannur, Kerala 670014",Manjapalam,"North, Thalikkavu Rd",Kannur,,Kerala,IN,https://www.google.com/maps/place/Sabeelul+Rashad+Juma+Masjid/data=!4m7!3m6!1s0x3ba43d49223d0f55:0x3e4484c63e85040d!8m2!3d11.8764289!4d75.3599694!16s%2Fg%2F11cs3_y8sz!19sChIJVQ89Ikk9pDsRDQSFPsaERD4?authuser=0&hl=en&rclk=1,"11.876428899999999,75.3599694"
Noor Juma Masjid,Mosque,"V99P+466 Noor Juma Masjid, Kannookkara, Thana, Kannur, Kerala 670012",Thana,"V99P+466, Kannookkara",Kannur,670012,Kerala,IN,https://www.google.com/maps/place/Noor+Juma+Masjid/data=!4m7!3m6!1s0x3ba422d51af21ac1:0xcc35351771f2b1b1!8m2!3d11.8677936!4d75.3855182!16s%2Fg%2F11bxdw_b7y!19sChIJwRryGtUipDsRsbHycRc1Ncw?authuser=0&hl=en&rclk=1,"11.867793599999999,75.38551819999999"
Salafi Centre,Mosque,"V99J+JRX Salafi Centre, Thana, Kannur, Kerala 670012",Thana,V99J+JRX,Kannur,670012,Kerala,IN,https://www.google.com/maps/place/Salafi+Centre/data=!4m7!3m6!1s0x3ba422d35671e0e9:0xb8096e803ce7de48!8m2!3d11.8691105!4d75.3821047!16s%2Fg%2F11c0qgpszr!19sChIJ6eBxVtMipDsRSN7nPIBuCbg?authuser=0&hl=en&rclk=1,"11.8691105,75.3821047"
Kazanakkotta Masjid,Mosque,"V98H+5CX Kazanakkotta Masjid, Thana, Kannur, Kerala 670012",Thana,V98H+5CX,Kannur,670012,Kerala,IN,https://www.google.com/maps/place/Kazanakkotta+Masjid/data=!4m7!3m6!1s0x3ba422d24925a6e5:0x5faf7e04165f69d1!8m2!3d11.8654886!4d75.3785964!16s%2Fg%2F11df3r6wm2!19sChIJ5aYlSdIipDsR0WlfFgR-r18?authuser=0&hl=en&rclk=1,"11.865488599999999,75.37859639999999"
Maidanappalli Juma Masjid,Mosque,"V93Q+FP2 Maidanappalli Juma Masjid, Maidanappalli, Kannur, Kerala 670007",Maidanappalli,V93Q+FP2,Kannur,670007,Kerala,IN,https://www.google.com/maps/place/Maidanappalli+Juma+Masjid/data=!4m7!3m6!1s0x3ba4232749f055a5:0x97fdcfb30ddc4b8a!8m2!3d11.8536379!4d75.3892535!16s%2Fg%2F11dztqh1s1!19sChIJpVXwSScjpDsRikvcDbPP_Zc?authuser=0&hl=en&rclk=1,"11.853637899999999,75.3892535"
Badariya Juma Masjid,Mosque,"V97W+235 Badariya Juma Masjid, Thayyil - Marakkarkandy Rd, Marakkarkandy, Kannur, Kerala 670007",Marakkarkandy,"V97W+235, Thayyil - Marakkarkandy Rd",Kannur,670007,Kerala,IN,https://www.google.com/maps/place/Badariya+Juma+Masjid/data=!4m7!3m6!1s0x3ba4232edd4397f5:0x3c73e17046a2fcd1!8m2!3d11.862524!4d75.3952345!16s%2Fg%2F11c2q58kzr!19sChIJ9ZdD3S4jpDsR0fyiRnDhczw?authuser=0&hl=en&rclk=1,"11.862523999999999,75.3952345"
Mohiyuddin Juma Masjid and Jamaliya Madrasa,Mosque,"V8WX+7XH Mohiyuddin Juma Masjid and Jamaliya Madrasa, Alavil - Azhikode Rd, Kannur, Kerala 670008",,"V8WX+7XH, Alavil - Azhikode Rd",Kannur,,Kerala,IN,https://www.google.com/maps/place/Mohiyuddin+Juma+Masjid+and+Jamaliya+Madrasa/data=!4m7!3m6!1s0x3ba43d6680152409:0xefc5253a76553d7f!8m2!3d11.8956945!4d75.3499819!16s%2Fg%2F1wv_qnp7!19sChIJCSQVgGY9pDsRfz1Vdjolxe8?authuser=0&hl=en&rclk=1,"11.8956945,75.3499819"
Chalad Salafi Masjid,Mosque,"V9J3+QMW Chalad Salafi Masjid, Manal, Kannur, Kerala 670014",Manal,V9J3+QMW,Kannur,670014,Kerala,IN,https://www.google.com/maps/place/Chalad+Salafi+Masjid/data=!4m7!3m6!1s0x3ba43d452079deeb:0xab6f0912d3e9faf8!8m2!3d11.8819784!4d75.3541922!16s%2Fg%2F11cjg9g1pz!19sChIJ6955IEU9pDsR-Prp0xIJb6s?authuser=0&hl=en&rclk=1,"11.8819784,75.3541922"
Old Vethilapalli Masjid,Mosque,"V94Q+HQF Old Vethilapalli Masjid, Maidanappalli, Kannur, Kerala 670007",Maidanappalli,V94Q+HQF,Kannur,670007,Kerala,IN,https://www.google.com/maps/place/Old+Vethilapalli+Masjid/data=!4m7!3m6!1s0x3ba42327a216a9af:0xd0fee92bdcc064f9!8m2!3d11.8564481!4d75.3894125!16s%2Fg%2F1261n83l8!19sChIJr6kWoicjpDsR-WTA3Cvp_tA?authuser=0&hl=en&rclk=1,"11.8564481,75.38941249999999"
muzhathadam juma masjid,Mosque,"V9CJ+F4R muzhathadam juma masjid, Thana, Kannur, Kerala 670012",Thana,V9CJ+F4R,Kannur,670012,Kerala,IN,https://www.google.com/maps/place/muzhathadam+juma+masjid/data=!4m7!3m6!1s0x3ba43d2ce95267e5:0x4cb271f097432345!8m2!3d11.8712456!4d75.3802698!16s%2Fg%2F11dz5496ql!19sChIJ5WdS6Sw9pDsRRSNDl_Bxskw?authuser=0&hl=en&rclk=1,"11.8712456,75.3802698"
Juma Masjid,Mosque,"V95F+P83 Juma Masjid, Burnacherry, Kannur, Kerala 670013",Burnacherry,V95F+P83,Kannur,670013,Kerala,IN,https://www.google.com/maps/place/Juma+Masjid/data=!4m7!3m6!1s0x3ba422cf9ff11125:0xa1a4b4965cf9b661!8m2!3d11.8592536!4d75.3733037!16s%2Fg%2F11g8tyf5cy!19sChIJJRHxn88ipDsRYbb5XJa0pKE?authuser=0&hl=en&rclk=1,"11.859253599999999,75.3733037"
Salafi Center Masjid,Mosque,"V998+J49 Salafi Center Masjid, Salafi Masjid Rd, Padanapalam, Kannur, Kerala 670003",Padanapalam,"V998+J49, Salafi Masjid Rd",Kannur,670003,Kerala,IN,https://www.google.com/maps/place/Salafi+Center+Masjid/data=!4m7!3m6!1s0x3ba43d354ed849bf:0x5879e9069fbe75db!8m2!3d11.8690347!4d75.3653727!16s%2Fg%2F11g0ht93n6!19sChIJv0nYTjU9pDsR23W-nwbpeVg?authuser=0&hl=en&rclk=1,"11.8690347,75.3653727"
Firdouz Masjid,Mosque,"V9HP+553 Firdouz Masjid, Kannothumchal, Kannur, Elayavoor, Kerala 670005",Kannothumchal,V9HP+553,"Kannur, Elayavoor",670005,Kerala,IN,https://www.google.com/maps/place/Firdouz+Masjid/data=!4m7!3m6!1s0x3ba43d29aa7471dd:0x71a11d85a0ac8af0!8m2!3d11.8778847!4d75.3854266!16s%2Fg%2F11c48ry6r7!19sChIJ3XF0qik9pDsR8IqsoIUdoXE?authuser=0&hl=en&rclk=1,"11.8778847,75.3854266"
Muhiyuddin Juma Masjid,Mosque,"VF63+2HC Muhiyuddin Juma Masjid, Kannur, Kerala 670621",,VF63+2HC,Kannur,670621,Kerala,IN,https://www.google.com/maps/place/Muhiyuddin+Juma+Masjid/data=!4m7!3m6!1s0x3ba424b9a4c8a11b:0x82f732f7de36e6ba!8m2!3d11.8600658!4d75.4538813!16s%2Fg%2F11c74bmfxy!19sChIJG6HIpLkkpDsRuuY23vcy94I?authuser=0&hl=en&rclk=1,"11.8600658,75.45388129999999"
Salafi Masjid,Mosque,"V9RP+XJH Salafi Masjid, Kakkad, Kannur, Elayavoor, Kerala 670005",Kakkad,V9RP+XJH,"Kannur, Elayavoor",670005,Kerala,IN,https://www.google.com/maps/place/Salafi+Masjid/data=!4m7!3m6!1s0x3ba43d1ff257a75b:0xef1477cd38a723c8!8m2!3d11.8924464!4d75.3865998!16s%2Fg%2F11g8f06ycc!19sChIJW6dX8h89pDsRyCOnOM13FO8?authuser=0&hl=en&rclk=1,"11.892446399999999,75.3865998"
Chelora juma masjid,Mosque,"VCRJ+3M9 Chelora juma masjid, Kannur, Kerala 670018",,VCRJ+3M9,Kannur,670018,Kerala,IN,https://www.google.com/maps/place/Chelora+juma+masjid/data=!4m7!3m6!1s0x3ba43ca0e0643563:0x1fc630a6c05f3ace!8m2!3d11.8901633!4d75.4317378!16s%2Fg%2F11hcn4dnhh!19sChIJYzVk4KA8pDsRzjpfwKYwxh8?authuser=0&hl=en&rclk=1,"11.8901633,75.4317378"
Thayatheru Moideen Masjid,Mosque,"V99G+8CJ Thayatheru Moideen Masjid, Thayatheru, Thavakkara, Kannur, Kerala 670012","Thayatheru, Thavakkara",V99G+8CJ,Kannur,670012,Kerala,IN,https://www.google.com/maps/place/Thayatheru+Moideen+Masjid/data=!4m7!3m6!1s0x3ba422cd58f3bf4d:0x5a1422a6f12a0c79!8m2!3d11.8683493!4d75.3760227!16s%2Fg%2F11dz54cbr9!19sChIJTb_zWM0ipDsReQwq8aYiFFo?authuser=0&hl=en&rclk=1,"11.8683493,75.3760227"
Masjid,Mosque,"V9HC+CRP Masjid, South Bazar, Talap, Kannur, Kerala 670002","South Bazar, Talap",V9HC+CRP,Kannur,670002,Kerala,IN,https://www.google.com/maps/place/Masjid/data=!4m7!3m6!1s0x3ba43d209bf3747b:0x5c6c54799730693b!8m2!3d11.8785704!4d75.3721585!16s%2Fg%2F11pkfm7p9p!19sChIJe3TzmyA9pDsRO2kwl3lUbFw?authuser=0&hl=en&rclk=1,"11.8785704,75.3721585"
Sidhra Juma Masjid,Mosque,"V9GJ+RR9 Sidhra Juma Masjid, Puzhathi Housing Colony, Kannur, Elayavoor, Kerala 670002",Puzhathi Housing Colony,V9GJ+RR9,"Kannur, Elayavoor",670002,Kerala,IN,https://www.google.com/maps/place/Sidhra+Juma+Masjid/data=!4m7!3m6!1s0x3ba43d2932e7a909:0x604043ff19f1c12d!8m2!3d11.8770375!4d75.3821245!16s%2Fg%2F11bzvc_zwk!19sChIJCannMik9pDsRLcHxGf9DQGA?authuser=0&hl=en&rclk=1,"11.8770375,75.3821245"
Kulangara Masjid,Mosque,"V96H+MMP Kulangara Masjid, KT Ward, City, Kannur, Kerala 670003","KT Ward, City",V96H+MMP,Kannur,670003,Kerala,IN,https://www.google.com/maps/place/Kulangara+Masjid/data=!4m7!3m6!1s0x3ba422d107c2e1e5:0xdacd5c9018cfb725!8m2!3d11.8617041!4d75.3792119!16s%2Fg%2F11b6gccrgr!19sChIJ5eHCB9EipDsRJbfPGJBczdo?authuser=0&hl=en&rclk=1,"11.861704099999999,75.3792119"
Masjid Raheena,Mosque,"Masjid Raheena, Neerchal School, Neerchal City Rd Kodaparamba Kannur, Kerala 670003, Neerchal City Rd, Kodaparamba, Kannur, Kerala 670003",Kodaparamba,"Neerchal School, Neerchal City Rd Kodaparamba Kannur, Kerala 670003, Neerchal City Rd",Kannur,670003,Kerala,IN,https://www.google.com/maps/place/Masjid+Raheena/data=!4m7!3m6!1s0x3ba422d7ee620b29:0x7998903afcef92a2!8m2!3d11.8595072!4d75.3864582!16s%2Fg%2F11dfjxbyz8!19sChIJKQti7tcipDsRopLv_DqQmHk?authuser=0&hl=en&rclk=1,"11.8595072,75.38645819999999"
Ar-Rahman Masjid,Mosque,"V9Q7+CRG Ar-Rahman Masjid, Pallikkunnu, Kannur, Kerala 670004",Pallikkunnu,V9Q7+CRG,Kannur,670004,Kerala,IN,https://www.google.com/maps/place/Ar-Rahman+Masjid/data=!4m7!3m6!1s0x3ba43d407842315d:0x29d377adbcf65acf!8m2!3d11.8885669!4d75.3645675!16s%2Fg%2F11gfj4d4vw!19sChIJXTFCeEA9pDsRz1r2vK130yk?authuser=0&hl=en&rclk=1,"11.888566899999999,75.36456749999999"
Mundayad Juma Masjid,Mosque,"VCV4+3X9 Mundayad Juma Masjid, Kannur - Mattannur Rd, Athirakam, Varam, Kerala 670331",Athirakam,"VCV4+3X9, Kannur - Mattannur Rd",Varam,670331,Kerala,IN,https://www.google.com/maps/place/Mundayad+Juma+Masjid/data=!4m7!3m6!1s0x3ba43cc1da124b81:0x73afb3f908693e5b!8m2!3d11.8926704!4d75.4074829!16s%2Fg%2F1hhw0qz7b!19sChIJgUsS2sE8pDsRWz5pCPmzr3M?authuser=0&hl=en&rclk=1,"11.8926704,75.40748289999999"
Puthiya Islam Palli Mosque,Mosque,"V96G+6GW Puthiya Islam Palli Mosque, Thavakkara, Kannur, Kerala 670007",Thavakkara,V96G+6GW,Kannur,670007,Kerala,IN,https://www.google.com/maps/place/Puthiya+Islam+Palli+Mosque/data=!4m7!3m6!1s0x3ba422d02be9c891:0xb630d2d34d1e03bd!8m2!3d11.8606052!4d75.3763413!16s%2Fg%2F1262z6llh!19sChIJkcjpK9AipDsRvQMeTdPSMLY?authuser=0&hl=en&rclk=1,"11.8606052,75.37634129999999"
Edechovva Noor Masjid,Mosque,"V9PQ+RMJ Edechovva Noor Masjid, po, Edechovva ,po, Kakkad, Kannur, Elayavoor, Kerala 670005","Edechovva ,po, Kakkad","V9PQ+RMJ, po","Kannur, Elayavoor",670005,Kerala,IN,https://www.google.com/maps/place/Edechovva+Noor+Masjid/data=!4m7!3m6!1s0x3ba43cdf48e2e365:0x8f63fad26c0b6a09!8m2!3d11.8870905!4d75.3891518!16s%2Fg%2F11f3jgkwyr!19sChIJZePiSN88pDsRCWoLbNL6Y48?authuser=0&hl=en&rclk=1,"11.8870905,75.3891518"
Malay Steels,Mosque,"Malay Steels, Thana, Kannur, Kerala 670012",Thana,,Kannur,670012,Kerala,IN,https://www.google.com/maps/place/Malay+Steels/data=!4m7!3m6!1s0x3ba43d2ceb6dfd41:0x24cb30ea820ca2a1!8m2!3d11.8711221!4d75.3804698!16s%2Fg%2F11bv1bz9mt!19sChIJQf1t6yw9pDsRoaIMguowyyQ?authuser=0&hl=en&rclk=1,"11.8711221,75.3804698"
Arakkal Kottaram Masjid,Mosque,"Arakkal Kottaram Masjid, Bus Stop, Palamadam, Ayikkara Government Hospital Rd, Thavakkara, Kannur, Kerala 670007",Thavakkara,"Bus Stop, Palamadam, Ayikkara Government Hospital Rd",Kannur,670007,Kerala,IN,https://www.google.com/maps/place/Arakkal+Kottaram+Masjid/data=!4m7!3m6!1s0x3ba423cbe0c63a89:0xef9249125aba3d51!8m2!3d11.859629!4d75.378312!16s%2Fg%2F11l0cs1kn1!19sChIJiTrG4MsjpDsRUT26WhJJku8?authuser=0&hl=en&rclk=1,"11.859629,75.378312"
Kakkad Mahall Juma Masjid,Mosque,"V9VQ+247 Kakkad Mahall Juma Masjid, Kakkad, Kannur, Elayavoor, Kerala 670005",Kakkad,V9VQ+247,"Kannur, Elayavoor",670005,Kerala,IN,https://www.google.com/maps/place/Kakkad+Mahall+Juma+Masjid/data=!4m7!3m6!1s0x3ba43d1ffd908729:0xf34516599932c2ed!8m2!3d11.8925308!4d75.3877949!16s%2Fg%2F11dylrd341!19sChIJKYeQ_R89pDsR7cIymVkWRfM?authuser=0&hl=en&rclk=1,"11.8925308,75.3877949"
ICM Masjid,Mosque,"V97M+5M8 ICM Masjid, Naluvayal, Kannur City, Kerala 670003",Kodaparamba,"V97M+5M8, Naluvayal, Kannur City",,670003,Kerala,IN,https://www.google.com/maps/place/ICM+Masjid/data=!4m7!3m6!1s0x3ba42345a6b413b1:0x5b30d48091d5d4a3!8m2!3d11.862913!4d75.3842133!16s%2Fg%2F11jfm0w9jr!19sChIJsRO0pkUjpDsRo9TVkYDUMFs?authuser=0&hl=en&rclk=1,"11.862912999999999,75.3842133"
Juma Masjid,Mosque,"V9FG+QP5 Juma Masjid, Kannur - Kuthuparamba Rd, Thana, Kannur, Kerala 670012",Thana,"V9FG+QP5, Kannur - Kuthuparamba Rd",Kannur,670012,Kerala,IN,https://www.google.com/maps/place/Juma+Masjid/data=!4m7!3m6!1s0x3ba43dd210b42193:0xf3cfb5542d5f6a16!8m2!3d11.8743956!4d75.3768587!16s%2Fg%2F11gnrsplqj!19sChIJkyG0ENI9pDsRFmpfLVS1z_M?authuser=0&hl=en&rclk=1,"11.8743956,75.3768587"
Arakkal Masjid,Mosque,"V95H+QM3 Arakkal Masjid, Ayikkara Government Hospital Rd, Thavakkara, Kannur, Kerala 670007",Thavakkara,"V95H+QM3, Ayikkara Government Hospital Rd",Kannur,670007,Kerala,IN,https://www.google.com/maps/place/Arakkal+Masjid/data=!4m7!3m6!1s0x3ba422d08a10d59b:0xffdf0ee5da373b53!8m2!3d11.859377!4d75.379177!16s%2Fg%2F1pyqr74nd!19sChIJm9UQitAipDsRUzs32uUO3_8?authuser=0&hl=en&rclk=1,"11.859377,75.379177"
Badariya Masjid And Madrassa,Mosque,"V96F+RGP Badariya Masjid And Madrassa, kilashi, Thavakkara, Kannur, Kerala 670017",Thavakkara,"V96F+RGP, kilashi",Kannur,670017,Kerala,IN,https://www.google.com/maps/place/Badariya+Masjid+And+Madrassa/data=!4m7!3m6!1s0x3ba422ce5dca3d91:0xe20d8fb371f9607d!8m2!3d11.8620968!4d75.37383!16s%2Fg%2F11c1vmwtlb!19sChIJkT3KXc4ipDsRfWD5cbOPDeI?authuser=0&hl=en&rclk=1,"11.8620968,75.37383"
Eesingante Palli Masjid,Mosque,"V96J+34J Eesingante Palli Masjid, Thana - Anayidukku Rd, Thavakkara, Kannur, Kerala 670007",Thavakkara,"V96J+34J, Thana - Anayidukku Rd",Kannur,670007,Kerala,IN,https://www.google.com/maps/place/Eesingante+Palli+Masjid/data=!4m7!3m6!1s0x3ba422d0e96ff6ff:0x66a05b851654227b!8m2!3d11.8602183!4d75.3802784!16s%2Fg%2F12609jb0w!19sChIJ__Zv6dAipDsReyJUFoVboGY?authuser=0&hl=en&rclk=1,"11.8602183,75.3802784"
New Masjid & Madrassa,Mosque,"VC42+G2P New Masjid & Madrassa, Kallen Achuthan Road, Kannur, Kerala 670007",,"VC42+G2P, Kallen Achuthan Road",Kannur,670007,Kerala,IN,https://www.google.com/maps/place/New+Masjid+%26+Madrassa/data=!4m7!3m6!1s0x3ba4233b28dc3997:0xe3e20ed9e65c7ac9!8m2!3d11.8563272!4d75.4000826!16s%2Fg%2F11c5j4jlh_!19sChIJlzncKDsjpDsRyXpc5tkO4uM?authuser=0&hl=en&rclk=1,"11.856327199999999,75.40008259999999"
Teqyaab Masjid,Mosque,"V9J3+MF2 Teqyaab Masjid, Alavil - Azhikode Rd, Chalad, Kannur, Kerala 670014",Chalad,"V9J3+MF2, Alavil - Azhikode Rd",Kannur,670014,Kerala,IN,https://www.google.com/maps/place/Teqyaab+Masjid/data=!4m7!3m6!1s0x3ba43d45234f7493:0x48b3d67d1ea69ec1!8m2!3d11.8816356!4d75.3536559!16s%2Fg%2F11g6jc4vpp!19sChIJk3RPI0U9pDsRwZ6mHn3Ws0g?authuser=0&hl=en&rclk=1,"11.8816356,75.35365589999999"
Masjid niskkaar plllli,Mosque,"V9WP+8JJ Masjid niskkaar plllli, Kakkad, Kannur, Puzhathi, Kerala 670005",Kakkad,V9WP+8JJ,"Kannur, Puzhathi",670005,Kerala,IN,https://www.google.com/maps/place/Masjid+%E0%B4%A8%E0%B4%BF%E0%B4%B8%E0%B5%8D%E0%B4%95%E0%B5%8D%E0%B4%95%E0%B4%BE%E0%B4%B0+%E0%B4%AA%E0%B4%B3%E0%B5%8D%E0%B4%B3%E0%B4%BF/data=!4m7!3m6!1s0x3ba43da5c501726b:0x13e51ed7ace12890!8m2!3d11.8958454!4d75.3865112!16s%2Fg%2F11g4chcg_2!19sChIJa3IBxaU9pDsRkCjhrNce5RM?authuser=0&hl=en&rclk=1,"11.895845399999999,75.3865112"
Muhiyudheen Masjid,Mosque,"X964+7FQ Muhiyudheen Masjid, Kannur, Kerala 670561",,X964+7FQ,Kannur,670561,Kerala,IN,https://www.google.com/maps/place/Muhiyudheen+Masjid/data=!4m7!3m6!1s0x3ba43e091b0eaaa7:0x371886aa1584d904!8m2!3d11.9607057!4d75.3562434!16s%2Fg%2F11dxl2cklp!19sChIJp6oOGwk-pDsRBNmEFaqGGDc?authuser=0&hl=en&rclk=1,"11.9607057,75.3562434"
Masjidu Subhan,Mosque,"V93W+M2P Masjidu Subhan, Maidanappalli, Kannur, Kerala 670007",Maidanappalli,V93W+M2P,Kannur,670007,Kerala,IN,https://www.google.com/maps/place/Masjidu+Subhan/data=!4m7!3m6!1s0x3ba423240d5960fd:0x5afe7077ef04875f!8m2!3d11.8542126!4d75.3950759!16s%2Fg%2F11c0pzsjxk!19sChIJ_WBZDSQjpDsRX4cE73dw_lo?authuser=0&hl=en&rclk=1,"11.8542126,75.3950759"
Tabaliq Masjid,Religious destination,"V9GJ+RWX Tabaliq Masjid, opposite Dhanalakshmi Hospitals Private Limited, Puzhathi Housing Colony, Kannur, Elayavoor, Kerala 670002",Puzhathi Housing Colony,"V9GJ+RWX, opposite Dhanalakshmi Hospitals Private Limited","Kannur, Elayavoor",,Kerala,IN,https://www.google.com/maps/place/Tabaliq+Masjid/data=!4m7!3m6!1s0x3ba43dfcc32bbd05:0x80826bd3bc95d5d8!8m2!3d11.8771199!4d75.3823619!16s%2Fg%2F11f5_1pynh!19sChIJBb0rw_w9pDsR2NWVvNNrgoA?authuser=0&hl=en&rclk=1,"11.8771199,75.38236189999999"
Arakkal Palace Ground Masjid,Mosque,"V95H+V85 Arakkal Palace Ground Masjid, behind Arakkal Museum, Thavakkara, Kannur, Kerala 670003",Thavakkara,"V95H+V85, behind Arakkal Museum",Kannur,670003,Kerala,IN,https://www.google.com/maps/place/Arakkal+Palace+Ground+Masjid/data=!4m7!3m6!1s0x3ba422d067a8b615:0x801e1272735277c2!8m2!3d11.8596304!4d75.3783724!16s%2Fg%2F11fz_gwssx!19sChIJFbaoZ9AipDsRwndSc3ISHoA?authuser=0&hl=en&rclk=1,"11.8596304,75.3783724"
Badar Juma Masjid,Mosque,"VCW6+GVX Badar Juma Masjid, Kannur, Kerala 670018",,VCW6+GVX,Kannur,670018,Kerala,IN,https://www.google.com/maps/place/Badar+Juma+Masjid/data=!4m7!3m6!1s0x3ba43c94d9344c29:0x626eda0aadce4498!8m2!3d11.8963648!4d75.412242!16s%2Fg%2F11c2jrmzdd!19sChIJKUw02ZQ8pDsRmETOrQrabmI?authuser=0&hl=en&rclk=1,"11.896364799999999,75.41224199999999"
Shaik juma masjid ( shaikinnte palli),Mosque,"V95M+623 Shaik juma masjid ( shaikinnte palli), City - Neerchal Rd, Kodaparamba, Kannur, Kerala 670007",Kodaparamba,"V95M+623, City - Neerchal Rd",Kannur,670007,Kerala,IN,https://www.google.com/maps/place/Shaik+juma+masjid+%28+shaikinnte+palli%29/data=!4m7!3m6!1s0x3ba423017b36be7d:0x1b262db461e61e65!8m2!3d11.8580036!4d75.3825499!16s%2Fg%2F11h0n32437!19sChIJfb42ewEjpDsRZR7mYbQtJhs?authuser=0&hl=en&rclk=1,"11.8580036,75.3825499"
Isinkhanni Mosque,Mosque,"Isinkhanni Mosque, City Junction, Thavakkara, Kannur, Kerala 670003",Thavakkara,City Junction,Kannur,670003,Kerala,IN,https://www.google.com/maps/place/Isinkhanni+Mosque/data=!4m7!3m6!1s0x3ba423fba74cfde7:0xaf164b4bd2035fd3!8m2!3d11.8601307!4d75.3803445!16s%2Fg%2F11gy4tfhxy!19sChIJ5_1Mp_sjpDsR018D0ktLFq8?authuser=0&hl=en&rclk=1,"11.8601307,75.38034449999999"
Masjid Al Falah,Mosque,"VC34+CM8 Masjid Al Falah, Kannur, Kerala 670007",,VC34+CM8,Kannur,670007,Kerala,IN,https://www.google.com/maps/place/Masjid+Al+Falah/data=!4m7!3m6!1s0x3ba423aa5be20815:0xfb11c0998ee6f182!8m2!3d11.8535434!4d75.4067042!16s%2Fg%2F11v0jtyc6r!19sChIJFQjiW6ojpDsRgvHmjpnAEfs?authuser=0&hl=en&rclk=1,"11.8535434,75.4067042"
Ilahiya Masjid,Mosque,"V96W+8VR Ilahiya Masjid, Kannur, Kerala 670007",,V96W+8VR,Kannur,,Kerala,IN,https://www.google.com/maps/place/Ilahiya+Masjid/data=!4m7!3m6!1s0x3ba42378f28b80b9:0xede6590d6af6c6e2!8m2!3d11.8608586!4d75.3971311!16s%2Fg%2F11mq55z_5j!19sChIJuYCL8ngjpDsR4sb2ag1Z5u0?authuser=0&hl=en&rclk=1,"11.8608586,75.3971311"
kunnipplllli,Mosque,"V9FC+Q4X kunnipplllli, pedyangode, Kannur, Kerala 670001",pedyangode,V9FC+Q4X,Kannur,,Kerala,IN,https://www.google.com/maps/place/%E0%B4%95%E0%B5%81%E0%B4%A8%E0%B5%8D%E0%B4%A8%E0%B4%BF%E0%B4%AA%E0%B5%8D%E0%B4%AA%E0%B4%B3%E0%B5%8D%E0%B4%B3%E0%B4%BF/data=!4m7!3m6!1s0x3ba43d8388f54dbb:0x97d88f42c6c2b8f1!8m2!3d11.8744775!4d75.3703661!16s%2Fg%2F11hzmt05jc!19sChIJu031iIM9pDsR8bjCxkKP2Jc?authuser=0&hl=en&rclk=1,"11.8744775,75.3703661"
Adikadalayi Ahmadiya Masjid,Mosque,"R9WX+983 Adikadalayi Ahmadiya Masjid, Kannur, Kerala 670007",,R9WX+983,Kannur,670007,Kerala,IN,https://www.google.com/maps/place/Adikadalayi+Ahmadiya+Masjid/data=!4m7!3m6!1s0x3ba423e5292941c9:0x1f07ac5e96df7ac5!8m2!3d11.8458996!4d75.398293!16s%2Fg%2F11j20s2v96!19sChIJyUEpKeUjpDsRxXrfll6sBx8?authuser=0&hl=en&rclk=1,"11.8458996,75.398293"
Uruvachaal Salafi Masjid,Mosque,"V97X+RM3 Uruvachaal Salafi Masjid, Thayyil - Marakkarkandy Rd, Marakkarkandy, Kannur, Kerala 670007",Marakkarkandy,"V97X+RM3, Thayyil - Marakkarkandy Rd",Kannur,670007,Kerala,IN,https://www.google.com/maps/place/Uruvachaal+Salafi+Masjid/data=!4m7!3m6!1s0x3ba4236c156bc729:0x9a545e7ce9d81d1e!8m2!3d11.8645157!4d75.3991636!16s%2Fg%2F11rgrfp82p!19sChIJKcdrFWwjpDsRHh3Y6XxeVJo?authuser=0&hl=en&rclk=1,"11.8645157,75.3991636"
Hydros Juma Masjid Kuruva,Mosque,"VC33+J62 Hydros Juma Masjid Kuruva, Kannur, Kerala 670007",,VC33+J62,Kannur,,Kerala,IN,https://www.google.com/maps/place/Hydros+Juma+Masjid+Kuruva/data=!4m7!3m6!1s0x3ba4237a0a133d9b:0xd2c8f506ee92c875!8m2!3d11.8540143!4d75.4030014!16s%2Fg%2F11vc51st4j!19sChIJmz0TCnojpDsRdciS7gb1yNI?authuser=0&hl=en&rclk=1,"11.8540143,75.4030014"
Darul Furqan Islamic Academy Kakkad (Shamas Masjid),Mosque,"V9RM+XFW Darul Furqan Islamic Academy Kakkad (Shamas Masjid), VP Mahmoodhaji Road, Kakkad, Kannur, Puzhathi, Kerala 670005",Kakkad,"V9RM+XFW, VP Mahmoodhaji Road","Kannur, Puzhathi",670005,Kerala,IN,https://www.google.com/maps/place/Darul+Furqan+Islamic+Academy+Kakkad+%28Shamas+Masjid%29/data=!4m7!3m6!1s0x3ba43d70002fedbf:0x421f41d190e5dad6!8m2!3d11.8924974!4d75.3837138!16s%2Fg%2F11rfdzvn6y!19sChIJv-0vAHA9pDsR1trlkNFBH0I?authuser=0&hl=en&rclk=1,"11.8924974,75.3837138"
AL ABRAR JUMA MASJID,Mosque,"V9FF+RQ2 AL ABRAR JUMA MASJID, Thavakkara, Kannur, Kerala 670012",Thavakkara,V9FF+RQ2,Kannur,,Kerala,IN,https://www.google.com/maps/place/AL+ABRAR+JUMA+MASJID/data=!4m7!3m6!1s0x3ba43dbc738d6611:0x55a7d464bb0febd9!8m2!3d11.8745053!4d75.3743826!16s%2Fg%2F11st74szw2!19sChIJEWaNc7w9pDsR2esPu2TUp1U?authuser=0&hl=en&rclk=1,"11.8745053,75.37438259999999"
Bilal Juma Masjid,Mosque,"V9FC+Q4X Bilal Juma Masjid, Thavakkara, Kannur, Kerala 670001",Thavakkara,V9FC+Q4X,Kannur,,Kerala,IN,https://www.google.com/maps/place/Bilal+Juma+Masjid/data=!4m7!3m6!1s0x3ba43d142e32ff07:0xe87b566a7524ddec!8m2!3d11.8744775!4d75.3703662!16s%2Fg%2F11vds2gcmc!19sChIJB_8yLhQ9pDsR7N0kdWpWe-g?authuser=0&hl=en&rclk=1,"11.8744775,75.37036619999999"
Shaduli Masjid,Mosque,"V98G+7HP Shaduli Masjid, Thayatheru Rd, Thayatheru, Thavakkara, Kannur, Kerala 670002","Thayatheru, Thavakkara","V98G+7HP, Thayatheru Rd",Kannur,670002,Kerala,IN,https://www.google.com/maps/place/Shaduli+Masjid/data=!4m7!3m6!1s0x3ba422d2776eaaab:0x135b840dbac923f6!8m2!3d11.8657083!4d75.3764456!16s%2Fg%2F11txmzndk4!19sChIJq6pud9IipDsR9iPJug2EWxM?authuser=0&hl=en&rclk=1,"11.8657083,75.3764456"
Masjid e shareef zangjing kanoor,Mosque,"V99F+2R6 Masjid e shareef zangjing kanoor, Zangjing, Thavakkara, Kannur, Kerala 670012",Thavakkara,"V99F+2R6, Zangjing",Kannur,,Kerala,IN,https://www.google.com/maps/place/Masjid+e+shareef+zangjing+kanoor/data=!4m7!3m6!1s0x3ba423b967f37617:0xba733e631d318340!8m2!3d11.86753!4d75.374509!16s%2Fg%2F11rrj3mdff!19sChIJF3bzZ7kjpDsRQIMxHWM-c7o?authuser=0&hl=en&rclk=1,"11.867529999999999,75.374509"
WISDOM YOUTH,Mosque,"V9HC+9VM WISDOM YOUTH, South Bazar, Talap, Kannur, Kerala 670002","South Bazar, Talap",V9HC+9VM,Kannur,670002,Kerala,IN,https://www.google.com/maps/place/WISDOM+YOUTH/data=!4m7!3m6!1s0x3ba43d958b939b41:0xa922e9269dbe461a!8m2!3d11.8784618!4d75.3721731!16s%2Fg%2F11qpq789wp!19sChIJQZuTi5U9pDsRGka-nSbpIqk?authuser=0&hl=en&rclk=1,"11.8784618,75.3721731"
Huda masjid payyambalam without jaaram,Mosque,"V994+HJ2 Huda masjid payyambalam without jaaram, Payyambalam, Kannur, Kerala 670014",Payyambalam,V994+HJ2,Kannur,,Kerala,IN,https://www.google.com/maps/place/Huda+masjid+payyambalam+without+jaaram/data=!4m7!3m6!1s0x3ba43dd70974fd21:0x78a2251163b79f8!8m2!3d11.8688908!4d75.3565214!16s%2Fg%2F11l362rcq2!19sChIJIf10Cdc9pDsR-Hk7FlEiigc?authuser=0&hl=en&rclk=1,"11.868890799999999,75.35652139999999"
Kannur city misbahul huda madrasa,Mosque,"V96J+R72 Kannur city misbahul huda madrasa, Cochi palli, Thana, Kannur, Kerala 670007","Nallupura, Thana","V96J+R72, Cochi palli",Kannur,670007,Kerala,IN,https://www.google.com/maps/place/Kannur+city+misbahul+huda+madrasa/data=!4m7!3m6!1s0x3ba423f0d783bc7b:0x9f891c506f4348ff!8m2!3d11.8620197!4d75.3806492!16s%2Fg%2F11q8t8qtx8!19sChIJe7yD1_AjpDsR_0hDb1AciZ8?authuser=0&hl=en&rclk=1,"11.8620197,75.3806492"
SUMAYYA MASJID,Mosque,"W9H9+6F9 SUMAYYA MASJID, Kannur, Kerala 670011",,W9H9+6F9,Kannur,,Kerala,IN,https://www.google.com/maps/place/SUMAYYA+MASJID/data=!4m7!3m6!1s0x3ba43dcee4277193:0xbaa06ecb620a7a48!8m2!3d11.9280317!4d75.3687218!16s%2Fg%2F11j36lc2f5!19sChIJk3En5M49pDsRSHoKYstuoLo?authuser=0&hl=en&rclk=1,"11.9280317,75.3687218"
Peringalayi juma masjid,Mosque,"VCHF+7H2 Peringalayi juma masjid, Peringalayi, Thilannur, Kannur, Kerala 670006",Thilannur,"VCHF+7H2, Peringalayi",Kannur,,Kerala,IN,https://www.google.com/maps/place/Peringalayi+juma+masjid/data=!4m7!3m6!1s0x3ba43d746e780af5:0x40f7178275a0133e!8m2!3d11.8781442!4d75.4238929!16s%2Fg%2F11sfjs66s0!19sChIJ9Qp4bnQ9pDsRPhOgdYIX90A?authuser=0&hl=en&rclk=1,"11.8781442,75.4238929"
