name,main_category,address,address_ward,address_street,address_city,address_postal_code,address_state,address_country_code,link,coordinates
Ishaat e Islam Masjid - sh`t  slm msjd,Mosque,"Ishaat e Islam Masjid - sh`t  slm msjd, Ishat E Islam, Hari Kothi Rd, Abul Fazal Enclave Part 1, Abul Fazal Enclave, Jamia Nagar, Okhla, New Delhi, Delhi 110025","Abul Fazal Enclave Part 1, Abul Fazal Enclave, Jamia Nagar, Okhla","Ishat E Islam, Hari Kothi Rd",New Delhi,110025,Delhi,IN,https://www.google.com/maps/place/Ishaat+e+Islam+Masjid+-+%D8%A7%D8%B4%D8%A7%D8%B9%D8%AA+%D8%A1+%D8%A7%D8%B3%D9%84%D8%A7%D9%85+%D9%85%D8%B3%D8%AC%D8%AF%E2%80%AD/data=!4m7!3m6!1s0x390ce40c2ff9b231:0x608aa5b5af203426!8m2!3d28.5567717!4d77.2942062!16s%2Fg%2F1tvt8qxd!19sChIJMbL5LwzkDDkRJjQgr7WlimA?authuser=0&hl=en&rclk=1,"28.5567717,77.29420619999999"
Al Noor Masjid,Mosque,"Al Noor Masjid, Nafees Rd, Batla House, Jamia Nagar, Okhla, New Delhi, Delhi 110025","Batla House, Jamia Nagar, Okhla",Nafees Rd,New Delhi,110025,Delhi,IN,https://www.google.com/maps/place/Al+Noor+Masjid/data=!4m7!3m6!1s0x390ce476496a23f3:0xa12d95c7c3bb68ab!8m2!3d28.569068!4d77.2862973!16s%2Fg%2F1tg_7v_w!19sChIJ8yNqSXbkDDkRq2i7w8eVLaE?authuser=0&hl=en&rclk=1,"28.569067999999998,77.2862973"
Banglewali Masjid Nizamuddin Delhi,Mosque,"H6RV+Q92 Banglewali Masjid Nizamuddin Delhi, Nizamuddin, Nizamuddin West, New Delhi, Delhi 110013","Nizamuddin, Nizamuddin West",H6RV+Q92,New Delhi,110013,Delhi,IN,https://www.google.com/maps/place/Banglewali+Masjid+Nizamuddin+Delhi/data=!4m7!3m6!1s0x390ce3a6d502fcdd:0x815ff619eadff235!8m2!3d28.5918991!4d77.2433834!16s%2Fm%2F04ybd07!19sChIJ3fwC1abjDDkRNfLf6hn2X4E?authuser=0&hl=en&rclk=1,"28.5918991,77.2433834"
Jama Masjid (Shaheen Bagh),Mosque,"Jama Masjid (Shaheen Bagh), 12, Kalindi Kunj Rd, Block B, Jamia Nagar, Jasola, New Delhi, Delhi 110025","Block B, Jamia Nagar, Jasola","12, Kalindi Kunj Rd",New Delhi,110025,Delhi,IN,https://www.google.com/maps/place/Jama+Masjid+%28Shaheen+Bagh%29/data=!4m7!3m6!1s0x390ce41a3d9d581b:0xc7b0e62465b11de9!8m2!3d28.5496905!4d77.3028252!16s%2Fg%2F11g7p2t2hd!19sChIJG1idPRrkDDkR6R2xZSTmsMc?authuser=0&hl=en&rclk=1,"28.549690499999997,77.3028252"
Masjid Umar Farooq,Mosque,"Masjid Umar Farooq, F-56, Allama Shibli Nomani Road, Shaheen Bagh, Okhla, New Delhi, Delhi 110025","Shaheen Bagh, Okhla","F-56, Allama Shibli Nomani Road",New Delhi,110025,Delhi,IN,https://www.google.com/maps/place/Masjid+Umar+Farooq/data=!4m7!3m6!1s0x390ce41c85bb1f59:0x6e5c74657b2ef350!8m2!3d28.5444786!4d77.3006375!16s%2Fg%2F12qfsrfxd!19sChIJWR-7hRzkDDkRUPMue2V0XG4?authuser=0&hl=en&rclk=1,"28.544478599999998,77.3006375"
Masjid and Madarsa,Mosque,"H78P+G28 Masjid and Madarsa, Jamia, Batla House, Jamia Nagar, Okhla, New Delhi, Delhi 110025","Jamia, Batla House, Jamia Nagar, Okhla",H78P+G28,New Delhi,110025,Delhi,IN,https://www.google.com/maps/place/Masjid+and+Madarsa/data=!4m7!3m6!1s0x390ce38a18a5d97f:0xdcfc61f3d0f88168!8m2!3d28.5662905!4d77.2850829!16s%2Fg%2F1hg4wfd46!19sChIJf9mlGIrjDDkRaIH40PNh_Nw?authuser=0&hl=en&rclk=1,"28.566290499999997,77.28508289999999"
Masjid Ahle Hadees Complex,Mosque,"Masjid Ahle Hadees Complex, Masjid Ahle Hadith, Abul Fazal Enclave Rd, Abul Fazal Enclave, Part-1 Block D, Jamia Nagar, Okhla, New Delhi, Delhi 110025","Abul Fazal Enclave, Part-1 Block D, Jamia Nagar, Okhla","Masjid Ahle Hadith, Abul Fazal Enclave Rd",New Delhi,110025,Delhi,IN,https://www.google.com/maps/place/Masjid+Ahle+Hadees+Complex/data=!4m7!3m6!1s0x390ce40c73baaaab:0x2df53bf54a754cc2!8m2!3d28.557614!4d77.2927269!16s%2Fg%2F11g7296y61!19sChIJq6q6cwzkDDkRwkx1SvU79S0?authuser=0&hl=en&rclk=1,"28.557613999999997,77.29272689999999"
Abdullah Masjid,Mosque,"23, Abdullah Masjid, S93, Street, Block S, Brahampuri, Shahdara, Delhi, 110053","Block S, Brahampuri, Shahdara","23, S93, Street",Delhi,110053,Delhi,IN,https://www.google.com/maps/place/Abdullah+Masjid/data=!4m7!3m6!1s0x390cfc66d71e26d1:0x745fd7b91d65e559!8m2!3d28.6802014!4d77.2666311!16s%2Fg%2F11ckvvnmzm!19sChIJ0SYe12b8DDkRWeVlHbnXX3Q?authuser=0&hl=en&rclk=1,"28.680201399999998,77.2666311"
"Ibn Qaiyem Masjid ""SaLaf_AhLuLHadeeth""",Mosque,"Ibn Qaiyem Masjid ""SaLaf_AhLuLHadeeth"", D-41, Maulana Azad Rd, Shaheen Bagh, Jasola Vihar, New Delhi, Delhi 110020","Shaheen Bagh, Jasola Vihar","D-41, Maulana Azad Rd",New Delhi,110020,Delhi,IN,https://www.google.com/maps/place/Ibn+Qaiyem+Masjid+%22SaLaf_AhLuLHadeeth%22/data=!4m7!3m6!1s0x390ce41b187ad489:0xe6af2821a75ca812!8m2!3d28.5477876!4d77.2994573!16s%2Fg%2F11bttbrp19!19sChIJidR6GBvkDDkREqhcpyEor-Y?authuser=0&hl=en&rclk=1,"28.5477876,77.2994573"
Masjid Umar ibn Khattab Ahle Hadees,Mosque,"G8X3+2R4 Masjid Umar ibn Khattab Ahle Hadees, Kalindi Kunj Rd, Shaheen Bagh, Jamia Nagar, Okhla, New Delhi, Delhi 110025","Shaheen Bagh, Jamia Nagar, Okhla","G8X3+2R4, Kalindi Kunj Rd",New Delhi,110025,Delhi,IN,https://www.google.com/maps/place/Masjid+Umar+ibn+Khattab+Ahle+Hadees/data=!4m7!3m6!1s0x390ce4196e33e035:0x7187e898e383e521!8m2!3d28.5475049!4d77.3045864!16s%2Fg%2F11ddwvd6j7!19sChIJNeAzbhnkDDkRIeWD45joh3E?authuser=0&hl=en&rclk=1,"28.5475049,77.30458639999999"
Jam'a Masjid Muhammadi (Badi Masjid),Mosque,"Jam'a Masjid Muhammadi (Badi Masjid), Open 24*365, From 'Fajr' Prayer to 'Isha' Prayer), Phase 2, i, Nangloi, Delhi, 110041","Block A, JJ Colony No 2, Nangloi","Open 24*365, From 'Fajr' Prayer to 'Isha' Prayer), Phase 2, i",Delhi,110041,Delhi,IN,https://www.google.com/maps/place/Jam%27a+Masjid+Muhammadi+%28Badi+Masjid%29/data=!4m7!3m6!1s0x390d0431466b1907:0x27ba04939e7e31f6!8m2!3d28.6839018!4d77.0633588!16s%2Fg%2F11bx6v55xw!19sChIJBxlrRjEEDTkR9jF-npMEuic?authuser=0&hl=en&rclk=1,"28.683901799999997,77.0633588"
Masjid Chakkarwali,Mosque,"H6VV+J99 Masjid Chakkarwali, Dr Zakir Hussain Marg, Nizamuddin, National Zoological Park, Sundar Nagar, New Delhi, Delhi 110003","Nizamuddin, National Zoological Park, Sundar Nagar","H6VV+J99, Dr Zakir Hussain Marg",New Delhi,110003,Delhi,IN,https://www.google.com/maps/place/Masjid+Chakkarwali/data=!4m7!3m6!1s0x390ce31d01969b01:0xa554bb4cb707340e!8m2!3d28.5940396!4d77.2434789!16s%2Fg%2F1tg6nhqh!19sChIJAZuWAR3jDDkRDjQHt0y7VKU?authuser=0&hl=en&rclk=1,"28.5940396,77.2434789"
bilal masjid.,Mosque,"P24V+6FG bilal masjid., Durga Mandir Rd, Phase 2, Inder Enclave, Rohini, New Delhi, Delhi, 110086","Phase 2, Inder Enclave, Rohini","P24V+6FG, Durga Mandir Rd","New Delhi, Delhi",110086,Delhi,IN,https://www.google.com/maps/place/bilal+masjid./data=!4m7!3m6!1s0x390d06709583ec61:0x52f266630d1af0ed!8m2!3d28.7055626!4d77.0437043!16s%2Fg%2F11g6r27xpk!19sChIJYeyDlXAGDTkR7fAaDWNm8lI?authuser=0&hl=en&rclk=1,"28.7055626,77.0437043"
Abdul Salam Masjid,Mosque,"Abdul Salam Masjid, Gali No.13, Subhas Mohalla, North Ghonda, Delhi, 110053","Block C, Subash Vihar, Shahdara","Gali No.13, Subhas Mohalla, North Ghonda",Delhi,110053,Delhi,IN,https://www.google.com/maps/place/Abdul+Salam+Masjid/data=!4m7!3m6!1s0x390cfc6cea81d02d:0x4eff761b07605697!8m2!3d28.6956007!4d77.2705344!16s%2Fg%2F1jgly4_2k!19sChIJLdCB6mz8DDkRl1ZgBxt2_04?authuser=0&hl=en&rclk=1,"28.6956007,77.2705344"
Jama Masjid (Batla House),Mosque,"H, Jama Masjid (Batla House), 334, 7, Street Number 6, Batla House, Okhla, New Delhi, Delhi 110025","Jamia, Batla House, Jamia Nagar, Okhla","H, 334, 7, Street Number 6",New Delhi,110025,Delhi,IN,https://www.google.com/maps/place/Jama+Masjid+%28Batla+House%29/data=!4m7!3m6!1s0x390ce3207d46fe8f:0xe6bf4d1a3f6d4108!8m2!3d28.5661636!4d77.2851632!16s%2Fg%2F11llyqcllh!19sChIJj_5GfSDjDDkRCEFtPxpNv-Y?authuser=0&hl=en&rclk=1,"28.5661636,77.2851632"
Ahle Sunnat wal jamaat RazaeMuhammadi Masjid,Mosque,"J6X8+JC2 Ahle Sunnat wal jamaat RazaeMuhammadi Masjid, Aram Nagar, Paharganj, New Delhi, Delhi 110055","Aram Nagar, Paharganj",J6X8+JC2,New Delhi,110055,Delhi,IN,https://www.google.com/maps/place/Ahle+Sunnat+wal+jamaat+RazaeMuhammadi+Masjid/data=!4m7!3m6!1s0x390cfd6b1c55570b:0xb6cbdaabca9cc6b2!8m2!3d28.6490022!4d77.2160178!16s%2Fg%2F11g6mj_5x9!19sChIJC1dVHGv9DDkRssacyqvay7Y?authuser=0&hl=en&rclk=1,"28.649002199999998,77.2160178"
Puliya Wali Masjid,Mosque,"J6R9+Q48 Puliya Wali Masjid, Main Bazar Rd, Ratan Lal Market, Aram Bagh, Paharganj, New Delhi, Delhi, 110055","Ratan Lal Market, Aram Bagh, Paharganj","J6R9+Q48, Main Bazar Rd","New Delhi, Delhi",110055,Delhi,IN,https://www.google.com/maps/place/Puliya+Wali+Masjid/data=!4m7!3m6!1s0x390cfd3f5dcc4137:0x1ed0072a0c155076!8m2!3d28.6419015!4d77.2178423!16s%2Fg%2F12q4q_hw8!19sChIJN0HMXT_9DDkRdlAVDCoH0B4?authuser=0&hl=en&rclk=1,"28.6419015,77.2178423"
Masjid Dai-Wali,Mosque,"Shop No, Masjid Dai-Wali, 3136, Delhi Gate Bazar, Kucha Alam, Khabas Pura, Daryaganj, New Delhi, Delhi, 110002","Kucha Alam, Khabas Pura, Daryaganj","Shop No, 3136, Delhi Gate Bazar","New Delhi, Delhi",110002,Delhi,IN,https://www.google.com/maps/place/Masjid+Dai-Wali/data=!4m7!3m6!1s0x390cfd20da360d31:0x7e303aff50cc4c2b!8m2!3d28.6435772!4d77.2380546!16s%2Fg%2F1jky_pbsw!19sChIJMQ022iD9DDkRK0zMUP86MH4?authuser=0&hl=en&rclk=1,"28.6435772,77.2380546"
Masjid Devband,Mosque,"G66Q+44V Masjid Devband, Tigri Colony, Tigri, Sangam Vihar, New Delhi, Delhi 110062","Tigri Colony, Tigri, Sangam Vihar",G66Q+44V,New Delhi,110062,Delhi,IN,https://www.google.com/maps/place/Masjid+Devband/data=!4m7!3m6!1s0x390ce1a02ba173f3:0x74659f41cc7c1b39!8m2!3d28.5103517!4d77.2377863!16s%2Fg%2F11b808708z!19sChIJ83OhK6DhDDkRORt8zEGfZXQ?authuser=0&hl=en&rclk=1,"28.510351699999998,77.2377863"
Masjid Ahad msjd Hd,Mosque,"H73R+RR9 Masjid Ahad msjd Hd, C35 /A, Okhla Vihar Main Rd, Okhla Vihar, Okhla Vihar, Block C, Jamia Nagar, Okhla, New Delhi, Delhi 110025","Okhla Vihar, Okhla Vihar, Block C, Jamia Nagar, Okhla","H73R+RR9, C35 /A, Okhla Vihar Main Rd",New Delhi,110025,Delhi,IN,https://www.google.com/maps/place/Masjid+Ahad+%D9%85%D8%B3%D8%AC%D8%AF+%D8%A7%D8%AD%D8%AF%E2%80%AD/data=!4m7!3m6!1s0x390ce40931dfd3cd:0x3136d0d41ecf6789!8m2!3d28.5537242!4d77.2917823!16s%2Fg%2F11g6bptfv3!19sChIJzdPfMQnkDDkRiWfPHtTQNjE?authuser=0&hl=en&rclk=1,"28.553724199999998,77.2917823"
Jannatul Firdose Masjid msjd jn@lfrdws,Mosque,"G8J6+H6X Jannatul Firdose Masjid msjd jn@lfrdws, Madanpur Khadar Extension, Block A, Madanpur Khadar, New Delhi, Delhi 110076","Madanpur Khadar Extension, Block A, Madanpur Khadar",G8J6+H6X,New Delhi,110076,Delhi,IN,https://www.google.com/maps/place/Jannatul+Firdose+Masjid+%D9%85%D8%B3%D8%AC%D8%AF+%D8%AC%D9%86%D8%A9%D8%A7%D9%84%D9%81%D8%B1%D8%AF%D9%88%D8%B3%E2%80%AD/data=!4m7!3m6!1s0x390ce698614a56a5:0x1c3fad641cabab20!8m2!3d28.5314784!4d77.3106246!16s%2Fg%2F11dybr1nt3!19sChIJpVZKYZjmDDkRIKurHGStPxw?authuser=0&hl=en&rclk=1,"28.531478399999997,77.3106246"
Masjid Abdul Ghani (Connaught Place) Advocate Feroz Khan Ghazi,Mosque,"Masjid Abdul Ghani (Connaught Place) Advocate Feroz Khan Ghazi, 23 A, Chelmsford Rd, Railway Colony, Paharganj, New Delhi, Delhi 110055","Railway Colony, Paharganj","23 A, Chelmsford Rd",New Delhi,110055,Delhi,IN,https://www.google.com/maps/place/Masjid+Abdul+Ghani+%28Connaught+Place%29+Advocate+Feroz+Khan+Ghazi/data=!4m7!3m6!1s0x390cfd3870115457:0x6ea3f798cfa92403!8m2!3d28.6368217!4d77.2181646!16s%2Fg%2F1hm35b78b!19sChIJV1QRcDj9DDkRAySpz5j3o24?authuser=0&hl=en&rclk=1,"28.6368217,77.2181646"
Allah Rasool Masjid,Mosque,"Allah Rasool Masjid, f-495, Khajuri khas Extension, Khazoori Khas, Delhi, 110094","Khajuri khas Extension, Khazoori Khas",f-495,Delhi,110094,Delhi,IN,https://www.google.com/maps/place/Allah+Rasool+Masjid/data=!4m7!3m6!1s0x390cfc3d9a59be9b:0xfdc31ce49253f00b!8m2!3d28.7044871!4d77.26259!16s%2Fg%2F11fz96_61r!19sChIJm75Zmj38DDkRC_BTkuQcw_0?authuser=0&hl=en&rclk=1,"28.704487099999998,77.26259"
AHLULBAYT MASJID,Mosque,"P77G+GM4 AHLULBAYT MASJID, Street Number 7, Block B, Old Mustafabad, New Mustafabad, Delhi, 110094","Block B, Old Mustafabad, New Mustafabad","P77G+GM4, Street Number 7",Delhi,110094,Delhi,IN,https://www.google.com/maps/place/AHLULBAYT+MASJID/data=!4m7!3m6!1s0x390cfc035216d2ed:0xe8f61cdd37ad8055!8m2!3d28.7137553!4d77.2767096!16s%2Fg%2F12lkfhdyg!19sChIJ7dIWUgP8DDkRVYCtN90c9ug?authuser=0&hl=en&rclk=1,"28.7137553,77.27670959999999"
Jama Masjid,Mosque,"Jama Masjid, F-132, Kalindi Kunj Rd, Abul Fazal Enclave Part 1, Part 1 Abul Fazal Enclave, Block C, Jamia Nagar, Okhla, New Delhi, Delhi 110025","Abul Fazal Enclave Part 1, Part 1 Abul Fazal Enclave, Block C, Jamia Nagar, Okhla","F-132, Kalindi Kunj Rd",New Delhi,110025,Delhi,IN,https://www.google.com/maps/place/Jama+Masjid/data=!4m7!3m6!1s0x390ce474fc283e6d:0xbf47a3d3e25a4cad!8m2!3d28.560132!4d77.294788!16s%2Fg%2F12hkzr6p1!19sChIJbT4o_HTkDDkRrUxa4tOjR78?authuser=0&hl=en&rclk=1,"28.560132,77.294788"
Jama masjid Ilhami,Mosque,"Jama masjid Ilhami, A-30/7, Mansa Mandir Road No. 30, Block A, Prem Nagar III, Prem Nagar, Delhi, 110086","Block A, Prem Nagar III, Prem Nagar","A-30/7, Mansa Mandir Road No. 30",Delhi,110086,Delhi,IN,https://www.google.com/maps/place/Jama+masjid+Ilhami/data=!4m7!3m6!1s0x390d05d5e6e6f1d7:0xc3ae8ac3c0297196!8m2!3d28.69747!4d77.0508707!16s%2Fg%2F12hmw5r01!19sChIJ1_Hm5tUFDTkRlnEpwMOKrsM?authuser=0&hl=en&rclk=1,"28.69747,77.05087069999999"
EIDGAH & MASJID MANDOLI `ydgh & msjd mndd wly,Mosque,"P837+Q5M EIDGAH & MASJID MANDOLI `ydgh & msjd mndd wly, BUDH BAZAR ROAD BANK COLONY RAJIV NAGAR, Mandoli, Delhi, 110093","Budh Vihar, Mandoli","P837+Q5M, BUDH BAZAR ROAD BANK COLONY RAJIV NAGAR",Delhi,110093,Delhi,IN,https://www.google.com/maps/place/EIDGAH+%26+MASJID+MANDOLI+%D8%B9%DB%8C%D8%AF%DA%AF%D8%A7%DB%81+%26+%D9%85%D8%B3%D8%AC%D8%AF+%D9%85%D9%86%DA%88+%D9%88%D9%84%DB%8C%E2%80%AD/data=!4m7!3m6!1s0x390cfbc103a082b5:0x7e3fa7e11bedab2b!8m2!3d28.7044533!4d77.3129223!16s%2Fg%2F11cmzzb_k5!19sChIJtYKgA8H7DDkRK6vtG-GnP34?authuser=0&hl=en&rclk=1,"28.704453299999997,77.3129223"
Ata E Rasool Masjid,Mosque,"P744+V55 Ata E Rasool Masjid, Shriram Colony, Block A, Rajiv Nagar, Sonia Vihar, Delhi, 110094","Shriram Colony, Block A, Rajiv Nagar, Sonia Vihar",P744+V55,Delhi,110094,Delhi,IN,https://www.google.com/maps/place/Ata+E+Rasool+Masjid/data=!4m7!3m6!1s0x390cfc3b2d10341f:0xd365e06455e65096!8m2!3d28.7071349!4d77.2554772!16s%2Fg%2F11dxrw2d2x!19sChIJHzQQLTv8DDkRllDmVWTgZdM?authuser=0&hl=en&rclk=1,"28.7071349,77.2554772"
Masjid-e-Anjum,Mosque,"Masjid-e-Anjum, Indira Gandhi Camp Part 2, New Friends Colony, New Delhi, Delhi 110065","Block A, Taimoor Nagar, New Friends Colony","Indira Gandhi Camp Part 2, New Friends Colony",New Delhi,110065,Delhi,IN,https://www.google.com/maps/place/Masjid-e-Anjum/data=!4m7!3m6!1s0x390ce39a2cbe5dad:0x263099a5cc320902!8m2!3d28.573773!4d77.2696933!16s%2Fg%2F11ckkxbn_t!19sChIJrV2-LJrjDDkRAgkyzKWZMCY?authuser=0&hl=en&rclk=1,"28.573773,77.2696933"
Masjid Badi msjd,Mosque,"Masjid Badi msjd, 893,, Chittli Qabar Bazar Rd, Jama Masjid, Chandni Chowk, New Delhi, Delhi 110006","Bazar Chitli Qabar, Kucha Chelan, Jama Masjid, Chandni Chowk","893,, Chittli Qabar Bazar Rd","New Delhi, Delhi",110006,Delhi,IN,https://www.google.com/maps/place/Masjid+Badi+%D9%85%D8%B3%D8%AC%D8%AF%E2%80%AD/data=!4m7!3m6!1s0x390cfd219cfec1f3:0x93ccacb281d71709!8m2!3d28.645321!4d77.2357133!16s%2Fg%2F12m98gjn5!19sChIJ88H-nCH9DDkRCRfXgbKszJM?authuser=0&hl=en&rclk=1,"28.645321,77.2357133"
Jama Masjid,Mosque,"Jama Masjid, Islamia Bazaar, Darul Uloom Rd, Matkota, Deoband, Uttar Pradesh 247554",Matkota,"Islamia Bazaar, Darul Uloom Rd",Deoband,247554,Uttar Pradesh,IN,https://www.google.com/maps/place/Jama+Masjid/data=!4m7!3m6!1s0x390ea43fb886e6af:0xd6b3dada8960222c!8m2!3d29.6943748!4d77.6779791!16s%2Fg%2F11f1y8wtcv!19sChIJr-aGuD-kDjkRLCJgidras9Y?authuser=0&hl=en&rclk=1,"29.6943748,77.6779791"
Umar farooq masjid,Mosque,"Umar farooq masjid, R-796, Saqlain Rd, Jogabai Extension, Joga Bai Extension, Okhla, New Delhi, Delhi 110025","Jogabai Extension, Joga Bai Extension, Okhla","R-796, Saqlain Rd",New Delhi,110025,Delhi,IN,https://www.google.com/maps/place/Umar+farooq+masjid/data=!4m7!3m6!1s0x390ce3e6c04e5bf3:0xc44f3ef2afb9d703!8m2!3d28.5725938!4d77.2846812!16s%2Fg%2F11j4890g67!19sChIJ81tOwObjDDkRA9e5r_I-T8Q?authuser=0&hl=en&rclk=1,"28.5725938,77.2846812"
Al-A-Ilahi Masjid,Mosque,"J6XC+VMP Al-A-Ilahi Masjid, Fasil Rd, Gali Sakko Wali, Shah Ganj, Chandni Chowk, New Delhi, Delhi, 110006","Gali Sakko Wali, Shah Ganj, Chandni Chowk","J6XC+VMP, Fasil Rd","New Delhi, Delhi",110006,Delhi,IN,https://www.google.com/maps/place/Al-A-Ilahi+Masjid/data=!4m7!3m6!1s0x390cfd144b2f1879:0x6a90cc9e1fffff1c!8m2!3d28.6497054!4d77.2217103!16s%2Fg%2F1hm31vk15!19sChIJeRgvSxT9DDkRHP__H57MkGo?authuser=0&hl=en&rclk=1,"28.6497054,77.2217103"
JAMA MASJID UMAR BIN KHATTAB,Mosque,"G8W3+XWV JAMA MASJID UMAR BIN KHATTAB, Kalindi Kunj Rd, Block H, Jamia Nagar, Okhla, New Delhi, Delhi 110025","Block H, Jamia Nagar, Okhla","G8W3+XWV, Kalindi Kunj Rd",New Delhi,110025,Delhi,IN,https://www.google.com/maps/place/JAMA+MASJID+UMAR+BIN+KHATTAB/data=!4m7!3m6!1s0x390ce51eb7ea0bfd:0xe968824c610cc265!8m2!3d28.5474867!4d77.3047909!16s%2Fg%2F11h7p6jtqd!19sChIJ_Qvqtx7lDDkRZcIMYUyCaOk?authuser=0&hl=en&rclk=1,"28.5474867,77.3047909"
"Masjid,olanda",Mosque,"H5HC+W6Q Masjid,olanda, Vpo olanda teh.kaman, Olanda, Rajasthan 321024",,"H5HC+W6Q, Vpo olanda teh.kaman",Olanda,321024,Rajasthan,IN,"https://www.google.com/maps/place/Masjid,olanda/data=!4m7!3m6!1s0x3972e3f9a4e9ec8d:0xd7219beafd037cee!8m2!3d27.5798264!4d77.170594!16s%2Fg%2F11h22hpwbp!19sChIJjezppPnjcjkR7nwD_eqbIdc?authuser=0&hl=en&rclk=1","27.579826399999998,77.170594"
Masjid E Rashid (msjd rshyd),Mosque,"MMXG+88Q Masjid E Rashid (msjd rshyd), Mohalla Badi Khanka, Matkota, Deoband, Uttar Pradesh 247554","Mohalla Badi Khanka, Matkota",MMXG+88Q,Deoband,247554,Uttar Pradesh,IN,https://www.google.com/maps/place/Masjid+E+Rashid+%28%D9%85%D8%B3%D8%AC%D8%AF+%D8%B1%D8%B4%DB%8C%D8%AF%29%E2%80%AD/data=!4m7!3m6!1s0x390ea5ea72175361:0x6b680dcddc91286f!8m2!3d29.6983424!4d77.6758749!16s%2Fg%2F11vbv2l2dt!19sChIJYVMXcuqlDjkRbyiR3M0NaGs?authuser=0&hl=en&rclk=1,"29.698342399999998,77.6758749"
NOOR ALLAH MASJID,Mosque,"P77C+RGR NOOR ALLAH MASJID, Unnamed Road, Block G, Old Mustafabad, New Mustafabad, Delhi, 110094","Block G, Old Mustafabad, New Mustafabad","P77C+RGR, Unnamed Road",Delhi,110094,Delhi,IN,https://www.google.com/maps/place/NOOR+ALLAH+MASJID/data=!4m7!3m6!1s0x390cfd59871598df:0xa77ee6704e1cd13b!8m2!3d28.7146034!4d77.2712638!16s%2Fg%2F11hdk5fbth!19sChIJ35gVh1n9DDkRO9EcTnDmfqc?authuser=0&hl=en&rclk=1,"28.714603399999998,77.2712638"
abdullah masjid,Mosque,"V6P3+39P abdullah masjid, Tehsil Punhana, Mubarikpur, Haryana 122508",,"V6P3+39P, Tehsil Punhana",Mubarikpur,122508,Haryana,IN,https://www.google.com/maps/place/abdullah+masjid/data=!4m7!3m6!1s0x397327fd7489ec3b:0xb43c5fd2f68b8da8!8m2!3d27.8852033!4d77.203445!16s%2Fg%2F11g8ch8vp8!19sChIJO-yJdP0nczkRqI2L9tJfPLQ?authuser=0&hl=en&rclk=1,"27.885203299999997,77.203445"
Bada Gumbad mosque,Mosque,"H6VC+62X Bada Gumbad mosque, Lodhi Gardens, Lodhi Estate, New Delhi, Delhi 110003","Lodhi Gardens, Lodhi Estate",H6VC+62X,New Delhi,110003,Delhi,IN,https://www.google.com/maps/place/Bada+Gumbad+mosque/data=!4m7!3m6!1s0x390ce3a99184fbf7:0x21fc2d0052ec58d2!8m2!3d28.5931217!4d77.2200968!16s%2Fg%2F11qps0yk_v!19sChIJ9_uEkanjDDkR0ljsUgAt_CE?authuser=0&hl=en&rclk=1,"28.593121699999998,77.2200968"
Masjid Sanauji,Mosque,"Masjid Sanauji, Shop No. 1630, Lal Kuan, Lalkuan Bazar Rd, Baradari, Chandni Chowk, New Delhi, Delhi 110006","Bazar Sirkiwalan, Baradari, Chandni Chowk","Shop No. 1630, Lal Kuan, Lalkuan Bazar Rd","New Delhi, Delhi",110006,Delhi,IN,https://www.google.com/maps/place/Masjid+Sanauji/data=!4m7!3m6!1s0x390cfd13fe3ea72d:0x27ea23bc5f650202!8m2!3d28.6529317!4d77.2232485!16s%2Fg%2F12hplq4pp!19sChIJLac-_hP9DDkRAgJlX7wj6ic?authuser=0&hl=en&rclk=1,"28.6529317,77.2232485"
Madina Masjid,Mosque,"Madina Masjid, Lane 8, Ghaffar Manzil Rd, Ghaffar Manzil Colony, Jamia Nagar, Okhla, New Delhi, Delhi 110025","Ghaffar Manzil Colony, Jamia Nagar, Okhla","Lane 8, Ghaffar Manzil Rd",New Delhi,110025,Delhi,IN,https://www.google.com/maps/place/Madina+Masjid/data=!4m7!3m6!1s0x390ce377a2178ffd:0x965c9035cd820d7d!8m2!3d28.5563833!4d77.2831429!16s%2Fg%2F11l7lspn0p!19sChIJ_Y8XonfjDDkRfQ2CzTWQXJY?authuser=0&hl=en&rclk=1,"28.5563833,77.2831429"
Masjid,Mosque,"H77Q+868 Masjid, Okhla Village, Okhla, New Delhi, Delhi 110025","Okhla Village, Okhla",H77Q+868,New Delhi,110025,Delhi,IN,https://www.google.com/maps/place/Masjid/data=!4m7!3m6!1s0x390ce47512f7aa2b:0x544337a9b9e5d7a2!8m2!3d28.5632814!4d77.2880932!16s%2Fg%2F11gbtpj5td!19sChIJK6r3EnXkDDkRotfluak3Q1Q?authuser=0&hl=en&rclk=1,"28.563281399999997,77.28809319999999"
jama masjid madarsa taleemul quran,Mosque,"jama masjid madarsa taleemul quran, C 10, Captain Gaur Marg, C Block, Kailash Hills, East of Kailash, New Delhi, Delhi 110065","C Block, Kailash Hills, East of Kailash","C 10, Captain Gaur Marg",New Delhi,110065,Delhi,IN,https://www.google.com/maps/place/jama+masjid+madarsa+taleemul+quran/data=!4m7!3m6!1s0x390ce3bedd0d5df7:0x3a3b95b54ca809a8!8m2!3d28.5619545!4d77.2590985!16s%2Fg%2F11g7zz4m0j!19sChIJ910N3b7jDDkRqAmoTLWVOzo?authuser=0&hl=en&rclk=1,"28.5619545,77.2590985"
Atyabul Masajid (Tyb lmsjd),Mosque,"Atyabul Masajid (Tyb lmsjd), Darul Uloom Waqf, MMX9+GR4 Garden-Darul Uloom Waqf, Matkota, Deoband, Uttar Pradesh 247554",Matkota,"Darul Uloom Waqf, MMX9+GR4 Garden-Darul Uloom Waqf",Deoband,247554,Uttar Pradesh,IN,https://www.google.com/maps/place/Atyabul+Masajid+%28%D8%A7%D8%B7%DB%8C%D8%A8+%D8%A7%D9%84%D9%85%D8%B3%D8%A7%D8%AC%D8%AF%29%E2%80%AD/data=!4m7!3m6!1s0x390ea524bcc0b90d:0x6cd11664d380c31a!8m2!3d29.6982929!4d77.6700541!16s%2Fg%2F11kpdrz0g8!19sChIJDbnAvCSlDjkRGsOA02QW0Ww?authuser=0&hl=en&rclk=1,"29.6982929,77.6700541"
Allah Wali Masjid allaah vaalii msjid,Mosque,"Allah Wali Masjid allaah vaalii msjid, 655, Block D, Bhalswa Jahangirpuri, Jahangirpuri, JahangirpuriDelhi, Delhi, 110033","Block D, Bhalswa Jahangirpuri, Jahangirpuri",655,"JahangirpuriDelhi, Delhi",110033,Delhi,IN,https://www.google.com/maps/place/Allah+Wali+Masjid+%E0%A4%85%E0%A4%B2%E0%A5%8D%E0%A4%B2%E0%A4%BE%E0%A4%B9+%E0%A4%B5%E0%A4%BE%E0%A4%B2%E0%A5%80+%E0%A4%AE%E0%A4%B8%E0%A5%8D%E0%A4%9C%E0%A4%BF%E0%A4%A6/data=!4m7!3m6!1s0x390d01417ad0e561:0x459974438a39a7fc!8m2!3d28.729919!4d77.1744335!16s%2Fg%2F11syt8fb_7!19sChIJYeXQekEBDTkR_Kc5ikN0mUU?authuser=0&hl=en&rclk=1,"28.729919,77.17443349999999"
Masjid,Mosque,"Q6MJ+5H5 Masjid, Badarpur, Madanpur Khadar, New Delhi, 110084",Madanpur Khadar,"Q6MJ+5H5, Badarpur","New Delhi, Delhi",110084,Delhi,IN,https://www.google.com/maps/place/Masjid/data=!4m7!3m6!1s0x390cffb780460377:0x9fe224e9c653e965!8m2!3d28.7828891!4d77.2314704!16s%2Fg%2F11qn790lvq!19sChIJdwNGgLf_DDkRZelTxukk4p8?authuser=0&hl=en&rclk=1,"28.7828891,77.23147039999999"
Masjid -ul- Huda,Mosque,"Masjid -ul- Huda, Ghaffar Manzil Colony, Jamia Nagar, Okhla, New Delhi, Delhi 110025","Ghaffar Manzil Colony, Jamia Nagar, Okhla",,New Delhi,110025,Delhi,IN,https://www.google.com/maps/place/Masjid+-ul-+Huda/data=!4m7!3m6!1s0x390ce366343059d7:0xa0f02fd58939dd8c!8m2!3d28.5570011!4d77.2828061!16s%2Fg%2F11rqhr3cqm!19sChIJ11kwNGbjDDkRjN05idUv8KA?authuser=0&hl=en&rclk=1,"28.557001099999997,77.2828061"
Madrsa imdadul uloom and masjid,Mosque,"Madrsa imdadul uloom and masjid, B-25, Main Rd, East Laxmi Market, Block B, New Brij Puri, Krishna Nagar, New Delhi, Delhi, 110051","East Laxmi Market, Block B, New Brij Puri, Krishna Nagar","B-25, Main Rd","New Delhi, Delhi",110051,Delhi,IN,https://www.google.com/maps/place/Madrsa+imdadul+uloom+and+masjid/data=!4m7!3m6!1s0x390cfda04739d0e9:0xeb893cdafc532844!8m2!3d28.6436744!4d77.2825759!16s%2Fg%2F11mw5vzf9q!19sChIJ6dA5R6D9DDkRRChT_No8ies?authuser=0&hl=en&rclk=1,"28.6436744,77.2825759"
Old Mugal Masjid,Mosque,"J6X9+P3V Old Mugal Masjid, Qutab Rd, Ram Nagar Market, Aram Nagar, Paharganj, New Delhi, Delhi, 110055","Ram Nagar Market, Aram Nagar, Paharganj","J6X9+P3V, Qutab Rd","New Delhi, Delhi",110055,Delhi,IN,https://www.google.com/maps/place/Old+Mugal+Masjid/data=!4m7!3m6!1s0x390cfd152b1b0125:0x49e032c4a3927074!8m2!3d28.6493546!4d77.2176682!16s%2Fg%2F11ggw008kv!19sChIJJQEbKxX9DDkRdHCSo8Qy4Ek?authuser=0&hl=en&rclk=1,"28.6493546,77.21766819999999"
msjid,Mosque,"msjid, 249, Swami Amardev Marg, Bara Bazar, Maharam Mohalla, Shahdara, Delhi, 110032","Bara Bazar, Maharam Mohalla, Shahdara","249, Swami Amardev Marg",Delhi,110032,Delhi,IN,https://www.google.com/maps/place/%E0%A4%AE%E0%A4%B8%E0%A5%8D%E0%A4%9C%E0%A4%BF%E0%A4%A6/data=!4m7!3m6!1s0x390cfb490b84c709:0x30ecad58f89bafaa!8m2!3d28.6687399!4d77.2917355!16s%2Fg%2F11n03hfp8k!19sChIJCceEC0n7DDkRqq-b-Fit7DA?authuser=0&hl=en&rclk=1,"28.6687399,77.2917355"
Masjid,Mosque,"P9HF+33Q Masjid, Farukh Nagar, Uttar Pradesh 201003",,P9HF+33Q,Farukh Nagar,201003,Uttar Pradesh,IN,https://www.google.com/maps/place/Masjid/data=!4m7!3m6!1s0x390cfa018875b495:0xeea7b0caec7e470d!8m2!3d28.7277145!4d77.3727433!16s%2Fg%2F11f0krqvls!19sChIJlbR1iAH6DDkRDUd-7Mqwp-4?authuser=0&hl=en&rclk=1,"28.727714499999998,77.3727433"
oddlaa baas msjid odela masjid,Mosque,"JV87+WXP oddlaa baas msjid odela masjid, Odela, Rajasthan 301026",,JV87+WXP,Odela,301026,Rajasthan,IN,https://www.google.com/maps/place/%E0%A4%93%E0%A4%A1%E0%A4%B2%E0%A4%BE+%E0%A4%AC%E0%A4%BE%E0%A4%B8+%E0%A4%AE%E0%A4%B8%E0%A5%8D%E0%A4%9C%E0%A4%BF%E0%A4%A6+odela+masjid/data=!4m7!3m6!1s0x3972ebb3cb2e234d:0x29d2dc50e46c9953!8m2!3d27.6173361!4d76.8649663!16s%2Fg%2F11n10msflp!19sChIJTSMuy7PrcjkRU5ls5FDc0ik?authuser=0&hl=en&rclk=1,"27.6173361,76.86496629999999"
Mosque,Mosque,"M37C+GJH Mosque, Namdhari Colony, Nangloi, Delhi, 110041","Namdhari Colony, Nangloi",M37C+GJH,Delhi,110041,Delhi,IN,https://www.google.com/maps/place/Mosque/data=!4m7!3m6!1s0x390d045ba7f78363:0xde71ce55983884c9!8m2!3d28.6638203!4d77.0716037!16s%2Fg%2F11c30q6vd3!19sChIJY4P3p1sEDTkRyYQ4mFXOcd4?authuser=0&hl=en&rclk=1,"28.663820299999998,77.0716037"
Masjid,Mosque,"RX4J+M39 Masjid, Rajoli, Sulela, Haryana 122104",,RX4J+M39,"Rajoli, Sulela",122104,Haryana,IN,https://www.google.com/maps/place/Masjid/data=!4m7!3m6!1s0x3972c534275ef4ab:0xdc27d3a7ace97738!8m2!3d27.8066544!4d76.9802205!16s%2Fg%2F11j3xmhg73!19sChIJq_ReJzTFcjkROHfprKfTJ9w?authuser=0&hl=en&rclk=1,"27.8066544,76.9802205"
Jama masjid,Mosque,"Jama masjid, Jama Masjid, Abul Fazal Enclave Part 1, Part 1 Abul Fazal Enclave, Block I, Jamia Nagar, Chandni Chowk, New Delhi, Delhi 110025","Abul Fazal Enclave Part 1, Part 1 Abul Fazal Enclave, Block I, Jamia Nagar, Chandni Chowk",Jama Masjid,New Delhi,,Delhi,IN,https://www.google.com/maps/place/Jama+masjid/data=!4m7!3m6!1s0x390ce542b18bb9c1:0xcacf2517b90d6255!8m2!3d28.5545167!4d77.2972904!16s%2Fg%2F11kqc0mn0x!19sChIJwbmLsULlDDkRVWINuRclz8o?authuser=0&hl=en&rclk=1,"28.554516699999997,77.2972904"
Masjid Kaddan Wali,Mosque,"Masjid Kaddan Wali, 3800,, Charkhiwalan Gali, Khush Dil, Chandni Chowk, New Delhi, Delhi 110006","Khush Dil, Chandni Chowk","3800,, Charkhiwalan Gali","New Delhi, Delhi",110006,Delhi,IN,https://www.google.com/maps/place/Masjid+Kaddan+Wali/data=!4m7!3m6!1s0x390cfd19d610452b:0xf81efc1a357adee8!8m2!3d28.6506731!4d77.2290561!16s%2Fg%2F12hkbxr_7!19sChIJK0UQ1hn9DDkR6N56NRr8Hvg?authuser=0&hl=en&rclk=1,"28.6506731,77.2290561"
Qanati Masjid (Karbala Shahe Mardan),Mosque,"H6M8+XJF Qanati Masjid (Karbala Shahe Mardan), Karbala Rd, Civil Colony, Jor Bagh, New Delhi, Delhi 110003","Civil Colony, Jor Bagh","H6M8+XJF, Karbala Rd",New Delhi,110003,Delhi,IN,https://www.google.com/maps/place/Qanati+Masjid+%28Karbala+Shahe+Mardan%29/data=!4m7!3m6!1s0x390ce385a5fc02c5:0x944515df4c4604fe!8m2!3d28.5849126!4d77.2165992!16s%2Fg%2F11trq8x4n5!19sChIJxQL8pYXjDDkR_gRGTN8VRZQ?authuser=0&hl=en&rclk=1,"28.5849126,77.21659919999999"
Masjid,Mosque,"Masjid, 8/2, Budh Bazar, Block L 1, Devli, Sangam Vihar, New Delhi, Delhi 110062","Budh Bazar, Block L 1, Devli, Sangam Vihar",8/2,New Delhi,110062,Delhi,IN,https://www.google.com/maps/place/Masjid/data=!4m7!3m6!1s0x390ce1dde82b3bc3:0x4d3537cacd38aec4!8m2!3d28.4940769!4d77.2261653!16s%2Fg%2F11rk33_10p!19sChIJwzsr6N3hDDkRxK44zco3NU0?authuser=0&hl=en&rclk=1,"28.4940769,77.22616529999999"
Musalla Masjid,Mosque,"Musalla Masjid, A84, Gali Number 19, Block B, Bharat Vihar, Madhu Vihar, New Delhi, Delhi, 110059","Block B, Bharat Vihar, Madhu Vihar","A84, Gali Number 19","New Delhi, Delhi",110059,Delhi,IN,https://www.google.com/maps/place/Musalla+Masjid/data=!4m7!3m6!1s0x390d1b5228eab2b5:0x4c225624c80dfd40!8m2!3d28.6062216!4d77.0614438!16s%2Fg%2F11t6nng3_f!19sChIJtbLqKFIbDTkRQP0NyCRWIkw?authuser=0&hl=en&rclk=1,"28.606221599999998,77.06144379999999"
Madina masjid,Mosque,"Ward number 3, Madina masjid, Chandni Chowk, sarul, Delhi, 110006",Chandni Chowk,Ward number 3,"sarul, Delhi",110006,Delhi,IN,https://www.google.com/maps/place/Madina+masjid/data=!4m7!3m6!1s0x390cfd765db7001b:0xc7c08a181a8d81db!8m2!3d28.6610779!4d77.2345881!16s%2Fg%2F11ry5dxrrg!19sChIJGwC3XXb9DDkR24GNGhiKwMc?authuser=0&hl=en&rclk=1,"28.6610779,77.2345881"
Masjid,Mosque,"Shop No: 5035, Masjid, Netaji Subhash Marg, Daryaganj, New Delhi, Delhi, 110002",Daryaganj,"Shop No: 5035, Netaji Subhash Marg","New Delhi, Delhi",110002,Delhi,IN,https://www.google.com/maps/place/Masjid/data=!4m7!3m6!1s0x390cfdf175041b95:0x8ef57a2bc9f92c1c!8m2!3d28.6480954!4d77.2403964!16s%2Fg%2F11s664lvxh!19sChIJlRsEdfH9DDkRHCz5ySt69Y4?authuser=0&hl=en&rclk=1,"28.6480954,77.2403964"
Masjid,Mosque,"Masjid, L385, Block L, JJ Colony No 3, Nangloi, New Delhi, Delhi, 110041","Block L, JJ Colony No 3, Nangloi",L385,"New Delhi, Delhi",110041,Delhi,IN,https://www.google.com/maps/place/Masjid/data=!4m7!3m6!1s0x390d0530462f99ad:0xf47aa8290ce093fa!8m2!3d28.6842352!4d77.0742041!16s%2Fg%2F11smtj7p27!19sChIJrZkvRjAFDTkR-pPgDCmoevQ?authuser=0&hl=en&rclk=1,"28.6842352,77.0742041"
Masjid,Mosque,"J2WM+MXF Masjid, Sunni Masjid Rd, Deep Enclave, Hastsal, Delhi, 110059","Deep Enclave, Hastsal","J2WM+MXF, Sunni Masjid Rd",Delhi,110059,Delhi,IN,https://www.google.com/maps/place/Masjid/data=!4m7!3m6!1s0x390d05267bb46283:0xaef6f06f366d7113!8m2!3d28.6466834!4d77.0349292!16s%2Fg%2F11vl8tpxw1!19sChIJg2K0eyYFDTkRE3FtNm_w9q4?authuser=0&hl=en&rclk=1,"28.646683399999997,77.0349292"
Chhoti Masjid Alladiya,Mosque,"7V3H+5C8 Chhoti Masjid Alladiya, Utoon, Haryana 122015",,7V3H+5C8,Utoon,122015,Haryana,IN,https://www.google.com/maps/place/Chhoti+Masjid+Alladiya/data=!4m7!3m6!1s0x390d39e155b5c3e9:0xc07aa6c4c6d4f69c!8m2!3d28.2529163!4d76.8785872!16s%2Fg%2F11tdhz1knj!19sChIJ6cO1VeE5DTkRnPbUxsSmesA?authuser=0&hl=en&rclk=1,"28.2529163,76.8785872"
Purani Masjid,Mosque,"Purani Masjid, Sadabad, Uttar Pradesh 246725",,,Sadabad,,Uttar Pradesh,IN,https://www.google.com/maps/place/Purani+Masjid/data=!4m7!3m6!1s0x390b936fe625df4d:0x91ad4b57c86b5c29!8m2!3d29.2323864!4d78.1673763!16s%2Fg%2F11ptlpc4n5!19sChIJTd8l5m-TCzkRKVxryFdLrZE?authuser=0&hl=en&rclk=1,"29.2323864,78.1673763"
Masjid,Mosque,"R283+X98 Masjid, Ranyali, Haryana 122104",,R283+X98,Ranyali,122104,Haryana,IN,https://www.google.com/maps/place/Masjid/data=!4m7!3m6!1s0x3972c59cf32ea82d:0xfbae6b4687bc901f!8m2!3d27.8174245!4d77.0034409!16s%2Fg%2F11v696ylm4!19sChIJLagu85zFcjkRH5C8h0Zrrvs?authuser=0&hl=en&rclk=1,"27.817424499999998,77.0034409"
"Masjid Allah hu mohalla Dhobi bagh, tauru",Mosque,"Masjid Allah hu mohalla Dhobi bagh, tauru, Bharangpur, Tauru, Haryana 122015",,,"Bharangpur, Tauru",,Haryana,IN,"https://www.google.com/maps/place/Masjid+Allah+hu+mohalla+Dhobi+bagh,+tauru/data=!4m7!3m6!1s0x390d31f22f1b441b:0xfd12f26303df0521!8m2!3d28.2040633!4d76.9498415!16s%2Fg%2F11t_zh4pz0!19sChIJG0QbL_IxDTkRIQXfA2PyEv0?authuser=0&hl=en&rclk=1","28.204063299999998,76.94984149999999"
Masjid Abutalib,Mosque,"Masjid Abutalib, 786, Sankhani, Uttar Pradesh 202394",,786,Sankhani,202394,Uttar Pradesh,IN,https://www.google.com/maps/place/Masjid+Abutalib/data=!4m7!3m6!1s0x390b45d5e5ea0e01:0xe7d19a9da1103f33!8m2!3d28.416155!4d78.1414048!16s%2Fg%2F11rsc7x61b!19sChIJAQ7q5dVFCzkRMz8QoZ2a0ec?authuser=0&hl=en&rclk=1,"28.416155,78.14140479999999"
Masjid,Mosque,"632W+2JF Masjid, bhaiya our, Baraula, Uttar Pradesh 202396",,632W+2JF bhaiya our,Baraula,202396,Uttar Pradesh,IN,https://www.google.com/maps/place/Masjid/data=!4m7!3m6!1s0x390b53ed7c771277:0xc7ecd0070ccb4999!8m2!3d28.1999634!4d78.0966413!16s%2Fg%2F11snypqhdp!19sChIJdxJ3fO1TCzkRmUnLDAfQ7Mc?authuser=0&hl=en&rclk=1,"28.199963399999998,78.0966413"
Masjid,Mosque,"Masjid, babibul uloom, Madarsa, Khulawali",,"babibul uloom, Madarsa",Khulawali,,Uttar Pradesh,IN,https://www.google.com/maps/place/Masjid/data=!4m7!3m6!1s0x3974c52a8304caad:0x1bb18e31063a95f3!8m2!3d27.9184094!4d78.4419101!16s%2Fg%2F11q40fx55r!19sChIJrcoEgyrFdDkR85U6BjGOsRs?authuser=0&hl=en&rclk=1,"27.918409399999998,78.4419101"
Andol masjid,Home builder,"XMF4+9Q6 Andol masjid, Panager Barouda, Pipariya Khurd, Madhya Pradesh 487661",Panager Barouda,XMF4+9Q6,Pipariya Khurd,,Madhya Pradesh,IN,https://www.google.com/maps/place/Andol+masjid/data=!4m7!3m6!1s0x397f01070ced3cc7:0x25dac583f16fcebb!8m2!3d22.9734229!4d78.6568942!16s%2Fg%2F11vhwr4z3r!19sChIJxzztDAcBfzkRu85v8YPF2iU?authuser=0&hl=en&rclk=1,"22.9734229,78.6568942"
