name,main_category,address,address_ward,address_street,address_city,address_postal_code,address_state,address_country_code,link,coordinates
Masjid-E-Bilal,Mosque,"PH99+3WV Masjid-E-Bilal, Teacher Colony, Millat Colony, Khamgaon, Maharashtra 444303","Teacher Colony, Millat Colony",PH99+3WV,Khamgaon,444303,Maharashtra,IN,https://www.google.com/maps/place/Masjid-E-Bilal/data=!4m7!3m6!1s0x3bd750c2cd7e0881:0x9888d23df02cb2ae!8m2!3d20.7177315!4d76.5697828!16s%2Fg%2F1pp2tldqn!19sChIJgQh-zcJQ1zsRrrIs8D3SiJg?authuser=0&hl=en&rclk=1,"20.7177315,76.5697828"
Dawoodi Bohra Masjid,Mosque,"PH38+XP5 Dawoodi Bohra Masjid, Lakkad Ganj, Khamgaon, Maharashtra 444303",Lakkad Ganj,PH38+XP5,Khamgaon,444303,Maharashtra,IN,https://www.google.com/maps/place/Dawoodi+Bohra+Masjid/data=!4m7!3m6!1s0x3bd75120b009af3b:0x4af152824c1a8129!8m2!3d20.7048955!4d76.566875!16s%2Fg%2F1tfjjl8w!19sChIJO68JsCBR1zsRKYEaTIJS8Uo?authuser=0&hl=en&rclk=1,"20.7048955,76.566875"
Madina Masjid msjd,Mosque,"QMVW+73H Madina Masjid msjd, Bazar File, Shegaon, Maharashtra 444203",,"QMVW+73H, Bazar File",Shegaon,444203,Maharashtra,IN,https://www.google.com/maps/place/Madina+Masjid+%D9%85%D8%B3%D8%AC%D8%AF%E2%80%AD/data=!4m7!3m6!1s0x3bd745a469d5ba75:0xe10f7a0b2cd33c12!8m2!3d20.7931976!4d76.6952255!16s%2Fg%2F1pp2ty3fd!19sChIJdbrVaaRF1zsREjzTLAt6D-E?authuser=0&hl=en&rclk=1,"20.7931976,76.69522549999999"
InaMul Hasan Masjid Barde Plot Khamgaon,Mosque,"MHW8+C5P InaMul Hasan Masjid Barde Plot Khamgaon, Barde Plot, Khamgaon, Maharashtra 444303",Barde Plot,MHW8+C5P,Khamgaon,444303,Maharashtra,IN,https://www.google.com/maps/place/InaMul+Hasan+Masjid+Barde+Plot+Khamgaon/data=!4m7!3m6!1s0x3bd751248fffffff:0x717dbaf4537978ef!8m2!3d20.6960817!4d76.5654398!16s%2Fg%2F11dxd0gdps!19sChIJ____jyRR1zsR73h5U_S6fXE?authuser=0&hl=en&rclk=1,"20.6960817,76.5654398"
Markaz Masjid,Mosque,"PCFM+8VQ Markaz Masjid, Pimpalgaon Raja, Maharashtra 444306",,PCFM+8VQ,Pimpalgaon Raja,444306,Maharashtra,IN,https://www.google.com/maps/place/Markaz+Masjid/data=!4m7!3m6!1s0x3bd9fd40c73bd811:0x29617f6ed54aea69!8m2!3d20.7233489!4d76.4347292!16s%2Fg%2F11c5g8cp6d!19sChIJEdg7x0D92TsRaepK1W5_YSk?authuser=0&hl=en&rclk=1,"20.723348899999998,76.43472919999999"
nearMasjid Gulzar Gulzarpura,Mosque,"PCGQ+P3V nearMasjid Gulzar Gulzarpura, Pimpalgaon Raja, Maharashtra 444306",,PCGQ+P3V,Pimpalgaon Raja,444306,Maharashtra,IN,https://www.google.com/maps/place/nearMasjid+Gulzar+Gulzarpura/data=!4m7!3m6!1s0x3bd9fd468d776751:0xd8d76aa5087a9d9b!8m2!3d20.7268547!4d76.4376726!16s%2Fg%2F11c61jd550!19sChIJUWd3jUb92TsRm516CKVq19g?authuser=0&hl=en&rclk=1,"20.7268547,76.4376726"
mrkj msjid jntaa ngr,Mosque,"MGHX+H32 mrkj msjid jntaa ngr, Unnamed Road, jntaa ngr, bhiim ngr, Mathani, Maharashtra 444303",jntaa ngr,"MGHX+H32, Unnamed Road","bhiim ngr, Mathani",444303,Maharashtra,IN,https://www.google.com/maps/place/%E0%A4%AE%E0%A4%B0%E0%A4%95%E0%A4%9C+%E0%A4%AE%E0%A4%B8%E0%A5%8D%E0%A4%9C%E0%A4%BF%E0%A4%A6+%E0%A4%9C%E0%A4%A8%E0%A4%A4%E0%A4%BE+%E0%A4%A8%E0%A4%97%E0%A4%B0/data=!4m7!3m6!1s0x3bd757909c77436b:0x6ef1398a7f85bc37!8m2!3d20.6788786!4d76.5476312!16s%2Fg%2F11h4t13j3v!19sChIJa0N3nJBX1zsRN7yFf4o58W4?authuser=0&hl=en&rclk=1,"20.678878599999997,76.5476312"
Masjid Bilal,Mosque,"PXHW+3V4 Masjid Bilal, Akola Bazar Rd, Haji Nagar, Millat Colony, Khamgaon, Akola, Maharashtra 444303","Haji Nagar, Millat Colony","PXHW+3V4, Akola Bazar Rd","Khamgaon, Akola",444303,Maharashtra,IN,https://www.google.com/maps/place/Masjid+Bilal/data=!4m7!3m6!1s0x3bd731cf8bad1c07:0xd451c5fcdbdf408d!8m2!3d20.7276464!4d76.9972129!16s%2Fg%2F11fy96kthk!19sChIJBxyti88x1zsRjUDf2_zFUdQ?authuser=0&hl=en&rclk=1,"20.727646399999998,76.9972129"
msjd d`wt l,Mosque,"PC8P+X3J msjd d`wt l, Pimpalgaon Raja, Maharashtra 444306",,PC8P+X3J,Pimpalgaon Raja,444306,Maharashtra,IN,https://www.google.com/maps/place/%D9%85%D8%B3%D8%AC%D8%AF+%D8%AF%D8%B9%D9%88%D8%AA+%D8%A7%D9%84%EF%B7%B2%E2%80%AD/data=!4m7!3m6!1s0x3bd9fd6a93debc41:0xcd6acb056cbd542c!8m2!3d20.7174612!4d76.4351401!16s%2Fg%2F11c2qzysty!19sChIJQbzek2r92TsRLFS9bAXLas0?authuser=0&hl=en&rclk=1,"20.7174612,76.4351401"
Dawoodi Bohra Markaz ( Masjid ),Mosque,"PH2C+MW7 Dawoodi Bohra Markaz ( Masjid ), Sati Fail, Khamgaon, Maharashtra 444303",Sati Fail,PH2C+MW7,Khamgaon,444303,Maharashtra,IN,https://www.google.com/maps/place/Dawoodi+Bohra+Markaz+%28+Masjid+%29/data=!4m7!3m6!1s0x3bd7511f5e0a2b31:0x2ef340622e6669e8!8m2!3d20.7016633!4d76.5722915!16s%2Fg%2F11g6_d2fxz!19sChIJMSsKXh9R1zsR6GlmLmJA8y4?authuser=0&hl=en&rclk=1,"20.7016633,76.57229149999999"
GAUSIYA MASJID(ahlesunnat wal jamaat),Mosque,"PH5H+QGJ GAUSIYA MASJID(ahlesunnat wal jamaat), Shankar Nagar, Khamgaon, Maharashtra 444303",Shankar Nagar,PH5H+QGJ,Khamgaon,444303,Maharashtra,IN,https://www.google.com/maps/place/GAUSIYA+MASJID%28ahlesunnat+wal+jamaat%29/data=!4m7!3m6!1s0x3bd750e2335cee51:0xd28def4d6ac15a06!8m2!3d20.7094678!4d76.5787666!16s%2Fg%2F11f11pwc03!19sChIJUe5cM-JQ1zsRBlrBak3vjdI?authuser=0&hl=en&rclk=1,"20.7094678,76.5787666"
"Makkah Masjid,",Mosque,"MHV7+RRV Makkah Masjid,, M. Ali JoherRoad, Barde Plot, Khamgaon, Maharashtra 444303",Barde Plot,"MHV7+RRV, M. Ali JoherRoad",Khamgaon,444303,Maharashtra,IN,"https://www.google.com/maps/place/Makkah+Masjid,/data=!4m7!3m6!1s0x3bd7517ab5a11e61:0x8588de3fd7f39eca!8m2!3d20.6946176!4d76.5645406!16s%2Fg%2F11g_zfmn4j!19sChIJYR6htXpR1zsRyp7z1z_eiIU?authuser=0&hl=en&rclk=1","20.6946176,76.5645406"
Boripura Masjid Ahle Sunnat,Mosque,"PH46+H7R Boripura Masjid Ahle Sunnat, Gaurakshan Rd, Boripura, Khamgaon, Maharashtra 444303",Boripura,"PH46+H7R, Gaurakshan Rd",Khamgaon,444303,Maharashtra,IN,https://www.google.com/maps/place/Boripura+Masjid+Ahle+Sunnat/data=!4m7!3m6!1s0x3bd751e00bba5d55:0x557db9b29040a5e!8m2!3d20.7064816!4d76.5606314!16s%2Fg%2F11fk7rp4sh!19sChIJVV26C-BR1zsRXgoEKZvbVwU?authuser=0&hl=en&rclk=1,"20.7064816,76.56063139999999"
jama Masjid Khamgaon,Mosque,"5FMV+G5F jama Masjid Khamgaon, Khamgaon, Maharashtra 431151",,5FMV+G5F,Khamgaon,431151,Maharashtra,IN,https://www.google.com/maps/place/jama+Masjid+Khamgaon/data=!4m7!3m6!1s0x3bdbc66f7ef9f835:0x342def24c50ef509!8m2!3d20.183812!4d75.4929319!16s%2Fg%2F11g9vp2vvx!19sChIJNfj5fm_G2zsRCfUOxSTvLTQ?authuser=0&hl=en&rclk=1,"20.183812,75.4929319"
Raza Masjid,Mosque,"RFJ6+XFJ Raza Masjid, Taj Nagar, Nandura, Maharashtra 443404",Taj Nagar,RFJ6+XFJ,Nandura,443404,Maharashtra,IN,https://www.google.com/maps/place/Raza+Masjid/data=!4m7!3m6!1s0x3bd758abef1b8091:0x6686d01a9a777122!8m2!3d20.832472!4d76.4611316!16s%2Fg%2F11xm8nzlb!19sChIJkYAb76tY1zsRInF3mhrQhmY?authuser=0&hl=en&rclk=1,"20.832472,76.4611316"
Jama masjid,Mosque,"95V8+88 Jama masjid, Khamgaon, Maharashtra 414502",,95V8+88,Khamgaon,414502,Maharashtra,IN,https://www.google.com/maps/place/Jama+masjid/data=!4m7!3m6!1s0x3bdb692deace2c13:0x20bbcf4a3f0198ef!8m2!3d19.3933532!4d75.165798!16s%2Fg%2F11sl_z_25x!19sChIJEyzO6i1p2zsR75gBP0rPuyA?authuser=0&hl=en&rclk=1,"19.3933532,75.165798"
Madina Masjid,Mosque,"FJWC+G54 Madina Masjid, Khamgaon Rd, Lakhanwada, Maharashtra 444303",,"FJWC+G54, Khamgaon Rd",Lakhanwada,444303,Maharashtra,IN,https://www.google.com/maps/place/Madina+Masjid/data=!4m7!3m6!1s0x3bd0adea50906a6f:0x2f4fa0def3b4a498!8m2!3d20.4962567!4d76.6204687!16s%2Fg%2F11gff4zz0p!19sChIJb2qQUOqt0DsRmKS0896gTy8?authuser=0&hl=en&rclk=1,"20.4962567,76.6204687"
Markaz Masjid,Mosque,"PH28+XXH Markaz Masjid, Unnamed Road, Shivaji Nager, Khamgaon, Maharashtra 444303",Shivaji Nager,"PH28+XXH, Unnamed Road",Khamgaon,444303,Maharashtra,IN,https://www.google.com/maps/place/Markaz+Masjid/data=!4m7!3m6!1s0x3bd7516655c7b8ef:0xcadb8ed4b76eaab6!8m2!3d20.702426!4d76.5674942!16s%2Fg%2F11h2g1f83r!19sChIJ77jHVWZR1zsRtqput9SO28o?authuser=0&hl=en&rclk=1,"20.702426,76.5674942"
Mr Sajid pop,Arts organization,"Mr Sajid pop, Zam zam colony chikli road golden bakery Khamgaon Birthday plot Khamgaon, Khamgaon, Maharashtra 444303",Nilkanth Nagar,Zam zam colony chikli road golden bakery Khamgaon Birthday plot Khamgaon,Khamgaon,444303,Maharashtra,IN,https://www.google.com/maps/place/Mr+Sajid+pop/data=!4m7!3m6!1s0x3bd7518d7c8d4d07:0x34b8143f6ba8eedf!8m2!3d20.6970131!4d76.5643495!16s%2Fg%2F11s5yh2v6j!19sChIJB02NfI1R1zsR3-6oaz8UuDQ?authuser=0&hl=en&rclk=1,"20.6970131,76.56434949999999"
TAJ NAGAR,Housing society,"PH9G+5VM TAJ NAGAR, Taaj Nagar, Khamgaon, Maharashtra 444303",Taaj Nagar,PH9G+5VM,Khamgaon,444303,Maharashtra,IN,https://www.google.com/maps/place/TAJ+NAGAR/data=!4m7!3m6!1s0x3bd7510efaa49db3:0xbc606e3f7f551368!8m2!3d20.7179572!4d76.5771568!16s%2Fg%2F11t753r74j!19sChIJs52k-g5R1zsRaBNVfz9uYLw?authuser=0&hl=en&rclk=1,"20.7179572,76.5771568"
Masjid-e-Abubakar,Mosque,"QMGF+286 Masjid-e-Abubakar, Shegaon Rd, Rokadiya Nagar, Shegaon, Maharashtra 444203",Rokadiya Nagar,"QMGF+286, Shegaon Rd",Shegaon,444203,Maharashtra,IN,https://www.google.com/maps/place/Masjid-e-Abubakar/data=!4m7!3m6!1s0x3bd7456fa9429951:0xd1cf8e1217a7ffaf!8m2!3d20.7750395!4d76.6732597!16s%2Fg%2F11fxvymr1b!19sChIJUZlCqW9F1zsRr_-nFxKOz9E?authuser=0&hl=en&rclk=1,"20.7750395,76.6732597"
Nurani Masjid,Mosque,"5H4F+GQ6 Nurani Masjid, Janephal - Khamgaon Rd, Rahemat Nagar, Mehkar, Maharashtra 443301",Rahemat Nagar,"5H4F+GQ6, Janephal - Khamgaon Rd",Mehkar,443301,Maharashtra,IN,https://www.google.com/maps/place/Nurani+Masjid/data=!4m7!3m6!1s0x3bd098e7c91b7c23:0xed4749246348c729!8m2!3d20.1562925!4d76.5743927!16s%2Fg%2F11b6__458j!19sChIJI3wbyeeY0DsRKcdIYyRJR-0?authuser=0&hl=en&rclk=1,"20.1562925,76.57439269999999"
Masjid - E - Garib Nawaz,Mosque,"PHCF+973 Masjid - E - Garib Nawaz, near Father Banglow, Rehmatullah Colony, Taaj Nagar, Khamgaon, Maharashtra 444303","Rehmatullah Colony, Taaj Nagar","PHCF+973, near Father Banglow",Khamgaon,444303,Maharashtra,IN,https://www.google.com/maps/place/Masjid+-+E+-+Garib+Nawaz/data=!4m7!3m6!1s0x3bd7518a29ce4577:0xe0e7d63bee7b0b2f!8m2!3d20.7208976!4d76.5731721!16s%2Fg%2F11n5rtbmg5!19sChIJd0XOKYpR1zsRLwt77jvW5-A?authuser=0&hl=en&rclk=1,"20.7208976,76.5731721"
Phatakpura Masjid Mastan Chowk,Mosque,"PH38+877 Phatakpura Masjid Mastan Chowk, Dal Fail, Khamgaon, Maharashtra 444303",Dal Fail,PH38+877,Khamgaon,444303,Maharashtra,IN,https://www.google.com/maps/place/Phatakpura+Masjid+Mastan+Chowk/data=!4m7!3m6!1s0x3bd7511ee60e88b9:0xe6c9f52752a6e257!8m2!3d20.7032835!4d76.5656666!16s%2Fg%2F11txjdckws!19sChIJuYgO5h5R1zsRV-KmUif1yeY?authuser=0&hl=en&rclk=1,"20.703283499999998,76.5656666"
Madina masjid barde polat Khamgaon,Mosque,"MHW9+W2J Madina masjid barde polat Khamgaon, Unnamed Road, Barde Plot, Khamgaon, Maharashtra 444303",Barde Plot,"MHW9+W2J, Unnamed Road",Khamgaon,444303,Maharashtra,IN,https://www.google.com/maps/place/Madina+masjid+barde+polat+Khamgaon/data=!4m7!3m6!1s0x3bd7517a1c4d7b2f:0x79f5e13d906b0d02!8m2!3d20.6973416!4d76.5675121!16s%2Fg%2F11h4qj6_qj!19sChIJL3tNHHpR1zsRAg1rkD3h9Xk?authuser=0&hl=en&rclk=1,"20.697341599999998,76.5675121"
Garib nawaz masjid chota nandura,Mosque,"RFH4+7XG Garib nawaz masjid chota nandura, Nandura Khurd, Nandura, Maharashtra 443404",Nandura Khurd,RFH4+7XG,Nandura,443404,Maharashtra,IN,https://www.google.com/maps/place/Garib+nawaz+masjid+chota+nandura/data=!4m7!3m6!1s0x3bd7595ca1acb3d9:0x49e88912558809c8!8m2!3d20.8281946!4d76.457451!16s%2Fg%2F11fmzjcy9y!19sChIJ2bOsoVxZ1zsRyAmIVRKJ6Ek?authuser=0&hl=en&rclk=1,"20.8281946,76.45745099999999"
paththar wali masjid,Mosque,"PH2C+QWM paththar wali masjid, Sati Fail, Khamgaon, Maharashtra 444303",Sati Fail,PH2C+QWM,Khamgaon,444303,Maharashtra,IN,https://www.google.com/maps/place/paththar+wali+masjid/data=!4m7!3m6!1s0x3bd7514299dce09f:0xba712a04af47d44f!8m2!3d20.7019625!4d76.5722873!16s%2Fg%2F11j10ts_l2!19sChIJn-DcmUJR1zsRT9RHrwQqcbo?authuser=0&hl=en&rclk=1,"20.7019625,76.5722873"
Haz.Bilal Masjid.,Mosque,"MHW7+G94 Haz.Bilal Masjid., Bilal Masjid Road, Ashraf Nagar, Khamgaon, Maharashtra 444303","Ashraf Nagar, Barde Plot","MHW7+G94, Bilal Masjid Road",Khamgaon,444303,Maharashtra,IN,https://www.google.com/maps/place/Haz.Bilal+Masjid./data=!4m7!3m6!1s0x3bd7514a1c97269b:0x7c1896715ac54ec1!8m2!3d20.6962511!4d76.5634474!16s%2Fg%2F11fj0n7nbr!19sChIJmyaXHEpR1zsRwU7FWnGWGHw?authuser=0&hl=en&rclk=1,"20.696251099999998,76.5634474"
Madina Masjid Khamgaon,Mosque,"5GMC+244 Madina Masjid Khamgaon, madinanagar, Khamgaon, Maharashtra",,"5GMC+244, madinanagar",Khamgaon,,Maharashtra,IN,https://www.google.com/maps/place/Madina+Masjid+Khamgaon/data=!4m7!3m6!1s0x3bdbc6196832bcbd:0xf17deef56e653c97!8m2!3d20.1825186!4d75.5203424!16s%2Fg%2F11d_tjx7sv!19sChIJvbwyaBnG2zsRlzxlbvXuffE?authuser=0&hl=en&rclk=1,"20.182518599999998,75.52034239999999"
QAMARUN-NISA MASJID KHAMGAON (k'mrun-nisaa msjid khaamgaaNv)(qmrlnsa msjyd khhmgw),Mosque,"5GC5+WQ9 QAMARUN-NISA MASJID KHAMGAON (k'mrun-nisaa msjid khaamgaaNv)(qmrlnsa msjyd khhmgw), Khamgaon, Maharashtra 431151",,5GC5+WQ9,Khamgaon,,Maharashtra,IN,https://www.google.com/maps/place/QAMARUN-NISA+MASJID+KHAMGAON+%28%E0%A4%95%E0%A4%BC%E0%A4%AE%E0%A4%B0%E0%A5%81%E0%A4%A8-%E0%A4%A8%E0%A4%BF%E0%A4%B8%E0%A4%BE+%E0%A4%AE%E0%A4%B8%E0%A5%8D%E0%A4%9C%E0%A4%BF%E0%A4%A6+%E0%A4%96%E0%A4%BE%E0%A4%AE%E0%A4%97%E0%A4%BE%E0%A4%82%E0%A4%B5%29%28%D9%82%D9%85%D8%B1%D8%A7%D9%84%D9%86%D8%B3%D8%A2%D8%A1+%D9%85%D8%B3%D8%AC%DB%8C%D8%AF+%DA%A9%DA%BE%D8%A7%D9%85%DA%AF%D8%A7%D9%88%29%E2%80%AD/data=!4m7!3m6!1s0x3bdbc721aa5f214d:0x8cd4f123ea6c79a!8m2!3d20.1722899!4d75.5094925!16s%2Fg%2F11ry_7rm0m!19sChIJTSFfqiHH2zsRmsemPhJPzQg?authuser=0&hl=en&rclk=1,"20.1722899,75.5094925"
Madina Masjid,Mosque,"FJR9+PHW Madina Masjid, Lakhanwada, Maharashtra 444303",,FJR9+PHW,Lakhanwada,444303,Maharashtra,IN,https://www.google.com/maps/place/Madina+Masjid/data=!4m7!3m6!1s0x3bd0ad5b3adf6a29:0x418e412a449e608!8m2!3d20.4918584!4d76.6189508!16s%2Fg%2F11h24qjk_6!19sChIJKWrfOlut0DsRCOZJpBLkGAQ?authuser=0&hl=en&rclk=1,"20.491858399999998,76.6189508"
Mastan chowk,Screen printer,"Shop No 1, Mastan chowk, Mastan Chowk, Juna Fail, Dal Fail, Khamgaon, Maharashtra 444303","Juna Fail, Dal Fail","Shop No 1, Mastan Chowk",Khamgaon,444303,Maharashtra,IN,https://www.google.com/maps/place/Mastan+chowk/data=!4m7!3m6!1s0x3bd751fd2d6f8579:0xa3bb53591ad648c2!8m2!3d20.702309!4d76.565618!16s%2Fg%2F11kjjgkw_z!19sChIJeYVvLf1R1zsRwkjWGllTu6M?authuser=0&hl=en&rclk=1,"20.702309,76.565618"
Masjid-e-Shaheen,Religious destination,"Masjid-e-Shaheen, Shaheen Colony, Shahin Colony, Nandura, Maharashtra 443404","Shaheen Colony, Shahin Colony",,Nandura,443404,Maharashtra,IN,https://www.google.com/maps/place/Masjid-e-Shaheen/data=!4m7!3m6!1s0x3bd759f186c49981:0x6a7870000cbe624a!8m2!3d20.8360584!4d76.46869!16s%2Fg%2F11txzpn9l4!19sChIJgZnEhvFZ1zsRSmK-DABweGo?authuser=0&hl=en&rclk=1,"20.8360584,76.46869"
jaituuniiyaa msjid,Mosque,"PC9V+RH3 jaituuniiyaa msjid, Pimpalgaon Raja, Maharashtra 444306",,PC9V+RH3,Pimpalgaon Raja,444306,Maharashtra,IN,https://www.google.com/maps/place/%E0%A4%9C%E0%A5%88%E0%A4%A4%E0%A5%82%E0%A4%A8%E0%A5%80%E0%A4%AF%E0%A4%BE+%E0%A4%AE%E0%A4%B8%E0%A5%8D%E0%A4%9C%E0%A4%BF%E0%A4%A6/data=!4m7!3m6!1s0x3bd9fd9ae8666c6b:0x9d62551f660a6236!8m2!3d20.7195162!4d76.4439327!16s%2Fg%2F11n0_sxh6f!19sChIJa2xm6Jr92TsRNmIKZh9VYp0?authuser=0&hl=en&rclk=1,"20.719516199999997,76.44393269999999"
Suvidha Apartment,Residents association,"Suvidha Apartment, Nandura Rd, in front of Sant Tukaram Sabhagruha, Khate Layout, Madhav Nagar, Khamgaon, Maharashtra 444303","Khate Layout, Madhav Nagar","Nandura Rd, in front of Sant Tukaram Sabhagruha",Khamgaon,444303,Maharashtra,IN,https://www.google.com/maps/place/Suvidha+Apartment/data=!4m7!3m6!1s0x3bd750c5cc28e84f:0xf748b6c86fb4f12c!8m2!3d20.7219427!4d76.5629278!16s%2Fg%2F11cs6cn9y4!19sChIJT-gozMVQ1zsRLPG0b8i2SPc?authuser=0&hl=en&rclk=1,"20.7219427,76.5629278"
Nurmohmmd masjid,Mosque,"MHV5+GXP Nurmohmmd masjid, Sajanpuri, Khamgaon, Maharashtra 444303",Sajanpuri,MHV5+GXP,Khamgaon,444303,Maharashtra,IN,https://www.google.com/maps/place/Nurmohmmd+masjid/data=!4m7!3m6!1s0x3bd751a86f62fc37:0xaa669b87397392a!8m2!3d20.6937335!4d76.5599617!16s%2Fg%2F11v3p8f3zj!19sChIJN_xib6hR1zsRKjmXc7hppgo?authuser=0&hl=en&rclk=1,"20.6937335,76.5599617"
Madina Masjid,Mosque,"MHV5+8RH Madina Masjid, Unnamed Road, Sajanpuri, Khamgaon, Maharashtra 444303",Sajanpuri,"MHV5+8RH, Unnamed Road",Khamgaon,444303,Maharashtra,IN,https://www.google.com/maps/place/Madina+Masjid/data=!4m7!3m6!1s0x3bd751583e63ff17:0x5bf77debf6a2dc17!8m2!3d20.693313!4d76.559619!16s%2Fg%2F11h7b5ff5w!19sChIJF_9jPlhR1zsRF9yi9ut991s?authuser=0&hl=en&rclk=1,"20.693313,76.559619"
Masjide Namra,Mosque,"MHX7+P6F Masjide Namra, Shaukat colony, Dal Fail, Khamgaon, Maharashtra 444303","Pratap Nager, Dal Fail","MHX7+P6F, Shaukat colony",Khamgaon,444303,Maharashtra,IN,https://www.google.com/maps/place/Masjide+Namra/data=!4m7!3m6!1s0x3bd75108b49015a7:0x34968c5effa2d8e0!8m2!3d20.6993224!4d76.5630545!16s%2Fg%2F11mw4xp0gl!19sChIJpxWQtAhR1zsR4Nii_16MljQ?authuser=0&hl=en&rclk=1,"20.6993224,76.56305449999999"
Madina masjid gondhanapur,Mosque,"PH68+JCP Madina masjid gondhanapur, tq, near by water tank, Madhav Nagar, Gondhanapur, Khamgaon, Maharashtra 444303",Madhav Nagar,"PH68+JCP, tq, near by water tank","Gondhanapur, Khamgaon",,Maharashtra,IN,https://www.google.com/maps/place/Madina+masjid+gondhanapur/data=!4m7!3m6!1s0x3bd751a8c57bbcfb:0x41fad3abd5e78935!8m2!3d20.7115947!4d76.5660888!16s%2Fg%2F11h4zmg983!19sChIJ-7x7xahR1zsRNYnn1avT-kE?authuser=0&hl=en&rclk=1,"20.7115947,76.5660888"
Iliyas masjid,Mosque,"MHV8+RJ4 Iliyas masjid, Barde Plot, Khamgaon, Maharashtra 444303",Barde Plot,MHV8+RJ4,Khamgaon,444303,Maharashtra,IN,https://www.google.com/maps/place/Iliyas+masjid/data=!4m7!3m6!1s0x3bd7511995622e11:0x4c83b42bdb2d92dc!8m2!3d20.6945055!4d76.5665749!16s%2Fg%2F11vjr35dvw!19sChIJES5ilRlR1zsR3JIt2yu0g0w?authuser=0&hl=en&rclk=1,"20.694505499999998,76.56657489999999"
Raza masjid pimpale gaon Raja khamgaon,Religious destination,"PCCV+2PP Raza masjid pimpale gaon Raja khamgaon, Pimpalgaon Raja, Maharashtra 444306",,PCCV+2PP,Pimpalgaon Raja,444306,Maharashtra,IN,https://www.google.com/maps/place/Raza+masjid+pimpale+gaon+Raja+khamgaon/data=!4m7!3m6!1s0x3bd9fdeb7acdf41f:0x241a1ea59f979bc0!8m2!3d20.7204096!4d76.4443829!16s%2Fg%2F11khqql4kd!19sChIJH_TNeuv92TsRwJuXn6UeGiQ?authuser=0&hl=en&rclk=1,"20.7204096,76.4443829"
Jama masjid,Mosque,"RFJ4+GXX Jama masjid, Qureshi Nagar, Nandura, Maharashtra 443404",Qureshi Nagar,RFJ4+GXX,Nandura,443404,Maharashtra,IN,https://www.google.com/maps/place/Jama+masjid/data=!4m7!3m6!1s0x3bd75998b737ef1f:0x34e908b9659e881!8m2!3d20.8313635!4d76.4574881!16s%2Fg%2F11tx20r1qd!19sChIJH-83t5hZ1zsRgehZlouQTgM?authuser=0&hl=en&rclk=1,"20.8313635,76.45748809999999"
Dargah Wali Masjid (Markaz Masjid),Mosque,"RFM7+P2V Dargah Wali Masjid (Markaz Masjid), Nawabpura, Shivaji Nagar, Nandura, Maharashtra 443404","Nawabpura, Shivaji Nagar",RFM7+P2V,Nandura,443404,Maharashtra,IN,https://www.google.com/maps/place/Dargah+Wali+Masjid+%28Markaz+Masjid%29/data=!4m7!3m6!1s0x3bd759852437339d:0xc5644098e0a51aec!8m2!3d20.8344405!4d76.4626648!16s%2Fg%2F11vhcpnb05!19sChIJnTM3JIVZ1zsR7Bql4JhAZMU?authuser=0&hl=en&rclk=1,"20.8344405,76.4626648"
Qureshi Nagar Masjid,Mosque,"Qureshi Nagar Masjid, Qureshi Nagar, Nandura, Maharashtra 443404",Qureshi Nagar,,Nandura,443404,Maharashtra,IN,https://www.google.com/maps/place/Qureshi+Nagar+Masjid/data=!4m7!3m6!1s0x3bd75904f015d3bf:0xbd9d35efa28d1da8!8m2!3d20.8306752!4d76.4594783!16s%2Fg%2F11h7b93_fh!19sChIJv9MV8ARZ1zsRqB2Nou81nb0?authuser=0&hl=en&rclk=1,"20.830675199999998,76.4594783"
Eid-gah,Mosque,"MGFF+J5Q Eid-gah, Gondhanapur, Maharashtra 444303",,MGFF+J5Q,Gondhanapur,444303,Maharashtra,IN,https://www.google.com/maps/place/Eid-gah/data=!4m7!3m6!1s0x3bd757082e3f8933:0x3822d13054a31717!8m2!3d20.6740841!4d76.5229736!16s%2Fg%2F11p0wd5jdx!19sChIJM4k_LghX1zsRFxejVDDRIjg?authuser=0&hl=en&rclk=1,"20.674084099999998,76.5229736"
Aqsa Colony Masjid,Mosque,"PH8F+X9P Aqsa Colony Masjid, Sambhaji Maharaj Rd, Azim Azad Nagar, Khamgaon, Maharashtra 444303",Azim Azad Nagar,"PH8F+X9P, Sambhaji Maharaj Rd",Khamgaon,444303,Maharashtra,IN,https://www.google.com/maps/place/Aqsa+Colony+Masjid/data=!4m7!3m6!1s0x3bd75112769d12fd:0xc1814a0788ee96ed!8m2!3d20.7174233!4d76.5735329!16s%2Fg%2F11sspwfy13!19sChIJ_RKddhJR1zsR7ZbuiAdKgcE?authuser=0&hl=en&rclk=1,"20.7174233,76.5735329"
Patthar wali masjid,Mosque,"PH78+728 Patthar wali masjid, Shivalay Vihar, Khamgaon, Maharashtra 444303",Shivalay Vihar,PH78+728,Khamgaon,,Maharashtra,IN,https://www.google.com/maps/place/Patthar+wali+masjid/data=!4m7!3m6!1s0x3bd751930cbccbe3:0xe26d991b1776ed20!8m2!3d20.7131695!4d76.5650829!16s%2Fg%2F11vbw7b8q4!19sChIJ48u8DJNR1zsRIO12FxuZbeI?authuser=0&hl=en&rclk=1,"20.7131695,76.5650829"
Juni Masjid Sarafa,Mosque,"PH78+728 Juni Masjid Sarafa, Shivalay Vihar, Khamgaon, Maharashtra 444303",Shivalay Vihar,PH78+728,Khamgaon,,Maharashtra,IN,https://www.google.com/maps/place/Juni+Masjid+Sarafa/data=!4m7!3m6!1s0x3bd75145d522a7c1:0x8d9885c3a6c85bb3!8m2!3d20.7131695!4d76.5650829!16s%2Fg%2F11sszq__r5!19sChIJwaci1UVR1zsRs1vIpsOFmI0?authuser=0&hl=en&rclk=1,"20.7131695,76.5650829"
Juni Masjid Sarafa,Mosque,"PH36+MFC Juni Masjid Sarafa, Boripura, Khamgaon, Maharashtra 444303",Boripura,PH36+MFC,Khamgaon,444303,Maharashtra,IN,https://www.google.com/maps/place/Juni+Masjid+Sarafa/data=!4m7!3m6!1s0x3bd7512d5a93b10d:0xc328d5a5fb295370!8m2!3d20.7041939!4d76.5611447!16s%2Fg%2F11ty7dcmks!19sChIJDbGTWi1R1zsRcFMp-6XVKMM?authuser=0&hl=en&rclk=1,"20.7041939,76.5611447"
taaj ngr msjid,Mosque,"PH9G+6RF taaj ngr msjid, Taaj Nagar, Khamgaon, Maharashtra 444303",Taaj Nagar,PH9G+6RF,Khamgaon,444303,Maharashtra,IN,https://www.google.com/maps/place/%E0%A4%A4%E0%A4%BE%E0%A4%9C+%E0%A4%A8%E0%A4%97%E0%A4%B0+%E0%A4%AE%E0%A4%B8%E0%A5%8D%E0%A4%9C%E0%A4%BF%E0%A4%A6/data=!4m7!3m6!1s0x3bd751135c1ca5d3:0x3002c158d1a35f5b!8m2!3d20.7188837!4d76.577124!16s%2Fg%2F11stlk850_!19sChIJ06UcXBNR1zsRW1-j0VjBAjA?authuser=0&hl=en&rclk=1,"20.7188837,76.577124"
Muslim kabristaan khamgaon,Cemetery,"MHV9+Q37 Muslim kabristaan khamgaon, Barde Plot, Khamgaon, Maharashtra 444303",Barde Plot,MHV9+Q37,Khamgaon,444303,Maharashtra,IN,https://www.google.com/maps/place/Muslim+kabristaan+khamgaon/data=!4m7!3m6!1s0x3bd751ee27cccbc3:0x6b6e7c34deb1a20f!8m2!3d20.6944051!4d76.5676649!16s%2Fg%2F11qg9sl312!19sChIJw8vMJ-5R1zsRD6Kx3jR8bms?authuser=0&hl=en&rclk=1,"20.694405099999997,76.5676649"
Husainiya masjid and madrsa,Mosque,"MHQH+5VQ Husainiya masjid and madrsa, Januna, Khamgaon, Maharashtra 444303",Januna,MHQH+5VQ,Khamgaon,444303,Maharashtra,IN,https://www.google.com/maps/place/Husainiya+masjid+and+madrsa/data=!4m7!3m6!1s0x3bd751004e2d1fdb:0x3d0bae15cb06149f!8m2!3d20.6879618!4d76.5797332!16s%2Fg%2F11vm3t0w22!19sChIJ2x8tTgBR1zsRnxQGyxWuCz0?authuser=0&hl=en&rclk=1,"20.6879618,76.57973319999999"
msjid,Mosque,"JFWG+4QP msjid, At Post: Rohana, Tal, Dist, Khamgaon, Maharashtra",,"JFWG+4QP, At Post: Rohana, Tal, Dist","Khamgaon, Rohana",,Maharashtra,IN,https://www.google.com/maps/place/%E0%A4%AE%E0%A4%B8%E0%A5%8D%E0%A4%9C%E0%A4%BF%E0%A4%A6/data=!4m7!3m6!1s0x3bd755f3b7cc81f7:0x67ab8a4d36d4d6bf!8m2!3d20.6453264!4d76.4769412!16s%2Fg%2F11t_vkt31r!19sChIJ94HMt_NV1zsRv9bUNk2Kq2c?authuser=0&hl=en&rclk=1,"20.6453264,76.4769412"
Phatakpura Masjid Mastan Chowk,Mosque,"Phatakpura Masjid Mastan Chowk, Mastan, ChowkKhamgaon, Nagapur, Maharashtra 444303",,Mastan,"ChowkKhamgaon, Nagapur",444303,Maharashtra,IN,https://www.google.com/maps/place/Phatakpura+Masjid+Mastan+Chowk/data=!4m7!3m6!1s0x3bd7530a58775d87:0x7ccecd21f2ef620a!8m2!3d20.6144654!4d76.5950555!16s%2Fg%2F11txjd6n_z!19sChIJh113WApT1zsRCmLv8iHNznw?authuser=0&hl=en&rclk=1,"20.6144654,76.5950555"
Masjid e AQSA,Place of worship,"Masjid e AQSA, At Hotel, Royal Palace P, Khamgaon Rd, Patil Nagar, Vyankatesh Nagar, Shegaon, Maharashtra 444203","Patil Nagar, Vyankatesh Nagar","At Hotel, Royal Palace P, Khamgaon Rd",Shegaon,444203,Maharashtra,IN,https://www.google.com/maps/place/Masjid+e+AQSA/data=!4m7!3m6!1s0x3bd745c198455f27:0xe495475434b11498!8m2!3d20.7960778!4d76.6864166!16s%2Fg%2F11sk0w2cml!19sChIJJ19FmMFF1zsRmBSxNFRHleQ?authuser=0&hl=en&rclk=1,"20.7960778,76.6864166"
Makkah Masjid,Mosque,"Makkah Masjid, Aawar, Maharashtra 444303",,,Aawar,444303,Maharashtra,IN,https://www.google.com/maps/place/Makkah+Masjid/data=!4m7!3m6!1s0x3bd75375a08dba5b:0x59d68e9ca16963d8!8m2!3d20.6356593!4d76.6242769!16s%2Fg%2F11s9j7yqkc!19sChIJW7qNoHVT1zsR2GNpoZyO1lk?authuser=0&hl=en&rclk=1,"20.6356593,76.6242769"
Masjd e Ummul Khair,Mosque,"Masjd e Ummul Khair, Zam zam Nagar, Rokadiya Nagar, Shegaon, Maharashtra 444203",Rokadiya Nagar,Zam zam Nagar,Shegaon,444203,Maharashtra,IN,https://www.google.com/maps/place/Masjd+e+Ummul+Khair/data=!4m7!3m6!1s0x3bd745e421485169:0xd14e7627c7f55a5!8m2!3d20.7771791!4d76.6773465!16s%2Fg%2F11t3fw192s!19sChIJaVFIIeRF1zsRpVV_fGLnFA0?authuser=0&hl=en&rclk=1,"20.777179099999998,76.6773465"
MAQQA SUNNI MASJID,Mosque,"ward no, MAQQA SUNNI MASJID, 5paith mohalla, Lakhanwada, Maharashtra 444303",5paith mohalla,ward no,Lakhanwada,444303,Maharashtra,IN,https://www.google.com/maps/place/MAQQA+SUNNI+MASJID/data=!4m7!3m6!1s0x3bd0adb2591ebbc3:0x60049c05efabf98e!8m2!3d20.4952128!4d76.6196097!16s%2Fg%2F11y1g1hc94!19sChIJw7seWbKt0DsRjvmr7wWcBGA?authuser=0&hl=en&rclk=1,"20.495212799999997,76.6196097"
Nazim Aadhar Center,Aadhaar center,"PH7C+WW5 Nazim Aadhar Center, Millat Colony, Khamgaon, Maharashtra 444303",Millat Colony,PH7C+WW5,Khamgaon,444303,Maharashtra,IN,https://www.google.com/maps/place/Nazim+Aadhar+Center/data=!4m7!3m6!1s0x3bd7511af9fd2de1:0xd311eb921c514580!8m2!3d20.7147545!4d76.5723487!16s%2Fg%2F11h4zfqs9l!19sChIJ4S39-RpR1zsRgEVRHJLrEdM?authuser=0&hl=en&rclk=1,"20.714754499999998,76.57234869999999"
Masjid nayghavan,Mosque,"Masjid nayghavan, Husen Baag, Narsri Rd, Khamgaon, Maharashtra 431151",,"Husen Baag, Narsri Rd",Khamgaon,431151,Maharashtra,IN,https://www.google.com/maps/place/Masjid+nayghavan/data=!4m7!3m6!1s0x3bdbc9e13791f377:0xc9aec5ce2972356b!8m2!3d20.183204!4d75.5282475!16s%2Fg%2F11y1cc2w0f!19sChIJd_ORN-HJ2zsRazVyKc7Frsk?authuser=0&hl=en&rclk=1,"20.183204,75.52824749999999"
SK 7378,Mosque,"QMPV+8VG SK 7378, Shegaon, Maharashtra 444203",,QMPV+8VG,Shegaon,444203,Maharashtra,IN,https://www.google.com/maps/place/SK+7378/data=!4m7!3m6!1s0x3bd7454f3e52fce3:0xdd9a84afa39009fc!8m2!3d20.7855423!4d76.6945867!16s%2Fg%2F11tc8w17db!19sChIJ4_xSPk9F1zsR_AmQo6-Emt0?authuser=0&hl=en&rclk=1,"20.7855423,76.6945867"
jaamaa msjid jhoddgaa,Mosque,"GFG6+7G7 jaamaa msjid jhoddgaa, jaamaa msjid rodd, jhoddgaa khaamgaav, 444303",,"GFG6+7G7, jaamaa msjid rodd, jhoddgaa khaamgaav",Zodga,444303,Maharashtra,IN,https://www.google.com/maps/place/%E0%A4%9C%E0%A4%BE%E0%A4%AE%E0%A4%BE+%E0%A4%AE%E0%A4%B8%E0%A5%8D%E0%A4%9C%E0%A4%BF%E0%A4%A6+%E0%A4%9D%E0%A5%8B%E0%A4%A1%E0%A4%97%E0%A4%BE/data=!4m7!3m6!1s0x3bd0ab7bea15106f:0x58ace39370f23404!8m2!3d20.5256565!4d76.4613081!16s%2Fg%2F11r25l_pbv!19sChIJbxAV6nur0DsRBDTycJPjrFg?authuser=0&hl=en&rclk=1,"20.5256565,76.4613081"
Madarsa Saranagar,Mosque,"RFH9+9H6 Madarsa Saranagar, Nandura Khurd, Nandura, Maharashtra 443404",Nandura Khurd,RFH9+9H6,Nandura,443404,Maharashtra,IN,https://www.google.com/maps/place/Madarsa+Saranagar/data=!4m7!3m6!1s0x3bd759a44ae3c0c3:0xed8c073d4ae98c50!8m2!3d20.8285506!4d76.4692215!16s%2Fg%2F11sjjm8086!19sChIJw8DjSqRZ1zsRUIzpSj0HjO0?authuser=0&hl=en&rclk=1,"20.8285506,76.4692215"
Jama Masjid,Mosque,"GP84+CVH Jama Masjid, Kanchanpur, Maharashtra 444303",,GP84+CVH,Kanchanpur,444303,Maharashtra,IN,https://www.google.com/maps/place/Jama+Masjid/data=!4m7!3m6!1s0x3bd0b32e7a6e5ecb:0x232d655ca874c97c!8m2!3d20.5160651!4d76.707237!16s%2Fg%2F11vb9t53fc!19sChIJy15uei6z0DsRfMl0qFxlLSM?authuser=0&hl=en&rclk=1,"20.5160651,76.70723699999999"
Jama masjid,Mosque,"VF6J+VGC Jama masjid, Nimgaon, Maharashtra 443404",,VF6J+VGC,Nimgaon,443404,Maharashtra,IN,https://www.google.com/maps/place/Jama+masjid/data=!4m7!3m6!1s0x3bd75f70e67b4665:0x5d707596642aaa6b!8m2!3d20.862192!4d76.4812726!16s%2Fg%2F11v9n8srdx!19sChIJZUZ75nBf1zsRa6oqZJZ1cF0?authuser=0&hl=en&rclk=1,"20.862192,76.4812726"
Hazrat Bilal Chawk,Historical landmark,"PH99+5G3 Hazrat Bilal Chawk, Tayade Colony, Khamgaon, Maharashtra 444303",Tayade Colony,PH99+5G3,Khamgaon,444303,Maharashtra,IN,https://www.google.com/maps/place/Hazrat+Bilal+Chawk/data=!4m7!3m6!1s0x3bd751dcf184695d:0xec6621f883871c3e!8m2!3d20.7177729!4d76.5686191!16s%2Fg%2F11sspxwfnf!19sChIJXWmE8dxR1zsRPhyHg_ghZuw?authuser=0&hl=en&rclk=1,"20.7177729,76.56861909999999"
Husainiya masjid,Indian Muslim restaurant,"MHRH+6MM Husainiya masjid, Januna, Khamgaon, Maharashtra 444303",Januna,MHRH+6MM,Khamgaon,444303,Maharashtra,IN,https://www.google.com/maps/place/Husainiya+masjid/data=!4m7!3m6!1s0x3bd751005319ff6d:0x245ba69dba8de1f9!8m2!3d20.6905949!4d76.579165!16s%2Fg%2F11y294sxvc!19sChIJbf8ZUwBR1zsR-eGNup2mWyQ?authuser=0&hl=en&rclk=1,"20.6905949,76.579165"
Masjid imam qasim,School,"Masjid imam qasim, Eidgah plot, Sajanpuri, Khamgaon, Maharashtra 444303",Sajanpuri,Eidgah plot,Khamgaon,444303,Maharashtra,IN,https://www.google.com/maps/place/Masjid+imam+qasim/data=!4m7!3m6!1s0x3bd751c111507197:0x3743baddb9986b5a!8m2!3d20.6924474!4d76.5614147!16s%2Fg%2F11h5lvnh1t!19sChIJl3FQEcFR1zsRWmuYud26Qzc?authuser=0&hl=en&rclk=1,"20.6924474,76.5614147"
MASJID IMAM QASIM,School,"MHQ4+GC3 MASJID IMAM QASIM, Sajanpuri, Khamgaon, Shirasgaon Deshmukh, Maharashtra 444303",Sajanpuri,MHQ4+GC3,"Khamgaon, Shirasgaon Deshmukh",444303,Maharashtra,IN,https://www.google.com/maps/place/MASJID+IMAM+QASIM/data=!4m7!3m6!1s0x3bd751b6ac232ae1:0x370e6e02464929a1!8m2!3d20.6887701!4d76.5560481!16s%2Fg%2F11fnp_0nzd!19sChIJ4SojrLZR1zsRoSlJRgJuDjc?authuser=0&hl=en&rclk=1,"20.6887701,76.5560481"
Iqbal,Store,"MHV6+2FJ Iqbal, Unnamed Road, Sajanpuri, Khamgaon, Maharashtra 444303",Sajanpuri,"MHV6+2FJ, Unnamed Road",Khamgaon,444303,Maharashtra,IN,https://www.google.com/maps/place/Iqbal/data=!4m7!3m6!1s0x3bd7518a0c2908bf:0x6ccac8a539401ed7!8m2!3d20.6925774!4d76.5611334!16s%2Fg%2F11ngys3nhg!19sChIJvwgpDIpR1zsR1x5AOaXIymw?authuser=0&hl=en&rclk=1,"20.692577399999998,76.5611334"
PATHAN CHOWK,Apartment complex,"PATHAN CHOWK, juna fail, near Markaz Masjid, Shivaji Nager, Khamgaon, Maharashtra 444303",Shivaji Nager,"juna fail, near Markaz Masjid",Khamgaon,444303,Maharashtra,IN,https://www.google.com/maps/place/PATHAN+CHOWK/data=!4m7!3m6!1s0x3bd7519624c0ae55:0xfc325f451d584c9f!8m2!3d20.7023514!4d76.567568!16s%2Fg%2F11tmwd2mtv!19sChIJVa7AJJZR1zsRn0xYHUVfMvw?authuser=0&hl=en&rclk=1,"20.702351399999998,76.567568"
Imran shaikh,Store,"MHV6+2FJ Imran shaikh, Unnamed Road, Sajanpuri, Khamgaon, Maharashtra 444303",Sajanpuri,"MHV6+2FJ, Unnamed Road",Khamgaon,444303,Maharashtra,IN,https://www.google.com/maps/place/Imran+shaikh/data=!4m7!3m6!1s0x3bd7512dd3744daf:0x18bebc3099be97eb!8m2!3d20.6925774!4d76.5611334!16s%2Fg%2F11ngysfwpb!19sChIJr0100y1R1zsR65e-mTC8vhg?authuser=0&hl=en&rclk=1,"20.692577399999998,76.5611334"
