name,main_category,address,address_ward,address_street,address_city,address_postal_code,address_state,address_country_code,link,coordinates
Al Jamiul Azhar Jum'ah Masjid,Mosque,"Al Jamiul Azhar Jum'ah Masjid, KTM Street, Customs Rd, Odakkarai, Kayalpattinam, Tamil Nadu 628204",Odakkarai,"KTM Street, Customs Rd",Kayalpattinam,628204,Tamil Nadu,IN,https://www.google.com/maps/place/Al+Jamiul+Azhar+Jum%27ah+Masjid/data=!4m7!3m6!1s0x3b0391f62c912291:0x18bc1aa952d623d6!8m2!3d8.563398!4d78.1252193!16s%2Fg%2F11dz49pvz7!19sChIJkSKRLPaRAzsR1iPWUqkavBg?authuser=0&hl=en&rclk=1,"8.563398,78.1252193"
KMT Hospital Masjid,Mosque,"H44C+HVV KMT Hospital Masjid, Chinna Nesavu Street, Kayalpattinam, Tamil Nadu 628202","Wavoo Nagar, Odakkarai","H44C+HVV, Chinna Nesavu Street",Kayalpattinam,628202,Tamil Nadu,IN,https://www.google.com/maps/place/KMT+Hospital+Masjid/data=!4m7!3m6!1s0x3b0391fa7616b5f7:0x17309ac3de0e590c!8m2!3d8.5564757!4d78.1221734!16s%2Fg%2F1thxjhdy!19sChIJ97UWdvqRAzsRDFkO3sOaMBc?authuser=0&hl=en&rclk=1,"8.5564757,78.1221734"
Masjid - Thowheed Palli TNTJ,Mosque,"H45F+FJ8 Masjid - Thowheed Palli TNTJ, Wavoo Nagar, Odakkarai, Kayalpattinam, Tamil Nadu 628204","Wavoo Nagar, Odakkarai",H45F+FJ8,Kayalpattinam,628204,Tamil Nadu,IN,https://www.google.com/maps/place/Masjid+-+Thowheed+Palli+TNTJ/data=!4m7!3m6!1s0x3b0391f731459d75:0x6b2475af35b3ffa6!8m2!3d8.5586696!4d78.1240636!16s%2Fg%2F11cs0zgj64!19sChIJdZ1FMfeRAzsRpv-zNa91JGs?authuser=0&hl=en&rclk=1,"8.5586696,78.1240636"
Masjid - Kuruvithurai Palli,Mosque,"H47H+78G Masjid - Kuruvithurai Palli, Customs Rd, Odakkarai, Kayalpattinam, Tamil Nadu 628204",Odakkarai,"H47H+78G, Customs Rd",Kayalpattinam,628204,Tamil Nadu,IN,https://www.google.com/maps/place/Masjid+-+Kuruvithurai+Palli/data=!4m7!3m6!1s0x3b0391f5fb5ca30d:0xa0b4c3cac5279f00!8m2!3d8.5631991!4d78.128333!16s%2Fg%2F1tg4v88t!19sChIJDaNc-_WRAzsRAJ8nxcrDtKA?authuser=0&hl=en&rclk=1,"8.5631991,78.128333"
Masjid - Magudhoom Jummah Palli,Mosque,"H48F+7CQ Masjid - Magudhoom Jummah Palli, Mogudoom St, Kayalpattinam, Tamil Nadu 628204",,"H48F+7CQ, Mogudoom St",Kayalpattinam,628204,Tamil Nadu,IN,https://www.google.com/maps/place/Masjid+-+Magudhoom+Jummah+Palli/data=!4m7!3m6!1s0x3b03921d3cd8c39d:0x978e3a3f5550645a!8m2!3d8.5657247!4d78.1236146!16s%2Fg%2F1tdj_06g!19sChIJncPYPB2SAzsRWmRQVT86jpc?authuser=0&hl=en&rclk=1,"8.565724699999999,78.1236146"
Masjid - Mikaeel (Irattai Kulathu) Palli,Mosque,"H49G+QJH Masjid - Mikaeel (Irattai Kulathu) Palli, Sadukai St, Kayalpattinam, Tamil Nadu 628204",,"H49G+QJH, Sadukai St",Kayalpattinam,628204,Tamil Nadu,IN,https://www.google.com/maps/place/Masjid+-+Mikaeel+%28Irattai+Kulathu%29+Palli/data=!4m7!3m6!1s0x3b03921bf4bcff0b:0x49439b6f94f82b6d!8m2!3d8.5694276!4d78.1266027!16s%2Fg%2F11h14mvk1!19sChIJC_-89BuSAzsRbSv4lG-bQ0k?authuser=0&hl=en&rclk=1,"8.5694276,78.12660269999999"
Kadiriya Kodimara Sirnainaar Pally,Mosque,"Kadiriya Kodimara Sirnainaar Pally, Masjid - Kodimarathu Sirunainar Palli, Arampalli Street, Kayalpattinam, Tamil Nadu 628204",,"Masjid - Kodimarathu Sirunainar Palli, Arampalli Street",Kayalpattinam,628204,Tamil Nadu,IN,https://www.google.com/maps/place/Kadiriya+Kodimara+Sirnainaar+Pally/data=!4m7!3m6!1s0x3b03931be87a5eab:0xbf673a876a536a41!8m2!3d8.5652265!4d78.1250171!16s%2Fg%2F11hsnm5f0l!19sChIJq1566BuTAzsRQWpTaoc6Z78?authuser=0&hl=en&rclk=1,"8.5652265,78.1250171"
Masjid - Seyyidina Bilal Palli,Mosque,"H4CH+QGW Masjid - Seyyidina Bilal Palli, Kayalpattinam, Tamil Nadu 628204",,H4CH+QGW,Kayalpattinam,628204,Tamil Nadu,IN,https://www.google.com/maps/place/Masjid+-+Seyyidina+Bilal+Palli/data=!4m7!3m6!1s0x3b0392190c612c5b:0x882291227ff9de21!8m2!3d8.5719947!4d78.1288286!16s%2Fg%2F11c6prx6kx!19sChIJWyxhDBmSAzsRId75fyKRIog?authuser=0&hl=en&rclk=1,"8.5719947,78.12882859999999"
Masjid - Periya Kutba Palli,Mosque,"H48G+RHC Masjid - Periya Kutba Palli, Nainar St, Kayalpattinam, Tamil Nadu 628204",,"H48G+RHC, Nainar St",Kayalpattinam,628204,Tamil Nadu,IN,https://www.google.com/maps/place/Masjid+-+Periya+Kutba+Palli/data=!4m7!3m6!1s0x3b03921c486e5927:0x4b03b8547f5f4f5d!8m2!3d8.5670652!4d78.1263918!16s%2Fg%2F11rrr0z0_q!19sChIJJ1luSBySAzsRXU9ff1S4A0s?authuser=0&hl=en&rclk=1,"8.5670652,78.1263918"
Masjid - Mohideen Palli,Mosque,"H49F+4RJ Masjid - Mohideen Palli, Kuthukal St, Kayalpattinam, Tamil Nadu 628204",,"H49F+4RJ, Kuthukal St",Kayalpattinam,628204,Tamil Nadu,IN,https://www.google.com/maps/place/Masjid+-+Mohideen+Palli/data=!4m7!3m6!1s0x3b03921c8d179d7f:0xa286806f7e46667c!8m2!3d8.5678277!4d78.1245022!16s%2Fg%2F1tgfv1c_!19sChIJf50XjRySAzsRfGZGfm-AhqI?authuser=0&hl=en&rclk=1,"8.5678277,78.1245022"
Masjid - Koman Mottaiyar Palli,Mosque,"H4GH+C2P Masjid - Koman Mottaiyar Palli, Panchayath Board Rd, Kayalpatnam, Kayalpattinam, Tamil Nadu 628204",,"H4GH+C2P, Panchayath Board Rd","Kayalpatnam, Kayalpattinam",628204,Tamil Nadu,IN,https://www.google.com/maps/place/Masjid+-+Koman+Mottaiyar+Palli/data=!4m7!3m6!1s0x3b039210ca2ac749:0x38c224853a87f265!8m2!3d8.5760855!4d78.1275854!16s%2Fg%2F11g_wzlk8!19sChIJSccqyhCSAzsRZfKHOoUkwjg?authuser=0&hl=en&rclk=1,"8.5760855,78.1275854"
Masjid - Puthuppalli,Mosque,"H48C+CGW Masjid - Puthuppalli, Thaika St, Kayalpattinam, Tamil Nadu 628204",,"H48C+CGW, Thaika St",Kayalpattinam,628204,Tamil Nadu,IN,https://www.google.com/maps/place/Masjid+-+Puthuppalli/data=!4m7!3m6!1s0x3b039202d9aa0fe5:0x85c335eb15c64fe1!8m2!3d8.5661027!4d78.1213341!16s%2Fg%2F1tgnvng0!19sChIJ5Q-q2QKSAzsR4U_GFes1w4U?authuser=0&hl=en&rclk=1,"8.5661027,78.1213341"
Shaik Salahudeen Masjid - Mela Pali,Mosque,"H489+G9Q Shaik Salahudeen Masjid - Mela Pali, Seethakathi Nagar, Raththinapuri, Kayalpattinam, Tamil Nadu 628204","Seethakathi Nagar, Raththinapuri",H489+G9Q,Kayalpattinam,628204,Tamil Nadu,IN,https://www.google.com/maps/place/Shaik+Salahudeen+Masjid+-+Mela+Pali/data=!4m7!3m6!1s0x3b039203b2fb429d:0x72f25ba539fe20c7!8m2!3d8.5663354!4d78.1184997!16s%2Fg%2F11h08tqbm!19sChIJnUL7sgOSAzsRxyD-OaVb8nI?authuser=0&hl=en&rclk=1,"8.5663354,78.1184997"
Jamia Masjid At-thawba Palli,Mosque,"H44C+5G9 Jamia Masjid At-thawba Palli, Quade, Millath St, Wavoo Nagar, nagar, Kayalpattinam, Tamil Nadu 628204","Wavoo Nagar, nagar","H44C+5G9 Quade, Millath St",Kayalpattinam,628204,Tamil Nadu,IN,https://www.google.com/maps/place/Jamia+Masjid+At-thawba+Palli/data=!4m7!3m6!1s0x3b0391fa62d5aea7:0x7aafc3942fc780e9!8m2!3d8.5554137!4d78.1213712!16s%2Fg%2F11gf44cggs!19sChIJp67VYvqRAzsR6YDHL5TDr3o?authuser=0&hl=en&rclk=1,"8.555413699999999,78.1213712"
Masjid - Jeelani Palli,Mosque,"H4FG+4Q9 Masjid - Jeelani Palli, Kayalpattinam, Tamil Nadu 628204",,H4FG+4Q9,Kayalpattinam,,Tamil Nadu,IN,https://www.google.com/maps/place/Masjid+-+Jeelani+Palli/data=!4m7!3m6!1s0x3b039385827b2161:0xedb41b041164e363!8m2!3d8.5727781!4d78.1269709!16s%2Fg%2F11g1hl0q8d!19sChIJYSF7goWTAzsRY-NkEQQbtO0?authuser=0&hl=en&rclk=1,"8.572778099999999,78.1269709"
Siriya Khutba Palli,Mosque,"H48G+9MM Siriya Khutba Palli, Sithan St, Kayalpattinam, Tamil Nadu 628204",,"H48G+9MM, Sithan St",Kayalpattinam,628204,Tamil Nadu,IN,https://www.google.com/maps/place/Siriya+Khutba+Palli/data=!4m7!3m6!1s0x3b03921dc9aec85b:0x8dc014154f68919c!8m2!3d8.5659724!4d78.126664!16s%2Fg%2F11bx1yj99c!19sChIJW8iuyR2SAzsRnJFoTxUUwI0?authuser=0&hl=en&rclk=1,"8.5659724,78.12666399999999"
Maraikar Palli(Masjidh),Mosque,"H45G+XP9 Maraikar Palli(Masjidh), Odakkarai, Kayalpattinam, Tamil Nadu 628204",Odakkarai,H45G+XP9,Kayalpattinam,628204,Tamil Nadu,IN,https://www.google.com/maps/place/Maraikar+Palli%28Masjidh%29/data=!4m7!3m6!1s0x3b03919a6fe079fb:0x6f7b474cf2b30c19!8m2!3d8.5599121!4d78.1268575!16s%2Fg%2F11ffw28j6s!19sChIJ-3ngb5qRAzsRGQyz8kxHe28?authuser=0&hl=en&rclk=1,"8.5599121,78.1268575"
Masjid - Ahmed Nainar(Aamina) Palli,Mosque,"H48F+8WH Masjid - Ahmed Nainar(Aamina) Palli, Sadukai St, Kayalpattinam, Tamil Nadu 628204",,"H48F+8WH, Sadukai St",Kayalpattinam,628204,Tamil Nadu,IN,https://www.google.com/maps/place/Masjid+-+Ahmed+Nainar%28Aamina%29+Palli/data=!4m7!3m6!1s0x3b03921d0637cbb1:0xbf17627cbed6e32b!8m2!3d8.5658149!4d78.1248441!16s%2Fg%2F11bzs1stnl!19sChIJscs3Bh2SAzsRK-PWvnxiF78?authuser=0&hl=en&rclk=1,"8.5658149,78.12484409999999"
Masjid - Aarampalli,Mosque,"H47F+GR3 Masjid - Aarampalli, Kayalpattinam, Tamil Nadu 628204",,H47F+GR3,Kayalpattinam,628204,Tamil Nadu,IN,https://www.google.com/maps/place/Masjid+-+Aarampalli/data=!4m7!3m6!1s0x3b03921d7d6ef6bf:0x1515b97f0c24576d!8m2!3d8.5637609!4d78.1245511!16s%2Fg%2F11csrdk593!19sChIJv_ZufR2SAzsRbVckDH-5FRU?authuser=0&hl=en&rclk=1,"8.5637609,78.12455109999999"
Masjid - Periya Shamsudeen Jumah Palli,Mosque,"H44C+MC3 Masjid - Periya Shamsudeen Jumah Palli, Periya Shamsudeen, Mela Palli St, Wavoo Nagar, Odakkarai, Kayalpattinam, Tamil Nadu 628204","Wavoo Nagar, Odakkarai","H44C+MC3, Periya Shamsudeen, Mela Palli St",Kayalpattinam,628204,Tamil Nadu,IN,https://www.google.com/maps/place/Masjid+-+Periya+Shamsudeen+Jumah+Palli/data=!4m7!3m6!1s0x3b0391fa70d5e99b:0xf2d1dcf9b96e1260!8m2!3d8.5566419!4d78.1210548!16s%2Fg%2F11g_fglc3!19sChIJm-nVcPqRAzsRYBJuufnc0fI?authuser=0&hl=en&rclk=1,"8.556641899999999,78.1210548"
Masjid - Appa Palli,Mosque,"H45G+V73 Masjid - Appa Palli, Appa Palli Masjid, Appapalli St, Wavoo Nagar, Odakkarai, Kayalpattinam, Tamil Nadu 628204","Wavoo Nagar, Odakkarai","H45G+V73 Appa Palli Masjid, Appapalli St",Kayalpattinam,628204,Tamil Nadu,IN,https://www.google.com/maps/place/Masjid+-+Appa+Palli/data=!4m7!3m6!1s0x3b0391f6dce7904f:0xdcf347e8332a481a!8m2!3d8.5595293!4d78.1256205!16s%2Fg%2F11cjnnfylp!19sChIJT5Dn3PaRAzsRGkgqM-hH89w?authuser=0&hl=en&rclk=1,"8.5595293,78.1256205"
Karupudayar Mosque,Mosque,"H49J+G28 Karupudayar Mosque, Keela Nainar Street, Odakkarai, Kayalpattinam, Tamil Nadu 628204",Odakkarai,"H49J+G28, Keela Nainar Street",Kayalpattinam,628204,Tamil Nadu,IN,https://www.google.com/maps/place/Karupudayar+Mosque/data=!4m7!3m6!1s0x3b03921ece144147:0x72b3a80ef076a55e!8m2!3d8.5687792!4d78.1300814!16s%2Fg%2F11g6nrc_d0!19sChIJR0EUzh6SAzsRXqV28A6os3I?authuser=0&hl=en&rclk=1,"8.5687792,78.1300814"
Masjid - Kadai Palli,Mosque,"H47G+79H Masjid - Kadai Palli, Customs Rd, Odakkarai, Kayalpattinam, Tamil Nadu 628204",Odakkarai,"H47G+79H, Customs Rd",Kayalpattinam,628204,Tamil Nadu,IN,https://www.google.com/maps/place/Masjid+-+Kadai+Palli/data=!4m7!3m6!1s0x3b0391f624fd301f:0x10b84adc48c0f2b8!8m2!3d8.5631875!4d78.1259841!16s%2Fg%2F11gzdvfx1!19sChIJHzD9JPaRAzsRuPLASNxKuBA?authuser=0&hl=en&rclk=1,"8.5631875,78.1259841"
Masjidur Rahman Palli,Mosque,"Masjidur Rahman Palli, Akbar Shah 3rd Street, next to L. K. Matriculation Higher Secondary School, Arrampallii, Kayalpattinam, Tamil Nadu 628204","Arrampalli, Arrampallii","Akbar Shah 3rd Street, next to L. K. Matriculation Higher Secondary School",Kayalpattinam,628204,Tamil Nadu,IN,https://www.google.com/maps/place/Masjidur+Rahman+Palli/data=!4m7!3m6!1s0x3b0392046774de01:0x9cfe5c80d33fc73b!8m2!3d8.5701763!4d78.1188601!16s%2Fg%2F11h08h25q!19sChIJAd50ZwSSAzsRO8c_04Bc_pw?authuser=0&hl=en&rclk=1,"8.5701763,78.11886009999999"
Haji Appa Palli,Mosque,"H47F+M6P Haji Appa Palli, Mohideen Street, Kayalpattinam, Tamil Nadu 628204",,"H47F+M6P, Mohideen Street",Kayalpattinam,628204,Tamil Nadu,IN,https://www.google.com/maps/place/Haji+Appa+Palli/data=!4m7!3m6!1s0x3b03921d5ae9c15b:0x78276409374bf88a!8m2!3d8.5642142!4d78.1230742!16s%2Fg%2F11bzs2fqsv!19sChIJW8HpWh2SAzsRivhLNwlkJ3g?authuser=0&hl=en&rclk=1,"8.5642142,78.12307419999999"
Masjid - Hafil Ameer Palli,Mosque,"H45F+R2H Masjid - Hafil Ameer Palli, Periya Nesavu St, Wavoo Nagar, Odakkarai, Kayalpattinam, Tamil Nadu 628204","Wavoo Nagar, Odakkarai","H45F+R2H, Periya Nesavu St",Kayalpattinam,628204,Tamil Nadu,IN,https://www.google.com/maps/place/Masjid+-+Hafil+Ameer+Palli/data=!4m7!3m6!1s0x3b0391f796bbf6d9:0x7a7e0b1af81f525b!8m2!3d8.5595664!4d78.1226052!16s%2Fg%2F11bw5_80gw!19sChIJ2fa7lveRAzsRW1If-BoLfno?authuser=0&hl=en&rclk=1,"8.5595664,78.1226052"
kttrrkrai tolllumittm,Mosque,"H46J+HM4 kttrrkrai tolllumittm, Odakkarai, Kayalpattinam, Tamil Nadu 628204",Odakkarai,H46J+HM4,Kayalpattinam,628204,Tamil Nadu,IN,https://www.google.com/maps/place/%E0%AE%95%E0%AE%9F%E0%AE%B1%E0%AF%8D%E0%AE%95%E0%AE%B0%E0%AF%88+%E0%AE%A4%E0%AF%8A%E0%AE%B4%E0%AF%81%E0%AE%AE%E0%AE%BF%E0%AE%9F%E0%AE%AE%E0%AF%8D/data=!4m7!3m6!1s0x3b039196a0d09ed7:0xf2b539112c32bcf4!8m2!3d8.5613816!4d78.1317096!16s%2Fg%2F11f8jx8bmg!19sChIJ157QoJaRAzsR9LwyLBE5tfI?authuser=0&hl=en&rclk=1,"8.561381599999999,78.1317096"
Masjid - Kadarkarai Muhyiddeen Palli,Mosque,"H49M+C59 Masjid - Kadarkarai Muhyiddeen Palli, Odakkarai, Kayalpattinam, Tamil Nadu 628204",Odakkarai,H49M+C59,Kayalpattinam,628204,Tamil Nadu,IN,https://www.google.com/maps/place/Masjid+-+Kadarkarai+Muhyiddeen+Palli/data=!4m7!3m6!1s0x3b0393d7d76fc6f5:0xe84acbb45c359486!8m2!3d8.568543!4d78.1329698!16s%2Fg%2F11gxhgm26n!19sChIJ9cZv19eTAzsRhpQ1XLTLSug?authuser=0&hl=en&rclk=1,"8.568543,78.1329698"
Thaayim Masjid taayim msjit,Mosque,"Thaayim Masjid taayim msjit, KTM Street, Odakkarai, Kayalpattinam, Tamil Nadu 628204",Odakkarai,KTM Street,Kayalpattinam,628204,Tamil Nadu,IN,https://www.google.com/maps/place/Thaayim+Masjid+%E0%AE%A4%E0%AE%BE%E0%AE%AF%E0%AE%BF%E0%AE%AE%E0%AF%8D+%E0%AE%AE%E0%AE%B8%E0%AF%8D%E0%AE%9C%E0%AE%BF%E0%AE%A4%E0%AF%8D/data=!4m7!3m6!1s0x3b0391f70cf551b5:0xd5dca545d84fdf4!8m2!3d8.5605355!4d78.1237244!16s%2Fg%2F11hbh69sw6!19sChIJtVH1DPeRAzsR9P2EXVTKXQ0?authuser=0&hl=en&rclk=1,"8.5605355,78.1237244"
Masjid - Shaik Hussain Palli,Mosque,"H47C+H5W Masjid - Shaik Hussain Palli, Thoothukudi, Kayalpattinam, Tamil Nadu 628204",,H47C+H5W,"Thoothukudi, Kayalpattinam",628204,Tamil Nadu,IN,https://www.google.com/maps/place/Masjid+-+Shaik+Hussain+Palli/data=!4m7!3m6!1s0x3b0392029bdee62b:0x6534528503ad4c6b!8m2!3d8.5639978!4d78.1204376!16s%2Fg%2F11bx1cjb9s!19sChIJK-bemwKSAzsRa0ytA4VSNGU?authuser=0&hl=en&rclk=1,"8.5639978,78.1204376"
Kayalpattinam,Mosque,"Kayalpattinam, 38, LF Rd, Kayalpattinam, Tamil Nadu 628202",,"38, LF Rd",Kayalpattinam,628202,Tamil Nadu,IN,https://www.google.com/maps/place/Kayalpattinam/data=!4m7!3m6!1s0x3b03930aec6dfbff:0x81c8787bc2749497!8m2!3d8.5663143!4d78.1108846!16s%2Fg%2F11jzf_zhyd!19sChIJ__tt7AqTAzsRl5R0wnt4yIE?authuser=0&hl=en&rclk=1,"8.5663143,78.11088459999999"
Markaz An Noor,Mosque,"H44H+99X Markaz An Noor, Mangalavadi Rd, Mangalavadi, Odakkarai, Kayalpattinam, Tamil Nadu 628204","Mangalavadi, Odakkarai","H44H+99X, Mangalavadi Rd",Kayalpattinam,628204,Tamil Nadu,IN,https://www.google.com/maps/place/Markaz+An+Noor/data=!4m7!3m6!1s0x3b0391646a6fe705:0x354fcb9b2285832!8m2!3d8.5559867!4d78.1284741!16s%2Fg%2F11pq5nf05n!19sChIJBedvamSRAzsRMlgosrn8VAM?authuser=0&hl=en&rclk=1,"8.5559867,78.12847409999999"
Dargah Paer Mahmood Majboob Oliyullah Manbaul Barakath Sangam,Mosque,"H48G+CP7 Dargah Paer Mahmood Majboob Oliyullah Manbaul Barakath Sangam, Nainar St, Kayalpattinam, Tamil Nadu 628204",,"H48G+CP7, Nainar St",Kayalpattinam,628204,Tamil Nadu,IN,https://www.google.com/maps/place/Dargah+Paer+Mahmood+Majboob+Oliyullah+Manbaul+Barakath+Sangam/data=!4m7!3m6!1s0x3b0393925d8a0645:0xf4ff0d5846237e41!8m2!3d8.5660288!4d78.1268101!16s%2Fg%2F11g4dkfgjq!19sChIJRQaKXZKTAzsRQX4jRlgN__Q?authuser=0&hl=en&rclk=1,"8.5660288,78.1268101"
Masjid - Nihmath Palli,Mosque,"Masjid - Nihmath Palli, 19/100, Seethakathi Nagar Rd, Seethakathi Nagar, Raththinapuri, Kayalpattinam, Tamil Nadu 628204","Seethakathi Nagar, Raththinapuri","19/100, Seethakathi Nagar Rd",Kayalpattinam,628204,Tamil Nadu,IN,https://www.google.com/maps/place/Masjid+-+Nihmath+Palli/data=!4m7!3m6!1s0x3b039359feb3a82f:0xfa81aa0594fe6179!8m2!3d8.5677528!4d78.1155942!16s%2Fg%2F11gzmx83v5!19sChIJL6iz_lmTAzsReWH-lAWqgfo?authuser=0&hl=en&rclk=1,"8.5677528,78.11559419999999"
Kaylapatinam beach masjid.,Mosque,"H46J+HM4 Kaylapatinam beach masjid., Odakkarai, Kayalpattinam, Tamil Nadu 628204",Odakkarai,H46J+HM4,Kayalpattinam,628204,Tamil Nadu,IN,https://www.google.com/maps/place/Kaylapatinam+beach+masjid./data=!4m7!3m6!1s0x3b03917a047b03c5:0xb3915cf3e3cb9c42!8m2!3d8.5613853!4d78.1317099!16s%2Fg%2F11glwsnlq2!19sChIJxQN7BHqRAzsRQpzL4_NckbM?authuser=0&hl=en&rclk=1,"8.5613853,78.13170989999999"
Madeena Masjid,Mosque,"H45H+CQQ Madeena Masjid, Odakkarai, Kayalpattinam, Tamil Nadu 628204",Odakkarai,H45H+CQQ,Kayalpattinam,628204,Tamil Nadu,IN,https://www.google.com/maps/place/Madeena+Masjid/data=!4m7!3m6!1s0x3b03910523253ec5:0xa8be2c0761e49a7!8m2!3d8.5585799!4d78.129478!16s%2Fg%2F11ghvddrc5!19sChIJxT4lIwWRAzsRp0kedsDiiwo?authuser=0&hl=en&rclk=1,"8.5585799,78.12947799999999"
muhsnnnaat pennkll taikkaa,Religious institution,"H48F+7PF muhsnnnaat pennkll taikkaa, Kayalpattinam, Tamil Nadu 628204",,H48F+7PF,Kayalpattinam,,Tamil Nadu,IN,https://www.google.com/maps/place/%E0%AE%AE%E0%AF%81%E0%AE%B9%E0%AF%8D%E0%AE%B8%E0%AE%A9%E0%AE%BE%E0%AE%A4%E0%AF%8D+%E0%AE%AA%E0%AF%86%E0%AE%A3%E0%AF%8D%E0%AE%95%E0%AE%B3%E0%AF%8D+%E0%AE%A4%E0%AF%88%E0%AE%95%E0%AF%8D%E0%AE%95%E0%AE%BE/data=!4m7!3m6!1s0x3b03930d3f9229bd:0xb6c9c533e8f18da0!8m2!3d8.565686!4d78.124302!16s%2Fg%2F11gvzbhltb!19sChIJvSmSPw2TAzsRoI3x6DPFybY?authuser=0&hl=en&rclk=1,"8.565686,78.124302"
msjit at tkvaa,Mosque,"H488+RPC msjit at tkvaa, Driver colony, Raththinapuri, Kayalpattinam, Tamil Nadu 628204","Driver colony, Raththinapuri",H488+RPC,Kayalpattinam,,Tamil Nadu,IN,https://www.google.com/maps/place/%E0%AE%AE%E0%AE%B8%E0%AF%8D%E0%AE%9C%E0%AE%BF%E0%AE%A4%E0%AF%8D+%E0%AE%85%E0%AE%A4%E0%AF%8D+%E0%AE%A4%E0%AE%95%E0%AF%8D%E0%AE%B5%E0%AE%BE/data=!4m7!3m6!1s0x3b03932a1b641399:0x6208bddd05b25ada!8m2!3d8.5670691!4d78.1167683!16s%2Fg%2F11k5_v7y3v!19sChIJmRNkGyqTAzsR2lqyBd29CGI?authuser=0&hl=en&rclk=1,"8.5670691,78.11676829999999"
Masjid - Kutiya Palli,Mosque,"H45F+4XF Masjid - Kutiya Palli, Aliyar St, Wavoo Nagar, Odakkarai, Kayalpattinam, Tamil Nadu 628204","Wavoo Nagar, Odakkarai","H45F+4XF, Aliyar St",Kayalpattinam,628204,Tamil Nadu,IN,https://www.google.com/maps/place/Masjid+-+Kutiya+Palli/data=!4m7!3m6!1s0x3b0391f0d6555555:0x8c23874a46cf3fc0!8m2!3d8.5578!4d78.1249066!16s%2Fg%2F11txmzf4nl!19sChIJVVVV1vCRAzsRwD_PRkqHI4w?authuser=0&hl=en&rclk=1,"8.5578,78.1249066"
Madhina Masjid,Mosque,"H45H+392 Madhina Masjid, Peena Meena appa Colony 2nd St, Mangalavadi, Odakkarai, Kayalpattinam, Tamil Nadu 628204","Mangalavadi, Odakkarai","H45H+392, Peena Meena appa Colony 2nd St",Kayalpattinam,628204,Tamil Nadu,IN,https://www.google.com/maps/place/Madhina+Masjid/data=!4m7!3m6!1s0x3b039131c8f40d99:0x148668000d112fff!8m2!3d8.5576359!4d78.128395!16s%2Fg%2F11pv28rxpx!19sChIJmQ30yDGRAzsR_y8RDQBohhQ?authuser=0&hl=en&rclk=1,"8.5576359,78.128395"
Kattu Thaikka Aroosiya Mosque,Place of worship,"H49C+7XX Kattu Thaikka Aroosiya Mosque, Kayalpattinam, Tamil Nadu 628204",,H49C+7XX,Kayalpattinam,,Tamil Nadu,IN,https://www.google.com/maps/place/Kattu+Thaikka+Aroosiya+Mosque/data=!4m7!3m6!1s0x3b0393b5e603858d:0x988f40f5daa05d3b!8m2!3d8.5682486!4d78.1224809!16s%2Fg%2F11tsnx9p7n!19sChIJjYUD5rWTAzsRO12g2vVAj5g?authuser=0&hl=en&rclk=1,"8.5682486,78.1224809"
mhaannn aptul kaatir vliyullaah trkaa ssriiHp ktvttaittaar plllli,Mosque,"mhaannn aptul kaatir vliyullaah trkaa ssriiHp ktvttaittaar plllli, Arunachalapuram, Kayalpattinam, Tamil Nadu 628204",,Arunachalapuram,Kayalpattinam,628204,Tamil Nadu,IN,https://www.google.com/maps/place/%E0%AE%AE%E0%AE%B9%E0%AE%BE%E0%AE%A9%E0%AF%8D+%E0%AE%85%E0%AE%AA%E0%AF%8D%E0%AE%A4%E0%AF%81%E0%AE%B2%E0%AF%8D+%E0%AE%95%E0%AE%BE%E0%AE%A4%E0%AE%BF%E0%AE%B0%E0%AF%8D+%E0%AE%B5%E0%AE%B2%E0%AE%BF%E0%AE%AF%E0%AF%81%E0%AE%B2%E0%AF%8D%E0%AE%B2%E0%AE%BE%E0%AE%B9%E0%AF%8D+%E0%AE%A4%E0%AE%B0%E0%AF%8D%E0%AE%95%E0%AE%BE+%E0%AE%B7%E0%AE%B0%E0%AF%80%E0%AE%83%E0%AE%AA%E0%AF%8D+%E0%AE%95%E0%AE%A4%E0%AE%B5%E0%AE%9F%E0%AF%88%E0%AE%A4%E0%AF%8D%E0%AE%A4%E0%AE%BE%E0%AE%B0%E0%AF%8D+%E0%AE%AA%E0%AE%B3%E0%AF%8D%E0%AE%B3%E0%AE%BF/data=!4m7!3m6!1s0x3b03937eac5171b7:0xdcb6928b4e587ced!8m2!3d8.578917!4d78.1283991!16s%2Fg%2F11rgdpwx35!19sChIJt3FRrH6TAzsR7XxYTouSttw?authuser=0&hl=en&rclk=1,"8.578916999999999,78.1283991"
Masjid - Furqan Palli,Mosque,"H4FG+58F Masjid - Furqan Palli, Kayalpattinam, Tamil Nadu 628204",,H4FG+58F,Kayalpattinam,,Tamil Nadu,IN,https://www.google.com/maps/place/Masjid+-+Furqan+Palli/data=!4m7!3m6!1s0x3b0393b04fe9799d:0x7cae137d9ef6ad1e!8m2!3d8.5729293!4d78.1258111!16s%2Fg%2F11syfnxg7_!19sChIJnXnpT7CTAzsRHq32nn0Trnw?authuser=0&hl=en&rclk=1,"8.5729293,78.12581109999999"
Masjid - Marickar Palli,Mosque,"H45G+RXC Masjid - Marickar Palli, Maatukulam Rd, Odakkarai, Kayalpattinam, Tamil Nadu 628204",Odakkarai,"H45G+RXC, Maatukulam Rd",Kayalpattinam,628204,Tamil Nadu,IN,https://www.google.com/maps/place/Masjid+-+Marickar+Palli/data=!4m7!3m6!1s0x3b0391f6a2555555:0x1c7335db92ac33be!8m2!3d8.5595628!4d78.1274014!16s%2Fg%2F11txmzj4x7!19sChIJVVVVovaRAzsRvjOskts1cxw?authuser=0&hl=en&rclk=1,"8.5595628,78.1274014"
Arushiyya Palli,Mosque,"H49F+72M Arushiyya Palli, Kattu Thaika St, Kayalpattinam, Tamil Nadu 628204",,"H49F+72M, Kattu Thaika St",Kayalpattinam,628204,Tamil Nadu,IN,https://www.google.com/maps/place/Arushiyya+Palli/data=!4m7!3m6!1s0x3b03921cb23aaaab:0x53b317c5459699c8!8m2!3d8.5682202!4d78.1225454!16s%2Fg%2F11txmzdk86!19sChIJq6o6shySAzsRyJmWRcUXs1M?authuser=0&hl=en&rclk=1,"8.568220199999999,78.12254539999999"
MASJID ATH THAQWA TRUST,Charity,"MASJID ATH THAQWA TRUST, Kayalpattinam, 69/13E, Seethakathi Nagar, Kayalpatnam, Tamil Nadu 628204","Seethakathi Nagar, Raththinapuri","Kayalpattinam, 69/13E","Kayalpatnam, Kayalpattinam",628204,Tamil Nadu,IN,https://www.google.com/maps/place/MASJID+ATH+THAQWA+TRUST/data=!4m7!3m6!1s0x3b039314fe5d61c7:0x7d284ff00dd0c943!8m2!3d8.5676527!4d78.1174816!16s%2Fg%2F11jz88zttw!19sChIJx2Fd_hSTAzsRQ8nQDfBPKH0?authuser=0&hl=en&rclk=1,"8.5676527,78.11748159999999"
