name,main_category,address,address_ward,address_street,address_city,address_postal_code,address_state,address_country_code,link,coordinates
Jama Masjid,Mosque,"MGGQ+F5Q Jama Masjid, Jama Masjid Rd, Mahalaxmiwada, Adilabad, Telangana 504001",Mahalaxmiwada,"MGGQ+F5Q, Jama Masjid Rd",Adilabad,504001,Telangana,IN,https://www.google.com/maps/place/Jama+Masjid/data=!4m7!3m6!1s0x3bd25c75f87e8a01:0x25a95ee1fbab37d0!8m2!3d19.6762137!4d78.5379985!16s%2Fg%2F1tlqnfwv!19sChIJAYp--HVc0jsR0Der--FeqSU?authuser=0&hl=en&rclk=1,"19.676213699999998,78.5379985"
Gulzaar Masjid,Mosque,"MGCR+66Q Gulzaar Masjid, Bokkalguda St, Brahmanwadi, Adilabad, Telangana 504001",Brahmanwadi,"MGCR+66Q, Bokkalguda St",Adilabad,504001,Telangana,IN,https://www.google.com/maps/place/Gulzaar+Masjid/data=!4m7!3m6!1s0x3bd25c7477d00337:0x3dc61fe7489f62b1!8m2!3d19.6704596!4d78.5395986!16s%2Fg%2F1tcz6sjz!19sChIJNwPQd3Rc0jsRsWKfSOcfxj0?authuser=0&hl=en&rclk=1,"19.670459599999997,78.53959859999999"
Masjid-e-Rahmania,Mosque,"MG5H+P96 Masjid-e-Rahmania, Dasnapur, Sapthagiri Colony, chaitanyapuri, Adilabad, Telangana 504001","Dasnapur, Sapthagiri Colony, chaitanyapuri",MG5H+P96,Adilabad,504001,Telangana,IN,https://www.google.com/maps/place/Masjid-e-Rahmania/data=!4m7!3m6!1s0x3bd25c643f4fdb2f:0xa503fe99bb42906e!8m2!3d19.6592958!4d78.5283772!16s%2Fg%2F1w2ysb6c!19sChIJL9tPP2Rc0jsRbpBCu5n-A6U?authuser=0&hl=en&rclk=1,"19.6592958,78.5283772"
Masjid-E-Taneem,Mosque,"MG8P+GJ2 Masjid-E-Taneem, Shanti Nagar, Adilabad, Telangana 504001",Shanti Nagar,MG8P+GJ2,Adilabad,504001,Telangana,IN,https://www.google.com/maps/place/Masjid-E-Taneem/data=!4m7!3m6!1s0x3bd25c7196951817:0xe1695f659d337d7!8m2!3d19.6662707!4d78.5365283!16s%2Fg%2F11c52zx1f3!19sChIJFxiVlnFc0jsR1zfTWfaVFg4?authuser=0&hl=en&rclk=1,"19.6662707,78.5365283"
Masjid e Noor Khursheed Nagar,Mosque,"Masjid e Noor Khursheed Nagar, khursheed Nagar, Adilabad, Telangana 504001",khursheed Nagar,,Adilabad,,Telangana,IN,https://www.google.com/maps/place/Masjid+e+Noor+Khursheed+Nagar/data=!4m7!3m6!1s0x3bd25b7f77891187:0xd64d9d2522c68201!8m2!3d19.6780656!4d78.5199255!16s%2Fg%2F1pp2x6dd1!19sChIJhxGJd39b0jsRAYLGIiWdTdY?authuser=0&hl=en&rclk=1,"19.6780656,78.5199255"
Mohammadia Masjid,Mosque,"MGFH+M8P Mohammadia Masjid, NH 44, Vidya Nagar, Adilabad, Telangana 504001",Vidya Nagar,"MGFH+M8P, NH 44",Adilabad,504001,Telangana,IN,https://www.google.com/maps/place/Mohammadia+Masjid/data=!4m7!3m6!1s0x3bd25c7892a2eb3b:0x89c3b0daf8ff360!8m2!3d19.6742243!4d78.5283275!16s%2Fg%2F1tjz1t_5!19sChIJO-uiknhc0jsRYPOPrw07nAg?authuser=0&hl=en&rclk=1,"19.6742243,78.5283275"
Masjid_E_Quba,Mosque,"Masjid_E_Quba, 2-5-216, beside Masjid E Quba Khila, Mohalla Badh, Adilabad, Telangana 504001",Mohalla Badh,"2-5-216, beside Masjid E Quba Khila",Adilabad,504001,Telangana,IN,https://www.google.com/maps/place/Masjid_E_Quba/data=!4m7!3m6!1s0x3bd25bedeaaaaaab:0xe29f9a411d92289b!8m2!3d19.6793188!4d78.5406475!16s%2Fg%2F11bwkvtnj8!19sChIJq6qq6u1b0jsRmyiSHUGan-I?authuser=0&hl=en&rclk=1,"19.6793188,78.54064749999999"
Masjid-e-Meraj,Mosque,"Masjid-e-Meraj, Police lane, Sanjay Nagar, Adilabad, Bhattisavargaon, Telangana 504001",Sanjay Nagar,Police lane,"Adilabad, Bhattisavargaon",504001,Telangana,IN,https://www.google.com/maps/place/Masjid-e-Meraj/data=!4m7!3m6!1s0x3bd25c80a40634d7:0x99b706696d47a613!8m2!3d19.6674917!4d78.5163997!16s%2Fg%2F1tr7b846!19sChIJ1zQGpIBc0jsRE6ZHbWkGt5k?authuser=0&hl=en&rclk=1,"19.6674917,78.5163997"
Masjid E Abubaker,Mosque,"MG8V+54F Masjid E Abubaker, Shanti Nagar, Adilabad, Telangana 504001",Shanti Nagar,MG8V+54F,Adilabad,504001,Telangana,IN,https://www.google.com/maps/place/Masjid+E+Abubaker/data=!4m7!3m6!1s0x3bd25c72afd994d1:0x55e84f035f33b282!8m2!3d19.6654385!4d78.542794!16s%2Fg%2F11c1wsmygw!19sChIJ0ZTZr3Jc0jsRgrIzXwNP6FU?authuser=0&hl=en&rclk=1,"19.6654385,78.542794"
Jama Masjid,Mosque,"9WF4+RQQ Jama Masjid, Jainoor, Telangana 504313",,9WF4+RQQ,Jainoor,504313,Telangana,IN,https://www.google.com/maps/place/Jama+Masjid/data=!4m7!3m6!1s0x3bd29a35900ac135:0x7391ef599ce08a2c!8m2!3d19.3745916!4d78.9069837!16s%2Fg%2F11f34m3m7b!19sChIJNcEKkDWa0jsRLIrgnFnvkXM?authuser=0&hl=en&rclk=1,"19.3745916,78.9069837"
Madina Masjid mdynh msjd,Mosque,"MGCJ+GX8 Madina Masjid mdynh msjd, Netaji Chowk Rd, Ponnar, Bhuktapur, Telangana 504001",Ponnar,"MGCJ+GX8, Netaji Chowk Rd",Bhuktapur,504001,Telangana,IN,https://www.google.com/maps/place/Madina+Masjid+%D9%85%D8%AF%DB%8C%D9%86%DB%81+%D9%85%D8%B3%D8%AC%D8%AF%E2%80%AD/data=!4m7!3m6!1s0x3bd25c7742dd0b05:0xf2fb259a889bfa78!8m2!3d19.6712846!4d78.5324561!16s%2Fg%2F11fzzxxq7l!19sChIJBQvdQndc0jsRePqbiJol-_I?authuser=0&hl=en&rclk=1,"19.6712846,78.53245609999999"
Muhammadiya Masjid,Mosque,"MG29+X76 Muhammadiya Masjid, Ramnagar Colony, Adilabad, Telangana 504001",Ramnagar Colony,MG29+X76,Adilabad,504001,Telangana,IN,https://www.google.com/maps/place/Muhammadiya+Masjid/data=!4m7!3m6!1s0x3bd25c8ad95e1f51:0xc9001b8ca6d7fd64!8m2!3d19.6524043!4d78.5181462!16s%2Fg%2F11cn7qqr7d!19sChIJUR9e2Ypc0jsRZP3XpowbAMk?authuser=0&hl=en&rclk=1,"19.6524043,78.51814619999999"
Fathima Masjid,Mosque,"MGFF+676 Fathima Masjid, Sanjay Nagar, Adilabad, Telangana 504001",Sanjay Nagar,MGFF+676,Adilabad,504001,Telangana,IN,https://www.google.com/maps/place/Fathima+Masjid/data=!4m7!3m6!1s0x3bd25c7fa619132f:0x3fc5279c8cd8c162!8m2!3d19.6730467!4d78.5231404!16s%2Fg%2F11g65c9p2q!19sChIJLxMZpn9c0jsRYsHYjJwnxT8?authuser=0&hl=en&rclk=1,"19.6730467,78.5231404"
Abubakr masjid,Mosque,"MG8R+J7F Abubakr masjid, Shanti Nagar, Adilabad, Telangana 504001",Shanti Nagar,MG8R+J7F,Adilabad,504001,Telangana,IN,https://www.google.com/maps/place/Abubakr+masjid/data=!4m7!3m6!1s0x3bd25c72f6f46bc9:0xcd16458f413f5d2e!8m2!3d19.6665675!4d78.5406681!16s%2Fg%2F11c607nzf4!19sChIJyWv09nJc0jsRLl0_QY9FFs0?authuser=0&hl=en&rclk=1,"19.6665675,78.54066809999999"
MASJID-E-Bilal,Mosque,"MGHQ+H25 MASJID-E-Bilal, Adilabad - Nagpur Rd, Panjesha, Adilabad, Telangana 504001",Panjesha,"MGHQ+H25, Adilabad - Nagpur Rd",Adilabad,504001,Telangana,IN,https://www.google.com/maps/place/MASJID-E-Bilal/data=!4m7!3m6!1s0x3bd25b89846e6659:0x31ee36077b20474f!8m2!3d19.6788851!4d78.5375982!16s%2Fg%2F11gclzc6pn!19sChIJWWZuhIlb0jsRT0cgewc27jE?authuser=0&hl=en&rclk=1,"19.6788851,78.53759819999999"
Masjid E Hassan,Mosque,"MG8V+QPM Masjid E Hassan, Unnamed Road, Shanti Nagar, Adilabad, Telangana 504001",Shanti Nagar,"MG8V+QPM, Unnamed Road",Adilabad,504001,Telangana,IN,https://www.google.com/maps/place/Masjid+E+Hassan/data=!4m7!3m6!1s0x3bd25c0d29000079:0xa0cc092090b96993!8m2!3d19.6669651!4d78.5443022!16s%2Fg%2F11dfk_8lt4!19sChIJeQAAKQ1c0jsRk2m5kCAJzKA?authuser=0&hl=en&rclk=1,"19.6669651,78.54430219999999"
JAMA MASJID,Mosque,"WR34+JP7 JAMA MASJID, Koratla - Raikal Rd, Raikal, Telangana 505460",,"WR34+JP7, Koratla - Raikal Rd",Raikal,505460,Telangana,IN,https://www.google.com/maps/place/JAMA+MASJID/data=!4m7!3m6!1s0x3bcd725a51968305:0x4ff669ad93eff2fb!8m2!3d18.904045!4d78.8067829!16s%2Fg%2F11b6s3d7th!19sChIJBYOWUVpyzTsR-_Lvk61p9k8?authuser=0&hl=en&rclk=1,"18.904045,78.8067829"
Jaame Masjid,Mosque,"22MM+M88 Jaame Masjid, Donthapur, Telangana 505425",,22MM+M88,Donthapur,505425,Telangana,IN,https://www.google.com/maps/place/Jaame+Masjid/data=!4m7!3m6!1s0x3bcd42bb0af194e7:0x637d967f2a20d1f7!8m2!3d19.0341733!4d79.0333137!16s%2Fg%2F11bx1hgl96!19sChIJ55TxCrtCzTsR99EgKn-WfWM?authuser=0&hl=en&rclk=1,"19.0341733,79.0333137"
Madeena Masjid,Mosque,"V6P3+8XJ Madeena Masjid, Unnamed Road, Lakshettipet, Utukur, Telangana 504215",,"V6P3+8XJ, Unnamed Road","Lakshettipet, Utukur",504215,Telangana,IN,https://www.google.com/maps/place/Madeena+Masjid/data=!4m7!3m6!1s0x3bcd4808b8069611:0xa08757891f8dc24f!8m2!3d18.8858394!4d79.2049032!16s%2Fg%2F11h9rd_j48!19sChIJEZYGuAhIzTsRT8KNH4lXh6A?authuser=0&hl=en&rclk=1,"18.8858394,79.20490319999999"
Jama Masjid,Mosque,"4XCX+W6R Jama Masjid, Jannaram, Telangana 504205",,4XCX+W6R,Jannaram,504205,Telangana,IN,https://www.google.com/maps/place/Jama+Masjid/data=!4m7!3m6!1s0x3bcd67409343a49f:0xacb4e0cdbc72e535!8m2!3d19.1223711!4d78.9980289!16s%2Fg%2F11bwkyz4lp!19sChIJn6RDk0BnzTsRNeVyvM3gtKw?authuser=0&hl=en&rclk=1,"19.1223711,78.9980289"
Masjid,Mosque,"HFPR+4Q8 Masjid, Adilabad, Telangana 504308",,HFPR+4Q8,Adilabad,504308,Telangana,IN,https://www.google.com/maps/place/Masjid/data=!4m7!3m6!1s0x3bd25d5bfe1eb429:0x753a217332ff9baa!8m2!3d19.5852914!4d78.4919588!16s%2Fg%2F11dxq2d28t!19sChIJKbQe_ltd0jsRqpv_MnMhOnU?authuser=0&hl=en&rclk=1,"19.5852914,78.49195879999999"
MASJID E MAHEBOOB E SUBHANI ( Markaz e Ahle Sunnat ),Mosque,"MASJID E MAHEBOOB E SUBHANI ( Markaz e Ahle Sunnat ), Sanjay Nagar, Adilabad, Telangana 504001",Sanjay Nagar,,Adilabad,504001,Telangana,IN,https://www.google.com/maps/place/MASJID+E+MAHEBOOB+E+SUBHANI+%28+Markaz+e+Ahle+Sunnat+%29/data=!4m7!3m6!1s0x3bd25c7cd0000001:0xe56e990e56fe962c!8m2!3d19.6669356!4d78.5213162!16s%2Fg%2F11c2kk77hk!19sChIJAQAA0Hxc0jsRLJb-Vg6ZbuU?authuser=0&hl=en&rclk=1,"19.6669356,78.5213162"
ILAHIYA MASJID,Mosque,"MGMH+97P ILAHIYA MASJID, Indira Nagar Rd, Bhagya Nagar, Adilabad, Telangana 504001",Bhagya Nagar,"MGMH+97P, Indira Nagar Rd",Adilabad,504001,Telangana,IN,https://www.google.com/maps/place/ILAHIYA+MASJID/data=!4m7!3m6!1s0x3bd25b8444ebd13f:0xe27cf6a1114241d4!8m2!3d19.6834654!4d78.5282048!16s%2Fg%2F11fzfhsmc2!19sChIJP9HrRIRb0jsR1EFCEaH2fOI?authuser=0&hl=en&rclk=1,"19.6834654,78.5282048"
Masjid Badar,Mosque,"MG8C+44M Masjid Badar, Rickshaw Colony, Adilabad, Telangana 504001",Rickshaw Colony,MG8C+44M,Adilabad,504001,Telangana,IN,https://www.google.com/maps/place/Masjid+Badar/data=!4m7!3m6!1s0x3bd25c878e7870c1:0x8e24c92e23dce198!8m2!3d19.6653455!4d78.5202985!16s%2Fg%2F11bbrlytdq!19sChIJwXB4jodc0jsRmOHcIy7JJI4?authuser=0&hl=en&rclk=1,"19.6653455,78.5202985"
Masjid E Aqsa,Mosque,"V6M3+CQ7 Masjid E Aqsa, Godavari Rd, Luxettipet, Utukur, Telangana 504215",,"V6M3+CQ7, Godavari Rd","Luxettipet, Utukur",504215,Telangana,IN,https://www.google.com/maps/place/Masjid+E+Aqsa/data=!4m7!3m6!1s0x3bcd4806170503ff:0x41898622cf17800e!8m2!3d18.8835328!4d79.204429!16s%2Fg%2F11dx9f8k5s!19sChIJ_wMFFwZIzTsRDoAXzyKGiUE?authuser=0&hl=en&rclk=1,"18.883532799999998,79.20442899999999"
Masjid e Bilala,Mosque,"Masjid e Bilala, Adilabad-Asifabad Rd, Jainoor, Telangana 504313",,Adilabad-Asifabad Rd,Jainoor,504313,Telangana,IN,https://www.google.com/maps/place/Masjid+e+Bilala/data=!4m7!3m6!1s0x3bd29bb7204a9e0f:0x706dab2553f72b79!8m2!3d19.3750134!4d78.9120455!16s%2Fg%2F11f6qq3rwz!19sChIJD55KILeb0jsReSv3UyWrbXA?authuser=0&hl=en&rclk=1,"19.3750134,78.91204549999999"
Masjid E-munawar,Mosque,"MGHG+WFR Masjid E-munawar, Indira Nagar, Bhagya Nagar, Adilabad, Telangana 504001","Indira Nagar, Bhagya Nagar",MGHG+WFR,Adilabad,504001,Telangana,IN,https://www.google.com/maps/place/Masjid+E-munawar/data=!4m7!3m6!1s0x3bd25b814a89a5d1:0x13757a533e5d9127!8m2!3d19.6798716!4d78.5261472!16s%2Fg%2F11g5_f9f2n!19sChIJ0aWJSoFb0jsRJ5FdPlN6dRM?authuser=0&hl=en&rclk=1,"19.6798716,78.5261472"
Masjid-e-hanfia,Mosque,"MGPM+2C4 Masjid-e-hanfia, Kranti Nagar, Gandhi Nagar, Adilabad, Telangana 504001","Kranti Nagar, Gandhi Nagar",MGPM+2C4,Adilabad,504001,Telangana,IN,https://www.google.com/maps/place/Masjid-e-hanfia/data=!4m7!3m6!1s0x3bd25b8fa218f2e1:0x18f2829bdf51eaf4!8m2!3d19.6850231!4d78.5335857!16s%2Fg%2F11dd_qtmkm!19sChIJ4fIYoo9b0jsR9OpR35uC8hg?authuser=0&hl=en&rclk=1,"19.6850231,78.5335857"
Mosque,Mosque,"X52G+R6F Mosque, Mutyampet, Telangana 504206",,X52G+R6F,Mutyampet,504206,Telangana,IN,https://www.google.com/maps/place/Mosque/data=!4m7!3m6!1s0x3bcd466d6eedd661:0x2921ef9d1613e136!8m2!3d18.9520508!4d79.1755405!16s%2Fg%2F11ddxvk81c!19sChIJYdbtbm1GzTsRNuETFp3vISk?authuser=0&hl=en&rclk=1,"18.9520508,79.1755405"
Masjid,Mosque,"Masjid, Masjid Area, Allipur, Telangana 505460",Masjid Area,,Allipur,505460,Telangana,IN,https://www.google.com/maps/place/Masjid/data=!4m7!3m6!1s0x3bcd6d2e36a3f90b:0x2b14f3eb5563439d!8m2!3d18.861378!4d78.8733175!16s%2Fg%2F1pp2tx0rj!19sChIJC_mjNi5tzTsRnUNjVevzFCs?authuser=0&hl=en&rclk=1,"18.861378,78.8733175"
EidGah Donthapur,Mosque,"22HH+393 EidGah Donthapur, Telangana 505454",,22HH+393,,505454,Telangana,IN,https://www.google.com/maps/place/EidGah+Donthapur/data=!4m7!3m6!1s0x3bcd42a2d1c7d42b:0xca626dc30ee13ca9!8m2!3d19.027628!4d79.0284177!16s%2Fg%2F11g9vmb82t!19sChIJK9TH0aJCzTsRqTzhDsNtYso?authuser=0&hl=en&rclk=1,"19.027628,79.02841769999999"
Masjid-E- Rahimaniya,Mosque,"MGRR+5G5 Masjid-E- Rahimaniya, Tirupally, Adilabad, Telangana 504001",Tirupally,MGRR+5G5,Adilabad,504001,Telangana,IN,https://www.google.com/maps/place/Masjid-E-+Rahimaniya/data=!4m7!3m6!1s0x3bd25ba3e27d5519:0x3ff2f3403e845bff!8m2!3d19.6903884!4d78.5413572!16s%2Fg%2F11gmblynz2!19sChIJGVV94qNb0jsR_1uEPkDz8j8?authuser=0&hl=en&rclk=1,"19.6903884,78.5413572"
Masjid-E-Mohammadiya,Mosque,"Masjid-E-Mohammadiya, 1, Nirmal - Mancherial Rd, Jannaram, Telangana 504205",,"1, Nirmal - Mancherial Rd",Jannaram,504205,Telangana,IN,https://www.google.com/maps/place/Masjid-E-Mohammadiya/data=!4m7!3m6!1s0x3bcd673fccaa4f81:0xf85ddfa7fa77cdbb!8m2!3d19.1192404!4d78.9938765!16s%2Fg%2F11byvwzk4r!19sChIJgU-qzD9nzTsRu813-qffXfg?authuser=0&hl=en&rclk=1,"19.1192404,78.9938765"
Jama Masjid,Mosque,"Jama Masjid, Bus Station, Old, Utnur, Telangana 504311",Sevadas Nagar,"Bus Station, Old",Utnur,504311,Telangana,IN,https://www.google.com/maps/place/Jama+Masjid/data=!4m7!3m6!1s0x3bd285b42543f7db:0xfbc9083caa3eda41!8m2!3d19.3679744!4d78.7738921!16s%2Fg%2F11c2p12cr7!19sChIJ2_dDJbSF0jsRQdo-qjwIyfs?authuser=0&hl=en&rclk=1,"19.367974399999998,78.7738921"
Masjid E Namrah,Mosque,"MGGM+7CV Masjid E Namrah, Ambedkar Chowk, Bhuktapur, Telangana 504001",,"MGGM+7CV, Ambedkar Chowk",Bhuktapur,,Telangana,IN,https://www.google.com/maps/place/Masjid+E+Namrah/data=!4m7!3m6!1s0x3bd25b8829cd21e7:0xb871a2b68c3b292c!8m2!3d19.6757458!4d78.5335363!16s%2Fg%2F11b6v0h3n3!19sChIJ5yHNKYhb0jsRLCk7jLaicbg?authuser=0&hl=en&rclk=1,"19.675745799999998,78.5335363"
jama masjid,Mosque,"3P2J+4RC jama masjid, Yelagadapa, Telangana 504202",,3P2J+4RC,Yelagadapa,504202,Telangana,IN,https://www.google.com/maps/place/jama+masjid/data=!4m7!3m6!1s0x3bcd79ec3d5fa82f:0x5849790fa812b908!8m2!3d19.0503033!4d78.7320086!16s%2Fg%2F11g6_c9vpr!19sChIJL6hfPex5zTsRCLkSqA95SVg?authuser=0&hl=en&rclk=1,"19.0503033,78.7320086"
Masjid-E-Noor,Mosque,"9Q8G+JJX Masjid-E-Noor, Mominpura, Sevadas Nagar, Utnur, Telangana 504311","Mominpura, Sevadas Nagar",9Q8G+JJX,Utnur,,Telangana,IN,https://www.google.com/maps/place/Masjid-E-Noor/data=!4m7!3m6!1s0x3bd285b3f2afb185:0x2ec78038b9f918ae!8m2!3d19.3675545!4d78.7769558!16s%2Fg%2F1pp2tk8bd!19sChIJhbGv8rOF0jsRrhj5uTiAxy4?authuser=0&hl=en&rclk=1,"19.3675545,78.7769558"
Masjid Al Imaan ( Kallur ),Mosque,"VP7P+CVX Masjid Al Imaan ( Kallur ), Karimnagar, Telangana 505330",,VP7P+CVX,Karimnagar,505330,Telangana,IN,https://www.google.com/maps/place/Masjid+Al+Imaan+%28+Kallur+%29/data=!4m7!3m6!1s0x3bcd74a346e366e9:0x6eb0042ce8842f5b!8m2!3d18.8636111!4d78.7372209!16s%2Fg%2F11fxb44_cc!19sChIJ6WbjRqN0zTsRWy-E6CwEsG4?authuser=0&hl=en&rclk=1,"18.8636111,78.7372209"
Umar Masjid,Mosque,"MG2H+9J7 Umar Masjid, Pittalwada, Khoja Colony, Adilabad, Telangana 504001","Pittalwada, Khoja Colony",MG2H+9J7,Adilabad,504001,Telangana,IN,https://www.google.com/maps/place/Umar+Masjid/data=!4m7!3m6!1s0x3bd25c5d9e45a7ff:0xd9937a4c4bfe8c53!8m2!3d19.6509166!4d78.5290486!16s%2Fg%2F11fx95lqmp!19sChIJ_6dFnl1c0jsRU4z-S0x6k9k?authuser=0&hl=en&rclk=1,"19.6509166,78.5290486"
MADINA MASJID,Mosque,"WR54+PPR MADINA MASJID, Koratla - Raikal Rd, Raikal, Telangana 505460",,"WR54+PPR, Koratla - Raikal Rd",Raikal,505460,Telangana,IN,https://www.google.com/maps/place/MADINA+MASJID/data=!4m7!3m6!1s0x3bcd724519552b49:0x197d4f7574cfd45a!8m2!3d18.9093503!4d78.8067678!16s%2Fg%2F11b6sn2_xq!19sChIJSStVGUVyzTsRWtTPdHVPfRk?authuser=0&hl=en&rclk=1,"18.9093503,78.8067678"
Masjid E IBrahimiya,Mosque,"Masjid E IBrahimiya, Shanti Nagar, Adilabad, Telangana 504001",Shanti Nagar,,Adilabad,504001,Telangana,IN,https://www.google.com/maps/place/Masjid+E+IBrahimiya/data=!4m7!3m6!1s0x3bd25d44b0027dc7:0x5b9c582e308fceb0!8m2!3d19.6688451!4d78.5432386!16s%2Fg%2F11flbsbk92!19sChIJx30CsERd0jsRsM6PMC5YnFs?authuser=0&hl=en&rclk=1,"19.6688451,78.5432386"
Katkapur Mosque (kttkaapuur msiidu),Mosque,"XVVG+5RF Katkapur Mosque (kttkaapuur msiidu), near pond ( ceruvu dggr, Katkapur, Telangana 505460",,"XVVG+5RF, near pond ( ceruvu dggr",Katkapur,505460,Telangana,IN,https://www.google.com/maps/place/Katkapur+Mosque+%28%E0%B0%95%E0%B0%9F%E0%B1%8D%E0%B0%95%E0%B0%BE%E0%B0%AA%E0%B1%82%E0%B0%B0%E0%B1%8D+%E0%B0%AE%E0%B0%B8%E0%B1%80%E0%B0%A6%E0%B1%81%29/data=!4m7!3m6!1s0x3bcd6fb4c94e53ab:0xa93ccc3c7b6ec293!8m2!3d18.9894705!4d78.8750372!16s%2Fg%2F11fhr7tfd0!19sChIJq1NOybRvzTsRk8JuezzMPKk?authuser=0&hl=en&rclk=1,"18.9894705,78.8750372"
MASJID - E - WASIL,Mosque,"9Q7C+W9C MASJID - E - WASIL, Utnur, Telangana 504311",,9Q7C+W9C,Utnur,504311,Telangana,IN,https://www.google.com/maps/place/MASJID+-+E+-+WASIL/data=!4m7!3m6!1s0x3bd285b568212b3b:0xd48a9da29da1160e!8m2!3d19.3648093!4d78.7708923!16s%2Fg%2F11g6q_z_ty!19sChIJOyshaLWF0jsRDhahnaKditQ?authuser=0&hl=en&rclk=1,"19.364809299999997,78.7708923"
Masjid e Noorani,Mosque,"MGMQ+P66 Masjid e Noorani, Mahalaxmiwada, Adilabad, Telangana 504001",Mahalaxmiwada,MGMQ+P66,Adilabad,504001,Telangana,IN,https://www.google.com/maps/place/Masjid+e+Noorani/data=!4m7!3m6!1s0x3bd25b71656d7da1:0x9db65c4943296ea6!8m2!3d19.6842802!4d78.5380187!16s%2Fg%2F11gphd3bdg!19sChIJoX1tZXFb0jsRpm4pQ0lctp0?authuser=0&hl=en&rclk=1,"19.6842802,78.5380187"
Masjid,Mosque,"WP3W+C42 Masjid, Sataram, Telangana 505331",,WP3W+C42,Sataram,505331,Telangana,IN,https://www.google.com/maps/place/Masjid/data=!4m7!3m6!1s0x3bcd750bef8fa8f5:0xd921bbcf20a822e2!8m2!3d18.9035073!4d78.7452518!16s%2Fg%2F11fn8q0x5f!19sChIJ9aiP7wt1zTsR4iKoIM-7Idk?authuser=0&hl=en&rclk=1,"18.903507299999998,78.74525179999999"
Veerapur Mosque ( Masjid ),Mosque,"Veerapur Mosque ( Masjid ), Veerapur, Telangana 505460",,,Veerapur,,Telangana,IN,https://www.google.com/maps/place/Veerapur+Mosque+%28+Masjid+%29/data=!4m7!3m6!1s0x3bcd6d9200071201:0x301f751968b31cdf!8m2!3d18.9160391!4d78.8495851!16s%2Fg%2F1pp2twn2b!19sChIJARIHAJJtzTsR3xyzaBl1HzA?authuser=0&hl=en&rclk=1,"18.9160391,78.8495851"
Masjid-e-Mahmoodunnisa,Mosque,"3435+9WM Masjid-e-Mahmoodunnisa, Thallapet, Tallapet, Telangana 504206",,3435+9WM,"Thallapet, Tallapet",504206,Telangana,IN,https://www.google.com/maps/place/Masjid-e-Mahmoodunnisa/data=!4m7!3m6!1s0x3bcd453f06c5e385:0x8bfd0695f73e7367!8m2!3d19.0534615!4d79.1098047!16s%2Fg%2F11ghs2kky5!19sChIJhePFBj9FzTsRZ3M-95UG_Ys?authuser=0&hl=en&rclk=1,"19.053461499999997,79.1098047"
MASJID E MOHAMMADIA Lachakkapet,Mosque,"VW86+GPF MASJID E MOHAMMADIA Lachakkapet, Lachakkapet, Telangana 505529",,VW86+GPF,Lachakkapet,505529,Telangana,IN,https://www.google.com/maps/place/MASJID+E+MOHAMMADIA+Lachakkapet/data=!4m7!3m6!1s0x3bcd6d3f383d71ab:0x4c34ef7d93c9c2db!8m2!3d18.866323!4d78.9118033!16s%2Fg%2F11stj50ww5!19sChIJq3E9OD9tzTsR28LJk33vNEw?authuser=0&hl=en&rclk=1,"18.866322999999998,78.9118033"
Masjid E Ayesha,Mosque,"V6H2+8JM Masjid E Ayesha, Luxettipet, Telangana 504215",,V6H2+8JM,Luxettipet,504215,Telangana,IN,https://www.google.com/maps/place/Masjid+E+Ayesha/data=!4m7!3m6!1s0x3bcd49d98161d923:0x59d66f4dcf609572!8m2!3d18.8783282!4d79.2015539!16s%2Fg%2F11q24cd0db!19sChIJI9lhgdlJzTsRcpVgz01v1lk?authuser=0&hl=en&rclk=1,"18.8783282,79.2015539"
Masjid Mohammadia,Mosque,"9QCG+VR7 Masjid Mohammadia, Utnoor Rd, Utnur, Telangana 504311",,"9QCG+VR7, Utnoor Rd",Utnur,504311,Telangana,IN,https://www.google.com/maps/place/Masjid+Mohammadia/data=!4m7!3m6!1s0x3bd285b0dc0d26a7:0xf6fa3333ae2948b7!8m2!3d19.3721507!4d78.7770528!16s%2Fg%2F11c2p105cs!19sChIJpyYN3LCF0jsRt0gprjMz-vY?authuser=0&hl=en&rclk=1,"19.3721507,78.77705279999999"
Masjid E Safia Sulaiman,Mosque,"X32W+V9F Masjid E Safia Sulaiman, Unnamed Road, Mamidiwada, Rotte Venkamma Illu, Dharmapuri, Telangana 505425","Mamidiwada, Rotte Venkamma Illu","X32W+V9F, Unnamed Road",Dharmapuri,505425,Telangana,IN,https://www.google.com/maps/place/Masjid+E+Safia+Sulaiman/data=!4m7!3m6!1s0x3bcd419c1140ecef:0x5738f10bd92bf8d1!8m2!3d18.9521875!4d79.0959375!16s%2Fg%2F11rcrh6mgm!19sChIJ7-xAEZxBzTsR0fgr2QvxOFc?authuser=0&hl=en&rclk=1,"18.9521875,79.09593749999999"
Masjid-e- Amina,Mosque,"MGFR+G3G Masjid-e- Amina, Brahmanwadi, Adilabad, Telangana 504001",Brahmanwadi,MGFR+G3G,Adilabad,504001,Telangana,IN,https://www.google.com/maps/place/Masjid-e-+Amina/data=!4m7!3m6!1s0x3bd25ddc88f570b9:0x22cb1f0c107c4bc6!8m2!3d19.6738162!4d78.5401916!16s%2Fg%2F11k7xv923r!19sChIJuXD1iNxd0jsRxkt8EAwfyyI?authuser=0&hl=en&rclk=1,"19.673816199999997,78.5401916"
Masjide Wahida Unisa,Mosque,"V3V4+QGR Masjide Wahida Unisa, Velgonda, Telangana 505454",,V3V4+QGR,Velgonda,505454,Telangana,IN,https://www.google.com/maps/place/Masjide+Wahida+Unisa/data=!4m7!3m6!1s0x3bcd405b9ee52317:0x8fb1c9f68cb284a!8m2!3d18.8944821!4d79.0562564!16s%2Fg%2F11f15dx9xq!19sChIJFyPlnltAzTsRSijLaJ8c-wg?authuser=0&hl=en&rclk=1,"18.894482099999998,79.0562564"
Masjid e Raza,Mosque,"MG9V+JPV Masjid e Raza, Shanti Nagar, Adilabad, Telangana 504001",Shanti Nagar,MG9V+JPV,Adilabad,504001,Telangana,IN,https://www.google.com/maps/place/Masjid+e+Raza/data=!4m7!3m6!1s0x3bd25d7fcd7b7ccd:0xe8779b7a8f75f499!8m2!3d19.6691213!4d78.5442846!16s%2Fg%2F11kh3x29df!19sChIJzXx7zX9d0jsRmfR1j3qbd-g?authuser=0&hl=en&rclk=1,"19.6691213,78.5442846"
Masjid-e-Abdullah,Mosque,"3XR2+J23 Masjid-e-Abdullah, Jannaram - Kalamadugu Rd, Kalmadagu, Telangana 504205",,"3XR2+J23, Jannaram - Kalamadugu Rd",Kalmadagu,504205,Telangana,IN,https://www.google.com/maps/place/Masjid-e-Abdullah/data=!4m7!3m6!1s0x3bcd6660227f8177:0xe67839b827ba0ea4!8m2!3d19.0915155!4d78.9500358!16s%2Fg%2F11hbc1vfry!19sChIJd4F_ImBmzTsRpA66J7g5eOY?authuser=0&hl=en&rclk=1,"19.0915155,78.9500358"
Masjid-e-Nabawi,Mosque,"3M39+9HV Masjid-e-Nabawi, Dilawarpur Rd, Dilawarpur, Dilwarpur, Telangana 504203",,"3M39+9HV, Dilawarpur Rd","Dilawarpur, Dilwarpur",504203,Telangana,IN,https://www.google.com/maps/place/Masjid-e-Nabawi/data=!4m7!3m6!1s0x3bcd79c0659a9051:0xf6f7fe363db8997d!8m2!3d19.0534835!4d78.6689104!16s%2Fg%2F11jhygrlt6!19sChIJUZCaZcB5zTsRfZm4PTb-9_Y?authuser=0&hl=en&rclk=1,"19.0534835,78.6689104"
mosque,Mosque,"WQP8+PM6 mosque, Regunta, Telangana 505331",,WQP8+PM6,Regunta,,Telangana,IN,https://www.google.com/maps/place/mosque/data=!4m7!3m6!1s0x3bcd73e110000001:0xd250bf53bfc9418c!8m2!3d18.9367927!4d78.7666317!16s%2Fg%2F11gfm8l9dz!19sChIJAQAAEOFzzTsRjEHJv1O_UNI?authuser=0&hl=en&rclk=1,"18.936792699999998,78.76663169999999"
Masjid E Imam E Azam,Mosque,"2X2W+9H6 Masjid E Imam E Azam, Narsimlapalli, Telangana 505454",,2X2W+9H6,Narsimlapalli,505454,Telangana,IN,https://www.google.com/maps/place/Masjid+E+Imam+E+Azam/data=!4m7!3m6!1s0x3bcd6995d28d15b7:0xa8b1ff9dca1baa19!8m2!3d19.0009086!4d78.9963954!16s%2Fg%2F11j8hxt2lz!19sChIJtxWN0pVpzTsRGaobyp3_sag?authuser=0&hl=en&rclk=1,"19.0009086,78.9963954"
Masjid,Mosque,"V6MR+V66 Masjid, Ankathipally, Telangana 504215",,V6MR+V66,Ankathipally,504215,Telangana,IN,https://www.google.com/maps/place/Masjid/data=!4m7!3m6!1s0x3bcd49bdc216284d:0x350592a99ce08e14!8m2!3d18.8846738!4d79.2405227!16s%2Fg%2F11h2hhxpqs!19sChIJTSgWwr1JzTsRFI7gnKmSBTU?authuser=0&hl=en&rclk=1,"18.884673799999998,79.2405227"
MASJID-E-AQSA,Mosque,"9QCM+6FG MASJID-E-AQSA, Utnur, Telangana 504311",,9QCM+6FG,Utnur,504311,Telangana,IN,https://www.google.com/maps/place/MASJID-E-AQSA/data=!4m7!3m6!1s0x3bd285ae68120e2d:0x511a2112271c67ab!8m2!3d19.3705709!4d78.7836997!16s%2Fg%2F11d_8_t86t!19sChIJLQ4SaK6F0jsRq2ccJxIhGlE?authuser=0&hl=en&rclk=1,"19.3705709,78.7836997"
MASJID E IBRAHIMIA,Mosque,"MASJID E IBRAHIMIA, 2-5-275/1, tirpally, Adilabad, Telangana 504001",tirpally,2-5-275/1,Adilabad,504001,Telangana,IN,https://www.google.com/maps/place/MASJID+E+IBRAHIMIA/data=!4m7!3m6!1s0x3bd25b8b6628a527:0x550e60c0cd80575a!8m2!3d19.6814941!4d78.5416637!16s%2Fg%2F11f15jwjc0!19sChIJJ6UoZotb0jsRWleAzcBgDlU?authuser=0&hl=en&rclk=1,"19.6814941,78.5416637"
Peerila Masjid,Mosque,"W3XW+8M8 Peerila Masjid, Dharmapuri, Telangana 505425",,W3XW+8M8,Dharmapuri,505425,Telangana,IN,https://www.google.com/maps/place/Peerila+Masjid/data=!4m7!3m6!1s0x3bcd41453495526d:0xd1b992ce8abbbd59!8m2!3d18.9482959!4d79.0967184!16s%2Fg%2F124t1g8cl!19sChIJbVKVNEVBzTsRWb27is6SudE?authuser=0&hl=en&rclk=1,"18.948295899999998,79.0967184"
Choti Masjid,Mosque,"Choti Masjid, 1, Nirmal - Mancherial Rd, Jannaram, Telangana 504205",,"1, Nirmal - Mancherial Rd",Jannaram,504205,Telangana,IN,https://www.google.com/maps/place/Choti+Masjid/data=!4m7!3m6!1s0x3bcd673e34ac2f77:0xc32f71faf30d7a5f!8m2!3d19.1184965!4d78.9931769!16s%2Fg%2F11bw5mbvt0!19sChIJdy-sND5nzTsRX3oN8_pxL8M?authuser=0&hl=en&rclk=1,"19.1184965,78.9931769"
Mosque,Mosque,"Mosque, Kadam Project, Kannapur, Telangana 504202",,,"Kadam Project, Kannapur",,Telangana,IN,https://www.google.com/maps/place/Mosque/data=!4m7!3m6!1s0x3bcd7bbcda484eed:0xe286da12f76e31fe!8m2!3d19.1018044!4d78.7807716!16s%2Fg%2F1hm2txbq6!19sChIJ7U5I2rx7zTsR_jFu9xLahuI?authuser=0&hl=en&rclk=1,"19.1018044,78.7807716"
"Mosque , arepalle",Mosque,"327F+R6Q Mosque , arepalle, Arepally Rd, Donthapur, Arpapalle, Telangana 505425",,"327F+R6Q, Arepally Rd","Donthapur, Arpapalle",505425,Telangana,IN,"https://www.google.com/maps/place/Mosque+,+arepalle/data=!4m7!3m6!1s0x3bcd5d8dd8a2592b:0x800db10c518ef6fa!8m2!3d19.0645903!4d79.0231206!16s%2Fg%2F11qg18z79k!19sChIJK1mi2I1dzTsR-vaOUQyxDYA?authuser=0&hl=en&rclk=1","19.0645903,79.0231206"
Masjid e umar,Mosque,"9W95+WC9 Masjid e umar, Jainoor, Telangana 504313",,9W95+WC9,Jainoor,504313,Telangana,IN,https://www.google.com/maps/place/Masjid+e+umar/data=!4m7!3m6!1s0x3bd29b093593e477:0xe65cd53a2848ead0!8m2!3d19.3700184!4d78.9089038!16s%2Fg%2F11t27x9_rj!19sChIJd-STNQmb0jsR0OpIKDrVXOY?authuser=0&hl=en&rclk=1,"19.3700184,78.90890379999999"
MASJID E MAGHFIRATH,Mosque,"2P84+648 MASJID E MAGHFIRATH, Ramrajupalli, Telangana 505331",,2P84+648,Ramrajupalli,,Telangana,IN,https://www.google.com/maps/place/MASJID+E+MAGHFIRATH/data=!4m7!3m6!1s0x3bcd7756ae1fb565:0xb332c29d5e6576f1!8m2!3d19.0155403!4d78.7053323!16s%2Fg%2F11ht6qybct!19sChIJZbUfrlZ3zTsR8XZlXp3CMrM?authuser=0&hl=en&rclk=1,"19.015540299999998,78.7053323"
Masjid E Abu Bakar,Mosque,"2JXP+GVV Masjid E Abu Bakar, Nirmal - Mancherial Rd, Khanapur, Thimmapur, Telangana 504203",,"2JXP+GVV, Nirmal - Mancherial Rd","Khanapur, Thimmapur",504203,Telangana,IN,https://www.google.com/maps/place/Masjid+E+Abu+Bakar/data=!4m7!3m6!1s0x3bcd838be7675037:0x1ecef2637bebf20c!8m2!3d19.0488678!4d78.6371746!16s%2Fg%2F11kyxhjk80!19sChIJN1Bn54uDzTsRDPLre2Pyzh4?authuser=0&hl=en&rclk=1,"19.0488678,78.6371746"
mohammadiya masjid,Mosque,"2PXJ+CQ7 mohammadiya masjid, Yelagadapa, Telangana 504202",,2PXJ+CQ7,Yelagadapa,504202,Telangana,IN,https://www.google.com/maps/place/mohammadiya+masjid/data=!4m7!3m6!1s0x3bcd79eebda4377b:0xada75b3c1058bd41!8m2!3d19.0485421!4d78.7319151!16s%2Fg%2F11dxrwxb2j!19sChIJezekve55zTsRQb1YEDxbp60?authuser=0&hl=en&rclk=1,"19.0485421,78.7319151"
Masjid e Afsana,Mosque,"JGRP+7WM Masjid e Afsana, KRK Rd, KRK Colony, Khoja Colony, Adilabad, Telangana 504001","KRK Colony, Khoja Colony","JGRP+7WM, KRK Rd",Adilabad,504001,Telangana,IN,https://www.google.com/maps/place/Masjid+e+Afsana/data=!4m7!3m6!1s0x3bd25d5d2e428473:0xd94d955bdaa63bd4!8m2!3d19.6407052!4d78.5372911!16s%2Fg%2F11t4wlk9cp!19sChIJc4RCLl1d0jsR1Dum2luVTdk?authuser=0&hl=en&rclk=1,"19.6407052,78.53729109999999"
Masjid E Hamza Ramnagar Adilabad,Mosque,"MG4C+F8M Masjid E Hamza Ramnagar Adilabad, Ramnagar Colony, Adilabad, Telangana 504001",Ramnagar Colony,MG4C+F8M,Adilabad,504001,Telangana,IN,https://www.google.com/maps/place/Masjid+E+Hamza+Ramnagar+Adilabad/data=!4m7!3m6!1s0x3bd25d6d632224ef:0xc12bfcc836f7600c!8m2!3d19.6562608!4d78.5213636!16s%2Fg%2F11r_w2kkk1!19sChIJ7yQiY21d0jsRDGD3Nsj8K8E?authuser=0&hl=en&rclk=1,"19.6562608,78.5213636"
Noori Masjid,Mosque,"3F8M+CFJ Noori Masjid, Bellampalle, Kannal Rural, Telangana 504251",,3F8M+CFJ,"Bellampalle, Kannal Rural",504251,Telangana,IN,https://www.google.com/maps/place/Noori+Masjid/data=!4m7!3m6!1s0x3a32b184aa02b33f:0x94aeef8bbc03886b!8m2!3d19.0660901!4d79.4836267!16s%2Fg%2F11tmz9bq51!19sChIJP7MCqoSxMjoRa4gDvIvvrpQ?authuser=0&hl=en&rclk=1,"19.0660901,79.4836267"
Masjid E Fatima Yousuf,Mosque,"3WG8+XMP Masjid E Fatima Yousuf, Revojipet New, Revojipet (Old), Telangana 504202",,3WG8+XMP,"Revojipet New, Revojipet (Old)",504202,Telangana,IN,https://www.google.com/maps/place/Masjid+E+Fatima+Yousuf/data=!4m7!3m6!1s0x3bcd6551fa8de007:0x1f6da9a6fdded8d8!8m2!3d19.0776595!4d78.9174451!16s%2Fg%2F11rmz_sv6c!19sChIJB-CN-lFlzTsR2Nje_aapbR8?authuser=0&hl=en&rclk=1,"19.0776595,78.9174451"
Pangdi masjid,Mosque,"9263+5W Pangdi masjid, Seetagondi, Telangana 504313",,9263+5W,Seetagondi,,Telangana,IN,https://www.google.com/maps/place/Pangdi+masjid/data=!4m7!3m6!1s0x3bd299407103a9bf:0xc33d1edde125fb60!8m2!3d19.3603172!4d79.0060313!16s%2Fg%2F11s57ytdlj!19sChIJv6kDcUCZ0jsRYPsl4d0ePcM?authuser=0&hl=en&rclk=1,"19.3603172,79.00603129999999"
masjid,Mosque,"masjid, Maddipadaga, Telangana 504202",,,Maddipadaga,504202,Telangana,IN,https://www.google.com/maps/place/masjid/data=!4m7!3m6!1s0x3bcd7a21c7cc2cbb:0xe9e11285f8ad7748!8m2!3d19.0577667!4d78.7512222!16s%2Fg%2F11fxxk97n4!19sChIJuyzMxyF6zTsRSHet-IUS4ek?authuser=0&hl=en&rclk=1,"19.0577667,78.7512222"
Masjid-E-Noor,Mosque,"Masjid-E-Noor, #101 ,Rechapally, Jagtial, Telangana",,"#101 ,Rechapally","Jagtial, Rechapalli",,Telangana,IN,https://www.google.com/maps/place/Masjid-E-Noor/data=!4m7!3m6!1s0x3bcd6be8cd809ef9:0x28c4237f1d69a774!8m2!3d18.9316153!4d78.9304784!16s%2Fg%2F11j8hhpjmy!19sChIJ-Z6AzehrzTsRdKdpHX8jxCg?authuser=0&hl=en&rclk=1,"18.9316153,78.9304784"
DARGAH HAZRATH SYED SADIQ PUNJABI R.A.,Mosque,"9QFH+82V DARGAH HAZRATH SYED SADIQ PUNJABI R.A., Utnoor Rd, Utnur, Telangana 504311",,"9QFH+82V, Utnoor Rd",Utnur,,Telangana,IN,https://www.google.com/maps/place/DARGAH+HAZRATH+SYED+SADIQ+PUNJABI+R.A./data=!4m7!3m6!1s0x3bd285e8982a5b59:0xa6f27cae7e3b2eb8!8m2!3d19.37336!4d78.7775539!16s%2Fg%2F11q3lkmfrb!19sChIJWVsqmOiF0jsRuC47fq588qY?authuser=0&hl=en&rclk=1,"19.373359999999998,78.7775539"
AL SAYYEDA AMENA MOUSQUE,Mosque,"2M4C+M5F AL SAYYEDA AMENA MOUSQUE, Obulapur, Telangana 505331",,2M4C+M5F,Obulapur,505331,Telangana,IN,https://www.google.com/maps/place/AL+SAYYEDA+AMENA+MOUSQUE/data=!4m7!3m6!1s0x3bcd77b049a964b7:0xa52f8598b0b6b09e!8m2!3d19.0066967!4d78.6704081!16s%2Fg%2F11qpy96v5q!19sChIJt2SpSbB3zTsRnrC2sJiFL6U?authuser=0&hl=en&rclk=1,"19.0066967,78.6704081"
Jama Masjid Kaddam,Mosque,"4Q2J+H79 Jama Masjid Kaddam, Market Road, Kadam Project, Telangana 504202",,"4Q2J+H79, Market Road",Kadam Project,504202,Telangana,IN,https://www.google.com/maps/place/Jama+Masjid+Kaddam/data=!4m7!3m6!1s0x3bcd7b8a08ff16e3:0x7cb5de71052ef6fa!8m2!3d19.1014217!4d78.7807301!16s%2Fg%2F11fb0p26qc!19sChIJ4xb_CIp7zTsR-vYuBXHetXw?authuser=0&hl=en&rclk=1,"19.1014217,78.7807301"
Mosque masjid,Mosque,"WQGG+643 Mosque masjid, Itikyala, Telangana 505460",,WQGG+643,Itikyala,505460,Telangana,IN,https://www.google.com/maps/place/Mosque+masjid/data=!4m7!3m6!1s0x3bcd7370aa707a5b:0x885057fe07e7005b!8m2!3d18.9255019!4d78.7752818!16s%2Fg%2F11h01t7s6p!19sChIJW3pwqnBzzTsRWwDnB_5XUIg?authuser=0&hl=en&rclk=1,"18.9255019,78.7752818"
MASJID E QUBA,Religious organization,"3MF9+XHQ MASJID E QUBA, Nirmal - Mancherial Rd, Sathnapalle, Patha Yellapur, Telangana 504203",,"3MF9+XHQ, Nirmal - Mancherial Rd","Sathnapalle, Patha Yellapur",504203,Telangana,IN,https://www.google.com/maps/place/MASJID+E+QUBA/data=!4m7!3m6!1s0x3bcd79d4e1edfa03:0x39f1bc98d2663e23!8m2!3d19.074966!4d78.6689897!16s%2Fg%2F11jmh9d8st!19sChIJA_rt4dR5zTsRIz5m0pi88Tk?authuser=0&hl=en&rclk=1,"19.074966,78.6689897"
Masjid,Mosque,"CQ24+936 Masjid, X-Road, Nagapur, Telangana 504311",X-Road,CQ24+936,Nagapur,504311,Telangana,IN,https://www.google.com/maps/place/Masjid/data=!4m7!3m6!1s0x3bd28542302b9163:0x87197ab60c077a2c!8m2!3d19.4009106!4d78.7551464!16s%2Fg%2F11qnl8lv7j!19sChIJY5ErMEKF0jsRLHoHDLZ6GYc?authuser=0&hl=en&rclk=1,"19.4009106,78.7551464"
Masjid-E-Kausar,Mosque,"MG8Q+6M8 Masjid-E-Kausar, Shanti Nagar, Adilabad, Telangana 504001",Shanti Nagar,MG8Q+6M8,Adilabad,504001,Telangana,IN,https://www.google.com/maps/place/Masjid-E-Kausar/data=!4m7!3m6!1s0x3bd25c726cbfffff:0xdcc8a30755b4260c!8m2!3d19.6655322!4d78.5391992!16s%2Fg%2F11txmzh9h_!19sChIJ__-_bHJc0jsRDCa0VQejyNw?authuser=0&hl=en&rclk=1,"19.665532199999998,78.5391992"
Eidgah Lachakkapet,Mosque,"VW65+QJR Eidgah Lachakkapet, Laxmipur, Telangana 505529",,VW65+QJR,Laxmipur,505529,Telangana,IN,https://www.google.com/maps/place/Eidgah+Lachakkapet/data=!4m7!3m6!1s0x3bcd6db11fa7a651:0x69cd98fc5e610e56!8m2!3d18.8619863!4d78.9090067!16s%2Fg%2F11h75zck1r!19sChIJUaanH7FtzTsRVg5hXvyYzWk?authuser=0&hl=en&rclk=1,"18.861986299999998,78.90900669999999"
Masjid-E-ibraheem bin abbas,Mosque,"MGGX+2JV Masjid-E-ibraheem bin abbas, Ambedkar Nagar, Adilabad, Telangana 504001",Ambedkar Nagar,MGGX+2JV,Adilabad,504001,Telangana,IN,https://www.google.com/maps/place/Masjid-E-ibraheem+bin+abbas/data=!4m7!3m6!1s0x3bd25dca817e57db:0x80929612f281e68c!8m2!3d19.6751132!4d78.5490388!16s%2Fg%2F11jz2dzlg7!19sChIJ21d-gcpd0jsRjOaB8hKWkoA?authuser=0&hl=en&rclk=1,"19.6751132,78.54903879999999"
Masjid-e-umarfarooq,Mosque,"9QCH+PGP Masjid-e-umarfarooq, Rahmathpura, Utnur, Telangana 504311",Rahmathpura,9QCH+PGP,Utnur,,Telangana,IN,https://www.google.com/maps/place/Masjid-e-umarfarooq/data=!4m7!3m6!1s0x3bd2857a91093a6b:0x26c68fcbfbdadda6!8m2!3d19.3718367!4d78.7788405!16s%2Fg%2F11g1bbd1gd!19sChIJazoJkXqF0jsRpt3a-8uPxiY?authuser=0&hl=en&rclk=1,"19.3718367,78.7788405"
MAJED MBD,Mosque,"33QC+436 MAJED MBD, Malyal1, Telangana 504205",,33QC+436,Malyal1,504205,Telangana,IN,https://www.google.com/maps/place/MAJED+MBD/data=!4m7!3m6!1s0x3bcd5dc7d8043ab9:0xd0a3a374a7512c1b!8m2!3d19.087524!4d79.070119!16s%2Fg%2F11t4_mj0wl!19sChIJuToE2MddzTsRGyxRp3Sjo9A?authuser=0&hl=en&rclk=1,"19.087524,79.07011899999999"
Masjid e Saleh,Mosque,"X5W3+5FW Masjid e Saleh, bolishetty rajanna mro office, Dantepally, Telangana 504206",,"X5W3+5FW, bolishetty rajanna mro office",Dantepally,504206,Telangana,IN,https://www.google.com/maps/place/Masjid+e+Saleh/data=!4m7!3m6!1s0x3bcd45dc06307c6d:0xb5279caa5d165fe6!8m2!3d18.9954959!4d79.1537098!16s%2Fg%2F11n258mlmb!19sChIJbXwwBtxFzTsR5l8WXaqcJ7U?authuser=0&hl=en&rclk=1,"18.995495899999998,79.1537098"
Mosque Mahammadabad,Mosque,"33QC+229 Mosque Mahammadabad, jannaram mahammadabad, 504205",,"33QC+229, jannaram mahammadabad",,504205,Telangana,IN,https://www.google.com/maps/place/Mosque+Mahammadabad/data=!4m7!3m6!1s0x3bcd5d75c529e10b:0x76390774d02a9d68!8m2!3d19.0875411!4d79.0700938!16s%2Fg%2F11t6ky02_j!19sChIJC-EpxXVdzTsRaJ0q0HQHOXY?authuser=0&hl=en&rclk=1,"19.0875411,79.0700938"
Jama masjid kawal,Mosque,"5X97+M8M Jama masjid kawal, Kawal, Telangana 504205",,5X97+M8M,Kawal,504205,Telangana,IN,https://www.google.com/maps/place/Jama+masjid+kawal/data=!4m7!3m6!1s0x3bcd61db9faed409:0xc8e57351b72be292!8m2!3d19.1707652!4d78.9627696!16s%2Fg%2F11tgfrbxkx!19sChIJCdSun9thzTsRkuIrt1Fz5cg?authuser=0&hl=en&rclk=1,"19.170765199999998,78.9627696"
HAZRAT ALI BABA KARBALA DEVUNIGUDA,Mosque,"5X2G+64G HAZRAT ALI BABA KARBALA DEVUNIGUDA, Devuniguda, Kamanpalle, Telangana 504205",,5X2G+64G,"Devuniguda, Kamanpalle",504205,Telangana,IN,https://www.google.com/maps/place/HAZRAT+ALI+BABA+KARBALA+DEVUNIGUDA/data=!4m7!3m6!1s0x3bcd61dd37a84fc3:0x4c9c24dbaaf795de!8m2!3d19.1505631!4d78.9753296!16s%2Fg%2F11qt448pc7!19sChIJw0-oN91hzTsR3pX3qtsknEw?authuser=0&hl=en&rclk=1,"19.1505631,78.9753296"
Mootapally Masjid,Mosque,"WRW3+85V Mootapally Masjid, Mootapalle, Telangana 505460",,WRW3+85V,Mootapalle,505460,Telangana,IN,https://www.google.com/maps/place/Mootapally+Masjid/data=!4m7!3m6!1s0x3bcd71db465b554b:0xddbad2d7da006c8b!8m2!3d18.9458573!4d78.8029347!16s%2Fg%2F11hz77v8xp!19sChIJS1VbRttxzTsRi2wA2tfSut0?authuser=0&hl=en&rclk=1,"18.9458573,78.8029347"
MASJID,Mosque,"2PW9+WP9 MASJID, Lingapur, Telangana 504202",,2PW9+WP9,Lingapur,504202,Telangana,IN,https://www.google.com/maps/place/MASJID/data=!4m7!3m6!1s0x3bcd79ab085b9819:0xd6538f30239f99c!8m2!3d19.0472775!4d78.7193685!16s%2Fg%2F11rkf1p6nc!19sChIJGZhbCKt5zTsRnPk5AvM4ZQ0?authuser=0&hl=en&rclk=1,"19.0472775,78.7193685"
Jama-masjid,Mosque,"8RG9+858 Jama-masjid, danthanpalli, Utnur, Danthanpalle, Telangana 504311",,"8RG9+858, danthanpalli","Utnur, Danthanpalle",504311,Telangana,IN,https://www.google.com/maps/place/Jama-masjid/data=!4m7!3m6!1s0x3bd2854382fca6b1:0x7f6af6c9c5f66375!8m2!3d19.3257758!4d78.8177888!16s%2Fg%2F11t_m6qb3v!19sChIJsab8gkOF0jsRdWP2xcn2an8?authuser=0&hl=en&rclk=1,"19.3257758,78.8177888"
Maszid,Mosque,"WRQJ+FV9 Maszid, Bhoopathipur, Telangana 505460",,WRQJ+FV9,Bhoopathipur,505460,Telangana,IN,https://www.google.com/maps/place/Maszid/data=!4m7!3m6!1s0x3bcd739cf323adb7:0xd43dafd32a372a54!8m2!3d18.9386736!4d78.8322355!16s%2Fg%2F11q_c6cq6l!19sChIJt60j85xzzTsRVCo3KtOvPdQ?authuser=0&hl=en&rclk=1,"18.938673599999998,78.8322355"
Jama-masjid,Mosque,"8RC9+GMX Jama-masjid, Danthanpalle, Telangana 504311",,8RC9+GMX,Danthanpalle,504311,Telangana,IN,https://www.google.com/maps/place/Jama-masjid/data=!4m7!3m6!1s0x3bd285b1acb03325:0xe09602827bfd9960!8m2!3d19.3213959!4d78.8191368!16s%2Fg%2F11t_k688fm!19sChIJJTOwrLGF0jsRYJn9e4ICluA?authuser=0&hl=en&rclk=1,"19.3213959,78.8191368"
Masjid-E-Noor,Mosque,"WWPH+HVQ Masjid-E-Noor, Rechapalli, Telangana 505454",,WWPH+HVQ,Rechapalli,505454,Telangana,IN,https://www.google.com/maps/place/Masjid-E-Noor/data=!4m7!3m6!1s0x3bcd6b7331514d5f:0xff45f99cdcb0ecc8!8m2!3d18.9364588!4d78.9297201!16s%2Fg%2F11fvgfnlsd!19sChIJX01RMXNrzTsRyOyw3Jz5Rf8?authuser=0&hl=en&rclk=1,"18.9364588,78.9297201"
Arpapalli Masjid,Mosque,"VXG6+G6J Arpapalli Masjid, Arpapalli, Telangana 505454",,VXG6+G6J,Arpapalli,505454,Telangana,IN,https://www.google.com/maps/place/Arpapalli+Masjid/data=!4m7!3m6!1s0x3bcd6b1e5bd2ca9f:0xf70c13b1b76ce353!8m2!3d18.8763476!4d78.9605286!16s%2Fg%2F11ptzvdrt1!19sChIJn8rSWx5rzTsRU-Nst7ETDPc?authuser=0&hl=en&rclk=1,"18.8763476,78.9605286"
Masjid,Mosque,"2M85+P5 Masjid, Badankurthy, Telangana 504203",,2M85+P5,Badankurthy,,Telangana,IN,https://www.google.com/maps/place/Masjid/data=!4m7!3m6!1s0x3bcd773e41058563:0xd5fb5238132b70c8!8m2!3d19.0167991!4d78.6579268!16s%2Fg%2F11q47zr4hf!19sChIJY4UFQT53zTsRyHArEzhS-9U?authuser=0&hl=en&rclk=1,"19.0167991,78.6579268"
COLONY MASJID - NDSL,Mosque,"VMPG+7C5 COLONY MASJID - NDSL, NDSL Employees Colony, Muthyampet, Telangana 505331",NDSL Employees Colony,VMPG+7C5,Muthyampet,,Telangana,IN,https://www.google.com/maps/place/COLONY+MASJID+-+NDSL/data=!4m7!3m6!1s0x3bcd7525af5bae3b:0xd938b95f88dcfe4a!8m2!3d18.885636!4d78.6760971!16s%2Fg%2F11lfhc8x23!19sChIJO65bryV1zTsRSv7ciF-5ONk?authuser=0&hl=en&rclk=1,"18.885635999999998,78.67609709999999"
Abbubakar masjid,Mosque,"9WG5+JJV Abbubakar masjid, Jainoor, Telangana 504313",,9WG5+JJV,Jainoor,504313,Telangana,IN,https://www.google.com/maps/place/Abbubakar+masjid/data=!4m7!3m6!1s0x3bd29bab25333f2b:0x3b3f437925c3c48c!8m2!3d19.3766247!4d78.909049!16s%2Fg%2F11rs2wxm5k!19sChIJKz8zJaub0jsRjMTDJXlDPzs?authuser=0&hl=en&rclk=1,"19.3766247,78.909049"
Jame masjid ailapur,Mosque,"Jame masjid ailapur, Near, Nehru road, Besthawada, Ailapur, Telangana 505330",Besthawada,"Near, Nehru road",Ailapur,,Telangana,IN,https://www.google.com/maps/place/Jame+masjid+ailapur/data=!4m7!3m6!1s0x3bcd75c30dfe83a9:0xf653dc0ed627e550!8m2!3d18.870281!4d78.6985201!16s%2Fg%2F11rv9160kx!19sChIJqYP-DcN1zTsRUOUn1g7cU_Y?authuser=0&hl=en&rclk=1,"18.870281,78.6985201"
Badi masjid,Mosque,"V6M4+6G6 Badi masjid, Luxettipet, Utukur, Telangana 504215",,V6M4+6G6,"Luxettipet, Utukur",504215,Telangana,IN,https://www.google.com/maps/place/Badi+masjid/data=!4m7!3m6!1s0x3bcd4983c8455595:0x967acd0ca59d0e65!8m2!3d18.8830416!4d79.2062597!16s%2Fg%2F11vf2g1rj5!19sChIJlVVFyINJzTsRZQ6dpQzNepY?authuser=0&hl=en&rclk=1,"18.8830416,79.20625969999999"
Jama masjid,Mosque,"9XX2+F85 Jama masjid, Unnamed Road, Daboli, Telangana 504313",,"9XX2+F85, Unnamed Road",Daboli,504313,Telangana,IN,https://www.google.com/maps/place/Jama+masjid/data=!4m7!3m6!1s0x3bd29962bbeafef3:0x74b0832244550441!8m2!3d19.3986432!4d78.9508508!16s%2Fg%2F11h4v7zns2!19sChIJ8_7qu2KZ0jsRQQRVRCKDsHQ?authuser=0&hl=en&rclk=1,"19.3986432,78.9508508"
BILALA MASJID,Mosque,"9WF5+HJJ BILALA MASJID, Jainoor, Telangana 504313",,9WF5+HJJ,Jainoor,504313,Telangana,IN,https://www.google.com/maps/place/BILALA+MASJID/data=!4m7!3m6!1s0x3bd29b2e07edb8d3:0xa2580038ac3fd778!8m2!3d19.3739522!4d78.9090191!16s%2Fg%2F11f77_fyxp!19sChIJ07jtBy6b0jsReNc_rDgAWKI?authuser=0&hl=en&rclk=1,"19.373952199999998,78.9090191"
masjid,Mosque,"WQP8+PJH masjid, Regunta, Telangana 505331",,WQP8+PJH,Regunta,505331,Telangana,IN,https://www.google.com/maps/place/masjid/data=!4m7!3m6!1s0x3bcd73e10f087a0d:0xb743367ca6f6556b!8m2!3d18.9368128!4d78.7666167!16s%2Fg%2F11hbt4fzsw!19sChIJDXoID-FzzTsRa1X2pnw2Q7c?authuser=0&hl=en&rclk=1,"18.9368128,78.7666167"
Jama masjid luxettipet,Mosque,"W656+7GJ Jama masjid luxettipet, Luxettipet, Utukur, Telangana 504215",,W656+7GJ,"Luxettipet, Utukur",504215,Telangana,IN,https://www.google.com/maps/place/Jama+masjid+luxettipet/data=!4m7!3m6!1s0x3bcd495e1c762f25:0xa0cfa07634d3bb03!8m2!3d18.9082189!4d79.2112769!16s%2Fg%2F11vf2fh6z5!19sChIJJS92HF5JzTsRA7vTNHagz6A?authuser=0&hl=en&rclk=1,"18.908218899999998,79.2112769"
Jamma Masjid,Mosque,"7345+QGQ Jamma Masjid, Yellapatar, Telangana 504313",,7345+QGQ,Yellapatar,,Telangana,IN,https://www.google.com/maps/place/Jamma+Masjid/data=!4m7!3m6!1s0x3bd2a1118f7720e5:0xd3a650aa42284af1!8m2!3d19.2569583!4d79.058856!16s%2Fg%2F11thhfc6wm!19sChIJ5SB3jxGh0jsR8UooQqpQptM?authuser=0&hl=en&rclk=1,"19.2569583,79.05885599999999"
Community Hall,Mosque,"2WW5+6JR Community Hall, Godserial, Telangana 504202",,2WW5+6JR,Godserial,,Telangana,IN,https://www.google.com/maps/place/Community+Hall/data=!4m7!3m6!1s0x3bcd6533481136a9:0x70724a69a268e136!8m2!3d19.0456115!4d78.9090214!16s%2Fg%2F11swmqtzks!19sChIJqTYRSDNlzTsRNuFoomlKcnA?authuser=0&hl=en&rclk=1,"19.0456115,78.9090214"
MASJID NAJAM-UN-NISA RAGHAVAPET,Mosque,"WMF6+P8W MASJID NAJAM-UN-NISA RAGHAVAPET, Raghavapeta, Telangana 505331",,WMF6+P8W,Raghavapeta,,Telangana,IN,https://www.google.com/maps/place/MASJID+NAJAM-UN-NISA+RAGHAVAPET/data=!4m7!3m6!1s0x3bcd7521d90e6c43:0x9065cf8f12ebb814!8m2!3d18.9243651!4d78.6608246!16s%2Fg%2F11t9_tn2c2!19sChIJQ2wO2SF1zTsRFLjrEo_PZZA?authuser=0&hl=en&rclk=1,"18.9243651,78.6608246"
Dharga,Mosque,"VMPR+WPV Dharga, Chittapur, Telangana 505331",,VMPR+WPV,Chittapur,505331,Telangana,IN,https://www.google.com/maps/place/Dharga/data=!4m7!3m6!1s0x3bcd7500b426802d:0xabd81a01fbd44bd7!8m2!3d18.8873569!4d78.6917991!16s%2Fg%2F11ppmcnhn_!19sChIJLYAmtAB1zTsR10vU-wEa2Ks?authuser=0&hl=en&rclk=1,"18.8873569,78.6917991"
Madina Masjid,Mosque,"9Q7H+P3C Madina Masjid, Mominpura, Utnur, Telangana 504311",Mominpura,9Q7H+P3C,Utnur,504311,Telangana,IN,https://www.google.com/maps/place/Madina+Masjid/data=!4m7!3m6!1s0x3bd285b33e155555:0x13e010187828103f!8m2!3d19.3643116!4d78.777638!16s%2Fg%2F11txmzdqbx!19sChIJVVUVPrOF0jsRPxAoeBgQ4BM?authuser=0&hl=en&rclk=1,"19.3643116,78.777638"
Masjid-E-Ibrahimia,Mosque,"W3XR+6G5 Masjid-E-Ibrahimia, Dharmapuri Camp, Dharmapuri, Telangana 505425",Dharmapuri Camp,W3XR+6G5,Dharmapuri,505425,Telangana,IN,https://www.google.com/maps/place/Masjid-E-Ibrahimia/data=!4m7!3m6!1s0x3bcd417b204cbc55:0xfcf4ceb2cce74a88!8m2!3d18.9479993!4d79.091359!16s%2Fg%2F11rqh_2269!19sChIJVbxMIHtBzTsRiErnzLLO9Pw?authuser=0&hl=en&rclk=1,"18.9479993,79.091359"
masjid,Mosque,"MGFX+R5C masjid, Ambedkar Nagar, Adilabad, Telangana 504001",Ambedkar Nagar,MGFX+R5C,Adilabad,504001,Telangana,IN,https://www.google.com/maps/place/masjid/data=!4m7!3m6!1s0x3bd25dea5bc85cff:0xa139fac0fe5bfbe8!8m2!3d19.6750538!4d78.549016!16s%2Fg%2F11tg1ql3mw!19sChIJ_1zIW-pd0jsR6Ptb_sD6OaE?authuser=0&hl=en&rclk=1,"19.6750538,78.549016"
Jama masjid sirpoor,Mosque,"WMPH+GGF Jama masjid sirpoor, Sirpur, Telangana 505331",,WMPH+GGF,Sirpur,505331,Telangana,IN,https://www.google.com/maps/place/Jama+masjid+sirpoor/data=!4m7!3m6!1s0x3bcd776349ffa569:0xc822dce33540a4c4!8m2!3d18.9363041!4d78.678784!16s%2Fg%2F11kc4_hgmd!19sChIJaaX_SWN3zTsRxKRANePcIsg?authuser=0&hl=en&rclk=1,"18.936304099999997,78.678784"
Late Shakkar baap bhai's House,Mosque,"9Q8G+XPH Late Shakkar baap bhai's House, Utnur, Telangana 504311",,9Q8G+XPH,Utnur,,Telangana,IN,https://www.google.com/maps/place/Late+Shakkar+baap+bhai%27s+House/data=!4m7!3m6!1s0x3bd28599f6383c27:0x19c105667d80cd2a!8m2!3d19.367426!4d78.7768553!16s%2Fg%2F11t7x70mz7!19sChIJJzw49pmF0jsRKs2AfWYFwRk?authuser=0&hl=en&rclk=1,"19.367426,78.7768553"
Namaj goda,Mosque,"WR32+PMR Namaj goda, Telangana 505460",,WR32+PMR,,505460,Telangana,IN,https://www.google.com/maps/place/Namaj+goda/data=!4m7!3m6!1s0x3bcd733ce4006ec5:0x62c0d9c9a00ca39!8m2!3d18.905177!4d78.800847!16s%2Fg%2F11rn0c5k05!19sChIJxW4A5DxzzTsROcoAmpwNLAY?authuser=0&hl=en&rclk=1,"18.905177,78.80084699999999"
Madeena majhid,Mosque,"X3MQ+P34 Madeena majhid, Unnamed Road, Rajaram, Telangana 505425",,"X3MQ+P34, Unnamed Road",Rajaram,505425,Telangana,IN,https://www.google.com/maps/place/Madeena+majhid/data=!4m7!3m6!1s0x3bcd4361bfcc1b0f:0xfe0d7c8a129ec417!8m2!3d18.9842711!4d79.0876911!16s%2Fg%2F11rb3r6v9n!19sChIJDxvMv2FDzTsRF8SeEop8Df4?authuser=0&hl=en&rclk=1,"18.9842711,79.0876911"
Masjid-E-Ayesha,Mosque,"MGCQ+XRX Masjid-E-Ayesha, Brahmanwadi, Adilabad, Telangana 504001",Brahmanwadi,MGCQ+XRX,Adilabad,504001,Telangana,IN,https://www.google.com/maps/place/Masjid-E-Ayesha/data=!4m7!3m6!1s0x3bd25c7445a55555:0xe3f8a99466fc71ef!8m2!3d19.6724753!4d78.5395986!16s%2Fg%2F11sscsfbvt!19sChIJVVWlRXRc0jsR73H8ZpSp-OM?authuser=0&hl=en&rclk=1,"19.6724753,78.53959859999999"
