name,main_category,address,address_ward,address_street,address_city,address_postal_code,address_state,address_country_code,link,coordinates
TNTJ Masjid Thowheed,Mosque,"TNTJ Masjid Thowheed, 26, Muslim Middle Street, Muslim Theru, Parasakthi Colony, Sivakasi, Tamil Nadu 626123","Muslim Theru, Parasakthi Colony","26, Muslim Middle Street",Sivakasi,626123,Tamil Nadu,IN,https://www.google.com/maps/place/TNTJ+Masjid+Thowheed/data=!4m7!3m6!1s0x3b06cefd1ff97d99:0x7d2909d618ba652!8m2!3d9.4543391!4d77.793808!16s%2Fg%2F11f2wptyb5!19sChIJmX35H_3OBjsRUqaLYZ2Q0gc?authuser=0&hl=en&rclk=1,"9.4543391,77.793808"
Thirupputhur Periya Pallivasal,Mosque,"4H7X+7R8 Thirupputhur Periya Pallivasal, Big St, Tirupattur, Tamil Nadu 630211",,"4H7X+7R8, Big St",Tirupattur,630211,Tamil Nadu,IN,https://www.google.com/maps/place/Thirupputhur+Periya+Pallivasal/data=!4m7!3m6!1s0x3b008ba58fab4217:0x43838e993528260d!8m2!3d10.1131602!4d78.5995717!16s%2Fg%2F1tmqdn42!19sChIJF0Krj6WLADsRDSYoNZmOg0M?authuser=0&hl=en&rclk=1,"10.1131602,78.5995717"
Jummah Masjid,Mosque,"PQMQ+VM6 Jummah Masjid, Peraiyur, Tamil Nadu 625703",,PQMQ+VM6,Peraiyur,625703,Tamil Nadu,IN,https://www.google.com/maps/place/Jummah+Masjid/data=!4m7!3m6!1s0x3b0728fd0e115025:0x240aeddf575d058a!8m2!3d9.7346674!4d77.7891415!16s%2Fg%2F1jkwjhhjm!19sChIJJVARDv0oBzsRigVdV9_tCiQ?authuser=0&hl=en&rclk=1,"9.7346674,77.7891415"
Town jaami jumma masjid,Mosque,"5VGF+P83 Town jaami jumma masjid, Sevvalpatti, Kovilpatti, Tamil Nadu 628501",Sevvalpatti,5VGF+P83,Kovilpatti,628501,Tamil Nadu,IN,https://www.google.com/maps/place/Town+jaami+jumma+masjid/data=!4m7!3m6!1s0x3b06b265b7c5682d:0x4b495d7c87ff6203!8m2!3d9.1767582!4d77.8733025!16s%2Fg%2F11g8fz_jrt!19sChIJLWjFt2WyBjsRA2L_h3xdSUs?authuser=0&hl=en&rclk=1,"9.1767582,77.8733025"
Pudupatti Jumma Masjid,Mosque,"CX8C+MXC Pudupatti Jumma Masjid, Golwarpatti, Tamil Nadu 626204",,CX8C+MXC,Golwarpatti,626204,Tamil Nadu,IN,https://www.google.com/maps/place/Pudupatti+Jumma+Masjid/data=!4m7!3m6!1s0x3b013487c1e80d5b:0xeacc92b64ad5841c!8m2!3d9.4166755!4d77.9723901!16s%2Fg%2F1tfc9m18!19sChIJWw3owYc0ATsRHITVSraSzOo?authuser=0&hl=en&rclk=1,"9.4166755,77.9723901"
Sabhaz Khan Masjid,Mosque,"Sabhaz Khan Masjid, Sakkarai Va, Va St, Muslim Theru, Parasakthi Colony, Sivakasi, Tamil Nadu 626123","Muslim Theru, Parasakthi Colony","Sakkarai Va, Va St",Sivakasi,626123,Tamil Nadu,IN,https://www.google.com/maps/place/Sabhaz+Khan+Masjid/data=!4m7!3m6!1s0x3b06cefb5afeef31:0x2badef3563ecf7ff!8m2!3d9.4536126!4d77.7961563!16s%2Fg%2F11b_3gbw32!19sChIJMe_-WvvOBjsR__fsYzXvrSs?authuser=0&hl=en&rclk=1,"9.4536126,77.79615629999999"
Shafi Madhab Periya Pallivasal Masjid,Mosque,"FQ3W+F29 Shafi Madhab Periya Pallivasal Masjid, Muslim Thaikka St, Muslim Theru, Parasakthi Colony, Sivakasi, Tamil Nadu 626123","Muslim Theru, Parasakthi Colony","FQ3W+F29, Muslim Thaikka St",Sivakasi,626123,Tamil Nadu,IN,https://www.google.com/maps/place/Shafi+Madhab+Periya+Pallivasal+Masjid/data=!4m7!3m6!1s0x3b06cefcc86147f7:0xa1804c121ddc036f!8m2!3d9.4536566!4d77.7951086!16s%2Fg%2F11c2lb7xx8!19sChIJ90dhyPzOBjsRbwPcHRJMgKE?authuser=0&hl=en&rclk=1,"9.4536566,77.79510859999999"
Mosque,Mosque,"9WF7+76M Mosque, Bharathi Nagar 4th St, NGO Colony, Sattur, Tamil Nadu 626203",NGO Colony,"9WF7+76M, Bharathi Nagar 4th St",Sattur,626203,Tamil Nadu,IN,https://www.google.com/maps/place/Mosque/data=!4m7!3m6!1s0x3b06cadba5099901:0x9e73406783f87be6!8m2!3d9.3732036!4d77.9130342!16s%2Fg%2F11f01tdphb!19sChIJAZkJpdvKBjsR5nv4g2dAc54?authuser=0&hl=en&rclk=1,"9.3732036,77.9130342"
Baithul Anwar Khankha,Mosque,"Baithul Anwar Khankha, Hawwa Masjid, opposite Indra Nagar, Melavaniyankudi, Sivaganga, Tamil Nadu 630561",Melavaniyankudi,"Hawwa Masjid, opposite Indra Nagar",Sivaganga,630561,Tamil Nadu,IN,https://www.google.com/maps/place/Baithul+Anwar+Khankha/data=!4m7!3m6!1s0x3b00fba0a56d422d:0xf773137e2ca82535!8m2!3d9.8369084!4d78.4850589!16s%2Fg%2F11sw_r1lg5!19sChIJLUJtpaD7ADsRNSWoLH4Tc_c?authuser=0&hl=en&rclk=1,"9.8369084,78.4850589"
Al Jamiyathul Madhina Pallivasal,Mosque,"Al Jamiyathul Madhina Pallivasal, 183, madhina nagar ,last street,, Srivilliputhur, Tamil Nadu",Mangapuram,"183, madhina nagar ,last street,",Srivilliputhur,,Tamil Nadu,IN,https://www.google.com/maps/place/Al+Jamiyathul+Madhina+Pallivasal/data=!4m7!3m6!1s0x3b06dcc3d66b7d1d:0x5fc8f8eb653e8174!8m2!3d9.5202134!4d77.6248772!16s%2Fg%2F11csqd0k8p!19sChIJHX1r1sPcBjsRdIE-Zev4yF8?authuser=0&hl=en&rclk=1,"9.5202134,77.6248772"
"jumaa pllllivcaal, nennnmeennni",Mosque,"82F2+3RQ jumaa pllllivcaal, nennnmeennni, Nenmeni, Tamil Nadu 626202",,82F2+3RQ,Nenmeni,626202,Tamil Nadu,IN,"https://www.google.com/maps/place/%E0%AE%9C%E0%AF%81%E0%AE%AE%E0%AF%8D%E0%AE%86+%E0%AE%AA%E0%AE%B3%E0%AF%8D%E0%AE%B3%E0%AE%BF%E0%AE%B5%E0%AE%9A%E0%AE%BE%E0%AE%B2%E0%AF%8D,+%E0%AE%A8%E0%AF%86%E0%AE%A9%E0%AF%8D%E0%AE%AE%E0%AF%87%E0%AE%A9%E0%AE%BF/data=!4m7!3m6!1s0x3b014a141f12cf19:0x7ad488bbbf95fb31!8m2!3d9.3227122!4d78.0021076!16s%2Fg%2F11fzyv9nj_!19sChIJGc8SHxRKATsRMfuVv7uI1Ho?authuser=0&hl=en&rclk=1","9.3227122,78.0021076"
Jamia Tharusalam Masjid,Mosque,"22V5+9MV Jamia Tharusalam Masjid, Sembukudipatti, Tamil Nadu 625221",,22V5+9MV,Sembukudipatti,,Tamil Nadu,IN,https://www.google.com/maps/place/Jamia+Tharusalam+Masjid/data=!4m7!3m6!1s0x3b00b513ef569c05:0xd51a42898cb6b411!8m2!3d10.0434816!4d78.0091818!16s%2Fg%2F11h6n5ppwq!19sChIJBZxW7xO1ADsREbS2jIlCGtU?authuser=0&hl=en&rclk=1,"10.0434816,78.0091818"
Peer Mohamed Khan Juma Masjid,Mosque,"FRC7+W5C Peer Mohamed Khan Juma Masjid, Thiruthangal To Pallapatti Rd, Thiruthangal, Sivakasi, Tamil Nadu 626130",Thiruthangal,"FRC7+W5C, Thiruthangal To Pallapatti Rd",Sivakasi,626130,Tamil Nadu,IN,https://www.google.com/maps/place/Peer+Mohamed+Khan+Juma+Masjid/data=!4m7!3m6!1s0x3b06cf53b6185249:0xb2192bcf1793809f!8m2!3d9.4723122!4d77.8128899!16s%2Fg%2F11flw2vqkm!19sChIJSVIYtlPPBjsRn4CTF88rGbI?authuser=0&hl=en&rclk=1,"9.4723122,77.8128899"
Jumma Puthu Pallivasal - Masjid,Mosque,"Jumma Puthu Pallivasal - Masjid, Nethaji Road, Mangapuram, Srivilliputhur, Tamil Nadu 626125",Mangapuram,Nethaji Road,Srivilliputhur,626125,Tamil Nadu,IN,https://www.google.com/maps/place/Jumma+Puthu+Pallivasal+-+Masjid/data=!4m7!3m6!1s0x3b06dcb8021f8397:0xb6ec07dadd62ea57!8m2!3d9.5127662!4d77.631141!16s%2Fg%2F11fx63fpw0!19sChIJl4MfArjcBjsRV-pi3doH7LY?authuser=0&hl=en&rclk=1,"9.5127662,77.631141"
Mohideen andavar masjid,Mosque,"Mohideen andavar masjid, APHC, Panangudi, Tamil Nadu 630555",,APHC,Panangudi,630555,Tamil Nadu,IN,https://www.google.com/maps/place/Mohideen+andavar+masjid/data=!4m7!3m6!1s0x3b00f7a19d68db33:0x9c93e8b69e4a6039!8m2!3d9.931547!4d78.614383!16s%2Fg%2F11swjf8j_z!19sChIJM9tonaH3ADsROWBKnrbok5w?authuser=0&hl=en&rclk=1,"9.931547,78.61438299999999"
S.N.O.M.M.T Masjid - Thiruvithancode,Mosque,"S.N.O.M.M.T Masjid - Thiruvithancode, Masjid of Anjuvannam - Thiruvithancode, Thiruvithamcode, Tamil Nadu 629174",,Masjid of Anjuvannam - Thiruvithancode,Thiruvithamcode,629174,Tamil Nadu,IN,https://www.google.com/maps/place/S.N.O.M.M.T+Masjid+-+Thiruvithancode/data=!4m7!3m6!1s0x3b04f95625c4ee05:0xae4bfbba406193ba!8m2!3d8.2427274!4d77.2994101!16s%2Fg%2F11j8vqr5nj!19sChIJBe7EJVb5BDsRupNhQLr7S64?authuser=0&hl=en&rclk=1,"8.2427274,77.2994101"
Anjumana Islam Jamiya Palivasal,Mosque,"8WQX+C6Q Anjumana Islam Jamiya Palivasal, Chinnagollapatti, Tamil Nadu 626203",,8WQX+C6Q,Chinnagollapatti,,Tamil Nadu,IN,https://www.google.com/maps/place/Anjumana+Islam+Jamiya+Palivasal/data=!4m7!3m6!1s0x3b01355f7f8879a7:0xbd2dfd3108fc1cb6!8m2!3d9.3385938!4d77.9481212!16s%2Fg%2F11gf0j2mk9!19sChIJp3mIf181ATsRthz8CDH9Lb0?authuser=0&hl=en&rclk=1,"9.3385938,77.9481212"
Siyamuthupat Mosque,Mosque,"4F6R+M84 Siyamuthupat Mosque, s.s.kottai, A.Melaiyur, Tamil Nadu 630211",,"4F6R+M84, s.s.kottai",A.Melaiyur,630211,Tamil Nadu,IN,https://www.google.com/maps/place/Siyamuthupat+Mosque/data=!4m7!3m6!1s0x3b008d90a74ccd15:0x8728fac529b83fb1!8m2!3d10.1116314!4d78.4908221!16s%2Fg%2F1td11ps3!19sChIJFc1Mp5CNADsRsT-4KcX6KIc?authuser=0&hl=en&rclk=1,"10.1116314,78.4908221"
Thowheed Masjid,Mosque,"9W88+97H Thowheed Masjid, Near EB Office,NH Service Road, Sattur, Tamil Nadu",S R Naidu Nagar,"9W88+97H, Near EB Office,NH Service Road",Sattur,,Tamil Nadu,IN,https://www.google.com/maps/place/Thowheed+Masjid/data=!4m7!3m6!1s0x3b06cbb5339682b3:0x4a44b114405d1e31!8m2!3d9.3659325!4d77.9157444!16s%2Fg%2F11ghpn1qct!19sChIJs4KWM7XLBjsRMR5dQBSxREo?authuser=0&hl=en&rclk=1,"9.3659325,77.9157444"
Masjid baithul muqthas,Mosque,"4HQ5+2MX Masjid baithul muqthas, Annanagar, Alagarsamipuram, Endapuli Pudhukkottai, Tamil Nadu 625604",Alagarsamipuram,"4HQ5+2MX, Annanagar","Endapuli Pudhukkottai, Murugamalai R.F.",625604,Tamil Nadu,IN,https://www.google.com/maps/place/Masjid+baithul+muqthas/data=!4m7!3m6!1s0x3b07698cfe223d79:0xbce8a15d24d07a7e!8m2!3d10.1376224!4d77.5592221!16s%2Fg%2F11rx2zt4ym!19sChIJeT0i_oxpBzsRfnrQJF2h6Lw?authuser=0&hl=en&rclk=1,"10.1376224,77.5592221"
