name,main_category,address,address_ward,address_street,address_city,address_postal_code,address_state,address_country_code,link,coordinates
Jama Masjid,Mosque,"MGGQ+F5Q Jama Masjid, Jama Masjid Rd, Mahalaxmiwada, Adilabad, Telangana 504001",Mahalaxmiwada,"MGGQ+F5Q, Jama Masjid Rd",Adilabad,504001,Telangana,IN,https://www.google.com/maps/place/Jama+Masjid/data=!4m7!3m6!1s0x3bd25c75f87e8a01:0x25a95ee1fbab37d0!8m2!3d19.6762137!4d78.5379985!16s%2Fg%2F1tlqnfwv!19sChIJAYp--HVc0jsR0Der--FeqSU?authuser=0&hl=en&rclk=1,"19.676213699999998,78.5379985"
Gulzaar Masjid,Mosque,"MGCR+66Q Gulzaar Masjid, Bokkalguda St, Brahmanwadi, Adilabad, Telangana 504001",Brahmanwadi,"MGCR+66Q, Bokkalguda St",Adilabad,504001,Telangana,IN,https://www.google.com/maps/place/Gulzaar+Masjid/data=!4m7!3m6!1s0x3bd25c7477d00337:0x3dc61fe7489f62b1!8m2!3d19.6704596!4d78.5395986!16s%2Fg%2F1tcz6sjz!19sChIJNwPQd3Rc0jsRsWKfSOcfxj0?authuser=0&hl=en&rclk=1,"19.670459599999997,78.53959859999999"
Masjid-e-Rahmania,Mosque,"MG5H+P96 Masjid-e-Rahmania, Dasnapur, Sapthagiri Colony, chaitanyapuri, Adilabad, Telangana 504001","Dasnapur, Sapthagiri Colony, chaitanyapuri",MG5H+P96,Adilabad,504001,Telangana,IN,https://www.google.com/maps/place/Masjid-e-Rahmania/data=!4m7!3m6!1s0x3bd25c643f4fdb2f:0xa503fe99bb42906e!8m2!3d19.6592958!4d78.5283772!16s%2Fg%2F1w2ysb6c!19sChIJL9tPP2Rc0jsRbpBCu5n-A6U?authuser=0&hl=en&rclk=1,"19.6592958,78.5283772"
Masjid-E-Taneem,Mosque,"MG8P+GJ2 Masjid-E-Taneem, Shanti Nagar, Adilabad, Telangana 504001",Shanti Nagar,MG8P+GJ2,Adilabad,504001,Telangana,IN,https://www.google.com/maps/place/Masjid-E-Taneem/data=!4m7!3m6!1s0x3bd25c7196951817:0xe1695f659d337d7!8m2!3d19.6662707!4d78.5365283!16s%2Fg%2F11c52zx1f3!19sChIJFxiVlnFc0jsR1zfTWfaVFg4?authuser=0&hl=en&rclk=1,"19.6662707,78.5365283"
Masjid e Noor Khursheed Nagar,Mosque,"Masjid e Noor Khursheed Nagar, khursheed Nagar, Adilabad, Telangana 504001",khursheed Nagar,,Adilabad,,Telangana,IN,https://www.google.com/maps/place/Masjid+e+Noor+Khursheed+Nagar/data=!4m7!3m6!1s0x3bd25b7f77891187:0xd64d9d2522c68201!8m2!3d19.6780656!4d78.5199255!16s%2Fg%2F1pp2x6dd1!19sChIJhxGJd39b0jsRAYLGIiWdTdY?authuser=0&hl=en&rclk=1,"19.6780656,78.5199255"
Mohammadia Masjid,Mosque,"MGFH+M8P Mohammadia Masjid, NH 44, Vidya Nagar, Adilabad, Telangana 504001",Vidya Nagar,"MGFH+M8P, NH 44",Adilabad,504001,Telangana,IN,https://www.google.com/maps/place/Mohammadia+Masjid/data=!4m7!3m6!1s0x3bd25c7892a2eb3b:0x89c3b0daf8ff360!8m2!3d19.6742243!4d78.5283275!16s%2Fg%2F1tjz1t_5!19sChIJO-uiknhc0jsRYPOPrw07nAg?authuser=0&hl=en&rclk=1,"19.6742243,78.5283275"
Masjid_E_Quba,Mosque,"Masjid_E_Quba, 2-5-216, beside Masjid E Quba Khila, Mohalla Badh, Adilabad, Telangana 504001",Mohalla Badh,"2-5-216, beside Masjid E Quba Khila",Adilabad,504001,Telangana,IN,https://www.google.com/maps/place/Masjid_E_Quba/data=!4m7!3m6!1s0x3bd25bedeaaaaaab:0xe29f9a411d92289b!8m2!3d19.6793188!4d78.5406475!16s%2Fg%2F11bwkvtnj8!19sChIJq6qq6u1b0jsRmyiSHUGan-I?authuser=0&hl=en&rclk=1,"19.6793188,78.54064749999999"
Masjid-e-Huda,Mosque,"Masjid-e-Huda, opp. Bus Stand, Asifabad, Telangana 504293",,opp. Bus Stand,Asifabad,,Telangana,IN,https://www.google.com/maps/place/Masjid-e-Huda/data=!4m7!3m6!1s0x3bd2ac1c5f823685:0x442868b52a3ced5e!8m2!3d19.3620003!4d79.2942735!16s%2Fg%2F11bw7cz2mz!19sChIJhTaCXxys0jsRXu08KrVoKEQ?authuser=0&hl=en&rclk=1,"19.3620003,79.2942735"
Masjid-e-Meraj,Mosque,"Masjid-e-Meraj, Police lane, Sanjay Nagar, Adilabad, Bhattisavargaon, Telangana 504001",Sanjay Nagar,Police lane,"Adilabad, Bhattisavargaon",504001,Telangana,IN,https://www.google.com/maps/place/Masjid-e-Meraj/data=!4m7!3m6!1s0x3bd25c80a40634d7:0x99b706696d47a613!8m2!3d19.6674917!4d78.5163997!16s%2Fg%2F1tr7b846!19sChIJ1zQGpIBc0jsRE6ZHbWkGt5k?authuser=0&hl=en&rclk=1,"19.6674917,78.5163997"
Masjid E Abubaker,Mosque,"MG8V+54F Masjid E Abubaker, Shanti Nagar, Adilabad, Telangana 504001",Shanti Nagar,MG8V+54F,Adilabad,504001,Telangana,IN,https://www.google.com/maps/place/Masjid+E+Abubaker/data=!4m7!3m6!1s0x3bd25c72afd994d1:0x55e84f035f33b282!8m2!3d19.6654385!4d78.542794!16s%2Fg%2F11c1wsmygw!19sChIJ0ZTZr3Jc0jsRgrIzXwNP6FU?authuser=0&hl=en&rclk=1,"19.6654385,78.542794"
Masjid E Arafath,Mosque,"MG9W+PJJ Masjid E Arafath, arfath nagar, Adilabad, Telangana 504001",arfath nagar,MG9W+PJJ,Adilabad,504001,Telangana,IN,https://www.google.com/maps/place/Masjid+E+Arafath/data=!4m7!3m6!1s0x3bd25c0c5e111929:0x778ec5e1e693b913!8m2!3d19.6693375!4d78.5465156!16s%2Fg%2F11dxl2lpw0!19sChIJKRkRXgxc0jsRE7mT5uHFjnc?authuser=0&hl=en&rclk=1,"19.669337499999997,78.54651559999999"
Madina Masjid mdynh msjd,Mosque,"MGCJ+GX8 Madina Masjid mdynh msjd, Netaji Chowk Rd, Ponnar, Bhuktapur, Telangana 504001",Ponnar,"MGCJ+GX8, Netaji Chowk Rd",Bhuktapur,504001,Telangana,IN,https://www.google.com/maps/place/Madina+Masjid+%D9%85%D8%AF%DB%8C%D9%86%DB%81+%D9%85%D8%B3%D8%AC%D8%AF%E2%80%AD/data=!4m7!3m6!1s0x3bd25c7742dd0b05:0xf2fb259a889bfa78!8m2!3d19.6712846!4d78.5324561!16s%2Fg%2F11fzzxxq7l!19sChIJBQvdQndc0jsRePqbiJol-_I?authuser=0&hl=en&rclk=1,"19.6712846,78.53245609999999"
Muhammadiya Masjid,Mosque,"MG29+X76 Muhammadiya Masjid, Ramnagar Colony, Adilabad, Telangana 504001",Ramnagar Colony,MG29+X76,Adilabad,504001,Telangana,IN,https://www.google.com/maps/place/Muhammadiya+Masjid/data=!4m7!3m6!1s0x3bd25c8ad95e1f51:0xc9001b8ca6d7fd64!8m2!3d19.6524043!4d78.5181462!16s%2Fg%2F11cn7qqr7d!19sChIJUR9e2Ypc0jsRZP3XpowbAMk?authuser=0&hl=en&rclk=1,"19.6524043,78.51814619999999"
Abubakr masjid,Mosque,"MG8R+J7F Abubakr masjid, Shanti Nagar, Adilabad, Telangana 504001",Shanti Nagar,MG8R+J7F,Adilabad,504001,Telangana,IN,https://www.google.com/maps/place/Abubakr+masjid/data=!4m7!3m6!1s0x3bd25c72f6f46bc9:0xcd16458f413f5d2e!8m2!3d19.6665675!4d78.5406681!16s%2Fg%2F11c607nzf4!19sChIJyWv09nJc0jsRLl0_QY9FFs0?authuser=0&hl=en&rclk=1,"19.6665675,78.54066809999999"
Fathima Masjid,Mosque,"MGFF+676 Fathima Masjid, Sanjay Nagar, Adilabad, Telangana 504001",Sanjay Nagar,MGFF+676,Adilabad,504001,Telangana,IN,https://www.google.com/maps/place/Fathima+Masjid/data=!4m7!3m6!1s0x3bd25c7fa619132f:0x3fc5279c8cd8c162!8m2!3d19.6730467!4d78.5231404!16s%2Fg%2F11g65c9p2q!19sChIJLxMZpn9c0jsRYsHYjJwnxT8?authuser=0&hl=en&rclk=1,"19.6730467,78.5231404"
MASJID-E-Bilal,Mosque,"MGHQ+H25 MASJID-E-Bilal, Adilabad - Nagpur Rd, Panjesha, Adilabad, Telangana 504001",Panjesha,"MGHQ+H25, Adilabad - Nagpur Rd",Adilabad,504001,Telangana,IN,https://www.google.com/maps/place/MASJID-E-Bilal/data=!4m7!3m6!1s0x3bd25b89846e6659:0x31ee36077b20474f!8m2!3d19.6788851!4d78.5375982!16s%2Fg%2F11gclzc6pn!19sChIJWWZuhIlb0jsRT0cgewc27jE?authuser=0&hl=en&rclk=1,"19.6788851,78.53759819999999"
Masjid E Hassan,Mosque,"MG8V+QPM Masjid E Hassan, Unnamed Road, Shanti Nagar, Adilabad, Telangana 504001",Shanti Nagar,"MG8V+QPM, Unnamed Road",Adilabad,504001,Telangana,IN,https://www.google.com/maps/place/Masjid+E+Hassan/data=!4m7!3m6!1s0x3bd25c0d29000079:0xa0cc092090b96993!8m2!3d19.6669651!4d78.5443022!16s%2Fg%2F11dfk_8lt4!19sChIJeQAAKQ1c0jsRk2m5kCAJzKA?authuser=0&hl=en&rclk=1,"19.6669651,78.54430219999999"
MASJID E MAHEBOOB E SUBHANI ( Markaz e Ahle Sunnat ),Mosque,"MASJID E MAHEBOOB E SUBHANI ( Markaz e Ahle Sunnat ), Sanjay Nagar, Adilabad, Telangana 504001",Sanjay Nagar,,Adilabad,504001,Telangana,IN,https://www.google.com/maps/place/MASJID+E+MAHEBOOB+E+SUBHANI+%28+Markaz+e+Ahle+Sunnat+%29/data=!4m7!3m6!1s0x3bd25c7cd0000001:0xe56e990e56fe962c!8m2!3d19.6669356!4d78.5213162!16s%2Fg%2F11c2kk77hk!19sChIJAQAA0Hxc0jsRLJb-Vg6ZbuU?authuser=0&hl=en&rclk=1,"19.6669356,78.5213162"
Masjid,Mosque,"HFPR+4Q8 Masjid, Adilabad, Telangana 504308",,HFPR+4Q8,Adilabad,504308,Telangana,IN,https://www.google.com/maps/place/Masjid/data=!4m7!3m6!1s0x3bd25d5bfe1eb429:0x753a217332ff9baa!8m2!3d19.5852914!4d78.4919588!16s%2Fg%2F11dxq2d28t!19sChIJKbQe_ltd0jsRqpv_MnMhOnU?authuser=0&hl=en&rclk=1,"19.5852914,78.49195879999999"
Masjid Badar,Mosque,"MG8C+44M Masjid Badar, Rickshaw Colony, Adilabad, Telangana 504001",Rickshaw Colony,MG8C+44M,Adilabad,504001,Telangana,IN,https://www.google.com/maps/place/Masjid+Badar/data=!4m7!3m6!1s0x3bd25c878e7870c1:0x8e24c92e23dce198!8m2!3d19.6653455!4d78.5202985!16s%2Fg%2F11bbrlytdq!19sChIJwXB4jodc0jsRmOHcIy7JJI4?authuser=0&hl=en&rclk=1,"19.6653455,78.5202985"
ILAHIYA MASJID,Mosque,"MGMH+97P ILAHIYA MASJID, Indira Nagar Rd, Bhagya Nagar, Adilabad, Telangana 504001",Bhagya Nagar,"MGMH+97P, Indira Nagar Rd",Adilabad,504001,Telangana,IN,https://www.google.com/maps/place/ILAHIYA+MASJID/data=!4m7!3m6!1s0x3bd25b8444ebd13f:0xe27cf6a1114241d4!8m2!3d19.6834654!4d78.5282048!16s%2Fg%2F11fzfhsmc2!19sChIJP9HrRIRb0jsR1EFCEaH2fOI?authuser=0&hl=en&rclk=1,"19.6834654,78.5282048"
Masjid e Bilala,Mosque,"Masjid e Bilala, Adilabad-Asifabad Rd, Jainoor, Telangana 504313",,Adilabad-Asifabad Rd,Jainoor,504313,Telangana,IN,https://www.google.com/maps/place/Masjid+e+Bilala/data=!4m7!3m6!1s0x3bd29bb7204a9e0f:0x706dab2553f72b79!8m2!3d19.3750134!4d78.9120455!16s%2Fg%2F11f6qq3rwz!19sChIJD55KILeb0jsReSv3UyWrbXA?authuser=0&hl=en&rclk=1,"19.3750134,78.91204549999999"
masjid e noor,Mosque,"MG4Q+H92 masjid e noor, Sri Rama Colony, Adilabad, Telangana 504001",Sri Rama Colony,MG4Q+H92,Adilabad,504001,Telangana,IN,https://www.google.com/maps/place/masjid+e+noor/data=!4m7!3m6!1s0x3bd25c6bd009a42f:0x83777eaad70e454d!8m2!3d19.6563983!4d78.5384053!16s%2Fg%2F11c5t1smfj!19sChIJL6QJ0Gtc0jsRTUUO16p-d4M?authuser=0&hl=en&rclk=1,"19.6563983,78.5384053"
Masjid-e-hanfia,Mosque,"MGPM+2C4 Masjid-e-hanfia, Kranti Nagar, Gandhi Nagar, Adilabad, Telangana 504001","Kranti Nagar, Gandhi Nagar",MGPM+2C4,Adilabad,504001,Telangana,IN,https://www.google.com/maps/place/Masjid-e-hanfia/data=!4m7!3m6!1s0x3bd25b8fa218f2e1:0x18f2829bdf51eaf4!8m2!3d19.6850231!4d78.5335857!16s%2Fg%2F11dd_qtmkm!19sChIJ4fIYoo9b0jsR9OpR35uC8hg?authuser=0&hl=en&rclk=1,"19.6850231,78.5335857"
Khanka E Mohammadi,Mosque,"MGJV+P72 Khanka E Mohammadi, Tirupally, Adilabad, Telangana 504001",Tirupally,MGJV+P72,Adilabad,504001,Telangana,IN,https://www.google.com/maps/place/Khanka+E+Mohammadi/data=!4m7!3m6!1s0x3bd25bd22744411f:0x22b8cbaf2829e2c7!8m2!3d19.6817626!4d78.5431504!16s%2Fg%2F11g1rbmtkk!19sChIJH0FEJ9Jb0jsRx-IpKK_LuCI?authuser=0&hl=en&rclk=1,"19.6817626,78.5431504"
Masjid-E- Rahimaniya,Mosque,"MGRR+5G5 Masjid-E- Rahimaniya, Tirupally, Adilabad, Telangana 504001",Tirupally,MGRR+5G5,Adilabad,504001,Telangana,IN,https://www.google.com/maps/place/Masjid-E-+Rahimaniya/data=!4m7!3m6!1s0x3bd25ba3e27d5519:0x3ff2f3403e845bff!8m2!3d19.6903884!4d78.5413572!16s%2Fg%2F11gmblynz2!19sChIJGVV94qNb0jsR_1uEPkDz8j8?authuser=0&hl=en&rclk=1,"19.6903884,78.5413572"
Masjid E IBrahimiya,Mosque,"Masjid E IBrahimiya, Shanti Nagar, Adilabad, Telangana 504001",Shanti Nagar,,Adilabad,504001,Telangana,IN,https://www.google.com/maps/place/Masjid+E+IBrahimiya/data=!4m7!3m6!1s0x3bd25d44b0027dc7:0x5b9c582e308fceb0!8m2!3d19.6688451!4d78.5432386!16s%2Fg%2F11flbsbk92!19sChIJx30CsERd0jsRsM6PMC5YnFs?authuser=0&hl=en&rclk=1,"19.6688451,78.5432386"
Masjid e Noorani,Mosque,"MGMQ+P66 Masjid e Noorani, Mahalaxmiwada, Adilabad, Telangana 504001",Mahalaxmiwada,MGMQ+P66,Adilabad,504001,Telangana,IN,https://www.google.com/maps/place/Masjid+e+Noorani/data=!4m7!3m6!1s0x3bd25b71656d7da1:0x9db65c4943296ea6!8m2!3d19.6842802!4d78.5380187!16s%2Fg%2F11gphd3bdg!19sChIJoX1tZXFb0jsRpm4pQ0lctp0?authuser=0&hl=en&rclk=1,"19.6842802,78.5380187"
Masjid e Raza,Mosque,"MG9V+JPV Masjid e Raza, Shanti Nagar, Adilabad, Telangana 504001",Shanti Nagar,MG9V+JPV,Adilabad,504001,Telangana,IN,https://www.google.com/maps/place/Masjid+e+Raza/data=!4m7!3m6!1s0x3bd25d7fcd7b7ccd:0xe8779b7a8f75f499!8m2!3d19.6691213!4d78.5442846!16s%2Fg%2F11kh3x29df!19sChIJzXx7zX9d0jsRmfR1j3qbd-g?authuser=0&hl=en&rclk=1,"19.6691213,78.5442846"
Masjid-E-Aqsa,Mosque,"Masjid-E-Aqsa, Masjid-E-Aqsa Khanapur, Ambedkar Nagar, Khanapur, Telangana 504001",Ambedkar Nagar,Masjid-E-Aqsa Khanapur,Khanapur,504001,Telangana,IN,https://www.google.com/maps/place/Masjid-E-Aqsa/data=!4m7!3m6!1s0x3bd25dcc44670e61:0x730f194bf8b6847d!8m2!3d19.6716338!4d78.5448989!16s%2Fg%2F11j07wlncw!19sChIJYQ5nRMxd0jsRfYS2-EsZD3M?authuser=0&hl=en&rclk=1,"19.6716338,78.54489889999999"
Masjid-E-Zohra,Mosque,"Masjid-E-Zohra, Masjid-E- Zohra, Ambedkar Nagar, Khanapur, Telangana 504001",Ambedkar Nagar,Masjid-E- Zohra,Khanapur,504001,Telangana,IN,https://www.google.com/maps/place/Masjid-E-Zohra/data=!4m7!3m6!1s0x3bd25dbaced23b33:0xe16af2c30b24656!8m2!3d19.6729258!4d78.5447961!16s%2Fg%2F11j000cqb1!19sChIJMzvSzrpd0jsRVkayMCyvFg4?authuser=0&hl=en&rclk=1,"19.672925799999998,78.5447961"
Masjid-e- Amina,Mosque,"MGFR+G3G Masjid-e- Amina, Brahmanwadi, Adilabad, Telangana 504001",Brahmanwadi,MGFR+G3G,Adilabad,504001,Telangana,IN,https://www.google.com/maps/place/Masjid-e-+Amina/data=!4m7!3m6!1s0x3bd25ddc88f570b9:0x22cb1f0c107c4bc6!8m2!3d19.6738162!4d78.5401916!16s%2Fg%2F11k7xv923r!19sChIJuXD1iNxd0jsRxkt8EAwfyyI?authuser=0&hl=en&rclk=1,"19.673816199999997,78.5401916"
MASJID E IBRAHIMIA,Mosque,"MASJID E IBRAHIMIA, 2-5-275/1, tirpally, Adilabad, Telangana 504001",tirpally,2-5-275/1,Adilabad,504001,Telangana,IN,https://www.google.com/maps/place/MASJID+E+IBRAHIMIA/data=!4m7!3m6!1s0x3bd25b8b6628a527:0x550e60c0cd80575a!8m2!3d19.6814941!4d78.5416637!16s%2Fg%2F11f15jwjc0!19sChIJJ6UoZotb0jsRWleAzcBgDlU?authuser=0&hl=en&rclk=1,"19.6814941,78.5416637"
Masjid e Afsana,Mosque,"JGRP+7WM Masjid e Afsana, KRK Rd, KRK Colony, Khoja Colony, Adilabad, Telangana 504001","KRK Colony, Khoja Colony","JGRP+7WM, KRK Rd",Adilabad,504001,Telangana,IN,https://www.google.com/maps/place/Masjid+e+Afsana/data=!4m7!3m6!1s0x3bd25d5d2e428473:0xd94d955bdaa63bd4!8m2!3d19.6407052!4d78.5372911!16s%2Fg%2F11t4wlk9cp!19sChIJc4RCLl1d0jsR1Dum2luVTdk?authuser=0&hl=en&rclk=1,"19.6407052,78.53729109999999"
Masjid-E-Kausar,Mosque,"MG8Q+6M8 Masjid-E-Kausar, Shanti Nagar, Adilabad, Telangana 504001",Shanti Nagar,MG8Q+6M8,Adilabad,504001,Telangana,IN,https://www.google.com/maps/place/Masjid-E-Kausar/data=!4m7!3m6!1s0x3bd25c726cbfffff:0xdcc8a30755b4260c!8m2!3d19.6655322!4d78.5391992!16s%2Fg%2F11txmzh9h_!19sChIJ__-_bHJc0jsRDCa0VQejyNw?authuser=0&hl=en&rclk=1,"19.665532199999998,78.5391992"
Makkah Masjid,Mosque,"JGVP+75 Makkah Masjid, Khoja Colony, Adilabad, Telangana 504001",Khoja Colony,JGVP+75,Adilabad,504001,Telangana,IN,https://www.google.com/maps/place/Makkah+Masjid/data=!4m7!3m6!1s0x3bd25d02ee832577:0x98776ac946be5479!8m2!3d19.6431637!4d78.5353692!16s%2Fg%2F11r_wlfhm2!19sChIJdyWD7gJd0jsReVS-Rslqd5g?authuser=0&hl=en&rclk=1,"19.6431637,78.53536919999999"
Masjid-E-ibraheem bin abbas,Mosque,"MGGX+2JV Masjid-E-ibraheem bin abbas, Ambedkar Nagar, Adilabad, Telangana 504001",Ambedkar Nagar,MGGX+2JV,Adilabad,504001,Telangana,IN,https://www.google.com/maps/place/Masjid-E-ibraheem+bin+abbas/data=!4m7!3m6!1s0x3bd25dca817e57db:0x80929612f281e68c!8m2!3d19.6751132!4d78.5490388!16s%2Fg%2F11jz2dzlg7!19sChIJ21d-gcpd0jsRjOaB8hKWkoA?authuser=0&hl=en&rclk=1,"19.6751132,78.54903879999999"
KHANKHA E MOHAMMADI ADILABAD,Mosque,"MG7H+84G KHANKHA E MOHAMMADI ADILABAD, Adilabad Main Rd, Satnala Quarters, chaitanyapuri, Adilabad, Telangana 504001","Satnala Quarters, chaitanyapuri","MG7H+84G, Adilabad Main Rd",Adilabad,504001,Telangana,IN,https://www.google.com/maps/place/KHANKHA+E+MOHAMMADI+ADILABAD/data=!4m7!3m6!1s0x3bd25d7de627a569:0x4868af4429eca682!8m2!3d19.6633136!4d78.5278399!16s%2Fg%2F11nxrkqmlw!19sChIJaaUn5n1d0jsRgqbsKUSvaEg?authuser=0&hl=en&rclk=1,"19.6633136,78.52783989999999"
