name,main_category,address,address_ward,address_street,address_city,address_postal_code,address_state,address_country_code,link,coordinates
Bhagoli Masjid Ahle Hadees,Mosque,"Bhagoli Masjid Ahle Hadees, Ghoda, Nakhas Rd, Manhari, Farrukhabad, Uttar Pradesh 209625",Manhari,"Ghoda, Nakhas Rd",Farrukhabad,209625,Uttar Pradesh,IN,https://www.google.com/maps/place/Bhagoli+Masjid+Ahle+Hadees/data=!4m7!3m6!1s0x399e312d8fd1f78f:0x7cb4678f72c8edf6!8m2!3d27.3972102!4d79.5876874!16s%2Fg%2F11f9zg6tzr!19sChIJj_fRjy0xnjkR9u3Ico9ntHw?authuser=0&hl=en&rclk=1,"27.3972102,79.5876874"
Ansari India Art,Handicraft,"Ansari India Art, 2/14 Garhi khan khana, Unchi minar masjid, Manihari St, Uttar Pradesh 209625",Manhari,"2/14 Garhi khan khana, Unchi minar masjid, Manihari St",Farrukhabad,209625,Uttar Pradesh,IN,https://www.google.com/maps/place/Ansari+India+Art/data=!4m7!3m6!1s0x399e313a4f593c19:0xbaf877e187acda68!8m2!3d27.3964074!4d79.5869942!16s%2Fg%2F11s893n8g3!19sChIJGTxZTzoxnjkRaNqsh-F3-Lo?authuser=0&hl=en&rclk=1,"27.396407399999998,79.58699419999999"
Ek Minara Masjid,Mosque,"9HWP+8QC Ek Minara Masjid, Manihari St, Manhari, Farrukhabad, Uttar Pradesh 209625",Manhari,"9HWP+8QC, Manihari St",Farrukhabad,209625,Uttar Pradesh,IN,https://www.google.com/maps/place/Ek+Minara+Masjid/data=!4m7!3m6!1s0x399e31b4ed712bcd:0x3fce3c4ad7ac2f2c!8m2!3d27.39581!4d79.58688!16s%2Fg%2F11dxbkldmk!19sChIJzStx7bQxnjkRLC-s10o8zj8?authuser=0&hl=en&rclk=1,"27.395809999999997,79.58688"
Masjid Rani Sahib,Mosque,"9HVG+G99 Masjid Rani Sahib, Bhikampura, Farrukhabad, Uttar Pradesh 209625",Bhikampura,9HVG+G99,Farrukhabad,209625,Uttar Pradesh,IN,https://www.google.com/maps/place/Masjid+Rani+Sahib/data=!4m7!3m6!1s0x399e31ccb9017989:0xbbcfa0c022470c4f!8m2!3d27.3937761!4d79.575985!16s%2Fg%2F11dxdmrdpd!19sChIJiXkBucwxnjkRTwxHIsCgz7s?authuser=0&hl=en&rclk=1,"27.3937761,79.575985"
Masjid Anjuman,Mosque,"Masjid Anjuman, Mufti Saheb Market, Nehru Rd, Farrukhabad, Uttar Pradesh 209625",,"Mufti Saheb Market, Nehru Rd",Farrukhabad,,Uttar Pradesh,IN,https://www.google.com/maps/place/Masjid+Anjuman/data=!4m7!3m6!1s0x399e304a167462fd:0xbbb3268d34963b0b!8m2!3d27.3887448!4d79.5841241!16s%2Fg%2F11b6sw1myh!19sChIJ_WJ0FkownjkRCzuWNI0ms7s?authuser=0&hl=en&rclk=1,"27.388744799999998,79.5841241"
Dargah Hussainiya Mujibiya,Mosque,"9HWG+V84 Dargah Hussainiya Mujibiya, Sufi khan, Farrukhabad, Uttar Pradesh 209625",Bhikampura,"9HWG+V84, Sufi khan",Farrukhabad,209625,Uttar Pradesh,IN,https://www.google.com/maps/place/Dargah+Hussainiya+Mujibiya/data=!4m7!3m6!1s0x399e31cc6aa28917:0xd1b23c20eacf92df!8m2!3d27.3971419!4d79.5758369!16s%2Fg%2F11c58v3_vt!19sChIJF4miaswxnjkR35LP6iA8stE?authuser=0&hl=en&rclk=1,"27.397141899999998,79.5758369"
Aamwaali Masjid Ahlesunnah Hanafi Barelvi,Mosque,"Aamwaali Masjid Ahlesunnah Hanafi Barelvi, khatakpura siddiqui, Manhari, Farrukhabad, Uttar Pradesh 209625",Manhari,khatakpura siddiqui,Farrukhabad,,Uttar Pradesh,IN,https://www.google.com/maps/place/Aamwaali+Masjid+Ahlesunnah+Hanafi+Barelvi/data=!4m7!3m6!1s0x399e304b7112b563:0xf9a90b6521c66caf!8m2!3d27.3913238!4d79.5874718!16s%2Fg%2F11g8wr1wc_!19sChIJY7UScUswnjkRr2zGIWULqfk?authuser=0&hl=en&rclk=1,"27.3913238,79.5874718"
Loharo Wali Masjid Sunni,Mosque,"Loharo Wali Masjid Sunni, Major District Road 110W, Manhari, Farrukhabad, Uttar Pradesh 209625",Manhari,Major District Road 110W,Farrukhabad,209625,Uttar Pradesh,IN,https://www.google.com/maps/place/Loharo+Wali+Masjid+Sunni/data=!4m7!3m6!1s0x399e30495e21ef29:0x32ceb1f791862d90!8m2!3d27.3876261!4d79.5870504!16s%2Fg%2F124yfq04c!19sChIJKe8hXkkwnjkRkC2GkfexzjI?authuser=0&hl=en&rclk=1,"27.3876261,79.5870504"
Jama Masjid Deobandi City,Mosque,"9HQJ+VJM Jama Masjid Deobandi City, Nehru Rd, Farrukhabad, Uttar Pradesh 209625",,"9HQJ+VJM, Nehru Rd",Farrukhabad,209625,Uttar Pradesh,IN,https://www.google.com/maps/place/Jama+Masjid+Deobandi+City/data=!4m7!3m6!1s0x399e304b041a1953:0x3cf48d1e1a63dd1e!8m2!3d27.3897142!4d79.5815472!16s%2Fg%2F11f3jklpgk!19sChIJUxkaBEswnjkRHt1jGh6N9Dw?authuser=0&hl=en&rclk=1,"27.3897142,79.5815472"
Umar Bin Khattab Masjid,Mosque,"9HXJ+7P2 Umar Bin Khattab Masjid, Katra boo Ali Khan, Uttar Pradesh 209625",Bhikampura,"9HXJ+7P2, Katra boo Ali Khan",Farrukhabad,209625,Uttar Pradesh,IN,https://www.google.com/maps/place/Umar+Bin+Khattab+Masjid/data=!4m7!3m6!1s0x399e31ca114dd179:0x5051021dc9627582!8m2!3d27.3981473!4d79.5817811!16s%2Fg%2F11d_739b9c!19sChIJedFNEcoxnjkRgnViyR0CUVA?authuser=0&hl=en&rclk=1,"27.398147299999998,79.5817811"
Moti Masjid Ghumna Bazar,Mosque,"9HQJ+MWW Moti Masjid Ghumna Bazar, Ghumna Bazar, Farrukhabad, Uttar Pradesh 209625",Ghumna Bazar,9HQJ+MWW,Farrukhabad,209625,Uttar Pradesh,IN,https://www.google.com/maps/place/Moti+Masjid+Ghumna+Bazar/data=!4m7!3m6!1s0x399e304a748394bd:0x5de233cdd63ecd07!8m2!3d27.3892307!4d79.5823344!16s%2Fg%2F11gf5wh1yf!19sChIJvZSDdEownjkRB80-1s0z4l0?authuser=0&hl=en&rclk=1,"27.3892307,79.5823344"
Dargah,Mosque,"9HXG+4RH Dargah, CHOTE-BARHE SAHAB KI MAJAR, Farrukhabad, Uttar Pradesh 209625",Bhikampura,"9HXG+4RH, CHOTE-BARHE SAHAB KI MAJAR",Farrukhabad,209625,Uttar Pradesh,IN,https://www.google.com/maps/place/Dargah/data=!4m7!3m6!1s0x399e31cc099bbda5:0xd66b66e2d19c1433!8m2!3d27.3978121!4d79.577094!16s%2Fg%2F11g6mtpbtg!19sChIJpb2bCcwxnjkRMxSc0eJma9Y?authuser=0&hl=en&rclk=1,"27.3978121,79.577094"
Khanquah E Nooria,Mosque,"9HP6+4XR Khanquah E Nooria, Nangla Khairband, Farrukhabad, Uttar Pradesh 209625",Nangla Khairband,9HP6+4XR,Farrukhabad,209625,Uttar Pradesh,IN,https://www.google.com/maps/place/Khanquah+E+Nooria/data=!4m7!3m6!1s0x399e30298fe94237:0x98f10c231b3daf31!8m2!3d27.385362!4d79.5623851!16s%2Fg%2F11c550dt45!19sChIJN0LpjykwnjkRMa89GyMM8Zg?authuser=0&hl=en&rclk=1,"27.385361999999997,79.5623851"
Gupta Jan Sewa Kendra,Internet cafe,"Gupta Jan Sewa Kendra, 00, Khatakpura, Uttar Pradesh 209625",Manhari,"00, Khatakpura",Farrukhabad,209625,Uttar Pradesh,IN,https://www.google.com/maps/place/Gupta+Jan+Sewa+Kendra/data=!4m7!3m6!1s0x399e310af7e832cf:0x2da3d720ea49b6b3!8m2!3d27.3913183!4d79.5872286!16s%2Fg%2F11jzbt996q!19sChIJzzLo9woxnjkRs7ZJ6iDXoy0?authuser=0&hl=en&rclk=1,"27.3913183,79.5872286"
Masjid Ahle Hadees,Corporate office,"9HWQ+V2P Masjid Ahle Hadees, Nakhas Rd, Manhari, Farrukhabad, Uttar Pradesh 209625",Manhari,"9HWQ+V2P, Nakhas Rd",Farrukhabad,209625,Uttar Pradesh,IN,https://www.google.com/maps/place/Masjid+Ahle+Hadees/data=!4m7!3m6!1s0x399e31b46503c5bf:0x82c7ac7d6f95bf10!8m2!3d27.3972208!4d79.5875868!16s%2Fg%2F11f53hb866!19sChIJv8UDZbQxnjkREL-Vb32sx4I?authuser=0&hl=en&rclk=1,"27.3972208,79.5875868"
Masjid Fazle Rehmani,Mosque,"9HXP+2QQ Masjid Fazle Rehmani, Nakhas Rd, Bhikampura, Farrukhabad, Uttar Pradesh 209625",Bhikampura,"9HXP+2QQ, Nakhas Rd",Farrukhabad,209625,Uttar Pradesh,IN,https://www.google.com/maps/place/Masjid+Fazle+Rehmani/data=!4m7!3m6!1s0x399e31b4652a1591:0x9119d9b0fdde2d14!8m2!3d27.397578!4d79.5869843!16s%2Fg%2F11hbln924m!19sChIJkRUqZbQxnjkRFC3e_bDZGZE?authuser=0&hl=en&rclk=1,"27.397578,79.5869843"
Masjid Shamsherkhani,Mosque,"9HV9+39G Masjid Shamsherkhani, Bhikampura, Farrukhabad, Uttar Pradesh 209625",Bhikampura,9HV9+39G,Farrukhabad,209625,Uttar Pradesh,IN,https://www.google.com/maps/place/Masjid+Shamsherkhani/data=!4m7!3m6!1s0x399e31d3295799dd:0x587e506e14c6f306!8m2!3d27.3926773!4d79.568461!16s%2Fg%2F11hbt4kld9!19sChIJ3ZlXKdMxnjkRBvPGFG5Qflg?authuser=0&hl=en&rclk=1,"27.3926773,79.568461"
Barakhan Masjid,Mosque,"9HV8+H57 Barakhan Masjid, Bhikampura, Farrukhabad, Uttar Pradesh 209625",Bhikampura,9HV8+H57,Farrukhabad,209625,Uttar Pradesh,IN,https://www.google.com/maps/place/Barakhan+Masjid/data=!4m7!3m6!1s0x399e31d49a2bc9f1:0xe3d40369aeb2cb56!8m2!3d27.3939046!4d79.5654198!16s%2Fg%2F11dym65bml!19sChIJ8ckrmtQxnjkRVsuyrmkD1OM?authuser=0&hl=en&rclk=1,"27.3939046,79.5654198"
Gudri Masjid,Mosque,"9HQM+RCJ Gudri Masjid, Ghumna Bazar, Manhari, Farrukhabad, Uttar Pradesh 209625","Ghumna Bazar, Manhari",9HQM+RCJ,Farrukhabad,209625,Uttar Pradesh,IN,https://www.google.com/maps/place/Gudri+Masjid/data=!4m7!3m6!1s0x399e304a6e2805d3:0x6733ac4097c79957!8m2!3d27.3895802!4d79.5835248!16s%2Fg%2F124sqstxw!19sChIJ0wUobkownjkRV5nHl0CsM2c?authuser=0&hl=en&rclk=1,"27.389580199999997,79.58352479999999"
Hamza Masjid,Mosque,"Hamza Masjid, Chhawni Street, ITI, Farrukhabad, Uttar Pradesh 209625",ITI,Chhawni Street,Farrukhabad,209625,Uttar Pradesh,IN,https://www.google.com/maps/place/Hamza+Masjid/data=!4m7!3m6!1s0x399e31bccaca9177:0xa59fed7af2101f2d!8m2!3d27.3825853!4d79.5840195!16s%2Fg%2F11f66tyr2_!19sChIJd5HKyrwxnjkRLR8Q8nrtn6U?authuser=0&hl=en&rclk=1,"27.3825853,79.5840195"
Madina Masjid,Mosque,"Madina Masjid, police chauki, Nakhas Rd, near pulia, Manhari, Farrukhabad, Uttar Pradesh 209625",Manhari,"police chauki, Nakhas Rd, near pulia",Farrukhabad,209625,Uttar Pradesh,IN,https://www.google.com/maps/place/Madina+Masjid/data=!4m7!3m6!1s0x399e31224da0d0a5:0x8ff21eb21a3b0774!8m2!3d27.3950692!4d79.589284!16s%2Fg%2F11ghz8x88p!19sChIJpdCgTSIxnjkRdAc7GrIe8o8?authuser=0&hl=en&rclk=1,"27.3950692,79.58928399999999"
Dargah Hazrat Daola Shah Wali rah.,Mosque,"9HQF+V4C Dargah Hazrat Daola Shah Wali rah., Bazaria Nihal Chand, Farrukhabad, Uttar Pradesh 209625",Bazaria Nihal Chand,9HQF+V4C,Farrukhabad,209625,Uttar Pradesh,IN,https://www.google.com/maps/place/Dargah+Hazrat+Daola+Shah+Wali+rah./data=!4m7!3m6!1s0x399e303261dae4c7:0x882ec322aba2a738!8m2!3d27.389688!4d79.5727582!16s%2Fg%2F11g6bjws_7!19sChIJx-TaYTIwnjkROKeiqyLDLog?authuser=0&hl=en&rclk=1,"27.389688,79.5727582"
Masjid,Mosque,"9HQ7+FRG Masjid, Bazaria Nihal Chand, Farrukhabad, Uttar Pradesh 209625",Bazaria Nihal Chand,9HQ7+FRG,Farrukhabad,209625,Uttar Pradesh,IN,https://www.google.com/maps/place/Masjid/data=!4m7!3m6!1s0x399e302b98a44ef5:0xa03cf38b694ead52!8m2!3d27.3886892!4d79.5645879!16s%2Fg%2F11ddx8713k!19sChIJ9U6kmCswnjkRUq1OaYvzPKA?authuser=0&hl=en&rclk=1,"27.388689199999998,79.56458789999999"
Beriyon Wali Masjid,Mosque,"9HR8+7X5 Beriyon Wali Masjid, Bazaria Nihal Chand, Farrukhabad, Uttar Pradesh 209625",Bazaria Nihal Chand,9HR8+7X5,Farrukhabad,209625,Uttar Pradesh,IN,https://www.google.com/maps/place/Beriyon+Wali+Masjid/data=!4m7!3m6!1s0x399e3194e286ff41:0x3780f4d5f005e12!8m2!3d27.39064!4d79.5674689!16s%2Fg%2F11f66qr8m8!19sChIJQf-G4pQxnjkREl4AX00PeAM?authuser=0&hl=en&rclk=1,"27.390639999999998,79.5674689"
Masjid Sheesh Mahal,Mosque,"9HW7+VC7 Masjid Sheesh Mahal, Bibi Ganj, Bhikampura, Kharbandi Bhikampur, Farrukhabad, Uttar Pradesh 209625",Bhikampura,"9HW7+VC7, Bibi Ganj","Kharbandi Bhikampur, Farrukhabad",209625,Uttar Pradesh,IN,https://www.google.com/maps/place/Masjid+Sheesh+Mahal/data=!4m7!3m6!1s0x399e31c51fe514b9:0xb2b786f94f5001f6!8m2!3d27.3971693!4d79.5635404!16s%2Fg%2F11h3qdkqt3!19sChIJuRTlH8UxnjkR9gFQT_mGt7I?authuser=0&hl=en&rclk=1,"27.397169299999998,79.5635404"
Madina Masjid,Mosque,"9HQ9+MWP Madina Masjid, Bazaria Nihal Chand, Farrukhabad, Uttar Pradesh 209625",Bazaria Nihal Chand,9HQ9+MWP,Farrukhabad,209625,Uttar Pradesh,IN,https://www.google.com/maps/place/Madina+Masjid/data=!4m7!3m6!1s0x399e302da6c03d31:0x26f6397d4c5edf4e!8m2!3d27.3892018!4d79.5698394!16s%2Fg%2F11cm0j3x3w!19sChIJMT3Api0wnjkRTt9eTH059iY?authuser=0&hl=en&rclk=1,"27.3892018,79.56983939999999"
Masjid Afzal Noor,Mosque,"Masjid Afzal Noor, 2/71, Nakhas Rd, Manhari, Farrukhabad, Uttar Pradesh 209625",Manhari,"2/71, Nakhas Rd",Farrukhabad,209625,Uttar Pradesh,IN,https://www.google.com/maps/place/Masjid+Afzal+Noor/data=!4m7!3m6!1s0x399e31b4502af761:0xeb4815fe4cd77d00!8m2!3d27.3972571!4d79.5861646!16s%2Fg%2F11f15mtgl6!19sChIJYfcqULQxnjkRAH3XTP4VSOs?authuser=0&hl=en&rclk=1,"27.397257099999997,79.58616459999999"
masjid habib baksh,Mosque,"9HQJ+H23 masjid habib baksh, Rastogi St, Rastogi Mohalla, Farrukhabad, Uttar Pradesh 209625",Rastogi Mohalla,"9HQJ+H23, Rastogi St",Farrukhabad,209625,Uttar Pradesh,IN,https://www.google.com/maps/place/masjid+habib+baksh/data=!4m7!3m6!1s0x399e3035b5492d69:0x55e4e5428c6a567b!8m2!3d27.3888888!4d79.5800403!16s%2Fg%2F11hblnw6nn!19sChIJaS1JtTUwnjkRe1ZqjELl5FU?authuser=0&hl=en&rclk=1,"27.3888888,79.5800403"
Madarsa Fazle Rehmani,Mosque,"9HVH+X28 Madarsa Fazle Rehmani, Chinigran, Farrukhabad, Uttar Pradesh 209625",Chinigran,9HVH+X28,Farrukhabad,209625,Uttar Pradesh,IN,https://www.google.com/maps/place/Madarsa+Fazle+Rehmani/data=!4m7!3m6!1s0x399e31f2f5292dd9:0x2554e7dd9d745166!8m2!3d27.394922!4d79.5775688!16s%2Fg%2F11gmvcyknk!19sChIJ2S0p9fIxnjkRZlF0nd3nVCU?authuser=0&hl=en&rclk=1,"27.394921999999998,79.5775688"
Kanshi Ram colony Wali Masjid,Mosque,"CH4H+F9J Kanshi Ram colony Wali Masjid, Rampur Daferpur, Uttar Pradesh 209625",,CH4H+F9J,Rampur Daferpur,209625,Uttar Pradesh,IN,https://www.google.com/maps/place/Kanshi+Ram+colony+Wali+Masjid/data=!4m7!3m6!1s0x399e316e0710089d:0x14d486305df8b51b!8m2!3d27.4062151!4d79.5783892!16s%2Fg%2F11mhglmqly!19sChIJnQgQB24xnjkRG7X4XTCG1BQ?authuser=0&hl=en&rclk=1,"27.406215099999997,79.57838919999999"
Masjid Jamadar,Mosque,"Masjid Jamadar, Maudarwaza, Bahadur Ganj Tarai, Farrukhabad - Aliganj Rd, Farrukhabad, Uttar Pradesh 209625",Bhikampura,"Maudarwaza, Bahadur Ganj Tarai, Farrukhabad - Aliganj Rd",Farrukhabad,209625,Uttar Pradesh,IN,https://www.google.com/maps/place/Masjid+Jamadar/data=!4m7!3m6!1s0x399e311f3b077b85:0x73e5635e319e7055!8m2!3d27.3961349!4d79.5684752!16s%2Fg%2F11h1m59t4j!19sChIJhXsHOx8xnjkRVXCeMV5j5XM?authuser=0&hl=en&rclk=1,"27.3961349,79.5684752"
shiishm vaalii msjid,Mosque,"shiishm vaalii msjid, Manhari, Farrukhabad, Uttar Pradesh 209625",Manhari,,Farrukhabad,209625,Uttar Pradesh,IN,https://www.google.com/maps/place/%E0%A4%B6%E0%A5%80%E0%A4%B6%E0%A4%AE+%E0%A4%B5%E0%A4%BE%E0%A4%B2%E0%A5%80+%E0%A4%AE%E0%A4%B8%E0%A5%8D%E0%A4%9C%E0%A4%BF%E0%A4%A6/data=!4m7!3m6!1s0x399e31c32060d05d:0xd27c7983d7618620!8m2!3d27.3920045!4d79.5873595!16s%2Fg%2F11fl0p41k8!19sChIJXdBgIMMxnjkRIIZh14N5fNI?authuser=0&hl=en&rclk=1,"27.3920045,79.58735949999999"
Mahel Vali Masjid,Mosque,"Mahel Vali Masjid, khairati khan, Bhikampura, Farrukhabad, Uttar Pradesh 209625",Bhikampura,khairati khan,Farrukhabad,209625,Uttar Pradesh,IN,https://www.google.com/maps/place/Mahel+Vali+Masjid/data=!4m7!3m6!1s0x399e31ca546e13f1:0x728929a60abf4a5f!8m2!3d27.3963297!4d79.580238!16s%2Fg%2F11g6mhz8g7!19sChIJ8RNuVMoxnjkRX0q_CqYpiXI?authuser=0&hl=en&rclk=1,"27.3963297,79.580238"
Masjid Nai Eidgah Deobandi,Mosque,"9HW5+WWW Masjid Nai Eidgah Deobandi, Bibi Ganj, Uttar Pradesh 209625",Bhikampura,"9HW5+WWW, Bibi Ganj","Naikpur Khurd, Farrukhabad",209625,Uttar Pradesh,IN,https://www.google.com/maps/place/Masjid+Nai+Eidgah+Deobandi/data=!4m7!3m6!1s0x399e2f4a06ddf8c3:0xac3d48a6c2c5f3b5!8m2!3d27.3973693!4d79.5598407!16s%2Fg%2F11h3qdjkb4!19sChIJw_jdBkovnjkRtfPFwqZIPaw?authuser=0&hl=en&rclk=1,"27.397369299999998,79.5598407"
Moti Masjid,Mosque,"9HRC+62P Moti Masjid, Hanuman Bagia, Bazaria Nihal Chand, Farrukhabad, Uttar Pradesh 209625","Hanuman Bagia, Bazaria Nihal Chand",9HRC+62P,Farrukhabad,209625,Uttar Pradesh,IN,https://www.google.com/maps/place/Moti+Masjid/data=!4m7!3m6!1s0x399e302d1350f2d5:0x2984f57b00b67151!8m2!3d27.3905894!4d79.5700879!16s%2Fg%2F11c5_bnr5m!19sChIJ1fJQEy0wnjkRUXG2AHv1hCk?authuser=0&hl=en&rclk=1,"27.3905894,79.57008789999999"
Masjid Noor e Rehmani,Mosque,"Masjid Noor e Rehmani, Near, Rehmania School Colony Road, Shahidganj Narayanda, Farrukhabad, Uttar Pradesh 209625",Shahidganj Narayanda,"Near, Rehmania School Colony Road",Farrukhabad,,Uttar Pradesh,IN,https://www.google.com/maps/place/Masjid+Noor+e+Rehmani/data=!4m7!3m6!1s0x399e31fbe99afe47:0x91b87b0ba6978d1b!8m2!3d27.3992214!4d79.5870044!16s%2Fg%2F11swr7b2yp!19sChIJR_6a6fsxnjkRG42Xpgt7uJE?authuser=0&hl=en&rclk=1,"27.3992214,79.5870044"
Masjid E Abu Hanifa,Mosque,"9HXP+RR7 Masjid E Abu Hanifa, Shahidganj Narayanda, Farrukhabad, Uttar Pradesh 209625",Shahidganj Narayanda,9HXP+RR7,Farrukhabad,209625,Uttar Pradesh,IN,https://www.google.com/maps/place/Masjid+E+Abu+Hanifa/data=!4m7!3m6!1s0x399e319b495bb9d7:0x78a9ba9855427e3b!8m2!3d27.3995495!4d79.5870485!16s%2Fg%2F11h1z1xbwj!19sChIJ17lbSZsxnjkRO35CVZi6qXg?authuser=0&hl=en&rclk=1,"27.3995495,79.5870485"
Karbala wali masjid,Mosque,"Karbala wali masjid, Karbala, Farukhabad Shamsabad Rd, Bhikampura, Farrukhabad, Rampur Daferpur, Uttar Pradesh 209625",Bhikampura,"Karbala, Farukhabad Shamsabad Rd","Farrukhabad, Rampur Daferpur",209625,Uttar Pradesh,IN,https://www.google.com/maps/place/Karbala+wali+masjid/data=!4m7!3m6!1s0x399e316b048d1529:0x31210448bef4a2a6!8m2!3d27.4043709!4d79.5732502!16s%2Fg%2F11fv3y26lm!19sChIJKRWNBGsxnjkRpqL0vkgEITE?authuser=0&hl=en&rclk=1,"27.4043709,79.57325019999999"
Masjid Molsari,Mosque,"9HWP+66G Masjid Molsari, Manhari, Farrukhabad, Uttar Pradesh 209625",Manhari,9HWP+66G,Farrukhabad,209625,Uttar Pradesh,IN,https://www.google.com/maps/place/Masjid+Molsari/data=!4m7!3m6!1s0x399e31e34deaea4f:0xa9a61f265a68ef23!8m2!3d27.3955633!4d79.5855896!16s%2Fg%2F11pws81n50!19sChIJT-rqTeMxnjkRI-9oWiYfpqk?authuser=0&hl=en&rclk=1,"27.3955633,79.58558959999999"
Masjid Zinnat,Mosque,"Masjid Zinnat, Town Hall, Bhikampura, Farrukhabad, Uttar Pradesh 209625",Bhikampura,Town Hall,Farrukhabad,209625,Uttar Pradesh,IN,https://www.google.com/maps/place/Masjid+Zinnat/data=!4m7!3m6!1s0x399e31fa9bf2d101:0x412ab434727be63f!8m2!3d27.3969716!4d79.5721673!16s%2Fg%2F11h7fnl0pm!19sChIJAdHym_oxnjkRP-Z7cjS0KkE?authuser=0&hl=en&rclk=1,"27.3969716,79.57216729999999"
Harsingar Masjid,Mosque,"9HWP+M49 Harsingar Masjid, Nakhas Rd, Manhari, Farrukhabad, Uttar Pradesh 209625",Manhari,"9HWP+M49, Nakhas Rd",Farrukhabad,209625,Uttar Pradesh,IN,https://www.google.com/maps/place/Harsingar+Masjid/data=!4m7!3m6!1s0x399e312bfeb366f3:0xf79f4f1eb9a4e3e5!8m2!3d27.3966552!4d79.5853596!16s%2Fg%2F11fcnl6gd3!19sChIJ82az_isxnjkR5eOkuR5Pn_c?authuser=0&hl=en&rclk=1,"27.396655199999998,79.58535959999999"
Madina Masjid mdynh msjd,Mosque,"9HMV+2JV Madina Masjid mdynh msjd, Chhawni Street, near by puliya, Farrukhabad",Awas Vikas Colony,"9HMV+2JV, Chhawni Street, near by puliya",Farrukhabad,,Uttar Pradesh,IN,https://www.google.com/maps/place/Madina+Masjid+%D9%85%D8%AF%DB%8C%D9%86%DB%81+%D9%85%D8%B3%D8%AC%D8%AF%E2%80%AD/data=!4m7!3m6!1s0x399e318d310780b9:0x74c39b8004ca6c16!8m2!3d27.3826126!4d79.5940544!16s%2Fg%2F11qh19pcm3!19sChIJuYAHMY0xnjkRFmzKBICbw3Q?authuser=0&hl=en&rclk=1,"27.382612599999998,79.59405439999999"
Masjid Kota Parcha,Mosque,"9HRJ+CMQ Masjid Kota Parcha, Khatrana St, Manhari, Farrukhabad, Uttar Pradesh 209625",Manhari,"9HRJ+CMQ, Khatrana St",Farrukhabad,209625,Uttar Pradesh,IN,https://www.google.com/maps/place/Masjid+Kota+Parcha/data=!4m7!3m6!1s0x399e30357189d42f:0xbe2105bc74c93fd2!8m2!3d27.3910823!4d79.5817484!16s%2Fg%2F124sq9sl3!19sChIJL9SJcTUwnjkR0j_JdLwFIb4?authuser=0&hl=en&rclk=1,"27.391082299999997,79.5817484"
Purani Eidgah Ahlesunnat Farrukhabad,Mosque,"CH33+G6X Purani Eidgah Ahlesunnat Farrukhabad, Arrapahadpur, Uttar Pradesh 209625",,CH33+G6X,Arrapahadpur,209625,Uttar Pradesh,IN,https://www.google.com/maps/place/Purani+Eidgah+Ahlesunnat+Farrukhabad/data=!4m7!3m6!1s0x399e2f7f7b49a98d:0xd6a2d9fd9d9696bf!8m2!3d27.4038697!4d79.5531033!16s%2Fg%2F11flg2hgq7!19sChIJjalJe38vnjkRv5aWnf3ZotY?authuser=0&hl=en&rclk=1,"27.403869699999998,79.55310329999999"
Masjid Gadhi Jaan Ali,Mosque,"9HR8+94M Masjid Gadhi Jaan Ali, Bhikampura, Farrukhabad, Uttar Pradesh 209625",Bhikampura,9HR8+94M,Farrukhabad,209625,Uttar Pradesh,IN,https://www.google.com/maps/place/Masjid+Gadhi+Jaan+Ali/data=!4m7!3m6!1s0x399e312a34d32e1d:0xc5ce5d3a977cdbf!8m2!3d27.390952!4d79.5652977!16s%2Fg%2F11ghtm_8zn!19sChIJHS7TNCoxnjkRv813qdPlXAw?authuser=0&hl=en&rclk=1,"27.390952,79.5652977"
Imaambada,Hiking area,"9HWP+4CR Imaambada, Manihari St, Manhari, Farrukhabad, Uttar Pradesh 209625",Manhari,"9HWP+4CR, Manihari St",Farrukhabad,209625,Uttar Pradesh,IN,https://www.google.com/maps/place/Imaambada/data=!4m7!3m6!1s0x399e316f0ccde6df:0x8d92a0960f836ca8!8m2!3d27.3953547!4d79.5860308!16s%2Fg%2F11pz39ll48!19sChIJ3-bNDG8xnjkRqGyDD5agko0?authuser=0&hl=en&rclk=1,"27.3953547,79.5860308"
AJIJALPUR MAIN BAZAR,Internet cafe,"9HMM+2JJ AJIJALPUR MAIN BAZAR, ITI, Farrukhabad, Uttar Pradesh 209625",ITI,9HMM+2JJ,Farrukhabad,,Uttar Pradesh,IN,https://www.google.com/maps/place/AJIJALPUR+MAIN+BAZAR/data=!4m7!3m6!1s0x399e31655a1ca1a7:0x5d3e30318e8c24e8!8m2!3d27.3825853!4d79.5840195!16s%2Fg%2F11rzd9jjvj!19sChIJp6EcWmUxnjkR6CSMjjEwPl0?authuser=0&hl=en&rclk=1,"27.3825853,79.5840195"
Bada Khaa Masjid,Mosque,"9HQP+X87 Bada Khaa Masjid, khatakpura izzat khan, Nehru Rd, Manhari, Farrukhabad, Uttar Pradesh 209625",Manhari,"9HQP+X87, khatakpura izzat khan, Nehru Rd",Farrukhabad,209625,Uttar Pradesh,IN,https://www.google.com/maps/place/Bada+Khaa+Masjid/data=!4m7!3m6!1s0x399e31147b1e070d:0x76136bc11799fd45!8m2!3d27.3899157!4d79.585798!16s%2Fg%2F11j235sl5c!19sChIJDQceexQxnjkRRf2ZF8FrE3Y?authuser=0&hl=en&rclk=1,"27.3899157,79.585798"
Masjid E Warsiyah Ahlesunnat Barelvi Bus Stand,Mosque,"9HPQ+R88 Masjid E Warsiyah Ahlesunnat Barelvi Bus Stand, MDR110W, Manhari, Farrukhabad, Uttar Pradesh 209625",Manhari,"9HPQ+R88, MDR110W",Farrukhabad,209625,Uttar Pradesh,IN,https://www.google.com/maps/place/Masjid+E+Warsiyah+Ahlesunnat+Barelvi+Bus+Stand/data=!4m7!3m6!1s0x399e3132c841a239:0xd3322f1366e93b60!8m2!3d27.3870263!4d79.5883154!16s%2Fg%2F11ts_kww1g!19sChIJOaJByDIxnjkRYDvpZhMvMtM?authuser=0&hl=en&rclk=1,"27.3870263,79.5883154"
Masjid E Ahlesunnat,Mosque,"9HVQ+672 Masjid E Ahlesunnat, Manhari, Farrukhabad, Uttar Pradesh 209625",Manhari,9HVQ+672,Farrukhabad,209625,Uttar Pradesh,IN,https://www.google.com/maps/place/Masjid+E+Ahlesunnat/data=!4m7!3m6!1s0x399e314e19bb075f:0xdcf0a6f25eb41f58!8m2!3d27.393014!4d79.5879556!16s%2Fg%2F11t_jz8thg!19sChIJXwe7GU4xnjkRWB-0XvKm8Nw?authuser=0&hl=en&rclk=1,"27.393013999999997,79.5879556"
Ghardi Masjid,Mosque,"Ghardi Masjid, 4/64, Palla Bazar Rd, Bazaria Nihal Chand, Farrukhabad, Uttar Pradesh 209625",Bazaria Nihal Chand,"4/64, Palla Bazar Rd",Farrukhabad,209625,Uttar Pradesh,IN,https://www.google.com/maps/place/Ghardi+Masjid/data=!4m7!3m6!1s0x399e30319628844d:0x806c863b2847ab0!8m2!3d27.3864829!4d79.5729992!16s%2Fg%2F124t31677!19sChIJTYQoljEwnjkRsHqEsmPIBgg?authuser=0&hl=en&rclk=1,"27.386482899999997,79.5729992"
Khaprel wali. Masjid,Mosque,"Khaprel wali. Masjid, Manhari, Farrukhabad, Uttar Pradesh 209625",Manhari,,Farrukhabad,209625,Uttar Pradesh,IN,https://www.google.com/maps/place/Khaprel+wali.+Masjid/data=!4m7!3m6!1s0x399e311ff51553eb:0x9baf2d148c8876f8!8m2!3d27.3955625!4d79.5840625!16s%2Fg%2F11ft6_n86_!19sChIJ61MV9R8xnjkR-HaIjBQtr5s?authuser=0&hl=en&rclk=1,"27.3955625,79.5840625"
Masjid Hazaye Bab,Mosque,"9HRP+FCV Masjid Hazaye Bab, Gher Iqram Dairy Khatakpura Izzat khan, Uttar Pradesh 209625",Manhari,"9HRP+FCV, Gher Iqram Dairy Khatakpura Izzat khan",Farrukhabad,209625,Uttar Pradesh,IN,https://www.google.com/maps/place/Masjid+Hazaye+Bab/data=!4m7!3m6!1s0x399e31a52d6e3743:0x9600794a8a814cc0!8m2!3d27.3912285!4d79.5860393!16s%2Fg%2F11n34d058l!19sChIJQzduLaUxnjkRwEyBikp5AJY?authuser=0&hl=en&rclk=1,"27.3912285,79.5860393"
Masjid,Mosque,"9HW8+HCC Masjid, Galla Mandi, Uttar Pradesh 209625",Bhikampura,"9HW8+HCC, Galla Mandi",Farrukhabad,209625,Uttar Pradesh,IN,https://www.google.com/maps/place/Masjid/data=!4m7!3m6!1s0x399e313dbe9930fd:0x5f6852b75568b447!8m2!3d27.3964334!4d79.5660007!16s%2Fg%2F11j7bzjmff!19sChIJ_TCZvj0xnjkRR7RoVbdSaF8?authuser=0&hl=en&rclk=1,"27.3964334,79.56600069999999"
JAMA masjid,Electronics store,"9HWM+3Q7 JAMA masjid, Manihari St, Manhari, Farrukhabad, Uttar Pradesh 209625",Manhari,"9HWM+3Q7, Manihari St",Farrukhabad,209625,Uttar Pradesh,IN,https://www.google.com/maps/place/JAMA+masjid/data=!4m7!3m6!1s0x399e3143eef263f3:0x32ccac3e3afccbdb!8m2!3d27.3951511!4d79.5844305!16s%2Fg%2F11h4lm6jty!19sChIJ82Py7kMxnjkR28v8Oj6szDI?authuser=0&hl=en&rclk=1,"27.3951511,79.5844305"
Qabristan Shamsi's,Mosque,"9HMM+2V2 Qabristan Shamsi's, Mandi Rd, ITI, Farrukhabad, Uttar Pradesh 209625",ITI,"9HMM+2V2, Mandi Rd",Farrukhabad,209625,Uttar Pradesh,IN,https://www.google.com/maps/place/Qabristan+Shamsi%27s/data=!4m7!3m6!1s0x399e304871bbff13:0x33d2562739cd2dd8!8m2!3d27.3825225!4d79.5846465!16s%2Fg%2F124yr884v!19sChIJE_-7cUgwnjkR2C3NOSdW0jM?authuser=0&hl=en&rclk=1,"27.3825225,79.58464649999999"
Noori Masjid Ahlesunnat,Mosque,"9HPH+7WC Noori Masjid Ahlesunnat, Nai Basti Rd, Thandi Sarak, Devrampur, Farrukhabad, Uttar Pradesh 209625","Thandi Sarak, Devrampur","9HPH+7WC, Nai Basti Rd",Farrukhabad,209625,Uttar Pradesh,IN,https://www.google.com/maps/place/Noori+Masjid+Ahlesunnat/data=!4m7!3m6!1s0x399e318b25655387:0xc7fe8e366216828!8m2!3d27.3856835!4d79.5797629!16s%2Fg%2F11kbsjr5xq!19sChIJh1NlJYsxnjkRKGghZuPofww?authuser=0&hl=en&rclk=1,"27.3856835,79.57976289999999"
Ahle Sunnat Masjid,Mosque,"9HRR+Q5P Ahle Sunnat Masjid, Unnamed Road, Manhari, Farrukhabad, Uttar Pradesh 209625",Manhari,"9HRR+Q5P, Unnamed Road",Farrukhabad,209625,Uttar Pradesh,IN,https://www.google.com/maps/place/Ahle+Sunnat+Masjid/data=!4m7!3m6!1s0x399e317cab523bc9:0xaaad6320618c67e!8m2!3d27.391964!4d79.5904434!16s%2Fg%2F11q99gc5yz!19sChIJyTtSq3wxnjkRfsYYBjLWqgo?authuser=0&hl=en&rclk=1,"27.391963999999998,79.5904434"
Choti Masjid,Mosque,"Choti Masjid, khairati khan, Bhikampura, Farrukhabad, Uttar Pradesh 209625",Bhikampura,khairati khan,Farrukhabad,209625,Uttar Pradesh,IN,https://www.google.com/maps/place/Choti+Masjid/data=!4m7!3m6!1s0x399e31cbb14ec551:0xe086f860461c3700!8m2!3d27.3971131!4d79.579539!16s%2Fg%2F11g6mvp7df!19sChIJUcVOscsxnjkRADccRmD4huA?authuser=0&hl=en&rclk=1,"27.3971131,79.579539"
Qabaristan Khairati Khan,Mosque,"9HXJ+8CM Qabaristan Khairati Khan, Khairati Khan, near Umar Bin Khattab Masjid, Farrukhabad, 209625",Bhikampura,"9HXJ+8CM, Khairati Khan, near Umar Bin Khattab Masjid",Farrukhabad,209625,Uttar Pradesh,IN,https://www.google.com/maps/place/Qabaristan+Khairati+Khan/data=!4m7!3m6!1s0x399e314f568a62e5:0x4cc8c103bb07b15!8m2!3d27.398332!4d79.5810499!16s%2Fg%2F11hzxffy1x!19sChIJ5WKKVk8xnjkRFXuwOxCMzAQ?authuser=0&hl=en&rclk=1,"27.398332,79.5810499"
Gadhi abdul majeed badey wali masjid,Garden,"9HWM+QC9 Gadhi abdul majeed badey wali masjid, Bhikampura, Farrukhabad, Uttar Pradesh 209625",Bhikampura,9HWM+QC9,Farrukhabad,209625,Uttar Pradesh,IN,https://www.google.com/maps/place/Gadhi+abdul+majeed+badey+wali+masjid/data=!4m7!3m6!1s0x399e31740ccff1bd:0xace706176873f0dd!8m2!3d27.3969088!4d79.5836017!16s%2Fg%2F11s7yz12ry!19sChIJvfHPDHQxnjkR3fBzaBcG56w?authuser=0&hl=en&rclk=1,"27.3969088,79.5836017"
Delhi Masjid Amaan Electric,Store,"9HQM+VHR Delhi Masjid Amaan Electric, Unnamed Road, Manhari, Farrukhabad, Uttar Pradesh 209625",Manhari,"9HQM+VHR, Unnamed Road",Farrukhabad,209625,Uttar Pradesh,IN,https://www.google.com/maps/place/Delhi+Masjid+Amaan+Electric/data=!4m7!3m6!1s0x399e3162a0c4774d:0x9bd39049b73322e4!8m2!3d27.3897494!4d79.58388!16s%2Fg%2F11h22z6f8s!19sChIJTXfEoGIxnjkR5CIzt0mQ05s?authuser=0&hl=en&rclk=1,"27.3897494,79.58388"
Amethi Masjid,Mosque,"9JW6+MJ4 Amethi Masjid, Amethi Jadid, Uttar Pradesh 209625",,9JW6+MJ4,Amethi Jadid,,Uttar Pradesh,IN,https://www.google.com/maps/place/Amethi+Masjid/data=!4m7!3m6!1s0x399e312055d59781:0x9f2a4168f823b26c!8m2!3d27.3966433!4d79.6115887!16s%2Fg%2F11stptptv8!19sChIJgZfVVSAxnjkRbLIj-GhBKp8?authuser=0&hl=en&rclk=1,"27.396643299999997,79.6115887"
saiyyd baabaa kii mjaar,Mosque,"saiyyd baabaa kii mjaar, Baag Lakhula, near Govt. Primary School, Awas Vikas Colony, Farrukhabad, Uttar Pradesh 209625",Awas Vikas Colony,"Baag Lakhula, near Govt. Primary School",Farrukhabad,209625,Uttar Pradesh,IN,https://www.google.com/maps/place/%E0%A4%B8%E0%A5%88%E0%A4%AF%E0%A5%8D%E0%A4%AF%E0%A4%A6+%E0%A4%AC%E0%A4%BE%E0%A4%AC%E0%A4%BE+%E0%A4%95%E0%A5%80+%E0%A4%AE%E0%A4%9C%E0%A4%BE%E0%A4%B0/data=!4m7!3m6!1s0x399e31a250ad4b5b:0x1ec508da9fe00b60!8m2!3d27.3836781!4d79.6021166!16s%2Fg%2F11nmqpfqc6!19sChIJW0utUKIxnjkRYAvgn9oIxR4?authuser=0&hl=en&rclk=1,"27.383678099999997,79.6021166"
A.J.jan Sewa Kendra,Internet cafe,"A.J.jan Sewa Kendra, Near Ummat Bin Khattab masjid, 30 Katra, Boo Ali, Uttar Pradesh 209625",Bhikampura,"Near Ummat Bin Khattab masjid, 30 Katra, Boo Ali",Farrukhabad,209625,Uttar Pradesh,IN,https://www.google.com/maps/place/A.J.jan+Sewa+Kendra/data=!4m7!3m6!1s0x399e31186768281b:0x3b308d1a77ff099d!8m2!3d27.3983127!4d79.5780953!16s%2Fg%2F11v60p5rsw!19sChIJGyhoZxgxnjkRnQn_dxqNMDs?authuser=0&hl=en&rclk=1,"27.398312699999998,79.5780953"
Aik Minar Masjid Sahabganj,Mosque,"9HVP+8VM Aik Minar Masjid Sahabganj, Sahab Gang Chauraha, Manhari, Farrukhabad, Uttar Pradesh 209625",Manhari,"9HVP+8VM, Sahab Gang Chauraha",Farrukhabad,209625,Uttar Pradesh,IN,https://www.google.com/maps/place/Aik+Minar+Masjid+Sahabganj/data=!4m7!3m6!1s0x399e3160b54344b3:0x53059d72b23b9566!8m2!3d27.3933686!4d79.5871298!16s%2Fg%2F11st85z2rl!19sChIJs0RDtWAxnjkRZpU7snKdBVM?authuser=0&hl=en&rclk=1,"27.3933686,79.5871298"
Angoori Masjid,Mosque,"9HQM+R4J Angoori Masjid, Nehru Rd, Ghumna Bazar, Manhari, Farrukhabad, Uttar Pradesh 209625","Ghumna Bazar, Manhari","9HQM+R4J, Nehru Rd",Farrukhabad,209625,Uttar Pradesh,IN,https://www.google.com/maps/place/Angoori+Masjid/data=!4m7!3m6!1s0x399e30358836aaab:0x3cd17ab0724a6df9!8m2!3d27.3895913!4d79.5827531!16s%2Fg%2F11tgg7qtdv!19sChIJq6o2iDUwnjkR-W1KcrB60Tw?authuser=0&hl=en&rclk=1,"27.3895913,79.58275309999999"
kaithe Wali Masjid,Mosque,"9HQC+GPX kaithe Wali Masjid, Bada Khel Rd, Bazaria Nihal Chand, Farrukhabad, Uttar Pradesh 209625",Bazaria Nihal Chand,"9HQC+GPX, Bada Khel Rd",Farrukhabad,209625,Uttar Pradesh,IN,https://www.google.com/maps/place/kaithe+Wali+Masjid/data=!4m7!3m6!1s0x399e31139de0a591:0xb5c1147f8e809ba9!8m2!3d27.3888529!4d79.5718677!16s%2Fg%2F11gwmdrt4k!19sChIJkaXgnRMxnjkRqZuAjn8UwbU?authuser=0&hl=en&rclk=1,"27.3888529,79.5718677"
Ek Minara Masjid,Mosque,"9HWF+53M Ek Minara Masjid, Bhikampura, Farrukhabad, Uttar Pradesh 209625",Bhikampura,9HWF+53M,Farrukhabad,209625,Uttar Pradesh,IN,https://www.google.com/maps/place/Ek+Minara+Masjid/data=!4m7!3m6!1s0x399e31c113311ebb:0x5c7c42bab5c29be!8m2!3d27.3954544!4d79.5726821!16s%2Fg%2F11l1d11t3b!19sChIJux4xE8ExnjkRvilcqyvExwU?authuser=0&hl=en&rclk=1,"27.3954544,79.5726821"
JAMAN WALI MASJID,Mosque,"9HWM+3M4 JAMAN WALI MASJID, Manhari, Farrukhabad, Uttar Pradesh 209625",Manhari,9HWM+3M4,Farrukhabad,209625,Uttar Pradesh,IN,https://www.google.com/maps/place/JAMAN+WALI+MASJID/data=!4m7!3m6!1s0x399e3179146cab1d:0x3572fa50cf5575cd!8m2!3d27.3951267!4d79.5842183!16s%2Fg%2F11h4lm0fnb!19sChIJHatsFHkxnjkRzXVVz1D6cjU?authuser=0&hl=en&rclk=1,"27.3951267,79.5842183"
Makka Msjid,Mosque,"9HPC+94G Makka Msjid, Bazaria Nihal Chand, Farrukhabad, Uttar Pradesh 209625",Bazaria Nihal Chand,9HPC+94G,Farrukhabad,209625,Uttar Pradesh,IN,https://www.google.com/maps/place/Makka+Msjid/data=!4m7!3m6!1s0x399e319701ee52b3:0xf215a7423112871d!8m2!3d27.3859416!4d79.5703317!16s%2Fg%2F11hz6pxdpy!19sChIJs1LuAZcxnjkRHYcSMUKnFfI?authuser=0&hl=en&rclk=1,"27.3859416,79.5703317"
Masque masjid,Mosque,"9HW8+33R Masque masjid, Bhikampura, Kharbandi Bhikampur, Farrukhabad, Uttar Pradesh 209625",Bhikampura,9HW8+33R,"Kharbandi Bhikampur, Farrukhabad",,Uttar Pradesh,IN,https://www.google.com/maps/place/Masque+masjid/data=!4m7!3m6!1s0x399e3170d4388237:0x26a897b151078323!8m2!3d27.3952294!4d79.5651414!16s%2Fg%2F11t6mshrdg!19sChIJN4I41HAxnjkRI4MHUbGXqCY?authuser=0&hl=en&rclk=1,"27.395229399999998,79.5651414"
Qabaristan,Mosque,"9HMV+2JV Qabaristan, Khairati Khan, masjid talla, 209625",Awas Vikas Colony,"9HMV+2JV, Khairati Khan, masjid talla",Farrukhabad,209625,Uttar Pradesh,IN,https://www.google.com/maps/place/Qabaristan/data=!4m7!3m6!1s0x399e31c4316d82fd:0x28640686f35e6a6d!8m2!3d27.3826126!4d79.5940544!16s%2Fg%2F11h54m4ch2!19sChIJ_YJtMcQxnjkRbWpe84YGZCg?authuser=0&hl=en&rclk=1,"27.382612599999998,79.59405439999999"
Badey wali Masjid,Mosque,"9HWM+W6Q Badey wali Masjid, Bhikampura, Farrukhabad, Uttar Pradesh 209625",Bhikampura,9HWM+W6Q,Farrukhabad,209625,Uttar Pradesh,IN,https://www.google.com/maps/place/Badey+wali+Masjid/data=!4m7!3m6!1s0x399e31a778f427a1:0xf70bf505fbbc49f6!8m2!3d27.3973407!4d79.5831176!16s%2Fg%2F11fp805pv1!19sChIJoSf0eKcxnjkR9km8-wX1C_c?authuser=0&hl=en&rclk=1,"27.397340699999997,79.5831176"
Ahle Sunnah Hanafi Barlevi Mosque,Mosque,"9HRP+P67 Ahle Sunnah Hanafi Barlevi Mosque, Sutahatti Rd, Manhari, Farrukhabad, Uttar Pradesh 209625",Manhari,"9HRP+P67, Sutahatti Rd",Farrukhabad,209625,Uttar Pradesh,IN,https://www.google.com/maps/place/Ahle+Sunnah+Hanafi+Barlevi+Mosque/data=!4m7!3m6!1s0x399e31221055dbd5:0x5300384a48493218!8m2!3d27.391781!4d79.58554!16s%2Fg%2F11sxy80h66!19sChIJ1dtVECIxnjkRGDJJSEo4AFM?authuser=0&hl=en&rclk=1,"27.391780999999998,79.58554"
Masjid E Ahlesunnat Lohai Road,Mosque,"fbd, Masjid E Ahlesunnat Lohai Road, 2/15, Lohai Rd, near chowk, Manhari, Farrukhabad, Uttar Pradesh 209625",Manhari,"fbd, 2/15, Lohai Rd, near chowk",Farrukhabad,209625,Uttar Pradesh,IN,https://www.google.com/maps/place/Masjid+E+Ahlesunnat+Lohai+Road/data=!4m7!3m6!1s0x399e311663f319b7:0xd3605740dfe9e532!8m2!3d27.3942735!4d79.5821946!16s%2Fg%2F11t_jz899d!19sChIJtxnzYxYxnjkRMuXp30BXYNM?authuser=0&hl=en&rclk=1,"27.394273499999997,79.5821946"
Masjid ghari kohna,Mosque,"9HPG+2HX Masjid ghari kohna, Farrukhabad, Uttar Pradesh 209625",,9HPG+2HX,Farrukhabad,209625,Uttar Pradesh,IN,https://www.google.com/maps/place/Masjid+ghari+kohna/data=!4m7!3m6!1s0x399e312240daefc9:0xf8dd9f032ada0119!8m2!3d27.3851094!4d79.5764679!16s%2Fg%2F11y1rd1b0l!19sChIJye_aQCIxnjkRGQHaKgOf3fg?authuser=0&hl=en&rclk=1,"27.385109399999997,79.5764679"
Imli wali masjid,Mosque,"9HPF+5FR Imli wali masjid, Railway Road, near Silver Shine, Nala Machratta, Bazaria Nihal Chand, Farrukhabad, Uttar Pradesh 209625","Nala Machratta, Bazaria Nihal Chand","9HPF+5FR, Railway Road, near Silver Shine",Farrukhabad,209625,Uttar Pradesh,IN,https://www.google.com/maps/place/Imli+wali+masjid/data=!4m7!3m6!1s0x399e31379f60a903:0x69b2ff8305e03ee3!8m2!3d27.3854232!4d79.5735736!16s%2Fg%2F11l680dmsq!19sChIJA6lgnzcxnjkR4z7gBYP_smk?authuser=0&hl=en&rclk=1,"27.385423199999998,79.5735736"
Masjid O Madarsa Faizan E Gous Ul Wara,Mosque,"9HJG+JMF Masjid O Madarsa Faizan E Gous Ul Wara, Asgar Rd, Devrampur, Farrukhabad, Uttar Pradesh 209625",Devrampur,"9HJG+JMF, Asgar Rd",Farrukhabad,209625,Uttar Pradesh,IN,https://www.google.com/maps/place/Masjid+O+Madarsa+Faizan+E+Gous+Ul+Wara/data=!4m7!3m6!1s0x399e31436b21afe7:0x55becd69790e382b!8m2!3d27.3818261!4d79.5770282!16s%2Fg%2F11sjyypt42!19sChIJ568ha0MxnjkRKzgOeWnNvlU?authuser=0&hl=en&rclk=1,"27.381826099999998,79.5770282"
Masjid Abu Bakar Siddique,School,"CH4Q+237 Masjid Abu Bakar Siddique, Chota Bangash pura, Farrukhabad, Uttar Pradesh",Shahidganj Narayanda,"CH4Q+237, Chota Bangash pura",Farrukhabad,,Uttar Pradesh,IN,https://www.google.com/maps/place/Masjid+Abu+Bakar+Siddique/data=!4m7!3m6!1s0x399e3126c1da6a53:0x285d4ff3cc40c2b4!8m2!3d27.4050326!4d79.5876691!16s%2Fg%2F11ft4v9clx!19sChIJU2rawSYxnjkRtMJAzPNPXSg?authuser=0&hl=en&rclk=1,"27.4050326,79.5876691"
Masjid,Mosque,"9HCH+G35 Masjid, Adv. Asif Ali Khan, Adv. Asif Ali Khan, Village Dhilawal, Post-Bhopapatti, Nangla Khairband, Farrukhabad, Uttar Pradesh 209602",Nangla Khairband,"9HCH+G35, Adv. Asif Ali Khan, Adv. Asif Ali Khan, Village Dhilawal, Post-Bhopapatti","Farrukhabad, Dhilawal",209602,Uttar Pradesh,IN,https://www.google.com/maps/place/Masjid/data=!4m7!3m6!1s0x399e317093b136ef:0xbf8a57e525a59586!8m2!3d27.3712643!4d79.5777444!16s%2Fg%2F11txpzpkqy!19sChIJ7zaxk3AxnjkRhpWlJeVXir8?authuser=0&hl=en&rclk=1,"27.3712643,79.5777444"
Sunni Jama Masjid,Mosque,"Sunni Jama Masjid, MDR 110W, PWD Colony, Farrukhabad, Uttar Pradesh 209601",PWD Colony,MDR 110W,"Farrukhabad, Fatehgarh",209601,Uttar Pradesh,IN,https://www.google.com/maps/place/Sunni+Jama+Masjid/data=!4m7!3m6!1s0x399e31520a88bc6d:0xc6a40c21c7d739fe!8m2!3d27.3665017!4d79.6316793!16s%2Fg%2F11rycrpknn!19sChIJbbyIClIxnjkR_jnXxyEMpMY?authuser=0&hl=en&rclk=1,"27.366501699999997,79.6316793"
Masjid Zinnato Bali,Mosque,"Masjid Zinnato Bali, Town Hall, Farrukhabad, Rampur Daferpur, Uttar Pradesh 209625",,Town Hall,"Farrukhabad, Rampur Daferpur",209625,Uttar Pradesh,IN,https://www.google.com/maps/place/Masjid+Zinnato+Bali/data=!4m7!3m6!1s0x399e311a30b9560b:0x530ce6258a6c14a6!8m2!3d27.4166132!4d79.582819!16s%2Fg%2F11hy9rdnl6!19sChIJC1a5MBoxnjkRphRsiiXmDFM?authuser=0&hl=en&rclk=1,"27.4166132,79.582819"
Mandir Shri dakshineshwari Kali Sidh Peeth,Hindu temple,"9HMV+2JV Mandir Shri dakshineshwari Kali Sidh Peeth, Kucha Bhawani Das Rani Sahiba Masjid Ke Piche, Uttar Pradesh 209625",Awas Vikas Colony,"9HMV+2JV, Kucha Bhawani Das Rani Sahiba Masjid Ke Piche",Farrukhabad,209625,Uttar Pradesh,IN,https://www.google.com/maps/place/Mandir+Shri+dakshineshwari+Kali+Sidh+Peeth/data=!4m7!3m6!1s0x399e31acd1e382d1:0xa3617b66ab5b60a4!8m2!3d27.3826126!4d79.5940544!16s%2Fg%2F11h53wnm_3!19sChIJ0YLj0awxnjkRpGBbq2Z7YaM?authuser=0&hl=en&rclk=1,"27.382612599999998,79.59405439999999"
1 st Choice Path Lab,Health spa,"1 st Choice Path Lab, Khatakpura Aam Wali Masjid, Devrampur, Farrukhabad, Uttar Pradesh 209625",Devrampur,Khatakpura Aam Wali Masjid,Farrukhabad,209625,Uttar Pradesh,IN,https://www.google.com/maps/place/1+st+Choice+Path+Lab/data=!4m7!3m6!1s0x399e31e5b4ec6c2f:0x3527a4b771c9468c!8m2!3d27.3924175!4d79.5868569!16s%2Fg%2F11sr_6x0cm!19sChIJL2zstOUxnjkRjEbJcbekJzU?authuser=0&hl=en&rclk=1,"27.3924175,79.5868569"
Bilal masjid siroli farrukhabad,Mosque,"9CFP+2H4 Bilal masjid siroli farrukhabad, Sirauli, Uttar Pradesh 209651",,9CFP+2H4,Sirauli,209651,Uttar Pradesh,IN,https://www.google.com/maps/place/Bilal+masjid+siroli+farrukhabad/data=!4m7!3m6!1s0x399e29b78bdedcfb:0xa72c9e41f125f7c2!8m2!3d27.3725208!4d79.4364489!16s%2Fg%2F11p0bh9lb5!19sChIJ-9zei7cpnjkRwvcl8UGeLKc?authuser=0&hl=en&rclk=1,"27.3725208,79.4364489"
