name,main_category,address,address_ward,address_street,address_city,address_postal_code,address_state,address_country_code,link,coordinates
Ismail Habib Sunni Masjid sm`yl Hbyb sunWy msjd,Mosque,"Ismail Habib Sunni Masjid sm`yl Hbyb sunWy msjd, Kambekar St, Pydhonie, Mandvi, Mumbai, Maharashtra 400003","Pydhonie, Mandvi",Kambekar St,Mumbai,400003,Maharashtra,IN,https://www.google.com/maps/place/Ismail+Habib+Sunni+Masjid+%D8%A7%D8%B3%D9%85%D8%A7%D8%B9%DB%8C%D9%84+%D8%AD%D8%A8%DB%8C%D8%A8+%D8%B3%D9%8F%D9%86%D9%91%DB%8C+%D9%85%D8%B3%D8%AC%D8%AF%E2%80%AD/data=!4m7!3m6!1s0x3be7ce3caa612795:0xa0c457cfe4dc30c5!8m2!3d18.954708!4d72.8338938!16s%2Fg%2F1wk7pbbm!19sChIJlSdhqjzO5zsRxTDc5M9XxKA?authuser=0&hl=en&rclk=1,"18.954708,72.8338938"
Baghdadi Masjid,Mosque,"Baghdadi Masjid, Wager Pachado, Mota Salaya, Mandvi, Gujarat 370465",Mota Salaya,Wager Pachado,Mandvi,370465,Gujarat,IN,https://www.google.com/maps/place/Baghdadi+Masjid/data=!4m7!3m6!1s0x3951359091b038a7:0xc44096dbaf55c9ac!8m2!3d22.8239851!4d69.3574307!16s%2Fg%2F11n5j4b_jn!19sChIJpziwkZA1UTkRrMlVr9uWQMQ?authuser=0&hl=en&rclk=1,"22.823985099999998,69.3574307"
Zakaria Masjid,Mosque,"Zakaria Masjid, Zakeria Masjid St, Pydhonie, Mandvi, Mumbai, Maharashtra 400009","Pydhonie, Mandvi",Zakeria Masjid St,Mumbai,400009,Maharashtra,IN,https://www.google.com/maps/place/Zakaria+Masjid/data=!4m7!3m6!1s0x3be7ce24bcd67c05:0x4644c27d0a8e391b!8m2!3d18.9532748!4d72.8344708!16s%2Fg%2F1tgp8r9v!19sChIJBXzWvCTO5zsRGzmOCn3CREY?authuser=0&hl=en&rclk=1,"18.9532748,72.83447079999999"
Minara Masjid,Mosque,"Minara Masjid, 22, Mohammed Ali Rd, Pydhonie, Mandvi, Mumbai, Maharashtra 400003","Pydhonie, Mandvi","22, Mohammed Ali Rd",Mumbai,400003,Maharashtra,IN,https://www.google.com/maps/place/Minara+Masjid/data=!4m7!3m6!1s0x3be7cf64a92d8087:0x96ee5c3fb35da7b0!8m2!3d18.9546318!4d72.8332979!16s%2Fg%2F11h6969jsd!19sChIJh4AtqWTP5zsRsKddsz9c7pY?authuser=0&hl=en&rclk=1,"18.954631799999998,72.83329789999999"
Nawab Ayaz Masjid,Mosque,"XR4J+QP8 Nawab Ayaz Masjid, Ibrahim Rehmatullah Rd, Marine Lines East, Bhendi Bazaar, Mandvi, Mumbai, Maharashtra 400003","Marine Lines East, Bhendi Bazaar, Mandvi","XR4J+QP8, Ibrahim Rehmatullah Rd",Mumbai,400003,Maharashtra,IN,https://www.google.com/maps/place/Nawab+Ayaz+Masjid/data=!4m7!3m6!1s0x3be7ce3cf6ebab11:0x8edf44900e6065fc!8m2!3d18.9569143!4d72.8318281!16s%2Fg%2F1vxz828f!19sChIJEavr9jzO5zsR_GVgDpBE344?authuser=0&hl=en&rclk=1,"18.956914299999998,72.8318281"
Chuna Bhatti Markaz Masjid(chwn bahWatty mrkhz msjd),Mosque,"Chuna Bhatti Markaz Masjid(chwn bahWatty mrkhz msjd), 56, Sir Jamshedji Jeejeebhoy Road, Mandvi, Mumbai, Maharashtra 400003",Mandvi,"56, Sir Jamshedji Jeejeebhoy Road, Mandvi",Mumbai,400003,Maharashtra,IN,https://www.google.com/maps/place/Chuna+Bhatti+Markaz+Masjid%28%DA%86%D9%88%D9%86%D8%A7+%D8%A8%D9%8E%DA%BE%D9%91%D9%8E%D9%B9%DB%8C+%D9%85%D8%B1%DA%A9%D8%B2+%D9%85%D8%B3%D8%AC%D8%AF%29%E2%80%AD/data=!4m7!3m6!1s0x3be7ce3ca52b8e0d:0x6d35848a0187ffed!8m2!3d18.955323!4d72.8331847!16s%2Fg%2F11c3kcfv34!19sChIJDY4rpTzO5zsR7f-HAYqENW0?authuser=0&hl=en&rclk=1,"18.955323,72.83318469999999"
Minara Masjid Complex,Lodging,"XR3M+G9Q Minara Masjid Complex, Near Shree S V Enterprises, Nakhuda Mohalla, Pydhonie, Mandvi, Mumbai, Maharashtra 400003","Nakhuda Mohalla, Pydhonie, Mandvi","XR3M+G9Q, Near Shree S V Enterprises",Mumbai,400003,Maharashtra,IN,https://www.google.com/maps/place/Minara+Masjid+Complex/data=!4m7!3m6!1s0x3be7ce23525e94b7:0xb706312e12d1ee65!8m2!3d18.953831!4d72.8334901!16s%2Fg%2F12lrpbz55!19sChIJt5ReUiPO5zsRZe7REi4xBrc?authuser=0&hl=en&rclk=1,"18.953830999999997,72.83349009999999"
Zakariya Masjid,Mosque,"76X4+JGP Zakariya Masjid, Lehripura New Rd, Opposite Nyay Mandir,Near Bhagat Singh Chowk, Mandvi, Vadodara, Gujarat 390001","Opposite Nyay Mandir,Near Bhagat Singh Chowk, Mandvi","76X4+JGP, Lehripura New Rd",Vadodara,390001,Gujarat,IN,https://www.google.com/maps/place/Zakariya+Masjid/data=!4m7!3m6!1s0x395fc58ad141987f:0xe54b09c499b125ab!8m2!3d22.2990809!4d73.206317!16s%2Fg%2F1tgf65hy!19sChIJf5hB0YrFXzkRqyWxmcQJS-U?authuser=0&hl=en&rclk=1,"22.2990809,73.206317"
Khoja Shia Isna Ashari Jama Masjid (Dongri),Mosque,"XR4P+MHQ Khoja Shia Isna Ashari Jama Masjid (Dongri), Hazrat Abbas Rd, Katha Bazar, Pydhonie, Mandvi, Mumbai, Maharashtra 400009","Katha Bazar, Pydhonie, Mandvi","XR4P+MHQ, Hazrat Abbas Rd",Mumbai,,Maharashtra,IN,https://www.google.com/maps/place/Khoja+Shia+Isna+Ashari+Jama+Masjid+%28Dongri%29/data=!4m7!3m6!1s0x3be7cff7f4281c6f:0xff0182412a7fcacf!8m2!3d18.9567045!4d72.8364882!16s%2Fg%2F11j98blwtz!19sChIJbxwo9PfP5zsRz8p_KkGCAf8?authuser=0&hl=en&rclk=1,"18.9567045,72.83648819999999"
Gora Mohalla Shafi Masjid,Mosque,"Gora Mohalla Shafi Masjid, 47, Kambekar St, Dongri, Mandvi, Mumbai, Maharashtra 400003","Dongri, Mandvi","47, Kambekar St",Mumbai,400003,Maharashtra,IN,https://www.google.com/maps/place/Gora+Mohalla+Shafi+Masjid/data=!4m7!3m6!1s0x3be7ce3b62b60043:0xf155550315c584f7!8m2!3d18.9566289!4d72.8339152!16s%2Fg%2F11c0t8w3h_!19sChIJQwC2YjvO5zsR94TFFQNVVfE?authuser=0&hl=en&rclk=1,"18.9566289,72.83391519999999"
Laljikui Masjid,Mosque,"8642+9W9 Laljikui Masjid, Syedpura, Mandvi, Vadodara, Gujarat 390001","Kadwa Sheri, Mandvi","8642+9W9, Syedpura",Vadodara,390001,Gujarat,IN,https://www.google.com/maps/place/Laljikui+Masjid/data=!4m7!3m6!1s0x395fcf5e8680b175:0x38f1f9c18ab9c44e!8m2!3d22.3059062!4d73.2023542!16s%2Fg%2F1q65g30jm!19sChIJdbGAhl7PXzkRTsS5isH58Tg?authuser=0&hl=en&rclk=1,"22.3059062,73.2023542"
Sindhi Wali Masjid,Mosque,"R8PX+RFH Sindhi Wali Masjid, layja road, NH 27, Mandvi, Gujarat",Vohra Hajira,"R8PX+RFH, layja road, NH 27",Mandvi,,Gujarat,IN,https://www.google.com/maps/place/Sindhi+Wali+Masjid/data=!4m7!3m6!1s0x39513425736b25af:0xafe6ab731a4aacc9!8m2!3d22.8370695!4d69.348734!16s%2Fg%2F1tgnkgnn!19sChIJryVrcyU0UTkRyaxKGnOr5q8?authuser=0&hl=en&rclk=1,"22.8370695,69.348734"
Noor-E-Mustafa Masjid,Mosque,"Noor-E-Mustafa Masjid, Dhaval Nagar, Mandvi, Gujarat 370465",Dhaval Nagar,,Mandvi,370465,Gujarat,IN,https://www.google.com/maps/place/Noor-E-Mustafa+Masjid/data=!4m7!3m6!1s0x3951342d8e28750b:0x844b831d6903a17b!8m2!3d22.8341526!4d69.3394566!16s%2Fg%2F11bxf2c10z!19sChIJC3Uoji00UTkRe6EDaR2DS4Q?authuser=0&hl=en&rclk=1,"22.8341526,69.33945659999999"
Masjid E Firdos,Mosque,"R9H3+H27 Masjid E Firdos, Lakda Bazar, Rameshwar Colony, Mandvi, Gujarat 370465",Rameshwar Colony,"R9H3+H27, Lakda Bazar",Mandvi,370465,Gujarat,IN,https://www.google.com/maps/place/Masjid+E+Firdos/data=!4m7!3m6!1s0x3951343bf69f0bff:0x6fdfc89481454c10!8m2!3d22.8289098!4d69.3525336!16s%2Fg%2F11cmys_ql7!19sChIJ_wuf9js0UTkREExFgZTI328?authuser=0&hl=en&rclk=1,"22.828909799999998,69.3525336"
MASJID E RABBANI Vada Mandvi,Mosque,"V8W6+R6G MASJID E RABBANI Vada Mandvi, Vada, Gujarat 370465",,V8W6+R6G,Vada,370465,Gujarat,IN,https://www.google.com/maps/place/MASJID+E+RABBANI+Vada+Mandvi/data=!4m7!3m6!1s0x395137c80e6a9fcd:0xd250c17ca9a8d208!8m2!3d22.8970563!4d69.310566!16s%2Fg%2F11f06lxgpl!19sChIJzZ9qDsg3UTkRCNKoqXzBUNI?authuser=0&hl=en&rclk=1,"22.8970563,69.310566"
Kokani kadeem masjid,Mosque,"WRXP+R96 Kokani kadeem masjid, Old Bengalipura St, Mandvi Koliwada, Koliwada, Masjid Bandar West, Masjid Bandar, Mumbai, Maharashtra 400003","Mandvi Koliwada, Koliwada, Masjid Bandar West, Masjid Bandar","WRXP+R96, Old Bengalipura St",Mumbai,400003,Maharashtra,IN,https://www.google.com/maps/place/Kokani+kadeem+masjid/data=!4m7!3m6!1s0x3be7cf107b859191:0x3b4fd83a17ddac61!8m2!3d18.949527!4d72.8358826!16s%2Fg%2F11pzrmc1mr!19sChIJkZGFexDP5zsRYazdFzrYTzs?authuser=0&hl=en&rclk=1,"18.949527,72.83588259999999"
Gaiban Shah Masjid,Mosque,"XR2P+2MJ Gaiban Shah Masjid, Taher Building, Bhandari Road, Koliwada, Masjid Bandar West, Masjid Bandar, Mumbai, Maharashtra 400003","Mandvi Koliwada, Koliwada, Masjid Bandar West, Masjid Bandar","XR2P+2MJ, Taher Building, Bhandari Road",Mumbai,400003,Maharashtra,IN,https://www.google.com/maps/place/Gaiban+Shah+Masjid/data=!4m7!3m6!1s0x3be7ce24336f6e11:0xc82059bc5b11652b!8m2!3d18.9500905!4d72.8366349!16s%2Fg%2F1ptw9jhr_!19sChIJEW5vMyTO5zsRK2URW7xZIMg?authuser=0&hl=en&rclk=1,"18.950090499999998,72.83663489999999"
Kamalsha Masjid and Dargah,Mosque,"Kamalsha Masjid and Dargah, macchipit, Mandvi, Gujarat 370465",macchipit,Kamalsha Masjid and Dargah,Mandvi,370465,Gujarat,IN,https://www.google.com/maps/place/Kamalsha+Masjid+and+Dargah/data=!4m7!3m6!1s0x39513567e9c67bbb:0x1b642f78cc28cd11!8m2!3d22.8364453!4d69.3485941!16s%2Fg%2F11n5r5_lc9!19sChIJu3vG6Wc1UTkREc0ozHgvZBs?authuser=0&hl=en&rclk=1,"22.836445299999998,69.3485941"
Madina Masjid,Mosque,"R9R6+MMR Madina Masjid, Poonam Nagar, Mandvi, Gujarat 370460",Poonam Nagar,R9R6+MMR,Mandvi,370460,Gujarat,IN,https://www.google.com/maps/place/Madina+Masjid/data=!4m7!3m6!1s0x39513418d21d67db:0x612a29e699af6fac!8m2!3d22.8417324!4d69.361653!16s%2Fg%2F11fy9ddyz4!19sChIJ22cd0hg0UTkRrG-vmeYpKmE?authuser=0&hl=en&rclk=1,"22.841732399999998,69.36165299999999"
Masjid E Firdosh,Mosque,"Masjid E Firdosh, Mukhdani, Mandvi, Gujarat 370460",Mukhdani,Masjid E Firdosh,Mandvi,370460,Gujarat,IN,https://www.google.com/maps/place/Masjid+E+Firdosh/data=!4m7!3m6!1s0x39513412031c9ea3:0x8e88f073ddfe0fe!8m2!3d22.8317318!4d69.3705766!16s%2Fg%2F11gf3fjbv8!19sChIJo54cAxI0UTkR_uDfPQeP6Ag?authuser=0&hl=en&rclk=1,"22.8317318,69.37057659999999"
Sunni Masjid sunnii msjid,Mosque,"R9XW+5GH Sunni Masjid sunnii msjid, Bag, Mandvi, Gujarat",,"R9XW+5GH, Bag",Mandvi,,Gujarat,IN,https://www.google.com/maps/place/Sunni+Masjid+%E0%AA%B8%E0%AB%81%E0%AA%A8%E0%AB%8D%E0%AA%A8%E0%AB%80+%E0%AA%AE%E0%AA%B8%E0%AB%8D%E0%AA%9C%E0%AA%BF%E0%AA%A6/data=!4m7!3m6!1s0x395133e341a473db:0xb956ee3f2f022818!8m2!3d22.8479429!4d69.3963607!16s%2Fg%2F11c30_sxkw!19sChIJ23OkQeMzUTkRGCgCLz_uVrk?authuser=0&hl=en&rclk=1,"22.8479429,69.3963607"
Rahemania Masjid...,Mosque,"Rahemania Masjid..., Rameshwar Colony, Mandvi, Gujarat 370465",Rameshwar Colony,,Mandvi,370465,Gujarat,IN,https://www.google.com/maps/place/Rahemania+Masjid.../data=!4m7!3m6!1s0x39513534e0de458d:0xde6b8fd6565faad!8m2!3d22.8271351!4d69.3503412!16s%2Fg%2F11hc_162kh!19sChIJjUXe4DQ1UTkRrfplZf245g0?authuser=0&hl=en&rclk=1,"22.8271351,69.3503412"
Masjid E HajiHasan,Mosque,"R9J6+R5V Masjid E HajiHasan, Way to Salaya, Mukhdani, Mandvi, Gujarat 370455",Mukhdani,"R9J6+R5V, Way to Salaya",Mandvi,370455,Gujarat,IN,https://www.google.com/maps/place/Masjid+E+HajiHasan/data=!4m7!3m6!1s0x395134163e6fd969:0x344ff2fe9dde77c8!8m2!3d22.832111!4d69.3604352!16s%2Fg%2F11gfdbwlqw!19sChIJadlvPhY0UTkRyHfenf7yTzQ?authuser=0&hl=en&rclk=1,"22.832110999999998,69.3604352"
Mast Alisha Bapu Dargah,Mosque,"R9G4+3C7 Mast Alisha Bapu Dargah, Shindi Falyu Mota Salaya Mandvi-Kutch PostalZip, Gujarat 370465",Mota Salaya,"R9G4+3C7, Shindi Falyu Mota Salaya Mandvi-Kutch PostalZip","Mandvi, Mandvi Rural",370465,Gujarat,IN,https://www.google.com/maps/place/Mast+Alisha+Bapu+Dargah/data=!4m7!3m6!1s0x395135902c8026a7:0xc521245b84cad3d!8m2!3d22.8251621!4d69.3560486!16s%2Fg%2F11lgrx5jq_!19sChIJpyaALJA1UTkRPa1MuEUSUgw?authuser=0&hl=en&rclk=1,"22.8251621,69.3560486"
Jumma mosque,Mosque,"7822+MR9 Jumma mosque, Mandvi, Gujarat 394160",,7822+MR9,Mandvi,394160,Gujarat,IN,https://www.google.com/maps/place/Jumma+mosque/data=!4m7!3m6!1s0x3be0716c11631251:0x4482df445003055b!8m2!3d21.251673!4d73.302103!16s%2Fg%2F11h780td46!19sChIJURJjEWxx4DsRWwUDUETfgkQ?authuser=0&hl=en&rclk=1,"21.251673,73.302103"
Masjid E Bilal,Mosque,"R9H5+HMP Masjid E Bilal, Makhdumi Rd, Mukhdani, Mandvi, Gujarat 370465",Mukhdani,"R9H5+HMP, Makhdumi Rd",Mandvi,370465,Gujarat,IN,https://www.google.com/maps/place/Masjid+E+Bilal/data=!4m7!3m6!1s0x395135c681fc6ed5:0x7ce07a6f0fb47450!8m2!3d22.828975!4d69.359213!16s%2Fg%2F11j0rl6403!19sChIJ1W78gcY1UTkRUHS0D2964Hw?authuser=0&hl=en&rclk=1,"22.828975,69.359213"
JAMA MASJID,Mosque,"R8MX+3R7 JAMA MASJID, Swamiji Sheri, Mandvi, Gujarat 370465",Swamiji Sheri,R8MX+3R7,Mandvi,370465,Gujarat,IN,https://www.google.com/maps/place/JAMA+MASJID/data=!4m7!3m6!1s0x395135c9247ea551:0x2b21065af06e18f1!8m2!3d22.8326537!4d69.3495333!16s%2Fg%2F11f61fjfw6!19sChIJUaV-JMk1UTkR8Rhu8FoGISs?authuser=0&hl=en&rclk=1,"22.832653699999998,69.34953329999999"
KAJI WALI MASJID,Mosque,"R9M2+23G KAJI WALI MASJID, Swamiji Sheri, Mandvi, Gujarat 370465",Swamiji Sheri,R9M2+23G,Mandvi,370465,Gujarat,IN,https://www.google.com/maps/place/KAJI+WALI+MASJID/data=!4m7!3m6!1s0x3951358523a1a6ed:0x2d1cd16cd1096cd8!8m2!3d22.8328708!4d69.3506055!16s%2Fg%2F11pf6bvj36!19sChIJ7aahI4U1UTkR2GwJ0WzRHC0?authuser=0&hl=en&rclk=1,"22.8328708,69.3506055"
Masjid E Fazle Rasool,Mosque,"R8RX+8RR Masjid E Fazle Rasool, Dhaval Park, Vohra Hajira, Mandvi, Gujarat 370465","Dhaval Park, Vohra Hajira",R8RX+8RR,Mandvi,,Gujarat,IN,https://www.google.com/maps/place/Masjid+E+Fazle+Rasool/data=!4m7!3m6!1s0x395135966756f2e9:0x10010b8f7eab2b80!8m2!3d22.8408682!4d69.3495115!16s%2Fg%2F11fhvb1q2n!19sChIJ6fJWZ5Y1UTkRgCurfo8LARA?authuser=0&hl=en&rclk=1,"22.8408682,69.34951149999999"
Dhadhli dargah masjid,Mosque,"R8HW+PHW Dhadhli dargah masjid, Megmangal Nagar, Mandvi, Gujarat 370465",Megmangal Nagar,R8HW+PHW,Mandvi,370465,Gujarat,IN,https://www.google.com/maps/place/Dhadhli+dargah+masjid/data=!4m7!3m6!1s0x395135ef532392ef:0x7be8154df9037606!8m2!3d22.829361!4d69.3464476!16s%2Fg%2F11h6sb5ffq!19sChIJ75IjU-81UTkRBnYD-U0V6Hs?authuser=0&hl=en&rclk=1,"22.829361,69.34644759999999"
Jumma Masjid,Mosque,"Q22F+6V6 Jumma Masjid, naliya mandavi, Naliya Mandvi, Gujarat 362510",,"Q22F+6V6, naliya mandavi",Naliya Mandvi,,Gujarat,IN,https://www.google.com/maps/place/Jumma+Masjid/data=!4m7!3m6!1s0x3be303a3be64036f:0x8b5bd00943e8315d!8m2!3d20.7505444!4d71.0246506!16s%2Fg%2F11h_4v6txs!19sChIJbwNkvqMD4zsRXTHoQwnQW4s?authuser=0&hl=en&rclk=1,"20.7505444,71.0246506"
Masjid-E-Gausiya,Mosque,"W3QQ+WF3 Masjid-E-Gausiya, Main Bajar, bambhadai, Mandvi, Bambhdai, Gujarat 370450",,"W3QQ+WF3, Main Bajar, bambhadai","Mandvi, Bambhdai",,Gujarat,IN,https://www.google.com/maps/place/Masjid-E-Gausiya/data=!4m7!3m6!1s0x39515ad118663cdb:0x85d07702ec6dd603!8m2!3d22.9397556!4d69.0886841!16s%2Fg%2F11f3zg1c5w!19sChIJ2zxmGNFaUTkRA9Zt7AJ30IU?authuser=0&hl=en&rclk=1,"22.939755599999998,69.0886841"
Jama masjid,Mosque,"R9G4+JRF Jama masjid, Mota Salaya, Mandvi, Gujarat 370465",Mota Salaya,R9G4+JRF,Mandvi,370465,Gujarat,IN,https://www.google.com/maps/place/Jama+masjid/data=!4m7!3m6!1s0x395135f1b2e8567d:0x5a20e19ce6e9dd23!8m2!3d22.8265559!4d69.3570352!16s%2Fg%2F11pqxqq0tg!19sChIJfVbosvE1UTkRI93p5pzhIFo?authuser=0&hl=en&rclk=1,"22.8265559,69.3570352"
Minara masjid,Religious destination,"R9G5+V45 Minara masjid, Mota Salaya, Mandvi, Gujarat 370455",Mota Salaya,R9G5+V45,Mandvi,370455,Gujarat,IN,https://www.google.com/maps/place/Minara+masjid/data=!4m7!3m6!1s0x395135795e5dd0d7:0xcbdf1ee9c86d2071!8m2!3d22.8271486!4d69.3578582!16s%2Fg%2F11tsfr47jb!19sChIJ19BdXnk1UTkRcSBtyOke38s?authuser=0&hl=en&rclk=1,"22.827148599999997,69.3578582"
Halawari Masjid,Mosque,"R8JX+H6H Halawari Masjid, Rameshwar Colony, Mandvi, Gujarat 370465",Rameshwar Colony,R8JX+H6H,Mandvi,370465,Gujarat,IN,https://www.google.com/maps/place/Halawari+Masjid/data=!4m7!3m6!1s0x3951343a634df241:0x2975736ed9c4227d!8m2!3d22.831437!4d69.3481144!16s%2Fg%2F11fy4p8lsg!19sChIJQfJNYzo0UTkRfSLE2W5zdSk?authuser=0&hl=en&rclk=1,"22.831436999999998,69.3481144"
Masjid e Ahmadsha Bukhari,Mosque,"Masjid e Ahmadsha Bukhari, Jainam nagar, Octroi, Mandvi - Maska Rd, near Maska, Ashpura, Mandvi, Gujarat 370465",Ashpura,"Jainam nagar, Octroi, Mandvi - Maska Rd, near Maska",Mandvi,370465,Gujarat,IN,https://www.google.com/maps/place/Masjid+e+Ahmadsha+Bukhari/data=!4m7!3m6!1s0x3951358fe76be167:0xa62357a489a35bd3!8m2!3d22.835019!4d69.3681301!16s%2Fg%2F11twtkw9pz!19sChIJZ-Fr5481UTkR01ujiaRXI6Y?authuser=0&hl=en&rclk=1,"22.835019,69.3681301"
Haidari maszid,Mosque,"R9G4+JRF Haidari maszid, Mota Salaya, Mandvi, Gujarat 370465",Mota Salaya,R9G4+JRF,Mandvi,370465,Gujarat,IN,https://www.google.com/maps/place/Haidari+maszid/data=!4m7!3m6!1s0x395135499f073171:0x99a333fb17dfc5a!8m2!3d22.8265559!4d69.3570352!16s%2Fg%2F11h_bzrfj6!19sChIJcTEHn0k1UTkRWvx9sT8zmgk?authuser=0&hl=en&rclk=1,"22.8265559,69.3570352"
Masjid,Mosque,"XR4R+HW6 Masjid, Frere Rd, Dana Bandar, Mandvi, Mumbai, Maharashtra 400009","Dana Bandar, Mandvi","XR4R+HW6, Frere Rd",Mumbai,400009,Maharashtra,IN,https://www.google.com/maps/place/Masjid/data=!4m7!3m6!1s0x3be7cf98ee07e217:0xdf83315cc3dd4b4f!8m2!3d18.9564239!4d72.8422717!16s%2Fg%2F11g4cz6662!19sChIJF-IH7pjP5zsRT0vdw1wxg98?authuser=0&hl=en&rclk=1,"18.9564239,72.8422717"
GARIB NAWAZ MASJID,Mosque,"GARIB NAWAZ MASJID, Hazrat Garib Nawaz Masjid, Zakeria Masjid St, Mandvi, Mumbai, Maharashtra 400009",Mandvi,"Hazrat Garib Nawaz Masjid, Zakeria Masjid St",Mumbai,400009,Maharashtra,IN,https://www.google.com/maps/place/GARIB+NAWAZ+MASJID/data=!4m7!3m6!1s0x3be7cf1b98daecfb:0xe19f464b89a2b1ea!8m2!3d18.955944!4d72.8343569!16s%2Fg%2F11nymznt_4!19sChIJ--zamBvP5zsR6rGiiUtGn-E?authuser=0&hl=en&rclk=1,"18.955944,72.8343569"
Gausiya Masjid JRM Dana Bunder,Mosque,"Gausiya Masjid JRM Dana Bunder, 26, P D'Mello Rd, Ekta Nagar, Umerkhadi, Mumbai, Maharashtra 400009","Ekta Nagar, Umerkhadi","26, P D'Mello Rd",Mumbai,400009,Maharashtra,IN,https://www.google.com/maps/place/Gausiya+Masjid+JRM+Dana+Bunder/data=!4m7!3m6!1s0x3be7cf246d5d6eb5:0x45527c0d2a7b6641!8m2!3d18.9558525!4d72.8417031!16s%2Fg%2F11pyydt0rq!19sChIJtW5dbSTP5zsRQWZ7Kg18UkU?authuser=0&hl=en&rclk=1,"18.9558525,72.8417031"
Madina masjid mandvi,Mosque,"7833+MGG Madina masjid mandvi, Mandvi, Gujarat 394160",,7833+MGG,Mandvi,394160,Gujarat,IN,https://www.google.com/maps/place/Madina+masjid+mandvi/data=!4m7!3m6!1s0x3be071a53a035bed:0x91a1b78e3ab7763a!8m2!3d21.2541803!4d73.3038339!16s%2Fg%2F11jbnm_21g!19sChIJ7VsDOqVx4DsROna3Oo63oZE?authuser=0&hl=en&rclk=1,"21.254180299999998,73.3038339"
Dawoodi Bohra Najmi Masjid,Mosque,"Dawoodi Bohra Najmi Masjid, Juna Shak Market, Nr Main, Bazar, mandvi, Mandvi, Gujarat 394160",mandvi,"Dawoodi Bohra Najmi Masjid, Juna Shak Market, Nr Main, Bazar",Mandvi,394160,Gujarat,IN,https://www.google.com/maps/place/Dawoodi+Bohra+Najmi+Masjid/data=!4m7!3m6!1s0x3be071d5716669df:0xac3c1093a0ab5642!8m2!3d21.2548396!4d73.3043965!16s%2Fg%2F11tn_bq2yt!19sChIJ32lmcdVx4DsRQlaroJMQPKw?authuser=0&hl=en&rclk=1,"21.2548396,73.3043965"
Masjid e Ahmadsha bukhari,Mosque,"R9M4+85F Masjid e Ahmadsha bukhari, Swamiji Sheri, Mandvi, Gujarat 370465",Swamiji Sheri,R9M4+85F,Mandvi,,Gujarat,IN,https://www.google.com/maps/place/Masjid+e+Ahmadsha+bukhari/data=!4m7!3m6!1s0x395135ee6fa15b63:0x671b76ea38333788!8m2!3d22.8333247!4d69.3554319!16s%2Fg%2F11twq0c84x!19sChIJY1uhb-41UTkRiDczOOp2G2c?authuser=0&hl=en&rclk=1,"22.8333247,69.3554319"
Masjid~E~Qadhriya,Mosque,"R9G6+67V Masjid~E~Qadhriya, Bhukari Nagar, Mandvi, Gujarat 370465",Bhukari Nagar,R9G6+67V,Mandvi,370465,Gujarat,IN,https://www.google.com/maps/place/Masjid~E~Qadhriya/data=!4m7!3m6!1s0x395135bbfff56a35:0xcb4a3bd7f822f2f4!8m2!3d22.8256194!4d69.3606734!16s%2Fg%2F11ft_cl0k5!19sChIJNWr1_7s1UTkR9PIi-Nc7Sss?authuser=0&hl=en&rclk=1,"22.825619399999997,69.3606734"
Khalifa Masjid,Mosque,"R9F4+Q7M Khalifa Masjid, Khalifa Nagar, Mota Salaya, Mandvi, Gujarat 370465",Mota Salaya,"R9F4+Q7M, Khalifa Nagar",Mandvi,370465,Gujarat,IN,https://www.google.com/maps/place/Khalifa+Masjid/data=!4m7!3m6!1s0x39513506d227250d:0x90cf0f47f0aa6107!8m2!3d22.824453!4d69.3556568!16s%2Fg%2F11mvyx99gh!19sChIJDSUn0gY1UTkRB2Gq8EcPz5A?authuser=0&hl=en&rclk=1,"22.824453,69.35565679999999"
Aqsa Mosque,Mosque,"7833+CGH Aqsa Mosque, Unnamed Road, Mandvi, Gujarat 394160",,"7833+CGH, Unnamed Road",Mandvi,394160,Gujarat,IN,https://www.google.com/maps/place/Aqsa+Mosque/data=!4m7!3m6!1s0x3be071487b92d39b:0xaeca0b8f8dd5328!8m2!3d21.2535716!4d73.3038621!16s%2Fg%2F11fkm77rqs!19sChIJm9OSe0hx4DsRKFPd-Lig7Ao?authuser=0&hl=en&rclk=1,"21.2535716,73.3038621"
"Shia Khoja Masjid, Mandvi, Gujrat",Mosque,"R8MX+F9F Shia Khoja Masjid, Mandvi, Gujrat, Shyamji Krishna Varma Rd, Swamiji Sheri, Mandvi, Gujarat 370465",Swamiji Sheri,"R8MX+F9F, Shyamji Krishna Varma Rd",Mandvi,370465,Gujarat,IN,"https://www.google.com/maps/place/Shia+Khoja+Masjid,+Mandvi,+Gujrat/data=!4m7!3m6!1s0x395135016e7f4227:0xdbb5ca6a602efc33!8m2!3d22.8336891!4d69.3484199!16s%2Fg%2F11n00bn8wd!19sChIJJ0J_bgE1UTkRM_wuYGrKtds?authuser=0&hl=en&rclk=1","22.833689099999997,69.3484199"
"Noor Masjid, Amil Saheb, Navapura Mandvi",Mosque,"Noor Masjid, Amil Saheb, Navapura Mandvi, Swamiji Sheri, Mandvi, Gujarat 370465",Swamiji Sheri,,Mandvi,370465,Gujarat,IN,"https://www.google.com/maps/place/Noor+Masjid,+Amil+Saheb,+Navapura+Mandvi/data=!4m7!3m6!1s0x3951357458f63c65:0x2c4e85fe8259a79f!8m2!3d22.8354909!4d69.3504687!16s%2Fg%2F11sg_2vbx5!19sChIJZTz2WHQ1UTkRn6dZgv6FTiw?authuser=0&hl=en&rclk=1","22.8354909,69.3504687"
Jilani Masjid,Mosque,"R8HW+QH2 Jilani Masjid, Beach Road, Megmangal Nagar, Mandvi, Gujarat 370465",Megmangal Nagar,"R8HW+QH2, Beach Road",Mandvi,370465,Gujarat,IN,https://www.google.com/maps/place/Jilani+Masjid/data=!4m7!3m6!1s0x395135cbea109cf3:0x5e5aaabebaec9ea6!8m2!3d22.8293858!4d69.3463887!16s%2Fg%2F11f6nkt1j_!19sChIJ85wQ6ss1UTkRpp7sur6qWl4?authuser=0&hl=en&rclk=1,"22.8293858,69.34638869999999"
Khatriwali Masjid,Mosque,"R8RW+6RJ Khatriwali Masjid, Umiya Nagar, Mandvi, Gujarat 370465",Umiya Nagar,R8RW+6RJ,Mandvi,370465,Gujarat,IN,https://www.google.com/maps/place/Khatriwali+Masjid/data=!4m7!3m6!1s0x3951356c4b7da79f:0xc80b76985f1585ac!8m2!3d22.8405879!4d69.3470061!16s%2Fg%2F11k6js28j2!19sChIJn6d9S2w1UTkRrIUVX5h2C8g?authuser=0&hl=en&rclk=1,"22.8405879,69.3470061"
Kalimi Masjid,Mosque,"R9R2+4RC Kalimi Masjid, Vohra Hajira, Mandvi, Gujarat 370465",Vohra Hajira,R9R2+4RC,Mandvi,370465,Gujarat,IN,https://www.google.com/maps/place/Kalimi+Masjid/data=!4m7!3m6!1s0x3951354dc82a2b9d:0x202602aad92676a8!8m2!3d22.8403244!4d69.3525354!16s%2Fg%2F11t9t7lfx1!19sChIJnSsqyE01UTkRqHYm2aoCJiA?authuser=0&hl=en&rclk=1,"22.8403244,69.3525354"
Tamachi masjid,Mosque,"R9P2+54 Tamachi masjid, Swamiji Sheri, Mandvi Rural, Mandvi, Gujarat 370465",Swamiji Sheri,R9P2+54,"Mandvi Rural, Mandvi",,Gujarat,IN,https://www.google.com/maps/place/Tamachi+masjid/data=!4m7!3m6!1s0x39513572ad8e36ff:0x4481e13cb85ea6fb!8m2!3d22.8354686!4d69.350287!16s%2Fg%2F11tn48rzt7!19sChIJ_zaOrXI1UTkR-6ZeuDzhgUQ?authuser=0&hl=en&rclk=1,"22.8354686,69.350287"
Bukhari dargha,Mosque,"R9F4+H9R Bukhari dargha, Unnamed Road, Mota Salaya, Mandvi Rural, Mandvi, Gujarat 370455",Mota Salaya,"R9F4+H9R, Unnamed Road","Mandvi Rural, Mandvi",370455,Gujarat,IN,https://www.google.com/maps/place/Bukhari+dargha/data=!4m7!3m6!1s0x3951355b1dc47561:0x200712835d79d89d!8m2!3d22.8239791!4d69.3558906!16s%2Fg%2F11pfqy8rkp!19sChIJYXXEHVs1UTkRndh5XYMSByA?authuser=0&hl=en&rclk=1,"22.8239791,69.3558906"
Aqsa masjid,Mosque,"Aqsa masjid, Bawagor No Tekro, Mandvi, Gujarat 394160",,Bawagor No Tekro,Mandvi,394160,Gujarat,IN,https://www.google.com/maps/place/Aqsa+masjid/data=!4m7!3m6!1s0x3be071a43f96f25f:0x666d1fbfc9ea3bb7!8m2!3d21.2518848!4d73.3040515!16s%2Fg%2F11j88ssy78!19sChIJX_KWP6Rx4DsRtzvqyb8fbWY?authuser=0&hl=en&rclk=1,"21.2518848,73.3040515"
Jama Masjid Mandvi,Mosque,"RX5Q+F8W Jama Masjid Mandvi, Mandvi, Punjab 148027",,RX5Q+F8W,Mandvi,148027,Punjab,IN,https://www.google.com/maps/place/Jama+Masjid+Mandvi/data=!4m7!3m6!1s0x3911bd72f2cac0d1:0x34c8f4d288ec8f45!8m2!3d29.8087392!4d75.9883332!16s%2Fg%2F11vbxn8hj8!19sChIJ0cDK8nK9ETkRRY_siNL0yDQ?authuser=0&hl=en&rclk=1,"29.808739199999998,75.9883332"
Jumma Masjid,Mosque,"R9H5+F5Q Jumma Masjid, Mota Salaya, Mandvi, Gujarat 370455",Mota Salaya,R9H5+F5Q,Mandvi,370455,Gujarat,IN,https://www.google.com/maps/place/Jumma+Masjid/data=!4m7!3m6!1s0x39513535ce6ac05d:0x8dcee972d82c3982!8m2!3d22.8286682!4d69.3580023!16s%2Fg%2F11kqt1t6nk!19sChIJXcBqzjU1UTkRgjks2HLpzo0?authuser=0&hl=en&rclk=1,"22.8286682,69.3580023"
Tower Masjid,Mosque,"8632+H7J Tower Masjid, Near Tower, Raopura, Mandvi, Vadodara, Gujarat 390001","Near Tower, Raopura, Mandvi",8632+H7J,Vadodara,390001,Gujarat,IN,https://www.google.com/maps/place/Tower+Masjid/data=!4m7!3m6!1s0x395fcf5ed9b7dd0f:0xe328428d297c91c2!8m2!3d22.303965!4d73.200653!16s%2Fg%2F11gdy8l1mn!19sChIJD9232V7PXzkRwpF8KY1CKOM?authuser=0&hl=en&rclk=1,"22.303964999999998,73.200653"
Jilani Masjid,Mosque,"R9M6+2R3 Jilani Masjid, Mandvi - Maska Rd, Mukhdani, Mandvi, Gujarat 370465",Mukhdani,"R9M6+2R3, Mandvi - Maska Rd",Mandvi,370465,Gujarat,IN,https://www.google.com/maps/place/Jilani+Masjid/data=!4m7!3m6!1s0x39513512b7208dab:0x6ee3ded621e17c4d!8m2!3d22.8325232!4d69.3620367!16s%2Fg%2F11rsb33fmx!19sChIJq40gtxI1UTkRTXzhIdbe424?authuser=0&hl=en&rclk=1,"22.8325232,69.36203669999999"
Mandvi,,"Mandvi, Masjid Bandar East, Masjid Bandar, Mumbai, Maharashtra 400009","Mandvi, Masjid Bandar East, Masjid Bandar",,Mumbai,,Maharashtra,IN,https://www.google.com/maps/place/Mandvi/data=!4m7!3m6!1s0x3be7ce25766a050b:0x734b304beaf5c6c9!8m2!3d18.95219!4d72.838714!16s%2Fm%2F02rd0sd!19sChIJCwVqdiXO5zsRycb16kswS3M?authuser=0&hl=en&rclk=1,"18.952189999999998,72.838714"
Kutchh Anjuman E Islam kabrastan,Mosque,"R8QX+99Q Kutchh Anjuman E Islam kabrastan, Kalwan Road, Umiya Nagar, Mandvi, Gujarat 370465",Umiya Nagar,"R8QX+99Q, Kalwan Road",Mandvi,370465,Gujarat,IN,https://www.google.com/maps/place/Kutchh+Anjuman+E+Islam+kabrastan/data=!4m7!3m6!1s0x3951354841856361:0x398d6a85ee78d71b!8m2!3d22.8384609!4d69.3484863!16s%2Fg%2F11nmmd7sqc!19sChIJYWOFQUg1UTkRG9d47oVqjTk?authuser=0&hl=en&rclk=1,"22.838460899999998,69.34848629999999"
Kesar baug jama masjid road,Mosque,"Shop No, Kesar baug jama masjid road, 1, Sardar Vallabhbhai Patel Rd, Mandvi, Mumbai, Maharashtra 400009",Mandvi,"Shop No, 1, Sardar Vallabhbhai Patel Rd",Mumbai,400009,Maharashtra,IN,https://www.google.com/maps/place/Kesar+baug+jama+masjid+road/data=!4m7!3m6!1s0x3be7cf6bb51d9aff:0xacaa5d2ed25197b6!8m2!3d18.9583109!4d72.8360061!16s%2Fg%2F11s5sbdhym!19sChIJ_5odtWvP5zsRtpdR0i5dqqw?authuser=0&hl=en&rclk=1,"18.9583109,72.83600609999999"
Satana peer dargah,Mosque,"R8JX+G56 Satana peer dargah, Rameshwar Colony, Mandvi, Gujarat 370465",Rameshwar Colony,R8JX+G56,Mandvi,370465,Gujarat,IN,https://www.google.com/maps/place/Satana+peer+dargah/data=!4m7!3m6!1s0x39513567af60fa23:0x9a6533377a029ad0!8m2!3d22.831287!4d69.3478933!16s%2Fg%2F11h_z7tj8y!19sChIJI_pgr2c1UTkR0JoCejczZZo?authuser=0&hl=en&rclk=1,"22.831287,69.3478933"
Kadia masjid,Mosque,"Kadia masjid, 8632+CPM Vinoba Bhave Rd, Raopura Main Road, Limda Pole Corner, near Optic Palace, Raopura, Mandvi, Vadodara, Gujarat 390001","Limda Pole, Raopura, Mandvi","8632+CPM Vinoba Bhave Rd, Raopura Main Road, Limda Pole Corner, near Optic Palace",Vadodara,390001,Gujarat,IN,https://www.google.com/maps/place/Kadia+masjid/data=!4m7!3m6!1s0x395fcfbb447e4721:0x49c56520b4cd03f2!8m2!3d22.3035783!4d73.2017926!16s%2Fg%2F11sdtxmj6d!19sChIJIUd-RLvPXzkR8gPNtCBlxUk?authuser=0&hl=en&rclk=1,"22.303578299999998,73.20179259999999"
