name,main_category,address,address_ward,address_street,address_city,address_postal_code,address_state,address_country_code,link,coordinates
Jama Masjid,Mosque,"Jama Masjid, Old Delhi, Delhi, 110006","Jama Masjid, Old Delhi",,Delhi,110006,Delhi,IN,https://www.google.com/maps/place/Jama+Masjid/data=!4m7!3m6!1s0x390cfd18df89b215:0xdd57369e29bf9d96!8m2!3d28.6506792!4d77.2334421!16zL20vMDR5emo1!19sChIJFbKJ3xj9DDkRlp2_KZ42V90?authuser=0&hl=en&rclk=1,"28.6506792,77.23344209999999"
Mehraj masjid,Mosque,"Mehraj masjid, Idgah Rd, Janta Colony, Subhash Park, Shahdara, Delhi, 110053","Janta Colony, Subhash Park, Shahdara","Mehraj masjid, Idgah Rd",Delhi,110053,Delhi,IN,https://www.google.com/maps/place/Mehraj+masjid/data=!4m7!3m6!1s0x390cfd694e906471:0x3808bf8783b4b9ae!8m2!3d28.6798103!4d77.2757147!16s%2Fg%2F11flc6dbc_!19sChIJcWSQTmn9DDkRrrm0g4e_CDg?authuser=0&hl=en&rclk=1,"28.6798103,77.2757147"
Masjid Moth,Mosque,"Masjid Moth, 92, Masjid Moth Rd, South Extension II, Masjid Moth Village, New Delhi, Delhi 110049","South Extension II, Masjid Moth Village","92, Masjid Moth Rd",New Delhi,110049,Delhi,IN,https://www.google.com/maps/place/Masjid+Moth/data=!4m7!3m6!1s0x390ce242799950e9:0xb2f0ba5418b140f8!8m2!3d28.562458!4d77.2176906!16s%2Fm%2F05zxh9f!19sChIJ6VCZeULiDDkR-ECxGFS68LI?authuser=0&hl=en&rclk=1,"28.562458,77.2176906"
Hari Masjid - hry msjd,Mosque,"Hari Masjid - hry msjd, S5, Rajguru Marg, Chuna Mandi, Paharganj, New Delhi, Delhi 110055","Bazar Sangatrashan, Chuna Mandi, Paharganj","S5, Rajguru Marg",New Delhi,110055,Delhi,IN,https://www.google.com/maps/place/Hari+Masjid+-+%DB%81%D8%B1%DB%8C+%D9%85%D8%B3%D8%AC%D8%AF%E2%80%AD/data=!4m7!3m6!1s0x390cfd420fb3ca0d:0xb47391289f663fde!8m2!3d28.6451083!4d77.2107922!16s%2Fg%2F12ml2wx8n!19sChIJDcqzD0L9DDkR3j9mnyiRc7Q?authuser=0&hl=en&rclk=1,"28.6451083,77.2107922"
Masjid Khairul Manazil,Mosque,"J65Q+2V5 Masjid Khairul Manazil, Bapa Nagar, India Gate, New Delhi, Delhi 110003","Bapa Nagar, India Gate",J65Q+2V5,New Delhi,110003,Delhi,IN,https://www.google.com/maps/place/Masjid+Khairul+Manazil/data=!4m7!3m6!1s0x390ce2df459c72cb:0x48802f5a503baeb0!8m2!3d28.6075!4d77.2397222!16s%2Fg%2F11fzwb0w8f!19sChIJy3KcRd_iDDkRsK47UFovgEg?authuser=0&hl=en&rclk=1,"28.607499999999998,77.2397222"
Hanif Mayapuri Phase II Mosque,Mosque,"J477+G58 Hanif Mayapuri Phase II Mosque, Opposite Delhi Cantt. Railway Station, Mayapuri Industrial Area Phase II, Mayapuri, New Delhi, Delhi 110046","Mayapuri Industrial Area Phase II, Mayapuri","J477+G58, Opposite Delhi Cantt. Railway Station",New Delhi,110046,Delhi,IN,https://www.google.com/maps/place/Hanif+Mayapuri+Phase+II+Mosque/data=!4m7!3m6!1s0x390d0352b14c302b:0xede26ae52c958d21!8m2!3d28.6137773!4d77.1129392!16s%2Fg%2F124svf9xr!19sChIJKzBMsVIDDTkRIY2VLOVq4u0?authuser=0&hl=en&rclk=1,"28.6137773,77.1129392"
"Jama Masjid, Khadda Colony jm` msjd",Mosque,"Jama Masjid, Khadda Colony jm` msjd, D-202, near by Jama Masjid Gali, Jaitpur Extension Part II, Khadda Colony, Badarpur, New Delhi, Delhi 110044","Jaitpur Extension Part II, Khadda Colony, Badarpur","D-202, near by Jama Masjid Gali",New Delhi,110044,Delhi,IN,"https://www.google.com/maps/place/Jama+Masjid,+Khadda+Colony+%D8%AC%D8%A7%D9%85%D8%B9+%D9%85%D8%B3%D8%AC%D8%AF%E2%80%AD/data=!4m7!3m6!1s0x390ce65a1cc2d345:0x508d72d241ba7c2f!8m2!3d28.5094725!4d77.3384064!16s%2Fg%2F11b_23cdbd!19sChIJRdPCHFrmDDkRL3y6QdJyjVA?authuser=0&hl=en&rclk=1","28.509472499999998,77.3384064"
Masjid Patherwali msjd,Mosque,"1608, Masjid Patherwali msjd, 32, Block 39E, Nai Walan, Karol Bagh, New Delhi, Delhi, 110005","Block 39E, Nai Walan, Karol Bagh","1608, 32","New Delhi, Delhi",110005,Delhi,IN,https://www.google.com/maps/place/Masjid+Patherwali+%D9%85%D8%B3%D8%AC%D8%AF%E2%80%AD/data=!4m7!3m6!1s0x390cfd61ca03d689:0x8ff36a5a3c66d0bd!8m2!3d28.6475823!4d77.1958499!16s%2Fg%2F12hm6x9t2!19sChIJidYDymH9DDkRvdBmPFpq848?authuser=0&hl=en&rclk=1,"28.6475823,77.1958499"
Shahi Masjid Vasant Vihar msjd shhy,Mosque,"H47X+FQ4 Shahi Masjid Vasant Vihar msjd shhy, Muradabad Pahari, D3 St, near Shri Raam School, Vasant Vihar, New Delhi, Delhi 110057",Vasant Vihar,"H47X+FQ4, Muradabad Pahari, D3 St, near Shri Raam School",New Delhi,110057,Delhi,IN,https://www.google.com/maps/place/Shahi+Masjid+Vasant+Vihar+%D9%85%D8%B3%D8%AC%D8%AF+%D8%B4%D8%A7%DB%81%DB%8C%E2%80%AD/data=!4m7!3m6!1s0x390d1dacc6b7318b:0xd650b525228c3634!8m2!3d28.5636477!4d77.1494618!16s%2Fg%2F1xg5r1k0!19sChIJizG3xqwdDTkRNDaMIiW1UNY?authuser=0&hl=en&rclk=1,"28.563647699999997,77.1494618"
Saeediya Masjid,Mosque,"Saeediya Masjid, 45, New Silampur Gali, Block A, Chauhan Banger, Shahdara, Delhi, 110031","Block A, Chauhan Banger, Shahdara","45, New Silampur Gali",Delhi,110031,Delhi,IN,https://www.google.com/maps/place/Saeediya+Masjid/data=!4m7!3m6!1s0x390cfc61230920b1:0xd4902005e34cb106!8m2!3d28.678415!4d77.2672561!16s%2Fg%2F11c6qcjmhv!19sChIJsSAJI2H8DDkRBrFM4wUgkNQ?authuser=0&hl=en&rclk=1,"28.678414999999998,77.2672561"
Masjid Shahi shhy msjd,Mosque,"Masjid Shahi shhy msjd, Sector 5 Rd, Sector 5, Rama Krishna Puram, New Delhi, Delhi 110022","Sector 5, Rama Krishna Puram",Sector 5 Rd,New Delhi,110022,Delhi,IN,https://www.google.com/maps/place/Masjid+Shahi+%D8%B4%D8%A7%DB%81%DB%8C+%D9%85%D8%B3%D8%AC%D8%AF%E2%80%AD/data=!4m7!3m6!1s0x390d1d980824e25f:0x2dae857cbcc7831f!8m2!3d28.562477!4d77.17156!16s%2Fg%2F1ptx9jy5j!19sChIJX-IkCJgdDTkRH4PHvHyFri0?authuser=0&hl=en&rclk=1,"28.562476999999998,77.17156"
Madina Masjid msjd mdynh,Mosque,"G5F3+86X Madina Masjid msjd mdynh, Pocket 5, Sector D, Vasant Kunj, New Delhi, Delhi 110070","Pocket 5, Sector D, Vasant Kunj",G5F3+86X,New Delhi,110070,Delhi,IN,https://www.google.com/maps/place/Madina+Masjid+%D9%85%D8%B3%D8%AC%D8%AF+%D9%85%D8%AF%DB%8C%D9%86%DB%81%E2%80%AD/data=!4m7!3m6!1s0x390d1e7f3ce8a9cf:0xb481f0aa48b311f9!8m2!3d28.5233679!4d77.1530999!16s%2Fg%2F11g8fn63n6!19sChIJz6noPH8eDTkR-RGzSKrwgbQ?authuser=0&hl=en&rclk=1,"28.5233679,77.1530999"
Mohammadi Masjid,Mosque,"M7JC+4R2 Mohammadi Masjid, Chauhan Banger, Shahdara, Delhi, 110031","Chauhan Banger, Shahdara",M7JC+4R2,Delhi,110031,Delhi,IN,https://www.google.com/maps/place/Mohammadi+Masjid/data=!4m7!3m6!1s0x390cfc647f925475:0xea73bafddc2f968a!8m2!3d28.6802653!4d77.2720261!16s%2Fg%2F1tfldmh_!19sChIJdVSSf2T8DDkRipYv3P26c-o?authuser=0&hl=en&rclk=1,"28.6802653,77.27202609999999"
Masjid Majeedia Motilal nehru marg- msjdi mjdyh,Mosque,"Masjid Majeedia Motilal nehru marg- msjdi mjdyh, Unnamed Road, Dr APJ Abdul Kalam Rd, South Block, Aurangzeb Road, New Delhi, Delhi 110001","South Block, Aurangzeb Road","Unnamed Road, Dr APJ Abdul Kalam Rd",New Delhi,110001,Delhi,IN,https://www.google.com/maps/place/Masjid+Majeedia+Motilal+nehru+marg-+%D9%85%D8%B3%D8%AC%D8%AF%D9%90+%D9%85%D8%AC%D8%AF%DB%8C%DB%81%E2%80%AD/data=!4m7!3m6!1s0x390ce2c111445fc5:0x1156210e810cd168!8m2!3d28.6046984!4d77.2215032!16s%2Fg%2F11f1lpdw85!19sChIJxV9EEcHiDDkRaNEMgQ4hVhE?authuser=0&hl=en&rclk=1,"28.6046984,77.2215032"
MASJID,Mosque,"MASJID, Wz 173a/1 new ranjeet nagar, Guru Nanak Nagar, Shadipur, Delhi 110008","Guru Nanak Nagar, Shadipur",Wz 173a/1 new ranjeet nagar,New Delhi,110008,Delhi,IN,https://www.google.com/maps/place/MASJID/data=!4m7!3m6!1s0x390d0327bb6f6129:0xe8342be2eca63326!8m2!3d28.6456917!4d77.1597324!16s%2Fg%2F11h5lkhmc2!19sChIJKWFvuycDDTkRJjOm7OIrNOg?authuser=0&hl=en&rclk=1,"28.6456917,77.1597324"
Madina MASJID,Mosque,"Madina MASJID, 385, Manak Vihar Rd, Manak Vihar, Tihar Village, New Delhi, Delhi, 110018","Manak Vihar, Tihar Village","385, Manak Vihar Rd","New Delhi, Delhi",110018,Delhi,IN,https://www.google.com/maps/place/Madina+MASJID/data=!4m7!3m6!1s0x390d035e46292a5b:0x99c49dd2b7697b17!8m2!3d28.6340679!4d77.1061559!16s%2Fg%2F11c1n36l08!19sChIJWyopRl4DDTkRF3tpt9KdxJk?authuser=0&hl=en&rclk=1,"28.634067899999998,77.10615589999999"
Jama Masjid,Mosque,"Jama Masjid, Transport Bhawan Masjid, 1, Annexe Rd, Gokul Nagar, Pandit Pant Marg Area, Central Secretariat, New Delhi, Delhi 110001","Gokul Nagar, Pandit Pant Marg Area, Central Secretariat","Transport Bhawan Masjid, 1, Annexe Rd",New Delhi,110001,Delhi,IN,https://www.google.com/maps/place/Jama+Masjid/data=!4m7!3m6!1s0x390ce2b39554d7fd:0xd8f8e403ebe796c8!8m2!3d28.618668!4d77.2101746!16s%2Fg%2F11c4ww6ts3!19sChIJ_ddUlbPiDDkRyJbn6wPk-Ng?authuser=0&hl=en&rclk=1,"28.618668,77.2101746"
Al-Mateen Masjid,Mosque,"Al-Mateen Masjid, Block M, Brahampuri, Shahdara, Delhi, 110053","Block M, Brahampuri, Shahdara",,Delhi,,Delhi,IN,https://www.google.com/maps/place/Al-Mateen+Masjid/data=!4m7!3m6!1s0x390cfc65cf47c239:0x9cb27deae050e07f!8m2!3d28.6830205!4d77.2668895!16s%2Fg%2F1pv2q6lxx!19sChIJOcJHz2X8DDkRf-BQ4Op9spw?authuser=0&hl=en&rclk=1,"28.683020499999998,77.26688949999999"
Mehboo e Elahi Masjid msjd mHbwbi lhy,Mosque,"Mehboo e Elahi Masjid msjd mHbwbi lhy, 337A, Gali Number 12, Block G, Talimabad, Sangam Vihar, New Delhi, Delhi 110080","Block G, Talimabad, Sangam Vihar","337A, Gali Number 12",New Delhi,110080,Delhi,IN,https://www.google.com/maps/place/Mehboo+e+Elahi+Masjid+%D9%85%D8%B3%D8%AC%D8%AF+%D9%85%D8%AD%D8%A8%D9%88%D8%A8%D9%90+%D8%A7%D9%84%D9%B0%DB%81%DB%8C%E2%80%AD/data=!4m7!3m6!1s0x390ce1117bd6badd:0xebb2a755e5d86cc5!8m2!3d28.5059839!4d77.2552619!16s%2Fg%2F11hcx9jlc5!19sChIJ3brWexHhDDkRxWzY5VWnsus?authuser=0&hl=en&rclk=1,"28.5059839,77.2552619"
Masjid Harsh Vihar msjd hrsh whr,Mosque,"Masjid Harsh Vihar msjd hrsh whr, 10A, Tanki Rd, Harsh Vihar, Badarpur, New Delhi, Delhi 110044","Harsh Vihar, Badarpur","10A, Tanki Rd",New Delhi,110044,Delhi,IN,https://www.google.com/maps/place/Masjid+Harsh+Vihar+%D9%85%D8%B3%D8%AC%D8%AF+%DA%BE%D8%B1%D8%B4+%D9%88%DB%81%D8%A7%D8%B1%E2%80%AD/data=!4m7!3m6!1s0x390ce6fee36498a7:0xdcaf1b79beed3b9c!8m2!3d28.4999889!4d77.3292359!16s%2Fg%2F11ddx3myrf!19sChIJp5hk4_7mDDkRnDvtvnkbr9w?authuser=0&hl=en&rclk=1,"28.499988899999998,77.3292359"
Muhammadi Masjid,Mosque,"Muhammadi Masjid, 2/55, Moonga Nagar, New Mustafabad, New Delhi, Delhi, 110094","Moonga Nagar, New Mustafabad",2/55,"New Delhi, Delhi",110094,Delhi,IN,https://www.google.com/maps/place/Muhammadi+Masjid/data=!4m7!3m6!1s0x390cfc175aee92eb:0xaa6d7ae014408908!8m2!3d28.7081354!4d77.2682226!16s%2Fg%2F11c5sz6frk!19sChIJ65LuWhf8DDkRCIlAFOB6bao?authuser=0&hl=en&rclk=1,"28.7081354,77.2682226"
"Jama Masjid ,Meham",Mosque,"Jama Masjid ,Meham, 1st Street on Bahalba Road Kishangarh Maham, SH 16A, Meham, Mahamrural, Haryana 124112",,"1st Street on Bahalba Road Kishangarh Maham, SH 16A","Meham, Mahamrural",124112,Haryana,IN,"https://www.google.com/maps/place/Jama+Masjid+,Meham/data=!4m7!3m6!1s0x391271befefe3e75:0x8efd84f7ee7fd0a7!8m2!3d28.9637937!4d76.2973945!16s%2Fg%2F11c2qzy1k_!19sChIJdT7-_r5xEjkRp9B_7veE_Y4?authuser=0&hl=en&rclk=1","28.9637937,76.2973945"
Mohammadi Masjid,Mosque,"Mohammadi Masjid, block - c , gali no. 12 , shiv vihar part 2, Ismailpur Rd, Ekta Vihar, Basantpur, Faridabad, Delhi 121003","Ekta Vihar, Basantpur","block - c , gali no. 12 , shiv vihar part 2, Ismailpur Rd","Faridabad, New Delhi",121003,Delhi,IN,https://www.google.com/maps/place/Mohammadi+Masjid/data=!4m7!3m6!1s0x390ce65691d77451:0x37e5a2edf0d4bd81!8m2!3d28.5035617!4d77.3360423!16s%2Fg%2F12hmr57km!19sChIJUXTXkVbmDDkRgb3U8O2i5Tc?authuser=0&hl=en&rclk=1,"28.5035617,77.3360423"
Madani Masjid,Mosque,"P886+FCR Madani Masjid, Radha Vihar, Village Mandoli, Delhi, 201102","Radha Vihar, Mandoli","P886+FCR, Radha Vihar, Village Mandoli",Delhi,201102,Uttar Pradesh,IN,https://www.google.com/maps/place/Madani+Masjid/data=!4m7!3m6!1s0x390cfbddbd142d67:0x91ffbc86707dab8!8m2!3d28.7162291!4d77.311013!16s%2Fg%2F11g8ky0m_1!19sChIJZy0Uvd37DDkRuNoHZ8j7Hwk?authuser=0&hl=en&rclk=1,"28.7162291,77.311013"
Madina Masjid,Mosque,"Madina Masjid, A125, Dr Ambedkar Colony, Chhattarpur, New Delhi, Delhi 110074","Desu Colony, Chhatarpur","A125, Dr Ambedkar Colony, Chhattarpur",New Delhi,110074,Delhi,IN,https://www.google.com/maps/place/Madina+Masjid/data=!4m7!3m6!1s0x390d1e16889c1c2f:0x494236dc1ad29efb!8m2!3d28.5079963!4d77.1780101!16s%2Fg%2F11ddx064n0!19sChIJLxyciBYeDTkR-57SGtw2Qkk?authuser=0&hl=en&rclk=1,"28.5079963,77.1780101"
Muhamadi Wali Masjid,Historical landmark,"H638+R8G Muhamadi Wali Masjid, Siri Fort Institutional Area, Siri Fort, New Delhi, Delhi 110049","Siri Fort Institutional Area, Siri Fort",H638+R8G,New Delhi,110049,Delhi,IN,https://www.google.com/maps/place/Muhamadi+Wali+Masjid/data=!4m7!3m6!1s0x390ce26acaf52495:0x99ea43a076fc60c!8m2!3d28.5545536!4d77.2158416!16s%2Fg%2F11gzqh6d0!19sChIJlST1ymriDDkRDMZvBzqkngk?authuser=0&hl=en&rclk=1,"28.5545536,77.21584159999999"
Masjid Mashal Chiyan,Mosque,"Masjid Mashal Chiyan, 2100, Pahari Bhojla Rd, Pahari Bhojla, Sita Ram Bazar, Old Delhi, Delhi, 110006","Pahari Bhojla, Sita Ram Bazar, Old Delhi","2100, Pahari Bhojla Rd",Delhi,110006,Delhi,IN,https://www.google.com/maps/place/Masjid+Mashal+Chiyan/data=!4m7!3m6!1s0x390cfd225b6ed379:0x9d5cccd781f0a815!8m2!3d28.6454716!4d77.232231!16s%2Fg%2F11f1211zsv!19sChIJedNuWyL9DDkRFajwgdfMXJ0?authuser=0&hl=en&rclk=1,"28.6454716,77.232231"
Masjid Badi msjd,Mosque,"Masjid Badi msjd, 893,, Chittli Qabar Bazar Rd, Jama Masjid, Chandni Chowk, New Delhi, Delhi 110006","Bazar Chitli Qabar, Kucha Chelan, Jama Masjid, Chandni Chowk","893,, Chittli Qabar Bazar Rd","New Delhi, Delhi",110006,Delhi,IN,https://www.google.com/maps/place/Masjid+Badi+%D9%85%D8%B3%D8%AC%D8%AF%E2%80%AD/data=!4m7!3m6!1s0x390cfd219cfec1f3:0x93ccacb281d71709!8m2!3d28.645321!4d77.2357133!16s%2Fg%2F12m98gjn5!19sChIJ88H-nCH9DDkRCRfXgbKszJM?authuser=0&hl=en&rclk=1,"28.645321,77.2357133"
Madni masjid,Mosque,"240, Madni masjid, 7, RK Puram Sector 9 Rd, Sector 7, Rama Krishna Puram, New Delhi, Delhi 110022","Sector 7, Rama Krishna Puram","240, 7, RK Puram Sector 9 Rd",New Delhi,110022,Delhi,IN,https://www.google.com/maps/place/Madni+masjid/data=!4m7!3m6!1s0x390d1d90af47411d:0xb2b6680c3011812d!8m2!3d28.5688716!4d77.1719734!16s%2Fg%2F11h4b4zp87!19sChIJHUFHr5AdDTkRLYERMAxotrI?authuser=0&hl=en&rclk=1,"28.568871599999998,77.1719734"
Garahaiya Wali Masjid msjd ghrrhy wly,Mosque,"M645+P9X Garahaiya Wali Masjid msjd ghrrhy wly, Qureshnagar, Sadar Bazaar, Delhi, 110006","Sarai Khalil, Sadar Bazaar","M645+P9X, Qureshnagar, Sadar Bazaar",Delhi,110006,Delhi,IN,https://www.google.com/maps/place/Garahaiya+Wali+Masjid+%D9%85%D8%B3%D8%AC%D8%AF+%DA%AF%DA%BE%DA%91%DA%BE%DB%8C%D8%A7+%D9%88%D8%A7%D9%84%DB%8C%E2%80%AD/data=!4m7!3m6!1s0x390cfd6fd6004367:0xfebc1f26322235da!8m2!3d28.6568604!4d77.2084973!16s%2Fg%2F11c3w0w7y_!19sChIJZ0MA1m_9DDkR2jUiMiYfvP4?authuser=0&hl=en&rclk=1,"28.6568604,77.20849729999999"
Mosque / Masjid,Mosque,"Mosque / Masjid, A430, DDA Colony, Chaukhandi, Vishnu Garden, Delhi, 110018","DDA Colony, Chaukhandi, Vishnu Garden",A430,Delhi,110018,Delhi,IN,https://www.google.com/maps/place/Mosque+%2F+Masjid/data=!4m7!3m6!1s0x390d05579c83dfb9:0xadb490f25993e21b!8m2!3d28.645374!4d77.094016!16s%2Fg%2F11qn2351hz!19sChIJud-DnFcFDTkRG-KTWfKQtK0?authuser=0&hl=en&rclk=1,"28.645374,77.094016"
Masjid Mariyam Mohammad Maheel,Mosque,"Masjid Mariyam Mohammad Maheel, Khirdar Ka Khet, Teen kalam, Rehna, Haryana 122103",,"Khirdar Ka Khet, Teen kalam",Rehna,122103,Haryana,IN,https://www.google.com/maps/place/Masjid+Mariyam+Mohammad+Maheel/data=!4m7!3m6!1s0x390d31e21ca6149d:0x88833edaa6efc5a2!8m2!3d28.1610853!4d77.0096107!16s%2Fg%2F11fx7wby54!19sChIJnRSmHOIxDTkRosXvpto-g4g?authuser=0&hl=en&rclk=1,"28.1610853,77.0096107"
Masjid-e-Sheikh Gaamon Main,Mosque,"M666+HGC Masjid-e-Sheikh Gaamon Main, Bahadurgarh Rd, Fyaz Ganj, Sadar Bazaar, New Delhi, Delhi, 110006","Fyaz Ganj, Sadar Bazaar","M666+HGC, Bahadurgarh Rd","New Delhi, Delhi",110006,Delhi,IN,https://www.google.com/maps/place/Masjid-e-Sheikh+Gaamon+Main/data=!4m7!3m6!1s0x390cfd71670a93f3:0x268d3d15d4cf21e6!8m2!3d28.6614422!4d77.2112784!16s%2Fg%2F11b75fwqwr!19sChIJ85MKZ3H9DDkR5iHP1BU9jSY?authuser=0&hl=en&rclk=1,"28.6614422,77.2112784"
Jama Masjid,Mosque,"87F4+RHW Jama Masjid, Madalpur, Haryana 121004",,87F4+RHW,Madalpur,121004,Haryana,IN,https://www.google.com/maps/place/Jama+Masjid/data=!4m7!3m6!1s0x390cd91694a40627:0xfe3405ceedb81edc!8m2!3d28.3246073!4d77.2564525!16s%2Fg%2F11g6rjt8bt!19sChIJJwaklBbZDDkR3B647c4FNP4?authuser=0&hl=en&rclk=1,"28.3246073,77.2564525"
Mehbube Ilahi Masjid msjd mHbwbi lhy,Mosque,"Mehbube Ilahi Masjid msjd mHbwbi lhy, 200, Gali Number 12, Block G, Talimabad, Sangam Vihar, New Delhi, Delhi 110044","Block G, Talimabad, Sangam Vihar","200, Gali Number 12",New Delhi,110044,Delhi,IN,https://www.google.com/maps/place/Mehbube+Ilahi+Masjid+%D9%85%D8%B3%D8%AC%D8%AF+%D9%85%D8%AD%D8%A8%D9%88%D8%A8%D9%90+%D8%A7%D9%84%D9%B0%DB%81%DB%8C%E2%80%AD/data=!4m7!3m6!1s0x390ce11192f7083f:0xae0dbbdbeca67b2c!8m2!3d28.5053455!4d77.2535063!16s%2Fg%2F11c618mbkp!19sChIJPwj3khHhDDkRLHum7Nu7Da4?authuser=0&hl=en&rclk=1,"28.505345499999997,77.2535063"
Minara Masjid,Mosque,"Q78H+MC7 Minara Masjid, Ghaziabad, Uttar Pradesh 201102",,Q78H+MC7,Ghaziabad,,Uttar Pradesh,IN,https://www.google.com/maps/place/Minara+Masjid/data=!4m7!3m6!1s0x390cfed628f5c28f:0x6c63711d6c363dd6!8m2!3d28.7666689!4d77.2785548!16s%2Fg%2F11hbc20ck7!19sChIJj8L1KNb-DDkR1j02bB1xY2w?authuser=0&hl=en&rclk=1,"28.7666689,77.2785548"
Munawra masjid,Mosque,"M7P4+6M2 Munawra masjid, Masjid Road, Third Pushta, Usmanpur, Nayagaon Village, Shahdara, Delhi, 110053","Third Pushta, Nayagaon, Nayagaon Village, Shahdara","M7P4+6M2, Masjid Road, Third Pushta, Usmanpur",Delhi,110053,Delhi,IN,https://www.google.com/maps/place/Munawra+masjid/data=!4m7!3m6!1s0x390cfd030e33f563:0x5dc12b36744f9a85!8m2!3d28.6855176!4d77.2566372!16s%2Fg%2F11hzwz2ypj!19sChIJY_UzDgP9DDkRhZpPdDYrwV0?authuser=0&hl=en&rclk=1,"28.685517599999997,77.2566372"
Masjid Chatta Sheikh Manglo,Mosque,"J6XJ+HXC Masjid Chatta Sheikh Manglo, Choori Walan, Kalan Mehal, Chandni Chowk, New Delhi, Delhi, 110002","Choori Walan, Kalan Mehal, Chandni Chowk",J6XJ+HXC,"New Delhi, Delhi",110002,Delhi,IN,https://www.google.com/maps/place/Masjid+Chatta+Sheikh+Manglo/data=!4m7!3m6!1s0x390cfd188c598f69:0x5942000107ab82cb!8m2!3d28.6489319!4d77.2323897!16s%2Fg%2F11gchs9zp4!19sChIJaY9ZjBj9DDkRy4KrBwEAQlk?authuser=0&hl=en&rclk=1,"28.648931899999997,77.2323897"
Mosque msjd,Mosque,"Mosque msjd, 3696, Mori Gate, New Delhi, Delhi 110006",Mori Gate,3696,"New Delhi, Delhi",110006,Delhi,IN,https://www.google.com/maps/place/Mosque+%D9%85%D8%B3%D8%AC%D8%AF%E2%80%AD/data=!4m7!3m6!1s0x390cfd0c79fa6f11:0x326ac233054d2efa!8m2!3d28.6635017!4d77.2212005!16s%2Fg%2F12lkq2186!19sChIJEW_6eQz9DDkR-i5NBTPCajI?authuser=0&hl=en&rclk=1,"28.663501699999998,77.2212005"
KAASMI MASJID,Mosque,"KAASMI MASJID, 8 -110094, Gali No. 2, E2 Block, Nehru Vihar, New Mustafabad, Delhi, 110094","E2 Block, Nehru Vihar, Old Mustafabad, New Mustafabad","8 -110094, Gali No. 2",Delhi,110094,Delhi,IN,https://www.google.com/maps/place/KAASMI+MASJID/data=!4m7!3m6!1s0x390cfc1bc20852c3:0xbeb256e8db121704!8m2!3d28.712964!4d77.2702719!16s%2Fg%2F11fxb790sf!19sChIJw1IIwhv8DDkRBBcS2-hWsr4?authuser=0&hl=en&rclk=1,"28.712964,77.2702719"
jama masjid madarsa taleemul quran,Mosque,"jama masjid madarsa taleemul quran, C 10, Captain Gaur Marg, C Block, Kailash Hills, East of Kailash, New Delhi, Delhi 110065","C Block, Kailash Hills, East of Kailash","C 10, Captain Gaur Marg",New Delhi,110065,Delhi,IN,https://www.google.com/maps/place/jama+masjid+madarsa+taleemul+quran/data=!4m7!3m6!1s0x390ce3bedd0d5df7:0x3a3b95b54ca809a8!8m2!3d28.5619545!4d77.2590985!16s%2Fg%2F11g7zz4m0j!19sChIJ910N3b7jDDkRqAmoTLWVOzo?authuser=0&hl=en&rclk=1,"28.5619545,77.2590985"
Maidan Wali Masjid,Mosque,"M62F+R2M Maidan Wali Masjid, Rodgran,, Lal Kuan Bazar, Chandni Chowk, Delhi, 110006","Lal Kuan Bazar, Chandni Chowk","M62F+R2M, Rodgran,",Delhi,110006,Delhi,IN,https://www.google.com/maps/place/Maidan+Wali+Masjid/data=!4m7!3m6!1s0x390cfd140f7a508d:0x560a8b02a3124bce!8m2!3d28.6520963!4d77.2225318!16s%2Fg%2F11clkwlqtz!19sChIJjVB6DxT9DDkRzksSowKLClY?authuser=0&hl=en&rclk=1,"28.6520963,77.2225318"
Jama Madjid,Mosque,"Jama Madjid, khuwaja park Illaichipur, Trans Delhi Signature City, Ghaziabad, Uttar Pradesh 201102",Trans Delhi Signature City,khuwaja park Illaichipur,Ghaziabad,201102,Uttar Pradesh,IN,https://www.google.com/maps/place/Jama+Madjid/data=!4m7!3m6!1s0x390cffd519959253:0x75d57b5584aaf66f!8m2!3d28.764901!4d77.256208!16s%2Fg%2F11g2_3w7fd!19sChIJU5KVGdX_DDkRb_aqhFV71XU?authuser=0&hl=en&rclk=1,"28.764901,77.256208"
Jama Masjid Gausul Minaar,Mosque,"Jama Masjid Gausul Minaar, I/2 Block, Gali no. 4, Ratiya Marg, Sangam Vihar, New Delhi, Delhi 110080","Block J 2, Devli, Sangam Vihar","I/2 Block, Gali no. 4, Ratiya Marg",New Delhi,110080,Delhi,IN,https://www.google.com/maps/place/Jama+Masjid+Gausul+Minaar/data=!4m7!3m6!1s0x390ce19001b828d1:0xab9c6084fdea6fad!8m2!3d28.4930325!4d77.2453168!16s%2Fg%2F11nnpythp5!19sChIJ0Si4AZDhDDkRrW_q_YRgnKs?authuser=0&hl=en&rclk=1,"28.493032499999998,77.2453168"
Masjid,Mosque,"Q6MJ+5H5 Masjid, Badarpur, Madanpur Khadar, New Delhi, 110084",Madanpur Khadar,"Q6MJ+5H5, Badarpur","New Delhi, Delhi",110084,Delhi,IN,https://www.google.com/maps/place/Masjid/data=!4m7!3m6!1s0x390cffb780460377:0x9fe224e9c653e965!8m2!3d28.7828891!4d77.2314704!16s%2Fg%2F11qn790lvq!19sChIJdwNGgLf_DDkRZelTxukk4p8?authuser=0&hl=en&rclk=1,"28.7828891,77.23147039999999"
Masjid Hamam Wali,Mosque,"Masjid Hamam Wali, 6470, Katra Bariyan, Fatehpuri, Chandni Chowk, New Delhi, Delhi, 110006","Fatehpuri, Chandni Chowk","6470, Katra Bariyan","New Delhi, Delhi",110006,Delhi,IN,https://www.google.com/maps/place/Masjid+Hamam+Wali/data=!4m7!3m6!1s0x390cfd12316f31ef:0x174a76ac455f8b5!8m2!3d28.655784!4d77.222307!16s%2Fg%2F12hqwxj4v!19sChIJ7zFvMRL9DDkRtfhVxGqndAE?authuser=0&hl=en&rclk=1,"28.655783999999997,77.222307"
Masjid Chah hathi,Mosque,"M63M+FM7 Masjid Chah hathi, Kucha Bulaki Begam, Chandni Chowk, New Delhi, Delhi, 110006","Kucha Bulaki Begam, Chandni Chowk",M63M+FM7,"New Delhi, Delhi",110006,Delhi,IN,https://www.google.com/maps/place/Masjid+Chah+hathi/data=!4m7!3m6!1s0x390cfd21be28681f:0x89414e118639a027!8m2!3d28.6536676!4d77.2341741!16s%2Fg%2F11g5ssbglz!19sChIJH2goviH9DDkRJ6A5hhFOQYk?authuser=0&hl=en&rclk=1,"28.6536676,77.23417409999999"
Masjid,Mosque,"Masjid, 242, Masjid Jheel Pio, Near ITO metro GateNo.3, Bahadur Shah Zafar Marg, Balmiki Basti, Vikram Nagar, Delhi, 110002","Bahadur Shah Zafar Marg, Balmiki Basti, Vikram Nagar","242, Masjid Jheel Pio, Near ITO metro GateNo.3, Bahadur Shah Zafar Marg",Delhi,110002,Delhi,IN,https://www.google.com/maps/place/Masjid/data=!4m7!3m6!1s0x390cfd441769149d:0xa1929f1b4f5921d6!8m2!3d28.6298914!4d77.2415098!16s%2Fg%2F11s2n38r9b!19sChIJnRRpF0T9DDkR1iFZTxufkqE?authuser=0&hl=en&rclk=1,"28.629891399999998,77.2415098"
Masjid,Mosque,"Masjid, 2508, Fasil Rd, Gali Sakko Wali, Shah Ganj, Chandni Chowk, New Delhi, Delhi, 110006","Gali Sakko Wali, Shah Ganj, Chandni Chowk","2508, Fasil Rd","New Delhi, Delhi",110006,Delhi,IN,https://www.google.com/maps/place/Masjid/data=!4m7!3m6!1s0x390cfd15c9a8a4b1:0xf975aada141da03e!8m2!3d28.6491552!4d77.2220471!16s%2Fg%2F1hm4gjxkd!19sChIJsaSoyRX9DDkRPqAdFNqqdfk?authuser=0&hl=en&rclk=1,"28.6491552,77.2220471"
iilhaami msjid,Mosque,"3rd B, iilhaami msjid, 216, Mansa Mandir Road No. 30, near Khan Builder, Block Y, Kirari Suleman Nagar Village, Sultanpuri, New Delhi, Delhi, 110086","Block Y, Kirari Suleman Nagar Village, Sultanpuri","3rd B, 216, Mansa Mandir Road No. 30, near Khan Builder","New Delhi, Delhi",110086,Delhi,IN,https://www.google.com/maps/place/%E0%A4%88%E0%A4%B2%E0%A4%B9%E0%A4%BE%E0%A4%AE%E0%A4%BF+%E0%A4%AE%E0%A4%B8%E0%A5%8D%E0%A4%9C%E0%A4%BF%E0%A4%A6/data=!4m7!3m6!1s0x390d050883950109:0x5a59585660de2d19!8m2!3d28.6979831!4d77.0513459!16s%2Fg%2F11rn7c569l!19sChIJCQGVgwgFDTkRGS3eYFZYWVo?authuser=0&hl=en&rclk=1,"28.6979831,77.0513459"
Masjid Ek Minaar Wali,Mosque,"P76J+R25 Masjid Ek Minaar Wali, Indra Vihar I, Khanpur Dhani, New Mustafabad, Delhi, 110094","Indra Vihar I, Khanpur Dhani, New Mustafabad",P76J+R25,Delhi,110094,Delhi,IN,https://www.google.com/maps/place/Masjid+Ek+Minaar+Wali/data=!4m7!3m6!1s0x390cfdaf8ec4c217:0x53b3a678589269f2!8m2!3d28.7120246!4d77.2801055!16s%2Fg%2F11ndw8993m!19sChIJF8LEjq_9DDkR8mmSWHims1M?authuser=0&hl=en&rclk=1,"28.7120246,77.28010549999999"
Masjid,Mosque,"Masjid, 191/1, JJ Colony, New Krishna Park, Vikaspuri, New Delhi, Delhi, 110018","JJ Colony, New Krishna Park, Vikaspuri",191/1,"New Delhi, Delhi",110018,Delhi,IN,https://www.google.com/maps/place/Masjid/data=!4m7!3m6!1s0x390d0523e13f6ebf:0xcf430f5986189794!8m2!3d28.6318645!4d77.0776203!16s%2Fg%2F11kq3krq6c!19sChIJv24_4SMFDTkRlJcYhlkPQ88?authuser=0&hl=en&rclk=1,"28.6318645,77.07762029999999"
Masjid,Mosque,"P9HF+33Q Masjid, Farukh Nagar, Uttar Pradesh 201003",,P9HF+33Q,Farukh Nagar,201003,Uttar Pradesh,IN,https://www.google.com/maps/place/Masjid/data=!4m7!3m6!1s0x390cfa018875b495:0xeea7b0caec7e470d!8m2!3d28.7277145!4d77.3727433!16s%2Fg%2F11f0krqvls!19sChIJlbR1iAH6DDkRDUd-7Mqwp-4?authuser=0&hl=en&rclk=1,"28.727714499999998,77.3727433"
Malhan-Ki-Masjid,Mosque,"W459+QFV Malhan-Ki-Masjid, Rahepwa, Haryana 122508",,W459+QFV,Rahepwa,122508,Haryana,IN,https://www.google.com/maps/place/Malhan-Ki-Masjid/data=!4m7!3m6!1s0x3972d76b5050a533:0x923cd13a16e43e8c!8m2!3d27.9094834!4d77.1186775!16s%2Fg%2F11n0bzqw00!19sChIJM6VQUGvXcjkRjD7kFjrRPJI?authuser=0&hl=en&rclk=1,"27.9094834,77.11867749999999"
Madina Masjid,Mosque,"C6JH+WX7 Madina Masjid, Sanjay Colony, Bhatti Kalan, New Delhi, Delhi 110074","Sanjay Colony, Bhatti Kalan",C6JH+WX7,New Delhi,110074,Delhi,IN,https://www.google.com/maps/place/Madina+Masjid/data=!4m7!3m6!1s0x390cdfe6a4296667:0x55ca1032eb54d74!8m2!3d28.4322987!4d77.2299221!16s%2Fg%2F11fhr0mqv2!19sChIJZ2YppObfDDkRdE21LgOhXAU?authuser=0&hl=en&rclk=1,"28.4322987,77.2299221"
Munwara Masjid,Mosque,"Munwara Masjid, E-130, Gali No.6, Third Pusta Main Rd, Jagjeet Nagar, Delhi, 110053","Third Pushta, Nayagaon, Jagjeet Nagar, Shahdara","E-130, Gali No.6, Third Pusta Main Rd",Delhi,110053,Delhi,IN,https://www.google.com/maps/place/Munwara+Masjid/data=!4m7!3m6!1s0x390cfc44ec3cee7b:0x6817d8194e44c0a7!8m2!3d28.6861966!4d77.2559837!16s%2Fg%2F12hq6qdwg!19sChIJe-487ET8DDkRp8BEThnYF2g?authuser=0&hl=en&rclk=1,"28.6861966,77.2559837"
Masjid Amania,Mosque,"Masjid Amania, Main, Maujpur Rd, Shahdara, Delhi, 110053",Shahdara,"Main, Maujpur Rd",Delhi,110053,Delhi,IN,https://www.google.com/maps/place/Masjid+Amania/data=!4m7!3m6!1s0x390cfd4212229ecb:0x56b4673279cdc3f1!8m2!3d28.6855897!4d77.2762341!16s%2Fg%2F11s0s2pf6g!19sChIJy54iEkL9DDkR8cPNeTJntFY?authuser=0&hl=en&rclk=1,"28.685589699999998,77.2762341"
Masjid,Mosque,"Masjid, Molarband, Badarpur, New Delhi, Delhi 110044","Molarband, Badarpur",,New Delhi,110044,Delhi,IN,https://www.google.com/maps/place/Masjid/data=!4m7!3m6!1s0x390ce75604c9317b:0x95388f2bb1f0f9b2!8m2!3d28.5063324!4d77.3130947!16s%2Fg%2F11rkpbdy5r!19sChIJezHJBFbnDDkRsvnwsSuPOJU?authuser=0&hl=en&rclk=1,"28.506332399999998,77.3130947"
Palikha Bhawan masjid,Mosque,"H5CM+CR Palikha Bhawan masjid, Block B, Sector 13, Rama Krishna Puram, New Delhi, Delhi 110023","Block B, Sector 13, Rama Krishna Puram",H5CM+CR,New Delhi,,Delhi,IN,https://www.google.com/maps/place/Palikha+Bhawan+masjid/data=!4m7!3m6!1s0x390d1d225eb0fc93:0xd02146e38fc68bbc!8m2!3d28.5711007!4d77.1846199!16s%2Fg%2F11tjs4v4h2!19sChIJk_ywXiIdDTkRvIvGj-NGIdA?authuser=0&hl=en&rclk=1,"28.5711007,77.1846199"
Musalla Masjid,Mosque,"Musalla Masjid, A84, Gali Number 19, Block B, Bharat Vihar, Madhu Vihar, New Delhi, Delhi, 110059","Block B, Bharat Vihar, Madhu Vihar","A84, Gali Number 19","New Delhi, Delhi",110059,Delhi,IN,https://www.google.com/maps/place/Musalla+Masjid/data=!4m7!3m6!1s0x390d1b5228eab2b5:0x4c225624c80dfd40!8m2!3d28.6062216!4d77.0614438!16s%2Fg%2F11t6nng3_f!19sChIJtbLqKFIbDTkRQP0NyCRWIkw?authuser=0&hl=en&rclk=1,"28.606221599999998,77.06144379999999"
Masjid Shatoot Wali,Mosque,"M67H+G5Q Masjid Shatoot Wali, Chhota Bazar, Mori Gate, New Delhi, Delhi, 110006","Chhota Bazar, Mori Gate",M67H+G5Q,"New Delhi, Delhi",110006,Delhi,IN,https://www.google.com/maps/place/Masjid+Shatoot+Wali/data=!4m7!3m6!1s0x390cfdd8114d08fd:0x326042596014276a!8m2!3d28.663827!4d77.2279973!16s%2Fg%2F11g4h_zjtj!19sChIJ_QhNEdj9DDkRaicUYFlCYDI?authuser=0&hl=en&rclk=1,"28.663826999999998,77.2279973"
Masjid,Mosque,"Masjid, Gali No 19, Gali Number 1, Mustafabad Extn, New Mustafabad, Delhi, 110094","E2 Block, Mustafabad Extn, New Mustafabad","Gali No 19, Gali Number 1",Delhi,110094,Delhi,IN,https://www.google.com/maps/place/Masjid/data=!4m7!3m6!1s0x390cfc1b020b0e91:0xb48a3c3233e41cbd!8m2!3d28.711773!4d77.272563!16s%2Fg%2F12hpqnhjr!19sChIJkQ4LAhv8DDkRvRzkMzI8irQ?authuser=0&hl=en&rclk=1,"28.711772999999997,77.27256299999999"
Masjid,Mosque,"Masjid, 8/2, Budh Bazar, Block L 1, Devli, Sangam Vihar, New Delhi, Delhi 110062","Budh Bazar, Block L 1, Devli, Sangam Vihar",8/2,New Delhi,110062,Delhi,IN,https://www.google.com/maps/place/Masjid/data=!4m7!3m6!1s0x390ce1dde82b3bc3:0x4d3537cacd38aec4!8m2!3d28.4940769!4d77.2261653!16s%2Fg%2F11rk33_10p!19sChIJwzsr6N3hDDkRxK44zco3NU0?authuser=0&hl=en&rclk=1,"28.4940769,77.22616529999999"
Mohammadi Masjid (Ahle Hadees),Mosque,"Mohammadi Masjid (Ahle Hadees), 1526, GALI CHULHE WALI, Narain Market, Sadar Bazaar, Delhi, 110006","Narain Market, Sadar Bazaar","1526, GALI CHULHE WALI",Delhi,110006,Delhi,IN,https://www.google.com/maps/place/Mohammadi+Masjid+%28Ahle+Hadees%29/data=!4m7!3m6!1s0x390cfded7ab89379:0x9e95ef46dab7e370!8m2!3d28.6554836!4d77.2144987!16s%2Fg%2F11l1dgqf_7!19sChIJeZO4eu39DDkRcOO32kbvlZ4?authuser=0&hl=en&rclk=1,"28.6554836,77.2144987"
Masjid Mohammadiya,Mosque,"M675+4VF Masjid Mohammadiya, Bahadurgarh Rd, Hathi Khana, Sadar Bazaar, New Delhi, Delhi, 110006","Hathi Khana, Sadar Bazaar","M675+4VF, Bahadurgarh Rd","New Delhi, Delhi",110006,Delhi,IN,https://www.google.com/maps/place/Masjid+Mohammadiya/data=!4m7!3m6!1s0x390cfd1e19b763d7:0xf26449d51a7a5a53!8m2!3d28.6628007!4d77.2096573!16s%2Fg%2F11tfwp5hs4!19sChIJ12O3GR79DDkRU1p6GtVJZPI?authuser=0&hl=en&rclk=1,"28.6628007,77.2096573"
Masjid,Mosque,"H662+8G4 Masjid, Green Park Ext Rd, Block J, Green Park Extension, Green Park, New Delhi, Delhi 110016","Block J, Green Park Extension, Green Park","H662+8G4, Green Park Ext Rd",New Delhi,110016,Delhi,IN,https://www.google.com/maps/place/Masjid/data=!4m7!3m6!1s0x390ce3053c6f74cf:0x33b8d79c09cb4f99!8m2!3d28.5607743!4d77.2013357!16s%2Fg%2F11krd8fpw7!19sChIJz3RvPAXjDDkRmU_LCZzXuDM?authuser=0&hl=en&rclk=1,"28.5607743,77.2013357"
Masjid,Mosque,"M794+RG5 Masjid, Block A, Shastri Park, Shahdara, Delhi, 110053","Block A, Shastri Park, Shahdara",M794+RG5,Delhi,,Delhi,IN,https://www.google.com/maps/place/Masjid/data=!4m7!3m6!1s0x390cfd74b6378221:0x2da5c9212f831088!8m2!3d28.6695164!4d77.2563643!16s%2Fg%2F11tb42z9g0!19sChIJIYI3tnT9DDkRiBCDLyHJpS0?authuser=0&hl=en&rclk=1,"28.6695164,77.2563643"
Masjid msjd,Mosque,"P33Q+5Q5 Masjid msjd, Y Block, Mangolpuri, Delhi, 110085","Pocket C, Sector 1, Mangolpuri","P33Q+5Q5, Y Block",Delhi,110085,Delhi,IN,https://www.google.com/maps/place/Masjid+%D9%85%D8%B3%D8%AC%D8%AF%E2%80%AD/data=!4m7!3m6!1s0x390d075006af1d37:0x77cfb359c992ee54!8m2!3d28.702881!4d77.089479!16s%2Fg%2F11pzyfmlyd!19sChIJNx2vBlAHDTkRVO6SyVmzz3c?authuser=0&hl=en&rclk=1,"28.702880999999998,77.089479"
Moti Maasjid,Mosque,"E block, Moti Maasjid, Mohalla Al-Quresh, Gali 600, Jahangirpuri, Delhi, 33","Adarsh Mohalla, Maujpur, Jahangirpuri","E block, Mohalla Al-Quresh, Gali 600",Delhi,33,Delhi,IN,https://www.google.com/maps/place/Moti+Maasjid/data=!4m7!3m6!1s0x390cfd8406e39999:0xf7a6379e473330b9!8m2!3d28.6925886!4d77.2768541!16s%2Fg%2F11t6y_dh1t!19sChIJmZnjBoT9DDkRuTAzR543pvc?authuser=0&hl=en&rclk=1,"28.692588599999997,77.2768541"
Masjid,Mosque,"Masjid, L385, Block L, JJ Colony No 3, Nangloi, New Delhi, Delhi, 110041","Block L, JJ Colony No 3, Nangloi",L385,"New Delhi, Delhi",110041,Delhi,IN,https://www.google.com/maps/place/Masjid/data=!4m7!3m6!1s0x390d0530462f99ad:0xf47aa8290ce093fa!8m2!3d28.6842352!4d77.0742041!16s%2Fg%2F11smtj7p27!19sChIJrZkvRjAFDTkR-pPgDCmoevQ?authuser=0&hl=en&rclk=1,"28.6842352,77.0742041"
Masjid,Mosque,"Shop No: 5035, Masjid, Netaji Subhash Marg, Daryaganj, New Delhi, Delhi, 110002",Daryaganj,"Shop No: 5035, Netaji Subhash Marg","New Delhi, Delhi",110002,Delhi,IN,https://www.google.com/maps/place/Masjid/data=!4m7!3m6!1s0x390cfdf175041b95:0x8ef57a2bc9f92c1c!8m2!3d28.6480954!4d77.2403964!16s%2Fg%2F11s664lvxh!19sChIJlRsEdfH9DDkRHCz5ySt69Y4?authuser=0&hl=en&rclk=1,"28.6480954,77.2403964"
Maqqi masjid,Mosque,"Maqqi masjid, khushal park, Chand Market, Main Road, Loni, Ghaziabad, Uttar Pradesh 201102",Loni,"khushal park, Chand Market, Main Road",Ghaziabad,201102,Uttar Pradesh,IN,https://www.google.com/maps/place/Maqqi+masjid/data=!4m7!3m6!1s0x390cff5e0ec94889:0x5f11a2cfa7f2d1f6!8m2!3d28.7591698!4d77.2711527!16s%2Fg%2F11q57z_dlr!19sChIJiUjJDl7_DDkR9tHyp8-iEV8?authuser=0&hl=en&rclk=1,"28.7591698,77.2711527"
Maham Medicos,Pharmacy,"H79P+8CJ Maham Medicos, Nafees Rd, near Al Noor Masjid, Jamia, Batla House, Jamia Nagar, Pahalwan chowk, New Delhi, Delhi 110025","Jamia, Batla House, Jamia Nagar, Pahalwan chowk","H79P+8CJ, Nafees Rd, near Al Noor Masjid",New Delhi,110025,Delhi,IN,https://www.google.com/maps/place/Maham+Medicos/data=!4m7!3m6!1s0x390ce389e0b05c45:0x395796e223597c2e!8m2!3d28.5683283!4d77.2860065!16s%2Fg%2F11rtv60nd5!19sChIJRVyw4InjDDkRLnxZI-KWVzk?authuser=0&hl=en&rclk=1,"28.568328299999997,77.2860065"
Masjid,Mosque,"Masjid, I116, DSIIDC Industrial Area, Sector 5, Bawana, New Delhi, Delhi, 110039","DSIIDC Industrial Area, Sector 5, Bawana",I116,"New Delhi, Delhi",110039,Delhi,IN,https://www.google.com/maps/place/Masjid/data=!4m7!3m6!1s0x390da9cb278fea55:0x351e1b7ec09414c4!8m2!3d28.8011996!4d77.0752247!16s%2Fg%2F11vd9vydsd!19sChIJVeqPJ8upDTkRxBSUwH4bHjU?authuser=0&hl=en&rclk=1,"28.8011996,77.07522469999999"
Malhaka new masjid,Mosque,"6X2M+9JQ Malhaka new masjid, Raheri, Haryana 122103",,6X2M+9JQ,Raheri,122103,Haryana,IN,https://www.google.com/maps/place/Malhaka+new+masjid/data=!4m7!3m6!1s0x390d31fe432aa7b5:0xa3a8829c454440c3!8m2!3d28.2001362!4d76.98382!16s%2Fg%2F11ptqrs9qd!19sChIJtacqQ_4xDTkRw0BERZyCqKM?authuser=0&hl=en&rclk=1,"28.2001362,76.98382"
