name,main_category,address,address_ward,address_street,address_city,address_postal_code,address_state,address_country_code,link,coordinates
Mariyam Masjid,Mosque,"Mariyam Masjid, Ardash society, Mahatma Gandhi Rd, Bardoli, Gujarat 394601",Swaraj Ashram,"Ardash society, Mahatma Gandhi Rd",Bardoli,394601,Gujarat,IN,https://www.google.com/maps/place/Mariyam+Masjid/data=!4m7!3m6!1s0x3be067977b264529:0xc01eac6cc0fce0c8!8m2!3d21.1210883!4d73.1078974!16s%2Fg%2F11j3735pbf!19sChIJKUUme5dn4DsRyOD8wGysHsA?authuser=0&hl=en&rclk=1,"21.1210883,73.1078974"
Minara Masjid,Mosque,"4496+Q5G Minara Masjid, Station Rd, Bardoli, Gujarat 394601",Bardoli,"4496+Q5G, Station Rd",Bardoli,394601,Gujarat,IN,https://www.google.com/maps/place/Minara+Masjid/data=!4m7!3m6!1s0x3be0676ca67b6009:0xea61958fdf4f19ba!8m2!3d21.1194303!4d73.1104517!16s%2Fg%2F1yf_9mch9!19sChIJCWB7pmxn4DsRuhlP34-VYeo?authuser=0&hl=en&rclk=1,"21.119430299999998,73.1104517"
Al Falah Masjid,Mosque,"4494+M2V Al Falah Masjid, Mahatma Gandhi Rd, Asiyana Nagar, Aksha Nagar, Bardoli, Gujarat 394601","Asiyana Nagar, Aksha Nagar","4494+M2V, Mahatma Gandhi Rd",Bardoli,394601,Gujarat,IN,https://www.google.com/maps/place/Al+Falah+Masjid/data=!4m7!3m6!1s0x3be0676ea5df76e3:0x44938ec180879a02!8m2!3d21.1192448!4d73.1050323!16s%2Fg%2F11cjhbvg8s!19sChIJ43bfpW5n4DsRApqHgMGOk0Q?authuser=0&hl=en&rclk=1,"21.1192448,73.10503229999999"
Hazrat Chand Shah Vali Rahmatullah Alaih,Mosque,"4489+8R3 Hazrat Chand Shah Vali Rahmatullah Alaih, Bardoli, Khali, Gujarat 394620",,4489+8R3,"Bardoli, Khali",394620,Gujarat,IN,https://www.google.com/maps/place/Hazrat+Chand+Shah+Vali+Rahmatullah+Alaih/data=!4m7!3m6!1s0x3be06716483c6f09:0x15979aeae6e5bddb!8m2!3d21.1157534!4d73.1195395!16s%2Fg%2F1tf22k09!19sChIJCW88SBZn4DsR273l5uqalxU?authuser=0&hl=en&rclk=1,"21.1157534,73.1195395"
Noor-E-Ilahi Ibadat Khana Masjid,Mosque,"Block Number 2, Noor-E-Ilahi Ibadat Khana Masjid, Mahatma Gandhi Rd, Rajiv Nagar, Aksha Nagar, Bardoli, Gujarat 394601","Rajiv Nagar, Aksha Nagar","Block Number 2, Mahatma Gandhi Rd",Bardoli,394601,Gujarat,IN,https://www.google.com/maps/place/Noor-E-Ilahi+Ibadat+Khana+Masjid/data=!4m7!3m6!1s0x3be0676beae2aabd:0x301ae818f3cb806d!8m2!3d21.1174632!4d73.1067741!16s%2Fg%2F11g8p8hhnc!19sChIJvari6mtn4DsRbYDL8xjoGjA?authuser=0&hl=en&rclk=1,"21.1174632,73.1067741"
MAKKI MASAJID,Mosque,"4485+58F MAKKI MASAJID, Hidayat Nagar, Chanakyapuri Twp, Bardoli, Gujarat 394601","Hidayat Nagar, Chanakyapuri Township",4485+58F,Bardoli,394601,Gujarat,IN,https://www.google.com/maps/place/MAKKI+MASAJID/data=!4m7!3m6!1s0x3be0676af9a68965:0x633d3196c7a4947d!8m2!3d21.115427!4d73.1083049!16s%2Fg%2F11gf5sl0xq!19sChIJZYmm-Wpn4DsRfZSkx5YxPWM?authuser=0&hl=en&rclk=1,"21.115427,73.1083049"
Jumma Masjid,Mosque,"4487+W7V Jumma Masjid, Upli Bazar, Bardoli, Gujarat 394601",Bardoli,"4487+W7V, Upli Bazar",Bardoli,394601,Gujarat,IN,https://www.google.com/maps/place/Jumma+Masjid/data=!4m7!3m6!1s0x3be06714e8cfd0e3:0xb9842bbba2e10e7!8m2!3d21.1173595!4d73.1131771!16s%2Fg%2F1yf_9mdbf!19sChIJ49DP6BRn4DsR5xAuurtCmAs?authuser=0&hl=en&rclk=1,"21.1173595,73.1131771"
Hafesji Masjid,Mosque,"4496+42M Hafesji Masjid, Hafesji Mahollo, Swaraj Ashram, Bardoli, Gujarat 394601",Swaraj Ashram,"4496+42M, Hafesji Mahollo",Bardoli,394601,Gujarat,IN,https://www.google.com/maps/place/Hafesji+Masjid/data=!4m7!3m6!1s0x3be0676b40f5dd57:0x4fd757b5f460b806!8m2!3d21.1178496!4d73.1100604!16s%2Fg%2F1yf_9mf88!19sChIJV931QGtn4DsRBrhg9LVX108?authuser=0&hl=en&rclk=1,"21.1178496,73.1100604"
masjide aqsha,Mosque,"44C4+HJQ masjide aqsha, Swaraj Ashram, Bardoli, Gujarat 394601",Swaraj Ashram,44C4+HJQ,Bardoli,394601,Gujarat,IN,https://www.google.com/maps/place/masjide+aqsha/data=!4m7!3m6!1s0x3be0676c349a78ff:0xe3c09086bbc93d5a!8m2!3d21.1214604!4d73.1066064!16s%2Fg%2F11gfnh11lh!19sChIJ_3iaNGxn4DsRWj3Ju4aQwOM?authuser=0&hl=en&rclk=1,"21.1214604,73.10660639999999"
Masjid -E-Bilal R.A.,Mosque,"4493+V2F Masjid -E-Bilal R.A., B-57, Aqsa Society Rd, Aksha Nagar, Bardoli, Gujarat 394601",Aksha Nagar,"4493+V2F, B-57, Aqsa Society Rd",Bardoli,394601,Gujarat,IN,https://www.google.com/maps/place/Masjid+-E-Bilal+R.A./data=!4m7!3m6!1s0x3be0676ed9f2e3c3:0x1d3c23bf59426d65!8m2!3d21.1191157!4d73.1028369!16s%2Fg%2F11c5h2kk4d!19sChIJw-Py2W5n4DsRZW1CWb8jPB0?authuser=0&hl=en&rclk=1,"21.1191157,73.1028369"
Madni Masjid,Mosque,"44J4+V66 Madni Masjid, Station Rd, Patidarjin, Arpit Bafna Society, Bardoli, Gujarat 394601","Patidarjin, Arpit Bafna Society","44J4+V66, Station Rd",Bardoli,394601,Gujarat,IN,https://www.google.com/maps/place/Madni+Masjid/data=!4m7!3m6!1s0x3be0677427976737:0xe6c71440f01df161!8m2!3d21.1321627!4d73.1055298!16s%2Fg%2F1yf_9mdf0!19sChIJN2eXJ3Rn4DsRYfEd8EAUx-Y?authuser=0&hl=en&rclk=1,"21.1321627,73.1055298"
Mashjide Aesha,Mosque,"43MW+85Q Mashjide Aesha, Baben, Bardoli, Gujarat 394601",Baben,43MW+85Q,Bardoli,394601,Gujarat,IN,https://www.google.com/maps/place/Mashjide+Aesha/data=!4m7!3m6!1s0x3be06778eca9aaf3:0xee077f08f0c46d56!8m2!3d21.1333408!4d73.0954844!16s%2Fg%2F11hb4cznj1!19sChIJ86qp7Hhn4DsRVm3E8Ah_B-4?authuser=0&hl=en&rclk=1,"21.1333408,73.0954844"
Ihsan Park Masjid Ibadat Khana,Mosque,"Ihsan Park Masjid Ibadat Khana, Ihsan Park, Nr. Kasturi Hotel, Vyara - Bardoli Highway, Isroli, Bardoli, Gujarat 394601",,"Ihsan Park, Nr. Kasturi Hotel, Vyara - Bardoli Highway, Isroli",Bardoli,394601,Gujarat,IN,https://www.google.com/maps/place/Ihsan+Park+Masjid+Ibadat+Khana/data=!4m7!3m6!1s0x3be067648092262b:0xb32aba0d076e97ac!8m2!3d21.1059385!4d73.1200182!16s%2Fg%2F11fsk84j2c!19sChIJKyaSgGRn4DsRrJduBw26KrM?authuser=0&hl=en&rclk=1,"21.1059385,73.12001819999999"
Masjid-E-Quba,Mosque,"4483+PMX Masjid-E-Quba, Quba Park, Bardoli, Gujarat, Bardoli",Aksha Nagar,"4483+PMX, Quba Park, Bardoli, Gujarat",Bardoli,,Gujarat,IN,https://www.google.com/maps/place/Masjid-E-Quba/data=!4m7!3m6!1s0x3be067695d7a1521:0xfbe2fc99bd2106ba!8m2!3d21.1168679!4d73.1042431!16s%2Fg%2F11b69s23t0!19sChIJIRV6XWln4DsRugYhvZn84vs?authuser=0&hl=en&rclk=1,"21.1168679,73.10424309999999"
Talawdi Mashjid,Mosque,"4477+Q8H Talawdi Mashjid, Talavadi, Bardoli, Khali, Gujarat 394601",Talavadi,4477+Q8H,"Bardoli, Khali",394601,Gujarat,IN,https://www.google.com/maps/place/Talawdi+Mashjid/data=!4m7!3m6!1s0x3be067156f0d1a2d:0x8e3f22b8f25e1ca1!8m2!3d21.1144299!4d73.1133478!16s%2Fg%2F11f3jtkgh9!19sChIJLRoNbxVn4DsRoRxe8rgiP44?authuser=0&hl=en&rclk=1,"21.114429899999998,73.1133478"
Masjid-E-Gareeb Nawaz,Mosque,"4492+VWF Masjid-E-Gareeb Nawaz, Golden Park bardoli taluka Bardoli, dist, Surat",Aksha Nagar,"4492+VWF, Golden Park bardoli taluka Bardoli, dist","Surat, Bardoli",,Gujarat,IN,https://www.google.com/maps/place/Masjid-E-Gareeb+Nawaz/data=!4m7!3m6!1s0x3be067a7be798dc9:0xada0928fa5fb96a9!8m2!3d21.1196913!4d73.1022952!16s%2Fg%2F11q45kw2v9!19sChIJyY15vqdn4DsRqZb7pY-SoK0?authuser=0&hl=en&rclk=1,"21.1196913,73.1022952"
Bahere madina masjid,Mosque,"4475+G7P Bahere madina masjid, Chanakyapuri Twp, Bardoli, Gujarat 394601",Chanakyapuri Township,4475+G7P,Bardoli,394601,Gujarat,IN,https://www.google.com/maps/place/Bahere+madina+masjid/data=!4m7!3m6!1s0x3be06715727edaaf:0xc7d84f5ce82ec1fa!8m2!3d21.1138399!4d73.1082025!16s%2Fg%2F11f616mfkz!19sChIJr9p-chVn4DsR-sEu6FxP2Mc?authuser=0&hl=en&rclk=1,"21.1138399,73.10820249999999"
Yusufi Masjid,Mosque,"44C5+3JP Yusufi Masjid, Swaraj Ashram, Bardoli, Gujarat 394601",Swaraj Ashram,44C5+3JP,Bardoli,394601,Gujarat,IN,https://www.google.com/maps/place/Yusufi+Masjid/data=!4m7!3m6!1s0x3be0676c8d779c4f:0xff26b1b729cdadb5!8m2!3d21.120223!4d73.109093!16s%2Fg%2F11d_5kw2yl!19sChIJT5x3jWxn4DsRta3NKbexJv8?authuser=0&hl=en&rclk=1,"21.120223,73.109093"
Masjid -E- Nureahmadi,Mosque,"4493+4MR Masjid -E- Nureahmadi, Madina Nagar, Bardoli, Gujarat 394601",Madina Nagar,4493+4MR,Bardoli,,Gujarat,IN,https://www.google.com/maps/place/Masjid+-E-+Nureahmadi/data=!4m7!3m6!1s0x3be067e4e5ae5345:0x823dc9151e25b8aa!8m2!3d21.1178691!4d73.104127!16s%2Fg%2F11g22z7gqm!19sChIJRVOu5eRn4DsRqrglHhXJPYI?authuser=0&hl=en&rclk=1,"21.1178691,73.10412699999999"
Masjid Al Falah,Mosque,"43CV+FMP Masjid Al Falah, Asiyana Nagar, Swaraj Ashram, Bardoli, Gujarat 394601","Asiyana Nagar, Swaraj Ashram",43CV+FMP,Bardoli,394601,Gujarat,IN,https://www.google.com/maps/place/Masjid+Al+Falah/data=!4m7!3m6!1s0x3be067649b000001:0x783a82289f4103c7!8m2!3d21.1212177!4d73.0942042!16s%2Fg%2F11c60dj3w9!19sChIJAQAAm2Rn4DsRxwNBnyiCOng?authuser=0&hl=en&rclk=1,"21.1212177,73.0942042"
MOHAMMADI masjid,Mosque,"4475+6G2 MOHAMMADI masjid, Surti, Maheshwar Park Society, Chanakyapuri Twp, Bardoli, Gujarat 395012",Chanakyapuri Township,"4475+6G2 Surti, Maheshwar Park Society",Bardoli,395012,Gujarat,IN,https://www.google.com/maps/place/MOHAMMADI+masjid/data=!4m7!3m6!1s0x3be06736cf720e01:0x3e8fd7345252549e!8m2!3d21.1130121!4d73.1087653!16s%2Fg%2F11r73y3ydr!19sChIJAQ5yzzZn4DsRnlRSUjTXjz4?authuser=0&hl=en&rclk=1,"21.1130121,73.1087653"
Masjid-e-Abuzar Gifari RA,Mosque,"Masjid-e-Abuzar Gifari RA, Abuzar Ghifari (R.A.) Masjid, Aqsa Society Rd, Aksha Nagar, Bardoli, Gujarat 394601",Aksha Nagar,"Abuzar Ghifari (R.A.) Masjid, Aqsa Society Rd",Bardoli,394601,Gujarat,IN,https://www.google.com/maps/place/Masjid-e-Abuzar+Gifari+RA/data=!4m7!3m6!1s0x3be067859c9a3ea1:0x1addae44480662ee!8m2!3d21.1209042!4d73.1033111!16s%2Fg%2F11flrnv2p0!19sChIJoT6anIVn4DsR7mIGSESu3Ro?authuser=0&hl=en&rclk=1,"21.1209042,73.1033111"
"Quwwatul Islam Masjid, Bardoli",Mosque,"44M2+C5Q Quwwatul Islam Masjid, Bardoli, Baben, Bardoli, Gujarat 394601",Baben,44M2+C5Q,Bardoli,394601,Gujarat,IN,"https://www.google.com/maps/place/Quwwatul+Islam+Masjid,+Bardoli/data=!4m7!3m6!1s0x3be067d64bacd023:0x9876badef72bb896!8m2!3d21.1331278!4d73.10066!16s%2Fg%2F11n_yp59gy!19sChIJI9CsS9Zn4DsRlrgr9966dpg?authuser=0&hl=en&rclk=1","21.1331278,73.10065999999999"
"Masjid-e-bilal, amanpark society,aasiiyana nagar",Mosque,"4493+F6V Masjid-e-bilal, amanpark society,aasiiyana nagar, Road, Ashiana Nagar Phase 1, Aksha Nagar, Bardoli, Gujarat 394601","Ashiana Nagar Phase 1, Aksha Nagar","4493+F6V, Road",Bardoli,394601,Gujarat,IN,"https://www.google.com/maps/place/Masjid-e-bilal,+amanpark+society,aasiiyana+nagar/data=!4m7!3m6!1s0x3be0678772fa60bd:0x68df303229c2a3b0!8m2!3d21.1187469!4d73.1030357!16s%2Fg%2F11q962m67b!19sChIJvWD6codn4DsRsKPCKTIw32g?authuser=0&hl=en&rclk=1","21.118746899999998,73.10303569999999"
Masjid-e-aayesha,Mosque,"Masjid-e-aayesha, Shastry Nagar, Baben, Bardoli, Gujarat 394601",Baben,Shastry Nagar,Bardoli,394601,Gujarat,IN,https://www.google.com/maps/place/Masjid-e-aayesha/data=!4m7!3m6!1s0x3be067f1ae821f9f:0x4fe4433e4d2e2a24!8m2!3d21.1334911!4d73.0954777!16s%2Fg%2F11j07vkzf2!19sChIJnx-CrvFn4DsRJCouTT5D5E8?authuser=0&hl=en&rclk=1,"21.1334911,73.0954777"
Tekra wali masjid,Mosque,"4488+H5M Tekra wali masjid, Talavadi, Bardoli, Gujarat 394601",Talavadi,4488+H5M,Bardoli,394601,Gujarat,IN,https://www.google.com/maps/place/Tekra+wali+masjid/data=!4m7!3m6!1s0x3be067df715fb2b5:0x7f13bc8633d91639!8m2!3d21.1164747!4d73.1154222!16s%2Fg%2F11p0kg9zkg!19sChIJtbJfcd9n4DsRORbZM4a8E38?authuser=0&hl=en&rclk=1,"21.116474699999998,73.1154222"
Masjide bahare madina,Mosque,"Masjide bahare madina, Surti park, Baben, Bardoli, Gujarat 394601",Baben,Surti park,Bardoli,,Gujarat,IN,https://www.google.com/maps/place/Masjide+bahare+madina/data=!4m7!3m6!1s0x3be067580d974bdf:0x14a7ef2f5f2bce87!8m2!3d21.1306089!4d73.0990127!16s%2Fg%2F11rh0227lk!19sChIJ30uXDVhn4DsRh84rXy_vpxQ?authuser=0&hl=en&rclk=1,"21.1306089,73.0990127"
