name,main_category,address,address_ward,address_street,address_city,address_postal_code,address_state,address_country_code,link,coordinates
Jama Masjid,Mosque,"6JRH+FQ3 Jama Masjid, Sahibganj, Jharkhand 816109",,6JRH+FQ3,Sahibganj,816109,Jharkhand,IN,https://www.google.com/maps/place/Jama+Masjid/data=!4m7!3m6!1s0x39fa98b809ff6779:0x3776736365fd2fad!8m2!3d25.2411417!4d87.6294335!16s%2Fg%2F11bxgbhrrk!19sChIJeWf_CbiY-jkRrS_9ZWNzdjc?authuser=0&hl=en&rclk=1,"25.2411417,87.62943349999999"
Habibpur Masjid,Mosque,"Habibpur Masjid, Ward No. 16, Habibpur, Sahibganj, Jharkhand 816109","Ward No. 16, Habibpur",,Sahibganj,816109,Jharkhand,IN,https://www.google.com/maps/place/Habibpur+Masjid/data=!4m7!3m6!1s0x39fa98957788bb83:0x7c1dabf778aefe7d!8m2!3d25.2441403!4d87.6390159!16s%2Fg%2F1232p55gy!19sChIJg7uId5WY-jkRff6uePerHXw?authuser=0&hl=en&rclk=1,"25.244140299999998,87.63901589999999"
IQRA MASJID,Mosque,"IQRA MASJID, Mazhar Tola Rd, Iqra Colony, Sahibganj, Jharkhand 816109",Iqra Colony,Mazhar Tola Rd,Sahibganj,816109,Jharkhand,IN,https://www.google.com/maps/place/IQRA+MASJID/data=!4m7!3m6!1s0x39fa994b005f3441:0x4bc4ad48370c0377!8m2!3d25.2367043!4d87.6348573!16s%2Fg%2F11flgdl2qx!19sChIJQTRfAEuZ-jkRdwMMN0itxEs?authuser=0&hl=en&rclk=1,"25.2367043,87.6348573"
Muhammadia Masjid Imli Tola,Mosque,"6JMM+RX7 Muhammadia Masjid Imli Tola, Imli Tola, Mazhar Tola Rd, Sahibganj, Jharkhand 816109",,"6JMM+RX7, Imli Tola, Mazhar Tola Rd",Sahibganj,816109,Jharkhand,IN,https://www.google.com/maps/place/Muhammadia+Masjid+Imli+Tola/data=!4m7!3m6!1s0x39fa98c3c34855c9:0xb089e09449a52611!8m2!3d25.2345414!4d87.6349314!16s%2Fg%2F11c1ny0ktv!19sChIJyVVIw8OY-jkRESalSZTgibA?authuser=0&hl=en&rclk=1,"25.234541399999998,87.6349314"
"Masjid-e-Mustafa[s.a.w], Azadnagar, CooliPada",Mosque,"Masjid-e-Mustafa[s.a.w], Azadnagar, CooliPada, Cooliepara, Sahibganj, Jharkhand 816109",,,"Cooliepara, Sahibganj",816109,Jharkhand,IN,"https://www.google.com/maps/place/Masjid-e-Mustafa%5Bs.a.w%5D,+Azadnagar,+CooliPada/data=!4m7!3m6!1s0x39fa98be34a5e94d:0xf076ef6ee7f269f0!8m2!3d25.2442598!4d87.6370388!16s%2Fg%2F11d_705mx7!19sChIJTemlNL6Y-jkR8Gny527vdvA?authuser=0&hl=en&rclk=1","25.2442598,87.6370388"
Badi Maszid,Mosque,"Badi Maszid, Mazhar Tola Rd, Sahibganj, Jharkhand 816109",,Mazhar Tola Rd,Sahibganj,816109,Jharkhand,IN,https://www.google.com/maps/place/Badi+Maszid/data=!4m7!3m6!1s0x39fa98c1020281dd:0xe1237f37df2f2189!8m2!3d25.238195!4d87.6356441!16s%2Fg%2F11c4sx55d7!19sChIJ3YECAsGY-jkRiSEv3zd_I-E?authuser=0&hl=en&rclk=1,"25.238194999999997,87.6356441"
Chhoti Masjid,Mosque,"6JRH+QPV Chhoti Masjid, Sahibganj, Jharkhand 816109",,6JRH+QPV,Sahibganj,816109,Jharkhand,IN,https://www.google.com/maps/place/Chhoti+Masjid/data=!4m7!3m6!1s0x39fa99e4a938ce65:0xa6ac04776814efba!8m2!3d25.2419986!4d87.6293111!16s%2Fg%2F11h1ywsxbj!19sChIJZc44qeSZ-jkRuu8UaHcErKY?authuser=0&hl=en&rclk=1,"25.2419986,87.6293111"
Raza Naemi Jama Masjid,Mosque,"6JPH+F89 Raza Naemi Jama Masjid, Hatai Parisar, Sahibganj, Jharkhand 816109",Hatai Parisar,6JPH+F89,Sahibganj,816109,Jharkhand,IN,https://www.google.com/maps/place/Raza+Naemi+Jama+Masjid/data=!4m7!3m6!1s0x39fa98c8a703395d:0x4c0c742fcd9bb6c0!8m2!3d25.2361568!4d87.6283488!16s%2Fg%2F11d_dvjv8r!19sChIJXTkDp8iY-jkRwLabzS90DEw?authuser=0&hl=en&rclk=1,"25.2361568,87.6283488"
MASJID E TAHIRA,Mosque,"6JPJ+X22 MASJID E TAHIRA, Hatai Parisar, Sahibganj, Jharkhand 816109",Hatai Parisar,6JPJ+X22,Sahibganj,816109,Jharkhand,IN,https://www.google.com/maps/place/MASJID+E+TAHIRA/data=!4m7!3m6!1s0x39fa9916ecb4413b:0x25faf91b2984b424!8m2!3d25.2373921!4d87.6300092!16s%2Fg%2F11f731vbkr!19sChIJO0G07BaZ-jkRJLSEKRv5-iU?authuser=0&hl=en&rclk=1,"25.237392099999997,87.63000919999999"
RAHMAT MASJID,Mosque,"RAHMAT MASJID, Iqra colony, Near, Stadium Rd, Mazhar Tola Rd, Sahibganj, Jharkhand 816109",,"Iqra colony, Near, Stadium Rd, Mazhar Tola Rd",Sahibganj,816109,Jharkhand,IN,https://www.google.com/maps/place/RAHMAT+MASJID/data=!4m7!3m6!1s0x39fa991d9ba8570f:0x221fb3305bf9c8e7!8m2!3d25.2362557!4d87.6333314!16s%2Fg%2F11mm_ntr2f!19sChIJD1eomx2Z-jkR58j5WzCzHyI?authuser=0&hl=en&rclk=1,"25.236255699999997,87.6333314"
Sakrogarh Masjid,Mosque,"6JRW+G5F Sakrogarh Masjid, Sakrogarh, Sahibganj, Jharkhand 816109",Sakrogarh,6JRW+G5F,Sahibganj,816109,Jharkhand,IN,https://www.google.com/maps/place/Sakrogarh+Masjid/data=!4m7!3m6!1s0x39fa99266207f64b:0x74dc8ffd899d21e3!8m2!3d25.2413134!4d87.6454144!16s%2Fg%2F11rk48fp5q!19sChIJS_YHYiaZ-jkR4yGdif2P3HQ?authuser=0&hl=en&rclk=1,"25.2413134,87.64541439999999"
Ahmad Raza Noorani Masjid,Mosque,"6JPG+C63 Ahmad Raza Noorani Masjid, Sahibganj, Barabitauvna, Jharkhand 816109",,6JPG+C63,"Sahibganj, Barabitauvna",816109,Jharkhand,IN,https://www.google.com/maps/place/Ahmad+Raza+Noorani+Masjid/data=!4m7!3m6!1s0x39fa9908fcaae19d:0x2dbae137dd53c896!8m2!3d25.2360127!4d87.6255368!16s%2Fg%2F11v0nn72qb!19sChIJneGq_AiZ-jkRlshT3Tfhui0?authuser=0&hl=en&rclk=1,"25.2360127,87.62553679999999"
BichlaTola Masjid,Mosque,"6JRP+R85 BichlaTola Masjid, Dr Rajendra Prasad Rd, Sahibganj, Jharkhand 816109",,"6JRP+R85, Dr Rajendra Prasad Rd",Sahibganj,816109,Jharkhand,IN,https://www.google.com/maps/place/BichlaTola+Masjid/data=!4m7!3m6!1s0x39fa98bf78203ccb:0xe8c3d7688a750c2e!8m2!3d25.2420164!4d87.6358442!16s%2Fg%2F11f2w5lw1k!19sChIJyzwgeL-Y-jkRLgx1imjXw-g?authuser=0&hl=en&rclk=1,"25.242016399999997,87.6358442"
Zama masjid,Mosque,"6JQW+64G Zama masjid, Sahibganj, Santinagar, Jharkhand 816109",,6JQW+64G,"Sahibganj, Santinagar",816109,Jharkhand,IN,https://www.google.com/maps/place/Zama+masjid/data=!4m7!3m6!1s0x39fa99e883033c47:0x6c52308544079b9d!8m2!3d25.2380537!4d87.6453413!16s%2Fg%2F11fj5lm7pf!19sChIJRzwDg-iZ-jkRnZsHRIUwUmw?authuser=0&hl=en&rclk=1,"25.2380537,87.6453413"
Alinagar,Mosque,"Alinagar, Sahibganj college, Near, New Bypass Road, Sahibganj, Jharkhand 816109",,"Sahibganj college, Near, New Bypass Road",Sahibganj,816109,Jharkhand,IN,https://www.google.com/maps/place/Alinagar/data=!4m7!3m6!1s0x39fa99155a068bcf:0xf80fbf412a826fa8!8m2!3d25.2418938!4d87.6400202!16s%2Fg%2F11q2nrx0hx!19sChIJz4sGWhWZ-jkRqG-CKkG_D_g?authuser=0&hl=en&rclk=1,"25.2418938,87.6400202"
Chhoti Masjid,Mosque,"6JVQ+W22 Chhoti Masjid, Cooliepada, Sahibganj, Jharkhand 816109",Cooliepada,6JVQ+W22,Sahibganj,816109,Jharkhand,IN,https://www.google.com/maps/place/Chhoti+Masjid/data=!4m7!3m6!1s0x39fa9942ea976c91:0x524c7911922f5183!8m2!3d25.2447738!4d87.637527!16s%2Fg%2F11v0nn7jqc!19sChIJkWyX6kKZ-jkRg1EvkhF5TFI?authuser=0&hl=en&rclk=1,"25.244773799999997,87.63752699999999"
Masjid-e-Kuba,Mosque,"6JVR+QFR Masjid-e-Kuba, Alinagar, Sahibganj, Jharkhand 816109",Alinagar,6JVR+QFR,Sahibganj,816109,Jharkhand,IN,https://www.google.com/maps/place/Masjid-e-Kuba/data=!4m7!3m6!1s0x39fa9938c8ea9c81:0x68d5019a77be045c!8m2!3d25.2444804!4d87.6411305!16s%2Fg%2F11kq3f83kl!19sChIJgZzqyDiZ-jkRXAS-d5oB1Wg?authuser=0&hl=en&rclk=1,"25.2444804,87.6411305"
ASITULLA AQSA MASJId,Mosque,"ASITULLA AQSA MASJId, ASEETULLA AQSA MASJID, Sahibganj, Santinagar, Jharkhand 816109",,ASEETULLA AQSA MASJID,"Sahibganj, Santinagar",816109,Jharkhand,IN,https://www.google.com/maps/place/ASITULLA+AQSA+MASJId/data=!4m7!3m6!1s0x39fa99b9b5eb31ed:0x9fe43976018f36c0!8m2!3d25.2380537!4d87.6453413!16s%2Fg%2F11tg4yg_nr!19sChIJ7THrtbmZ-jkRwDaPAXY55J8?authuser=0&hl=en&rclk=1,"25.2380537,87.6453413"
RasoolPur Dahla Masjid,Mosque,"6JVH+264 RasoolPur Dahla Masjid, Dahla Rd, Rasulpur Dahla, Sahibganj, Jharkhand 816109",Rasulpur Dahla,"6JVH+264, Dahla Rd",Sahibganj,816109,Jharkhand,IN,https://www.google.com/maps/place/RasoolPur+Dahla+Masjid/data=!4m7!3m6!1s0x39fa99ab83176ec9:0x6c85f4987532bfa2!8m2!3d25.2425029!4d87.6280825!16s%2Fg%2F11vjc8q8gp!19sChIJyW4Xg6uZ-jkRor8ydZj0hWw?authuser=0&hl=en&rclk=1,"25.242502899999998,87.62808249999999"
"NEW MASJID, KULIPARA",Mosque,"6JQW+64G NEW MASJID, KULIPARA, Santinagar, Sahibganj, Jharkhand 816109",,6JQW+64G,"Santinagar, Sahibganj",816109,Jharkhand,IN,"https://www.google.com/maps/place/NEW+MASJID,+KULIPARA/data=!4m7!3m6!1s0x39fa99a7ed9f9b5d:0xddec0d6b23f05cac!8m2!3d25.2380537!4d87.6453413!16s%2Fg%2F11spkb8f9w!19sChIJXZuf7aeZ-jkRrFzwI2sN7N0?authuser=0&hl=en&rclk=1","25.2380537,87.6453413"
