name,main_category,address,address_ward,address_street,address_city,address_postal_code,address_state,address_country_code,link,coordinates
Ashrafiya Masjid Purebaaz,Mosque,"Ashrafiya Masjid Purebaaz, Purebaaz 227816, Jagdishpur, Uttar Pradesh",,Purebaaz 227816,"Jagdishpur, Mirapur",,Uttar Pradesh,IN,https://www.google.com/maps/place/Ashrafiya+Masjid+Purebaaz/data=!4m7!3m6!1s0x399a4903383a1d6d:0x7a6951d093d488db!8m2!3d26.4937046!4d81.6433605!16s%2Fg%2F11g6b32zlq!19sChIJbR06OANJmjkR24jUk9BRaXo?authuser=0&hl=en&rclk=1,"26.493704599999997,81.6433605"
sunni noori masjid,Mosque,"2JCV+9XJ sunni noori masjid, Jagadishpur, Uttar Pradesh 273151",,2JCV+9XJ,Jagadishpur,273151,Uttar Pradesh,IN,https://www.google.com/maps/place/sunni+noori+masjid/data=!4m7!3m6!1s0x3993ff7ad06714d7:0x5fe71588ea2ceba3!8m2!3d27.0209583!4d83.6448869!16s%2Fg%2F11c54cty15!19sChIJ1xRn0Hr_kzkRo-ss6ogV518?authuser=0&hl=en&rclk=1,"27.0209583,83.6448869"
MOULANA ALI ASGAR SAHEB MASJID,Mosque,"FFX3+VXM MOULANA ALI ASGAR SAHEB MASJID, shishiyaa haatt - semaapur rodd, Jagdishpur, Sikkat, Bihar 854104",,"FFX3+VXM, shishiyaa haatt - semaapur rodd","Jagdishpur, Sikkat",854104,Bihar,IN,https://www.google.com/maps/place/MOULANA+ALI+ASGAR+SAHEB+MASJID/data=!4m7!3m6!1s0x39f005d875c7085d:0x753c04d2b117e49e!8m2!3d25.4997154!4d87.4549257!16s%2Fg%2F11jz4708ll!19sChIJXQjHddgF8DkRnuQXsdIEPHU?authuser=0&hl=en&rclk=1,"25.4997154,87.45492569999999"
DARGAH MASJID PURAINI,Mosque,"4XRH+V68 DARGAH MASJID PURAINI, Jagadishpur, Bihar 813105",,4XRH+V68,Jagadishpur,,Bihar,IN,https://www.google.com/maps/place/DARGAH+MASJID+PURAINI/data=!4m7!3m6!1s0x39f04de3e2d48b8b:0x88a17fb56880b4ab!8m2!3d25.1421552!4d86.9780667!16s%2Fg%2F11f62f4zjm!19sChIJi4vU4uNN8DkRq7SAaLV_oYg?authuser=0&hl=en&rclk=1,"25.142155199999998,86.9780667"
Bichli Masjid,Mosque,"HMVM+XHG Bichli Masjid, Daulatpur, Balua, Bihar 802301",,HMVM+XHG,"Daulatpur, Balua",,Bihar,IN,https://www.google.com/maps/place/Bichli+Masjid/data=!4m7!3m6!1s0x3992a0c95c9f3a89:0xf2bf91adb9f50958!8m2!3d25.5949328!4d84.6839552!16s%2Fg%2F11gfjvvpft!19sChIJiTqfXMmgkjkRWAn1ua2Rv_I?authuser=0&hl=en&rclk=1,"25.5949328,84.6839552"
Jama Masjid jagdishpur,Mosque,"CJXC+9VR Jama Masjid jagdishpur, Jagdishpur, Uttar Pradesh 227809",,CJXC+9VR,Jagdishpur,227809,Uttar Pradesh,IN,https://www.google.com/maps/place/Jama+Masjid+jagdishpur/data=!4m7!3m6!1s0x399a4eb6f014d2cd:0x4c23f036a38d2251!8m2!3d26.4484985!4d81.6221467!16s%2Fg%2F11c6dj_y04!19sChIJzdIU8LZOmjkRUSKNozbwI0w?authuser=0&hl=en&rclk=1,"26.4484985,81.6221467"
Masjid Lodhiyawan,Mosque,"CJVV+7W4 Masjid Lodhiyawan, Jagdishpur, Bagahi, Uttar Pradesh 227809",,CJVV+7W4,"Jagdishpur, Bagahi",227809,Uttar Pradesh,IN,https://www.google.com/maps/place/Masjid+Lodhiyawan/data=!4m7!3m6!1s0x399a4ed8ff6c871f:0xac240e3b1303d01!8m2!3d26.4431297!4d81.6448385!16s%2Fg%2F11hbc39tqs!19sChIJH4ds_9hOmjkRAT0wseNAwgo?authuser=0&hl=en&rclk=1,"26.4431297,81.64483849999999"
Khan khadda Masjid,Mosque,"WWPP+4MQ Khan khadda Masjid, Khadda Bujurag, Barahra, Uttar Pradesh 274304",,WWPP+4MQ,"Khadda Bujurag, Barahra",274304,Uttar Pradesh,IN,https://www.google.com/maps/place/Khan+khadda+Masjid/data=!4m7!3m6!1s0x39938d25d4020a51:0x991850e987433dfb!8m2!3d26.9353278!4d83.9367252!16s%2Fg%2F11jfqrxs7_!19sChIJUQoC1CWNkzkR-z1Dh-lQGJk?authuser=0&hl=en&rclk=1,"26.9353278,83.9367252"
Jama Masjid - Paliganj,Mosque,"8RF2+QCM Jama Masjid - Paliganj, Paliganj, Bihar 801110",,8RF2+QCM,Paliganj,801110,Bihar,IN,https://www.google.com/maps/place/Jama+Masjid+-+Paliganj/data=!4m7!3m6!1s0x398d4f0e40a3d9c7:0xdfe07b9fc8743c16!8m2!3d25.3244667!4d84.8010516!16s%2Fg%2F11bx2l20ww!19sChIJx9mjQA5PjTkRFjx0yJ974N8?authuser=0&hl=en&rclk=1,"25.3244667,84.8010516"
Masjid E Ghousia,Mosque,"VPPH+GW7 Masjid E Ghousia, Raghunathpur, Jagdishpur, Bihar 841414",,VPPH+GW7,"Raghunathpur, Jagdishpur",841414,Bihar,IN,https://www.google.com/maps/place/Masjid+E+Ghousia/data=!4m7!3m6!1s0x3992b908710436df:0xd3ee826d03bd1016!8m2!3d25.8862852!4d84.7297892!16s%2Fg%2F11f397rlp0!19sChIJ3zYEcQi5kjkRFhC9A22C7tM?authuser=0&hl=en&rclk=1,"25.8862852,84.7297892"
Gausiya Muslim Masjid Akashi,Mosque,"2353+4X8 Gausiya Muslim Masjid Akashi, Akasi, Bihar 821115",,2353+4X8,Akasi,821115,Bihar,IN,https://www.google.com/maps/place/Gausiya+Muslim+Masjid+Akashi/data=!4m7!3m6!1s0x398dba59749b53a7:0xa2b6701c31708c4!8m2!3d25.0077969!4d84.0549379!16s%2Fg%2F11f1r3b13g!19sChIJp1ObdFm6jTkRxAgXwwFnKwo?authuser=0&hl=en&rclk=1,"25.0077969,84.0549379"
Mecca Masjid Salempur,Mosque,"4WRR+9H3 Mecca Masjid Salempur, Vill, Salimpur Po, Mohiuddinpur Ps, Jagdishpur Dist, Bihar 813105",,"4WRR+9H3, Vill, Salimpur Po, Mohiuddinpur Ps, Jagdishpur Dist",Dhawa Kajraili,813105,Bihar,IN,https://www.google.com/maps/place/Mecca+Masjid+Salempur/data=!4m7!3m6!1s0x39f04c89ebe18f83:0x61b0aac774ba483f!8m2!3d25.1408868!4d86.9414338!16s%2Fg%2F11f3dtm1fk!19sChIJg4_h64lM8DkRP0i6dMeqsGE?authuser=0&hl=en&rclk=1,"25.1408868,86.9414338"
Fatehpur Jama Masjid,Mosque,"44Q9+CGP Fatehpur Jama Masjid, Jagdishpur, Bihar 847422",,44Q9+CGP,Jagdishpur,,Bihar,IN,https://www.google.com/maps/place/Fatehpur+Jama+Masjid/data=!4m7!3m6!1s0x39eddae698b26585:0x384cdeb7eaca8b97!8m2!3d26.1385764!4d86.1188337!16s%2Fg%2F11hb286d9j!19sChIJhWWymOba7TkRl4vK6rfeTDg?authuser=0&hl=en&rclk=1,"26.138576399999998,86.1188337"
Chiktoli Masjid,Mosque,"FC78+X2Q Chiktoli Masjid, Unnamed Road, Jagdishpur, Bihar 802158",,"FC78+X2Q, Unnamed Road",Jagdishpur,802158,Bihar,IN,https://www.google.com/maps/place/Chiktoli+Masjid/data=!4m7!3m6!1s0x398d7c9fa9b2fd77:0xb9d33eb9d3e72053!8m2!3d25.4649538!4d84.4151245!16s%2Fg%2F11h9y60rc9!19sChIJd_2yqZ98jTkRUyDn07k-07k?authuser=0&hl=en&rclk=1,"25.4649538,84.41512449999999"
Noori Masjid,Mosque,"CH43+JXH Noori Masjid, Garhani, Bihar 802203",,CH43+JXH,Garhani,,Bihar,IN,https://www.google.com/maps/place/Noori+Masjid/data=!4m7!3m6!1s0x398d6746afbf6e23:0x7be008e6c6340820!8m2!3d25.4065551!4d84.5549906!16s%2Fg%2F11fhr6rhnz!19sChIJI26_r0ZnjTkRIAg0xuYI4Hs?authuser=0&hl=en&rclk=1,"25.4065551,84.5549906"
Raza Mosque Mathia rzaa msjid mtthiyaa rD msjd mtthy,Mosque,"Raza Mosque Mathia rzaa msjid mtthiyaa rD msjd mtthy, Mathia, Jagdishpur, Bihar 841508",,Mathia,"Jagdishpur, Rampur Awasthi",841508,Bihar,IN,https://www.google.com/maps/place/Raza+Mosque+Mathia+%E0%A4%B0%E0%A5%9B%E0%A4%BE+%E0%A4%AE%E0%A4%B8%E0%A5%8D%E0%A4%9C%E0%A4%BF%E0%A4%A6+%E0%A4%AE%E0%A4%A0%E0%A4%BF%E0%A4%AF%E0%A4%BE+%D8%B1%D8%B6%D8%A7+%D9%85%D8%B3%D8%AC%D8%AF+%D9%85%D9%B9%DA%BE%DB%8C%D8%A7%E2%80%AD/data=!4m7!3m6!1s0x3993c7bcd9d043d3:0x2a9862aef7f85a43!8m2!3d26.5129944!4d83.908132!16s%2Fg%2F11f55z6sdl!19sChIJ00PQ2bzHkzkRQ1r4965imCo?authuser=0&hl=en&rclk=1,"26.5129944,83.908132"
Jama Masjid Mohammadpur,Mosque,"5Q5C+83X Jama Masjid Mohammadpur, Kauraha Jagdishpur, Uttar Pradesh 271126",,5Q5C+83X,Kauraha Jagdishpur,,Uttar Pradesh,IN,https://www.google.com/maps/place/Jama+Masjid+Mohammadpur/data=!4m7!3m6!1s0x3999914fe897a6c1:0x64f709c87563674d!8m2!3d27.1583565!4d81.7702418!16s%2Fg%2F11gm9xgq0b!19sChIJwaaX6E-RmTkRTWdjdcgJ92Q?authuser=0&hl=en&rclk=1,"27.1583565,81.7702418"
Chrenwa Masjid,Mosque,"73CJ+G7Q Chrenwa Masjid, Ashok Marg, Chrenwa, Bagiyawa, Jagdishpur Khurd, Uttar Pradesh 272207","Chrenwa, Bagiyawa","73CJ+G7Q, Ashok Marg",Jagdishpur Khurd,272207,Uttar Pradesh,IN,https://www.google.com/maps/place/Chrenwa+Masjid/data=!4m7!3m6!1s0x3996c4b2e99faf09:0xa0245f569e38fda1!8m2!3d27.2713335!4d83.0807299!16s%2Fg%2F11b6p_v9vl!19sChIJCa-f6bLEljkRof04nlZfJKA?authuser=0&hl=en&rclk=1,"27.271333499999997,83.0807299"
Masjid umar bin al khattab,Mosque,"GM53+5PG Masjid umar bin al khattab, Jagdishpur Satthin Rd, Jagdishpur, Rasta Mau, Uttar Pradesh 227816",,"GM53+5PG, Jagdishpur Satthin Rd","Jagdishpur, Rasta Mau",227816,Uttar Pradesh,IN,https://www.google.com/maps/place/Masjid+umar+bin+al+khattab/data=!4m7!3m6!1s0x399a48565eeca47f:0x6f582e27f9bcef8a!8m2!3d26.5079258!4d81.6543341!16s%2Fg%2F1hm57qkzg!19sChIJf6TsXlZImjkRiu-8-ScuWG8?authuser=0&hl=en&rclk=1,"26.5079258,81.6543341"
Jama Masjid Kathotia,Mosque,"FFC5+3R8 Jama Masjid Kathotia, Sisia, Jagdishpur, Bihar 854104",,FFC5+3R8,"Sisia, Jagdishpur",854104,Bihar,IN,https://www.google.com/maps/place/Jama+Masjid+Kathotia/data=!4m7!3m6!1s0x39f005e1ee59315b:0xf072bbdecf2c4871!8m2!3d25.4701538!4d87.4595662!16s%2Fg%2F11fxf7q_sp!19sChIJWzFZ7uEF8DkRcUgsz967cvA?authuser=0&hl=en&rclk=1,"25.4701538,87.4595662"
Rupchandrapur Masjid,Mosque,"GXJC+HVC Rupchandrapur Masjid, Mohanidih, Uttar Pradesh 221208",,GXJC+HVC,Mohanidih,221208,Uttar Pradesh,IN,https://www.google.com/maps/place/Rupchandrapur+Masjid/data=!4m7!3m6!1s0x3991d5c822627f8d:0xa9680acf713afbf1!8m2!3d25.5314289!4d82.9721503!16s%2Fg%2F11fy_ns4m5!19sChIJjX9iIsjVkTkR8fs6cc8KaKk?authuser=0&hl=en&rclk=1,"25.531428899999998,82.9721503"
Jagdishpur Masjid,Mosque,"VJG4+3C5 Jagdishpur Masjid, Jagdishpur, Uttar Pradesh 272163",,VJG4+3C5,Jagdishpur,272163,Uttar Pradesh,IN,https://www.google.com/maps/place/Jagdishpur+Masjid/data=!4m7!3m6!1s0x3990c9d1508156b3:0x95b30b1047dcabfb!8m2!3d26.8751433!4d82.6061214!16s%2Fg%2F11f6g22tyv!19sChIJs1aBUNHJkDkR-6vcRxALs5U?authuser=0&hl=en&rclk=1,"26.875143299999998,82.60612139999999"
Barkatiya Masjid,Mosque,"7XG5+52W Barkatiya Masjid, Jagdishpur, Bihar 843125",,7XG5+52W,Jagdishpur,843125,Bihar,IN,https://www.google.com/maps/place/Barkatiya+Masjid/data=!4m7!3m6!1s0x39ed2b9f94b16cc9:0x887e74c227859f02!8m2!3d26.2754869!4d84.9575746!16s%2Fg%2F11g22z6sgt!19sChIJyWyxlJ8r7TkRAp-FJ8J0fog?authuser=0&hl=en&rclk=1,"26.275486899999997,84.9575746"
msjd Masjid,Mosque,"msjd Masjid, Mangrauli, Uttar Pradesh 227816",,,Mangrauli,,Uttar Pradesh,IN,https://www.google.com/maps/place/%D9%85%D8%B3%D8%AC%D8%AF+Masjid%E2%80%AD/data=!4m7!3m6!1s0x399a49ae5be9d371:0xa5835d74b8f79ef5!8m2!3d26.5136296!4d81.6400695!16s%2Fg%2F1hm60f8q4!19sChIJcdPpW65JmjkR9Z73uHRdg6U?authuser=0&hl=en&rclk=1,"26.513629599999998,81.6400695"
New Masjid Dadar,Mosque,"5MM9+4MX New Masjid Dadar, Piro - Jagdishpur Rd, Dadar, Bihar 821109",,"5MM9+4MX, Piro - Jagdishpur Rd",Dadar,821109,Bihar,IN,https://www.google.com/maps/place/New+Masjid+Dadar/data=!4m7!3m6!1s0x398de1aa82e5257b:0x4a0033acce7d7926!8m2!3d25.1828718!4d83.6692269!16s%2Fg%2F11j26txzqh!19sChIJeyXlgqrhjTkRJnl9zqwzAEo?authuser=0&hl=en&rclk=1,"25.182871799999997,83.6692269"
chhoti Masjid,Mosque,"J946+H5F chhoti Masjid, Ranisagar, Bihar 802165",,J946+H5F,Ranisagar,802165,Bihar,IN,https://www.google.com/maps/place/chhoti+Masjid/data=!4m7!3m6!1s0x399283d3ebf917b7:0x88646f4ae4873902!8m2!3d25.6064332!4d84.3604169!16s%2Fg%2F11gdjk3gb6!19sChIJtxf569ODkjkRAjmH5EpvZIg?authuser=0&hl=en&rclk=1,"25.606433199999998,84.36041689999999"
msjd Masjid,Mosque,"FJ3F+CWW msjd Masjid, MDR 154E, Raniganj, Jagdishpur, Uttar Pradesh 227809",Raniganj,"FJ3F+CWW, MDR 154E",Jagdishpur,227809,Uttar Pradesh,IN,https://www.google.com/maps/place/%D9%85%D8%B3%D8%AC%D8%AF+Masjid%E2%80%AD/data=!4m7!3m6!1s0x399a4eb5824bcfab:0x35d798f50715f3fb!8m2!3d26.4536005!4d81.6248158!16s%2Fg%2F1hm6869d4!19sChIJq89LgrVOmjkR-_MVB_WY1zU?authuser=0&hl=en&rclk=1,"26.4536005,81.6248158"
Masjid E Umar Farooq Jagdishpur,Mosque,"2MF2+449 Masjid E Umar Farooq Jagdishpur, Jagadishpur, Uttar Pradesh 273151",,2MF2+449,Jagadishpur,273151,Uttar Pradesh,IN,https://www.google.com/maps/place/Masjid+E+Umar+Farooq+Jagdishpur/data=!4m7!3m6!1s0x3993ff6424128711:0xde8f6269245a694!8m2!3d27.0227934!4d83.650353!16s%2Fg%2F11f2my3_d0!19sChIJEYcSJGT_kzkRlKZFkib26A0?authuser=0&hl=en&rclk=1,"27.022793399999998,83.650353"
Bhagwanpur mosque,Mosque,"785F+X8M Bhagwanpur mosque, Jagdishpur, Uttar Pradesh 232104",,785F+X8M,Jagdishpur,,Uttar Pradesh,IN,https://www.google.com/maps/place/Bhagwanpur+mosque/data=!4m7!3m6!1s0x398e17af3cd76f6d:0x127bd0de4811a5fb!8m2!3d25.259966!4d83.3232884!16s%2Fg%2F11qn72664c!19sChIJbW_XPK8XjjkR-6URSN7QexI?authuser=0&hl=en&rclk=1,"25.259966,83.3232884"
GANJ MOSQUE,Mosque,"6GVP+7W3 GANJ MOSQUE, Ganj, Bihar 802222",Ganj,6GVP+7W3,,802222,Bihar,IN,https://www.google.com/maps/place/GANJ+MOSQUE/data=!4m7!3m6!1s0x398d6b90b0766e63:0x984dea45f469c237!8m2!3d25.2431315!4d84.5372969!16s%2Fg%2F11d_5p6s81!19sChIJY252sJBrjTkRN8Jp9EXqTZg?authuser=0&hl=en&rclk=1,"25.2431315,84.5372969"
Kadipur New Mosque,Mosque,"VQW4+5JP Kadipur New Mosque, Kadipur, Bihar 841442",,VQW4+5JP,Kadipur,841442,Bihar,IN,https://www.google.com/maps/place/Kadipur+New+Mosque/data=!4m7!3m6!1s0x3992b9cb9424eecd:0x7188b7211635b540!8m2!3d25.895456!4d84.756566!16s%2Fg%2F11c58v781x!19sChIJze4klMu5kjkRQLU1FiG3iHE?authuser=0&hl=en&rclk=1,"25.895456,84.75656599999999"
Munderwa Masjid,Mosque,"QWH2+QQH Munderwa Masjid, Munderwa Masjid Rd, Jagdishpur, Uttar Pradesh 272170",,"QWH2+QQH, Munderwa Masjid Rd",Jagdishpur,272170,Uttar Pradesh,IN,https://www.google.com/maps/place/Munderwa+Masjid/data=!4m7!3m6!1s0x3990d8740b6d3b4f:0x22d43ed7c83e4918!8m2!3d26.779443!4d82.9019979!16s%2Fg%2F1s04j4ylp!19sChIJTzttC3TYkDkRGEk-yNc-1CI?authuser=0&hl=en&rclk=1,"26.779443,82.9019979"
Shah Masjid,Mosque,"Shah Masjid, Jagdishpur - Jais Rd, Jais, Uttar Pradesh 229305",,Jagdishpur - Jais Rd,Jais,229305,Uttar Pradesh,IN,https://www.google.com/maps/place/Shah+Masjid/data=!4m7!3m6!1s0x399a537304db6b99:0x57a61ca5c7c67dd1!8m2!3d26.2860923!4d81.551874!16s%2Fg%2F11f3_22b49!19sChIJmWvbBHNTmjkR0X3Gx6Ucplc?authuser=0&hl=en&rclk=1,"26.2860923,81.551874"
Masjid Gerwa Badwa Tola,Mosque,"FFJC+9W5 Masjid Gerwa Badwa Tola, Jagdishpur, Bihar 854104",,FFJC+9W5,Jagdishpur,854104,Bihar,IN,https://www.google.com/maps/place/Masjid+Gerwa+Badwa+Tola/data=!4m7!3m6!1s0x39f007397fb788c9:0xabeb430b153da29a!8m2!3d25.4808845!4d87.4723459!16s%2Fg%2F11gr6h87g0!19sChIJyYi3fzkH8DkRmqI9FQtD66s?authuser=0&hl=en&rclk=1,"25.4808845,87.4723459"
Islahul Muslinm Jama Masjid,Mosque,"6MR9+PR5 Islahul Muslinm Jama Masjid, Naraunda, Uttar Pradesh 271872",,6MR9+PR5,Naraunda,271872,Uttar Pradesh,IN,https://www.google.com/maps/place/Islahul+Muslinm+Jama+Masjid/data=!4m7!3m6!1s0x399999c7f13623c5:0x45aed342c817e059!8m2!3d27.2417741!4d81.6696231!16s%2Fg%2F11gfkkcmrg!19sChIJxSM28ceZmTkRWeAXyELTrkU?authuser=0&hl=en&rclk=1,"27.241774099999997,81.6696231"
Talab Wali Masjid,Mosque,"4XVH+3W6 Talab Wali Masjid, Jagadishpur, Bihar 813105",,4XVH+3W6,Jagadishpur,813105,Bihar,IN,https://www.google.com/maps/place/Talab+Wali+Masjid/data=!4m7!3m6!1s0x39f04d25919159f5:0x51a4a6932648de95!8m2!3d25.1426511!4d86.9797666!16s%2Fg%2F11l_g4t5cw!19sChIJ9VmRkSVN8DkRld5IJpOmpFE?authuser=0&hl=en&rclk=1,"25.1426511,86.97976659999999"
Masjid E Yusuf,Mosque,"P2V5+V8H Masjid E Yusuf, basahi aqbalpur laljang azamgarh, Deogaon",,"P2V5+V8H, basahi aqbalpur laljang azamgarh","Deogaon, Jagdishpur Bujurg",,Uttar Pradesh,IN,https://www.google.com/maps/place/Masjid+E+Yusuf/data=!4m7!3m6!1s0x3991cf39eb158037:0xabe37cd365cc3b5!8m2!3d25.7446819!4d83.0083471!16s%2Fg%2F11hnlnmnvg!19sChIJN4AV6znPkTkRtcNcNs03vgo?authuser=0&hl=en&rclk=1,"25.7446819,83.0083471"
Mahemau Masjid,Mosque,"CMXQ+XPC Mahemau Masjid, Mahe Mau, Uttar Pradesh 227816",,CMXQ+XPC,Mahe Mau,227816,Uttar Pradesh,IN,https://www.google.com/maps/place/Mahemau+Masjid/data=!4m7!3m6!1s0x399a4f159dc53cbd:0x8d4145f2137fca69!8m2!3d26.4499385!4d81.6892538!16s%2Fg%2F11h5nlqjwg!19sChIJvTzFnRVPmjkRacp_E_JFQY0?authuser=0&hl=en&rclk=1,"26.4499385,81.6892538"
Jama Masjid Jagdishpur,Mosque,"3V8H+HWG Jama Masjid Jagdishpur, Aspatpur, Jagdispur, Uttar Pradesh 276304",,3V8H+HWG,"Aspatpur, Jagdispur",276304,Uttar Pradesh,IN,https://www.google.com/maps/place/Jama+Masjid+Jagdishpur/data=!4m7!3m6!1s0x3990529a06984ee5:0x36492b3fc9e6caf!8m2!3d26.066449!4d82.8798185!16s%2Fg%2F11h9qdw9_k!19sChIJ5U6YBppSkDkRr2ye_LOSZAM?authuser=0&hl=en&rclk=1,"26.066449,82.8798185"
Jagdishpur nurani Masjid,Mosque,"8H7H+V34 Jagdishpur nurani Masjid, Jagdishpur, Bhalui, Bihar 841434",,8H7H+V34,"Jagdishpur, Bhalui",,Bihar,IN,https://www.google.com/maps/place/Jagdishpur+nurani+Masjid/data=!4m7!3m6!1s0x3992e1cfe60b351d:0x100b1a7efc9f2ac2!8m2!3d26.3146475!4d84.5777143!16s%2Fg%2F11h2tjmn6l!19sChIJHTUL5s_hkjkRwiqf_H4aCxA?authuser=0&hl=en&rclk=1,"26.3146475,84.5777143"
"Jagdharpur Maszid, jgdhrpur msjid",Mosque,"CMC2+93X Jagdharpur Maszid, jgdhrpur msjid, Harimau, Uttar Pradesh 227801",,CMC2+93X,Harimau,227801,Uttar Pradesh,IN,"https://www.google.com/maps/place/Jagdharpur+Maszid,+%E0%A4%9C%E0%A4%97%E0%A4%A7%E0%A4%B0%E0%A4%AA%E0%A5%81%E0%A4%B0+%E0%A4%AE%E0%A4%B8%E0%A5%8D%E0%A4%9C%E0%A4%BF%E0%A4%A6/data=!4m7!3m6!1s0x399a4ffe35f6d1e1:0xc2d08f7ab900fed5!8m2!3d26.421!4d81.6502398!16s%2Fg%2F11l_fyprm1!19sChIJ4dH2Nf5PmjkR1f4AuXqP0MI?authuser=0&hl=en&rclk=1","26.421,81.6502398"
NOORI JUMA MASJID PURE BHAGU,Mosque,"FJXR+HHJ NOORI JUMA MASJID PURE BHAGU, Jagdishpur Satthin Rd, Lakhanipur, Uttar Pradesh 227816",,"FJXR+HHJ, Jagdishpur Satthin Rd",Lakhanipur,,Uttar Pradesh,IN,https://www.google.com/maps/place/NOORI+JUMA+MASJID+PURE+BHAGU/data=!4m7!3m6!1s0x399a498744e9fe27:0xb03b2c96b9724ada!8m2!3d26.4989714!4d81.6413807!16s%2Fg%2F11q2r4tyv9!19sChIJJ_7pRIdJmjkR2kpyuZYsO7A?authuser=0&hl=en&rclk=1,"26.4989714,81.6413807"
Masjid msjd,Mosque,"Masjid msjd, Ward-10 , Fatehpur, Jagdishpur, 847233",,"Ward-10 , Fatehpur",Jagdishpur,847233,Bihar,IN,https://www.google.com/maps/place/Masjid+%D9%85%D8%B3%D8%AC%D8%AF%E2%80%AD/data=!4m7!3m6!1s0x39eddae45c552c29:0xc3747eef43a4ad19!8m2!3d26.1388472!4d86.1212784!16s%2Fg%2F11f37mwr8p!19sChIJKSxVXOTa7TkRGa2kQ-9-dMM?authuser=0&hl=en&rclk=1,"26.138847199999997,86.1212784"
Shekhauna Chak Masjid,Mosque,"R668+JP6 Shekhauna Chak Masjid, Unnamed Road, Jagdishpur Chaturbhuj urf, Bihar 844119",,"R668+JP6, Unnamed Road",Jagdishpur Chaturbhuj urf,844119,Bihar,IN,https://www.google.com/maps/place/Shekhauna+Chak+Masjid/data=!4m7!3m6!1s0x39ed4301eb309803:0x76836be7198a4968!8m2!3d25.8115497!4d85.2167794!16s%2Fg%2F11h9358052!19sChIJA5gw6wFD7TkRaEmKGedrg3Y?authuser=0&hl=en&rclk=1,"25.8115497,85.2167794"
Masjid Barahra,Mosque,"GW48+HV9 Masjid Barahra, Jagdishpur Rd, Barahra, Bihar 841508",,"GW48+HV9, Jagdishpur Rd",Barahra,841508,Bihar,IN,https://www.google.com/maps/place/Masjid+Barahra/data=!4m7!3m6!1s0x3993c79394725fbf:0xb86e5751e2002e20!8m2!3d26.506423!4d83.9172403!16s%2Fg%2F11g7_ps_yz!19sChIJv19ylJPHkzkRIC4A4lFXbrg?authuser=0&hl=en&rclk=1,"26.506422999999998,83.9172403"
Sonerpati Masjid,Mosque,"MGJW+X87 Sonerpati Masjid, Jhakhara, Bihar 845459",,MGJW+X87,Jhakhara,,Bihar,IN,https://www.google.com/maps/place/Sonerpati+Masjid/data=!4m7!3m6!1s0x399314c8f676f467:0x20d77b6b71d8ba79!8m2!3d26.6824173!4d84.5457994!16s%2Fg%2F11hc_df6h2!19sChIJZ_R29sgUkzkRebrYcWt71yA?authuser=0&hl=en&rclk=1,"26.682417299999997,84.54579939999999"
Jama Masjid Jagdishpur,Mosque,"R2CX+P3M Jama Masjid Jagdishpur, Purey Charan, Uttar Pradesh 230304",,R2CX+P3M,Purey Charan,230304,Uttar Pradesh,IN,https://www.google.com/maps/place/Jama+Masjid+Jagdishpur/data=!4m7!3m6!1s0x399aa3ef3a051d57:0xbe9a8b28e0c3935e!8m2!3d25.8218273!4d82.0476803!16s%2Fg%2F11h8vy_ncc!19sChIJVx0FOu-jmjkRXpPD4CiLmr4?authuser=0&hl=en&rclk=1,"25.8218273,82.0476803"
Naimul Auliya Masjid Phadpur,Mosque,"FMV7+C83 Naimul Auliya Masjid Phadpur, Gariyadeeh phadpur, Jagdishpur, Gadriya Dih, Uttar Pradesh 227809",,"FMV7+C83, Gariyadeeh phadpur","Jagdishpur, Gadriya Dih",227809,Uttar Pradesh,IN,https://www.google.com/maps/place/Naimul+Auliya+Masjid+Phadpur/data=!4m7!3m6!1s0x399a490aa46c85cf:0x9b953d8125b67f2f!8m2!3d26.4935168!4d81.6632863!16s%2Fg%2F11q2738q4t!19sChIJz4VspApJmjkRL3-2JYE9lZs?authuser=0&hl=en&rclk=1,"26.4935168,81.6632863"
HASANI HUSSAINI KARBALA JAGDISHPUR,Mosque,"FC86+49C HASANI HUSSAINI KARBALA JAGDISHPUR, Jagdishpur, Bihar 802158",,FC86+49C,Jagdishpur,802158,Bihar,IN,https://www.google.com/maps/place/HASANI+HUSSAINI+KARBALA+JAGDISHPUR/data=!4m7!3m6!1s0x398d7d899695ab6d:0x9d9c4dbe1733fb1c!8m2!3d25.4653049!4d84.4108752!16s%2Fg%2F11t9_gzyf2!19sChIJbauVlol9jTkRHPszF75NnJ0?authuser=0&hl=en&rclk=1,"25.4653049,84.41087519999999"
Masjid Kaituka Nandan,Mosque,"XX9J+48Q Masjid Kaituka Nandan, Jagdishpur, Bihar 841215",,XX9J+48Q,Jagdishpur,841215,Bihar,IN,https://www.google.com/maps/place/Masjid+Kaituka+Nandan/data=!4m7!3m6!1s0x39ed354d6e3bde07:0x423601f494a88a3f!8m2!3d25.9678339!4d84.9808466!16s%2Fg%2F11qphcy2t1!19sChIJB947bk017TkRP4qolPQBNkI?authuser=0&hl=en&rclk=1,"25.9678339,84.98084659999999"
Madinah Masjid,Mosque,"6GM2+533 Madinah Masjid, Chauki Jagdishpur Rd, Chauki Hasan, Chaukihasan Chauki Makhdum, Bihar 841506",,"6GM2+533, Chauki Jagdishpur Rd","Chauki Hasan, Chaukihasan Chauki Makhdum",841506,Bihar,IN,https://www.google.com/maps/place/Madinah+Masjid/data=!4m7!3m6!1s0x3992e3d2a0997b45:0xdce96c05dc0d9759!8m2!3d26.2328834!4d84.5001575!16s%2Fg%2F11q7l2r1hx!19sChIJRXuZoNLjkjkRWZcN3AVs6dw?authuser=0&hl=en&rclk=1,"26.2328834,84.5001575"
Jama Masjid,Mosque,"Jama Masjid, Birtitola, Jagdishpur Rd, Bettiah, Bihar 845459",,"Birtitola, Jagdishpur Rd","Bettiah, Bishunpura",845459,Bihar,IN,https://www.google.com/maps/place/Jama+Masjid/data=!4m7!3m6!1s0x3993152b4b553865:0x1efc6b03d447e722!8m2!3d26.742241!4d84.545182!16s%2Fg%2F11gvy24h6w!19sChIJZThVSysVkzkRIudH1ANr_B4?authuser=0&hl=en&rclk=1,"26.742241,84.545182"
Haidari Jama Masjid,Mosque,"7WMX+HC3 Haidari Jama Masjid, Nawanagar Nizamat, Bihar 843125",,7WMX+HC3,Nawanagar Nizamat,843125,Bihar,IN,https://www.google.com/maps/place/Haidari+Jama+Masjid/data=!4m7!3m6!1s0x39ed2bbf64607f45:0xab81428e67d3e6be!8m2!3d26.2838945!4d84.9485534!16s%2Fg%2F11jdqgxhwn!19sChIJRX9gZL8r7TkRvubTZ45Cgas?authuser=0&hl=en&rclk=1,"26.2838945,84.9485534"
Jamma Masjid Birti Tola,Mosque,"MHVP+2V9 Jamma Masjid Birti Tola, Nautan Block, Jamuniya, Bihar",,"MHVP+2V9, Nautan Block",Jamuniya,,Bihar,IN,https://www.google.com/maps/place/Jamma+Masjid+Birti+Tola/data=!4m7!3m6!1s0x3993154addbb0079:0xcc9da98946ef9cad!8m2!3d26.6925368!4d84.5872402!16s%2Fg%2F11gf9dw9g9!19sChIJeQC73UoVkzkRrZzvRompncw?authuser=0&hl=en&rclk=1,"26.6925368,84.5872402"
Masjid,Mosque,"Masjid, Molvi Khurd, Jagdishpur - Jais Rd, Uttar Pradesh 229305",,"Molvi Khurd, Jagdishpur - Jais Rd",,,Uttar Pradesh,IN,https://www.google.com/maps/place/Masjid/data=!4m7!3m6!1s0x399a53b1af4b93dd:0xaf05a83e9ff85506!8m2!3d26.2864108!4d81.5568553!16s%2Fg%2F11sy6x7htc!19sChIJ3ZNLr7FTmjkRBlX4nz6oBa8?authuser=0&hl=en&rclk=1,"26.2864108,81.5568553"
msjd Masjid,Mosque,"FJ4G+V2M msjd Masjid, National Highway 56, Jagdishpur, Uttar Pradesh 227809",,"FJ4G+V2M, National Highway 56",Jagdishpur,227809,Uttar Pradesh,IN,https://www.google.com/maps/place/%D9%85%D8%B3%D8%AC%D8%AF+Masjid%E2%80%AD/data=!4m7!3m6!1s0x399a494aa8fca6c9:0xe4e7ac2165e79807!8m2!3d26.4572225!4d81.6250522!16s%2Fg%2F1hm53rmgv!19sChIJyab8qEpJmjkRB5jnZSGs5-Q?authuser=0&hl=en&rclk=1,"26.4572225,81.6250522"
Gosiya Masjid,Mosque,"CWCQ+2CV Gosiya Masjid, Jagdishpur, Uttar Pradesh 227812",,CWCQ+2CV,Jagdishpur,227812,Uttar Pradesh,IN,https://www.google.com/maps/place/Gosiya+Masjid/data=!4m7!3m6!1s0x399a698b2a60f103:0x7b258ee56353e5f4!8m2!3d26.4201056!4d81.9385511!16s%2Fg%2F11rx3tftz5!19sChIJA_FgKotpmjkR9OVTY-WOJXs?authuser=0&hl=en&rclk=1,"26.4201056,81.9385511"
Masjid E Aaisha,Mosque,"FJ69+MW4 Masjid E Aaisha, near A.H.Inter Collage, Nihal Garh Chak Jangla, Jagdishpur, Uttar Pradesh 227809",,"FJ69+MW4, near A.H.Inter Collage","Nihal Garh Chak Jangla, Jagdishpur",227809,Uttar Pradesh,IN,https://www.google.com/maps/place/Masjid+E+Aaisha/data=!4m7!3m6!1s0x399a495a5d24c629:0x2b03899633a19950!8m2!3d26.4616255!4d81.6198218!16s%2Fg%2F11h2jzgs83!19sChIJKcYkXVpJmjkRUJmhM5aJAys?authuser=0&hl=en&rclk=1,"26.4616255,81.6198218"
Masjid Darussalam Naukapura Jagdishpur Bhaluwan,Mosque,"FC9V+399 Masjid Darussalam Naukapura Jagdishpur Bhaluwan, Jagadishpur Bhaluwan, Bhaluan, Uttar Pradesh 273411",,FC9V+399,"Jagadishpur Bhaluwan, Bhaluan",273411,Uttar Pradesh,IN,https://www.google.com/maps/place/Masjid+Darussalam+Naukapura+Jagdishpur+Bhaluwan/data=!4m7!3m6!1s0x399165225042b94d:0x90bcc641c30dd5c0!8m2!3d26.4676619!4d83.4434816!16s%2Fg%2F11fklpls2z!19sChIJTblCUCJlkTkRwNUNw0HGvJA?authuser=0&hl=en&rclk=1,"26.4676619,83.4434816"
Noorani Masjid Jagdishpur,Mosque,"8H8P+FMQ Noorani Masjid Jagdishpur, Jagdishpur, Bihar 841434",,8H8P+FMQ,Jagdishpur,,Bihar,IN,https://www.google.com/maps/place/Noorani+Masjid+Jagdishpur/data=!4m7!3m6!1s0x3992e1d8ebf54a21:0xac03dc3287247efb!8m2!3d26.3162162!4d84.5867325!16s%2Fg%2F11j8rddfys!19sChIJIUr169jhkjkR-34khzLcA6w?authuser=0&hl=en&rclk=1,"26.3162162,84.5867325"
Masjid-e Bilal,Mosque,"FJ3C+H49 Masjid-e Bilal, Nihal Garh Chak Jangla, Jagdishpur, Uttar Pradesh 227809",,FJ3C+H49,"Nihal Garh Chak Jangla, Jagdishpur",227809,Uttar Pradesh,IN,https://www.google.com/maps/place/Masjid-e+Bilal/data=!4m7!3m6!1s0x399a4f373c6fcbbb:0x25e8991b5f5cb926!8m2!3d26.4539203!4d81.62035!16s%2Fg%2F11fnrsgxnt!19sChIJu8tvPDdPmjkRJrlcXxuZ6CU?authuser=0&hl=en&rclk=1,"26.4539203,81.62035"
Masjid -paiktol,Mosque,"44QC+4JH Masjid -paiktol, Jagdishpur, Bihar 847422",,44QC+4JH,Jagdishpur,,Bihar,IN,https://www.google.com/maps/place/Masjid+-paiktol/data=!4m7!3m6!1s0x39eddb811534f791:0x854393f4c77f26d5!8m2!3d26.1378048!4d86.1216246!16s%2Fg%2F11fnqc9tvw!19sChIJkfc0FYHb7TkR1SZ_x_STQ4U?authuser=0&hl=en&rclk=1,"26.137804799999998,86.12162459999999"
Jama Masjid Jagdishpur,Mosque,"3VCH+9XP Jama Masjid Jagdishpur, Jagdispur, Uttar Pradesh 276304",,3VCH+9XP,Jagdispur,276304,Uttar Pradesh,IN,https://www.google.com/maps/place/Jama+Masjid+Jagdishpur/data=!4m7!3m6!1s0x39905369f78edd7d:0xdd8fe4290631b057!8m2!3d26.0709513!4d82.8799632!16s%2Fg%2F11hyjy48qc!19sChIJfd2O92lTkDkRV7AxBinkj90?authuser=0&hl=en&rclk=1,"26.070951299999997,82.87996319999999"
Jama Masjid,Mosque,"GF62+7JG Jama Masjid, Jagdishpur, Bihar 854106",,GF62+7JG,Jagdishpur,854106,Bihar,IN,https://www.google.com/maps/place/Jama+Masjid/data=!4m7!3m6!1s0x39f004255faecd2b:0xcb7a232c16eceaf0!8m2!3d25.5106908!4d87.451592!16s%2Fg%2F11hblxpdb5!19sChIJK82uXyUE8DkR8OrsFiwjess?authuser=0&hl=en&rclk=1,"25.5106908,87.45159199999999"
Mohmmadiya Masjid chhardahi,Mosque,"JQFM+46X Mohmmadiya Masjid chhardahi, Chhardahi, Chhardhi, Jagdishpur, Uttar Pradesh 272301",Chhardahi,JQFM+46X,"Chhardhi, Jagdishpur",272301,Uttar Pradesh,IN,https://www.google.com/maps/place/Mohmmadiya+Masjid+chhardahi/data=!4m7!3m6!1s0x3990dd564e88dd81:0xe0abfb9c547fc6ca!8m2!3d26.6228626!4d82.7831214!16s%2Fg%2F11jx6dcrb9!19sChIJgd2ITlbdkDkRysZ_VJz7q-A?authuser=0&hl=en&rclk=1,"26.622862599999998,82.7831214"
Masjid Dakhin Patti,Mosque,"6GM2+FJ3 Masjid Dakhin Patti, Chauki Jagdishpur Rd, Chauki Hasan, Chaukihasan Chauki Makhdum, Bihar 841439",,"6GM2+FJ3, Chauki Jagdishpur Rd","Chauki Hasan, Chaukihasan Chauki Makhdum",841439,Bihar,IN,https://www.google.com/maps/place/Masjid+Dakhin+Patti/data=!4m7!3m6!1s0x3992e3396070ffd1:0x253aede03c1acde7!8m2!3d26.2336408!4d84.5015403!16s%2Fg%2F11jfcnhrth!19sChIJ0f9wYDnjkjkR580aPODtOiU?authuser=0&hl=en&rclk=1,"26.2336408,84.5015403"
GUMBAD Masjid,Mosque,"MGGR+M23 GUMBAD Masjid, Tola jhakhra, Ward No.8, Tola Gahiri, Bihar 845459",Ward No.8,"MGGR+M23, Tola jhakhra",Tola Gahiri,845459,Bihar,IN,https://www.google.com/maps/place/GUMBAD+Masjid/data=!4m7!3m6!1s0x399315945ebd7c33:0xca5c4c8ce93d98cf!8m2!3d26.6766316!4d84.5400434!16s%2Fg%2F11n18xf6v1!19sChIJM3y9XpQVkzkRz5g96YxMXMo?authuser=0&hl=en&rclk=1,"26.6766316,84.5400434"
Purani Masjid,Mosque,"6GWF+RCH Purani Masjid, Kolodihar, Bihar 802222",,6GWF+RCH,Kolodihar,802222,Bihar,IN,https://www.google.com/maps/place/Purani+Masjid/data=!4m7!3m6!1s0x398d6b898d3b35ef:0xda5a6d9796f24ec1!8m2!3d25.2470738!4d84.5236049!16s%2Fg%2F11f_j2_ydy!19sChIJ7zU7jYlrjTkRwU7ylpdtWto?authuser=0&hl=en&rclk=1,"25.2470738,84.5236049"
Masjid ek minarwali,Mosque,"6388+988 Masjid ek minarwali, Raniwala-Jagdishpur Rd, Lalner, Uttar Pradesh 203396",,"6388+988, Raniwala-Jagdishpur Rd",Lalner,,Uttar Pradesh,IN,https://www.google.com/maps/place/Masjid+ek+minarwali/data=!4m7!3m6!1s0x390b5332f3128415:0x3db55b0a06b436ff!8m2!3d28.2159158!4d78.0658411!16s%2Fg%2F11r4msbtlp!19sChIJFYQS8zJTCzkR_za0BgpbtT0?authuser=0&hl=en&rclk=1,"28.215915799999998,78.0658411"
Noor masjid jagdishpur,Mosque,"3VCH+4QG Noor masjid jagdishpur, Jagdispur, Uttar Pradesh 276304",,3VCH+4QG,Jagdispur,276304,Uttar Pradesh,IN,https://www.google.com/maps/place/Noor+masjid+jagdishpur/data=!4m7!3m6!1s0x39905341e9c3691f:0x224493fec70d9568!8m2!3d26.0702571!4d82.8794431!16s%2Fg%2F11q573k0kf!19sChIJH2nD6UFTkDkRaJUNx_6TRCI?authuser=0&hl=en&rclk=1,"26.0702571,82.8794431"
JANTA BAZAR MADINA MASJID,Mosque,"F6RP+6HJ JANTA BAZAR MADINA MASJID, Janta Bazar, Jagdishpur, Bihar 841425",Janta Bazar,F6RP+6HJ,Jagdishpur,841425,Bihar,IN,https://www.google.com/maps/place/JANTA+BAZAR+MADINA+MASJID/data=!4m7!3m6!1s0x3993a90d0d357233:0x249634f39c46f40b!8m2!3d26.4905923!4d84.2363815!16s%2Fg%2F11lfpv00wk!19sChIJM3I1DQ2pkzkRC_RGnPM0liQ?authuser=0&hl=en&rclk=1,"26.4905923,84.2363815"
Jama masjid,Mosque,"9578+WCF Jama masjid, Jagdishpur - Bhawani Chhapar Rd, Uttar Pradesh 841243",,"9578+WCF, Jagdishpur - Bhawani Chhapar Rd",,841243,Uttar Pradesh,IN,https://www.google.com/maps/place/Jama+masjid/data=!4m7!3m6!1s0x3993ada65e6f9071:0x4f43245cb392bb1e!8m2!3d26.364818!4d84.1660136!16s%2Fg%2F11kjm5qvnq!19sChIJcZBvXqatkzkRHruSs1wkQ08?authuser=0&hl=en&rclk=1,"26.364818,84.1660136"
Noori Masjid Mithepur,Mosque,"Noori Masjid Mithepur, Mohammad Hamid Raza, near Noori Masjid Mithepur, Ratnauli, Jagdishpur, Bihar 844127",,"Mohammad Hamid Raza, near Noori Masjid Mithepur","Ratnauli, Jagdishpur",844127,Bihar,IN,https://www.google.com/maps/place/Noori+Masjid+Mithepur/data=!4m7!3m6!1s0x39ed13103f640d2d:0x8250dd9c8e5e681!8m2!3d26.0155428!4d85.4156002!16s%2Fg%2F11qb8nhl78!19sChIJLQ1kPxAT7TkRgeblyNkNJQg?authuser=0&hl=en&rclk=1,"26.0155428,85.4156002"
mdiinaa msjid,Mosque,"mdiinaa msjid, Pure Gulal Masjid, Jagdishpur Satthin Rd, Lakhanipur, Uttar Pradesh 227816",,"Pure Gulal Masjid, Jagdishpur Satthin Rd",Lakhanipur,,Uttar Pradesh,IN,https://www.google.com/maps/place/%E0%A4%AE%E0%A4%A6%E0%A5%80%E0%A4%A8%E0%A4%BE+%E0%A4%AE%E0%A4%B8%E0%A5%8D%E0%A4%9C%E0%A4%BF%E0%A4%A6/data=!4m7!3m6!1s0x399a49358ce8dc59:0xb0b27c062474580f!8m2!3d26.5046354!4d81.6319029!16s%2Fg%2F11h1kbz7ps!19sChIJWdzojDVJmjkRD1h0JAZ8srA?authuser=0&hl=en&rclk=1,"26.504635399999998,81.6319029"
Jama Masjid,Mosque,"57QX+PG2 Jama Masjid, Kanta, Uttar Pradesh 232102",,57QX+PG2,Kanta,,Uttar Pradesh,IN,https://www.google.com/maps/place/Jama+Masjid/data=!4m7!3m6!1s0x398e159459760245:0x4d728bae331b8464!8m2!3d25.1892503!4d83.2987663!16s%2Fg%2F11hzt9hk8l!19sChIJRQJ2WZQVjjkRZIQbM66Lck0?authuser=0&hl=en&rclk=1,"25.189250299999998,83.2987663"
Eid gah fatehpur and paiktol,Mosque,"44Q9+FC2 Eid gah fatehpur and paiktol, Jagdishpur, Bihar 847422",,44Q9+FC2,Jagdishpur,,Bihar,IN,https://www.google.com/maps/place/Eid+gah+fatehpur+and+paiktol/data=!4m7!3m6!1s0x39eddbb7dfc58797:0x4138415d76c80170!8m2!3d26.1386431!4d86.118508!16s%2Fg%2F11mvsm8515!19sChIJl4fF37fb7TkRcAHIdl1BOEE?authuser=0&hl=en&rclk=1,"26.1386431,86.11850799999999"
Jama Masjid,Mosque,"HMW7+JM6 Jama Masjid, Piro - Jagdishpur Rd, Mansurabad, Singraur Uprhar, Uttar Pradesh 212411",Mansurabad,"HMW7+JM6, Piro - Jagdishpur Rd",Singraur Uprhar,212411,Uttar Pradesh,IN,https://www.google.com/maps/place/Jama+Masjid/data=!4m7!3m6!1s0x399ad1ddc6adab3b:0x533d618b973cd432!8m2!3d25.5965317!4d81.6641527!16s%2Fg%2F11j0zrkg0s!19sChIJO6utxt3RmjkRMtQ8l4thPVM?authuser=0&hl=en&rclk=1,"25.5965317,81.6641527"
GADDI TOLA JAMMA MASJID,Mosque,"9FQJ+XX4 GADDI TOLA JAMMA MASJID, Lerwariya Tola, Bihar 841420",,9FQJ+XX4,Lerwariya Tola,841420,Bihar,IN,https://www.google.com/maps/place/GADDI+TOLA+JAMMA+MASJID/data=!4m7!3m6!1s0x39931d952850050f:0x42b412379245f714!8m2!3d26.3899483!4d84.4825057!16s%2Fg%2F11t8blk6qk!19sChIJDwVQKJUdkzkRFPdFkjcStEI?authuser=0&hl=en&rclk=1,"26.3899483,84.48250569999999"
Masjid as musapur,Mosque,"H6FX+CX3 Masjid as musapur, Musapur, Uttar Pradesh 246731",,H6FX+CX3,Musapur,246731,Uttar Pradesh,IN,https://www.google.com/maps/place/Masjid+as+musapur/data=!4m7!3m6!1s0x390be1dee15893b3:0xc1f0e73708e409b5!8m2!3d29.5735139!4d78.2499284!16s%2Fg%2F11mfvdvlln!19sChIJs5NY4d7hCzkRtQnkCDfn8ME?authuser=0&hl=en&rclk=1,"29.5735139,78.2499284"
Al Madina Masjid,Mosque,"FJ22+W8J Al Madina Masjid, Mubarakpur, Jagdishpur, Mubarakpur, Uttar Pradesh 227809",Mubarakpur,FJ22+W8J,"Jagdishpur, Mubarakpur",227809,Uttar Pradesh,IN,https://www.google.com/maps/place/Al+Madina+Masjid/data=!4m7!3m6!1s0x399a4dd361e2cc4d:0xe9d602043a7320d6!8m2!3d26.452336!4d81.6007655!16s%2Fg%2F11khzlrtmv!19sChIJTcziYdNNmjkR1iBzOgQC1uk?authuser=0&hl=en&rclk=1,"26.452336,81.6007655"
Idgah Masjid Jagdishpur,Mosque,"3VCJ+W7W Idgah Masjid Jagdishpur, Jagdispur, Uttar Pradesh 276304",,3VCJ+W7W,Jagdispur,276304,Uttar Pradesh,IN,https://www.google.com/maps/place/Idgah+Masjid+Jagdishpur/data=!4m7!3m6!1s0x3990537cc448ee07:0x22b03e64fb231bfe!8m2!3d26.0723634!4d82.8806927!16s%2Fg%2F11h4lpqkz8!19sChIJB-5IxHxTkDkR_hsj-2Q-sCI?authuser=0&hl=en&rclk=1,"26.0723634,82.8806927"
JAGDISHPUR NORIE MASJID ,Place of worship,"J6H8+HV JAGDISHPUR NORIE MASJID , Jagdish Pur, Uttar Pradesh 233307",,J6H8+HV,Jagdish Pur,,Uttar Pradesh,IN,https://www.google.com/maps/place/JAGDISHPUR+NORIE+MASJID+%F0%9F%92%9A/data=!4m7!3m6!1s0x3991dd7d0c8c28f5:0xb1a79965365943d2!8m2!3d25.6289747!4d83.2171099!16s%2Fg%2F11stphfcqb!19sChIJ9SiMDH3dkTkR0kNZNmWZp7E?authuser=0&hl=en&rclk=1,"25.6289747,83.2171099"
Noorani masjid Nakaha nuuraanii msjid nkaahaa,Mosque,"Noorani masjid Nakaha nuuraanii msjid nkaahaa, Jagdishpur, Uttar Pradesh 272301",,,Jagdishpur,272301,Uttar Pradesh,IN,https://www.google.com/maps/place/Noorani+masjid+%EF%B8%8FNakaha+%E0%A4%A8%E0%A5%82%E0%A4%B0%E0%A4%BE%E0%A4%A8%E0%A5%80+%E0%A4%AE%E0%A4%B8%E0%A5%8D%E0%A4%9C%E0%A4%BF%E0%A4%A6+%EF%B8%8F%E0%A4%A8%E0%A4%95%E0%A4%BE%E0%A4%B9%E0%A4%BE/data=!4m7!3m6!1s0x3990c3253c66c237:0x65ab79201ecaa4fc!8m2!3d26.6607058!4d82.7048748!16s%2Fg%2F11t58d9vrk!19sChIJN8JmPCXDkDkR_KTKHiB5q2U?authuser=0&hl=en&rclk=1,"26.6607058,82.7048748"
Noori masjid kasab muhalla jagdishpur bhojpur,Mosque,"FCCF+35V Noori masjid kasab muhalla jagdishpur bhojpur, Jagdishpur, Bihar 802158",,FCCF+35V,Jagdishpur,802158,Bihar,IN,https://www.google.com/maps/place/Noori+masjid+kasab+muhalla+jagdishpur+bhojpur/data=!4m7!3m6!1s0x398d7da61ed9765b:0xcd83955c6d33c2cc!8m2!3d25.4697851!4d84.4226957!16s%2Fg%2F11kqbs6stj!19sChIJW3bZHqZ9jTkRzMIzbVyVg80?authuser=0&hl=en&rclk=1,"25.4697851,84.42269569999999"
Muhammadi Masjid mHmWdy msjd muh'mmdii msjid,Mosque,"9JFR+3RC Muhammadi Masjid mHmWdy msjd muh'mmdii msjid, Jagdishpur Sujan, Parsipur, Uttar Pradesh 221402",,9JFR+3RC,"Jagdishpur Sujan, Parsipur",221402,Uttar Pradesh,IN,https://www.google.com/maps/place/Muhammadi+Masjid+%D9%85%D8%AD%D9%85%D9%91%D8%AF%DB%8C+%D9%85%D8%B3%D8%AC%D8%AF+%E0%A4%AE%E0%A5%81%E0%A4%B9%E0%A4%BC%E0%A4%AE%E0%A5%8D%E0%A4%AE%E0%A4%A6%E0%A5%80+%E0%A4%AE%E0%A4%B8%E0%A5%8D%E0%A4%9C%E0%A4%BF%E0%A4%A6%E2%80%AD/data=!4m7!3m6!1s0x398fddd51ec8e40f:0x9df45e671f05a989!8m2!3d25.3726965!4d82.6412074!16s%2Fg%2F11qbqkhf5z!19sChIJD-TIHtXdjzkRiakFH2de9J0?authuser=0&hl=en&rclk=1,"25.3726965,82.6412074"
Masjid Gerwa,Mosque,"FFJ9+JW9 Masjid Gerwa, Unnamed Road, Jagdishpur, Bihar 854104",,"FFJ9+JW9, Unnamed Road",Jagdishpur,854104,Bihar,IN,https://www.google.com/maps/place/Masjid+Gerwa/data=!4m7!3m6!1s0x39f007adc4c4da49:0x38e5c50bb887c2b3!8m2!3d25.4815326!4d87.4698491!16s%2Fg%2F11gr6hr7m7!19sChIJSdrExK0H8DkRs8KHuAvF5Tg?authuser=0&hl=en&rclk=1,"25.481532599999998,87.46984909999999"
Masjid Al iman,Mosque,"Masjid Al iman, 109, Uttar Pradesh 230304",,109,Jagdishpur,230304,Uttar Pradesh,IN,https://www.google.com/maps/place/Masjid+Al+iman/data=!4m7!3m6!1s0x399aa3fb9efbf8b1:0x583c3e1e91e3f371!8m2!3d25.8188962!4d82.0542927!16s%2Fg%2F11j1zx07jn!19sChIJsfj7nvujmjkRcfPjkR4-PFg?authuser=0&hl=en&rclk=1,"25.818896199999998,82.05429269999999"
Eid-gah,Mosque,"FC76+X7X Eid-gah, Jagdishpur, Bihar 802158",,FC76+X7X,Jagdishpur,802158,Bihar,IN,https://www.google.com/maps/place/Eid-gah/data=!4m7!3m6!1s0x398d7de7be9cff19:0xd47ad778bb4bd405!8m2!3d25.4649856!4d84.4107453!16s%2Fg%2F11t7n3jryr!19sChIJGf-cvud9jTkRBdRLu3jXetQ?authuser=0&hl=en&rclk=1,"25.4649856,84.4107453"
Aaisha Masjid msjd,Mosque,"44Q9+CGP Aaisha Masjid msjd, Fatahpur, Jagdishpur, Bihar 847422",Fatahpur,44Q9+CGP,Jagdishpur,847422,Bihar,IN,https://www.google.com/maps/place/Aaisha+Masjid+%D9%85%D8%B3%D8%AC%D8%AF%E2%80%AD/data=!4m7!3m6!1s0x39eddbafeef4bae7:0xb2f9e707bc2a831a!8m2!3d26.1385764!4d86.1188337!16s%2Fg%2F11kfc7140h!19sChIJ57r07q_b7TkRGoMqvAfn-bI?authuser=0&hl=en&rclk=1,"26.138576399999998,86.1188337"
"Jama Masjid, Nandan Kaituka, nNdn kaitukaa, jaamaa msjid",Mosque,"XX9M+HXW Jama Masjid, Nandan Kaituka, nNdn kaitukaa, jaamaa msjid, Jagdishpur, Bihar 841215",,XX9M+HXW,Jagdishpur,,Bihar,IN,"https://www.google.com/maps/place/Jama+Masjid,+Nandan+Kaituka,+%E0%A4%A8%E0%A4%82%E0%A4%A6%E0%A4%A8+%E0%A4%95%E0%A5%88%E0%A4%A4%E0%A5%81%E0%A4%95%E0%A4%BE,+%E0%A4%9C%E0%A4%BE%E0%A4%AE%E0%A4%BE+%E0%A4%AE%E0%A4%B8%E0%A5%8D%E0%A4%9C%E0%A4%BF%E0%A4%A6/data=!4m7!3m6!1s0x39ed35572a2dc3c3:0xbc0b04ed506eafca!8m2!3d25.9689976!4d84.9849494!16s%2Fg%2F11t_zflbx3!19sChIJw8MtKlc17TkRyq9uUO0EC7w?authuser=0&hl=en&rclk=1","25.968997599999998,84.98494939999999"
Masjid (mo guljaar kauvaamor vaale),Mosque,"FFC4+GF6 Masjid (mo guljaar kauvaamor vaale), Unnamed Road, Bakia, Jagdishpur, Bihar 854104",,"FFC4+GF6, Unnamed Road","Bakia, Jagdishpur",854104,Bihar,IN,https://www.google.com/maps/place/Masjid+%28%E0%A4%AE%E0%A5%8B+%E0%A4%97%E0%A5%81%E0%A4%B2%E0%A4%9C%E0%A4%BE%E0%A4%B0+%E0%A4%95%E0%A5%8C%E0%A4%B5%E0%A4%BE%E0%A4%AE%E0%A5%8B%E0%A4%B0+%E0%A4%B5%E0%A4%BE%E0%A4%B2%E0%A5%87%29/data=!4m7!3m6!1s0x39f00566ef4c5fdd:0xc3fb418db705b52f!8m2!3d25.4712779!4d87.4561488!16s%2Fg%2F11ll3nxzb9!19sChIJ3V9M72YF8DkRL7UFt41B-8M?authuser=0&hl=en&rclk=1,"25.4712779,87.4561488"
Taiba Masjid Mewati Mohalla,Mosque,"FJ58+287 Taiba Masjid Mewati Mohalla, Nihal Garh Chak Jangla, Jagdishpur, Uttar Pradesh 227809",,FJ58+287,"Nihal Garh Chak Jangla, Jagdishpur",227809,Uttar Pradesh,IN,https://www.google.com/maps/place/Taiba+Masjid+Mewati+Mohalla/data=!4m7!3m6!1s0x399a49330045485d:0x676601aec7858fc0!8m2!3d26.4575391!4d81.6158023!16s%2Fg%2F11h3qcsm7p!19sChIJXUhFADNJmjkRwI-Fx64BZmc?authuser=0&hl=en&rclk=1,"26.457539099999998,81.6158023"
Ashrafiya Masjid Rasoolpur,Mosque,"FJM3+RH6 Ashrafiya Masjid Rasoolpur, Rasulpur, Jagdishpur, Uttar Pradesh 227809",,"FJM3+RH6, Rasulpur","Jagdishpur, Rasulpur",227809,Uttar Pradesh,IN,https://www.google.com/maps/place/Ashrafiya+Masjid+Rasoolpur/data=!4m7!3m6!1s0x399a49b41a2c843d:0xa42a9c66e6e8c1ba!8m2!3d26.484532!4d81.6038895!16s%2Fg%2F11rk06ls3p!19sChIJPYQsGrRJmjkRusHo5macKqQ?authuser=0&hl=en&rclk=1,"26.484531999999998,81.6038895"
Iqura Masjid,Mosque,"Iqura Masjid, 34P6+7MW, Jagdishpur, Sanhola Rd, Kusaha, Bihar 813105",,"34P6+7MW, Jagdishpur, Sanhola Rd",Kusaha,813105,Bihar,IN,https://www.google.com/maps/place/Iqura+Masjid/data=!4m7!3m6!1s0x39f0455c94e2919d:0xb1d4db93ddb58d0d!8m2!3d25.0864774!4d87.1110366!16s%2Fg%2F11k99nn61p!19sChIJnZHilFxF8DkRDY213ZPb1LE?authuser=0&hl=en&rclk=1,"25.0864774,87.11103659999999"
Masjid Imam Mehdi,Mosque,"QM6C+CRJ Masjid Imam Mehdi, Taukirhasan Rd, Shekh Mohamid, Jagdishpur, Jaunpur, Uttar Pradesh 222001",Shekh Mohamid,"QM6C+CRJ, Taukirhasan Rd","Jagdishpur, Jaunpur",222001,Uttar Pradesh,IN,https://www.google.com/maps/place/Masjid+Imam+Mehdi/data=!4m7!3m6!1s0x39903b90f2bbdceb:0xa9665565b27880a7!8m2!3d25.7611!4d82.6720254!16s%2Fg%2F11tghpvv5b!19sChIJ69y78pA7kDkRp4B4smVVZqk?authuser=0&hl=en&rclk=1,"25.7611,82.6720254"
Noorani masjid Jamo jagdish pur,Mosque,"8H8H+354 Noorani masjid Jamo jagdish pur, Unnamed Road, Bhalui, Bihar 841434",,"8H8H+354, Unnamed Road",Bhalui,841434,Bihar,IN,https://www.google.com/maps/place/Noorani+masjid+Jamo+jagdish+pur/data=!4m7!3m6!1s0x3992e18aa821d431:0xa72e0e215e8509d!8m2!3d26.3151388!4d84.5779631!16s%2Fg%2F11lbgp9cl_!19sChIJMdQhqIrhkjkRnVDoFeLgcgo?authuser=0&hl=en&rclk=1,"26.3151388,84.57796309999999"
MOHAMMADIA MASJID PURVA MATTE,Mosque,"FJVC+3HM MOHAMMADIA MASJID PURVA MATTE, Jagdishpur Satthin Rd, Matte Ka Purva, Daulatpur Nisura, Uttar Pradesh 227816",Matte Ka Purva,"FJVC+3HM, Jagdishpur Satthin Rd",Daulatpur Nisura,227816,Uttar Pradesh,IN,https://www.google.com/maps/place/MOHAMMADIA+MASJID+PURVA+MATTE/data=!4m7!3m6!1s0x399a492240f6d7cd:0x5a986e5401b8b49d!8m2!3d26.4927155!4d81.6214362!16s%2Fg%2F11nxsl4r88!19sChIJzdf2QCJJmjkRnbS4AVRumFo?authuser=0&hl=en&rclk=1,"26.4927155,81.62143619999999"
Masjid Umar Jama Masjid,Mosque,"3V8J+Q7M Masjid Umar Jama Masjid, Jagdispur, Uttar Pradesh 276304",,3V8J+Q7M,Jagdispur,276304,Uttar Pradesh,IN,https://www.google.com/maps/place/Masjid+Umar+Jama+Masjid/data=!4m7!3m6!1s0x399052975659e77f:0x7e318f64e153e8b4!8m2!3d26.0669511!4d82.8806597!16s%2Fg%2F11h9xwrh8m!19sChIJf-dZVpdSkDkRtOhT4WSPMX4?authuser=0&hl=en&rclk=1,"26.066951099999997,82.8806597"
"Jama Masjid, Tara Amnaur",Mosque,"XXCP+4JH Jama Masjid, Tara Amnaur, Janta Bazar Road, Bihar 841460",,"XXCP+4JH, Janta Bazar Road",Jagdishpur,841460,Bihar,IN,"https://www.google.com/maps/place/Jama+Masjid,+Tara+Amnaur/data=!4m7!3m6!1s0x39ed35b6510acdf7:0x5acaacd52414cb7d!8m2!3d25.970306!4d84.9866013!16s%2Fg%2F11j0vq9m9m!19sChIJ980KUbY17TkRfcsUJNWsylo?authuser=0&hl=en&rclk=1","25.970305999999997,84.98660129999999"
ISLAMI MASJID,Mosque,"63V6+HWP ISLAMI MASJID, Jagdishpur Aurangabad, Uttar Pradesh 203129",,63V6+HWP,Jagdishpur Aurangabad,,Uttar Pradesh,IN,https://www.google.com/maps/place/ISLAMI+MASJID/data=!4m7!3m6!1s0x390b513511b6bceb:0xc849ffe35434f83e!8m2!3d28.2439743!4d78.0623192!16s%2Fg%2F11try4q602!19sChIJ67y2ETVRCzkRPvg0VOP_Scg?authuser=0&hl=en&rclk=1,"28.243974299999998,78.06231919999999"
Badi masjid Jagdishpur,Mosque,"FWXQ+9FX Badi masjid Jagdishpur, Jagdishpur, Bihar 841508",,FWXQ+9FX,Jagdishpur,841508,Bihar,IN,https://www.google.com/maps/place/Badi+masjid+Jagdishpur/data=!4m7!3m6!1s0x3993b9980172a22d:0x380657c115d67f01!8m2!3d26.4984961!4d83.9387257!16s%2Fg%2F11skb934vv!19sChIJLaJyAZi5kzkRAX_WFcFXBjg?authuser=0&hl=en&rclk=1,"26.4984961,83.93872569999999"
Jama badi masjid jagdishpur,Mosque,"VH4J+JXM Jama badi masjid jagdishpur, Jagdishpur, Uttar Pradesh 274149",,VH4J+JXM,Jagdishpur,274149,Uttar Pradesh,IN,https://www.google.com/maps/place/Jama+badi+masjid+jagdishpur/data=!4m7!3m6!1s0x3991577b298fe3fb:0x36e04b7c6fc11912!8m2!3d26.8565792!4d83.5824109!16s%2Fg%2F11pvl8r6c3!19sChIJ--OPKXtXkTkREhnBb3xL4DY?authuser=0&hl=en&rclk=1,"26.8565792,83.5824109"
Badi Masjid,Mosque,"FC99+4R6 Badi Masjid, Jagdishpur, Bihar 802158",,FC99+4R6,Jagdishpur,802158,Bihar,IN,https://www.google.com/maps/place/Badi+Masjid/data=!4m7!3m6!1s0x398d7ca1840fffff:0x7079e02add3946b1!8m2!3d25.4677843!4d84.4195234!16s%2Fg%2F11sscs4kxp!19sChIJ__8PhKF8jTkRsUY53SrgeXA?authuser=0&hl=en&rclk=1,"25.467784299999998,84.4195234"
Muslims Masjid,Mosque,"R5F2+WG7 Muslims Masjid, Unnamed Road, Jagdishpur Urf Mahi, Uttar Pradesh 273209",,"R5F2+WG7, Unnamed Road",Jagdishpur Urf Mahi,273209,Uttar Pradesh,IN,https://www.google.com/maps/place/Muslims+Masjid/data=!4m7!3m6!1s0x399131331920f689:0x300c37a342757f9f!8m2!3d26.824791!4d83.1513092!16s%2Fg%2F11sl75z1wm!19sChIJifYgGTMxkTkRn391QqM3DDA?authuser=0&hl=en&rclk=1,"26.824790999999998,83.1513092"
Gahi Masjid,Mosque,"R5G2+8WM Gahi Masjid, Jagdishpur Urf Mahi, Uttar Pradesh 273209",,R5G2+8WM,Jagdishpur Urf Mahi,273209,Uttar Pradesh,IN,https://www.google.com/maps/place/Gahi+Masjid/data=!4m7!3m6!1s0x3991314fac3b1655:0x461db55775fd36cb!8m2!3d26.8258261!4d83.1523862!16s%2Fg%2F11v653w4tz!19sChIJVRY7rE8xkTkRyzb9dVe1HUY?authuser=0&hl=en&rclk=1,"26.8258261,83.1523862"
Aasrafi masjid,Mosque,"FMJ8+RXR Aasrafi masjid, Pure gauhar raniganj, Jagdishpur",,"FMJ8+RXR, Pure gauhar raniganj","Jagdishpur, Parwej Pur",,Uttar Pradesh,IN,https://www.google.com/maps/place/Aasrafi+masjid/data=!4m7!3m6!1s0x399a49dd3296debd:0x3b970e279891e331!8m2!3d26.4821207!4d81.6673868!16s%2Fg%2F11rthzkn32!19sChIJvd6WMt1JmjkRMeORmCcOlzs?authuser=0&hl=en&rclk=1,"26.4821207,81.6673868"
Chiktoli kbristaan,Mosque,"FC76+8WQ Chiktoli kbristaan, Chiktoli St, Jagdishpur, Bihar 802158",,"FC76+8WQ, Chiktoli St",Jagdishpur,802158,Bihar,IN,https://www.google.com/maps/place/Chiktoli+%E0%A4%95%E0%A4%AC%E0%A5%8D%E0%A4%B0%E0%A4%BF%E0%A4%B8%E0%A5%8D%E0%A4%A4%E0%A4%BE%E0%A4%A8/data=!4m7!3m6!1s0x398d7d80a9e138b3:0xa45357cc2d97ac92!8m2!3d25.4633391!4d84.4123451!16s%2Fg%2F11tc1tmcq0!19sChIJszjhqYB9jTkRkqyXLcxXU6Q?authuser=0&hl=en&rclk=1,"25.4633391,84.4123451"
Jama masjid,Mosque,"44X9+GMW Jama masjid, Jagdishpur, Bihar 847422",,44X9+GMW,Jagdishpur,,Bihar,IN,https://www.google.com/maps/place/Jama+masjid/data=!4m7!3m6!1s0x39eddb4a53dacb8b:0xf9e2325f247d190a!8m2!3d26.1488589!4d86.1191966!16s%2Fg%2F11lgydp5_c!19sChIJi8vaU0rb7TkRChl9JF8y4vk?authuser=0&hl=en&rclk=1,"26.1488589,86.1191966"
Masjid,Mosque,"FF94+WJ Masjid, Jagdeeshpur, Uttar Pradesh 273411",,FF94+WJ,Jagdeeshpur,,Uttar Pradesh,IN,https://www.google.com/maps/place/Masjid/data=!4m7!3m6!1s0x399165cacfc81599:0x172329958d7a5b85!8m2!3d26.4697888!4d83.456612!16s%2Fg%2F11t4yb6s_v!19sChIJmRXIz8plkTkRhVt6jZUpIxc?authuser=0&hl=en&rclk=1,"26.4697888,83.45661199999999"
jaamaa msjid khuaa jgdiishpur,Mosque,"X5QQ+9WF jaamaa msjid khuaa jgdiishpur, Kahua, Neuri, Bihar 847203",Kahua,X5QQ+9WF,Neuri,847203,Bihar,IN,https://www.google.com/maps/place/%E0%A4%9C%E0%A4%BE%E0%A4%AE%E0%A4%BE+%E0%A4%AE%E0%A4%B8%E0%A5%8D%E0%A4%9C%E0%A4%BF%E0%A4%A6+%E0%A4%95%E0%A4%B9%E0%A5%81%E0%A4%86+%E0%A4%9C%E0%A4%97%E0%A4%A6%E0%A5%80%E0%A4%B6%E0%A4%AA%E0%A5%81%E0%A4%B0/data=!4m7!3m6!1s0x39ede12b1bc24bf3:0x82f45e266c3e8367!8m2!3d25.988448!4d86.1898007!16s%2Fg%2F11nmq_3rtp!19sChIJ80vCGyvh7TkRZ4M-bCZe9II?authuser=0&hl=en&rclk=1,"25.988447999999998,86.18980069999999"
Dawan Masjid (Modler Shahzad),Housing society,"FC89+7MQ Dawan Masjid (Modler Shahzad), Danwan, Jagdishpur, Bihar 802158",,FC89+7MQ,"Danwan, Jagdishpur",,Bihar,IN,https://www.google.com/maps/place/Dawan+Masjid+%28Modler+Shahzad%29/data=!4m7!3m6!1s0x398d7d892b2ec3ff:0x8401a13fed874e76!8m2!3d25.4657145!4d84.4192373!16s%2Fg%2F11vj70ycqb!19sChIJ_8MuK4l9jTkRdk6H7T-hAYQ?authuser=0&hl=en&rclk=1,"25.465714499999997,84.41923729999999"
Asharfiya Sunni jama masjid,Mosque,"739M+9MX Asharfiya Sunni jama masjid, Sri Ganganagar, Pashupati nagar, Bansi, Jagdishpur Khurd, Uttar Pradesh 272207","Sri Ganganagar, Pashupati nagar",739M+9MX,"Bansi, Jagdishpur Khurd",,Uttar Pradesh,IN,https://www.google.com/maps/place/Asharfiya+Sunni+jama+masjid/data=!4m7!3m6!1s0x3996c551f73a6ac5:0x443bab58017e8a9b!8m2!3d27.2684847!4d83.0842274!16s%2Fg%2F11t6h7thk2!19sChIJxWo691HFljkRm4p-AVirO0Q?authuser=0&hl=en&rclk=1,"27.2684847,83.0842274"
Noori jama masjid belsad,Mosque,"Noori jama masjid belsad, sidhdaarth ngr, Bagiyawa, Naugarh, Jagdishpur Khurd, Uttar Pradesh 272207","sidhdaarth ngr, Bagiyawa",,"Naugarh, Jagdishpur Khurd",272207,Uttar Pradesh,IN,https://www.google.com/maps/place/Noori+jama+masjid+belsad/data=!4m7!3m6!1s0x3996c55270781429:0xc141f3ba3917541d!8m2!3d27.2714166!4d83.0806165!16s%2Fg%2F11t47cv3k9!19sChIJKRR4cFLFljkRHVQXObrzQcE?authuser=0&hl=en&rclk=1,"27.2714166,83.08061649999999"
Masjid Farooqui Takiya wali,Mosque,"PQFH+F4G Masjid Farooqui Takiya wali, Rafiq Nagar, Hapur, Uttar Pradesh 245101",Rafiq Nagar,PQFH+F4G,Hapur,,Uttar Pradesh,IN,https://www.google.com/maps/place/Masjid+Farooqui+Takiya+wali/data=!4m7!3m6!1s0x390c85774c5d143b:0x107c8bd1147de4c5!8m2!3d28.7236918!4d77.7778312!16s%2Fg%2F11rzgxhv35!19sChIJOxRdTHeFDDkRxeR9FNGLfBA?authuser=0&hl=en&rclk=1,"28.723691799999997,77.7778312"
