name,main_category,address,address_ward,address_street,address_city,address_postal_code,address_state,address_country_code,link,coordinates
Makkah Masjid,Mosque,"GV9J+JRJ Makkah Masjid, Bhuvanagiri, Telangana 508116",,GV9J+JRJ,Bhuvanagiri,508116,Telangana,IN,https://www.google.com/maps/place/Makkah+Masjid/data=!4m7!3m6!1s0x3bcb6fa0403d3e63:0x87a8d37441189b75!8m2!3d17.5190865!4d78.8820112!16s%2Fg%2F1tdc87gt!19sChIJYz49QKBvyzsRdZsYQXTTqIc?authuser=0&hl=en&rclk=1,"17.5190865,78.8820112"
Masjid e chowk,Mosque,"Masjid e chowk, Fish Market, Azad Rd, Bhuvanagiri, Telangana 508116",,"Fish Market, Azad Rd",Bhuvanagiri,,Telangana,IN,https://www.google.com/maps/place/Masjid+e+chowk/data=!4m7!3m6!1s0x3bcb6f080728c86b:0x2a14a934c60f7623!8m2!3d17.5092785!4d78.8839306!16s%2Fg%2F1ttq0kkp!19sChIJa8goBwhvyzsRI3YPxjSpFCo?authuser=0&hl=en&rclk=1,"17.5092785,78.8839306"
ISLAMPURA MASJID,Mosque,"GV7P+HCG ISLAMPURA MASJID, Bhuvanagiri Bus Stand Rd, Medikuntapally, Bhuvanagiri, Telangana 508116",Medikuntapally,"GV7P+HCG, Bhuvanagiri Bus Stand Rd",Bhuvanagiri,508116,Telangana,IN,https://www.google.com/maps/place/ISLAMPURA+MASJID/data=!4m7!3m6!1s0x3bcb6f099c1ef71f:0x60c3c1943f6f3c59!8m2!3d17.5139292!4d78.8860934!16s%2Fg%2F11hbhjrh81!19sChIJH_cenAlvyzsRWTxvP5TBw2A?authuser=0&hl=en&rclk=1,"17.5139292,78.8860934"
madina masjid,Mosque,"GV8M+M2W madina masjid, Bhuvanagiri, Telangana 508116",,GV8M+M2W,Bhuvanagiri,508116,Telangana,IN,https://www.google.com/maps/place/madina+masjid/data=!4m7!3m6!1s0x3bcb6fa0913fa211:0xbec5fca23e24bb16!8m2!3d17.5167341!4d78.8825877!16s%2Fg%2F11clsf_hb0!19sChIJEaI_kaBvyzsRFrskPqL8xb4?authuser=0&hl=en&rclk=1,"17.5167341,78.8825877"
"Masjide-E-Sahaba, Jaleelpura",Mosque,"Masjide-E-Sahaba, Jaleelpura, Bhuvanagiri, Telangana 508116",,,Bhuvanagiri,,Telangana,IN,"https://www.google.com/maps/place/Masjide-E-Sahaba,+Jaleelpura/data=!4m7!3m6!1s0x3bcb6f080728c86b:0xe49e7e745e8031cc!8m2!3d17.5086396!4d78.8820559!16s%2Fg%2F1tdwy_6s!19sChIJa8goBwhvyzsRzDGAXnR-nuQ?authuser=0&hl=en&rclk=1","17.5086396,78.8820559"
Bhongir Masjid E Tawheed Ahlehadees,Mosque,"GV5Q+R2X Bhongir Masjid E Tawheed Ahlehadees, Bhuvanagiri, Telangana 508116",,GV5Q+R2X,Bhuvanagiri,508116,Telangana,IN,https://www.google.com/maps/place/Bhongir+Masjid+E+Tawheed+Ahlehadees/data=!4m7!3m6!1s0x3bcb6f089ed752c1:0x8f9cbc16615bfac3!8m2!3d17.509607!4d78.8876011!16s%2Fg%2F11g8sjs9dg!19sChIJwVLXnghvyzsRw_pbYRa8nI8?authuser=0&hl=en&rclk=1,"17.509607,78.8876011"
Masjid-E-Jamiya,Mosque,"GV5Q+49W Masjid-E-Jamiya, Qazi mahella bhongir, Bhuvanagiri",,"GV5Q+49W, Qazi mahella bhongir",Bhuvanagiri,,Telangana,IN,https://www.google.com/maps/place/Masjid-E-Jamiya/data=!4m7!3m6!1s0x3bcb6f066d45a45b:0x134105d61075309a!8m2!3d17.5078611!4d78.8884539!16s%2Fg%2F11c453s2jz!19sChIJW6RFbQZvyzsRmjB1ENYFQRM?authuser=0&hl=en&rclk=1,"17.5078611,78.8884539"
Qhazi Guda Masjid,Mosque,"GV6R+HH6 Qhazi Guda Masjid, Bhuvanagiri-Nalgonda Road, Near Bhongir Fort, Yadadri District, Bhuvanagiri, Telangana 508116",,"GV6R+HH6, Bhuvanagiri-Nalgonda Road, Near Bhongir Fort, Yadadri District",Bhuvanagiri,508116,Telangana,IN,https://www.google.com/maps/place/Qhazi+Guda+Masjid/data=!4m7!3m6!1s0x3bcb6f0f0e22cfb1:0xea09aba5c3f5c9e8!8m2!3d17.511415!4d78.891379!16s%2Fg%2F11cssw9f4g!19sChIJsc8iDg9vyzsR6Mn1w6WrCeo?authuser=0&hl=en&rclk=1,"17.511415,78.891379"
Masjid -E- Quba masjidWi quba,Mosque,"GVFX+79J Masjid -E- Quba masjidWi quba, Sanjeeva Nagar, Bhuvanagiri, Telangana 508116",Sanjeeva Nagar,GVFX+79J,Bhuvanagiri,508116,Telangana,IN,https://www.google.com/maps/place/Masjid+-E-+Quba+%D9%85%D9%8E%D8%B3%D9%92%D8%AC%D9%90%D8%AF%D9%91%D9%90+%D9%82%D9%8F%D8%A8%D9%8E%D8%A7%D8%A1%E2%80%AD/data=!4m7!3m6!1s0x3bcb6f8dc873e4cb:0x8a6dd451131464b1!8m2!3d17.5232239!4d78.898377!16s%2Fg%2F11h385ztfv!19sChIJy-RzyI1vyzsRsWQUE1HUbYo?authuser=0&hl=en&rclk=1,"17.523223899999998,78.898377"
"Masjid-e-OMER FAROOQ rza ahle hadees, BHONGIR",Mosque,"GV9J+7Q2 Masjid-e-OMER FAROOQ rza ahle hadees, BHONGIR, Bhuvanagiri, Telangana 508116",,GV9J+7Q2,Bhuvanagiri,508116,Telangana,IN,"https://www.google.com/maps/place/Masjid-e-OMER+FAROOQ+rza+ahle+hadees,+BHONGIR/data=!4m7!3m6!1s0x3bcb6fb8367c39af:0xecb01efdb67c6c4!8m2!3d17.5181372!4d78.8818782!16s%2Fg%2F11jk5_61jj!19sChIJrzl8NrhvyzsRxMZn2-8Byw4?authuser=0&hl=en&rclk=1","17.518137199999998,78.8818782"
Masjid (Baherpet),Mosque,"GV4J+HCX Masjid (Baherpet), Bhuvanagiri, Telangana 508116",,GV4J+HCX,Bhuvanagiri,508116,Telangana,IN,https://www.google.com/maps/place/Masjid+%28Baherpet%29/data=!4m7!3m6!1s0x3bcb6f3ad967f2c7:0xe61e11d5a747ad75!8m2!3d17.5064946!4d78.8811108!16s%2Fg%2F11j3vwtg2n!19sChIJx_Jn2TpvyzsRda1Hp9URHuY?authuser=0&hl=en&rclk=1,"17.5064946,78.8811108"
Masjid-E-Fathima(Quba),Mosque,"GVFX+JJX Masjid-E-Fathima(Quba), Railway Station Rd, Sanjeeva Nagar, Bangar Pet, Kurnool, Bhuvanagiri, Andhra Pradesh 518004","Sanjeeva Nagar, Bangar Pet","GVFX+JJX, Railway Station Rd","Kurnool, Bhuvanagiri",518004,Andhra Pradesh,IN,https://www.google.com/maps/place/Masjid-E-Fathima%28Quba%29/data=!4m7!3m6!1s0x3bcb6f6cf356c3ed:0xd275350648c3cbc7!8m2!3d17.5241133!4d78.899097!16s%2Fg%2F11df1rx563!19sChIJ7cNW82xvyzsRx8vDSAY1ddI?authuser=0&hl=en&rclk=1,"17.5241133,78.899097"
Masjid e badrunnisa,Mosque,"GV3J+522 Masjid e badrunnisa, Bhuvanagiri, Telangana 508116",,GV3J+522,Bhuvanagiri,508116,Telangana,IN,https://www.google.com/maps/place/Masjid+e+badrunnisa/data=!4m7!3m6!1s0x3bcb6fb1d09c78c5:0x41715f9dfae6d4ba!8m2!3d17.5028819!4d78.8800234!16s%2Fg%2F11n05mbmpd!19sChIJxXic0LFvyzsRutTm-p1fcUE?authuser=0&hl=en&rclk=1,"17.5028819,78.8800234"
Masjid e shia asna ashari,Mosque,"GV5Q+JCG Masjid e shia asna ashari, Khazi mohalla, Bharpet, Bhuvanagiri, Telangana 508116",Bharpet,"GV5Q+JCG, Khazi mohalla",Bhuvanagiri,508116,Telangana,IN,https://www.google.com/maps/place/Masjid+e+shia+asna+ashari/data=!4m7!3m6!1s0x3bcb6fd9992b28ef:0xeb7b777e4116771c!8m2!3d17.5090668!4d78.8885934!16s%2Fg%2F11h4zmwfhn!19sChIJ7ygrmdlvyzsRHHcWQX53e-s?authuser=0&hl=en&rclk=1,"17.5090668,78.88859339999999"
Masjid e haza,Mosque,"Masjid e haza, GV6R+HH6 Bhuvanagiri-Nalgonda Road, Fort, near Bhongir, Bhuvanagiri, Telangana 508116",,"GV6R+HH6 Bhuvanagiri-Nalgonda Road, Fort, near Bhongir",Bhuvanagiri,508116,Telangana,IN,https://www.google.com/maps/place/Masjid+e+haza/data=!4m7!3m6!1s0x3bcb6f5fc542d9cd:0x1f27c6a0257f104!8m2!3d17.5113935!4d78.8913648!16s%2Fg%2F11kjn_wg91!19sChIJzdlCxV9vyzsRBPFXAmp88gE?authuser=0&hl=en&rclk=1,"17.5113935,78.89136479999999"
Memon Masjid,Mosque,"GVCV+C8M Memon Masjid, Unnamed Road, Bhuvanagiri, Telangana 508116",,"GVCV+C8M, Unnamed Road",Bhuvanagiri,508116,Telangana,IN,https://www.google.com/maps/place/Memon+Masjid/data=!4m7!3m6!1s0x3bcb6f98316d65bd:0xa9767d13d4960def!8m2!3d17.5210781!4d78.8932906!16s%2Fg%2F11gxjxz5d7!19sChIJvWVtMZhvyzsR7w2W1BN9dqk?authuser=0&hl=en&rclk=1,"17.5210781,78.8932906"
Masjid E Qutubshahi,Mosque,"GV5J+29X Masjid E Qutubshahi, Bhuvanagiri, Telangana 508116",,GV5J+29X,Bhuvanagiri,,Telangana,IN,https://www.google.com/maps/place/Masjid+E+Qutubshahi/data=!4m7!3m6!1s0x3bcb6fa860de540b:0x8c68086985252a80!8m2!3d17.5076241!4d78.8809877!16s%2Fg%2F11gdt_n_0s!19sChIJC1TeYKhvyzsRgColhWkIaIw?authuser=0&hl=en&rclk=1,"17.507624099999997,78.88098769999999"
MASJID-E- ujhlasaha,Mosque,"GV3F+RCH MASJID-E- ujhlasaha, Bhuvanagiri, Telangana 508116",,GV3F+RCH,Bhuvanagiri,,Telangana,IN,https://www.google.com/maps/place/MASJID-E-+ujhlasaha/data=!4m7!3m6!1s0x3bcb6fb8be195209:0x9eeff863704e0a78!8m2!3d17.5045644!4d78.8735945!16s%2Fg%2F11px7y4nkm!19sChIJCVIZvrhvyzsReApOcGP4754?authuser=0&hl=en&rclk=1,"17.5045644,78.8735945"
Shahi Masjid Ahle Hadees,Mosque,"GV3Q+CMX Shahi Masjid Ahle Hadees, Bhuvanagiri, Telangana 508116",,GV3Q+CMX,Bhuvanagiri,508116,Telangana,IN,https://www.google.com/maps/place/Shahi+Masjid+Ahle+Hadees/data=!4m7!3m6!1s0x3bcb6f0155555555:0x5eeda42c61801fcd!8m2!3d17.5036103!4d78.8892226!16s%2Fg%2F11g8vps8z2!19sChIJVVVVVQFvyzsRzR-AYSyk7V4?authuser=0&hl=en&rclk=1,"17.5036103,78.8892226"
