name,main_category,address,address_ward,address_street,address_city,address_postal_code,address_state,address_country_code,link,coordinates
Zahida Qadri Masjid,Mosque,"Zahida Qadri Masjid, Tehsil, Ghosi, National Highway 29, Kasba Khas, Uttar Pradesh 275304",,"Tehsil, Ghosi, National Highway 29",Kasba Khas,275304,Uttar Pradesh,IN,https://www.google.com/maps/place/Zahida+Qadri+Masjid/data=!4m7!3m6!1s0x39918639e3e7c141:0x76612ef72aa3f768!8m2!3d26.1047949!4d83.5387761!16s%2Fg%2F11c5260gmf!19sChIJQcHn4zmGkTkRaPejKvcuYXY?authuser=0&hl=en&rclk=1,"26.104794899999998,83.53877609999999"
Masjid Badagaon,Mosque,"4GGW+65X Masjid Badagaon, Badagaon, Ghosi, Uttar Pradesh 275304",Jamalpur,"4GGW+65X, Badagaon",Ghosi,275304,Uttar Pradesh,IN,https://www.google.com/maps/place/Masjid+Badagaon/data=!4m7!3m6!1s0x39918653c4a962a5:0x966657297745d23f!8m2!3d26.1256049!4d83.5454809!16s%2Fg%2F11c2npkxks!19sChIJpWKpxFOGkTkRP9JFdylXZpY?authuser=0&hl=en&rclk=1,"26.1256049,83.5454809"
Amjadi Razvi Mosque,Mosque,"4HF2+H75 Amjadi Razvi Mosque, Jamalpur, Ghosi, Uttar Pradesh 275304",Jamalpur,4HF2+H75,Ghosi,275304,Uttar Pradesh,IN,https://www.google.com/maps/place/Amjadi+Razvi+Mosque/data=!4m7!3m6!1s0x399187ad3cf22f91:0x156ba5de3bac13a0!8m2!3d26.1238846!4d83.5507412!16s%2Fg%2F11ckr7qblv!19sChIJkS_yPK2HkTkRoBOsO96laxU?authuser=0&hl=en&rclk=1,"26.1238846,83.55074119999999"
Bazar Masjid,Mosque,"4G8V+2VF Bazar Masjid, Ghosi, Uttar Pradesh 275304",,4G8V+2VF,Ghosi,275304,Uttar Pradesh,IN,https://www.google.com/maps/place/Bazar+Masjid/data=!4m7!3m6!1s0x3991864c00000001:0x88826bf242367791!8m2!3d26.1150732!4d83.5446725!16s%2Fg%2F11c2np3fn4!19sChIJAQAAAEyGkTkRkXc2QvJrgog?authuser=0&hl=en&rclk=1,"26.115073199999998,83.54467249999999"
Aamena Masjid,Mosque,"Aamena Masjid, Karimuddin Pur Baag, Ghosi Mau, Karimuddinpur, Ghosi, Uttar Pradesh 275304",Karimuddinpur,"Karimuddin Pur Baag, Ghosi Mau",Ghosi,275304,Uttar Pradesh,IN,https://www.google.com/maps/place/Aamena+Masjid/data=!4m7!3m6!1s0x3991865291e6db61:0x7a178d8b61a15954!8m2!3d26.1227236!4d83.5476245!16s%2Fg%2F11c4sm3hn4!19sChIJYdvmkVKGkTkRVFmhYYuNF3o?authuser=0&hl=en&rclk=1,"26.1227236,83.5476245"
Jama Masjid,Mosque,"4GFW+2GV Jama Masjid, Karimuddinpur, Ghosi, Uttar Pradesh 275304",Karimuddinpur,4GFW+2GV,Ghosi,275304,Uttar Pradesh,IN,https://www.google.com/maps/place/Jama+Masjid/data=!4m7!3m6!1s0x399186526f6304af:0x410dd58acd06f482!8m2!3d26.1226067!4d83.5462907!16s%2Fg%2F11b6hy4c_w!19sChIJrwRjb1KGkTkRgvQGzYrVDUE?authuser=0&hl=en&rclk=1,"26.1226067,83.5462907"
Jama Masjid Milak Malpur jaamaa msjid milk maalpur,Mosque,"RJ4G+926 Jama Masjid Milak Malpur jaamaa msjid milk maalpur, Milak, Malpur, Palupura Ghosi, Uttar Pradesh 244102",Milak,RJ4G+926,"Malpur, Palupura Ghosi",244102,Uttar Pradesh,IN,https://www.google.com/maps/place/Jama+Masjid+Milak+Malpur+%E0%A4%9C%E0%A4%BE%E0%A4%AE%E0%A4%BE+%E0%A4%AE%E0%A4%B8%E0%A5%8D%E0%A4%9C%E0%A4%BF%E0%A4%A6+%E0%A4%AE%E0%A4%BF%E0%A4%B2%E0%A4%95+%E0%A4%AE%E0%A4%BE%E0%A4%B2%E0%A4%AA%E0%A5%81%E0%A4%B0/data=!4m7!3m6!1s0x390b025ae6074821:0xdc14392ae208534!8m2!3d28.8059247!4d78.625003!16s%2Fg%2F11gdzjx1hz!19sChIJIUgH5loCCzkRNIUgrpJDwQ0?authuser=0&hl=en&rclk=1,"28.8059247,78.62500299999999"
Jama Masjid,Mosque,"4H2V+53M Jama Masjid, Ghosi Rd, Raghawali, Uttar Pradesh 275105",,"4H2V+53M, Ghosi Rd",Raghawali,275105,Uttar Pradesh,IN,https://www.google.com/maps/place/Jama+Masjid/data=!4m7!3m6!1s0x3992281d53e942e1:0xe78143ffe195b77e!8m2!3d26.1004654!4d83.592664!16s%2Fg%2F1hhhsg9v9!19sChIJ4ULpUx0okjkRfreV4f9Dgec?authuser=0&hl=en&rclk=1,"26.100465399999997,83.592664"
Ghosia Masjid,Mosque,"Ghosia Masjid, 244241, Bawan Kheri, Bamhori Renguwan, Madhya Pradesh",Bawan Kheri,244241,"Bamhori Renguwan, Hajipur Bhoor",,Madhya Pradesh,IN,https://www.google.com/maps/place/Ghosia+Masjid/data=!4m7!3m6!1s0x390b0d0525769c0b:0xe36d637b635a6482!8m2!3d28.7614877!4d78.3280994!16s%2Fg%2F11cs5v_lg_!19sChIJC5x2JQUNCzkRgmRaY3tjbeM?authuser=0&hl=en&rclk=1,"28.7614877,78.3280994"
Ashrafi Jama Masjid,Mosque,"4GCX+J7R Ashrafi Jama Masjid, Karimuddinpur, Ghosi, Uttar Pradesh 275304",Karimuddinpur,4GCX+J7R,Ghosi,275304,Uttar Pradesh,IN,https://www.google.com/maps/place/Ashrafi+Jama+Masjid/data=!4m7!3m6!1s0x3991864d61c9ce3d:0xb09f5a2c5fefe7c4!8m2!3d26.1216232!4d83.5481286!16s%2Fg%2F11bw66s372!19sChIJPc7JYU2GkTkRxOfvXyxan7A?authuser=0&hl=en&rclk=1,"26.1216232,83.5481286"
Noori Masjid Karimuddin Pur,Mosque,"4HF2+2QG Noori Masjid Karimuddin Pur, Unnamed Road,, Jamalpur, Ghosi, Uttar Pradesh 275304",Jamalpur,"4HF2+2QG, Unnamed Road,",Ghosi,275304,Uttar Pradesh,IN,https://www.google.com/maps/place/Noori+Masjid+Karimuddin+Pur/data=!4m7!3m6!1s0x399187ad7a10a7fd:0x47f6c918428e7e71!8m2!3d26.1225519!4d83.5519457!16s%2Fg%2F11c1w_2xq2!19sChIJ_acQeq2HkTkRcX6OQhjJ9kc?authuser=0&hl=en&rclk=1,"26.122551899999998,83.55194569999999"
"Bhatauli Malik Jama, Masjid",Mosque,"4H74+WQ7 Bhatauli Malik Jama, Masjid, Bhatauli Malik,, Ghosi, Uttar Pradesh 275304",,"4H74+WQ7, Bhatauli Malik,","Ghosi, Rasulpur Taluka Kasim",275304,Uttar Pradesh,IN,"https://www.google.com/maps/place/Bhatauli+Malik+Jama,+Masjid/data=!4m7!3m6!1s0x399187b6dde183e1:0xa28ab48443037e36!8m2!3d26.1147889!4d83.5569278!16s%2Fg%2F11clvtn6tx!19sChIJ4YPh3baHkTkRNn4DQ4S0iqI?authuser=0&hl=en&rclk=1","26.114788899999997,83.5569278"
Shamsul Oloom Mosque,Mosque,"Shamsul Oloom Mosque, Ghosi, Uttar Pradesh 275304",Jamalpur,Shamsul Oloom Mosque,Ghosi,275304,Uttar Pradesh,IN,https://www.google.com/maps/place/Shamsul+Oloom+Mosque/data=!4m7!3m6!1s0x399186520500e43f:0xdaf10162d48adf6!8m2!3d26.1221563!4d83.544745!16s%2Fg%2F11bzs28v36!19sChIJP-QABVKGkTkR9q1ILRYQrw0?authuser=0&hl=en&rclk=1,"26.1221563,83.54474499999999"
Hazrat Khawja Mahmood Bahrang Bilali,Mosque,"4G3R+3PM Hazrat Khawja Mahmood Bahrang Bilali, Ghosi, Uttar Pradesh 275304",,4G3R+3PM,Ghosi,275304,Uttar Pradesh,IN,https://www.google.com/maps/place/Hazrat+Khawja+Mahmood+Bahrang+Bilali/data=!4m7!3m6!1s0x39918631272f4635:0x686dd4056e0785e0!8m2!3d26.102719!4d83.5418073!16s%2Fg%2F11fxzkfx5b!19sChIJNUYvJzGGkTkR4IUHbgXUbWg?authuser=0&hl=en&rclk=1,"26.102719,83.5418073"
Jafri Masjid,Mosque,"4GGV+HX4 Jafri Masjid, Jafri Campus, Baragaon,, Ghosi, Uttar Pradesh 275304",Jamalpur,"4GGV+HX4, Jafri Campus, Baragaon,","Ghosi, Somaridih",275304,Uttar Pradesh,IN,https://www.google.com/maps/place/Jafri+Masjid/data=!4m7!3m6!1s0x39918653e5e57b65:0x9bd93c732193da63!8m2!3d26.1263935!4d83.5449448!16s%2Fg%2F11c43x8kbj!19sChIJZXvl5VOGkTkRY9qTIXM82Zs?authuser=0&hl=en&rclk=1,"26.1263935,83.5449448"
Jama masjid,Mosque,"4G7P+CW6 Jama masjid, Mau, Uttar Pradesh 275304",,4G7P+CW6,Mau,275304,Uttar Pradesh,IN,https://www.google.com/maps/place/Jama+masjid/data=!4m7!3m6!1s0x399186464385a0e9:0xe361c32010d15f08!8m2!3d26.1135368!4d83.5372536!16s%2Fg%2F11c1w0w5sk!19sChIJ6aCFQ0aGkTkRCF_RECDDYeM?authuser=0&hl=en&rclk=1,"26.1135368,83.5372536"
Noori Masjid,Mosque,"4GFW+QGP Noori Masjid, Mau-Gorakhpur Rd, Karimuddinpur, Uttar Pradesh 275304",Karimuddinpur,"4GFW+QGP, Mau-Gorakhpur Rd",,275304,Uttar Pradesh,IN,https://www.google.com/maps/place/Noori+Masjid/data=!4m7!3m6!1s0x399186524d877bd3:0x55d347e9c713d4c9!8m2!3d26.1244628!4d83.5463348!16s%2Fg%2F11c6rjvw8h!19sChIJ03uHTVKGkTkRydQTx-lH01U?authuser=0&hl=en&rclk=1,"26.1244628,83.5463348"
Ghosiyan Masjid,Mosque,"J6XF+928 Ghosiyan Masjid, Garstin Baston Rd, Gali Sakko Wali, Shah Ganj, Old Delhi, New Delhi, Delhi, 110006","Gali Sakko Wali, Shah Ganj, Old Delhi","J6XF+928, Garstin Baston Rd","New Delhi, Delhi",110006,Delhi,IN,https://www.google.com/maps/place/Ghosiyan+Masjid/data=!4m7!3m6!1s0x390cfd19cb4fdef5:0x5a233f6c05fd37ea!8m2!3d28.6484192!4d77.2225897!16s%2Fg%2F11g6bkbkd_!19sChIJ9d5Pyxn9DDkR6jf9BWw_I1o?authuser=0&hl=en&rclk=1,"28.6484192,77.2225897"
Chaman Masjid Milak Malpur cmn msjid milk maalpur,Mosque,"RJ4F+2M7 Chaman Masjid Milak Malpur cmn msjid milk maalpur, Asmoli Madhan Rd, Palupura Ghosi, Uttar Pradesh 244102",,"RJ4F+2M7, Asmoli Madhan Rd",Palupura Ghosi,244102,Uttar Pradesh,IN,https://www.google.com/maps/place/Chaman+Masjid+Milak+Malpur+%E0%A4%9A%E0%A4%AE%E0%A4%A8+%E0%A4%AE%E0%A4%B8%E0%A5%8D%E0%A4%9C%E0%A4%BF%E0%A4%A6+%E0%A4%AE%E0%A4%BF%E0%A4%B2%E0%A4%95+%E0%A4%AE%E0%A4%BE%E0%A4%B2%E0%A4%AA%E0%A5%81%E0%A4%B0/data=!4m7!3m6!1s0x390b03162d98a423:0xf2fa217d6c572759!8m2!3d28.8050412!4d78.6241873!16s%2Fg%2F11fjbknjqq!19sChIJI6SYLRYDCzkRWSdXbH0h-vI?authuser=0&hl=en&rclk=1,"28.805041199999998,78.6241873"
Maina Masjid,Mosque,"4GFW+G96 Maina Masjid, Karimuddinpur, Ghosi, Uttar Pradesh 275304",Karimuddinpur,4GFW+G96,Ghosi,275304,Uttar Pradesh,IN,https://www.google.com/maps/place/Maina+Masjid/data=!4m7!3m6!1s0x39918652460b2c1b:0xdd4371e04f8228e1!8m2!3d26.1237846!4d83.545893!16s%2Fg%2F11csbr7w7t!19sChIJGywLRlKGkTkR4SiCT-BxQ90?authuser=0&hl=en&rclk=1,"26.1237846,83.54589299999999"
Ghani Masjid,Mosque,"4G9X+V96 Ghani Masjid, Karimuddinpur, Ghosi, Uttar Pradesh 275304",Karimuddinpur,4G9X+V96,Ghosi,275304,Uttar Pradesh,IN,https://www.google.com/maps/place/Ghani+Masjid/data=!4m7!3m6!1s0x3991864d472e5cf9:0x356cdbe9c830e5c!8m2!3d26.1196676!4d83.548392!16s%2Fg%2F11c49ycm87!19sChIJ-VwuR02GkTkRXA6DnL7NVgM?authuser=0&hl=en&rclk=1,"26.1196676,83.54839199999999"
Shia Jama Masjid,Mosque,"4GGV+R65 Shia Jama Masjid, Bara Gaon, Mau-Gorakhpur Rd, Ghosi, Uttar Pradesh 275304",Jamalpur,"4GGV+R65, Bara Gaon, Mau-Gorakhpur Rd","Ghosi, Somaridih",275304,Uttar Pradesh,IN,https://www.google.com/maps/place/Shia+Jama+Masjid/data=!4m7!3m6!1s0x399186514a27fed1:0xeed05dcf2d931399!8m2!3d26.1270037!4d83.5431203!16s%2Fg%2F11c2ph_3kr!19sChIJ0f4nSlGGkTkRmROTLc9d0O4?authuser=0&hl=en&rclk=1,"26.1270037,83.5431203"
IDGAH,Mosque,"4G5R+H3J IDGAH, Dak Bungalow Rd, Ghosi, Uttar Pradesh 275304",,"4G5R+H3J, Dak Bungalow Rd",Ghosi,275304,Uttar Pradesh,IN,https://www.google.com/maps/place/IDGAH/data=!4m7!3m6!1s0x39918637e9274161:0x2b6e372a7bb7be31!8m2!3d26.1089722!4d83.5401547!16s%2Fg%2F11gdgxjcgq!19sChIJYUEn6TeGkTkRMb63eyo3bis?authuser=0&hl=en&rclk=1,"26.1089722,83.5401547"
Masjid-e-Ekram,Mosque,"4G7V+5PX Masjid-e-Ekram, Ghosi, Uttar Pradesh 275304",,4G7V+5PX,Ghosi,275304,Uttar Pradesh,IN,https://www.google.com/maps/place/Masjid-e-Ekram/data=!4m7!3m6!1s0x3991864bd58b9cb9:0x4cb1522820676857!8m2!3d26.112982!4d83.5443467!16s%2Fg%2F11bwkxpzl2!19sChIJuZyL1UuGkTkRV2hnIChSsUw?authuser=0&hl=en&rclk=1,"26.112982,83.54434669999999"
Ghosi Jama Masjid,Mosque,"CX9C+F96 Ghosi Jama Masjid, Jahangir Ganj, Uttar Pradesh 224147",,CX9C+F96,Jahangir Ganj,224147,Uttar Pradesh,IN,https://www.google.com/maps/place/Ghosi+Jama+Masjid/data=!4m7!3m6!1s0x39910321bba46057:0xbcad2c2484d5ae2a!8m2!3d26.4186673!4d82.9708941!16s%2Fg%2F11h27xg9mj!19sChIJV2CkuyEDkTkRKq7VhCQsrbw?authuser=0&hl=en&rclk=1,"26.4186673,82.9708941"
Belal Masjid,Mosque,"4HG3+692 Belal Masjid, Maduban Road, Manikpur Asna, Ghosi, Uttar Pradesh",,"4HG3+692, Maduban Road, Manikpur Asna",Ghosi,,Uttar Pradesh,IN,https://www.google.com/maps/place/Belal+Masjid/data=!4m7!3m6!1s0x399187bbe4d8c7e7:0x7fa4f1016efb331a!8m2!3d26.1255215!4d83.5533954!16s%2Fg%2F11nms4275f!19sChIJ58fY5LuHkTkRGjP7bgHxpH8?authuser=0&hl=en&rclk=1,"26.125521499999998,83.5533954"
Masjid Imam Zainul Abedeen (A.S),Mosque,"4GGV+JP3 Masjid Imam Zainul Abedeen (A.S), Bara Gaon, Neem Tal, Ghosi, Uttar Pradesh 275304",Jamalpur,"4GGV+JP3, Bara Gaon, Neem Tal","Ghosi, Somaridih",275304,Uttar Pradesh,IN,https://www.google.com/maps/place/Masjid+Imam+Zainul+Abedeen+%28A.S%29/data=!4m7!3m6!1s0x399187475d3014c7:0x7445eeaa74afbdbd!8m2!3d26.1265034!4d83.5442917!16s%2Fg%2F11jnybq9l7!19sChIJxxQwXUeHkTkRvb2vdKruRXQ?authuser=0&hl=en&rclk=1,"26.126503399999997,83.5442917"
Haideri Masjid,Mosque,"4GHV+2W6 Haideri Masjid, Baragaon, National Highway 29, Jamalpur, Ghosi, Uttar Pradesh 275304",Jamalpur,"4GHV+2W6, Baragaon, National Highway 29","Ghosi, Somaridih",275304,Uttar Pradesh,IN,https://www.google.com/maps/place/Haideri+Masjid/data=!4m7!3m6!1s0x399187191882e11f:0x839096509311dff1!8m2!3d26.1275293!4d83.54478!16s%2Fg%2F11jcj5240r!19sChIJH-GCGBmHkTkR8d8Rk1CWkIM?authuser=0&hl=en&rclk=1,"26.1275293,83.54478"
Gausiya Masjid,Mosque,"4HH3+WVX Gausiya Masjid, Manikpur Asana, Uttar Pradesh 275304",,4HH3+WVX,Manikpur Asana,275304,Uttar Pradesh,IN,https://www.google.com/maps/place/Gausiya+Masjid/data=!4m7!3m6!1s0x399187f64f0984ed:0x93a6a1803dacaa7d!8m2!3d26.129863!4d83.5547473!16s%2Fg%2F11h8w_5388!19sChIJ7YQJT_aHkTkRfaqsPYChppM?authuser=0&hl=en&rclk=1,"26.129863,83.5547473"
Jama Masjid,Mosque,"Jama Masjid, Md Azharudd, Mau-Gorakhpur Rd, Jamalpur, Uttar Pradesh 275304",Jamalpur,"Md Azharudd, Mau-Gorakhpur Rd",,275304,Uttar Pradesh,IN,https://www.google.com/maps/place/Jama+Masjid/data=!4m7!3m6!1s0x399186516bf0e337:0xb1af8f3c2ea747f6!8m2!3d26.1255775!4d83.5432274!16s%2Fg%2F11dxjw4r79!19sChIJN-Pwa1GGkTkR9kenLjyPr7E?authuser=0&hl=en&rclk=1,"26.1255775,83.54322739999999"
Ghosi wali masjid,Mosque,"7XR5+85 Ghosi wali masjid, Miranpur, Uttar Pradesh 251315",,7XR5+85,Miranpur,,Uttar Pradesh,IN,https://www.google.com/maps/place/Ghosi+wali+masjid/data=!4m7!3m6!1s0x390bf5d288eaf2df:0x3c7d5e0f24389a57!8m2!3d29.2908746!4d77.9579547!16s%2Fg%2F11s3zrym9n!19sChIJ3_LqiNL1CzkRV5o4JA9efTw?authuser=0&hl=en&rclk=1,"29.2908746,77.9579547"
Ghosiyon Wali Masjid,Mosque,"2P26+2XH Ghosiyon Wali Masjid, Jawahar Nagar, Meerut, Uttar Pradesh 250001",Jawahar Nagar,2P26+2XH,Meerut,250001,Uttar Pradesh,IN,https://www.google.com/maps/place/Ghosiyon+Wali+Masjid/data=!4m7!3m6!1s0x390c655dee81c3b1:0x2ec27446d258b30b!8m2!3d29.0000734!4d77.7124773!16s%2Fg%2F11h0vsvpws!19sChIJscOB7l1lDDkRC7NY0kZ0wi4?authuser=0&hl=en&rclk=1,"29.000073399999998,77.7124773"
Husaini masjid,Mosque,"4GGV+G6H Husaini masjid, Badagaon, Mau-Gorakhpur Rd, near Husaini Masjiid, Baragaon, Ghosi, Uttar Pradesh 275304",Jamalpur,"4GGV+G6H, Badagaon, Mau-Gorakhpur Rd, near Husaini Masjiid, Baragaon","Ghosi, Somaridih",275304,Uttar Pradesh,IN,https://www.google.com/maps/place/Husaini+masjid/data=!4m7!3m6!1s0x39918651473e80d3:0x9725f4ab7f9a484f!8m2!3d26.1263197!4d83.5430977!16s%2Fg%2F11g6tysmh0!19sChIJ04A-R1GGkTkRT0iaf6v0JZc?authuser=0&hl=en&rclk=1,"26.1263197,83.54309769999999"
Masjid_E_Ilahi,Mosque,"4G7R+X95 Masjid_E_Ilahi, Ghosi, Uttar Pradesh 275304",,4G7R+X95,Ghosi,275304,Uttar Pradesh,IN,https://www.google.com/maps/place/Masjid_E_Ilahi/data=!4m7!3m6!1s0x399187272d5d3c69:0x34c1e3ebc97bc04a!8m2!3d26.1148841!4d83.5409792!16s%2Fg%2F11j_nl7hw7!19sChIJaTxdLSeHkTkRSsB7yevjwTQ?authuser=0&hl=en&rclk=1,"26.114884099999998,83.5409792"
Noorani Masjid,Mosque,"4G7V+7F7 Noorani Masjid, Ghosi, Uttar Pradesh 275304",,4G7V+7F7,Ghosi,275304,Uttar Pradesh,IN,https://www.google.com/maps/place/Noorani+Masjid/data=!4m7!3m6!1s0x39918649709fcb61:0xf8d5c14244bb9d3!8m2!3d26.1131588!4d83.5436587!16s%2Fg%2F11f1270cx2!19sChIJYcufcEmGkTkR07lLJBRcjQ8?authuser=0&hl=en&rclk=1,"26.113158799999997,83.5436587"
Masjid-e Usman Gani,Mosque,"4HF2+6HR Masjid-e Usman Gani, Manikpur Asna, Ghosi, Uttar Pradesh 275304",Jamalpur,"4HF2+6HR, Manikpur Asna",Ghosi,275304,Uttar Pradesh,IN,https://www.google.com/maps/place/Masjid-e+Usman+Gani/data=!4m7!3m6!1s0x39918735668add9d:0xe91f1887ce177bb1!8m2!3d26.123101!4d83.5514002!16s%2Fg%2F11qjx0bpcs!19sChIJnd2KZjWHkTkRsXsXzocYH-k?authuser=0&hl=en&rclk=1,"26.123101,83.55140019999999"
Rabbani Masjid Qazipura,Mosque,"4G7P+HC7 Rabbani Masjid Qazipura, Qazipura Rd, Ghosi, Maidapur Samastpur, Uttar Pradesh 275304",,"4G7P+HC7, Qazipura Rd","Ghosi, Maidapur Samastpur",275304,Uttar Pradesh,IN,https://www.google.com/maps/place/Rabbani+Masjid+Qazipura/data=!4m7!3m6!1s0x39918767ddacd857:0x3fed22c8b3267bbd!8m2!3d26.1139051!4d83.5360567!16s%2Fg%2F11h_k35tm4!19sChIJV9is3WeHkTkRvXsms8gi7T8?authuser=0&hl=en&rclk=1,"26.1139051,83.5360567"
Masjid e Askari,Mosque,"4GHV+477 Masjid e Askari, Bandh Rd, Jamalpur, Baragaon, Mau, Uttar Pradesh 275304",Jamalpur,"4GHV+477, Bandh Rd","Baragaon, Mau",275304,Uttar Pradesh,IN,https://www.google.com/maps/place/Masjid+e+Askari/data=!4m7!3m6!1s0x39918656b689fe05:0x6ac70e587ed4df65!8m2!3d26.1277986!4d83.5431611!16s%2Fg%2F11df06cv3f!19sChIJBf6JtlaGkTkRZd_UflgOx2o?authuser=0&hl=en&rclk=1,"26.1277986,83.54316109999999"
Nizami masjid,Mosque,"4HJ3+63P Nizami masjid, Ghosi, Uttar Pradesh 275304",,4HJ3+63P,Ghosi,275304,Uttar Pradesh,IN,https://www.google.com/maps/place/Nizami+masjid/data=!4m7!3m6!1s0x399187f0920dafe3:0x651b2e72e94b2e57!8m2!3d26.1305794!4d83.5527031!16s%2Fg%2F11j1yb6y0s!19sChIJ468NkvCHkTkRVy5L6XIuG2U?authuser=0&hl=en&rclk=1,"26.1305794,83.5527031"
Masjid e Abutalib (a.s.),Mosque,"4GGR+PQF Masjid e Abutalib (a.s.), Baragaon, Ghosi, Uttar Pradesh 275304",Jamalpur,"4GGR+PQF, Baragaon","Ghosi, Somaridih",275304,Uttar Pradesh,IN,https://www.google.com/maps/place/Masjid+e+Abutalib+%28a.s.%29/data=!4m7!3m6!1s0x399187a70f3f7c73:0x7b0c3c9ee5a459e4!8m2!3d26.1268228!4d83.5419216!16s%2Fg%2F11gnpxsm_q!19sChIJc3w_D6eHkTkR5Fmk5Z48DHs?authuser=0&hl=en&rclk=1,"26.1268228,83.5419216"
Abu Bakr Siddique Masjid,Mosque,"5H8G+Q9Q Abu Bakr Siddique Masjid, Haji Abdul Jabbar Market, Sultanpur, Ghosi, Uttar Pradesh 275304",,"5H8G+Q9Q, Haji Abdul Jabbar Market, Sultanpur, Ghosi",Sultanpur,275304,Uttar Pradesh,IN,https://www.google.com/maps/place/Abu+Bakr+Siddique+Masjid/data=!4m7!3m6!1s0x399187906216d045:0xc7fbab8a1436bcee!8m2!3d26.1669741!4d83.575987!16s%2Fg%2F11ll28ky4_!19sChIJRdAWYpCHkTkR7rw2FIqr-8c?authuser=0&hl=en&rclk=1,"26.166974099999997,83.575987"
Ghos ghosi Madhuban road karimuddinpur jama masjid ke passi tahashil awadh hospital,,"4G7W+G35 Ghos ghosi Madhuban road karimuddinpur jama masjid ke passi tahashil awadh hospital, Ghosi, Uttar Pradesh 275304",,4G7W+G35,Ghosi,275304,Uttar Pradesh,IN,https://www.google.com/maps/place/Ghos+ghosi+Madhuban+road+karimuddinpur+jama+masjid+ke+passi+tahashil+awadh+hospital/data=!4m7!3m6!1s0x3991879bca3a72b3:0x3574bb0d771f4013!8m2!3d26.1137702!4d83.5452197!16s%2Fg%2F11p5g9ffvb!19sChIJs3I6ypuHkTkRE0Afdw27dDU?authuser=0&hl=en&rclk=1,"26.113770199999998,83.54521969999999"
Ghosiyo Wali Masjid,Mosque,"RQQ9+7QW Ghosiyo Wali Masjid, Station Rd, Pat Pat Sarai, Moradabad, Uttar Pradesh 244001",Pat Pat Sarai,"RQQ9+7QW, Station Rd",Moradabad,244001,Uttar Pradesh,IN,https://www.google.com/maps/place/Ghosiyo+Wali+Masjid/data=!4m7!3m6!1s0x390afb2e19da8da5:0x4930b74728a388d2!8m2!3d28.8381797!4d78.7692495!16s%2Fg%2F11t53grk00!19sChIJpY3aGS77CjkR0oijKEe3MEk?authuser=0&hl=en&rclk=1,"28.838179699999998,78.7692495"
Jamia masjid ghosi,Mosque,"67C4+6CG Jamia masjid ghosi, Raja Jang, Kasur, Punjab, Pakistan",,67C4+6CG,Raja Jang,,"Kasur, Punjab",PK,https://www.google.com/maps/place/Jamia+masjid+ghosi/data=!4m7!3m6!1s0x3919ad9b6e48f5df:0xab3ae0d0f049d956!8m2!3d31.2205548!4d74.2560806!16s%2Fg%2F11jgd1vfcs!19sChIJ3_VIbputGTkRVtlJ8NDgOqs?authuser=0&hl=en&rclk=1,"31.2205548,74.25608059999999"
mohmmdii jaamaa msjid husain pur,Mosque,"4G7R+GMG mohmmdii jaamaa msjid husain pur, Ghosi, Uttar Pradesh 275304",,4G7R+GMG,Ghosi,275304,Uttar Pradesh,IN,https://www.google.com/maps/place/%E0%A4%AE%E0%A5%8B%E0%A4%B9%E0%A4%AE%E0%A5%8D%E0%A4%AE%E0%A4%A6%E0%A5%80+%E0%A4%9C%E0%A4%BE%E0%A4%AE%E0%A4%BE+%E0%A4%AE%E0%A4%B8%E0%A5%8D%E0%A4%9C%E0%A4%BF%E0%A4%A6+%E0%A4%B9%E0%A5%81%E0%A4%B8%E0%A5%88%E0%A4%A8+%E0%A4%AA%E0%A5%81%E0%A4%B0/data=!4m7!3m6!1s0x399187cb06acafd7:0xd5f45bdba6271b0b!8m2!3d26.1138235!4d83.5416973!16s%2Fg%2F11p15qh68p!19sChIJ16-sBsuHkTkRCxsnpttb9NU?authuser=0&hl=en&rclk=1,"26.1138235,83.5416973"
Masjid kothi madapur ghosi msjid kotthii mdaapur ghosii,Mosque,"4G7R+4V6 Masjid kothi madapur ghosi msjid kotthii mdaapur ghosii, Madapur samaspur, kothi, Ghosi, Uttar Pradesh",kothi,"4G7R+4V6, Madapur samaspur",Ghosi,,Uttar Pradesh,IN,https://www.google.com/maps/place/Masjid+kothi+madapur+ghosi+%E0%A4%AE%E0%A4%B8%E0%A5%8D%E0%A4%9C%E0%A4%BF%E0%A4%A6+%E0%A4%95%E0%A5%8B%E0%A4%A0%E0%A5%80+%E0%A4%AE%E0%A4%A6%E0%A4%BE%E0%A4%AA%E0%A5%81%E0%A4%B0+%E0%A4%98%E0%A5%8B%E0%A4%B8%E0%A5%80/data=!4m7!3m6!1s0x399187217b976cc1:0x2dcbb82ca713aac3!8m2!3d26.1127957!4d83.5421396!16s%2Fg%2F11tf892lzw!19sChIJwWyXeyGHkTkRw6oTpyy4yy0?authuser=0&hl=en&rclk=1,"26.1127957,83.5421396"
Raza Masjid,Mosque,"4GFX+F47 Raza Masjid, Karimuddinpur, Ghosi, Uttar Pradesh 275304",Karimuddinpur,4GFX+F47,Ghosi,275304,Uttar Pradesh,IN,https://www.google.com/maps/place/Raza+Masjid/data=!4m7!3m6!1s0x39918652ee5b410f:0xb4bc528603fa803d!8m2!3d26.1236548!4d83.547788!16s%2Fg%2F11c6z1w15t!19sChIJD0Fb7lKGkTkRPYD6A4ZSvLQ?authuser=0&hl=en&rclk=1,"26.123654799999997,83.547788"
Rahmani (Hatiyah) Masjid,Mosque,"4GFW+9VV Rahmani (Hatiyah) Masjid, Karimuddinpur, Ghosi, Uttar Pradesh 275304",Karimuddinpur,4GFW+9VV,Ghosi,275304,Uttar Pradesh,IN,https://www.google.com/maps/place/Rahmani+%28Hatiyah%29+Masjid/data=!4m7!3m6!1s0x39918798388d3323:0x1bc6a0f5f9ff03e4!8m2!3d26.1234842!4d83.5471802!16s%2Fg%2F11q1vt0hpf!19sChIJIzONOJiHkTkR5AP_-fWgxhs?authuser=0&hl=en&rclk=1,"26.1234842,83.5471802"
Umer Farooque masjid,Mosque,"4GGW+4RR Umer Farooque masjid, Bada Gaon, Ghosi, Uttar Pradesh 275304",Bada Gaon,4GGW+4RR,Ghosi,,Uttar Pradesh,IN,https://www.google.com/maps/place/Umer+Farooque+masjid/data=!4m7!3m6!1s0x3991872303915afb:0x16e125a0db61fb65!8m2!3d26.1253502!4d83.5470021!16s%2Fg%2F11frslt2dz!19sChIJ-1qRAyOHkTkRZfth26Al4RY?authuser=0&hl=en&rclk=1,"26.1253502,83.5470021"
"mzr syWd shhyd, bb",Mosque,"4GCW+8PJ mzr syWd shhyd, bb, Karimuddinpur, Ghosi, Uttar Pradesh 275304",Karimuddinpur,4GCW+8PJ,Ghosi,275304,Uttar Pradesh,IN,https://www.google.com/maps/place/%D9%85%D8%B2%D8%A7%D8%B1+%D8%B3%DB%8C%D9%91%D8%AF+%D8%B4%DB%81%DB%8C%D8%AF%D8%8C+%D8%A8%D8%A7%D8%A8%D8%A7%E2%80%AD/data=!4m7!3m6!1s0x399187a3b681248d:0x1d353b32554c2364!8m2!3d26.1208339!4d83.546761!16s%2Fg%2F11rv360pvz!19sChIJjSSBtqOHkTkRZCNMVTI7NR0?authuser=0&hl=en&rclk=1,"26.120833899999997,83.54676099999999"
Khawaja Gareeb Nawaz Masjid,Mosque,"4HG2+684 Khawaja Gareeb Nawaz Masjid, Jahan Nagar, Jamalpur, Ghosi, Uttar Pradesh 275304",Jamalpur,"4HG2+684, Jahan Nagar",Ghosi,275304,Uttar Pradesh,IN,https://www.google.com/maps/place/Khawaja+Gareeb+Nawaz+Masjid/data=!4m7!3m6!1s0x39918738922f309b:0xdbe6fd372c7c2496!8m2!3d26.1255233!4d83.5508148!16s%2Fg%2F11svw0byvl!19sChIJmzAvkjiHkTkRliR8LDf95ts?authuser=0&hl=en&rclk=1,"26.125523299999998,83.5508148"
noori jama masjid,Mosque,"4GFM+25X noori jama masjid, Mau, Uttar Pradesh 275304",,4GFM+25X,Mau,,Uttar Pradesh,IN,https://www.google.com/maps/place/noori+jama+masjid/data=!4m7!3m6!1s0x3991870faa191609:0xf771155a583eac10!8m2!3d26.1226157!4d83.532991!16s%2Fg%2F11mbvgqg36!19sChIJCRYZqg-HkTkREKw-WFoVcfc?authuser=0&hl=en&rclk=1,"26.122615699999997,83.532991"
