name,main_category,address,address_ward,address_street,address_city,address_postal_code,address_state,address_country_code,link,coordinates
Jama Masjid Patna,Mosque,"J43P+F6M Jama Masjid Patna, New Market, Patna Junction, Patna, Bihar 800001","New Market, Fraser Road Area","J43P+F6M, New Market, Patna Junction",Patna,800001,Bihar,IN,https://www.google.com/maps/place/Jama+Masjid+Patna/data=!4m7!3m6!1s0x140d7ef026e8e615:0x50b27fe239bc0742!8m2!3d25.6037128!4d85.1355347!16s%2Fg%2F11b7hmg6rw!19sChIJFeboJvB-DRQRQge8OeJ_slA?authuser=0&hl=en&rclk=1,"25.6037128,85.1355347"
"Hazrat Bilal Masjid, Indrapuri, Patna",Mosque,"Hazrat Bilal Masjid, Indrapuri, Patna, Samanpura, Raja Bazar, Indrapuri, Patna, Bihar 800014","Samanpura, Raja Bazar, Indrapuri",,Patna,800014,Bihar,IN,"https://www.google.com/maps/place/Hazrat+Bilal+Masjid,+Indrapuri,+Patna/data=!4m7!3m6!1s0x39ed57bde24309f1:0xffb8e5edc3a1e5ac!8m2!3d25.6101528!4d85.0848028!16s%2Fg%2F11gzchw5p!19sChIJ8QlD4r1X7TkRrOWhw-3luP8?authuser=0&hl=en&rclk=1","25.610152799999998,85.08480279999999"
Jama Masjid - jm` msjd,Mosque,"J4FH+CGJ Jama Masjid - jm` msjd, Dujra, Buddha Colony, Patna, Bihar 800001","Dujra, Buddha Colony",J4FH+CGJ,Patna,800001,Bihar,IN,https://www.google.com/maps/place/Jama+Masjid+-+%D8%AC%D8%A7%D9%85%D8%B9+%D9%85%D8%B3%D8%AC%D8%AF%E2%80%AD/data=!4m7!3m6!1s0x140d7e7bb1d3e517:0xb4e887ea89f3f1c9!8m2!3d25.6235984!4d85.1287812!16s%2Fg%2F11b77z38yz!19sChIJF-XTsXt-DRQRyfHzieqH6LQ?authuser=0&hl=en&rclk=1,"25.6235984,85.12878119999999"
NIDA TRADERS,Mosque,"NIDA TRADERS, FAKIRBARA MASJID PATNA, Qutubuddin Ln, Dariyapur, Patna, Bihar 800004","Dariyapur Gola, Dariyapur, Dujra Diara","FAKIRBARA MASJID PATNA, Qutubuddin Ln",Patna,800004,Bihar,IN,https://www.google.com/maps/place/NIDA+TRADERS/data=!4m7!3m6!1s0x39ed58f1b2e12563:0xb19e1a38839e9f53!8m2!3d25.6152621!4d85.1565981!16s%2Fg%2F1tdy7gxk!19sChIJYyXhsvFY7TkRU5-egzganrE?authuser=0&hl=en&rclk=1,"25.6152621,85.1565981"
Ali Nagar Jama Masjid,Mosque,"Ali Nagar Jama Masjid, A/12, Ali Nagar Colony, Police Colony, Anisabad, Patna, Bihar 800002","Ali Nagar Colony, Police Colony, Anisabad",A/12,Patna,800002,Bihar,IN,https://www.google.com/maps/place/Ali+Nagar+Jama+Masjid/data=!4m7!3m6!1s0x39ed57e48298b0e5:0x9a73f1fe528c26f6!8m2!3d25.5865171!4d85.0939234!16s%2Fg%2F11bwh8rkj8!19sChIJ5bCYguRX7TkR9iaMUv7xc5o?authuser=0&hl=en&rclk=1,"25.5865171,85.0939234"
Kankarbagh Masjid,Mosque,"Kankarbagh Masjid, B-68,, P.C.Colony, Kankarbagh, Patrakar Nagar, Patna, Bihar 800020","P.C.Colony, Kankarbagh, Patrakar Nagar","B-68,",Patna,800020,Bihar,IN,https://www.google.com/maps/place/Kankarbagh+Masjid/data=!4m7!3m6!1s0x39ed588971cc679d:0xd2bfc4f5a74b420b!8m2!3d25.5994108!4d85.1512038!16s%2Fg%2F11b7cjfksk!19sChIJnWfMcYlY7TkRC0JLp_XEv9I?authuser=0&hl=en&rclk=1,"25.599410799999998,85.15120379999999"
Raza Jama Masjid,Mosque,"J58H+GP9 Raza Jama Masjid, Near Training School, Ashok Rajpath Rd, Mahendru, Patna, Bihar 800006","Mahendru, Tripolia","J58H+GP9, Near Training School, Ashok Rajpath Rd",Patna,800006,Bihar,IN,https://www.google.com/maps/place/Raza+Jama+Masjid/data=!4m7!3m6!1s0x39ed58cf8177d85d:0x70b02d73592c5271!8m2!3d25.616298!4d85.179352!16s%2Fg%2F11b7g0rzcr!19sChIJXdh3gc9Y7TkRcVIsWXMtsHA?authuser=0&hl=en&rclk=1,"25.616298,85.179352"
Sangi Masjid - sngy msjd,Mosque,"Sangi Masjid - sngy msjd, Phulwari Sharif, Patna, Bihar 801505",Phulwari Sharif,,Patna,801505,Bihar,IN,https://www.google.com/maps/place/Sangi+Masjid+-+%D8%B3%D9%86%DA%AF%DB%8C+%D9%85%D8%B3%D8%AC%D8%AF%E2%80%AD/data=!4m7!3m6!1s0x39f2a828bf9f592d:0xd6407567d0b760b!8m2!3d25.5755712!4d85.0740749!16s%2Fg%2F1tgdrk50!19sChIJLVmfvyio8jkRC3YLfVYHZA0?authuser=0&hl=en&rclk=1,"25.5755712,85.0740749"
Mosque,Mosque,"J45G+WV5 Mosque, Jawaharlal Nehru Marg, Kidwaipuri, Patna, Bihar 800021",Kidwaipuri,"J45G+WV5, Jawaharlal Nehru Marg",Patna,800021,Bihar,IN,https://www.google.com/maps/place/Mosque/data=!4m7!3m6!1s0x39ed58409e3aaaab:0x2fc15f7e7b8beeb1!8m2!3d25.6097607!4d85.1272313!16s%2Fg%2F11g8_078vb!19sChIJq6o6nkBY7TkRse6Le35fwS8?authuser=0&hl=en&rclk=1,"25.6097607,85.12723129999999"
Jama Masjid - jm` msjd,Mosque,"J42R+VJ6 Jama Masjid - jm` msjd, Road, near Chirayantand, Karbigahia, Kankarbagh, Chouraha, Patna, Bihar 800020","Karbigahia, Kankarbagh, Chouraha","J42R+VJ6, Road, near Chirayantand",Patna,800020,Bihar,IN,https://www.google.com/maps/place/Jama+Masjid+-+%D8%AC%D8%A7%D9%85%D8%B9+%D9%85%D8%B3%D8%AC%D8%AF%E2%80%AD/data=!4m7!3m6!1s0x39ed5866c2f9c1bd:0x3f0a23ab38c58069!8m2!3d25.6021623!4d85.1415281!16s%2Fg%2F11b7tvy1qf!19sChIJvcH5wmZY7TkRaYDFOKsjCj8?authuser=0&hl=en&rclk=1,"25.6021623,85.1415281"
Sui Ki Masjid - swy'y khy msjd,Mosque,"H6W7+F5W Sui Ki Masjid - swy'y khy msjd, Nawdhal Street, Mughal Pura, Sadikpur, Patna, Bihar 800008","Mughal Pura, Sadikpur","H6W7+F5W, Nawdhal Street",Patna,800008,Bihar,IN,https://www.google.com/maps/place/Sui+Ki+Masjid+-+%D8%B3%D9%88%D8%A6%DB%8C+%DA%A9%DB%8C+%D9%85%D8%B3%D8%AC%D8%AF%E2%80%AD/data=!4m7!3m6!1s0x39ed5f662b8c7783:0xe5d8d57f4c2ad293!8m2!3d25.5962284!4d85.2129466!16s%2Fg%2F11gf7l9qyh!19sChIJg3eMK2Zf7TkRk9IqTH_V2OU?authuser=0&hl=en&rclk=1,"25.596228399999998,85.2129466"
Sher E Shahi Jama Masjid - shyr y shhy jm` msjd,Mosque,"J52P+72Q Sher E Shahi Jama Masjid - shyr y shhy jm` msjd, Kankarbagh Main Rd, Vachaspati Nagar, Kumhrar, Patna, Bihar 800026","Vachaspati Nagar, Kumhrar","J52P+72Q, Kankarbagh Main Rd",Patna,800026,Bihar,IN,https://www.google.com/maps/place/Sher+E+Shahi+Jama+Masjid+-+%D8%B4%DB%8C%D8%B1+%D8%A7%DB%92+%D8%B4%D8%A7%DB%81%DB%8C+%D8%AC%D8%A7%D9%85%D8%B9+%D9%85%D8%B3%D8%AC%D8%AF%E2%80%AD/data=!4m7!3m6!1s0x39ed58b36ce8ecd7:0x331a48ade87cb06c!8m2!3d25.600717!4d85.1851163!16s%2Fg%2F11f1vm7byb!19sChIJ1-zobLNY7TkRbLB86K1IGjM?authuser=0&hl=en&rclk=1,"25.600717,85.18511629999999"
Khagri Masjid,Mosque,"J35P+GJV Khagri Masjid, Samanpura, Raja Bazar, Indrapuri, Patna, Bihar 800025","Samanpura, Raja Bazar, Indrapuri",J35P+GJV,Patna,800025,Bihar,IN,https://www.google.com/maps/place/Khagri+Masjid/data=!4m7!3m6!1s0x39ed5795ec427b91:0x4e426d3bbfb6b21!8m2!3d25.6088608!4d85.0865374!16s%2Fg%2F11c5zzrwvl!19sChIJkXtC7JVX7TkRIWv7u9Mm5AQ?authuser=0&hl=en&rclk=1,"25.6088608,85.0865374"
MASJID GHAT,Mosque,"J59M+MRQ MASJID GHAT, Mouar Ln, Mahendru, Tripolia, Patna, Bihar 800006","Mahendru, Tripolia","J59M+MRQ, Mouar Ln",Patna,800006,Bihar,IN,https://www.google.com/maps/place/MASJID+GHAT/data=!4m7!3m6!1s0x39ed58cdf8bc63f9:0xbc413382263b4642!8m2!3d25.6192093!4d85.1846182!16s%2Fg%2F11g8p902tw!19sChIJ-WO8-M1Y7TkRQkY7JoIzQbw?authuser=0&hl=en&rclk=1,"25.619209299999998,85.1846182"
"Jama Masjid, Nawab Bahadur Road - jm` msjd , nwb bhdr rwdd",Mosque,"H6X5+3P3 Jama Masjid, Nawab Bahadur Road - jm` msjd , nwb bhdr rwdd, kazmi begum campus, Nawab Bahadur Rd, Khamji Begum Colony, Sadikpur, Patna, Bihar 800008","Khamji Begum Colony, Sadikpur","H6X5+3P3, kazmi begum campus, Nawab Bahadur Rd",Patna,800008,Bihar,IN,"https://www.google.com/maps/place/Jama+Masjid,+Nawab+Bahadur+Road+-+%D8%AC%D8%A7%D9%85%D8%B9+%D9%85%D8%B3%D8%AC%D8%AF+%D8%8C+%D9%86%D9%88%D8%A7%D8%A8+%D8%A8%DB%81%D8%A7%D8%AF%D8%B1+%D8%B1%D9%88%DA%88%E2%80%AD/data=!4m7!3m6!1s0x39ed5f427f57f34f:0xc748c3266d551baf!8m2!3d25.5995899!4d85.209985!16s%2Fg%2F1hc21j4px!19sChIJT_NXf0Jf7TkRrxtVbSbDSMc?authuser=0&hl=en&rclk=1","25.599589899999998,85.209985"
Nai Sadak Masjid,Mosque,"Nai Sadak Masjid, 76, Nawab Bahadur Rd, Mughal Pura, Sadikpur, Patna, Bihar 800008","Mughal Pura, Sadikpur","76, Nawab Bahadur Rd",Patna,800008,Bihar,IN,https://www.google.com/maps/place/Nai+Sadak+Masjid/data=!4m7!3m6!1s0x39ed5f6804ad1329:0x63e188477e56de95!8m2!3d25.5974109!4d85.2092411!16s%2Fg%2F11dyx7f400!19sChIJKROtBGhf7TkRld5WfkeI4WM?authuser=0&hl=en&rclk=1,"25.5974109,85.2092411"
"Jama Masjid, Jaggi Ka Chauraha, Patna City",Mosque,"Jama Masjid, Jaggi Ka Chauraha, Patna City, 76, Nawab Bahadur Rd, Mughal Pura, Sadikpur, Patna, Bihar 800008","Mughal Pura, Sadikpur","76, Nawab Bahadur Rd",Patna,800008,Bihar,IN,"https://www.google.com/maps/place/Jama+Masjid,+Jaggi+Ka+Chauraha,+Patna+City/data=!4m7!3m6!1s0x39ed5f6804c87a65:0x5981bc99566e76ed!8m2!3d25.5971288!4d85.2106402!16s%2Fg%2F11g81rphhw!19sChIJZXrIBGhf7TkR7XZuVpm8gVk?authuser=0&hl=en&rclk=1","25.5971288,85.2106402"
Jama Masjid,Mosque,"H6RF+5PX Jama Masjid, Ranipur Khidki, Patna, Bihar 800008",Ranipur Khidki,H6RF+5PX,Patna,800008,Bihar,IN,https://www.google.com/maps/place/Jama+Masjid/data=!4m7!3m6!1s0x39ed5f7c0d29e3e7:0xa2e794889f5ef52f!8m2!3d25.5904875!4d85.2243556!16s%2Fg%2F11g7nmd1t0!19sChIJ5-MpDXxf7TkRL_Ven4iU56I?authuser=0&hl=en&rclk=1,"25.5904875,85.2243556"
Veterinary Masjid Patna - wyttrnry msjd pttn,Mosque,"J32M+955 Veterinary Masjid Patna - wyttrnry msjd pttn, Airport Rd, Samanpura, BIT Campus, Patna, Bihar 800014","Samanpura, BIT Campus","J32M+955, Airport Rd",Patna,800014,Bihar,IN,https://www.google.com/maps/place/Veterinary+Masjid+Patna+-+%D9%88%DB%8C%D9%B9%D8%B1%D9%86%D8%B1%DB%8C+%D9%85%D8%B3%D8%AC%D8%AF+%D9%BE%D9%B9%D9%86%D8%A7%E2%80%AD/data=!4m7!3m6!1s0x39ed57c100eda6c9:0x5e938cd5b3757abc!8m2!3d25.6008954!4d85.0829882!16s%2Fg%2F11c2nhc_jx!19sChIJyabtAMFX7TkRvHp1s9WMk14?authuser=0&hl=en&rclk=1,"25.6008954,85.0829882"
"Jama Masjid Sadikpur Patna City - jm` msjd, Sdyqpwr , pttn stty",Mosque,"Jama Masjid Sadikpur Patna City - jm` msjd, Sdyqpwr , pttn stty, 800007, Shershah Rd, Maharajganj, Sadikpur, Patna, Bihar 800008","Maharajganj, Sadikpur","800007, Shershah Rd",Patna,800008,Bihar,IN,https://www.google.com/maps/place/Jama+Masjid+Sadikpur+Patna+City+-+%D8%AC%D8%A7%D9%85%D8%B9+%D9%85%D8%B3%D8%AC%D8%AF%D8%8C+%D8%B5%D8%AF%DB%8C%D9%82%D9%BE%D9%88%D8%B1+%D8%8C+%D9%BE%D9%B9%D9%86%D8%A7+%D8%B3%D9%B9%DB%8C%E2%80%AD/data=!4m7!3m6!1s0x39ed5f7477f5f88b:0x5b77b5bf94dbfdfe!8m2!3d25.6026839!4d85.207008!16s%2Fg%2F11hz8ljybp!19sChIJi_j1d3Rf7TkR_v3blL-1d1s?authuser=0&hl=en&rclk=1,"25.6026839,85.207008"
