name,main_category,address,address_ward,address_street,address_city,address_postal_code,address_state,address_country_code,link,coordinates
Jama Masjid,Mosque,"MGGQ+F5Q Jama Masjid, Jama Masjid Rd, Mahalaxmiwada, Adilabad, Telangana 504001",Mahalaxmiwada,"MGGQ+F5Q, Jama Masjid Rd",Adilabad,504001,Telangana,IN,https://www.google.com/maps/place/Jama+Masjid/data=!4m7!3m6!1s0x3bd25c75f87e8a01:0x25a95ee1fbab37d0!8m2!3d19.6762137!4d78.5379985!16s%2Fg%2F1tlqnfwv!19sChIJAYp--HVc0jsR0Der--FeqSU?authuser=0&hl=en&rclk=1,"19.676213699999998,78.5379985"
Gulzaar Masjid,Mosque,"MGCR+66Q Gulzaar Masjid, Bokkalguda St, Brahmanwadi, Adilabad, Telangana 504001",Brahmanwadi,"MGCR+66Q, Bokkalguda St",Adilabad,504001,Telangana,IN,https://www.google.com/maps/place/Gulzaar+Masjid/data=!4m7!3m6!1s0x3bd25c7477d00337:0x3dc61fe7489f62b1!8m2!3d19.6704596!4d78.5395986!16s%2Fg%2F1tcz6sjz!19sChIJNwPQd3Rc0jsRsWKfSOcfxj0?authuser=0&hl=en&rclk=1,"19.670459599999997,78.53959859999999"
Masjid e Noor Khursheed Nagar,Mosque,"Masjid e Noor Khursheed Nagar, khursheed Nagar, Adilabad, Telangana 504001",khursheed Nagar,,Adilabad,,Telangana,IN,https://www.google.com/maps/place/Masjid+e+Noor+Khursheed+Nagar/data=!4m7!3m6!1s0x3bd25b7f77891187:0xd64d9d2522c68201!8m2!3d19.6780656!4d78.5199255!16s%2Fg%2F1pp2x6dd1!19sChIJhxGJd39b0jsRAYLGIiWdTdY?authuser=0&hl=en&rclk=1,"19.6780656,78.5199255"
Jama Masjid,Mosque,"9WF4+RQQ Jama Masjid, Jainoor, Telangana 504313",,9WF4+RQQ,Jainoor,504313,Telangana,IN,https://www.google.com/maps/place/Jama+Masjid/data=!4m7!3m6!1s0x3bd29a35900ac135:0x7391ef599ce08a2c!8m2!3d19.3745916!4d78.9069837!16s%2Fg%2F11f34m3m7b!19sChIJNcEKkDWa0jsRLIrgnFnvkXM?authuser=0&hl=en&rclk=1,"19.3745916,78.9069837"
Masjid E Firdous,Mosque,"Masjid E Firdous, Utukur, Lakshettipet, Telangana 504215",,,"Utukur, Lakshettipet",,Telangana,IN,https://www.google.com/maps/place/Masjid+E+Firdous/data=!4m7!3m6!1s0x3bcd480ee90e2c3f:0xfcd8f71cabc7c5c8!8m2!3d18.8884431!4d79.2072006!16s%2Fg%2F1td5721r!19sChIJPywO6Q5IzTsRyMXHqxz32Pw?authuser=0&hl=en&rclk=1,"18.8884431,79.2072006"
Jaame Masjid,Mosque,"22MM+M88 Jaame Masjid, Donthapur, Telangana 505425",,22MM+M88,Donthapur,505425,Telangana,IN,https://www.google.com/maps/place/Jaame+Masjid/data=!4m7!3m6!1s0x3bcd42bb0af194e7:0x637d967f2a20d1f7!8m2!3d19.0341733!4d79.0333137!16s%2Fg%2F11bx1hgl96!19sChIJ55TxCrtCzTsR99EgKn-WfWM?authuser=0&hl=en&rclk=1,"19.0341733,79.0333137"
Madeena Masjid,Mosque,"V6P3+8XJ Madeena Masjid, Unnamed Road, Lakshettipet, Utukur, Telangana 504215",,"V6P3+8XJ, Unnamed Road","Lakshettipet, Utukur",504215,Telangana,IN,https://www.google.com/maps/place/Madeena+Masjid/data=!4m7!3m6!1s0x3bcd4808b8069611:0xa08757891f8dc24f!8m2!3d18.8858394!4d79.2049032!16s%2Fg%2F11h9rd_j48!19sChIJEZYGuAhIzTsRT8KNH4lXh6A?authuser=0&hl=en&rclk=1,"18.8858394,79.20490319999999"
Jama Masjid,Mosque,"4XCX+W6R Jama Masjid, Jannaram, Telangana 504205",,4XCX+W6R,Jannaram,504205,Telangana,IN,https://www.google.com/maps/place/Jama+Masjid/data=!4m7!3m6!1s0x3bcd67409343a49f:0xacb4e0cdbc72e535!8m2!3d19.1223711!4d78.9980289!16s%2Fg%2F11bwkyz4lp!19sChIJn6RDk0BnzTsRNeVyvM3gtKw?authuser=0&hl=en&rclk=1,"19.1223711,78.9980289"
Masjid E Aqsa,Mosque,"V6M3+CQ7 Masjid E Aqsa, Godavari Rd, Luxettipet, Utukur, Telangana 504215",,"V6M3+CQ7, Godavari Rd","Luxettipet, Utukur",504215,Telangana,IN,https://www.google.com/maps/place/Masjid+E+Aqsa/data=!4m7!3m6!1s0x3bcd4806170503ff:0x41898622cf17800e!8m2!3d18.8835328!4d79.204429!16s%2Fg%2F11dx9f8k5s!19sChIJ_wMFFwZIzTsRDoAXzyKGiUE?authuser=0&hl=en&rclk=1,"18.883532799999998,79.20442899999999"
Masjid e Bilala,Mosque,"Masjid e Bilala, Adilabad-Asifabad Rd, Jainoor, Telangana 504313",,Adilabad-Asifabad Rd,Jainoor,504313,Telangana,IN,https://www.google.com/maps/place/Masjid+e+Bilala/data=!4m7!3m6!1s0x3bd29bb7204a9e0f:0x706dab2553f72b79!8m2!3d19.3750134!4d78.9120455!16s%2Fg%2F11f6qq3rwz!19sChIJD55KILeb0jsReSv3UyWrbXA?authuser=0&hl=en&rclk=1,"19.3750134,78.91204549999999"
Mosque,Mosque,"X52G+R6F Mosque, Mutyampet, Telangana 504206",,X52G+R6F,Mutyampet,504206,Telangana,IN,https://www.google.com/maps/place/Mosque/data=!4m7!3m6!1s0x3bcd466d6eedd661:0x2921ef9d1613e136!8m2!3d18.9520508!4d79.1755405!16s%2Fg%2F11ddxvk81c!19sChIJYdbtbm1GzTsRNuETFp3vISk?authuser=0&hl=en&rclk=1,"18.9520508,79.1755405"
Masjid,Mosque,"Masjid, Masjid Area, Allipur, Telangana 505460",Masjid Area,,Allipur,505460,Telangana,IN,https://www.google.com/maps/place/Masjid/data=!4m7!3m6!1s0x3bcd6d2e36a3f90b:0x2b14f3eb5563439d!8m2!3d18.861378!4d78.8733175!16s%2Fg%2F1pp2tx0rj!19sChIJC_mjNi5tzTsRnUNjVevzFCs?authuser=0&hl=en&rclk=1,"18.861378,78.8733175"
EidGah Donthapur,Mosque,"22HH+393 EidGah Donthapur, Telangana 505454",,22HH+393,,505454,Telangana,IN,https://www.google.com/maps/place/EidGah+Donthapur/data=!4m7!3m6!1s0x3bcd42a2d1c7d42b:0xca626dc30ee13ca9!8m2!3d19.027628!4d79.0284177!16s%2Fg%2F11g9vmb82t!19sChIJK9TH0aJCzTsRqTzhDsNtYso?authuser=0&hl=en&rclk=1,"19.027628,79.02841769999999"
Jama Masjid,Mosque,"Jama Masjid, Bus Station, Old, Utnur, Telangana 504311",Sevadas Nagar,"Bus Station, Old",Utnur,504311,Telangana,IN,https://www.google.com/maps/place/Jama+Masjid/data=!4m7!3m6!1s0x3bd285b42543f7db:0xfbc9083caa3eda41!8m2!3d19.3679744!4d78.7738921!16s%2Fg%2F11c2p12cr7!19sChIJ2_dDJbSF0jsRQdo-qjwIyfs?authuser=0&hl=en&rclk=1,"19.367974399999998,78.7738921"
Masjid-E-Mohammadiya,Mosque,"Masjid-E-Mohammadiya, 1, Nirmal - Mancherial Rd, Jannaram, Telangana 504205",,"1, Nirmal - Mancherial Rd",Jannaram,504205,Telangana,IN,https://www.google.com/maps/place/Masjid-E-Mohammadiya/data=!4m7!3m6!1s0x3bcd673fccaa4f81:0xf85ddfa7fa77cdbb!8m2!3d19.1192404!4d78.9938765!16s%2Fg%2F11byvwzk4r!19sChIJgU-qzD9nzTsRu813-qffXfg?authuser=0&hl=en&rclk=1,"19.1192404,78.9938765"
jama masjid,Mosque,"3P2J+4RC jama masjid, Yelagadapa, Telangana 504202",,3P2J+4RC,Yelagadapa,504202,Telangana,IN,https://www.google.com/maps/place/jama+masjid/data=!4m7!3m6!1s0x3bcd79ec3d5fa82f:0x5849790fa812b908!8m2!3d19.0503033!4d78.7320086!16s%2Fg%2F11g6_c9vpr!19sChIJL6hfPex5zTsRCLkSqA95SVg?authuser=0&hl=en&rclk=1,"19.0503033,78.7320086"
Masjid-E-Noor,Mosque,"9Q8G+JJX Masjid-E-Noor, Mominpura, Sevadas Nagar, Utnur, Telangana 504311","Mominpura, Sevadas Nagar",9Q8G+JJX,Utnur,,Telangana,IN,https://www.google.com/maps/place/Masjid-E-Noor/data=!4m7!3m6!1s0x3bd285b3f2afb185:0x2ec78038b9f918ae!8m2!3d19.3675545!4d78.7769558!16s%2Fg%2F1pp2tk8bd!19sChIJhbGv8rOF0jsRrhj5uTiAxy4?authuser=0&hl=en&rclk=1,"19.3675545,78.7769558"
Umar Masjid,Mosque,"MG2H+9J7 Umar Masjid, Pittalwada, Khoja Colony, Adilabad, Telangana 504001","Pittalwada, Khoja Colony",MG2H+9J7,Adilabad,504001,Telangana,IN,https://www.google.com/maps/place/Umar+Masjid/data=!4m7!3m6!1s0x3bd25c5d9e45a7ff:0xd9937a4c4bfe8c53!8m2!3d19.6509166!4d78.5290486!16s%2Fg%2F11fx95lqmp!19sChIJ_6dFnl1c0jsRU4z-S0x6k9k?authuser=0&hl=en&rclk=1,"19.6509166,78.5290486"
MADINA MASJID,Mosque,"WR54+PPR MADINA MASJID, Koratla - Raikal Rd, Raikal, Telangana 505460",,"WR54+PPR, Koratla - Raikal Rd",Raikal,505460,Telangana,IN,https://www.google.com/maps/place/MADINA+MASJID/data=!4m7!3m6!1s0x3bcd724519552b49:0x197d4f7574cfd45a!8m2!3d18.9093503!4d78.8067678!16s%2Fg%2F11b6sn2_xq!19sChIJSStVGUVyzTsRWtTPdHVPfRk?authuser=0&hl=en&rclk=1,"18.9093503,78.8067678"
MASJID - E - WASIL,Mosque,"9Q7C+W9C MASJID - E - WASIL, Utnur, Telangana 504311",,9Q7C+W9C,Utnur,504311,Telangana,IN,https://www.google.com/maps/place/MASJID+-+E+-+WASIL/data=!4m7!3m6!1s0x3bd285b568212b3b:0xd48a9da29da1160e!8m2!3d19.3648093!4d78.7708923!16s%2Fg%2F11g6q_z_ty!19sChIJOyshaLWF0jsRDhahnaKditQ?authuser=0&hl=en&rclk=1,"19.364809299999997,78.7708923"
Katkapur Mosque (kttkaapuur msiidu),Mosque,"XVVG+5RF Katkapur Mosque (kttkaapuur msiidu), near pond ( ceruvu dggr, Katkapur, Telangana 505460",,"XVVG+5RF, near pond ( ceruvu dggr",Katkapur,505460,Telangana,IN,https://www.google.com/maps/place/Katkapur+Mosque+%28%E0%B0%95%E0%B0%9F%E0%B1%8D%E0%B0%95%E0%B0%BE%E0%B0%AA%E0%B1%82%E0%B0%B0%E0%B1%8D+%E0%B0%AE%E0%B0%B8%E0%B1%80%E0%B0%A6%E0%B1%81%29/data=!4m7!3m6!1s0x3bcd6fb4c94e53ab:0xa93ccc3c7b6ec293!8m2!3d18.9894705!4d78.8750372!16s%2Fg%2F11fhr7tfd0!19sChIJq1NOybRvzTsRk8JuezzMPKk?authuser=0&hl=en&rclk=1,"18.9894705,78.8750372"
Veerapur Mosque ( Masjid ),Mosque,"Veerapur Mosque ( Masjid ), Veerapur, Telangana 505460",,,Veerapur,,Telangana,IN,https://www.google.com/maps/place/Veerapur+Mosque+%28+Masjid+%29/data=!4m7!3m6!1s0x3bcd6d9200071201:0x301f751968b31cdf!8m2!3d18.9160391!4d78.8495851!16s%2Fg%2F1pp2twn2b!19sChIJARIHAJJtzTsR3xyzaBl1HzA?authuser=0&hl=en&rclk=1,"18.9160391,78.8495851"
Masjid,Mosque,"WP3W+C42 Masjid, Sataram, Telangana 505331",,WP3W+C42,Sataram,505331,Telangana,IN,https://www.google.com/maps/place/Masjid/data=!4m7!3m6!1s0x3bcd750bef8fa8f5:0xd921bbcf20a822e2!8m2!3d18.9035073!4d78.7452518!16s%2Fg%2F11fn8q0x5f!19sChIJ9aiP7wt1zTsR4iKoIM-7Idk?authuser=0&hl=en&rclk=1,"18.903507299999998,78.74525179999999"
Masjid Mohammadia,Mosque,"9QCG+VR7 Masjid Mohammadia, Utnoor Rd, Utnur, Telangana 504311",,"9QCG+VR7, Utnoor Rd",Utnur,504311,Telangana,IN,https://www.google.com/maps/place/Masjid+Mohammadia/data=!4m7!3m6!1s0x3bd285b0dc0d26a7:0xf6fa3333ae2948b7!8m2!3d19.3721507!4d78.7770528!16s%2Fg%2F11c2p105cs!19sChIJpyYN3LCF0jsRt0gprjMz-vY?authuser=0&hl=en&rclk=1,"19.3721507,78.77705279999999"
Masjid E Ayesha,Mosque,"V6H2+8JM Masjid E Ayesha, Luxettipet, Telangana 504215",,V6H2+8JM,Luxettipet,504215,Telangana,IN,https://www.google.com/maps/place/Masjid+E+Ayesha/data=!4m7!3m6!1s0x3bcd49d98161d923:0x59d66f4dcf609572!8m2!3d18.8783282!4d79.2015539!16s%2Fg%2F11q24cd0db!19sChIJI9lhgdlJzTsRcpVgz01v1lk?authuser=0&hl=en&rclk=1,"18.8783282,79.2015539"
MASJID E MOHAMMADIA Lachakkapet,Mosque,"VW86+GPF MASJID E MOHAMMADIA Lachakkapet, Lachakkapet, Telangana 505529",,VW86+GPF,Lachakkapet,505529,Telangana,IN,https://www.google.com/maps/place/MASJID+E+MOHAMMADIA+Lachakkapet/data=!4m7!3m6!1s0x3bcd6d3f383d71ab:0x4c34ef7d93c9c2db!8m2!3d18.866323!4d78.9118033!16s%2Fg%2F11stj50ww5!19sChIJq3E9OD9tzTsR28LJk33vNEw?authuser=0&hl=en&rclk=1,"18.866322999999998,78.9118033"
MASJID-E-AQSA,Mosque,"9QCM+6FG MASJID-E-AQSA, Utnur, Telangana 504311",,9QCM+6FG,Utnur,504311,Telangana,IN,https://www.google.com/maps/place/MASJID-E-AQSA/data=!4m7!3m6!1s0x3bd285ae68120e2d:0x511a2112271c67ab!8m2!3d19.3705709!4d78.7836997!16s%2Fg%2F11d_8_t86t!19sChIJLQ4SaK6F0jsRq2ccJxIhGlE?authuser=0&hl=en&rclk=1,"19.3705709,78.7836997"
Masjid-e-Abdullah,Mosque,"3XR2+J23 Masjid-e-Abdullah, Jannaram - Kalamadugu Rd, Kalmadagu, Telangana 504205",,"3XR2+J23, Jannaram - Kalamadugu Rd",Kalmadagu,504205,Telangana,IN,https://www.google.com/maps/place/Masjid-e-Abdullah/data=!4m7!3m6!1s0x3bcd6660227f8177:0xe67839b827ba0ea4!8m2!3d19.0915155!4d78.9500358!16s%2Fg%2F11hbc1vfry!19sChIJd4F_ImBmzTsRpA66J7g5eOY?authuser=0&hl=en&rclk=1,"19.0915155,78.9500358"
Masjid-e-Nabawi,Mosque,"3M39+9HV Masjid-e-Nabawi, Dilawarpur Rd, Dilawarpur, Dilwarpur, Telangana 504203",,"3M39+9HV, Dilawarpur Rd","Dilawarpur, Dilwarpur",504203,Telangana,IN,https://www.google.com/maps/place/Masjid-e-Nabawi/data=!4m7!3m6!1s0x3bcd79c0659a9051:0xf6f7fe363db8997d!8m2!3d19.0534835!4d78.6689104!16s%2Fg%2F11jhygrlt6!19sChIJUZCaZcB5zTsRfZm4PTb-9_Y?authuser=0&hl=en&rclk=1,"19.0534835,78.6689104"
mosque,Mosque,"WQP8+PM6 mosque, Regunta, Telangana 505331",,WQP8+PM6,Regunta,,Telangana,IN,https://www.google.com/maps/place/mosque/data=!4m7!3m6!1s0x3bcd73e110000001:0xd250bf53bfc9418c!8m2!3d18.9367927!4d78.7666317!16s%2Fg%2F11gfm8l9dz!19sChIJAQAAEOFzzTsRjEHJv1O_UNI?authuser=0&hl=en&rclk=1,"18.936792699999998,78.76663169999999"
Masjid E Imam E Azam,Mosque,"2X2W+9H6 Masjid E Imam E Azam, Narsimlapalli, Telangana 505454",,2X2W+9H6,Narsimlapalli,505454,Telangana,IN,https://www.google.com/maps/place/Masjid+E+Imam+E+Azam/data=!4m7!3m6!1s0x3bcd6995d28d15b7:0xa8b1ff9dca1baa19!8m2!3d19.0009086!4d78.9963954!16s%2Fg%2F11j8hxt2lz!19sChIJtxWN0pVpzTsRGaobyp3_sag?authuser=0&hl=en&rclk=1,"19.0009086,78.9963954"
Choti Masjid,Mosque,"Choti Masjid, 1, Nirmal - Mancherial Rd, Jannaram, Telangana 504205",,"1, Nirmal - Mancherial Rd",Jannaram,504205,Telangana,IN,https://www.google.com/maps/place/Choti+Masjid/data=!4m7!3m6!1s0x3bcd673e34ac2f77:0xc32f71faf30d7a5f!8m2!3d19.1184965!4d78.9931769!16s%2Fg%2F11bw5mbvt0!19sChIJdy-sND5nzTsRX3oN8_pxL8M?authuser=0&hl=en&rclk=1,"19.1184965,78.9931769"
Mosque,Mosque,"Mosque, Kadam Project, Kannapur, Telangana 504202",,,"Kadam Project, Kannapur",,Telangana,IN,https://www.google.com/maps/place/Mosque/data=!4m7!3m6!1s0x3bcd7bbcda484eed:0xe286da12f76e31fe!8m2!3d19.1018044!4d78.7807716!16s%2Fg%2F1hm2txbq6!19sChIJ7U5I2rx7zTsR_jFu9xLahuI?authuser=0&hl=en&rclk=1,"19.1018044,78.7807716"
Masjid e umar,Mosque,"9W95+WC9 Masjid e umar, Jainoor, Telangana 504313",,9W95+WC9,Jainoor,504313,Telangana,IN,https://www.google.com/maps/place/Masjid+e+umar/data=!4m7!3m6!1s0x3bd29b093593e477:0xe65cd53a2848ead0!8m2!3d19.3700184!4d78.9089038!16s%2Fg%2F11t27x9_rj!19sChIJd-STNQmb0jsR0OpIKDrVXOY?authuser=0&hl=en&rclk=1,"19.3700184,78.90890379999999"
mohammadiya masjid,Mosque,"2PXJ+CQ7 mohammadiya masjid, Yelagadapa, Telangana 504202",,2PXJ+CQ7,Yelagadapa,504202,Telangana,IN,https://www.google.com/maps/place/mohammadiya+masjid/data=!4m7!3m6!1s0x3bcd79eebda4377b:0xada75b3c1058bd41!8m2!3d19.0485421!4d78.7319151!16s%2Fg%2F11dxrwxb2j!19sChIJezekve55zTsRQb1YEDxbp60?authuser=0&hl=en&rclk=1,"19.0485421,78.7319151"
"Mosque , arepalle",Mosque,"327F+R6Q Mosque , arepalle, Arepally Rd, Donthapur, Arpapalle, Telangana 505425",,"327F+R6Q, Arepally Rd","Donthapur, Arpapalle",505425,Telangana,IN,"https://www.google.com/maps/place/Mosque+,+arepalle/data=!4m7!3m6!1s0x3bcd5d8dd8a2592b:0x800db10c518ef6fa!8m2!3d19.0645903!4d79.0231206!16s%2Fg%2F11qg18z79k!19sChIJK1mi2I1dzTsR-vaOUQyxDYA?authuser=0&hl=en&rclk=1","19.0645903,79.0231206"
MASJID E MAGHFIRATH,Mosque,"2P84+648 MASJID E MAGHFIRATH, Ramrajupalli, Telangana 505331",,2P84+648,Ramrajupalli,,Telangana,IN,https://www.google.com/maps/place/MASJID+E+MAGHFIRATH/data=!4m7!3m6!1s0x3bcd7756ae1fb565:0xb332c29d5e6576f1!8m2!3d19.0155403!4d78.7053323!16s%2Fg%2F11ht6qybct!19sChIJZbUfrlZ3zTsR8XZlXp3CMrM?authuser=0&hl=en&rclk=1,"19.015540299999998,78.7053323"
Masjid E Ali,Place of worship,"VMP6+R4H Masjid E Ali, Muthyampet, Telangana 505331",,VMP6+R4H,Muthyampet,505331,Telangana,IN,https://www.google.com/maps/place/Masjid+E+Ali/data=!4m7!3m6!1s0x3bcd75dd01ef683f:0x9d237937fa2dd973!8m2!3d18.8870577!4d78.6603586!16s%2Fg%2F11sx75jyn1!19sChIJP2jvAd11zTsRc9kt-jd5I50?authuser=0&hl=en&rclk=1,"18.8870577,78.6603586"
Masjid E Fatima Yousuf,Mosque,"3WG8+XMP Masjid E Fatima Yousuf, Revojipet New, Revojipet (Old), Telangana 504202",,3WG8+XMP,"Revojipet New, Revojipet (Old)",504202,Telangana,IN,https://www.google.com/maps/place/Masjid+E+Fatima+Yousuf/data=!4m7!3m6!1s0x3bcd6551fa8de007:0x1f6da9a6fdded8d8!8m2!3d19.0776595!4d78.9174451!16s%2Fg%2F11rmz_sv6c!19sChIJB-CN-lFlzTsR2Nje_aapbR8?authuser=0&hl=en&rclk=1,"19.0776595,78.9174451"
Masjid,Mosque,"CQ24+936 Masjid, X-Road, Nagapur, Telangana 504311",X-Road,CQ24+936,Nagapur,504311,Telangana,IN,https://www.google.com/maps/place/Masjid/data=!4m7!3m6!1s0x3bd28542302b9163:0x87197ab60c077a2c!8m2!3d19.4009106!4d78.7551464!16s%2Fg%2F11qnl8lv7j!19sChIJY5ErMEKF0jsRLHoHDLZ6GYc?authuser=0&hl=en&rclk=1,"19.4009106,78.7551464"
DARGAH HAZRATH SYED SADIQ PUNJABI R.A.,Mosque,"9QFH+82V DARGAH HAZRATH SYED SADIQ PUNJABI R.A., Utnoor Rd, Utnur, Telangana 504311",,"9QFH+82V, Utnoor Rd",Utnur,,Telangana,IN,https://www.google.com/maps/place/DARGAH+HAZRATH+SYED+SADIQ+PUNJABI+R.A./data=!4m7!3m6!1s0x3bd285e8982a5b59:0xa6f27cae7e3b2eb8!8m2!3d19.37336!4d78.7775539!16s%2Fg%2F11q3lkmfrb!19sChIJWVsqmOiF0jsRuC47fq588qY?authuser=0&hl=en&rclk=1,"19.373359999999998,78.7775539"
Masjid-e-umarfarooq,Mosque,"9QCH+PGP Masjid-e-umarfarooq, Rahmathpura, Utnur, Telangana 504311",Rahmathpura,9QCH+PGP,Utnur,,Telangana,IN,https://www.google.com/maps/place/Masjid-e-umarfarooq/data=!4m7!3m6!1s0x3bd2857a91093a6b:0x26c68fcbfbdadda6!8m2!3d19.3718367!4d78.7788405!16s%2Fg%2F11g1bbd1gd!19sChIJazoJkXqF0jsRpt3a-8uPxiY?authuser=0&hl=en&rclk=1,"19.3718367,78.7788405"
masjid,Mosque,"masjid, Maddipadaga, Telangana 504202",,,Maddipadaga,504202,Telangana,IN,https://www.google.com/maps/place/masjid/data=!4m7!3m6!1s0x3bcd7a21c7cc2cbb:0xe9e11285f8ad7748!8m2!3d19.0577667!4d78.7512222!16s%2Fg%2F11fxxk97n4!19sChIJuyzMxyF6zTsRSHet-IUS4ek?authuser=0&hl=en&rclk=1,"19.0577667,78.7512222"
AL SAYYEDA AMENA MOUSQUE,Mosque,"2M4C+M5F AL SAYYEDA AMENA MOUSQUE, Obulapur, Telangana 505331",,2M4C+M5F,Obulapur,505331,Telangana,IN,https://www.google.com/maps/place/AL+SAYYEDA+AMENA+MOUSQUE/data=!4m7!3m6!1s0x3bcd77b049a964b7:0xa52f8598b0b6b09e!8m2!3d19.0066967!4d78.6704081!16s%2Fg%2F11qpy96v5q!19sChIJt2SpSbB3zTsRnrC2sJiFL6U?authuser=0&hl=en&rclk=1,"19.0066967,78.6704081"
Pangdi masjid,Mosque,"9263+5W Pangdi masjid, Seetagondi, Telangana 504313",,9263+5W,Seetagondi,,Telangana,IN,https://www.google.com/maps/place/Pangdi+masjid/data=!4m7!3m6!1s0x3bd299407103a9bf:0xc33d1edde125fb60!8m2!3d19.3603172!4d79.0060313!16s%2Fg%2F11s57ytdlj!19sChIJv6kDcUCZ0jsRYPsl4d0ePcM?authuser=0&hl=en&rclk=1,"19.3603172,79.00603129999999"
Jama Masjid Kaddam,Mosque,"4Q2J+H79 Jama Masjid Kaddam, Market Road, Kadam Project, Telangana 504202",,"4Q2J+H79, Market Road",Kadam Project,504202,Telangana,IN,https://www.google.com/maps/place/Jama+Masjid+Kaddam/data=!4m7!3m6!1s0x3bcd7b8a08ff16e3:0x7cb5de71052ef6fa!8m2!3d19.1014217!4d78.7807301!16s%2Fg%2F11fb0p26qc!19sChIJ4xb_CIp7zTsR-vYuBXHetXw?authuser=0&hl=en&rclk=1,"19.1014217,78.7807301"
MASJID E QUBA,Religious organization,"3MF9+XHQ MASJID E QUBA, Nirmal - Mancherial Rd, Sathnapalle, Patha Yellapur, Telangana 504203",,"3MF9+XHQ, Nirmal - Mancherial Rd","Sathnapalle, Patha Yellapur",504203,Telangana,IN,https://www.google.com/maps/place/MASJID+E+QUBA/data=!4m7!3m6!1s0x3bcd79d4e1edfa03:0x39f1bc98d2663e23!8m2!3d19.074966!4d78.6689897!16s%2Fg%2F11jmh9d8st!19sChIJA_rt4dR5zTsRIz5m0pi88Tk?authuser=0&hl=en&rclk=1,"19.074966,78.6689897"
Mosque masjid,Mosque,"WQGG+643 Mosque masjid, Itikyala, Telangana 505460",,WQGG+643,Itikyala,505460,Telangana,IN,https://www.google.com/maps/place/Mosque+masjid/data=!4m7!3m6!1s0x3bcd7370aa707a5b:0x885057fe07e7005b!8m2!3d18.9255019!4d78.7752818!16s%2Fg%2F11h01t7s6p!19sChIJW3pwqnBzzTsRWwDnB_5XUIg?authuser=0&hl=en&rclk=1,"18.9255019,78.7752818"
Masjid-E-Noor,Mosque,"Masjid-E-Noor, #101 ,Rechapally, Jagtial, Telangana",,"#101 ,Rechapally","Jagtial, Rechapalli",,Telangana,IN,https://www.google.com/maps/place/Masjid-E-Noor/data=!4m7!3m6!1s0x3bcd6be8cd809ef9:0x28c4237f1d69a774!8m2!3d18.9316153!4d78.9304784!16s%2Fg%2F11j8hhpjmy!19sChIJ-Z6AzehrzTsRdKdpHX8jxCg?authuser=0&hl=en&rclk=1,"18.9316153,78.9304784"
Masjid,Mosque,"WM27+H5P Masjid, Khanapur Rd, Hussen Nagar, Telangana 505331",,"WM27+H5P, Khanapur Rd",Hussen Nagar,505331,Telangana,IN,https://www.google.com/maps/place/Masjid/data=!4m7!3m6!1s0x3bcd75e0b881e6ef:0x5f1e37d02cc852d7!8m2!3d18.9014598!4d78.6629432!16s%2Fg%2F11rsq9m10k!19sChIJ7-aBuOB1zTsR11LILNA3Hl8?authuser=0&hl=en&rclk=1,"18.901459799999998,78.6629432"
Eidgah Lachakkapet,Mosque,"VW65+QJR Eidgah Lachakkapet, Laxmipur, Telangana 505529",,VW65+QJR,Laxmipur,505529,Telangana,IN,https://www.google.com/maps/place/Eidgah+Lachakkapet/data=!4m7!3m6!1s0x3bcd6db11fa7a651:0x69cd98fc5e610e56!8m2!3d18.8619863!4d78.9090067!16s%2Fg%2F11h75zck1r!19sChIJUaanH7FtzTsRVg5hXvyYzWk?authuser=0&hl=en&rclk=1,"18.861986299999998,78.90900669999999"
* ASHURKHANA BARAH IMAM *MOHARRAM,Mosque,"726X+QCJ * ASHURKHANA BARAH IMAM *MOHARRAM, Yellapatar, Telangana 504313",,726X+QCJ,Yellapatar,504313,Telangana,IN,https://www.google.com/maps/place/*+ASHURKHANA+BARAH+IMAM+*MOHARRAM/data=!4m7!3m6!1s0x3bd2a1d7a05cb05b:0x2ad6f2e9cbb8bf9c!8m2!3d19.261955!4d79.0485027!16s%2Fg%2F11pzs9dl31!19sChIJW7BcoNeh0jsRnL-4y-ny1io?authuser=0&hl=en&rclk=1,"19.261955,79.0485027"
MASJID,Mosque,"2PW9+WP9 MASJID, Lingapur, Telangana 504202",,2PW9+WP9,Lingapur,504202,Telangana,IN,https://www.google.com/maps/place/MASJID/data=!4m7!3m6!1s0x3bcd79ab085b9819:0xd6538f30239f99c!8m2!3d19.0472775!4d78.7193685!16s%2Fg%2F11rkf1p6nc!19sChIJGZhbCKt5zTsRnPk5AvM4ZQ0?authuser=0&hl=en&rclk=1,"19.0472775,78.7193685"
Maszid,Mosque,"WRQJ+FV9 Maszid, Bhoopathipur, Telangana 505460",,WRQJ+FV9,Bhoopathipur,505460,Telangana,IN,https://www.google.com/maps/place/Maszid/data=!4m7!3m6!1s0x3bcd739cf323adb7:0xd43dafd32a372a54!8m2!3d18.9386736!4d78.8322355!16s%2Fg%2F11q_c6cq6l!19sChIJt60j85xzzTsRVCo3KtOvPdQ?authuser=0&hl=en&rclk=1,"18.938673599999998,78.8322355"
Madina Masjid,Mosque,"9Q7H+P3C Madina Masjid, Mominpura, Utnur, Telangana 504311",Mominpura,9Q7H+P3C,Utnur,504311,Telangana,IN,https://www.google.com/maps/place/Madina+Masjid/data=!4m7!3m6!1s0x3bd285b33e155555:0x13e010187828103f!8m2!3d19.3643116!4d78.777638!16s%2Fg%2F11txmzdqbx!19sChIJVVUVPrOF0jsRPxAoeBgQ4BM?authuser=0&hl=en&rclk=1,"19.3643116,78.777638"
Jama-masjid,Mosque,"8RG9+858 Jama-masjid, danthanpalli, Utnur, Danthanpalle, Telangana 504311",,"8RG9+858, danthanpalli","Utnur, Danthanpalle",504311,Telangana,IN,https://www.google.com/maps/place/Jama-masjid/data=!4m7!3m6!1s0x3bd2854382fca6b1:0x7f6af6c9c5f66375!8m2!3d19.3257758!4d78.8177888!16s%2Fg%2F11t_m6qb3v!19sChIJsab8gkOF0jsRdWP2xcn2an8?authuser=0&hl=en&rclk=1,"19.3257758,78.8177888"
MAJED MBD,Mosque,"33QC+436 MAJED MBD, Malyal1, Telangana 504205",,33QC+436,Malyal1,504205,Telangana,IN,https://www.google.com/maps/place/MAJED+MBD/data=!4m7!3m6!1s0x3bcd5dc7d8043ab9:0xd0a3a374a7512c1b!8m2!3d19.087524!4d79.070119!16s%2Fg%2F11t4_mj0wl!19sChIJuToE2MddzTsRGyxRp3Sjo9A?authuser=0&hl=en&rclk=1,"19.087524,79.07011899999999"
Jame masjid ailapur,Mosque,"Jame masjid ailapur, Near, Nehru road, Besthawada, Ailapur, Telangana 505330",Besthawada,"Near, Nehru road",Ailapur,,Telangana,IN,https://www.google.com/maps/place/Jame+masjid+ailapur/data=!4m7!3m6!1s0x3bcd75c30dfe83a9:0xf653dc0ed627e550!8m2!3d18.870281!4d78.6985201!16s%2Fg%2F11rv9160kx!19sChIJqYP-DcN1zTsRUOUn1g7cU_Y?authuser=0&hl=en&rclk=1,"18.870281,78.6985201"
Badi masjid,Mosque,"V6M4+6G6 Badi masjid, Luxettipet, Utukur, Telangana 504215",,V6M4+6G6,"Luxettipet, Utukur",504215,Telangana,IN,https://www.google.com/maps/place/Badi+masjid/data=!4m7!3m6!1s0x3bcd4983c8455595:0x967acd0ca59d0e65!8m2!3d18.8830416!4d79.2062597!16s%2Fg%2F11vf2g1rj5!19sChIJlVVFyINJzTsRZQ6dpQzNepY?authuser=0&hl=en&rclk=1,"18.8830416,79.20625969999999"
Jama masjid kawal,Mosque,"5X97+M8M Jama masjid kawal, Kawal, Telangana 504205",,5X97+M8M,Kawal,504205,Telangana,IN,https://www.google.com/maps/place/Jama+masjid+kawal/data=!4m7!3m6!1s0x3bcd61db9faed409:0xc8e57351b72be292!8m2!3d19.1707652!4d78.9627696!16s%2Fg%2F11tgfrbxkx!19sChIJCdSun9thzTsRkuIrt1Fz5cg?authuser=0&hl=en&rclk=1,"19.170765199999998,78.9627696"
Jama-masjid,Mosque,"8RC9+GMX Jama-masjid, Danthanpalle, Telangana 504311",,8RC9+GMX,Danthanpalle,504311,Telangana,IN,https://www.google.com/maps/place/Jama-masjid/data=!4m7!3m6!1s0x3bd285b1acb03325:0xe09602827bfd9960!8m2!3d19.3213959!4d78.8191368!16s%2Fg%2F11t_k688fm!19sChIJJTOwrLGF0jsRYJn9e4ICluA?authuser=0&hl=en&rclk=1,"19.3213959,78.8191368"
Masjid,Mosque,"2M85+P5 Masjid, Badankurthy, Telangana 504203",,2M85+P5,Badankurthy,,Telangana,IN,https://www.google.com/maps/place/Masjid/data=!4m7!3m6!1s0x3bcd773e41058563:0xd5fb5238132b70c8!8m2!3d19.0167991!4d78.6579268!16s%2Fg%2F11q47zr4hf!19sChIJY4UFQT53zTsRyHArEzhS-9U?authuser=0&hl=en&rclk=1,"19.0167991,78.6579268"
Mosque Mahammadabad,Mosque,"33QC+229 Mosque Mahammadabad, jannaram mahammadabad, 504205",,"33QC+229, jannaram mahammadabad",,504205,Telangana,IN,https://www.google.com/maps/place/Mosque+Mahammadabad/data=!4m7!3m6!1s0x3bcd5d75c529e10b:0x76390774d02a9d68!8m2!3d19.0875411!4d79.0700938!16s%2Fg%2F11t6ky02_j!19sChIJC-EpxXVdzTsRaJ0q0HQHOXY?authuser=0&hl=en&rclk=1,"19.0875411,79.0700938"
Abbubakar masjid,Mosque,"9WG5+JJV Abbubakar masjid, Jainoor, Telangana 504313",,9WG5+JJV,Jainoor,504313,Telangana,IN,https://www.google.com/maps/place/Abbubakar+masjid/data=!4m7!3m6!1s0x3bd29bab25333f2b:0x3b3f437925c3c48c!8m2!3d19.3766247!4d78.909049!16s%2Fg%2F11rs2wxm5k!19sChIJKz8zJaub0jsRjMTDJXlDPzs?authuser=0&hl=en&rclk=1,"19.3766247,78.909049"
Late Shakkar baap bhai's House,Mosque,"9Q8G+XPH Late Shakkar baap bhai's House, Utnur, Telangana 504311",,9Q8G+XPH,Utnur,,Telangana,IN,https://www.google.com/maps/place/Late+Shakkar+baap+bhai%27s+House/data=!4m7!3m6!1s0x3bd28599f6383c27:0x19c105667d80cd2a!8m2!3d19.367426!4d78.7768553!16s%2Fg%2F11t7x70mz7!19sChIJJzw49pmF0jsRKs2AfWYFwRk?authuser=0&hl=en&rclk=1,"19.367426,78.7768553"
COLONY MASJID - NDSL,Mosque,"VMPG+7C5 COLONY MASJID - NDSL, NDSL Employees Colony, Muthyampet, Telangana 505331",NDSL Employees Colony,VMPG+7C5,Muthyampet,,Telangana,IN,https://www.google.com/maps/place/COLONY+MASJID+-+NDSL/data=!4m7!3m6!1s0x3bcd7525af5bae3b:0xd938b95f88dcfe4a!8m2!3d18.885636!4d78.6760971!16s%2Fg%2F11lfhc8x23!19sChIJO65bryV1zTsRSv7ciF-5ONk?authuser=0&hl=en&rclk=1,"18.885635999999998,78.67609709999999"
Jama masjid luxettipet,Mosque,"W656+7GJ Jama masjid luxettipet, Luxettipet, Utukur, Telangana 504215",,W656+7GJ,"Luxettipet, Utukur",504215,Telangana,IN,https://www.google.com/maps/place/Jama+masjid+luxettipet/data=!4m7!3m6!1s0x3bcd495e1c762f25:0xa0cfa07634d3bb03!8m2!3d18.9082189!4d79.2112769!16s%2Fg%2F11vf2fh6z5!19sChIJJS92HF5JzTsRA7vTNHagz6A?authuser=0&hl=en&rclk=1,"18.908218899999998,79.2112769"
Jama masjid,Mosque,"9XX2+F85 Jama masjid, Unnamed Road, Daboli, Telangana 504313",,"9XX2+F85, Unnamed Road",Daboli,504313,Telangana,IN,https://www.google.com/maps/place/Jama+masjid/data=!4m7!3m6!1s0x3bd29962bbeafef3:0x74b0832244550441!8m2!3d19.3986432!4d78.9508508!16s%2Fg%2F11h4v7zns2!19sChIJ8_7qu2KZ0jsRQQRVRCKDsHQ?authuser=0&hl=en&rclk=1,"19.3986432,78.9508508"
Jama masjid sirpoor,Mosque,"WMPH+GGF Jama masjid sirpoor, Sirpur, Telangana 505331",,WMPH+GGF,Sirpur,505331,Telangana,IN,https://www.google.com/maps/place/Jama+masjid+sirpoor/data=!4m7!3m6!1s0x3bcd776349ffa569:0xc822dce33540a4c4!8m2!3d18.9363041!4d78.678784!16s%2Fg%2F11kc4_hgmd!19sChIJaaX_SWN3zTsRxKRANePcIsg?authuser=0&hl=en&rclk=1,"18.936304099999997,78.678784"
Masjid-E-Noor,Mosque,"WWPH+HVQ Masjid-E-Noor, Rechapalli, Telangana 505454",,WWPH+HVQ,Rechapalli,505454,Telangana,IN,https://www.google.com/maps/place/Masjid-E-Noor/data=!4m7!3m6!1s0x3bcd6b7331514d5f:0xff45f99cdcb0ecc8!8m2!3d18.9364588!4d78.9297201!16s%2Fg%2F11fvgfnlsd!19sChIJX01RMXNrzTsRyOyw3Jz5Rf8?authuser=0&hl=en&rclk=1,"18.9364588,78.9297201"
BILALA MASJID,Mosque,"9WF5+HJJ BILALA MASJID, Jainoor, Telangana 504313",,9WF5+HJJ,Jainoor,504313,Telangana,IN,https://www.google.com/maps/place/BILALA+MASJID/data=!4m7!3m6!1s0x3bd29b2e07edb8d3:0xa2580038ac3fd778!8m2!3d19.3739522!4d78.9090191!16s%2Fg%2F11f77_fyxp!19sChIJ07jtBy6b0jsReNc_rDgAWKI?authuser=0&hl=en&rclk=1,"19.373952199999998,78.9090191"
HAZRAT ALI BABA KARBALA DEVUNIGUDA,Mosque,"5X2G+64G HAZRAT ALI BABA KARBALA DEVUNIGUDA, Devuniguda, Kamanpalle, Telangana 504205",,5X2G+64G,"Devuniguda, Kamanpalle",504205,Telangana,IN,https://www.google.com/maps/place/HAZRAT+ALI+BABA+KARBALA+DEVUNIGUDA/data=!4m7!3m6!1s0x3bcd61dd37a84fc3:0x4c9c24dbaaf795de!8m2!3d19.1505631!4d78.9753296!16s%2Fg%2F11qt448pc7!19sChIJw0-oN91hzTsR3pX3qtsknEw?authuser=0&hl=en&rclk=1,"19.1505631,78.9753296"
Dharga,Mosque,"VMPR+WPV Dharga, Chittapur, Telangana 505331",,VMPR+WPV,Chittapur,505331,Telangana,IN,https://www.google.com/maps/place/Dharga/data=!4m7!3m6!1s0x3bcd7500b426802d:0xabd81a01fbd44bd7!8m2!3d18.8873569!4d78.6917991!16s%2Fg%2F11ppmcnhn_!19sChIJLYAmtAB1zTsR10vU-wEa2Ks?authuser=0&hl=en&rclk=1,"18.8873569,78.6917991"
masjid,Mosque,"WQP8+PJH masjid, Regunta, Telangana 505331",,WQP8+PJH,Regunta,505331,Telangana,IN,https://www.google.com/maps/place/masjid/data=!4m7!3m6!1s0x3bcd73e10f087a0d:0xb743367ca6f6556b!8m2!3d18.9368128!4d78.7666167!16s%2Fg%2F11hbt4fzsw!19sChIJDXoID-FzzTsRa1X2pnw2Q7c?authuser=0&hl=en&rclk=1,"18.9368128,78.7666167"
Jamma Masjid,Mosque,"7345+QGQ Jamma Masjid, Yellapatar, Telangana 504313",,7345+QGQ,Yellapatar,,Telangana,IN,https://www.google.com/maps/place/Jamma+Masjid/data=!4m7!3m6!1s0x3bd2a1118f7720e5:0xd3a650aa42284af1!8m2!3d19.2569583!4d79.058856!16s%2Fg%2F11thhfc6wm!19sChIJ5SB3jxGh0jsR8UooQqpQptM?authuser=0&hl=en&rclk=1,"19.2569583,79.05885599999999"
Community Hall,Mosque,"2WW5+6JR Community Hall, Godserial, Telangana 504202",,2WW5+6JR,Godserial,,Telangana,IN,https://www.google.com/maps/place/Community+Hall/data=!4m7!3m6!1s0x3bcd6533481136a9:0x70724a69a268e136!8m2!3d19.0456115!4d78.9090214!16s%2Fg%2F11swmqtzks!19sChIJqTYRSDNlzTsRNuFoomlKcnA?authuser=0&hl=en&rclk=1,"19.0456115,78.9090214"
MASJID NAJAM-UN-NISA RAGHAVAPET,Mosque,"WMF6+P8W MASJID NAJAM-UN-NISA RAGHAVAPET, Raghavapeta, Telangana 505331",,WMF6+P8W,Raghavapeta,,Telangana,IN,https://www.google.com/maps/place/MASJID+NAJAM-UN-NISA+RAGHAVAPET/data=!4m7!3m6!1s0x3bcd7521d90e6c43:0x9065cf8f12ebb814!8m2!3d18.9243651!4d78.6608246!16s%2Fg%2F11t9_tn2c2!19sChIJQ2wO2SF1zTsRFLjrEo_PZZA?authuser=0&hl=en&rclk=1,"18.9243651,78.6608246"
Madeena majhid,Mosque,"X3MQ+P34 Madeena majhid, Unnamed Road, Rajaram, Telangana 505425",,"X3MQ+P34, Unnamed Road",Rajaram,505425,Telangana,IN,https://www.google.com/maps/place/Madeena+majhid/data=!4m7!3m6!1s0x3bcd4361bfcc1b0f:0xfe0d7c8a129ec417!8m2!3d18.9842711!4d79.0876911!16s%2Fg%2F11rb3r6v9n!19sChIJDxvMv2FDzTsRF8SeEop8Df4?authuser=0&hl=en&rclk=1,"18.9842711,79.0876911"
Arpapalli Masjid,Mosque,"VXG6+G6J Arpapalli Masjid, Arpapalli, Telangana 505454",,VXG6+G6J,Arpapalli,505454,Telangana,IN,https://www.google.com/maps/place/Arpapalli+Masjid/data=!4m7!3m6!1s0x3bcd6b1e5bd2ca9f:0xf70c13b1b76ce353!8m2!3d18.8763476!4d78.9605286!16s%2Fg%2F11ptzvdrt1!19sChIJn8rSWx5rzTsRU-Nst7ETDPc?authuser=0&hl=en&rclk=1,"18.8763476,78.9605286"
Namaj goda,Mosque,"WR32+PMR Namaj goda, Telangana 505460",,WR32+PMR,,505460,Telangana,IN,https://www.google.com/maps/place/Namaj+goda/data=!4m7!3m6!1s0x3bcd733ce4006ec5:0x62c0d9c9a00ca39!8m2!3d18.905177!4d78.800847!16s%2Fg%2F11rn0c5k05!19sChIJxW4A5DxzzTsROcoAmpwNLAY?authuser=0&hl=en&rclk=1,"18.905177,78.80084699999999"
theegala dhrmaram eidgah,Mosque,"224Q+GM9 theegala dhrmaram eidgah, Theegala Dharmaram, Telangana 505454",,224Q+GM9,Theegala Dharmaram,,Telangana,IN,https://www.google.com/maps/place/theegala+dhrmaram+eidgah/data=!4m7!3m6!1s0x3bcd4368ad4018c5:0x790c17ab17e3aaa6!8m2!3d19.0062932!4d79.0392394!16s%2Fg%2F11j92b1npv!19sChIJxRhArWhDzTsRpqrjF6sXDHk?authuser=0&hl=en&rclk=1,"19.006293199999998,79.0392394"
