name,main_category,address,address_ward,address_street,address_city,address_postal_code,address_state,address_country_code,link,coordinates
Khankah Masjid,Mosque,"5VXC+MF3 Khankah Masjid, Gawaltoli Rd, Kumhar Toli, Chatra, Jharkhand 825401",Kumhar Toli,"5VXC+MF3, Gawaltoli Rd",Chatra,825401,Jharkhand,IN,https://www.google.com/maps/place/Khankah+Masjid/data=!4m7!3m6!1s0x398cac33401db6a7:0x89df81cece29369c!8m2!3d24.1991399!4d84.871174!16s%2Fg%2F11cs40039q!19sChIJp7YdQDOsjDkRnDYpzs6B34k?authuser=0&hl=en&rclk=1,"24.1991399,84.871174"
Masjid-e-Bilal,Mosque,"5VW7+VWX Masjid-e-Bilal, Azad Nagar, Chatra, Jharkhand 825401",Azad Nagar,5VW7+VWX,Chatra,825401,Jharkhand,IN,https://www.google.com/maps/place/Masjid-e-Bilal/data=!4m7!3m6!1s0x398cac2cfbbc780f:0x80e67a68def55355!8m2!3d24.1972447!4d84.864856!16s%2Fg%2F11b7xfkdcf!19sChIJD3i8-yysjDkRVVP13mh65oA?authuser=0&hl=en&rclk=1,"24.1972447,84.864856"
Rahmatiya Masjid,Mosque,"5VX9+J5G Rahmatiya Masjid, Rahmatiya Masjid Rd, Chatra, Jharkhand 825401",,"5VX9+J5G, Rahmatiya Masjid Rd",Chatra,825401,Jharkhand,IN,https://www.google.com/maps/place/Rahmatiya+Masjid/data=!4m7!3m6!1s0x398cac2d55ee1b77:0x7249f648a22c4c56!8m2!3d24.2001205!4d84.8651962!16s%2Fg%2F11bxc61lh9!19sChIJdxvuVS2sjDkRVkwsokj2SXI?authuser=0&hl=en&rclk=1,"24.2001205,84.8651962"
Makka Masjid Shahadat Chowk,Mosque,"6V49+573 Makka Masjid Shahadat Chowk, Bind Mohalla, Shahadat Chowk, Chatra, Jharkhand 825401","Bind Mohalla, Shahadat Chowk",6V49+573,Chatra,825401,Jharkhand,IN,https://www.google.com/maps/place/Makka+Masjid+Shahadat+Chowk/data=!4m7!3m6!1s0x398cadcdeeefa4d1:0x60a87d608077bfe1!8m2!3d24.2053866!4d84.8681617!16s%2Fg%2F11fzf82y0w!19sChIJ0aTv7s2tjDkR4b93gGB9qGA?authuser=0&hl=en&rclk=1,"24.2053866,84.8681617"
"Jama masjid salimpur,gidhaur chatra",Mosque,"52F3+F2F Jama masjid salimpur,gidhaur chatra, Kirkira, Jharkhand 825401",,52F3+F2F,Kirkira,825401,Jharkhand,IN,"https://www.google.com/maps/place/Jama+masjid+salimpur,gidhaur+chatra/data=!4m7!3m6!1s0x39f353933556678f:0xcc357cc0edab965b!8m2!3d24.1736966!4d85.0025367!16s%2Fg%2F11g6qy0kjg!19sChIJj2dWNZNT8zkRW5ar7cB8Ncw?authuser=0&hl=en&rclk=1","24.1736966,85.0025367"
Masjid e Mamoor,Mosque,"6V5C+JQG Masjid e Mamoor, Ansar Nagar, Chatra, Jharkhand 825401",,6V5C+JQG,"Ansar Nagar, Chatra",825401,Jharkhand,IN,https://www.google.com/maps/place/Masjid+e+Mamoor/data=!4m7!3m6!1s0x398cadced1bf50d5:0x969cdd9d95953b31!8m2!3d24.2090681!4d84.8719616!16s%2Fg%2F11g7_d3k7x!19sChIJ1VC_0c6tjDkRMTuVlZ3dnJY?authuser=0&hl=en&rclk=1,"24.2090681,84.87196159999999"
Masjid E Quba,Mosque,"6V38+5G3 Masjid E Quba, Barkat Nagar, Ansar Nagar, Chatra, Jharkhand 825401",Barkat Nagar,6V38+5G3,"Ansar Nagar, Chatra",825401,Jharkhand,IN,https://www.google.com/maps/place/Masjid+E+Quba/data=!4m7!3m6!1s0x398cadd28ebed0cd:0x4ec6549777892bd5!8m2!3d24.2028968!4d84.8663099!16s%2Fg%2F11gdkwyxh4!19sChIJzdC-jtKtjDkR1SuJd5dUxk4?authuser=0&hl=en&rclk=1,"24.202896799999998,84.86630989999999"
Masjid Abdus Sakur Haji,Mosque,"6V27+85J Masjid Abdus Sakur Haji, MMHS Rd, Chatra, Jharkhand 825401",,"6V27+85J, MMHS Rd",Chatra,825401,Jharkhand,IN,https://www.google.com/maps/place/Masjid+Abdus+Sakur+Haji/data=!4m7!3m6!1s0x398cadd348d41b03:0x822e54f475ba5fc3!8m2!3d24.2008341!4d84.8628987!16s%2Fg%2F11cn7f2wk6!19sChIJAxvUSNOtjDkRw1-6dfRULoI?authuser=0&hl=en&rclk=1,"24.200834099999998,84.8628987"
Maneri Masjid,Mosque,"Maneri Masjid, Unnamed Road, Chatra, Jharkhand 825401",,Unnamed Road,Chatra,825401,Jharkhand,IN,https://www.google.com/maps/place/Maneri+Masjid/data=!4m7!3m6!1s0x398cadd0963086c7:0x2d901183776ee9f7!8m2!3d24.2111603!4d84.8633602!16s%2Fg%2F11ggqthd1x!19sChIJx4YwltCtjDkR9-lud4MRkC0?authuser=0&hl=en&rclk=1,"24.2111603,84.8633602"
Masjid-e-Eysha,Mosque,"6V5C+36G Masjid-e-Eysha, Tauhid nagar,, Chatra, Jharkhand 825401",Churihar Mohalla,"6V5C+36G, Tauhid nagar,",Chatra,825401,Jharkhand,IN,https://www.google.com/maps/place/Masjid-e-Eysha/data=!4m7!3m6!1s0x398cadce93a839e1:0x8fa2f4e0cac805cd!8m2!3d24.2076934!4d84.870584!16s%2Fg%2F11c2p9y_91!19sChIJ4Tmok86tjDkRzQXIyuD0oo8?authuser=0&hl=en&rclk=1,"24.2076934,84.870584"
Bind mohalla masjid Masjide ikhlas,Mosque,"6V48+8JX Bind mohalla masjid Masjide ikhlas, Chatra, Jharkhand 825401",,6V48+8JX,Chatra,825401,Jharkhand,IN,https://www.google.com/maps/place/Bind+mohalla+masjid+Masjide+ikhlas/data=!4m7!3m6!1s0x398cadd204a8de6f:0xaa66d4411f297c5f!8m2!3d24.2058699!4d84.8666173!16s%2Fg%2F11ckw28j9r!19sChIJb96oBNKtjDkRX3wpH0HUZqo?authuser=0&hl=en&rclk=1,"24.2058699,84.8666173"
Masjid Ismaeel Madarsa Darul Quran,Mosque,"6V78+FMV Masjid Ismaeel Madarsa Darul Quran, KG School Road, Chatra, Jharkhand 825401",,"6V78+FMV, KG School Road",Chatra,825401,Jharkhand,IN,https://www.google.com/maps/place/Masjid+Ismaeel+Madarsa+Darul+Quran/data=!4m7!3m6!1s0x398caddac8302f61:0x89301ed82183e61c!8m2!3d24.2137321!4d84.8666586!16s%2Fg%2F11hchws0jw!19sChIJYS8wyNqtjDkRHOaDIdgeMIk?authuser=0&hl=en&rclk=1,"24.213732099999998,84.8666586"
Kabristan Masjid,Mosque,"5VW9+RRJ Kabristan Masjid, Chatra, Jharkhand 825401",,5VW9+RRJ,Chatra,825401,Jharkhand,IN,https://www.google.com/maps/place/Kabristan+Masjid/data=!4m7!3m6!1s0x398cac3253e44a97:0xcedec92b4f3ed7d3!8m2!3d24.1970846!4d84.8695086!16s%2Fg%2F11gfjb7lld!19sChIJl0rkUzKsjDkR09c-TyvJ3s4?authuser=0&hl=en&rclk=1,"24.1970846,84.8695086"
Masjid,Mosque,"6X9G+C5G Masjid, Chouparan - Chatra Rd, Gandharia, Jharkhand 825401",,"6X9G+C5G, Chouparan - Chatra Rd",Gandharia,825401,Jharkhand,IN,https://www.google.com/maps/place/Masjid/data=!4m7!3m6!1s0x39f3535c1a57e5ff:0x853fd4eaa7a25257!8m2!3d24.2185515!4d84.9754443!16s%2Fg%2F11fmdntzs7!19sChIJ_-VXGlxT8zkRV1Kip-rUP4U?authuser=0&hl=en&rclk=1,"24.2185515,84.97544429999999"
Madina Masjid,Mosque,"6V38+448 Madina Masjid, Ansar Nagar dargi, Chatra",Barkat Nagar,"6V38+448, Ansar Nagar dargi",Chatra,,Jharkhand,IN,https://www.google.com/maps/place/Madina+Masjid/data=!4m7!3m6!1s0x398cad1543abe055:0x482fe0310e6042ce!8m2!3d24.2027843!4d84.8653135!16s%2Fg%2F11g0hmtq0g!19sChIJVeCrQxWtjDkRzkJgDjHgL0g?authuser=0&hl=en&rclk=1,"24.202784299999998,84.8653135"
Mail Jama Masjid,Mosque,"5RW3+6QG Mail Jama Masjid, Chatra, Pater, Jharkhand 825401",,5RW3+6QG,"Chatra, Pater",,Jharkhand,IN,https://www.google.com/maps/place/Mail+Jama+Masjid/data=!4m7!3m6!1s0x398caf087f3c1967:0xf0d486343ad04e6b!8m2!3d24.1955643!4d84.8044614!16s%2Fg%2F11hczdcy33!19sChIJZxk8fwivjDkRa07QOjSG1PA?authuser=0&hl=en&rclk=1,"24.195564299999997,84.8044614"
MASJID-E-SHOHDA (msjd shhd),Mosque,"5VW6+FQP MASJID-E-SHOHDA (msjd shhd), Chatra, Jharkhand 825401",,5VW6+FQP,Chatra,825401,Jharkhand,IN,https://www.google.com/maps/place/MASJID-E-SHOHDA+%28%D9%85%D8%B3%D8%AC%D8%AF+%D8%B4%DB%81%D8%AF%D8%A7%29%E2%80%AD/data=!4m7!3m6!1s0x398cad405875fec9:0x1a6b916f34d0ea3f!8m2!3d24.1962184!4d84.8619621!16s%2Fg%2F11nfzrm9xj!19sChIJyf51WECtjDkRP-rQNG-Raxo?authuser=0&hl=en&rclk=1,"24.1962184,84.8619621"
MASJID-E-MOHAMMADI (msjdi mHmdy),Mosque,"6V2C+236 MASJID-E-MOHAMMADI (msjdi mHmdy), Liyaqut Ali Rd, Kumhar Toli, Chatra, Jharkhand 825401",Kumhar Toli,"6V2C+236, Liyaqut Ali Rd",Chatra,825401,Jharkhand,IN,https://www.google.com/maps/place/MASJID-E-MOHAMMADI+%28%D9%85%D8%B3%D8%AC%D8%AF%D9%90+%D9%85%D8%AD%D9%85%D8%AF%DB%8C%29%E2%80%AD/data=!4m7!3m6!1s0x398cadd7cecbfbbb:0x2ffb0d6d2b7489d1!8m2!3d24.2000496!4d84.8701389!16s%2Fg%2F11kj4lzkng!19sChIJu_vLztetjDkR0Yl0K20N-y8?authuser=0&hl=en&rclk=1,"24.2000496,84.8701389"
Maulana rahmatullah masjid,Mosque,"5VX9+QCQ Maulana rahmatullah masjid, Chatra, Jharkhand 825401",,5VX9+QCQ,Chatra,825401,Jharkhand,IN,https://www.google.com/maps/place/Maulana+rahmatullah+masjid/data=!4m7!3m6!1s0x398cad018e331d0b:0xbea39913ecacd573!8m2!3d24.1994717!4d84.868621!16s%2Fg%2F11fj9__s8q!19sChIJCx0zjgGtjDkRc9Ws7BOZo74?authuser=0&hl=en&rclk=1,"24.1994717,84.86862099999999"
new masjid,Mosque,"6V4F+J22 new masjid, Chatra, Jharkhand 825401",,6V4F+J22,Chatra,825401,Jharkhand,IN,https://www.google.com/maps/place/new+masjid/data=!4m7!3m6!1s0x398cadcbffffffff:0x4f61dab855bcb70e!8m2!3d24.2065038!4d84.8725015!16s%2Fg%2F11c67wwcgv!19sChIJ_____8utjDkRDre8VbjaYU8?authuser=0&hl=en&rclk=1,"24.2065038,84.8725015"
Masjid-e-Namrah,Mosque,"6V4C+27R Masjid-e-Namrah, Ansar Nagar, Chatra, Jharkhand 825401",,6V4C+27R,"Ansar Nagar, Chatra",825401,Jharkhand,IN,https://www.google.com/maps/place/Masjid-e-Namrah/data=!4m7!3m6!1s0x398cad1879f19c89:0x9c44939c16ad5f4!8m2!3d24.2051013!4d84.8706505!16s%2Fg%2F11r9qtrx6m!19sChIJiZzxeRitjDkR9NVqwTlJxAk?authuser=0&hl=en&rclk=1,"24.2051013,84.8706505"
Rahmaniya masjid,Mosque,"6V37+C33 Rahmaniya masjid, dargi mahallha, Hamid Nagar, Chatra, Jharkhand",Hamid Nagar,"6V37+C33, dargi mahallha",Chatra,,Jharkhand,IN,https://www.google.com/maps/place/Rahmaniya+masjid/data=!4m7!3m6!1s0x398cadf049319cd1:0xf6f96888fd088adb!8m2!3d24.2035008!4d84.8626611!16s%2Fg%2F11fkw70mqs!19sChIJ0ZwxSfCtjDkR24oI_Yho-fY?authuser=0&hl=en&rclk=1,"24.2035008,84.8626611"
"Farida Masjid, frydh msjd",Mosque,"5VW6+VFR Farida Masjid, frydh msjd, Azad Nagar, Farida Colony, Chatra, Jharkhand 825401","Azad Nagar, Farida Colony",5VW6+VFR,Chatra,825401,Jharkhand,IN,"https://www.google.com/maps/place/Farida+Masjid,+%D9%81%D8%B1%DB%8C%D8%AF%DB%81+%D9%85%D8%B3%D8%AC%D8%AF%E2%80%AD/data=!4m7!3m6!1s0x398cad6aca252f2b:0xc82282a4f705cbba!8m2!3d24.1987575!4d84.8601456!16s%2Fg%2F11qh5k8p6q!19sChIJKy8lymqtjDkRussF96SCIsg?authuser=0&hl=en&rclk=1","24.1987575,84.8601456"
Masjid E Sultan,Mosque,"Masjid E Sultan, SULTAN NAGAR, Chatra, Jharkhand 825401",SULTAN NAGAR,,Chatra,825401,Jharkhand,IN,https://www.google.com/maps/place/Masjid+E+Sultan/data=!4m7!3m6!1s0x398cad760f515173:0x80ccf5e087449872!8m2!3d24.2064884!4d84.8718656!16s%2Fg%2F11l1_rskdg!19sChIJc1FRD3atjDkRcphEh-D1zIA?authuser=0&hl=en&rclk=1,"24.206488399999998,84.87186559999999"
Alamgir masjid chatra,Mosque,"6V68+6XX Alamgir masjid chatra, Dhangar toli mohalla, Chatra, 825401",,"6V68+6XX, Dhangar toli mohalla",Chatra,825401,Jharkhand,IN,https://www.google.com/maps/place/Alamgir+masjid+chatra/data=!4m7!3m6!1s0x398cad70f815366b:0x5adc7c2539218ad!8m2!3d24.2106232!4d84.8674788!16s%2Fg%2F11rc7rd4hg!19sChIJazYV-HCtjDkRrRiSU8LHrQU?authuser=0&hl=en&rclk=1,"24.2106232,84.8674788"
Masjid mohammadiya,Mosque,"Masjid mohammadiya, Nagwan, Khan Rd, Chatra, Jharkhand 825401",,"Nagwan, Khan Rd",Chatra,825401,Jharkhand,IN,https://www.google.com/maps/place/Masjid+mohammadiya/data=!4m7!3m6!1s0x398cadd39f859a19:0x59dd1eac2aac5e4e!8m2!3d24.2040829!4d84.8824944!16s%2Fg%2F11r8s3_rp4!19sChIJGZqFn9OtjDkRTl6sKqwe3Vk?authuser=0&hl=en&rclk=1,"24.2040829,84.8824944"
Masjid-e-Aqsa,Mosque,"6V35+9WX Masjid-e-Aqsa, Islam nagar, Chatra, Jharkhand 825401",Islam nagar,6V35+9WX,Chatra,825401,Jharkhand,IN,https://www.google.com/maps/place/Masjid-e-Aqsa/data=!4m7!3m6!1s0x398cadb4e5a0d1fb:0xca7ae7f40fe4da1b!8m2!3d24.2034821!4d84.8598726!16s%2Fg%2F11tx4v1ff0!19sChIJ-9Gg5bStjDkRG9rkD_Tneso?authuser=0&hl=en&rclk=1,"24.2034821,84.8598726"
Jama Masjid jm` msjd,Mosque,"6V3C+CV2 Jama Masjid jm` msjd, Ansar Nagar, Chatra, Jharkhand 825401",,6V3C+CV2,"Ansar Nagar, Chatra",825401,Jharkhand,IN,https://www.google.com/maps/place/Jama+Masjid+%D8%AC%D8%A7%D9%85%D8%B9+%D9%85%D8%B3%D8%AC%D8%AF%E2%80%AD/data=!4m7!3m6!1s0x398cadd44e1c2e6b:0xe2e62852671fe300!8m2!3d24.2035013!4d84.8721295!16s%2Fg%2F11r9v8hzns!19sChIJay4cTtStjDkRAOMfZ1Io5uI?authuser=0&hl=en&rclk=1,"24.2035013,84.8721295"
Masjid noor,Mosque,"6V49+45G Masjid noor, Noor Masjid Rd, Chatra, Jharkhand 825401",,"6V49+45G, Noor Masjid Rd",Chatra,825401,Jharkhand,IN,https://www.google.com/maps/place/Masjid+noor/data=!4m7!3m6!1s0x398cad2abe4a8101:0xe3379f06c5bedc92!8m2!3d24.2044062!4d84.8676832!16s%2Fg%2F11t79jvh8c!19sChIJAYFKviqtjDkRkty-xQafN-M?authuser=0&hl=en&rclk=1,"24.204406199999998,84.8676832"
Auwal muhall shahi masjid,Mosque,"6V57+HXR Auwal muhall shahi masjid, NH 99, Chatra, Jharkhand 825401",,"6V57+HXR, NH 99",Chatra,825401,Jharkhand,IN,https://www.google.com/maps/place/Auwal+muhall+shahi+masjid/data=!4m7!3m6!1s0x398cadd1ab900001:0x9242e86c7de263fe!8m2!3d24.2089875!4d84.8648963!16s%2Fg%2F11txmzm788!19sChIJAQCQq9GtjDkR_mPifWzoQpI?authuser=0&hl=en&rclk=1,"24.2089875,84.8648963"
IQRA MASSJID AARA,Mosque,"6V4F+J22 IQRA MASSJID AARA, Chatra, Jharkhand 825401",,6V4F+J22,Chatra,825401,Jharkhand,IN,https://www.google.com/maps/place/IQRA+MASSJID+AARA/data=!4m7!3m6!1s0x398cad17f5ae8b7b:0x6c4819d60e4b5e47!8m2!3d24.2065038!4d84.8725015!16s%2Fg%2F11h677qd_p!19sChIJe4uu9RetjDkRR15LDtYZSGw?authuser=0&hl=en&rclk=1,"24.2065038,84.8725015"
Bhagewar MASJID bhgywr msjd,Mosque,"6V4C+HPX Bhagewar MASJID bhgywr msjd, Bhagewar, Chatra, Jharkhand 825401",Bhagewar,6V4C+HPX,Chatra,825401,Jharkhand,IN,https://www.google.com/maps/place/Bhagewar+MASJID+%D8%A8%DA%BE%D8%A7%DA%AF%DB%8C%D9%88%D8%A7%D8%B1+%D9%85%D8%B3%D8%AC%D8%AF%E2%80%AD/data=!4m7!3m6!1s0x398cadd248a7a7d9:0xa222ab384a547b56!8m2!3d24.2064884!4d84.8718656!16s%2Fg%2F11vcxlstd7!19sChIJ2aenSNKtjDkRVntUSjirIqI?authuser=0&hl=en&rclk=1,"24.206488399999998,84.87186559999999"
