name,main_category,address,address_ward,address_street,address_city,address_postal_code,address_state,address_country_code,link,coordinates
Jama Masjid,Mosque,"Jama Masjid, Old Delhi, Delhi, 110006","Jama Masjid, Old Delhi",,Delhi,110006,Delhi,IN,https://www.google.com/maps/place/Jama+Masjid/data=!4m7!3m6!1s0x390cfd18df89b215:0xdd57369e29bf9d96!8m2!3d28.6506792!4d77.2334421!16zL20vMDR5emo1!19sChIJFbKJ3xj9DDkRlp2_KZ42V90?authuser=0&hl=en&rclk=1,"28.6506792,77.23344209999999"
"Jama Maszid, Khaurajpur",Mosque,"Jama Maszid, Khaurajpur, Main Road, Khirajpur, Uttar Pradesh 201206",,Main Road,Khirajpur,201206,Uttar Pradesh,IN,"https://www.google.com/maps/place/Jama+Maszid,+Khaurajpur/data=!4m7!3m6!1s0x390cf75815d6805f:0xc08e09c37a3307ae!8m2!3d28.8187013!4d77.4354681!16s%2Fg%2F11gmfx_868!19sChIJX4DWFVj3DDkRrgczesMJjsA?authuser=0&hl=en&rclk=1","28.818701299999997,77.4354681"
Madina Masjid C-Block,Mosque,"Madina Masjid C-Block, J J Colony, Sawda, Delhi, 110081","J J Colony, Sawda",Madina Masjid C-Block,Delhi,110081,Delhi,IN,https://www.google.com/maps/place/Madina+Masjid+C-Block/data=!4m7!3m6!1s0x390d09815306b457:0x40fa98001702a8f0!8m2!3d28.7024031!4d76.9781784!16s%2Fg%2F11smln2pnq!19sChIJV7QGU4EJDTkR8KgCFwCY-kA?authuser=0&hl=en&rclk=1,"28.702403099999998,76.97817839999999"
Masjid Moth,Mosque,"Masjid Moth, 92, Masjid Moth Rd, South Extension II, Masjid Moth Village, New Delhi, Delhi 110049","South Extension II, Masjid Moth Village","92, Masjid Moth Rd",New Delhi,110049,Delhi,IN,https://www.google.com/maps/place/Masjid+Moth/data=!4m7!3m6!1s0x390ce242799950e9:0xb2f0ba5418b140f8!8m2!3d28.562458!4d77.2176906!16s%2Fm%2F05zxh9f!19sChIJ6VCZeULiDDkR-ECxGFS68LI?authuser=0&hl=en&rclk=1,"28.562458,77.2176906"
Kabuli Bagh Masjid,Mosque,"9XWR+G4R Kabuli Bagh Masjid, 9909, Gali Number 2, Ramnagar, Bajaj Nagar, Manmohan Nagar, Panipat, Panipat Taraf Makhdum Zadgan, Haryana 132103","Ramnagar, Bajaj Nagar, Manmohan Nagar","9XWR+G4R, 9909, Gali Number 2","Panipat, Panipat Taraf Makhdum Zadgan",132103,Haryana,IN,https://www.google.com/maps/place/Kabuli+Bagh+Masjid/data=!4m7!3m6!1s0x390dda6989ab3ca9:0x5eb82fc3f2594555!8m2!3d29.3958972!4d76.9890751!16s%2Fg%2F11bwwlsdmr!19sChIJqTyriWnaDTkRVUVZ8sMvuF4?authuser=0&hl=en&rclk=1,"29.3958972,76.9890751"
Mohammadi Masjid,Mosque,"G7XX+C4X Mohammadi Masjid, Shaheen Bagh, Block E, Jamia Nagar, Okhla, New Delhi, Delhi 110025","Shaheen Bagh, Block E, Jamia Nagar, Okhla",G7XX+C4X,New Delhi,110025,Delhi,IN,https://www.google.com/maps/place/Mohammadi+Masjid/data=!4m7!3m6!1s0x390ce41acd709b67:0x8df25e5235479b77!8m2!3d28.5486052!4d77.2978715!16s%2Fg%2F11cp1893xh!19sChIJZ5twzRrkDDkRd5tHNVJe8o0?authuser=0&hl=en&rclk=1,"28.548605199999997,77.2978715"
"Jama Masjid, Khadda Colony jm` msjd",Mosque,"Jama Masjid, Khadda Colony jm` msjd, D-202, near by Jama Masjid Gali, Jaitpur Extension Part II, Khadda Colony, Badarpur, New Delhi, Delhi 110044","Jaitpur Extension Part II, Khadda Colony, Badarpur","D-202, near by Jama Masjid Gali",New Delhi,110044,Delhi,IN,"https://www.google.com/maps/place/Jama+Masjid,+Khadda+Colony+%D8%AC%D8%A7%D9%85%D8%B9+%D9%85%D8%B3%D8%AC%D8%AF%E2%80%AD/data=!4m7!3m6!1s0x390ce65a1cc2d345:0x508d72d241ba7c2f!8m2!3d28.5094725!4d77.3384064!16s%2Fg%2F11b_23cdbd!19sChIJRdPCHFrmDDkRL3y6QdJyjVA?authuser=0&hl=en&rclk=1","28.509472499999998,77.3384064"
Shahi Masjid Khuwaja Pir,Mosque,"Shahi Masjid Khuwaja Pir, A9A, Block A, Friends Colony East, New Friends Colony, New Delhi, Delhi 110065","Block A, Friends Colony East, New Friends Colony",A9A,New Delhi,110065,Delhi,IN,https://www.google.com/maps/place/Shahi+Masjid+Khuwaja+Pir/data=!4m7!3m6!1s0x390ce3a2ce05250b:0xe736d93d4567accc!8m2!3d28.5705505!4d77.2613256!16s%2Fg%2F11b66bs93g!19sChIJCyUFzqLjDDkRzKxnRT3ZNuc?authuser=0&hl=en&rclk=1,"28.5705505,77.26132559999999"
Masjid Shiekh Gamo (Furqania Masjid),Mosque,"M599+P9G Masjid Shiekh Gamo (Furqania Masjid), Old Rohtak Rd, Daya Basti, New Delhi, Delhi, 110052",Daya Basti,"M599+P9G, Old Rohtak Rd","New Delhi, Delhi",110052,Delhi,IN,https://www.google.com/maps/place/Masjid+Shiekh+Gamo+%28Furqania+Masjid%29/data=!4m7!3m6!1s0x390d025e890c942b:0xc9a46bdfd2d5d0c8!8m2!3d28.6693059!4d77.1684408!16s%2Fg%2F1262jslnf!19sChIJK5QMiV4CDTkRyNDV0t9rpMk?authuser=0&hl=en&rclk=1,"28.669305899999998,77.1684408"
Masjid Umar,Mosque,"Masjid Umar, H Block, Abul Fazal Enclave, Jamia Nagar, Okhla, New Delhi, Delhi 110025","Abul Fazal Enclave, Jamia Nagar, Okhla",H Block,New Delhi,110025,Delhi,IN,https://www.google.com/maps/place/Masjid+Umar/data=!4m7!3m6!1s0x390ce40e52efde7f:0x5e0487c814d4c357!8m2!3d28.5535005!4d77.2956955!16s%2Fg%2F11b6snzn79!19sChIJf97vUg7kDDkRV8PUFMiHBF4?authuser=0&hl=en&rclk=1,"28.5535005,77.2956955"
Masjid and Madarsa,Mosque,"H78P+G28 Masjid and Madarsa, Jamia, Batla House, Jamia Nagar, Okhla, New Delhi, Delhi 110025","Jamia, Batla House, Jamia Nagar, Okhla",H78P+G28,New Delhi,110025,Delhi,IN,https://www.google.com/maps/place/Masjid+and+Madarsa/data=!4m7!3m6!1s0x390ce38a18a5d97f:0xdcfc61f3d0f88168!8m2!3d28.5662905!4d77.2850829!16s%2Fg%2F1hg4wfd46!19sChIJf9mlGIrjDDkRaIH40PNh_Nw?authuser=0&hl=en&rclk=1,"28.566290499999997,77.28508289999999"
Masjid Umar ibn Khattab Ahle Hadees,Mosque,"G8X3+2R4 Masjid Umar ibn Khattab Ahle Hadees, Kalindi Kunj Rd, Shaheen Bagh, Jamia Nagar, Okhla, New Delhi, Delhi 110025","Shaheen Bagh, Jamia Nagar, Okhla","G8X3+2R4, Kalindi Kunj Rd",New Delhi,110025,Delhi,IN,https://www.google.com/maps/place/Masjid+Umar+ibn+Khattab+Ahle+Hadees/data=!4m7!3m6!1s0x390ce4196e33e035:0x7187e898e383e521!8m2!3d28.5475049!4d77.3045864!16s%2Fg%2F11ddwvd6j7!19sChIJNeAzbhnkDDkRIeWD45joh3E?authuser=0&hl=en&rclk=1,"28.5475049,77.30458639999999"
Jam'a Masjid Muhammadi (Badi Masjid),Mosque,"Jam'a Masjid Muhammadi (Badi Masjid), Open 24*365, From 'Fajr' Prayer to 'Isha' Prayer), Phase 2, i, Nangloi, Delhi, 110041","Block A, JJ Colony No 2, Nangloi","Open 24*365, From 'Fajr' Prayer to 'Isha' Prayer), Phase 2, i",Delhi,110041,Delhi,IN,https://www.google.com/maps/place/Jam%27a+Masjid+Muhammadi+%28Badi+Masjid%29/data=!4m7!3m6!1s0x390d0431466b1907:0x27ba04939e7e31f6!8m2!3d28.6839018!4d77.0633588!16s%2Fg%2F11bx6v55xw!19sChIJBxlrRjEEDTkR9jF-npMEuic?authuser=0&hl=en&rclk=1,"28.683901799999997,77.0633588"
Jama Masjid (Batla House),Mosque,"H, Jama Masjid (Batla House), 334, 7, Street Number 6, Batla House, Okhla, New Delhi, Delhi 110025","Jamia, Batla House, Jamia Nagar, Okhla","H, 334, 7, Street Number 6",New Delhi,110025,Delhi,IN,https://www.google.com/maps/place/Jama+Masjid+%28Batla+House%29/data=!4m7!3m6!1s0x390ce3207d46fe8f:0xe6bf4d1a3f6d4108!8m2!3d28.5661636!4d77.2851632!16s%2Fg%2F11llyqcllh!19sChIJj_5GfSDjDDkRCEFtPxpNv-Y?authuser=0&hl=en&rclk=1,"28.5661636,77.2851632"
Razaa Jama Maszid,Mosque,"J25G+FCX Razaa Jama Maszid, Block A, Bharat Vihar, Kakrola, Delhi, 110078","Block A, Bharat Vihar, Kakrola",J25G+FCX,Delhi,110078,Delhi,IN,https://www.google.com/maps/place/Razaa+Jama+Maszid/data=!4m7!3m6!1s0x390d054c425f6e01:0x613dccf8819f2c00!8m2!3d28.6087288!4d77.0261155!16s%2Fg%2F11c57m3802!19sChIJAW5fQkwFDTkRACyfgfjMPWE?authuser=0&hl=en&rclk=1,"28.608728799999998,77.0261155"
Masjid Dhobiyan,Mosque,"Masjid Dhobiyan, 3280, Delhi Gate Bazar, Kucha Alam, Old Dariya Ganj, New Delhi, Delhi 110002","Chatta lal Miya, Chandni Mahal, Old Delhi","3280, Delhi Gate Bazar, Kucha Alam, Old Dariya Ganj","New Delhi, Delhi",110002,Delhi,IN,https://www.google.com/maps/place/Masjid+Dhobiyan/data=!4m7!3m6!1s0x390cfd273340d127:0x7d6d2edf4a35f8d9!8m2!3d28.6425263!4d77.2386389!16s%2Fg%2F11cs5s2vzb!19sChIJJ9FAMyf9DDkR2fg1St8ubX0?authuser=0&hl=en&rclk=1,"28.6425263,77.2386389"
Muhammadi Masjid,Mosque,"Muhammadi Masjid, 2/55, Moonga Nagar, New Mustafabad, New Delhi, Delhi, 110094","Moonga Nagar, New Mustafabad",2/55,"New Delhi, Delhi",110094,Delhi,IN,https://www.google.com/maps/place/Muhammadi+Masjid/data=!4m7!3m6!1s0x390cfc175aee92eb:0xaa6d7ae014408908!8m2!3d28.7081354!4d77.2682226!16s%2Fg%2F11c5sz6frk!19sChIJ65LuWhf8DDkRCIlAFOB6bao?authuser=0&hl=en&rclk=1,"28.7081354,77.2682226"
Mustafa Masjid Madan Pur Khadar msjd mSTfy,Mosque,"Mustafa Masjid Madan Pur Khadar msjd mSTfy, B-228, Lane No. 20, Block B, Madanpur Khadar, New Delhi, Delhi 110076","Madanpur Khadar Extension, Block B, Block A, Madanpur Khadar","B-228, Lane No. 20",New Delhi,110076,Delhi,IN,https://www.google.com/maps/place/Mustafa+Masjid+Madan+Pur+Khadar+%D9%85%D8%B3%D8%AC%D8%AF+%D9%85%D8%B5%D8%B7%D9%81%DB%8C%E2%80%AD/data=!4m7!3m6!1s0x390ce6a279f22541:0xd30c8d32d9d3d212!8m2!3d28.5323325!4d77.3091451!16s%2Fg%2F11c5b81713!19sChIJQSXyeaLmDDkREtLT2TKNDNM?authuser=0&hl=en&rclk=1,"28.5323325,77.3091451"
Jama Masjid,Mosque,"Jama Masjid, F-132, Kalindi Kunj Rd, Abul Fazal Enclave Part 1, Part 1 Abul Fazal Enclave, Block C, Jamia Nagar, Okhla, New Delhi, Delhi 110025","Abul Fazal Enclave Part 1, Part 1 Abul Fazal Enclave, Block C, Jamia Nagar, Okhla","F-132, Kalindi Kunj Rd",New Delhi,110025,Delhi,IN,https://www.google.com/maps/place/Jama+Masjid/data=!4m7!3m6!1s0x390ce474fc283e6d:0xbf47a3d3e25a4cad!8m2!3d28.560132!4d77.294788!16s%2Fg%2F12hkzr6p1!19sChIJbT4o_HTkDDkRrUxa4tOjR78?authuser=0&hl=en&rclk=1,"28.560132,77.294788"
Masjid Amaniya Jamalu ka Bagh msjd mnyh jmlw kh bG,Mosque,"Masjid Amaniya Jamalu ka Bagh msjd mnyh jmlw kh bG, Main, Maujpur Rd, Shahdara, Delhi, 110053",Shahdara,"Main, Maujpur Rd",Delhi,110053,Delhi,IN,https://www.google.com/maps/place/Masjid+Amaniya+Jamalu+ka+Bagh+%D9%85%D8%B3%D8%AC%D8%AF+%D8%A7%D9%85%D8%A7%D9%86%DB%8C%DB%81+%D8%AC%D9%85%D8%A7%D9%84%D9%88+%DA%A9%D8%A7+%D8%A8%D8%A7%D8%BA%E2%80%AD/data=!4m7!3m6!1s0x390cfc7abcd4bae7:0xe8588606af183e3c!8m2!3d28.6855897!4d77.2762341!16s%2Fg%2F11bxdtk5g1!19sChIJ57rUvHr8DDkRPD4YrwaGWOg?authuser=0&hl=en&rclk=1,"28.685589699999998,77.2762341"
Fakhrul Masjid msjd,Mosque,"Fakhrul Masjid msjd, 1268, Bara Bazar Rd, Chabi Ganj, Kashmere Gate, New Delhi, Delhi, 110006","Chabi Ganj, Kashmere Gate","1268, Bara Bazar Rd","New Delhi, Delhi",110006,Delhi,IN,https://www.google.com/maps/place/Fakhrul+Masjid+%D9%85%D8%B3%D8%AC%D8%AF%E2%80%AD/data=!4m7!3m6!1s0x390cfd060683b301:0xc9d92074bb420992!8m2!3d28.665012!4d77.2295583!16s%2Fg%2F11cmytc3k3!19sChIJAbODBgb9DDkRkglCu3Qg2ck?authuser=0&hl=en&rclk=1,"28.665011999999997,77.2295583"
Masjid-e-Mustafa msjd  mSTf,Mosque,"Masjid-e-Mustafa msjd  mSTf, B-377, Hind Vihar, Sharda Vats Enclave, Prem Nagar III, Mundka, Delhi, 110081","Hind Vihar, Sharda Vats Enclave, Prem Nagar III, Mundka",B-377,Delhi,110081,Delhi,IN,https://www.google.com/maps/place/Masjid-e-Mustafa+%D9%85%D8%B3%D8%AC%D8%AF+%D8%A1+%D9%85%D8%B5%D8%B7%D9%81%D8%A7%E2%80%AD/data=!4m7!3m6!1s0x390d05d0425cb661:0x21b131c90f771975!8m2!3d28.6891672!4d77.0465112!16s%2Fg%2F11b_2n0bn_!19sChIJYbZcQtAFDTkRdRl3D8kxsSE?authuser=0&hl=en&rclk=1,"28.6891672,77.0465112"
Noori Masjid,Mosque,"Noori Masjid, Chander Vihar, Nilothi, Delhi, 110041","Chander Vihar, Nilothi",,Delhi,110041,Delhi,IN,https://www.google.com/maps/place/Noori+Masjid/data=!4m7!3m6!1s0x390d0456041cf913:0xee0e299e0ae548c9!8m2!3d28.6547668!4d77.0626354!16s%2Fg%2F11df7khvrs!19sChIJE_kcBFYEDTkRyUjlCp4pDu4?authuser=0&hl=en&rclk=1,"28.654766799999997,77.06263539999999"
Masjid Badi msjd,Mosque,"Masjid Badi msjd, 893,, Chittli Qabar Bazar Rd, Jama Masjid, Chandni Chowk, New Delhi, Delhi 110006","Bazar Chitli Qabar, Kucha Chelan, Jama Masjid, Chandni Chowk","893,, Chittli Qabar Bazar Rd","New Delhi, Delhi",110006,Delhi,IN,https://www.google.com/maps/place/Masjid+Badi+%D9%85%D8%B3%D8%AC%D8%AF%E2%80%AD/data=!4m7!3m6!1s0x390cfd219cfec1f3:0x93ccacb281d71709!8m2!3d28.645321!4d77.2357133!16s%2Fg%2F12m98gjn5!19sChIJ88H-nCH9DDkRCRfXgbKszJM?authuser=0&hl=en&rclk=1,"28.645321,77.2357133"
MUHAMMADI MASJID KADDE WALI,Mosque,"M7G9+Q65 MUHAMMADI MASJID KADDE WALI, Block B, Shahdara, Delhi, 110053","Block B, Shahdara",M7G9+Q65,Delhi,110053,Delhi,IN,https://www.google.com/maps/place/MUHAMMADI+MASJID+KADDE+WALI/data=!4m7!3m6!1s0x390cfc619e1734c5:0xc826117da437e58c!8m2!3d28.6768853!4d77.2681053!16s%2Fg%2F11f3pkvmdr!19sChIJxTQXnmH8DDkRjOU3pH0RJsg?authuser=0&hl=en&rclk=1,"28.6768853,77.2681053"
gosiiyaa msjid,Mosque,"gosiiyaa msjid, 02, New Delhi Main Rd, D Block, Madanpur Khadar, New Delhi, Delhi 110076, New Delhi Main Rd, D Block, Madanpur Khadar, New Delhi, Delhi 110076","D Block, Madanpur Khadar","02, New Delhi Main Rd, D Block, Madanpur Khadar, New Delhi, Delhi 110076, New Delhi Main Rd",New Delhi,110076,Delhi,IN,https://www.google.com/maps/place/%E0%A4%97%E0%A5%8B%E0%A4%B8%E0%A5%80%E0%A4%AF%E0%A4%BE+%E0%A4%AE%E0%A4%B8%E0%A5%8D%E0%A4%9C%E0%A4%BF%E0%A4%A6/data=!4m7!3m6!1s0x390ce69a677df04b:0x404fbe46be663e7f!8m2!3d28.5310436!4d77.317571!16s%2Fg%2F11g6rfnfc8!19sChIJS_B9Z5rmDDkRfz5mvka-T0A?authuser=0&hl=en&rclk=1,"28.5310436,77.317571"
Masjid,Mosque,"H769+P87 Masjid, Block A, Friends Colony East, New Friends Colony, New Delhi, Delhi 110025","Block A, Friends Colony East, New Friends Colony",H769+P87,New Delhi,110025,Delhi,IN,https://www.google.com/maps/place/Masjid/data=!4m7!3m6!1s0x390ce3a3874c1a6d:0x3777b5148e43553a!8m2!3d28.5617917!4d77.2683072!16s%2Fg%2F11grc87l61!19sChIJbRpMh6PjDDkROlVDjhS1dzc?authuser=0&hl=en&rclk=1,"28.561791699999997,77.2683072"
Ek Burj Wali Masjid,Mosque,"Ek Burj Wali Masjid, 1285, pahari imli New, Sita Ram Bazar, Chandni Chowk, New Delhi, Delhi 110006","Sita Ram Bazar, Chandni Chowk","1285, pahari imli New","New Delhi, Delhi",110006,Delhi,IN,https://www.google.com/maps/place/Ek+Burj+Wali+Masjid/data=!4m7!3m6!1s0x390cfd22798933e9:0x952ef97cdf0d7140!8m2!3d28.6473909!4d77.2324918!16s%2Fg%2F11ddx07xmx!19sChIJ6TOJeSL9DDkRQHEN33z5LpU?authuser=0&hl=en&rclk=1,"28.647390899999998,77.23249179999999"
shhiidii msjid,Mosque,"shhiidii msjid, New Delhi, 309, Tyagi Park, Mundka, Delhi, 110041","Tyagi Park, Mundka","New Delhi, 309",Delhi,110041,Delhi,IN,https://www.google.com/maps/place/%E0%A4%B6%E0%A4%B9%E0%A5%80%E0%A4%A6%E0%A5%80+%E0%A4%AE%E0%A4%B8%E0%A5%8D%E0%A4%9C%E0%A4%BF%E0%A4%A6/data=!4m7!3m6!1s0x390d05f2c2deb825:0x2d7d2270444c0608!8m2!3d28.679862!4d77.027655!16s%2Fg%2F11ptshdj8h!19sChIJJbjewvIFDTkRCAZMRHAifS0?authuser=0&hl=en&rclk=1,"28.679862,77.027655"
JAMA MASJID UMAR BIN KHATTAB,Mosque,"G8W3+XWV JAMA MASJID UMAR BIN KHATTAB, Kalindi Kunj Rd, Block H, Jamia Nagar, Okhla, New Delhi, Delhi 110025","Block H, Jamia Nagar, Okhla","G8W3+XWV, Kalindi Kunj Rd",New Delhi,110025,Delhi,IN,https://www.google.com/maps/place/JAMA+MASJID+UMAR+BIN+KHATTAB/data=!4m7!3m6!1s0x390ce51eb7ea0bfd:0xe968824c610cc265!8m2!3d28.5474867!4d77.3047909!16s%2Fg%2F11h7p6jtqd!19sChIJ_Qvqtx7lDDkRZcIMYUyCaOk?authuser=0&hl=en&rclk=1,"28.5474867,77.3047909"
Muhammadi Masjid (wahidiya),Mosque,"P28J+CQ9 Muhammadi Masjid (wahidiya), Block E, Meer Vihar, Madanpur Dabas, Delhi, 110081","Block E, Meer Vihar, Madanpur Dabas",P28J+CQ9,Delhi,110081,Delhi,IN,https://www.google.com/maps/place/Muhammadi+Masjid+%28wahidiya%29/data=!4m7!3m6!1s0x390d0614c1d3429f:0x91ff99f5543dc84!8m2!3d28.7160449!4d77.0319753!16s%2Fg%2F11fy9rf9n5!19sChIJn0LTwRQGDTkRhNxDVZ_5Hwk?authuser=0&hl=en&rclk=1,"28.7160449,77.0319753"
Madina Masjid,Mosque,"M3JH+2R7 Madina Masjid, Camp No 4, Jwalapuri, Nangloi, Delhi, 110087","Camp No 4, Jwalapuri, Nangloi",M3JH+2R7,Delhi,110087,Delhi,IN,https://www.google.com/maps/place/Madina+Masjid/data=!4m7!3m6!1s0x390d04155f4848e9:0x53fad66534ad6db5!8m2!3d28.680035!4d77.0795538!16s%2Fg%2F11f3wws0jh!19sChIJ6UhIXxUEDTkRtW2tNGXW-lM?authuser=0&hl=en&rclk=1,"28.680035,77.0795538"
"Masjid, Kodar",Mosque,"R359+2RX Masjid, Kodar, Malpura, Bihar 821312",,R359+2RX,Malpura,821312,Bihar,IN,"https://www.google.com/maps/place/Masjid,+Kodar/data=!4m7!3m6!1s0x398db393527e2545:0x42c4f5172b1763d8!8m2!3d24.8076082!4d84.0696163!16s%2Fg%2F11h057cwym!19sChIJRSV-UpOzjTkR2GMXKxf1xEI?authuser=0&hl=en&rclk=1","24.807608199999997,84.06961629999999"
Masjid Kafayatullah,Mosque,"J6WP+5H4 Masjid Kafayatullah, Kucha Chelan, Chandni Mahal, Old Delhi, New Delhi, Delhi, 110002","Kucha Chelan, Chandni Mahal, Old Delhi",J6WP+5H4,"New Delhi, Delhi",110002,Delhi,IN,https://www.google.com/maps/place/Masjid+Kafayatullah/data=!4m7!3m6!1s0x390cfd21a0e634b3:0x6820ba2c491ea56a!8m2!3d28.645394!4d77.2364626!16s%2Fg%2F11dylzx87t!19sChIJszTmoCH9DDkRaqUeSSy6IGg?authuser=0&hl=en&rclk=1,"28.645394,77.2364626"
Ghaziuddin's Mosque,Mosque,"J6WC+27Q Ghaziuddin's Mosque, Desh Bandhu Gupta Rd, Ajmeri Gate, New Delhi, Delhi, 110006",Ajmeri Gate,"J6WC+27Q, Desh Bandhu Gupta Rd","New Delhi, Delhi",110006,Delhi,IN,https://www.google.com/maps/place/Ghaziuddin%27s+Mosque/data=!4m7!3m6!1s0x390cfd3e4a23a085:0xc3158b353abd92f2!8m2!3d28.6450762!4d77.2207416!16s%2Fg%2F12hmk812x!19sChIJhaAjSj79DDkR8pK9OjWLFcM?authuser=0&hl=en&rclk=1,"28.6450762,77.2207416"
SHAHI JAMA MASJID jm` msjd shhy,Mosque,"SHAHI JAMA MASJID jm` msjd shhy, 22, foot road, Shram Vihar, Pocket N, Madanpur Khadar, New Delhi, Delhi 110025","Shram Vihar, Pocket N, Madanpur Khadar","22, foot road",New Delhi,110025,Delhi,IN,https://www.google.com/maps/place/SHAHI+JAMA+MASJID+%D8%AC%D8%A7%D9%85%D8%B9+%D9%85%D8%B3%D8%AC%D8%AF+%D8%B4%D8%A7%DA%BE%DB%8C%E2%80%AD/data=!4m7!3m6!1s0x390ce5a36ba3a95d:0x7cb7c1435cda3fd2!8m2!3d28.5405938!4d77.3038368!16s%2Fg%2F11n733rllr!19sChIJXamja6PlDDkR0j_aXEPBt3w?authuser=0&hl=en&rclk=1,"28.5405938,77.3038368"
Masjid,Mosque,"Masjid, C-78/6, Ghazipur Dairy Farm, Ghazipur, New Delhi, Delhi, 110091","Ghazipur Dairy Farm, Ghazipur",C-78/6,"New Delhi, Delhi",110091,Delhi,IN,https://www.google.com/maps/place/Masjid/data=!4m7!3m6!1s0x390ce59d2385649b:0xb67be5c3e3ed3d8!8m2!3d28.621932!4d77.3237081!16s%2Fg%2F11r6dvzgp5!19sChIJm2SFI53lDDkR2NM-Ply-Zws?authuser=0&hl=en&rclk=1,"28.621931999999997,77.32370809999999"
khwy'yN wly msjd Kuein Wali Masjid,Mosque,"khwy'yN wly msjd Kuein Wali Masjid, 3017, Ram Bazar Marg, Mori Gate, Delhi, 110006","Ganda Nala Bazar, South Indian Madrasi Colony, Mori Gate","3017, Ram Bazar Marg",Delhi,110006,Delhi,IN,https://www.google.com/maps/place/%DA%A9%D9%88%D8%A6%DB%8C%DA%BA+%D9%88%D8%A7%D9%84%DB%8C+%D9%85%D8%B3%D8%AC%D8%AF+Kuein+Wali+Masjid%E2%80%AD/data=!4m7!3m6!1s0x390cfd0eb6b8bd09:0x18933362fd3b39e4!8m2!3d28.663729!4d77.224411!16s%2Fg%2F12hqtrvvz!19sChIJCb24tg79DDkR5Dk7_WIzkxg?authuser=0&hl=en&rclk=1,"28.663729,77.224411"
Masjid Sanauji,Mosque,"Masjid Sanauji, Shop No. 1630, Lal Kuan, Lalkuan Bazar Rd, Baradari, Chandni Chowk, New Delhi, Delhi 110006","Bazar Sirkiwalan, Baradari, Chandni Chowk","Shop No. 1630, Lal Kuan, Lalkuan Bazar Rd","New Delhi, Delhi",110006,Delhi,IN,https://www.google.com/maps/place/Masjid+Sanauji/data=!4m7!3m6!1s0x390cfd13fe3ea72d:0x27ea23bc5f650202!8m2!3d28.6529317!4d77.2232485!16s%2Fg%2F12hplq4pp!19sChIJLac-_hP9DDkRAgJlX7wj6ic?authuser=0&hl=en&rclk=1,"28.6529317,77.2232485"
Masjid,Mosque,"RFW6+4GQ Masjid, Kumheda, Uttar Pradesh 201206",,RFW6+4GQ,Kumheda,201206,Uttar Pradesh,IN,https://www.google.com/maps/place/Masjid/data=!4m7!3m6!1s0x390c58b0e1125b4d:0xfd9e63316d494a36!8m2!3d28.8453408!4d77.4613748!16s%2Fg%2F11gclz8wp4!19sChIJTVsS4bBYDDkRNkpJbTFjnv0?authuser=0&hl=en&rclk=1,"28.8453408,77.4613748"
khastagul Masjid,Mosque,"M7X5+VPJ khastagul Masjid, Street No. 17, Block C, Goutampuri, Shahdara, Delhi, 110053","Block C, Goutampuri, Shahdara","M7X5+VPJ, Street No. 17",Delhi,110053,Delhi,IN,https://www.google.com/maps/place/khastagul+Masjid/data=!4m7!3m6!1s0x390cfc3ee7e64d6b:0x2eaf347ee8a2fd14!8m2!3d28.6997085!4d77.2592707!16s%2Fg%2F11f2w6w5kj!19sChIJa03m5z78DDkRFP2i6H40ry4?authuser=0&hl=en&rclk=1,"28.6997085,77.2592707"
Qaziyon Ki Masjid msjd qDywN khy,Mosque,"Qaziyon Ki Masjid msjd qDywN khy, 1091/1, Ambawatta Complex, Internal Path, Mehrauli Village, Mehrauli, New Delhi, Delhi 110030","Mehrauli Village, Mehrauli","1091/1, Ambawatta Complex, Internal Path",New Delhi,110030,Delhi,IN,https://www.google.com/maps/place/Qaziyon+Ki+Masjid+%D9%85%D8%B3%D8%AC%D8%AF+%D9%82%D8%A7%D8%B6%DB%8C%D9%88%DA%BA+%DA%A9%DB%8C%E2%80%AD/data=!4m7!3m6!1s0x390d1e08ca8810ed:0x3b88df5382ea5830!8m2!3d28.52261!4d77.181538!16s%2Fg%2F11gfd8b5cs!19sChIJ7RCIyggeDTkRMFjqglPfiDs?authuser=0&hl=en&rclk=1,"28.52261,77.181538"
Madarsa Rashidiya Masjid,Mosque,"J6MR+85P Madarsa Rashidiya Masjid, Bahadur Shah Zafar Marg, Maulana Azad Medical College Campus, Balmiki Basti, Vikram Nagar, New Delhi, Delhi, 110002","Maulana Azad Medical College Campus, Balmiki Basti, Vikram Nagar","J6MR+85P, Bahadur Shah Zafar Marg","New Delhi, Delhi",110002,Delhi,IN,https://www.google.com/maps/place/Madarsa+Rashidiya+Masjid/data=!4m7!3m6!1s0x390cfdeb4ab5bc19:0x53a0d804e40e1e9e!8m2!3d28.6333351!4d77.2404638!16s%2Fg%2F11sq1jxmjs!19sChIJGby1Suv9DDkRnh4O5ATYoFM?authuser=0&hl=en&rclk=1,"28.6333351,77.2404638"
Masjid,Mosque,"H77Q+868 Masjid, Okhla Village, Okhla, New Delhi, Delhi 110025","Okhla Village, Okhla",H77Q+868,New Delhi,110025,Delhi,IN,https://www.google.com/maps/place/Masjid/data=!4m7!3m6!1s0x390ce47512f7aa2b:0x544337a9b9e5d7a2!8m2!3d28.5632814!4d77.2880932!16s%2Fg%2F11gbtpj5td!19sChIJK6r3EnXkDDkRotfluak3Q1Q?authuser=0&hl=en&rclk=1,"28.563281399999997,77.28809319999999"
Ishaq Masjid,Mosque,"Ishaq Masjid, Ishaq Masjid Wali Gali, Block C, Sarai Kale Khan, New Delhi, Delhi 110013","Block C, Sarai Kale Khan",Ishaq Masjid Wali Gali,New Delhi,110013,Delhi,IN,https://www.google.com/maps/place/Ishaq+Masjid/data=!4m7!3m6!1s0x390ce376f8a80f59:0x43d242dbd3376818!8m2!3d28.5849571!4d77.2565889!16s%2Fg%2F11q2tx_6x1!19sChIJWQ-o-HbjDDkRGGg309tC0kM?authuser=0&hl=en&rclk=1,"28.5849571,77.2565889"
Haji Rojdaar Wali Masjid,Mosque,"Haji Rojdaar Wali Masjid, 110074, Kharak, Sat Bari, New Delhi, Delhi 110074","Kharak, Sat Bari",110074,New Delhi,110074,Delhi,IN,https://www.google.com/maps/place/Haji+Rojdaar+Wali+Masjid/data=!4m7!3m6!1s0x390ce024a51f068f:0x1d8c2d91ee022fdd!8m2!3d28.4679055!4d77.2051939!16s%2Fg%2F11c5_hph3y!19sChIJjwYfpSTgDDkR3S8C7pEtjB0?authuser=0&hl=en&rclk=1,"28.467905499999997,77.2051939"
Mr.SAHEEM MALIK,Mosque,"Mr.SAHEEM MALIK, Gali no. 3 - Tirpal Factory Mustafabad, near Ayisha masjid, 25 Futa Rd, near by Aisha Masjid, chowk, Delhi 110094","Shakti Vihar, Old Mustafabad, chowk","Gali no. 3 - Tirpal Factory Mustafabad, near Ayisha masjid, 25 Futa Rd, near by Aisha Masjid",Delhi,110094,Delhi,IN,https://www.google.com/maps/place/Mr.SAHEEM+MALIK/data=!4m7!3m6!1s0x390cfd9a44cd4997:0xffdc8860c53e3f2b!8m2!3d28.7159667!4d77.272238!16s%2Fg%2F11h3cwgc8y!19sChIJl0nNRJr9DDkRKz8-xWCI3P8?authuser=0&hl=en&rclk=1,"28.7159667,77.272238"
Masjid,Mosque,"Q6MJ+5H5 Masjid, Badarpur, Madanpur Khadar, New Delhi, 110084",Madanpur Khadar,"Q6MJ+5H5, Badarpur","New Delhi, Delhi",110084,Delhi,IN,https://www.google.com/maps/place/Masjid/data=!4m7!3m6!1s0x390cffb780460377:0x9fe224e9c653e965!8m2!3d28.7828891!4d77.2314704!16s%2Fg%2F11qn790lvq!19sChIJdwNGgLf_DDkRZelTxukk4p8?authuser=0&hl=en&rclk=1,"28.7828891,77.23147039999999"
Khursheed Masjid,Mosque,"Khursheed Masjid, D 17, Thokar No 8, Block C, Jamia Nagar, Okhla, New Delhi, Delhi 110025","Thokar No 8, Block C, Jamia Nagar, Okhla",D 17,New Delhi,110025,Delhi,IN,https://www.google.com/maps/place/Khursheed+Masjid/data=!4m7!3m6!1s0x390ce526eeb26a01:0x4942915bfad8187!8m2!3d28.5476974!4d77.3006104!16s%2Fg%2F11j97xp9l9!19sChIJAWqy7iblDDkRh4GtvxUplAQ?authuser=0&hl=en&rclk=1,"28.547697399999997,77.3006104"
Noori Masjid,Mosque,"Noori Masjid, S286, Block S, Brahampuri, Shahdara, Delhi, 110053","Block S, Brahampuri, Shahdara",S286,Delhi,110053,Delhi,IN,https://www.google.com/maps/place/Noori+Masjid/data=!4m7!3m6!1s0x390cfd49000e16b7:0x7fdd492a359ff0ad!8m2!3d28.68057!4d77.2665461!16s%2Fg%2F11rc9rdr_1!19sChIJtxYOAEn9DDkRrfCfNSpJ3X8?authuser=0&hl=en&rclk=1,"28.68057,77.2665461"
Masjid Akhundji,Mosque,"M63C+W27 Masjid Akhundji, Shardhanand Market, Farash Khana, Chandni Chowk, Delhi, 110006","Shardhanand Market, Farash Khana, Chandni Chowk",M63C+W27,Delhi,110006,Delhi,IN,https://www.google.com/maps/place/Masjid+Akhundji/data=!4m7!3m6!1s0x390cfd1304000001:0x72fdec335cb3985d!8m2!3d28.6547977!4d77.2200373!16s%2Fg%2F11cjkvmmtk!19sChIJAQAABBP9DDkRXZizXDPs_XI?authuser=0&hl=en&rclk=1,"28.6547977,77.2200373"
phaaruuk'ii msjid,Mosque,"phaaruuk'ii msjid, P1 / 488, Block P, Sultanpuri, New Delhi, Delhi, 110086","Block P, Sultanpuri",P1 / 488,"New Delhi, Delhi",110086,Delhi,IN,https://www.google.com/maps/place/%E0%A4%AB%E0%A4%BE%E0%A4%B0%E0%A5%82%E0%A4%95%E0%A4%BC%E0%A5%80+%E0%A4%AE%E0%A4%B8%E0%A5%8D%E0%A4%9C%E0%A4%BF%E0%A4%A6/data=!4m7!3m6!1s0x390d056907c05221:0x5718087f433958ef!8m2!3d28.7017328!4d77.0848303!16s%2Fg%2F11ryrwj27v!19sChIJIVLAB2kFDTkR71g5Q38IGFc?authuser=0&hl=en&rclk=1,"28.7017328,77.0848303"
Masjid Syed Rafai,Mosque,"J6WM+QH6 Masjid Syed Rafai, Bazar Chitli Qabar, Sheesh Mahal, Old Delhi, Delhi, 110006","Bazar Chitli Qabar, Sheesh Mahal, Old Delhi",J6WM+QH6,Delhi,110006,Delhi,IN,https://www.google.com/maps/place/Masjid+Syed+Rafai/data=!4m7!3m6!1s0x390cfd221053c913:0x87b5fec533d754bb!8m2!3d28.6469176!4d77.2338965!16s%2Fg%2F11g86m2x49!19sChIJE8lTECL9DDkRu1TXM8X-tYc?authuser=0&hl=en&rclk=1,"28.6469176,77.2338965"
HADHRAT UMAR MASJID ALMAROOF CHOTI MASJID,Mosque,"HADHRAT UMAR MASJID ALMAROOF CHOTI MASJID, Chotti Masjid, Street number 9, Mulla Colony, Gharoli Extension, Gharoli, Delhi, 110096","Mulla Colony, Gharoli Extension, Gharoli","Chotti Masjid, Street number 9",Delhi,110096,Delhi,IN,https://www.google.com/maps/place/HADHRAT+UMAR+MASJID+ALMAROOF+CHOTI+MASJID/data=!4m7!3m6!1s0x390ce5c6cf830b2f:0x6bb8084dadf0d513!8m2!3d28.6213398!4d77.3314246!16s%2Fg%2F11sy4vfb7s!19sChIJLwuDz8blDDkRE9XwrU0IuGs?authuser=0&hl=en&rclk=1,"28.621339799999998,77.33142459999999"
Makka masjid basaud,Mosque,"X8MC+633 Makka masjid basaud, Basaud, Uttar Pradesh 250601",,X8MC+633,Basaud,250601,Uttar Pradesh,IN,https://www.google.com/maps/place/Makka+masjid+basaud/data=!4m7!3m6!1s0x390c51ea6f61eccf:0xce9098aa09037578!8m2!3d28.9830193!4d77.3201861!16s%2Fg%2F11j56lyqvq!19sChIJz-xhb-pRDDkReHUDCaqYkM4?authuser=0&hl=en&rclk=1,"28.9830193,77.3201861"
Old Mugal Masjid,Mosque,"J6X9+P3V Old Mugal Masjid, Qutab Rd, Ram Nagar Market, Aram Nagar, Paharganj, New Delhi, Delhi, 110055","Ram Nagar Market, Aram Nagar, Paharganj","J6X9+P3V, Qutab Rd","New Delhi, Delhi",110055,Delhi,IN,https://www.google.com/maps/place/Old+Mugal+Masjid/data=!4m7!3m6!1s0x390cfd152b1b0125:0x49e032c4a3927074!8m2!3d28.6493546!4d77.2176682!16s%2Fg%2F11ggw008kv!19sChIJJQEbKxX9DDkRdHCSo8Qy4Ek?authuser=0&hl=en&rclk=1,"28.6493546,77.21766819999999"
Masjid,Mosque,"P9HF+33Q Masjid, Farukh Nagar, Uttar Pradesh 201003",,P9HF+33Q,Farukh Nagar,201003,Uttar Pradesh,IN,https://www.google.com/maps/place/Masjid/data=!4m7!3m6!1s0x390cfa018875b495:0xeea7b0caec7e470d!8m2!3d28.7277145!4d77.3727433!16s%2Fg%2F11f0krqvls!19sChIJlbR1iAH6DDkRDUd-7Mqwp-4?authuser=0&hl=en&rclk=1,"28.727714499999998,77.3727433"
Masjid Muhammadi Kot msjid muhmmdii kott msjd mHmdy khwtt,Mosque,"Masjid Muhammadi Kot msjid muhmmdii kott msjd mHmdy khwtt, Kot, Haryana 121105",,,Kot,,Haryana,IN,https://www.google.com/maps/place/Masjid+Muhammadi+Kot+%E0%A4%AE%E0%A4%B8%E0%A5%8D%E0%A4%9C%E0%A4%BF%E0%A4%A6+%E0%A4%AE%E0%A5%81%E0%A4%B9%E0%A4%AE%E0%A5%8D%E0%A4%AE%E0%A4%A6%E0%A5%80+%E0%A4%95%E0%A5%8B%E0%A4%9F+%D9%85%D8%B3%D8%AC%D8%AF+%D9%85%D8%AD%D9%85%D8%AF%DB%8C+%DA%A9%D9%88%D9%B9%E2%80%AD/data=!4m7!3m6!1s0x397329b47b2a75e9:0xdaff5e4b4d5bb579!8m2!3d27.9578027!4d77.2295731!16s%2Fg%2F11nnlwvlj6!19sChIJ6XUqe7QpczkRebVbTUte_9o?authuser=0&hl=en&rclk=1,"27.9578027,77.2295731"
Mustafa raja masjid,Mosque,"Mustafa raja masjid, 244, Sanjay Amar Colony, Vishwas Nagar Extension, Vishwas Nagar, Shahdara, New Delhi, Delhi, 110032","Sanjay Amar Colony, Vishwas Nagar Extension, Vishwas Nagar, Shahdara",244,"New Delhi, Delhi",110032,Delhi,IN,https://www.google.com/maps/place/Mustafa+raja+masjid/data=!4m7!3m6!1s0x390cfbb8e589a479:0x90047cda0669b89f!8m2!3d28.658667!4d77.295277!16s%2Fg%2F11rd8_rgf1!19sChIJeaSJ5bj7DDkRn7hpBtp8BJA?authuser=0&hl=en&rclk=1,"28.658666999999998,77.295277"
Jama masjid,Mosque,"Q862+552 Jama masjid, Loni Dehat, Uttar Pradesh 201102",Loni Dehat,Q862+552,,201102,Uttar Pradesh,IN,https://www.google.com/maps/place/Jama+masjid/data=!4m7!3m6!1s0x390cf97f722d9929:0x46f90a830297209d!8m2!3d28.7601301!4d77.3009195!16s%2Fg%2F11rf0r2s79!19sChIJKZktcn_5DDkRnSCXAoMK-UY?authuser=0&hl=en&rclk=1,"28.760130099999998,77.30091949999999"
Masjid,Mosque,"9M74+66G Masjid, Hirnoti, Uttar Pradesh 203203",,9M74+66G,Hirnoti,203203,Uttar Pradesh,IN,https://www.google.com/maps/place/Masjid/data=!4m7!3m6!1s0x390cbbdfa6584727:0x4a1e67c0bd32dfaf!8m2!3d28.36306!4d77.6555641!16s%2Fg%2F11dzwm3m09!19sChIJJ0dYpt-7DDkRr98yvcBnHko?authuser=0&hl=en&rclk=1,"28.363059999999997,77.65556409999999"
Masjid,Mosque,"Masjid, Generator section LNH, Maulana Azad Medical College Campus, LNJP Colony, New Delhi, Delhi, 110002","Maulana Azad Medical College Campus, LNJP Colony",Generator section LNH,"New Delhi, Delhi",110002,Delhi,IN,https://www.google.com/maps/place/Masjid/data=!4m7!3m6!1s0x390cfda80d3a142f:0x7e63ba6e21dc1e97!8m2!3d28.6378466!4d77.2379581!16s%2Fg%2F11ss881009!19sChIJLxQ6Daj9DDkRlx7cIW66Y34?authuser=0&hl=en&rclk=1,"28.6378466,77.2379581"
Jama masjid,Mosque,"7VHQ+63J Jama masjid, Unnamed Road, Munda Khera, Uttar Pradesh 203131",,"7VHQ+63J, Unnamed Road",Munda Khera,203131,Uttar Pradesh,IN,https://www.google.com/maps/place/Jama+masjid/data=!4m7!3m6!1s0x390ca9619d87e15d:0x35083be6ac381b4e!8m2!3d28.278091!4d77.8876512!16s%2Fg%2F11ftybrjzm!19sChIJXeGHnWGpDDkRThs4rOY7CDU?authuser=0&hl=en&rclk=1,"28.278091,77.8876512"
Qureshian Masjid,Mosque,"Q73Q+2H4 Qureshian Masjid, Gali Number 1, Loni Dehat, Uttar Pradesh 201102",Loni Dehat,"Q73Q+2H4, Gali Number 1",,201102,Uttar Pradesh,IN,https://www.google.com/maps/place/Qureshian+Masjid/data=!4m7!3m6!1s0x390cf9d82e5f0c3b:0x539af06219ba6aeb!8m2!3d28.7525076!4d77.2889607!16s%2Fg%2F11rfp3hn45!19sChIJOwxfLtj5DDkR62q6GWLwmlM?authuser=0&hl=en&rclk=1,"28.752507599999998,77.28896069999999"
Madina Maszid,Mosque,"P432+JXG Madina Maszid, Pocket 25, Sector 3G, Rohini, Delhi, 110085","Pocket 25, Sector 3G, Rohini",P432+JXG,Delhi,110085,Delhi,IN,https://www.google.com/maps/place/Madina+Maszid/data=!4m7!3m6!1s0x390d018613fc13e1:0xb7a57d9d5623c997!8m2!3d28.7040585!4d77.1024588!16s%2Fg%2F11f6dnn289!19sChIJ4RP8E4YBDTkRl8kjVp19pbc?authuser=0&hl=en&rclk=1,"28.7040585,77.1024588"
Masjid,Mosque,"RX4J+M39 Masjid, Rajoli, Sulela, Haryana 122104",,RX4J+M39,"Rajoli, Sulela",122104,Haryana,IN,https://www.google.com/maps/place/Masjid/data=!4m7!3m6!1s0x3972c534275ef4ab:0xdc27d3a7ace97738!8m2!3d27.8066544!4d76.9802205!16s%2Fg%2F11j3xmhg73!19sChIJq_ReJzTFcjkROHfprKfTJ9w?authuser=0&hl=en&rclk=1,"27.8066544,76.9802205"
Masjid gosiya,Mosque,"2HP8+QG Masjid gosiya, Kodar, Rajasthan 313325",,2HP8+QG,Kodar,,Rajasthan,IN,https://www.google.com/maps/place/Masjid+gosiya/data=!4m7!3m6!1s0x39681974952b766d:0xc4d941bd7a55aafb!8m2!3d25.0369391!4d73.566338!16s%2Fg%2F11szdrq27x!19sChIJbXYrlXQZaDkR-6pVer1B2cQ?authuser=0&hl=en&rclk=1,"25.036939099999998,73.566338"
Masjid Kaddan Wali,Mosque,"Masjid Kaddan Wali, 3800,, Charkhiwalan Gali, Khush Dil, Chandni Chowk, New Delhi, Delhi 110006","Khush Dil, Chandni Chowk","3800,, Charkhiwalan Gali","New Delhi, Delhi",110006,Delhi,IN,https://www.google.com/maps/place/Masjid+Kaddan+Wali/data=!4m7!3m6!1s0x390cfd19d610452b:0xf81efc1a357adee8!8m2!3d28.6506731!4d77.2290561!16s%2Fg%2F12hkbxr_7!19sChIJK0UQ1hn9DDkR6N56NRr8Hvg?authuser=0&hl=en&rclk=1,"28.6506731,77.2290561"
Masjid,Mosque,"Masjid, Gali No 19, Gali Number 1, Mustafabad Extn, New Mustafabad, Delhi, 110094","E2 Block, Mustafabad Extn, New Mustafabad","Gali No 19, Gali Number 1",Delhi,110094,Delhi,IN,https://www.google.com/maps/place/Masjid/data=!4m7!3m6!1s0x390cfc1b020b0e91:0xb48a3c3233e41cbd!8m2!3d28.711773!4d77.272563!16s%2Fg%2F12hpqnhjr!19sChIJkQ4LAhv8DDkRvRzkMzI8irQ?authuser=0&hl=en&rclk=1,"28.711772999999997,77.27256299999999"
Masjid msjid,Mosque,"Masjid msjid, A 95, Chanchal Park, Laxmi Park, Ranhola Extesion, Delhi, 110041","Chanchal Park, Laxmi Park, Ranhola Extesion",A 95,Delhi,110041,Delhi,IN,https://www.google.com/maps/place/Masjid+%E0%A4%AE%E0%A4%B8%E0%A5%8D%E0%A4%9C%E0%A4%BF%E0%A4%A6/data=!4m7!3m6!1s0x390d0570d033b0bb:0x480768d95ae5b61d!8m2!3d28.6495218!4d77.0230135!16s%2Fg%2F11rf4j7m64!19sChIJu7Az0HAFDTkRHbblWtloB0g?authuser=0&hl=en&rclk=1,"28.6495218,77.02301349999999"
Masjid,Mosque,"Masjid, 20, Masjid Rd, Pervesh Nagar, Mubarakpur Dabas, New Delhi, Delhi, 110081","Pervesh Nagar, Mubarakpur Dabas","20, Masjid Rd","New Delhi, Delhi",110081,Delhi,IN,https://www.google.com/maps/place/Masjid/data=!4m7!3m6!1s0x390d075632dea237:0xe707b406c4cff64!8m2!3d28.7098866!4d77.0310854!16s%2Fg%2F11kq2cq2_1!19sChIJN6LeMlYHDTkRZP9MbEB7cA4?authuser=0&hl=en&rclk=1,"28.709886599999997,77.0310854"
Masjid,Mosque,"Shop No: 5035, Masjid, Netaji Subhash Marg, Daryaganj, New Delhi, Delhi, 110002",Daryaganj,"Shop No: 5035, Netaji Subhash Marg","New Delhi, Delhi",110002,Delhi,IN,https://www.google.com/maps/place/Masjid/data=!4m7!3m6!1s0x390cfdf175041b95:0x8ef57a2bc9f92c1c!8m2!3d28.6480954!4d77.2403964!16s%2Fg%2F11s664lvxh!19sChIJlRsEdfH9DDkRHCz5ySt69Y4?authuser=0&hl=en&rclk=1,"28.6480954,77.2403964"
Masjid,Mosque,"M794+RG5 Masjid, Block A, Shastri Park, Shahdara, Delhi, 110053","Block A, Shastri Park, Shahdara",M794+RG5,Delhi,,Delhi,IN,https://www.google.com/maps/place/Masjid/data=!4m7!3m6!1s0x390cfd74b6378221:0x2da5c9212f831088!8m2!3d28.6695164!4d77.2563643!16s%2Fg%2F11tb42z9g0!19sChIJIYI3tnT9DDkRiBCDLyHJpS0?authuser=0&hl=en&rclk=1,"28.6695164,77.2563643"
Noori Masjid,Mosque,"Noori Masjid, 263C, Block G 1, Talimabad, Sangam Vihar, New Delhi, Delhi 110080","Block G 1, Talimabad, Sangam Vihar",263C,New Delhi,110080,Delhi,IN,https://www.google.com/maps/place/Noori+Masjid/data=!4m7!3m6!1s0x390ce1ce9bad762d:0x8b1bd5983da6f608!8m2!3d28.5055544!4d77.2562686!16s%2Fg%2F11sjght1nw!19sChIJLXatm87hDDkRCPamPZjVG4s?authuser=0&hl=en&rclk=1,"28.505554399999998,77.2562686"
Masjid,Mosque,"Masjid, L385, Block L, JJ Colony No 3, Nangloi, New Delhi, Delhi, 110041","Block L, JJ Colony No 3, Nangloi",L385,"New Delhi, Delhi",110041,Delhi,IN,https://www.google.com/maps/place/Masjid/data=!4m7!3m6!1s0x390d0530462f99ad:0xf47aa8290ce093fa!8m2!3d28.6842352!4d77.0742041!16s%2Fg%2F11smtj7p27!19sChIJrZkvRjAFDTkR-pPgDCmoevQ?authuser=0&hl=en&rclk=1,"28.6842352,77.0742041"
Masjid,Mosque,"J2WM+MXF Masjid, Sunni Masjid Rd, Deep Enclave, Hastsal, Delhi, 110059","Deep Enclave, Hastsal","J2WM+MXF, Sunni Masjid Rd",Delhi,110059,Delhi,IN,https://www.google.com/maps/place/Masjid/data=!4m7!3m6!1s0x390d05267bb46283:0xaef6f06f366d7113!8m2!3d28.6466834!4d77.0349292!16s%2Fg%2F11vl8tpxw1!19sChIJg2K0eyYFDTkRE3FtNm_w9q4?authuser=0&hl=en&rclk=1,"28.646683399999997,77.0349292"
Aarfee masjid,Mosque,"8HHQ+H6G Aarfee masjid, Usmanpur, Uttar Pradesh 203201",,8HHQ+H6G,Usmanpur,203201,Uttar Pradesh,IN,https://www.google.com/maps/place/Aarfee+masjid/data=!4m7!3m6!1s0x390cb9848928e3a3:0x96b3c9baa128a5e7!8m2!3d28.3289325!4d77.5880727!16s%2Fg%2F11fqsckbyl!19sChIJo-MoiYS5DDkR56UoobrJs5Y?authuser=0&hl=en&rclk=1,"28.328932499999997,77.5880727"
Madina masjid,Mosque,"Ward number 3, Madina masjid, Chandni Chowk, sarul, Delhi, 110006",Chandni Chowk,Ward number 3,"sarul, Delhi",110006,Delhi,IN,https://www.google.com/maps/place/Madina+masjid/data=!4m7!3m6!1s0x390cfd765db7001b:0xc7c08a181a8d81db!8m2!3d28.6610779!4d77.2345881!16s%2Fg%2F11ry5dxrrg!19sChIJGwC3XXb9DDkR24GNGhiKwMc?authuser=0&hl=en&rclk=1,"28.6610779,77.2345881"
MAKKA MASJID DHADOLI,Mosque,"W3FQ+4R4 MAKKA MASJID DHADOLI, Dhadoli Kalan, Haryana 122108",,W3FQ+4R4,Dhadoli Kalan,122108,Haryana,IN,https://www.google.com/maps/place/MAKKA+MASJID+DHADOLI/data=!4m7!3m6!1s0x3972d1545c76f223:0x35aa3640f8d85f0e!8m2!3d27.9227722!4d77.0895634!16s%2Fg%2F11n31yd8r2!19sChIJI_J2XFTRcjkRDl_Y-EA2qjU?authuser=0&hl=en&rclk=1,"27.922772199999997,77.0895634"
Masjid,Mosque,"8FRR+934 Masjid, Khanpur, Uttar Pradesh 251318",,8FRR+934,Khanpur,,Uttar Pradesh,IN,https://www.google.com/maps/place/Masjid/data=!4m7!3m6!1s0x390c3d14ec51f025:0x58f150d6c2250a6a!8m2!3d29.3408861!4d77.4902181!16s%2Fg%2F11tx6tgh2v!19sChIJJfBR7BQ9DDkRagolwtZQ8Vg?authuser=0&hl=en&rclk=1,"29.3408861,77.49021809999999"
