name,main_category,address,address_ward,address_street,address_city,address_postal_code,address_state,address_country_code,link,coordinates
Jama Masjid,Mosque,"Jama Masjid, Old Delhi, Delhi, 110006","Jama Masjid, Old Delhi",,Delhi,110006,Delhi,IN,https://www.google.com/maps/place/Jama+Masjid/data=!4m7!3m6!1s0x390cfd18df89b215:0xdd57369e29bf9d96!8m2!3d28.6506792!4d77.2334421!16zL20vMDR5emo1!19sChIJFbKJ3xj9DDkRlp2_KZ42V90?authuser=0&hl=en&rclk=1,"28.6506792,77.23344209999999"
Birpur Masjid,Mosque,"Birpur Masjid, masjid Premi, chapra road, Birpur, Bihar 843109",,"masjid Premi, chapra road",Birpur,843109,Bihar,IN,https://www.google.com/maps/place/Birpur+Masjid/data=!4m7!3m6!1s0x39ed235737951e67:0xd6ac8f8001bd6c6b!8m2!3d26.2316968!4d85.2124172!16s%2Fg%2F11f631kc8j!19sChIJZx6VN1cj7TkRa2y9AYCPrNY?authuser=0&hl=en&rclk=1,"26.231696799999998,85.21241719999999"
Masjid Balkatwa,Mosque,"H2CH+XWC Masjid Balkatwa, Birpur, Bihar 847230",,H2CH+XWC,Birpur,,Bihar,IN,https://www.google.com/maps/place/Masjid+Balkatwa/data=!4m7!3m6!1s0x39ec3bc016118595:0xabca4b8ee8a55b63!8m2!3d26.5724328!4d86.0297541!16s%2Fg%2F11f6ydzfkc!19sChIJlYURFsA77DkRY1ul6I5Lyqs?authuser=0&hl=en&rclk=1,"26.572432799999998,86.02975409999999"
Noori Masjid Naya Sagarpur,Mosque,"JWQ6+8V8 Noori Masjid Naya Sagarpur, Bisauli, Uttar Pradesh 244922",,JWQ6+8V8,Bisauli,244922,Uttar Pradesh,IN,https://www.google.com/maps/place/Noori+Masjid+Naya+Sagarpur/data=!4m7!3m6!1s0x390ae9660fd534ed:0x71b56be36248bb79!8m2!3d28.6382949!4d78.9121925!16s%2Fg%2F11h1_w0n5c!19sChIJ7TTVD2bpCjkRebtIYuNrtXE?authuser=0&hl=en&rclk=1,"28.638294899999998,78.9121925"
Jama Masjid Birpur,Mosque,"G277+WWR Jama Masjid Birpur, Birpur, Bihar 854340",,G277+WWR,Birpur,854340,Bihar,IN,https://www.google.com/maps/place/Jama+Masjid+Birpur/data=!4m7!3m6!1s0x39ef044f060f3fc5:0x10478abb52a98414!8m2!3d26.5148516!4d87.0147786!16s%2Fg%2F11hc30kb5h!19sChIJxT8PBk8E7zkRFISpUruKRxA?authuser=0&hl=en&rclk=1,"26.5148516,87.0147786"
Jama Masjid,Mosque,"RVPJ+99P Jama Masjid, Veerpur, Birpur Than, Uttar Pradesh 244104",,RVPJ+99P,"Veerpur, Birpur Than",244104,Uttar Pradesh,IN,https://www.google.com/maps/place/Jama+Masjid/data=!4m7!3m6!1s0x390af0e19c39ebdb:0x4fd37191b1f64be3!8m2!3d28.835969!4d78.8809501!16s%2Fg%2F11c32kh6bn!19sChIJ2-s5nOHwCjkR40v2sZFx008?authuser=0&hl=en&rclk=1,"28.835969,78.88095009999999"
Kairi Birpur Jama Masjid,Mosque,"6QHG+Q7V Kairi Birpur Jama Masjid, Bishanpur, Kairbirpur, Bihar 855101",,"6QHG+Q7V, Bishanpur",Kairbirpur,855101,Bihar,IN,https://www.google.com/maps/place/Kairi+Birpur+Jama+Masjid/data=!4m7!3m6!1s0x39e57163fb6c27f5:0x9d017e69f2d168a3!8m2!3d26.2294802!4d87.7756863!16s%2Fg%2F11f8hz8mn6!19sChIJ9Sds-2Nx5TkRo2jR8ml-AZ0?authuser=0&hl=en&rclk=1,"26.229480199999998,87.77568629999999"
Masjid Jamia Wazeer Ul Uloom,Mosque,"56X5+Q8G Masjid Jamia Wazeer Ul Uloom, Danpur, Uttar Pradesh 203392",,56X5+Q8G,Danpur,,Uttar Pradesh,IN,https://www.google.com/maps/place/Masjid+Jamia+Wazeer+Ul+Uloom/data=!4m7!3m6!1s0x390b4b74abfa6067:0x4548cc4677d05292!8m2!3d28.1994341!4d78.2083379!16s%2Fg%2F11gxs00p3c!19sChIJZ2D6q3RLCzkRklLQd0bMSEU?authuser=0&hl=en&rclk=1,"28.199434099999998,78.20833789999999"
Noorani Masjid Khajuri,Mosque,"79GM+3V4 Noorani Masjid Khajuri, Village Khajuri, Nakeebpur, Uttar Pradesh 246733",,"79GM+3V4, Village Khajuri",Nakeebpur,246733,Uttar Pradesh,IN,https://www.google.com/maps/place/Noorani+Masjid+Khajuri/data=!4m7!3m6!1s0x390bb8ab51285d9b:0x34ec0e99bfd12c65!8m2!3d29.2751479!4d78.3847118!16s%2Fg%2F11g9n56grd!19sChIJm10oUau4CzkRZSzRv5kO7DQ?authuser=0&hl=en&rclk=1,"29.2751479,78.38471179999999"
Saiyyad Baba Masjid,Religious destination,"2F67+H7C Saiyyad Baba Masjid, Agra - Lucknow Expy, Birpur, Uttar Pradesh 209728",,"2F67+H7C, Agra - Lucknow Expy",Birpur,209728,Uttar Pradesh,IN,https://www.google.com/maps/place/Saiyyad+Baba+Masjid/data=!4m7!3m6!1s0x399e1d88428f789d:0x633529c5f1e1976a!8m2!3d27.0114298!4d79.4631266!16s%2Fg%2F11h5w8p784!19sChIJnXiPQogdnjkRapfh8cUpNWM?authuser=0&hl=en&rclk=1,"27.0114298,79.4631266"
Madina Masjid Salhapur,Mosque,"Madina Masjid Salhapur, Salhapur, Uttar Pradesh 247554",,,Salhapur,247554,Uttar Pradesh,IN,https://www.google.com/maps/place/Madina+Masjid+Salhapur/data=!4m7!3m6!1s0x390ea50d6b832409:0x374f2484368cdf79!8m2!3d29.7332632!4d77.7206084!16s%2Fg%2F11c807w2xh!19sChIJCSSDaw2lDjkRed-MNoQkTzc?authuser=0&hl=en&rclk=1,"29.7332632,77.7206084"
Jama Masjid Birpur,Mosque,"G9WQ+8VF Jama Masjid Birpur, Lalmania, Bihar 847421",,G9WQ+8VF,Lalmania,,Bihar,IN,https://www.google.com/maps/place/Jama+Masjid+Birpur/data=!4m7!3m6!1s0x39ee8537f2f643af:0x513792ee050ef756!8m2!3d26.5458103!4d86.3896668!16s%2Fg%2F11fglbm3tw!19sChIJr0P28jeF7jkRVvcOBe6SN1E?authuser=0&hl=en&rclk=1,"26.5458103,86.3896668"
Mundala,Condominium complex,"F5JH+624 Mundala, Unnamed Road, Faijabad, Birpur, Uttar Pradesh 246731",,"F5JH+624, Unnamed Road","Faijabad, Birpur",246731,Uttar Pradesh,IN,https://www.google.com/maps/place/Mundala/data=!4m7!3m6!1s0x390be5f3e3ee606d:0x9f67759412f4c00f!8m2!3d29.4805116!4d78.1775814!16s%2Fg%2F11n2q40zgv!19sChIJbWDu4_PlCzkRD8D0EpR1Z58?authuser=0&hl=en&rclk=1,"29.4805116,78.1775814"
motii msjid viirpur thaan,Mosque,"RVPH+RFG motii msjid viirpur thaan, viirpur thaan, Dalpatpur, Uttar Pradesh",,"RVPH+RFG, viirpur thaan","Dalpatpur, Birpur Than",,Uttar Pradesh,IN,https://www.google.com/maps/place/%E0%A4%AE%E0%A5%8B%E0%A4%A4%E0%A5%80+%E0%A4%AE%E0%A4%B8%E0%A5%8D%E0%A4%9C%E0%A4%BF%E0%A4%A6+%E0%A4%B5%E0%A5%80%E0%A4%B0%E0%A4%AA%E0%A5%81%E0%A4%B0+%E0%A4%A5%E0%A4%BE%E0%A4%A8/data=!4m7!3m6!1s0x390af1d3cfc7e0cd:0xb359eb830869e5f5!8m2!3d28.8370701!4d78.8786891!16s%2Fg%2F11h3nncfzj!19sChIJzeDHz9PxCjkR9eVpCIPrWbM?authuser=0&hl=en&rclk=1,"28.8370701,78.8786891"
nuur msjid biirpur thaan,Mosque,"nuur msjid biirpur thaan, Veer pur than, Moradabad, Birpur Than, Uttar Pradesh 244001",,Veer pur than,"Moradabad, Birpur Than",244001,Uttar Pradesh,IN,https://www.google.com/maps/place/%E0%A4%A8%E0%A5%82%E0%A4%B0+%E0%A4%AE%E0%A4%B8%E0%A5%8D%E0%A4%9C%E0%A4%BF%E0%A4%A6+%E0%A4%AC%E0%A5%80%E0%A4%B0%E0%A4%AA%E0%A5%81%E0%A4%B0+%E0%A4%A5%E0%A4%BE%E0%A4%A8/data=!4m7!3m6!1s0x390af1ed7005cc61:0xcb41ad993088a12e!8m2!3d28.8345066!4d78.8801985!16s%2Fg%2F11fl0t634z!19sChIJYcwFcO3xCjkRLqGIMJmtQcs?authuser=0&hl=en&rclk=1,"28.834506599999997,78.88019849999999"
Jama Masjid Bibipur,Mosque,"XP64+2VJ Jama Masjid Bibipur, Mustfapur, Uttar Pradesh 244504",,XP64+2VJ,Mustfapur,244504,Uttar Pradesh,IN,https://www.google.com/maps/place/Jama+Masjid+Bibipur/data=!4m7!3m6!1s0x390a55785006190b:0x9b6efc852b4acb28!8m2!3d28.9600789!4d78.7071263!16s%2Fg%2F11jh49dh4s!19sChIJCxkGUHhVCjkRKMtKK4X8bps?authuser=0&hl=en&rclk=1,"28.9600789,78.7071263"
Bilali Masjid,Mosque,"QHRG+PQJ Bilali Masjid, Shekhupur Mafi, Uttar Pradesh 244102",,QHRG+PQJ,Shekhupur Mafi,244102,Uttar Pradesh,IN,https://www.google.com/maps/place/Bilali+Masjid/data=!4m7!3m6!1s0x390b037806672bdf:0x2c728e1ba290eba0!8m2!3d28.791843!4d78.576885!16s%2Fg%2F11fx94zhq9!19sChIJ3ytnBngDCzkRoOuQohuOciw?authuser=0&hl=en&rclk=1,"28.791843,78.57688499999999"
Gosia Lal Masjid,Bookmaker,,,,,,,,https://www.google.com/maps/place/Gosia+Lal+Masjid/data=!4m7!3m6!1s0x390a5dac7f33a54b:0xf7d906070065cbc9!8m2!3d21.0686228!4d82.7525294!16s%2Fg%2F11fmkxqm62!19sChIJS6Uzf6xdCjkRyctlAAcG2fc?authuser=0&hl=en&rclk=1,"21.0686228,82.7525294"
Jama masjid,Mosque,"H2FM+9GX Jama masjid, Gwala tol Road, Birpur, Bihar 847225",,"H2FM+9GX, Gwala tol Road",Birpur,847225,Bihar,IN,https://www.google.com/maps/place/Jama+masjid/data=!4m7!3m6!1s0x39ec3b811d453c11:0xf3152345c7afe5e1!8m2!3d26.5734873!4d86.0338696!16s%2Fg%2F11nm9m94bz!19sChIJETxFHYE77DkR4eWvx0UjFfM?authuser=0&hl=en&rclk=1,"26.5734873,86.0338696"
Chakdarwa shia Masjid,Mosque,"F2M6+G2P Chakdarwa shia Masjid, Narsara, Eklakhi, Uttar Pradesh 227814",,F2M6+G2P,"Narsara, Eklakhi",227814,Uttar Pradesh,IN,https://www.google.com/maps/place/Chakdarwa+shia+Masjid/data=!4m7!3m6!1s0x399a6d5a9999a49f:0x5a8f31b5e95dd0a6!8m2!3d26.4838355!4d82.0100795!16s%2Fg%2F11hllhbyd3!19sChIJn6SZmVptmjkRptBd6bUxj1o?authuser=0&hl=en&rclk=1,"26.483835499999998,82.0100795"
"Jama Masjid, Rooppur",Mosque,"PQ7X+FRV Jama Masjid, Rooppur, Roop Pur, Uttar Pradesh 244413",,PQ7X+FRV,Roop Pur,244413,Uttar Pradesh,IN,"https://www.google.com/maps/place/Jama+Masjid,+Rooppur/data=!4m7!3m6!1s0x390ae55c821ef373:0xd99e24294950e91a!8m2!3d28.7137473!4d78.7995384!16s%2Fg%2F11lrynjl5s!19sChIJc_MeglzlCjkRGulQSSkkntk?authuser=0&hl=en&rclk=1","28.713747299999998,78.7995384"
Mosque Babupur,Mosque,"CH4Q+MVH Mosque Babupur, Babu Pur Sharia, Uttar Pradesh 227801",,CH4Q+MVH,Babu Pur Sharia,227801,Uttar Pradesh,IN,https://www.google.com/maps/place/Mosque+Babupur/data=!4m7!3m6!1s0x399a4d84618e389d:0x73254fed21b26577!8m2!3d26.4066915!4d81.5897227!16s%2Fg%2F11g_zf9f5c!19sChIJnTiOYYRNmjkRd2WyIe1PJXM?authuser=0&hl=en&rclk=1,"26.406691499999997,81.5897227"
Noor masjid,Mosque,"2W5M+M6Q Noor masjid, Pedra Gangapur, Achalpur, Uttar Pradesh 223227",,2W5M+M6Q,"Pedra Gangapur, Achalpur",,Uttar Pradesh,IN,https://www.google.com/maps/place/Noor+masjid/data=!4m7!3m6!1s0x3991b3a36ee478ed:0xe533cb2c4b707948!8m2!3d26.0092101!4d82.9331092!16s%2Fg%2F11flbd0zy2!19sChIJ7XjkbqOzkTkRSHlwSyzLM-U?authuser=0&hl=en&rclk=1,"26.009210099999997,82.93310919999999"
Noori Jama Masjid Birpur,Mosque,"7Q4G+968 Noori Jama Masjid Birpur, Vishvas Rd, Birpur, Jhinga Kanta, Bihar 855101",,"7Q4G+968, Vishvas Rd","Birpur, Jhinga Kanta",855101,Bihar,IN,https://www.google.com/maps/place/Noori+Jama+Masjid+Birpur/data=!4m7!3m6!1s0x39e57180a5199b4b:0x4e86fed7b7db8c22!8m2!3d26.2559018!4d87.775569!16s%2Fg%2F11f3p18vwr!19sChIJS5sZpYBx5TkRIozbt9f-hk4?authuser=0&hl=en&rclk=1,"26.2559018,87.77556899999999"
Masjid-a-fakiraa,Mosque,"H2CM+R73 Masjid-a-fakiraa, Birpur, Bihar 847226",,H2CM+R73,Birpur,,Bihar,IN,https://www.google.com/maps/place/Masjid-a-fakiraa/data=!4m7!3m6!1s0x39ec3b56914f2199:0xac0d33a4ec915583!8m2!3d26.5720083!4d86.0331646!16s%2Fg%2F11j2g4fg9d!19sChIJmSFPkVY77DkRg1WR7KQzDaw?authuser=0&hl=en&rclk=1,"26.5720083,86.03316459999999"
JAAMA MASJID MUNDHALA,Mosque,"F5JH+J69 JAAMA MASJID MUNDHALA, Birpur, Uttar Pradesh 246731",,F5JH+J69,Birpur,246731,Uttar Pradesh,IN,https://www.google.com/maps/place/JAAMA+MASJID+MUNDHALA/data=!4m7!3m6!1s0x390be5ca31b67d81:0xac36fda20f8314db!8m2!3d29.4815256!4d78.1781021!16s%2Fg%2F11h5vdm2rs!19sChIJgX22McrlCzkR2xSDD6L9Nqw?authuser=0&hl=en&rclk=1,"29.481525599999998,78.17810209999999"
Madina masjid,Mosque,"QV6F+CFG Madina masjid, Birpur Baryan Urf Kharag, Uttar Pradesh 244104",,QV6F+CFG,Birpur Baryan Urf Kharag,244104,Uttar Pradesh,IN,https://www.google.com/maps/place/Madina+masjid/data=!4m7!3m6!1s0x390aef8c1a52b257:0xf1f411ae51d75daa!8m2!3d28.7610521!4d78.8737031!16s%2Fg%2F11mqwfv506!19sChIJV7JSGozvCjkRql3XUa4R9PE?authuser=0&hl=en&rclk=1,"28.761052099999997,78.8737031"
kabristan Ghousiya Masjid Kharak,Mosque,"QV6G+V68 kabristan Ghousiya Masjid Kharak, Birpur Baryan Urf Kharag, Uttar Pradesh 244104",,QV6G+V68,Birpur Baryan Urf Kharag,244104,Uttar Pradesh,IN,https://www.google.com/maps/place/kabristan+Ghousiya+Masjid+Kharak/data=!4m7!3m6!1s0x390aefdf519a9489:0x69c77a07f146e809!8m2!3d28.7621693!4d78.8755674!16s%2Fg%2F11fqbvybnn!19sChIJiZSaUd_vCjkRCehG8Qd6x2k?authuser=0&hl=en&rclk=1,"28.7621693,78.8755674"
Jama Masjid,Mosque,"XWJ8+G4R Jama Masjid, Malhupura Hardo Dandi, Uttar Pradesh 244402",,XWJ8+G4R,Malhupura Hardo Dandi,,Uttar Pradesh,IN,https://www.google.com/maps/place/Jama+Masjid/data=!4m7!3m6!1s0x390a58b8784d1bfb:0x6397c9dd31f3ac7f!8m2!3d28.9813604!4d78.915264!16s%2Fg%2F11gfm6v5vl!19sChIJ-xtNeLhYCjkRf6zzMd3Jl2M?authuser=0&hl=en&rclk=1,"28.9813604,78.915264"
msj'id,Mosque,"C2JJ+QW5 msj'id, Tilakpur, Uttar Pradesh 271805",,C2JJ+QW5,Tilakpur,271805,Uttar Pradesh,IN,https://www.google.com/maps/place/%E0%A4%AE%E0%A4%B8%E0%A5%8D%E0%A4%9C%E0%A4%BC%E0%A4%BF%E0%A4%A6/data=!4m7!3m6!1s0x3999c54ac9d7eb79:0x13947176002dc1a4!8m2!3d27.4318966!4d82.0323471!16s%2Fg%2F11h_cxptjm!19sChIJeevXyUrFmTkRpMEtAHZxlBM?authuser=0&hl=en&rclk=1,"27.431896599999998,82.0323471"
Al-Gousiya masjid,Mosque,"CXPW+992 Al-Gousiya masjid, Banjari, Majhaubwa, Uttar Pradesh 271805",,"CXPW+992, Banjari",Majhaubwa,271805,Uttar Pradesh,IN,https://www.google.com/maps/place/Al-Gousiya+masjid/data=!4m7!3m6!1s0x3999c59eaef94a2b:0xe2f4e0abb84f3374!8m2!3d27.43588!4d81.9958974!16s%2Fg%2F11qbpjpchg!19sChIJK0r5rp7FmTkRdDNPuKvg9OI?authuser=0&hl=en&rclk=1,"27.435879999999997,81.99589739999999"
Masjid ek minarwali,Mosque,"6388+988 Masjid ek minarwali, Raniwala-Jagdishpur Rd, Lalner, Uttar Pradesh 203396",,"6388+988, Raniwala-Jagdishpur Rd",Lalner,,Uttar Pradesh,IN,https://www.google.com/maps/place/Masjid+ek+minarwali/data=!4m7!3m6!1s0x390b5332f3128415:0x3db55b0a06b436ff!8m2!3d28.2159158!4d78.0658411!16s%2Fg%2F11r4msbtlp!19sChIJFYQS8zJTCzkR_za0BgpbtT0?authuser=0&hl=en&rclk=1,"28.215915799999998,78.0658411"
Gareeb Nawaz Masjid,Mosque,"CXMQ+54G Gareeb Nawaz Masjid, Unnamed Road, Ikauna, Naraptpur, Uttar Pradesh 271845",,"CXMQ+54G, Unnamed Road","Ikauna, Naraptpur",271845,Uttar Pradesh,IN,https://www.google.com/maps/place/Gareeb+Nawaz+Masjid/data=!4m7!3m6!1s0x3999c5cbaebc44e7:0x7676773349efbd70!8m2!3d27.4329313!4d81.9878239!16s%2Fg%2F11j0q3r8nx!19sChIJ50S8rsvFmTkRcL3vSTN3dnY?authuser=0&hl=en&rclk=1,"27.4329313,81.9878239"
Masjid Bahrampur,Mosque,"XGP3+X72 Masjid Bahrampur, Bahrampur Morna, Bahram Pur, Uttar Pradesh 250501",,XGP3+X72,"Bahrampur Morna, Bahram Pur",,Uttar Pradesh,IN,https://www.google.com/maps/place/Masjid+Bahrampur/data=!4m7!3m6!1s0x390c5d18500fb46b:0x12cff84a701a596!8m2!3d28.9873941!4d77.5031476!16s%2Fg%2F11nrvzc9m9!19sChIJa7QPUBhdDDkRlqUBp4T_LAE?authuser=0&hl=en&rclk=1,"28.9873941,77.50314759999999"
1minar masjid,Mosque,"F5HH+P3C 1minar masjid, Birpur, Uttar Pradesh 246731",,F5HH+P3C,Birpur,246731,Uttar Pradesh,IN,https://www.google.com/maps/place/1minar+masjid/data=!4m7!3m6!1s0x390be5dcc82fd0d1:0xaa1b6ee7c5981755!8m2!3d29.4793052!4d78.1776423!16s%2Fg%2F11fk97xvkp!19sChIJ0dAvyNzlCzkRVReYxeduG6o?authuser=0&hl=en&rclk=1,"29.4793052,78.1776423"
Moti Masjid,Mosque,"RQMJ+PH3 Moti Masjid, Galshaheed Rd, near Sbi Bank, Mandi Chowk, Chhajlet, Moradabad, Uttar Pradesh 244001","Mandi Chowk, Chhajlet","RQMJ+PH3, Galshaheed Rd, near Sbi Bank",Moradabad,244001,Uttar Pradesh,IN,https://www.google.com/maps/place/Moti+Masjid/data=!4m7!3m6!1s0x390afbc7d928c56f:0x5a66870f93bd27da!8m2!3d28.834256!4d78.7814249!16s%2Fg%2F11grvcz868!19sChIJb8Uo2cf7CjkR2ie9kw-HZlo?authuser=0&hl=en&rclk=1,"28.834256,78.78142489999999"
"Vincentian Ashram, Veerpur",Religious institution,"RVMM+QGM Vincentian Ashram, Veerpur, Veerpur Than, Munda Pande, Uttar Pradesh 244001",,"RVMM+QGM, Veerpur Than, Munda Pande","Birpur Than, Veerpur",244001,Uttar Pradesh,IN,"https://www.google.com/maps/place/Vincentian+Ashram,+Veerpur/data=!4m7!3m6!1s0x390af11df7611513:0x9f863a8714e36a88!8m2!3d28.8344643!4d78.883804!16s%2Fg%2F11f4wn87cl!19sChIJExVh9x3xCjkRiGrjFIc6hp8?authuser=0&hl=en&rclk=1","28.834464299999997,78.883804"
Chandwapur Masjid,Mosque,"FQV6+2W6 Chandwapur Masjid, Satpedia Mafi, Sar Bahda, Uttar Pradesh 271871",,FQV6+2W6,"Satpedia Mafi, Sar Bahda",,Uttar Pradesh,IN,https://www.google.com/maps/place/Chandwapur+Masjid/data=!4m7!3m6!1s0x3999bb0f1f1d47f1:0x6b9e8227f680780d!8m2!3d27.4925471!4d81.7622659!16s%2Fg%2F11shy7ybyx!19sChIJ8UcdHw-7mTkRDXiA9ieCnms?authuser=0&hl=en&rclk=1,"27.4925471,81.7622659"
Noori masjid,Mosque,"84Q6+P8V Noori masjid, Jagatapur, Basantpur Raja, Uttar Pradesh 271202",,84Q6+P8V,"Jagatapur, Basantpur Raja",,Uttar Pradesh,IN,https://www.google.com/maps/place/Noori+masjid/data=!4m7!3m6!1s0x3999ddb71b740d27:0x7565b155686c866d!8m2!3d27.3393658!4d82.1107898!16s%2Fg%2F11rysl53l_!19sChIJJw10G7fdmTkRbYZsaFWxZXU?authuser=0&hl=en&rclk=1,"27.3393658,82.11078979999999"
Mukimpur masjid,Mosque,"PMMC+5J8 Mukimpur masjid, Mukimpur, Uttar Pradesh 245304",,PMMC+5J8,Mukimpur,245304,Uttar Pradesh,IN,https://www.google.com/maps/place/Mukimpur+masjid/data=!4m7!3m6!1s0x390c8f47df5ffecd:0xc219ca44dc1898f5!8m2!3d28.7329047!4d77.6715682!16s%2Fg%2F11l6ycp40p!19sChIJzf5f30ePDDkR9ZgY3ETKGcI?authuser=0&hl=en&rclk=1,"28.7329047,77.6715682"
Jaama masjid,Mosque,"RVQP+3FQ Jaama masjid, Unnamed Road, Birpur Than, Uttar Pradesh 244104",,"RVQP+3FQ, Unnamed Road",Birpur Than,244104,Uttar Pradesh,IN,https://www.google.com/maps/place/Jaama+masjid/data=!4m7!3m6!1s0x390af188a5dc386d:0x837e5b99aa9e7f48!8m2!3d28.8377115!4d78.886227!16s%2Fg%2F11j0qpn6v3!19sChIJbTjcpYjxCjkRSH-eqplbfoM?authuser=0&hl=en&rclk=1,"28.837711499999997,78.88622699999999"
Jama Masjid,Mosque,"9XCC+4CG Jama Masjid, Rashidpur, Uttar Pradesh 203150",,9XCC+4CG,Rashidpur,203150,Uttar Pradesh,IN,https://www.google.com/maps/place/Jama+Masjid/data=!4m7!3m6!1s0x390b5986b2d6cd8f:0xde5b0dc42987233a!8m2!3d28.3703175!4d77.9710916!16s%2Fg%2F11t40sf3lz!19sChIJj83WsoZZCzkROiOHKcQNW94?authuser=0&hl=en&rclk=1,"28.3703175,77.9710916"
Thekedaro Wali Masjid,Mosque,"QV7G+JFM Thekedaro Wali Masjid, Birpur Baryan Urf Kharag, Uttar Pradesh 244104",,QV7G+JFM,Birpur Baryan Urf Kharag,244104,Uttar Pradesh,IN,https://www.google.com/maps/place/Thekedaro+Wali+Masjid/data=!4m7!3m6!1s0x390aef1b630f71c7:0xf287f3bd792ac4eb!8m2!3d28.7640894!4d78.8761664!16s%2Fg%2F11p657k0x4!19sChIJx3EPYxvvCjkR68Qqeb3zh_I?authuser=0&hl=en&rclk=1,"28.7640894,78.8761664"
Saqlaini masjid,Mosque,"QV8C+6WH Saqlaini masjid, Birpur Baryan Urf Kharag, Uttar Pradesh 244104",,QV8C+6WH,Birpur Baryan Urf Kharag,244104,Uttar Pradesh,IN,https://www.google.com/maps/place/Saqlaini+masjid/data=!4m7!3m6!1s0x390aef6676ca0c11:0xd4df151ac05bc621!8m2!3d28.7655687!4d78.8723748!16s%2Fg%2F11q1q1x1nd!19sChIJEQzKdmbvCjkRIcZbwBoV39Q?authuser=0&hl=en&rclk=1,"28.7655687,78.8723748"
MADINA MASJID,Education center,"MADINA MASJID, jhande wali veerpur than, Milak, Birpur Than, Uttar Pradesh 244104",,jhande wali veerpur than,"Milak, Birpur Than",,Uttar Pradesh,IN,https://www.google.com/maps/place/MADINA+MASJID/data=!4m7!3m6!1s0x390a973fa0f28bb7:0xa9bcd33b73c1f213!8m2!3d28.8304104!4d78.8808427!16s%2Fg%2F11tf81scwg!19sChIJt4vyoD-XCjkRE_LBczvTvKk?authuser=0&hl=en&rclk=1,"28.830410399999998,78.8808427"
Birpur Baryan Urf Kharag,,"Birpur Baryan Urf Kharag, Uttar Pradesh 244104",,,Birpur Baryan Urf Kharag,,Uttar Pradesh,IN,https://www.google.com/maps/place/Birpur+Baryan+Urf+Kharag/data=!4m7!3m6!1s0x390aefd503b45633:0xb19558ee672b2af9!8m2!3d28.768791!4d78.8807247!16s%2Fg%2F12hnlvkly!19sChIJM1a0A9XvCjkR-SorZ-5YlbE?authuser=0&hl=en&rclk=1,"28.768791,78.8807247"
Birpur,,"Birpur, Uttar Pradesh 244301",,,Birpur,,Uttar Pradesh,IN,https://www.google.com/maps/place/Birpur/data=!4m7!3m6!1s0x390afca05ded6bbf:0xf3160a1f07032527!8m2!3d28.7804574!4d78.7447868!16s%2Fg%2F11bxb8q48r!19sChIJv2vtXaD8CjkRJyUDBx8KFvM?authuser=0&hl=en&rclk=1,"28.7804574,78.7447868"
Birpur,,"Birpur, Uttar Pradesh 246731",,,Birpur,,Uttar Pradesh,IN,https://www.google.com/maps/place/Birpur/data=!4m7!3m6!1s0x390be0ef0e71ea77:0xde6d259815f4cf3e!8m2!3d29.4742301!4d78.197765!16s%2Fg%2F12hlbn1yn!19sChIJd-pxDu_gCzkRPs_0FZglbd4?authuser=0&hl=en&rclk=1,"29.4742301,78.19776499999999"
Birpur,,"Birpur, Uttar Pradesh 246749",,,Birpur,,Uttar Pradesh,IN,https://www.google.com/maps/place/Birpur/data=!4m7!3m6!1s0x390be0ef0e71ea77:0xde6d259815f4cf3f!8m2!3d29.671605!4d78.3443972!16s%2Fg%2F12hnq4g8y!19sChIJd-pxDu_gCzkRP8_0FZglbd4?authuser=0&hl=en&rclk=1,"29.671605,78.3443972"
viirpur msjid,Mosque,"44HP+RRP viirpur msjid, Birpur, Madhya Pradesh 476335",,44HP+RRP,Birpur,476335,Madhya Pradesh,IN,https://www.google.com/maps/place/%E0%A4%B5%E0%A5%80%E0%A4%B0%E0%A4%AA%E0%A5%81%E0%A4%B0+%E0%A4%AE%E0%A4%B8%E0%A5%8D%E0%A4%9C%E0%A4%BF%E0%A4%A6/data=!4m7!3m6!1s0x3971a183950990f7:0x4ecf679e3ec1aeab!8m2!3d26.1295933!4d77.1370811!16s%2Fg%2F11hf23h673!19sChIJ95AJlYOhcTkRq67BPp5nz04?authuser=0&hl=en&rclk=1,"26.1295933,77.1370811"
New nurani masjid,Place of worship,"44JQ+73P New nurani masjid, Birpur, Madhya Pradesh 476335",,44JQ+73P,Birpur,476335,Madhya Pradesh,IN,https://www.google.com/maps/place/New+nurani+masjid/data=!4m7!3m6!1s0x3971a13cee94cf95:0x1a6ce8f5be1b1e57!8m2!3d26.1307054!4d77.1376913!16s%2Fg%2F11rz4qdpvt!19sChIJlc-U7jyhcTkRVx4bvvXobBo?authuser=0&hl=en&rclk=1,"26.1307054,77.1376913"
Aman Traders,General store,"Aman Traders, 80 Mohammad Pur Bustor, near Masjid, Uttar Pradesh 244301",,"80 Mohammad Pur Bustor, near Masjid",Birpur,244301,Uttar Pradesh,IN,https://www.google.com/maps/place/Aman+Traders/data=!4m7!3m6!1s0x390afb4d955fa78b:0xe3de3f41b05027ad!8m2!3d28.7728601!4d78.7506317!16s%2Fg%2F11sbd004s6!19sChIJi6dflU37CjkRrSdQsEE_3uM?authuser=0&hl=en&rclk=1,"28.7728601,78.7506317"
Jama masjid new plot Birpur,Mosque,"Jama masjid new plot Birpur, New plot, Birpur, Khara Madhana, Jammu and Kashmir 181133",New plot,,"Birpur, Khara Madhana",181133,Jammu and Kashmir,IN,https://www.google.com/maps/place/Jama+masjid+new+plot+Birpur/data=!4m7!3m6!1s0x391e9ddfd91eb199:0x4fa5b2a7f32ca44a!8m2!3d32.6653408!4d74.9388138!16s%2Fg%2F11sy715xpp!19sChIJmbEe2d-dHjkRSqQs86eypU8?authuser=0&hl=en&rclk=1,"32.665340799999996,74.93881379999999"
Mohd Rehwar Cement Store,Building materials store,"Mohd Rehwar Cement Store, Than, Veerpur, Kashipur Rd, near Jama Masjid, Moradabad, Uttar Pradesh 244104",,"Than, Veerpur, Kashipur Rd, near Jama Masjid","Moradabad, Birpur Than",244104,Uttar Pradesh,IN,https://www.google.com/maps/place/Mohd+Rehwar+Cement+Store/data=!4m7!3m6!1s0x390af175ffb63773:0x5269b20f904fbdcf!8m2!3d28.8405838!4d78.8825554!16s%2Fg%2F11syf543r0!19sChIJcze2_3XxCjkRz71PkA-yaVI?authuser=0&hl=en&rclk=1,"28.840583799999997,78.8825554"
Shere rja masjid,Mosque,"7M59+622 Shere rja masjid, Birpur Dithwa, Uttar Pradesh 209863",,7M59+622,Birpur Dithwa,209863,Uttar Pradesh,IN,https://www.google.com/maps/place/Shere+rja+masjid/data=!4m7!3m6!1s0x399c7b5b734c4a5d:0x52b3576d5414b028!8m2!3d26.2580073!4d80.6675272!16s%2Fg%2F11srh_8k6q!19sChIJXUpMc1t7nDkRKLAUVG1Xs1I?authuser=0&hl=en&rclk=1,"26.2580073,80.6675272"
Buapur Natho,,"Buapur Natho, Uttar Pradesh 244411",,,Buapur Natho,,Uttar Pradesh,IN,https://www.google.com/maps/place/Buapur+Natho/data=!4m7!3m6!1s0x390ae7ec80069663:0xf605621d02749fec!8m2!3d28.5989093!4d78.8191512!16s%2Fg%2F11bxb8njs8!19sChIJY5YGgOznCjkR7J90Ah1iBfY?authuser=0&hl=en&rclk=1,"28.5989093,78.8191512"
Noori Masjid,Mosque,"MHP7+CJ Noori Masjid, Bedpur, Uttar Pradesh 272131",,MHP7+CJ,Bedpur,,Uttar Pradesh,IN,https://www.google.com/maps/place/Noori+Masjid/data=!4m7!3m6!1s0x3990c16baca13735:0x6a2df9f1432b1037!8m2!3d26.6860849!4d82.564127!16s%2Fg%2F11kc52p_8w!19sChIJNTehrGvBkDkRNxArQ_H5LWo?authuser=0&hl=en&rclk=1,"26.686084899999997,82.564127"
Jama Masjid Birdpur jaamaa msjid brddpur,Mosque,"94G5+6W6 Jama Masjid Birdpur jaamaa msjid brddpur, Birdpur, Uttar Pradesh 272202",,94G5+6W6,Birdpur,,Uttar Pradesh,IN,https://www.google.com/maps/place/Jama+Masjid+Birdpur+%E0%A4%9C%E0%A4%BE%E0%A4%AE%E0%A4%BE+%E0%A4%AE%E0%A4%B8%E0%A5%8D%E0%A4%9C%E0%A4%BF%E0%A4%A6+%E0%A4%AC%E0%A4%B0%E0%A5%8D%E0%A4%A1%E0%A4%AA%E0%A5%81%E0%A4%B0/data=!4m7!3m6!1s0x3996c33b05c35f13:0xbaa5cc5f6149e209!8m2!3d27.3755485!4d83.1097531!16s%2Fg%2F11qn6v5g4h!19sChIJE1_DBTvDljkRCeJJYV_Mpbo?authuser=0&hl=en&rclk=1,"27.375548499999997,83.10975309999999"
Masjid,Mosque,"F545+2RV Masjid, Kawe - Lamichaur - Husepur Rd, Lachhmipur, Dikshitauli, Bihar 841426",,"F545+2RV, Kawe - Lamichaur - Husepur Rd","Lachhmipur, Dikshitauli",841426,Bihar,IN,https://www.google.com/maps/place/Masjid/data=!4m7!3m6!1s0x3993afed77569abb:0xeec2ee2d8ac83908!8m2!3d26.4551187!4d84.1595556!16s%2Fg%2F11v04tbvg7!19sChIJu5pWd-2vkzkRCDnIii3uwu4?authuser=0&hl=en&rclk=1,"26.4551187,84.15955559999999"
