name,main_category,address,address_ward,address_street,address_city,address_postal_code,address_state,address_country_code,link,coordinates
Jama Masjid,Mosque,"VRRX+3Q4 Jama Masjid, Railway Station Rd, Dharmabad, Maharashtra 431809",,"VRRX+3Q4, Railway Station Rd",Dharmabad,431809,Maharashtra,IN,https://www.google.com/maps/place/Jama+Masjid/data=!4m7!3m6!1s0x3bce095a6985d181:0x9376586762334371!8m2!3d18.8901443!4d77.8494451!16s%2Fg%2F1hhkhyjk2!19sChIJgdGFaVoJzjsRcUMzYmdYdpM?authuser=0&hl=en&rclk=1,"18.8901443,77.8494451"
Masjd E Aqsa,Mosque,"VVR2+VHR Masjd E Aqsa, Dharmabad, Maharashtra 431809",,VVR2+VHR,Dharmabad,,Maharashtra,IN,https://www.google.com/maps/place/Masjd+E+Aqsa/data=!4m7!3m6!1s0x3bce095b1f233657:0xe641b52499a7beb7!8m2!3d18.8922486!4d77.8513773!16s%2Fg%2F11gfnfknkt!19sChIJVzYjH1sJzjsRt76nmSS1QeY?authuser=0&hl=en&rclk=1,"18.8922486,77.8513773"
Masjid E Umar Farooq Ahle Hadees,Mosque,"VRRX+HJ8 Masjid E Umar Farooq Ahle Hadees, Dharmabad, Maharashtra 431809",,VRRX+HJ8,Dharmabad,,Maharashtra,IN,https://www.google.com/maps/place/Masjid+E+Umar+Farooq+Ahle+Hadees/data=!4m7!3m6!1s0x3bce095a8f63a4eb:0x47fa168662851729!8m2!3d18.8914116!4d77.8490799!16s%2Fg%2F11hckg7n50!19sChIJ66Rjj1oJzjsRKReFYoYW-kc?authuser=0&hl=en&rclk=1,"18.891411599999998,77.84907989999999"
Jama Masjid Balapur,Mosque,"VVQ7+G42 Jama Masjid Balapur, Unnamed Road, Balapur Dharmabad, Maharashtra 431809",,"VVQ7+G42, Unnamed Road",Balapur Dharmabad,431809,Maharashtra,IN,https://www.google.com/maps/place/Jama+Masjid+Balapur/data=!4m7!3m6!1s0x3bce09612b4f64b3:0xa43c832f950ffd33!8m2!3d18.8887613!4d77.8627531!16s%2Fg%2F11gbxb0tkx!19sChIJs2RPK2EJzjsRM_0PlS-DPKQ?authuser=0&hl=en&rclk=1,"18.8887613,77.86275309999999"
MADINA MASJID,Place of worship,"VVQ3+7FV MADINA MASJID, Dharmabad Rd, Dharmabad, Maharashtra 431809",,"VVQ3+7FV, Dharmabad Rd",Dharmabad,431809,Maharashtra,IN,https://www.google.com/maps/place/MADINA+MASJID/data=!4m7!3m6!1s0x3bce095bfe295b5b:0xdae54f20c45d2af6!8m2!3d18.8882258!4d77.8536762!16s%2Fg%2F11bxf0xzf0!19sChIJW1sp_lsJzjsR9ipdxCBP5do?authuser=0&hl=en&rclk=1,"18.8882258,77.8536762"
Mehbobiya Masjid,Mosque,"VRWX+4RW Mehbobiya Masjid, Unnamed Road, Dharmabad, Maharashtra 431809",,"VRWX+4RW, Unnamed Road",Dharmabad,431809,Maharashtra,IN,https://www.google.com/maps/place/Mehbobiya+Masjid/data=!4m7!3m6!1s0x3bce09456ac5ab6f:0x36b472ee20305144!8m2!3d18.8953653!4d77.8495855!16s%2Fg%2F11g6zhfr0d!19sChIJb6vFakUJzjsRRFEwIO5ytDY?authuser=0&hl=en&rclk=1,"18.895365299999998,77.8495855"
Jama Masjid Ratnale,Mosque,"VRPP+9Q8 Jama Masjid Ratnale, Ratnale, Dharmabad, Maharashtra 431809",,VRPP+9Q8,"Ratnale, Dharmabad",431809,Maharashtra,IN,https://www.google.com/maps/place/Jama+Masjid+Ratnale/data=!4m7!3m6!1s0x3bce0954b4677af7:0x2e4c719a06daa534!8m2!3d18.8859186!4d77.8369382!16s%2Fg%2F11c32j_2q1!19sChIJ93pntFQJzjsRNKXaBppxTC4?authuser=0&hl=en&rclk=1,"18.8859186,77.83693819999999"
Masjid -e- Bilal,Mosque,"VRRR+WQQ Masjid -e- Bilal, Dharmabad, Maharashtra 431809",,VRRR+WQQ,Dharmabad,431809,Maharashtra,IN,https://www.google.com/maps/place/Masjid+-e-+Bilal/data=!4m7!3m6!1s0x3bce09521b8c2309:0xcc8cbdc30dbc6427!8m2!3d18.8923325!4d77.8419851!16s%2Fg%2F11c481zd1v!19sChIJCSOMG1IJzjsRJ2S8DcO9jMw?authuser=0&hl=en&rclk=1,"18.8923325,77.8419851"
Makkah masjid,Mosque,"VRQR+M4V Makkah masjid, Moula Ali nagar, Rukmininagar, Dharmabad, Maharashtra 431809",Rukmininagar,"VRQR+M4V, Moula Ali nagar",Dharmabad,431809,Maharashtra,IN,https://www.google.com/maps/place/Makkah+masjid/data=!4m7!3m6!1s0x3bce09d433e118e7:0x4abd6616c35c0036!8m2!3d18.8892455!4d77.840302!16s%2Fg%2F11h84qcdzy!19sChIJ5xjhM9QJzjsRNgBcwxZmvUo?authuser=0&hl=en&rclk=1,"18.889245499999998,77.840302"
Hazrat Khan Sahab Dargah Shareef,Mosque,"VVV5+66H Hazrat Khan Sahab Dargah Shareef, Dharmabad, Maharashtra 431809",,VVV5+66H,Dharmabad,,Maharashtra,IN,https://www.google.com/maps/place/Hazrat+Khan+Sahab+Dargah+Shareef/data=!4m7!3m6!1s0x3bce095d40787575:0xbc3a6ce70efb3a89!8m2!3d18.8930503!4d77.8581013!16s%2Fg%2F11gfmbyxpz!19sChIJdXV4QF0JzjsRiTr7DudsOrw?authuser=0&hl=en&rclk=1,"18.8930503,77.8581013"
Abdula mosque,Mosque,"VRXV+96X Abdula mosque, Dharmabad, Maharashtra 431809",,VRXV+96X,Dharmabad,431809,Maharashtra,IN,https://www.google.com/maps/place/Abdula+mosque/data=!4m7!3m6!1s0x3bce099a3232c25d:0xe9ed8c5631fa0463!8m2!3d18.8985373!4d77.8428997!16s%2Fg%2F11vdm0pv73!19sChIJXcIyMpoJzjsRYwT6MVaM7ek?authuser=0&hl=en&rclk=1,"18.898537299999997,77.84289969999999"
Hazrat Sayyad Sadat Dargah Shareef,Mosque,"VVQ7+CJH Hazrat Sayyad Sadat Dargah Shareef, Balapur Dharmabad, Maharashtra 431809",,VVQ7+CJH,Balapur Dharmabad,431809,Maharashtra,IN,https://www.google.com/maps/place/Hazrat+Sayyad+Sadat+Dargah+Shareef/data=!4m7!3m6!1s0x3bce09614a4a6fc9:0xdf68120891d1c161!8m2!3d18.8885638!4d77.8640996!16s%2Fg%2F11f3zs63xn!19sChIJyW9KSmEJzjsRYcHRkQgSaN8?authuser=0&hl=en&rclk=1,"18.8885638,77.8640996"
Zahoor Masjid,Mosque,"VVQ2+MP8 Zahoor Masjid, Dharmabad, Maharashtra 431809",,VVQ2+MP8,Dharmabad,431809,Maharashtra,IN,https://www.google.com/maps/place/Zahoor+Masjid/data=!4m7!3m6!1s0x3bce095bc5ddef05:0xdb0aa629d867afcd!8m2!3d18.8891546!4d77.8518288!16s%2Fg%2F11f4ptkzlt!19sChIJBe_dxVsJzjsRza9n2CmmCts?authuser=0&hl=en&rclk=1,"18.889154599999998,77.85182879999999"
MASJID E RIZWAN,Mosque,"VVV3+V59 MASJID E RIZWAN, Dharmabad, Maharashtra 431809",,VVV3+V59,Dharmabad,431809,Maharashtra,IN,https://www.google.com/maps/place/MASJID+E+RIZWAN/data=!4m7!3m6!1s0x3bce090d4adc453d:0xfce40afdc7cf9103!8m2!3d18.8946593!4d77.8529781!16s%2Fg%2F11nn1zd0x1!19sChIJPUXcSg0JzjsRA5HPx_0K5Pw?authuser=0&hl=en&rclk=1,"18.8946593,77.8529781"
Masjid-e-Ismail,Mosque,"VRXR+MW8 Masjid-e-Ismail, kuntha Galli, Dharmabad, Maharashtra 431809",,"VRXR+MW8, kuntha Galli",Dharmabad,,Maharashtra,IN,https://www.google.com/maps/place/Masjid-e-Ismail/data=!4m7!3m6!1s0x3bce09f6543229f7:0x967e84958478b13f!8m2!3d18.8991633!4d77.8423421!16s%2Fg%2F11g_r6l1zw!19sChIJ9ykyVPYJzjsRP7F4hJWEfpY?authuser=0&hl=en&rclk=1,"18.899163299999998,77.8423421"
Dargha. drg,Mosque,"VVQ2+7MG Dargha. drg, Dharmabad, Maharashtra 431809",,VVQ2+7MG,Dharmabad,431809,Maharashtra,IN,https://www.google.com/maps/place/Dargha.+%D8%AF%D8%B1%DA%AF%D8%A7%E2%80%AD/data=!4m7!3m6!1s0x3bce09b4d112d6d5:0xf9fa85dbfbbd86bb!8m2!3d18.888181!4d77.8516966!16s%2Fg%2F11j040xb_h!19sChIJ1dYS0bQJzjsRu4a9-9uF-vk?authuser=0&hl=en&rclk=1,"18.888181,77.8516966"
msjid abdullaa dhrmaabaad,Mosque,"VRXV+96X msjid abdullaa dhrmaabaad, Dharmabad, Maharashtra 431809",,VRXV+96X,Dharmabad,431809,Maharashtra,IN,https://www.google.com/maps/place/%E0%A4%AE%E0%A4%B8%E0%A5%8D%E0%A4%9C%E0%A4%BF%E0%A4%A6+%E0%A4%85%E0%A4%AC%E0%A4%A6%E0%A5%81%E0%A4%B2%E0%A5%8D%E0%A4%B2%E0%A4%BE+%E0%A4%A7%E0%A4%B0%E0%A4%AE%E0%A4%BE%E0%A4%AC%E0%A4%BE%E0%A4%A6/data=!4m7!3m6!1s0x3bce0967bce8ba71:0x5190a887bf5c3eed!8m2!3d18.8985374!4d77.8428997!16s%2Fg%2F11v0qg1xjx!19sChIJcbrovGcJzjsR7T5cv4eokFE?authuser=0&hl=en&rclk=1,"18.8985374,77.84289969999999"
Mohamadiya Masjid,Mosque,"VRWR+6RC Mohamadiya Masjid, Dharmabad, Maharashtra 431809",,VRWR+6RC,Dharmabad,431809,Maharashtra,IN,https://www.google.com/maps/place/Mohamadiya+Masjid/data=!4m7!3m6!1s0x3bce09ec053a7609:0x1ae38fdaf89eee7e!8m2!3d18.8955728!4d77.8420012!16s%2Fg%2F11g0hb37dm!19sChIJCXY6BewJzjsRfu6e-NqP4xo?authuser=0&hl=en&rclk=1,"18.8955728,77.8420012"
EIDGAH DHRAMABAD,Mosque,"VRVV+R48 EIDGAH DHRAMABAD, Unnamed Road, Dharmabad, Maharashtra 431809",,"VRVV+R48, Unnamed Road",Dharmabad,431809,Maharashtra,IN,https://www.google.com/maps/place/EIDGAH+DHRAMABAD/data=!4m7!3m6!1s0x3bce092dd865ad23:0x43491ca1bbc7ba99!8m2!3d18.8945295!4d77.8428327!16s%2Fg%2F11p5csnn80!19sChIJI61l2C0JzjsRmbrHu6EcSUM?authuser=0&hl=en&rclk=1,"18.8945295,77.8428327"
Eidgah,Mosque,"VVV3+W3G Eidgah, Dharmabad, Maharashtra 431809",,VVV3+W3G,Dharmabad,431809,Maharashtra,IN,https://www.google.com/maps/place/Eidgah/data=!4m7!3m6!1s0x3bce0944b9955555:0x2c7f6deecd9cffea!8m2!3d18.8948082!4d77.8527185!16s%2Fg%2F11sscs8plg!19sChIJVVWVuUQJzjsR6v-cze5tfyw?authuser=0&hl=en&rclk=1,"18.8948082,77.8527185"
Shadulla Husain chilla,Mosque,"VRQV+6W9 Shadulla Husain chilla, Ratnali Rd, Shanker Gunj, Dharmabad, Maharashtra 431809",Shanker Gunj,"VRQV+6W9, Ratnali Rd",Dharmabad,431809,Maharashtra,IN,https://www.google.com/maps/place/Shadulla+Husain+chilla/data=!4m7!3m6!1s0x3bce09836eb28fc7:0xcf04da1252de8024!8m2!3d18.88805!4d77.844847!16s%2Fg%2F11s2rcbrdz!19sChIJx4-yboMJzjsRJIDeUhLaBM8?authuser=0&hl=en&rclk=1,"18.88805,77.844847"
Masjid,Mosque,"RR59+M45 Masjid, Dharmabad To Kundalwadi Rd, Hungunda, Harnali, Maharashtra 431711",,"RR59+M45, Dharmabad To Kundalwadi Rd","Hungunda, Harnali",431711,Maharashtra,IN,https://www.google.com/maps/place/Masjid/data=!4m7!3m6!1s0x3bce0ddc72aec8af:0xd1ba08b96463cfe0!8m2!3d18.8091256!4d77.8178469!16s%2Fg%2F11r96_z36z!19sChIJr8iuctwNzjsR4M9jZLkIutE?authuser=0&hl=en&rclk=1,"18.809125599999998,77.81784689999999"
