name,main_category,address,address_ward,address_street,address_city,address_postal_code,address_state,address_country_code,link,coordinates
Qutub Shahi Masjid quTub shahiy masjid,Mosque,"Qutub Shahi Masjid quTub shahiy masjid, 965, Anand Nagar Colony Rd, Naveen Nagar, Banjara Hills, Hyderabad, Telangana 500004","Naveen Nagar, Banjara Hills","965, Anand Nagar Colony Rd",Hyderabad,500004,Telangana,IN,https://www.google.com/maps/place/Qutub+Shahi+Masjid+%D9%82%D9%8F%D8%B7%D9%8F%D8%A8+%D8%B4%D9%8E%D8%A7%DB%81%D9%90%DB%8C+%D9%85%D9%8E%D8%B3%D9%92%D8%AC%D9%90%D8%AF%E2%80%AD/data=!4m7!3m6!1s0x3bcb974712c99781:0xaaa6357f54853148!8m2!3d17.410745!4d78.4539461!16s%2Fg%2F11c1t5427k!19sChIJgZfJEkeXyzsRSDGFVH81pqo?authuser=0&hl=en&rclk=1,"17.410745,78.4539461"
Masjid-e-Qutub Shahi (Choti Masjid) masjidWi quTub shahiy,Mosque,"Masjid-e-Qutub Shahi (Choti Masjid) masjidWi quTub shahiy, Murad Nagar Rd, Viswash Nagar, Murad Nagar, Hyderabad, Telangana 500028","Viswash Nagar, Murad Nagar",Murad Nagar Rd,Hyderabad,500028,Telangana,IN,https://www.google.com/maps/place/Masjid-e-Qutub+Shahi+%28Choti+Masjid%29+%D9%85%D9%8E%D8%B3%D9%92%D8%AC%D9%90%D8%AF%D9%91%D9%90+%D9%82%D9%8F%D8%B7%D9%8F%D8%A8+%D8%B4%D9%8E%D8%A7%DB%81%D9%90%DB%8C%E2%80%AD/data=!4m7!3m6!1s0x3bcb970f0be1f40b:0xe1467f8c066765fb!8m2!3d17.3872962!4d78.44282!16s%2Fg%2F1tdyp79d!19sChIJC_ThCw-XyzsR-2VnBox_RuE?authuser=0&hl=en&rclk=1,"17.387296199999998,78.44282"
Shahi Jamia Masjid,Mosque,"Shahi Jamia Masjid, shahi jamia masjid, PN Rd, Old Town, Adoni, Andhra Pradesh 518301",Old Town,"shahi jamia masjid, PN Rd",Adoni,518301,Andhra Pradesh,IN,https://www.google.com/maps/place/Shahi+Jamia+Masjid/data=!4m7!3m6!1s0x3bb64dc37c47c191:0x545081834698461d!8m2!3d15.6254604!4d77.2722849!16s%2Fm%2F0ngtwmk!19sChIJkcFHfMNNtjsRHUaYRoOBUFQ?authuser=0&hl=en&rclk=1,"15.6254604,77.2722849"
Masjid E Qutub Shahi masjidWi quTWub shahiy,Mosque,"9CRQ+X99 Masjid E Qutub Shahi masjidWi quTWub shahiy, Santosh Nagar colony, Satya Sai Marg, Opposite to MS School, Amba Gardens, Mehdipatnam, Hyderabad, Telangana 500028","Amba Gardens, Mehdipatnam","9CRQ+X99, Santosh Nagar colony, Satya Sai Marg, Opposite to MS School",Hyderabad,500028,Telangana,IN,https://www.google.com/maps/place/Masjid+E+Qutub+Shahi+%D9%85%D9%8E%D8%B3%D9%92%D8%AC%D9%90%D8%AF%D9%91%D9%90+%D9%82%D9%8F%D8%B7%D9%91%D9%8F%D8%A8+%D8%B4%D9%8E%D8%A7%DB%81%D9%90%DB%8C%E2%80%AD/data=!4m7!3m6!1s0x3bcb971ae5274421:0x472ee7203f1b39d0!8m2!3d17.3924208!4d78.4384871!16s%2Fg%2F1thvfd2q!19sChIJIUQn5RqXyzsR0DkbPyDnLkc?authuser=0&hl=en&rclk=1,"17.3924208,78.4384871"
Masjid-e-Qutub Shahi,Mosque,"CH28+PCG Masjid-e-Qutub Shahi, Masjid-e-Qutub Shahi St, Prashanth Nagar, Uppal, Hyderabad, Telangana 500039","Prashanth Nagar, Uppal","CH28+PCG, Masjid-e-Qutub Shahi St",Hyderabad,500039,Telangana,IN,https://www.google.com/maps/place/Masjid-e-Qutub+Shahi/data=!4m7!3m6!1s0x3bcb9ecccb28b02f:0x91744215100ba7a4!8m2!3d17.4018172!4d78.5660747!16s%2Fg%2F1tvq2l29!19sChIJL7Aoy8yeyzsRpKcLEBVCdJE?authuser=0&hl=en&rclk=1,"17.4018172,78.5660747"
Qutub Shahi Masjid quTub shahiy masjid,Mosque,"Qutub Shahi Masjid quTub shahiy masjid, 6-1-1027, Taj Enclave, Khairtabad, Hyderabad, Telangana 500004","Taj Enclave, Khairtabad",6-1-1027,Hyderabad,500004,Telangana,IN,https://www.google.com/maps/place/Qutub+Shahi+Masjid+%D9%82%D9%8F%D8%B7%D9%8F%D8%A8+%D8%B4%D9%8E%D8%A7%DB%81%D9%90%DB%8C+%D9%85%D9%8E%D8%B3%D9%92%D8%AC%D9%90%D8%AF%E2%80%AD/data=!4m7!3m6!1s0x3bcb97435033f1e5:0xfe61290d810b4bb3!8m2!3d17.4084064!4d78.4638567!16s%2Fm%2F0glq024!19sChIJ5fEzUEOXyzsRs0sLgQ0pYf4?authuser=0&hl=en&rclk=1,"17.4084064,78.4638567"
Jama Masjid Qutub Shahi,Mosque,"9C8J+277 Jama Masjid Qutub Shahi, Inner Ring Rd, Mushk Mahal, Attapur, Hyderabad, Telangana 500064",Mushk Mahal,"9C8J+277, Inner Ring Rd","Attapur, Hyderabad",500064,Telangana,IN,https://www.google.com/maps/place/Jama+Masjid+Qutub+Shahi/data=!4m7!3m6!1s0x3bcb97b2c772206d:0x2a21ebb85d8bec35!8m2!3d17.3650317!4d78.4306588!16s%2Fg%2F1w96f61d!19sChIJbSByx7KXyzsRNeyLXbjrISo?authuser=0&hl=en&rclk=1,"17.3650317,78.4306588"
Jame Masjid Qutub Shahi (Ek Khana) Shaikpet,Mosque,"Jame Masjid Qutub Shahi (Ek Khana) Shaikpet, Madhur Hills, Senore Colony, Aparna Senore Valley Villas, Ambedkar Nagar, Shaikpet, Hyderabad, Telangana 500008","Senore Colony, Aparna Senore Valley Villas, Ambedkar Nagar, Shaikpet",Madhur Hills,Hyderabad,500008,Telangana,IN,https://www.google.com/maps/place/Jame+Masjid+Qutub+Shahi+%28Ek+Khana%29+Shaikpet/data=!4m7!3m6!1s0x3bcb96ba30b37f53:0xe068107ed2eb69c!8m2!3d17.4090887!4d78.4003204!16s%2Fg%2F11b806w5sh!19sChIJU3-zMLqWyzsRnLYu7QeBBg4?authuser=0&hl=en&rclk=1,"17.409088699999998,78.4003204"
Jamia Masjid Ek Minar Qutub Shahi,Mosque,"CH53+83X Jamia Masjid Ek Minar Qutub Shahi, Uppal Stadium Rd, Habsiguda, Hyderabad, Telangana 500007",Habsiguda,"CH53+83X, Uppal Stadium Rd",Hyderabad,500007,Telangana,IN,https://www.google.com/maps/place/Jamia+Masjid+Ek+Minar+Qutub+Shahi/data=!4m7!3m6!1s0x3bcb9938770a1c29:0x35991cff626e0d02!8m2!3d17.4083554!4d78.5527315!16s%2Fg%2F1v5fqbxs!19sChIJKRwKdziZyzsRAg1uYv8cmTU?authuser=0&hl=en&rclk=1,"17.408355399999998,78.5527315"
Shahe Masjid Mosque,Mosque,"XM67+34V Shahe Masjid Mosque, Old Township HAL Colony, Sudhama Nagar, Airport, Bengaluru, Karnataka 560017","Old Township HAL Colony, Sudhama Nagar, Airport",XM67+34V,Bengaluru,560017,Karnataka,IN,https://www.google.com/maps/place/Shahe+Masjid+Mosque/data=!4m7!3m6!1s0x3bae13fa8ddbf017:0x16d0bda92ba46246!8m2!3d12.9602459!4d77.6628041!16s%2Fg%2F1vxctvvj!19sChIJF_DbjfoTrjsRRmKkK6m90BY?authuser=0&hl=en&rclk=1,"12.960245899999999,77.6628041"
Masjid-e-Qutubshahi masjidWi quTWub shahiy,Mosque,"9CH9+F5P Masjid-e-Qutubshahi masjidWi quTWub shahiy, Langar Houz, Hyderabad, Telangana 500008",Langar Houz,9CH9+F5P,Hyderabad,500008,Telangana,IN,https://www.google.com/maps/place/Masjid-e-Qutubshahi+%D9%85%D9%8E%D8%B3%D9%92%D8%AC%D9%90%D8%AF%D9%91%D9%90+%D9%82%D9%8F%D8%B7%D9%91%D9%8F%D8%A8+%D8%B4%D9%8E%D8%A7%DB%81%D9%90%DB%8C%E2%80%AD/data=!4m7!3m6!1s0x3bcb96f7f377bacb:0x3027c66d39b3a6b5!8m2!3d17.378719!4d78.4179388!16s%2Fg%2F11c1tmh7yv!19sChIJy7p38_eWyzsRtaazOW3GJzA?authuser=0&hl=en&rclk=1,"17.378719,78.4179388"
Shahi Masjid,Mosque,"Shahi Masjid, 2687, Pulikeshi Main Rd, Menna Bazzar, Mandi Mohalla, Mysuru, Karnataka 570001","Menna Bazzar, Mandi Mohalla","2687, Pulikeshi Main Rd",Mysuru,570001,Karnataka,IN,https://www.google.com/maps/place/Shahi+Masjid/data=!4m7!3m6!1s0x3baf706f0483da1b:0x12aa4924b23976c1!8m2!3d12.3225638!4d76.6562036!16s%2Fg%2F124sz7sg6!19sChIJG9qDBG9wrzsRwXY5siRJqhI?authuser=0&hl=en&rclk=1,"12.3225638,76.6562036"
"Masjid E Qutub Shahi, Chintal masjidWi quba shahiy",Mosque,"FFV3+R4X Masjid E Qutub Shahi, Chintal masjidWi quba shahiy, Dee Nagar, Quthbullapur, Hyderabad, Telangana 500055","Dee Nagar, Quthbullapur",FFV3+R4X,Hyderabad,500055,Telangana,IN,"https://www.google.com/maps/place/Masjid+E+Qutub+Shahi,+Chintal+%D9%85%D9%8E%D8%B3%D9%92%D8%AC%D9%90%D8%AF%D9%91%D9%90+%D9%82%D9%8F%D8%A8%D9%8E%D8%A7%D8%A1+%D8%B4%D9%8E%D8%A7%DB%81%D9%90%DB%8C%E2%80%AD/data=!4m7!3m6!1s0x3bcb906aa23ce71b:0x579dabe2a0e8b509!8m2!3d17.4946079!4d78.4528647!16s%2Fg%2F1hm34wlxw!19sChIJG-c8omqQyzsRCbXooOKrnVc?authuser=0&hl=en&rclk=1","17.4946079,78.45286469999999"
Masjid-e-Qutub Shahi,Mosque,"Masjid-e-Qutub Shahi, Old Malakpet, Hyderabad, Telangana 500036",Old Malakpet,,Hyderabad,500036,Telangana,IN,https://www.google.com/maps/place/Masjid-e-Qutub+Shahi/data=!4m7!3m6!1s0x3bcb984af30fabd3:0x36c5bde6c72b7c88!8m2!3d17.3796677!4d78.4994602!16s%2Fg%2F11c0rprbcp!19sChIJ06sP80qYyzsRiHwrx-a9xTY?authuser=0&hl=en&rclk=1,"17.3796677,78.4994602"
Masjid E Qutub Shahi Devdi Kalyani Nawab,Mosque,"9F5H+27V Masjid E Qutub Shahi Devdi Kalyani Nawab, Moghalpura, Hyderabad, Telangana 500002",Moghalpura,9F5H+27V,Hyderabad,500002,Telangana,IN,https://www.google.com/maps/place/Masjid+E+Qutub+Shahi+Devdi+Kalyani+Nawab/data=!4m7!3m6!1s0x3bcb981f7faa2b93:0x313242d376cdd0c9!8m2!3d17.3576233!4d78.4781581!16s%2Fg%2F11c6cg_1xw!19sChIJkyuqfx-YyzsRydDNdtNCMjE?authuser=0&hl=en&rclk=1,"17.3576233,78.4781581"
Qutub Shahi Masjid quTub shahiy masjid,Mosque,"8FX6+P8X Qutub Shahi Masjid quTub shahiy masjid, Nayeem Gulshan Colony, Misri Gunj, Ramnas Pura, Hyderabad, Telangana 500064","Nayeem Gulshan Colony, Misri Gunj, Ramnas Pura",8FX6+P8X,Hyderabad,500064,Telangana,IN,https://www.google.com/maps/place/Qutub+Shahi+Masjid+%D9%82%D9%8F%D8%B7%D9%8F%D8%A8+%D8%B4%D9%8E%D8%A7%DB%81%D9%90%DB%8C+%D9%85%D9%8E%D8%B3%D9%92%D8%AC%D9%90%D8%AF%E2%80%AD/data=!4m7!3m6!1s0x3bcb97ee8a913a5d:0x18623f96d3ab4ab4!8m2!3d17.3493743!4d78.460873!16s%2Fg%2F11bbyf1247!19sChIJXTqRiu6XyzsRtEqr05Y_Yhg?authuser=0&hl=en&rclk=1,"17.3493743,78.46087299999999"
Masjid Mashak Shah,Mosque,"9F3J+643 Masjid Mashak Shah, Sultan Shahi, Gowlipura, Hyderabad, Telangana 500065","Sultan Shahi, Gowlipura",9F3J+643,Hyderabad,500065,Telangana,IN,https://www.google.com/maps/place/Masjid+Mashak+Shah/data=!4m7!3m6!1s0x3bcb981eb0ce9f79:0x602615df55d5bc8b!8m2!3d17.3530195!4d78.4803058!16s%2Fg%2F11f3_zrs49!19sChIJeZ_OsB6YyzsRi7zVVd8VJmA?authuser=0&hl=en&rclk=1,"17.3530195,78.4803058"
Shahi Masjid,Mosque,"PPCM+P3R Shahi Masjid, NH40, Chowdeswari Nagar, Mydukur, S.Mydukur, Andhra Pradesh 516172",Chowdeswari Nagar,"PPCM+P3R, NH40","Mydukur, S.Mydukur",516172,Andhra Pradesh,IN,https://www.google.com/maps/place/Shahi+Masjid/data=!4m7!3m6!1s0x3bb37e6f7d9eed0f:0xc54c7af3bb8c7719!8m2!3d14.7218593!4d78.7326488!16s%2Fg%2F1tj29f_2!19sChIJD-2efW9-szsRGXeMu_N6TMU?authuser=0&hl=en&rclk=1,"14.7218593,78.73264879999999"
Qutub Shahi Masjid quTub shahiy masjid,Mosque,"GF25+JHQ Qutub Shahi Masjid quTub shahiy masjid, Cherukupally Pratap Reddy Colony, Chinthal, Quthbullapur, Hyderabad, Telangana 500055","Cherukupally Pratap Reddy Colony, Chinthal, Quthbullapur",GF25+JHQ,Hyderabad,500055,Telangana,IN,https://www.google.com/maps/place/Qutub+Shahi+Masjid+%D9%82%D9%8F%D8%B7%D9%8F%D8%A8+%D8%B4%D9%8E%D8%A7%DB%81%D9%90%DB%8C+%D9%85%D9%8E%D8%B3%D9%92%D8%AC%D9%90%D8%AF%E2%80%AD/data=!4m7!3m6!1s0x3bcb9013e4b32617:0xb92e1415b278d2b8!8m2!3d17.5015818!4d78.4589898!16s%2Fg%2F1232z2jd3!19sChIJFyaz5BOQyzsRuNJ4shUULrk?authuser=0&hl=en&rclk=1,"17.5015818,78.4589898"
Qutub Shahi Jamia Masjid,Mosque,"Qutub Shahi Jamia Masjid, Baharpet, Pargi, Telangana 501501",Baharpet,,Pargi,501501,Telangana,IN,https://www.google.com/maps/place/Qutub+Shahi+Jamia+Masjid/data=!4m7!3m6!1s0x3bc963b17f0edc39:0xfdee1d86843e415!8m2!3d17.1739376!4d77.8763965!16s%2Fg%2F1thkq451!19sChIJOdwOf7FjyTsRFeRDaNjh3g8?authuser=0&hl=en&rclk=1,"17.1739376,77.8763965"
Masjid-e-Qutub Shahi masjidWi quTub shahiy,Mosque,"9FQ2+8MX Masjid-e-Qutub Shahi masjidWi quTub shahiy, Kumhar Wadi, Asif Nagar, Hyderabad, Telangana 500028","Kumhar Wadi, Asif Nagar",9FQ2+8MX,Hyderabad,500028,Telangana,IN,https://www.google.com/maps/place/Masjid-e-Qutub+Shahi+%D9%85%D9%8E%D8%B3%D9%92%D8%AC%D9%90%D8%AF%D9%91%D9%90+%D9%82%D9%8F%D8%B7%D9%8F%D8%A8+%D8%B4%D9%8E%D8%A7%DB%81%D9%90%DB%8C%E2%80%AD/data=!4m7!3m6!1s0x3bcb970cd61d9ed1:0xa3bb58c62b43cb03!8m2!3d17.3883524!4d78.4517337!16s%2Fg%2F1vpq5b0j!19sChIJ0Z4d1gyXyzsRA8tDK8ZYu6M?authuser=0&hl=en&rclk=1,"17.3883524,78.45173369999999"
Masjid-e-Qutub Shahi masjidWi quTub shahiy,Mosque,"9FVV+RF7 Masjid-e-Qutub Shahi masjidWi quTub shahiy, Lingampally, Kachiguda, Hyderabad, Telangana 500027","Lingampally, Kachiguda",9FVV+RF7,Hyderabad,500027,Telangana,IN,https://www.google.com/maps/place/Masjid-e-Qutub+Shahi+%D9%85%D9%8E%D8%B3%D9%92%D8%AC%D9%90%D8%AF%D9%91%D9%90+%D9%82%D9%8F%D8%B7%D9%8F%D8%A8+%D8%B4%D9%8E%D8%A7%DB%81%D9%90%DB%8C%E2%80%AD/data=!4m7!3m6!1s0x3bcb99c615f58d9b:0x1ed458b63a244588!8m2!3d17.3945389!4d78.493662!16s%2Fg%2F11clyc7jds!19sChIJm431FcaZyzsRiEUkOrZY1B4?authuser=0&hl=en&rclk=1,"17.3945389,78.493662"
Shahi Masjid - shaahi msiidi,Mosque,"VG56+WG9 Shahi Masjid - shaahi msiidi, Bapat Galli, Raviwar Peth, Belagavi, Karnataka 590001",Raviwar Peth,"VG56+WG9, Bapat Galli",Belagavi,590001,Karnataka,IN,https://www.google.com/maps/place/Shahi+Masjid+-+%E0%B2%B6%E0%B2%BE%E0%B2%B9%E0%B2%BF+%E0%B2%AE%E0%B2%B8%E0%B3%80%E0%B2%A6%E0%B2%BF/data=!4m7!3m6!1s0x3bbf66a4d9d0471d:0xcde10995ddc59326!8m2!3d15.8597763!4d74.5113463!16s%2Fg%2F11c6v8n70t!19sChIJHUfQ2aRmvzsRJpPF3ZUJ4c0?authuser=0&hl=en&rclk=1,"15.8597763,74.5113463"
Masjid E Habeeb Qutub Shahi masjidWi Hbyb quTub shahiy,Mosque,"C927+FW3 Masjid E Habeeb Qutub Shahi masjidWi Hbyb quTub shahiy, Puppalguda, Hyderabad, Telangana 500089",,C927+FW3,"Puppalguda, Hyderabad",500089,Telangana,IN,https://www.google.com/maps/place/Masjid+E+Habeeb+Qutub+Shahi+%D9%85%D9%8E%D8%B3%D9%92%D8%AC%D9%90%D8%AF%D9%91%D9%90+%D8%AD%D8%A8%DB%8C%D8%A8+%D9%82%D9%8F%D8%B7%D9%8F%D8%A8+%D8%B4%D9%8E%D8%A7%DB%81%D9%90%DB%8C%E2%80%AD/data=!4m7!3m6!1s0x3bcb941450e445a1:0x58885f9ba2a0b6da!8m2!3d17.4011376!4d78.3647856!16s%2Fg%2F11b7cgjyv_!19sChIJoUXkUBSUyzsR2ragoptfiFg?authuser=0&hl=en&rclk=1,"17.4011376,78.36478559999999"
Masjid E Qutub Shahi masjidWi quTub shahiy,Mosque,"Masjid E Qutub Shahi masjidWi quTub shahiy, Madhavi Nagar, Hydershakote, Bandlaguda Jagir, Telangana 500091","Madhavi Nagar, Hydershakote",,Bandlaguda Jagir,500091,Telangana,IN,https://www.google.com/maps/place/Masjid+E+Qutub+Shahi+%D9%85%D9%8E%D8%B3%D9%92%D8%AC%D9%90%D8%AF%D9%91%D9%90+%D9%82%D9%8F%D8%B7%D9%8F%D8%A8+%D8%B4%D9%8E%D8%A7%DB%81%D9%90%DB%8C%E2%80%AD/data=!4m7!3m6!1s0x3bcb966537aa5347:0x2234577802adc183!8m2!3d17.3662471!4d78.3961155!16s%2Fg%2F11cjhcn2w5!19sChIJR1OqN2WWyzsRg8GtAnhXNCI?authuser=0&hl=en&rclk=1,"17.3662471,78.3961155"
Qutub Shahi Masjid,Mosque,"Qutub Shahi Masjid, 11-2-18/6, Saroor Nagar Rd, Bapu Nagar, S Nagar, Saroornagar, Hyderabad, Telangana 500035","Bapu Nagar, S Nagar","11-2-18/6, Saroor Nagar Rd","Saroornagar, Hyderabad",500035,Telangana,IN,https://www.google.com/maps/place/Qutub+Shahi+Masjid/data=!4m7!3m6!1s0x3bcb988d96908d3f:0xeafd8fd23c54e21b!8m2!3d17.3567931!4d78.530959!16s%2Fg%2F1vyxgwbj!19sChIJP42Qlo2YyzsRG-JUPNKP_eo?authuser=0&hl=en&rclk=1,"17.3567931,78.530959"
Qutub Shahi Masjid,Mosque,"9FM7+M44 Qutub Shahi Masjid, Aghapura Rd, Sharam Bagh, Nampally, Hyderabad, Telangana 500001","Sharam Bagh, Nampally","9FM7+M44, Aghapura Rd",Hyderabad,500001,Telangana,IN,https://www.google.com/maps/place/Qutub+Shahi+Masjid/data=!4m7!3m6!1s0x3bcb977768d7d927:0x5dd1336fc1aba91d!8m2!3d17.3841259!4d78.4628137!16s%2Fg%2F11fzmqxk7q!19sChIJJ9nXaHeXyzsRHamrwW8z0V0?authuser=0&hl=en&rclk=1,"17.3841259,78.4628137"
Qutub Shahi MASJID Imlibun kachiguda,Mosque,"Qutub Shahi MASJID Imlibun kachiguda, Qutub Shahi Masjid, 3-3-80, Kutbi Guda Rd, Sai Nanditha Enclave, Kutbi Guda, Kachiguda, Hyderabad, Telangana 500027","Sai Nanditha Enclave, Kutbi Guda, Kachiguda","Qutub Shahi Masjid, 3-3-80, Kutbi Guda Rd",Hyderabad,500027,Telangana,IN,https://www.google.com/maps/place/Qutub+Shahi+MASJID+Imlibun+kachiguda/data=!4m7!3m6!1s0x3bcb99cee53c511b:0x53ba0e0349be2f7d!8m2!3d17.3898382!4d78.489911!16s%2Fg%2F11c60180_p!19sChIJG1E85c6ZyzsRfS--SQMOulM?authuser=0&hl=en&rclk=1,"17.3898382,78.48991099999999"
JAMA MASJID-E-QUTUB SHAHI,Mosque,"JAMA MASJID-E-QUTUB SHAHI, 8-5-193, Inner Ring Rd, Durga Nagar, Katedhan, Hyderabad, Telangana 500005",Durga Nagar,"8-5-193, Inner Ring Rd","Katedhan, Hyderabad",500005,Telangana,IN,https://www.google.com/maps/place/JAMA+MASJID-E-QUTUB+SHAHI/data=!4m7!3m6!1s0x3bcbbd6c172bf645:0x9e40c954cc4c1429!8m2!3d17.3141294!4d78.44569!16s%2Fg%2F11dzsv7cxp!19sChIJRfYrF2y9yzsRKRRMzFTJQJ4?authuser=0&hl=en&rclk=1,"17.3141294,78.44569"
"Masjid e Qutub Shahi, Badangpet msjd qTb shhy",Mosque,"7GWM+QJR Masjid e Qutub Shahi, Badangpet msjd qTb shhy, Rajiv Swagruha Road, Badangpet, Telangana 500005",,"7GWM+QJR, Rajiv Swagruha Road",Badangpet,500005,Telangana,IN,"https://www.google.com/maps/place/Masjid+e+Qutub+Shahi,+Badangpet+%D9%85%D8%B3%D8%AC%D8%AF+%D9%82%D8%B7%D8%A8+%D8%B4%D8%A7%D9%87%DB%8C%E2%80%AD/data=!4m7!3m6!1s0x3bcba3491015519f:0x1f85fda8086226c6!8m2!3d17.2969916!4d78.5340238!16s%2Fg%2F11h6v0ytxs!19sChIJn1EVEEmjyzsRxiZiCKj9hR8?authuser=0&hl=en&rclk=1","17.2969916,78.5340238"
Masjid E Qutub Shahi,Mosque,"Masjid E Qutub Shahi, Homes, 192, Peerzadiguda Rd, Rayancha Enclave, Sai Aishwarya Layout, Sai Homes, Peerzadiguda, Hyderabad, Telangana 500039","Rayancha Enclave, Sai Aishwarya Layout, Sai Homes, Peerzadiguda","Homes, 192, Peerzadiguda Rd",Hyderabad,500039,Telangana,IN,https://www.google.com/maps/place/Masjid+E+Qutub+Shahi/data=!4m7!3m6!1s0x3bcb9efdc8789575:0xf8bc41192615fd71!8m2!3d17.3904443!4d78.6045136!16s%2Fg%2F11bw541z_c!19sChIJdZV4yP2eyzsRcf0VJhlBvPg?authuser=0&hl=en&rclk=1,"17.3904443,78.60451359999999"
Masjid-E-Mahboob Shahi,Mosque,"Masjid-E-Mahboob Shahi, 5-3-912, Goshamahal Rd, Malakunta, Feelkhana, Hyderabad, Telangana 500012","Malakunta, Feelkhana","5-3-912, Goshamahal Rd",Hyderabad,500012,Telangana,IN,https://www.google.com/maps/place/Masjid-E-Mahboob+Shahi/data=!4m7!3m6!1s0x3bcb977e33002d89:0x643233cd5d89674a!8m2!3d17.383774!4d78.4742297!16s%2Fg%2F11ggr7knyh!19sChIJiS0AM36XyzsRSmeJXc0zMmQ?authuser=0&hl=en&rclk=1,"17.383774,78.4742297"
Masjid E Noor Qutub Shahi masjidWi nuwr quTub shahiy,Mosque,"Masjid E Noor Qutub Shahi masjidWi nuwr quTub shahiy, 8-1-402/116, Gulshan Colony, Qutub Shahi Tombs, Hyderabad, Telangana 500008","Gulshan Colony, Qutub Shahi Tombs",8-1-402/116,Hyderabad,500008,Telangana,IN,https://www.google.com/maps/place/Masjid+E+Noor+Qutub+Shahi+%D9%85%D9%8E%D8%B3%D9%92%D8%AC%D9%90%D8%AF%D9%91%D9%90+%D9%86%D9%8F%D9%88%D8%B1+%D9%82%D9%8F%D8%B7%D9%8F%D8%A8+%D8%B4%D9%8E%D8%A7%DB%81%D9%90%DB%8C%E2%80%AD/data=!4m7!3m6!1s0x3bcb9769b83c0d6d:0xe2a0aef5f13b164!8m2!3d17.3978081!4d78.3963596!16s%2Fg%2F11h6qcz9ym!19sChIJbQ08uGmXyzsRZLETX-8KKg4?authuser=0&hl=en&rclk=1,"17.3978081,78.3963596"
"Masjid e Qutub Shahi, Nadargul",Mosque,"7GFH+2F8 Masjid e Qutub Shahi, Nadargul, Nadergul Road, near small pound, Telangana 501510",,"7GFH+2F8, Nadergul Road, near small pound",,501510,Telangana,IN,"https://www.google.com/maps/place/Masjid+e+Qutub+Shahi,+Nadargul/data=!4m7!3m6!1s0x3bcba3a384b95cb5:0x1473463c85a0b6b1!8m2!3d17.2725495!4d78.5287178!16s%2Fg%2F11f388r5hp!19sChIJtVy5hKOjyzsRsbaghTxGcxQ?authuser=0&hl=en&rclk=1","17.2725495,78.5287178"
Masjid E Qutub shahi,Mosque,"89MC+575 Masjid E Qutub shahi, Don Bosco Nagar - Darga Khaliz Khan Rd, Dargah Khaleej Khan, Hyderabad, Telangana 500086",Dargah Khaleej Khan,"89MC+575, Don Bosco Nagar - Darga Khaliz Khan Rd",Hyderabad,500086,Telangana,IN,https://www.google.com/maps/place/Masjid+E+Qutub+shahi/data=!4m7!3m6!1s0x3bcb95f73b4e1ec1:0x91115274c702342c!8m2!3d17.3328841!4d78.370739!16s%2Fg%2F11g9d2f7mf!19sChIJwR5OO_eVyzsRLDQCx3RSEZE?authuser=0&hl=en&rclk=1,"17.332884099999998,78.370739"
Sunni jamia masjid shahi nagar madari palya,Mosque,"WH9H+962 Sunni jamia masjid shahi nagar madari palya, Paley, Shivamogga, Karnataka 577203",Paley,WH9H+962,Shivamogga,577203,Karnataka,IN,https://www.google.com/maps/place/Sunni+jamia+masjid+shahi+nagar+madari+palya/data=!4m7!3m6!1s0x3bbba91f02bb8747:0x1accb57c1d3383c6!8m2!3d13.9184201!4d75.5779742!16s%2Fg%2F1pyqk6xch!19sChIJR4e7Ah-puzsRxoMzHXy1zBo?authuser=0&hl=en&rclk=1,"13.918420099999999,75.5779742"
Masjid-e-Muzaffar Shahi,Mosque,"8FR5+WPP Masjid-e-Muzaffar Shahi, Bushrath Nagar, Nawab Saheb Kunta, Hyderabad, Telangana 500053","Bushrath Nagar, Nawab Saheb Kunta",8FR5+WPP,Hyderabad,500053,Telangana,IN,https://www.google.com/maps/place/Masjid-e-Muzaffar+Shahi/data=!4m7!3m6!1s0x3bcb97e5ca2fd4a9:0x96ce2330f0274eba!8m2!3d17.3423471!4d78.4593223!16s%2Fg%2F11c5t27qyy!19sChIJqdQvyuWXyzsRuk4n8DAjzpY?authuser=0&hl=en&rclk=1,"17.342347099999998,78.4593223"
Masjid Qutub Shahi,Religious destination,"99HH+QW9 Masjid Qutub Shahi, Ibrahim Bagh, Hyderabad, Telangana 500031",Ibrahim Bagh,99HH+QW9,Hyderabad,500031,Telangana,IN,https://www.google.com/maps/place/Masjid+Qutub+Shahi/data=!4m7!3m6!1s0x3bcb95a365e95ae1:0x5dbe561ae305920c!8m2!3d17.3794205!4d78.3798673!16s%2Fg%2F11k1lk4w6g!19sChIJ4VrpZaOVyzsRDJIF4xpWvl0?authuser=0&hl=en&rclk=1,"17.3794205,78.3798673"
Mahboob Shahi Masjid,Mosque,"Mahboob Shahi Masjid, 500064, Moosa Bowli, Golla Galli, Ghansi Bazaar, Hyderabad, Telangana 500064","Moosa Bowli, Golla Galli, Ghansi Bazaar",500064,Hyderabad,500064,Telangana,IN,https://www.google.com/maps/place/Mahboob+Shahi+Masjid/data=!4m7!3m6!1s0x3bcb978e8b223f25:0xd31075727d92c5b7!8m2!3d17.3640998!4d78.4669321!16s%2Fg%2F11gb3_cl9p!19sChIJJT8ii46XyzsRt8WSfXJ1ENM?authuser=0&hl=en&rclk=1,"17.364099799999998,78.4669321"
SHAHI Masjid,Mosque,"V737+9G5 SHAHI Masjid, Nandikotkur, Andhra Pradesh 518401",,V737+9G5,Nandikotkur,518401,Andhra Pradesh,IN,https://www.google.com/maps/place/SHAHI+Masjid/data=!4m7!3m6!1s0x3bb5ea914797beab:0x7e6920d98a55e0ae!8m2!3d15.8533852!4d78.263862!16s%2Fg%2F11b7q85pgt!19sChIJq76XR5HqtTsRruBVitkgaX4?authuser=0&hl=en&rclk=1,"15.8533852,78.263862"
SHAHI JAMIYA MASJID.. HZ ABJI MIYAN MOHALLAH,Mosque,"M645+WPG SHAHI JAMIYA MASJID.. HZ ABJI MIYAN MOHALLAH, Channapatna, Karnataka 562160",,M645+WPG,Channapatna,562160,Karnataka,IN,https://www.google.com/maps/place/SHAHI+JAMIYA+MASJID..+HZ+ABJI+MIYAN+MOHALLAH/data=!4m7!3m6!1s0x3bae52b8f0e94b8d:0xb1ca74177e0aaf4a!8m2!3d12.6573076!4d77.2093273!16s%2Fg%2F11by_gdpvd!19sChIJjUvp8LhSrjsRSq8Kfhd0yrE?authuser=0&hl=en&rclk=1,"12.6573076,77.2093273"
I-2 medicals,Mosque,"I-2 medicals, Pension mohalla, near Shahi masjid, Penshan Mohalla, Hassan, Karnataka 573201",Penshan Mohalla,"Pension mohalla, near Shahi masjid",Hassan,573201,Karnataka,IN,https://www.google.com/maps/place/I-2+medicals/data=!4m7!3m6!1s0x3ba549eb96dee259:0xe44bc66b75789602!8m2!3d13.0101709!4d76.0917863!16s%2Fg%2F11kk5t83f4!19sChIJWeLelutJpTsRApZ4dWvGS-Q?authuser=0&hl=en&rclk=1,"13.010170899999999,76.0917863"
Masjid Ek Khana Qutub Shahi,Mosque,"9F49+62F Masjid Ek Khana Qutub Shahi, Fatehdarwaza, Ramnas Pura, Hyderabad, Telangana 500065","Fatehdarwaza, Ramnas Pura",9F49+62F,Hyderabad,500065,Telangana,IN,https://www.google.com/maps/place/Masjid+Ek+Khana+Qutub+Shahi/data=!4m7!3m6!1s0x3bcb97f3162b47eb:0x799da9fc02590b31!8m2!3d17.355566!4d78.4675604!16s%2Fg%2F11gcdrxt3f!19sChIJ60crFvOXyzsRMQtZAvypnXk?authuser=0&hl=en&rclk=1,"17.355566,78.4675604"
"Masjid-E-Shahi, Ahle sunnath Wa jamaath",Mosque,"GRP5+39G Masjid-E-Shahi, Ahle sunnath Wa jamaath, River road, Old Haralapur, Harihar, Karnataka 577601",Old Haralapur,"GRP5+39G, River road",Harihar,577601,Karnataka,IN,"https://www.google.com/maps/place/Masjid-E-Shahi,+Ahle+sunnath+Wa+jamaath/data=!4m7!3m6!1s0x3bba29802716e35d:0xe6244f5f476a39dd!8m2!3d14.5351825!4d75.8084565!16s%2Fg%2F11fvmq4wt4!19sChIJXeMWJ4ApujsR3TlqR19PJOY?authuser=0&hl=en&rclk=1","14.5351825,75.80845649999999"
SHAHI JAMIA MASJID OF KOPPAL,Mosque,"SHAHI JAMIA MASJID OF KOPPAL, SAILANPUR 85Q2+FX7 Byali Oni (Mittikera, and, Sailanpur, Karnataka 583231",Byali Oni,"SAILANPUR 85Q2+FX7 Byali Oni (Mittikera, and","Sailanpur, Koppal",583231,Karnataka,IN,https://www.google.com/maps/place/SHAHI+JAMIA+MASJID+OF+KOPPAL/data=!4m7!3m6!1s0x3bb9cb367a9a82bf:0x284de0ef5b13d25c!8m2!3d15.3386867!4d76.1524474!16s%2Fg%2F11cmy5zjt1!19sChIJv4KaejbLuTsRXNITW-_gTSg?authuser=0&hl=en&rclk=1,"15.338686699999998,76.1524474"
Masjid E Qutub Shahi,Mosque,"9JQM+F7C Masjid E Qutub Shahi, Kachavani Singaram, Peerzadiguda, Hyderabad, Telangana 500039","Kachavani Singaram, Peerzadiguda",9JQM+F7C,Hyderabad,500039,Telangana,IN,https://www.google.com/maps/place/Masjid+E+Qutub+Shahi/data=!4m7!3m6!1s0x3bcb9fcaa4192303:0xbee2e67efe71c18!8m2!3d17.3886982!4d78.6331425!16s%2Fg%2F11f__njlpb!19sChIJAyMZpMqfyzsRGBzn72cu7gs?authuser=0&hl=en&rclk=1,"17.3886982,78.63314249999999"
Masjid-E-Qutub Shahi masjidWi quTub shahiy,Mosque,"9FWC+62F Masjid-E-Qutub Shahi masjidWi quTub shahiy, Red Hills, Lakdikapul, Hyderabad, Telangana 500004","Red Hills, Lakdikapul",9FWC+62F,Hyderabad,500004,Telangana,IN,https://www.google.com/maps/place/Masjid-E-Qutub+Shahi+%D9%85%D9%8E%D8%B3%D9%92%D8%AC%D9%90%D8%AF%D9%91%D9%90+%D9%82%D9%8F%D8%B7%D9%8F%D8%A8+%D8%B4%D9%8E%D8%A7%DB%81%D9%90%DB%8C%E2%80%AD/data=!4m7!3m6!1s0x3bcb976384fffb7d:0x2497bdea870b2858!8m2!3d17.395573!4d78.4700456!16s%2Fg%2F11fzb22_v5!19sChIJffv_hGOXyzsRWCgLh-q9lyQ?authuser=0&hl=en&rclk=1,"17.395573,78.47004559999999"
Jama Masjid-e-Qutub Shahi jm` msjd qTb shhy,Mosque,"9C6Q+HJ8 Jama Masjid-e-Qutub Shahi jm` msjd qTb shhy, Asad Baba Nagar, N.M Gudda, Hyderabad, Telangana 500064","Asad Baba Nagar, N.M Gudda",9C6Q+HJ8,Hyderabad,500064,Telangana,IN,https://www.google.com/maps/place/Jama+Masjid-e-Qutub+Shahi+%D8%AC%D8%A7%D9%85%D8%B9+%D9%85%D8%B3%D8%AC%D8%AF+%D9%82%D8%B7%D8%A8+%D8%B4%D8%A7%DB%81%DB%8C%E2%80%AD/data=!4m7!3m6!1s0x3bcb979f62297df7:0x59939e08a5437c8c!8m2!3d17.3614138!4d78.4390676!16s%2Fg%2F11f5q4t8v6!19sChIJ930pYp-XyzsRjHxDpQiek1k?authuser=0&hl=en&rclk=1,"17.361413799999998,78.4390676"
Masjid e afzal yaseen msjdi 'fDl ysyn,Mosque,"Masjid e afzal yaseen msjdi 'fDl ysyn, Qutub shahi enclave, Baba Colony, Qutub Shahi Tombs, Hyderabad, Telangana 500031","Baba Colony, Qutub Shahi Tombs",Qutub shahi enclave,Hyderabad,500031,Telangana,IN,https://www.google.com/maps/place/Masjid+e+afzal+yaseen+%D9%85%D8%B3%D8%AC%D8%AF%D9%90+%D8%A3%D9%81%D8%B6%D9%84+%D9%8A%D8%A7%D8%B3%D9%8A%D9%86%E2%80%AD/data=!4m7!3m6!1s0x3bcb973fc7a2b663:0x3a29dcec80970fb7!8m2!3d17.38937!4d78.390851!16s%2Fg%2F11qmbvsg8s!19sChIJY7aixz-XyzsRtw-XgOzcKTo?authuser=0&hl=en&rclk=1,"17.38937,78.390851"
Shahi Mitti Masjid,Mosque,"Q47H+G28 Shahi Mitti Masjid, Hangal, Karnataka 581104",,Q47H+G28,Hangal,581104,Karnataka,IN,https://www.google.com/maps/place/Shahi+Mitti+Masjid/data=!4m7!3m6!1s0x3bb94ff5d952ea23:0x56cb52cb413b20f6!8m2!3d14.7637766!4d75.1275823!16s%2Fg%2F11r_t1f_ny!19sChIJI-pS2fVPuTsR9iA7QctSy1Y?authuser=0&hl=en&rclk=1,"14.7637766,75.1275823"
Sunni Shahi Masjid,Mosque,"VP67+924 Sunni Shahi Masjid, sayed colony segebagi, Bhadravathi",Indira Nagar,"VP67+924, sayed colony segebagi",Bhadravathi,,Karnataka,IN,https://www.google.com/maps/place/Sunni+Shahi+Masjid/data=!4m7!3m6!1s0x3bbb0001305093fb:0x6762d4281fefb1a9!8m2!3d13.8608865!4d75.7125884!16s%2Fg%2F11cn15qcy8!19sChIJ-5NQMAEAuzsRqbHvHyjUYmc?authuser=0&hl=en&rclk=1,"13.8608865,75.7125884"
Masjid-e-Qutub Shahi masjidWi quTub shahiy,Mosque,"Masjid-e-Qutub Shahi masjidWi quTub shahiy, New Ganga Nagar, Hyderabad, Telangana 500264",New Ganga Nagar,,Hyderabad,,Telangana,IN,https://www.google.com/maps/place/Masjid-e-Qutub+Shahi+%D9%85%D9%8E%D8%B3%D9%92%D8%AC%D9%90%D8%AF%D9%91%D9%90+%D9%82%D9%8F%D8%B7%D9%8F%D8%A8+%D8%B4%D9%8E%D8%A7%DB%81%D9%90%DB%8C%E2%80%AD/data=!4m7!3m6!1s0x3bcb97b997e9407d:0x18dd0eef8b12087b!8m2!3d17.36809!4d78.4478197!16s%2Fg%2F1tplj5hl!19sChIJfUDpl7mXyzsRewgSi-8O3Rg?authuser=0&hl=en&rclk=1,"17.36809,78.4478197"
Masjid e Qutub Shahi,Mosque,"9CJQ+9VH Masjid e Qutub Shahi, Karwan Rd, Haridas Nagar, Gudi Malkapur, Mehdipatnam, Hyderabad, Telangana 500028","Haridas Nagar, Gudi Malkapur, Mehdipatnam","9CJQ+9VH, Karwan Rd",Hyderabad,500028,Telangana,IN,https://www.google.com/maps/place/Masjid+e+Qutub+Shahi/data=!4m7!3m6!1s0x3bcb9707c8734985:0x913b3166dd7c895f!8m2!3d17.380936!4d78.4397195!16s%2Fg%2F1yhbl86cp!19sChIJhUlzyAeXyzsRX4l83WYxO5E?authuser=0&hl=en&rclk=1,"17.380936,78.4397195"
Masjid -E-shahi,Mosque,"GRM3+9JR Masjid -E-shahi, Old Haralapur, Harihar, Karnataka 577601",Old Haralapur,GRM3+9JR,Harihar,577601,Karnataka,IN,https://www.google.com/maps/place/Masjid+-E-shahi/data=!4m7!3m6!1s0x3bba2bd9aaaaaaab:0x65dc11191c3caf6f!8m2!3d14.5334783!4d75.8040021!16s%2Fg%2F11g7z9vl0f!19sChIJq6qqqtkrujsRb688HBkR3GU?authuser=0&hl=en&rclk=1,"14.533478299999999,75.80400209999999"
Masjid e Osman shahi,Mosque,"9FGH+5MC Masjid e Osman shahi, Kaman, Gowliguda, Hyderabad, Telangana 500012","Kaman, Gowliguda",9FGH+5MC,Hyderabad,500012,Telangana,IN,https://www.google.com/maps/place/Masjid+e+Osman+shahi/data=!4m7!3m6!1s0x3bcb990aa2b39359:0x85e3ba6a40463a31!8m2!3d17.3754366!4d78.4791272!16s%2Fg%2F11q8jddnwv!19sChIJWZOzogqZyzsRMTpGQGq644U?authuser=0&hl=en&rclk=1,"17.3754366,78.4791272"
Ayesha Masjid,Mosque,"Ayesha Masjid, ghatparthy road, 3rd cross, Banjigere, Karnataka 577543",3rd cross,ghatparthy road,Banjigere,577543,Karnataka,IN,https://www.google.com/maps/place/Ayesha+Masjid/data=!4m7!3m6!1s0x3bb0b7678cfc35c3:0x417484203097f6a1!8m2!3d14.4674181!4d76.7352904!16s%2Fg%2F11v9_yxxsq!19sChIJwzX8jGe3sDsRofaXMCCEdEE?authuser=0&hl=en&rclk=1,"14.4674181,76.7352904"
Qutub shahi Masjid,Mosque,"Qutub shahi Masjid, Chowdhariguda, Hyderabad, Telangana 500088",Chowdhariguda,,Hyderabad,500088,Telangana,IN,https://www.google.com/maps/place/Qutub+shahi+Masjid/data=!4m7!3m6!1s0x3bcb9fe5c8c6ad6f:0xa1926dcb33cc848b!8m2!3d17.4170258!4d78.6490877!16s%2Fg%2F11mh_jntk7!19sChIJb63GyOWfyzsRi4TMM8ttkqE?authuser=0&hl=en&rclk=1,"17.417025799999998,78.6490877"
Shahi masjid bijapur,Mosque,"RMM7+FH6 Shahi masjid bijapur, Navarasapur, Karnataka 586108",,RMM7+FH6,Navarasapur,,Karnataka,IN,https://www.google.com/maps/place/Shahi+masjid+bijapur/data=!4m7!3m6!1s0x3bc6ff1965bea185:0x2fa8efdf0e3ac9a8!8m2!3d16.8336594!4d75.6638947!16s%2Fg%2F11qm3rv7s3!19sChIJhaG-ZRn_xjsRqMk6Dt_vqC8?authuser=0&hl=en&rclk=1,"16.8336594,75.6638947"
Masjid e Qutub Shahi. masjidWi quTub shahiy,Mosque,"Masjid e Qutub Shahi. masjidWi quTub shahiy, 13-3-857,Near Hazrat Sadaath Baba Nagar, Jiyaguda Rd, Imam Pura, Hyderabad, Telangana 500006","Venkateswara Nagar, Imam Pura","13-3-857,Near Hazrat Sadaath Baba Nagar, Jiyaguda Rd",Hyderabad,500006,Telangana,IN,https://www.google.com/maps/place/Masjid+e+Qutub+Shahi.+%D9%85%D9%8E%D8%B3%D9%92%D8%AC%D9%90%D8%AF%D9%91%D9%90+%D9%82%D9%8F%D8%B7%D9%8F%D8%A8+%D8%B4%D9%8E%D8%A7%DB%81%D9%90%DB%8C%E2%80%AD/data=!4m7!3m6!1s0x3bcb97eb709bc39f:0xae385b834553703e!8m2!3d17.3674966!4d78.4531371!16s%2Fg%2F11h0w9sdzy!19sChIJn8ObcOuXyzsRPnBTRYNbOK4?authuser=0&hl=en&rclk=1,"17.3674966,78.45313709999999"
Jamia Masjid Hazrat Ujale Shah,Mosque,"8FXM+R2W Jamia Masjid Hazrat Ujale Shah, Makthal Wadi, Sultan Shahi, Gowlipura, Hyderabad, Telangana 500065","Makthal Wadi, Sultan Shahi, Gowlipura",8FXM+R2W,Hyderabad,500065,Telangana,IN,https://www.google.com/maps/place/Jamia+Masjid+Hazrat+Ujale+Shah/data=!4m7!3m6!1s0x3bcb99904b3f8a91:0x5506338a53d648f9!8m2!3d17.3496233!4d78.4825683!16s%2Fg%2F11khw4qqzw!19sChIJkYo_S5CZyzsR-UjWU4ozBlU?authuser=0&hl=en&rclk=1,"17.349623299999998,78.4825683"
SHAHI MASJID,Mosque,"875M+J8P SHAHI MASJID, Razak Nagar, Hunsur, Karnataka 571105",Razak Nagar,875M+J8P,Hunsur,,Karnataka,IN,https://www.google.com/maps/place/SHAHI+MASJID/data=!4m7!3m6!1s0x3ba5852a158703b1:0x31145ecfea2c1e87!8m2!3d12.3090948!4d76.2833332!16s%2Fg%2F11j5g2pzsd!19sChIJsQOHFSqFpTsRhx4s6s9eFDE?authuser=0&hl=en&rclk=1,"12.309094799999999,76.2833332"
Shahi Masjid,Mosque,"JMWC+GPP Shahi Masjid, Main Rd, Shahi Mohalla, Gangolli, Karnataka 576216",Shahi Mohalla,"JMWC+GPP, Main Rd",Gangolli,576216,Karnataka,IN,https://www.google.com/maps/place/Shahi+Masjid/data=!4m7!3m6!1s0x3bbc8dc47b500001:0x2c4d0830eb4fe833!8m2!3d13.6463428!4d74.6718343!16s%2Fg%2F11txmzbzf_!19sChIJAQBQe8SNvDsRM-hP6zAITSw?authuser=0&hl=en&rclk=1,"13.6463428,74.6718343"
Masjid e Qutub Shahi,Mosque,"Masjid e Qutub Shahi, Wadi-E-Sana, RCI Rd, Shareef Nagar, Hyderabad, Kurmalguda, Telangana 500005",Shareef Nagar,"Wadi-E-Sana, RCI Rd","Hyderabad, Kurmalguda",500005,Telangana,IN,https://www.google.com/maps/place/Masjid+e+Qutub+Shahi/data=!4m7!3m6!1s0x3bcba391ab5e7529:0x2679ce1ef21018f5!8m2!3d17.2766767!4d78.4984024!16s%2Fg%2F11pghpb0xh!19sChIJKXVeq5GjyzsR9RgQ8h7OeSY?authuser=0&hl=en&rclk=1,"17.2766767,78.4984024"
Qadeem Qutub Shahi Masjid,Mosque,"9FRR+V65 Qadeem Qutub Shahi Masjid, Basant Nagar Colony, Kachiguda, Hyderabad, Telangana 500027","Basant Nagar Colony, Kachiguda",9FRR+V65,Hyderabad,500027,Telangana,IN,https://www.google.com/maps/place/Qadeem+Qutub+Shahi+Masjid/data=!4m7!3m6!1s0x3bcb99dcc62c7e89:0x7ed5a622201a56a1!8m2!3d17.3921323!4d78.4906134!16s%2Fg%2F11h77wprsx!19sChIJiX4sxtyZyzsRoVYaICKm1X4?authuser=0&hl=en&rclk=1,"17.3921323,78.4906134"
Jamiya masjid,Mosque,"Jamiya masjid, Palavvanahalli, Karnataka 577532",,,Palavvanahalli,577532,Karnataka,IN,https://www.google.com/maps/place/Jamiya+masjid/data=!4m7!3m6!1s0x3bb09d29c5b12d91:0xd5a3e30ea7e88493!8m2!3d14.1449219!4d76.4787507!16s%2Fg%2F11q3xn4n3p!19sChIJkS2xxSmdsDsRk4Topw7jo9U?authuser=0&hl=en&rclk=1,"14.1449219,76.47875069999999"
shaahi msiidi ( Shahi masjid),Mosque,"RMQQ+F34 shaahi msiidi ( Shahi masjid), Shastri Nagar, Vijayapura, Karnataka 586102",Shastri Nagar,RMQQ+F34,Vijayapura,586102,Karnataka,IN,https://www.google.com/maps/place/%E0%B2%B6%E0%B2%BE%E0%B2%B9%E0%B2%BF+%E0%B2%AE%E0%B2%B8%E0%B3%80%E0%B2%A6%E0%B2%BF+%28+Shahi+masjid%29/data=!4m7!3m6!1s0x3bc6ff7163b29033:0x12f9ccc59bdc4495!8m2!3d16.8386463!4d75.6877065!16s%2Fg%2F11v3y_wxh2!19sChIJM5CyY3H_xjsRlUTcm8XM-RI?authuser=0&hl=en&rclk=1,"16.8386463,75.68770649999999"
Qutub Shahi masjid,Mosque,"Qutub Shahi masjid, K K R Apartment, Ambience Fort Rd, Radha Krishna Nagar, Attapur, Hyderabad, Telangana 500030",Radha Krishna Nagar,"K K R Apartment, Ambience Fort Rd","Attapur, Hyderabad",500030,Telangana,IN,https://www.google.com/maps/place/Qutub+Shahi+masjid/data=!4m7!3m6!1s0x3bcb97d92c86cdab:0xdab1e0ba1283e7ee!8m2!3d17.3694372!4d78.428164!16s%2Fg%2F11sv91gd5q!19sChIJq82GLNmXyzsR7ueDErrgsdo?authuser=0&hl=en&rclk=1,"17.3694372,78.428164"
Qutub shahi masjid,Mosque,"8CGQ+9H7 Qutub shahi masjid, Tata Nagar, Shivarampally Jagir, Telangana 500052",Tata Nagar,8CGQ+9H7,Shivarampally Jagir,500052,Telangana,IN,https://www.google.com/maps/place/Qutub+shahi+masjid/data=!4m7!3m6!1s0x3bcbbdf8794c7555:0xc15ed00d553959c3!8m2!3d17.3259152!4d78.4389308!16s%2Fg%2F11jvdwllnm!19sChIJVXVMefi9yzsRw1k5VQ3QXsE?authuser=0&hl=en&rclk=1,"17.3259152,78.4389308"
