name,main_category,address,address_ward,address_street,address_city,address_postal_code,address_state,address_country_code,link,coordinates
Sherkhan masjid,Mosque,"Sherkhan masjid, 89, Dane Galli, Shahapur, Belagavi, Karnataka 590003",Shahapur,"89, Dane Galli",Belagavi,590003,Karnataka,IN,https://www.google.com/maps/place/Sherkhan+masjid/data=!4m7!3m6!1s0x3bbf6709b411b277:0xb886aa37ddb2c480!8m2!3d15.8438981!4d74.5164331!16s%2Fg%2F11hzpg_vpw!19sChIJd7IRtAlnvzsRgMSy3Teqhrg?authuser=0&hl=en&rclk=1,"15.843898099999999,74.5164331"
Jamiya Masjid (Darbar Road Belagavi),Mosque,"Jamiya Masjid (Darbar Road Belagavi), 1, Darbar Galli, Khade Bazar, Raviwar Peth, Belagavi, Karnataka 590001","Khade Bazar, Raviwar Peth","1, Darbar Galli",Belagavi,590001,Karnataka,IN,https://www.google.com/maps/place/Jamiya+Masjid+%28Darbar+Road+Belagavi%29/data=!4m7!3m6!1s0x3bbf66ba3e4f0e61:0xaeffa288766d7b79!8m2!3d15.8616081!4d74.5156982!16s%2Fg%2F1tf78k1z!19sChIJYQ5PPrpmvzsReXttdoii_64?authuser=0&hl=en&rclk=1,"15.8616081,74.5156982"
Masjid-E-Khaif- Asad khan society,Mosque,"VGCG+H98 Masjid-E-Khaif- Asad khan society, Ahmed Nagar, Veerbhadra Nagar, Belagavi, Karnataka 590016","Ahmed Nagar, Veerbhadra Nagar",VGCG+H98,Belagavi,590016,Karnataka,IN,https://www.google.com/maps/place/Masjid-E-Khaif-+Asad+khan+society/data=!4m7!3m6!1s0x3bbf66cbb2dfe02d:0xad31d578753a9365!8m2!3d15.8714028!4d74.5259686!16s%2Fg%2F11b6qlccyp!19sChIJLeDfsstmvzsRZZM6dXjVMa0?authuser=0&hl=en&rclk=1,"15.871402799999998,74.5259686"
REHMANIYA MASJID - (Belagavi),Mosque,"VGQ6+359 REHMANIYA MASJID - (Belagavi), Sangameshwar Nagar, Shahu Nagar, Belagavi, Karnataka 590010","Sangameshwar Nagar, Shahu Nagar",VGQ6+359,Belagavi,590010,Karnataka,IN,https://www.google.com/maps/place/REHMANIYA+MASJID+-+%28Belagavi%29/data=!4m7!3m6!1s0x3bbf615ada963ab9:0x416c1dc75d8d6326!8m2!3d15.8876633!4d74.5104783!16s%2Fg%2F11bccd6p7r!19sChIJuTqW2lphvzsRJmONXccdbEE?authuser=0&hl=en&rclk=1,"15.8876633,74.5104783"
Zakariya Masjid- Azam nagar,Mosque,"VGM7+C32 Zakariya Masjid- Azam nagar, 2nd Cross, Azam Nagar, Belagavi, Karnataka 590010",Azam Nagar,"VGM7+C32, 2nd Cross",Belagavi,590010,Karnataka,IN,https://www.google.com/maps/place/Zakariya+Masjid-+Azam+nagar/data=!4m7!3m6!1s0x3bbf614fb8013d43:0xda7a5b19491bc18d!8m2!3d15.8835141!4d74.5126489!16s%2Fg%2F11b6s58_qt!19sChIJQz0BuE9hvzsRjcEbSRlbeto?authuser=0&hl=en&rclk=1,"15.8835141,74.5126489"
Maktab-e-Nomaniya,Mosque,"VGQ7+CPC Maktab-e-Nomaniya, Annapurnawadi, Azam Nagar, Belagavi, Karnataka 590010","Annapurnawadi, Azam Nagar",VGQ7+CPC,Belagavi,590010,Karnataka,IN,https://www.google.com/maps/place/Maktab-e-Nomaniya/data=!4m7!3m6!1s0x3bbf61aca065b48f:0x7d43afaa03703275!8m2!3d15.8885625!4d74.5142656!16s%2Fg%2F11h1m4rp8c!19sChIJj7RloKxhvzsRdTJwA6qvQ30?authuser=0&hl=en&rclk=1,"15.888562499999999,74.5142656"
Bilal Masjid,Mosque,"Bilal Masjid, 42, 3rd Cross Rd, Veerbhadra Nagar, Belagavi, Karnataka 590016",Veerbhadra Nagar,"42, 3rd Cross Rd",Belagavi,590016,Karnataka,IN,https://www.google.com/maps/place/Bilal+Masjid/data=!4m7!3m6!1s0x3bbf66ca09307081:0x48b8aadbaa1a0b11!8m2!3d15.8702711!4d74.5232627!16s%2Fg%2F11h031x83!19sChIJgXAwCcpmvzsREQsaqtuquEg?authuser=0&hl=en&rclk=1,"15.8702711,74.5232627"
Ek Kaman Masjid- Jalgar galli,Mosque,"Ek Kaman Masjid- Jalgar galli, Ek-Kaman Masjid, Khadak Galli, Khade Bazar, Raviwar Peth, Belagavi, Karnataka 590001","Khade Bazar, Raviwar Peth","Ek-Kaman Masjid, Khadak Galli",Belagavi,590001,Karnataka,IN,https://www.google.com/maps/place/Ek+Kaman+Masjid-+Jalgar+galli/data=!4m7!3m6!1s0x3bbf66b08e4c4353:0xe779b3d32d3e97f7!8m2!3d15.863864!4d74.514713!16s%2Fg%2F1pyqm23ts!19sChIJU0NMjrBmvzsR95c-LdOzeec?authuser=0&hl=en&rclk=1,"15.863864,74.514713"
Jamia Masjid (Angol),Mosque,"Jamia Masjid (Angol), Muslim, Zere Galli, Angol, Belagavi, Karnataka 590006",Angol,"Muslim, Zere Galli",Belagavi,590006,Karnataka,IN,https://www.google.com/maps/place/Jamia+Masjid+%28Angol%29/data=!4m7!3m6!1s0x3bbf66785147c923:0xacedde2e0794544a!8m2!3d15.8188197!4d74.5019355!16s%2Fg%2F1ydpvblvs!19sChIJI8lHUXhmvzsRSlSUBy7e7aw?authuser=0&hl=en&rclk=1,"15.818819699999999,74.5019355"
Khusro Masjid - Mahantesh nagar (Belagavi),Mosque,"VGGH+354 Khusro Masjid - Mahantesh nagar (Belagavi), Mahantesh Nagar, Belagavi, Karnataka 590017",Mahantesh Nagar,VGGH+354,Belagavi,590017,Karnataka,IN,https://www.google.com/maps/place/Khusro+Masjid+-+Mahantesh+nagar+%28Belagavi%29/data=!4m7!3m6!1s0x3bbf66cb4d9ce5d9:0xe441be95cf92dbe4!8m2!3d15.8751479!4d74.5279656!16s%2Fg%2F11css6hvmx!19sChIJ2eWcTctmvzsR5NuSz5W-QeQ?authuser=0&hl=en&rclk=1,"15.8751479,74.5279656"
msjid phaij (Masjid Faiz (Sadashiv nagar - Belagavi),Mosque,"VGJ6+P5V msjid phaij (Masjid Faiz (Sadashiv nagar - Belagavi), Ambedkar Nagar, Sadashiv Nagar, Belagavi, Karnataka 590019","Ambedkar Nagar, Sadashiv Nagar",VGJ6+P5V,Belagavi,590019,Karnataka,IN,https://www.google.com/maps/place/%E0%B2%AE%E0%B2%B8%E0%B3%8D%E0%B2%9C%E0%B2%BF%E0%B2%A6%E0%B3%8D+%E0%B2%AB%E0%B3%88%E0%B2%9C%E0%B3%8D+%28Masjid+Faiz+%28Sadashiv+nagar+-+Belagavi%29/data=!4m7!3m6!1s0x3bbf6151c551d36d:0xd00353524389771d!8m2!3d15.8818674!4d74.5104144!16s%2Fg%2F11fxvsmcqb!19sChIJbdNRxVFhvzsRHXeJQ1JTA9A?authuser=0&hl=en&rclk=1,"15.881867399999999,74.5104144"
Belagavi District Markaz,Mosque,"VG68+WJF Belagavi District Markaz, Bagwan Galli, Khade Bazar, Raviwar Peth, Belagavi, Karnataka 590001","Khade Bazar, Raviwar Peth","VG68+WJF, Bagwan Galli",Belagavi,590001,Karnataka,IN,https://www.google.com/maps/place/Belagavi+District+Markaz/data=!4m7!3m6!1s0x3bbf66ba1b3b0b11:0x9679e480d7556576!8m2!3d15.8623169!4d74.5165388!16s%2Fg%2F11c74dmf9_!19sChIJEQs7G7pmvzsRdmVV14DkeZY?authuser=0&hl=en&rclk=1,"15.8623169,74.51653879999999"
Salmania Masjid,Mosque,"VG6P+F54 Salmania Masjid, Maruti Nagar, Gandhi Nagar, Belagavi, Karnataka 590016","Maruti Nagar, Gandhi Nagar",VG6P+F54,Belagavi,590016,Karnataka,IN,https://www.google.com/maps/place/Salmania+Masjid/data=!4m7!3m6!1s0x3bbf66db25e5204f:0xfca29ba1f34677ac!8m2!3d15.8611261!4d74.5354476!16s%2Fg%2F11b8083jz1!19sChIJTyDlJdtmvzsRrHdG86Gbovw?authuser=0&hl=en&rclk=1,"15.8611261,74.5354476"
Noorani Masjid (Qabaristan),Mosque,"VGC6+RX2 Noorani Masjid (Qabaristan), Ayodhya Nagar, Sadashiv Nagar, Belagavi, Karnataka 590019","Ayodhya Nagar, Sadashiv Nagar",VGC6+RX2,Belagavi,590019,Karnataka,IN,https://www.google.com/maps/place/Noorani+Masjid+%28Qabaristan%29/data=!4m7!3m6!1s0x3bbf66b28d911023:0x17db77503dd33aac!8m2!3d15.8720165!4d74.512383!16s%2Fg%2F11cm0c04w0!19sChIJIxCRjbJmvzsRrDrTPVB32xc?authuser=0&hl=en&rclk=1,"15.872016499999999,74.512383"
Masjid-E-Ahle Hadees,Mosque,"Masjid-E-Ahle Hadees, Shetty Galli, Khade Bazar, Raviwar Peth, Belagavi, Karnataka 590001","Khade Bazar, Raviwar Peth",Shetty Galli,Belagavi,590001,Karnataka,IN,https://www.google.com/maps/place/Masjid-E-Ahle+Hadees/data=!4m7!3m6!1s0x3bbf66b75a24bd1d:0x37d1497df2eb48aa!8m2!3d15.863496!4d74.5178208!16s%2Fg%2F11c1s3jq79!19sChIJHb0kWrdmvzsRqkjr8n1J0Tc?authuser=0&hl=en&rclk=1,"15.863496,74.5178208"
Safa Masjid - sphaa msiidi,Mosque,"VG4F+WMR Safa Masjid - sphaa msiidi, Belgaum Fort Area, Belagavi, Karnataka 590016",Belgaum Fort Area,VG4F+WMR,Belagavi,590016,Karnataka,IN,https://www.google.com/maps/place/Safa+Masjid+-+%E0%B2%B8%E0%B2%AB%E0%B2%BE+%E0%B2%AE%E0%B2%B8%E0%B3%80%E0%B2%A6%E0%B2%BF/data=!4m7!3m6!1s0x3bbf66c0b71d84e9:0x65728b5c68d14e8e!8m2!3d15.8573562!4d74.5241276!16s%2Fg%2F1w4vhcfh!19sChIJ6YQdt8BmvzsRjk7RaFyLcmU?authuser=0&hl=en&rclk=1,"15.8573562,74.5241276"
Fauzi Masjid - (phauji msiidi),Mosque,"RGV2+PMF Fauzi Masjid - (phauji msiidi), Hirekodi, Velguem, Camp, Belagavi, Karnataka 590001","Hirekodi, Velguem, Camp",RGV2+PMF,Belagavi,590001,Karnataka,IN,https://www.google.com/maps/place/Fauzi+Masjid+-+%28%E0%B2%AB%E0%B3%8C%E0%B2%9C%E0%B2%BF+%E0%B2%AE%E0%B2%B8%E0%B3%80%E0%B2%A6%E0%B2%BF%29/data=!4m7!3m6!1s0x3bbf669dd06db313:0x31e0393b86cddc36!8m2!3d15.8443182!4d74.5016853!16s%2Fg%2F11b5pktl0w!19sChIJE7Nt0J1mvzsRNtzNhjs54DE?authuser=0&hl=en&rclk=1,"15.8443182,74.50168529999999"
Amina Masjid - Shreenagar,Mosque,"VGMG+7C3 Amina Masjid - Shreenagar, Shree Nagar, Belagavi, Karnataka 590017",Shree Nagar,VGMG+7C3,Belagavi,590017,Karnataka,IN,https://www.google.com/maps/place/Amina+Masjid+-+Shreenagar/data=!4m7!3m6!1s0x3bbf6136f9ac2dd3:0x8f55d2843fee754b!8m2!3d15.8831442!4d74.5260331!16s%2Fg%2F11cjkq2x07!19sChIJ0y2s-TZhvzsRS3XuP4TSVY8?authuser=0&hl=en&rclk=1,"15.883144199999998,74.52603309999999"
Choti Masjid,Mosque,"VG33+MVM Choti Masjid, High St, Camp, Belagavi, Karnataka 590001",Camp,"VG33+MVM, High St",Belagavi,590001,Karnataka,IN,https://www.google.com/maps/place/Choti+Masjid/data=!4m7!3m6!1s0x3bbf66a17a8b17d9:0x6de870672af6aa44!8m2!3d15.8542144!4d74.5046653!16s%2Fg%2F11bw62hzdc!19sChIJ2ReLeqFmvzsRRKr2Kmdw6G0?authuser=0&hl=en&rclk=1,"15.8542144,74.5046653"
Shahi Masjid - shaahi msiidi,Mosque,"VG56+WG9 Shahi Masjid - shaahi msiidi, Bapat Galli, Raviwar Peth, Belagavi, Karnataka 590001",Raviwar Peth,"VG56+WG9, Bapat Galli",Belagavi,590001,Karnataka,IN,https://www.google.com/maps/place/Shahi+Masjid+-+%E0%B2%B6%E0%B2%BE%E0%B2%B9%E0%B2%BF+%E0%B2%AE%E0%B2%B8%E0%B3%80%E0%B2%A6%E0%B2%BF/data=!4m7!3m6!1s0x3bbf66a4d9d0471d:0xcde10995ddc59326!8m2!3d15.8597763!4d74.5113463!16s%2Fg%2F11c6v8n70t!19sChIJHUfQ2aRmvzsRJpPF3ZUJ4c0?authuser=0&hl=en&rclk=1,"15.8597763,74.5113463"
Bara Imam Mali Mohalla Masjid,Mosque,"VG48+HV7 Bara Imam Mali Mohalla Masjid, Patil Galli, Raviwar Peth, Belagavi, Karnataka 590001",Raviwar Peth,"VG48+HV7, Patil Galli",Belagavi,590001,Karnataka,IN,https://www.google.com/maps/place/Bara+Imam+Mali+Mohalla+Masjid/data=!4m7!3m6!1s0x3bbf66bea76f428b:0x50d58743849f63cd!8m2!3d15.8564038!4d74.5171692!16s%2Fg%2F1262c8j1h!19sChIJi0Jvp75mvzsRzWOfhEOH1VA?authuser=0&hl=en&rclk=1,"15.856403799999999,74.5171692"
Madina Masjid,Mosque,"VG63+GPG Madina Masjid, Ganeshpur Rd, Janata colony, Kallehol, Camp, Belagavi, Karnataka 590001","Janata colony, Kallehol, Camp","VG63+GPG, Ganeshpur Rd",Belagavi,590001,Karnataka,IN,https://www.google.com/maps/place/Madina+Masjid/data=!4m7!3m6!1s0x3bbf66a6119d46eb:0xc0478d7b5a3f0fbe!8m2!3d15.8613136!4d74.5043209!16s%2Fg%2F1pyqkz0zy!19sChIJ60adEaZmvzsRvg8_WnuNR8A?authuser=0&hl=en&rclk=1,"15.861313599999999,74.5043209"
Masjid-E-Touheed,Mosque,"Masjid-E-Touheed, Plot 545, Doordarshan Nagar, Sadashiv Nagar, Belagavi, Karnataka 590019","Doordarshan Nagar, Sadashiv Nagar",Plot 545,Belagavi,590019,Karnataka,IN,https://www.google.com/maps/place/Masjid-E-Touheed/data=!4m7!3m6!1s0x3bbf63fde9913b79:0xbbee01e79d7c7f85!8m2!3d15.8798759!4d74.4981044!16s%2Fg%2F11bcclnkhb!19sChIJeTuR6f1jvzsRhX98necB7rs?authuser=0&hl=en&rclk=1,"15.8798759,74.4981044"
jaamiyaa msiidi (Jamia Masjid Navi Galli Shahapura Belagavi,Mosque,"RGQ9+W8V jaamiyaa msiidi (Jamia Masjid Navi Galli Shahapura Belagavi, Shahapur, Belagavi, Karnataka 590003",Shahapur,RGQ9+W8V,Belagavi,590003,Karnataka,IN,https://www.google.com/maps/place/%E0%B2%9C%E0%B2%BE%E0%B2%AE%E0%B2%BF%E0%B2%AF%E0%B2%BE+%E0%B2%AE%E0%B2%B8%E0%B3%80%E0%B2%A6%E0%B2%BF+%28Jamia+Masjid+Navi+Galli+Shahapura+Belagavi/data=!4m7!3m6!1s0x3bbf668df2f6e29f:0xbbc965f5d63700c0!8m2!3d15.8398503!4d74.5182878!16s%2Fg%2F11cn2m7b7t!19sChIJn-L28o1mvzsRwAA31vVlybs?authuser=0&hl=en&rclk=1,"15.8398503,74.5182878"
Raza e mustafa sunni masjid and madrasa,Mosque,"Raza e mustafa sunni masjid and madrasa, Raza Mustafa Masjid, Bauxite Road, Ambedkar Nagar, Siddeshwar Nagar, Belagavi, Karnataka 590019","Ambedkar Nagar, Siddeshwar Nagar","Raza Mustafa Masjid, Bauxite Road",Belagavi,590019,Karnataka,IN,https://www.google.com/maps/place/Raza+e+mustafa+sunni+masjid+and+madrasa/data=!4m7!3m6!1s0x3bbf61576d29fd65:0x59384cbc328bfd75!8m2!3d15.8835554!4d74.5032974!16s%2Fg%2F11fx8bwkkm!19sChIJZf0pbVdhvzsRdf2LMrxMOFk?authuser=0&hl=en&rclk=1,"15.883555399999999,74.5032974"
Masjid-E-HUDA,Mosque,"Masjid-E-HUDA, 1105, NH748, Mahveer Nagar, Belagavi, Karnataka 590014",Mahveer Nagar,"1105, NH748",Belagavi,590014,Karnataka,IN,https://www.google.com/maps/place/Masjid-E-HUDA/data=!4m7!3m6!1s0x3bbf65c3534ae535:0xe6d3f7414536d615!8m2!3d15.8091966!4d74.4877221!16s%2Fg%2F11csr1gpdg!19sChIJNeVKU8NlvzsRFdY2RUH30-Y?authuser=0&hl=en&rclk=1,"15.8091966,74.4877221"
chonga masjid ( masjid -e- mustafa),Mosque,"VG67+F4J chonga masjid ( masjid -e- mustafa), Khade Bazar, Raviwar Peth, Belagavi, Karnataka 590001","Khade Bazar, Raviwar Peth",VG67+F4J,Belagavi,,Karnataka,IN,https://www.google.com/maps/place/chonga+masjid+%28+masjid+-e-+mustafa%29/data=!4m7!3m6!1s0x3bbf66baebc97bdb:0xd7d48c8a89c9ffc9!8m2!3d15.8612163!4d74.5127773!16s%2Fg%2F1pyqm23tt!19sChIJ23vJ67pmvzsRyf_JiYqM1Nc?authuser=0&hl=en&rclk=1,"15.861216299999999,74.5127773"
Siddiqiya Masjid,Mosque,"Siddiqiya Masjid, 191, Sector 2, Sector 3, Shivabasava Nagar, Nehru Nagar, Belagavi, Karnataka 590010","Sector 3, Shivabasava Nagar, Nehru Nagar","191, Sector 2",Belagavi,590010,Karnataka,IN,https://www.google.com/maps/place/Siddiqiya+Masjid/data=!4m7!3m6!1s0x3bbf61498ddbc811:0x7cd3aad0408ac6a6!8m2!3d15.8811377!4d74.52107!16s%2Fg%2F11c46k38tw!19sChIJEcjbjUlhvzsRpsaKQNCq03w?authuser=0&hl=en&rclk=1,"15.8811377,74.52107"
Fatima Masjid- Kotwal. Galli,Mosque,"Fatima Masjid- Kotwal. Galli, 3794, Kotwal Galli, Khade Bazar, Raviwar Peth, Belagavi, Karnataka 590001","Khade Bazar, Raviwar Peth","3794, Kotwal Galli",Belagavi,590001,Karnataka,IN,https://www.google.com/maps/place/Fatima+Masjid-+Kotwal.+Galli/data=!4m7!3m6!1s0x3bbf66b0a9ba43a7:0xe22cbab754be4fe3!8m2!3d15.8624559!4d74.5169863!16s%2Fg%2F1pyqnwrtl!19sChIJp0O6qbBmvzsR40--VLe6LOI?authuser=0&hl=en&rclk=1,"15.862455899999999,74.5169863"
Makka Masjid,Mosque,"VG95+686 Makka Masjid, Kallehol, Camp, Belagavi, Karnataka 590001","Kallehol, Camp",VG95+686,Belagavi,590001,Karnataka,IN,https://www.google.com/maps/place/Makka+Masjid/data=!4m7!3m6!1s0x3bbf66ae7fea3c19:0x1215b33d1c1196f!8m2!3d15.8680491!4d74.5082707!16s%2Fg%2F11xdpvfxk!19sChIJGTzqf65mvzsRbxnB0TNbIQE?authuser=0&hl=en&rclk=1,"15.868049099999999,74.5082707"
Masjid e Gousia,Mosque,"RGC3+HP9 Masjid e Gousia, Vidhya Nagar, Angol, Belagavi, Karnataka 590006","Vidhya Nagar, Angol",RGC3+HP9,Belagavi,590006,Karnataka,IN,https://www.google.com/maps/place/Masjid+e+Gousia/data=!4m7!3m6!1s0x3bbf667945a63433:0xacb51117ffadfc1d!8m2!3d15.8214165!4d74.5043633!16s%2Fg%2F11hbk909bz!19sChIJMzSmRXlmvzsRHfyt_xcRtaw?authuser=0&hl=en&rclk=1,"15.8214165,74.5043633"
Noor Ul Huda Masjid,Mosque,"VGH4+VPQ Noor Ul Huda Masjid, 6th Cross Rd, Ambedkar Nagar, Sadashiv Nagar, Belagavi, Karnataka 590019","Ambedkar Nagar, Sadashiv Nagar","VGH4+VPQ, 6th Cross Rd",Belagavi,590019,Karnataka,IN,https://www.google.com/maps/place/Noor+Ul+Huda+Masjid/data=!4m7!3m6!1s0x3bbf61332d8e3125:0x558ef05d898ae12a!8m2!3d15.8797169!4d74.5068573!16s%2Fg%2F11f776g95g!19sChIJJTGOLTNhvzsRKuGKiV3wjlU?authuser=0&hl=en&rclk=1,"15.8797169,74.5068573"
Fatah Masjid- Shree nagar,Mosque,"VGMG+2JM Fatah Masjid- Shree nagar, Shree Nagar, Belagavi, Karnataka 590017",Shree Nagar,VGMG+2JM,Belagavi,590017,Karnataka,IN,https://www.google.com/maps/place/Fatah+Masjid-+Shree+nagar/data=!4m7!3m6!1s0x3bbf6136f2751e57:0x52c2279c81997f2d!8m2!3d15.8825818!4d74.5265478!16s%2Fg%2F1pyqkwqfh!19sChIJVx518jZhvzsRLX-ZgZwnwlI?authuser=0&hl=en&rclk=1,"15.882581799999999,74.5265478"
Badi Masjid,Mosque,"VG43+9P8 Badi Masjid, Camp, Belagavi, Karnataka 590001",Camp,"VG43+9P8, Camp",Belagavi,590001,Karnataka,IN,https://www.google.com/maps/place/Badi+Masjid/data=!4m7!3m6!1s0x3bbf66a14f1827dd:0x31d638fbfd9dbcac!8m2!3d15.8559137!4d74.5043132!16s%2Fg%2F11dxmnyld5!19sChIJ3ScYT6FmvzsRrLyd_fs41jE?authuser=0&hl=en&rclk=1,"15.855913699999999,74.5043132"
msjid ee hudaa ( Masjid-E-Huda (Belagavi),Mosque,"VGCM+WGJ msjid ee hudaa ( Masjid-E-Huda (Belagavi), Rukmini Nagar, Mahantesh Nagar, Belagavi, Karnataka 590016","Rukmini Nagar, Mahantesh Nagar",VGCM+WGJ,Belagavi,590016,Karnataka,IN,https://www.google.com/maps/place/%E0%B2%AE%E0%B2%B8%E0%B3%8D%E0%B2%9C%E0%B2%BF%E0%B2%A6%E0%B3%8D+%E0%B2%8F+%E0%B2%B9%E0%B3%81%E0%B2%A6%E0%B2%BE+%28+Masjid-E-Huda+%28Belagavi%29/data=!4m7!3m6!1s0x3bbf66cd9ae63873:0x595c2b51899c3e6f!8m2!3d15.8723342!4d74.5337731!16s%2Fg%2F11dyn9x6hd!19sChIJczjmms1mvzsRbz6ciVErXFk?authuser=0&hl=en&rclk=1,"15.8723342,74.53377309999999"
Hanfi Abdalshah Masjid (Belagavi),Mosque,"VGG9+8RG Hanfi Abdalshah Masjid (Belagavi), Ram Nagar, Belagavi, Karnataka 590016",Ram Nagar,VGG9+8RG,Belagavi,590016,Karnataka,IN,https://www.google.com/maps/place/Hanfi+Abdalshah+Masjid+%28Belagavi%29/data=!4m7!3m6!1s0x3bbf614b23fdfc95:0xffb3a722291b2e70!8m2!3d15.8758235!4d74.5195931!16s%2Fg%2F119wd60k9!19sChIJlfz9I0thvzsRcC4bKSKns_8?authuser=0&hl=en&rclk=1,"15.8758235,74.5195931"
"Masjid,Khan-E-Bazar",Mosque,"Masjid,Khan-E-Bazar, 31, Yellur Rd, Omkar Nagar, Vadagoan, Belagavi, Karnataka 590005","Omkar Nagar, Vadagoan","31, Yellur Rd",Belagavi,590005,Karnataka,IN,"https://www.google.com/maps/place/Masjid,Khan-E-Bazar/data=!4m7!3m6!1s0x3bbf668bd291978d:0xb2f94d54a6e35c75!8m2!3d15.8317421!4d74.5182918!16s%2Fg%2F1pyqgsg1w!19sChIJjZeR0otmvzsRdVzjplRN-bI?authuser=0&hl=en&rclk=1","15.8317421,74.5182918"
Al-Aqsa Masjid,Mosque,"VGGG+3F3 Al-Aqsa Masjid, Ashok Nagar, Shivaji Nagar, Belagavi, Karnataka 590016","Ashok Nagar, Shivaji Nagar",VGGG+3F3,Belagavi,590016,Karnataka,IN,https://www.google.com/maps/place/Al-Aqsa+Masjid/data=!4m7!3m6!1s0x3bbf66cb2b4700cd:0x4b298a19c95a41d7!8m2!3d15.8751289!4d74.5261869!16s%2Fg%2F1pyqqych8!19sChIJzQBHK8tmvzsR10FayRmKKUs?authuser=0&hl=en&rclk=1,"15.8751289,74.5261869"
"subhaaniyaa msjid, shaahuu ngr ( Subhaniya Masjid- Shahu nagar)",Mosque,"VGV7+M3J subhaaniyaa msjid, shaahuu ngr ( Subhaniya Masjid- Shahu nagar), Vandan Colony, Shahu Nagar, Belagavi, Karnataka 590010","Vandan Colony, Shahu Nagar",VGV7+M3J,Belagavi,590010,Karnataka,IN,"https://www.google.com/maps/place/%E0%B2%B8%E0%B3%81%E0%B2%AD%E0%B2%BE%E0%B2%A8%E0%B2%BF%E0%B2%AF%E0%B2%BE+%E0%B2%AE%E0%B2%B8%E0%B3%8D%E0%B2%9C%E0%B2%BF%E0%B2%A6%E0%B3%8D,+%E0%B2%B6%E0%B2%BE%E0%B2%B9%E0%B3%82+%E0%B2%A8%E0%B2%97%E0%B2%B0+%28+Subhaniya+Masjid-+Shahu+nagar%29/data=!4m7!3m6!1s0x3bbf6142dffe410b:0x2940f29edeefe00b!8m2!3d15.8942178!4d74.5126303!16s%2Fg%2F11b6c2skmw!19sChIJC0H-30JhvzsRC-Dv3p7yQCk?authuser=0&hl=en&rclk=1","15.8942178,74.5126303"
Masjid E Ali,Mosque,"VG6R+C3W Masjid E Ali, Aman Nagar, Belagavi, Karnataka 590016",Aman Nagar,VG6R+C3W,Belagavi,590016,Karnataka,IN,https://www.google.com/maps/place/Masjid+E+Ali/data=!4m7!3m6!1s0x3bbf66dbd9a2b2bb:0x67add6b9f195599e!8m2!3d15.8611114!4d74.5401978!16s%2Fg%2F11f4m9mgh7!19sChIJu7Ki2dtmvzsRnlmV8bnWrWc?authuser=0&hl=en&rclk=1,"15.861111399999999,74.5401978"
msjid eealphlaa (Masjid-E-Alfalah (Belagavi),Mosque,"VG7J+92V msjid eealphlaa (Masjid-E-Alfalah (Belagavi), Azad Nagar, Old Gandhi Nagar, Belagavi, Karnataka 590016","Azad Nagar, Old Gandhi Nagar",VG7J+92V,Belagavi,590016,Karnataka,IN,https://www.google.com/maps/place/%E0%B2%AE%E0%B2%B8%E0%B3%8D%E0%B2%9C%E0%B2%BF%E0%B2%A6%E0%B3%8D+%E0%B2%8F%E0%B2%85%E0%B2%B2%E0%B3%8D%E0%B2%AB%E0%B2%B2%E0%B2%BE+%28Masjid-E-Alfalah+%28Belagavi%29/data=!4m7!3m6!1s0x3bbf66c5f2f74d01:0xdcf6f0c7a75262c0!8m2!3d15.863492!4d74.530055!16s%2Fg%2F1pyqhbn08!19sChIJAU338sVmvzsRwGJSp8fw9tw?authuser=0&hl=en&rclk=1,"15.863491999999999,74.53005499999999"
Nizamiya Jamiya Masjid Ahle Sunnatul Jamat,Mosque,"Nizamiya Jamiya Masjid Ahle Sunnatul Jamat, nizamiya chowk, Vadagoan, Belagavi, Karnataka 590005",Vadagoan,nizamiya chowk,Belagavi,590005,Karnataka,IN,https://www.google.com/maps/place/Nizamiya+Jamiya+Masjid+Ahle+Sunnatul+Jamat/data=!4m7!3m6!1s0x3bbf66f572594c19:0x61f0bd01faa8b97c!8m2!3d15.8307247!4d74.525182!16s%2Fg%2F11ggb4zg3s!19sChIJGUxZcvVmvzsRfLmo-gG98GE?authuser=0&hl=en&rclk=1,"15.8307247,74.525182"
Kakar Mohalla Masjid,Mosque,"VG34+X7P Kakar Mohalla Masjid, Market Street, Camp, Belagavi, Karnataka 590001",Camp,"VG34+X7P, Market Street, Camp",Belagavi,590001,Karnataka,IN,https://www.google.com/maps/place/Kakar+Mohalla+Masjid/data=!4m7!3m6!1s0x3bbf66a3dc2a31d9:0xd5756cd957d063e3!8m2!3d15.8549684!4d74.5056878!16s%2Fg%2F11c6_d34pm!19sChIJ2TEq3KNmvzsR42PQV9lsddU?authuser=0&hl=en&rclk=1,"15.854968399999999,74.50568779999999"
Yusufiya Masjid- Subhash nagar,Mosque,"VGF9+R87 Yusufiya Masjid- Subhash nagar, Subhash Nagar, Belagavi, Karnataka 590016",Subhash Nagar,VGF9+R87,Belagavi,590016,Karnataka,IN,https://www.google.com/maps/place/Yusufiya+Masjid-+Subhash+nagar/data=!4m7!3m6!1s0x3bbf66b4b4e0818b:0xde4df8ab2e152f59!8m2!3d15.874546!4d74.5183009!16s%2Fg%2F11bwym3pmc!19sChIJi4HgtLRmvzsRWS8VLqv4Td4?authuser=0&hl=en&rclk=1,"15.874545999999999,74.5183009"
Masjid e Zul Hulaifa,Mosque,"VGQW+639 Masjid e Zul Hulaifa, Unnamed Road, Ramteerth Nagar, Lakshmipuri Layout, Auto Nagar, Belagavi, Karnataka 590015","Ramteerth Nagar, Lakshmipuri Layout, Auto Nagar","VGQW+639, Unnamed Road",Belagavi,590015,Karnataka,IN,https://www.google.com/maps/place/Masjid+e+Zul+Hulaifa/data=!4m7!3m6!1s0x3bbf617f965dcf51:0xccf63997125d52b7!8m2!3d15.8880309!4d74.5452421!16s%2Fg%2F11hz9bjvks!19sChIJUc9dln9hvzsRt1JdEpc59sw?authuser=0&hl=en&rclk=1,"15.888030899999999,74.5452421"
"minaaraa msjid (Minara Masjid, Panjibaba, (Belagavi)",Mosque,"VG7F+V9P minaaraa msjid (Minara Masjid, Panjibaba, (Belagavi), Shivaji Nagar, Belagavi, Karnataka 590016",Shivaji Nagar,VG7F+V9P,Belagavi,590016,Karnataka,IN,"https://www.google.com/maps/place/%E0%B2%AE%E0%B2%BF%E0%B2%A8%E0%B2%BE%E0%B2%B0%E0%B2%BE+%E0%B2%AE%E0%B2%B8%E0%B3%8D%E0%B2%9C%E0%B2%BF%E0%B2%A6%E0%B3%8D+%28Minara+Masjid,+Panjibaba,+%28Belagavi%29/data=!4m7!3m6!1s0x3bbf66c81983660b:0xa364c26892855161!8m2!3d15.8647032!4d74.5234612!16s%2Fg%2F11g6rx8bly!19sChIJC2aDGchmvzsRYVGFkmjCZKM?authuser=0&hl=en&rclk=1","15.8647032,74.5234612"
Bashibaan Masjid,Mosque,"Bashibaan Masjid, 3274, Bhendi Bazar, Raviwar Peth, Belagavi, Karnataka 590001",Raviwar Peth,"3274, Bhendi Bazar",Belagavi,590001,Karnataka,IN,https://www.google.com/maps/place/Bashibaan+Masjid/data=!4m7!3m6!1s0x3bbf66ba37c86f13:0x38f481c2e991938c!8m2!3d15.8608247!4d74.5156457!16s%2Fg%2F1263pcw9z!19sChIJE2_IN7pmvzsRjJOR6cKB9Dg?authuser=0&hl=en&rclk=1,"15.860824699999998,74.5156457"
Yasin Masjid Youth Committee Ahle Sunnat Wal Jamat,Mosque,"VGHR+FWH Yasin Masjid Youth Committee Ahle Sunnat Wal Jamat, Revenue Colony, Mahantesh Nagar, Belagavi, Karnataka 590016","Revenue Colony, Mahantesh Nagar",VGHR+FWH,Belagavi,590016,Karnataka,IN,https://www.google.com/maps/place/Yasin+Masjid+Youth+Committee+Ahle+Sunnat+Wal+Jamat/data=!4m7!3m6!1s0x3bbf612b0e62e1c5:0x747badd35b39603a!8m2!3d15.8786953!4d74.5423527!16s%2Fg%2F11c2nht2cf!19sChIJxeFiDithvzsROmA5W9Ote3Q?authuser=0&hl=en&rclk=1,"15.878695299999999,74.5423527"
zakriya masjid,Mosque,"VGV7+3QF zakriya masjid, Unnamed Road, Basava Colony, Vaibhav Nagar, Belagavi, Karnataka 590010","Basava Colony, Vaibhav Nagar","VGV7+3QF, Unnamed Road",Belagavi,590010,Karnataka,IN,https://www.google.com/maps/place/zakriya+masjid/data=!4m7!3m6!1s0x3bbf611bed727c8b:0xe90625ded26a2dbc!8m2!3d15.8926984!4d74.5144261!16s%2Fg%2F11g1lv5325!19sChIJi3xy7RthvzsRvC1q0t4lBuk?authuser=0&hl=en&rclk=1,"15.892698399999999,74.5144261"
Kakar Mohalla Masjid,Mosque,"VG79+2PG Kakar Mohalla Masjid, Khade Bazar, Raviwar Peth, Belagavi, Karnataka 590001","Khade Bazar, Raviwar Peth",VG79+2PG,Belagavi,590001,Karnataka,IN,https://www.google.com/maps/place/Kakar+Mohalla+Masjid/data=!4m7!3m6!1s0x3bbf66b9d026d33b:0xfb63de2825edc172!8m2!3d15.8625598!4d74.5193396!16s%2Fg%2F1pyqgzwbt!19sChIJO9Mm0LlmvzsRcsHtJSjeY_s?authuser=0&hl=en&rclk=1,"15.8625598,74.5193396"
Madina Masjid,Mosque,"WGQH+MF4 Madina Masjid, Kakati, Belagavi, Karnataka 591113",Kakati,WGQH+MF4,Belagavi,591113,Karnataka,IN,https://www.google.com/maps/place/Madina+Masjid/data=!4m7!3m6!1s0x3bbf61beb325f8d7:0x17d89c02f76beed5!8m2!3d15.9391353!4d74.5287136!16s%2Fg%2F1q5bnn66f!19sChIJ1_gls75hvzsR1e5r9wKc2Bc?authuser=0&hl=en&rclk=1,"15.939135299999998,74.5287136"
Masjid Al Huda,Mosque,"VG8J+GF4 Masjid Al Huda, 1st Cross Right, Ujwal Nagar, Gandhi Nagar, Belagavi, Karnataka 590016","Ujwal Nagar, Gandhi Nagar","VG8J+GF4, 1st Cross Right",Belagavi,590016,Karnataka,IN,https://www.google.com/maps/place/Masjid+Al+Huda/data=!4m7!3m6!1s0x3bbf679da38908b9:0x3b513f0b5dd20787!8m2!3d15.8662745!4d74.5311937!16s%2Fg%2F11h1m2sbkr!19sChIJuQiJo51nvzsRhwfSXQs_UTs?authuser=0&hl=en&rclk=1,"15.8662745,74.5311937"
Badruddin Shaha Masjid,Mosque,"VG6M+589 Badruddin Shaha Masjid, 7th Cross Right, New Gandhi Nagar, Gandhi Nagar, Belagavi, Karnataka 590016","New Gandhi Nagar, Gandhi Nagar","VG6M+589, 7th Cross Right",Belagavi,590016,Karnataka,IN,https://www.google.com/maps/place/Badruddin+Shaha+Masjid/data=!4m7!3m6!1s0x3bbf66c4c3dbff9f:0x253203667ffa586c!8m2!3d15.8604165!4d74.5333639!16s%2Fg%2F1pyqj1m_r!19sChIJn__bw8RmvzsRbFj6f2YDMiU?authuser=0&hl=en&rclk=1,"15.8604165,74.5333639"
Masjid-e-Umarfarooq,Mosque,"Masjid-e-Umarfarooq, PB Road 591113, Kakati, Belagavi, Karnataka 591113",Kakati,PB Road 591113,Belagavi,591113,Karnataka,IN,https://www.google.com/maps/place/Masjid-e-Umarfarooq/data=!4m7!3m6!1s0x3bbf61be8036d809:0x222008cd2e3e9abd!8m2!3d15.9380211!4d74.525964!16s%2Fg%2F11fzf09s20!19sChIJCdg2gL5hvzsRvZo-Ls0IICI?authuser=0&hl=en&rclk=1,"15.938021099999998,74.525964"
Usmaniya Masjid,Mosque,"VG6J+JV4 Usmaniya Masjid, New Gandhi Nagar, Gandhi Nagar, Belagavi, Karnataka 590016","New Gandhi Nagar, Gandhi Nagar",VG6J+JV4,Belagavi,590016,Karnataka,IN,https://www.google.com/maps/place/Usmaniya+Masjid/data=!4m7!3m6!1s0x3bbf66c50191af89:0xf89b65a428faff92!8m2!3d15.8615223!4d74.5322008!16s%2Fg%2F1pyqrpryn!19sChIJia-RAcVmvzsRkv_6KKRlm_g?authuser=0&hl=en&rclk=1,"15.861522299999999,74.5322008"
Bilal Masjid,Mosque,"QFVF+WWX Bilal Masjid, Tippusultan Nagar, Piranwadi, Belagavi, Karnataka 590014","Tippusultan Nagar, Piranwadi",QFVF+WWX,Belagavi,590014,Karnataka,IN,https://www.google.com/maps/place/Bilal+Masjid/data=!4m7!3m6!1s0x3bbf659323f247e1:0x1919a95947433e99!8m2!3d15.7948652!4d74.4748726!16s%2Fg%2F11f0_fjvvx!19sChIJ4UfyI5NlvzsRmT5DR1mpGRk?authuser=0&hl=en&rclk=1,"15.794865199999998,74.4748726"
Shahi Masjid (Police Head Quarters),Mosque,"VG99+JWX Shahi Masjid (Police Head Quarters), Belgaum Police Quarters, Shivaji Nagar, Belagavi, Karnataka 590016","Belgaum Police Quarters, Shivaji Nagar",VG99+JWX,Belagavi,590016,Karnataka,IN,https://www.google.com/maps/place/Shahi+Masjid+%28Police+Head+Quarters%29/data=!4m7!3m6!1s0x3bbf66b42afaeff1:0x176f82d4d3a56210!8m2!3d15.8691098!4d74.5198489!16s%2Fg%2F11bxg5xxwp!19sChIJ8e_6KrRmvzsREGKl09SCbxc?authuser=0&hl=en&rclk=1,"15.869109799999999,74.5198489"
Masjid-e-umar,Mosque,"VG9F+F5P Masjid-e-umar, Veerbhadra Nagar, Belagavi, Karnataka 590016",Veerbhadra Nagar,VG9F+F5P,Belagavi,590016,Karnataka,IN,https://www.google.com/maps/place/Masjid-e-umar/data=!4m7!3m6!1s0x3bbf66c9fd8070b3:0x93e55340ac963ea6!8m2!3d15.8687227!4d74.5229478!16s%2Fg%2F11cspslgdw!19sChIJs3CA_clmvzsRpj6WrEBT5ZM?authuser=0&hl=en&rclk=1,"15.8687227,74.5229478"
Masjid-e-Habibiya- Subhash nagar,Mosque,"VGF9+J3J Masjid-e-Habibiya- Subhash nagar, Subhash Nagar, Belagavi, Karnataka 590016",Subhash Nagar,VGF9+J3J,Belagavi,590016,Karnataka,IN,https://www.google.com/maps/place/Masjid-e-Habibiya-+Subhash+nagar/data=!4m7!3m6!1s0x3bbf67321f735eed:0xdac2de5ba4e609b!8m2!3d15.8740927!4d74.5176525!16s%2Fg%2F11fl7vxc07!19sChIJ7V5zHzJnvzsRm2BOuuUtrA0?authuser=0&hl=en&rclk=1,"15.874092699999999,74.5176525"
Jamiya Masjid(Majgaon),Mosque,"RF4V+59G Jamiya Masjid(Majgaon), Tanaji Galli, Majagaon, Belagavi, Karnataka 590008",Majagaon,"RF4V+59G, Tanaji Galli",Belagavi,590008,Karnataka,IN,https://www.google.com/maps/place/Jamiya+Masjid%28Majgaon%29/data=!4m7!3m6!1s0x3bbf65dde178bb79:0x82bd9e1c4c71d84f!8m2!3d15.805429!4d74.4934517!16s%2Fg%2F11d_d1z7ww!19sChIJebt44d1lvzsRT9hxTByevYI?authuser=0&hl=en&rclk=1,"15.805429,74.4934517"
Rehmat Masjid,Mosque,"RGC2+WH8 Rehmat Masjid, Zatpat colony, Angol, Belagavi, Karnataka 590006","Zatpat colony, Angol",RGC2+WH8,Belagavi,590006,Karnataka,IN,https://www.google.com/maps/place/Rehmat+Masjid/data=!4m7!3m6!1s0x3bbf67c45875ad13:0x57177cdd67adfefa!8m2!3d15.8222925!4d74.5014423!16s%2Fg%2F11fjbqglcn!19sChIJE611WMRnvzsR-v6tZ918F1c?authuser=0&hl=en&rclk=1,"15.8222925,74.5014423"
Masjid-E-Sahaba,Mosque,"VG5P+WPR Masjid-E-Sahaba, Gandhi Nagar, Belagavi, Karnataka 590016",Gandhi Nagar,VG5P+WPR,Belagavi,590016,Karnataka,IN,https://www.google.com/maps/place/Masjid-E-Sahaba/data=!4m7!3m6!1s0x3bbf66db1964c9a9:0xeec3d64fdffc645a!8m2!3d15.8598571!4d74.5367656!16s%2Fg%2F1pyqjws1p!19sChIJqclkGdtmvzsRWmT830_Ww-4?authuser=0&hl=en&rclk=1,"15.8598571,74.5367656"
Noorani Masjid(Angol),Mosque,"RG94+F92 Noorani Masjid(Angol), Zare Galli, Sahyadri Colony, Angol, Belagavi, Karnataka 590006","Sahyadri Colony, Angol","RG94+F92, Zare Galli",Belagavi,590006,Karnataka,IN,https://www.google.com/maps/place/Noorani+Masjid%28Angol%29/data=!4m7!3m6!1s0x3bbf67d0125ee5c5:0x34ff6f64ac3e178b!8m2!3d15.8186323!4d74.5058974!16s%2Fg%2F11gxxj4hw3!19sChIJxeVeEtBnvzsRixc-rGRv_zQ?authuser=0&hl=en&rclk=1,"15.818632299999999,74.5058974"
Masjid E Quba- Shree nagar,Mosque,"VGJP+WMQ Masjid E Quba- Shree nagar, Mahantesh Nagar, New Vantamuri, Belagavi, Karnataka 590016",Mahantesh Nagar,VGJP+WMQ,"New Vantamuri, Belagavi",590016,Karnataka,IN,https://www.google.com/maps/place/Masjid+E+Quba-+Shree+nagar/data=!4m7!3m6!1s0x3bbf612e701925ed:0x88becb33b6117121!8m2!3d15.8823473!4d74.53672!16s%2Fg%2F11g6njm4vs!19sChIJ7SUZcC5hvzsRIXERtjPLvog?authuser=0&hl=en&rclk=1,"15.8823473,74.53672"
Usmaniya Sunni Masjid,Mosque,"VGX9+VRC Usmaniya Sunni Masjid, Kamleshwar Nagar, Belagavi, Karnataka 590010",Kamleshwar Nagar,VGX9+VRC,Belagavi,590010,Karnataka,IN,https://www.google.com/maps/place/Usmaniya+Sunni+Masjid/data=!4m7!3m6!1s0x3bbf616a5a0ab58f:0x7db73f503e90681e!8m2!3d15.8996933!4d74.5195049!16s%2Fg%2F11f12r7k4n!19sChIJj7UKWmphvzsRHmiQPlA_t30?authuser=0&hl=en&rclk=1,"15.8996933,74.5195049"
"Mehdaviya Masjid,",Mosque,"WGPH+7CC Mehdaviya Masjid,, Momin Galli, Kakati, Belagavi, Karnataka 591113",Kakati,"WGPH+7CC, Momin Galli, Kakati",Belagavi,591113,Karnataka,IN,"https://www.google.com/maps/place/Mehdaviya+Masjid,/data=!4m7!3m6!1s0x3bbf61bc793835c7:0xa79441422129f38d!8m2!3d15.935679!4d74.5285232!16s%2Fg%2F11hb71wv6m!19sChIJxzU4ebxhvzsRjfMpIUJBlKc?authuser=0&hl=en&rclk=1","15.935678999999999,74.5285232"
Masjid e sumaiyya,Mosque,"Masjid e sumaiyya, Ujwal Nagar main road, 11th Cross Rd, left side, Gandhi Nagar, Belagavi, Karnataka 590016","left side, Gandhi Nagar","Ujwal Nagar main road, 11th Cross Rd",Belagavi,590016,Karnataka,IN,https://www.google.com/maps/place/Masjid+e+sumaiyya/data=!4m7!3m6!1s0x3bbf672ae967f097:0x518901d5df7334fb!8m2!3d15.864463!4d74.5355714!16s%2Fg%2F11j91yd95w!19sChIJl_Bn6SpnvzsR-zRz39UBiVE?authuser=0&hl=en&rclk=1,"15.864462999999999,74.5355714"
Ahmadiyya Masjid,Mosque,"VGFQ+69V Ahmadiyya Masjid, Old Gokak - Belagavi Rd, Rukmini Nagar, Mahantesh Nagar, Belagavi, Karnataka 590017","Rukmini Nagar, Mahantesh Nagar","VGFQ+69V, Old Gokak - Belagavi Rd",Belagavi,590017,Karnataka,IN,https://www.google.com/maps/place/Ahmadiyya+Masjid/data=!4m7!3m6!1s0x3bbf66d3a7a53411:0x55c9809a8d91895c!8m2!3d15.8731188!4d74.5384108!16s%2Fg%2F11g7283t4k!19sChIJETSlp9NmvzsRXImRjZqAyVU?authuser=0&hl=en&rclk=1,"15.873118799999999,74.5384108"
Khatal Masjid,Mosque,"VG59+FFM Khatal Masjid, Raviwar Peth, Belagavi, Karnataka 590001",Raviwar Peth,VG59+FFM,Belagavi,590001,Karnataka,IN,https://www.google.com/maps/place/Khatal+Masjid/data=!4m7!3m6!1s0x3bbf66b940a52469:0xda7873bcfcb385d7!8m2!3d15.8587054!4d74.5186617!16s%2Fg%2F1pyqm13k4!19sChIJaSSlQLlmvzsR14Wz_LxzeNo?authuser=0&hl=en&rclk=1,"15.8587054,74.5186617"
Bara imam masjid (sunni) urf Bepari masjid,Mosque,"Bara imam masjid (sunni) urf Bepari masjid, Jed Galli, Shahapur, Belagavi, Karnataka 590003",Shahapur,Jed Galli,Belagavi,590003,Karnataka,IN,https://www.google.com/maps/place/Bara+imam+masjid+%28sunni%29+urf+Bepari+masjid/data=!4m7!3m6!1s0x3bbf67cdf65e7375:0xf65b3b2664864632!8m2!3d15.8412064!4d74.5170484!16s%2Fg%2F11h0mnrrxb!19sChIJdXNe9s1nvzsRMkaGZCY7W_Y?authuser=0&hl=en&rclk=1,"15.841206399999999,74.5170484"
HAZRAT SHAHWALI ULLAH MASJID,Mosque,"VGX9+RC4 HAZRAT SHAHWALI ULLAH MASJID, Kamleshwar Nagar, Belagavi, Karnataka 590010",Kamleshwar Nagar,VGX9+RC4,Belagavi,590010,Karnataka,IN,https://www.google.com/maps/place/HAZRAT+SHAHWALI+ULLAH+MASJID/data=!4m7!3m6!1s0x3bbf616a47c25b83:0x90de94b66809383f!8m2!3d15.8995007!4d74.5185918!16s%2Fg%2F11hbnfdcft!19sChIJg1vCR2phvzsRPzgJaLaU3pA?authuser=0&hl=en&rclk=1,"15.899500699999999,74.5185918"
Paltan Masjid (Railway Mosque),Mosque,"RGW4+RQP Paltan Masjid (Railway Mosque), Shastri Nagar, Shahapur, Belagavi, Karnataka 590001","Shastri Nagar, Shahapur",RGW4+RQP,Belagavi,590001,Karnataka,IN,https://www.google.com/maps/place/Paltan+Masjid+%28Railway+Mosque%29/data=!4m7!3m6!1s0x3bbf66991680360d:0xc9d73f02c1fdabce!8m2!3d15.8470985!4d74.5069565!16s%2Fg%2F11dxbdd9cz!19sChIJDTaAFplmvzsRzqv9wQI_18k?authuser=0&hl=en&rclk=1,"15.8470985,74.5069565"
Masjid-e-Quba,Mosque,"VG58+9F9 Masjid-e-Quba, Azad Galli, Raviwar Peth, Belagavi, Karnataka 590001",Raviwar Peth,"VG58+9F9, Azad Galli",Belagavi,590001,Karnataka,IN,https://www.google.com/maps/place/Masjid-e-Quba/data=!4m7!3m6!1s0x3bbf66bbe5f597b3:0x482ec2aed81144cc!8m2!3d15.8584097!4d74.516247!16s%2Fg%2F126122gbq!19sChIJs5f15btmvzsRzEQR2K7CLkg?authuser=0&hl=en&rclk=1,"15.8584097,74.51624699999999"
hjrt piir gausiyaa msiidi ( Hazarat Peer Gousiya Masjid),Mosque,"VG76+XHV hjrt piir gausiyaa msiidi ( Hazarat Peer Gousiya Masjid), Kaktives Rd, Khade Bazar, Raviwar Peth, Belagavi, Karnataka 590001","Khade Bazar, Raviwar Peth","VG76+XHV, Kaktives Rd",Belagavi,590001,Karnataka,IN,https://www.google.com/maps/place/%E0%B2%B9%E0%B2%9C%E0%B2%B0%E0%B2%A4%E0%B3%8D+%E0%B2%AA%E0%B3%80%E0%B2%B0%E0%B3%8D+%E0%B2%97%E0%B3%8C%E0%B2%B8%E0%B2%BF%E0%B2%AF%E0%B2%BE+%E0%B2%AE%E0%B2%B8%E0%B3%80%E0%B2%A6%E0%B2%BF+%28+Hazarat+Peer+Gousiya+Masjid%29/data=!4m7!3m6!1s0x3bbf6726d2ecac59:0x524976be8ce0fd28!8m2!3d15.8649976!4d74.5114196!16s%2Fg%2F11f8hyf8qz!19sChIJWazs0iZnvzsRKP3gjL52SVI?authuser=0&hl=en&rclk=1,"15.864997599999999,74.5114196"
Al-mateen Masjid,Mosque,"VGVC+FMV Al-mateen Masjid, Vaibhav Nagar, Belagavi, Karnataka 590010",Vaibhav Nagar,VGVC+FMV,Belagavi,590010,Karnataka,IN,https://www.google.com/maps/place/Al-mateen+Masjid/data=!4m7!3m6!1s0x3bbf619801f170c1:0x4ca8724797b77137!8m2!3d15.8937253!4d74.5216836!16s%2Fg%2F11hz12x7sm!19sChIJwXDxAZhhvzsRN3G3l0dyqEw?authuser=0&hl=en&rclk=1,"15.8937253,74.5216836"
Madina Masjid,Mosque,"Madina Masjid, Hunchanhatti, Kala Nagar, Machhe, Belagavi, Karnataka 590014","Hunchanhatti, Kala Nagar, Machhe",,Belagavi,590014,Karnataka,IN,https://www.google.com/maps/place/Madina+Masjid/data=!4m7!3m6!1s0x3bbf6590f3fc82dd:0xc045e616ccd8eb88!8m2!3d15.7941399!4d74.4660912!16s%2Fg%2F11f_lxls_q!19sChIJ3YL885BlvzsRiOvYzBbmRcA?authuser=0&hl=en&rclk=1,"15.7941399,74.4660912"
Masjid - E - Farooqia,Mosque,"Masjid - E - Farooqia, 7th Cross Rd, Veerbhadra Nagar, Belagavi, Karnataka 590016",Veerbhadra Nagar,7th Cross Rd,Belagavi,590016,Karnataka,IN,https://www.google.com/maps/place/Masjid+-+E+-+Farooqia/data=!4m7!3m6!1s0x3bbf67627fed558b:0x8a881a9371b2fa3e!8m2!3d15.8721704!4d74.5229301!16s%2Fg%2F11h3th15ww!19sChIJi1Xtf2JnvzsRPvqycZMaiIo?authuser=0&hl=en&rclk=1,"15.8721704,74.5229301"
Chandu masjid,Mosque,"VG76+CH4 Chandu masjid, Kaktives Rd, Khade Bazar, Raviwar Peth, Belagavi, Karnataka 590001","Khade Bazar, Raviwar Peth","VG76+CH4, Kaktives Rd",Belagavi,590001,Karnataka,IN,https://www.google.com/maps/place/Chandu+masjid/data=!4m7!3m6!1s0x3bbf67380d015d33:0x8eae57a8bdfa7348!8m2!3d15.8635214!4d74.511444!16s%2Fg%2F11j0j0d8lh!19sChIJM10BDThnvzsRSHP6vahXro4?authuser=0&hl=en&rclk=1,"15.8635214,74.511444"
Hazrat Syed Amin Shah Bukhari Masjid,Mosque,"Hazrat Syed Amin Shah Bukhari Masjid, 3027, Khade Bazaar, Raviwar Peth, Belagavi, Karnataka 590001",Raviwar Peth,"3027, Khade Bazaar",Belagavi,590001,Karnataka,IN,https://www.google.com/maps/place/Hazrat+Syed+Amin+Shah+Bukhari+Masjid/data=!4m7!3m6!1s0x3bbf66b995cf4dab:0x886738d65c13cf67!8m2!3d15.861506!4d74.518356!16s%2Fg%2F1pyqjpks5!19sChIJq03PlblmvzsRZ88TXNY4Z4g?authuser=0&hl=en&rclk=1,"15.861505999999999,74.518356"
msjid ee tooyaabaa ( Masjid -e -Toyaba),Mosque,"msjid ee tooyaabaa ( Masjid -e -Toyaba), R S No,1092/6, Aman Nagar, Belagavi, Karnataka 590016","Aman Nagar, Gandhi Nagar","R S No,1092/6",Belagavi,590016,Karnataka,IN,https://www.google.com/maps/place/%E0%B2%AE%E0%B2%B8%E0%B3%8D%E0%B2%9C%E0%B2%BF%E0%B2%A6%E0%B3%8D+%E0%B2%8F+%E0%B2%A4%E0%B3%8B%E0%B2%AF%E0%B2%BE%E0%B2%AC%E0%B2%BE+%28+Masjid+-e+-Toyaba%29/data=!4m7!3m6!1s0x3bbf676d589d2d67:0xd5226c751d528541!8m2!3d15.8616846!4d74.5371881!16s%2Fg%2F11qrk_m2bb!19sChIJZy2dWG1nvzsRQYVSHXVsItU?authuser=0&hl=en&rclk=1,"15.861684599999998,74.5371881"
Zakriya Masjid,Mosque,"VG6J+799 Zakriya Masjid, Old Gandhi Nagar, Belagavi, Karnataka 590016",Old Gandhi Nagar,VG6J+799,Belagavi,590016,Karnataka,IN,https://www.google.com/maps/place/Zakriya+Masjid/data=!4m7!3m6!1s0x3bbf675c862c99d7:0xe29dc3a3cf872e03!8m2!3d15.860668!4d74.5309972!16s%2Fg%2F11h6fj32hk!19sChIJ15kshlxnvzsRAy6Hz6PDneI?authuser=0&hl=en&rclk=1,"15.860667999999999,74.5309972"
Arafat Mohalla Masjid,Mosque,"QFWC+GPH Arafat Mohalla Masjid, Tipu Nagar, Machhe, Belagavi, Karnataka 590014","Tipu Nagar, Machhe",QFWC+GPH,Belagavi,590014,Karnataka,IN,https://www.google.com/maps/place/Arafat+Mohalla+Masjid/data=!4m7!3m6!1s0x3bbf65b7b5f75e3d:0xe35d564625933fac!8m2!3d15.796311!4d74.4718482!16s%2Fg%2F11glw8ylh7!19sChIJPV73tbdlvzsRrD-TJUZWXeM?authuser=0&hl=en&rclk=1,"15.796311,74.4718482"
msjid eeal phrkaan ( Masjid-E-AL Furqan),Mosque,"VGQQ+4X6 msjid eeal phrkaan ( Masjid-E-AL Furqan), Ramteerth Nagar, Lakshmipuri Layout, Auto Nagar, Belagavi, Karnataka 590015","Ramteerth Nagar, Lakshmipuri Layout, Auto Nagar",VGQQ+4X6,Belagavi,590015,Karnataka,IN,https://www.google.com/maps/place/%E0%B2%AE%E0%B2%B8%E0%B3%8D%E0%B2%9C%E0%B2%BF%E0%B2%A6%E0%B3%8D+%E0%B2%8F%E0%B2%85%E0%B2%B2%E0%B3%8D+%E0%B2%AB%E0%B2%B0%E0%B3%8D%E0%B2%95%E0%B2%BE%E0%B2%A8%E0%B3%8D+%28+Masjid-E-AL+Furqan%29/data=!4m7!3m6!1s0x3bbf6125f8513bfd:0x4a53414b89701101!8m2!3d15.887775!4d74.539893!16s%2Fg%2F11c75ty_n6!19sChIJ_TtR-CVhvzsRARFwiUtBU0o?authuser=0&hl=en&rclk=1,"15.887775,74.53989299999999"
Madina Masjid,Mosque,"WGX8+3GR Madina Masjid, Honaga, Belagavi, Karnataka 591156",Honaga,WGX8+3GR,Belagavi,591156,Karnataka,IN,https://www.google.com/maps/place/Madina+Masjid/data=!4m7!3m6!1s0x3bbf61ec11c35453:0xd7261f130bba895!8m2!3d15.9477483!4d74.5162528!16s%2Fg%2F11fy555j21!19sChIJU1TDEexhvzsRlai7MPFhcg0?authuser=0&hl=en&rclk=1,"15.947748299999999,74.5162528"
"mohmdiiyaa msiidi, bellgaavi (Mohammadiya masjid Belagavi)",Mosque,"VG36+GXP mohmdiiyaa msiidi, bellgaavi (Mohammadiya masjid Belagavi), Mujawar Galli, Raviwar Peth, Belagavi, Karnataka 590001",Raviwar Peth,"VG36+GXP, Mujawar Galli",Belagavi,590001,Karnataka,IN,"https://www.google.com/maps/place/%E0%B2%AE%E0%B3%8A%E0%B2%B9%E0%B2%AE%E0%B2%A6%E0%B3%80%E0%B2%AF%E0%B2%BE+%E0%B2%AE%E0%B2%B8%E0%B3%80%E0%B2%A6%E0%B2%BF,+%E0%B2%AC%E0%B3%86%E0%B2%B3%E0%B2%97%E0%B2%BE%E0%B2%B5%E0%B2%BF+%28Mohammadiya+masjid+Belagavi%29/data=!4m7!3m6!1s0x3bbf67473d9c153f:0xa2b886f9397c50f8!8m2!3d15.8538403!4d74.5124457!16s%2Fg%2F11h3jhzdd_!19sChIJPxWcPUdnvzsR-FB8OfmGuKI?authuser=0&hl=en&rclk=1","15.8538403,74.5124457"
Masjid-e-Asma,Mosque,"Masjid-e-Asma, Police Station, Opp. APMC, Bauxite Road, Belagavi, Karnataka 590010","Ambedkar Nagar, Sadashiv Nagar","Police Station, Opp. APMC, Bauxite Road",Belagavi,590010,Karnataka,IN,https://www.google.com/maps/place/Masjid-e-Asma/data=!4m7!3m6!1s0x3bbf612684126bed:0xdb0a6d24ce278916!8m2!3d15.8838905!4d74.506614!16s%2Fg%2F11fm2bqb4w!19sChIJ7WsShCZhvzsRFoknziRtCts?authuser=0&hl=en&rclk=1,"15.8838905,74.506614"
Masjid E Bilal,Mosque,"VG77+973 Masjid E Bilal, Chandu galli, Opposite Traffic police station, Karnataka 590001","Khade Bazar, Raviwar Peth","VG77+973, Chandu galli, Opposite Traffic police station",Belagavi,590001,Karnataka,IN,https://www.google.com/maps/place/Masjid+E+Bilal/data=!4m7!3m6!1s0x3bbf66b071abe75d:0x7fbcbd255decfe51!8m2!3d15.8633974!4d74.5131652!16s%2Fg%2F11c0rtvrnj!19sChIJXeercbBmvzsRUf7sXSW9vH8?authuser=0&hl=en&rclk=1,"15.863397399999998,74.5131652"
Fort Masjid,Mosque,"VG4F+WMJ Fort Masjid, Belgaum Fort Area, Belagavi, Karnataka 590016",Belgaum Fort Area,VG4F+WMJ,Belagavi,590016,Karnataka,IN,https://www.google.com/maps/place/Fort+Masjid/data=!4m7!3m6!1s0x3bbf66c0b70ee577:0xa7c389ca547a5045!8m2!3d15.8573435!4d74.5241425!16s%2Fg%2F11f3vfyzd5!19sChIJd-UOt8BmvzsRRVB6VMqJw6c?authuser=0&hl=en&rclk=1,"15.857343499999999,74.5241425"
Station Masjid,Mosque,"RGW4+VQ9 Station Masjid, Shastri Nagar, Shahapur, Belagavi, Karnataka 590001","Shastri Nagar, Shahapur",RGW4+VQ9,Belagavi,590001,Karnataka,IN,https://www.google.com/maps/place/Station+Masjid/data=!4m7!3m6!1s0x3bbf67822e2001b3:0x91944d167de0990d!8m2!3d15.8471553!4d74.5069735!16s%2Fg%2F11fjzxkwcl!19sChIJswEgLoJnvzsRDZngfRZNlJE?authuser=0&hl=en&rclk=1,"15.847155299999999,74.5069735"
Masjid e Saad,Mosque,"VG8P+R38 Masjid e Saad, 10th Cross Left, Ujwal Nagar, Gandhi Nagar, Belagavi, Karnataka 590016","Ujwal Nagar, Gandhi Nagar","VG8P+R38, 10th Cross Left",Belagavi,590016,Karnataka,IN,https://www.google.com/maps/place/Masjid+e+Saad/data=!4m7!3m6!1s0x3bbf67474c515d97:0x4e632362642831e3!8m2!3d15.8671256!4d74.5351645!16s%2Fg%2F11j9043y43!19sChIJl11RTEdnvzsR4zEoZGIjY04?authuser=0&hl=en&rclk=1,"15.8671256,74.5351645"
msjid ee nuur ( Masjid E Noor),Mosque,"msjid ee nuur ( Masjid E Noor), 4, 6th Cross Right, Ujwal Nagar, Gandhi Nagar, Belagavi, Karnataka 590016","Ujwal Nagar, Gandhi Nagar","4, 6th Cross Right",Belagavi,590016,Karnataka,IN,https://www.google.com/maps/place/%E0%B2%AE%E0%B2%B8%E0%B3%8D%E0%B2%9C%E0%B2%BF%E0%B2%A6%E0%B3%8D+%E0%B2%8F+%E0%B2%A8%E0%B3%82%E0%B2%B0%E0%B3%8D+%28+Masjid+E+Noor%29/data=!4m7!3m6!1s0x3bbf67093cd0d9df:0xec5bb7d200811f4e!8m2!3d15.8642727!4d74.5332479!16s%2Fg%2F11thsllnjz!19sChIJ39nQPAlnvzsRTh-BANK3W-w?authuser=0&hl=en&rclk=1,"15.864272699999999,74.53324789999999"
KASAB MOHALLA MASJID,Mosque,"VG69+C3J KASAB MOHALLA MASJID, Unnamed Road, Raviwar Peth, Belagavi, Karnataka 590001",Raviwar Peth,"VG69+C3J, Unnamed Road",Belagavi,590001,Karnataka,IN,https://www.google.com/maps/place/KASAB+MOHALLA+MASJID/data=!4m7!3m6!1s0x3bbf678a182c4aad:0x3e06d1c7a9b6cd53!8m2!3d15.8610967!4d74.5176303!16s%2Fg%2F11h4vv08r8!19sChIJrUosGIpnvzsRU822qcfRBj4?authuser=0&hl=en&rclk=1,"15.8610967,74.5176303"
Anagola hajiwali Masjid,Mosque,"RG93+XQ9 Anagola hajiwali Masjid, Vidhya Nagar, Angol, Belagavi, Karnataka 590006","Vidhya Nagar, Angol",RG93+XQ9,Belagavi,590006,Karnataka,IN,https://www.google.com/maps/place/Anagola+hajiwali+Masjid/data=!4m7!3m6!1s0x3bbf6743c78fdaa7:0xc32c0ce84a8c8ae2!8m2!3d15.8199042!4d74.5044738!16s%2Fg%2F11gmy8j7sw!19sChIJp9qPx0NnvzsR4oqMSugMLMM?authuser=0&hl=en&rclk=1,"15.8199042,74.5044738"
nimrh msjid (Nimrah Masjid),Mosque,"nimrh msjid (Nimrah Masjid), Nimrah Nagar, Basav Colony Extension, Bauxite Road, Vaibhav Nagar, Belagavi, Karnataka 590010","Nirah Nagar, Vaibhav Nagar","Nimrah Nagar, Basav Colony Extension, Bauxite Road",Belagavi,590010,Karnataka,IN,https://www.google.com/maps/place/%E0%B2%A8%E0%B2%BF%E0%B2%AE%E0%B3%8D%E0%B2%B0%E0%B2%B9%E0%B3%8D+%E0%B2%AE%E0%B2%B8%E0%B3%8D%E0%B2%9C%E0%B2%BF%E0%B2%A6%E0%B3%8D+%28Nimrah+Masjid%29/data=!4m7!3m6!1s0x3bbf618657b79b5f:0x9a5f955ee23b3cdf!8m2!3d15.893627!4d74.517196!16s%2Fg%2F11nmt6lvsq!19sChIJX5u3V4ZhvzsR3zw74l6VX5o?authuser=0&hl=en&rclk=1,"15.893626999999999,74.517196"
stteeshn drgaa msiidi ( Station Dargha Masjid),Mosque,"VG25+2JJ stteeshn drgaa msiidi ( Station Dargha Masjid), Station Rd, near post office, Camp, Belagavi, Karnataka 590001",Camp,"VG25+2JJ, Station Rd, near post office",Belagavi,590001,Karnataka,IN,https://www.google.com/maps/place/%E0%B2%B8%E0%B3%8D%E0%B2%9F%E0%B3%87%E0%B2%B6%E0%B2%A8%E0%B3%8D+%E0%B2%A6%E0%B2%B0%E0%B3%8D%E0%B2%97%E0%B2%BE+%E0%B2%AE%E0%B2%B8%E0%B3%80%E0%B2%A6%E0%B2%BF+%28+Station+Dargha+Masjid%29/data=!4m7!3m6!1s0x3bbf67e8c3a21a99:0x4a38fc5a3b4af40f!8m2!3d15.8500842!4d74.5090048!16s%2Fg%2F11fhz724zq!19sChIJmRqiw-hnvzsRD_RKO1r8OEo?authuser=0&hl=en&rclk=1,"15.8500842,74.5090048"
Masjid e Abu bakar,Mosque,"VG7H+WGC Masjid e Abu bakar, 3rd Cross 'A', Azad Nagar, Old Gandhi Nagar, Belagavi, Karnataka 590016","Azad Nagar, Old Gandhi Nagar","VG7H+WGC, 3rd Cross 'A'",Belagavi,590016,Karnataka,IN,https://www.google.com/maps/place/Masjid+e+Abu+bakar/data=!4m7!3m6!1s0x3bbf674c26b15a79:0xaadc5d875da138cc!8m2!3d15.8648045!4d74.5287566!16s%2Fg%2F11fslxn2cb!19sChIJeVqxJkxnvzsRzDihXYdd3Ko?authuser=0&hl=en&rclk=1,"15.8648045,74.5287566"
msjid ee ali ( Masjid E ali),Mosque,"VG7R+VR8 msjid ee ali ( Masjid E ali), Airport Rd, Belagavi, Karnataka 590016",,"VG7R+VR8, Airport Rd",Belagavi,590016,Karnataka,IN,https://www.google.com/maps/place/%E0%B2%AE%E0%B2%B8%E0%B3%8D%E0%B2%9C%E0%B2%BF%E0%B2%A6%E0%B3%8D+%E0%B2%8F+%E0%B2%85%E0%B2%B2%E0%B2%BF+%28+Masjid+E+ali%29/data=!4m7!3m6!1s0x3bbf67b2cdf7193b:0x30b17ed2b8aa90ee!8m2!3d15.8646644!4d74.5420637!16s%2Fg%2F11nny0jhmz!19sChIJOxn3zbJnvzsR7pCquNJ-sTA?authuser=0&hl=en&rclk=1,"15.864664399999999,74.5420637"
Chonga masjid Belagavi,Mosque,"VG67+94Q Chonga masjid Belagavi, Shanivar Khoot, Khade Bazar, Raviwar Peth, Belagavi, Karnataka 590001","Khade Bazar, Raviwar Peth","VG67+94Q, Shanivar Khoot",Belagavi,590001,Karnataka,IN,https://www.google.com/maps/place/Chonga+masjid+Belagavi/data=!4m7!3m6!1s0x3bbf671f50f837d7:0xe11c7846ddb3d31f!8m2!3d15.860959!4d74.512846!16s%2Fg%2F11fj4bzxmq!19sChIJ1zf4UB9nvzsRH9Oz3UZ4HOE?authuser=0&hl=en&rclk=1,"15.860959,74.512846"
Masjid E Fatima,Mosque,"VG9J+6C9 Masjid E Fatima, Gandhi Nagar, Belagavi, Karnataka 590016",Gandhi Nagar,VG9J+6C9,Belagavi,590016,Karnataka,IN,https://www.google.com/maps/place/Masjid+E+Fatima/data=!4m7!3m6!1s0x3bbf6760d008ea23:0x807abfe0e9bec7eb!8m2!3d15.8680407!4d74.5311122!16s%2Fg%2F11fp2vj0q7!19sChIJI-oI0GBnvzsR68e-6eC_eoA?authuser=0&hl=en&rclk=1,"15.8680407,74.5311122"
Masjid e Bilal,Mosque,"VGRC+XMJ Masjid e Bilal, Vaibhav Nagar, Rahmath Nagar, Belagavi, Karnataka 590010",Rahmath Nagar,"VGRC+XMJ, Vaibhav Nagar",Belagavi,590010,Karnataka,IN,https://www.google.com/maps/place/Masjid+e+Bilal/data=!4m7!3m6!1s0x3bbf61e918c5ce93:0xe7e69510a799a9d0!8m2!3d15.8924538!4d74.521627!16s%2Fg%2F11r_pqn6sd!19sChIJk87FGOlhvzsR0KmZpxCV5uc?authuser=0&hl=en&rclk=1,"15.892453799999998,74.521627"
Masjid Hudebiya,Mosque,"VGHR+GVC Masjid Hudebiya, Revenue Colony, Mahantesh Nagar, Belagavi, Karnataka 590016","Revenue Colony, Mahantesh Nagar",VGHR+GVC,Belagavi,590016,Karnataka,IN,https://www.google.com/maps/place/Masjid+Hudebiya/data=!4m7!3m6!1s0x3bbf619f87da707b:0x8264e5a4977f01aa!8m2!3d15.8789923!4d74.5420932!16s%2Fg%2F11q3j7y4jl!19sChIJe3Dah59hvzsRqgF_l6TlZII?authuser=0&hl=en&rclk=1,"15.878992299999998,74.5420932"
msjid ee hsaanain ( Masjid E Hasanain (Suni),Mosque,"VG8M+R5C msjid ee hsaanain ( Masjid E Hasanain (Suni), 2nd Cross Left Rd, Ujwal Nagar, Gandhi Nagar, Belagavi, Karnataka 590016","Ujwal Nagar, Gandhi Nagar","VG8M+R5C, 2nd Cross Left Rd",Belagavi,590016,Karnataka,IN,https://www.google.com/maps/place/%E0%B2%AE%E0%B2%B8%E0%B3%8D%E0%B2%9C%E0%B2%BF%E0%B2%A6%E0%B3%8D+%E0%B2%8F+%E0%B2%B9%E0%B2%B8%E0%B2%BE%E0%B2%A8%E0%B3%88%E0%B2%A8%E0%B3%8D+%28+Masjid+E+Hasanain+%28Suni%29/data=!4m7!3m6!1s0x3bbf67d6f447bdc3:0x93aa788d46478027!8m2!3d15.8670586!4d74.5328779!16s%2Fg%2F11thslrm2t!19sChIJw71H9NZnvzsRJ4BHRo14qpM?authuser=0&hl=en&rclk=1,"15.8670586,74.5328779"
Masjid E Muhammadiya,Mosque,"VG7H+6F8 Masjid E Muhammadiya, 3rd Cross 'B', Azad Nagar, Belagavi, Karnataka 590016",Azad Nagar,"VG7H+6F8, 3rd Cross 'B'",Belagavi,590016,Karnataka,IN,https://www.google.com/maps/place/Masjid+E+Muhammadiya/data=!4m7!3m6!1s0x3bbf67d66e792bcd:0xf3da579642d4b35d!8m2!3d15.863031!4d74.5286928!16s%2Fg%2F11fvp9kf05!19sChIJzSt5btZnvzsRXbPUQpZX2vM?authuser=0&hl=en&rclk=1,"15.863031,74.5286928"
Masjid,Mosque,"VG36+8P9 Masjid, Raviwar Peth, Belagavi, Karnataka 590001",Raviwar Peth,VG36+8P9,Belagavi,590001,Karnataka,IN,https://www.google.com/maps/place/Masjid/data=!4m7!3m6!1s0x3bbf67285a530d9d:0x351dfa2d3fa2efff!8m2!3d15.853291!4d74.5118638!16s%2Fg%2F11gxthk15c!19sChIJnQ1TWihnvzsR_--iPy36HTU?authuser=0&hl=en&rclk=1,"15.853290999999999,74.5118638"
msjid ee aksaa ( Masjid e aqsa),Mosque,"VGCG+V65 msjid ee aksaa ( Masjid e aqsa), Ashok Nagar, Shivaji Nagar, Belagavi, Karnataka 590016","Ashok Nagar, Shivaji Nagar",VGCG+V65,Belagavi,590016,Karnataka,IN,https://www.google.com/maps/place/%E0%B2%AE%E0%B2%B8%E0%B3%8D%E0%B2%9C%E0%B2%BF%E0%B2%A6%E0%B3%8D+%E0%B2%8F+%E0%B2%85%E0%B2%95%E0%B3%8D%E0%B2%B8%E0%B2%BE+%28+Masjid+e+aqsa%29/data=!4m7!3m6!1s0x3bbf67226b2c8f9f:0x52533d13021b3b65!8m2!3d15.8721444!4d74.5255992!16s%2Fg%2F11q4c74qxv!19sChIJn48sayJnvzsRZTsbAhM9U1I?authuser=0&hl=en&rclk=1,"15.8721444,74.5255992"
MASJID-E-ILYAS,Mosque,"VGGR+F5P MASJID-E-ILYAS, Unnamed Road, Rukmini Nagar, Mahantesh Nagar, Belagavi, Karnataka 590016","Rukmini Nagar, Mahantesh Nagar","VGGR+F5P, Unnamed Road",Belagavi,590016,Karnataka,IN,https://www.google.com/maps/place/MASJID-E-ILYAS/data=!4m7!3m6!1s0x3bbf6784c6e8844f:0x5de83e25bcb90c22!8m2!3d15.8762125!4d74.5404603!16s%2Fg%2F11hz9lm65m!19sChIJT4ToxoRnvzsRIgy5vCU-6F0?authuser=0&hl=en&rclk=1,"15.8762125,74.54046029999999"
msjid ee mhmmdiiyaa ( Masjid E Mohammadiya),Mosque,"VGC9+239 msjid ee mhmmdiiyaa ( Masjid E Mohammadiya), Belgaum Police Quarters, Shivaji Nagar, Belagavi, Karnataka 590016","Belgaum Police Quarters, Shivaji Nagar",VGC9+239,Belagavi,590016,Karnataka,IN,https://www.google.com/maps/place/%E0%B2%AE%E0%B2%B8%E0%B3%8D%E0%B2%9C%E0%B2%BF%E0%B2%A6%E0%B3%8D+%E0%B2%8F+%E0%B2%AE%E0%B2%B9%E0%B2%AE%E0%B3%8D%E0%B2%AE%E0%B2%A6%E0%B3%80%E0%B2%AF%E0%B2%BE+%28+Masjid+E+Mohammadiya%29/data=!4m7!3m6!1s0x3bbf67e0fd322003:0x898f8ae7edf5a34e!8m2!3d15.8700441!4d74.5177362!16s%2Fg%2F11t__y58cp!19sChIJAyAy_eBnvzsRTqP17eeKj4k?authuser=0&hl=en&rclk=1,"15.8700441,74.5177362"
ayeesha Masjid,Mosque,"VG58+JHM ayeesha Masjid, Azad Galli, Raviwar Peth, Neginhal, Belagavi, Karnataka 590001",Raviwar Peth,"VG58+JHM, Azad Galli","Neginhal, Belagavi",590001,Karnataka,IN,https://www.google.com/maps/place/ayeesha+Masjid/data=!4m7!3m6!1s0x3bbf67ccfc08dacb:0xd5ceecbe563f519d!8m2!3d15.8590766!4d74.5164346!16s%2Fg%2F11h4t7n1tv!19sChIJy9oI_MxnvzsRnVE_Vr7sztU?authuser=0&hl=en&rclk=1,"15.8590766,74.5164346"
Bilal Masjid Sunni,Mosque,"Bilal Masjid Sunni, 42, 2nd Cross Rd, Veerbhadra Nagar, Belagavi, Karnataka 590016",Veerbhadra Nagar,"42, 2nd Cross Rd",Belagavi,590016,Karnataka,IN,https://www.google.com/maps/place/Bilal+Masjid+Sunni/data=!4m7!3m6!1s0x3bbf6721ce72039d:0x64e19f329199c64d!8m2!3d15.869708!4d74.5229008!16s%2Fg%2F11j7vr6l03!19sChIJnQNyziFnvzsRTcaZkTKf4WQ?authuser=0&hl=en&rclk=1,"15.869708,74.5229008"
MASJID AL AQSA AHLE SUNNAT WAL JAMAT,Mosque,"QFW9+RXV MASJID AL AQSA AHLE SUNNAT WAL JAMAT, Aman Mohalla, Hunchanhatti, Bahubali Nagar, Machhe, Belagavi, Karnataka 590014","Hunchanhatti, Bahubali Nagar, Machhe","QFW9+RXV, Aman Mohalla",Belagavi,590014,Karnataka,IN,https://www.google.com/maps/place/MASJID+AL+AQSA+AHLE+SUNNAT+WAL+JAMAT/data=!4m7!3m6!1s0x3bbf65759eab8a8b:0x746c7f43202e9f86!8m2!3d15.7970807!4d74.470347!16s%2Fg%2F11kpmw147k!19sChIJi4qrnnVlvzsRhp8uIEN_bHQ?authuser=0&hl=en&rclk=1,"15.797080699999999,74.47034699999999"
Iqbal Masjid,Mosque,"VHX8+8P5 Iqbal Masjid, Unnamed Road, Sagar Nagar Slum, Kanbargi, Belagavi, Karnataka 590015","Sagar Nagar Slum, Kanbargi","VHX8+8P5, Unnamed Road",Belagavi,590015,Karnataka,IN,https://www.google.com/maps/place/Iqbal+Masjid/data=!4m7!3m6!1s0x3bbf610c0369ea27:0xb0d9ea2288a91117!8m2!3d15.8982564!4d74.5668688!16s%2Fg%2F11qpm5g319!19sChIJJ-ppAwxhvzsRFxGpiCLq2bA?authuser=0&hl=en&rclk=1,"15.8982564,74.5668688"
Noorani Masjid (Gandhinagara),Mosque,"VG4H+HHX Noorani Masjid (Gandhinagara), New Gandhi Nagar, Gandhi Nagar, Belagavi, Karnataka 590016","New Gandhi Nagar, Gandhi Nagar",VG4H+HHX,Belagavi,590016,Karnataka,IN,https://www.google.com/maps/place/Noorani+Masjid+%28Gandhinagara%29/data=!4m7!3m6!1s0x3bbf67b36fa5fe81:0xdb0dcd7a71d64690!8m2!3d15.8564795!4d74.5289805!16s%2Fg%2F11kj2cjzt_!19sChIJgf6lb7NnvzsRkEbWcXrNDds?authuser=0&hl=en&rclk=1,"15.856479499999999,74.5289805"
Masjid-e-muradali,Mosque,"RGX5+XPM Masjid-e-muradali, Camp, Belagavi, Karnataka 590001",Camp,RGX5+XPM,Belagavi,590001,Karnataka,IN,https://www.google.com/maps/place/Masjid-e-muradali/data=!4m7!3m6!1s0x3bbf6792bf22de3f:0x9cd5f6b65ad24782!8m2!3d15.8499668!4d74.5092842!16s%2Fg%2F11h1z1yndk!19sChIJP94iv5JnvzsRgkfSWrb21Zw?authuser=0&hl=en&rclk=1,"15.849966799999999,74.5092842"
Zubairiya masjid,Mosque,"VG4M+WW9 Zubairiya masjid, Airport Rd, near SC. Motors, Maruti Nagar, Gandhi Nagar, Belagavi, Karnataka 590016","Maruti Nagar, Gandhi Nagar","VG4M+WW9, Airport Rd, near SC. Motors",Belagavi,590016,Karnataka,IN,https://www.google.com/maps/place/Zubairiya+masjid/data=!4m7!3m6!1s0x3bbf67f7577dd76d:0x77ebeef8a9d2f192!8m2!3d15.8572822!4d74.5348707!16s%2Fg%2F11jcjg3qdx!19sChIJbdd9V_dnvzsRkvHSqfju63c?authuser=0&hl=en&rclk=1,"15.857282199999998,74.5348707"
Mosque,Mosque,"VGH4+WP5 Mosque, Ambedkar Nagar, Sadashiv Nagar, Belagavi, Karnataka 590019","Ambedkar Nagar, Sadashiv Nagar",VGH4+WP5,Belagavi,590019,Karnataka,IN,https://www.google.com/maps/place/Mosque/data=!4m7!3m6!1s0x3bbf61e388942e29:0xf03496f393288d6b!8m2!3d15.8797518!4d74.5068663!16s%2Fg%2F11g1lstk60!19sChIJKS6UiONhvzsRa40ok_OWNPA?authuser=0&hl=en&rclk=1,"15.8797518,74.5068663"
E Noor Ashrafi Masjid,Mosque,"E Noor Ashrafi Masjid, 1, Darbar Galli, Khade Bazar, Raviwar Peth, Belagavi, Karnataka 590001","Khade Bazar, Raviwar Peth","1, Darbar Galli",Belagavi,590001,Karnataka,IN,https://www.google.com/maps/place/E+Noor+Ashrafi+Masjid/data=!4m7!3m6!1s0x3bbf66ba15608239:0xb3ca13cd93111bb8!8m2!3d15.8623576!4d74.5157874!16s%2Fg%2F1pyqw13n8!19sChIJOYJgFbpmvzsRuBsRk80TyrM?authuser=0&hl=en&rclk=1,"15.8623576,74.5157874"
Masjid,Mosque,"VHX8+6P6 Masjid, Sagar Nagar Slum, Kanbargi, Belagavi, Karnataka 590015","Sagar Nagar Slum, Kanbargi",VHX8+6P6,Belagavi,590015,Karnataka,IN,https://www.google.com/maps/place/Masjid/data=!4m7!3m6!1s0x3bbf60c1002672a1:0xc9a19419d7c395da!8m2!3d15.8980309!4d74.5667744!16s%2Fg%2F11gcfx4ffw!19sChIJoXImAMFgvzsR2pXD1xmUock?authuser=0&hl=en&rclk=1,"15.898030899999998,74.5667744"
Masjid e Rahmatul Lil Aalameen,Mosque,"VG79+94C Masjid e Rahmatul Lil Aalameen, Shetty Galli, Khade Bazar, Raviwar Peth, Belagavi, Karnataka 590001","Khade Bazar, Raviwar Peth","VG79+94C, Shetty Galli",Belagavi,590001,Karnataka,IN,https://www.google.com/maps/place/Masjid+e+Rahmatul+Lil+Aalameen/data=!4m7!3m6!1s0x3bbf66b757610001:0x96a0a12412836b38!8m2!3d15.863436!4d74.5177529!16s%2Fg%2F11kj3f7lnb!19sChIJAQBhV7dmvzsROGuDEiShoJY?authuser=0&hl=en&rclk=1,"15.863436,74.51775289999999"
Masjid AL Khizra (msiidi al khijraa),Mosque,"VG77+2W5 Masjid AL Khizra (msiidi al khijraa), Khanjar Galli, Khade Bazar, Raviwar Peth, Belagavi, Karnataka 590001","Khade Bazar, Raviwar Peth","VG77+2W5, Khanjar Galli",Belagavi,590001,Karnataka,IN,https://www.google.com/maps/place/Masjid+AL+Khizra+%28%E0%B2%AE%E0%B2%B8%E0%B3%80%E0%B2%A6%E0%B2%BF+%E0%B2%85%E0%B2%B2%E0%B3%8D+%E0%B2%96%E0%B2%BF%E0%B2%9C%E0%B3%8D%E0%B2%B0%E0%B2%BE%29/data=!4m7!3m6!1s0x3bbf675573143883:0xdd2dc40584271cbd!8m2!3d15.8625157!4d74.5148685!16s%2Fg%2F11q99p0727!19sChIJgzgUc1VnvzsRvRwnhAXELd0?authuser=0&hl=en&rclk=1,"15.8625157,74.51486849999999"
Jamiet masjid,Mosque,"VGR9+XMQ Jamiet masjid, Vaibhav Nagar, Belagavi, Karnataka 590010",Vaibhav Nagar,VGR9+XMQ,Belagavi,590010,Karnataka,IN,https://www.google.com/maps/place/Jamiet+masjid/data=!4m7!3m6!1s0x3bbf6184bf77597f:0x4f05cd0f47039093!8m2!3d15.8924508!4d74.5192206!16s%2Fg%2F11vdnvz3d0!19sChIJf1l3v4RhvzsRk5ADRw_NBU8?authuser=0&hl=en&rclk=1,"15.892450799999999,74.5192206"
