name,main_category,address,address_ward,address_street,address_city,address_postal_code,address_state,address_country_code,link,coordinates
Jamiat Ahl-e Hadith Kaghaznagar,Religious organization,"Jamiat Ahl-e Hadith Kaghaznagar, Al-Masjid Al-Salafiyya Umm Ul Momi'neen Aisha Siddiqa Raadhiallahu Anha, Indira Market, Sriram Nagar, Kagaznagar, Telangana 504296","Indira Market, Sriram Nagar",Al-Masjid Al-Salafiyya Umm Ul Momi'neen Aisha Siddiqa Raadhiallahu Anha,Kagaznagar,504296,Telangana,IN,https://www.google.com/maps/place/Jamiat+Ahl-e+Hadith+Kaghaznagar/data=!4m7!3m6!1s0x3a2d56bb0489a763:0xb8fad4781e849f87!8m2!3d19.3432841!4d79.4839188!16s%2Fg%2F11c76mmmtl!19sChIJY6eJBLtWLToRh5-EHnjU-rg?authuser=0&hl=en&rclk=1,"19.343284099999998,79.4839188"
"Masid E Minar, IB Tandur",Mosque,"Masid E Minar, IB Tandur, 3""E, State Highway 2, Thiru Vi Ka Indl Estate, Thiru Vi Ka Industrial Estate, West Saidapet, Chennai, 600032",,"3""E, State Highway 2, Thiru Vi Ka Indl Estate, Thiru Vi Ka Industrial Estate, West Saidapet","Chennai, Tandur",600032,Telangana,IN,"https://www.google.com/maps/place/Masid+E+Minar,+IB+Tandur/data=!4m7!3m6!1s0x3a32ac70447ebbcb:0x4fdec0dfabd28dd5!8m2!3d19.1581003!4d79.4384271!16s%2Fg%2F11f352mymv!19sChIJy7t-RHCsMjoR1Y3Sq9_A3k8?authuser=0&hl=en&rclk=1","19.158100299999997,79.4384271"
Masjid al-Kausar,Mosque,"8FQH+H37 Masjid al-Kausar, 1-14-71/1, Kausar Nagar, Sriram Nagar, Kagaznagar, Telangana 504296","Kausar Nagar, Sriram Nagar","8FQH+H37, 1-14-71/1",Kagaznagar,504296,Telangana,IN,https://www.google.com/maps/place/Masjid+al-Kausar/data=!4m7!3m6!1s0x3a2d56a47baa058d:0x1c8a9f1315d0247!8m2!3d19.3410318!4d79.4783643!16s%2Fg%2F1tj7cgkk!19sChIJjQWqe6RWLToRRwJdMfGpyAE?authuser=0&hl=en&rclk=1,"19.3410318,79.4783643"
Bejjur Supermarket(Kagaznagar),Grocery store,"Bejjur Supermarket(Kagaznagar), 1-14-378/3, opp. : Mee Seva Ellagoyd Thota, Kagaznagar, Telangana 504296",,"1-14-378/3, opp. : Mee Seva Ellagoyd Thota",Kagaznagar,504296,Telangana,IN,https://www.google.com/maps/place/Bejjur+Supermarket%28Kagaznagar%29/data=!4m7!3m6!1s0x3a2d57d08f8e6077:0x70e760881e4676ff!8m2!3d19.3581456!4d79.4823339!16s%2Fg%2F11kfj3hx4t!19sChIJd2COj9BXLToR_3ZGHohg53A?authuser=0&hl=en&rclk=1,"19.3581456,79.4823339"
Golleti Masjid,Mosque,"69HJ+MRR Golleti Masjid, Gollet, Telangana 504292",,69HJ+MRR,Gollet,504292,Telangana,IN,https://www.google.com/maps/place/Golleti+Masjid/data=!4m7!3m6!1s0x3a32aacb61c1b09d:0x3d1c844762d42b55!8m2!3d19.2292306!4d79.3820089!16s%2Fg%2F11c0xp7n2t!19sChIJnbDBYcuqMjoRVSvUYkeEHD0?authuser=0&hl=en&rclk=1,"19.229230599999998,79.3820089"
Masjid-e-Huda,Mosque,"Masjid-e-Huda, opp. Bus Stand, Asifabad, Telangana 504293",,opp. Bus Stand,Asifabad,,Telangana,IN,https://www.google.com/maps/place/Masjid-e-Huda/data=!4m7!3m6!1s0x3bd2ac1c5f823685:0x442868b52a3ced5e!8m2!3d19.3620003!4d79.2942735!16s%2Fg%2F11bw7cz2mz!19sChIJhTaCXxys0jsRXu08KrVoKEQ?authuser=0&hl=en&rclk=1,"19.3620003,79.2942735"
Masjid e Khadim,Mosque,"974W+GHR Masjid e Khadim, Asifabad, Telangana 504293",,974W+GHR,Asifabad,504293,Telangana,IN,https://www.google.com/maps/place/Masjid+e+Khadim/data=!4m7!3m6!1s0x3bd2ac0487a9f291:0x6fbe7074c3de740b!8m2!3d19.3563518!4d79.2964018!16s%2Fg%2F11cjj61r0q!19sChIJkfKphwSs0jsRC3Tew3Rwvm8?authuser=0&hl=en&rclk=1,"19.3563518,79.2964018"
Jama Masjid,Mosque,"Jama Masjid, Bazarwadi,, Asifabad, Telangana 504293",,"Bazarwadi,",Asifabad,504293,Telangana,IN,https://www.google.com/maps/place/Jama+Masjid/data=!4m7!3m6!1s0x3bd2aea773cd3d43:0xc60c04b9f21fcf83!8m2!3d19.3622125!4d79.289124!16s%2Fg%2F11bw77yf0r!19sChIJQz3Nc6eu0jsRg88f8rkEDMY?authuser=0&hl=en&rclk=1,"19.3622125,79.289124"
Jama Masjid,Mosque,"7C48+F37 Jama Masjid, beside Post office, Rebbena, Telangana 504292",,"7C48+F37, beside Post office",Rebbena,,Telangana,IN,https://www.google.com/maps/place/Jama+Masjid/data=!4m7!3m6!1s0x3a32ab76eba52721:0x1019c60f50818098!8m2!3d19.2561673!4d79.4151744!16s%2Fg%2F11f879y6q1!19sChIJISel63arMjoRmICBUA_GGRA?authuser=0&hl=en&rclk=1,"19.256167299999998,79.4151744"
Masjid e Sahaba & Madarsa Tahfiz ul Quraan,Mosque,"Masjid e Sahaba & Madarsa Tahfiz ul Quraan, NAWAZISH NAGAR, Asifabad, Telangana 504293",,NAWAZISH NAGAR,Asifabad,504293,Telangana,IN,https://www.google.com/maps/place/Masjid+e+Sahaba+%26+Madarsa+Tahfiz+ul+Quraan/data=!4m7!3m6!1s0x3bd2aea7c6631baf:0x62b87d4b00422aba!8m2!3d19.3598125!4d79.2883125!16s%2Fg%2F113dzbrlr!19sChIJrxtjxqeu0jsRuipCAEt9uGI?authuser=0&hl=en&rclk=1,"19.3598125,79.28831249999999"
Masjid e Noorani,Mosque,"Masjid e Noorani, Kapuwada, Kagaznagar, Telangana 504296",Kapuwada,,Kagaznagar,504296,Telangana,IN,https://www.google.com/maps/place/Masjid+e+Noorani/data=!4m7!3m6!1s0x3a2d56b93b09e1f7:0x357a83cab19e831f!8m2!3d19.3420694!4d79.4891953!16s%2Fg%2F11bw7jjxtw!19sChIJ9-EJO7lWLToRH4OescqDejU?authuser=0&hl=en&rclk=1,"19.3420694,79.48919529999999"
Eidghah Congregation Prayer Palace,Mosque,"9F5G+9PP Eidghah Congregation Prayer Palace, Edgha colony, Kagaznagar, Telangana 504296",Edgha colony,9F5G+9PP,Kagaznagar,504296,Telangana,IN,https://www.google.com/maps/place/Eidghah+Congregation+Prayer+Palace/data=!4m7!3m6!1s0x3a2d51534e416e1d:0xb3e32641ae9869d0!8m2!3d19.3584639!4d79.4768223!16s%2Fg%2F11ckrc4_vw!19sChIJHW5BTlNRLToR0GmYrkEm47M?authuser=0&hl=en&rclk=1,"19.3584639,79.4768223"
Jameeel Hotel,Restaurant,"FHHC+QGV Jameeel Hotel, Sirpur, Telangana 504299",,FHHC+QGV,Sirpur,504299,Telangana,IN,https://www.google.com/maps/place/Jameeel+Hotel/data=!4m7!3m6!1s0x3a2d455d4a0a2d9d:0x1b9aebde4891bdec!8m2!3d19.4794949!4d79.5712827!16s%2Fg%2F11g8bgfkfh!19sChIJnS0KSl1FLToR7L2RSN7rmhs?authuser=0&hl=en&rclk=1,"19.4794949,79.5712827"
"Jama Masjid, Kagaznagar",Mosque,"8FXP+GH7 Jama Masjid, Kagaznagar, near Spm Gate, Kagaznagar, Telangana 504296",,"8FXP+GH7, near Spm Gate",Kagaznagar,504296,Telangana,IN,"https://www.google.com/maps/place/Jama+Masjid,+Kagaznagar/data=!4m7!3m6!1s0x3a2d56b0c5a924a5:0x1616f5cf3e128492!8m2!3d19.3488!4d79.4864136!16s%2Fg%2F11bw7_2vw3!19sChIJpSSpxbBWLToRkoQSPs_1FhY?authuser=0&hl=en&rclk=1","19.3488,79.48641359999999"
Masjid e Nasar,Mosque,"8FXH+2V4 Masjid e Nasar, Kagaznagar, Telangana 504296",,8FXH+2V4,Kagaznagar,504296,Telangana,IN,https://www.google.com/maps/place/Masjid+e+Nasar/data=!4m7!3m6!1s0x3a2d56af8e04a971:0x8eefd28da8ea9968!8m2!3d19.3475054!4d79.4797024!16s%2Fg%2F11bxf9z03y!19sChIJcakEjq9WLToRaJnqqI3S744?authuser=0&hl=en&rclk=1,"19.3475054,79.4797024"
Masjid-e-Qadeem,Mosque,"8FXM+3MX Masjid-e-Qadeem, Nizamuddin Colony, Kagaznagar, Telangana 504296",Nizamuddin Colony,8FXM+3MX,Kagaznagar,504296,Telangana,IN,https://www.google.com/maps/place/Masjid-e-Qadeem/data=!4m7!3m6!1s0x3a2d56b063da2fbd:0xe321e240d18cecbb!8m2!3d19.3477485!4d79.4842215!16s%2Fg%2F11bw65hd1l!19sChIJvS_aY7BWLToRu-yM0UDiIeM?authuser=0&hl=en&rclk=1,"19.347748499999998,79.48422149999999"
Masjid-e-gouse-ul-wara,Mosque,"3FGP+WXC Masjid-e-gouse-ul-wara, Bellampalle, Kannal Rural, Telangana 504251",,3FGP+WXC,"Bellampalle, Kannal Rural",504251,Telangana,IN,https://www.google.com/maps/place/Masjid-e-gouse-ul-wara/data=!4m7!3m6!1s0x3a32ae1e07a8f3a1:0x30d5ea744ddf5099!8m2!3d19.0773045!4d79.4873999!16s%2Fg%2F11dfmg17l2!19sChIJofOoBx6uMjoRmVDfTXTq1TA?authuser=0&hl=en&rclk=1,"19.0773045,79.4873999"
Masjid e Ansar,Mosque,"Masjid e Ansar, Colony, Sirsilk Rd, Kagaznagar, Telangana 504296",,"Colony, Sirsilk Rd",Kagaznagar,504296,Telangana,IN,https://www.google.com/maps/place/Masjid+e+Ansar/data=!4m7!3m6!1s0x3a2d56b520c4819d:0x41e365a54af75873!8m2!3d19.3575975!4d79.4901958!16s%2Fg%2F11bw83jqr_!19sChIJnYHEILVWLToRc1j3SqVl40E?authuser=0&hl=en&rclk=1,"19.3575975,79.4901958"
Masjid e Bilal,Mosque,"9F9G+WXM Masjid e Bilal, Dada Nagar, Kagaznagar, Telangana 504296",Dada Nagar,9F9G+WXM,Kagaznagar,504296,Telangana,IN,https://www.google.com/maps/place/Masjid+e+Bilal/data=!4m7!3m6!1s0x3a2d515a754c6735:0xd45f0f4ccb45c2ba!8m2!3d19.3698374!4d79.4774318!16s%2Fg%2F11cjc1jzf5!19sChIJNWdMdVpRLToRusJFy0wPX9Q?authuser=0&hl=en&rclk=1,"19.369837399999998,79.47743179999999"
Madarsa al Arabiya Bait ul Uloom & Masjid e Rahmania,Mosque,"8FWM+597 Madarsa al Arabiya Bait ul Uloom & Masjid e Rahmania, MG Rd, Kagaznagar, Telangana 504296",,"8FWM+597, MG Rd",Kagaznagar,504296,Telangana,IN,https://www.google.com/maps/place/Madarsa+al+Arabiya+Bait+ul+Uloom+%26+Masjid+e+Rahmania/data=!4m7!3m6!1s0x3a2d56ba940d6e41:0xa09cb1cd9452c8a6!8m2!3d19.345412!4d79.4834169!16s%2Fg%2F11bw5xmyn4!19sChIJQW4NlLpWLToRpshSlM2xnKA?authuser=0&hl=en&rclk=1,"19.345412,79.4834169"
Masjid E Umar E Farooq Raadhiallahu Anhu,Mosque,"9F5C+HRF Masjid E Umar E Farooq Raadhiallahu Anhu, Ahmed.Raza.Colony, Kagaznagar, Telangana 504296",Ahmed.Raza.Colony,9F5C+HRF,Kagaznagar,504296,Telangana,IN,https://www.google.com/maps/place/Masjid+E+Umar+E+Farooq+Raadhiallahu+Anhu/data=!4m7!3m6!1s0x3a2d51553eee9879:0x8a39ea93011e9574!8m2!3d19.3589342!4d79.4720342!16s%2Fg%2F11bw6843jl!19sChIJeZjuPlVRLToRdJUeAZPqOYo?authuser=0&hl=en&rclk=1,"19.3589342,79.4720342"
Masjid e Noor,Mosque,"976M+99C Masjid e Noor, Asifabad, Telangana 504293",,976M+99C,Asifabad,504293,Telangana,IN,https://www.google.com/maps/place/Masjid+e+Noor/data=!4m7!3m6!1s0x3bd2aea5cbc568eb:0x5aed9b5568109c20!8m2!3d19.3609381!4d79.283388!16s%2Fg%2F11cjj4r8cv!19sChIJ62jFy6Wu0jsRIJwQaFWb7Vo?authuser=0&hl=en&rclk=1,"19.3609381,79.283388"
Masjid,Mosque,"69HJ+PQ9 Masjid, Gollet, Telangana 504292",,69HJ+PQ9,Gollet,504292,Telangana,IN,https://www.google.com/maps/place/Masjid/data=!4m7!3m6!1s0x3a32aacb61a4a7e9:0x218677eef2130f05!8m2!3d19.229293!4d79.381994!16s%2Fg%2F11c702ycmc!19sChIJ6aekYcuqMjoRBQ8T8u53hiE?authuser=0&hl=en&rclk=1,"19.229293,79.38199399999999"
Masjid e Khadim,Mosque,"FHHF+MW9 Masjid e Khadim, Pet Mohalla, Sirpur, Telangana 504299",,FHHF+MW9 Pet Mohalla,Sirpur,504299,Telangana,IN,https://www.google.com/maps/place/Masjid+e+Khadim/data=!4m7!3m6!1s0x3a2d45425afd0481:0xbb8003f82b6742d8!8m2!3d19.4791742!4d79.5748539!16s%2Fg%2F11c3w0kdh5!19sChIJgQT9WkJFLToR2EJnK_gDgLs?authuser=0&hl=en&rclk=1,"19.4791742,79.5748539"
Masjid E Mujtab Sunnatul Jamat,Mosque,"9F5V+PFV Masjid E Mujtab Sunnatul Jamat, Kagaznagar, Telangana 504296",,9F5V+PFV,Kagaznagar,504296,Telangana,IN,https://www.google.com/maps/place/Masjid+E+Mujtab+Sunnatul+Jamat/data=!4m7!3m6!1s0x3a2d51354e04ccd1:0xc6571f4357c154c3!8m2!3d19.3593655!4d79.4936785!16s%2Fg%2F11f00j6kvz!19sChIJ0cwETjVRLToRw1TBV0MfV8Y?authuser=0&hl=en&rclk=1,"19.3593655,79.4936785"
Jama Masjid,Mosque,"FHJH+JC7 Jama Masjid, Unnamed Rd, Sirpur, Telangana 504299",,"FHJH+JC7, Unnamed Rd",Sirpur,504299,Telangana,IN,https://www.google.com/maps/place/Jama+Masjid/data=!4m7!3m6!1s0x3a2d456a0ada463b:0x65371e8e7dc896d7!8m2!3d19.4815483!4d79.5785535!16s%2Fg%2F11ckfssgxv!19sChIJO0baCmpFLToR15bIfY4eN2U?authuser=0&hl=en&rclk=1,"19.4815483,79.5785535"
Masjid-e-Aamina,Mosque,"8FRV+PV6 Masjid-e-Aamina, Bhatpalli Rd, Kagaznagar, Telangana 504296",,"8FRV+PV6, Bhatpalli Rd",Kagaznagar,504296,Telangana,IN,https://www.google.com/maps/place/Masjid-e-Aamina/data=!4m7!3m6!1s0x3a2d56c7315505f3:0x478330fdb4e0ec72!8m2!3d19.3417809!4d79.494654!16s%2Fg%2F11f51zzsj0!19sChIJ8wVVMcdWLToRcuzgtP0wg0c?authuser=0&hl=en&rclk=1,"19.3417809,79.494654"
Jama Masjid,Mosque,"5F32+484 Jama Masjid, Tandur, Telangana 501141",,5F32+484,Tandur,501141,Telangana,IN,https://www.google.com/maps/place/Jama+Masjid/data=!4m7!3m6!1s0x3a32ac13a0cebcd7:0x2d0109d02673adad!8m2!3d19.1527617!4d79.4508136!16s%2Fg%2F11c4b2z2dm!19sChIJ17zOoBOsMjoRra1zJtAJAS0?authuser=0&hl=en&rclk=1,"19.1527617,79.45081359999999"
Dargah Muzaffar Ali Shah Qalandar Dada R H,Religious destination,"9F7W+4FP Dargah Muzaffar Ali Shah Qalandar Dada R H, Adilabad, Telangana 504296",,9F7W+4FP,Adilabad,,Telangana,IN,https://www.google.com/maps/place/Dargah+Muzaffar+Ali+Shah+Qalandar+Dada+R+H/data=!4m7!3m6!1s0x3a2d51344e304d11:0x548c2a3c98dcd259!8m2!3d19.3628401!4d79.4961912!16s%2Fg%2F11gd_17c57!19sChIJEU0wTjRRLToRWdLcmDwqjFQ?authuser=0&hl=en&rclk=1,"19.3628401,79.4961912"
Masjid E Yamani,Mosque,"FHJC+2FC Masjid E Yamani, Sirpur, Telangana 504299",,FHJC+2FC,Sirpur,504299,Telangana,IN,https://www.google.com/maps/place/Masjid+E+Yamani/data=!4m7!3m6!1s0x3a2d455d4b92b701:0xcc84f17f21214e9!8m2!3d19.4800738!4d79.5711285!16s%2Fg%2F11cky3tv6r!19sChIJAbeSS11FLToR6RQS8hdPyAw?authuser=0&hl=en&rclk=1,"19.4800738,79.5711285"
Masjid e Taiba,Mosque,"Masjid e Taiba, Industrial Area, near HP Petrol Pump, Kagaznagar, Telangana 504296",,"Industrial Area, near HP Petrol Pump",Kagaznagar,504296,Telangana,IN,https://www.google.com/maps/place/Masjid+e+Taiba/data=!4m7!3m6!1s0x3a2d56a9f9e46a0d:0x9a80284099893d90!8m2!3d19.3515515!4d79.4710951!16s%2Fg%2F11bw77v1l8!19sChIJDWrk-alWLToRkD2JmUAogJo?authuser=0&hl=en&rclk=1,"19.3515515,79.4710951"
Masjid e Yaseen,Mosque,"Masjid e Yaseen, opp. Jail, Jankapur, Asifabad, Telangana 504293",Jankapur,opp. Jail,Asifabad,504293,Telangana,IN,https://www.google.com/maps/place/Masjid+e+Yaseen/data=!4m7!3m6!1s0x3bd2ae9ef5cade0b:0xa80f60e413fdcad2!8m2!3d19.374471!4d79.2873049!16s%2Fg%2F11cjpfh3jq!19sChIJC97K9Z6u0jsR0sr9E-RgD6g?authuser=0&hl=en&rclk=1,"19.374471,79.2873049"
Masjid al-Ikhlas,Mosque,"9F8P+632 Masjid al-Ikhlas, Sirsilk Rd, beside Fire Station, Kagaznagar, Telangana 504296",,"9F8P+632, Sirsilk Rd, beside Fire Station",Kagaznagar,504296,Telangana,IN,https://www.google.com/maps/place/Masjid+al-Ikhlas/data=!4m7!3m6!1s0x3a2d5156dce6632b:0x88f967c40aed6e51!8m2!3d19.3655101!4d79.4851321!16s%2Fg%2F11ll8dp_b0!19sChIJK2Pm3FZRLToRUW7tCsRn-Yg?authuser=0&hl=en&rclk=1,"19.365510099999998,79.4851321"
Masjid e Abrar,Mosque,"Masjid e Abrar, Pakeeza Nagar, Bareguda, Kagaznagar, Telangana 504296",,Pakeeza Nagar,"Bareguda, Kagaznagar",504296,Telangana,IN,https://www.google.com/maps/place/Masjid+e+Abrar/data=!4m7!3m6!1s0x3a2d56a3c9998f43:0x4a9d72ede0a21436!8m2!3d19.3378967!4d79.4772796!16s%2Fg%2F11bwkm5kt3!19sChIJQ4-ZyaNWLToRNhSi4O1ynUo?authuser=0&hl=en&rclk=1,"19.337896699999998,79.4772796"
Jamia Dar-ul-uloom Mohammadia Jamia Nagar,Mosque,"8CPV+G46 Jamia Dar-ul-uloom Mohammadia Jamia Nagar, Sirpur - Kagaznagar Rd, Nandiguda, Telangana 504296",,"8CPV+G46, Sirpur - Kagaznagar Rd",Nandiguda,504296,Telangana,IN,https://www.google.com/maps/place/Jamia+Dar-ul-uloom+Mohammadia+Jamia+Nagar/data=!4m7!3m6!1s0x3a2d546bda5c573d:0xa9bbae92fe1420d8!8m2!3d19.3362918!4d79.4427549!16s%2Fg%2F11fylqyjjb!19sChIJPVdc2mtULToR2CAU_pKuu6k?authuser=0&hl=en&rclk=1,"19.336291799999998,79.4427549"
Masjede-E-Mohomadya,Mosque,"5C2V+5PQ Masjede-E-Mohomadya, Tandur, Telangana 504272",,5C2V+5PQ,Tandur,504272,Telangana,IN,https://www.google.com/maps/place/Masjede-E-Mohomadya/data=!4m7!3m6!1s0x3a32ac6b88820c93:0x87ac92cc59e900f3!8m2!3d19.1504521!4d79.4443549!16s%2Fg%2F11c6rhccd4!19sChIJkwyCiGusMjoR8wDpWcySrIc?authuser=0&hl=en&rclk=1,"19.1504521,79.4443549"
EIDGAH,Mosque,"976J+H9X EIDGAH, Asifabad, Yellaram, Telangana 504293",,976J+H9X,"Asifabad, Yellaram",504293,Telangana,IN,https://www.google.com/maps/place/EIDGAH/data=!4m7!3m6!1s0x3bd2aea4e343c61d:0x15ac3331aed26d20!8m2!3d19.3614885!4d79.2809802!16s%2Fg%2F11cs0_3lqd!19sChIJHcZD46Su0jsRIG3SrjEzrBU?authuser=0&hl=en&rclk=1,"19.3614885,79.2809802"
MASJID E QUBA,Mosque,"MASJID E QUBA, Kagaznagar, Telangana 504296",,,Kagaznagar,504296,Telangana,IN,https://www.google.com/maps/place/MASJID+E+QUBA/data=!4m7!3m6!1s0x3a2d51c96628b40b:0x7b1d067f67bba92d!8m2!3d19.3596201!4d79.4954535!16s%2Fg%2F11g0h7vzht!19sChIJC7QoZslRLToRLam7Z38GHXs?authuser=0&hl=en&rclk=1,"19.3596201,79.4954535"
Masid -E- Moina,Mosque,"9F4J+H62 Masid -E- Moina, Kagaznagar, Telangana 504296",,9F4J+H62,Kagaznagar,504296,Telangana,IN,https://www.google.com/maps/place/Masid+-E-+Moina/data=!4m7!3m6!1s0x3a2d56ad6bf3ffff:0x9dfe118ee35ddb93!8m2!3d19.3563926!4d79.4805173!16s%2Fg%2F11txmz3bz7!19sChIJ___za61WLToRk9td444R_p0?authuser=0&hl=en&rclk=1,"19.3563926,79.4805173"
MASJID-E-MOHAMMADIA,Mosque,"7P47+Q94 MASJID-E-MOHAMMADIA, Dahegaon, Telangana 504273",,7P47+Q94,Dahegaon,504273,Telangana,IN,https://www.google.com/maps/place/MASJID-E-MOHAMMADIA/data=!4m7!3m6!1s0x3a32a06bc9f0aad9:0xc9ef99599038dddd!8m2!3d19.2568852!4d79.7134489!16s%2Fg%2F11d_78xldz!19sChIJ2arwyWugMjoR3d04kFmZ78k?authuser=0&hl=en&rclk=1,"19.2568852,79.7134489"
Sirpur town railway station,Train ticket office,"Sirpur town railway station, Via masjid e yamini, Sirpur, Telangana 504299",,Via masjid e yamini,Sirpur,504299,Telangana,IN,https://www.google.com/maps/place/Sirpur+town+railway+station/data=!4m7!3m6!1s0x3a2d4f92c8aa8a73:0x119720a33f8250d1!8m2!3d19.4797087!4d79.5602041!16s%2Fg%2F11vf1c399h!19sChIJc4qqyJJPLToR0VCCP6MglxE?authuser=0&hl=en&rclk=1,"19.4797087,79.56020409999999"
MS SIRPUR TOWN HP GAS GRAMIN VITRAK,Gas Agency,"MS SIRPUR TOWN HP GAS GRAMIN VITRAK, PET MOHALA, HNO 1-146/1, near QADEEM MASJID, Sirpur, Telangana 504299",,"PET MOHALA, HNO 1-146/1, near QADEEM MASJID",Sirpur,504299,Telangana,IN,https://www.google.com/maps/place/MS+SIRPUR+TOWN+HP+GAS+GRAMIN+VITRAK/data=!4m7!3m6!1s0x3a2d45a2d3f1af6b:0x98d80927357bbddb!8m2!3d19.476862!4d79.5711126!16s%2Fg%2F11rsfbsv8g!19sChIJa6_x06JFLToR2717NScJ2Jg?authuser=0&hl=en&rclk=1,"19.476862,79.57111259999999"
Jama Masjid,Mosque,"GPFH+5G8 Jama Masjid, Kouthala, Telangana 504299",,GPFH+5G8,Kouthala,,Telangana,IN,https://www.google.com/maps/place/Jama+Masjid/data=!4m7!3m6!1s0x3a2d43bc15621a2f:0x829a46f3f80b2f48!8m2!3d19.5229233!4d79.7288207!16s%2Fg%2F11gxv41zp5!19sChIJLxpiFbxDLToRSC8L-PNGmoI?authuser=0&hl=en&rclk=1,"19.5229233,79.7288207"
Masjid E Shaheda,Mosque,"9F48+RXF Masjid E Shaheda, NGO's colony, Kagaznagar, Telangana 504296",NGO's colony,9F48+RXF,Kagaznagar,504296,Telangana,IN,https://www.google.com/maps/place/Masjid+E+Shaheda/data=!4m7!3m6!1s0x3a2d5502cd32a55f:0xcdd3f4a3b642f2c!8m2!3d19.3570619!4d79.4674218!16s%2Fg%2F11jf9rxybs!19sChIJX6UyzQJVLToRLC9kO0o_3Qw?authuser=0&hl=en&rclk=1,"19.357061899999998,79.4674218"
Masjid-e-Aqsa,Mosque,"Masjid-e-Aqsa, C, Babu Colony, Kagaznagar, Telangana 504296",Babu Colony,C,Kagaznagar,504296,Telangana,IN,https://www.google.com/maps/place/Masjid-e-Aqsa/data=!4m7!3m6!1s0x3a2d573ca2ab7e55:0xd6c91fd9a55532d!8m2!3d19.338031!4d79.4886317!16s%2Fg%2F11kxknz7mp!19sChIJVX6rojxXLToRLVNVmv2RbA0?authuser=0&hl=en&rclk=1,"19.338031,79.4886317"
Eidgah old,Mosque,"Eidgah old, 2, Fathima Rd, Edgha colony, Kagaznagar, Telangana 504296",Edgha colony,"2, Fathima Rd",Kagaznagar,504296,Telangana,IN,https://www.google.com/maps/place/Eidgah+old/data=!4m7!3m6!1s0x3a2d51531faaaaab:0xd09f9ed6a2cdc210!8m2!3d19.3596388!4d79.4790725!16s%2Fg%2F11d_786csg!19sChIJq6qqH1NRLToREMLNotaen9A?authuser=0&hl=en&rclk=1,"19.3596388,79.4790725"
Masjid e Safia,Mosque,"8G9G+69 Masjid e Safia, Jagannathpur, Telangana 504273",,8G9G+69,Jagannathpur,,Telangana,IN,https://www.google.com/maps/place/Masjid+e+Safia/data=!4m7!3m6!1s0x3a2d57bf7f58f09b:0x5949498ed379833!8m2!3d19.3180122!4d79.5259171!16s%2Fg%2F11k3xl0wp2!19sChIJm_BYf79XLToRM5g37ZiUlAU?authuser=0&hl=en&rclk=1,"19.3180122,79.5259171"
Masjid E Khaja-e-hashmi R.H,Mosque,"8HCH+927 Masjid E Khaja-e-hashmi R.H, Jambuga, Telangana 504273",,8HCH+927,Jambuga,504273,Telangana,IN,https://www.google.com/maps/place/Masjid+E+Khaja-e-hashmi+R.H/data=!4m7!3m6!1s0x3a2d59ce3e17a901:0x736940e58f08c0e8!8m2!3d19.3209052!4d79.5775314!16s%2Fg%2F11h3qrxlqb!19sChIJAakXPs5ZLToR6MAIj-VAaXM?authuser=0&hl=en&rclk=1,"19.3209052,79.5775314"
Jama Masjid,Mosque,"5C74+CR4 Jama Masjid, Madaram, Telangana 504220",,5C74+CR4,Madaram,,Telangana,IN,https://www.google.com/maps/place/Jama+Masjid/data=!4m7!3m6!1s0x3a32ad7ae62b7df5:0xcdd8f1d2f05ef0ac!8m2!3d19.1635215!4d79.4070814!16s%2Fg%2F11g4dq6kvw!19sChIJ9X0r5nqtMjoRrPBe8NLx2M0?authuser=0&hl=en&rclk=1,"19.163521499999998,79.4070814"
India 1ATM,ATM,"FHHC+VJR India 1ATM, Sirpur, Telangana 504299",,FHHC+VJR,Sirpur,504299,Telangana,IN,https://www.google.com/maps/place/India+1ATM/data=!4m7!3m6!1s0x3a2d455d4acd9a11:0x8768a30b45904a5a!8m2!3d19.4797406!4d79.5715151!16s%2Fg%2F11csbtrqgm!19sChIJEZrNSl1FLToRWkqQRQujaIc?authuser=0&hl=en&rclk=1,"19.4797406,79.5715151"
MADINA MASJID.LONAVELLY,Mosque,"GJXQ+52C MADINA MASJID.LONAVELLY, Loanvelly, Telangana 504299",,GJXQ+52C,Loanvelly,504299,Telangana,IN,https://www.google.com/maps/place/MADINA+MASJID.LONAVELLY/data=!4m7!3m6!1s0x3a2d452bbbad071f:0x66b0851b20fa7a46!8m2!3d19.5479439!4d79.6375245!16s%2Fg%2F11h24rl1s0!19sChIJHwetuytFLToRRnr6IBuFsGY?authuser=0&hl=en&rclk=1,"19.5479439,79.6375245"
Wankidi Asifabad,Mosque,"F8JC+8JX Wankidi Asifabad, Shivakesnagar, Wankidi (Kalan), Telangana 504295",Shivakesnagar,F8JC+8JX,Wankidi (Kalan),504295,Telangana,IN,https://www.google.com/maps/place/Wankidi+Asifabad/data=!4m7!3m6!1s0x3bd2b3c315900b4b:0x458e3ebaa1a65d9!8m2!3d19.4810568!4d79.3216502!16s%2Fg%2F11sssc97q2!19sChIJSwuQFcOz0jsR2WUaquvjWAQ?authuser=0&hl=en&rclk=1,"19.481056799999998,79.3216502"
Masjid-E-mehraj,Mosque,"9F5M+Q6X Masjid-E-mehraj, Kagaznagar, Telangana 504296",,9F5M+Q6X,Kagaznagar,504296,Telangana,IN,https://www.google.com/maps/place/Masjid-E-mehraj/data=!4m7!3m6!1s0x3a2d512301acbe4f:0xa16b6b0da34d435a!8m2!3d19.3594803!4d79.4831088!16s%2Fg%2F11kgcjm_5t!19sChIJT76sASNRLToRWkNNow1ra6E?authuser=0&hl=en&rclk=1,"19.359480299999998,79.4831088"
Masjid e Mohiuddin,Mosque,"8FVJ+HGX Masjid e Mohiuddin, Street Number 21, Ward Number 3, Kagaznagar, Telangana 504296",Ward Number 3,"8FVJ+HGX, Street Number 21",Kagaznagar,504296,Telangana,IN,https://www.google.com/maps/place/Masjid+e+Mohiuddin/data=!4m7!3m6!1s0x3a2d5746c9550301:0x155a0e1a557e421b!8m2!3d19.3439843!4d79.4813698!16s%2Fg%2F11fq6r4rbw!19sChIJAQNVyUZXLToRG0J-VRoOWhU?authuser=0&hl=en&rclk=1,"19.3439843,79.4813698"
Mosque,Mosque,"9GV2+4MF Mosque, Vempally, Sirpur, Regulguda, Telangana 504296",Vempally,9GV2+4MF,"Sirpur, Regulguda",504296,Telangana,IN,https://www.google.com/maps/place/Mosque/data=!4m7!3m6!1s0x3a2d51d8ff13e49d:0x26e2fa88db4ae3c5!8m2!3d19.3924202!4d79.5013119!16s%2Fg%2F11sbfj5vqh!19sChIJneQT_9hRLToRxeNK24j64iY?authuser=0&hl=en&rclk=1,"19.3924202,79.50131189999999"
Masjid - e - Ansar,Mosque,"CPQF+X75 Masjid - e - Ansar, Dabba, Telangana 504299",,CPQF+X75,Dabba,504299,Telangana,IN,https://www.google.com/maps/place/Masjid+-+e+-+Ansar/data=!4m7!3m6!1s0x3a2d5dca56d925d7:0x552c17ecd1cdd770!8m2!3d19.439885!4d79.7232312!16s%2Fg%2F11n6jjs8y0!19sChIJ1yXZVspdLToRcNfN0ewXLFU?authuser=0&hl=en&rclk=1,"19.439885,79.7232312"
Masjid-e-Muhammadiyya,Mosque,"Masjid-e-Muhammadiyya, H.No: 2-6-263/A Nogam Basthi, Kagaznagar, Telangana 504296",,H.No: 2-6-263/A Nogam Basthi,Kagaznagar,504296,Telangana,IN,https://www.google.com/maps/place/Masjid-e-Muhammadiyya/data=!4m7!3m6!1s0x3a2d57c2ffbb6a51:0x436e0f567a69b428!8m2!3d19.3498972!4d79.4772235!16s%2Fg%2F11h7d_19d5!19sChIJUWq7_8JXLToRKLRpelYPbkM?authuser=0&hl=en&rclk=1,"19.349897199999997,79.4772235"
Masjide e Shaheda,Mosque,"9F48+6GC Masjide e Shaheda, Boregaon, Telangana 504296",,9F48+6GC,Boregaon,504296,Telangana,IN,https://www.google.com/maps/place/Masjide+e+Shaheda/data=!4m7!3m6!1s0x3a2d55e976790463:0xf4321055665e109d!8m2!3d19.3555746!4d79.4662507!16s%2Fg%2F11j8pdg92n!19sChIJYwR5dulVLToRnRBeZlUQMvQ?authuser=0&hl=en&rclk=1,"19.3555746,79.4662507"
BAREGUDA,Mosque,"8FC9+VJR BAREGUDA, Bareguda, Vanjiri, Telangana 504296",,8FC9+VJR,"Bareguda, Vanjiri",504296,Telangana,IN,https://www.google.com/maps/place/BAREGUDA/data=!4m7!3m6!1s0x3a2d55d3e0a779ef:0xc051412f03290ed2!8m2!3d19.3228459!4d79.4690313!16s%2Fg%2F11t7m3r5s8!19sChIJ73mn4NNVLToR0g4pAy9BUcA?authuser=0&hl=en&rclk=1,"19.3228459,79.4690313"
Masjid-e-Khadijah,Mosque,"974R+XWR Masjid-e-Khadijah, Asifabad, Telangana 504293",,974R+XWR,Asifabad,504293,Telangana,IN,https://www.google.com/maps/place/Masjid-e-Khadijah/data=!4m7!3m6!1s0x3bd2ad43aa7c3d41:0xceb45b62869910bb!8m2!3d19.3574779!4d79.2922524!16s%2Fg%2F11sshd34_9!19sChIJQT18qkOt0jsRuxCZhmJbtM4?authuser=0&hl=en&rclk=1,"19.3574779,79.2922524"
Masjid,Mosque,"4MM9+WV9 Masjid, Muthapur, Ankannapet (D), Telangana 504219",,4MM9+WV9,"Muthapur, Ankannapet (D)",504219,Telangana,IN,https://www.google.com/maps/place/Masjid/data=!4m7!3m6!1s0x3a32a383c3d1e915:0x888c114d84029fb4!8m2!3d19.1351053!4d79.6688521!16s%2Fg%2F11sk1p1k_7!19sChIJFenRw4OjMjoRtJ8ChE0RjIg?authuser=0&hl=en&rclk=1,"19.1351053,79.6688521"
Madaram jamm,Mosque,"Madaram jamm, Qno 4o8, near dispensary, Madaram, Telangana 504220",,"Qno 4o8, near dispensary",Madaram,504220,Telangana,IN,https://www.google.com/maps/place/Madaram+jamm/data=!4m7!3m6!1s0x3a32aba9f3587947:0xc2520d4afb36d87d!8m2!3d19.1667082!4d79.4090189!16s%2Fg%2F11fszl8n44!19sChIJR3lY86mrMjoRfdg2-0oNUsI?authuser=0&hl=en&rclk=1,"19.1667082,79.40901889999999"
Hazrat ali akbar baigh urf jamedar baba rahmatullah alaih,Mosque,"974W+5H6 Hazrat ali akbar baigh urf jamedar baba rahmatullah alaih, Asifabad, Telangana 504293",,974W+5H6,Asifabad,504293,Telangana,IN,https://www.google.com/maps/place/Hazrat+ali+akbar+baigh+urf+jamedar+baba+rahmatullah+alaih/data=!4m7!3m6!1s0x3bd2ad04b54506cd:0xc402655b1ee75b9b!8m2!3d19.3554179!4d79.2963962!16s%2Fg%2F11sjqrm663!19sChIJzQZFtQSt0jsRm1vnHltlAsQ?authuser=0&hl=en&rclk=1,"19.3554179,79.29639619999999"
Dargah shareef,Mosque,"5C7X+FC Dargah shareef, Kothapalle, Telangana 504272",,5C7X+FC,Kothapalle,,Telangana,IN,https://www.google.com/maps/place/Dargah+shareef/data=!4m7!3m6!1s0x3a32ada887986453:0x54f943bfb75a322a!8m2!3d19.1636278!4d79.448567!16s%2Fg%2F11t62td4qj!19sChIJU2SYh6itMjoRKjJat79D-VQ?authuser=0&hl=en&rclk=1,"19.1636278,79.448567"
Nasar aminabhi masid,Mosque,"39FQ+QH5 Nasar aminabhi masid, Dharmaraopet, Telangana 504231",,39FQ+QH5,Dharmaraopet,,Telangana,IN,https://www.google.com/maps/place/Nasar+aminabhi+masid/data=!4m7!3m6!1s0x3a32ade904d6e6c5:0x2e43291e9b8a9e71!8m2!3d19.0743892!4d79.3889896!16s%2Fg%2F11qg0mpk9h!19sChIJxebWBOmtMjoRcZ6Kmx4pQy4?authuser=0&hl=en&rclk=1,"19.0743892,79.3889896"
Ansar masjid,Mosque,"9F5J+7W4 Ansar masjid, Kagaznagar, Telangana 504296",,9F5J+7W4,Kagaznagar,504296,Telangana,IN,https://www.google.com/maps/place/Ansar+masjid/data=!4m7!3m6!1s0x3a2d57b977fdbe6d:0x6960a1717e731215!8m2!3d19.3581456!4d79.4823339!16s%2Fg%2F11rsc1y_tg!19sChIJbb79d7lXLToRFRJzfnGhYGk?authuser=0&hl=en&rclk=1,"19.3581456,79.4823339"
MASJID E SHAHEDA,Mosque,"8FWQ+HXH MASJID E SHAHEDA, NGO Colony, Kagaznagar, Telangana 504296",NGO Colony,8FWQ+HXH,Kagaznagar,,Telangana,IN,https://www.google.com/maps/place/MASJID+E+SHAHEDA/data=!4m7!3m6!1s0x3a2d57d62aed7ce5:0x893703f71d564abc!8m2!3d19.3464329!4d79.4899888!16s%2Fg%2F11fszvx_m4!19sChIJ5XztKtZXLToRvEpWHfcDN4k?authuser=0&hl=en&rclk=1,"19.3464329,79.48998879999999"
Masjid E Qausar,Mosque,"8FRH+77Q Masjid E Qausar, Kausar Nagar, Sriram Nagar, Kagaznagar, Telangana 504296","Kausar Nagar, Sriram Nagar",8FRH+77Q,Kagaznagar,504296,Telangana,IN,https://www.google.com/maps/place/Masjid+E+Qausar/data=!4m7!3m6!1s0x3a2d575e13a03731:0xd0ee5cb55f5430a2!8m2!3d19.3407871!4d79.4783173!16s%2Fg%2F11rysdj5c8!19sChIJMTegE15XLToRojBUX7Vc7tA?authuser=0&hl=en&rclk=1,"19.3407871,79.4783173"
Masjid E Iqlaas,Mosque,"9F8P+632 Masjid E Iqlaas, Sirsilk Rd, beside Fire Station, Kagaznagar, Telangana 504296",,"9F8P+632, Sirsilk Rd, beside Fire Station",Kagaznagar,504296,Telangana,IN,https://www.google.com/maps/place/Masjid+E+Iqlaas/data=!4m7!3m6!1s0x3a2d51d0cddbd5e7:0xf2aef1fe202c2d0d!8m2!3d19.3655076!4d79.4851167!16s%2Fg%2F11vkplc0nw!19sChIJ59XbzdBRLToRDS0sIP7xrvI?authuser=0&hl=en&rclk=1,"19.3655076,79.48511669999999"
MASJID E SHAHEDA,Mosque,"9F5J+7W4 MASJID E SHAHEDA, NGO Colony, Kagaznagar, Telangana 504296",NGO Colony,9F5J+7W4,Kagaznagar,,Telangana,IN,https://www.google.com/maps/place/MASJID+E+SHAHEDA/data=!4m7!3m6!1s0x3a2d5703a7a9a817:0xf96caec15d8f9977!8m2!3d19.3581456!4d79.4823339!16s%2Fg%2F11j37gd00w!19sChIJF6ippwNXLToRd5mPXcGubPk?authuser=0&hl=en&rclk=1,"19.3581456,79.4823339"
MASJID E MONIYA,Mosque,"9F5J+7W4 MASJID E MONIYA, Kagaznagar, Telangana 504296",,9F5J+7W4,Kagaznagar,504296,Telangana,IN,https://www.google.com/maps/place/MASJID+E+MONIYA/data=!4m7!3m6!1s0x3a2d57da2d7f2b1d:0x8d9e255b8d876c7d!8m2!3d19.3581456!4d79.4823339!16s%2Fg%2F11kj02mzft!19sChIJHSt_LdpXLToRfWyHjVslno0?authuser=0&hl=en&rclk=1,"19.3581456,79.4823339"
Masjid-E-Bilal,Mosque,"87J6+9HP Masjid-E-Bilal, Thumpalle, Babapur, Telangana 504294",,87J6+9HP,"Thumpalle, Babapur",,Telangana,IN,https://www.google.com/maps/place/Masjid-E-Bilal/data=!4m7!3m6!1s0x3bd2a948559e9c4b:0xf625909021a2406d!8m2!3d19.3309518!4d79.2614523!16s%2Fg%2F11kjk9fcwg!19sChIJS5yeVUip0jsRbUCiIZCQJfY?authuser=0&hl=en&rclk=1,"19.330951799999998,79.2614523"
Masjid e Quresh,Mosque,"8FVP+746 Masjid e Quresh, Sanjeeviah Colony, Kagaznagar, Telangana 504296",Sanjeeviah Colony,8FVP+746,Kagaznagar,504296,Telangana,IN,https://www.google.com/maps/place/Masjid+e+Quresh/data=!4m7!3m6!1s0x3a2d56bbb043c6a9:0x97198713a0689373!8m2!3d19.3431704!4d79.4852652!16s%2Fg%2F11bw65zvhz!19sChIJqcZDsLtWLToRc5NooBOHGZc?authuser=0&hl=en&rclk=1,"19.343170399999998,79.4852652"
Kousar nagar,Mosque,"8FRH+FC8 Kousar nagar, Kausar Nagar, Balaji Nagar, Sriram Nagar, Kagaznagar, Telangana 504296","Kausar Nagar, Balaji Nagar, Sriram Nagar",8FRH+FC8,Kagaznagar,504296,Telangana,IN,https://www.google.com/maps/place/Kousar+nagar/data=!4m7!3m6!1s0x3a2d57c4111b1d31:0x5188e812f1e13138!8m2!3d19.3411643!4d79.4785924!16s%2Fg%2F11sv7c2fyx!19sChIJMR0bEcRXLToRODHh8RLoiFE?authuser=0&hl=en&rclk=1,"19.3411643,79.4785924"
Edgha colony,Mosque,"9F5J+7W4 Edgha colony, Kagaznagar, Telangana 504296",,9F5J+7W4,Kagaznagar,504296,Telangana,IN,https://www.google.com/maps/place/Edgha+colony/data=!4m7!3m6!1s0x3a2d578aaf27caff:0xcf4e93d61033b242!8m2!3d19.3581456!4d79.4823339!16s%2Fg%2F11jzw8f342!19sChIJ_8onr4pXLToRQrIzENaTTs8?authuser=0&hl=en&rclk=1,"19.3581456,79.4823339"
msiidu,Mosque,"6HCR+XR2 msiidu, Wadal, Laxmipur, Telangana 504273",,6HCR+XR2,"Wadal, Laxmipur",504273,Telangana,IN,https://www.google.com/maps/place/%E0%B0%AE%E0%B0%B8%E0%B1%80%E0%B0%A6%E0%B1%81/data=!4m7!3m6!1s0x3a32a736f95b27e3:0x8c80225113dd9a52!8m2!3d19.2223867!4d79.5920304!16s%2Fg%2F11nxcdr157!19sChIJ4ydb-TanMjoRUprdE1EigIw?authuser=0&hl=en&rclk=1,"19.222386699999998,79.5920304"
Masjid kouthala,Mosque,"GPFH+5G6 Masjid kouthala, Kouthala, Telangana 504299",,GPFH+5G6,Kouthala,504299,Telangana,IN,https://www.google.com/maps/place/Masjid+kouthala/data=!4m7!3m6!1s0x3a2d43bd15f0a003:0x28a563f5c69a966d!8m2!3d19.5229013!4d79.728775!16s%2Fg%2F11nfq7ktml!19sChIJA6DwFb1DLToRbZaaxvVjpSg?authuser=0&hl=en&rclk=1,"19.522901299999997,79.728775"
Madeena Masjid,Mosque,"89F9+473 Madeena Masjid, SH1, Khairgaon, Telangana 504292",,"89F9+473, SH1",Khairgaon,,Telangana,IN,https://www.google.com/maps/place/Madeena+Masjid/data=!4m7!3m6!1s0x3bd2ab55de777551:0xd86d0f49d393c93f!8m2!3d19.3227714!4d79.3681607!16s%2Fg%2F11gwm9j8f5!19sChIJUXV33lWr0jsRP8mT00kPbdg?authuser=0&hl=en&rclk=1,"19.3227714,79.36816069999999"
Choti masjid,Mosque,"5C2X+8M Choti masjid, Tandur, Telangana 504272",,5C2X+8M,Tandur,,Telangana,IN,https://www.google.com/maps/place/Choti+masjid/data=!4m7!3m6!1s0x3a32adad042446a3:0xd142992232766ce7!8m2!3d19.1507869!4d79.4491885!16s%2Fg%2F11sq8hn0w4!19sChIJo0YkBK2tMjoR52x2MiKZQtE?authuser=0&hl=en&rclk=1,"19.1507869,79.44918849999999"
"Masjid E Khadija, Maktab E Abdullah",Place of worship,"974R+VWP Masjid E Khadija, Maktab E Abdullah, Kasabwadi, Asifabad, Telangana 504293",Kasabwadi,974R+VWP,Asifabad,504293,Telangana,IN,"https://www.google.com/maps/place/Masjid+E+Khadija,+Maktab+E+Abdullah/data=!4m7!3m6!1s0x3bd2ad4c6a475809:0x7f6fc1ed635fd790!8m2!3d19.3572248!4d79.2923366!16s%2Fg%2F11sshcvd0p!19sChIJCVhHakyt0jsRkNdfY-3Bb38?authuser=0&hl=en&rclk=1","19.3572248,79.2923366"
SURAJ BALA ONLINE SERVICES,Social services organization,"SURAJ BALA ONLINE SERVICES, 3-2-277 Sirsilk Colony near RAM MANDIR, Mehraj masjid, Kagaznagar (Komrambheem, Kagaznagar, Telangana 504296",,"3-2-277 Sirsilk Colony near RAM MANDIR, Mehraj masjid, Kagaznagar (Komrambheem","Kagaznagar, Regulguda",504296,Telangana,IN,https://www.google.com/maps/place/SURAJ+BALA+ONLINE+SERVICES/data=!4m7!3m6!1s0x3a2d51d161bd6ea9:0x860eac3fd563f98c!8m2!3d19.3916337!4d79.4845662!16s%2Fg%2F11m_h3hjsw!19sChIJqW69YdFRLToRjPlj1T-sDoY?authuser=0&hl=en&rclk=1,"19.3916337,79.4845662"
Hazrat Moula Ali Gouse Azam Dastagir Chilla Shareef,Mosque,"Hazrat Moula Ali Gouse Azam Dastagir Chilla Shareef, Kothapally, Tandur, Kothapalle, Telangana 504272",,Kothapally,"Tandur, Kothapalle",504272,Telangana,IN,https://www.google.com/maps/place/Hazrat+Moula+Ali+Gouse+Azam+Dastagir+Chilla+Shareef/data=!4m7!3m6!1s0x3a32adca8b38aa6b:0xe8cd48f76d5f24fd!8m2!3d19.1648172!4d79.4409776!16s%2Fg%2F11l1fpg371!19sChIJa6o4i8qtMjoR_SRfbfdIzeg?authuser=0&hl=en&rclk=1,"19.164817199999998,79.4409776"
Madeena,Mosque,"896F+9VG Madeena, Khairgaon, Telangana 504292",,896F+9VG,Khairgaon,504292,Telangana,IN,https://www.google.com/maps/place/Madeena/data=!4m7!3m6!1s0x3bd2ab76fe62e4f9:0x655e67e2cda8427f!8m2!3d19.3109257!4d79.3747141!16s%2Fg%2F11txsk5xt9!19sChIJ-eRi_nar0jsRf0KozeJnXmU?authuser=0&hl=en&rclk=1,"19.3109257,79.37471409999999"
S A PAN SHOP TEA & CAFE,Tea store,"S A PAN SHOP TEA & CAFE, 1-26, Masjid Main Road, near Eidgha, Edgha colony, Sirpur, Kagaznagar, Telangana 504296",Edgha colony,"1-26, Masjid Main Road, near Eidgha","Sirpur, Kagaznagar",504296,Telangana,IN,https://www.google.com/maps/place/S+A+PAN+SHOP+TEA+%26+CAFE/data=!4m7!3m6!1s0x3a2d515bcc9e31bd:0x74f46bef1773d588!8m2!3d19.3587273!4d79.4761941!16s%2Fg%2F11l75g1tdr!19sChIJvTGezFtRLToRiNVzF-9r9HQ?authuser=0&hl=en&rclk=1,"19.358727299999998,79.4761941"
