name,main_category,address,address_ward,address_street,address_city,address_postal_code,address_state,address_country_code,link,coordinates
MASJID AI'SHAH R.A,Mosque,"MASJID AI'SHAH R.A, 1-3-186, Indira Market, Sriram Nagar, Kagaznagar, Telangana 504296","Indira Market, Sriram Nagar",1-3-186,Kagaznagar,504296,Telangana,IN,https://www.google.com/maps/place/MASJID+AI%27SHAH+R.A/data=!4m7!3m6!1s0x3a2d56bb01368ee3:0x21da7f9b2095a48e!8m2!3d19.3432186!4d79.4839366!16s%2Fg%2F11b6v0c92z!19sChIJ4442AbtWLToRjqSVIJt_2iE?authuser=0&hl=en&rclk=1,"19.3432186,79.48393659999999"
Jame e Masjid,Mosque,"RQH3+644 Jame e Masjid, Venkatapur, Telangana 505326",,RQH3+644,Venkatapur,505326,Telangana,IN,https://www.google.com/maps/place/Jame+e+Masjid/data=!4m7!3m6!1s0x3bcd0ca1530e0327:0x3685976d8ab2a4b1!8m2!3d18.8280248!4d78.7528321!16s%2Fg%2F11c30sywj1!19sChIJJwMOU6EMzTsRsaSyim2XhTY?authuser=0&hl=en&rclk=1,"18.828024799999998,78.75283209999999"
Razvi TAiLORS masjid e Bilal,Mosque,"3F6V+V6V Razvi TAiLORS masjid e Bilal, Bellampalle, Telangana 504251",,3F6V+V6V,Bellampalle,504251,Telangana,IN,https://www.google.com/maps/place/Razvi+TAiLORS+masjid+e+Bilal/data=!4m7!3m6!1s0x3a32b10ed88c3029:0x4f65cd5899f32fc8!8m2!3d19.0622332!4d79.4930366!16s%2Fg%2F11f62g5tr5!19sChIJKTCM2A6xMjoRyC_zmVjNZU8?authuser=0&hl=en&rclk=1,"19.062233199999998,79.4930366"
Al-Masjid Al-Salafiyya Umm Ul Momineen Aisha Siddiqa Raadhiallahu Anha,Mosque,"Al-Masjid Al-Salafiyya Umm Ul Momineen Aisha Siddiqa Raadhiallahu Anha, 1-3-186, Indira Market, Kagaznagar, Telangana 504296",Ward Number 3,"1-3-186, Indira Market",Kagaznagar,504296,Telangana,IN,https://www.google.com/maps/place/Al-Masjid+Al-Salafiyya+Umm+Ul+Momineen+Aisha+Siddiqa+Raadhiallahu+Anha/data=!4m7!3m6!1s0x3a2d57122ab10c9b:0x2366cf8f27649544!8m2!3d19.343273!4d79.483942!16s%2Fg%2F11px9yb4sd!19sChIJmwyxKhJXLToRRJVkJ4_PZiM?authuser=0&hl=en&rclk=1,"19.343273,79.483942"
Jama Masjid,Mosque,"MGGQ+F5Q Jama Masjid, Jama Masjid Rd, Mahalaxmiwada, Adilabad, Telangana 504001",Mahalaxmiwada,"MGGQ+F5Q, Jama Masjid Rd",Adilabad,504001,Telangana,IN,https://www.google.com/maps/place/Jama+Masjid/data=!4m7!3m6!1s0x3bd25c75f87e8a01:0x25a95ee1fbab37d0!8m2!3d19.6762137!4d78.5379985!16s%2Fg%2F1tlqnfwv!19sChIJAYp--HVc0jsR0Der--FeqSU?authuser=0&hl=en&rclk=1,"19.676213699999998,78.5379985"
Gulzaar Masjid,Mosque,"MGCR+66Q Gulzaar Masjid, Bokkalguda St, Brahmanwadi, Adilabad, Telangana 504001",Brahmanwadi,"MGCR+66Q, Bokkalguda St",Adilabad,504001,Telangana,IN,https://www.google.com/maps/place/Gulzaar+Masjid/data=!4m7!3m6!1s0x3bd25c7477d00337:0x3dc61fe7489f62b1!8m2!3d19.6704596!4d78.5395986!16s%2Fg%2F1tcz6sjz!19sChIJNwPQd3Rc0jsRsWKfSOcfxj0?authuser=0&hl=en&rclk=1,"19.670459599999997,78.53959859999999"
Masjid-e-Rahmania,Mosque,"MG5H+P96 Masjid-e-Rahmania, Dasnapur, Sapthagiri Colony, chaitanyapuri, Adilabad, Telangana 504001","Dasnapur, Sapthagiri Colony, chaitanyapuri",MG5H+P96,Adilabad,504001,Telangana,IN,https://www.google.com/maps/place/Masjid-e-Rahmania/data=!4m7!3m6!1s0x3bd25c643f4fdb2f:0xa503fe99bb42906e!8m2!3d19.6592958!4d78.5283772!16s%2Fg%2F1w2ysb6c!19sChIJL9tPP2Rc0jsRbpBCu5n-A6U?authuser=0&hl=en&rclk=1,"19.6592958,78.5283772"
Masjid-e-Firdous,Mosque,"MG6G+978 Masjid-e-Firdous, Rickshaw Colony, Adilabad, Telangana 504001",Rickshaw Colony,MG6G+978,Adilabad,504001,Telangana,IN,https://www.google.com/maps/place/Masjid-e-Firdous/data=!4m7!3m6!1s0x3bd25c6379b59d8d:0x6f222369871ef4cd!8m2!3d19.6609205!4d78.525713!16s%2Fg%2F11b6tqg984!19sChIJjZ21eWNc0jsRzfQeh2kjIm8?authuser=0&hl=en&rclk=1,"19.6609205,78.525713"
Masjid-E-Taneem,Mosque,"MG8P+GJ2 Masjid-E-Taneem, Shanti Nagar, Adilabad, Telangana 504001",Shanti Nagar,MG8P+GJ2,Adilabad,504001,Telangana,IN,https://www.google.com/maps/place/Masjid-E-Taneem/data=!4m7!3m6!1s0x3bd25c7196951817:0xe1695f659d337d7!8m2!3d19.6662707!4d78.5365283!16s%2Fg%2F11c52zx1f3!19sChIJFxiVlnFc0jsR1zfTWfaVFg4?authuser=0&hl=en&rclk=1,"19.6662707,78.5365283"
Masjid Panjesha,Mosque,"Masjid Panjesha, masjid, panjesha marg, Bhainsa, Telangana 504103",,"masjid, panjesha marg",Bhainsa,,Telangana,IN,https://www.google.com/maps/place/Masjid+Panjesha/data=!4m7!3m6!1s0x3bcdfe45594b318b:0xa9a4527a0d3bdd4e!8m2!3d19.1114013!4d77.9614446!16s%2Fg%2F11xfvxc4m!19sChIJizFLWUX-zTsRTt07DXpSpKk?authuser=0&hl=en&rclk=1,"19.1114013,77.9614446"
Masjid e Noor Khursheed Nagar,Mosque,"Masjid e Noor Khursheed Nagar, khursheed Nagar, Adilabad, Telangana 504001",khursheed Nagar,,Adilabad,,Telangana,IN,https://www.google.com/maps/place/Masjid+e+Noor+Khursheed+Nagar/data=!4m7!3m6!1s0x3bd25b7f77891187:0xd64d9d2522c68201!8m2!3d19.6780656!4d78.5199255!16s%2Fg%2F1pp2x6dd1!19sChIJhxGJd39b0jsRAYLGIiWdTdY?authuser=0&hl=en&rclk=1,"19.6780656,78.5199255"
Mohammadia Masjid,Mosque,"MGFH+M8P Mohammadia Masjid, NH 44, Vidya Nagar, Adilabad, Telangana 504001",Vidya Nagar,"MGFH+M8P, NH 44",Adilabad,504001,Telangana,IN,https://www.google.com/maps/place/Mohammadia+Masjid/data=!4m7!3m6!1s0x3bd25c7892a2eb3b:0x89c3b0daf8ff360!8m2!3d19.6742243!4d78.5283275!16s%2Fg%2F1tjz1t_5!19sChIJO-uiknhc0jsRYPOPrw07nAg?authuser=0&hl=en&rclk=1,"19.6742243,78.5283275"
Masjid_E_Quba,Mosque,"Masjid_E_Quba, 2-5-216, beside Masjid E Quba Khila, Mohalla Badh, Adilabad, Telangana 504001",Mohalla Badh,"2-5-216, beside Masjid E Quba Khila",Adilabad,504001,Telangana,IN,https://www.google.com/maps/place/Masjid_E_Quba/data=!4m7!3m6!1s0x3bd25bedeaaaaaab:0xe29f9a411d92289b!8m2!3d19.6793188!4d78.5406475!16s%2Fg%2F11bwkvtnj8!19sChIJq6qq6u1b0jsRmyiSHUGan-I?authuser=0&hl=en&rclk=1,"19.6793188,78.54064749999999"
Masjid-e-Meraj,Mosque,"Masjid-e-Meraj, Police lane, Sanjay Nagar, Adilabad, Bhattisavargaon, Telangana 504001",Sanjay Nagar,Police lane,"Adilabad, Bhattisavargaon",504001,Telangana,IN,https://www.google.com/maps/place/Masjid-e-Meraj/data=!4m7!3m6!1s0x3bd25c80a40634d7:0x99b706696d47a613!8m2!3d19.6674917!4d78.5163997!16s%2Fg%2F1tr7b846!19sChIJ1zQGpIBc0jsRE6ZHbWkGt5k?authuser=0&hl=en&rclk=1,"19.6674917,78.5163997"
Masjid E Abubaker,Mosque,"MG8V+54F Masjid E Abubaker, Shanti Nagar, Adilabad, Telangana 504001",Shanti Nagar,MG8V+54F,Adilabad,504001,Telangana,IN,https://www.google.com/maps/place/Masjid+E+Abubaker/data=!4m7!3m6!1s0x3bd25c72afd994d1:0x55e84f035f33b282!8m2!3d19.6654385!4d78.542794!16s%2Fg%2F11c1wsmygw!19sChIJ0ZTZr3Jc0jsRgrIzXwNP6FU?authuser=0&hl=en&rclk=1,"19.6654385,78.542794"
Masjid E Arafath,Mosque,"MG9W+PJJ Masjid E Arafath, arfath nagar, Adilabad, Telangana 504001",arfath nagar,MG9W+PJJ,Adilabad,504001,Telangana,IN,https://www.google.com/maps/place/Masjid+E+Arafath/data=!4m7!3m6!1s0x3bd25c0c5e111929:0x778ec5e1e693b913!8m2!3d19.6693375!4d78.5465156!16s%2Fg%2F11dxl2lpw0!19sChIJKRkRXgxc0jsRE7mT5uHFjnc?authuser=0&hl=en&rclk=1,"19.669337499999997,78.54651559999999"
Madina Masjid mdynh msjd,Mosque,"MGCJ+GX8 Madina Masjid mdynh msjd, Netaji Chowk Rd, Ponnar, Bhuktapur, Telangana 504001",Ponnar,"MGCJ+GX8, Netaji Chowk Rd",Bhuktapur,504001,Telangana,IN,https://www.google.com/maps/place/Madina+Masjid+%D9%85%D8%AF%DB%8C%D9%86%DB%81+%D9%85%D8%B3%D8%AC%D8%AF%E2%80%AD/data=!4m7!3m6!1s0x3bd25c7742dd0b05:0xf2fb259a889bfa78!8m2!3d19.6712846!4d78.5324561!16s%2Fg%2F11fzzxxq7l!19sChIJBQvdQndc0jsRePqbiJol-_I?authuser=0&hl=en&rclk=1,"19.6712846,78.53245609999999"
Jama Masjid,Mosque,"3F9Q+X45 Jama Masjid, Belmuri, Hanman Basti, Bellampalle, Telangana 504251","Belmuri, Hanman Basti",3F9Q+X45,Bellampalle,504251,Telangana,IN,https://www.google.com/maps/place/Jama+Masjid/data=!4m7!3m6!1s0x3a32b1e6a4eb0557:0x32163b4072eb7836!8m2!3d19.0698971!4d79.4878633!16s%2Fg%2F11csb3stf2!19sChIJVwXrpOaxMjoRNnjrckA7FjI?authuser=0&hl=en&rclk=1,"19.0698971,79.4878633"
Masjid E Tawheed Ahle Hadees,Mosque,"MG9R+3FF Masjid E Tawheed Ahle Hadees, Bokkalguda St, Opp. Sanober Urdu School, Shanti Nagar, Adilabad, Telangana 504001",Shanti Nagar,"MG9R+3FF, Bokkalguda St, Opp. Sanober Urdu School",Adilabad,504001,Telangana,IN,https://www.google.com/maps/place/Masjid+E+Tawheed+Ahle+Hadees/data=!4m7!3m6!1s0x3bd25c72fd255f2d:0x9b9a25549484aac6!8m2!3d19.6676945!4d78.5411635!16s%2Fg%2F11b6wlm0t4!19sChIJLV8l_XJc0jsRxqqElFQlmps?authuser=0&hl=en&rclk=1,"19.6676945,78.5411635"
Muhammadiya Masjid,Mosque,"MG29+X76 Muhammadiya Masjid, Ramnagar Colony, Adilabad, Telangana 504001",Ramnagar Colony,MG29+X76,Adilabad,504001,Telangana,IN,https://www.google.com/maps/place/Muhammadiya+Masjid/data=!4m7!3m6!1s0x3bd25c8ad95e1f51:0xc9001b8ca6d7fd64!8m2!3d19.6524043!4d78.5181462!16s%2Fg%2F11cn7qqr7d!19sChIJUR9e2Ypc0jsRZP3XpowbAMk?authuser=0&hl=en&rclk=1,"19.6524043,78.51814619999999"
Abubakr masjid,Mosque,"MG8R+J7F Abubakr masjid, Shanti Nagar, Adilabad, Telangana 504001",Shanti Nagar,MG8R+J7F,Adilabad,504001,Telangana,IN,https://www.google.com/maps/place/Abubakr+masjid/data=!4m7!3m6!1s0x3bd25c72f6f46bc9:0xcd16458f413f5d2e!8m2!3d19.6665675!4d78.5406681!16s%2Fg%2F11c607nzf4!19sChIJyWv09nJc0jsRLl0_QY9FFs0?authuser=0&hl=en&rclk=1,"19.6665675,78.54066809999999"
Fathima Masjid,Mosque,"MGFF+676 Fathima Masjid, Sanjay Nagar, Adilabad, Telangana 504001",Sanjay Nagar,MGFF+676,Adilabad,504001,Telangana,IN,https://www.google.com/maps/place/Fathima+Masjid/data=!4m7!3m6!1s0x3bd25c7fa619132f:0x3fc5279c8cd8c162!8m2!3d19.6730467!4d78.5231404!16s%2Fg%2F11g65c9p2q!19sChIJLxMZpn9c0jsRYsHYjJwnxT8?authuser=0&hl=en&rclk=1,"19.6730467,78.5231404"
Masjid E Alamgiri,Mosque,"Masjid E Alamgiri, Chennur, Telangana 504201",,,Chennur,,Telangana,IN,https://www.google.com/maps/place/Masjid+E+Alamgiri/data=!4m7!3m6!1s0x3a32eba7d6448ecd:0xe0585ddf2d39082b!8m2!3d18.8567979!4d79.7961685!16s%2Fg%2F1ptwnygbj!19sChIJzY5E1qfrMjoRKwg5Ld9dWOA?authuser=0&hl=en&rclk=1,"18.8567979,79.7961685"
MASJID-E-Bilal,Mosque,"MGHQ+H25 MASJID-E-Bilal, Adilabad - Nagpur Rd, Panjesha, Adilabad, Telangana 504001",Panjesha,"MGHQ+H25, Adilabad - Nagpur Rd",Adilabad,504001,Telangana,IN,https://www.google.com/maps/place/MASJID-E-Bilal/data=!4m7!3m6!1s0x3bd25b89846e6659:0x31ee36077b20474f!8m2!3d19.6788851!4d78.5375982!16s%2Fg%2F11gclzc6pn!19sChIJWWZuhIlb0jsRT0cgewc27jE?authuser=0&hl=en&rclk=1,"19.6788851,78.53759819999999"
Masjid-e-Amera | msjd `myrh,Mosque,"8FVM+P2F Masjid-e-Amera | msjd `myrh, New Indira Market, Kagaznagar, Telangana",Ward Number 3,"8FVM+P2F, New Indira Market",Kagaznagar,,Telangana,IN,https://www.google.com/maps/place/Masjid-e-Amera+%7C+%D9%85%D8%B3%D8%AC%D8%AF+%D8%B9%D8%A7%D9%85%DB%8C%D8%B1%D8%A7%DB%81%E2%80%AD/data=!4m7!3m6!1s0x3a2d56badb25cd45:0x64c23d8b7bb9f786!8m2!3d19.3443152!4d79.4825415!16s%2Fg%2F11b6w96mkl!19sChIJRc0l27pWLToRhve5e4s9wmQ?authuser=0&hl=en&rclk=1,"19.3443152,79.4825415"
Masjid-e-Garib Nawaz,Mosque,"MGPP+943 Masjid-e-Garib Nawaz, raza chowk, Jai Jawan Nagar, Tatiguda Colony, Adilabad, Telangana 504001","Kranti Nagar, Tatiguda Colony","MGPP+943, raza chowk, Jai Jawan Nagar",Adilabad,504001,Telangana,IN,https://www.google.com/maps/place/Masjid-e-Garib+Nawaz/data=!4m7!3m6!1s0x3bd25b8e4eca922b:0x9859180dd7cc6aa7!8m2!3d19.6858886!4d78.5352986!16s%2Fg%2F11g889_zry!19sChIJK5LKTo5b0jsRp2rM1w0YWZg?authuser=0&hl=en&rclk=1,"19.6858886,78.53529859999999"
Jama E Masjid,Mosque,"VQ5V+JXP Jama E Masjid, Chennur, Telangana 504201",,VQ5V+JXP,Chennur,504201,Telangana,IN,https://www.google.com/maps/place/Jama+E+Masjid/data=!4m7!3m6!1s0x3a32eba81e6cb449:0x5d8ccd07c61ccb39!8m2!3d18.8590975!4d79.7949404!16s%2Fg%2F1pv1smc81!19sChIJSbRsHqjrMjoROcscxgfNjF0?authuser=0&hl=en&rclk=1,"18.8590975,79.7949404"
Masjid E Firdous,Mosque,"Masjid E Firdous, Utukur, Lakshettipet, Telangana 504215",,,"Utukur, Lakshettipet",,Telangana,IN,https://www.google.com/maps/place/Masjid+E+Firdous/data=!4m7!3m6!1s0x3bcd480ee90e2c3f:0xfcd8f71cabc7c5c8!8m2!3d18.8884431!4d79.2072006!16s%2Fg%2F1td5721r!19sChIJPywO6Q5IzTsRyMXHqxz32Pw?authuser=0&hl=en&rclk=1,"18.8884431,79.2072006"
Jamiya Masjid Ahlehadees,Mosque,"Jamiya Masjid Ahlehadees, Mortad, Telangana 503225",,,Mortad,,Telangana,IN,https://www.google.com/maps/place/Jamiya+Masjid+Ahlehadees/data=!4m7!3m6!1s0x3bcdbd4515e2f7f7:0xa458202683a0de80!8m2!3d18.8146068!4d78.4620595!16s%2Fg%2F1tfpn4lw!19sChIJ9_fiFUW9zTsRgN6ggyYgWKQ?authuser=0&hl=en&rclk=1,"18.8146068,78.4620595"
MASJID E MAHEBOOB E SUBHANI ( Markaz e Ahle Sunnat ),Mosque,"MASJID E MAHEBOOB E SUBHANI ( Markaz e Ahle Sunnat ), Sanjay Nagar, Adilabad, Telangana 504001",Sanjay Nagar,,Adilabad,504001,Telangana,IN,https://www.google.com/maps/place/MASJID+E+MAHEBOOB+E+SUBHANI+%28+Markaz+e+Ahle+Sunnat+%29/data=!4m7!3m6!1s0x3bd25c7cd0000001:0xe56e990e56fe962c!8m2!3d19.6669356!4d78.5213162!16s%2Fg%2F11c2kk77hk!19sChIJAQAA0Hxc0jsRLJb-Vg6ZbuU?authuser=0&hl=en&rclk=1,"19.6669356,78.5213162"
Masjid e Ishaat-e-Islam,Mosque,"MH33+H28 Masjid e Ishaat-e-Islam, Adilabad, Telangana 504001",,MH33+H28,Adilabad,504001,Telangana,IN,https://www.google.com/maps/place/Masjid+e+Ishaat-e-Islam/data=!4m7!3m6!1s0x3bd25c17d761b9e3:0x9051e74decccc3da!8m2!3d19.653917!4d78.552592!16s%2Fg%2F11g9vtzndj!19sChIJ47lh1xdc0jsR2sPM7E3nUZA?authuser=0&hl=en&rclk=1,"19.653917,78.55259199999999"
Budharpet Masjid,Mosque,"483V+F49 Budharpet Masjid, Pinjari Gutta, Nirmal, Telangana 504106",Pinjari Gutta,483V+F49,Nirmal,504106,Telangana,IN,https://www.google.com/maps/place/Budharpet+Masjid/data=!4m7!3m6!1s0x3bcd8b80c2fc5e99:0xbd732aff04f66e07!8m2!3d19.1036542!4d78.3428597!16s%2Fg%2F11dxchc4cr!19sChIJmV78woCLzTsRB272BP8qc70?authuser=0&hl=en&rclk=1,"19.103654199999998,78.34285969999999"
Madarsa al Arabiya Bait ul Uloom & Masjid e Rahmania,Mosque,"8FWM+597 Madarsa al Arabiya Bait ul Uloom & Masjid e Rahmania, MG Rd, Kagaznagar, Telangana 504296",,"8FWM+597, MG Rd",Kagaznagar,504296,Telangana,IN,https://www.google.com/maps/place/Madarsa+al+Arabiya+Bait+ul+Uloom+%26+Masjid+e+Rahmania/data=!4m7!3m6!1s0x3a2d56ba940d6e41:0xa09cb1cd9452c8a6!8m2!3d19.345412!4d79.4834169!16s%2Fg%2F11bw5xmyn4!19sChIJQW4NlLpWLToRpshSlM2xnKA?authuser=0&hl=en&rclk=1,"19.345412,79.4834169"
Masjid Badar,Mosque,"MG8C+44M Masjid Badar, Rickshaw Colony, Adilabad, Telangana 504001",Rickshaw Colony,MG8C+44M,Adilabad,504001,Telangana,IN,https://www.google.com/maps/place/Masjid+Badar/data=!4m7!3m6!1s0x3bd25c878e7870c1:0x8e24c92e23dce198!8m2!3d19.6653455!4d78.5202985!16s%2Fg%2F11bbrlytdq!19sChIJwXB4jodc0jsRmOHcIy7JJI4?authuser=0&hl=en&rclk=1,"19.6653455,78.5202985"
ILAHIYA MASJID,Mosque,"MGMH+97P ILAHIYA MASJID, Indira Nagar Rd, Bhagya Nagar, Adilabad, Telangana 504001",Bhagya Nagar,"MGMH+97P, Indira Nagar Rd",Adilabad,504001,Telangana,IN,https://www.google.com/maps/place/ILAHIYA+MASJID/data=!4m7!3m6!1s0x3bd25b8444ebd13f:0xe27cf6a1114241d4!8m2!3d19.6834654!4d78.5282048!16s%2Fg%2F11fzfhsmc2!19sChIJP9HrRIRb0jsR1EFCEaH2fOI?authuser=0&hl=en&rclk=1,"19.6834654,78.5282048"
Osman Masjid,Mosque,"4X47+RJX Osman Masjid, Asad Baba Nagar, Bhainsa, Telangana 504103",Asad Baba Nagar,4X47+RJX,Bhainsa,504103,Telangana,IN,https://www.google.com/maps/place/Osman+Masjid/data=!4m7!3m6!1s0x3bcdfe5b6bc0025d:0x854fb770d38fd2a3!8m2!3d19.107103!4d77.9641068!16s%2Fg%2F11cn6jvztk!19sChIJXQLAa1v-zTsRo9KP03C3T4U?authuser=0&hl=en&rclk=1,"19.107103,77.9641068"
MASJID-E-BILAL bll msjd,Mosque,"RP92+MP4 MASJID-E-BILAL bll msjd, Korutla, Telangana 505326",,RP92+MP4,Korutla,505326,Telangana,IN,https://www.google.com/maps/place/MASJID-E-BILAL+%D8%A8%D9%84%D8%A7%D9%84+%D9%85%D8%B3%D8%AC%D8%AF%E2%80%AD/data=!4m7!3m6!1s0x3bcd0bd540e16605:0xe48e6d02d37e3261!8m2!3d18.819129!4d78.7018186!16s%2Fg%2F11fcm7nf9x!19sChIJBWbhQNULzTsRYTJ-0wJtjuQ?authuser=0&hl=en&rclk=1,"18.819129,78.7018186"
Masjid-e-Anas,Mosque,"Masjid-e-Anas, Chennur, Telangana 504201",,,Chennur,,Telangana,IN,https://www.google.com/maps/place/Masjid-e-Anas/data=!4m7!3m6!1s0x3a32eba90c00966d:0xdf13a48769c39ab1!8m2!3d18.8557902!4d79.7921374!16s%2Fg%2F1pv5zg601!19sChIJbZYADKnrMjoRsZrDaYekE98?authuser=0&hl=en&rclk=1,"18.855790199999998,79.7921374"
Masjid E-munawar,Mosque,"MGHG+WFR Masjid E-munawar, Indira Nagar, Bhagya Nagar, Adilabad, Telangana 504001","Indira Nagar, Bhagya Nagar",MGHG+WFR,Adilabad,504001,Telangana,IN,https://www.google.com/maps/place/Masjid+E-munawar/data=!4m7!3m6!1s0x3bd25b814a89a5d1:0x13757a533e5d9127!8m2!3d19.6798716!4d78.5261472!16s%2Fg%2F11g5_f9f2n!19sChIJ0aWJSoFb0jsRJ5FdPlN6dRM?authuser=0&hl=en&rclk=1,"19.6798716,78.5261472"
masjid e noor,Mosque,"MG4Q+H92 masjid e noor, Sri Rama Colony, Adilabad, Telangana 504001",Sri Rama Colony,MG4Q+H92,Adilabad,504001,Telangana,IN,https://www.google.com/maps/place/masjid+e+noor/data=!4m7!3m6!1s0x3bd25c6bd009a42f:0x83777eaad70e454d!8m2!3d19.6563983!4d78.5384053!16s%2Fg%2F11c5t1smfj!19sChIJL6QJ0Gtc0jsRTUUO16p-d4M?authuser=0&hl=en&rclk=1,"19.6563983,78.5384053"
Masjid e Bilala,Mosque,"Masjid e Bilala, Adilabad-Asifabad Rd, Jainoor, Telangana 504313",,Adilabad-Asifabad Rd,Jainoor,504313,Telangana,IN,https://www.google.com/maps/place/Masjid+e+Bilala/data=!4m7!3m6!1s0x3bd29bb7204a9e0f:0x706dab2553f72b79!8m2!3d19.3750134!4d78.9120455!16s%2Fg%2F11f6qq3rwz!19sChIJD55KILeb0jsReSv3UyWrbXA?authuser=0&hl=en&rclk=1,"19.3750134,78.91204549999999"
Masjid-e-Mohammadia,Mosque,"Masjid-e-Mohammadia, Korutla, Telangana 505326",,,Korutla,,Telangana,IN,https://www.google.com/maps/place/Masjid-e-Mohammadia/data=!4m7!3m6!1s0x3bcd0b166f329e15:0x269f9248997903f9!8m2!3d18.818146!4d78.7182212!16s%2Fg%2F11h1423k6!19sChIJFZ4ybxYLzTsR-QN5mUiSnyY?authuser=0&hl=en&rclk=1,"18.818146,78.7182212"
Masjid -E- Inaamul Hassan,Mosque,"RPG5+XMW Masjid -E- Inaamul Hassan, Nayeem Nagar, Korutla, Telangana 505326",Nayeem Nagar,RPG5+XMW,Korutla,505326,Telangana,IN,https://www.google.com/maps/place/Masjid+-E-+Inaamul+Hassan/data=!4m7!3m6!1s0x3bcd0b2438fc85fd:0x69d3d28bfa0dd945!8m2!3d18.8274867!4d78.7091979!16s%2Fg%2F11g8wpmlhh!19sChIJ_YX8OCQLzTsRRdkN-ovS02k?authuser=0&hl=en&rclk=1,"18.827486699999998,78.70919789999999"
Masjid-e-Bakhtawar,Mosque,"Masjid-e-Bakhtawar, Chennur, Telangana 504201",,,Chennur,,Telangana,IN,https://www.google.com/maps/place/Masjid-e-Bakhtawar/data=!4m7!3m6!1s0x3a32ebabc3634da1:0x9871628c748cf414!8m2!3d18.8548409!4d79.7896162!16s%2Fg%2F1ptxr7h2s!19sChIJoU1jw6vrMjoRFPSMdIxicZg?authuser=0&hl=en&rclk=1,"18.8548409,79.7896162"
Masjid-e-hanfia,Mosque,"MGPM+2C4 Masjid-e-hanfia, Kranti Nagar, Gandhi Nagar, Adilabad, Telangana 504001","Kranti Nagar, Gandhi Nagar",MGPM+2C4,Adilabad,504001,Telangana,IN,https://www.google.com/maps/place/Masjid-e-hanfia/data=!4m7!3m6!1s0x3bd25b8fa218f2e1:0x18f2829bdf51eaf4!8m2!3d19.6850231!4d78.5335857!16s%2Fg%2F11dd_qtmkm!19sChIJ4fIYoo9b0jsR9OpR35uC8hg?authuser=0&hl=en&rclk=1,"19.6850231,78.5335857"
Masjid e Khadim,Mosque,"FHHF+MW9 Masjid e Khadim, Pet Mohalla, Sirpur, Telangana 504299",,FHHF+MW9 Pet Mohalla,Sirpur,504299,Telangana,IN,https://www.google.com/maps/place/Masjid+e+Khadim/data=!4m7!3m6!1s0x3a2d45425afd0481:0xbb8003f82b6742d8!8m2!3d19.4791742!4d79.5748539!16s%2Fg%2F11c3w0kdh5!19sChIJgQT9WkJFLToR2EJnK_gDgLs?authuser=0&hl=en&rclk=1,"19.4791742,79.5748539"
Masjid-E- Rahimaniya,Mosque,"MGRR+5G5 Masjid-E- Rahimaniya, Tirupally, Adilabad, Telangana 504001",Tirupally,MGRR+5G5,Adilabad,504001,Telangana,IN,https://www.google.com/maps/place/Masjid-E-+Rahimaniya/data=!4m7!3m6!1s0x3bd25ba3e27d5519:0x3ff2f3403e845bff!8m2!3d19.6903884!4d78.5413572!16s%2Fg%2F11gmblynz2!19sChIJGVV94qNb0jsR_1uEPkDz8j8?authuser=0&hl=en&rclk=1,"19.6903884,78.5413572"
Khanka E Mohammadi,Mosque,"MGJV+P72 Khanka E Mohammadi, Tirupally, Adilabad, Telangana 504001",Tirupally,MGJV+P72,Adilabad,504001,Telangana,IN,https://www.google.com/maps/place/Khanka+E+Mohammadi/data=!4m7!3m6!1s0x3bd25bd22744411f:0x22b8cbaf2829e2c7!8m2!3d19.6817626!4d78.5431504!16s%2Fg%2F11g1rbmtkk!19sChIJH0FEJ9Jb0jsRx-IpKK_LuCI?authuser=0&hl=en&rclk=1,"19.6817626,78.5431504"
Masjid-e-Bilall,Diagnostic center,"Masjid-e-Bilall, Bilalpura, Korutla, Telangana 505326",Bilalpura,,Korutla,505326,Telangana,IN,https://www.google.com/maps/place/Masjid-e-Bilall/data=!4m7!3m6!1s0x3bcd0ae0070c6887:0xfc23cdd75824b486!8m2!3d18.8190955!4d78.7017632!16s%2Fg%2F11gzwlr7f!19sChIJh2gMB-AKzTsRhrQkWNfNI_w?authuser=0&hl=en&rclk=1,"18.8190955,78.7017632"
Burhaniya Masjid Pan Galli,Mosque,"38WW+P6V Burhaniya Masjid Pan Galli, Market Rd, Bagulwada, Nirmal, Telangana 504106",Bagulwada,"38WW+P6V, Market Rd",Nirmal,504106,Telangana,IN,https://www.google.com/maps/place/Burhaniya+Masjid+Pan+Galli/data=!4m7!3m6!1s0x3bcd8c794121c375:0xc5851a3786d85199!8m2!3d19.0968567!4d78.345553!16s%2Fg%2F11c5814380!19sChIJdcMhQXmMzTsRmVHYhjcahcU?authuser=0&hl=en&rclk=1,"19.0968567,78.345553"
Masjid E Namrah,Mosque,"MGGM+7CV Masjid E Namrah, Ambedkar Chowk, Bhuktapur, Telangana 504001",,"MGGM+7CV, Ambedkar Chowk",Bhuktapur,,Telangana,IN,https://www.google.com/maps/place/Masjid+E+Namrah/data=!4m7!3m6!1s0x3bd25b8829cd21e7:0xb871a2b68c3b292c!8m2!3d19.6757458!4d78.5335363!16s%2Fg%2F11b6v0h3n3!19sChIJ5yHNKYhb0jsRLCk7jLaicbg?authuser=0&hl=en&rclk=1,"19.675745799999998,78.5335363"
Umar Masjid,Mosque,"MG2H+9J7 Umar Masjid, Pittalwada, Khoja Colony, Adilabad, Telangana 504001","Pittalwada, Khoja Colony",MG2H+9J7,Adilabad,504001,Telangana,IN,https://www.google.com/maps/place/Umar+Masjid/data=!4m7!3m6!1s0x3bd25c5d9e45a7ff:0xd9937a4c4bfe8c53!8m2!3d19.6509166!4d78.5290486!16s%2Fg%2F11fx95lqmp!19sChIJ_6dFnl1c0jsRU4z-S0x6k9k?authuser=0&hl=en&rclk=1,"19.6509166,78.5290486"
MASJID-E-NOORAIN,Mosque,"VCFQ+9FV MASJID-E-NOORAIN, Reddy Colony, Mancherial, Telangana 504208",Reddy Colony,VCFQ+9FV,Mancherial,504208,Telangana,IN,https://www.google.com/maps/place/MASJID-E-NOORAIN/data=!4m7!3m6!1s0x3a32cb27edba3829:0x47d4434a72563692!8m2!3d18.8734981!4d79.4386736!16s%2Fg%2F11ghnfl4km!19sChIJKTi67SfLMjoRkjZWckpD1Ec?authuser=0&hl=en&rclk=1,"18.8734981,79.4386736"
Masjid E IBrahimiya,Mosque,"Masjid E IBrahimiya, Shanti Nagar, Adilabad, Telangana 504001",Shanti Nagar,,Adilabad,504001,Telangana,IN,https://www.google.com/maps/place/Masjid+E+IBrahimiya/data=!4m7!3m6!1s0x3bd25d44b0027dc7:0x5b9c582e308fceb0!8m2!3d19.6688451!4d78.5432386!16s%2Fg%2F11flbsbk92!19sChIJx30CsERd0jsRsM6PMC5YnFs?authuser=0&hl=en&rclk=1,"19.6688451,78.5432386"
Bilal Rz Masjid,Mosque,"29C7+8C3 Bilal Rz Masjid, Gamjal, Telangana 504105",,29C7+8C3,Gamjal,504105,Telangana,IN,https://www.google.com/maps/place/Bilal+Rz+Masjid/data=!4m7!3m6!1s0x3bcd8dfd5e8bef41:0x90088cf3276a00b4!8m2!3d19.0207686!4d78.3635425!16s%2Fg%2F11g1dywtz6!19sChIJQe-LXv2NzTsRtABqJ_OMCJA?authuser=0&hl=en&rclk=1,"19.0207686,78.3635425"
0smam e bin affan Islampura Masjid,Mosque,"RJWH+C2R 0smam e bin affan Islampura Masjid, Boyawada, Metpally, Telangana 505325",Boyawada,RJWH+C2R,Metpally,505325,Telangana,IN,https://www.google.com/maps/place/0smam+e+bin+affan+Islampura+Masjid/data=!4m7!3m6!1s0x3bcd9f891622a3b3:0xf538d67cce63adb6!8m2!3d18.8461081!4d78.627511!16s%2Fg%2F11b6hsq4vx!19sChIJs6MiFomfzTsRtq1jznzWOPU?authuser=0&hl=en&rclk=1,"18.8461081,78.627511"
Masjid e Noorani,Mosque,"MGMQ+P66 Masjid e Noorani, Mahalaxmiwada, Adilabad, Telangana 504001",Mahalaxmiwada,MGMQ+P66,Adilabad,504001,Telangana,IN,https://www.google.com/maps/place/Masjid+e+Noorani/data=!4m7!3m6!1s0x3bd25b71656d7da1:0x9db65c4943296ea6!8m2!3d19.6842802!4d78.5380187!16s%2Fg%2F11gphd3bdg!19sChIJoX1tZXFb0jsRpm4pQ0lctp0?authuser=0&hl=en&rclk=1,"19.6842802,78.5380187"
Chennur Eidgah,Mosque,"VQ3J+64P Chennur Eidgah, Chennur, Telangana 504201",,VQ3J+64P,Chennur,504201,Telangana,IN,https://www.google.com/maps/place/Chennur+Eidgah/data=!4m7!3m6!1s0x3a32eb346e2922d1:0x522bc793d3989cc0!8m2!3d18.8530758!4d79.7803149!16s%2Fg%2F11gr41f9d1!19sChIJ0SIpbjTrMjoRwJyY05PHK1I?authuser=0&hl=en&rclk=1,"18.8530758,79.7803149"
Eid-Gah Adilabad,Mosque,"MGFH+76M Eid-Gah Adilabad, Vidya Nagar, Adilabad, Telangana 504001",Vidya Nagar,MGFH+76M,Adilabad,504001,Telangana,IN,https://www.google.com/maps/place/Eid-Gah+Adilabad/data=!4m7!3m6!1s0x3bd25dc51f70cbab:0xb53df29e2fcc553b!8m2!3d19.6732088!4d78.5280509!16s%2Fg%2F11rd28b2_c!19sChIJq8twH8Vd0jsRO1XML57yPbU?authuser=0&hl=en&rclk=1,"19.673208799999998,78.5280509"
Nagina Mosque,Mosque,"MGJM+HP5 Nagina Mosque, Tatiguda Colony, Adilabad, Telangana 504001",Tatiguda Colony,MGJM+HP5,Adilabad,504001,Telangana,IN,https://www.google.com/maps/place/Nagina+Mosque/data=!4m7!3m6!1s0x3bd25b4ce49791ef:0x49520374c45c5a0!8m2!3d19.6813908!4d78.5343507!16s%2Fg%2F11h6tjfc17!19sChIJ75GX5Exb0jsRoMVFTDcglQQ?authuser=0&hl=en&rclk=1,"19.6813908,78.53435069999999"
"Dargah Hazrat Syed Shah Baba,R.A (GADI)",Mosque,"VQ5V+RW7 Dargah Hazrat Syed Shah Baba,R.A (GADI), Chennur, Telangana 504201",,VQ5V+RW7,Chennur,504201,Telangana,IN,"https://www.google.com/maps/place/Dargah+Hazrat+Syed+Shah+Baba,R.A+%28GADI%29/data=!4m7!3m6!1s0x3a32eb45406c13c1:0x6ceb3a5b566c116e!8m2!3d18.8595385!4d79.7947966!16s%2Fg%2F11h6r2nwsr!19sChIJwRNsQEXrMjoRbhFsVls662w?authuser=0&hl=en&rclk=1","18.8595385,79.7947966"
Katkapur Mosque (kttkaapuur msiidu),Mosque,"XVVG+5RF Katkapur Mosque (kttkaapuur msiidu), near pond ( ceruvu dggr, Katkapur, Telangana 505460",,"XVVG+5RF, near pond ( ceruvu dggr",Katkapur,505460,Telangana,IN,https://www.google.com/maps/place/Katkapur+Mosque+%28%E0%B0%95%E0%B0%9F%E0%B1%8D%E0%B0%95%E0%B0%BE%E0%B0%AA%E0%B1%82%E0%B0%B0%E0%B1%8D+%E0%B0%AE%E0%B0%B8%E0%B1%80%E0%B0%A6%E0%B1%81%29/data=!4m7!3m6!1s0x3bcd6fb4c94e53ab:0xa93ccc3c7b6ec293!8m2!3d18.9894705!4d78.8750372!16s%2Fg%2F11fhr7tfd0!19sChIJq1NOybRvzTsRk8JuezzMPKk?authuser=0&hl=en&rclk=1,"18.9894705,78.8750372"
Masjid e Raza,Mosque,"MG9V+JPV Masjid e Raza, Shanti Nagar, Adilabad, Telangana 504001",Shanti Nagar,MG9V+JPV,Adilabad,504001,Telangana,IN,https://www.google.com/maps/place/Masjid+e+Raza/data=!4m7!3m6!1s0x3bd25d7fcd7b7ccd:0xe8779b7a8f75f499!8m2!3d19.6691213!4d78.5442846!16s%2Fg%2F11kh3x29df!19sChIJzXx7zX9d0jsRmfR1j3qbd-g?authuser=0&hl=en&rclk=1,"19.6691213,78.5442846"
Masjid-e- Amina,Mosque,"MGFR+G3G Masjid-e- Amina, Brahmanwadi, Adilabad, Telangana 504001",Brahmanwadi,MGFR+G3G,Adilabad,504001,Telangana,IN,https://www.google.com/maps/place/Masjid-e-+Amina/data=!4m7!3m6!1s0x3bd25ddc88f570b9:0x22cb1f0c107c4bc6!8m2!3d19.6738162!4d78.5401916!16s%2Fg%2F11k7xv923r!19sChIJuXD1iNxd0jsRxkt8EAwfyyI?authuser=0&hl=en&rclk=1,"19.673816199999997,78.5401916"
Masjid-E-Aqsa,Mosque,"Masjid-E-Aqsa, Masjid-E-Aqsa Khanapur, Ambedkar Nagar, Khanapur, Telangana 504001",Ambedkar Nagar,Masjid-E-Aqsa Khanapur,Khanapur,504001,Telangana,IN,https://www.google.com/maps/place/Masjid-E-Aqsa/data=!4m7!3m6!1s0x3bd25dcc44670e61:0x730f194bf8b6847d!8m2!3d19.6716338!4d78.5448989!16s%2Fg%2F11j07wlncw!19sChIJYQ5nRMxd0jsRfYS2-EsZD3M?authuser=0&hl=en&rclk=1,"19.6716338,78.54489889999999"
Masjid-E-Zohra,Mosque,"Masjid-E-Zohra, Masjid-E- Zohra, Ambedkar Nagar, Khanapur, Telangana 504001",Ambedkar Nagar,Masjid-E- Zohra,Khanapur,504001,Telangana,IN,https://www.google.com/maps/place/Masjid-E-Zohra/data=!4m7!3m6!1s0x3bd25dbaced23b33:0xe16af2c30b24656!8m2!3d19.6729258!4d78.5447961!16s%2Fg%2F11j000cqb1!19sChIJMzvSzrpd0jsRVkayMCyvFg4?authuser=0&hl=en&rclk=1,"19.672925799999998,78.5447961"
Masjid Mohammadia,Mosque,"9QCG+VR7 Masjid Mohammadia, Utnoor Rd, Utnur, Telangana 504311",,"9QCG+VR7, Utnoor Rd",Utnur,504311,Telangana,IN,https://www.google.com/maps/place/Masjid+Mohammadia/data=!4m7!3m6!1s0x3bd285b0dc0d26a7:0xf6fa3333ae2948b7!8m2!3d19.3721507!4d78.7770528!16s%2Fg%2F11c2p105cs!19sChIJpyYN3LCF0jsRt0gprjMz-vY?authuser=0&hl=en&rclk=1,"19.3721507,78.77705279999999"
MASJID E IBRAHIMIA,Mosque,"MASJID E IBRAHIMIA, 2-5-275/1, tirpally, Adilabad, Telangana 504001",tirpally,2-5-275/1,Adilabad,504001,Telangana,IN,https://www.google.com/maps/place/MASJID+E+IBRAHIMIA/data=!4m7!3m6!1s0x3bd25b8b6628a527:0x550e60c0cd80575a!8m2!3d19.6814941!4d78.5416637!16s%2Fg%2F11f15jwjc0!19sChIJJ6UoZotb0jsRWleAzcBgDlU?authuser=0&hl=en&rclk=1,"19.6814941,78.5416637"
Masjid-E-Mohammediya Qadriya,Mosque,"RQXV+PFX Masjid-E-Mohammediya Qadriya, Indranagar, Chennur, Telangana 504201",Indranagar,RQXV+PFX,Chennur,504201,Telangana,IN,https://www.google.com/maps/place/Masjid-E-Mohammediya+Qadriya/data=!4m7!3m6!1s0x3a32ebde9850dce3:0x83824848ff621cc1!8m2!3d18.849373!4d79.7937199!16s%2Fg%2F11g0gppcnj!19sChIJ49xQmN7rMjoRwRxi_0hIgoM?authuser=0&hl=en&rclk=1,"18.849373,79.7937199"
Masjid-e-Siddique,Mosque,"MG78+GG3 Masjid-e-Siddique, Unnamed Road, Subhash Nagar, Adilabad, Telangana 504001",Subhash Nagar,"MG78+GG3, Unnamed Road",Adilabad,504001,Telangana,IN,https://www.google.com/maps/place/Masjid-e-Siddique/data=!4m7!3m6!1s0x3bd25ddfdb658e8d:0x40be051be107f7ff!8m2!3d19.66377!4d78.516291!16s%2Fg%2F11h6mnz8kz!19sChIJjY5l299d0jsR__cH4RsFvkA?authuser=0&hl=en&rclk=1,"19.66377,78.516291"
Masjid-e-Hazrat Syedna Ali,Mosque,"Masjid-e-Hazrat Syedna Ali, Tatiguda Colony, Adilabad, Telangana 504001",Tatiguda Colony,,Adilabad,504001,Telangana,IN,https://www.google.com/maps/place/Masjid-e-Hazrat+Syedna+Ali/data=!4m7!3m6!1s0x3bd25b054f1b7477:0xbe5511ba6cbe653a!8m2!3d19.6844778!4d78.5344335!16s%2Fg%2F11h_488z3f!19sChIJd3QbTwVb0jsROmW-bLoRVb4?authuser=0&hl=en&rclk=1,"19.6844778,78.53443349999999"
Osmania Masjid,Mosque,"MGGH+J95 Osmania Masjid, Unnamed Road, Osmania Nagar, Adilabad, Telangana 504001",Osmania Nagar,"MGGH+J95, Unnamed Road",Adilabad,504001,Telangana,IN,https://www.google.com/maps/place/Osmania+Masjid/data=!4m7!3m6!1s0x3bd25be4233f9883:0xb2c0a1b37d2b2191!8m2!3d19.6765118!4d78.5284822!16s%2Fg%2F11h76l8r35!19sChIJg5g_I-Rb0jsRkSErfbOhwLI?authuser=0&hl=en&rclk=1,"19.6765118,78.5284822"
"Madarsa Jamia Kanzul Iman, Tajushariya Colony",Mosque,"Madarsa Jamia Kanzul Iman, Tajushariya Colony, Tajushshariah colony, sathnala road, Adilabad, Telangana 504001",,"Tajushshariah colony, sathnala road",Adilabad,504001,Telangana,IN,"https://www.google.com/maps/place/Madarsa+Jamia+Kanzul+Iman,+Tajushariya+Colony/data=!4m7!3m6!1s0x3bd25bf7e96ee307:0x951a6fc37998f72e!8m2!3d19.6781047!4d78.5569819!16s%2Fg%2F11tsz_q5km!19sChIJB-Nu6fdb0jsRLveYecNvGpU?authuser=0&hl=en&rclk=1","19.6781047,78.5569819"
"Dargah Hazrat Syed Meer Anwar Ali Shah Baba, R.A,",Mosque,"VQ3Q+CRF Dargah Hazrat Syed Meer Anwar Ali Shah Baba, R.A,, Chennur, Telangana 504201",,VQ3Q+CRF,Chennur,504201,Telangana,IN,"https://www.google.com/maps/place/Dargah+Hazrat+Syed+Meer+Anwar+Ali+Shah+Baba,+R.A,/data=!4m7!3m6!1s0x3a32ebec0e3164a9:0xfd7c4c0a32d7ff90!8m2!3d18.853568!4d79.7895399!16s%2Fg%2F11h7607fr7!19sChIJqWQxDuzrMjoRkP_XMgpMfP0?authuser=0&hl=en&rclk=1","18.853568,79.7895399"
Jama masjid bela,Mosque,"PQCC+JH9 Jama masjid bela, Bela, Telangana 504309",,PQCC+JH9,Bela,504309,Telangana,IN,https://www.google.com/maps/place/Jama+masjid+bela/data=!4m7!3m6!1s0x3bd2f1488630dd93:0xfcaa6b3e01b7e421!8m2!3d19.7215441!4d78.771485!16s%2Fg%2F11pzkgxv_6!19sChIJk90whkjx0jsRIeS3AT5rqvw?authuser=0&hl=en&rclk=1,"19.7215441,78.771485"
Jama Masjid,Mosque,"MH8H+G5R Jama Masjid, Bangariguda, Telangana 504001",,MH8H+G5R,Bangariguda,504001,Telangana,IN,https://www.google.com/maps/place/Jama+Masjid/data=!4m7!3m6!1s0x3bd25ebaa488962f:0x7c9c4576ec3277f6!8m2!3d19.6663678!4d78.5778967!16s%2Fg%2F11bxfjsvl4!19sChIJL5aIpLpe0jsR9ncy7HZFnHw?authuser=0&hl=en&rclk=1,"19.6663678,78.5778967"
Masjid E Umar,Mosque,"PG3V+48M Masjid E Umar, Adilabad, Telangana 504001",,PG3V+48M,Adilabad,,Telangana,IN,https://www.google.com/maps/place/Masjid+E+Umar/data=!4m7!3m6!1s0x3bd25bdf0118b5d3:0x62b0f5a28ee4880c!8m2!3d19.7028448!4d78.5433019!16s%2Fg%2F11ns53vp9f!19sChIJ07UYAd9b0jsRDIjkjqL1sGI?authuser=0&hl=en&rclk=1,"19.702844799999998,78.5433019"
"Mosque , arepalle",Mosque,"327F+R6Q Mosque , arepalle, Arepally Rd, Donthapur, Arpapalle, Telangana 505425",,"327F+R6Q, Arepally Rd","Donthapur, Arpapalle",505425,Telangana,IN,"https://www.google.com/maps/place/Mosque+,+arepalle/data=!4m7!3m6!1s0x3bcd5d8dd8a2592b:0x800db10c518ef6fa!8m2!3d19.0645903!4d79.0231206!16s%2Fg%2F11qg18z79k!19sChIJK1mi2I1dzTsR-vaOUQyxDYA?authuser=0&hl=en&rclk=1","19.0645903,79.0231206"
Masjid E Hamza Ramnagar Adilabad,Mosque,"MG4C+F8M Masjid E Hamza Ramnagar Adilabad, Ramnagar Colony, Adilabad, Telangana 504001",Ramnagar Colony,MG4C+F8M,Adilabad,504001,Telangana,IN,https://www.google.com/maps/place/Masjid+E+Hamza+Ramnagar+Adilabad/data=!4m7!3m6!1s0x3bd25d6d632224ef:0xc12bfcc836f7600c!8m2!3d19.6562608!4d78.5213636!16s%2Fg%2F11r_w2kkk1!19sChIJ7yQiY21d0jsRDGD3Nsj8K8E?authuser=0&hl=en&rclk=1,"19.6562608,78.5213636"
Masjid E Abu Bakar,Mosque,"2JXP+GVV Masjid E Abu Bakar, Nirmal - Mancherial Rd, Khanapur, Thimmapur, Telangana 504203",,"2JXP+GVV, Nirmal - Mancherial Rd","Khanapur, Thimmapur",504203,Telangana,IN,https://www.google.com/maps/place/Masjid+E+Abu+Bakar/data=!4m7!3m6!1s0x3bcd838be7675037:0x1ecef2637bebf20c!8m2!3d19.0488678!4d78.6371746!16s%2Fg%2F11kyxhjk80!19sChIJN1Bn54uDzTsRDPLre2Pyzh4?authuser=0&hl=en&rclk=1,"19.0488678,78.6371746"
Masjid e Afsana,Mosque,"JGRP+7WM Masjid e Afsana, KRK Rd, KRK Colony, Khoja Colony, Adilabad, Telangana 504001","KRK Colony, Khoja Colony","JGRP+7WM, KRK Rd",Adilabad,504001,Telangana,IN,https://www.google.com/maps/place/Masjid+e+Afsana/data=!4m7!3m6!1s0x3bd25d5d2e428473:0xd94d955bdaa63bd4!8m2!3d19.6407052!4d78.5372911!16s%2Fg%2F11t4wlk9cp!19sChIJc4RCLl1d0jsR1Dum2luVTdk?authuser=0&hl=en&rclk=1,"19.6407052,78.53729109999999"
Masjid e Amina Abdullah Rashod,Mosque,"X5W3+5FW Masjid e Amina Abdullah Rashod, bolishetty rajanna mro office, Dantepally, Telangana 504206",,"X5W3+5FW, bolishetty rajanna mro office",Dantepally,504206,Telangana,IN,https://www.google.com/maps/place/Masjid+e+Amina+Abdullah+Rashod/data=!4m7!3m6!1s0x3bcd45765b74900f:0xabe4778fa50cba8c!8m2!3d18.9954814!4d79.1537153!16s%2Fg%2F11n25bc1t1!19sChIJD5B0W3ZFzTsRjLoMpY935Ks?authuser=0&hl=en&rclk=1,"18.9954814,79.1537153"
MASJID E AYESHA(AHLE HADEES),Mosque,"VCX8+2H5 MASJID E AYESHA(AHLE HADEES), Renjarla, Telangana 503218",,VCX8+2H5,Renjarla,503218,Telangana,IN,https://www.google.com/maps/place/MASJID+E+AYESHA%28AHLE+HADEES%29/data=!4m7!3m6!1s0x3bcd97c4341caea1:0xb8cfa7b75c7be19d!8m2!3d18.8975075!4d78.4164921!16s%2Fg%2F11fpg73khm!19sChIJoa4cNMSXzTsRneF7XLenz7g?authuser=0&hl=en&rclk=1,"18.8975075,78.4164921"
Nazia Abdul Hamid Kabli Masjid,Mosque,"R7HQ+76V Nazia Abdul Hamid Kabli Masjid, Saraswathi Nagar, Pipri, Telangana 503217",Saraswathi Nagar,R7HQ+76V,Pipri,503217,Telangana,IN,https://www.google.com/maps/place/Nazia+Abdul+Hamid+Kabli+Masjid/data=!4m7!3m6!1s0x3bcdeb2e74d0ce39:0xe4755d833a3c95b6!8m2!3d18.8283295!4d78.2870097!16s%2Fg%2F11rq3vrxl3!19sChIJOc7QdC7rzTsRtpU8OoNddeQ?authuser=0&hl=en&rclk=1,"18.8283295,78.2870097"
Masjid-E-Kausar,Mosque,"MG8Q+6M8 Masjid-E-Kausar, Shanti Nagar, Adilabad, Telangana 504001",Shanti Nagar,MG8Q+6M8,Adilabad,504001,Telangana,IN,https://www.google.com/maps/place/Masjid-E-Kausar/data=!4m7!3m6!1s0x3bd25c726cbfffff:0xdcc8a30755b4260c!8m2!3d19.6655322!4d78.5391992!16s%2Fg%2F11txmzh9h_!19sChIJ__-_bHJc0jsRDCa0VQejyNw?authuser=0&hl=en&rclk=1,"19.665532199999998,78.5391992"
Masjid-E-ibraheem bin abbas,Mosque,"MGGX+2JV Masjid-E-ibraheem bin abbas, Ambedkar Nagar, Adilabad, Telangana 504001",Ambedkar Nagar,MGGX+2JV,Adilabad,504001,Telangana,IN,https://www.google.com/maps/place/Masjid-E-ibraheem+bin+abbas/data=!4m7!3m6!1s0x3bd25dca817e57db:0x80929612f281e68c!8m2!3d19.6751132!4d78.5490388!16s%2Fg%2F11jz2dzlg7!19sChIJ21d-gcpd0jsRjOaB8hKWkoA?authuser=0&hl=en&rclk=1,"19.6751132,78.54903879999999"
Masjid - e - Ansar,Mosque,"CPQF+X75 Masjid - e - Ansar, Dabba, Telangana 504299",,CPQF+X75,Dabba,504299,Telangana,IN,https://www.google.com/maps/place/Masjid+-+e+-+Ansar/data=!4m7!3m6!1s0x3a2d5dca56d925d7:0x552c17ecd1cdd770!8m2!3d19.439885!4d79.7232312!16s%2Fg%2F11n6jjs8y0!19sChIJ1yXZVspdLToRcNfN0ewXLFU?authuser=0&hl=en&rclk=1,"19.439885,79.7232312"
Makkah Masjid,Mosque,"JGVP+75 Makkah Masjid, Khoja Colony, Adilabad, Telangana 504001",Khoja Colony,JGVP+75,Adilabad,504001,Telangana,IN,https://www.google.com/maps/place/Makkah+Masjid/data=!4m7!3m6!1s0x3bd25d02ee832577:0x98776ac946be5479!8m2!3d19.6431637!4d78.5353692!16s%2Fg%2F11r_wlfhm2!19sChIJdyWD7gJd0jsReVS-Rslqd5g?authuser=0&hl=en&rclk=1,"19.6431637,78.53536919999999"
Chilla Mubarak Gouse e Azam,Mosque,"VQ4W+X4G Chilla Mubarak Gouse e Azam, Chennur, Telangana 504201",,VQ4W+X4G,Chennur,504201,Telangana,IN,https://www.google.com/maps/place/Chilla+Mubarak+Gouse+e+Azam/data=!4m7!3m6!1s0x3a32eb21ab958ad5:0x3ae6b59a4b6f5e6f!8m2!3d18.8574495!4d79.7953405!16s%2Fg%2F11h6gc2ps0!19sChIJ1YqVqyHrMjoRb15vS5q15jo?authuser=0&hl=en&rclk=1,"18.857449499999998,79.7953405"
Masjid E Yaqub Ali,Mosque,"R83X+854 Masjid E Yaqub Ali, Potial, Telangana 505187",,R83X+854,Potial,505187,Telangana,IN,https://www.google.com/maps/place/Masjid+E+Yaqub+Ali/data=!4m7!3m6!1s0x3bcd353c84f91ed1:0x836c93a56e1d021c!8m2!3d18.8032522!4d79.3479638!16s%2Fg%2F11l2xpxbkc!19sChIJ0R75hDw1zTsRHAIdbqWTbIM?authuser=0&hl=en&rclk=1,"18.8032522,79.3479638"
MASJID - E- RAHMANIA,Mosque,"MASJID - E- RAHMANIA, Unnamed Road, Ram nagar, Teachers Colony, Mancherial, Telangana 504208","Ram nagar, Teachers Colony",Unnamed Road,Mancherial,504208,Telangana,IN,https://www.google.com/maps/place/MASJID+-+E-+RAHMANIA/data=!4m7!3m6!1s0x3a32cb65eed92881:0x980ff0a870d468bf!8m2!3d18.8666919!4d79.4418169!16s%2Fg%2F11ry77cyq4!19sChIJgSjZ7mXLMjoRv2jUcKjwD5g?authuser=0&hl=en&rclk=1,"18.8666919,79.44181689999999"
jaam msiid bttttpuur,Mosque,"WCJX+6HV jaam msiid bttttpuur, Battapur, Telangana 503308",,WCJX+6HV,Battapur,503308,Telangana,IN,https://www.google.com/maps/place/%E0%B0%9C%E0%B0%BE%E0%B0%AE+%E0%B0%AE%E0%B0%B8%E0%B1%80%E0%B0%A6%E0%B1%8D+%E0%B0%AC%E0%B0%9F%E0%B1%8D%E0%B0%9F%E0%B0%AA%E0%B1%82%E0%B0%B0%E0%B1%8D/data=!4m7!3m6!1s0x3bcd918b3f47d8ad:0xfe854f6f76021030!8m2!3d18.930614!4d78.448918!16s%2Fg%2F11nxqyzj_v!19sChIJrdhHP4uRzTsRMBACdm9Phf4?authuser=0&hl=en&rclk=1,"18.930614,78.44891799999999"
Masjid-e-ammar,Mosque,"Masjid-e-ammar, Khaja Ahmed Manzil, Star Function Hall Rd, Hajipura, Korutla, Telangana 505326",Hajipura,"Khaja Ahmed Manzil, Star Function Hall Rd",Korutla,505326,Telangana,IN,https://www.google.com/maps/place/Masjid-e-ammar/data=!4m7!3m6!1s0x3bcd0bcbf0300819:0x9ed518a253298d5b!8m2!3d18.8282609!4d78.7224816!16s%2Fg%2F11mxtvd9l0!19sChIJGQgw8MsLzTsRW40pU6IY1Z4?authuser=0&hl=en&rclk=1,"18.8282609,78.7224816"
Eidgah / `yd gh - Kammarpally,Mosque,"RGQF+2H9 Eidgah / `yd gh - Kammarpally, Nizamabad - Mancherial - Jagdalpur Rd, Uploor, Telangana 503308",,"RGQF+2H9, Nizamabad - Mancherial - Jagdalpur Rd",Uploor,503308,Telangana,IN,https://www.google.com/maps/place/Eidgah+%2F+%D8%B9%DB%8C%D8%AF+%DA%AF%D8%A7%DB%81+-+Kammarpally%E2%80%AD/data=!4m7!3m6!1s0x3bcd9996e8ddfaf9:0x132ad191713368c!8m2!3d18.8385027!4d78.5243022!16s%2Fg%2F11tnlw13cr!19sChIJ-frd6JaZzTsRjDYTFxmtMgE?authuser=0&hl=en&rclk=1,"18.8385027,78.5243022"
Masjid-E-mehraj,Mosque,"9F5M+Q6X Masjid-E-mehraj, Kagaznagar, Telangana 504296",,9F5M+Q6X,Kagaznagar,504296,Telangana,IN,https://www.google.com/maps/place/Masjid-E-mehraj/data=!4m7!3m6!1s0x3a2d512301acbe4f:0xa16b6b0da34d435a!8m2!3d19.3594803!4d79.4831088!16s%2Fg%2F11kgcjm_5t!19sChIJT76sASNRLToRWkNNow1ra6E?authuser=0&hl=en&rclk=1,"19.359480299999998,79.4831088"
Masjid e Abu Hurera,Mosque,"MG3R+8F Masjid e Abu Hurera, Adilabad, Telangana 504001",,MG3R+8F,Adilabad,,Telangana,IN,https://www.google.com/maps/place/Masjid+e+Abu+Hurera/data=!4m7!3m6!1s0x3bd25d2ea7388ce5:0x955ec3718d1b00a1!8m2!3d19.6532544!4d78.5411588!16s%2Fg%2F11twgyhbqr!19sChIJ5Yw4py5d0jsRoQAbjXHDXpU?authuser=0&hl=en&rclk=1,"19.653254399999998,78.54115879999999"
Chennur kabrasthan,Mosque,"VQ4R+FW8 Chennur kabrasthan, Chennur, Telangana 504201",,VQ4R+FW8,Chennur,504201,Telangana,IN,https://www.google.com/maps/place/Chennur+kabrasthan/data=!4m7!3m6!1s0x3a32eba0a7c7ff67:0xe404c258bc15105d!8m2!3d18.8561847!4d79.7923442!16s%2Fg%2F11pzmp4fjp!19sChIJZ__Hp6DrMjoRXRAVvFjCBOQ?authuser=0&hl=en&rclk=1,"18.8561847,79.7923442"
Masjid e Meena,Mosque,"MGP9+8H Masjid e Meena, Gandi Nagar, Gandhi Nagar, Adilabad, Telangana 504001","Gandi Nagar, Gandhi Nagar",MGP9+8H,Adilabad,504001,Telangana,IN,https://www.google.com/maps/place/Masjid+e+Meena/data=!4m7!3m6!1s0x3bd25b2d5ed8222d:0x771014856dfdca9c!8m2!3d19.685762!4d78.5189931!16s%2Fg%2F11tw_8y348!19sChIJLSLYXi1b0jsRnMr9bYUUEHc?authuser=0&hl=en&rclk=1,"19.685762,78.5189931"
SYED ASAD,Mosque,"VQ2V+6FJ SYED ASAD, Indranagar, Chennur, Telangana 504201",Indranagar,VQ2V+6FJ,Chennur,504201,Telangana,IN,https://www.google.com/maps/place/SYED+ASAD/data=!4m7!3m6!1s0x3a32eb1eae76e5b3:0xb5aa5071272715ee!8m2!3d18.8505943!4d79.7936422!16s%2Fg%2F11vj31rz5x!19sChIJs-V2rh7rMjoR7hUnJ3FQqrU?authuser=0&hl=en&rclk=1,"18.8505943,79.7936422"
Masjid-e-afreen,Mosque,"MGGF+4FV Masjid-e-afreen, khursheed Nagar, Adilabad, Telangana 504001",khursheed Nagar,MGGF+4FV,Adilabad,504001,Telangana,IN,https://www.google.com/maps/place/Masjid-e-afreen/data=!4m7!3m6!1s0x3bd25b038e0e96e3:0x1f892d183a40c1ab!8m2!3d19.6753577!4d78.5236845!16s%2Fg%2F11nn1rkr2z!19sChIJ45YOjgNb0jsRq8FAOhgtiR8?authuser=0&hl=en&rclk=1,"19.6753577,78.5236845"
Masjid-E-Ayesha,Mosque,"MGCQ+XRX Masjid-E-Ayesha, Brahmanwadi, Adilabad, Telangana 504001",Brahmanwadi,MGCQ+XRX,Adilabad,504001,Telangana,IN,https://www.google.com/maps/place/Masjid-E-Ayesha/data=!4m7!3m6!1s0x3bd25c7445a55555:0xe3f8a99466fc71ef!8m2!3d19.6724753!4d78.5395986!16s%2Fg%2F11sscsfbvt!19sChIJVVWlRXRc0jsR73H8ZpSp-OM?authuser=0&hl=en&rclk=1,"19.6724753,78.53959859999999"
Masjid e Saleh,Mosque,"X5W3+5FW Masjid e Saleh, bolishetty rajanna mro office, Dantepally, Telangana 504206",,"X5W3+5FW, bolishetty rajanna mro office",Dantepally,504206,Telangana,IN,https://www.google.com/maps/place/Masjid+e+Saleh/data=!4m7!3m6!1s0x3bcd45dc06307c6d:0xb5279caa5d165fe6!8m2!3d18.9954959!4d79.1537098!16s%2Fg%2F11n258mlmb!19sChIJbXwwBtxFzTsR5l8WXaqcJ7U?authuser=0&hl=en&rclk=1,"18.995495899999998,79.1537098"
masjid,Mosque,"MGFX+R5C masjid, Ambedkar Nagar, Adilabad, Telangana 504001",Ambedkar Nagar,MGFX+R5C,Adilabad,504001,Telangana,IN,https://www.google.com/maps/place/masjid/data=!4m7!3m6!1s0x3bd25dea5bc85cff:0xa139fac0fe5bfbe8!8m2!3d19.6750538!4d78.549016!16s%2Fg%2F11tg1ql3mw!19sChIJ_1zIW-pd0jsR6Ptb_sD6OaE?authuser=0&hl=en&rclk=1,"19.6750538,78.549016"
Masjid-E-Bilal,Mosque,"87J6+9HP Masjid-E-Bilal, Thumpalle, Babapur, Telangana 504294",,87J6+9HP,"Thumpalle, Babapur",,Telangana,IN,https://www.google.com/maps/place/Masjid-E-Bilal/data=!4m7!3m6!1s0x3bd2a948559e9c4b:0xf625909021a2406d!8m2!3d19.3309518!4d79.2614523!16s%2Fg%2F11kjk9fcwg!19sChIJS5yeVUip0jsRbUCiIZCQJfY?authuser=0&hl=en&rclk=1,"19.330951799999998,79.2614523"
Mecca masjid,Mosque,"MGP8+9W4 Mecca masjid, Ranadive Nagar, Adilabad, Telangana 504001",Ranadive Nagar,MGP8+9W4,Adilabad,504001,Telangana,IN,https://www.google.com/maps/place/Mecca+masjid/data=!4m7!3m6!1s0x3bd25bb7b3fb23e1:0x87b034458c3a1168!8m2!3d19.6862525!4d78.5171874!16s%2Fg%2F11stb2lqs3!19sChIJ4SP7s7db0jsRaBE6jEU0sIc?authuser=0&hl=en&rclk=1,"19.6862525,78.5171874"
DARUL ULOOM HUSSAINIA ARABIC RESIDENTIAL SCHOOL,Mosque,"DARUL ULOOM HUSSAINIA ARABIC RESIDENTIAL SCHOOL, e Ibrahim, Road, New Housing Board 4th Zone, Wadi, Adilabad, Telangana 504001","New Housing Board 4th Zone, Wadi","e Ibrahim, Road",Adilabad,504001,Telangana,IN,https://www.google.com/maps/place/DARUL+ULOOM+HUSSAINIA+ARABIC+RESIDENTIAL+SCHOOL/data=!4m7!3m6!1s0x3bd25d078c55b7e3:0x84991b5134a69ea3!8m2!3d19.6585896!4d78.5114721!16s%2Fg%2F11t2c1_7d8!19sChIJ47dVjAdd0jsRo56mNFEbmYQ?authuser=0&hl=en&rclk=1,"19.6585896,78.51147209999999"
Ansar masjid,Mosque,"9F5J+7W4 Ansar masjid, Kagaznagar, Telangana 504296",,9F5J+7W4,Kagaznagar,504296,Telangana,IN,https://www.google.com/maps/place/Ansar+masjid/data=!4m7!3m6!1s0x3a2d57b977fdbe6d:0x6960a1717e731215!8m2!3d19.3581456!4d79.4823339!16s%2Fg%2F11rsc1y_tg!19sChIJbb79d7lXLToRFRJzfnGhYGk?authuser=0&hl=en&rclk=1,"19.3581456,79.4823339"
Masjide Mera,Mosque,"Masjide Mera, Police line, Old Housing Board Colony, Ravindra Nagar Colony, Adilabad, Telangana 504001","Old Housing Board Colony, Ravindra Nagar Colony",Police line,Adilabad,,Telangana,IN,https://www.google.com/maps/place/Masjide+Mera/data=!4m7!3m6!1s0x3bd25d4f276d7737:0xfba7d6c285a2493a!8m2!3d19.6640624!4d78.5320107!16s%2Fg%2F11jt228q6b!19sChIJN3dtJ09d0jsROkmihcLWp_s?authuser=0&hl=en&rclk=1,"19.6640624,78.5320107"
KHANKHA E MOHAMMADI ADILABAD,Mosque,"MG7H+84G KHANKHA E MOHAMMADI ADILABAD, Adilabad Main Rd, Satnala Quarters, chaitanyapuri, Adilabad, Telangana 504001","Satnala Quarters, chaitanyapuri","MG7H+84G, Adilabad Main Rd",Adilabad,504001,Telangana,IN,https://www.google.com/maps/place/KHANKHA+E+MOHAMMADI+ADILABAD/data=!4m7!3m6!1s0x3bd25d7de627a569:0x4868af4429eca682!8m2!3d19.6633136!4d78.5278399!16s%2Fg%2F11nxrkqmlw!19sChIJaaUn5n1d0jsRgqbsKUSvaEg?authuser=0&hl=en&rclk=1,"19.6633136,78.52783989999999"
Sudarah Nagar Patan kirana Feroza khan,Mosque,"Sudarah Nagar Patan kirana Feroza khan, Masjid e durdana, Sundaraiah Nagar, khursheed Nagar, Adilabad, Telangana 504001","Sundaraiah Nagar, khursheed Nagar",Masjid e durdana,Adilabad,,Telangana,IN,https://www.google.com/maps/place/Sudarah+Nagar+Patan+kirana+Feroza+khan/data=!4m7!3m6!1s0x3bd25bdb37aefa07:0x2a1a0c954e06593f!8m2!3d19.6769183!4d78.5171223!16s%2Fg%2F11s8_g6_vk!19sChIJB_quN9tb0jsRP1kGTpUMGio?authuser=0&hl=en&rclk=1,"19.6769183,78.5171223"
Masjid e Aqsa,Mosque,"9CPV+55W Masjid e Aqsa, Islamnagar, Telangana 504307",,9CPV+55W,Islamnagar,504307,Telangana,IN,https://www.google.com/maps/place/Masjid+e+Aqsa/data=!4m7!3m6!1s0x3bd271c95b560a13:0xeac4c3253af1fd04!8m2!3d19.3854802!4d78.4429394!16s%2Fg%2F11vdh6g0fk!19sChIJEwpWW8lx0jsRBP3xOiXDxOo?authuser=0&hl=en&rclk=1,"19.3854802,78.4429394"
Aamena masjid,Mosque,"JGX6+87J Aamena masjid, Dasnapur, Adilabad, Bhattisavargaon, Telangana 504001",Dasnapur,JGX6+87J,"Adilabad, Bhattisavargaon",504001,Telangana,IN,https://www.google.com/maps/place/Aamena+masjid/data=!4m7!3m6!1s0x3bd25d2e87707821:0x7a8dc8944d703c82!8m2!3d19.6483397!4d78.5106279!16s%2Fg%2F11tgg9_s_q!19sChIJIXhwhy5d0jsRgjxwTZTIjXo?authuser=0&hl=en&rclk=1,"19.648339699999998,78.5106279"
Baba Shadullah Dargah,Mosque,"JGVM+X4J Baba Shadullah Dargah, KRK Colony, Khoja Colony, Adilabad, Telangana 504001","KRK Colony, Khoja Colony",JGVM+X4J,Adilabad,504001,Telangana,IN,https://www.google.com/maps/place/Baba+Shadullah+Dargah/data=!4m7!3m6!1s0x3bd25dde609dddf1:0xb10548e403faacef!8m2!3d19.6449191!4d78.5327293!16s%2Fg%2F11kpt652yk!19sChIJ8d2dYN5d0jsR76z6A-RIBbE?authuser=0&hl=en&rclk=1,"19.6449191,78.5327293"
Madina masjid,Mosque,"HJX5+HJ6 Madina masjid, Lokari, Telangana 504001",,HJX5+HJ6,Lokari,504001,Telangana,IN,https://www.google.com/maps/place/Madina+masjid/data=!4m7!3m6!1s0x3bd25fd0b85e3af7:0x58b0d4e158d49e84!8m2!3d19.5986215!4d78.6098443!16s%2Fg%2F11s39q45km!19sChIJ9zpeuNBf0jsRhJ7UWOHUsFg?authuser=0&hl=en&rclk=1,"19.5986215,78.60984429999999"
Gulzar masjid,Mosque,"88W7+PVX Gulzar masjid, beside Gulzaar Masjid, Boath Buzurg, Telangana 504304",,"88W7+PVX, beside Gulzaar Masjid",Boath Buzurg,504304,Telangana,IN,https://www.google.com/maps/place/Gulzar+masjid/data=!4m7!3m6!1s0x3bd27302c48930b5:0xd6f8a49697d95467!8m2!3d19.3468045!4d78.3147885!16s%2Fg%2F11s8y5s4b7!19sChIJtTCJxAJz0jsRZ1TZl5ak-NY?authuser=0&hl=en&rclk=1,"19.346804499999998,78.31478849999999"
Nirmal,Mosque,"MG7J+FM7 Nirmal, Ravindra Nagar Colony, Nirmal, Adilabad, Telangana 504001",Ravindra Nagar Colony,MG7J+FM7,"Nirmal, Adilabad",,Telangana,IN,https://www.google.com/maps/place/Nirmal/data=!4m7!3m6!1s0x3bd25d0be6d4dcc7:0x851c659ed80ab906!8m2!3d19.6636686!4d78.5316792!16s%2Fg%2F11vcm4jw2n!19sChIJx9zU5gtd0jsRBrkK2J5lHIU?authuser=0&hl=en&rclk=1,"19.663668599999998,78.5316792"
Madarsa Khadijatul Kubra Lil Bannat,Mosque,"MGG9+GCV Madarsa Khadijatul Kubra Lil Bannat, Sundaraiah Nagar, khursheed Nagar, Adilabad, Telangana 504001","Sundaraiah Nagar, khursheed Nagar",MGG9+GCV,Adilabad,504001,Telangana,IN,https://www.google.com/maps/place/Madarsa+Khadijatul+Kubra+Lil+Bannat/data=!4m7!3m6!1s0x3bd25b201ee5067f:0x80545817c42b082e!8m2!3d19.6759908!4d78.5188593!16s%2Fg%2F11t7pd0mjz!19sChIJfwblHiBb0jsRLggrxBdYVIA?authuser=0&hl=en&rclk=1,"19.675990799999997,78.5188593"
iidgaa,Mosque,"QRG4+58Q iidgaa, Kondapur, Telangana 505453",,QRG4+58Q,Kondapur,505453,Telangana,IN,https://www.google.com/maps/place/%E0%B0%88%E0%B0%A6%E0%B1%8D%E0%B0%97%E0%B0%BE/data=!4m7!3m6!1s0x3bcd0da6dd65f4f1:0x8e0dc943356e2bd1!8m2!3d18.7754522!4d78.8058664!16s%2Fg%2F11h_9xv8cs!19sChIJ8fRl3aYNzTsR0StuNUPJDY4?authuser=0&hl=en&rclk=1,"18.7754522,78.8058664"
MAILARAM MASJID,Mosque,"2JJX+GQH MAILARAM MASJID, Mailaram, Telangana 504219",,2JJX+GQH,Mailaram,504219,Telangana,IN,https://www.google.com/maps/place/MAILARAM+MASJID/data=!4m7!3m6!1s0x3a32bb5b926e6ac5:0x186727f39bcf1153!8m2!3d19.0313067!4d79.6494769!16s%2Fg%2F11s1781cc2!19sChIJxWpuklu7MjoRUxHPm_MnZxg?authuser=0&hl=en&rclk=1,"19.0313067,79.6494769"
COLONY MASJID - NDSL,Mosque,"VMPG+7C5 COLONY MASJID - NDSL, NDSL Employees Colony, Muthyampet, Telangana 505331",NDSL Employees Colony,VMPG+7C5,Muthyampet,,Telangana,IN,https://www.google.com/maps/place/COLONY+MASJID+-+NDSL/data=!4m7!3m6!1s0x3bcd7525af5bae3b:0xd938b95f88dcfe4a!8m2!3d18.885636!4d78.6760971!16s%2Fg%2F11lfhc8x23!19sChIJO65bryV1zTsRSv7ciF-5ONk?authuser=0&hl=en&rclk=1,"18.885635999999998,78.67609709999999"
