name,main_category,address,address_ward,address_street,address_city,address_postal_code,address_state,address_country_code,link,coordinates
Airport Mosque,Mosque,"Airport Mosque, 2/5, Tarunsen Gupta Sarani Rd, International Airport, Motilal Colony, Rajbari, Dum Dum, Kolkata, West Bengal 700079","International Airport, Motilal Colony, Rajbari, Dum Dum","2/5, Tarunsen Gupta Sarani Rd",Kolkata,700079,West Bengal,IN,https://www.google.com/maps/place/Airport+Mosque/data=!4m7!3m6!1s0x39f89e4f4fbfe5e9:0x65811722bed4687a!8m2!3d22.6427295!4d88.4315227!16s%2Fg%2F11c54mwdx4!19sChIJ6eW_T0-e-DkRemjUviIXgWU?authuser=0&hl=en&rclk=1,"22.642729499999998,88.4315227"
Jagadighata Jame Masjid,Mosque,"Jagadighata Jame Masjid, Ashokenagar, North 24 Parganas, West Bengal, India, NH 35, Kazipara, Barasat, West Bengal 700124","Kazipara, Barasat","Ashokenagar, North 24 Parganas, West Bengal, India, NH 35",,,West Bengal,IN,https://www.google.com/maps/place/Jagadighata+Jame+Masjid/data=!4m7!3m6!1s0x39f8a23f0f712d4f:0x6d1de517bf376ecd!8m2!3d22.7298541!4d88.5013013!16s%2Fg%2F1hc1cdg6f!19sChIJTy1xDz-i-DkRzW43vxflHW0?authuser=0&hl=en&rclk=1,"22.7298541,88.5013013"
Naikuri Grand Jama Masjid,Mosque,"MC68+78V Naikuri Grand Jama Masjid, Shibachal Road, Naikuri, Shibachal, Birati, North Dumdum, West Bengal 700049","Shibachal, Birati","MC68+78V, Shibachal Road, Naikuri",North Dumdum,700049,West Bengal,IN,https://www.google.com/maps/place/Naikuri+Grand+Jama+Masjid/data=!4m7!3m6!1s0x39f89e89f12539f7:0xbcb05b9e87bf99d6!8m2!3d22.6607258!4d88.4158055!16s%2Fg%2F11g9s_q54z!19sChIJ9zkl8Yme-DkR1pm_h55bsLw?authuser=0&hl=en&rclk=1,"22.660725799999998,88.41580549999999"
Boro Masjid,Mosque,"PGF2+PRG Boro Masjid, Kazipara, Nandagarh, Kolkata, West Bengal 700125","Kazipara, Nandagarh",PGF2+PRG,Kolkata,700125,West Bengal,IN,https://www.google.com/maps/place/Boro+Masjid/data=!4m7!3m6!1s0x39f8a23c15a61193:0x1433113c5f8b7311!8m2!3d22.7243097!4d88.5020731!16s%2Fg%2F1q5bm30gf!19sChIJkxGmFTyi-DkREXOLXzwRMxQ?authuser=0&hl=en&rclk=1,"22.7243097,88.50207309999999"
Panihara Masjid,Mosque,"PC4Q+8RH Panihara Masjid, Bharat Nagar, Madhyamgram, Kolkata, West Bengal 700130","Bharat Nagar, Madhyamgram",PC4Q+8RH,Kolkata,700130,West Bengal,IN,https://www.google.com/maps/place/Panihara+Masjid/data=!4m7!3m6!1s0x39f89ed56f3b6131:0x5e4637fb56f9905a!8m2!3d22.7058111!4d88.4396242!16s%2Fg%2F1q6j7h4kw!19sChIJMWE7b9We-DkRWpD5Vvs3Rl4?authuser=0&hl=en&rclk=1,"22.7058111,88.4396242"
Amanati Masjid,Mosque,"Amanati Masjid, Boys School Rd, Barasat, Kolkata, West Bengal 700126",Barasat,Boys School Rd,Kolkata,700126,West Bengal,IN,https://www.google.com/maps/place/Amanati+Masjid/data=!4m7!3m6!1s0x39f899f9b0580471:0x21f11e5f9ef1a00!8m2!3d22.7185346!4d88.469504!16s%2Fg%2F11h3p4stt9!19sChIJcQRYsPmZ-DkRABrv-eURHwI?authuser=0&hl=en&rclk=1,"22.718534599999998,88.469504"
Humaipur Markaj Masjid,Mosque,"MFQF+HX2 Humaipur Markaj Masjid, Madhyamgram, Kolkata, West Bengal 700129",Madhyamgram,MFQF+HX2,Kolkata,700129,West Bengal,IN,https://www.google.com/maps/place/Humaipur+Markaj+Masjid/data=!4m7!3m6!1s0x39f89f5ea2e9d5d3:0xa1d81694dd6a7389!8m2!3d22.6888762!4d88.4748751!16s%2Fg%2F11bxflg2mw!19sChIJ09Xpol6f-DkRiXNq3ZQW2KE?authuser=0&hl=en&rclk=1,"22.6888762,88.47487509999999"
Kazipara Station Masjid,Mosque,"PGF4+6WF Kazipara Station Masjid, Kazipara, Barasat, Bamangachi, West Bengal 700124","Kazipara, Barasat",PGF4+6WF,Bamangachi,700124,West Bengal,IN,https://www.google.com/maps/place/Kazipara+Station+Masjid/data=!4m7!3m6!1s0x39f8a23a8981daef:0x3a69683f9904fabf!8m2!3d22.7230632!4d88.507296!16s%2Fg%2F11c67wkvmz!19sChIJ79qBiTqi-DkRv_oEmT9oaTo?authuser=0&hl=en&rclk=1,"22.7230632,88.507296"
Bisharpara Fateh Ali Shah (R) Masjid,Mosque,"MC9Q+XQG Bisharpara Fateh Ali Shah (R) Masjid, MA Sarani, Bisharpara Fateh Ali Shah (R) Masjid, Muzaffar Ahmed Sarani, Nabadarsha Co-Operative Society, Birati, Kolkata, West Bengal 700158","Nabadarsha Co-Operative Society, Birati","MC9Q+XQG, MA Sarani, Bisharpara Fateh Ali Shah (R) Masjid, Muzaffar Ahmed Sarani",Kolkata,700158,West Bengal,IN,https://www.google.com/maps/place/Bisharpara+Fateh+Ali+Shah+%28R%29+Masjid/data=!4m7!3m6!1s0x39f89efd6c22ef29:0x8b27d556007fdcf2!8m2!3d22.6699346!4d88.4394479!16s%2Fg%2F11c205yx5c!19sChIJKe8ibP2e-DkR8tx_AFbVJ4s?authuser=0&hl=en&rclk=1,"22.669934599999998,88.43944789999999"
Udayrajpur Jamme Masjid,Mosque,"MFXC+XCF Udayrajpur Jamme Masjid, Sarada Sarani, Vivekananda Nagar, Hridaypur, Kolkata, West Bengal 700129","Vivekananda Nagar, Hridaypur","MFXC+XCF, Sarada Sarani",Kolkata,700129,West Bengal,IN,https://www.google.com/maps/place/Udayrajpur+Jamme+Masjid/data=!4m7!3m6!1s0x39f89f51ba2cdfd7:0x89a30d87faa6e35e!8m2!3d22.6999258!4d88.4710332!16s%2Fg%2F11bz0lv060!19sChIJ198sulGf-DkRXuOm-ocNo4k?authuser=0&hl=en&rclk=1,"22.6999258,88.4710332"
Hridaypur Jame Masjid,Mosque,"1 No, Hridaypur Jame Masjid, Hridaypur Station Rd, Rail Gate, Hridaypur, Kolkata, West Bengal 700130","Rail Gate, Hridaypur","1 No, Hridaypur Station Rd",Kolkata,700130,West Bengal,IN,https://www.google.com/maps/place/Hridaypur+Jame+Masjid/data=!4m7!3m6!1s0x39f8992028a0b6b9:0xdba6ac4efdcde3b1!8m2!3d22.7103119!4d88.4686205!16s%2Fg%2F11qh5cfw4w!19sChIJubagKCCZ-DkRsePN_U6spts?authuser=0&hl=en&rclk=1,"22.7103119,88.4686205"
ABDALPUR JAMA MASJID,Mosque,"MFQH+P92 ABDALPUR JAMA MASJID, Madhyamgram, Kolkata, West Bengal 700155",Madhyamgram,MFQH+P92,Kolkata,700155,West Bengal,IN,https://www.google.com/maps/place/ABDALPUR+JAMA+MASJID/data=!4m7!3m6!1s0x39f89f5f4507caeb:0x766bd1d2a9fab14!8m2!3d22.6892533!4d88.4783902!16s%2Fg%2F11gbxfc5ss!19sChIJ68oHRV-f-DkRFKufKh29Zgc?authuser=0&hl=en&rclk=1,"22.6892533,88.47839019999999"
Shimultala Masjid,Mosque,"Shimultala Masjid, Shimultala, Taki Rd, Kazipara, Barasat, Kolkata, West Bengal 700125","Kazipara, Barasat","Shimultala, Taki Rd",Kolkata,700125,West Bengal,IN,https://www.google.com/maps/place/Shimultala+Masjid/data=!4m7!3m6!1s0x39f8a228bc53e46d:0xf70b2fe955736f3!8m2!3d22.7130184!4d88.5089516!16s%2Fg%2F11bvtfhpp3!19sChIJbeRTvCii-DkR8zZXlf6ycA8?authuser=0&hl=en&rclk=1,"22.7130184,88.50895159999999"
Pirgacha Masjid,Mosque,"PG69+5M6 Pirgacha Masjid, Kolkata - Basirhat Rd, Pirgacha, West Bengal 700124",,"PG69+5M6, Kolkata - Basirhat Rd",Pirgacha,700124,West Bengal,IN,https://www.google.com/maps/place/Pirgacha+Masjid/data=!4m7!3m6!1s0x39f8a3d51622b4b5:0x557653943602ac9a!8m2!3d22.7104243!4d88.519148!16s%2Fg%2F11b8tcxb6l!19sChIJtbQiFtWj-DkRmqwCNpRTdlU?authuser=0&hl=en&rclk=1,"22.7104243,88.519148"
PINEWOOD S.A. Enterprise,Mosque,"PINEWOOD S.A. Enterprise, Near Birla Gate, BB Rd, Pirgacha, West Bengal 700124",,"Near Birla Gate, BB Rd",Pirgacha,700124,West Bengal,IN,https://www.google.com/maps/place/PINEWOOD+S.A.+Enterprise/data=!4m7!3m6!1s0x39f8a3d6a92cab43:0x9e24c3edbfedc011!8m2!3d22.713827!4d88.5229877!16s%2Fg%2F11c1p2_lx5!19sChIJQ6ssqdaj-DkREcDtv-3DJJ4?authuser=0&hl=en&rclk=1,"22.713827,88.5229877"
Tentultala Masjid,Mosque,"PF3R+8P4 Tentultala Masjid, Barasat, Kolkata, West Bengal 700124",Barasat,PF3R+8P4,Kolkata,700124,West Bengal,IN,https://www.google.com/maps/place/Tentultala+Masjid/data=!4m7!3m6!1s0x39f8a1f6db4d8a85:0x51d36d59e958bfd9!8m2!3d22.7032523!4d88.4918434!16s%2Fg%2F11gb3n_6qk!19sChIJhYpN2_ah-DkR2b9Y6Vlt01E?authuser=0&hl=en&rclk=1,"22.7032523,88.4918434"
Chota Finga Mosque,Mosque,"Chota Finga Mosque, Khairatail Rd, Bado Finga, Birati, North Dumdum, West Bengal 700111","Bado Finga, Birati",Khairatail Rd,North Dumdum,700111,West Bengal,IN,https://www.google.com/maps/place/Chota+Finga+Mosque/data=!4m7!3m6!1s0x39f89eeaa5bd1d83:0x67969875211f577b!8m2!3d22.6831545!4d88.4216469!16s%2Fg%2F1q6j431ly!19sChIJgx29peqe-DkRe1cfIXWYlmc?authuser=0&hl=en&rclk=1,"22.6831545,88.4216469"
Digberia Madina Masjid,Mosque,"MFVV+XF8 Digberia Madina Masjid, Madhyamgram, Kolkata, West Bengal 700124",Madhyamgram,MFVV+XF8,Kolkata,700124,West Bengal,IN,https://www.google.com/maps/place/Digberia+Madina+Masjid/data=!4m7!3m6!1s0x39f8a1ede01424db:0x3a9c6debd7ebf4fa!8m2!3d22.6949016!4d88.4937116!16s%2Fg%2F11gfgtbc_h!19sChIJ2yQU4O2h-DkR-vTr1-ttnDo?authuser=0&hl=en&rclk=1,"22.694901599999998,88.4937116"
Gopalpur Jame Masjid msjd,Mosque,"MFCC+4XJ Gopalpur Jame Masjid msjd, Gopalpur Battala Rd, Chandigarh, Madhyamgram, Gopalpur Chandigar, Dariala, West Bengal 700131","Chandigarh, Madhyamgram","MFCC+4XJ, Gopalpur Battala Rd","Gopalpur Chandigar, Dariala",700131,West Bengal,IN,https://www.google.com/maps/place/Gopalpur+Jame+Masjid+%D9%85%D8%B3%D8%AC%D8%AF%E2%80%AD/data=!4m7!3m6!1s0x39f89f7b1a206565:0x895edc63ea5e48fa!8m2!3d22.6703448!4d88.4723976!16s%2Fg%2F11c11h9tkx!19sChIJZWUgGnuf-DkR-khe6mPcXok?authuser=0&hl=en&rclk=1,"22.6703448,88.4723976"
Humaipur Masjid,Mosque,"Humaipur Masjid, 700129, Surja Sen Nagar, Vivekananda Nagar, Madhyamgram, Kolkata, West Bengal","Surja Sen Nagar, Vivekananda Nagar, Madhyamgram",700129,Kolkata,,West Bengal,IN,https://www.google.com/maps/place/Humaipur+Masjid/data=!4m7!3m6!1s0x39f89f5bfcc75bad:0xdf794fe10792aff0!8m2!3d22.6907807!4d88.4740705!16s%2Fg%2F11gcc8wrcj!19sChIJrVvH_Fuf-DkR8K-SB-FPed8?authuser=0&hl=en&rclk=1,"22.690780699999998,88.4740705"
"Akrampur Jame Masjid, Barasat",Mosque,"Akrampur Jame Masjid, Barasat, Chak Chaturia Rd, Noapara, Kolkata, Chak Barbaria, West Bengal 700125",Noapara,Chak Chaturia Rd,"Kolkata, Chak Barbaria",700125,West Bengal,IN,"https://www.google.com/maps/place/Akrampur+Jame+Masjid,+Barasat/data=!4m7!3m6!1s0x39f8989814eac051:0xd6ae597f116ed4ce!8m2!3d22.7332216!4d88.4704671!16s%2Fg%2F11c2nc6ldr!19sChIJUcDqFJiY-DkRztRuEX9ZrtY?authuser=0&hl=en&rclk=1","22.7332216,88.4704671"
Usha Bhuiyar Mather Masjid,Mosque,"MCGR+C35 Usha Bhuiyar Mather Masjid, South Kodalia, Ushakanan, Michael Nagar, New Barrakpur, Kolkata, West Bengal 700133","South Kodalia, Ushakanan, Michael Nagar, New Barrakpur",MCGR+C35,Kolkata,700133,West Bengal,IN,https://www.google.com/maps/place/Usha+Bhuiyar+Mather+Masjid/data=!4m7!3m6!1s0x39f89ee2742b01fb:0xf25621e2c4680bef!8m2!3d22.6760247!4d88.440221!16s%2Fg%2F1tdmc9j8!19sChIJ-wErdOKe-DkR7wtoxOIhVvI?authuser=0&hl=en&rclk=1,"22.6760247,88.440221"
Patuli Masjid,Mosque,"MFJJ+FG9 Patuli Masjid, Madhyamgram, Kolkata, West Bengal 700131",Madhyamgram,MFJJ+FG9,Kolkata,700131,West Bengal,IN,https://www.google.com/maps/place/Patuli+Masjid/data=!4m7!3m6!1s0x39f8a1df009231ed:0x5ac5f35387d929eb!8m2!3d22.6811616!4d88.481361!16s%2Fg%2F11dxf0g36f!19sChIJ7TGSAN-h-DkR6ynZh1PzxVo?authuser=0&hl=en&rclk=1,"22.6811616,88.48136099999999"
Kemia Kalupara Jame Masjid,Mosque,"MGPH+F4M Kemia Kalupara Jame Masjid, Authpur, Shyamnagar, Authpur, Kayemba, West Bengal 700128","Authpur, Shyamnagar",MGPH+F4M,"Authpur, Kayemba",700128,West Bengal,IN,https://www.google.com/maps/place/Kemia+Kalupara+Jame+Masjid/data=!4m7!3m6!1s0x39f8a16d60c497ef:0x4c743156fd1a747e!8m2!3d22.6862091!4d88.5277996!16s%2Fg%2F11c5896pc0!19sChIJ75fEYG2h-DkRfnQa_VYxdEw?authuser=0&hl=en&rclk=1,"22.6862091,88.5277996"
Uttar Beraberi Atapara Jame Masjid msjd,Mosque,"Uttar Beraberi Atapara Jame Masjid msjd, Uttar Beraberi Atapara Ganganagar Airport, Kolkata, West Bengal 700132",Gopalpur I,Uttar Beraberi Atapara Ganganagar Airport,Kolkata,700132,West Bengal,IN,https://www.google.com/maps/place/Uttar+Beraberi+Atapara+Jame+Masjid+%D9%85%D8%B3%D8%AC%D8%AF%E2%80%AD/data=!4m7!3m6!1s0x39f89f9ca0cafbfb:0x604a6143d9f11633!8m2!3d22.6543125!4d88.4686875!16s%2Fg%2F11fxy1s1v7!19sChIJ-_vKoJyf-DkRMxbx2UNhSmA?authuser=0&hl=en&rclk=1,"22.6543125,88.4686875"
Choto Ganti Jame Masjid,Mosque,"MF63+9RW Choto Ganti Jame Masjid, Gopalpur I, Kolkata, West Bengal 700052",Gopalpur I,MF63+9RW,Kolkata,700052,West Bengal,IN,https://www.google.com/maps/place/Choto+Ganti+Jame+Masjid/data=!4m7!3m6!1s0x39f89f0b59fdb145:0xeca2438cbc1468c2!8m2!3d22.6609869!4d88.4545836!16s%2Fg%2F11g4f34sss!19sChIJRbH9WQuf-DkRwmgUvIxDouw?authuser=0&hl=en&rclk=1,"22.660986899999997,88.45458359999999"
Digberia Jame Masjid Ground,Mosque,"Digberia Jame Masjid Ground, Digberia, Tetultala Road, Madhyamgram, Kolkata, West Bengal 700128",Madhyamgram,"Digberia, Tetultala Road",Kolkata,700128,West Bengal,IN,https://www.google.com/maps/place/Digberia+Jame+Masjid+Ground/data=!4m7!3m6!1s0x39f8a1ec6c4b31ab:0x1653bc2c71e8142e!8m2!3d22.6913375!4d88.4952127!16s%2Fg%2F11f3rd88bh!19sChIJqzFLbOyh-DkRLhTocSy8UxY?authuser=0&hl=en&rclk=1,"22.6913375,88.4952127"
Methopara masjid,Mosque,"MFH7+FW4 Methopara masjid, Doharia, Srijoni Housing, Madhyamgram, Kolkata, West Bengal 700132","Doharia, Srijoni Housing, Madhyamgram",MFH7+FW4,Kolkata,700132,West Bengal,IN,https://www.google.com/maps/place/Methopara+masjid/data=!4m7!3m6!1s0x39f89fc72fc7697b:0xe770f16fc66319bf!8m2!3d22.6786289!4d88.4648283!16s%2Fg%2F11h1jll1vc!19sChIJe2nHL8ef-DkRvxljxm_xcOc?authuser=0&hl=en&rclk=1,"22.6786289,88.4648283"
jummaa msjid Jumma Mosque,Mosque,"MCHF+FVJ jummaa msjid Jumma Mosque, Muzaffar Ahmed Sarani, Pratapgarh, Birati, North Dumdum, West Bengal 700051","Pratapgarh, Birati","MCHF+FVJ, Muzaffar Ahmed Sarani",North Dumdum,700051,West Bengal,IN,https://www.google.com/maps/place/%E0%A6%9C%E0%A7%81%E0%A6%AE%E0%A7%8D%E0%A6%AE%E0%A6%BE+%E0%A6%AE%E0%A6%B8%E0%A6%9C%E0%A6%BF%E0%A6%A6+Jumma+Mosque/data=!4m7!3m6!1s0x39f89eeb9334332d:0xfa78a172efb6728e!8m2!3d22.6787227!4d88.4246547!16s%2Fg%2F1z44_brmh!19sChIJLTM0k-ue-DkRjnK273KhePo?authuser=0&hl=en&rclk=1,"22.678722699999998,88.42465469999999"
Kazipara Uttarhat Jame Masjid,Mosque,"Kazipara Uttarhat Jame Masjid, Kazipara, Barasat, Bamangachi, West Bengal 700124","Kazipara, Barasat",,Bamangachi,700124,West Bengal,IN,https://www.google.com/maps/place/Kazipara+Uttarhat+Jame+Masjid/data=!4m7!3m6!1s0x39f8a223bea5edd1:0x5b9f98c0557b27e7!8m2!3d22.7160088!4d88.5018598!16s%2Fg%2F11fzb0xslx!19sChIJ0e2lviOi-DkR5yd7VcCYn1s?authuser=0&hl=en&rclk=1,"22.716008799999997,88.50185979999999"
Masjid Masunda,Mosque,"149, Masjid Masunda, 104 Udbhas, 1, Netaji Subhash Bose Rd, New Barrakpur, Kolkata, West Bengal 700131",New Barrakpur,"149, 104 Udbhas, 1, Netaji Subhash Bose Rd",Kolkata,700131,West Bengal,IN,https://www.google.com/maps/place/Masjid+Masunda/data=!4m7!3m6!1s0x39f89ed89e63a5c9:0x702b703a83f6a8a6!8m2!3d22.6917678!4d88.4399351!16s%2Fg%2F1q67d3881!19sChIJyaVjntie-DkRpqj2gzpwK3A?authuser=0&hl=en&rclk=1,"22.691767799999997,88.4399351"
Sreepur Jame Mosque,Mosque,"Sreepur Jame Mosque, 700130, Madhayam Gram Bazaar, Madhyamgram, Kolkata, West Bengal 700130","Madhayam Gram Bazaar, Madhyamgram",700130,Kolkata,700130,West Bengal,IN,https://www.google.com/maps/place/Sreepur+Jam%C3%A9+Mosque/data=!4m7!3m6!1s0x39f89f25ebcb83d5:0xa71908bd08dd2260!8m2!3d22.6945022!4d88.4462003!16s%2Fg%2F11c1xfhz88!19sChIJ1YPL6yWf-DkRYCLdCL0IGac?authuser=0&hl=en&rclk=1,"22.6945022,88.4462003"
Kora Biswaspara Masjid,Mosque,"Kora Biswaspara Masjid, Biswas Para, Kora, Madhyamgram, Kolkata, West Bengal 700130","Kora, Madhyamgram",Biswas Para,Kolkata,700130,West Bengal,IN,https://www.google.com/maps/place/Kora+Biswaspara+Masjid/data=!4m7!3m6!1s0x39f898cc6812ac9b:0xdf1e9c3c72e9899a!8m2!3d22.7116305!4d88.4538276!16s%2Fg%2F11g9m8l_fp!19sChIJm6wSaMyY-DkRmonpcjycHt8?authuser=0&hl=en&rclk=1,"22.7116305,88.4538276"
Dariala New Masjid,Religious destination,"MF9G+GHJ Dariala New Masjid, Madhyamgram, Dariala, West Bengal 700131",Madhyamgram,MF9G+GHJ,Dariala,700131,West Bengal,IN,https://www.google.com/maps/place/Dariala+New+Masjid/data=!4m7!3m6!1s0x39f89f7c53ebbf05:0x9d1a050a4006c87!8m2!3d22.6688364!4d88.4763867!16s%2Fg%2F11c60jm_tc!19sChIJBb_rU3yf-DkRh2wApFCg0Qk?authuser=0&hl=en&rclk=1,"22.6688364,88.47638669999999"
Kazipara Hamdumiya Mosque,Mosque,"PG83+7G2 Kazipara Hamdumiya Mosque, Nirghin Shah Rd, Kazipara, Barasat, Kolkata, West Bengal 700124","Kazipara, Barasat","PG83+7G2, Nirghin Shah Rd",Kolkata,700124,West Bengal,IN,https://www.google.com/maps/place/Kazipara+Hamdumiya+Mosque/data=!4m7!3m6!1s0x39f8a2240cd90b4f:0xe081dc0e4f674d8b!8m2!3d22.7156412!4d88.5037776!16s%2Fg%2F11fyxnrdfb!19sChIJTwvZDCSi-DkRi01nTw7cgeA?authuser=0&hl=en&rclk=1,"22.7156412,88.50377759999999"
Uttarsiti New Masjid,Mosque,"PGM3+5MC Uttarsiti New Masjid, uttarsiti Road, kazipara, Barasat, Kolkata, West Bengal 700125",Barasat,"PGM3+5MC, uttarsiti Road, kazipara",Kolkata,700125,West Bengal,IN,https://www.google.com/maps/place/Uttarsiti+New+Masjid/data=!4m7!3m6!1s0x39f8a24744d82ae7:0xcd23e8b227709efa!8m2!3d22.7329438!4d88.5041513!16s%2Fg%2F11df7jjj7f!19sChIJ5yrYREei-DkR-p5wJ7LoI80?authuser=0&hl=en&rclk=1,"22.732943799999997,88.50415129999999"
Kora Uttarpara Jame Masjid,Mosque,"PF94+2G5 Kora Uttarpara Jame Masjid, Kora Uttarpara, P.O- Kora Chandigarh, P.S- Madhyamgram, Dist, Kolkata, 700130","Ramkrishnapally, Hridaypur","PF94+2G5, Kora Uttarpara, P.O- Kora Chandigarh, P.S- Madhyamgram, Dist",Kolkata,700130,West Bengal,IN,https://www.google.com/maps/place/Kora+Uttarpara+Jame+Masjid/data=!4m7!3m6!1s0x39f899f4a3e929f9:0x54d4b697440aa3d2!8m2!3d22.7175153!4d88.4563512!16s%2Fg%2F11gnq8622w!19sChIJ-Snpo_SZ-DkR0qMKRJe21FQ?authuser=0&hl=en&rclk=1,"22.7175153,88.4563512"
Bodai Jame Masjid,Mosque,"PC5P+Q5J Bodai Jame Masjid, Unnamed Road, Talbanda, Badai, West Bengal 700113",Talbanda,"PC5P+Q5J, Unnamed Road",Badai,700113,West Bengal,IN,https://www.google.com/maps/place/Bodai+Jame+Masjid/data=!4m7!3m6!1s0x39f899d826f4ef81:0x4a319139de01172c!8m2!3d22.7094535!4d88.4354028!16s%2Fg%2F11ghqbr34b!19sChIJge_0JtiZ-DkRLBcB3jmRMUo?authuser=0&hl=en&rclk=1,"22.7094535,88.43540279999999"
Dariala Old Masjid,Mosque,"MF8G+M92 Dariala Old Masjid, Jojra-Dariala Joint Rd, Madhyamgram, Dariala, West Bengal 700131",Madhyamgram,"MF8G+M92, Jojra-Dariala Joint Rd",Dariala,700131,West Bengal,IN,https://www.google.com/maps/place/Dariala+Old+Masjid/data=!4m7!3m6!1s0x39f89f7c269e7089:0xc66c6cd3d80c9a44!8m2!3d22.666632!4d88.4758912!16s%2Fg%2F11csbf2m3p!19sChIJiXCeJnyf-DkRRJoM2NNsbMY?authuser=0&hl=en&rclk=1,"22.666632,88.47589119999999"
Mathpara Jame Mosjid,Mosque,"MF98+XVG Mathpara Jame Mosjid, Chandigarh, Madhyamgram, chondigarh Mathpara, Gopalpur Chandigar, West Bengal 700132","Chandigarh, Madhyamgram",MF98+XVG,"chondigarh Mathpara, Gopalpur Chandigar",700132,West Bengal,IN,https://www.google.com/maps/place/Mathpara+Jame+Mosjid/data=!4m7!3m6!1s0x39f89f704d81b10b:0x6402a78c1e8270f2!8m2!3d22.6699433!4d88.46719!16s%2Fg%2F11gf5qpy70!19sChIJC7GBTXCf-DkR8nCCHoynAmQ?authuser=0&hl=en&rclk=1,"22.6699433,88.46719"
MaheswarPur Masjid,Religious organization,"MGM3+GQC MaheswarPur Masjid, Musalmanpara Rd, Barasat, Maheswarpur, West Bengal 700128",Barasat,"MGM3+GQC, Musalmanpara Rd",Maheswarpur,700128,West Bengal,IN,https://www.google.com/maps/place/MaheswarPur+Masjid/data=!4m7!3m6!1s0x39f8a1bdf30034ef:0xacb7673a600f2193!8m2!3d22.6838106!4d88.504405!16s%2Fg%2F1263r1kzm!19sChIJ7zQA872h-DkRkyEPYDpnt6w?authuser=0&hl=en&rclk=1,"22.683810599999997,88.50440499999999"
Mollapara Masjid,Mosque,"PF3X+M2F Mollapara Masjid, Unnamed Road, Barasat, Kolkata, West Bengal 700124",Barasat,"PF3X+M2F, Unnamed Road",Kolkata,700124,West Bengal,IN,https://www.google.com/maps/place/Mollapara+Masjid/data=!4m7!3m6!1s0x39f8a1d9212576af:0x6a84d35ff10438de!8m2!3d22.7041958!4d88.4975321!16s%2Fg%2F11f65glsn7!19sChIJr3YlIdmh-DkR3jgE8V_ThGo?authuser=0&hl=en&rclk=1,"22.704195799999997,88.4975321"
Taldharia Masjid,Mosque,"PC6Q+2FJ Taldharia Masjid, Taldharia - Rudrapur Rd, Bharat Nagar, Madhyamgram, Kolkata, Taldharia, West Bengal 700130","Bharat Nagar, Madhyamgram","PC6Q+2FJ, Taldharia - Rudrapur Rd","Kolkata, Taldharia",700130,West Bengal,IN,https://www.google.com/maps/place/Taldharia+Masjid/data=!4m7!3m6!1s0x39f8992af0eb69e3:0xf41ab86eaf263b11!8m2!3d22.7100965!4d88.4386537!16s%2Fg%2F11c1s69cwy!19sChIJ42nr8CqZ-DkRETsmr264GvQ?authuser=0&hl=en&rclk=1,"22.7100965,88.43865369999999"
UTTAR BALURIA JAME MASJID,Mosque,"PFJ9+24P UTTAR BALURIA JAME MASJID, Uttar Baluria, Nabapally, Kolkata, West Bengal 700126",Nabapally,"PFJ9+24P, Uttar Baluria",Kolkata,700126,West Bengal,IN,https://www.google.com/maps/place/UTTAR+BALURIA+JAME+MASJID/data=!4m7!3m6!1s0x39f898bd1306054b:0xcf751acbacb105d8!8m2!3d22.7300898!4d88.4678246!16s%2Fg%2F11f54k93s4!19sChIJSwUGE72Y-DkR2AWxrMsadc8?authuser=0&hl=en&rclk=1,"22.7300898,88.4678246"
Gobra Dakshinpara Masjid,Mosque,"MF6V+937 Gobra Dakshinpara Masjid, Gobra, West Bengal 700131",,MF6V+937,Gobra,,West Bengal,IN,https://www.google.com/maps/place/Gobra+Dakshinpara+Masjid/data=!4m7!3m6!1s0x39f8a1ccb696353f:0x9887bb58ebd361d6!8m2!3d22.6609198!4d88.492672!16s%2Fg%2F11gfdyy98q!19sChIJPzWWtsyh-DkR1mHT61i7h5g?authuser=0&hl=en&rclk=1,"22.6609198,88.492672"
Duitala Masjid,Mosque,"PGC4+5C8 Duitala Masjid, Kazipara, Barasat, Bamangachi, West Bengal 700124","Kazipara, Barasat",PGC4+5C8,Bamangachi,700124,West Bengal,IN,https://www.google.com/maps/place/Duitala+Masjid/data=!4m7!3m6!1s0x39f8a23ad3850371:0x5ef2c6abf3fc3576!8m2!3d22.7204125!4d88.50609!16s%2Fg%2F11c67wzglq!19sChIJcQOF0zqi-DkRdjX886vG8l4?authuser=0&hl=en&rclk=1,"22.7204125,88.50609"
Nadhibhag Eidgaha Maidan,Mosque,"PF2V+565 Nadhibhag Eidgaha Maidan, Madhyamgram, Kolkata, West Bengal 700124",Madhyamgram,PF2V+565,Kolkata,700124,West Bengal,IN,https://www.google.com/maps/place/Nadhibhag+Eidgaha+Maidan/data=!4m7!3m6!1s0x39f8a1f1660de821:0xb38a4792f0135193!8m2!3d22.7003757!4d88.4931139!16s%2Fg%2F11f3txbj61!19sChIJIegNZvGh-DkRk1ET8JJHirM?authuser=0&hl=en&rclk=1,"22.7003757,88.4931139"
Bhatpara Noapara Jame Masjid,Mosque,"PC7J+GWH Bhatpara Noapara Jame Masjid, Talbanda, Bhatpara Noapara, West Bengal 700113",Talbanda,PC7J+GWH,Bhatpara Noapara,,West Bengal,IN,https://www.google.com/maps/place/Bhatpara+Noapara+Jame+Masjid/data=!4m7!3m6!1s0x39f899878c90d3c7:0xb8036b1132997bd7!8m2!3d22.7138214!4d88.4323605!16s%2Fg%2F11ghqcgnlk!19sChIJx9OQjIeZ-DkR13uZMhFrA7g?authuser=0&hl=en&rclk=1,"22.7138214,88.4323605"
Tantkal Mosque,Mosque,"MC68+78W Tantkal Mosque, Kazi Nazrul Islam Sarani, Shibachal, Birati, North Dumdum, West Bengal 700051","Shibachal, Birati","MC68+78W, Kazi Nazrul Islam Sarani",North Dumdum,700051,West Bengal,IN,https://www.google.com/maps/place/Tantkal+Mosque/data=!4m7!3m6!1s0x39f89e89c335495b:0x10c63fb8bf4763bf!8m2!3d22.6607468!4d88.415821!16s%2Fg%2F11df7hdcpm!19sChIJW0k1w4me-DkRv2NHv7g_xhA?authuser=0&hl=en&rclk=1,"22.6607468,88.415821"
Rohanda Nabanur Jame Masjid msjd,Mosque,"MF4M+VVR Rohanda Nabanur Jame Masjid msjd, Chandigarh, Rohanda, West Bengal 700135",Chandigarh,MF4M+VVR,Rohanda,700135,West Bengal,IN,https://www.google.com/maps/place/Rohanda+Nabanur+Jame+Masjid+%D9%85%D8%B3%D8%AC%D8%AF%E2%80%AD/data=!4m7!3m6!1s0x39f8a02c632504e1:0xfa14d42f8c425729!8m2!3d22.657231!4d88.4846433!16s%2Fg%2F11g9h0tkmw!19sChIJ4QQlYyyg-DkRKVdCjC_UFPo?authuser=0&hl=en&rclk=1,"22.657231,88.4846433"
Nadibhag Jame Masjid,Mosque,"MFXV+F8C Nadibhag Jame Masjid, Madhyamgram, Kolkata, West Bengal 700124",Madhyamgram,MFXV+F8C,Kolkata,700124,West Bengal,IN,https://www.google.com/maps/place/Nadibhag+Jame+Masjid/data=!4m7!3m6!1s0x39f8a1942aebb01f:0x5347fdb92cc72f33!8m2!3d22.6986859!4d88.4932594!16s%2Fg%2F11f65gm65n!19sChIJH7DrKpSh-DkRMy_HLLn9R1M?authuser=0&hl=en&rclk=1,"22.698685899999997,88.4932594"
Noor Masjid,Mosque,"Noor Masjid, 18/33, Bijoynagar, Block-A, Nandagarh, Kolkata, West Bengal 700125","Bijoynagar, Block-A, Nandagarh",18/33,Kolkata,700125,West Bengal,IN,https://www.google.com/maps/place/Noor+Masjid/data=!4m7!3m6!1s0x39f8a2160bad6257:0xf5dec476c09a93c3!8m2!3d22.7252473!4d88.4966839!16s%2Fg%2F11g727d350!19sChIJV2KtCxai-DkRw5OawHbE3vU?authuser=0&hl=en&rclk=1,"22.7252473,88.4966839"
Saharpur Masjid,Mosque,"PC3Q+39H Saharpur Masjid, Unnamed Road, Talbanda, Kolkata, West Bengal 700113",Talbanda,"PC3Q+39H, Unnamed Road",Kolkata,700113,West Bengal,IN,https://www.google.com/maps/place/Saharpur+Masjid/data=!4m7!3m6!1s0x39f89f88947e7849:0xe5789bf0875d892a!8m2!3d22.702692!4d88.4384774!16s%2Fg%2F11rxj5b201!19sChIJSXh-lIif-DkRKoldh_CbeOU?authuser=0&hl=en&rclk=1,"22.702692,88.4384774"
Jama Mosque,Mosque,"MCJR+C6P Jama Mosque, Bhattacharya Pada, Chandra Pally, New Barrakpur, Kolkata, West Bengal 700133","Bhattacharya Pada, Chandra Pally, New Barrakpur",MCJR+C6P,Kolkata,700133,West Bengal,IN,https://www.google.com/maps/place/Jama+Mosque/data=!4m7!3m6!1s0x39f89f1fd4640ee1:0x225a2a63e4896d24!8m2!3d22.6810821!4d88.4405693!16s%2Fg%2F1q6cvvglp!19sChIJ4Q5k1B-f-DkRJG2J5GMqWiI?authuser=0&hl=en&rclk=1,"22.681082099999998,88.44056929999999"
Pathra Jame Masjid,Mosque,"MGXV+779 Pathra Jame Masjid, Kadambagachi, Dadpur Road, Pathra, West Bengal 700125",,"MGXV+779, Kadambagachi, Dadpur Road",Pathra,700125,West Bengal,IN,https://www.google.com/maps/place/Pathra+Jame+Masjid%E2%98%86%E2%98%86%E2%98%86%E2%98%86%E2%98%86/data=!4m7!3m6!1s0x39f8a1908597073d:0xc82f5e7ca1978666!8m2!3d22.6981671!4d88.5432368!16s%2Fg%2F11h1l0j_bj!19sChIJPQeXhZCh-DkRZoaXoXxeL8g?authuser=0&hl=en&rclk=1,"22.6981671,88.5432368"
Mathpara Masjid,Mosque,"MFMV+948 Mathpara Masjid, Madhyamgram, Kolkata, West Bengal 700124",Madhyamgram,MFMV+948,Kolkata,700124,West Bengal,IN,https://www.google.com/maps/place/Mathpara+Masjid/data=!4m7!3m6!1s0x39f8a1c211739755:0x4b735f09f7ff0501!8m2!3d22.6834!4d88.4928205!16s%2Fg%2F11dx8j493g!19sChIJVZdzEcKh-DkRAQX_9wlfc0s?authuser=0&hl=en&rclk=1,"22.6834,88.4928205"
Gobra Uttarpara Jame Masjid,Mosque,"MF7V+6CW Gobra Uttarpara Jame Masjid, Gobra, West Bengal 700135",,MF7V+6CW,Gobra,700135,West Bengal,IN,https://www.google.com/maps/place/Gobra+Uttarpara+Jame+Masjid/data=!4m7!3m6!1s0x39f8a1cb7c7e1d5f:0x2e53e31201b613ae!8m2!3d22.6631203!4d88.4935879!16s%2Fg%2F11hb3gnht1!19sChIJXx1-fMuh-DkRrhO2ARLjUy4?authuser=0&hl=en&rclk=1,"22.6631203,88.4935879"
Purba Icchapur Jame Masjid puurb ichaapurjaame msjid,Mosque,"PG5P+P64 Purba Icchapur Jame Masjid puurb ichaapurjaame msjid, Purba Icchapur, Barasat, Kadambagachi, West Bengal 743294",Barasat,"PG5P+P64, Purba Icchapur","Kadambagachi, Purbba Ichapur",743294,West Bengal,IN,https://www.google.com/maps/place/Purba+Icchapur+Jame+Masjid+%E0%A6%AA%E0%A7%82%E0%A6%B0%E0%A7%8D%E0%A6%AC+%E0%A6%87%E0%A6%9B%E0%A6%BE%E0%A6%AA%E0%A7%81%E0%A6%B0%E0%A6%9C%E0%A6%BE%E0%A6%AE%E0%A7%87+%E0%A6%AE%E0%A6%B8%E0%A6%9C%E0%A6%BF%E0%A6%A6/data=!4m7!3m6!1s0x39f8a33a2e456ec5:0xa14c0ea7e57432d2!8m2!3d22.7092617!4d88.5355793!16s%2Fg%2F11g0hbqwx1!19sChIJxW5FLjqj-DkR0jJ05acOTKE?authuser=0&hl=en&rclk=1,"22.7092617,88.5355793"
Uttar Sithi Jame Masjid,Mosque,"Uttar Sithi Jame Masjid, uttar sithi, kazipara, kol-700125, Barasat, West Bengal",Uttar Seethi,"uttar sithi, kazipara, kol-700125",Barasat,,West Bengal,IN,https://www.google.com/maps/place/Uttar+Sithi+Jame+Masjid/data=!4m7!3m6!1s0x39f8a241172dfefd:0x6aa562bc4ea613b3!8m2!3d22.7359293!4d88.5018441!16s%2Fg%2F11fylj72_f!19sChIJ_f4tF0Gi-DkRsxOmTrxipWo?authuser=0&hl=en&rclk=1,"22.7359293,88.5018441"
Gauripur Jama Masjid,Mosque,"Gauripur Jama Masjid, Collection O 30068 Vip Road, 184, Jessore Rd, Khalisha Kota, Birati, North Dumdum, West Bengal 700028","Majumder Pada, Motilal Colony, Khalisha Kota, Birati","Collection O 30068 Vip Road, 184, Jessore Rd",North Dumdum,700028,West Bengal,IN,https://www.google.com/maps/place/Gauripur+Jama+Masjid/data=!4m7!3m6!1s0x39f89fb1d3806393:0x211137979b259eb4!8m2!3d22.6566563!4d88.4421452!16s%2Fg%2F11q7bkwc69!19sChIJk2OA07Gf-DkRtJ4lm5c3ESE?authuser=0&hl=en&rclk=1,"22.656656299999998,88.4421452"
Bora Dakshin Para Jame Masjid,Mosque,"PG8F+4CC Bora Dakshin Para Jame Masjid, Near Birla Gate, BB Rd, Bara P, West Bengal 700124",,"PG8F+4CC, Near Birla Gate, BB Rd",Bara P,700124,West Bengal,IN,https://www.google.com/maps/place/Bora+Dakshin+Para+Jame+Masjid/data=!4m7!3m6!1s0x39f8a3d145ca04f9:0xf2bdd8631506d62a!8m2!3d22.7153034!4d88.5235217!16s%2Fg%2F11c530qsry!19sChIJ-QTKRdGj-DkRKtYGFWPYvfI?authuser=0&hl=en&rclk=1,"22.7153034,88.52352169999999"
Fatullapur Jaame Masjid,Mosque,"MCH6+JJV Fatullapur Jaame Masjid, Fatullahpur, Nimta, North Dumdum, West Bengal 700049","Fatullahpur, Nimta",MCH6+JJV,North Dumdum,700049,West Bengal,IN,https://www.google.com/maps/place/Fatullapur+Jaame+Masjid/data=!4m7!3m6!1s0x39f89f842b78db17:0x2bb4dd3f9fd0f732!8m2!3d22.6791177!4d88.4115358!16s%2Fg%2F11g0lds88c!19sChIJF9t4K4Sf-DkRMvfQnz_dtCs?authuser=0&hl=en&rclk=1,"22.6791177,88.4115358"
Donnagar Baitul Aamaan Jame Masjid,Mosque,"Donnagar Baitul Aamaan Jame Masjid, Donnagar, Ganga Nagar Colony No 1, Madhyamgram, Kolkata, West Bengal 700135","Ganga Nagar Colony No 1, Madhyamgram",Donnagar,Kolkata,700135,West Bengal,IN,https://www.google.com/maps/place/Donnagar+Baitul+Aamaan+Jame+Masjid/data=!4m7!3m6!1s0x39f89fe9cffd3f23:0x35fa5189922c6fb3!8m2!3d22.6633733!4d88.4537105!16s%2Fg%2F11h0hjhldt!19sChIJIz_9z-mf-DkRs28skolR-jU?authuser=0&hl=en&rclk=1,"22.6633733,88.4537105"
Chandigarh Jame Masjid,Mosque,"MF87+F59 Chandigarh Jame Masjid, Gogra Rd, Ganganagar, Chandigarh, Madhyamgram, Kolkata, Gopalpur Chandigar, West Bengal 700132","Ganganagar, Chandigarh, Madhyamgram","MF87+F59, Gogra Rd","Kolkata, Gopalpur Chandigar",700132,West Bengal,IN,https://www.google.com/maps/place/Chandigarh+Jame+Masjid/data=!4m7!3m6!1s0x39f89f9d457bcf8b:0x5f75e97e86680fea!8m2!3d22.6661732!4d88.462995!16s%2Fg%2F11fm_bl0fc!19sChIJi897RZ2f-DkR6g9ohn7pdV8?authuser=0&hl=en&rclk=1,"22.6661732,88.46299499999999"
Gouripur Mathpara Jame Mosque,Mosque,"MC5J+35V Gouripur Mathpara Jame Mosque, Sarat Bose Ln, Khalisha Kota, Birati, Kolkata, West Bengal 700081","Khalisha Kota, Birati","MC5J+35V, Sarat Bose Ln",Kolkata,700081,West Bengal,IN,https://www.google.com/maps/place/Gouripur+Mathpara+Jame+Mosque/data=!4m7!3m6!1s0x39f89efef1c853ef:0x8950d314b3d13c33!8m2!3d22.6577337!4d88.4304149!16s%2Fg%2F11gb4jcb95!19sChIJ71PI8f6e-DkRMzzRsxTTUIk?authuser=0&hl=en&rclk=1,"22.657733699999998,88.4304149"
Dakshin Jojra Jame Masjid,Religious destination,"Dakshin Jojra Jame Masjid, Dakshin, Madhyamgram, Jojra, Kolkata, West Bengal 700135",Madhyamgram,Dakshin,"Jojra, Kolkata",700135,West Bengal,IN,https://www.google.com/maps/place/Dakshin+Jojra+Jame+Masjid/data=!4m7!3m6!1s0x39f89f39a3d8a319:0x97110341daefbc4c!8m2!3d22.6432863!4d88.4750341!16s%2Fg%2F11h0k4r5qs!19sChIJGaPYozmf-DkRTLzv2kEDEZc?authuser=0&hl=en&rclk=1,"22.6432863,88.4750341"
Koyra Jame Masjid,Mosque,"PG4P+6H9 Koyra Jame Masjid, Koyra, West Bengal 700125",,PG4P+6H9,Koyra,700125,West Bengal,IN,https://www.google.com/maps/place/Koyra+Jame+Masjid/data=!4m7!3m6!1s0x39f8a1608825288f:0xa8f117f5d3c91745!8m2!3d22.705532!4d88.5364868!16s%2Fg%2F11f0kxtc5c!19sChIJjygliGCh-DkRRRfJ0_UX8ag?authuser=0&hl=en&rclk=1,"22.705531999999998,88.53648679999999"
Ishwarigachha Jame Masjid.,Mosque,"Ishwarigachha Jame Masjid., Madhyamgram Banspule road, Vill- Ishwarigachha, P.O-Abdalpur, P.S- Madhyamgram, Dist, Kolkata: 700155, West Bengal 700155",Madhyamgram,"Madhyamgram Banspule road, Vill- Ishwarigachha, P.O-Abdalpur, P.S- Madhyamgram, Dist, Kolkata: 700155",Banaspol,700155,West Bengal,IN,https://www.google.com/maps/place/Ishwarigachha+Jame+Masjid./data=!4m7!3m6!1s0x39f8a10271f05153:0x4fd0649c8ebde3b4!8m2!3d22.678663!4d88.4898878!16s%2Fg%2F11f77_98sn!19sChIJU1HwcQKh-DkRtOO9jpxk0E8?authuser=0&hl=en&rclk=1,"22.678663,88.48988779999999"
Iswarigacha Idgah Maidan,Mosque,"Iswarigacha Idgah Maidan, Villege_ Ishwarigachha, P.O-Abdalpur, P.S-Madhyamram, North 24 Parganas.,West Bengal, Kol, 700155",Madhyamgram,"Villege_ Ishwarigachha, P.O-Abdalpur, P.S-Madhyamram, North 24 Parganas.,West Bengal, Kol",Banaspol,700155,West Bengal,IN,https://www.google.com/maps/place/Iswarigacha+Idgah+Maidan/data=!4m7!3m6!1s0x39f8a13361e031f5:0x16f5acd5d835931b!8m2!3d22.6794464!4d88.4894778!16s%2Fg%2F11f92nb7yq!19sChIJ9THgYTOh-DkRG5M12NWs9RY?authuser=0&hl=en&rclk=1,"22.6794464,88.4894778"
Kemia Purbapara Jame Masjid,Mosque,"MGMH+WVR Kemia Purbapara Jame Masjid, Unnamed Road, Kayemba, West Bengal 700128",,"MGMH+WVR, Unnamed Road",Kayemba,700128,West Bengal,IN,https://www.google.com/maps/place/Kemia+Purbapara+Jame+Masjid/data=!4m7!3m6!1s0x39f8a1bd381fd09f:0x4f582297903d9a0c!8m2!3d22.6848533!4d88.5296303!16s%2Fg%2F11fj3db4rd!19sChIJn9AfOL2h-DkRDJo9kJciWE8?authuser=0&hl=en&rclk=1,"22.6848533,88.5296303"
Tentultala Mollapara Eid- Gah,Mosque,"PF3R+7P8 Tentultala Mollapara Eid- Gah, Barasat, Kolkata, West Bengal 700124",Barasat,PF3R+7P8,Kolkata,700124,West Bengal,IN,https://www.google.com/maps/place/Tentultala+Mollapara+Eid-+Gah/data=!4m7!3m6!1s0x39f8a1e0288791cf:0x1a4c70c09f7cf887!8m2!3d22.7031636!4d88.4918301!16s%2Fg%2F11g_yrcx0z!19sChIJz5GHKOCh-DkRh_h8n8BwTBo?authuser=0&hl=en&rclk=1,"22.7031636,88.4918301"
maanikpur jaame msjid,Mosque,"MGRQ+J66 maanikpur jaame msjid, Unnamed Road, Gobindapur, West Bengal 700125",,"MGRQ+J66, Unnamed Road",Gobindapur,700125,West Bengal,IN,https://www.google.com/maps/place/%E0%A6%AE%E0%A6%BE%E0%A6%A8%E0%A6%BF%E0%A6%95%E0%A6%AA%E0%A7%81%E0%A6%B0+%E0%A6%9C%E0%A6%BE%E0%A6%AE%E0%A7%87+%E0%A6%AE%E0%A6%B8%E0%A6%9C%E0%A6%BF%E0%A6%A6/data=!4m7!3m6!1s0x39f8a1b71656ad55:0xa17637d667733567!8m2!3d22.6915438!4d88.5380013!16s%2Fg%2F11qlym_4hd!19sChIJVa1WFreh-DkRZzVzZ9Y3dqE?authuser=0&hl=en&rclk=1,"22.691543799999998,88.53800129999999"
cnddigdd' pshcimpaadd'aa jaame msjid,Mosque,"MF84+QV4 cnddigdd' pshcimpaadd'aa jaame msjid, Ganga Nagar Colony No 1, Gopalpur I, Kolkata, Gopalpur Chandigar, West Bengal 700052","Ganga Nagar Colony No 1, Gopalpur I",MF84+QV4,"Kolkata, Gopalpur Chandigar",700052,West Bengal,IN,https://www.google.com/maps/place/%E0%A6%9A%E0%A6%A8%E0%A7%8D%E0%A6%A1%E0%A6%BF%E0%A6%97%E0%A6%A1%E0%A6%BC+%E0%A6%AA%E0%A6%B6%E0%A7%8D%E0%A6%9A%E0%A6%BF%E0%A6%AE%E0%A6%AA%E0%A6%BE%E0%A6%A1%E0%A6%BC%E0%A6%BE+%E0%A6%9C%E0%A6%BE%E0%A6%AE%E0%A7%87+%E0%A6%AE%E0%A6%B8%E0%A6%9C%E0%A6%BF%E0%A6%A6/data=!4m7!3m6!1s0x39f89f4f1c495643:0xde1ca357658a20e4!8m2!3d22.6672675!4d88.4572903!16s%2Fg%2F11pckf80r5!19sChIJQ1ZJHE-f-DkR5CCKZVejHN4?authuser=0&hl=en&rclk=1,"22.667267499999998,88.4572903"
Masjid-E-Moulana Atiqullah R.A.,Mosque,"Masjid-E-Moulana Atiqullah R.A., Kazipara Post Office, 21, Sitipara Road, Kazipara, Barasat, Kolkata, West Bengal 700125","Kazipara, Barasat","Kazipara Post Office, 21, Sitipara Road",Kolkata,700125,West Bengal,IN,https://www.google.com/maps/place/Masjid-E-Moulana+Atiqullah+R.A./data=!4m7!3m6!1s0x39f8a375d069764f:0xa45a84e93044d0f7!8m2!3d22.7255257!4d88.5074244!16s%2Fg%2F11n_wj6m3d!19sChIJT3Zp0HWj-DkR99BEMOmEWqQ?authuser=0&hl=en&rclk=1,"22.7255257,88.50742439999999"
Ghola masjid,Mosque,"Ghola masjid, 315, Sodepur Barasat Rd, C Block, Sodepur, Kolkata, Panihati, West Bengal 700111","C Block, Sodepur","315, Sodepur Barasat Rd","Kolkata, Panihati",700111,West Bengal,IN,https://www.google.com/maps/place/Ghola+masjid/data=!4m7!3m6!1s0x39f89f7004edc12b:0x35db0b510d4b07b1!8m2!3d22.6944539!4d88.4047513!16s%2Fg%2F11rgfxc_ss!19sChIJK8HtBHCf-DkRsQdLDVEL2zU?authuser=0&hl=en&rclk=1,"22.6944539,88.4047513"
Chandigori jame Masjid cnddigdd'ii jaame msjid,Mosque,"MGV9+5QP Chandigori jame Masjid cnddigdd'ii jaame msjid, Chandigori Rd, Madhyamgram, Badu, Chandigori, West Bengal 700128",Madhyamgram,"MGV9+5QP, Chandigori Rd","Badu, Chandigori",700128,West Bengal,IN,https://www.google.com/maps/place/Chandigori+jame+Masjid+%E0%A6%9A%E0%A6%A8%E0%A7%8D%E0%A6%A1%E0%A6%BF%E0%A6%97%E0%A6%A1%E0%A6%BC%E0%A7%80+%E0%A6%9C%E0%A6%BE%E0%A6%AE%E0%A7%87+%E0%A6%AE%E0%A6%B8%E0%A6%9C%E0%A6%BF%E0%A6%A6/data=!4m7!3m6!1s0x39f8a1d768094b87:0x732e1190a1ef611f!8m2!3d22.6929701!4d88.5194525!16s%2Fg%2F11s6b1kld7!19sChIJh0sJaNeh-DkRH2HvoZARLnM?authuser=0&hl=en&rclk=1,"22.6929701,88.5194525"
Gouripur Jame Masjid Mess,Mosque,"MC6R+G7M Gouripur Jame Masjid Mess, Gouripur Road, Birati, Block 4, Mahajati Nagar, Dum Dum, North Dumdum, West Bengal 700081","Block 4, Mahajati Nagar, Dum Dum","MC6R+G7M, Gouripur Road, Birati",North Dumdum,700081,West Bengal,IN,https://www.google.com/maps/place/Gouripur+Jame+Masjid+Mess/data=!4m7!3m6!1s0x39f89fab1ad4d52d:0xd1a991a16f2811a6!8m2!3d22.6613364!4d88.4406589!16s%2Fg%2F11f122zp_f!19sChIJLdXUGquf-DkRphEob6GRqdE?authuser=0&hl=en&rclk=1,"22.6613364,88.4406589"
Senerberia Jame Masjid,Mosque,"Senerberia Jame Masjid, Badu Rd, Kayemba, West Bengal 700128",,Badu Rd,Kayemba,700128,West Bengal,IN,https://www.google.com/maps/place/Senerberia+Jame+Masjid/data=!4m7!3m6!1s0x39f8a15a2cff09bf:0xf411bad3e478e48!8m2!3d22.6894116!4d88.5203261!16s%2Fg%2F11g0kbrdgj!19sChIJvwn_LFqh-DkRSI5HPq0bQQ8?authuser=0&hl=en&rclk=1,"22.6894116,88.52032609999999"
Kapasia Jame Masjid,Mosque,"PC9P+25J Kapasia Jame Masjid, Kolkata, Kapasia, West Bengal 700126",,PC9P+25J,"Kolkata, Kapasia",700126,West Bengal,IN,https://www.google.com/maps/place/Kapasia+Jame+Masjid/data=!4m7!3m6!1s0x39f89957d2af38d3:0x9d4a23b75856410!8m2!3d22.7175768!4d88.4353873!16s%2Fg%2F11f5ly8nhw!19sChIJ0ziv0leZ-DkREGSFdTui1Ak?authuser=0&hl=en&rclk=1,"22.7175768,88.4353873"
North jojra jama masjid,Mosque,"MF5C+6FV North jojra jama masjid, Gopalpur I, Jojra, West Bengal 700131",Gopalpur I,MF5C+6FV,Jojra,,West Bengal,IN,https://www.google.com/maps/place/North+jojra+jama+masjid/data=!4m7!3m6!1s0x39f89fe380a955d3:0x18499251bf95f4ed!8m2!3d22.6581169!4d88.4711747!16s%2Fg%2F11hvm5gxyz!19sChIJ01WpgOOf-DkR7fSVv1GSSRg?authuser=0&hl=en&rclk=1,"22.6581169,88.47117469999999"
Badu Mathgram Maszid,Mosque,"MGP2+W38 Badu Mathgram Maszid, Madhyamgram, Kolkata, West Bengal 700128",Madhyamgram,MGP2+W38,Kolkata,700128,West Bengal,IN,https://www.google.com/maps/place/Badu+Mathgram+Maszid/data=!4m7!3m6!1s0x39f8a1f0f7e09bc7:0x70ed6d1e1a3280c2!8m2!3d22.6872769!4d88.5002036!16s%2Fg%2F11rfsc3gs8!19sChIJx5vg9_Ch-DkRwoAyGh5t7XA?authuser=0&hl=en&rclk=1,"22.6872769,88.50020359999999"
Srikrishnapur Jame Masjid,Mosque,"PG54+VHQ Srikrishnapur Jame Masjid, Srikrishnapur Rd, Kazipara, Barasat, Kolkata, West Bengal 700124","Kazipara, Barasat","PG54+VHQ, Srikrishnapur Rd",Kolkata,700124,West Bengal,IN,https://www.google.com/maps/place/Srikrishnapur+Jame+Masjid/data=!4m7!3m6!1s0x39f8a3dd95db9e05:0x9fd6b38025cf5a07!8m2!3d22.7097185!4d88.5064951!16s%2Fg%2F11qpf4_0mw!19sChIJBZ7bld2j-DkRB1rPJYCz1p8?authuser=0&hl=en&rclk=1,"22.709718499999997,88.5064951"
Jame masjid,Mosque,"Jame masjid, Ward 26, Madhyamgram , Ganganagar, Scout Para, near :- Masjid, Ganganagar, Ward 16, Madhyamgram, Kolkata, West Bengal 700132","Ganganagar, Ward 16, Madhyamgram","Ward 26, Madhyamgram , Ganganagar, Scout Para, near :- Masjid",Kolkata,700132,West Bengal,IN,https://www.google.com/maps/place/Jame+masjid/data=!4m7!3m6!1s0x39f89f36d44718d7:0x51c3578394003d4b!8m2!3d22.6751355!4d88.4552876!16s%2Fg%2F11kjg82f7k!19sChIJ1xhH1Daf-DkRSz0AlINXw1E?authuser=0&hl=en&rclk=1,"22.6751355,88.45528759999999"
Khankeya Siddiquiya Masjid,Mosque,"MFPG+R5P Khankeya Siddiquiya Masjid, Unnamed Road, Madhyamgram, Kolkata, West Bengal 700129",Madhyamgram,"MFPG+R5P, Unnamed Road",Kolkata,700129,West Bengal,IN,https://www.google.com/maps/place/Khankeya+Siddiquiya+Masjid/data=!4m7!3m6!1s0x39f89f8136210805:0xce8cd49cfe76fc10!8m2!3d22.6870917!4d88.4754659!16s%2Fg%2F11hm_5dd_n!19sChIJBQghNoGf-DkREPx2_pzUjM4?authuser=0&hl=en&rclk=1,"22.6870917,88.47546589999999"
KATHOR JAMA MASJID,Mosque,"MGX3+CVP KATHOR JAMA MASJID, Kathor,makorsa pukur, Barasat, Badu, West Bengal 700128",Barasat,"MGX3+CVP, Kathor,makorsa pukur",Badu,700128,West Bengal,IN,https://www.google.com/maps/place/KATHOR+JAMA+MASJID/data=!4m7!3m6!1s0x39f8a1700363a691:0x72379830072fe1f5!8m2!3d22.6985969!4d88.5046993!16s%2Fg%2F11q7zch7q5!19sChIJkaZjA3Ch-DkR9eEvBzCYN3I?authuser=0&hl=en&rclk=1,"22.6985969,88.5046993"
Badu kalupara masjid,Mosque,"MGQ4+W3V Badu kalupara masjid, Badu 1st Main Road, Madhyamgram, Badu, West Bengal 700128",Madhyamgram,"MGQ4+W3V, Badu 1st Main Road",Badu,700128,West Bengal,IN,https://www.google.com/maps/place/Badu+kalupara+masjid/data=!4m7!3m6!1s0x39f8a19b4c7311d7:0x637b08a11f9fba3a!8m2!3d22.6898611!4d88.5051808!16s%2Fg%2F11rgfwzqy2!19sChIJ1xFzTJuh-DkROrqfH6EIe2M?authuser=0&hl=en&rclk=1,"22.689861099999998,88.50518079999999"
BAITUL HUMD JAME MASJID,Mosque,"PFF6+7PR BAITUL HUMD JAME MASJID, West ichapur,maicle madhu sudhan, Michael Madhusudan Dutta Rd, Nabapally, Barasat, 700126",Nabapally,"PFF6+7PR, West ichapur,maicle madhu sudhan, Michael Madhusudan Dutta Rd",Barasat,700126,West Bengal,IN,https://www.google.com/maps/place/BAITUL+HUMD+JAME+MASJID/data=!4m7!3m6!1s0x39f8998660761125:0x5165fa3898d85bb2!8m2!3d22.7232309!4d88.4617737!16s%2Fg%2F11jkv134qb!19sChIJJRF2YIaZ-DkRslvYmDj6ZVE?authuser=0&hl=en&rclk=1,"22.723230899999997,88.4617737"
Chandanpur jame masjid,Mosque,"PF96+X27 Chandanpur jame masjid, Chandan Pur, Nabapally, Ramkrishnapally, Barasat, Kolkata, West Bengal 700126","Ramkrishnapally, Barasat","PF96+X27, Chandan Pur, Nabapally",Kolkata,700126,West Bengal,IN,https://www.google.com/maps/place/Chandanpur+jame+masjid/data=!4m7!3m6!1s0x39f899927a375141:0x76046f7870ac6b85!8m2!3d22.7199087!4d88.4600546!16s%2Fg%2F11fv4r0_j9!19sChIJQVE3epKZ-DkRhWuscHhvBHY?authuser=0&hl=en&rclk=1,"22.719908699999998,88.46005459999999"
Berpara Madina Jame Masjid,Mosque,"Berpara Madina Jame Masjid, Madina masjid, Hazrat Ekdil Shah Rd, Kazipara, berpara north, Barasat, Bamangachi, West Bengal 700125","Kazipara, berpara north, Barasat","Madina masjid, Hazrat Ekdil Shah Rd",Bamangachi,700125,West Bengal,IN,https://www.google.com/maps/place/Berpara+Madina+Jame+Masjid/data=!4m7!3m6!1s0x39f8a3b2d4860075:0xfda3465b12292265!8m2!3d22.7222275!4d88.5012897!16s%2Fg%2F11t5xr5vbm!19sChIJdQCG1LKj-DkRZSIpEltGo_0?authuser=0&hl=en&rclk=1,"22.7222275,88.5012897"
Kora Uttarpara Eidgah Maidaan,Mosque,"PF84+J63 Kora Uttarpara Eidgah Maidaan, Ramkrishnapally, Barasat, Kolkata, West Bengal 700126","Ramkrishnapally, Barasat",PF84+J63,Kolkata,700126,West Bengal,IN,https://www.google.com/maps/place/Kora+Uttarpara+Eidgah+Maidaan/data=!4m7!3m6!1s0x39f8998f195fcf11:0x55f5e0602e3374fb!8m2!3d22.7165031!4d88.4555371!16s%2Fg%2F11tjgp1tp_!19sChIJEc9fGY-Z-DkR-3QzLmDg9VU?authuser=0&hl=en&rclk=1,"22.7165031,88.4555371"
Kadambagachi Bait- ul-Hamd Jame Masjid,Mosque,"PG5V+VHX Kadambagachi Bait- ul-Hamd Jame Masjid, Koyra, Kadambagachi, West Bengal 700125",,PG5V+VHX,"Koyra, Kadambagachi",700125,West Bengal,IN,https://www.google.com/maps/place/Kadambagachi+Bait-+ul-Hamd+Jame+Masjid/data=!4m7!3m6!1s0x39f8a3e2667edd9f:0x7bb15fc758edafc!8m2!3d22.7097477!4d88.5439796!16s%2Fg%2F11fy_618ty!19sChIJn91-ZuKj-DkR_NqOdfwVuwc?authuser=0&hl=en&rclk=1,"22.709747699999998,88.5439796"
Ataharia Jame Masjid,Mosque,"Ataharia Jame Masjid, 3, Sinthi, Kazipara, Barasat, Kolkata, West Bengal 700124","Kazipara, Barasat","3, Sinthi",Kolkata,700124,West Bengal,IN,https://www.google.com/maps/place/Ataharia+Jame+Masjid/data=!4m7!3m6!1s0x39f8a3525d2cd7e1:0xf2630d02a83de5a4!8m2!3d22.7306167!4d88.5052327!16s%2Fg%2F11s5zb8kvs!19sChIJ4dcsXVKj-DkRpOU9qAINY_I?authuser=0&hl=en&rclk=1,"22.7306167,88.5052327"
Badu Masjid,Mosque,"MGW6+2QM Badu Masjid, Madhyamgram, Badu, West Bengal 700128",Madhyamgram,MGW6+2QM,Badu,700128,West Bengal,IN,https://www.google.com/maps/place/Badu+Masjid/data=!4m7!3m6!1s0x39f8a10da2c8d917:0x19762cf29454c68!8m2!3d22.69509!4d88.5119302!16s%2Fg%2F11fdlg2bc6!19sChIJF9nIog2h-DkRaExFKc9ilwE?authuser=0&hl=en&rclk=1,"22.69509,88.5119302"
Parambil Jamhe Masjid,Mosque,"MFRG+292 Parambil Jamhe Masjid, Humaipur Rd, Shri Nagar, Netaji Nagar, Madhyamgram, Kolkata, West Bengal 700155","Shri Nagar, Netaji Nagar, Madhyamgram","MFRG+292, Humaipur Rd",Kolkata,700155,West Bengal,IN,https://www.google.com/maps/place/Parambil+Jamhe+Masjid/data=!4m7!3m6!1s0x39f89fdea7a1001b:0x8cdd26ea6efb402c!8m2!3d22.6900248!4d88.4758975!16s%2Fg%2F11qp3nq4_j!19sChIJGwChp96f-DkRLED7buom3Yw?authuser=0&hl=en&rclk=1,"22.6900248,88.4758975"
Mathpara Jama Masjid,Mosque,"Mathpara Jama Masjid, 43, Sarat Bose Ln, Khalisha Kota, Birati, North Dumdum, West Bengal 700081","Khalisha Kota, Birati","43, Sarat Bose Ln",North Dumdum,700081,West Bengal,IN,https://www.google.com/maps/place/Mathpara+Jama+Masjid/data=!4m7!3m6!1s0x39f89f7d087a0327:0x45d11ff17fab9a07!8m2!3d22.6569574!4d88.4377678!16s%2Fg%2F11rjz8zrnl!19sChIJJwN6CH2f-DkRB5qrf_Ef0UU?authuser=0&hl=en&rclk=1,"22.6569574,88.43776779999999"
Lakshmipur Jame Masjid,Mosque,"MGQJ+XGM Lakshmipur Jame Masjid, Authpur, Gobindapur, West Bengal 700125",,MGQJ+XGM,"Authpur, Gobindapur",700125,West Bengal,IN,https://www.google.com/maps/place/Lakshmipur+Jame+Masjid/data=!4m7!3m6!1s0x39f8a1d1fd2b0eeb:0xb988befe80bb543d!8m2!3d22.6899177!4d88.5312505!16s%2Fg%2F11rpzj7byy!19sChIJ6w4r_dGh-DkRPVS7gP6-iLk?authuser=0&hl=en&rclk=1,"22.6899177,88.5312505"
Mathgram jame masjid,Mosque,"MGP2+W2M Mathgram jame masjid, Unnamed Road, Madhyamgram, Kolkata, West Bengal 700128",Madhyamgram,"MGP2+W2M, Unnamed Road",Kolkata,700128,West Bengal,IN,https://www.google.com/maps/place/Mathgram+jame+masjid/data=!4m7!3m6!1s0x39f8a15aff1e5cff:0x1c358f9c3443e740!8m2!3d22.6873373!4d88.5000425!16s%2Fg%2F11q2h2r610!19sChIJ_1we_1qh-DkRQOdDNJyPNRw?authuser=0&hl=en&rclk=1,"22.6873373,88.50004249999999"
Masjid,Mosque,"Masjid, 4b, Saradapally, Madhyamgram, Kolkata, West Bengal 700155","Saradapally, Madhyamgram",4b,Kolkata,700155,West Bengal,IN,https://www.google.com/maps/place/Masjid/data=!4m7!3m6!1s0x39f89f7de16cd40f:0xf8d8094b44265b78!8m2!3d22.6904361!4d88.4762247!16s%2Fg%2F11q4dl4ncw!19sChIJD9Rs4X2f-DkReFsmREsJ2Pg?authuser=0&hl=en&rclk=1,"22.6904361,88.4762247"
Mirlidih Jamhe Masjid,Mosque,"MFPH+9H7 Mirlidih Jamhe Masjid, Unnamed Road, Madhyamgram, Kolkata, West Bengal 700124",Madhyamgram,"MFPH+9H7, Unnamed Road",Kolkata,700124,West Bengal,IN,https://www.google.com/maps/place/Mirlidih+Jamhe+Masjid/data=!4m7!3m6!1s0x39f89f41e90a4a17:0xcd0fb6649e9fe502!8m2!3d22.6859245!4d88.4789336!16s%2Fg%2F11lgp_h5r5!19sChIJF0oK6UGf-DkRAuWfnmS2D80?authuser=0&hl=en&rclk=1,"22.6859245,88.47893359999999"
Noapara Jame Maszid,Mosque,"MFC9+G67 Noapara Jame Maszid, Ganganagar, Doharia Shailesh Nagar, Chandigarh, Noapara, Gopalpur Chandigar, West Bengal 700131","Ganganagar, Doharia Shailesh Nagar, Chandigarh, Noapara",MFC9+G67,Gopalpur Chandigar,700131,West Bengal,IN,https://www.google.com/maps/place/Noapara+Jame+Maszid/data=!4m7!3m6!1s0x39f89f8cac931a51:0xc705bfe910f9d76b!8m2!3d22.671286!4d88.468042!16s%2Fg%2F11mvyxfdpb!19sChIJURqTrIyf-DkRa9f5EOm_Bcc?authuser=0&hl=en&rclk=1,"22.671286,88.468042"
Bankra Markaaz Masjid,Mosque,"Bankra Markaaz Masjid, Old Bankra Lane No- 2, Bankra, P.O.- Birati, North DumDum Municipality, Kolkata, 700051",Madhyamgram,"Old Bankra Lane No- 2, Bankra, P.O.- Birati, North DumDum Municipality",Kolkata,700051,West Bengal,IN,https://www.google.com/maps/place/Bankra+Markaaz+Masjid/data=!4m7!3m6!1s0x39f89f74b23e5d41:0x6a391a0796b9f5dc!8m2!3d22.6699532!4d88.4433565!16s%2Fg%2F11ngjjlb3p!19sChIJQV0-snSf-DkR3PW5lgcaOWo?authuser=0&hl=en&rclk=1,"22.6699532,88.4433565"
Dakshine Dhaoyapara Norani Jamhe Masjid,Mosque,"MFPG+22X Dakshine Dhaoyapara Norani Jamhe Masjid, Madhyamgram, Kolkata, West Bengal 700129",Madhyamgram,MFPG+22X,Kolkata,700129,West Bengal,IN,https://www.google.com/maps/place/Dakshine+Dhaoyapara+Norani+Jamhe+Masjid/data=!4m7!3m6!1s0x39f89fc6c85eb6e7:0x33982296f23cf9f3!8m2!3d22.6851201!4d88.4750997!16s%2Fg%2F11lkdcvhft!19sChIJ57ZeyMaf-DkR8_k88pYimDM?authuser=0&hl=en&rclk=1,"22.6851201,88.4750997"
Kora Biswaspara Eidgah maidan,Mosque,"PF73+29G Kora Biswaspara Eidgah maidan, Kora Biswas Para Rd, Bharat Nagar, Madhyamgram, Kolkata, West Bengal 700126","Bharat Nagar, Madhyamgram","PF73+29G, Kora Biswas Para Rd",Kolkata,700126,West Bengal,IN,https://www.google.com/maps/place/Kora+Biswaspara+Eidgah+maidan/data=!4m7!3m6!1s0x39f89983b37d9785:0x1d6c876f5509306c!8m2!3d22.7125565!4d88.4534497!16s%2Fg%2F11kjpfvlt2!19sChIJhZd9s4OZ-DkRbDAJVW-HbB0?authuser=0&hl=en&rclk=1,"22.712556499999998,88.4534497"
Srinagar Masjid,Mosque,"PF7W+7MR Srinagar Masjid, Barasat, Kolkata, West Bengal 700124",Barasat,PF7W+7MR,Kolkata,700124,West Bengal,IN,https://www.google.com/maps/place/Srinagar+Masjid/data=!4m7!3m6!1s0x39f8a336d7aa2b1f:0xa4393b978e9d3a41!8m2!3d22.7132427!4d88.4966279!16s%2Fg%2F11nccpks44!19sChIJHyuq1zaj-DkRQTqdjpc7OaQ?authuser=0&hl=en&rclk=1,"22.7132427,88.4966279"
Gobra uttorpara koborsthan,Mosque,"Gobra uttorpara koborsthan, Gobra.Rohanda, 700135, Madhyamgram, Kolkata, West Bengal 700135",Madhyamgram,"Gobra.Rohanda, 700135","Kolkata, Gobra",700135,West Bengal,IN,https://www.google.com/maps/place/Gobra+uttorpara+koborsthan/data=!4m7!3m6!1s0x39f8a19dbd9630cd:0x4d0e8d98d54dbc7!8m2!3d22.6644442!4d88.494694!16s%2Fg%2F11v0mqrzsy!19sChIJzTCWvZ2h-DkRx9tUjdno0AQ?authuser=0&hl=en&rclk=1,"22.6644442,88.494694"
Sodpur Jame Masjid,Mosque,"Sodpur Jame Masjid, Sarabarea sodpur, Sarbaria, West Bengal 700124",,Sarabarea sodpur,Sarbaria,700124,West Bengal,IN,https://www.google.com/maps/place/Sodpur+Jame+Masjid/data=!4m7!3m6!1s0x39f8a3686e1f1773:0xfcec23e39381c638!8m2!3d22.7091912!4d88.526823!16s%2Fg%2F11mwwhknfz!19sChIJcxcfbmij-DkROMaBk-Mj7Pw?authuser=0&hl=en&rclk=1,"22.7091912,88.526823"
Gustia Jame Masjid,Mosque,"MGM8+3XP Gustia Jame Masjid, Gustia Road, Madhyamgram, Kolkata, West Bengal 700128",Madhyamgram,"MGM8+3XP, Gustia Road",Kolkata,700128,West Bengal,IN,https://www.google.com/maps/place/Gustia+Jame+Masjid/data=!4m7!3m6!1s0x39f8a161bc20f447:0xf54cfbbae04868d8!8m2!3d22.6827198!4d88.5174529!16s%2Fg%2F11ty4f5f1d!19sChIJR_QgvGGh-DkR2GhI4Lr7TPU?authuser=0&hl=en&rclk=1,"22.682719799999997,88.5174529"
Badu jame masjid,Mosque,"PG23+H6Q Badu jame masjid, Kathor Rd, Madhyamgram, Kolkata, West Bengal 700124",Madhyamgram,"PG23+H6Q, Kathor Rd",Kolkata,,West Bengal,IN,https://www.google.com/maps/place/Badu+jame+masjid/data=!4m7!3m6!1s0x39f8a106d9667443:0xb6228ea942aaef0a!8m2!3d22.7014508!4d88.5031095!16s%2Fg%2F11nndmk3c8!19sChIJQ3Rm2Qah-DkRCu-qQqmOIrY?authuser=0&hl=en&rclk=1,"22.7014508,88.5031095"
Boro Hatiyandah Jamhe Masjid,Mosque,"Boro Hatiyandah Jamhe Masjid, Poddar House, Vill: Humaipur P.O:, Abdalpur, Madhyamgram, Kolkata, West Bengal 700155","Abdalpur, Madhyamgram","Poddar House, Vill: Humaipur P.O:",Kolkata,700155,West Bengal,IN,https://www.google.com/maps/place/Boro+Hatiyandah+Jamhe+Masjid/data=!4m7!3m6!1s0x39f89fa77d5a1a2d:0x1309e64f79707956!8m2!3d22.689747!4d88.4751052!16s%2Fg%2F11lh2zzdtf!19sChIJLRpafaef-DkRVnlweU_mCRM?authuser=0&hl=en&rclk=1,"22.689747,88.4751052"
Jalmachmari Eidgah,Mosque,"MFPG+C3G Jalmachmari Eidgah, Humaipur Rd, Madhyamgram, Kolkata, West Bengal 700131",Madhyamgram,"MFPG+C3G, Humaipur Rd",Kolkata,700131,West Bengal,IN,https://www.google.com/maps/place/Jalmachmari+Eidgah/data=!4m7!3m6!1s0x39f89f17daafb067:0x3071ef93cab3e376!8m2!3d22.6860748!4d88.4752054!16s%2Fg%2F11lkdctjrb!19sChIJZ7Cv2hef-DkRduOzypPvcTA?authuser=0&hl=en&rclk=1,"22.6860748,88.4752054"
Bankra Puraton Jame Masjid baaNkdd'aa nutn msjid,Mosque,"MGPM+4P8 Bankra Puraton Jame Masjid baaNkdd'aa nutn msjid, Bankra.badu, Madhyamgram, kol128",Madhyamgram,"MGPM+4P8, Bankra.badu","kol128, Gobindapur",,West Bengal,IN,https://www.google.com/maps/place/Bankra+Puraton+Jame+Masjid+%E0%A6%AC%E0%A6%BE%E0%A6%81%E0%A6%95%E0%A6%A1%E0%A6%BC%E0%A6%BE+%E0%A6%A8%E0%A7%81%E0%A6%A4%E0%A6%A8+%E0%A6%AE%E0%A6%B8%E0%A6%9C%E0%A6%BF%E0%A6%A6/data=!4m7!3m6!1s0x39f8a12d55a07313:0x51d7c66851056a02!8m2!3d22.6852854!4d88.5343196!16s%2Fg%2F11s_xvprxt!19sChIJE3OgVS2h-DkRAmoFUWjG11E?authuser=0&hl=en&rclk=1,"22.685285399999998,88.53431959999999"
Chandanhati Jamia Maszid,Mosque,"PG35+R9 Chandanhati Jamia Maszid, Madhyamgram, Kolkata, West Bengal 700124",Madhyamgram,PG35+R9,Kolkata,,West Bengal,IN,https://www.google.com/maps/place/Chandanhati+Jamia+Maszid/data=!4m7!3m6!1s0x39f8a1b37fa0264b:0x9e39ff83e2b7f56a!8m2!3d22.7045419!4d88.5083766!16s%2Fg%2F11rqxm5cg6!19sChIJSyagf7Oh-DkRavW34oP_OZ4?authuser=0&hl=en&rclk=1,"22.7045419,88.50837659999999"
Abdalpur natun masjid,Mosque,"MFRH+2R2 Abdalpur natun masjid, Badu Rd, Abdalpur, Madhyamgram, Kolkata, West Bengal 700155","Abdalpur, Madhyamgram","MFRH+2R2, Badu Rd",Kolkata,700155,West Bengal,IN,https://www.google.com/maps/place/Abdalpur+natun+masjid/data=!4m7!3m6!1s0x39f8a16aba621be1:0x78f1d5074e62f884!8m2!3d22.6900108!4d88.4795261!16s%2Fg%2F11rrkn90wk!19sChIJ4Rtiumqh-DkRhPhiTgfV8Xg?authuser=0&hl=en&rclk=1,"22.6900108,88.4795261"
Dakshinpara jama masjid,Mosque,"PGC3+2C3 Dakshinpara jama masjid, D.P.C.ROAD, Kazipara, Barasat, Kolkata, West Bengal 700125","Kazipara, Barasat","PGC3+2C3, D.P.C.ROAD",Kolkata,700125,West Bengal,IN,https://www.google.com/maps/place/Dakshinpara+jama+masjid/data=!4m7!3m6!1s0x39f8a358e3927267:0x58ff34382394954c!8m2!3d22.7200012!4d88.5035403!16s%2Fg%2F11n12qs5gg!19sChIJZ3KS41ij-DkRTJWUIzg0_1g?authuser=0&hl=en&rclk=1,"22.7200012,88.5035403"
Polpara Jame Masjid,Mosque,"MGJ9+RRW Polpara Jame Masjid, Kayemba, West Bengal 700128",,MGJ9+RRW,Kayemba,,West Bengal,IN,https://www.google.com/maps/place/Polpara+Jame+Masjid/data=!4m7!3m6!1s0x39f8a1d0264e1685:0x8572ce78af8b0a8e!8m2!3d22.6821193!4d88.5195639!16s%2Fg%2F11fnxq0x8k!19sChIJhRZOJtCh-DkRjgqLr3jOcoU?authuser=0&hl=en&rclk=1,"22.6821193,88.5195639"
Masjid,Mosque,"MGJ8+7WJ Masjid, Krishnapur Madanpur, West Bengal 700128",,MGJ8+7WJ,Krishnapur Madanpur,700128,West Bengal,IN,https://www.google.com/maps/place/Masjid/data=!4m7!3m6!1s0x39f8a1f5c98b941d:0x3963b7ec25bba721!8m2!3d22.6802355!4d88.5171202!16s%2Fg%2F11l6bhkp9_!19sChIJHZSLyfWh-DkRIae7Jey3Yzk?authuser=0&hl=en&rclk=1,"22.6802355,88.5171202"
Bankra Molla Para Jamiya Masjid,Mosque,"MGPM+4P8 Bankra Molla Para Jamiya Masjid, Gobindapur, West Bengal 700128",,MGPM+4P8,Gobindapur,700128,West Bengal,IN,https://www.google.com/maps/place/Bankra+Molla+Para+Jamiya+Masjid/data=!4m7!3m6!1s0x39f8a10c1cf0c201:0x4e9361e21c3f6884!8m2!3d22.6852969!4d88.5343183!16s%2Fg%2F11s_zl9h8c!19sChIJAcLwHAyh-DkRhGg_HOJhk04?authuser=0&hl=en&rclk=1,"22.685296899999997,88.5343183"
Paschim Ichapur Jame Masjid. pshcim ichaapur jaame msjid,Mosque,"PF97+W93 Paschim Ichapur Jame Masjid. pshcim ichaapur jaame msjid, Moulana Azad Rd, Santiniketan Pally, Kolkata, West Bengal 700126",Santiniketan Pally,"PF97+W93, Moulana Azad Rd",Kolkata,700126,West Bengal,IN,https://www.google.com/maps/place/Paschim+Ichapur+Jame+Masjid.+%E0%A6%AA%E0%A6%B6%E0%A7%8D%E0%A6%9A%E0%A6%BF%E0%A6%AE+%E0%A6%87%E0%A6%9B%E0%A6%BE%E0%A6%AA%E0%A7%81%E0%A6%B0+%E0%A6%9C%E0%A6%BE%E0%A6%AE%E0%A7%87+%E0%A6%AE%E0%A6%B8%E0%A6%9C%E0%A6%BF%E0%A6%A6/data=!4m7!3m6!1s0x39f8999b9225ef57:0x156733ccebef2822!8m2!3d22.7192125!4d88.4634634!16s%2Fg%2F11vkf2xwmy!19sChIJV-8lkpuZ-DkRIijv68wzZxU?authuser=0&hl=en&rclk=1,"22.719212499999998,88.4634634"
baaNkdd'aa puraatn jaame msjid ,Mosque,"MGMM+VV baaNkdd'aa puraatn jaame msjid , Gobindapur, West Bengal 700125",,MGMM+VV,Gobindapur,700125,West Bengal,IN,https://www.google.com/maps/place/%E0%A6%AC%E0%A6%BE%E0%A6%81%E0%A6%95%E0%A6%A1%E0%A6%BC%E0%A6%BE+%E0%A6%AA%E0%A7%81%E0%A6%B0%E0%A6%BE%E0%A6%A4%E0%A6%A8+%E0%A6%9C%E0%A6%BE%E0%A6%AE%E0%A7%87+%E0%A6%AE%E0%A6%B8%E0%A6%9C%E0%A6%BF%E0%A6%A6+%F0%9F%95%8C/data=!4m7!3m6!1s0x39f8a16e576676cb:0xd9d74ef5f83e4ef2!8m2!3d22.685497!4d88.5354706!16s%2Fg%2F11kjp9wl8z!19sChIJy3ZmV26h-DkR8k4--PVO19k?authuser=0&hl=en&rclk=1,"22.685496999999998,88.5354706"
Baitoon Noor Jame Masjid,Mosque,"PG4X+8GW Baitoon Noor Jame Masjid, Unnamed Road, Kadambagachi, West Bengal 700125",,"PG4X+8GW, Unnamed Road",Kadambagachi,700125,West Bengal,IN,https://www.google.com/maps/place/Baitoon+Noor+Jame+Masjid/data=!4m7!3m6!1s0x39f8a195c7fb4983:0x3199032d33dae00d!8m2!3d22.7058555!4d88.5488357!16s%2Fg%2F11j21167kn!19sChIJg0n7x5Wh-DkRDeDaMy0DmTE?authuser=0&hl=en&rclk=1,"22.7058555,88.5488357"
