name,main_category,address,address_ward,address_street,address_city,address_postal_code,address_state,address_country_code,link,coordinates
Badi Masjid,Mosque,"Badi Masjid, Jari Gate 202412, Chandausi, Uttar Pradesh",Jatt Colany,Jari Gate 202412,Chandausi,,Uttar Pradesh,IN,https://www.google.com/maps/place/Badi+Masjid/data=!4m7!3m6!1s0x390adbafa72be697:0x6a6b289880c3724f!8m2!3d28.4508148!4d78.7838827!16s%2Fg%2F11bxfqx0n7!19sChIJl-Yrp6_bCjkRT3LDgJgoa2o?authuser=0&hl=en&rclk=1,"28.4508148,78.78388269999999"
Lal Masjid(Juma 2:00pm),Mosque,"CQXM+P7J Lal Masjid(Juma 2:00pm), Lal Masjid street, Jatt Colany, Chandausi, Uttar Pradesh 244412",Jatt Colany,"CQXM+P7J, Lal Masjid street",Chandausi,244412,Uttar Pradesh,IN,https://www.google.com/maps/place/Lal+Masjid%28Juma+2:00pm%29/data=!4m7!3m6!1s0x390adbae498c8481:0x30bf55eb6eeb0ea2!8m2!3d28.4493452!4d78.7831358!16s%2Fg%2F11bxfhzjrb!19sChIJgYSMSa7bCjkRog7rbutVvzA?authuser=0&hl=en&rclk=1,"28.4493452,78.7831358"
Masjid Sharif (Sheikho Bali),Mosque,"Masjid Sharif (Sheikho Bali), Jatt Colany, Chandausi, Uttar Pradesh 244412",Jatt Colany,,Chandausi,244412,Uttar Pradesh,IN,https://www.google.com/maps/place/Masjid+Sharif+%28Sheikho+Bali%29/data=!4m7!3m6!1s0x390adba8d855be1b:0x1068d13d23c775b1!8m2!3d28.4502394!4d78.7882219!16s%2Fg%2F11c3k562lp!19sChIJG75V2KjbCjkRsXXHIz3RaBA?authuser=0&hl=en&rclk=1,"28.450239399999997,78.7882219"
Raza Masjid & Madarsa Darul Uloom Ahle Sunnat Bakate Raza,Mosque,"FQ2J+RGR Raza Masjid & Madarsa Darul Uloom Ahle Sunnat Bakate Raza, Kotwali, Gurunanak Colony, Chandausi, Uttar Pradesh 244412","Kotwali, Gurunanak Colony",FQ2J+RGR,Chandausi,244412,Uttar Pradesh,IN,https://www.google.com/maps/place/Raza+Masjid+%26+Madarsa+Darul+Uloom+Ahle+Sunnat+Bakate+Raza/data=!4m7!3m6!1s0x390adbb006ac821f:0x52564bd97248b947!8m2!3d28.4521177!4d78.7812581!16s%2Fg%2F11c32cg4_p!19sChIJH4KsBrDbCjkRR7lIctlLVlI?authuser=0&hl=en&rclk=1,"28.4521177,78.7812581"
Islam Ganj Wali Masjid,Mosque,"FQ3Q+92W Islam Ganj Wali Masjid, islam ganj colony jarai gate, Chandausi",Jatt Colany,"FQ3Q+92W, islam ganj colony jarai gate",Chandausi,,Uttar Pradesh,IN,https://www.google.com/maps/place/Islam+Ganj+Wali+Masjid/data=!4m7!3m6!1s0x390adba6067d5a17:0x25fdd57c7d0d3b4c!8m2!3d28.4534887!4d78.7875878!16s%2Fg%2F11c1xfxbx6!19sChIJF1p9BqbbCjkRTDsNfXzV_SU?authuser=0&hl=en&rclk=1,"28.453488699999998,78.7875878"
Jama Masjid,Mosque,"FQ2M+33C Jama Masjid, Jatt Colany, Chandausi, Uttar Pradesh 244412",Jatt Colany,FQ2M+33C,Chandausi,244412,Uttar Pradesh,IN,https://www.google.com/maps/place/Jama+Masjid/data=!4m7!3m6!1s0x390adbafcedb32a9:0xc76466aee55fe26f!8m2!3d28.4501825!4d78.7826261!16s%2Fg%2F11c209m6qq!19sChIJqTLbzq_bCjkRb-Jf5a5mZMc?authuser=0&hl=en&rclk=1,"28.4501825,78.7826261"
Takiye Wali Masjid,Mosque,"FQ3P+35Q Takiye Wali Masjid, Golaganj Mohalla, Akbarpur Chiteri, Chandausi, Uttar Pradesh 244412","Golaganj Mohalla, Akbarpur Chiteri",FQ3P+35Q,Chandausi,244412,Uttar Pradesh,IN,https://www.google.com/maps/place/Takiye+Wali+Masjid/data=!4m7!3m6!1s0x390adbaf62182619:0x3c66e374730df301!8m2!3d28.4527235!4d78.7854739!16s%2Fg%2F11gfddzj36!19sChIJGSYYYq_bCjkRAfMNc3TjZjw?authuser=0&hl=en&rclk=1,"28.452723499999998,78.7854739"
EK Minar Sunhari Masjid,Mosque,"FQ2H+9CV EK Minar Sunhari Masjid, Ek Minar Sunhari Masjid, Sambhal Gate, Chandausi, 244412",Avas Vikas Colony,"FQ2H+9CV, Ek Minar Sunhari Masjid, Sambhal Gate",Chandausi,244412,Uttar Pradesh,IN,https://www.google.com/maps/place/EK+Minar+Sunhari+Masjid/data=!4m7!3m6!1s0x390adb781fd2e231:0xce47689b66664169!8m2!3d28.4509923!4d78.7785313!16s%2Fg%2F11gs54p913!19sChIJMeLSH3jbCjkRaUFmZptoR84?authuser=0&hl=en&rclk=1,"28.4509923,78.7785313"
Qadri Noshahi masjid,Mosque,"Qadri Noshahi masjid, Laxman Gunj Rd, Chhoty Lal Colony, Chandausi, Uttar Pradesh 244412",Chhoty Lal Colony,Laxman Gunj Rd,Chandausi,244412,Uttar Pradesh,IN,https://www.google.com/maps/place/Qadri+Noshahi+masjid/data=!4m7!3m6!1s0x390adb168dbbd283:0xf26292d2f50584d4!8m2!3d28.4500937!4d78.7909795!16s%2Fg%2F11txnxl0zn!19sChIJg9K7jRbbCjkR1IQF9dKSYvI?authuser=0&hl=en&rclk=1,"28.4500937,78.79097949999999"
Masjid Raja A Mustafa,Mosque,"FQ2V+GRP Masjid Raja A Mustafa, near Asharfi chowk, waris nagar, Chandausi, Uttar Pradesh 244412",waris nagar,"FQ2V+GRP, near Asharfi chowk",Chandausi,244412,Uttar Pradesh,IN,https://www.google.com/maps/place/Masjid+Raja+A+Mustafa/data=!4m7!3m6!1s0x390adb09723c9d6b:0xbb618cb8418d1fce!8m2!3d28.4513337!4d78.7945844!16s%2Fg%2F11tcr1qgl1!19sChIJa508cgnbCjkRzh-NQbiMYbs?authuser=0&hl=en&rclk=1,"28.4513337,78.79458439999999"
Shahi Masjid Nakhasa,Mosque,"FQ2P+F6V Shahi Masjid Nakhasa, Unnamed Road, Jatt Colany, Chandausi, Uttar Pradesh 202412",Jatt Colany,"FQ2P+F6V, Unnamed Road",Chandausi,202412,Uttar Pradesh,IN,https://www.google.com/maps/place/Shahi+Masjid+Nakhasa/data=!4m7!3m6!1s0x390adb5ba00505b9:0x465c75bba3247bda!8m2!3d28.4512434!4d78.785543!16s%2Fg%2F11fk1bfnrp!19sChIJuQUFoFvbCjkR2nsko7t1XEY?authuser=0&hl=en&rclk=1,"28.4512434,78.78554299999999"
Raza_e_mustafa Masjid,Mosque,"FQ3R+536 Raza_e_mustafa Masjid, Laxman Gunj Rd, Chhoty Lal Colony, Chandausi, Uttar Pradesh 244412",Chhoty Lal Colony,"FQ3R+536, Laxman Gunj Rd",Chandausi,244412,Uttar Pradesh,IN,https://www.google.com/maps/place/Raza_e_mustafa+Masjid/data=!4m7!3m6!1s0x390adbc3ee536c3f:0xc026d55f8c21c178!8m2!3d28.452918!4d78.7901423!16s%2Fg%2F11s_rwr07p!19sChIJP2xT7sPbCjkReMEhjF_VJsA?authuser=0&hl=en&rclk=1,"28.452918,78.7901423"
Masjid Punjabian,Mosque,"Masjid Punjabian, 429, Sikree Gate, near Sneh Lata School, Jatt Colany, Chandausi, Uttar Pradesh 202412",Jatt Colany,"429, Sikree Gate, near Sneh Lata School",Chandausi,202412,Uttar Pradesh,IN,https://www.google.com/maps/place/Masjid+Punjabian/data=!4m7!3m6!1s0x390adb1fb35828f7:0x92ba41a7ccebfeca!8m2!3d28.4491747!4d78.7844078!16s%2Fg%2F11rh7z6qns!19sChIJ9yhYsx_bCjkRyv7rzKdBupI?authuser=0&hl=en&rclk=1,"28.4491747,78.7844078"
msjd,Mosque,"FQ5H+364 msjd, Station Rd, Anand Colony, Shakti Nagar, Chandausi, Uttar Pradesh 202412","Anand Colony, Shakti Nagar","FQ5H+364, Station Rd",Chandausi,202412,Uttar Pradesh,IN,https://www.google.com/maps/place/%D9%85%D8%B3%D8%AC%D8%AF%E2%80%AD/data=!4m7!3m6!1s0x390adb3dde636fdf:0x775799222d305436!8m2!3d28.4576344!4d78.7780728!16s%2Fg%2F11h4g2rdb3!19sChIJ329j3j3bCjkRNlQwLSKZV3c?authuser=0&hl=en&rclk=1,"28.4576344,78.77807279999999"
Masjid,Mosque,"CQXP+PCW Masjid, Jatt Colany, Chandausi, Uttar Pradesh 244412",Jatt Colany,CQXP+PCW,Chandausi,244412,Uttar Pradesh,IN,https://www.google.com/maps/place/Masjid/data=!4m7!3m6!1s0x390adb68f42b968b:0x95ed4df8100e4279!8m2!3d28.4493731!4d78.7860917!16s%2Fg%2F11lg2lz_nv!19sChIJi5Yr9GjbCjkReUIOEPhN7ZU?authuser=0&hl=en&rclk=1,"28.4493731,78.7860917"
Salmani Masjid & Madarsa,Mosque,"FQ2J+CFC Salmani Masjid & Madarsa, Kotwali, Gurunanak Colony, Chandausi, Uttar Pradesh 244412","Kotwali, Gurunanak Colony",FQ2J+CFC,Chandausi,244412,Uttar Pradesh,IN,https://www.google.com/maps/place/Salmani+Masjid+%26+Madarsa/data=!4m7!3m6!1s0x390adb53dee4711d:0xce27ddb9161e55e0!8m2!3d28.4510517!4d78.7811275!16s%2Fg%2F11ql7f_jc1!19sChIJHXHk3lPbCjkR4FUeFrndJ84?authuser=0&hl=en&rclk=1,"28.451051699999997,78.7811275"
Madina Masjid,Mosque,"Madina Masjid, Zrti chandausi, Pragati Viharn Colony, Chandausi, Uttar Pradesh 232104",Pragati Viharn Colony,Zrti chandausi,Chandausi,232104,Uttar Pradesh,IN,https://www.google.com/maps/place/Madina+Masjid/data=!4m7!3m6!1s0x390adb1b17c2f74f:0xc2b964cb8451f2d3!8m2!3d28.4575265!4d78.7856045!16s%2Fg%2F11j0zrlxz7!19sChIJT_fCFxvbCjkR0_JRhMtkucI?authuser=0&hl=en&rclk=1,"28.4575265,78.78560449999999"
Moti Masjid,Mosque,"CQXH+3CH Moti Masjid, Jawahar Rd, Bhram Bazaar, Chandausi, Uttar Pradesh 202412",Bhram Bazaar,"CQXH+3CH, Jawahar Rd",Chandausi,202412,Uttar Pradesh,IN,https://www.google.com/maps/place/Moti+Masjid/data=!4m7!3m6!1s0x390adb0eff2820df:0xe82c3a26ab59321b!8m2!3d28.4476833!4d78.7786038!16s%2Fg%2F11sxm9tcmz!19sChIJ3yAo_w7bCjkRGzJZqyY6LOg?authuser=0&hl=en&rclk=1,"28.447683299999998,78.7786038"
Masjid Railway Station wali,Mosque,"FQ5H+36G Masjid Railway Station wali, Railway Colony, Shakti Nagar, Chandausi, Uttar Pradesh 244412","Railway Colony, Shakti Nagar",FQ5H+36G,Chandausi,244412,Uttar Pradesh,IN,https://www.google.com/maps/place/Masjid+Railway+Station+wali/data=!4m7!3m6!1s0x390adb7873645f31:0x5a6453d90d0b7694!8m2!3d28.4576925!4d78.7780661!16s%2Fg%2F11vb78sh_5!19sChIJMV9kc3jbCjkRlHYLDdlTZFo?authuser=0&hl=en&rclk=1,"28.4576925,78.77806609999999"
Masjid Eidgah,Mosque,"FQ4F+6CF Masjid Eidgah, Avas Vikas Colony, Chandausi, Uttar Pradesh 244412",Avas Vikas Colony,FQ4F+6CF,Chandausi,244412,Uttar Pradesh,IN,https://www.google.com/maps/place/Masjid+Eidgah/data=!4m7!3m6!1s0x390adb7309741b0b:0x503f0be04a341195!8m2!3d28.4555744!4d78.7735599!16s%2Fg%2F11h7n9rx_m!19sChIJCxt0CXPbCjkRlRE0SuALP1A?authuser=0&hl=en&rclk=1,"28.4555744,78.7735599"
