name,main_category,address,address_ward,address_street,address_city,address_postal_code,address_state,address_country_code,link,coordinates
Gazi Masjid New Colony Bijbehara,Mosque,"Q4X4+R9V Gazi Masjid New Colony Bijbehara, New Colony - Baba Mohalla Rd, New Colony Bijbehara, Bijbehara, Jammu and Kashmir 192124",New Colony Bijbehara,"Q4X4+R9V, New Colony - Baba Mohalla Rd",Bijbehara,192124,Jammu and Kashmir,IN,https://www.google.com/maps/place/Gazi+Masjid+New+Colony+Bijbehara/data=!4m7!3m6!1s0x38e21b1e4cb5f40f:0xafe9f9d22d7804b!8m2!3d33.7996243!4d75.1059186!16s%2Fg%2F11btv67m01!19sChIJD_S1TB4b4jgRS4DXIp2f_go?authuser=0&hl=en&rclk=1,"33.7996243,75.1059186"
Masjid Bilal New Colony Bijbehara,Mosque,"R423+5JM Masjid Bilal New Colony Bijbehara, New Colony - Baba Mohalla Rd, New Colony Bijbehara, Bijbehara, Jammu and Kashmir 192124",New Colony Bijbehara,"R423+5JM, New Colony - Baba Mohalla Rd",Bijbehara,192124,Jammu and Kashmir,IN,https://www.google.com/maps/place/Masjid+Bilal+New+Colony+Bijbehara/data=!4m7!3m6!1s0x38e21b1eedc596e3:0xd2928fbadfee7a0d!8m2!3d33.8004579!4d75.1040518!16s%2Fg%2F11b7qvkw1x!19sChIJ45bF7R4b4jgRDXru37qPktI?authuser=0&hl=en&rclk=1,"33.8004579,75.1040518"
Jamia Ahli Hadith,Mosque,"Q4R4+WXP Jamia Ahli Hadith, Ahanger Mohalla, Bijbehara, Jammu and Kashmir 192124",Ahanger Mohalla,Q4R4+WXP,Bijbehara,192124,Jammu and Kashmir,IN,https://www.google.com/maps/place/Jamia+Ahli+Hadith/data=!4m7!3m6!1s0x38e21b20a5fb448f:0x5cc1a6291a99904f!8m2!3d33.7923253!4d75.1074566!16s%2Fg%2F1hm1rdj0v!19sChIJj0T7pSAb4jgRT5CZGimmwVw?authuser=0&hl=en&rclk=1,"33.7923253,75.10745659999999"
Jamia Masjid Bijbehara,Mosque,"Q4V4+MWH Jamia Masjid Bijbehara, Zirpara - Baba Mohalla Rd, Bijbehara, Jammu and Kashmir 192124",,"Q4V4+MWH, Zirpara - Baba Mohalla Rd",Bijbehara,192124,Jammu and Kashmir,IN,https://www.google.com/maps/place/Jamia+Masjid+Bijbehara/data=!4m7!3m6!1s0x38e21b20872495bf:0xc6f2bfb39963757c!8m2!3d33.7941955!4d75.1073688!16s%2Fg%2F11bc7v0y8w!19sChIJv5UkhyAb4jgRfHVjmbO_8sY?authuser=0&hl=en&rclk=1,"33.7941955,75.1073688"
Jamia Masjid,Mosque,"Jamia Masjid, 192124",,,,,,,https://www.google.com/maps/place/Jamia+Masjid/data=!4m7!3m6!1s0x38e21b2f7067e9c3:0xf7766bb5ba38beee!8m2!3d33.7813232!4d75.0957155!16s%2Fg%2F113j3ynnq!19sChIJw-lncC8b4jgR7r44urVrdvc?authuser=0&hl=en&rclk=1,"33.781323199999996,75.0957155"
"Hanafia Jamia Shahi Masjid, Zirpara",Mosque,"Q4R5+MG3 Hanafia Jamia Shahi Masjid, Zirpara, Zirpara, Bijbehara, Jammu and Kashmir 192124",Zirpara,Q4R5+MG3,Bijbehara,192124,Jammu and Kashmir,IN,"https://www.google.com/maps/place/Hanafia+Jamia+Shahi+Masjid,+Zirpara/data=!4m7!3m6!1s0x38e21bfdd6a9687f:0x1d1e90f62a5b4f6d!8m2!3d33.7916352!4d75.1087872!16s%2Fg%2F11lfqs14vz!19sChIJf2ip1v0b4jgRbU9bKvaQHh0?authuser=0&hl=en&rclk=1","33.7916352,75.1087872"
Masjid Abu-ul-Fuqarah,Mosque,"Q4W5+GJF Masjid Abu-ul-Fuqarah, Vaid Mohalla Rd, Baba Mohalla, Bijbehara, Jammu and Kashmir 192124",Baba Mohalla,"Q4W5+GJF, Vaid Mohalla Rd",Bijbehara,192124,Jammu and Kashmir,IN,https://www.google.com/maps/place/Masjid+Abu-ul-Fuqarah/data=!4m7!3m6!1s0x38e21adfdefdc867:0x97a11be693fdeaf3!8m2!3d33.7963243!4d75.109049!16s%2Fg%2F11b7wc48b2!19sChIJZ8j93t8a4jgR8-r9k-YboZc?authuser=0&hl=en&rclk=1,"33.7963243,75.109049"
Markazi Hanfia Jamia Guree,Mosque,"Q47J+4CG Markazi Hanfia Jamia Guree, Guree, Bijbehara, Jammu and Kashmir 192124",Guree,Q47J+4CG,Bijbehara,,Jammu and Kashmir,IN,https://www.google.com/maps/place/Markazi+Hanfia+Jamia+Guree/data=!4m7!3m6!1s0x38e20538a0b6e80d:0x35671a905666d7a3!8m2!3d33.7628059!4d75.1310763!16s%2Fg%2F11gglt14dd!19sChIJDei2oDgF4jgRo9dmVpAaZzU?authuser=0&hl=en&rclk=1,"33.7628059,75.1310763"
Masjid-e-Usmani Gani RA,Mosque,"Q3PQ+P34 Masjid-e-Usmani Gani RA, Jabli Pora, Jammu and Kashmir",,"Q3PQ+P34, Jabli Pora",,,Jammu and Kashmir,IN,https://www.google.com/maps/place/Masjid-e-Usmani+Gani+RA/data=!4m7!3m6!1s0x38e21bbaae71df3f:0x65b5b72f90e9c73f!8m2!3d33.7867732!4d75.0877145!16s%2Fg%2F11h0psmwhr!19sChIJP99xrrob4jgRP8fpkC-3tWU?authuser=0&hl=en&rclk=1,"33.7867732,75.08771449999999"
The Mosque Of Wahabi's,Mosque,"Q4R5+W2G The Mosque Of Wahabi's, Ahanger Mohalla, Bijbehara, 192124",Ahanger Mohalla,Q4R5+W2G,Bijbehara,192124,,IN,https://www.google.com/maps/place/The+Mosque+Of+Wahabi%27s/data=!4m7!3m6!1s0x38e21bd32e281ab3:0x79d589aac35574de!8m2!3d33.7923121!4d75.107586!16s%2Fg%2F11rbry4znr!19sChIJsxooLtMb4jgR3nRVw6qJ1Xk?authuser=0&hl=en&rclk=1,"33.7923121,75.107586"
Jamia Masjid Katriteng.,Mosque,"R445+R7C Jamia Masjid Katriteng., Katriteng, Bijbehara, 192124",,"R445+R7C, Katriteng","Bijbehara, Katriteng",192124,,IN,https://www.google.com/maps/place/Jamia+Masjid+Katriteng./data=!4m7!3m6!1s0x38e21b10feccb6bd:0xb5d353bfff0dc0b6!8m2!3d33.8070715!4d75.1081345!16s%2Fg%2F11q97h3542!19sChIJvbbM_hAb4jgRtsAN_79T07U?authuser=0&hl=en&rclk=1,"33.8070715,75.10813449999999"
Masjid - E- IBRAHIM,Mosque,"Masjid - E- IBRAHIM, 192124",,,,192124,,IN,https://www.google.com/maps/place/Masjid+-+E-+IBRAHIM/data=!4m7!3m6!1s0x38e21bfe780d8b09:0xecfa19557f0f6e19!8m2!3d33.7940299!4d75.1107101!16s%2Fg%2F11pcpp0p1x!19sChIJCYsNeP4b4jgRGW4Pf1UZ-uw?authuser=0&hl=en&rclk=1,"33.7940299,75.11071009999999"
JAMMIA MASJID SHAREEF (B),Mosque,"JAMMIA MASJID SHAREEF (B), Pazalpora, Bijbehara, Jammu and Kashmir 192124",Pazalpora,,Bijbehara,192124,Jammu and Kashmir,IN,https://www.google.com/maps/place/JAMMIA+MASJID+SHAREEF+%28B%29/data=!4m7!3m6!1s0x38e21ba7b47c3025:0x638cdb4371c07a44!8m2!3d33.7796573!4d75.1081201!16s%2Fg%2F11qpltdxkp!19sChIJJTB8tKcb4jgRRHrAcUPbjGM?authuser=0&hl=en&rclk=1,"33.7796573,75.1081201"
Masjid Sharif,Mosque,"Q4W7+W87 Masjid Sharif, Hayar, 192124",,Q4W7+W87,Hayar,192124,,IN,https://www.google.com/maps/place/Masjid+Sharif/data=!4m7!3m6!1s0x38e21b496b784053:0x5d330c14b2986397!8m2!3d33.7972826!4d75.1133011!16s%2Fg%2F11rx3b_4nt!19sChIJU0B4a0kb4jgRl2OYshQMM10?authuser=0&hl=en&rclk=1,"33.797282599999996,75.1133011"
msjd mm shwkhny bjbhrh,Mosque,"msjd mm shwkhny bjbhrh, Goriwon, Bijbehara, Jammu and Kashmir 192124",Goriwon,,Bijbehara,192124,Jammu and Kashmir,IN,https://www.google.com/maps/place/%D9%85%D8%B3%D8%AC%D8%AF+%D8%A7%D9%85%D8%A7%D9%85+%D8%B4%D9%88%DA%A9%D8%A7%D9%86%DB%8C+%D8%A8%D8%AC%D8%A8%DB%81%D8%A7%D8%B1%DB%81%E2%80%AD/data=!4m7!3m6!1s0x38e21b3e8fd85ca1:0xbadbcc50bc268bc2!8m2!3d33.7905196!4d75.1036382!16s%2Fg%2F11fsltxssm!19sChIJoVzYjz4b4jgRwosmvFDM27o?authuser=0&hl=en&rclk=1,"33.790519599999996,75.10363819999999"
Bijbehara Markaz Deeni Masjid Under The Guidelines Of Markaz Nizamuddin.,Mosque,"Q4V4+42V Bijbehara Markaz Deeni Masjid Under The Guidelines Of Markaz Nizamuddin., Goriwon, Bijbehara, 192124",Goriwon,Q4V4+42V,Bijbehara,192124,,IN,https://www.google.com/maps/place/Bijbehara+Markaz+Deeni+Masjid+Under+The+Guidelines+Of+Markaz+Nizamuddin./data=!4m7!3m6!1s0x38e21bdd1d8db3d5:0x3db76f4eacdb870b!8m2!3d33.7928654!4d75.1050576!16s%2Fg%2F11nxxg2n1s!19sChIJ1bONHd0b4jgRC4fbrE5vtz0?authuser=0&hl=en&rclk=1,"33.7928654,75.1050576"
Masjid Owais,Place of worship,"Q4V2+P65 Masjid Owais, Tehsil Rd, Bijbehara, 192124",,"Q4V2+P65, Tehsil Rd",Bijbehara,192124,,IN,https://www.google.com/maps/place/Masjid+Owais/data=!4m7!3m6!1s0x38e21b22386b782d:0xa06674324ffe40b7!8m2!3d33.7942723!4d75.1006055!16s%2Fg%2F11bxg2rhz9!19sChIJLXhrOCIb4jgRt0D-TzJ0ZqA?authuser=0&hl=en&rclk=1,"33.794272299999996,75.1006055"
Jamia Masjid Subhanpora,Mosque,"Jamia Masjid Subhanpora, Srinagar - Kanyakumari Hwy, 192124",,Srinagar - Kanyakumari Hwy,,192124,,IN,https://www.google.com/maps/place/Jamia+Masjid+Subhanpora/data=!4m7!3m6!1s0x38e20565405573eb:0x2a46ac1a96573e3b!8m2!3d33.7737799!4d75.0987074!16s%2Fg%2F11mwv16zd0!19sChIJ63NVQGUF4jgROz5XlhqsRio?authuser=0&hl=en&rclk=1,"33.7737799,75.0987074"
Masjid Sharief,Mosque,"Q4V5+H8R Masjid Sharief, Ahanger Mohalla, Bijbehara, 192124",Ahanger Mohalla,Q4V5+H8R,Bijbehara,192124,,IN,https://www.google.com/maps/place/Masjid+Sharief/data=!4m7!3m6!1s0x38e21bc61df139d3:0x6b172c2ba3ce3759!8m2!3d33.7939995!4d75.1082807!16s%2Fg%2F11nmlh6l6z!19sChIJ0znxHcYb4jgRWTfOoyssF2s?authuser=0&hl=en&rclk=1,"33.7939995,75.1082807"
Masjid Umar,Mosque,"Q3RX+J9C Masjid Umar, Karewa Colony, Bijbehara, Jammu and Kashmir 192124",Karewa Colony,Q3RX+J9C,Bijbehara,192124,Jammu and Kashmir,IN,https://www.google.com/maps/place/Masjid+Umar/data=!4m7!3m6!1s0x38e21bef7c0778d7:0xa2023a6cf1662ef0!8m2!3d33.791574!4d75.0984058!16s%2Fg%2F11t2_r8cpn!19sChIJ13gHfO8b4jgR8C5m8Ww6AqI?authuser=0&hl=en&rclk=1,"33.791574,75.0984058"
Jamia Masjid Jablipora (Nagbal),Mosque,"Q3PW+F7C Jamia Masjid Jablipora (Nagbal), Sicop Road, Bijbehara, 192124",,"Q3PW+F7C, Sicop Road",Bijbehara,192124,,IN,https://www.google.com/maps/place/Jamia+Masjid+Jablipora+%28Nagbal%29/data=!4m7!3m6!1s0x38e21b39c4fa431d:0xfea18fc1d9421061!8m2!3d33.7861751!4d75.0956321!16s%2Fg%2F11nxy6xfdq!19sChIJHUP6xDkb4jgRYRBC2cGPof4?authuser=0&hl=en&rclk=1,"33.7861751,75.0956321"
Masjid-e-Iqbal Sicop karaiwa,Mosque,"Q3RW+852 Masjid-e-Iqbal Sicop karaiwa, Unnamed Road, Bijbehara, 192124",,"Q3RW+852, Unnamed Road",Bijbehara,192124,,IN,https://www.google.com/maps/place/Masjid-e-Iqbal+Sicop+karaiwa/data=!4m7!3m6!1s0x38e21bb5d2f0002b:0xfeb021abc4eddd7c!8m2!3d33.7907554!4d75.0953848!16s%2Fg%2F11n0vh4zsl!19sChIJKwDw0rUb4jgRfN3txKshsP4?authuser=0&hl=en&rclk=1,"33.7907554,75.09538479999999"
Jamia Masjid Eidgah Semithan,Mosque,"R32W+87X Jamia Masjid Eidgah Semithan, Semithan - Bijbehara Rd, Bijbehara, Jammu and Kashmir 192124",,"R32W+87X, Semithan - Bijbehara Rd",Bijbehara,192124,Jammu and Kashmir,IN,https://www.google.com/maps/place/Jamia+Masjid+Eidgah+Semithan/data=!4m7!3m6!1s0x38e21b6185f3f917:0xdea5a97c9552ae2!8m2!3d33.8008558!4d75.0957366!16s%2Fg%2F11h3z4z4fs!19sChIJF_nzhWEb4jgR4ipVyZda6g0?authuser=0&hl=en&rclk=1,"33.8008558,75.0957366"
Markazi Jamia Masjid Jablipora mrkhzy jm` msjd jblypwrh,Mosque,"Q3JX+J39 Markazi Jamia Masjid Jablipora mrkhzy jm` msjd jblypwrh, Bijbehara, 192124",,Q3JX+J39,Bijbehara,192124,,IN,https://www.google.com/maps/place/Markazi+Jamia+Masjid+Jablipora+%D9%85%D8%B1%DA%A9%D8%B2%DB%8C+%D8%AC%D8%A7%D9%85%D8%B9+%D9%85%D8%B3%D8%AC%D8%AF+%D8%AC%D8%A8%D9%84%DB%8C%D9%BE%D9%88%D8%B1%DB%81%E2%80%AD/data=!4m7!3m6!1s0x38e21b019c9a2cf7:0xcd3cf5478c9a727b!8m2!3d33.7815329!4d75.0977392!16s%2Fg%2F11mr2lt9st!19sChIJ9yyanAEb4jgRe3KajEf1PM0?authuser=0&hl=en&rclk=1,"33.7815329,75.09773919999999"
Markazi Jamia Masjid Semthan,Mosque,"R34V+579 Markazi Jamia Masjid Semthan, Semithan - Bijbehara Rd, Bijbehara, Jammu and Kashmir 192124",,"R34V+579, Semithan - Bijbehara Rd",Bijbehara,192124,Jammu and Kashmir,IN,https://www.google.com/maps/place/Markazi+Jamia+Masjid+Semthan/data=!4m7!3m6!1s0x38e21be12432a99f:0x348721ed60f18e84!8m2!3d33.8054061!4d75.0932479!16s%2Fg%2F11h3z3c6gr!19sChIJn6kyJOEb4jgRhI7xYO0hhzQ?authuser=0&hl=en&rclk=1,"33.8054061,75.0932479"
Gazi Masjid Lonepora Semthan,Mosque,"R34V+X6G Gazi Masjid Lonepora Semthan, Semithan - Bijbehara Rd, Bijbehara, Jammu and Kashmir 192124",,"R34V+X6G, Semithan - Bijbehara Rd",Bijbehara,192124,Jammu and Kashmir,IN,https://www.google.com/maps/place/Gazi+Masjid+Lonepora+Semthan/data=!4m7!3m6!1s0x38e21bc09b178dfd:0xc8013ab596300cb4!8m2!3d33.8074407!4d75.0930752!16s%2Fg%2F11h3z43sj4!19sChIJ_Y0Xm8Ab4jgRtAwwlrU6Acg?authuser=0&hl=en&rclk=1,"33.8074407,75.0930752"
JAMIA MASJID BONPORA KANELWAN,Mosque,"Q5V4+QM4 JAMIA MASJID BONPORA KANELWAN, Bonpora, kanelwan, Bijbehara",,"Q5V4+QM4, Bonpora, kanelwan",Bijbehara,,,IN,https://www.google.com/maps/place/JAMIA+MASJID+BONPORA+KANELWAN/data=!4m7!3m6!1s0x38e21172f64de21d:0x7ed5b0666b2a45fc!8m2!3d33.7943974!4d75.1566929!16s%2Fg%2F11rz2_53sw!19sChIJHeJN9nIR4jgR_EUqa2aw1X4?authuser=0&hl=en&rclk=1,"33.7943974,75.1566929"
Masjid Sharief,Mosque,"Q4M3+GJJ Masjid Sharief, Bijbehara, 192124",,Q4M3+GJJ,Bijbehara,192124,,IN,https://www.google.com/maps/place/Masjid+Sharief/data=!4m7!3m6!1s0x38e21bcfdb0c71a3:0xc2b0ce38513d1c41!8m2!3d33.7838493!4d75.1040223!16s%2Fg%2F11rss4vl5q!19sChIJo3EM288b4jgRQRw9UTjOsMI?authuser=0&hl=en&rclk=1,"33.7838493,75.1040223"
Masjid-e- Fatimat u zahra (r.a),Mosque,"Masjid-e- Fatimat u zahra (r.a), Millat Aabad, Bijbehara, 192124",,Millat Aabad,Bijbehara,192124,,IN,https://www.google.com/maps/place/Masjid-e-+Fatimat+u+zahra+%28r.a%29/data=!4m7!3m6!1s0x38e21bafcbecefab:0xe4a83c0ba20f788f!8m2!3d33.7973273!4d75.0969402!16s%2Fg%2F11qptq2dfp!19sChIJq-_sy68b4jgRj3gPogs8qOQ?authuser=0&hl=en&rclk=1,"33.7973273,75.09694019999999"
Masjid-e-paak,Mosque,"R423+R96 Masjid-e-paak, Gandhagi Pora, Bijbehara, Jammu and Kashmir 192124",Gandhagi Pora,R423+R96,Bijbehara,192124,Jammu and Kashmir,IN,https://www.google.com/maps/place/Masjid-e-paak/data=!4m7!3m6!1s0x38e21b06ccbc2245:0x4950b5fdabccc96!8m2!3d33.8020485!4d75.1033849!16s%2Fg%2F11p3cms9sh!19sChIJRSK8zAYb4jgRlsy82l8LlQQ?authuser=0&hl=en&rclk=1,"33.8020485,75.1033849"
Jamia Masjid,Mosque,"Jamia Masjid, Katriteng, Anantnag, NH-1A, Srinagar Jammu Highway, Katriteng, Bijbehara, 192124",Katriteng,"Katriteng, Anantnag, NH-1A, Srinagar Jammu Highway",Bijbehara,192124,,IN,https://www.google.com/maps/place/Jamia+Masjid/data=!4m7!3m6!1s0x38e21b533f3796cf:0xf77bf1750c5d931d!8m2!3d33.800064!4d75.096403!16s%2Fg%2F11n0rn7hws!19sChIJz5Y3P1Mb4jgRHZNdDHXxe_c?authuser=0&hl=en&rclk=1,"33.800064,75.096403"
Masjid Shaykh Hamza Makhdoomi (Rahimahullah),Mosque,"Q4V5+4R2 Masjid Shaykh Hamza Makhdoomi (Rahimahullah), Zirpara, Bijbehara, 192124",Zirpara,Q4V5+4R2,Bijbehara,192124,,IN,https://www.google.com/maps/place/Masjid+Shaykh+Hamza+Makhdoomi+%28Rahimahullah%29/data=!4m7!3m6!1s0x38e21b3d82f69bff:0xb9893e4ed78682d7!8m2!3d33.792758!4d75.1095172!16s%2Fg%2F11q965m6vk!19sChIJ_5v2gj0b4jgR14KG104-ibk?authuser=0&hl=en&rclk=1,"33.792758,75.1095172"
Masjid Abu Ayoob Ansari & Darasgah Islaamiyah,Mosque,"Q4X4+9FW Masjid Abu Ayoob Ansari & Darasgah Islaamiyah, New Colony Bijbehara, Gadhanji Pora, Bijbehara, 192124",New Colony Bijbehara,Q4X4+9FW,"Gadhanji Pora, Bijbehara",,,IN,https://www.google.com/maps/place/Masjid+Abu+Ayoob+Ansari+%26+Darasgah+Islaamiyah/data=!4m7!3m6!1s0x38e21b0b9ddc3d77:0x83b5725282f549de!8m2!3d33.7984957!4d75.1062075!16s%2Fg%2F11js84jmhg!19sChIJdz3cnQsb4jgR3kn1glJytYM?authuser=0&hl=en&rclk=1,"33.7984957,75.1062075"
"New Masjid Sharief, Baba-Naseeb-Ud-Din Gazi",Mosque,"Q4W4+5XW New Masjid Sharief, Baba-Naseeb-Ud-Din Gazi, Baba Mohalla, Bijbehara, 192124",Baba Mohalla,Q4W4+5XW,Bijbehara,192124,,IN,"https://www.google.com/maps/place/New+Masjid+Sharief,+Baba-Naseeb-Ud-Din+Gazi/data=!4m7!3m6!1s0x38e21bff986e5b6b:0x29736fc3741da20e!8m2!3d33.7954905!4d75.1074653!16s%2Fg%2F11qh2rbb4c!19sChIJa1tumP8b4jgRDqIddMNvcyk?authuser=0&hl=en&rclk=1","33.7954905,75.1074653"
Masjid Imam Showkani,Mosque,"Q3PX+QRX Masjid Imam Showkani, Bijbehara, 192124",,Q3PX+QRX,Bijbehara,,,IN,https://www.google.com/maps/place/Masjid+Imam+Showkani/data=!4m7!3m6!1s0x38e21b54510c2f0d:0xdb273d0b537dec36!8m2!3d33.7869846!4d75.0996059!16s%2Fg%2F11q9qqw_kf!19sChIJDS8MUVQb4jgRNux9Uws9J9s?authuser=0&hl=en&rclk=1,"33.7869846,75.0996059"
Masjid bilal aramgund Bijbehara,Mosque,"Q4M7+63Q Masjid bilal aramgund Bijbehara, Zirpara, Bijbehara, Gadi Seer, Jammu and Kashmir 192124",Zirpara,Q4M7+63Q,"Bijbehara, Gadi Seer",,Jammu and Kashmir,IN,https://www.google.com/maps/place/Masjid+bilal+aramgund+Bijbehara/data=!4m7!3m6!1s0x38e21b6dd5a074cd:0xfad8b433530e7b9c!8m2!3d33.783095!4d75.1127445!16s%2Fg%2F11kb1rjjq5!19sChIJzXSg1W0b4jgRnHsOUzO02Po?authuser=0&hl=en&rclk=1,"33.783094999999996,75.11274449999999"
Near JAMAIA MASJID B PAZALPORA,Mosque,"Q4J5+84W Near JAMAIA MASJID B PAZALPORA, Bijbehara, Jammu and Kashmir 192124",,Q4J5+84W,Bijbehara,192124,Jammu and Kashmir,IN,https://www.google.com/maps/place/Near+JAMAIA+MASJID+B+PAZALPORA/data=!4m7!3m6!1s0x38e21bc8c6e1f423:0xb4508d8ebc9e01cf!8m2!3d33.780693!4d75.107663!16s%2Fg%2F11kryw9m0t!19sChIJI_Thxsgb4jgRzwGevI6NULQ?authuser=0&hl=en&rclk=1,"33.780693,75.107663"
Jamia masjid shareef A,Mosque,"Q4J4+9WP Jamia masjid shareef A, Markazi jamia masjid sherif, pazalpora, Bijbehara, Jammu and Kashmir 192124",,"Q4J4+9WP, Markazi jamia masjid sherif, pazalpora",Bijbehara,192124,Jammu and Kashmir,IN,https://www.google.com/maps/place/Jamia+masjid+shareef+A/data=!4m7!3m6!1s0x38e21b25cf586c3b:0xd4e362bc6221b38a!8m2!3d33.7809526!4d75.1073079!16s%2Fg%2F11s7htjrg8!19sChIJO2xYzyUb4jgRirMhYrxi49Q?authuser=0&hl=en&rclk=1,"33.7809526,75.1073079"
Masjid bilal Kanderpora,Mosque,"Q3PX+QRX Masjid bilal Kanderpora, Bijbehara, Jammu and Kashmir 192124",,Q3PX+QRX,Bijbehara,,Jammu and Kashmir,IN,https://www.google.com/maps/place/Masjid+bilal+Kanderpora/data=!4m7!3m6!1s0x38e21b522047e739:0xe1f8b12c26f9f74f!8m2!3d33.7869846!4d75.0996059!16s%2Fg%2F11sf85msyx!19sChIJOedHIFIb4jgRT_f5Jiyx-OE?authuser=0&hl=en&rclk=1,"33.7869846,75.0996059"
Masjid Sharief Pandit Hamam,Mosque,"Q4R3+4P3 Masjid Sharief Pandit Hamam, Bijbehara, 192124",,Q4R3+4P3,Bijbehara,192124,,IN,https://www.google.com/maps/place/Masjid+Sharief+Pandit+Hamam/data=!4m7!3m6!1s0x38e21bec63f584dd:0x2c3cadbd4caae75b!8m2!3d33.7902583!4d75.1042872!16s%2Fg%2F11m41jznn8!19sChIJ3YT1Y-wb4jgRW-eqTL2tPCw?authuser=0&hl=en&rclk=1,"33.7902583,75.1042872"
Masjid Bilal(RA)Herpora Semthan,Mosque,"R33V+CPC Masjid Bilal(RA)Herpora Semthan, Semithan - Bijbehara Rd, Bijbehara, Jammu and Kashmir 192124",,"R33V+CPC, Semithan - Bijbehara Rd",Bijbehara,192124,Jammu and Kashmir,IN,https://www.google.com/maps/place/Masjid+Bilal%28RA%29Herpora+Semthan/data=!4m7!3m6!1s0x38e21be35e55b595:0x740f4265b0d3f7f8!8m2!3d33.803575!4d75.0942797!16s%2Fg%2F11flq6pc_m!19sChIJlbVVXuMb4jgR-PfTsGVCD3Q?authuser=0&hl=en&rclk=1,"33.803574999999995,75.0942797"
Markazi Jamia Masjid Pazalpora,Mosque,"Q4J4+FPJ Markazi Jamia Masjid Pazalpora, Bijbehara, Jammu and Kashmir 192124",,Q4J4+FPJ,Bijbehara,192124,Jammu and Kashmir,IN,https://www.google.com/maps/place/Markazi+Jamia+Masjid+Pazalpora/data=!4m7!3m6!1s0x38e21b2c622b8fa5:0x9bf6ecdc8cf730bc!8m2!3d33.7812005!4d75.1067784!16s%2Fg%2F11v0l47rtl!19sChIJpY8rYiwb4jgRvDD3jNzs9ps?authuser=0&hl=en&rclk=1,"33.7812005,75.1067784"
Masjid Sharief Sadar Bazar,Mosque,"Q4R4+RRH Masjid Sharief Sadar Bazar, Bijbehara, 192124",,Q4R4+RRH,Bijbehara,192124,,IN,https://www.google.com/maps/place/Masjid+Sharief+Sadar+Bazar/data=!4m7!3m6!1s0x38e21b8cab343121:0xb913b656ae535412!8m2!3d33.7920522!4d75.1071233!16s%2Fg%2F11jsr9j5h2!19sChIJITE0q4wb4jgRElRTrla2E7k?authuser=0&hl=en&rclk=1,"33.7920522,75.1071233"
Hanfia Masjid Hazrat Usman Gani (RA),Mosque,"R423+R96 Hanfia Masjid Hazrat Usman Gani (RA), Gandhagi Pora, Bijbehara, Jammu and Kashmir 192124",Gandhagi Pora,R423+R96,Bijbehara,192124,Jammu and Kashmir,IN,https://www.google.com/maps/place/Hanfia+Masjid+Hazrat+Usman+Gani+%28RA%29/data=!4m7!3m6!1s0x38e21b6fc0307b09:0x5ecbf8827149fe6f!8m2!3d33.8021028!4d75.1033273!16s%2Fg%2F11sb3lc5kn!19sChIJCXswwG8b4jgRb_5JcYL4y14?authuser=0&hl=en&rclk=1,"33.8021028,75.1033273"
Pandit hamam masjid,Mosque,"Q3PX+QRX Pandit hamam masjid, Goriwan bijbehara main market, Bijbehara, Jammu and Kashmir 192124",,"Q3PX+QRX, Goriwan bijbehara main market",Bijbehara,192124,Jammu and Kashmir,IN,https://www.google.com/maps/place/Pandit+hamam+masjid/data=!4m7!3m6!1s0x38e21b69b5d9cf45:0x80a0a73b52de834f!8m2!3d33.7869846!4d75.0996059!16s%2Fg%2F11t6yzcxqy!19sChIJRc_ZtWkb4jgRT4PeUjunoIA?authuser=0&hl=en&rclk=1,"33.7869846,75.0996059"
Masjid e Usmaan (R.A) jamia Ahli-Hadith Semthan,Mosque,"R33V+QF7 Masjid e Usmaan (R.A) jamia Ahli-Hadith Semthan, Semithan - Bijbehara Rd, Bijbehara, Jammu and Kashmir 192124",,"R33V+QF7, Semithan - Bijbehara Rd",Bijbehara,192124,Jammu and Kashmir,IN,https://www.google.com/maps/place/Masjid+e+Usmaan+%28R.A%29+jamia+Ahli-Hadith+Semthan/data=!4m7!3m6!1s0x38e21b21a14e6f09:0x43a2776f00e9f0c6!8m2!3d33.804423!4d75.0936848!16s%2Fg%2F11h3z706fx!19sChIJCW9OoSEb4jgRxvDpAG93okM?authuser=0&hl=en&rclk=1,"33.804423,75.09368479999999"
MASJID SHERIF CHECK MOHALLA,Mosque,"Q4W4+WWH MASJID SHERIF CHECK MOHALLA, Baba Mohalla, Gulistan, Bijbehara, 192124",Baba Mohalla,Q4W4+WWH,"Gulistan, Bijbehara",,,IN,https://www.google.com/maps/place/MASJID+SHERIF+CHECK+MOHALLA/data=!4m7!3m6!1s0x38e21b731818de1f:0x1f4ac69d6ba42ce1!8m2!3d33.7973047!4d75.1073624!16s%2Fg%2F11pd_m1dmd!19sChIJH94YGHMb4jgR4Syka53GSh8?authuser=0&hl=en&rclk=1,"33.7973047,75.1073624"
Hanafiya Jamia Masjid Kanelwan,Mosque,"Q3PX+CP8 Hanafiya Jamia Masjid Kanelwan, Kanelwan, Bijbehara, Jammu and Kashmir 192124",,"Q3PX+CP8, Kanelwan",Bijbehara,192124,Jammu and Kashmir,IN,https://www.google.com/maps/place/Hanafiya+Jamia+Masjid+Kanelwan/data=!4m7!3m6!1s0x38e21b0e4306a12d:0x2eae2e7cf47c0181!8m2!3d33.7860458!4d75.099317!16s%2Fg%2F11smr67x44!19sChIJLaEGQw4b4jgRgQF89Hwuri4?authuser=0&hl=en&rclk=1,"33.7860458,75.099317"
Hanfia Jamia Masjid Trich,Mosque,"Hanfia Jamia Masjid Trich, H. No139, Dar Mohalla, Trich, Jammu and Kashmir 192304","Dar Mohalla, Baba Mohalla",H. No139,"Trich, Bijbehara",192304,Jammu and Kashmir,IN,https://www.google.com/maps/place/Hanfia+Jamia+Masjid+Trich/data=!4m7!3m6!1s0x38e21bbce94b5ae9:0xee5671833083d5d2!8m2!3d33.7981123!4d75.1091126!16s%2Fg%2F11q86h_lz0!19sChIJ6VpL6bwb4jgR0tWDMINxVu4?authuser=0&hl=en&rclk=1,"33.7981123,75.1091126"
Masjid-e Al-Hudda,Mosque,"Q3M2+54F Masjid-e Al-Hudda, Tribjee, Bijbehara, 192232",Tribjee,Q3M2+54F,Bijbehara,,,IN,https://www.google.com/maps/place/Masjid-e+Al-Hudda/data=!4m7!3m6!1s0x38e21dbc34f0c3d1:0x17a494f9129c15bf!8m2!3d33.7829483!4d75.0502911!16s%2Fg%2F11ryj8t67_!19sChIJ0cPwNLwd4jgRvxWcEvmUpBc?authuser=0&hl=en&rclk=1,"33.7829483,75.0502911"
Masjid Huda Millat Abad Aswara,Mosque,"Masjid Huda Millat Abad Aswara, Millatabad Aswara, Aswara, Bijbehara, Jammu and Kashmir 192124",,"Millatabad Aswara, Aswara",Bijbehara,192124,Jammu and Kashmir,IN,https://www.google.com/maps/place/Masjid+Huda+Millat+Abad+Aswara/data=!4m7!3m6!1s0x38e211839cb7bc33:0x6a62b396cf122874!8m2!3d33.798837!4d75.1550378!16s%2Fg%2F11v0t2t4xp!19sChIJM7y3nIMR4jgRdCgSz5azYmo?authuser=0&hl=en&rclk=1,"33.798837,75.1550378"
Jamia Masjid AhleHadees Banderpora,Mosque,"R535+PXX Jamia Masjid AhleHadees Banderpora, Bijbehara - Sirhama Rd, Bander Pora, 192124",,"R535+PXX, Bijbehara - Sirhama Rd",Bander Pora,192124,,IN,https://www.google.com/maps/place/Jamia+Masjid+AhleHadees+Banderpora/data=!4m7!3m6!1s0x38e21132d80e8275:0xb06520b62b83e304!8m2!3d33.804373!4d75.159985!16s%2Fg%2F11qfzjwx0q!19sChIJdYIO2DIR4jgRBOODK7YgZbA?authuser=0&hl=en&rclk=1,"33.804373,75.15998499999999"
"Masjid Sharif, Bonapora(Muqdam Pora)",Mosque,"R5C6+G4F Masjid Sharif, Bonapora(Muqdam Pora), Bijbehara - Sirhama Rd, K. Kalan, Bewora, Jammu and Kashmir 192401",K. Kalan,"R5C6+G4F, Bijbehara - Sirhama Rd",Bewora,192401,Jammu and Kashmir,IN,"https://www.google.com/maps/place/Masjid+Sharif,+Bonapora%28Muqdam+Pora%29/data=!4m7!3m6!1s0x38e2114e721a9935:0xa00643a907963d94!8m2!3d33.8213649!4d75.1600409!16s%2Fg%2F11svdqd19c!19sChIJNZkack4R4jgRlD2WB6lDBqA?authuser=0&hl=en&rclk=1","33.8213649,75.1600409"
