name,main_category,address,address_ward,address_street,address_city,address_postal_code,address_state,address_country_code,link,coordinates
"MASJID E MOINUDDIN ZAHED, MAKTAB HAZRAT UMAR FAROOQ R.Z",Mosque,"MASJID E MOINUDDIN ZAHED, MAKTAB HAZRAT UMAR FAROOQ R.Z, SUNNAM BATTI, Edla Wada, Mancherial, Telangana 504208",,"SUNNAM BATTI, Edla Wada",Mancherial,504208,Telangana,IN,"https://www.google.com/maps/place/MASJID+E+MOINUDDIN+ZAHED,+MAKTAB+HAZRAT+UMAR+FAROOQ+R.Z/data=!4m7!3m6!1s0x3a32cbd20eb48977:0x15c91af9fdef8ae3!8m2!3d18.8653693!4d79.4573734!16s%2Fg%2F11swy46385!19sChIJd4m0DtLLMjoR44rv_fkayRU?authuser=0&hl=en&rclk=1","18.865369299999998,79.4573734"
Razvi TAiLORS masjid e Bilal,Mosque,"3F6V+V6V Razvi TAiLORS masjid e Bilal, Bellampalle, Telangana 504251",,3F6V+V6V,Bellampalle,504251,Telangana,IN,https://www.google.com/maps/place/Razvi+TAiLORS+masjid+e+Bilal/data=!4m7!3m6!1s0x3a32b10ed88c3029:0x4f65cd5899f32fc8!8m2!3d19.0622332!4d79.4930366!16s%2Fg%2F11f62g5tr5!19sChIJKTCM2A6xMjoRyC_zmVjNZU8?authuser=0&hl=en&rclk=1,"19.062233199999998,79.4930366"
Jama Masjid,Mosque,"MGGQ+F5Q Jama Masjid, Jama Masjid Rd, Mahalaxmiwada, Adilabad, Telangana 504001",Mahalaxmiwada,"MGGQ+F5Q, Jama Masjid Rd",Adilabad,504001,Telangana,IN,https://www.google.com/maps/place/Jama+Masjid/data=!4m7!3m6!1s0x3bd25c75f87e8a01:0x25a95ee1fbab37d0!8m2!3d19.6762137!4d78.5379985!16s%2Fg%2F1tlqnfwv!19sChIJAYp--HVc0jsR0Der--FeqSU?authuser=0&hl=en&rclk=1,"19.676213699999998,78.5379985"
Masjid-E-Arafath,Mosque,"VCMR+3H2 Masjid-E-Arafath, Islampura, Mancherial, Telangana 504208",Islampura,VCMR+3H2,Mancherial,504208,Telangana,IN,https://www.google.com/maps/place/Masjid-E-Arafath/data=!4m7!3m6!1s0x3a32ca7691caee01:0xfcc8cbca71e2ae52!8m2!3d18.8826432!4d79.4413931!16s%2Fg%2F11fxcdj5cf!19sChIJAe7KkXbKMjoRUq7iccrLyPw?authuser=0&hl=en&rclk=1,"18.8826432,79.4413931"
Masjid-e-Namrah (Jamat-e-islami hind),Mosque,"Masjid-e-Namrah (Jamat-e-islami hind), Caltex Fly Over, Radagambhala Bhasti, Station Road Colony, Bellampalle, Telangana 504251","Radagambhala Bhasti, Station Road Colony",Caltex Fly Over,Bellampalle,504251,Telangana,IN,https://www.google.com/maps/place/Masjid-e-Namrah+%28Jamat-e-islami+hind%29/data=!4m7!3m6!1s0x3a32b1e88e7040b5:0xe7ba857867af821d!8m2!3d19.064002!4d79.4894995!16s%2Fg%2F11b6dd8kzr!19sChIJtUBwjuixMjoRHYKvZ3iFuuc?authuser=0&hl=en&rclk=1,"19.064002,79.4894995"
Jame Masjid CCC,Mosque,"VFFQ+M4M Jame Masjid CCC, Masjid rd, R K 5 Colony, Naspur, Mancherial, Telangana 504302",R K 5 Colony,"VFFQ+M4M, Masjid rd","Naspur, Mancherial",504302,Telangana,IN,https://www.google.com/maps/place/Jame+Masjid+CCC/data=!4m7!3m6!1s0x3a32c9e92835d0cd:0x2e5ad0d10d935b4a!8m2!3d18.87421!4d79.4878097!16s%2Fg%2F11c32c7c71!19sChIJzdA1KOnJMjoRSluTDdHQWi4?authuser=0&hl=en&rclk=1,"18.874209999999998,79.4878097"
Kausar Masjid,Mosque,"3G32+XH3 Kausar Masjid, Subhash Nagar, Bellampalle, Telangana 504251",Subhash Nagar,3G32+XH3,Bellampalle,504251,Telangana,IN,https://www.google.com/maps/place/Kausar+Masjid/data=!4m7!3m6!1s0x3a32b1c79d1963ff:0x433868c68e905e51!8m2!3d19.0548975!4d79.5014369!16s%2Fg%2F11g9r54_23!19sChIJ_2MZncexMjoRUV6QjsZoOEM?authuser=0&hl=en&rclk=1,"19.0548975,79.5014369"
Masjid E Tayyaba,Mosque,"VF7F+3FH Masjid E Tayyaba, Flood Colony, Naspur, Mancherial, Telangana 504302",Flood Colony,VF7F+3FH,"Naspur, Mancherial",504302,Telangana,IN,https://www.google.com/maps/place/Masjid+E+Tayyaba/data=!4m7!3m6!1s0x3a32c9a33d61e42d:0x67ab2dc79cc1b591!8m2!3d18.8626989!4d79.4737213!16s%2Fg%2F11g4h2ms8d!19sChIJLeRhPaPJMjoRkbXBnMctq2c?authuser=0&hl=en&rclk=1,"18.862698899999998,79.4737213"
Raza Masjid Bellampalli,Mosque,"3FFQ+GVH Raza Masjid Bellampalli, Bellampalle, Telangana 504251",,3FFQ+GVH,Bellampalle,504251,Telangana,IN,https://www.google.com/maps/place/Raza+Masjid+Bellampalli/data=!4m7!3m6!1s0x3a32b1e100ce139b:0xb8c9205409aef47e!8m2!3d19.0738076!4d79.4897482!16s%2Fg%2F11csb2svwk!19sChIJmxPOAOGxMjoRfvSuCVQgybg?authuser=0&hl=en&rclk=1,"19.0738076,79.4897482"
Masjid-E-Zam Zam,Mosque,"2FXM+WCV Masjid-E-Zam Zam, Bellampalle, Telangana 504251",,2FXM+WCV,Bellampalle,504251,Telangana,IN,https://www.google.com/maps/place/Masjid-E-Zam+Zam/data=!4m7!3m6!1s0x3a32b1925908d747:0xdc5f23a19654e152!8m2!3d19.0498658!4d79.4835516!16s%2Fg%2F11dxbp6v0v!19sChIJR9cIWZKxMjoRUuFUlqEjX9w?authuser=0&hl=en&rclk=1,"19.0498658,79.4835516"
MASJID-E-NOORAIN,Mosque,"VCFQ+9FV MASJID-E-NOORAIN, Reddy Colony, Mancherial, Telangana 504208",Reddy Colony,VCFQ+9FV,Mancherial,504208,Telangana,IN,https://www.google.com/maps/place/MASJID-E-NOORAIN/data=!4m7!3m6!1s0x3a32cb27edba3829:0x47d4434a72563692!8m2!3d18.8734981!4d79.4386736!16s%2Fg%2F11ghnfl4km!19sChIJKTi67SfLMjoRkjZWckpD1Ec?authuser=0&hl=en&rclk=1,"18.8734981,79.4386736"
MASJID E KHAIRUNNISA,Mosque,"MASJID E KHAIRUNNISA, Mancherial, Telangana 504302",,,Mancherial,504302,Telangana,IN,https://www.google.com/maps/place/MASJID+E+KHAIRUNNISA/data=!4m7!3m6!1s0x3a32cb4d1d8d163b:0x61ae25ddffab28b1!8m2!3d18.8658925!4d79.4523998!16s%2Fg%2F11ndzf94qz!19sChIJOxaNHU3LMjoRsSir_90lrmE?authuser=0&hl=en&rclk=1,"18.865892499999998,79.4523998"
Noori Masjid,Mosque,"Noori Masjid, c.c.c, C.C.C Plant Rd, Gandhi nagar, Naspur, Mancherial, Telangana 504302",Gandhi nagar,"c.c.c, C.C.C Plant Rd","Naspur, Mancherial",504302,Telangana,IN,https://www.google.com/maps/place/Noori+Masjid/data=!4m7!3m6!1s0x3a32c9eba6e4957f:0x841ba9258603bdb!8m2!3d18.8687021!4d79.4891449!16s%2Fg%2F11gbz9rzkv!19sChIJf5XkpuvJMjoR2ztgWJK6QQg?authuser=0&hl=en&rclk=1,"18.8687021,79.4891449"
Madina Masjid,Mosque,"WFH8+MCG Madina Masjid, A-Zone, Ramakrishnapur, Telangana 504301",,"WFH8+MCG, A-Zone",Ramakrishnapur,504301,Telangana,IN,https://www.google.com/maps/place/Madina+Masjid/data=!4m7!3m6!1s0x3a32b5d418c84c13:0xbc21949cc38e6a2!8m2!3d18.9291986!4d79.4660747!16s%2Fg%2F11c1s_28b6!19sChIJE0zIGNS1MjoRouY4zEkZwgs?authuser=0&hl=en&rclk=1,"18.9291986,79.4660747"
Noori Masjid,Mosque,"3F8M+CFJ Noori Masjid, Bellampalle, Kannal Rural, Telangana 504251",,3F8M+CFJ,"Bellampalle, Kannal Rural",504251,Telangana,IN,https://www.google.com/maps/place/Noori+Masjid/data=!4m7!3m6!1s0x3a32b184aa02b33f:0x94aeef8bbc03886b!8m2!3d19.0660901!4d79.4836267!16s%2Fg%2F11tmz9bq51!19sChIJP7MCqoSxMjoRa4gDvIvvrpQ?authuser=0&hl=en&rclk=1,"19.0660901,79.4836267"
MADINA MASJID,Mosque,"3F6J+VX8 MADINA MASJID, Bellampalle, Kannal Rural, Telangana 504251",,3F6J+VX8,"Bellampalle, Kannal Rural",504251,Telangana,IN,https://www.google.com/maps/place/MADINA+MASJID/data=!4m7!3m6!1s0x3a32b1efce7442fd:0x32591dc6205d4f85!8m2!3d19.062165!4d79.482443!16s%2Fg%2F11g6mhtm8g!19sChIJ_UJ0zu-xMjoRhU9dIMYdWTI?authuser=0&hl=en&rclk=1,"19.062165,79.482443"
MASJID-E .MOHAMMAD QAYYUM BHURHANODDIN,Mosque,"VFJ3+6V9 MASJID-E .MOHAMMAD QAYYUM BHURHANODDIN, Gopalwada, Mancherial, Telangana 504302",Gopalwada,VFJ3+6V9,Mancherial,504302,Telangana,IN,https://www.google.com/maps/place/MASJID-E+.MOHAMMAD+QAYYUM+BHURHANODDIN/data=!4m7!3m6!1s0x3a32cb37fcaafae9:0xbdc711c22ddcd3f1!8m2!3d18.8805301!4d79.4547464!16s%2Fg%2F11jghxyc13!19sChIJ6fqq_DfLMjoR8dPcLcIRx70?authuser=0&hl=en&rclk=1,"18.880530099999998,79.45474639999999"
MASJID - E- RAHMANIA,Mosque,"MASJID - E- RAHMANIA, Unnamed Road, Ram nagar, Teachers Colony, Mancherial, Telangana 504208","Ram nagar, Teachers Colony",Unnamed Road,Mancherial,504208,Telangana,IN,https://www.google.com/maps/place/MASJID+-+E-+RAHMANIA/data=!4m7!3m6!1s0x3a32cb65eed92881:0x980ff0a870d468bf!8m2!3d18.8666919!4d79.4418169!16s%2Fg%2F11ry77cyq4!19sChIJgSjZ7mXLMjoRv2jUcKjwD5g?authuser=0&hl=en&rclk=1,"18.8666919,79.44181689999999"
MASJID E MEHRAJ NTR COLONY,Mosque,"MASJID E MEHRAJ NTR COLONY, NTR Nagar, Mancherial, Telangana 504208",NTR Nagar,,Mancherial,504208,Telangana,IN,https://www.google.com/maps/place/MASJID+E+MEHRAJ+NTR+COLONY/data=!4m7!3m6!1s0x3a32cbc51c245f8f:0xf6785f73f7fdce32!8m2!3d18.8622587!4d79.4380173!16s%2Fg%2F11np3647yv!19sChIJj18kHMXLMjoRMs7993NfePY?authuser=0&hl=en&rclk=1,"18.862258699999998,79.4380173"
Madina Masjid &Madarsa-e-Islamia,Mosque,"WFFG+34M Madina Masjid &Madarsa-e-Islamia, B Zone, B.S.Nagar, Ramakrishnapur, Telangana 504301","B Zone, B.S.Nagar",WFFG+34M,Ramakrishnapur,504301,Telangana,IN,https://www.google.com/maps/place/Madina+Masjid+%26Madarsa-e-Islamia/data=!4m7!3m6!1s0x3a32b7a3affc7f61:0x74e632100146ab44!8m2!3d18.9227218!4d79.4753102!16s%2Fg%2F11h4z3ky9c!19sChIJYX_8r6O3MjoRRKtGARAy5nQ?authuser=0&hl=en&rclk=1,"18.922721799999998,79.4753102"
