name,main_category,address,address_ward,address_street,address_city,address_postal_code,address_state,address_country_code,link,coordinates
Saidar Masjid,Mosque,"PFQX+XRF Saidar Masjid, Chalil, Thalassery, Kerala 670102",Chalil,PFQX+XRF,Thalassery,670102,Kerala,IN,https://www.google.com/maps/place/Saidar+Masjid/data=!4m7!3m6!1s0x3ba427b489472319:0x98f3dfafea2a2bc7!8m2!3d11.7399434!4d75.499562!16s%2Fg%2F11c0xy7ns0!19sChIJGSNHibQnpDsRxysq6q_f85g?authuser=0&hl=en&rclk=1,"11.7399434,75.499562"
Odathil Masjid,Mosque,"Odathil Masjid, Pilakool, Thalassery, Kerala 670103",Pilakool,,Thalassery,670103,Kerala,IN,https://www.google.com/maps/place/Odathil+Masjid/data=!4m7!3m6!1s0x3ba426519eeaa297:0xf5901765e47ee761!8m2!3d11.7486691!4d75.4901746!16zL20vMGZ0Yjl3!19sChIJl6LqnlEmpDsRYed-5GUXkPU?authuser=0&hl=en&rclk=1,"11.748669099999999,75.4901746"
"Juma Masjid, Thalassery Municipal Stadium",Mosque,"QF2P+H27 Juma Masjid, Thalassery Municipal Stadium, Palissery, Thalassery, Kerala 670104",Palissery,QF2P+H27,Thalassery,670104,Kerala,IN,"https://www.google.com/maps/place/Juma+Masjid,+Thalassery+Municipal+Stadium/data=!4m7!3m6!1s0x3ba4265714ac6d6d:0x5b60859afca0f9ce!8m2!3d11.7514031!4d75.4850445!16s%2Fg%2F11csb2cgxz!19sChIJbW2sFFcmpDsRzvmg_JqFYFs?authuser=0&hl=en&rclk=1","11.7514031,75.4850445"
Ponniam Sarambi Jumma Masjid,Mosque,"QGFC+8RR Ponniam Sarambi Jumma Masjid, Chonadam, Thalassery, Kerala 670641",Chonadam,QGFC+8RR,Thalassery,670641,Kerala,IN,https://www.google.com/maps/place/Ponniam+Sarambi+Jumma+Masjid/data=!4m7!3m6!1s0x3ba4261b89f62ab1:0x77b89afa6c6730ea!8m2!3d11.7733539!4d75.5220034!16s%2Fg%2F1hm46rl7x!19sChIJsSr2iRsmpDsR6jBnbPqauHc?authuser=0&hl=en&rclk=1,"11.7733539,75.5220034"
Salafi Masjid,Mosque,"PFWV+QR7 Salafi Masjid, AVK Nair Road, Pilakool, Thalassery, Kerala 670101",Pilakool,"PFWV+QR7, AVK Nair Road",Thalassery,670101,Kerala,IN,https://www.google.com/maps/place/Salafi+Masjid/data=!4m7!3m6!1s0x3ba427b6686be553:0x2eacd3f3628dbe56!8m2!3d11.7469234!4d75.4945353!16s%2Fg%2F11jnxt1q23!19sChIJU-VraLYnpDsRVr6NYvPTrC4?authuser=0&hl=en&rclk=1,"11.7469234,75.4945353"
Pinarayi Kunhippalli Mosque,Mosque,"RF4V+9MP Pinarayi Kunhippalli Mosque, Thalassery - Irikkur Rd, Pinarayi, Kerala 670741",,"RF4V+9MP, Thalassery - Irikkur Rd",Pinarayi,670741,Kerala,IN,https://www.google.com/maps/place/Pinarayi+Kunhippalli+Mosque/data=!4m7!3m6!1s0x3ba425c63556dec3:0xe99293422afa0699!8m2!3d11.8059688!4d75.494216!16s%2Fg%2F1hf6y6dwt!19sChIJw95WNcYlpDsRmQb6KkKTkuk?authuser=0&hl=en&rclk=1,"11.805968799999999,75.494216"
Thokkilangadi Juma Masjid,Mosque,"RHRC+W25 Thokkilangadi Juma Masjid, Thalassery - Coorg Hwy, Kerala 670643",,"RHRC+W25, Thalassery - Coorg Hwy",,670643,Kerala,IN,https://www.google.com/maps/place/Thokkilangadi+Juma+Masjid/data=!4m7!3m6!1s0x3ba42fac46db4b95:0x8c192809da9148ff!8m2!3d11.8422507!4d75.5701071!16s%2Fg%2F1hg4vpp02!19sChIJlUvbRqwvpDsR_0iR2gkoGYw?authuser=0&hl=en&rclk=1,"11.8422507,75.5701071"
Ummanchira Mosque,Mosque,"Ummanchira Mosque, Ummanchira Bridge, Thalassery, Kerala 670649",,Ummanchira Bridge,Thalassery,670649,Kerala,IN,https://www.google.com/maps/place/Ummanchira+Mosque/data=!4m7!3m6!1s0x3ba425e57ad4a299:0x9236f3f42ac1ed13!8m2!3d11.7980683!4d75.5138106!16s%2Fg%2F1v5k1frw!19sChIJmaLUeuUlpDsRE-3BKvTzNpI?authuser=0&hl=en&rclk=1,"11.798068299999999,75.5138106"
"Islamic center , Jama Ath Masjid",Mosque,"QF2W+RC7 Islamic center , Jama Ath Masjid, Pallithazhe, Chonadam, Thalassery, Kerala 670104","Pallithazhe, Chonadam",QF2W+RC7,Thalassery,670104,Kerala,IN,"https://www.google.com/maps/place/Islamic+center+,+Jama+Ath+Masjid/data=!4m7!3m6!1s0x3ba4264f735d2707:0xed81a447996ad691!8m2!3d11.7520366!4d75.4960459!16s%2Fg%2F1pzwdpt27!19sChIJByddc08mpDsRkdZqmUekge0?authuser=0&hl=en&rclk=1","11.7520366,75.4960459"
6'th Miles Juma Masjid,Mosque,"Sixth mile, 6'th Miles Juma Masjid, Thalassery - Coorg Hwy, Kannur, Kerala 670642",,"Sixth mile, Thalassery - Coorg Hwy",Kannur,670642,Kerala,IN,https://www.google.com/maps/place/6%27th+Miles+Juma+Masjid/data=!4m7!3m6!1s0x3ba42f4f71c14cbf:0x663aaaa9ea5a4c50!8m2!3d11.7992442!4d75.542831!16s%2Fg%2F11c1qj7kxt!19sChIJv0zBcU8vpDsRUExa6qmqOmY?authuser=0&hl=en&rclk=1,"11.799244199999999,75.54283099999999"
Thalayi Masjid,Mosque,"PGH6+4PJ Thalayi Masjid, Edapally Panvel Highway, NH 66, Punnol, Thalassery, Kerala 670102",Punnol,"PGH6+4PJ, Edapally Panvel Highway, NH 66","Thalassery, New Mahe",670102,Kerala,IN,https://www.google.com/maps/place/Thalayi+Masjid/data=!4m7!3m6!1s0x3ba427c5cd1fe4f7:0x7afe56d69bce9cff!8m2!3d11.7278397!4d75.5117738!16s%2Fg%2F1pyqngqsc!19sChIJ9-QfzcUnpDsR_5zOm9ZW_no?authuser=0&hl=en&rclk=1,"11.727839699999999,75.5117738"
Kunhipalli Juma Masjid,Mosque,"PGH6+4PJ Kunhipalli Juma Masjid, Punnol, New Mahe, Kerala 670102",Punnol,PGH6+4PJ,New Mahe,670102,Kerala,IN,https://www.google.com/maps/place/Kunhipalli+Juma+Masjid/data=!4m7!3m6!1s0x3ba427e5903be7c9:0x92ad8868e7f81201!8m2!3d11.7278345!4d75.5117707!16s%2Fg%2F11fn1w98zc!19sChIJyec7kOUnpDsRARL452iIrZI?authuser=0&hl=en&rclk=1,"11.7278345,75.5117707"
Mylullimetta Masjid,Mosque,"RGR4+W5X Mylullimetta Masjid, Thalassery - Irikkur Rd, Kerala 670622",,"RGR4+W5X, Thalassery - Irikkur Rd",,670622,Kerala,IN,https://www.google.com/maps/place/Mylullimetta+Masjid/data=!4m7!3m6!1s0x3ba42572a6c809f3:0xbe831820b9fec928!8m2!3d11.8423719!4d75.5054689!16s%2Fg%2F11bbrgxckp!19sChIJ8wnIpnIlpDsRKMn-uSAYg74?authuser=0&hl=en&rclk=1,"11.8423719,75.5054689"
Narangapuram Masjid,Mosque,"PFXW+C43 Narangapuram Masjid, Thalassery- Kodiyeri Rd, Pallithazhe, Pilakool, Thalassery, Kerala 670104","Pallithazhe, Pilakool","PFXW+C43, Thalassery- Kodiyeri Rd",Thalassery,670104,Kerala,IN,https://www.google.com/maps/place/Narangapuram+Masjid/data=!4m7!3m6!1s0x3ba4264e635bec1d:0xfc238b8e97489937!8m2!3d11.748515!4d75.495303!16s%2Fg%2F1pyqrmq_5!19sChIJHexbY04mpDsRN5lIl46LI_w?authuser=0&hl=en&rclk=1,"11.748515,75.49530299999999"
Kunnoth Juma Masjid,Mosque,"QFJQ+53J Kunnoth Juma Masjid, Thalassery - Irikkur Rd, Thalassery, Kerala 670101",,"QFJQ+53J, Thalassery - Irikkur Rd",Thalassery,670101,Kerala,IN,https://www.google.com/maps/place/Kunnoth+Juma+Masjid/data=!4m7!3m6!1s0x3ba4267be3ebbca1:0x607a8f9049b67fef!8m2!3d11.7804516!4d75.4876272!16s%2Fg%2F1v3klhnj!19sChIJobzr43smpDsR73-2SZCPemA?authuser=0&hl=en&rclk=1,"11.7804516,75.48762719999999"
Naalu Purakkal Jumaa Masjid,Mosque,"QF4W+4WG Naalu Purakkal Jumaa Masjid, Pallithazhe, Chonadam, Thalassery, Kerala 670104","Pallithazhe, Chonadam",QF4W+4WG,Thalassery,670104,Kerala,IN,https://www.google.com/maps/place/Naalu+Purakkal+Jumaa+Masjid/data=!4m7!3m6!1s0x3ba42645c6ddc4c5:0x61b151d8816b6da0!8m2!3d11.7553089!4d75.4973324!16s%2Fg%2F1tdcdtds!19sChIJxcTdxkUmpDsRoG1rgdhRsWE?authuser=0&hl=en&rclk=1,"11.7553089,75.49733239999999"
Thaqwa Masjid,Mosque,"QF2Q+3W4 Thaqwa Masjid, Palissery, Thalassery, Kerala 670104",Palissery,QF2Q+3W4,Thalassery,670104,Kerala,IN,https://www.google.com/maps/place/Thaqwa+Masjid/data=!4m7!3m6!1s0x3ba42651001b67ef:0xe7809d16ecb4b5d8!8m2!3d11.7501354!4d75.4898433!16s%2Fg%2F124yghnd3!19sChIJ72cbAFEmpDsR2LW07BadgOc?authuser=0&hl=en&rclk=1,"11.7501354,75.48984329999999"
Madeena Masjid,Mosque,"PGQ3+423 Madeena Masjid, Gopalpet, Thalassery, Kerala 670102",Gopalpet,PGQ3+423,Thalassery,670102,Kerala,IN,https://www.google.com/maps/place/Madeena+Masjid/data=!4m7!3m6!1s0x3ba427b5da6a9637:0x2dddd702cbcd029a!8m2!3d11.7377506!4d75.5025386!16s%2Fg%2F1q5bkrv06!19sChIJN5Zq2rUnpDsRmgLNywLX3S0?authuser=0&hl=en&rclk=1,"11.7377506,75.5025386"
Vadikkal Juma Masjid,Mosque,"QF2V+73P Vadikkal Juma Masjid, Thalassery - Coorg Hwy, Pilakool, Thalassery, Kerala 670101",Pilakool,"QF2V+73P, Thalassery - Coorg Hwy",Thalassery,670101,Kerala,IN,https://www.google.com/maps/place/Vadikkal+Juma+Masjid/data=!4m7!3m6!1s0x3ba426502a422651:0x5f039462f49de11a!8m2!3d11.7507125!4d75.4926924!16s%2Fg%2F124stcq13!19sChIJUSZCKlAmpDsRGuGd9GKUA18?authuser=0&hl=en&rclk=1,"11.750712499999999,75.4926924"
Masjidu Salaam,Mosque,"QF5M+P9H Masjidu Salaam, Palissery, Thalassery, Kerala 670101",Palissery,QF5M+P9H,Thalassery,670101,Kerala,IN,https://www.google.com/maps/place/Masjidu+Salaam/data=!4m7!3m6!1s0x3ba4265f2384738b:0x2e43394a8a6c537c!8m2!3d11.7593158!4d75.4834691!16s%2Fg%2F1trc3d1v!19sChIJi3OEI18mpDsRfFNsiko5Qy4?authuser=0&hl=en&rclk=1,"11.7593158,75.4834691"
Parakettu Masjid,Mosque,"QGM2+QJW Parakettu Masjid, Thalassery, Kerala 670101",,QGM2+QJW,Thalassery,,Kerala,IN,https://www.google.com/maps/place/Parakettu+Masjid/data=!4m7!3m6!1s0x3ba4274410066997:0xff047339e0ccc8!8m2!3d11.784486!4d75.5015827!16s%2Fg%2F11g1qhw7dn!19sChIJl2kGEEQnpDsRyMzgOXME_wA?authuser=0&hl=en&rclk=1,"11.784486,75.5015827"
Darul Anvar Sunni Juma-masjid,Mosque,"QF2R+XJF Darul Anvar Sunni Juma-masjid, Palissery, Thalassery, Kerala 670104",Palissery,QF2R+XJF,Thalassery,670104,Kerala,IN,https://www.google.com/maps/place/Darul+Anvar+Sunni+Juma-masjid/data=!4m7!3m6!1s0x3ba426500d8cbfe5:0x8365a56ba60af1a!8m2!3d11.7524482!4d75.4915392!16s%2Fg%2F11g9f23wrq!19sChIJ5b-MDVAmpDsRGq9gulZaNgg?authuser=0&hl=en&rclk=1,"11.7524482,75.49153919999999"
Kanthalat Masjid,Mosque,"PFWX+279 Kanthalat Masjid, Pilakool, Thalassery, Kerala 670104",Pilakool,PFWX+279,Thalassery,670104,Kerala,IN,https://www.google.com/maps/place/Kanthalat+Masjid/data=!4m7!3m6!1s0x3ba4264c80c8c023:0x64e86dfe6caf767b!8m2!3d11.7450336!4d75.4982275!16s%2Fg%2F11cs3_nbhk!19sChIJI8DIgEwmpDsRe3avbP5t6GQ?authuser=0&hl=en&rclk=1,"11.7450336,75.4982275"
Meethal Juma Masjid,Mosque,"PGF8+574 Meethal Juma Masjid, Pallikunnu, Punnol, New Mahe, Kerala 670102","Pallikunnu, Punnol",PGF8+574,New Mahe,670102,Kerala,IN,https://www.google.com/maps/place/Meethal+Juma+Masjid/data=!4m7!3m6!1s0x3ba427c2c9285ca5:0x62a21a9512e67cd4!8m2!3d11.7228873!4d75.5157149!16s%2Fg%2F11fx9h7h2t!19sChIJpVwoycInpDsR1HzmEpUaomI?authuser=0&hl=en&rclk=1,"11.7228873,75.51571489999999"
Pinarayi Juma Masjid,Mosque,"RF5V+QVR Pinarayi Juma Masjid, Thalassery - Irikkur Rd, Pinarayi, Kerala 670741",,"RF5V+QVR, Thalassery - Irikkur Rd",Pinarayi,670741,Kerala,IN,https://www.google.com/maps/place/Pinarayi+Juma+Masjid/data=!4m7!3m6!1s0x3ba425b87058daf1:0x6af40d480df2ce95!8m2!3d11.809489!4d75.4946553!16s%2Fg%2F11c310nk4g!19sChIJ8dpYcLglpDsRlc7yDUgN9Go?authuser=0&hl=en&rclk=1,"11.809489,75.49465529999999"
Disha Samskarika Kendram,Mosque,"QF3P+GPV Disha Samskarika Kendram, Palissery Rd, Palissery, Kallur Thekkummuri, Thalassery, Kerala 680741",Palissery,"QF3P+GPV, Palissery Rd","Kallur Thekkummuri, Thalassery",680741,Kerala,IN,https://www.google.com/maps/place/Disha+Samskarika+Kendram/data=!4m7!3m6!1s0x3ba42659f67241ab:0x9f5402eb6495db1f!8m2!3d11.7538732!4d75.486796!16s%2Fg%2F11g6qf0fb1!19sChIJq0Fy9lkmpDsRH9uVZOsCVJ8?authuser=0&hl=en&rclk=1,"11.7538732,75.486796"
pulliyode muslim jama'ath mosque,Mosque,"pulliyode muslim jama'ath mosque, 670107, Pattyam Nagar, Pullyode, Thalassery, Kerala 670107","Pattyam Nagar, Pullyode",670107,Thalassery,670107,Kerala,IN,https://www.google.com/maps/place/pulliyode+muslim+jama%27ath+mosque/data=!4m7!3m6!1s0x3ba425e4ab7edcd3:0xdc6643e3f82a0890!8m2!3d11.7935536!4d75.515841!16s%2Fg%2F11dxrs1m04!19sChIJ09x-q-QlpDsRkAgq-ONDZtw?authuser=0&hl=en&rclk=1,"11.7935536,75.515841"
vadakkumbad juma masjid,Mosque,"vadakkumbad juma masjid, Thalassery, Kerala 670107",,,Thalassery,670107,Kerala,IN,https://www.google.com/maps/place/vadakkumbad+juma+masjid/data=!4m7!3m6!1s0x3ba4259de50f6d5f:0x31ba798a88e4e5b1!8m2!3d11.7897591!4d75.5038074!16s%2Fg%2F11srw9m8qz!19sChIJX20P5Z0lpDsRseXkiIp5ujE?authuser=0&hl=en&rclk=1,"11.7897591,75.5038074"
Mannayad Mahal Muslim Juma Masjid,Mosque,"QF9F+8J6 Mannayad Mahal Muslim Juma Masjid, Koduvally, Thalassery, Kerala 670104",Koduvally,QF9F+8J6,Thalassery,,Kerala,IN,https://www.google.com/maps/place/Mannayad+Mahal+Muslim+Juma+Masjid/data=!4m7!3m6!1s0x3ba4268c1a2b2d2b:0x19932231038e3497!8m2!3d11.7682899!4d75.4740298!16s%2Fg%2F11gg9c320h!19sChIJKy0rGowmpDsRlzSOAzEikxk?authuser=0&hl=en&rclk=1,"11.7682899,75.4740298"
"Mannayad Badar Masjid, Chirammal Road, Illikunnu",Mosque,"QFFH+HVR Mannayad Badar Masjid, Chirammal Road, Illikunnu, Koduvally, Thalassery, Kerala 670105",Koduvally,QFFH+HVR,Thalassery,670105,Kerala,IN,"https://www.google.com/maps/place/Mannayad+Badar+Masjid,+Chirammal+Road,+Illikunnu/data=!4m7!3m6!1s0x3ba427cbb7eeee45:0x1d5323994d29c974!8m2!3d11.7739951!4d75.4796337!16s%2Fg%2F11gk8tzj15!19sChIJRe7ut8snpDsRdMkpTZkjUx0?authuser=0&hl=en&rclk=1","11.773995099999999,75.4796337"
Mujahid Masjid,Mosque,"QF4J+F8Q Mujahid Masjid, Palissery, Thalassery, Kerala 670101",Palissery,QF4J+F8Q,Thalassery,670101,Kerala,IN,https://www.google.com/maps/place/Mujahid+Masjid/data=!4m7!3m6!1s0x3ba426f62668fd99:0x6457874d93564307!8m2!3d11.7562214!4d75.4808445!16s%2Fg%2F1hm5zg3c4!19sChIJmf1oJvYmpDsRB0NWk02HV2Q?authuser=0&hl=en&rclk=1,"11.7562214,75.4808445"
Ali Haji Masjid,Mosque,"PFWR+5H6 Ali Haji Masjid, Edapally Panvel Highway (NH-17), Chalil, Thalassery, Kerala 670104",Chalil,"PFWR+5H6, Edapally Panvel Highway (NH-17)",Thalassery,670104,Kerala,IN,https://www.google.com/maps/place/Ali+Haji+Masjid/data=!4m7!3m6!1s0x3ba4265267c4f96b:0xe19272e21c27f1c2!8m2!3d11.7454249!4d75.491395!16s%2Fg%2F1pyqqh031!19sChIJa_nEZ1ImpDsRwvEnHOJykuE?authuser=0&hl=en&rclk=1,"11.7454249,75.491395"
Chalil Masjid,Mosque,"PFVR+XC8 Chalil Masjid, Chalil, Thalassery, Kerala 670102",Chalil,PFVR+XC8,Thalassery,670102,Kerala,IN,https://www.google.com/maps/place/Chalil+Masjid/data=!4m7!3m6!1s0x3ba427b2959bb0e7:0xa9f655cf93e2855!8m2!3d11.7449237!4d75.4910782!16s%2Fg%2F1pyqwm593!19sChIJ57CblbInpDsRVSg--Vxlnwo?authuser=0&hl=en&rclk=1,"11.7449237,75.49107819999999"
Railview Juma Masjid,Mosque,"QF3V+6P9 Railview Juma Masjid, Railway Station Rd, Pallithazhe, Chonadam, Thalassery, Kerala 670101","Pallithazhe, Chonadam","QF3V+6P9, Railway Station Rd",Thalassery,670101,Kerala,IN,https://www.google.com/maps/place/Railview+Juma+Masjid/data=!4m7!3m6!1s0x3ba4264f8ba877f1:0x1d4b2315e97f7d94!8m2!3d11.7530447!4d75.4943743!16s%2Fg%2F11d_v5txfx!19sChIJ8Xeoi08mpDsRlH1_6RUjSx0?authuser=0&hl=en&rclk=1,"11.7530447,75.49437429999999"
Chirakkara Juma mosque,Mosque,"QG33+PH8 Chirakkara Juma mosque, Illathaazha, Thalassery, Kerala 670103",Illathaazha,QG33+PH8,Thalassery,670103,Kerala,IN,https://www.google.com/maps/place/Chirakkara+Juma+mosque/data=!4m7!3m6!1s0x3ba42783499daef1:0x5fde82cf370245c9!8m2!3d11.7542874!4d75.5039681!16s%2Fg%2F11h80k6l2w!19sChIJ8a6dSYMnpDsRyUUCN8-C3l8?authuser=0&hl=en&rclk=1,"11.754287399999999,75.5039681"
Zamzam Masjid,Mosque,"QF2Q+P66 Zamzam Masjid, Kayyath Road, Palissery, Thalassery, Kerala 670104",Palissery,"QF2Q+P66, Kayyath Road",Thalassery,670104,Kerala,IN,https://www.google.com/maps/place/Zamzam+Masjid/data=!4m7!3m6!1s0x3ba42650becea08f:0x6cb9beeffaa432b6!8m2!3d11.7517799!4d75.4880081!16s%2Fg%2F1tk4plcr!19sChIJj6DOvlAmpDsRtjKk-u--uWw?authuser=0&hl=en&rclk=1,"11.751779899999999,75.4880081"
Sharaful Islam Juma Masjid,Mosque,"QGVH+QFM Sharaful Islam Juma Masjid, Kannur, Kerala 670642",,QGVH+QFM,Kannur,670642,Kerala,IN,https://www.google.com/maps/place/Sharaful+Islam+Juma+Masjid/data=!4m7!3m6!1s0x3ba42f560e464f1f:0x52c969af1f162ef9!8m2!3d11.7944698!4d75.5286796!16s%2Fg%2F11c602vbbx!19sChIJH09GDlYvpDsR-S4WH69pyVI?authuser=0&hl=en&rclk=1,"11.7944698,75.52867959999999"
keezhathur juma masjid,Mosque,"RFQW+2WQ keezhathur juma masjid, Thalassery, Keezhathur, Kerala 670741",,RFQW+2WQ,"Thalassery, Keezhathur",670741,Kerala,IN,https://www.google.com/maps/place/keezhathur+juma+masjid/data=!4m7!3m6!1s0x3ba4250eb9126cb5:0xf5690f625965791e!8m2!3d11.8376!4d75.497352!16s%2Fg%2F11bx5p9nkt!19sChIJtWwSuQ4lpDsRHnllWWIPafU?authuser=0&hl=en&rclk=1,"11.8376,75.49735199999999"
Makham Hanafi Masjid,Mosque,"PFVV+5QX Makham Hanafi Masjid, Main Road, Chalil, Thalassery, Kerala 670104",Chalil,"PFVV+5QX, Main Road",Thalassery,,Kerala,IN,https://www.google.com/maps/place/Makham+Hanafi+Masjid/data=!4m7!3m6!1s0x3ba427c3f2e82a4f:0x10abfa7415e198c3!8m2!3d11.7429811!4d75.4944779!16s%2Fg%2F11gmtkn5ky!19sChIJTyro8sMnpDsRw5jhFXT6qxA?authuser=0&hl=en&rclk=1,"11.7429811,75.49447789999999"
Pilackool Masjid,Mosque,"PFVV+2X9 Pilackool Masjid, Edapally Panvel Highway (NH-17), Pilakool, Thalassery, Kerala 670102",Pilakool,"PFVV+2X9 Pilackool Masjid, Edapally Panvel Highway (NH-17)",Thalassery,670102,Kerala,IN,https://www.google.com/maps/place/Pilackool+Masjid/data=!4m7!3m6!1s0x3ba4264cd6ddc0df:0x928386dfb4cf06a0!8m2!3d11.7427372!4d75.4959198!16s%2Fg%2F11ykfb323!19sChIJ38Dd1kwmpDsRoAbPtN-Gg5I?authuser=0&hl=en&rclk=1,"11.742737199999999,75.4959198"
Twayyiba juma masjid. Panjarappalli,Mosque,"PGF9+WHM Twayyiba juma masjid. Panjarappalli, Unnamed Road, Pallikunnu, Punnol, New Mahe, Kerala 670102","Pallikunnu, Punnol","PGF9+WHM, Unnamed Road",New Mahe,670102,Kerala,IN,https://www.google.com/maps/place/Twayyiba+juma+masjid.+Panjarappalli/data=!4m7!3m6!1s0x3ba42762d6789dd3:0x1fbf2c0c8a64055!8m2!3d11.7248383!4d75.5189121!16s%2Fg%2F11gy4rq4s0!19sChIJ05141mInpDsRVUCmyMDy-wE?authuser=0&hl=en&rclk=1,"11.7248383,75.5189121"
Mukadhar Juma Masjid,Mosque,"QF5H+Q6G Mukadhar Juma Masjid, Holloway Rd, Palissery, Thalassery, Kerala 670101",Palissery,"QF5H+Q6G, Holloway Rd",Thalassery,670101,Kerala,IN,https://www.google.com/maps/place/Mukadhar+Juma+Masjid/data=!4m7!3m6!1s0x3ba426f5cb4d1b5d:0x608252cde15cfd80!8m2!3d11.759426!4d75.4780698!16s%2Fg%2F11cfhsrrp!19sChIJXRtNy_UmpDsRgP1c4c1SgmA?authuser=0&hl=en&rclk=1,"11.759426,75.4780698"
Thekkiyav Masjid,Mosque,"QF2R+8J9 Thekkiyav Masjid, Thalassery Over Bridge, Palissery, Thalassery, Kerala 670101",Palissery,"QF2R+8J9, Thalassery Over Bridge",Thalassery,670101,Kerala,IN,https://www.google.com/maps/place/Thekkiyav+Masjid/data=!4m7!3m6!1s0x3ba4265036b0fa9f:0x88e7ca8697581a96!8m2!3d11.7507773!4d75.4916015!16s%2Fg%2F11f15n78rw!19sChIJn_qwNlAmpDsRlhpYl4bK54g?authuser=0&hl=en&rclk=1,"11.7507773,75.4916015"
Settu Masjid,Mosque,"PGM4+8PH Settu Masjid, Gopalpet, Thalassery, Kerala 670102",Gopalpet,PGM4+8PH,Thalassery,670102,Kerala,IN,https://www.google.com/maps/place/Settu+Masjid/data=!4m7!3m6!1s0x3ba427c85eefc141:0xb9bb475f688180b8!8m2!3d11.7333114!4d75.5068573!16s%2Fg%2F124yc8v9h!19sChIJQcHvXsgnpDsRuICBaF9Hu7k?authuser=0&hl=en&rclk=1,"11.7333114,75.5068573"
Thayale Palli,Mosque,"Thayale Palli, Chalil, Thalassery, Kerala 670104",Chalil,,Thalassery,,Kerala,IN,https://www.google.com/maps/place/Thayale+Palli/data=!4m7!3m6!1s0x3ba4265237821d95:0x8404bfee43c9aa78!8m2!3d11.7458788!4d75.4899982!16s%2Fg%2F124yg2yfd!19sChIJlR2CN1ImpDsReKrJQ-6_BIQ?authuser=0&hl=en&rclk=1,"11.7458788,75.4899982"
Salafi Centre Thalassery,Mosque,"PFWQ+RG6 Salafi Centre Thalassery, Chalil, Thalassery, Kerala 670104",Chalil,PFWQ+RG6,Thalassery,670104,Kerala,IN,https://www.google.com/maps/place/Salafi+Centre+Thalassery/data=!4m7!3m6!1s0x3ba42653d8e3f189:0x7ed254a1b4fd3ab3!8m2!3d11.7470262!4d75.4887718!16s%2Fg%2F1pzwfcpz0!19sChIJifHj2FMmpDsRszr9tKFU0n4?authuser=0&hl=en&rclk=1,"11.747026199999999,75.4887718"
Sunni Masjid moozhikkara and murshidul vildhan madrassa,Mosque,"Sunni Masjid moozhikkara and murshidul vildhan madrassa, Malabar Cancer Centre, Thalassery, Near, Thalassery- Kodiyeri Rd, Kerala 670103",,"Malabar Cancer Centre, Thalassery, Near, Thalassery- Kodiyeri Rd","Kodiyeri, New Mahe",670103,Kerala,IN,https://www.google.com/maps/place/Sunni+Masjid+moozhikkara+and+murshidul+vildhan+madrassa/data=!4m7!3m6!1s0x3ba42881d9477781:0xce4075d35a735460!8m2!3d11.7476528!4d75.5279458!16s%2Fg%2F11hbn3vtn7!19sChIJgXdH2YEopDsRYFRzWtN1QM4?authuser=0&hl=en&rclk=1,"11.7476528,75.5279458"
Vayalalam Juma Masjid,Mosque,"PGPF+6RC Vayalalam Juma Masjid, Thalassery - Nadapuram Rd, Kallilthazhe, Kodiyeri, New Mahe, Kerala 670102",Kallilthazhe,"PGPF+6RC, Thalassery - Nadapuram Rd","Kodiyeri, New Mahe",670102,Kerala,IN,https://www.google.com/maps/place/Vayalalam+Juma+Masjid/data=!4m7!3m6!1s0x3ba427d6e37856d9:0x367974d216da145a!8m2!3d11.7355508!4d75.5245273!16s%2Fg%2F11f12243j0!19sChIJ2VZ449YnpDsRWhTaFtJ0eTY?authuser=0&hl=en&rclk=1,"11.735550799999999,75.5245273"
ISLAHI CENTRE.,Mosque,"QG42+75R ISLAHI CENTRE., Pallithazhe, CHIRAKKARA, Thalassery, Kerala 670104","Pallithazhe, CHIRAKKARA",QG42+75R,Thalassery,,Kerala,IN,https://www.google.com/maps/place/ISLAHI+CENTRE./data=!4m7!3m6!1s0x3ba4277f03a39141:0x7de29f14c8b35b61!8m2!3d11.7557455!4d75.5003848!16s%2Fg%2F11nx188v93!19sChIJQZGjA38npDsRYVuzyBSf4n0?authuser=0&hl=en&rclk=1,"11.7557455,75.50038479999999"
Elankol Masjid,Mosque,"QF6M+238 Elankol Masjid, Palissery, Thalassery, Kerala 670101",Palissery,QF6M+238,Thalassery,670101,Kerala,IN,https://www.google.com/maps/place/Elankol+Masjid/data=!4m7!3m6!1s0x3ba4265f130bf763:0xa294080f5fa80e11!8m2!3d11.760047!4d75.482695!16s%2Fg%2F1tj7zdg5!19sChIJY_cLE18mpDsREQ6oXw8IlKI?authuser=0&hl=en&rclk=1,"11.760047,75.48269499999999"
Kandhalat Juma'ath Mosque,Mosque,"PFWX+28G Kandhalat Juma'ath Mosque, Pilakool, Thalassery, Kerala 670104",Pilakool,PFWX+28G,Thalassery,670104,Kerala,IN,https://www.google.com/maps/place/Kandhalat+Juma%27ath+Mosque/data=!4m7!3m6!1s0x3ba4264c808c4647:0x970da1e5e29e442b!8m2!3d11.7450711!4d75.4983392!16s%2Fg%2F11fxc8jncl!19sChIJR0aMgEwmpDsRK0Se4uWhDZc?authuser=0&hl=en&rclk=1,"11.745071099999999,75.49833919999999"
Imam Bukhari Islahi Centre Masjid,Mosque,"QGXV+WJW Imam Bukhari Islahi Centre Masjid, Thalassery - Coorg Hwy, Kerala 670642",,"QGXV+WJW, Thalassery - Coorg Hwy",,670642,Kerala,IN,https://www.google.com/maps/place/Imam+Bukhari+Islahi+Centre+Masjid/data=!4m7!3m6!1s0x3ba42f67dd562ce7:0xce14c47d1f297bdb!8m2!3d11.7998601!4d75.544068!16s%2Fg%2F11fl9gkklq!19sChIJ5yxW3WcvpDsR23spH33EFM4?authuser=0&hl=en&rclk=1,"11.7998601,75.544068"
Mylullimetta Salafi center,Mosque,"RGR4+CHJ Mylullimetta Salafi center, Thalassery, Kerala 670622",,RGR4+CHJ,Thalassery,,Kerala,IN,https://www.google.com/maps/place/Mylullimetta+Salafi+center/data=!4m7!3m6!1s0x3ba42598b8b1792b:0xbd3419a6806debde!8m2!3d11.8410857!4d75.5063957!16s%2Fg%2F11kjl_kv1n!19sChIJK3mxuJglpDsR3uttgKYZNL0?authuser=0&hl=en&rclk=1,"11.841085699999999,75.5063957"
Masjidu Rahma,Mosque,"QFHR+X86 Masjidu Rahma, Thalassery, Kerala 670101",,QFHR+X86,Thalassery,670101,Kerala,IN,https://www.google.com/maps/place/Masjidu+Rahma/data=!4m7!3m6!1s0x3ba4277e3e4590b5:0x4e26cb62ff4bb919!8m2!3d11.7799222!4d75.4907526!16s%2Fg%2F11rfrcghl5!19sChIJtZBFPn4npDsRGblL_2LLJk4?authuser=0&hl=en&rclk=1,"11.7799222,75.4907526"
Umarul Farooque Masjid,Mosque,"QFGQ+F49 Umarul Farooque Masjid, Thalassery - Irikkur Rd, Thalassery, Kerala 670101",,"QFGQ+F49, Thalassery - Irikkur Rd",Thalassery,670101,Kerala,IN,https://www.google.com/maps/place/Umarul+Farooque+Masjid/data=!4m7!3m6!1s0x3ba4267b4481e48d:0xf01566b9118d8e61!8m2!3d11.7761564!4d75.4878526!16s%2Fg%2F11gd4htz41!19sChIJjeSBRHsmpDsRYY6NEblmFfA?authuser=0&hl=en&rclk=1,"11.7761564,75.4878526"
Pilakool masjidh,Mosque,"PFWV+JWC Pilakool masjidh, Pilakool, Thalassery, Kerala 670104",Pilakool,PFWV+JWC,Thalassery,670104,Kerala,IN,https://www.google.com/maps/place/Pilakool+masjidh/data=!4m7!3m6!1s0x3ba427b94ac76b2f:0xe3098f84b09bfce0!8m2!3d11.7465624!4d75.4947787!16s%2Fg%2F11j0ht4jb8!19sChIJL2vHSrknpDsR4PybsISPCeM?authuser=0&hl=en&rclk=1,"11.7465624,75.4947787"
Salafi Masjid,Mosque,"QG4F+2P5 Salafi Masjid, Illathaazha, Kodiyeri, Kerala 670102",Illathaazha,QG4F+2P5,Kodiyeri,670102,Kerala,IN,https://www.google.com/maps/place/Salafi+Masjid/data=!4m7!3m6!1s0x3ba42626298c9811:0xfafe40119836ba1e!8m2!3d11.7550027!4d75.5243523!16s%2Fg%2F11fx8z0pcn!19sChIJEZiMKSYmpDsRHro2mBFA_vo?authuser=0&hl=en&rclk=1,"11.755002699999999,75.52435229999999"
Pilakool Kaivattam,Mosque,"PFRW+7Q4 Pilakool Kaivattam, Chalil, Thalassery, Kerala 670102",Chalil,PFRW+7Q4,Thalassery,670102,Kerala,IN,https://www.google.com/maps/place/Pilakool+Kaivattam/data=!4m7!3m6!1s0x3ba427b314b8381f:0xba1a6ab9d99aea5f!8m2!3d11.7406416!4d75.496968!16s%2Fg%2F1z44b062s!19sChIJHzi4FLMnpDsRX-qa2blqGro?authuser=0&hl=en&rclk=1,"11.7406416,75.496968"
Dharul hidaya madrasa,Mosque,"QG4F+CG4 Dharul hidaya madrasa, Illathaazha, Thalassery, New Mahe, Kerala 670102",Illathaazha,QG4F+CG4,"Thalassery, New Mahe",670102,Kerala,IN,https://www.google.com/maps/place/Dharul+hidaya+madrasa/data=!4m7!3m6!1s0x3ba4270f8e64892b:0x88126c5f949efb65!8m2!3d11.7560241!4d75.523836!16s%2Fg%2F11fl42d40y!19sChIJK4lkjg8npDsRZfuelF9sEog?authuser=0&hl=en&rclk=1,"11.7560241,75.523836"
Sarambi Masjid,Mosque,"PGJQ+WQ5 Sarambi Masjid, SH-30, Kallilthazhe, Thalassery, Puducherry 670672",Kallilthazhe,"PGJQ+WQ5, SH-30",Thalassery,670672,Puducherry,IN,https://www.google.com/maps/place/Sarambi+Masjid/data=!4m7!3m6!1s0x3ba4286fe19e32dd:0x8183f0cdce357525!8m2!3d11.732272!4d75.539494!16s%2Fg%2F1pyqkmv0p!19sChIJ3TKe4W8opDsRJXU1zs3wg4E?authuser=0&hl=en&rclk=1,"11.732272,75.53949399999999"
Nilayilatt juma masjid,Mosque,"QGXM+54W Nilayilatt juma masjid, Kerala 670642",,QGXM+54W,,,Kerala,IN,https://www.google.com/maps/place/Nilayilatt+juma+masjid/data=!4m7!3m6!1s0x3ba42f69399a4069:0x6f8a2664cffe15df!8m2!3d11.7979764!4d75.5328261!16s%2Fg%2F11qlksz3r6!19sChIJaUCaOWkvpDsR3xX-z2Qmim8?authuser=0&hl=en&rclk=1,"11.7979764,75.5328261"
Masjidul hidaya hidaay msjid,Mosque,"QF7F+RPF Masjidul hidaya hidaay msjid, Holloway Rd, Palissery, Thalassery, Kerala 670101",Palissery,"QF7F+RPF, Holloway Rd",Thalassery,670101,Kerala,IN,https://www.google.com/maps/place/Masjidul+hidaya+%E0%B4%B9%E0%B4%BF%E0%B4%A6%E0%B4%BE%E0%B4%AF+%E0%B4%AE%E0%B4%B8%E0%B5%8D%E0%B4%9C%E0%B4%BF%E0%B4%A6%E0%B5%8D/data=!4m7!3m6!1s0x3ba4277f667ab1f5:0x723543a86256cd29!8m2!3d11.7645535!4d75.4742955!16s%2Fg%2F11h7yys2mq!19sChIJ9bF6Zn8npDsRKc1WYqhDNXI?authuser=0&hl=en&rclk=1,"11.7645535,75.4742955"
masjid al swahaba,Mosque,"QF5X+JX9 masjid al swahaba, Chonadam, Thalassery, Kerala 670104",Chonadam,QF5X+JX9,Thalassery,670104,Kerala,IN,https://www.google.com/maps/place/masjid+al+swahaba/data=!4m7!3m6!1s0x3ba427bba1242317:0xeab592adc5ef65c7!8m2!3d11.7590437!4d75.4999793!16s%2Fg%2F11jr2kv3bl!19sChIJFyMkobsnpDsRx2Xvxa2Steo?authuser=0&hl=en&rclk=1,"11.7590437,75.49997929999999"
Al Manar Masjid,Mosque,"PGP3+C5R Al Manar Masjid, Kerala, India, 38/586, Chakkyath Mukku, National Highway 17, Gopalpet, Thalassery, Kerala 670102",Gopalpet,"PGP3+C5R Kerala, India, 38/586, Chakkyath Mukku, National Highway 17",Thalassery,670102,Kerala,IN,https://www.google.com/maps/place/Al+Manar+Masjid/data=!4m7!3m6!1s0x3ba42790043090b3:0x20522e10a456b253!8m2!3d11.7353427!4d75.5029017!16s%2Fg%2F11h7bxh0wh!19sChIJs5AwBJAnpDsRU7JWpBAuUiA?authuser=0&hl=en&rclk=1,"11.7353427,75.5029017"
Badar Juma Masjid,Mosque,"PFRV+7M6 Badar Juma Masjid, Chalil, Thalassery, Kerala 670102",Chalil,PFRV+7M6,Thalassery,670102,Kerala,IN,https://www.google.com/maps/place/Badar+Juma+Masjid/data=!4m7!3m6!1s0x3ba427d12cb7bc3b:0xfe3cff4e11484be6!8m2!3d11.7406605!4d75.4941402!16s%2Fg%2F11k91plm2k!19sChIJO7y3LNEnpDsR5ktIEU7_PP4?authuser=0&hl=en&rclk=1,"11.740660499999999,75.49414019999999"
Masjid,Mosque,"QF3R+2H7 Masjid, Palissery, Thalassery, Kerala 670104",Palissery,QF3R+2H7,Thalassery,,Kerala,IN,https://www.google.com/maps/place/Masjid/data=!4m7!3m6!1s0x3ba427615cd424b9:0x7d8cf05d5b8ea775!8m2!3d11.7525296!4d75.4914243!16s%2Fg%2F11t3dx5psb!19sChIJuSTUXGEnpDsRdaeOW13wjH0?authuser=0&hl=en&rclk=1,"11.752529599999999,75.49142429999999"
Masjid Darussalam,Mosque,"PFWW+68X Masjid Darussalam, Jubilee Rd, Pilakool, Thalassery, Kerala 670103",Pilakool,"PFWW+68X, Jubilee Rd",Thalassery,670103,Kerala,IN,https://www.google.com/maps/place/Masjid+Darussalam/data=!4m7!3m6!1s0x3ba427affe64d057:0xdae3453f2a3e2f7e!8m2!3d11.7456019!4d75.4958501!16s%2Fg%2F11r9zqrb6m!19sChIJV9Bk_q8npDsRfi8-Kj9F49o?authuser=0&hl=en&rclk=1,"11.745601899999999,75.4958501"
Masjid Jameer,Mosque,"PGQ3+426 Masjid Jameer, Gopalpet, Thalassery, Kerala 670102",Gopalpet,PGQ3+426,Thalassery,670102,Kerala,IN,https://www.google.com/maps/place/Masjid+Jameer/data=!4m7!3m6!1s0x3ba427b5c49cf93d:0x1a36ab0f506871e!8m2!3d11.7377833!4d75.5025025!16s%2Fg%2F1pyqjs2d2!19sChIJPfmcxLUnpDsRHocG9bBqowE?authuser=0&hl=en&rclk=1,"11.7377833,75.50250249999999"
Salaam Masjid,Mosque,"QF5P+G49 Salaam Masjid, Chettam Coon, Palissery, Thalassery, Kerala 670101",Palissery,"QF5P+G49, Chettam Coon",Thalassery,670101,Kerala,IN,https://www.google.com/maps/place/Salaam+Masjid/data=!4m7!3m6!1s0x3ba4265f23995f8b:0x79b88d6f31673445!8m2!3d11.7587982!4d75.4853665!16s%2Fg%2F1pyqn95nz!19sChIJi1-ZI18mpDsRRTRnMW-NuHk?authuser=0&hl=en&rclk=1,"11.7587982,75.4853665"
Nashif Alimiyan Madhyamam,Association or organization,"QGR3+6J Nashif Alimiyan Madhyamam, Thalassery, Kerala 670649",,QGR3+6J,Thalassery,670649,Kerala,IN,https://www.google.com/maps/place/Nashif+Alimiyan+Madhyamam/data=!4m7!3m6!1s0x3ba42569cb2aa6d5:0x3e6fd497140cbdf!8m2!3d11.7905808!4d75.5040822!16s%2Fg%2F11s0nxst6v!19sChIJ1aYqy2klpDsR38tAcUn95gM?authuser=0&hl=en&rclk=1,"11.790580799999999,75.5040822"
msjidu bd,Mosque,"QFMR+74C msjidu bd, Thalassery - Irikkur Rd, Thalassery, Kerala 670101",,"QFMR+74C, Thalassery - Irikkur Rd",Thalassery,670101,Kerala,IN,https://www.google.com/maps/place/%E0%B4%AE%E0%B4%B8%E0%B5%8D%E0%B4%9C%E0%B4%BF%E0%B4%A6%E0%B5%81%E0%B5%BD+%E0%B4%AC%E0%B4%A6%E0%B5%8D%E0%B5%BC/data=!4m7!3m6!1s0x3ba4279f223d552b:0x185c265c80459074!8m2!3d11.7831914!4d75.4902569!16s%2Fg%2F11lm40_f08!19sChIJK1U9Ip8npDsRdJBFgFwmXBg?authuser=0&hl=en&rclk=1,"11.7831914,75.49025689999999"
Chirakkara town sunni juma masjid,Mosque,"QF3X+6Q8 Chirakkara town sunni juma masjid, Thalassery - Coorg Hwy, Pallithazhe, Illathaazha, Thalassery, Kerala 670103","Pallithazhe, Illathaazha","QF3X+6Q8, Thalassery - Coorg Hwy",Thalassery,670103,Kerala,IN,https://www.google.com/maps/place/Chirakkara+town+sunni+juma+masjid/data=!4m7!3m6!1s0x3ba4271c74858d27:0xde3b3a2bb188513a!8m2!3d11.7532218!4d75.4995194!16s%2Fg%2F11krs1qfz_!19sChIJJ42FdBwnpDsROlGIsSs6O94?authuser=0&hl=en&rclk=1,"11.753221799999999,75.4995194"
Mashi/mosque,Mosque,"QF6M+27H Mashi/mosque, Chettam Kunnu Rd, Palissery, Thalassery, Kerala 670104",Palissery,"QF6M+27H, Chettam Kunnu Rd",Thalassery,670104,Kerala,IN,https://www.google.com/maps/place/Mashi%2Fmosque/data=!4m7!3m6!1s0x3ba427984139cd53:0xf8e897723b6e5d1a!8m2!3d11.7601003!4d75.4832207!16s%2Fg%2F11v4myw7y3!19sChIJU805QZgnpDsRGl1uO3KX6Pg?authuser=0&hl=en&rclk=1,"11.7601003,75.48322069999999"
aamukh mkhaaN,Mosque,"aamukh mkhaaN, 1/50, Koduvally, Thalassery, Kerala 670105",Koduvally,1/50,Thalassery,670105,Kerala,IN,https://www.google.com/maps/place/%E0%B4%86%E0%B4%AE%E0%B5%81%E0%B4%96+%E0%B4%AE%E0%B4%96%E0%B4%BE%E0%B4%82/data=!4m7!3m6!1s0x3ba427972a0edca9:0x11238993daa01ab7!8m2!3d11.7677945!4d75.4746938!16s%2Fg%2F11rxwnx944!19sChIJqdwOKpcnpDsRtxqg2pOJIxE?authuser=0&hl=en&rclk=1,"11.767794499999999,75.4746938"
Hayyaas Natural Products,Mosque,"Hayyaas Natural Products, Mujahid Masjid Complex, AVK Nair Road, Pilakool, Thalassery, Kerala 670101",Pilakool,"Mujahid Masjid Complex, AVK Nair Road",Thalassery,670101,Kerala,IN,https://www.google.com/maps/place/Hayyaas+Natural+Products/data=!4m7!3m6!1s0x3ba427b8df35b821:0x697f89f5aa70a9e3!8m2!3d11.7469329!4d75.4945231!16s%2Fg%2F11s7xq2d8d!19sChIJIbg137gnpDsR46lwqvWJf2k?authuser=0&hl=en&rclk=1,"11.7469329,75.4945231"
Tailegarh mosque,Mosque,"PFWQ+FX8 Tailegarh mosque, Chalil, Thalassery, Kerala 670104",Chalil,PFWQ+FX8,Thalassery,670104,Kerala,IN,https://www.google.com/maps/place/Tailegarh+mosque/data=!4m7!3m6!1s0x3ba4272fdcaf51fd:0x8810526b59d2004b!8m2!3d11.7460816!4d75.4899984!16s%2Fg%2F11vd8xl0l6!19sChIJ_VGv3C8npDsRSwDSWWtSEIg?authuser=0&hl=en&rclk=1,"11.7460816,75.48999839999999"
