name,main_category,address,address_ward,address_street,address_city,address_postal_code,address_state,address_country_code,link,coordinates
Akbari Masjid,Mosque,"FJ4H+Q56 Akbari Masjid, Ander Kote Rd, Khadim Mohalla, Diggi Bazaar, Ajmer, Rajasthan 305001","Khadim Mohalla, Diggi Bazaar","FJ4H+Q56, Ander Kote Rd",Ajmer,305001,Rajasthan,IN,https://www.google.com/maps/place/Akbari+Masjid/data=!4m7!3m6!1s0x396be710981ead7f:0x4d2baf30c0b68127!8m2!3d26.4569167!4d74.6278912!16s%2Fg%2F1td4byyr!19sChIJf60emBDnazkRJ4G2wDCvK00?authuser=0&hl=en&rclk=1,"26.456916699999997,74.6278912"
Masjid Mu-E-Mubarak,Mosque,"FJ9R+97J Masjid Mu-E-Mubarak, Soumya Rd, Muslim Mochi Mohalla, Ajmer, Rajasthan 305001",Muslim Mochi Mohalla,"FJ9R+97J, Soumya Rd",Ajmer,305001,Rajasthan,IN,https://www.google.com/maps/place/Masjid+Mu-E-Mubarak/data=!4m7!3m6!1s0x396be6fdfe01cae7:0xc0cbf59f120a2dd6!8m2!3d26.4684748!4d74.6406436!16s%2Fg%2F1tdxnvpz!19sChIJ58oB_v3mazkR1i0KEp_1y8A?authuser=0&hl=en&rclk=1,"26.4684748,74.64064359999999"
Ajmer Markaz Allahrakha Masjid,Mosque,"FJ3P+2PJ Ajmer Markaz Allahrakha Masjid, Parao, Ajmer, Rajasthan 305001",Parao,FJ3P+2PJ,Ajmer,305001,Rajasthan,IN,https://www.google.com/maps/place/Ajmer+Markaz+Allahrakha+Masjid/data=!4m7!3m6!1s0x396be71f0927386f:0x9ec6bd3c8e4117e4!8m2!3d26.4525751!4d74.6367802!16s%2Fg%2F11gcl__0y0!19sChIJbzgnCR_nazkR5BdBjjy9xp4?authuser=0&hl=en&rclk=1,"26.452575099999997,74.63678019999999"
Sandali Masjid ajmer sharif,Mosque,"Sandali Masjid ajmer sharif, inside, Rajasthan 305001",Diggi Bazaar,inside,Ajmer,305001,Rajasthan,IN,https://www.google.com/maps/place/Sandali+Masjid+ajmer+sharif/data=!4m7!3m6!1s0x396be710a7abf115:0xfdda62dab2c361ee!8m2!3d26.4539541!4d74.6295891!16s%2Fg%2F1td9z289!19sChIJFfGrpxDnazkR7mHDstpi2v0?authuser=0&hl=en&rclk=1,"26.453954099999997,74.62958909999999"
"Jama Masjid, pilikhan,Lohakhan, Ajmer",Mosque,"FMP2+2C5 Jama Masjid, pilikhan,Lohakhan, Ajmer, Loha Khan Colony, Ajmer, Rajasthan 305001",Loha Khan Colony,FMP2+2C5,Ajmer,305001,Rajasthan,IN,"https://www.google.com/maps/place/Jama+Masjid,+pilikhan,Lohakhan,+Ajmer/data=!4m7!3m6!1s0x396be6507242c951:0xfa28f6002ff0760f!8m2!3d26.485019!4d74.6511206!16s%2Fg%2F12642604_!19sChIJUclCclDmazkRD3bwLwD2KPo?authuser=0&hl=en&rclk=1","26.485018999999998,74.6511206"
Shahjahani Mosque,Mosque,"FJ4H+F47 Shahjahani Mosque, inside Dargah Shareef Road, Khadim Mohalla, Diggi Bazaar, Ajmer, Rajasthan 305001","Khadim Mohalla, Diggi Bazaar","FJ4H+F47, inside Dargah Shareef Road",Ajmer,305001,Rajasthan,IN,https://www.google.com/maps/place/Shahjahani+Mosque/data=!4m7!3m6!1s0x396be710a59e356f:0x1112522ff8bf09a4!8m2!3d26.4561612!4d74.6277881!16s%2Fg%2F1vzn3z8s!19sChIJbzWepRDnazkRpAm_-C9SEhE?authuser=0&hl=en&rclk=1,"26.4561612,74.6277881"
Khan Pura Masjid,Mosque,"CJ4P+VJC Khan Pura Masjid, Chisti Nagar, Ajmer, Rajasthan 305003",Chisti Nagar,CJ4P+VJC,Ajmer,305003,Rajasthan,IN,https://www.google.com/maps/place/Khan+Pura+Masjid/data=!4m7!3m6!1s0x396be0de570e2de7:0xbb0afb1d58db2fee!8m2!3d26.4071941!4d74.6365207!16s%2Fg%2F1pp2tlm20!19sChIJ5y0OV97gazkR7i_bWB37Crs?authuser=0&hl=en&rclk=1,"26.407194099999998,74.63652069999999"
"Masjid Al MAKKAH, Ratidang",Mosque,"FJV8+Q29 Masjid Al MAKKAH, Ratidang, Aravali Vihar Colony, Ajmer, Rajasthan 305004",Aravali Vihar Colony,FJV8+Q29,Ajmer,305004,Rajasthan,IN,"https://www.google.com/maps/place/Masjid+Al+MAKKAH,+Ratidang/data=!4m7!3m6!1s0x396be7eaca86e4df:0x9a93382cfa9e270c!8m2!3d26.4944039!4d74.615124!16s%2Fg%2F11cjnp35vl!19sChIJ3-SGyurnazkRDCee-iw4k5o?authuser=0&hl=en&rclk=1","26.4944039,74.615124"
Khanpura Ahle Hadees Masjid,Mosque,"Khanpura Ahle Hadees Masjid, Khanpura Rd, Sundar Nagar, Ajmer, Rajasthan 305001",Sundar Nagar,Khanpura Rd,Ajmer,305001,Rajasthan,IN,https://www.google.com/maps/place/Khanpura+Ahle+Hadees+Masjid/data=!4m7!3m6!1s0x396be0d9598fdddd:0xf9687f533dde96f8!8m2!3d26.4103758!4d74.6348701!16s%2Fg%2F11ddy0c7_v!19sChIJ3d2PWdngazkR-JbePVN_aPk?authuser=0&hl=en&rclk=1,"26.410375799999997,74.6348701"
Daftari Masjid,Mosque,"CJXM+77M Daftari Masjid, Asha Ganj Rd, near Ibrahim Meat Shop, Chand Bawdi, Pahar Ganj, Ajmer, Rajasthan 305001","Chand Bawdi, Pahar Ganj","CJXM+77M, Asha Ganj Rd, near Ibrahim Meat Shop",Ajmer,305001,Rajasthan,IN,https://www.google.com/maps/place/Daftari+Masjid/data=!4m7!3m6!1s0x396be7223bf78293:0x4645da3133fee1fb!8m2!3d26.4482182!4d74.6331866!16s%2Fg%2F1hjgppbzg!19sChIJk4L3OyLnazkR--H-MzHaRUY?authuser=0&hl=en&rclk=1,"26.4482182,74.6331866"
Masjid-E-Ratidang,Mosque,"FJV7+757 Masjid-E-Ratidang, Aravali Vihar Colony, Ajmer, Rajasthan 305004",Aravali Vihar Colony,FJV7+757,Ajmer,305004,Rajasthan,IN,https://www.google.com/maps/place/Masjid-E-Ratidang/data=!4m7!3m6!1s0x396be794c5316075:0x142ae3a25d97272d!8m2!3d26.4931602!4d74.6129357!16s%2Fg%2F11cjnp4180!19sChIJdWAxxZTnazkRLSeXXaLjKhQ?authuser=0&hl=en&rclk=1,"26.4931602,74.6129357"
BADBAO MASJID,Mosque,"FJ3F+76M BADBAO MASJID, Indar Kot, Ajmer, Rajasthan 305001",Indar Kot,FJ3F+76M,Ajmer,305001,Rajasthan,IN,https://www.google.com/maps/place/BADBAO+MASJID/data=!4m7!3m6!1s0x396be71699abf3b3:0x4219969347551b24!8m2!3d26.4532151!4d74.6230545!16s%2Fg%2F11fz0xdqnh!19sChIJs_OrmRbnazkRJBtVR5OWGUI?authuser=0&hl=en&rclk=1,"26.453215099999998,74.6230545"
Nurani masjid,Mosque,"CM33+38X Nurani masjid, Ajmer, Rajasthan 305002",,CM33+38X,Ajmer,305002,Rajasthan,IN,https://www.google.com/maps/place/Nurani+masjid/data=!4m7!3m6!1s0x396be1171329b553:0x89fc11341eab44ed!8m2!3d26.4027352!4d74.6533748!16s%2Fg%2F11c6f1gcl8!19sChIJU7UpExfhazkR7USrHjQR_Ik?authuser=0&hl=en&rclk=1,"26.4027352,74.6533748"
Shahi Masjid,Mosque,"FJ4Q+JHP Shahi Masjid, Patel Nagar, Topdara, Ajmer, Rajasthan 305001","Patel Nagar, Topdara",FJ4Q+JHP,Ajmer,305001,Rajasthan,IN,https://www.google.com/maps/place/Shahi+Masjid/data=!4m7!3m6!1s0x396be71e09e3e287:0x7457d38e63eee21a!8m2!3d26.4565784!4d74.6389497!16s%2Fg%2F11bxb9qpss!19sChIJh-LjCR7nazkRGuLuY47TV3Q?authuser=0&hl=en&rclk=1,"26.456578399999998,74.6389497"
masjid,Mosque,"masjid, 11, Chaursiawas Rd Shakti Nagar, Vaishali Nagar, Chorsiawas Rd, Shakti Nagar, Vaishali Nagar, Ajmer, Rajasthan 305004","Shakti Nagar, Vaishali Nagar","11, Chaursiawas Rd Shakti Nagar, Vaishali Nagar, Chorsiawas Rd",Ajmer,305004,Rajasthan,IN,https://www.google.com/maps/place/masjid/data=!4m7!3m6!1s0x396be7c5e5e76653:0xd7701e9fbe0e90c8!8m2!3d26.5019418!4d74.6272033!16s%2Fg%2F11g8g0b__0!19sChIJU2bn5cXnazkRyJAOvp8ecNc?authuser=0&hl=en&rclk=1,"26.501941799999997,74.62720329999999"
Madina Masjid,Mosque,"Madina Masjid, Silawat Mohalla, Kala Bagh Gali, Lakhan Kothri, Ajmer, Rajasthan 305001",Lakhan Kothri,"Silawat Mohalla, Kala Bagh Gali",Ajmer,305001,Rajasthan,IN,https://www.google.com/maps/place/Madina+Masjid/data=!4m7!3m6!1s0x396be710ea199957:0x92ad70db72548d03!8m2!3d26.4567386!4d74.6267746!16s%2Fg%2F11dzt583sj!19sChIJV5kZ6hDnazkRA41UcttwrZI?authuser=0&hl=en&rclk=1,"26.456738599999998,74.62677459999999"
Noorani Masjid,Mosque,"FJ4G+VGJ Noorani Masjid, silawat mohalla, Lakhan Kothri, Ajmer, Rajasthan 305001","silawat mohalla, Lakhan Kothri",FJ4G+VGJ,Ajmer,305001,Rajasthan,IN,https://www.google.com/maps/place/Noorani+Masjid/data=!4m7!3m6!1s0x396be710efbb5531:0x53655ca819945e5c!8m2!3d26.4572178!4d74.6262505!16s%2Fg%2F11gfb4ph0j!19sChIJMVW77xDnazkRXF6UGahcZVM?authuser=0&hl=en&rclk=1,"26.4572178,74.6262505"
Sufi Masjid,Mosque,"Sufi Masjid, Beawar Rd, RASOOL GANJ, Ramganj, Ajmer, Rajasthan 305001","RASOOL GANJ, Ramganj",Beawar Rd,Ajmer,305001,Rajasthan,IN,https://www.google.com/maps/place/Sufi+Masjid/data=!4m7!3m6!1s0x396be7298fe24b1b:0x9eac19fcc1d62298!8m2!3d26.43109!4d74.6372123!16s%2Fg%2F11bx5pkgtj!19sChIJG0vijynnazkRmCLWwfwZrJ4?authuser=0&hl=en&rclk=1,"26.431089999999998,74.6372123"
"sunnii hnfii jaamaa msjid sultaan ul hind, somlpur, ajmer shriiph Sunni hanfi jama masjid sultan ul hind, somalpur, ajmer sharif",Mosque,"CJ85+X6M sunnii hnfii jaamaa msjid sultaan ul hind, somlpur, ajmer shriiph Sunni hanfi jama masjid sultan ul hind, somalpur, ajmer sharif, Somalpur Rd, Somalpur, Ajmer, Rajasthan 305003",Somalpur,"CJ85+X6M, Somalpur Rd",Ajmer,305003,Rajasthan,IN,"https://www.google.com/maps/place/%E0%A4%B8%E0%A5%81%E0%A4%A8%E0%A5%8D%E0%A4%A8%E0%A5%80+%E0%A4%B9%E0%A4%A8%E0%A5%9E%E0%A5%80+%E0%A4%9C%E0%A4%BE%E0%A4%AE%E0%A4%BE+%E0%A4%AE%E0%A4%B8%E0%A5%8D%E0%A4%9C%E0%A4%BF%E0%A4%A6+%E0%A4%B8%E0%A5%81%E0%A4%B2%E0%A5%8D%E0%A4%A4%E0%A4%BE%E0%A4%A8+%E0%A4%89%E0%A4%B2+%E0%A4%B9%E0%A4%BF%E0%A4%A8%E0%A5%8D%E0%A4%A6,+%E0%A4%B8%E0%A5%8B%E0%A4%AE%E0%A4%B2%E0%A4%AA%E0%A5%81%E0%A4%B0,+%E0%A4%85%E0%A4%9C%E0%A4%AE%E0%A5%87%E0%A4%B0+%E0%A4%B6%E0%A4%B0%E0%A5%80%E0%A4%AB+Sunni+hanfi+jama+masjid+sultan+ul+hind,+somalpur,+ajmer+sharif/data=!4m7!3m6!1s0x396be11ad2c31867:0x8473190581ae2a1b!8m2!3d26.4174692!4d74.6080317!16s%2Fg%2F11pq4w79wv!19sChIJZxjD0hrhazkRGyqugQUZc4Q?authuser=0&hl=en&rclk=1","26.4174692,74.6080317"
Karyalay Masjid committee,Mosque,"FJ5H+95J Karyalay Masjid committee, Dargah Bazar Rd, Lakhan Kothri, Ajmer, Rajasthan 305001",Lakhan Kothri,"FJ5H+95J, Dargah Bazar Rd",Ajmer,305001,Rajasthan,IN,https://www.google.com/maps/place/Karyalay+Masjid+committee/data=!4m7!3m6!1s0x396be7107c363fe9:0x8725d59b736e713d!8m2!3d26.4584583!4d74.6278795!16s%2Fg%2F11c59nd6h2!19sChIJ6T82fBDnazkRPXFuc5vVJYc?authuser=0&hl=en&rclk=1,"26.4584583,74.62787949999999"
Longia Masjid,Mosque,"FJ5F+65R Longia Masjid, Unnamed Road, Longia Mohalla, Ajmer, Rajasthan 305001",Longia Mohalla,"FJ5F+65R, Unnamed Road",Ajmer,305001,Rajasthan,IN,https://www.google.com/maps/place/Longia+Masjid/data=!4m7!3m6!1s0x396be71184054daf:0x10d924723bd599ed!8m2!3d26.4581069!4d74.6228768!16s%2Fg%2F11gfgnccbt!19sChIJr00FhBHnazkR7ZnVO3Ik2RA?authuser=0&hl=en&rclk=1,"26.458106899999997,74.6228768"
Solah Khammba Masjid,Mosque,"FJ4G+FVP Solah Khammba Masjid, solha khamba, dargah shareef, Ajmer, Rajasthan 305001","solha khamba, dargah shareef",FJ4G+FVP,Ajmer,305001,Rajasthan,IN,https://www.google.com/maps/place/Solah+Khammba+Masjid/data=!4m7!3m6!1s0x396be710b97bdf67:0xf1830757538c64d5!8m2!3d26.4562213!4d74.627204!16s%2Fg%2F11fxxz4bw3!19sChIJZ997uRDnazkR1WSMU1cHg_E?authuser=0&hl=en&rclk=1,"26.4562213,74.62720399999999"
Madina masjid,Mosque,"FJ5F+339 Madina masjid, Unnamed Road, Longia Mohalla, Ajmer, Rajasthan 305001",Longia Mohalla,"FJ5F+339, Unnamed Road",Ajmer,305001,Rajasthan,IN,https://www.google.com/maps/place/Madina+masjid/data=!4m7!3m6!1s0x396be7ed9651c28b:0x446bf9408c615b70!8m2!3d26.4576594!4d74.6227301!16s%2Fg%2F11n067ymhd!19sChIJi8JRlu3nazkRcFthjED5a0Q?authuser=0&hl=en&rclk=1,"26.457659399999997,74.6227301"
mkkaa msjid raatiiddaaNg ajmer,Mosque,"FJV8+Q3F mkkaa msjid raatiiddaaNg ajmer, Unnamed Road, Aravali Vihar Colony, Ajmer, Rajasthan 305004",Aravali Vihar Colony,"FJV8+Q3F, Unnamed Road",Ajmer,305004,Rajasthan,IN,https://www.google.com/maps/place/%E0%A4%AE%E0%A4%95%E0%A5%8D%E0%A4%95%E0%A4%BE+%E0%A4%AE%E0%A4%B8%E0%A5%8D%E0%A4%9C%E0%A4%BF%E0%A4%A6+%E0%A4%B0%E0%A4%BE%E0%A4%A4%E0%A5%80%E0%A4%A1%E0%A4%BE%E0%A4%82%E0%A4%97+%E0%A4%85%E0%A4%9C%E0%A4%AE%E0%A5%87%E0%A4%B0/data=!4m7!3m6!1s0x396be7eab50f191b:0x84366e03087bcefe!8m2!3d26.4944305!4d74.6151627!16s%2Fg%2F11hd5fzhzm!19sChIJGxkPternazkR_s57CANuNoQ?authuser=0&hl=en&rclk=1,"26.4944305,74.6151627"
jaamaa msjid,Mosque,"CJ85+X68 jaamaa msjid, Somalpur, Ajmer, Rajasthan 305003",Somalpur,CJ85+X68,Ajmer,305003,Rajasthan,IN,https://www.google.com/maps/place/%E0%A4%9C%E0%A4%BE%E0%A4%AE%E0%A4%BE+%E0%A4%AE%E0%A4%B8%E0%A5%8D%E0%A4%9C%E0%A4%BF%E0%A4%A6/data=!4m7!3m6!1s0x396be10a2549c7e7:0xcbac54fdb44e9c1a!8m2!3d26.4174221!4d74.6080758!16s%2Fg%2F11gntv_27s!19sChIJ58dJJQrhazkRGpxOtP1UrMs?authuser=0&hl=en&rclk=1,"26.4174221,74.6080758"
Darusunnah dawat e islami ajmer,Mosque,"FJ6G+HRJ Darusunnah dawat e islami ajmer, Kumhar Mohalla, Ajmer, Rajasthan 305001",Kumhar Mohalla,FJ6G+HRJ,Ajmer,305001,Rajasthan,IN,https://www.google.com/maps/place/Darusunnah+dawat+e+islami+ajmer/data=!4m7!3m6!1s0x396be769c443d09b:0x6c3eed8823ed8769!8m2!3d26.4614611!4d74.6270012!16s%2Fg%2F11k58vr_zz!19sChIJm9BDxGnnazkRaYftI4jtPmw?authuser=0&hl=en&rclk=1,"26.461461099999998,74.6270012"
Masjid Saulatiya,Mosque,"FJ4H+X28 Masjid Saulatiya, inside Haweli Diwan sahab, Lakhan Kothri, Ajmer, Rajasthan 305001",Lakhan Kothri,"FJ4H+X28, inside Haweli Diwan sahab",Ajmer,305001,Rajasthan,IN,https://www.google.com/maps/place/Masjid+Saulatiya/data=!4m7!3m6!1s0x396be7109aa63c61:0x44fb2c59ee8c32d8!8m2!3d26.4574099!4d74.6275748!16s%2Fg%2F11g8h0dxts!19sChIJYTymmhDnazkR2DKM7lks-0Q?authuser=0&hl=en&rclk=1,"26.4574099,74.62757479999999"
Mohammadi Masjid,Mosque,"FJ6J+6XR Mohammadi Masjid, Naya Bazar, opp. Gol Pyau, Naya Bazaar, Ajmer, Rajasthan 305001",Naya Bazaar,"FJ6J+6XR, Naya Bazar, opp. Gol Pyau",Ajmer,305001,Rajasthan,IN,https://www.google.com/maps/place/Mohammadi+Masjid/data=!4m7!3m6!1s0x396be71b395ce7b9:0x3d1a7179707c883!8m2!3d26.4606189!4d74.632379!16s%2Fg%2F11cs3nndsr!19sChIJuedcORvnazkRg8gHlxen0QM?authuser=0&hl=en&rclk=1,"26.4606189,74.632379"
Maszid Takiya Gulab Shah,Mosque,"FJ5Q+M8C Maszid Takiya Gulab Shah, Behind Ajmer Junction, Patel Nagar, Topdara, Ajmer, Rajasthan 305001","Patel Nagar, Topdara","FJ5Q+M8C, Behind Ajmer Junction",Ajmer,305001,Rajasthan,IN,https://www.google.com/maps/place/Maszid+Takiya+Gulab+Shah/data=!4m7!3m6!1s0x396be71da12606b9:0x4b05c45a54c326d6!8m2!3d26.4591871!4d74.6382607!16s%2Fg%2F11cs31pbgp!19sChIJuQYmoR3nazkR1ibDVFrEBUs?authuser=0&hl=en&rclk=1,"26.459187099999998,74.6382607"
GLO Masjid,Mosque,"FJ7W+XV5 GLO Masjid, Railway Colony, Ajmer, Rajasthan 305001",Railway Colony,FJ7W+XV5,Ajmer,305001,Rajasthan,IN,https://www.google.com/maps/place/GLO+Masjid/data=!4m7!3m6!1s0x396be799339b6331:0x71761948210c3db!8m2!3d26.4648972!4d74.6472327!16s%2Fg%2F11lflf1ckh!19sChIJMWObM5nnazkR28MQgpRhFwc?authuser=0&hl=en&rclk=1,"26.4648972,74.6472327"
Masjid Bhadbhujan,Mosque,"Masjid Bhadbhujan, 259/21 Kamla Bawari Babu Garh, Rajasthan 305001",Ganj,259/21 Kamla Bawari Babu Garh,Ajmer,305001,Rajasthan,IN,https://www.google.com/maps/place/Masjid+Bhadbhujan/data=!4m7!3m6!1s0x396be7288d4ec867:0x6a7fab57b7932327!8m2!3d26.4650674!4d74.6292338!16s%2Fg%2F11nfmnpth2!19sChIJZ8hOjSjnazkRJyOTt1erf2o?authuser=0&hl=en&rclk=1,"26.4650674,74.6292338"
AKBARI MASJID,Mosque,"FJ29+HRW AKBARI MASJID, Indar Kot, Ajmer, Rajasthan 305001",Indar Kot,FJ29+HRW,Ajmer,305001,Rajasthan,IN,https://www.google.com/maps/place/AKBARI+MASJID/data=!4m7!3m6!1s0x396be733af42b00f:0x89bb08664d66d3c1!8m2!3d26.4505169!4d74.618913!16s%2Fg%2F11t1shpvdj!19sChIJD7BCrzPnazkRwdNmTWYIu4k?authuser=0&hl=en&rclk=1,"26.4505169,74.61891299999999"
Falah e Daren masjid,Mosque,"FJ4J+V3V Falah e Daren masjid, Ghasati Bazar, Diggi Bazaar, Ajmer, Rajasthan 305001","Ghasati Bazar, Diggi Bazaar",FJ4J+V3V,Ajmer,305001,Rajasthan,IN,https://www.google.com/maps/place/Falah+e+Daren+masjid/data=!4m7!3m6!1s0x396be7e18e648d65:0xa0a06af0fb7ba82b!8m2!3d26.4572274!4d74.6301689!16s%2Fg%2F11rxyh452h!19sChIJZY1kjuHnazkRK6h7-_BqoKA?authuser=0&hl=en&rclk=1,"26.457227399999997,74.6301689"
Kaali Masjid,Mosque,"Kaali Masjid, Ander Kote Rd, near Qureshi manzil, Diggi Bazaar, Ajmer, Rajasthan 305001",Diggi Bazaar,"Kaali Masjid, Ander Kote Rd, near Qureshi manzil",Ajmer,305001,Rajasthan,IN,https://www.google.com/maps/place/Kaali+Masjid/data=!4m7!3m6!1s0x396be777b8c4cb75:0x3e5c53bb051fd0f3!8m2!3d26.4539533!4d74.6249918!16s%2Fg%2F11rqckjnmb!19sChIJdcvEuHfnazkR89AfBbtTXD4?authuser=0&hl=en&rclk=1,"26.4539533,74.6249918"
Masjid Kaatan Bao,Mosque,"FJ3F+RWQ Masjid Kaatan Bao, near Adhai Din Ka Jhopra, Diggi Bazaar, Ajmer, Rajasthan 305001",Diggi Bazaar,"FJ3F+RWQ, near Adhai Din Ka Jhopra",Ajmer,305001,Rajasthan,IN,https://www.google.com/maps/place/Masjid+Kaatan+Bao/data=!4m7!3m6!1s0x396be75222533c0d:0xa7ede2c12de900fa!8m2!3d26.4545993!4d74.6248517!16s%2Fg%2F11fjxg3xkb!19sChIJDTxTIlLnazkR-gDpLcHi7ac?authuser=0&hl=en&rclk=1,"26.454599299999998,74.6248517"
Masjid Gharib Nawaz,Mosque,"FJ3F+27H Masjid Gharib Nawaz, Jharneshwar Road, Ander Kote Rd, Ajmer, Rajasthan 305001",Indar Kot,"FJ3F+27H, Jharneshwar Road, Ander Kote Rd",Ajmer,305001,Rajasthan,IN,https://www.google.com/maps/place/Masjid+Gharib+Nawaz/data=!4m7!3m6!1s0x396be744de8921dd:0xf0b800a46f98cdaf!8m2!3d26.4525646!4d74.6232337!16s%2Fg%2F11q83kslf7!19sChIJ3SGJ3kTnazkRr82Yb6QAuPA?authuser=0&hl=en&rclk=1,"26.4525646,74.6232337"
Masjid,Mosque,"CJR8+MRF Masjid, Taragarh Rd, Taragarh, Ajmer, Rajasthan 305001",Taragarh,"CJR8+MRF, Taragarh Rd",Ajmer,305001,Rajasthan,IN,https://www.google.com/maps/place/Masjid/data=!4m7!3m6!1s0x396be7d156287da1:0x40c284562f806b08!8m2!3d26.4417508!4d74.6170904!16s%2Fg%2F11jsv9g54b!19sChIJoX0oVtHnazkRCGuAL1aEwkA?authuser=0&hl=en&rclk=1,"26.441750799999998,74.6170904"
Masjid ajmer,Mosque,"Masjid ajmer, 01, Ajmer, Rajasthan 305001",Longia Mohalla,01,Ajmer,305001,Rajasthan,IN,https://www.google.com/maps/place/Masjid+ajmer/data=!4m7!3m6!1s0x396be7134469f269:0xf8b9e527c6c066ec!8m2!3d26.4624816!4d74.627852!16s%2Fg%2F11vc9xwdkt!19sChIJafJpRBPnazkR7GbAxiflufg?authuser=0&hl=en&rclk=1,"26.4624816,74.62785199999999"
Masjid,Mosque,"FJ7J+F5M Masjid, Agra Gate Rd, Dargah Bazar, Ajmer, Rajasthan 305001",Dargah Bazar,"FJ7J+F5M, Agra Gate Rd",Ajmer,305001,Rajasthan,IN,https://www.google.com/maps/place/Masjid/data=!4m7!3m6!1s0x396be7937ec4a54b:0x9d8f4f21b4a86793!8m2!3d26.4637182!4d74.6304931!16s%2Fg%2F11stttd6g8!19sChIJS6XEfpPnazkRk2eotCFPj50?authuser=0&hl=en&rclk=1,"26.4637182,74.6304931"
Masjid,Mosque,"FJ8C+329 Masjid, Pushkar Rd, opposite Police Chowki Anasagar, Mahaveer Colony, Ajmer, Rajasthan 305001",Mahaveer Colony,"FJ8C+329, Pushkar Rd, opposite Police Chowki Anasagar",Ajmer,305001,Rajasthan,IN,https://www.google.com/maps/place/Masjid/data=!4m7!3m6!1s0x396be7348cac5ac5:0x65bb1708f0d2597e!8m2!3d26.4651424!4d74.6201247!16s%2Fg%2F11khzd9xqq!19sChIJxVqsjDTnazkRflnS8AgXu2U?authuser=0&hl=en&rclk=1,"26.465142399999998,74.62012469999999"
Masjid,Mosque,"Masjid, police station, near ganj, Ganj, Ajmer, Rajasthan 305001",Ganj,"police station, near ganj",Ajmer,305001,Rajasthan,IN,https://www.google.com/maps/place/Masjid/data=!4m7!3m6!1s0x396be7f471566657:0xbc352974e3a05246!8m2!3d26.4644473!4d74.6303211!16s%2Fg%2F11v02xl_25!19sChIJV2ZWcfTnazkRRlKg43QpNbw?authuser=0&hl=en&rclk=1,"26.4644473,74.6303211"
Masjid,Mosque,"FJ4M+3CH Masjid, opp. Shri Talkies, near Tel, Khari Khui, Ganj, Ajmer, Rajasthan 305001","Khari Khui, Ganj","FJ4M+3CH, opp. Shri Talkies, near Tel",Ajmer,305001,Rajasthan,IN,https://www.google.com/maps/place/Masjid/data=!4m7!3m6!1s0x396be7588ed20f03:0xa6a360192367ee34!8m2!3d26.4551578!4d74.6336705!16s%2Fg%2F11stttkj77!19sChIJAw_SjljnazkRNO5nIxlgo6Y?authuser=0&hl=en&rclk=1,"26.4551578,74.6336705"
Masjid,Mosque,"FJ8G+99 Masjid, Ganj, Ajmer, Rajasthan 305001",Ganj,FJ8G+99,Ajmer,,Rajasthan,IN,https://www.google.com/maps/place/Masjid/data=!4m7!3m6!1s0x396be781d57b0c0d:0x48756f2cc17a5ac8!8m2!3d26.465916!4d74.6258285!16s%2Fg%2F11kpk93t2f!19sChIJDQx71YHnazkRyFp6wSxvdUg?authuser=0&hl=en&rclk=1,"26.465916,74.6258285"
Masjid Mansooriyan,Mosque,"Masjid Mansooriyan, 292, opposite SBI Bank, Parao, Ajmer, Rajasthan 305001",Parao,"292, opposite SBI Bank",Ajmer,305001,Rajasthan,IN,https://www.google.com/maps/place/Masjid+Mansooriyan/data=!4m7!3m6!1s0x396be7fd0e3c5e6b:0x1e2d5991516db49f!8m2!3d26.4677812!4d74.63123!16s%2Fg%2F11kpk982jp!19sChIJa148Dv3nazkRn7RtUZFZLR4?authuser=0&hl=en&rclk=1,"26.467781199999997,74.63123"
Sandali masjid,Mosque,"FJ4H+G6H Sandali masjid, dargah shareef, Diggi Bazaar, Ajmer, Rajasthan 305001","dargah shareef, Diggi Bazaar",FJ4H+G6H,Ajmer,305001,Rajasthan,IN,https://www.google.com/maps/place/Sandali+masjid/data=!4m7!3m6!1s0x396be714f0b0a8c7:0xd12fc385b0f3ee3!8m2!3d26.4563158!4d74.6281166!16s%2Fg%2F11j0t8r5m8!19sChIJx6iw8BTnazkR4z4PWzj8Eg0?authuser=0&hl=en&rclk=1,"26.4563158,74.6281166"
Masjid,Mosque,"FJ3P+R4C Masjid, Ajmer - Bassi Rd, kvnddspuraa, Parao, Ajmer, Rajasthan 305001","kvnddspuraa, Parao","FJ3P+R4C, Ajmer - Bassi Rd",Ajmer,305001,Rajasthan,IN,https://www.google.com/maps/place/Masjid/data=!4m7!3m6!1s0x396be7b73c9f840f:0x6537cb3730a10524!8m2!3d26.4546163!4d74.635263!16s%2Fg%2F11stttbyh8!19sChIJD4SfPLfnazkRJAWhMDfLN2U?authuser=0&hl=en&rclk=1,"26.454616299999998,74.635263"
Masjid Shah Faisal,Mosque,"FJ3F+WV5 Masjid Shah Faisal, Lakhan Kothri, Ajmer, Rajasthan 305001",Lakhan Kothri,FJ3F+WV5,Ajmer,305001,Rajasthan,IN,https://www.google.com/maps/place/Masjid+Shah+Faisal/data=!4m7!3m6!1s0x396be72dc2816b09:0xd722117697ae0ae4!8m2!3d26.4547546!4d74.6247216!16s%2Fg%2F11hz12cdr5!19sChIJCWuBwi3nazkR5Aqul3YRItc?authuser=0&hl=en&rclk=1,"26.454754599999998,74.6247216"
LOTANSHAH MASJID,Mosque,"FJ3H+HMR LOTANSHAH MASJID, PEER ROAD,SHISHA KHAN, Ajmer, 305001",Diggi Bazaar,"FJ3H+HMR, PEER ROAD,SHISHA KHAN",Ajmer,305001,Rajasthan,IN,https://www.google.com/maps/place/LOTANSHAH+MASJID/data=!4m7!3m6!1s0x396be74eca8721b3:0xe0df834d6d5787cf!8m2!3d26.4539954!4d74.6291293!16s%2Fg%2F11q7b9r1ml!19sChIJsyGHyk7nazkRz4dXbU2D3-A?authuser=0&hl=en&rclk=1,"26.4539954,74.6291293"
Shajhani Masjid,Mosque,"CJXQ+XX2 Shajhani Masjid, dargah shareef, Railway Quarters, Ajmer, Rajasthan 305001","dargah shareef, Railway Quarters",CJXQ+XX2,Ajmer,,Rajasthan,IN,https://www.google.com/maps/place/Shajhani+Masjid/data=!4m7!3m6!1s0x396be720098f00bd:0x9515ff7ced450151!8m2!3d26.4498907!4d74.6398935!16s%2Fg%2F11gf9p4yhl!19sChIJvQCPCSDnazkRUQFF7Xz_FZU?authuser=0&hl=en&rclk=1,"26.449890699999997,74.6398935"
msjid cillaa ghr aanaa saagr,Mosque,"FJ9J+96V msjid cillaa ghr aanaa saagr, Ganj, Ajmer, Rajasthan 305001",Ganj,FJ9J+96V,Ajmer,305001,Rajasthan,IN,https://www.google.com/maps/place/%E0%A4%AE%E0%A4%B8%E0%A5%8D%E0%A4%9C%E0%A4%BF%E0%A4%A6+%E0%A4%9A%E0%A4%BF%E0%A4%B2%E0%A5%8D%E0%A4%B2%E0%A4%BE+%E0%A4%98%E0%A4%B0+%E0%A4%86%E0%A4%A8%E0%A4%BE+%E0%A4%B8%E0%A4%BE%E0%A4%97%E0%A4%B0/data=!4m7!3m6!1s0x396be73bb1e08f4f:0x14351ee92bbd8c35!8m2!3d26.4684545!4d74.630466!16s%2Fg%2F11jz116rjy!19sChIJT4_gsTvnazkRNYy9K-keNRQ?authuser=0&hl=en&rclk=1,"26.4684545,74.630466"
Ajmer,Mosque,"FJ5J+23M Ajmer, Nala Bazar Rd, near Dargah Sharif, Dargah Bazar, Ajmer, Rajasthan 305001",Dargah Bazar,"FJ5J+23M, Nala Bazar Rd, near Dargah Sharif",Ajmer,305001,Rajasthan,IN,https://www.google.com/maps/place/Ajmer/data=!4m7!3m6!1s0x396be779b8084e79:0xda65ba1e529d839!8m2!3d26.457626!4d74.630181!16s%2Fg%2F11v9j_fnb9!19sChIJeU4IuHnnazkROdgp5aFbpg0?authuser=0&hl=en&rclk=1,"26.457625999999998,74.630181"
Islam Ganj Masjid,Mosque,"CJPJ+HQX Islam Ganj Masjid, Bhagwan Ganj, Ajay Nagar, Ajmer, Rajasthan 305001","Bhagwan Ganj, Ajay Nagar",CJPJ+HQX,Ajmer,305001,Rajasthan,IN,https://www.google.com/maps/place/Islam+Ganj+Masjid/data=!4m7!3m6!1s0x396be782bc530523:0x4d3d53f29376692c!8m2!3d26.4368125!4d74.6318644!16s%2Fg%2F11sbz136gv!19sChIJIwVTvILnazkRLGl2k_JTPU0?authuser=0&hl=en&rclk=1,"26.4368125,74.6318644"
Masjid,Mosque,"FM83+XHX Masjid, Unnamed Road, Kundan Nagar, Ajmer, Rajasthan 305001",Kundan Nagar,"FM83+XHX, Unnamed Road",Ajmer,305001,Rajasthan,IN,https://www.google.com/maps/place/Masjid/data=!4m7!3m6!1s0x396be7a89155e999:0xd3905f7c45dc25f!8m2!3d26.4674781!4d74.6539745!16s%2Fg%2F11q7ymfwtd!19sChIJmelVkajnazkRX8JdxPcFOQ0?authuser=0&hl=en&rclk=1,"26.467478099999997,74.65397449999999"
Hazrath Anzir Wale,Mosque,"FJ2M+J77 Hazrath Anzir Wale, Usri Gate Rd, Diggi Bazaar, Ajmer, Rajasthan 305001",Diggi Bazaar,"FJ2M+J77, Usri Gate Rd",Ajmer,305001,Rajasthan,IN,https://www.google.com/maps/place/Hazrath+Anzir+Wale/data=!4m7!3m6!1s0x396be718b8edd3ab:0x45c6eec35285627f!8m2!3d26.4515408!4d74.6331851!16s%2Fg%2F11c56rvp_1!19sChIJq9PtuBjnazkRf2KFUsPuxkU?authuser=0&hl=en&rclk=1,"26.4515408,74.63318509999999"
Masjid-E-Bilal,Mosque,"CJ6M+3WJ Masjid-E-Bilal, New, Khanpura, Ajmer, Rajasthan 305001","Khanpura, Sundar Nagar","CJ6M+3WJ, New",Ajmer,305001,Rajasthan,IN,https://www.google.com/maps/place/Masjid-E-Bilal/data=!4m7!3m6!1s0x396be1738ea48245:0x6e25431b90b1c4e!8m2!3d26.4102095!4d74.6347573!16s%2Fg%2F11rj_vs19m!19sChIJRYKkjnPhazkRThwLuTFU4gY?authuser=0&hl=en&rclk=1,"26.4102095,74.63475729999999"
