name,main_category,address,address_ward,address_street,address_city,address_postal_code,address_state,address_country_code,link,coordinates
Kotla Mosque msjd khwttlh,Mosque,"J76X+9CG Kotla Mosque msjd khwttlh, Kotla Village, Mayur Vihar, New Delhi, Delhi, 110091","Kotla Village, Mayur Vihar",J76X+9CG,"New Delhi, Delhi",110091,Delhi,IN,https://www.google.com/maps/place/Kotla+Mosque+%D9%85%D8%B3%D8%AC%D8%AF+%DA%A9%D9%88%D9%B9%D9%84%DB%81%E2%80%AD/data=!4m7!3m6!1s0x390ce4bd25e39f0f:0xfe2551fd00707f0!8m2!3d28.6109416!4d77.2985798!16s%2Fg%2F12hszwgcl!19sChIJD5_jJb3kDDkR8AcH0B9V4g8?authuser=0&hl=en&rclk=1,"28.6109416,77.2985798"
Masjid Alahazrat,Mosque,"R342+CX5 Masjid Alahazrat, b block, JJ Colony, JJ Cluster Colony, Bawana, Delhi, 110039","JJ Colony, JJ Cluster Colony, Bawana","R342+CX5, b block",Delhi,110039,Delhi,IN,https://www.google.com/maps/place/Masjid+Alahazrat/data=!4m7!3m6!1s0x390da833b9909e53:0x7267e7ff8986237f!8m2!3d28.8060016!4d77.0524872!16s%2Fg%2F11bc7f9t38!19sChIJU56QuTOoDTkRfyOGif_nZ3I?authuser=0&hl=en&rclk=1,"28.8060016,77.0524872"
Masjid Badi msjd,Mosque,"Masjid Badi msjd, 893,, Chittli Qabar Bazar Rd, Jama Masjid, Chandni Chowk, New Delhi, Delhi 110006","Bazar Chitli Qabar, Kucha Chelan, Jama Masjid, Chandni Chowk","893,, Chittli Qabar Bazar Rd","New Delhi, Delhi",110006,Delhi,IN,https://www.google.com/maps/place/Masjid+Badi+%D9%85%D8%B3%D8%AC%D8%AF%E2%80%AD/data=!4m7!3m6!1s0x390cfd219cfec1f3:0x93ccacb281d71709!8m2!3d28.645321!4d77.2357133!16s%2Fg%2F12m98gjn5!19sChIJ88H-nCH9DDkRCRfXgbKszJM?authuser=0&hl=en&rclk=1,"28.645321,77.2357133"
Masjid Mashal Chiyan,Mosque,"Masjid Mashal Chiyan, 2100, Pahari Bhojla Rd, Pahari Bhojla, Sita Ram Bazar, Old Delhi, Delhi, 110006","Pahari Bhojla, Sita Ram Bazar, Old Delhi","2100, Pahari Bhojla Rd",Delhi,110006,Delhi,IN,https://www.google.com/maps/place/Masjid+Mashal+Chiyan/data=!4m7!3m6!1s0x390cfd225b6ed379:0x9d5cccd781f0a815!8m2!3d28.6454716!4d77.232231!16s%2Fg%2F11f1211zsv!19sChIJedNuWyL9DDkRFajwgdfMXJ0?authuser=0&hl=en&rclk=1,"28.6454716,77.232231"
Jama Masjid Khetia,Mosque,"MHCM+8CH Jama Masjid Khetia, Khetia, Madhya Pradesh 451881",,MHCM+8CH,Khetia,451881,Madhya Pradesh,IN,https://www.google.com/maps/place/Jama+Masjid+Khetia/data=!4m7!3m6!1s0x3bdf68230ccd8755:0xbc280faf7cebe2b!8m2!3d21.6708108!4d74.5836211!16s%2Fg%2F11bw67z3vd!19sChIJVYfNDCNo3zsRK77O9_qAwgs?authuser=0&hl=en&rclk=1,"21.670810799999998,74.5836211"
Fatima (Khariya) Masjid Rithat,Mosque,"X473+XJ7 Fatima (Khariya) Masjid Rithat, Rithath, Haryana 122108",,X473+XJ7,Rithath,122108,Haryana,IN,https://www.google.com/maps/place/Fatima+%28Khariya%29+Masjid+Rithat/data=!4m7!3m6!1s0x3972d7d209e35093:0x629ffc28b2fa24f!8m2!3d27.9649176!4d77.1040363!16s%2Fg%2F11h781n8cn!19sChIJk1DjCdLXcjkRT6Ivi8L_KQY?authuser=0&hl=en&rclk=1,"27.9649176,77.10403629999999"
Masjid,Mosque,"2633+G4J Masjid, Kukkar Chati, Haryana 121103",,2633+G4J,Kukkar Chati,121103,Haryana,IN,https://www.google.com/maps/place/Masjid/data=!4m7!3m6!1s0x39732b996cfc1043:0xd0b5fc59e74806f1!8m2!3d28.0038399!4d77.2027798!16s%2Fg%2F11f5tcmx0p!19sChIJQxD8bJkrczkR8QZI51n8tdA?authuser=0&hl=en&rclk=1,"28.0038399,77.2027798"
Masjid Chatta Sheikh Manglo,Mosque,"J6XJ+HXC Masjid Chatta Sheikh Manglo, Choori Walan, Kalan Mehal, Chandni Chowk, New Delhi, Delhi, 110002","Choori Walan, Kalan Mehal, Chandni Chowk",J6XJ+HXC,"New Delhi, Delhi",110002,Delhi,IN,https://www.google.com/maps/place/Masjid+Chatta+Sheikh+Manglo/data=!4m7!3m6!1s0x390cfd188c598f69:0x5942000107ab82cb!8m2!3d28.6489319!4d77.2323897!16s%2Fg%2F11gchs9zp4!19sChIJaY9ZjBj9DDkRy4KrBwEAQlk?authuser=0&hl=en&rclk=1,"28.648931899999997,77.2323897"
khastagul Masjid,Mosque,"M7X5+VPJ khastagul Masjid, Street No. 17, Block C, Goutampuri, Shahdara, Delhi, 110053","Block C, Goutampuri, Shahdara","M7X5+VPJ, Street No. 17",Delhi,110053,Delhi,IN,https://www.google.com/maps/place/khastagul+Masjid/data=!4m7!3m6!1s0x390cfc3ee7e64d6b:0x2eaf347ee8a2fd14!8m2!3d28.6997085!4d77.2592707!16s%2Fg%2F11f2w6w5kj!19sChIJa03m5z78DDkRFP2i6H40ry4?authuser=0&hl=en&rclk=1,"28.6997085,77.2592707"
Mr.SAHEEM MALIK,Mosque,"Mr.SAHEEM MALIK, Gali no. 3 - Tirpal Factory Mustafabad, near Ayisha masjid, 25 Futa Rd, near by Aisha Masjid, chowk, Delhi 110094","Shakti Vihar, Old Mustafabad, chowk","Gali no. 3 - Tirpal Factory Mustafabad, near Ayisha masjid, 25 Futa Rd, near by Aisha Masjid",Delhi,110094,Delhi,IN,https://www.google.com/maps/place/Mr.SAHEEM+MALIK/data=!4m7!3m6!1s0x390cfd9a44cd4997:0xffdc8860c53e3f2b!8m2!3d28.7159667!4d77.272238!16s%2Fg%2F11h3cwgc8y!19sChIJl0nNRJr9DDkRKz8-xWCI3P8?authuser=0&hl=en&rclk=1,"28.7159667,77.272238"
chhoti masjid,Mosque,"54P4+9WG chhoti masjid, Rakshera, Haryana 132115",,54P4+9WG,Rakshera,132115,Haryana,IN,https://www.google.com/maps/place/chhoti+masjid/data=!4m7!3m6!1s0x390dca21ef4aa64d:0x9a96bec373c44e3b!8m2!3d29.1859272!4d77.1073209!16s%2Fg%2F11d_bg_1t3!19sChIJTaZK7yHKDTkRO07Ec8O-lpo?authuser=0&hl=en&rclk=1,"29.1859272,77.10732089999999"
Masjid,Mosque,"J7WG+44R Masjid, Shastri Nagar, Geeta Colony, New Delhi, Delhi, 110031","Shastri Nagar, Geeta Colony",J7WG+44R,"New Delhi, Delhi",110031,Delhi,IN,https://www.google.com/maps/place/Masjid/data=!4m7!3m6!1s0x390cfdd602d3790d:0x318c83bff04345b3!8m2!3d28.6453628!4d77.2752524!16s%2Fg%2F11h_7ms07y!19sChIJDXnTAtb9DDkRs0VD8L-DjDE?authuser=0&hl=en&rclk=1,"28.645362799999997,77.2752524"
HADHRAT UMAR MASJID ALMAROOF CHOTI MASJID,Mosque,"HADHRAT UMAR MASJID ALMAROOF CHOTI MASJID, Chotti Masjid, Street number 9, Mulla Colony, Gharoli Extension, Gharoli, Delhi, 110096","Mulla Colony, Gharoli Extension, Gharoli","Chotti Masjid, Street number 9",Delhi,110096,Delhi,IN,https://www.google.com/maps/place/HADHRAT+UMAR+MASJID+ALMAROOF+CHOTI+MASJID/data=!4m7!3m6!1s0x390ce5c6cf830b2f:0x6bb8084dadf0d513!8m2!3d28.6213398!4d77.3314246!16s%2Fg%2F11sy4vfb7s!19sChIJLwuDz8blDDkRE9XwrU0IuGs?authuser=0&hl=en&rclk=1,"28.621339799999998,77.33142459999999"
Kothi wali Masjid,Mosque,"X8P9+2JX Kothi wali Masjid, King Rd, Basaud, Uttar Pradesh 250601",,"X8P9+2JX, King Rd",Basaud,250601,Uttar Pradesh,IN,https://www.google.com/maps/place/Kothi+wali+Masjid/data=!4m7!3m6!1s0x390c51f9daf3c30f:0xf46c7e33d7ee604d!8m2!3d28.9851095!4d77.3191042!16s%2Fg%2F11qnk7jt1s!19sChIJD8Pz2vlRDDkRTWDu1zN-bPQ?authuser=0&hl=en&rclk=1,"28.9851095,77.3191042"
Khetwali Masjid,Mosque,"96HR+WFM Khetwali Masjid, Jahanpur, Kairana, Uttar Pradesh 247774",Jahanpur,96HR+WFM,Kairana,247774,Uttar Pradesh,IN,https://www.google.com/maps/place/Khetwali+Masjid/data=!4m7!3m6!1s0x390c2d6980e4fb4b:0x4e365919cbda13ea!8m2!3d29.3798358!4d77.2411739!16s%2Fg%2F11h256938m!19sChIJS_vkgGktDDkR6hPayxlZNk4?authuser=0&hl=en&rclk=1,"29.3798358,77.24117389999999"
Masjid Bagheechey Wali,Mosque,"Masjid Bagheechey Wali, 5200, Kucha Rehman Gali, New Krishna Cloth Market, Katra Rathi, Chandni Chowk, New Delhi, Delhi, 110006","New Krishna Cloth Market, Katra Rathi, Chandni Chowk","5200, Kucha Rehman Gali","New Delhi, Delhi",110006,Delhi,IN,https://www.google.com/maps/place/Masjid+Bagheechey+Wali/data=!4m7!3m6!1s0x390cfd369091dc93:0x980e7cf6a2accc8a!8m2!3d28.6548146!4d77.2267999!16s%2Fg%2F11jgxc_zvm!19sChIJk9yRkDb9DDkRisysovZ8Dpg?authuser=0&hl=en&rclk=1,"28.654814599999998,77.2267999"
chottii msjid riitthtt,Mosque,"X464+F9X chottii msjid riitthtt, Unnamed Road, Rithath, Haryana 122108",,"X464+F9X, Unnamed Road",Rithath,122108,Haryana,IN,https://www.google.com/maps/place/%E0%A4%9B%E0%A5%8B%E0%A4%9F%E0%A5%80+%E0%A4%AE%E0%A4%B8%E0%A5%8D%E0%A4%9C%E0%A4%BF%E0%A4%A6+%E0%A4%B0%E0%A5%80%E0%A4%A0%E0%A4%9F/data=!4m7!3m6!1s0x3972d7075956f771:0x62db9e76a6ce9de!8m2!3d27.9612418!4d77.1059835!16s%2Fg%2F11rwrgw12t!19sChIJcfdWWQfXcjkR3ulsaue5LQY?authuser=0&hl=en&rclk=1,"27.9612418,77.1059835"
Masjid,Mosque,"Masjid, VIP mohalla, Chhoti masjid, Kaimasa, sector ..11",,"VIP mohalla, Chhoti masjid",Kaimasa,sector ..11,Rajasthan,IN,https://www.google.com/maps/place/Masjid/data=!4m7!3m6!1s0x3972e511b42a73c7:0x1ecf8a4b07eef0a9!8m2!3d27.5365549!4d77.0526529!16s%2Fg%2F11sqc89rv8!19sChIJx3MqtBHlcjkRqfDuB0uKzx4?authuser=0&hl=en&rclk=1,"27.5365549,77.0526529"
Choti masjid,Mosque,"8C47+QX5 Choti masjid, Sarai, Uttar Pradesh 251309",,8C47+QX5,Sarai,251309,Uttar Pradesh,IN,https://www.google.com/maps/place/Choti+masjid/data=!4m7!3m6!1s0x390c3b4bf4d3a1c5:0x2678d5bc6edbb541!8m2!3d29.3076147!4d77.4157123!16s%2Fg%2F11k4w9_t68!19sChIJxaHT9Es7DDkRQbXbbrzVeCY?authuser=0&hl=en&rclk=1,"29.3076147,77.4157123"
Masjid,Mosque,"Shop No: 5035, Masjid, Netaji Subhash Marg, Daryaganj, New Delhi, Delhi, 110002",Daryaganj,"Shop No: 5035, Netaji Subhash Marg","New Delhi, Delhi",110002,Delhi,IN,https://www.google.com/maps/place/Masjid/data=!4m7!3m6!1s0x390cfdf175041b95:0x8ef57a2bc9f92c1c!8m2!3d28.6480954!4d77.2403964!16s%2Fg%2F11s664lvxh!19sChIJlRsEdfH9DDkRHCz5ySt69Y4?authuser=0&hl=en&rclk=1,"28.6480954,77.2403964"
