name,main_category,address,address_ward,address_street,address_city,address_postal_code,address_state,address_country_code,link,coordinates
Jama Masjid,Mosque,"Jama Masjid, Old Delhi, Delhi, 110006","Jama Masjid, Old Delhi",,Delhi,110006,Delhi,IN,https://www.google.com/maps/place/Jama+Masjid/data=!4m7!3m6!1s0x390cfd18df89b215:0xdd57369e29bf9d96!8m2!3d28.6506792!4d77.2334421!16zL20vMDR5emo1!19sChIJFbKJ3xj9DDkRlp2_KZ42V90?authuser=0&hl=en&rclk=1,"28.6506792,77.23344209999999"
Akshardham,Hindu temple,"Akshardham, Noida Mor, Pandav Nagar, New Delhi, Delhi, 110092","Noida Mor, Pandav Nagar",,"New Delhi, Delhi",110092,Delhi,IN,https://www.google.com/maps/place/Akshardham/data=!4m7!3m6!1s0x390ce35b9975b1fb:0x69a09f265ef3b22a!8m2!3d28.6126735!4d77.2772619!16zL20vMDkxbmYx!19sChIJ-7F1mVvjDDkRKrLzXiafoGk?authuser=0&hl=en&rclk=1,"28.6126735,77.2772619"
Anand Vihar Terminal,Train station,"Anand Vihar Terminal, Footover Bridge, Plot Alpha, Isbt Anand Vihar, Anand Vihar, Delhi, 110092","Plot Alpha, Isbt Anand Vihar, Anand Vihar",Footover Bridge,Delhi,110092,Delhi,IN,https://www.google.com/maps/place/Anand+Vihar+Terminal/data=!4m7!3m6!1s0x390cfb3eaa16bd93:0x554673eb4066c794!8m2!3d28.6488339!4d77.3153465!16s%2Fm%2F0c3zht6!19sChIJk70Wqj77DDkRlMdmQOtzRlU?authuser=0&hl=en&rclk=1,"28.6488339,77.31534649999999"
Fatehpuri Masjid,Mosque,"Fatehpuri Masjid, 39, Chandni Chowk Rd, Fatehpuri, Chandni Chowk, New Delhi, Delhi, 110006","Fatehpuri, Chandni Chowk","39, Chandni Chowk Rd","New Delhi, Delhi",110006,Delhi,IN,https://www.google.com/maps/place/Fatehpuri+Masjid/data=!4m7!3m6!1s0x390cfd12236c41c7:0x5f3e70ba058095f!8m2!3d28.6566489!4d77.2227706!16s%2Fm%2F0532f6p!19sChIJx0FsIxL9DDkRXwlYoAvn8wU?authuser=0&hl=en&rclk=1,"28.6566489,77.22277059999999"
"Ghausia Masjid, Jasola",Mosque,"Ghausia Masjid, Jasola, 171, Jasola, Jasola Vihar, New Delhi, Delhi 110025","Jasola, Jasola Vihar",171,New Delhi,110025,Delhi,IN,"https://www.google.com/maps/place/Ghausia+Masjid,+Jasola/data=!4m7!3m6!1s0x390ce5c200a37205:0xfebb591e8a3c8619!8m2!3d28.5488829!4d77.2921906!16s%2Fg%2F11nl7bc3f7!19sChIJBXKjAMLlDDkRGYY8ih5Zu_4?authuser=0&hl=en&rclk=1","28.5488829,77.2921906"
Ajmeri Gate Extn. Post Office,Post office,"J6VH+CFQ Ajmeri Gate Extn. Post Office, Asaf Ali Rd, behind LIC Building, Kalyanpura, Ajmeri Gate, New Delhi, Delhi, 110002","Kalyanpura, Ajmeri Gate","J6VH+CFQ, Asaf Ali Rd, behind LIC Building","New Delhi, Delhi",110002,Delhi,IN,https://www.google.com/maps/place/Ajmeri+Gate+Extn.+Post+Office/data=!4m7!3m6!1s0x390cfd3ccddaf199:0x862d5a12d033d8e2!8m2!3d28.6435983!4d77.2287194!16s%2Fg%2F12mkz5_5r!19sChIJmfHazTz9DDkR4tgz0BJaLYY?authuser=0&hl=en&rclk=1,"28.643598299999997,77.2287194"
Madrasa e Gausia,Place of worship,"Madrasa e Gausia, 110091, Patparganj, New Delhi, Delhi","Patparganj, Mayur Vihar",110091,"New Delhi, Delhi",,Delhi,IN,https://www.google.com/maps/place/Madrasa+e+Gausia/data=!4m7!3m6!1s0x390ce4a3f0f0ea87:0x85582ea65df38387!8m2!3d28.6128493!4d77.2930797!16s%2Fg%2F11f120vryt!19sChIJh-rw8KPkDDkRh4PzXaYuWIU?authuser=0&hl=en&rclk=1,"28.612849299999997,77.29307969999999"
Appayan Sweets,Sweet shop,"228, Appayan Sweets, Ground Floor, opposite Kabristan Masjid, Anand Vihar, Patparganj, New Delhi, Ghaziabad, Delhi 110091","Anand Vihar, Patparganj","228, Ground Floor, opposite Kabristan Masjid","New Delhi, Ghaziabad",110091,Delhi,IN,https://www.google.com/maps/place/Appayan+Sweets/data=!4m7!3m6!1s0x390cfb1cf88bc0d5:0x4874c967cf267718!8m2!3d28.6422112!4d77.3198673!16s%2Fg%2F11v0rh_rst!19sChIJ1cCL-Bz7DDkRGHcmz2fJdEg?authuser=0&hl=en&rclk=1,"28.6422112,77.3198673"
Sunehri Masjid,Mosque,"M62Q+5QW Sunehri Masjid, Nishad Raj Marg, Lal Qila, Old Delhi, New Delhi, Delhi, 110006","Lal Qila, Old Delhi","M62Q+5QW, Nishad Raj Marg","New Delhi, Delhi",110006,Delhi,IN,https://www.google.com/maps/place/Sunehri+Masjid/data=!4m7!3m6!1s0x390cfd1e2ed1ec0d:0xb341e6c5c83f65e7!8m2!3d28.650487!4d77.2394481!16s%2Fm%2F0zwr167!19sChIJDezRLh79DDkR52U_yMXmQbM?authuser=0&hl=en&rclk=1,"28.650487,77.23944809999999"
Masjid Moth,Mosque,"Masjid Moth, 92, Masjid Moth Rd, South Extension II, Masjid Moth Village, New Delhi, Delhi 110049","South Extension II, Masjid Moth Village","92, Masjid Moth Rd",New Delhi,110049,Delhi,IN,https://www.google.com/maps/place/Masjid+Moth/data=!4m7!3m6!1s0x390ce242799950e9:0xb2f0ba5418b140f8!8m2!3d28.562458!4d77.2176906!16s%2Fm%2F05zxh9f!19sChIJ6VCZeULiDDkR-ECxGFS68LI?authuser=0&hl=en&rclk=1,"28.562458,77.2176906"
Ek Minar Masjid,Mosque,"Ek Minar Masjid, 12/436, Vikas Ln, Lalita Park, Laxmi Nagar, New Delhi, Delhi, 110092","Lalita Park, Laxmi Nagar","12/436, Vikas Ln","New Delhi, Delhi",110092,Delhi,IN,https://www.google.com/maps/place/Ek+Minar+Masjid/data=!4m7!3m6!1s0x390cfcb2fd923a99:0x4c37538efb977cad!8m2!3d28.6302576!4d77.2731939!16s%2Fg%2F1tk219ct!19sChIJmTqS_bL8DDkRrXyX-45TN0w?authuser=0&hl=en&rclk=1,"28.6302576,77.2731939"
Khirki Masjid,Mosque,"Khirki Masjid, A 107, near Khirki Masjid, Malviya Nagar, Delhi 110017","Khirki Extension, Khidki Village, Malviya Nagar","A 107, near Khirki Masjid",New Delhi,110017,Delhi,IN,https://www.google.com/maps/place/Khirki+Masjid/data=!4m7!3m6!1s0x390ce18a834f5b11:0xe3e0b2844b3bf52a!8m2!3d28.5315029!4d77.219719!16s%2Fm%2F06415vc!19sChIJEVtPg4rhDDkRKvU7S4Sy4OM?authuser=0&hl=en&rclk=1,"28.5315029,77.219719"
Park End Masjid,Mosque,"Park End Masjid, near Metro Pillar Number 104, New Rajdhani Enclave, Shahdara, New Delhi, Delhi, 110092","New Rajdhani Enclave, Shahdara",near Metro Pillar Number 104,"New Delhi, Delhi",110092,Delhi,IN,https://www.google.com/maps/place/Park+End+Masjid/data=!4m7!3m6!1s0x390cfb5abbc2f5b7:0x7f34cc994eb81c3e!8m2!3d28.6436258!4d77.2974773!16s%2Fg%2F1w_vlnfq!19sChIJt_XCu1r7DDkRPhy4TpnMNH8?authuser=0&hl=en&rclk=1,"28.6436258,77.2974773"
Moti Masjid,Mosque,"M64V+P7J Moti Masjid, Lal Qila, Old Delhi, New Delhi, Delhi, 110006","Lal Qila, Old Delhi",M64V+P7J,"New Delhi, Delhi",110006,Delhi,IN,https://www.google.com/maps/place/Moti+Masjid/data=!4m7!3m6!1s0x390cfce252446dcd:0xdd83160d9aa6cbf1!8m2!3d28.6568443!4d77.2431421!16zL20vMDZ2cV92!19sChIJzW1EUuL8DDkR8cummg0Wg90?authuser=0&hl=en&rclk=1,"28.6568443,77.2431421"
Anar Wali Masjid,Mosque,"Anar Wali Masjid, 122, Street Number 2, West Jawahar Park, Block G, Vishwakarma Park, Laxmi Nagar, New Delhi, Delhi, 110092","West Jawahar Park, Block G, Vishwakarma Park, Laxmi Nagar","122, Street Number 2","New Delhi, Delhi",110092,Delhi,IN,https://www.google.com/maps/place/Anar+Wali+Masjid/data=!4m7!3m6!1s0x390cfcb043192955:0x3eccb49dffe238b4!8m2!3d28.6388561!4d77.2723811!16s%2Fg%2F11c5t2ykg6!19sChIJVSkZQ7D8DDkRtDji_520zD4?authuser=0&hl=en&rclk=1,"28.638856099999998,77.27238109999999"
"Jama Masjid, Kaushambi",Mosque,"Jama Masjid, Kaushambi, near Metro Station, Ram Nagar, Kaushambi, Ghaziabad, Uttar Pradesh 201011","Ram Nagar, Kaushambi",near Metro Station,Ghaziabad,201011,Uttar Pradesh,IN,"https://www.google.com/maps/place/Jama+Masjid,+Kaushambi/data=!4m7!3m6!1s0x390cfb28abab2507:0x74ba6af7f5ec80db!8m2!3d28.6447708!4d77.3270351!16s%2Fg%2F11xxm9jwb!19sChIJByWrqyj7DDkR24Ds9fdqunQ?authuser=0&hl=en&rclk=1","28.6447708,77.3270351"
Jumma Masjid - Anand,Mosque,"Jumma Masjid - Anand, Juna Dadar, near Railway Station, Anand, Gujarat 388001","Ganesh Chokdi, Sardar Ganj","Juna Dadar, near Railway Station",Anand,388001,Gujarat,IN,https://www.google.com/maps/place/Jumma+Masjid+-+Anand/data=!4m7!3m6!1s0x395e4e999ac4e039:0xadb8219ad5c9ef70!8m2!3d22.5617733!4d72.9649866!16s%2Fg%2F1pyqflslt!19sChIJOeDEmplOXjkRcO_J1ZohuK0?authuser=0&hl=en&rclk=1,"22.5617733,72.9649866"
Madina Jama Masjid,Mosque,"Madina Jama Masjid, H - Block Madina Jama Masjid, Shakurpur Colony, Shakurpur, Delhi, 110034","Block H, Shakurpur Colony, Shakurpur",H - Block Madina Jama Masjid,Delhi,110034,Delhi,IN,https://www.google.com/maps/place/Madina+Jama+Masjid/data=!4m7!3m6!1s0x390d03cb3afde435:0xa3b3ed7ff7773fb9!8m2!3d28.6884812!4d77.1480353!16s%2Fg%2F12lrm5dhs!19sChIJNeT9OssDDTkRuT9393_ts6M?authuser=0&hl=en&rclk=1,"28.6884812,77.14803529999999"
Masjid Gareeb Nawaz,Mosque,"Masjid Gareeb Nawaz, R248, Ramesh Park Street Number 11, Laxmi Nagar, New Delhi, Delhi 110092","Block N, Vishwakarma Park, Laxmi Nagar","R248, Ramesh Park Street Number 11","New Delhi, Delhi",110092,Delhi,IN,https://www.google.com/maps/place/Masjid+Gareeb+Nawaz/data=!4m7!3m6!1s0x390cfcb1ec55b323:0xa19fca173b889cac!8m2!3d28.635147!4d77.2737643!16s%2Fg%2F11c0vk03wd!19sChIJI7NV7LH8DDkRrJyIOxfKn6E?authuser=0&hl=en&rclk=1,"28.635147,77.2737643"
Farqunda Jhilmil Masjid,Mosque,"M8C4+WPH Farqunda Jhilmil Masjid, Jhilmil Colony, Pratap Khand, Shahdara, New Delhi, Delhi 110095","Pratap Khand, Shahdara","M8C4+WPH, Jhilmil Colony","New Delhi, Delhi",110095,Delhi,IN,https://www.google.com/maps/place/Farqunda+Jhilmil+Masjid/data=!4m7!3m6!1s0x390cfb748108ac1b:0x327bf266fc70b2f3!8m2!3d28.6723219!4d77.3068664!16s%2Fg%2F1tj71zrw!19sChIJG6wIgXT7DDkR87Jw_GbyezI?authuser=0&hl=en&rclk=1,"28.6723219,77.30686639999999"
Meena Masjid,Mosque,"Meena Masjid, Meena Park Society, Bhalej Rd, nr. Evergreen Bakery, opp. Ismail Nagar, Memon Colony, Ismaile Nagar, Gamdi, Anand, Gujarat 388001","Memon Colony, Ismaile Nagar, Gamdi","Meena Park Society, Bhalej Rd, nr. Evergreen Bakery, opp. Ismail Nagar",Anand,388001,Gujarat,IN,https://www.google.com/maps/place/Meena+Masjid/data=!4m7!3m6!1s0x395e4e9440ddb4b7:0xf61dcfba4ebd35d0!8m2!3d22.5716451!4d72.9655373!16s%2Fg%2F11rr_5qf5!19sChIJt7TdQJROXjkR0DW9TrrPHfY?authuser=0&hl=en&rclk=1,"22.571645099999998,72.9655373"
Masjid Shiekh Gamo (Furqania Masjid),Mosque,"M599+P9G Masjid Shiekh Gamo (Furqania Masjid), Old Rohtak Rd, Daya Basti, New Delhi, Delhi, 110052",Daya Basti,"M599+P9G, Old Rohtak Rd","New Delhi, Delhi",110052,Delhi,IN,https://www.google.com/maps/place/Masjid+Shiekh+Gamo+%28Furqania+Masjid%29/data=!4m7!3m6!1s0x390d025e890c942b:0xc9a46bdfd2d5d0c8!8m2!3d28.6693059!4d77.1684408!16s%2Fg%2F1262jslnf!19sChIJK5QMiV4CDTkRyNDV0t9rpMk?authuser=0&hl=en&rclk=1,"28.669305899999998,77.1684408"
Masjid e Inam,Mosque,"HX85+J9X Masjid e Inam, 100 Feet Rd, Green Park Society, Nanikhodiyar, Anand, Gujarat 388001","Green Park Society, Nanikhodiyar","HX85+J9X, 100 Feet Rd",Anand,388001,Gujarat,IN,https://www.google.com/maps/place/Masjid+e+Inam/data=!4m7!3m6!1s0x395e4e91d318f757:0x6183e6765f74afde!8m2!3d22.5666108!4d72.9584808!16s%2Fg%2F1thmjd4n!19sChIJV_cY05FOXjkR3q90X3bmg2E?authuser=0&hl=en&rclk=1,"22.5666108,72.9584808"
Masjid Fazle Ilahi msjd fDl lhy,Mosque,"Masjid Fazle Ilahi msjd fDl lhy, B 49 Mehtab Complex, I.P. EXTENTION, Patpar Ganj, Joshi Colony, Mandawli, Fazalpur, Block A, Mandawali, Delhi, 110092","Joshi Colony, Fazalpur, Block A, Mandawali","B 49 Mehtab Complex, I.P. EXTENTION, Patpar Ganj, Joshi Colony, Mandawli",Delhi,110092,Delhi,IN,https://www.google.com/maps/place/Masjid+Fazle+Ilahi+%D9%85%D8%B3%D8%AC%D8%AF+%D9%81%D8%B6%D9%84+%D8%A7%D9%84%DB%81%DB%8C%E2%80%AD/data=!4m7!3m6!1s0x390ce4b377e0b10b:0x76af9e5c313fdb77!8m2!3d28.6286139!4d77.3029804!16s%2Fg%2F11_r0vfs_!19sChIJC7Hgd7PkDDkRd9s_MVyer3Y?authuser=0&hl=en&rclk=1,"28.628613899999998,77.3029804"
Kuan Wali Masjid,Mosque,"No. 39, Kuan Wali Masjid, Gali, Matke Wali Gali, Jafrabad, Shahdara, Delhi, 110053","Jafrabad, Shahdara","No. 39, Gali, Matke Wali Gali",Delhi,110053,Delhi,IN,https://www.google.com/maps/place/Kuan+Wali+Masjid/data=!4m7!3m6!1s0x390cfc6430a2167d:0x21354efd22c84723!8m2!3d28.6816479!4d77.2722716!16s%2Fg%2F11d_779nml!19sChIJfRaiMGT8DDkRI0fIIv1ONSE?authuser=0&hl=en&rclk=1,"28.681647899999998,77.2722716"
Nutan Nagar Masjid,Mosque,"Nutan Nagar Masjid, NutanNagar Society, B/h, Railway Station Rd, Gamdi, Anand, Gujarat 388001",Gamdi,"NutanNagar Society, B/h, Railway Station Rd",Anand,388001,Gujarat,IN,https://www.google.com/maps/place/Nutan+Nagar+Masjid/data=!4m7!3m6!1s0x395e4e9748594fa7:0xce3f85a7180ed69c!8m2!3d22.5654382!4d72.9643933!16s%2Fg%2F11cffh46v!19sChIJp09ZSJdOXjkRnNYOGKeFP84?authuser=0&hl=en&rclk=1,"22.5654382,72.9643933"
Kabir Mandir,Hindu temple,"M644+38W Kabir Mandir, Police Colony, Sarai Khalil, Sadar Bazaar, Delhi, 110006","Police Colony, Sarai Khalil, Sadar Bazaar",M644+38W,Delhi,110006,Delhi,IN,https://www.google.com/maps/place/Kabir+Mandir/data=!4m7!3m6!1s0x390cfd655e3222f7:0x2cb15b0559813967!8m2!3d28.655242!4d77.20582!16s%2Fg%2F11cm02x269!19sChIJ9yIyXmX9DDkRZzmBWQVbsSw?authuser=0&hl=en&rclk=1,"28.655241999999998,77.20582"
Masjid E Abdullah,Mosque,"HXMC+8HP Masjid E Abdullah, GJ SH 60, Near Express Way, Ismaile Nagar, Gamdi, Anand, Gujarat 388001","Ismaile Nagar, Gamdi","HXMC+8HP, GJ SH 60, Near Express Way",Anand,388001,Gujarat,IN,https://www.google.com/maps/place/Masjid+E+Abdullah/data=!4m7!3m6!1s0x395e4ec23c19ea29:0xd17d3093360f332c!8m2!3d22.5833348!4d72.9714435!16s%2Fg%2F1q5bl3v2k!19sChIJKeoZPMJOXjkRLDMPNpMwfdE?authuser=0&hl=en&rclk=1,"22.5833348,72.97144349999999"
Madni Masjid,Mosque,"M75R+XXP Madni Masjid, Sanjay Amar Colony, Vishwas Nagar Extension, Vishwas Nagar, Shahdara, New Delhi, Delhi, 110032","Sanjay Amar Colony, Vishwas Nagar Extension, Vishwas Nagar, Shahdara",M75R+XXP,"New Delhi, Delhi",110032,Delhi,IN,https://www.google.com/maps/place/Madni+Masjid/data=!4m7!3m6!1s0x390cfb64089a9065:0x10905ee27720eab7!8m2!3d28.6599503!4d77.2924668!16s%2Fg%2F11hbvw939_!19sChIJZZCaCGT7DDkRt-ogd-JekBA?authuser=0&hl=en&rclk=1,"28.6599503,77.2924668"
Inayati Masjid,Mosque,"a132, Inayati Masjid, A132, Pocket A, Mayur Vihar Phase II, Patparganj, New Delhi, Delhi, 110091","Pocket A, Mayur Vihar Phase II, Patparganj","a132, A132","New Delhi, Delhi",110091,Delhi,IN,https://www.google.com/maps/place/Inayati+Masjid/data=!4m7!3m6!1s0x390ce4bb25f8c36f:0xa0d251b5e9230397!8m2!3d28.6162024!4d77.2992068!16s%2Fg%2F11b7gmcs_f!19sChIJb8P4JbvkDDkRlwMj6bVR0qA?authuser=0&hl=en&rclk=1,"28.6162024,77.2992068"
Gandhi Nagar Madina Masjid,Mosque,"Gandhi Nagar Madina Masjid, G1853, Multani Mohalla, Gandhi Nagar, Seelampur, Shahdara, New Delhi, Delhi, 110031","Multani Mohalla, Gandhi Nagar, Seelampur, Shahdara",G1853,"New Delhi, Delhi",110031,Delhi,IN,https://www.google.com/maps/place/Gandhi+Nagar+Madina+Masjid/data=!4m7!3m6!1s0x390cfdb3ff4e65ed:0x3e698580608c94fd!8m2!3d28.657263!4d77.2630734!16s%2Fg%2F11g0l47wp9!19sChIJ7WVO_7P9DDkR_ZSMYICFaT4?authuser=0&hl=en&rclk=1,"28.657263,77.2630734"
Bilal Masjid msjd bll,Mosque,"G65V+78X Bilal Masjid msjd bll, Ekta Marg, Block D, Sangam Vihar, New Delhi, Delhi 110080","Block D, Sangam Vihar","G65V+78X, Ekta Marg",New Delhi,110080,Delhi,IN,https://www.google.com/maps/place/Bilal+Masjid+%D9%85%D8%B3%D8%AC%D8%AF+%D8%A8%D9%84%D8%A7%D9%84%E2%80%AD/data=!4m7!3m6!1s0x390ce10afff9b5a3:0xa56d48e1c58f0d29!8m2!3d28.5082298!4d77.2433546!16s%2Fg%2F11f3m968nj!19sChIJo7X5_wrhDDkRKQ2PxeFIbaU?authuser=0&hl=en&rclk=1,"28.5082298,77.2433546"
Masjid Imam-e-Azam BRELVI MOSQUE. msjd mm `Zm,Mosque,"M8XC+53G Masjid Imam-e-Azam BRELVI MOSQUE. msjd mm `Zm, Block M, Sunder Nagri, Dilshad Garden, Delhi, 110093","Block M, Sunder Nagri, Dilshad Garden",M8XC+53G,Delhi,110093,Delhi,IN,https://www.google.com/maps/place/Masjid+Imam-e-Azam+BRELVI+MOSQUE.+%D9%85%D8%B3%D8%AC%D8%AF+%D8%A7%D9%85%D8%A7%D9%85+%D8%A7%D8%B9%D8%B8%D9%85%E2%80%AD/data=!4m7!3m6!1s0x390cfbb9e1457117:0xb795c573859c8845!8m2!3d28.6979361!4d77.3201901!16s%2Fg%2F11c31nngwn!19sChIJF3FF4bn7DDkRRYichXPFlbc?authuser=0&hl=en&rclk=1,"28.6979361,77.32019009999999"
Hazrat Shah Mohd. Farhad Sahib,Mosque,"Hazrat Shah Mohd. Farhad Sahib, 10350, Bagichi Pirji, Ram Bagh Rd, Chitla Gate, Ram Bagh, Gulabi Bagh, New Delhi, Delhi, 110007","Chitla Gate, Ram Bagh, Gulabi Bagh","10350, Bagichi Pirji, Ram Bagh Rd","New Delhi, Delhi",110007,Delhi,IN,https://www.google.com/maps/place/Hazrat+Shah+Mohd.+Farhad+Sahib/data=!4m7!3m6!1s0x390cfd78eeed7a57:0xa09fa30137e82ae!8m2!3d28.6660552!4d77.2021869!16s%2Fg%2F1tg_dfb8!19sChIJV3rt7nj9DDkRroJ-EzD6CQo?authuser=0&hl=en&rclk=1,"28.6660552,77.2021869"
Masjid Shahi risale Wali Deen Diyal Sharma Marg,Mosque,"M6WC+64G Masjid Shahi risale Wali Deen Diyal Sharma Marg, Banarsi Das Estate, Timarpur, Delhi, 110054","Banarsi Das Estate, Timarpur",M6WC+64G,Delhi,110054,Delhi,IN,https://www.google.com/maps/place/Masjid+Shahi+risale+Wali+Deen+Diyal+Sharma+Marg/data=!4m7!3m6!1s0x390cfdc1aa77b457:0xf052226469027d4c!8m2!3d28.6955543!4d77.2203246!16s%2Fg%2F11cmsxz0lh!19sChIJV7R3qsH9DDkRTH0CaWQiUvA?authuser=0&hl=en&rclk=1,"28.695554299999998,77.2203246"
SUNEHRI MASJID JAGATPURI,Mosque,"SUNEHRI MASJID JAGATPURI, F-8, near Parwana Road, Anarkali Garden, Jagat Puri, Krishna Nagar, Delhi, 110051","Anarkali Garden, Jagat Puri, Krishna Nagar","F-8, near Parwana Road",Delhi,110051,Delhi,IN,https://www.google.com/maps/place/SUNEHRI+MASJID+JAGATPURI/data=!4m7!3m6!1s0x390cfb5bf25dccf9:0x4f4a2ebf9f25f585!8m2!3d28.6471912!4d77.2934639!16s%2Fg%2F1ptx91byh!19sChIJ-cxd8lv7DDkRhfUln78uSk8?authuser=0&hl=en&rclk=1,"28.647191199999998,77.29346389999999"
Zakariya Masjid - Anand,Mosque,"Zakariya Masjid - Anand, Polson Dairy Rd, Ganesh Chokdi, Sardar Ganj, Anand, Gujarat 388001","Ganesh Chokdi, Sardar Ganj",Polson Dairy Rd,Anand,388001,Gujarat,IN,https://www.google.com/maps/place/Zakariya+Masjid+-+Anand/data=!4m7!3m6!1s0x395e4e9a1cc74c3b:0xd46d3c158d4ea80a!8m2!3d22.5634171!4d72.9636168!16s%2Fg%2F1v44cc55!19sChIJO0zHHJpOXjkRCqhOjRU8bdQ?authuser=0&hl=en&rclk=1,"22.5634171,72.9636168"
Jama Masjid jagat puri,Mosque,"Jama Masjid jagat puri, F-91, Anarkali Garden, Jagat Puri, Krishna Nagar, Delhi, 110051","Anarkali Garden, Jagat Puri, Krishna Nagar",F-91,Delhi,110051,Delhi,IN,https://www.google.com/maps/place/Jama+Masjid+jagat+puri/data=!4m7!3m6!1s0x390cfb5b8e876d3f:0xb990056f23a3c447!8m2!3d28.6473619!4d77.2938204!16s%2Fg%2F11f15jwxyc!19sChIJP22Hjlv7DDkRR8SjI28FkLk?authuser=0&hl=en&rclk=1,"28.6473619,77.2938204"
Banjaran Masjid,Mosque,"M589+QVV Banjaran Masjid, Railway Colony, Zakhira, Delhi, 110052","Railway Colony, Zakhira",M589+QVV,Delhi,110052,Delhi,IN,https://www.google.com/maps/place/Banjaran+Masjid/data=!4m7!3m6!1s0x390d025fb0d8e1eb:0xd49ec5af4262a9ad!8m2!3d28.6669878!4d77.1696649!16s%2Fg%2F11byp6rk1f!19sChIJ6-HYsF8CDTkRraliQq_FntQ?authuser=0&hl=en&rclk=1,"28.666987799999998,77.1696649"
Madina Masjid msjd,Mosque,"J8P3+Q74 Madina Masjid msjd, Street Number 32, Madhu Vihar, I.P.Extension, Patparganj, Delhi, 110092","Madhu Vihar, I.P.Extension, Patparganj","J8P3+Q74, Street Number 32",Delhi,110092,Delhi,IN,https://www.google.com/maps/place/Madina+Masjid+%D9%85%D8%B3%D8%AC%D8%AF%E2%80%AD/data=!4m7!3m6!1s0x390cfb4c0054c027:0x3e29b857103995bf!8m2!3d28.6368878!4d77.303191!16s%2Fg%2F1pp2w_14d!19sChIJJ8BUAEz7DDkRv5U5EFe4KT4?authuser=0&hl=en&rclk=1,"28.6368878,77.303191"
Anand Chole Bhature khadde wali Masjid,Fast food restaurant,"Anand Chole Bhature khadde wali Masjid, U-69, Near Khadde Wali Masjid, Third Pusta Main Rd, Brahampuri, Shahdara, New Delhi, Delhi 110053","Third Pushta, Block A, Brahampuri, Shahdara","U-69, Near Khadde Wali Masjid, Third Pusta Main Rd","New Delhi, Delhi",110053,Delhi,IN,https://www.google.com/maps/place/Anand+Chole+Bhature+khadde+wali+Masjid/data=!4m7!3m6!1s0x390cfc42edf9883b:0xa463601080f0dd71!8m2!3d28.6870355!4d77.2618539!16s%2Fg%2F1pp2vjll6!19sChIJO4j57UL8DDkRcd3wgBBgY6Q?authuser=0&hl=en&rclk=1,"28.6870355,77.26185389999999"
Nagina Masjid Gamdi Road Anand,Mosque,"Nagina Masjid Gamdi Road Anand, Bhavna Colony, Gamdi, Anand, Gujarat 388001","Bhavna Colony, Gamdi",,Anand,388001,Gujarat,IN,https://www.google.com/maps/place/Nagina+Masjid+Gamdi+Road+Anand/data=!4m7!3m6!1s0x395e4ea2190cc563:0x89170e89bb5d24da!8m2!3d22.5595751!4d72.9707807!16s%2Fg%2F11g8wpnthb!19sChIJY8UMGaJOXjkR2iRdu4kOF4k?authuser=0&hl=en&rclk=1,"22.5595751,72.97078069999999"
Masjid e Sahaba,Mosque,"HX93+4W5 Masjid e Sahaba, Sahaba road Anand, Anand",Nanikhodiyar,"HX93+4W5, Sahaba road Anand",Anand,,Gujarat,IN,https://www.google.com/maps/place/Masjid+e+Sahaba/data=!4m7!3m6!1s0x395e4e8e8a100e0b:0xd62a0c4c53e309fc!8m2!3d22.5677627!4d72.9548645!16s%2Fg%2F11b7hg7v_p!19sChIJCw4Qio5OXjkR_AnjU0wMKtY?authuser=0&hl=en&rclk=1,"22.5677627,72.9548645"
Sarvriya Masjid,Mosque,"HX94+4QM Sarvriya Masjid, Nanikhodiyar, Anand, Gujarat 388001",Nanikhodiyar,HX94+4QM,Anand,388001,Gujarat,IN,https://www.google.com/maps/place/Sarvriya+Masjid/data=!4m7!3m6!1s0x395e4e8e16545791:0x27d5f0df4739f3aa!8m2!3d22.5678408!4d72.9569328!16s%2Fg%2F1hf00p5jt!19sChIJkVdUFo5OXjkRqvM5R9_w1Sc?authuser=0&hl=en&rclk=1,"22.5678408,72.95693279999999"
Masjid E Noor E Muhammadi - Anand,Mosque,"HX76+H54 Masjid E Noor E Muhammadi - Anand, 100 Feet Rd, Yogi Swami Society, Ganesh Chokdi, Nanikhodiyar, Anand, Gujarat 388001","Yogi Swami Society, Ganesh Chokdi, Nanikhodiyar","HX76+H54, 100 Feet Rd",Anand,388001,Gujarat,IN,https://www.google.com/maps/place/Masjid+E+Noor+E+Muhammadi+-+Anand/data=!4m7!3m6!1s0x395e4e9075059061:0xa4b5eb923d9c6243!8m2!3d22.5638994!4d72.9604386!16s%2Fg%2F1hdz_snb3!19sChIJYZAFdZBOXjkRQ2KcPZLrtaQ?authuser=0&hl=en&rclk=1,"22.5638994,72.9604386"
Sunni Hussaini Masjid,Mosque,"HX87+GG4 Sunni Hussaini Masjid, Gamdi, Anand, Gujarat 388001",Gamdi,HX87+GG4,Anand,388001,Gujarat,IN,https://www.google.com/maps/place/Sunni+Hussaini+Masjid/data=!4m7!3m6!1s0x395e4e972d381405:0xf71dc360cf2420f9!8m2!3d22.5662564!4d72.9638433!16s%2Fg%2F1tdz7tfr!19sChIJBRQ4LZdOXjkR-SAkz2DDHfc?authuser=0&hl=en&rclk=1,"22.5662564,72.9638433"
Jama Masjid,Mosque,"FPF3+33X Jama Masjid, Bhopa Rd, Civil Lines North, Muzaffarnagar, Uttar Pradesh 251001",Civil Lines North,"FPF3+33X, Bhopa Rd",Muzaffarnagar,251001,Uttar Pradesh,IN,https://www.google.com/maps/place/Jama+Masjid/data=!4m7!3m6!1s0x390c1b74fba0f0e7:0xfbfaba91ac0e5706!8m2!3d29.4727268!4d77.702743!16s%2Fg%2F1hm5msy1b!19sChIJ5_Cg-3QbDDkRBlcOrJG6-vs?authuser=0&hl=en&rclk=1,"29.4727268,77.702743"
Naya Watan Masjid - Anand,Mosque,"HX76+Q94 Naya Watan Masjid - Anand, Bhalej Rd, near Over Bridge, Khatkiwad, Sardar Ganj, Anand, Gujarat 388001","Khatkiwad, Sardar Ganj","HX76+Q94, Bhalej Rd, near Over Bridge",Anand,388001,Gujarat,IN,https://www.google.com/maps/place/Naya+Watan+Masjid+-+Anand/data=!4m7!3m6!1s0x395e4e9087f35c89:0x9eb6e8d0c8811f72!8m2!3d22.5643852!4d72.9609393!16s%2Fg%2F1tmpcb6x!19sChIJiVzzh5BOXjkRch-ByNDotp4?authuser=0&hl=en&rclk=1,"22.5643852,72.96093929999999"
NEW VISION COLONY CHURCH,Church,"JXH7+5GP NEW VISION COLONY CHURCH, New Vision Colony, Bengali Colony, Block D, Naveen Palace, Jharoda Kalan, Delhi, 110043","New Vision Colony, Bengali Colony, Block D, Naveen Palace, Jharoda Kalan",JXH7+5GP,Delhi,110043,Delhi,IN,https://www.google.com/maps/place/NEW+VISION+COLONY+CHURCH/data=!4m7!3m6!1s0x390d0e4caeb4d0cd:0x315a0edb905cea31!8m2!3d28.6279701!4d76.9638335!16s%2Fg%2F1tk61hff!19sChIJzdC0rkwODTkRMepckNsOWjE?authuser=0&hl=en&rclk=1,"28.6279701,76.96383349999999"
Anand Nagar Masjid,Mosque,"Anand Nagar Masjid, 7, Ujjain Rd Taiyyabi Market, Opposite Ujjain Road Bridge, Ujjain Rd, Taiyyabi Market, Opposite Ujjain Road Bridge, Itawa, Dewas, Madhya Pradesh 455001","Taiyyabi Market, Opposite Ujjain Road Bridge, Itawa","7, Ujjain Rd Taiyyabi Market, Opposite Ujjain Road Bridge, Ujjain Rd",Dewas,455001,Madhya Pradesh,IN,https://www.google.com/maps/place/Anand+Nagar+Masjid/data=!4m7!3m6!1s0x3963179817e54f71:0x903d0a35c084f084!8m2!3d22.9724436!4d76.0500217!16s%2Fg%2F11c60m4n1n!19sChIJcU_lF5gXYzkRhPCEwDUKPZA?authuser=0&hl=en&rclk=1,"22.9724436,76.0500217"
Madina Masjid,Mosque,"Madina Masjid, 86, Veer Bazar Rd, Karan Vihar Phase II, Hari Enclave, Sultanpuri, New Delhi, Delhi, 110086","Karan Vihar Phase II, Hari Enclave, Sultanpuri","86, Veer Bazar Rd","New Delhi, Delhi",110086,Delhi,IN,https://www.google.com/maps/place/Madina+Masjid/data=!4m7!3m6!1s0x390d0429d714e0d9:0x4bbcba0a57ec96f0!8m2!3d28.7001299!4d77.0644584!16s%2Fg%2F11c0r4hf2j!19sChIJ2eAU1ykEDTkR8JbsVwq6vEs?authuser=0&hl=en&rclk=1,"28.7001299,77.06445839999999"
Nadiadi Masjid,Mosque,"HX76+JWP Nadiadi Masjid, Khatkiwad, Chandralok Society, Ganesh Chokdi, Sardar Ganj, Anand, Gujarat 388001","Khatkiwad, Chandralok Society, Ganesh Chokdi, Sardar Ganj",HX76+JWP,Anand,388001,Gujarat,IN,https://www.google.com/maps/place/Nadiadi+Masjid/data=!4m7!3m6!1s0x395e4e90a0292793:0xf716cc7cc6e8032d!8m2!3d22.5640781!4d72.9623163!16s%2Fg%2F11g6qtysmz!19sChIJkycpoJBOXjkRLQPoxnzMFvc?authuser=0&hl=en&rclk=1,"22.5640781,72.9623163"
K-BLOCK MASJID,Mosque,"K-BLOCK MASJID, near, Shahi Dairy Rd, Block K, Sunder Nagri, Dilshad Garden, Delhi, 110093","Block K, Sunder Nagri, Dilshad Garden","near, Shahi Dairy Rd",Delhi,110093,Delhi,IN,https://www.google.com/maps/place/K-BLOCK+MASJID/data=!4m7!3m6!1s0x390cfb157568fb07:0x4e5b7cdc8d17103a!8m2!3d28.695333!4d77.3239419!16s%2Fg%2F11g4dbwv_5!19sChIJB_todRX7DDkROhAXjdx8W04?authuser=0&hl=en&rclk=1,"28.695332999999998,77.3239419"
Masjid,Mosque,"M5VR+343 Masjid, State Bank Colony, Kirpal Bagh, Derawal Nagar, Gujranwala Town, Delhi, 110007","State Bank Colony, Kirpal Bagh, Derawal Nagar, Gujranwala Town",M5VR+343,Delhi,110007,Delhi,IN,https://www.google.com/maps/place/Masjid/data=!4m7!3m6!1s0x390d020ba1081bd5:0x663d1c67f0686556!8m2!3d28.692627!4d77.1903109!16s%2Fg%2F11f1dffr2r!19sChIJ1RsIoQsCDTkRVmVo8GccPWY?authuser=0&hl=en&rclk=1,"28.692626999999998,77.1903109"
Masjid E Talha Rd,Mosque,"HXC4+25C Masjid E Talha Rd, Nanikhodiyar, Anand, Gujarat 388001",Nanikhodiyar,HXC4+25C,Anand,388001,Gujarat,IN,https://www.google.com/maps/place/Masjid+E+Talha+Rd/data=!4m7!3m6!1s0x395e4e8dc9342925:0xe7bad36189369fef!8m2!3d22.5700525!4d72.9553898!16s%2Fg%2F11c20b_6yb!19sChIJJSk0yY1OXjkR7582iWHTuuc?authuser=0&hl=en&rclk=1,"22.5700525,72.95538979999999"
Vahora Society Masjid - Anand,Mosque,"Vahora Society Masjid - Anand, Vahora society, Under over bridge, near Panchvati Society, Anand, Gujarat 388001","Panchvati Spciety, Nanikhodiyar","Vahora society, Under over bridge, near Panchvati Society",Anand,388001,Gujarat,IN,https://www.google.com/maps/place/Vahora+Society+Masjid+-+Anand/data=!4m7!3m6!1s0x395e4e9069d78da9:0x9d465ea6ab4dcfb0!8m2!3d22.5650362!4d72.9600256!16s%2Fg%2F11g8tz7sy2!19sChIJqY3XaZBOXjkRsM9Nq6ZeRp0?authuser=0&hl=en&rclk=1,"22.565036199999998,72.9600256"
Jama Masjid,Mosque,"QHCM+557 Jama Masjid, Kalchhina, Uttar Pradesh 245304",,QHCM+557,Kalchhina,245304,Uttar Pradesh,IN,https://www.google.com/maps/place/Jama+Masjid/data=!4m7!3m6!1s0x390c8b40459fc9d3:0xf319b6124570fcfe!8m2!3d28.7704026!4d77.5829158!16s%2Fg%2F11g6b31z2b!19sChIJ08mfRUCLDDkR_vxwRRK2GfM?authuser=0&hl=en&rclk=1,"28.770402599999997,77.5829158"
Sunni Mobin Masjid,Mosque,"HX77+M47 Sunni Mobin Masjid, Polson Dairy Rd, Ganesh Chokdi, Sardar Ganj, Anand, Gujarat 388001","Ganesh Chokdi, Sardar Ganj","HX77+M47, Polson Dairy Rd",Anand,388001,Gujarat,IN,https://www.google.com/maps/place/Sunni+Mobin+Masjid/data=!4m7!3m6!1s0x395e4e90a701548f:0x306febfe61c72e65!8m2!3d22.5641634!4d72.9628102!16s%2Fg%2F11_tcl309!19sChIJj1QBp5BOXjkRZS7HYf7rbzA?authuser=0&hl=en&rclk=1,"22.564163399999998,72.96281019999999"
Masjid E Madni,Mosque,"HXC7+92H Masjid E Madni, Ismaile Nagar, Gamdi, Anand, Gujarat 388001","Ismaile Nagar, Gamdi",HXC7+92H,Anand,388001,Gujarat,IN,https://www.google.com/maps/place/Masjid+E+Madni/data=!4m7!3m6!1s0x395e4e93eb916d89:0x2f159429cb3e347a!8m2!3d22.5709312!4d72.9625943!16s%2Fg%2F11hbl66n63!19sChIJiW2R65NOXjkRejQ-yymUFS8?authuser=0&hl=en&rclk=1,"22.5709312,72.96259429999999"
Riyaz-e-Firdous Masjid,Mosque,"M75X+V7Q Riyaz-e-Firdous Masjid, Unnamed Road, Vishwas Nagar Extension, Vishwas Nagar, Shahdara, Delhi, 110032","Vishwas Nagar Extension, Vishwas Nagar, Shahdara","M75X+V7Q, Unnamed Road",Delhi,110032,Delhi,IN,https://www.google.com/maps/place/Riyaz-e-Firdous+Masjid/data=!4m7!3m6!1s0x390cfb12b4c38d5b:0x543c4dba0caf52e!8m2!3d28.6597039!4d77.298246!16s%2Fg%2F11hyl3sdq1!19sChIJW43DtBL7DDkRLvXKoNvEQwU?authuser=0&hl=en&rclk=1,"28.6597039,77.29824599999999"
Imdadiya Mosque,Mosque,"Imdadiya Mosque, H.No:69, Imdadiya Masjid Road, Shadhara, Delhi, 110095","Leprosy Home Complex, Dilshad Garden","H.No:69, Imdadiya Masjid Road, Shadhara",Delhi,110095,Delhi,IN,https://www.google.com/maps/place/Imdadiya+Mosque/data=!4m7!3m6!1s0x390cfba540718c7b:0xa0b536a25bcd8d52!8m2!3d28.6889383!4d77.3194564!16s%2Fg%2F12hmbzych!19sChIJe4xxQKX7DDkRUo3NW6I2taA?authuser=0&hl=en&rclk=1,"28.6889383,77.31945639999999"
Anarkali Masjid,Mosque,"Anarkali Masjid, 2522, gali, 7, Ajmal Khan Rd, Block 35M, Beadonpura, Karol Bagh, New Delhi, Delhi 110005","Block 35M, Beadonpura, Karol Bagh","2522, gali, 7, Ajmal Khan Rd","New Delhi, Delhi",110005,Delhi,IN,https://www.google.com/maps/place/Anarkali+Masjid/data=!4m7!3m6!1s0x390d029de7d5e375:0x446236a815c55d6f!8m2!3d28.6504427!4d77.1932456!16s%2Fg%2F11g6_72l2r!19sChIJdePV550CDTkRb13FFag2YkQ?authuser=0&hl=en&rclk=1,"28.6504427,77.1932456"
Chhoti Masjid,Mosque,"M654+G93 Chhoti Masjid, Md. Ismail Marg, Chowk Nai Basti, Sadar Bazaar, New Delhi, Delhi, 110006","Chowk Nai Basti, Sadar Bazaar","M654+G93, Md. Ismail Marg","New Delhi, Delhi",110006,Delhi,IN,https://www.google.com/maps/place/Chhoti+Masjid/data=!4m7!3m6!1s0x390cfdafc4f35c57:0x6a497198c209186f!8m2!3d28.6587652!4d77.2059106!16s%2Fg%2F11ghrgcj8y!19sChIJV1zzxK_9DDkRbxgJwphxSWo?authuser=0&hl=en&rclk=1,"28.658765199999998,77.2059106"
Masjid Aqsa,Mosque,"XP7R+6J9 Masjid Aqsa, NH709A, B Block, Jagrati Vihar, Meerut, Uttar Pradesh 250004","B Block, Jagrati Vihar","XP7R+6J9, NH709A",Meerut,250004,Uttar Pradesh,IN,https://www.google.com/maps/place/Masjid+Aqsa/data=!4m7!3m6!1s0x390c654079e12f11:0x20653128532b7453!8m2!3d28.9630362!4d77.7416195!16s%2Fg%2F11k3j6g8r0!19sChIJES_heUBlDDkRU3QrUygxZSA?authuser=0&hl=en&rclk=1,"28.963036199999998,77.7416195"
Baba farid puri Masjid,Mosque,"M569+8MH Baba farid puri Masjid, Nehru Nagar, Anand Parbat, New Delhi, Delhi, 110035","Nehru Nagar, Anand Parbat",M569+8MH,"New Delhi, Delhi",110035,Delhi,IN,https://www.google.com/maps/place/Baba+farid+puri+Masjid/data=!4m7!3m6!1s0x390d033f0268d185:0x4ad28655cc444536!8m2!3d28.6608017!4d77.1692364!16s%2Fg%2F11h0g_mx75!19sChIJhdFoAj8DDTkRNkVEzFWG0ko?authuser=0&hl=en&rclk=1,"28.6608017,77.1692364"
Masjid Kafayatullah,Mosque,"J6WP+5H4 Masjid Kafayatullah, Kucha Chelan, Chandni Mahal, Old Delhi, New Delhi, Delhi, 110002","Kucha Chelan, Chandni Mahal, Old Delhi",J6WP+5H4,"New Delhi, Delhi",110002,Delhi,IN,https://www.google.com/maps/place/Masjid+Kafayatullah/data=!4m7!3m6!1s0x390cfd21a0e634b3:0x6820ba2c491ea56a!8m2!3d28.645394!4d77.2364626!16s%2Fg%2F11dylzx87t!19sChIJszTmoCH9DDkRaqUeSSy6IGg?authuser=0&hl=en&rclk=1,"28.645394,77.2364626"
DarusSalam IbadatGah - Anand,Mosque,"DarusSalam IbadatGah - Anand, Capetown Apartment, 100 Feet Rd, Yogi Swami Society, Nanikhodiyar, Anand, Gujarat 388001","Yogi Swami Society, Nanikhodiyar","Capetown Apartment, 100 Feet Rd",Anand,388001,Gujarat,IN,https://www.google.com/maps/place/DarusSalam+IbadatGah+-+Anand/data=!4m7!3m6!1s0x395e4f19bc5bf815:0xc268cdd54eba5de0!8m2!3d22.5640377!4d72.9573834!16s%2Fg%2F11fdy0g4r_!19sChIJFfhbvBlPXjkR4F26TtXNaMI?authuser=0&hl=en&rclk=1,"22.5640377,72.9573834"
Masjid Houz Wali,Mosque,"Masjid Houz Wali, 5572, Nai Sarak, Katra Rathi, Chandni Chowk, New Delhi, Delhi 110006","New Krishna Cloth Market, Katra Rathi, Chandni Chowk","5572, Nai Sarak","New Delhi, Delhi",110006,Delhi,IN,https://www.google.com/maps/place/Masjid+Houz+Wali/data=!4m7!3m6!1s0x390cfd10f44421cd:0x2a88c9d7e2afe492!8m2!3d28.6553308!4d77.2272676!16s%2Fg%2F12hrqxsg4!19sChIJzSFE9BD9DDkRkuSv4tfJiCo?authuser=0&hl=en&rclk=1,"28.655330799999998,77.22726759999999"
Masjid fidai khan,Mosque,"M58Q+V87 Masjid fidai khan, Azad Rd, Padam Nagar, Sarai Rohilla, Delhi, 110007","Padam Nagar, Sarai Rohilla","M58Q+V87, Azad Rd",Delhi,110007,Delhi,IN,https://www.google.com/maps/place/Masjid+fidai+khan/data=!4m7!3m6!1s0x390d0391a554f241:0x248422b9737a385b!8m2!3d28.6671599!4d77.1882916!16s%2Fg%2F11j126mgsw!19sChIJQfJUpZEDDTkRWzh6c7kihCQ?authuser=0&hl=en&rclk=1,"28.667159899999998,77.1882916"
Masjid -E- Bilal,Mosque,"HXC3+GHX Masjid -E- Bilal, Nanikhodiyar, Anand, Gujarat 388001",Nanikhodiyar,HXC3+GHX,Anand,388001,Gujarat,IN,https://www.google.com/maps/place/Masjid+-E-+Bilal/data=!4m7!3m6!1s0x395e4e8c5983759d:0xeee55a4cadbc4661!8m2!3d22.5713578!4d72.9539818!16s%2Fg%2F11f12r4rtv!19sChIJnXWDWYxOXjkRYUa8rUxa5e4?authuser=0&hl=en&rclk=1,"22.571357799999998,72.9539818"
Aamna Masjid msjd amnh,Mosque,"Aamna Masjid msjd amnh, 21, Jagdish Chandra Marg, Azad Pur, Gujarat Vihar, Swasthya Vihar, Delhi, 110092","Azad Pur, Gujarat Vihar, Swasthya Vihar","21, Jagdish Chandra Marg",Delhi,110092,Delhi,IN,https://www.google.com/maps/place/Aamna+Masjid+%D9%85%D8%B3%D8%AC%D8%AF+%D8%A2%D9%85%D9%86%D9%87%E2%80%AD/data=!4m7!3m6!1s0x390cfb59b660fa8f:0xa85c08bbbcc12282!8m2!3d28.643325!4d77.2898008!16s%2Fg%2F11dx991261!19sChIJj_pgtln7DDkRgiLBvLsIXKg?authuser=0&hl=en&rclk=1,"28.643324999999997,77.2898008"
Mosque Darul Tawhid,Mosque,"858V+RJ4 Mosque Darul Tawhid, Sirohi, Haryana 121004",,858V+RJ4,Sirohi,,Haryana,IN,https://www.google.com/maps/place/Mosque+Darul+Tawhid/data=!4m7!3m6!1s0x390cd94bcfa200ed:0xdf920ba70fcec729!8m2!3d28.3170219!4d77.1940647!16s%2Fg%2F11fjydhrbr!19sChIJ7QCiz0vZDDkRKcfOD6cLkt8?authuser=0&hl=en&rclk=1,"28.3170219,77.1940647"
Masjid-e-khajina,Mosque,"HX84+9C5 Masjid-e-khajina, Nanikhodiyar, Anand, Gujarat 388001",Nanikhodiyar,HX84+9C5,Anand,388001,Gujarat,IN,https://www.google.com/maps/place/Masjid-e-khajina/data=!4m7!3m6!1s0x395e4e8fb46a7733:0x71cccae26aaf3593!8m2!3d22.5658868!4d72.956113!16s%2Fg%2F11g6nqxbdp!19sChIJM3dqtI9OXjkRkzWvauLKzHE?authuser=0&hl=en&rclk=1,"22.565886799999998,72.956113"
Baghwali Masjid msjd bG wly,Mosque,"Baghwali Masjid msjd bG wly, 785, Nicholson Rd, Kashmere Gate, New Delhi, Delhi 110006","Ganda Nala Bazar, Kashmere Gate","785, Nicholson Rd","New Delhi, Delhi",110006,Delhi,IN,https://www.google.com/maps/place/Baghwali+Masjid+%D9%85%D8%B3%D8%AC%D8%AF+%D8%A8%D8%A7%D8%BA+%D9%88%D8%A7%D9%84%DB%8C%E2%80%AD/data=!4m7!3m6!1s0x390cfd092767785b:0xd4966cf4d21cbda8!8m2!3d28.6653187!4d77.2261277!16s%2Fg%2F12llwbr4n!19sChIJW3hnJwn9DDkRqL0c0vRsltQ?authuser=0&hl=en&rclk=1,"28.6653187,77.22612769999999"
Sunni Masjid- E -Gausiyah,Mosque,"HX96+CWH Sunni Masjid- E -Gausiyah, Bismillah Society, Ismaile Nagar, Gamdi, Anand, Gujarat 388001","Bismillah Society, Ismaile Nagar, Gamdi",HX96+CWH,Anand,388001,Gujarat,IN,https://www.google.com/maps/place/Sunni+Masjid-+E+-Gausiyah/data=!4m7!3m6!1s0x395e4e9141e8ce43:0xaf165a538378b2c!8m2!3d22.5685541!4d72.9623508!16s%2Fg%2F1hdzd9grs!19sChIJQ87oQZFOXjkRLIs3OKVl8Qo?authuser=0&hl=en&rclk=1,"22.5685541,72.9623508"
Fatemi Masjid,Mosque,"Fatemi Masjid, 3673, Main Bazar, Sabzi Mandi Rd, New Delhi, Delhi 110007","Arya Pura, Sabzi Mandi Old","3673, Main Bazar, Sabzi Mandi Rd","New Delhi, Delhi",110007,Delhi,IN,https://www.google.com/maps/place/Fatemi+Masjid/data=!4m7!3m6!1s0x390cfd77d6b49cc1:0xb29abba5fdd4f679!8m2!3d28.669022!4d77.2078086!16s%2Fg%2F12lksysp9!19sChIJwZy01nf9DDkRefbU_aW7mrI?authuser=0&hl=en&rclk=1,"28.669022,77.20780859999999"
Qabristan Madarsa,Mosque,"M6C4+HW3 Qabristan Madarsa, Dr Bhim Rao Ambedkar Marg, Block Q, Delhi, 110007",Block Q,"M6C4+HW3, Dr Bhim Rao Ambedkar Marg",Delhi,110007,Delhi,IN,https://www.google.com/maps/place/Qabristan+Madarsa/data=!4m7!3m6!1s0x390cfd17558b0669:0x4143f14130038c68!8m2!3d28.6713934!4d77.2073106!16s%2Fg%2F11h_trx870!19sChIJaQaLVRf9DDkRaIwDMEHxQ0E?authuser=0&hl=en&rclk=1,"28.6713934,77.2073106"
Masjid madarsa taleemul quran,Mosque,"Masjid madarsa taleemul quran, 82, Mutiny Memorial, Civil Lines, New Delhi, Delhi, 110007","Mutiny Memorial, Civil Lines",82,"New Delhi, Delhi",110007,Delhi,IN,https://www.google.com/maps/place/Masjid+madarsa+taleemul+quran/data=!4m7!3m6!1s0x390cfd4faf1e6abf:0x3f1612852c801641!8m2!3d28.6694039!4d77.2138365!16s%2Fg%2F11qyg6smhl!19sChIJv2oer0_9DDkRQRaALIUSFj8?authuser=0&hl=en&rclk=1,"28.6694039,77.2138365"
MASJID AL AQSA,Mosque,"P7VC+V6W MASJID AL AQSA, Ahmed Nagar Nawada, Ghaziabad, Uttar Pradesh 201102",Ahmed Nagar Nawada,P7VC+V6W,Ghaziabad,201102,Uttar Pradesh,IN,https://www.google.com/maps/place/MASJID+AL+AQSA/data=!4m7!3m6!1s0x390cfffd6d518097:0xc0189e2e806aedbf!8m2!3d28.744734!4d77.2705763!16s%2Fg%2F11s0s61f72!19sChIJl4BRbf3_DDkRv-1qgC6eGMA?authuser=0&hl=en&rclk=1,"28.744733999999998,77.2705763"
Masjid umar Farooq,Mosque,"Masjid umar Farooq, Rafiqabad, Mayur Vihar Dasna, Ghaziabad, Uttar Pradesh 201015","Rafiqabad, Mayur Vihar Dasna",,Ghaziabad,201015,Uttar Pradesh,IN,https://www.google.com/maps/place/Masjid+umar+Farooq/data=!4m7!3m6!1s0x390cf327d563e229:0xabd7dea465bfeb4f!8m2!3d28.6846802!4d77.5168078!16s%2Fg%2F11mpj7hwl4!19sChIJKeJj1SfzDDkRT-u_ZaTe16s?authuser=0&hl=en&rclk=1,"28.6846802,77.5168078"
Jamia Masjid Anand Pura Chak No 51,Mosque,"Jamia Masjid Anand Pura Chak No 51, Jamia Mosque, Anandpura Road, Anandpura Chak No 51, Faisalabad, Punjab, Pakistan",,"Jamia Mosque, Anandpura Road",Anandpura Chak No 51,,"Faisalabad, Punjab",PK,https://www.google.com/maps/place/Jamia+Masjid+Anand+Pura+Chak+No+51/data=!4m7!3m6!1s0x3922759d729c6e71:0x9d5ac4d3d39a830b!8m2!3d31.5801409!4d73.4511747!16s%2Fg%2F1tfgh6fl!19sChIJcW6ccp11IjkRC4Oa09PEWp0?authuser=0&hl=en&rclk=1,"31.5801409,73.4511747"
Ansar Apartment 4th Floor (Sobrati Ansari),Mosque,"M5C7+RC2 Ansar Apartment 4th Floor (Sobrati Ansari), Tulsi Nagar, Tri Nagar, Delhi, 110052","Tulsi Nagar, Tri Nagar",M5C7+RC2,Delhi,110052,Delhi,IN,https://www.google.com/maps/place/Ansar+Apartment+4th+Floor+%28Sobrati+Ansari%29/data=!4m7!3m6!1s0x390d035727716979:0xb8877b35b8ba8e86!8m2!3d28.6720107!4d77.1635186!16s%2Fg%2F11spwrm8p6!19sChIJeWlxJ1cDDTkRho66uDV7h7g?authuser=0&hl=en&rclk=1,"28.672010699999998,77.1635186"
Madina Masjid G-Block,Mosque,"Madina Masjid G-Block, G-5/101 gali 6, pusta -5, Sonia Vihar, Delhi","Sultan Puri, SBI Colony, Derawal Nagar, Sonia Vihar","G-5/101 gali 6, pusta -5",Delhi,,Delhi,IN,https://www.google.com/maps/place/Madina+Masjid+G-Block/data=!4m7!3m6!1s0x390cfe93a0c9bd4d:0x7ba5607b53ce9602!8m2!3d28.694057!4d77.1897204!16s%2Fg%2F11f_h_sm1g!19sChIJTb3JoJP-DDkRApbOU3tgpXs?authuser=0&hl=en&rclk=1,"28.694056999999997,77.1897204"
JAMA MASJID NOOR E ILAHI MADARSA AHLESUNNAT TALIMUL QURAAN,Mosque,"JAMA MASJID NOOR E ILAHI MADARSA AHLESUNNAT TALIMUL QURAAN, JAMA MASJID NOOR E ILAHI NAVJEEWAN LEPROSY SAMITI, Taharpur, Dilshad Garden, Delhi, 110095","New Light Colony, Taharpur, Leprosy Home Complex, Dilshad Garden",JAMA MASJID NOOR E ILAHI NAVJEEWAN LEPROSY SAMITI,Delhi,110095,Delhi,IN,https://www.google.com/maps/place/JAMA+MASJID+NOOR+E+ILAHI+MADARSA+AHLESUNNAT+TALIMUL+QURAAN/data=!4m7!3m6!1s0x390cfb8beaa025fd:0x359d1a52a7b0cf96!8m2!3d28.6908456!4d77.3232098!16s%2Fg%2F11rd44dcj7!19sChIJ_SWg6ov7DDkRls-wp1IanTU?authuser=0&hl=en&rclk=1,"28.6908456,77.3232098"
Madina Masjid,Mosque,"P82G+PHJ Madina Masjid, 25 Feet Rd, Bhopura, Ghaziabad, Uttar Pradesh 201005",Bhopura,"P82G+PHJ, 25 Feet Rd",Ghaziabad,201005,Uttar Pradesh,IN,https://www.google.com/maps/place/Madina+Masjid/data=!4m7!3m6!1s0x390cfbb6061d4bd1:0x8ada69103c5b1a73!8m2!3d28.7018282!4d77.3263885!16s%2Fg%2F11c1ql33v6!19sChIJ0UsdBrb7DDkRcxpbPBBp2oo?authuser=0&hl=en&rclk=1,"28.701828199999998,77.3263885"
Kala Masjid,Mosque,"P7MX+9C9 Kala Masjid, Upper Kot, Laxmi Garden, Raj Nagar, Loni, Ghaziabad, Uttar Pradesh 201102","Laxmi Garden, Raj Nagar, Loni","P7MX+9C9, Upper Kot",Ghaziabad,201102,Uttar Pradesh,IN,https://www.google.com/maps/place/Kala+Masjid/data=!4m7!3m6!1s0x390cf933e2e857df:0xef95bfbc576e12e8!8m2!3d28.7334039!4d77.2986247!16s%2Fg%2F11dzt6wysq!19sChIJ31fo4jP5DDkR6BJuV7y_le8?authuser=0&hl=en&rclk=1,"28.7334039,77.29862469999999"
Prachin Durga Mandir,Hindu temple,"M845+PGF Prachin Durga Mandir, Surya Niketan, opp. Anand Vihar, Delhi, 110092","Ram Vihar, Anand Vihar","M845+PGF, Surya Niketan, opp. Anand Vihar",Delhi,110092,Delhi,IN,https://www.google.com/maps/place/Prachin+Durga+Mandir/data=!4m7!3m6!1s0x390cfb6ac5f9aabf:0xc51cd928b2b794a9!8m2!3d28.6568214!4d77.3087891!16s%2Fg%2F11c3yw5m7z!19sChIJv6r5xWr7DDkRqZS3sijZHMU?authuser=0&hl=en&rclk=1,"28.6568214,77.3087891"
Maryam masjid,Mosque,"Q8GJ+VQ9 Maryam masjid, Chirauri, Uttar Pradesh 250221",,Q8GJ+VQ9,Chirauri,250221,Uttar Pradesh,IN,https://www.google.com/maps/place/Maryam+masjid/data=!4m7!3m6!1s0x390cf9800175c0f7:0x1d0e06333e8c3f2b!8m2!3d28.7771642!4d77.3319902!16s%2Fg%2F11jb49zf52!19sChIJ98B1AYD5DDkRKz-MPjMGDh0?authuser=0&hl=en&rclk=1,"28.777164199999998,77.33199019999999"
Anand Paints,Paint store,"Anand Paints, Shop No. 209/31, G Floor, Leela Ram Market, Guneet Kashyap Marg Rd, South Extension II, Masjid Moth, New Delhi, Delhi 110049","South Extension II, Masjid Moth","Shop No. 209/31, G Floor, Leela Ram Market, Guneet Kashyap Marg Rd",New Delhi,110049,Delhi,IN,https://www.google.com/maps/place/Anand+Paints/data=!4m7!3m6!1s0x390ce242f979a079:0x7f9b6a3e9f61e7d6!8m2!3d28.5639136!4d77.2196184!16s%2Fg%2F1xg5r18n!19sChIJeaB5-ULiDDkR1udhnz5qm38?authuser=0&hl=en&rclk=1,"28.5639136,77.2196184"
Pakiza masjid - Anand,Mosque,"HX98+C4V Pakiza masjid - Anand, Pakiza Society, Near Bhalej Over Bridge, Sagar Society, Gamdi, Anand, Gujarat 388001","Sagar Society, Gamdi","HX98+C4V, Pakiza Society, Near Bhalej Over Bridge",Anand,388001,Gujarat,IN,https://www.google.com/maps/place/Pakiza+masjid+-+Anand/data=!4m7!3m6!1s0x395e4f59f74f4169:0xa8b36820acc96466!8m2!3d22.5686101!4d72.9653003!16s%2Fg%2F11sx21x95n!19sChIJaUFP91lPXjkRZmTJrCBos6g?authuser=0&hl=en&rclk=1,"22.568610099999997,72.9653003"
Gosiyan masjid msjd,Mosque,"M6C3+6MM Gosiyan masjid msjd, Arya Pura, Sabzi Mandi Old, Delhi, 110007","Arya Pura, Sabzi Mandi Old",M6C3+6MM,Delhi,110007,Delhi,IN,https://www.google.com/maps/place/Gosiyan+masjid+%D9%85%D8%B3%D8%AC%D8%AF%E2%80%AD/data=!4m7!3m6!1s0x390cfd5ef95c48f9:0x4f3b43266a74c420!8m2!3d28.6705759!4d77.2041848!16s%2Fg%2F11g4db0xfq!19sChIJ-Uhc-V79DDkRIMR0aiZDO08?authuser=0&hl=en&rclk=1,"28.6705759,77.2041848"
Bismillah Masjid,Mosque,"P7RF+86C Bismillah Masjid, Unnamed Road, Ved Vihar, Ghaziabad, Uttar Pradesh 201102",Ved Vihar,"P7RF+86C, Unnamed Road",Ghaziabad,201102,Uttar Pradesh,IN,https://www.google.com/maps/place/Bismillah+Masjid/data=!4m7!3m6!1s0x390cff8352e82349:0xf3485704d653579f!8m2!3d28.7408147!4d77.2730193!16s%2Fg%2F11gxs523p0!19sChIJSSPoUoP_DDkRn1dT1gRXSPM?authuser=0&hl=en&rclk=1,"28.740814699999998,77.2730193"
Kuan wali gali,Housing society,"M7W5+F9W Kuan wali gali, Gamri Village, N Ghonda Rd, Block C, Bhajanpura, Shahdara, Delhi, 110053","Block C, Bhajanpura, Shahdara","M7W5+F9W, Gamri Village, N Ghonda Rd",Delhi,110053,Delhi,IN,https://www.google.com/maps/place/Kuan+wali+gali/data=!4m7!3m6!1s0x390cfdfec88ab0bd:0xd6ef637451a83e6b!8m2!3d28.696241!4d77.2584545!16s%2Fg%2F11m_f0gqng!19sChIJvbCKyP79DDkRaz6oUXRj79Y?authuser=0&hl=en&rclk=1,"28.696240999999997,77.2584545"
Noorani Masjid - Anand,Mosque,"HX76+JQW Noorani Masjid - Anand, Khatkiwad Rd, near Railway Fatak, Ganesh Chokdi, Sardar Ganj, Anand, Gujarat 388001","Ganesh Chokdi, Sardar Ganj","HX76+JQW, Khatkiwad Rd, near Railway Fatak",Anand,388001,Gujarat,IN,https://www.google.com/maps/place/Noorani+Masjid+-+Anand/data=!4m7!3m6!1s0x395e4f1438b9c64b:0x8f4f63b9b07724a7!8m2!3d22.5641018!4d72.9619624!16s%2Fg%2F11qp267sr8!19sChIJS8a5OBRPXjkRpyR3sLljT48?authuser=0&hl=en&rclk=1,"22.5641018,72.96196239999999"
Mustafa raja masjid,Mosque,"Mustafa raja masjid, 244, Sanjay Amar Colony, Vishwas Nagar Extension, Vishwas Nagar, Shahdara, New Delhi, Delhi, 110032","Sanjay Amar Colony, Vishwas Nagar Extension, Vishwas Nagar, Shahdara",244,"New Delhi, Delhi",110032,Delhi,IN,https://www.google.com/maps/place/Mustafa+raja+masjid/data=!4m7!3m6!1s0x390cfbb8e589a479:0x90047cda0669b89f!8m2!3d28.658667!4d77.295277!16s%2Fg%2F11rd8_rgf1!19sChIJeaSJ5bj7DDkRn7hpBtp8BJA?authuser=0&hl=en&rclk=1,"28.658666999999998,77.295277"
AQSA  MASJID,Mosque,"Q78G+XVM AQSA  MASJID, Loni, Ghaziabad, Uttar Pradesh 201102",Loni,Q78G+XVM,Ghaziabad,,Uttar Pradesh,IN,https://www.google.com/maps/place/AQSA+%F0%9F%87%A8%F0%9F%87%A8%F0%9F%95%8C+MASJID/data=!4m7!3m6!1s0x390cff5446c67d7f:0x4da4116fca72b58a!8m2!3d28.7674644!4d77.2771707!16s%2Fg%2F11kc8fwvp9!19sChIJf33GRlT_DDkRirVyym8RpE0?authuser=0&hl=en&rclk=1,"28.767464399999998,77.2771707"
Jannatul-nisha Masjid,Mosque,"MGQ6+57V Jannatul-nisha Masjid, Akash Nagar, Rasulpur Sikroda, Ghaziabad, Uttar Pradesh 201015","Akash Nagar, Rasulpur Sikroda",MGQ6+57V,Ghaziabad,,Uttar Pradesh,IN,https://www.google.com/maps/place/Jannatul-nisha+Masjid/data=!4m7!3m6!1s0x390cf3644cb5f8f5:0x575dbc5edc6f9d96!8m2!3d28.6879869!4d77.5106842!16s%2Fg%2F11tg3svzt5!19sChIJ9fi1TGTzDDkRlp1v3F68XVc?authuser=0&hl=en&rclk=1,"28.6879869,77.5106842"
BagH WaLi MaSjiD,Mosque,"QH9H+V5W BagH WaLi MaSjiD, Kalchhina, Uttar Pradesh 245304",,QH9H+V5W,Kalchhina,245304,Uttar Pradesh,IN,https://www.google.com/maps/place/BagH+WaLi+MaSjiD/data=!4m7!3m6!1s0x390c8be15068e897:0x679cbbe473c5ac3b!8m2!3d28.7697305!4d77.5779407!16s%2Fg%2F11h22jk0dw!19sChIJl-hoUOGLDDkRO6zFc-S7nGc?authuser=0&hl=en&rclk=1,"28.769730499999998,77.5779407"
"Masjid Murshadpur, Gulaothi",Mosque,"HQPW+W6P Masjid Murshadpur, Gulaothi, Khudwadhar, Gulaothi, Uttar Pradesh 203408",Khudwadhar,HQPW+W6P,Gulaothi,,Uttar Pradesh,IN,"https://www.google.com/maps/place/Masjid+Murshadpur,+Gulaothi/data=!4m7!3m6!1s0x390c9bde50184261:0x84200412320cc37!8m2!3d28.5873259!4d77.7955933!16s%2Fg%2F11fp9d811m!19sChIJYUIYUN6bDDkRN8wgI0EAQgg?authuser=0&hl=en&rclk=1","28.5873259,77.7955933"
VISHVKARMA MANDIR,Hindu temple,"VISHVKARMA MANDIR, 3/42, Resettlement Colony, Khichripur, Kalyan Puri, New Delhi, Delhi, 110091","Resettlement Colony, Khichripur, Kalyan Puri",3/42,"New Delhi, Delhi",110091,Delhi,IN,https://www.google.com/maps/place/VISHVKARMA+MANDIR/data=!4m7!3m6!1s0x390ce5a67dbd1c93:0x29b07d2cec3db3ea!8m2!3d28.6179266!4d77.3190208!16s%2Fg%2F11rmt0lsrq!19sChIJkxy9fablDDkR6rM97Cx9sCk?authuser=0&hl=en&rclk=1,"28.617926599999997,77.31902079999999"
Madina masjid dash garden,Masonic center,"Madina masjid dash garden, House no 8 block B gali no 13 baprola vihar dash garden najfgard, New Delhi, 110043","Karkar Duma, Karkardooma, Anand Vihar",House no 8 block B gali no 13 baprola vihar dash garden najfgard,"New Delhi, Delhi",110043,Delhi,IN,https://www.google.com/maps/place/Madina+masjid+dash+garden/data=!4m7!3m6!1s0x390cfb0c7e807c27:0x4838edc55745cf26!8m2!3d28.650232!4d77.3027064!16s%2Fg%2F11j0ww7jpn!19sChIJJ3yAfgz7DDkRJs9FV8XtOEg?authuser=0&hl=en&rclk=1,"28.650232,77.30270639999999"
Masjid Goolar Wali,Mosque,"Shop No.63, Masjid Goolar Wali, Farash Khana, Naya Bans, Hauz Qazi, Chandni Chowk, New Delhi, Delhi, 110006","Naya Bans, Hauz Qazi, Chandni Chowk","Shop No.63, Farash Khana","New Delhi, Delhi",110006,Delhi,IN,https://www.google.com/maps/place/Masjid+Goolar+Wali/data=!4m7!3m6!1s0x390cfd3072dbdc31:0xaa5d72e21d4c1f18!8m2!3d28.6547373!4d77.2213612!16s%2Fg%2F11fjy3sfwm!19sChIJMdzbcjD9DDkRGB9MHeJyXao?authuser=0&hl=en&rclk=1,"28.654737299999997,77.22136119999999"
Maryam,Mosque,"M6VC+566 Maryam, Banarsi Das Estate, Timarpur, Delhi, 110054","Banarsi Das Estate, Timarpur",M6VC+566,Delhi,,Delhi,IN,https://www.google.com/maps/place/Maryam/data=!4m7!3m6!1s0x390cfd5e6c8c4b0f:0xb5cc70b4a010f216!8m2!3d28.6929061!4d77.2205015!16s%2Fg%2F11pqgr0q7h!19sChIJD0uMbF79DDkRFvIQoLRwzLU?authuser=0&hl=en&rclk=1,"28.6929061,77.2205015"
Benjamin Yunas,Parsi temple,"Benjamin Yunas, 2234, c/54 Near play ground Ludhiyana, 141008, Issa Nagri, Mohar Singh Nagar, Ludhiana, Punjab","Meena Bazaar, Issa Nagri, Mohar Singh Nagar","2234, c/54 Near play ground Ludhiyana, 141008","Ludhiana, Delhi",,Punjab,IN,https://www.google.com/maps/place/Benjamin+Yunas/data=!4m7!3m6!1s0x390cfd1eeac0b4d7:0xf31b265254e53829!8m2!3d28.6523291!4d77.2363779!16s%2Fg%2F11dd_qsxyv!19sChIJ17TA6h79DDkRKTjlVFImG_M?authuser=0&hl=en&rclk=1,"28.6523291,77.2363779"
Murshid e azam Masjid Anand nagar bharatpur,Mosque,"6FCC+53Q Murshid e azam Masjid Anand nagar bharatpur, Subhash Nagar, Bharatpur, Rajasthan 321001",Subhash Nagar,6FCC+53Q,Bharatpur,321001,Rajasthan,IN,https://www.google.com/maps/place/Murshid+e+azam+Masjid+Anand+nagar+bharatpur/data=!4m7!3m6!1s0x3973a35cbe3866c1:0x3dda9ee8802bcb7f!8m2!3d27.2205795!4d77.4702319!16s%2Fg%2F11srl4l0vy!19sChIJwWY4vlyjczkRf8srgOie2j0?authuser=0&hl=en&rclk=1,"27.2205795,77.4702319"
Public Food Centre,Food bank,"Public Food Centre, SKV, Block A, Anand Nagar, Inderlok, Delhi, 110035","Block A, Anand Nagar, Inderlok",SKV,Delhi,110035,Delhi,IN,https://www.google.com/maps/place/Public+Food+Centre/data=!4m7!3m6!1s0x390d025cfe2e11c1:0xb116e546e96b2555!8m2!3d28.6733177!4d77.168586!16s%2Fg%2F11hfbxw3l1!19sChIJwREu_lwCDTkRVSVr6UblFrE?authuser=0&hl=en&rclk=1,"28.6733177,77.16858599999999"
Masjid-e-Adam,Mosque,"HXC3+RW Masjid-e-Adam, Nanikhodiyar, Anand, Gujarat 388001",Nanikhodiyar,HXC3+RW,Anand,388001,Gujarat,IN,https://www.google.com/maps/place/Masjid-e-Adam/data=!4m7!3m6!1s0x395e4f1018f8fd69:0x906f37f1e7213b52!8m2!3d22.5720935!4d72.9547158!16s%2Fg%2F11smc0w3gs!19sChIJaf34GBBPXjkRUjsh5_E3b5A?authuser=0&hl=en&rclk=1,"22.572093499999998,72.9547158"
Kuen Wali Masjid,Mosque,"Q2GC+3WC Kuen Wali Masjid, Anand Nagar, Sabit gunj, Etawah, Uttar Pradesh 206001","Anand Nagar, Sabit gunj",Q2GC+3WC,Etawah,206001,Uttar Pradesh,IN,https://www.google.com/maps/place/Kuen+Wali+Masjid/data=!4m7!3m6!1s0x3975e1ccf08ef4fb:0x8735d388af90f73c!8m2!3d26.7751922!4d79.0222769!16s%2Fg%2F11flzqc_m2!19sChIJ-_SO8MzhdTkRPPeQr4jTNYc?authuser=0&hl=en&rclk=1,"26.7751922,79.0222769"
Masjid between the road,Mosque,"Masjid between the road, ZB-11/487, MAIN G.T ROAD, DILSHAD GARDEN, Delhi, 110095","Block A, Vikram Enclave, Shalimar Garden","ZB-11/487, MAIN G.T ROAD, DILSHAD GARDEN",Delhi,110095,Delhi,IN,https://www.google.com/maps/place/Masjid+between+the+road/data=!4m7!3m6!1s0x390cfbd4f58f4ecb:0x67ab4731d30984b!8m2!3d28.6888313!4d77.3300333!16s%2Fg%2F11t4l0r1hf!19sChIJy06P9dT7DDkRS5gwHXO0egY?authuser=0&hl=en&rclk=1,"28.6888313,77.3300333"
Masjid police line civil lines tis hazari,Mosque,"Masjid police line civil lines tis hazari, 5, Police Lines, Civil Lines, New Delhi, Delhi, 110007","Police Lines, Civil Lines",5,"New Delhi, Delhi",110007,Delhi,IN,https://www.google.com/maps/place/Masjid+police+line+civil+lines+tis+hazari/data=!4m7!3m6!1s0x390cfd7efb30d011:0x3dc077606f4c8309!8m2!3d28.6691073!4d77.2187044!16s%2Fg%2F11tjff564r!19sChIJEdAw-379DDkRCYNMb2B3wD0?authuser=0&hl=en&rclk=1,"28.6691073,77.2187044"
Shri Parmahans Adwyat Mandir managed by Anandpur Sahib,Place of worship,"Shri Parmahans Adwyat Mandir managed by Anandpur Sahib, J52, Block J, Lajpat Nagar III, Lajpat Nagar, New Delhi, Delhi 110024","Block J, Lajpat Nagar III, Lajpat Nagar",J52,New Delhi,110024,Delhi,IN,https://www.google.com/maps/place/Shri+Parmahans+Adwyat+Mandir+managed+by+Anandpur+Sahib/data=!4m7!3m6!1s0x390ce36011e2291b:0xe6c9f789a6f52653!8m2!3d28.5661021!4d77.2415987!16s%2Fg%2F11h18btkdc!19sChIJGyniEWDjDDkRUyb1pon3yeY?authuser=0&hl=en&rclk=1,"28.5661021,77.2415987"
Masjid,Mosque,"H662+8G4 Masjid, Green Park Ext Rd, Block J, Green Park Extension, Green Park, New Delhi, Delhi 110016","Block J, Green Park Extension, Green Park","H662+8G4, Green Park Ext Rd",New Delhi,110016,Delhi,IN,https://www.google.com/maps/place/Masjid/data=!4m7!3m6!1s0x390ce3053c6f74cf:0x33b8d79c09cb4f99!8m2!3d28.5607743!4d77.2013357!16s%2Fg%2F11krd8fpw7!19sChIJz3RvPAXjDDkRmU_LCZzXuDM?authuser=0&hl=en&rclk=1,"28.5607743,77.2013357"
Aksa Masjid Farooq Yogi Khalifa,Mosque,"Shop No 1, Aksa Masjid Farooq Yogi Khalifa, Garh Rd, opposite Anand Hospital, Damoder Colony, Meerut, Ambedkar Nagar, Uttar Pradesh 250004",Damoder Colony,"Shop No 1, Garh Rd, opposite Anand Hospital","Meerut, Ambedkar Nagar",250004,Uttar Pradesh,IN,https://www.google.com/maps/place/Aksa+Masjid+Farooq+Yogi+Khalifa/data=!4m7!3m6!1s0x390c7b7c8d5d2c49:0x39916ea2e4e9a696!8m2!3d28.9614005!4d77.74639!16s%2Fg%2F11vkncqr5g!19sChIJSSxdjXx7DDkRlqbp5KJukTk?authuser=0&hl=en&rclk=1,"28.9614005,77.74638999999999"
Juned Store,Medical clinic,"Juned Store, 1, Main Market Rd, near Masjid, Anand Vihar, Loni, Ghaziabad, Uttar Pradesh 201102","Anand Vihar, Loni","1, Main Market Rd, near Masjid",Ghaziabad,201102,Uttar Pradesh,IN,https://www.google.com/maps/place/Juned+Store/data=!4m7!3m6!1s0x390cfb098958dc61:0x5b2636a35995f7e3!8m2!3d28.6424174!4d77.3187434!16s%2Fg%2F11sfrswwh4!19sChIJYdxYiQn7DDkR4_eVWaM2Jls?authuser=0&hl=en&rclk=1,"28.6424174,77.3187434"
Masjid Al Iliyas,Mosque,"VV63+J9G Masjid Al Iliyas, Jasora, Uttar Pradesh 250001",,VV63+J9G,Jasora,250001,Uttar Pradesh,IN,https://www.google.com/maps/place/Masjid+Al+Iliyas/data=!4m7!3m6!1s0x390c8108fcfc70f3:0xd56f89b527d5c167!8m2!3d28.8615625!4d77.8534375!16s%2Fg%2F11s09q66wz!19sChIJ83D8_AiBDDkRZ8HVJ7WJb9U?authuser=0&hl=en&rclk=1,"28.861562499999998,77.8534375"
India Post Sansadiya Soudh,Post office,"J6C5+49J India Post Sansadiya Soudh, Gurudwara Rakab Ganj, Pandit Pant Marg Area, Sansad Marg Area, New Delhi, Delhi 110001","Gokul Nagar, Pandit Pant Marg Area, Sansad Marg Area","J6C5+49J, Gurudwara Rakab Ganj",New Delhi,110001,Delhi,IN,https://www.google.com/maps/place/India+Post+Sansadiya+Soudh/data=!4m7!3m6!1s0x390ce35bddc097d9:0xd597d67cda2a5d2a!8m2!3d28.620338!4d77.2083833!16s%2Fg%2F11hzlmm0dr!19sChIJ2ZfA3VvjDDkRKl0q2nzWl9U?authuser=0&hl=en&rclk=1,"28.620338,77.2083833"
Jumma masjid,Mosque,"HX34+789 Jumma masjid, Choksi Bazar, Anand, Gujarat 388001",Choksi Bazar,HX34+789,Anand,388001,Gujarat,IN,https://www.google.com/maps/place/Jumma+masjid/data=!4m7!3m6!1s0x395e4ff3001848d3:0x7f9f05de41c906ab!8m2!3d22.5531402!4d72.9558489!16s%2Fg%2F11shcyv5m4!19sChIJ00gYAPNPXjkRqwbJQd4Fn38?authuser=0&hl=en&rclk=1,"22.553140199999998,72.95584889999999"
Ayesha masjid,Mosque,"Q2WX+WVM Ayesha masjid, Dautai, Uttar Pradesh 245205",,Q2WX+WVM,Dautai,245205,Uttar Pradesh,IN,https://www.google.com/maps/place/Ayesha+masjid/data=!4m7!3m6!1s0x390b792b6b419337:0xca3110de6fa98e3!8m2!3d28.7973469!4d78.0496585!16s%2Fg%2F11tdh7xd69!19sChIJN5NBayt5CzkR45j65g0Roww?authuser=0&hl=en&rclk=1,"28.797346899999997,78.04965849999999"
