name,main_category,address,address_ward,address_street,address_city,address_postal_code,address_state,address_country_code,link,coordinates
Pallapatti Masjid Bawa Fakrudeen Dharga Big Mosque,Mosque,"PV9Q+754 Pallapatti Masjid Bawa Fakrudeen Dharga Big Mosque, Shanagar, Pallapatti, Tamil Nadu 639205",Shanagar,PV9Q+754,Pallapatti,639205,Tamil Nadu,IN,https://www.google.com/maps/place/Pallapatti+Masjid+Bawa+Fakrudeen+Dharga+Big+Mosque/data=!4m7!3m6!1s0x3ba9f51f49fb910d:0x8a4931e6d9be8051!8m2!3d10.7181498!4d77.8879434!16s%2Fg%2F1tfk2wbx!19sChIJDZH7SR_1qTsRUYC-2eYxSYo?authuser=0&hl=en&rclk=1,"10.718149799999999,77.8879434"
Al Juha masjid,Mosque,"PV9W+QM6 Al Juha masjid, Shanagar, Pallapatti, Tamil Nadu 639207",Shanagar,PV9W+QM6,Pallapatti,639207,Tamil Nadu,IN,https://www.google.com/maps/place/Al+Juha+masjid/data=!4m7!3m6!1s0x3ba9f5162ee2ff09:0xea611fd5c693ab27!8m2!3d10.7194102!4d77.8966381!16s%2Fg%2F1hm30m5p_!19sChIJCf_iLhb1qTsRJ6uTxtUfYeo?authuser=0&hl=en&rclk=1,"10.719410199999999,77.89663809999999"
Bus Stand Masjid,Mosque,"PVFR+2CF Bus Stand Masjid, Shanagar, Pallapatti, Tamil Nadu 639205",Shanagar,PVFR+2CF,Pallapatti,639205,Tamil Nadu,IN,https://www.google.com/maps/place/Bus+Stand+Masjid/data=!4m7!3m6!1s0x3ba9f52255f4e2c9:0x20068ec1934409cb!8m2!3d10.7225601!4d77.8910392!16s%2Fg%2F11b6ggkp60!19sChIJyeL0VSL1qTsRywlEk8GOBiA?authuser=0&hl=en&rclk=1,"10.722560099999999,77.8910392"
East Masjid,Mosque,"PV9R+FH9 East Masjid, 106 Big oddai street, near Kilakku Masjid, Shanagar, Pallapatti, Tamil Nadu 639205",Shanagar,"PV9R+FH9, 106 Big oddai street, near Kilakku Masjid",Pallapatti,639205,Tamil Nadu,IN,https://www.google.com/maps/place/East+Masjid/data=!4m7!3m6!1s0x3ba9f51863ef2831:0xbd1c00e3158ece31!8m2!3d10.7191305!4d77.8914091!16s%2Fg%2F11b6g46dqy!19sChIJMSjvYxj1qTsRMc6OFeMAHL0?authuser=0&hl=en&rclk=1,"10.7191305,77.89140909999999"
Shanagar Masjid,Mosque,"PV8W+W42 Shanagar Masjid, Pallapatti, Tamil Nadu 639207",,PV8W+W42,Pallapatti,639207,Tamil Nadu,IN,https://www.google.com/maps/place/Shanagar+Masjid/data=!4m7!3m6!1s0x3ba9f51774da46d3:0x2ea9b72e08dbabb8!8m2!3d10.7172621!4d77.8952795!16s%2Fg%2F11_tmj021!19sChIJ00badBf1qTsRuKvbCC63qS4?authuser=0&hl=en&rclk=1,"10.7172621,77.8952795"
Cellu Meeran Nagar Masjid,Mosque,"Cellu Meeran Nagar Masjid, Major District Road 650, Cellu Merran Nagar, Shanagar, Pallapatti, Tamil Nadu 639207","Cellu Merran Nagar, Shanagar",Major District Road 650,Pallapatti,639207,Tamil Nadu,IN,https://www.google.com/maps/place/Cellu+Meeran+Nagar+Masjid/data=!4m7!3m6!1s0x3ba9f53d82a281c1:0x3d18ab41906e6eb8!8m2!3d10.7208296!4d77.8968086!16s%2Fg%2F11b6_v905b!19sChIJwYGigj31qTsRuG5ukEGrGD0?authuser=0&hl=en&rclk=1,"10.7208296,77.8968086"
Masjid e Abu Bakr Siddique,Mosque,"PV8X+WM2 Masjid e Abu Bakr Siddique, Pallapatti, Tamil Nadu 639207",,PV8X+WM2,Pallapatti,639207,Tamil Nadu,IN,https://www.google.com/maps/place/Masjid+e+Abu+Bakr+Siddique/data=!4m7!3m6!1s0x3ba9f51686a686db:0x52df3951b3735f15!8m2!3d10.7172622!4d77.8991352!16s%2Fg%2F11crzt0fl1!19sChIJ24amhhb1qTsRFV9zs1E531I?authuser=0&hl=en&rclk=1,"10.717262199999999,77.8991352"
Darussalam Masjid,Mosque,"PV8M+HX5 Darussalam Masjid, Darussalam Masjid, Pallapatti, Bus Stand Road, Pallapatti, Tamil Nadu 639205",,"PV8M+HX5, Darussalam Masjid, Pallapatti, Bus Stand Road",Pallapatti,639205,Tamil Nadu,IN,https://www.google.com/maps/place/Darussalam+Masjid/data=!4m7!3m6!1s0x3ba9f51e5750d457:0xb589bb320d578813!8m2!3d10.7163942!4d77.8849829!16s%2Fg%2F11b66byxd7!19sChIJV9RQVx71qTsRE4hXDTK7ibU?authuser=0&hl=en&rclk=1,"10.7163942,77.8849829"
Masjid-e-Hasanathul Jaria (Habib Nagar Masjid),Mosque,"PVCV+H4X Masjid-e-Hasanathul Jaria (Habib Nagar Masjid), Kalish Road, Shanagar, Pallapatti, Tamil Nadu 639205",Shanagar,"PVCV+H4X, Kalish Road",Pallapatti,639205,Tamil Nadu,IN,https://www.google.com/maps/place/Masjid-e-Hasanathul+Jaria+%28Habib+Nagar+Masjid%29/data=!4m7!3m6!1s0x3ba9f522c757d7a7:0x6330f5707d8e7a19!8m2!3d10.7214785!4d77.8928451!16s%2Fg%2F11b6gg2znz!19sChIJp9dXxyL1qTsRGXqOfXD1MGM?authuser=0&hl=en&rclk=1,"10.7214785,77.8928451"
South Masjid,Mosque,"PV8R+W6R South Masjid, Shanagar, Pallapatti, Tamil Nadu 639205",Shanagar,PV8R+W6R,Pallapatti,639205,Tamil Nadu,IN,https://www.google.com/maps/place/South+Masjid/data=!4m7!3m6!1s0x3ba9f518fdbff8e1:0x569f8c353c66766d!8m2!3d10.7173576!4d77.8905223!16s%2Fg%2F11b6g99ztn!19sChIJ4fi__Rj1qTsRbXZmPDWMn1Y?authuser=0&hl=en&rclk=1,"10.7173576,77.8905223"
Masjid Habeeb,Mosque,"PVFW+W6J Masjid Habeeb, Shanagar, Pallapatti, Tamil Nadu 639205",Shanagar,PVFW+W6J,Pallapatti,639205,Tamil Nadu,IN,https://www.google.com/maps/place/Masjid+Habeeb/data=!4m7!3m6!1s0x3ba9f53c9702f7e9:0x24765be93910d6a9!8m2!3d10.7248462!4d77.8955054!16s%2Fg%2F11g9jy5y1c!19sChIJ6fcClzz1qTsRqdYQOelbdiQ?authuser=0&hl=en&rclk=1,"10.7248462,77.89550539999999"
Jannathul Firdouse Masjid,Mosque,"PVCQ+JPQ Jannathul Firdouse Masjid, Shanagar, Pallapatti, Tamil Nadu 639205",Shanagar,PVCQ+JPQ,Pallapatti,639205,Tamil Nadu,IN,https://www.google.com/maps/place/Jannathul+Firdouse+Masjid/data=!4m7!3m6!1s0x3ba9f5223eec0993:0x866bc110149d2f3c!8m2!3d10.7215919!4d77.8893552!16s%2Fg%2F11b6gf59kp!19sChIJkwnsPiL1qTsRPC-dFBDBa4Y?authuser=0&hl=en&rclk=1,"10.7215919,77.8893552"
Madrasa Masjid Pallapatti,Mosque,"PW82+X7H Madrasa Masjid Pallapatti, Pallapatti, Tamil Nadu 639207",,PW82+X7H,Pallapatti,,Tamil Nadu,IN,https://www.google.com/maps/place/Madrasa+Masjid+Pallapatti/data=!4m7!3m6!1s0x3ba9f5143488ef49:0x853c74f1fc356c2b!8m2!3d10.7174424!4d77.9007246!16s%2Fg%2F11gf9q7vmv!19sChIJSe-INBT1qTsRK2w1_PF0PIU?authuser=0&hl=en&rclk=1,"10.7174424,77.90072459999999"
Jamiya Masjid,Mosque,"PV7W+8WW Jamiya Masjid, Pallapatti, Tamil Nadu 639207",,PV7W+8WW,Pallapatti,,Tamil Nadu,IN,https://www.google.com/maps/place/Jamiya+Masjid/data=!4m7!3m6!1s0x3ba9f51122918421:0x7cff9c4944ea0c5a!8m2!3d10.7133603!4d77.8973378!16s%2Fg%2F11h9ysrmr8!19sChIJIYSRIhH1qTsRWgzqREmc_3w?authuser=0&hl=en&rclk=1,"10.7133603,77.8973378"
North Masjid,Mosque,"PVCR+677 North Masjid, Chinnakadai St, Shanagar, Pallapatti, Tamil Nadu 639205",Shanagar,"PVCR+677, Chinnakadai St",Pallapatti,639205,Tamil Nadu,IN,https://www.google.com/maps/place/North+Masjid/data=!4m7!3m6!1s0x3ba9f5227c9e00ed:0xb3c41b8289c591d3!8m2!3d10.7205264!4d77.890683!16s%2Fg%2F11b6g7r2kj!19sChIJ7QCefCL1qTsR05HFiYIbxLM?authuser=0&hl=en&rclk=1,"10.720526399999999,77.890683"
Eidkha,Mosque,"Eidkha, Pallapatti, Tamil Nadu 639205",,,Pallapatti,639205,Tamil Nadu,IN,https://www.google.com/maps/place/Eidkha/data=!4m7!3m6!1s0x3ba9f51ec94028b7:0x4b4268ccb84888f4!8m2!3d10.7159749!4d77.8877369!16s%2Fg%2F11gbtfb87f!19sChIJtyhAyR71qTsR9IhIuMxoQks?authuser=0&hl=en&rclk=1,"10.715974899999999,77.8877369"
Pallapatti New Idgah Grounds,Mosque,"PV8Q+G78 Pallapatti New Idgah Grounds, Shanagar, Pallapatti, Tamil Nadu 639205",Shanagar,PV8Q+G78,Pallapatti,,Tamil Nadu,IN,https://www.google.com/maps/place/Pallapatti+New+Idgah+Grounds/data=!4m7!3m6!1s0x3ba9f51932d1dc21:0x84e7f1f53d2484c9!8m2!3d10.7162932!4d77.8882036!16s%2Fg%2F11f3nlyhfd!19sChIJIdzRMhn1qTsRyYQkPfXx54Q?authuser=0&hl=en&rclk=1,"10.716293199999999,77.8882036"
MUNEER-UL-ISLAM MASJID (SOUTH MASJID),Mosque,"PVCR+PF9 MUNEER-UL-ISLAM MASJID (SOUTH MASJID), terrku mntai teru, Shanagar, Pallapatti, Tamil Nadu 639205",Shanagar,"PVCR+PF9, terrku mntai teru",Pallapatti,639205,Tamil Nadu,IN,https://www.google.com/maps/place/MUNEER-UL-ISLAM+MASJID+%28SOUTH+MASJID%29/data=!4m7!3m6!1s0x3ba9f501bb44d7f5:0x6e62fb437349a814!8m2!3d10.7217943!4d77.8912306!16s%2Fg%2F11pzg6sl23!19sChIJ9ddEuwH1qTsRFKhJc0P7Ym4?authuser=0&hl=en&rclk=1,"10.721794299999999,77.8912306"
Masjid e Usman raliyallahu anhu and deeniyat makthab madharasa,Mosque,"PVCW+53 Masjid e Usman raliyallahu anhu and deeniyat makthab madharasa, Shanagar, Pallapatti, Tamil Nadu 639205",Shanagar,PVCW+53,Pallapatti,,Tamil Nadu,IN,https://www.google.com/maps/place/Masjid+e+Usman+raliyallahu+anhu+and+deeniyat+makthab+madharasa/data=!4m7!3m6!1s0x3ba9f50ffb3d4425:0xc3b4754983b778c!8m2!3d10.7203861!4d77.8952218!16s%2Fg%2F11stz1jyls!19sChIJJUQ9-w_1qTsRjHc7mFRHOww?authuser=0&hl=en&rclk=1,"10.720386099999999,77.8952218"
