name,main_category,address,address_ward,address_street,address_city,address_postal_code,address_state,address_country_code,link,coordinates
Anuprerona foundation,Mosque,"Anuprerona foundation, Putkhali Shariff, Maheshtala, Daulatpur, Khan Para Street, Budge Budge Trunk Rd, Nandarampur, West Bengal 700139",Gumar Gala,"Putkhali Shariff, Maheshtala, Daulatpur, Khan Para Street, Budge Budge Trunk Rd",Nandarampur,700139,West Bengal,IN,https://www.google.com/maps/place/Anuprerona+foundation/data=!4m7!3m6!1s0x3a027c3f4b6a86ed:0xf29d638bfce75fad!8m2!3d22.4877667!4d88.2202203!16s%2Fg%2F11bytn7hs3!19sChIJ7YZqSz98AjoRrV_n_ItjnfI?authuser=0&hl=en&rclk=1,"22.487766699999998,88.2202203"
Eid Gah. SHANK PUKUR iidgaah,Mosque,"F672+W48 Eid Gah. SHANK PUKUR iidgaah, Samanta Para, Budge Budge, Kolkata, Uttar Raypur, West Bengal 700137","Samanta Para, Budge Budge",F672+W48,"Kolkata, Uttar Raypur",700137,West Bengal,IN,https://www.google.com/maps/place/Eid+Gah.+SHANK+PUKUR+%E0%A6%88%E0%A6%A6%E0%A6%97%E0%A6%BE%E0%A6%B9/data=!4m7!3m6!1s0x3a027d070fac41dd:0x57fb4909cdc9e9d3!8m2!3d22.4647796!4d88.200332!16s%2Fg%2F11c70h6bsk!19sChIJ3UGsDwd9AjoR0-nJzQlJ-1c?authuser=0&hl=en&rclk=1,"22.4647796,88.200332"
Baitul Mamur Jame Masjid,Mosque,"Baitul Mamur Jame Masjid, Samanta Para, Budge Budge, Kolkata, Uttar Raypur, West Bengal 700137","Samanta Para, Budge Budge",,"Kolkata, Uttar Raypur",700137,West Bengal,IN,https://www.google.com/maps/place/Baitul+Mamur+Jame+Masjid/data=!4m7!3m6!1s0x3a027d0865d244b3:0xbd34df2899cec538!8m2!3d22.464396!4d88.196533!16s%2Fg%2F11f01lds4d!19sChIJs0TSZQh9AjoROMXOmSjfNL0?authuser=0&hl=en&rclk=1,"22.464396,88.196533"
Poschim Para MOSJID,Mosque,"F57R+FF7 Poschim Para MOSJID, Samanta Para, Budge Budge, Kolkata, Uttar Raypur, West Bengal 700137","Samanta Para, Budge Budge",F57R+FF7,"Kolkata, Uttar Raypur",700137,West Bengal,IN,https://www.google.com/maps/place/Poschim+Para+MOSJID/data=!4m7!3m6!1s0x3a027d0bb51ed877:0xa637d9783f749384!8m2!3d22.4636586!4d88.191187!16s%2Fg%2F11c70f53l2!19sChIJd9getQt9AjoRhJN0P3jZN6Y?authuser=0&hl=en&rclk=1,"22.4636586,88.191187"
Irfan Mollick,Photographer,"Irfan Mollick, Mujibar Rahman Rd, Budge Budge, Pujali, West Bengal 700138",Budge Budge,Mujibar Rahman Rd,Pujali,700138,West Bengal,IN,https://www.google.com/maps/place/Irfan+Mollick/data=!4m7!3m6!1s0x3a0287c34621df63:0xc5880597ca7145ad!8m2!3d22.4500741!4d88.1351536!16s%2Fg%2F11lm7_116t!19sChIJY98hRsOHAjoRrUVxypcFiMU?authuser=0&hl=en&rclk=1,"22.4500741,88.1351536"
Masjid-i-Ayesha,Mosque,"G7FF+PHQ Masjid-i-Ayesha, Kata Potti, Makalhati Mauza, Kolkata, Maheshtala, West Bengal 700066","Kata Potti, Makalhati Mauza",G7FF+PHQ,"Kolkata, Maheshtala",700066,West Bengal,IN,https://www.google.com/maps/place/Masjid-i-Ayesha/data=!4m7!3m6!1s0x3a0279651fb543a7:0x71e7be9d89dd6da2!8m2!3d22.5243375!4d88.2739844!16s%2Fg%2F1ygbb7ppj!19sChIJp0O1H2V5AjoRom3diZ2-53E?authuser=0&hl=en&rclk=1,"22.524337499999998,88.27398439999999"
Chatta Rahamania Masjid,Mosque,"F6HQ+3W5 Chatta Rahamania Masjid, Chatta Kalikapur Kabala Ali Rd, Dakhin Chatta Kalikapukur, Kolkata, Chatta Rameshwarpur, West Bengal 700141",Dakhin Chatta Kalikapukur,"F6HQ+3W5, Chatta Kalikapur Kabala Ali Rd","Kolkata, Chatta Rameshwarpur",700141,West Bengal,IN,https://www.google.com/maps/place/Chatta+Rahamania+Masjid/data=!4m7!3m6!1s0x3a027c7a41c12747:0xe42bec28a07c25c7!8m2!3d22.477628!4d88.2398536!16s%2Fg%2F11ck63g4fn!19sChIJRyfBQXp8AjoRxyV8oCjsK-Q?authuser=0&hl=en&rclk=1,"22.477628,88.23985359999999"
Birlamore Jame Masjid msjd,Mosque,"C5RF+CV6 Birlamore Jame Masjid msjd, Hasnecha, Chandipur, West Bengal 700137",Hasnecha,C5RF+CV6,Chandipur,700137,West Bengal,IN,https://www.google.com/maps/place/Birlamore+Jame+Masjid+%D9%85%D8%B3%D8%AC%D8%AF%E2%80%AD/data=!4m7!3m6!1s0x3a027d5dbc342b81:0x3f9757c7aebe926f!8m2!3d22.4410269!4d88.1746324!16s%2Fg%2F11crzpkbll!19sChIJgSs0vF19AjoRb5K-rsdXlz8?authuser=0&hl=en&rclk=1,"22.4410269,88.1746324"
Masjid E Umar,Mosque,"G66M+7QQ Masjid E Umar, Tentulkuli Road, Atapara, Uludanga, Nangi, Maheshtala, West Bengal 700140","Nangi, Santoshpur","G66M+7QQ, Tentulkuli Road, Atapara, Uludanga",Maheshtala,700140,West Bengal,IN,https://www.google.com/maps/place/Masjid+E+Umar/data=!4m7!3m6!1s0x3a027c1cf26e848d:0xa9bc8cd2d677e90d!8m2!3d22.510709!4d88.2344922!16s%2Fg%2F11dx94q4my!19sChIJjYRu8hx8AjoRDel31tKMvKk?authuser=0&hl=en&rclk=1,"22.510709,88.23449219999999"
Markaz Masjid Charial msjd,Mosque,"Markaz Masjid Charial msjd, 164, Mahatma Gandhi Rd, Benjan Heria, Samanta Para, Budge Budge, Kolkata, West Bengal 700137","Benjan Heria, Samanta Para, Budge Budge","164, Mahatma Gandhi Rd",Kolkata,700137,West Bengal,IN,https://www.google.com/maps/place/Markaz+Masjid+Charial+%D9%85%D8%B3%D8%AC%D8%AF%E2%80%AD/data=!4m7!3m6!1s0x3a027d84e7fe8af3:0x8c8cd65dfc33e3f5!8m2!3d22.4748302!4d88.1766289!16s%2Fg%2F11ckqszv54!19sChIJ84r-54R9AjoR9eMz_F3WjIw?authuser=0&hl=en&rclk=1,"22.4748302,88.1766289"
Kalipur Jama Masjid msjd,Mosque,"F5C8+567 Kalipur Jama Masjid msjd, Budge Budge Trunk Rd, Kalipur, Budge Budge, Kolkata, West Bengal 700137","Kalipur, Budge Budge","F5C8+567, Budge Budge Trunk Rd",Kolkata,700137,West Bengal,IN,https://www.google.com/maps/place/Kalipur+Jama+Masjid+%D9%85%D8%B3%D8%AC%D8%AF%E2%80%AD/data=!4m7!3m6!1s0x3a02877ef6f09917:0x61bcb10fc2212ac0!8m2!3d22.4704128!4d88.1655514!16s%2Fg%2F1hm22_m7j!19sChIJF5nw9n6HAjoRwCohwg-xvGE?authuser=0&hl=en&rclk=1,"22.4704128,88.1655514"
Mojaffar Hossain Khan Masjid,Mosque,"Mojaffar Hossain Khan Masjid, 11/A, DN Ghosh Rd, Samanta Para, Budge Budge, Kolkata, West Bengal 700137","Samanta Para, Budge Budge","11/A, DN Ghosh Rd",Kolkata,700137,West Bengal,IN,https://www.google.com/maps/place/Mojaffar+Hossain+Khan+Masjid/data=!4m7!3m6!1s0x3a027d9682d9e223:0x4a842bd6cd85a7da!8m2!3d22.4843831!4d88.1846178!16s%2Fg%2F1hm3l03s5!19sChIJI-LZgpZ9AjoR2qeFzdYrhEo?authuser=0&hl=en&rclk=1,"22.4843831,88.1846178"
Bhangipara Masjid,Mosque,"Bhangipara Masjid, B-318, Ramdas Hati, bhangipara, Maheshtala, West Bengal 700082","Ramdas Hati, bhangipara",B-318,Maheshtala,,West Bengal,IN,https://www.google.com/maps/place/Bhangipara+Masjid/data=!4m7!3m6!1s0x3a0279742ecfb71b:0x17a7a9892bcf1a9f!8m2!3d22.5336125!4d88.282175!16s%2Fg%2F11bw7k2smc!19sChIJG7fPLnR5AjoRnxrPK4mppxc?authuser=0&hl=en&rclk=1,"22.5336125,88.282175"
Mehmanpur Baro Masjid,Mosque,"F6WP+WG4 Mehmanpur Baro Masjid, Memanpur Hospital road,Middey para, Meman Pur,PO.Vivekanandapally, Maheshtala, West Bengal 700139",Balarampur,"F6WP+WG4, Memanpur Hospital road,Middey para, Meman Pur,PO.Vivekanandapally",Maheshtala,700139,West Bengal,IN,https://www.google.com/maps/place/Mehmanpur+Baro+Masjid/data=!4m7!3m6!1s0x3a027df12d0f686f:0xb5f1d0f64a77924f!8m2!3d22.4972513!4d88.2363202!16s%2Fg%2F11f61wgb7p!19sChIJb2gPLfF9AjoRT5J3SvbQ8bU?authuser=0&hl=en&rclk=1,"22.4972513,88.2363202"
Memanpur Masjid-e- Khadija,Mosque,"G62M+3Q9 Memanpur Masjid-e- Khadija, Balarampur, Maheshtala, West Bengal 700140",Balarampur,G62M+3Q9,Maheshtala,700140,West Bengal,IN,https://www.google.com/maps/place/Memanpur+Masjid-e-+Khadija/data=!4m7!3m6!1s0x3a027c10528ad68d:0xaf41e3169e1c937a!8m2!3d22.5001645!4d88.2344815!16s%2Fg%2F11dxg1l11z!19sChIJjdaKUhB8AjoRepMcnhbjQa8?authuser=0&hl=en&rclk=1,"22.5001645,88.2344815"
Akra Krishnanagar Boro Masjid,Mosque,"G68Q+XVC Akra Krishnanagar Boro Masjid, Akra, Krishnanagar, Maheshtala, West Bengal 700140","Akra, Krishnanagar",G68Q+XVC,Maheshtala,700140,West Bengal,IN,https://www.google.com/maps/place/Akra+Krishnanagar+Boro+Masjid/data=!4m7!3m6!1s0x3a027ea9a46a94a3:0x3233c61a187a4b4!8m2!3d22.5174498!4d88.239637!16s%2Fg%2F11f546ymm9!19sChIJo5RqpKl-AjoRtKSHoWE8IwM?authuser=0&hl=en&rclk=1,"22.517449799999998,88.239637"
Bishukhnara Jumma Masjid,Mosque,"C5XC+GH6 Bishukhnara Jumma Masjid, KP Mondal Rd, buit, Budge Budge, Kolkata, Raypur, West Bengal 700137","buit, Budge Budge","C5XC+GH6, KP Mondal Rd","Kolkata, Raypur",700137,West Bengal,IN,https://www.google.com/maps/place/Bishukhnara+Jumma+Masjid/data=!4m7!3m6!1s0x3a027d63ded6aec3:0xfdf4556112c617c!8m2!3d22.4487943!4d88.1713928!16s%2Fg%2F11c0rqbq1b!19sChIJw67W3mN9AjoRfGEsEVZF3w8?authuser=0&hl=en&rclk=1,"22.4487943,88.17139279999999"
Santoshpur Jumma Masjid msjd,Mosque,"G587+GW4 Santoshpur Jumma Masjid msjd, Sahapur, Santoshpur, Howrah, West Bengal 711310","Sahapur, Santoshpur",G587+GW4,Howrah,711310,West Bengal,IN,https://www.google.com/maps/place/Santoshpur+Jumma+Masjid+%D9%85%D8%B3%D8%AC%D8%AF%E2%80%AD/data=!4m7!3m6!1s0x3a0280ab11ffe49d:0x8c24fd977b9754f8!8m2!3d22.5162581!4d88.1648346!16s%2Fg%2F11c705btth!19sChIJneT_EauAAjoR-FSXe5f9JIw?authuser=0&hl=en&rclk=1,"22.516258099999998,88.16483459999999"
Masjid E Quba,Mosque,"G63P+QGC Masjid E Quba, Molla Para Road, Chandan Nagar, Maheshtala, West Bengal 700140",Chandan Nagar,"G63P+QGC, Molla Para Road",Maheshtala,700140,West Bengal,IN,https://www.google.com/maps/place/Masjid+E+Quba/data=!4m7!3m6!1s0x3a027d37dc0e3bed:0x1a40ce505140b9f0!8m2!3d22.504432!4d88.2362621!16s%2Fg%2F11h2294f1s!19sChIJ7TsO3Dd9AjoR8LlAUVDOQBo?authuser=0&hl=en&rclk=1,"22.504431999999998,88.23626209999999"
Chacksrikrishna Jama Masjid (No.-1) msjd,Mosque,"Chacksrikrishna Jama Masjid (No.-1) msjd, Chacksrikrishna, Hirapur Rd, Nalpur, Howrah, West Bengal 711310","Raghudebbatti, Nalpur","Chacksrikrishna, Hirapur Rd","Howrah, Chak Srikrishna",711310,West Bengal,IN,https://www.google.com/maps/place/Chacksrikrishna+Jama+Masjid+%28No.-1%29+%D9%85%D8%B3%D8%AC%D8%AF%E2%80%AD/data=!4m7!3m6!1s0x3a027ddee387f2c7:0xe79bfd8b2c71c529!8m2!3d22.5110542!4d88.1908996!16s%2Fg%2F11fy4mxsrt!19sChIJx_KH4959AjoRKcVxLIv9m-c?authuser=0&hl=en&rclk=1,"22.5110542,88.1908996"
Masjid E Usman msjd,Mosque,"Masjid E Usman msjd, 700140, Uludanga, Maheshtala, West Bengal","Uludanga, Santoshpur",700140,Maheshtala,,West Bengal,IN,https://www.google.com/maps/place/Masjid+E+Usman+%D9%85%D8%B3%D8%AC%D8%AF%E2%80%AD/data=!4m7!3m6!1s0x3a027c03f1c9c3bb:0x90929e66f15376c9!8m2!3d22.5096467!4d88.2404652!16s%2Fg%2F11g691d87_!19sChIJu8PJ8QN8AjoRyXZT8WaekpA?authuser=0&hl=en&rclk=1,"22.509646699999998,88.2404652"
Jamadarpara Jumma Masjid,Mosque,"F6HF+PFF Jamadarpara Jumma Masjid, Gumar Gala, Maheshtala, West Bengal 700137",Gumar Gala,F6HF+PFF,Maheshtala,700137,West Bengal,IN,https://www.google.com/maps/place/Jamadarpara+Jumma+Masjid/data=!4m7!3m6!1s0x3a027c432d8fb6c7:0x31543429824300ae!8m2!3d22.4793098!4d88.2236579!16s%2Fg%2F11g021_vfk!19sChIJx7aPLUN8AjoRrgBDgik0VDE?authuser=0&hl=en&rclk=1,"22.4793098,88.22365789999999"
Mohisgot Hat Jame Masjid,Mosque,"Mohisgot Hat Jame Masjid, Mohisgot hat, Khagramuri, Raypur, West Bengal 743384",Khagramuri,Mohisgot hat,Raypur,743384,West Bengal,IN,https://www.google.com/maps/place/Mohisgot+Hat+Jame+Masjid/data=!4m7!3m6!1s0x3a027c909789207b:0xdf4a1b6af536cef4!8m2!3d22.4511373!4d88.235829!16s%2Fg%2F11cs5w2wyl!19sChIJeyCJl5B8AjoR9M429WobSt8?authuser=0&hl=en&rclk=1,"22.4511373,88.235829"
Badi Jama Masjid msjd,Mosque,"F5GG+X8H Badi Jama Masjid msjd, Joychandipur, Budge Budge, Kolkata, West Bengal 700137","Joychandipur, Budge Budge",F5GG+X8H,Kolkata,700137,West Bengal,IN,https://www.google.com/maps/place/Badi+Jama+Masjid+%D9%85%D8%B3%D8%AC%D8%AF%E2%80%AD/data=!4m7!3m6!1s0x3a027d85718e0417:0xd25d425f42c770e7!8m2!3d22.4774267!4d88.1758655!16s%2Fg%2F11f3n0nbty!19sChIJFwSOcYV9AjoR53DHQl9CXdI?authuser=0&hl=en&rclk=1,"22.4774267,88.1758655"
Masjid-E-Taiyeb,Mosque,"G63G+354 Masjid-E-Taiyeb, Nangi Railway Station Rd, Nangi, Budge Budge, Maheshtala, West Bengal 700140","Nangi, Budge Budge","G63G+354, Nangi Railway Station Rd",Maheshtala,700140,West Bengal,IN,https://www.google.com/maps/place/Masjid-E-Taiyeb/data=!4m7!3m6!1s0x3a027dff12e6ed39:0x13a3fb9c894fc5b2!8m2!3d22.5026318!4d88.225452!16s%2Fg%2F11glw26rp6!19sChIJOe3mEv99AjoRssVPiZz7oxM?authuser=0&hl=en&rclk=1,"22.5026318,88.22545199999999"
MITHAPUKUR BAYTUL MAHMUD JAME MASJID,Mosque,"F56R+PX9 MITHAPUKUR BAYTUL MAHMUD JAME MASJID, Hasnecha, Buita, Raypur, West Bengal 700137",Hasnecha,F56R+PX9,"Buita, Raypur",700137,West Bengal,IN,https://www.google.com/maps/place/MITHAPUKUR+BAYTUL+MAHMUD+JAME+MASJID/data=!4m7!3m6!1s0x3a027d0be26e8233:0xd1defee42d4b6b00!8m2!3d22.4617989!4d88.1924925!16s%2Fg%2F11fy1k7yml!19sChIJM4Ju4gt9AjoRAGtLLeT-3tE?authuser=0&hl=en&rclk=1,"22.461798899999998,88.1924925"
Benjanheria Mollickpara Matir Masjid msjd,Mosque,"F5FJ+CWW Benjanheria Mollickpara Matir Masjid msjd, Mojaffar Hossain Khan Rd, Benjan Heria, Samanta Para, Budge Budge, Kolkata, West Bengal 700137","Benjan Heria, Samanta Para, Budge Budge","F5FJ+CWW, Mojaffar Hossain Khan Rd",Kolkata,700137,West Bengal,IN,https://www.google.com/maps/place/Benjanheria+Mollickpara+Matir+Masjid+%D9%85%D8%B3%D8%AC%D8%AF%E2%80%AD/data=!4m7!3m6!1s0x3a027d9be3b13859:0x90e9725ca5571266!8m2!3d22.4736123!4d88.1823437!16s%2Fg%2F11gfcxlh80!19sChIJWTix45t9AjoRZhJXpVxy6ZA?authuser=0&hl=en&rclk=1,"22.4736123,88.18234369999999"
Hasnecha Jame Masjid,Mosque,"C5P4+C2G Hasnecha Jame Masjid, Unnamed Road, Budge Budge, Kolkata, West Bengal 743318",Budge Budge,"C5P4+C2G, Unnamed Road",Kolkata,743318,West Bengal,IN,https://www.google.com/maps/place/Hasnecha+Jame+Masjid/data=!4m7!3m6!1s0x3a0287ee9bde8a89:0xe7d8e9d50f228206!8m2!3d22.436068!4d88.1550744!16s%2Fg%2F11hd1mr_hx!19sChIJiYrem-6HAjoRBoIiD9Xp2Oc?authuser=0&hl=en&rclk=1,"22.436068,88.15507439999999"
Jame Masjid,Mosque,"F63H+FHQ Jame Masjid, Sibhugli, Maheshtala, West Bengal 700140",Dakhin Chatta Kalikapukur,"F63H+FHQ, Sibhugli","Maheshtala, Sibhugli",700140,West Bengal,IN,https://www.google.com/maps/place/Jame+Masjid/data=!4m7!3m6!1s0x3a027da24b6ea359:0x12781d8ce37e3623!8m2!3d22.4537153!4d88.2289692!16s%2Fg%2F11h6rrwfr2!19sChIJWaNuS6J9AjoRIzZ-44wdeBI?authuser=0&hl=en&rclk=1,"22.4537153,88.2289692"
Masjid-E-Baitul Fazl,Mosque,"Masjid-E-Baitul Fazl, P.O, Sardar Para, Jagannath Nagar, Thana, Maheshtala, West Bengal 700140","Sardar Para, Jagannath Nagar, Thana",P.O,Maheshtala,700140,West Bengal,IN,https://www.google.com/maps/place/Masjid-E-Baitul+Fazl/data=!4m7!3m6!1s0x3a027950ba3215b3:0x36d744440db74b0d!8m2!3d22.5219821!4d88.2549539!16s%2Fg%2F11c2yflbqq!19sChIJsxUyulB5AjoRDUu3DURE1zY?authuser=0&hl=en&rclk=1,"22.5219821,88.25495389999999"
LAL MASJID,Mosque,"LAL MASJID, 700140, Jagannath Nagar, Maheshtala, West Bengal 700141",Jagannath Nagar,700140,Maheshtala,700141,West Bengal,IN,https://www.google.com/maps/place/LAL+MASJID/data=!4m7!3m6!1s0x3a027bfd6fb632bd:0x154f5878008e4d48!8m2!3d22.5149443!4d88.2572129!16s%2Fg%2F11fx91fln5!19sChIJvTK2b_17AjoRSE2OAHhYTxU?authuser=0&hl=en&rclk=1,"22.5149443,88.2572129"
Jamalpur Jame Masjid msjd,Mosque,"Jamalpur Jame Masjid msjd, C5V8+Q46, Jamalpur, nishcintpur, Budge Budge, Kolkata, West Bengal 700137","Nishchintapur, Budge Budge","C5V8+Q46, Jamalpur, nishcintpur","Kolkata, Buita",700137,West Bengal,IN,https://www.google.com/maps/place/Jamalpur+Jame+Masjid+%D9%85%D8%B3%D8%AC%D8%AF%E2%80%AD/data=!4m7!3m6!1s0x3a02878b199e60af:0xbf582488ef7f766b!8m2!3d22.460581!4d88.1730427!16s%2Fg%2F11c0rmbdv6!19sChIJr2CeGYuHAjoRa3Z_74gkWL8?authuser=0&hl=en&rclk=1,"22.460580999999998,88.1730427"
Masjid-e-Rehmania,Mosque,"F57C+3MG Masjid-e-Rehmania, Vill: Abhirampur, KP Mondal Rd, Nishchintapur, Budge Budge, Banjanharia Charial, West Bengal 700137","Nishchintapur, Budge Budge","F57C+3MG, Vill: Abhirampur, KP Mondal Rd",Banjanharia Charial,700137,West Bengal,IN,https://www.google.com/maps/place/Masjid-e-Rehmania/data=!4m7!3m6!1s0x3a027da2e4860ba3:0xc6dcbe97d3992b!8m2!3d22.4626907!4d88.1716947!16s%2Fg%2F11t27m7hx4!19sChIJowuG5KJ9AjoRK5nTl77cxgA?authuser=0&hl=en&rclk=1,"22.4626907,88.17169469999999"
Achipur Jamma Mosjid msjd,Mosque,"F42M+6C3 Achipur Jamma Mosjid msjd, Budge Budge, Pujali, West Bengal 700138",Budge Budge,F42M+6C3,Pujali,700138,West Bengal,IN,https://www.google.com/maps/place/Achipur+Jamma+Mosjid+%D9%85%D8%B3%D8%AC%D8%AF%E2%80%AD/data=!4m7!3m6!1s0x3a0287b3d061edff:0x32df57e46a3ac0a!8m2!3d22.4505231!4d88.1335544!16s%2Fg%2F11c2r4_7zl!19sChIJ_-1h0LOHAjoRCqyjRn71LQM?authuser=0&hl=en&rclk=1,"22.450523099999998,88.1335544"
Chitrigung Sola-Ana Masjid msjd,Mosque,"F5XX+7WC Chitrigung Sola-Ana Masjid msjd, Chak Chandul, Nangi, Budge Budge, Maheshtala, West Bengal 700137","Chak Chandul, Nangi, Budge Budge",F5XX+7WC,Maheshtala,700137,West Bengal,IN,https://www.google.com/maps/place/Chitrigung+Sola-Ana+Masjid+%D9%85%D8%B3%D8%AC%D8%AF%E2%80%AD/data=!4m7!3m6!1s0x3a027dcf1f936511:0xad07a35ca02c69b8!8m2!3d22.4981849!4d88.1997684!16s%2Fg%2F11c6ljcd9l!19sChIJEWWTH899AjoRuGksoFyjB60?authuser=0&hl=en&rclk=1,"22.4981849,88.1997684"
Baitus Salam Jame Masjid baay'tush saalaam jaame msjid,Mosque,"Baitus Salam Jame Masjid baay'tush saalaam jaame msjid, 23, KP Mondal Rd, Joychandipur, Budge Budge, Banjanharia Charial, West Bengal 700137","Joychandipur, Budge Budge","23, KP Mondal Rd",Banjanharia Charial,700137,West Bengal,IN,https://www.google.com/maps/place/Baitus+Salam+Jame+Masjid+%E0%A6%AC%E0%A6%BE%E0%A6%AF%E0%A6%BC%E0%A6%A4%E0%A7%81%E0%A6%B6+%E0%A6%B8%E0%A6%BE%E0%A6%B2%E0%A6%BE%E0%A6%AE+%E0%A6%9C%E0%A6%BE%E0%A6%AE%E0%A7%87+%E0%A6%AE%E0%A6%B8%E0%A6%9C%E0%A6%BF%E0%A6%A6/data=!4m7!3m6!1s0x3a027d818cf4275d:0xf32cd9cd8da2c83a!8m2!3d22.4687345!4d88.1716768!16s%2Fg%2F11g8w_2gwh!19sChIJXSf0jIF9AjoROsiijc3ZLPM?authuser=0&hl=en&rclk=1,"22.4687345,88.1716768"
Baganberia Masjid msjd,Mosque,"Baganberia Masjid msjd, C5J2+4G7, Baganberia,Chakkashipur, Birlapur, Budge Budge, Kolkata, West Bengal 743318",Budge Budge,"C5J2+4G7, Baganberia,Chakkashipur, Birlapur",Kolkata,743318,West Bengal,IN,https://www.google.com/maps/place/Baganberia+Masjid+%D9%85%D8%B3%D8%AC%D8%AF%E2%80%AD/data=!4m7!3m6!1s0x3a0287e62bbb0aef:0x33b2d9dce59d51fc!8m2!3d22.4302945!4d88.1512958!16s%2Fg%2F11c59p43my!19sChIJ7wq7K-aHAjoR_FGd5dzZsjM?authuser=0&hl=en&rclk=1,"22.4302945,88.1512958"
Bagmari Jame Masjid,Mosque,"G63W+CJ8 Bagmari Jame Masjid, Banerjee Hat, Maheshtala, West Bengal 700140",Banerjee Hat,G63W+CJ8,Maheshtala,,West Bengal,IN,https://www.google.com/maps/place/Bagmari+Jame+Masjid/data=!4m7!3m6!1s0x3a027b82d94f35bd:0x2cd2db270b65f31b!8m2!3d22.5035333!4d88.2465631!16s%2Fg%2F11f9_ddk__!19sChIJvTVP2YJ7AjoRG_NlCyfb0iw?authuser=0&hl=en&rclk=1,"22.503533299999997,88.2465631"
Mondal Para Masjid msjd,Mosque,"F59J+H64 Mondal Para Masjid msjd, Benjan Heria, Mondal Para, Budge Budge, Kolkata, West Bengal 700137","Benjan Heria, Mondal Para, Budge Budge",F59J+H64,Kolkata,700137,West Bengal,IN,https://www.google.com/maps/place/Mondal+Para+Masjid+%D9%85%D8%B3%D8%AC%D8%AF%E2%80%AD/data=!4m7!3m6!1s0x3a027d9da897faff:0xe7c74be15d0d616e!8m2!3d22.4688917!4d88.1805788!16s%2Fg%2F11d_2m4_hm!19sChIJ__qXqJ19AjoRbmENXeFLx-c?authuser=0&hl=en&rclk=1,"22.4688917,88.18057879999999"
Jumma Masjid msjd,Mosque,"F5MW+569 Jumma Masjid msjd, Dharmatala Rd, Nandanpur, Budge Budge, Uttar Raypur, West Bengal 700137","Nandanpur, Budge Budge","F5MW+569, Dharmatala Rd",Uttar Raypur,700137,West Bengal,IN,https://www.google.com/maps/place/Jumma+Masjid+%D9%85%D8%B3%D8%AC%D8%AF%E2%80%AD/data=!4m7!3m6!1s0x3a027dba4624ac31:0x93152ec0881ab70a!8m2!3d22.4829225!4d88.1956244!16s%2Fg%2F11gg_gc4jh!19sChIJMawkRrp9AjoRCrcaiMAuFZM?authuser=0&hl=en&rclk=1,"22.482922499999997,88.1956244"
Nimdighi Boro Masjid- nymdyghy bwrw msjd,Mosque,"F3GW+P57 Nimdighi Boro Masjid- nymdyghy bwrw msjd, Nimdighi, Uluberia, Howrah, West Bengal 711316","Nimdighi, Uluberia",F3GW+P57,Howrah,711316,West Bengal,IN,https://www.google.com/maps/place/Nimdighi+Boro+Masjid-+%D9%86%DB%8C%D9%85%D8%AF%DB%8C%DA%AF%DA%BE%DB%8C+%D8%A8%D9%88%D8%B1%D9%88+%D9%85%D8%B3%D8%AC%D8%AF%E2%80%AD/data=!4m7!3m6!1s0x3a028684a57849a5:0x2f0e4a8b96b003fa!8m2!3d22.476777!4d88.0954267!16s%2Fg%2F11f11lb7cv!19sChIJpUl4pYSGAjoR-gOwlotKDi8?authuser=0&hl=en&rclk=1,"22.476777,88.09542669999999"
Bata Mosque msjd,Mosque,"Bata Mosque msjd, 9/12, Bata Nagar Officers Quarters, Pal para, Batanagar, Maheshtala, West Bengal 700140","Bata Nagar Officers Quarters, Pal para, Batanagar",9/12,Maheshtala,700140,West Bengal,IN,https://www.google.com/maps/place/Bata+Mosque+%D9%85%D8%B3%D8%AC%D8%AF%E2%80%AD/data=!4m7!3m6!1s0x3a027c27eeedb5af:0x5e66aebc738b0c3b!8m2!3d22.5137736!4d88.2176735!16s%2Fg%2F11cknp80k6!19sChIJr7Xt7id8AjoROwyLc7yuZl4?authuser=0&hl=en&rclk=1,"22.5137736,88.21767349999999"
Masjid E Baitur Rahman,Mosque,"F6RP+H36 Masjid E Baitur Rahman, Chingripota, Gzir Ghol, Maheshtala, West Bengal 700141","Chingripota, Gzir Ghol",F6RP+H36,Maheshtala,,West Bengal,IN,https://www.google.com/maps/place/Masjid+E+Baitur+Rahman/data=!4m7!3m6!1s0x3a027c12ca03f0a7:0x28a14316bc43afb4!8m2!3d22.49141!4d88.2351433!16s%2Fg%2F11gdzp0_ht!19sChIJp_ADyhJ8AjoRtK9DvBZDoSg?authuser=0&hl=en&rclk=1,"22.49141,88.23514329999999"
Shank Pukur Jame Masjid msjd,Mosque,"F58X+2RV Shank Pukur Jame Masjid msjd, Shank Pukur Molla Para Rd, Samanta Para, Budge Budge, Kolkata, Uttar Raypur, West Bengal 700137","Samanta Para, Budge Budge","F58X+2RV, Shank Pukur Molla Para Rd","Kolkata, Uttar Raypur",700137,West Bengal,IN,https://www.google.com/maps/place/Shank+Pukur+Jame+Masjid+%D9%85%D8%B3%D8%AC%D8%AF%E2%80%AD/data=!4m7!3m6!1s0x3a027d07a3dc1ddd:0x92641178da7a554f!8m2!3d22.4651071!4d88.1995407!16s%2Fg%2F11g9mhg727!19sChIJ3R3cowd9AjoRT1V62ngRZJI?authuser=0&hl=en&rclk=1,"22.465107099999997,88.1995407"
Beledanga Mosque,Mosque,"F7RM+3J2 Beledanga Mosque, Beledanga Rd, Behala Mauza, Maheshtala, West Bengal 700061",Behala Mauza,"F7RM+3J2, Beledanga Rd",Maheshtala,700061,West Bengal,IN,https://www.google.com/maps/place/Beledanga+Mosque/data=!4m7!3m6!1s0x3a027bd7328ef7a5:0xa8eaf16bbe7f6f39!8m2!3d22.4901483!4d88.2840152!16s%2Fg%2F11h6qkwz7x!19sChIJpfeOMtd7AjoROW9_vmvx6qg?authuser=0&hl=en&rclk=1,"22.490148299999998,88.2840152"
Masjid E Belal,Mosque,"F6JF+PVQ Masjid E Belal, Gumar Gala, Maheshtala, West Bengal 700137",Gumar Gala,F6JF+PVQ,Maheshtala,700137,West Bengal,IN,https://www.google.com/maps/place/Masjid+E+Belal/data=!4m7!3m6!1s0x3a027c42f83b0701:0x651818a54b15e4c2!8m2!3d22.4818349!4d88.2247459!16s%2Fg%2F11gffczlv2!19sChIJAQc7-EJ8AjoRwuQVS6UYGGU?authuser=0&hl=en&rclk=1,"22.4818349,88.2247459"
Choti Masjid msjd,Mosque,"F5GG+GJM Choti Masjid msjd, Joychandipur, Budge Budge, Kolkata, West Bengal 700137","Joychandipur, Budge Budge",F5GG+GJM,Kolkata,700137,West Bengal,IN,https://www.google.com/maps/place/Choti+Masjid+%D9%85%D8%B3%D8%AC%D8%AF%E2%80%AD/data=!4m7!3m6!1s0x3a027d8517964533:0x84d4cd083b061b87!8m2!3d22.476325!4d88.1765478!16s%2Fg%2F11c37qlk6l!19sChIJM0WWF4V9AjoRhxsGOwjN1IQ?authuser=0&hl=en&rclk=1,"22.476325,88.1765478"
Baitul Falah Jame Masjid baayytul phaalaah,Mosque,"F57X+3C2 Baitul Falah Jame Masjid baayytul phaalaah, Alam Nagar Rd, Budge Budge, Kolkata, Raypur, West Bengal 700137",Budge Budge,"F57X+3C2, Alam Nagar Rd","Kolkata, Raypur",700137,West Bengal,IN,https://www.google.com/maps/place/Baitul+Falah+Jame+Masjid+%E0%A6%AC%E0%A6%BE%E0%A7%9F%E0%A6%A4%E0%A7%81%E0%A6%B2+%E0%A6%AB%E0%A6%BE%E0%A6%B2%E0%A6%BE%E0%A6%B9/data=!4m7!3m6!1s0x3a027d063f22b561:0xfcee90766fe05580!8m2!3d22.4626405!4d88.1985185!16s%2Fg%2F11fzfc1b6m!19sChIJYbUiPwZ9AjoRgFXgb3aQ7vw?authuser=0&hl=en&rclk=1,"22.4626405,88.19851849999999"
Mayapur Juma Masjid msjd,Mosque,"C4QW+XGC Mayapur Juma Masjid msjd, Paschim, Mayapur, West Bengal 743318",Paschim,C4QW+XGC,Mayapur,743318,West Bengal,IN,https://www.google.com/maps/place/Mayapur+Juma+Masjid+%D9%85%D8%B3%D8%AC%D8%AF%E2%80%AD/data=!4m7!3m6!1s0x3a028795a7b90dc7:0x6318c380bcf7d6e6!8m2!3d22.4399417!4d88.1462596!16s%2Fg%2F11g0h8f_x5!19sChIJxw25p5WHAjoR5tb3vIDDGGM?authuser=0&hl=en&rclk=1,"22.4399417,88.1462596"
Masjid E Qoba msHd,Mosque,"F54R+VR4 Masjid E Qoba msHd, Mithapukur, Buita, West Bengal 700137",Hasnecha,"F54R+VR4, Mithapukur","Buita, Raypur",700137,West Bengal,IN,https://www.google.com/maps/place/Masjid+E+Qoba+%D9%85%D8%B3%D8%AD%D8%AF%E2%80%AD/data=!4m7!3m6!1s0x3a027d0dd063da87:0x6c9394849ca63059!8m2!3d22.4571379!4d88.1920725!16s%2Fg%2F11dfqvb98z!19sChIJh9pj0A19AjoRWTCmnISUk2w?authuser=0&hl=en&rclk=1,"22.4571379,88.1920725"
masjid e baitul mamur,Mosque,"F6VM+52F masjid e baitul mamur, Balarampur, Maheshtala, West Bengal 700141",Balarampur,F6VM+52F,Maheshtala,700141,West Bengal,IN,https://www.google.com/maps/place/masjid+e+baitul+mamur/data=!4m7!3m6!1s0x3a027d5d7a615d51:0x20e1743a7e3c5207!8m2!3d22.4929332!4d88.2325443!16s%2Fg%2F11fkf0m9dv!19sChIJUV1hel19AjoRB1I8fjp04SA?authuser=0&hl=en&rclk=1,"22.4929332,88.2325443"
Masjid-e-kobba,Mosque,"C4VQ+266 Masjid-e-kobba, Vill-jagatballavpur, buth, Jagatballavpur",Budge Budge,"C4VQ+266, Vill-jagatballavpur, buth",Jagatballavpur,,West Bengal,IN,https://www.google.com/maps/place/Masjid-e-kobba/data=!4m7!3m6!1s0x3a0287147845ddd5:0x2dad5d4f4d64a6ed!8m2!3d22.4425258!4d88.1380258!16s%2Fg%2F11g30vs_gw!19sChIJ1d1FeBSHAjoR7aZkTU9drS0?authuser=0&hl=en&rclk=1,"22.4425258,88.1380258"
Masjid-E-Abbas msjd,Mosque,"F6Q6+39W Masjid-E-Abbas msjd, Gumar Gala, Maheshtala, West Bengal 700137",Gumar Gala,F6Q6+39W,Maheshtala,700137,West Bengal,IN,https://www.google.com/maps/place/Masjid-E-Abbas+%D9%85%D8%B3%D8%AC%D8%AF%E2%80%AD/data=!4m7!3m6!1s0x3a027dff0c9f6eff:0x9e98bfb193870142!8m2!3d22.4877462!4d88.2109642!16s%2Fg%2F11gsb8gjr6!19sChIJ_26fDP99AjoRQgGHk7G_mJ4?authuser=0&hl=en&rclk=1,"22.4877462,88.21096419999999"
nbaasn haakkaanii msjid msjd,Mosque,"F6M7+P8F nbaasn haakkaanii msjid msjd, Nabason, sarangabad, Gumar Gala, Budge Budge, Kolkata, West Bengal 700137","Gumar Gala, Budge Budge","F6M7+P8F, Nabason, sarangabad",Kolkata,700137,West Bengal,IN,https://www.google.com/maps/place/%E0%A6%A8%E0%A6%AC%E0%A6%BE%E0%A6%B8%E0%A6%A8+%E0%A6%B9%E0%A6%BE%E0%A6%95%E0%A7%8D%E0%A6%95%E0%A6%BE%E0%A6%A8%E0%A7%80+%E0%A6%AE%E0%A6%B8%E0%A6%9C%E0%A6%BF%E0%A6%A6+%D9%85%D8%B3%D8%AC%D8%AF%E2%80%AD/data=!4m7!3m6!1s0x3a027c4ec9c0c1bd:0xad273d48a7d554ad!8m2!3d22.4843028!4d88.2132878!16s%2Fg%2F11hbqcdlcg!19sChIJvcHAyU58AjoRrVTVp0g9J60?authuser=0&hl=en&rclk=1,"22.4843028,88.21328779999999"
Masjid-e-baitur-raheman,Mosque,"F6XJ+5XJ Masjid-e-baitur-raheman, Jagtala, molla para, Maheshtala, West Bengal 700141","Jagtala, molla para",F6XJ+5XJ,Maheshtala,700141,West Bengal,IN,https://www.google.com/maps/place/Masjid-e-baitur-raheman/data=!4m7!3m6!1s0x3a027c11447a4cfb:0xed5fdd3193d02336!8m2!3d22.4979538!4d88.2324005!16s%2Fg%2F11gdl8t_38!19sChIJ-0x6RBF8AjoRNiPQkzHdX-0?authuser=0&hl=en&rclk=1,"22.497953799999998,88.2324005"
Masjid E Ali E Murtaza,Mosque,"G66Q+RC4 Masjid E Ali E Murtaza, Shaikhpara, Akra, Krishnanagar, Maheshtala, West Bengal 700140","Akra, Krishnanagar","G66Q+RC4, Shaikhpara",Maheshtala,700140,West Bengal,IN,https://www.google.com/maps/place/Masjid+E+Ali+E+Murtaza/data=!4m7!3m6!1s0x3a027de3bca51501:0xb672d36fcfa64608!8m2!3d22.5120215!4d88.2385694!16s%2Fg%2F11hfg0_bhk!19sChIJARWlvON9AjoRCEamz2_TcrY?authuser=0&hl=en&rclk=1,"22.5120215,88.2385694"
Masjid msjid,Mosque,"G892+2FW Masjid msjid, Taratala, Kolkata, West Bengal 700088",Taratala,G892+2FW,Kolkata,700088,West Bengal,IN,https://www.google.com/maps/place/Masjid+%E0%A6%AE%E0%A6%B8%E0%A6%9C%E0%A6%BF%E0%A6%A6/data=!4m7!3m6!1s0x3a02798a3a40e6ef:0x92b1af884211d5d9!8m2!3d22.5176099!4d88.3012139!16s%2Fg%2F11g03rftnl!19sChIJ7-ZAOop5AjoR2dURQoivsZI?authuser=0&hl=en&rclk=1,"22.5176099,88.3012139"
nbaasn baayytul haamd msjid msjd,Mosque,"F6P5+2WF nbaasn baayytul haamd msjid msjd, Nabason, sarangabad, Gumar Gala, Budge Budge, Kolkata, West Bengal 700137","Gumar Gala, Budge Budge","F6P5+2WF, Nabason, sarangabad",Kolkata,700137,West Bengal,IN,https://www.google.com/maps/place/%E0%A6%A8%E0%A6%AC%E0%A6%BE%E0%A6%B8%E0%A6%A8+%E0%A6%AC%E0%A6%BE%E0%A7%9F%E0%A6%A4%E0%A7%81%E0%A6%B2+%E0%A6%B9%E0%A6%BE%E0%A6%AE%E0%A6%A6+%E0%A6%AE%E0%A6%B8%E0%A6%9C%E0%A6%BF%E0%A6%A6+%D9%85%D8%B3%D8%AC%D8%AF%E2%80%AD/data=!4m7!3m6!1s0x3a027c4b8111bf6b:0x2f0af6536606f42!8m2!3d22.4850722!4d88.2097911!16s%2Fg%2F11gfjtpmmz!19sChIJa78RgUt8AjoRQm9gNmWv8AI?authuser=0&hl=en&rclk=1,"22.485072199999998,88.20979109999999"
Bidhangarh Masjid msjd bydhnjrh,Mosque,"G7G8+2FJ Bidhangarh Masjid msjd bydhnjrh, South Bidhangarh Jala, Kankhuli, Santoshpur, Metiabruz, Constituency, Maheshtala, West Bengal 700066","Akra, Constituency","G7G8+2FJ, South Bidhangarh Jala, Kankhuli, Santoshpur, Metiabruz",Maheshtala,700066,West Bengal,IN,https://www.google.com/maps/place/Bidhangarh+Masjid+%D9%85%D8%B3%D8%AC%D8%AF+%D8%A8%D9%8A%D8%AF%D9%87%D8%A7%D9%86%D8%AC%D8%A7%D8%B1%D9%87%E2%80%AD/data=!4m7!3m6!1s0x3a0279678fcd1a57:0xebd83b39ce21cb5a!8m2!3d22.5250862!4d88.2661471!16s%2Fg%2F11hcncnxm_!19sChIJVxrNj2d5AjoRWsshzjk72Os?authuser=0&hl=en&rclk=1,"22.5250862,88.2661471"
Baikunthapur jumma Mosque msjd,Mosque,"F4HC+5HR Baikunthapur jumma Mosque msjd, Fuleswar, Boikunthopur, Howrah, West Bengal 711316","Fuleswar, Boikunthopur",F4HC+5HR,Howrah,711316,West Bengal,IN,https://www.google.com/maps/place/Baikunthapur+jumma+Mosque+%D9%85%D8%B3%D8%AC%D8%AF%E2%80%AD/data=!4m7!3m6!1s0x3a0286e52cef23b9:0x623f243ee3edca5f!8m2!3d22.4779876!4d88.1213947!16s%2Fg%2F11dzt3gw4w!19sChIJuSPvLOWGAjoRX8rt4z4kP2I?authuser=0&hl=en&rclk=1,"22.4779876,88.1213947"
Masjid E Aqsa,Mosque,"Masjid E Aqsa, Chak, Nabasan Rd, Gumar Gala, Budge Budge, Kolkata, West Bengal 700137","Gumar Gala, Budge Budge","Chak, Nabasan Rd",Kolkata,700137,West Bengal,IN,https://www.google.com/maps/place/Masjid+E+Aqsa/data=!4m7!3m6!1s0x3a027ddd364f4c33:0x134127ad3ebfd0b0!8m2!3d22.4854898!4d88.2093097!16s%2Fg%2F11h4qm6k23!19sChIJM0xPNt19AjoRsNC_Pq0nQRM?authuser=0&hl=en&rclk=1,"22.4854898,88.20930969999999"
Sanfui Para Masjid msjid msjd,Mosque,"Sanfui Para Masjid msjid msjd, 89, Yousuf Sanfui Rd, saapuipaaraa, Budge Budge, Kolkata, West Bengal 700137","saapuipaaraa, Budge Budge","89, Yousuf Sanfui Rd",Kolkata,700137,West Bengal,IN,https://www.google.com/maps/place/Sanfui+Para+Masjid+%E0%A6%AE%E0%A6%B8%E0%A6%9C%E0%A6%BF%E0%A6%A6+%D9%85%D8%B3%D8%AC%D8%AF%E2%80%AD/data=!4m7!3m6!1s0x3a027d61d63db7b9:0x82ee51004c3a0626!8m2!3d22.4719377!4d88.1750425!16s%2Fg%2F11gr0yxy2g!19sChIJubc91mF9AjoRJgY6TABR7oI?authuser=0&hl=en&rclk=1,"22.471937699999998,88.17504249999999"
Haqqani Anjuman msjd,Mosque,"F577+WXG Haqqani Anjuman msjd, Unnamed Road, Nishchintapur, Budge Budge, Abhirampur, West Bengal 700137","Nishchintapur, Budge Budge","F577+WXG, Unnamed Road",Abhirampur,700137,West Bengal,IN,https://www.google.com/maps/place/Haqqani+Anjuman+%D9%85%D8%B3%D8%AC%D8%AF%E2%80%AD/data=!4m7!3m6!1s0x3a028717bcc80307:0x95d889f7ea9cd5c1!8m2!3d22.4648093!4d88.1649597!16s%2Fg%2F11gmjfp3hs!19sChIJBwPIvBeHAjoRwdWc6veJ2JU?authuser=0&hl=en&rclk=1,"22.4648093,88.1649597"
Molla Para Masjid msjd,Mosque,"F5CG+VXC Molla Para Masjid msjd, RL Ghosh Rd, Benjan Heria, molla para Para, Budge Budge, Kolkata, West Bengal 700137","Benjan Heria, molla para Para, Budge Budge","F5CG+VXC, RL Ghosh Rd",Kolkata,700137,West Bengal,IN,https://www.google.com/maps/place/Molla+Para+Masjid+%D9%85%D8%B3%D8%AC%D8%AF%E2%80%AD/data=!4m7!3m6!1s0x3a027d8346a54a0f:0x52a1e53061040953!8m2!3d22.4721835!4d88.1773984!16s%2Fg%2F11d_8zhcr8!19sChIJD0qlRoN9AjoRUwkEYTDloVI?authuser=0&hl=en&rclk=1,"22.4721835,88.1773984"
Rajarampur Jumma Masjid raajaaraampur jummaa msjid,Mosque,"F42M+PRM Rajarampur Jumma Masjid raajaaraampur jummaa msjid, Budge Budge, Pujali, West Bengal 700138",Budge Budge,F42M+PRM,Pujali,,West Bengal,IN,https://www.google.com/maps/place/Rajarampur+Jumma+Masjid+%E0%A6%B0%E0%A6%BE%E0%A6%9C%E0%A6%BE%E0%A6%B0%E0%A6%BE%E0%A6%AE%E0%A6%AA%E0%A7%81%E0%A6%B0+%E0%A6%9C%E0%A7%81%E0%A6%AE%E0%A7%8D%E0%A6%AE%E0%A6%BE+%E0%A6%AE%E0%A6%B8%E0%A6%9C%E0%A6%BF%E0%A6%A6/data=!4m7!3m6!1s0x3a028738e75359e7:0x4410d31127f2a6a9!8m2!3d22.4518378!4d88.1345598!16s%2Fg%2F11h126lz8l!19sChIJ51lT5ziHAjoRqabyJxHTEEQ?authuser=0&hl=en&rclk=1,"22.4518378,88.13455979999999"
MASJID E GAUSIYA,Religious organization,"F5F7+9PP MASJID E GAUSIYA, Jute Mills Rd, Kalipur, Budge Budge, Kolkata, West Bengal 700137","Kalipur, Budge Budge","F5F7+9PP, Jute Mills Rd",Kolkata,700137,West Bengal,IN,https://www.google.com/maps/place/MASJID+E+GAUSIYA/data=!4m7!3m6!1s0x3a02877c1662922d:0x4bf8607f7ebad308!8m2!3d22.4734581!4d88.1643373!16s%2Fg%2F1hm2bh590!19sChIJLZJiFnyHAjoRCNO6fn9g-Es?authuser=0&hl=en&rclk=1,"22.4734581,88.1643373"
Nimdighi IDGAH,Mosque,"F3FW+QC9 Nimdighi IDGAH, Nimdighi, Uluberia, Howrah, West Bengal 711315","Nimdighi, Uluberia",F3FW+QC9,Howrah,711315,West Bengal,IN,https://www.google.com/maps/place/Nimdighi+IDGAH/data=!4m7!3m6!1s0x3a028684606165a5:0x51a1190cdc16b6!8m2!3d22.4744203!4d88.0961228!16s%2Fg%2F11c20byyvk!19sChIJpWVhYISGAjoRthbcDBmhUQA?authuser=0&hl=en&rclk=1,"22.4744203,88.09612279999999"
Abhirampur Jame Masjid,Mosque,"F588+4JX Abhirampur Jame Masjid, Nishchintapur, Budge Budge, Abhirampur, West Bengal 700137","Nishchintapur, Budge Budge",F588+4JX,Abhirampur,700137,West Bengal,IN,https://www.google.com/maps/place/Abhirampur+Jame+Masjid/data=!4m7!3m6!1s0x3a0287850e3da637:0xea17a479dea05679!8m2!3d22.4653651!4d88.1665973!16s%2Fg%2F11tcfb_fyl!19sChIJN6Y9DoWHAjoReVag3nmkF-o?authuser=0&hl=en&rclk=1,"22.4653651,88.16659729999999"
Masjid E Baitul Aman,Mosque,"F6HR+X59 Masjid E Baitul Aman, Chingripota, Maheshtala, West Bengal 700141",Chingripota,F6HR+X59,Maheshtala,,West Bengal,IN,https://www.google.com/maps/place/Masjid+E+Baitul+Aman/data=!4m7!3m6!1s0x3a027ddbf6b17ef1:0x961b58db219f86f!8m2!3d22.4799036!4d88.2404729!16s%2Fg%2F11gk40y4rs!19sChIJ8X6x9tt9AjoRb_gZso21YQk?authuser=0&hl=en&rclk=1,"22.4799036,88.2404729"
Masjid E Bilal,Mosque,"F5GJ+CH3 Masjid E Bilal, Haji MD Mahasin Road, Budge Budge, Kolkata, West Bengal 700137","Samanta Para, Budge Budge","F5GJ+CH3, Haji MD Mahasin Road",Kolkata,700137,West Bengal,IN,https://www.google.com/maps/place/Masjid+E+Bilal/data=!4m7!3m6!1s0x3a027d631c11dad7:0x9fb22abea6d5610!8m2!3d22.4760003!4d88.1814345!16s%2Fg%2F11rfbv7370!19sChIJ19oRHGN9AjoREFZt6qsi-wk?authuser=0&hl=en&rclk=1,"22.4760003,88.1814345"
Baganberia seikh para jama masjid,Mosque,"C4GX+WC4 Baganberia seikh para jama masjid, Baganberia road, Birlapur, ct, West Bengal 743318",Birlapur,"C4GX+WC4, Baganberia road",ct,743318,West Bengal,IN,https://www.google.com/maps/place/Baganberia+seikh+para+jama+masjid/data=!4m7!3m6!1s0x3a02871129d74521:0xb8ab262f5a6bc9e2!8m2!3d22.427252!4d88.1485719!16s%2Fg%2F11fkyy8p6q!19sChIJIUXXKRGHAjoR4slrWi8mq7g?authuser=0&hl=en&rclk=1,"22.427252,88.1485719"
khaan praa msjid,Mosque,"khaan praa msjid, khaan, Samanta Para, Budge Budge, praa, Uttar Raypur, West Bengal 700137","Samanta Para, Budge Budge",khaan,"praa, Uttar Raypur",,West Bengal,IN,https://www.google.com/maps/place/%E0%A6%96%E0%A6%BE%E0%A6%A8+%E0%A6%AA%E0%A6%B0%E0%A6%BE+%E0%A6%AE%E0%A6%B8%E0%A6%9C%E0%A6%BF%E0%A6%A6/data=!4m7!3m6!1s0x3a027d209fbea2ff:0x99c00111ef508479!8m2!3d22.4678472!4d88.1979958!16s%2Fg%2F11tnbp0h4v!19sChIJ_6K-nyB9AjoReYRQ7xEBwJk?authuser=0&hl=en&rclk=1,"22.467847199999998,88.1979958"
Narikel danga jama masjid,Mosque,"F6P2+8R3 Narikel danga jama masjid, Kalikapur Uttar Para, Budge Budge, Uttar Raypur, West Bengal 700137","Kalikapur Uttar Para, Budge Budge",F6P2+8R3,Uttar Raypur,700137,West Bengal,IN,https://www.google.com/maps/place/Narikel+danga+jama+masjid/data=!4m7!3m6!1s0x3a027d39d7e23751:0x99e099ec35dfcc98!8m2!3d22.4857742!4d88.2020496!16s%2Fg%2F11j09vyfh3!19sChIJUTfi1zl9AjoRmMzfNeyZ4Jk?authuser=0&hl=en&rclk=1,"22.485774199999998,88.2020496"
Kalim beria jame masjid,Mosque,"F6G3+6HP Kalim beria jame masjid, Kalim beria Budge budge, Shyampur - Kalikapur Rd, kalim, beria, West Bengal 700137","Paikpara, kalim","F6G3+6HP, Kalim beria Budge budge, Shyampur - Kalikapur Rd","beria, Uttar Raypur",700137,West Bengal,IN,https://www.google.com/maps/place/Kalim+beria+jame+masjid/data=!4m7!3m6!1s0x3a027d8c88428073:0xe7f7b973f303494b!8m2!3d22.4755948!4d88.2039633!16s%2Fg%2F11h3x8356h!19sChIJc4BCiIx9AjoRS0kD83O59-c?authuser=0&hl=en&rclk=1,"22.4755948,88.2039633"
Baitul Huda Masjid msjd,Mosque,"C5PF+HG3 Baitul Huda Masjid msjd, Bardanga, P.O. B.Chandipur, Budge Budge, West Bengal 700137",Budge Budge,"C5PF+HG3, Bardanga, P.O. B.Chandipur","Chandipur, Raypur",700137,West Bengal,IN,https://www.google.com/maps/place/Baitul+Huda+Masjid+%D9%85%D8%B3%D8%AC%D8%AF%E2%80%AD/data=!4m7!3m6!1s0x3a027d5bf72a5525:0x8269ba4f442ee096!8m2!3d22.4363968!4d88.1737952!16s%2Fg%2F11hczg2kpr!19sChIJJVUq91t9AjoRluAuRE-6aYI?authuser=0&hl=en&rclk=1,"22.4363968,88.1737952"
Borkontala Masjid Gate,Mosque,"F6QG+C88 Borkontala Masjid Gate, Daulatpur Rd, Chingripota, Maheshtala, West Bengal 700141",Chingripota,"F6QG+C88, Daulatpur Rd",Maheshtala,700141,West Bengal,IN,https://www.google.com/maps/place/Borkontala+Masjid+Gate/data=!4m7!3m6!1s0x3a027df52b14d803:0x88677e22be3994fc!8m2!3d22.4885322!4d88.2258217!16s%2Fg%2F11hh7pkz9n!19sChIJA9gUK_V9AjoR_JQ5viJ-Z4g?authuser=0&hl=en&rclk=1,"22.488532199999998,88.2258217"
Durga Pure Jame Masjid By Sk Rakesh,School,"F42W+CP7 Durga Pure Jame Masjid By Sk Rakesh, Unnamed Road, Budge Budge, Durgapur, West Bengal 743318",Budge Budge,"F42W+CP7, Unnamed Road",Durgapur,743318,West Bengal,IN,https://www.google.com/maps/place/Durga+Pure+Jame+Masjid+By+Sk+Rakesh/data=!4m7!3m6!1s0x3a0287bde0c36b33:0x9ba48fd775c77e8!8m2!3d22.4510427!4d88.1468065!16s%2Fg%2F11fd4crbwy!19sChIJM2vD4L2HAjoR6Hdcd_1Iugk?authuser=0&hl=en&rclk=1,"22.4510427,88.1468065"
Boga Molla Para Lal Masjid,Mosque,"G773+MJX Boga Molla Para Lal Masjid, Unnamed Road, Jagannath Nagar, Maheshtala, West Bengal 700140",Jagannath Nagar,"G773+MJX, Unnamed Road",Maheshtala,700140,West Bengal,IN,https://www.google.com/maps/place/Boga+Molla+Para+Lal+Masjid/data=!4m7!3m6!1s0x3a027b0f45c3e0c5:0x555b9b29cea45752!8m2!3d22.514236!4d88.2540962!16s%2Fg%2F11j67x8rr1!19sChIJxeDDRQ97AjoRUlekzimbW1U?authuser=0&hl=en&rclk=1,"22.514236,88.25409619999999"
Rezbia Mosjid,Mosque,"F6MC+Q96 Rezbia Mosjid, Gumar Gala, Nandarampur, West Bengal 700141",Gumar Gala,F6MC+Q96,Nandarampur,700141,West Bengal,IN,https://www.google.com/maps/place/Rezbia+Mosjid/data=!4m7!3m6!1s0x3a027d4a593391fd:0xfe7884a9fc73edae!8m2!3d22.4844248!4d88.2208932!16s%2Fg%2F11j004_hc9!19sChIJ_ZEzWUp9AjoRru1z_KmEeP4?authuser=0&hl=en&rclk=1,"22.4844248,88.22089319999999"
Madrasa Alaululum,Mosque,"F7C4+CV5 Madrasa Alaululum, Unnamed Road, Khanberia, Dakhin Chatta Kalikapukur, Maheshtala, West Bengal 700141","Khanberia, Dakhin Chatta Kalikapukur","F7C4+CV5, Unnamed Road",Maheshtala,700141,West Bengal,IN,https://www.google.com/maps/place/Madrasa+Alaululum/data=!4m7!3m6!1s0x3a027b585f019681:0x246dee09c42ded82!8m2!3d22.471008!4d88.25723!16s%2Fg%2F11rsg2ch07!19sChIJgZYBX1h7AjoRgu0txAnubSQ?authuser=0&hl=en&rclk=1,"22.471007999999998,88.25722999999999"
JANNATUL FIRDAUS JAMA MASJID,Mosque,"JANNATUL FIRDAUS JAMA MASJID, pshcim sekh paadd'aa, haasnecaa, Birlapur, West Bengal",Birlapur,"pshcim sekh paadd'aa, haasnecaa",,,West Bengal,IN,https://www.google.com/maps/place/JANNATUL+FIRDAUS+JAMA+MASJID/data=!4m7!3m6!1s0x3a02878a473c2043:0xe7a0761ed3928ae3!8m2!3d22.4335582!4d88.1525762!16s%2Fg%2F11thn926xf!19sChIJQyA8R4qHAjoR44qS0x52oOc?authuser=0&hl=en&rclk=1,"22.4335582,88.1525762"
Joychandipur Chanditala Road Jame Masjid,Mosque,"F586+CGG Joychandipur Chanditala Road Jame Masjid, Chanditala Main Rd, Joychandipur, Budge Budge, Kolkata, West Bengal 700138",Budge Budge,"F586+CGG, Chanditala Main Rd, Joychandipur","Kolkata, Baratala",700138,West Bengal,IN,https://www.google.com/maps/place/Joychandipur+Chanditala+Road+Jame+Masjid/data=!4m7!3m6!1s0x3a02871d076a6d51:0xa7f2e6cd6482a6e0!8m2!3d22.4660666!4d88.1613329!16s%2Fg%2F11j153rp5j!19sChIJUW1qBx2HAjoR4KaCZM3m8qc?authuser=0&hl=en&rclk=1,"22.466066599999998,88.16133289999999"
raajiibpur baay'tul saalaat jaame msjid,Mosque,"F43J+GRQ raajiibpur baay'tul saalaat jaame msjid, Budge Budge, Pujali, West Bengal 700138",Budge Budge,F43J+GRQ,Pujali,,West Bengal,IN,https://www.google.com/maps/place/%E0%A6%B0%E0%A6%BE%E0%A6%9C%E0%A7%80%E0%A6%AC%E0%A6%AA%E0%A7%81%E0%A6%B0+%E0%A6%AC%E0%A6%BE%E0%A6%AF%E0%A6%BC%E0%A6%A4%E0%A7%81%E0%A6%B2+%E0%A6%B8%E0%A6%BE%E0%A6%B2%E0%A6%BE%E0%A6%A4+%E0%A6%9C%E0%A6%BE%E0%A6%AE%E0%A7%87+%E0%A6%AE%E0%A6%B8%E0%A6%9C%E0%A6%BF%E0%A6%A6/data=!4m7!3m6!1s0x3a0287e16f2bf353:0xa08d672e4c0e367f!8m2!3d22.4538442!4d88.1320939!16s%2Fg%2F11j0b53bzx!19sChIJU_Mrb-GHAjoRfzYOTC5njaA?authuser=0&hl=en&rclk=1,"22.4538442,88.1320939"
Khan Para Mosque,Mosque,"F6W2+8M5 Khan Para Mosque, Uttar shyampur, khanpara, khan para road,Maheshtala, Budge Budge, Maheshtala, West Bengal 700137","Chak Chandul, Nangi, Budge Budge","F6W2+8M5, Uttar shyampur, khanpara, khan para road,Maheshtala",Maheshtala,700137,West Bengal,IN,https://www.google.com/maps/place/Khan+Para+Mosque/data=!4m7!3m6!1s0x3a027d542cde142b:0xff43442f629d109e!8m2!3d22.4957551!4d88.2017488!16s%2Fg%2F11nmnj5d05!19sChIJKxTeLFR9AjoRnhCdYi9EQ_8?authuser=0&hl=en&rclk=1,"22.4957551,88.20174879999999"
Paschim Pujali Jaame masjid pshcim puujaali jaame msjid,Mosque,"F49P+X3M Paschim Pujali Jaame masjid pshcim puujaali jaame msjid, Indira ghat Road ,vill:- paschim pujali ,p.o:- Pujali, p.s:, Pujali, pincode:, Kolkata, 700138","Pujali, pincode:","F49P+X3M, Indira ghat Road ,vill:- paschim pujali ,p.o:- Pujali, p.s:","Kolkata, Pujali",700138,West Bengal,IN,https://www.google.com/maps/place/Paschim+Pujali+Jaame+masjid+%E0%A6%AA%E0%A6%B6%E0%A7%8D%E0%A6%9A%E0%A6%BF%E0%A6%AE+%E0%A6%AA%E0%A7%82%E0%A6%9C%E0%A6%BE%E0%A6%B2%E0%A6%BF+%E0%A6%9C%E0%A6%BE%E0%A6%AE%E0%A7%87+%E0%A6%AE%E0%A6%B8%E0%A6%9C%E0%A6%BF%E0%A6%A6/data=!4m7!3m6!1s0x3a0287607cb53c8d:0x86650ba3bcd110e9!8m2!3d22.469972!4d88.1351848!16s%2Fg%2F11snw61m8d!19sChIJjTy1fGCHAjoR6RDRvKMLZYY?authuser=0&hl=en&rclk=1,"22.469972,88.13518479999999"
RAGHUNATHPUR BHOLA MISTRY MASJID,Mosque,"F46W+V65 RAGHUNATHPUR BHOLA MISTRY MASJID, Budge Budge, Pujali, West Bengal 700138",Budge Budge,F46W+V65,Pujali,700138,West Bengal,IN,https://www.google.com/maps/place/RAGHUNATHPUR+BHOLA+MISTRY+MASJID/data=!4m7!3m6!1s0x3a02877daa50b0cf:0x26baa278984aabc7!8m2!3d22.4621345!4d88.1456063!16s%2Fg%2F11rgzq41_t!19sChIJz7BQqn2HAjoRx6tKmHiiuiY?authuser=0&hl=en&rclk=1,"22.462134499999998,88.1456063"
Baitul Maa'mur Masjid,Mosque,"G7GM+JV8 Baitul Maa'mur Masjid, Paharpur Jahaji, Roy Para Ln, Makalhati Mauza, Maheshtala, West Bengal 700066",Makalhati Mauza,"G7GM+JV8, Paharpur Jahaji, Roy Para Ln",Maheshtala,700066,West Bengal,IN,https://www.google.com/maps/place/Baitul+Maa%27mur+Masjid/data=!4m7!3m6!1s0x3a027993efbbde67:0xcbfd64a93fe7a7ca!8m2!3d22.5265379!4d88.2847035!16s%2Fg%2F11jxympnt2!19sChIJZ96775N5AjoRyqfnP6lk_cs?authuser=0&hl=en&rclk=1,"22.526537899999997,88.28470349999999"
Uttarbagi fullbagan masjid,Mosque,"Uttarbagi fullbagan masjid, Uttarbagi (chit, New Mans Park Colony, Pailan, Bagi, West Bengal 700104","New Mans Park Colony, Pailan",Uttarbagi (chit,Bagi,700104,West Bengal,IN,https://www.google.com/maps/place/Uttarbagi+fullbagan+masjid/data=!4m7!3m6!1s0x3a027b00cdd0813d:0xf788971781eb92ef!8m2!3d22.4268397!4d88.2962334!16s%2Fg%2F11pvp5lwql!19sChIJPYHQzQB7AjoR75LrgReXiPc?authuser=0&hl=en&rclk=1,"22.4268397,88.29623339999999"
Masjid Ea Hanjala (R:A),Mosque,"G7CC+X56 Masjid Ea Hanjala (R:A), Thandar Para Rd, Thandarpara, Sanpa, Santoshpur, Maheshtala, West Bengal 700140","Thandarpara, Sanpa, Santoshpur","G7CC+X56, Thandar Para Rd",Maheshtala,700140,West Bengal,IN,https://www.google.com/maps/place/Masjid+Ea+Hanjala+%28R:A%29/data=!4m7!3m6!1s0x3a02799d91541af9:0xe672f192bbe6d5ca!8m2!3d22.522413!4d88.2703953!16s%2Fg%2F11qr16y452!19sChIJ-RpUkZ15AjoRytXmu5LxcuY?authuser=0&hl=en&rclk=1,"22.522413,88.27039529999999"
DARUL JARAR JAMA MASJID(Khan Para),Mosque,"F682+PF8 DARUL JARAR JAMA MASJID(Khan Para), Shank Pukur Molla Para Rd, Samanta Para, Budge Budge, Uttar Raypur, West Bengal 700137","Samanta Para, Budge Budge","F682+PF8, Shank Pukur Molla Para Rd",Uttar Raypur,700137,West Bengal,IN,https://www.google.com/maps/place/DARUL+JARAR+JAMA+MASJID%28Khan+Para%29/data=!4m7!3m6!1s0x3a027d02e33e1063:0x15c9f737fd9e1a33!8m2!3d22.4667965!4d88.2011925!16s%2Fg%2F11sc2yhvcs!19sChIJYxA-4wJ9AjoRMxqe_Tf3yRU?authuser=0&hl=en&rclk=1,"22.466796499999997,88.20119249999999"
Shyampur masjid a SAAD,Mosque,"F6R2+FCV Shyampur masjid a SAAD, Shyampur, Budge Budge, Maheshtala, West Bengal 700137","Shyampur, Budge Budge",F6R2+FCV,Maheshtala,700137,West Bengal,IN,https://www.google.com/maps/place/Shyampur+masjid+a+SAAD/data=!4m7!3m6!1s0x3a027d02dbf94d99:0xa11333308cabf08!8m2!3d22.4912489!4d88.2010535!16s%2Fg%2F11q2tbw6v5!19sChIJmU352wJ9AjoRCL_KCDMzEQo?authuser=0&hl=en&rclk=1,"22.4912489,88.2010535"
Baitul Muyazzam Jame Masjid,Mosque,"C4PW+26P Baitul Muyazzam Jame Masjid, Budge Budge, Mayapur, West Bengal 743318",Budge Budge,C4PW+26P,Mayapur,,West Bengal,IN,https://www.google.com/maps/place/Baitul+Muyazzam+Jame+Masjid/data=!4m7!3m6!1s0x3a028755fd3196b1:0xb790933b1f860d7f!8m2!3d22.435086!4d88.1455716!16s%2Fg%2F11pvblx8fm!19sChIJsZYx_VWHAjoRfw2GHzuTkLc?authuser=0&hl=en&rclk=1,"22.435086,88.1455716"
Masjid E Quba,Religious destination,"G647+2GM Masjid E Quba, Nangi, Budge Budge, Maheshtala, West Bengal 700140","Nangi, Budge Budge",G647+2GM,Maheshtala,700140,West Bengal,IN,https://www.google.com/maps/place/Masjid+E+Quba/data=!4m7!3m6!1s0x3a027d6d5643d5d9:0xa85ed5c848ddfa5f!8m2!3d22.5050818!4d88.2137976!16s%2Fg%2F11h26bpg0v!19sChIJ2dVDVm19AjoRX_rdSMjVXqg?authuser=0&hl=en&rclk=1,"22.5050818,88.21379759999999"
msjide aahmaadiy'aa jummaa msjid nishcintpur khaalpaadd',Mosque,"F54C+GJ5 msjide aahmaadiy'aa jummaa msjid nishcintpur khaalpaadd', Nishchintapur, Budge Budge, Kolkata, Buita, West Bengal 700137","Nishchintapur, Budge Budge",F54C+GJ5,"Kolkata, Buita",700137,West Bengal,IN,https://www.google.com/maps/place/%E0%A6%AE%E0%A6%B8%E0%A6%9C%E0%A6%BF%E0%A6%A6%E0%A7%87+%E0%A6%86%E0%A6%B9%E0%A6%AE%E0%A6%BE%E0%A6%A6%E0%A6%BF%E0%A6%AF%E0%A6%BC%E0%A6%BE+%E0%A6%9C%E0%A7%81%E0%A6%AE%E0%A7%8D%E0%A6%AE%E0%A6%BE+%E0%A6%AE%E0%A6%B8%E0%A6%9C%E0%A6%BF%E0%A6%A6+%E0%A6%A8%E0%A6%BF%E0%A6%B6%E0%A7%8D%E0%A6%9A%E0%A6%BF%E0%A6%A8%E0%A7%8D%E0%A6%A4%E0%A6%AA%E0%A7%81%E0%A6%B0+%E0%A6%96%E0%A6%BE%E0%A6%B2%E0%A6%AA%E0%A6%BE%E0%A6%A1%E0%A6%BC/data=!4m7!3m6!1s0x3a027db748197629:0xafaa42ee452520f!8m2!3d22.4562786!4d88.171598!16s%2Fg%2F11l722g_6f!19sChIJKXYZSLd9AjoRD1JS5C6k-go?authuser=0&hl=en&rclk=1,"22.456278599999997,88.171598"
Syed Baba Mazar,Mosque,"F5G8+PVJ Syed Baba Mazar, Ganges Rd, Kalipur, Budge Budge, Kolkata, West Bengal 700137","Kalipur, Budge Budge","F5G8+PVJ, Ganges Rd",Kolkata,700137,West Bengal,IN,https://www.google.com/maps/place/Syed+Baba+Mazar/data=!4m7!3m6!1s0x3a0287a4da54371b:0x8b494453d7f3f2b5!8m2!3d22.4766575!4d88.1672322!16s%2Fg%2F11s82xtp0r!19sChIJGzdU2qSHAjoRtfLz11NESYs?authuser=0&hl=en&rclk=1,"22.476657499999998,88.1672322"
rejbii jummaa msjid,Mosque,"F6P8+VH9 rejbii jummaa msjid, Gumar Gala, Budge Budge, Nandarampur, cirriipotaa, West Bengal 700137","Gumar Gala, Budge Budge",F6P8+VH9,"Nandarampur, cirriipotaa",,West Bengal,IN,https://www.google.com/maps/place/%E0%A6%B0%E0%A7%87%E0%A6%9C%E0%A6%AC%E0%A7%80+%E0%A6%9C%E0%A7%81%E0%A6%AE%E0%A7%8D%E0%A6%AE%E0%A6%BE+%E0%A6%AE%E0%A6%B8%E0%A6%9C%E0%A6%BF%E0%A6%A6/data=!4m7!3m6!1s0x3a027de27b520965:0xe5d3be68e2dbdf67!8m2!3d22.4871632!4d88.2164825!16s%2Fg%2F11j083s_d3!19sChIJZQlSe-J9AjoRZ9_b4mi-0-U?authuser=0&hl=en&rclk=1,"22.487163199999998,88.2164825"
Nurania Jumma Masjid (barabattala),Mosque,"F45G+VVR Nurania Jumma Masjid (barabattala), Budge Budge, Pujali, West Bengal 700138",Budge Budge,F45G+VVR,Pujali,700138,West Bengal,IN,https://www.google.com/maps/place/Nurania+Jumma+Masjid+%28barabattala%29/data=!4m7!3m6!1s0x3a0287cd02567863:0x8ae060be241b62c5!8m2!3d22.4597375!4d88.1271406!16s%2Fg%2F11jt251f9t!19sChIJY3hWAs2HAjoRxWIbJL5g4Io?authuser=0&hl=en&rclk=1,"22.4597375,88.12714059999999"
"Hazrat Hidaytul Islam, Urf Pagal Sah, Chisti Nejami Rehmani",Mosque,"G53X+QVV Hazrat Hidaytul Islam, Urf Pagal Sah, Chisti Nejami Rehmani, Chak Chandul, Nangi, Hentalkhali, Maheshtala, West Bengal 700137","Chak Chandul, Nangi, Hentalkhali",G53X+QVV,Maheshtala,,West Bengal,IN,"https://www.google.com/maps/place/Hazrat+Hidaytul+Islam,+Urf+Pagal+Sah,+Chisti+Nejami+Rehmani/data=!4m7!3m6!1s0x3a027d8a6b283fb3:0x3f4b71e45156f796!8m2!3d22.5044878!4d88.1996751!16s%2Fg%2F11fnp3xxrh!19sChIJsz8oa4p9AjoRlvdWUeRxSz8?authuser=0&hl=en&rclk=1","22.5044878,88.1996751"
msjd Masjid msjid,Mosque,"F638+Q3W msjd Masjid msjid, Unnamed Road, Paikpara, Kisorpur, West Bengal 700137",Paikpara,"F638+Q3W, Unnamed Road",Kisorpur,700137,West Bengal,IN,https://www.google.com/maps/place/%D9%85%D8%B3%D8%AC%D8%AF+Masjid+%E0%A6%AE%E0%A6%B8%E0%A6%9C%E0%A6%BF%E0%A6%A6%E2%80%AD/data=!4m7!3m6!1s0x3a027d5794e87793:0xd5a0690db2d632ed!8m2!3d22.4544998!4d88.2152062!16s%2Fg%2F11q7bcbjxq!19sChIJk3folFd9AjoR7TLWsg1poNU?authuser=0&hl=en&rclk=1,"22.4544998,88.2152062"
Noori Masjid,Mosque,"G63V+Q6C Noori Masjid, Darji Para, Chandan Nagar, Maheshtala, West Bengal 700140","Darji Para, Chandan Nagar",G63V+Q6C,Maheshtala,700140,West Bengal,IN,https://www.google.com/maps/place/Noori+Masjid/data=!4m7!3m6!1s0x3a027d4d41f3efab:0xac47985a4ef321f6!8m2!3d22.5046897!4d88.243364!16s%2Fg%2F11st8fg113!19sChIJq-_zQU19AjoR9iHzTlqYR6w?authuser=0&hl=en&rclk=1,"22.5046897,88.243364"
bishukhaaNdd'aa iidgaah maatth,Mosque,"C5XF+V8Q bishukhaaNdd'aa iidgaah maatth, bishukhaaNdd'aa, Budge Budge, Buita, West Bengal 700137",Budge Budge,"C5XF+V8Q, bishukhaaNdd'aa","Buita, Raypur",700137,West Bengal,IN,https://www.google.com/maps/place/%E0%A6%AC%E0%A6%BF%E0%A6%B6%E0%A7%81%E0%A6%96%E0%A6%BE%E0%A6%81%E0%A6%A1%E0%A6%BC%E0%A6%BE+%E0%A6%88%E0%A6%A6%E0%A6%97%E0%A6%BE%E0%A6%B9+%E0%A6%AE%E0%A6%BE%E0%A6%A0/data=!4m7!3m6!1s0x3a027dbfcfb04b43:0x1c2239fe2d6fe9a7!8m2!3d22.4497199!4d88.1733523!16s%2Fg%2F11rz4rl7sy!19sChIJQ0uwz799AjoRp-lvLf45Ihw?authuser=0&hl=en&rclk=1,"22.449719899999998,88.17335229999999"
duurgaa maatth(Durga math),Playground,"F45Q+M5G duurgaa maatth(Durga math), Rajarampur, Budge Budge, Pujali, West Bengal 700138",Budge Budge,"F45Q+M5G, Rajarampur",Pujali,700138,West Bengal,IN,https://www.google.com/maps/place/%E0%A6%A6%E0%A7%82%E0%A6%B0%E0%A7%8D%E0%A6%97%E0%A6%BE+%E0%A6%AE%E0%A6%BE%E0%A6%A0%28Durga+math%29/data=!4m7!3m6!1s0x3a028790f8ff54c5:0x70d8e0ef3a65cc35!8m2!3d22.4591913!4d88.1379602!16s%2Fg%2F11pf5vw_2f!19sChIJxVT_-JCHAjoRNcxlOu_g2HA?authuser=0&hl=en&rclk=1,"22.4591913,88.1379602"
Sottopir Baba Mazar,Mosque,"F587+33 Sottopir Baba Mazar, Budge Budge, Kolkata, Baratala, West Bengal 700138",Budge Budge,F587+33,"Kolkata, Baratala",700138,West Bengal,IN,https://www.google.com/maps/place/Sottopir+Baba+Mazar/data=!4m7!3m6!1s0x3a028731873bf819:0x540c0f58f437bf8e!8m2!3d22.464937!4d88.1624139!16s%2Fg%2F11khzjg89c!19sChIJGfg7hzGHAjoRjr839FgPDFQ?authuser=0&hl=en&rclk=1,"22.464937,88.16241389999999"
5pir tala,Mosque,"F42W+2MH 5pir tala, Budge Budge, Durgapur, West Bengal 743318",Budge Budge,F42W+2MH,Durgapur,743318,West Bengal,IN,https://www.google.com/maps/place/5pir+tala/data=!4m7!3m6!1s0x3a02873392850535:0x633480d9a86ba068!8m2!3d22.4500571!4d88.1467283!16s%2Fg%2F11rvhv5_ps!19sChIJNQWFkjOHAjoRaKBrqNmANGM?authuser=0&hl=en&rclk=1,"22.4500571,88.14672829999999"
daarul aamaan jaame msjid,Mosque,"F5GC+HQJ daarul aamaan jaame msjid, Kalipur, Budge Budge, Kolkata, West Bengal 700137","Kalipur, Budge Budge",F5GC+HQJ,Kolkata,700137,West Bengal,IN,https://www.google.com/maps/place/%E0%A6%A6%E0%A6%BE%E0%A6%B0%E0%A7%81%E0%A6%B2+%E0%A6%86%E0%A6%AE%E0%A6%BE%E0%A6%A8+%E0%A6%9C%E0%A6%BE%E0%A6%AE%E0%A7%87+%E0%A6%AE%E0%A6%B8%E0%A6%9C%E0%A6%BF%E0%A6%A6/data=!4m7!3m6!1s0x3a027d864ab1ac53:0x5efbcd1a5cfe5eae!8m2!3d22.4764685!4d88.1719!16s%2Fg%2F11l2hnq7_6!19sChIJU6yxSoZ9AjoRrl7-XBrN-14?authuser=0&hl=en&rclk=1,"22.4764685,88.1719"
Al Aksa Masjid,Mosque,"F58F+F76 Al Aksa Masjid, KP Mondal Rd, Nishchintapur, Budge Budge, Banjanharia Charial, West Bengal 700137","Nishchintapur, Budge Budge","F58F+F76, KP Mondal Rd",Banjanharia Charial,700137,West Bengal,IN,https://www.google.com/maps/place/Al+Aksa+Masjid/data=!4m7!3m6!1s0x3a027d0482f2ddf7:0xf84c4ba78747b794!8m2!3d22.4661598!4d88.1731398!16s%2Fg%2F11mpr4_9c_!19sChIJ993yggR9AjoRlLdHh6dLTPg?authuser=0&hl=en&rclk=1,"22.4661598,88.1731398"
Kalipur new central jute mills masjid,Mosque,"Kalipur new central jute mills masjid, 2, Jute Mills Rd, Kalipur, Budge Budge, Kolkata, West Bengal 700137","Kalipur, Budge Budge","2, Jute Mills Rd",Kolkata,700137,West Bengal,IN,https://www.google.com/maps/place/Kalipur+new+central+jute+mills+masjid/data=!4m7!3m6!1s0x3a0287eba051d503:0x3214429fff0b7de6!8m2!3d22.4739178!4d88.1669475!16s%2Fg%2F11qh2mn6hj!19sChIJA9VRoOuHAjoR5n0L_59CFDI?authuser=0&hl=en&rclk=1,"22.4739178,88.16694749999999"
Nangi Dharmatala Masjid,Mosque,"G649+G7P Nangi Dharmatala Masjid, Nangi, Budge Budge, Maheshtala, West Bengal 700140","Nangi, Budge Budge",G649+G7P,Maheshtala,700140,West Bengal,IN,https://www.google.com/maps/place/Nangi+Dharmatala+Masjid/data=!4m7!3m6!1s0x3a027d4275fdc1a1:0x8537cbe2ad9c6f71!8m2!3d22.5063284!4d88.2181991!16s%2Fg%2F11pf2jd8hw!19sChIJocH9dUJ9AjoRcW-creLLN4U?authuser=0&hl=en&rclk=1,"22.506328399999997,88.21819909999999"
Dilip,Mosque,"F6R2+FCM Dilip, Panchanantala Rd, Shyampur, Budge Budge, Maheshtala, West Bengal 700137","Shyampur, Budge Budge","F6R2+FCM, Panchanantala Rd",Maheshtala,700137,West Bengal,IN,https://www.google.com/maps/place/Dilip/data=!4m7!3m6!1s0x3a027d9458e958b1:0x6c6f0c327e52e002!8m2!3d22.4912182!4d88.2010364!16s%2Fg%2F11nnsc49zh!19sChIJsVjpWJR9AjoRAuBSfjIMb2w?authuser=0&hl=en&rclk=1,"22.4912182,88.20103639999999"
Mosque,Mosque,"G646+7GF Mosque, Nangi, Budge Budge, Maheshtala, West Bengal 700140","Nangi, Budge Budge",G646+7GF,Maheshtala,700140,West Bengal,IN,https://www.google.com/maps/place/Mosque/data=!4m7!3m6!1s0x3a027d621233a291:0xeb23f702521bf660!8m2!3d22.5056976!4d88.2113009!16s%2Fg%2F11t49mg_4_!19sChIJkaIzEmJ9AjoRYPYbUgL3I-s?authuser=0&hl=en&rclk=1,"22.505697599999998,88.2113009"
Syed Baba Majar,Mosque,"F5VX+7X2 Syed Baba Majar, 14, Setna Rd, Shyampur, Budge Budge, Maheshtala, West Bengal 700137","Shyampur, Budge Budge","F5VX+7X2, 14, Setna Rd",Maheshtala,700137,West Bengal,IN,https://www.google.com/maps/place/Syed+Baba+Majar/data=!4m7!3m6!1s0x3a027d5d1665a82f:0x9a1fbc1f6ac7b49a!8m2!3d22.4939594!4d88.1999907!16s%2Fg%2F11krcpqgcc!19sChIJL6hlFl19AjoRmrTHah-8H5o?authuser=0&hl=en&rclk=1,"22.493959399999998,88.1999907"
MASJID-E-REHMANIA,Mosque,"MASJID-E-REHMANIA, Vill: Abhirampur, Jatadharitala, KP Mondal Rd, Nishchintapur, Budge Budge, Kolkata, West Bengal","Nishchintapur, Budge Budge","Vill: Abhirampur, Jatadharitala, KP Mondal Rd","Kolkata, Raypur",,West Bengal,IN,https://www.google.com/maps/place/MASJID-E-REHMANIA/data=!4m7!3m6!1s0x3a0263a2863711c3:0xa9df33de1d2567c8!8m2!3d22.4016987!4d88.1983767!16s%2Fg%2F11k5859fk8!19sChIJwxE3hqJjAjoRyGclHd4z36k?authuser=0&hl=en&rclk=1,"22.4016987,88.1983767"
mollaa paadd'aa jaame msjid,Mosque,"G646+7GF mollaa paadd'aa jaame msjid, Nangi, Budge Budge, Maheshtala, West Bengal 700140","Nangi, Budge Budge",G646+7GF,Maheshtala,700140,West Bengal,IN,https://www.google.com/maps/place/%E0%A6%AE%E0%A7%8B%E0%A6%B2%E0%A7%8D%E0%A6%B2%E0%A6%BE+%E0%A6%AA%E0%A6%BE%E0%A6%A1%E0%A6%BC%E0%A6%BE+%E0%A6%9C%E0%A6%BE%E0%A6%AE%E0%A7%87+%E0%A6%AE%E0%A6%B8%E0%A6%9C%E0%A6%BF%E0%A6%A6/data=!4m7!3m6!1s0x3a027dce291661c9:0x479268cdf0f1319f!8m2!3d22.5056751!4d88.2112811!16s%2Fg%2F11l1ywg_kl!19sChIJyWEWKc59AjoRnzHx8M1okkc?authuser=0&hl=en&rclk=1,"22.505675099999998,88.2112811"
Bagmari Jame mosque,Mosque,"F59G+334 Bagmari Jame mosque, Nishchintapur, Budge Budge, Kolkata, West Bengal 700137","Nishchintapur, Budge Budge",F59G+334,Kolkata,700137,West Bengal,IN,https://www.google.com/maps/place/Bagmari+Jame+mosque/data=!4m7!3m6!1s0x3a027d44646b461f:0x13cfcb31020acae5!8m2!3d22.467639!4d88.1751899!16s%2Fg%2F11splh6xn2!19sChIJH0ZrZER9AjoR5coKAjHLzxM?authuser=0&hl=en&rclk=1,"22.467639,88.17518989999999"
Masjid-e- khadija,School,"F44V+G84 Masjid-e- khadija, Dakshinpara Rd, Budge Budge, Pujali, West Bengal 700138",Budge Budge,"F44V+G84, Dakshinpara Rd",Pujali,700138,West Bengal,IN,https://www.google.com/maps/place/Masjid-e-+khadija/data=!4m7!3m6!1s0x3a02876cf004b26d:0x541e6399f341c264!8m2!3d22.4562533!4d88.1433323!16s%2Fg%2F11gs63bw80!19sChIJbbIE8GyHAjoRZMJB85ljHlQ?authuser=0&hl=en&rclk=1,"22.4562533,88.1433323"
Jamalpur mondoll para,Mosque,"C5V8+Q6G Jamalpur mondoll para, Nishchintapur, Budge Budge, Jamalpur, Raypur, West Bengal 700137","Nishchintapur, Budge Budge",C5V8+Q6G,"Jamalpur, Raypur",700137,West Bengal,IN,https://www.google.com/maps/place/Jamalpur+mondoll+para/data=!4m7!3m6!1s0x3a0287902fdb82e1:0x6da0d058524bb53f!8m2!3d22.4444418!4d88.1655871!16s%2Fg%2F11shfw94dr!19sChIJ4YLbL5CHAjoRP7VLUljQoG0?authuser=0&hl=en&rclk=1,"22.4444418,88.1655871"
msjid i belaal,Mosque,"G66X+P9J msjid i belaal, Jagannathgarh, Noapara, Maheshtala, West Bengal 700140","Jagannathgarh, Noapara",G66X+P9J,Maheshtala,700140,West Bengal,IN,https://www.google.com/maps/place/%E0%A6%AE%E0%A6%B8%E0%A6%9C%E0%A6%BF%E0%A6%A6+%E0%A6%87+%E0%A6%AC%E0%A7%87%E0%A6%B2%E0%A6%BE%E0%A6%B2/data=!4m7!3m6!1s0x3a027b55ace7c46f:0x20dfcfa76eeb67e6!8m2!3d22.5118486!4d88.2484015!16s%2Fg%2F11rcqtrvtb!19sChIJb8TnrFV7AjoR5mfrbqfP3yA?authuser=0&hl=en&rclk=1,"22.5118486,88.2484015"
Jagatballavpur Jame Mosjid,Mosque,"C4RR+53G Jagatballavpur Jame Mosjid, Budge Budge, Jagatballavpur, West Bengal 743318",Budge Budge,C4RR+53G,Jagatballavpur,743318,West Bengal,IN,https://www.google.com/maps/place/Jagatballavpur+Jame+Mosjid/data=!4m7!3m6!1s0x3a02878bc7d4462f:0xf86080f00881efd3!8m2!3d22.4404289!4d88.1401963!16s%2Fg%2F11rfrrwtxf!19sChIJL0bUx4uHAjoR0--BCPCAYPg?authuser=0&hl=en&rclk=1,"22.4404289,88.1401963"
Hajjin masjid,Bakery and Cake Shop,"G627+C8V Hajjin masjid, Unnamed Road, Nangi, Budge Budge, Maheshtala, West Bengal 700140","Nangi, Budge Budge","G627+C8V, Unnamed Road",Maheshtala,700140,West Bengal,IN,https://www.google.com/maps/place/Hajjin+masjid/data=!4m7!3m6!1s0x3a027de0eab9c9bb:0x9447a72fa4958c27!8m2!3d22.5011214!4d88.2133025!16s%2Fg%2F11q2qljd60!19sChIJu8m56uB9AjoRJ4yVpC-nR5Q?authuser=0&hl=en&rclk=1,"22.5011214,88.2133025"
Jamalpur Jame Masjid,Mosque,"C5V8+Q46 Jamalpur Jame Masjid, Hasnecha, Jamalpur, Raypur, West Bengal 700137",Hasnecha,C5V8+Q46,"Jamalpur, Raypur",700137,West Bengal,IN,https://www.google.com/maps/place/Jamalpur+Jame+Masjid/data=!4m7!3m6!1s0x3a0287f75333b935:0x596a1baa759c1a1!8m2!3d22.444436!4d88.1652071!16s%2Fg%2F11trns8hz9!19sChIJNbkzU_eHAjoRocFZp7qhlgU?authuser=0&hl=en&rclk=1,"22.444436,88.16520709999999"
