name,main_category,address,address_ward,address_street,address_city,address_postal_code,address_state,address_country_code,link,coordinates
Houze Masjid,Mosque,"Houze Masjid, Houze Masjid STREET, 19/615, RKM St, YV Street, Ganagapeta, Kadapa, Andhra Pradesh 516001","YV Street, Ganagapeta","Houze Masjid STREET, 19/615, RKM St",Kadapa,516001,Andhra Pradesh,IN,https://www.google.com/maps/place/Houze+Masjid/data=!4m7!3m6!1s0x3bb3721c6b481e65:0x58861c491fd1ac8!8m2!3d14.4801497!4d78.8230624!16s%2Fg%2F1w15xwtm!19sChIJZR5IaxxyszsRyBr9kcRhiAU?authuser=0&hl=en&rclk=1,"14.4801497,78.8230624"
Masjid-E-Nakash,Mosque,"FRPG+8CR Masjid-E-Nakash, Masjid E Nakash , Nakash Street . KADAPA, Kadapa",Ganagapeta,"FRPG+8CR, Masjid E Nakash , Nakash Street . KADAPA",Kadapa,,Andhra Pradesh,IN,https://www.google.com/maps/place/Masjid-E-Nakash/data=!4m7!3m6!1s0x3bb371f793136fc3:0xbe282bd3d2e0c682!8m2!3d14.4858526!4d78.826008!16s%2Fg%2F11b7lc39np!19sChIJw28Tk_dxszsRgsbg0tMrKL4?authuser=0&hl=en&rclk=1,"14.4858526,78.826008"
FIMS Masjid,Mosque,"FQJR+V2W FIMS Masjid, Kadapa, Andhra Pradesh 516003",,FQJR+V2W,Kadapa,516003,Andhra Pradesh,IN,https://www.google.com/maps/place/FIMS+Masjid/data=!4m7!3m6!1s0x3bb373d581e7b60d:0xa8d40d20de3a039e!8m2!3d14.4822484!4d78.7900936!16s%2Fg%2F11c1qc_nv6!19sChIJDbbngdVzszsRngM63iAN1Kg?authuser=0&hl=en&rclk=1,"14.4822484,78.79009359999999"
"Usman Masjid, Sainik Nagar, Kadapa",Mosque,"FR8F+WMJ Usman Masjid, Sainik Nagar, Kadapa, Kadapa - Tirupati Rd, Sainik Nagar, Nagarajupeta, Kadapa, Andhra Pradesh 516001","Sainik Nagar, Nagarajupeta","FR8F+WMJ, Kadapa - Tirupati Rd",Kadapa,516001,Andhra Pradesh,IN,"https://www.google.com/maps/place/Usman+Masjid,+Sainik+Nagar,+Kadapa/data=!4m7!3m6!1s0x3bb295c184ba2143:0x65c5f42bb8ae46eb!8m2!3d14.4673351!4d78.8241299!16s%2Fg%2F11g_zkh3gx!19sChIJQyG6hMGVsjsR60auuCv0xWU?authuser=0&hl=en&rclk=1","14.4673351,78.8241299"
BHADAR DIWAN MASJID (EK MINAR),Mosque,"BHADAR DIWAN MASJID (EK MINAR), Marati street, Akkayapalli, Kadapa, Andhra Pradesh 516003",Akkayapalli,Marati street,Kadapa,516003,Andhra Pradesh,IN,https://www.google.com/maps/place/BHADAR+DIWAN+MASJID+%28EK+MINAR%29/data=!4m7!3m6!1s0x3bb373c3c6eb90e3:0x3a7930a5d58111fb!8m2!3d14.4787032!4d78.8150328!16s%2Fg%2F11lgp_p_6d!19sChIJ45DrxsNzszsR-xGB1aUweTo?authuser=0&hl=en&rclk=1,"14.4787032,78.8150328"
Jamia Masjid,Mosque,"FRJC+FR9 Jamia Masjid, YV Street, Ganagapeta, Kadapa, Andhra Pradesh 516001","YV Street, Ganagapeta",FRJC+FR9,Kadapa,516001,Andhra Pradesh,IN,https://www.google.com/maps/place/Jamia+Masjid/data=!4m7!3m6!1s0x3bb3721c340eae05:0xeb41abd1945781d9!8m2!3d14.4811551!4d78.8221112!16s%2Fg%2F1v7pwy24!19sChIJBa4ONBxyszsR2YFXlNGrQes?authuser=0&hl=en&rclk=1,"14.481155099999999,78.8221112"
7 Roads Masjid - Bande Hussain Khan Masjid,Mosque,"FRGF+MJM 7 Roads Masjid - Bande Hussain Khan Masjid, Seven Roads Cir, Ganagapeta, Kadapa, Andhra Pradesh 516001",Ganagapeta,"FRGF+MJM, Seven Roads Cir",Kadapa,516001,Andhra Pradesh,IN,https://www.google.com/maps/place/7+Roads+Masjid+-+Bande+Hussain+Khan+Masjid/data=!4m7!3m6!1s0x3bb3721ba0a9fa9d:0xb7889dcceb066b66!8m2!3d14.4767129!4d78.8240327!16s%2Fg%2F1tjrnf1w!19sChIJnfqpoBtyszsRZmsG68ydiLc?authuser=0&hl=en&rclk=1,"14.476712899999999,78.82403269999999"
Ibrahim Khallelullah Mosque(Aalami Shoora Markaz Hazrat Nizamuddin),Mosque,"Ibrahim Khallelullah Mosque(Aalami Shoora Markaz Hazrat Nizamuddin), 719, Habeebullah St, opp. Ibrahim khalilulla mosque, YV Street, Ganagapeta, Kadapa, Andhra Pradesh 516001","YV Street, Ganagapeta","719, Habeebullah St, opp. Ibrahim khalilulla mosque",Kadapa,516001,Andhra Pradesh,IN,https://www.google.com/maps/place/Ibrahim+Khallelullah+Mosque%28Aalami+Shoora+Markaz+Hazrat+Nizamuddin%29/data=!4m7!3m6!1s0x3bb3721dff6eb75f:0x3faf2b2d8a282ec6!8m2!3d14.4840153!4d78.821515!16s%2Fg%2F1ptynhsgn!19sChIJX7du_x1yszsRxi4oii0rrz8?authuser=0&hl=en&rclk=1,"14.4840153,78.82151499999999"
Masjid-E-Rehmania Ahle Hadees,Mosque,"FRP7+MC6 Masjid-E-Rehmania Ahle Hadees, Almaspet Rd, Bismillah Nagar, Ayesha Nagar, Kadapa, Andhra Pradesh 516001","Bismillah Nagar, Ayesha Nagar","FRP7+MC6, Almaspet Rd",Kadapa,516001,Andhra Pradesh,IN,https://www.google.com/maps/place/Masjid-E-Rehmania+Ahle+Hadees/data=!4m7!3m6!1s0x3bb3718b02ca14c5:0x6314f3ec5f07f0e5!8m2!3d14.4866547!4d78.8135247!16s%2Fg%2F11b6t2hqbs!19sChIJxRTKAotxszsR5fAHX-zzFGM?authuser=0&hl=en&rclk=1,"14.486654699999999,78.8135247"
N.G.O Colony Masjid,Mosque,"N.G.O Colony Masjid, MOSQUE, N.G.O Colony, Kadapa, Andhra Pradesh 516002",N.G.O Colony,MOSQUE,Kadapa,516002,Andhra Pradesh,IN,https://www.google.com/maps/place/N.G.O+Colony+Masjid/data=!4m7!3m6!1s0x3bb3720821cbbd7b:0xf1c28944b2e33049!8m2!3d14.4718891!4d78.8379643!16s%2Fg%2F11cfg78fq!19sChIJe73LIQhyszsRSTDjskSJwvE?authuser=0&hl=en&rclk=1,"14.471889099999999,78.8379643"
Bank Masjid,Mosque,"FR8C+QX9 Bank Masjid, Yerramukkapalli, Kadapa, Andhra Pradesh 516001",Yerramukkapalli,FR8C+QX9,Kadapa,516001,Andhra Pradesh,IN,https://www.google.com/maps/place/Bank+Masjid/data=!4m7!3m6!1s0x3bb37213e1d39655:0x983f79c5501931e1!8m2!3d14.4669055!4d78.8224994!16s%2Fg%2F11g7y750zn!19sChIJVZbT4RNyszsR4TEZUMV5P5g?authuser=0&hl=en&rclk=1,"14.4669055,78.8224994"
Masjid-E-GulKhan(Nabikot),Mosque,"Nabikot, Masjid-E-GulKhan(Nabikot), Kagithala Penta, Ravindra Nagar, Kadapa, Andhra Pradesh 516003","Kagithala Penta, Ravindra Nagar",Nabikot,Kadapa,516003,Andhra Pradesh,IN,https://www.google.com/maps/place/Masjid-E-GulKhan%28Nabikot%29/data=!4m7!3m6!1s0x3bb372228457f79b:0xeb8e38c9e152af3!8m2!3d14.4745855!4d78.8151498!16s%2Fg%2F12hldy1y9!19sChIJm_dXhCJyszsR8yoVnozjuA4?authuser=0&hl=en&rclk=1,"14.4745855,78.8151498"
Noorani Masjid,Mosque,"FR3C+5HM Noorani Masjid, Bhakarapeta, Kadapa, Andhra Pradesh 516004",Bhakarapeta,FR3C+5HM,Kadapa,516004,Andhra Pradesh,IN,https://www.google.com/maps/place/Noorani+Masjid/data=!4m7!3m6!1s0x3bb3726ed3740a9b:0xd7f3c84726d1bae0!8m2!3d14.4529723!4d78.82143!16s%2Fg%2F11bvt582sv!19sChIJmwp0025yszsR4LrRJkfI89c?authuser=0&hl=en&rclk=1,"14.452972299999999,78.82142999999999"
Masjid-E-Khizar,Mosque,"Masjid-E-Khizar, Ganagapeta, Kadapa, Andhra Pradesh 516001",Ganagapeta,,Kadapa,516001,Andhra Pradesh,IN,https://www.google.com/maps/place/Masjid-E-Khizar/data=!4m7!3m6!1s0x3bb371f6db567361:0xbb74374e62b72799!8m2!3d14.488858!4d78.8233962!16s%2Fg%2F11c44xcqxf!19sChIJYXNW2_ZxszsRmSe3Yk43dLs?authuser=0&hl=en&rclk=1,"14.488857999999999,78.82339619999999"
Yaqub Saheb Mosque,Mosque,"FRHG+8WP Yaqub Saheb Mosque, Akula Veedhi, Maria Puram, Kadapa, Andhra Pradesh 516001","Maria Puram, Kadapa","FRHG+8WP, Akula Veedhi",Kadapa,516001,Andhra Pradesh,IN,https://www.google.com/maps/place/Yaqub+Saheb+Mosque/data=!4m7!3m6!1s0x3bb37204aa4c63cf:0x5edab94b2e3c74f2!8m2!3d14.4783474!4d78.8273392!16s%2Fg%2F11bbrp2fzc!19sChIJz2NMqgRyszsR8nQ8Lku52l4?authuser=0&hl=en&rclk=1,"14.478347399999999,78.8273392"
Masjid-e-Almas,Mosque,"FRQ7+C4H Masjid-e-Almas, Almaspet, Ayesha Nagar, Kadapa, Andhra Pradesh 516001","Almaspet, Ayesha Nagar",FRQ7+C4H,Kadapa,516001,Andhra Pradesh,IN,https://www.google.com/maps/place/Masjid-e-Almas/data=!4m7!3m6!1s0x3bb3718b77ab21b1:0xdf2d70fe180b32ea!8m2!3d14.4885728!4d78.8128534!16s%2Fg%2F11cn7wmdfx!19sChIJsSGrd4txszsR6jILGP5wLd8?authuser=0&hl=en&rclk=1,"14.4885728,78.8128534"
FatheKhan Masjid,Mosque,"FR99+P62 FatheKhan Masjid, NH40, Sattar Colony, Ravindra Nagar, Kadapa, Andhra Pradesh 516001","Sattar Colony, Ravindra Nagar","FR99+P62, NH40",Kadapa,516001,Andhra Pradesh,IN,https://www.google.com/maps/place/FatheKhan+Masjid/data=!4m7!3m6!1s0x3bb3721656c2e6a3:0xed84349f99482bc!8m2!3d14.4692588!4d78.818026!16s%2Fg%2F1td28shs!19sChIJo-bCVhZyszsRvIKU-UlD2A4?authuser=0&hl=en&rclk=1,"14.469258799999999,78.818026"
Masjid-E-Roshan Munawar,Mosque,"FR8H+M3G Masjid-E-Roshan Munawar, Maruthi Nagar, Kadapa, Andhra Pradesh 516001","Maruthi Nagar, Kadapa",FR8H+M3G,Kadapa,516001,Andhra Pradesh,IN,https://www.google.com/maps/place/Masjid-E-Roshan+Munawar/data=!4m7!3m6!1s0x3bb3720de483946f:0x86b5a662cdb05555!8m2!3d14.4666819!4d78.8276922!16s%2Fg%2F1hjh3b3nv!19sChIJb5SD5A1yszsRVVWwzWKmtYY?authuser=0&hl=en&rclk=1,"14.4666819,78.8276922"
Masjid-E-Tauheed Ahle Hadees,Mosque,"FRF9+97J Masjid-E-Tauheed Ahle Hadees, law college street, Kagithala Penta, Ravindra Nagar, Kadapa, Andhra Pradesh 516001","Kagithala Penta, Ravindra Nagar","FRF9+97J, law college street",Kadapa,516001,Andhra Pradesh,IN,https://www.google.com/maps/place/Masjid-E-Tauheed+Ahle+Hadees/data=!4m7!3m6!1s0x3bb3721833e511c5:0xa381a95377420cd0!8m2!3d14.4734681!4d78.8181432!16s%2Fg%2F11b6t3g00y!19sChIJxRHlMxhyszsR0AxCd1OpgaM?authuser=0&hl=en&rclk=1,"14.4734681,78.8181432"
Masjid-E-Habeebiya,Mosque,"FRPC+843 Masjid-E-Habeebiya, Bellary road, Ayesha Nagar, Kadapa, Andhra Pradesh 516001",Ayesha Nagar,"FRPC+843, Bellary road",Kadapa,,Andhra Pradesh,IN,https://www.google.com/maps/place/Masjid-E-Habeebiya/data=!4m7!3m6!1s0x3bb371f5c3eca2f9:0x872ebbd3e376d940!8m2!3d14.4857654!4d78.8202966!16s%2Fg%2F11bw61gwk2!19sChIJ-aLsw_VxszsRQNl249O7Loc?authuser=0&hl=en&rclk=1,"14.4857654,78.82029659999999"
Mohammadiya Masjid,Mosque,"FR4M+G3C Mohammadiya Masjid, Aravind Nagar, Kadapa, Andhra Pradesh 516001",Aravind Nagar,FR4M+G3C,Kadapa,516001,Andhra Pradesh,IN,https://www.google.com/maps/place/Mohammadiya+Masjid/data=!4m7!3m6!1s0x3bb3727400afaed5:0xe0f2a8d57bf213ce!8m2!3d14.4563141!4d78.8326315!16s%2Fg%2F1hm2f1wx6!19sChIJ1a6vAHRyszsRzhPye9Wo8uA?authuser=0&hl=en&rclk=1,"14.4563141,78.83263149999999"
Masjid e Ameenia,Mosque,"Masjid e Ameenia, Ameen Peer Dargah, Ameen Peer Rd, YV Street, Ganagapeta, Kadapa, Andhra Pradesh 516001","YV Street, Ganagapeta","Ameen Peer Dargah, Ameen Peer Rd",Kadapa,516001,Andhra Pradesh,IN,https://www.google.com/maps/place/Masjid+e+Ameenia/data=!4m7!3m6!1s0x3bb3713ea88f4d19:0xf14422b0dcd1c3fa!8m2!3d14.4851755!4d78.8239907!16s%2Fg%2F11j1d3z9qk!19sChIJGU2PqD5xszsR-sPR3LAiRPE?authuser=0&hl=en&rclk=1,"14.485175499999999,78.8239907"
Masjid-E-Aqsa,Mosque,"FRCF+C45 Masjid-E-Aqsa, Railway Station Rd, Opp Womens Digree college, Maria Puram, Kadapa, Andhra Pradesh 516001","Maria Puram, Kadapa","FRCF+C45, Railway Station Rd, Opp Womens Digree college",Kadapa,516001,Andhra Pradesh,IN,https://www.google.com/maps/place/Masjid-E-Aqsa/data=!4m7!3m6!1s0x3bb37210ebdbacff:0x84ace554f71a61fc!8m2!3d14.4710064!4d78.8228599!16s%2Fg%2F11dx8j17cz!19sChIJ_6zb6xByszsR_GEa91TlrIQ?authuser=0&hl=en&rclk=1,"14.471006399999998,78.8228599"
Masjid-A-Hussainiya,Mosque,"FRQ8+7H3 Masjid-A-Hussainiya, Agadi St, Ayesha Nagar, Kadapa, Andhra Pradesh 516001",Ayesha Nagar,"FRQ8+7H3, Agadi St",Kadapa,516001,Andhra Pradesh,IN,https://www.google.com/maps/place/Masjid-A-Hussainiya/data=!4m7!3m6!1s0x3bb371f4b8757305:0x51252e39cdda9138!8m2!3d14.4881396!4d78.8164363!16s%2Fg%2F1ptwjd68s!19sChIJBXN1uPRxszsROJHazTkuJVE?authuser=0&hl=en&rclk=1,"14.4881396,78.81643629999999"
MASJID-E-HAZARAT ABU BAKAR SIDDIQ (RA),Mosque,"FRGQ+WCF MASJID-E-HAZARAT ABU BAKAR SIDDIQ (RA), Nehru Nagar, Chinna Chowk, Kadapa, Andhra Pradesh 516002","Nehru Nagar, Chinna Chowk",FRGQ+WCF,Kadapa,516002,Andhra Pradesh,IN,https://www.google.com/maps/place/MASJID-E-HAZARAT+ABU+BAKAR+SIDDIQ+%28RA%29/data=!4m7!3m6!1s0x3bb36df89c16687f:0xa1e404516ce4be10!8m2!3d14.4773195!4d78.8385384!16s%2Fg%2F11c2r0z1n_!19sChIJf2gWnPhtszsREL7kbFEE5KE?authuser=0&hl=en&rclk=1,"14.4773195,78.83853839999999"
Ameensha Fakhira (Sunni) Mosque,Mosque,"FRFF+Q8R Ameensha Fakhira (Sunni) Mosque, Near Sr.NTR Circle, Maria Puram, Kadapa, Andhra Pradesh 516001","Maria Puram, Kadapa","FRFF+Q8R, Near Sr.NTR Circle",Kadapa,516001,Andhra Pradesh,IN,https://www.google.com/maps/place/Ameensha+Fakhira+%28Sunni%29+Mosque/data=!4m7!3m6!1s0x3bb3721a448846cf:0xa7ed0ecf963cc36b!8m2!3d14.4744856!4d78.8232633!16s%2Fg%2F1hm2gfv4w!19sChIJz0aIRBpyszsRa8M8ls8O7ac?authuser=0&hl=en&rclk=1,"14.4744856,78.8232633"
Masjid-E-Hamza,Mosque,"Masjid-E-Hamza, 2/980, Maria Puram, Kadapa, Andhra Pradesh 516001","Maria Puram, Kadapa",2/980,Kadapa,516001,Andhra Pradesh,IN,https://www.google.com/maps/place/Masjid-E-Hamza/data=!4m7!3m6!1s0x3bb3721732c9fa57:0x78d0c352817784c4!8m2!3d14.4705503!4d78.8212509!16s%2Fg%2F11g7z681gc!19sChIJV_rJMhdyszsRxIR3gVLD0Hg?authuser=0&hl=en&rclk=1,"14.4705503,78.8212509"
Markaz-E-Abbas (Alami Shura Kadapa District Markaz),Mosque,"FR79+3GJ Markaz-E-Abbas (Alami Shura Kadapa District Markaz), Balaji Nagar, Kadapa, Andhra Pradesh 516003",Balaji Nagar,FR79+3GJ,Kadapa,516003,Andhra Pradesh,IN,https://www.google.com/maps/place/Markaz-E-Abbas+%28Alami+Shura+Kadapa+District+Markaz%29/data=!4m7!3m6!1s0x3bb37214e0d655fd:0xecb01287e0d4a44f!8m2!3d14.4627005!4d78.8187781!16s%2Fg%2F11fy_gf4d3!19sChIJ_VXW4BRyszsRT6TU4IcSsOw?authuser=0&hl=en&rclk=1,"14.462700499999999,78.8187781"
Ayesha Masjid,Mosque,"FRQ9+2XM Ayesha Masjid, Ayesha Nagar, Kadapa, Andhra Pradesh 516001",Ayesha Nagar,FRQ9+2XM,Kadapa,516001,Andhra Pradesh,IN,https://www.google.com/maps/place/Ayesha+Masjid/data=!4m7!3m6!1s0x3bb371f437f0951d:0xd3640ec5be922907!8m2!3d14.4875775!4d78.8199072!16s%2Fg%2F11by_gz56k!19sChIJHZXwN_RxszsRBymSvsUOZNM?authuser=0&hl=en&rclk=1,"14.487577499999999,78.8199072"
Masjid-E-Fathima Ahle Hadees,Mosque,"FR97+JW9 Masjid-E-Fathima Ahle Hadees, Shastri Nagar, Ravindra Nagar, Kadapa, Andhra Pradesh 516001","Shastri Nagar, Ravindra Nagar",FR97+JW9,Kadapa,516001,Andhra Pradesh,IN,https://www.google.com/maps/place/Masjid-E-Fathima+Ahle+Hadees/data=!4m7!3m6!1s0x3bb3723d9bea4e51:0xa5c5f99730d15530!8m2!3d14.4690368!4d78.8148672!16s%2Fg%2F11dzw71jp8!19sChIJUU7qmz1yszsRMFXRMJf5xaU?authuser=0&hl=en&rclk=1,"14.4690368,78.8148672"
Masjid-E-Saliheen,Mosque,"FR5F+JC8 Masjid-E-Saliheen, Unnamed Road, Gandhinagar, Yerramukkapalli, Kadapa, Andhra Pradesh 516004","Gandhinagar, Yerramukkapalli","FR5F+JC8, Unnamed Road",Kadapa,516004,Andhra Pradesh,IN,https://www.google.com/maps/place/Masjid-E-Saliheen/data=!4m7!3m6!1s0x3bb373d93480ee6d:0x23d81ea86f28b444!8m2!3d14.459036!4d78.823564!16s%2Fg%2F11h03dj7nk!19sChIJbe6ANNlzszsRRLQob6ge2CM?authuser=0&hl=en&rclk=1,"14.459036,78.82356399999999"
Masjid-E-Farooq,Mosque,"FRPJ+8RM Masjid-E-Farooq, Ghouse Nagar, Kadapa, Andhra Pradesh 516001",Ghouse Nagar,FRPJ+8RM,Kadapa,516001,Andhra Pradesh,IN,https://www.google.com/maps/place/Masjid-E-Farooq/data=!4m7!3m6!1s0x3bb371f8b7084ca7:0xd08230f5ecdf5949!8m2!3d14.4858405!4d78.8320588!16s%2Fg%2F11dzx7qf39!19sChIJp0wIt_hxszsRSVnf7PUwgtA?authuser=0&hl=en&rclk=1,"14.4858405,78.8320588"
Masjid-E-Sabira,Mosque,"FRM7+V4M Masjid-E-Sabira, Bismillah Nagar, Ayesha Nagar, Kadapa, Andhra Pradesh 516001","Bismillah Nagar, Ayesha Nagar",FRM7+V4M,Kadapa,516001,Andhra Pradesh,IN,https://www.google.com/maps/place/Masjid-E-Sabira/data=!4m7!3m6!1s0x3bb3718a89e331fd:0xba02fcd99c8ac33a!8m2!3d14.4847077!4d78.8127932!16s%2Fg%2F11cjk55g1d!19sChIJ_THjiYpxszsROsOKnNn8Aro?authuser=0&hl=en&rclk=1,"14.4847077,78.8127932"
Masjid-E-Ahle Hadees,Mosque,"FRJG+7HP Masjid-E-Ahle Hadees, msm street, near DC Road, A. p, Ganagapeta, Kadapa, Andhra Pradesh 516001","A. p, Ganagapeta","FRJG+7HP, msm street, near DC Road",Kadapa,516001,Andhra Pradesh,IN,https://www.google.com/maps/place/Masjid-E-Ahle+Hadees/data=!4m7!3m6!1s0x3bb372032c6f289f:0xfcd66051d64547c1!8m2!3d14.4807071!4d78.8264668!16s%2Fg%2F11fz9zl9v2!19sChIJnyhvLANyszsRwUdF1lFg1vw?authuser=0&hl=en&rclk=1,"14.4807071,78.82646679999999"
Masjid-E-Abubakar Siddiq,Mosque,"FRMH+F86 Masjid-E-Abubakar Siddiq, Ganagapeta, Kadapa, Andhra Pradesh 516001",Ganagapeta,FRMH+F86,Kadapa,516001,Andhra Pradesh,IN,https://www.google.com/maps/place/Masjid-E-Abubakar+Siddiq/data=!4m7!3m6!1s0x3bb37202bd361845:0xf131857492cd9be6!8m2!3d14.4836741!4d78.8282635!16s%2Fg%2F11g9sycy72!19sChIJRRg2vQJyszsR5pvNknSFMfE?authuser=0&hl=en&rclk=1,"14.4836741,78.82826349999999"
Masjid-E-Ghouse Azam (Mosque ),Mosque,"FRPM+4R3 Masjid-E-Ghouse Azam (Mosque ), Ghouse Nagar, Kadapa, Andhra Pradesh 516001",Ghouse Nagar,FRPM+4R3,Kadapa,516001,Andhra Pradesh,IN,https://www.google.com/maps/place/Masjid-E-Ghouse+Azam+%28Mosque+%29/data=!4m7!3m6!1s0x3bb371ff651d4e7f:0xecd345a030282336!8m2!3d14.4852661!4d78.8345476!16s%2Fg%2F11bw64ld5b!19sChIJf04dZf9xszsRNiMoMKBF0-w?authuser=0&hl=en&rclk=1,"14.485266099999999,78.8345476"
Masjid-E-Siddiq,Mosque,"Masjid-E-Siddiq, Ukkayapalli, Chinna Chowk, Kadapa, Andhra Pradesh 516002",Chinna Chowk,Ukkayapalli,Kadapa,516002,Andhra Pradesh,IN,https://www.google.com/maps/place/Masjid-E-Siddiq/data=!4m7!3m6!1s0x3bb36dfb79107367:0x5d02e8ca131fc413!8m2!3d14.4790892!4d78.8469789!16s%2Fg%2F11cms900rl!19sChIJZ3MQefttszsRE8QfE8roAl0?authuser=0&hl=en&rclk=1,"14.479089199999999,78.8469789"
Masjid-E-Quba,Mosque,"FV47+HR6 Masjid-E-Quba, Rd To Urdu School, Sagar Colony, Ramanjaneya Puram, Near AT Urdu Boys Residential High School, Kadapa, Andhra Pradesh 516003",,"FV47+HR6, Rd To Urdu School, Sagar Colony, Ramanjaneya Puram, Near AT Urdu Boys Residential High School","Kadapa, Puttampalli",516003,Andhra Pradesh,IN,https://www.google.com/maps/place/Masjid-E-Quba/data=!4m7!3m6!1s0x3bb36dbc39f58b5d:0x93c4cd49f5886003!8m2!3d14.4564149!4d78.8645259!16s%2Fg%2F11b6j8xcnr!19sChIJXYv1ObxtszsRA2CI9UnNxJM?authuser=0&hl=en&rclk=1,"14.456414899999999,78.86452589999999"
Masjid-E-Amina,Mosque,"FRH2+GJG Masjid-E-Amina, Mariapuram, Kadapa, Andhra Pradesh 516001",Mariapuram,FRH2+GJG,Kadapa,516001,Andhra Pradesh,IN,https://www.google.com/maps/place/Masjid-E-Amina/data=!4m7!3m6!1s0x3bb37228dfda17c5:0x2f2101507a8abba0!8m2!3d14.4788125!4d78.8015775!16s%2Fg%2F11c1q9vszp!19sChIJxRfa3yhyszsRoLuKelABIS8?authuser=0&hl=en&rclk=1,"14.4788125,78.8015775"
Jafar Masjid,Mosque,"FR76+PC5 Jafar Masjid, Chemmumiahpet, Ravindra Nagar, Kadapa, Andhra Pradesh 516001","Chemmumiahpet, Ravindra Nagar",FR76+PC5,Kadapa,516001,Andhra Pradesh,IN,https://www.google.com/maps/place/Jafar+Masjid/data=!4m7!3m6!1s0x3bb3723edd37a94d:0xaf913b022b13d45b!8m2!3d14.4642739!4d78.8111202!16s%2Fg%2F11h9z8n83v!19sChIJTak33T5yszsRW9QTKwI7ka8?authuser=0&hl=en&rclk=1,"14.464273899999998,78.81112019999999"
Masjid-E-QUBHA,Mosque,"CRW2+C3G Masjid-E-QUBHA, azad nagar, Apparajupalle, Andhra Pradesh 516003",azad nagar,CRW2+C3G,Apparajupalle,516003,Andhra Pradesh,IN,https://www.google.com/maps/place/Masjid-E-QUBHA/data=!4m7!3m6!1s0x3bb37251a1a82121:0x462d12285fcc4301!8m2!3d14.4460724!4d78.8002006!16s%2Fg%2F11c7hht4rw!19sChIJISGooVFyszsRAUPMXygSLUY?authuser=0&hl=en&rclk=1,"14.446072399999998,78.8002006"
Rehmania Masjid,Mosque,"FRFW+WHW Rehmania Masjid, Chinna Chowk, Kadapa, Andhra Pradesh 516002",Chinna Chowk,FRFW+WHW,Kadapa,516002,Andhra Pradesh,IN,https://www.google.com/maps/place/Rehmania+Masjid/data=!4m7!3m6!1s0x3bb36dfa61584973:0xc19af7e02957028e!8m2!3d14.4748678!4d78.8464458!16s%2Fg%2F11ggr7t91b!19sChIJc0lYYfptszsRjgJXKeD3msE?authuser=0&hl=en&rclk=1,"14.4748678,78.8464458"
Masjid E Anwarullah,Mosque,"Masjid E Anwarullah, Main Road A1 Nagar, Saipet, Kadapa, Andhra Pradesh 516001",Saipet,Main Road A1 Nagar,Kadapa,516001,Andhra Pradesh,IN,https://www.google.com/maps/place/Masjid+E+Anwarullah/data=!4m7!3m6!1s0x3bb37188b31859bb:0xae841fa7bcfd705!8m2!3d14.4923864!4d78.8126556!16s%2Fg%2F11c3vjblk5!19sChIJu1kYs4hxszsRBdfPe_pB6Ao?authuser=0&hl=en&rclk=1,"14.4923864,78.8126556"
Maddakhan masjid,Mosque,"Maddakhan masjid, savaipura street, Almasper road, Bismillah Nagar, Ayesha Nagar, Kadapa, Andhra Pradesh 516001","Bismillah Nagar, Ayesha Nagar","savaipura street, Almasper road",Kadapa,516001,Andhra Pradesh,IN,https://www.google.com/maps/place/Maddakhan+masjid/data=!4m7!3m6!1s0x3bb3722073b12937:0xa598be55ba5a01c7!8m2!3d14.4832417!4d78.8139968!16s%2Fg%2F11fxzm0mxx!19sChIJNymxcyByszsRxwFaulW-mKU?authuser=0&hl=en&rclk=1,"14.483241699999999,78.8139968"
Masjid Al Makka,Mosque,"FVF6+93J Masjid Al Makka, Bellary - Nellore Rd, Rama Krishna Nagar, Kadapa, Andhra Pradesh 516002",Rama Krishna Nagar,"FVF6+93J, Bellary - Nellore Rd",Kadapa,516002,Andhra Pradesh,IN,https://www.google.com/maps/place/Masjid+Al+Makka/data=!4m7!3m6!1s0x3bb36de810bfaa6b:0xaf58e882cdbb7cac!8m2!3d14.4734685!4d78.8601261!16s%2Fg%2F11f3x7rrwv!19sChIJa6q_EOhtszsRrHy7zYLoWK8?authuser=0&hl=en&rclk=1,"14.4734685,78.8601261"
Masjid-E-Sahaba,Mosque,"CQVX+CPF Masjid-E-Sahaba, Apparajupalle, Andhra Pradesh 516003",,CQVX+CPF,Apparajupalle,516003,Andhra Pradesh,IN,https://www.google.com/maps/place/Masjid-E-Sahaba/data=!4m7!3m6!1s0x3bb37251501cccad:0xf32a4ea9417630ec!8m2!3d14.4435532!4d78.7993111!16s%2Fg%2F11g6_wskb7!19sChIJrcwcUFFyszsR7DB2QalOKvM?authuser=0&hl=en&rclk=1,"14.4435532,78.7993111"
Noor Masjid,Mosque,"FRH8+CG6 Noor Masjid, Ravindra Nagar, Kadapa, Andhra Pradesh 516001",Ravindra Nagar,FRH8+CG6,Kadapa,516001,Andhra Pradesh,IN,https://www.google.com/maps/place/Noor+Masjid/data=!4m7!3m6!1s0x3bb3721f51e4336d:0xc7e6d5dca720efba!8m2!3d14.4785388!4d78.816253!16s%2Fg%2F11g8f6zyfx!19sChIJbTPkUR9yszsRuu8gp9zV5sc?authuser=0&hl=en&rclk=1,"14.478538799999999,78.816253"
Masjid-E-Timmarji,Mosque,"FRR8+W9F Masjid-E-Timmarji, Saipet, Kadapa, Andhra Pradesh 516001",Saipet,FRR8+W9F,Kadapa,516001,Andhra Pradesh,IN,https://www.google.com/maps/place/Masjid-E-Timmarji/data=!4m7!3m6!1s0x3bb371f32a25464f:0xf21510d3eb48faf8!8m2!3d14.4923147!4d78.8159244!16s%2Fg%2F11b7rtt3my!19sChIJT0YlKvNxszsR-PpI69MQFfI?authuser=0&hl=en&rclk=1,"14.4923147,78.8159244"
Pakki Masjid (Hazrath Yaqub Tavvakkali Rh ),Mosque,"FRQ7+RQM Pakki Masjid (Hazrath Yaqub Tavvakkali Rh ), Agadi St, Ayesha Nagar, Kadapa, Andhra Pradesh 516001",Ayesha Nagar,"FRQ7+RQM, Agadi St",Kadapa,516001,Andhra Pradesh,IN,https://www.google.com/maps/place/Pakki+Masjid+%28Hazrath+Yaqub+Tavvakkali+Rh+%29/data=!4m7!3m6!1s0x3bb3718ca0ed727d:0x35a6464d72b8dccf!8m2!3d14.4895909!4d78.8144256!16s%2Fg%2F11fxrn494v!19sChIJfXLtoIxxszsRz9y4ck1GpjU?authuser=0&hl=en&rclk=1,"14.4895909,78.81442559999999"
Al Hasmi Masjid,Mosque,"FRG5+45G Al Hasmi Masjid, Mariapuram, Kadapa, Andhra Pradesh 516001",Mariapuram,FRG5+45G,Kadapa,516001,Andhra Pradesh,IN,https://www.google.com/maps/place/Al+Hasmi+Masjid/data=!4m7!3m6!1s0x3bb372245a66570f:0x6611fdc8718bd895!8m2!3d14.4753221!4d78.8079481!16s%2Fg%2F11xpb5v4r!19sChIJD1dmWiRyszsRldiLccj9EWY?authuser=0&hl=en&rclk=1,"14.4753221,78.80794809999999"
Siddhique Masjid,Mosque,"FR97+H9Q Siddhique Masjid, Shastri Nagar, Ravindra Nagar, Kadapa, Andhra Pradesh 516001","Shastri Nagar, Ravindra Nagar",FR97+H9Q,Kadapa,516001,Andhra Pradesh,IN,https://www.google.com/maps/place/Siddhique+Masjid/data=!4m7!3m6!1s0x3bb3723daf591aff:0x56f478e17f9fe0ae!8m2!3d14.4689514!4d78.8134741!16s%2Fg%2F11btstwh1z!19sChIJ_xpZrz1yszsRruCff-F49FY?authuser=0&hl=en&rclk=1,"14.4689514,78.8134741"
MASJID-E-FATIMATUZZAHRA,Mosque,"FRPG+JHG MASJID-E-FATIMATUZZAHRA, Ganagapeta, Kadapa, Andhra Pradesh 516001",Ganagapeta,FRPG+JHG,Kadapa,516001,Andhra Pradesh,IN,https://www.google.com/maps/place/MASJID-E-FATIMATUZZAHRA/data=!4m7!3m6!1s0x3bb371f785beb4f1:0x7ba31bc406242aa3!8m2!3d14.4865688!4d78.8264671!16s%2Fg%2F11dymqzf1q!19sChIJ8bS-hfdxszsRoyokBsQbo3s?authuser=0&hl=en&rclk=1,"14.486568799999999,78.8264671"
Masjid Ek Minar,Mosque,"FRH7+9RM Masjid Ek Minar, Kadapa, Andhra Pradesh 516001",,FRH7+9RM,Kadapa,516001,Andhra Pradesh,IN,https://www.google.com/maps/place/Masjid+Ek+Minar/data=!4m7!3m6!1s0x3bb37221f03a7359:0xb8ef18b3ac1dce02!8m2!3d14.4784691!4d78.8145346!16s%2Fg%2F11df8xhhrz!19sChIJWXM68CFyszsRAs4drLMY77g?authuser=0&hl=en&rclk=1,"14.4784691,78.8145346"
Masjid-E-Mazehar,Mosque,"FRR4+3JM Masjid-E-Mazehar, Vinayaka Nagar, Kadapa, Andhra Pradesh 516001",Vinayaka Nagar,FRR4+3JM,Kadapa,516001,Andhra Pradesh,IN,https://www.google.com/maps/place/Masjid-E-Mazehar/data=!4m7!3m6!1s0x3bb3718f249df911:0x9fcdc75565003de3!8m2!3d14.4902023!4d78.806539!16s%2Fg%2F11gfn633z8!19sChIJEfmdJI9xszsR4z0AZVXHzZ8?authuser=0&hl=en&rclk=1,"14.4902023,78.806539"
Masjid-E-Bukhariya,Mosque,"FRG9+V4H Masjid-E-Bukhariya, Ravindra Nagar, Kadapa, Andhra Pradesh 516001",Ravindra Nagar,FRG9+V4H,Kadapa,516001,Andhra Pradesh,IN,https://www.google.com/maps/place/Masjid-E-Bukhariya/data=!4m7!3m6!1s0x3bb37348fab47309:0x4a91ffeb9ccf580c!8m2!3d14.4771826!4d78.8178451!16s%2Fg%2F11g0kfy29s!19sChIJCXO0-khzszsRDFjPnOv_kUo?authuser=0&hl=en&rclk=1,"14.477182599999999,78.8178451"
Masjid-E-Nabavi,Mosque,"FR9J+7GW Masjid-E-Nabavi, Kadapa, Andhra Pradesh 516001",Kadapa,FR9J+7GW,Kadapa,,Andhra Pradesh,IN,https://www.google.com/maps/place/Masjid-E-Nabavi/data=!4m7!3m6!1s0x3bb3720ebd7c967b:0x369c7cb4e4c805ab!8m2!3d14.4682429!4d78.8313321!16s%2Fg%2F11gf94x0ks!19sChIJe5Z8vQ5yszsRqwXI5LR8nDY?authuser=0&hl=en&rclk=1,"14.4682429,78.8313321"
Masjid-E-Akber,Mosque,"Masjid-E-Akber, Masjid-E-Akber, N-29-001,Y S R Colony, Bypass Road,, near MSR Hill Valley Club, Kadapa, Andhra Pradesh 516002",,"Masjid-E-Akber, N-29-001,Y S R Colony, Bypass Road,, near MSR Hill Valley Club","Kadapa, Masapet",516002,Andhra Pradesh,IN,https://www.google.com/maps/place/Masjid-E-Akber/data=!4m7!3m6!1s0x3bb36ddee9c10617:0x6a788ff4d3b6fe96!8m2!3d14.4822922!4d78.864995!16s%2Fg%2F11c59ry16z!19sChIJFwbB6d5tszsRlv620_SPeGo?authuser=0&hl=en&rclk=1,"14.4822922,78.864995"
Mohammadiya Masjid,Mosque,"FPHM+29C Mohammadiya Masjid, Kopparthi, Andhra Pradesh 516216",,FPHM+29C,Kopparthi,516216,Andhra Pradesh,IN,https://www.google.com/maps/place/Mohammadiya+Masjid/data=!4m7!3m6!1s0x3bb3741da83ab2e1:0x9cf4fe6af0bc6c89!8m2!3d14.47757!4d78.7333818!16s%2Fg%2F11d_8zhjpv!19sChIJ4bI6qB10szsRiWy88Gr-9Jw?authuser=0&hl=en&rclk=1,"14.47757,78.73338179999999"
Masjid-E-Mahaboobiya,Mosque,"FR3G+9J2 Masjid-E-Mahaboobiya, Gandhinagar, Nagarajupeta, Kadapa, Andhra Pradesh 516004","Gandhinagar, Nagarajupeta",FR3G+9J2,Kadapa,516004,Andhra Pradesh,IN,https://www.google.com/maps/place/Masjid-E-Mahaboobiya/data=!4m7!3m6!1s0x3bb3726e2c6ad53f:0x97dc7caaeb2f6ae7!8m2!3d14.4533992!4d78.826502!16s%2Fg%2F11g02xwlj4!19sChIJP9VqLG5yszsR52ov66p83Jc?authuser=0&hl=en&rclk=1,"14.4533992,78.82650199999999"
Masjid-E-Ahmed,Mosque,"CRJW+2MW Masjid-E-Ahmed, Unnamed Road, Indira Nagar, Mamillapalle Rural, Andhra Pradesh 516004",Indira Nagar,"CRJW+2MW, Unnamed Road",Mamillapalle Rural,516004,Andhra Pradesh,IN,https://www.google.com/maps/place/Masjid-E-Ahmed/data=!4m7!3m6!1s0x3bb36d19e93288e9:0xbcab293d05b13664!8m2!3d14.4301196!4d78.846702!16s%2Fg%2F11h0vfdvxt!19sChIJ6Ygy6RltszsRZDaxBT0pq7w?authuser=0&hl=en&rclk=1,"14.4301196,78.846702"
Sanaullah Masjid,Mosque,"FRM7+WRG Sanaullah Masjid, Bismillah Nagar, Ayesha Nagar, Kadapa, Andhra Pradesh 516001","Bismillah Nagar, Ayesha Nagar",FRM7+WRG,Kadapa,516001,Andhra Pradesh,IN,https://www.google.com/maps/place/Sanaullah+Masjid/data=!4m7!3m6!1s0x3bb37176cf7c7587:0xf859a6992478b00e!8m2!3d14.4848198!4d78.8145825!16s%2Fg%2F11g3xhyfs6!19sChIJh3V8z3ZxszsRDrB4JJmmWfg?authuser=0&hl=en&rclk=1,"14.484819799999999,78.8145825"
Jumma Masjid,Mosque,"Jumma Masjid, kadapa to pulivendula road, road krishnapuram,kadapa.516003",Siva Sandhya Nagar,"kadapa to pulivendula road, road krishnapuram,kadapa.516003",Krishnapuram,,Andhra Pradesh,IN,https://www.google.com/maps/place/Jumma+Masjid/data=!4m7!3m6!1s0x3bb373e035b7233b:0x765b1b47e9bb1a1a!8m2!3d14.4802237!4d78.7677043!16s%2Fg%2F11b7fv8l0l!19sChIJOyO3NeBzszsRGhq76UcbW3Y?authuser=0&hl=en&rclk=1,"14.4802237,78.76770429999999"
Masjid-E-Hafsa,Mosque,"Masjid-E-Hafsa, Khaleel nagar street Kumar kunta, Andhra Pradesh 516001",Ganagapeta,Khaleel nagar street Kumar kunta,Kadapa,516001,Andhra Pradesh,IN,https://www.google.com/maps/place/Masjid-E-Hafsa/data=!4m7!3m6!1s0x3bb371aecd9e7429:0x700f1d522c0560cd!8m2!3d14.4888589!4d78.821355!16s%2Fg%2F11k00r8k8z!19sChIJKXSeza5xszsRzWAFLFIdD3A?authuser=0&hl=en&rclk=1,"14.488858899999999,78.821355"
Masjid-E-Baghdadiya,Mosque,"Masjid-E-Baghdadiya, 9/820, N-12-317, Baghdidiya Nagar, Shahipet, Andhra Pradesh 516001",Ayesha Nagar,"9/820, N-12-317, Baghdidiya Nagar, Shahipet",Kadapa,516001,Andhra Pradesh,IN,https://www.google.com/maps/place/Masjid-E-Baghdadiya/data=!4m7!3m6!1s0x3bb371c81b39e72b:0x52081240f67d2f5e!8m2!3d14.4900217!4d78.8161668!16s%2Fg%2F11h765b836!19sChIJK-c5G8hxszsRXi999kASCFI?authuser=0&hl=en&rclk=1,"14.4900217,78.81616679999999"
Masjid-E-Abu-Huraira,Mosque,"FRCH+2XR Masjid-E-Abu-Huraira, Kadapa, Andhra Pradesh 516001",Kadapa,FRCH+2XR,Kadapa,,Andhra Pradesh,IN,https://www.google.com/maps/place/Masjid-E-Abu-Huraira/data=!4m7!3m6!1s0x3bb3736810f7001d:0x1ac73a315e35f3fb!8m2!3d14.4701224!4d78.8298916!16s%2Fg%2F11f62xcn7v!19sChIJHQD3EGhzszsR-_M1XjE6xxo?authuser=0&hl=en&rclk=1,"14.4701224,78.8298916"
Zulai Khabee Masjid,Mosque,"Zulai Khabee Masjid, Z.B Masjid Street, 21, Andhra Pradesh 516001","R K Nagar, Maria Puram, Kadapa","Z.B Masjid Street, 21",Kadapa,516001,Andhra Pradesh,IN,https://www.google.com/maps/place/Zulai+Khabee+Masjid/data=!4m7!3m6!1s0x3bb3721b4d9b9a01:0xaaeb6a3119b92b02!8m2!3d14.4777754!4d78.8270086!16s%2Fg%2F11xz2xpdw!19sChIJAZqbTRtyszsRAiu5GTFq66o?authuser=0&hl=en&rclk=1,"14.477775399999999,78.8270086"
Jalali Hazarath Rakheeb Shah valee Dargah With Masjid,Mosque,"FRMF+242 Jalali Hazarath Rakheeb Shah valee Dargah With Masjid, Rakheeb Garib Shah Street Dargah Nagar, Ganagapeta, Kadapa, Andhra Pradesh 516001","YV Street, Ganagapeta","FRMF+242, Rakheeb Garib Shah Street Dargah Nagar",Kadapa,516001,Andhra Pradesh,IN,https://www.google.com/maps/place/Jalali+Hazarath+Rakheeb+Shah+valee+Dargah+With+Masjid/data=!4m7!3m6!1s0x3bb3722049dd86d5:0x29c56776666c060d!8m2!3d14.4825227!4d78.8227755!16s%2Fg%2F11gc9vgps5!19sChIJ1YbdSSByszsRDQZsZnZnxSk?authuser=0&hl=en&rclk=1,"14.482522699999999,78.82277549999999"
Masjid-e-Inayath Khan,Mosque,"FRP8+X34 Masjid-e-Inayath Khan, inayath khan Talim, Agadi St, Kadapa, Andhra Pradesh 516001","Almaspet, Ayesha Nagar","FRP8+X34, inayath khan Talim, Agadi St",Kadapa,516001,Andhra Pradesh,IN,https://www.google.com/maps/place/Masjid-e-Inayath+Khan/data=!4m7!3m6!1s0x3bb3718b2e190975:0xe0e3596ce4713c8b!8m2!3d14.4873809!4d78.8151884!16s%2Fg%2F11f5hsfzw9!19sChIJdQkZLotxszsRizxx5GxZ4-A?authuser=0&hl=en&rclk=1,"14.4873809,78.8151884"
Masjid-E-Madina,Mosque,"FV49+CCQ Masjid-E-Madina, Kadapa, Andhra Pradesh 516002",,FV49+CCQ,Kadapa,516002,Andhra Pradesh,IN,https://www.google.com/maps/place/Masjid-E-Madina/data=!4m7!3m6!1s0x3bb36dbbb843dfbf:0x6ad6ec8b85145a8!8m2!3d14.4560967!4d78.8686211!16s%2Fg%2F11g8ykyflk!19sChIJv99DuLttszsRqEVRuMhurQY?authuser=0&hl=en&rclk=1,"14.4560967,78.8686211"
Bava Saheb Miyan Masjid,Mosque,"FRR7+HJQ Bava Saheb Miyan Masjid, Saipet, Kadapa, Andhra Pradesh 516001",Saipet,FRR7+HJQ,Kadapa,516001,Andhra Pradesh,IN,https://www.google.com/maps/place/Bava+Saheb+Miyan+Masjid/data=!4m7!3m6!1s0x3bb371996937f815:0xff165e9066f29819!8m2!3d14.4914584!4d78.8140941!16s%2Fg%2F11gyngc3xs!19sChIJFfg3aZlxszsRGZjyZpBeFv8?authuser=0&hl=en&rclk=1,"14.491458399999999,78.81409409999999"
Masjid-E-Hajera,Mosque,"FRH9+V3H Masjid-E-Hajera, Ganagapeta, Kadapa, Andhra Pradesh 516001",Ganagapeta,FRH9+V3H,Kadapa,516001,Andhra Pradesh,IN,https://www.google.com/maps/place/Masjid-E-Hajera/data=!4m7!3m6!1s0x3bb3721f181e9229:0xc3bc1422b689e40b!8m2!3d14.4796845!4d78.8177496!16s%2Fg%2F11hck7z35q!19sChIJKZIeGB9yszsRC-SJtiIUvMM?authuser=0&hl=en&rclk=1,"14.4796845,78.8177496"
Masjid-Mir-Mahmood,Mosque,"Masjid-Mir-Mahmood, C-32-208, Plot No.303 Sri Satya Builders, Ln 3, Maria Puram, Kadapa, Andhra Pradesh 516001","Maria Puram, Kadapa","C-32-208, Plot No.303 Sri Satya Builders, Ln 3",Kadapa,516001,Andhra Pradesh,IN,https://www.google.com/maps/place/Masjid-Mir-Mahmood/data=!4m7!3m6!1s0x3bb3738aaaed6469:0x4bb209215809c7a4!8m2!3d14.4709165!4d78.825524!16s%2Fg%2F11mvpzmdw3!19sChIJaWTtqopzszsRpMcJWCEJsks?authuser=0&hl=en&rclk=1,"14.4709165,78.825524"
Masjid-E-Madinah,Mosque,"CRXH+MXP Masjid-E-Madinah, Angadi Veedhi, Telugu Ganga Colony, Kadapa, Andhra Pradesh 516004","Angadi Veedhi, Telugu Ganga Colony",CRXH+MXP,Kadapa,516004,Andhra Pradesh,IN,https://www.google.com/maps/place/Masjid-E-Madinah/data=!4m7!3m6!1s0x3bb373dc05befc5b:0xa9ba39fc8d5a1ee1!8m2!3d14.449211!4d78.8299461!16s%2Fg%2F11ghr9pp_l!19sChIJW_y-BdxzszsR4R5ajfw5uqk?authuser=0&hl=en&rclk=1,"14.449211,78.8299461"
Mashayakh Abji Miyan Masjid,Mosque,"FRQ8+PQM Mashayakh Abji Miyan Masjid, Agadi St, Ayesha Nagar, Kadapa, Andhra Pradesh 516001",Ayesha Nagar,"FRQ8+PQM, Agadi St",Kadapa,516001,Andhra Pradesh,IN,https://www.google.com/maps/place/Mashayakh+Abji+Miyan+Masjid/data=!4m7!3m6!1s0x3bb3717857190443:0xe24be35dc14ebf50!8m2!3d14.4893385!4d78.8169362!16s%2Fg%2F11fjn2y58p!19sChIJQwQZV3hxszsRUL9OwV3jS-I?authuser=0&hl=en&rclk=1,"14.489338499999999,78.8169362"
Mecca Masjid,Mosque,"GQ2V+99Q Mecca Masjid, Aalam Khan Palle, Andhra Pradesh 516003",,GQ2V+99Q,Aalam Khan Palle,516003,Andhra Pradesh,IN,https://www.google.com/maps/place/Mecca+Masjid/data=!4m7!3m6!1s0x3bb3712fb0382e6d:0x652475c30fbcea5a!8m2!3d14.5009579!4d78.7934793!16s%2Fg%2F11f6dvjb2g!19sChIJbS44sC9xszsRWuq8D8N1JGU?authuser=0&hl=en&rclk=1,"14.5009579,78.7934793"
Hakeem Roshan Miyan Saheb Masjid,Mosque,"FRR8+865 Hakeem Roshan Miyan Saheb Masjid, Saipet Rd, Saipet, Kadapa, Andhra Pradesh 516001",Saipet,"FRR8+865, Saipet Rd",Kadapa,516001,Andhra Pradesh,IN,https://www.google.com/maps/place/Hakeem+Roshan+Miyan+Saheb+Masjid/data=!4m7!3m6!1s0x3bb371cf14b119c1:0x949525ef213b696f!8m2!3d14.4907634!4d78.8156122!16s%2Fg%2F11gynfhr4p!19sChIJwRmxFM9xszsRb2k7Ie8llZQ?authuser=0&hl=en&rclk=1,"14.490763399999999,78.81561219999999"
MASJID-E-MAHABOOB-E-ELAHI,Mosque,"FRJF+CWR MASJID-E-MAHABOOB-E-ELAHI, Ganagapeta, Kadapa, Andhra Pradesh 516001",Ganagapeta,FRJF+CWR,Kadapa,516001,Andhra Pradesh,IN,https://www.google.com/maps/place/MASJID-E-MAHABOOB-E-ELAHI/data=!4m7!3m6!1s0x3bb373182b9f25d1:0x9c0a2d6e2ec7ed4f!8m2!3d14.4810784!4d78.8244856!16s%2Fg%2F11swpbzf_1!19sChIJ0SWfKxhzszsRT-3HLm4tCpw?authuser=0&hl=en&rclk=1,"14.4810784,78.8244856"
Masjid-E-Madeena,Mosque,"CRP3+4GM Masjid-E-Madeena, Moolavanka, Apparajupalle, Andhra Pradesh 516003",Moolavanka,CRP3+4GM,Apparajupalle,,Andhra Pradesh,IN,https://www.google.com/maps/place/Masjid-E-Madeena/data=!4m7!3m6!1s0x3bb373ef3d7987e1:0x733612eb92fbdc3!8m2!3d14.4353358!4d78.8037837!16s%2Fg%2F11hyl3dhws!19sChIJ4Yd5Pe9zszsRw70vuS5hMwc?authuser=0&hl=en&rclk=1,"14.435335799999999,78.8037837"
Masjid-E-Bilal,Mosque,"CRRM+QPM Masjid-E-Bilal, Telugu Ganga Colony, Kadapa, Andhra Pradesh 516004",Telugu Ganga Colony,CRRM+QPM,Kadapa,516004,Andhra Pradesh,IN,https://www.google.com/maps/place/Masjid-E-Bilal/data=!4m7!3m6!1s0x3bb373784d5ed73b:0x9b5f44083b638601!8m2!3d14.4419681!4d78.834311!16s%2Fg%2F11krd83dgt!19sChIJO9deTXhzszsRAYZjOwhEX5s?authuser=0&hl=en&rclk=1,"14.441968099999999,78.834311"
Masjid-E-Asiya Ahle hadees,Mosque,"Masjid-E-Asiya Ahle hadees, Door No. 9/692-1, beside Sangam Marriage Hall, Ayesha Nagar, Kadapa, Andhra Pradesh 516001",Ayesha Nagar,"Door No. 9/692-1, beside Sangam Marriage Hall",Kadapa,516001,Andhra Pradesh,IN,https://www.google.com/maps/place/Masjid-E-Asiya+Ahle+hadees/data=!4m7!3m6!1s0x3bb37186c0c05059:0xf71c7a348aa32fc2!8m2!3d14.4858334!4d78.8162205!16s%2Fg%2F11rxvqd1xr!19sChIJWVDAwIZxszsRwi-jijR6HPc?authuser=0&hl=en&rclk=1,"14.485833399999999,78.8162205"
MASJID-E-AMEENA FATIMA,Mosque,"FRQM+493 MASJID-E-AMEENA FATIMA, Kadapa - Devuni Kadapa Rd, Devuni Kadapa, Kadapa, Andhra Pradesh 516002",Devuni Kadapa,"FRQM+493, Kadapa - Devuni Kadapa Rd",Kadapa,516002,Andhra Pradesh,IN,https://www.google.com/maps/place/MASJID-E-AMEENA+FATIMA/data=!4m7!3m6!1s0x3bb371789a2a12e1:0x105edb9c6e76691c!8m2!3d14.4877653!4d78.8334167!16s%2Fg%2F11swq7zkry!19sChIJ4RIqmnhxszsRHGl2bpzbXhA?authuser=0&hl=en&rclk=1,"14.4877653,78.8334167"
Masjid-E-Mohammed Anas,Mosque,"FRJJ+9XP Masjid-E-Mohammed Anas, Sankarapuram, Chinna Chowk, Kadapa, Andhra Pradesh 516002","Sankarapuram, Chinna Chowk",FRJJ+9XP,Kadapa,516002,Andhra Pradesh,IN,https://www.google.com/maps/place/Masjid-E-Mohammed+Anas/data=!4m7!3m6!1s0x3bb373ba5f8267a9:0xdd5eb20fefada7b9!8m2!3d14.4809555!4d78.8324615!16s%2Fg%2F11h94lsm90!19sChIJqWeCX7pzszsRuaet7w-yXt0?authuser=0&hl=en&rclk=1,"14.480955499999999,78.8324615"
Masjid-E-Muhammadia,Mosque,"FQ3Q+G3 Masjid-E-Muhammadia, Papasahebpet, Andhra Pradesh 516003",,FQ3Q+G3,Papasahebpet,,Andhra Pradesh,IN,https://www.google.com/maps/place/Masjid-E-Muhammadia/data=!4m7!3m6!1s0x3bb3736db7b90acb:0x992578d59a726d25!8m2!3d14.4537505!4d78.7876907!16s%2Fg%2F11rk2ml1k2!19sChIJywq5t21zszsRJW1ymtV4JZk?authuser=0&hl=en&rclk=1,"14.4537505,78.7876907"
Masjid-E-Yaseen,Mosque,"CRX3+PMH Masjid-E-Yaseen, Kurnool-Chittoor Hwy, Akkayapalli, Kadapa, Andhra Pradesh 516003",Akkayapalli,"CRX3+PMH, Kurnool-Chittoor Hwy",Kadapa,516003,Andhra Pradesh,IN,https://www.google.com/maps/place/Masjid-E-Yaseen/data=!4m7!3m6!1s0x3bb37333c516c099:0x4e5a9ad68400c543!8m2!3d14.449301!4d78.8042315!16s%2Fg%2F11j2xt_cgq!19sChIJmcAWxTNzszsRQ8UAhNaaWk4?authuser=0&hl=en&rclk=1,"14.449301,78.8042315"
MASJID-E-ZAHIDUNNISA,Mosque,"FRPC+5W8 MASJID-E-ZAHIDUNNISA, YV Street, Ganagapeta, Kadapa, Andhra Pradesh 516001","YV Street, Ganagapeta",FRPC+5W8,Kadapa,516001,Andhra Pradesh,IN,https://www.google.com/maps/place/MASJID-E-ZAHIDUNNISA/data=!4m7!3m6!1s0x3bb371234d13e0e3:0x9404b881ff7e6960!8m2!3d14.4854095!4d78.8223409!16s%2Fg%2F11n829lj7n!19sChIJ4-ATTSNxszsRYGl-_4G4BJQ?authuser=0&hl=en&rclk=1,"14.4854095,78.8223409"
Masjid e Naushad,Mosque,"GQ9J+CJX Masjid e Naushad, Rd to Global College, Rayalapanthulapalle, Rudrabharathipeta, Andhra Pradesh 516162",,"GQ9J+CJX, Rd to Global College","Rayalapanthulapalle, Rudrabharathipeta",516162,Andhra Pradesh,IN,https://www.google.com/maps/place/Masjid+e+Naushad/data=!4m7!3m6!1s0x3bb371114ed2b837:0xf5825e70452483cb!8m2!3d14.5186035!4d78.7816169!16s%2Fg%2F11pwd08t1s!19sChIJN7jSThFxszsRy4MkRXBegvU?authuser=0&hl=en&rclk=1,"14.5186035,78.7816169"
Masjid-E-Usman,Mosque,"FV2H+X3X Masjid-E-Usman, Usman nagar Road, Puttampalli, Andhra Pradesh 516002",,"FV2H+X3X, Usman nagar Road",Puttampalli,516002,Andhra Pradesh,IN,https://www.google.com/maps/place/Masjid-E-Usman/data=!4m7!3m6!1s0x3bb36db1fe2e111d:0xcc12e3712a4edda9!8m2!3d14.4524877!4d78.8777394!16s%2Fg%2F11f3p7v9b0!19sChIJHREu_rFtszsRqd1OKnHjEsw?authuser=0&hl=en&rclk=1,"14.452487699999999,78.8777394"
Masjid-E-Naushad,Mosque,"Masjid-E-Naushad, Masjid e naushad, Shastri Nagar, Ravindra Nagar, Kadapa, Andhra Pradesh 516001","Shastri Nagar, Ravindra Nagar",Masjid e naushad,Kadapa,,Andhra Pradesh,IN,https://www.google.com/maps/place/Masjid-E-Naushad/data=!4m7!3m6!1s0x3bb373d51905a7d1:0x154391deb1efd182!8m2!3d14.4666494!4d78.8141867!16s%2Fg%2F11n9999k0q!19sChIJ0acFGdVzszsRgtHvsd6RQxU?authuser=0&hl=en&rclk=1,"14.4666494,78.8141867"
Mariyam Masjid,Mosque,"FRR8+XXC Mariyam Masjid, Alpha Nagar, Saipet, Kadapa, Andhra Pradesh 516001","Alpha Nagar, Saipet",FRR8+XXC,Kadapa,516001,Andhra Pradesh,IN,https://www.google.com/maps/place/Mariyam+Masjid/data=!4m7!3m6!1s0x3bb37172204ae901:0xb3c01397dbf2b2d2!8m2!3d14.4924312!4d78.8173915!16s%2Fg%2F11fl7cp4wn!19sChIJAelKIHJxszsR0rLy25cTwLM?authuser=0&hl=en&rclk=1,"14.492431199999999,78.8173915"
Allah Bakash Miyan Masjid,Mosque,"FRQ7+9HG Allah Bakash Miyan Masjid, Unnamed Road, Almaspet, Ayesha Nagar, Kadapa, Andhra Pradesh 516001","Almaspet, Ayesha Nagar","FRQ7+9HG, Unnamed Road",Kadapa,516001,Andhra Pradesh,IN,https://www.google.com/maps/place/Allah+Bakash+Miyan+Masjid/data=!4m7!3m6!1s0x3bb3719d496072a1:0x939346d042bd20fa!8m2!3d14.4884444!4d78.813962!16s%2Fg%2F11h06fmsm1!19sChIJoXJgSZ1xszsR-iC9QtBGk5M?authuser=0&hl=en&rclk=1,"14.488444399999999,78.81396199999999"
Masjid-E-Ashrafia,Mosque,"FRR6+433 Masjid-E-Ashrafia, Saipet, Kadapa, Andhra Pradesh 516001",Saipet,FRR6+433,Kadapa,516001,Andhra Pradesh,IN,https://www.google.com/maps/place/Masjid-E-Ashrafia/data=!4m7!3m6!1s0x3bb371ed8a62d41d:0xb164016e5a0f947d!8m2!3d14.4902696!4d78.8101816!16s%2Fg%2F11p662kxns!19sChIJHdRiiu1xszsRfZQPWm4BZLE?authuser=0&hl=en&rclk=1,"14.4902696,78.81018159999999"
Masjid-E-Ali,Mosque,"FRF4+F36 Masjid-E-Ali, Mariapuram, Kadapa, Andhra Pradesh 516001",Mariapuram,FRF4+F36,Kadapa,516001,Andhra Pradesh,IN,https://www.google.com/maps/place/Masjid-E-Ali/data=!4m7!3m6!1s0x3bb373bd2ebf2783:0x9ffe7901d865c38b!8m2!3d14.4736746!4d78.8051474!16s%2Fg%2F11h02jzfmk!19sChIJgye_Lr1zszsRi8Nl2AF5_p8?authuser=0&hl=en&rclk=1,"14.473674599999999,78.8051474"
Burhanuddin Masjid,Mosque,"FRM8+MXM Burhanuddin Masjid, Ganagapeta, Kadapa, Andhra Pradesh 516001",Ganagapeta,FRM8+MXM,Kadapa,516001,Andhra Pradesh,IN,https://www.google.com/maps/place/Burhanuddin+Masjid/data=!4m7!3m6!1s0x3bb371f563efffff:0x8b86f2345f4061a4!8m2!3d14.4842139!4d78.8174255!16s%2Fg%2F11kj3f5z27!19sChIJ___vY_VxszsRpGFAXzTyhos?authuser=0&hl=en&rclk=1,"14.484213899999999,78.8174255"
Imrankhan Masjid,Mosque,"Imrankhan Masjid, Marati street, Kadapa, Andhra Pradesh 516003",,Marati street,Kadapa,516003,Andhra Pradesh,IN,https://www.google.com/maps/place/Imrankhan+Masjid/data=!4m7!3m6!1s0x3bb3732eee6657c5:0x6ab30ae62865820e!8m2!3d14.4781128!4d78.8151003!16s%2Fg%2F11st8gmsc2!19sChIJxVdm7i5zszsRDoJlKOYKs2o?authuser=0&hl=en&rclk=1,"14.4781128,78.8151003"
Masjid-E-Taqwa,Mosque,"Masjid-E-Taqwa, 8/571-28, Almaspet, Ayesha Nagar, Kadapa, Andhra Pradesh 516001","Almaspet, Ayesha Nagar",8/571-28,Kadapa,516001,Andhra Pradesh,IN,https://www.google.com/maps/place/Masjid-E-Taqwa/data=!4m7!3m6!1s0x3bb371c5950457a7:0x4fe77aa6ec08e78f!8m2!3d14.4870324!4d78.8116248!16s%2Fg%2F11v164jhn0!19sChIJp1cElcVxszsRj-cI7KZ6508?authuser=0&hl=en&rclk=1,"14.487032399999999,78.81162479999999"
Abdul Rehman Masjid (Yatim Khana),Mosque,"FRHH+9FG Abdul Rehman Masjid (Yatim Khana), Maria Puram, Kadapa, Andhra Pradesh 516001","Maria Puram, Kadapa",FRHH+9FG,Kadapa,,Andhra Pradesh,IN,https://www.google.com/maps/place/Abdul+Rehman+Masjid+%28Yatim+Khana%29/data=!4m7!3m6!1s0x3bb373742bfaac8f:0x346b4e29aeb4e903!8m2!3d14.4784318!4d78.8287178!16s%2Fg%2F11jzry1d5b!19sChIJj6z6K3RzszsRA-m0rilOazQ?authuser=0&hl=en&rclk=1,"14.4784318,78.82871779999999"
Masjid-E-Rahamatullah,Mosque,"FVC8+M67 Masjid-E-Rahamatullah, Unnamed Road, Kadapa, Andhra Pradesh 516002",,"FVC8+M67, Unnamed Road",Kadapa,516002,Andhra Pradesh,IN,https://www.google.com/maps/place/Masjid-E-Rahamatullah/data=!4m7!3m6!1s0x3bb36dea73cfd093:0xbf84c8774a224964!8m2!3d14.471671!4d78.8655391!16s%2Fg%2F11rgc6xnvt!19sChIJk9DPc-ptszsRZEkiSnfIhL8?authuser=0&hl=en&rclk=1,"14.471670999999999,78.86553909999999"
Masjid-E-muhammadiya,Mosque,"GRF7+R3H Masjid-E-muhammadiya, Rachinayapalli, Andhra Pradesh 516162",,GRF7+R3H,Rachinayapalli,516162,Andhra Pradesh,IN,https://www.google.com/maps/place/Masjid-E-muhammadiya/data=!4m7!3m6!1s0x3bb3711af54e1ff7:0xa113f26559ebbc32!8m2!3d14.5245603!4d78.8127579!16s%2Fg%2F11t_yzf0hr!19sChIJ9x9O9RpxszsRMrzrWWXyE6E?authuser=0&hl=en&rclk=1,"14.5245603,78.8127579"
Masjid-E-Hazrath Umar (R.A),Mosque,"CRW4+87X Masjid-E-Hazrath Umar (R.A), Akkayapalli, Ahmed nagar,vakilbai, rayachoti road, Andhra Pradesh 516003",Akkayapalli,"CRW4+87X, Akkayapalli, Ahmed nagar,vakilbai, rayachoti road",Kadapa,516003,Andhra Pradesh,IN,https://www.google.com/maps/place/Masjid-E-Hazrath+Umar+%28R.A%29/data=!4m7!3m6!1s0x3bb373b4eb4d3727:0x6eba27f65f5b4aa5!8m2!3d14.4458512!4d78.8057472!16s%2Fg%2F11fprfwm27!19sChIJJzdN67RzszsRpUpbX_Ynum4?authuser=0&hl=en&rclk=1,"14.4458512,78.8057472"
Mosque,Mosque,"FR36+GWJ Mosque, Utukur, Kadapa, Andhra Pradesh 516003",Utukur,FR36+GWJ,Kadapa,516003,Andhra Pradesh,IN,https://www.google.com/maps/place/Mosque/data=!4m7!3m6!1s0x3bb373aab4980045:0x3ea4fe179c792125!8m2!3d14.4538435!4d78.8122511!16s%2Fg%2F11jzczfm0j!19sChIJRQCYtKpzszsRJSF5nBf-pD4?authuser=0&hl=en&rclk=1,"14.4538435,78.8122511"
Masjid-E-Ashrafia,Mosque,"Masjid-E-Ashrafia, Afser khan colony, shia pet, Shastri Nagar, Ravindra Nagar, Kadapa, Andhra Pradesh 516001","Shastri Nagar, Ravindra Nagar","Afser khan colony, shia pet",Kadapa,516001,Andhra Pradesh,IN,https://www.google.com/maps/place/Masjid-E-Ashrafia/data=!4m7!3m6!1s0x3bb37371086e0029:0x6e9f0e934c3405b6!8m2!3d14.4692833!4d78.8143834!16s%2Fg%2F11rd9smhck!19sChIJKQBuCHFzszsRtgU0TJMOn24?authuser=0&hl=en&rclk=1,"14.469283299999999,78.8143834"
Madina Masjid,Mosque,"FR27+543 Madina Masjid, Utukur, Kadapa, Andhra Pradesh 516003",Utukur,FR27+543,Kadapa,516003,Andhra Pradesh,IN,https://www.google.com/maps/place/Madina+Masjid/data=!4m7!3m6!1s0x3bb3732b9d18af8b:0x2197a67ebff7123d!8m2!3d14.4503954!4d78.8128103!16s%2Fg%2F11ks12d11k!19sChIJi68YnStzszsRPRL3v36mlyE?authuser=0&hl=en&rclk=1,"14.4503954,78.8128103"
Shahmirya Masjid,Mosque,"FRG9+RJP Shahmirya Masjid, Ganagapeta, Kadapa, Andhra Pradesh 516001",Ganagapeta,FRG9+RJP,Kadapa,516001,Andhra Pradesh,IN,https://www.google.com/maps/place/Shahmirya+Masjid/data=!4m7!3m6!1s0x3bb3721923400001:0x89b5ae7e04e116ef!8m2!3d14.4770764!4d78.8190627!16s%2Fg%2F11sscs7px6!19sChIJAQBAIxlyszsR7xbhBH6utYk?authuser=0&hl=en&rclk=1,"14.4770764,78.8190627"
Usmaniya Masjid,Mosque,"Usmaniya Masjid, TarakaRama Nagar, Kadapa, Andhra Pradesh 516003",TarakaRama Nagar,,Kadapa,516003,Andhra Pradesh,IN,https://www.google.com/maps/place/Usmaniya+Masjid/data=!4m7!3m6!1s0x3bb3735d9df055a1:0x5d0ee4d040629d5c!8m2!3d14.4571071!4d78.8168633!16s%2Fg%2F11ss4x5zbc!19sChIJoVXwnV1zszsRXJ1iQNDkDl0?authuser=0&hl=en&rclk=1,"14.4571071,78.8168633"
Masjid-E-Bilaal,Mosque,"Masjid-E-Bilaal, 78/15 Ramarajupalli, Mariapuram, Kadapa, Andhra Pradesh 516001",Mariapuram,78/15 Ramarajupalli,Kadapa,516001,Andhra Pradesh,IN,https://www.google.com/maps/place/Masjid-E-Bilaal/data=!4m7!3m6!1s0x3bb373d742e0d627:0x621a96458c58ecfd!8m2!3d14.4712622!4d78.8021713!16s%2Fg%2F11v9x_3j_1!19sChIJJ9bgQtdzszsR_exYjEWWGmI?authuser=0&hl=en&rclk=1,"14.4712622,78.8021713"
Makkak Masjid,Mosque,"FRC9+RGP Makkak Masjid, Kagithala Penta, Ravindra Nagar, Kadapa, Andhra Pradesh 516001","Kagithala Penta, Ravindra Nagar",FRC9+RGP,Kadapa,516001,Andhra Pradesh,IN,https://www.google.com/maps/place/Makkak+Masjid/data=!4m7!3m6!1s0x3bb372177bfaaaab:0x233984b8d3efe539!8m2!3d14.4720911!4d78.8188414!16s%2Fg%2F11kj3f0jgw!19sChIJq6r6exdyszsROeXv07iEOSM?authuser=0&hl=en&rclk=1,"14.4720911,78.8188414"
TarakaRama Nagar Masjid,Mosque,"FR58+6J2 TarakaRama Nagar Masjid, TarakaRama Nagar, Kadapa, Andhra Pradesh 516003",TarakaRama Nagar,FR58+6J2,Kadapa,516003,Andhra Pradesh,IN,https://www.google.com/maps/place/TarakaRama+Nagar+Masjid/data=!4m7!3m6!1s0x3bb37318f58c4e5b:0x3b46840f9beee2ef!8m2!3d14.4570191!4d78.8168517!16s%2Fg%2F11txh1gnqw!19sChIJW06M9RhzszsR7-Lumw-ERjs?authuser=0&hl=en&rclk=1,"14.4570191,78.8168517"
Hujara Masjid,Mosque,"FRF9+VXX Hujara Masjid, Kagithala Penta, Ravindra Nagar, Kadapa, Andhra Pradesh 516003","Kagithala Penta, Ravindra Nagar",FRF9+VXX,Kadapa,516003,Andhra Pradesh,IN,https://www.google.com/maps/place/Hujara+Masjid/data=!4m7!3m6!1s0x3bb3721998300001:0x6a0dea44be09da3d!8m2!3d14.4747455!4d78.8199919!16s%2Fg%2F11sscs4z97!19sChIJAQAwmBlyszsRPdoJvkTqDWo?authuser=0&hl=en&rclk=1,"14.4747455,78.81999189999999"
Masjid Saleemunnisa,Mosque,"FRM8+X2J Masjid Saleemunnisa, Bismillah Nagar, Ayesha Nagar, Kadapa, Andhra Pradesh 516001","Bismillah Nagar, Ayesha Nagar",FRM8+X2J,Kadapa,516001,Andhra Pradesh,IN,https://www.google.com/maps/place/Masjid+Saleemunnisa/data=!4m7!3m6!1s0x3bb3710884cfab99:0xdfa81e0f606790d7!8m2!3d14.4849715!4d78.8150252!16s%2Fg%2F11ny056xv4!19sChIJmavPhAhxszsR15BnYA8eqN8?authuser=0&hl=en&rclk=1,"14.484971499999999,78.8150252"
Kadapa City Muslims,Mosque,"FR8F+XM7 Kadapa City Muslims, Maria Puram, Kadapa, Andhra Pradesh 516001","Maria Puram, Kadapa",FR8F+XM7,Kadapa,516001,Andhra Pradesh,IN,https://www.google.com/maps/place/Kadapa+City+Muslims/data=!4m7!3m6!1s0x3bb373b20b8976ed:0xabaead7410305f96!8m2!3d14.4670825!4d78.8251069!16s%2Fg%2F11sh0rkw5j!19sChIJ7XaJC7JzszsRll8wEHStrqs?authuser=0&hl=en&rclk=1,"14.4670825,78.8251069"
Masjid Al,Mosque,"20, Masjid Al, 288, opp. Annamayya statue, beside Municipal High School, Sankarapuram, Chinna Chowk, Kadapa, Andhra Pradesh 516001","Sankarapuram, Chinna Chowk","20, 288, opp. Annamayya statue, beside Municipal High School",Kadapa,516001,Andhra Pradesh,IN,https://www.google.com/maps/place/Masjid+Al/data=!4m7!3m6!1s0x3bb37365f20d88d9:0xfdad17fbfbb80b91!8m2!3d14.479329!4d78.8287366!16s%2Fg%2F11mvq2wqmm!19sChIJ2YgN8mVzszsRkQu4-_sXrf0?authuser=0&hl=en&rclk=1,"14.479329,78.8287366"
Masjid-E-Aisha,Mosque,"CRFJ+42W Masjid-E-Aisha, Bugga Dam Road, Mamillapalle Rural, Andhra Pradesh 516004",,"CRFJ+42W, Bugga Dam Road",Mamillapalle Rural,516004,Andhra Pradesh,IN,https://www.google.com/maps/place/Masjid-E-Aisha/data=!4m7!3m6!1s0x3bb373904eaf64e9:0xf97a7ee406df2892!8m2!3d14.4228727!4d78.8300772!16s%2Fg%2F11q2rvx7w3!19sChIJ6WSvTpBzszsRkijfBuR-evk?authuser=0&hl=en&rclk=1,"14.4228727,78.83007719999999"
Masjid-E-Aamina,Mosque,"FRPF+53R Masjid-E-Aamina, YV St, YV Street, Ganagapeta, Kadapa, Andhra Pradesh 516001","YV Street, Ganagapeta","FRPF+53R, YV St",Kadapa,516001,Andhra Pradesh,IN,https://www.google.com/maps/place/Masjid-E-Aamina/data=!4m7!3m6!1s0x3bb371cc869acdc5:0xedfeeb59626bd141!8m2!3d14.4854937!4d78.8226456!16s%2Fg%2F11t_tfhj24!19sChIJxc2ahsxxszsRQdFrYlnr_u0?authuser=0&hl=en&rclk=1,"14.4854937,78.8226456"
MASJID-E-MOHAMMEDIA,Mosque,"CRFJ+42W MASJID-E-MOHAMMEDIA, Bugga Dam Road, Mamillapalle Rural, Andhra Pradesh 516004",,"CRFJ+42W, Bugga Dam Road",Mamillapalle Rural,516004,Andhra Pradesh,IN,https://www.google.com/maps/place/MASJID-E-MOHAMMEDIA/data=!4m7!3m6!1s0x3bb37319a4d12359:0x306ccf8a91d32928!8m2!3d14.4228801!4d78.830116!16s%2Fg%2F11s4h8m1_z!19sChIJWSPRpBlzszsRKCnTkYrPbDA?authuser=0&hl=en&rclk=1,"14.422880099999999,78.83011599999999"
Masjid,Mosque,"CRFP+WXJ Masjid, Nayanori Palli, Kadapa, Mamillapalle Rural, Andhra Pradesh 516004",Nayanori Palli,CRFP+WXJ,"Kadapa, Mamillapalle Rural",,Andhra Pradesh,IN,https://www.google.com/maps/place/Masjid/data=!4m7!3m6!1s0x3bb37328fbbf06e3:0xe6b28f73a293c6eb!8m2!3d14.4248412!4d78.8373984!16s%2Fg%2F11l5ld94cg!19sChIJ4wa_-yhzszsR68aTonOPsuY?authuser=0&hl=en&rclk=1,"14.4248412,78.8373984"
Naala Gadda Masjid,Mosque,"FRH9+V48 Naala Gadda Masjid, Ganagapeta, Kadapa, Andhra Pradesh 516001",Ganagapeta,FRH9+V48,Kadapa,516001,Andhra Pradesh,IN,https://www.google.com/maps/place/Naala+Gadda+Masjid/data=!4m7!3m6!1s0x3bb3721f18131e8f:0xd1302d02f5439652!8m2!3d14.4796731!4d78.817817!16s%2Fg%2F11hcjzw9p0!19sChIJjx4TGB9yszsRUpZD9QItMNE?authuser=0&hl=en&rclk=1,"14.4796731,78.81781699999999"
Makka Masjid CK Dinne (Mandal Markas),Mosque,"CQJP+W2W Makka Masjid CK Dinne (Mandal Markas), Chinthakommadinne, Apparajupalle, Andhra Pradesh 516003",,CQJP+W2W,"Chinthakommadinne, Apparajupalle",,Andhra Pradesh,IN,https://www.google.com/maps/place/Makka+Masjid+CK+Dinne+%28Mandal+Markas%29/data=!4m7!3m6!1s0x3bb37311384145fd:0x14ab5080c262f2f4!8m2!3d14.4323502!4d78.7850729!16s%2Fg%2F11sck4xnl5!19sChIJ_UVBOBFzszsR9PJiwoBQqxQ?authuser=0&hl=en&rclk=1,"14.4323502,78.7850729"
Jenda Masjid,Mosque,"FRJC+2QJ Jenda Masjid, YV Street, Ganagapeta, Kadapa, Andhra Pradesh 516001","YV Street, Ganagapeta",FRJC+2QJ,Kadapa,516001,Andhra Pradesh,IN,https://www.google.com/maps/place/Jenda+Masjid/data=!4m7!3m6!1s0x3bb3731f20f52b27:0x461baa25b1e60e09!8m2!3d14.4800751!4d78.8218802!16s%2Fg%2F11mvq1y69w!19sChIJJyv1IB9zszsRCQ7msSWqG0Y?authuser=0&hl=en&rclk=1,"14.480075099999999,78.8218802"
Hazrath Omar Masjid,Mosque,"Hazrath Omar Masjid, Near, RTO Office Cir, Akkayapalli, Kadapa, Andhra Pradesh 516003",Akkayapalli,"Near, RTO Office Cir",Kadapa,516003,Andhra Pradesh,IN,https://www.google.com/maps/place/Hazrath+Omar+Masjid/data=!4m7!3m6!1s0x3bb3737b3292c3d7:0x5a13f3a73001cba3!8m2!3d14.4474508!4d78.8057108!16s%2Fg%2F11h4whpbd8!19sChIJ18OSMntzszsRo8sBMKfzE1o?authuser=0&hl=en&rclk=1,"14.447450799999999,78.8057108"
Masjid-E-Umar Farooq,Mosque,"FR5Q+8QG Masjid-E-Umar Farooq, Niranjan Nagar, Prakash Nagar, Kadapa, Andhra Pradesh 516004","Niranjan Nagar, Prakash Nagar",FR5Q+8QG,Kadapa,516004,Andhra Pradesh,IN,https://www.google.com/maps/place/Masjid-E-Umar+Farooq/data=!4m7!3m6!1s0x3bb36d402372b37f:0xadefcdc1999747b!8m2!3d14.4583006!4d78.8394483!16s%2Fg%2F11pfj81mb6!19sChIJf7NyI0BtszsRe3SZGdz83go?authuser=0&hl=en&rclk=1,"14.4583006,78.8394483"
