name,main_category,address,address_ward,address_street,address_city,address_postal_code,address_state,address_country_code,link,coordinates
Ahmadiyya Masjid,Mosque,"6XV9+JG2 Ahmadiyya Masjid, Jabbarchak Chowk, Ramsar Road, Bhagalpur, Bihar 812002","Jabbarchak, Urdu Bazar","6XV9+JG2, Jabbarchak Chowk, Ramsar Road",Bhagalpur,812002,Bihar,IN,https://www.google.com/maps/place/Ahmadiyya+Masjid/data=!4m7!3m6!1s0x39f04a0ef501915f:0xd7fb5ba20433aaf2!8m2!3d25.244023!4d86.9687739!16s%2Fg%2F1hm4jc5_v!19sChIJX5EB9Q5K8DkR8qozBKJb-9c?authuser=0&hl=en&rclk=1,"25.244023,86.9687739"
Shahi Masjid,Mosque,"Shahi Masjid, M T N Ghosh Road Hasanabad, Champanagar, Bhagalpur, Bihar 812004","Champanagar, Chamapanagar",M T N Ghosh Road Hasanabad,Bhagalpur,812004,Bihar,IN,https://www.google.com/maps/place/Shahi+Masjid/data=!4m7!3m6!1s0x39f04a9cd7f67789:0x3da7151c5519a805!8m2!3d25.2489558!4d86.9317169!16s%2Fg%2F11b6hxzx2m!19sChIJiXf215xK8DkRBagZVRwVpz0?authuser=0&hl=en&rclk=1,"25.248955799999997,86.9317169"
Shah Market Jama Masjid,Mosque,"6XWG+JPP Shah Market Jama Masjid, Shah Market, Khalifabagh Chowk, Shah Market, Bhagalpur, Bihar 812002","Khalifabagh Chowk, Shah Market","6XWG+JPP, Shah Market",Bhagalpur,812002,Bihar,IN,https://www.google.com/maps/place/Shah+Market+Jama+Masjid/data=!4m7!3m6!1s0x39f04a0404b0b4d3:0xecd81b687e66a33!8m2!3d25.2465955!4d86.9768339!16s%2Fg%2F11d_1qgjwf!19sChIJ07SwBARK8DkRM2rmh7aBzQ4?authuser=0&hl=en&rclk=1,"25.246595499999998,86.9768339"
"Jama Masjid, Champanagar",Mosque,"6WVG+3H2 Jama Masjid, Champanagar, Masjid lane, Champanagar, Bhagalpur, Bihar",Nathnagar,"6WVG+3H2, Masjid lane, Champanagar",Bhagalpur,,Bihar,IN,"https://www.google.com/maps/place/Jama+Masjid,+Champanagar/data=!4m7!3m6!1s0x39f04a999bfa473d:0x878ea67bb42c70a5!8m2!3d25.2426308!4d86.9263756!16s%2Fg%2F11b7by5l48!19sChIJPUf6m5lK8DkRpXAstHumjoc?authuser=0&hl=en&rclk=1","25.2426308,86.9263756"
SAHIBGANJ JUMMA MASJID,Mosque,"6WXX+2H5 SAHIBGANJ JUMMA MASJID, Sahibganj, Bhagalpur, Bihar 812004",Sahibganj,6WXX+2H5,Bhagalpur,812004,Bihar,IN,https://www.google.com/maps/place/SAHIBGANJ+JUMMA+MASJID/data=!4m7!3m6!1s0x39f04a796eba1717:0xc201051cc169d0e1!8m2!3d25.2475095!4d86.948996!16s%2Fg%2F11c2q4l7_c!19sChIJFxe6bnlK8DkR4dBpwRwFAcI?authuser=0&hl=en&rclk=1,"25.2475095,86.948996"
Khalifabagh Masjid,Mosque,"6XWG+MP5 Khalifabagh Masjid, Khalifabagh Chowk, Shah Market, Bhagalpur, Bihar 812002","Khalifabagh Chowk, Shah Market",6XWG+MP5,Bhagalpur,812002,Bihar,IN,https://www.google.com/maps/place/Khalifabagh+Masjid/data=!4m7!3m6!1s0x39f04a040dd03b51:0xb32e68784629e6db!8m2!3d25.2466259!4d86.9768487!16s%2Fg%2F11f0kv_kqw!19sChIJUTvQDQRK8DkR2-YpRnhoLrM?authuser=0&hl=en&rclk=1,"25.246625899999998,86.97684869999999"
Bhikhanpur Jama Masjid,Mosque,"Bhikhanpur Jama Masjid, Bhikhanpur, Bhagalpur, Bihar 812002",Bhikhanpur,,Bhagalpur,812002,Bihar,IN,https://www.google.com/maps/place/Bhikhanpur+Jama+Masjid/data=!4m7!3m6!1s0x39f049fc9f3b276b:0xdb3b613cbcb85452!8m2!3d25.2477391!4d86.9909896!16s%2Fg%2F1thd52t4!19sChIJayc7n_xJ8DkRUlS4vDxhO9s?authuser=0&hl=en&rclk=1,"25.2477391,86.99098959999999"
Muslim High School's Campus Mosque,Mosque,"6XR7+59P Muslim High School's Campus Mosque, Tatarpur, Bhagalpur, Bihar 812002",Tatarpur,6XR7+59P,Bhagalpur,812002,Bihar,IN,https://www.google.com/maps/place/Muslim+High+School%27s+Campus+Mosque/data=!4m7!3m6!1s0x39f04a12a1627327:0x2712ea54c1daf669!8m2!3d25.2404721!4d86.9634501!16s%2Fg%2F11dxnszc7x!19sChIJJ3NioRJK8DkRafbawVTqEic?authuser=0&hl=en&rclk=1,"25.240472099999998,86.9634501"
Machipur Jama Masjid,Mosque,"52WR+HMW Machipur Jama Masjid, Agarpur Machipur, Bihar 813210",,52WR+HMW,Agarpur Machipur,813210,Bihar,IN,https://www.google.com/maps/place/Machipur+Jama+Masjid/data=!4m7!3m6!1s0x39f048f2b84339a7:0x39cd1ed35c046ba2!8m2!3d25.1964756!4d87.0416975!16s%2Fg%2F119t_3skl!19sChIJpzlDuPJI8DkRomsEXNMezTk?authuser=0&hl=en&rclk=1,"25.1964756,87.0416975"
Shahjangi Peer Mosque,Mosque,"6XM4+7XG Shahjangi Peer Mosque, Tilkamanjhi, Bhagalpur, Bihar 812002",Tilkamanjhi,6XM4+7XG,Bhagalpur,812002,Bihar,IN,https://www.google.com/maps/place/Shahjangi+Peer+Mosque/data=!4m7!3m6!1s0x39f04a6bdf8389ed:0xee4663e8a157ed0a!8m2!3d25.233176!4d86.9574414!16s%2Fg%2F1v1sjmlx!19sChIJ7YmD32tK8DkRCu1XoehjRu4?authuser=0&hl=en&rclk=1,"25.233176,86.9574414"
Madina Masjid,Mosque,"Madina Masjid, Bhikhanpur, Bhagalpur, Bihar 812002",Bhikhanpur,,Bhagalpur,812002,Bihar,IN,https://www.google.com/maps/place/Madina+Masjid/data=!4m7!3m6!1s0x39f049e4682bd065:0xf13c493790188a36!8m2!3d25.2460439!4d86.9956664!16s%2Fg%2F11bzzy2mjc!19sChIJZdAraORJ8DkRNooYkDdJPPE?authuser=0&hl=en&rclk=1,"25.2460439,86.99566639999999"
Ghuran shah Pir Baba Ka Majaar,Mosque,"7X4R+5F4 Ghuran shah Pir Baba Ka Majaar, Katahalbari, Khanjarpur, Bhagalpur, Bihar 812002","Katahalbari, Khanjarpur",7X4R+5F4,Bhagalpur,812002,Bihar,IN,https://www.google.com/maps/place/Ghuran+shah+Pir+Baba+Ka+Majaar/data=!4m7!3m6!1s0x39f0361daaf5859b:0x8b4dcfb09c3d5496!8m2!3d25.2553999!4d86.9912046!16s%2Fg%2F113f3cjg8!19sChIJm4X1qh028DkRllQ9nLDPTYs?authuser=0&hl=en&rclk=1,"25.2553999,86.99120459999999"
Bablu Tea store,Mosque,"Bablu Tea store, Jama Masjid, Sarai, Urdu Bazar, Bhagalpur, Bihar 812002",Urdu Bazar,"Jama Masjid, Sarai",Bhagalpur,812002,Bihar,IN,https://www.google.com/maps/place/Bablu+Tea+store/data=!4m7!3m6!1s0x39f04a0bc2583f5d:0xbe6b5e0607d2e7a7!8m2!3d25.2484402!4d86.9666265!16s%2Fg%2F11gcxyqr_7!19sChIJXT9YwgtK8DkRp-fSBwZea74?authuser=0&hl=en&rclk=1,"25.248440199999997,86.96662649999999"
Islamnagar Mosque,Mosque,"6XXW+35H Islamnagar Mosque, Islamnagar, Bhikhanpur, Bhagalpur, Bihar 812001","Islamnagar, Bhikhanpur",6XXW+35H,Bhagalpur,812001,Bihar,IN,https://www.google.com/maps/place/Islamnagar+Mosque/data=!4m7!3m6!1s0x39f049e3863e73cb:0x75da1a829019eada!8m2!3d25.2476858!4d86.995484!16s%2Fg%2F1q5bt5y13!19sChIJy3M-huNJ8DkR2uoZkIIa2nU?authuser=0&hl=en&rclk=1,"25.2476858,86.99548399999999"
Jama Masjid Fatehpur,Mosque,"62WQ+652 Jama Masjid Fatehpur, Fatehpur, Sabour, Bhagalpur, Bihar 813210",,"62WQ+652, Fatehpur, Sabour",Bhagalpur,813210,Bihar,IN,https://www.google.com/maps/place/Jama+Masjid+Fatehpur/data=!4m7!3m6!1s0x39f048238255dd0d:0x647c3810d4bff8b!8m2!3d25.2455136!4d87.0378904!16s%2Fg%2F11b8v6kjdp!19sChIJDd1VgiNI8DkRi_9LDYHDRwY?authuser=0&hl=en&rclk=1,"25.2455136,87.0378904"
Jama Masjid Barari,Mosque,"729C+57F Jama Masjid Barari, Barari Rd, Barari, Bhagalpur, Bihar 812003",,"729C+57F, Barari Rd","Barari, Bhagalpur",812003,Bihar,IN,https://www.google.com/maps/place/Jama+Masjid+Barari/data=!4m7!3m6!1s0x39f03632ee5227b7:0xab2f5e17349bed46!8m2!3d25.2679358!4d87.0206871!16s%2Fg%2F119v7byrj!19sChIJtydS7jI28DkRRu2bNBdeL6s?authuser=0&hl=en&rclk=1,"25.2679358,87.02068709999999"
Jama Masjid,Mosque,"6WQM+8RQ Jama Masjid, Nathnagar, Bhagalpur, Bihar 812006",Nathnagar,6WQM+8RQ,Bhagalpur,812006,Bihar,IN,https://www.google.com/maps/place/Jama+Masjid/data=!4m7!3m6!1s0x39f04a8fa12a5b79:0x94bd2ca5b6e29797!8m2!3d25.2383396!4d86.9346026!16s%2Fg%2F1tf9r73y!19sChIJeVsqoY9K8DkRl5fitqUsvZQ?authuser=0&hl=en&rclk=1,"25.2383396,86.93460259999999"
Mojahidpur Jama Masjid,Mosque,"6XRG+R4F Mojahidpur Jama Masjid, Jama Masjid, Hussainpur, Mujahid Pur, Bhagalpur, Bihar 812002","Hussainpur, Mujahid Pur",6XRG+R4F Jama Masjid,Bhagalpur,812002,Bihar,IN,https://www.google.com/maps/place/Mojahidpur+Jama+Masjid/data=!4m7!3m6!1s0x39f04a1b263d505b:0xf3520344f4c2eb6b!8m2!3d25.2402611!4d86.9749249!16s%2Fg%2F1trcdvbb!19sChIJW1A9JhtK8DkRa-vC9EQDUvM?authuser=0&hl=en&rclk=1,"25.240261099999998,86.97492489999999"
Ishakchak Masjid,Mosque,"6XRQ+J79 Ishakchak Masjid, Ishakchak Bishari Mandir Rd, Sikandarpur, Angari, Bhagalpur, Bihar 812001","Sikandarpur, Angari","6XRQ+J79, Ishakchak Bishari Mandir Rd",Bhagalpur,812001,Bihar,IN,https://www.google.com/maps/place/Ishakchak+Masjid/data=!4m7!3m6!1s0x39f049fa096d75cb:0x7b1675f87560c6c8!8m2!3d25.2415274!4d86.988243!16s%2Fg%2F11b7xmw0wq!19sChIJy3VtCfpJ8DkRyMZgdfh1Fns?authuser=0&hl=en&rclk=1,"25.2415274,86.988243"
Bari Chak Masjid,Mosque,"6XV7+G3H Bari Chak Masjid, Urdu Bazar, Bhagalpur, Bihar 812002",Urdu Bazar,6XV7+G3H,Bhagalpur,812002,Bihar,IN,https://www.google.com/maps/place/Bari+Chak+Masjid/data=!4m7!3m6!1s0x39f04a0cd5ebdb87:0xfc6443e5be2082ee!8m2!3d25.2438095!4d86.9627411!16s%2Fg%2F1th0l98v!19sChIJh9vr1QxK8DkR7oIgvuVDZPw?authuser=0&hl=en&rclk=1,"25.243809499999998,86.9627411"
"Jama Masjid Rajpur, Bhagalpur",Mosque,"63H5+25J Jama Masjid Rajpur, Bhagalpur, Rajpur, Bhagalpur, Bihar 813210",Rajpur,63H5+25J,Bhagalpur,813210,Bihar,IN,"https://www.google.com/maps/place/Jama+Masjid+Rajpur,+Bhagalpur/data=!4m7!3m6!1s0x39f049210e437105:0x89f7aabdccc6f07d!8m2!3d25.2275939!4d87.0578764!16s%2Fg%2F11f6ks0lfh!19sChIJBXFDDiFJ8DkRffDGzL2q94k?authuser=0&hl=en&rclk=1","25.2275939,87.0578764"
Bich Wali Masjid,Mosque,"6WXJ+59Q Bich Wali Masjid, Jhabban Momin Lane Hasanabad, Hasanabad, Nathnagar, Bhagalpur, Bihar 812004","Hasanabad, Nathnagar","6WXJ+59Q, Jhabban Momin Lane Hasanabad",Bhagalpur,812004,Bihar,IN,https://www.google.com/maps/place/Bich+Wali+Masjid/data=!4m7!3m6!1s0x39f04a9c96aaaaab:0x298025363ea9d8e!8m2!3d25.2479589!4d86.9309712!16s%2Fg%2F11b6gr_z55!19sChIJq6qqlpxK8DkRjp3qY1MCmAI?authuser=0&hl=en&rclk=1,"25.2479589,86.9309712"
Ahmadiyya Masjid Barahpura,Mosque,"62W2+354 Ahmadiyya Masjid Barahpura, Main Barahpura Road, near Eidgah Bhikhanpur, Barahpura, Bhagalpur, Bihar 812002",Barahpura,"62W2+354, Main Barahpura Road, near Eidgah Bhikhanpur",Bhagalpur,812002,Bihar,IN,https://www.google.com/maps/place/Ahmadiyya+Masjid+Barahpura/data=!4m7!3m6!1s0x39f049e70506850f:0x2d4cadc6ed6d2161!8m2!3d25.2451366!4d87.0004376!16s%2Fg%2F1hm6k6d6g!19sChIJD4UGBedJ8DkRYSFt7catTC0?authuser=0&hl=en&rclk=1,"25.2451366,87.0004376"
Abu Bakar Masjid,Mosque,"62W3+XX7 Abu Bakar Masjid, Barahpura, Bhagalpur, Bihar 812002",Barahpura,62W3+XX7,Bhagalpur,812002,Bihar,IN,https://www.google.com/maps/place/Abu+Bakar+Masjid/data=!4m7!3m6!1s0x39f049dc2ad32375:0xb3be31bb18c2070f!8m2!3d25.2474107!4d87.0049287!16s%2Fg%2F11g6bjdxq5!19sChIJdSPTKtxJ8DkRDwfCGLsxvrM?authuser=0&hl=en&rclk=1,"25.2474107,87.0049287"
Shahjangi Jama Masjid,Mosque,"6XJ3+WJJ Shahjangi Jama Masjid, Kabirpur, Shahjangi, Bhagalpur, Bihar 812002",Kabirpur,6XJ3+WJJ,"Shahjangi, Bhagalpur",812002,Bihar,IN,https://www.google.com/maps/place/Shahjangi+Jama+Masjid/data=!4m7!3m6!1s0x39f04a68f19543fb:0x662ecab24c496f79!8m2!3d25.2323368!4d86.9540039!16s%2Fg%2F11dxnr5g21!19sChIJ-0OV8WhK8DkReW9JTLLKLmY?authuser=0&hl=en&rclk=1,"25.2323368,86.95400389999999"
Choti Masjid Bhikanpur,Mosque,"6XWR+5X9 Choti Masjid Bhikanpur, Bhikhanpur, Bhagalpur, Bihar 812002",Bhikhanpur,6XWR+5X9,Bhagalpur,812002,Bihar,IN,https://www.google.com/maps/place/Choti+Masjid+Bhikanpur/data=!4m7!3m6!1s0x39f049e4ccbeb113:0xf8e7dc189a95e110!8m2!3d25.2454176!4d86.9924925!16s%2Fg%2F11c6f9kbm3!19sChIJE7G-zORJ8DkREOGVmhjc5_g?authuser=0&hl=en&rclk=1,"25.2454176,86.9924925"
Chameli Chak Mosque,Mosque,"6XM7+2CM Chameli Chak Mosque, Tilkamanjhi, Habibpur, Bhagalpur, Bihar 813113",Tilkamanjhi,6XM7+2CM,"Habibpur, Bhagalpur",813113,Bihar,IN,https://www.google.com/maps/place/Chameli+Chak+Mosque/data=!4m7!3m6!1s0x39f04a14dd1a33e1:0x413042c3233f9d2f!8m2!3d25.2325778!4d86.9635452!16s%2Fg%2F11c1q3qvs5!19sChIJ4TMa3RRK8DkRL50_I8NCMEE?authuser=0&hl=en&rclk=1,"25.232577799999998,86.9635452"
Afrin Warsia Mosque,Mosque,"Afrin Warsia Mosque, Nawab colony, Jarlahi Rd, Tilkamanjhi, Bhagalpur, Bihar 813113",Tilkamanjhi,"Nawab colony, Jarlahi Rd",Bhagalpur,813113,Bihar,IN,https://www.google.com/maps/place/Afrin+Warsia+Mosque/data=!4m7!3m6!1s0x39f04a10de11d6d7:0x193bebbda9b5694f!8m2!3d25.2364769!4d86.9701857!16s%2Fg%2F11fz9xz0wl!19sChIJ19YR3hBK8DkRT2m1qb3rOxk?authuser=0&hl=en&rclk=1,"25.2364769,86.9701857"
Jama Masjid jabbar chak,Mosque,"6XV8+9HC Jama Masjid jabbar chak, Jabbarchak, Urdu Bazar, Bhagalpur, Bihar 812002","Jabbarchak, Urdu Bazar",6XV8+9HC,Bhagalpur,812002,Bihar,IN,https://www.google.com/maps/place/Jama+Masjid+jabbar+chak/data=!4m7!3m6!1s0x39f04a0dc967e789:0xfa1a135ab6845dad!8m2!3d25.2434471!4d86.9663928!16s%2Fg%2F11g6mlc43l!19sChIJiednyQ1K8DkRrV2EtloTGvo?authuser=0&hl=en&rclk=1,"25.243447099999997,86.9663928"
Madni Masjid,Mosque,"6WRG+55J Madni Masjid, Nathnagar, Bhagalpur, Bihar 812004",Nathnagar,6WRG+55J,Bhagalpur,812004,Bihar,IN,https://www.google.com/maps/place/Madni+Masjid/data=!4m7!3m6!1s0x39f04a99d0b7838d:0x55b09230e7d384d0!8m2!3d25.2404712!4d86.9254049!16s%2Fg%2F11g8wpmzlm!19sChIJjYO30JlK8DkR0ITT5zCSsFU?authuser=0&hl=en&rclk=1,"25.240471199999998,86.92540489999999"
Urdubazar Mosque,Mosque,"6XW8+33C Urdubazar Mosque, Urdu Bazar, Bhagalpur, Bihar 812002",Urdu Bazar,6XW8+33C,Bhagalpur,812002,Bihar,IN,https://www.google.com/maps/place/Urdubazar+Mosque/data=!4m7!3m6!1s0x39f04a0c5e4286cf:0x6461e783412cdd44!8m2!3d25.2451878!4d86.9651449!16s%2Fg%2F11c2p96t81!19sChIJz4ZCXgxK8DkRRN0sQYPnYWQ?authuser=0&hl=en&rclk=1,"25.2451878,86.9651449"
Jama Masjid Madninagar,Mosque,"Jama Masjid Madninagar, Gali no 03 Madninagar, Bihar 812004",Kalupur,Gali no 03 Madninagar,Bhagalpur,812004,Bihar,IN,https://www.google.com/maps/place/Jama+Masjid+Madninagar/data=!4m7!3m6!1s0x39f04a9791001541:0x3e28fd0c59452b3!8m2!3d25.2390989!4d86.9240588!16s%2Fg%2F11g72f5xfw!19sChIJQRUAkZdK8DkRs1KUxdCP4gM?authuser=0&hl=en&rclk=1,"25.2390989,86.9240588"
Hdjsh ssf jididhsfsjxo9hwfwy Wii w9djgevd,Mosque,"62V2+G8Q Hdjsh ssf jididhsfsjxo9hwfwy Wii w9djgevd, Barahpura, Bhagalpur, Bihar 812002",Barahpura,62V2+G8Q,Bhagalpur,812002,Bihar,IN,https://www.google.com/maps/place/Hdjsh+ssf+jididhsfsjxo9hwfwy+Wii+w9djgevd/data=!4m7!3m6!1s0x39f049e7a4b46033:0x713f64536d202b0!8m2!3d25.2438372!4d87.0008592!16s%2Fg%2F11f57j57w5!19sChIJM2C0pOdJ8DkRsALSNkX2Ewc?authuser=0&hl=en&rclk=1,"25.243837199999998,87.0008592"
Yousuf Store,Pharmacy,"Yousuf Store, Al-kabir Masjid, Bhagalpur Alternative Bypass Rd, Kabirpur, Bhagalpur, Bihar 812006",Kabirpur,"Al-kabir Masjid, Bhagalpur Alternative Bypass Rd",Bhagalpur,812006,Bihar,IN,https://www.google.com/maps/place/Yousuf+Store/data=!4m7!3m6!1s0x39f04a8fa12a5b79:0xe9e57301740efa0d!8m2!3d25.2371338!4d86.9451512!16s%2Fg%2F1vxw6pfm!19sChIJeVsqoY9K8DkRDfoOdAFz5ek?authuser=0&hl=en&rclk=1,"25.2371338,86.9451512"
Jama Masjid msjd,Mosque,"6XQX+45H Jama Masjid msjd, Adarsh Nagar Lodipur Rd, Angari, Bhagalpur, Bihar 812002",Angari,"6XQX+45H, Adarsh Nagar Lodipur Rd",Bhagalpur,812002,Bihar,IN,https://www.google.com/maps/place/Jama+Masjid+%D9%85%D8%B3%D8%AC%D8%AF%E2%80%AD/data=!4m7!3m6!1s0x39f049e92e25f72b:0xbb6682791bdd3890!8m2!3d25.237809!4d86.9979863!16s%2Fg%2F11gbwy04v9!19sChIJK_clLulJ8DkRkDjdG3mCZrs?authuser=0&hl=en&rclk=1,"25.237809,86.9979863"
Noori Masjid,Mosque,"6XM5+QRH Noori Masjid, Tilkamanjhi, Parbati, Bhagalpur, Bihar 812002",Tilkamanjhi,6XM5+QRH,"Parbati, Bhagalpur",812002,Bihar,IN,https://www.google.com/maps/place/Noori+Masjid/data=!4m7!3m6!1s0x39f04a6b83f86d0d:0xa19f16fe9c266f64!8m2!3d25.2344294!4d86.9595954!16s%2Fg%2F11c5_89k8h!19sChIJDW34g2tK8DkRZG8mnP4Wn6E?authuser=0&hl=en&rclk=1,"25.2344294,86.9595954"
Shahi Masjid(Lalkothi Jabbar chak),Mosque,"6XV8+62X Shahi Masjid(Lalkothi Jabbar chak), Lal Kothi Ln, Jabbarchak, Urdu Bazar, Bhagalpur, Bihar 812002","Jabbarchak, Urdu Bazar","6XV8+62X, Lal Kothi Ln",Bhagalpur,812002,Bihar,IN,https://www.google.com/maps/place/Shahi+Masjid%28Lalkothi+Jabbar+chak%29/data=!4m7!3m6!1s0x39f04a0da89c420f:0x4c767666679bdd3d!8m2!3d25.243112!4d86.9651204!16s%2Fg%2F11ckky2c4x!19sChIJD0KcqA1K8DkRPd2bZ2Z2dkw?authuser=0&hl=en&rclk=1,"25.243112,86.96512039999999"
Ahmad Colony Masjid,Mosque,"6XP6+2M5 Ahmad Colony Masjid, Mohiuddinpur, Bhagalpur, Bihar 812002",Mohiuddinpur,6XP6+2M5,Bhagalpur,812002,Bihar,IN,https://www.google.com/maps/place/Ahmad+Colony+Masjid/data=!4m7!3m6!1s0x39f04a6ca7c69b6b:0x32a71f0ac1fa0172!8m2!3d25.2350069!4d86.9617227!16s%2Fg%2F11c326ykw3!19sChIJa5vGp2xK8DkRcgH6wQofpzI?authuser=0&hl=en&rclk=1,"25.2350069,86.9617227"
Nurani Masjid Mirgyaschak,Mosque,"6WWH+QM8 Nurani Masjid Mirgyaschak, MTN Ghosh Rd, Champanagar, Nathnagar, Bhagalpur, Bihar 812004","Champanagar, Nathnagar","6WWH+QM8, MTN Ghosh Rd",Bhagalpur,812004,Bihar,IN,https://www.google.com/maps/place/Nurani+Masjid+Mirgyaschak/data=!4m7!3m6!1s0x39f04b3ee7e5f879:0xffc9f65414c9464b!8m2!3d25.2469003!4d86.9292106!16s%2Fg%2F11hz_26ktv!19sChIJefjl5z5L8DkRS0bJFFT2yf8?authuser=0&hl=en&rclk=1,"25.2469003,86.92921059999999"
Momintola Masjid,Mosque,"6XH8+R4F Momintola Masjid, Tilkamanjhi, Habibpur, Bhagalpur, Bihar 812002",Tilkamanjhi,6XH8+R4F,"Habibpur, Bhagalpur",812002,Bihar,IN,https://www.google.com/maps/place/Momintola+Masjid/data=!4m7!3m6!1s0x39f04a158466b2cf:0xd47bb2850ac99799!8m2!3d25.2295659!4d86.965286!16s%2Fg%2F11c70906jx!19sChIJz7JmhBVK8DkRmZfJCoWye9Q?authuser=0&hl=en&rclk=1,"25.229565899999997,86.96528599999999"
Husainabad Dargah,Shrine,"6XHF+26V Husainabad Dargah, Hussainabad, Tilkamanjhi, Bhagalpur, Bihar 812002","Hussainabad, Tilkamanjhi",6XHF+26V,Bhagalpur,812002,Bihar,IN,https://www.google.com/maps/place/Husainabad+Dargah/data=!4m7!3m6!1s0x39f04a22c7de678b:0x1f5ef03011f930da!8m2!3d25.2276106!4d86.9730601!16s%2Fg%2F119w5jhxh!19sChIJi2fexyJK8DkR2jD5ETDwXh8?authuser=0&hl=en&rclk=1,"25.2276106,86.9730601"
Dawoodchak Masjid,Mosque,"6XP7+X75 Dawoodchak Masjid, Tilkamanjhi, Mohiuddinpur, Bhagalpur, Bihar 812002",Tilkamanjhi,6XP7+X75,"Mohiuddinpur, Bhagalpur",812002,Bihar,IN,https://www.google.com/maps/place/Dawoodchak+Masjid/data=!4m7!3m6!1s0x39f04a1324532d1d:0x2afa1957f8438a51!8m2!3d25.237386!4d86.9632247!16s%2Fg%2F11cryy4n6p!19sChIJHS1TJBNK8DkRUYpD-FcZ-io?authuser=0&hl=en&rclk=1,"25.237385999999997,86.9632247"
Masjid Shahbaziya,Mosque,"6XR9+2HW Masjid Shahbaziya, Tilkamanjhi, Bhagalpur, Bihar 812002",Tilkamanjhi,6XR9+2HW,Bhagalpur,812002,Bihar,IN,https://www.google.com/maps/place/Masjid+Shahbaziya/data=!4m7!3m6!1s0x39f04a11c49c2b53:0x4acc5bc323d6ae62!8m2!3d25.2401066!4d86.9689633!16s%2Fg%2F119tykz_g!19sChIJUyucxBFK8DkRYq7WI8NbzEo?authuser=0&hl=en&rclk=1,"25.240106599999997,86.9689633"
Bansitiker Masjid,Shrine,"62P9+59X Bansitiker Masjid, Lodipur Khurd, Bhagalpur, Bihar 812002",,62P9+59X,"Lodipur Khurd, Bhagalpur",812002,Bihar,IN,https://www.google.com/maps/place/Bansitiker+Masjid/data=!4m7!3m6!1s0x39f04938706831db:0x14aae2fe7cbba2db!8m2!3d25.2354998!4d87.0184846!16s%2Fg%2F11ffv3zw3r!19sChIJ2zFocDhJ8DkR26K7fP7iqhQ?authuser=0&hl=en&rclk=1,"25.2354998,87.0184846"
Jama Masjid Sardarpur,Mosque,"Jama Masjid Sardarpur, 812006, Nathnagar, Bhagalpur, Bihar 812004","Sardarpur, Nathnagar",812006,Bhagalpur,812004,Bihar,IN,https://www.google.com/maps/place/Jama+Masjid+Sardarpur/data=!4m7!3m6!1s0x39f04a9a07c6e057:0x68a2637555426926!8m2!3d25.2402307!4d86.9279115!16s%2Fg%2F11fy96g17n!19sChIJV-DGB5pK8DkRJmlCVXVjomg?authuser=0&hl=en&rclk=1,"25.240230699999998,86.9279115"
Ibrahimpur Masjid,Mosque,"Ibrahimpur Masjid, Ibrahimpur, Bhagalpur, Bihar 813210",Ibrahimpur,,Bhagalpur,813210,Bihar,IN,https://www.google.com/maps/place/Ibrahimpur+Masjid/data=!4m7!3m6!1s0x39f04839bda4a01d:0x56dabd7cf00cd30!8m2!3d25.2347415!4d87.0341558!16s%2Fg%2F11f31d5yxr!19sChIJHaCkvTlI8DkRMM0Az9erbQU?authuser=0&hl=en&rclk=1,"25.2347415,87.0341558"
JAMA MASJID UTTAR TOLA,Mosque,"6WRM+4VP JAMA MASJID UTTAR TOLA, Bariarpur - Bhagalpur Rd, Nathnagar, Bhagalpur, Bihar 812004",Nathnagar,"6WRM+4VP, Bariarpur - Bhagalpur Rd",Bhagalpur,812004,Bihar,IN,https://www.google.com/maps/place/JAMA+MASJID+UTTAR+TOLA/data=!4m7!3m6!1s0x39f04a857fdaa41f:0xc44d918aef7cbdb8!8m2!3d25.2403308!4d86.9347179!16s%2Fg%2F11fy5cy3vq!19sChIJH6Taf4VK8DkRuL1874qRTcQ?authuser=0&hl=en&rclk=1,"25.2403308,86.9347179"
Habibia Masjid,Mosque,"6XJ7+HMJ Habibia Masjid, Tilkamanjhi, Habibpur, Bhagalpur, Bihar 812002",Tilkamanjhi,6XJ7+HMJ,"Habibpur, Bhagalpur",812002,Bihar,IN,https://www.google.com/maps/place/Habibia+Masjid/data=!4m7!3m6!1s0x39f04a151b0623af:0x5806ad4cb5da1628!8m2!3d25.2314606!4d86.9641434!16s%2Fg%2F11g6s4_1ss!19sChIJryMGGxVK8DkRKBbatUytBlg?authuser=0&hl=en&rclk=1,"25.2314606,86.9641434"
Sujaganj Mosque,Mosque,"6XVF+978 Sujaganj Mosque, Sujaganj, Bazar, Bhagalpur, Bihar 812002","Sujaganj, Bazar",6XVF+978,Bhagalpur,812002,Bihar,IN,https://www.google.com/maps/place/Sujaganj+Mosque/data=!4m7!3m6!1s0x39f04bdd22ec9cbf:0x1c165e9194f2442a!8m2!3d25.2434083!4d86.9731898!16s%2Fg%2F11g0md0nqj!19sChIJv5zsIt1L8DkRKkTylJFeFhw?authuser=0&hl=en&rclk=1,"25.2434083,86.9731898"
Maksuspur masjid,Mosque,"6WWJ+5MF Maksuspur masjid, Nathnagar, Bhagalpur, Bihar 812004",Nathnagar,6WWJ+5MF,Bhagalpur,812004,Bihar,IN,https://www.google.com/maps/place/Maksuspur+masjid/data=!4m7!3m6!1s0x39f04b168d2f4091:0x4a41bad1a53ca22a!8m2!3d25.2454482!4d86.9316698!16s%2Fg%2F11fhxxl9kh!19sChIJkUAvjRZL8DkRKqI8pdG6QUo?authuser=0&hl=en&rclk=1,"25.2454482,86.9316698"
Nawab Colony Masjid,Religious destination,"Nawab Colony Masjid, Nawab Colony, Maulana Chak Rd, Tilkamanjhi, Bhagalpur, Bihar 812002",Tilkamanjhi,"Nawab Colony, Maulana Chak Rd",Bhagalpur,812002,Bihar,IN,https://www.google.com/maps/place/Nawab+Colony+Masjid/data=!4m7!3m6!1s0x39f04b1b79e16d73:0x4181a0ad0c4d6edc!8m2!3d25.2363729!4d86.9701439!16s%2Fg%2F11nm_y8t4l!19sChIJc23heRtL8DkR3G5NDK2ggUE?authuser=0&hl=en&rclk=1,"25.2363729,86.9701439"
Nurani Masjid,Mosque,"Nurani Masjid, Tilka Manjhi Chowk, Surkhikal, Bhagalpur, Bihar 812001",Surkhikal,Tilka Manjhi Chowk,Bhagalpur,812001,Bihar,IN,https://www.google.com/maps/place/Nurani+Masjid/data=!4m7!3m6!1s0x39f03706d65170dd:0xfc30a184c04624d1!8m2!3d25.2547008!4d87.0000334!16s%2Fg%2F11h6r8fl48!19sChIJ3XBR1gY38DkR0SRGwIShMPw?authuser=0&hl=en&rclk=1,"25.2547008,87.00003339999999"
mosque,Mosque,"7X3C+6RJ mosque, Naya Bazar, Darabpur, Bihar 812001",Naya Bazar,7X3C+6RJ,Darabpur,812001,Bihar,IN,https://www.google.com/maps/place/mosque/data=!4m7!3m6!1s0x39f035f7fc4896bd:0x879c4ac67d413e34!8m2!3d25.2530855!4d86.972015!16s%2Fg%2F11fx7djf__!19sChIJvZZI_Pc18DkRND5BfcZKnIc?authuser=0&hl=en&rclk=1,"25.253085499999997,86.972015"
Quazichak Masjid,Mosque,"6XMF+VV7 Quazichak Masjid, Quazichak, Panna Mill Rd, Bhagalpur, Bihar 812005",,"6XMF+VV7, Quazichak, Panna Mill Rd",Bhagalpur,812005,Bihar,IN,https://www.google.com/maps/place/Quazichak+Masjid/data=!4m7!3m6!1s0x39f04a1983f4ee21:0xd392b28f82803fc4!8m2!3d25.2346746!4d86.9746637!16s%2Fg%2F11c2p886yp!19sChIJIe70gxlK8DkRxD-Ago-yktM?authuser=0&hl=en&rclk=1,"25.234674599999998,86.9746637"
Chhoti Masjid Champanagar,Mosque,"Chhoti Masjid Champanagar, Champanagar, Nathnagar, Bhagalpur, Bihar 812004","Champanagar, Nathnagar",,Bhagalpur,812004,Bihar,IN,https://www.google.com/maps/place/Chhoti+Masjid+Champanagar/data=!4m7!3m6!1s0x39f04a99c1c0f1e9:0x52084e105e2da345!8m2!3d25.2412625!4d86.9259868!16s%2Fg%2F11f_cmnr5g!19sChIJ6fHAwZlK8DkRRaMtXhBOCFI?authuser=0&hl=en&rclk=1,"25.241262499999998,86.92598679999999"
Al Masjidul Kabir,Mosque,"Al Masjidul Kabir, 812006, 812006, Kabirpur, Bhagalpur, Bihar 812002",Kabirpur,"812006, 812006",Bhagalpur,812002,Bihar,IN,https://www.google.com/maps/place/Al+Masjidul+Kabir/data=!4m7!3m6!1s0x39f04a63a3b85291:0xdbf1691e0daa4279!8m2!3d25.2370259!4d86.9458971!16s%2Fg%2F11f_0swsp7!19sChIJkVK4o2NK8DkReUKqDR5p8ds?authuser=0&hl=en&rclk=1,"25.2370259,86.9458971"
Habibpur Masjid,Mosque,"6XJ6+J9P Habibpur Masjid, Mohiuddinpur, Bhagalpur, Bihar 812002",Mohiuddinpur,6XJ6+J9P,Bhagalpur,812002,Bihar,IN,https://www.google.com/maps/place/Habibpur+Masjid/data=!4m7!3m6!1s0x39f04bac19819155:0xd748495b4c70a2d0!8m2!3d25.2310077!4d86.9615792!16s%2Fg%2F11rycpk2j7!19sChIJVZGBGaxL8DkR0KJwTFtJSNc?authuser=0&hl=en&rclk=1,"25.2310077,86.9615792"
Old Mosque,Mosque,"6XJP+82V Old Mosque, Warshaliganj, Mirjanhat, Bhagalpur, Bihar 812005",Mirjanhat,"6XJP+82V, Warshaliganj, Mirjanhat",Bhagalpur,812005,Bihar,IN,https://www.google.com/maps/place/Old+Mosque/data=!4m7!3m6!1s0x39f049f4cdb12d51:0xf26eb4680ef36455!8m2!3d25.2308593!4d86.9850457!16s%2Fg%2F11gbnm7ssk!19sChIJUS2xzfRJ8DkRVWTzDmi0bvI?authuser=0&hl=en&rclk=1,"25.2308593,86.9850457"
brhiyaa kaalii mNdir,Hindu temple,"7X5W+Q8H brhiyaa kaalii mNdir, Bari Khanjarpur Masjid Ln, Katahalbari, Khanjarpur, Bhagalpur, Bihar 812001","Katahalbari, Khanjarpur","7X5W+Q8H, Bari Khanjarpur Masjid Ln",Bhagalpur,812001,Bihar,IN,https://www.google.com/maps/place/%E0%A4%AC%E0%A5%9D%E0%A4%BF%E0%A4%AF%E0%A4%BE+%E0%A4%95%E0%A4%BE%E0%A4%B2%E0%A5%80+%E0%A4%AE%E0%A4%82%E0%A4%A6%E0%A4%BF%E0%A4%B0/data=!4m7!3m6!1s0x39f03703c9d0123b:0x99404823f4ebc4c0!8m2!3d25.2594308!4d86.9958628!16s%2Fg%2F11h_f8ct7x!19sChIJOxLQyQM38DkRwMTr9CNIQJk?authuser=0&hl=en&rclk=1,"25.2594308,86.9958628"
Hashmi Masjid,Mosque,"63H5+V5J Hashmi Masjid, Rajpur, Bhagalpur, Bihar 813210",Rajpur,63H5+V5J,Bhagalpur,813210,Bihar,IN,https://www.google.com/maps/place/Hashmi+Masjid/data=!4m7!3m6!1s0x39f04874a39beb69:0x426cbb258207db7!8m2!3d25.2297233!4d87.0578752!16s%2Fg%2F11f403_qqw!19sChIJaeubo3RI8DkRt30gWLLLJgQ?authuser=0&hl=en&rclk=1,"25.2297233,87.0578752"
Allah Wali Masjid,Mosque,"Allah Wali Masjid, Near, Resalabagh Shahjungi Lane, Pankha Toli Ln, Cawk Po+Ps, =, Habibpur, Bihar 813113","Cawk Po+Ps, =","Near, Resalabagh Shahjungi Lane, Pankha Toli Ln","Habibpur, Bhagalpur",813113,Bihar,IN,https://www.google.com/maps/place/Allah+Wali+Masjid/data=!4m7!3m6!1s0x39f04b8fa9dd2e57:0xf5828f903e879617!8m2!3d25.235974!4d86.9591759!16s%2Fg%2F11kf3jkldg!19sChIJVy7dqY9L8DkRF5aHPpCPgvU?authuser=0&hl=en&rclk=1,"25.235974,86.95917589999999"
Mogalpura Masjid,Mosque,"6XJG+2C3 Mogalpura Masjid, Unnamed Road, Mogalpura, Habibpur, Bhagalpur, Bihar 812002",Mogalpura,"6XJG+2C3, Unnamed Road","Habibpur, Bhagalpur",812002,Bihar,IN,https://www.google.com/maps/place/Mogalpura+Masjid/data=!4m7!3m6!1s0x39f04b828542f975:0x27fbceccdb89a563!8m2!3d25.2300202!4d86.9760454!16s%2Fg%2F11f7b_ph4p!19sChIJdflChYJL8DkRY6WJ28zO-yc?authuser=0&hl=en&rclk=1,"25.2300202,86.97604539999999"
Masjid AL FURQAN,Mosque,"Gumti number 03, Masjid AL FURQAN, Bhikhanpur, Bhagalpur, Bihar 812002",Bhikhanpur,Gumti number 03,Bhagalpur,812002,Bihar,IN,https://www.google.com/maps/place/Masjid+AL+FURQAN/data=!4m7!3m6!1s0x39f0490d62eb6939:0x1dcada9b2f7b2001!8m2!3d25.2479821!4d86.9938928!16s%2Fg%2F11tx1qyyx9!19sChIJOWnrYg1J8DkRASB7L5vayh0?authuser=0&hl=en&rclk=1,"25.247982099999998,86.9938928"
Jama masjid mayaganj,Mosque,"7264+XJV Jama masjid mayaganj, Mayaganj, Bhagalpur, Bihar 812001",Mayaganj,7264+XJV,Bhagalpur,812001,Bihar,IN,https://www.google.com/maps/place/Jama+masjid+mayaganj/data=!4m7!3m6!1s0x39f03727bd4fe1f7:0x5b03a99f458e0bc9!8m2!3d25.2624912!4d87.0065501!16s%2Fg%2F11q4dljyz4!19sChIJ9-FPvSc38DkRyQuORZ-pA1s?authuser=0&hl=en&rclk=1,"25.2624912,87.0065501"
Chhoti Masjid Lodipur,Mosque,"6XQX+2QV Chhoti Masjid Lodipur, Angari, Lodipur, Bhagalpur, Bihar 812001",Angari,6XQX+2QV,"Lodipur, Bhagalpur",812001,Bihar,IN,https://www.google.com/maps/place/Chhoti+Masjid+Lodipur/data=!4m7!3m6!1s0x39f049cbf788b1cd:0x8fcfab038ff5acbd!8m2!3d25.2376126!4d86.9994314!16s%2Fg%2F11j42bnbqc!19sChIJzbGI98tJ8DkRvaz1jwOrz48?authuser=0&hl=en&rclk=1,"25.2376126,86.99943139999999"
Mosque,Mosque,"6WHV+54X Mosque, Dudhila, Champapur, Bhagalpur, Bihar 812002","Dudhila, Champapur",6WHV+54X,Bhagalpur,812002,Bihar,IN,https://www.google.com/maps/place/Mosque/data=!4m7!3m6!1s0x39f04a5ffa8b7e27:0x11a17b054ebde33a!8m2!3d25.2279765!4d86.9428689!16s%2Fg%2F11c6cqyw8q!19sChIJJ36L-l9K8DkROuO9TgV7oRE?authuser=0&hl=en&rclk=1,"25.2279765,86.9428689"
Masjid Abdul Rased,Mosque,"6WWJ+H87 Masjid Abdul Rased, Hasanabad, Nathnagar, Bhagalpur, Bihar 812004","Hasanabad, Nathnagar",6WWJ+H87,Bhagalpur,812004,Bihar,IN,https://www.google.com/maps/place/Masjid+Abdul+Rased/data=!4m7!3m6!1s0x39f04b4f93378521:0xd74b294623cd761e!8m2!3d25.2464013!4d86.9307942!16s%2Fg%2F11fpg1r7gz!19sChIJIYU3k09L8DkRHnbNI0YpS9c?authuser=0&hl=en&rclk=1,"25.2464013,86.9307942"
Noori Masjid Meergayashchak,Mosque,"Noori Masjid Meergayashchak, 812004, Tilkamanjhi - Champanagar Rd, Nathnagar, Bihar",Nathnagar,"812004, Tilkamanjhi - Champanagar Rd",Bhagalpur,,Bihar,IN,https://www.google.com/maps/place/Noori+Masjid+Meergayashchak/data=!4m7!3m6!1s0x39f04a9a3257e111:0x583f07fead1327f0!8m2!3d25.2428873!4d86.9281009!16s%2Fg%2F11c1ty_trc!19sChIJEeFXMppK8DkR8CcTrf4HP1g?authuser=0&hl=en&rclk=1,"25.2428873,86.92810089999999"
Chhoti Masjid Mojahidpur,Mosque,"6XQF+FH2 Chhoti Masjid Mojahidpur, Mujahid Pur, Bhagalpur, Bihar 812002",Mujahid Pur,6XQF+FH2,Bhagalpur,812002,Bihar,IN,https://www.google.com/maps/place/Chhoti+Masjid+Mojahidpur/data=!4m7!3m6!1s0x39f04b40339adc55:0x9361c139f0a2f422!8m2!3d25.2386455!4d86.9739003!16s%2Fg%2F11ghtbkqh4!19sChIJVdyaM0BL8DkRIvSi8DnBYZM?authuser=0&hl=en&rclk=1,"25.2386455,86.9739003"
Moinddin Chak Masjid & Hazrat Moinuddin Shah Dargah,Mosque,"6XVM+CRR Moinddin Chak Masjid & Hazrat Moinuddin Shah Dargah, GP Verma Ln, Mundichak, Bhikhanpur, Bhagalpur, Bihar 812001","Mundichak, Bhikhanpur","6XVM+CRR, GP Verma Ln",Bhagalpur,812001,Bihar,IN,https://www.google.com/maps/place/Moinddin+Chak+Masjid+%26+Hazrat+Moinuddin+Shah+Dargah/data=!4m7!3m6!1s0x39f049f851bbaba9:0x1912f69c3cfe0caf!8m2!3d25.2436165!4d86.9845112!16s%2Fg%2F11hblp_xtf!19sChIJqau7UfhJ8DkRrwz-PJz2Ehk?authuser=0&hl=en&rclk=1,"25.243616499999998,86.9845112"
Peir baba Asthan,Mosque,"7244+Q2M Peir baba Asthan, Surkhikal, Bhagalpur, Bihar 812001",Surkhikal,7244+Q2M,Bhagalpur,812001,Bihar,IN,https://www.google.com/maps/place/Peir+baba+Asthan/data=!4m7!3m6!1s0x39f0378c17391589:0xd0944d877af032cf!8m2!3d25.2569596!4d87.0050397!16s%2Fg%2F11g4dt9170!19sChIJiRU5F4w38DkRzzLweodNlNA?authuser=0&hl=en&rclk=1,"25.2569596,87.0050397"
MASJID RAHMATPUR,Mosque,"6WMW+QF5 MASJID RAHMATPUR, Kabirpur, Bhagalpur, Bihar 812002",Kabirpur,6WMW+QF5,Bhagalpur,812002,Bihar,IN,https://www.google.com/maps/place/MASJID+RAHMATPUR/data=!4m7!3m6!1s0x39f04a615fb5b1e9:0x8385cd3c75fe14e7!8m2!3d25.2343926!4d86.9462355!16s%2Fg%2F11fy_fxbpg!19sChIJ6bG1X2FK8DkR5xT-dTzNhYM?authuser=0&hl=en&rclk=1,"25.2343926,86.9462355"
Nai Masjid Khiribandh,Mosque,"Nai Masjid Khiribandh, 1, Bhagalpur-Hansdiha Rd, Jamni, Bhairopur, Bihar 812005",,"1, Bhagalpur-Hansdiha Rd","Jamni, Bhairopur",812005,Bihar,IN,https://www.google.com/maps/place/Nai+Masjid+Khiribandh/data=!4m7!3m6!1s0x39f04bcd43f690bd:0xc8f203a16cd45821!8m2!3d25.1972037!4d86.9727985!16s%2Fg%2F11h_cm2d17!19sChIJvZD2Q81L8DkRIVjUbKED8sg?authuser=0&hl=en&rclk=1,"25.1972037,86.9727985"
Ganichak Masjid,Mosque,"Ganichak Masjid, 6XQ8+5HX, Ghani Chack, Bhagalpur, Bihar 812002",Tilkamanjhi,"6XQ8+5HX, Ghani Chack",Bhagalpur,812002,Bihar,IN,https://www.google.com/maps/place/Ganichak+Masjid/data=!4m7!3m6!1s0x39f04b3dd8843355:0xd670796c39cad110!8m2!3d25.2379514!4d86.9664843!16s%2Fg%2F11q580bvbk!19sChIJVTOE2D1L8DkRENHKOWx5cNY?authuser=0&hl=en&rclk=1,"25.2379514,86.96648429999999"
Jama masjid douna bhaaglpur,Mosque,"6XRM+XMW Jama masjid douna bhaaglpur, Bhikhanpur, Bhagalpur, Bihar 812002",Bhikhanpur,6XRM+XMW,Bhagalpur,,Bihar,IN,https://www.google.com/maps/place/Jama+masjid+douna+%E0%A4%AD%E0%A4%BE%E0%A4%97%E0%A4%B2%E0%A4%AA%E0%A5%81%E0%A4%B0/data=!4m7!3m6!1s0x39f049929a1b11b3:0x42a4eeb3eb438f1a!8m2!3d25.2424926!4d86.9842163!16s%2Fg%2F11jt1xhd9c!19sChIJsxEbmpJJ8DkRGo9D67PupEI?authuser=0&hl=en&rclk=1,"25.2424926,86.9842163"
Chhoti Mosque,Mosque,"6XM8+G6F Chhoti Mosque, Tilkamanjhi, Chamelichak, Bhagalpur, Bihar 812002",Tilkamanjhi,6XM8+G6F,"Chamelichak, Bhagalpur",,Bihar,IN,https://www.google.com/maps/place/Chhoti+Mosque/data=!4m7!3m6!1s0x39f04bf16332c09f:0xc918dad4a52ba912!8m2!3d25.2338159!4d86.9655551!16s%2Fg%2F11fgm7rm0n!19sChIJn8AyY_FL8DkREqkrpdTaGMk?authuser=0&hl=en&rclk=1,"25.2338159,86.9655551"
Mosque,Place of worship,"7X3G+45J Mosque, Burhanath Rd, Jogsar, Adampur, Bhagalpur, Bihar 812001","Jogsar, Adampur","7X3G+45J, Burhanath Rd",Bhagalpur,812001,Bihar,IN,https://www.google.com/maps/place/Mosque/data=!4m7!3m6!1s0x39f04b2470889af7:0x62175dfa117ce323!8m2!3d25.252842!4d86.9753777!16s%2Fg%2F11g0km8y26!19sChIJ95qIcCRL8DkRI-N8EfpdF2I?authuser=0&hl=en&rclk=1,"25.252841999999998,86.9753777"
Sheru Masjid shyrw msjd,Mosque,"62W2+92V Sheru Masjid shyrw msjd, Barahpura, Bhagalpur, Bihar 812002",Barahpura,62W2+92V,Bhagalpur,812002,Bihar,IN,https://www.google.com/maps/place/Sheru+Masjid+%D8%B4%DB%8C%D8%B1%D9%88+%D9%85%D8%B3%D8%AC%D8%AF%E2%80%AD/data=!4m7!3m6!1s0x39f049cd8cf6442b:0xb2bf44b01a5b7283!8m2!3d25.2459933!4d87.0000585!16s%2Fg%2F11kqc447z0!19sChIJK0T2jM1J8DkRg3JbGrBEv7I?authuser=0&hl=en&rclk=1,"25.2459933,87.0000585"
Rabiya Colony's Mosque,Mosque,"6XM9+6C2 Rabiya Colony's Mosque, Karodi Bazar Road, Rabiya Colony, Habibpur, Bihar 813113","Rabiya Colony, Tilkamanjhi","6XM9+6C2, Karodi Bazar Road","Habibpur, Bhagalpur",813113,Bihar,IN,https://www.google.com/maps/place/Rabiya+Colony%27s+Mosque/data=!4m7!3m6!1s0x39f04b697a1246e5:0xea255772349ef2a2!8m2!3d25.2330127!4d86.9685087!16s%2Fg%2F11gtftr91s!19sChIJ5UYSemlL8DkRovKeNHJXJeo?authuser=0&hl=en&rclk=1,"25.2330127,86.9685087"
Nawab colony masjid Bhagalpur,Mosque,"6XQ8+3G6 Nawab colony masjid Bhagalpur, Jarlahi Rd, Tilkamanjhi, Bhagalpur, Bihar 812002",Tilkamanjhi,"6XQ8+3G6, Jarlahi Rd",Bhagalpur,812002,Bihar,IN,https://www.google.com/maps/place/Nawab+colony+masjid+Bhagalpur/data=!4m7!3m6!1s0x39f04b33740eae69:0x87082ee34fbc04cc!8m2!3d25.2376691!4d86.9662517!16s%2Fg%2F11mf_34kp1!19sChIJaa4OdDNL8DkRzAS8T-MuCIc?authuser=0&hl=en&rclk=1,"25.237669099999998,86.9662517"
Kotwali Masjid,Mosque,"6XWC+MM9 Kotwali Masjid, Urdu Bazar, Bhagalpur, Bihar 812007",Urdu Bazar,6XWC+MM9,Bhagalpur,812007,Bihar,IN,https://www.google.com/maps/place/Kotwali+Masjid/data=!4m7!3m6!1s0x39f04b69b2d5e52b:0xc68d8e2871585545!8m2!3d25.2466513!4d86.9717227!16s%2Fg%2F11gxsmhcxc!19sChIJK-XVsmlL8DkRRVVYcSiOjcY?authuser=0&hl=en&rclk=1,"25.2466513,86.9717227"
Aisa Masjid,Mosque,"6WRG+F26 Aisa Masjid, Nathnagar, Bhagalpur, Bihar 812004",Nathnagar,6WRG+F26,Bhagalpur,812004,Bihar,IN,https://www.google.com/maps/place/Aisa+Masjid/data=!4m7!3m6!1s0x39f04b5a5b36c2d3:0x49b534dee142f6cc!8m2!3d25.2411585!4d86.9250003!16s%2Fg%2F11mw49b0q9!19sChIJ08I2W1pL8DkRzPZC4d40tUk?authuser=0&hl=en&rclk=1,"25.241158499999997,86.9250003"
Masjid Badrealampur,Mosque,"6WPX+5R2 Masjid Badrealampur, Badrealampur, Shahjangi, Bhagalpur, Bihar 812002",Badrealampur,6WPX+5R2,"Shahjangi, Bhagalpur",,Bihar,IN,https://www.google.com/maps/place/Masjid+Badrealampur/data=!4m7!3m6!1s0x39f04ba8d1da936d:0x1541f3716e2aea44!8m2!3d25.2353987!4d86.9495026!16s%2Fg%2F11mr2r1bw1!19sChIJbZPa0ahL8DkRROoqbnHzQRU?authuser=0&hl=en&rclk=1,"25.235398699999998,86.9495026"
Manu Shah Pirbaba Dargah,Mosque,"Manu Shah Pirbaba Dargah, Near Madarsa,East of Durga Asthana,Nek Nam Shah Dargah Lane, Gumti no 2, Bhikhanpur, Bhagalpur, Bihar 812002",Bhikhanpur,"Near Madarsa,East of Durga Asthana,Nek Nam Shah Dargah Lane, Gumti no 2",Bhagalpur,812002,Bihar,IN,https://www.google.com/maps/place/Manu+Shah+Pirbaba+Dargah/data=!4m7!3m6!1s0x39f04941d92153db:0xf799df33e4a9b0fe!8m2!3d25.2457995!4d86.9911579!16s%2Fg%2F11hzph6n3l!19sChIJ21Mh2UFJ8DkR_rCp5DPfmfc?authuser=0&hl=en&rclk=1,"25.2457995,86.99115789999999"
Kachahri Masjid,Mosque,"7X3R+G4V Kachahri Masjid, Adampur, Bhagalpur, Bihar 812001",Adampur,7X3R+G4V,Bhagalpur,812001,Bihar,IN,https://www.google.com/maps/place/Kachahri+Masjid/data=!4m7!3m6!1s0x39f0371c072ec285:0xcb1ca872e669682c!8m2!3d25.2538973!4d86.9907432!16s%2Fg%2F11pdsbqfmh!19sChIJhcIuBxw38DkRLGhp5nKoHMs?authuser=0&hl=en&rclk=1,"25.2538973,86.9907432"
Shia Jama Masjid,Mosque,"7X3C+6RR Shia Jama Masjid, Naya Bazar, Darabpur, Bihar 812001",Naya Bazar,7X3C+6RR,Darabpur,812001,Bihar,IN,https://www.google.com/maps/place/Shia+Jama+Masjid/data=!4m7!3m6!1s0x39f035f5471ca631:0x32728f2e8fb8a9e1!8m2!3d25.2531138!4d86.9720062!16s%2Fg%2F11g0kzf7p8!19sChIJMaYcR_U18DkR4am4jy6PcjI?authuser=0&hl=en&rclk=1,"25.253113799999998,86.9720062"
Karbala wali Masjid,Mosque,"6XP5+XQM Karbala wali Masjid, Mohiuddinpur, Bhagalpur, Bihar 812002",Mohiuddinpur,6XP5+XQM,Bhagalpur,812002,Bihar,IN,https://www.google.com/maps/place/Karbala+wali+Masjid/data=!4m7!3m6!1s0x39f04b631fcc7603:0x89dc760efe0c3b3e!8m2!3d25.2374713!4d86.959421!16s%2Fg%2F11t2b1k5v2!19sChIJA3bMH2NL8DkRPjsM_g523Ik?authuser=0&hl=en&rclk=1,"25.2374713,86.95942099999999"
Madina Masjid,Mosque,"Madina Masjid, Ahmadnagar Road GaliNo 8, Bihar",Kalupur,Ahmadnagar Road GaliNo 8,"Bhagalpur, Basantpur",,Bihar,IN,https://www.google.com/maps/place/Madina+Masjid/data=!4m7!3m6!1s0x39f04b4593337bff:0xddbb3010872b74a3!8m2!3d25.2395872!4d86.9212981!16s%2Fg%2F11qnltvcz3!19sChIJ_3szk0VL8DkRo3QrhxAwu90?authuser=0&hl=en&rclk=1,"25.2395872,86.9212981"
Purani Sarai Chhoti Masjid,Mosque,"6XX7+9R5 Purani Sarai Chhoti Masjid, Sarai, Bhagalpur, Bihar 812001",Sarai,6XX7+9R5,Bhagalpur,812001,Bihar,IN,https://www.google.com/maps/place/Purani+Sarai+Chhoti+Masjid/data=!4m7!3m6!1s0x39f04bdd2e3999b7:0x19c5bb5862876d58!8m2!3d25.24839!4d86.964624!16s%2Fg%2F11nclnn7qj!19sChIJt5k5Lt1L8DkRWG2HYli7xRk?authuser=0&hl=en&rclk=1,"25.24839,86.964624"
Jama Masjid,Mosque,"6XP6+H25 Jama Masjid, Asanandpur, Bhagalpur, Bihar 812002",Asanandpur,6XP6+H25,Bhagalpur,812002,Bihar,IN,https://www.google.com/maps/place/Jama+Masjid/data=!4m7!3m6!1s0x39f04bea108804e1:0x6728ca30db4a5102!8m2!3d25.2363795!4d86.9601105!16s%2Fg%2F11h8kv31sw!19sChIJ4QSIEOpL8DkRAlFK2zDKKGc?authuser=0&hl=en&rclk=1,"25.236379499999998,86.9601105"
Yusuf Ali Masjid,Mosque,"Yusuf Ali Masjid, Barahpura, Bhagalpur, Bihar 812001",Barahpura,,Bhagalpur,812001,Bihar,IN,https://www.google.com/maps/place/Yusuf+Ali+Masjid/data=!4m7!3m6!1s0x39f0498dbb4a8399:0x829ce424b81a62cc!8m2!3d25.2476262!4d86.9990268!16s%2Fg%2F11px6b_mtx!19sChIJmYNKu41J8DkRzGIauCTknII?authuser=0&hl=en&rclk=1,"25.2476262,86.9990268"
"Jama Masjid, Maulanapur",Mosque,"6XR9+2HW Jama Masjid, Maulanapur, Tilkamanjhi, Bhagalpur, Bihar 812002",Tilkamanjhi,6XR9+2HW,Bhagalpur,812002,Bihar,IN,"https://www.google.com/maps/place/Jama+Masjid,+Maulanapur/data=!4m7!3m6!1s0x39f04bfa2caf4163:0x3db266cbe3096519!8m2!3d25.2401022!4d86.9691551!16s%2Fg%2F11vkg628pn!19sChIJY0GvLPpL8DkRGWUJ48tmsj0?authuser=0&hl=en&rclk=1","25.2401022,86.9691551"
JAMA MASJID KASBA,Mosque,"6WWH+8XW JAMA MASJID KASBA, Nathnagar, Bhagalpur, Bihar 812004",Nathnagar,6WWH+8XW,Bhagalpur,812004,Bihar,IN,https://www.google.com/maps/place/JAMA+MASJID+KASBA/data=!4m7!3m6!1s0x39f04b4727acc365:0x255e18dc8f9b320!8m2!3d25.2458542!4d86.9299468!16s%2Fg%2F11scnqsm0_!19sChIJZcOsJ0dL8DkRILP5yI3hVQI?authuser=0&hl=en&rclk=1,"25.2458542,86.9299468"
Jama Masjid Kabirpur,Mosque,"6WQW+9XQ Jama Masjid Kabirpur, Kabirpur, Bhagalpur, Bihar 812002",Kabirpur,6WQW+9XQ,Bhagalpur,812002,Bihar,IN,https://www.google.com/maps/place/Jama+Masjid+Kabirpur/data=!4m7!3m6!1s0x39f04b0a4f4d1719:0x654de3dde3d64e49!8m2!3d25.2384937!4d86.9474792!16s%2Fg%2F11srykxgwy!19sChIJGRdNTwpL8DkRSU7W493jTWU?authuser=0&hl=en&rclk=1,"25.2384937,86.94747919999999"
Barahpura chhoti masjid utter tola,Mosque,"62X2+3QW Barahpura chhoti masjid utter tola, Barahpura Utter Tola Rd, Bhikhanpur, Bhagalpur, Bihar 812002",Bhikhanpur,"62X2+3QW, Barahpura Utter Tola Rd",Bhagalpur,812002,Bihar,IN,https://www.google.com/maps/place/Barahpura+chhoti+masjid+utter+tola/data=!4m7!3m6!1s0x39f049ef379fb6f3:0x7856c34489eabd9c!8m2!3d25.2477448!4d87.0019478!16s%2Fg%2F11rg7qv_n6!19sChIJ87afN-9J8DkRnL3qiUTDVng?authuser=0&hl=en&rclk=1,"25.2477448,87.0019478"
Gulab darji lane masjid,Mosque,"6XJG+R59 Gulab darji lane masjid, Mogalpura, Habibpur, Bhagalpur, Bihar 812002",Mogalpura,6XJG+R59,"Habibpur, Bhagalpur",812002,Bihar,IN,https://www.google.com/maps/place/Gulab+darji+lane+masjid/data=!4m7!3m6!1s0x39f04b43bb2e9027:0x29886f9f4c1d1c2d!8m2!3d25.2320071!4d86.9751706!16s%2Fg%2F11v0xctmbv!19sChIJJ5Auu0NL8DkRLRwdTJ9viCk?authuser=0&hl=en&rclk=1,"25.2320071,86.9751706"
Tahbalpur masjid,Mosque,"Tahbalpur masjid, masjid, Tahbalpur, Bhagalpur, Bihar 812002",Tahbalpur,masjid,Bhagalpur,812002,Bihar,IN,https://www.google.com/maps/place/Tahbalpur+masjid/data=!4m7!3m6!1s0x39f049eebaf25067:0x4714ec54a73a0ab4!8m2!3d25.2423084!4d86.9995445!16s%2Fg%2F11q49d1vz5!19sChIJZ1Dyuu5J8DkRtAo6p1TsFEc?authuser=0&hl=en&rclk=1,"25.2423084,86.9995445"
Jamiat Ulama City Bhagalpur,Non-profit organization,"Jamiat Ulama City Bhagalpur, Hakim Shah Md Lane, Rahmani Chowk, Champanagar, Nathnagar, Bhagalpur, Bihar 812004","Champanagar, Nathnagar","Hakim Shah Md Lane, Rahmani Chowk",Bhagalpur,812004,Bihar,IN,https://www.google.com/maps/place/Jamiat+Ulama+City+Bhagalpur/data=!4m7!3m6!1s0x39f04b3acb00f467:0x3772e8674874fe1c!8m2!3d25.24202!4d86.9261183!16s%2Fg%2F11m_scvvkd!19sChIJZ_QAyzpL8DkRHP50SGfocjc?authuser=0&hl=en&rclk=1,"25.24202,86.9261183"
Masjid Habeepur,Mosque,"Masjid Habeepur, Kabirpur, Bhagalpur, Bihar 812002",Kabirpur,,Bhagalpur,,Bihar,IN,https://www.google.com/maps/place/Masjid+Habeepur/data=!4m7!3m6!1s0x39f04a6432d9f511:0x262726010991204b!8m2!3d25.2355421!4d86.9498482!16s%2Fg%2F119vyc_2y!19sChIJEfXZMmRK8DkRSyCRCQEmJyY?authuser=0&hl=en&rclk=1,"25.2355421,86.94984819999999"
"JAMA MASJID, NARGA BAZAR, BHAGALPUR, BIHAR",Mosque,"6WXP+JW2 JAMA MASJID, NARGA BAZAR, BHAGALPUR, BIHAR, Chamapanagar, Bhagalpur, Bihar 812004",Chamapanagar,6WXP+JW2,Bhagalpur,812004,Bihar,IN,"https://www.google.com/maps/place/JAMA+MASJID,+NARGA+BAZAR,+BHAGALPUR,+BIHAR/data=!4m7!3m6!1s0x39f04b0a752fc63b:0x3fe5b162b69a1f69!8m2!3d25.2490691!4d86.9372298!16s%2Fg%2F11tml0rwc1!19sChIJO8YvdQpL8DkRaR-atmKx5T8?authuser=0&hl=en&rclk=1","25.2490691,86.9372298"
Noori Masjid,Mosque,"6XQ5+PG3 Noori Masjid, Tatarpur, Bhagalpur, Bihar 812002",Tatarpur,6XQ5+PG3,Bhagalpur,812002,Bihar,IN,https://www.google.com/maps/place/Noori+Masjid/data=!4m7!3m6!1s0x39f04b8b74bae523:0xfb870b1403dcd748!8m2!3d25.2392663!4d86.9587904!16s%2Fg%2F11snmc070c!19sChIJI-W6dItL8DkRSNfcAxQLh_s?authuser=0&hl=en&rclk=1,"25.2392663,86.9587904"
New Masjid,Mosque,"6XM8+G6F New Masjid, Tilkamanjhi, Chamelichak, Bhagalpur, Bihar 812002",Tilkamanjhi,6XM8+G6F,"Chamelichak, Bhagalpur",812002,Bihar,IN,https://www.google.com/maps/place/New+Masjid/data=!4m7!3m6!1s0x39f04be9e1dfb5b1:0xcc6e551884ce5871!8m2!3d25.2338423!4d86.9656796!16s%2Fg%2F11q42y2q3l!19sChIJsbXf4elL8DkRcVjOhBhVbsw?authuser=0&hl=en&rclk=1,"25.2338423,86.9656796"
Noori Masjid,Mosque,"Noori Masjid, Muslim High Schhol, Ali Nagar Main Road, Railway Phatak, Bhagalpur, Bihar 812002",Railway Phatak,"Muslim High Schhol, Ali Nagar Main Road",Bhagalpur,812002,Bihar,IN,https://www.google.com/maps/place/Noori+Masjid/data=!4m7!3m6!1s0x39f04b485a6c1d7f:0xc397b2d9e9486ce8!8m2!3d25.2394206!4d86.9644106!16s%2Fg%2F11v9vrnwbs!19sChIJfx1sWkhL8DkR6GxI6dmyl8M?authuser=0&hl=en&rclk=1,"25.2394206,86.9644106"
Noorani masjid (Khan Patti),Mosque,"6XXX+V6G Noorani masjid (Khan Patti), Lalbagh, Tilka manjhi, Bhagalpur, Bihar 812002","Lalbagh, Tilka manjhi",6XXX+V6G,Bhagalpur,812002,Bihar,IN,https://www.google.com/maps/place/Noorani+masjid+%28Khan+Patti%29/data=!4m7!3m6!1s0x39f04980facd0599:0xa79719f277d96a28!8m2!3d25.2496866!4d86.9980638!16s%2Fg%2F11ty0pwqtr!19sChIJmQXN-oBJ8DkRKGrZd_IZl6c?authuser=0&hl=en&rclk=1,"25.2496866,86.9980638"
Nathnagar masjid,Mosque,"6WQQ+Q2C Nathnagar masjid, KB Lal Rd, Nathnagar, Bhagalpur, Bihar 812006",Nathnagar,"6WQQ+Q2C, KB Lal Rd",Bhagalpur,812006,Bihar,IN,https://www.google.com/maps/place/Nathnagar+masjid/data=!4m7!3m6!1s0x39f04bb037fdec65:0xcb58ba0c11c574a7!8m2!3d25.2394349!4d86.9375308!16s%2Fg%2F11tf8dzzh5!19sChIJZez9N7BL8DkRp3TFEQy6WMs?authuser=0&hl=en&rclk=1,"25.2394349,86.93753079999999"
Bhagalpur,Mosque,"6XRM+WMW Bhagalpur, Bhikhanpur, Bhagalpur, Bihar 812002",Bhikhanpur,6XRM+WMW,Bhagalpur,,Bihar,IN,https://www.google.com/maps/place/Bhagalpur/data=!4m7!3m6!1s0x39f049d60336a53b:0x6b109e525d4e2dbd!8m2!3d25.2423681!4d86.9842144!16s%2Fg%2F11pv0mn9r6!19sChIJO6U2A9ZJ8DkRvS1OXVKeEGs?authuser=0&hl=en&rclk=1,"25.2423681,86.9842144"
SHAHI MASJID,Mosque,"6XGH+C32 SHAHI MASJID, Shakrulachk, Bhagalpur, Bihar 812002",,6XGH+C32,"Shakrulachk, Bhagalpur",,Bihar,IN,https://www.google.com/maps/place/SHAHI+MASJID/data=!4m7!3m6!1s0x39f04b9f2e57b5a7:0x43136e5924204c76!8m2!3d25.2260207!4d86.9776426!16s%2Fg%2F11kjb9s36h!19sChIJp7VXLp9L8DkRdkwgJFluE0M?authuser=0&hl=en&rclk=1,"25.2260207,86.9776426"
Asanandpur purana tola masjid,Mosque,"6XR6+4F9 Asanandpur purana tola masjid, Asanandpur, Bhagalpur, Bihar 812002",Asanandpur,6XR6+4F9,Bhagalpur,812002,Bihar,IN,https://www.google.com/maps/place/Asanandpur+purana+tola+masjid/data=!4m7!3m6!1s0x39f04b7bb1aa43ad:0x283bcdc92ba47bbb!8m2!3d25.2402753!4d86.9612399!16s%2Fg%2F11sjdr415y!19sChIJrUOqsXtL8DkRu3ukK8nNOyg?authuser=0&hl=en&rclk=1,"25.2402753,86.9612399"
Kabirpur masjid,Mosque,"6WRW+3CC Kabirpur masjid, Kabirpur, Bishunpur Jichho, Bhagalpur, Bihar 812002",Kabirpur,6WRW+3CC,"Bishunpur Jichho, Bhagalpur",812002,Bihar,IN,https://www.google.com/maps/place/Kabirpur+masjid/data=!4m7!3m6!1s0x39f04bf9d669487d:0xdea90f01533e1754!8m2!3d25.2392982!4d86.9460777!16s%2Fg%2F11l36dr450!19sChIJfUhp1vlL8DkRVBc-UwEPqd4?authuser=0&hl=en&rclk=1,"25.2392982,86.94607769999999"
Akbari Mosque Chhoti Masjid,Mosque,"6XQ9+898 Akbari Mosque Chhoti Masjid, Maulana Chak, Bhagalpur, Bihar 812002",Maulana Chak,6XQ9+898,Bhagalpur,812002,Bihar,IN,https://www.google.com/maps/place/Akbari+Mosque+Chhoti+Masjid/data=!4m7!3m6!1s0x39f04b12f00480ed:0xc9d92b6e836c011b!8m2!3d25.2383216!4d86.9684559!16s%2Fg%2F11svz8zft1!19sChIJ7YAE8BJL8DkRGwFsg24r2ck?authuser=0&hl=en&rclk=1,"25.2383216,86.9684559"
Shia Masjid,Mosque,"Shia Masjid, Ashanandpur, Bhagalpur, Manikpur, Bihar 812002",Ashanandpur,Shia Masjid,"Bhagalpur, Manikpur",812002,Bihar,IN,https://www.google.com/maps/place/Shia+Masjid/data=!4m7!3m6!1s0x39f04998c903150b:0xa508accfec52b6e4!8m2!3d25.2177422!4d86.9924358!16s%2Fg%2F11kjg65thf!19sChIJCxUDyZhJ8DkR5LZS7M-sCKU?authuser=0&hl=en&rclk=1,"25.2177422,86.9924358"
Jama Masjid Hussainabad,Mosque,"Jama Masjid Hussainabad, Hosainabad, KATGHAR LANE, Tilkamanjhi, Kutubganj, Bhagalpur, Bihar 812005",Tilkamanjhi,"Hosainabad, KATGHAR LANE","Kutubganj, Bhagalpur",812005,Bihar,IN,https://www.google.com/maps/place/Jama+Masjid+Hussainabad/data=!4m7!3m6!1s0x39f04b2a80393e1b:0x4b350196d76f674!8m2!3d25.2277083!4d86.9731919!16s%2Fg%2F11ssd1k1dv!19sChIJGz45gCpL8DkRdPZ2bRlQswQ?authuser=0&hl=en&rclk=1,"25.2277083,86.97319189999999"
RAHMAT NAGAR NEAR Choti Masjid Bhikanpur,Housing society,"6XVR+WV8 RAHMAT NAGAR NEAR Choti Masjid Bhikanpur, Bhikhanpur, Bhagalpur, Bihar 812002",Bhikhanpur,6XVR+WV8,Bhagalpur,,Bihar,IN,https://www.google.com/maps/place/RAHMAT+NAGAR+NEAR+Choti+Masjid+Bhikanpur/data=!4m7!3m6!1s0x39f0493cc0fcd267:0xa8308dfc9bf3776a!8m2!3d25.244786!4d86.9921896!16s%2Fg%2F11srgzy86y!19sChIJZ9L8wDxJ8DkRanfzm_yNMKg?authuser=0&hl=en&rclk=1,"25.244785999999998,86.99218959999999"
Maszid,Mosque,"6XP4+3MP Maszid, Kabirpur, Bhagalpur, Bihar 812002",Kabirpur,6XP4+3MP,Bhagalpur,812002,Bihar,IN,https://www.google.com/maps/place/Maszid/data=!4m7!3m6!1s0x39f04b8766333cf5:0x8c3b3568aeb9e802!8m2!3d25.2352051!4d86.9566995!16s%2Fg%2F11swrt_w7h!19sChIJ9TwzZodL8DkRAui5rmg1O4w?authuser=0&hl=en&rclk=1,"25.235205099999998,86.9566995"
Bhagalpur,Place of worship,"6XXR+2G3 Bhagalpur, Bhikanpur Rd, Bhikhanpur, Bhagalpur, Bihar 812002",Bhikhanpur,"6XXR+2G3, Bhikanpur Rd",Bhagalpur,812002,Bihar,IN,https://www.google.com/maps/place/Bhagalpur/data=!4m7!3m6!1s0x39f049dd6db597fd:0x472925b589d67981!8m2!3d25.2476418!4d86.9910465!16s%2Fg%2F11tx6pd4rc!19sChIJ_Ze1bd1J8DkRgXnWibUlKUc?authuser=0&hl=en&rclk=1,"25.2476418,86.9910465"
