name,main_category,address,address_ward,address_street,address_city,address_postal_code,address_state,address_country_code,link,coordinates
Allama Iqbal Hall Masjid Aligarh Muslim University msjd,Mosque,"W37J+JRR Allama Iqbal Hall Masjid Aligarh Muslim University msjd, AMU Campus, Aligarh, Uttar Pradesh 202001",AMU Campus,W37J+JRR,Aligarh,202001,Uttar Pradesh,IN,https://www.google.com/maps/place/Allama+Iqbal+Hall+Masjid+Aligarh+Muslim+University+%D9%85%D8%B3%D8%AC%D8%AF%E2%80%AD/data=!4m7!3m6!1s0x3974a4e400a8a1a5:0xaabc3804e9bd1e4f!8m2!3d27.9141207!4d78.0820116!16s%2Fg%2F11ckvlkjgk!19sChIJpaGoAOSkdDkRTx696QQ4vKo?authuser=0&hl=en&rclk=1,"27.914120699999998,78.0820116"
Masjid Musharraf Jahan,Mosque,"W37G+RG8 Masjid Musharraf Jahan, AMU Campus, Aligarh, Uttar Pradesh 202001",AMU Campus,W37G+RG8,Aligarh,202001,Uttar Pradesh,IN,https://www.google.com/maps/place/Masjid+Musharraf+Jahan/data=!4m7!3m6!1s0x3974a4fcb23076fb:0x18c09845e3ca5154!8m2!3d27.9145298!4d78.0763304!16s%2Fg%2F11b7fgb7zj!19sChIJ-3YwsvykdDkRVFHK40WYwBg?authuser=0&hl=en&rclk=1,"27.9145298,78.0763304"
Nadeem Tarin Masjid msjd ndym tryn,Mosque,"W37Q+6FC Nadeem Tarin Masjid msjd ndym tryn, S.S Nagar, Aligarh, Uttar Pradesh 202001",S.S Nagar,W37Q+6FC,Aligarh,202001,Uttar Pradesh,IN,https://www.google.com/maps/place/Nadeem+Tarin+Masjid+%D9%85%D8%B3%D8%AC%D8%AF+%D9%86%D8%AF%DB%8C%D9%85+%D8%AA%D8%B1%DB%8C%D9%86%E2%80%AD/data=!4m7!3m6!1s0x3974a4dd8d957e19:0xc05d1415b81563c!8m2!3d27.913061!4d78.0886456!16s%2Fg%2F11h0mpb4w!19sChIJGX6Vjd2kdDkRPFaBW0HRBQw?authuser=0&hl=en&rclk=1,"27.913061,78.08864559999999"
S.Z. Hall Masjid,Mosque,"S.Z. Hall Masjid, Aligarh Muslim University, S.Z. Hall, Minto Circle Road, Campus, Aligarh, Uttar Pradesh 202002",Shiv Puri,"Aligarh Muslim University, S.Z. Hall, Minto Circle Road, Campus",Aligarh,202002,Uttar Pradesh,IN,https://www.google.com/maps/place/S.Z.+Hall+Masjid/data=!4m7!3m6!1s0x3974a4fd151f361d:0xab730104f2f02e14!8m2!3d27.9177858!4d78.0749597!16s%2Fg%2F11bwyqghr3!19sChIJHTYfFf2kdDkRFC7w8gQBc6s?authuser=0&hl=en&rclk=1,"27.917785799999997,78.0749597"
Noor Masjid - msjdi nwr,Mosque,"W36G+523 Noor Masjid - msjdi nwr, AMU Campus, Aligarh, Uttar Pradesh 202002",AMU Campus,W36G+523,Aligarh,202002,Uttar Pradesh,IN,https://www.google.com/maps/place/Noor+Masjid+-+%D9%85%D8%B3%D8%AC%D8%AF%D9%90+%D9%86%D9%88%D8%B1%E2%80%AD/data=!4m7!3m6!1s0x3974a4fae0c46499:0xb340412149ce2931!8m2!3d27.9103954!4d78.0750563!16s%2Fg%2F11cky6wqkq!19sChIJmWTE4PqkdDkRMSnOSSFBQLM?authuser=0&hl=en&rclk=1,"27.9103954,78.0750563"
Union Masjid,Mosque,"W34F+HXH Union Masjid, AMU Campus, Aligarh, Uttar Pradesh 202002",AMU Campus,W34F+HXH,Aligarh,202002,Uttar Pradesh,IN,https://www.google.com/maps/place/Union+Masjid/data=!4m7!3m6!1s0x3974a4f06a60485d:0xb5fcd689802a3c6!8m2!3d27.9064391!4d78.0749929!16s%2Fg%2F11c46hfc9q!19sChIJXUhgavCkdDkRxqMCmGjNXws?authuser=0&hl=en&rclk=1,"27.9064391,78.0749929"
Jama Masjid,Mosque,"Jama Masjid, Jama Masjid Rd, Upper Fort, Upperkot, City, Aligarh, Uttar Pradesh 202001","Upper Fort, Upperkot, City",Jama Masjid Rd,Aligarh,202001,Uttar Pradesh,IN,https://www.google.com/maps/place/Jama+Masjid/data=!4m7!3m6!1s0x3974a4874057002b:0xdcdd8bf9ce8d1630!8m2!3d27.8794487!4d78.0665611!16s%2Fg%2F1wcxbhc7!19sChIJKwBXQIekdDkRMBaNzvmL3dw?authuser=0&hl=en&rclk=1,"27.879448699999998,78.0665611"
Jama Masjid,Mosque,"Jama Masjid, Aligarh, Uttar Pradesh 202001",,,Aligarh,,Uttar Pradesh,IN,https://www.google.com/maps/place/Jama+Masjid/data=!4m7!3m6!1s0x3974a4f0a07f8653:0x2ae398dc2b3d433f!8m2!3d27.9074375!4d78.0721875!16s%2Fg%2F11cm48l39d!19sChIJU4Z_oPCkdDkRP0M9K9yY4yo?authuser=0&hl=en&rclk=1,"27.9074375,78.0721875"
Badi Masjid,Mosque,"W36P+JQ5 Badi Masjid, S.S Nagar, Aligarh, Uttar Pradesh 202001",S.S Nagar,W36P+JQ5,Aligarh,202001,Uttar Pradesh,IN,https://www.google.com/maps/place/Badi+Masjid/data=!4m7!3m6!1s0x3974a4e79d06b3d1:0x943cf64b0c0d63c2!8m2!3d27.911508!4d78.0869879!16s%2Fg%2F1th59_4m!19sChIJ0bMGneekdDkRwmMNDEv2PJQ?authuser=0&hl=en&rclk=1,"27.911507999999998,78.0869879"
Eidgah Jamalpur,Mosque,"W3GG+8HQ Eidgah Jamalpur, Kabir Colony, Jamalpur, Aligarh, Uttar Pradesh 202001","Kabir Colony, Jamalpur",W3GG+8HQ,Aligarh,202001,Uttar Pradesh,IN,https://www.google.com/maps/place/Eidgah+Jamalpur/data=!4m7!3m6!1s0x3974a504ad6f1ff7:0x3be8b39078c5a24d!8m2!3d27.9258428!4d78.0764772!16s%2Fg%2F119vlw1_x!19sChIJ9x9vrQSldDkRTaLFeJCz6Ds?authuser=0&hl=en&rclk=1,"27.925842799999998,78.0764772"
"MM Hall Mosque, Aligarh Muslim University msjd",Mosque,"W37J+3JX MM Hall Mosque, Aligarh Muslim University msjd, AMU Campus, Aligarh, Uttar Pradesh 202002",AMU Campus,W37J+3JX,Aligarh,202002,Uttar Pradesh,IN,"https://www.google.com/maps/place/MM+Hall+Mosque,+Aligarh+Muslim+University+%D9%85%D8%B3%D8%AC%D8%AF%E2%80%AD/data=!4m7!3m6!1s0x3974a4e41805aaf5:0xe7ee3c5f85b6d2d6!8m2!3d27.9127285!4d78.0816136!16s%2Fg%2F11cm0fp61z!19sChIJ9aoFGOSkdDkR1tK2hV887uc?authuser=0&hl=en&rclk=1","27.9127285,78.0816136"
Masjid Numaish Ground,Mosque,"Masjid Numaish Ground, Numaish Ground, Industrial Estate, Aligarh, Uttar Pradesh 202001",Industrial Estate,Numaish Ground,Aligarh,,Uttar Pradesh,IN,https://www.google.com/maps/place/Masjid+Numaish+Ground/data=!4m7!3m6!1s0x3974a45e93281f13:0xa289d3e6c040a549!8m2!3d27.8989525!4d78.0609156!16s%2Fg%2F11c1tl40qf!19sChIJEx8ok16kdDkRSaVAwObTiaI?authuser=0&hl=en&rclk=1,"27.8989525,78.0609156"
Ek Minar Masjid Ahle-Hadees,Mosque,"W369+WGF Ek Minar Masjid Ahle-Hadees, Badar Bagh, Aligarh, Uttar Pradesh 202001",Badar Bagh,W369+WGF,Aligarh,202001,Uttar Pradesh,IN,https://www.google.com/maps/place/Ek+Minar+Masjid+Ahle-Hadees/data=!4m7!3m6!1s0x3974a4f9257c94e1:0x2aec9e434306e4a6!8m2!3d27.912301!4d78.0687994!16s%2Fg%2F1pyqq3dcm!19sChIJ4ZR8JfmkdDkRpuQGQ0Oe7Co?authuser=0&hl=en&rclk=1,"27.912301,78.0687994"
Masjid Ibraheem,Mosque,"Masjid Ibraheem, Wadi E Ismail, Aligarh Bypass Rd, Dhorra, Aligarh, Uttar Pradesh 202001","Dhorra, Iqra Colony","Wadi E Ismail, Aligarh Bypass Rd",Aligarh,202001,Uttar Pradesh,IN,https://www.google.com/maps/place/Masjid+Ibraheem/data=!4m7!3m6!1s0x3974a520a977e231:0xf9debf19a8d95953!8m2!3d27.9212602!4d78.0931954!16s%2Fg%2F1tg66hll!19sChIJMeJ3qSCldDkRU1nZqBm_3vk?authuser=0&hl=en&rclk=1,"27.9212602,78.0931954"
Hadi Hasan Hall Masjid,Mosque,"W3CP+MF4 Hadi Hasan Hall Masjid, Medical Colony, Aligarh, Uttar Pradesh 202001",Medical Colony,W3CP+MF4,Aligarh,202001,Uttar Pradesh,IN,https://www.google.com/maps/place/Hadi+Hasan+Hall+Masjid/data=!4m7!3m6!1s0x3974a51fc774fcff:0xa140d80c3142e7f9!8m2!3d27.9216367!4d78.0862106!16s%2Fg%2F1pyqq4h_t!19sChIJ__x0xx-ldDkR-edCMQzYQKE?authuser=0&hl=en&rclk=1,"27.921636699999997,78.0862106"
Umar Masjid,Mosque,"W3GJ+FHH Umar Masjid, Dhorra Jamalpur Rd, Jamalpur, Aligarh, Uttar Pradesh 202001",Jamalpur,"W3GJ+FHH, Dhorra Jamalpur Rd",Aligarh,202001,Uttar Pradesh,IN,https://www.google.com/maps/place/Umar+Masjid/data=!4m7!3m6!1s0x3974a51bf0f37dad:0xf53b7e161ba3085a!8m2!3d27.9261991!4d78.081497!16s%2Fg%2F1hm4p356k!19sChIJrX3z8BuldDkRWgijGxZ-O_U?authuser=0&hl=en&rclk=1,"27.926199099999998,78.081497"
Masjid Syedna Bilal (R.A.),Mosque,"W3CH+PV5 Masjid Syedna Bilal (R.A.), TUTI BOUNDARY ZIABAD, Jamalpur, Aligarh, Uttar Pradesh 202002",Jamalpur,"W3CH+PV5, TUTI BOUNDARY ZIABAD",Aligarh,202002,Uttar Pradesh,IN,https://www.google.com/maps/place/Masjid+Syedna+Bilal+%28R.A.%29/data=!4m7!3m6!1s0x3974a51da6706651:0x26a34221fd25acbc!8m2!3d27.9217589!4d78.079734!16s%2Fg%2F1pyqt69hn!19sChIJUWZwph2ldDkRvKwl_SFCoyY?authuser=0&hl=en&rclk=1,"27.9217589,78.079734"
Kirmani Masjid,Mosque,"B, Kirmani Masjid, near kirmani masjid, Hamdard Nagar, Jamalpur, Aligarh, Uttar Pradesh 202001","Hamdard Nagar, Jamalpur","B, near kirmani masjid",Aligarh,202001,Uttar Pradesh,IN,https://www.google.com/maps/place/Kirmani+Masjid/data=!4m7!3m6!1s0x3974a51a16b412fb:0x30096fde018c3665!8m2!3d27.9305857!4d78.0813799!16s%2Fg%2F1pyqmkbxd!19sChIJ-xK0FhqldDkRZTaMAd5vCTA?authuser=0&hl=en&rclk=1,"27.930585699999998,78.0813799"
Faiz-e-aam Masjid,Mosque,"W3FJ+954 Faiz-e-aam Masjid, Jamalpur, Aligarh, Uttar Pradesh 202002",Jamalpur,W3FJ+954,Aligarh,202002,Uttar Pradesh,IN,https://www.google.com/maps/place/Faiz-e-aam+Masjid/data=!4m7!3m6!1s0x3974a51c4f6acc35:0xf299432c99e26df3!8m2!3d27.923389!4d78.0804683!16s%2Fg%2F1pyqs_pp0!19sChIJNcxqTxyldDkR823imSxDmfI?authuser=0&hl=en&rclk=1,"27.923389,78.08046829999999"
Hafsa Masjid,Mosque,"W3GP+HXV Hafsa Masjid, near Sunny PCO, Dhorra, Dhourra Mafi, Aligarh, Uttar Pradesh 202002","Dhorra, Dhourra Mafi","W3GP+HXV, near Sunny PCO",Aligarh,202002,Uttar Pradesh,IN,https://www.google.com/maps/place/Hafsa+Masjid/data=!4m7!3m6!1s0x3974a518b40b7ee5:0x2969131b7db4d1ba!8m2!3d27.9264992!4d78.0874099!16s%2Fg%2F1pyqldc17!19sChIJ5X4LtBildDkRutG0fRsTaSk?authuser=0&hl=en&rclk=1,"27.9264992,78.0874099"
Medical College Masjid msjd,Mosque,"W38Q+XGP Medical College Masjid msjd, opposite medical college post office, medical college AMU Campus, Uttar Pradesh 202002",,"W38Q+XGP, opposite medical college post office, medical college AMU Campus","Aligarh, Dhaurra Mafi",202002,Uttar Pradesh,IN,https://www.google.com/maps/place/Medical+College+Masjid+%D9%85%D8%B3%D8%AC%D8%AF%E2%80%AD/data=!4m7!3m6!1s0x3974a4e0a2cfa2ad:0xca3ae98aab40172d!8m2!3d27.917467!4d78.0888328!16s%2Fg%2F1262nx3pm!19sChIJraLPouCkdDkRLRdAq4rpOso?authuser=0&hl=en&rclk=1,"27.917467,78.08883279999999"
Ekta Nagar Masjid msjd,Mosque,"W33V+QVX Ekta Nagar Masjid msjd, Civil Lines, Aligarh, Uttar Pradesh 202001",Civil Lines,W33V+QVX,Aligarh,202001,Uttar Pradesh,IN,https://www.google.com/maps/place/Ekta+Nagar+Masjid+%D9%85%D8%B3%D8%AC%D8%AF%E2%80%AD/data=!4m7!3m6!1s0x3974a4c41a006e21:0xc04bd6e3d18d3ae5!8m2!3d27.9044968!4d78.0947427!16s%2Fg%2F12hr4f1bh!19sChIJIW4AGsSkdDkR5TqN0ePWS8A?authuser=0&hl=en&rclk=1,"27.9044968,78.0947427"
Faizan-e-Mustafa Jama Masjid,Mosque,"W35R+28W Faizan-e-Mustafa Jama Masjid, New, Ahmad Nagar, Zohra Bagh, Aligarh, Uttar Pradesh 202001","Ahmad Nagar, Zohra Bagh","W35R+28W, New",Aligarh,202001,Uttar Pradesh,IN,https://www.google.com/maps/place/Faizan-e-Mustafa+Jama+Masjid/data=!4m7!3m6!1s0x3974a4c2e067c06d:0x942d8ac172fb9847!8m2!3d27.907621!4d78.090828!16s%2Fg%2F1pyqshj9c!19sChIJbcBn4MKkdDkRR5j7csGKLZQ?authuser=0&hl=en&rclk=1,"27.907621,78.090828"
Moti Masjid Ahle Hadees mwty msjd,Mosque,"V3J9+CPC Moti Masjid Ahle Hadees mwty msjd, phool chowk, Aligarh, Uttar Pradesh 202001","Upper Fort, Baniisrailan, Usmanpura","V3J9+CPC, phool chowk",Aligarh,202001,Uttar Pradesh,IN,https://www.google.com/maps/place/Moti+Masjid+Ahle+Hadees+%D9%85%D9%88%D8%AA%DB%8C%E2%80%8C+%D9%85%D8%B3%D8%AC%D8%AF%E2%80%AD/data=!4m7!3m6!1s0x3974a486f360850f:0x5db0ad75c9d94b9d!8m2!3d27.8810648!4d78.0692803!16s%2Fg%2F11ddykkl_j!19sChIJD4Vg84akdDkRnUvZyXWtsF0?authuser=0&hl=en&rclk=1,"27.881064799999997,78.0692803"
Aisha Masjid Dhorra,Mosque,"Aisha Masjid Dhorra, B, Dilshad Colony Rd, Dhorra, Jamalpur Ka Nagla, Dhourra Mafi, Aligarh, Uttar Pradesh 202002","Dhorra, Jamalpur Ka Nagla, Dhourra Mafi","B, Dilshad Colony Rd",Aligarh,202002,Uttar Pradesh,IN,https://www.google.com/maps/place/Aisha+Masjid+Dhorra/data=!4m7!3m6!1s0x3974a5189fe5f2d9:0x30434c7ff7f1c7c1!8m2!3d27.9277342!4d78.0879315!16s%2Fg%2F1tf8rhqq!19sChIJ2fLlnxildDkRwcfx939MQzA?authuser=0&hl=en&rclk=1,"27.9277342,78.0879315"
Bhamola Badi Masjid,Mosque,"W368+P5W Bhamola Badi Masjid, Bhamola Alam Bagh, Aligarh, Uttar Pradesh 202001",Bhamola Alam Bagh,W368+P5W,Aligarh,202001,Uttar Pradesh,IN,https://www.google.com/maps/place/Bhamola+Badi+Masjid/data=!4m7!3m6!1s0x3974a4f8a7fe20c5:0x75ae938b1f46af5!8m2!3d27.9118574!4d78.0654382!16s%2Fg%2F1tcx5dy1!19sChIJxSD-p_ikdDkR9Wr0sTjpWgc?authuser=0&hl=en&rclk=1,"27.9118574,78.0654382"
Tameer-e-Millat (Bibi Building) Masjid,Mosque,"W34P+49C Tameer-e-Millat (Bibi Building) Masjid, Gosht Waali Gali, Dodhpur, Aligarh, Uttar Pradesh 202001",Dodhpur,"W34P+49C, Gosht Waali Gali",Aligarh,202001,Uttar Pradesh,IN,https://www.google.com/maps/place/Tameer-e-Millat+%28Bibi+Building%29+Masjid/data=!4m7!3m6!1s0x3974a4e9b669772f:0xa1bbb50fd0c5965!8m2!3d27.9053014!4d78.0858928!16s%2Fg%2F11hd06tqzm!19sChIJL3dptumkdDkRZVkM_VC7Gwo?authuser=0&hl=en&rclk=1,"27.9053014,78.0858928"
Ahmad Nagar Masjid,Mosque,"W34R+F39 Ahmad Nagar Masjid, 3/4, Ramghat Rd, Ahmad Nagar, Dodhpur, Aligarh, Uttar Pradesh 202001","Ahmad Nagar, Dodhpur","W34R+F39, 3/4, Ramghat Rd",Aligarh,202001,Uttar Pradesh,IN,https://www.google.com/maps/place/Ahmad+Nagar+Masjid/data=!4m7!3m6!1s0x3974a4c288d2cc65:0x1adfacdea4604ca2!8m2!3d27.9064966!4d78.0889558!16s%2Fg%2F1hjgyy2xk!19sChIJZczSiMKkdDkRokxgpN6s3xo?authuser=0&hl=en&rclk=1,"27.906496599999997,78.0889558"
Masjid Firdaus Complex,Mosque,"W3JH+2WW Masjid Firdaus Complex, Hamdard Nagar, Aligarh, Uttar Pradesh 202001",Hamdard Nagar,W3JH+2WW,Aligarh,202001,Uttar Pradesh,IN,https://www.google.com/maps/place/Masjid+Firdaus+Complex/data=!4m7!3m6!1s0x3974a51a66cc6b43:0xbd8f6b8d42e112fa!8m2!3d27.930107!4d78.079829!16s%2Fg%2F1pyqncml7!19sChIJQ2vMZhqldDkR-hLhQo1rj70?authuser=0&hl=en&rclk=1,"27.930107,78.07982899999999"
"Masjid E Bilali, Dhorra",Mosque,"W3GM+PJQ Masjid E Bilali, Dhorra, Dhorra, Badam Nagar, Aligarh, Uttar Pradesh 202001","Dhorra, Badam Nagar",W3GM+PJQ,Aligarh,202001,Uttar Pradesh,IN,"https://www.google.com/maps/place/Masjid+E+Bilali,+Dhorra/data=!4m7!3m6!1s0x3974a5193be680c5:0x3993373725c63468!8m2!3d27.9268416!4d78.0841218!16s%2Fg%2F1pp2vfhg_!19sChIJxYDmOxmldDkRaDTGJTc3kzk?authuser=0&hl=en&rclk=1","27.9268416,78.08412179999999"
Shibli Bagh Masjid,Mosque,"W3GM+7FJ Shibli Bagh Masjid, Badam Nagar, Aligarh, Uttar Pradesh 202001",Badam Nagar,W3GM+7FJ,Aligarh,202001,Uttar Pradesh,IN,https://www.google.com/maps/place/Shibli+Bagh+Masjid/data=!4m7!3m6!1s0x3974a51eb5119a03:0xcc3bbae674384f03!8m2!3d27.9257017!4d78.0836353!16s%2Fg%2F1hm3dc4p6!19sChIJA5oRtR6ldDkRA084dOa6O8w?authuser=0&hl=en&rclk=1,"27.925701699999998,78.0836353"
Majaz Masjid,Mosque,"W36M+37G Majaz Masjid, Masjid e Majaz Masood Hasan Road, S.S Nagar, Aligarh, Uttar Pradesh 202001",S.S Nagar,"W36M+37G, Masjid e Majaz Masood Hasan Road",Aligarh,202001,Uttar Pradesh,IN,https://www.google.com/maps/place/Majaz+Masjid/data=!4m7!3m6!1s0x3974a4e66da8be25:0xa37c8431321921ef!8m2!3d27.9101871!4d78.0832159!16s%2Fg%2F1tp_4t3p!19sChIJJb6obeakdDkR7yEZMjGEfKM?authuser=0&hl=en&rclk=1,"27.910187099999998,78.0832159"
Madina Masjid,Mosque,"W3JM+W76 Madina Masjid, Hamdard Nagar 'D', Jamalpur, Aligarh, Uttar Pradesh",Hamdard Nagar,"W3JM+W76, Hamdard Nagar 'D', Jamalpur",Aligarh,,Uttar Pradesh,IN,https://www.google.com/maps/place/Madina+Masjid/data=!4m7!3m6!1s0x3974a5175acf9be9:0xc920de25f4a6dd20!8m2!3d27.9322761!4d78.0831458!16s%2Fg%2F11c1q8t_y4!19sChIJ6ZvPWheldDkRIN2m9CXeIMk?authuser=0&hl=en&rclk=1,"27.9322761,78.0831458"
Kala Mahal Mosque,Mosque,"Kala Mahal Mosque, to, Jaiganj Rd, Upper Fort, Baniisrailan, Usmanpura, Aligarh, Uttar Pradesh 202001","Upper Fort, Baniisrailan, Usmanpura","to, Jaiganj Rd",Aligarh,202001,Uttar Pradesh,IN,https://www.google.com/maps/place/Kala+Mahal+Mosque/data=!4m7!3m6!1s0x3974a5c3256ab8cd:0x17d11e1a97cbc4a7!8m2!3d27.8767281!4d78.0672408!16s%2Fg%2F11ghl6jymf!19sChIJzbhqJcOldDkRp8TLlxoe0Rc?authuser=0&hl=en&rclk=1,"27.876728099999998,78.0672408"
Makki Masjid,Mosque,"Makki Masjid, 03, Rd No. 2, Bhamola Alam Bagh, Aligarh, Uttar Pradesh 202001",Bhamola Alam Bagh,"03, Rd No. 2",Aligarh,202001,Uttar Pradesh,IN,https://www.google.com/maps/place/Makki+Masjid/data=!4m7!3m6!1s0x3974a456fd355bef:0x6d16e18beee9b2f0!8m2!3d27.90961!4d78.061631!16s%2Fg%2F1pyqsf41z!19sChIJ71s1_VakdDkR8LLp7ovhFm0?authuser=0&hl=en&rclk=1,"27.909609999999997,78.06163099999999"
Jama Masjid - jm` msjd,Mosque,"W3H8+VRF Jama Masjid - jm` msjd, Fort Enclave, Firdaus Nagar, Aligarh, Uttar Pradesh 202001","Fort Enclave, Firdaus Nagar",W3H8+VRF,Aligarh,202001,Uttar Pradesh,IN,https://www.google.com/maps/place/Jama+Masjid+-+%D8%AC%D8%A7%D9%85%D8%B9+%D9%85%D8%B3%D8%AC%D8%AF%E2%80%AD/data=!4m7!3m6!1s0x3974a507db8b18eb:0xc2cf4b824d1e27e1!8m2!3d27.9296772!4d78.0670439!16s%2Fg%2F1pyqptlm2!19sChIJ6xiL2weldDkR4SceTYJLz8I?authuser=0&hl=en&rclk=1,"27.9296772,78.0670439"
Masjid Zakir Nagar msjd,Mosque,"W36W+PJ4 Masjid Zakir Nagar msjd, Iqra Colony Main Rd, Zakir Nagar, Aligarh, Uttar Pradesh 202001",Zakir Nagar,"W36W+PJ4, Iqra Colony Main Rd",Aligarh,202001,Uttar Pradesh,IN,https://www.google.com/maps/place/Masjid+Zakir+Nagar+%D9%85%D8%B3%D8%AC%D8%AF%E2%80%AD/data=!4m7!3m6!1s0x3974a4db1d61e80b:0xe23a94e9671c79db!8m2!3d27.9117712!4d78.0965882!16s%2Fg%2F11f4r5vlzl!19sChIJC-hhHdukdDkR23kcZ-mUOuI?authuser=0&hl=en&rclk=1,"27.9117712,78.0965882"
Noor Masjid,Mosque,"Noor Masjid, Jamalpur, Aligarh, Uttar Pradesh 202001",Jamalpur,,Aligarh,202001,Uttar Pradesh,IN,https://www.google.com/maps/place/Noor+Masjid/data=!4m7!3m6!1s0x3974a51c0b976039:0xdf8448baa3e423a6!8m2!3d27.9253731!4d78.0810801!16s%2Fg%2F1hm22d25x!19sChIJOWCXCxyldDkRpiPko7pIhN8?authuser=0&hl=en&rclk=1,"27.925373099999998,78.0810801"
Ayesha Masjid,Mosque,"W39W+26C Ayesha Masjid, Iqra Colony, S.S Nagar, Aligarh, Uttar Pradesh 202001","Iqra Colony, S.S Nagar",W39W+26C,Aligarh,202001,Uttar Pradesh,IN,https://www.google.com/maps/place/Ayesha+Masjid/data=!4m7!3m6!1s0x3974a4d91a1d8bad:0x5e39e093ebce6da8!8m2!3d27.9175739!4d78.0955015!16s%2Fg%2F11g7z07qxc!19sChIJrYsdGtmkdDkRqG3O65PgOV4?authuser=0&hl=en&rclk=1,"27.917573899999997,78.0955015"
Masjid Umar Farooq,Mosque,"W3MM+GF4 Masjid Umar Farooq, D, Aligarh Bypass Road, Hamdard Nagar, Uttar Pradesh 202001",Hamdard Nagar,"W3MM+GF4, D, Aligarh Bypass Road, Hamdard Nagar","Aligarh, Dhaurra Mafi",202001,Uttar Pradesh,IN,https://www.google.com/maps/place/Masjid+Umar+Farooq/data=!4m7!3m6!1s0x3974a5173d6741b5:0x4da5a198635c73a8!8m2!3d27.9337508!4d78.0837108!16s%2Fg%2F1jkysmm1y!19sChIJtUFnPReldDkRqHNcY5ihpU0?authuser=0&hl=en&rclk=1,"27.9337508,78.08371079999999"
Sarai Rehman Badi Masjid,Mosque,"V3R9+R4F Sarai Rehman Badi Masjid, Sarai Rehman, Nai Basti, City, Aligarh, Uttar Pradesh 202001","Sarai Rehman, Nai Basti, City",V3R9+R4F,Aligarh,202001,Uttar Pradesh,IN,https://www.google.com/maps/place/Sarai+Rehman+Badi+Masjid/data=!4m7!3m6!1s0x3974a48a5271ca31:0xda2cd665be0fe56b!8m2!3d27.8920635!4d78.0678106!16s%2Fg%2F11b8_vc2c5!19sChIJMcpxUoqkdDkRa-UPvmXWLNo?authuser=0&hl=en&rclk=1,"27.8920635,78.0678106"
Ghausia Masjid,Mosque,"W3HM+MF7 Ghausia Masjid, Badam Nagar, Aligarh, Uttar Pradesh 202001",Badam Nagar,W3HM+MF7,Aligarh,202001,Uttar Pradesh,IN,https://www.google.com/maps/place/Ghausia+Masjid/data=!4m7!3m6!1s0x3974a51998b0e415:0x668ad83c90780f1d!8m2!3d27.929153!4d78.083675!16s%2Fg%2F1pyqv0pl7!19sChIJFeSwmBmldDkRHQ94kDzYimY?authuser=0&hl=en&rclk=1,"27.929153,78.083675"
Masjid Kabir Colony Aligarh,Mosque,"W3GF+279 Masjid Kabir Colony Aligarh, Aligarh, Uttar Pradesh 202001",,W3GF+279,Aligarh,202001,Uttar Pradesh,IN,https://www.google.com/maps/place/Masjid+Kabir+Colony+Aligarh/data=!4m7!3m6!1s0x3974a504788dc8b3:0xb975b1470013f5df!8m2!3d27.9250414!4d78.0732394!16s%2Fg%2F11bcf3qqr9!19sChIJs8iNeASldDkR3_UTAEexdbk?authuser=0&hl=en&rclk=1,"27.925041399999998,78.07323939999999"
Rabiya Masjid,Mosque,"W3MG+5V4 Rabiya Masjid, Rabiya Masjid Rd, Radio Colony, Aligarh, Uttar Pradesh 202001",Radio Colony,"W3MG+5V4, Rabiya Masjid Rd",Aligarh,202001,Uttar Pradesh,IN,https://www.google.com/maps/place/Rabiya+Masjid/data=!4m7!3m6!1s0x3974a50fd736a2eb:0xe86073fe953f79d0!8m2!3d27.9328974!4d78.0772164!16s%2Fg%2F11c1vnyw93!19sChIJ66I21w-ldDkR0Hk_lf5zYOg?authuser=0&hl=en&rclk=1,"27.932897399999998,78.0772164"
Barola Masjid,Mosque,"W3C4+CFW Barola Masjid, Masud Nagar, Aligarh, Uttar Pradesh 202001",Masud Nagar,W3C4+CFW,Aligarh,202001,Uttar Pradesh,IN,https://www.google.com/maps/place/Barola+Masjid/data=!4m7!3m6!1s0x3974a5adae591ee3:0x6d75e514104b6744!8m2!3d27.9211165!4d78.0561923!16s%2Fg%2F1pyqvhc67!19sChIJ4x5Zrq2ldDkRRGdLEBTldW0?authuser=0&hl=en&rclk=1,"27.9211165,78.05619229999999"
Danyal Masjid,Mosque,"W32M+WMR Danyal Masjid, Amir Nishan, Aligarh, Uttar Pradesh 202001",Amir Nishan,W32M+WMR,Aligarh,202001,Uttar Pradesh,IN,https://www.google.com/maps/place/Danyal+Masjid/data=!4m7!3m6!1s0x3974a4ebdb92dee7:0xb2fd97842fbdfbf1!8m2!3d27.902373!4d78.084146!16s%2Fg%2F1pyqrwnv5!19sChIJ596S2-ukdDkR8fu9L4SX_bI?authuser=0&hl=en&rclk=1,"27.902372999999997,78.08414599999999"
Lal Masjid msjd ll,Mosque,"V3M3+GG5 Lal Masjid msjd ll, Kanwari Ganj Road (SH- 22A), Arya nagar, Hira Nagar, Jalalpur, Aligarh, Uttar Pradesh 202001","Arya nagar, Hira Nagar, Jalalpur","V3M3+GG5, Kanwari Ganj Road (SH- 22A)",Aligarh,202001,Uttar Pradesh,IN,https://www.google.com/maps/place/Lal+Masjid+%D9%85%D8%B3%D8%AC%D8%AF+%D9%84%D8%A7%D9%84%E2%80%AD/data=!4m7!3m6!1s0x3974a465585c9bb9:0x766fc326dfb8157a!8m2!3d27.8837731!4d78.0538561!16s%2Fg%2F1pyqhr0tk!19sChIJuZtcWGWkdDkRehW43ybDb3Y?authuser=0&hl=en&rclk=1,"27.8837731,78.05385609999999"
"Abdullah Masjid, Hadi Nagar",Mosque,"W3CQ+RF4 Abdullah Masjid, Hadi Nagar, Dhorra, Dhourra Mafi, Aligarh, Uttar Pradesh 202001","Dhorra, Dhourra Mafi",W3CQ+RF4,Aligarh,202001,Uttar Pradesh,IN,"https://www.google.com/maps/place/Abdullah+Masjid,+Hadi+Nagar/data=!4m7!3m6!1s0x3974a5201bb9adf9:0xe325f1fc589388e0!8m2!3d27.922005!4d78.0887037!16s%2Fg%2F1hjgwplgg!19sChIJ-a25GyCldDkR4IiTWPzxJeM?authuser=0&hl=en&rclk=1","27.922005,78.0887037"
Masjid-ul-Hasan,Mosque,"W37G+G92 Masjid-ul-Hasan, AMU Campus, Aligarh, Uttar Pradesh 202002",AMU Campus,W37G+G92,Aligarh,202002,Uttar Pradesh,IN,https://www.google.com/maps/place/Masjid-ul-Hasan/data=!4m7!3m6!1s0x3974a4fca98d5267:0x7e18abf01d505092!8m2!3d27.9137569!4d78.0758817!16s%2Fg%2F1ptxmy8c0!19sChIJZ1KNqfykdDkRklBQHfCrGH4?authuser=0&hl=en&rclk=1,"27.9137569,78.0758817"
Sir Syed House Mosque,Mosque,"W36J+299 Sir Syed House Mosque, AMU Campus, Aligarh, Uttar Pradesh 202002",AMU Campus,W36J+299,Aligarh,202002,Uttar Pradesh,IN,https://www.google.com/maps/place/Sir+Syed+House+Mosque/data=!4m7!3m6!1s0x3974a4e5c0eaaaab:0x33965bcf81f17c72!8m2!3d27.910036!4d78.0809714!16s%2Fg%2F11tgg7pmtj!19sChIJq6rqwOWkdDkRcnzxgc9bljM?authuser=0&hl=en&rclk=1,"27.910035999999998,78.0809714"
Imamia Hall & Masjid,Mosque,"Imamia Hall & Masjid, National Colony, Aligarh, Uttar Pradesh 202001",National Colony,,Aligarh,202001,Uttar Pradesh,IN,https://www.google.com/maps/place/Imamia+Hall+%26+Masjid/data=!4m7!3m6!1s0x3974a4ea2c1970ed:0xb51c1b10fcd21f2!8m2!3d27.9025138!4d78.0854857!16s%2Fg%2F11bzsq3r3m!19sChIJ7XAZLOqkdDkR8iHND7HBUQs?authuser=0&hl=en&rclk=1,"27.902513799999998,78.08548569999999"
Chand Masjid,Mosque,"Chand Masjid, 202001, Jamalpur Ka Nagla, Aligarh, Uttar Pradesh",Jamalpur Ka Nagla,202001,Aligarh,,Uttar Pradesh,IN,https://www.google.com/maps/place/Chand+Masjid/data=!4m7!3m6!1s0x3974a51850c4bf41:0x9a741171129277df!8m2!3d27.9293605!4d78.0857446!16s%2Fg%2F11dxdw49hb!19sChIJQb_EUBildDkR33eSEnERdJo?authuser=0&hl=en&rclk=1,"27.929360499999998,78.0857446"
Ek Tara Masjid,Mosque,"W36W+5X2 Ek Tara Masjid, Zakir Nagar, Aligarh, Uttar Pradesh 202001",Zakir Nagar,W36W+5X2,Aligarh,202001,Uttar Pradesh,IN,https://www.google.com/maps/place/Ek+Tara+Masjid/data=!4m7!3m6!1s0x3974a4dad017dbf1:0x59c25655017ce608!8m2!3d27.910375!4d78.0973788!16s%2Fg%2F11gdkqwxxx!19sChIJ8dsX0NqkdDkRCOZ8AVVWwlk?authuser=0&hl=en&rclk=1,"27.910375,78.0973788"
Masjid-e-Ammar,Mosque,"W37R+65P Masjid-e-Ammar, S.S Nagar, Aligarh, Uttar Pradesh 202001",S.S Nagar,W37R+65P,Aligarh,202001,Uttar Pradesh,IN,https://www.google.com/maps/place/Masjid-e-Ammar/data=!4m7!3m6!1s0x3974a4ddb6cf794b:0xac239651c9dedef7!8m2!3d27.9130928!4d78.0904648!16s%2Fg%2F1hdz3sbph!19sChIJS3nPtt2kdDkR997eyVGWI6w?authuser=0&hl=en&rclk=1,"27.913092799999998,78.09046479999999"
"Badi Masjid, Raza e mustafa Raza Nagar",Mosque,"W462+H5R Badi Masjid, Raza e mustafa Raza Nagar, Aligarh Bypass Rd, Raza Nagar, Gokuleshpuram Colony, Aligarh, Uttar Pradesh 202001","Raza Nagar, Gokuleshpuram Colony","W462+H5R, Aligarh Bypass Rd",Aligarh,202001,Uttar Pradesh,IN,"https://www.google.com/maps/place/Badi+Masjid,+Raza+e+mustafa+Raza+Nagar/data=!4m7!3m6!1s0x3974a4d00fe14bf1:0xd34e421de85ec76c!8m2!3d27.9114806!4d78.1003851!16s%2Fg%2F1pyqfxlyr!19sChIJ8UvhD9CkdDkRbMde6B1CTtM?authuser=0&hl=en&rclk=1","27.911480599999997,78.1003851"
Aamnaa Masjid,Mosque,"Aamnaa Masjid, 202001, Jamalpur Ka Nagla, Aligarh, Uttar Pradesh",Jamalpur Ka Nagla,202001,Aligarh,,Uttar Pradesh,IN,https://www.google.com/maps/place/Aamnaa+Masjid/data=!4m7!3m6!1s0x3974a518273e352f:0x2163b9569560051b!8m2!3d27.9317602!4d78.086146!16s%2Fg%2F11c7vz13k5!19sChIJLzU-JxildDkRGwVglVa5YyE?authuser=0&hl=en&rclk=1,"27.9317602,78.086146"
Masjid Hajrah,Mosque,"Masjid Hajrah, 8, Dilshad Colony Rd, Dhorra, Jamalpur Ka Nagla, Aligarh, Uttar Pradesh 202001","Dhorra, Jamalpur Ka Nagla","8, Dilshad Colony Rd",Aligarh,202001,Uttar Pradesh,IN,https://www.google.com/maps/place/Masjid+Hajrah/data=!4m7!3m6!1s0x3974a5187e210293:0x93f607bdb6db5dc0!8m2!3d27.9290347!4d78.0881418!16s%2Fg%2F1pyqsdpbw!19sChIJkwIhfhildDkRwF3btr0H9pM?authuser=0&hl=en&rclk=1,"27.9290347,78.0881418"
Masjid Friends Colony,Mosque,"W36R+GP7 Masjid Friends Colony, Friends Colony, S.S Nagar, Aligarh, Uttar Pradesh 202001","Friends Colony, S.S Nagar",W36R+GP7,Aligarh,202001,Uttar Pradesh,IN,https://www.google.com/maps/place/Masjid+Friends+Colony/data=!4m7!3m6!1s0x3974a5ac8be34c91:0x2e35ed73df22eb41!8m2!3d27.9112881!4d78.0918038!16s%2Fg%2F11gs839z_s!19sChIJkUzji6yldDkRQesi33PtNS4?authuser=0&hl=en&rclk=1,"27.9112881,78.0918038"
Madhupura Masjid,Mosque,"V3QG+5F6 Madhupura Masjid, Railway Station Road, Shyam Nagar, Aligarh, Uttar Pradesh 202001",Shyam Nagar,"V3QG+5F6, Railway Station Road",Aligarh,202001,Uttar Pradesh,IN,https://www.google.com/maps/place/Madhupura+Masjid/data=!4m7!3m6!1s0x3974a48fd1870adf:0xbaa9ac1be91b3562!8m2!3d27.8879166!4d78.076148!16s%2Fg%2F1pyqhvry_!19sChIJ3wqH0Y-kdDkRYjUb6Rusqbo?authuser=0&hl=en&rclk=1,"27.8879166,78.076148"
Madni Masjid,Mosque,"W38P+8WC Madni Masjid, New Sir Syed Nagar, S.S Nagar, Aligarh, Uttar Pradesh 202001","New Sir Syed Nagar, S.S Nagar",W38P+8WC,Aligarh,202001,Uttar Pradesh,IN,https://www.google.com/maps/place/Madni+Masjid/data=!4m7!3m6!1s0x3974a500b1ee326b:0x6799a78ad3f20ebd!8m2!3d27.9158162!4d78.0872513!16s%2Fg%2F11fd7l_vh8!19sChIJazLusQCldDkRvQ7y04qnmWc?authuser=0&hl=en&rclk=1,"27.9158162,78.08725129999999"
Masjid Noor Mahal,Mosque,"W32Q+QF7 Masjid Noor Mahal, Marris Rd, Civil Lines, Aligarh, Uttar Pradesh 202001",Civil Lines,"W32Q+QF7, Marris Rd",Aligarh,202001,Uttar Pradesh,IN,https://www.google.com/maps/place/Masjid+Noor+Mahal/data=!4m7!3m6!1s0x3974a4c1e7c7d343:0xeddd39b7edfc389e!8m2!3d27.901911!4d78.0886813!16s%2Fg%2F1hhxfcsml!19sChIJQ9PH58GkdDkRnjj87bc53e0?authuser=0&hl=en&rclk=1,"27.901911,78.08868129999999"
Bilal Masjid Ghareeb Manzil,Mosque,"W34M+35R Bilal Masjid Ghareeb Manzil, Ghareeb Manzil, Dodhpur, Aligarh, Uttar Pradesh 202001","Ghareeb Manzil, Dodhpur",W34M+35R,Aligarh,202001,Uttar Pradesh,IN,https://www.google.com/maps/place/Bilal+Masjid+Ghareeb+Manzil/data=!4m7!3m6!1s0x3974a4e928d2d869:0xe5940ad46172480d!8m2!3d27.905246!4d78.082877!16s%2Fg%2F11ggng69pb!19sChIJadjSKOmkdDkRDUhyYdQKlOU?authuser=0&hl=en&rclk=1,"27.905245999999998,78.082877"
Yasir Masjid,Mosque,"W3CH+X6J Yasir Masjid, Yasir Bagh, Jamalpur, Aligarh, Uttar Pradesh 202002","Yasir Bagh, Jamalpur",W3CH+X6J,Aligarh,202002,Uttar Pradesh,IN,https://www.google.com/maps/place/Yasir+Masjid/data=!4m7!3m6!1s0x3974a51d20031f75:0x768e512d64c5589d!8m2!3d27.922453!4d78.078018!16s%2Fg%2F1pyqqzqb6!19sChIJdR8DIB2ldDkRnVjFZC1RjnY?authuser=0&hl=en&rclk=1,"27.922452999999997,78.078018"
Masjid Anwar-Ul-Huda msjd nwr lhdy,Mosque,"W33H+9MC Masjid Anwar-Ul-Huda msjd nwr lhdy, Hasan Manzil Rd, Lal Diggi, Amir Nishan, Aligarh, Uttar Pradesh 202001","Lal Diggi, Amir Nishan","W33H+9MC, Hasan Manzil Rd",Aligarh,202001,Uttar Pradesh,IN,https://www.google.com/maps/place/Masjid+Anwar-Ul-Huda+%D9%85%D8%B3%D8%AC%D8%AF+%D8%A7%D9%86%D9%88%D8%A7%D8%B1+%D8%A7%D9%84%DB%81%D8%AF%DB%8C%E2%80%AD/data=!4m7!3m6!1s0x3974a4ee63fb06a7:0x9e90b7cbf45a6fff!8m2!3d27.903441!4d78.0791343!16s%2Fg%2F11dzsw7xg6!19sChIJpwb7Y-6kdDkR_29a9Mu3kJ4?authuser=0&hl=en&rclk=1,"27.903440999999997,78.07913429999999"
Masood Mahal Masjid msjd ms`wd mHl,Mosque,"Masood Mahal Masjid msjd ms`wd mHl, 3/104, Amir Nishan Rd, Lal Diggi, Amir Nishan, Aligarh, Uttar Pradesh 202001","Lal Diggi, Amir Nishan","3/104, Amir Nishan Rd",Aligarh,202001,Uttar Pradesh,IN,https://www.google.com/maps/place/Masood+Mahal+Masjid+%D9%85%D8%B3%D8%AC%D8%AF+%D9%85%D8%B3%D8%B9%D9%88%D8%AF+%D9%85%D8%AD%D9%84%E2%80%AD/data=!4m7!3m6!1s0x3974a4edd2e995d5:0x66df941eb882a39!8m2!3d27.901807!4d78.07936!16s%2Fg%2F1pyql7xq5!19sChIJ1ZXp0u2kdDkROSqI60H5bQY?authuser=0&hl=en&rclk=1,"27.901806999999998,78.07936"
Umar Masjid,Mosque,"V2FJ+WW7 Umar Masjid, Alahadadpur Nivry, Shah Jamal, Aligarh, Uttar Pradesh 202001","Alahadadpur Nivry, Shah Jamal",V2FJ+WW7,Aligarh,202001,Uttar Pradesh,IN,https://www.google.com/maps/place/Umar+Masjid/data=!4m7!3m6!1s0x3974a408b66b51a1:0x815ae5d130c5278d!8m2!3d27.874778!4d78.03229!16s%2Fg%2F1pyqq4kw9!19sChIJoVFrtgikdDkRjSfFMNHlWoE?authuser=0&hl=en&rclk=1,"27.874778,78.03229"
Abu Bakr Masjid,Mosque,"W3GH+QG2 Abu Bakr Masjid, Nagla Rd, Nagla, Ali Nagar Colony, Jamalpur, Aligarh, Uttar Pradesh 202001","Nagla, Ali Nagar Colony, Jamalpur","W3GH+QG2, Nagla Rd",Aligarh,202001,Uttar Pradesh,IN,https://www.google.com/maps/place/Abu+Bakr+Masjid/data=!4m7!3m6!1s0x3974a51b66aaaaab:0x3a80042b1d8f1a53!8m2!3d27.9268991!4d78.0787622!16s%2Fg%2F11c6mkz73y!19sChIJq6qqZhuldDkRUxqPHSsEgDo?authuser=0&hl=en&rclk=1,"27.9268991,78.0787622"
Azim Masjid,Mosque,"W37P+W9J Azim Masjid, New Sir Syed Nagar Main Rd, Zakaria Market, S.S Nagar, Aligarh, Uttar Pradesh 202001","Zakaria Market, S.S Nagar","W37P+W9J, New Sir Syed Nagar Main Rd",Aligarh,202001,Uttar Pradesh,IN,https://www.google.com/maps/place/Azim+Masjid/data=!4m7!3m6!1s0x3974a4e0d3d1f863:0x8fb48bab7d9692c0!8m2!3d27.9148258!4d78.0858871!16s%2Fg%2F1pyqg6q8r!19sChIJY_jR0-CkdDkRwJKWfauLtI8?authuser=0&hl=en&rclk=1,"27.9148258,78.0858871"
Madina Masjid,Mosque,"W3CC+P3J Madina Masjid, Firdaus Nagar B, Firdaus Nagar, Aligarh, Uttar Pradesh 202001","Firdaus Nagar B, Firdaus Nagar",W3CC+P3J,Aligarh,202001,Uttar Pradesh,IN,https://www.google.com/maps/place/Madina+Masjid/data=!4m7!3m6!1s0x3974a5bfdbb222f7:0x3e06747eb9c4957d!8m2!3d27.9218338!4d78.070151!16s%2Fg%2F11g0ts3qzd!19sChIJ9yKy27-ldDkRfZXEuX50Bj4?authuser=0&hl=en&rclk=1,"27.921833799999998,78.070151"
Achal Tal Masjid,Mosque,"V3HH+Q33 Achal Tal Masjid, G T Road (NH- 91), Gandhi Nagar, Aligarh, Uttar Pradesh 202001",Gandhi Nagar,"V3HH+Q33, G T Road (NH- 91)",Aligarh,202001,Uttar Pradesh,IN,https://www.google.com/maps/place/Achal+Tal+Masjid/data=!4m7!3m6!1s0x3974a49b5ed35ba5:0x12b4894d9d485f2c!8m2!3d27.879382!4d78.077677!16s%2Fg%2F1pyqv2_fk!19sChIJpVvTXpukdDkRLF9InU2JtBI?authuser=0&hl=en&rclk=1,"27.879382,78.077677"
"Masjid Owais Qarni, Dhourra, Aligarh msjd wys qrny",Mosque,"W3FR+VGP Masjid Owais Qarni, Dhourra, Aligarh msjd wys qrny, Dhorra, Ali Nagar Colony, Shibli Bagh, Dhourra Mafi, Aligarh, Uttar Pradesh 202001","Dhorra, Ali Nagar Colony, Shibli Bagh, Dhourra Mafi",W3FR+VGP,Aligarh,202001,Uttar Pradesh,IN,"https://www.google.com/maps/place/Masjid+Owais+Qarni,+Dhourra,+Aligarh+%D9%85%D8%B3%D8%AC%D8%AF+%D8%A7%D9%88%DB%8C%D8%B3+%D9%82%D8%B1%D9%86%DB%8C%E2%80%AD/data=!4m7!3m6!1s0x3974a5210e9c1abb:0x61849b33e8abfb8c!8m2!3d27.9247042!4d78.0913193!16s%2Fg%2F11gcqwzk37!19sChIJuxqcDiGldDkRjPur6DObhGE?authuser=0&hl=en&rclk=1","27.924704199999997,78.0913193"
"Hathi Dooba, Mosque",Mosque,"W32P+VQC Hathi Dooba, Mosque, Aligarh, Uttar Pradesh 202001",,W32P+VQC,Aligarh,,Uttar Pradesh,IN,"https://www.google.com/maps/place/Hathi+Dooba,+Mosque/data=!4m7!3m6!1s0x3974a4ea172896a1:0xdfa72e9a2cf54450!8m2!3d27.9021831!4d78.0869029!16s%2Fg%2F11f3s9tw_6!19sChIJoZYoF-qkdDkRUET1LJoup98?authuser=0&hl=en&rclk=1","27.9021831,78.0869029"
Masjid Arqam,Mosque,"W3GF+PGG Masjid Arqam, Patwari Ka Nagla, Aligarh, Uttar Pradesh 202001",Patwari Ka Nagla,W3GF+PGG,Aligarh,202001,Uttar Pradesh,IN,https://www.google.com/maps/place/Masjid+Arqam/data=!4m7!3m6!1s0x3974a504f60951f7:0x8202dc17b62b0a39!8m2!3d27.9268016!4d78.0738316!16s%2Fg%2F11f01pydqn!19sChIJ91EJ9gSldDkROQorthfcAoI?authuser=0&hl=en&rclk=1,"27.926801599999997,78.07383159999999"
Masjid Gali No.1,Mosque,"W34V+QXX Masjid Gali No.1, Jeevangarh, Zohra Bagh, Aligarh, Uttar Pradesh 202001","Jeevangarh, Zohra Bagh",W34V+QXX,Aligarh,202001,Uttar Pradesh,IN,https://www.google.com/maps/place/Masjid+Gali+No.1/data=!4m7!3m6!1s0x3974a5f9f99d0d11:0x5a7df7598acad0a2!8m2!3d27.9069911!4d78.0949986!16s%2Fg%2F11ghqbny4h!19sChIJEQ2d-fmldDkRotDKiln3fVo?authuser=0&hl=en&rclk=1,"27.9069911,78.0949986"
Ghosia Masjid,Mosque,"V373+M53 Ghosia Masjid, Mullapara, Aligarh, Uttar Pradesh 202001",Mullapara,V373+M53,Aligarh,202001,Uttar Pradesh,IN,https://www.google.com/maps/place/Ghosia+Masjid/data=!4m7!3m6!1s0x3974a38f42f30d67:0xf84255a5e7252892!8m2!3d27.864126!4d78.052918!16s%2Fg%2F1pyqm6f00!19sChIJZw3zQo-jdDkRkigl56VVQvg?authuser=0&hl=en&rclk=1,"27.864126,78.05291799999999"
"Masjid E Taar Bangla, AMU, Aligarh",Mosque,"W36H+C5X Masjid E Taar Bangla, AMU, Aligarh, Zainul Abidin Rd, AMU Campus, Aligarh, Uttar Pradesh 202001",AMU Campus,"W36H+C5X, Zainul Abidin Rd",Aligarh,202001,Uttar Pradesh,IN,"https://www.google.com/maps/place/Masjid+E+Taar+Bangla,+AMU,+Aligarh/data=!4m7!3m6!1s0x3974a53db85d2a41:0x36d69d0fbbc78d7b!8m2!3d27.911109!4d78.077988!16s%2Fg%2F11h6m87_hm!19sChIJQSpduD2ldDkRe43Huw-d1jY?authuser=0&hl=en&rclk=1","27.911109,78.07798799999999"
Ek Minar Masjid,Mosque,"V2JX+R9C Ek Minar Masjid, Hira Nagar, Jalalpur, Aligarh, Uttar Pradesh 202001","Hira Nagar, Jalalpur",V2JX+R9C,Aligarh,202001,Uttar Pradesh,IN,https://www.google.com/maps/place/Ek+Minar+Masjid/data=!4m7!3m6!1s0x3974a471feaff085:0x3fb52923d630dc2!8m2!3d27.8820699!4d78.0483986!16s%2Fg%2F1pyqp3mf_!19sChIJhfCv_nGkdDkRwg1jPZJS-wM?authuser=0&hl=en&rclk=1,"27.882069899999998,78.0483986"
Sheeshay wali Masjid,Mosque,"V3J9+G99 Sheeshay wali Masjid, Atish Baazan Street, Upper Fort, Atishbazan, Mahaveer Ganj, Aligarh, Uttar Pradesh 202001","Upper Fort, Atishbazan, Mahaveer Ganj","V3J9+G99, Atish Baazan Street",Aligarh,202001,Uttar Pradesh,IN,https://www.google.com/maps/place/Sheeshay+wali+Masjid/data=!4m7!3m6!1s0x3974a486f8b407ad:0xee7003b8e4fe338b!8m2!3d27.8812837!4d78.068486!16s%2Fg%2F11gbx9x4d5!19sChIJrQe0-IakdDkRizP-5LgDcO4?authuser=0&hl=en&rclk=1,"27.881283699999997,78.068486"
"Noori Masjid, Bhujpura, Aligarh",Mosque,"V386+W2F Noori Masjid, Bhujpura, Aligarh, Mulla Para, Bhuspura, Aligarh, Uttar Pradesh","Bhujpura, Turkman Gate","V386+W2F, Mulla Para, Bhuspura",Aligarh,,Uttar Pradesh,IN,"https://www.google.com/maps/place/Noori+Masjid,+Bhujpura,+Aligarh/data=!4m7!3m6!1s0x3974a38148521c23:0xaf8aa9838b1c21fa!8m2!3d27.8673098!4d78.0600358!16s%2Fg%2F11c1tyxpxg!19sChIJIxxSSIGjdDkR-iEci4Opiq8?authuser=0&hl=en&rclk=1","27.867309799999997,78.0600358"
Noori Masjid msjd nwry,Mosque,"V3XP+7CW Noori Masjid msjd nwry, Hamid Manzil, Marris Rd, Civil Lines, Aligarh, Uttar Pradesh 202001","Mabood Nagar, Civil Lines","V3XP+7CW, Hamid Manzil, Marris Rd",Aligarh,202001,Uttar Pradesh,IN,https://www.google.com/maps/place/Noori+Masjid+%D9%85%D8%B3%D8%AC%D8%AF+%D9%86%D9%88%D8%B1%DB%8C%E2%80%AD/data=!4m7!3m6!1s0x3974a4eac50c4af1:0x3cf61a097a3fd05f!8m2!3d27.8982477!4d78.0860826!16s%2Fg%2F1263gvtr6!19sChIJ8UoMxeqkdDkRX9A_egka9jw?authuser=0&hl=en&rclk=1,"27.8982477,78.0860826"
Gaddhe Wali Masjid,Mosque,"W34W+92H Gaddhe Wali Masjid, Jeevangarh, Zohra Bagh, Aligarh, Uttar Pradesh 202001","Jeevangarh, Zohra Bagh",W34W+92H,Aligarh,202001,Uttar Pradesh,IN,https://www.google.com/maps/place/Gaddhe+Wali+Masjid/data=!4m7!3m6!1s0x3974a4c4684bda17:0xcffd859a35bfd743!8m2!3d27.9059374!4d78.0951181!16s%2Fg%2F11ggbvzt0k!19sChIJF9pLaMSkdDkRQ9e_NZqF_c8?authuser=0&hl=en&rclk=1,"27.9059374,78.0951181"
Gareeb Nawaz Masjid msjd Gryb nwz,Mosque,"W37W+PW4 Gareeb Nawaz Masjid msjd Gryb nwz, Hamza Colony, Ali Nagar Colony, S.S Nagar, Aligarh, Uttar Pradesh 202001","Hamza Colony, Ali Nagar Colony, S.S Nagar",W37W+PW4,Aligarh,202001,Uttar Pradesh,IN,https://www.google.com/maps/place/Gareeb+Nawaz+Masjid+%D9%85%D8%B3%D8%AC%D8%AF+%D8%BA%D8%B1%DB%8C%D8%A8+%D9%86%D9%88%D8%A7%D8%B2%E2%80%AD/data=!4m7!3m6!1s0x3974a4da39cd4ff1:0x22974da9a3b6d215!8m2!3d27.9142614!4d78.0973297!16s%2Fg%2F11f2t3ywts!19sChIJ8U_NOdqkdDkRFdK2o6lNlyI?authuser=0&hl=en&rclk=1,"27.914261399999997,78.0973297"
Masjid R.M Hall,Mosque,"W37J+C98 Masjid R.M Hall, AMU Campus, Aligarh, Uttar Pradesh 202002",AMU Campus,W37J+C98,Aligarh,202002,Uttar Pradesh,IN,https://www.google.com/maps/place/Masjid+R.M+Hall/data=!4m7!3m6!1s0x3974a4e40d26aaab:0x9043145517cad23a!8m2!3d27.9135283!4d78.0809491!16s%2Fg%2F11txmz2g6l!19sChIJq6omDeSkdDkROtLKF1UUQ5A?authuser=0&hl=en&rclk=1,"27.9135283,78.0809491"
Masjid-e-Ayesha - msjdi `y'yshh,Mosque,"W3QH+PJC Masjid-e-Ayesha - msjdi `y'yshh, Radio Colony, Aligarh, Uttar Pradesh 202001",Radio Colony,W3QH+PJC,Aligarh,202001,Uttar Pradesh,IN,https://www.google.com/maps/place/Masjid-e-Ayesha+-+%D9%85%D8%B3%D8%AC%D8%AF%D9%90+%D8%B9%D8%A7%D8%A6%DB%8C%D8%B4%DB%81%E2%80%AD/data=!4m7!3m6!1s0x3974a51251a2dbfb:0xb0caad5624f1e944!8m2!3d27.9393073!4d78.0790008!16s%2Fg%2F11f29_nbb3!19sChIJ-9uiURKldDkRROnxJFatyrA?authuser=0&hl=en&rclk=1,"27.9393073,78.0790008"
Allah Wali Kothi Masjid,Mosque,"W33J+RR2 Allah Wali Kothi Masjid, Abdul Hameed Nagar, Abad Nagar, Aligarh, Uttar Pradesh 202001","Abdul Hameed Nagar, Abad Nagar",W33J+RR2,Aligarh,202001,Uttar Pradesh,IN,https://www.google.com/maps/place/Allah+Wali+Kothi+Masjid/data=!4m7!3m6!1s0x3974a4eecc173331:0x596ec47e8d1e0dbc!8m2!3d27.9045129!4d78.0820039!16s%2Fg%2F11gc4zhhzj!19sChIJMTMXzO6kdDkRvA0ejX7Eblk?authuser=0&hl=en&rclk=1,"27.9045129,78.08200389999999"
Al City Masjid msjd,Mosque,"W34J+G9P Al City Masjid msjd, Dudhpur Road, Muzammil Manzil, Dodhpur, Aligarh, Uttar Pradesh 202001","Muzammil Manzil, Dodhpur","W34J+G9P, Dudhpur Road",Aligarh,202001,Uttar Pradesh,IN,https://www.google.com/maps/place/Al+City+Masjid+%D9%85%D8%B3%D8%AC%D8%AF%E2%80%AD/data=!4m7!3m6!1s0x3974a4ef3d92246d:0xc7da45a5a9536f68!8m2!3d27.9063351!4d78.0809615!16s%2Fg%2F1pyqhl0jq!19sChIJbSSSPe-kdDkRaG9TqaVF2sc?authuser=0&hl=en&rclk=1,"27.9063351,78.0809615"
Aqsa Masjid Maulana Azad Nagar,Mosque,"W3MC+956 Aqsa Masjid Maulana Azad Nagar, Unnamed Road, Wahid Nagar, Radio Colony, Aligarh, Uttar Pradesh 202001","Wahid Nagar, Radio Colony","W3MC+956, Unnamed Road",Aligarh,202001,Uttar Pradesh,IN,https://www.google.com/maps/place/Aqsa+Masjid+Maulana+Azad+Nagar/data=!4m7!3m6!1s0x3974a5092a1f8663:0x7ec629283555e05f!8m2!3d27.9334064!4d78.0703924!16s%2Fg%2F11g68_hy_g!19sChIJY4YfKgmldDkRX-BVNSgpxn4?authuser=0&hl=en&rclk=1,"27.9334064,78.0703924"
Ali Masjid,Mosque,"W387+GVJ Ali Masjid, Firdaus Nagar A, Firdaus Nagar, Aligarh, Uttar Pradesh 202001","Firdaus Nagar A, Firdaus Nagar",W387+GVJ,Aligarh,202001,Uttar Pradesh,IN,https://www.google.com/maps/place/Ali+Masjid/data=!4m7!3m6!1s0x3974a45565246521:0xec190956a952e4b7!8m2!3d27.9163368!4d78.0646269!16s%2Fg%2F11ggs7csjt!19sChIJIWUkZVWkdDkRt-RSqVYJGew?authuser=0&hl=en&rclk=1,"27.9163368,78.0646269"
Masjid Nabi Karim,Mosque,"W3G6+3C2 Masjid Nabi Karim, Masud Nagar, Qila, Aligarh, Uttar Pradesh 202001","Masud Nagar, Qila",W3G6+3C2,Aligarh,202001,Uttar Pradesh,IN,https://www.google.com/maps/place/Masjid+Nabi+Karim/data=!4m7!3m6!1s0x3974a5a96bcc0195:0x29dceda4cea73d42!8m2!3d27.9251495!4d78.0610243!16s%2Fg%2F1pyqqqrxw!19sChIJlQHMa6mldDkRQj2nzqTt3Ck?authuser=0&hl=en&rclk=1,"27.9251495,78.0610243"
Masjid Hamza,Mosque,"V3QG+5F4 Masjid Hamza, Railway Station Road, Church Compound, Civil Lines, Aligarh, Uttar Pradesh 202001","Church Compound, Civil Lines","V3QG+5F4, Railway Station Road",Aligarh,202001,Uttar Pradesh,IN,https://www.google.com/maps/place/Masjid+Hamza/data=!4m7!3m6!1s0x3974a48e2c62eebd:0xae28965812ca30db!8m2!3d27.8878932!4d78.0761952!16s%2Fg%2F11gb40dhn7!19sChIJve5iLI6kdDkR2zDKEliWKK4?authuser=0&hl=en&rclk=1,"27.887893199999997,78.0761952"
Noor Masjid,Mosque,"W328+7H5 Noor Masjid, Johnson Compound, Avas Vikas Colony, Industrial Estate, Aligarh, Uttar Pradesh 202001","Johnson Compound, Avas Vikas Colony, Industrial Estate",W328+7H5,Aligarh,202001,Uttar Pradesh,IN,https://www.google.com/maps/place/Noor+Masjid/data=!4m7!3m6!1s0x3974a58a61ddb293:0x445808f6eb6ad52d!8m2!3d27.900632!4d78.0664786!16s%2Fg%2F11g0hznnth!19sChIJk7LdYYqldDkRLdVq6_YIWEQ?authuser=0&hl=en&rclk=1,"27.900631999999998,78.0664786"
Hamda Masjid,Mosque,"V3G4+H48 Hamda Masjid, Double Tanki Colony, Shah Jamal, Aligarh, Uttar Pradesh 202001","Double Tanki Colony, Shah Jamal",V3G4+H48,Aligarh,202001,Uttar Pradesh,IN,https://www.google.com/maps/place/Hamda+Masjid/data=!4m7!3m6!1s0x3974a4798c9790c7:0xa565768c56913f33!8m2!3d27.8764162!4d78.0553249!16s%2Fg%2F1pyqhzj3f!19sChIJx5CXjHmkdDkRMz-RVox2ZaU?authuser=0&hl=en&rclk=1,"27.876416199999998,78.0553249"
"Administrative Block Mosque, Aligarh Muslim University msjd",Mosque,"W34G+89C Administrative Block Mosque, Aligarh Muslim University msjd, Aligarh Muslim University Rd, AMU Campus, Aligarh, Uttar Pradesh 202002",AMU Campus,"W34G+89C, Aligarh Muslim University Rd",Aligarh,202002,Uttar Pradesh,IN,"https://www.google.com/maps/place/Administrative+Block+Mosque,+Aligarh+Muslim+University+%D9%85%D8%B3%D8%AC%D8%AF%E2%80%AD/data=!4m7!3m6!1s0x3974a4f0253700ff:0xf983f36be868f019!8m2!3d27.9058158!4d78.075896!16s%2Fg%2F11cn9xt0d8!19sChIJ_wA3JfCkdDkRGfBo6Gvzg_k?authuser=0&hl=en&rclk=1","27.9058158,78.075896"
HAMZA MASJID,Mosque,"HAMZA MASJID, Street Number 6, Maulana Azad Nagar, Radio Colony, Aligarh, Uttar Pradesh 202001","Maulana Azad Nagar, Radio Colony",Street Number 6,Aligarh,202001,Uttar Pradesh,IN,https://www.google.com/maps/place/HAMZA+MASJID/data=!4m7!3m6!1s0x3974a58c61e4fa01:0x6db443ad3be3a9bb!8m2!3d27.9314543!4d78.0763274!16s%2Fg%2F11f65b9b4m!19sChIJAfrkYYyldDkRu6njO61DtG0?authuser=0&hl=en&rclk=1,"27.9314543,78.0763274"
Badi Masjid,Mosque,"V3HF+37W Badi Masjid, Tamolipada, Aligarh, Uttar Pradesh 202001",Tamolipada,V3HF+37W,Aligarh,202001,Uttar Pradesh,IN,https://www.google.com/maps/place/Badi+Masjid/data=!4m7!3m6!1s0x3974a4839a2e63c3:0x22966a3769c879dc!8m2!3d27.877738!4d78.07319!16s%2Fg%2F1pyqnwnvh!19sChIJw2MumoOkdDkR3HnIaTdqliI?authuser=0&hl=en&rclk=1,"27.877737999999997,78.07319"
Masjid Al-Hamd,Mosque,"W399+873 Masjid Al-Hamd, Firdaus Nagar A, Firdaus Nagar, Aligarh, Uttar Pradesh 202001","Firdaus Nagar A, Firdaus Nagar",W399+873,Aligarh,202001,Uttar Pradesh,IN,https://www.google.com/maps/place/Masjid+Al-Hamd/data=!4m7!3m6!1s0x3974a5002fffffff:0xfbc5b52846ec991c!8m2!3d27.9182725!4d78.0681848!16s%2Fg%2F11fx9b39th!19sChIJ____LwCldDkRHJnsRii1xfs?authuser=0&hl=en&rclk=1,"27.9182725,78.0681848"
Masjid Qasim,Mosque,"W3FX+836 Masjid Qasim, Dhourra Mafi, Aligarh, Uttar Pradesh 202001",Dhourra Mafi,W3FX+836,Aligarh,202001,Uttar Pradesh,IN,https://www.google.com/maps/place/Masjid+Qasim/data=!4m7!3m6!1s0x3974a527b90a8733:0x72af14d43dfc3373!8m2!3d27.9232786!4d78.0976488!16s%2Fg%2F11cp5q3vpw!19sChIJM4cKuSeldDkRczP8PdQUr3I?authuser=0&hl=en&rclk=1,"27.9232786,78.0976488"
Hajira Masjid msjd,Mosque,"V3F6+JQC Hajira Masjid msjd, Super Colony, Turkman Gate, Aligarh, Uttar Pradesh 202001","Super Colony, Turkman Gate",V3F6+JQC,Aligarh,202001,Uttar Pradesh,IN,https://www.google.com/maps/place/Hajira+Masjid+%D9%85%D8%B3%D8%AC%D8%AF%E2%80%AD/data=!4m7!3m6!1s0x3974a47f0f654e53:0x3894c08b34d8006a!8m2!3d27.8740654!4d78.061906!16s%2Fg%2F1pyqjr1f5!19sChIJU05lD3-kdDkRagDYNIvAlDg?authuser=0&hl=en&rclk=1,"27.8740654,78.061906"
Bahar Wali Masjid,Mosque,"V3H5+5M7 Bahar Wali Masjid, Jungle Gadhi Road, Aligarh, Uttar Pradesh 202001","Sarai Main, Usmanpura","V3H5+5M7, Jungle Gadhi Road",Aligarh,202001,Uttar Pradesh,IN,https://www.google.com/maps/place/Bahar+Wali+Masjid/data=!4m7!3m6!1s0x3974a47bfeb2afcd:0x775cefd9794b59d4!8m2!3d27.8779218!4d78.059178!16s%2Fg%2F11c548fmsb!19sChIJza-y_nukdDkR1FlLednvXHc?authuser=0&hl=en&rclk=1,"27.8779218,78.059178"
Qadri Masjid,Mosque,"W3GG+P6C Qadri Masjid, Kabir Colony, Civil Lines, Aligarh, Uttar Pradesh 202002","Kabir Colony, Civil Lines",W3GG+P6C,Aligarh,202002,Uttar Pradesh,IN,https://www.google.com/maps/place/Qadri+Masjid/data=!4m7!3m6!1s0x3974a504c1295555:0x4777ccf3a2e631b5!8m2!3d27.9268039!4d78.0755116!16s%2Fg%2F11sscs40py!19sChIJVVUpwQSldDkRtTHmovPMd0c?authuser=0&hl=en&rclk=1,"27.9268039,78.0755116"
"Masjid Qamar, Muhammad Nagar, Aligarh",Mosque,"W37W+F2M Masjid Qamar, Muhammad Nagar, Aligarh, Mohammad Nagar Colony, Mallah Ka Nagla, Aligarh, Uttar Pradesh 202001","Mohammad Nagar Colony, Mallah Ka Nagla",W37W+F2M,Aligarh,202001,Uttar Pradesh,IN,"https://www.google.com/maps/place/Masjid+Qamar,+Muhammad+Nagar,+Aligarh/data=!4m7!3m6!1s0x3974a568c80268df:0x6a56460e91bb360d!8m2!3d27.9137219!4d78.095048!16s%2Fg%2F11gmstxflm!19sChIJ32gCyGildDkRDTa7kQ5GVmo?authuser=0&hl=en&rclk=1","27.9137219,78.09504799999999"
Masjid msjd,Mosque,"X32M+2M9 Masjid msjd, Naya Nagar, Anoopshaher Road, Cherat, Aligarh, Uttar Pradesh",Manjur Garhi,"X32M+2M9, Naya Nagar, Anoopshaher Road, Cherat",Aligarh,,Uttar Pradesh,IN,https://www.google.com/maps/place/Masjid+%D9%85%D8%B3%D8%AC%D8%AF%E2%80%AD/data=!4m7!3m6!1s0x3974a5696e91d5a1:0xf3fe72a5505def1c!8m2!3d27.9500255!4d78.0842244!16s%2Fg%2F11c58plmyz!19sChIJodWRbmmldDkRHO9dUKVy_vM?authuser=0&hl=en&rclk=1,"27.9500255,78.0842244"
Masjid Jamia Assagheer - msjd jm` lSGyr,Mosque,"W36M+QP3 Masjid Jamia Assagheer - msjd jm` lSGyr, Medical Rd, Jamia Urdu, S.S Nagar, Aligarh, Uttar Pradesh 202001","Jamia Urdu, S.S Nagar","W36M+QP3, Medical Rd",Aligarh,202001,Uttar Pradesh,IN,https://www.google.com/maps/place/Masjid+Jamia+Assagheer+-+%D9%85%D8%B3%D8%AC%D8%AF+%D8%AC%D8%A7%D9%85%D8%B9+%D8%A7%D9%84%D8%B5%D8%BA%DB%8C%D8%B1%E2%80%AD/data=!4m7!3m6!1s0x3974a4e6f0c2c311:0x1dc9c3801e02c8cd!8m2!3d27.9118976!4d78.0842914!16s%2Fg%2F1hc28cl6t!19sChIJEcPC8OakdDkRzcgCHoDDyR0?authuser=0&hl=en&rclk=1,"27.9118976,78.0842914"
"Masjid Peer Ataullah, Aligarh",Mosque,"V3H8+CRV Masjid Peer Ataullah, Aligarh, Unnamed Road, Upper Fort, Baniisrailan, Usmanpura, Aligarh, Uttar Pradesh 202001","Upper Fort, Baniisrailan, Usmanpura","V3H8+CRV, Unnamed Road",Aligarh,202001,Uttar Pradesh,IN,"https://www.google.com/maps/place/Masjid+Peer+Ataullah,+Aligarh/data=!4m7!3m6!1s0x3974a5d364d5399d:0x4d81392f9683ff89!8m2!3d27.8786162!4d78.0670429!16s%2Fg%2F11g0n05r9x!19sChIJnTnVZNOldDkRif-Dli85gU0?authuser=0&hl=en&rclk=1","27.8786162,78.06704289999999"
Masjid,Mosque,"V3XF+GP2 Masjid, near tibbya college hospital, Civil Lines, Aligarh, Uttar Pradesh 202001",Civil Lines,"V3XF+GP2, near tibbya college hospital",Aligarh,202001,Uttar Pradesh,IN,https://www.google.com/maps/place/Masjid/data=!4m7!3m6!1s0x3974a4f297ae8ef5:0x1f0fe568206d2360!8m2!3d27.898773!4d78.074259!16s%2Fg%2F1hhw8lp92!19sChIJ9Y6ul_KkdDkRYCNtIGjlDx8?authuser=0&hl=en&rclk=1,"27.898773,78.074259"
Masjid,Mosque,"Masjid, purana Bus Adda, GT Rd, Gandhi Park, Aligarh, Uttar Pradesh 202001",Gandhi Park,"purana Bus Adda, GT Rd",Aligarh,,Uttar Pradesh,IN,https://www.google.com/maps/place/Masjid/data=!4m7!3m6!1s0x3974a5cf0b22f5fd:0x266acbcec7930c9b!8m2!3d27.8872425!4d78.0739359!16s%2Fg%2F11q8v0y_72!19sChIJ_fUiC8-ldDkRmwyTx87LaiY?authuser=0&hl=en&rclk=1,"27.8872425,78.0739359"
Ek minar masjid,Mosque,"W35Q+P34 Ek minar masjid, S.S Nagar, Aligarh, Uttar Pradesh 202001",S.S Nagar,W35Q+P34,Aligarh,202001,Uttar Pradesh,IN,https://www.google.com/maps/place/Ek+minar+masjid/data=!4m7!3m6!1s0x3974a54566ab53c1:0x7b723a9cf32b3f63!8m2!3d27.9092562!4d78.0876924!16s%2Fg%2F11rp0pznxg!19sChIJwVOrZkWldDkRYz8r85w6cns?authuser=0&hl=en&rclk=1,"27.909256199999998,78.0876924"
Masjid Ali Jumma,Mosque,"W368+458 Masjid Ali Jumma, Unnamed Road, Bhamola Alam Bagh, Aligarh, Uttar Pradesh 202001",Bhamola Alam Bagh,"W368+458, Unnamed Road",Aligarh,202001,Uttar Pradesh,IN,https://www.google.com/maps/place/Masjid+Ali+Jumma/data=!4m7!3m6!1s0x3974a57ba739447b:0xcb78bd5c1b855a18!8m2!3d27.9102991!4d78.0654603!16s%2Fg%2F11h4qmys1f!19sChIJe0Q5p3uldDkRGFqFG1y9eMs?authuser=0&hl=en&rclk=1,"27.9102991,78.0654603"
Jama Masjid,Mosque,"V378+HWX Jama Masjid, Laxmi Nagar, Sasni Gate, Aligarh, Uttar Pradesh 202001","Laxmi Nagar, Sasni Gate",V378+HWX,Aligarh,202001,Uttar Pradesh,IN,https://www.google.com/maps/place/Jama+Masjid/data=!4m7!3m6!1s0x3974a3cba838bb29:0xb56b9aaaaf3f24fa!8m2!3d27.863984!4d78.067374!16s%2Fg%2F11pzk0wf3q!19sChIJKbs4qMujdDkR-iQ_r6qaa7U?authuser=0&hl=en&rclk=1,"27.863984,78.067374"
University Masjid,Mosque,"W34C+XRM University Masjid, AMU Campus, Aligarh, Uttar Pradesh 202002",AMU Campus,W34C+XRM,Aligarh,202002,Uttar Pradesh,IN,https://www.google.com/maps/place/University+Masjid/data=!4m7!3m6!1s0x3974a4f0a0955555:0x91956643f8590c4c!8m2!3d27.907454!4d78.0720574!16s%2Fg%2F11sscsgpcs!19sChIJVVWVoPCkdDkRTAxZ-ENmlZE?authuser=0&hl=en&rclk=1,"27.907453999999998,78.07205739999999"
Aurangzeb Masjid,Mosque,"Aurangzeb Masjid, 25, ADA Colony, Aligarh, Uttar Pradesh 202001",ADA Colony,25,Aligarh,202001,Uttar Pradesh,IN,https://www.google.com/maps/place/Aurangzeb+Masjid/data=!4m7!3m6!1s0x3974a59a313c0469:0x8985688a65f7ea99!8m2!3d27.879555!4d78.0517339!16s%2Fg%2F11swf7kkcp!19sChIJaQQ8MZqldDkRmer3ZYpohYk?authuser=0&hl=en&rclk=1,"27.879555,78.0517339"
Masjid,Mosque,"W32W+F9X Masjid, Ramghat Rd, Chungi, Vikram Colony, Begpur, Aligarh, Uttar Pradesh 202001","Chungi, Vikram Colony, Begpur","W32W+F9X, Ramghat Rd",Aligarh,202001,Uttar Pradesh,IN,https://www.google.com/maps/place/Masjid/data=!4m7!3m6!1s0x3974a5cbc79ff419:0x180c34dcf9e8c9ab!8m2!3d27.9012351!4d78.0959864!16s%2Fg%2F11q57s45vv!19sChIJGfSfx8uldDkRq8no-dw0DBg?authuser=0&hl=en&rclk=1,"27.901235099999997,78.0959864"
Millat masjid,Mosque,"Millat masjid, Millat Masjid, New Sir Syed Nagar Main Rd, S.S Nagar, Aligarh, Uttar Pradesh 202001",S.S Nagar,"Millat Masjid, New Sir Syed Nagar Main Rd",Aligarh,202001,Uttar Pradesh,IN,https://www.google.com/maps/place/Millat+masjid/data=!4m7!3m6!1s0x3974a5ab60bfb9eb:0xb40ebe07b254fb41!8m2!3d27.9142601!4d78.0880139!16s%2Fg%2F11lg2k8q55!19sChIJ67m_YKuldDkRQftUsge-DrQ?authuser=0&hl=en&rclk=1,"27.9142601,78.08801389999999"
