name,main_category,address,address_ward,address_street,address_city,address_postal_code,address_state,address_country_code,link,coordinates
Masjid-e-Aqsa,Mosque,"GVWQ+8W7 Masjid-e-Aqsa, Airport Rd, Blue Hill Society, Yerawada, Pune, Maharashtra 411006","Blue Hill Society, Yerawada","GVWQ+8W7, Airport Rd",Pune,411006,Maharashtra,IN,https://www.google.com/maps/place/Masjid-e-Aqsa/data=!4m7!3m6!1s0x3bc2c0e2a00b93d1:0x33b8157b39017d01!8m2!3d18.5457954!4d73.8898009!16s%2Fg%2F1tcwv5bs!19sChIJ0ZMLoOLAwjsRAX0BOXsVuDM?authuser=0&hl=en&rclk=1,"18.5457954,73.8898009"
Roshan Masjid (Ahle Sunnat wal Jama'at),Mosque,"1039, Roshan Masjid (Ahle Sunnat wal Jama'at), New Nanapeth, Waghmare Guruji Path, New Nana Peth, Bhawani Peth, Pune, Maharashtra 411002","New Nana Peth, Bhawani Peth","1039, New Nanapeth, Waghmare Guruji Path",Pune,411002,Maharashtra,IN,https://www.google.com/maps/place/Roshan+Masjid+%28Ahle+Sunnat+wal+Jama%27at%29/data=!4m7!3m6!1s0x3bc2c0412a26f153:0x268340dd2eab44f7!8m2!3d18.5113035!4d73.8710501!16s%2Fg%2F1tc_2jxt!19sChIJU_EmKkHAwjsR90SrLt1AgyY?authuser=0&hl=en&rclk=1,"18.5113035,73.87105009999999"
Hazrat Raza Shah Fakir Takiya Shia Trust,Mosque,"Hazrat Raza Shah Fakir Takiya Shia Trust, 436, near Mithganj Police Station, Guruwar Peth, Pune, Maharashtra 411042",Guruwar Peth,"436, near Mithganj Police Station",Pune,411042,Maharashtra,IN,https://www.google.com/maps/place/Hazrat+Raza+Shah+Fakir+Takiya+Shia+Trust/data=!4m7!3m6!1s0x3bc2c06b3e7f96e9:0x22439b264b49400c!8m2!3d18.508418!4d73.86131!16s%2Fg%2F11bttdp8y5!19sChIJ6ZZ_PmvAwjsRDEBJSyabQyI?authuser=0&hl=en&rclk=1,"18.508418,73.86131"
Makka Masjid Mominpura,Mosque,"Makka Masjid Mominpura, Mominpura Road, Guruwar Peth, Pune, Maharashtra 411042",Guruwar Peth,Mominpura Road,Pune,411042,Maharashtra,IN,https://www.google.com/maps/place/Makka+Masjid+Mominpura/data=!4m7!3m6!1s0x3bc2c014e1cbbf29:0x27e51e5c1f767b80!8m2!3d18.5052892!4d73.8624913!16s%2Fg%2F1vxvg9md!19sChIJKb_L4RTAwjsRgHt2H1we5Sc?authuser=0&hl=en&rclk=1,"18.5052892,73.8624913"
Masjid E Kausar,Mosque,"FVFV+53X Masjid E Kausar, Kausar bagh, near RC kitchen Kausar bagh masjid, Pune, Maharashtra 411037","Kausar Baugh, Kondhwa","FVFV+53X, Kausar bagh, near RC kitchen Kausar bagh masjid",Pune,411037,Maharashtra,IN,https://www.google.com/maps/place/Masjid+E+Kausar/data=!4m7!3m6!1s0x3bc2ea63181c523d:0xf1fc83bc1b53a3ac!8m2!3d18.4729798!4d73.8927424!16s%2Fg%2F12m99ds7f!19sChIJPVIcGGPqwjsRrKNTG7yD_PE?authuser=0&hl=en&rclk=1,"18.472979799999997,73.8927424"
Chand Tara Masjid,Mosque,"GV87+GVW Chand Tara Masjid, Vednath S Marg, Anutej Symphony Society, New Nana Peth, Rasta Peth, Pune, Maharashtra 411002","Anutej Symphony Society, New Nana Peth, Rasta Peth","GV87+GVW, Vednath S Marg",Pune,411002,Maharashtra,IN,https://www.google.com/maps/place/Chand+Tara+Masjid/data=!4m7!3m6!1s0x3bc2c068325abce1:0x761374d3ee0d0022!8m2!3d18.5163741!4d73.8646962!16s%2Fg%2F1tfvxlrs!19sChIJ4bxaMmjAwjsRIgAN7tN0E3Y?authuser=0&hl=en&rclk=1,"18.5163741,73.8646962"
Azam Campus Masjid,Mosque,"Azam Campus Masjid, 2390, K.B. Hidayatullah Road, Azam Campus, Camp, New Modikhana, Katad Khana, Pune, Maharashtra 411001","New Modikhana, Katad Khana","2390, K.B. Hidayatullah Road, Azam Campus, Camp",Pune,411001,Maharashtra,IN,https://www.google.com/maps/place/Azam+Campus+Masjid/data=!4m7!3m6!1s0x3bc2c039cace4ff5:0x6587a9202586e255!8m2!3d18.5052052!4d73.8759032!16s%2Fg%2F12m97lp1g!19sChIJ9U_OyjnAwjsRVeKGJSCph2U?authuser=0&hl=en&rclk=1,"18.5052052,73.8759032"
Aalmgeer Masjid (Wakad Pune),Mosque,"HQR6+4C9 Aalmgeer Masjid (Wakad Pune), Hinjawadi Flyover, Wakad, Pune, Pimpri-Chinchwad, Maharashtra 411057",Wakad,"HQR6+4C9, Hinjawadi Flyover","Pune, Pimpri-Chinchwad",411057,Maharashtra,IN,https://www.google.com/maps/place/Aalmgeer+Masjid+%28Wakad+Pune%29/data=!4m7!3m6!1s0x3bc2b9429e95351d:0x21a3b035196d3854!8m2!3d18.5902778!4d73.7611111!16s%2Fg%2F1hc23nj7q!19sChIJHTWVnkK5wjsRVDhtGTWwoyE?authuser=0&hl=en&rclk=1,"18.5902778,73.7611111"
Masjid Jamiatul Quraish (Ahle Sunnat Wal Jamat Masjid) msjdi jm`ti qurysh,Mosque,"Masjid Jamiatul Quraish (Ahle Sunnat Wal Jamat Masjid) msjdi jm`ti qurysh, 471, Quraish Nagar, Centre St, Camp, Pune, Maharashtra 411001",Camp,"471, Quraish Nagar, Centre St",Pune,411001,Maharashtra,IN,https://www.google.com/maps/place/Masjid+Jamiatul+Quraish+%28Ahle+Sunnat+Wal+Jamat+Masjid%29+%D9%85%D8%B3%D8%AC%D8%AF%D9%90+%D8%AC%D9%85%D8%A7%D8%B9%D8%AA%D9%90+%D9%82%D9%8F%D8%B1%DB%8C%D8%B4%E2%80%AD/data=!4m7!3m6!1s0x3bc2c0481cd3ae41:0x5b7d9a9b5fd2aa3c!8m2!3d18.5087467!4d73.8779547!16s%2Fg%2F12m90xmc_!19sChIJQa7THEjAwjsRPKrSX5uafVs?authuser=0&hl=en&rclk=1,"18.5087467,73.8779547"
Aundh Masjid,Mosque,"HR77+M2G Aundh Masjid, Vidyapeeth Rd, Ward No. 8, Aundh Gaon, Aundh, Pune, Maharashtra 411027","Ward No. 8, Aundh Gaon, Aundh","HR77+M2G, Vidyapeeth Rd",Pune,411027,Maharashtra,IN,https://www.google.com/maps/place/Aundh+Masjid/data=!4m7!3m6!1s0x3bc2bf314b73547d:0x369c01a831c97ec8!8m2!3d18.5641953!4d73.8125752!16s%2Fg%2F11cfjctcm!19sChIJfVRzSzG_wjsRyH7JMagBnDY?authuser=0&hl=en&rclk=1,"18.564195299999998,73.8125752"
Zainy Masjid,Mosque,"FVJQ+8G7 Zainy Masjid, Lullnagar, Kondhwa, Pune, Maharashtra 411040","Fakhri Hills, Kondhwa","FVJQ+8G7, Lullnagar",Pune,411040,Maharashtra,IN,https://www.google.com/maps/place/Zainy+Masjid/data=!4m7!3m6!1s0x3bc2ea80aade6e6d:0x758bde7d0aa6ad64!8m2!3d18.480784!4d73.8887844!16s%2Fg%2F1hc6p6dzq!19sChIJbW7eqoDqwjsRZK2mCn3ei3U?authuser=0&hl=en&rclk=1,"18.480784,73.88878439999999"
Al Falah Ahle Hadees Masjid (lflH msjd),Mosque,"Al Falah Ahle Hadees Masjid (lflH msjd), Lane No. 32, Bhagyoday Nagar, Mitha Nagar, Kondhwa, Pune, Maharashtra 411048","Bhagyoday Nagar, Mitha Nagar, Kondhwa",Lane No. 32,Pune,411048,Maharashtra,IN,https://www.google.com/maps/place/Al+Falah+Ahle+Hadees+Masjid+%28%D8%A7%D9%84%D9%81%D9%84%D8%A7%D8%AD+%D9%85%D8%B3%D8%AC%D8%AF%29%E2%80%AD/data=!4m7!3m6!1s0x3bc2ea891f39f6e3:0x6a186d9542754b89!8m2!3d18.4715661!4d73.8845406!16s%2Fg%2F1pxwkjg2p!19sChIJ4_Y5H4nqwjsRiUt1QpVtGGo?authuser=0&hl=en&rclk=1,"18.4715661,73.8845406"
Inaam Masjid,Mosque,"Inaam Masjid, Tadiwala Rd, Sangamvadi, Pune, Maharashtra 411001",Sangamvadi,Tadiwala Rd,Pune,411001,Maharashtra,IN,https://www.google.com/maps/place/Inaam+Masjid/data=!4m7!3m6!1s0x3bc2c0f687fa3cb1:0xa5fb71346b5754e!8m2!3d18.5340807!4d73.8720059!16s%2Fg%2F12hlf81h9!19sChIJsTz6h_bAwjsRTnW1RhO3Xwo?authuser=0&hl=en&rclk=1,"18.5340807,73.87200589999999"
Mannu Shah Masjid,Mosque,"Mannu Shah Masjid, No 482, Nana Peth, Jawaharlal Nehru Road, Pune, Maharashtra 411002","New Nana Peth, Ganesh Peth","No 482, Nana Peth, Jawaharlal Nehru Road",Pune,411002,Maharashtra,IN,https://www.google.com/maps/place/Mannu+Shah+Masjid/data=!4m7!3m6!1s0x3bc2c04304209557:0xeb3a5febeef14e50!8m2!3d18.5168237!4d73.868693!16s%2Fg%2F1hm4y5zqk!19sChIJV5UgBEPAwjsRUE7x7utfOus?authuser=0&hl=en&rclk=1,"18.5168237,73.868693"
Faizane Madina Masjid (fyDni mdynh msjd),Mosque,"Faizane Madina Masjid (fyDni mdynh msjd), 1A, Meeta Nagar, Kondhwa, Pune, Maharashtra 411048","Meeta Nagar, Kondhwa",1A,Pune,411048,Maharashtra,IN,https://www.google.com/maps/place/Faizane+Madina+Masjid+%28%D9%81%DB%8C%D8%B6%D8%A7%D9%86%D9%90+%D9%85%D8%AF%DB%8C%D9%86%DB%81+%D9%85%D8%B3%D8%AC%D8%AF%29%E2%80%AD/data=!4m7!3m6!1s0x3bc2ea8bed163fe3:0x42e36245b8403c19!8m2!3d18.4674189!4d73.883748!16s%2Fg%2F11cr_pjm0l!19sChIJ4z8W7YvqwjsRGTxAuEVi40I?authuser=0&hl=en&rclk=1,"18.4674189,73.883748"
Usmaniya Masjid-`thmnyh msjd,Mosque,"Usmaniya Masjid-`thmnyh msjd, 422, RS Kedari Rd, Camp, Pune, Maharashtra 411001",Camp,"422, RS Kedari Rd",Pune,411001,Maharashtra,IN,https://www.google.com/maps/place/Usmaniya+Masjid%E2%80%93%D8%B9%D8%AB%D9%85%D8%A7%D9%86%DB%8C%DB%81+%D9%85%D8%B3%D8%AC%D8%AF%E2%80%AD/data=!4m7!3m6!1s0x3bc2c04863e065d5:0x98c6ee9fc36f85d!8m2!3d18.5112841!4d73.8782833!16s%2Fg%2F11bwpyw6b6!19sChIJ1WXgY0jAwjsRXfg2_OlujAk?authuser=0&hl=en&rclk=1,"18.511284099999997,73.87828329999999"
Jama Masjid,Mosque,"HXJH+VP9 Jama Masjid, Wagholi Rd, Wageshwar Nagar, Wagholi, Pune, Maharashtra 412207","Wageshwar Nagar, Wagholi","HXJH+VP9, Wagholi Rd",Pune,412207,Maharashtra,IN,https://www.google.com/maps/place/Jama+Masjid/data=!4m7!3m6!1s0x3bc2c3816d63d76d:0x3c18bab151473125!8m2!3d18.5821595!4d73.9793556!16s%2Fg%2F1pp2wyw0x!19sChIJbddjbYHDwjsRJTFHUbG6GDw?authuser=0&hl=en&rclk=1,"18.5821595,73.97935559999999"
Alamgir Masjid - `lmgyr msjd,Mosque,"GW2M+97M Alamgir Masjid - `lmgyr msjd, Aru Nagar, Hadapsar Gaon, Hadapsar, Pune, Maharashtra 411028","Aru Nagar, Hadapsar Gaon, Hadapsar",GW2M+97M,Pune,411028,Maharashtra,IN,https://www.google.com/maps/place/Alamgir+Masjid+-+%D8%B9%D8%A7%D9%84%D9%85%DA%AF%DB%8C%D8%B1+%D9%85%D8%B3%D8%AC%D8%AF%E2%80%AD/data=!4m7!3m6!1s0x3bc2c1f83335b0bf:0x57ad744c0372a1d2!8m2!3d18.5009599!4d73.9331668!16s%2Fg%2F1262_8scy!19sChIJv7A1M_jBwjsR0qFyA0x0rVc?authuser=0&hl=en&rclk=1,"18.500959899999998,73.9331668"
Sanjay Park Mosque,Mosque,"HWC4+974 Sanjay Park Mosque, New Airport Rd, Survey Number 235, Sanjay Park, Pune, Maharashtra 411032","Survey Number 235, Sanjay Park","HWC4+974, New Airport Rd",Pune,411032,Maharashtra,IN,https://www.google.com/maps/place/Sanjay+Park+Mosque/data=!4m7!3m6!1s0x3bc2c130dada18e1:0x5d640e074d8263ba!8m2!3d18.5708905!4d73.9056945!16s%2Fg%2F1tpb9fcz!19sChIJ4Rja2jDBwjsRumOCTQcOZF0?authuser=0&hl=en&rclk=1,"18.5708905,73.9056945"
Mohammadia Masjid,Mosque,"Mohammadia Masjid, Sr No. 50 Lane Number 3, Bhagyoday Nagar Rd, Bhagyoday Nagar, Shivneri Nagar, Kondhwa, Pune, Maharashtra 411048","Bhagyoday Nagar, Shivneri Nagar, Kondhwa","Sr No. 50 Lane Number 3, Bhagyoday Nagar Rd",Pune,411048,Maharashtra,IN,https://www.google.com/maps/place/Mohammadia+Masjid/data=!4m7!3m6!1s0x3bc2ea884a2f2cab:0x29e69e6ee7fea3c9!8m2!3d18.4722417!4d73.8873589!16s%2Fg%2F11g_gp44r!19sChIJqywvSojqwjsRyaP-526e5ik?authuser=0&hl=en&rclk=1,"18.472241699999998,73.8873589"
Burhani Masjid,Mosque,"Burhani Masjid, 52, MG Road, Camp, Pune, Maharashtra 411001",Camp,"52, MG Road",Pune,411001,Maharashtra,IN,https://www.google.com/maps/place/Burhani+Masjid/data=!4m7!3m6!1s0x3bc2c048ea3ea939:0x975e9c5ef40b7c07!8m2!3d18.5128389!4d73.8788932!16s%2Fg%2F1ptxr8dwf!19sChIJOak-6kjAwjsRB3wL9F6cXpc?authuser=0&hl=en&rclk=1,"18.5128389,73.8788932"
Jama Masjid Kharadi,Mosque,"GWRM+MQ3 Jama Masjid Kharadi, Sainath Nagar, Wadgaon Sheri, Pune, Maharashtra 411014","Sainath Nagar, Wadgaon Sheri",GWRM+MQ3,Pune,411014,Maharashtra,IN,https://www.google.com/maps/place/Jama+Masjid+Kharadi/data=!4m7!3m6!1s0x3bc2c17e6d861ed7:0xceb72cabc917e77c!8m2!3d18.5416354!4d73.9344122!16s%2Fg%2F124yf15qm!19sChIJ1x6GbX7BwjsRfOcXyasst84?authuser=0&hl=en&rclk=1,"18.5416354,73.9344122"
Tandel Masjid (Ahle Sunnat Wal Jamaat Masjid),Mosque,"Tandel Masjid (Ahle Sunnat Wal Jamaat Masjid), 932, Synagogue St, Gawaliwada, Camp, Pune, Maharashtra 411001","Gawaliwada, Camp","932, Synagogue St",Pune,411001,Maharashtra,IN,https://www.google.com/maps/place/Tandel+Masjid+%28Ahle+Sunnat+Wal+Jamaat+Masjid%29/data=!4m7!3m6!1s0x3bc2c0450665b2a1:0x3ade4c217b341f1c!8m2!3d18.517363!4d73.8749289!16s%2Fg%2F12llf1xs1!19sChIJobJlBkXAwjsRHB80eyFM3jo?authuser=0&hl=en&rclk=1,"18.517363,73.8749289"
Yusufiya Masjid,Mosque,"Yusufiya Masjid, 87/2, near Shri Ram Chowk, Sai Colony, Hadapsar, Pune, Maharashtra 411028","Sai Colony, Hadapsar","87/2, near Shri Ram Chowk",Pune,411028,Maharashtra,IN,https://www.google.com/maps/place/Yusufiya+Masjid/data=!4m7!3m6!1s0x3bc2ea048fd8fbef:0x4e9a71c3e3c6e6b9!8m2!3d18.4810022!4d73.9294481!16s%2Fg%2F1260vfq9r!19sChIJ7_vYjwTqwjsRuebG48Nxmk4?authuser=0&hl=en&rclk=1,"18.4810022,73.9294481"
MASJID-E-FATIMA,Mosque,"HW4F+7CV MASJID-E-FATIMA, Shri Home Housing Society, Wadgaon Sheri, Pune, Maharashtra 411014","Shri Home Housing Society, Wadgaon Sheri",HW4F+7CV,Pune,411014,Maharashtra,IN,https://www.google.com/maps/place/MASJID-E-FATIMA/data=!4m7!3m6!1s0x3bc2c1687d5b5845:0x7e15d08559c9a0d0!8m2!3d18.5557283!4d73.9235322!16s%2Fg%2F11b6p41z8x!19sChIJRVhbfWjBwjsR0KDJWYXQFX4?authuser=0&hl=en&rclk=1,"18.5557283,73.9235322"
Masjid Quba,Mosque,"HW4H+484 Masjid Quba, Ganesh Nagar, Wadgaon Sheri, Pune, Maharashtra 411014","Ganesh Nagar, Wadgaon Sheri",HW4H+484,Pune,411014,Maharashtra,IN,https://www.google.com/maps/place/Masjid+Quba/data=!4m7!3m6!1s0x3bc2c166ec555555:0x9a73fde6412dcf77!8m2!3d18.5552631!4d73.9283356!16s%2Fg%2F11b6qnf4nz!19sChIJVVVV7GbBwjsRd88tQeb9c5o?authuser=0&hl=en&rclk=1,"18.555263099999998,73.9283356"
Jama Masjid {Viman Nagar Pune},Mosque,"Jama Masjid {Viman Nagar Pune}, P 21/2, Clover Park, Viman Nagar, Pune, Maharashtra 411014","Clover Park, Viman Nagar",P 21/2,Pune,411014,Maharashtra,IN,https://www.google.com/maps/place/Jama+Masjid+%7BViman+Nagar+Pune%7D/data=!4m7!3m6!1s0x3bc2c145b44b821d:0x4b93bc2382440aed!8m2!3d18.5673103!4d73.9200648!16s%2Fg%2F11c20dm8d_!19sChIJHYJLtEXBwjsR7QpEgiO8k0s?authuser=0&hl=en&rclk=1,"18.5673103,73.92006479999999"
mkkaa msjid,Mosque,"mkkaa msjid, 52, Kondhwa Rd, Bhagyoday Nagar, Bhagyaodaya Nagar, Kondhwa, Pune, Maharashtra 411048","Bhagyoday Nagar, Bhagyaodaya Nagar, Kondhwa","52, Kondhwa Rd",Pune,411048,Maharashtra,IN,https://www.google.com/maps/place/%E0%A4%AE%E0%A4%95%E0%A5%8D%E0%A4%95%E0%A4%BE+%E0%A4%AE%E0%A4%B8%E0%A5%8D%E0%A4%9C%E0%A4%BF%E0%A4%A6/data=!4m7!3m6!1s0x3bc2ea8f361221af:0x4cd081990c760962!8m2!3d18.4727796!4d73.8826933!16s%2Fg%2F11bw20wv47!19sChIJryESNo_qwjsRYgl2DJmB0Ew?authuser=0&hl=en&rclk=1,"18.4727796,73.8826933"
Masjid Hazarat Bilal,Mosque,"Masjid Hazarat Bilal, P 23-A, Dr. Homi Bhabha Rd, Lantana Gardens, Bavdhan, Pune, Maharashtra 411021","Lantana Gardens, Bavdhan","P 23-A, Dr. Homi Bhabha Rd",Pune,411021,Maharashtra,IN,https://www.google.com/maps/place/Masjid+Hazarat+Bilal/data=!4m7!3m6!1s0x3bc2be593c765b9f:0xc23460a5fed6743d!8m2!3d18.5183286!4d73.7780733!16s%2Fg%2F1v27syp2!19sChIJn1t2PFm-wjsRPXTW_qVgNMI?authuser=0&hl=en&rclk=1,"18.5183286,73.7780733"
Jamia Masjid,Mosque,"CVW4+RF2 Jamia Masjid, Lane Number 5, Santosh Nagar, Ambegaon Budruk, Pune, Maharashtra 411046","Santosh Nagar, Ambegaon Budruk","CVW4+RF2, Lane Number 5",Pune,411046,Maharashtra,IN,https://www.google.com/maps/place/Jamia+Masjid/data=!4m7!3m6!1s0x3bc2eadae15a0227:0x5d0284d5dc58cbb2!8m2!3d18.4470236!4d73.8561373!16s%2Fg%2F11dxr4483l!19sChIJJwJa4drqwjsRsstY3NWEAl0?authuser=0&hl=en&rclk=1,"18.447023599999998,73.8561373"
AFMC Masjid,Mosque,"AFMC Masjid, 2, Prince of Wales Dr Rd, Camp, Pune, Maharashtra 411040",Camp,"2, Prince of Wales Dr Rd",Pune,411040,Maharashtra,IN,https://www.google.com/maps/place/AFMC+Masjid/data=!4m7!3m6!1s0x3bc2c1cec580d1cb:0xa9205c537222e1c5!8m2!3d18.5038008!4d73.8968298!16s%2Fg%2F11clwlvsfj!19sChIJy9GAxc7BwjsRxeEiclNcIKk?authuser=0&hl=en&rclk=1,"18.5038008,73.89682979999999"
Jama Masjid,Mosque,"GWWC+9VW Jama Masjid, Prasad Nagar, Wadgaon Sheri, Pune, Maharashtra 411014","Prasad Nagar, Wadgaon Sheri",GWWC+9VW,Pune,411014,Maharashtra,IN,https://www.google.com/maps/place/Jama+Masjid/data=!4m7!3m6!1s0x3bc2c1703efd60dd:0x213086d99efc38b5!8m2!3d18.5459897!4d73.9222141!16s%2Fg%2F12htvmw_q!19sChIJ3WD9PnDBwjsRtTj8ntmGMCE?authuser=0&hl=en&rclk=1,"18.5459897,73.92221409999999"
Inamiya Masjid,Mosque,"FV95+4RW Inamiya Masjid, Panchod, Balaji Nagar, Pune, Maharashtra 411043","Panchod, Balaji Nagar",FV95+4RW,Pune,411043,Maharashtra,IN,https://www.google.com/maps/place/Inamiya+Masjid/data=!4m7!3m6!1s0x3bc2eabc07db7179:0x941aeda4b636f4e2!8m2!3d18.4678557!4d73.8595893!16s%2Fg%2F1yfdp8w4t!19sChIJeXHbB7zqwjsR4vQ2tqTtGpQ?authuser=0&hl=en&rclk=1,"18.467855699999998,73.8595893"
Zakaria Masjid - zkhry msjd,Mosque,"GWQ3+VM6 Zakaria Masjid - zkhry msjd, Koregaon Park Annexe, Mundhwa, Pune, Maharashtra 411001","Koregaon Park Annexe, Mundhwa",GWQ3+VM6,Pune,411001,Maharashtra,IN,https://www.google.com/maps/place/Zakaria+Masjid+-+%D8%B2%DA%A9%D8%B1%DB%8C%D8%A7+%D9%85%D8%B3%D8%AC%D8%AF%E2%80%AD/data=!4m7!3m6!1s0x3bc2c1092bfab057:0x9825875718791f44!8m2!3d18.5396698!4d73.9041376!16s%2Fg%2F1hc7gvr08!19sChIJV7D6KwnBwjsRRB95GFeHJZg?authuser=0&hl=en&rclk=1,"18.5396698,73.9041376"
Jama Masjid Ahl E Sunnat Wal Jamaat,Mosque,"Jama Masjid Ahl E Sunnat Wal Jamaat, Mahaveer Chowk, MG Road, Hulshur, Camp, Pune, Maharashtra 411001","Hulshur, Camp","Mahaveer Chowk, MG Road",Pune,411001,Maharashtra,IN,https://www.google.com/maps/place/Jama+Masjid+Ahl+E+Sunnat+Wal+Jama%C3%A4t/data=!4m7!3m6!1s0x3bc2c048d3d95129:0x48b40ea278d35564!8m2!3d18.5138767!4d73.8789314!16s%2Fg%2F1tdp81zf!19sChIJKVHZ00jAwjsRZFXTeKIOtEg?authuser=0&hl=en&rclk=1,"18.5138767,73.8789314"
Jama Masjid Nagpur Chawl,Mosque,"Jama Masjid Nagpur Chawl, Nagpur Chal, Yerawada, Pune, Maharashtra 411006","Nagpur Chal, Yerawada",,Pune,411006,Maharashtra,IN,https://www.google.com/maps/place/Jama+Masjid+Nagpur+Chawl/data=!4m7!3m6!1s0x3bc2c121423d20d3:0x8b63db931a49e558!8m2!3d18.5605395!4d73.8937774!16s%2Fg%2F12qg18yss!19sChIJ0yA9QiHBwjsRWOVJGpPbY4s?authuser=0&hl=en&rclk=1,"18.5605395,73.89377739999999"
Topkhana Masjid,Mosque,"Topkhana Masjid, 54, Dengate Bridge, Tophakhana, Kamgar Putala Vasahat, Shivajinagar, Pune, Maharashtra 411005","Tophakhana, Kamgar Putala Vasahat, Shivajinagar","54, Dengate Bridge",Pune,411005,Maharashtra,IN,https://www.google.com/maps/place/Topkhana+Masjid/data=!4m7!3m6!1s0x3bc2c063a73074c5:0xdb9eab04b4c6782c!8m2!3d18.5258503!4d73.8565766!16s%2Fg%2F11b7fsqstg!19sChIJxXQwp2PAwjsRLHjGtASrnts?authuser=0&hl=en&rclk=1,"18.5258503,73.8565766"
Jama Masjid Kondhwa (jm` msjd khwnddw hlsnt wljm`t),Mosque,"Jama Masjid Kondhwa (jm` msjd khwnddw hlsnt wljm`t), Khan Building, Lane Number 14, Bhagyoday Nagar, Shivneri Nagar, Kondhwa, Pune, Maharashtra 411048","Bhagyoday Nagar, Shivneri Nagar, Kondhwa","Khan Building, Lane Number 14",Pune,411048,Maharashtra,IN,https://www.google.com/maps/place/Jama+Masjid+Kondhwa+%28%D8%AC%D8%A7%D9%85%D8%B9+%D9%85%D8%B3%D8%AC%D8%AF+%DA%A9%D9%88%D9%86%DA%88%D9%88%D8%A7+%D8%A7%DB%81%D9%84%D8%B3%D9%86%D8%AA+%D9%88%D8%A7%D9%84%D8%AC%D9%85%D8%A7%D8%B9%D8%AA%29%E2%80%AD/data=!4m7!3m6!1s0x3bc2ea883f1b8535:0xc963c91299a5f864!8m2!3d18.4732492!4d73.8876379!16s%2Fg%2F12mjyh6wp!19sChIJNYUbP4jqwjsRZPilmRLJY8k?authuser=0&hl=en&rclk=1,"18.473249199999998,73.8876379"
Bara Imam Masjid,Mosque,"GV45+PH8 Bara Imam Masjid, Shukrawar Peth, Pune, Maharashtra 411002",Shukrawar Peth,GV45+PH8,Pune,411002,Maharashtra,IN,https://www.google.com/maps/place/Bara+Imam+Masjid/data=!4m7!3m6!1s0x3bc2c013525035ad:0x5ffd92206fd1b519!8m2!3d18.5067758!4d73.8589624!16s%2Fg%2F1264cb_bb!19sChIJrTVQUhPAwjsRGbXRbyCS_V8?authuser=0&hl=en&rclk=1,"18.5067758,73.8589624"
Rizwani Masjid,Mosque,"Rizwani Masjid, Macchi Gali, Savitribai Fule Road, Ganj Peth, Pune, Maharashtra 411002",Ganj Peth,"Macchi Gali, Savitribai Fule Road",Pune,411002,Maharashtra,IN,https://www.google.com/maps/place/Rizwani+Masjid/data=!4m7!3m6!1s0x3bc2c06ae5dfcb99:0xe3681d26a330cb8!8m2!3d18.5091347!4d73.8631095!16s%2Fg%2F1tkqyqh6!19sChIJmcvf5WrAwjsRuAwzatKBNg4?authuser=0&hl=en&rclk=1,"18.5091347,73.8631095"
Jama Masjid Yerwada,Mosque,"Jama Masjid Yerwada, Shree Vithal Mandir, opposite, Late ML Chapekar Rd, Yerawada, Pune, Maharashtra 411030","Nawanagar, Yerwada Village, Yerawada","Shree Vithal Mandir, opposite, Late ML Chapekar Rd",Pune,411030,Maharashtra,IN,https://www.google.com/maps/place/Jama+Masjid+Yerwada/data=!4m7!3m6!1s0x3bc2c0e30c0402bd:0xeac4099a9bf9158b!8m2!3d18.5464182!4d73.8851122!16s%2Fg%2F11c3s95vr0!19sChIJvQIEDOPAwjsRixX5m5oJxOo?authuser=0&hl=en&rclk=1,"18.546418199999998,73.8851122"
Shahvali dargah masjid,Mosque,"Shahvali dargah masjid, Wakadewadi, Shivajinagar, Pune, Maharashtra 411005","Wakadewadi, Shivajinagar",,Pune,411005,Maharashtra,IN,https://www.google.com/maps/place/Shahvali+dargah+masjid/data=!4m7!3m6!1s0x3bc2c0862b4911ef:0x32d5851d7889f48d!8m2!3d18.5371498!4d73.850338!16s%2Fg%2F1thvwqsv!19sChIJ7xFJK4bAwjsRjfSJeB2F1TI?authuser=0&hl=en&rclk=1,"18.537149799999998,73.850338"
Noorani Masjid(nwrny msjd),Mosque,"FVWC+G5Q Noorani Masjid(nwrny msjd), diasplot, P & T Colony, Gultekadi, Pune, Maharashtra 411037","P & T Colony, Gultekadi","FVWC+G5Q, diasplot",Pune,,Maharashtra,IN,https://www.google.com/maps/place/Noorani+Masjid%28%D9%86%D9%88%D8%B1%D8%A7%D9%86%DB%8C+%D9%85%D8%B3%D8%AC%D8%AF%29%E2%80%AD/data=!4m7!3m6!1s0x3bc2c0234d12f38b:0x893cdb83ff412b9b!8m2!3d18.496349!4d73.870473!16s%2Fg%2F11b6s8dzcn!19sChIJi_MSTSPAwjsRmytB_4PbPIk?authuser=0&hl=en&rclk=1,"18.496349,73.87047299999999"
Moti Masjid Somwar Peth (Pune),Mosque,"Moti Masjid Somwar Peth (Pune), 41, Somwar Peth, Pune, Maharashtra 411011",Somwar Peth,41,Pune,411011,Maharashtra,IN,https://www.google.com/maps/place/Moti+Masjid+Somwar+Peth+%28Pune%29/data=!4m7!3m6!1s0x3bc2c06772e29ae9:0x41f7ee9904a8457!8m2!3d18.522386!4d73.864089!16s%2Fg%2F1jmcj898g!19sChIJ6ZricmfAwjsRV4RKkOl-HwQ?authuser=0&hl=en&rclk=1,"18.522386,73.86408899999999"
Kagdipura Masjid,Mosque,"GVF5+JP7 Kagdipura Masjid, Baburao Ahwad Path, Kagdi Pura, Kasba Peth, Pune, Maharashtra 411011","Kagdi Pura, Kasba Peth","GVF5+JP7, Baburao Ahwad Path",Pune,411011,Maharashtra,IN,https://www.google.com/maps/place/Kagdipura+Masjid/data=!4m7!3m6!1s0x3bc2c06401152bb1:0x3087f1f14cd49a93!8m2!3d18.524036!4d73.859284!16s%2Fg%2F1jkyf6tjx!19sChIJsSsVAWTAwjsRk5rUTPHxhzA?authuser=0&hl=en&rclk=1,"18.524036,73.859284"
Hazrat Fatima Tuz Zohra Masjid(HDrti fTm@zhr msjd),Mosque,"Hazrat Fatima Tuz Zohra Masjid(HDrti fTm@zhr msjd), 48, Lane Number 1, Bhagyoday Nagar, Shivneri Nagar, Kondhwa, Pune, Maharashtra 411048","Bhagyoday Nagar, Shivneri Nagar, Kondhwa","48, Lane Number 1",Pune,411048,Maharashtra,IN,https://www.google.com/maps/place/Hazrat+Fatima+Tuz+Zohra+Masjid%28%D8%AD%D8%B6%D8%B1%D8%AA%D9%90+%D9%81%D8%A7%D8%B7%D9%85%DB%83%D8%B2%DB%81%D8%B1%D8%A7+%D9%85%D8%B3%D8%AC%D8%AF%29%E2%80%AD/data=!4m7!3m6!1s0x3bc2ea8f42bc4e3b:0x2f4aa68e0fbcfb3d!8m2!3d18.4736378!4d73.8814198!16s%2Fg%2F11cjnp7pg6!19sChIJO068Qo_qwjsRPfu8D46mSi8?authuser=0&hl=en&rclk=1,"18.4736378,73.8814198"
Daruwala Pool Masjid,Mosque,"Daruwala Pool Masjid, 500, Ganesh Peth Rd, Bodke Wada, Ganesh Peth, Pune, Maharashtra 411002","Bodke Wada, Ganesh Peth","500, Ganesh Peth Rd",Pune,411002,Maharashtra,IN,https://www.google.com/maps/place/Daruwala+Pool+Masjid/data=!4m7!3m6!1s0x3bc2c0662d6c3a8b:0x800731c9b6eb92cd!8m2!3d18.5192051!4d73.8621555!16s%2Fg%2F1td08ct5!19sChIJizpsLWbAwjsRzZLrtskxB4A?authuser=0&hl=en&rclk=1,"18.5192051,73.8621555"
New Modikhana Masjid - nyw mwdy khnh msjd,Mosque,"New Modikhana Masjid - nyw mwdy khnh msjd, 2383, New Modikhana, Camp, Pune, Maharashtra 411001","New Modikhana, Camp",2383,Pune,411001,Maharashtra,IN,https://www.google.com/maps/place/New+Modikhana+Masjid+-+%D9%86%DB%8C%D9%88+%D9%85%D9%88%D8%AF%DB%8C+%D8%AE%D8%A7%D9%86%DB%81+%D9%85%D8%B3%D8%AC%D8%AF%E2%80%AD/data=!4m7!3m6!1s0x3bc2c0382a88f07b:0x73517be83fc599ce!8m2!3d18.5059606!4d73.8767209!16s%2Fg%2F11xgkxrlg!19sChIJe_CIKjjAwjsRzpnFP-h7UXM?authuser=0&hl=en&rclk=1,"18.505960599999998,73.8767209"
Noorani Masjid(nwrny msjd),Mosque,"Noorani Masjid(nwrny msjd), Survey No, 46, Kondhwa, Pune, 48, near Gagan Emerald, Saibaba Nagar, Kondhwa, Pune, Maharashtra 411048","Saibaba Nagar, Kondhwa","Survey No, 46, Kondhwa, Pune, 48, near Gagan Emerald",Pune,411048,Maharashtra,IN,https://www.google.com/maps/place/Noorani+Masjid%28%D9%86%D9%88%D8%B1%D8%A7%D9%86%DB%8C+%D9%85%D8%B3%D8%AC%D8%AF%29%E2%80%AD/data=!4m7!3m6!1s0x3bc2ea8bcdba0bcb:0xe0fc615d39160de4!8m2!3d18.4681627!4d73.8857646!16s%2Fg%2F11gd1hbh65!19sChIJywu6zYvqwjsR5A0WOV1h_OA?authuser=0&hl=en&rclk=1,"18.4681627,73.8857646"
jaamaa msjid,Mosque,"HRCP+Q9F jaamaa msjid, Gandhi Nagar, Bopodi, Pune, Maharashtra 411020","Gandhi Nagar, Bopodi",HRCP+Q9F,Pune,411020,Maharashtra,IN,https://www.google.com/maps/place/%E0%A4%9C%E0%A4%BE%E0%A4%AE%E0%A4%BE+%E0%A4%AE%E0%A4%B8%E0%A5%8D%E0%A4%9C%E0%A4%BF%E0%A4%A6/data=!4m7!3m6!1s0x3bc2bf537f9c37cf:0x26309aba3e816!8m2!3d18.5719454!4d73.8359091!16s%2Fg%2F11b69bdj9k!19sChIJzzecf1O_wjsRFuijqwljAgA?authuser=0&hl=en&rclk=1,"18.5719454,73.8359091"
Khaksar Masjid,Mosque,"Khaksar Masjid, 177, Nana Peth Rd, New Nana Peth, Ganesh Peth, Pune, Maharashtra 411002","New Nana Peth, Ganesh Peth","177, Nana Peth Rd",Pune,411002,Maharashtra,IN,https://www.google.com/maps/place/Khaksar+Masjid/data=!4m7!3m6!1s0x3bc2c0418e1602a9:0x339a545dff69da34!8m2!3d18.5128514!4d73.8673533!16s%2Fg%2F1tczhy54!19sChIJqQIWjkHAwjsRNNpp_11UmjM?authuser=0&hl=en&rclk=1,"18.5128514,73.86735329999999"
Jama Masjid Ghorpadi,Mosque,"GWG2+W6V Jama Masjid Ghorpadi, Ghorpadi Rd, Ghorpadi, Pune, Maharashtra 411001",Ghorpadi,"GWG2+W6V, Ghorpadi Rd",Pune,411001,Maharashtra,IN,https://www.google.com/maps/place/Jama+Masjid+Ghorpadi/data=!4m7!3m6!1s0x3bc2c1af57ac9b73:0x7c3bf0028d2f7052!8m2!3d18.5273502!4d73.90055!16s%2Fg%2F11b6v4y5j1!19sChIJc5usV6_BwjsRUnAvjQLwO3w?authuser=0&hl=en&rclk=1,"18.5273502,73.90055"
Adam baug mosque masjid,Mosque,"Adam baug mosque masjid, Adambag masjid, 2166, Saras Baug Rd, Saras Baug, Shukrawar Peth, Pune, Maharashtra 411030","Saras Baug, Shukrawar Peth","Adambag masjid, 2166, Saras Baug Rd",Pune,411030,Maharashtra,IN,https://www.google.com/maps/place/Adam+baug+mosque+masjid/data=!4m7!3m6!1s0x3bc2c155e2fb275d:0x3cb5c14b125224ba!8m2!3d18.5046379!4d73.8533557!16s%2Fg%2F11kqw34wrh!19sChIJXSf74lXBwjsRuiRSEkvBtTw?authuser=0&hl=en&rclk=1,"18.5046379,73.8533557"
Lullanagar Masjid,Mosque,"Lullanagar Masjid, Pune Hadpsar Road, 42, Bibwewadi Kondhwa Rd, Lullanagar, Pune, Maharashtra 411040","Block A, Lullanagar","Pune Hadpsar Road, 42, Bibwewadi Kondhwa Rd",Pune,411040,Maharashtra,IN,https://www.google.com/maps/place/Lullanagar+Masjid/data=!4m7!3m6!1s0x3bc2ea81ec9911a1:0xcb381b818ddc8ce!8m2!3d18.4850815!4d73.8843831!16s%2Fg%2F124sqwtz1!19sChIJoRGZ7IHqwjsRzsjdGLiBsww?authuser=0&hl=en&rclk=1,"18.4850815,73.8843831"
Siddiqiya Masjid,Mosque,"Siddiqiya Masjid, 4A/4A/4, Mayfair Eleganza Phase II, Mohammed Wadi, Pune, Maharashtra 411048","Mayfair Eleganza Phase II, Mohammed Wadi",4A/4A/4,Pune,411048,Maharashtra,IN,https://www.google.com/maps/place/Siddiqiya+Masjid/data=!4m7!3m6!1s0x3bc2ea7ea6759fef:0x6ca0a573e9425e90!8m2!3d18.4814248!4d73.8937942!16s%2Fg%2F11bwp5v5k2!19sChIJ7591pn7qwjsRkF5C6XOloGw?authuser=0&hl=en&rclk=1,"18.4814248,73.8937942"
Masjid Muhammad (Nalband),Mosque,"FWXM+RQJ Masjid Muhammad (Nalband), Mantri Market Road, Sasane Nagar Rd, Hadapsar Gaon, Hadapsar, Pune, Maharashtra 411028","Hadapsar Gaon, Hadapsar","FWXM+RQJ, Mantri Market Road, Sasane Nagar Rd",Pune,411028,Maharashtra,IN,https://www.google.com/maps/place/Masjid+Muhammad+%28Nalband%29/data=!4m7!3m6!1s0x3bc2c1f85db83a21:0x7c78870e61253c4f!8m2!3d18.4995999!4d73.9343792!16s%2Fg%2F1pp2vm25r!19sChIJITq4XfjBwjsRTzwlYQ6HeHw?authuser=0&hl=en&rclk=1,"18.4995999,73.9343792"
"Anjuman-E-Talimul Qur,aan Masjid M.H.B.",Mosque,"Anjuman-E-Talimul Qur,aan Masjid M.H.B., M-19, Shastri Nagar Rd, Maharashtra Co-Operative Housing Society, Yerawada, Pune, Maharashtra 411006","Maharashtra Co-Operative Housing Society, Yerawada","M-19, Shastri Nagar Rd",Pune,411006,Maharashtra,IN,"https://www.google.com/maps/place/Anjuman-E-Talimul+Qur,aan+Masjid+M.H.B./data=!4m7!3m6!1s0x3bc2c12480e5df87:0xafbfa0a08956c12!8m2!3d18.5624872!4d73.8979134!16s%2Fg%2F11yh8c21p!19sChIJh9_lgCTBwjsREmyVCAr6-wo?authuser=0&hl=en&rclk=1","18.5624872,73.8979134"
Masjid-E-Quba Gandhi Nagar,Mosque,"GVXR+G82 Masjid-E-Quba Gandhi Nagar, Blue Hill Society, Yerawada, Pune, Maharashtra 411006","Blue Hill Society, Yerawada",GVXR+G82,Pune,411006,Maharashtra,IN,https://www.google.com/maps/place/Masjid-E-Quba+Gandhi+Nagar/data=!4m7!3m6!1s0x3bc2c11dc0cab36f:0xc2766576341a989f!8m2!3d18.5487529!4d73.8907653!16s%2Fg%2F12630t931!19sChIJb7PKwB3BwjsRn5gaNHZldsI?authuser=0&hl=en&rclk=1,"18.5487529,73.8907653"
Bhandar Shah Masjid,Mosque,"Bhandar Shah Masjid, 742,Chudamantalim,, Bhawani Peth, Pune, Maharashtra 411002","New Modikhana, Bhawani Peth","742,Chudamantalim,",Pune,411002,Maharashtra,IN,https://www.google.com/maps/place/Bhandar+Shah+Masjid/data=!4m7!3m6!1s0x3bc2c038728aedd9:0x3bb1103ffea609e!8m2!3d18.5078015!4d73.8755434!16s%2Fg%2F11c0rqtnfz!19sChIJ2e2KcjjAwjsRnmDq_wMRuwM?authuser=0&hl=en&rclk=1,"18.5078015,73.8755434"
Hazrat Abu Bakr Masjid,Mosque,"FV9M+8MW Hazrat Abu Bakr Masjid, Lane No. 10, Saibaba Nagar, Kondhwa, Pune, Maharashtra 411048","Saibaba Nagar, Kondhwa","FV9M+8MW, Lane No. 10",Pune,411048,Maharashtra,IN,https://www.google.com/maps/place/Hazrat+Abu+Bakr+Masjid/data=!4m7!3m6!1s0x3bc2eb1cbd06866f:0x3e6987ba0da49185!8m2!3d18.4683726!4d73.8841902!16s%2Fg%2F11lfzbvkvd!19sChIJb4YGvRzrwjsRhZGkDbqHaT4?authuser=0&hl=en&rclk=1,"18.4683726,73.88419019999999"
Pension wala Masjid,Mosque,"GV89+WQF Pension wala Masjid, Pensionwala Complex, Swami Bodhraj Rd, next to Pension-wala masjid, New Nana Peth, Ganesh Peth, Pune, Maharashtra 411002","New Nana Peth, Ganesh Peth","GV89+WQF Pensionwala Complex, Swami Bodhraj Rd, next to Pension-wala masjid",Pune,411002,Maharashtra,IN,https://www.google.com/maps/place/Pension+wala+Masjid/data=!4m7!3m6!1s0x3bc2c150b5cbaa57:0x5f1940d27dd969!8m2!3d18.5173193!4d73.8695065!16s%2Fg%2F11tcbt31c1!19sChIJV6rLtVDBwjsRadl90kAZXwA?authuser=0&hl=en&rclk=1,"18.5173193,73.8695065"
Munshiyan Masjid,Mosque,"GV7G+GMM Munshiyan Masjid, Camp, Pune, Maharashtra 411001",Camp,GV7G+GMM,Pune,411001,Maharashtra,IN,https://www.google.com/maps/place/Munshiyan+Masjid/data=!4m7!3m6!1s0x3bc2c0460448c993:0xef68ea6e1ff32e40!8m2!3d18.5138281!4d73.8766786!16s%2Fg%2F1yfprvf2z!19sChIJk8lIBEbAwjsRQC7zH27qaO8?authuser=0&hl=en&rclk=1,"18.513828099999998,73.87667859999999"
Noor-E-ILahi Masjid,Mosque,"HW5F+C77 Noor-E-ILahi Masjid, Ganesh Nagar, Aga Nagar, Wadgaon Sheri, Pune, Maharashtra 411014","Aga Nagar, Wadgaon Sheri","HW5F+C77, Ganesh Nagar",Pune,411014,Maharashtra,IN,https://www.google.com/maps/place/Noor-E-ILahi+Masjid/data=!4m7!3m6!1s0x3bc2c1681dcf8cef:0x1a594001b54476ff!8m2!3d18.558539!4d73.923175!16s%2Fg%2F1td689wj!19sChIJ74zPHWjBwjsR_3ZEtQFAWRo?authuser=0&hl=en&rclk=1,"18.558539,73.923175"
Zakiulla Jama Masjid,Mosque,"Zakiulla Jama Masjid, Londhe Wada, Chaitanya Nagar, Kothrud, Pune, Maharashtra 411038","Londhe Wada, Chaitanya Nagar, Kothrud",,Pune,411038,Maharashtra,IN,https://www.google.com/maps/place/Zakiulla+Jama+Masjid/data=!4m7!3m6!1s0x3bc2bf0eadde25b7:0xc4b85c7a31e6d84e!8m2!3d18.5011875!4d73.8119375!16s%2Fg%2F11t4kbqnnz!19sChIJtyXerQ6_wjsRTtjmMXpcuMQ?authuser=0&hl=en&rclk=1,"18.5011875,73.8119375"
Ameer E Muaviya Masjid(myr m`wyh msjd),Mosque,"Ameer E Muaviya Masjid(myr m`wyh msjd), 10, Mitha Nagar Galli Number 11, Meeta Nagar, Kondhwa, Pune, Maharashtra 411048","Meeta Nagar, Kondhwa","10, Mitha Nagar Galli Number 11",Pune,411048,Maharashtra,IN,https://www.google.com/maps/place/Ameer+E+Muaviya+Masjid%28%D8%A7%D9%85%DB%8C%D8%B1+%D9%85%D8%B9%D8%A7%D9%88%DB%8C%DB%81+%D9%85%D8%B3%D8%AC%D8%AF%29%E2%80%AD/data=!4m7!3m6!1s0x3bc2ea88df7cefb7:0xf6ca522acebf9c5f!8m2!3d18.471947!4d73.8833882!16s%2Fg%2F11c5x7cwtp!19sChIJt-9834jqwjsRX5y_zipSyvY?authuser=0&hl=en&rclk=1,"18.471947,73.8833882"
Shahin Anjuman talimul Qur'an masjid,Mosque,"FWXV+M9W Shahin Anjuman talimul Qur'an masjid, Utkarsh Nagar, Hadapsar, Pune, Maharashtra 411028","Utkarsh Nagar, Hadapsar",FWXV+M9W,Pune,411028,Maharashtra,IN,https://www.google.com/maps/place/Shahin+Anjuman+talimul+Qur%27an+masjid/data=!4m7!3m6!1s0x3bc2c2045d32d6dd:0xfe491bd136188d07!8m2!3d18.499242!4d73.943441!16s%2Fg%2F1262pnk1_!19sChIJ3dYyXQTCwjsRB40YNtEbSf4?authuser=0&hl=en&rclk=1,"18.499242,73.94344099999999"
Qamruddin Masjid (Ahle-Sunnat wal Jamat),Mosque,"Qamruddin Masjid (Ahle-Sunnat wal Jamat), 1868, Near Shivaji Market, Opp Gaffar, Beg Street, Camp, Pune, Maharashtra 411001",Camp,"1868, Near Shivaji Market, Opp Gaffar, Beg Street",Pune,411001,Maharashtra,IN,https://www.google.com/maps/place/Qamruddin+Masjid+%28Ahle-Sunnat+wal+Jamat%29/data=!4m7!3m6!1s0x3bc2c04625a1cd35:0x86ca304d48ec28ab!8m2!3d18.5121879!4d73.8766445!16s%2Fg%2F1tcw6mtj!19sChIJNc2hJUbAwjsRqyjsSE0wyoY?authuser=0&hl=en&rclk=1,"18.5121879,73.8766445"
Bagban Masjid (hl snt wljm`t) Ahle Sunnat Wal Jamaat,Mosque,"Bagban Masjid (hl snt wljm`t) Ahle Sunnat Wal Jamaat, 23, Mirza Galib Rd, Kapad Ganj, Raviwar Peth, Pune, Maharashtra 411002","Kapad Ganj, Raviwar Peth","23, Mirza Galib Rd",Pune,411002,Maharashtra,IN,https://www.google.com/maps/place/Bagban+Masjid+%28%D8%A7%DB%81%D9%84+%D8%B3%D9%86%D8%AA+%D9%88%D8%A7%D9%84%D8%AC%D9%85%D8%A7%D8%B9%D8%AA%29+Ahle+Sunnat+Wal+Jamaat%E2%80%AD/data=!4m7!3m6!1s0x3bc2c10d0729cfad:0x83805e19a80e50dc!8m2!3d18.513115!4d73.8613388!16s%2Fg%2F11ngyp3f90!19sChIJrc8pBw3BwjsR3FAOqBlegIM?authuser=0&hl=en&rclk=1,"18.513115,73.8613388"
GARIB NAWAZ MASJID,Mosque,"GARIB NAWAZ MASJID, Gulam Ali nagar lane no 7, Handewadi Rd, Hadapsar, Pune, Maharashtra 411028","Gulam Ali Nagar, Ganga Village, Sai Colony, Hadapsar","Gulam Ali nagar lane no 7, Handewadi Rd",Pune,411028,Maharashtra,IN,https://www.google.com/maps/place/GARIB+NAWAZ+MASJID/data=!4m7!3m6!1s0x3bc2eb58a6b38c95:0x349fbe0802d77103!8m2!3d18.4818916!4d73.9310829!16s%2Fg%2F11rpdf3gbz!19sChIJlYyzpljrwjsRA3HXAgi-nzQ?authuser=0&hl=en&rclk=1,"18.4818916,73.93108289999999"
Firdaus Masjid (firdws msjd),Mosque,"Firdaus Masjid (firdws msjd), Laxmi Nagar, Ashok Nagar, Yerawada, Pune, Maharashtra 411006","Laxmi Nagar, Ashok Nagar, Yerawada",,Pune,411006,Maharashtra,IN,https://www.google.com/maps/place/Firdaus+Masjid+%28%D9%81%D9%90%D8%B1%D8%AF%D9%88%D8%B3+%D9%85%D8%B3%D8%AC%D8%AF%29%E2%80%AD/data=!4m7!3m6!1s0x3bc2c0e6a3f6d18d:0x99000dec6427c14a!8m2!3d18.5497124!4d73.8819874!16s%2Fg%2F11c1pg5xyr!19sChIJjdH2o-bAwjsRSsEnZOwNAJk?authuser=0&hl=en&rclk=1,"18.5497124,73.8819874"
Jama Masjid,Mosque,"Jama Masjid, 110, Dr Helenkelar Path, near Amir Cloth Center, JJC Colony, Ramtekadi, Hadapsar, Pune, Maharashtra 411013","JJC Colony, Ramtekadi, Hadapsar","110, Dr Helenkelar Path, near Amir Cloth Center",Pune,411013,Maharashtra,IN,https://www.google.com/maps/place/Jama+Masjid/data=!4m7!3m6!1s0x3bc2c1ef490bdc07:0xc42b2d99a2d9982!8m2!3d18.5045168!4d73.9161188!16s%2Fg%2F12hl3mv7m!19sChIJB9wLSe_BwjsRgpktmtmyQgw?authuser=0&hl=en&rclk=1,"18.504516799999998,73.91611879999999"
Sumaiyya Masjid(smyWh msjd),Mosque,"GV7C+CV2 Sumaiyya Masjid(smyWh msjd), New Nana Peth, Sadar Bazaar, Pune, Maharashtra","New Nana Peth, Sadar Bazaar",GV7C+CV2,Pune,,Maharashtra,IN,https://www.google.com/maps/place/Sumaiyya+Masjid%28%D8%B3%D9%85%DB%8C%D9%91%DB%81+%D9%85%D8%B3%D8%AC%D8%AF%29%E2%80%AD/data=!4m7!3m6!1s0x3bc2c046a8f1c935:0x22f01de124ef115c!8m2!3d18.5135004!4d73.8721454!16s%2Fg%2F11c61lv6bp!19sChIJNcnxqEbAwjsRXBHvJOEd8CI?authuser=0&hl=en&rclk=1,"18.513500399999998,73.8721454"
Masjid E Namra,Mosque,"GVXJ+G48 Masjid E Namra, Sangamwadi Rd, Jai Jawan Nagar, Salwe Nagar, Yerawada, Pune, Maharashtra 411006","Jai Jawan Nagar, Salwe Nagar, Yerawada","GVXJ+G48, Sangamwadi Rd",Pune,411006,Maharashtra,IN,https://www.google.com/maps/place/Masjid+E+Namra/data=!4m7!3m6!1s0x3bc2c0e42c7c9389:0x856840a5c0fb1645!8m2!3d18.548786!4d73.880332!16s%2Fg%2F1pp2vk7s1!19sChIJiZN8LOTAwjsRRRb7wKVAaIU?authuser=0&hl=en&rclk=1,"18.548786,73.880332"
"Anjuman-E-Taalimul Qur,aan Masjid",Mosque,"Anjuman-E-Taalimul Qur,aan Masjid, Durga Mata Mandir Rd, Phulenagar, Yerawada, Pune, Maharashtra 411006","Phulenagar, Yerawada",Durga Mata Mandir Rd,Pune,411006,Maharashtra,IN,"https://www.google.com/maps/place/Anjuman-E-Taalimul+Qur,aan+Masjid/data=!4m7!3m6!1s0x3bc2c0dcc87453e3:0x65e42896d00efff7!8m2!3d18.5589529!4d73.8779122!16s%2Fg%2F124yf6tnd!19sChIJ41N0yNzAwjsR9_8O0JYo5GU?authuser=0&hl=en&rclk=1","18.558952899999998,73.8779122"
Madina Masjid,Mosque,"Madina Masjid, 7, Lane Number 5A, Survey Number 230, Sanjay Park, Pune, Maharashtra 411032","Survey Number 230, Sanjay Park","7, Lane Number 5A",Pune,411032,Maharashtra,IN,https://www.google.com/maps/place/Madina+Masjid/data=!4m7!3m6!1s0x3bc2c130c155a117:0xb9aafcf56a709e80!8m2!3d18.5708403!4d73.9057166!16s%2Fg%2F11df0mx7gl!19sChIJF6FVwTDBwjsRgJ5wavX8qrk?authuser=0&hl=en&rclk=1,"18.5708403,73.90571659999999"
Aalamgir Jama Masjid (Chandan Nagar Pune),Mosque,"Aalamgir Jama Masjid (Chandan Nagar Pune), 49/1A, Chandan Nagar, Pune, Maharashtra 411014",Chandan Nagar,49/1A,Pune,411014,Maharashtra,IN,https://www.google.com/maps/place/Aalamgir+Jama+Masjid+%28Chandan+Nagar+Pune%29/data=!4m7!3m6!1s0x3bc2c15e46907971:0x8b3aa8b12a13133e!8m2!3d18.5611119!4d73.9322815!16s%2Fg%2F11c37zc7_3!19sChIJcXmQRl7BwjsRPhMTKrGoOos?authuser=0&hl=en&rclk=1,"18.5611119,73.9322815"
Jama Masjid Khadki Pune,Mosque,"HV92+967 Jama Masjid Khadki Pune, Khadki Bazar, Khadki, Pune, Maharashtra 411003","Khadki Bazar, Khadki",HV92+967,Pune,411003,Maharashtra,IN,https://www.google.com/maps/place/Jama+Masjid+Khadki+Pune/data=!4m7!3m6!1s0x3bc2c0afac46b63f:0x9154f14b7c851c3e!8m2!3d18.5684243!4d73.8505429!16s%2Fg%2F1hc5qdq34!19sChIJP7ZGrK_AwjsRPhyFfEvxVJE?authuser=0&hl=en&rclk=1,"18.5684243,73.8505429"
TAQWA Masjid,Mosque,"GV8G+5J9 TAQWA Masjid, Dastur Meher Rd, Camp, Pune, Maharashtra 411001",Camp,"GV8G+5J9, Dastur Meher Rd",Pune,411001,Maharashtra,IN,https://www.google.com/maps/place/TAQWA+Masjid/data=!4m7!3m6!1s0x3bc2c045f3b4e5bd:0xe8cb34cb24318fba!8m2!3d18.5154215!4d73.8766179!16s%2Fg%2F11hd4_k4yl!19sChIJveW080XAwjsRuo8xJMs0y-g?authuser=0&hl=en&rclk=1,"18.5154215,73.8766179"
Umar Masjid (`umar msjd),Mosque,"Umar Masjid (`umar msjd), nr. Mohammadiya Masjid Road, Mitha Nagar, Kondhwa, Pune, Maharashtra 411048","Mitha Nagar, Kondhwa",nr. Mohammadiya Masjid Road,Pune,411048,Maharashtra,IN,https://www.google.com/maps/place/Umar+Masjid+%28%D8%B9%D9%8F%D9%85%D9%8E%D8%B1+%D9%85%D8%B3%D8%AC%D8%AF%29%E2%80%AD/data=!4m7!3m6!1s0x3bc2eb4713c1aa57:0xfa0d1f13d7d95c21!8m2!3d18.4704536!4d73.8871614!16s%2Fg%2F11rqj624zf!19sChIJV6rBE0frwjsRIVzZ1xMfDfo?authuser=0&hl=en&rclk=1,"18.4704536,73.8871614"
Madeena Masjid (Khadki Pune),Mosque,"HR9X+W83 Madeena Masjid (Khadki Pune), Khadki, Pune, Maharashtra 411003",Khadki,HR9X+W83,Pune,411003,Maharashtra,IN,https://www.google.com/maps/place/Madeena+Masjid+%28Khadki+Pune%29/data=!4m7!3m6!1s0x3bc2c0ac038fc639:0x7f296b9440af1dba!8m2!3d18.5697515!4d73.8482845!16s%2Fg%2F1pp2tz8w_!19sChIJOcaPA6zAwjsRuh2vQJRrKX8?authuser=0&hl=en&rclk=1,"18.5697515,73.84828449999999"
Masjid Mohamadia,Mosque,"Masjid Mohamadia, P-14 A, Guru Nanak Nagar, Shanti Nagar Society, Katad Khana, Pune, Maharashtra 411042","Guru Nanak Nagar, Shanti Nagar Society, Katad Khana",P-14 A,Pune,411042,Maharashtra,IN,https://www.google.com/maps/place/Masjid+Mohamadia/data=!4m7!3m6!1s0x3bc2c0394e3dd5d7:0x193ee1f5d1e4f60d!8m2!3d18.503197!4d73.8718365!16s%2Fg%2F11cjpb_tyb!19sChIJ19U9TjnAwjsRDfbk0fXhPhk?authuser=0&hl=en&rclk=1,"18.503197,73.8718365"
World Trade Masjid,Mosque,"GWXX+X8R World Trade Masjid, EON Free Zone, Kharadi, Pune, Maharashtra 411014","EON Free Zone, Kharadi",GWXX+X8R,Pune,411014,Maharashtra,IN,https://www.google.com/maps/place/World+Trade+Masjid/data=!4m7!3m6!1s0x3bc2c3c55a530189:0x9b485d03498d2070!8m2!3d18.5499844!4d73.9482685!16s%2Fg%2F11g6vj96vn!19sChIJiQFTWsXDwjsRcCCNSQNdSJs?authuser=0&hl=en&rclk=1,"18.5499844,73.9482685"
Surkh Abdal Masjid And Kabrastaan,Mosque,"Surkh Abdal Masjid And Kabrastaan, 552, Maharana Pratap Rd, Kapad Ganj, Ganesh Peth, Pune, Maharashtra 411002","Kapad Ganj, Ganesh Peth","552, Maharana Pratap Rd",Pune,411002,Maharashtra,IN,https://www.google.com/maps/place/Surkh+Abdal+Masjid+And+Kabrastaan/data=!4m7!3m6!1s0x3bc2c068ec1af655:0xe607b68ce4751dbe!8m2!3d18.516953!4d73.86171!16s%2Fg%2F1hc2sdx2t!19sChIJVfYa7GjAwjsRvh115Iy2B-Y?authuser=0&hl=en&rclk=1,"18.516953,73.86171"
The Bombay Sappers Jama Masjid,Mosque,"HV39+F3V The Bombay Sappers Jama Masjid, Baltangwadi, Yerawada, Pune, Maharashtra 411006","Baltangwadi, Yerawada",HV39+F3V,Pune,411006,Maharashtra,IN,https://www.google.com/maps/place/The+Bombay+Sappers+Jama+Masjid/data=!4m7!3m6!1s0x3bc2c0c02a20525f:0xfb985e15c870447!8m2!3d18.5537407!4d73.867674!16s%2Fg%2F1wfvl391!19sChIJX1IgKsDAwjsRRwSHXOGFuQ8?authuser=0&hl=en&rclk=1,"18.5537407,73.867674"
Madarchilla Masjid,Mosque,"Madarchilla Masjid, 1050, opp. Canara Bank, Kapad Ganj, Raviwar Peth, Pune, Maharashtra 411002","Kapad Ganj, Raviwar Peth","1050, opp. Canara Bank",Pune,411002,Maharashtra,IN,https://www.google.com/maps/place/Madarchilla+Masjid/data=!4m7!3m6!1s0x3bc2c1d9802d4885:0x4bb03ab4741ed1ba!8m2!3d18.515013!4d73.8618702!16s%2Fg%2F11ngn6ncr4!19sChIJhUgtgNnBwjsRutEedLQ6sEs?authuser=0&hl=en&rclk=1,"18.515013,73.8618702"
Koregaon Park Masjid,Mosque,"Koregaon Park Masjid, near, Lane No. 6, Koregaon Park Annexe, Kalyani Nagar, Pune, Maharashtra 411001","Koregaon Park Annexe, Kalyani Nagar","near, Lane No. 6",Pune,411001,Maharashtra,IN,https://www.google.com/maps/place/Koregaon+Park+Masjid/data=!4m7!3m6!1s0x3bc2c1092d74f827:0x704d184e0ae0e577!8m2!3d18.5395819!4d73.9043028!16s%2Fg%2F11cn8ypmf4!19sChIJJ_h0LQnBwjsRd-XgCk4YTXA?authuser=0&hl=en&rclk=1,"18.539581899999998,73.9043028"
RAZA SUNNI MASJID,Mosque,"RAZA SUNNI MASJID, 247, Kalwad Area Rd, Kalwad, Lohegaon, Pune, Maharashtra 411015","Kalwad, Lohegaon","247, Kalwad Area Rd",Pune,411015,Maharashtra,IN,https://www.google.com/maps/place/RAZA+SUNNI+MASJID/data=!4m7!3m6!1s0x3bc2c76311f044fb:0x79b3339f13995aa0!8m2!3d18.5904836!4d73.9048389!16s%2Fg%2F11fjmb17jv!19sChIJ-0TwEWPHwjsRoFqZE58zs3k?authuser=0&hl=en&rclk=1,"18.5904836,73.9048389"
"Masjid,Bait ul Qaem (Shia)",Mosque,"HW97+4VX Masjid,Bait ul Qaem (Shia), Anand Vidya Niketan High School Rd, Mhada Colony, Viman Nagar, Pune, Maharashtra 411014","Mhada Colony, Viman Nagar","HW97+4VX, Anand Vidya Niketan High School Rd",Pune,411014,Maharashtra,IN,"https://www.google.com/maps/place/Masjid,Bait+ul+Qaem+%28Shia%29/data=!4m7!3m6!1s0x3bc2c147b8bd1d85:0xbf01c9967296f79f!8m2!3d18.5678719!4d73.9147449!16s%2Fg%2F11byxfmm__!19sChIJhR29uEfBwjsRn_eWcpbJAb8?authuser=0&hl=en&rclk=1","18.5678719,73.9147449"
Masjid E Maulana Ilyaas,Mosque,"Masjid E Maulana Ilyaas, 51, Meeta Nagar, Kondhwa, Pune, Maharashtra 411048","Meeta Nagar, Kondhwa",51,Pune,411048,Maharashtra,IN,https://www.google.com/maps/place/Masjid+E+Maulana+Ilyaas/data=!4m7!3m6!1s0x3bc2ea8f2126a5dd:0x17c053694ba357c6!8m2!3d18.4717394!4d73.8819004!16s%2Fg%2F11f3s0rrkj!19sChIJ3aUmIY_qwjsRxlejS2lTwBc?authuser=0&hl=en&rclk=1,"18.4717394,73.88190039999999"
Tamboli masjid,Mosque,"Tamboli masjid, next to police station, Kapad Ganj, Raviwar Peth, Pune, Maharashtra 411002","Kapad Ganj, Raviwar Peth","Tamboli masjid, next to police station",Pune,411002,Maharashtra,IN,https://www.google.com/maps/place/Tamboli+masjid/data=!4m7!3m6!1s0x3bc2c1c1d7cfa663:0xeb2c391c5fdfc54!8m2!3d18.5161913!4d73.8598599!16s%2Fg%2F11rvhc9zjj!19sChIJY6bP18HBwjsRVPz9xZHDsg4?authuser=0&hl=en&rclk=1,"18.5161913,73.8598599"
Muhammadiya Masjid,Mosque,"Muhammadiya Masjid, 54 b/p, Lohiya Nagar Rd, Ganj Peth, Pune, Maharashtra 411042","Lohiya Nagar Slum Area, Lohiya Nagar, Ghorpade Peth, Ganj Peth","54 b/p, Lohiya Nagar Rd",Pune,411042,Maharashtra,IN,https://www.google.com/maps/place/Muhammadiya+Masjid/data=!4m7!3m6!1s0x3bc2c03fb6d8fbef:0x6f959cd79ab78ea4!8m2!3d18.5053642!4d73.8672081!16s%2Fg%2F11gbf9_8py!19sChIJ7_vYtj_AwjsRpI63mteclW8?authuser=0&hl=en&rclk=1,"18.5053642,73.8672081"
Masjid,Mosque,"GWJH+Q84 Masjid, Deccan Paper Mill Rd, Magarpatta, Mundhwa, Pune, Maharashtra 411036","Magarpatta, Mundhwa","GWJH+Q84, Deccan Paper Mill Rd",Pune,411036,Maharashtra,IN,https://www.google.com/maps/place/Masjid/data=!4m7!3m6!1s0x3bc2c183be659b17:0x6d8b16ddff6fa241!8m2!3d18.5318904!4d73.928326!16s%2Fg%2F11g8f886dd!19sChIJF5tlvoPBwjsRQaJv_90Wi20?authuser=0&hl=en&rclk=1,"18.531890399999998,73.928326"
Kabristan Masjid Kothrud (Ahle Sunnat Wal Jamat Masjid),Mosque,"GQ4X+FR8 Kabristan Masjid Kothrud (Ahle Sunnat Wal Jamat Masjid), Paud Rd, Bhusari Colony, Kothrud, Pune, Maharashtra 411058","Bhusari Colony, Kothrud","GQ4X+FR8, Paud Rd",Pune,411058,Maharashtra,IN,https://www.google.com/maps/place/Kabristan+Masjid+Kothrud+%28Ahle+Sunnat+Wal+Jamat+Masjid%29/data=!4m7!3m6!1s0x3bc2bffef8abd07b:0xc38b3cc500e54ced!8m2!3d18.5061574!4d73.7995899!16s%2Fg%2F11scs75szz!19sChIJe9Cr-P6_wjsR7UzlAMU8i8M?authuser=0&hl=en&rclk=1,"18.5061574,73.7995899"
Baba Jan Sunni Masjid(bb jn msjd),Mosque,"FVGJ+428 Baba Jan Sunni Masjid(bb jn msjd), late kamini path,, Kondhwa, Pune, Maharashtra 411048","Shreehans Nagar, Kondhwa","FVGJ+428, late kamini path,",Pune,411048,Maharashtra,IN,https://www.google.com/maps/place/Baba+Jan+Sunni+Masjid%28%D8%A8%D8%A7%D8%A8%D8%A7+%D8%AC%D8%A7%D9%86+%D9%85%D8%B3%D8%AC%D8%AF%29%E2%80%AD/data=!4m7!3m6!1s0x3bc2ea857616941b:0xbc300d5dee1b6648!8m2!3d18.4752761!4d73.8800656!16s%2Fg%2F11c5_527gh!19sChIJG5QWdoXqwjsRSGYb7l0NMLw?authuser=0&hl=en&rclk=1,"18.4752761,73.8800656"
Nuri Jama Masjid (kharadi gaon),Mosque,"Nuri Jama Masjid (kharadi gaon), New Nuri, Jama Masjid, Kharadi Gaon, Kharadi, Pune, Maharashtra 411014","Kharadi Gaon, Kharadi","New Nuri, Jama Masjid",Pune,411014,Maharashtra,IN,https://www.google.com/maps/place/Nuri+Jama+Masjid+%28kharadi+gaon%29/data=!4m7!3m6!1s0x3bc2c356a20007d7:0x7cdf0cc3869071f9!8m2!3d18.5462419!4d73.9456162!16s%2Fg%2F11fb2n8l_n!19sChIJ1wcAolbDwjsR-XGQhsMM33w?authuser=0&hl=en&rclk=1,"18.5462419,73.9456162"
Taiba masjid,Mosque,"Taiba masjid, Hanuman chal, Swami Vivekanand Rd, Rajiv Gandhi Nagar, Katraj, Pune, Maharashtra 411046","Rajiv Gandhi Nagar, Katraj","Hanuman chal, Swami Vivekanand Rd",Pune,411046,Maharashtra,IN,https://www.google.com/maps/place/Taiba+masjid/data=!4m7!3m6!1s0x3bc2eaeb5d5f4de3:0xd41aa808078c70de!8m2!3d18.4604954!4d73.8706451!16s%2Fg%2F11c717wt7x!19sChIJ401fXevqwjsR3nCMBwioGtQ?authuser=0&hl=en&rclk=1,"18.4604954,73.87064509999999"
Noorani Masjid,Mosque,"FVWV+C88 Noorani Masjid, Wanwadi Bazaar, Pune Cantonment, wanwandi bazar, Pune, Maharashtra 411040","Wanwadi Bazaar, Pune Cantonment",FVWV+C88,"wanwandi bazar, Pune",411040,Maharashtra,IN,https://www.google.com/maps/place/Noorani+Masjid/data=!4m7!3m6!1s0x3bc2c1758f87542f:0xc50f9d1eb9f5d3dd!8m2!3d18.4960361!4d73.8933409!16s%2Fg%2F11f61dkb9y!19sChIJL1SHj3XBwjsR3dP1uR6dD8U?authuser=0&hl=en&rclk=1,"18.496036099999998,73.8933409"
MADINA MASJID (Chandan Nagar) kharadi,Mosque,"HW5P+M56 MADINA MASJID (Chandan Nagar) kharadi, Sangharsh Chowk, Datta Mandir Rd, Chandan Nagar, Eknath Pathare Vasti, Wadgaon Sheri, Pune, Maharashtra 411014","Eknath Pathare Vasti, Wadgaon Sheri","HW5P+M56, Sangharsh Chowk, Datta Mandir Rd, Chandan Nagar",Pune,411014,Maharashtra,IN,https://www.google.com/maps/place/MADINA+MASJID+%28Chandan+Nagar%29+kharadi/data=!4m7!3m6!1s0x3bc2c170641215db:0x630fad95844be9d2!8m2!3d18.5591741!4d73.9353933!16s%2Fg%2F11fnwcj1tv!19sChIJ2xUSZHDBwjsR0ulLhJWtD2M?authuser=0&hl=en&rclk=1,"18.5591741,73.9353933"
MADARI Masjid (Koregaon Park Pune),Mosque,"GVJX+75G MADARI Masjid (Koregaon Park Pune), Lane Number 5, Iricen Railway Colony, Koregaon Park, Pune, Maharashtra 411001","Iricen Railway Colony, Koregaon Park","GVJX+75G, Lane Number 5",Pune,411001,Maharashtra,IN,https://www.google.com/maps/place/MADARI+Masjid+%28Koregaon+Park+Pune%29/data=!4m7!3m6!1s0x3bc2c1a85506478f:0x96f9a6929e2e16f0!8m2!3d18.5306908!4d73.8979381!16s%2Fg%2F11dz5chf5r!19sChIJj0cGVajBwjsR8BYunpKm-ZY?authuser=0&hl=en&rclk=1,"18.5306908,73.89793809999999"
"Darul Uloom Mohammadiya, Pune Station Masjid",Mosque,"Darul Uloom Mohammadiya, Pune Station Masjid, ST Stand, near PUNE RAILWAY STATION, opp. Pune, Agarkar Nagar, Pune, Maharashtra 411001",Agarkar Nagar,"ST Stand, near PUNE RAILWAY STATION, opp. Pune",Pune,411001,Maharashtra,IN,"https://www.google.com/maps/place/Darul+Uloom+Mohammadiya,+Pune+Station+Masjid/data=!4m7!3m6!1s0x3bc2c1f5c01e6841:0xabc9deca4e6a30fb!8m2!3d18.5281239!4d73.8722004!16s%2Fg%2F11s77z2pcd!19sChIJQWgewPXBwjsR-zBqTsreyas?authuser=0&hl=en&rclk=1","18.5281239,73.8722004"
SHAHI MASJID,Mosque,"GVF3+743 SHAHI MASJID, Gaothan, Shivajinagar, Pune, Maharashtra 411005","Gaothan, Shivajinagar",GVF3+743,Pune,411005,Maharashtra,IN,https://www.google.com/maps/place/SHAHI+MASJID/data=!4m7!3m6!1s0x3bc2c1e0eaefce07:0xdd2e64c83d0a2bd9!8m2!3d18.5231314!4d73.8528078!16s%2Fg%2F11s5hj2t89!19sChIJB87v6uDBwjsR2SsKPchkLt0?authuser=0&hl=en&rclk=1,"18.5231314,73.8528078"
Anjuman E Siddiqueya Trust Masjid (Kamela),Mosque,"4A, Anjuman E Siddiqueya Trust Masjid (Kamela), 4A/4, Salunke Vihar Rd, Mayfair Eleganza Phase II, Wanowrie, Pune, Maharashtra 411048","Mayfair Eleganza Phase II, Wanowrie","4A, 4A/4, Salunke Vihar Rd",Pune,411048,Maharashtra,IN,https://www.google.com/maps/place/Anjuman+E+Siddiqueya+Trust+Masjid+%28Kamela%29/data=!4m7!3m6!1s0x3bc2ea7ea982764b:0x878b20a1c4e4692c!8m2!3d18.4814327!4d73.8937952!16s%2Fg%2F11crzl054d!19sChIJS3aCqX7qwjsRLGnkxKEgi4c?authuser=0&hl=en&rclk=1,"18.4814327,73.8937952"
Anjuman Juma Masjid,Mosque,"Anjuman Juma Masjid, 63, Shivaji Maharaj Path, Kalas Area, Kalas, Pune, Maharashtra 411015","Kalas Area, Kalas","63, Shivaji Maharaj Path",Pune,411015,Maharashtra,IN,https://www.google.com/maps/place/Anjuman+Juma+Masjid/data=!4m7!3m6!1s0x3bc2c0cd3f990f31:0xa14b9de8af00503a!8m2!3d18.5776319!4d73.8755672!16s%2Fg%2F1tg9r40z!19sChIJMQ-ZP83AwjsROlAAr-idS6E?authuser=0&hl=en&rclk=1,"18.5776319,73.87556719999999"
Anjuman Bazme Rehmat Masjid,Mosque,"HV2M+6H7 Anjuman Bazme Rehmat Masjid, Kamraj Nagar Rd, Kamrajnagar, Yerawada, Pune, Maharashtra 411006","Kamrajnagar, Yerawada","HV2M+6H7, Kamraj Nagar Rd",Pune,411006,Maharashtra,IN,https://www.google.com/maps/place/Anjuman+Bazme+Rehmat+Masjid/data=!4m7!3m6!1s0x3bc2c0e145ddae9f:0xe32c1a240b720d5e!8m2!3d18.5505439!4d73.8839069!16s%2Fg%2F1ptwwgjcl!19sChIJn67dReHAwjsRXg1yCyQaLOM?authuser=0&hl=en&rclk=1,"18.550543899999997,73.8839069"
Umar Farooque Masjid (`umri frwq msjd),Mosque,"Umar Farooque Masjid (`umri frwq msjd), Survey No.14, Ward No 5, Ram Nagar, Yerawada, Pune, Maharashtra 411006","Jai Jawan Nagar, Ram Nagar, Yerawada","Survey No.14, Ward No 5",Pune,411006,Maharashtra,IN,https://www.google.com/maps/place/Umar+Farooque+Masjid+%28%D8%B9%D9%8F%D9%85%D8%B1%D9%90+%D9%81%D8%A7%D8%B1%D9%88%D9%82+%D9%85%D8%B3%D8%AC%D8%AF%29%E2%80%AD/data=!4m7!3m6!1s0x3bc2c0e4fe3273cf:0xef09cea55315cac5!8m2!3d18.5459994!4d73.8800284!16s%2Fg%2F11gh2t02p7!19sChIJz3My_uTAwjsRxcoVU6XOCe8?authuser=0&hl=en&rclk=1,"18.5459994,73.8800284"
Mirza Masjid (Sunni Masjid),Mosque,"Mirza Masjid (Sunni Masjid), Mirza masjid, near krishnahatti chowk, Lallubhai Damodardas Rd, Guruwar Peth, Pune, Maharashtra 411042",Guruwar Peth,"Mirza masjid, near krishnahatti chowk, Lallubhai Damodardas Rd",Pune,411042,Maharashtra,IN,https://www.google.com/maps/place/Mirza+Masjid+%28Sunni+Masjid%29/data=!4m7!3m6!1s0x3bc2c16446eaaa0f:0x977f0d89db778ccd!8m2!3d18.5073687!4d73.8612657!16s%2Fg%2F11s8yf1106!19sChIJD6rqRmTBwjsRzYx324kNf5c?authuser=0&hl=en&rclk=1,"18.5073687,73.86126569999999"
Rajbhawan Masjid,Mosque,"Rajbhawan Masjid, Savitribai Phule Pune University, near GIRLS HOSTEL, Ganeshkhind, Pune, Maharashtra 411007",Ganeshkhind,"Savitribai Phule Pune University, near GIRLS HOSTEL",Pune,411007,Maharashtra,IN,https://www.google.com/maps/place/Rajbhawan+Masjid/data=!4m7!3m6!1s0x3bc2bf2ec46c86c3:0xe69f6ff38f50082b!8m2!3d18.550775!4d73.8296643!16s%2Fg%2F11k9ny4b5b!19sChIJw4ZsxC6_wjsRKwhQj_Nvn-Y?authuser=0&hl=en&rclk=1,"18.550774999999998,73.82966429999999"
Madina Masjid (mdynh msjd),Mosque,"GV76+6CR Madina Masjid (mdynh msjd), Mirza Galib Rd, Kapad Ganj, Raviwar Peth, Pune, Maharashtra 411002","Kapad Ganj, Raviwar Peth","GV76+6CR, Mirza Galib Rd",Pune,411002,Maharashtra,IN,https://www.google.com/maps/place/Madina+Masjid+%28%D9%85%D8%AF%DB%8C%D9%86%DB%81+%D9%85%D8%B3%D8%AC%D8%AF%29%E2%80%AD/data=!4m7!3m6!1s0x3bc2c06960800893:0x36e3611fc3628d8!8m2!3d18.5131054!4d73.8610225!16s%2Fg%2F12m99ltnt!19sChIJkwiAYGnAwjsR2Cg2_BE2bgM?authuser=0&hl=en&rclk=1,"18.5131054,73.86102249999999"
Abuzar Masjid(bwzr msjd),Mosque,"Abuzar Masjid(bwzr msjd), 56, Late Kantinimai Path
Shivneri Nagar, Lane No. 12, Shivneri Nagar, Kondhwa, Pune, Maharashtra 411048","Shivneri Nagar, Kondhwa","56, Late Kantinimai Path
Shivneri Nagar, Lane No. 12",Pune,411048,Maharashtra,IN,https://www.google.com/maps/place/Abuzar+Masjid%28%D8%A7%D8%A8%D9%88%D8%B2%D8%B1+%D9%85%D8%B3%D8%AC%D8%AF%29%E2%80%AD/data=!4m7!3m6!1s0x3bc2ea85750019e9:0x807a64e54ade2b13!8m2!3d18.4755248!4d73.879949!16s%2Fg%2F11c2mkl01r!19sChIJ6RkAdYXqwjsREyveSuVkeoA?authuser=0&hl=en&rclk=1,"18.4755248,73.879949"
Mosque,Mosque,"Mosque, 1015, Padamjee Rd, Sadar Bazaar, Pune, Maharashtra 411001",Sadar Bazaar,"1015, Padamjee Rd",Pune,411001,Maharashtra,IN,https://www.google.com/maps/place/Mosque/data=!4m7!3m6!1s0x3bc2c046fddaf901:0xe16faa30dd6fdbfc!8m2!3d18.5112981!4d73.8738473!16s%2Fg%2F11c2nh6w2r!19sChIJAfna_UbAwjsR_Ntv3TCqb-E?authuser=0&hl=en&rclk=1,"18.511298099999998,73.8738473"
Shahid Abdul rahman masjid,Mosque,"Shahid Abdul rahman masjid, 553, Raut Rd, Ashok Nagar Colony, Harka Nagar, Katad Khana, Pune, Maharashtra 411042","Ashok Nagar Colony, Harka Nagar, Katad Khana","553, Raut Rd",Pune,411042,Maharashtra,IN,https://www.google.com/maps/place/Shahid+Abdul+rahman+masjid/data=!4m7!3m6!1s0x3bc2c15a69e0ff2b:0x56cabc8a25cfc29!8m2!3d18.5065542!4d73.8712137!16s%2Fg%2F11h1j27bgh!19sChIJK__gaVrBwjsRKfxcosirbAU?authuser=0&hl=en&rclk=1,"18.5065542,73.8712137"
Anjuman Sautul Kuraan Trs Masjid,Mosque,"Anjuman Sautul Kuraan Trs Masjid, Anjuman Sautul Kuraan Masjid, Savera Park Rd, Meeta Nagar, Kondhwa, Pune, Maharashtra 411048","Meeta Nagar, Kondhwa","Anjuman Sautul Kuraan Masjid, Savera Park Rd",Pune,411048,Maharashtra,IN,https://www.google.com/maps/place/Anjuman+Sautul+Kuraan+Trs+Masjid/data=!4m7!3m6!1s0x3bc2ea8ae802d93d:0xc62b805afd0ccc65!8m2!3d18.4647592!4d73.8867761!16s%2Fg%2F11f24w6pb4!19sChIJPdkC6IrqwjsRZcwM_VqAK8Y?authuser=0&hl=en&rclk=1,"18.4647592,73.88677609999999"
Jama Masjid - Ahle Sunnat,Mosque,"GWWX+P57 Jama Masjid - Ahle Sunnat, Kharadi Gaon, Kharadi, Pune, Maharashtra 411014","Kharadi Gaon, Kharadi",GWWX+P57,Pune,411014,Maharashtra,IN,https://www.google.com/maps/place/Jama+Masjid+-+Ahle+Sunnat/data=!4m7!3m6!1s0x3bc2c3a23db758d3:0x2743537a23a7a93f!8m2!3d18.5467859!4d73.9479277!16s%2Fg%2F11f61q44zg!19sChIJ01i3PaLDwjsRP6mnI3pTQyc?authuser=0&hl=en&rclk=1,"18.5467859,73.9479277"
Patel Masjid,Mosque,"Patel Masjid, 216/5, Sane Guruji Rasta, Nagar, Sadashiv Peth, Pune, Maharashtra 411030","Nagar, Sadashiv Peth","216/5, Sane Guruji Rasta",Pune,411030,Maharashtra,IN,https://www.google.com/maps/place/Patel+Masjid/data=!4m7!3m6!1s0x3bc2c196e294aaff:0xc46d8aef5f170109!8m2!3d18.5030446!4d73.8465043!16s%2Fg%2F11kq2cq_4d!19sChIJ_6qU4pbBwjsRCQEXX--KbcQ?authuser=0&hl=en&rclk=1,"18.5030446,73.84650429999999"
Pune station masjid,Mosque,"GVGC+VRM Pune station masjid, HH Prince Aga Khan Rd, Agarkar Nagar, Pune, Maharashtra 411001",Agarkar Nagar,"GVGC+VRM, HH Prince Aga Khan Rd",Pune,411001,Maharashtra,IN,https://www.google.com/maps/place/Pune+station+masjid/data=!4m7!3m6!1s0x3bc2c1b0ae874577:0xb7ac1e54bdee179e!8m2!3d18.5272828!4d73.8720971!16s%2Fg%2F11tmdkv9wq!19sChIJd0WHrrDBwjsRnhfuvVQerLc?authuser=0&hl=en&rclk=1,"18.5272828,73.87209709999999"
Muslim Jamat Masjid,Mosque,"GVFW+JH2 Muslim Jamat Masjid, Arun Khetrapal Marg, Ghorpuri Lines, Dobarwadi, Ghorpadi, Pune, Maharashtra 411001","Ghorpuri Lines, Dobarwadi, Ghorpadi","GVFW+JH2, Arun Khetrapal Marg",Pune,411001,Maharashtra,IN,https://www.google.com/maps/place/Muslim+Jamat+Masjid/data=!4m7!3m6!1s0x3bc2c1be15043b45:0x9e761d1e52291b44!8m2!3d18.5240239!4d73.8963946!16s%2Fg%2F11ngsnz6f4!19sChIJRTsEFb7BwjsRRBspUh4ddp4?authuser=0&hl=en&rclk=1,"18.5240239,73.8963946"
Nurani masjid,Mosque,"HV2M+HF6 Nurani masjid, Kamrajnagar, Yerawada, Pune, Maharashtra 411006","Kamrajnagar, Yerawada",HV2M+HF6,Pune,411006,Maharashtra,IN,https://www.google.com/maps/place/Nurani+masjid/data=!4m7!3m6!1s0x3bc2c175bad28935:0xaccfd2cbb42bd0a3!8m2!3d18.5513477!4d73.8836712!16s%2Fg%2F11jszj0k4w!19sChIJNYnSunXBwjsRo9ArtMvSz6w?authuser=0&hl=en&rclk=1,"18.5513477,73.8836712"
Deccan Tower Masjid,Mosque,"Deccan Tower Masjid, Deccan Tower, Solapur Rd, Solapur Bazar, Katad Khana, Pune, Maharashtra 411001","Solapur Bazar, Katad Khana","Deccan Tower, Solapur Rd",Pune,411001,Maharashtra,IN,https://www.google.com/maps/place/Deccan+Tower+Masjid/data=!4m7!3m6!1s0x3bc2c177584b7131:0x4e563e9f2d962e7!8m2!3d18.5067141!4d73.8799321!16s%2Fg%2F11ft2y_b28!19sChIJMXFLWHfBwjsR52LZ8ulj5QQ?authuser=0&hl=en&rclk=1,"18.5067141,73.87993209999999"
Masjid Daar-e-Shafi,Mosque,"Masjid Daar-e-Shafi, Besides Chandan SuperMarket Gully, 1023,Nana Peth, Dr Choithram Path, Agarwal Colony, Sadar Bazaar, Pune, Maharashtra 411001","Agarwal Colony, Sadar Bazaar","Besides Chandan SuperMarket Gully, 1023,Nana Peth, Dr Choithram Path",Pune,411001,Maharashtra,IN,https://www.google.com/maps/place/Masjid+Daar-e-Shafi/data=!4m7!3m6!1s0x3bc2c1e868ce5495:0x566090bf7ea9f8c9!8m2!3d18.511184!4d73.8728016!16s%2Fg%2F11t3gf8v27!19sChIJlVTOaOjBwjsRyfipfr-QYFY?authuser=0&hl=en&rclk=1,"18.511184,73.8728016"
Masjid,Mosque,"Masjid, 93, 72Khude Path, St. Patrick's Town, Krishna Society, Erandwana Gaothan, Erandwane, Pune, Maharashtra 411013","St. Patrick's Town, Krishna Society, Erandwana Gaothan, Erandwane","93, 72Khude Path",Pune,,Maharashtra,IN,https://www.google.com/maps/place/Masjid/data=!4m7!3m6!1s0x3bc2c17fc575e62d:0xe64434b5e137d967!8m2!3d18.5065493!4d73.9127765!16s%2Fg%2F11y1ftcv64!19sChIJLeZ1xX_BwjsRZ9k34bU0ROY?authuser=0&hl=en&rclk=1,"18.5065493,73.91277649999999"
