name,main_category,address,address_ward,address_street,address_city,address_postal_code,address_state,address_country_code,link,coordinates
Nili Masjid,Mosque,"Nili Masjid, Block A, Hauz Khas, New Delhi, Delhi 110016","Block A, Hauz Khas",,New Delhi,110016,Delhi,IN,https://www.google.com/maps/place/Nili+Masjid/data=!4m7!3m6!1s0x390ce26d4cc65ef5:0x13aa107e5125d88b!8m2!3d28.5535829!4d77.2069198!16s%2Fg%2F1tj94t5z!19sChIJ9V7GTG3iDDkRi9glUX4QqhM?authuser=0&hl=en&rclk=1,"28.5535829,77.2069198"
JAMA MASJID KHYALA msjd,Mosque,"JAMA MASJID KHYALA msjd, A Block, 830 Bus Stop,Khyala, near kaisho pur Mandi, Khayala, Vishnu Garden, New Delhi, Delhi 110018","Khayala, Vishnu Garden","A Block, 830 Bus Stop,Khyala, near kaisho pur Mandi","New Delhi, Delhi",110018,Delhi,IN,https://www.google.com/maps/place/JAMA+MASJID+KHYALA+%D9%85%D8%B3%D8%AC%D8%AF%E2%80%AD/data=!4m7!3m6!1s0x390d0486a64bd433:0x1d4915a77e8074da!8m2!3d28.6521001!4d77.0963329!16s%2Fg%2F11bt_hw75j!19sChIJM9RLpoYEDTkR2nSAfqcVSR0?authuser=0&hl=en&rclk=1,"28.6521001,77.0963329"
Iqra Masjid,Mosque,"H72Q+PVC Iqra Masjid, Jasola, Pocket 12, Jasola Vihar, New Delhi, Delhi 110025","Pocket 12, Jasola Vihar","H72Q+PVC, Jasola",New Delhi,110025,Delhi,IN,https://www.google.com/maps/place/Iqra+Masjid/data=!4m7!3m6!1s0x390ce40870000001:0x1621cd9aa17b1c1d!8m2!3d28.5518144!4d77.2896408!16s%2Fg%2F11b6gqgpp3!19sChIJAQAAcAjkDDkRHRx7oZrNIRY?authuser=0&hl=en&rclk=1,"28.551814399999998,77.2896408"
Gulab Rizvi Masjid,Mosque,"J377+2J2 Gulab Rizvi Masjid, Uttam Vihar, Uttam Nagar, Bindapur, J367+XJ, Delhi, 110059","Uttam Vihar, Uttam Nagar, Bindapur",J377+2J2,"J367+XJ, Delhi",,Delhi,IN,https://www.google.com/maps/place/Gulab+Rizvi+Masjid/data=!4m7!3m6!1s0x390d04d3a51235a9:0xa21e897797e58112!8m2!3d28.6125095!4d77.0640165!16s%2Fg%2F12hml4r3l!19sChIJqTUSpdMEDTkREoHll3eJHqI?authuser=0&hl=en&rclk=1,"28.612509499999998,77.0640165"
Chandni Masjid,Mosque,"Chandni Masjid, R3-A2 Block, Block N 2, Mohan Garden, Razapur Khurd, Delhi, 110059","R3-A2 Block, Block N 2, Mohan Garden, Razapur Khurd",,Delhi,110059,Delhi,IN,https://www.google.com/maps/place/Chandni+Masjid/data=!4m7!3m6!1s0x390d05138ed56ac7:0xc98e44c96cd806b2!8m2!3d28.6349843!4d77.0370805!16s%2Fg%2F11gbl4mmgg!19sChIJx2rVjhMFDTkRsgbYbMlEjsk?authuser=0&hl=en&rclk=1,"28.6349843,77.0370805"
Masjid Umar Farooq,Mosque,"Masjid Umar Farooq, F-56, Allama Shibli Nomani Road, Shaheen Bagh, Okhla, New Delhi, Delhi 110025","Shaheen Bagh, Okhla","F-56, Allama Shibli Nomani Road",New Delhi,110025,Delhi,IN,https://www.google.com/maps/place/Masjid+Umar+Farooq/data=!4m7!3m6!1s0x390ce41c85bb1f59:0x6e5c74657b2ef350!8m2!3d28.5444786!4d77.3006375!16s%2Fg%2F12qfsrfxd!19sChIJWR-7hRzkDDkRUPMue2V0XG4?authuser=0&hl=en&rclk=1,"28.544478599999998,77.3006375"
Madarsa Hifzul Quran Jama Masjid,Mosque,"J3G7+5GG Madarsa Hifzul Quran Jama Masjid, Zamrudpur, JJ Colony, Uttam Nagar, Delhi, 110059","Zamrudpur, JJ Colony, Uttam Nagar",J3G7+5GG,Delhi,110059,Delhi,IN,https://www.google.com/maps/place/Madarsa+Hifzul+Quran+Jama+Masjid/data=!4m7!3m6!1s0x390d04db8c7c8fa3:0xa55603f60949bf0b!8m2!3d28.625432!4d77.063841!16s%2Fg%2F11bv1nj80f!19sChIJo498jNsEDTkRC79JCfYDVqU?authuser=0&hl=en&rclk=1,"28.625432,77.063841"
Chhoti Masjid,Mosque,"G6H6+QM6 Chhoti Masjid, Hauz Rani, Malviya Nagar, New Delhi, Delhi 110017","Hauz Rani, Malviya Nagar",G6H6+QM6,New Delhi,110017,Delhi,IN,https://www.google.com/maps/place/Chhoti+Masjid/data=!4m7!3m6!1s0x390ce1f6744b4993:0x7ff1b5afde9c91d0!8m2!3d28.5294062!4d77.2116504!16s%2Fg%2F1hc27m4yr!19sChIJk0lLdPbhDDkR0JGc3q-18X8?authuser=0&hl=en&rclk=1,"28.5294062,77.2116504"
ehle islam masjid,Mosque,"M424+RPW ehle islam masjid, Road No. 28, Block F, Tagore Garden, Tagore Garden Extension, Delhi, 110027","Block F, Tagore Garden, Tagore Garden Extension","M424+RPW, Road No. 28",Delhi,110027,Delhi,IN,https://www.google.com/maps/place/ehle+islam+masjid/data=!4m7!3m6!1s0x390d037c17da8ec7:0x293fd9ad00fa4988!8m2!3d28.6521245!4d77.1068316!16s%2Fg%2F1260w63bx!19sChIJx47aF3wDDTkRiEn6AK3ZPyk?authuser=0&hl=en&rclk=1,"28.6521245,77.10683159999999"
Raza Jama Masjid,Mosque,"Raza Jama Masjid, Raza Jama Masjid And Jamia Ghousia Bahrul oloom C94 An and Vihar, Uttam Nagar, Hastsal, Delhi, 110059","Uttam Nagar, Phase 1, Om Vihar, Hastsal",Raza Jama Masjid And Jamia Ghousia Bahrul oloom C94 An and Vihar,Delhi,110059,Delhi,IN,https://www.google.com/maps/place/Raza+Jama+Masjid/data=!4m7!3m6!1s0x390d0527345be257:0x6bf8ff20d6c45e5b!8m2!3d28.6247469!4d77.0547634!16s%2Fg%2F11b6sxgc24!19sChIJV-JbNCcFDTkRW17E1iD_-Gs?authuser=0&hl=en&rclk=1,"28.624746899999998,77.0547634"
Gaosieya Jama Masjid,Mosque,"Gaosieya Jama Masjid, 9, Block C, Madhu Vihar, Delhi, 110059","Block C, Block D, Madhu Vihar",9,Delhi,110059,Delhi,IN,https://www.google.com/maps/place/Gaosieya+Jama+Masjid/data=!4m7!3m6!1s0x390d1b2e6b01c6f9:0x4a2448fa4f9cbcb!8m2!3d28.6018899!4d77.0663549!16s%2Fg%2F11f15j2zfy!19sChIJ-cYBay4bDTkRy8v5pI9EogQ?authuser=0&hl=en&rclk=1,"28.6018899,77.0663549"
Kalan Masjid,Mosque,"Kalan Masjid, Humayun's Tomb, near Aalami Markaz bangle wali masjid, Nizamuddin, Nizamuddin West, New Delhi, Delhi 110013","Nizamuddin, Nizamuddin West","Humayun's Tomb, near Aalami Markaz bangle wali masjid",New Delhi,110013,Delhi,IN,https://www.google.com/maps/place/Kalan+Masjid/data=!4m7!3m6!1s0x390ce346a05e9c1b:0xbe5fd55b9a3ba95d!8m2!3d28.5919929!4d77.2427248!16s%2Fg%2F11m3g28qmn!19sChIJG5xeoEbjDDkRXak7mlvVX74?authuser=0&hl=en&rclk=1,"28.591992899999997,77.24272479999999"
Madina Masjid Sainik Enclave,Mosque,"J2QG+4VX Madina Masjid Sainik Enclave, Baprola Vihar, Sector 2, Mohan Garden, Vikas Nagar, Delhi, 110059","Baprola Vihar, Sector 2, Mohan Garden, Vikas Nagar",J2QG+4VX,Delhi,110059,Delhi,IN,https://www.google.com/maps/place/Madina+Masjid+Sainik+Enclave/data=!4m7!3m6!1s0x390d056e73727349:0x7ec4ae3ded8e407a!8m2!3d28.6378624!4d77.0272228!16s%2Fg%2F11h9xn67pm!19sChIJSXNyc24FDTkRekCO7T2uxH4?authuser=0&hl=en&rclk=1,"28.6378624,77.02722279999999"
Masjid Madarsa Hifzul Quran,Mosque,"Masjid Madarsa Hifzul Quran, 8A, Som Bazar Rd, Uttam Nagar, Phase 4, Om Vihar, Uttam Nagar, Delhi, 110059","Uttam Nagar, Phase 4, Om Vihar, Uttam Nagar","8A, Som Bazar Rd",Delhi,110059,Delhi,IN,https://www.google.com/maps/place/Masjid+Madarsa+Hifzul+Quran/data=!4m7!3m6!1s0x390d0521efd9cde5:0xf0037603a8409078!8m2!3d28.6295923!4d77.0514267!16s%2Fg%2F11cs329qkl!19sChIJ5c3Z7yEFDTkReJBAqAN2A_A?authuser=0&hl=en&rclk=1,"28.6295923,77.0514267"
857 Wali Masjid,Mosque,"857 Wali Masjid, 857, Block F, Raghubir Nagar, Tagore Garden Extension, Delhi, 110027","Block F, Raghubir Nagar, Tagore Garden Extension",857,Delhi,110027,Delhi,IN,https://www.google.com/maps/place/857+Wali+Masjid/data=!4m7!3m6!1s0x390d038c0c611129:0x28e5230bc3751715!8m2!3d28.6520018!4d77.1063829!16s%2Fg%2F11smynhfw0!19sChIJKRFhDIwDDTkRFRd1wwsj5Sg?authuser=0&hl=en&rclk=1,"28.652001799999997,77.1063829"
Jama Masjid Dargah Mohalla,Mosque,"878M+PFH Jama Masjid Dargah Mohalla, Hilsa, Bihar 801302",,878M+PFH,Hilsa,801302,Bihar,IN,https://www.google.com/maps/place/Jama+Masjid+Dargah+Mohalla/data=!4m7!3m6!1s0x39f296106aa2cbd1:0x6f3a4af4cdd29dae!8m2!3d25.3168016!4d85.2837434!16s%2Fg%2F124yd6dlr!19sChIJ0cuiahCW8jkRrp3SzfRKOm8?authuser=0&hl=en&rclk=1,"25.316801599999998,85.28374339999999"
Choti Maszid,Mosque,"Choti Maszid, Wz 572, H 157, Manak Vihar, Tihar Village, New Delhi, Delhi 110018","Manak Vihar, Tihar Village","Wz 572, H 157","New Delhi, Delhi",110018,Delhi,IN,https://www.google.com/maps/place/Choti+Maszid/data=!4m7!3m6!1s0x390d035e50ee310d:0x6caf3fe9f0340942!8m2!3d28.6332153!4d77.1060315!16s%2Fg%2F11bwl3tcv9!19sChIJDTHuUF4DDTkRQgk08Ok_r2w?authuser=0&hl=en&rclk=1,"28.6332153,77.1060315"
MASJID OF PARAWALPUR,Mosque,"87GC+247 MASJID OF PARAWALPUR, Bhagwat Nagar, Hilsa, Bihar 801302",Bhagwat Nagar,87GC+247,Hilsa,801302,Bihar,IN,https://www.google.com/maps/place/MASJID+OF+PARAWALPUR/data=!4m7!3m6!1s0x39f2bdf51826d1db:0x4442e808f1e23186!8m2!3d25.3250251!4d85.2702945!16s%2Fg%2F11f181pwmg!19sChIJ29EmGPW98jkRhjHi8QjoQkQ?authuser=0&hl=en&rclk=1,"25.325025099999998,85.27029449999999"
Phulwariya,Mosque,"879M+H75 Phulwariya, Hilsa, Bihar 801302",,879M+H75,Hilsa,,Bihar,IN,https://www.google.com/maps/place/Phulwariya/data=!4m7!3m6!1s0x39f29731f2b59815:0xecd625d08cff16a4!8m2!3d25.3188918!4d85.2832333!16s%2Fg%2F11q438wt8k!19sChIJFZi18jGX8jkRpBb_jNAl1uw?authuser=0&hl=en&rclk=1,"25.3188918,85.28323329999999"
Akhtar-ul-Masajid(chhoti masjid) khtrlmsjd(chhwtty msjd) avtr -ul-msaajid(chottii msjid),Mosque,"878M+7MQ Akhtar-ul-Masajid(chhoti masjid) khtrlmsjd(chhwtty msjd) avtr -ul-msaajid(chottii msjid), Shah Abdullah Nager, Hilsa",,"878M+7MQ, Shah Abdullah Nager",Hilsa,,Bihar,IN,https://www.google.com/maps/place/Akhtar-ul-Masajid%28chhoti+masjid%29+%D8%A7%D8%AE%D8%AA%D8%B1%D8%A7%D9%84%D9%85%D8%B3%D8%A7%D8%AC%D8%AF%28%DA%86%DA%BE%D9%88%D9%B9%DB%8C+%D9%85%D8%B3%D8%AC%D8%AF%29+%E0%A4%85%E0%A4%B5%E0%A4%A4%E0%A4%B0+-%E0%A4%89%E0%A4%B2-%E0%A4%AE%E0%A4%B8%E0%A4%BE%E0%A4%9C%E0%A4%BF%E0%A4%A6%28%E0%A4%9B%E0%A5%8B%E0%A4%9F%E0%A5%80+%E0%A4%AE%E0%A4%B8%E0%A5%8D%E0%A4%9C%E0%A4%BF%E0%A4%A6%29%E2%80%AD/data=!4m7!3m6!1s0x39f29737ee88aa0b:0xda92f6c0b5f92cdd!8m2!3d25.3157022!4d85.2842424!16s%2Fg%2F11rqj8qy5g!19sChIJC6qI7jeX8jkR3Sz5tcD2kto?authuser=0&hl=en&rclk=1,"25.3157022,85.2842424"
