name,main_category,address,address_ward,address_street,address_city,address_postal_code,address_state,address_country_code,link,coordinates
Uttam Photographics,Audio visual equipment supplier,"Uttam Photographics, 7, Purna Chandra Mitra Ln, behind Tipu Sultan Masjid, Badam Talla, Tollygunge, Kolkata, West Bengal 700033","Badam Talla, Tollygunge","7, Purna Chandra Mitra Ln, behind Tipu Sultan Masjid",Kolkata,700033,West Bengal,IN,https://www.google.com/maps/place/Uttam+Photographics/data=!4m7!3m6!1s0x3a027768172f80cf:0xcc568103bca35476!8m2!3d22.5028777!4d88.3471933!16s%2Fg%2F1v82_j51!19sChIJz4AvF2h3AjoRdlSjvAOBVsw?authuser=0&hl=en&rclk=1,"22.5028777,88.3471933"
Kinupota Jumma Masjid,Mosque,"H93G+32V Kinupota Jumma Masjid, Ramchandrapur, West Bengal 741138",,H93G+32V,Ramchandrapur,741138,West Bengal,IN,https://www.google.com/maps/place/Kinupota+Jumma+Masjid/data=!4m7!3m6!1s0x39f91a6e4fffffff:0x746e4912d7d91218!8m2!3d23.5527398!4d88.3750431!16s%2Fg%2F11g6j3lk7t!19sChIJ____T24a-TkRGBLZ1xJJbnQ?authuser=0&hl=en&rclk=1,"23.552739799999998,88.3750431"
Odhanpur masjid,Mosque,"QJ4H+VMH Odhanpur masjid, Odhanpur, West Bengal 743294",,QJ4H+VMH,Odhanpur,743294,West Bengal,IN,https://www.google.com/maps/place/Odhanpur+masjid/data=!4m7!3m6!1s0x39f8a5cf2d2c41cd:0x3fda4bd7a564ac5d!8m2!3d22.7572359!4d88.629239!16s%2Fg%2F11rhxt6_wv!19sChIJzUEsLc-l-DkRXaxkpddL2j8?authuser=0&hl=en&rclk=1,"22.757235899999998,88.629239"
Jama Masjid Patna,Mosque,"J43P+F6M Jama Masjid Patna, New Market, Patna Junction, Patna, Bihar 800001","New Market, Fraser Road Area","J43P+F6M, New Market, Patna Junction",Patna,800001,Bihar,IN,https://www.google.com/maps/place/Jama+Masjid+Patna/data=!4m7!3m6!1s0x140d7ef026e8e615:0x50b27fe239bc0742!8m2!3d25.6037128!4d85.1355347!16s%2Fg%2F11b7hmg6rw!19sChIJFeboJvB-DRQRQge8OeJ_slA?authuser=0&hl=en&rclk=1,"25.6037128,85.1355347"
JAMA MASJID,Mosque,"QFGP+H9G JAMA MASJID, Khazanchi Haat, Navratan Hatta, Purnia, Bihar 854301","Khazanchi Haat, Navratan Hatta",QFGP+H9G,Purnia,854301,Bihar,IN,https://www.google.com/maps/place/JAMA+MASJID/data=!4m7!3m6!1s0x39eff90eba46316d:0x23632e13f0f11f8!8m2!3d25.7764498!4d87.4859639!16s%2Fg%2F1tfc0fh1!19sChIJbTFGug757zkR-BEPP-EyNgI?authuser=0&hl=en&rclk=1,"25.776449799999998,87.4859639"
Bosepukur Jama Masjid,Mosque,"Bosepukur Jama Masjid, 76A, Bosepukur Rd, Purba Para, Bosepukur, Kasba, Kolkata, West Bengal 700042","Purba Para, Bosepukur, Kasba","76A, Bosepukur Rd",Kolkata,700042,West Bengal,IN,https://www.google.com/maps/place/Bosepukur+Jama+Masjid/data=!4m7!3m6!1s0x3a02714b41000f61:0xb556afb58e35dba4!8m2!3d22.5162206!4d88.3844843!16s%2Fg%2F11f04p8p5y!19sChIJYQ8AQUtxAjoRpNs1jrWvVrU?authuser=0&hl=en&rclk=1,"22.5162206,88.3844843"
Bedia Danga Mosque,Mosque,"Bedia Danga Mosque, 8, Masjid Bari Lane, Kolkata, West Bengal 700039",Tiljala,"8, Masjid Bari Lane",Kolkata,700039,West Bengal,IN,https://www.google.com/maps/place/Bedia+Danga+Mosque/data=!4m7!3m6!1s0x3a0276c81e2f4501:0x1e7265d763115443!8m2!3d22.5270832!4d88.382177!16s%2Fg%2F1yg6c_pt5!19sChIJAUUvHsh2AjoRQ1QRY9dlch4?authuser=0&hl=en&rclk=1,"22.5270832,88.382177"
Noorani Masjid,Mosque,"Noorani Masjid, 854302, Ashiyana Colony, Purnia, Bihar 854302",Ashiyana Colony,854302,Purnia,854302,Bihar,IN,https://www.google.com/maps/place/Noorani+Masjid/data=!4m7!3m6!1s0x39eff908a3a257ef:0xcd91db379a4e2b85!8m2!3d25.7785973!4d87.4896733!16s%2Fg%2F11clsyps41!19sChIJ71eiowj57zkRhStOmjfbkc0?authuser=0&hl=en&rclk=1,"25.778597299999998,87.48967329999999"
Sajjadia Masjid,Mosque,"QFJQ+M9M Sajjadia Masjid, Dharamshala Rd, Khazanchi Haat, Line Bazar, Purnia, Bihar 854302","Khazanchi Haat, Line Bazar","QFJQ+M9M, Dharamshala Rd",Purnia,854302,Bihar,IN,https://www.google.com/maps/place/Sajjadia+Masjid/data=!4m7!3m6!1s0x39eff908413e4439:0x1ad1001eda3aa449!8m2!3d25.7817193!4d87.4884197!16s%2Fg%2F11f2wcr893!19sChIJOUQ-QQj57zkRSaQ62h4A0Ro?authuser=0&hl=en&rclk=1,"25.7817193,87.4884197"
Purani Masjid,Mosque,"Purani Masjid, Purani Masjid, 24 parganas North,, Jagatdal, Kolkata, West Bengal 743132",Jagatdal,"Purani Masjid, 24 parganas North,","Kolkata, Bhatpara",743132,West Bengal,IN,https://www.google.com/maps/place/Purani+Masjid/data=!4m7!3m6!1s0x39f89122f48a9487:0x7a7f4a28a86c3e67!8m2!3d22.8590824!4d88.3837914!16s%2Fg%2F11c5xkwy7b!19sChIJh5SK9CKR-DkRZz5sqChKf3o?authuser=0&hl=en&rclk=1,"22.8590824,88.38379139999999"
JAMA MASJID Phulwari Shreef Bhadauni,Mosque,"JAMA MASJID Phulwari Shreef Bhadauni, Alo Babu Rd, Ansar Nagar, Nawada, Bihar 805111",Ansar Nagar,Alo Babu Rd,Nawada,805111,Bihar,IN,https://www.google.com/maps/place/JAMA+MASJID+Phulwari+Shreef+Bhadauni/data=!4m7!3m6!1s0x39f2fe64f6fbdc7b:0xbb8a089300333a84!8m2!3d24.8771236!4d85.5327645!16s%2Fg%2F11b7fsqx8j!19sChIJe9z79mT-8jkRhDozAJMIirs?authuser=0&hl=en&rclk=1,"24.877123599999997,85.5327645"
Jama Masjid,Mosque,"QF9F+37W Jama Masjid, Mehboob Khan Tola, Purnia, Bihar 854301",Mehboob Khan Tola,QF9F+37W,Purnia,854301,Bihar,IN,https://www.google.com/maps/place/Jama+Masjid/data=!4m7!3m6!1s0x39eff96efb9601b9:0xdb61ab783f0fa566!8m2!3d25.7677473!4d87.4732011!16s%2Fg%2F11c3w0trl7!19sChIJuQGW-2757zkRZqUPP3irYds?authuser=0&hl=en&rclk=1,"25.7677473,87.4732011"
Kayesthorail Mosque,Mosque,"VVG8+H26 Kayesthorail Mosque, Kayesthorail, Sylhet, Bangladesh",Varthokhola,"VVG8+H26, Kayesthorail",Sylhet,,,BD,https://www.google.com/maps/place/Kayesthorail+Mosque/data=!4m7!3m6!1s0x3751aadbea75861f:0x961d9611c7313bdd!8m2!3d24.8764081!4d91.8650136!16s%2Fg%2F11dxdkjk6g!19sChIJH4Z16tuqUTcR3TsxxxGWHZY?authuser=0&hl=en&rclk=1,"24.8764081,91.8650136"
MASUNDI PURBAPARA JAME MASJID,Mosque,"V35M+J44 MASUNDI PURBAPARA JAME MASJID, Masundi, Binodia, West Bengal 742301",,V35M+J44,"Masundi, Binodia",742301,West Bengal,IN,https://www.google.com/maps/place/MASUNDI+PURBAPARA+JAME+MASJID/data=!4m7!3m6!1s0x39f99bf0871f6cdf:0x8cb145a468a6fd0b!8m2!3d23.8590039!4d88.0828249!16s%2Fg%2F11gdkk89jq!19sChIJ32wfh_Cb-TkRC_2maKRFsYw?authuser=0&hl=en&rclk=1,"23.859003899999998,88.08282489999999"
"JAMA MASJID SAIF KHAN,NAGINA BAGH PURNEA CITY",Mosque,"JAMA MASJID SAIF KHAN,NAGINA BAGH PURNEA CITY, Near hansda, road, Purnia, Bihar 854302",,"Near hansda, road","Purnia, Hansda",854302,Bihar,IN,"https://www.google.com/maps/place/JAMA+MASJID+SAIF+KHAN,NAGINA+BAGH+PURNEA+CITY/data=!4m7!3m6!1s0x39eff841a4eda715:0x56b9c727e5ac31b6!8m2!3d25.7988881!4d87.5371129!16s%2Fg%2F11g9nflk87!19sChIJFaftpEH47zkRtjGs5SfHuVY?authuser=0&hl=en&rclk=1","25.7988881,87.5371129"
Ramanathpur Masjid msjd,Mosque,"M6Q9+8W3 Ramanathpur Masjid msjd, Ramanathpur, West Bengal 712704",,M6Q9+8W3,Ramanathpur,712704,West Bengal,IN,https://www.google.com/maps/place/Ramanathpur+Masjid+%D9%85%D8%B3%D8%AC%D8%AF%E2%80%AD/data=!4m7!3m6!1s0x39f8813b852a95c3:0x16efd9bb2b0235fa!8m2!3d22.6882555!4d88.2198098!16s%2Fg%2F11cjj3kjrf!19sChIJw5UqhTuB-DkR-jUCK7vZ7xY?authuser=0&hl=en&rclk=1,"22.6882555,88.2198098"
Ahle Hadees Masjid,Mosque,"QFGV+629 Ahle Hadees Masjid, VIP Colony, Madhopara, Purnia, Bihar 854301","VIP Colony, Madhopara",QFGV+629,Purnia,854301,Bihar,IN,https://www.google.com/maps/place/Ahle+Hadees+Masjid/data=!4m7!3m6!1s0x39eff94d812d62c5:0x8030211437c3b56b!8m2!3d25.7755375!4d87.4926094!16s%2Fg%2F11gt_ylmmy!19sChIJxWItgU357zkRa7XDNxQhMIA?authuser=0&hl=en&rclk=1,"25.7755375,87.49260939999999"
"Jama Masjid , sipahi tola",Mosque,"QFH7+J9R Jama Masjid , sipahi tola, New Sipahi Tola, Purnia, Bihar 854301",New Sipahi Tola,QFH7+J9R,Purnia,854301,Bihar,IN,"https://www.google.com/maps/place/Jama+Masjid+,+sipahi+tola/data=!4m7!3m6!1s0x39eff97ef0bfc1bb:0x9df8773b814b8031!8m2!3d25.7791053!4d87.4634058!16s%2Fg%2F11ddxn9c5c!19sChIJu8G_8H757zkRMYBLgTt3-J0?authuser=0&hl=en&rclk=1","25.779105299999998,87.46340579999999"
Joikishnapur Masjid,Mosque,"P7V9+C84 Joikishnapur Masjid, Panchghara, West Bengal 712306",Panchghara,P7V9+C84,,712306,West Bengal,IN,https://www.google.com/maps/place/Joikishnapur+Masjid/data=!4m7!3m6!1s0x39f88448f1536ffb:0xe9001afb53f85f00!8m2!3d22.7435208!4d88.2683283!16s%2Fg%2F1q6j7v2m4!19sChIJ-29T8UiE-DkRAF_4U_saAOk?authuser=0&hl=en&rclk=1,"22.7435208,88.2683283"
Pirdamariya Masjid,Mosque,"H6RR+PG8 Pirdamariya Masjid, Biharimills Colony, Patna, Bihar 800008",Biharimills Colony,H6RR+PG8,Patna,800008,Bihar,IN,https://www.google.com/maps/place/Pirdamariya+Masjid/data=!4m7!3m6!1s0x39ed5f1c138525c7:0xb5da9af9f77046f5!8m2!3d25.5917907!4d85.2413186!16s%2Fg%2F11gmx9g8t2!19sChIJxyWFExxf7TkR9UZw9_ma2rU?authuser=0&hl=en&rclk=1,"25.591790699999997,85.2413186"
Shusni Para Jumma Masjid msjd,Mosque,"VV74+235 Shusni Para Jumma Masjid msjd, Mayapur, West Bengal 712413",,VV74+235,Mayapur,712413,West Bengal,IN,https://www.google.com/maps/place/Shusni+Para+Jumma+Masjid+%D9%85%D8%B3%D8%AC%D8%AF%E2%80%AD/data=!4m7!3m6!1s0x39f86ccb4def5ff9:0xb63e271abe2158ac!8m2!3d22.8625221!4d87.855244!16s%2Fg%2F11c20t08vr!19sChIJ-V_vTcts-DkRrFghvhonPrY?authuser=0&hl=en&rclk=1,"22.8625221,87.855244"
Amitya purbapara Jumma Masjid,Mosque,"242Q+HF7 Amitya purbapara Jumma Masjid, Amitya, Hizole, Kandi, W.B, 742140",,"242Q+HF7, Amitya, Hizole, Kandi, W.B",Hijal,742140,West Bengal,IN,https://www.google.com/maps/place/Amitya+purbapara+Jumma+Masjid/data=!4m7!3m6!1s0x39f9825006eabcf9:0x987728e3574b9437!8m2!3d24.0014135!4d88.1386743!16s%2Fg%2F11c6tsdxch!19sChIJ-bzqBlCC-TkRN5RLV-Mod5g?authuser=0&hl=en&rclk=1,"24.001413499999998,88.13867429999999"
Ramghat Jama Masjid,Mosque,"PGJ2+RMJ Ramghat Jama Masjid, Purnea, Ramghat Rd, Ranipatra, Bihar 854337",,"PGJ2+RMJ, Purnea, Ramghat Rd",Ranipatra,854337,Bihar,IN,https://www.google.com/maps/place/Ramghat+Jama+Masjid/data=!4m7!3m6!1s0x39efff2a4699f23d:0x58fd7a9885695201!8m2!3d25.7320933!4d87.5016494!16s%2Fg%2F11h9ybz10k!19sChIJPfKZRir_7zkRAVJphZh6_Vg?authuser=0&hl=en&rclk=1,"25.7320933,87.50164939999999"
Haripur masjid hripur msjid,Mosque,"6HPF+4H2 Haripur masjid hripur msjid, P, Birnagar, West Bengal 741127",,"6HPF+4H2, P","Birnagar, Birnagar P",741127,West Bengal,IN,https://www.google.com/maps/place/Haripur+masjid+%E0%A6%B9%E0%A6%B0%E0%A6%BF%E0%A6%AA%E0%A7%81%E0%A6%B0+%E0%A6%AE%E0%A6%B8%E0%A6%9C%E0%A6%BF%E0%A6%A6/data=!4m7!3m6!1s0x39f8db9fb036e26b:0xa7826b898788a919!8m2!3d23.2352699!4d88.5738955!16s%2Fg%2F11f00l435t!19sChIJa-I2sJ_b-DkRGamIh4lrgqc?authuser=0&hl=en&rclk=1,"23.2352699,88.57389549999999"
PARKULA PURBAPARA MOSQUE,Mosque,"PC46+QJC PARKULA PURBAPARA MOSQUE, Parkula, West Bengal 741156",,PC46+QJC,Parkula,,West Bengal,IN,https://www.google.com/maps/place/PARKULA+PURBAPARA+MOSQUE/data=!4m7!3m6!1s0x39f9148817ec105b:0x68c1ec93ff154ddf!8m2!3d23.7069283!4d88.4115146!16s%2Fg%2F11f57b3kd9!19sChIJWxDsF4gU-TkR300V_5PswWg?authuser=0&hl=en&rclk=1,"23.706928299999998,88.41151459999999"
Parbatipur Notun Masjid,Mosque,"M66C+F2F Parbatipur Notun Masjid, Parbatipur, jamader para, Mollar Chak, West Bengal","Krishnanagar, jamader para","M66C+F2F, Parbatipur",Mollar Chak,,West Bengal,IN,https://www.google.com/maps/place/Parbatipur+Notun+Masjid/data=!4m7!3m6!1s0x39f881090f122919:0xd838d20784972fcf!8m2!3d22.6611887!4d88.2200412!16s%2Fg%2F11gfp2_yj7!19sChIJGSkSDwmB-DkRzy-XhAfSONg?authuser=0&hl=en&rclk=1,"22.6611887,88.2200412"
Surendranathpur Purbapara Jumma Masjid,Mosque,"PC98+FRQ Surendranathpur Purbapara Jumma Masjid, Surendranath Pur, West Bengal 741156",,PC98+FRQ,Surendranath Pur,741156,West Bengal,IN,https://www.google.com/maps/place/Surendranathpur+Purbapara+Jumma+Masjid/data=!4m7!3m6!1s0x39f9148deda10225:0xe001f3a0d5162fb1!8m2!3d23.7187089!4d88.41712!16s%2Fg%2F11cn92nmt4!19sChIJJQKh7Y0U-TkRsS8W1aDzAeA?authuser=0&hl=en&rclk=1,"23.7187089,88.41712"
Dangadighila Purano Masjid,Mosque,"PCQ2+5GF Dangadighila Purano Masjid, Duttapukur - Nilgunj Rd, Ruiya, Dangadihila, Iswaripur, West Bengal 700119",Ruiya,"PCQ2+5GF, Duttapukur - Nilgunj Rd","Dangadihila, Iswaripur",700119,West Bengal,IN,https://www.google.com/maps/place/Dangadighila+Purano+Masjid/data=!4m7!3m6!1s0x39f89bd8a5d9ca65:0x821eb7204c24bf77!8m2!3d22.7379485!4d88.4013008!16s%2Fg%2F11clgrhr_d!19sChIJZcrZpdib-DkRd78kTCC3HoI?authuser=0&hl=en&rclk=1,"22.737948499999998,88.4013008"
Nutandihi Mosque,Mosque,"WR2V+7H9 Nutandihi Mosque, Dhadkidihi Rd, Khatra, Nutandihi, West Bengal 722135",,"WR2V+7H9, Dhadkidihi Rd","Khatra, Nutandihi",722135,West Bengal,IN,https://www.google.com/maps/place/Nutandihi+Mosque/data=!4m7!3m6!1s0x39f6351d6136f4bb:0x403a7863e63c1a38!8m2!3d22.9006661!4d86.8439969!16s%2Fg%2F11gmx868bn!19sChIJu_Q2YR019jkROBo85mN4OkA?authuser=0&hl=en&rclk=1,"22.9006661,86.8439969"
Jumma Masjid,Mosque,"4327+QRR Jumma Masjid, Bhatkhanda, West Bengal 742147",,4327+QRR,Bhatkhanda,,West Bengal,IN,https://www.google.com/maps/place/Jumma+Masjid/data=!4m7!3m6!1s0x39f987f16697acbd:0x658a99eaeaccffee!8m2!3d24.1019975!4d88.0645273!16s%2Fg%2F11g1hlr4xz!19sChIJvayXZvGH-TkR7v_M6uqZimU?authuser=0&hl=en&rclk=1,"24.1019975,88.0645273"
Ramanathpur Paschim Para Jame Masjid,Mosque,"M6P9+7C Ramanathpur Paschim Para Jame Masjid, Ramanathpur, West Bengal 712708",,M6P9+7C,Ramanathpur,712708,West Bengal,IN,https://www.google.com/maps/place/Ramanathpur+Paschim+Para+Jame+Masjid/data=!4m7!3m6!1s0x39f881e959298c5f:0xe8010d577596cc6a!8m2!3d22.6852251!4d88.2182317!16s%2Fg%2F11s646_w51!19sChIJX4wpWemB-DkRasyWdVcNAeg?authuser=0&hl=en&rclk=1,"22.6852251,88.21823169999999"
Bajrang Bali Statue,Hindu temple,"48HH+Q54 Bajrang Bali Statue, Purnanagar, Jharkhand 815301",,48HH+Q54,Purnanagar,,Jharkhand,IN,https://www.google.com/maps/place/Bajrang+Bali+Statue/data=!4m7!3m6!1s0x39f15528a84dbd57:0xead89644cbef5788!8m2!3d24.1293858!4d86.3279638!16s%2Fg%2F11h39675ss!19sChIJV71NqChV8TkRiFfvy0SW2Oo?authuser=0&hl=en&rclk=1,"24.129385799999998,86.32796379999999"
"Azabnagar Purano Masjid,,. aajbngr puraano msjid",Mosque,"Q59V+9W9 Azabnagar Purano Masjid,,. aajbngr puraano msjid, Azabnagar, West Bengal 712707",,Q59V+9W9,Azabnagar,,West Bengal,IN,"https://www.google.com/maps/place/Azabnagar+Purano+Masjid,,.+%E0%A6%86%E0%A6%9C%E0%A6%AC%E0%A6%A8%E0%A6%97%E0%A6%B0+%E0%A6%AA%E0%A7%81%E0%A6%B0%E0%A6%BE%E0%A6%A8%E0%A7%8B+%E0%A6%AE%E0%A6%B8%E0%A6%9C%E0%A6%BF%E0%A6%A6/data=!4m7!3m6!1s0x39f88705363720f5:0x347fef10c69517cf!8m2!3d22.7684101!4d88.1948725!16s%2Fg%2F11f6xyqldv!19sChIJ9SA3NgWH-DkRzxeVxhDvfzQ?authuser=0&hl=en&rclk=1","22.7684101,88.1948725"
Jumma Masjid msjd,Mosque,"Q4XV+M88 Jumma Masjid msjd, Panrra, West Bengal 712405",,Q4XV+M88,Panrra,,West Bengal,IN,https://www.google.com/maps/place/Jumma+Masjid+%D9%85%D8%B3%D8%AC%D8%AF%E2%80%AD/data=!4m7!3m6!1s0x39f87d3350f4b11d:0xac40434ac6dd2112!8m2!3d22.7991515!4d88.1433367!16s%2Fg%2F11f2y2w51b!19sChIJHbH0UDN9-DkREiHdxkpDQKw?authuser=0&hl=en&rclk=1,"22.7991515,88.14333669999999"
Arshingri Mosque(Masjid),Mosque,"4V72+J8F Arshingri Mosque(Masjid), Arsingri, West Bengal 743235",,4V72+J8F,Arsingri,743235,West Bengal,IN,https://www.google.com/maps/place/Arshingri+Mosque%28Masjid%29/data=!4m7!3m6!1s0x39ff339037a6bddb:0xb4804ed0514fce70!8m2!3d23.1140659!4d88.8508092!16s%2Fg%2F11gh_nmh4t!19sChIJ272mN5Az_zkRcM5PUdBOgLQ?authuser=0&hl=en&rclk=1,"23.1140659,88.8508092"
Domuani Paschim Para Jame Masjid (Amdoula),Mosque,"QC79+397 Domuani Paschim Para Jame Masjid (Amdoula), Amdaula, West Bengal 721253",,QC79+397,Amdaula,,West Bengal,IN,https://www.google.com/maps/place/Domuani+Paschim+Para+Jame+Masjid+%28Amdoula%29/data=!4m7!3m6!1s0x39f7faf5ab761aef:0x3860bf0bff4587e5!8m2!3d22.7626677!4d87.4184258!16s%2Fg%2F11f54lqnjw!19sChIJ7xp2q_X69zkR5YdF_wu_YDg?authuser=0&hl=en&rclk=1,"22.762667699999998,87.4184258"
Dayanagar jumma masjid(dyyaangr jummaa msjid),Mosque,"X846+Q7W Dayanagar jumma masjid(dyyaangr jummaa msjid), Maniknagar, West Bengal 742133",,X846+Q7W,Maniknagar,,West Bengal,IN,https://www.google.com/maps/place/Dayanagar+jumma+masjid%28%E0%A6%A6%E0%A7%9F%E0%A6%BE%E0%A6%A8%E0%A6%97%E0%A6%B0+%E0%A6%9C%E0%A7%81%E0%A6%AE%E0%A7%8D%E0%A6%AE%E0%A6%BE+%E0%A6%AE%E0%A6%B8%E0%A6%9C%E0%A6%BF%E0%A6%A6%29/data=!4m7!3m6!1s0x39f97b6d3806c87f:0xc965859b0cce2e6a!8m2!3d23.9569817!4d88.3106878!16s%2Fg%2F11p_2clvsf!19sChIJf8gGOG17-TkRai7ODJuFZck?authuser=0&hl=en&rclk=1,"23.9569817,88.3106878"
Puran Bazar Masjid,Mosque,"MHJ5+GFH Puran Bazar Masjid, Bashdahar, Hailakandi, Assam 788151",Bashdahar,MHJ5+GFH,Hailakandi,788151,Assam,IN,https://www.google.com/maps/place/Puran+Bazar+Masjid/data=!4m7!3m6!1s0x374e25f2a575bd23:0x647af20bfda6a8cf!8m2!3d24.6813135!4d92.5587376!16s%2Fg%2F11gfddgg0q!19sChIJI711pfIlTjcRz6im_QvyemQ?authuser=0&hl=en&rclk=1,"24.681313499999998,92.5587376"
Masjid Aathpur msjd,Mosque,"V92H+JW3 Masjid Aathpur msjd, Jagatdal, Kolkata, Bhatpara, West Bengal 743128",Jagatdal,V92H+JW3,"Kolkata, Bhatpara",743128,West Bengal,IN,https://www.google.com/maps/place/Masjid+Aathpur+%D9%85%D8%B3%D8%AC%D8%AF%E2%80%AD/data=!4m7!3m6!1s0x39f8911fb554336f:0x870f36ef79c7dce9!8m2!3d22.8515183!4d88.3797882!16s%2Fg%2F11f3rw2xpw!19sChIJbzNUtR-R-DkR6dzHee82D4c?authuser=0&hl=en&rclk=1,"22.8515183,88.3797882"
Sikinarenda pur PURATAN JUMMA MASJID sikinrendr pur puraatn jummaa msjid,Mosque,"J3PP+88P Sikinarenda pur PURATAN JUMMA MASJID sikinrendr pur puraatn jummaa msjid, Munshirhat, Gumadangi, West Bengal 711410",Munshirhat,J3PP+88P,Gumadangi,711410,West Bengal,IN,https://www.google.com/maps/place/Sikinarenda+pur+PURATAN+JUMMA+MASJID+%E0%A6%B8%E0%A6%BF%E0%A6%95%E0%A6%BF%E0%A6%A8%E0%A6%B0%E0%A7%87%E0%A6%A8%E0%A7%8D%E0%A6%A6%E0%A7%8D%E0%A6%B0+%E0%A6%AA%E0%A7%81%E0%A6%B0+%E0%A6%AA%E0%A7%81%E0%A6%B0%E0%A6%BE%E0%A6%A4%E0%A6%A8+%E0%A6%9C%E0%A7%81%E0%A6%AE%E0%A7%8D%E0%A6%AE%E0%A6%BE+%E0%A6%AE%E0%A6%B8%E0%A6%9C%E0%A6%BF%E0%A6%A6/data=!4m7!3m6!1s0x39f879b1e7a1ab69:0xa130edcad39296ec!8m2!3d22.6358396!4d88.0858248!16s%2Fg%2F11jllqw1bc!19sChIJaauh57F5-DkR7JaS08rtMKE?authuser=0&hl=en&rclk=1,"22.6358396,88.0858248"
Asharianarayanpur Jamia Masjid,Mosque,"Asharianarayanpur Jamia Masjid, Jamia Masjid, Asharianarayanpur, Taki, West Bengal 743456",,Jamia Masjid,"Asharianarayanpur, Taki",,West Bengal,IN,https://www.google.com/maps/place/Asharianarayanpur+Jamia+Masjid/data=!4m7!3m6!1s0x3a01fdcd3b2844f3:0x5a86b3bfc6d01861!8m2!3d22.5797928!4d88.8769728!16s%2Fg%2F11fjwzm5ch!19sChIJ80QoO839AToRYRjQxr-zhlo?authuser=0&hl=en&rclk=1,"22.5797928,88.87697279999999"
Paschim Jagadanandapur Masjid,Mosque,"J95H+WVW Paschim Jagadanandapur Masjid, Bethuadahari, West Bengal 741126",,J95H+WVW,Bethuadahari,,West Bengal,IN,https://www.google.com/maps/place/Paschim+Jagadanandapur+Masjid/data=!4m7!3m6!1s0x39f911b7c8938f57:0x4bddfd3311b7bf82!8m2!3d23.609872!4d88.3797017!16s%2Fg%2F11fgk7kv8z!19sChIJV4-TyLcR-TkRgr-3ETP93Us?authuser=0&hl=en&rclk=1,"23.609872,88.3797017"
Pachgoriya Masjid paaNcgriyyaa msjid,Mosque,"VXXV+C34 Pachgoriya Masjid paaNcgriyyaa msjid, Nurnagar, West Bengal 732207",,VXXV+C34,Nurnagar,,West Bengal,IN,https://www.google.com/maps/place/Pachgoriya+Masjid+%E0%A6%AA%E0%A6%BE%E0%A6%81%E0%A6%9A%E0%A6%97%E0%A6%B0%E0%A6%BF%E0%A7%9F%E0%A6%BE+%E0%A6%AE%E0%A6%B8%E0%A6%9C%E0%A6%BF%E0%A6%A6/data=!4m7!3m6!1s0x39faf7d11956d697:0x28ede1bb8b665a29!8m2!3d24.8985133!4d87.9926916!16s%2Fg%2F11h00l1gp9!19sChIJl9ZWGdH3-jkRKVpmi7vh7Sg?authuser=0&hl=en&rclk=1,"24.898513299999998,87.9926916"
Punpua Nurani Masjid,Mosque,"7F7G+2PF Punpua Nurani Masjid, Punpo, West Bengal 743372",,7F7G+2PF,Punpo,743372,West Bengal,IN,https://www.google.com/maps/place/Punpua+Nurani+Masjid/data=!4m7!3m6!1s0x3a026bdbf59e5b05:0xeb240628f315ee9!8m2!3d22.2625619!4d88.4768037!16s%2Fg%2F11f7psxvh0!19sChIJBVue9dtrAjoR6V4xj2JAsg4?authuser=0&hl=en&rclk=1,"22.262561899999998,88.47680369999999"
Patrapukur Masjid,Mosque,"Patrapukur Masjid, soth24pgs, Panapukur, Bhangr 1",Canning II,soth24pgs,"Panapukur, Badi",Bhangr 1,West Bengal,IN,https://www.google.com/maps/place/Patrapukur+Masjid/data=!4m7!3m6!1s0x3a020f4a5fe2de3f:0xe0c478e11e377019!8m2!3d22.4284726!4d88.6120286!16s%2Fg%2F11rdzyss1y!19sChIJP97iX0oPAjoRGXA3HuF4xOA?authuser=0&hl=en&rclk=1,"22.4284726,88.6120286"
Ashariya Narayonpur Jame Mosjid,Mosque,"HVFM+Q5H Ashariya Narayonpur Jame Mosjid, Raghabpur, Taki, West Bengal 743456",,HVFM+Q5H,"Raghabpur, Taki",,West Bengal,IN,https://www.google.com/maps/place/Ashariya+Narayonpur+Jame+Mosjid/data=!4m7!3m6!1s0x3a01fde5f6140ed3:0x3f7906afdd2a8226!8m2!3d22.5744482!4d88.8829887!16s%2Fg%2F11h3cv2qhr!19sChIJ0w4U9uX9AToRJoIq3a8GeT8?authuser=0&hl=en&rclk=1,"22.5744482,88.8829887"
Guwabari Purna Masjid,Mosque,"RPQR+62X Guwabari Purna Masjid, Tesimala, West Bengal 735221",,RPQR+62X,Tesimala,735221,West Bengal,IN,https://www.google.com/maps/place/Guwabari+Purna+Masjid/data=!4m7!3m6!1s0x39e40b732fdf2da3:0x4bb5f84614e75a4d!8m2!3d26.8381122!4d88.7401202!16s%2Fg%2F11f73h26ld!19sChIJoy3fL3ML5DkRTVrnFEb4tUs?authuser=0&hl=en&rclk=1,"26.838112199999998,88.74012019999999"
Pokhra Masjid,Mosque,"M6R6+79X Pokhra Masjid, Dr Sudist Colony, Hajipur, Bihar",Pokhra Muhalla,"M6R6+79X, Dr Sudist Colony",Hajipur,,Bihar,IN,https://www.google.com/maps/place/Pokhra+Masjid/data=!4m7!3m6!1s0x39ed5db9b02c5313:0x17dff7af6607fb5c!8m2!3d25.6907329!4d85.2109755!16s%2Fg%2F11hf5w_qk0!19sChIJE1MssLld7TkRXPsHZq_33xc?authuser=0&hl=en&rclk=1,"25.6907329,85.21097549999999"
Jagannath Para Purbapara Masjid,Mosque,"27H7+FWX Jagannath Para Purbapara Masjid, Vill-Jagannath Para, P.O-Roshna, P.S-Pandua, Dist, Srinagar, West Bengal",Jagannathpara,"27H7+FWX, Vill-Jagannath Para, P.O-Roshna, P.S-Pandua, Dist",Srinagar,,West Bengal,IN,https://www.google.com/maps/place/Jagannath+Para+Purbapara+Masjid/data=!4m7!3m6!1s0x39f8f3e93cfba035:0xdd291490c2a80681!8m2!3d23.0287458!4d88.2648461!16s%2Fg%2F11gxmw18fw!19sChIJNaD7POnz-DkRgQaowpAUKd0?authuser=0&hl=en&rclk=1,"23.0287458,88.2648461"
Anantapara masjid,Mosque,"QJ7J+V5V Anantapara masjid, Jadavpur, Jadabpur, West Bengal 743424",Jadavpur,QJ7J+V5V,Jadabpur,,West Bengal,IN,https://www.google.com/maps/place/Anantapara+masjid/data=!4m7!3m6!1s0x39f8a5bb9b530ba1:0x7a3ed88503f233e2!8m2!3d22.764742!4d88.6304295!16s%2Fg%2F11h118gf_0!19sChIJoQtTm7ul-DkR4jPyA4XYPno?authuser=0&hl=en&rclk=1,"22.764742,88.63042949999999"
Bhabanipur Ration Dokan Para Jummah Masjid,Mosque,"XCFC+WH5 Bhabanipur Ration Dokan Para Jummah Masjid, Bhabanipur, West Bengal 742121",,XCFC+WH5,Bhabanipur,742121,West Bengal,IN,https://www.google.com/maps/place/Bhabanipur+Ration+Dokan+Para+Jummah+Masjid/data=!4m7!3m6!1s0x39f9675043ce8d6d:0xe2e0716798e6d01e!8m2!3d23.9747743!4d88.4214839!16s%2Fg%2F11fl7vnkw2!19sChIJbY3OQ1Bn-TkRHtDmmGdx4OI?authuser=0&hl=en&rclk=1,"23.9747743,88.4214839"
UTTAR PANAPUKUR JAME MASJID (uttr paanaapukur jaame msjid),Mosque,"GJC2+XCG UTTAR PANAPUKUR JAME MASJID (uttr paanaapukur jaame msjid), Panapukur, West Bengal 743502",,GJC2+XCG,Panapukur,743502,West Bengal,IN,https://www.google.com/maps/place/UTTAR+PANAPUKUR+JAME+MASJID+%28%E0%A6%89%E0%A6%A4%E0%A7%8D%E0%A6%A4%E0%A6%B0+%E0%A6%AA%E0%A6%BE%E0%A6%A8%E0%A6%BE%E0%A6%AA%E0%A7%81%E0%A6%95%E0%A7%81%E0%A6%B0+%E0%A6%9C%E0%A6%BE%E0%A6%AE%E0%A7%87+%E0%A6%AE%E0%A6%B8%E0%A6%9C%E0%A6%BF%E0%A6%A6%29/data=!4m7!3m6!1s0x3a020943f61002fb:0x15e00526a560fb86!8m2!3d22.5224313!4d88.6010718!16s%2Fg%2F11g0l3_vtk!19sChIJ-wIQ9kMJAjoRhvtgpSYF4BU?authuser=0&hl=en&rclk=1,"22.522431299999997,88.6010718"
Narendrapur Paschimpara Jame Masjid nrendrpur pshcimpaadd'aa jaame msjid,Mosque,"J3XF+6M Narendrapur Paschimpara Jame Masjid nrendrpur pshcimpaadd'aa jaame msjid, Munshirhat, Narendrapur, West Bengal 711410",Munshirhat,J3XF+6M,Narendrapur,,West Bengal,IN,https://www.google.com/maps/place/Narendrapur+Paschimpara+Jame+Masjid+%E0%A6%A8%E0%A6%B0%E0%A7%87%E0%A6%A8%E0%A7%8D%E0%A6%A6%E0%A7%8D%E0%A6%B0%E0%A6%AA%E0%A7%81%E0%A6%B0+%E0%A6%AA%E0%A6%B6%E0%A7%8D%E0%A6%9A%E0%A6%BF%E0%A6%AE%E0%A6%AA%E0%A6%BE%E0%A6%A1%E0%A6%BC%E0%A6%BE+%E0%A6%9C%E0%A6%BE%E0%A6%AE%E0%A7%87+%E0%A6%AE%E0%A6%B8%E0%A6%9C%E0%A6%BF%E0%A6%A6/data=!4m7!3m6!1s0x39f8799a361eba1d:0x4375885dc81f9706!8m2!3d22.6480144!4d88.0742516!16s%2Fg%2F11q9h_nqs9!19sChIJHboeNpp5-DkRBpcfyF2IdUM?authuser=0&hl=en&rclk=1,"22.648014399999997,88.0742516"
Paduma jame masjid,Mosque,"HFQ3+6XJ Paduma jame masjid, Paduma, West Bengal 741154",,HFQ3+6XJ,Paduma,,West Bengal,IN,https://www.google.com/maps/place/Paduma+jame+masjid/data=!4m7!3m6!1s0x39f91744e4b7a8d3:0x18fa0dea41d7aeda!8m2!3d23.5880987!4d88.4549004!16s%2Fg%2F11jkz0qvz3!19sChIJ06i35EQX-TkR2q7XQeoN-hg?authuser=0&hl=en&rclk=1,"23.5880987,88.4549004"
Namupara Jame Masjid mhissaar naamu paaraa msjid,Mosque,"XXMX+6H9 Namupara Jame Masjid mhissaar naamu paaraa msjid, Mahishar, West Bengal 742147",,XXMX+6H9,Mahishar,,West Bengal,IN,https://www.google.com/maps/place/Namupara+Jame+Masjid+%E0%A6%AE%E0%A6%B9%E0%A6%BF%E0%A6%B7%E0%A6%BE%E0%A6%B0+%E0%A6%A8%E0%A6%BE%E0%A6%AE%E0%A7%81+%E0%A6%AA%E0%A6%BE%E0%A6%B0%E0%A6%BE+%E0%A6%AE%E0%A6%B8%E0%A6%9C%E0%A6%BF%E0%A6%A6/data=!4m7!3m6!1s0x39f98f9c70000001:0xc9b848e0c72d0c37!8m2!3d23.9830406!4d87.9989996!16s%2Fg%2F11f2xy3sgd!19sChIJAQAAcJyP-TkRNwwtx-BIuMk?authuser=0&hl=en&rclk=1,"23.9830406,87.99899959999999"
Rajendrapur Jame Masjid,Mosque,"R6PJ+VMJ Rajendrapur Jame Masjid, raajendrpur, Bangladesh",,R6PJ+VMJ,raajendrpur,,,BD,https://www.google.com/maps/place/Rajendrapur+Jame+Masjid/data=!4m7!3m6!1s0x3753f5a9f67c70d3:0x721307abc2d1609f!8m2!3d23.8372187!4d91.2316328!16s%2Fg%2F11h24qkjp3!19sChIJ03B89qn1UzcRn2DRwqsHE3I?authuser=0&hl=en&rclk=1,"23.837218699999998,91.2316328"
Masjid,Mosque,"V22F+QMG Masjid, Millat colony purunabasti, Purani Basti, Jharsuguda, Odisha 768201",Purani Basti,"V22F+QMG, Millat colony purunabasti",Jharsuguda,,Odisha,IN,https://www.google.com/maps/place/Masjid/data=!4m7!3m6!1s0x3a20e526edb9d17f:0x5da39db96c35f193!8m2!3d21.8519304!4d84.0242147!16s%2Fg%2F11q3n6p077!19sChIJf9G57SblIDoRk_E1bLmdo10?authuser=0&hl=en&rclk=1,"21.8519304,84.0242147"
Ahl-e-Hadith Masjid,Mosque,"22JW+W3 Ahl-e-Hadith Masjid, Paneribandh, Jharkhand 822110",,22JW+W3,Paneribandh,,Jharkhand,IN,https://www.google.com/maps/place/Ahl-e-Hadith+Masjid/data=!4m7!3m6!1s0x398c77f78716efa1:0x93b4ccb89a5fd709!8m2!3d24.0322518!4d84.0451361!16s%2Fg%2F11rtqznrf5!19sChIJoe8Wh_d3jDkRCddfmrjMtJM?authuser=0&hl=en&rclk=1,"24.032251799999997,84.0451361"
Masjid BURHIBIR,Mosque,"2XPM+7JM Masjid BURHIBIR, Burhibir, Jharkhand 822110",,2XPM+7JM,Burhibir,822110,Jharkhand,IN,https://www.google.com/maps/place/Masjid+BURHIBIR/data=!4m7!3m6!1s0x398c759ff2aa17c3:0x2854b2d482b04475!8m2!3d24.0357184!4d83.9840419!16s%2Fg%2F11h0fpsxh6!19sChIJwxeq8p91jDkRdUSwgtSyVCg?authuser=0&hl=en&rclk=1,"24.0357184,83.9840419"
KARIPARA PURAN MASJID,Mosque,"FHFV+6Q7 KARIPARA PURAN MASJID, Karipara, West Bengal 736121",,FHFV+6Q7,Karipara,,West Bengal,IN,https://www.google.com/maps/place/KARIPARA+PURAN+MASJID/data=!4m7!3m6!1s0x39e259fd63207981:0x1f6abbf30c367dfc!8m2!3d26.4730391!4d89.5944326!16s%2Fg%2F11q2w_x243!19sChIJgXkgY_1Z4jkR_H02DPO7ah8?authuser=0&hl=en&rclk=1,"26.473039099999998,89.59443259999999"
JHINGRAPOTA MASJID,Mosque,"Q4J5+5RC JHINGRAPOTA MASJID, Nilarpur, West Bengal 712405",,Q4J5+5RC,Nilarpur,712405,West Bengal,IN,https://www.google.com/maps/place/JHINGRAPOTA+MASJID/data=!4m7!3m6!1s0x39f87d335b5924e9:0x494fcc113538c209!8m2!3d22.7813285!4d88.1084217!16s%2Fg%2F11td45_h40!19sChIJ6SRZWzN9-DkRCcI4NRHMT0k?authuser=0&hl=en&rclk=1,"22.781328499999997,88.1084217"
Andhpara Masjid,Mosque,"2CWF+G8M Andhpara Masjid, Simulia, West Bengal 712147",,2CWF+G8M,Simulia,712147,West Bengal,IN,https://www.google.com/maps/place/Andhpara+Masjid/data=!4m7!3m6!1s0x39f8eb50fd614b9d:0xd8359e26b4ed8a5!8m2!3d23.0463349!4d88.423297!16s%2Fg%2F11sz190w4g!19sChIJnUth_VDr-DkRpdhOa-JZgw0?authuser=0&hl=en&rclk=1,"23.046334899999998,88.42329699999999"
Purna masjid,Mosque,"MMVX+R4C Purna masjid, Unnamed Road, Hiranpur Khas, Jharkhand 816104",,"MMVX+R4C, Unnamed Road",Hiranpur Khas,816104,Jharkhand,IN,https://www.google.com/maps/place/Purna+masjid/data=!4m7!3m6!1s0x39fa6f020992391b:0x1a519451c956e91c!8m2!3d24.6945572!4d87.6977681!16s%2Fg%2F11h5lzxh2s!19sChIJGzmSCQJv-jkRHOlWyVGUURo?authuser=0&hl=en&rclk=1,"24.6945572,87.69776809999999"
EARPUR NURANI MASJID,Mosque,"88X7+XRV EARPUR NURANI MASJID, Gabbaria, Iarpur, West Bengal 743503",Gabbaria,88X7+XRV,Iarpur,743503,West Bengal,IN,https://www.google.com/maps/place/EARPUR+NURANI+MASJID/data=!4m7!3m6!1s0x3a02655898f69185:0xb59f3956bb1ab5d6!8m2!3d22.3499769!4d88.3145401!16s%2Fg%2F11sh4c5dqb!19sChIJhZH2mFhlAjoR1rUau1Y5n7U?authuser=0&hl=en&rclk=1,"22.349976899999998,88.3145401"
Boheragachi Purba-Para Natun Masjid,Mosque,"QMGJ+WX5 Boheragachi Purba-Para Natun Masjid, Boheragachi Rd, Marakpur, West Bengal 743704",,"QMGJ+WX5, Boheragachi Rd",Marakpur,743704,West Bengal,IN,https://www.google.com/maps/place/Boheragachi+Purba-Para+Natun+Masjid/data=!4m7!3m6!1s0x39f8aff429c01981:0x4824619f3598deb5!8m2!3d22.7772583!4d88.6824707!16s%2Fg%2F11k7pr_7p_!19sChIJgRnAKfSv-DkRtd6YNZ9hJEg?authuser=0&hl=en&rclk=1,"22.7772583,88.6824707"
ddugrii paadd'aa jaame msjid (Dugri Para Jame Masjid),Mosque,"9QHH+QXJ ddugrii paadd'aa jaame msjid (Dugri Para Jame Masjid), Fakirtakia, West Bengal 743329",,9QHH+QXJ,Fakirtakia,743329,West Bengal,IN,https://www.google.com/maps/place/%E0%A6%A1%E0%A7%81%E0%A6%97%E0%A6%B0%E0%A7%80+%E0%A6%AA%E0%A6%BE%E0%A6%A1%E0%A6%BC%E0%A6%BE+%E0%A6%9C%E0%A6%BE%E0%A6%AE%E0%A7%87+%E0%A6%AE%E0%A6%B8%E0%A6%9C%E0%A6%BF%E0%A6%A6+%28Dugri+Para+Jame+Masjid%29/data=!4m7!3m6!1s0x3a021ddf5ac1c93f:0xdbf9857f5d1b9003!8m2!3d22.3788603!4d88.7794796!16s%2Fg%2F11sy5gbr2j!19sChIJP8nBWt8dAjoRA5AbXX-F-ds?authuser=0&hl=en&rclk=1,"22.3788603,88.7794796"
Gainpur Jame Masjid,Mosque,"4RVH+4FG Gainpur Jame Masjid, Gainpur, West Bengal 743251",,4RVH+4FG,Gainpur,743251,West Bengal,IN,https://www.google.com/maps/place/Gainpur+Jame+Masjid/data=!4m7!3m6!1s0x39ff3255aaaaaaab:0x241b8f36c7a40754!8m2!3d23.1428064!4d88.8287014!16s%2Fg%2F11gg6dkh5f!19sChIJq6qqqlUy_zkRVAekxzaPGyQ?authuser=0&hl=en&rclk=1,"23.142806399999998,88.8287014"
Daltanpur Karkhana Jummah Masjid,Mosque,"2CX3+RHG Daltanpur Karkhana Jummah Masjid, West Bengal 742166",,2CX3+RHG,,,West Bengal,IN,https://www.google.com/maps/place/Daltanpur+Karkhana+Jummah+Masjid/data=!4m7!3m6!1s0x39f9616012783d3b:0x7c56ec62f6063e89!8m2!3d24.0495524!4d88.4039549!16s%2Fg%2F11n0zscbq8!19sChIJOz14EmBh-TkRiT4G9mLsVnw?authuser=0&hl=en&rclk=1,"24.0495524,88.4039549"
Paranchak Jumma masjid,Mosque,"MC8M+H98 Paranchak Jumma masjid, Chak Paran, Chak Rasik, West Bengal 731214",,MC8M+H98,"Chak Paran, Chak Rasik",,West Bengal,IN,https://www.google.com/maps/place/Paranchak+Jumma+masjid/data=!4m7!3m6!1s0x39f7677ab4096e51:0xd29af1f84fc7eaf5!8m2!3d23.666408!4d87.4334389!16s%2Fg%2F11jf9qqgkg!19sChIJUW4JtHpn9zkR9erHT_jxmtI?authuser=0&hl=en&rclk=1,"23.666408,87.4334389"
Pathratore Jummah Masjid,Mosque,"4X28+797 Pathratore Jummah Masjid, Pathrator, West Bengal 722121",,4X28+797,Pathrator,,West Bengal,IN,https://www.google.com/maps/place/Pathratore+Jummah+Masjid/data=!4m7!3m6!1s0x39f7b3c96acef14b:0xb1baf8453f5b4b19!8m2!3d23.1006637!4d86.9659137!16s%2Fg%2F11s7ft1303!19sChIJS_HOasmz9zkRGUtbP0X4urE?authuser=0&hl=en&rclk=1,"23.1006637,86.9659137"
Shisharamjan Pur Jummah Masjid,Mosque,"96X2+PC8 Shisharamjan Pur Jummah Masjid, Bilnasipur, West Bengal 742148",,96X2+PC8,Bilnasipur,,West Bengal,IN,https://www.google.com/maps/place/Shisharamjan+Pur+Jummah+Masjid/data=!4m7!3m6!1s0x39fbcdb779ac3d19:0xa94cb58cda84187!8m2!3d24.3992776!4d88.2010694!16s%2Fg%2F11f9wbvnk6!19sChIJGT2sebfN-zkRh0GozVjLlAo?authuser=0&hl=en&rclk=1,"24.399277599999998,88.2010694"
Namosahapur Jumma Masjid,Mosque,"RF4X+8PG Namosahapur Jumma Masjid, Sahapur-Narayanpur Rd, Sahapur P, West Bengal 712410",,"RF4X+8PG, Sahapur-Narayanpur Rd, Sahapur P",Dostabad,712410,West Bengal,IN,https://www.google.com/maps/place/Namosahapur+Jumma+Masjid/data=!4m7!3m6!1s0x39f75fd88a8ecdcb:0x5d2046294203f95e!8m2!3d23.8058187!4d87.4993295!16s%2Fg%2F11ptl7796c!19sChIJy82Oithf9zkRXvkDQilGIF0?authuser=0&hl=en&rclk=1,"23.8058187,87.4993295"
Sikinarenda pur PURATAN JUMMA MOSJID sikinrendr pur puraatn jmmu msjid,Mosque,"Sikinarenda pur PURATAN JUMMA MOSJID sikinrendr pur puraatn jmmu msjid, Sikinarenda pur, Dakshin Para, munshirhat, Howrah, Kolkata, West Bengal 711410","Dakshin Para, munshirhat",Sikinarenda pur,"Howrah, Kolkata",711410,West Bengal,IN,https://www.google.com/maps/place/Sikinarenda+pur+PURATAN+JUMMA+MOSJID+%E0%A6%B8%E0%A6%BF%E0%A6%95%E0%A6%BF%E0%A6%A8%E0%A6%B0%E0%A7%87%E0%A6%A8%E0%A7%8D%E0%A6%A6%E0%A7%8D%E0%A6%B0+%E0%A6%AA%E0%A7%81%E0%A6%B0+%E0%A6%AA%E0%A7%81%E0%A6%B0%E0%A6%BE%E0%A6%A4%E0%A6%A8+%E0%A6%9C%E0%A6%AE%E0%A7%8D%E0%A6%AE%E0%A7%81+%E0%A6%AE%E0%A6%B8%E0%A6%9C%E0%A6%BF%E0%A6%A6/data=!4m7!3m6!1s0x3a0271a578779b21:0xabad7e8f5e169fb6!8m2!3d22.4690819!4d88.3403267!16s%2Fg%2F11jjpt7v3j!19sChIJIZt3eKVxAjoRtp8WXo9-ras?authuser=0&hl=en&rclk=1,"22.4690819,88.34032669999999"
Chak Aminpur uttar para Jame masjid,Mosque,"MHM9+3Q Chak Aminpur uttar para Jame masjid, Pakdaha, West Bengal 700125",,MHM9+3Q,Pakdaha,,West Bengal,IN,https://www.google.com/maps/place/Chak+Aminpur+uttar+para+Jame+masjid/data=!4m7!3m6!1s0x39f8a7143252cbb7:0xe84645884e220804!8m2!3d22.6827089!4d88.5694663!16s%2Fg%2F11s90qlpbq!19sChIJt8tSMhSn-DkRBAgiTohFRug?authuser=0&hl=en&rclk=1,"22.682708899999998,88.5694663"
Mosjid A Rowhmina,Mosque,"GHFV+MFX Mosjid A Rowhmina, Nimkuria, West Bengal 743502",,GHFV+MFX,Nimkuria,,West Bengal,IN,https://www.google.com/maps/place/Mosjid+A+Rowhmina/data=!4m7!3m6!1s0x3a0209e1272acdd5:0xddcafc27fd3abf8b!8m2!3d22.524243!4d88.5937299!16s%2Fg%2F11j8k2hjq3!19sChIJ1c0qJ-EJAjoRi786_Sf8yt0?authuser=0&hl=en&rclk=1,"22.524243,88.5937299"
Pathuriya Paschimpara Jame Masjid,Mosque,"HHR3+RGQ Pathuriya Paschimpara Jame Masjid, Bania Khari, West Bengal 741124",,HHR3+RGQ,Bania Khari,741124,West Bengal,IN,https://www.google.com/maps/place/Pathuriya+Paschimpara+Jame+Masjid/data=!4m7!3m6!1s0x39f93d89feb28a33:0xbe9780b770b498e2!8m2!3d23.5920835!4d88.5538746!16s%2Fg%2F11swpggrt3!19sChIJM4qy_ok9-TkR4pi0cLeAl74?authuser=0&hl=en&rclk=1,"23.592083499999998,88.5538746"
Pakuria puratan masjid,Mosque,"V82X+RV Pakuria puratan masjid, Gopalnagar, West Bengal 731123",,V82X+RV,Gopalnagar,,West Bengal,IN,https://www.google.com/maps/place/Pakuria+puratan+masjid/data=!4m7!3m6!1s0x39f745071197d78f:0xb137f169976bf49b!8m2!3d23.851264!4d87.350464!16s%2Fg%2F11tg41jrt6!19sChIJj9eXEQdF9zkRm_Rrl2nxN7E?authuser=0&hl=en&rclk=1,"23.851264,87.350464"
bamanpara masjid (E),Mosque,"WH9W+MH2 bamanpara masjid (E), Bamanpara, West Bengal 741249",,WH9W+MH2,Bamanpara,,West Bengal,IN,https://www.google.com/maps/place/bamanpara+masjid+%28E%29/data=!4m7!3m6!1s0x39f8b9241eabc087:0x5f1cc5bcb863cc6e!8m2!3d22.9191437!4d88.5964061!16s%2Fg%2F11tw_njhm4!19sChIJh8CrHiS5-DkRbsxjuLzFHF8?authuser=0&hl=en&rclk=1,"22.9191437,88.5964061"
Krishnajibanpur Masjid,Mosque,"442V+MWM Krishnajibanpur Masjid, Krishnajibanpur, West Bengal 713146",,442V+MWM,Krishnajibanpur,713146,West Bengal,IN,https://www.google.com/maps/place/Krishnajibanpur+Masjid/data=!4m7!3m6!1s0x39f859a36dfc2361:0xbd8565c18987ec3f!8m2!3d23.1017105!4d88.1447868!16s%2Fg%2F11n0bwbxrk!19sChIJYSP8baNZ-DkRP-yHicFlhb0?authuser=0&hl=en&rclk=1,"23.1017105,88.14478679999999"
gayenpara masjid,Mosque,"3G7R+39 gayenpara masjid, Purba Gabtala, West Bengal 743338",,3G7R+39,Purba Gabtala,,West Bengal,IN,https://www.google.com/maps/place/gayenpara+masjid/data=!4m7!3m6!1s0x3a0239bb33cff9a5:0xb8f227b95bd1b2b2!8m2!3d22.0626167!4d88.5409179!16s%2Fg%2F11sq5fbyr0!19sChIJpfnPM7s5AjoRsrLRW7kn8rg?authuser=0&hl=en&rclk=1,"22.0626167,88.5409179"
Rukashpur Masjid rukaashpur msjid,Mosque,"85HX+RQM Rukashpur Masjid rukaashpur msjid, East, Maraipiri, West Bengal",,"85HX+RQM, East",Maraipiri,,West Bengal,IN,https://www.google.com/maps/place/Rukashpur+Masjid+%E0%A6%B0%E0%A7%81%E0%A6%95%E0%A6%BE%E0%A6%B6%E0%A6%AA%E0%A7%81%E0%A6%B0+%E0%A6%AE%E0%A6%B8%E0%A6%9C%E0%A6%BF%E0%A6%A6/data=!4m7!3m6!1s0x39f8ff1b1a0ae789:0xac9c1e9e0ae3f6ef!8m2!3d23.3295792!4d88.1994092!16s%2Fg%2F11jyw5fk1y!19sChIJiecKGhv_-DkR7_bjCp4enKw?authuser=0&hl=en&rclk=1,"23.329579199999998,88.19940919999999"
Jumma masjid aalipur dkssinn paarraa msjd,Mosque,"P55Q+P6C Jumma masjid aalipur dkssinn paarraa msjd, Alipur Rd, Bhagabatipur, Nababpur, Alipur, West Bengal 712701",Bhagabatipur,"P55Q+P6C, Alipur Rd","Nababpur, Alipur",712701,West Bengal,IN,https://www.google.com/maps/place/Jumma+masjid+%E0%A6%86%E0%A6%B2%E0%A6%BF%E0%A6%AA%E0%A7%81%E0%A6%B0+%E0%A6%A6%E0%A6%95%E0%A7%8D%E0%A6%B7%E0%A6%BF%E0%A6%A3+%E0%A6%AA%E0%A6%BE%E0%A7%9C%E0%A6%BE+%D9%85%D8%B3%D8%AC%D8%AF%E2%80%AD/data=!4m7!3m6!1s0x39f887b9bb5cec8b:0xdc74747d2bbcf60e!8m2!3d22.7093232!4d88.1880253!16s%2Fg%2F11thkw73cj!19sChIJi-xcu7mH-DkRDva8K310dNw?authuser=0&hl=en&rclk=1,"22.7093232,88.18802529999999"
Pilsowa jame masjid,Mosque,"GVC6+25 Pilsowa jame masjid, Pilsoan, West Bengal 713147",,GVC6+25,Pilsoan,,West Bengal,IN,https://www.google.com/maps/place/Pilsowa+jame+masjid/data=!4m7!3m6!1s0x39f9b7a195053ccd:0xd27f6462d8995e62!8m2!3d23.520074!4d87.8604685!16s%2Fg%2F11trgdf5wd!19sChIJzTwFlaG3-TkRYl6Z2GJkf9I?authuser=0&hl=en&rclk=1,"23.520073999999997,87.8604685"
Dwipchandrapur JUMMA MASJID,Mosque,"HMQ4+8Q4 Dwipchandrapur JUMMA MASJID, Dwipchandrapur, Bankul, West Bengal 713520",,HMQ4+8Q4,"Dwipchandrapur, Bankul",,West Bengal,IN,https://www.google.com/maps/place/Dwipchandrapur+JUMMA+MASJID/data=!4m7!3m6!1s0x39f9dbd2af7cad4d:0x13f0cddee933b0a2!8m2!3d23.5882618!4d87.6569657!16s%2Fg%2F11qgc247rm!19sChIJTa18r9Lb-TkRorAz6d7N8BM?authuser=0&hl=en&rclk=1,"23.588261799999998,87.6569657"
Patinahar jumma masjid paatinaahaar jumaa maasjid,Mosque,"84VQ+GJV Patinahar jumma masjid paatinaahaar jumaa maasjid, Patinahar, Ghritatala, West Bengal 733128",,84VQ+GJV,"Patinahar, Ghritatala",,West Bengal,IN,https://www.google.com/maps/place/Patinahar+jumma+masjid+%E0%A6%AA%E0%A6%BE%E0%A6%A4%E0%A6%BF%E0%A6%A8%E0%A6%BE%E0%A6%B9%E0%A6%BE%E0%A6%B0+%E0%A6%9C%E0%A7%81%E0%A6%AE%E0%A6%BE+%E0%A6%AE%E0%A6%BE%E0%A6%B8%E0%A6%9C%E0%A6%BF%E0%A6%A6/data=!4m7!3m6!1s0x39fadf6bc592f52b:0x821a51e5e89f40df!8m2!3d25.343856!4d88.1390502!16s%2Fg%2F11swglgldr!19sChIJK_WSxWvf-jkR30Cf6OVRGoI?authuser=0&hl=en&rclk=1,"25.343856,88.1390502"
Baytunnur Jame Masjid,Mosque,"QFQ3+25 Baytunnur Jame Masjid, Narayanpur, West Bengal 721201",,QFQ3+25,Narayanpur,,West Bengal,IN,https://www.google.com/maps/place/Baytunnur+Jame+Masjid/data=!4m7!3m6!1s0x39f7fb47cc472c93:0xc6d40c11d32fc178!8m2!3d22.7875067!4d87.452935!16s%2Fg%2F11s457hqkh!19sChIJkyxHzEf79zkReMEv0xEM1MY?authuser=0&hl=en&rclk=1,"22.787506699999998,87.452935"
Millat colony,Mosque,"V25F+263 Millat colony, near purna, Purani Basti, Jharsuguda, Odisha 768201",Purani Basti,"V25F+263, near purna",Jharsuguda,,Odisha,IN,https://www.google.com/maps/place/Millat+colony/data=!4m7!3m6!1s0x3a20e5253a7ab387:0x5873a04ee8b9e2e8!8m2!3d21.8575023!4d84.0230606!16s%2Fg%2F11spx766ln!19sChIJh7N6OiXlIDoR6OK56E6gc1g?authuser=0&hl=en&rclk=1,"21.8575023,84.0230606"
Pakurpukuria Jumma Masjid,Mosque,"Pakurpukuria Jumma Masjid, Mirzadighi, West Bengal 733128",,,Mirzadighi,,West Bengal,IN,https://www.google.com/maps/place/Pakurpukuria+Jumma+Masjid/data=!4m7!3m6!1s0x39fadf974852b6cd:0x8570319fe8caa279!8m2!3d25.3517155!4d88.1621853!16s%2Fg%2F11k40q0wq9!19sChIJzbZSSJff-jkReaLK6J8xcIU?authuser=0&hl=en&rclk=1,"25.351715499999997,88.16218529999999"
Shisharamjanpur aktiya masjid,Mosque,"96V6+2HC Shisharamjanpur aktiya masjid, Amarkunda, West Bengal 742151",,96V6+2HC,Amarkunda,,West Bengal,IN,https://www.google.com/maps/place/Shisharamjanpur+aktiya+masjid/data=!4m7!3m6!1s0x39fbcdebd90fe613:0xa001e9b8d66725c3!8m2!3d24.392461!4d88.2113984!16s%2Fg%2F11tml7mdv4!19sChIJE-YP2evN-zkRwyVn1rjpAaA?authuser=0&hl=en&rclk=1,"24.392460999999997,88.2113984"
Ranpur Jumma Masjid,Mosque,"9RW4+QF4 Ranpur Jumma Masjid, Unnamed Road, Panpur, West Bengal 731238",,"9RW4+QF4, Unnamed Road",Panpur,731238,West Bengal,IN,https://www.google.com/maps/place/Ranpur+Jumma+Masjid/data=!4m7!3m6!1s0x39fa168e18e09e81:0xb9808106cb63f0cb!8m2!3d24.396885!4d87.8061957!16s%2Fg%2F11gf0hn4vb!19sChIJgZ7gGI4W-jkRy_BjywaBgLk?authuser=0&hl=en&rclk=1,"24.396884999999997,87.80619569999999"
Jhulanpur Jummah mosjid,Mosque,"523P+R4 Jhulanpur Jummah mosjid, Jhulanpur, West Bengal 742184",,523P+R4,Jhulanpur,,West Bengal,IN,https://www.google.com/maps/place/Jhulanpur+Jummah+mosjid/data=!4m7!3m6!1s0x39fa29a01e6cac1d:0x1ecb60037a76aa0d!8m2!3d24.154568!4d88.0353389!16s%2Fg%2F11sgr2h05m!19sChIJHaxsHqAp-jkRDap2egNgyx4?authuser=0&hl=en&rclk=1,"24.154567999999998,88.0353389"
Amjua Masjid,Mosque,"429M+R6 Amjua Masjid, Durga Rampur, West Bengal 742159",,429M+R6,Durga Rampur,,West Bengal,IN,https://www.google.com/maps/place/Amjua+Masjid/data=!4m7!3m6!1s0x39f987633e7d53e7:0x71e911c73a10bc4f!8m2!3d24.119512!4d88.0330218!16s%2Fg%2F11s4q1q140!19sChIJ51N9PmOH-TkRT7wQOscR6XE?authuser=0&hl=en&rclk=1,"24.119512,88.0330218"
LAHUCHAR I JUMMA MASJID (puurb lhucr jummaa msjid),Mosque,"9667+XX5 LAHUCHAR I JUMMA MASJID (puurb lhucr jummaa msjid), Lahuchar I, West Bengal 733125",,9667+XX5,Lahuchar I,733125,West Bengal,IN,https://www.google.com/maps/place/LAHUCHAR+I+JUMMA+MASJID+%28%E0%A6%AA%E0%A7%82%E0%A6%B0%E0%A7%8D%E0%A6%AC+%E0%A6%B2%E0%A6%B9%E0%A7%81%E0%A6%9A%E0%A6%B0+%E0%A6%9C%E0%A7%81%E0%A6%AE%E0%A7%8D%E0%A6%AE%E0%A6%BE+%E0%A6%AE%E0%A6%B8%E0%A6%9C%E0%A6%BF%E0%A6%A6%29/data=!4m7!3m6!1s0x39fb21ae75d85bd1:0x69bd625f5b4592d4!8m2!3d25.3624721!4d88.2150038!16s%2Fg%2F11k3yzhy3q!19sChIJ0VvYda4h-zkR1JJFW19ivWk?authuser=0&hl=en&rclk=1,"25.362472099999998,88.21500379999999"
Menapur jame masjid,Mosque,"CRV9+Q33 Menapur jame masjid, Menapur, West Bengal 733141",,CRV9+Q33,Menapur,,West Bengal,IN,https://www.google.com/maps/place/Menapur+jame+masjid/data=!4m7!3m6!1s0x39fca794045a6e21:0xb127a6e98cec8ecb!8m2!3d25.4443958!4d88.8176798!16s%2Fg%2F11nxsdtztz!19sChIJIW5aBJSn_DkRy47sjOmmJ7E?authuser=0&hl=en&rclk=1,"25.4443958,88.8176798"
Taspara jumma Masjid,Mosque,"84CF+Q44 Taspara jumma Masjid, Tospara, West Bengal 742226",,84CF+Q44,Tospara,,West Bengal,IN,https://www.google.com/maps/place/Taspara+jumma+Masjid/data=!4m7!3m6!1s0x39fa2d17b1ae41b7:0xe83d98414ea0e650!8m2!3d24.3218847!4d88.1228369!16s%2Fg%2F11trlqt9dg!19sChIJt0GusRct-jkRUOagTkGYPeg?authuser=0&hl=en&rclk=1,"24.3218847,88.1228369"
BANDHAIPUR JUMMA MASJID baaNdhaaipur jummaa msjid,Mosque,"GWH2+4QH BANDHAIPUR JUMMA MASJID baaNdhaaipur jummaa msjid, Bandhaipur, West Bengal 731222",,GWH2+4QH,Bandhaipur,,West Bengal,IN,https://www.google.com/maps/place/BANDHAIPUR+JUMMA+MASJID+%E0%A6%AC%E0%A6%BE%E0%A6%81%E0%A6%A7%E0%A6%BE%E0%A6%87%E0%A6%AA%E0%A7%81%E0%A6%B0+%E0%A6%9C%E0%A7%81%E0%A6%AE%E0%A7%8D%E0%A6%AE%E0%A6%BE+%E0%A6%AE%E0%A6%B8%E0%A6%9C%E0%A6%BF%E0%A6%A6/data=!4m7!3m6!1s0x39fa4183aa579b9f:0x6732cd8f8a0659e3!8m2!3d24.5278118!4d87.9019945!16s%2Fg%2F11kjh567yz!19sChIJn5tXqoNB-jkR41kGio_NMmc?authuser=0&hl=en&rclk=1,"24.5278118,87.9019945"
paabaa msjid,Mosque,"RM7F+GG paabaa msjid, Paba, West Bengal 712614",,RM7F+GG,Paba,,West Bengal,IN,https://www.google.com/maps/place/%E0%A6%AA%E0%A6%BE%E0%A6%AC%E0%A6%BE+%E0%A6%AE%E0%A6%B8%E0%A6%9C%E0%A6%BF%E0%A6%A6/data=!4m7!3m6!1s0x39f81b9de966d28f:0xc9f9314db6560085!8m2!3d22.8138175!4d87.6738049!16s%2Fg%2F11pzh43y7_!19sChIJj9Jm6Z0b-DkRhQBWtk0x-ck?authuser=0&hl=en&rclk=1,"22.8138175,87.6738049"
Dhalaguri purna jame masjid,Mosque,"JFH5+28P Dhalaguri purna jame masjid, Vill.dhalaguri, dist, Assam",,"JFH5+28P, Vill.dhalaguri, dist",Orang Protected Forest Area,,Assam,IN,https://www.google.com/maps/place/Dhalaguri+purna+jame+masjid/data=!4m7!3m6!1s0x375b331267f4fa51:0xdb2913d24c487df5!8m2!3d26.6275755!4d92.458327!16s%2Fg%2F11kpl9z421!19sChIJUfr0ZxIzWzcR9X1ITNITKds?authuser=0&hl=en&rclk=1,"26.6275755,92.458327"
Shibpur Puran Masjid,Mosque,"7736+9W2 Shibpur Puran Masjid, Kurshamari Pratham Khanda, West Bengal 736172",,7736+9W2,Kurshamari Pratham Khanda,,West Bengal,IN,https://www.google.com/maps/place/Shibpur+Puran+Masjid/data=!4m7!3m6!1s0x39e305cd7c2dbe53:0x17c6eed8ec8b01b3!8m2!3d26.253387!4d89.2622614!16s%2Fg%2F11rwsbkhvr!19sChIJU74tfM0F4zkRswGL7Njuxhc?authuser=0&hl=en&rclk=1,"26.253387,89.2622614"
PashchimPara(Notun) Jame Masjid,Mosque,"WF5F+4JF PashchimPara(Notun) Jame Masjid, Shibdaspur, West Bengal 743145",,WF5F+4JF,Shibdaspur,743145,West Bengal,IN,https://www.google.com/maps/place/PashchimPara%28Notun%29+Jame+Masjid/data=!4m7!3m6!1s0x39f895bc813e93bb:0x57dffe271462eab3!8m2!3d22.9078149!4d88.474034!16s%2Fg%2F11mr11630z!19sChIJu5M-gbyV-DkRs-piFCf-31c?authuser=0&hl=en&rclk=1,"22.907814899999998,88.47403399999999"
Bhejanpur Masjid,Mosque,"37MH+FRC Bhejanpur Masjid, Pandua, West Bengal 712149",,37MH+FRC,Pandua,,West Bengal,IN,https://www.google.com/maps/place/Bhejanpur+Masjid/data=!4m7!3m6!1s0x39f8f346588df2b3:0x14411134f8cd14b0!8m2!3d23.083664!4d88.2795086!16s%2Fg%2F11s32fmp9y!19sChIJs_KNWEbz-DkRsBTN-DQRQRQ?authuser=0&hl=en&rclk=1,"23.083664,88.2795086"
Paranchapur Jumma Masjid,Mosque,"X7J5+HG8 Paranchapur Jumma Masjid, Unnamed Road, Paranchapur, West Bengal 712148",,"X7J5+HG8, Unnamed Road",Paranchapur,712148,West Bengal,IN,https://www.google.com/maps/place/Paranchapur+Jumma+Masjid/data=!4m7!3m6!1s0x39f88df5643edc63:0x31dda62e7f97a00!8m2!3d22.9814013!4d88.2588344!16s%2Fg%2F11flg08lk6!19sChIJY9w-ZPWN-DkRAHr552LaHQM?authuser=0&hl=en&rclk=1,"22.981401299999998,88.2588344"
Porun jumma masjid,Mosque,"3VX7+V63 Porun jumma masjid, Porun, West Bengal 731244",,3VX7+V63,Porun,,West Bengal,IN,https://www.google.com/maps/place/Porun+jumma+masjid/data=!4m7!3m6!1s0x39f98b07940042ff:0xdf14cbaa65e1a4eb!8m2!3d24.0996388!4d87.8630412!16s%2Fg%2F11ll6kq44r!19sChIJ_0IAlAeL-TkR66ThZarLFN8?authuser=0&hl=en&rclk=1,"24.099638799999997,87.8630412"
Dakhin Parpatna Jame Masjid,Mosque,"QPP2+45G Dakhin Parpatna Jame Masjid, Parpatna, West Bengal 743271",,QPP2+45G,Parpatna,,West Bengal,IN,https://www.google.com/maps/place/Dakhin+Parpatna+Jame+Masjid/data=!4m7!3m6!1s0x39f8af3780f60233:0xc653915e66ccf14f!8m2!3d22.785321!4d88.7004382!16s%2Fg%2F11qrp6g5dl!19sChIJMwL2gDev-DkRT_HMZl6RU8Y?authuser=0&hl=en&rclk=1,"22.785321,88.7004382"
Udanpur Nurani Jame Masjid(New),Mosque,"VHVH+R4P Udanpur Nurani Jame Masjid(New), Via, patnda, Bhagabanbati, Dhananjoybati, West Bengal 731129",patnda,"VHVH+R4P, Via","Bhagabanbati, Dhananjoybati",731129,West Bengal,IN,https://www.google.com/maps/place/Udanpur+Nurani+Jame+Masjid%28New%29/data=!4m7!3m6!1s0x39f9e3b18a04c3db:0x40a509add47fb9e1!8m2!3d23.8945827!4d87.5778247!16s%2Fg%2F11nx23bj16!19sChIJ28MEirHj-TkR4bl_1K0JpUA?authuser=0&hl=en&rclk=1,"23.894582699999997,87.5778247"
PURDAH JAME MASJID,Mosque,"6V42+GM PURDAH JAME MASJID, Purdaha, West Bengal 743251",,6V42+GM,Purdaha,,West Bengal,IN,https://www.google.com/maps/place/PURDAH+JAME+MASJID/data=!4m7!3m6!1s0x39ff2dbe23b7c487:0xd854bc30fa7b0770!8m2!3d23.2063592!4d88.8517113!16s%2Fg%2F11txdk0q1c!19sChIJh8S3I74t_zkRcAd7-jC8VNg?authuser=0&hl=en&rclk=1,"23.206359199999998,88.85171129999999"
"JUMMAH MASJID, PENCHERPARA, PURBAPARA",Mosque,"5H6X+97C JUMMAH MASJID, PENCHERPARA, PURBAPARA, Debottar Lakshminarayanpur, West Bengal 742304",,5H6X+97C,Debottar Lakshminarayanpur,742304,West Bengal,IN,"https://www.google.com/maps/place/JUMMAH+MASJID,+PENCHERPARA,+PURBAPARA/data=!4m7!3m6!1s0x39fbe33869c51303:0x17ae150362b85329!8m2!3d24.1609331!4d88.5981277!16s%2Fg%2F11vlh8gt20!19sChIJAxPFaTjj-zkRKVO4YgMVrhc?authuser=0&hl=en&rclk=1","24.160933099999998,88.59812769999999"
Parsahapur Jumma Masjid,Mosque,"86JJ+P96 Parsahapur Jumma Masjid, Baghadanga Rd, Simulgoria, Kharashgram, West Bengal 713405",,"86JJ+P96, Baghadanga Rd","Simulgoria, Kharashgram",713405,West Bengal,IN,https://www.google.com/maps/place/Parsahapur+Jumma+Masjid/data=!4m7!3m6!1s0x39f8ff6167ee1585:0x57d0ad7d91bcaecd!8m2!3d23.3317817!4d88.2308756!16s%2Fg%2F11svlb9sxb!19sChIJhRXuZ2H_-DkRza68kX2t0Fc?authuser=0&hl=en&rclk=1,"23.3317817,88.23087559999999"
PARATPUR JAME MASJID,Mosque,"QFF5+J2 PARATPUR JAME MASJID, Paratpur, West Bengal 731124",,QFF5+J2,Paratpur,,West Bengal,IN,https://www.google.com/maps/place/PARATPUR+JAME+MASJID/data=!4m7!3m6!1s0x39f75d8dac101f37:0x24743c957d0d6242!8m2!3d23.7741059!4d87.457563!16s%2Fg%2F11t992jv2l!19sChIJNx8QrI1d9zkRQmINfZU8dCQ?authuser=0&hl=en&rclk=1,"23.7741059,87.457563"
Monoharpur Jumma Masjid,Mosque,"X7M8+72 Monoharpur Jumma Masjid, Talpukur, West Bengal 732122",,X7M8+72,Talpukur,,West Bengal,IN,https://www.google.com/maps/place/Monoharpur+Jumma+Masjid/data=!4m7!3m6!1s0x39fb0778fffcb799:0x320d7d7405df5380!8m2!3d24.9832032!4d88.2650711!16s%2Fg%2F11tjl2dj7x!19sChIJmbf8_3gH-zkRgFPfBXR9DTI?authuser=0&hl=en&rclk=1,"24.9832032,88.2650711"
Aryapadmapur jama masjid,Mosque,"PHQF+CWM Aryapadmapur jama masjid, Arya Padyapur, West Bengal 721453",,PHQF+CWM,Arya Padyapur,,West Bengal,IN,https://www.google.com/maps/place/Aryapadmapur+jama+masjid/data=!4m7!3m6!1s0x3a032dedd2046c51:0x136510afc7ea1614!8m2!3d21.7385803!4d87.5748053!16s%2Fg%2F11kj7y42q1!19sChIJUWwE0u0tAzoRFBbqx68QZRM?authuser=0&hl=en&rclk=1,"21.7385803,87.5748053"
Pearpur Jumma Mosjid,Mosque,"WGJ5+4FP Pearpur Jumma Mosjid, Pearpur, West Bengal 741165",,WGJ5+4FP,Pearpur,,West Bengal,IN,https://www.google.com/maps/place/Pearpur+Jumma+Mosjid/data=!4m7!3m6!1s0x39f9436eef0fac2f:0x554858a2ead5c36f!8m2!3d23.9303288!4d88.5086962!16s%2Fg%2F11h_z8cm48!19sChIJL6wP725D-TkRb8PV6qJYSFU?authuser=0&hl=en&rclk=1,"23.930328799999998,88.5086962"
Nanasol jame masjid,Mosque,"MH52+CV Nanasol jame masjid, Nanasol, West Bengal 731236",,MH52+CV,Nanasol,,West Bengal,IN,https://www.google.com/maps/place/Nanasol+jame+masjid/data=!4m7!3m6!1s0x39f9df758b3766df:0xffcf1702ddf5d5!8m2!3d23.6585798!4d87.5521809!16s%2Fg%2F11s58kv830!19sChIJ32Y3i3Xf-TkR1fXdAhfP_wA?authuser=0&hl=en&rclk=1,"23.6585798,87.5521809"
Pukurpara (Noyadighipar) Jame masjid,Mosque,"GF7H+V44 Pukurpara (Noyadighipar) Jame masjid, Pukurpar Raypur, West Bengal 733132",,GF7H+V44,Pukurpar Raypur,733132,West Bengal,IN,https://www.google.com/maps/place/Pukurpara+%28Noyadighipar%29+Jame+masjid/data=!4m7!3m6!1s0x39fb37339213a47f:0x88d21584d423ef62!8m2!3d25.5146466!4d88.4778305!16s%2Fg%2F11p76mlzg1!19sChIJf6QTkjM3-zkRYu8j1IQV0og?authuser=0&hl=en&rclk=1,"25.5146466,88.4778305"
Puran masjid,Mosque,"RPCJ+VPR Puran masjid, Haihaipathar, West Bengal 735221",,RPCJ+VPR,Haihaipathar,,West Bengal,IN,https://www.google.com/maps/place/Puran+masjid/data=!4m7!3m6!1s0x39e40bc8b83e44f3:0x9b4f19b7dce48338!8m2!3d26.8222415!4d88.7317564!16s%2Fg%2F11v42fwh6_!19sChIJ80Q-uMgL5DkROIPk3LcZT5s?authuser=0&hl=en&rclk=1,"26.8222415,88.7317564"
