name,main_category,address,address_ward,address_street,address_city,address_postal_code,address_state,address_country_code,link,coordinates
jmiyyttu ahlil kuraannn vl htiis naakuur. (JAQH Nagore),Mosque,"RR8Q+JWC jmiyyttu ahlil kuraannn vl htiis naakuur. (JAQH Nagore), Siya Maraicar St, Nagore, Nagapattinam, Tamil Nadu 611002",Nagore,"RR8Q+JWC, Siya Maraicar St",Nagapattinam,611002,Tamil Nadu,IN,https://www.google.com/maps/place/%E0%AE%9C%E0%AE%AE%E0%AF%8D%E0%AE%87%E0%AE%AF%E0%AF%8D%E0%AE%AF%E0%AE%A4%E0%AF%8D%E0%AE%A4%E0%AF%81+%E0%AE%85%E0%AE%B9%E0%AF%8D%E0%AE%B2%E0%AE%BF%E0%AE%B2%E0%AF%8D+%E0%AE%95%E0%AF%81%E0%AE%B0%E0%AF%8D%E0%AE%86%E0%AE%A9%E0%AF%8D+%E0%AE%B5%E0%AE%B2%E0%AF%8D+%E0%AE%B9%E0%AE%A4%E0%AF%80%E0%AE%B8%E0%AF%8D+%E0%AE%A8%E0%AE%BE%E0%AE%95%E0%AF%82%E0%AE%B0%E0%AF%8D.+%28JAQH+Nagore%29/data=!4m7!3m6!1s0x3a55135269571b7b:0x988d2b25f8781e81!8m2!3d10.816551!4d79.8397695!16s%2Fg%2F1tl8j40p!19sChIJextXaVITVToRgR54-CUrjZg?authuser=0&hl=en&rclk=1,"10.816550999999999,79.8397695"
Tamilnadu Thowheed Jamath Mosque tvhiit pllllivaacl,Mosque,"Tamilnadu Thowheed Jamath Mosque tvhiit pllllivaacl, No:20/14 Onion Bazar Street, ASN Colony, Melakottaivasal, Nagore, Nagapattinam, Tamil Nadu 611001","ASN Colony, Melakottaivasal, Nagore",No:20/14 Onion Bazar Street,Nagapattinam,611001,Tamil Nadu,IN,https://www.google.com/maps/place/Tamilnadu+Thowheed+Jamath+Mosque+%E0%AE%A4%E0%AE%B5%E0%AF%8D%E0%AE%B9%E0%AF%80%E0%AE%A4%E0%AF%8D+%E0%AE%AA%E0%AE%B3%E0%AF%8D%E0%AE%B3%E0%AE%BF%E0%AE%B5%E0%AE%BE%E0%AE%9A%E0%AE%B2%E0%AF%8D/data=!4m7!3m6!1s0x3a556c63cb62583d:0x25097e66f79cf77b!8m2!3d10.765332!4d79.8454204!16s%2Fg%2F11r8_c3rd!19sChIJPVhiy2NsVToRe_ec92Z-CSU?authuser=0&hl=en&rclk=1,"10.765331999999999,79.8454204"
tvhiit mrks - Thowheed Mosque - TNTJ Thittachery,Mosque,"tvhiit mrks - Thowheed Mosque - TNTJ Thittachery, Garden Street, Thittacheri, Tamil Nadu 609703",,Garden Street,Thittacheri,609703,Tamil Nadu,IN,https://www.google.com/maps/place/%E0%AE%A4%E0%AE%B5%E0%AF%8D%E0%AE%B9%E0%AF%80%E0%AE%A4%E0%AF%8D+%E0%AE%AE%E0%AE%B0%E0%AF%8D%E0%AE%95%E0%AE%B8%E0%AF%8D+-+Thowheed+Mosque+-+TNTJ+Thittachery/data=!4m7!3m6!1s0x3a551452234b4ea3:0xac1663e9d1d4046c!8m2!3d10.8648722!4d79.7896492!16s%2Fg%2F11c5z_kylk!19sChIJo05LI1IUVToRbATU0eljFqw?authuser=0&hl=en&rclk=1,"10.864872199999999,79.7896492"
Nagai Tawheed Masjid tauhiit pllllivaacl,Mosque,"QR7W+7XR Nagai Tawheed Masjid tauhiit pllllivaacl, Sala Palli Street, Nagapattinam, Tamil Nadu 611001","ASN Colony, Melakottaivasal","QR7W+7XR, Sala Palli Street",Nagapattinam,611001,Tamil Nadu,IN,https://www.google.com/maps/place/Nagai+Tawheed+Masjid+%E0%AE%A4%E0%AF%8C%E0%AE%B9%E0%AF%80%E0%AE%A4%E0%AF%8D+%E0%AE%AA%E0%AE%B3%E0%AF%8D%E0%AE%B3%E0%AE%BF%E0%AE%B5%E0%AE%BE%E0%AE%9A%E0%AE%B2%E0%AF%8D/data=!4m7!3m6!1s0x3a556c614f677f2d:0x972a4435bd28b5bc!8m2!3d10.7632447!4d79.8473859!16s%2Fg%2F1tj4x3t_!19sChIJLX9nT2FsVToRvLUovTVEKpc?authuser=0&hl=en&rclk=1,"10.7632447,79.84738589999999"
JAQH - Masjid Rahman,Mosque,"VQ9P+CV2 JAQH - Masjid Rahman, Thittacheri, Tamil Nadu 609703",,VQ9P+CV2,Thittacheri,609703,Tamil Nadu,IN,https://www.google.com/maps/place/JAQH+-+Masjid+Rahman/data=!4m7!3m6!1s0x3a55144d0e570307:0x6c61ac5fe2102d8b!8m2!3d10.8685085!4d79.7871274!16s%2Fg%2F11b88v_mm3!19sChIJBwNXDk0UVToRiy0Q4l-sYWw?authuser=0&hl=en&rclk=1,"10.868508499999999,79.7871274"
Masjide Hamd Magizhi,Mosque,"JRQ2+PCP Masjide Hamd Magizhi, Pallivasal Rd, Magizhi, Karunguni, Tamil Nadu 611103",Magizhi,"JRQ2+PCP, Pallivasal Rd",Karunguni,611103,Tamil Nadu,IN,https://www.google.com/maps/place/Masjide+Hamd+Magizhi/data=!4m7!3m6!1s0x3a55698e15a469c9:0x854cc0f59eaa7739!8m2!3d10.6393303!4d79.8010897!16s%2Fg%2F11mqkhy424!19sChIJyWmkFY5pVToROXeqnvXATIU?authuser=0&hl=en&rclk=1,"10.6393303,79.80108969999999"
Masjid - uth - Thowheed,Mosque,"VRHJ+RQG Masjid - uth - Thowheed, Tirumalairayan Pattinam, Puducherry 609606",,VRHJ+RQG,Tirumalairayan Pattinam,609606,Puducherry,IN,https://www.google.com/maps/place/Masjid+-+uth+-+Thowheed/data=!4m7!3m6!1s0x3a5513003d4ef26b:0x125d80022bf6910c!8m2!3d10.8795652!4d79.8319384!16s%2Fg%2F11y28c_fbj!19sChIJa_JOPQATVToRDJH2KwKAXRI?authuser=0&hl=en&rclk=1,"10.8795652,79.8319384"
Nagore Dargah Shariff,Mosque,"Nagore Dargah Shariff, Nagore, Nagapattinam, Tamil Nadu 611002",Nagore,,Nagapattinam,611002,Tamil Nadu,IN,https://www.google.com/maps/place/Nagore+Dargah+Shariff/data=!4m7!3m6!1s0x3a55134e0973bc2d:0xef7b0c19e73adfab!8m2!3d10.818601!4d79.8411575!16zL20vMDd5Y2Z4!19sChIJLbxzCU4TVToRq9865xkMe-8?authuser=0&hl=en&rclk=1,"10.818601,79.8411575"
Dargah Mathaar Maricar Palli (Shafi Masjid),Mosque,"Dargah Mathaar Maricar Palli (Shafi Masjid), New Bazzar Line, Nagore, Nagapattinam, Tamil Nadu 611002",Nagore,New Bazzar Line,Nagapattinam,611002,Tamil Nadu,IN,https://www.google.com/maps/place/Dargah+Mathaar+Maricar+Palli+%28Shafi+Masjid%29/data=!4m7!3m6!1s0x3a55134dfd948ba9:0x245ac1d85ee777af!8m2!3d10.8182129!4d79.8412712!16s%2Fg%2F1tfr8m9p!19sChIJqYuU_U0TVToRr3fnXtjBWiQ?authuser=0&hl=en&rclk=1,"10.818212899999999,79.8412712"
Thittacherri Jamia Masjid,Mosque,"VQ8Q+H3F Thittacherri Jamia Masjid, Thittacheri, Tamil Nadu 609703",,VQ8Q+H3F,Thittacheri,609703,Tamil Nadu,IN,https://www.google.com/maps/place/Thittacherri+Jamia+Masjid/data=!4m7!3m6!1s0x3a5514527fda9e47:0x8c5547cedff18c1c!8m2!3d10.8664485!4d79.7876703!16s%2Fg%2F11c3sqkkdc!19sChIJR57af1IUVToRHIzx385HVYw?authuser=0&hl=en&rclk=1,"10.866448499999999,79.7876703"
Syed Palli Jamia Masjid ceyytu plllli jaamiyaa pllllivaacl,Mosque,"RR8R+JFC Syed Palli Jamia Masjid ceyytu plllli jaamiyaa pllllivaacl, Syed Palli Street, Nagore, Nagapattinam, Tamil Nadu 611002",Nagore,"RR8R+JFC, Syed Palli Street",Nagapattinam,611002,Tamil Nadu,IN,https://www.google.com/maps/place/Syed+Palli+Jamia+Masjid+%E0%AE%9A%E0%AF%86%E0%AE%AF%E0%AF%8D%E0%AE%AF%E0%AE%A4%E0%AF%81+%E0%AE%AA%E0%AE%B3%E0%AF%8D%E0%AE%B3%E0%AE%BF+%E0%AE%9C%E0%AE%BE%E0%AE%AE%E0%AE%BF%E0%AE%AF%E0%AE%BE+%E0%AE%AA%E0%AE%B3%E0%AF%8D%E0%AE%B3%E0%AE%BF%E0%AE%B5%E0%AE%BE%E0%AE%9A%E0%AE%B2%E0%AF%8D/data=!4m7!3m6!1s0x3a55134d8bebc017:0x82507f63a8dbf3b8!8m2!3d10.8165561!4d79.8411413!16s%2Fg%2F1ptyqpbq0!19sChIJF8Dri00TVToRuPPbqGN_UII?authuser=0&hl=en&rclk=1,"10.8165561,79.84114129999999"
Yelu Lebbai Jamia Masjid,Mosque,"RR7R+6JF Yelu Lebbai Jamia Masjid, South St, Nagore, Nagapattinam, Tamil Nadu 611002",Nagore,"RR7R+6JF, South St",Nagapattinam,611002,Tamil Nadu,IN,https://www.google.com/maps/place/Yelu+Lebbai+Jamia+Masjid/data=!4m7!3m6!1s0x3a55134d4db6f3e5:0xf821855f4753ea1b!8m2!3d10.813052!4d79.8415525!16s%2Fg%2F1tgcq96z!19sChIJ5fO2TU0TVToRG-pTR1-FIfg?authuser=0&hl=en&rclk=1,"10.813051999999999,79.84155249999999"
Masjid Ikhlaas Nagore,Mosque,"Masjid Ikhlaas Nagore, 4th Lane, 2nd Cross Rd, Nagore, Nagapattinam, Tamil Nadu 611002",Nagore,"4th Lane, 2nd Cross Rd",Nagapattinam,611002,Tamil Nadu,IN,https://www.google.com/maps/place/Masjid+Ikhlaas+Nagore/data=!4m7!3m6!1s0x3a556cb21c09adc1:0x7aa8f558d0593635!8m2!3d10.807434!4d79.8418733!16s%2Fg%2F11c1860dx9!19sChIJwa0JHLJsVToRNTZZ0Fj1qHo?authuser=0&hl=en&rclk=1,"10.807433999999999,79.8418733"
Masjid Yaa Hussain Mosque,Mosque,"QR9W+278 Masjid Yaa Hussain Mosque, New Street, New Nambiyar Nagar, Melakottaivasal, Nagapattinam, Tamil Nadu 611001","New Nambiyar Nagar, Melakottaivasal","QR9W+278, New Street",Nagapattinam,611001,Tamil Nadu,IN,https://www.google.com/maps/place/Masjid+Yaa+Hussain+Mosque/data=!4m7!3m6!1s0x3a556c620fc4165f:0x6bff265343516307!8m2!3d10.7675463!4d79.8456975!16s%2Fg%2F1td7rmhy!19sChIJXxbED2JsVToRB2NRQ1Mm_2s?authuser=0&hl=en&rclk=1,"10.7675463,79.8456975"
Maraicar Masjid,Mosque,"Maraicar Masjid, fear area, Nool Kadai Street, ASN Colony, Melakottaivasal, Nagapattinam, Tamil Nadu 611001","ASN Colony, Melakottaivasal","fear area, Nool Kadai Street",Nagapattinam,611001,Tamil Nadu,IN,https://www.google.com/maps/place/Maraicar+Masjid/data=!4m7!3m6!1s0x3a556c615fb790b5:0xe3c765b41d89ba54!8m2!3d10.7641474!4d79.8465353!16s%2Fg%2F1vc6btph!19sChIJtZC3X2FsVToRVLqJHbRlx-M?authuser=0&hl=en&rclk=1,"10.764147399999999,79.8465353"
Mosque,Mosque,"Mosque, Velankanni, Tamil Nadu 611111",,Mosque,Velankanni,611111,Tamil Nadu,IN,https://www.google.com/maps/place/Mosque/data=!4m7!3m6!1s0x3a556f27dc6fbb63:0xf62b76796e40794d!8m2!3d10.6773825!4d79.8413533!16s%2Fg%2F1tdzj_2t!19sChIJY7tv3CdvVToRTXlAbnl2K_Y?authuser=0&hl=en&rclk=1,"10.6773825,79.8413533"
Masjid Al Hithaya,Mosque,"VQ9G+J32 Masjid Al Hithaya, Thittacheri, Tamil Nadu 609703",,VQ9G+J32,Thittacheri,609703,Tamil Nadu,IN,https://www.google.com/maps/place/Masjid+Al+Hithaya/data=!4m7!3m6!1s0x3a5515b0f517ab93:0x63aab65eaa396347!8m2!3d10.8690157!4d79.775125!16s%2Fg%2F124swbk37!19sChIJk6sX9bAVVToRR2M5ql62qmM?authuser=0&hl=en&rclk=1,"10.8690157,79.775125"
TNTJ Nagore Branch 1,Mosque,"RR9Q+4WV TNTJ Nagore Branch 1, Malimar Street, Nagore, Nagapattinam, Tamil Nadu 611002",Nagore,"RR9Q+4WV, Malimar Street",Nagapattinam,611002,Tamil Nadu,IN,https://www.google.com/maps/place/TNTJ+Nagore+Branch+1/data=!4m7!3m6!1s0x3a5513521eafcc2f:0xf013af3531d73d60!8m2!3d10.8178508!4d79.8397882!16s%2Fg%2F11b742kwlj!19sChIJL8yvHlITVToRYD3XMTWvE_A?authuser=0&hl=en&rclk=1,"10.817850799999999,79.8397882"
"Masjid Papavoor Dharga Mosque, Papakovil",Mosque,"Masjid Papavoor Dharga Mosque, Papakovil, Papavoor Dhargah Papakovil, Nagapattinam, Tamil Nadu 611106",,Papavoor Dhargah Papakovil,Nagapattinam,611106,Tamil Nadu,IN,"https://www.google.com/maps/place/Masjid+Papavoor+Dharga+Mosque,+Papakovil/data=!4m7!3m6!1s0x3a556bf2f41b3883:0x24bccd213b2759a!8m2!3d10.7426446!4d79.8202162!16s%2Fg%2F1hdzcq8nk!19sChIJgzgb9PJrVToRmnWyE9LMSwI?authuser=0&hl=en&rclk=1","10.7426446,79.82021619999999"
Umar-Bin-Khattab Masjid,Mosque,"QQC8+G8H Umar-Bin-Khattab Masjid, Aaziyur, Tamil Nadu 611104",,QQC8+G8H,Aaziyur,611104,Tamil Nadu,IN,https://www.google.com/maps/place/Umar-Bin-Khattab+Masjid/data=!4m7!3m6!1s0x3a556af387934a23:0x2db390ad67b42b7!8m2!3d10.7713159!4d79.7658576!16s%2Fg%2F11b5qrw5h3!19sChIJI0qTh_NqVToRt0J71go52wI?authuser=0&hl=en&rclk=1,"10.7713159,79.76585759999999"
Jamia Masjid,Mosque,"PQ95+7FC Jamia Masjid, Tamil Nadu 611109",,PQ95+7FC,,611109,Tamil Nadu,IN,https://www.google.com/maps/place/Jamia+Masjid/data=!4m7!3m6!1s0x3a5569f5b36c7d93:0xb27f290bcec53996!8m2!3d10.7181821!4d79.7586393!16s%2Fg%2F11gcj2m2l3!19sChIJk31ss_VpVToRljnFzgspf7I?authuser=0&hl=en&rclk=1,"10.7181821,79.7586393"
Manjai Jamia Mosque,Mosque,"Manjai Jamia Mosque, Nagapattinam, Tamil Nadu 611106",,,Nagapattinam,,Tamil Nadu,IN,https://www.google.com/maps/place/Manjai+Jamia+Mosque/data=!4m7!3m6!1s0x3a556b9026ab06bb:0x93c65eaa4173c04c!8m2!3d10.7546534!4d79.8177123!16s%2Fg%2F1vbl5_v1!19sChIJuwarJpBrVToRTMBzQapexpM?authuser=0&hl=en&rclk=1,"10.754653399999999,79.8177123"
Big Mosque,Mosque,"VRQ9+WH2 Big Mosque, Neravy, Puducherry 609604",,VRQ9+WH2,Neravy,609604,Puducherry,IN,https://www.google.com/maps/place/Big+Mosque/data=!4m7!3m6!1s0x3a55140ff8dc62b1:0xfb54d46cb9d7a769!8m2!3d10.8897665!4d79.8188871!16s%2Fg%2F1wh4d8t5!19sChIJsWLc-A8UVToRaafXuWzUVPs?authuser=0&hl=en&rclk=1,"10.8897665,79.8188871"
Kamaliya Jamiya Mosque kmaaliyaa msjit,Mosque,"Kamaliya Jamiya Mosque kmaaliyaa msjit, 25/28, ASN Colony, Melakottaivasal, Nagapattinam, Tamil Nadu 611003","ASN Colony, Melakottaivasal",25/28,Nagapattinam,611003,Tamil Nadu,IN,https://www.google.com/maps/place/Kamaliya+Jamiya+Mosque+%E0%AE%95%E0%AE%AE%E0%AE%BE%E0%AE%B2%E0%AE%BF%E0%AE%AF%E0%AE%BE+%E0%AE%AE%E0%AE%B8%E0%AF%8D%E0%AE%9C%E0%AE%BF%E0%AE%A4%E0%AF%8D/data=!4m7!3m6!1s0x3a556c6406cb9da7:0x68e210123a72b2cd!8m2!3d10.7621027!4d79.8460413!16s%2Fg%2F11b7m96pjc!19sChIJp53LBmRsVToRzbJyOhIQ4mg?authuser=0&hl=en&rclk=1,"10.7621027,79.8460413"
Jamia Masjid,Mosque,"QR54+HP2 Jamia Masjid, Poravachery, Sikkal, Nagapattinam, Tamil Nadu 611108",Poravachery,QR54+HP2,"Sikkal, Nagapattinam",611108,Tamil Nadu,IN,https://www.google.com/maps/place/Jamia+Masjid/data=!4m7!3m6!1s0x3a556ba27c93f1bd:0x13ea304fed31a7db!8m2!3d10.7588955!4d79.8067585!16s%2Fg%2F1hg510d4g!19sChIJvfGTfKJrVToR26cx7U8w6hM?authuser=0&hl=en&rclk=1,"10.7588955,79.8067585"
Kollam Palli Jamia Masjid nagore,Mosque,"RR7R+338 Kollam Palli Jamia Masjid nagore, Yaa Hussain Tahikkal St, Nagore, Nagapattinam, Tamil Nadu 611002",Nagore,"RR7R+338, Yaa Hussain Tahikkal St",Nagapattinam,611002,Tamil Nadu,IN,https://www.google.com/maps/place/Kollam+Palli+Jamia+Masjid+nagore/data=!4m7!3m6!1s0x3a551352ad5e5e95:0x82f7be3969b88cfb!8m2!3d10.812674!4d79.8402004!16s%2Fg%2F1hf0gcgdg!19sChIJlV5erVITVToR-4y4aTm-94I?authuser=0&hl=en&rclk=1,"10.812674,79.8402004"
Kadhiriya Masjid kaatiriiy pllllivaacl,Mosque,"RR9V+72V Kadhiriya Masjid kaatiriiy pllllivaacl, Darga Kulam Melkarai St, Nagore, Nagapattinam, Tamil Nadu 611002",Nagore,"RR9V+72V, Darga Kulam Melkarai St",Nagapattinam,611002,Tamil Nadu,IN,https://www.google.com/maps/place/Kadhiriya+Masjid+%E0%AE%95%E0%AE%BE%E0%AE%A4%E0%AE%BF%E0%AE%B0%E0%AF%80%E0%AE%AF+%E0%AE%AA%E0%AE%B3%E0%AF%8D%E0%AE%B3%E0%AE%BF%E0%AE%B5%E0%AE%BE%E0%AE%9A%E0%AE%B2%E0%AF%8D/data=!4m7!3m6!1s0x3a55134ddefb1f01:0xf19d2bac37ecea45!8m2!3d10.8182414!4d79.8425539!16s%2Fg%2F1tf41cs1!19sChIJAR_73k0TVToRRersN6wrnfE?authuser=0&hl=en&rclk=1,"10.8182414,79.8425539"
AR RAHMAN MASJID,Mosque,"RR6Q+RR7 AR RAHMAN MASJID, Kollam Palli Line, Nagore, Nagapattinam, Tamil Nadu 611002",Nagore,"RR6Q+RR7, Kollam Palli Line",Nagapattinam,611002,Tamil Nadu,IN,https://www.google.com/maps/place/AR+RAHMAN+MASJID/data=!4m7!3m6!1s0x3a556cad48166295:0x631ef843f00c96f!8m2!3d10.8120324!4d79.839551!16s%2Fg%2F11c0vxxm7b!19sChIJlWIWSK1sVToRb8kAP4TvMQY?authuser=0&hl=en&rclk=1,"10.8120324,79.839551"
Pudu Palli Jamia Masjid,Mosque,"QR7W+V8F Pudu Palli Jamia Masjid, New Masjid Street, Melakottaivasal, Nagore, Nagapattinam, Tamil Nadu 611001","ASN Colony, Melakottaivasal, Nagore","QR7W+V8F, New Masjid Street",Nagapattinam,611001,Tamil Nadu,IN,https://www.google.com/maps/place/Pudu+Palli+Jamia+Masjid/data=!4m7!3m6!1s0x3a556c63dab6769f:0x43637cee9f746a1e!8m2!3d10.7646863!4d79.8458031!16s%2Fg%2F1th80cfv!19sChIJn3a22mNsVToRHmp0n-58Y0M?authuser=0&hl=en&rclk=1,"10.7646863,79.8458031"
Big Mosque,Mosque,"VRJJ+462 Big Mosque, NH 45A, Tirumalairayan Pattinam, Puducherry 609606",,"VRJJ+462, NH 45A",Tirumalairayan Pattinam,609606,Puducherry,IN,https://www.google.com/maps/place/Big+Mosque/data=!4m7!3m6!1s0x3a5513f543dc3afb:0x7c2723e4d40fd9fa!8m2!3d10.8802685!4d79.8305279!16s%2Fg%2F1tj510b6!19sChIJ-zrcQ_UTVToR-tkP1OQjJ3w?authuser=0&hl=en&rclk=1,"10.8802685,79.83052789999999"
Fathima Masjid,Mosque,"RR7V+WMC Fathima Masjid, Fathima Masjid Line, Nagore, Nagapattinam, Tamil Nadu 611002",Nagore,"RR7V+WMC, Fathima Masjid Line",Nagapattinam,611002,Tamil Nadu,IN,https://www.google.com/maps/place/Fathima+Masjid/data=!4m7!3m6!1s0x3a55134ce4ca32d5:0xe776ebd8589f93a7!8m2!3d10.8148088!4d79.8441282!16s%2Fg%2F11bxc3kwpf!19sChIJ1TLK5EwTVToRp5OfWNjrduc?authuser=0&hl=en&rclk=1,"10.8148088,79.8441282"
Panangaatoor Masjid,Mosque,"VRM6+6PR Panangaatoor Masjid, Pangatur, Neravy",,"VRM6+6PR, Pangatur","Neravy, Kottamangalam",,Tamil Nadu,IN,https://www.google.com/maps/place/Panangaatoor+Masjid/data=!4m7!3m6!1s0x3a55141416bb6a07:0x839adea00c26ded4!8m2!3d10.8831007!4d79.8117528!16s%2Fg%2F11bxfrdg2f!19sChIJB2q7FhQUVToR1N4mDKDemoM?authuser=0&hl=en&rclk=1,"10.8831007,79.8117528"
Hiluru Jamia Masjid (Kattu Palli),Mosque,"RRCV+V8X Hiluru Jamia Masjid (Kattu Palli), Meah Street, Nagore, Nagapattinam, Tamil Nadu 611002",Nagore,"RRCV+V8X, Meah Street",Nagapattinam,611002,Tamil Nadu,IN,https://www.google.com/maps/place/Hiluru+Jamia+Masjid+%28Kattu+Palli%29/data=!4m7!3m6!1s0x3a55134fa163bfbf:0xe417feba451dc26b!8m2!3d10.8222436!4d79.8433733!16s%2Fg%2F1hf48h77g!19sChIJv79joU8TVToRa8IdRbr-F-Q?authuser=0&hl=en&rclk=1,"10.8222436,79.8433733"
Masjid Usmania Street,Mosque,"VQ8M+958 Masjid Usmania Street, Thittacheri, Tamil Nadu 609703",,VQ8M+958,Thittacheri,609703,Tamil Nadu,IN,https://www.google.com/maps/place/Masjid+Usmania+Street/data=!4m7!3m6!1s0x3a5515ad64517867:0xbae47bbe7aca148c!8m2!3d10.8659192!4d79.7829479!16s%2Fg%2F11c45vlrqd!19sChIJZ3hRZK0VVToRjBTKer575Lo?authuser=0&hl=en&rclk=1,"10.865919199999999,79.7829479"
Andhanapettai Jamia Masjid jaamiyaa pllllivaacl,Mosque,"Andhanapettai Jamia Masjid jaamiyaa pllllivaacl, Pallivaasal Street, Andanapettai, Manjakollai, Nagapattinam, Tamil Nadu 611106",Andanapettai,Pallivaasal Street,"Manjakollai, Nagapattinam",,Tamil Nadu,IN,https://www.google.com/maps/place/Andhanapettai+Jamia+Masjid+%E0%AE%9C%E0%AE%BE%E0%AE%AE%E0%AE%BF%E0%AE%AF%E0%AE%BE+%E0%AE%AA%E0%AE%B3%E0%AF%8D%E0%AE%B3%E0%AE%BF%E0%AE%B5%E0%AE%BE%E0%AE%9A%E0%AE%B2%E0%AF%8D/data=!4m7!3m6!1s0x3a556b8e9d9bd20f:0x30884046eca1164a!8m2!3d10.7507632!4d79.8220961!16s%2Fg%2F11c54cyv86!19sChIJD9KbnY5rVToRShah7EZAiDA?authuser=0&hl=en&rclk=1,"10.7507632,79.8220961"
Madha Masjid,Mosque,"MRHV+3HV Madha Masjid, Velankanni, Tamil Nadu 611111",,MRHV+3HV,Velankanni,611111,Tamil Nadu,IN,https://www.google.com/maps/place/Madha+Masjid/data=!4m7!3m6!1s0x3a556f270b285be3:0xbe5188c8af0e6f8!8m2!3d10.6777427!4d79.8439196!16s%2Fg%2F11bw66s3sn!19sChIJ41soCydvVToR-ObwiowY5Qs?authuser=0&hl=en&rclk=1,"10.6777427,79.84391959999999"
Al Noor Masjid,Mosque,"PR2Q+3PM Al Noor Masjid, Therkupoigainallur, Tamil Nadu 611111",,PR2Q+3PM,Therkupoigainallur,611111,Tamil Nadu,IN,https://www.google.com/maps/place/Al+Noor+Masjid/data=!4m7!3m6!1s0x3a556ec83e7fde15:0xf23c4fa03cf9fae2!8m2!3d10.7002031!4d79.8393043!16s%2Fg%2F11dy7gvc3k!19sChIJFd5_PshuVToR4vr5PKBPPPI?authuser=0&hl=en&rclk=1,"10.7002031,79.8393043"
Meera Mosque,Mosque,"Meera Mosque, Pudupalli Road, ASN Colony, Melakottaivasal, Nagapattinam, Tamil Nadu 611001","ASN Colony, Melakottaivasal",Pudupalli Road,Nagapattinam,611001,Tamil Nadu,IN,https://www.google.com/maps/place/Meera+Mosque/data=!4m7!3m6!1s0x3a556c617fb86051:0x4ac950fc1fa44ac8!8m2!3d10.7653415!4d79.8465706!16s%2Fg%2F1tgz3xgy!19sChIJUWC4f2FsVToRyEqkH_xQyUo?authuser=0&hl=en&rclk=1,"10.7653415,79.84657059999999"
Shamshiya Jamia Masjid,Mosque,"QRHQ+WFX Shamshiya Jamia Masjid, VOC Nagar, Nagapattinam, Tamil Nadu 611001",VOC Nagar,QRHQ+WFX,Nagapattinam,611001,Tamil Nadu,IN,https://www.google.com/maps/place/Shamshiya+Jamia+Masjid/data=!4m7!3m6!1s0x3a556c9adaa4848b:0xe4cbd91e594a9ed8!8m2!3d10.7798552!4d79.8387422!16s%2Fg%2F1tr7b76j!19sChIJi4Sk2ppsVToR2J5KWR7Zy-Q?authuser=0&hl=en&rclk=1,"10.7798552,79.8387422"
Kattumavadi Masjid,Mosque,"VQFH+27R Kattumavadi Masjid, SH 67, Kattumavadi, Tamil Nadu 609703",,"VQFH+27R, SH 67",Kattumavadi,609703,Tamil Nadu,IN,https://www.google.com/maps/place/Kattumavadi+Masjid/data=!4m7!3m6!1s0x3a5515b6b9fab009:0x1ef36ff1ae278f92!8m2!3d10.8726169!4d79.7781528!16s%2Fg%2F11c461br0h!19sChIJCbD6ubYVVToRko8nrvFv8x4?authuser=0&hl=en&rclk=1,"10.872616899999999,79.7781528"
Tholai Sahib Masjid,Mosque,"RR8V+M5P Tholai Sahib Masjid, Kalifa Sahib Street, Nagore, Nagapattinam, Tamil Nadu 611002",Nagore,"RR8V+M5P, Kalifa Sahib Street",Nagapattinam,611002,Tamil Nadu,IN,https://www.google.com/maps/place/Tholai+Sahib+Masjid/data=!4m7!3m6!1s0x3a55134db9d22b57:0x330626d7b586c0a2!8m2!3d10.8167041!4d79.8429482!16s%2Fg%2F1td9z31x!19sChIJVyvSuU0TVToRosCGtdcmBjM?authuser=0&hl=en&rclk=1,"10.816704099999999,79.8429482"
Sikkal Jamia Mosque,Mosque,"Sikkal Jamia Mosque, 611108, Nagapattinam, Tamil Nadu",Poravachery,611108,Nagapattinam,,Tamil Nadu,IN,https://www.google.com/maps/place/Sikkal+Jamia+Mosque/data=!4m7!3m6!1s0x3a556ba4a1c4aff1:0xf48344b7a39d6338!8m2!3d10.7569968!4d79.8014186!16s%2Fg%2F11fz9xzcyp!19sChIJ8a_EoaRrVToROGOdo7dEg_Q?authuser=0&hl=en&rclk=1,"10.7569968,79.80141859999999"
Masjid e Noor (Sinna Palli) Thittacheri,Mosque,"VQ9P+5J5 Masjid e Noor (Sinna Palli) Thittacheri, Thittacheri, Tamil Nadu 609703",,VQ9P+5J5,Thittacheri,,Tamil Nadu,IN,https://www.google.com/maps/place/Masjid+e+Noor+%28Sinna+Palli%29+Thittacheri/data=!4m7!3m6!1s0x3a55144d6b5cd07b:0x1a9d3aa9c571019b!8m2!3d10.8678833!4d79.7866116!16s%2Fg%2F11gdm6k702!19sChIJe9Bca00UVToRmwFxxak6nRo?authuser=0&hl=en&rclk=1,"10.867883299999999,79.7866116"
Masjid Sahaba,Mosque,"Masjid Sahaba, bungalow garden, 2nd Cross Rd, Nagore, Nagapattinam, Tamil Nadu 611002",Nagore,"bungalow garden, 2nd Cross Rd",Nagapattinam,611002,Tamil Nadu,IN,https://www.google.com/maps/place/Masjid+Sahaba/data=!4m7!3m6!1s0x3a556cb276ee790b:0x908c81dd57fff87!8m2!3d10.8092982!4d79.8413925!16s%2Fg%2F11ggsfw3_1!19sChIJC3nudrJsVToRh_9_1R3ICAk?authuser=0&hl=en&rclk=1,"10.809298199999999,79.8413925"
MTJT Masjid em ttii je ttii pllllivaacl,Mosque,"QR49+2MQ MTJT Masjid em ttii je ttii pllllivaacl, Manjakollai, Nagapattinam, Tamil Nadu 611106",,QR49+2MQ,"Manjakollai, Nagapattinam",611106,Tamil Nadu,IN,https://www.google.com/maps/place/MTJT+Masjid+%E0%AE%8E%E0%AE%AE%E0%AF%8D+%E0%AE%9F%E0%AF%80+%E0%AE%9C%E0%AF%86+%E0%AE%9F%E0%AF%80+%E0%AE%AA%E0%AE%B3%E0%AF%8D%E0%AE%B3%E0%AE%BF%E0%AE%B5%E0%AE%BE%E0%AE%9A%E0%AE%B2%E0%AF%8D/data=!4m7!3m6!1s0x3a556b8fe896b94d:0xfb85980bbcd155b3!8m2!3d10.7550901!4d79.8192301!16s%2Fg%2F11csqsc24d!19sChIJTbmW6I9rVToRs1XRvAuYhfs?authuser=0&hl=en&rclk=1,"10.7550901,79.8192301"
pllllivaacl,Mosque,"RR2J+QQ2 pllllivaacl, Velippalayam, Thethi, Nagapattinam, Tamil Nadu 611001",Velippalayam,RR2J+QQ2,"Thethi, Nagapattinam",,Tamil Nadu,IN,https://www.google.com/maps/place/%E0%AE%AA%E0%AE%B3%E0%AF%8D%E0%AE%B3%E0%AE%BF%E0%AE%B5%E0%AE%BE%E0%AE%9A%E0%AE%B2%E0%AF%8D/data=!4m7!3m6!1s0x3a556d37d1454a17:0xf9c90c12a189d595!8m2!3d10.8018938!4d79.8319052!16s%2Fg%2F11h4msh029!19sChIJF0pF0TdtVToRldWJoRIMyfk?authuser=0&hl=en&rclk=1,"10.8018938,79.8319052"
pllllivaacl,Mosque,"RRCV+8JF pllllivaacl, Nagore, Nagapattinam, Tamil Nadu 611002",Nagore,RRCV+8JF,Nagapattinam,611002,Tamil Nadu,IN,https://www.google.com/maps/place/%E0%AE%AA%E0%AE%B3%E0%AF%8D%E0%AE%B3%E0%AE%BF%E0%AE%B5%E0%AE%BE%E0%AE%9A%E0%AE%B2%E0%AF%8D/data=!4m7!3m6!1s0x3a5513f0059b6abd:0x986bcfb31cf71acb!8m2!3d10.820803!4d79.8440444!16s%2Fg%2F11g1pp517z!19sChIJvWqbBfATVToRyxr3HLPPa5g?authuser=0&hl=en&rclk=1,"10.820803,79.8440444"
neermulai jumma mosque,Mosque,"HPC8+JWP neermulai jumma mosque, Neermulai, Tamil Nadu 610207",,HPC8+JWP,Neermulai,610207,Tamil Nadu,IN,https://www.google.com/maps/place/neermulai+jumma+mosque/data=!4m7!3m6!1s0x3a555dbd8637ecfd:0xd7214df20b610047!8m2!3d10.57159!4d79.717336!16s%2Fg%2F11gct20xqk!19sChIJ_ew3hr1dVToRRwBhC_JNIdc?authuser=0&hl=en&rclk=1,"10.571589999999999,79.717336"
"ceyytu ahmt oliyullaah, mnyckollai Ahmed Waliullah",Mosque,"QR39+Q6J ceyytu ahmt oliyullaah, mnyckollai Ahmed Waliullah, Manjakollai, Nagapattinam, Tamil Nadu 611106",,QR39+Q6J,"Manjakollai, Nagapattinam",611106,Tamil Nadu,IN,"https://www.google.com/maps/place/%E0%AE%9A%E0%AF%86%E0%AE%AF%E0%AF%8D%E0%AE%AF%E0%AE%A4%E0%AF%81+%E0%AE%85%E0%AE%B9%E0%AF%8D%E0%AE%AE%E0%AE%A4%E0%AF%8D+%E0%AE%92%E0%AE%B2%E0%AE%BF%E0%AE%AF%E0%AF%81%E0%AE%B2%E0%AF%8D%E0%AE%B2%E0%AE%BE%E0%AE%B9%E0%AF%8D,+%E0%AE%AE%E0%AE%9E%E0%AF%8D%E0%AE%9A%E0%AE%95%E0%AF%8A%E0%AE%B2%E0%AF%8D%E0%AE%B2%E0%AF%88+Ahmed+Waliullah/data=!4m7!3m6!1s0x3a556bd4679c4e1b:0x40f47335c1ae3f29!8m2!3d10.7544565!4d79.8180287!16s%2Fg%2F11hzwfyq_7!19sChIJG06cZ9RrVToRKT-uwTVz9EA?authuser=0&hl=en&rclk=1","10.7544565,79.8180287"
Masjid Al Furkan msjit al Hpurkkaannn,Mosque,"RRCV+7C8 Masjid Al Furkan msjit al Hpurkkaannn, Theru Palli Street, Nagore, Nagapattinam, Tamil Nadu 611002",Nagore,"RRCV+7C8, Theru Palli Street",Nagapattinam,611002,Tamil Nadu,IN,https://www.google.com/maps/place/Masjid+Al+Furkan+%E0%AE%AE%E0%AE%B8%E0%AF%8D%E0%AE%9C%E0%AE%BF%E0%AE%A4%E0%AF%8D+%E0%AE%85%E0%AE%B2%E0%AF%8D+%E0%AE%83%E0%AE%AA%E0%AF%81%E0%AE%B0%E0%AF%8D%E0%AE%95%E0%AF%8D%E0%AE%95%E0%AE%BE%E0%AE%A9%E0%AF%8D/data=!4m7!3m6!1s0x3a55134e5613336d:0x93ffd5c1cc0cf22f!8m2!3d10.8206695!4d79.8435926!16s%2Fg%2F11bwyhzsv9!19sChIJbTMTVk4TVToRL_IMzMHV_5M?authuser=0&hl=en&rclk=1,"10.8206695,79.8435926"
Naagai Musilm Tawheed Jamath,Mosque,"QR7W+9X2 Naagai Musilm Tawheed Jamath, ASN Colony, Melakottaivasal, Nagapattinam, Tamil Nadu 611003","ASN Colony, Melakottaivasal",QR7W+9X2,Nagapattinam,611003,Tamil Nadu,IN,https://www.google.com/maps/place/Naagai+Musilm+Tawheed+Jamath/data=!4m7!3m6!1s0x3a556c614f66f1bd:0x5c2b2b129e323bc3!8m2!3d10.7633936!4d79.8473812!16s%2Fg%2F11b5wq1492!19sChIJvfFmT2FsVToRwzsynhIrK1w?authuser=0&hl=en&rclk=1,"10.763393599999999,79.8473812"
Hazrath Ali Sha Thaikkal Masjid,Mosque,"RRHP+C2G Hazrath Ali Sha Thaikkal Masjid, NH32, Melavanjoor, Karaikal, Puducherry 611002",Melavanjoor,"RRHP+C2G, NH32",Karaikal,,Puducherry,IN,https://www.google.com/maps/place/Hazrath+Ali+Sha+Thaikkal+Masjid/data=!4m7!3m6!1s0x3a5513e7d274c84d:0x14cdb97001c111e5!8m2!3d10.8285743!4d79.835082!16s%2Fg%2F11j9ckmy9r!19sChIJTch00ucTVToR5RHBAXC5zRQ?authuser=0&hl=en&rclk=1,"10.8285743,79.835082"
Arab Shahib Thaikal,Mosque,"QRPP+QXP Arab Shahib Thaikal, NH 45A, Kadambadi, Nagapattinam, Tamil Nadu 611001",Kadambadi,"QRPP+QXP, NH 45A",Nagapattinam,611001,Tamil Nadu,IN,https://www.google.com/maps/place/Arab+Shahib+Thaikal/data=!4m7!3m6!1s0x3a556c991ad192a7:0xad1bed37a130146!8m2!3d10.7869573!4d79.8374431!16s%2Fg%2F1tg_7xnf!19sChIJp5LRGplsVToRRgETetO-0Qo?authuser=0&hl=en&rclk=1,"10.7869573,79.8374431"
JAQH Markaz - Masjidul Madina,Mosque,"JAQH Markaz - Masjidul Madina, 54, Vella Kulam St, Tirumalairayan Pattinam, Puducherry 609606",,"54, Vella Kulam St",Tirumalairayan Pattinam,609606,Puducherry,IN,https://www.google.com/maps/place/JAQH+Markaz+-+Masjidul+Madina/data=!4m7!3m6!1s0x3a551360ba88c8c7:0x444e3d5430a23c96!8m2!3d10.8788376!4d79.8323223!16s%2Fg%2F11spmlnw7p!19sChIJx8iIumATVToRljyiMFQ9TkQ?authuser=0&hl=en&rclk=1,"10.878837599999999,79.8323223"
Masjid Elahi,Mosque,"VQ9Q+9J2 Masjid Elahi, Thittacheri, Tamil Nadu 609703",,VQ9Q+9J2,Thittacheri,609703,Tamil Nadu,IN,https://www.google.com/maps/place/Masjid+Elahi/data=!4m7!3m6!1s0x3a55144db8b02877:0x19414c76efd41be0!8m2!3d10.8683962!4d79.7890019!16s%2Fg%2F11c0ptbyl4!19sChIJdyiwuE0UVToR4BvU73ZMQRk?authuser=0&hl=en&rclk=1,"10.8683962,79.7890019"
Old Mosque,Mosque,"VRQ9+VQ7 Old Mosque, Neravy, Puducherry 609604",,VRQ9+VQ7,Neravy,609604,Puducherry,IN,https://www.google.com/maps/place/Old+Mosque/data=!4m7!3m6!1s0x3a55140ff6ea2b79:0x7d9af3c84c95a154!8m2!3d10.8896747!4d79.8194108!16s%2Fg%2F11cn0q0pl5!19sChIJeSvq9g8UVToRVKGVTMjzmn0?authuser=0&hl=en&rclk=1,"10.889674699999999,79.8194108"
"Saliheen Jaqh masjid, Poravachery",Mosque,"Saliheen Jaqh masjid, Poravachery, Masji e saaliheen new, street, Poravachery",Poravachery,"Masji e saaliheen new, street",Nagapattinam,,Tamil Nadu,IN,"https://www.google.com/maps/place/Saliheen+Jaqh+masjid,+Poravachery/data=!4m7!3m6!1s0x3a556b6f477aae1b:0x8af72826c5f250e!8m2!3d10.758564!4d79.807916!16s%2Fg%2F11tdckgvhm!19sChIJG656R29rVToRDiVfbIJyrwg?authuser=0&hl=en&rclk=1","10.758564,79.80791599999999"
moorcaa plllli,Mosque,"QR8W+7CG moorcaa plllli, ASN Colony, Melakottaivasal, Nagapattinam, Tamil Nadu 611001","ASN Colony, Melakottaivasal",QR8W+7CG,Nagapattinam,611001,Tamil Nadu,IN,https://www.google.com/maps/place/%E0%AE%AE%E0%AF%8B%E0%AE%B0%E0%AF%8D%E0%AE%9A%E0%AE%BE+%E0%AE%AA%E0%AE%B3%E0%AF%8D%E0%AE%B3%E0%AE%BF/data=!4m7!3m6!1s0x3a556c622c4268c1:0x699164315e0c21d0!8m2!3d10.7656992!4d79.8460854!16s%2Fg%2F11f5dggxpl!19sChIJwWhCLGJsVToR0CEMXjFkkWk?authuser=0&hl=en&rclk=1,"10.7656992,79.84608539999999"
Muhiyideen jamia Masjid,Mosque,"QRFR+HPJ Muhiyideen jamia Masjid, Elancheran Nagar, Nagapattinam, Tamil Nadu 611001",,QRFR+HPJ,"Elancheran Nagar, Nagapattinam",611001,Tamil Nadu,IN,https://www.google.com/maps/place/Muhiyideen+jamia+Masjid/data=!4m7!3m6!1s0x3a556c8f4c49ff8d:0xc93393fee33a03ab!8m2!3d10.7739641!4d79.8417748!16s%2Fg%2F11c48fdpmm!19sChIJjf9JTI9sVToRqwM64_6TM8k?authuser=0&hl=en&rclk=1,"10.773964099999999,79.8417748"
Theru Palli Masjid teeru plllli pllllivaacl,Mosque,"RRCR+7W9 Theru Palli Masjid teeru plllli pllllivaacl, Theru Palli Street, Nagore, Nagapattinam, Tamil Nadu 611002",Nagore,"RRCR+7W9, Theru Palli Street",Nagapattinam,611002,Tamil Nadu,IN,https://www.google.com/maps/place/Theru+Palli+Masjid+%E0%AE%A4%E0%AF%87%E0%AE%B0%E0%AF%81+%E0%AE%AA%E0%AE%B3%E0%AF%8D%E0%AE%B3%E0%AE%BF+%E0%AE%AA%E0%AE%B3%E0%AF%8D%E0%AE%B3%E0%AE%BF%E0%AE%B5%E0%AE%BE%E0%AE%9A%E0%AE%B2%E0%AF%8D/data=!4m7!3m6!1s0x3a55134e4e0ea3a9:0x145766387eceea79!8m2!3d10.8206511!4d79.8423549!16s%2Fg%2F11b6ss_1tk!19sChIJqaMOTk4TVToReerOfjhmVxQ?authuser=0&hl=en&rclk=1,"10.8206511,79.84235489999999"
Jamia Masjid Kallar,Mosque,"PRQX+78M Jamia Masjid Kallar, North Poigainallur, Tamil Nadu 611106",,PRQX+78M,North Poigainallur,,Tamil Nadu,IN,https://www.google.com/maps/place/Jamia+Masjid+Kallar/data=!4m7!3m6!1s0x3a556d6e08e136db:0x618a8358bd5df2a3!8m2!3d10.7382113!4d79.8482911!16s%2Fg%2F11mnlqhn4y!19sChIJ2zbhCG5tVToRo_JdvViDimE?authuser=0&hl=en&rclk=1,"10.7382113,79.8482911"
S.Nagoor Muhyidheen mosque,Mosque,"RR7Q+4J7 S.Nagoor Muhyidheen mosque, S.nagoor, Mappillai St, gounden pudur, pollachi",gounden pudur,"RR7Q+4J7, S.nagoor, Mappillai St","pollachi, Nagapattinam",,Tamil Nadu,IN,https://www.google.com/maps/place/S.Nagoor+Muhyidheen+mosque/data=!4m7!3m6!1s0x3a5513b06cd9abcb:0x404f3e27bf95f2bc!8m2!3d10.8127766!4d79.8390622!16s%2Fg%2F11s5vjjmfx!19sChIJy6vZbLATVToRvPKVvyc-T0A?authuser=0&hl=en&rclk=1,"10.8127766,79.8390622"
Dhiwan Shah Masjid tivaannn ssaa msjit,Mosque,"Dhiwan Shah Masjid tivaannn ssaa msjit, Masjid DewanSha, Darga Kulam Melkarai St, Nagore, Nagapattinam, Tamil Nadu 611002",Nagore,"Masjid DewanSha, Darga Kulam Melkarai St",Nagapattinam,611002,Tamil Nadu,IN,https://www.google.com/maps/place/Dhiwan+Shah+Masjid+%E0%AE%A4%E0%AE%BF%E0%AE%B5%E0%AE%BE%E0%AE%A9%E0%AF%8D+%E0%AE%B7%E0%AE%BE+%E0%AE%AE%E0%AE%B8%E0%AF%8D%E0%AE%9C%E0%AE%BF%E0%AE%A4%E0%AF%8D/data=!4m7!3m6!1s0x3a5513f960d63a0d:0x22d8b02e093ad360!8m2!3d10.8185489!4d79.8426017!16s%2Fg%2F11gsmypm38!19sChIJDTrWYPkTVToRYNM6CS6w2CI?authuser=0&hl=en&rclk=1,"10.8185489,79.8426017"
Jamia Masjid Sengamangalam,Mosque,"QQCX+PF6 Jamia Masjid Sengamangalam, Sangamangalam Perunkadambanur Rd, Sengamangalam, Tamil Nadu 611108",,"QQCX+PF6, Sangamangalam Perunkadambanur Rd",Sengamangalam,611108,Tamil Nadu,IN,https://www.google.com/maps/place/Jamia+Masjid+Sengamangalam/data=!4m7!3m6!1s0x3a556bbf84acbd55:0x90dfb11620c8c4f1!8m2!3d10.7717946!4d79.7986471!16s%2Fg%2F11jcqzxlhc!19sChIJVb2shL9rVToR8cTIIBax35A?authuser=0&hl=en&rclk=1,"10.7717946,79.7986471"
Pa.konthagai jamia masjid,Mosque,"VQ8V+P6P Pa.konthagai jamia masjid, Thittacheri, Tamil Nadu 609703",,VQ8V+P6P,Thittacheri,609703,Tamil Nadu,IN,https://www.google.com/maps/place/Pa.konthagai+jamia+masjid/data=!4m7!3m6!1s0x3a551555328661a9:0xae6c44c75f12a624!8m2!3d10.8668232!4d79.7931028!16s%2Fg%2F11jz6hcgj1!19sChIJqWGGMlUVVToRJKYSX8dEbK4?authuser=0&hl=en&rclk=1,"10.866823199999999,79.7931028"
NAGOR dharkha,Mosque,"RR9R+8W5 NAGOR dharkha, Nagore, Nagapattinam, Tamil Nadu 611002",Nagore,RR9R+8W5,Nagapattinam,,Tamil Nadu,IN,https://www.google.com/maps/place/NAGOR+dharkha/data=!4m7!3m6!1s0x3a55130968d1688f:0xdf41b12ac0d3f796!8m2!3d10.8182579!4d79.8423699!16s%2Fg%2F11tdbb_lms!19sChIJj2jRaAkTVToRlvfTwCqxQd8?authuser=0&hl=en&rclk=1,"10.818257899999999,79.8423699"
TNTJ aliyur,Mosque,"QQF9+323 TNTJ aliyur, West St, Aaziyur, Tamil Nadu 611104",,"QQF9+323, West St",Aaziyur,611104,Tamil Nadu,IN,https://www.google.com/maps/place/TNTJ+aliyur/data=!4m7!3m6!1s0x3a556af395f80509:0x79e9a82d302ee44a!8m2!3d10.7726351!4d79.7675402!16s%2Fg%2F11d_87kdnh!19sChIJCQX4lfNqVToRSuQuMC2o6Xk?authuser=0&hl=en&rclk=1,"10.772635099999999,79.7675402"
"Mohaiyadeen Andavar Pallivasal, Neravy",Mosque,"VRQ9+WH2 Mohaiyadeen Andavar Pallivasal, Neravy, Neravy, Puducherry 609604",,VRQ9+WH2,Neravy,609604,Puducherry,IN,"https://www.google.com/maps/place/Mohaiyadeen+Andavar+Pallivasal,+Neravy/data=!4m7!3m6!1s0x3a551503da525aeb:0x33e14edd16f4e2ff!8m2!3d10.8897665!4d79.8188871!16s%2Fg%2F11t3_f5dbg!19sChIJ61pS2gMVVToR_-L0Ft1O4TM?authuser=0&hl=en&rclk=1","10.8897665,79.8188871"
Muhaideen Jamiah Masjid,School,"RRCV+5VW Muhaideen Jamiah Masjid, Maideen Palli 1st Street, Nagore, Nagapattinam, Tamil Nadu 611002",Nagore,"RRCV+5VW, Maideen Palli 1st Street",Nagapattinam,611002,Tamil Nadu,IN,https://www.google.com/maps/place/Muhaideen+Jamiah+Masjid/data=!4m7!3m6!1s0x3a55134ee5e0df45:0xb4103cc9bdfb5f0c!8m2!3d10.8204929!4d79.8447124!16s%2Fg%2F11c7p9nk81!19sChIJRd_g5U4TVToRDF_7vck8ELQ?authuser=0&hl=en&rclk=1,"10.8204929,79.84471239999999"
terupplllli msjit naakuur,Mosque,"RRCR+7W5 terupplllli msjit naakuur, Theru Palli Street, Nagore, Nagapattinam, Tamil Nadu 611002",Nagore,"RRCR+7W5, Theru Palli Street",Nagapattinam,611002,Tamil Nadu,IN,https://www.google.com/maps/place/%E0%AE%A4%E0%AF%86%E0%AE%B0%E0%AF%81%E0%AE%AA%E0%AF%8D%E0%AE%AA%E0%AE%B3%E0%AF%8D%E0%AE%B3%E0%AE%BF+%E0%AE%AE%E0%AE%B8%E0%AF%8D%E0%AE%9C%E0%AE%BF%E0%AE%A4%E0%AF%8D+%E0%AE%A8%E0%AE%BE%E0%AE%95%E0%AF%82%E0%AE%B0%E0%AF%8D/data=!4m7!3m6!1s0x3a55134e49c61441:0xf2f2333a84648af1!8m2!3d10.8206355!4d79.8423514!16s%2Fg%2F11ggsf_l3m!19sChIJQRTGSU4TVToR8YpkhDoz8vI?authuser=0&hl=en&rclk=1,"10.8206355,79.8423514"
TNTJ Manjakollai Pallivasal,Mosque,"QR4C+5JC TNTJ Manjakollai Pallivasal, Nagapattinam, Tamil Nadu 611106",,QR4C+5JC,Nagapattinam,,Tamil Nadu,IN,https://www.google.com/maps/place/TNTJ+Manjakollai+Pallivasal/data=!4m7!3m6!1s0x3a556b44bc79e7e1:0x1df044f616f35110!8m2!3d10.7554468!4d79.8215255!16s%2Fg%2F11sq51v8yf!19sChIJ4ed5vERrVToREFHzFvZE8B0?authuser=0&hl=en&rclk=1,"10.7554468,79.82152549999999"
Thethi masjid,Mosque,"QRXM+MQ9 Thethi masjid, South Palpannaicherry, Velippalayam, Uttamacholapuram, Nagapattinam, Tamil Nadu 611001","South Palpannaicherry, Velippalayam",QRXM+MQ9,"Uttamacholapuram, Nagapattinam",611001,Tamil Nadu,IN,https://www.google.com/maps/place/Thethi+masjid/data=!4m7!3m6!1s0x3a556d2f10e3d22f:0x3ad2a5cbba0e7a27!8m2!3d10.7991713!4d79.8344882!16s%2Fg%2F11fn6xvxxk!19sChIJL9LjEC9tVToRJ3oOusul0jo?authuser=0&hl=en&rclk=1,"10.7991713,79.8344882"
Masjid DewanSha,Mosque,"RR9V+C29 Masjid DewanSha, Darga Kulam Melkarai St, Nagore, Nagapattinam, Tamil Nadu 611002",Nagore,"RR9V+C29, Darga Kulam Melkarai St",Nagapattinam,611002,Tamil Nadu,IN,https://www.google.com/maps/place/Masjid+DewanSha/data=!4m7!3m6!1s0x3a55134e74115555:0x192c9eb727ecb3a4!8m2!3d10.8185396!4d79.8425637!16s%2Fg%2F11sscsgz_l!19sChIJVVURdE4TVToRpLPsJ7eeLBk?authuser=0&hl=en&rclk=1,"10.8185396,79.8425637"
Mohamadia Puram Jamia Masjid,Mosque,"QRCQ+4MH Mohamadia Puram Jamia Masjid, VOC Nagar, Nagapattinam, Tamil Nadu 611003",VOC Nagar,QRCQ+4MH,Nagapattinam,611003,Tamil Nadu,IN,https://www.google.com/maps/place/Mohamadia+Puram+Jamia+Masjid/data=!4m7!3m6!1s0x3a556c87b6e15555:0x9dde76c65d930666!8m2!3d10.7703133!4d79.8392375!16s%2Fg%2F11kj3f3sd2!19sChIJVVXhtodsVToRZgaTXcZ23p0?authuser=0&hl=en&rclk=1,"10.7703133,79.8392375"
Masjid Al Ibrahim,Mosque,"PRQX+78M Masjid Al Ibrahim, North Poigainallur, Tamil Nadu 611106",,PRQX+78M,North Poigainallur,611106,Tamil Nadu,IN,https://www.google.com/maps/place/Masjid+Al+Ibrahim/data=!4m7!3m6!1s0x3a556d1c511633d7:0x646373d8a55cb3b5!8m2!3d10.738103!4d79.848297!16s%2Fg%2F11s_yxf131!19sChIJ1zMWURxtVToRtbNcpdhzY2Q?authuser=0&hl=en&rclk=1,"10.738102999999999,79.848297"
tkvaa plllli vaacl,Mosque,"tkvaa plllli vaacl, Thetthi Nagar Masjid, Velippalayam, Thethi, Nagapattinam, Tamil Nadu 611001",Velippalayam,Thetthi Nagar Masjid,"Thethi, Nagapattinam",611001,Tamil Nadu,IN,https://www.google.com/maps/place/%E0%AE%A4%E0%AE%95%E0%AF%8D%E0%AE%B5%E0%AE%BE+%E0%AE%AA%E0%AE%B3%E0%AF%8D%E0%AE%B3%E0%AE%BF+%E0%AE%B5%E0%AE%BE%E0%AE%9A%E0%AE%B2%E0%AF%8D/data=!4m7!3m6!1s0x3a556debac92ab69:0x251965c02a35ad09!8m2!3d10.8006544!4d79.8305705!16s%2Fg%2F11h4nbdvsz!19sChIJaauSrOttVToRCa01KsBlGSU?authuser=0&hl=en&rclk=1,"10.800654399999999,79.8305705"
"Small Masjid, Kondagai",Mosque,"VQCV+G95 Small Masjid, Kondagai, Agarakondagai, Tamil Nadu 609703",,VQCV+G95,Agarakondagai,609703,Tamil Nadu,IN,"https://www.google.com/maps/place/Small+Masjid,+Kondagai/data=!4m7!3m6!1s0x3a55144f21376241:0x9bbb7e980de6bd7c!8m2!3d10.8712539!4d79.793498!16s%2Fg%2F11bw618csh!19sChIJQWI3IU8UVToRfL3mDZh-u5s?authuser=0&hl=en&rclk=1","10.8712539,79.793498"
Thowheed Mosque,Mosque,"MRHV+4HF Thowheed Mosque, Velankanni, Tamil Nadu 611111",,MRHV+4HF,Velankanni,611111,Tamil Nadu,IN,https://www.google.com/maps/place/Thowheed+Mosque/data=!4m7!3m6!1s0x3a556f0a69307e4b:0xa5114df3cd023e39!8m2!3d10.6778108!4d79.8439289!16s%2Fg%2F11n0zmhwpg!19sChIJS34waQpvVToROT4CzfNNEaU?authuser=0&hl=en&rclk=1,"10.6778108,79.8439289"
Maideen Masjid,Mosque,"QRFR+JP2 Maideen Masjid, Elancheran Nagar, Nagapattinam, Tamil Nadu 611001",,QRFR+JP2,"Elancheran Nagar, Nagapattinam",611001,Tamil Nadu,IN,https://www.google.com/maps/place/Maideen+Masjid/data=!4m7!3m6!1s0x3a556c8f4c2c0001:0xa4bbd6111f66d586!8m2!3d10.7740069!4d79.8417759!16s%2Fg%2F11kj3f3z3k!19sChIJAQAsTI9sVToRhtVmHxHWu6Q?authuser=0&hl=en&rclk=1,"10.7740069,79.8417759"
Masjid Nawab Jamia,Mosque,"Masjid Nawab Jamia, 85/27A, Nagore, Nagapattinam, Tamil Nadu 611002",Nagore,85/27A,Nagapattinam,611002,Tamil Nadu,IN,https://www.google.com/maps/place/Masjid+Nawab+Jamia/data=!4m7!3m6!1s0x3a55134e05a55555:0x43d1b12a6b4df1f5!8m2!3d10.8186986!4d79.8414477!16s%2Fg%2F11tgg7mxf6!19sChIJVVWlBU4TVToR9fFNayqx0UM?authuser=0&hl=en&rclk=1,"10.8186986,79.8414477"
TNTJ THOWHEED MASJID,Mosque,"QRWP+JR2 TNTJ THOWHEED MASJID, Annai nagar, Velippalayam, Thethi, Tamil Nadu 611001",Velippalayam,"QRWP+JR2, Annai nagar","Thethi, Nagapattinam",611001,Tamil Nadu,IN,https://www.google.com/maps/place/TNTJ+THOWHEED+MASJID/data=!4m7!3m6!1s0x3a556d09e72a34b5:0x70d4cfe83783c79f!8m2!3d10.7965028!4d79.8370211!16s%2Fg%2F11qh8c3dkz!19sChIJtTQq5wltVToRn8eDN-jP1HA?authuser=0&hl=en&rclk=1,"10.796502799999999,79.8370211"
Santha Sahib Dhargah,Mosque,"RR3F+GG9 Santha Sahib Dhargah, Nagapattinam, Tamil Nadu 611108",,RR3F+GG9,Nagapattinam,,Tamil Nadu,IN,https://www.google.com/maps/place/Santha+Sahib+Dhargah/data=!4m7!3m6!1s0x3a556bc937a7d8c5:0x7909dcacb388c62d!8m2!3d10.803786!4d79.8238722!16s%2Fg%2F11h1ml219d!19sChIJxdinN8lrVToRLcaIs6zcCXk?authuser=0&hl=en&rclk=1,"10.803785999999999,79.8238722"
celluur pllllivaacl,Mosque,"QRFF+WMQ celluur pllllivaacl, East Coast Rd, Sellur, Nagapattinam, Tamil Nadu 611001",Sellur,"QRFF+WMQ, East Coast Rd",Nagapattinam,611001,Tamil Nadu,IN,https://www.google.com/maps/place/%E0%AE%9A%E0%AF%86%E0%AE%B2%E0%AF%8D%E0%AE%B2%E0%AF%82%E0%AE%B0%E0%AF%8D+%E0%AE%AA%E0%AE%B3%E0%AF%8D%E0%AE%B3%E0%AE%BF%E0%AE%B5%E0%AE%BE%E0%AE%9A%E0%AE%B2%E0%AF%8D/data=!4m7!3m6!1s0x3a556b929171b183:0x5f0b9ff6757e0c27!8m2!3d10.7748337!4d79.8242191!16s%2Fg%2F11rsvc195r!19sChIJg7FxkZJrVToRJwx-dfafC18?authuser=0&hl=en&rclk=1,"10.7748337,79.8242191"
Cilladi Masjid Nagore,Mosque,"RR7X+97R Cilladi Masjid Nagore, Peerodum Street, Nagore, Nagapattinam, Tamil Nadu 611002",Nagore,"RR7X+97R, Peerodum Street",Nagapattinam,611002,Tamil Nadu,IN,https://www.google.com/maps/place/Cilladi+Masjid+Nagore/data=!4m7!3m6!1s0x3a55134b37400001:0x80d496ebf8780030!8m2!3d10.8134802!4d79.8481434!16s%2Fg%2F11sscs3vpr!19sChIJAQBAN0sTVToRMAB4-OuW1IA?authuser=0&hl=en&rclk=1,"10.813480199999999,79.8481434"
Mohamadhiya Masjid,Mosque,"RRHG+J2R Mohamadhiya Masjid, Panangudi, Tamil Nadu 611002",,RRHG+J2R,Panangudi,,Tamil Nadu,IN,https://www.google.com/maps/place/Mohamadhiya+Masjid/data=!4m7!3m6!1s0x3a5514a14c3cd3e5:0xede085be9b9bc2c7!8m2!3d10.8291205!4d79.825022!16s%2Fg%2F11hd8y3_4z!19sChIJ5dM8TKEUVToRx8Kbm76F4O0?authuser=0&hl=en&rclk=1,"10.8291205,79.82502199999999"
pllllivaacl,Mosque,"pllllivaacl, Old Masjid, VOC Nagar, Nagapattinam, Tamil Nadu 611001",VOC Nagar,Old Masjid,Nagapattinam,611001,Tamil Nadu,IN,https://www.google.com/maps/place/%E0%AE%AA%E0%AE%B3%E0%AF%8D%E0%AE%B3%E0%AE%BF%E0%AE%B5%E0%AE%BE%E0%AE%9A%E0%AE%B2%E0%AF%8D/data=!4m7!3m6!1s0x3a556d445afc1631:0x8a8c6d63500a2b85!8m2!3d10.7800013!4d79.8383963!16s%2Fg%2F11fsk5b21j!19sChIJMRb8WkRtVToRhSsKUGNtjIo?authuser=0&hl=en&rclk=1,"10.7800013,79.8383963"
TNTJ Masjid,Mosque,"QP7R+CW3 TNTJ Masjid, Kilvelur, Tamil Nadu 611104",,QP7R+CW3,Kilvelur,611104,Tamil Nadu,IN,https://www.google.com/maps/place/TNTJ+Masjid/data=!4m7!3m6!1s0x3a556bca97e5a451:0x83fc733e91cc7881!8m2!3d10.7635204!4d79.7423036!16s%2Fg%2F11fn0l0wzz!19sChIJUaTll8prVToRgXjMkT5z_IM?authuser=0&hl=en&rclk=1,"10.763520399999999,79.7423036"
TNTJ Masjid,Mosque,"MRHV+3HV TNTJ Masjid, Velankanni, Tamil Nadu 611111",,MRHV+3HV,Velankanni,611111,Tamil Nadu,IN,https://www.google.com/maps/place/TNTJ+Masjid/data=!4m7!3m6!1s0x3a556fca3ae7cc43:0x8aa279d821882f68!8m2!3d10.6777427!4d79.8439196!16s%2Fg%2F11h1jzqzq7!19sChIJQ8znOspvVToRaC-IIdh5ooo?authuser=0&hl=en&rclk=1,"10.6777427,79.84391959999999"
From The Town of Hazrat Kadhirwali,Mosque,"From The Town of Hazrat Kadhirwali, Nagore, Nagapattinam, Tamil Nadu 611002",Nagore,,Nagapattinam,611002,Tamil Nadu,IN,https://www.google.com/maps/place/From+The+Town+of+Hazrat+Kadhirwali/data=!4m7!3m6!1s0x3a551380dc10f005:0xfd3161a8a3382e4c!8m2!3d10.8183866!4d79.8412303!16s%2Fg%2F11jr68n5yb!19sChIJBfAQ3IATVToRTC44o6hhMf0?authuser=0&hl=en&rclk=1,"10.8183866,79.84123029999999"
T. R. P. MELA PALLI DHARGA,Mosque,"T. R. P. MELA PALLI DHARGA, Masjid Melapalli, MELA PALLI STREET, Vella Kulam Street, Tirumalairayan Pattinam, Puducherry 609606",,"Masjid Melapalli, MELA PALLI STREET, Vella Kulam Street",Tirumalairayan Pattinam,609606,Puducherry,IN,https://www.google.com/maps/place/T.+R.+P.+MELA+PALLI+DHARGA/data=!4m7!3m6!1s0x3a55152c78fcbe1b:0x1e626aa2af833b65!8m2!3d10.8782606!4d79.8284826!16s%2Fg%2F11sq_zsfq5!19sChIJG778eCwVVToRZTuDr6JqYh4?authuser=0&hl=en&rclk=1,"10.878260599999999,79.8284826"
Nagai Muslim Thowheed Jamath - naakai musliim tauhiit jmaaat,Mosque,"Nagai Muslim Thowheed Jamath - naakai musliim tauhiit jmaaat, 7, Salapalli St, ASN Colony, Melakottaivasal, Nagapattinam, Tamil Nadu 611001","ASN Colony, Melakottaivasal","7, Salapalli St",Nagapattinam,611001,Tamil Nadu,IN,https://www.google.com/maps/place/Nagai+Muslim+Thowheed+Jamath+-+%E0%AE%A8%E0%AE%BE%E0%AE%95%E0%AF%88+%E0%AE%AE%E0%AF%81%E0%AE%B8%E0%AF%8D%E0%AE%B2%E0%AF%80%E0%AE%AE%E0%AF%8D+%E0%AE%A4%E0%AF%8C%E0%AE%B9%E0%AF%80%E0%AE%A4%E0%AF%8D+%E0%AE%9C%E0%AE%AE%E0%AE%BE%E0%AE%85%E0%AE%A4%E0%AF%8D/data=!4m7!3m6!1s0x3a556d8fb483f609:0xde1e38f1f8c1df37!8m2!3d10.7632365!4d79.8474634!16s%2Fg%2F11h7fnfs_n!19sChIJCfaDtI9tVToRN9_B-PE4Ht4?authuser=0&hl=en&rclk=1,"10.7632365,79.8474634"
