name,main_category,address,address_ward,address_street,address_city,address_postal_code,address_state,address_country_code,link,coordinates
Madina MasjidmdynH msjd,Mosque,"JX83+7J2 Madina MasjidmdynH msjd, Mumbai Hwy, Rahmathnagar, Sadashivpet, Telangana 502291",Rahmathnagar,"JX83+7J2, Mumbai Hwy",Sadashivpet,502291,Telangana,IN,https://www.google.com/maps/place/Madina+Masjid%D9%85%D8%AF%DB%8C%D9%86%DB%82+%D9%85%D8%B3%D8%AC%D8%AF%E2%80%AD/data=!4m7!3m6!1s0x3bcbfe464c81f61b:0xe981e4a05ef8901!8m2!3d17.6156274!4d77.9540169!16s%2Fg%2F11b6q3049b!19sChIJG_aBTEb-yzsRAYnvBUoemA4?authuser=0&hl=en&rclk=1,"17.615627399999997,77.9540169"
MASJID OMER-E-FAROOQ,Mosque,"MASJID OMER-E-FAROOQ, MASJID ROAD, QASIM NAGAR BEHIND SVP, Gunj Rd, Sadashivpet",,"MASJID ROAD, QASIM NAGAR BEHIND SVP, Gunj Rd",Sadashivpet,,Telangana,IN,https://www.google.com/maps/place/MASJID+OMER-E-FAROOQ/data=!4m7!3m6!1s0x3bcbfe4ea854410d:0xdf08f8176ee0f6a2!8m2!3d17.6232697!4d77.9571702!16s%2Fg%2F11cppwxq3r!19sChIJDUFUqE7-yzsRovbgbhf4CN8?authuser=0&hl=en&rclk=1,"17.623269699999998,77.9571702"
Masjid E Aqsa,Mosque,"JXF3+58G Masjid E Aqsa, Shivapuricolony, Sadashivpet, Telangana 502291",Shivapuricolony,JXF3+58G,Sadashivpet,502291,Telangana,IN,https://www.google.com/maps/place/Masjid+E+Aqsa/data=!4m7!3m6!1s0x3bcbfe4986e4d1bd:0x7f268e51453a187b!8m2!3d17.6229358!4d77.9533202!16s%2Fg%2F11gbkw7p3s!19sChIJvdHkhkn-yzsRexg6RVGOJn8?authuser=0&hl=en&rclk=1,"17.6229358,77.9533202"
Mohammadiya Masjid mHmdyh msjd,Mosque,"JX97+63G Mohammadiya Masjid mHmdyh msjd, Sadashivpet, Telangana 502291",,JX97+63G,Sadashivpet,502291,Telangana,IN,https://www.google.com/maps/place/Mohammadiya+Masjid+%D9%85%D8%AD%D9%85%D8%AF%DB%8C%DB%81+%D9%85%D8%B3%D8%AC%D8%AF%E2%80%AD/data=!4m7!3m6!1s0x3bcbfe5000e8ae4f:0xbea7f1d12ddb632!8m2!3d17.6180505!4d77.9626909!16s%2Fg%2F11c71p3zg5!19sChIJT67oAFD-yzsRMrbdEh1_6gs?authuser=0&hl=en&rclk=1,"17.6180505,77.9626909"
"Ibrahim Masjid,Ahle sunnath-wal-jamath",Mosque,"JWCR+7RC Ibrahim Masjid,Ahle sunnath-wal-jamath, Gurunagar Colony, Ravindra Nagar, Sadashivpet, Telangana 502291","Gurunagar Colony, Ravindra Nagar",JWCR+7RC,Sadashivpet,502291,Telangana,IN,"https://www.google.com/maps/place/Ibrahim+Masjid,Ahle+sunnath-wal-jamath/data=!4m7!3m6!1s0x3bcbfe31a3f2ef97:0x19cf15919d13b739!8m2!3d17.620682!4d77.9420147!16s%2Fg%2F11gbkxqqbx!19sChIJl-_yozH-yzsRObcTnZEVzxk?authuser=0&hl=en&rclk=1","17.620682,77.9420147"
Masjid-E-Abbubakar old street,Mosque,"Masjid-E-Abbubakar old street, 502291 Hazrath Tipusultan Colony, Sadashivpet, Telangana 502291","Eshwar Nagar Colony, Ravindra Nagar",502291 Hazrath Tipusultan Colony,Sadashivpet,502291,Telangana,IN,https://www.google.com/maps/place/Masjid-E-Abbubakar+old+street/data=!4m7!3m6!1s0x3bcbfe35dd0e0beb:0x889f052d8074df4c!8m2!3d17.6235097!4d77.9494627!16s%2Fg%2F11gb3rdgsp!19sChIJ6wsO3TX-yzsRTN90gC0Fn4g?authuser=0&hl=en&rclk=1,"17.6235097,77.9494627"
Qasimia Masjid (Markaz),Mosque,"JX93+RVX Qasimia Masjid (Markaz), Gandhi Rd, Ravindra Nagar, Sadashivpet, Telangana 502291",Ravindra Nagar,"JX93+RVX, Gandhi Rd",Sadashivpet,502291,Telangana,IN,https://www.google.com/maps/place/Qasimia+Masjid+%28Markaz%29/data=!4m7!3m6!1s0x3bcbfe48ef887af7:0xba48fb08922c7609!8m2!3d17.6196098!4d77.9547216!16s%2Fg%2F11gbp9dy37!19sChIJ93qI70j-yzsRCXYskgj7SLo?authuser=0&hl=en&rclk=1,"17.6196098,77.9547216"
MASJID-E-SARAA,Mosque,"JXC2+2RH MASJID-E-SARAA, Ravindra Nagar, Sadashivpet, Telangana 502291",Ravindra Nagar,JXC2+2RH,Sadashivpet,502291,Telangana,IN,https://www.google.com/maps/place/MASJID-E-SARAA/data=!4m7!3m6!1s0x3bcbfe4834e57bd3:0x5b6905769b7292c1!8m2!3d17.6200557!4d77.9521216!16s%2Fg%2F11ck709g6s!19sChIJ03vlNEj-yzsRwZJym3YFaVs?authuser=0&hl=en&rclk=1,"17.620055699999998,77.9521216"
JAMIA MASJID jm` msjd,Mosque,"JAMIA MASJID jm` msjd, 4-1-7, Gandhi Rd, Ravindra Nagar, Sadashivpet, Telangana 502291",Ravindra Nagar,"4-1-7, Gandhi Rd",Sadashivpet,502291,Telangana,IN,https://www.google.com/maps/place/JAMIA+MASJID+%D8%AC%D8%A7%D9%85%D8%B9+%D9%85%D8%B3%D8%AC%D8%AF%E2%80%AD/data=!4m7!3m6!1s0x3bcbfe37b2514a3d:0x43c340112e095e79!8m2!3d17.6197799!4d77.94903!16s%2Fg%2F11csrvn7qz!19sChIJPUpRsjf-yzsReV4JLhFAw0M?authuser=0&hl=en&rclk=1,"17.619779899999997,77.94903"
Qureshi Masjid.,Mosque,"JXC4+24V Qureshi Masjid., Gandhi Rd, Ravindra Nagar, Sadashivpet, Telangana 502291",Ravindra Nagar,"JXC4+24V, Gandhi Rd",Sadashivpet,502291,Telangana,IN,https://www.google.com/maps/place/Qureshi+Masjid./data=!4m7!3m6!1s0x3bcbfe48de2063eb:0xb6b783c6ba324a69!8m2!3d17.6201097!4d77.9553084!16s%2Fg%2F11gbt62x6y!19sChIJ62Mg3kj-yzsRaUoyusaDt7Y?authuser=0&hl=en&rclk=1,"17.6201097,77.95530839999999"
"Masjid-E-Fatima,Ahle Sunnath-Wal-Jamath",Mosque,"JW6W+RXX Masjid-E-Fatima,Ahle Sunnath-Wal-Jamath, Sadashivpet, Telangana 502291",,JW6W+RXX,Sadashivpet,502291,Telangana,IN,"https://www.google.com/maps/place/Masjid-E-Fatima,Ahle+Sunnath-Wal-Jamath/data=!4m7!3m6!1s0x3bcbfe392529982f:0xbceb221f0dd62dba!8m2!3d17.6121073!4d77.9474841!16s%2Fg%2F11fylnkl6x!19sChIJL5gpJTn-yzsRui3WDR8i67w?authuser=0&hl=en&rclk=1","17.612107299999998,77.9474841"
New Masjid,Mosque,"JX62+H9W New Masjid, Unnamed Road, Siddapu Colony, Sadashivpet, Telangana 502291",Siddapu Colony,"JX62+H9W, Unnamed Road",Sadashivpet,502291,Telangana,IN,https://www.google.com/maps/place/New+Masjid/data=!4m7!3m6!1s0x3bcbff5afda039b5:0x49a9133e092e9e26!8m2!3d17.6114984!4d77.9509512!16s%2Fg%2F11q949tcrj!19sChIJtTmg_Vr_yzsRJp4uCT4TqUk?authuser=0&hl=en&rclk=1,"17.6114984,77.95095119999999"
Masjid-E-Bilal AHLE_SUNNATH-WAL-JAMATH(SUNNI),Mosque,"JW9X+3MV Masjid-E-Bilal AHLE_SUNNATH-WAL-JAMATH(SUNNI), Ravindra Nagar, Sadashivpet, Telangana 502291",Ravindra Nagar,JW9X+3MV,Sadashivpet,502291,Telangana,IN,https://www.google.com/maps/place/Masjid-E-Bilal+AHLE_SUNNATH-WAL-JAMATH%28SUNNI%29/data=!4m7!3m6!1s0x3bcbfe378e6853a3:0xd050ceeb8ac32c31!8m2!3d17.6177477!4d77.9491602!16s%2Fg%2F11f0kvx0gv!19sChIJo1Nojjf-yzsRMSzDiuvOUNA?authuser=0&hl=en&rclk=1,"17.6177477,77.9491602"
Mosque,Mosque,"JW8W+X5H Mosque, Sadashivpet, Telangana 502291",,JW8W+X5H,Sadashivpet,502291,Telangana,IN,https://www.google.com/maps/place/Mosque/data=!4m7!3m6!1s0x3bcbff2cbb504ef3:0xa97e3b9022a62949!8m2!3d17.6176239!4d77.945165!16s%2Fg%2F11ny4lb41f!19sChIJ805Quyz_yzsRSSmmIpA7fqk?authuser=0&hl=en&rclk=1,"17.617623899999998,77.945165"
MASJID-E-RAZZAQIA,Mosque,"JXG7+J33 MASJID-E-RAZZAQIA, Service Rd, Sadashivpet, Telangana 502291",,"JXG7+J33, Service Rd",Sadashivpet,502291,Telangana,IN,https://www.google.com/maps/place/MASJID-E-RAZZAQIA/data=!4m7!3m6!1s0x3bcbff1c8cfbd413:0x492102cae797383d!8m2!3d17.626566!4d77.9626051!16s%2Fg%2F11l2k9np_t!19sChIJE9T7jBz_yzsRPTiX58oCIUk?authuser=0&hl=en&rclk=1,"17.626566,77.96260509999999"
Mayuf Masjid,Mosque,"JW7X+2RC Mayuf Masjid, Siddapu Colony, Sadashivpet, Telangana 502291",Siddapu Colony,JW7X+2RC,Sadashivpet,502291,Telangana,IN,https://www.google.com/maps/place/Mayuf+Masjid/data=!4m7!3m6!1s0x3bcbff3f2d050725:0xe692841968e1cd82!8m2!3d17.6126584!4d77.9495991!16s%2Fg%2F11q949qh03!19sChIJJQcFLT__yzsRgs3haBmEkuY?authuser=0&hl=en&rclk=1,"17.6126584,77.9495991"
Masjid Moulana Sadaath,Mosque,"JW9W+333 Masjid Moulana Sadaath, Sadashivpet, Telangana 502291",,JW9W+333,Sadashivpet,502291,Telangana,IN,https://www.google.com/maps/place/Masjid+Moulana+Sadaath/data=!4m7!3m6!1s0x3bcbff19e163cd85:0x6d3e191fc3524a63!8m2!3d17.6176441!4d77.9451636!16s%2Fg%2F11p034v3n9!19sChIJhc1j4Rn_yzsRY0pSwx8ZPm0?authuser=0&hl=en&rclk=1,"17.6176441,77.9451636"
Ashur Khana (BADI MASJID),Religious destination,"JXF2+3WP Ashur Khana (BADI MASJID), Ravindra Nagar, Sadashivpet, Telangana 502291",Ravindra Nagar,JXF2+3WP,Sadashivpet,502291,Telangana,IN,https://www.google.com/maps/place/Ashur+Khana+%28BADI+MASJID%29/data=!4m7!3m6!1s0x3bcbfe49f3115963:0x6d4351815291930c!8m2!3d17.6227065!4d77.9523269!16s%2Fg%2F11fzd0lb02!19sChIJY1kR80n-yzsRDJORUoFRQ20?authuser=0&hl=en&rclk=1,"17.6227065,77.9523269"
Masjid-e-amra,Mosque,"Masjid-e-amra, 3-9-48/1, Rahmathnagar, Sadashivpet, Telangana 502291",Rahmathnagar,3-9-48/1,Sadashivpet,502291,Telangana,IN,https://www.google.com/maps/place/Masjid-e-amra/data=!4m7!3m6!1s0x3bcbff7399c13623:0x6cd8212ac037d5!8m2!3d17.614771!4d77.9563753!16s%2Fg%2F11ry7vlb00!19sChIJIzbBmXP_yzsR1TfAKiHYbAA?authuser=0&hl=en&rclk=1,"17.614770999999998,77.95637529999999"
Masjid e badarunnisa,Mosque,"JXF6+P57 Masjid e badarunnisa, Qasim Nagar Bsid, Gunj Rd, Sadashivpet, Telangana 502291",,"JXF6+P57, Qasim Nagar Bsid, Gunj Rd",Sadashivpet,502291,Telangana,IN,https://www.google.com/maps/place/Masjid+e+badarunnisa/data=!4m7!3m6!1s0x3bcbff8e5ceb6827:0x5b828bc09c3763a2!8m2!3d17.6242807!4d77.9604344!16s%2Fg%2F11sy6xdbvt!19sChIJJ2jrXI7_yzsRomM3nMCLgls?authuser=0&hl=en&rclk=1,"17.6242807,77.9604344"
Masjid-e-Rahmath Ali,Mosque,"JX73+WCF Masjid-e-Rahmath Ali, Rahmathnagar, Sadashivpet, Telangana 502291",Rahmathnagar,JX73+WCF,Sadashivpet,502291,Telangana,IN,https://www.google.com/maps/place/Masjid-e-Rahmath+Ali/data=!4m7!3m6!1s0x3bcbffb60c671e1f:0x17a78ae6b6ea6ef2!8m2!3d17.614825!4d77.9535586!16s%2Fg%2F11h1m59dmw!19sChIJHx5nDLb_yzsR8m7qtuaKpxc?authuser=0&hl=en&rclk=1,"17.614825,77.9535586"
Masjid e ibraheem khaleel ullah,Mosque,"JXF5+JR Masjid e ibraheem khaleel ullah, Sadashivpet, Telangana 502291",,JXF5+JR,Sadashivpet,,Telangana,IN,https://www.google.com/maps/place/Masjid+e+ibraheem+khaleel+ullah/data=!4m7!3m6!1s0x3bcbfff26767c04b:0xdfc665188228e28!8m2!3d17.624114!4d77.959559!16s%2Fg%2F11rylgx6ff!19sChIJS8BnZ_L_yzsRKI4iiFFm_A0?authuser=0&hl=en&rclk=1,"17.624114,77.959559"
SAGIR AHMAD MASJID,Mosque,"JW6V+QW2 SAGIR AHMAD MASJID, Sadashivpet, Telangana 502291",,JW6V+QW2,Sadashivpet,502291,Telangana,IN,https://www.google.com/maps/place/SAGIR+AHMAD+MASJID/data=!4m7!3m6!1s0x3bcbffdf87cf19a3:0x24f8bb611216b66f!8m2!3d17.6118755!4d77.9447777!16s%2Fg%2F11p0j3rl6x!19sChIJoxnPh9__yzsRb7YWEmG7-CQ?authuser=0&hl=en&rclk=1,"17.6118755,77.9447777"
Masjid e tawheed,Mosque,"JX24+Q43 Masjid e tawheed, Yavapur (DP), Telangana 502291",,JX24+Q43,Yavapur (DP),502291,Telangana,IN,https://www.google.com/maps/place/Masjid+e+tawheed/data=!4m7!3m6!1s0x3bcbffbaf14b7123:0x657b4d74d5d13bf4!8m2!3d17.6018875!4d77.9552969!16s%2Fg%2F11pl5t44rf!19sChIJI3FL8br_yzsR9DvR1XRNe2U?authuser=0&hl=en&rclk=1,"17.6018875,77.9552969"
Masjid-E- Razzaqiya,Mosque,"JXC5+XMJ Masjid-E- Razzaqiya, Gunj Beside Rd, Sadashivpet, Telangana 502291",,"JXC5+XMJ, Gunj Beside Rd",Sadashivpet,502291,Telangana,IN,https://www.google.com/maps/place/Masjid-E-+Razzaqiya/data=!4m7!3m6!1s0x3bcbffcc4b138209:0xa170912452fbb49a!8m2!3d17.6224656!4d77.9591289!16s%2Fg%2F11vbf0ycp5!19sChIJCYITS8z_yzsRmrT7UiSRcKE?authuser=0&hl=en&rclk=1,"17.622465599999998,77.9591289"
Fayyaz nagar masjid,Mosque,"JX72+CF Fayyaz nagar masjid, Siddapu Colony, Sadashivpet, Telangana 502291",Siddapu Colony,JX72+CF,Sadashivpet,,Telangana,IN,https://www.google.com/maps/place/Fayyaz+nagar+masjid/data=!4m7!3m6!1s0x3bcbffc224df8ebb:0xa4045410c89ab513!8m2!3d17.6139494!4d77.9514671!16s%2Fg%2F11tsh3wq5p!19sChIJu47fJML_yzsRE7WayBBUBKQ?authuser=0&hl=en&rclk=1,"17.6139494,77.9514671"
Jubilee Masjidjwbly msjd,Mosque,"JX82+952 Jubilee Masjidjwbly msjd, Ravindra Nagar, Sadashivpet, Telangana 502291",Ravindra Nagar,JX82+952,Sadashivpet,502291,Telangana,IN,https://www.google.com/maps/place/Jubilee+Masjid%D8%AC%D9%88%D8%A8%D9%84%DB%8C+%D9%85%D8%B3%D8%AC%D8%AF%E2%80%AD/data=!4m7!3m6!1s0x3bcbfe38127ffd3f:0x8e80c19413e72c47!8m2!3d17.6158938!4d77.9503757!16s%2Fg%2F11g8wh75sz!19sChIJP_1_Ejj-yzsRRyznE5TBgI4?authuser=0&hl=en&rclk=1,"17.6158938,77.9503757"
CHIRAG'A KATTA,Mosque,"CHIRAG'A KATTA, 4-1-7, Gandhi Rd, Ravindra Nagar, Sadashivpet, Telangana 502291",Ravindra Nagar,"4-1-7, Gandhi Rd",Sadashivpet,502291,Telangana,IN,https://www.google.com/maps/place/CHIRAG%27A+KATTA/data=!4m7!3m6!1s0x3bcbffc2bebabac9:0xfbb7c9d77c7f9ee4!8m2!3d17.6197919!4d77.949003!16s%2Fg%2F11rgqdkr79!19sChIJybq6vsL_yzsR5J5_fNfJt_s?authuser=0&hl=en&rclk=1,"17.6197919,77.94900299999999"
New Eidgah Sadasivpet,Mosque,"JX24+Q43 New Eidgah Sadasivpet, Yavapur (DP), Telangana 502291",,JX24+Q43,Yavapur (DP),502291,Telangana,IN,https://www.google.com/maps/place/New+Eidgah+Sadasivpet/data=!4m7!3m6!1s0x3bcbff8e45fbafa7:0x7be2543f19f33a6c!8m2!3d17.6019138!4d77.9553262!16s%2Fg%2F11tkb3x0x_!19sChIJp6_7RY7_yzsRbDrzGT9U4ns?authuser=0&hl=en&rclk=1,"17.6019138,77.9553262"
