name,main_category,address,address_ward,address_street,address_city,address_postal_code,address_state,address_country_code,link,coordinates
Sunni markaz Masjid E Yasmeen,Mosque,"Sunni markaz Masjid E Yasmeen, 33, Infantry Road, Rahimabad Colony, Tilak Nagar, Cantonment, Ballari, Karnataka 583102","Rahimabad Colony, Tilak Nagar, Cantonment","33, Infantry Road",Ballari,583102,Karnataka,IN,https://www.google.com/maps/place/Sunni+markaz+Masjid+E+Yasmeen/data=!4m7!3m6!1s0x3bb713c7909e2845:0xebd0977bfdc141b4!8m2!3d15.147901!4d76.8961882!16s%2Fg%2F11b_01fp5z!19sChIJRSiekMcTtzsRtEHB_XuX0Os?authuser=0&hl=en&rclk=1,"15.147901,76.8961882"
Khadriya Masjid sunni,Mosque,"4WRG+JCF Khadriya Masjid sunni, Bangalore Rd, near Khadriya Masjid, Nalagadda, BSNL Colony, Cowl Bazaar, Ballari, Karnataka 583101","Nalagadda, BSNL Colony, Cowl Bazaar","4WRG+JCF, Bangalore Rd, near Khadriya Masjid",Ballari,583101,Karnataka,IN,https://www.google.com/maps/place/Khadriya+Masjid+sunni/data=!4m7!3m6!1s0x3bb711676d43a6bf:0x889f4665c2dfb74a!8m2!3d15.1415738!4d76.9260368!16s%2Fg%2F113hd42s8!19sChIJv6ZDbWcRtzsRSrffwmVGn4g?authuser=0&hl=en&rclk=1,"15.1415738,76.92603679999999"
Sunni Khuni thana Masjid(sunni Masjid E Elahi),Mosque,"4VPX+MJM Sunni Khuni thana Masjid(sunni Masjid E Elahi), Jawans Rd, Cowl Bazaar, Ballari, Karnataka 583102",Cowl Bazaar,"4VPX+MJM, Jawans Rd",Ballari,583102,Karnataka,IN,https://www.google.com/maps/place/Sunni+Khuni+thana+Masjid%28sunni+Masjid+E+Elahi%29/data=!4m7!3m6!1s0x3bb713ea46712f9d:0x8359236d521f423f!8m2!3d15.1367038!4d76.899032!16s%2Fg%2F11cmfd8b_3!19sChIJnS9xRuoTtzsRP0IfUm0jWYM?authuser=0&hl=en&rclk=1,"15.1367038,76.89903199999999"
Sunni Ek Minar Masjid (Cavalry Majid),Mosque,"4VMV+XJ2 Sunni Ek Minar Masjid (Cavalry Majid), Cowl Bazaar, Ballari, Karnataka 583102",Cowl Bazaar,4VMV+XJ2,Ballari,583102,Karnataka,IN,https://www.google.com/maps/place/Sunni+Ek+Minar+Masjid+%28Cavalry+Majid%29/data=!4m7!3m6!1s0x3bb71394dc9aa4f7:0xaef40f9efaf616e6!8m2!3d15.1348792!4d76.894029!16s%2Fg%2F1tmbtknq!19sChIJ96Sa3JQTtzsR5hb2-p4P9K4?authuser=0&hl=en&rclk=1,"15.134879199999999,76.894029"
Hashmi Masjid tableeghi,Mosque,"4VQR+R28 Hashmi Masjid tableeghi, Cowl Bazaar, Ballari, Karnataka 583102",Cowl Bazaar,4VQR+R28,Ballari,583102,Karnataka,IN,https://www.google.com/maps/place/Hashmi+Masjid+tableeghi/data=!4m7!3m6!1s0x3bb713be0d6789f1:0xa52e806cba281c53!8m2!3d15.1395257!4d76.8900735!16s%2Fg%2F11by_l_3y_!19sChIJ8YlnDb4TtzsRUxwoumyALqU?authuser=0&hl=en&rclk=1,"15.1395257,76.8900735"
Sunni Yasin Saheb Masjid,Mosque,"4WP3+PVH Sunni Yasin Saheb Masjid, Cowl Bazzar, Cowl Bazaar, Ballari, Karnataka 583102","Cowl Bazzar, Cowl Bazaar",4WP3+PVH,Ballari,583102,Karnataka,IN,https://www.google.com/maps/place/Sunni+Yasin+Saheb+Masjid/data=!4m7!3m6!1s0x3bb713e85b22fe9d:0xeaa85fc8910927e3!8m2!3d15.1368156!4d76.9047368!16s%2Fg%2F1hm3bv0mv!19sChIJnf4iW-gTtzsR4ycJkchfqOo?authuser=0&hl=en&rclk=1,"15.136815599999998,76.9047368"
Masjid e Bilal tableeghi,Mosque,"4WQ4+W5W Masjid e Bilal tableeghi, Radio Park Cowl Bazar, Cowl Bazaar, Ballari, Karnataka 583102","Radio Park Cowl Bazar, Cowl Bazaar",4WQ4+W5W,Ballari,583102,Karnataka,IN,https://www.google.com/maps/place/Masjid+e+Bilal+tableeghi/data=!4m7!3m6!1s0x3bb713c2bcdb6d23:0x332b8f300a3c543!8m2!3d15.1398639!4d76.9054593!16s%2Fg%2F11cjj0cxv_!19sChIJI23bvMITtzsRQ8WjAPO4MgM?authuser=0&hl=en&rclk=1,"15.1398639,76.90545929999999"
Sunni Masjid E Court Mohalla,Mosque,"4WPJ+6RR Sunni Masjid E Court Mohalla, Court Mohalla Mazjeed, Millerpet, Cowl Bazaar, Ballari, Karnataka 583101","Millerpet, Cowl Bazaar","4WPJ+6RR, Court Mohalla Mazjeed",Ballari,583101,Karnataka,IN,https://www.google.com/maps/place/Sunni+Masjid+E+Court+Mohalla/data=!4m7!3m6!1s0x3bb711437a9c022f:0x65a0f16c1f6d2f03!8m2!3d15.1356064!4d76.9320095!16s%2Fg%2F113fpjx1z!19sChIJLwKcekMRtzsRAy9tH2zxoGU?authuser=0&hl=en&rclk=1,"15.135606399999999,76.93200949999999"
Hazrat Maqdoom Jahani Dargah Masjid,Mosque,"Hazrat Maqdoom Jahani Dargah Masjid, opp. SLN MALL, Old Katte Gudda, Cowl Bazaar, Ballari, Karnataka 583101","Old Katte Gudda, Cowl Bazaar",opp. SLN MALL,Ballari,583101,Karnataka,IN,https://www.google.com/maps/place/Hazrat+Maqdoom+Jahani+Dargah+Masjid/data=!4m7!3m6!1s0x3bb71168576b6b11:0x480dfa3060dc7278!8m2!3d15.1432503!4d76.9319141!16s%2Fg%2F11hcpzjbnh!19sChIJEWtrV2gRtzsReHLcYDD6DUg?authuser=0&hl=en&rclk=1,"15.1432503,76.9319141"
"Sunni Makkah Masjid, Devi Nagar",Mosque,"5W28+5G4 Sunni Makkah Masjid, Devi Nagar, Devi Nagar, Ballari, Karnataka 583104",Devi Nagar,5W28+5G4,Ballari,583104,Karnataka,IN,"https://www.google.com/maps/place/Sunni+Makkah+Masjid,+Devi+Nagar/data=!4m7!3m6!1s0x3bb713d780d36fc7:0x9ea97a7b550390b9!8m2!3d15.1503771!4d76.9163293!16s%2Fg%2F11bxc755_f!19sChIJx2_TgNcTtzsRuZADVXt6qZ4?authuser=0&hl=en&rclk=1","15.1503771,76.9163293"
Sunni Jamiya Masjid Talab Khatta,Mosque,"4WRC+H83 Sunni Jamiya Masjid Talab Khatta,  Tank Bund Road, Cowl Bazaar, Ballari, Karnataka 583101","Talab Katta, Cowl Bazaar","4WRC+H83,  Tank Bund Road",Ballari,583101,Karnataka,IN,https://www.google.com/maps/place/Sunni+Jamiya+Masjid+Talab+Khatta/data=!4m7!3m6!1s0x3bb7116060a37615:0xbece9f74b9d674f1!8m2!3d15.1413837!4d76.9208025!16s%2Fg%2F11f15l9dqt!19sChIJFXajYGARtzsR8XTWuXSfzr4?authuser=0&hl=en&rclk=1,"15.141383699999999,76.9208025"
Sunni Mehboobiya Masjid,Mosque,"4WM4+3WP Sunni Mehboobiya Masjid, Cowl Bazaar, Ballari, Karnataka 583102",Cowl Bazaar,4WM4+3WP,Ballari,583102,Karnataka,IN,https://www.google.com/maps/place/Sunni+Mehboobiya+Masjid/data=!4m7!3m6!1s0x3bb713e5efd95159:0x7eea24eb0955c134!8m2!3d15.13271!4d76.9073401!16s%2Fg%2F113h8bbs1!19sChIJWVHZ7-UTtzsRNMFVCesk6n4?authuser=0&hl=en&rclk=1,"15.13271,76.9073401"
Masjid e Abdul Tawwab Ahle Hadees,Mosque,"4WM5+J75 Masjid e Abdul Tawwab Ahle Hadees, Cowl Bazaar, Ballari, Karnataka 583102",Cowl Bazaar,4WM5+J75,Ballari,583102,Karnataka,IN,https://www.google.com/maps/place/Masjid+e+Abdul+Tawwab+Ahle+Hadees/data=!4m7!3m6!1s0x3bb713e6730eea13:0xee49a3a20d2d2ecb!8m2!3d15.1340038!4d76.9082349!16s%2Fg%2F11hbh7tt2n!19sChIJE-oOc-YTtzsRyy4tDaKjSe4?authuser=0&hl=en&rclk=1,"15.134003799999999,76.9082349"
Masjid-E-Azam (Sunni) (pension bada lane),Mosque,"4VPX+22C Masjid-E-Azam (Sunni) (pension bada lane), Bandihatti Rd, Cowl Bazaar, Ballari, Karnataka 583102",Cowl Bazaar,"4VPX+22C, Bandihatti Rd",Ballari,583102,Karnataka,IN,https://www.google.com/maps/place/Masjid-E-Azam+%28Sunni%29+%28pension+bada+lane%29/data=!4m7!3m6!1s0x3bb713eb05a73b5d:0xdb03558822c2931c!8m2!3d15.135074!4d76.8975058!16s%2Fg%2F11bz09myyf!19sChIJXTunBesTtzsRHJPCIohVA9s?authuser=0&hl=en&rclk=1,"15.135074,76.89750579999999"
JAMIA MASJID AHLE HADEES,Mosque,"4WP2+C95 JAMIA MASJID AHLE HADEES, Cowl Bazaar, Ballari, Karnataka 583102",Cowl Bazaar,4WP2+C95,Ballari,583102,Karnataka,IN,https://www.google.com/maps/place/JAMIA+MASJID+AHLE+HADEES/data=!4m7!3m6!1s0x3bb713e980173f6d:0xa2cebff40d335328!8m2!3d15.1360097!4d76.9009914!16s%2Fg%2F11cjj719z5!19sChIJbT8XgOkTtzsRKFMzDfS_zqI?authuser=0&hl=en&rclk=1,"15.136009699999999,76.9009914"
Sunni Jumma Masjid,Mosque,"Sunni Jumma Masjid, jumma masjid street, cowl bazar, Bellary - 583102, Radio Park Cowl Bazar, Cowl Bazaar, Ballari, Karnataka 583102","Radio Park Cowl Bazar, Cowl Bazaar","jumma masjid street, cowl bazar, Bellary - 583102",Ballari,583102,Karnataka,IN,https://www.google.com/maps/place/Sunni+Jumma+Masjid/data=!4m7!3m6!1s0x3bb713e9df2a9f47:0x9c51adec1e2dfe3d!8m2!3d15.138747!4d76.9027144!16s%2Fg%2F1pp2w_b5d!19sChIJR58q3-kTtzsRPf4tHuytUZw?authuser=0&hl=en&rclk=1,"15.138746999999999,76.9027144"
"Masjid E Quba Ahlehadees, Indira Nagar Ballari, Karnataka",Mosque,"5W44+R9V Masjid E Quba Ahlehadees, Indira Nagar Ballari, Karnataka, Ashok Nagar, Indira Nagar, Ballari, Karnataka 583275","Ashok Nagar, Indira Nagar",5W44+R9V,Ballari,583275,Karnataka,IN,"https://www.google.com/maps/place/Masjid+E+Quba+Ahlehadees,+Indira+Nagar+Ballari,+Karnataka/data=!4m7!3m6!1s0x3bb713cdefda807f:0x43217f45405dc020!8m2!3d15.1571228!4d76.9059232!16s%2Fg%2F11cjprjf78!19sChIJf4Da780TtzsRIMBdQEV_IUM?authuser=0&hl=en&rclk=1","15.1571228,76.90592319999999"
Irfan Ali Baba Dargah & Masjid,Mosque,"5V3F+7VW Irfan Ali Baba Dargah & Masjid, Kuvempu Nagar, Ballari, Karnataka 583102",Kuvempu Nagar,5V3F+7VW,Ballari,583102,Karnataka,IN,https://www.google.com/maps/place/Irfan+Ali+Baba+Dargah+%26+Masjid/data=!4m7!3m6!1s0x3bb713a99ed960eb:0x223249fcf902bc1c!8m2!3d15.1532382!4d76.8747124!16s%2Fg%2F1261bz8cf!19sChIJ62DZnqkTtzsRHLwC-fxJMiI?authuser=0&hl=en&rclk=1,"15.153238199999999,76.87471239999999"
MASJID-E-AHMED RAZA ( Noorie Zone SDI BLY,Mosque,"4W84+586 MASJID-E-AHMED RAZA ( Noorie Zone SDI BLY, SH 19, Phase 1, Mundargi Industrial Area, Ballari, Karnataka 583102","Phase 1, Mundargi Industrial Area","4W84+586, SH 19",Ballari,583102,Karnataka,IN,https://www.google.com/maps/place/MASJID-E-AHMED+RAZA+%28+Noorie+Zone+SDI+BLY/data=!4m7!3m6!1s0x3bb715ddb1843661:0x9ee8042b63c3c93e!8m2!3d15.115406!4d76.90577!16s%2Fg%2F11h_fs_1hz!19sChIJYTaEsd0VtzsRPsnDYysE6J4?authuser=0&hl=en&rclk=1,"15.115406,76.90576999999999"
Sunni Madeena Masjid,Mosque,"4WMC+CG2 Sunni Madeena Masjid, Bangalore Rd, Cowl Bazaar, Ballari, Karnataka 583101",Cowl Bazaar,"4WMC+CG2, Bangalore Rd",Ballari,583101,Karnataka,IN,https://www.google.com/maps/place/Sunni+Madeena+Masjid/data=!4m7!3m6!1s0x3bb7115927d29ac1:0x4896f5a053920b9e!8m2!3d15.1335234!4d76.9212632!16s%2Fg%2F1pwfvy1yk!19sChIJwZrSJ1kRtzsRnguSU6D1lkg?authuser=0&hl=en&rclk=1,"15.1335234,76.9212632"
Sara Bee Jamath MASJID.,Mosque,"4WR3+XV7 Sara Bee Jamath MASJID., kanaka durga street. Radio park., Cowl Bazaar, Balleri, Karnataka","Radio Park Cowl Bazar, Cowl Bazaar","4WR3+XV7, kanaka durga street. Radio park.","Balleri, Ballari",,Karnataka,IN,https://www.google.com/maps/place/Sara+Bee+Jamath+MASJID./data=!4m7!3m6!1s0x3bb713c31b19fd5b:0x3d85aa12a48f067!8m2!3d15.1424128!4d76.9046821!16s%2Fg%2F11bzq3vv5p!19sChIJW_0ZG8MTtzsRZ_BIKqFa2AM?authuser=0&hl=en&rclk=1,"15.142412799999999,76.9046821"
Sunni Masjid-E-Zeenat Ul Islam,Mosque,"4WQC+368 Sunni Masjid-E-Zeenat Ul Islam, Opp New KSRTC Bus Stand,Beside, Cowl Bazaar, Ballari, Karnataka 583101",Cowl Bazaar,"4WQC+368, Opp New KSRTC Bus Stand,Beside",Ballari,583101,Karnataka,IN,https://www.google.com/maps/place/Sunni+Masjid-E-Zeenat+Ul+Islam/data=!4m7!3m6!1s0x3bb7115faf9316ed:0x5c43de50f1f0f657!8m2!3d15.1376557!4d76.9205721!16s%2Fg%2F11c6sq5vn0!19sChIJ7RaTr18RtzsRV_bw8VDeQ1w?authuser=0&hl=en&rclk=1,"15.1376557,76.9205721"
Tableegh jamat Gousiya Masjid Khalid Nagar Bandhatti Road,Mosque,"4VJR+P3X Tableegh jamat Gousiya Masjid Khalid Nagar Bandhatti Road, Cowl Bazaar, Ballari, Karnataka 583102",Cowl Bazaar,4VJR+P3X,Ballari,583102,Karnataka,IN,https://www.google.com/maps/place/Tableegh+jamat+Gousiya+Masjid+Khalid+Nagar+Bandhatti+Road/data=!4m7!3m6!1s0x3bb71393f043edc5:0x5f44d064409ce7fc!8m2!3d15.1318625!4d76.8902206!16s%2Fg%2F11c6lktdyy!19sChIJxe1D8JMTtzsR_OecQGTQRF8?authuser=0&hl=en&rclk=1,"15.131862499999999,76.89022059999999"
Sunni Gandhi Nagar Masjid,Mosque,"5W2J+67P Sunni Gandhi Nagar Masjid, KHB Colony, Sidiginamola, Ballari, Karnataka 583101","KHB Colony, Sidiginamola",5W2J+67P,Ballari,583101,Karnataka,IN,https://www.google.com/maps/place/Sunni+Gandhi+Nagar+Masjid/data=!4m7!3m6!1s0x3bb7116f93351d29:0x9c78f0981f52dc7!8m2!3d15.1505855!4d76.9307153!16s%2Fg%2F1pyd0l9kr!19sChIJKR01k28RtzsRxy31gQmPxwk?authuser=0&hl=en&rclk=1,"15.1505855,76.9307153"
Hussainiya Masjid,Mosque,"4WXW+84G Hussainiya Masjid, Patel Nagar, Ballari, Karnataka 583101",Patel Nagar,4WXW+84G,Ballari,583101,Karnataka,IN,https://www.google.com/maps/place/Hussainiya+Masjid/data=!4m7!3m6!1s0x3bb7111394417a29:0x4ad3bdd0c62a1f05!8m2!3d15.1483248!4d76.9453419!16s%2Fg%2F11f11przp0!19sChIJKXpBlBMRtzsRBR8qxtC900o?authuser=0&hl=en&rclk=1,"15.1483248,76.9453419"
Masjid-e-Umar Farooq,Mosque,"4WH9+48P Masjid-e-Umar Farooq, Mruthunjaya Nagar, APMC, Ballari, Karnataka 583101","Mruthunjaya Nagar, APMC",4WH9+48P,Ballari,583101,Karnataka,IN,https://www.google.com/maps/place/Masjid-e-Umar+Farooq/data=!4m7!3m6!1s0x3bb71157fd0ba2e7:0x8f5f656502724902!8m2!3d15.1278262!4d76.9183134!16s%2Fg%2F11cmq_5dtt!19sChIJ56IL_VcRtzsRAklyAmVlX48?authuser=0&hl=en&rclk=1,"15.1278262,76.9183134"
Sunni Masjid-E-Ruquiya,Mosque,"5W5H+V98 Sunni Masjid-E-Ruquiya, Renuka Nagar, Ballari, Karnataka 583103",Renuka Nagar,5W5H+V98,Ballari,583103,Karnataka,IN,https://www.google.com/maps/place/Sunni+Masjid-E-Ruquiya/data=!4m7!3m6!1s0x3bb7117cae6dcf75:0x5e35b3026ca5dbb9!8m2!3d15.1596561!4d76.9284482!16s%2Fg%2F11f66h6y9y!19sChIJdc9trnwRtzsRudulbAKzNV4?authuser=0&hl=en&rclk=1,"15.1596561,76.92844819999999"
Masjid E Raza E Ahle Baith,Mosque,"4W8F+MG4 Masjid E Raza E Ahle Baith, Phase 1, Mundargi Industrial Area, Patrabudhihal, Karnataka 583102","Phase 1, Mundargi Industrial Area",4W8F+MG4,Patrabudhihal,583102,Karnataka,IN,https://www.google.com/maps/place/Masjid+E+Raza+E+Ahle+Baith/data=!4m7!3m6!1s0x3bb717594afdbdc1:0x189079de22fd723f!8m2!3d15.1159764!4d76.9240426!16s%2Fg%2F11vb___2s_!19sChIJwb39SlkXtzsRP3L9It55kBg?authuser=0&hl=en&rclk=1,"15.1159764,76.92404259999999"
Masjid-E-Ibrahim,Mosque,"4WQH+XPG Masjid-E-Ibrahim, Near Vadarbanda Rupungudi Road, Gold Smith Street, Cowl Bazaar, Ballari, Karnataka 583101","Old Katte Gudda, Cowl Bazaar","4WQH+XPG, Near Vadarbanda Rupungudi Road, Gold Smith Street",Ballari,583101,Karnataka,IN,https://www.google.com/maps/place/Masjid-E-Ibrahim/data=!4m7!3m6!1s0x3bb7115d5182cf53:0xca53ea34d05edc82!8m2!3d15.1399403!4d76.9293329!16s%2Fg%2F11fzfc_sgd!19sChIJU8-CUV0RtzsRgtxe0DTqU8o?authuser=0&hl=en&rclk=1,"15.1399403,76.92933289999999"
Masjid - E - Arfath,Mosque,"4WM5+HR7 Masjid - E - Arfath, Cowl Bazaar, Ballari, Karnataka 583102",Cowl Bazaar,4WM5+HR7,Ballari,583102,Karnataka,IN,https://www.google.com/maps/place/Masjid+-+E+-+Arfath/data=!4m7!3m6!1s0x3bb713e680ee8e43:0x8f33f32c1910c182!8m2!3d15.1339233!4d76.9095605!16s%2Fg%2F11hd1lp271!19sChIJQ47ugOYTtzsRgsEQGSzzM48?authuser=0&hl=en&rclk=1,"15.1339233,76.9095605"
Sunni Masjid E Jannat Ul Firdaus,Mosque,"4W92+MW6 Sunni Masjid E Jannat Ul Firdaus, Unnamed Road, Cowl Bazaar, Ballari, Karnataka 583102",Cowl Bazaar,"4W92+MW6, Unnamed Road",Ballari,583102,Karnataka,IN,https://www.google.com/maps/place/Sunni+Masjid+E+Jannat+Ul+Firdaus/data=!4m7!3m6!1s0x3bb713f68b43261b:0x505a57c73ca432b5!8m2!3d15.1191673!4d76.9022548!16s%2Fg%2F11gdkwzrsn!19sChIJGyZDi_YTtzsRtTKkPMdXWlA?authuser=0&hl=en&rclk=1,"15.119167299999999,76.9022548"
MASJID ABDUSSALAAM Rahimahullaah,Mosque,"4VQX+7PP MASJID ABDUSSALAAM Rahimahullaah, Abdus Salam St, Radio Park Cowl Bazar, Cowl Bazaar, Ballari, Karnataka 583102","Radio Park Cowl Bazar, Cowl Bazaar","4VQX+7PP, Abdus Salam St",Ballari,583102,Karnataka,IN,https://www.google.com/maps/place/MASJID+ABDUSSALAAM+Rahimahullaah/data=!4m7!3m6!1s0x3bb713ea72e03a0f:0x8a4fbb74f80068a!8m2!3d15.1382145!4d76.8993342!16s%2Fg%2F11b6yq13fm!19sChIJDzrgcuoTtzsRigaAT7f7pAg?authuser=0&hl=en&rclk=1,"15.1382145,76.8993342"
"Masjid-e-aksa ,indra Nagar,bellary.",Mosque,"4WJF+25X Masjid-e-aksa ,indra Nagar,bellary., APMC, Ballari, Karnataka 583101",APMC,4WJF+25X,Ballari,583101,Karnataka,IN,"https://www.google.com/maps/place/Masjid-e-aksa+,indra+Nagar,bellary./data=!4m7!3m6!1s0x3bb7115993365b9b:0x5656626329e1c588!8m2!3d15.1301154!4d76.9229915!16s%2Fg%2F11g6wh61j3!19sChIJm1s2k1kRtzsRiMXhKWNiVlY?authuser=0&hl=en&rclk=1","15.1301154,76.9229915"
"masjid-e-aqsa,ahlehadees",Mosque,"4WH5+Q7Q masjid-e-aqsa,ahlehadees, Cowl Bazaar, Ballari, Karnataka 583102",Cowl Bazaar,4WH5+Q7Q,Ballari,583102,Karnataka,IN,"https://www.google.com/maps/place/masjid-e-aqsa,ahlehadees/data=!4m7!3m6!1s0x3bb713e571019a23:0x7a672e9c9aa10978!8m2!3d15.129455!4d76.9082226!16s%2Fg%2F11gbfgt6sd!19sChIJI5oBceUTtzsReAmhmpwuZ3o?authuser=0&hl=en&rclk=1","15.129455,76.9082226"
Masjid E Gharib Nawaz,Mosque,"4WMQ+568 Masjid E Gharib Nawaz, UHTC Ranithota, Ballari, Karnataka 583101",UHTC Ranithota,4WMQ+568,Ballari,583101,Karnataka,IN,https://www.google.com/maps/place/Masjid+E+Gharib+Nawaz/data=!4m7!3m6!1s0x3bb71160b3f99c43:0x14ff4ae75f0649a8!8m2!3d15.1329208!4d76.938089!16s%2Fg%2F11f6ng846s!19sChIJQ5z5s2ARtzsRqEkGX-dK_xQ?authuser=0&hl=en&rclk=1,"15.132920799999999,76.93808899999999"
Astana-e-Aaliya Subhaniya,Mosque,"4WH8+VV5 Astana-e-Aaliya Subhaniya, Bellary-Hiriyur Rd, Cowl Bazaar, Ballari, Karnataka 583101",Cowl Bazaar,"4WH8+VV5, Bellary-Hiriyur Rd",Ballari,583101,Karnataka,IN,https://www.google.com/maps/place/Astana-e-Aaliya+Subhaniya/data=!4m7!3m6!1s0x3bb713e2bdbdc2f7:0xa2f0fc061a69b87f!8m2!3d15.1296373!4d76.9172417!16s%2Fg%2F119vd64nh!19sChIJ98K9veITtzsRf7hpGgb88KI?authuser=0&hl=en&rclk=1,"15.129637299999999,76.91724169999999"
Hazrath Syed Sha Maqdhoom Jahani Baba (R.A),Mosque,"4WVJ+7PF Hazrath Syed Sha Maqdhoom Jahani Baba (R.A), Near SLN Mall, K.C. Rd, Cowl Bazaar, Ballari, Karnataka 583101","Old Katte Gudda, Cowl Bazaar","4WVJ+7PF, Near SLN Mall, K.C. Rd",Ballari,583101,Karnataka,IN,https://www.google.com/maps/place/Hazrath+Syed+Sha+Maqdhoom+Jahani+Baba+%28R.A%29/data=!4m7!3m6!1s0x3bb71168598ae973:0x65ad7f1297ba36e4!8m2!3d15.1431898!4d76.931798!16s%2Fg%2F11f_1fb8np!19sChIJc-mKWWgRtzsR5Da6lxJ_rWU?authuser=0&hl=en&rclk=1,"15.1431898,76.931798"
Pakhali Masjid Sunni,Mosque,"4WQ4+RG3 Pakhali Masjid Sunni, Radio Park Cowl Bazar, Cowl Bazaar, Ballari, Karnataka 583102","Radio Park Cowl Bazar, Cowl Bazaar",4WQ4+RG3,Ballari,583102,Karnataka,IN,https://www.google.com/maps/place/Pakhali+Masjid+Sunni/data=!4m7!3m6!1s0x3bb713c2ac0f5e65:0x7633aca08b711896!8m2!3d15.1395072!4d76.9062853!16s%2Fg%2F11clvtswlh!19sChIJZV4PrMITtzsRlhhxi6CsM3Y?authuser=0&hl=en&rclk=1,"15.139507199999999,76.9062853"
Nandi Mosque,Mosque,"4RMW+6RQ Nandi Mosque, SH 132, Ballari, Karnataka 583115",,"4RMW+6RQ, SH 132",Ballari,583115,Karnataka,IN,https://www.google.com/maps/place/Nandi+Mosque/data=!4m7!3m6!1s0x3bb713404c39f08d:0x9804ee1172e66626!8m2!3d15.1330949!4d76.8471239!16s%2Fg%2F11b6qk9k1s!19sChIJjfA5TEATtzsRJmbmchHuBJg?authuser=0&hl=en&rclk=1,"15.1330949,76.8471239"
Sunni Elahi Masjid,Mosque,"4WMG+FV6 Sunni Elahi Masjid, Cowl Bazaar, Ballari, Karnataka 583101",Cowl Bazaar,4WMG+FV6,Ballari,583101,Karnataka,IN,https://www.google.com/maps/place/Sunni+Elahi+Masjid/data=!4m7!3m6!1s0x3bb7115b1e99f8b7:0xb997053a8c7596b5!8m2!3d15.13366!4d76.9271345!16s%2Fg%2F113dg942f!19sChIJt_iZHlsRtzsRtZZ1jDoFl7k?authuser=0&hl=en&rclk=1,"15.133659999999999,76.9271345"
Ahmed Masjid,Mosque,"5W6Q+V9X Ahmed Masjid, Kappagal Rd, 9th Cross, Tekur Compound, Gandhi Nagar, Ballari, Karnataka 583103","9th Cross, Tekur Compound, Gandhi Nagar","5W6Q+V9X, Kappagal Rd",Ballari,583103,Karnataka,IN,https://www.google.com/maps/place/Ahmed+Masjid/data=!4m7!3m6!1s0x3bb711b75d42b1d5:0x1831340f608a5695!8m2!3d15.1622285!4d76.9384893!16s%2Fg%2F11r_vtpnkz!19sChIJ1bFCXbcRtzsRlVaKYA80MRg?authuser=0&hl=en&rclk=1,"15.1622285,76.9384893"
Sunni Police Lane Masjid,Mosque,"5W2M+354 Sunni Police Lane Masjid, DAR police lane, S N, SN Pet, Ballari, Karnataka 583101","Police Quarters, Satya Narayana Pet","5W2M+354, DAR police lane, S N, SN Pet",Ballari,583101,Karnataka,IN,https://www.google.com/maps/place/Sunni+Police+Lane+Masjid/data=!4m7!3m6!1s0x3bb7116e4dd91717:0x59c2d0d892610f38!8m2!3d15.1501276!4d76.9329623!16s%2Fg%2F11c5429y5s!19sChIJFxfZTW4RtzsROA9hktjQwlk?authuser=0&hl=en&rclk=1,"15.1501276,76.9329623"
Masjid E Aaliya,Mosque,"5V85+QMM Masjid E Aaliya, Allipura, Ballari, Karnataka 583102",Allipura,5V85+QMM,Ballari,583102,Karnataka,IN,https://www.google.com/maps/place/Masjid+E+Aaliya/data=!4m7!3m6!1s0x3bb712e4c2632603:0xc1956880e3c226bd!8m2!3d15.1669709!4d76.8591714!16s%2Fg%2F11fzf8y1t7!19sChIJAyZjwuQStzsRvSbC44BolcE?authuser=0&hl=en&rclk=1,"15.166970899999999,76.8591714"
Sunni Siratum mustaqueem masjid,Mosque,"4VPW+QQC Sunni Siratum mustaqueem masjid, Cowl Bazaar, Ballari, Karnataka 583102",Cowl Bazaar,4VPW+QQC,Ballari,583102,Karnataka,IN,https://www.google.com/maps/place/Sunni+Siratum+mustaqueem+masjid/data=!4m7!3m6!1s0x3bb7130a7efb709d:0x178d5d429c1045bf!8m2!3d15.1369325!4d76.896891!16s%2Fg%2F11m1f3l8fm!19sChIJnXD7fgoTtzsRv0UQnEJdjRc?authuser=0&hl=en&rclk=1,"15.136932499999999,76.896891"
Madni Miyan Masjid,Mosque,"4WPH+CP8 Madni Miyan Masjid, Tazain Mohalla, Koloni Bazar, Ballari, Karnataka 583101",,"4WPH+CP8, Tazain Mohalla, Koloni Bazar",Ballari,583101,Karnataka,IN,https://www.google.com/maps/place/Madni+Miyan+Masjid/data=!4m7!3m6!1s0x3bb7115cb664611d:0x712d2139db4e7325!8m2!3d15.1360342!4d76.9293181!16s%2Fg%2F11gcmzgdlz!19sChIJHWFktlwRtzsRJXNO2zkhLXE?authuser=0&hl=en&rclk=1,"15.1360342,76.9293181"
Sunni Mecca Masjid,Mosque,"4WM3+5G5 Sunni Mecca Masjid, Near Khabarasthan, Cowl Bazaar, Ballari, Karnataka 583102",Cowl Bazaar,"4WM3+5G5, Near Khabarasthan",Ballari,583102,Karnataka,IN,https://www.google.com/maps/place/Sunni+Mecca+Masjid/data=!4m7!3m6!1s0x3bb713ef298b42bb:0xf91d8c1e255b7009!8m2!3d15.1328886!4d76.9038536!16s%2Fg%2F11g01yfgj5!19sChIJu0KLKe8TtzsRCXBbJR6MHfk?authuser=0&hl=en&rclk=1,"15.1328886,76.90385359999999"
"Sunni Ek Minar Masjid(Sunni Masjid E Khatun Bee), Infantary road",Mosque,"5W34+4HQ Sunni Ek Minar Masjid(Sunni Masjid E Khatun Bee), Infantary road, Sanjay Gandhi Nagar, Ballari, Karnataka 583276",Sanjay Gandhi Nagar,5W34+4HQ,Ballari,583276,Karnataka,IN,"https://www.google.com/maps/place/Sunni+Ek+Minar+Masjid%28Sunni+Masjid+E+Khatun+Bee%29,+Infantary+road/data=!4m7!3m6!1s0x3bb713cfd76df0dd:0xad40444db4e818ce!8m2!3d15.1528366!4d76.9064902!16s%2Fg%2F1pycwwnlv!19sChIJ3fBt188TtzsRzhjotE1EQK0?authuser=0&hl=en&rclk=1","15.152836599999999,76.9064902"
Masjid e Farooq E Azam Sunni,Mosque,"4VVR+P7R Masjid e Farooq E Azam Sunni, Ramanjaneya Nagar, Ballari, Karnataka 583102",Ramanjaneya Nagar,4VVR+P7R,Ballari,583102,Karnataka,IN,https://www.google.com/maps/place/Masjid+e+Farooq+E+Azam+Sunni/data=!4m7!3m6!1s0x3bb7139cbe5cda0f:0xc02023863c903d8e!8m2!3d15.1443732!4d76.8906361!16s%2Fg%2F11h3p8_cry!19sChIJD9pcvpwTtzsRjj2QPIYjIMA?authuser=0&hl=en&rclk=1,"15.144373199999999,76.8906361"
Sunni Masjid E Imam E Azam Abu Haneefa,Mosque,"5W97+QCX Sunni Masjid E Imam E Azam Abu Haneefa, Ashok Nagar, Ballari, Karnataka 583103",Ashok Nagar,5W97+QCX,Ballari,583103,Karnataka,IN,https://www.google.com/maps/place/Sunni+Masjid+E+Imam+E+Azam+Abu+Haneefa/data=!4m7!3m6!1s0x3bb713a66dd5502b:0x640db8ed2dda1e4c!8m2!3d15.1694927!4d76.9136014!16s%2Fg%2F11plx1cjnk!19sChIJK1DVbaYTtzsRTB7aLe24DWQ?authuser=0&hl=en&rclk=1,"15.1694927,76.91360139999999"
Hazrat Dadapeer Dharga,Mosque,"5W67+QMV Hazrat Dadapeer Dharga, Siruguppa Rd, Ashok Nagar, Havambhavi, Ballari, Karnataka 583101","Ashok Nagar, Havambhavi","5W67+QMV, Siruguppa Rd",Ballari,583101,Karnataka,IN,https://www.google.com/maps/place/Hazrat+Dadapeer+Dharga/data=!4m7!3m6!1s0x3bb713d4c92796df:0x46913d56d1df8575!8m2!3d15.1619861!4d76.9141769!16s%2Fg%2F11gd397zhl!19sChIJ35YnydQTtzsRdYXf0VY9kUY?authuser=0&hl=en&rclk=1,"15.1619861,76.9141769"
Khanqha -E- Jalnavi,Mosque,"4WMH+65J Khanqha -E- Jalnavi, Birappa Gadi Road, Bapu Ji Nagar, Cowl Bazaar, Ballari, Karnataka 583102",Cowl Bazaar,"4WMH+65J, Birappa Gadi Road, Bapu Ji Nagar",Ballari,583102,Karnataka,IN,https://www.google.com/maps/place/Khanqha+-E-+Jalnavi/data=!4m7!3m6!1s0x3bb7115b1377562b:0xf3f7453666d83d19!8m2!3d15.1330836!4d76.9278774!16s%2Fg%2F11f2wcncv4!19sChIJK1Z3E1sRtzsRGT3YZjZF9_M?authuser=0&hl=en&rclk=1,"15.133083599999999,76.9278774"
Umm~Kulsoom Masjid,Mosque,"4WH5+G9P Umm~Kulsoom Masjid, Cowl Bazaar, Ballari, Karnataka 583102",Cowl Bazaar,4WH5+G9P,Ballari,583102,Karnataka,IN,https://www.google.com/maps/place/Umm~Kulsoom+Masjid/data=!4m7!3m6!1s0x3bb713e53bf0b031:0x790bf14339c65cdf!8m2!3d15.1288265!4d76.9084388!16s%2Fg%2F1pwfx9jmk!19sChIJMbDwO-UTtzsR31zGOUPxC3k?authuser=0&hl=en&rclk=1,"15.128826499999999,76.9084388"
Masjid e siddiqiya,Mosque,"5W28+C8J Masjid e siddiqiya, Karkhana Mohalla, Shivalinga Nagar, Ballari, Karnataka 583104","Karkhana Mohalla, Shivalinga Nagar",5W28+C8J,Ballari,583104,Karnataka,IN,https://www.google.com/maps/place/Masjid+e+siddiqiya/data=!4m7!3m6!1s0x3bb713312fc994f3:0xe15aea6d5e4fe1fc!8m2!3d15.151082!4d76.9157793!16s%2Fg%2F11k245xz8r!19sChIJ85TJLzETtzsR_OFPXm3qWuE?authuser=0&hl=en&rclk=1,"15.151081999999999,76.9157793"
Masjid E Abubakar Siddique & Madresa,Mosque,"4VMV+XHM Masjid E Abubakar Siddique & Madresa, Cowl Bazaar, Ballari, Karnataka 583102",Cowl Bazaar,4VMV+XHM,Ballari,583102,Karnataka,IN,https://www.google.com/maps/place/Masjid+E+Abubakar+Siddique+%26+Madresa/data=!4m7!3m6!1s0x3bb71394ddab3993:0xdd8413e08d95a80!8m2!3d15.1349674!4d76.8939192!16s%2Fg%2F11gfbjfqw9!19sChIJkzmr3ZQTtzsRgFrZCD5B2A0?authuser=0&hl=en&rclk=1,"15.134967399999999,76.8939192"
Sunni Masjid Sogra Azeem Khan,Mosque,"4VRH+F5G Sunni Masjid Sogra Azeem Khan, Belagal Rd, Prashanth Nagar, Ramanjaneya Nagar, Ballari, Karnataka 583102","Prashanth Nagar, Ramanjaneya Nagar","4VRH+F5G, Belagal Rd",Ballari,583102,Karnataka,IN,https://www.google.com/maps/place/Sunni+Masjid+Sogra+Azeem+Khan/data=!4m7!3m6!1s0x3bb713a3d85e7f37:0xe713ca886ba26c7!8m2!3d15.1411845!4d76.8779645!16s%2Fg%2F11f3x7yzh6!19sChIJN39e2KMTtzsRxya6hqg8cQ4?authuser=0&hl=en&rclk=1,"15.1411845,76.87796449999999"
Khabristan Mosque,Mosque,"4WJ8+HH4 Khabristan Mosque, Cowl Bazaar, Ballari, Karnataka 583102",Cowl Bazaar,4WJ8+HH4,Ballari,583102,Karnataka,IN,https://www.google.com/maps/place/Khabristan+Mosque/data=!4m7!3m6!1s0x3bb713e25ec93a13:0xa221d6a521519a51!8m2!3d15.1313838!4d76.9164386!16s%2Fg%2F11gfbgdc5d!19sChIJEzrJXuITtzsRUZpRIaXWIaI?authuser=0&hl=en&rclk=1,"15.1313838,76.91643859999999"
Sunni Masjid - E - Ashrafiya,Mosque,"Sunni Masjid - E - Ashrafiya, Ward No. 8, Andral Road, Ballari, Karnataka 583101","Ibrahimpura, UHTC Ranithota","Ward No. 8, Andral Road","Ballari, Andralu",583101,Karnataka,IN,https://www.google.com/maps/place/Sunni+Masjid+-+E+-+Ashrafiya/data=!4m7!3m6!1s0x3bb7114e91e3ee6f:0x73cf4daaab2b21!8m2!3d15.1245413!4d76.9333132!16s%2Fg%2F11fzffk561!19sChIJb-7jkU4RtzsRISurqk3PcwA?authuser=0&hl=en&rclk=1,"15.124541299999999,76.9333132"
Madeena Masjid,Mosque,"4WM2+4QQ Madeena Masjid, Cowl Bazaar, Ballari, Karnataka 583102",Cowl Bazaar,4WM2+4QQ,Ballari,583102,Karnataka,IN,https://www.google.com/maps/place/Madeena+Masjid/data=!4m7!3m6!1s0x3bb713eeb3fbd137:0x6d12f676927637ce!8m2!3d15.1328256!4d76.9019758!16s%2Fg%2F11dflb9g4t!19sChIJN9H7s-4TtzsRzjd2knb2Em0?authuser=0&hl=en&rclk=1,"15.132825599999999,76.9019758"
Mohammedia Masjid Ahle Hadees,Mosque,"Mohammedia Masjid Ahle Hadees, 159/149, Ward 646, Ballari, Karnataka 583101",UHTC Ranithota,"159/149, Ward 646",Ballari,583101,Karnataka,IN,https://www.google.com/maps/place/Mohammedia+Masjid+Ahle+Hadees/data=!4m7!3m6!1s0x3bb71135025effbf:0xb5fe6866d87ff72d!8m2!3d15.1319178!4d76.9412567!16s%2Fg%2F11nxcb4hrx!19sChIJv_9eAjURtzsRLfd_2GZo_rU?authuser=0&hl=en&rclk=1,"15.1319178,76.9412567"
Masjid E Raheem,Mosque,"Masjid E Raheem, Lotus Colony, Suri Layout, Cowl Bazaar, Ballari, Karnataka 583102",Cowl Bazaar,"Lotus Colony, Suri Layout",Ballari,,Karnataka,IN,https://www.google.com/maps/place/Masjid+E+Raheem/data=!4m7!3m6!1s0x3bb713809655ffdf:0x239804f7561212f0!8m2!3d15.127534!4d76.9039766!16s%2Fg%2F11y1y9f7y6!19sChIJ3_9VloATtzsR8BISVvcEmCM?authuser=0&hl=en&rclk=1,"15.127533999999999,76.9039766"
Hyder Hussaini Makan,Mosque,"4WMC+7F8 Hyder Hussaini Makan, Bandimote, Ballari, 583101","Ballarappa Colony, Bapu Ji Nagar","4WMC+7F8, Bandimote",Ballari,583101,Karnataka,IN,https://www.google.com/maps/place/Hyder+Hussaini+Makan/data=!4m7!3m6!1s0x3bb7115921257225:0xce0f2d33283763e!8m2!3d15.1331733!4d76.9212064!16s%2Fg%2F11f2w95g2x!19sChIJJXIlIVkRtzsRPnaDMtPy4Aw?authuser=0&hl=en&rclk=1,"15.1331733,76.9212064"
Sunni Hazrat Deewan Masthan Dargah Masjid Bellary,Mosque,"Sunni Hazrat Deewan Masthan Dargah Masjid Bellary, 268/XXIV, Jawans Rd Nallacheruvu, Jawans Rd, Nallacheruvu, Cowl Bazaar, Ballari, Karnataka 583102","Nallacheruvu, Cowl Bazaar","268/XXIV, Jawans Rd Nallacheruvu, Jawans Rd",Ballari,583102,Karnataka,IN,https://www.google.com/maps/place/Sunni+Hazrat+Deewan+Masthan+Dargah+Masjid+Bellary/data=!4m7!3m6!1s0x3bb713e7f236d0d3:0x9959c119a3669579!8m2!3d15.138659!4d76.9078096!16s%2Fg%2F11d_7y5khm!19sChIJ09A28ucTtzsReZVmoxnBWZk?authuser=0&hl=en&rclk=1,"15.138658999999999,76.9078096"
Masjid E Ibrahim Ahle Hadees,Mosque,"4WP2+6WJ Masjid E Ibrahim Ahle Hadees, Cowl Bazaar, Ballari, Karnataka 583102",Cowl Bazaar,4WP2+6WJ,Ballari,583102,Karnataka,IN,https://www.google.com/maps/place/Masjid+E+Ibrahim+Ahle+Hadees/data=!4m7!3m6!1s0x3bb713e9736d40f7:0xbaa371448a9984e!8m2!3d15.1355928!4d76.9022691!16s%2Fg%2F11g88d3h7_!19sChIJ90Btc-kTtzsRTpipSBQ3qgs?authuser=0&hl=en&rclk=1,"15.1355928,76.9022691"
Makka Masjid,Mosque,"4WMC+RCG Makka Masjid, Ballarappa Colony, Cowl Bazaar, Ballari, Karnataka 583101","Ballarappa Colony, Cowl Bazaar",4WMC+RCG,Ballari,583101,Karnataka,IN,https://www.google.com/maps/place/Makka+Masjid/data=!4m7!3m6!1s0x3bb711043cc5cc45:0x6778eaf47463c313!8m2!3d15.13455!4d76.9210637!16s%2Fg%2F11r3z_6z4v!19sChIJRczFPAQRtzsRE8NjdPTqeGc?authuser=0&hl=en&rclk=1,"15.134549999999999,76.92106369999999"
Masjide- Mamoun. Ballari.,Mosque,"4VQX+56R Masjide- Mamoun. Ballari., Jawans Rd, Radio Park Cowl Bazar, Cowl Bazaar, Ballari, Karnataka 583102","Radio Park Cowl Bazar, Cowl Bazaar","4VQX+56R, Jawans Rd",Ballari,583102,Karnataka,IN,https://www.google.com/maps/place/Masjide-+Mamoun.+Ballari./data=!4m7!3m6!1s0x3bb713ea87f2562f:0x4817d8a4bf653d84!8m2!3d15.1379793!4d76.8980272!16s%2Fg%2F11bz0bwn_9!19sChIJL1byh-oTtzsRhD1lv6TYF0g?authuser=0&hl=en&rclk=1,"15.1379793,76.8980272"
Masjid-e-Hazrat umar Farooq R.A,Mosque,"4V8X+M63 Masjid-e-Hazrat umar Farooq R.A, Unnamed Road, Cowl Bazaar, Ballari, Karnataka 583102",Cowl Bazaar,"4V8X+M63, Unnamed Road",Ballari,583102,Karnataka,IN,https://www.google.com/maps/place/Masjid-e-Hazrat+umar+Farooq+R.A/data=!4m7!3m6!1s0x3bb713a630af9d1b:0xc103af916b8933d1!8m2!3d15.1166354!4d76.89805!16s%2Fg%2F11h_br2f78!19sChIJG52vMKYTtzsR0TOJa5GvA8E?authuser=0&hl=en&rclk=1,"15.1166354,76.89805"
Masjid E Ghousiya,Mosque,"4WGF+5GF Masjid E Ghousiya, Unnamed Road, APMC, Ballari, Karnataka 583101",APMC,"4WGF+5GF, Unnamed Road",Ballari,583101,Karnataka,IN,https://www.google.com/maps/place/Masjid+E+Ghousiya/data=!4m7!3m6!1s0x3bb711fbc14d6df9:0x581161e5e9224806!8m2!3d15.1254282!4d76.9238115!16s%2Fg%2F11gsjf9_tj!19sChIJ-W1NwfsRtzsRBkgi6eVhEVg?authuser=0&hl=en&rclk=1,"15.1254282,76.9238115"
mohrN drg,Mosque,"5W7X+F6X mohrN drg, Ballari, Karnataka 583103",,5W7X+F6X,Ballari,,Karnataka,IN,https://www.google.com/maps/place/%E0%B2%AE%E0%B3%8A%E0%B2%B9%E0%B2%B0%E0%B2%82+%E0%B2%A6%E0%B2%B0%E0%B3%8D%E0%B2%97/data=!4m7!3m6!1s0x3bb711cef7c658dd:0x6cd71cd3ee63945e!8m2!3d15.1637397!4d76.9481238!16s%2Fg%2F11hkvjmkt6!19sChIJ3VjG984RtzsRXpRj7tMc12w?authuser=0&hl=en&rclk=1,"15.163739699999999,76.94812379999999"
JAMIA ABU HURAIRAH(BELLARY) Deobandi Tableeghi,Mosque,"4VJR+V4Q JAMIA ABU HURAIRAH(BELLARY) Deobandi Tableeghi, Cowl Bazaar, Ballari, Karnataka 583102",Cowl Bazaar,4VJR+V4Q,Ballari,583102,Karnataka,IN,https://www.google.com/maps/place/JAMIA+ABU+HURAIRAH%28BELLARY%29+Deobandi+Tableeghi/data=!4m7!3m6!1s0x3bb713a529f290cd:0x3ac9b66f405e87ec!8m2!3d15.1322217!4d76.890352!16s%2Fg%2F11llv1zrbq!19sChIJzZDyKaUTtzsR7IdeQG-2yTo?authuser=0&hl=en&rclk=1,"15.132221699999999,76.890352"
MASJID E IBAD UR RAHMAN,Mosque,"4W92+22 MASJID E IBAD UR RAHMAN, Cowl Bazaar, Ballari, Karnataka 583102",Cowl Bazaar,4W92+22,Ballari,,Karnataka,IN,https://www.google.com/maps/place/MASJID+E+IBAD+UR+RAHMAN/data=!4m7!3m6!1s0x3bb71386655284f9:0x3ca623aef199a6ad!8m2!3d15.1175239!4d76.900065!16s%2Fg%2F11tx5cf_n7!19sChIJ-YRSZYYTtzsRraaZ8a4jpjw?authuser=0&hl=en&rclk=1,"15.1175239,76.900065"
Masjid e faisal,Place of worship,"Masjid e faisal, Hospet Rd, Tilak Nagar, Cantonment, Ballari, Karnataka 583102","Tilak Nagar, Cantonment",Hospet Rd,Ballari,583102,Karnataka,IN,https://www.google.com/maps/place/Masjid+e+faisal/data=!4m7!3m6!1s0x3bb7138c9d25314f:0x13e2ca3f3cc6b5df!8m2!3d15.1557341!4d76.8855689!16s%2Fg%2F11tk591gvv!19sChIJTzElnYwTtzsR37XGPD_K4hM?authuser=0&hl=en&rclk=1,"15.1557341,76.8855689"
Masjid,Mosque,"4VXM+75X Masjid, Kuvempu Nagar, Ballari, Karnataka 583102",Kuvempu Nagar,4VXM+75X,Ballari,583102,Karnataka,IN,https://www.google.com/maps/place/Masjid/data=!4m7!3m6!1s0x3bb7134859895d81:0x5c400541c95dc50d!8m2!3d15.1482302!4d76.8829904!16s%2Fg%2F11fk2zbm81!19sChIJgV2JWUgTtzsRDcVdyUEFQFw?authuser=0&hl=en&rclk=1,"15.148230199999999,76.8829904"
Masjid E Mehboobiyah Ahle Sunnath Wal Jamah,Mosque,"4WM4+3XC Masjid E Mehboobiyah Ahle Sunnath Wal Jamah, Cowl Bazaar, Ballari, Karnataka 583102",Cowl Bazaar,4WM4+3XC,Ballari,583102,Karnataka,IN,https://www.google.com/maps/place/Masjid+E+Mehboobiyah+Ahle+Sunnath+Wal+Jamah/data=!4m7!3m6!1s0x3bb713e5efe286c9:0x1c3e56af221aa2b!8m2!3d15.1326994!4d76.9073901!16s%2Fg%2F11f3sghm3s!19sChIJyYbi7-UTtzsRK6oh8mrlwwE?authuser=0&hl=en&rclk=1,"15.1326994,76.9073901"
IQRAA MASJID,Mosque,"4WM4+8M7 IQRAA MASJID, Unnamed Road, Cowl Bazaar, Ballari, Karnataka 583102",Cowl Bazaar,"4WM4+8M7, Unnamed Road",Ballari,583102,Karnataka,IN,https://www.google.com/maps/place/IQRAA+MASJID/data=!4m7!3m6!1s0x3bb71394f87cd85f:0xff0ed33b66a8f1c9!8m2!3d15.133281!4d76.9066683!16s%2Fg%2F11h1qfwklt!19sChIJX9h8-JQTtzsRyfGoZjvTDv8?authuser=0&hl=en&rclk=1,"15.133280999999998,76.90666829999999"
Sunni Masjid E Awliya & Madrasa,Mosque,"4VQP+22 Sunni Masjid E Awliya & Madrasa, Cowl Bazaar, Ballari, Karnataka 583102",Cowl Bazaar,4VQP+22,Ballari,583102,Karnataka,IN,https://www.google.com/maps/place/Sunni+Masjid+E+Awliya+%26+Madrasa/data=!4m7!3m6!1s0x3bb71391c1fb3571:0xe9d5f86c284bb2fa!8m2!3d15.1378811!4d76.8850846!16s%2Fg%2F11rq7qy6ct!19sChIJcTX7wZETtzsR-rJLKGz41ek?authuser=0&hl=en&rclk=1,"15.1378811,76.8850846"
Sunni Masjid e Ghous e azam,Mosque,"Sunni Masjid e Ghous e azam, Rupanagudi Rd, UHTC Ranithota, Ballari, Karnataka 583101",UHTC Ranithota,Rupanagudi Rd,Ballari,583101,Karnataka,IN,https://www.google.com/maps/place/Sunni+Masjid+e+Ghous+e+azam/data=!4m7!3m6!1s0x3bb7118a068ffab9:0xa73e727cf05fbb7!8m2!3d15.1323717!4d76.9396185!16s%2Fg%2F11lgv432n3!19sChIJufqPBooRtzsRt_sFzyfncwo?authuser=0&hl=en&rclk=1,"15.1323717,76.9396185"
Mehaboobia mosque,Mosque,"5W6X+7FV Mehaboobia mosque, Unnamed Road, Allum Karibasappa Colony, Sidiginamola, Ballari, Karnataka 583103","Allum Karibasappa Colony, Sidiginamola","5W6X+7FV, Unnamed Road",Ballari,583103,Karnataka,IN,https://www.google.com/maps/place/Mehaboobia+mosque/data=!4m7!3m6!1s0x3bb711014f557dd9:0x99002d582542ae20!8m2!3d15.1607372!4d76.9486859!16s%2Fg%2F11fjqk52vc!19sChIJ2X1VTwERtzsRIK5CJVgtAJk?authuser=0&hl=en&rclk=1,"15.1607372,76.9486859"
All India Iuqura-O-Dusuvesh Society,Mosque,"4WPH+4G8 All India Iuqura-O-Dusuvesh Society, near Big Vegatable Market, Cowl Bazaar, Ballari, Karnataka 583101",Cowl Bazaar,"4WPH+4G8, near Big Vegatable Market",Ballari,583101,Karnataka,IN,https://www.google.com/maps/place/All+India+Iuqura-O-Dusuvesh+Society/data=!4m7!3m6!1s0x3bb7115ca4fd883f:0xacb4a8d17aebc325!8m2!3d15.1352928!4d76.9288347!16s%2Fg%2F11f1239gkj!19sChIJP4j9pFwRtzsRJcPretGotKw?authuser=0&hl=en&rclk=1,"15.135292799999998,76.9288347"
Jamia Masjid Cantonment,Mosque,"4VXV+6MQ Jamia Masjid Cantonment, Tilak Nagar, Cantonment, Ballari, Karnataka 583104","Tilak Nagar, Cantonment",4VXV+6MQ,Ballari,583104,Karnataka,IN,https://www.google.com/maps/place/Jamia+Masjid+Cantonment/data=!4m7!3m6!1s0x3bb713b4986ca2a5:0xce800aa6c0b414ed!8m2!3d15.1480823!4d76.894246!16s%2Fg%2F11ss6h0n_1!19sChIJpaJsmLQTtzsR7RS0wKYKgM4?authuser=0&hl=en&rclk=1,"15.148082299999999,76.894246"
Sunni Masjid E Bilal,Mosque,"Sunni Masjid E Bilal, Bapuji Nagar Road Radhakrishnan colony 7th ward, Ballari, Karnataka 583101",APMC,Bapuji Nagar Road Radhakrishnan colony 7th ward,Ballari,583101,Karnataka,IN,https://www.google.com/maps/place/Sunni+Masjid+E+Bilal/data=!4m7!3m6!1s0x3bb7113d3340618b:0x897c402bf417e360!8m2!3d15.1274337!4d76.9267461!16s%2Fg%2F11s2nbb0gr!19sChIJi2FAMz0RtzsRYOMX9CtAfIk?authuser=0&hl=en&rclk=1,"15.1274337,76.9267461"
Jumma Masjid,Mosque,"4WQG+FJ4 Jumma Masjid, Cowl Bazaar, Ballari, Karnataka 583101",Cowl Bazaar,4WQG+FJ4,Ballari,583101,Karnataka,IN,https://www.google.com/maps/place/Jumma+Masjid/data=!4m7!3m6!1s0x3bb711e5adeb2af3:0x1b599e09d5a061!8m2!3d15.1386274!4d76.9265759!16s%2Fg%2F11frdp9xtr!19sChIJ8yrrreURtzsRYaDVCZ5ZGwA?authuser=0&hl=en&rclk=1,"15.138627399999999,76.9265759"
Salafiah Alhe Hadees Masjid,Mosque,"4WQ3+683 Salafiah Alhe Hadees Masjid, Jawans Rd, Radio Park Cowl Bazar, Cowl Bazaar, Ballari, Karnataka 583102","Radio Park Cowl Bazar, Cowl Bazaar","4WQ3+683, Jawans Rd",Ballari,583102,Karnataka,IN,https://www.google.com/maps/place/Salafiah+Alhe+Hadees+Masjid/data=!4m7!3m6!1s0x3bb713e57f5a9dc3:0xb7bfcc4689863a03!8m2!3d15.1380235!4d76.9033071!16s%2Fg%2F11g0qlxyw1!19sChIJw51af-UTtzsRAzqGiUbMv7c?authuser=0&hl=en&rclk=1,"15.1380235,76.90330709999999"
Hale masjid Panje Makan,Mosque,"4WQG+5WC Hale masjid Panje Makan, Pinjar oni Jumma Masjid Street, Bangalore Rd, Cowl Bazaar, Ballari, Karnataka 583101",Cowl Bazaar,"4WQG+5WC, Pinjar oni Jumma Masjid Street, Bangalore Rd",Ballari,583101,Karnataka,IN,https://www.google.com/maps/place/Hale+masjid+Panje+Makan/data=!4m7!3m6!1s0x3bb7116926cfa513:0xb5ce705759c39199!8m2!3d15.1379392!4d76.9272657!16s%2Fg%2F11q951jx_j!19sChIJE6XPJmkRtzsRmZHDWVdwzrU?authuser=0&hl=en&rclk=1,"15.1379392,76.92726569999999"
Mabhusubhani Dargha Hussain Nagar 9th cross ballari,Mosque,"4WXW+Q53 Mabhusubhani Dargha Hussain Nagar 9th cross ballari, Hussain Nagar, Ballari, Karnataka 583101",Hussain Nagar,4WXW+Q53,Ballari,,Karnataka,IN,https://www.google.com/maps/place/Mabhusubhani+Dargha+Hussain+Nagar+9th+cross+ballari/data=!4m7!3m6!1s0x3bb711e50c435e05:0xd7bc677dc7dd1612!8m2!3d15.1493759!4d76.945407!16s%2Fg%2F11jznx8g3b!19sChIJBV5DDOURtzsREhbdx31nvNc?authuser=0&hl=en&rclk=1,"15.149375899999999,76.945407"
Gaus e Azam Masjid,Mosque,"4XQ3+R38 Gaus e Azam Masjid, Venkateswara Nagar, Bandimot, Ballari, Karnataka 583101","Venkateswara Nagar, Bandimot",4XQ3+R38,Ballari,583101,Karnataka,IN,https://www.google.com/maps/place/Gaus+e+Azam+Masjid/data=!4m7!3m6!1s0x3bb7115b328c724b:0x28d78a6275e7e590!8m2!3d15.1395283!4d76.9527144!16s%2Fg%2F11mvshlncl!19sChIJS3KMMlsRtzsRkOXndWKK1yg?authuser=0&hl=en&rclk=1,"15.139528299999998,76.95271439999999"
Dargah,Mosque,"5W7X+F6X Dargah, Ballari, Karnataka 583103",,5W7X+F6X,Ballari,,Karnataka,IN,https://www.google.com/maps/place/Dargah/data=!4m7!3m6!1s0x3bb711913914ae15:0xd69a4a7d1d5cc1ad!8m2!3d15.1637381!4d76.9481225!16s%2Fg%2F11k2jnlcxj!19sChIJFa4UOZERtzsRrcFcHX1KmtY?authuser=0&hl=en&rclk=1,"15.1637381,76.9481225"
Masjid-e-Fatah Ahle Hadees,Mosque,"4VJX+FRP Masjid-e-Fatah Ahle Hadees, Cowl Bazaar, Ballari, Karnataka 583102",Cowl Bazaar,4VJX+FRP,Ballari,583102,Karnataka,IN,https://www.google.com/maps/place/Masjid-e-Fatah+Ahle+Hadees/data=!4m7!3m6!1s0x3bb713cc2b4d3ba1:0x2ad2b1ac9e1f5c5f!8m2!3d15.1312248!4d76.8995858!16s%2Fg%2F11k8myq_xl!19sChIJoTtNK8wTtzsRX1wfnqyx0io?authuser=0&hl=en&rclk=1,"15.1312248,76.8995858"
MASJID - E - JALEEL,Mosque,"4WF4+5V MASJID - E - JALEEL, Cowl Bazaar, Ballari, Karnataka 583102",Cowl Bazaar,4WF4+5V,Ballari,583102,Karnataka,IN,https://www.google.com/maps/place/MASJID+-+E+-+JALEEL/data=!4m7!3m6!1s0x3bb713a2ff59a733:0x95a6038c35bebada!8m2!3d15.1229366!4d76.9071611!16s%2Fg%2F11r_wqbdwz!19sChIJM6dZ_6ITtzsR2rq-NYwDppU?authuser=0&hl=en&rclk=1,"15.1229366,76.9071611"
Dalwala Masjid,Mosque,"4WQ2+48F Dalwala Masjid, Abdus Salam St, Radio Park Cowl Bazar, Cowl Bazaar, Ballari, Karnataka 583102","Radio Park Cowl Bazar, Cowl Bazaar","4WQ2+48F, Abdus Salam St",Ballari,583102,Karnataka,IN,https://www.google.com/maps/place/Dalwala+Masjid/data=!4m7!3m6!1s0x3bb7136e6a6653cb:0x956e53b3a0b2abe6!8m2!3d15.1378723!4d76.9008716!16s%2Fg%2F11snqjmjl5!19sChIJy1Nmam4TtzsR5quyoLNTbpU?authuser=0&hl=en&rclk=1,"15.1378723,76.9008716"
PALTAN MASJID (tablighi jamaat),Mosque,"4VPP+H3P PALTAN MASJID (tablighi jamaat), Cowl Bazaar, Ballari, Karnataka 583102",Cowl Bazaar,4VPP+H3P,Ballari,583102,Karnataka,IN,https://www.google.com/maps/place/PALTAN+MASJID+%28tablighi+jamaat%29/data=!4m7!3m6!1s0x3bb713aa080069b1:0x3f7de01d563a3638!8m2!3d15.1364505!4d76.8852106!16s%2Fg%2F11ry5tt1wd!19sChIJsWkACKoTtzsRODY6Vh3gfT8?authuser=0&hl=en&rclk=1,"15.136450499999999,76.8852106"
Sunni Masjid-e-ruqiya,Mosque,"5WCH+8W2 Sunni Masjid-e-ruqiya, Talur Rd, beside canal, Renuka Nagar, Ballari, Bellary[R], Karnataka 583103",Renuka Nagar,"5WCH+8W2, Talur Rd, beside canal","Ballari, Bellary[R]",583103,Karnataka,IN,https://www.google.com/maps/place/Sunni+Masjid-e-ruqiya/data=!4m7!3m6!1s0x3bb71176633e95a9:0x4272c61e67239dd6!8m2!3d15.170774!4d76.929752!16s%2Fg%2F11g4jh4hw_!19sChIJqZU-Y3YRtzsR1p0jZx7GckI?authuser=0&hl=en&rclk=1,"15.170774,76.929752"
Masjid-E-Rahmath-E-Mustafa ,Mosque,"4VPP+5P8 Masjid-E-Rahmath-E-Mustafa , Cowl Bazaar, Ballari, Karnataka 583102",Cowl Bazaar,4VPP+5P8,Ballari,,Karnataka,IN,https://www.google.com/maps/place/Masjid-E-Rahmath-E-Mustafa+%EF%B7%BA%E2%80%AD/data=!4m7!3m6!1s0x3bb71380f5def28d:0xd7186d257cee9f5c!8m2!3d15.1354163!4d76.8868275!16s%2Fg%2F11txq7zp2k!19sChIJjfLe9YATtzsRXJ_ufCVtGNc?authuser=0&hl=en&rclk=1,"15.1354163,76.8868275"
Jame Masjid Contonment,Mosque,"Jame Masjid Contonment, 310, Rahimabad Colony, Tilak Nagar, Cantonment, Ballari, Karnataka 583105","Rahimabad Colony, Tilak Nagar, Cantonment",310,Ballari,583105,Karnataka,IN,https://www.google.com/maps/place/Jame+Masjid+Contonment/data=!4m7!3m6!1s0x3bb713593671e745:0x105969cc0d6a79a0!8m2!3d15.1477741!4d76.894214!16s%2Fg%2F11t_q9jb_7!19sChIJRedxNlkTtzsRoHlqDcxpWRA?authuser=0&hl=en&rclk=1,"15.1477741,76.89421399999999"
Masjid e mamoon,Mosque,"4VQX+89J Masjid e mamoon, Near Belgal Cross, Belgami Compound Cowl Bazar, Cowl Bazaar, Ballari, Karnataka 583102","Radio Park Cowl Bazar, Cowl Bazaar","4VQX+89J, Near Belgal Cross, Belgami Compound Cowl Bazar",Ballari,583102,Karnataka,IN,https://www.google.com/maps/place/Masjid+e+mamoon/data=!4m7!3m6!1s0x3bb713f46ffca8cd:0xf0df76b83c9a7fa1!8m2!3d15.1383419!4d76.8983936!16s%2Fg%2F11ll91lny7!19sChIJzaj8b_QTtzsRoX-aPLh23_A?authuser=0&hl=en&rclk=1,"15.138341899999999,76.89839359999999"
Ayesha Masjid,Mosque,"Ayesha Masjid, 133, Ashok Nagar, Kumbara Gudda, Ballari, Karnataka 583104","Ashok Nagar, Kumbara Gudda",133,Ballari,583104,Karnataka,IN,https://www.google.com/maps/place/Ayesha+Masjid/data=!4m7!3m6!1s0x3bb7139113beeb01:0xf6f041b030f2cdd!8m2!3d15.1616719!4d76.903967!16s%2Fg%2F11nm_r1vrj!19sChIJAeu-E5ETtzsR3SwPAxsEbw8?authuser=0&hl=en&rclk=1,"15.1616719,76.903967"
Masjid Temple Gonal,Hindu temple,"4WHX+MW6 Masjid Temple Gonal, Venkateswara Nagar, Bandimot, Ballari, Karnataka 583101","Venkateswara Nagar, Bandimot",4WHX+MW6,Ballari,583101,Karnataka,IN,https://www.google.com/maps/place/Masjid+Temple+Gonal/data=!4m7!3m6!1s0x3bb7118775dbb673:0x86c3e31e5d0e5e26!8m2!3d15.1291548!4d76.9497788!16s%2Fg%2F11n0zd5wyf!19sChIJc7bbdYcRtzsRJl4OXR7jw4Y?authuser=0&hl=en&rclk=1,"15.129154799999998,76.94977879999999"
Masjid e madeena,Mosque,"4WP2+Q9P Masjid e madeena, Jinnah Chowk, Abdus Salam St, Radio Park Cowl Bazar, Cowl Bazaar, Ballari, Karnataka 583102","Radio Park Cowl Bazar, Cowl Bazaar","4WP2+Q9P, Jinnah Chowk, Abdus Salam St",Ballari,583102,Karnataka,IN,https://www.google.com/maps/place/Masjid+e+madeena/data=!4m7!3m6!1s0x3bb71300087cdfcb:0xc6e4f027d5822257!8m2!3d15.1369657!4d76.9009498!16s%2Fg%2F11lsqz8dx6!19sChIJy998CAATtzsRVyKC1Sfw5MY?authuser=0&hl=en&rclk=1,"15.1369657,76.90094979999999"
Markaz Masjid,Mosque,"4VQX+W9J Markaz Masjid, Radio Park Cowl Bazar, Cowl Bazaar, Ballari, Karnataka 583102","Radio Park Cowl Bazar, Cowl Bazaar",4VQX+W9J,Ballari,583102,Karnataka,IN,https://www.google.com/maps/place/Markaz+Masjid/data=!4m7!3m6!1s0x3bb7134983f7e105:0xb945075f90ffc129!8m2!3d15.1392519!4d76.8987578!16s%2Fg%2F11rdbgy5zv!19sChIJBeH3g0kTtzsRKcH_kF8HRbk?authuser=0&hl=en&rclk=1,"15.1392519,76.8987578"
Masjid-e-Usmaniya,Mosque,"Masjid-e-Usmaniya, plot no 78 ward no 5 Honnalliroad Water tank line , Guggarahatti, Cowl Bazaar, Ballari, Karnataka 583101",Cowl Bazaar,"plot no 78 ward no 5 Honnalliroad Water tank line , Guggarahatti",Ballari,583101,Karnataka,IN,https://www.google.com/maps/place/Masjid-e-Usmaniya/data=!4m7!3m6!1s0x3bb7138e160765cb:0x8cabd213cd15a1d9!8m2!3d15.1200041!4d76.9068962!16s%2Fg%2F11ndzk0srl!19sChIJy2UHFo4TtzsR2aEVzRPSq4w?authuser=0&hl=en&rclk=1,"15.1200041,76.90689619999999"
Masjid E Char Minar,Mosque,"Masjid E Char Minar, 6/34, 6/34, Mullangi St, Millerpet, Old Town, Ballari, Karnataka 583101","Millerpet, Old Town","6/34, 6/34, Mullangi St",Ballari,583101,Karnataka,IN,https://www.google.com/maps/place/Masjid+E+Char+Minar/data=!4m7!3m6!1s0x3bb711b067833caf:0x6567b7a6fc28a944!8m2!3d15.1371363!4d76.9302828!16s%2Fg%2F11s9mkh0vc!19sChIJrzyDZ7ARtzsRRKko_Ka3Z2U?authuser=0&hl=en&rclk=1,"15.1371363,76.9302828"
Rahmat Nagar Masjid,Mosque,"4WG3+X95 Rahmat Nagar Masjid, Cowl Bazaar, Ballari, Karnataka 583102",Cowl Bazaar,4WG3+X95,Ballari,583102,Karnataka,IN,https://www.google.com/maps/place/Rahmat+Nagar+Masjid/data=!4m7!3m6!1s0x3bb713005500e771:0x6e86942d9fd42a82!8m2!3d15.1273901!4d76.9035464!16s%2Fg%2F11svzw52p_!19sChIJcecAVQATtzsRgirUny2Uhm4?authuser=0&hl=en&rclk=1,"15.1273901,76.9035464"
Jamiya masjid Sunni,Mosque,"Jamiya masjid Sunni, 3/96, Ballarappa Colony, Old Town, Ballari, Karnataka 583101","Ballarappa Colony, Old Town",3/96,Ballari,583101,Karnataka,IN,https://www.google.com/maps/place/Jamiya+masjid+Sunni/data=!4m7!3m6!1s0x3bb711dd10803c35:0xf64aeed69e2805bf!8m2!3d15.1333792!4d76.9219278!16s%2Fg%2F11vdbfw8xw!19sChIJNTyAEN0RtzsRvwUontbuSvY?authuser=0&hl=en&rclk=1,"15.133379199999998,76.92192779999999"
Alahiyyuhadh Masjid,Mosque,"4WM2+MJW Alahiyyuhadh Masjid, Cowl Bazaar, Ballari, Karnataka 583102",Cowl Bazaar,4WM2+MJW,Ballari,583102,Karnataka,IN,https://www.google.com/maps/place/Alahiyyuhadh+Masjid/data=!4m7!3m6!1s0x3bb713024315f20d:0x52d70bfd771baf85!8m2!3d15.1342296!4d76.9015888!16s%2Fg%2F11fnxtm6x7!19sChIJDfIVQwITtzsRha8bd_0L11I?authuser=0&hl=en&rclk=1,"15.1342296,76.9015888"
Mustafa masjid,Mosque,"4WPJ+R5J Mustafa masjid, Millerpet, Bapu Ji Nagar, Ballari, Karnataka 583101","Millerpet, Bapu Ji Nagar",4WPJ+R5J,Ballari,583101,Karnataka,IN,https://www.google.com/maps/place/Mustafa+masjid/data=!4m7!3m6!1s0x3bb711906e7d4b35:0x980eaa2545ee94d5!8m2!3d15.1370754!4d76.9303884!16s%2Fg%2F11v05s7rjr!19sChIJNUt9bpARtzsR1ZTuRSWqDpg?authuser=0&hl=en&rclk=1,"15.137075399999999,76.9303884"
Aasharaya colony near fatha masjid cowl bazar ballari,Mosque,"4VJX+RF Aasharaya colony near fatha masjid cowl bazar ballari, Cowl Bazaar, Ballari, Karnataka 583102",Cowl Bazaar,4VJX+RF,Ballari,583102,Karnataka,IN,https://www.google.com/maps/place/Aasharaya+colony+near+fatha+masjid+cowl+bazar+ballari/data=!4m7!3m6!1s0x3bb713817ba92e7b:0x300e0a9a1bec89a6!8m2!3d15.1320579!4d76.8986684!16s%2Fg%2F11khbx76s6!19sChIJey6pe4ETtzsRponsG5oKDjA?authuser=0&hl=en&rclk=1,"15.1320579,76.89866839999999"
Masjid e Zohra Ahle Hadees,Mosque,"4WC4+684 Masjid e Zohra Ahle Hadees, Cowl Bazaar, Ballari, Karnataka 583102",Cowl Bazaar,4WC4+684,Ballari,583102,Karnataka,IN,https://www.google.com/maps/place/Masjid+e+Zohra+Ahle+Hadees/data=!4m7!3m6!1s0x3bb713dc1e4022d9:0xf2c3fa55fed19033!8m2!3d15.1205081!4d76.9058258!16s%2Fg%2F11vc6ln7qb!19sChIJ2SJAHtwTtzsRM5DR_lX6w_I?authuser=0&hl=en&rclk=1,"15.120508099999999,76.9058258"
Masjid-e-Syedina Ibrahim(A.S),Mosque,"4WFW+PRJ Masjid-e-Syedina Ibrahim(A.S), Goldsmith Street, UHTC Ranithota, Ballari, Karnataka 583101",UHTC Ranithota,"4WFW+PRJ, Goldsmith Street",Ballari,583101,Karnataka,IN,https://www.google.com/maps/place/Masjid-e-Syedina+Ibrahim%28A.S%29/data=!4m7!3m6!1s0x3bb711d0f991ecd9:0x11661be0583e59d7!8m2!3d15.1243283!4d76.947022!16s%2Fg%2F11t1dxgrsr!19sChIJ2eyR-dARtzsR11k-WOAbZhE?authuser=0&hl=en&rclk=1,"15.1243283,76.94702199999999"
Dalwala Masjid,Mosque,"4WR2+4W9 Dalwala Masjid, Dalwala Masjid St, Radio Park Cowl Bazar, Cowl Bazaar, Ballari, Karnataka 583102","Radio Park Cowl Bazar, Cowl Bazaar","4WR2+4W9, Dalwala Masjid St",Ballari,583102,Karnataka,IN,https://www.google.com/maps/place/Dalwala+Masjid/data=!4m7!3m6!1s0x3bb7135d94a68223:0xedd8b0bfaf7d3127!8m2!3d15.1402817!4d76.902346!16s%2Fg%2F11l5ld1wtx!19sChIJI4KmlF0TtzsRJzF9r7-w2O0?authuser=0&hl=en&rclk=1,"15.1402817,76.902346"
MASJID E MERAJ,Mosque,"4VVH+74R MASJID E MERAJ, PRASHANT NAGAR BELGAL ROAD, Ballari",Ramanjaneya Nagar,"4VVH+74R, PRASHANT NAGAR BELGAL ROAD",Ballari,,Karnataka,IN,https://www.google.com/maps/place/MASJID+E+MERAJ/data=!4m7!3m6!1s0x3bb713899cdd45a9:0x7887a75dcdd4fcf2!8m2!3d15.1432372!4d76.8777763!16s%2Fg%2F11nsb4mm7w!19sChIJqUXdnIkTtzsR8vzUzV2nh3g?authuser=0&hl=en&rclk=1,"15.1432372,76.8777763"
Huda Masjid,Mosque,"4VRV+MQ5 Huda Masjid, Vijayanagar Colony, Cantonment, Ballari, Karnataka 583102","Vijayanagar Colony, Cantonment",4VRV+MQ5,Ballari,583102,Karnataka,IN,https://www.google.com/maps/place/Huda+Masjid/data=!4m7!3m6!1s0x3bb7134dd97096c5:0xd437df2ca82196d5!8m2!3d15.1416409!4d76.8945029!16s%2Fg%2F11txgmj67l!19sChIJxZZw2U0TtzsR1ZYhqCzfN9Q?authuser=0&hl=en&rclk=1,"15.141640899999999,76.89450289999999"
Khazi mosque,Mosque,"4WJW+G6 Khazi mosque, Venkateswara Nagar, Bandimot, Ballari, Karnataka 583101","Venkateswara Nagar, Bandimot",4WJW+G6,Ballari,,Karnataka,IN,https://www.google.com/maps/place/Khazi+mosque/data=!4m7!3m6!1s0x3bb71159893c7717:0xe4a8267dd93bf9c5!8m2!3d15.1312656!4d76.9455489!16s%2Fg%2F11k3kp4c8v!19sChIJF3c8iVkRtzsRxfk72X0mqOQ?authuser=0&hl=en&rclk=1,"15.131265599999999,76.94554889999999"
Sunni Muslim Eidgah,Place of worship,"4WJ6+F76 Sunni Muslim Eidgah, Cowl Bazaar, Ballari, Karnataka 583102",Cowl Bazaar,4WJ6+F76,Ballari,583102,Karnataka,IN,https://www.google.com/maps/place/Sunni+Muslim+Eidgah/data=!4m7!3m6!1s0x3bb713e45c000001:0x53f30ee4c75749c2!8m2!3d15.1311534!4d76.9106454!16s%2Fg%2F11tgg7nft6!19sChIJAQAAXOQTtzsRwklXx-QO81M?authuser=0&hl=en&rclk=1,"15.131153399999999,76.91064539999999"
Patakandam street near Elahi Masjid bellary,,"4WQC+QH4 Patakandam street near Elahi Masjid bellary, Bruce Pet, Cowl Bazaar, Ballari, Karnataka 583101","Bruce Pet, Cowl Bazaar",4WQC+QH4,Ballari,,Karnataka,IN,https://www.google.com/maps/place/Patakandam+street+near+Elahi+Masjid+bellary/data=!4m7!3m6!1s0x3bb711b61b9953f1:0xecfe3aecc318029!8m2!3d15.1393932!4d76.9214428!16s%2Fg%2F11kr7rr_mh!19sChIJ8VOZG7YRtzsRKYAxzK7jzw4?authuser=0&hl=en&rclk=1,"15.139393199999999,76.9214428"
