name,main_category,address,address_ward,address_street,address_city,address_postal_code,address_state,address_country_code,link,coordinates
Masjid E Alamgiri,Mosque,"Masjid E Alamgiri, Chennur, Telangana 504201",,,Chennur,,Telangana,IN,https://www.google.com/maps/place/Masjid+E+Alamgiri/data=!4m7!3m6!1s0x3a32eba7d6448ecd:0xe0585ddf2d39082b!8m2!3d18.8567979!4d79.7961685!16s%2Fg%2F1ptwnygbj!19sChIJzY5E1qfrMjoRKwg5Ld9dWOA?authuser=0&hl=en&rclk=1,"18.8567979,79.7961685"
Jama E Masjid,Mosque,"VQ5V+JXP Jama E Masjid, Chennur, Telangana 504201",,VQ5V+JXP,Chennur,504201,Telangana,IN,https://www.google.com/maps/place/Jama+E+Masjid/data=!4m7!3m6!1s0x3a32eba81e6cb449:0x5d8ccd07c61ccb39!8m2!3d18.8590975!4d79.7949404!16s%2Fg%2F1pv1smc81!19sChIJSbRsHqjrMjoROcscxgfNjF0?authuser=0&hl=en&rclk=1,"18.8590975,79.7949404"
Bada Hanuman,Hindu temple,"VQ5W+574 Bada Hanuman, Chennur, Telangana 504201",,VQ5W+574,Chennur,504201,Telangana,IN,https://www.google.com/maps/place/Bada+Hanuman/data=!4m7!3m6!1s0x3a32eba80c94d6e9:0x5c0f4a0f3c9e4e76!8m2!3d18.8578896!4d79.7956957!16s%2Fg%2F1hc37trh6!19sChIJ6daUDKjrMjoRdk6ePA9KD1w?authuser=0&hl=en&rclk=1,"18.8578896,79.7956957"
Masjid-e-Anas,Mosque,"Masjid-e-Anas, Chennur, Telangana 504201",,,Chennur,,Telangana,IN,https://www.google.com/maps/place/Masjid-e-Anas/data=!4m7!3m6!1s0x3a32eba90c00966d:0xdf13a48769c39ab1!8m2!3d18.8557902!4d79.7921374!16s%2Fg%2F1pv5zg601!19sChIJbZYADKnrMjoRsZrDaYekE98?authuser=0&hl=en&rclk=1,"18.855790199999998,79.7921374"
Masjid-e-Bakhtawar,Mosque,"Masjid-e-Bakhtawar, Chennur, Telangana 504201",,,Chennur,,Telangana,IN,https://www.google.com/maps/place/Masjid-e-Bakhtawar/data=!4m7!3m6!1s0x3a32ebabc3634da1:0x9871628c748cf414!8m2!3d18.8548409!4d79.7896162!16s%2Fg%2F1ptxr7h2s!19sChIJoU1jw6vrMjoRFPSMdIxicZg?authuser=0&hl=en&rclk=1,"18.8548409,79.7896162"
Jama Masjid,Mosque,"PXHM+8VV Jama Masjid, Mahadevpur, Telangana 505504",,PXHM+8VV,Mahadevpur,505504,Telangana,IN,https://www.google.com/maps/place/Jama+Masjid/data=!4m7!3m6!1s0x3a32fa75617d83f7:0x8aa0d3d504d21fee!8m2!3d18.7283748!4d79.9846615!16s%2Fg%2F12hrjt626!19sChIJ94N9YXX6MjoR7h_SBNXToIo?authuser=0&hl=en&rclk=1,"18.728374799999997,79.9846615"
Aalamgeer Masjid,Mosque,"RW63+V5Q Aalamgeer Masjid, Kaleshwaram, Telangana 505504",,RW63+V5Q,Kaleshwaram,,Telangana,IN,https://www.google.com/maps/place/Aalamgeer+Masjid/data=!4m7!3m6!1s0x3a32ee0eacd0e63d:0xd1d306e397963b5e!8m2!3d18.812219!4d79.9029744!16s%2Fg%2F11cls88gzx!19sChIJPebQrA7uMjoRXjuWl-MG09E?authuser=0&hl=en&rclk=1,"18.812219,79.90297439999999"
Chennur Eidgah,Mosque,"VQ3J+64P Chennur Eidgah, Chennur, Telangana 504201",,VQ3J+64P,Chennur,504201,Telangana,IN,https://www.google.com/maps/place/Chennur+Eidgah/data=!4m7!3m6!1s0x3a32eb346e2922d1:0x522bc793d3989cc0!8m2!3d18.8530758!4d79.7803149!16s%2Fg%2F11gr41f9d1!19sChIJ0SIpbjTrMjoRwJyY05PHK1I?authuser=0&hl=en&rclk=1,"18.8530758,79.7803149"
"Dargah Hazrat Syed Shah Baba,R.A (GADI)",Mosque,"VQ5V+RW7 Dargah Hazrat Syed Shah Baba,R.A (GADI), Chennur, Telangana 504201",,VQ5V+RW7,Chennur,504201,Telangana,IN,"https://www.google.com/maps/place/Dargah+Hazrat+Syed+Shah+Baba,R.A+%28GADI%29/data=!4m7!3m6!1s0x3a32eb45406c13c1:0x6ceb3a5b566c116e!8m2!3d18.8595385!4d79.7947966!16s%2Fg%2F11h6r2nwsr!19sChIJwRNsQEXrMjoRbhFsVls662w?authuser=0&hl=en&rclk=1","18.8595385,79.7947966"
Masjid-E-Mohammediya Qadriya,Mosque,"RQXV+PFX Masjid-E-Mohammediya Qadriya, Indranagar, Chennur, Telangana 504201",Indranagar,RQXV+PFX,Chennur,504201,Telangana,IN,https://www.google.com/maps/place/Masjid-E-Mohammediya+Qadriya/data=!4m7!3m6!1s0x3a32ebde9850dce3:0x83824848ff621cc1!8m2!3d18.849373!4d79.7937199!16s%2Fg%2F11g0gppcnj!19sChIJ49xQmN7rMjoRwRxi_0hIgoM?authuser=0&hl=en&rclk=1,"18.849373,79.7937199"
"Dargah Hazrat Syed Meer Anwar Ali Shah Baba, R.A,",Mosque,"VQ3Q+CRF Dargah Hazrat Syed Meer Anwar Ali Shah Baba, R.A,, Chennur, Telangana 504201",,VQ3Q+CRF,Chennur,504201,Telangana,IN,"https://www.google.com/maps/place/Dargah+Hazrat+Syed+Meer+Anwar+Ali+Shah+Baba,+R.A,/data=!4m7!3m6!1s0x3a32ebec0e3164a9:0xfd7c4c0a32d7ff90!8m2!3d18.853568!4d79.7895399!16s%2Fg%2F11h7607fr7!19sChIJqWQxDuzrMjoRkP_XMgpMfP0?authuser=0&hl=en&rclk=1","18.853568,79.7895399"
Masjede Ibrheeh Ahlehadees,Mosque,"RW53+JJ8 Masjede Ibrheeh Ahlehadees, Kaleshwaram, Telangana 505504",,RW53+JJ8,Kaleshwaram,505504,Telangana,IN,https://www.google.com/maps/place/Masjede+Ibrheeh+Ahlehadees/data=!4m7!3m6!1s0x3a32ef7c138e6349:0xef88ca29a2c2612b!8m2!3d18.8090272!4d79.9040633!16s%2Fg%2F11rxy9qhs_!19sChIJSWOOE3zvMjoRK2HCoinKiO8?authuser=0&hl=en&rclk=1,"18.8090272,79.90406329999999"
Chilla Mubarak Gouse e Azam,Mosque,"VQ4W+X4G Chilla Mubarak Gouse e Azam, Chennur, Telangana 504201",,VQ4W+X4G,Chennur,504201,Telangana,IN,https://www.google.com/maps/place/Chilla+Mubarak+Gouse+e+Azam/data=!4m7!3m6!1s0x3a32eb21ab958ad5:0x3ae6b59a4b6f5e6f!8m2!3d18.8574495!4d79.7953405!16s%2Fg%2F11h6gc2ps0!19sChIJ1YqVqyHrMjoRb15vS5q15jo?authuser=0&hl=en&rclk=1,"18.857449499999998,79.7953405"
Chennur kabrasthan,Mosque,"VQ4R+FW8 Chennur kabrasthan, Chennur, Telangana 504201",,VQ4R+FW8,Chennur,504201,Telangana,IN,https://www.google.com/maps/place/Chennur+kabrasthan/data=!4m7!3m6!1s0x3a32eba0a7c7ff67:0xe404c258bc15105d!8m2!3d18.8561847!4d79.7923442!16s%2Fg%2F11pzmp4fjp!19sChIJZ__Hp6DrMjoRXRAVvFjCBOQ?authuser=0&hl=en&rclk=1,"18.8561847,79.7923442"
SYED ASAD,Mosque,"VQ2V+6FJ SYED ASAD, Indranagar, Chennur, Telangana 504201",Indranagar,VQ2V+6FJ,Chennur,504201,Telangana,IN,https://www.google.com/maps/place/SYED+ASAD/data=!4m7!3m6!1s0x3a32eb1eae76e5b3:0xb5aa5071272715ee!8m2!3d18.8505943!4d79.7936422!16s%2Fg%2F11vj31rz5x!19sChIJs-V2rh7rMjoR7hUnJ3FQqrU?authuser=0&hl=en&rclk=1,"18.8505943,79.7936422"
Madina masjid,Mosque,"PXHM+G52 Madina masjid, Mahadevpur, Telangana 505504",,PXHM+G52,Mahadevpur,505504,Telangana,IN,https://www.google.com/maps/place/Madina+masjid/data=!4m7!3m6!1s0x3a32f1c3c90b751d:0x4780a678edf215f8!8m2!3d18.728759!4d79.9828844!16s%2Fg%2F11fl8_ggx6!19sChIJHXULycPxMjoR-BXy7XimgEc?authuser=0&hl=en&rclk=1,"18.728759,79.9828844"
Dargah shareef,Place of worship,"VQ5V+RW7 Dargah shareef, Chennur, Telangana 504201",,VQ5V+RW7,Chennur,504201,Telangana,IN,https://www.google.com/maps/place/Dargah+shareef/data=!4m7!3m6!1s0x3a32ebb2ed474bd1:0xc29cacd34457450a!8m2!3d18.8595385!4d79.7947966!16s%2Fg%2F11h70jkw_r!19sChIJ0UtH7bLrMjoRCkVXRNOsnMI?authuser=0&hl=en&rclk=1,"18.8595385,79.7947966"
Masjid,Mosque,"PX8M+MQX Masjid, Bommapur, Telangana 505504",,PX8M+MQX,Bommapur,505504,Telangana,IN,https://www.google.com/maps/place/Masjid/data=!4m7!3m6!1s0x3a32fbdf390f9137:0xb9127a2cf08cea45!8m2!3d18.7153406!4d79.9844491!16s%2Fg%2F11v3xbj_vt!19sChIJN5EPOd_7MjoRReqM8Cx6Erk?authuser=0&hl=en&rclk=1,"18.715340599999998,79.98444909999999"
Eidgah,Mosque,"RV6X+W2V Eidgah, Puskupalle Rd, Majeedpalle, Telangana 505504",,"RV6X+W2V, Puskupalle Rd",Majeedpalle,505504,Telangana,IN,https://www.google.com/maps/place/Eidgah/data=!4m7!3m6!1s0x3a32ef975be69d97:0xd6d57f5b64141b0a!8m2!3d18.8123738!4d79.8975365!16s%2Fg%2F11r6xxv_hp!19sChIJl53mW5fvMjoRChsUZFt_1dY?authuser=0&hl=en&rclk=1,"18.8123738,79.8975365"
