name,main_category,address,address_ward,address_street,address_city,address_postal_code,address_state,address_country_code,link,coordinates
Jama Masjid,Mosque,"Jama Masjid, Old Delhi, Delhi, 110006","Jama Masjid, Old Delhi",,Delhi,110006,Delhi,IN,https://www.google.com/maps/place/Jama+Masjid/data=!4m7!3m6!1s0x390cfd18df89b215:0xdd57369e29bf9d96!8m2!3d28.6506792!4d77.2334421!16zL20vMDR5emo1!19sChIJFbKJ3xj9DDkRlp2_KZ42V90?authuser=0&hl=en&rclk=1,"28.6506792,77.23344209999999"
Taj ul Masjid,Mosque,"Taj ul Masjid, NH 12, Kohefiza, Bhopal, Madhya Pradesh 462001",Kohefiza,NH 12,Bhopal,462001,Madhya Pradesh,IN,https://www.google.com/maps/place/Taj+ul+Masjid/data=!4m7!3m6!1s0x397c681a7d83af6b:0x7dda3ac9601ed629!8m2!3d23.262987!4d77.3928231!16s%2Fm%2F02pzv2d!19sChIJa6-DfRpofDkRKdYeYMk62n0?authuser=0&hl=en&rclk=1,"23.262987,77.3928231"
Rabia Masjid (Jamia Hamdard),Mosque,"Rabia Masjid (Jamia Hamdard), Rabia Masjid, Hamdard Nagar, New Delhi, Delhi 110062",Hamdard Nagar,Rabia Masjid,New Delhi,110062,Delhi,IN,https://www.google.com/maps/place/Rabia+Masjid+%28Jamia+Hamdard%29/data=!4m7!3m6!1s0x390ce171fd50237d:0xce4e2bf10a8dca8b!8m2!3d28.5183137!4d77.2520345!16s%2Fg%2F1hm348c90!19sChIJfSNQ_XHhDDkRi8qNCvErTs4?authuser=0&hl=en&rclk=1,"28.5183137,77.2520345"
Jama Masjid,Mosque,"Jama Masjid, Jama Masjid Rd, Upper Fort, Upperkot, City, Aligarh, Uttar Pradesh 202001","Upper Fort, Upperkot, City",Jama Masjid Rd,Aligarh,202001,Uttar Pradesh,IN,https://www.google.com/maps/place/Jama+Masjid/data=!4m7!3m6!1s0x3974a4874057002b:0xdcdd8bf9ce8d1630!8m2!3d27.8794487!4d78.0665611!16s%2Fg%2F1wcxbhc7!19sChIJKwBXQIekdDkRMBaNzvmL3dw?authuser=0&hl=en&rclk=1,"27.879448699999998,78.0665611"
Sunehri Masjid,Mosque,"M62Q+5QW Sunehri Masjid, Nishad Raj Marg, Lal Qila, Old Delhi, New Delhi, Delhi, 110006","Lal Qila, Old Delhi","M62Q+5QW, Nishad Raj Marg","New Delhi, Delhi",110006,Delhi,IN,https://www.google.com/maps/place/Sunehri+Masjid/data=!4m7!3m6!1s0x390cfd1e2ed1ec0d:0xb341e6c5c83f65e7!8m2!3d28.650487!4d77.2394481!16s%2Fm%2F0zwr167!19sChIJDezRLh79DDkR52U_yMXmQbM?authuser=0&hl=en&rclk=1,"28.650487,77.23944809999999"
Begumpur Mosque,Mosque,"Begumpur Mosque, Malviya Nagar, Sri Aurobindo Ln, near Mata Mandir, Begumpur, New Delhi, Delhi 110017",Begumpur,"Malviya Nagar, Sri Aurobindo Ln, near Mata Mandir",New Delhi,110017,Delhi,IN,https://www.google.com/maps/place/Begumpur+Mosque/data=!4m7!3m6!1s0x390ce21a355f3501:0x807a43d3836590e!8m2!3d28.5392125!4d77.206839!16s%2Fg%2F1hhzgrz2c!19sChIJATVfNRriDDkRDlk2OD2kBwg?authuser=0&hl=en&rclk=1,"28.539212499999998,77.206839"
Masjid Moth,Mosque,"Masjid Moth, 92, Masjid Moth Rd, South Extension II, Masjid Moth Village, New Delhi, Delhi 110049","South Extension II, Masjid Moth Village","92, Masjid Moth Rd",New Delhi,110049,Delhi,IN,https://www.google.com/maps/place/Masjid+Moth/data=!4m7!3m6!1s0x390ce242799950e9:0xb2f0ba5418b140f8!8m2!3d28.562458!4d77.2176906!16s%2Fm%2F05zxh9f!19sChIJ6VCZeULiDDkR-ECxGFS68LI?authuser=0&hl=en&rclk=1,"28.562458,77.2176906"
Sabz Masjid,Mosque,"Sabz Masjid, 3571, Lalkuan Bazar Rd, Bazar Sirkiwalan, Lal Kuan Bazar, Chandni Chowk, Delhi, 110006","Bazar Sirkiwalan, Lal Kuan Bazar, Chandni Chowk","3571, Lalkuan Bazar Rd",Delhi,110006,Delhi,IN,https://www.google.com/maps/place/Sabz+Masjid/data=!4m7!3m6!1s0x390cfd16a94877a7:0x7b35bb653cd42e20!8m2!3d28.652163!4d77.223599!16s%2Fm%2F04q247t!19sChIJp3dIqRb9DDkRIC7UPGW7NXs?authuser=0&hl=en&rclk=1,"28.652162999999998,77.223599"
Madhi Masjid msjd,Mosque,"G57P+X22 Madhi Masjid msjd, Aam Bagh, Ladha Sarai Village, Mehrauli, New Delhi, Delhi 110030","Aam Bagh, Ladha Sarai Village, Mehrauli",G57P+X22,"Mehrauli, New Delhi",110030,Delhi,IN,https://www.google.com/maps/place/Madhi+Masjid+%D9%85%D8%B3%D8%AC%D8%AF%E2%80%AD/data=!4m7!3m6!1s0x390d1e1aefd51b73:0xeb817d5121e0c393!8m2!3d28.5148909!4d77.1850159!16s%2Fg%2F1tnk_stq!19sChIJcxvV7xoeDTkRk8PgIVF9ges?authuser=0&hl=en&rclk=1,"28.514890899999997,77.1850159"
Dibiya wali Masjid,Mosque,"G54H+M78 Dibiya wali Masjid, Mehrauli-Gurgaon Road, M G Road, Dr Ambedkar Colony, Chhatarpur, New Delhi, Delhi 110030","Dr Ambedkar Colony, Chhatarpur","G54H+M78, Mehrauli-Gurgaon Road, M G Road",New Delhi,110030,Delhi,IN,https://www.google.com/maps/place/Dibiya+wali+Masjid/data=!4m7!3m6!1s0x390d1e16e71c9d4d:0x176d7f6163772932!8m2!3d28.5091206!4d77.1796709!16s%2Fg%2F119w0d7q4!19sChIJTZ0c5xYeDTkRMil3Y2F_bRc?authuser=0&hl=en&rclk=1,"28.5091206,77.17967089999999"
Saeediya Masjid,Mosque,"Saeediya Masjid, 45, New Silampur Gali, Block A, Chauhan Banger, Shahdara, Delhi, 110031","Block A, Chauhan Banger, Shahdara","45, New Silampur Gali",Delhi,110031,Delhi,IN,https://www.google.com/maps/place/Saeediya+Masjid/data=!4m7!3m6!1s0x390cfc61230920b1:0xd4902005e34cb106!8m2!3d28.678415!4d77.2672561!16s%2Fg%2F11c6qcjmhv!19sChIJsSAJI2H8DDkRBrFM4wUgkNQ?authuser=0&hl=en&rclk=1,"28.678414999999998,77.2672561"
Jama Masjid jm` msjd,Mosque,"J855+M79 Jama Masjid jm` msjd, Block 15, Part 2, Trilokpuri, New Delhi, Delhi, 110091","Block 15, Part 2, Trilokpuri",J855+M79,"New Delhi, Delhi",110091,Delhi,IN,https://www.google.com/maps/place/Jama+Masjid+%D8%AC%D8%A7%D9%85%D8%B9+%D9%85%D8%B3%D8%AC%D8%AF%E2%80%AD/data=!4m7!3m6!1s0x390ce4bfe1b12b91:0xfecd74e7cb8ce1c7!8m2!3d28.6091721!4d77.3082433!16s%2Fg%2F11g8djm1rv!19sChIJkSux4b_kDDkRx-GMy-d0zf4?authuser=0&hl=en&rclk=1,"28.6091721,77.3082433"
Kolencheri Juma Masjid koolnyceeri jumaa msjid,Mosque,"XFJG+7F9 Kolencheri Juma Masjid koolnyceeri jumaa msjid, Kochi-Madurai-Tondi Point Rd, Kolenchery, Aikaranad South, Kerala 682311",,"XFJG+7F9, Kochi-Madurai-Tondi Point Rd","Kolenchery, Aikaranad South",682311,Kerala,IN,https://www.google.com/maps/place/Kolencheri+Juma+Masjid+%E0%B4%95%E0%B5%8B%E0%B4%B2%E0%B4%9E%E0%B5%8D%E0%B4%9A%E0%B5%87%E0%B4%B0%E0%B4%BF+%E0%B4%9C%E0%B5%81%E0%B4%AE%E0%B4%BE+%E0%B4%AE%E0%B4%B8%E0%B5%8D%E0%B4%9C%E0%B4%BF%E0%B4%A6%E0%B5%8D/data=!4m7!3m6!1s0x3b07dfe1ad70b26d:0x6f986e32d399f127!8m2!3d9.9806744!4d76.476221!16s%2Fg%2F11bv1bt3ql!19sChIJbbJwreHfBzsRJ_GZ0zJumG8?authuser=0&hl=en&rclk=1,"9.9806744,76.476221"
Madina Masjid msjd mdynh,Mosque,"G5F3+86X Madina Masjid msjd mdynh, Pocket 5, Sector D, Vasant Kunj, New Delhi, Delhi 110070","Pocket 5, Sector D, Vasant Kunj",G5F3+86X,New Delhi,110070,Delhi,IN,https://www.google.com/maps/place/Madina+Masjid+%D9%85%D8%B3%D8%AC%D8%AF+%D9%85%D8%AF%DB%8C%D9%86%DB%81%E2%80%AD/data=!4m7!3m6!1s0x390d1e7f3ce8a9cf:0xb481f0aa48b311f9!8m2!3d28.5233679!4d77.1530999!16s%2Fg%2F11g8fn63n6!19sChIJz6noPH8eDTkR-RGzSKrwgbQ?authuser=0&hl=en&rclk=1,"28.5233679,77.1530999"
Madni Masjid,Mosque,"P25V+9QF Madni Masjid, Inder Enclave, Kirari Suleman Nagar, Delhi, 110086","Inder Enclave, Kirari Suleman Nagar",P25V+9QF,Delhi,110086,Delhi,IN,https://www.google.com/maps/place/Madni+Masjid/data=!4m7!3m6!1s0x390d067073333987:0xd49df828e9d0e8c7!8m2!3d28.7084363!4d77.0444115!16s%2Fg%2F11dylt5g2_!19sChIJhzkzc3AGDTkRx-jQ6Sj4ndQ?authuser=0&hl=en&rclk=1,"28.7084363,77.0444115"
Ahle Sunnat wal jamaat RazaeMuhammadi Masjid,Mosque,"J6X8+JC2 Ahle Sunnat wal jamaat RazaeMuhammadi Masjid, Aram Nagar, Paharganj, New Delhi, Delhi 110055","Aram Nagar, Paharganj",J6X8+JC2,New Delhi,110055,Delhi,IN,https://www.google.com/maps/place/Ahle+Sunnat+wal+jamaat+RazaeMuhammadi+Masjid/data=!4m7!3m6!1s0x390cfd6b1c55570b:0xb6cbdaabca9cc6b2!8m2!3d28.6490022!4d77.2160178!16s%2Fg%2F11g6mj_5x9!19sChIJC1dVHGv9DDkRssacyqvay7Y?authuser=0&hl=en&rclk=1,"28.649002199999998,77.2160178"
Puliya Wali Masjid,Mosque,"J6R9+Q48 Puliya Wali Masjid, Main Bazar Rd, Ratan Lal Market, Aram Bagh, Paharganj, New Delhi, Delhi, 110055","Ratan Lal Market, Aram Bagh, Paharganj","J6R9+Q48, Main Bazar Rd","New Delhi, Delhi",110055,Delhi,IN,https://www.google.com/maps/place/Puliya+Wali+Masjid/data=!4m7!3m6!1s0x390cfd3f5dcc4137:0x1ed0072a0c155076!8m2!3d28.6419015!4d77.2178423!16s%2Fg%2F12q4q_hw8!19sChIJN0HMXT_9DDkRdlAVDCoH0B4?authuser=0&hl=en&rclk=1,"28.6419015,77.2178423"
Kotla Mosque msjd khwttlh,Mosque,"J76X+9CG Kotla Mosque msjd khwttlh, Kotla Village, Mayur Vihar, New Delhi, Delhi, 110091","Kotla Village, Mayur Vihar",J76X+9CG,"New Delhi, Delhi",110091,Delhi,IN,https://www.google.com/maps/place/Kotla+Mosque+%D9%85%D8%B3%D8%AC%D8%AF+%DA%A9%D9%88%D9%B9%D9%84%DB%81%E2%80%AD/data=!4m7!3m6!1s0x390ce4bd25e39f0f:0xfe2551fd00707f0!8m2!3d28.6109416!4d77.2985798!16s%2Fg%2F12hszwgcl!19sChIJD5_jJb3kDDkR8AcH0B9V4g8?authuser=0&hl=en&rclk=1,"28.6109416,77.2985798"
Masjid Takia Wali,Mosque,"M634+XQF Masjid Takia Wali, Idgah Rd, Sarai Khalil, Sadar Bazaar, New Delhi, Delhi, 110006","Sarai Khalil, Sadar Bazaar","M634+XQF, Idgah Rd","New Delhi, Delhi",110006,Delhi,IN,https://www.google.com/maps/place/Masjid+Takia+Wali/data=!4m7!3m6!1s0x390cfd6f971e1e1b:0xe74631f43b7267ac!8m2!3d28.6549496!4d77.2069151!16s%2Fg%2F11bw3y5xhf!19sChIJGx4el2_9DDkRrGdyO_QxRuc?authuser=0&hl=en&rclk=1,"28.6549496,77.2069151"
Gaosieya Jama Masjid,Mosque,"Gaosieya Jama Masjid, 9, Block C, Madhu Vihar, Delhi, 110059","Block C, Block D, Madhu Vihar",9,Delhi,110059,Delhi,IN,https://www.google.com/maps/place/Gaosieya+Jama+Masjid/data=!4m7!3m6!1s0x390d1b2e6b01c6f9:0x4a2448fa4f9cbcb!8m2!3d28.6018899!4d77.0663549!16s%2Fg%2F11f15j2zfy!19sChIJ-cYBay4bDTkRy8v5pI9EogQ?authuser=0&hl=en&rclk=1,"28.6018899,77.0663549"
Inayati Masjid,Mosque,"a132, Inayati Masjid, A132, Pocket A, Mayur Vihar Phase II, Patparganj, New Delhi, Delhi, 110091","Pocket A, Mayur Vihar Phase II, Patparganj","a132, A132","New Delhi, Delhi",110091,Delhi,IN,https://www.google.com/maps/place/Inayati+Masjid/data=!4m7!3m6!1s0x390ce4bb25f8c36f:0xa0d251b5e9230397!8m2!3d28.6162024!4d77.2992068!16s%2Fg%2F11b7gmcs_f!19sChIJb8P4JbvkDDkRlwMj6bVR0qA?authuser=0&hl=en&rclk=1,"28.6162024,77.2992068"
Masjid Dai-Wali,Mosque,"Shop No, Masjid Dai-Wali, 3136, Delhi Gate Bazar, Kucha Alam, Khabas Pura, Daryaganj, New Delhi, Delhi, 110002","Kucha Alam, Khabas Pura, Daryaganj","Shop No, 3136, Delhi Gate Bazar","New Delhi, Delhi",110002,Delhi,IN,https://www.google.com/maps/place/Masjid+Dai-Wali/data=!4m7!3m6!1s0x390cfd20da360d31:0x7e303aff50cc4c2b!8m2!3d28.6435772!4d77.2380546!16s%2Fg%2F1jky_pbsw!19sChIJMQ022iD9DDkRK0zMUP86MH4?authuser=0&hl=en&rclk=1,"28.6435772,77.2380546"
Masjid Devband,Mosque,"G66Q+44V Masjid Devband, Tigri Colony, Tigri, Sangam Vihar, New Delhi, Delhi 110062","Tigri Colony, Tigri, Sangam Vihar",G66Q+44V,New Delhi,110062,Delhi,IN,https://www.google.com/maps/place/Masjid+Devband/data=!4m7!3m6!1s0x390ce1a02ba173f3:0x74659f41cc7c1b39!8m2!3d28.5103517!4d77.2377863!16s%2Fg%2F11b808708z!19sChIJ83OhK6DhDDkRORt8zEGfZXQ?authuser=0&hl=en&rclk=1,"28.510351699999998,77.2377863"
Masjid Dhobiyan,Mosque,"Masjid Dhobiyan, 3280, Delhi Gate Bazar, Kucha Alam, Old Dariya Ganj, New Delhi, Delhi 110002","Chatta lal Miya, Chandni Mahal, Old Delhi","3280, Delhi Gate Bazar, Kucha Alam, Old Dariya Ganj","New Delhi, Delhi",110002,Delhi,IN,https://www.google.com/maps/place/Masjid+Dhobiyan/data=!4m7!3m6!1s0x390cfd273340d127:0x7d6d2edf4a35f8d9!8m2!3d28.6425263!4d77.2386389!16s%2Fg%2F11cs5s2vzb!19sChIJJ9FAMyf9DDkR2fg1St8ubX0?authuser=0&hl=en&rclk=1,"28.6425263,77.2386389"
Mosque,Mosque,"M747+V64 Mosque, Pushta Rd, Multani Mohalla, Gandhi Nagar, Shahdara, New Delhi, Delhi, 110031","Multani Mohalla, Gandhi Nagar, Shahdara","M747+V64, Pushta Rd","New Delhi, Delhi",110031,Delhi,IN,https://www.google.com/maps/place/Mosque/data=!4m7!3m6!1s0x390cfcecc3c3a38d:0x1e72f8e84718020c!8m2!3d28.6571357!4d77.2630907!16s%2Fg%2F1jkvzp3j_!19sChIJjaPDw-z8DDkRDAIYR-j4ch4?authuser=0&hl=en&rclk=1,"28.657135699999998,77.26309069999999"
Madina Masjid,Mosque,"P76C+XRR Madina Masjid, Mustafabad Extn, New Mustafabad, Delhi, 110094","Mustafabad Extn, New Mustafabad",P76C+XRR,Delhi,110094,Delhi,IN,https://www.google.com/maps/place/Madina+Masjid/data=!4m7!3m6!1s0x390cfc1ba78e57eb:0x36e88cc0986088d6!8m2!3d28.7124927!4d77.2720251!16s%2Fg%2F11gbkvy5wt!19sChIJ61eOpxv8DDkR1ohgmMCM6DY?authuser=0&hl=en&rclk=1,"28.7124927,77.2720251"
EIDGAH & MASJID MANDOLI `ydgh & msjd mndd wly,Mosque,"P837+Q5M EIDGAH & MASJID MANDOLI `ydgh & msjd mndd wly, BUDH BAZAR ROAD BANK COLONY RAJIV NAGAR, Mandoli, Delhi, 110093","Budh Vihar, Mandoli","P837+Q5M, BUDH BAZAR ROAD BANK COLONY RAJIV NAGAR",Delhi,110093,Delhi,IN,https://www.google.com/maps/place/EIDGAH+%26+MASJID+MANDOLI+%D8%B9%DB%8C%D8%AF%DA%AF%D8%A7%DB%81+%26+%D9%85%D8%B3%D8%AC%D8%AF+%D9%85%D9%86%DA%88+%D9%88%D9%84%DB%8C%E2%80%AD/data=!4m7!3m6!1s0x390cfbc103a082b5:0x7e3fa7e11bedab2b!8m2!3d28.7044533!4d77.3129223!16s%2Fg%2F11cmzzb_k5!19sChIJtYKgA8H7DDkRK6vtG-GnP34?authuser=0&hl=en&rclk=1,"28.704453299999997,77.3129223"
Takiya Wali Masjid,Mosque,"J6X8+X73 Takiya Wali Masjid, Nabi Karim Rd, Amar Puri, Aram Nagar, Paharganj, New Delhi, Delhi 110055","Amar Puri, Aram Nagar, Paharganj","J6X8+X73, Nabi Karim Rd",New Delhi,110055,Delhi,IN,https://www.google.com/maps/place/Takiya+Wali+Masjid/data=!4m7!3m6!1s0x390cfd6b10d78515:0xbdc144b76738eac0!8m2!3d28.649894!4d77.2156832!16s%2Fg%2F11ddyd2v87!19sChIJFYXXEGv9DDkRwOo4Z7dEwb0?authuser=0&hl=en&rclk=1,"28.649894,77.2156832"
Masjid Teliyan,Mosque,"J6VP+9JM Masjid Teliyan, Bazar Chitli Qabar, Rakab Ganj, Chandni Mahal, Chandni Chowk, New Delhi, Delhi, 110006","Bazar Chitli Qabar, Rakab Ganj, Chandni Mahal, Chandni Chowk",J6VP+9JM,"New Delhi, Delhi",110006,Delhi,IN,https://www.google.com/maps/place/Masjid+Teliyan/data=!4m7!3m6!1s0x390cfd214be94f43:0x2cda7c5aeb3a5464!8m2!3d28.6434733!4d77.2365384!16s%2Fg%2F11bzzlszqp!19sChIJQ0_pSyH9DDkRZFQ661p82iw?authuser=0&hl=en&rclk=1,"28.6434733,77.2365384"
Ata E Rasool Masjid,Mosque,"P744+V55 Ata E Rasool Masjid, Shriram Colony, Block A, Rajiv Nagar, Sonia Vihar, Delhi, 110094","Shriram Colony, Block A, Rajiv Nagar, Sonia Vihar",P744+V55,Delhi,110094,Delhi,IN,https://www.google.com/maps/place/Ata+E+Rasool+Masjid/data=!4m7!3m6!1s0x390cfc3b2d10341f:0xd365e06455e65096!8m2!3d28.7071349!4d77.2554772!16s%2Fg%2F11dxrw2d2x!19sChIJHzQQLTv8DDkRllDmVWTgZdM?authuser=0&hl=en&rclk=1,"28.7071349,77.2554772"
Maszid Saifiyaan,Mosque,"Maszid Saifiyaan, A56, Deoli, Block C, Khanpur, New Delhi, Delhi 110080","Deoli, Block C, Khanpur",A56,New Delhi,110080,Delhi,IN,https://www.google.com/maps/place/Maszid+Saifiyaan/data=!4m7!3m6!1s0x390ce1e22fbf3cbf:0x7bb4134d107773d0!8m2!3d28.504321!4d77.226911!16s%2Fg%2F11ngbqm772!19sChIJvzy_L-LhDDkR0HN3EE0TtHs?authuser=0&hl=en&rclk=1,"28.504320999999997,77.226911"
Muhamadi Wali Masjid,Historical landmark,"H638+R8G Muhamadi Wali Masjid, Siri Fort Institutional Area, Siri Fort, New Delhi, Delhi 110049","Siri Fort Institutional Area, Siri Fort",H638+R8G,New Delhi,110049,Delhi,IN,https://www.google.com/maps/place/Muhamadi+Wali+Masjid/data=!4m7!3m6!1s0x390ce26acaf52495:0x99ea43a076fc60c!8m2!3d28.5545536!4d77.2158416!16s%2Fg%2F11gzqh6d0!19sChIJlST1ymriDDkRDMZvBzqkngk?authuser=0&hl=en&rclk=1,"28.5545536,77.21584159999999"
Masjid Badi msjd,Mosque,"Masjid Badi msjd, 893,, Chittli Qabar Bazar Rd, Jama Masjid, Chandni Chowk, New Delhi, Delhi 110006","Bazar Chitli Qabar, Kucha Chelan, Jama Masjid, Chandni Chowk","893,, Chittli Qabar Bazar Rd","New Delhi, Delhi",110006,Delhi,IN,https://www.google.com/maps/place/Masjid+Badi+%D9%85%D8%B3%D8%AC%D8%AF%E2%80%AD/data=!4m7!3m6!1s0x390cfd219cfec1f3:0x93ccacb281d71709!8m2!3d28.645321!4d77.2357133!16s%2Fg%2F12m98gjn5!19sChIJ88H-nCH9DDkRCRfXgbKszJM?authuser=0&hl=en&rclk=1,"28.645321,77.2357133"
Masjid Mashal Chiyan,Mosque,"Masjid Mashal Chiyan, 2100, Pahari Bhojla Rd, Pahari Bhojla, Sita Ram Bazar, Old Delhi, Delhi, 110006","Pahari Bhojla, Sita Ram Bazar, Old Delhi","2100, Pahari Bhojla Rd",Delhi,110006,Delhi,IN,https://www.google.com/maps/place/Masjid+Mashal+Chiyan/data=!4m7!3m6!1s0x390cfd225b6ed379:0x9d5cccd781f0a815!8m2!3d28.6454716!4d77.232231!16s%2Fg%2F11f1211zsv!19sChIJedNuWyL9DDkRFajwgdfMXJ0?authuser=0&hl=en&rclk=1,"28.6454716,77.232231"
Mosque / Masjid,Mosque,"Mosque / Masjid, A430, DDA Colony, Chaukhandi, Vishnu Garden, Delhi, 110018","DDA Colony, Chaukhandi, Vishnu Garden",A430,Delhi,110018,Delhi,IN,https://www.google.com/maps/place/Mosque+%2F+Masjid/data=!4m7!3m6!1s0x390d05579c83dfb9:0xadb490f25993e21b!8m2!3d28.645374!4d77.094016!16s%2Fg%2F11qn2351hz!19sChIJud-DnFcFDTkRG-KTWfKQtK0?authuser=0&hl=en&rclk=1,"28.645374,77.094016"
Minara Masjid,Mosque,"Q78H+MC7 Minara Masjid, Ghaziabad, Uttar Pradesh 201102",,Q78H+MC7,Ghaziabad,,Uttar Pradesh,IN,https://www.google.com/maps/place/Minara+Masjid/data=!4m7!3m6!1s0x390cfed628f5c28f:0x6c63711d6c363dd6!8m2!3d28.7666689!4d77.2785548!16s%2Fg%2F11hbc20ck7!19sChIJj8L1KNb-DDkR1j02bB1xY2w?authuser=0&hl=en&rclk=1,"28.7666689,77.2785548"
Masjid Dai Wali,Mosque,"J6WQ+QQH Masjid Dai Wali, Dakhni Rai St, Old Dariya Ganj, Daryaganj, New Delhi, Delhi, 110002","Old Dariya Ganj, Daryaganj","J6WQ+QQH, Dakhni Rai St","New Delhi, Delhi",110002,Delhi,IN,https://www.google.com/maps/place/Masjid+Dai+Wali/data=!4m7!3m6!1s0x390cfd206cb36be5:0xfcebc4e2a016bdf3!8m2!3d28.6469464!4d77.2394717!16s%2Fg%2F11dxmqvxfc!19sChIJ5WuzbCD9DDkR870WoOLE6_w?authuser=0&hl=en&rclk=1,"28.646946399999997,77.2394717"
Masjid Sanauji,Mosque,"Masjid Sanauji, Shop No. 1630, Lal Kuan, Lalkuan Bazar Rd, Baradari, Chandni Chowk, New Delhi, Delhi 110006","Bazar Sirkiwalan, Baradari, Chandni Chowk","Shop No. 1630, Lal Kuan, Lalkuan Bazar Rd","New Delhi, Delhi",110006,Delhi,IN,https://www.google.com/maps/place/Masjid+Sanauji/data=!4m7!3m6!1s0x390cfd13fe3ea72d:0x27ea23bc5f650202!8m2!3d28.6529317!4d77.2232485!16s%2Fg%2F12hplq4pp!19sChIJLac-_hP9DDkRAgJlX7wj6ic?authuser=0&hl=en&rclk=1,"28.6529317,77.2232485"
Anarwali Masjid msjd nr wly,Mosque,"Anarwali Masjid msjd nr wly, hno.230/ mandavali, 3, Mandawali Main Road, Fazalpur, Railway Colony, Mandawali, Delhi, 110092","Railway Colony, Mandawali","hno.230/ mandavali, 3, Mandawali Main Road, Fazalpur, Railway Colony, Mandawali",Delhi,110092,Delhi,IN,https://www.google.com/maps/place/Anarwali+Masjid+%D9%85%D8%B3%D8%AC%D8%AF+%D8%A7%D9%86%D8%A7%D8%B1+%D9%88%D8%A7%D9%84%DB%8C%E2%80%AD/data=!4m7!3m6!1s0x390ce4aceaaaaaab:0xf35cfc3b5a9a894a!8m2!3d28.6291881!4d77.2936695!16s%2Fg%2F11cmfdyfyg!19sChIJq6qq6qzkDDkRSomaWjv8XPM?authuser=0&hl=en&rclk=1,"28.6291881,77.2936695"
Masjid,Mosque,"R4MF+735 Masjid, Unnamed Road, Tikri Khurd Village, Tikri Khurd, Delhi, 110040","Tikri Khurd Village, Tikri Khurd","R4MF+735, Unnamed Road",Delhi,110040,Delhi,IN,https://www.google.com/maps/place/Masjid/data=!4m7!3m6!1s0x390daa379e6932df:0xc32d1bd89555ed4a!8m2!3d28.8331259!4d77.122749!16s%2Fg%2F11c32f__g1!19sChIJ3zJpnjeqDTkRSu1VldgbLcM?authuser=0&hl=en&rclk=1,"28.8331259,77.122749"
Madarsa Rashidiya Masjid,Mosque,"J6MR+85P Madarsa Rashidiya Masjid, Bahadur Shah Zafar Marg, Maulana Azad Medical College Campus, Balmiki Basti, Vikram Nagar, New Delhi, Delhi, 110002","Maulana Azad Medical College Campus, Balmiki Basti, Vikram Nagar","J6MR+85P, Bahadur Shah Zafar Marg","New Delhi, Delhi",110002,Delhi,IN,https://www.google.com/maps/place/Madarsa+Rashidiya+Masjid/data=!4m7!3m6!1s0x390cfdeb4ab5bc19:0x53a0d804e40e1e9e!8m2!3d28.6333351!4d77.2404638!16s%2Fg%2F11sq1jxmjs!19sChIJGby1Suv9DDkRnh4O5ATYoFM?authuser=0&hl=en&rclk=1,"28.6333351,77.2404638"
Mosque msjd,Mosque,"J76X+W9R Mosque msjd, New, Kotla Village, Mayur Vihar, New Delhi, Delhi 110091","Kotla Village, Mayur Vihar","J76X+W9R, New","New Delhi, Delhi",110091,Delhi,IN,https://www.google.com/maps/place/Mosque+%D9%85%D8%B3%D8%AC%D8%AF%E2%80%AD/data=!4m7!3m6!1s0x390ce4bcc9c6272b:0x172c875eb9dd78e2!8m2!3d28.612373!4d77.2984052!16s%2Fg%2F11c3182y_w!19sChIJKyfGybzkDDkR4njduV6HLBc?authuser=0&hl=en&rclk=1,"28.612372999999998,77.29840519999999"
Noor masjid,Mosque,"Noor masjid, 88-A, Meharchand Market, Lodi Colony, New Delhi, Delhi 110003","Meharchand Market, Lodi Colony",88-A,New Delhi,110003,Delhi,IN,https://www.google.com/maps/place/Noor+masjid/data=!4m7!3m6!1s0x390ce3bde048d651:0x31a744236a19398c!8m2!3d28.5863397!4d77.2271578!16s%2Fg%2F11j0z5cnj_!19sChIJUdZI4L3jDDkRjDkZaiNEpzE?authuser=0&hl=en&rclk=1,"28.5863397,77.2271578"
Qaziyon Ki Masjid msjd qDywN khy,Mosque,"Qaziyon Ki Masjid msjd qDywN khy, 1091/1, Ambawatta Complex, Internal Path, Mehrauli Village, Mehrauli, New Delhi, Delhi 110030","Mehrauli Village, Mehrauli","1091/1, Ambawatta Complex, Internal Path",New Delhi,110030,Delhi,IN,https://www.google.com/maps/place/Qaziyon+Ki+Masjid+%D9%85%D8%B3%D8%AC%D8%AF+%D9%82%D8%A7%D8%B6%DB%8C%D9%88%DA%BA+%DA%A9%DB%8C%E2%80%AD/data=!4m7!3m6!1s0x390d1e08ca8810ed:0x3b88df5382ea5830!8m2!3d28.52261!4d77.181538!16s%2Fg%2F11gfd8b5cs!19sChIJ7RCIyggeDTkRMFjqglPfiDs?authuser=0&hl=en&rclk=1,"28.52261,77.181538"
Fatemi Masjid,Mosque,"Fatemi Masjid, 3673, Main Bazar, Sabzi Mandi Rd, New Delhi, Delhi 110007","Arya Pura, Sabzi Mandi Old","3673, Main Bazar, Sabzi Mandi Rd","New Delhi, Delhi",110007,Delhi,IN,https://www.google.com/maps/place/Fatemi+Masjid/data=!4m7!3m6!1s0x390cfd77d6b49cc1:0xb29abba5fdd4f679!8m2!3d28.669022!4d77.2078086!16s%2Fg%2F12lksysp9!19sChIJwZy01nf9DDkRefbU_aW7mrI?authuser=0&hl=en&rclk=1,"28.669022,77.20780859999999"
jama masjid madarsa taleemul quran,Mosque,"jama masjid madarsa taleemul quran, C 10, Captain Gaur Marg, C Block, Kailash Hills, East of Kailash, New Delhi, Delhi 110065","C Block, Kailash Hills, East of Kailash","C 10, Captain Gaur Marg",New Delhi,110065,Delhi,IN,https://www.google.com/maps/place/jama+masjid+madarsa+taleemul+quran/data=!4m7!3m6!1s0x390ce3bedd0d5df7:0x3a3b95b54ca809a8!8m2!3d28.5619545!4d77.2590985!16s%2Fg%2F11g7zz4m0j!19sChIJ910N3b7jDDkRqAmoTLWVOzo?authuser=0&hl=en&rclk=1,"28.5619545,77.2590985"
Jama Masjid Haldoni,Mosque,"GCQQ+RQH Jama Masjid Haldoni, Jalpura, Greater Noida, Uttar Pradesh 201306",Jalpura,GCQQ+RQH,Greater Noida,,Uttar Pradesh,IN,https://www.google.com/maps/place/Jama+Masjid+Haldoni/data=!4m7!3m6!1s0x390ce95e6f987e7d:0x956b660498b5aaa!8m2!3d28.5395627!4d77.4394969!16s%2Fg%2F11kqvkbwjl!19sChIJfX6Yb17pDDkRqlqLSWC2Vgk?authuser=0&hl=en&rclk=1,"28.539562699999998,77.4394969"
Masjid,Mosque,"H77Q+868 Masjid, Okhla Village, Okhla, New Delhi, Delhi 110025","Okhla Village, Okhla",H77Q+868,New Delhi,110025,Delhi,IN,https://www.google.com/maps/place/Masjid/data=!4m7!3m6!1s0x390ce47512f7aa2b:0x544337a9b9e5d7a2!8m2!3d28.5632814!4d77.2880932!16s%2Fg%2F11gbtpj5td!19sChIJK6r3EnXkDDkRotfluak3Q1Q?authuser=0&hl=en&rclk=1,"28.563281399999997,77.28809319999999"
Masjid,Mosque,"M647+7CW Masjid, Narain Market, Sadar Bazaar, New Delhi, Delhi, 110006","Narain Market, Sadar Bazaar",M647+7CW,"New Delhi, Delhi",110006,Delhi,IN,https://www.google.com/maps/place/Masjid/data=!4m7!3m6!1s0x390cfde8cbf21c77:0x8550d15998f1660d!8m2!3d28.6557316!4d77.2135821!16s%2Fg%2F11gx_wrsm_!19sChIJdxzyy-j9DDkRDWbxmFnRUIU?authuser=0&hl=en&rclk=1,"28.6557316,77.2135821"
Mr.SAHEEM MALIK,Mosque,"Mr.SAHEEM MALIK, Gali no. 3 - Tirpal Factory Mustafabad, near Ayisha masjid, 25 Futa Rd, near by Aisha Masjid, chowk, Delhi 110094","Shakti Vihar, Old Mustafabad, chowk","Gali no. 3 - Tirpal Factory Mustafabad, near Ayisha masjid, 25 Futa Rd, near by Aisha Masjid",Delhi,110094,Delhi,IN,https://www.google.com/maps/place/Mr.SAHEEM+MALIK/data=!4m7!3m6!1s0x390cfd9a44cd4997:0xffdc8860c53e3f2b!8m2!3d28.7159667!4d77.272238!16s%2Fg%2F11h3cwgc8y!19sChIJl0nNRJr9DDkRKz8-xWCI3P8?authuser=0&hl=en&rclk=1,"28.7159667,77.272238"
Haji Rojdaar Wali Masjid,Mosque,"Haji Rojdaar Wali Masjid, 110074, Kharak, Sat Bari, New Delhi, Delhi 110074","Kharak, Sat Bari",110074,New Delhi,110074,Delhi,IN,https://www.google.com/maps/place/Haji+Rojdaar+Wali+Masjid/data=!4m7!3m6!1s0x390ce024a51f068f:0x1d8c2d91ee022fdd!8m2!3d28.4679055!4d77.2051939!16s%2Fg%2F11c5_hph3y!19sChIJjwYfpSTgDDkR3S8C7pEtjB0?authuser=0&hl=en&rclk=1,"28.467905499999997,77.2051939"
Masjid,Mosque,"Q6MJ+5H5 Masjid, Badarpur, Madanpur Khadar, New Delhi, 110084",Madanpur Khadar,"Q6MJ+5H5, Badarpur","New Delhi, Delhi",110084,Delhi,IN,https://www.google.com/maps/place/Masjid/data=!4m7!3m6!1s0x390cffb780460377:0x9fe224e9c653e965!8m2!3d28.7828891!4d77.2314704!16s%2Fg%2F11qn790lvq!19sChIJdwNGgLf_DDkRZelTxukk4p8?authuser=0&hl=en&rclk=1,"28.7828891,77.23147039999999"
Masjid,Mosque,"Q7JJ+7WC Masjid, Pavi Sadakpur, Uttar Pradesh 201102",,Q7JJ+7WC,Pavi Sadakpur,201102,Uttar Pradesh,IN,https://www.google.com/maps/place/Masjid/data=!4m7!3m6!1s0x390cff3247b3c4d7:0xf1b7407f946dd8cc!8m2!3d28.7806806!4d77.2822504!16s%2Fg%2F11ggz8tfhy!19sChIJ18SzRzL_DDkRzNhtlH9At_E?authuser=0&hl=en&rclk=1,"28.7806806,77.2822504"
Taqia Wali Masjid,Mosque,"M675+9V5 Taqia Wali Masjid, Hathi Khana, Sadar Bazaar, New Delhi, Delhi, 110006","Hathi Khana, Sadar Bazaar",M675+9V5,"New Delhi, Delhi",110006,Delhi,IN,https://www.google.com/maps/place/Taqia+Wali+Masjid/data=!4m7!3m6!1s0x390cfd77b8897517:0xca7ba3194405edf4!8m2!3d28.663395!4d77.2097204!16s%2Fg%2F11fpd186hk!19sChIJF3WJuHf9DDkR9O0FRBmje8o?authuser=0&hl=en&rclk=1,"28.663394999999998,77.2097204"
Masjid Akhundji,Mosque,"M63C+W27 Masjid Akhundji, Shardhanand Market, Farash Khana, Chandni Chowk, Delhi, 110006","Shardhanand Market, Farash Khana, Chandni Chowk",M63C+W27,Delhi,110006,Delhi,IN,https://www.google.com/maps/place/Masjid+Akhundji/data=!4m7!3m6!1s0x390cfd1304000001:0x72fdec335cb3985d!8m2!3d28.6547977!4d77.2200373!16s%2Fg%2F11cjkvmmtk!19sChIJAQAABBP9DDkRXZizXDPs_XI?authuser=0&hl=en&rclk=1,"28.6547977,77.2200373"
ABDUL RAHUMAN TRUST MASJID,Mosque,"P2R8+CV6 ABDUL RAHUMAN TRUST MASJID, SP Pattinam, Thondi, Tamil Nadu 623409",SP Pattinam,P2R8+CV6,Thondi,623409,Tamil Nadu,IN,https://www.google.com/maps/place/ABDUL+RAHUMAN+TRUST+MASJID/data=!4m7!3m6!1s0x3b004bd565826cd9:0xe308cf5bbce9abc!8m2!3d9.7410365!4d79.0171312!16s%2Fg%2F11j2p5lb7f!19sChIJ2WyCZdVLADsRvJrOu_WMMA4?authuser=0&hl=en&rclk=1,"9.7410365,79.0171312"
Masjid,Mosque,"Masjid, 242, Masjid Jheel Pio, Near ITO metro GateNo.3, Bahadur Shah Zafar Marg, Balmiki Basti, Vikram Nagar, Delhi, 110002","Bahadur Shah Zafar Marg, Balmiki Basti, Vikram Nagar","242, Masjid Jheel Pio, Near ITO metro GateNo.3, Bahadur Shah Zafar Marg",Delhi,110002,Delhi,IN,https://www.google.com/maps/place/Masjid/data=!4m7!3m6!1s0x390cfd441769149d:0xa1929f1b4f5921d6!8m2!3d28.6298914!4d77.2415098!16s%2Fg%2F11s2n38r9b!19sChIJnRRpF0T9DDkR1iFZTxufkqE?authuser=0&hl=en&rclk=1,"28.629891399999998,77.2415098"
Gosiyan masjid msjd,Mosque,"M6C3+6MM Gosiyan masjid msjd, Arya Pura, Sabzi Mandi Old, Delhi, 110007","Arya Pura, Sabzi Mandi Old",M6C3+6MM,Delhi,110007,Delhi,IN,https://www.google.com/maps/place/Gosiyan+masjid+%D9%85%D8%B3%D8%AC%D8%AF%E2%80%AD/data=!4m7!3m6!1s0x390cfd5ef95c48f9:0x4f3b43266a74c420!8m2!3d28.6705759!4d77.2041848!16s%2Fg%2F11g4db0xfq!19sChIJ-Uhc-V79DDkRIMR0aiZDO08?authuser=0&hl=en&rclk=1,"28.6705759,77.2041848"
Masjid,Mosque,"J7WG+44R Masjid, Shastri Nagar, Geeta Colony, New Delhi, Delhi, 110031","Shastri Nagar, Geeta Colony",J7WG+44R,"New Delhi, Delhi",110031,Delhi,IN,https://www.google.com/maps/place/Masjid/data=!4m7!3m6!1s0x390cfdd602d3790d:0x318c83bff04345b3!8m2!3d28.6453628!4d77.2752524!16s%2Fg%2F11h_7ms07y!19sChIJDXnTAtb9DDkRs0VD8L-DjDE?authuser=0&hl=en&rclk=1,"28.645362799999997,77.2752524"
Madrsa imdadul uloom and masjid,Mosque,"Madrsa imdadul uloom and masjid, B-25, Main Rd, East Laxmi Market, Block B, New Brij Puri, Krishna Nagar, New Delhi, Delhi, 110051","East Laxmi Market, Block B, New Brij Puri, Krishna Nagar","B-25, Main Rd","New Delhi, Delhi",110051,Delhi,IN,https://www.google.com/maps/place/Madrsa+imdadul+uloom+and+masjid/data=!4m7!3m6!1s0x390cfda04739d0e9:0xeb893cdafc532844!8m2!3d28.6436744!4d77.2825759!16s%2Fg%2F11mw5vzf9q!19sChIJ6dA5R6D9DDkRRChT_No8ies?authuser=0&hl=en&rclk=1,"28.6436744,77.2825759"
HADHRAT UMAR MASJID ALMAROOF CHOTI MASJID,Mosque,"HADHRAT UMAR MASJID ALMAROOF CHOTI MASJID, Chotti Masjid, Street number 9, Mulla Colony, Gharoli Extension, Gharoli, Delhi, 110096","Mulla Colony, Gharoli Extension, Gharoli","Chotti Masjid, Street number 9",Delhi,110096,Delhi,IN,https://www.google.com/maps/place/HADHRAT+UMAR+MASJID+ALMAROOF+CHOTI+MASJID/data=!4m7!3m6!1s0x390ce5c6cf830b2f:0x6bb8084dadf0d513!8m2!3d28.6213398!4d77.3314246!16s%2Fg%2F11sy4vfb7s!19sChIJLwuDz8blDDkRE9XwrU0IuGs?authuser=0&hl=en&rclk=1,"28.621339799999998,77.33142459999999"
Kadde vali masjid,Mosque,"J8GV+FXM Kadde vali masjid, Unnamed Road, Makanpur Colony, Sector 62A, Noida, Uttar Pradesh 201309","Makanpur Colony, Sector 62A","J8GV+FXM, Unnamed Road",Noida,201309,Uttar Pradesh,IN,https://www.google.com/maps/place/Kadde+vali+masjid/data=!4m7!3m6!1s0x390ce5b8c9f05415:0x40d62ad4b4b90e40!8m2!3d28.6262084!4d77.3449208!16s%2Fg%2F11h_3wc0bn!19sChIJFVTwybjlDDkRQA65tNQq1kA?authuser=0&hl=en&rclk=1,"28.6262084,77.3449208"
msjid,Mosque,"msjid, 249, Swami Amardev Marg, Bara Bazar, Maharam Mohalla, Shahdara, Delhi, 110032","Bara Bazar, Maharam Mohalla, Shahdara","249, Swami Amardev Marg",Delhi,110032,Delhi,IN,https://www.google.com/maps/place/%E0%A4%AE%E0%A4%B8%E0%A5%8D%E0%A4%9C%E0%A4%BF%E0%A4%A6/data=!4m7!3m6!1s0x390cfb490b84c709:0x30ecad58f89bafaa!8m2!3d28.6687399!4d77.2917355!16s%2Fg%2F11n03hfp8k!19sChIJCceEC0n7DDkRqq-b-Fit7DA?authuser=0&hl=en&rclk=1,"28.6687399,77.2917355"
Masjid,Mosque,"Masjid, 42C, Central Auto Market, Block B, Sector 16, Noida, Uttar Pradesh 201301","Central Auto Market, Block B, Sector 16",42C,Noida,201301,Uttar Pradesh,IN,https://www.google.com/maps/place/Masjid/data=!4m7!3m6!1s0x390ce45b6e8b8d05:0x1c6debc04866e60!8m2!3d28.577362!4d77.31624!16s%2Fg%2F11c6rj0f0y!19sChIJBY2LblvkDDkRYG6GBLzexgE?authuser=0&hl=en&rclk=1,"28.577361999999997,77.31624"
Masjid,Mosque,"M65J+GV7 Masjid, Chhippy Wada, Chandni Chowk, Delhi, 110006","Chhippy Wada, Chandni Chowk",M65J+GV7,Delhi,110006,Delhi,IN,https://www.google.com/maps/place/Masjid/data=!4m7!3m6!1s0x390cfd04823e663b:0x88920d6fe0b74a65!8m2!3d28.6587916!4d77.2321828!16s%2Fg%2F11n0gg69p2!19sChIJO2Y-ggT9DDkRZUq34G8Nkog?authuser=0&hl=en&rclk=1,"28.658791599999997,77.23218279999999"
Masjid Amania,Mosque,"Masjid Amania, Main, Maujpur Rd, Shahdara, Delhi, 110053",Shahdara,"Main, Maujpur Rd",Delhi,110053,Delhi,IN,https://www.google.com/maps/place/Masjid+Amania/data=!4m7!3m6!1s0x390cfd4212229ecb:0x56b4673279cdc3f1!8m2!3d28.6855897!4d77.2762341!16s%2Fg%2F11s0s2pf6g!19sChIJy54iEkL9DDkR8cPNeTJntFY?authuser=0&hl=en&rclk=1,"28.685589699999998,77.2762341"
Masjid Chand Wali,Mosque,"Masjid Chand Wali, 2707, Gali Arya Samaj, Sita Ram Bazar, Chandni Chowk, Delhi, 110006","Sita Ram Bazar, Chandni Chowk","2707, Gali Arya Samaj",Delhi,110006,Delhi,IN,https://www.google.com/maps/place/Masjid+Chand+Wali/data=!4m7!3m6!1s0x390cfdfa355e287d:0x592d53bf5ca2d826!8m2!3d28.6449129!4d77.2287833!16s%2Fg%2F11j09_b2zb!19sChIJfSheNfr9DDkRJtiiXL9TLVk?authuser=0&hl=en&rclk=1,"28.644912899999998,77.2287833"
CHAND TARA MASJID,Mosque,"M3W8+G76 CHAND TARA MASJID, Balbir Nagar, Kirari Suleman Nagar Village, Sultanpuri, Delhi, 110086","Balbir Nagar, Kirari Suleman Nagar Village, Sultanpuri",M3W8+G76,Delhi,110086,Delhi,IN,https://www.google.com/maps/place/CHAND+TARA+MASJID/data=!4m7!3m6!1s0x390d05f6dea56bd5:0xdb25c51e43afb7cc!8m2!3d28.6962875!4d77.0656406!16s%2Fg%2F11ssd95zpk!19sChIJ1Wul3vYFDTkRzLevQx7FJds?authuser=0&hl=en&rclk=1,"28.6962875,77.0656406"
Ramzaniya Masjid Chandeni ( bdd'ii msjid),Mosque,"Ramzaniya Masjid Chandeni ( bdd'ii msjid), Beech, Beech wali, wali, Chandeni, Haryana 122103",wali,"Beech, Beech wali",Chandeni,122103,Haryana,IN,https://www.google.com/maps/place/Ramzaniya+Masjid+Chandeni+%28+%E0%A4%AC%E0%A4%A1%E0%A4%BC%E0%A5%80+%E0%A4%AE%E0%A4%B8%E0%A5%8D%E0%A4%9C%E0%A4%BF%E0%A4%A6%29/data=!4m7!3m6!1s0x390d2d2c17591529:0xfc09962f06622eca!8m2!3d28.138283!4d77.0200724!16s%2Fg%2F11mgd02kmp!19sChIJKRVZFywtDTkRyi5iBi-WCfw?authuser=0&hl=en&rclk=1,"28.138282999999998,77.02007239999999"
Masjid,Mosque,"9M74+66G Masjid, Hirnoti, Uttar Pradesh 203203",,9M74+66G,Hirnoti,203203,Uttar Pradesh,IN,https://www.google.com/maps/place/Masjid/data=!4m7!3m6!1s0x390cbbdfa6584727:0x4a1e67c0bd32dfaf!8m2!3d28.36306!4d77.6555641!16s%2Fg%2F11dzwm3m09!19sChIJJ0dYpt-7DDkRr98yvcBnHko?authuser=0&hl=en&rclk=1,"28.363059999999997,77.65556409999999"
Masjid Shatoot Wali,Mosque,"M67H+G5Q Masjid Shatoot Wali, Chhota Bazar, Mori Gate, New Delhi, Delhi, 110006","Chhota Bazar, Mori Gate",M67H+G5Q,"New Delhi, Delhi",110006,Delhi,IN,https://www.google.com/maps/place/Masjid+Shatoot+Wali/data=!4m7!3m6!1s0x390cfdd8114d08fd:0x326042596014276a!8m2!3d28.663827!4d77.2279973!16s%2Fg%2F11g4h_zjtj!19sChIJ_QhNEdj9DDkRaicUYFlCYDI?authuser=0&hl=en&rclk=1,"28.663826999999998,77.2279973"
Masjid Kaddan Wali,Mosque,"Masjid Kaddan Wali, 3800,, Charkhiwalan Gali, Khush Dil, Chandni Chowk, New Delhi, Delhi 110006","Khush Dil, Chandni Chowk","3800,, Charkhiwalan Gali","New Delhi, Delhi",110006,Delhi,IN,https://www.google.com/maps/place/Masjid+Kaddan+Wali/data=!4m7!3m6!1s0x390cfd19d610452b:0xf81efc1a357adee8!8m2!3d28.6506731!4d77.2290561!16s%2Fg%2F12hkbxr_7!19sChIJK0UQ1hn9DDkR6N56NRr8Hvg?authuser=0&hl=en&rclk=1,"28.6506731,77.2290561"
Masjid,Mosque,"Masjid, Gali No 19, Gali Number 1, Mustafabad Extn, New Mustafabad, Delhi, 110094","E2 Block, Mustafabad Extn, New Mustafabad","Gali No 19, Gali Number 1",Delhi,110094,Delhi,IN,https://www.google.com/maps/place/Masjid/data=!4m7!3m6!1s0x390cfc1b020b0e91:0xb48a3c3233e41cbd!8m2!3d28.711773!4d77.272563!16s%2Fg%2F12hpqnhjr!19sChIJkQ4LAhv8DDkRvRzkMzI8irQ?authuser=0&hl=en&rclk=1,"28.711772999999997,77.27256299999999"
Masjid Islamuddin,Place of worship,"M6G3+629 Masjid Islamuddin, Basti Harphool Singh, Subzi Mandi, Delhi, 110007","Basti Harphool Singh, Subzi Mandi",M6G3+629,Delhi,110007,Delhi,IN,https://www.google.com/maps/place/Masjid+Islamuddin/data=!4m7!3m6!1s0x390cfd845b000001:0x90d83cb23e84b555!8m2!3d28.6755426!4d77.202595!16s%2Fg%2F11clhqsfc5!19sChIJAQAAW4T9DDkRVbWEPrI82JA?authuser=0&hl=en&rclk=1,"28.6755426,77.202595"
TAKIYA WALI MASJID,Mosque,"TAKIYA WALI MASJID, WZ-572A, Manak Vihar, Tihar Village, New Delhi, Delhi, 110018","Manak Vihar, Tihar Village",WZ-572A,"New Delhi, Delhi",110018,Delhi,IN,https://www.google.com/maps/place/TAKIYA+WALI+MASJID/data=!4m7!3m6!1s0x390d03b3c93889f1:0x1e0e36598d774591!8m2!3d28.6332229!4d77.1060325!16s%2Fg%2F11fm6h1_p2!19sChIJ8Yk4ybMDDTkRkUV3jVk2Dh4?authuser=0&hl=en&rclk=1,"28.6332229,77.1060325"
Masjid,Mosque,"Masjid, 8/2, Budh Bazar, Block L 1, Devli, Sangam Vihar, New Delhi, Delhi 110062","Budh Bazar, Block L 1, Devli, Sangam Vihar",8/2,New Delhi,110062,Delhi,IN,https://www.google.com/maps/place/Masjid/data=!4m7!3m6!1s0x390ce1dde82b3bc3:0x4d3537cacd38aec4!8m2!3d28.4940769!4d77.2261653!16s%2Fg%2F11rk33_10p!19sChIJwzsr6N3hDDkRxK44zco3NU0?authuser=0&hl=en&rclk=1,"28.4940769,77.22616529999999"
Masjid thaan (msjd thn),Mosque,"HCFR+79 Masjid thaan (msjd thn), Mahara, 185212",,HCFR+79,Mahara,,,IN,https://www.google.com/maps/place/Masjid+thaan+%28%D9%85%D8%B3%D8%AC%D8%AF+%D8%AA%DB%81%D9%86%29%E2%80%AD/data=!4m7!3m6!1s0x38e1d95fb60c11b9:0xeb487fff76a0d78!8m2!3d33.573159!4d74.4409474!16s%2Fg%2F11t6j9kt1w!19sChIJuREMtl_Z4TgReA1q9_-HtA4?authuser=0&hl=en&rclk=1,"33.573159,74.4409474"
Masjid Takiya Mandal Shah,Mosque,"M67G+92V Masjid Takiya Mandal Shah, Ganda Nala Bazar, Mori Gate, New Delhi, Delhi, 110006","Ganda Nala Bazar, Mori Gate",M67G+92V,"New Delhi, Delhi",110006,Delhi,IN,https://www.google.com/maps/place/Masjid+Takiya+Mandal+Shah/data=!4m7!3m6!1s0x390cfd1bda0aca8d:0xbeac265651a56e0f!8m2!3d28.6634877!4d77.2250615!16s%2Fg%2F11fd4g34bx!19sChIJjcoK2hv9DDkRD26lUVYmrL4?authuser=0&hl=en&rclk=1,"28.663487699999997,77.2250615"
Masjid,Mosque,"Shop No: 5035, Masjid, Netaji Subhash Marg, Daryaganj, New Delhi, Delhi, 110002",Daryaganj,"Shop No: 5035, Netaji Subhash Marg","New Delhi, Delhi",110002,Delhi,IN,https://www.google.com/maps/place/Masjid/data=!4m7!3m6!1s0x390cfdf175041b95:0x8ef57a2bc9f92c1c!8m2!3d28.6480954!4d77.2403964!16s%2Fg%2F11s664lvxh!19sChIJlRsEdfH9DDkRHCz5ySt69Y4?authuser=0&hl=en&rclk=1,"28.6480954,77.2403964"
Masjid,Mosque,"Masjid, 94L, Adarsh Mohalla, Block P, Mayur Vihar, Delhi, 110091","Adarsh Mohalla, Block P, Mayur Vihar",94L,Delhi,110091,Delhi,IN,https://www.google.com/maps/place/Masjid/data=!4m7!3m6!1s0x390ce594aaf9a4ed:0x7705b6bd1214d779!8m2!3d28.6097585!4d77.2915521!16s%2Fg%2F11vdfgxvzr!19sChIJ7aT5qpTlDDkRedcUEr22BXc?authuser=0&hl=en&rclk=1,"28.609758499999998,77.29155209999999"
Masjid,Mosque,"M794+RG5 Masjid, Block A, Shastri Park, Shahdara, Delhi, 110053","Block A, Shastri Park, Shahdara",M794+RG5,Delhi,,Delhi,IN,https://www.google.com/maps/place/Masjid/data=!4m7!3m6!1s0x390cfd74b6378221:0x2da5c9212f831088!8m2!3d28.6695164!4d77.2563643!16s%2Fg%2F11tb42z9g0!19sChIJIYI3tnT9DDkRiBCDLyHJpS0?authuser=0&hl=en&rclk=1,"28.6695164,77.2563643"
Masjid msjd,Mosque,"P33Q+5Q5 Masjid msjd, Y Block, Mangolpuri, Delhi, 110085","Pocket C, Sector 1, Mangolpuri","P33Q+5Q5, Y Block",Delhi,110085,Delhi,IN,https://www.google.com/maps/place/Masjid+%D9%85%D8%B3%D8%AC%D8%AF%E2%80%AD/data=!4m7!3m6!1s0x390d075006af1d37:0x77cfb359c992ee54!8m2!3d28.702881!4d77.089479!16s%2Fg%2F11pzyfmlyd!19sChIJNx2vBlAHDTkRVO6SyVmzz3c?authuser=0&hl=en&rclk=1,"28.702880999999998,77.089479"
Masjid,Mosque,"Masjid, L385, Block L, JJ Colony No 3, Nangloi, New Delhi, Delhi, 110041","Block L, JJ Colony No 3, Nangloi",L385,"New Delhi, Delhi",110041,Delhi,IN,https://www.google.com/maps/place/Masjid/data=!4m7!3m6!1s0x390d0530462f99ad:0xf47aa8290ce093fa!8m2!3d28.6842352!4d77.0742041!16s%2Fg%2F11smtj7p27!19sChIJrZkvRjAFDTkR-pPgDCmoevQ?authuser=0&hl=en&rclk=1,"28.6842352,77.0742041"
Masjid,Mosque,"J2WM+MXF Masjid, Sunni Masjid Rd, Deep Enclave, Hastsal, Delhi, 110059","Deep Enclave, Hastsal","J2WM+MXF, Sunni Masjid Rd",Delhi,110059,Delhi,IN,https://www.google.com/maps/place/Masjid/data=!4m7!3m6!1s0x390d05267bb46283:0xaef6f06f366d7113!8m2!3d28.6466834!4d77.0349292!16s%2Fg%2F11vl8tpxw1!19sChIJg2K0eyYFDTkRE3FtNm_w9q4?authuser=0&hl=en&rclk=1,"28.646683399999997,77.0349292"
Chhoti Wali Masjid,Mosque,"Chhoti Wali Masjid, F343, Chatri Wala Kuan, Lado Sarai, New Delhi, Delhi 110030","Chatri Wala Kuan, Lado Sarai",F343,New Delhi,110030,Delhi,IN,https://www.google.com/maps/place/Chhoti+Wali+Masjid/data=!4m7!3m6!1s0x390d1f8593b03f93:0x977868c6b3773a2d!8m2!3d28.5240275!4d77.1905348!16s%2Fg%2F11gxmv00y3!19sChIJkz-wk4UfDTkRLTp3s8ZoeJc?authuser=0&hl=en&rclk=1,"28.5240275,77.1905348"
Masjid,Mosque,"Masjid, 20, Masjid Rd, Pervesh Nagar, Mubarakpur Dabas, New Delhi, Delhi, 110081","Pervesh Nagar, Mubarakpur Dabas","20, Masjid Rd","New Delhi, Delhi",110081,Delhi,IN,https://www.google.com/maps/place/Masjid/data=!4m7!3m6!1s0x390d075632dea237:0xe707b406c4cff64!8m2!3d28.7098866!4d77.0310854!16s%2Fg%2F11kq2cq2_1!19sChIJN6LeMlYHDTkRZP9MbEB7cA4?authuser=0&hl=en&rclk=1,"28.709886599999997,77.0310854"
saadil ttaakiyaavaalii msjid,Mosque,"Q75R+HGV saadil ttaakiyaavaalii msjid, Ashok Vihar, Loni Dehat, Uttar Pradesh 201102","Ashok Vihar, Loni Dehat",Q75R+HGV,,,Uttar Pradesh,IN,https://www.google.com/maps/place/%E0%A4%B8%E0%A4%BE%E0%A4%A6%E0%A4%BF%E0%A4%B2+%E0%A4%9F%E0%A4%BE%E0%A4%95%E0%A4%BF%E0%A4%AF%E0%A4%BE%E0%A4%B5%E0%A4%BE%E0%A4%B2%E0%A5%80+%E0%A4%AE%E0%A4%B8%E0%A5%8D%E0%A4%9C%E0%A4%BF%E0%A4%A6/data=!4m7!3m6!1s0x390cf9fcd618cb27:0xcd23ca5aca08836b!8m2!3d28.7589781!4d77.2912911!16s%2Fg%2F11k4t__qlt!19sChIJJ8sY1vz5DDkRa4MIylrKI80?authuser=0&hl=en&rclk=1,"28.7589781,77.2912911"
