name,main_category,address,address_ward,address_street,address_city,address_postal_code,address_state,address_country_code,link,coordinates
Guntur old Markaz Masjid,Mosque,"7FV2+7XF Guntur old Markaz Masjid, Gunturvari Thota, Kothapeta, Guntur, Andhra Pradesh 522001","Gunturvari Thota, Kothapeta",7FV2+7XF,Guntur,522001,Andhra Pradesh,IN,https://www.google.com/maps/place/Guntur+old+Markaz+Masjid/data=!4m7!3m6!1s0x3a4a75350b6ee085:0x10a35ff0e2629f82!8m2!3d16.293181!4d80.4524258!16s%2Fg%2F1tf6q6bq!19sChIJheBuCzV1SjoRgp9i4vBfoxA?authuser=0&hl=en&rclk=1,"16.293181,80.4524258"
Masjid -E- Mohammad,Mosque,"8C3P+3HW Masjid -E- Mohammad, Brodipet, Guntur, Andhra Pradesh 522002",Brodipet,8C3P+3HW,Guntur,522002,Andhra Pradesh,IN,https://www.google.com/maps/place/Masjid+-E-+Mohammad/data=!4m7!3m6!1s0x3a4a7543a0ada2e5:0xeac73a30d7dcc9a6!8m2!3d16.3027327!4d80.436459!16s%2Fg%2F1hm659jt9!19sChIJ5aKtoEN1SjoRpsnc1zA6x-o?authuser=0&hl=en&rclk=1,"16.3027327,80.436459"
Al-Azeem -Masjid,Mosque,"Al-Azeem -Masjid, Anandapat 1st, line, road, ponnur, Guntur, Andhra Pradesh 522001",Old Guntur,"Anandapat 1st, line, road","ponnur, Guntur",522001,Andhra Pradesh,IN,https://www.google.com/maps/place/Al-Azeem+-Masjid/data=!4m7!3m6!1s0x3a4a75336dd3dfb9:0x22aac374c67e35b6!8m2!3d16.287855!4d80.452969!16s%2Fg%2F1vvdsmv1!19sChIJud_TbTN1SjoRtjV-xnTDqiI?authuser=0&hl=en&rclk=1,"16.287855,80.452969"
Masjid -E- Atheequr Rahman,Mosque,"8C4C+F9M Masjid -E- Atheequr Rahman, Pattabhipuram Rd, Rajarajeswaripuram, Pattabhipuram, Guntur, Andhra Pradesh 522006","Rajarajeswaripuram, Pattabhipuram","8C4C+F9M, Pattabhipuram Rd",Guntur,522006,Andhra Pradesh,IN,https://www.google.com/maps/place/Masjid+-E-+Atheequr+Rahman/data=!4m7!3m6!1s0x3a4a757ab9e6ad61:0xfefa14db1f8eaa90!8m2!3d16.3062151!4d80.420921!16s%2Fg%2F11b6szk5_7!19sChIJYa3muXp1SjoRkKqOH9sU-v4?authuser=0&hl=en&rclk=1,"16.3062151,80.42092099999999"
Ek-Minar Masjid,Mosque,"7FR2+7GG Ek-Minar Masjid, Lalapet, Guntur, Andhra Pradesh 522001",Lalapet,7FR2+7GG,Guntur,522001,Andhra Pradesh,IN,https://www.google.com/maps/place/Ek-Minar+Masjid/data=!4m7!3m6!1s0x3a4a75344374f7f7:0xc6ec1aaa8d06c2a3!8m2!3d16.2906971!4d80.4513177!16s%2Fg%2F1hc5wr8zt!19sChIJ9_d0QzR1SjoRo8IGjaoa7MY?authuser=0&hl=en&rclk=1,"16.2906971,80.45131769999999"
Masjid -E- Iqbal,Mosque,"7CVX+2WQ Masjid -E- Iqbal, Lalapet, Guntur, Andhra Pradesh 522001",Lalapet,7CVX+2WQ,Guntur,522001,Andhra Pradesh,IN,https://www.google.com/maps/place/Masjid+-E-+Iqbal/data=!4m7!3m6!1s0x3a4a7535da593dc5:0x59cf145d14c8fecc!8m2!3d16.2925917!4d80.4498473!16s%2Fg%2F1hm4jzr02!19sChIJxT1Z2jV1SjoRzP7IFF0Uz1k?authuser=0&hl=en&rclk=1,"16.2925917,80.4498473"
Cobaldpet Mosque,Mosque,"8C4F+GJ6 Cobaldpet Mosque, Krishna Nagar Main Rd, Cobald Pet, Guntur, Andhra Pradesh 522006",Cobald Pet,"8C4F+GJ6, Krishna Nagar Main Rd",Guntur,522006,Andhra Pradesh,IN,https://www.google.com/maps/place/Cobaldpet+Mosque/data=!4m7!3m6!1s0x3a4a756574bc0279:0xe4713e8a52c5a7e1!8m2!3d16.3062889!4d80.4240147!16s%2Fg%2F1hm46xs92!19sChIJeQK8dGV1SjoR4afFUoo-ceQ?authuser=0&hl=en&rclk=1,"16.3062889,80.4240147"
SHAI JAMIA MASJID (BIG MOSQUE),Mosque,"SHAI JAMIA MASJID (BIG MOSQUE), 22-3-14 Big Mosque Compound, Alamgir, Road, Lalapet, Guntur, Andhra Pradesh 522003",Lalapet,"22-3-14 Big Mosque Compound, Alamgir, Road",Guntur,522003,Andhra Pradesh,IN,https://www.google.com/maps/place/SHAI+JAMIA+MASJID+%28BIG+MOSQUE%29/data=!4m7!3m6!1s0x3a4a75341eeb28af:0x88b2557ff57a40fd!8m2!3d16.2900132!4d80.4497751!16s%2Fg%2F1vfp6ml_!19sChIJryjrHjR1SjoR_UB69X9Vsog?authuser=0&hl=en&rclk=1,"16.2900132,80.4497751"
Lal-Talab-Masjid,Mosque,"7FR3+78C Lal-Talab-Masjid, Old Guntur, Guntur, Andhra Pradesh 522001",Old Guntur,7FR3+78C,Guntur,522001,Andhra Pradesh,IN,https://www.google.com/maps/place/Lal-Talab-Masjid/data=!4m7!3m6!1s0x3a4a7534ec423125:0x7f678490c4375ca6!8m2!3d16.2906972!4d80.4532728!16s%2Fg%2F1hm29dpnk!19sChIJJTFC7DR1SjoRplw3xJCEZ38?authuser=0&hl=en&rclk=1,"16.2906972,80.4532728"
Masjid -E- Firdous,Mosque,"Masjid -E- Firdous, 16-17-80, Manurivari Street, Old Guntur, Guntur, Andhra Pradesh 522001",Old Guntur,"16-17-80, Manurivari Street",Guntur,522001,Andhra Pradesh,IN,https://www.google.com/maps/place/Masjid+-E-+Firdous/data=!4m7!3m6!1s0x3a4a0acc8fffe4eb:0x7ecfba13fe16fc3b!8m2!3d16.2884261!4d80.45699!16s%2Fg%2F1hm6l8l11!19sChIJ6-T_j8wKSjoRO_wW_hO6z34?authuser=0&hl=en&rclk=1,"16.2884261,80.45698999999999"
Jamia masjid - Tablighi Jamaat (Sunni Hanafi),Mosque,"8C77+7PX Jamia masjid - Tablighi Jamaat (Sunni Hanafi), Syamala Nagar Main Rd, near YSR Statue, Rajendra Nagar South, Stambalagaruvu, Guntur, Andhra Pradesh 522006","Rajendra Nagar South, Stambalagaruvu","8C77+7PX, Syamala Nagar Main Rd, near YSR Statue",Guntur,522006,Andhra Pradesh,IN,https://www.google.com/maps/place/Jamia+masjid+-+Tablighi+Jamaat+%28Sunni+Hanafi%29/data=!4m7!3m6!1s0x3a4a757ef44d34fb:0x14e49dbe7d919eb1!8m2!3d16.3132407!4d80.4143456!16s%2Fg%2F1hm37h6m6!19sChIJ-zRN9H51SjoRsZ6Rfb6d5BQ?authuser=0&hl=en&rclk=1,"16.313240699999998,80.41434559999999"
Masjid-E-Aqsa SR.Nagar,Mosque,"7FX8+2GR Masjid-E-Aqsa SR.Nagar, Sitaram Nagar, Guntur, Andhra Pradesh 522001",Sitaram Nagar,7FX8+2GR,Guntur,522001,Andhra Pradesh,IN,https://www.google.com/maps/place/Masjid-E-Aqsa+SR.Nagar/data=!4m7!3m6!1s0x3a4a0ab82813c3a5:0x3d9076d653037aeb!8m2!3d16.2976061!4d80.4662661!16s%2Fg%2F1tfc9lsr!19sChIJpcMTKLgKSjoR63oDU9Z2kD0?authuser=0&hl=en&rclk=1,"16.2976061,80.4662661"
Masjid -E- Aqsa,Mosque,"7FP4+772 Masjid -E- Aqsa, 6th Ln, Indira Priyadarshini Colony, Old Guntur, Guntur, Andhra Pradesh 522001","Indira Priyadarshini Colony, Old Guntur","7FP4+772, 6th Ln",Guntur,522001,Andhra Pradesh,IN,https://www.google.com/maps/place/Masjid+-E-+Aqsa/data=!4m7!3m6!1s0x3a4a0acd2f8207b5:0xe506655f5fcc0ee0!8m2!3d16.2856283!4d80.4556381!16s%2Fg%2F1td1zp9w!19sChIJtQeCL80KSjoR4A7MX19lBuU?authuser=0&hl=en&rclk=1,"16.2856283,80.4556381"
Masjid -E- Abid,Mosque,"7FW6+596 Masjid -E- Abid, Abid Nagar, Thamma Ranga Reddy Nagar, Guntur, Andhra Pradesh 522001","Abid Nagar, Thamma Ranga Reddy Nagar",7FW6+596,Guntur,522001,Andhra Pradesh,IN,https://www.google.com/maps/place/Masjid+-E-+Abid/data=!4m7!3m6!1s0x3a4a0ab603bf986d:0xf3999cb66c6db877!8m2!3d16.295421!4d80.460904!16s%2Fg%2F1pyqm6f1x!19sChIJbZi_A7YKSjoRd7htbLacmfM?authuser=0&hl=en&rclk=1,"16.295420999999997,80.460904"
Railpet Masjid,Mosque,"7CXV+PWP Railpet Masjid, Railpet, Guntur, Andhra Pradesh 522001",Railpet,7CXV+PWP,Guntur,522001,Andhra Pradesh,IN,https://www.google.com/maps/place/Railpet+Masjid/data=!4m7!3m6!1s0x3a4a7548b97eda39:0x2c912133b763756!8m2!3d16.2993291!4d80.4448396!16s%2Fg%2F1hm5ljz0m!19sChIJOdp-uUh1SjoRVjd2OxMSyQI?authuser=0&hl=en&rclk=1,"16.299329099999998,80.4448396"
Masjid -E- Bilal,Mosque,"7FW3+4JJ Masjid -E- Bilal, Gunturvari Thota, Pottur Vari Thota, Guntur, Andhra Pradesh 522001","Gunturvari Thota, Pottur Vari Thota",7FW3+4JJ,Guntur,522001,Andhra Pradesh,IN,https://www.google.com/maps/place/Masjid+-E-+Bilal/data=!4m7!3m6!1s0x3a4a754aa5c57d83:0xf97b99075ea49168!8m2!3d16.2953489!4d80.4540154!16s%2Fg%2F1hm5brybw!19sChIJg33FpUp1SjoRaJGkXgeZe_k?authuser=0&hl=en&rclk=1,"16.2953489,80.4540154"
Masjid -E- Noor,Mosque,"Masjid -E- Noor, 21-2-43, Cloth Bazaar, Lalapet, Guntur, Andhra Pradesh 522003",Lalapet,"21-2-43, Cloth Bazaar",Guntur,522003,Andhra Pradesh,IN,https://www.google.com/maps/place/Masjid+-E-+Noor/data=!4m7!3m6!1s0x3a4a75369a3c453d:0xc24729539e103f03!8m2!3d16.2906634!4d80.4487462!16s%2Fg%2F1hm5vsycv!19sChIJPUU8mjZ1SjoRAz8QnlMpR8I?authuser=0&hl=en&rclk=1,"16.2906634,80.4487462"
Masjid -E- Faiz,Mosque,"7FV3+PPJ Masjid -E- Faiz, Gunturvari Thota, Pottur Vari Thota, Guntur, Andhra Pradesh 522001","Gunturvari Thota, Pottur Vari Thota",7FV3+PPJ,Guntur,522001,Andhra Pradesh,IN,https://www.google.com/maps/place/Masjid+-E-+Faiz/data=!4m7!3m6!1s0x3a4a7535507c0ef1:0x93c7f80add69a112!8m2!3d16.2943329!4d80.454261!16s%2Fg%2F1hm6h6y0d!19sChIJ8Q58UDV1SjoREqFp3Qr4x5M?authuser=0&hl=en&rclk=1,"16.2943329,80.454261"
Masjid -E- Suffah,Mosque,"7FP3+HVC Masjid -E- Suffah, 3rd Ln, Indira Priyadarshini Colony, Old Guntur, Guntur, Andhra Pradesh 522001","Indira Priyadarshini Colony, Old Guntur","7FP3+HVC, 3rd Ln",Guntur,522001,Andhra Pradesh,IN,https://www.google.com/maps/place/Masjid+-E-+Suffah/data=!4m7!3m6!1s0x3a4a75332b2feebb:0x17ebc5b3e540313!8m2!3d16.2864453!4d80.4546511!16s%2Fg%2F1pp2wz7rx!19sChIJu-4vKzN1SjoREwNUPlu8fgE?authuser=0&hl=en&rclk=1,"16.2864453,80.45465109999999"
Taj Masjid,Mosque,"7CRH+PCW Taj Masjid, Nagarampalem, Guntur, Andhra Pradesh 522004",Nagarampalem,7CRH+PCW,Guntur,522004,Andhra Pradesh,IN,https://www.google.com/maps/place/Taj+Masjid/data=!4m7!3m6!1s0x3a4a7514ec9bef9f:0x152193566ca0a825!8m2!3d16.2918694!4d80.428587!16s%2Fg%2F11c1l9lxmq!19sChIJn--b7BR1SjoRJaigbFaTIRU?authuser=0&hl=en&rclk=1,"16.2918694,80.428587"
