name,main_category,address,address_ward,address_street,address_city,address_postal_code,address_state,address_country_code,link,coordinates
Gulzar Masjid Nirmal,Mosque,"Gulzar Masjid Nirmal, Masjid-e-Gulzar, Post Office Rd, Balajiwada, Pinjari Gutta, Nirmal, Telangana 504106","Balajiwada, Pinjari Gutta","Masjid-e-Gulzar, Post Office Rd",Nirmal,504106,Telangana,IN,https://www.google.com/maps/place/Gulzar+Masjid+Nirmal/data=!4m7!3m6!1s0x3bcd8c78647f2d69:0x2baca699c5ac6b20!8m2!3d19.1007782!4d78.3476027!16s%2Fg%2F11cn93xd9y!19sChIJaS1_ZHiMzTsRIGusxZmmrCs?authuser=0&hl=en&rclk=1,"19.1007782,78.3476027"
Masjid E Mahboobia,Mosque,"38RV+23Q Masjid E Mahboobia, Madina colony, Eidgoan, Nirmal, Telangana 504106",Eidgoan,"38RV+23Q, Madina colony",Nirmal,504106,Telangana,IN,https://www.google.com/maps/place/Masjid+E+Mahboobia/data=!4m7!3m6!1s0x3bcd8c7cc72f32ad:0xc87a1e0f04aa3a5d!8m2!3d19.0900799!4d78.3427318!16s%2Fg%2F11b6njqqlh!19sChIJrTIvx3yMzTsRXTqqBA8eesg?authuser=0&hl=en&rclk=1,"19.0900799,78.3427318"
"Masjid-e-Yahya, Gajulpet",Mosque,"485J+MRG Masjid-e-Yahya, Gajulpet, Gajulpet, Telangana 504106",,485J+MRG,Gajulpet,504106,Telangana,IN,"https://www.google.com/maps/place/Masjid-e-Yahya,+Gajulpet/data=!4m7!3m6!1s0x3bcd8b7bcb59113d:0x9c871539096c8956!8m2!3d19.1091943!4d78.3320753!16s%2Fg%2F11c716w5jr!19sChIJPRFZy3uLzTsRVolsCTkVh5w?authuser=0&hl=en&rclk=1","19.1091943,78.3320753"
Madina Masjid,Mosque,"Madina Masjid, Government Junior College, Bhainsa, Telangana 504103",,Government Junior College,Bhainsa,504103,Telangana,IN,https://www.google.com/maps/place/Madina+Masjid/data=!4m7!3m6!1s0x3bcdfe5aef2fd1e3:0x48c8397dc97ab0f6!8m2!3d19.1096769!4d77.9643594!16s%2Fg%2F11b7w99d4p!19sChIJ49Ev71r-zTsR9rB6yX05yEg?authuser=0&hl=en&rclk=1,"19.1096769,77.96435939999999"
Masjid E Chand Sultana,Mosque,"Masjid E Chand Sultana, 504106, Vidyanagar, Adharsha Nagar, Nirmal, Telangana 504106","Vidyanagar, Adharsha Nagar",504106,Nirmal,504106,Telangana,IN,https://www.google.com/maps/place/Masjid+E+Chand+Sultana/data=!4m7!3m6!1s0x3bcd8c644575ee19:0x37cd15e32a13fd32!8m2!3d19.0859119!4d78.3464606!16s%2Fg%2F11fzb16hxz!19sChIJGe51RWSMzTsRMv0TKuMVzTc?authuser=0&hl=en&rclk=1,"19.0859119,78.3464606"
Mohammadia Masjid,Mosque,"38JR+55J Mohammadia Masjid, Adharsha Nagar, Nirmal, Telangana 504106",Adharsha Nagar,38JR+55J,Nirmal,504106,Telangana,IN,https://www.google.com/maps/place/Mohammadia+Masjid/data=!4m7!3m6!1s0x3bcd8c604b0a54d3:0x67084e8473077f46!8m2!3d19.0804551!4d78.340404!16s%2Fg%2F11bzq338xz!19sChIJ01QKS2CMzTsRRn8Hc4ROCGc?authuser=0&hl=en&rclk=1,"19.0804551,78.34040399999999"
Masjid E Bilal Haq,Mosque,"483M+C39 Masjid E Bilal Haq, Nirmal, Gajulpet, Telangana 504106",,"483M+C39, Nirmal",Gajulpet,504106,Telangana,IN,https://www.google.com/maps/place/Masjid+E+Bilal+Haq/data=!4m7!3m6!1s0x3bcd8b7c2b493a63:0xf421e956b0a01151!8m2!3d19.1035383!4d78.3327297!16s%2Fg%2F11dftfsfpm!19sChIJYzpJK3yLzTsRURGgsFbpIfQ?authuser=0&hl=en&rclk=1,"19.1035383,78.3327297"
Masjid E Mastaniya,Mosque,"38MP+W6H Masjid E Mastaniya, Asra Colony, Adharsha Nagar, Nirmal, Telangana 504106","Asra Colony, Adharsha Nagar",38MP+W6H,Nirmal,504106,Telangana,IN,https://www.google.com/maps/place/Masjid+E+Mastaniya/data=!4m7!3m6!1s0x3bcd8c884b8cf3ad:0xc9b46d1316dfb1a6!8m2!3d19.0848125!4d78.3356094!16s%2Fg%2F11f126_006!19sChIJrfOMS4iMzTsRprHfFhNttMk?authuser=0&hl=en&rclk=1,"19.084812499999998,78.3356094"
Masjid-e-Arfath,Mosque,"485P+MVR Masjid-e-Arfath, Gajulpet, Telangana 504106",,485P+MVR,Gajulpet,504106,Telangana,IN,https://www.google.com/maps/place/Masjid-e-Arfath/data=!4m7!3m6!1s0x3bcd8b78f38929b7:0xf1f6598f1f63e972!8m2!3d19.1092323!4d78.3371349!16s%2Fg%2F11g6xq1bxz!19sChIJtymJ83iLzTsRculjH49Z9vE?authuser=0&hl=en&rclk=1,"19.1092323,78.3371349"
Masjid e Khair Unnisa,Mosque,"38MV+W9G Masjid e Khair Unnisa, Eidgoam, Nirmal, Telangana 504106",Eidgoam,38MV+W9G,Nirmal,504106,Telangana,IN,https://www.google.com/maps/place/Masjid+e+Khair+Unnisa/data=!4m7!3m6!1s0x3bcd8c63ec272937:0x3c3ca7aa8f837a71!8m2!3d19.0848121!4d78.3434432!16s%2Fg%2F11bxf29qv6!19sChIJNykn7GOMzTsRcXqDj6qnPDw?authuser=0&hl=en&rclk=1,"19.0848121,78.3434432"
Budharpet Masjid,Mosque,"483V+F49 Budharpet Masjid, Pinjari Gutta, Nirmal, Telangana 504106",Pinjari Gutta,483V+F49,Nirmal,504106,Telangana,IN,https://www.google.com/maps/place/Budharpet+Masjid/data=!4m7!3m6!1s0x3bcd8b80c2fc5e99:0xbd732aff04f66e07!8m2!3d19.1036542!4d78.3428597!16s%2Fg%2F11dxchc4cr!19sChIJmV78woCLzTsRB272BP8qc70?authuser=0&hl=en&rclk=1,"19.103654199999998,78.34285969999999"
Saleem Masjid,Mosque,"38WV+VRM Saleem Masjid, Panjesha Gallay, Zohra Nagar Colony, Kasba, Nirmal, Telangana 504106","Zohra Nagar Colony, Kasba","38WV+VRM, Panjesha Gallay",Nirmal,504106,Telangana,IN,https://www.google.com/maps/place/Saleem+Masjid/data=!4m7!3m6!1s0x3bcd8d6819c1f8c7:0x61f36d2f219cd7ef!8m2!3d19.0972042!4d78.3445486!16s%2Fg%2F11f6gz16dy!19sChIJx_jBGWiNzTsR79ecIS9t82E?authuser=0&hl=en&rclk=1,"19.0972042,78.3445486"
MASJID - E - RIYAZUL HAQ,Mosque,"38WX+Q76 MASJID - E - RIYAZUL HAQ, Bagulwada, Nirmal, Telangana 504106",Bagulwada,38WX+Q76,Nirmal,504106,Telangana,IN,https://www.google.com/maps/place/MASJID+-+E+-+RIYAZUL+HAQ/data=!4m7!3m6!1s0x3bcd8c79971e96a1:0x16fef0fe66a6bb49!8m2!3d19.0969176!4d78.3481556!16s%2Fg%2F11ddxp28l8!19sChIJoZYel3mMzTsRSbumZv7w_hY?authuser=0&hl=en&rclk=1,"19.096917599999998,78.3481556"
Macca Masjid,Mosque,"39G5+MMQ Macca Masjid, Shanthi Nagar Rd, Shanthinagar, Nirmal, Venkatapur Rural, Telangana 504105",Shanthinagar,"39G5+MMQ, Shanthi Nagar Rd","Nirmal, Venkatapur Rural",504105,Telangana,IN,https://www.google.com/maps/place/Macca+Masjid/data=!4m7!3m6!1s0x3bcd8db23dfdf8ed:0xe146a9cb766c453d!8m2!3d19.0767234!4d78.3592417!16s%2Fg%2F11h5lk1kll!19sChIJ7fj9PbKNzTsRPUVsdsupRuE?authuser=0&hl=en&rclk=1,"19.0767234,78.3592417"
Zakariya Masjid,Mosque,"39W2+36R Zakariya Masjid, Unnamed Road, Nirmal, Telangana 504106",,"39W2+36R, Unnamed Road",Nirmal,504106,Telangana,IN,https://www.google.com/maps/place/Zakariya+Masjid/data=!4m7!3m6!1s0x3bcd8c70af3e69d3:0x5bd0199c0b37c400!8m2!3d19.0952397!4d78.3505245!16s%2Fg%2F11gg94g7gs!19sChIJ02k-r3CMzTsRAMQ3C5wZ0Fs?authuser=0&hl=en&rclk=1,"19.0952397,78.35052449999999"
Jama Masjid,Mosque,"4733+GPV Jama Masjid, Near the Nirmal Bhainsa main Road.Mdl: Dilawarpur. Dist:, Nirmal, Telangana 504306",,"4733+GPV, Near the Nirmal Bhainsa main Road.Mdl: Dilawarpur. Dist:","Nirmal, Lolam",504306,Telangana,IN,https://www.google.com/maps/place/Jama+Masjid/data=!4m7!3m6!1s0x3bcdfff87705fb39:0xd33edc6cec828713!8m2!3d19.1038707!4d78.2542839!16s%2Fg%2F11gtdzt517!19sChIJOfsFd_j_zTsRE4eC7GzcPtM?authuser=0&hl=en&rclk=1,"19.103870699999998,78.25428389999999"
MASJID E EIDGAON NIRMAL,Mosque,"38PV+W2C MASJID E EIDGAON NIRMAL, Unnamed Road, Natraj Nagar, Eidgoan, Nirmal, Telangana 504106","Natraj Nagar, Eidgoan","38PV+W2C, Unnamed Road",Nirmal,504106,Telangana,IN,https://www.google.com/maps/place/MASJID+E+EIDGAON+NIRMAL/data=!4m7!3m6!1s0x3bcd8c6358878827:0x9e6de3030bed805a!8m2!3d19.0873155!4d78.3425302!16s%2Fg%2F11hd07t83z!19sChIJJ4iHWGOMzTsRWoDtCwPjbZ4?authuser=0&hl=en&rclk=1,"19.0873155,78.3425302"
Masjid e zohra,Mosque,"38VR+WC6 Masjid e zohra, Maternity Hospital Rd, Eidgoan, Nirmal, Telangana 504106",Eidgoan,"38VR+WC6, Maternity Hospital Rd",Nirmal,504106,Telangana,IN,https://www.google.com/maps/place/Masjid+e+zohra/data=!4m7!3m6!1s0x3bcd8dad6ff99def:0xd1220326d03e7595!8m2!3d19.0947996!4d78.3410309!16s%2Fg%2F11mtd9pbxd!19sChIJ7535b62NzTsRlXU-0CYDItE?authuser=0&hl=en&rclk=1,"19.094799599999998,78.34103089999999"
Masjid E Madeena,Mosque,"3XX8+XMW Masjid E Madeena, Vinayak Nagar, Bhainsa, Telangana 504103",Vinayak Nagar,3XX8+XMW,Bhainsa,504103,Telangana,IN,https://www.google.com/maps/place/Masjid+E+Madeena/data=!4m7!3m6!1s0x3bcdfe67609b6a17:0xd10b98fe9ebd9b74!8m2!3d19.1!4d77.9667!16s%2Fg%2F11b7tns2dg!19sChIJF2qbYGf-zTsRdJu9nv6YC9E?authuser=0&hl=en&rclk=1,"19.099999999999998,77.9667"
Eid-Gah Nirmal,Mosque,"38PQ+7GQ Eid-Gah Nirmal, Adharsha Nagar, Nirmal, Telangana 504106",Adharsha Nagar,38PQ+7GQ,Nirmal,504106,Telangana,IN,https://www.google.com/maps/place/Eid-Gah+Nirmal/data=!4m7!3m6!1s0x3bcd8d90b7d8d435:0x3a2ad0646c5b8835!8m2!3d19.0857081!4d78.3388489!16s%2Fg%2F11ty5vs19m!19sChIJNdTYt5CNzTsRNYhbbGTQKjo?authuser=0&hl=en&rclk=1,"19.085708099999998,78.3388489"
