name,main_category,address,address_ward,address_street,address_city,address_postal_code,address_state,address_country_code,link,coordinates
Jamia Millia Islamia Central Mosque - jm` msjdi jm`h mlyh slmyh,Mosque,"Jamia Millia Islamia Central Mosque - jm` msjdi jm`h mlyh slmyh, Maulana Mohammad Ali Jauhar Marg, Jamia Millia Islamia, Jamia Nagar, Okhla, New Delhi, Delhi 110025","Jamia Millia Islamia, Jamia Nagar, Okhla",Maulana Mohammad Ali Jauhar Marg,New Delhi,110025,Delhi,IN,https://www.google.com/maps/place/Jamia+Millia+Islamia+Central+Mosque+-+%D8%AC%D8%A7%D9%85%D8%B9+%D9%85%D8%B3%D8%AC%D8%AF%D9%90+%D8%AC%D8%A7%D9%85%D8%B9%DB%81+%D9%85%D9%84%DB%8C%DB%81+%D8%A7%D8%B3%D9%84%D8%A7%D9%85%DB%8C%DB%81%E2%80%AD/data=!4m7!3m6!1s0x390ce38b112f4ff9:0xb882674201afdc30!8m2!3d28.5625429!4d77.2826111!16s%2Fg%2F1hhjtj1db!19sChIJ-U8vEYvjDDkRMNyvAUJngrg?authuser=0&hl=en&rclk=1,"28.5625429,77.2826111"
Ishaat e Islam Masjid - sh`t  slm msjd,Mosque,"Ishaat e Islam Masjid - sh`t  slm msjd, Ishat E Islam, Hari Kothi Rd, Abul Fazal Enclave Part 1, Abul Fazal Enclave, Jamia Nagar, Okhla, New Delhi, Delhi 110025","Abul Fazal Enclave Part 1, Abul Fazal Enclave, Jamia Nagar, Okhla","Ishat E Islam, Hari Kothi Rd",New Delhi,110025,Delhi,IN,https://www.google.com/maps/place/Ishaat+e+Islam+Masjid+-+%D8%A7%D8%B4%D8%A7%D8%B9%D8%AA+%D8%A1+%D8%A7%D8%B3%D9%84%D8%A7%D9%85+%D9%85%D8%B3%D8%AC%D8%AF%E2%80%AD/data=!4m7!3m6!1s0x390ce40c2ff9b231:0x608aa5b5af203426!8m2!3d28.5567717!4d77.2942062!16s%2Fg%2F1tvt8qxd!19sChIJMbL5LwzkDDkRJjQgr7WlimA?authuser=0&hl=en&rclk=1,"28.5567717,77.29420619999999"
Jama Masjid (Okhla),Mosque,"Jama Masjid (Okhla), 21/4,Okhla Bazar, Okhla Main Market Rd, Jamia Nagar, Okhla Village, Okhla, New Delhi, Delhi 110025","Jamia Nagar, Okhla Village, Okhla","21/4,Okhla Bazar, Okhla Main Market Rd",New Delhi,110025,Delhi,IN,https://www.google.com/maps/place/Jama+Masjid+%28Okhla%29/data=!4m7!3m6!1s0x390ce474e657e7f9:0x9680577c25554efa!8m2!3d28.5631627!4d77.2900565!16s%2Fg%2F1tk6ywjp!19sChIJ-edX5nTkDDkR-k5VJXxXgJY?authuser=0&hl=en&rclk=1,"28.5631627,77.29005649999999"
Masjid Nabi (msjd nby) Johri farm,Mosque,"Masjid Nabi (msjd nby) Johri farm, C7, 1st Lane Johri Farm, Noor Nagar Extension, Noor Nagar, Okhla, New Delhi, Delhi 110025","Noor Nagar Extension, Noor Nagar, Okhla","C7, 1st Lane Johri Farm",New Delhi,110025,Delhi,IN,https://www.google.com/maps/place/Masjid+Nabi+%28%D9%85%D8%B3%D8%AC%D8%AF+%D9%86%D8%A8%DB%8C%29+Johri+farm%E2%80%AD/data=!4m7!3m6!1s0x390ce5082fe1ad5f:0x5775343e83da2a45!8m2!3d28.555116!4d77.2871876!16s%2Fg%2F11mvgvl28g!19sChIJX63hLwjlDDkRRSragz40dVc?authuser=0&hl=en&rclk=1,"28.555115999999998,77.2871876"
Jamia Boys Hostel Masjid jmyh bwys hwsttl msjd,Mosque,"Jamia Boys Hostel Masjid jmyh bwys hwsttl msjd, Gate no. 4, Hall of boys residence, Jamia Millia Islamia, Jamia Nagar, Okhla, New Delhi, Delhi 110025","Jamia Millia Islamia, Jamia Nagar, Okhla","Gate no. 4, Hall of boys residence",New Delhi,110025,Delhi,IN,https://www.google.com/maps/place/Jamia+Boys+Hostel+Masjid+%D8%AC%D8%A7%D9%85%DB%8C%DB%81+%D8%A8%D9%88%D8%A7%DB%8C%D8%B3+%DB%81%D9%88%D8%B3%D9%B9%D9%84+%D9%85%D8%B3%D8%AC%D8%AF%E2%80%AD/data=!4m7!3m6!1s0x390ce38bf66899d1:0x57e8df6a5a7d6b2!8m2!3d28.5651793!4d77.2806872!16s%2Fg%2F11c5rpv6_6!19sChIJ0Zlo9ovjDDkRstanpfaNfgU?authuser=0&hl=en&rclk=1,"28.565179299999997,77.2806872"
Masjid Mujeeb Bagh,Mosque,"H74R+R4J Masjid Mujeeb Bagh, Mujeeb Bagh, Jamia Nagar, Okhla, New Delhi, Delhi 110025","Mujeeb Bagh, Jamia Nagar, Okhla",H74R+R4J,New Delhi,110025,Delhi,IN,https://www.google.com/maps/place/Masjid+Mujeeb+Bagh/data=!4m7!3m6!1s0x390ce40bc79e1ce9:0x18ab01f5fdcf10b3!8m2!3d28.5570856!4d77.2902574!16s%2Fg%2F11hbvrlrnj!19sChIJ6RyexwvkDDkRsxDP_fUBqxg?authuser=0&hl=en&rclk=1,"28.557085599999997,77.2902574"
Jama Masjid Jamia,Mosque,"H77M+9CQ Jama Masjid Jamia, Jamia Jama Masjid Rd, Jamia Nagar, Okhla, New Delhi, Delhi 110025","Jamia Nagar, Okhla","H77M+9CQ, Jamia Jama Masjid Rd",New Delhi,110025,Delhi,IN,https://www.google.com/maps/place/Jama+Masjid+Jamia/data=!4m7!3m6!1s0x390ce329e5e9fe39:0xfdadee6422dd6abd!8m2!3d28.5634592!4d77.2836065!16s%2Fg%2F11fnyd14qm!19sChIJOf7p5SnjDDkRvWrdImTurf0?authuser=0&hl=en&rclk=1,"28.563459199999997,77.28360649999999"
Jama Masjid of Zakir Nagar,Mosque,"631, Jama Masjid of Zakir Nagar, Street Number 9, 9a, Zakir Nagar Main Rd, Jogabai Extension, Zakir Nagar, Okhla, New Delhi, Delhi 110025","Jogabai Extension, Zakir Nagar, Okhla","631, Street Number 9, 9a, Zakir Nagar Main Rd",New Delhi,110025,Delhi,IN,https://www.google.com/maps/place/Jama+Masjid+of+Zakir+Nagar/data=!4m7!3m6!1s0x390ce3894ca4c9fb:0x90f48aa56d1e920d!8m2!3d28.5673307!4d77.2807872!16s%2Fg%2F1tcxbl1z!19sChIJ-8mkTInjDDkRDZIebaWK9JA?authuser=0&hl=en&rclk=1,"28.5673307,77.28078719999999"
Khalilullah Masjid,Mosque,"Khalilullah Masjid, KHALILULLAH masjid, I 80/A, Batla House, Jamia Nagar, Okhla, New Delhi, Delhi 110025","Batla House, Jamia Nagar, Okhla","KHALILULLAH masjid, I 80/A",New Delhi,110025,Delhi,IN,https://www.google.com/maps/place/Khalilullah+Masjid/data=!4m7!3m6!1s0x390ce475d1de5d13:0xe00156a6e547ab99!8m2!3d28.566411!4d77.2889085!16s%2Fg%2F1tj1kwt5!19sChIJE13e0XXkDDkRmatH5aZWAeA?authuser=0&hl=en&rclk=1,"28.566411,77.28890849999999"
Al Noor Masjid,Mosque,"Al Noor Masjid, Nafees Rd, Batla House, Jamia Nagar, Okhla, New Delhi, Delhi 110025","Batla House, Jamia Nagar, Okhla",Nafees Rd,New Delhi,110025,Delhi,IN,https://www.google.com/maps/place/Al+Noor+Masjid/data=!4m7!3m6!1s0x390ce476496a23f3:0xa12d95c7c3bb68ab!8m2!3d28.569068!4d77.2862973!16s%2Fg%2F1tg_7v_w!19sChIJ8yNqSXbkDDkRq2i7w8eVLaE?authuser=0&hl=en&rclk=1,"28.569067999999998,77.2862973"
Jama Masjid Kahkashan jm` msjd,Mosque,"Jama Masjid Kahkashan jm` msjd, Block D, Shop No. E-1, Okhla Vihar Main Rd, Jamia Nagar, Okhla, New Delhi, Delhi 110025","Okhla Vihar, Okhla Vihar, Block D, Jamia Nagar, Okhla","Block D, Shop No. E-1, Okhla Vihar Main Rd",New Delhi,110025,Delhi,IN,https://www.google.com/maps/place/Jama+Masjid+Kahkashan+%D8%AC%D8%A7%D9%85%D8%B9+%D9%85%D8%B3%D8%AC%D8%AF%E2%80%AD/data=!4m7!3m6!1s0x390ce40964ba23d5:0x1bbbdd0080b3ca03!8m2!3d28.5551863!4d77.2898845!16s%2Fg%2F1pp2tynbb!19sChIJ1SO6ZAnkDDkRA8qzgADduxs?authuser=0&hl=en&rclk=1,"28.5551863,77.2898845"
Jama Masjid Abu Bakr Siddique Ahle Hadees,Mosque,"H78M+M32 Jama Masjid Abu Bakr Siddique Ahle Hadees, Zakir Nagar Main Rd, Mehboob Nagar, Jogabai Extension, Jamia Nagar, Okhla, New Delhi, Delhi 110025","Mehboob Nagar, Jogabai Extension, Jamia Nagar, Okhla","H78M+M32, Zakir Nagar Main Rd",New Delhi,110025,Delhi,IN,https://www.google.com/maps/place/Jama+Masjid+Abu+Bakr+Siddique+Ahle+Hadees/data=!4m7!3m6!1s0x390ce38962496867:0x3deed9e1febe9bfc!8m2!3d28.5666295!4d77.2826439!16s%2Fg%2F124srs5b7!19sChIJZ2hJYonjDDkR_Ju-_uHZ7j0?authuser=0&hl=en&rclk=1,"28.566629499999998,77.2826439"
Islah Masjid,Mosque,"H79M+M6V Islah Masjid, Sir Syed Lane, Block G, Jogabai Extension, Jamia Nagar, Okhla, Delhi 110025","Jogabai Extension, Jamia Nagar, Okhla","H79M+M6V, Sir Syed Lane, Block G",New Delhi,110025,Delhi,IN,https://www.google.com/maps/place/Islah+Masjid/data=!4m7!3m6!1s0x390ce3890763905d:0x405299a9a2d4dccb!8m2!3d28.569244!4d77.28306!16s%2Fg%2F1tqcjldp!19sChIJXZBjB4njDDkRy9zUoqmZUkA?authuser=0&hl=en&rclk=1,"28.569243999999998,77.28305999999999"
Akbari Jama Masjid jm` msjd khbry,Mosque,"H8R4+QXG Akbari Jama Masjid jm` msjd khbry, Block D, New Ashok Nagar, New Delhi, Delhi, 110096","Block D, New Ashok Nagar",H8R4+QXG,"New Delhi, Delhi",110096,Delhi,IN,https://www.google.com/maps/place/Akbari+Jama+Masjid+%D8%AC%D8%A7%D9%85%D8%B9+%D9%85%D8%B3%D8%AC%D8%AF+%D8%A7%DA%A9%D8%A8%D8%B1%DB%8C%E2%80%AD/data=!4m7!3m6!1s0x390ce48c9d102c1b:0xd247049122f58286!8m2!3d28.591929!4d77.3074671!16s%2Fg%2F12vs84fbn!19sChIJGywQnYzkDDkRhoL1IpEER9I?authuser=0&hl=en&rclk=1,"28.591929,77.3074671"
Ek Minar Masjid,Mosque,"Ek Minar Masjid, 12/436, Vikas Ln, Lalita Park, Laxmi Nagar, New Delhi, Delhi, 110092","Lalita Park, Laxmi Nagar","12/436, Vikas Ln","New Delhi, Delhi",110092,Delhi,IN,https://www.google.com/maps/place/Ek+Minar+Masjid/data=!4m7!3m6!1s0x390cfcb2fd923a99:0x4c37538efb977cad!8m2!3d28.6302576!4d77.2731939!16s%2Fg%2F1tk219ct!19sChIJmTqS_bL8DDkRrXyX-45TN0w?authuser=0&hl=en&rclk=1,"28.6302576,77.2731939"
Masjid Babul ilm,Mosque,"Masjid Babul ilm, C 38/A, 1st Lane Johri Farm, Okhla Vihar, Noor Nagar Extension, Jamia Nagar, Okhla, New Delhi, Delhi 110025","Okhla Vihar, Noor Nagar Extension, Jamia Nagar, Okhla","C 38/A, 1st Lane Johri Farm",New Delhi,110025,Delhi,IN,https://www.google.com/maps/place/Masjid+Babul+ilm/data=!4m7!3m6!1s0x390ce40a39bfcf93:0xa9c385dc208c6d38!8m2!3d28.5567415!4d77.2885524!16s%2Fg%2F1pp2tybvr!19sChIJk8-_OQrkDDkROG2MINyFw6k?authuser=0&hl=en&rclk=1,"28.556741499999998,77.2885524"
Qadri Masjid,Mosque,"Qadri Masjid, Block B, Okhla, New Delhi, Delhi 110025","Block B, Okhla",,New Delhi,110025,Delhi,IN,https://www.google.com/maps/place/Qadri+Masjid/data=!4m7!3m6!1s0x390ce36de0bec701:0xcc7c32259ff900bf!8m2!3d28.5701385!4d77.2832833!16s%2Fg%2F11gmj38wz1!19sChIJAce-4G3jDDkRvwD5nyUyfMw?authuser=0&hl=en&rclk=1,"28.5701385,77.2832833"
(Giri Nagar) Masjid Govindpuri msjd gwwndpwry,Mosque,"(Giri Nagar) Masjid Govindpuri msjd gwwndpwry, 153, Guru Ravidas Marg, Tilak Khand, Giri Nagar, Kalkaji, New Delhi, Delhi 110019","Tilak Khand, Giri Nagar, Kalkaji","153, Guru Ravidas Marg",New Delhi,110019,Delhi,IN,https://www.google.com/maps/place/%28Giri+Nagar%29+Masjid+Govindpuri+%D9%85%D8%B3%D8%AC%D8%AF+%DA%AF%D9%88%D9%88%D9%86%D8%AF%D9%BE%D9%88%D8%B1%DB%8C%E2%80%AD/data=!4m7!3m6!1s0x390ce3e7428ba995:0x86635c6c7d23fcc4!8m2!3d28.5431685!4d77.2644276!16s%2Fg%2F119vjp4tw!19sChIJlamLQufjDDkRxPwjfWxcY4Y?authuser=0&hl=en&rclk=1,"28.5431685,77.26442759999999"
Badi Masjid Ramesh Park (juma namaz 1:50pm),Mosque,"J7PF+64F Badi Masjid Ramesh Park (juma namaz 1:50pm), Ramesh Park, Laxmi Nagar, Delhi, 110031","Ramesh Park, Laxmi Nagar",J7PF+64F,Delhi,110031,Delhi,IN,https://www.google.com/maps/place/Badi+Masjid+Ramesh+Park+%28juma+namaz+1:50pm%29/data=!4m7!3m6!1s0x390cfcb1a384f9d9:0x3618add6a7e777f3!8m2!3d28.6355718!4d77.2727901!16s%2Fg%2F1hjhbc0vj!19sChIJ2fmEo7H8DDkR83fnp9atGDY?authuser=0&hl=en&rclk=1,"28.635571799999997,77.2727901"
Masjid Shahab,Mosque,"H78P+VWV Masjid Shahab, Jamia, Batla House, Jamia Nagar, Okhla, New Delhi, Delhi 110025","Jamia, Batla House, Jamia Nagar, Okhla",H78P+VWV,New Delhi,110025,Delhi,IN,https://www.google.com/maps/place/Masjid+Shahab/data=!4m7!3m6!1s0x390ce4760f556f8d:0xc0285f5f2f62012c!8m2!3d28.5672496!4d77.2873032!16s%2Fg%2F1hhm006pz!19sChIJjW9VD3bkDDkRLAFiL19fKMA?authuser=0&hl=en&rclk=1,"28.5672496,77.2873032"
Anar Wali Masjid,Mosque,"Anar Wali Masjid, 122, Street Number 2, West Jawahar Park, Block G, Vishwakarma Park, Laxmi Nagar, New Delhi, Delhi, 110092","West Jawahar Park, Block G, Vishwakarma Park, Laxmi Nagar","122, Street Number 2","New Delhi, Delhi",110092,Delhi,IN,https://www.google.com/maps/place/Anar+Wali+Masjid/data=!4m7!3m6!1s0x390cfcb043192955:0x3eccb49dffe238b4!8m2!3d28.6388561!4d77.2723811!16s%2Fg%2F11c5t2ykg6!19sChIJVSkZQ7D8DDkRtDji_520zD4?authuser=0&hl=en&rclk=1,"28.638856099999998,77.27238109999999"
Nooh Masjid,Mosque,"Nooh Masjid, F-12/35, Street Number 12 Jamia Nagar, Block F, Joga Bai Extension, Okhla, New Delhi, Delhi 110025","Block F, Joga Bai Extension, Okhla","F-12/35, Street Number 12 Jamia Nagar",New Delhi,110025,Delhi,IN,https://www.google.com/maps/place/Nooh+Masjid/data=!4m7!3m6!1s0x390ce3899c2d9279:0x291d5f701b631a8!8m2!3d28.56762!4d77.2838107!16s%2Fg%2F11bxfjvp52!19sChIJeZItnInjDDkRqDG2AffVkQI?authuser=0&hl=en&rclk=1,"28.567619999999998,77.28381069999999"
Mohammadi Masjid,Mosque,"G7XX+C4X Mohammadi Masjid, Shaheen Bagh, Block E, Jamia Nagar, Okhla, New Delhi, Delhi 110025","Shaheen Bagh, Block E, Jamia Nagar, Okhla",G7XX+C4X,New Delhi,110025,Delhi,IN,https://www.google.com/maps/place/Mohammadi+Masjid/data=!4m7!3m6!1s0x390ce41acd709b67:0x8df25e5235479b77!8m2!3d28.5486052!4d77.2978715!16s%2Fg%2F11cp1893xh!19sChIJZ5twzRrkDDkRd5tHNVJe8o0?authuser=0&hl=en&rclk=1,"28.548605199999997,77.2978715"
Chaand Masjid,Mosque,"Chaand Masjid, Thokar no. 4, 4, Kalindi Kunj Rd, Abul Fazal Enclave Part 1, Part 1 Abul Fazal Enclave, Block J, Jamia Nagar, Okhla, New Delhi, Delhi 110025","Abul Fazal Enclave Part 1, Part 1 Abul Fazal Enclave, Block J, Jamia Nagar, Okhla","Thokar no. 4, 4, Kalindi Kunj Rd",New Delhi,110025,Delhi,IN,https://www.google.com/maps/place/Chaand+Masjid/data=!4m7!3m6!1s0x390ce40fd42494c1:0x50f20e85fae2baf1!8m2!3d28.5534566!4d77.2977783!16s%2Fg%2F11h1b5c58!19sChIJwZQk1A_kDDkR8bri-oUO8lA?authuser=0&hl=en&rclk=1,"28.553456599999997,77.29777829999999"
Raza Mosque,Mosque,"Raza Mosque, 584/20A, Gali Number 18, Jogabai Extension, Zakir Nagar, Okhla, New Delhi, Delhi 110025","Jogabai Extension, Zakir Nagar, Okhla","584/20A, Gali Number 18",New Delhi,110025,Delhi,IN,https://www.google.com/maps/place/Raza+Mosque/data=!4m7!3m6!1s0x390ce38ed472bd71:0xa60e9f27c2e6cffe!8m2!3d28.5689843!4d77.2805139!16s%2Fg%2F11bxb9jlts!19sChIJcb1y1I7jDDkR_s_mwiefDqY?authuser=0&hl=en&rclk=1,"28.5689843,77.2805139"
"Moti Masjid,(Zakir Nagar)",Mosque,"H7CJ+68C Moti Masjid,(Zakir Nagar), Street Number 22, Jogabai Extension, Zakir Nagar, Okhla, New Delhi, Delhi 110025","Jogabai Extension, Zakir Nagar, Okhla","H7CJ+68C, Street Number 22",New Delhi,110025,Delhi,IN,"https://www.google.com/maps/place/Moti+Masjid,%28Zakir+Nagar%29/data=!4m7!3m6!1s0x390ce38f353f002d:0xcf47f401cf347829!8m2!3d28.5705609!4d77.2807799!16s%2Fg%2F1264gqdlr!19sChIJLQA_NY_jDDkRKXg0zwH0R88?authuser=0&hl=en&rclk=1","28.5705609,77.2807799"
Jama Masjid (Shaheen Bagh),Mosque,"Jama Masjid (Shaheen Bagh), 12, Kalindi Kunj Rd, Block B, Jamia Nagar, Jasola, New Delhi, Delhi 110025","Block B, Jamia Nagar, Jasola","12, Kalindi Kunj Rd",New Delhi,110025,Delhi,IN,https://www.google.com/maps/place/Jama+Masjid+%28Shaheen+Bagh%29/data=!4m7!3m6!1s0x390ce41a3d9d581b:0xc7b0e62465b11de9!8m2!3d28.5496905!4d77.3028252!16s%2Fg%2F11g7p2t2hd!19sChIJG1idPRrkDDkR6R2xZSTmsMc?authuser=0&hl=en&rclk=1,"28.549690499999997,77.3028252"
"Madina Masjid, (Zakir Nagar)",Mosque,"Gali no-43, Madina Masjid, (Zakir Nagar), H-Block, Jamia Nagar, Okhla, New Delhi, Delhi 110025","H-Block, Jamia Nagar, Okhla",Gali no-43,New Delhi,110025,Delhi,IN,"https://www.google.com/maps/place/Madina+Masjid,+%28Zakir+Nagar%29/data=!4m7!3m6!1s0x390ce3b1088df579:0x5b39034e53817e20!8m2!3d28.5702033!4d77.2778639!16s%2Fg%2F11j7d3gh36!19sChIJefWNCLHjDDkRIH6BU04DOVs?authuser=0&hl=en&rclk=1","28.5702033,77.2778639"
Noor Masjid,Mosque,"H73X+CHG Noor Masjid, Kalindi Kunj Rd, Abul Fazal Enclave Part 1, Block J, Jamia Nagar, Okhla, New Delhi, Delhi 110025","Abul Fazal Enclave Part 1, Block J, Jamia Nagar, Okhla","H73X+CHG, Kalindi Kunj Rd",New Delhi,110025,Delhi,IN,https://www.google.com/maps/place/Noor+Masjid/data=!4m7!3m6!1s0x390ce4103435d885:0x70062933e057a0e8!8m2!3d28.5535535!4d77.2989652!16s%2Fg%2F11btvb5bqr!19sChIJhdg1NBDkDDkR6KBX4DMpBnA?authuser=0&hl=en&rclk=1,"28.5535535,77.2989652"
Masjid Abu Bakr,Mosque,"H78H+5JH Masjid Abu Bakr, Zakir Nagar, Okhla, New Delhi, Delhi 110025","Zakir Nagar, Okhla",H78H+5JH,New Delhi,110025,Delhi,IN,https://www.google.com/maps/place/Masjid+Abu+Bakr/data=!4m7!3m6!1s0x390ce38f1d28095f:0xa4ca1135e803cbd7!8m2!3d28.5654308!4d77.2790984!16s%2Fg%2F11bwqmc4wb!19sChIJXwkoHY_jDDkR18sD6DURyqQ?authuser=0&hl=en&rclk=1,"28.565430799999998,77.2790984"
Masjid Faizane Ghausia and Madarsa,Mosque,"Masjid Faizane Ghausia and Madarsa, D-100, Maulana Azad Rd, Shaheen Bagh, Jamia Nagar, Okhla, New Delhi, Delhi 110025","Shaheen Bagh, Jamia Nagar, Okhla","D-100, Maulana Azad Rd",New Delhi,110025,Delhi,IN,https://www.google.com/maps/place/Masjid+Faizane+Ghausia+and+Madarsa/data=!4m7!3m6!1s0x390ce41ba6415db1:0xa9911783ddc9514d!8m2!3d28.5472543!4d77.3012896!16s%2Fg%2F11b6pk_b3y!19sChIJsV1BphvkDDkRTVHJ3YMXkak?authuser=0&hl=en&rclk=1,"28.5472543,77.30128959999999"
Masjid Gareeb Nawaz,Mosque,"Masjid Gareeb Nawaz, R248, Ramesh Park Street Number 11, Laxmi Nagar, New Delhi, Delhi 110092","Block N, Vishwakarma Park, Laxmi Nagar","R248, Ramesh Park Street Number 11","New Delhi, Delhi",110092,Delhi,IN,https://www.google.com/maps/place/Masjid+Gareeb+Nawaz/data=!4m7!3m6!1s0x390cfcb1ec55b323:0xa19fca173b889cac!8m2!3d28.635147!4d77.2737643!16s%2Fg%2F11c0vk03wd!19sChIJI7NV7LH8DDkRrJyIOxfKn6E?authuser=0&hl=en&rclk=1,"28.635147,77.2737643"
Masjid Usman Bin Affan (Ahle Hadees),Mosque,"H79Q+632 Masjid Usman Bin Affan (Ahle Hadees), Sir Syed Rd, Batla House, Jamia Nagar, Okhla, New Delhi, Delhi 110025","Batla House, Jamia Nagar, Okhla","H79Q+632, Sir Syed Rd",New Delhi,110025,Delhi,IN,https://www.google.com/maps/place/Masjid+Usman+Bin+Affan+%28Ahle+Hadees%29/data=!4m7!3m6!1s0x390ce47613e5e5e7:0xe09f490ec8e1eae2!8m2!3d28.5680023!4d77.2876355!16s%2Fg%2F11g68z41w3!19sChIJ5-XlE3bkDDkR4urhyA5Jn-A?authuser=0&hl=en&rclk=1,"28.5680023,77.2876355"
Ramzani Masjid,Mosque,"Ramzani Masjid, E-44, Abul Fazal Enclave, Jamia Nagar, Okhla, New Delhi, Delhi 110025","Abul Fazal Enclave, Jamia Nagar, Okhla",E-44,New Delhi,110025,Delhi,IN,https://www.google.com/maps/place/Ramzani+Masjid/data=!4m7!3m6!1s0x390ce40cbcae3df1:0x4955691717a5c725!8m2!3d28.5606791!4d77.292931!16s%2Fg%2F11dxfpr0ns!19sChIJ8T2uvAzkDDkRJcelFxdpVUk?authuser=0&hl=en&rclk=1,"28.560679099999998,77.292931"
Masjid Umar Zakir Nagar,Mosque,"H78H+GG6 Masjid Umar Zakir Nagar, Street Number 17, Jogabai Extension, Zakir Nagar, Okhla, New Delhi, Delhi 110025","Jogabai Extension, Zakir Nagar, Okhla","H78H+GG6, Street Number 17",New Delhi,110025,Delhi,IN,https://www.google.com/maps/place/Masjid+Umar+Zakir+Nagar/data=!4m7!3m6!1s0x390ce38e9ec96e19:0x70b17779fb782983!8m2!3d28.5662853!4d77.2787581!16s%2Fg%2F1q6j8w8yn!19sChIJGW7Jno7jDDkRgyl4-3l3sXA?authuser=0&hl=en&rclk=1,"28.566285299999997,77.27875809999999"
Chhappar Wali Masjid,Mosque,"Chhappar Wali Masjid, 48, Okhla Rd, Jamia Nagar, Okhla, New Delhi, Delhi 110025","Jamia Nagar, Okhla","48, Okhla Rd",New Delhi,110025,Delhi,IN,https://www.google.com/maps/place/Chhappar+Wali+Masjid/data=!4m7!3m6!1s0x390ce47512f9ba69:0xdab55473377f5c32!8m2!3d28.5632638!4d77.2880895!16s%2Fg%2F11cn9tyv1h!19sChIJabr5EnXkDDkRMlx_N3NUtdo?authuser=0&hl=en&rclk=1,"28.563263799999998,77.2880895"
Ashraf Masjid,Mosque,"Ashraf Masjid, Maulana Azad Rd, Shaheen Bagh, Block A, Jamia Nagar, Jasola Vihar, New Delhi, Delhi 110025","Shaheen Bagh, Block A, Jamia Nagar, Jasola Vihar",Maulana Azad Rd,New Delhi,110025,Delhi,IN,https://www.google.com/maps/place/Ashraf+Masjid/data=!4m7!3m6!1s0x390ce41a951a9c37:0x25df4ad8e378f753!8m2!3d28.5495577!4d77.2995432!16s%2Fg%2F11bztcz8tt!19sChIJN5walRrkDDkRU_d449hK3yU?authuser=0&hl=en&rclk=1,"28.549557699999998,77.2995432"
Shaan E Ilaahi Masjid,Mosque,"H72W+WCQ Shaan E Ilaahi Masjid, Part 1 Abul Fazal Enclave, Block M, Jamia Nagar, Okhla, New Delhi, Delhi 110025","Part 1 Abul Fazal Enclave, Block M, Jamia Nagar, Okhla",H72W+WCQ,New Delhi,110025,Delhi,IN,https://www.google.com/maps/place/Shaan+E+Ilaahi+Masjid/data=!4m7!3m6!1s0x390ce40fbbf6e527:0xd5c852e4dc09e63e!8m2!3d28.5523463!4d77.2961247!16s%2Fg%2F11b8v9lpl_!19sChIJJ-X2uw_kDDkRPuYJ3ORSyNU?authuser=0&hl=en&rclk=1,"28.5523463,77.2961247"
Qadri Masjid,Mosque,"Qadri Masjid, Abul Fazal Enclave Part 1, Part 1 Abul Fazal Enclave, Block K, Jamia Nagar, Jasola, New Delhi, Delhi 110025","Part 1 Abul Fazal Enclave, Block K, Jamia Nagar, Jasola",Abul Fazal Enclave Part 1,New Delhi,110025,Delhi,IN,https://www.google.com/maps/place/Qadri+Masjid/data=!4m7!3m6!1s0x390ce40fe0570add:0x99de0a46888db8c8!8m2!3d28.552211!4d77.2979359!16s%2Fg%2F1q5hrj9ft!19sChIJ3QpX4A_kDDkRyLiNiEYK3pk?authuser=0&hl=en&rclk=1,"28.552211,77.2979359"
Masjid Fatima-Tuz-Zohra,Mosque,"Masjid Fatima-Tuz-Zohra, N-9/C, Abul Fazal Enclave Part 1, Abul Fazal Enclave Part 2, Jamia Nagar, Okhla, New Delhi, Delhi 110025","Abul Fazal Enclave Part 1, Abul Fazal Enclave Part 2, Jamia Nagar, Okhla",N-9/C,New Delhi,110025,Delhi,IN,https://www.google.com/maps/place/Masjid+Fatima-Tuz-Zohra/data=!4m7!3m6!1s0x390ce40fed4ef08f:0x50939f61b23142d8!8m2!3d28.5513565!4d77.2965726!16s%2Fg%2F1pp2vdj5v!19sChIJj_BO7Q_kDDkR2EIxsmGfk1A?authuser=0&hl=en&rclk=1,"28.551356499999997,77.29657259999999"
Masjid Umar,Mosque,"Masjid Umar, H Block, Abul Fazal Enclave, Jamia Nagar, Okhla, New Delhi, Delhi 110025","Abul Fazal Enclave, Jamia Nagar, Okhla",H Block,New Delhi,110025,Delhi,IN,https://www.google.com/maps/place/Masjid+Umar/data=!4m7!3m6!1s0x390ce40e52efde7f:0x5e0487c814d4c357!8m2!3d28.5535005!4d77.2956955!16s%2Fg%2F11b6snzn79!19sChIJf97vUg7kDDkRV8PUFMiHBF4?authuser=0&hl=en&rclk=1,"28.5535005,77.2956955"
Masjid and Madarsa,Mosque,"H78P+G28 Masjid and Madarsa, Jamia, Batla House, Jamia Nagar, Okhla, New Delhi, Delhi 110025","Jamia, Batla House, Jamia Nagar, Okhla",H78P+G28,New Delhi,110025,Delhi,IN,https://www.google.com/maps/place/Masjid+and+Madarsa/data=!4m7!3m6!1s0x390ce38a18a5d97f:0xdcfc61f3d0f88168!8m2!3d28.5662905!4d77.2850829!16s%2Fg%2F1hg4wfd46!19sChIJf9mlGIrjDDkRaIH40PNh_Nw?authuser=0&hl=en&rclk=1,"28.566290499999997,77.28508289999999"
Masjid Sadiq Nagar,Mosque,"Masjid Sadiq Nagar, 473 TO 496, Sector 2, Sadiq Nagar, New Delhi, Delhi 110049","Sector 2, Sadiq Nagar",473 TO 496,New Delhi,110049,Delhi,IN,https://www.google.com/maps/place/Masjid+Sadiq+Nagar/data=!4m7!3m6!1s0x390ce2471d078d5b:0x1afc6ec2d57f04b3!8m2!3d28.558289!4d77.225184!16s%2Fg%2F11cn6sf0tl!19sChIJW40HHUfiDDkRswR_1cJu_Bo?authuser=0&hl=en&rclk=1,"28.558289,77.225184"
"Safdarjung Hospital , Mosque",Mosque,"H683+QR3 Safdarjung Hospital , Mosque, Ansari Nagar West, New Delhi, Delhi 110029",Ansari Nagar West,H683+QR3,New Delhi,110029,Delhi,IN,"https://www.google.com/maps/place/Safdarjung+Hospital+,+Mosque/data=!4m7!3m6!1s0x390ce27ae80335ff:0x83ef1df7330fe680!8m2!3d28.5668978!4d77.2045489!16s%2Fg%2F11df5r4r1z!19sChIJ_zUD6HriDDkRgOYPM_cd74M?authuser=0&hl=en&rclk=1","28.5668978,77.20454889999999"
Masjid Noor Jahan,Mosque,"M Block, Masjid Noor Jahan, Gali No. 8, 20 Futa Rd, Batla House, Jamia Nagar, Okhla, New Delhi, Delhi 110025","Batla House, Jamia Nagar, Okhla","M Block, Gali No. 8, 20 Futa Rd",New Delhi,110025,Delhi,IN,https://www.google.com/maps/place/Masjid+Noor+Jahan/data=!4m7!3m6!1s0x390ce477a83a42a3:0x238d467a80876843!8m2!3d28.5705705!4d77.2893055!16s%2Fg%2F11b6glzfvc!19sChIJo0I6qHfkDDkRQ2iHgHpGjSM?authuser=0&hl=en&rclk=1,"28.5705705,77.2893055"
Masjid Ahle Hadees Complex,Mosque,"Masjid Ahle Hadees Complex, Masjid Ahle Hadith, Abul Fazal Enclave Rd, Abul Fazal Enclave, Part-1 Block D, Jamia Nagar, Okhla, New Delhi, Delhi 110025","Abul Fazal Enclave, Part-1 Block D, Jamia Nagar, Okhla","Masjid Ahle Hadith, Abul Fazal Enclave Rd",New Delhi,110025,Delhi,IN,https://www.google.com/maps/place/Masjid+Ahle+Hadees+Complex/data=!4m7!3m6!1s0x390ce40c73baaaab:0x2df53bf54a754cc2!8m2!3d28.557614!4d77.2927269!16s%2Fg%2F11g7296y61!19sChIJq6q6cwzkDDkRwkx1SvU79S0?authuser=0&hl=en&rclk=1,"28.557613999999997,77.29272689999999"
Bismillah Masjid,Mosque,"Bismillah Masjid, haji colony, Jamia Nagar, New Delhi, Delhi 110025","Jamia Nagar, Jasola Vihar",haji colony,New Delhi,110025,Delhi,IN,https://www.google.com/maps/place/Bismillah+Masjid/data=!4m7!3m6!1s0x390ce3f693316c91:0xdafad66fc6bb5476!8m2!3d28.5533794!4d77.2830194!16s%2Fg%2F124yk_q_4!19sChIJkWwxk_bjDDkRdlS7xm_W-to?authuser=0&hl=en&rclk=1,"28.553379399999997,77.2830194"
"Sitara Masjid, Abul Fazal, New Delhi.",Mosque,"Sitara Masjid, Abul Fazal, New Delhi., Part 1, G 3, Abul Fazal Enclave Rd, Part 1 Abul Fazal Enclave, Block G, Jamia Nagar, Okhla, New Delhi, Delhi 110025","Abul Fazal Enclave Part 1, Part 1 Abul Fazal Enclave, Block G, Jamia Nagar, Okhla","Part 1, G 3, Abul Fazal Enclave Rd",New Delhi,110025,Delhi,IN,"https://www.google.com/maps/place/Sitara+Masjid,+Abul+Fazal,+New+Delhi./data=!4m7!3m6!1s0x390ce40eef01b2f9:0x7aafe71b234ab52c!8m2!3d28.5541142!4d77.2941962!16s%2Fg%2F11c0xyx2h5!19sChIJ-bIB7w7kDDkRLLVKIxvnr3o?authuser=0&hl=en&rclk=1","28.554114199999997,77.2941962"
Masjid Al Hidayah (Ahle Hadees),Mosque,"G8X3+83X Masjid Al Hidayah (Ahle Hadees), Thokar No 8, Shaheen Bagh, Jamia Nagar, Okhla, New Delhi, Delhi 110025","Thokar No 8, Shaheen Bagh, Jamia Nagar, Okhla",G8X3+83X,New Delhi,110025,Delhi,IN,https://www.google.com/maps/place/Masjid+Al+Hidayah+%28Ahle+Hadees%29/data=!4m7!3m6!1s0x390ce41a2d3fdd2f:0xb2247703c6448a76!8m2!3d28.548359!4d77.3027282!16s%2Fg%2F11g6rfqqmp!19sChIJL90_LRrkDDkRdopExgN3JLI?authuser=0&hl=en&rclk=1,"28.548358999999998,77.30272819999999"
Masjid Gharib Nawaz,Mosque,"Masjid Gharib Nawaz, Lane Number 4, I, G-95, Abul Fazal Enclave Rd, Jamia Nagar, Okhla, New Delhi, Delhi 110025","Part 1 Abul Fazal Enclave, Block L, Jamia Nagar, Okhla","Lane Number 4, I, G-95, Abul Fazal Enclave Rd",New Delhi,110025,Delhi,IN,https://www.google.com/maps/place/Masjid+Gharib+Nawaz/data=!4m7!3m6!1s0x390ce40e4647c9df:0x4ebd764bd7ab3249!8m2!3d28.5543078!4d77.2963136!16s%2Fg%2F11c1nrr849!19sChIJ38lHRg7kDDkRSTKr10t2vU4?authuser=0&hl=en&rclk=1,"28.5543078,77.29631359999999"
Masjid Umar ibn Khattab Ahle Hadees,Mosque,"G8X3+2R4 Masjid Umar ibn Khattab Ahle Hadees, Kalindi Kunj Rd, Shaheen Bagh, Jamia Nagar, Okhla, New Delhi, Delhi 110025","Shaheen Bagh, Jamia Nagar, Okhla","G8X3+2R4, Kalindi Kunj Rd",New Delhi,110025,Delhi,IN,https://www.google.com/maps/place/Masjid+Umar+ibn+Khattab+Ahle+Hadees/data=!4m7!3m6!1s0x390ce4196e33e035:0x7187e898e383e521!8m2!3d28.5475049!4d77.3045864!16s%2Fg%2F11ddwvd6j7!19sChIJNeAzbhnkDDkRIeWD45joh3E?authuser=0&hl=en&rclk=1,"28.5475049,77.30458639999999"
Makki Masjid,Mosque,"Makki Masjid, C-35, Nai Basti, Part 1 Abul Fazal Enclave, Block C, Jamia Nagar, Okhla, New Delhi, Delhi 110025","Nai Basti, Part 1 Abul Fazal Enclave, Block C, Jamia Nagar, Okhla",C-35,New Delhi,110025,Delhi,IN,https://www.google.com/maps/place/Makki+Masjid/data=!4m7!3m6!1s0x390ce40ceefcd8b9:0x427e642c03308c9!8m2!3d28.5599009!4d77.2941965!16s%2Fg%2F11cs6dsm2h!19sChIJudj87gzkDDkRyQgzwELmJwQ?authuser=0&hl=en&rclk=1,"28.5599009,77.2941965"
Masjid Chakkarwali,Mosque,"H6VV+J99 Masjid Chakkarwali, Dr Zakir Hussain Marg, Nizamuddin, National Zoological Park, Sundar Nagar, New Delhi, Delhi 110003","Nizamuddin, National Zoological Park, Sundar Nagar","H6VV+J99, Dr Zakir Hussain Marg",New Delhi,110003,Delhi,IN,https://www.google.com/maps/place/Masjid+Chakkarwali/data=!4m7!3m6!1s0x390ce31d01969b01:0xa554bb4cb707340e!8m2!3d28.5940396!4d77.2434789!16s%2Fg%2F1tg6nhqh!19sChIJAZuWAR3jDDkRDjQHt0y7VKU?authuser=0&hl=en&rclk=1,"28.5940396,77.2434789"
Shafiqur Rehman Kidwai (SRK) Masjid,Mosque,"H76J+3F6 Shafiqur Rehman Kidwai (SRK) Masjid, Jamia Millia Islamia, Centre for Management Studies Road, Ghaffar Manzil Colony, Jamia Nagar, Okhla, New Delhi, Delhi 110025","Ghaffar Manzil Colony, Jamia Nagar, Okhla","H76J+3F6, Jamia Millia Islamia, Centre for Management Studies Road",New Delhi,110025,Delhi,IN,https://www.google.com/maps/place/Shafiqur+Rehman+Kidwai+%28SRK%29+Masjid/data=!4m7!3m6!1s0x390ce3f4a8d13ce5:0x13f67291c782d9e5!8m2!3d28.5601615!4d77.2811481!16s%2Fg%2F1ptwdvbfx!19sChIJ5TzRqPTjDDkR5dmCx5Fy9hM?authuser=0&hl=en&rclk=1,"28.5601615,77.2811481"
Musa Masjid msjd mwsy,Mosque,"Musa Masjid msjd mwsy, 259 a 3, 259 A/3, New Delhi, Delhi 110025","Noor Nagar Extension, Jamia Nagar, Okhla","259 a 3, 259 A/3",New Delhi,110025,Delhi,IN,https://www.google.com/maps/place/Musa+Masjid+%D9%85%D8%B3%D8%AC%D8%AF+%D9%85%D9%88%D8%B3%DB%8C%D9%B0%E2%80%AD/data=!4m7!3m6!1s0x390ce40a9211a45d:0x9a9c5a86594557b8!8m2!3d28.5591025!4d77.287672!16s%2Fg%2F11b75dt08b!19sChIJXaQRkgrkDDkRuFdFWYZanJo?authuser=0&hl=en&rclk=1,"28.559102499999998,77.287672"
Al-Umar Mosque,Mosque,"H79R+39R Al-Umar Mosque, Batla House, Jamia Nagar, Okhla, New Delhi, Delhi 110025","Batla House, Jamia Nagar, Okhla",H79R+39R,New Delhi,110025,Delhi,IN,https://www.google.com/maps/place/Al-Umar+Mosque/data=!4m7!3m6!1s0x390ce476a2420ddb:0xf412a14b2b16db8!8m2!3d28.5677319!4d77.290889!16s%2Fg%2F1232z26jl!19sChIJ2w1ConbkDDkRuG2xshQqQQ8?authuser=0&hl=en&rclk=1,"28.5677319,77.29088899999999"
"Madina Masjid, (Taimoor Nagar)",Mosque,"Madina Masjid, (Taimoor Nagar), Eastern Ave, Navjivan Buddh Vihar, Taimoor Nagar, New Friends Colony, New Delhi, Delhi 110065","Navjivan Buddh Vihar, Taimoor Nagar, New Friends Colony",Eastern Ave,New Delhi,110065,Delhi,IN,"https://www.google.com/maps/place/Madina+Masjid,+%28Taimoor+Nagar%29/data=!4m7!3m6!1s0x390ce399d9e6bd8f:0x6622dfbd719955e2!8m2!3d28.5710148!4d77.2667923!16s%2Fg%2F11bw4vwdng!19sChIJj73m2ZnjDDkR4lWZcb3fImY?authuser=0&hl=en&rclk=1","28.5710148,77.26679229999999"
Ayesha Masjid,Mosque,"H78M+62G Ayesha Masjid, Mehboob Nagar, Ghafoor Nagar, Okhla, New Delhi, Delhi 110025","Mehboob Nagar, Ghafoor Nagar, Okhla",H78M+62G,New Delhi,110025,Delhi,IN,https://www.google.com/maps/place/Ayesha+Masjid/data=!4m7!3m6!1s0x390ce38bc47c1519:0xb75965c678f858cd!8m2!3d28.5655544!4d77.2825655!16s%2Fg%2F11g9npt8jr!19sChIJGRV8xIvjDDkRzVj4eMZlWbc?authuser=0&hl=en&rclk=1,"28.5655544,77.28256549999999"
Masjid Alishan `lyshn msjd,Mosque,"H74P+4C2 Masjid Alishan `lyshn msjd, Ajmal Bagh, Noor Nagar Extn I, Noor Nagar, Okhla, New Delhi, Delhi 110025","Ajmal Bagh, Noor Nagar Extn I, Noor Nagar, Okhla",H74P+4C2,New Delhi,110025,Delhi,IN,https://www.google.com/maps/place/Masjid+Alishan+%D8%B9%D8%A7%D9%84%DB%8C%D8%B4%D8%A7%D9%86+%D9%85%D8%B3%D8%AC%D8%AF%E2%80%AD/data=!4m7!3m6!1s0x390ce3f602454533:0xcfc3736868fe546a!8m2!3d28.5552743!4d77.2860168!16s%2Fg%2F1ptvvnp64!19sChIJM0VFAvbjDDkRalT-aGhzw88?authuser=0&hl=en&rclk=1,"28.555274299999997,77.2860168"
Jama masjid,Mosque,"Jama masjid, Metro station, Giri Nagar, Maa Anandmayee Marg, near Govindpuri, Kalkaji, New Delhi, Delhi 110019","Ami Chand Khand, Block AC, Giri Nagar, Kalkaji","Metro station, Giri Nagar, Maa Anandmayee Marg, near Govindpuri",New Delhi,110019,Delhi,IN,https://www.google.com/maps/place/Jama+masjid/data=!4m7!3m6!1s0x390ce3915ddf4023:0xc0785bd0f9e63fa0!8m2!3d28.5435534!4d77.2644385!16s%2Fg%2F11fj32cs9z!19sChIJI0DfXZHjDDkRoD_m-dBbeMA?authuser=0&hl=en&rclk=1,"28.5435534,77.2644385"
Jama Masjid (Batla House),Mosque,"H, Jama Masjid (Batla House), 334, 7, Street Number 6, Batla House, Okhla, New Delhi, Delhi 110025","Jamia, Batla House, Jamia Nagar, Okhla","H, 334, 7, Street Number 6",New Delhi,110025,Delhi,IN,https://www.google.com/maps/place/Jama+Masjid+%28Batla+House%29/data=!4m7!3m6!1s0x390ce3207d46fe8f:0xe6bf4d1a3f6d4108!8m2!3d28.5661636!4d77.2851632!16s%2Fg%2F11llyqcllh!19sChIJj_5GfSDjDDkRCEFtPxpNv-Y?authuser=0&hl=en&rclk=1,"28.5661636,77.2851632"
Madina Masjid,Mosque,"J8G3+F8P Madina Masjid, Block D, West Vinod Nagar, Delhi, 110092","Block D, West Vinod Nagar",J8G3+F8P,Delhi,110092,Delhi,IN,https://www.google.com/maps/place/Madina+Masjid/data=!4m7!3m6!1s0x390ce4b3fc381921:0xf5eafa6ae8c58ae9!8m2!3d28.6262041!4d77.303319!16s%2Fg%2F11b8_ppmjm!19sChIJIRk4_LPkDDkR6YrF6Gr66vU?authuser=0&hl=en&rclk=1,"28.6262041,77.303319"
Muhammadi Masjid,Mosque,"H74M+5RP Muhammadi Masjid, Street Number 12, Ghaffar Manzil Colony, Jamia Nagar, Okhla, New Delhi, Delhi 110025","Ghaffar Manzil Colony, Jamia Nagar, Okhla","H74M+5RP, Street Number 12",New Delhi,110025,Delhi,IN,https://www.google.com/maps/place/Muhammadi+Masjid/data=!4m7!3m6!1s0x390ce3f5d6d27a8f:0x9bb0c5ffba04ae9e!8m2!3d28.555462!4d77.2845884!16s%2Fg%2F12hk8llv8!19sChIJj3rS1vXjDDkRnq4Euv_FsJs?authuser=0&hl=en&rclk=1,"28.555462,77.28458839999999"
Dargah And Masjid Hazrat Sayyad Mehmood Bahar,Mosque,"H7H7+C9R Dargah And Masjid Hazrat Sayyad Mehmood Bahar, Kilokari Village, Ashram, New Delhi, Delhi 110014","Kilokri, Phase 1, Sunlight Colony","H7H7+C9R, Kilokari Village, Ashram",New Delhi,110014,Delhi,IN,https://www.google.com/maps/place/Dargah+And+Masjid+Hazrat+Sayyad+Mehmood+Bahar/data=!4m7!3m6!1s0x390ce3a1d66cc49d:0x7a0754d82e80769b!8m2!3d28.5786118!4d77.2634047!16s%2Fg%2F11cmn94kds!19sChIJncRs1qHjDDkRm3aALthUB3o?authuser=0&hl=en&rclk=1,"28.578611799999997,77.2634047"
Madina Masjid,Mosque,"K, Madina Masjid, 5, Madina Gali, Abul Fazal Enclave Part 1, Abul Fazal Enclave Part 2, Jamia Nagar, Okhla, New Delhi, Delhi 110025","Abul Fazal Enclave Part 1, Abul Fazal Enclave Part 2, Jamia Nagar, Okhla","K, 5, Madina Gali",New Delhi,110025,Delhi,IN,https://www.google.com/maps/place/Madina+Masjid/data=!4m7!3m6!1s0x390ce40fd329ae0b:0x19d6903f5be88561!8m2!3d28.553501!4d77.2974484!16s%2Fg%2F11clgb9m9d!19sChIJC64p0w_kDDkRYYXoWz-Q1hk?authuser=0&hl=en&rclk=1,"28.553500999999997,77.2974484"
Masjid Noor msjd nwr,Mosque,"Masjid Noor msjd nwr, 5/9, Jangpura-B, Bhogal, New Delhi, Delhi 110094","Jangpura, Block C, Jangpura B","5/9, Jangpura-B, Bhogal",New Delhi,110094,Delhi,IN,https://www.google.com/maps/place/Masjid+Noor+%D9%85%D8%B3%D8%AC%D8%AF+%D9%86%D9%88%D8%B1%E2%80%AD/data=!4m7!3m6!1s0x390ce306799408ef:0x22af0c13d93ce5d3!8m2!3d28.586252!4d77.249547!16s%2Fg%2F11bxg01h_w!19sChIJ7wiUeQbjDDkR0-U82RMMryI?authuser=0&hl=en&rclk=1,"28.586251999999998,77.24954699999999"
Gandhi Nagar Madina Masjid,Mosque,"Gandhi Nagar Madina Masjid, G1853, Multani Mohalla, Gandhi Nagar, Seelampur, Shahdara, New Delhi, Delhi, 110031","Multani Mohalla, Gandhi Nagar, Seelampur, Shahdara",G1853,"New Delhi, Delhi",110031,Delhi,IN,https://www.google.com/maps/place/Gandhi+Nagar+Madina+Masjid/data=!4m7!3m6!1s0x390cfdb3ff4e65ed:0x3e698580608c94fd!8m2!3d28.657263!4d77.2630734!16s%2Fg%2F11g0l47wp9!19sChIJ7WVO_7P9DDkR_ZSMYICFaT4?authuser=0&hl=en&rclk=1,"28.657263,77.2630734"
Char Minar Masjid,Mosque,"Char Minar Masjid, Abul Fazal Enclave, Abul Fazal Enclave Road, 4, Hari Kothi Rd, Part 1 Abul Fazal Enclave, Block F, Jamia Nagar, Okhla, New Delhi, Delhi 110025","Abul Fazal Enclave Part 1, Part 1 Abul Fazal Enclave, Block F, Jamia Nagar, Okhla","Abul Fazal Enclave, Abul Fazal Enclave Road, 4, Hari Kothi Rd",New Delhi,110025,Delhi,IN,https://www.google.com/maps/place/Char+Minar+Masjid/data=!4m7!3m6!1s0x390ce5bc3abb1ea3:0x48412f6bceb33!8m2!3d28.5549965!4d77.295078!16s%2Fg%2F11lm2hmzft!19sChIJox67OrzlDDkRM-u89hKEBAA?authuser=0&hl=en&rclk=1,"28.554996499999998,77.29507799999999"
Mohammadi Masjid msjd mHmdy,Mosque,"Mohammadi Masjid msjd mHmdy, H834, Narayan Nagar, Laxmi Nagar, New Delhi, Delhi, 110092","Narayan Nagar, Laxmi Nagar",H834,"New Delhi, Delhi",110092,Delhi,IN,https://www.google.com/maps/place/Mohammadi+Masjid+%D9%85%D8%B3%D8%AC%D8%AF+%D9%85%D8%AD%D9%85%D8%AF%DB%8C%E2%80%AD/data=!4m7!3m6!1s0x390cfcb3d4737a4f:0x9962a808a391708d!8m2!3d28.6339702!4d77.2718636!16s%2Fg%2F11f3xz2hzb!19sChIJT3pz1LP8DDkRjXCRowioYpk?authuser=0&hl=en&rclk=1,"28.6339702,77.2718636"
Madrasa Qadriya Raza - E- Mustafa msjd,Mosque,"Madrasa Qadriya Raza - E- Mustafa msjd, J.J Colony, Near Naya Baria, Sector 16, Gautham Budh Nagar, Noida, Uttar Pradesh 201301","Gautam Budh Nagar, A Block, Sector 16","J.J Colony, Near Naya Baria, Sector 16, Gautham Budh Nagar",Noida,201301,Uttar Pradesh,IN,https://www.google.com/maps/place/Madrasa+Qadriya+Raza+-+E-+Mustafa+%D9%85%D8%B3%D8%AC%D8%AF%E2%80%AD/data=!4m7!3m6!1s0x390ce45cf95d7ff3:0xeed67e6807e0b392!8m2!3d28.577611!4d77.312788!16s%2Fg%2F11bxfy3xyw!19sChIJ839d-VzkDDkRkrPgB2h-1u4?authuser=0&hl=en&rclk=1,"28.577610999999997,77.312788"
Masjid Ahad msjd Hd,Mosque,"H73R+RR9 Masjid Ahad msjd Hd, C35 /A, Okhla Vihar Main Rd, Okhla Vihar, Okhla Vihar, Block C, Jamia Nagar, Okhla, New Delhi, Delhi 110025","Okhla Vihar, Okhla Vihar, Block C, Jamia Nagar, Okhla","H73R+RR9, C35 /A, Okhla Vihar Main Rd",New Delhi,110025,Delhi,IN,https://www.google.com/maps/place/Masjid+Ahad+%D9%85%D8%B3%D8%AC%D8%AF+%D8%A7%D8%AD%D8%AF%E2%80%AD/data=!4m7!3m6!1s0x390ce40931dfd3cd:0x3136d0d41ecf6789!8m2!3d28.5537242!4d77.2917823!16s%2Fg%2F11g6bptfv3!19sChIJzdPfMQnkDDkRiWfPHtTQNjE?authuser=0&hl=en&rclk=1,"28.553724199999998,77.2917823"
Tayyiba Masjid,Mosque,"H79J+768 Tayyiba Masjid, Street Number 12, Jogabai Extension, Zakir Nagar, Okhla, New Delhi, Delhi 110025","Jogabai Extension, Zakir Nagar, Okhla","H79J+768, Street Number 12",New Delhi,110025,Delhi,IN,https://www.google.com/maps/place/Tayyiba+Masjid/data=!4m7!3m6!1s0x390ce38ec9213115:0xab7c6b478fb01bca!8m2!3d28.5681551!4d77.2805765!16s%2Fg%2F11f39nzy8x!19sChIJFTEhyY7jDDkRyhuwj0drfKs?authuser=0&hl=en&rclk=1,"28.5681551,77.2805765"
Firdaus Masjid,Mosque,"Firdaus Masjid, Firdaus Masjid B - 77, near Shaheen Bagh, Jamia Nagar, Okhla, New Delhi, Delhi 110025","Shaheen Bagh, Jamia Nagar, Okhla","Firdaus Masjid B - 77, near Shaheen Bagh",New Delhi,110025,Delhi,IN,https://www.google.com/maps/place/Firdaus+Masjid/data=!4m7!3m6!1s0x390ce5506da04915:0xe54513a5789d864a!8m2!3d28.5483328!4d77.3008967!16s%2Fg%2F11p67f9kvy!19sChIJFUmgbVDlDDkRSoadeKUTReU?authuser=0&hl=en&rclk=1,"28.548332799999997,77.3008967"
Bilal Masjid msjd bll,Mosque,"Bilal Masjid msjd bll, Bilal Masjid, 3, Street No 29, D Block, Abul Fazal Enclave, Part-1 Block D, Jamia Nagar, Okhla, New Delhi, Delhi 110025","D Block, Abul Fazal Enclave, Part-1 Block D, Jamia Nagar, Okhla","Bilal Masjid, 3, Street No 29",New Delhi,110025,Delhi,IN,https://www.google.com/maps/place/Bilal+Masjid+%D9%85%D8%B3%D8%AC%D8%AF+%D8%A8%D9%84%D8%A7%D9%84%E2%80%AD/data=!4m7!3m6!1s0x390ce50f2af84891:0x3bc522ba8b7bd90a!8m2!3d28.5583498!4d77.2940393!16s%2Fg%2F11hdwgl3f4!19sChIJkUj4Kg_lDDkRCtl7i7oixTs?authuser=0&hl=en&rclk=1,"28.5583498,77.2940393"
"Noorani Masjid, (Zakir Nagar)",Mosque,"H7CH+9VG Noorani Masjid, (Zakir Nagar), Gali Number 39, Zakir Nagar, New Friends Colony, New Delhi, Delhi 110025","Zakir Nagar, New Friends Colony","H7CH+9VG, Gali Number 39",New Delhi,110025,Delhi,IN,"https://www.google.com/maps/place/Noorani+Masjid,+%28Zakir+Nagar%29/data=!4m7!3m6!1s0x390ce38f45a96e4d:0x7eeaca0dd75db25d!8m2!3d28.5709494!4d77.2796972!16s%2Fg%2F1hm5b98b0!19sChIJTW6pRY_jDDkRXbJd1w3K6n4?authuser=0&hl=en&rclk=1","28.5709494,77.2796972"
Madina Masjid,Mosque,"Madina Masjid, Dr Zakir Hussain Marg, Nizamuddin, National Zoological Park, Sundar Nagar, New Delhi, Delhi 110003","Nizamuddin, National Zoological Park, Sundar Nagar",Dr Zakir Hussain Marg,New Delhi,110003,Delhi,IN,https://www.google.com/maps/place/Madina+Masjid/data=!4m7!3m6!1s0x390ce31dca10a665:0x59c32740440024f5!8m2!3d28.595768!4d77.243076!16s%2Fg%2F12hmp6_cf!19sChIJZaYQyh3jDDkR9SQAREAnw1k?authuser=0&hl=en&rclk=1,"28.595768,77.243076"
Hari Masjid,Mosque,"H79P+HHV Hari Masjid, Nafees Rd, in front of Sunrise Public School, near al nuur msjid, Jamia, Jogabai Extension, Jamia Nagar, OkhlaNew, New Delhi, Delhi 110025","Jamia, Jogabai Extension, Jamia Nagar, OkhlaNew","H79P+HHV, Nafees Rd, in front of Sunrise Public School, near al nuur msjid",New Delhi,110025,Delhi,IN,https://www.google.com/maps/place/Hari+Masjid/data=!4m7!3m6!1s0x390ce5dce79218c1:0x9213fdfc89552e2d!8m2!3d28.5689866!4d77.2864104!16s%2Fg%2F11trg3c634!19sChIJwRiS59zlDDkRLS5Vifz9E5I?authuser=0&hl=en&rclk=1,"28.5689866,77.2864104"
Shashtri Nagar Masjid msjd,Mosque,"J7VC+5XC Shashtri Nagar Masjid msjd, New Lahore Munshi Colony, Geeta Colony, New Delhi, Delhi, 110031","New Lahore Munshi Colony, Geeta Colony",J7VC+5XC,"New Delhi, Delhi",110031,Delhi,IN,https://www.google.com/maps/place/Shashtri+Nagar+Masjid+%D9%85%D8%B3%D8%AC%D8%AF%E2%80%AD/data=!4m7!3m6!1s0x390cfcbafe2026f1:0x9885f9c07e43925e!8m2!3d28.6429323!4d77.2723918!16s%2Fg%2F11f15jz2l5!19sChIJ8SYg_rr8DDkRXpJDfsD5hZg?authuser=0&hl=en&rclk=1,"28.6429323,77.2723918"
Jama Masjid,Mosque,"Jama Masjid, F-132, Kalindi Kunj Rd, Abul Fazal Enclave Part 1, Part 1 Abul Fazal Enclave, Block C, Jamia Nagar, Okhla, New Delhi, Delhi 110025","Abul Fazal Enclave Part 1, Part 1 Abul Fazal Enclave, Block C, Jamia Nagar, Okhla","F-132, Kalindi Kunj Rd",New Delhi,110025,Delhi,IN,https://www.google.com/maps/place/Jama+Masjid/data=!4m7!3m6!1s0x390ce474fc283e6d:0xbf47a3d3e25a4cad!8m2!3d28.560132!4d77.294788!16s%2Fg%2F12hkzr6p1!19sChIJbT4o_HTkDDkRrUxa4tOjR78?authuser=0&hl=en&rclk=1,"28.560132,77.294788"
Charminar masjid F41A,Mosque,"Charminar masjid F41A, F41 A Abul Fazal Enclave Part 1, Part 1 Abul Fazal Enclave, Block K, Jamia Nagar, Okhla, New Delhi, Delhi 110025","Abul Fazal Enclave Part 1, Part 1 Abul Fazal Enclave, Block K, Jamia Nagar, Okhla",F41 A Abul Fazal Enclave Part 1,New Delhi,110025,Delhi,IN,https://www.google.com/maps/place/Charminar+masjid+F41A/data=!4m7!3m6!1s0x390ce5d69a9ce14f:0xd047f25ea028f0d0!8m2!3d28.5549859!4d77.2949693!16s%2Fg%2F11fmb8ztfz!19sChIJT-GcmtblDDkR0PAooF7yR9A?authuser=0&hl=en&rclk=1,"28.5549859,77.29496929999999"
Khanqah-Masjid Asrariya,Mosque,"H79H+WRC Khanqah-Masjid Asrariya, habibGali, Street Number 22, Jogabai Extension, Okhla, New Delhi, Delhi 110025","Jogabai Extension, Zakir Nagar, Okhla","H79H+WRC, habibGali, Street Number 22",New Delhi,110025,Delhi,IN,https://www.google.com/maps/place/Khanqah-Masjid+Asrariya/data=!4m7!3m6!1s0x390ce38f21591539:0x1797f72d25fa1858!8m2!3d28.5698064!4d77.2795215!16s%2Fg%2F11gclyn71q!19sChIJORVZIY_jDDkRWBj6JS33lxc?authuser=0&hl=en&rclk=1,"28.569806399999997,77.2795215"
Masjid Aysha,Mosque,"H79J+PCW Masjid Aysha, Jogabai Extension, Zakir Nagar, Okhla, New Delhi, Delhi 110025","Jogabai Extension, Zakir Nagar, Okhla",H79J+PCW,New Delhi,110025,Delhi,IN,https://www.google.com/maps/place/Masjid+Aysha/data=!4m7!3m6!1s0x390ce388d5d2da9f:0x4a0f18f5383aa3d!8m2!3d28.5693712!4d77.2810653!16s%2Fg%2F11dxs8s30n!19sChIJn9rS1YjjDDkRPaqDU4_xoAQ?authuser=0&hl=en&rclk=1,"28.5693712,77.2810653"
Malviya Nagar Kali Masjid,Religious destination,"Malviya Nagar Kali Masjid, Kali Masjid, Sadhna Enclave, Malviya Nagar, New Delhi, Delhi 110017","Sadhna Enclave, Malviya Nagar",Kali Masjid,New Delhi,110017,Delhi,IN,https://www.google.com/maps/place/Malviya+Nagar+Kali+Masjid/data=!4m7!3m6!1s0x390ce35c992ff369:0x740e4b71234848fa!8m2!3d28.5397492!4d77.2169384!16s%2Fg%2F11h0_lj3_g!19sChIJafMvmVzjDDkR-khII3FLDnQ?authuser=0&hl=en&rclk=1,"28.5397492,77.21693839999999"
Masjid,Mosque,"H769+P87 Masjid, Block A, Friends Colony East, New Friends Colony, New Delhi, Delhi 110025","Block A, Friends Colony East, New Friends Colony",H769+P87,New Delhi,110025,Delhi,IN,https://www.google.com/maps/place/Masjid/data=!4m7!3m6!1s0x390ce3a3874c1a6d:0x3777b5148e43553a!8m2!3d28.5617917!4d77.2683072!16s%2Fg%2F11grc87l61!19sChIJbRpMh6PjDDkROlVDjhS1dzc?authuser=0&hl=en&rclk=1,"28.561791699999997,77.2683072"
Bait Ul Noor Masjid,Mosque,"Bait Ul Noor Masjid, Indira Gandhi Camp - 1, Block D, Taimoor Nagar, New Friends Colony, New Delhi, Delhi 110025","Block D, Taimoor Nagar, New Friends Colony",Indira Gandhi Camp - 1,New Delhi,110025,Delhi,IN,https://www.google.com/maps/place/Bait+Ul+Noor+Masjid/data=!4m7!3m6!1s0x390ce3b63c45baf3:0xfa4011e6f94af5dc!8m2!3d28.5687986!4d77.2677099!16s%2Fg%2F11g0_nymdb!19sChIJ87pFPLbjDDkR3PVK-eYRQPo?authuser=0&hl=en&rclk=1,"28.568798599999997,77.2677099"
Masjid Ghaffar (Ahl-e-Hadees),Mosque,"Masjid Ghaffar (Ahl-e-Hadees), P-102, Block P, Batla House, Okhla, New Delhi, Delhi 110025","Block P, Batla House, Okhla",P-102,New Delhi,110025,Delhi,IN,https://www.google.com/maps/place/Masjid+Ghaffar+%28Ahl-e-Hadees%29/data=!4m7!3m6!1s0x390ce5f38957cde3:0x573e5c67ce07d2a8!8m2!3d28.5708158!4d77.287928!16s%2Fg%2F11ql65ls0c!19sChIJ481XifPlDDkRqNIHzmdcPlc?authuser=0&hl=en&rclk=1,"28.5708158,77.287928"
JAMA MASJID UMAR BIN KHATTAB,Mosque,"G8W3+XWV JAMA MASJID UMAR BIN KHATTAB, Kalindi Kunj Rd, Block H, Jamia Nagar, Okhla, New Delhi, Delhi 110025","Block H, Jamia Nagar, Okhla","G8W3+XWV, Kalindi Kunj Rd",New Delhi,110025,Delhi,IN,https://www.google.com/maps/place/JAMA+MASJID+UMAR+BIN+KHATTAB/data=!4m7!3m6!1s0x390ce51eb7ea0bfd:0xe968824c610cc265!8m2!3d28.5474867!4d77.3047909!16s%2Fg%2F11h7p6jtqd!19sChIJ_Qvqtx7lDDkRZcIMYUyCaOk?authuser=0&hl=en&rclk=1,"28.5474867,77.3047909"
Masjid Ziya Fatima F-17/6,Mosque,"H79P+54X Masjid Ziya Fatima F-17/6, Qamar St, Block F, Joga Bai Extension, Okhla, New Delhi, Delhi 110025","Block F, Joga Bai Extension, Okhla","H79P+54X, Qamar St",New Delhi,110025,Delhi,IN,https://www.google.com/maps/place/Masjid+Ziya+Fatima+F-17%2F6/data=!4m7!3m6!1s0x390ce3808e61549f:0xfdab33b336ace69c!8m2!3d28.5679916!4d77.2853694!16s%2Fg%2F11ffv26yxj!19sChIJn1RhjoDjDDkRnOasNrMzq_0?authuser=0&hl=en&rclk=1,"28.5679916,77.2853694"
Madina Masjid,Mosque,"Madina Masjid, Lane 8, Ghaffar Manzil Rd, Ghaffar Manzil Colony, Jamia Nagar, Okhla, New Delhi, Delhi 110025","Ghaffar Manzil Colony, Jamia Nagar, Okhla","Lane 8, Ghaffar Manzil Rd",New Delhi,110025,Delhi,IN,https://www.google.com/maps/place/Madina+Masjid/data=!4m7!3m6!1s0x390ce377a2178ffd:0x965c9035cd820d7d!8m2!3d28.5563833!4d77.2831429!16s%2Fg%2F11l7lspn0p!19sChIJ_Y8XonfjDDkRfQ2CzTWQXJY?authuser=0&hl=en&rclk=1,"28.5563833,77.2831429"
Kilokri Masjid,Religious destination,"H7H7+C8X Kilokri Masjid, Jiwan Nagar, Kilokri, Friends Colony East, Sunlight Colony, New Delhi, Delhi 110014","Jiwan Nagar, Kilokri, Friends Colony East, Sunlight Colony",H7H7+C8X,New Delhi,110014,Delhi,IN,https://www.google.com/maps/place/Kilokri+Masjid/data=!4m7!3m6!1s0x390ce30032c45d91:0xbeb7bb79b590cdb1!8m2!3d28.5786008!4d77.2633601!16s%2Fg%2F11h12kdtlx!19sChIJkV3EMgDjDDkRsc2QtXm7t74?authuser=0&hl=en&rclk=1,"28.5786008,77.2633601"
Masjid,Mosque,"H77Q+868 Masjid, Okhla Village, Okhla, New Delhi, Delhi 110025","Okhla Village, Okhla",H77Q+868,New Delhi,110025,Delhi,IN,https://www.google.com/maps/place/Masjid/data=!4m7!3m6!1s0x390ce47512f7aa2b:0x544337a9b9e5d7a2!8m2!3d28.5632814!4d77.2880932!16s%2Fg%2F11gbtpj5td!19sChIJK6r3EnXkDDkRotfluak3Q1Q?authuser=0&hl=en&rclk=1,"28.563281399999997,77.28809319999999"
Masjid gandhi nagar,Mosque,"Masjid gandhi nagar, 6785A, Kailash Nagar, Gyan Nagar, Seelampur, Shahdara, New Delhi, Delhi, 110031","Kailash Nagar, Gyan Nagar, Seelampur, Shahdara",6785A,"New Delhi, Delhi",110031,Delhi,IN,https://www.google.com/maps/place/Masjid+gandhi+nagar/data=!4m7!3m6!1s0x390cfd352df8a669:0x97ffa44e28ef95ba!8m2!3d28.6638173!4d77.264023!16s%2Fg%2F11pqvsjxyr!19sChIJaab4LTX9DDkRupXvKE6k_5c?authuser=0&hl=en&rclk=1,"28.663817299999998,77.264023"
Masjid Noor msjd nwr,Mosque,"H74P+PHC Masjid Noor msjd nwr, Ajmal Bagh, Noor Nagar Extension, Noor Nagar, Okhla, New Delhi, Delhi 110025","Ajmal Bagh, Noor Nagar Extension, Noor Nagar, Okhla",H74P+PHC,New Delhi,110025,Delhi,IN,https://www.google.com/maps/place/Masjid+Noor+%D9%85%D8%B3%D8%AC%D8%AF+%D9%86%D9%88%D8%B1%E2%80%AD/data=!4m7!3m6!1s0x390ce37ce6d300d5:0x808f9d780ec51d19!8m2!3d28.5568118!4d77.2863907!16s%2Fg%2F11sbd_p0hp!19sChIJ1QDT5nzjDDkRGR3FDnidj4A?authuser=0&hl=en&rclk=1,"28.5568118,77.2863907"
"Madina Masjid, Joga Bai",Mosque,"H78M+Q2R Madina Masjid, Joga Bai, Mehboob Nagar, Jogabai Extension, Zakir Nagar, Okhla, New Delhi, Delhi 110025","Mehboob Nagar, Jogabai Extension, Zakir Nagar, Okhla",H78M+Q2R,New Delhi,110025,Delhi,IN,"https://www.google.com/maps/place/Madina+Masjid,+Joga+Bai/data=!4m7!3m6!1s0x390ce31e02c32c1f:0x5b956b1b13623997!8m2!3d28.5669943!4d77.2825132!16s%2Fg%2F11j2ld8th8!19sChIJHyzDAh7jDDkRlzliExtrlVs?authuser=0&hl=en&rclk=1","28.566994299999998,77.2825132"
Mumtaz Masjid,Mosque,"H79Q+MFC Mumtaz Masjid, Batla House, Jamia Nagar, Okhla, New Delhi, Delhi 110025","Batla House, Jamia Nagar, Okhla",H79Q+MFC,New Delhi,,Delhi,IN,https://www.google.com/maps/place/Mumtaz+Masjid/data=!4m7!3m6!1s0x390ce51ea4a1764d:0x7975b3d87786376a!8m2!3d28.5691957!4d77.2886424!16s%2Fg%2F11k3j1s_k9!19sChIJTXahpB7lDDkRajeGd9izdXk?authuser=0&hl=en&rclk=1,"28.569195699999998,77.2886424"
Masjid -ul- Huda,Mosque,"Masjid -ul- Huda, Ghaffar Manzil Colony, Jamia Nagar, Okhla, New Delhi, Delhi 110025","Ghaffar Manzil Colony, Jamia Nagar, Okhla",,New Delhi,110025,Delhi,IN,https://www.google.com/maps/place/Masjid+-ul-+Huda/data=!4m7!3m6!1s0x390ce366343059d7:0xa0f02fd58939dd8c!8m2!3d28.5570011!4d77.2828061!16s%2Fg%2F11rqhr3cqm!19sChIJ11kwNGbjDDkRjN05idUv8KA?authuser=0&hl=en&rclk=1,"28.557001099999997,77.2828061"
Ek Minar Masjid,Mosque,"G8X2+W7P Ek Minar Masjid, Shaheen Bagh, Jamia Nagar, Jasola, New Delhi, Delhi 110020","Shaheen Bagh, Jamia Nagar, Jasola",G8X2+W7P,New Delhi,110020,Delhi,IN,https://www.google.com/maps/place/Ek+Minar+Masjid/data=!4m7!3m6!1s0x390ce41a8a36aaab:0xf77582e08859e0b8!8m2!3d28.549828!4d77.3006936!16s%2Fg%2F11txmzfhwm!19sChIJq6o2ihrkDDkRuOBZiOCCdfc?authuser=0&hl=en&rclk=1,"28.549827999999998,77.3006936"
Noori Jama Masjid.,Mosque,"H8V6+R83 Noori Jama Masjid., Block D, New Ashok Nagar, Nihalapur, Delhi, 222181","Block D, New Ashok Nagar",H8V6+R83,"Nihalapur, Delhi",222181,Delhi,IN,https://www.google.com/maps/place/Noori+Jama+Masjid./data=!4m7!3m6!1s0x390ce5706df45c8b:0xeede4d09e6d81cab!8m2!3d28.594504!4d77.310798!16s%2Fg%2F11llhfgbyf!19sChIJi1z0bXDlDDkRqxzY5glN3u4?authuser=0&hl=en&rclk=1,"28.594503999999997,77.31079799999999"
Khursheed Masjid,Mosque,"Khursheed Masjid, D 17, Thokar No 8, Block C, Jamia Nagar, Okhla, New Delhi, Delhi 110025","Thokar No 8, Block C, Jamia Nagar, Okhla",D 17,New Delhi,110025,Delhi,IN,https://www.google.com/maps/place/Khursheed+Masjid/data=!4m7!3m6!1s0x390ce526eeb26a01:0x4942915bfad8187!8m2!3d28.5476974!4d77.3006104!16s%2Fg%2F11j97xp9l9!19sChIJAWqy7iblDDkRh4GtvxUplAQ?authuser=0&hl=en&rclk=1,"28.547697399999997,77.3006104"
Noori Raza Masjid / Prem Nagar Masjid,Mosque,"G73H+92F Noori Raza Masjid / Prem Nagar Masjid, Prem Nagar, Lal Kuan, New Delhi, Delhi 110044","Prem Nagar, Lal Kuan",G73H+92F,New Delhi,110044,Delhi,IN,https://www.google.com/maps/place/Noori+Raza+Masjid+%2F+Prem+Nagar+Masjid/data=!4m7!3m6!1s0x390ce124a6260163:0x7147d0c5430ce596!8m2!3d28.5034261!4d77.2775715!16s%2Fg%2F11rhf1lncf!19sChIJYwEmpiThDDkRluUMQ8XQR3E?authuser=0&hl=en&rclk=1,"28.5034261,77.2775715"
Masjid Tariq Ul Saqib,Mosque,"H72X+XVH Masjid Tariq Ul Saqib, Abul Fazal Enclave Part 2, Jamia Nagar, Okhla, New Delhi, Delhi 110025","Abul Fazal Enclave Part 2, Jamia Nagar, Okhla",H72X+XVH,New Delhi,110025,Delhi,IN,https://www.google.com/maps/place/Masjid+Tariq+Ul+Saqib/data=!4m7!3m6!1s0x390ce5f89a22443d:0x7f1f8010c76175ea!8m2!3d28.5524415!4d77.2997285!16s%2Fg%2F11pdr6sc4g!19sChIJPUQimvjlDDkR6nVhxxCAH38?authuser=0&hl=en&rclk=1,"28.5524415,77.2997285"
MASJID KAKA NAGAR,Mosque,"MASJID KAKA NAGAR, 42, Kaka Nagar, India Gate, New Delhi, Delhi 110003","Kaka Nagar, India Gate",42,New Delhi,110003,Delhi,IN,https://www.google.com/maps/place/MASJID+KAKA+NAGAR/data=!4m7!3m6!1s0x390ce395de4f7677:0xdbf7bd7ae8213e4c!8m2!3d28.6043272!4d77.2368227!16s%2Fg%2F11s2r4m5_3!19sChIJd3ZP3pXjDDkRTD4h6Hq999s?authuser=0&hl=en&rclk=1,"28.6043272,77.23682269999999"
Masjid Ameer Khusro msjd myr khsrw,Mosque,"Masjid Ameer Khusro msjd myr khsrw, T-558, Khusro Nagar, Basti Hazrat, Nizamuddin, New Delhi, 110013","Nizamuddin, Nizammudin West Slum, Nizamuddin West","T-558, Khusro Nagar, Basti Hazrat",New Delhi,110013,Delhi,IN,https://www.google.com/maps/place/Masjid+Ameer+Khusro+%D9%85%D8%B3%D8%AC%D8%AF+%D8%A7%D9%85%DB%8C%D8%B1+%D8%AE%D8%B3%D8%B1%D9%88%E2%80%AD/data=!4m7!3m6!1s0x390ce3dbd32f07c7:0xc1307720af7d507b!8m2!3d28.5910005!4d77.2418394!16s%2Fg%2F11h6mdlh26!19sChIJxwcv09vjDDkRe1B9ryB3MME?authuser=0&hl=en&rclk=1,"28.5910005,77.2418394"
Mosque,Mosque,"H77M+WWG Mosque, Jamia Nagar, Okhla, New Delhi, Delhi 110025","Jamia Nagar, Okhla",H77M+WWG,New Delhi,110025,Delhi,IN,https://www.google.com/maps/place/Mosque/data=!4m7!3m6!1s0x390ce3056adf2343:0x8df512d7aa631433!8m2!3d28.5648133!4d77.2848259!16s%2Fg%2F11n16y696z!19sChIJQyPfagXjDDkRMxRjqtcS9Y0?authuser=0&hl=en&rclk=1,"28.564813299999997,77.2848259"
Batla house nafis road hari masjid,Mosque,"Batla house nafis road hari masjid, 42, Abul Fazal Enclave Part 2, Jamia Nagar, Okhla, New Delhi, Delhi 110025","Abul Fazal Enclave Part 2, Jamia Nagar, Okhla",42,New Delhi,110025,Delhi,IN,https://www.google.com/maps/place/Batla+house+nafis+road+hari+masjid/data=!4m7!3m6!1s0x390ce5c1348ab6d3:0x68568c4ab312f5f9!8m2!3d28.553852!4d77.295553!16s%2Fg%2F11ssgh2rmd!19sChIJ07aKNMHlDDkR-fUSs0qMVmg?authuser=0&hl=en&rclk=1,"28.553852,77.295553"
Jafar Nagar Masjid,Mosque,"GCPW+CX Jafar Nagar Masjid, Kulesara, Greater Noida, Uttar Pradesh 201306",Kulesara,GCPW+CX,Greater Noida,,Uttar Pradesh,IN,https://www.google.com/maps/place/Jafar+Nagar+Masjid/data=!4m7!3m6!1s0x390ce9ad38dcdb91:0x2d6a8e92f67c00d1!8m2!3d28.5360757!4d77.4474791!16s%2Fg%2F11swrzhqlk!19sChIJkdvcOK3pDDkR0QB89pKOai0?authuser=0&hl=en&rclk=1,"28.536075699999998,77.4474791"
Jama masjid,Mosque,"Jama masjid, Jama Masjid, Abul Fazal Enclave Part 1, Part 1 Abul Fazal Enclave, Block I, Jamia Nagar, Chandni Chowk, New Delhi, Delhi 110025","Abul Fazal Enclave Part 1, Part 1 Abul Fazal Enclave, Block I, Jamia Nagar, Chandni Chowk",Jama Masjid,New Delhi,,Delhi,IN,https://www.google.com/maps/place/Jama+masjid/data=!4m7!3m6!1s0x390ce542b18bb9c1:0xcacf2517b90d6255!8m2!3d28.5545167!4d77.2972904!16s%2Fg%2F11kqc0mn0x!19sChIJwbmLsULlDDkRVWINuRclz8o?authuser=0&hl=en&rclk=1,"28.554516699999997,77.2972904"
Jamia FET Mosque,Mosque,"H75J+X2M Jamia FET Mosque, Jamia Millia Islamia, Jamia Nagar, Okhla, New Delhi, Delhi 110025","Jamia Millia Islamia, Jamia Nagar, Okhla",H75J+X2M,New Delhi,110025,Delhi,IN,https://www.google.com/maps/place/Jamia+FET+Mosque/data=!4m7!3m6!1s0x390ce3cda6b1a96b:0xe22005424b44a886!8m2!3d28.5599625!4d77.2800469!16s%2Fg%2F11v0mq7zhg!19sChIJa6mxps3jDDkRhqhES0IFIOI?authuser=0&hl=en&rclk=1,"28.559962499999997,77.2800469"
Masjid Faculty of Education,Mosque,"H76Q+3JX Masjid Faculty of Education, Jamia Nagar, Okhla, New Delhi, Delhi 110025","Jamia Nagar, Okhla",H76Q+3JX,New Delhi,110025,Delhi,IN,https://www.google.com/maps/place/Masjid+Faculty+of+Education/data=!4m7!3m6!1s0x390ce5c972ff504b:0xae284f1531627dad!8m2!3d28.5602314!4d77.289103!16s%2Fg%2F11m_g68931!19sChIJS1D_csnlDDkRrX1iMRVPKK4?authuser=0&hl=en&rclk=1,"28.5602314,77.289103"
Noor Masjid,Mosque,"H74P+FV8 Noor Masjid, Jamia Nagar Extension, Noor Nagar Extension, Noor Nagar, Okhla, New Delhi, Delhi 110025","Jamia Nagar Extension, Noor Nagar Extension, Noor Nagar, Okhla",H74P+FV8,New Delhi,110025,Delhi,IN,https://www.google.com/maps/place/Noor+Masjid/data=!4m7!3m6!1s0x390ce5040b4a7b85:0x2184b4fd8a8ff99b!8m2!3d28.556154!4d77.2871877!16s%2Fg%2F11kpyv1bgh!19sChIJhXtKCwTlDDkRm_mPiv20hCE?authuser=0&hl=en&rclk=1,"28.556154,77.28718769999999"
Madina Masjid,Mosque,"Madina Masjid, 43, Gali No 5, Abul Fazal Enclave Part 2, Jamia Nagar, Okhla, New Delhi, Delhi 110025","Abul Fazal Enclave Part 2, Jamia Nagar, Okhla","43, Gali No 5",New Delhi,110025,Delhi,IN,https://www.google.com/maps/place/Madina+Masjid/data=!4m7!3m6!1s0x390ce5e5e0b9709b:0x7a72d7b67fd9b82d!8m2!3d28.5523538!4d77.2984748!16s%2Fg%2F11q4h4g7fv!19sChIJm3C54OXlDDkRLbjZf7bXcno?authuser=0&hl=en&rclk=1,"28.5523538,77.2984748"
(bait ul-noor) masjid taimoor nagar,Mosque,"H7F9+362 (bait ul-noor) masjid taimoor nagar, Block B, Taimoor Nagar, New Friends Colony, New Delhi, Delhi 110065","Block B, Taimoor Nagar, New Friends Colony",H7F9+362,New Delhi,110065,Delhi,IN,https://www.google.com/maps/place/%28bait+ul-noor%29+masjid+taimoor+nagar/data=!4m7!3m6!1s0x390ce315c22b7bf9:0x5a90b6ba3117db3e!8m2!3d28.5726433!4d77.2680128!16s%2Fg%2F11y22dvh88!19sChIJ-XsrwhXjDDkRPtsXMbq2kFo?authuser=0&hl=en&rclk=1,"28.5726433,77.2680128"
"Masjid Rehman, Bhaskar Compound",Mosque,"Masjid Rehman, Bhaskar Compound, Unnamed Road, Abul Fazal Enclave Part 1, Part 1 Abul Fazal Enclave, Block D, Jamia Nagar, Okhla, New Delhi, Delhi 110025","Abul Fazal Enclave Part 1, Part 1 Abul Fazal Enclave, Block D, Jamia Nagar, Okhla","Unnamed Road, Abul Fazal Enclave Part 1",New Delhi,110025,Delhi,IN,"https://www.google.com/maps/place/Masjid+Rehman,+Bhaskar+Compound/data=!4m7!3m6!1s0x390ce56f6a5c2b79:0x74cb74cd42565ce2!8m2!3d28.5572909!4d77.2964623!16s%2Fg%2F11fmxtscr1!19sChIJeStcam_lDDkR4lxWQs10y3Q?authuser=0&hl=en&rclk=1","28.557290899999998,77.2964623"
"Chaar Minar Masjid, Gate No- 02",Mosque,"H73X+28Q Chaar Minar Masjid, Gate No- 02, Part 1 Abul Fazal Enclave, Part 1 Abul Fazal Enclave, Block K, Jamia Nagar, Okhla, New Delhi, Delhi 110025","Part 1 Abul Fazal Enclave, Part 1 Abul Fazal Enclave, Block K, Jamia Nagar, Okhla",H73X+28Q,New Delhi,110025,Delhi,IN,"https://www.google.com/maps/place/Chaar+Minar+Masjid,+Gate+No-+02/data=!4m7!3m6!1s0x390ce519af4bbc8f:0x767fadc5399c805e!8m2!3d28.5525828!4d77.2983689!16s%2Fg%2F11txkw5wp6!19sChIJj7xLrxnlDDkRXoCcOcWtf3Y?authuser=0&hl=en&rclk=1","28.5525828,77.2983689"
Jamete islami Markaz Masjid,Mosque,"H73W+G6F Jamete islami Markaz Masjid, Abul Fazal Enclave Part 2, Jamia Nagar, Okhla, New Delhi, Delhi 110025","Abul Fazal Enclave Part 2, Jamia Nagar, Okhla",H73W+G6F,New Delhi,110025,Delhi,IN,https://www.google.com/maps/place/Jamete+islami+Markaz+Masjid/data=!4m7!3m6!1s0x390ce584b6f10bd5:0xdadc52adbd2e5235!8m2!3d28.5538228!4d77.2955576!16s%2Fg%2F11t061tn1_!19sChIJ1QvxtoTlDDkRNVIuva1S3No?authuser=0&hl=en&rclk=1,"28.5538228,77.2955576"
Masjid savitri nagar kali masjid,Mosque,"G6Q8+WV2 Masjid savitri nagar kali masjid, Savitri Nagar, Sadhna Enclave, Panchsheel Park, New Delhi, Delhi 110017","Savitri Nagar, Sadhna Enclave, Panchsheel Park",G6Q8+WV2,New Delhi,110017,Delhi,IN,https://www.google.com/maps/place/Masjid+savitri+nagar+kali+masjid/data=!4m7!3m6!1s0x390ce301a7d8408f:0x10a5e961e0366cbf!8m2!3d28.5397704!4d77.2171385!16s%2Fg%2F11krcllkqp!19sChIJj0DYpwHjDDkRv2w24GHppRA?authuser=0&hl=en&rclk=1,"28.5397704,77.21713849999999"
Ziya Fatima Masjid,Mosque,"Ziya Fatima Masjid, 17, Sir Syed Rd, Block F, Zakir Nagar, Okhla, New Delhi, Delhi 110025","Block F, Zakir Nagar, Okhla","17, Sir Syed Rd",New Delhi,110025,Delhi,IN,https://www.google.com/maps/place/Ziya+Fatima+Masjid/data=!4m7!3m6!1s0x390ce3a29bbcf44f:0xb9d52ac592555fe3!8m2!3d28.5680502!4d77.2853037!16s%2Fg%2F11rc1975kx!19sChIJT_S8m6LjDDkR419VksUq1bk?authuser=0&hl=en&rclk=1,"28.5680502,77.2853037"
New Madeena Masjid (Chhoti Masjid) msjd,Mosque,"New Madeena Masjid (Chhoti Masjid) msjd, D-218, Block D, New Ashok Nagar, Delhi, 110096","Block D, New Ashok Nagar",D-218,Delhi,110096,Delhi,IN,https://www.google.com/maps/place/New+Madeena+Masjid+%28Chhoti+Masjid%29+%D9%85%D8%B3%D8%AC%D8%AF%E2%80%AD/data=!4m7!3m6!1s0x390ce5862a0868e9:0x9e9c1e03e4b16906!8m2!3d28.5943077!4d77.3092836!16s%2Fg%2F11qyw2kgm2!19sChIJ6WgIKoblDDkRBmmx5AMenJ4?authuser=0&hl=en&rclk=1,"28.594307699999998,77.3092836"
