name,main_category,address,address_ward,address_street,address_city,address_postal_code,address_state,address_country_code,link,coordinates
Ibrahim masjid,Mosque,"Ibrahim masjid, Mujahed Nagar, Nizamabad, Telangana 503001",Mujahed Nagar,Mujahed Nagar,Nizamabad,503001,Telangana,IN,https://www.google.com/maps/place/Ibrahim+masjid/data=!4m7!3m6!1s0x3bcddb1c9cab8d6b:0x4cd6c5d1eebac22d!8m2!3d18.6687702!4d78.0787829!16s%2Fg%2F11b808221d!19sChIJa42rnBzbzTsRLcK67tHF1kw?authuser=0&hl=en&rclk=1,"18.6687702,78.0787829"
Masjid-e-Bilal,Mosque,"Masjid-e-Bilal, Naseem Colony, Vinayak Nagar, Nizamabad, Telangana 503001",Vinayak Nagar,Naseem Colony,Nizamabad,503001,Telangana,IN,https://www.google.com/maps/place/Masjid-e-Bilal/data=!4m7!3m6!1s0x3bcddad51ad08a4f:0x19acc6ef354d528a!8m2!3d18.6628607!4d78.1087298!16s%2Fg%2F11c6dzygr6!19sChIJT4rQGtXazTsRilJNNe_GrBk?authuser=0&hl=en&rclk=1,"18.6628607,78.10872979999999"
Makkah Masjid mkhh msjd,Mosque,"M3CP+WG3 Makkah Masjid mkhh msjd, Ahmed Pura Colony, Mujahed Nagar, Nizamabad, Telangana 503001","Ahmed Pura Colony, Mujahed Nagar",M3CP+WG3,Nizamabad,503001,Telangana,IN,https://www.google.com/maps/place/Makkah+Masjid+%D9%85%DA%A9%DB%81+%D9%85%D8%B3%D8%AC%D8%AF%E2%80%AD/data=!4m7!3m6!1s0x3bcddb191cb9eaa5:0xb5390494c05a32fe!8m2!3d18.6722571!4d78.0863088!16s%2Fg%2F1td23x78!19sChIJpeq5HBnbzTsR_jJawJQEObU?authuser=0&hl=en&rclk=1,"18.6722571,78.0863088"
Masjid-E-Kachiyan masjidWi khachiyN,Mosque,"Masjid-E-Kachiyan masjidWi khachiyN, Gandhi Chowk, NH 63, NRI Colony, Arsapally, Nizamabad, Telangana 503001","NRI Colony, Arsapally","Gandhi Chowk, NH 63",Nizamabad,503001,Telangana,IN,https://www.google.com/maps/place/Masjid-E-Kachiyan+%D9%85%D9%8E%D8%B3%D9%92%D8%AC%D9%90%D8%AF%D9%91%D9%90+%DA%A9%D9%8E%DA%86%D9%90%DB%8C%D8%A7%DA%BA%E2%80%AD/data=!4m7!3m6!1s0x3bcddb248ee5f41d:0x9ab232367f14dbc4!8m2!3d18.6736552!4d78.0947363!16s%2Fg%2F1tf2qplx!19sChIJHfTljiTbzTsRxNsUfzYyspo?authuser=0&hl=en&rclk=1,"18.6736552,78.0947363"
Masjid-E-Malapally,Mosque,"Masjid-E-Malapally, Malapally St, beside New Minar Super Market, Mujahed Nagar, Nizamabad, Telangana 503001",Mujahed Nagar,"Malapally St, beside New Minar Super Market",Nizamabad,503001,Telangana,IN,https://www.google.com/maps/place/Masjid-E-Malapally/data=!4m7!3m6!1s0x3bcddb1a1c000001:0x2a23dbfff15ea39e!8m2!3d18.6717076!4d78.081221!16s%2Fg%2F11b6dg07fz!19sChIJAQAAHBrbzTsRnqNe8f_bIyo?authuser=0&hl=en&rclk=1,"18.671707599999998,78.081221"
Masjid e ibrahimia ek Minar masjidWi ibrahiymi ykhmiynr,Mosque,"M3CR+W6C Masjid e ibrahimia ek Minar masjidWi ibrahiymi ykhmiynr, Ahmed Pura, Quilla Rd, Barkatpura, Nizamabad, Telangana 503001","Mustaid Pura, Barkatpura","M3CR+W6C, Ahmed Pura, Quilla Rd",Nizamabad,503001,Telangana,IN,https://www.google.com/maps/place/Masjid+e+ibrahimia+ek+Minar+%D9%85%D9%8E%D8%B3%D9%92%D8%AC%D9%90%D8%AF%D9%91%D9%90+%D8%A7%D9%90%D8%A8%D9%92%D8%B1%D9%8E%D8%A7%DB%81%D9%90%DB%8C%D9%85%D9%90+%D8%A7%DB%8C%DA%A9%D9%85%D9%90%DB%8C%D9%92%D9%86%D8%A7%D8%B1%E2%80%AD/data=!4m7!3m6!1s0x3bcddb2253d78341:0xf09e19d2232da61b!8m2!3d18.6723101!4d78.0905115!16s%2Fg%2F1hhlq0_z8!19sChIJQYPXUyLbzTsRG6YtI9IZnvA?authuser=0&hl=en&rclk=1,"18.6723101,78.09051149999999"
Masjid -E-Khaleel,Mosque,"M3GM+7W6 Masjid -E-Khaleel, Bodhan - Nizamabad Rd, NRI Colony, Arsapally, Nizamabad, Telangana 503001","NRI Colony, Arsapally","M3GM+7W6, Bodhan - Nizamabad Rd",Nizamabad,503001,Telangana,IN,https://www.google.com/maps/place/Masjid+-E-Khaleel/data=!4m7!3m6!1s0x3bcddb177c275625:0x4eaceab29595a17!8m2!3d18.6756547!4d78.0847608!16s%2Fg%2F11c0xr0jzt!19sChIJJVYnfBfbzTsRF1pZKavO6gQ?authuser=0&hl=en&rclk=1,"18.6756547,78.0847608"
Rahmaniya Masjid raHmnyh masjid,Mosque,"M3CQ+RR3 Rahmaniya Masjid raHmnyh masjid, Ahmed Pura, Nizamabad, Telangana 503001","Ahmed Pura Colony, Mujahed Nagar","M3CQ+RR3, Ahmed Pura",Nizamabad,503001,Telangana,IN,https://www.google.com/maps/place/Rahmaniya+Masjid+%D8%B1%D9%8E%D8%AD%D9%85%D8%A7%D9%86%DB%8C%DB%81+%D9%85%D9%8E%D8%B3%D9%92%D8%AC%D9%90%D8%AF%D9%92%E2%80%AD/data=!4m7!3m6!1s0x3bcddb2215850f47:0x9acb181d221b4dfd!8m2!3d18.6720068!4d78.0895396!16s%2Fg%2F1td7g5p7!19sChIJRw-FFSLbzTsR_U0bIh0Yy5o?authuser=0&hl=en&rclk=1,"18.6720068,78.0895396"
Masjid-E-Station Bazaar masjid sttyshn bzr,Mosque,"M4G3+X98 Masjid-E-Station Bazaar masjid sttyshn bzr, Railway Station Road, Yellamma Gutta, Kumar Gali, Nizamabad, Telangana 503003","Yellamma Gutta, Kumar Gali","M4G3+X98, Railway Station Road",Nizamabad,503003,Telangana,IN,https://www.google.com/maps/place/Masjid-E-Station+Bazaar+%D9%85%D9%8E%D8%B3%D9%92%D8%AC%D9%90%D8%AF+%D8%A7%D8%B3%D9%B9%DB%8C%D8%B4%D9%86+%D8%A8%D8%A7%D8%B2%D8%A7%D8%B1%E2%80%AD/data=!4m7!3m6!1s0x3bcddb31c311b885:0xd243c94a4c1d2a55!8m2!3d18.6774106!4d78.1034612!16s%2Fg%2F11g6hz8dr3!19sChIJhbgRwzHbzTsRVSodTErJQ9I?authuser=0&hl=en&rclk=1,"18.677410599999998,78.1034612"
Mohammadia Masjid,Mosque,"Mohammadia Masjid, Backside Of Crescent, High School Boys) E/M Muhammadia colony, Mujahed Nagar, Nizamabad, Telangana 503001",Mujahed Nagar,"Backside Of Crescent, High School Boys) E/M Muhammadia colony",Nizamabad,503001,Telangana,IN,https://www.google.com/maps/place/Mohammadia+Masjid/data=!4m7!3m6!1s0x3bcddb1f4e268153:0x783f3951321c2632!8m2!3d18.6691819!4d78.0872789!16s%2Fg%2F11cn5pkfxt!19sChIJU4EmTh_bzTsRMiYcMlE5P3g?authuser=0&hl=en&rclk=1,"18.669181899999998,78.0872789"
Madina Masjid,Mosque,"Madina Masjid, x road, near to phulong, Phulong, Nizamabad, Telangana 503001",Phulong,"x road, near to phulong",Nizamabad,503001,Telangana,IN,https://www.google.com/maps/place/Madina+Masjid/data=!4m7!3m6!1s0x3bcddb28f6a763a3:0xb0bef05a6971b2a9!8m2!3d18.66805!4d78.1012011!16s%2Fg%2F11b8jcsbwk!19sChIJo2On9ijbzTsRqbJxaVrwvrA?authuser=0&hl=en&rclk=1,"18.66805,78.1012011"
Friends Mobiles,Mobile phone repair shop,"Friends Mobiles, near Gousiya Masjid, Auto Nagar, Arsapally, Nizamabad, Telangana 503001","Auto Nagar, Arsapally",near Gousiya Masjid,Nizamabad,503001,Telangana,IN,https://www.google.com/maps/place/Friends+Mobiles/data=!4m7!3m6!1s0x3bcddb0945bd5c93:0xf663fe31899e444d!8m2!3d18.6795018!4d78.0703785!16s%2Fg%2F11c2j0l6kr!19sChIJk1y9RQnbzTsRTUSeiTH-Y_Y?authuser=0&hl=en&rclk=1,"18.6795018,78.07037849999999"
Chistiya Masjid,Mosque,"M39M+JCP Chistiya Masjid, Quilla Rd, Hashmi Colony, Mujahed Nagar, Nizamabad, Telangana 503001","Hashmi Colony, Mujahed Nagar","M39M+JCP, Quilla Rd",Nizamabad,503001,Telangana,IN,https://www.google.com/maps/place/Chistiya+Masjid/data=!4m7!3m6!1s0x3bcddb1ec829660d:0x92abfcde25a1c885!8m2!3d18.6690843!4d78.0835666!16s%2Fg%2F11bw7dgn45!19sChIJDWYpyB7bzTsRhcihJd78q5I?authuser=0&hl=en&rclk=1,"18.669084299999998,78.0835666"
Raza Baig Masjid msjd rD byg,Mosque,"M3FV+25R Raza Baig Masjid msjd rD byg, Bodhan - Nizamabad Rd, Barkatpura, Nizamabad, Telangana 503001",Barkatpura,"M3FV+25R, Bodhan - Nizamabad Rd",Nizamabad,503001,Telangana,IN,https://www.google.com/maps/place/Raza+Baig+Masjid+%D9%85%D8%B3%D8%AC%D8%AF+%D8%B1%D8%B6%D8%A7+%D8%A8%DB%8C%DA%AF%E2%80%AD/data=!4m7!3m6!1s0x3bcddb239c9c637f:0xb16c666479bcefa!8m2!3d18.6726053!4d78.0928829!16s%2Fg%2F11bx2l7n01!19sChIJf2OcnCPbzTsR-s6bR2bGFgs?authuser=0&hl=en&rclk=1,"18.6726053,78.09288289999999"
Masjid -e - Azizia,Mosque,"M3GF+C39 Masjid -e - Azizia, Off Bodhan Road, Auto Nagar, Opp Arsapally, Nizamabad, Telangana 503001",Arsapally,"M3GF+C39, Off Bodhan Road, Auto Nagar, Opp Arsapally",Nizamabad,503001,Telangana,IN,https://www.google.com/maps/place/Masjid+-e+-+Azizia/data=!4m7!3m6!1s0x3bcddb0f6cbce095:0x2fdabef1555f9e34!8m2!3d18.6760422!4d78.0727471!16s%2Fg%2F11bwgwdp_9!19sChIJleC8bA_bzTsRNJ5fVfG-2i8?authuser=0&hl=en&rclk=1,"18.676042199999998,78.0727471"
Jama Masjid,Mosque,"M39R+5G9 Jama Masjid, 11 TRT Gajulpet, Barkatpura, Nizamabad, Telangana 503001","11 TRT Gajulpet, Barkatpura",M39R+5G9,Nizamabad,503001,Telangana,IN,https://www.google.com/maps/place/Jama+Masjid/data=!4m7!3m6!1s0x3bcddb210f03527f:0x70af95b07141d5a5!8m2!3d18.6679036!4d78.091356!16s%2Fg%2F11gjv7fv97!19sChIJf1IDDyHbzTsRpdVBcbCVr3A?authuser=0&hl=en&rclk=1,"18.6679036,78.09135599999999"
Umar Masjid,Mosque,"M4H5+3W3 Umar Masjid, Yellammagutta Rd, Line, Yellammagutta, Nizamabad, Telangana 503001","Line, Yellammagutta","M4H5+3W3, Yellammagutta Rd",Nizamabad,503001,Telangana,IN,https://www.google.com/maps/place/Umar+Masjid/data=!4m7!3m6!1s0x3bcddb32a4ca5b6f:0x9573b152a42d2cdc!8m2!3d18.6776364!4d78.1097855!16s%2Fg%2F11b6_vlv8f!19sChIJb1vKpDLbzTsR3CwtpFKxc5U?authuser=0&hl=en&rclk=1,"18.6776364,78.1097855"
Arafat Masjid,Mosque,"M3FP+HW9 Arafat Masjid, Ahmed Pura Colony, Mujahed Nagar, Nizamabad, Telangana 503001","Ahmed Pura Colony, Mujahed Nagar",M3FP+HW9,Nizamabad,503001,Telangana,IN,https://www.google.com/maps/place/Arafat+Masjid/data=!4m7!3m6!1s0x3bcddb18f43457ad:0xe283639c8e61ddc5!8m2!3d18.6739088!4d78.0873603!16s%2Fg%2F1vcjkq4q!19sChIJrVc09BjbzTsRxd1hjpxjg-I?authuser=0&hl=en&rclk=1,"18.6739088,78.0873603"
Bilal Masjid,Mosque,"M39J+W4G Bilal Masjid, Shanti Nagar Colony, Rakasipet, Bodhan, Nizamabad, Telangana 503001","Shanti Nagar Colony, Rakasipet",M39J+W4G,"Bodhan, Nizamabad",503001,Telangana,IN,https://www.google.com/maps/place/Bilal+Masjid/data=!4m7!3m6!1s0x3bcddb1b8ef09ff7:0xef6db3a685102dc0!8m2!3d18.6698088!4d78.0803204!16s%2Fg%2F11cjkq31td!19sChIJ95_wjhvbzTsRwC0Qhaazbe8?authuser=0&hl=en&rclk=1,"18.6698088,78.08032039999999"
Masjid -E- Jafar Hussain,Mosque,"Masjid -E- Jafar Hussain, 503001, NRI Colony, Arsapally, Nizamabad, Telangana 503001","NRI Colony, Arsapally",503001,Nizamabad,503001,Telangana,IN,https://www.google.com/maps/place/Masjid+-E-+Jafar+Hussain/data=!4m7!3m6!1s0x3bcddb11e885205d:0xa9263d1a739db7c8!8m2!3d18.6795213!4d78.0773248!16s%2Fg%2F11c20bpm3_!19sChIJXSCF6BHbzTsRyLedcxo9Jqk?authuser=0&hl=en&rclk=1,"18.679521299999998,78.0773248"
Masjid -E- Khaif msjd khyf,Mosque,"M3JH+C8X Masjid -E- Khaif msjd khyf, NRI Colony, Arsapally, Nizamabad, Telangana 503001","NRI Colony, Arsapally",M3JH+C8X,Nizamabad,503001,Telangana,IN,https://www.google.com/maps/place/Masjid+-E-+Khaif+%D9%85%D8%B3%D8%AC%D8%AF+%D8%AE%DB%8C%D9%81%E2%80%AD/data=!4m7!3m6!1s0x3bcddb1221523ddd:0xa8f9cc86d57725a9!8m2!3d18.6811121!4d78.0783682!16s%2Fg%2F11g8tynt6x!19sChIJ3T1SIRLbzTsRqSV31YbM-ag?authuser=0&hl=en&rclk=1,"18.6811121,78.0783682"
Masjid-e-Tauheed,Mosque,"M492+QHM Masjid-e-Tauheed, Phulong, Nizamabad, Telangana 503001",Phulong,M492+QHM,Nizamabad,503001,Telangana,IN,https://www.google.com/maps/place/Masjid-e-Tauheed/data=!4m7!3m6!1s0x3bcddb28c38f025b:0x31dfdbbbd2541874!8m2!3d18.6694715!4d78.101419!16s%2Fg%2F11bx454vs9!19sChIJWwKPwyjbzTsRdBhU0rvb3zE?authuser=0&hl=en&rclk=1,"18.6694715,78.10141899999999"
Masjid-e-Farhad Unissa,Mosque,"Masjid-e-Farhad Unissa, 503001, NRI Colony, Arsapally, Nizamabad, Telangana 503001","Habeeb Nagar, NRI Colony, Arsapally",503001,Nizamabad,503001,Telangana,IN,https://www.google.com/maps/place/Masjid-e-Farhad+Unissa/data=!4m7!3m6!1s0x3bcddb17a5dfdbdf:0xe1fbaca60e063226!8m2!3d18.6775002!4d78.0855246!16s%2Fg%2F11c5_5pb64!19sChIJ39vfpRfbzTsRJjIGDqas--E?authuser=0&hl=en&rclk=1,"18.6775002,78.0855246"
Quba Masjid masjidWi quba,Mosque,"M38M+58M Quba Masjid masjidWi quba, Mujahed Nagar, Nizamabad, Telangana 503001",Mujahed Nagar,M38M+58M,Nizamabad,503001,Telangana,IN,https://www.google.com/maps/place/Quba+Masjid+%D9%85%D9%8E%D8%B3%D9%92%D8%AC%D9%90%D8%AF%D9%91%D9%90+%D9%82%D9%8F%D8%A8%D9%8E%D8%A7%D8%A1%E2%80%AD/data=!4m7!3m6!1s0x3bcddb1e6e7da7a7:0xd7cc7c6a1b479582!8m2!3d18.6654602!4d78.0833086!16s%2Fg%2F1vvdsn_t!19sChIJp6d9bh7bzTsRgpVHG2p8zNc?authuser=0&hl=en&rclk=1,"18.6654602,78.0833086"
Masjid-e-Quadriya,Mosque,"M3CR+254 Masjid-e-Quadriya, 11 TRT Gajulpet, Barkatpura, Nizamabad, Telangana 503001","11 TRT Gajulpet, Barkatpura",M3CR+254,Nizamabad,503001,Telangana,IN,https://www.google.com/maps/place/Masjid-e-Quadriya/data=!4m7!3m6!1s0x3bcddb22299acb19:0x8a6174ec56ba9bc4!8m2!3d18.6700185!4d78.0904636!16s%2Fg%2F11b6htvp_9!19sChIJGcuaKSLbzTsRxJu6Vux0YYo?authuser=0&hl=en&rclk=1,"18.670018499999998,78.09046359999999"
Masjid -E- Saberah Zareena,Mosque,"M3JM+M3R Masjid -E- Saberah Zareena, Ambedkar Colony, Nizamabad, Telangana 503001",Ambedkar Colony,M3JM+M3R,Nizamabad,503001,Telangana,IN,https://www.google.com/maps/place/Masjid+-E-+Saberah+Zareena/data=!4m7!3m6!1s0x3bcddb1405d14b75:0x2488d19c728adca4!8m2!3d18.6817406!4d78.0826305!16s%2Fg%2F11g6mx6y9q!19sChIJdUvRBRTbzTsRpNyKcpzRiCQ?authuser=0&hl=en&rclk=1,"18.681740599999998,78.0826305"
Masjid-e-Nimra Salafiya,Mosque,"Masjid-e-Nimra Salafiya, Ahmed Pura Colony, Mujahed Nagar, Nizamabad, Telangana 503001","Ahmed Pura Colony, Mujahed Nagar",,Nizamabad,503001,Telangana,IN,https://www.google.com/maps/place/Masjid-e-Nimra+Salafiya/data=!4m7!3m6!1s0x3bcddb229665fa57:0x198cc15d352e1853!8m2!3d18.6725599!4d78.08699!16s%2Fg%2F1tc_2k5k!19sChIJV_plliLbzTsRUxguNV3BjBk?authuser=0&hl=en&rclk=1,"18.6725599,78.08699"
MASJID-E-YASEEN,Mosque,"MASJID-E-YASEEN, Khoja Colony, NRI Colony, Arsapally, Nizamabad, Telangana 503001","Khoja Colony, NRI Colony, Arsapally",,Nizamabad,503001,Telangana,IN,https://www.google.com/maps/place/MASJID-E-YASEEN/data=!4m7!3m6!1s0x3bcddb3d676fdc5b:0x609a564f3a8b808d!8m2!3d18.6770333!4d78.085339!16s%2Fg%2F11f3wkk09m!19sChIJW9xvZz3bzTsRjYCLOk9WmmA?authuser=0&hl=en&rclk=1,"18.677033299999998,78.08533899999999"
Masjid-e-Naaz,Mosque,"M3H6+6G3 Masjid-e-Naaz, driver colony, Arsapally, Nizamabad, Telangana 503001","driver colony, Arsapally",M3H6+6G3,Nizamabad,503001,Telangana,IN,https://www.google.com/maps/place/Masjid-e-Naaz/data=!4m7!3m6!1s0x3bcddba6e97bee19:0x4d11e3282fde3333!8m2!3d18.678022!4d78.0612956!16s%2Fg%2F11fxb6qtn2!19sChIJGe576abbzTsRMzPeLyjjEU0?authuser=0&hl=en&rclk=1,"18.678022,78.0612956"
"Masjid E Kabir, Habeeb Nagar.",Mosque,"Masjid E Kabir, Habeeb Nagar., 503001, NRI Colony, Arsapally, Nizamabad, Telangana 503001","Habeeb Nagar, NRI Colony, Arsapally",503001,Nizamabad,503001,Telangana,IN,"https://www.google.com/maps/place/Masjid+E+Kabir,+Habeeb+Nagar./data=!4m7!3m6!1s0x3bcddb16bfe17c3b:0xf1b4fdbb6e9c3844!8m2!3d18.6794858!4d78.084513!16s%2Fg%2F11c1tl1_5b!19sChIJO3zhvxbbzTsRRDicbrv9tPE?authuser=0&hl=en&rclk=1","18.6794858,78.084513"
Masjid-e noor jahan wajid,Mosque,"M3MF+7MF Masjid-e noor jahan wajid, Arsapally, Nizamabad, Telangana 503001",Arsapally,M3MF+7MF,Nizamabad,503001,Telangana,IN,https://www.google.com/maps/place/Masjid-e+noor+jahan+wajid/data=!4m7!3m6!1s0x3bcddb0daea61efb:0xc7be4fe61d77e6cb!8m2!3d18.6831928!4d78.0741846!16s%2Fg%2F11b6lg1tjc!19sChIJ-x6mrg3bzTsRy-Z3HeZPvsc?authuser=0&hl=en&rclk=1,"18.6831928,78.0741846"
Masjid Hashmi,Mosque,"Masjid Hashmi, shifa medical, Quilla Rd, Ahmed Pura Colony, Mujahed Nagar, Nizamabad, Telangana 503001","Ahmed Pura Colony, Mujahed Nagar","shifa medical, Quilla Rd",Nizamabad,503001,Telangana,IN,https://www.google.com/maps/place/Masjid+Hashmi/data=!4m7!3m6!1s0x3bcddb2237d143d1:0xab7b6368939ccf9!8m2!3d18.6715199!4d78.0904301!16s%2Fg%2F11cm0wflvh!19sChIJ0UPRNyLbzTsR-cw5iTa2two?authuser=0&hl=en&rclk=1,"18.6715199,78.09043009999999"
Masjid-e-Umar Farooque,Mosque,"Masjid-e-Umar Farooque, NGO Colony, Nizamabad, Telangana 503002",NGO Colony,,Nizamabad,503002,Telangana,IN,https://www.google.com/maps/place/Masjid-e-Umar+Farooque/data=!4m7!3m6!1s0x3bcddb4af70da7cd:0xa40039c2f0a7a1b!8m2!3d18.6906259!4d78.108191!16s%2Fg%2F11fx7nlmxf!19sChIJzacN90rbzTsRG3oKL5wDQAo?authuser=0&hl=en&rclk=1,"18.6906259,78.10819099999999"
Masjid -E- Khatija,Mosque,"M3GQ+62G Masjid -E- Khatija, NRI Colony, Arsapally, Nizamabad, Telangana 503001","NRI Colony, Arsapally",M3GQ+62G,Nizamabad,503001,Telangana,IN,https://www.google.com/maps/place/Masjid+-E-+Khatija/data=!4m7!3m6!1s0x3bcddb17f8a30715:0x130a33146e63e5c6!8m2!3d18.6755681!4d78.0875802!16s%2Fg%2F11ycxs_mv!19sChIJFQej-BfbzTsRxuVjbhQzChM?authuser=0&hl=en&rclk=1,"18.6755681,78.08758019999999"
Masjid-E-Fruit Market,Mosque,"M3HJ+79C Masjid-E-Fruit Market, Habeeb Nagar, NRI Colony, Arsapally, Nizamabad, Telangana 503001","Habeeb Nagar, NRI Colony, Arsapally",M3HJ+79C,Nizamabad,503001,Telangana,IN,https://www.google.com/maps/place/Masjid-E-Fruit+Market/data=!4m7!3m6!1s0x3bcddb1120fb8aef:0x7703194112aa19a8!8m2!3d18.6781992!4d78.0808887!16s%2Fg%2F11c75xxcwx!19sChIJ74r7IBHbzTsRqBmqEkEZA3c?authuser=0&hl=en&rclk=1,"18.678199199999998,78.0808887"
Masjid-e-Shaik Mira,Mosque,"Masjid-e-Shaik Mira, 7-73/2, Arya Nagar Colony, Borgaon, FCI Colony, Nizamabad, Telangana 503230","Arya Nagar Colony, Borgaon, FCI Colony",7-73/2,Nizamabad,503230,Telangana,IN,https://www.google.com/maps/place/Masjid-e-Shaik+Mira/data=!4m7!3m6!1s0x3bcdc52dd4b8d763:0x1bf031243efd2092!8m2!3d18.6568492!4d78.1162534!16s%2Fg%2F11bywkpmd0!19sChIJY9e41C3FzTsRkiD9PiQx8Bs?authuser=0&hl=en&rclk=1,"18.6568492,78.11625339999999"
Masjid-E-Aqsa,Mosque,"M3FJ+P6C Masjid-E-Aqsa, Malapally, Mujahed Nagar, Nizamabad, Telangana 503001","Malapally, Mujahed Nagar",M3FJ+P6C,Nizamabad,503001,Telangana,IN,https://www.google.com/maps/place/Masjid-E-Aqsa/data=!4m7!3m6!1s0x3bcddbe3d3f00c6b:0xda149cf5de3c95b!8m2!3d18.6743227!4d78.0805025!16s%2Fg%2F11g2wh45lv!19sChIJawzw0-PbzTsRW8njXc9JoQ0?authuser=0&hl=en&rclk=1,"18.674322699999998,78.0805025"
Masjid E Abdul Rahman Maher,Mosque,"Masjid E Abdul Rahman Maher, 503001, NRI Colony, Arsapally, Nizamabad, Telangana 503001","Habeeb Nagar, NRI Colony, Arsapally",503001,Nizamabad,503001,Telangana,IN,https://www.google.com/maps/place/Masjid+E+Abdul+Rahman+Maher/data=!4m7!3m6!1s0x3bcddb16e52a1985:0x3bc23e90c2a042ec!8m2!3d18.6788528!4d78.084382!16s%2Fg%2F11c1tltw5m!19sChIJhRkq5RbbzTsR7EKgwpA-wjs?authuser=0&hl=en&rclk=1,"18.678852799999998,78.08438199999999"
Ghani Masjid,Mosque,"M39M+3FX Ghani Masjid, Hashmi Colony, Mujahed Nagar, Nizamabad, Telangana 503001","Hashmi Colony, Mujahed Nagar",M39M+3FX,Nizamabad,503001,Telangana,IN,https://www.google.com/maps/place/Ghani+Masjid/data=!4m7!3m6!1s0x3bcddb1eeb3485fb:0xf5d301f66b13bfe0!8m2!3d18.6677306!4d78.0837442!16s%2Fg%2F11cn3sxppg!19sChIJ-4U06x7bzTsR4L8Ta_YB0_U?authuser=0&hl=en&rclk=1,"18.6677306,78.0837442"
Masjid E Kanteshwar,Mosque,"M4M7+XXX Masjid E Kanteshwar, Kanteshwar, Nizamabad, Telangana 503002",Kanteshwar,M4M7+XXX,Nizamabad,503002,Telangana,IN,https://www.google.com/maps/place/Masjid+E+Kanteshwar/data=!4m7!3m6!1s0x3bcdc4cbba38d541:0x22f7373f4fb99f66!8m2!3d18.6849904!4d78.1149867!16s%2Fg%2F1tcwk098!19sChIJQdU4usvEzTsRZp-5Tz839yI?authuser=0&hl=en&rclk=1,"18.6849904,78.1149867"
Masjid-E-Faheem,Mosque,"M3CM+4HX Masjid-E-Faheem, near Mohammadia Colony, Malapally, Mujahed Nagar, Nizamabad, Telangana 503001","Malapally, Mujahed Nagar","M3CM+4HX, near Mohammadia Colony",Nizamabad,503001,Telangana,IN,https://www.google.com/maps/place/Masjid-E-Faheem/data=!4m7!3m6!1s0x3bcddb19392381f1:0xf88f4422fde9e912!8m2!3d18.670359!4d78.0839904!16s%2Fg%2F11c605r0qt!19sChIJ8YEjORnbzTsREunp_SJEj_g?authuser=0&hl=en&rclk=1,"18.670358999999998,78.08399039999999"
Masjid E Omar,Mosque,"M3GC+VVX Masjid E Omar, Arsapally, Nizamabad, Telangana 503001",Arsapally,M3GC+VVX,Nizamabad,503001,Telangana,IN,https://www.google.com/maps/place/Masjid+E+Omar/data=!4m7!3m6!1s0x3bcddb0f21c1500f:0x2eec02e9ce84073b!8m2!3d18.6772384!4d78.0722258!16s%2Fg%2F11xlbb641!19sChIJD1DBIQ_bzTsROweEzukC7C4?authuser=0&hl=en&rclk=1,"18.6772384,78.0722258"
Masjid E Qureshi,Mosque,"M4W5+CPJ Masjid E Qureshi, Gautamnagar, Nizamabad, Telangana 503002",Gautamnagar,M4W5+CPJ,Nizamabad,503002,Telangana,IN,https://www.google.com/maps/place/Masjid+E+Qureshi/data=!4m7!3m6!1s0x3bcddb4cea58ab1f:0x8df2220878c2e365!8m2!3d18.6960824!4d78.1092551!16s%2Fg%2F11c54cllwp!19sChIJH6tY6kzbzTsRZePCeAgi8o0?authuser=0&hl=en&rclk=1,"18.696082399999998,78.1092551"
Jama Masjid Salafiya Ahle Hadees,Mosque,"M3FQ+JJG Jama Masjid Salafiya Ahle Hadees, Mujahed Nagar, Nizamabad, Telangana 503001",Mujahed Nagar,M3FQ+JJG,Nizamabad,,Telangana,IN,https://www.google.com/maps/place/Jama+Masjid+Salafiya+Ahle+Hadees/data=!4m7!3m6!1s0x3bcddb2295c2238b:0x3f9d268775e2837f!8m2!3d18.6740734!4d78.0890857!16s%2Fg%2F11gjxchpj9!19sChIJiyPClSLbzTsRf4PidYcmnT8?authuser=0&hl=en&rclk=1,"18.674073399999997,78.0890857"
Qilla Masjid,Mosque,"M37J+MJ3 Qilla Masjid, Mujahed Nagar, Nizamabad, Telangana 503001",Mujahed Nagar,M37J+MJ3,Nizamabad,503001,Telangana,IN,https://www.google.com/maps/place/Qilla+Masjid/data=!4m7!3m6!1s0x3bcddb1df1eecec5:0x1fc573234eb0903c!8m2!3d18.6641296!4d78.0815462!16s%2Fg%2F1v27syz1!19sChIJxc7u8R3bzTsRPJCwTiNzxR8?authuser=0&hl=en&rclk=1,"18.6641296,78.08154619999999"
Masjid E Khursheed,Mosque,"Masjid E Khursheed, Sana Colony, near Bypass, Nizam Colony, Ambedkar Colony, Nizamabad, Telangana 503001","Nizam Colony, Ambedkar Colony","Sana Colony, near Bypass",Nizamabad,503001,Telangana,IN,https://www.google.com/maps/place/Masjid+E+Khursheed/data=!4m7!3m6!1s0x3bcddb1456e96419:0xcb186f099aeacc0d!8m2!3d18.6838493!4d78.0847086!16s%2Fg%2F11gjs8r1d0!19sChIJGWTpVhTbzTsRDczqmglvGMs?authuser=0&hl=en&rclk=1,"18.6838493,78.0847086"
Masjid e Yaqoob,Mosque,"M3JC+JQ2 Masjid e Yaqoob, Arsapally, Nizamabad, Telangana 503001",Arsapally,M3JC+JQ2,Nizamabad,503001,Telangana,IN,https://www.google.com/maps/place/Masjid+e+Yaqoob/data=!4m7!3m6!1s0x3bcddb0c1154110f:0xe09328da6a1e5ee7!8m2!3d18.6815197!4d78.0718971!16s%2Fg%2F11bxfdtw9x!19sChIJDxFUEQzbzTsR514eatook-A?authuser=0&hl=en&rclk=1,"18.6815197,78.0718971"
"Masjid E Amatullah Afzal , msjd y mtulh fDl",Mosque,"Masjid E Amatullah Afzal , msjd y mtulh fDl, Habeeb Nagar, NRI Colony, Arsapally, Nizamabad, Telangana 503001","Habeeb Nagar, NRI Colony, Arsapally",,Nizamabad,503001,Telangana,IN,https://www.google.com/maps/place/Masjid+E+Amatullah+Afzal+%D8%8C+%D9%85%D8%B3%D8%AC%D8%AF+%D8%A7%DB%8C+%D8%A7%D9%85%D8%AA%D9%8F%D9%84%DB%81+%D8%A7%D9%81%D8%B6%D9%84%E2%80%AD/data=!4m7!3m6!1s0x3bcddb1630d22c11:0xe2aef58589c6037c!8m2!3d18.6785959!4d78.086682!16s%2Fg%2F11c2md8c6q!19sChIJESzSMBbbzTsRfAPGiYX1ruI?authuser=0&hl=en&rclk=1,"18.678595899999998,78.086682"
Masjid-E-Umer Bin Khattab,Mosque,"M39P+H49 Masjid-E-Umer Bin Khattab, opp. Uzma Garden Function Hall, Hashmi Colony, Mujahed Nagar, Nizamabad, Telangana 503001","Hashmi Colony, Mujahed Nagar","M39P+H49, opp. Uzma Garden Function Hall",Nizamabad,503001,Telangana,IN,https://www.google.com/maps/place/Masjid-E-Umer+Bin+Khattab/data=!4m7!3m6!1s0x3bcddb1f28f3038b:0x605fb81d7c7cfbdc!8m2!3d18.6689238!4d78.0853549!16s%2Fg%2F11fyxb5wl9!19sChIJiwPzKB_bzTsR3Pt8fB24X2A?authuser=0&hl=en&rclk=1,"18.668923799999998,78.0853549"
Masjid-E-AQSA,Mosque,"Masjid-E-AQSA, Ganesh Colony, FCI Colony, Nizamabad, Telangana 503230","Ganesh Colony, FCI Colony",,Nizamabad,503230,Telangana,IN,https://www.google.com/maps/place/Masjid-E-AQSA/data=!4m7!3m6!1s0x3bcdc52ae94dda5d:0xc3d78604021c69b6!8m2!3d18.6635656!4d78.1125897!16s%2Fg%2F11clsg77gm!19sChIJXdpN6SrFzTsRtmkcAgSG18M?authuser=0&hl=en&rclk=1,"18.6635656,78.1125897"
Choti Kachiyan Masjid,Mosque,"Choti Kachiyan Masjid, 503001, NRI Colony, Arsapally, Nizamabad, Telangana 503001","Habeeb Nagar, NRI Colony, Arsapally",503001,Nizamabad,503001,Telangana,IN,https://www.google.com/maps/place/Choti+Kachiyan+Masjid/data=!4m7!3m6!1s0x3bcddb171aa0d94d:0x3da083cd79b1ee88!8m2!3d18.6775297!4d78.0843766!16s%2Fg%2F11cs37wkb5!19sChIJTdmgGhfbzTsRiO6xec2DoD0?authuser=0&hl=en&rclk=1,"18.6775297,78.0843766"
Waheedia Masjid,Mosque,"M3FF+M66 Waheedia Masjid, Arsapally, Nizamabad, Telangana 503001",Arsapally,M3FF+M66,Nizamabad,503001,Telangana,IN,https://www.google.com/maps/place/Waheedia+Masjid/data=!4m7!3m6!1s0x3bcddb0586e227bf:0xe54892ea8e3a918c!8m2!3d18.6741643!4d78.0730003!16s%2Fg%2F11dxjx3wrj!19sChIJvyfihgXbzTsRjJE6juqSSOU?authuser=0&hl=en&rclk=1,"18.674164299999997,78.07300029999999"
masjid e osmaniya,Mosque,"M3G9+Q87 masjid e osmaniya, Auto Nagar, District Jail, Sarangapur, Nizamabad, Telangana 503001","Auto Nagar, District Jail, Sarangapur",M3G9+Q87,Nizamabad,503001,Telangana,IN,https://www.google.com/maps/place/masjid+e+osmaniya/data=!4m7!3m6!1s0x3bcddb08fec6c057:0xa26a8e56780520cf!8m2!3d18.676918!4d78.0682971!16s%2Fg%2F11ddwy2qm3!19sChIJV8DG_gjbzTsRzyAFeFaOaqI?authuser=0&hl=en&rclk=1,"18.676918,78.0682971"
Anees Masjid,Mosque,"M39J+3XM Anees Masjid, Mujahed Nagar, Nizamabad, Telangana 503001",Mujahed Nagar,M39J+3XM,Nizamabad,503001,Telangana,IN,https://www.google.com/maps/place/Anees+Masjid/data=!4m7!3m6!1s0x3bcddb1e9fb5187f:0xbd9713c327ccc497!8m2!3d18.667722!4d78.0824066!16s%2Fg%2F11c1frdv4x!19sChIJfxi1nx7bzTsRl8TMJ8MTl70?authuser=0&hl=en&rclk=1,"18.667721999999998,78.0824066"
Masjid E Nusrat Bin Yaseen,Mosque,"Masjid E Nusrat Bin Yaseen, Unnamed Road, 503001, NRI Colony, Arsapally, Nizamabad, Telangana 503001","Habeeb Nagar, NRI Colony, Arsapally","Unnamed Road, 503001",Nizamabad,503001,Telangana,IN,https://www.google.com/maps/place/Masjid+E+Nusrat+Bin+Yaseen/data=!4m7!3m6!1s0x3bcddb165a116ba7:0xad2a53b375fdc147!8m2!3d18.6791191!4d78.0855793!16s%2Fg%2F11cs37shjn!19sChIJp2sRWhbbzTsRR8H9dbNTKq0?authuser=0&hl=en&rclk=1,"18.679119099999998,78.08557929999999"
Masjid-E-Alimurtuza,Mosque,"M4J6+FH7 Masjid-E-Alimurtuza, Shastri Nagar, Kanteshwar, Nizamabad, Telangana 503002","Shastri Nagar, Kanteshwar",M4J6+FH7,Nizamabad,503002,Telangana,IN,https://www.google.com/maps/place/Masjid-E-Alimurtuza/data=!4m7!3m6!1s0x3bcdc4ccc8eafbd3:0xf95db756edd5fa8f!8m2!3d18.681153!4d78.1114143!16s%2Fg%2F11b6drcsy6!19sChIJ0_vqyMzEzTsRj_rV7Va3Xfk?authuser=0&hl=en&rclk=1,"18.681153,78.11141429999999"
Masjid-e-Upper Tekdi,Mosque,"Masjid-e-Upper Tekdi, TEKDI, UPPER, Nizamabad, Telangana 503001",Shivaji Nagar,"TEKDI, UPPER",Nizamabad,503001,Telangana,IN,https://www.google.com/maps/place/Masjid-e-Upper+Tekdi/data=!4m7!3m6!1s0x3bcddb2676b46d9b:0x1e6a1ae54446b4d4!8m2!3d18.6700816!4d78.0977426!16s%2Fg%2F124yhg2gk!19sChIJm220dibbzTsR1LRGROUaah4?authuser=0&hl=en&rclk=1,"18.6700816,78.09774259999999"
Saleheen Masjid,Mosque,"Saleheen Masjid, Unnamed Road, 503001, Arsapally, Nizamabad, Telangana 503001",Arsapally,"Unnamed Road, 503001",Nizamabad,503001,Telangana,IN,https://www.google.com/maps/place/Saleheen+Masjid/data=!4m7!3m6!1s0x3bcddb0f5281ccd7:0xa074b4f784e52bc7!8m2!3d18.6752289!4d78.0708761!16s%2Fg%2F11gb3n18h5!19sChIJ18yBUg_bzTsRxyvlhPe0dKA?authuser=0&hl=en&rclk=1,"18.6752289,78.07087609999999"
Masjide Akber Sunni Hanafi Bareilvi,Mosque,"M4W6+MXF Masjide Akber Sunni Hanafi Bareilvi, New APHB Colony, Nizamabad, Telangana 503002",New APHB Colony,M4W6+MXF,Nizamabad,503002,Telangana,IN,https://www.google.com/maps/place/Masjide+Akber+Sunni+Hanafi+Bareilvi/data=!4m7!3m6!1s0x3bcdc4b316f4aa25:0x3b3ea9b9e0d50b2a!8m2!3d18.6966924!4d78.1124211!16s%2Fg%2F11ckr63lg2!19sChIJJar0FrPEzTsRKgvV4LmpPjs?authuser=0&hl=en&rclk=1,"18.6966924,78.11242109999999"
MASJID-E-MUSTAFA,Mosque,"M3CM+RH7 MASJID-E-MUSTAFA, Mujahed Nagar, Nizamabad, Telangana 503001",Mujahed Nagar,M3CM+RH7,Nizamabad,503001,Telangana,IN,https://www.google.com/maps/place/MASJID-E-MUSTAFA/data=!4m7!3m6!1s0x3bcddb190b81761d:0x77ab028fc2b9d56b!8m2!3d18.6720415!4d78.0839297!16s%2Fg%2F11bwnd6jrf!19sChIJHXaBCxnbzTsRa9W5wo8Cq3c?authuser=0&hl=en&rclk=1,"18.6720415,78.0839297"
Masjid-e-Abida,Mosque,"M3FQ+M8H Masjid-e-Abida, Ahmed Pura Colony, Mujahed Nagar, Nizamabad, Telangana 503001","Ahmed Pura Colony, Mujahed Nagar",M3FQ+M8H,Nizamabad,503001,Telangana,IN,https://www.google.com/maps/place/Masjid-e-Abida/data=!4m7!3m6!1s0x3bcddb22a1885eb7:0xaa0a3c51eb1f709e!8m2!3d18.6741864!4d78.0883463!16s%2Fg%2F11bbyhtg2l!19sChIJt16IoSLbzTsRnnAf61E8Cqo?authuser=0&hl=en&rclk=1,"18.6741864,78.0883463"
Masjid Nizamuddin,Mosque,"M3FH+75W Masjid Nizamuddin, Mujahed Nagar, Nizamabad, Telangana 503001",Mujahed Nagar,M3FH+75W,Nizamabad,503001,Telangana,IN,https://www.google.com/maps/place/Masjid+Nizamuddin/data=!4m7!3m6!1s0x3bcddb1ac1c5f081:0xf396bfd7e445af38!8m2!3d18.6732309!4d78.0779416!16s%2Fg%2F11f4y88db6!19sChIJgfDFwRrbzTsROK9F5Ne_lvM?authuser=0&hl=en&rclk=1,"18.6732309,78.0779416"
Hussaini Masjid,Mosque,"5-11-841, Hussaini Masjid, 1, Yellama Gutta Rd, R T C Colony, Pragathi Nagar, Nizamabad, Telangana 503001","R T C Colony, Pragathi Nagar","5-11-841, 1, Yellama Gutta Rd",Nizamabad,503001,Telangana,IN,https://www.google.com/maps/place/Hussaini+Masjid/data=!4m7!3m6!1s0x3bcddb2d126c0145:0x36fd5febc947add0!8m2!3d18.6751742!4d78.1087549!16s%2Fg%2F11d_7tj4l6!19sChIJRQFsEi3bzTsR0K1Hyetf_TY?authuser=0&hl=en&rclk=1,"18.6751742,78.1087549"
Masjid E Jaber,Mosque,"M3F7+7XF Masjid E Jaber, Sagar Hill Colony, Telangana 503001",Arsapally,"M3F7+7XF, Sagar Hill Colony",Nizamabad,503001,Telangana,IN,https://www.google.com/maps/place/Masjid+E+Jaber/data=!4m7!3m6!1s0x3bcddba81c643eed:0xa809fbad503f66d2!8m2!3d18.6731854!4d78.0649233!16s%2Fg%2F11f1s0rh54!19sChIJ7T5kHKjbzTsR0mY_UK37Cag?authuser=0&hl=en&rclk=1,"18.673185399999998,78.06492329999999"
Masjid e kareem,Mosque,"Masjid e kareem, Unnamed Road, Nagaram, Nizamabad, Telangana 503001",,Unnamed Road,"Nagaram, Nizamabad",503001,Telangana,IN,https://www.google.com/maps/place/Masjid+e+kareem/data=!4m7!3m6!1s0x3bcddb8811cbd29d:0x586fb7f479e4780b!8m2!3d18.6504858!4d78.0677158!16s%2Fg%2F11h0_hh0wq!19sChIJndLLEYjbzTsRC3jkefS3b1g?authuser=0&hl=en&rclk=1,"18.6504858,78.0677158"
JAMA MASJID,Mosque,"P24Q+CR7 JAMA MASJID, Nehru Nagar, Nizamabad, Telangana 503186",,P24Q+CR7,"Nehru Nagar, Nizamabad",503186,Telangana,IN,https://www.google.com/maps/place/JAMA+MASJID/data=!4m7!3m6!1s0x3bcddbf50aac7c5b:0xbdfd8b16bc44a508!8m2!3d18.7060342!4d78.0395392!16s%2Fg%2F11g86vqsq0!19sChIJW3ysCvXbzTsRCKVEvBaL_b0?authuser=0&hl=en&rclk=1,"18.706034199999998,78.0395392"
Masjid -E- Sabeera Samad,Mosque,"M3H8+FVJ Masjid -E- Sabeera Samad, Arsapally, Nizamabad, Telangana 503001",Arsapally,M3H8+FVJ,Nizamabad,503001,Telangana,IN,https://www.google.com/maps/place/Masjid+-E-+Sabeera+Samad/data=!4m7!3m6!1s0x3bcddb0997d9b819:0x61c47f5e63eb0762!8m2!3d18.6787099!4d78.0671548!16s%2Fg%2F11c2j2gnn5!19sChIJGbjZlwnbzTsRYgfrY15_xGE?authuser=0&hl=en&rclk=1,"18.678709899999998,78.0671548"
Masjid E Mariyam,Mosque,"M39F+693 Masjid E Mariyam, Arsapally, Nizamabad, Telangana 503001",Arsapally,M39F+693,Nizamabad,503001,Telangana,IN,https://www.google.com/maps/place/Masjid+E+Mariyam/data=!4m7!3m6!1s0x3bcddb039cae4dc5:0x2cf31e2e4c7105c0!8m2!3d18.6680248!4d78.073419!16s%2Fg%2F11fxc1hj89!19sChIJxU2unAPbzTsRwAVxTC4e8yw?authuser=0&hl=en&rclk=1,"18.668024799999998,78.073419"
Masjid Noori,Mosque,"M39H+X5W Masjid Noori, Mujahed Nagar, Nizamabad, Telangana 503001",Mujahed Nagar,M39H+X5W,Nizamabad,503001,Telangana,IN,https://www.google.com/maps/place/Masjid+Noori/data=!4m7!3m6!1s0x3bcddb1b42f27627:0xd37847f4c4ffa7f3!8m2!3d18.6699841!4d78.0779628!16s%2Fg%2F11c6w1xt41!19sChIJJ3byQhvbzTsR86f_xPRHeNM?authuser=0&hl=en&rclk=1,"18.6699841,78.0779628"
MASJID-E-RAFI,Mosque,"M349+R2M MASJID-E-RAFI, Nizamabad, Telangana 503001",,M349+R2M,Nizamabad,,Telangana,IN,https://www.google.com/maps/place/MASJID-E-RAFI/data=!4m7!3m6!1s0x3bcddbe1a3896f95:0x52de167de22bda1d!8m2!3d18.6570884!4d78.0675476!16s%2Fg%2F11gvwnwzp2!19sChIJlW-Jo-HbzTsRHdor4n0W3lI?authuser=0&hl=en&rclk=1,"18.6570884,78.0675476"
Noor Masjid,Mosque,"Noor Masjid, 468,, 8.5.468, Pedda Bazaar Rd, Khaleelwadi, Nizamabad, Telangana 503001",Khaleelwadi,"468,, 8.5.468, Pedda Bazaar Rd",Nizamabad,503001,Telangana,IN,https://www.google.com/maps/place/Noor+Masjid/data=!4m7!3m6!1s0x3bcddb23ed874e89:0xd5ee81a40f0b76c3!8m2!3d18.6712173!4d78.092971!16s%2Fg%2F11cn15ctpr!19sChIJiU6H7SPbzTsRw3YLD6SB7tU?authuser=0&hl=en&rclk=1,"18.6712173,78.09297099999999"
Masjid E Zainab,Mosque,"M4Q6+2XJ Masjid E Zainab, Chandrashekar Colony, Nizamabad, Telangana 503002",Chandrashekar Colony,M4Q6+2XJ,Nizamabad,503002,Telangana,IN,https://www.google.com/maps/place/Masjid+E+Zainab/data=!4m7!3m6!1s0x3bcdc4ca95ba81ff:0xf3c9635b74ec6956!8m2!3d18.6875836!4d78.1123873!16s%2Fg%2F11c72l2_ws!19sChIJ_4G6lcrEzTsRVmnsdFtjyfM?authuser=0&hl=en&rclk=1,"18.6875836,78.1123873"
Masjid Imam Bukhari Salafia,Mosque,"M39H+435 Masjid Imam Bukhari Salafia, Mujahed Nagar, phoolbagh, Nizamabad, Telangana 503001",Mujahed Nagar,M39H+435,"phoolbagh, Nizamabad",503001,Telangana,IN,https://www.google.com/maps/place/Masjid+Imam+Bukhari+Salafia/data=!4m7!3m6!1s0x3bcddb1cbf23954f:0x897d5d7a29c6dbfd!8m2!3d18.6677625!4d78.0777344!16s%2Fg%2F11c2q2glwb!19sChIJT5UjvxzbzTsR_dvGKXpdfYk?authuser=0&hl=en&rclk=1,"18.6677625,78.0777344"
Masjid-E-Hameedah,Mosque,"M3CQ+CFM Masjid-E-Hameedah, Ahmed Pura Colony, Mujahed Nagar, Nizamabad, Telangana 503001","Ahmed Pura Colony, Mujahed Nagar",M3CQ+CFM,Nizamabad,,Telangana,IN,https://www.google.com/maps/place/Masjid-E-Hameedah/data=!4m7!3m6!1s0x3bcddb220d6e7423:0x10c5e44fd7329c62!8m2!3d18.6710904!4d78.0886601!16s%2Fg%2F11g1_cvbkg!19sChIJI3RuDSLbzTsRYpwy10_kxRA?authuser=0&hl=en&rclk=1,"18.6710904,78.0886601"
Masjid E Khalid Bin Walid,Mosque,"Masjid E Khalid Bin Walid, Naddigadda, Yellammagutta, Nizamabad, Telangana 503003",Yellammagutta,Naddigadda,Nizamabad,503003,Telangana,IN,https://www.google.com/maps/place/Masjid+E+Khalid+Bin+Walid/data=!4m7!3m6!1s0x3bcdc58f9625848f:0xf9f72773f4a382d9!8m2!3d18.6782691!4d78.1137361!16s%2Fg%2F11h15wfkb9!19sChIJj4Qllo_FzTsR2YKj9HMn9_k?authuser=0&hl=en&rclk=1,"18.678269099999998,78.1137361"
MASJID-E-HAJRA (AHLESUNNAT WAL JAMAAT)SUNNI HANFII BARELVI.,Mosque,"M3FC+PGR MASJID-E-HAJRA (AHLESUNNAT WAL JAMAAT)SUNNI HANFII BARELVI., Autonager, Nizamabad, Telangana 503001",Autonager,M3FC+PGR,Nizamabad,,Telangana,IN,https://www.google.com/maps/place/MASJID-E-HAJRA+%28AHLESUNNAT+WAL+JAMAAT%29SUNNI+HANFII+BARELVI./data=!4m7!3m6!1s0x3bcddb9cd523fb41:0x6019e52563114482!8m2!3d18.6743678!4d78.0712519!16s%2Fg%2F11gj76n9hq!19sChIJQfsj1ZzbzTsRgkQRYyXlGWA?authuser=0&hl=en&rclk=1,"18.6743678,78.0712519"
Masjid E raheem unisa,Mosque,"M3C8+MFM Masjid E raheem unisa, Sagar Hill Colony, Telangana 503001",Arsapally,"M3C8+MFM, Sagar Hill Colony",Nizamabad,503001,Telangana,IN,https://www.google.com/maps/place/Masjid+E+raheem+unisa/data=!4m7!3m6!1s0x3bcddb4ffe937e27:0x55a75a39da5feabf!8m2!3d18.6717229!4d78.0661718!16s%2Fg%2F11gy2y2k37!19sChIJJ36T_k_bzTsRv-pf2jlap1U?authuser=0&hl=en&rclk=1,"18.6717229,78.06617179999999"
Masjid E Mulla Ashraf,Mosque,"M39V+MG3 Masjid E Mulla Ashraf, adj to MULLAH, ASHRAF MASJEED, Azam Rd, Shivaji Nagar, Nizamabad, Telangana 503001",Shivaji Nagar,"M39V+MG3, adj to MULLAH, ASHRAF MASJEED, Azam Rd",Nizamabad,503001,Telangana,IN,https://www.google.com/maps/place/Masjid+E+Mulla+Ashraf/data=!4m7!3m6!1s0x3bcddb26b350b6a7:0xadfa1c6123dcd5f6!8m2!3d18.6691271!4d78.0937989!16s%2Fg%2F11gdrrlwy_!19sChIJp7ZQsybbzTsR9tXcI2Ec-q0?authuser=0&hl=en&rclk=1,"18.6691271,78.0937989"
Masjid-e-Abu Bakr Salafiyyah,Mosque,"M3GF+VQ2 Masjid-e-Abu Bakr Salafiyyah, Auto Nagar, Arsapally, Nizamabad, Telangana 503001",Arsapally,"M3GF+VQ2, Auto Nagar",Nizamabad,503001,Telangana,IN,https://www.google.com/maps/place/Masjid-e-Abu+Bakr+Salafiyyah/data=!4m7!3m6!1s0x3bcddb0fae2aa81f:0x29fdd110c4070b81!8m2!3d18.6771279!4d78.0743921!16s%2Fg%2F11ckw28ngv!19sChIJH6gqrg_bzTsRgQsHxBDR_Sk?authuser=0&hl=en&rclk=1,"18.6771279,78.0743921"
Masjid E Hashmi,Mosque,"M4Q2+H56 Masjid E Hashmi, Muslim Basti, Dubba, Nizamabad, Telangana 503002","Muslim Basti, Dubba",M4Q2+H56,Nizamabad,,Telangana,IN,https://www.google.com/maps/place/Masjid+E+Hashmi/data=!4m7!3m6!1s0x3bcddb4810f90491:0x1353aeb77c8d7561!8m2!3d18.6889115!4d78.1003959!16s%2Fg%2F11g4b7043l!19sChIJkQT5EEjbzTsRYXWNfLeuUxM?authuser=0&hl=en&rclk=1,"18.6889115,78.1003959"
Masjid e Meer Imtiyaz Ali Ahle Hadees,Mosque,"M3FH+7RP Masjid e Meer Imtiyaz Ali Ahle Hadees, Masjid e meer imtiyaz ali ahle hadees Mujaheed Nagar, Mujahed Nagar, Nizamabad, Telangana 503001",Mujahed Nagar,"M3FH+7RP, Masjid e meer imtiyaz ali ahle hadees Mujaheed Nagar",Nizamabad,503001,Telangana,IN,https://www.google.com/maps/place/Masjid+e+Meer+Imtiyaz+Ali+Ahle+Hadees/data=!4m7!3m6!1s0x3bcddb298bf8cd3d:0x11168fadb11fd4e7!8m2!3d18.6732138!4d78.0795721!16s%2Fg%2F11pf6cyn75!19sChIJPc34iynbzTsR59Qfsa2PFhE?authuser=0&hl=en&rclk=1,"18.6732138,78.0795721"
Masjid-Police Line,Mosque,"M4G5+VGV Masjid-Police Line, Yellammagutta, Nizamabad, Telangana 503003",Yellammagutta,M4G5+VGV,Nizamabad,503003,Telangana,IN,https://www.google.com/maps/place/Masjid-Police+Line/data=!4m7!3m6!1s0x3bcddb329d203d85:0x94baa0e01aa10180!8m2!3d18.6772468!4d78.1087877!16s%2Fg%2F11gh35ybdj!19sChIJhT0gnTLbzTsRgAGhGuCgupQ?authuser=0&hl=en&rclk=1,"18.6772468,78.1087877"
Masjid-E-Abeda,Mosque,"Masjid-E-Abeda, Unnamed Road, 503001, Arsapally, Nizamabad, Telangana 503001",Arsapally,"Unnamed Road, 503001",Nizamabad,503001,Telangana,IN,https://www.google.com/maps/place/Masjid-E-Abeda/data=!4m7!3m6!1s0x3bcddb03fd057899:0x6b2a28585f8710e8!8m2!3d18.6679535!4d78.0711825!16s%2Fg%2F11c58nx_hj!19sChIJmXgF_QPbzTsR6BCHX1goKms?authuser=0&hl=en&rclk=1,"18.6679535,78.07118249999999"
Masjid -E- Nuzhat Fatima,Mosque,"M3G8+Q8F Masjid -E- Nuzhat Fatima, Sagar Hills Colony, Telangana 503001",Arsapally,"M3G8+Q8F, Sagar Hills Colony",Nizamabad,503001,Telangana,IN,https://www.google.com/maps/place/Masjid+-E-+Nuzhat+Fatima/data=!4m7!3m6!1s0x3bcddb082d6dfda5:0x612fa7d1c577b731!8m2!3d18.6769297!4d78.0658033!16s%2Fg%2F11d_z861zm!19sChIJpf1tLQjbzTsRMbd3xdGnL2E?authuser=0&hl=en&rclk=1,"18.6769297,78.0658033"
Shafiqa Masjid,Mosque,"M3FM+PWF Shafiqa Masjid, Ahmed Pura Colony, Mujahed Nagar, Nizamabad, Telangana 503001","Ahmed Pura Colony, Mujahed Nagar",M3FM+PWF,Nizamabad,503001,Telangana,IN,https://www.google.com/maps/place/Shafiqa+Masjid/data=!4m7!3m6!1s0x3bcddb19cebc5223:0xb832264785259fd4!8m2!3d18.674309!4d78.0847923!16s%2Fg%2F11gg720wmg!19sChIJI1K8zhnbzTsR1J8lhUcmMrg?authuser=0&hl=en&rclk=1,"18.674308999999997,78.08479229999999"
masjid e liyaqath unnisa,Mosque,"M3JP+48J masjid e liyaqath unnisa, Habeeb Nagar, Ambedkar Colony, Nizamabad, Telangana 503001","Habeeb Nagar, Ambedkar Colony",M3JP+48J,Nizamabad,503001,Telangana,IN,https://www.google.com/maps/place/masjid+e+liyaqath+unnisa/data=!4m7!3m6!1s0x3bcddb1665a075db:0x9de16fe6119d050e!8m2!3d18.6803476!4d78.0857778!16s%2Fg%2F11c381x1r3!19sChIJ23WgZRbbzTsRDgWdEeZv4Z0?authuser=0&hl=en&rclk=1,"18.680347599999997,78.0857778"
Masjid Ameena,Mosque,"M39G+CR8 Masjid Ameena, aman nagar, Nizamabad, Telangana 503001",aman nagar,M39G+CR8,Nizamabad,503001,Telangana,IN,https://www.google.com/maps/place/Masjid+Ameena/data=!4m7!3m6!1s0x3bcddb1caee3ede7:0x4a558d62d71aae9e!8m2!3d18.6685378!4d78.0770844!16s%2Fg%2F11f3p1ndvw!19sChIJ5-3jrhzbzTsRnq4a12KNVUo?authuser=0&hl=en&rclk=1,"18.6685378,78.07708439999999"
"Mohammadia Masjid, Borgom",Mosque,"M45C+2F7 Mohammadia Masjid, Borgom, Borgaon, mogupal, Nizamabad, Telangana 503230","Borgaon, mogupal",M45C+2F7,Nizamabad,503230,Telangana,IN,"https://www.google.com/maps/place/Mohammadia+Masjid,+Borgom/data=!4m7!3m6!1s0x3bcdc560cddb113b:0xc660e636f242e66a!8m2!3d18.6575366!4d78.1211822!16s%2Fg%2F11gydm3jdr!19sChIJOxHbzWDFzTsRauZC8jbmYMY?authuser=0&hl=en&rclk=1","18.6575366,78.12118219999999"
MASJID E QAMER,Mosque,"M3F8+H84 MASJID E QAMER, Sagar Hill Colony, Telangana 503001",Arsapally,"M3F8+H84, Sagar Hill Colony",Nizamabad,503001,Telangana,IN,https://www.google.com/maps/place/MASJID+E+QAMER/data=!4m7!3m6!1s0x3bcddb0a2dfb9257:0x44c482774f1b4bb6!8m2!3d18.6738778!4d78.0658416!16s%2Fg%2F11h0wd470k!19sChIJV5L7LQrbzTsRtksbT3eCxEQ?authuser=0&hl=en&rclk=1,"18.6738778,78.0658416"
masjid-e-qadarya,Mosque,"M3FQ+MW2 masjid-e-qadarya, Bodhan - Nizamabad Rd, Mustaid Pura, Mujahed Nagar, Nizamabad, Telangana 503001","Mustaid Pura, Mujahed Nagar","M3FQ+MW2, Bodhan - Nizamabad Rd",Nizamabad,503001,Telangana,IN,https://www.google.com/maps/place/masjid-e-qadarya/data=!4m7!3m6!1s0x3bcddb22ea1e99b3:0x2fafe1fb4d5ab7eb!8m2!3d18.6741426!4d78.0897796!16s%2Fg%2F11b6qn6crv!19sChIJs5ke6iLbzTsR67daTfvhry8?authuser=0&hl=en&rclk=1,"18.6741426,78.0897796"
Masjid E Habib,Mosque,"M3JP+JPM Masjid E Habib, Bypass Road, Nizam Colony, Arsapally, Nizamabad, Telangana 503001","Nizam Colony, Arsapally","M3JP+JPM, Bypass Road",Nizamabad,503001,Telangana,IN,https://www.google.com/maps/place/Masjid+E+Habib/data=!4m7!3m6!1s0x3bcddba9eef513db:0xf6c686a3bfdf9d67!8m2!3d18.6815873!4d78.0867901!16s%2Fg%2F11fs2qg0kc!19sChIJ2xP17qnbzTsRZ53fv6OGxvY?authuser=0&hl=en&rclk=1,"18.6815873,78.0867901"
Masjid-E-Hameed Unnisa,Mosque,"M4RF+XWP Masjid-E-Hameed Unnisa, Goopanpally, Nizamabad, Telangana 503003",Goopanpally,M4RF+XWP,Nizamabad,503003,Telangana,IN,https://www.google.com/maps/place/Masjid-E-Hameed+Unnisa/data=!4m7!3m6!1s0x3bcdc4b854c63289:0xdd6dbcd47e7ab534!8m2!3d18.6924739!4d78.1248293!16s%2Fg%2F11f8hybnj_!19sChIJiTLGVLjEzTsRNLV6ftS8bd0?authuser=0&hl=en&rclk=1,"18.6924739,78.1248293"
Masjid E Bilkhis,Mosque,"M38F+GP9 Masjid E Bilkhis, Asad Baba Nagar Road, Baban Saheb pahadi, Arsapally, Nizamabad, Telangana 503001",Arsapally,"M38F+GP9, Asad Baba Nagar Road, Baban Saheb pahadi",Nizamabad,503001,Telangana,IN,https://www.google.com/maps/place/Masjid+E+Bilkhis/data=!4m7!3m6!1s0x3bcddbc6a9dd29a3:0x45fc66cf295ba4d3!8m2!3d18.666293!4d78.0743475!16s%2Fg%2F11h_67dvqz!19sChIJoyndqcbbzTsR06RbKc9m_EU?authuser=0&hl=en&rclk=1,"18.666293,78.0743475"
Masjid-E-Mohammadia,Mosque,"M45C+369 Masjid-E-Mohammadia, Borgaon, Vinayak Nagar, Nizamabad, Telangana 503230","Borgaon, Vinayak Nagar",M45C+369,Nizamabad,503230,Telangana,IN,https://www.google.com/maps/place/Masjid-E-Mohammadia/data=!4m7!3m6!1s0x3bcdc52f0c5e27db:0xca7bf8f7a1bb8821!8m2!3d18.6576504!4d78.1206145!16s%2Fg%2F11cs9mjdsk!19sChIJ2ydeDC_FzTsRIYi7off4e8o?authuser=0&hl=en&rclk=1,"18.657650399999998,78.1206145"
Shareef Masjid,Mosque,"Shareef Masjid, Mujahed Nagar, Nizamabad, Telangana 503001",Mujahed Nagar,,Nizamabad,503001,Telangana,IN,https://www.google.com/maps/place/Shareef+Masjid/data=!4m7!3m6!1s0x3bcddb19ef7f851f:0x8eac4b018fb58e17!8m2!3d18.6744782!4d78.0832272!16s%2Fg%2F11hcfpbqck!19sChIJH4V_7xnbzTsRF461jwFLrI4?authuser=0&hl=en&rclk=1,"18.6744782,78.0832272"
Masjid-E- Noor,Mosque,"M3MG+HJQ Masjid-E- Noor, Arsapally, Nizamabad, Telangana 503001",Arsapally,M3MG+HJQ,Nizamabad,503001,Telangana,IN,https://www.google.com/maps/place/Masjid-E-+Noor/data=!4m7!3m6!1s0x3bcddb1281ff0f99:0x4615b390abcad9ab!8m2!3d18.6839527!4d78.076617!16s%2Fg%2F11g1lkhs9n!19sChIJmQ__gRLbzTsRq9nKq5CzFUY?authuser=0&hl=en&rclk=1,"18.6839527,78.076617"
Masjid-E-Qasmi,Mosque,"M39V+Q4F Masjid-E-Qasmi, Barkatpura, Nizamabad, Telangana 503001",Barkatpura,M39V+Q4F,Nizamabad,503001,Telangana,IN,https://www.google.com/maps/place/Masjid-E-Qasmi/data=!4m7!3m6!1s0x3bcddb5dd7e211e1:0xbbe0f39c3b044d9c!8m2!3d18.6694369!4d78.0927955!16s%2Fg%2F11fpnsg5t8!19sChIJ4RHi113bzTsRnE0EO5zz4Ls?authuser=0&hl=en&rclk=1,"18.6694369,78.0927955"
Masjid-E-Mohammedia,Mosque,"P334+J35 Masjid-E-Mohammedia, Shastri Nagar, Near Jankampet Railway Station, Nizamabad, Telangana",Shastri Nagar,"P334+J35, Shastri Nagar, Near Jankampet Railway Station",Nizamabad,,Telangana,IN,https://www.google.com/maps/place/Masjid-E-Mohammedia/data=!4m7!3m6!1s0x3bcddb2e0213313d:0xac545eafaf74b7de!8m2!3d18.7040145!4d78.0552455!16s%2Fg%2F11fjzbf18f!19sChIJPTETAi7bzTsR3rd0r69eVKw?authuser=0&hl=en&rclk=1,"18.7040145,78.0552455"
Masjid E Rasheeda Burhan,Mosque,"P426+3XQ Masjid E Rasheeda Burhan, New APHB Colony, Nizamabad, Telangana 503002",New APHB Colony,P426+3XQ,Nizamabad,503002,Telangana,IN,https://www.google.com/maps/place/Masjid+E+Rasheeda+Burhan/data=!4m7!3m6!1s0x3bcdc4b29edd2447:0xef0be02da6201be4!8m2!3d18.7002154!4d78.1124728!16s%2Fg%2F11c6twy448!19sChIJRyTdnrLEzTsR5Bsgpi3gC-8?authuser=0&hl=en&rclk=1,"18.700215399999998,78.11247279999999"
Masjid e Ghazi,Mosque,"M38X+G39 Masjid e Ghazi, Jandagally, Kotagally, Nizamabad, Telangana 503001","Jandagally, Kotagally",M38X+G39,Nizamabad,503001,Telangana,IN,https://www.google.com/maps/place/Masjid+e+Ghazi/data=!4m7!3m6!1s0x3bcddb27bec8c5dd:0x10124e7f24067af4!8m2!3d18.6662821!4d78.0977249!16s%2Fg%2F11b809djfk!19sChIJ3cXIvifbzTsR9HoGJH9OEhA?authuser=0&hl=en&rclk=1,"18.6662821,78.0977249"
Masjid E Imaam Ahmad Raza RadhiAllahuAnhu,Mosque,"M3H8+586 Masjid E Imaam Ahmad Raza RadhiAllahuAnhu, Arsapally, Nizamabad, Telangana 503001",Arsapally,M3H8+586,Nizamabad,503001,Telangana,IN,https://www.google.com/maps/place/Masjid+E+Imaam+Ahmad+Raza+RadhiAllahuAnhu/data=!4m7!3m6!1s0x3bcddb09da2bcfb7:0x653206ebbe0bce61!8m2!3d18.6779207!4d78.0657754!16s%2Fg%2F11d_ts_728!19sChIJt88r2gnbzTsRYc4LvusGMmU?authuser=0&hl=en&rclk=1,"18.677920699999998,78.06577539999999"
MASJI-E-KHAIRUNNISA,Mosque,"M3CM+CJ3 MASJI-E-KHAIRUNNISA, Malapally, Mujahed Nagar, Nizamabad, Telangana 503001","Malapally, Mujahed Nagar",M3CM+CJ3,Nizamabad,503001,Telangana,IN,https://www.google.com/maps/place/MASJI-E-KHAIRUNNISA/data=!4m7!3m6!1s0x3bcddb1915da9435:0x28e38da316349b2b!8m2!3d18.671012!4d78.0840396!16s%2Fg%2F11f29y4xk7!19sChIJNZTaFRnbzTsRK5s0FqON4yg?authuser=0&hl=en&rclk=1,"18.671011999999997,78.0840396"
Masjid e Raheem,Mosque,"M3CM+99F Masjid e Raheem, Malapally St, NRI Colony, Mujahed Nagar, Nizamabad, Telangana 503001","NRI Colony, Mujahed Nagar","M3CM+99F, Malapally St",Nizamabad,503001,Telangana,IN,https://www.google.com/maps/place/Masjid+e+Raheem/data=!4m7!3m6!1s0x3bcddb196a117557:0x468547a9702b8a20!8m2!3d18.6709253!4d78.0834244!16s%2Fg%2F11g8fy5jfd!19sChIJV3URahnbzTsRIIorcKlHhUY?authuser=0&hl=en&rclk=1,"18.6709253,78.0834244"
Masjid-e-mahaboob Haneef,Mosque,"M3JQ+64P Masjid-e-mahaboob Haneef, Ambedkar Colony, Nizamabad, Telangana 503001",Ambedkar Colony,M3JQ+64P,Nizamabad,503001,Telangana,IN,https://www.google.com/maps/place/Masjid-e-mahaboob+Haneef/data=!4m7!3m6!1s0x3bcddb161cdf7699:0x3ba62752f3d96d87!8m2!3d18.6805832!4d78.0878306!16s%2Fg%2F11f767wx1l!19sChIJmXbfHBbbzTsRh23Z81Inpjs?authuser=0&hl=en&rclk=1,"18.680583199999997,78.08783059999999"
Masjid-e-quresh,Mosque,"Masjid-e-quresh, Painter colony, Arsapally, Nizamabad, Telangana 503186",Arsapally,Painter colony,Nizamabad,503186,Telangana,IN,https://www.google.com/maps/place/Masjid-e-quresh/data=!4m7!3m6!1s0x3bcddb9b2bd63721:0xf14a7e43017934ab!8m2!3d18.6678445!4d78.0677059!16s%2Fg%2F11h8z7xdrp!19sChIJITfWK5vbzTsRqzR5AUN-SvE?authuser=0&hl=en&rclk=1,"18.667844499999998,78.06770589999999"
Masjid-E-Fatima,Mosque,"M369+4J7 Masjid-E-Fatima, Nizamabad, Telangana 503001",,M369+4J7,Nizamabad,,Telangana,IN,https://www.google.com/maps/place/Masjid-E-Fatima/data=!4m7!3m6!1s0x3bcddafe5b9da137:0x161ccc59ee912268!8m2!3d18.6602818!4d78.0690589!16s%2Fg%2F11f55p1pf3!19sChIJN6GdW_7azTsRaCKR7lnMHBY?authuser=0&hl=en&rclk=1,"18.6602818,78.0690589"
Masjid e yousufiya,Mosque,"M3CW+F27 Masjid e yousufiya, Shivaji Nagar, Nizamabad, Telangana 503001",Shivaji Nagar,M3CW+F27,Nizamabad,503001,Telangana,IN,https://www.google.com/maps/place/Masjid+e+yousufiya/data=!4m7!3m6!1s0x3bcddb163161a2a5:0x240346ca4cd7fc40!8m2!3d18.6711724!4d78.0950371!16s%2Fg%2F11sgrb971f!19sChIJpaJhMRbbzTsRQPzXTMpGAyQ?authuser=0&hl=en&rclk=1,"18.6711724,78.0950371"
Masjid E Zaheer,Mosque,"M3FQ+35H Masjid E Zaheer, Khoja Colony, Islampura, Nizamabad, Telangana 503001","Khoja Colony, Islampura",M3FQ+35H,Nizamabad,503001,Telangana,IN,https://www.google.com/maps/place/Masjid+E+Zaheer/data=!4m7!3m6!1s0x3bcddb703a683f57:0xb4f35bdb17c24372!8m2!3d18.6726751!4d78.0879766!16s%2Fg%2F11fb30590d!19sChIJVz9oOnDbzTsRckPCF9tb87Q?authuser=0&hl=en&rclk=1,"18.6726751,78.08797659999999"
Masjid-E-Amena,Mosque,"M493+93R Masjid-E-Amena, Phulong, Nizamabad, Telangana 503001",Phulong,M493+93R,Nizamabad,503001,Telangana,IN,https://www.google.com/maps/place/Masjid-E-Amena/data=!4m7!3m6!1s0x3bcddbf5d5619e8b:0xe7a0a5a52b450a5c!8m2!3d18.6684817!4d78.1026458!16s%2Fg%2F11scblwcpk!19sChIJi55h1fXbzTsRXApFK6WloOc?authuser=0&hl=en&rclk=1,"18.668481699999997,78.10264579999999"
Masjid,Mosque,"P43J+FCH Masjid, Mubaraknagar, Nizamabad, Telangana 503003",Mubaraknagar,P43J+FCH,Nizamabad,503003,Telangana,IN,https://www.google.com/maps/place/Masjid/data=!4m7!3m6!1s0x3bcdc50313a5db69:0xa0d688c8eb8892ae!8m2!3d18.7036804!4d78.1311145!16s%2Fg%2F11kr82bkcc!19sChIJadulEwPFzTsRrpKI68iI1qA?authuser=0&hl=en&rclk=1,"18.7036804,78.1311145"
Masjid-e-Mohammed Qamar,Mosque,"Masjid-e-Mohammed Qamar, Akbar Bagh Colony, near Knowledge School, Arsapally, Nizamabad, Telangana 503001",Arsapally,"Akbar Bagh Colony, near Knowledge School",Nizamabad,503001,Telangana,IN,https://www.google.com/maps/place/Masjid-e-Mohammed+Qamar/data=!4m7!3m6!1s0x3bcddb778e98c6d1:0xa7dd71f023a526ae!8m2!3d18.6825026!4d78.0684215!16s%2Fg%2F11nyc54s37!19sChIJ0caYjnfbzTsRrialI_Bx3ac?authuser=0&hl=en&rclk=1,"18.6825026,78.0684215"
