name,main_category,address,address_ward,address_street,address_city,address_postal_code,address_state,address_country_code,link,coordinates
Islampet Mosque,Mosque,"63H4+R9W Islampet Mosque, Venkat Reddy Nagar, Narasaraopeta, Andhra Pradesh 522601",Venkat Reddy Nagar,63H4+R9W,Narasaraopeta,522601,Andhra Pradesh,IN,https://www.google.com/maps/place/Islampet+Mosque/data=!4m7!3m6!1s0x3a4a80dfd41b6a45:0xe3bc1dc99299ee92!8m2!3d16.229608!4d80.0559528!16s%2Fg%2F11clt709nd!19sChIJRWob1N-ASjoRku6ZkskdvOM?authuser=0&hl=en&rclk=1,"16.229608,80.0559528"
Usman E Gani Masjid,Mosque,"62JW+HMV Usman E Gani Masjid, Ed-gah Grounds, Prakash Nagar, Narasaraopeta, Andhra Pradesh 522601",Prakash Nagar,62JW+HMV Ed-gah Grounds,Narasaraopeta,522601,Andhra Pradesh,IN,https://www.google.com/maps/place/Usman+E+Gani+Masjid/data=!4m7!3m6!1s0x3a4a8118e9a83c6d:0x439ad4bed41cc1f1!8m2!3d16.2313312!4d80.0463521!16s%2Fg%2F11b6sykfd5!19sChIJbTyo6RiBSjoR8cEc1L7UmkM?authuser=0&hl=en&rclk=1,"16.2313312,80.0463521"
Munavvar Masjid,Mosque,"Munavvar Masjid, Ramireddypet,, Narasaraopeta, Andhra Pradesh 522601",Arundelpet,"Ramireddypet,",Narasaraopeta,522601,Andhra Pradesh,IN,https://www.google.com/maps/place/Munavvar+Masjid/data=!4m7!3m6!1s0x3a4a811768015ee1:0xc5ff72d89816256d!8m2!3d16.2335792!4d80.0416066!16s%2Fg%2F11c584snrk!19sChIJ4V4BaBeBSjoRbSUWmNhy_8U?authuser=0&hl=en&rclk=1,"16.233579199999998,80.0416066"
Badi Masjid,Mosque,"63P4+F6Q Badi Masjid, Chilakaluripet Rd, Barampet, Narasaraopeta, Andhra Pradesh 522601",Barampet,"63P4+F6Q, Chilakaluripet Rd",Narasaraopeta,522601,Andhra Pradesh,IN,https://www.google.com/maps/place/Badi+Masjid/data=!4m7!3m6!1s0x3a4a80e22f62aa73:0x50ac057bea97a805!8m2!3d16.2362214!4d80.0556088!16s%2Fg%2F11b6txcnp6!19sChIJc6piL-KASjoRBaiX6nsFrFA?authuser=0&hl=en&rclk=1,"16.236221399999998,80.0556088"
Firdous Masjid,Mosque,"63G3+JW7 Firdous Masjid, Sai Balaji Nagar Road, Vengala Reddy Nagar, Narasaraopeta, Andhra Pradesh 522601","Vengala Reddy Nagar, Srinivasa Nagar","63G3+JW7, Sai Balaji Nagar Road, Vengala Reddy Nagar",Narasaraopeta,522601,Andhra Pradesh,IN,https://www.google.com/maps/place/Firdous+Masjid/data=!4m7!3m6!1s0x3a4a80df735d2c41:0xc3f0a63591157512!8m2!3d16.2265448!4d80.0548112!16s%2Fg%2F11c619zhkv!19sChIJQSxdc9-ASjoREnUVkTWm8MM?authuser=0&hl=en&rclk=1,"16.2265448,80.0548112"
Noor Masjid,Mosque,"62MP+FMP Noor Masjid, Navodaya Nagar, Arundelpet, Narasaraopeta, Andhra Pradesh 522601","Navodaya Nagar, Arundelpet",62MP+FMP,Narasaraopeta,522601,Andhra Pradesh,IN,https://www.google.com/maps/place/Noor+Masjid/data=!4m7!3m6!1s0x3a4a8116a750d233:0x44b786aae6237c35!8m2!3d16.2337127!4d80.0367013!16s%2Fg%2F11c5_8pm6k!19sChIJM9JQpxaBSjoRNXwj5qqGt0Q?authuser=0&hl=en&rclk=1,"16.233712699999998,80.03670129999999"
Jamiya Masjid,Mosque,"63P2+536 Jamiya Masjid, SH 45, Srirampuram, Varavakatta, Narasaraopeta, Andhra Pradesh 522601","Srirampuram, Varavakatta","63P2+536, SH 45",Narasaraopeta,522601,Andhra Pradesh,IN,https://www.google.com/maps/place/Jamiya+Masjid/data=!4m7!3m6!1s0x3a4a811c2a0cbc2f:0xf7bc1c2d84eea414!8m2!3d16.2354192!4d80.0501257!16s%2Fg%2F1ptwflgvz!19sChIJL7wMKhyBSjoRFKTuhC0cvPc?authuser=0&hl=en&rclk=1,"16.2354192,80.0501257"
Bilal Masjid,Mosque,"62HR+99M Bilal Masjid, Prakash Nagar, Narasaraopeta, Andhra Pradesh 522601",Prakash Nagar,62HR+99M,Narasaraopeta,522601,Andhra Pradesh,IN,https://www.google.com/maps/place/Bilal+Masjid/data=!4m7!3m6!1s0x3a4a813d42a9c687:0xaee519d4bdc1e5a4!8m2!3d16.2284569!4d80.0409158!16s%2Fg%2F11c59n0_41!19sChIJh8apQj2BSjoRpOXBvdQZ5a4?authuser=0&hl=en&rclk=1,"16.228456899999998,80.0409158"
Madina Masjid,Mosque,"63V3+66F Madina Masjid, Barampet, Narasaraopeta, Andhra Pradesh 522601",Barampet,63V3+66F,Narasaraopeta,522601,Andhra Pradesh,IN,https://www.google.com/maps/place/Madina+Masjid/data=!4m7!3m6!1s0x3a4a8102991c0107:0xd73a7f9bf2aa2dbc!8m2!3d16.2430654!4d80.0530332!16s%2Fg%2F11c1wks8q3!19sChIJBwEcmQKBSjoRvC2q8pt_Otc?authuser=0&hl=en&rclk=1,"16.2430654,80.0530332"
Maimuna Masjid,Mosque,"62HM+VJ9 Maimuna Masjid, Lingamguntla Agraharam Rural, Andhra Pradesh 522601",,62HM+VJ9,Lingamguntla Agraharam Rural,522601,Andhra Pradesh,IN,https://www.google.com/maps/place/Maimuna+Masjid/data=!4m7!3m6!1s0x3a4a81159d267e95:0x8e8faccb77656212!8m2!3d16.2296623!4d80.0341034!16s%2Fg%2F11cs3y6w_d!19sChIJlX4mnRWBSjoREmJld8usj44?authuser=0&hl=en&rclk=1,"16.229662299999998,80.03410339999999"
Masjid E Mahmoodia,Mosque,"62VW+5VJ Masjid E Mahmoodia, Paturu, Narasaraopeta, Andhra Pradesh 522601",Paturu,62VW+5VJ,Narasaraopeta,522601,Andhra Pradesh,IN,https://www.google.com/maps/place/Masjid+E+Mahmoodia/data=!4m7!3m6!1s0x3a4a8104912e7d73:0xca0ad9ac9606045e!8m2!3d16.2429521!4d80.0471305!16s%2Fg%2F11c1wk415f!19sChIJc30ukQSBSjoRXgQGlqzZCso?authuser=0&hl=en&rclk=1,"16.2429521,80.0471305"
Jumma Masjid,Mosque,"63Q2+VQF Jumma Masjid, Barampet, Narasaraopeta, Andhra Pradesh 522601",Barampet,63Q2+VQF,Narasaraopeta,522601,Andhra Pradesh,IN,https://www.google.com/maps/place/Jumma+Masjid/data=!4m7!3m6!1s0x3a4a811d1461b8f5:0xf795fb39f3c91f90!8m2!3d16.2396888!4d80.0519069!16s%2Fg%2F11c5_0w6g2!19sChIJ9bhhFB2BSjoRkB_J8zn7lfc?authuser=0&hl=en&rclk=1,"16.2396888,80.05190689999999"
Aamina Masjid,Mosque,"63J5+X6J Aamina Masjid, Venkat Reddy Nagar, Narasaraopeta, Andhra Pradesh 522601",Venkat Reddy Nagar,63J5+X6J,Narasaraopeta,522601,Andhra Pradesh,IN,https://www.google.com/maps/place/Aamina+Masjid/data=!4m7!3m6!1s0x3a4a80e0dc0d42a7:0x7d86714654cee73c!8m2!3d16.2324691!4d80.0580117!16s%2Fg%2F11c59nz_mk!19sChIJp0IN3OCASjoRPOfOVEZxhn0?authuser=0&hl=en&rclk=1,"16.2324691,80.0580117"
Mothi Masjid,Mosque,"Mothi Masjid, 16-1-238, Chilakaluripet Rd, Babapet, Babapeta, Narasaraopeta, Andhra Pradesh 522601","Babapet, Babapeta","16-1-238, Chilakaluripet Rd",Narasaraopeta,522601,Andhra Pradesh,IN,https://www.google.com/maps/place/Mothi+Masjid/data=!4m7!3m6!1s0x3a4a80e7847dd5b3:0x3b8f37098ec8c413!8m2!3d16.2307448!4d80.062246!16s%2Fg%2F11b7b_zt1s!19sChIJs9V9hOeASjoRE8TIjgk3jzs?authuser=0&hl=en&rclk=1,"16.2307448,80.062246"
Ali Murtaza Masjid,Mosque,"62GR+MJC Ali Murtaza Masjid, Bapanayyanagar, Prakash Nagar, Narasaraopeta, Andhra Pradesh 522601","Bapanayyanagar, Prakash Nagar",62GR+MJC,Narasaraopeta,522601,Andhra Pradesh,IN,https://www.google.com/maps/place/Ali+Murtaza+Masjid/data=!4m7!3m6!1s0x3a4a813d25df8a5d:0xf2460504d3da9185!8m2!3d16.2266909!4d80.0415229!16s%2Fg%2F11c585qcdd!19sChIJXYrfJT2BSjoRhZHa0wQFRvI?authuser=0&hl=en&rclk=1,"16.226690899999998,80.04152289999999"
Kausar Masjid,Mosque,"2, Kausar Masjid, 254, 522601 1, 254, Narasaraopet Sattenapalli Rd, Barampet, Narasaraopeta, Andhra Pradesh 522601",Barampet,"2, 254, 522601 1, 254, Narasaraopet Sattenapalli Rd",Narasaraopeta,522601,Andhra Pradesh,IN,https://www.google.com/maps/place/Kausar+Masjid/data=!4m7!3m6!1s0x3a4a80fef3a5918d:0x2d0f34688687a093!8m2!3d16.249065!4d80.0567635!16s%2Fg%2F11c59pxh57!19sChIJjZGl8_6ASjoRk6CHhmg0Dy0?authuser=0&hl=en&rclk=1,"16.249064999999998,80.0567635"
HUDA Masjid,Place of worship,"62GX+G4J HUDA Masjid, Prakash Nagar, sateesh road, Narasaraopet, Andhra Pradesh, Narasaraopeta, 522601",Prakash Nagar,"62GX+G4J, Prakash Nagar, sateesh road, Narasaraopet, Andhra Pradesh",Narasaraopeta,522601,Andhra Pradesh,IN,https://www.google.com/maps/place/HUDA+Masjid/data=!4m7!3m6!1s0x3a4a8123d5c7dcc5:0x8874bc18c81b0554!8m2!3d16.2263423!4d80.0477754!16s%2Fg%2F11b64jh6m1!19sChIJxdzH1SOBSjoRVAUbyBi8dIg?authuser=0&hl=en&rclk=1,"16.2263423,80.04777539999999"
Masjid Umar-E-Farookh,Mosque,"Masjid Umar-E-Farookh, Umar farookh masjid, street, Varavakatta, Narasaraopeta, Andhra Pradesh 522601",Varavakatta,"Umar farookh masjid, street",Narasaraopeta,522601,Andhra Pradesh,IN,https://www.google.com/maps/place/Masjid+Umar-E-Farookh/data=!4m7!3m6!1s0x3a4a8183d2827b93:0x8c402fd7a770770!8m2!3d16.2339907!4d80.0505173!16s%2Fg%2F11q2yf96yw!19sChIJk3uC0oOBSjoRcAd3ev0CxAg?authuser=0&hl=en&rclk=1,"16.2339907,80.0505173"
farooqia masjid,Mosque,"farooqia masjid, Nimma thota, Guntur Rd, beside Amulya Nursing Home, Barampet, Narasaraopeta, Andhra Pradesh 522601",Barampet,"Nimma thota, Guntur Rd, beside Amulya Nursing Home",Narasaraopeta,522601,Andhra Pradesh,IN,https://www.google.com/maps/place/farooqia+masjid/data=!4m7!3m6!1s0x3a4a81750ee45ee7:0xa0b3231492fd68cf!8m2!3d16.2366383!4d80.0564299!16s%2Fg%2F11slvwc16k!19sChIJ517kDnWBSjoRz2j9khQjs6A?authuser=0&hl=en&rclk=1,"16.2366383,80.0564299"
Mecca Masjid,Mosque,"63G2+P6C Mecca Masjid, Vinukonda Rd, Prakash Nagar, Narasaraopeta, Andhra Pradesh 522601",Prakash Nagar,"63G2+P6C, Vinukonda Rd",Narasaraopeta,522601,Andhra Pradesh,IN,https://www.google.com/maps/place/Mecca+Masjid/data=!4m7!3m6!1s0x3a4a8121aa88ea85:0x6dfcbf49dcac2331!8m2!3d16.2268115!4d80.0505161!16s%2Fg%2F11c1wvgps5!19sChIJheqIqiGBSjoRMSOs3Em__G0?authuser=0&hl=en&rclk=1,"16.2268115,80.0505161"
Masjid e hussain,Mosque,"63M4+6HM Masjid e hussain, Unnamed Road, Panasathota, Barampet, Narasaraopeta, Andhra Pradesh 522601","Panasathota, Barampet","63M4+6HM, Unnamed Road",Narasaraopeta,522601,Andhra Pradesh,IN,https://www.google.com/maps/place/Masjid+e+hussain/data=!4m7!3m6!1s0x3a4a8142303fff81:0xd9c5de0f7c4f2180!8m2!3d16.2330784!4d80.0564313!16s%2Fg%2F11h1mg3tdl!19sChIJgf8_MEKBSjoRgCFPfA_exdk?authuser=0&hl=en&rclk=1,"16.2330784,80.0564313"
Masjid A Hasan,Mosque,"7323+HPF Masjid A Hasan, BC Colony, Barampet, Narasaraopeta, Andhra Pradesh 522601","BC Colony, Barampet",7323+HPF,Narasaraopeta,522601,Andhra Pradesh,IN,https://www.google.com/maps/place/Masjid+A+Hasan/data=!4m7!3m6!1s0x3a4a8169a68e103b:0x7bb2740e7140ac47!8m2!3d16.2514322!4d80.0542956!16s%2Fg%2F11mq5_y8df!19sChIJOxCOpmmBSjoRR6xAcQ50sns?authuser=0&hl=en&rclk=1,"16.2514322,80.0542956"
Abubakar masjid,Mosque,"63F7+57Q Abubakar masjid, Srinivasareddypet, Narasaraopeta, Andhra Pradesh 522601",Srinivasareddypet,63F7+57Q,Narasaraopeta,522601,Andhra Pradesh,IN,https://www.google.com/maps/place/Abubakar+masjid/data=!4m7!3m6!1s0x3a4a81db5dcfc3ef:0xd75e3fdaaed4c16!8m2!3d16.2229655!4d80.0632405!16s%2Fg%2F11rvlzd2vr!19sChIJ78PPXduBSjoRFkztqv3jdQ0?authuser=0&hl=en&rclk=1,"16.2229655,80.06324049999999"
Masjid-e-Khadijah,Mosque,"Masjid-e-Khadijah, Enugula, Kummari Bazar, Narasaraopeta, Andhra Pradesh 522601",Barampet,"Enugula, Kummari Bazar",Narasaraopeta,522601,Andhra Pradesh,IN,https://www.google.com/maps/place/Masjid-e-Khadijah/data=!4m7!3m6!1s0x3a4a81e32c17d7a3:0x9d138f33e3767c18!8m2!3d16.239689!4d80.0519049!16s%2Fg%2F11tffj76jk!19sChIJo9cXLOOBSjoRGHx24zOPE50?authuser=0&hl=en&rclk=1,"16.239689,80.0519049"
masjid-e- zainab,Mosque,"63F7+QPH masjid-e- zainab, Srinivasa Nagar, Narasaraopeta, Andhra Pradesh 522601",Srinivasa Nagar,63F7+QPH,Narasaraopeta,522601,Andhra Pradesh,IN,https://www.google.com/maps/place/masjid-e-+zainab/data=!4m7!3m6!1s0x3a4a81734d2f6417:0xc1851e106cd193d9!8m2!3d16.2242472!4d80.0645868!16s%2Fg%2F11kc8gb8f_!19sChIJF2QvTXOBSjoR2ZPRbBAehcE?authuser=0&hl=en&rclk=1,"16.2242472,80.0645868"
Bharampet masjid,Mosque,"63V3+759 Bharampet masjid, Barampet, Narasaraopeta, Andhra Pradesh 522601",Barampet,63V3+759,Narasaraopeta,522601,Andhra Pradesh,IN,https://www.google.com/maps/place/Bharampet+masjid/data=!4m7!3m6!1s0x3a4a81830bb0c8db:0x9a64aa74d2337d0b!8m2!3d16.2431751!4d80.053038!16s%2Fg%2F11s5dvt84h!19sChIJ28iwC4OBSjoRC30z0nSqZJo?authuser=0&hl=en&rclk=1,"16.2431751,80.053038"
AAMEENA MOSQUE,Mosque,"63J5+84M AAMEENA MOSQUE, Unnamed Road, Venkat Reddy Nagar, Srinivasa Nagar, Narasaraopeta, Andhra Pradesh 522601","Venkat Reddy Nagar, Srinivasa Nagar","63J5+84M, Unnamed Road",Narasaraopeta,522601,Andhra Pradesh,IN,https://www.google.com/maps/place/AAMEENA+MOSQUE/data=!4m7!3m6!1s0x3a4a817c7c357d69:0x6287789f7650d2f2!8m2!3d16.2308328!4d80.0577985!16s%2Fg%2F11h3x3z4xp!19sChIJaX01fHyBSjoR8tJQdp94h2I?authuser=0&hl=en&rclk=1,"16.230832799999998,80.05779849999999"
Ayesha Mosque,Mosque,"63V5+VWW Ayesha Mosque, Barampet, Narasaraopeta, Andhra Pradesh 522601",Barampet,63V5+VWW,Narasaraopeta,522601,Andhra Pradesh,IN,https://www.google.com/maps/place/Ayesha+Mosque/data=!4m7!3m6!1s0x3a4a812f9bbe8d83:0xff8475e32495fd6b!8m2!3d16.244728!4d80.0598378!16s%2Fg%2F11q8gc7l2j!19sChIJg42-my-BSjoRa_2VJON1hP8?authuser=0&hl=en&rclk=1,"16.244728,80.0598378"
Madjid a zainub,Mosque,"Madjid a zainub, Srkt colony, Ameensaheb Palem, Arundelpet, Narasaraopeta, Andhra Pradesh 522601","Ameensaheb Palem, Arundelpet",Srkt colony,Narasaraopeta,522601,Andhra Pradesh,IN,https://www.google.com/maps/place/Madjid+a+zainub/data=!4m7!3m6!1s0x3a4a81ed9627e90b:0x9fc2816670ad4952!8m2!3d16.2364564!4d80.0476184!16s%2Fg%2F11tn0rk0py!19sChIJC-knlu2BSjoRUkmtcGaBwp8?authuser=0&hl=en&rclk=1,"16.236456399999998,80.04761839999999"
Fazza Mohammed Dasthagir,Mosque,"62MX+6VW Fazza Mohammed Dasthagir, Varavakatta, Narasaraopeta, Andhra Pradesh 522601",Varavakatta,62MX+6VW,Narasaraopeta,522601,Andhra Pradesh,IN,https://www.google.com/maps/place/Fazza+Mohammed+Dasthagir/data=!4m7!3m6!1s0x3a4a8172a6c44507:0x77e4f7833eeb10ff!8m2!3d16.2331057!4d80.0496959!16s%2Fg%2F11jcltvg85!19sChIJB0XEpnKBSjoR_xDrPoP35Hc?authuser=0&hl=en&rclk=1,"16.2331057,80.0496959"
