name,main_category,address,address_ward,address_street,address_city,address_postal_code,address_state,address_country_code,link,coordinates
Fazli Masjid (Miya Sahab) Hayat Nagar,Mosque,"Fazli Masjid (Miya Sahab) Hayat Nagar, Dargah Hazrat Moein Miya Huzoor (Miya Sahab), Hayat Nagar, Haat Road, Rajendra Nagar Main Rd, Ratlam, Madhya Pradesh 457001",Laxman Pura,"Dargah Hazrat Moein Miya Huzoor (Miya Sahab), Hayat Nagar, Haat Road, Rajendra Nagar Main Rd",Ratlam,457001,Madhya Pradesh,IN,https://www.google.com/maps/place/Fazli+Masjid+%28Miya+Sahab%29+Hayat+Nagar/data=!4m7!3m6!1s0x3963fe9b480bf0eb:0x64e806c22395f528!8m2!3d23.327829!4d75.0269242!16s%2Fg%2F11g6nw2kw3!19sChIJ6_ALSJv-YzkRKPWVI8IG6GQ?authuser=0&hl=en&rclk=1,"23.327828999999998,75.0269242"
Madina Masjid,Mosque,"82HJ+52G Madina Masjid, Haat Rd, Opp. Police Station, Laxman Pura, Ratlam, Madhya Pradesh 457001",Laxman Pura,"82HJ+52G, Haat Rd, Opp. Police Station",Ratlam,457001,Madhya Pradesh,IN,https://www.google.com/maps/place/Madina+Masjid/data=!4m7!3m6!1s0x3963fe9c0b1fab85:0xc15f7fd60c625d19!8m2!3d23.3279281!4d75.0300728!16s%2Fg%2F11cks14syx!19sChIJhasfC5z-YzkRGV1iDNZ_X8E?authuser=0&hl=en&rclk=1,"23.327928099999998,75.0300728"
Mominpura masjid,Mosque,"82GM+37V Mominpura masjid, Momin Pura Main Road, Laxman Pura, Ratlam, Madhya Pradesh 457001",Laxman Pura,"82GM+37V, Momin Pura Main Road",Ratlam,457001,Madhya Pradesh,IN,https://www.google.com/maps/place/Mominpura+masjid/data=!4m7!3m6!1s0x3963fe9e93af0655:0xf45bd3314d0b973c!8m2!3d23.3252445!4d75.0331644!16s%2Fg%2F119trnlxj!19sChIJVQavk57-YzkRPJcLTTHTW_Q?authuser=0&hl=en&rclk=1,"23.3252445,75.03316439999999"
Kajipura Masjid,Mosque,"Kajipura Masjid, Mochi Pura, Sherani Pura, Ratlam, Madhya Pradesh 457001","Mochi Pura, Sherani Pura",,Ratlam,457001,Madhya Pradesh,IN,https://www.google.com/maps/place/Kajipura+Masjid/data=!4m7!3m6!1s0x3963fc1d9d7111c1:0x834fd43b62aad37d!8m2!3d23.3218115!4d75.0464514!16s%2Fg%2F1tf68g69!19sChIJwRFxnR38YzkRfdOqYjvUT4M?authuser=0&hl=en&rclk=1,"23.3218115,75.0464514"
Markaz Masjid Sherani Pura,Mosque,"82FX+94R Markaz Masjid Sherani Pura, Mochi Pura, Sherani Pura, Ratlam, Madhya Pradesh 457001","Mochi Pura, Sherani Pura",82FX+94R,Ratlam,457001,Madhya Pradesh,IN,https://www.google.com/maps/place/Markaz+Masjid+Sherani+Pura/data=!4m7!3m6!1s0x3963fc1ce2043d47:0x66c7f0589229eb0!8m2!3d23.3234935!4d75.0477641!16s%2Fg%2F11gcygy6z5!19sChIJRz0E4hz8YzkRsJ4iiQV_bAY?authuser=0&hl=en&rclk=1,"23.323493499999998,75.0477641"
Nurani masjid,Mosque,"Nurani masjid, Gandhi Nagar, Ratlam, Madhya Pradesh 457001",Gandhi Nagar,,Ratlam,457001,Madhya Pradesh,IN,https://www.google.com/maps/place/Nurani+masjid/data=!4m7!3m6!1s0x3963febef4bbeff1:0x381e92b073f85746!8m2!3d23.341134!4d75.040911!16s%2Fg%2F11c5wq9pcz!19sChIJ8e-79L7-YzkRRlf4c7CSHjg?authuser=0&hl=en&rclk=1,"23.341134,75.040911"
SAIFY MASJID RATLAM,Mosque,"82CM+C3M SAIFY MASJID RATLAM, Bohra Baakhal, Ratlam, Madhya Pradesh 457001",Bohra Baakhal,82CM+C3M,Ratlam,457001,Madhya Pradesh,IN,https://www.google.com/maps/place/SAIFY+MASJID+RATLAM/data=!4m7!3m6!1s0x3963fc20a6218d47:0xd16026134e9a7927!8m2!3d23.3210805!4d75.0326765!16s%2Fg%2F11f045lgrg!19sChIJR40hpiD8YzkRJ3maThMmYNE?authuser=0&hl=en&rclk=1,"23.321080499999997,75.0326765"
Chatripul Masjid,Mosque,"Chatripul Masjid, 13, Ajanta Talkies Rd, Shastri Nagar, Ratlam, Madhya Pradesh 457001",Shastri Nagar,"13, Ajanta Talkies Rd",Ratlam,457001,Madhya Pradesh,IN,https://www.google.com/maps/place/Chatripul+Masjid/data=!4m7!3m6!1s0x3963fea438d3cf05:0x717604658a53ec21!8m2!3d23.3297017!4d75.0454362!16s%2Fg%2F119vkp0t7!19sChIJBc_TOKT-YzkRIexTimUEdnE?authuser=0&hl=en&rclk=1,"23.329701699999998,75.0454362"
Masjid Qazi Khan,Mosque,"83R3+QC4 Masjid Qazi Khan, Bapu Nagar, Ratlam, Madhya Pradesh 457001",Bapu Nagar,83R3+QC4,Ratlam,457001,Madhya Pradesh,IN,https://www.google.com/maps/place/Masjid+Qazi+Khan/data=!4m7!3m6!1s0x3963feb6c13c612d:0xcf4d159ea4d6d352!8m2!3d23.3418846!4d75.053579!16s%2Fg%2F11b5pl5yxz!19sChIJLWE8wbb-YzkRUtPWpJ4VTc8?authuser=0&hl=en&rclk=1,"23.3418846,75.053579"
Markaz Masjid Ahle Hadees ratlam,Mosque,"24, Markaz Masjid Ahle Hadees ratlam, kunjdo ka vas, Harmala Rd, Bharava Kui, Bohra Baakhal, Ratlam, Madhya Pradesh 457001","Bharava Kui, Bohra Baakhal","24, kunjdo ka vas, Harmala Rd",Ratlam,457001,Madhya Pradesh,IN,https://www.google.com/maps/place/Markaz+Masjid+Ahle+Hadees+ratlam/data=!4m7!3m6!1s0x3963fc1f6ed6b3a1:0x338f9011738383d1!8m2!3d23.3180843!4d75.0386277!16s%2Fg%2F11g7y__fy_!19sChIJobPWbh_8YzkR0YODcxGQjzM?authuser=0&hl=en&rclk=1,"23.3180843,75.03862769999999"
Qadri Kolony Masjid,Mosque,"829J+897 Qadri Kolony Masjid, Bohra Baakhal, Ratlam, Madhya Pradesh 457001",Bohra Baakhal,829J+897,Ratlam,457001,Madhya Pradesh,IN,https://www.google.com/maps/place/Qadri+Kolony+Masjid/data=!4m7!3m6!1s0x3963fc2727605975:0x9c1c9931152cae0e!8m2!3d23.3182844!4d75.0309123!16s%2Fg%2F11dymg1k40!19sChIJdVlgJyf8YzkRDq4sFTGZHJw?authuser=0&hl=en&rclk=1,"23.3182844,75.0309123"
Naharpura Masjid,Mosque,"Naharpura Masjid, 82, Subhash Marg, Dhanmandi, Laxman Pura, Ratlam, Madhya Pradesh 457001","Dhanmandi, Laxman Pura","82, Subhash Marg",Ratlam,457001,Madhya Pradesh,IN,https://www.google.com/maps/place/Naharpura+Masjid/data=!4m7!3m6!1s0x3963fe9f5b49e96d:0x866a98e0fbcfa945!8m2!3d23.3265818!4d75.0370476!16s%2Fg%2F11f4_69tbz!19sChIJbelJW5_-YzkRRanP--CYaoY?authuser=0&hl=en&rclk=1,"23.3265818,75.0370476"
Najampura Masjid,Mosque,"829M+C4M Najampura Masjid, Bohra Baakhal, Ratlam, Madhya Pradesh 457001",Bohra Baakhal,829M+C4M,Ratlam,457001,Madhya Pradesh,IN,https://www.google.com/maps/place/Najampura+Masjid/data=!4m7!3m6!1s0x3963fc20d85ae3c1:0xcbbef3935a69387c!8m2!3d23.3185818!4d75.0327832!16s%2Fg%2F11dym7nrqm!19sChIJweNa2CD8YzkRfDhpWpPzvss?authuser=0&hl=en&rclk=1,"23.3185818,75.0327832"
Fateh Masjid,Mosque,"82FJ+RG5 Fateh Masjid, Goshala Rd, Laxman Pura, Ratlam, Madhya Pradesh 457001",Laxman Pura,"82FJ+RG5, Goshala Rd",Ratlam,457001,Madhya Pradesh,IN,https://www.google.com/maps/place/Fateh+Masjid/data=!4m7!3m6!1s0x3963fe9c2e7e2f99:0xe448211b57f3ae48!8m2!3d23.3245036!4d75.0313586!16s%2Fg%2F119wmsn_w!19sChIJmS9-Lpz-YzkRSK7zVxshSOQ?authuser=0&hl=en&rclk=1,"23.3245036,75.03135859999999"
Faizan e Rehmat,Mosque,"Faizan e Rehmat, Ashok Nagar, Gali no. 03, Ratlam, 03, Harmala Rd, Ratlam, Madhya Pradesh 457001","Ashok Nagar, Teja Nagar","Ashok Nagar, Gali no. 03, Ratlam, 03, Harmala Rd",Ratlam,457001,Madhya Pradesh,IN,https://www.google.com/maps/place/Faizan+e+Rehmat/data=!4m7!3m6!1s0x3963fc1925336079:0xcaa6bde7bcc985d4!8m2!3d23.3167892!4d75.0403547!16s%2Fg%2F1pp2tk2fh!19sChIJeWAzJRn8YzkR1IXJvOe9pso?authuser=0&hl=en&rclk=1,"23.3167892,75.0403547"
Musafir Khana,Mosque,"83P2+9M4 Musafir Khana, NH 79, near Anjuman Masjid, Mhow Road Railway Colony, Ratlam, Madhya Pradesh 457001",Mhow Road Railway Colony,"83P2+9M4, NH 79, near Anjuman Masjid",Ratlam,457001,Madhya Pradesh,IN,https://www.google.com/maps/place/Musafir+Khana/data=!4m7!3m6!1s0x3963feb030b5e291:0x11509e9da022c208!8m2!3d23.3358847!4d75.0517112!16s%2Fg%2F119wmlv5f!19sChIJkeK1MLD-YzkRCMIioJ2eUBE?authuser=0&hl=en&rclk=1,"23.335884699999998,75.0517112"
Masjid,Mosque,"829P+QRG Masjid, Bharava Kui, Bohra Baakhal, Ratlam, Madhya Pradesh 457001","Bharava Kui, Bohra Baakhal",829P+QRG,Ratlam,457001,Madhya Pradesh,IN,https://www.google.com/maps/place/Masjid/data=!4m7!3m6!1s0x3963fc202fce7321:0xf57f797a31d1555d!8m2!3d23.3194421!4d75.0370717!16s%2Fg%2F124yb76d9!19sChIJIXPOLyD8YzkRXVXRMXp5f_U?authuser=0&hl=en&rclk=1,"23.3194421,75.0370717"
Masjid E Hasnain,Mosque,"83Q4+QC6 Masjid E Hasnain, Mahaveer Nagar, Bapu Nagar, Ratlam, Madhya Pradesh 457001","Mahaveer Nagar, Bapu Nagar",83Q4+QC6,Ratlam,457001,Madhya Pradesh,IN,https://www.google.com/maps/place/Masjid+E+Hasnain/data=!4m7!3m6!1s0x3963feb3c2d5be49:0x66a6faf381352cbc!8m2!3d23.3394179!4d75.0560202!16s%2Fg%2F11g6xp103_!19sChIJSb7VwrP-YzkRvCw1gfP6pmY?authuser=0&hl=en&rclk=1,"23.339417899999997,75.05602019999999"
Masjid,Mosque,"82FV+7P9 Masjid, Mochi Pura, Bohra Baakhal, Ratlam, Madhya Pradesh 457001","Mochi Pura, Bohra Baakhal",82FV+7P9,Ratlam,457001,Madhya Pradesh,IN,https://www.google.com/maps/place/Masjid/data=!4m7!3m6!1s0x3963fea745502a05:0x391da4076fa810c!8m2!3d23.3231668!4d75.0443674!16s%2Fg%2F119tykt4b!19sChIJBSpQRaf-YzkRDIH6dkDakQM?authuser=0&hl=en&rclk=1,"23.3231668,75.0443674"
Kalimi Colony New Masjid,Mosque,"82GG+7JC Kalimi Colony New Masjid, Laxman Pura, Ratlam, Madhya Pradesh 457001",Laxman Pura,82GG+7JC,Ratlam,457001,Madhya Pradesh,IN,https://www.google.com/maps/place/Kalimi+Colony+New+Masjid/data=!4m7!3m6!1s0x3963fe9cb8f9a4db:0x9fcc87f554c1c0b4!8m2!3d23.3256985!4d75.0265145!16s%2Fg%2F11g72clydr!19sChIJ26T5uJz-YzkRtMDBVPWHzJ8?authuser=0&hl=en&rclk=1,"23.325698499999998,75.02651449999999"
Burhani masjid,Mosque,"82CQ+33J Burhani masjid, Bharava Kui, Bohra Baakhal, Ratlam, Madhya Pradesh 457001","Bharava Kui, Bohra Baakhal",82CQ+33J,Ratlam,457001,Madhya Pradesh,IN,https://www.google.com/maps/place/Burhani+masjid/data=!4m7!3m6!1s0x3963fd0b217fce3f:0x63c88e5d6deeecac!8m2!3d23.320219!4d75.037642!16s%2Fg%2F11f61tg25g!19sChIJP85_IQv9YzkRrOzubV2OyGM?authuser=0&hl=en&rclk=1,"23.320218999999998,75.03764199999999"
chisteya masjid,School center,"82PW+J3P chisteya masjid, Ratlam Railway Colony, Railway Colony, Ratlam, Madhya Pradesh 457001","Ratlam Railway Colony, Railway Colony",82PW+J3P,Ratlam,457001,Madhya Pradesh,IN,https://www.google.com/maps/place/chisteya+masjid/data=!4m7!3m6!1s0x3963febb0cfbc8fd:0xf59135440880d69b!8m2!3d23.336578!4d75.0452068!16s%2Fg%2F11g6pfn_b4!19sChIJ_cj7DLv-YzkRm9aACEQ1kfU?authuser=0&hl=en&rclk=1,"23.336578,75.0452068"
Anjuman Masjid,Mosque,"Anjuman Masjid, NH 79, Mhow Road Railway Colony, Ratlam, Madhya Pradesh 457001",Mhow Road Railway Colony,NH 79,Ratlam,457001,Madhya Pradesh,IN,https://www.google.com/maps/place/Anjuman+Masjid/data=!4m7!3m6!1s0x3963ff35d09d8997:0x804c2cd7785667!8m2!3d23.3358084!4d75.0516928!16s%2Fg%2F11ghq8vltk!19sChIJl4md0DX_YzkRZ1Z41yxMgAA?authuser=0&hl=en&rclk=1,"23.335808399999998,75.0516928"
Ramgarh Masjid,Mosque,"828M+XR2 Ramgarh Masjid, Bhagatpuri, Ratlam, Madhya Pradesh 457001","Bharava Kui, Bohra Baakhal","828M+XR2, Bhagatpuri",Ratlam,457001,Madhya Pradesh,IN,https://www.google.com/maps/place/Ramgarh+Masjid/data=!4m7!3m6!1s0x3963fd8b9fb94f3d:0x557094ea9ca9fae3!8m2!3d23.3173844!4d75.0345232!16s%2Fg%2F11gr2039mz!19sChIJPU-5n4v9YzkR4_qpnOqUcFU?authuser=0&hl=en&rclk=1,"23.317384399999998,75.0345232"
Qureshi mandi masjid,Mosque,"82GM+VFJ Qureshi mandi masjid, Haat Rd, kasai mandi, Ratlam, Madhya Pradesh 457001",kasai mandi,"82GM+VFJ, Haat Rd",Ratlam,457001,Madhya Pradesh,IN,https://www.google.com/maps/place/Qureshi+mandi+masjid/data=!4m7!3m6!1s0x3963ff8c983d91a5:0xcedb356eb2df133d!8m2!3d23.3272188!4d75.0336489!16s%2Fg%2F11h21qf3rx!19sChIJpZE9mIz_YzkRPRPfsm41284?authuser=0&hl=en&rclk=1,"23.3272188,75.0336489"
Abu_bakar Masjid,Mosque,"8392+C32 Abu_bakar Masjid, Mochi Pura, Sherani Pura, Ratlam, Madhya Pradesh 457001","Mochi Pura, Sherani Pura",8392+C32,Ratlam,457001,Madhya Pradesh,IN,https://www.google.com/maps/place/Abu_bakar+Masjid/data=!4m7!3m6!1s0x3963fc034632af37:0xb0dc61caf39e5401!8m2!3d23.3185147!4d75.0501328!16s%2Fg%2F11fzyy_d55!19sChIJN68yRgP8YzkRAVSe88ph3LA?authuser=0&hl=en&rclk=1,"23.318514699999998,75.0501328"
Masjid-E-Umar,Mosque,"828R+JH5 Masjid-E-Umar, Teja Nagar, Ratlam, Madhya Pradesh 457001",Teja Nagar,828R+JH5,Ratlam,457001,Madhya Pradesh,IN,https://www.google.com/maps/place/Masjid-E-Umar/data=!4m7!3m6!1s0x3963fc1ecd14b0d3:0x6d030e9beab52197!8m2!3d23.3165069!4d75.0414947!16s%2Fg%2F11dd_lhwp9!19sChIJ07AUzR78YzkRlyG16psOA20?authuser=0&hl=en&rclk=1,"23.3165069,75.0414947"
Danipura Masjid,Mosque,"Danipura Masjid, 34, Dhabai Ji Ka Was Rd, Gurjar Mohalla, Danipura, Ratlam, Madhya Pradesh 457001","Gurjar Mohalla, Danipura","34, Dhabai Ji Ka Was Rd",Ratlam,457001,Madhya Pradesh,IN,https://www.google.com/maps/place/Danipura+Masjid/data=!4m7!3m6!1s0x3963fc1e7f53bdc3:0xb116bc0f92b160c3!8m2!3d23.3198496!4d75.0435606!16s%2Fg%2F1tlwd146!19sChIJw71Tfx78YzkRw2Cxkg-8FrE?authuser=0&hl=en&rclk=1,"23.319849599999998,75.04356059999999"
Masjid,Mosque,"83X4+4RQ Masjid, Ratlam, Madhya Pradesh 457001",,83X4+4RQ,Ratlam,457001,Madhya Pradesh,IN,https://www.google.com/maps/place/Masjid/data=!4m7!3m6!1s0x3963feca6e7baa0b:0xcc6a31ff3e923816!8m2!3d23.3478385!4d75.0571165!16s%2Fg%2F11c6ppr3xp!19sChIJC6p7bsr-YzkRFjiSPv8xasw?authuser=0&hl=en&rclk=1,"23.347838499999998,75.05711649999999"
Mohammadi masjid ratlam,Mosque,"82CX+4GX Mohammadi masjid ratlam, Unnamed Road, Mochi Pura, Sherani Pura, Ratlam, Madhya Pradesh 457001","Mochi Pura, Sherani Pura","82CX+4GX, Unnamed Road",Ratlam,457001,Madhya Pradesh,IN,https://www.google.com/maps/place/Mohammadi+masjid+ratlam/data=!4m7!3m6!1s0x3963fd7c44e5d52b:0xf43b444e4f7d75e3!8m2!3d23.3203697!4d75.0488657!16s%2Fg%2F11gy0fv6f6!19sChIJK9XlRHz9YzkR43V9T05EO_Q?authuser=0&hl=en&rclk=1,"23.3203697,75.0488657"
Nagar Nigam Mosque,Mosque,"82GV+G74 Nagar Nigam Mosque, Shastri Nagar, Ratlam, Madhya Pradesh 457001",Shastri Nagar,82GV+G74,Ratlam,457001,Madhya Pradesh,IN,https://www.google.com/maps/place/Nagar+Nigam+Mosque/data=!4m7!3m6!1s0x3963fea131617e6b:0xd37dd8cb04d9b775!8m2!3d23.3262548!4d75.043214!16s%2Fg%2F124ym4gw3!19sChIJa35hMaH-YzkRdbfZBMvYfdM?authuser=0&hl=en&rclk=1,"23.326254799999997,75.04321399999999"
Mohan Nagar masjid,Mosque,"Mohan Nagar masjid, 13/16, opposite Vriddh Ashram, Mohan Nagar, Dongre Nagar, Ratlam, Madhya Pradesh 457001","Mohan Nagar, Dongre Nagar","13/16, opposite Vriddh Ashram",Ratlam,457001,Madhya Pradesh,IN,https://www.google.com/maps/place/Mohan+Nagar+masjid/data=!4m7!3m6!1s0x3963ff3c5fe43959:0x14e6cdb1c022d0b1!8m2!3d23.3322545!4d75.0234719!16s%2Fg%2F11h3m7_9r6!19sChIJWTnkXzz_YzkRsdAiwLHN5hQ?authuser=0&hl=en&rclk=1,"23.332254499999998,75.02347189999999"
Jama Masjid,Mosque,"Jama Masjid, 23, Bajaj Khana Rd, Manak Chowk, Laxman Pura, Ratlam, Madhya Pradesh 457001","Manak Chowk, Laxman Pura","23, Bajaj Khana Rd",Ratlam,457001,Madhya Pradesh,IN,https://www.google.com/maps/place/Jama+Masjid/data=!4m7!3m6!1s0x3963fe9f8ceb2fd7:0x552e873ac5759cb4!8m2!3d23.3233559!4d75.0372916!16s%2Fg%2F1tnsqb0b!19sChIJ1y_rjJ_-YzkRtJx1xTqHLlU?authuser=0&hl=en&rclk=1,"23.3233559,75.0372916"
Dawoodi bohra Ezzy masjid,Mosque,"82PX+MXH Dawoodi bohra Ezzy masjid, Ratlam, Madhya Pradesh 457001",,82PX+MXH,Ratlam,457001,Madhya Pradesh,IN,https://www.google.com/maps/place/Dawoodi+bohra+Ezzy+masjid/data=!4m7!3m6!1s0x3963feb07056612f:0x8dd10a4bad68b67a!8m2!3d23.3366824!4d75.0499932!16s%2Fg%2F11f2y20trh!19sChIJL2FWcLD-YzkRerZorUsK0Y0?authuser=0&hl=en&rclk=1,"23.336682399999997,75.0499932"
ikr msjid,Mosque,"82HH+23X ikr msjid, Laxman Pura, Ratlam, Madhya Pradesh 457001",Laxman Pura,82HH+23X,Ratlam,457001,Madhya Pradesh,IN,https://www.google.com/maps/place/%E0%B0%87%E0%B0%95%E0%B1%8D%E0%B0%B0+%E0%B0%AE%E0%B0%B8%E0%B1%8D%E0%B0%9C%E0%B0%BF%E0%B0%A6%E0%B1%8D/data=!4m7!3m6!1s0x3963fe9b69048fe7:0x88af0b37ad32d8cd!8m2!3d23.3276135!4d75.0277467!16s%2Fg%2F11g8g2r85b!19sChIJ548EaZv-YzkRzdgyrTcLr4g?authuser=0&hl=en&rclk=1,"23.3276135,75.0277467"
Garib Nawaj Masjid Jay Bharat Nagar Ratlam,Mosque,"829X+P2J Garib Nawaj Masjid Jay Bharat Nagar Ratlam, Mochi Pura, Sherani Pura, Ratlam, Madhya Pradesh 457001","Mochi Pura, Sherani Pura",829X+P2J,Ratlam,457001,Madhya Pradesh,IN,https://www.google.com/maps/place/Garib+Nawaj+Masjid+Jay+Bharat+Nagar+Ratlam/data=!4m7!3m6!1s0x3963fdd3e86d7fe3:0x10f425c59effe84f!8m2!3d23.3193451!4d75.0475251!16s%2Fg%2F11j0_mb85v!19sChIJ439t6NP9YzkRT-j_nsUl9BA?authuser=0&hl=en&rclk=1,"23.3193451,75.0475251"
Mosque,Mosque,"82PW+P66 Mosque, Laxman Pura Main Road, Ratlam Railway Colony, Railway Colony, Ratlam, Madhya Pradesh 457001","Ratlam Railway Colony, Railway Colony","82PW+P66, Laxman Pura Main Road",Ratlam,457001,Madhya Pradesh,IN,https://www.google.com/maps/place/Mosque/data=!4m7!3m6!1s0x3963ff4085ef5333:0x6534819ae6aa6980!8m2!3d23.3367964!4d75.0455097!16s%2Fg%2F11g1_nm95s!19sChIJM1PvhUD_YzkRgGmq5pqBNGU?authuser=0&hl=en&rclk=1,"23.336796399999997,75.0455097"
Bohra Masjid vajihi mohalla Ratlam,Mosque,"82CM+X2C Bohra Masjid vajihi mohalla Ratlam, Silawato Ka Was, Laxman Pura, Ratlam, Madhya Pradesh 457001","Silawato Ka Was, Laxman Pura",82CM+X2C,Ratlam,457001,Madhya Pradesh,IN,https://www.google.com/maps/place/Bohra+Masjid+vajihi+mohalla+Ratlam/data=!4m7!3m6!1s0x3963fe9e0ddb0495:0x33d1b451273cc78d!8m2!3d23.3224484!4d75.0325142!16s%2Fg%2F11gfjbdjxp!19sChIJlQTbDZ7-YzkRjcc8J1G00TM?authuser=0&hl=en&rclk=1,"23.3224484,75.0325142"
Masjid e aqsa,Mosque,"829Q+9G4 Masjid e aqsa, Kalaigar Rd, Bharava Kui, Bohra Baakhal, Ratlam, Madhya Pradesh 457001","Bharava Kui, Bohra Baakhal","829Q+9G4, Kalaigar Rd",Ratlam,457001,Madhya Pradesh,IN,https://www.google.com/maps/place/Masjid+e+aqsa/data=!4m7!3m6!1s0x3963fd327785f5df:0xeecad5c3e93e0da4!8m2!3d23.3183769!4d75.0388282!16s%2Fg%2F11gy8gn7r5!19sChIJ3_WFdzL9YzkRpA0-6cPVyu4?authuser=0&hl=en&rclk=1,"23.3183769,75.0388282"
Masjid ahle hadees,Mosque,"82GJ+5HQ Masjid ahle hadees, Goshala Rd, Ved Vyas Colony, Laxman Pura, Ratlam, Madhya Pradesh 457001","Ved Vyas Colony, Laxman Pura","82GJ+5HQ, Goshala Rd",Ratlam,457001,Madhya Pradesh,IN,https://www.google.com/maps/place/Masjid+ahle+hadees/data=!4m7!3m6!1s0x3963ffac55acf767:0xa52d1fc20e1ea5b5!8m2!3d23.3254733!4d75.0314928!16s%2Fg%2F11j03tm1gd!19sChIJZ_esVaz_YzkRtaUeDsIfLaU?authuser=0&hl=en&rclk=1,"23.3254733,75.0314928"
Masjid -E-Bilal,Mosque,"83G2+FJH Masjid -E-Bilal, Anand Colony, Samta Nagar, Ratlam, Madhya Pradesh 457001","Anand Colony, Samta Nagar",83G2+FJH,Ratlam,457001,Madhya Pradesh,IN,https://www.google.com/maps/place/Masjid+-E-Bilal/data=!4m7!3m6!1s0x3963ff7fb21f2c69:0x6636023aaa00a68f!8m2!3d23.3261757!4d75.0515999!16s%2Fg%2F11t6ml8f12!19sChIJaSwfsn__YzkRj6YAqjoCNmY?authuser=0&hl=en&rclk=1,"23.3261757,75.0515999"
Harmala road Ashok Nagar ratlam,Mosque,"Harmala road Ashok Nagar ratlam, 1, Harmala Rd, Shanti Nagar, Bohra Baakhal, Ratlam, Madhya Pradesh 457001","Shanti Nagar, Bohra Baakhal","1, Harmala Rd",Ratlam,457001,Madhya Pradesh,IN,https://www.google.com/maps/place/Harmala+road+Ashok+Nagar+ratlam/data=!4m7!3m6!1s0x3963fd49adb2ebad:0x6a61236f11cf4306!8m2!3d23.3185063!4d75.0424851!16s%2Fg%2F11j2wj679v!19sChIJreuyrUn9YzkRBkPPEW8jYWo?authuser=0&hl=en&rclk=1,"23.3185063,75.0424851"
Raza Masjid,School,"82CX+MW4 Raza Masjid, Mochi Pura, Sherani Pura, Ratlam, Madhya Pradesh 457001","Mochi Pura, Sherani Pura",82CX+MW4,Ratlam,457001,Madhya Pradesh,IN,https://www.google.com/maps/place/Raza+Masjid/data=!4m7!3m6!1s0x3963fd4946cea8a9:0x9bedfa53263c1a1c!8m2!3d23.3216496!4d75.0498219!16s%2Fg%2F11frw3by5p!19sChIJqajORkn9YzkRHBo8JlP67Zs?authuser=0&hl=en&rclk=1,"23.3216496,75.0498219"
Jama Masjid Ratlam kalaigar panchan,Mosque,"82FP+CXV Jama Masjid Ratlam kalaigar panchan, Manak Chowk, Laxman Pura, Ratlam, Madhya Pradesh 457001","Manak Chowk, Laxman Pura",82FP+CXV,Ratlam,457001,Madhya Pradesh,IN,https://www.google.com/maps/place/Jama+Masjid+Ratlam+kalaigar+panchan/data=!4m7!3m6!1s0x3963ffc15b5d5f57:0x8c5ce76c6c59d2fc!8m2!3d23.323616!4d75.0374221!16s%2Fg%2F11j0hsf7x2!19sChIJV19dW8H_YzkR_NJZbGznXIw?authuser=0&hl=en&rclk=1,"23.323615999999998,75.0374221"
Masjid Ahle Sunnat (Shiekh Rajjab Masjid),Mosque,"829M+X8M Masjid Ahle Sunnat (Shiekh Rajjab Masjid), Chandni Chowk, Bohra Baakhal, Ratlam, Madhya Pradesh 457001",Bohra Baakhal,"829M+X8M, Chandni Chowk",Ratlam,457001,Madhya Pradesh,IN,https://www.google.com/maps/place/Masjid+Ahle+Sunnat+%28Shiekh+Rajjab+Masjid%29/data=!4m7!3m6!1s0x3963fde652597853:0xb8566401989f7bda!8m2!3d23.3199584!4d75.0332988!16s%2Fg%2F11ghq5znkk!19sChIJU3hZUub9YzkR2nufmAFkVrg?authuser=0&hl=en&rclk=1,"23.319958399999997,75.0332988"
Kalandari masjid,Mosque,"82HP+XVH Kalandari masjid, Sahar Sarai, Laxman Pura, Ratlam, Madhya Pradesh 457001","Sahar Sarai, Laxman Pura",82HP+XVH,Ratlam,457001,Madhya Pradesh,IN,https://www.google.com/maps/place/Kalandari+masjid/data=!4m7!3m6!1s0x3963ffaf4f23f641:0x6b29e9815ee6875c!8m2!3d23.3299499!4d75.0372467!16s%2Fg%2F11k0km7q3j!19sChIJQfYjT6__YzkRXIfmXoHpKWs?authuser=0&hl=en&rclk=1,"23.3299499,75.0372467"
Masjid Hajrat Ali,Mosque,"829X+V25 Masjid Hajrat Ali, Mochi Pura, Sherani Pura, Ratlam, Madhya Pradesh 457001","Mochi Pura, Sherani Pura",829X+V25,Ratlam,,Madhya Pradesh,IN,https://www.google.com/maps/place/Masjid+Hajrat+Ali/data=!4m7!3m6!1s0x3963fdf1f4fae51b:0x382c5bedad95e69e!8m2!3d23.319638!4d75.0476144!16s%2Fg%2F11t87m7_sf!19sChIJG-X69PH9YzkRnuaVre1bLDg?authuser=0&hl=en&rclk=1,"23.319637999999998,75.0476144"
Taiyabi Masjid,Mosque,"82CM+2M9 Taiyabi Masjid, Bharava Kui, Bohra Baakhal, Ratlam, Madhya Pradesh 457001","Bharava Kui, Bohra Baakhal",82CM+2M9,Ratlam,457001,Madhya Pradesh,IN,https://www.google.com/maps/place/Taiyabi+Masjid/data=!4m7!3m6!1s0x3963fc20f2cd80db:0xd4c1f3f23bfb0a8!8m2!3d23.3200369!4d75.0342356!16s%2Fg%2F11f54t2_1j!19sChIJ24DN8iD8YzkRqLC_Iz8fTA0?authuser=0&hl=en&rclk=1,"23.320036899999998,75.0342356"
Iqra Masjid,Mosque,"82GH+W43 Iqra Masjid, Unnamed Road, Laxman Pura, Ratlam, Madhya Pradesh 457001",Laxman Pura,"82GH+W43, Unnamed Road",Ratlam,457001,Madhya Pradesh,IN,https://www.google.com/maps/place/Iqra+Masjid/data=!4m7!3m6!1s0x3963ffbcbafaecd1:0x3f2ce52e5868c5c!8m2!3d23.3272695!4d75.0278045!16s%2Fg%2F11qt1sxmt0!19sChIJ0ez6urz_YzkRXIyG5VLO8gM?authuser=0&hl=en&rclk=1,"23.3272695,75.0278045"
Masjid Hajrat Ali,Mosque,"82JP+JM3 Masjid Hajrat Ali, Katju Nagar, Laxman Pura, Ratlam, Madhya Pradesh 457001","Katju Nagar, Laxman Pura",82JP+JM3,Ratlam,,Madhya Pradesh,IN,https://www.google.com/maps/place/Masjid+Hajrat+Ali/data=!4m7!3m6!1s0x3963ff9b68e06a3d:0x3b59c7e8691398f5!8m2!3d23.3315103!4d75.0366677!16s%2Fg%2F11t87kxd9s!19sChIJPWrgaJv_YzkR9ZgTaejHWTs?authuser=0&hl=en&rclk=1,"23.331510299999998,75.0366677"
Masjid Hazart Umar,Mosque,"83R4+M63 Masjid Hazart Umar, Bapu Nagar, Ratlam, Madhya Pradesh 457001",Bapu Nagar,83R4+M63,Ratlam,457001,Madhya Pradesh,IN,https://www.google.com/maps/place/Masjid+Hazart+Umar/data=!4m7!3m6!1s0x3963fffbc99c272f:0x52f7cfb260a15da!8m2!3d23.3416325!4d75.0555404!16s%2Fg%2F11h7c86jd0!19sChIJLyecyfv_YzkR2hUKJvt8LwU?authuser=0&hl=en&rclk=1,"23.3416325,75.0555404"
madar chilla masjid,Mosque,"madar chilla masjid, 620, Mochi Pura, Sherani Pura, Ratlam, Madhya Pradesh 457001","Mochi Pura, Sherani Pura",620,Ratlam,457001,Madhya Pradesh,IN,https://www.google.com/maps/place/madar+chilla+masjid/data=!4m7!3m6!1s0x3963ff8f6feddb6b:0xd1cde15b3fd9c6ec!8m2!3d23.3231006!4d75.0472406!16s%2Fg%2F11jsjhq5qn!19sChIJa9vtb4__YzkR7MbZP1vhzdE?authuser=0&hl=en&rclk=1,"23.3231006,75.0472406"
Raza-e-mustafa madarsa and masjid,Mosque,"82CX+MW8 Raza-e-mustafa madarsa and masjid, Mochi Pura, Sherani Pura, Ratlam, Madhya Pradesh 457001","Mochi Pura, Sherani Pura",82CX+MW8,Ratlam,457001,Madhya Pradesh,IN,https://www.google.com/maps/place/Raza-e-mustafa+madarsa+and+masjid/data=!4m7!3m6!1s0x3963fdeb0e13eebd:0x405a5364b27f2d58!8m2!3d23.3216542!4d75.0498283!16s%2Fg%2F11ny57d2jb!19sChIJve4TDuv9YzkRWC1_smRTWkA?authuser=0&hl=en&rclk=1,"23.321654199999998,75.0498283"
Pinzar seri masjid,Mosque,"Pinzar seri masjid, 18, Pinjar seri, near Masjid, Thawariya bazar, Bohra Baakhal, Ratlam, Madhya Pradesh 457001","Thawariya bazar, Bohra Baakhal","18, Pinjar seri, near Masjid",Ratlam,457001,Madhya Pradesh,IN,https://www.google.com/maps/place/Pinzar+seri+masjid/data=!4m7!3m6!1s0x3963fea00ec380ed:0x739d2986049d3973!8m2!3d23.3223653!4d75.0387182!16s%2Fg%2F11fx8312r1!19sChIJ7YDDDqD-YzkRczmdBIYpnXM?authuser=0&hl=en&rclk=1,"23.322365299999998,75.03871819999999"
24 bhurani masjid,Mosque,"82MQ+M36 24 bhurani masjid, Palsoda, Shastri Nagar, Ratlam, Madhya Pradesh 457001","Palsoda, Shastri Nagar",82MQ+M36,Ratlam,457001,Madhya Pradesh,IN,https://www.google.com/maps/place/24+bhurani+masjid/data=!4m7!3m6!1s0x3963fe97fd33691f:0x3255fe5e707efdab!8m2!3d23.3341696!4d75.0376325!16s%2Fg%2F11b7d3h5q4!19sChIJH2kz_Zf-YzkRq_1-cF7-VTI?authuser=0&hl=en&rclk=1,"23.3341696,75.0376325"
Masjid Al-Bilal,Mosque,"Masjid Al-Bilal, Ojha, Bharava Kui, Bohra Baakhal, Khari, Ratlam, Madhya Pradesh 457001","Bharava Kui, Bohra Baakhal",Ojha,"Khari, Ratlam",457001,Madhya Pradesh,IN,https://www.google.com/maps/place/Masjid+Al-Bilal/data=!4m7!3m6!1s0x3963fd172ed936db:0xc81ddde505803cb0!8m2!3d23.3185301!4d75.0367954!16s%2Fg%2F11rd5l6bnr!19sChIJ2zbZLhf9YzkRsDyABeXdHcg?authuser=0&hl=en&rclk=1,"23.3185301,75.0367954"
Garib Nawaz Masjid,Mosque,"Garib Nawaz Masjid, Diesel Shed Rd, Raju Nagar, Ratlam, Madhya Pradesh 457001",Raju Nagar,Diesel Shed Rd,Ratlam,457001,Madhya Pradesh,IN,https://www.google.com/maps/place/Garib+Nawaz+Masjid/data=!4m7!3m6!1s0x3963ffd5907443af:0xf5a6fbed1012ab29!8m2!3d23.3473075!4d75.0559788!16s%2Fg%2F11tfkctpx3!19sChIJr0N0kNX_YzkRKasSEO37pvU?authuser=0&hl=en&rclk=1,"23.3473075,75.05597879999999"
Ayan khan 53 Danipura masjid Ratlam madhya pradesh india,Housing society,"Ayan khan 53 Danipura masjid Ratlam madhya pradesh india, 53, Danipura Road, Gurjar Mohalla, Danipura, Ratlam, Madhya Pradesh 457001","Gurjar Mohalla, Danipura","53, Danipura Road",Ratlam,457001,Madhya Pradesh,IN,https://www.google.com/maps/place/Ayan+khan+53+Danipura+masjid+Ratlam+madhya+pradesh+india/data=!4m7!3m6!1s0x3963fd485b48288d:0x135eefab8c7e5fa1!8m2!3d23.3199487!4d75.0436641!16s%2Fg%2F11qbkrslrb!19sChIJjShIW0j9YzkRoV9-jKvvXhM?authuser=0&hl=en&rclk=1,"23.319948699999998,75.0436641"
Dhoswas Masjid,Mosque,"9383+VP7 Dhoswas Masjid, Jaora Rd, Industrial Area, Ratlam, Dosigano, Madhya Pradesh 457001",Industrial Area,"9383+VP7, Jaora Rd","Ratlam, Dosigano",457001,Madhya Pradesh,IN,https://www.google.com/maps/place/Dhoswas+Masjid/data=!4m7!3m6!1s0x3963ffdc1c62b763:0x84cdac53862ab074!8m2!3d23.3666104!4d75.0546449!16s%2Fg%2F11tjzlsj2p!19sChIJY7diHNz_YzkRdLAqhlOszYQ?authuser=0&hl=en&rclk=1,"23.3666104,75.0546449"
Ratlam Kazi pura masjid ke samne,Hair salon,"Ratlam Kazi pura masjid ke samne, 14, Unkala Ganesh Rd, Mochi Pura, Sherani Pura, Ratlam, Madhya Pradesh 457001","Mochi Pura, Sherani Pura","14, Unkala Ganesh Rd",Ratlam,457001,Madhya Pradesh,IN,https://www.google.com/maps/place/Ratlam+Kazi+pura+masjid+ke+samne/data=!4m7!3m6!1s0x3963fdf4315d90ef:0x1fd27236ec89d034!8m2!3d23.322267!4d75.0466947!16s%2Fg%2F11qbv422d4!19sChIJ75BdMfT9YzkRNNCJ7DZy0h8?authuser=0&hl=en&rclk=1,"23.322267,75.0466947"
Markaz masjid ratlam,Mosque,"82JP+JM3 Markaz masjid ratlam, Katju Nagar, Laxman Pura, Ratlam, Madhya Pradesh 457001","Katju Nagar, Laxman Pura",82JP+JM3,Ratlam,457001,Madhya Pradesh,IN,https://www.google.com/maps/place/Markaz+masjid+ratlam/data=!4m7!3m6!1s0x3963ffd43c1f2edf:0x3410d1205a68081c!8m2!3d23.3315103!4d75.0366677!16s%2Fg%2F11t3nq_4mw!19sChIJ3y4fPNT_YzkRHAhoWiDREDQ?authuser=0&hl=en&rclk=1,"23.331510299999998,75.0366677"
Masjid -E - Gousiya,Mosque,"828Q+CMR Masjid -E - Gousiya, Ashok Nagar, Teja Nagar, Ratlam, Madhya Pradesh 457001",Teja Nagar,"828Q+CMR, Ashok Nagar",Ratlam,457001,Madhya Pradesh,IN,https://www.google.com/maps/place/Masjid+-E+-+Gousiya/data=!4m7!3m6!1s0x3963fd82022537d1:0x70175ea43b642769!8m2!3d23.3161101!4d75.039141!16s%2Fg%2F11tnhg8czp!19sChIJ0TclAoL9YzkRaSdkO6ReF3A?authuser=0&hl=en&rclk=1,"23.3161101,75.039141"
Madarsa Masjid Mariyam,Mosque,"827Q+7PQ Madarsa Masjid Mariyam, Ashok Nagar, Teja Nagar, Ratlam, Madhya Pradesh 457001",Teja Nagar,"827Q+7PQ, Ashok Nagar",Ratlam,457001,Madhya Pradesh,IN,https://www.google.com/maps/place/Madarsa+Masjid+Mariyam/data=!4m7!3m6!1s0x3963fd4b015df639:0x8ee194df4f5965da!8m2!3d23.3132223!4d75.0393516!16s%2Fg%2F11pwwrv_b7!19sChIJOfZdAUv9YzkR2mVZT9-U4Y4?authuser=0&hl=en&rclk=1,"23.3132223,75.0393516"
Masjid Bagh E Jannat,Mosque,"82HG+C9R Masjid Bagh E Jannat, Laxman Pura, Ratlam, Madhya Pradesh 457001",Laxman Pura,82HG+C9R,Ratlam,457001,Madhya Pradesh,IN,https://www.google.com/maps/place/Masjid+Bagh+E+Jannat/data=!4m7!3m6!1s0x3963fe84cd9d94fd:0xaf3dc41c202da6d5!8m2!3d23.328615!4d75.0258792!16s%2Fg%2F11cr_nvxtd!19sChIJ_ZSdzYT-YzkR1aYtIBzEPa8?authuser=0&hl=en&rclk=1,"23.328615,75.02587919999999"
Imambargah Jaora Rd,Mosque,"83R3+P98 Imambargah Jaora Rd, Bapu Nagar, Ratlam, Madhya Pradesh 457001",Bapu Nagar,83R3+P98,Ratlam,457001,Madhya Pradesh,IN,https://www.google.com/maps/place/Imambargah+Jaora+Rd/data=!4m7!3m6!1s0x3963ff4fca3a197b:0xba004b1007fb757b!8m2!3d23.3418065!4d75.0535219!16s%2Fg%2F11rwwl4w_v!19sChIJexk6yk__YzkRe3X7BxBLALo?authuser=0&hl=en&rclk=1,"23.3418065,75.05352189999999"
New Eidgah,Mosque,"827P+5J9 New Eidgah, Unkala Ganesh Rd, Dhabai Ji Ka Was, Sherani Pura, Ratlam, Madhya Pradesh",Teja Nagar,"827P+5J9, Unkala Ganesh Rd, Dhabai Ji Ka Was, Sherani Pura",Ratlam,,Madhya Pradesh,IN,https://www.google.com/maps/place/New+Eidgah/data=!4m7!3m6!1s0x3963fdcbbc72e247:0xfc72bc0bac1e0f20!8m2!3d23.3129089!4d75.0365985!16s%2Fg%2F11s1p36qzz!19sChIJR-JyvMv9YzkRIA8erAu8cvw?authuser=0&hl=en&rclk=1,"23.3129089,75.0365985"
