name,main_category,address,address_ward,address_street,address_city,address_postal_code,address_state,address_country_code,link,coordinates
Arya Nagar Nanhi Jama Masjid,Mosque,"P7QR+67M Arya Nagar Nanhi Jama Masjid, Roop Nagar, Ghaziabad, Uttar Pradesh 201102",Roop Nagar,P7QR+67M,Ghaziabad,201102,Uttar Pradesh,IN,https://www.google.com/maps/place/Arya+Nagar+Nanhi+Jama+Masjid/data=!4m7!3m6!1s0x390cf94c6b13da65:0x6f95aec2026272ba!8m2!3d28.7380899!4d77.2906765!16s%2Fg%2F11c6z10mg1!19sChIJZdoTa0z5DDkRunJiAsKulW8?authuser=0&hl=en&rclk=1,"28.7380899,77.2906765"
Mustafa Masjid / choti Masjid,Mosque,"Mustafa Masjid / choti Masjid, 423, Nangloi Flyover, Kirari Extension 2, JJ Colony No 2, Nangloi, Delhi, 110041","Kirari Extension 2, JJ Colony No 2, Nangloi","423, Nangloi Flyover",Delhi,110041,Delhi,IN,https://www.google.com/maps/place/Mustafa+Masjid+%2F+choti+Masjid/data=!4m7!3m6!1s0x390d0436b45779c5:0x65b773fe073b436a!8m2!3d28.6829043!4d77.0634196!16s%2Fg%2F11c6lwd6xq!19sChIJxXlXtDYEDTkRakM7B_5zt2U?authuser=0&hl=en&rclk=1,"28.682904299999997,77.0634196"
MADINA MASJID BHAGYE VIHAR,Masonic center,"MADINA MASJID BHAGYE VIHAR, B-62-63, near MADINA MASJID, Bhagya Vihar, Delhi, 110081","Block A, Bhagya Vihar, Madanpur Dabas","B-62-63, near MADINA MASJID",Delhi,110081,Delhi,IN,https://www.google.com/maps/place/MADINA+MASJID+BHAGYE+VIHAR/data=!4m7!3m6!1s0x390d072f6999f38f:0xecac7f66aa56c3a9!8m2!3d28.7102708!4d77.030952!16s%2Fg%2F11nxd1c5s8!19sChIJj_OZaS8HDTkRqcNWqmZ_rOw?authuser=0&hl=en&rclk=1,"28.7102708,77.030952"
Masjid Moth,Mosque,"Masjid Moth, 92, Masjid Moth Rd, South Extension II, Masjid Moth Village, New Delhi, Delhi 110049","South Extension II, Masjid Moth Village","92, Masjid Moth Rd",New Delhi,110049,Delhi,IN,https://www.google.com/maps/place/Masjid+Moth/data=!4m7!3m6!1s0x390ce242799950e9:0xb2f0ba5418b140f8!8m2!3d28.562458!4d77.2176906!16s%2Fm%2F05zxh9f!19sChIJ6VCZeULiDDkR-ECxGFS68LI?authuser=0&hl=en&rclk=1,"28.562458,77.2176906"
Nili Masjid,Mosque,"Nili Masjid, Block A, Hauz Khas, New Delhi, Delhi 110016","Block A, Hauz Khas",,New Delhi,110016,Delhi,IN,https://www.google.com/maps/place/Nili+Masjid/data=!4m7!3m6!1s0x390ce26d4cc65ef5:0x13aa107e5125d88b!8m2!3d28.5535829!4d77.2069198!16s%2Fg%2F1tj94t5z!19sChIJ9V7GTG3iDDkRi9glUX4QqhM?authuser=0&hl=en&rclk=1,"28.5535829,77.2069198"
Zeenat-ul Masjid,Mosque,"J6WV+HXF Zeenat-ul Masjid, Daryaganj, New Delhi, Delhi, 110002",Daryaganj,J6WV+HXF,"New Delhi, Delhi",110002,Delhi,IN,https://www.google.com/maps/place/Zeenat-ul+Masjid/data=!4m7!3m6!1s0x390cfcde5e11d987:0xdf29372369063d5f!8m2!3d28.6464447!4d77.2449347!16s%2Fg%2F1vrq80b4!19sChIJh9kRXt78DDkRXz0GaSM3Kd8?authuser=0&hl=en&rclk=1,"28.6464447,77.2449347"
Masjid Zakir Bagh,Mosque,"H75C+HJW Masjid Zakir Bagh, Zakir Bagh, Sarai Jullena, New Friends Colony, New Delhi, Delhi 110065","Zakir Bagh, Sarai Jullena, New Friends Colony",H75C+HJW,New Delhi,110065,Delhi,IN,https://www.google.com/maps/place/Masjid+Zakir+Bagh/data=!4m7!3m6!1s0x390ce39347cf47cd:0xcd195916d4862cac!8m2!3d28.5589795!4d77.2715934!16s%2Fg%2F1ptzpshd9!19sChIJzUfPR5PjDDkRrCyG1BZZGc0?authuser=0&hl=en&rclk=1,"28.5589795,77.2715934"
Masjid Al Habib,Mosque,"G8V2+8HW Masjid Al Habib, Chalis Fata Road, Shahin Bagh, Part 1 Abul Fazal Enclave, Jamia Nagar, New Delhi, Delhi 110025","Part 1 Abul Fazal Enclave, Shaheen Bagh, Jamia Nagar, Okhla","G8V2+8HW, Chalis Fata Road, Shahin Bagh",New Delhi,110025,Delhi,IN,https://www.google.com/maps/place/Masjid+Al+Habib/data=!4m7!3m6!1s0x390ce41ae803c7ad:0x45d1aa30982adca9!8m2!3d28.543354!4d77.3014573!16s%2Fg%2F12hkklprz!19sChIJrccD6BrkDDkRqdwqmDCq0UU?authuser=0&hl=en&rclk=1,"28.543353999999997,77.3014573"
Madina Jama Masjid,Mosque,"Madina Jama Masjid, H - Block Madina Jama Masjid, Shakurpur Colony, Shakurpur, Delhi, 110034","Block H, Shakurpur Colony, Shakurpur",H - Block Madina Jama Masjid,Delhi,110034,Delhi,IN,https://www.google.com/maps/place/Madina+Jama+Masjid/data=!4m7!3m6!1s0x390d03cb3afde435:0xa3b3ed7ff7773fb9!8m2!3d28.6884812!4d77.1480353!16s%2Fg%2F12lrm5dhs!19sChIJNeT9OssDDTkRuT9393_ts6M?authuser=0&hl=en&rclk=1,"28.6884812,77.14803529999999"
Sabz Masjid,Mosque,"Sabz Masjid, 3571, Lalkuan Bazar Rd, Bazar Sirkiwalan, Lal Kuan Bazar, Chandni Chowk, Delhi, 110006","Bazar Sirkiwalan, Lal Kuan Bazar, Chandni Chowk","3571, Lalkuan Bazar Rd",Delhi,110006,Delhi,IN,https://www.google.com/maps/place/Sabz+Masjid/data=!4m7!3m6!1s0x390cfd16a94877a7:0x7b35bb653cd42e20!8m2!3d28.652163!4d77.223599!16s%2Fm%2F04q247t!19sChIJp3dIqRb9DDkRIC7UPGW7NXs?authuser=0&hl=en&rclk=1,"28.652162999999998,77.223599"
Masjid Usman Bin Affan (Ahle Hadees),Mosque,"H79Q+632 Masjid Usman Bin Affan (Ahle Hadees), Sir Syed Rd, Batla House, Jamia Nagar, Okhla, New Delhi, Delhi 110025","Batla House, Jamia Nagar, Okhla","H79Q+632, Sir Syed Rd",New Delhi,110025,Delhi,IN,https://www.google.com/maps/place/Masjid+Usman+Bin+Affan+%28Ahle+Hadees%29/data=!4m7!3m6!1s0x390ce47613e5e5e7:0xe09f490ec8e1eae2!8m2!3d28.5680023!4d77.2876355!16s%2Fg%2F11g68z41w3!19sChIJ5-XlE3bkDDkR4urhyA5Jn-A?authuser=0&hl=en&rclk=1,"28.5680023,77.2876355"
Al Flah Masjid,Mosque,"J9MR+6F5 Al Flah Masjid, Chhijarsi, Sector 63 A, Noida, Uttar Pradesh 201307","Chhijarsi, Sector 63 A",J9MR+6F5,Noida,201307,Uttar Pradesh,IN,https://www.google.com/maps/place/Al+Flah+Masjid/data=!4m7!3m6!1s0x390cefe4b8aab215:0x7127aeff0483688b!8m2!3d28.6330232!4d77.3912402!16s%2Fg%2F11dyzdhw1s!19sChIJFbKquOTvDDkRi2iDBP-uJ3E?authuser=0&hl=en&rclk=1,"28.6330232,77.3912402"
Eidgah Mosque,Mosque,"C2WH+G6X Eidgah Mosque, Streeet Number 1, Hans Enclave, Sector 33, Gurugram, Haryana 122001","Hans Enclave, Sector 33","C2WH+G6X, Streeet Number 1",Gurugram,122001,Haryana,IN,https://www.google.com/maps/place/Eidgah+Mosque/data=!4m7!3m6!1s0x390d183ddecf6335:0x4af553459d4d473a!8m2!3d28.4463658!4d77.0281036!16s%2Fg%2F11b7glx6j4!19sChIJNWPP3j0YDTkROkdNnUVT9Uo?authuser=0&hl=en&rclk=1,"28.4463658,77.0281036"
Abdullah Bin Masood Masjid msjd `bdllh bn ms`wd,Mosque,"J7PF+CJ5 Abdullah Bin Masood Masjid msjd `bdllh bn ms`wd, Juma Namaz time, 1:00, Street Number 12, Block N, Ramesh Park, Laxmi Nagar, New Delhi, Delhi, 110092","Block N, Ramesh Park, Laxmi Nagar","J7PF+CJ5 Juma Namaz time, 1:00, Street Number 12","New Delhi, Delhi",110092,Delhi,IN,https://www.google.com/maps/place/Abdullah+Bin+Masood+Masjid+%D9%85%D8%B3%D8%AC%D8%AF+%D8%B9%D8%A8%D8%AF%D8%A7%D9%84%D9%84%D9%87+%D8%A7%D8%A8%D9%86+%D9%85%D8%B3%D8%B9%D9%88%D8%AF%E2%80%AD/data=!4m7!3m6!1s0x390cfcb1c26380ad:0xb673c201a94112e9!8m2!3d28.6360132!4d77.2741142!16s%2Fg%2F11bytz498p!19sChIJrYBjwrH8DDkR6RJBqQHCc7Y?authuser=0&hl=en&rclk=1,"28.636013199999997,77.2741142"
Masjid Western Court,Mosque,"J6C9+WH7 Masjid Western Court, Janpath Rd, Janpath, Connaught Place, New Delhi, Delhi 110001","Janpath, Connaught Place","J6C9+WH7, Janpath Rd",New Delhi,110001,Delhi,IN,https://www.google.com/maps/place/Masjid+Western+Court/data=!4m7!3m6!1s0x390ce2cabf717669:0x40bc1755cbb3cd8a!8m2!3d28.6222887!4d77.2189148!16s%2Fg%2F1ptyrv79h!19sChIJaXZxv8riDDkRis2zy1UXvEA?authuser=0&hl=en&rclk=1,"28.6222887,77.2189148"
Jama Masjid East Of Kailash,Mosque,"Jama Masjid East Of Kailash, C 10, Captain Gaur Marg, C Block, Kailash Hills, East of Kailash, New Delhi, Delhi 110065","C Block, Kailash Hills, East of Kailash","C 10, Captain Gaur Marg",New Delhi,110065,Delhi,IN,https://www.google.com/maps/place/Jama+Masjid+East+Of+Kailash/data=!4m7!3m6!1s0x390ce3bedd2f432d:0x63e90dc423d86db4!8m2!3d28.5620432!4d77.2590415!16s%2Fg%2F11c2l0_yn4!19sChIJLUMv3b7jDDkRtG3YI8QN6WM?authuser=0&hl=en&rclk=1,"28.562043199999998,77.2590415"
Masjid Hayat Madarsa Sahabia,Mosque,"F7XW+9R3 Masjid Hayat Madarsa Sahabia, Mehrauli - Badarpur Rd, Mittal Colony, Block RZ H, Pul Pehlad Pur, New Delhi, Faridabad, Delhi 110044","Mittal Colony, Block RZ H, Pul Pehlad Pur","F7XW+9R3, Mehrauli - Badarpur Rd","New Delhi, Faridabad",110044,Delhi,IN,https://www.google.com/maps/place/Masjid+Hayat+Madarsa+Sahabia/data=!4m7!3m6!1s0x390ce6d74f08cf85:0xcf35c38ec0e866ca!8m2!3d28.4983917!4d77.2970623!16s%2Fg%2F12hkbl23n!19sChIJhc8IT9fmDDkRymbowI7DNc8?authuser=0&hl=en&rclk=1,"28.4983917,77.2970623"
bilal masjid.,Mosque,"P24V+6FG bilal masjid., Durga Mandir Rd, Phase 2, Inder Enclave, Rohini, New Delhi, Delhi, 110086","Phase 2, Inder Enclave, Rohini","P24V+6FG, Durga Mandir Rd","New Delhi, Delhi",110086,Delhi,IN,https://www.google.com/maps/place/bilal+masjid./data=!4m7!3m6!1s0x390d06709583ec61:0x52f266630d1af0ed!8m2!3d28.7055626!4d77.0437043!16s%2Fg%2F11g6r27xpk!19sChIJYeyDlXAGDTkR7fAaDWNm8lI?authuser=0&hl=en&rclk=1,"28.7055626,77.0437043"
Abu Bakr Mosque,Mosque,"Abu Bakr Mosque, Block H, Bhagwati Garden, Nawada, Delhi, 110059","Block H, Bhagwati Garden, Nawada",,Delhi,,Delhi,IN,https://www.google.com/maps/place/Abu+Bakr+Mosque/data=!4m7!3m6!1s0x390d054024fc4f99:0xa39867f7fae8e4b2!8m2!3d28.6267831!4d77.0315731!16s%2Fg%2F11byyq7mh6!19sChIJmU_8JEAFDTkRsuTo-vdnmKM?authuser=0&hl=en&rclk=1,"28.626783099999997,77.0315731"
Sunehari Bagh Masjid msjd,Mosque,"J666+5R2 Sunehari Bagh Masjid msjd, Motilal Nehru Marg, Rajpath Area, Central Secretariat, New Delhi, Delhi 110011","Rajpath Area, Central Secretariat","J666+5R2, Motilal Nehru Marg",New Delhi,110011,Delhi,IN,https://www.google.com/maps/place/Sunehari+Bagh+Masjid+%D9%85%D8%B3%D8%AC%D8%AF%E2%80%AD/data=!4m7!3m6!1s0x390ce2b9f7ae5b25:0x9e058e770ffa962f!8m2!3d28.610384!4d77.212024!16s%2Fg%2F124ycq4lc!19sChIJJVuu97niDDkRL5b6D3eOBZ4?authuser=0&hl=en&rclk=1,"28.610384,77.212024"
Bilal Masjid (Arjun Park) msjd bll,Mosque,"Bilal Masjid (Arjun Park) msjd bll, Arjun Park, Nangli Sakrawati, New Delhi, Delhi, 110043","Arjun Park, Nangli Sakrawati",,"New Delhi, Delhi",110043,Delhi,IN,https://www.google.com/maps/place/Bilal+Masjid+%28Arjun+Park%29+%D9%85%D8%B3%D8%AC%D8%AF+%D8%A8%D9%84%D8%A7%D9%84%E2%80%AD/data=!4m7!3m6!1s0x390d0ff5700d4fdf:0x97a2b57fd78bd63b!8m2!3d28.6240729!4d77.009623!16s%2Fg%2F11bvt1wdn0!19sChIJ308NcPUPDTkRO9aL13-1opc?authuser=0&hl=en&rclk=1,"28.624072899999998,77.00962299999999"
Masjid Chishtiya,Mosque,"Masjid Chishtiya, A Block, Resettlement Colony, Sector 1 Dwarka, Dwarka, New Delhi, Delhi 110075","Sector 1 Dwarka, Dwarka","A Block, Resettlement Colony","New Delhi, Delhi",110075,Delhi,IN,https://www.google.com/maps/place/Masjid+Chishtiya/data=!4m7!3m6!1s0x390d1b39fc220e61:0xafc3334e15039693!8m2!3d28.5978695!4d77.0740838!16s%2Fg%2F12hv2l16_!19sChIJYQ4i_DkbDTkRk5YDFU4zw68?authuser=0&hl=en&rclk=1,"28.597869499999998,77.0740838"
Ahle Sunnat wal jamaat RazaeMuhammadi Masjid,Mosque,"J6X8+JC2 Ahle Sunnat wal jamaat RazaeMuhammadi Masjid, Aram Nagar, Paharganj, New Delhi, Delhi 110055","Aram Nagar, Paharganj",J6X8+JC2,New Delhi,110055,Delhi,IN,https://www.google.com/maps/place/Ahle+Sunnat+wal+jamaat+RazaeMuhammadi+Masjid/data=!4m7!3m6!1s0x390cfd6b1c55570b:0xb6cbdaabca9cc6b2!8m2!3d28.6490022!4d77.2160178!16s%2Fg%2F11g6mj_5x9!19sChIJC1dVHGv9DDkRssacyqvay7Y?authuser=0&hl=en&rclk=1,"28.649002199999998,77.2160178"
Masjid Ghareeb Shah (Mosque),Mosque,"Masjid Ghareeb Shah (Mosque), Platform No. 2-3, Railway Station, New Delhi, Delhi 110001",Railway Colony,"Platform No. 2-3, Railway Station","New Delhi, Delhi",110001,Delhi,IN,https://www.google.com/maps/place/Masjid+Ghareeb+Shah+%28Mosque%29/data=!4m7!3m6!1s0x390cfd3f1bf04125:0x3a9f9603de0a2a11!8m2!3d28.6420224!4d77.2198676!16s%2Fg%2F11dxq2qssc!19sChIJJUHwGz_9DDkRESoK3gOWnzo?authuser=0&hl=en&rclk=1,"28.6420224,77.2198676"
Masjid Majeedia Motilal nehru marg- msjdi mjdyh,Mosque,"Masjid Majeedia Motilal nehru marg- msjdi mjdyh, Unnamed Road, Dr APJ Abdul Kalam Rd, South Block, Aurangzeb Road, New Delhi, Delhi 110001","South Block, Aurangzeb Road","Unnamed Road, Dr APJ Abdul Kalam Rd",New Delhi,110001,Delhi,IN,https://www.google.com/maps/place/Masjid+Majeedia+Motilal+nehru+marg-+%D9%85%D8%B3%D8%AC%D8%AF%D9%90+%D9%85%D8%AC%D8%AF%DB%8C%DB%81%E2%80%AD/data=!4m7!3m6!1s0x390ce2c111445fc5:0x1156210e810cd168!8m2!3d28.6046984!4d77.2215032!16s%2Fg%2F11f1lpdw85!19sChIJxV9EEcHiDDkRaNEMgQ4hVhE?authuser=0&hl=en&rclk=1,"28.6046984,77.2215032"
MASJID AMROOD WALI,Mosque,"MASJID AMROOD WALI, Bulbuli khana, near kala masjid, Turkman Gate, Old Delhi, New Delhi, Delhi, 110006","Turkman Gate, Old Delhi","Bulbuli khana, near kala masjid","New Delhi, Delhi",110006,Delhi,IN,https://www.google.com/maps/place/MASJID+AMROOD+WALI/data=!4m7!3m6!1s0x390cfd22f0eb7eef:0xc91420f046ba3b88!8m2!3d28.6410797!4d77.2337194!16s%2Fg%2F11d_x09zhj!19sChIJ737r8CL9DDkRiDu6RvAgFMk?authuser=0&hl=en&rclk=1,"28.6410797,77.2337194"
Masjid Dai-Wali,Mosque,"Shop No, Masjid Dai-Wali, 3136, Delhi Gate Bazar, Kucha Alam, Khabas Pura, Daryaganj, New Delhi, Delhi, 110002","Kucha Alam, Khabas Pura, Daryaganj","Shop No, 3136, Delhi Gate Bazar","New Delhi, Delhi",110002,Delhi,IN,https://www.google.com/maps/place/Masjid+Dai-Wali/data=!4m7!3m6!1s0x390cfd20da360d31:0x7e303aff50cc4c2b!8m2!3d28.6435772!4d77.2380546!16s%2Fg%2F1jky_pbsw!19sChIJMQ022iD9DDkRK0zMUP86MH4?authuser=0&hl=en&rclk=1,"28.6435772,77.2380546"
Bilal Masjid,Mosque,"M38F+2QJ Bilal Masjid, Block G, Nangloi, Delhi, 110041","Block G, Nangloi",M38F+2QJ,Delhi,110041,Delhi,IN,https://www.google.com/maps/place/Bilal+Masjid/data=!4m7!3m6!1s0x390d045c9a12c2d1:0xc4bf16b7013bf85e!8m2!3d28.6650885!4d77.0743811!16s%2Fg%2F1hf6y6c73!19sChIJ0cISmlwEDTkRXvg7AbcWv8Q?authuser=0&hl=en&rclk=1,"28.6650885,77.0743811"
MASJID,Mosque,"MASJID, Wz 173a/1 new ranjeet nagar, Guru Nanak Nagar, Shadipur, Delhi 110008","Guru Nanak Nagar, Shadipur",Wz 173a/1 new ranjeet nagar,New Delhi,110008,Delhi,IN,https://www.google.com/maps/place/MASJID/data=!4m7!3m6!1s0x390d0327bb6f6129:0xe8342be2eca63326!8m2!3d28.6456917!4d77.1597324!16s%2Fg%2F11h5lkhmc2!19sChIJKWFvuycDDTkRJjOm7OIrNOg?authuser=0&hl=en&rclk=1,"28.6456917,77.1597324"
Jama Masjid Noor-e-Ilahi,Mosque,"M4R9+GFM Jama Masjid Noor-e-Ilahi, Bhagwan Buddha Housing Corporation Society, Pitampura, Delhi, 110034","Bhagwan Buddha Housing Corporation Society, Pitampura",M4R9+GFM,Delhi,110034,Delhi,IN,https://www.google.com/maps/place/Jama+Masjid+Noor-e-Ilahi/data=!4m7!3m6!1s0x390d03ef276709bf:0x2a16ae497f328a73!8m2!3d28.6913464!4d77.1186814!16s%2Fg%2F11dfwyrsts!19sChIJvwlnJ-8DDTkRc4oyf0muFio?authuser=0&hl=en&rclk=1,"28.6913464,77.1186814"
Masjid Dhobiyan,Mosque,"Masjid Dhobiyan, 3280, Delhi Gate Bazar, Kucha Alam, Old Dariya Ganj, New Delhi, Delhi 110002","Chatta lal Miya, Chandni Mahal, Old Delhi","3280, Delhi Gate Bazar, Kucha Alam, Old Dariya Ganj","New Delhi, Delhi",110002,Delhi,IN,https://www.google.com/maps/place/Masjid+Dhobiyan/data=!4m7!3m6!1s0x390cfd273340d127:0x7d6d2edf4a35f8d9!8m2!3d28.6425263!4d77.2386389!16s%2Fg%2F11cs5s2vzb!19sChIJJ9FAMyf9DDkR2fg1St8ubX0?authuser=0&hl=en&rclk=1,"28.6425263,77.2386389"
Aale Nabi Masjid,Mosque,"Aale Nabi Masjid, 257, Hind Vihar, Sharda Vats Enclave, Block B, Agar Nagar, New Delhi, Delhi, 110041","Hind Vihar, Sharda Vats Enclave, Block B, Agar Nagar",257,"New Delhi, Delhi",110041,Delhi,IN,https://www.google.com/maps/place/Aale+Nabi+Masjid/data=!4m7!3m6!1s0x390d05d0474cb411:0x1d045b30f7ea3ef4!8m2!3d28.6887068!4d77.0467527!16s%2Fg%2F1hm3sqzn_!19sChIJEbRMR9AFDTkR9D7q9zBbBB0?authuser=0&hl=en&rclk=1,"28.6887068,77.0467527"
Mosque,Mosque,"M747+V64 Mosque, Pushta Rd, Multani Mohalla, Gandhi Nagar, Shahdara, New Delhi, Delhi, 110031","Multani Mohalla, Gandhi Nagar, Shahdara","M747+V64, Pushta Rd","New Delhi, Delhi",110031,Delhi,IN,https://www.google.com/maps/place/Mosque/data=!4m7!3m6!1s0x390cfcecc3c3a38d:0x1e72f8e84718020c!8m2!3d28.6571357!4d77.2630907!16s%2Fg%2F1jkvzp3j_!19sChIJjaPDw-z8DDkRDAIYR-j4ch4?authuser=0&hl=en&rclk=1,"28.657135699999998,77.26309069999999"
Allah Rasool Masjid,Mosque,"Allah Rasool Masjid, f-495, Khajuri khas Extension, Khazoori Khas, Delhi, 110094","Khajuri khas Extension, Khazoori Khas",f-495,Delhi,110094,Delhi,IN,https://www.google.com/maps/place/Allah+Rasool+Masjid/data=!4m7!3m6!1s0x390cfc3d9a59be9b:0xfdc31ce49253f00b!8m2!3d28.7044871!4d77.26259!16s%2Fg%2F11fz96_61r!19sChIJm75Zmj38DDkRC_BTkuQcw_0?authuser=0&hl=en&rclk=1,"28.704487099999998,77.26259"
Masjid Hanafiah,Mosque,"Masjid Hanafiah, 1377, Kalan Mahal, Daryaganj, New Delhi, Delhi, 110002","Kalan Mahal, Daryaganj",1377,"New Delhi, Delhi",110002,Delhi,IN,https://www.google.com/maps/place/Masjid+Hanafiah/data=!4m7!3m6!1s0x390cfd1f6023d9f9:0x718d28b56f35a1bf!8m2!3d28.6480915!4d77.2363378!16s%2Fg%2F11c6_strgn!19sChIJ-dkjYB_9DDkRv6E1b7UojXE?authuser=0&hl=en&rclk=1,"28.6480915,77.2363378"
Madina Masjid,Mosque,"Madina Masjid, 86, Veer Bazar Rd, Karan Vihar Phase II, Hari Enclave, Sultanpuri, New Delhi, Delhi, 110086","Karan Vihar Phase II, Hari Enclave, Sultanpuri","86, Veer Bazar Rd","New Delhi, Delhi",110086,Delhi,IN,https://www.google.com/maps/place/Madina+Masjid/data=!4m7!3m6!1s0x390d0429d714e0d9:0x4bbcba0a57ec96f0!8m2!3d28.7001299!4d77.0644584!16s%2Fg%2F11c0r4hf2j!19sChIJ2eAU1ykEDTkR8JbsVwq6vEs?authuser=0&hl=en&rclk=1,"28.7001299,77.06445839999999"
Fakhrul Masjid msjd,Mosque,"Fakhrul Masjid msjd, 1268, Bara Bazar Rd, Chabi Ganj, Kashmere Gate, New Delhi, Delhi, 110006","Chabi Ganj, Kashmere Gate","1268, Bara Bazar Rd","New Delhi, Delhi",110006,Delhi,IN,https://www.google.com/maps/place/Fakhrul+Masjid+%D9%85%D8%B3%D8%AC%D8%AF%E2%80%AD/data=!4m7!3m6!1s0x390cfd060683b301:0xc9d92074bb420992!8m2!3d28.665012!4d77.2295583!16s%2Fg%2F11cmytc3k3!19sChIJAbODBgb9DDkRkglCu3Qg2ck?authuser=0&hl=en&rclk=1,"28.665011999999997,77.2295583"
Masjid-e-Mustafa msjd  mSTf,Mosque,"Masjid-e-Mustafa msjd  mSTf, B-377, Hind Vihar, Sharda Vats Enclave, Prem Nagar III, Mundka, Delhi, 110081","Hind Vihar, Sharda Vats Enclave, Prem Nagar III, Mundka",B-377,Delhi,110081,Delhi,IN,https://www.google.com/maps/place/Masjid-e-Mustafa+%D9%85%D8%B3%D8%AC%D8%AF+%D8%A1+%D9%85%D8%B5%D8%B7%D9%81%D8%A7%E2%80%AD/data=!4m7!3m6!1s0x390d05d0425cb661:0x21b131c90f771975!8m2!3d28.6891672!4d77.0465112!16s%2Fg%2F11b_2n0bn_!19sChIJYbZcQtAFDTkRdRl3D8kxsSE?authuser=0&hl=en&rclk=1,"28.6891672,77.0465112"
Jama Masjid Qazi Wali,Mosque,"Jama Masjid Qazi Wali, 1116, Main Bazar Rd, Ratan Lal Market, Kaseru Walan, Paharganj, New Delhi, Delhi 110055","Ratan Lal Market, Kaseru Walan, Paharganj","1116, Main Bazar Rd",New Delhi,110055,Delhi,IN,https://www.google.com/maps/place/Jama+Masjid+Qazi+Wali/data=!4m7!3m6!1s0x390cfd4126b39e0d:0x81053f8c811d6429!8m2!3d28.641262!4d77.21435!16s%2Fg%2F11cn0q9crp!19sChIJDZ6zJkH9DDkRKWQdgYw_BYE?authuser=0&hl=en&rclk=1,"28.641261999999998,77.21435"
Ata E Rasool Masjid,Mosque,"P744+V55 Ata E Rasool Masjid, Shriram Colony, Block A, Rajiv Nagar, Sonia Vihar, Delhi, 110094","Shriram Colony, Block A, Rajiv Nagar, Sonia Vihar",P744+V55,Delhi,110094,Delhi,IN,https://www.google.com/maps/place/Ata+E+Rasool+Masjid/data=!4m7!3m6!1s0x390cfc3b2d10341f:0xd365e06455e65096!8m2!3d28.7071349!4d77.2554772!16s%2Fg%2F11dxrw2d2x!19sChIJHzQQLTv8DDkRllDmVWTgZdM?authuser=0&hl=en&rclk=1,"28.7071349,77.2554772"
Masjid E Bilal(R.A),Mosque,"Masjid E Bilal(R.A), 313/83, Tulsi Nagar, Inderlok, New Delhi, Delhi, 110035","Tulsi Nagar, Inderlok",313/83,"New Delhi, Delhi",,Delhi,IN,https://www.google.com/maps/place/Masjid+E+Bilal%28R.A%29/data=!4m7!3m6!1s0x390d0305415347cd:0xf0ebc396d5163f98!8m2!3d28.6718945!4d77.1637325!16s%2Fg%2F11k5j1wwbz!19sChIJzUdTQQUDDTkRmD8W1ZbD6_A?authuser=0&hl=en&rclk=1,"28.671894499999997,77.1637325"
IMAM AHMAD RAZA JAMA MASJID,Mosque,"IMAM AHMAD RAZA JAMA MASJID, B 665, Pocket 4, B Block, JJ Colony, Uttam Nagar, New Delhi, Delhi, 110059","Pocket 4, B Block, JJ Colony, Uttam Nagar",B 665,"New Delhi, Delhi",110059,Delhi,IN,https://www.google.com/maps/place/IMAM+AHMAD+RAZA+JAMA+MASJID/data=!4m7!3m6!1s0x390d052171654883:0xcbc2bc8f49e66da2!8m2!3d28.6253214!4d77.0630461!16s%2Fg%2F11n5gz54q_!19sChIJg0hlcSEFDTkRom3mSY-8wss?authuser=0&hl=en&rclk=1,"28.625321399999997,77.0630461"
Masjid Aala Hazrat,Mosque,"Masjid Aala Hazrat, Q139, Block Q, Brahampuri, Shahdara, Delhi, 110053","Block Q, Brahampuri, Shahdara",Q139,Delhi,110053,Delhi,IN,https://www.google.com/maps/place/Masjid+Aala+Hazrat/data=!4m7!3m6!1s0x390cfc66e6d64745:0xc1c6e49f9194eca!8m2!3d28.6812927!4d77.2667714!16s%2Fg%2F11f15j_601!19sChIJRUfW5mb8DDkRyk4Z-UluHAw?authuser=0&hl=en&rclk=1,"28.6812927,77.2667714"
Masjid Rehel Wali,Mosque,"Masjid Rehel Wali, 1138, Matia Mahal Rd, Manohar Market, Jama Masjid, Old Delhi, New Delhi, Delhi, 110006","Manohar Market, Jama Masjid, Old Delhi","1138, Matia Mahal Rd","New Delhi, Delhi",110006,Delhi,IN,https://www.google.com/maps/place/Masjid+Rehel+Wali/data=!4m7!3m6!1s0x390cfd2209bda88f:0xf6c2b99a4522250f!8m2!3d28.6477449!4d77.2337881!16s%2Fg%2F11cs22c5d9!19sChIJj6i9CSL9DDkRDyUiRZq5wvY?authuser=0&hl=en&rclk=1,"28.6477449,77.2337881"
Agar General Store,General store,"J6WM+CHR Agar General Store, Chittli Qabar Bazar,Near Tukkman Gate,Near Jama Masjid,Dariyagang, Wali Baig St, Sita Ram Bazar, Chandni Chowk, New Delhi, Delhi 110006","Pahari Bhojla, Sita Ram Bazar, Chandni Chowk","J6WM+CHR, Chittli Qabar Bazar,Near Tukkman Gate,Near Jama Masjid,Dariyagang, Wali Baig St","New Delhi, Delhi",110006,Delhi,IN,https://www.google.com/maps/place/Agar+General+Store/data=!4m7!3m6!1s0x390cfd223c97f9ab:0x3b98420e771caaf3!8m2!3d28.6461199!4d77.2338978!16s%2Fg%2F1pp2vkg0k!19sChIJq_mXPCL9DDkR86ocdw5CmDs?authuser=0&hl=en&rclk=1,"28.6461199,77.2338978"
Bilal Masjid,Mosque,"M3G5+FJG Bilal Masjid, Nangloi Extension 2, Block C, Nangloi Extension, Nangloi, New Delhi, Delhi, 110041","Nangloi Extension 2, Block C, Nangloi Extension, Nangloi",M3G5+FJG,"New Delhi, Delhi",110041,Delhi,IN,https://www.google.com/maps/place/Bilal+Masjid/data=!4m7!3m6!1s0x390d05f91753674d:0xf7e88fd2dda2aaa0!8m2!3d28.6761922!4d77.0590717!16s%2Fg%2F11h0jprbnl!19sChIJTWdTF_kFDTkRoKqi3dKP6Pc?authuser=0&hl=en&rclk=1,"28.6761922,77.05907169999999"
Masjid Badi msjd,Mosque,"Masjid Badi msjd, 893,, Chittli Qabar Bazar Rd, Jama Masjid, Chandni Chowk, New Delhi, Delhi 110006","Bazar Chitli Qabar, Kucha Chelan, Jama Masjid, Chandni Chowk","893,, Chittli Qabar Bazar Rd","New Delhi, Delhi",110006,Delhi,IN,https://www.google.com/maps/place/Masjid+Badi+%D9%85%D8%B3%D8%AC%D8%AF%E2%80%AD/data=!4m7!3m6!1s0x390cfd219cfec1f3:0x93ccacb281d71709!8m2!3d28.645321!4d77.2357133!16s%2Fg%2F12m98gjn5!19sChIJ88H-nCH9DDkRCRfXgbKszJM?authuser=0&hl=en&rclk=1,"28.645321,77.2357133"
Masjid Haji Langa (Ancient mosque),Mosque,"Masjid Haji Langa (Ancient mosque), 2, Sector 3, Rama Krishna Puram, New Delhi, Delhi 110022","Sector 3, Rama Krishna Puram",2,New Delhi,110022,Delhi,IN,https://www.google.com/maps/place/Masjid+Haji+Langa+%28Ancient+mosque%29/data=!4m7!3m6!1s0x390d1d65fea19805:0x6779099e139b8d77!8m2!3d28.5538311!4d77.179919!16s%2Fg%2F11p64lp493!19sChIJBZih_mUdDTkRd42bE54JeWc?authuser=0&hl=en&rclk=1,"28.5538311,77.179919"
Ayesha Mosque,Mosque,"G86M+R86 Ayesha Mosque, Unnamed Road, Block G, Khadda Colony, Jaitpur, New Delhi, Delhi 110044","Block G, Khadda Colony, Jaitpur","G86M+R86, Unnamed Road",New Delhi,110044,Delhi,IN,https://www.google.com/maps/place/Ayesha+Mosque/data=!4m7!3m6!1s0x390ce76f34eb0675:0xb7dcfc68f8f4fb3f!8m2!3d28.5120271!4d77.3332675!16s%2Fg%2F11fjmfmgtw!19sChIJdQbrNG_nDDkRP_v0-Gj83Lc?authuser=0&hl=en&rclk=1,"28.512027099999997,77.33326749999999"
Masjid E Umar,Mosque,"M3P6+W5W Masjid E Umar, Nomadic Banjara Community, Railway Colony, Prem Nagar II, Prem Nagar, Delhi, 110086","Nomadic Banjara Community, Railway Colony, Prem Nagar II, Prem Nagar",M3P6+W5W,Delhi,110086,Delhi,IN,https://www.google.com/maps/place/Masjid+E+Umar/data=!4m7!3m6!1s0x390d04326bc31b0f:0xa6e2b96d7dadb38d!8m2!3d28.6873504!4d77.0604564!16s%2Fg%2F11g9npm5_d!19sChIJDxvDazIEDTkRjbOtfW254qY?authuser=0&hl=en&rclk=1,"28.6873504,77.06045639999999"
Masjid Hanfia,Mosque,"Masjid Hanfia, 2782, Kinari Bazar Rd, Dariba Kalan, Chandni Chowk, New Delhi, Delhi, 110006","Dariba Kalan, Chandni Chowk","2782, Kinari Bazar Rd","New Delhi, Delhi",110006,Delhi,IN,https://www.google.com/maps/place/Masjid+Hanfia/data=!4m7!3m6!1s0x390cfd1bb62b3d41:0xf6fbda834003d153!8m2!3d28.6548812!4d77.2324217!16s%2Fg%2F12ll5bm71!19sChIJQT0rthv9DDkRU9EDQIPa-_Y?authuser=0&hl=en&rclk=1,"28.6548812,77.2324217"
Masjid Bilal Gaurav Nagar,Mosque,"Masjid Bilal Gaurav Nagar, 278/14, Budh Bazar Rd, Block B, Block Z, Prem Nagar III, Kirari Suleman Nagar, Delhi, 110086","Block B, Block Z, Prem Nagar III, Kirari Suleman Nagar","278/14, Budh Bazar Rd",Delhi,110086,Delhi,IN,https://www.google.com/maps/place/Masjid+Bilal+Gaurav+Nagar/data=!4m7!3m6!1s0x390d06787e18a0a5:0xc1915b6c1b4113d!8m2!3d28.6990395!4d77.0477843!16s%2Fg%2F11c30r11q8!19sChIJpaAYfngGDTkRPRG0wbYVGQw?authuser=0&hl=en&rclk=1,"28.699039499999998,77.0477843"
Jahtari Wali Masjid,Mosque,"Jahtari Wali Masjid, 5077, Main Bazar Rd, Bharat Nagar, Main Bazar, Aram Bagh, Paharganj, New Delhi, Delhi 110055","Bharat Nagar, Main Bazar, Aram Bagh, Paharganj","5077, Main Bazar Rd",New Delhi,110055,Delhi,IN,https://www.google.com/maps/place/Jahtari+Wali+Masjid/data=!4m7!3m6!1s0x390cfd815a030b8b:0xe18350aa13859d7a!8m2!3d28.6406795!4d77.2115511!16s%2Fg%2F11gjxtbc0j!19sChIJiwsDWoH9DDkRep2FE6pQg-E?authuser=0&hl=en&rclk=1,"28.640679499999997,77.2115511"
Ghaziuddin's Mosque,Mosque,"J6WC+27Q Ghaziuddin's Mosque, Desh Bandhu Gupta Rd, Ajmeri Gate, New Delhi, Delhi, 110006",Ajmeri Gate,"J6WC+27Q, Desh Bandhu Gupta Rd","New Delhi, Delhi",110006,Delhi,IN,https://www.google.com/maps/place/Ghaziuddin%27s+Mosque/data=!4m7!3m6!1s0x390cfd3e4a23a085:0xc3158b353abd92f2!8m2!3d28.6450762!4d77.2207416!16s%2Fg%2F12hmk812x!19sChIJhaAjSj79DDkR8pK9OjWLFcM?authuser=0&hl=en&rclk=1,"28.6450762,77.2207416"
Munawra masjid,Mosque,"M7P4+6M2 Munawra masjid, Masjid Road, Third Pushta, Usmanpur, Nayagaon Village, Shahdara, Delhi, 110053","Third Pushta, Nayagaon, Nayagaon Village, Shahdara","M7P4+6M2, Masjid Road, Third Pushta, Usmanpur",Delhi,110053,Delhi,IN,https://www.google.com/maps/place/Munawra+masjid/data=!4m7!3m6!1s0x390cfd030e33f563:0x5dc12b36744f9a85!8m2!3d28.6855176!4d77.2566372!16s%2Fg%2F11hzwz2ypj!19sChIJY_UzDgP9DDkRhZpPdDYrwV0?authuser=0&hl=en&rclk=1,"28.685517599999997,77.2566372"
Mosque msjd,Mosque,"Mosque msjd, 3696, Mori Gate, New Delhi, Delhi 110006",Mori Gate,3696,"New Delhi, Delhi",110006,Delhi,IN,https://www.google.com/maps/place/Mosque+%D9%85%D8%B3%D8%AC%D8%AF%E2%80%AD/data=!4m7!3m6!1s0x390cfd0c79fa6f11:0x326ac233054d2efa!8m2!3d28.6635017!4d77.2212005!16s%2Fg%2F12lkq2186!19sChIJEW_6eQz9DDkR-i5NBTPCajI?authuser=0&hl=en&rclk=1,"28.663501699999998,77.2212005"
Masjid Sanauji,Mosque,"Masjid Sanauji, Shop No. 1630, Lal Kuan, Lalkuan Bazar Rd, Baradari, Chandni Chowk, New Delhi, Delhi 110006","Bazar Sirkiwalan, Baradari, Chandni Chowk","Shop No. 1630, Lal Kuan, Lalkuan Bazar Rd","New Delhi, Delhi",110006,Delhi,IN,https://www.google.com/maps/place/Masjid+Sanauji/data=!4m7!3m6!1s0x390cfd13fe3ea72d:0x27ea23bc5f650202!8m2!3d28.6529317!4d77.2232485!16s%2Fg%2F12hplq4pp!19sChIJLac-_hP9DDkRAgJlX7wj6ic?authuser=0&hl=en&rclk=1,"28.6529317,77.2232485"
Masjid Islam,Mosque,"Masjid Islam, Block G, Meer Vihar, Mubarakpur Dabas, Delhi, 110081","Block G, Meer Vihar, Mubarakpur Dabas",,Delhi,110081,Delhi,IN,https://www.google.com/maps/place/Masjid+Islam/data=!4m7!3m6!1s0x390d066cdc5732fb:0x4466032bba9d7fa4!8m2!3d28.7123341!4d77.0346402!16s%2Fg%2F11f383q165!19sChIJ-zJX3GwGDTkRpH-duisDZkQ?authuser=0&hl=en&rclk=1,"28.7123341,77.0346402"
Madina Masjid,Mosque,"P6CV+XV9 Madina Masjid, Gali No. 1, Pusta 4, Pusta Number 2, Sonia Vihar, Delhi, 110094","Pusta 4, Pusta Number 2, Sonia Vihar","P6CV+XV9, Gali No. 1",Delhi,110094,Delhi,IN,https://www.google.com/maps/place/Madina+Masjid/data=!4m7!3m6!1s0x390cff453d15e8fb:0x284bff5d46ae0f37!8m2!3d28.7224008!4d77.2447346!16s%2Fg%2F11fmwv2gyj!19sChIJ--gVPUX_DDkRNw-uRl3_Syg?authuser=0&hl=en&rclk=1,"28.7224008,77.2447346"
Masjid,Mosque,"P26W+G9R Masjid, Sharma Enclave, Phase II, Rohini, New Delhi, Delhi, 110086","Sharma Enclave, Phase II, Rohini",P26W+G9R,"New Delhi, Delhi",110086,Delhi,IN,https://www.google.com/maps/place/Masjid/data=!4m7!3m6!1s0x390d0665424343cf:0xe967304e46362a9e!8m2!3d28.7113688!4d77.045882!16s%2Fg%2F11gfgxlbhp!19sChIJz0NDQmUGDTkRnio2Rk4wZ-k?authuser=0&hl=en&rclk=1,"28.7113688,77.04588199999999"
Baghwali Masjid msjd bG wly,Mosque,"Baghwali Masjid msjd bG wly, 785, Nicholson Rd, Kashmere Gate, New Delhi, Delhi 110006","Ganda Nala Bazar, Kashmere Gate","785, Nicholson Rd","New Delhi, Delhi",110006,Delhi,IN,https://www.google.com/maps/place/Baghwali+Masjid+%D9%85%D8%B3%D8%AC%D8%AF+%D8%A8%D8%A7%D8%BA+%D9%88%D8%A7%D9%84%DB%8C%E2%80%AD/data=!4m7!3m6!1s0x390cfd092767785b:0xd4966cf4d21cbda8!8m2!3d28.6653187!4d77.2261277!16s%2Fg%2F12llwbr4n!19sChIJW3hnJwn9DDkRqL0c0vRsltQ?authuser=0&hl=en&rclk=1,"28.6653187,77.22612769999999"
Madina Masjid,Mosque,"P24Q+8VH Madina Masjid, Mubarakpur Dabas, Delhi, 110081",Mubarakpur Dabas,P24Q+8VH,Delhi,110081,Delhi,IN,https://www.google.com/maps/place/Madina+Masjid/data=!4m7!3m6!1s0x390d074f058b67d7:0x1f8fea0990e14203!8m2!3d28.7058071!4d77.039739!16s%2Fg%2F11hsshzq2k!19sChIJ12eLBU8HDTkRA0LhkAnqjx8?authuser=0&hl=en&rclk=1,"28.705807099999998,77.039739"
Mosque msjd,Mosque,"J76X+W9R Mosque msjd, New, Kotla Village, Mayur Vihar, New Delhi, Delhi 110091","Kotla Village, Mayur Vihar","J76X+W9R, New","New Delhi, Delhi",110091,Delhi,IN,https://www.google.com/maps/place/Mosque+%D9%85%D8%B3%D8%AC%D8%AF%E2%80%AD/data=!4m7!3m6!1s0x390ce4bcc9c6272b:0x172c875eb9dd78e2!8m2!3d28.612373!4d77.2984052!16s%2Fg%2F11c3182y_w!19sChIJKyfGybzkDDkR4njduV6HLBc?authuser=0&hl=en&rclk=1,"28.612372999999998,77.29840519999999"
Mosque Fatimah msjd fTmh,Mosque,"5, Mosque Fatimah msjd fTmh, Court, Near Victoria School, Old, Rajpur Rd, Police Lines, Tis Hazari, Delhi, 110054","Police Lines, Tis Hazari","5, Court, Near Victoria School, Old, Rajpur Rd",Delhi,110054,Delhi,IN,https://www.google.com/maps/place/Mosque+Fatimah+%D9%85%D8%B3%D8%AC%D8%AF+%D9%81%D8%A7%D8%B7%D9%85%D9%87%E2%80%AD/data=!4m7!3m6!1s0x390cfd8d99d1b35d:0x2c50b47f84e280cf!8m2!3d28.6692641!4d77.2194655!16s%2Fg%2F11h239cc9d!19sChIJXbPRmY39DDkRz4DihH-0UCw?authuser=0&hl=en&rclk=1,"28.6692641,77.2194655"
Afsarwala Mosque msjd,Mosque,"H6VX+44H Afsarwala Mosque msjd, Nizamuddin, Nizamuddin East, New Delhi, Delhi 110013","Nizamuddin, Nizamuddin East",H6VX+44H,New Delhi,110013,Delhi,IN,https://www.google.com/maps/place/Afsarwala+Mosque+%D9%85%D8%B3%D8%AC%D8%AF%E2%80%AD/data=!4m7!3m6!1s0x390ce3913295fa15:0x1b3a7bb1055e6bc7!8m2!3d28.5928111!4d77.2478503!16s%2Fg%2F11j137q8zm!19sChIJFfqVMpHjDDkRx2teBbF7Ohs?authuser=0&hl=en&rclk=1,"28.5928111,77.2478503"
Ishaq Masjid,Mosque,"Ishaq Masjid, Ishaq Masjid Wali Gali, Block C, Sarai Kale Khan, New Delhi, Delhi 110013","Block C, Sarai Kale Khan",Ishaq Masjid Wali Gali,New Delhi,110013,Delhi,IN,https://www.google.com/maps/place/Ishaq+Masjid/data=!4m7!3m6!1s0x390ce376f8a80f59:0x43d242dbd3376818!8m2!3d28.5849571!4d77.2565889!16s%2Fg%2F11q2tx_6x1!19sChIJWQ-o-HbjDDkRGGg309tC0kM?authuser=0&hl=en&rclk=1,"28.5849571,77.2565889"
Masjid Aashikan-E-Rasool,Mosque,"Masjid Aashikan-E-Rasool, B168A, Block B, Baljit Nagar, Patel Nagar, New Delhi, Delhi, 110008","Block B, Baljit Nagar, Patel Nagar",B168A,"New Delhi, Delhi",110008,Delhi,IN,https://www.google.com/maps/place/Masjid+Aashikan-E-Rasool/data=!4m7!3m6!1s0x390d03568277eb99:0x27959f1a230ab399!8m2!3d28.6610366!4d77.1631945!16s%2Fg%2F11qz5hv88s!19sChIJmet3glYDDTkRmbMKIxqflSc?authuser=0&hl=en&rclk=1,"28.6610366,77.1631945"
Fatemi Masjid,Mosque,"Fatemi Masjid, 3673, Main Bazar, Sabzi Mandi Rd, New Delhi, Delhi 110007","Arya Pura, Sabzi Mandi Old","3673, Main Bazar, Sabzi Mandi Rd","New Delhi, Delhi",110007,Delhi,IN,https://www.google.com/maps/place/Fatemi+Masjid/data=!4m7!3m6!1s0x390cfd77d6b49cc1:0xb29abba5fdd4f679!8m2!3d28.669022!4d77.2078086!16s%2Fg%2F12lksysp9!19sChIJwZy01nf9DDkRefbU_aW7mrI?authuser=0&hl=en&rclk=1,"28.669022,77.20780859999999"
Mir Masjid,Mosque,"P27J+8VC Mir Masjid, Block A, Meer Vihar, Mubarakpur Dabas, Delhi, 110081","Block A, Meer Vihar, Mubarakpur Dabas",P27J+8VC,Delhi,110081,Delhi,IN,https://www.google.com/maps/place/Mir+Masjid/data=!4m7!3m6!1s0x390d061341a10179:0xe56f005aff3cf287!8m2!3d28.7133006!4d77.0321507!16s%2Fg%2F11f00d0rll!19sChIJeQGhQRMGDTkRh_I8_1oAb-U?authuser=0&hl=en&rclk=1,"28.7133006,77.0321507"
Fariha Jame Mosque,Mosque,"J5RX+P8 Fariha Jame Mosque, Central Ridge Reserve Forest, New Delhi, Delhi 110001",Central Ridge Reserve Forest,J5RX+P8,New Delhi,,Delhi,IN,https://www.google.com/maps/place/Fariha+Jame+Mosque/data=!4m7!3m6!1s0x390cfd8f8818cd3b:0x410bdee610765284!8m2!3d28.6417695!4d77.1983012!16s%2Fg%2F11rr5nqvl6!19sChIJO80YiI_9DDkRhFJ2EObeC0E?authuser=0&hl=en&rclk=1,"28.6417695,77.1983012"
Fukrulla Beg Masjid,Mosque,"M62C+Q3V Fukrulla Beg Masjid, Fasil Rd, Chabdi Bazar, Shardhanand Market, Farash Khana, Chandni Chowk, New Delhi, Delhi, 110006","Chabdi Bazar, Shardhanand Market, Farash Khana, Chandni Chowk","M62C+Q3V, Fasil Rd","New Delhi, Delhi",110006,Delhi,IN,https://www.google.com/maps/place/Fukrulla+Beg+Masjid/data=!4m7!3m6!1s0x390cfd1483eebfb7:0xc967bc440a10c6d5!8m2!3d28.6519886!4d77.2201721!16s%2Fg%2F1hm6f2k64!19sChIJt7_ugxT9DDkR1cYQCkS8Z8k?authuser=0&hl=en&rclk=1,"28.6519886,77.2201721"
Masjid,Mosque,"M647+7CW Masjid, Narain Market, Sadar Bazaar, New Delhi, Delhi, 110006","Narain Market, Sadar Bazaar",M647+7CW,"New Delhi, Delhi",110006,Delhi,IN,https://www.google.com/maps/place/Masjid/data=!4m7!3m6!1s0x390cfde8cbf21c77:0x8550d15998f1660d!8m2!3d28.6557316!4d77.2135821!16s%2Fg%2F11gx_wrsm_!19sChIJdxzyy-j9DDkRDWbxmFnRUIU?authuser=0&hl=en&rclk=1,"28.6557316,77.2135821"
Mr.SAHEEM MALIK,Mosque,"Mr.SAHEEM MALIK, Gali no. 3 - Tirpal Factory Mustafabad, near Ayisha masjid, 25 Futa Rd, near by Aisha Masjid, chowk, Delhi 110094","Shakti Vihar, Old Mustafabad, chowk","Gali no. 3 - Tirpal Factory Mustafabad, near Ayisha masjid, 25 Futa Rd, near by Aisha Masjid",Delhi,110094,Delhi,IN,https://www.google.com/maps/place/Mr.SAHEEM+MALIK/data=!4m7!3m6!1s0x390cfd9a44cd4997:0xffdc8860c53e3f2b!8m2!3d28.7159667!4d77.272238!16s%2Fg%2F11h3cwgc8y!19sChIJl0nNRJr9DDkRKz8-xWCI3P8?authuser=0&hl=en&rclk=1,"28.7159667,77.272238"
Haji Rojdaar Wali Masjid,Mosque,"Haji Rojdaar Wali Masjid, 110074, Kharak, Sat Bari, New Delhi, Delhi 110074","Kharak, Sat Bari",110074,New Delhi,110074,Delhi,IN,https://www.google.com/maps/place/Haji+Rojdaar+Wali+Masjid/data=!4m7!3m6!1s0x390ce024a51f068f:0x1d8c2d91ee022fdd!8m2!3d28.4679055!4d77.2051939!16s%2Fg%2F11c5_hph3y!19sChIJjwYfpSTgDDkR3S8C7pEtjB0?authuser=0&hl=en&rclk=1,"28.467905499999997,77.2051939"
Masjid,Mosque,"Q7JJ+7WC Masjid, Pavi Sadakpur, Uttar Pradesh 201102",,Q7JJ+7WC,Pavi Sadakpur,201102,Uttar Pradesh,IN,https://www.google.com/maps/place/Masjid/data=!4m7!3m6!1s0x390cff3247b3c4d7:0xf1b7407f946dd8cc!8m2!3d28.7806806!4d77.2822504!16s%2Fg%2F11ggz8tfhy!19sChIJ18SzRzL_DDkRzNhtlH9At_E?authuser=0&hl=en&rclk=1,"28.7806806,77.2822504"
Masjid Anar Wali,Mosque,"Masjid Anar Wali, 847-893, Tilak Gali, Mori Gate, New Delhi, Delhi, 110006",Mori Gate,"847-893, Tilak Gali","New Delhi, Delhi",110006,Delhi,IN,https://www.google.com/maps/place/Masjid+Anar+Wali/data=!4m7!3m6!1s0x390cfdb5e13e91e7:0x8093a0c1f6de61be!8m2!3d28.6629573!4d77.2291866!16s%2Fg%2F11gmfybb2k!19sChIJ55E-4bX9DDkRvmHe9sGgk4A?authuser=0&hl=en&rclk=1,"28.6629573,77.22918659999999"
Masjid Akhundji,Mosque,"M63C+W27 Masjid Akhundji, Shardhanand Market, Farash Khana, Chandni Chowk, Delhi, 110006","Shardhanand Market, Farash Khana, Chandni Chowk",M63C+W27,Delhi,110006,Delhi,IN,https://www.google.com/maps/place/Masjid+Akhundji/data=!4m7!3m6!1s0x390cfd1304000001:0x72fdec335cb3985d!8m2!3d28.6547977!4d77.2200373!16s%2Fg%2F11cjkvmmtk!19sChIJAQAABBP9DDkRXZizXDPs_XI?authuser=0&hl=en&rclk=1,"28.6547977,77.2200373"
Masjid Hamam Wali,Mosque,"Masjid Hamam Wali, 6470, Katra Bariyan, Fatehpuri, Chandni Chowk, New Delhi, Delhi, 110006","Fatehpuri, Chandni Chowk","6470, Katra Bariyan","New Delhi, Delhi",110006,Delhi,IN,https://www.google.com/maps/place/Masjid+Hamam+Wali/data=!4m7!3m6!1s0x390cfd12316f31ef:0x174a76ac455f8b5!8m2!3d28.655784!4d77.222307!16s%2Fg%2F12hqwxj4v!19sChIJ7zFvMRL9DDkRtfhVxGqndAE?authuser=0&hl=en&rclk=1,"28.655783999999997,77.222307"
Masjid Anar Wali,Mosque,"J6WP+H6G Masjid Anar Wali, Haveli Azam Khan, Chittli Qabar Bazar Rd, Delhi, 110006","Kalan Mehal, Old Delhi","J6WP+H6G, Haveli Azam Khan, Chittli Qabar Bazar Rd",Delhi,110006,Delhi,IN,https://www.google.com/maps/place/Masjid+Anar+Wali/data=!4m7!3m6!1s0x390cfd2192f45833:0xddf1e01c9e23f7d3!8m2!3d28.6464403!4d77.2355876!16s%2Fg%2F11f4v9j1sy!19sChIJM1j0kiH9DDkR0_cjnhzg8d0?authuser=0&hl=en&rclk=1,"28.6464403,77.2355876"
Old Mugal Masjid,Mosque,"J6X9+P3V Old Mugal Masjid, Qutab Rd, Ram Nagar Market, Aram Nagar, Paharganj, New Delhi, Delhi, 110055","Ram Nagar Market, Aram Nagar, Paharganj","J6X9+P3V, Qutab Rd","New Delhi, Delhi",110055,Delhi,IN,https://www.google.com/maps/place/Old+Mugal+Masjid/data=!4m7!3m6!1s0x390cfd152b1b0125:0x49e032c4a3927074!8m2!3d28.6493546!4d77.2176682!16s%2Fg%2F11ggw008kv!19sChIJJQEbKxX9DDkRdHCSo8Qy4Ek?authuser=0&hl=en&rclk=1,"28.6493546,77.21766819999999"
Masjid,Mosque,"Masjid, 242, Masjid Jheel Pio, Near ITO metro GateNo.3, Bahadur Shah Zafar Marg, Balmiki Basti, Vikram Nagar, Delhi, 110002","Bahadur Shah Zafar Marg, Balmiki Basti, Vikram Nagar","242, Masjid Jheel Pio, Near ITO metro GateNo.3, Bahadur Shah Zafar Marg",Delhi,110002,Delhi,IN,https://www.google.com/maps/place/Masjid/data=!4m7!3m6!1s0x390cfd441769149d:0xa1929f1b4f5921d6!8m2!3d28.6298914!4d77.2415098!16s%2Fg%2F11s2n38r9b!19sChIJnRRpF0T9DDkR1iFZTxufkqE?authuser=0&hl=en&rclk=1,"28.629891399999998,77.2415098"
Masjid,Mosque,"J7WG+44R Masjid, Shastri Nagar, Geeta Colony, New Delhi, Delhi, 110031","Shastri Nagar, Geeta Colony",J7WG+44R,"New Delhi, Delhi",110031,Delhi,IN,https://www.google.com/maps/place/Masjid/data=!4m7!3m6!1s0x390cfdd602d3790d:0x318c83bff04345b3!8m2!3d28.6453628!4d77.2752524!16s%2Fg%2F11h_7ms07y!19sChIJDXnTAtb9DDkRs0VD8L-DjDE?authuser=0&hl=en&rclk=1,"28.645362799999997,77.2752524"
HADHRAT UMAR MASJID ALMAROOF CHOTI MASJID,Mosque,"HADHRAT UMAR MASJID ALMAROOF CHOTI MASJID, Chotti Masjid, Street number 9, Mulla Colony, Gharoli Extension, Gharoli, Delhi, 110096","Mulla Colony, Gharoli Extension, Gharoli","Chotti Masjid, Street number 9",Delhi,110096,Delhi,IN,https://www.google.com/maps/place/HADHRAT+UMAR+MASJID+ALMAROOF+CHOTI+MASJID/data=!4m7!3m6!1s0x390ce5c6cf830b2f:0x6bb8084dadf0d513!8m2!3d28.6213398!4d77.3314246!16s%2Fg%2F11sy4vfb7s!19sChIJLwuDz8blDDkRE9XwrU0IuGs?authuser=0&hl=en&rclk=1,"28.621339799999998,77.33142459999999"
Masjid,Mosque,"Masjid, 2508, Fasil Rd, Gali Sakko Wali, Shah Ganj, Chandni Chowk, New Delhi, Delhi, 110006","Gali Sakko Wali, Shah Ganj, Chandni Chowk","2508, Fasil Rd","New Delhi, Delhi",110006,Delhi,IN,https://www.google.com/maps/place/Masjid/data=!4m7!3m6!1s0x390cfd15c9a8a4b1:0xf975aada141da03e!8m2!3d28.6491552!4d77.2220471!16s%2Fg%2F1hm4gjxkd!19sChIJsaSoyRX9DDkRPqAdFNqqdfk?authuser=0&hl=en&rclk=1,"28.6491552,77.2220471"
Gosiyan masjid msjd,Mosque,"M6C3+6MM Gosiyan masjid msjd, Arya Pura, Sabzi Mandi Old, Delhi, 110007","Arya Pura, Sabzi Mandi Old",M6C3+6MM,Delhi,110007,Delhi,IN,https://www.google.com/maps/place/Gosiyan+masjid+%D9%85%D8%B3%D8%AC%D8%AF%E2%80%AD/data=!4m7!3m6!1s0x390cfd5ef95c48f9:0x4f3b43266a74c420!8m2!3d28.6705759!4d77.2041848!16s%2Fg%2F11g4db0xfq!19sChIJ-Uhc-V79DDkRIMR0aiZDO08?authuser=0&hl=en&rclk=1,"28.6705759,77.2041848"
Masjid,Mosque,"Masjid, 42C, Central Auto Market, Block B, Sector 16, Noida, Uttar Pradesh 201301","Central Auto Market, Block B, Sector 16",42C,Noida,201301,Uttar Pradesh,IN,https://www.google.com/maps/place/Masjid/data=!4m7!3m6!1s0x390ce45b6e8b8d05:0x1c6debc04866e60!8m2!3d28.577362!4d77.31624!16s%2Fg%2F11c6rj0f0y!19sChIJBY2LblvkDDkRYG6GBLzexgE?authuser=0&hl=en&rclk=1,"28.577361999999997,77.31624"
Masjid,Mosque,"P9HF+33Q Masjid, Farukh Nagar, Uttar Pradesh 201003",,P9HF+33Q,Farukh Nagar,201003,Uttar Pradesh,IN,https://www.google.com/maps/place/Masjid/data=!4m7!3m6!1s0x390cfa018875b495:0xeea7b0caec7e470d!8m2!3d28.7277145!4d77.3727433!16s%2Fg%2F11f0krqvls!19sChIJlbR1iAH6DDkRDUd-7Mqwp-4?authuser=0&hl=en&rclk=1,"28.727714499999998,77.3727433"
Masjid golar wali,Mosque,"Shop No, Masjid golar wali, 4464, Gali Shahtara, Kaccha Pandit Main Bazar, Lal Kuan Bazar, Ajmeri Gate, New Delhi, Delhi, 110006","Kaccha Pandit Main Bazar, Lal Kuan Bazar, Ajmeri Gate","Shop No, 4464, Gali Shahtara","New Delhi, Delhi",110006,Delhi,IN,https://www.google.com/maps/place/Masjid+golar+wali/data=!4m7!3m6!1s0x390cfd15b3e12a53:0xc55cec9c0a829731!8m2!3d28.6478688!4d77.2247622!16s%2Fg%2F11h94g1jcr!19sChIJUyrhsxX9DDkRMZeCCpzsXMU?authuser=0&hl=en&rclk=1,"28.647868799999998,77.2247622"
Masjid,Mosque,"Masjid, Generator section LNH, Maulana Azad Medical College Campus, LNJP Colony, New Delhi, Delhi, 110002","Maulana Azad Medical College Campus, LNJP Colony",Generator section LNH,"New Delhi, Delhi",110002,Delhi,IN,https://www.google.com/maps/place/Masjid/data=!4m7!3m6!1s0x390cfda80d3a142f:0x7e63ba6e21dc1e97!8m2!3d28.6378466!4d77.2379581!16s%2Fg%2F11ss881009!19sChIJLxQ6Daj9DDkRlx7cIW66Y34?authuser=0&hl=en&rclk=1,"28.6378466,77.2379581"
Syed Hasan Masjid,Mosque,"Syed Hasan Masjid, 124, Sector C, Gole Market, New Delhi, Delhi 110001","Sector C, Gole Market",124,New Delhi,110001,Delhi,IN,https://www.google.com/maps/place/Syed+Hasan+Masjid/data=!4m7!3m6!1s0x390cfd263f536697:0x174e102183d9d2d1!8m2!3d28.63939!4d77.2065116!16s%2Fg%2F11pvclr7q6!19sChIJl2ZTPyb9DDkR0dLZgyEQThc?authuser=0&hl=en&rclk=1,"28.63939,77.2065116"
Masjid Dargah Wali,Mosque,"J6WJ+F2H Masjid Dargah Wali, Bazar Sirkiwalan, Sita Ram Bazar, Chandni Chowk, New Delhi, Delhi, 110006","Bazar Sirkiwalan, Sita Ram Bazar, Chandni Chowk",J6WJ+F2H,"New Delhi, Delhi",110006,Delhi,IN,https://www.google.com/maps/place/Masjid+Dargah+Wali/data=!4m7!3m6!1s0x390cfd098572516f:0x8a5c954cf6e595c7!8m2!3d28.6461796!4d77.2301016!16s%2Fg%2F11frx6jlzt!19sChIJb1FyhQn9DDkRx5Xl9kyVXIo?authuser=0&hl=en&rclk=1,"28.6461796,77.2301016"
Masjid,Mosque,"M65J+GV7 Masjid, Chhippy Wada, Chandni Chowk, Delhi, 110006","Chhippy Wada, Chandni Chowk",M65J+GV7,Delhi,110006,Delhi,IN,https://www.google.com/maps/place/Masjid/data=!4m7!3m6!1s0x390cfd04823e663b:0x88920d6fe0b74a65!8m2!3d28.6587916!4d77.2321828!16s%2Fg%2F11n0gg69p2!19sChIJO2Y-ggT9DDkRZUq34G8Nkog?authuser=0&hl=en&rclk=1,"28.658791599999997,77.23218279999999"
Masjid Ahangaran,Mosque,"Masjid Ahangaran, 956, Gali Chandiwali, Montola, Paharganj, New Delhi, Delhi 110025","Ratan Lal Market, Kaseru Walan, Paharganj","956, Gali Chandiwali, Montola, Paharganj",New Delhi,110025,Delhi,IN,https://www.google.com/maps/place/Masjid+Ahangaran/data=!4m7!3m6!1s0x390cfd40e88a2d05:0x1c630582e126ec60!8m2!3d28.642006!4d77.215436!16s%2Fg%2F11cn95g4v1!19sChIJBS2K6ED9DDkRYOwm4YIFYxw?authuser=0&hl=en&rclk=1,"28.642006,77.215436"
Masjid/prayer room,Mosque,"H76F+7H6 Masjid/prayer room, Fortis Escorts Hospital Sukhdev metro station, Delhi",New Friends Colony,"H76F+7H6, Fortis Escorts Hospital Sukhdev metro station","Delhi, New Delhi",,Delhi,IN,https://www.google.com/maps/place/Masjid%2Fprayer+room/data=!4m7!3m6!1s0x390ce3c02d7da811:0x388ca404d02fd2b3!8m2!3d28.5606583!4d77.2739036!16s%2Fg%2F11rj_njv5d!19sChIJEah9LcDjDDkRs9Iv0ASkjDg?authuser=0&hl=en&rclk=1,"28.5606583,77.2739036"
Jafar Nagar Masjid,Mosque,"GCPW+CX Jafar Nagar Masjid, Kulesara, Greater Noida, Uttar Pradesh 201306",Kulesara,GCPW+CX,Greater Noida,,Uttar Pradesh,IN,https://www.google.com/maps/place/Jafar+Nagar+Masjid/data=!4m7!3m6!1s0x390ce9ad38dcdb91:0x2d6a8e92f67c00d1!8m2!3d28.5360757!4d77.4474791!16s%2Fg%2F11swrzhqlk!19sChIJkdvcOK3pDDkR0QB89pKOai0?authuser=0&hl=en&rclk=1,"28.536075699999998,77.4474791"
Eidgah Masjid,Mosque,"MC89+4P3 Eidgah Masjid, Gali No. 1, near Meena masjid, Islam Nagar, Madhopura, Ghaziabad, Uttar Pradesh 201009","Islam Nagar, Madhopura","MC89+4P3, Gali No. 1, near Meena masjid",Ghaziabad,,Uttar Pradesh,IN,https://www.google.com/maps/place/Eidgah+Masjid/data=!4m7!3m6!1s0x390cf120a22cee4f:0x658a3d7cfb08da96!8m2!3d28.665259!4d77.4192871!16s%2Fg%2F11td5pdnql!19sChIJT-4soiDxDDkRltoI-3w9imU?authuser=0&hl=en&rclk=1,"28.665259,77.41928709999999"
Madina Maszid,Mosque,"P432+JXG Madina Maszid, Pocket 25, Sector 3G, Rohini, Delhi, 110085","Pocket 25, Sector 3G, Rohini",P432+JXG,Delhi,110085,Delhi,IN,https://www.google.com/maps/place/Madina+Maszid/data=!4m7!3m6!1s0x390d018613fc13e1:0xb7a57d9d5623c997!8m2!3d28.7040585!4d77.1024588!16s%2Fg%2F11f6dnn289!19sChIJ4RP8E4YBDTkRl8kjVp19pbc?authuser=0&hl=en&rclk=1,"28.7040585,77.1024588"
Masjid Jahangeer (Chhoti Masjid),Mosque,"Masjid Jahangeer (Chhoti Masjid), 1020, Zorawar Singh Marg, Kashmere Gate, Delhi, 110006",Kashmere Gate,"1020, Zorawar Singh Marg",Delhi,110006,Delhi,IN,https://www.google.com/maps/place/Masjid+Jahangeer+%28Chhoti+Masjid%29/data=!4m7!3m6!1s0x390cfd065864abcb:0xc1a880ddc465573a!8m2!3d28.6626788!4d77.230199!16s%2Fg%2F11r_x6yt16!19sChIJy6tkWAb9DDkROldlxN2AqME?authuser=0&hl=en&rclk=1,"28.6626788,77.230199"
Qadri Masjid,Mosque,"Qadri Masjid, S5, Rajguru Marg, Bazar Sangatrashan, Chuna Mandi, Paharganj, New Delhi, Delhi 110055","Bazar Sangatrashan, Chuna Mandi, Paharganj","S5, Rajguru Marg",New Delhi,110055,Delhi,IN,https://www.google.com/maps/place/Qadri+Masjid/data=!4m7!3m6!1s0x390cfd420fb3ca0d:0x28d6c96c8abe5bf9!8m2!3d28.6450949!4d77.2107914!16s%2Fg%2F11j00853cl!19sChIJDcqzD0L9DDkR-Vu-imzJ1ig?authuser=0&hl=en&rclk=1,"28.6450949,77.21079139999999"
Masjid Amaanullah,Mosque,"Masjid Amaanullah, 216 Prem Gali, Punja Sharif Rd, Kashmere Gate, New Delhi, Delhi 110006",Kashmere Gate,"216 Prem Gali, Punja Sharif Rd","New Delhi, Delhi",110006,Delhi,IN,https://www.google.com/maps/place/Masjid+Amaanullah/data=!4m7!3m6!1s0x390cfd0cb3e8d4f9:0x5ade9f3222c5a86!8m2!3d28.6644081!4d77.2266476!16s%2Fg%2F11gnpfq15m!19sChIJ-dToswz9DDkRhlosIvPprQU?authuser=0&hl=en&rclk=1,"28.6644081,77.22664759999999"
masjid hafiz abdul qadeer,Mosque,"masjid hafiz abdul qadeer, 2505, Wali Baig St, Pahari Bhojla, Sheesh Mahal, Old Delhi, New Delhi, Delhi, 110006","Pahari Bhojla, Sheesh Mahal, Old Delhi","2505, Wali Baig St","New Delhi, Delhi",110006,Delhi,IN,https://www.google.com/maps/place/masjid+hafiz+abdul+qadeer/data=!4m7!3m6!1s0x390cfd223c9f4297:0x8837364f0113a6d5!8m2!3d28.6461098!4d77.2339485!16s%2Fg%2F11csrdyht5!19sChIJl0KfPCL9DDkR1aYTAU82N4g?authuser=0&hl=en&rclk=1,"28.646109799999998,77.2339485"
Masjid Shatoot Wali,Mosque,"M67H+G5Q Masjid Shatoot Wali, Chhota Bazar, Mori Gate, New Delhi, Delhi, 110006","Chhota Bazar, Mori Gate",M67H+G5Q,"New Delhi, Delhi",110006,Delhi,IN,https://www.google.com/maps/place/Masjid+Shatoot+Wali/data=!4m7!3m6!1s0x390cfdd8114d08fd:0x326042596014276a!8m2!3d28.663827!4d77.2279973!16s%2Fg%2F11g4h_zjtj!19sChIJ_QhNEdj9DDkRaicUYFlCYDI?authuser=0&hl=en&rclk=1,"28.663826999999998,77.2279973"
Masjid,Mosque,"Masjid, Gali No 19, Gali Number 1, Mustafabad Extn, New Mustafabad, Delhi, 110094","E2 Block, Mustafabad Extn, New Mustafabad","Gali No 19, Gali Number 1",Delhi,110094,Delhi,IN,https://www.google.com/maps/place/Masjid/data=!4m7!3m6!1s0x390cfc1b020b0e91:0xb48a3c3233e41cbd!8m2!3d28.711773!4d77.272563!16s%2Fg%2F12hpqnhjr!19sChIJkQ4LAhv8DDkRvRzkMzI8irQ?authuser=0&hl=en&rclk=1,"28.711772999999997,77.27256299999999"
Masjid,Mosque,"Masjid, 8/2, Budh Bazar, Block L 1, Devli, Sangam Vihar, New Delhi, Delhi 110062","Budh Bazar, Block L 1, Devli, Sangam Vihar",8/2,New Delhi,110062,Delhi,IN,https://www.google.com/maps/place/Masjid/data=!4m7!3m6!1s0x390ce1dde82b3bc3:0x4d3537cacd38aec4!8m2!3d28.4940769!4d77.2261653!16s%2Fg%2F11rk33_10p!19sChIJwzsr6N3hDDkRxK44zco3NU0?authuser=0&hl=en&rclk=1,"28.4940769,77.22616529999999"
Masjid,Mosque,"M794+RG5 Masjid, Block A, Shastri Park, Shahdara, Delhi, 110053","Block A, Shastri Park, Shahdara",M794+RG5,Delhi,,Delhi,IN,https://www.google.com/maps/place/Masjid/data=!4m7!3m6!1s0x390cfd74b6378221:0x2da5c9212f831088!8m2!3d28.6695164!4d77.2563643!16s%2Fg%2F11tb42z9g0!19sChIJIYI3tnT9DDkRiBCDLyHJpS0?authuser=0&hl=en&rclk=1,"28.6695164,77.2563643"
Masjid,Mosque,"Masjid, 94L, Adarsh Mohalla, Block P, Mayur Vihar, Delhi, 110091","Adarsh Mohalla, Block P, Mayur Vihar",94L,Delhi,110091,Delhi,IN,https://www.google.com/maps/place/Masjid/data=!4m7!3m6!1s0x390ce594aaf9a4ed:0x7705b6bd1214d779!8m2!3d28.6097585!4d77.2915521!16s%2Fg%2F11vdfgxvzr!19sChIJ7aT5qpTlDDkRedcUEr22BXc?authuser=0&hl=en&rclk=1,"28.609758499999998,77.29155209999999"
Ayesha Masjid,Mosque,"P24P+88C Ayesha Masjid, Mubarakpur Dabas, Delhi, 110081",Mubarakpur Dabas,P24P+88C,Delhi,110081,Delhi,IN,https://www.google.com/maps/place/Ayesha+Masjid/data=!4m7!3m6!1s0x390d07354cde6e7d:0x6bae5d379188b5da!8m2!3d28.7058081!4d77.035771!16s%2Fg%2F11jyvhq_yv!19sChIJfW7eTDUHDTkR2rWIkTddrms?authuser=0&hl=en&rclk=1,"28.7058081,77.035771"
Masjid,Mosque,"Shop No: 5035, Masjid, Netaji Subhash Marg, Daryaganj, New Delhi, Delhi, 110002",Daryaganj,"Shop No: 5035, Netaji Subhash Marg","New Delhi, Delhi",110002,Delhi,IN,https://www.google.com/maps/place/Masjid/data=!4m7!3m6!1s0x390cfdf175041b95:0x8ef57a2bc9f92c1c!8m2!3d28.6480954!4d77.2403964!16s%2Fg%2F11s664lvxh!19sChIJlRsEdfH9DDkRHCz5ySt69Y4?authuser=0&hl=en&rclk=1,"28.6480954,77.2403964"
Masjid Peerji Wali,Mosque,"Masjid Peerji Wali, Chitli Qabar Rd, 110006, Turkman Gate, Chandni Chowk, Delhi, 110006","Bazar Chitli Qabar, Turkman Gate, Chandni Chowk","Chitli Qabar Rd, 110006",Delhi,110006,Delhi,IN,https://www.google.com/maps/place/Masjid+Peerji+Wali/data=!4m7!3m6!1s0x390cfd23cbc4bb81:0xf0ad0e52d2c26be7!8m2!3d28.6446931!4d77.2335229!16s%2Fg%2F11fzfbkyrv!19sChIJgbvEyyP9DDkR52vC0lIOrfA?authuser=0&hl=en&rclk=1,"28.644693099999998,77.2335229"
Rhmaniya masjid ugna chowk,Mosque,"P22Q+F43 Rhmaniya masjid ugna chowk, Shish Mahal Enclave, Agar Nagar, Delhi, 110086","Shish Mahal Enclave, Agar Nagar",P22Q+F43,Delhi,110086,Delhi,IN,https://www.google.com/maps/place/Rhmaniya+masjid+ugna+chowk/data=!4m7!3m6!1s0x390d07728c016a0b:0xa6992f321fe2d34b!8m2!3d28.7011371!4d77.0378205!16s%2Fg%2F11svmnwpmh!19sChIJC2oBjHIHDTkRS9PiHzIvmaY?authuser=0&hl=en&rclk=1,"28.7011371,77.0378205"
Rhmaniya rizviya masjid,Mosque,"P22R+W6X Rhmaniya rizviya masjid, Block B, Raghuwar Nagar, Agar Nagar, Delhi, 110086","Block B, Raghuwar Nagar, Agar Nagar",P22R+W6X,Delhi,,Delhi,IN,https://www.google.com/maps/place/Rhmaniya+rizviya+masjid/data=!4m7!3m6!1s0x390d0791dc30bdc1:0xb6d2609e94130726!8m2!3d28.7023729!4d77.0406147!16s%2Fg%2F11v0y55_h7!19sChIJwb0w3JEHDTkRJgcTlJ5g0rY?authuser=0&hl=en&rclk=1,"28.7023729,77.04061469999999"
Masjid,Mosque,"H662+8G4 Masjid, Green Park Ext Rd, Block J, Green Park Extension, Green Park, New Delhi, Delhi 110016","Block J, Green Park Extension, Green Park","H662+8G4, Green Park Ext Rd",New Delhi,110016,Delhi,IN,https://www.google.com/maps/place/Masjid/data=!4m7!3m6!1s0x390ce3053c6f74cf:0x33b8d79c09cb4f99!8m2!3d28.5607743!4d77.2013357!16s%2Fg%2F11krd8fpw7!19sChIJz3RvPAXjDDkRmU_LCZzXuDM?authuser=0&hl=en&rclk=1,"28.5607743,77.2013357"
Rhmaniya rizviya masjid,Mosque,"P22Q+F43 Rhmaniya rizviya masjid, Shish Mahal Enclave, Agar Nagar, Delhi, 110086","Shish Mahal Enclave, Agar Nagar",P22Q+F43,Delhi,110086,Delhi,IN,https://www.google.com/maps/place/Rhmaniya+rizviya+masjid/data=!4m7!3m6!1s0x390d07f14e6747f3:0x6443a992d41ee1b5!8m2!3d28.7011371!4d77.0378205!16s%2Fg%2F11v0y530fh!19sChIJ80dnTvEHDTkRteEe1JKpQ2Q?authuser=0&hl=en&rclk=1,"28.7011371,77.0378205"
Masjid,Mosque,"Masjid, L385, Block L, JJ Colony No 3, Nangloi, New Delhi, Delhi, 110041","Block L, JJ Colony No 3, Nangloi",L385,"New Delhi, Delhi",110041,Delhi,IN,https://www.google.com/maps/place/Masjid/data=!4m7!3m6!1s0x390d0530462f99ad:0xf47aa8290ce093fa!8m2!3d28.6842352!4d77.0742041!16s%2Fg%2F11smtj7p27!19sChIJrZkvRjAFDTkR-pPgDCmoevQ?authuser=0&hl=en&rclk=1,"28.6842352,77.0742041"
Masjid,Mosque,"Masjid, 20, Masjid Rd, Pervesh Nagar, Mubarakpur Dabas, New Delhi, Delhi, 110081","Pervesh Nagar, Mubarakpur Dabas","20, Masjid Rd","New Delhi, Delhi",110081,Delhi,IN,https://www.google.com/maps/place/Masjid/data=!4m7!3m6!1s0x390d075632dea237:0xe707b406c4cff64!8m2!3d28.7098866!4d77.0310854!16s%2Fg%2F11kq2cq2_1!19sChIJN6LeMlYHDTkRZP9MbEB7cA4?authuser=0&hl=en&rclk=1,"28.709886599999997,77.0310854"
Masjid,Mosque,"J2WM+MXF Masjid, Sunni Masjid Rd, Deep Enclave, Hastsal, Delhi, 110059","Deep Enclave, Hastsal","J2WM+MXF, Sunni Masjid Rd",Delhi,110059,Delhi,IN,https://www.google.com/maps/place/Masjid/data=!4m7!3m6!1s0x390d05267bb46283:0xaef6f06f366d7113!8m2!3d28.6466834!4d77.0349292!16s%2Fg%2F11vl8tpxw1!19sChIJg2K0eyYFDTkRE3FtNm_w9q4?authuser=0&hl=en&rclk=1,"28.646683399999997,77.0349292"
Masjid,Mosque,"Masjid, I116, DSIIDC Industrial Area, Sector 5, Bawana, New Delhi, Delhi, 110039","DSIIDC Industrial Area, Sector 5, Bawana",I116,"New Delhi, Delhi",110039,Delhi,IN,https://www.google.com/maps/place/Masjid/data=!4m7!3m6!1s0x390da9cb278fea55:0x351e1b7ec09414c4!8m2!3d28.8011996!4d77.0752247!16s%2Fg%2F11vd9vydsd!19sChIJVeqPJ8upDTkRxBSUwH4bHjU?authuser=0&hl=en&rclk=1,"28.8011996,77.07522469999999"
Nahid Documents,Internet cafe,"Shop No 3, Nahid Documents, Masjid Road, Agar Nagar Rd, Naraina Vihar, Prem Nagar III, Kirari Suleman Nagar, New Delhi, Delhi, 110086","Naraina Vihar, Prem Nagar III, Kirari Suleman Nagar","Shop No 3, Masjid Road, Agar Nagar Rd","New Delhi, Delhi",110086,Delhi,IN,https://www.google.com/maps/place/Nahid+Documents/data=!4m7!3m6!1s0x390d057dafcf2797:0xd900d060e0bd2d90!8m2!3d28.6968959!4d77.0440621!16s%2Fg%2F11vjjj_r1_!19sChIJlyfPr30FDTkRkC294GDQANk?authuser=0&hl=en&rclk=1,"28.696895899999998,77.04406209999999"
Pawan Document,Internet cafe,"Pawan Document, Shop No 1prem, Nagar, 3 Masjid Road, Agar Nagar, Delhi, 110086","Naraina Vihar, Prem Nagar III, Agar Nagar","Shop No 1prem, Nagar, 3 Masjid Road",Delhi,110086,Delhi,IN,https://www.google.com/maps/place/Pawan+Document/data=!4m7!3m6!1s0x390d05a14fb10c7f:0xa7c3c8e3d1f13e1!8m2!3d28.6968962!4d77.0440571!16s%2Fg%2F11l72q4ht_!19sChIJfwyxT6EFDTkR4RMfPY48fAo?authuser=0&hl=en&rclk=1,"28.696896199999998,77.0440571"
