name,main_category,address,address_ward,address_street,address_city,address_postal_code,address_state,address_country_code,link,coordinates
Sarvari Sunni Masjid,Mosque,"FRFH+FWC Sarvari Sunni Masjid, Chandansar Rd, Virar East, Virar, Maharashtra 401305",Virar East,"FRFH+FWC, Chandansar Rd",Virar,401305,Maharashtra,IN,https://www.google.com/maps/place/Sarvari+Sunni+Masjid/data=!4m7!3m6!1s0x3be7a9c048c605ad:0xed80b7025c2d67ae!8m2!3d19.4736858!4d72.8297527!16s%2Fg%2F11c2068xsj!19sChIJrQXGSMCp5zsRrmctXAK3gO0?authuser=0&hl=en&rclk=1,"19.4736858,72.8297527"
Jama Masjid Virar,Mosque,"FR36+CM8 Jama Masjid Virar, Subway, Gaothan, Virar East, Virar, Maharashtra 401303","Gaothan, Virar East","FR36+CM8, Subway",Virar,401303,Maharashtra,IN,https://www.google.com/maps/place/Jama+Masjid+Virar/data=!4m7!3m6!1s0x3be7a9846caf313d:0xd0a6094444c6cdb3!8m2!3d19.4535332!4d72.8116947!16s%2Fg%2F1thd08dx!19sChIJPTGvbISp5zsRs83GREQJptA?authuser=0&hl=en&rclk=1,"19.4535332,72.81169469999999"
Pirkunda Dargah,Mosque,"FV9F+GWG Pirkunda Dargah, Chandansar Road, Virar East, Veer Savarkar Marg, Khairpada, Maharashtra 401305",,"FV9F+GWG, Chandansar Road, Virar East, Veer Savarkar Marg",Khairpada,401305,Maharashtra,IN,https://www.google.com/maps/place/Pirkunda+Dargah/data=!4m7!3m6!1s0x3be7a8420b4ac8bf:0x815b7fc39f8e9473!8m2!3d19.468813!4d72.8748388!16s%2Fg%2F11c6mz44zx!19sChIJv8hKC0Ko5zsRc5SOn8N_W4E?authuser=0&hl=en&rclk=1,"19.468813,72.87483879999999"
Bolinj Masjid,Mosque,"CQVR+3P2 Bolinj Masjid, Bhandar Aali, Bolinj, Virar West, Virar, Maharashtra 401303","Bhandar Aali, Bolinj, Virar West",CQVR+3P2,Virar,401303,Maharashtra,IN,https://www.google.com/maps/place/Bolinj+Masjid/data=!4m7!3m6!1s0x3be7abcd6553ab5b:0x99ce156329a5b626!8m2!3d19.4426445!4d72.791757!16s%2Fg%2F1tjl4c5z!19sChIJW6tTZc2r5zsRJralKWMVzpk?authuser=0&hl=en&rclk=1,"19.4426445,72.79175699999999"
Sunni masjid 2nd Road,Mosque,"Sunni masjid 2nd Road, A-106, 2nd Road, Panbai Nagar, Sriprastha, Nalasopara West, Vasai-Virar, Nala Sopara, Maharashtra 401203","Panbai Nagar, Sriprastha, Nalasopara West","A-106, 2nd Road","Vasai-Virar, Nala Sopara",401203,Maharashtra,IN,https://www.google.com/maps/place/Sunni+masjid+2nd+Road/data=!4m7!3m6!1s0x3be7a97bc7799aed:0x21958ea4cbc95ee8!8m2!3d19.4220966!4d72.8094785!16s%2Fg%2F11j0yhrcdk!19sChIJ7Zp5x3up5zsR6F7Jy6SOlSE?authuser=0&hl=en&rclk=1,"19.4220966,72.8094785"
Gausiya Masjid,Mosque,"Gausiya Masjid, Mansoori Nagar, Gopchar pada, Veer Savarkar Marg, East, Virar, Maharashtra 401305",East,"Mansoori Nagar, Gopchar pada, Veer Savarkar Marg",Virar,401305,Maharashtra,IN,https://www.google.com/maps/place/Gausiya+Masjid/data=!4m7!3m6!1s0x3be7a98c28e1ea93:0xd969617aae02bb1a!8m2!3d19.4653125!4d72.8121875!16s%2Fg%2F11g8b6dm9d!19sChIJk-rhKIyp5zsRGrsCrnphadk?authuser=0&hl=en&rclk=1,"19.4653125,72.8121875"
Sunni Zohara Masjid,Mosque,"Sunni Zohara Masjid, Oswal Nagari, Nalasopara East, Nala Sopara, Maharashtra 401209","Oswal Nagari, Nalasopara East",,Nala Sopara,401209,Maharashtra,IN,https://www.google.com/maps/place/Sunni+Zohara+Masjid/data=!4m7!3m6!1s0x3be7a96f0c6eb561:0xb6eacfcb114f2020!8m2!3d19.4325625!4d72.8178125!16s%2Fg%2F11f3wc1nxs!19sChIJYbVuDG-p5zsRICBPEcvP6rY?authuser=0&hl=en&rclk=1,"19.4325625,72.8178125"
Bilal Masjid,Mosque,"FR88+27X Bilal Masjid, Veer Savarkar Marg, Sai Datt Nagar, Virar East, Virar, Maharashtra 401305","Sai Datt Nagar, Virar East","FR88+27X, Veer Savarkar Marg",Virar,401305,Maharashtra,IN,https://www.google.com/maps/place/Bilal+Masjid/data=!4m7!3m6!1s0x3be7a98df755109f:0xebae6f8821101d7a!8m2!3d19.4651011!4d72.8157359!16s%2Fg%2F11bv3826sf!19sChIJnxBV942p5zsReh0QIYhvrus?authuser=0&hl=en&rclk=1,"19.4651011,72.81573589999999"
Masjid & Madarsa Talimul Quran,Mosque,"Masjid & Madarsa Talimul Quran, Tarannum Apartment, Doghar Pada, Tirupati Nagar Phase II, Vartak Ward, Virar West, Virar, Maharashtra 401303","Doghar Pada, Tirupati Nagar Phase II, Vartak Ward, Virar West",Tarannum Apartment,Virar,401303,Maharashtra,IN,https://www.google.com/maps/place/Masjid+%26+Madarsa+Talimul+Quran/data=!4m7!3m6!1s0x3be7a90e426042d5:0xb45f796eae135589!8m2!3d19.4538459!4d72.8054537!16s%2Fg%2F11g190zxzd!19sChIJ1UJgQg6p5zsRiVUTrm55X7Q?authuser=0&hl=en&rclk=1,"19.453845899999997,72.8054537"
Sunni Masjid,Mosque,"FQ7H+529 Sunni Masjid, Agashi Rd, Agashi, Virar West, Virar, Maharashtra 401301","Agashi, Virar West","FQ7H+529, Agashi Rd",Virar,401301,Maharashtra,IN,https://www.google.com/maps/place/Sunni+Masjid/data=!4m7!3m6!1s0x3be7aa4102961a55:0xf1d82e0d97d1d309!8m2!3d19.4629152!4d72.7776217!16s%2Fg%2F1ptxfbfg_!19sChIJVRqWAkGq5zsRCdPRlw0u2PE?authuser=0&hl=en&rclk=1,"19.462915199999998,72.7776217"
Sunni Jama Masjid,Mosque,"CQVW+JG6 Sunni Jama Masjid, Bolinj Rd, Bolinj, Virar West, Virar, Maharashtra 401303","Bolinj, Virar West","CQVW+JG6, Bolinj Rd",Virar,401303,Maharashtra,IN,https://www.google.com/maps/place/Sunni+Jama+Masjid/data=!4m7!3m6!1s0x3be7abd33ce13973:0xbd69477d83ee368c!8m2!3d19.4440367!4d72.79627!16s%2Fg%2F1yfjpgykr!19sChIJcznhPNOr5zsRjDbug31Hab0?authuser=0&hl=en&rclk=1,"19.444036699999998,72.79626999999999"
Jama Masjid,Mosque,"FV9F+GXC Jama Masjid, Chandansar Rd, Khairpada, Maharashtra 401303",,"FV9F+GXC, Chandansar Rd",Khairpada,401303,Maharashtra,IN,https://www.google.com/maps/place/Jama+Masjid/data=!4m7!3m6!1s0x3be7a8420b6a1fe1:0x6efd01a2d497017c!8m2!3d19.468807!4d72.8748762!16s%2Fg%2F1hm58bdzl!19sChIJ4R9qC0Ko5zsRfAGX1KIB_W4?authuser=0&hl=en&rclk=1,"19.468806999999998,72.8748762"
Dawoodi Bohra Hall,Mosque,"FR56+PRC Dawoodi Bohra Hall, Siraj Wadi, Virar East, Virar, Maharashtra 401305","Siraj Wadi, Virar East",FR56+PRC,Virar,401305,Maharashtra,IN,https://www.google.com/maps/place/Dawoodi+Bohra+Hall/data=!4m7!3m6!1s0x3be7a98f14952fc1:0x4140730a60bfc473!8m2!3d19.4593249!4d72.8120097!16s%2Fg%2F11g8yg6rrb!19sChIJwS-VFI-p5zsRc8S_YApzQEE?authuser=0&hl=en&rclk=1,"19.4593249,72.81200969999999"
Masjid Quraish,Mosque,"FRCJ+QRC Masjid Quraish, Katkari Pada, Chandansar, Virar, Maharashtra 401303","Katkari Pada, Chandansar",FRCJ+QRC,Virar,401303,Maharashtra,IN,https://www.google.com/maps/place/Masjid+Quraish/data=!4m7!3m6!1s0x3be7a9c09e863fcf:0x3d864d0da87fa1fb!8m2!3d19.4719294!4d72.832026!16s%2Fg%2F11b88vt35x!19sChIJzz-GnsCp5zsR-6F_qA1Nhj0?authuser=0&hl=en&rclk=1,"19.4719294,72.832026"
Masjid e Tauheed,Mosque,"Masjid e Tauheed, Shaikh Master Chawl, Phoolpada Rd, near B.K. Vartak Chowck, Virar, Maharashtra 401305",Virar East,"Shaikh Master Chawl, Phoolpada Rd, near B.K. Vartak Chowck",Virar,401305,Maharashtra,IN,https://www.google.com/maps/place/Masjid+e+Tauheed/data=!4m7!3m6!1s0x3be7a985758acbfb:0xfeaeca41032bcb6!8m2!3d19.4572241!4d72.8130354!16s%2Fg%2F11cmrwqnwk!19sChIJ-8uKdYWp5zsRtrwyEKTs6g8?authuser=0&hl=en&rclk=1,"19.457224099999998,72.81303539999999"
Gausiya masjid west,Mosque,"FR65+MG6 Gausiya masjid west, Teli Ali, Vartak Ward, Virar West, Virar, Maharashtra 401303","Teli Ali, Vartak Ward, Virar West",FR65+MG6,Virar,401303,Maharashtra,IN,https://www.google.com/maps/place/Gausiya+masjid+west/data=!4m7!3m6!1s0x3be7a9078985dda5:0xb8cbc0a3c82999b3!8m2!3d19.4616625!4d72.8087656!16s%2Fg%2F11rfbj7drb!19sChIJpd2FiQep5zsRs5kpyKPAy7g?authuser=0&hl=en&rclk=1,"19.4616625,72.8087656"
Madina Masjid,Mosque,"CQMF+5HV Madina Masjid, Satpala - Wagholi Rd, Pipri Dontalav, Nalasopara West, Nala Sopara, Virar, Maharashtra 401301","Pipri Dontalav, Nalasopara West","CQMF+5HV, Satpala - Wagholi Rd","Nala Sopara, Virar",,Maharashtra,IN,https://www.google.com/maps/place/Madina+Masjid/data=!4m7!3m6!1s0x3be7abb0c7f66959:0x6fe46e938a1b6ced!8m2!3d19.432998!4d72.773929!16s%2Fg%2F1pyqprf7v!19sChIJWWn2x7Cr5zsR7WwbipNu5G8?authuser=0&hl=en&rclk=1,"19.432997999999998,72.773929"
Madina Masjid,Mosque,"FRC9+MMQ Madina Masjid, Veer Savarkar Marg, Sai Nath Nagar, Virar East, Virar, Maharashtra 401305","Sai Nath Nagar, Virar East","FRC9+MMQ, Veer Savarkar Marg",Virar,401305,Maharashtra,IN,https://www.google.com/maps/place/Madina+Masjid/data=!4m7!3m6!1s0x3be7a9ed2d99547d:0xd8013933e3414b73!8m2!3d19.4717063!4d72.8192194!16s%2Fg%2F1pyqswn2f!19sChIJfVSZLe2p5zsRc0tB4zM5Adg?authuser=0&hl=en&rclk=1,"19.471706299999997,72.8192194"
Arnala Jama Masjid,Mosque,"FP6X+83G Arnala Jama Masjid, Arnala, Virar West, Virar, Maharashtra 401302","Arnala, Virar West",FP6X+83G,Virar,401302,Maharashtra,IN,https://www.google.com/maps/place/Arnala+Jama+Masjid/data=!4m7!3m6!1s0x3be7aaf2f9192be9:0x2cfb49eea6a0ceff!8m2!3d19.4608242!4d72.7476933!16s%2Fg%2F11f3b0tq9v!19sChIJ6SsZ-fKq5zsR_86gpu5J-yw?authuser=0&hl=en&rclk=1,"19.460824199999998,72.7476933"
Madina Masjid,Mosque,"CRP8+V9H Madina Masjid, pargati, Pragati Nagar, Vasant Nagari, Nalasopara East, Vasai-Virar, Maharashtra 401209","Pragati Nagar, Vasant Nagari, Nalasopara East","CRP8+V9H, pargati","Vasai-Virar, Virar",401209,Maharashtra,IN,https://www.google.com/maps/place/Madina+Masjid/data=!4m7!3m6!1s0x3be7a97074edfa97:0xe63864e8b49dfa76!8m2!3d19.4371937!4d72.8159866!16s%2Fg%2F11fxb2zn7k!19sChIJl_rtdHCp5zsRdvqdtOhkOOY?authuser=0&hl=en&rclk=1,"19.437193699999998,72.8159866"
Madina Masjid,Mosque,"FR69+C28 Madina Masjid, Baloch Nagar east, Jivdani Rd, Virar East, Virar, Maharashtra 401305","Baluch Nagar, Virar East","FR69+C28, Baloch Nagar east, Jivdani Rd",Virar,401305,Maharashtra,IN,https://www.google.com/maps/place/Madina+Masjid/data=!4m7!3m6!1s0x3be7a990481eb931:0x892eabc949c0c6f5!8m2!3d19.4610314!4d72.8175937!16s%2Fg%2F11g6q7dhy_!19sChIJMbkeSJCp5zsR9cbAScmrLok?authuser=0&hl=en&rclk=1,"19.4610314,72.8175937"
Masjid,Mosque,"FR6C+VQW Masjid, Jivdani Rd, Virar East, Virar, Maharashtra 401305",Virar East,"FR6C+VQW, Jivdani Rd",Virar,401305,Maharashtra,IN,https://www.google.com/maps/place/Masjid/data=!4m7!3m6!1s0x3be7a94607ae7cf7:0x530e14f038ff11bc!8m2!3d19.462236!4d72.8219596!16s%2Fg%2F11fcvbhqqr!19sChIJ93yuB0ap5zsRvBH_OPAUDlM?authuser=0&hl=en&rclk=1,"19.462236,72.8219596"
BOLINJ KHARODI MASJID,Mosque,"CQVW+JC5 BOLINJ KHARODI MASJID, Vartak Road, Bolinj, Virar East, Virar, Maharashtra 401303","Bolinj, Virar East","CQVW+JC5, Vartak Road",Virar,401303,Maharashtra,IN,https://www.google.com/maps/place/BOLINJ+KHARODI+MASJID/data=!4m7!3m6!1s0x3be7abd3233f8397:0xf9e2f5b2a8ba8ad3!8m2!3d19.444!4d72.7961!16s%2Fg%2F11h0rjz2g!19sChIJl4M_I9Or5zsR04q6qLL14vk?authuser=0&hl=en&rclk=1,"19.444,72.7961"
Assirat Guidance Centre & masjid-e-AhleHadees,Mosque,"FR67+XPM Assirat Guidance Centre & masjid-e-AhleHadees, Veer Savarkar Marg, near ASHA INDUSTRIAL ESTATE, Chaudhari Wadi, Virar East, Virar, Maharashtra 401305","Chaudhari Wadi, Virar East","FR67+XPM, Veer Savarkar Marg, near ASHA INDUSTRIAL ESTATE",Virar,401305,Maharashtra,IN,https://www.google.com/maps/place/Assirat+Guidance+Centre+%26+masjid-e-AhleHadees/data=!4m7!3m6!1s0x3be7a9f6c9405fe1:0xa020c9558f43419c!8m2!3d19.4624736!4d72.8142973!16s%2Fg%2F11vbm372hq!19sChIJ4V9Ayfap5zsRnEFDj1XJIKA?authuser=0&hl=en&rclk=1,"19.4624736,72.81429729999999"
Makkah masjid,Mosque,"CRQF+2H2 Makkah masjid, Ekvira Darshan, Virar East, Virar, Maharashtra 401209","Ekvira Darshan, Virar East",CRQF+2H2,Virar,401209,Maharashtra,IN,https://www.google.com/maps/place/Makkah+masjid/data=!4m7!3m6!1s0x3be7a9b85e6dea61:0x1732a872676faee4!8m2!3d19.437518!4d72.823765!16s%2Fg%2F11kj798nfb!19sChIJYeptXrip5zsR5K5vZ3KoMhc?authuser=0&hl=en&rclk=1,"19.437518,72.823765"
Mohammadiya madarsa and Masjid,Mosque,"CRM8+FJC Mohammadiya madarsa and Masjid, Gala Nagar, Ambawadi, Nalasopara East, Nala Sopara, Virar, Maharashtra 401209","Gala Nagar, Ambawadi, Nalasopara East",CRM8+FJC,"Nala Sopara, Virar",401209,Maharashtra,IN,https://www.google.com/maps/place/Mohammadiya+madarsa+and+Masjid/data=!4m7!3m6!1s0x3be7a9d5a3838b9d:0xf7cc0aa604a06219!8m2!3d19.4336761!4d72.8165269!16s%2Fg%2F11fq88lqx7!19sChIJnYuDo9Wp5zsRGWKgBKYKzPc?authuser=0&hl=en&rclk=1,"19.4336761,72.8165269"
Umar Masjid,Mosque,"FV9P+P8J Umar Masjid, behind baba auto garaj, opp. mrf tyre, virar phata, Virar, Kaner, Maharashtra 401303",virar phata,"FV9P+P8J, behind baba auto garaj, opp. mrf tyre","Virar, Kaner",,Maharashtra,IN,https://www.google.com/maps/place/Umar+Masjid/data=!4m7!3m6!1s0x3be7a90cd9c5db7d:0xe094f9c86cb3b4a6!8m2!3d19.4693378!4d72.885763!16s%2Fg%2F11rl9kqbx0!19sChIJfdvF2Qyp5zsRprSzbMj5lOA?authuser=0&hl=en&rclk=1,"19.469337799999998,72.885763"
Noor Masjid,Mosque,"FRFG+GHC Noor Masjid, Chandansar Rd, Virar East, Virar, Maharashtra 401303",Virar East,"FRFG+GHC, Chandansar Rd",Virar,401303,Maharashtra,IN,https://www.google.com/maps/place/Noor+Masjid/data=!4m7!3m6!1s0x3be7a9811adee52d:0x17410650f2606ba!8m2!3d19.4738138!4d72.8263761!16s%2Fg%2F11fkvnvrv4!19sChIJLeXeGoGp5zsRugYmD2UQdAE?authuser=0&hl=en&rclk=1,"19.4738138,72.82637609999999"
Raza masjid & Darul uloom garib nawaz,Mosque,"FR87+C7V Raza masjid & Darul uloom garib nawaz, Virar East, Virar, Maharashtra 401305",Virar East,FR87+C7V,Virar,401305,Maharashtra,IN,https://www.google.com/maps/place/Raza+masjid+%26+Darul+uloom+garib+nawaz/data=!4m7!3m6!1s0x3be7a9000442c0cd:0x7f2018b9064fc497!8m2!3d19.4660337!4d72.8132324!16s%2Fg%2F11stgqhv26!19sChIJzcBCBACp5zsRl8RPBrkYIH8?authuser=0&hl=en&rclk=1,"19.4660337,72.81323239999999"
Banglewali masjid,Mosque,"Banglewali masjid, Virar East, Virar, Maharashtra 401305",Virar East,,Virar,401305,Maharashtra,IN,https://www.google.com/maps/place/Banglewali+masjid/data=!4m7!3m6!1s0x3be7a92598f6b65f:0x83604c93f06e6865!8m2!3d19.4657093!4d72.8122987!16s%2Fg%2F11pxnkw8k9!19sChIJX7b2mCWp5zsRZWhu8JNMYIM?authuser=0&hl=en&rclk=1,"19.4657093,72.8122987"
Masjid e Yusuf,Mosque,"FRJR+CV7 Masjid e Yusuf, Chandansar, Shirgaon, Virar, Maharashtra 401303",Chandansar,FRJR+CV7,"Shirgaon, Virar",401303,Maharashtra,IN,https://www.google.com/maps/place/Masjid+e+Yusuf/data=!4m7!3m6!1s0x3be7a9dc0c50cc95:0x10f60cee0e4bac29!8m2!3d19.4806955!4d72.8427055!16s%2Fg%2F11k5874hl3!19sChIJlcxQDNyp5zsRKaxLDu4M9hA?authuser=0&hl=en&rclk=1,"19.4806955,72.8427055"
New Gausiya Masjid,Mosque,"Shop No, New Gausiya Masjid, Rida Mandir, Veer Savarkar Marg, opp. Dargah, Gopcharpada, Virar East, Vasai-Virar, Virar, Maharashtra 401305","Gopcharpada, Virar East","Shop No, Rida Mandir, Veer Savarkar Marg, opp. Dargah","Vasai-Virar, Virar",401305,Maharashtra,IN,https://www.google.com/maps/place/New+Gausiya+Masjid/data=!4m7!3m6!1s0x3be7a9d67ed96a6f:0x5f406dc12d9fe52a!8m2!3d19.4662868!4d72.8122134!16s%2Fg%2F11q4mb23m0!19sChIJb2rZftap5zsRKuWfLcFtQF8?authuser=0&hl=en&rclk=1,"19.4662868,72.81221339999999"
Deeniyat (Masjid/Mosque),Mosque,"Deeniyat (Masjid/Mosque), 53, Nalasopara West, Vasai-Virar, Nala Sopara, Maharashtra 401209",Nalasopara West,53,"Vasai-Virar, Nala Sopara",401209,Maharashtra,IN,https://www.google.com/maps/place/Deeniyat+%28Masjid%2FMosque%29/data=!4m7!3m6!1s0x3be7a98e806f3cd5:0xb4c3c644707bc114!8m2!3d19.4329906!4d72.8119316!16s%2Fg%2F11st3h49f6!19sChIJ1TxvgI6p5zsRFMF7cETGw7Q?authuser=0&hl=en&rclk=1,"19.4329906,72.8119316"
garib nawaz masjid,Mosque,"FVCP+FFQ garib nawaz masjid, Virar East, Virar, Kaner, Maharashtra 401303",Virar East,FVCP+FFQ,"Virar, Kaner",401303,Maharashtra,IN,https://www.google.com/maps/place/garib+nawaz+masjid/data=!4m7!3m6!1s0x3be7a91088e7ebff:0x4519a6f906f76368!8m2!3d19.4712132!4d72.8862324!16s%2Fg%2F11t4g_g8hq!19sChIJ_-vniBCp5zsRaGP3BvmmGUU?authuser=0&hl=en&rclk=1,"19.471213199999998,72.8862324"
Madrasa E Faizululm Charitable Trust,Mosque,"FR66+2MJ Madrasa E Faizululm Charitable Trust, Siraj Wadi, Virar East, Virar, Maharashtra 401305","Siraj Wadi, Virar East",FR66+2MJ,Virar,401305,Maharashtra,IN,https://www.google.com/maps/place/Madrasa+E+Faizululm+Charitable+Trust/data=!4m7!3m6!1s0x3be7a9d600ca7bf7:0xd2386e2dfe6f36d1!8m2!3d19.4600983!4d72.8116408!16s%2Fg%2F11g1mbz45q!19sChIJ93vKANap5zsR0TZv_i1uONI?authuser=0&hl=en&rclk=1,"19.4600983,72.81164079999999"
Peer sunni masjid,Mosque,"Peer sunni masjid, SAI ANANTH, AI DARSHAN CO-OPERATIVE HOUSING SOCIETY, A, Bolinj, Virar East, Virar, Maharashtra 401303","Bolinj, Virar East","SAI ANANTH, AI DARSHAN CO-OPERATIVE HOUSING SOCIETY, A",Virar,401303,Maharashtra,IN,https://www.google.com/maps/place/Peer+sunni+masjid/data=!4m7!3m6!1s0x3be7abde18958da1:0x76c92a903d162a9e!8m2!3d19.4440545!4d72.7962248!16s%2Fg%2F11rv0fw93w!19sChIJoY2VGN6r5zsRnioWPZAqyXY?authuser=0&hl=en&rclk=1,"19.4440545,72.79622479999999"
Masjid-e-Tayef,Mosque,"FR68+4WC Masjid-e-Tayef, Jivdani Rd, Baluch Nagar, Virar East, Virar, Maharashtra 401305","Baluch Nagar, Virar East","FR68+4WC, Jivdani Rd",Virar,401305,Maharashtra,IN,https://www.google.com/maps/place/Masjid-e-Tayef/data=!4m7!3m6!1s0x3be7a9de49c3703d:0x414738a7780f4ce0!8m2!3d19.46022!4d72.817253!16s%2Fg%2F11svr0c_1f!19sChIJPXDDSd6p5zsR4EwPeKc4R0E?authuser=0&hl=en&rclk=1,"19.46022,72.817253"
Masjid a noor,Mosque,"FV95+5XH Masjid a noor, Virar, Maharashtra 401303",,FV95+5XH,Virar,401303,Maharashtra,IN,https://www.google.com/maps/place/Masjid+a+noor/data=!4m7!3m6!1s0x3be7a955dd332275:0xc9c319bc0df95b1a!8m2!3d19.4674916!4d72.8604444!16s%2Fg%2F11sw159kcf!19sChIJdSIz3VWp5zsRGlv5DbwZw8k?authuser=0&hl=en&rclk=1,"19.4674916,72.86044439999999"
Masjid E Islaah,Mosque,"CRGG+FX8 Masjid E Islaah, Vijay Nagar, Damodar Nagar, Nalasopara East, Nala Sopara, Maharashtra 401209","Vijay Nagar, Damodar Nagar, Nalasopara East",CRGG+FX8,Nala Sopara,401209,Maharashtra,IN,https://www.google.com/maps/place/Masjid+E+Islaah/data=!4m7!3m6!1s0x3be7a98b6f800145:0xaf17d88387b5d42d!8m2!3d19.4261745!4d72.8274614!16s%2Fg%2F11k7wdn9q1!19sChIJRQGAb4up5zsRLdS1h4PYF68?authuser=0&hl=en&rclk=1,"19.4261745,72.82746139999999"
