name,main_category,address,address_ward,address_street,address_city,address_postal_code,address_state,address_country_code,link,coordinates
Jamiya Masjid Islampeta,Mosque,"J552+4M9 Jamiya Masjid Islampeta, Siddeswaram, Islampet, Visakhapatnam, Andhra Pradesh 530031","Siddeswaram, Islampet",J552+4M9,Visakhapatnam,530031,Andhra Pradesh,IN,https://www.google.com/maps/place/Jamiya+Masjid+Islampeta/data=!4m7!3m6!1s0x3a396c650ba1b1e5:0xb12df086916c513d!8m2!3d17.6077821!4d83.1517427!16s%2Fg%2F11dymwh2f0!19sChIJ5bGhC2VsOToRPVFskYbwLbE?authuser=0&hl=en&rclk=1,"17.607782099999998,83.1517427"
Anjumane Hussainy Mosque (Hussainy Aashoorkhaana),Mosque,"Anjumane Hussainy Mosque (Hussainy Aashoorkhaana), Jagadamba Junction, Visakhapatnam, Andhra Pradesh 530001",Jagadamba Junction,,Visakhapatnam,530001,Andhra Pradesh,IN,https://www.google.com/maps/place/Anjumane+Hussainy+Mosque+%28Hussainy+Aashoorkhaana%29/data=!4m7!3m6!1s0x3a394306aa0a2cf5:0x562f0d9f4dda0408!8m2!3d17.7028508!4d83.2991564!16s%2Fg%2F11g9py4bnf!19sChIJ9SwKqgZDOToRCATaTZ8NL1Y?authuser=0&hl=en&rclk=1,"17.7028508,83.2991564"
Macca Masjid,Mosque,"P863+G86 Macca Masjid, KGH Up Rd, Opposite Macca Masjid, Jagadamba Junction, Visakhapatnam, Andhra Pradesh 530002","Opposite Macca Masjid, Jagadamba Junction","P863+G86, KGH Up Rd",Visakhapatnam,530002,Andhra Pradesh,IN,https://www.google.com/maps/place/Macca+Masjid/data=!4m7!3m6!1s0x3a39431a8e74f851:0x89791f6574fa73e1!8m2!3d17.7112986!4d83.3032675!16s%2Fg%2F1v7pwx9j!19sChIJUfh0jhpDOToR4XP6dGUfeYk?authuser=0&hl=en&rclk=1,"17.7112986,83.30326749999999"
Yasin Masjid,Mosque,"P8H7+VHR Yasin Masjid, Dwaraka Nagar, Visakhapatnam, Andhra Pradesh 530016",Dwaraka Nagar,P8H7+VHR,Visakhapatnam,530016,Andhra Pradesh,IN,https://www.google.com/maps/place/Yasin+Masjid/data=!4m7!3m6!1s0x3a39433889a1e239:0x1e5a1fb89616366e!8m2!3d17.7297252!4d83.3139057!16s%2Fg%2F12622rcs6!19sChIJOeKhiThDOToRbjYWlrgfWh4?authuser=0&hl=en&rclk=1,"17.7297252,83.31390569999999"
Mohammadia Masjid msjd,Mosque,"P8FJ+CXG Mohammadia Masjid msjd, Chinna Waltair Main Rd, Chinna Waltair, Andhra University, Visakhapatnam, Andhra Pradesh 530017","Chinna Waltair, Andhra University","P8FJ+CXG, Chinna Waltair Main Rd",Visakhapatnam,530017,Andhra Pradesh,IN,https://www.google.com/maps/place/Mohammadia+Masjid+%D9%85%D8%B3%D8%AC%D8%AF%E2%80%AD/data=!4m7!3m6!1s0x3a39435e41034279:0xccd93a689601cd2f!8m2!3d17.7235523!4d83.3324378!16s%2Fg%2F1tjrnd7z!19sChIJeUIDQV5DOToRL80Blmg62cw?authuser=0&hl=en&rclk=1,"17.723552299999998,83.3324378"
Aircartindiaelectronics,Mosque,"Aircartindiaelectronics, Masjid e aqsa, Railway New Colony, Visakhapatnam, Andhra Pradesh 530016",Railway New Colony,Masjid e aqsa,Visakhapatnam,530016,Andhra Pradesh,IN,https://www.google.com/maps/place/Aircartindiaelectronics/data=!4m7!3m6!1s0x3a3942d84727bb9f:0xddb94adcbec199ea!8m2!3d17.7303826!4d83.2919091!16s%2Fg%2F124yhy2b2!19sChIJn7snR9hCOToR6pnBvtxKud0?authuser=0&hl=en&rclk=1,"17.7303826,83.2919091"
Masjid Al-Fatah,Mosque,"P7R3+C88 Masjid Al-Fatah, Sai Nagar St, Sai Nagar, Marripalem, Visakhapatnam, Andhra Pradesh 530018","Sai Nagar, Marripalem","P7R3+C88, Sai Nagar St",Visakhapatnam,530018,Andhra Pradesh,IN,https://www.google.com/maps/place/Masjid+Al-Fatah/data=!4m7!3m6!1s0x3a3942ab2010281b:0xe1411cd027d0f20!8m2!3d17.7410497!4d83.2533203!16s%2Fg%2F1thtbk91!19sChIJGygQIKtCOToRIA99As0RFA4?authuser=0&hl=en&rclk=1,"17.741049699999998,83.2533203"
Masjid E Furqan Ahle Hadees,Mosque,"P75W+V6F Masjid E Furqan Ahle Hadees, Purna Market, Jagadamba Junction, Visakhapatnam, Andhra Pradesh 530001","Purna Market, Jagadamba Junction",P75W+V6F,Visakhapatnam,530001,Andhra Pradesh,IN,https://www.google.com/maps/place/Masjid+E+Furqan+Ahle+Hadees/data=!4m7!3m6!1s0x3a39431d249cdecd:0x30c136a88bfaf487!8m2!3d17.7096959!4d83.2955359!16s%2Fg%2F11b8_8vzb1!19sChIJzd6cJB1DOToRh_T6i6g2wTA?authuser=0&hl=en&rclk=1,"17.7096959,83.29553589999999"
Masjid-E-Noor Akkayyapalem,Mosque,"P8P2+6R2 Masjid-E-Noor Akkayyapalem, Lalitha Nagar, Akkayyapalem, Visakhapatnam, Andhra Pradesh 530016","Lalitha Nagar, Akkayyapalem",P8P2+6R2,Visakhapatnam,530016,Andhra Pradesh,IN,https://www.google.com/maps/place/Masjid-E-Noor+Akkayyapalem/data=!4m7!3m6!1s0x3a39432e52bb217d:0x67995705abddbcd7!8m2!3d17.7355239!4d83.3020158!16s%2Fg%2F1tjf8pj1!19sChIJfSG7Ui5DOToR17zdqwVXmWc?authuser=0&hl=en&rclk=1,"17.7355239,83.30201579999999"
Masjid-E-QUBA(Thatichetlapalem ),Mosque,"P7QW+2PJ Masjid-E-QUBA(Thatichetlapalem ), M.T.C PALEM, Abid Nagar Rd, Narasimha Nagar, Akkayyapalem, Visakhapatnam, Andhra Pradesh 530016","Narasimha Nagar, Akkayyapalem","P7QW+2PJ, M.T.C PALEM, Abid Nagar Rd",Visakhapatnam,530016,Andhra Pradesh,IN,https://www.google.com/maps/place/Masjid-E-QUBA%28Thatichetlapalem+%29/data=!4m7!3m6!1s0x3a3943297bdeba0f:0x34e8cd3faf9a351!8m2!3d17.7377752!4d83.2964256!16s%2Fg%2F1tcy2qh_!19sChIJD7reeylDOToRUaP5-tOMTgM?authuser=0&hl=en&rclk=1,"17.737775199999998,83.29642559999999"
Tara Mosque,Mosque,"P8MF+6W5 Tara Mosque, AU North Campus, Mangapuram Colony, Pithapuram Colony, Pedda Waltair, Visakhapatnam, Andhra Pradesh 530003","AU North Campus, Mangapuram Colony, Pithapuram Colony, Pedda Waltair",P8MF+6W5,Visakhapatnam,530003,Andhra Pradesh,IN,https://www.google.com/maps/place/Tara+Mosque/data=!4m7!3m6!1s0x3a394345598ad361:0x27fa0fa1f8665368!8m2!3d17.7330149!4d83.3248553!16s%2Fg%2F1tczc9qy!19sChIJYdOKWUVDOToRaFNm-KEP-ic?authuser=0&hl=en&rclk=1,"17.7330149,83.3248553"
Masjid-E-Huda,Mosque,"P7HR+5GM Masjid-E-Huda, Masjid Circle, Railway New Colony, Railway New Colony Rd, Sri Siddi Enclave, Railway New Colony, Visakhapatnam, Andhra Pradesh 530016","Sri Siddi Enclave, Railway New Colony","P7HR+5GM, Masjid Circle, Railway New Colony, Railway New Colony Rd, Sri Siddi Enclave, Railway New Colony",Visakhapatnam,530016,Andhra Pradesh,IN,https://www.google.com/maps/place/Masjid-E-Huda/data=!4m7!3m6!1s0x3a3942d8e8dd49d9:0x5ffb5a984042ce30!8m2!3d17.7279515!4d83.2913084!16s%2Fg%2F11b7lf3gqq!19sChIJ2Und6NhCOToRMM5CQJha-18?authuser=0&hl=en&rclk=1,"17.7279515,83.29130839999999"
Masjid-E-Mohammadia (Jamiate-Ahlehadees),Mosque,"P7HR+W92 Masjid-E-Mohammadia (Jamiate-Ahlehadees), Railway New Colony, Visakhapatnam, Andhra Pradesh 530016",Railway New Colony,P7HR+W92,Visakhapatnam,530016,Andhra Pradesh,IN,https://www.google.com/maps/place/Masjid-E-Mohammadia+%28Jamiate-Ahlehadees%29/data=!4m7!3m6!1s0x3a3942d8524418ad:0x3bcd19169bdfeb6b!8m2!3d17.7297692!4d83.2908866!16s%2Fg%2F12llwgl_c!19sChIJrRhEUthCOToRa-vfmxYZzTs?authuser=0&hl=en&rclk=1,"17.7297692,83.2908866"
M.V.P Colony Masjid,Mosque,"M.V.P Colony Masjid, MVP Double Rd, Near A.V.J College, MVP Sector 7, Sector 5, MVP Colony, Visakhapatnam, Andhra Pradesh 530017","MVP Sector 7, Sector 5, MVP Colony","MVP Double Rd, Near A.V.J College",Visakhapatnam,530017,Andhra Pradesh,IN,https://www.google.com/maps/place/M.V.P+Colony+Masjid/data=!4m7!3m6!1s0x3a394355c959218b:0x227a247c00ab8f4d!8m2!3d17.740525!4d83.3338291!16s%2Fg%2F1tv22l06!19sChIJiyFZyVVDOToRTY-rAHwkeiI?authuser=0&hl=en&rclk=1,"17.740524999999998,83.3338291"
Hazrat Baba Sayed Madeenasha Aulia,Mosque,"M6P8+4CG Hazrat Baba Sayed Madeenasha Aulia, B C Road, Dargah Centre, New Gajuwaka, Visakhapatnam, Andhra Pradesh 530026","Dargah Centre, New Gajuwaka","M6P8+4CG, B C Road",Visakhapatnam,530026,Andhra Pradesh,IN,https://www.google.com/maps/place/Hazrat+Baba+Sayed+Madeenasha+Aulia/data=!4m7!3m6!1s0x3a3969ae54b752cb:0x8e788bef00c7c99d!8m2!3d17.6853128!4d83.2160704!16s%2Fg%2F11bbrj6bqr!19sChIJy1K3VK5pOToRncnHAO-LeI4?authuser=0&hl=en&rclk=1,"17.6853128,83.21607039999999"
"Haji Abusarang Masjid, Khilla",Mosque,"M7RR+QF5 Haji Abusarang Masjid, Khilla, Head Post office,, Port Area, Visakhapatnam, Andhra Pradesh 530001",Port Area,"M7RR+QF5, Head Post office,",Visakhapatnam,530001,Andhra Pradesh,IN,"https://www.google.com/maps/place/Haji+Abusarang+Masjid,+Khilla/data=!4m7!3m6!1s0x3a3942548dd59017:0x237a74094e40d209!8m2!3d17.6918998!4d83.2912234!16s%2Fg%2F11b8zq2x2q!19sChIJF5DVjVRCOToRCdJATgl0eiM?authuser=0&hl=en&rclk=1","17.691899799999998,83.29122339999999"
Masjid - E- HAZARAT UMAR FAROOQ ( RA),Mosque,"Masjid - E- HAZARAT UMAR FAROOQ ( RA), 28-16-23, off Town Kotha Road, Suryabagh, Jagadamba Junction, Visakhapatnam, Andhra Pradesh 530020","Suryabagh, Jagadamba Junction","28-16-23, off Town Kotha Road",Visakhapatnam,530020,Andhra Pradesh,IN,https://www.google.com/maps/place/Masjid+-+E-+HAZARAT+UMAR+FAROOQ+%28+RA%29/data=!4m7!3m6!1s0x3a39431b3f78a593:0x11c66900236fa637!8m2!3d17.7100466!4d83.3001184!16s%2Fg%2F11dfr41mbd!19sChIJk6V4PxtDOToRN6ZvIwBpxhE?authuser=0&hl=en&rclk=1,"17.7100466,83.3001184"
MADEENA MASJID msjd,Mosque,"530026, MADEENA MASJID msjd, 11-5-6, Kanithi Rd, Kailash Nagar, Gajuwaka, Visakhapatnam, Andhra Pradesh 530026","Kailash Nagar, Gajuwaka","530026, 11-5-6, Kanithi Rd",Visakhapatnam,530026,Andhra Pradesh,IN,https://www.google.com/maps/place/MADEENA+MASJID+%D9%85%D8%B3%D8%AC%D8%AF%E2%80%AD/data=!4m7!3m6!1s0x3a3969a808970e81:0xd81045529a96e6fd!8m2!3d17.6823259!4d83.2084825!16s%2Fg%2F11c5sdf5x2!19sChIJgQ6XCKhpOToR_eaWmlJFENg?authuser=0&hl=en&rclk=1,"17.6823259,83.2084825"
Sunni Jama Masjid,Mosque,"Sunni Jama Masjid, Gajuwaka, Visakhapatnam, Andhra Pradesh 530026",Gajuwaka,,Visakhapatnam,530026,Andhra Pradesh,IN,https://www.google.com/maps/place/Sunni+Jama+Masjid/data=!4m7!3m6!1s0x3a3969a8c09f8181:0x1ebd853bc14cb397!8m2!3d17.6836067!4d83.2121119!16s%2Fg%2F11d_7_yn79!19sChIJgYGfwKhpOToRl7NMwTuFvR4?authuser=0&hl=en&rclk=1,"17.6836067,83.2121119"
Masjid -e- Rahman Ahle hadees,Mosque,"Masjid -e- Rahman Ahle hadees, 11-24-18, Kanithi Rd, Gajuwaka, Visakhapatnam, Andhra Pradesh 530026",Gajuwaka,"11-24-18, Kanithi Rd",Visakhapatnam,530026,Andhra Pradesh,IN,https://www.google.com/maps/place/Masjid+-e-+Rahman+Ahle+hadees/data=!4m7!3m6!1s0x3a3969a87b29c469:0x599944589b01d355!8m2!3d17.6810109!4d83.2116193!16s%2Fg%2F11dfr1plkt!19sChIJacQpe6hpOToRVdMBm1hEmVk?authuser=0&hl=en&rclk=1,"17.6810109,83.2116193"
Masjid-E-Bani-Hashim,Mosque,"Masjid-E-Bani-Hashim, 530017, Lawsons Bay Colony, Pedda Waltair, Visakhapatnam, Andhra Pradesh 530017","Lawsons Bay Colony, Pedda Waltair",530017,Visakhapatnam,530017,Andhra Pradesh,IN,https://www.google.com/maps/place/Masjid-E-Bani-Hashim/data=!4m7!3m6!1s0x3a3944a7974fb3f7:0x16ee0fc425bd7e60!8m2!3d17.7314099!4d83.3371597!16s%2Fg%2F11cs1w2zb0!19sChIJ97NPl6dEOToRYH69JcQP7hY?authuser=0&hl=en&rclk=1,"17.7314099,83.3371597"
Taj Masjid msjd,Mosque,"Taj Masjid msjd, taj masjid, Ex-Servicemen Colony, Ex-Service Men Colony, Gajuwaka, Visakhapatnam, Andhra Pradesh 530011","Ex-Servicemen Colony, Ex-Service Men Colony, Gajuwaka",taj masjid,Visakhapatnam,,Andhra Pradesh,IN,https://www.google.com/maps/place/Taj+Masjid+%D9%85%D8%B3%D8%AC%D8%AF%E2%80%AD/data=!4m7!3m6!1s0x3a3969b62a0f3d73:0x79d88b80f8b021a6!8m2!3d17.686007!4d83.2293108!16s%2Fg%2F11cn8ygsm2!19sChIJcz0PKrZpOToRpiGw-ICL2Hk?authuser=0&hl=en&rclk=1,"17.686007,83.2293108"
Allipuram Masjid,Mosque,"P78V+4MP Allipuram Masjid, Daba Gardens, 104 Area, Visakhapatnam, Andhra Pradesh 530020","Daba Gardens, 104 Area",P78V+4MP,Visakhapatnam,530020,Andhra Pradesh,IN,https://www.google.com/maps/place/Allipuram+Masjid/data=!4m7!3m6!1s0x3a39431e10601561:0xa654e2feb411b987!8m2!3d17.7153314!4d83.2941957!16s%2Fg%2F1pwfv0n25!19sChIJYRVgEB5DOToRh7kRtP7iVKY?authuser=0&hl=en&rclk=1,"17.7153314,83.2941957"
NOOR-E-ILAHI MASJID FAKEERTAKIYA,Mosque,"NOOR-E-ILAHI MASJID FAKEERTAKIYA, 530046, Vuda Colony, Visakhapatnam, Andhra Pradesh",Vuda Colony,530046,Visakhapatnam,,Andhra Pradesh,IN,https://www.google.com/maps/place/NOOR-E-ILAHI+MASJID+FAKEERTAKIYA/data=!4m7!3m6!1s0x3a3968cd7d7bf869:0xb2bdd77bc4b0fbf8!8m2!3d17.7040305!4d83.1669877!16s%2Fg%2F11c6rx2qwv!19sChIJafh7fc1oOToR-PuwxHvXvbI?authuser=0&hl=en&rclk=1,"17.7040305,83.16698769999999"
AZEEMABAD SUNNI JAMA MASJID,Mosque,"M6M5+4FQ AZEEMABAD SUNNI JAMA MASJID, Azeemabad, Azeemabad, Gajuwaka, Andhra Pradesh 530026","Nawab Nagar, Gajuwaka","M6M5+4FQ, Azeemabad, Azeemabad, Gajuwaka",Visakhapatnam,530026,Andhra Pradesh,IN,https://www.google.com/maps/place/AZEEMABAD+SUNNI+JAMA+MASJID/data=!4m7!3m6!1s0x3a3969a811621ecd:0xbb5cd842f09c16e1!8m2!3d17.6828488!4d83.2087403!16s%2Fg%2F11d_z3y6j6!19sChIJzR5iEahpOToR4Rac8ELYXLs?authuser=0&hl=en&rclk=1,"17.6828488,83.2087403"
Jamia Masjid msjd,Mosque,"P72X+RM9 Jamia Masjid msjd, Town Kotha Rd, Chengal Rao Peta, Port Area, Visakhapatnam, Andhra Pradesh 530001","Chengal Rao Peta, Port Area","P72X+RM9, Town Kotha Rd",Visakhapatnam,530001,Andhra Pradesh,IN,https://www.google.com/maps/place/Jamia+Masjid+%D9%85%D8%B3%D8%AC%D8%AF%E2%80%AD/data=!4m7!3m6!1s0x3a394306a14b6b93:0x906181eb9a380bce!8m2!3d17.7020411!4d83.2992415!16s%2Fg%2F12601wkzr!19sChIJk2tLoQZDOToRzgs4muuBYZA?authuser=0&hl=en&rclk=1,"17.7020411,83.2992415"
TAHA MASJID,Mosque,"TAHA MASJID, 6-74, Gopalapatnam Main Road, Gopalapatnam, Simhachalam, Visakhapatnam, Andhra Pradesh 530027","Gopalapatnam, Simhachalam","6-74, Gopalapatnam Main Road",Visakhapatnam,530027,Andhra Pradesh,IN,https://www.google.com/maps/place/TAHA+MASJID/data=!4m7!3m6!1s0x3a3967da6c881b69:0x2695d2f2786af137!8m2!3d17.7488808!4d83.2194356!16s%2Fg%2F11dztsxrqh!19sChIJaRuIbNpnOToRN_FqePLSlSY?authuser=0&hl=en&rclk=1,"17.7488808,83.2194356"
Masjid-E-Nabwi (Ek Minar Masjid),Mosque,"Masjid-E-Nabwi (Ek Minar Masjid), 37-10-125/3, Ayyappa Nagar, Nehru Nagar, Madhavadhara, Visakhapatnam, Andhra Pradesh 530007","Ayyappa Nagar, Nehru Nagar, Madhavadhara",37-10-125/3,Visakhapatnam,530007,Andhra Pradesh,IN,https://www.google.com/maps/place/Masjid-E-Nabwi+%28Ek+Minar+Masjid%29/data=!4m7!3m6!1s0x3a395d4b9c015e89:0x8ee5256e58948863!8m2!3d17.746285!4d83.267644!16s%2Fg%2F11g8g45_zg!19sChIJiV4BnEtdOToRY4iUWG4l5Y4?authuser=0&hl=en&rclk=1,"17.746285,83.26764399999999"
Madeena Masjid,Mosque,"Madeena Masjid, 57-28-5/7, Bhavani Gardens, Gavara Kanchara Palem, Kancharapalem, Visakhapatnam, Andhra Pradesh 530008","Bhavani Gardens, Gavara Kanchara Palem, Kancharapalem",57-28-5/7,Visakhapatnam,530008,Andhra Pradesh,IN,https://www.google.com/maps/place/Madeena+Masjid/data=!4m7!3m6!1s0x3a3942b6d9e1ae09:0xc5814f0278100894!8m2!3d17.734436!4d83.267334!16s%2Fg%2F11f1vm5cxj!19sChIJCa7h2bZCOToRlAgQeAJPgcU?authuser=0&hl=en&rclk=1,"17.734436,83.26733399999999"
Masjid E Ahle Hadees choti masjid quraishi,Mosque,"Masjid E Ahle Hadees choti masjid quraishi, 21-2-12, Town Kotha Rd, Opposite 33 Godowns, Near CBM School, Jagadamba Junction, Visakhapatnam, Andhra Pradesh 530001","Opposite 33 Godowns, Near CBM School, Jagadamba Junction","21-2-12, Town Kotha Rd",Visakhapatnam,530001,Andhra Pradesh,IN,https://www.google.com/maps/place/Masjid+E+Ahle+Hadees+choti+masjid+quraishi/data=!4m7!3m6!1s0x3a394303e4a0ccbd:0xec019fdef8d29c6d!8m2!3d17.7030608!4d83.2980396!16s%2Fg%2F125_v2k5x!19sChIJvcyg5ANDOToRbZzS-N6fAew?authuser=0&hl=en&rclk=1,"17.7030608,83.2980396"
Idara Imam Reza(a.s.),Mosque,"P7QX+7GR Idara Imam Reza(a.s.), Abid Nagar Rd, Abid Nagar, Akkayyapalem, Visakhapatnam, Andhra Pradesh 530016","Abid Nagar, Akkayyapalem","P7QX+7GR, Abid Nagar Rd",Visakhapatnam,530016,Andhra Pradesh,IN,https://www.google.com/maps/place/Idara+Imam+Reza%28a.s.%29/data=!4m7!3m6!1s0x3a39432c0078de89:0xee37010d2495b20c!8m2!3d17.738237!4d83.298773!16s%2Fg%2F1tgwl322!19sChIJid54ACxDOToRDLKVJA0BN-4?authuser=0&hl=en&rclk=1,"17.738236999999998,83.298773"
Ukkunagaram Masjid msjd,Mosque,"M562+849 Ukkunagaram Masjid msjd, Sector 6, Steel Plant Colony, Visakhapatnam(Vizag), Visakhapatnam, Andhra Pradesh 530032","Sector 6, Steel Plant Colony",M562+849,"Visakhapatnam(Vizag), Visakhapatnam",530032,Andhra Pradesh,IN,https://www.google.com/maps/place/Ukkunagaram+Masjid+%D9%85%D8%B3%D8%AC%D8%AF%E2%80%AD/data=!4m7!3m6!1s0x3a396ebbbf0e412b:0x6534280c3180be62!8m2!3d17.6607939!4d83.1503624!16s%2Fg%2F1td4y8b7!19sChIJK0EOv7tuOToRYr6AMQwoNGU?authuser=0&hl=en&rclk=1,"17.660793899999998,83.15036239999999"
Masjid E Bilal msjd,Mosque,"M6M8+2FH Masjid E Bilal msjd, Steel Plant Rd, BC Road, New Gajuwaka, Gajuwaka, Visakhapatnam, Andhra Pradesh 530026","New Gajuwaka, Gajuwaka","M6M8+2FH, Steel Plant Rd, BC Road",Visakhapatnam,530026,Andhra Pradesh,IN,https://www.google.com/maps/place/Masjid+E+Bilal+%D9%85%D8%B3%D8%AC%D8%AF%E2%80%AD/data=!4m7!3m6!1s0x3a3969af86ce7f51:0x82c973d4d19cebbe!8m2!3d17.6825679!4d83.2162213!16s%2Fg%2F12617lk0l!19sChIJUX_Ohq9pOToRvuuc0dRzyYI?authuser=0&hl=en&rclk=1,"17.6825679,83.2162213"
Masjid E Azam ( Reserve Line Masjid),Mosque,"P76W+4GH Masjid E Azam ( Reserve Line Masjid), Purna Market, Jagadamba Junction, Visakhapatnam, Andhra Pradesh 530001","Purna Market, Jagadamba Junction",P76W+4GH,Visakhapatnam,530001,Andhra Pradesh,IN,https://www.google.com/maps/place/Masjid+E+Azam+%28+Reserve+Line+Masjid%29/data=!4m7!3m6!1s0x3a39431ce6cd3d0d:0xff67955972a57994!8m2!3d17.7103115!4d83.2963547!16s%2Fg%2F1tgh1d9v!19sChIJDT3N5hxDOToRlHmlclmVZ_8?authuser=0&hl=en&rclk=1,"17.7103115,83.2963547"
Ghousia Masjid,Mosque,"M6P9+F2C Ghousia Masjid, Main Road Bus Stop New, Gajuwaka, Visakhapatnam, Andhra Pradesh 530026","New Gajuwaka, Gajuwaka","M6P9+F2C, Main Road Bus Stop New",Visakhapatnam,530026,Andhra Pradesh,IN,https://www.google.com/maps/place/Ghousia+Masjid/data=!4m7!3m6!1s0x3a3969ae3a3a4f31:0x883ab85037e53409!8m2!3d17.6861845!4d83.2175282!16s%2Fg%2F11bbrg2c30!19sChIJMU86Oq5pOToRCTTlN1C4Oog?authuser=0&hl=en&rclk=1,"17.6861845,83.21752819999999"
Mohammadia Masjid,Mosque,"M6MV+X6Q Mohammadia Masjid, Prakash Nagar, Visakhapatnam, Andhra Pradesh 530011",Prakash Nagar,M6MV+X6Q,Visakhapatnam,530011,Andhra Pradesh,IN,https://www.google.com/maps/place/Mohammadia+Masjid/data=!4m7!3m6!1s0x3a3969d0f2596bf3:0xade69e7c414988dd!8m2!3d17.6849667!4d83.2431215!16s%2Fg%2F1tj3jh3x!19sChIJ82tZ8tBpOToR3YhJQXye5q0?authuser=0&hl=en&rclk=1,"17.6849667,83.2431215"
Masjid E Touheed Ahle Hadees,Mosque,"Masjid E Touheed Ahle Hadees, 531173, B Zone, Sujatha Nagar, Pendurthi, Visakhapatnam, Andhra Pradesh 531173","B Zone, Sujatha Nagar, Pendurthi",531173,Visakhapatnam,531173,Andhra Pradesh,IN,https://www.google.com/maps/place/Masjid+E+Touheed+Ahle+Hadees/data=!4m7!3m6!1s0x3a39671db667a253:0xc7446b2f455c1526!8m2!3d17.8043865!4d83.2099906!16s%2Fg%2F11gcqwqqr3!19sChIJU6Jnth1nOToRJhVcRS9rRMc?authuser=0&hl=en&rclk=1,"17.8043865,83.2099906"
Taseen Masjid,Mosque,"P6WP+2QW Taseen Masjid, NAD New Road, NSTL Gate, Sanjeeviah Nagar, NSTL, Visakhapatnam, Andhra Pradesh 530009","NSTL Gate, Sanjeeviah Nagar, NSTL","P6WP+2QW, NAD New Road",Visakhapatnam,530009,Andhra Pradesh,IN,https://www.google.com/maps/place/Taseen+Masjid/data=!4m7!3m6!1s0x3a3967e3ab0bc785:0x8f3f3abca1d414cf!8m2!3d17.7451089!4d83.2369527!16s%2Fg%2F1q62f5ys4!19sChIJhccLq-NnOToRzxTUobw6P48?authuser=0&hl=en&rclk=1,"17.745108899999998,83.23695269999999"
Nishani E Hazrath khadar vali,Mosque,"P7R3+G4P Nishani E Hazrath khadar vali, Sai Nagar St, Sai Nagar, Marripalem, Visakhapatnam, Andhra Pradesh 530018","Sai Nagar, Marripalem","P7R3+G4P, Sai Nagar St",Visakhapatnam,530018,Andhra Pradesh,IN,https://www.google.com/maps/place/Nishani+E+Hazrath+khadar+vali/data=!4m7!3m6!1s0x3a3942aadc7aa81f:0x17952370791c3eb8!8m2!3d17.7413368!4d83.2528171!16s%2Fg%2F11cm15_1zz!19sChIJH6h63KpCOToRuD4ceXAjlRc?authuser=0&hl=en&rclk=1,"17.7413368,83.2528171"
Minara Masjid,Mosque,"M7QC+C93 Minara Masjid, approach road, Naval Park, Hindustan Shipyard, Visakhapatnam, Andhra Pradesh 530005","Naval Park, Hindustan Shipyard","M7QC+C93, approach road",Visakhapatnam,530005,Andhra Pradesh,IN,https://www.google.com/maps/place/Minara+Masjid/data=!4m7!3m6!1s0x3a3942676a408441:0x53747a418ab5001!8m2!3d17.6885171!4d83.2709196!16s%2Fg%2F1pv6z0kly!19sChIJQYRAamdCOToRAVCrGKRHNwU?authuser=0&hl=en&rclk=1,"17.6885171,83.2709196"
Kerala Masjid,Mosque,"Kerala Masjid, 32-1-245, Bowdara Road
Opp. Hotel Ramachander, Bowdara Rd, Opp. Hotel Ramachander, Chavulamadum Area, Nerella Koneru, Allipuram, Visakhapatnam, Andhra Pradesh 530004","Chavulamadum Area, Nerella Koneru, Allipuram","32-1-245, Bowdara Road
Opp. Hotel Ramachander, Bowdara Rd, Opp. Hotel Ramachander",Visakhapatnam,530004,Andhra Pradesh,IN,https://www.google.com/maps/place/Kerala+Masjid/data=!4m7!3m6!1s0x3a3942e0350c5e11:0xcc24eca8f6b438e9!8m2!3d17.7171394!4d83.2923367!16s%2Fg%2F11c5srjj21!19sChIJEV4MNeBCOToR6Ti09qjsJMw?authuser=0&hl=en&rclk=1,"17.7171394,83.29233669999999"
Masjid- E- Bilal,Mosque,"M5W3+4VC Masjid- E- Bilal, Rajeev Nagar, Kurmannapalem, Visakhapatnam, Andhra Pradesh 530046","Rajeev Nagar, Kurmannapalem",M5W3+4VC,Visakhapatnam,530046,Andhra Pradesh,IN,https://www.google.com/maps/place/Masjid-+E-+Bilal/data=!4m7!3m6!1s0x3a396f5ac7646773:0x6870a1a5d1aa88d!8m2!3d17.6953191!4d83.1546455!16s%2Fg%2F11h2qwlw_f!19sChIJc2dkx1pvOToRjagaXRoKhwY?authuser=0&hl=en&rclk=1,"17.6953191,83.1546455"
Masjid Al Qadir,Mosque,"P7W2+4F4 Masjid Al Qadir, Dr. Zakir Hussain Nagar, FCI Nagar, Marripalem, Visakhapatnam, Andhra Pradesh 530018","Dr. Zakir Hussain Nagar, FCI Nagar, Marripalem",P7W2+4F4,Visakhapatnam,530018,Andhra Pradesh,IN,https://www.google.com/maps/place/Masjid+Al+Qadir/data=!4m7!3m6!1s0x3a395d55783bf1e9:0xc8976925fb41c9b0!8m2!3d17.7452571!4d83.2512107!16s%2Fg%2F11c61318n6!19sChIJ6fE7eFVdOToRsMlB-yVpl8g?authuser=0&hl=en&rclk=1,"17.7452571,83.2512107"
Ahmadnagar Masjid,Mosque,"P5JH+6PX Ahmadnagar Masjid, Ahmednagar, Visakhapatnam, Andhra Pradesh 530027",Ahmednagar,P5JH+6PX,Visakhapatnam,530027,Andhra Pradesh,IN,https://www.google.com/maps/place/Ahmadnagar+Masjid/data=!4m7!3m6!1s0x3a3968a4f3b3f86b:0xace7342dad2cf297!8m2!3d17.7306216!4d83.179356!16s%2Fg%2F1pxy1rw3g!19sChIJa_iz86RoOToRl_IsrS0056w?authuser=0&hl=en&rclk=1,"17.7306216,83.179356"
Noor-e- Mustafa Masjid,Mosque,"M59V+69H Noor-e- Mustafa Masjid, Rajulla St, Nadupuru, Pedagantyada, Visakhapatnam, Andhra Pradesh 530044","Nadupuru, Pedagantyada","M59V+69H, Rajulla St",Visakhapatnam,530044,Andhra Pradesh,IN,https://www.google.com/maps/place/Noor-e-+Mustafa+Masjid/data=!4m7!3m6!1s0x3a39696ce5f52421:0xa3124f1439c4be3a!8m2!3d17.6680682!4d83.1934695!16s%2Fg%2F11g8wh42t9!19sChIJIST15WxpOToROr7EORRPEqM?authuser=0&hl=en&rclk=1,"17.6680682,83.19346949999999"
Masjid E Ahle Hadees,Mosque,"Masjid E Ahle Hadees, Unnamed Road, 530046, Kurmannapalem, Visakhapatnam, Andhra Pradesh 530046",Kurmannapalem,"Unnamed Road, 530046",Visakhapatnam,530046,Andhra Pradesh,IN,https://www.google.com/maps/place/Masjid+E+Ahle+Hadees/data=!4m7!3m6!1s0x3a396928eac592bd:0x942a2a8fa0422209!8m2!3d17.6883619!4d83.1742344!16s%2Fg%2F11cs3jhdb6!19sChIJvZLF6ihpOToRCSJCoI8qKpQ?authuser=0&hl=en&rclk=1,"17.6883619,83.1742344"
Masjid-e-Nooraniya,Mosque,"P6W7+WC8 Masjid-e-Nooraniya, Nagendra Colony, Santosh Nagar, Kothapalem, Visakhapatnam, Andhra Pradesh 530027","Nagendra Colony, Santosh Nagar, Kothapalem",P6W7+WC8,Visakhapatnam,530027,Andhra Pradesh,IN,https://www.google.com/maps/place/Masjid-e-Nooraniya/data=!4m7!3m6!1s0x3a3967d153b7acbd:0x5805be406e77ee51!8m2!3d17.7472903!4d83.2135911!16s%2Fg%2F11clyb1hzd!19sChIJvay3U9FnOToRUe53bkC-BVg?authuser=0&hl=en&rclk=1,"17.7472903,83.2135911"
Gouse-E-Azam Nishani,Mosque,"Gouse-E-Azam Nishani, GN Mansion, AH45, Near Ford Showroom, Sai Nagar, Marripalem, Visakhapatnam, Andhra Pradesh 530018","Near Ford Showroom, Sai Nagar, Marripalem","GN Mansion, AH45",Visakhapatnam,530018,Andhra Pradesh,IN,https://www.google.com/maps/place/Gouse-E-Azam+Nishani/data=!4m7!3m6!1s0x3a395dd0e1c8c9b3:0x2f962ee42781a06d!8m2!3d17.7449126!4d83.253563!16s%2Fg%2F11qnbp_yz7!19sChIJs8nI4dBdOToRbaCBJ-Quli8?authuser=0&hl=en&rclk=1,"17.7449126,83.253563"
NOOR-E-ELAHI MASJID FKT,Mosque,"NOOR-E-ELAHI MASJID FKT, fakeertakya Road, 530046,fakeertakya village, Visakhapatnam, Andhra Pradesh 530046",Vuda Colony,"fakeertakya Road, 530046,fakeertakya village",Visakhapatnam,530046,Andhra Pradesh,IN,https://www.google.com/maps/place/NOOR-E-ELAHI+MASJID+FKT/data=!4m7!3m6!1s0x3a3968cd77bfe347:0x3431106066c9a83f!8m2!3d17.7050324!4d83.1674101!16s%2Fg%2F11dx9w_xlc!19sChIJR-O_d81oOToRP6jJZmAQMTQ?authuser=0&hl=en&rclk=1,"17.7050324,83.1674101"
Masjid E Noor Ul Huda,Mosque,"Masjid E Noor Ul Huda, Ashrafnagar, Peddapalem, Visakhapatnam, Andhra Pradesh 530031",Peddapalem,Ashrafnagar,Visakhapatnam,530031,Andhra Pradesh,IN,https://www.google.com/maps/place/Masjid+E+Noor+Ul+Huda/data=!4m7!3m6!1s0x3a396c5e5da39dbf:0xb7fa248a6b0f7391!8m2!3d17.6016227!4d83.1412999!16s%2Fg%2F11c717__jr!19sChIJv52jXV5sOToRkXMPa4ok-rc?authuser=0&hl=en&rclk=1,"17.6016227,83.14129989999999"
Masjid-E-Firdous,Mosque,"P78V+2M4 Masjid-E-Firdous, Daba Gardens, Allipuram, Visakhapatnam, Andhra Pradesh 530020","Daba Gardens, Allipuram",P78V+2M4,Visakhapatnam,530020,Andhra Pradesh,IN,https://www.google.com/maps/place/Masjid-E-Firdous/data=!4m7!3m6!1s0x3a39431e0fa8ad77:0x422569ad6f2a9df6!8m2!3d17.7150233!4d83.294205!16s%2Fg%2F11d__6qc5s!19sChIJd62oDx5DOToR9p0qb61pJUI?authuser=0&hl=en&rclk=1,"17.7150233,83.29420499999999"
Masjid - E - Raza,Mosque,"P7QQ+3CV Masjid - E - Raza, Near Muthoot Finance, Santhi Nagar, Kailasapuram, Visakhapatnam, Andhra Pradesh 530024","Santhi Nagar, Kailasapuram","P7QQ+3CV, Near Muthoot Finance",Visakhapatnam,530024,Andhra Pradesh,IN,https://www.google.com/maps/place/Masjid+-+E+-+Raza/data=!4m7!3m6!1s0x3a3942d6a9cd09cf:0x6f3d91d9fc8ac57a!8m2!3d17.7377284!4d83.2885421!16s%2Fg%2F1q67ksb_5!19sChIJzwnNqdZCOToResWK_NmRPW8?authuser=0&hl=en&rclk=1,"17.737728399999998,83.2885421"
Masjid E Noor msjd,Mosque,"M6QP+R4G Masjid E Noor msjd, Sriharipuram, Visakhapatnam, Andhra Pradesh 530011",Sriharipuram,M6QP+R4G,Visakhapatnam,530011,Andhra Pradesh,IN,https://www.google.com/maps/place/Masjid+E+Noor+%D9%85%D8%B3%D8%AC%D8%AF%E2%80%AD/data=!4m7!3m6!1s0x3a3969cc1a918115:0x8f4f2c8dd434a410!8m2!3d17.6895738!4d83.2353245!16s%2Fg%2F11bt_hh4t1!19sChIJFYGRGsxpOToREKQ01I0sT48?authuser=0&hl=en&rclk=1,"17.689573799999998,83.23532449999999"
Yarada Masjid,Mosque,"M7JR+6VJ Yarada Masjid, Visakhapatnam, Andhra Pradesh 530014",,M7JR+6VJ,Visakhapatnam,530014,Andhra Pradesh,IN,https://www.google.com/maps/place/Yarada+Masjid/data=!4m7!3m6!1s0x3a39424cc014da11:0xe62da680777f1741!8m2!3d17.6805896!4d83.2921321!16s%2Fg%2F11d_z6_yzq!19sChIJEdoUwExCOToRQRd_d4CmLeY?authuser=0&hl=en&rclk=1,"17.680589599999998,83.29213209999999"
Masjid e Noor,Mosque,"R644+R23 Masjid e Noor, Unnamed Road, Chinnamushidiwada, Pendurthi, Visakhapatnam, Andhra Pradesh 531173","Chinnamushidiwada, Pendurthi","R644+R23, Unnamed Road",Visakhapatnam,531173,Andhra Pradesh,IN,https://www.google.com/maps/place/Masjid+e+Noor/data=!4m7!3m6!1s0x3a3967b54e8c17e5:0xc480120d836f2434!8m2!3d17.8070073!4d83.2050422!16s%2Fg%2F11f61vlx72!19sChIJ5ReMTrVnOToRNCRvgw0SgMQ?authuser=0&hl=en&rclk=1,"17.8070073,83.2050422"
MASJID UL MOMINEEN,Mosque,"J45V+FJ3 MASJID UL MOMINEEN, Peddapalem, Visakhapatnam, Andhra Pradesh 530031",Peddapalem,J45V+FJ3,Visakhapatnam,530031,Andhra Pradesh,IN,https://www.google.com/maps/place/MASJID+UL+MOMINEEN/data=!4m7!3m6!1s0x3a396c67fb1efcfb:0x274eb674f4e0caa0!8m2!3d17.6086456!4d83.1440324!16s%2Fg%2F11fxb84606!19sChIJ-_we-2dsOToRoMrg9HS2Tic?authuser=0&hl=en&rclk=1,"17.6086456,83.1440324"
EIDGAH MASJID - Maslake Ala Hazrath.,Mosque,"EIDGAH MASJID - Maslake Ala Hazrath., Gajuwaka - Scindia Rd, near Coromandel Gate, Coromandel Gate, Sriharipuram, Visakhapatnam, Andhra Pradesh 530011","Coromandel Gate, Sriharipuram","Gajuwaka - Scindia Rd, near Coromandel Gate",Visakhapatnam,530011,Andhra Pradesh,IN,https://www.google.com/maps/place/EIDGAH+MASJID+-+Maslake+Ala+Hazrath./data=!4m7!3m6!1s0x3a396979e38470f3:0xc638715e1e62d5e6!8m2!3d17.6902451!4d83.2314016!16s%2Fg%2F11h70tbnz_!19sChIJ83CE43lpOToR5tViHl5xOMY?authuser=0&hl=en&rclk=1,"17.6902451,83.2314016"
"Noor-E- Masjid Muslim Abad,Chinnapalem",Mosque,"J45J+6XH Noor-E- Masjid Muslim Abad,Chinnapalem, Chinnapalam, Visakhapatnam, Andhra Pradesh 531020",Chinnapalam,J45J+6XH,Visakhapatnam,531020,Andhra Pradesh,IN,"https://www.google.com/maps/place/Noor-E-+Masjid+Muslim+Abad,Chinnapalem/data=!4m7!3m6!1s0x3a396c500621b9e7:0x78d3402382e0dce8!8m2!3d17.6080618!4d83.1324881!16s%2Fg%2F11gbfnrlp_!19sChIJ57khBlBsOToR6NzggiNA03g?authuser=0&hl=en&rclk=1","17.608061799999998,83.1324881"
Darul Uloom Ishaqiya Nooriya,Mosque,"M6J7+2J4 Darul Uloom Ishaqiya Nooriya, BC Rd, New Gajuwaka, Azeemabad, Gajuwaka, Visakhapatnam, Andhra Pradesh 530026","New Gajuwaka, Azeemabad, Gajuwaka","M6J7+2J4, BC Rd",Visakhapatnam,530026,Andhra Pradesh,IN,https://www.google.com/maps/place/Darul+Uloom+Ishaqiya+Nooriya/data=!4m7!3m6!1s0x3a3969a5cf502ddb:0x580a096579e9d6fc!8m2!3d17.6800048!4d83.2140923!16s%2Fg%2F1q625wgtj!19sChIJ2y1Qz6VpOToR_NbpeWUJClg?authuser=0&hl=en&rclk=1,"17.6800048,83.21409229999999"
MASJID RAZA-EE-MUSTAFA,Mosque,"R6F3+FM2 MASJID RAZA-EE-MUSTAFA, Sai Nagar, Aditya Nagar, Pendurthi, Visakhapatnam, Andhra Pradesh 531173","Sai Nagar, Aditya Nagar, Pendurthi",R6F3+FM2,Visakhapatnam,531173,Andhra Pradesh,IN,https://www.google.com/maps/place/MASJID+RAZA-EE-MUSTAFA/data=!4m7!3m6!1s0x3a3966d763e1a079:0x47efdf3be14430a6!8m2!3d17.8236315!4d83.204146!16s%2Fg%2F1pwfyj_41!19sChIJeaDhY9dmOToRpjBE4Tvf70c?authuser=0&hl=en&rclk=1,"17.823631499999998,83.204146"
Masjid- E-Siddiquee,Mosque,"P6MH+XWW Masjid- E-Siddiquee, Gajuwaka Road, Airport Road, Sankethikapuram, Gajuwaka Road Bus Stop, NAD, Sakethapuram, Kakani Nagar, Visakhapatnam, Andhra Pradesh 530067","Sankethikapuram, Gajuwaka Road Bus Stop, NAD, Sakethapuram, Kakani Nagar","P6MH+XWW, Gajuwaka Road, Airport Road",Visakhapatnam,530067,Andhra Pradesh,IN,https://www.google.com/maps/place/Masjid-+E-Siddiquee/data=!4m7!3m6!1s0x3a39680ca29f4cb7:0x3939090ba01c4c12!8m2!3d17.7349998!4d83.2298426!16s%2Fg%2F1q675297p!19sChIJt0yfogxoOToREkwcoAsJOTk?authuser=0&hl=en&rclk=1,"17.7349998,83.2298426"
Masjid Noor-E-Islam,Mosque,"Masjid Noor-E-Islam, Police station, LV Nagar Road No-19, Near Gajuwaka, Visakhapatnam, Andhra Pradesh 530026",Auto Nagar,"Police station, LV Nagar Road No-19, Near Gajuwaka",Visakhapatnam,530026,Andhra Pradesh,IN,https://www.google.com/maps/place/Masjid+Noor-E-Islam/data=!4m7!3m6!1s0x3a3969a0e3a0519f:0x4a79bef8f3c40171!8m2!3d17.6922938!4d83.1960372!16s%2Fg%2F11h7b3q8g5!19sChIJn1Gg46BpOToRcQHE8_i-eUo?authuser=0&hl=en&rclk=1,"17.692293799999998,83.19603719999999"
Masjid msjd,Mosque,"P655+6Q2 Masjid msjd, Akkireddypalem, Visakhapatnam, Andhra Pradesh 530012",Akkireddypalem,P655+6Q2,Visakhapatnam,530012,Andhra Pradesh,IN,https://www.google.com/maps/place/Masjid+%D9%85%D8%B3%D8%AC%D8%AF%E2%80%AD/data=!4m7!3m6!1s0x3a3968585c8e9151:0xdbea9733edc133d9!8m2!3d17.7080127!4d83.2093794!16s%2Fg%2F11g6925nn5!19sChIJUZGOXFhoOToR2TPB7TOX6ts?authuser=0&hl=en&rclk=1,"17.708012699999998,83.2093794"
"Haji Aboosarang Mosque, Ambusarang Street Visakhapatnam",Mosque,"M7QP+V94 Haji Aboosarang Mosque, Ambusarang Street Visakhapatnam, Abusarang Street, Port Area, Visakhapatnam, Andhra Pradesh 530001",Port Area,"M7QP+V94, Abusarang Street",Visakhapatnam,530001,Andhra Pradesh,IN,"https://www.google.com/maps/place/Haji+Aboosarang+Mosque,+Ambusarang+Street+Visakhapatnam/data=!4m7!3m6!1s0x3a39425124e83375:0x1dd1f92d1981f264!8m2!3d17.6896311!4d83.2859658!16s%2Fg%2F11cn0pjyy1!19sChIJdTPoJFFCOToRZPKBGS350R0?authuser=0&hl=en&rclk=1","17.6896311,83.2859658"
MASJID - E - AAMINA,Mosque,"J5F6+487 MASJID - E - AAMINA, Unnamed Road, Siddeswaram, Nadupuru Reserve Forest, Visakhapatnam, Andhra Pradesh 530031","Siddeswaram, Nadupuru Reserve Forest","J5F6+487, Unnamed Road",Visakhapatnam,530031,Andhra Pradesh,IN,https://www.google.com/maps/place/MASJID+-+E+-+AAMINA/data=!4m7!3m6!1s0x3a396dddf8c39593:0xc765423b86507a11!8m2!3d17.6227801!4d83.1608049!16s%2Fg%2F11h5rz90c8!19sChIJk5XD-N1tOToREXpQhjtCZcc?authuser=0&hl=en&rclk=1,"17.6227801,83.1608049"
MASJID-E-IBRAHIM,Mosque,"MASJID-E-IBRAHIM, Lemarthi, Syam Way Pharmacity Colony, Visakhapatnam, Andhra Pradesh 531019",,"Lemarthi, Syam Way Pharmacity Colony",Visakhapatnam,531019,Andhra Pradesh,IN,https://www.google.com/maps/place/MASJID-E-IBRAHIM/data=!4m7!3m6!1s0x3a396f728eaf334d:0xfe3b32adabe4f933!8m2!3d17.6978926!4d83.1107884!16s%2Fg%2F11h2nw2w41!19sChIJTTOvjnJvOToRM_nkq60yO_4?authuser=0&hl=en&rclk=1,"17.6978926,83.11078839999999"
Masjid,Mosque,"Masjid, 24-3-10 Raja Rammohan Roy Rd, Old Post Office Jct, Vada Street, Port Area, Visakhapatnam, Andhra Pradesh 530001","Old Post Office, Vada Street, Port Area","24-3-10 Raja Rammohan Roy Rd, Old Post Office Jct",Visakhapatnam,530001,Andhra Pradesh,IN,https://www.google.com/maps/place/Masjid/data=!4m7!3m6!1s0x3a3942553ae7e313:0x438338c7cf73a238!8m2!3d17.6946112!4d83.2926136!16s%2Fg%2F11b60tllmc!19sChIJE-PnOlVCOToROKJzz8c4g0M?authuser=0&hl=en&rclk=1,"17.6946112,83.2926136"
Jammiya masjid,Mosque,"H4PQ+8W4 Jammiya masjid, T.Devada, lokl maarg, Nadupuru Part Rural, Andhra Pradesh 530031",Peddapalem,"H4PQ+8W4, T.Devada, lokl maarg","Nadupuru Part Rural, Visakhapatnam",530031,Andhra Pradesh,IN,https://www.google.com/maps/place/Jammiya+masjid/data=!4m7!3m6!1s0x3a396cf27696270b:0x129ffeefba0532fc!8m2!3d17.5857683!4d83.1398267!16s%2Fg%2F11byn046fs!19sChIJCyeWdvJsOToR_DIFuu_-nxI?authuser=0&hl=en&rclk=1,"17.585768299999998,83.1398267"
Masjid E Gousul Azham,Mosque,"Masjid E Gousul Azham, M, Cheepurupalli, Vada, Paravada, Visakhapatnam, Andhra Pradesh 531020","Vada, Paravada","M, Cheepurupalli",Visakhapatnam,531020,Andhra Pradesh,IN,https://www.google.com/maps/place/Masjid+E+Gousul+Azham/data=!4m7!3m6!1s0x3a396d5bc2117e75:0x1815ea3896be2d29!8m2!3d17.5643529!4d83.0853522!16s%2Fg%2F11ggrmp_fb!19sChIJdX4RwlttOToRKS2-ljjqFRg?authuser=0&hl=en&rclk=1,"17.5643529,83.0853522"
Masjid-e-Usman gani,Mosque,"P5CX+7Q4 Masjid-e-Usman gani, Sheela Nagar, Visakhapatnam, Andhra Pradesh 530012",Sheela Nagar,P5CX+7Q4,Visakhapatnam,530012,Andhra Pradesh,IN,https://www.google.com/maps/place/Masjid-e-Usman+gani/data=!4m7!3m6!1s0x3a3969ab41a262eb:0x53d420cc88982e2!8m2!3d17.7206277!4d83.1994583!16s%2Fg%2F11fj8j10wl!19sChIJ62KiQatpOToR4oKJyAxCPQU?authuser=0&hl=en&rclk=1,"17.720627699999998,83.19945829999999"
Mosque,Mosque,"Mosque, 13-10-9, BC Rd, New Gajuwaka, Gajuwaka, Visakhapatnam, Andhra Pradesh 530026","New Gajuwaka, Gajuwaka","13-10-9, BC Rd",Visakhapatnam,530026,Andhra Pradesh,IN,https://www.google.com/maps/place/Mosque/data=!4m7!3m6!1s0x3a3969af841e3041:0x27eb670b1c21ff50!8m2!3d17.6821118!4d83.2158327!16s%2Fg%2F11b5pj1whf!19sChIJQTAehK9pOToRUP8hHAtn6yc?authuser=0&hl=en&rclk=1,"17.682111799999998,83.21583269999999"
Masjid E Qhurshid,Mosque,"P5RH+844 Masjid E Qhurshid, Visakhapatnam, Andhra Pradesh 530027",,P5RH+844,Visakhapatnam,,Andhra Pradesh,IN,https://www.google.com/maps/place/Masjid+E+Qhurshid/data=!4m7!3m6!1s0x3a39671882324a2d:0x719c6339de132cd4!8m2!3d17.7407594!4d83.1778128!16s%2Fg%2F11g10nsw18!19sChIJLUoyghhnOToR1CwT3jljnHE?authuser=0&hl=en&rclk=1,"17.740759399999998,83.1778128"
Masjid-Al-Habeeb,Place of worship,"Masjid-Al-Habeeb, Opposite BHPV Gate, 2-1-16/4, Opposite BHPV Gate, Ram Nagar, ZINC Colony, Gajuwaka, Visakhapatnam, Andhra Pradesh 530012","Opposite BHPV Gate, Ram Nagar, ZINC Colony, Gajuwaka","Opposite BHPV Gate, 2-1-16/4",Visakhapatnam,530012,Andhra Pradesh,IN,https://www.google.com/maps/place/Masjid-Al-Habeeb/data=!4m7!3m6!1s0x3a3968562a75f6b1:0xfce98326bc04783f!8m2!3d17.702393!4d83.2077657!16s%2Fg%2F11dzts5qq6!19sChIJsfZ1KlZoOToRP3gEvCaD6fw?authuser=0&hl=en&rclk=1,"17.702393,83.2077657"
jamat ahle hadees mosque,Mosque,"Q4QF+XVP jamat ahle hadees mosque, Sabbavaram, Mogalipuram, Andhra Pradesh 531035",,Q4QF+XVP,"Sabbavaram, Mogalipuram",531035,Andhra Pradesh,IN,https://www.google.com/maps/place/jamat+ahle+hadees+mosque/data=!4m7!3m6!1s0x3a3965a126c629e7:0x74064b06abf78ac2!8m2!3d17.789952!4d83.1247091!16s%2Fg%2F11gs5zbgq7!19sChIJ5ynGJqFlOToRwor3qwZLBnQ?authuser=0&hl=en&rclk=1,"17.789952,83.12470909999999"
Masjid E Siraj,Mosque,"M5WP+7XC Masjid E Siraj, Unnamed Road, Auto Nagar, Visakhapatnam, Andhra Pradesh 530012",Auto Nagar,"M5WP+7XC, Unnamed Road",Visakhapatnam,530012,Andhra Pradesh,IN,https://www.google.com/maps/place/Masjid+E+Siraj/data=!4m7!3m6!1s0x3a3968e0612dfdff:0xc68394466a191877!8m2!3d17.6956932!4d83.1874019!16s%2Fg%2F11f4m9dfq9!19sChIJ__0tYeBoOToRdxgZakaUg8Y?authuser=0&hl=en&rclk=1,"17.6956932,83.1874019"
Bismillah Masjid,Mosque,"Bismillah Masjid, JNRUM HOUSING, AGANAMPUDI (DUVVADA), BLOCK NO-82, Andhra Pradesh 530049",,"JNRUM HOUSING, AGANAMPUDI (DUVVADA), BLOCK NO-82",Visakhapatnam,530049,Andhra Pradesh,IN,https://www.google.com/maps/place/Bismillah+Masjid/data=!4m7!3m6!1s0x3a396f7ce34139c1:0xa218812d96f673f3!8m2!3d17.7068657!4d83.1311645!16s%2Fg%2F11q_7vhn09!19sChIJwTlB43xvOToR83P2li2BGKI?authuser=0&hl=en&rclk=1,"17.706865699999998,83.1311645"
JIH MOSQUE MASJID A HERA,Mosque,"P49W+V22 JIH MOSQUE MASJID A HERA, Vedullanarava, Andhra Pradesh 531035",,P49W+V22,Vedullanarava,531035,Andhra Pradesh,IN,https://www.google.com/maps/place/JIH+MOSQUE+MASJID+A+HERA/data=!4m7!3m6!1s0x3a396f77b2b1f967:0x1632f40c3e3845fc!8m2!3d17.7196331!4d83.1450274!16s%2Fg%2F11gzp1hklx!19sChIJZ_mxsndvOToR_EU4Pgz0MhY?authuser=0&hl=en&rclk=1,"17.7196331,83.14502739999999"
"Bargah e Bibi Sakina S.A, Vizag",Mosque,"Bargah e Bibi Sakina S.A, Vizag, 45-2-60/26/5, Ramachandra Nagar, Thatichetlapalem, Akkayyapalem, Visakhapatnam, Andhra Pradesh 530016","Ramachandra Nagar, Thatichetlapalem, Akkayyapalem",45-2-60/26/5,Visakhapatnam,530016,Andhra Pradesh,IN,"https://www.google.com/maps/place/Bargah+e+Bibi+Sakina+S.A,+Vizag/data=!4m7!3m6!1s0x3a394390e2bad8f1:0x1cbe88821df65ae6!8m2!3d17.7365062!4d83.2952446!16s%2Fg%2F11t99x36yl!19sChIJ8di64pBDOToR5lr2HYKIvhw?authuser=0&hl=en&rclk=1","17.7365062,83.29524459999999"
Masjid E Muhammadia,Mosque,"M3V5+7FR Masjid E Muhammadia, Koppaka, Pedamusidivada, Andhra Pradesh 531019",,M3V5+7FR,"Koppaka, Pedamusidivada",531019,Andhra Pradesh,IN,https://www.google.com/maps/place/Masjid+E+Muhammadia/data=!4m7!3m6!1s0x3a3971ac12944f0d:0x55ab9470b7f5473a!8m2!3d17.6932477!4d83.0586483!16s%2Fg%2F11nsvk8r78!19sChIJDU-UEqxxOToROkf1t3CUq1U?authuser=0&hl=en&rclk=1,"17.6932477,83.0586483"
Masjid Mohammed Sahib Peta,Mosque,"H5W4+V27 Masjid Mohammed Sahib Peta, Islampeta Rd, Maddi Vani Palem, KN Palem, Visakhapatnam, Andhra Pradesh 530031","Maddi Vani Palem, KN Palem","H5W4+V27, Islampeta Rd",Visakhapatnam,530031,Andhra Pradesh,IN,https://www.google.com/maps/place/Masjid+Mohammed+Sahib+Peta/data=!4m7!3m6!1s0x3a396de2dd0191b9:0x1436581b811efa11!8m2!3d17.5971546!4d83.1550448!16s%2Fg%2F11rbfg_b89!19sChIJuZEB3eJtOToREfoegRtYNhQ?authuser=0&hl=en&rclk=1,"17.5971546,83.1550448"
Masjid E Abu Bakar,Mosque,"M7XW+P79 Masjid E Abu Bakar, beside street of, Visakhapatnam","Reading Room, Chengal Rao Peta, Port Area","M7XW+P79, beside street of",Visakhapatnam,,Andhra Pradesh,IN,https://www.google.com/maps/place/Masjid+E+Abu+Bakar/data=!4m7!3m6!1s0x3a39434c39288c5d:0xdcdaea5878a5ccf0!8m2!3d17.6992954!4d83.2957294!16s%2Fg%2F11f9vjs3l7!19sChIJXYwoOUxDOToR8MyleFjq2tw?authuser=0&hl=en&rclk=1,"17.6992954,83.2957294"
Masjid e takwa ahle hadees,Mosque,"Masjid e takwa ahle hadees, 58-15-136, near Sai Baba Temple, Nad Junction, Shanti Nagar, NSTL, Visakhapatnam, Andhra Pradesh 530009","Nad Junction, Shanti Nagar, NSTL","58-15-136, near Sai Baba Temple",Visakhapatnam,530009,Andhra Pradesh,IN,https://www.google.com/maps/place/Masjid+e+takwa+ahle+hadees/data=!4m7!3m6!1s0x3a3967dc8e0992b5:0x462d64d14e93c379!8m2!3d17.7433896!4d83.2372934!16s%2Fg%2F11qh1x526h!19sChIJtZIJjtxnOToRecOTTtFkLUY?authuser=0&hl=en&rclk=1,"17.7433896,83.2372934"
MASJID-E-ZAKARIYA,Mosque,"M7J6+RRQ MASJID-E-ZAKARIYA, Kakaralova, Chintalalova, Krantinagar, Nausena Baugh, Visakhapatnam, Andhra Pradesh 530005","Kakaralova, Chintalalova, Krantinagar, Nausena Baugh",M7J6+RRQ,Visakhapatnam,530005,Andhra Pradesh,IN,https://www.google.com/maps/place/MASJID-E-ZAKARIYA/data=!4m7!3m6!1s0x3a3943e83f331483:0x9e739ad9532e2e7!8m2!3d17.6820875!4d83.2621094!16s%2Fg%2F11ksl0zcq_!19sChIJgxQzP-hDOToR5-Iyla055wk?authuser=0&hl=en&rclk=1,"17.682087499999998,83.2621094"
Alamgeer Masjid,Mosque,"M7RR+58M Alamgeer Masjid, Port Area, Visakhapatnam, Andhra Pradesh 530001",Port Area,M7RR+58M,Visakhapatnam,530001,Andhra Pradesh,IN,https://www.google.com/maps/place/Alamgeer+Masjid/data=!4m7!3m6!1s0x3a3943fb0f8119a9:0xa7e2f2e3df2922ac!8m2!3d17.6904561!4d83.2907925!16s%2Fg%2F11nz3mbdtr!19sChIJqRmBD_tDOToRrCIp3-Py4qc?authuser=0&hl=en&rclk=1,"17.6904561,83.2907925"
Eid Garh Masjid-E-Noor .,Religious destination,"Eid Garh Masjid-E-Noor ., sankuvani palem, Lalitha Nagar, Akkayyapalem, Visakhapatnam, Andhra Pradesh 530016","Lalitha Nagar, Akkayyapalem",sankuvani palem,Visakhapatnam,530016,Andhra Pradesh,IN,https://www.google.com/maps/place/Eid+Garh+Masjid-E-Noor+./data=!4m7!3m6!1s0x3a394351ff9436ff:0x433392eafc7c8b3c!8m2!3d17.7342438!4d83.3027547!16s%2Fg%2F11fmxj2d7k!19sChIJ_zaU_1FDOToRPIt8_OqSM0M?authuser=0&hl=en&rclk=1,"17.734243799999998,83.3027547"
MTC Palem Masjid-E-Quba Sunni Adda,Housing society,"MTC Palem Masjid-E-Quba Sunni Adda, 45-2-44, Akkayyapalem 80 Feet Rd, Ramachandra Nagar, Akkayyapalem, Visakhapatnam, Andhra Pradesh 530016","Ramachandra Nagar, Akkayyapalem","45-2-44, Akkayyapalem 80 Feet Rd",Visakhapatnam,530016,Andhra Pradesh,IN,https://www.google.com/maps/place/MTC+Palem+Masjid-E-Quba+Sunni+Adda/data=!4m7!3m6!1s0x3a3943dc865655fd:0x171fdc9eb6905d9c!8m2!3d17.7374648!4d83.296943!16s%2Fg%2F11lkyxjsgd!19sChIJ_VVWhtxDOToRnF2Qtp7cHxc?authuser=0&hl=en&rclk=1,"17.737464799999998,83.296943"
Nishani E Hazrath Moula Ali,Mosque,"P7R3+H7F Nishani E Hazrath Moula Ali, Sai Nagar, Marripalem, Visakhapatnam, Andhra Pradesh 530018","Sai Nagar, Marripalem",P7R3+H7F,Visakhapatnam,530018,Andhra Pradesh,IN,https://www.google.com/maps/place/Nishani+E+Hazrath+Moula+Ali/data=!4m7!3m6!1s0x3a3943041566ebff:0xec32854bd7d359e0!8m2!3d17.7414419!4d83.2531855!16s%2Fg%2F11sqfdxrdl!19sChIJ_-tmFQRDOToR4FnT10uFMuw?authuser=0&hl=en&rclk=1,"17.741441899999998,83.2531855"
Masjid Billal,School,"M5V3+FR2 Masjid Billal, Rajeev Nagar Rd, Rajeev Nagar, Kurmannapalem, Visakhapatnam, Andhra Pradesh 530046","Rajeev Nagar, Kurmannapalem","M5V3+FR2, Rajeev Nagar Rd",Visakhapatnam,530046,Andhra Pradesh,IN,https://www.google.com/maps/place/Masjid+Billal/data=!4m7!3m6!1s0x3a396f2c05e55fa3:0xed26caabe651b95d!8m2!3d17.693649!4d83.154529!16s%2Fg%2F11h3btckd4!19sChIJo1_lBSxvOToRXblR5qvKJu0?authuser=0&hl=en&rclk=1,"17.693649,83.154529"
EIDGAH FAKEERTAKYA,Mosque,"P529+CM4 EIDGAH FAKEERTAKYA, Siddhartha Nagar, Kurmannapalem, Visakhapatnam, Andhra Pradesh 530012","Siddhartha Nagar, Kurmannapalem",P529+CM4,Visakhapatnam,530012,Andhra Pradesh,IN,https://www.google.com/maps/place/EIDGAH+FAKEERTAKYA/data=!4m7!3m6!1s0x3a3969fe2c6e84b3:0xd46fefc9fd72154!8m2!3d17.7010013!4d83.169202!16s%2Fg%2F11gv24cf_f!19sChIJs4RuLP5pOToRVCHXn_z-Rg0?authuser=0&hl=en&rclk=1,"17.701001299999998,83.169202"
MASJID-E-AALA HAZRATH,Mosque,"P7RF+GHH MASJID-E-AALA HAZRATH, Srinivasa Nagar, Kancharapalem, Visakhapatnam, Andhra Pradesh 530008","Srinivasa Nagar, Kancharapalem",P7RF+GHH,Visakhapatnam,530008,Andhra Pradesh,IN,https://www.google.com/maps/place/MASJID-E-AALA+HAZRATH/data=!4m7!3m6!1s0x3a3943bde883bc65:0x6f652d718308ef67!8m2!3d17.7413214!4d83.2739777!16s%2Fg%2F11r7vhx1sc!19sChIJZbyD6L1DOToRZ-8Ig3EtZW8?authuser=0&hl=en&rclk=1,"17.7413214,83.2739777"
Mosque,Mosque,"P6WP+3FV Mosque, Nad Junction, NSTL, Visakhapatnam, Andhra Pradesh 530009","Nad Junction, NSTL",P6WP+3FV,Visakhapatnam,530009,Andhra Pradesh,IN,https://www.google.com/maps/place/Mosque/data=!4m7!3m6!1s0x3a3967e3b6a7a813:0x3030f45b8179f7ff!8m2!3d17.7452343!4d83.2361616!16s%2Fg%2F1tdmngy7!19sChIJE6intuNnOToR__d5gVv0MDA?authuser=0&hl=en&rclk=1,"17.7452343,83.2361616"
Chinna devada old Kabarstan,Mosque,"H4VW+7PQ Chinna devada old Kabarstan, Abdul Khadar Road, Chinna Devada, Peddapalem, Visakhapatnam, Andhra Pradesh 530031","Chinna Devada, Peddapalem","H4VW+7PQ, Abdul Khadar Road",Visakhapatnam,530031,Andhra Pradesh,IN,https://www.google.com/maps/place/Chinna+devada+old+Kabarstan/data=!4m7!3m6!1s0x3a396d9b327fb82f:0x3eb5667cf9e6ffee!8m2!3d17.5932192!4d83.1468527!16s%2Fg%2F11ql69tzxw!19sChIJL7h_MpttOToR7v_m-XxmtT4?authuser=0&hl=en&rclk=1,"17.5932192,83.1468527"
Chinnuru MASJID Road,Mosque,"Chinnuru MASJID Road, Akkayyapalem, 80ft road dead, Akkayyapalem, Visakhapatnam, Andhra Pradesh 530016","Lalitha Nagar, Akkayyapalem","Akkayyapalem, 80ft road dead",Visakhapatnam,530016,Andhra Pradesh,IN,https://www.google.com/maps/place/Chinnuru+MASJID+Road/data=!4m7!3m6!1s0x3a3943cccb18e1f9:0xa65aa5e6c6369cb9!8m2!3d17.7352993!4d83.3010876!16s%2Fg%2F11mv69mzdz!19sChIJ-eEYy8xDOToRuZw2xualWqY?authuser=0&hl=en&rclk=1,"17.735299299999998,83.3010876"
Eidga islampeta,Mosque,"J46X+937 Eidga islampeta, Kalpaka Rd, Siddeswaram, Islampet, Visakhapatnam, Andhra Pradesh 530031","Siddeswaram, Islampet","J46X+937, Kalpaka Rd",Visakhapatnam,530031,Andhra Pradesh,IN,https://www.google.com/maps/place/Eidga+islampeta/data=!4m7!3m6!1s0x3a396dda08bb4f81:0x52b267ab96288308!8m2!3d17.6109001!4d83.1476748!16s%2Fg%2F11h3nhl333!19sChIJgU-7CNptOToRCIMolqtnslI?authuser=0&hl=en&rclk=1,"17.6109001,83.14767479999999"
Eeman,Mosque,"M6G6+XR9 Eeman, Azeemabad, Gajuwaka, Visakhapatnam, Andhra Pradesh 530016","Azeemabad, Gajuwaka",M6G6+XR9,Visakhapatnam,530016,Andhra Pradesh,IN,https://www.google.com/maps/place/Eeman/data=!4m7!3m6!1s0x3a3969a8eb555a1b:0x5baf9c9487385a5c!8m2!3d17.6774041!4d83.2121164!16s%2Fg%2F1wnbwfj0!19sChIJG1pV66hpOToRXFo4h5Scr1s?authuser=0&hl=en&rclk=1,"17.6774041,83.2121164"
Masjid e AbuBakar R.A.,Mosque,"Masjid e AbuBakar R.A., 10-139/A, Aganampudi, Visakhapatnam, Andhra Pradesh 530046",Aganampudi,10-139/A,Visakhapatnam,530046,Andhra Pradesh,IN,https://www.google.com/maps/place/Masjid+e+AbuBakar+R.A./data=!4m7!3m6!1s0x3a396ffde80e3de9:0x913a6a64d6fdad88!8m2!3d17.692819!4d83.1313576!16s%2Fg%2F11rqg1n1dl!19sChIJ6T0O6P1vOToRiK391mRqOpE?authuser=0&hl=en&rclk=1,"17.692819,83.1313576"
"Eid Gah, Masjid E Al fatah",Mosque,"P6RX+3JQ Eid Gah, Masjid E Al fatah, Railway Colony, Marripalem, Visakhapatnam, Andhra Pradesh 530009","Railway Colony, Marripalem",P6RX+3JQ,Visakhapatnam,530009,Andhra Pradesh,IN,"https://www.google.com/maps/place/Eid+Gah,+Masjid+E+Al+fatah/data=!4m7!3m6!1s0x3a3969fb95e36313:0x34c9df1753fb6f66!8m2!3d17.7402025!4d83.249111!16s%2Fg%2F11rb13_q2q!19sChIJE2PjlftpOToRZm_7UxffyTQ?authuser=0&hl=en&rclk=1","17.7402025,83.249111"
Steel plant masjid,Mosque,"J682+F9 Steel plant masjid, Siddeswaram, Visakhapatnam Steel Plant, Visakhapatnam, Andhra Pradesh 530031","Siddeswaram, Visakhapatnam Steel Plant",J682+F9,Visakhapatnam,,Andhra Pradesh,IN,https://www.google.com/maps/place/Steel+plant+masjid/data=!4m7!3m6!1s0x3a396b42527c0b7f:0x2d1ffbfdeaa7faee!8m2!3d17.6162026!4d83.200971!16s%2Fg%2F11t1rbngzh!19sChIJfwt8UkJrOToR7vqn6v37Hy0?authuser=0&hl=en&rclk=1,"17.616202599999998,83.200971"
Raza masjid Chinna devada,Mosque,"H4RX+RXH Raza masjid Chinna devada, Chinna Devada, Peddapalem, Visakhapatnam, Andhra Pradesh 530031","Chinna Devada, Peddapalem",H4RX+RXH,Visakhapatnam,530031,Andhra Pradesh,IN,https://www.google.com/maps/place/Raza+masjid+Chinna+devada/data=!4m7!3m6!1s0x3a396d2a56f243b1:0x61eebcdd40b140e4!8m2!3d17.5920587!4d83.1499966!16s%2Fg%2F11kd5qt4z6!19sChIJsUPyViptOToR5ECxQN287mE?authuser=0&hl=en&rclk=1,"17.5920587,83.1499966"
Masjid,Mosque,"Q665+RJ5 Masjid, R R Venkatapuram, Nandhamuri nagar, Visakhapatnam, Andhra Pradesh 530029","R R Venkatapuram, Nandhamuri nagar",Q665+RJ5,Visakhapatnam,530029,Andhra Pradesh,IN,https://www.google.com/maps/place/Masjid/data=!4m7!3m6!1s0x3a396778ad6ad499:0xd161fd7810aefee!8m2!3d17.7620244!4d83.2091004!16s%2Fg%2F11ll1zvnnr!19sChIJmdRqrXhnOToR7u8KgdcfFg0?authuser=0&hl=en&rclk=1,"17.762024399999998,83.2091004"
Ahmednagar eidgah,Mosque,"Ahmednagar eidgah, 6th phase, Ahmednagar, Visakhapatnam, Andhra Pradesh 530012",Ahmednagar,6th phase,Visakhapatnam,530012,Andhra Pradesh,IN,https://www.google.com/maps/place/Ahmednagar+eidgah/data=!4m7!3m6!1s0x3a39697f36c00801:0x70f28f4f1820eb99!8m2!3d17.7355987!4d83.176055!16s%2Fg%2F11s2rqyqgk!19sChIJAQjANn9pOToRmesgGE-P8nA?authuser=0&hl=en&rclk=1,"17.7355987,83.17605499999999"
NOORANI MASJID,Place of worship,"Ward n.o 57, NOORANI MASJID, Vedullanarava, Andhra Pradesh 531035",,Ward n.o 57,Vedullanarava,531035,Andhra Pradesh,IN,https://www.google.com/maps/place/NOORANI+MASJID/data=!4m7!3m6!1s0x3a396f678f1817c9:0xf57acfc2094771fb!8m2!3d17.7170358!4d83.1467703!16s%2Fg%2F11fmzgvyq5!19sChIJyRcYj2dvOToR-3FHCcLPevU?authuser=0&hl=en&rclk=1,"17.717035799999998,83.1467703"
Majid- E- Ahaladish,Mosque,"R4CF+6X8 Majid- E- Ahaladish, Ravalamma Palem, Andhra Pradesh 531035",,R4CF+6X8,Ravalamma Palem,531035,Andhra Pradesh,IN,https://www.google.com/maps/place/Majid-+E-+Ahaladish/data=!4m7!3m6!1s0x3a396572598aba69:0xd3a2d75093134bef!8m2!3d17.8205293!4d83.1249598!16s%2Fg%2F11ts3gj7nq!19sChIJabqKWXJlOToR70sTk1DXotM?authuser=0&hl=en&rclk=1,"17.8205293,83.1249598"
"Kabristan, Masjid E Al fatah",Religious destination,"P6RX+6FJ Kabristan, Masjid E Al fatah, FCI Nagar, Marripalem, Visakhapatnam, Andhra Pradesh 530018","FCI Nagar, Marripalem",P6RX+6FJ,Visakhapatnam,530018,Andhra Pradesh,IN,"https://www.google.com/maps/place/Kabristan,+Masjid+E+Al+fatah/data=!4m7!3m6!1s0x3a3969abfcc05f35:0xdea9f3b8adcb1b05!8m2!3d17.7405831!4d83.2486342!16s%2Fg%2F11rb6cwkby!19sChIJNV_A_KtpOToRBRvLrbjzqd4?authuser=0&hl=en&rclk=1","17.7405831,83.2486342"
Mohammed Jhanda,Mosque,"H5R3+39F Mohammed Jhanda, Sattar Nagar, KN Palem, Visakhapatnam, Andhra Pradesh 530031","Sattar Nagar, KN Palem",H5R3+39F,Visakhapatnam,530031,Andhra Pradesh,IN,https://www.google.com/maps/place/Mohammed+Jhanda/data=!4m7!3m6!1s0x3a396d442dacd929:0xfbb279da4fc6867b!8m2!3d17.5901868!4d83.1534305!16s%2Fg%2F11r_djcj3w!19sChIJKdmsLURtOToRe4bGT9p5svs?authuser=0&hl=en&rclk=1,"17.590186799999998,83.1534305"
Masjid,Mosque,"Masjid, 26-1-16/10, Chaitanya Nagar, Gajuwaka, Visakhapatnam, Andhra Pradesh 530026","Chaitanya Nagar, Gajuwaka",26-1-16/10,Visakhapatnam,530026,Andhra Pradesh,IN,https://www.google.com/maps/place/Masjid/data=!4m7!3m6!1s0x3a3969a56e8b0bed:0x8b18b908fb313b5!8m2!3d17.682329!4d83.1940408!16s%2Fg%2F11s31nczn2!19sChIJ7QuLbqVpOToRtROzj5CLsQg?authuser=0&hl=en&rclk=1,"17.682329,83.1940408"
Masjid-E-Salmaan Faarsi(R.A),Mosque,"PLOT NO, Masjid-E-Salmaan Faarsi(R.A), AN 20, MSME, Chaitanya Nagar, Auto Nagar, Visakhapatnam, Andhra Pradesh 517408","Chaitanya Nagar, Auto Nagar","PLOT NO, AN 20, MSME",Visakhapatnam,517408,Andhra Pradesh,IN,https://www.google.com/maps/place/Masjid-E-Salmaan+Faarsi%28R.A%29/data=!4m7!3m6!1s0x3a3969cdf2c580b5:0xa31030d8ef12d4d4!8m2!3d17.6898979!4d83.1936515!16s%2Fg%2F11l1dr9rkq!19sChIJtYDF8s1pOToR1NQS79gwEKM?authuser=0&hl=en&rclk=1,"17.6898979,83.1936515"
Masjid-E-shabbir,Mosque,"P625+W68 Masjid-E-shabbir, Ramnagar, Mindi, Visakhapatnam, Andhra Pradesh 530012","Ramnagar, Mindi",P625+W68,Visakhapatnam,530012,Andhra Pradesh,IN,https://www.google.com/maps/place/Masjid-E-shabbir/data=!4m7!3m6!1s0x3a3969d2416d16cb:0xe090f545bf5d02e0!8m2!3d17.7022969!4d83.2080889!16s%2Fg%2F11trg5g46c!19sChIJyxZtQdJpOToR4AJdv0X1kOA?authuser=0&hl=en&rclk=1,"17.7022969,83.20808889999999"
Sakeela Bhanu,Mosque,"Sakeela Bhanu, 6-74-26, Auto Nagar, Visakhapatnam, Andhra Pradesh 530026",Auto Nagar,6-74-26,Visakhapatnam,530026,Andhra Pradesh,IN,https://www.google.com/maps/place/Sakeela+Bhanu/data=!4m7!3m6!1s0x3a3969867d7f2c4f:0xf2a1ba30463f5700!8m2!3d17.6899394!4d83.1935192!16s%2Fg%2F11tk4d3d7x!19sChIJTyx_fYZpOToRAFc_RjC6ofI?authuser=0&hl=en&rclk=1,"17.6899394,83.1935192"
Madeena Masjid,Mosque,"J5C3+HVP Madeena Masjid, Madeena bagh, Nadupuru Reserve Forest, Visakhapatnam, Andhra Pradesh 530032","Madeena bagh, Nadupuru Reserve Forest",J5C3+HVP,Visakhapatnam,530032,Andhra Pradesh,IN,https://www.google.com/maps/place/Madeena+Masjid/data=!4m7!3m6!1s0x3a396dcb05b8103d:0xd8ac7d4457dcc939!8m2!3d17.6214736!4d83.1546959!16s%2Fg%2F11k9kgphvz!19sChIJPRC4BcttOToROcncV0R9rNg?authuser=0&hl=en&rclk=1,"17.621473599999998,83.1546959"
Abdul kadir,Mosque,"M6PF+624 Abdul kadir, Gajuwaka, Visakhapatnam, Andhra Pradesh 530011",Gajuwaka,M6PF+624,Visakhapatnam,,Andhra Pradesh,IN,https://www.google.com/maps/place/Abdul+kadir/data=!4m7!3m6!1s0x3a3969a7c626f28f:0x17cd5d9e3588c54b!8m2!3d17.6855052!4d83.2225705!16s%2Fg%2F11qpxvjfyk!19sChIJj_ImxqdpOToRS8WINZ5dzRc?authuser=0&hl=en&rclk=1,"17.685505199999998,83.2225705"
Maktab-E-Gulshan-E-Raza,Mosque,"Maktab-E-Gulshan-E-Raza, Malla Masions, Door No: 38-32-50/1,Parvathi Nagar, NH16, Dr. Zakir Hussain Nagar, FCI Nagar, Marripalem, Visakhapatnam, Andhra Pradesh 530018","Dr. Zakir Hussain Nagar, FCI Nagar, Marripalem","Malla Masions, Door No: 38-32-50/1,Parvathi Nagar, NH16",Visakhapatnam,530018,Andhra Pradesh,IN,https://www.google.com/maps/place/Maktab-E-Gulshan-E-Raza/data=!4m7!3m6!1s0x3a395d0b1bd1e57b:0x2cc0696f3c29b2a4!8m2!3d17.745808!4d83.2515454!16s%2Fg%2F11mvsjtf2t!19sChIJe-XRGwtdOToRpLIpPG9pwCw?authuser=0&hl=en&rclk=1,"17.745808,83.2515454"
Tuuba Alhe-Hadees Mosque,Mosque,"Q4QF+XV9 Tuuba Alhe-Hadees Mosque, Sabbavaram, Mogalipuram, Andhra Pradesh 531035",,Q4QF+XV9,"Sabbavaram, Mogalipuram",531035,Andhra Pradesh,IN,https://www.google.com/maps/place/Tuuba+Alhe-Hadees+Mosque/data=!4m7!3m6!1s0x3a39650b406b8443:0x2e4d933558692515!8m2!3d17.7899178!4d83.1247279!16s%2Fg%2F11h6rnm892!19sChIJQ4RrQAtlOToRFSVpWDWTTS4?authuser=0&hl=en&rclk=1,"17.789917799999998,83.1247279"
Kota Vidi Dargha Sharif,Mosque,"M7RR+4FR Kota Vidi Dargha Sharif, Port Area, Visakhapatnam, Andhra Pradesh 530001",Port Area,M7RR+4FR,Visakhapatnam,,Andhra Pradesh,IN,https://www.google.com/maps/place/Kota+Vidi+Dargha+Sharif/data=!4m7!3m6!1s0x3a39433b4553e721:0xe999495e2a259e4c!8m2!3d17.6903522!4d83.2911428!16s%2Fg%2F11rz4rr95y!19sChIJIedTRTtDOToRTJ4lKl5Jmek?authuser=0&hl=en&rclk=1,"17.6903522,83.2911428"
Jamiya masjid,Mosque,"Jamiya masjid, 49-38-26/1, NGGOS Colony, Akkayyapalem, Visakhapatnam, Andhra Pradesh 530016","NGGOS Colony, Akkayyapalem",49-38-26/1,Visakhapatnam,530016,Andhra Pradesh,IN,https://www.google.com/maps/place/Jamiya+masjid/data=!4m7!3m6!1s0x3a39437832ee6087:0xcbee309c2c6463e1!8m2!3d17.7395067!4d83.300444!16s%2Fg%2F11spsx96kw!19sChIJh2DuMnhDOToR4WNkLJww7ss?authuser=0&hl=en&rclk=1,"17.7395067,83.300444"
AL AMEEN MASJID &MADRASA,Mosque,"AL AMEEN MASJID &MADRASA, PLOT NO 1,SUJATHA NAGAR,BANROTTI VILLAGE,EYCHOOR JUNCTION ROAD, KANDIGAI, 631604","Sujatha Nagar, Pendurthi","PLOT NO 1,SUJATHA NAGAR,BANROTTI VILLAGE,EYCHOOR JUNCTION ROAD, KANDIGAI","Visakhapatnam, Valimeraka",631604,Andhra Pradesh,IN,https://www.google.com/maps/place/AL+AMEEN+MASJID+%26MADRASA/data=!4m7!3m6!1s0x3a396713526a9e57:0xf2e7dce72a4c6957!8m2!3d17.7990565!4d83.2036741!16s%2Fg%2F11p6wn4x6_!19sChIJV55qUhNnOToRV2lMKufc5_I?authuser=0&hl=en&rclk=1,"17.7990565,83.2036741"
Masjid Rasul,Mosque,"P8C8+4PV Masjid Rasul, Siripuram, Visakhapatnam, Andhra Pradesh 530002",Siripuram,P8C8+4PV,Visakhapatnam,,Andhra Pradesh,IN,https://www.google.com/maps/place/Masjid+Rasul/data=!4m7!3m6!1s0x3a39433fbbf2f90d:0xa389427aa12eaf39!8m2!3d17.720372!4d83.3168071!16s%2Fg%2F11vbcp_czj!19sChIJDfnyuz9DOToROa8uoXpCiaM?authuser=0&hl=en&rclk=1,"17.720371999999998,83.31680709999999"
KGH Out-Gate,Mosque,"P863+G64 KGH Out-Gate, Opposite Macca Masjid, Jagadamba Junction, Visakhapatnam, Andhra Pradesh 530020","Opposite Macca Masjid, Jagadamba Junction",P863+G64,Visakhapatnam,,Andhra Pradesh,IN,https://www.google.com/maps/place/KGH+Out-Gate/data=!4m7!3m6!1s0x3a394395701e374b:0x23cd6535afb72485!8m2!3d17.7112625!4d83.3030837!16s%2Fg%2F11rw346dxv!19sChIJSzcecJVDOToRhSS3rzVlzSM?authuser=0&hl=en&rclk=1,"17.7112625,83.3030837"
Masjid e munawwarah,Mosque,"HWMF+HC8 Masjid e munawwarah, Pallapu Anandapuram, Andhra Pradesh 531055",,HWMF+HC8,Pallapu Anandapuram,531055,Andhra Pradesh,IN,https://www.google.com/maps/place/Masjid+e+munawwarah/data=!4m7!3m6!1s0x3a397543b293a567:0xcac40d77d45c90a2!8m2!3d17.5839015!4d82.9235806!16s%2Fg%2F11kjy4w4bk!19sChIJZ6WTskN1OToRopBc1HcNxMo?authuser=0&hl=en&rclk=1,"17.5839015,82.9235806"
Vadlapudi,,"Vadlapudi, Kurmannapalem, Visakhapatnam, Andhra Pradesh 530046","Vadlapudi, Kurmannapalem",,Visakhapatnam,,Andhra Pradesh,IN,https://www.google.com/maps/place/Vadlapudi/data=!4m7!3m6!1s0x3a3969264675083f:0x9ae9444914b41aa9!8m2!3d17.6887498!4d83.1774301!16s%2Fg%2F11gdr0jrlj!19sChIJPwh1RiZpOToRqRq0FElE6Zo?authuser=0&hl=en&rclk=1,"17.6887498,83.1774301"
