name,main_category,address,address_ward,address_street,address_city,address_postal_code,address_state,address_country_code,link,coordinates
Noorani Jama Masjid - nwrny jm` msjd,Mosque,"Noorani Jama Masjid - nwrny jm` msjd, Noorani St, Azad Nagar, Indore, Madhya Pradesh 452001",Azad Nagar,Noorani St,Indore,452001,Madhya Pradesh,IN,https://www.google.com/maps/place/Noorani+Jama+Masjid+-+%D9%86%D9%88%D8%B1%D8%A7%D9%86%DB%8C+%D8%AC%D8%A7%D9%85%D8%B9+%D9%85%D8%B3%D8%AC%D8%AF%E2%80%AD/data=!4m7!3m6!1s0x3962fcd854597769:0xaf2a0318b6a3bba2!8m2!3d22.6996738!4d75.8855989!16s%2Fg%2F1jkw5l82m!19sChIJaXdZVNj8YjkRorujthgDKq8?authuser=0&hl=en&rclk=1,"22.6996738,75.88559889999999"
Faizane Kanzul iman Masjid (DAWATEISLAMI INDIA),Mosque,"Faizane Kanzul iman Masjid (DAWATEISLAMI INDIA), 345, Chandan Nagar, Indore, Madhya Pradesh 452002",Chandan Nagar,345,Indore,452002,Madhya Pradesh,IN,https://www.google.com/maps/place/Faizane+Kanzul+iman+Masjid+%28DAWATEISLAMI+INDIA%29/data=!4m7!3m6!1s0x3962fdc613219b71:0x191137c8615dc55f!8m2!3d22.7098793!4d75.8253745!16s%2Fg%2F11f3b_5b70!19sChIJcZshE8b9YjkRX8VdYcg3ERk?authuser=0&hl=en&rclk=1,"22.709879299999997,75.8253745"
Saifee Nagar Bohra Masjid,Mosque,"Q2XV+FG5 Saifee Nagar Bohra Masjid, DSIIDC Industrial Area, Vijay Nagar, Bawana, Delhi, Indore, Delhi 110039","DSIIDC Industrial Area, Vijay Nagar, Bawana",Q2XV+FG5,"Delhi, Indore",110039,Delhi,IN,https://www.google.com/maps/place/Saifee+Nagar+Bohra+Masjid/data=!4m7!3m6!1s0x3962fcfee33f6ef7:0xf9f7b43ade9ac859!8m2!3d22.6962832!4d75.8565194!16s%2Fg%2F1td7rlnw!19sChIJ924_4_78YjkRWcia3jq09_k?authuser=0&hl=en&rclk=1,"22.6962832,75.8565194"
New Saifee Nagar Masjid - nyw syfy ngr msjd,Mosque,"MVV3+CW5 New Saifee Nagar Masjid - nyw syfy ngr msjd, Ashoka Colony, Nandanvan Colony, Indore, Madhya Pradesh 452009","Ashoka Colony, Nandanvan Colony",MVV3+CW5,Indore,452009,Madhya Pradesh,IN,https://www.google.com/maps/place/New+Saifee+Nagar+Masjid+-+%D9%86%DB%8C%D9%88+%D8%B3%DB%8C%D9%81%DB%8C+%D9%86%DA%AF%D8%B1+%D9%85%D8%B3%D8%AC%D8%AF%E2%80%AD/data=!4m7!3m6!1s0x3962fcf8bbee8cb7:0xfc603b63f6272fda!8m2!3d22.6935031!4d75.8548658!16s%2Fg%2F1tfwhsdj!19sChIJt4zuu_j8YjkR2i8n9mM7YPw?authuser=0&hl=en&rclk=1,"22.693503099999997,75.8548658"
Kacchi Masjid - khchWy msjd,Mosque,"Kacchi Masjid - khchWy msjd, 151, Ranipura Main Rd, Nayi Bagad, Siyaganj, Indore, Madhya Pradesh 452007","Nayi Bagad, Siyaganj","151, Ranipura Main Rd",Indore,452007,Madhya Pradesh,IN,https://www.google.com/maps/place/Kacchi+Masjid+-+%DA%A9%DA%86%D9%91%DB%8C+%D9%85%D8%B3%D8%AC%D8%AF%E2%80%AD/data=!4m7!3m6!1s0x3962fd0e67cfc5e1:0xe10f1cfd3346554b!8m2!3d22.7167786!4d75.8627867!16s%2Fg%2F11fx7vfvb0!19sChIJ4cXPZw79YjkRS1VGM_0cD-E?authuser=0&hl=en&rclk=1,"22.716778599999998,75.8627867"
Jama Masjid,Mosque,"Jama Masjid, ROOM 31 JAMA MASJID, Kunwar Mandli, Badwali Chowki, Indore, Madhya Pradesh 452002","Kunwar Mandli, Badwali Chowki",ROOM 31 JAMA MASJID,Indore,452002,Madhya Pradesh,IN,https://www.google.com/maps/place/Jama+Masjid/data=!4m7!3m6!1s0x3962fda07bda6ecb:0xa2b863bd33eeb8e9!8m2!3d22.7205824!4d75.8527845!16s%2Fg%2F11ckbwv1yb!19sChIJy27ae6D9YjkR6bjuM71juKI?authuser=0&hl=en&rclk=1,"22.720582399999998,75.8527845"
Masjid-e-Ahle Sunnat Wa Jamat Juma 01:25,Mosque,"Masjid-e-Ahle Sunnat Wa Jamat Juma 01:25, 1, Manik Bagh Rd, Transport Nagar, Indore, Madhya Pradesh 452014",Transport Nagar,"1, Manik Bagh Rd",Indore,452014,Madhya Pradesh,IN,https://www.google.com/maps/place/Masjid-e-Ahle+Sunnat+Wa+Jamat+Juma+01:25/data=!4m7!3m6!1s0x3962fcff9e0e845b:0xb227645d524b5f30!8m2!3d22.6969888!4d75.8544518!16s%2Fg%2F11c6cc9zsn!19sChIJW4QOnv_8YjkRMF9LUl1kJ7I?authuser=0&hl=en&rclk=1,"22.6969888,75.85445179999999"
Ahamed RAZA MASJID.,Mosque,"Ahamed RAZA MASJID., 119, Srinagar Kakad, Shree Nagar, Indore, Madhya Pradesh 452018","Srinagar Kakad, Shree Nagar",119,Indore,452018,Madhya Pradesh,IN,https://www.google.com/maps/place/Ahamed+RAZA+MASJID./data=!4m7!3m6!1s0x3962fd4bd681dce9:0xf550b0ca6186abbf!8m2!3d22.7300217!4d75.8942568!16s%2Fg%2F11c6ddcrbb!19sChIJ6dyB1kv9YjkRv6uGYcqwUPU?authuser=0&hl=en&rclk=1,"22.730021699999998,75.8942568"
Bilal Masjid (Juma 1:40pm) - msjdi byll,Mosque,"PVQR+HJJ Bilal Masjid (Juma 1:40pm) - msjdi byll, AB Rd, Choti Khajrani, Indore, Madhya Pradesh 452010",Choti Khajrani,"PVQR+HJJ, AB Rd",Indore,452010,Madhya Pradesh,IN,https://www.google.com/maps/place/Bilal+Masjid+%28Juma+1:40pm%29+-+%D9%85%D8%B3%D8%AC%D8%AF%D9%90+%D8%A8%DB%8C%D9%84%D8%A7%D9%84%E2%80%AD/data=!4m7!3m6!1s0x3962fd51d3d85045:0x1e521f2217892e2d!8m2!3d22.7389504!4d75.8915256!16s%2Fg%2F1q67qjxw5!19sChIJRVDY01H9YjkRLS6JFyIfUh4?authuser=0&hl=en&rclk=1,"22.7389504,75.8915256"
Multani Masjid,Mosque,"Multani Masjid, 30, Khajrana Square, Shree Nagar Extension, Multani Colony, Indore, Madhya Pradesh 452016","Shree Nagar Extension, Multani Colony","30, Khajrana Square",Indore,452016,Madhya Pradesh,IN,https://www.google.com/maps/place/Multani+Masjid/data=!4m7!3m6!1s0x3962e2b494538ff3:0xe3bf5f53b01091f7!8m2!3d22.7321148!4d75.9015122!16s%2Fg%2F11bzsstryp!19sChIJ849TlLTiYjkR95EQsFNfv-M?authuser=0&hl=en&rclk=1,"22.732114799999998,75.9015122"
Masjid - msjd,Mosque,"572, Masjid - msjd, Mahatma Gandhi Rd, Opposite Cypse Petrol Pump, Sanghi Colony, South Tukoganj, Indore, Madhya Pradesh 452001","Sanghi Colony, South Tukoganj","572, Mahatma Gandhi Rd, Opposite Cypse Petrol Pump",Indore,452001,Madhya Pradesh,IN,https://www.google.com/maps/place/Masjid+-+%D9%85%D8%B3%D8%AC%D8%AF%E2%80%AD/data=!4m7!3m6!1s0x3962fd15bc27f8bb:0x94a8bd4d5c812503!8m2!3d22.7210037!4d75.8749525!16s%2Fg%2F1z44z6cdv!19sChIJu_gnvBX9YjkRAyWBXE29qJQ?authuser=0&hl=en&rclk=1,"22.7210037,75.87495249999999"
"Markazi Masjid Ahle Hadees,Machli Bazar,Indore",Mosque,"PV73+X77 Markazi Masjid Ahle Hadees,Machli Bazar,Indore, Kadhav Ghat, Bombay Bazar, Indore, Madhya Pradesh 452007","Kadhav Ghat, Bombay Bazar",PV73+X77,Indore,452007,Madhya Pradesh,IN,"https://www.google.com/maps/place/Markazi+Masjid+Ahle+Hadees,Machli+Bazar,Indore/data=!4m7!3m6!1s0x3962fda77d8d5641:0x5903426849284a8c!8m2!3d22.7149241!4d75.8531783!16s%2Fg%2F11f2wpltz3!19sChIJQVaNfaf9YjkRjEooSWhCA1k?authuser=0&hl=en&rclk=1","22.714924099999998,75.8531783"
Fatma masjid - fTmh msjd,Mosque,"Fatma masjid - fTmh msjd, Bombay Bazaar, 71, Bombay Bazar, Indore, Madhya Pradesh 452007","Jangpura, Bombay Bazar","Bombay Bazaar, 71",Indore,452007,Madhya Pradesh,IN,https://www.google.com/maps/place/Fatma+masjid+-+%D9%81%D8%A7%D8%B7%D9%85%DB%81+%D9%85%D8%B3%D8%AC%D8%AF%E2%80%AD/data=!4m7!3m6!1s0x3962fda718c38bf7:0x1b1b2a1a790de30e!8m2!3d22.7154482!4d75.850923!16s%2Fg%2F11g726sfy2!19sChIJ94vDGKf9YjkRDuMNeRoqGxs?authuser=0&hl=en&rclk=1,"22.715448199999997,75.850923"
ammar nagar masjid,Mosque,"ammar nagar masjid, 62, Green Park Colony, Indore, Madhya Pradesh 452006",Green Park Colony,62,Indore,452006,Madhya Pradesh,IN,https://www.google.com/maps/place/ammar+nagar+masjid/data=!4m7!3m6!1s0x3962fdd05df2a0b3:0x7b5ccce68634251a!8m2!3d22.7065032!4d75.8160832!16s%2Fg%2F11d_9hlk8p!19sChIJs6DyXdD9YjkRGiU0hubMXHs?authuser=0&hl=en&rclk=1,"22.7065032,75.8160832"
Mukeripura Masjid - mkhrypwr msjd,Mosque,"PR8X+747 Mukeripura Masjid - mkhrypwr msjd, Malganj, Mukeri Pura, Indore, Madhya Pradesh 452002","Malganj, Mukeri Pura",PR8X+747,Indore,452002,Madhya Pradesh,IN,https://www.google.com/maps/place/Mukeripura+Masjid+-+%D9%85%DA%A9%D8%B1%DB%8C%D9%BE%D9%88%D8%B1%D8%A7+%D9%85%D8%B3%D8%AC%D8%AF%E2%80%AD/data=!4m7!3m6!1s0x3962fda6a6d42615:0xcd095eaf14219dd3!8m2!3d22.7156727!4d75.8477814!16s%2Fg%2F11g8djkq97!19sChIJFSbUpqb9YjkR050hFK9eCc0?authuser=0&hl=en&rclk=1,"22.7156727,75.8477814"
"Bilal Masjid Sham Nagar - bll msjd, shm ngr",Mosque,"MVW2+CQW Bilal Masjid Sham Nagar - bll msjd, shm ngr, Sham Nagar, Manik Bagh Rd, Nandanvan Colony, Indore, Madhya Pradesh 452014",Nandanvan Colony,"MVW2+CQW, Sham Nagar, Manik Bagh Rd",Indore,452014,Madhya Pradesh,IN,https://www.google.com/maps/place/Bilal+Masjid+Sham+Nagar+-+%D8%A8%D9%84%D8%A7%D9%84+%D9%85%D8%B3%D8%AC%D8%AF%D8%8C+%D8%B4%D8%A7%D9%85+%D9%86%DA%AF%D8%B1%E2%80%AD/data=!4m7!3m6!1s0x3962fc55a29d58a7:0x96187620ffc5a704!8m2!3d22.6961224!4d75.8519429!16s%2Fg%2F11g697k5z3!19sChIJp1idolX8YjkRBKfF_yB2GJY?authuser=0&hl=en&rclk=1,"22.6961224,75.8519429"
"Makka Masjid, Kankad - mkhWh msjd, khnkhrr",Mosque,"PVJV+CJV Makka Masjid, Kankad - mkhWh msjd, khnkhrr, Shree Nagar Main Colony, Shree Nagar, Indore, Madhya Pradesh 452018","Shree Nagar Main Colony, Shree Nagar",PVJV+CJV,Indore,452018,Madhya Pradesh,IN,"https://www.google.com/maps/place/Makka+Masjid,+Kankad+-+%D9%85%DA%A9%D9%91%DB%81+%D9%85%D8%B3%D8%AC%D8%AF%D8%8C+%DA%A9%D9%86%DA%A9%DA%91%E2%80%AD/data=!4m7!3m6!1s0x3962fd495fd69a11:0xf9792841db3e56e4!8m2!3d22.7311102!4d75.8940402!16s%2Fg%2F11c1nzbtf2!19sChIJEZrWX0n9YjkR5FY-20Eoefk?authuser=0&hl=en&rclk=1","22.7311102,75.89404019999999"
"Jama Masjid, Khizrabad jm`h msjd khDrabd",Mosque,"Jama Masjid, Khizrabad jm`h msjd khDrabd, Khizrabad Colony, Indore, Madhya Pradesh 452016",Khizrabad Colony,,Indore,452016,Madhya Pradesh,IN,"https://www.google.com/maps/place/Jama+Masjid,+Khizrabad+%D8%AC%D8%A7%D9%85%D8%B9%DB%81+%D9%85%D8%B3%D8%AC%D8%AF+%D8%AE%D8%B6%D8%B1%D8%A2%D8%A8%D8%A7%D8%AF%E2%80%AD/data=!4m7!3m6!1s0x3962e2b93d18af49:0x4187bbe0a24b01a9!8m2!3d22.7323905!4d75.9160283!16s%2Fg%2F11b76flx3_!19sChIJSa8YPbniYjkRqQFLouC7h0E?authuser=0&hl=en&rclk=1","22.732390499999998,75.9160283"
"Husani Masjid Azad Nagar - Hsny msjd, azd ngr",Mosque,"Husani Masjid Azad Nagar - Hsny msjd, azd ngr, 58, Sham Nagar, Azad Nagar, Indore, Madhya Pradesh 452001","Sham Nagar, Azad Nagar",58,Indore,452001,Madhya Pradesh,IN,https://www.google.com/maps/place/Husani+Masjid+Azad+Nagar+-+%D8%AD%D8%B3%D9%86%DB%8C+%D9%85%D8%B3%D8%AC%D8%AF%D8%8C+%D8%A2%D8%B2%D8%A7%D8%AF+%D9%86%DA%AF%D8%B1%E2%80%AD/data=!4m7!3m6!1s0x3962fcda062626c3:0xabdf12b70643432f!8m2!3d22.696324!4d75.888023!16s%2Fg%2F11c2vr_rkq!19sChIJwyYmBtr8YjkRL0NDBrcS36s?authuser=0&hl=en&rclk=1,"22.696324,75.88802299999999"
CRP Line Masjid - sy ar py ly'yn msjd,Mosque,"CRP Line Masjid - sy ar py ly'yn msjd, Crp Line, South Tukoganj, MP-4, CRP Line, Indore, Madhya Pradesh 452001",CRP Line,"Crp Line, South Tukoganj, MP-4",Indore,452001,Madhya Pradesh,IN,https://www.google.com/maps/place/CRP+Line+Masjid+-+%D8%B3%DB%8C+%D8%A2%D8%B1+%D9%BE%DB%8C+%D9%84%D8%A7%D8%A6%DB%8C%D9%86+%D9%85%D8%B3%D8%AC%D8%AF%E2%80%AD/data=!4m7!3m6!1s0x3962fd3cfd0fa26b:0x1e10d6d0126447ef!8m2!3d22.7161077!4d75.8796474!16s%2Fg%2F11c6f0x95y!19sChIJa6IP_Tz9YjkR70dkEtDWEB4?authuser=0&hl=en&rclk=1,"22.7161077,75.8796474"
"Al Noorani Mosque, Bhamori Indore",Mosque,"Al Noorani Mosque, Bhamori Indore, Malay Corporate, G-3,C-11, New Dewas Rd, Adarsh Mechanic Nagar, Sheetal Nagar, Badi Bhamori, Indore, Madhya Pradesh 452010","Adarsh Mechanic Nagar, Sheetal Nagar, Badi Bhamori","Malay Corporate, G-3,C-11, New Dewas Rd",Indore,452010,Madhya Pradesh,IN,"https://www.google.com/maps/place/Al+Noorani+Mosque,+Bhamori+Indore/data=!4m7!3m6!1s0x3962fd57744fe7db:0xa990189260ef84fa!8m2!3d22.7464907!4d75.8894734!16s%2Fg%2F11c1qqjxvs!19sChIJ2-dPdFf9YjkR-oTvYJIYkKk?authuser=0&hl=en&rclk=1","22.7464907,75.8894734"
Masjid - msjd,Mosque,"7/8, Masjid - msjd, Pardesipura, Indore, Madhya Pradesh 452011",Pardesipura,7/8,Indore,452011,Madhya Pradesh,IN,https://www.google.com/maps/place/Masjid+-+%D9%85%D8%B3%D8%AC%D8%AF%E2%80%AD/data=!4m7!3m6!1s0x3962fd623830a9eb:0x73b5987f41b6f4bc!8m2!3d22.7457189!4d75.8695015!16s%2Fg%2F11bbrg235s!19sChIJ66kwOGL9YjkRvPS2QX-YtXM?authuser=0&hl=en&rclk=1,"22.7457189,75.8695015"
Umme Haani Masjid - `mWy Hny msjd,Mosque,"Umme Haani Masjid - `mWy Hny msjd, N-37B, Shree Nagar Ext, Anoop Nagar, Indore, Madhya Pradesh 452011","Shree Nagar Ext, Anoop Nagar",N-37B,Indore,452011,Madhya Pradesh,IN,https://www.google.com/maps/place/Umme+Haani+Masjid+-+%D8%B9%D9%85%D9%91%DB%92+%D8%AD%D8%A7%D9%86%DB%8C+%D9%85%D8%B3%D8%AC%D8%AF%E2%80%AD/data=!4m7!3m6!1s0x3962fd4bfff06383:0x27a8ead7f2cfcd0a!8m2!3d22.7325302!4d75.8941039!16s%2Fg%2F11c2j3b08n!19sChIJg2Pw_0v9YjkRCs3P8tfqqCc?authuser=0&hl=en&rclk=1,"22.7325302,75.89410389999999"
Chhipa Bakhal Masjid - chhp bkhl msjd,Mosque,"53/1, Chhipa Bakhal Masjid - chhp bkhl msjd, 53/1, Chhipa Bakhal, Indore, Madhya Pradesh 452002",Chhipa Bakhal,"53/1, 53/1",Indore,452002,Madhya Pradesh,IN,https://www.google.com/maps/place/Chhipa+Bakhal+Masjid+-+%DA%86%DA%BE%D9%BE%D8%A7+%D8%A8%D8%A7%D8%AE%D9%84+%D9%85%D8%B3%D8%AC%D8%AF%E2%80%AD/data=!4m7!3m6!1s0x3962fda1a2e90e17:0x9768bf73013993e6!8m2!3d22.7204051!4d75.8491588!16s%2Fg%2F11bw3dqy6t!19sChIJFw7poqH9YjkR5pM5AXO_aJc?authuser=0&hl=en&rclk=1,"22.7204051,75.8491588"
Masjid Noor - msjdi nwr,Mosque,"Masjid Noor - msjdi nwr, 14/1, Gandhi Gram, Khajrana, Indore, Madhya Pradesh 452016","Gandhi Gram, Khajrana",14/1,Indore,452016,Madhya Pradesh,IN,https://www.google.com/maps/place/Masjid+Noor+-+%D9%85%D8%B3%D8%AC%D8%AF%D9%90+%D9%86%D9%88%D8%B1%E2%80%AD/data=!4m7!3m6!1s0x3962e2ba3b995f01:0x602b2b87571ef476!8m2!3d22.7353523!4d75.9133008!16s%2Fg%2F11c2lryg8d!19sChIJAV-ZO7riYjkRdvQeV4crK2A?authuser=0&hl=en&rclk=1,"22.7353523,75.9133008"
Pitha Bohra Masjid,Mosque,"PVC2+74Q Pitha Bohra Masjid, Ahilya Pura, Chhipa Bakhal, Ahilya Pura, Indore, Madhya Pradesh 452002","Chhipa Bakhal, Ahilya Pura","PVC2+74Q, Ahilya Pura",Indore,452002,Madhya Pradesh,IN,https://www.google.com/maps/place/Pitha+Bohra+Masjid/data=!4m7!3m6!1s0x3962fda1b2ed68e3:0x261941a2b4c9ad65!8m2!3d22.7207155!4d75.8503577!16s%2Fg%2F1pzrxnr6y!19sChIJ42jtsqH9YjkRZa3JtKJBGSY?authuser=0&hl=en&rclk=1,"22.7207155,75.8503577"
Quba Masjid - qb msjd,Mosque,"Quba Masjid - qb msjd, 183/C, Silver Colony, Ilyas Colony, Indore, Madhya Pradesh 452016","Silver Colony, Ilyas Colony",183/C,Indore,452016,Madhya Pradesh,IN,https://www.google.com/maps/place/Quba+Masjid+-+%D9%82%D8%A8%D8%A7+%D9%85%D8%B3%D8%AC%D8%AF%E2%80%AD/data=!4m7!3m6!1s0x3962e2be50f8603f:0x82bbc84bea2ba952!8m2!3d22.7326048!4d75.9207332!16s%2Fg%2F11c5_j3k0k!19sChIJP2D4UL7iYjkRUqkr6kvIu4I?authuser=0&hl=en&rclk=1,"22.7326048,75.9207332"
Masjid - msjd,Mosque,"PV8C+428 Masjid - msjd, Chhoti Gwaltoli Main Rd, Chhoti Gwaltoli, Indore, Madhya Pradesh 452001",Chhoti Gwaltoli,"PV8C+428, Chhoti Gwaltoli Main Rd",Indore,452001,Madhya Pradesh,IN,https://www.google.com/maps/place/Masjid+-+%D9%85%D8%B3%D8%AC%D8%AF%E2%80%AD/data=!4m7!3m6!1s0x3962fd10ce0958c1:0x2d4536334d284dae!8m2!3d22.7149565!4d75.8704253!16s%2Fg%2F11gd39vtyv!19sChIJwVgJzhD9YjkRrk0oTTM2RS0?authuser=0&hl=en&rclk=1,"22.7149565,75.8704253"
Bohra Masjid - Hasanji Nagar,Mosque,"Bohra Masjid - Hasanji Nagar, B74, Hasanji Nagar, Indore, Madhya Pradesh 453331",Hasanji Nagar,B74,Indore,453331,Madhya Pradesh,IN,https://www.google.com/maps/place/Bohra+Masjid+-+Hasanji+Nagar/data=!4m7!3m6!1s0x3962fbf8481d6195:0x5bf03c3c20556245!8m2!3d22.6476097!4d75.8166008!16s%2Fg%2F11ckkwjt7l!19sChIJlWEdSPj7YjkRRWJVIDw88Fs?authuser=0&hl=en&rclk=1,"22.6476097,75.8166008"
Juni Masjid (Markaz) - jwny msjd mrkhz,Mosque,"Juni Masjid (Markaz) - jwny msjd mrkhz, 34/1, Nayapura, Indore, Madhya Pradesh 452007",Nayapura,34/1,Indore,452007,Madhya Pradesh,IN,https://www.google.com/maps/place/Juni+Masjid+%28Markaz%29+-+%D8%AC%D9%88%D9%86%D9%8A+%D9%85%D8%B3%D8%AC%D8%AF+%D9%85%D8%B1%DA%A9%D8%B2%E2%80%AD/data=!4m7!3m6!1s0x3962fd6d5abd5029:0xb5e573cade12aba2!8m2!3d22.7251304!4d75.8658203!16s%2Fg%2F11dxdz9b5h!19sChIJKVC9Wm39YjkRoqsS3spz5bU?authuser=0&hl=en&rclk=1,"22.725130399999998,75.8658203"
Ya Rasool Allah Masjid,Mosque,"Ya Rasool Allah Masjid, 22-A,, 22-A, no name, Madina Nagar, Mathura Maidan, Indore, Madhya Pradesh 452001","Madina Nagar, Mathura Maidan","22-A,, 22-A, no name",Indore,452001,Madhya Pradesh,IN,https://www.google.com/maps/place/Ya+Rasool+Allah+Masjid/data=!4m7!3m6!1s0x3962fcd074e95d9b:0x3f850ca72cb0a686!8m2!3d22.6928164!4d75.8884984!16s%2Fg%2F11c44dtjzc!19sChIJm13pdND8YjkRhqawLKcMhT8?authuser=0&hl=en&rclk=1,"22.692816399999998,75.8884984"
Ayesha Masjid,Mosque,"Ayesha Masjid, Hina Palace, Khajrana, Indore, 9-A, Khajrana Main Rd, Deelip Nagar, Ashraf Nagar, Khajrana, Indore, Madhya Pradesh 452016","New Heena Palace Colony, Deelip Nagar, Ashraf Nagar, Khajrana","Hina Palace, Khajrana, Indore, 9-A, Khajrana Main Rd",Indore,452016,Madhya Pradesh,IN,https://www.google.com/maps/place/Ayesha+Masjid/data=!4m7!3m6!1s0x3962e2b84c1e0365:0xc5066dce7b1d0f07!8m2!3d22.7308576!4d75.9133822!16s%2Fg%2F11c4887lhl!19sChIJZQMeTLjiYjkRBw8de85tBsU?authuser=0&hl=en&rclk=1,"22.7308576,75.9133822"
"Bilal Masjid, Heena Colony, Khajrana",Mosque,"PWH8+J3G Bilal Masjid, Heena Colony, Khajrana, New Heena Palace Colony Rd, New Heena Palace Colony, Ashraf Nagar, Indore, Madhya Pradesh 452016","New Heena Palace Colony, Ashraf Nagar","PWH8+J3G, New Heena Palace Colony Rd",Indore,452016,Madhya Pradesh,IN,"https://www.google.com/maps/place/Bilal+Masjid,+Heena+Colony,+Khajrana/data=!4m7!3m6!1s0x3962e2b89b6b1c89:0xd96f4441e992522d!8m2!3d22.7290634!4d75.9152159!16s%2Fg%2F11c6zwzgl8!19sChIJiRxrm7jiYjkRLVKS6UFEb9k?authuser=0&hl=en&rclk=1","22.729063399999998,75.91521589999999"
Zakariya Masjid,Mosque,"PR7X+65H Zakariya Masjid, Tatpati Bakhal, Near, Kagdipura Rd, Indore, Madhya Pradesh 452002",Kagdipura,"PR7X+65H, Tatpati Bakhal, Near, Kagdipura Rd",Indore,452002,Madhya Pradesh,IN,https://www.google.com/maps/place/Zakariya+Masjid/data=!4m7!3m6!1s0x3962fda670b8febb:0x19df61ba381d9bde!8m2!3d22.7130578!4d75.847992!16s%2Fg%2F11c6vwjtsv!19sChIJu_64cKb9YjkR3psdOLph3xk?authuser=0&hl=en&rclk=1,"22.713057799999998,75.84799199999999"
Madarsa Hifjul Quraan and Masjid,Mosque,"MVRQ+46M Madarsa Hifjul Quraan and Masjid, kohenoor colony, Madina Nagar, Mathura Maidan, Indore, Madhya Pradesh 452001","kohenoor colony, Madina Nagar, Mathura Maidan",MVRQ+46M,Indore,452001,Madhya Pradesh,IN,https://www.google.com/maps/place/Madarsa+Hifjul+Quraan+and+Masjid/data=!4m7!3m6!1s0x3962fcc558570629:0x400a544b67bcdfc4!8m2!3d22.6903353!4d75.8880484!16s%2Fg%2F11cn181pvg!19sChIJKQZXWMX8YjkRxN-8Z0tUCkA?authuser=0&hl=en&rclk=1,"22.690335299999997,75.8880484"
Pakki Masjid - pkhWy msjd,Mosque,"Pakki Masjid - pkhWy msjd, 32/1, North Hathipala, Champa Bagh, Indore, Madhya Pradesh 452007","North Hathipala, Champa Bagh",32/1,Indore,452007,Madhya Pradesh,IN,https://www.google.com/maps/place/Pakki+Masjid+-+%D9%BE%DA%A9%D9%91%DB%8C+%D9%85%D8%B3%D8%AC%D8%AF%E2%80%AD/data=!4m7!3m6!1s0x3962fd0e4e0549a7:0x2193f6178a24cb0e!8m2!3d22.7155921!4d75.8628812!16s%2Fg%2F11c74g0ww_!19sChIJp0kFTg79YjkRDsskihf2kyE?authuser=0&hl=en&rclk=1,"22.7155921,75.86288119999999"
Jama Masjid Khajarana,Mosque,"Jama Masjid Khajarana, 613, Khajrana, Indore, Madhya Pradesh 452010",Khajrana,613,Indore,452010,Madhya Pradesh,IN,https://www.google.com/maps/place/Jama+Masjid+Khajarana/data=!4m7!3m6!1s0x3962e2b6ad1bdc53:0x3e5c691c252c1e7b!8m2!3d22.7334558!4d75.90643!16s%2Fg%2F11cn6ckwcm!19sChIJU9wbrbbiYjkRex4sJRxpXD4?authuser=0&hl=en&rclk=1,"22.733455799999998,75.90643"
Kadar Colony Masjid and Garden - qdr khlwny msjd yndd grddn,Mosque,"159KA, Kadar Colony Masjid and Garden - qdr khlwny msjd yndd grddn, 159KA, Shalimar Colony, Khajrana, Indore, Madhya Pradesh 452016","Shalimar Colony, Khajrana","159KA, 159KA",Indore,452016,Madhya Pradesh,IN,https://www.google.com/maps/place/Kadar+Colony+Masjid+and+Garden+-+%D9%82%D8%A7%D8%AF%D8%B1+%DA%A9%D8%A7%D9%84%D9%88%D9%86%DB%8C+%D9%85%D8%B3%D8%AC%D8%AF+%D8%A7%DB%8C%D9%86%DA%88+%DA%AF%D8%A7%D8%B1%DA%88%D9%86%E2%80%AD/data=!4m7!3m6!1s0x3962e2beab51cb09:0x6f8679e959b926b0!8m2!3d22.7343164!4d75.9171853!16s%2Fg%2F11ckqj5wpw!19sChIJCctRq77iYjkRsCa5Wel5hm8?authuser=0&hl=en&rclk=1,"22.734316399999997,75.9171853"
Badi masjid - brry msjd,Mosque,"PRFX+PWC Badi masjid - brry msjd, Juna Risala, Indore, Madhya Pradesh 452006",Juna Risala,PRFX+PWC,Indore,452006,Madhya Pradesh,IN,https://www.google.com/maps/place/Badi+masjid+-+%D8%A8%DA%91%DB%8C+%D9%85%D8%B3%D8%AC%D8%AF%E2%80%AD/data=!4m7!3m6!1s0x3962fd97dc1384e1:0x51953c915ba82969!8m2!3d22.7243009!4d75.8497754!16s%2Fg%2F11f5t47gq8!19sChIJ4YQT3Jf9YjkRaSmoW5E8lVE?authuser=0&hl=en&rclk=1,"22.7243009,75.8497754"
Ali Masjid Khajrana Indore,Mosque,"Ali Masjid Khajrana Indore, Sher Shah Suri Nagar, Indore, Madhya Pradesh 452016",Sher Shah Suri Nagar,,Indore,452016,Madhya Pradesh,IN,https://www.google.com/maps/place/Ali+Masjid+Khajrana+Indore/data=!4m7!3m6!1s0x3962e2bcb409b813:0xa189adc97b7ea627!8m2!3d22.7401838!4d75.9187155!16s%2Fg%2F11d_bjg06s!19sChIJE7gJtLziYjkRJ6Z-e8mtiaE?authuser=0&hl=en&rclk=1,"22.7401838,75.91871549999999"
Kalal Kui Ki Masjid - khll khwy'y khy msjd,Mosque,"PV66+75G Kalal Kui Ki Masjid - khll khwy'y khy msjd, Navlakha Rd, Mahal Kacheri, Indore, Madhya Pradesh 452007",Mahal Kacheri,"PV66+75G, Navlakha Rd",Indore,452007,Madhya Pradesh,IN,https://www.google.com/maps/place/Kalal+Kui+Ki+Masjid+-+%DA%A9%D9%84%D8%A7%D9%84+%DA%A9%D9%88%D8%A6%DB%8C+%DA%A9%DB%8C+%D9%85%D8%B3%D8%AC%D8%AF%E2%80%AD/data=!4m7!3m6!1s0x3962fd05ebbbee25:0x84dbf3181e2ffca9!8m2!3d22.7106986!4d75.8604453!16s%2Fg%2F11c65yw5vx!19sChIJJe676wX9YjkRqfwvHhjz24Q?authuser=0&hl=en&rclk=1,"22.7106986,75.8604453"
(nwry msjd wr mdrsh) Noori Masjid And Madarsa,Mosque,"PWP8+RMM (nwry msjd wr mdrsh) Noori Masjid And Madarsa, Dargah Main Rd, Sharjah Colony, Ashraf Nagar, Khajrana, Indore, Madhya Pradesh 452016","Sharjah Colony, Ashraf Nagar, Khajrana","PWP8+RMM, Dargah Main Rd",Indore,452016,Madhya Pradesh,IN,https://www.google.com/maps/place/%28%D9%86%D9%88%D8%B1%DB%8C+%D9%85%D8%B3%D8%AC%D8%AF+%D8%A7%D9%88%D8%B1+%D9%85%D8%AF%D8%B1%D8%B3%DB%81%29+Noori+Masjid+And+Madarsa%E2%80%AD/data=!4m7!3m6!1s0x3962e2bb84850f23:0x9f7489e352a6c0!8m2!3d22.7370907!4d75.9166673!16s%2Fg%2F11c5g_rrp9!19sChIJIw-FhLviYjkRwKZS44l0nwA?authuser=0&hl=en&rclk=1,"22.7370907,75.9166673"
Noorani Masjid - nwrny msjd,Mosque,"Noorani Masjid - nwrny msjd, Manglaya Sadak, Indore, Madhya Pradesh 453771",Manglaya Sadak,,Indore,453771,Madhya Pradesh,IN,https://www.google.com/maps/place/Noorani+Masjid+-+%D9%86%D9%88%D8%B1%D8%A7%D9%86%DB%8C+%D9%85%D8%B3%D8%AC%D8%AF%E2%80%AD/data=!4m7!3m6!1s0x39631d34fb85141b:0xf8549e2801de74d6!8m2!3d22.8058171!4d75.919112!16s%2Fg%2F11h22pfm6m!19sChIJGxSF-zQdYzkR1nTeASieVPg?authuser=0&hl=en&rclk=1,"22.8058171,75.919112"
Chawani Bazar Masjid - chhwny bzr msjd,Mosque,"Chawani Bazar Masjid - chhwny bzr msjd, Murai Mohalla, 99, Chhawni Rd,RNT Marg, Murai Mohalla, Chhawni, Indore, Madhya Pradesh 452001","Murai Mohalla, Chhawni","Murai Mohalla, 99, Chhawni Rd,RNT Marg",Indore,452001,Madhya Pradesh,IN,https://www.google.com/maps/place/Chawani+Bazar+Masjid+-+%DA%86%DA%BE%D8%A7%D9%88%D9%86%DB%8C+%D8%A8%D8%A7%D8%B2%D8%A7%D8%B1+%D9%85%D8%B3%D8%AC%D8%AF%E2%80%AD/data=!4m7!3m6!1s0x3962fd18bb81e94b:0xe70516226b3e825d!8m2!3d22.7103251!4d75.87566!16s%2Fg%2F11dxdc2jdt!19sChIJS-mBuxj9YjkRXYI-ayIWBec?authuser=0&hl=en&rclk=1,"22.7103251,75.87566"
Ahle Hadees Masjid - hl Hdyth msjd,Mosque,"MVR2+XHH Ahle Hadees Masjid - hl Hdyth msjd, Ashoka Colony, Nandanvan Colony, Indore, Madhya Pradesh 452009","Ashoka Colony, Nandanvan Colony",MVR2+XHH,Indore,452009,Madhya Pradesh,IN,https://www.google.com/maps/place/Ahle+Hadees+Masjid+-+%D8%A7%DB%81%D9%84+%D8%AD%D8%AF%DB%8C%D8%AB+%D9%85%D8%B3%D8%AC%D8%AF%E2%80%AD/data=!4m7!3m6!1s0x3962fc5671c71d45:0x9fb6c895a8a58599!8m2!3d22.6924429!4d75.8514753!16s%2Fg%2F11gblbls1p!19sChIJRR3HcVb8YjkRmYWlqJXItp8?authuser=0&hl=en&rclk=1,"22.6924429,75.85147529999999"
Masjid Ahmad And Madarsa Taalimul Qur'an va Salaat (Ahmad Nagar Masjid),Mosque,"Masjid Ahmad And Madarsa Taalimul Qur'an va Salaat (Ahmad Nagar Masjid), Ahmad Nagar Rd, SamratNagar, Parshvakunj, Khajrana, Indore, Madhya Pradesh 452016","SamratNagar, Parshvakunj, Khajrana",Ahmad Nagar Rd,Indore,452016,Madhya Pradesh,IN,https://www.google.com/maps/place/Masjid+Ahmad+And+Madarsa+Taalimul+Qur%27an+va+Salaat+%28Ahmad+Nagar+Masjid%29/data=!4m7!3m6!1s0x3962e2c07a32bad7:0x96daeabd7bd62fd1!8m2!3d22.728697!4d75.920742!16s%2Fg%2F11c6_hds3b!19sChIJ17oyesDiYjkR0S_We73q2pY?authuser=0&hl=en&rclk=1,"22.728697,75.92074199999999"
Masjid e Ahle Sunnat - msjdi hli sunWt,Mosque,"Masjid e Ahle Sunnat - msjdi hli sunWt, 108, Badri Baug Colony, Lokmanya Nagar, Indore, Madhya Pradesh 452001","Badri Baug Colony, Lokmanya Nagar",108,Indore,452001,Madhya Pradesh,IN,https://www.google.com/maps/place/Masjid+e+Ahle+Sunnat+-+%D9%85%D8%B3%D8%AC%D8%AF%D9%90+%D8%A7%DB%81%D9%84%D9%90+%D8%B3%D9%8F%D9%86%D9%91%D8%AA%E2%80%AD/data=!4m7!3m6!1s0x3962fc5680ff8c07:0x4a5203d3d4644ec3!8m2!3d22.6934746!4d75.8503158!16s%2Fg%2F11c6cf8s28!19sChIJB4z_gFb8YjkRw05k1NMDUko?authuser=0&hl=en&rclk=1,"22.6934746,75.85031579999999"
Subhani Sunni Masjid,Mosque,"MVPQ+HJG Subhani Sunni Masjid, Subhani Sunni Masjid, Ansari Park Colony, Pawan Puri,, Nemawar Rd, Indore, Madhya Pradesh 452001","Pavanpuri Colony, Palda Naka, Pawanpuri Colony, Palda","MVPQ+HJG, Subhani Sunni Masjid, Ansari Park Colony, Pawan Puri,, Nemawar Rd",Indore,452001,Madhya Pradesh,IN,https://www.google.com/maps/place/Subhani+Sunni+Masjid/data=!4m7!3m6!1s0x3962fccf44e909b9:0xe4b0b097b30b3992!8m2!3d22.6864451!4d75.8890794!16s%2Fg%2F11clyt0vxr!19sChIJuQnpRM_8YjkRkjkLs5ewsOQ?authuser=0&hl=en&rclk=1,"22.6864451,75.8890794"
Juna Pitha Masjid,Mosque,"Juna Pitha Masjid, 80, Ahilya Pura, Maharaja Tukoji Rao Holker Cloth Market, Indore, Madhya Pradesh 452002",Maharaja Tukoji Rao Holker Cloth Market,"80, Ahilya Pura",Indore,452002,Madhya Pradesh,IN,https://www.google.com/maps/place/Juna+Pitha+Masjid/data=!4m7!3m6!1s0x3962fda04532e2e5:0x5cc7fdea683b0596!8m2!3d22.7206609!4d75.8513373!16s%2Fg%2F1hm6cwhcq!19sChIJ5eIyRaD9YjkRlgU7aOr9x1w?authuser=0&hl=en&rclk=1,"22.7206609,75.8513373"
Masjid-e-Ala Hazrat,Mosque,"PWJC+VM3 Masjid-e-Ala Hazrat, Ilyas Colony, 183/C, Ilyas Colony, Indore, Madhya Pradesh 452016","Silver Colony, Ilyas Colony","PWJC+VM3, Ilyas Colony, 183/C",Indore,452016,Madhya Pradesh,IN,https://www.google.com/maps/place/Masjid-e-Ala+Hazrat/data=!4m7!3m6!1s0x3962e2bfb3150915:0x5c552b450aa3d963!8m2!3d22.7320859!4d75.9212133!16s%2Fg%2F11g8nkhp37!19sChIJFQkVs7_iYjkRY9mjCkUrVVw?authuser=0&hl=en&rclk=1,"22.732085899999998,75.92121329999999"
Minar Masjid,Mosque,"Minar Masjid, 128, Jawahar Marg, Sanghvi Market, Kadhav Ghat, Jawahar Marg, Sanghvi Market, Kadhav Ghat, Bombay Bazar, Indore, Madhya Pradesh 452007","Sanghvi Market, Kadhav Ghat, Bombay Bazar","128, Jawahar Marg, Sanghvi Market, Kadhav Ghat, Jawahar Marg",Indore,452007,Madhya Pradesh,IN,https://www.google.com/maps/place/Minar+Masjid/data=!4m7!3m6!1s0x3962fda717f014e3:0x3137fae2394e247d!8m2!3d22.7155484!4d75.8512569!16s%2Fg%2F11dfgw8nd9!19sChIJ4xTwF6f9YjkRfSROOeL6NzE?authuser=0&hl=en&rclk=1,"22.7155484,75.8512569"
Mohammadi Masjid - mHmdy msjd,Mosque,"Mohammadi Masjid - mHmdy msjd, 63, Green Park Colony, Indore, Madhya Pradesh 452006",Green Park Colony,63,Indore,452006,Madhya Pradesh,IN,https://www.google.com/maps/place/Mohammadi+Masjid+-+%D9%85%D8%AD%D9%85%D8%AF%DB%8C+%D9%85%D8%B3%D8%AC%D8%AF%E2%80%AD/data=!4m7!3m6!1s0x3962fdd9981c3961:0xf6548b55003fa454!8m2!3d22.7098358!4d75.8112925!16s%2Fg%2F11c6ls_45h!19sChIJYTkcmNn9YjkRVKQ_AFWLVPY?authuser=0&hl=en&rclk=1,"22.7098358,75.8112925"
Masjid Fatma msjd,Mosque,"PWQ9+X4H Masjid Fatma msjd, B Habib colony, Jhalariya Rd, Khajrana, Indore, Madhya Pradesh 452016",Khajrana,"PWQ9+X4H, B Habib colony, Jhalariya Rd",Indore,452016,Madhya Pradesh,IN,https://www.google.com/maps/place/Masjid+Fatma+%D9%85%D8%B3%D8%AC%D8%AF%E2%80%AD/data=!4m7!3m6!1s0x3962e2bcafac1f1d:0xb7300180c88a7b6f!8m2!3d22.7399429!4d75.9178625!16s%2Fg%2F11c1s3c8k_!19sChIJHR-sr7ziYjkRb3uKyIABMLc?authuser=0&hl=en&rclk=1,"22.7399429,75.9178625"
Kaali Masjid - khly msjd,Mosque,"PRFW+9C6 Kaali Masjid - khly msjd, Shankar Ganj, Indore, Madhya Pradesh 452006",Shankar Ganj,PRFW+9C6,Indore,452006,Madhya Pradesh,IN,https://www.google.com/maps/place/Kaali+Masjid+-+%DA%A9%D8%A7%D9%84%DB%8C+%D9%85%D8%B3%D8%AC%D8%AF%E2%80%AD/data=!4m7!3m6!1s0x3962fd9898760bab:0x12adc5ac6a2235e4!8m2!3d22.7234225!4d75.8460189!16s%2Fg%2F124ynk198!19sChIJqwt2mJj9YjkR5DUiaqzFrRI?authuser=0&hl=en&rclk=1,"22.723422499999998,75.84601889999999"
Masjid Jamiyate Ahle Hadees,Mosque,"Masjid Jamiyate Ahle Hadees, Nake Wala Rd, Chandan Nagar, Indore, Madhya Pradesh 452002",Chandan Nagar,Nake Wala Rd,Indore,452002,Madhya Pradesh,IN,https://www.google.com/maps/place/Masjid+Jamiyate+Ahle+Hadees/data=!4m7!3m6!1s0x3962fdc87f328f53:0x7956928311f7f185!8m2!3d22.7089818!4d75.8275998!16s%2Fg%2F11cssxcwq6!19sChIJU48yf8j9YjkRhfH3EYOSVnk?authuser=0&hl=en&rclk=1,"22.7089818,75.8275998"
Daudi Masjid,Mosque,"PWJ9+GH4 Daudi Masjid, daudi nagar, Daudi Nagar, Aman Nagar, Khajrana, Indore, Madhya Pradesh 452016","Daudi Nagar, Aman Nagar, Khajrana","PWJ9+GH4, daudi nagar",Indore,452016,Madhya Pradesh,IN,https://www.google.com/maps/place/Daudi+Masjid/data=!4m7!3m6!1s0x3962e2bf19a6dc71:0x16221e49f52de0c4!8m2!3d22.7312729!4d75.9189649!16s%2Fg%2F11c1xq9j0z!19sChIJcdymGb_iYjkRxOAt9UkeIhY?authuser=0&hl=en&rclk=1,"22.7312729,75.91896489999999"
Masjid Omer - msjdi umyr,Mosque,"Masjid Omer - msjdi umyr, 140, Sector I, Green Park Colony, Indore, Madhya Pradesh 452006","Sector I, Green Park Colony",140,Indore,452006,Madhya Pradesh,IN,https://www.google.com/maps/place/Masjid+Omer+-+%D9%85%D8%B3%D8%AC%D8%AF%D9%90+%D8%A7%D9%8F%D9%85%DB%8C%D8%B1%E2%80%AD/data=!4m7!3m6!1s0x3962fe780787fb03:0x526ac5e2b66e5f55!8m2!3d22.7066481!4d75.8069!16s%2Fg%2F11cjkw4jz8!19sChIJA_uHB3j-YjkRVV9utuLFalI?authuser=0&hl=en&rclk=1,"22.7066481,75.8069"
Ya Ali Masjid,Mosque,"Ya Ali Masjid, 5N, Sector I, Green Park Colony, Indore, Madhya Pradesh 452006","Sector I, Green Park Colony",5N,Indore,452006,Madhya Pradesh,IN,https://www.google.com/maps/place/Ya+Ali+Masjid/data=!4m7!3m6!1s0x3962fdd85c8ba533:0xfa2b65d44cfa9ee7!8m2!3d22.7094547!4d75.8086459!16s%2Fg%2F11g6px72zq!19sChIJM6WLXNj9YjkR5576TNRlK_o?authuser=0&hl=en&rclk=1,"22.7094547,75.8086459"
Masjid e Badremillt Jamia Ghausiya Garib Nawaz Indore,Mosque,"PWMG+95Q Masjid e Badremillt Jamia Ghausiya Garib Nawaz Indore, Ilyas Colony Rd, Khajrana, Indore, Madhya Pradesh 452016",Khajrana,"PWMG+95Q, Ilyas Colony Rd",Indore,452016,Madhya Pradesh,IN,https://www.google.com/maps/place/Masjid+e+Badremillt+Jamia+Ghausiya+Garib+Nawaz+Indore/data=!4m7!3m6!1s0x3962e295b12375b5:0xae7f7e292aa750b6!8m2!3d22.7334691!4d75.9254935!16s%2Fg%2F11g7z0d1h9!19sChIJtXUjsZXiYjkRtlCnKil-f64?authuser=0&hl=en&rclk=1,"22.7334691,75.9254935"
Masjid ya Hussain,Mosque,"PWM9+9QR Masjid ya Hussain, Silver Colony, Kadar Colony, Indore, Madhya Pradesh 452016","Silver Colony, Kadar Colony",PWM9+9QR,Indore,452016,Madhya Pradesh,IN,https://www.google.com/maps/place/Masjid+ya+Hussain/data=!4m7!3m6!1s0x3962e2be92920f3d:0x10e7ca72d425fc6c!8m2!3d22.7334966!4d75.9193968!16s%2Fg%2F11gfjdfn6f!19sChIJPQ-Skr7iYjkRbPwl1HLK5xA?authuser=0&hl=en&rclk=1,"22.7334966,75.9193968"
Khankah-e-Ashrafiya Sunni Masjid or Ruhani Markaz,Mosque,"Khankah-e-Ashrafiya Sunni Masjid or Ruhani Markaz, 26, Ashrafi Nagar Colony, Khudabaksha Colony, Khajrana, Indore, Madhya Pradesh 452016","Ashrafi Nagar Colony, Khudabaksha Colony, Khajrana",26,Indore,452016,Madhya Pradesh,IN,https://www.google.com/maps/place/Khankah-e-Ashrafiya+Sunni+Masjid+or+Ruhani+Markaz/data=!4m7!3m6!1s0x3962e2a2824ba6d7:0x41fc04edc3caf610!8m2!3d22.7435001!4d75.923063!16s%2Fg%2F11c7160jh3!19sChIJ16ZLgqLiYjkREPbKw-0E_EE?authuser=0&hl=en&rclk=1,"22.7435001,75.923063"
Naya Pitha Masjid - ny ptth msjd,Mosque,"Naya Pitha Masjid - ny ptth msjd, Naya Pittha Near 452002, Bombay Bazar, Indore, Madhya Pradesh 452007",Bombay Bazar,Naya Pittha Near 452002,Indore,452007,Madhya Pradesh,IN,https://www.google.com/maps/place/Naya+Pitha+Masjid+-+%D9%86%DB%8C%D8%A7+%D9%BE%D9%B9%DA%BE%D8%A7+%D9%85%D8%B3%D8%AC%D8%AF%E2%80%AD/data=!4m7!3m6!1s0x3962fda652d8ec9b:0x5e8820f64cd13159!8m2!3d22.713526!4d75.8511754!16s%2Fg%2F11g8pmv3xd!19sChIJm-zYUqb9YjkRWTHRTPYgiF4?authuser=0&hl=en&rclk=1,"22.713525999999998,75.8511754"
Bohra Masjid Malharganj,Mosque,"Bohra Masjid Malharganj, 14-22, Kila Rd, Ram Ganj, Malharganj, Indore, Madhya Pradesh 452002","Ram Ganj, Malharganj","14-22, Kila Rd",Indore,452002,Madhya Pradesh,IN,https://www.google.com/maps/place/Bohra+Masjid+Malharganj/data=!4m7!3m6!1s0x3962fda2479b200f:0xe9591d4b03c119fa!8m2!3d22.7203819!4d75.8460819!16s%2Fg%2F11c563_dt_!19sChIJDyCbR6L9YjkR-hnBA0sdWek?authuser=0&hl=en&rclk=1,"22.7203819,75.8460819"
"Mustafa Raza Masjid, Mewati Mohalla",Mosque,"PVC7+X4H Mustafa Raza Masjid, Mewati Mohalla, Kachi Mohalla, Indore GPO, Indore, Madhya Pradesh 452007","Kachi Mohalla, Indore GPO",PVC7+X4H,Indore,452007,Madhya Pradesh,IN,"https://www.google.com/maps/place/Mustafa+Raza+Masjid,+Mewati+Mohalla/data=!4m7!3m6!1s0x3962fd579c9f6609:0xb57f41b6283027b9!8m2!3d22.7224314!4d75.8628645!16s%2Fg%2F11g0zrn1f_!19sChIJCWafnFf9YjkRuScwKLZBf7U?authuser=0&hl=en&rclk=1","22.722431399999998,75.8628645"
Muhammadi Masjid - mHmdy msjd,Mosque,"PWQ5+5JX Muhammadi Masjid - mHmdy msjd, Khajrana, Indore, Madhya Pradesh 452016",Khajrana,PWQ5+5JX,Indore,452016,Madhya Pradesh,IN,https://www.google.com/maps/place/Muhammadi+Masjid+-+%D9%85%D8%AD%D9%85%D8%AF%DB%8C+%D9%85%D8%B3%D8%AC%D8%AF%E2%80%AD/data=!4m7!3m6!1s0x3962e2b1927b2aa5:0xcc71da693d7b6601!8m2!3d22.7379975!4d75.9091159!16s%2Fg%2F11b_263h88!19sChIJpSp7krHiYjkRAWZ7PWnaccw?authuser=0&hl=en&rclk=1,"22.7379975,75.9091159"
NOORI MASJID - nwry msjd,Mosque,"PV75+PH9 NOORI MASJID - nwry msjd, noori masjid, Kabutar Khana, Indore, Madhya Pradesh 452007","noori masjid, Kabutar Khana",PV75+PH9,Indore,452007,Madhya Pradesh,IN,https://www.google.com/maps/place/NOORI+MASJID+-+%D9%86%D9%88%D8%B1%DB%8C+%D9%85%D8%B3%D8%AC%D8%AF%E2%80%AD/data=!4m7!3m6!1s0x3962fd08d3abe6e7:0x733e578cd8bb7896!8m2!3d22.7142786!4d75.858994!16s%2Fg%2F11gd66zyg3!19sChIJ5-ar0wj9YjkRlni72IxXPnM?authuser=0&hl=en&rclk=1,"22.7142786,75.858994"
Masjid,Mosque,"QWC3+VGV Masjid, Dewas Naka, Lasudia Mori, Indore, Madhya Pradesh 453771","Dewas Naka, Lasudia Mori",QWC3+VGV,Indore,453771,Madhya Pradesh,IN,https://www.google.com/maps/place/Masjid/data=!4m7!3m6!1s0x39631d4a4683a47b:0x823e18f82289a88e!8m2!3d22.7722409!4d75.9037986!16s%2Fg%2F11f3jw455n!19sChIJe6SDRkodYzkRjqiJIvgYPoI?authuser=0&hl=en&rclk=1,"22.7722409,75.9037986"
Bade Masjid (Ahle Sunnat Wal Jamaat),Mosque,"PV73+V2J Bade Masjid (Ahle Sunnat Wal Jamaat), Kadhav Ghat, Bombay Bazar, Indore, Madhya Pradesh 452007","Kadhav Ghat, Bombay Bazar",PV73+V2J,Indore,452007,Madhya Pradesh,IN,https://www.google.com/maps/place/Bade+Masjid+%28Ahle+Sunnat+Wal+Jamaat%29/data=!4m7!3m6!1s0x3962fda770dd0abd:0x6fc608aae319582f!8m2!3d22.7147047!4d75.8525219!16s%2Fg%2F11fy5kv8nf!19sChIJvQrdcKf9YjkRL1gZ46oIxm8?authuser=0&hl=en&rclk=1,"22.7147047,75.8525219"
Niche Wali Masjid - nychy wly msjd,Mosque,"PV86+6C2 Niche Wali Masjid - nychy wly msjd, South Toda, Indore, Madhya Pradesh 452007",South Toda,PV86+6C2,Indore,452007,Madhya Pradesh,IN,https://www.google.com/maps/place/Niche+Wali+Masjid+-+%D9%86%DB%8C%DA%86%DB%92+%D9%88%D8%A7%D9%84%DB%8C+%D9%85%D8%B3%D8%AC%D8%AF%E2%80%AD/data=!4m7!3m6!1s0x3962fd0ee6833b85:0xb84769065b49da5!8m2!3d22.7155219!4d75.8610057!16s%2Fg%2F11fzfbp2h2!19sChIJhTuD5g79YjkRpZ20ZZB2hAs?authuser=0&hl=en&rclk=1,"22.7155219,75.86100569999999"
Fatima Masjid,Mosque,"MVRM+WWQ Fatima Masjid, Madina Nagar, Azad Nagar, Indore, Madhya Pradesh 452001","Madina Nagar, Azad Nagar",MVRM+WWQ,Indore,452001,Madhya Pradesh,IN,https://www.google.com/maps/place/Fatima+Masjid/data=!4m7!3m6!1s0x3962fcdb22701eff:0xc8bb082c3bc6fb6c!8m2!3d22.6923369!4d75.8848523!16s%2Fg%2F11hcdv2kx9!19sChIJ_x5wItv8YjkRbPvGOywIu8g?authuser=0&hl=en&rclk=1,"22.692336899999997,75.88485229999999"
Barkaati Masjid Indore Barkaati Foundation,Mosque,"Barkaati Masjid Indore Barkaati Foundation, Ilyas Colony, 53, Ilyas Colony, Khajrana, Indore, Madhya Pradesh 452016","Ilyas Colony, Khajrana","Ilyas Colony, 53",Indore,452016,Madhya Pradesh,IN,https://www.google.com/maps/place/Barkaati+Masjid+Indore+Barkaati+Foundation/data=!4m7!3m6!1s0x3962e295df94daa9:0xab0ca631246e480!8m2!3d22.735211!4d75.924643!16s%2Fg%2F11g9vp7pz3!19sChIJqdqU35XiYjkRgORGEmPKsAo?authuser=0&hl=en&rclk=1,"22.735211,75.924643"
Masjid Pinjara Bakhal,Mosque,"PR7X+PX5 Masjid Pinjara Bakhal, Chouthmal Colony, Bombay Bazar, Indore, Madhya Pradesh 452007","Chouthmal Colony, Bombay Bazar",PR7X+PX5,Indore,452007,Madhya Pradesh,IN,https://www.google.com/maps/place/Masjid+Pinjara+Bakhal/data=!4m7!3m6!1s0x3962fdaa74496451:0x7288c6533a5ec35e!8m2!3d22.7142685!4d75.8499834!16s%2Fg%2F11g10l9wtk!19sChIJUWRJdKr9YjkRXsNeOlPGiHI?authuser=0&hl=en&rclk=1,"22.7142685,75.8499834"
Khwaja Masjid - khwjh msjd,Mosque,"PWJ7+FCP Khwaja Masjid - khwjh msjd, Khajrana Main Rd, New Heena Palace Colony, Dilip Nagar, Ashraf Nagar, Indore, Madhya Pradesh 452016","New Heena Palace Colony, Dilip Nagar, Ashraf Nagar","PWJ7+FCP, Khajrana Main Rd",Indore,452016,Madhya Pradesh,IN,https://www.google.com/maps/place/Khwaja+Masjid+-+%D8%AE%D9%88%D8%A7%D8%AC%DB%81+%D9%85%D8%B3%D8%AC%D8%AF%E2%80%AD/data=!4m7!3m6!1s0x3962e2b84d742863:0x4faffab8a6caef9c!8m2!3d22.7312172!4d75.9135921!16s%2Fg%2F11fxvfvvw4!19sChIJYyh0TbjiYjkRnO_Kprj6r08?authuser=0&hl=en&rclk=1,"22.7312172,75.9135921"
Masjid-e-Talimul Iman,Mosque,"Masjid-e-Talimul Iman, 38/2, CPWD Colony, Azad Nagar, Indore, Madhya Pradesh 452001","CPWD Colony, Azad Nagar",38/2,Indore,452001,Madhya Pradesh,IN,https://www.google.com/maps/place/Masjid-e-Talimul+Iman/data=!4m7!3m6!1s0x3962fcd7616beae3:0xa4894394daf87708!8m2!3d22.6988285!4d75.8885054!16s%2Fg%2F11c6ldjbrt!19sChIJ4-prYdf8YjkRCHf42pRDiaQ?authuser=0&hl=en&rclk=1,"22.698828499999998,75.8885054"
Hathi Khana Masjid - hthy khnh msjd,Mosque,"PV64+577 Hathi Khana Masjid - hthy khnh msjd, Milat Nagar, Moti Tabela, Indore, Madhya Pradesh 452007","Milat Nagar, Moti Tabela",PV64+577,Indore,452007,Madhya Pradesh,IN,https://www.google.com/maps/place/Hathi+Khana+Masjid+-+%DB%81%D8%A7%D8%AA%DA%BE%DB%8C+%D8%AE%D8%A7%D9%86%DB%81+%D9%85%D8%B3%D8%AC%D8%AF%E2%80%AD/data=!4m7!3m6!1s0x3962fd1d53decbf1:0x728e44af6ff0f5c8!8m2!3d22.710423!4d75.8556699!16s%2Fg%2F11f7gyj76f!19sChIJ8cveUx39YjkRyPXwb69EjnI?authuser=0&hl=en&rclk=1,"22.710423,75.8556699"
Sadar Bazar Masjid,Mosque,"PVH2+WFC Sadar Bazar Masjid, BSF, Indore, Madhya Pradesh 452007",BSF,PVH2+WFC,Indore,452007,Madhya Pradesh,IN,https://www.google.com/maps/place/Sadar+Bazar+Masjid/data=!4m7!3m6!1s0x3962fdcabcf81b75:0x7306ddf817278f91!8m2!3d22.7298232!4d75.8511366!16s%2Fg%2F11hdkvwsj8!19sChIJdRv4vMr9YjkRkY8nF_jdBnM?authuser=0&hl=en&rclk=1,"22.7298232,75.85113659999999"
Masuda Masjid,Mosque,"PWQ7+985 Masuda Masjid, Baba Mansa Nagar, Baba Farid Nagar, Khajrana, Indore, Madhya Pradesh 452016","Baba Mansa Nagar, Baba Farid Nagar, Khajrana",PWQ7+985,Indore,452016,Madhya Pradesh,IN,https://www.google.com/maps/place/Masuda+Masjid/data=!4m7!3m6!1s0x3962e2bae96a1d03:0xd736359d9635c74e!8m2!3d22.738382!4d75.9133665!16s%2Fg%2F11gf8g54_s!19sChIJAx1q6briYjkRTsc1lp01Ntc?authuser=0&hl=en&rclk=1,"22.738381999999998,75.9133665"
Noor Masjid - nwr msjd,Mosque,"Noor Masjid - nwr msjd, 11, Sirpur, Indore, Madhya Pradesh 452013",Sirpur,11,Indore,452013,Madhya Pradesh,IN,https://www.google.com/maps/place/Noor+Masjid+-+%D9%86%D9%88%D8%B1+%D9%85%D8%B3%D8%AC%D8%AF%E2%80%AD/data=!4m7!3m6!1s0x3962fdce4ae8134b:0x5f39df00e3710e30!8m2!3d22.7054182!4d75.8201165!16s%2Fg%2F11dfkn97r0!19sChIJSxPoSs79YjkRMA5x4wDfOV8?authuser=0&hl=en&rclk=1,"22.7054182,75.8201165"
MOHAMMADI MASJID (MARKAZ),Mosque,"MOHAMMADI MASJID (MARKAZ), Aam Wala Rd, Chandan Nagar, Indore, Madhya Pradesh 452002",Chandan Nagar,Aam Wala Rd,Indore,452002,Madhya Pradesh,IN,https://www.google.com/maps/place/MOHAMMADI+MASJID+%28MARKAZ%29/data=!4m7!3m6!1s0x3962fd58f0ef3ba9:0x86ffa1071444f26e!8m2!3d22.7100442!4d75.8264129!16s%2Fg%2F11gv0qg7qc!19sChIJqTvv8Fj9YjkRbvJEFAeh_4Y?authuser=0&hl=en&rclk=1,"22.7100442,75.8264129"
Masjid Garib Nawaz - msjd Gryb nwz,Mosque,"PRRG+9QQ Masjid Garib Nawaz - msjd Gryb nwz, Sarneshwar Mahadev Vandan Nagar, Indore, Madhya Pradesh 452006",Sarneshwar Mahadev Vandan Nagar,PRRG+9QQ,Indore,452006,Madhya Pradesh,IN,https://www.google.com/maps/place/Masjid+Garib+Nawaz+-+%D9%85%D8%B3%D8%AC%D8%AF+%D8%BA%D8%B1%DB%8C%D8%A8+%D9%86%D9%88%D8%A7%D8%B2%E2%80%AD/data=!4m7!3m6!1s0x3962fd9da6602b47:0xab0179a1c8d21030!8m2!3d22.7409612!4d75.8269702!16s%2Fg%2F11ghsd8v1f!19sChIJRytgpp39YjkRMBDSyKF5Aas?authuser=0&hl=en&rclk=1,"22.740961199999997,75.82697019999999"
Masjid Chamda Godam,Mosque,"PVF6+JXR Masjid Chamda Godam, Jail Rd, Devi Ahilya Marg, Chimanbagh Square, Usha Pathak, Indore GPO, Indore, Madhya Pradesh 452001","Chimanbagh Square, Usha Pathak, Indore GPO","PVF6+JXR, Jail Rd, Devi Ahilya Marg",Indore,452001,Madhya Pradesh,IN,https://www.google.com/maps/place/Masjid+Chamda+Godam/data=!4m7!3m6!1s0x3962fd72d468d04f:0x6e7d9a8ea8b8ee7f!8m2!3d22.7241216!4d75.8624028!16s%2Fg%2F1q674ty4q!19sChIJT9Bo1HL9YjkRf-64qI6afW4?authuser=0&hl=en&rclk=1,"22.7241216,75.8624028"
"Baba ki Bagh Kadri Masjid - bb khy bG, qdry msjd",Mosque,"PWP5+QH7 Baba ki Bagh Kadri Masjid - bb khy bG, qdry msjd, Khajrana, Indore, Madhya Pradesh 452016",Khajrana,PWP5+QH7,Indore,452016,Madhya Pradesh,IN,https://www.google.com/maps/place/Baba+ki+Bagh+Kadri+Masjid+-+%D8%A8%D8%A7%D8%A8%D8%A7+%DA%A9%DB%8C+%D8%A8%D8%A7%D8%BA%D8%8C+%D9%82%D8%A7%D8%AF%D8%B1%DB%8C+%D9%85%D8%B3%D8%AC%D8%AF%E2%80%AD/data=!4m7!3m6!1s0x3962e2b055dbdad3:0x523c1eeb859e56cc!8m2!3d22.7369182!4d75.9089167!16s%2Fg%2F11gd216thz!19sChIJ09rbVbDiYjkRzFaehesePFI?authuser=0&hl=en&rclk=1,"22.736918199999998,75.90891669999999"
Barkat Masjid - brkht msjd,Mosque,"Barkat Masjid - brkht msjd, 310, Chandan Nagar, Indore, Madhya Pradesh 452006",Chandan Nagar,310,Indore,452006,Madhya Pradesh,IN,https://www.google.com/maps/place/Barkat+Masjid+-+%D8%A8%D8%B1%DA%A9%D8%AA+%D9%85%D8%B3%D8%AC%D8%AF%E2%80%AD/data=!4m7!3m6!1s0x3962fdc53fd1cb2b:0xf530004baec0eef9!8m2!3d22.7106968!4d75.8205047!16s%2Fg%2F11fxb8p8yv!19sChIJK8vRP8X9YjkR-e7ArksAMPU?authuser=0&hl=en&rclk=1,"22.710696799999997,75.8205047"
Masjid Gandhi Nagar - msjd gndhy ngr,Mosque,"Masjid Gandhi Nagar - msjd gndhy ngr, 15/C Special, Major District Road, Gandhi Nagar, Bada Bangarda, Indore, Madhya Pradesh 452005",Gandhi Nagar,"15/C Special, Major District Road, Gandhi Nagar, Bada Bangarda",Indore,452005,Madhya Pradesh,IN,https://www.google.com/maps/place/Masjid+Gandhi+Nagar+-+%D9%85%D8%B3%D8%AC%D8%AF+%DA%AF%D8%A7%D9%86%D8%AF%DA%BE%DB%8C+%D9%86%DA%AF%D8%B1%E2%80%AD/data=!4m7!3m6!1s0x3962fe1e09896f71:0xfa159efb078f809a!8m2!3d22.7394918!4d75.7892278!16s%2Fg%2F11g6n9_c1p!19sChIJcW-JCR7-YjkRmoCPB_ueFfo?authuser=0&hl=en&rclk=1,"22.7394918,75.78922779999999"
Kabristaan Masjid,Mosque,"Kabristaan Masjid, 3, Green Park Colony, Indore, Madhya Pradesh 452006",Green Park Colony,3,Indore,452006,Madhya Pradesh,IN,https://www.google.com/maps/place/Kabristaan+Masjid/data=!4m7!3m6!1s0x3962fdd75595c975:0x26ff6dc38737c6b5!8m2!3d22.7076198!4d75.8124691!16s%2Fg%2F11g6j9qkl1!19sChIJdcmVVdf9YjkRtcY3h8Nt_yY?authuser=0&hl=en&rclk=1,"22.7076198,75.8124691"
Jamaa Masjid,Mosque,"MW87+CF2 Jamaa Masjid, idgaah, rode, Anand Nagar, Nayta Mundla, Indore, Madhya Pradesh 452020","Anand Nagar, Nayta Mundla","MW87+CF2 idgaah, rode",Indore,452020,Madhya Pradesh,IN,https://www.google.com/maps/place/Jamaa+Masjid/data=!4m7!3m6!1s0x3962e3bab3f53fa1:0x16de82ad965de4b!8m2!3d22.6660086!4d75.9136277!16s%2Fg%2F11h03fkb0b!19sChIJoT_1s7rjYjkRS95l2SrobQE?authuser=0&hl=en&rclk=1,"22.666008599999998,75.91362769999999"
Madina Masjid - mdynh msjd,Mosque,"Madina Masjid - mdynh msjd, Madina Nagar, Azad Nagar, Indore, Madhya Pradesh 452001","Madina Nagar, Azad Nagar",,Indore,452001,Madhya Pradesh,IN,https://www.google.com/maps/place/Madina+Masjid+-+%D9%85%D8%AF%DB%8C%D9%86%DB%81+%D9%85%D8%B3%D8%AC%D8%AF%E2%80%AD/data=!4m7!3m6!1s0x3962fd3889e6989b:0xa1c4d93d9ea39fba!8m2!3d22.6943267!4d75.8865936!16s%2Fg%2F11q4m03wtm!19sChIJm5jmiTj9YjkRup-jnj3ZxKE?authuser=0&hl=en&rclk=1,"22.694326699999998,75.8865936"
Masjid-E-Mustafa - msjdi mSTfy,Mosque,"PWH7+JX4 Masjid-E-Mustafa - msjdi mSTfy, New Heena Colony, Khajrana, Indore, Madhya Pradesh 452016",Khajrana,"PWH7+JX4, New Heena Colony",Indore,452016,Madhya Pradesh,IN,https://www.google.com/maps/place/Masjid-E-Mustafa+-+%D9%85%D8%B3%D8%AC%D8%AF%D9%90+%D9%85%D8%B5%D8%B7%D9%81%D9%B0%DB%8C%E2%80%AD/data=!4m7!3m6!1s0x3962e3d36163e67d:0x12d429fc2fcc25e5!8m2!3d22.7290047!4d75.9149379!16s%2Fg%2F11gnps136_!19sChIJfeZjYdPjYjkR5SXML_wp1BI?authuser=0&hl=en&rclk=1,"22.729004699999997,75.9149379"
Jama Masjid Khajrana Naharshah Wali,Mosque,"PWP8+R74 Jama Masjid Khajrana Naharshah Wali, Khajrana, Indore, Madhya Pradesh 452016",Khajrana,PWP8+R74,Indore,452016,Madhya Pradesh,IN,https://www.google.com/maps/place/Jama+Masjid+Khajrana+Naharshah+Wali/data=!4m7!3m6!1s0x3962e3b31af9e50b:0x5169cfbcc61d5bfe!8m2!3d22.7370171!4d75.9156923!16s%2Fg%2F11h1g32810!19sChIJC-X5GrPjYjkR_lsdxrzPaVE?authuser=0&hl=en&rclk=1,"22.7370171,75.9156923"
Badwali Choki Masjid,Mosque,"PVC2+JCX Badwali Choki Masjid, Juna Pitha, Indore, Madhya Pradesh 452002",Juna Pitha,PVC2+JCX,Indore,452002,Madhya Pradesh,IN,https://www.google.com/maps/place/Badwali+Choki+Masjid/data=!4m7!3m6!1s0x3962fd2b1c38ebf3:0xdb1a9a5ccd9b0766!8m2!3d22.7216065!4d75.8511166!16s%2Fg%2F11g1gdspn0!19sChIJ8-s4HCv9YjkRZgebzVyaGts?authuser=0&hl=en&rclk=1,"22.7216065,75.8511166"
Reva Masjid - ryw msjd,Mosque,"PR8X+WJ9 Reva Masjid - ryw msjd, MOSQUE, Behind Kaanch Mandir, M.T Cloth Market, Maharaja Tukoji Rao Holker Cloth Market, Indore, Madhya Pradesh 452002","Behind Kaanch Mandir, M.T Cloth Market, Maharaja Tukoji Rao Holker Cloth Market",PR8X+WJ9 MOSQUE,Indore,,Madhya Pradesh,IN,https://www.google.com/maps/place/Reva+Masjid+-+%D8%B1%DB%8C%D9%88%D8%A7+%D9%85%D8%B3%D8%AC%D8%AF%E2%80%AD/data=!4m7!3m6!1s0x3962fda13610d8d3:0xa55ce37a273b991c!8m2!3d22.7172912!4d75.8490942!16s%2Fg%2F1tq8gz7p!19sChIJ09gQNqH9YjkRHJk7J3rjXKU?authuser=0&hl=en&rclk=1,"22.7172912,75.8490942"
Silawatpura Masjid,Mosque,"PR7X+G7H Silawatpura Masjid, Silawat Pura, Indore, Madhya Pradesh 452007",Silawat Pura,PR7X+G7H,Indore,452007,Madhya Pradesh,IN,https://www.google.com/maps/place/Silawatpura+Masjid/data=!4m7!3m6!1s0x3962fd4bff2742fd:0x136467f93dcdef4f!8m2!3d22.7138214!4d75.8482488!16s%2Fg%2F11f8ny41dq!19sChIJ_UIn_0v9YjkRT-_NPflnZBM?authuser=0&hl=en&rclk=1,"22.7138214,75.8482488"
Akbari Masjid - khbry msjd,Mosque,"PWR7+HM4 Akbari Masjid - khbry msjd, Baba Mansa Nagar, Khajrana, Indore, Madhya Pradesh 452010","Baba Mansa Nagar, Khajrana",PWR7+HM4,Indore,452010,Madhya Pradesh,IN,https://www.google.com/maps/place/Akbari+Masjid+-+%D8%A7%DA%A9%D8%A8%D8%B1%DB%8C+%D9%85%D8%B3%D8%AC%D8%AF%E2%80%AD/data=!4m7!3m6!1s0x3962e3260bae1d6b:0x569b4908c5cbb961!8m2!3d22.7413905!4d75.9141878!16s%2Fg%2F11p74d2881!19sChIJax2uCybjYjkRYbnLxQhJm1Y?authuser=0&hl=en&rclk=1,"22.741390499999998,75.9141878"
Masjid-e-Ayesha - msjdi `y'shh,Mosque,"PV82+369 Masjid-e-Ayesha - msjdi `y'shh, Juna Pitha, Bombay Bazar, Indore, Madhya Pradesh 452007","Juna Pitha, Bombay Bazar",PV82+369,Indore,452007,Madhya Pradesh,IN,https://www.google.com/maps/place/Masjid-e-Ayesha+-+%D9%85%D8%B3%D8%AC%D8%AF%D9%90+%D8%B9%D8%A7%D8%A6%D8%B4%DB%81%E2%80%AD/data=!4m7!3m6!1s0x3962fda71ddbffff:0x5fa350411e562255!8m2!3d22.7151532!4d75.8506039!16s%2Fg%2F11f01mrm_x!19sChIJ___bHaf9YjkRVSJWHkFQo18?authuser=0&hl=en&rclk=1,"22.7151532,75.8506039"
"Muhammadi Masjid, Azad nagar, Indore",Mosque,"MVXP+4RC Muhammadi Masjid, Azad nagar, Indore, Sham Nagar, Noori Nagar, Azad Nagar, Indore, Madhya Pradesh 452001","Sham Nagar, Noori Nagar, Azad Nagar",MVXP+4RC,Indore,452001,Madhya Pradesh,IN,"https://www.google.com/maps/place/Muhammadi+Masjid,+Azad+nagar,+Indore/data=!4m7!3m6!1s0x3962fd1975ab67d9:0xfdb51e4b4379523e!8m2!3d22.697814!4d75.8870292!16s%2Fg%2F11tpbm_bbf!19sChIJ2WerdRn9YjkRPlJ5Q0setf0?authuser=0&hl=en&rclk=1","22.697813999999997,75.8870292"
Mohammadi Masjid,Mosque,"PWRG+QCG Mohammadi Masjid, Patel Nagar, Indore, Madhya Pradesh 452016",Patel Nagar,PWRG+QCG,Indore,452016,Madhya Pradesh,IN,https://www.google.com/maps/place/Mohammadi+Masjid/data=!4m7!3m6!1s0x3962e379a09a7379:0x96cfbecf9e3dccc6!8m2!3d22.7419361!4d75.9260849!16s%2Fg%2F11s_vdybm9!19sChIJeXOaoHnjYjkRxsw9ns--z5Y?authuser=0&hl=en&rclk=1,"22.7419361,75.92608489999999"
Malang Masjid - mlng msjd,Mosque,"PWM9+P62 Malang Masjid - mlng msjd, Unnamed Road, Shalimar Colony, Ilyas Colony, Indore, Madhya Pradesh 452016","Shalimar Colony, Ilyas Colony","PWM9+P62, Unnamed Road",Indore,452016,Madhya Pradesh,IN,https://www.google.com/maps/place/Malang+Masjid+-+%D9%85%D9%84%D9%86%DA%AF+%D9%85%D8%B3%D8%AC%D8%AF%E2%80%AD/data=!4m7!3m6!1s0x3962e34d1b967243:0xe677df101967ae41!8m2!3d22.7342523!4d75.9180044!16s%2Fg%2F11h76l4kwk!19sChIJQ3KWG03jYjkRQa5nGRDfd-Y?authuser=0&hl=en&rclk=1,"22.734252299999998,75.9180044"
Hussaini masjid. husainii msjid ( prkaash kaa bgiicaa),Mosque,"Hussaini masjid. husainii msjid ( prkaash kaa bgiicaa), Prakash ka bhagicha, Jabran Colony, Indore, Madhya Pradesh 452007",Jabran Colony,Prakash ka bhagicha,Indore,452007,Madhya Pradesh,IN,https://www.google.com/maps/place/Hussaini+masjid.+%E0%A4%B9%E0%A5%81%E0%A4%B8%E0%A5%88%E0%A4%A8%E0%A5%80+%E0%A4%AE%E0%A4%B8%E0%A5%8D%E0%A4%9C%E0%A4%BF%E0%A4%A6+%28+%E0%A4%AA%E0%A5%8D%E0%A4%B0%E0%A4%95%E0%A4%BE%E0%A4%B6+%E0%A4%95%E0%A4%BE+%E0%A4%AC%E0%A4%97%E0%A5%80%E0%A4%9A%E0%A4%BE%29/data=!4m7!3m6!1s0x3962fd183d9f7963:0x39087e71cb204b80!8m2!3d22.7083559!4d75.8621628!16s%2Fg%2F11h6x5hjqx!19sChIJY3mfPRj9YjkRgEsgy3F-CDk?authuser=0&hl=en&rclk=1,"22.708355899999997,75.8621628"
Dawoodi Bohra Vajihi Masjid - dw'dy bwhrh wjhy msjd,Mosque,"Dawoodi Bohra Vajihi Masjid - dw'dy bwhrh wjhy msjd, 225, Chhawni Rd, Chhawni Chowk, Murai Mohalla, Chhawni, Indore, Madhya Pradesh 452001","Chhawni Chowk, Murai Mohalla, Chhawni","225, Chhawni Rd",Indore,452001,Madhya Pradesh,IN,https://www.google.com/maps/place/Dawoodi+Bohra+Vajihi+Masjid+-+%D8%AF%D8%A7%D8%A4%D8%AF%DB%8C+%D8%A8%D9%88%DB%81%D8%B1%DB%81+%D9%88%D8%AC%DB%81%DB%8C+%D9%85%D8%B3%D8%AC%D8%AF%E2%80%AD/data=!4m7!3m6!1s0x3962fd18a70997b5:0x979e5482c7a9a625!8m2!3d22.7086057!4d75.8765015!16s%2Fg%2F11g8_022yy!19sChIJtZcJpxj9YjkRJaapx4JUnpc?authuser=0&hl=en&rclk=1,"22.7086057,75.8765015"
Bandi Chhod Sarkar Masjid,Mosque,"PR4W+679 Bandi Chhod Sarkar Masjid, Slum Area, Joshi Mohalla, Indore, Madhya Pradesh 452007","Slum Area, Joshi Mohalla",PR4W+679,Indore,452007,Madhya Pradesh,IN,https://www.google.com/maps/place/Bandi+Chhod+Sarkar+Masjid/data=!4m7!3m6!1s0x3962fd2e7b732ee5:0xeb6aeefc6b4e45d5!8m2!3d22.7055324!4d75.8457405!16s%2Fg%2F11gvzhf0wy!19sChIJ5S5zey79YjkR1UVOa_zuaus?authuser=0&hl=en&rclk=1,"22.7055324,75.84574049999999"
Masjid e Khadijatul Qubra,Mosque,"Masjid e Khadijatul Qubra, 1, Sector I, Green Park Colony, Indore, Madhya Pradesh 452006","Sector I, Green Park Colony",1,Indore,452006,Madhya Pradesh,IN,https://www.google.com/maps/place/Masjid+e+Khadijatul+Qubra/data=!4m7!3m6!1s0x3962fe77813f795b:0xa6d92ed2eb5765e8!8m2!3d22.7080956!4d75.803287!16s%2Fg%2F11g6j85g4t!19sChIJW3k_gXf-YjkR6GVX69Iu2aY?authuser=0&hl=en&rclk=1,"22.7080956,75.803287"
Meena Masjid,Mosque,"PVQX+3F5 Meena Masjid, Krishna Bagh Colony, Indore, Madhya Pradesh 452011",Krishna Bagh Colony,PVQX+3F5,Indore,452011,Madhya Pradesh,IN,https://www.google.com/maps/place/Meena+Masjid/data=!4m7!3m6!1s0x3962fdd62b9ad83d:0xff81bb80a2b0bdb7!8m2!3d22.7376275!4d75.8987263!16s%2Fg%2F11t0r3xpsq!19sChIJPdiaK9b9YjkRt72wooC7gf8?authuser=0&hl=en&rclk=1,"22.7376275,75.89872629999999"
Usmani Masjid Ahle Sunnat ul jamaat,Mosque,"Usmani Masjid Ahle Sunnat ul jamaat, 52, Kanadia Main Rd, SamratNagar, Khajrana, Indore, Madhya Pradesh 452016","SamratNagar, Khajrana","52, Kanadia Main Rd",Indore,452016,Madhya Pradesh,IN,https://www.google.com/maps/place/Usmani+Masjid+Ahle+Sunnat+ul+jamaat/data=!4m7!3m6!1s0x3962e3386a642e9d:0x157a12255f92a66f!8m2!3d22.7303072!4d75.9174639!16s%2Fg%2F11qbr5f5ll!19sChIJnS5kajjjYjkRb6aSXyUSehU?authuser=0&hl=en&rclk=1,"22.7303072,75.9174639"
South Toda Basheer Masjid,Mosque,"PV76+P7Q South Toda Basheer Masjid, Juni Indore, Indore, Madhya Pradesh 452007",Juni Indore,PV76+P7Q,Indore,452007,Madhya Pradesh,IN,https://www.google.com/maps/place/South+Toda+Basheer+Masjid/data=!4m7!3m6!1s0x3962fde38a527f89:0x1bbcf2037a9a8980!8m2!3d22.714326!4d75.860745!16s%2Fg%2F11j5_mb8sm!19sChIJiX9SiuP9YjkRgImaegPyvBs?authuser=0&hl=en&rclk=1,"22.714326,75.860745"
Chhoti Masjid,Mosque,"PVF2+94F Chhoti Masjid, Juna Risala, Indore, Madhya Pradesh 452006",Juna Risala,PVF2+94F,Indore,452006,Madhya Pradesh,IN,https://www.google.com/maps/place/Chhoti+Masjid/data=!4m7!3m6!1s0x3962fd30510e3875:0xea17530b083077a7!8m2!3d22.7234433!4d75.8502947!16s%2Fg%2F11nrx_rr_y!19sChIJdTgOUTD9YjkRp3cwCAtTF-o?authuser=0&hl=en&rclk=1,"22.7234433,75.85029469999999"
sarupa Masjid,Mosque,"sarupa Masjid, 22/3, Maharaja Tukoji Rao Holker Cloth Market, Indore, Madhya Pradesh 452007",Maharaja Tukoji Rao Holker Cloth Market,22/3,Indore,452007,Madhya Pradesh,IN,https://www.google.com/maps/place/sarupa+Masjid/data=!4m7!3m6!1s0x3962fd096caa44d3:0x2d61485f24859b09!8m2!3d22.716163!4d75.857382!16s%2Fg%2F11f3jk9948!19sChIJ00SqbAn9YjkRCZuFJF9IYS0?authuser=0&hl=en&rclk=1,"22.716162999999998,75.857382"
Masjid for Juma - msjd,Mosque,"MVX4+X62 Masjid for Juma - msjd, Door Sanchar Colony, Nandanvan Colony, Indore, Madhya Pradesh 452014","Door Sanchar Colony, Nandanvan Colony",MVX4+X62,Indore,452014,Madhya Pradesh,IN,https://www.google.com/maps/place/Masjid+for+Juma+-+%D9%85%D8%B3%D8%AC%D8%AF%E2%80%AD/data=!4m7!3m6!1s0x3962fdcc037f4bfd:0xa5c5ae454ec028ba!8m2!3d22.6998875!4d75.8555302!16s%2Fg%2F11rndxn9d4!19sChIJ_Ut_A8z9YjkRuijATkWuxaU?authuser=0&hl=en&rclk=1,"22.6998875,75.85553019999999"
Masjid AL-FAJR,Mosque,"PWJ8+JV3 Masjid AL-FAJR, Ilyas Colony, Indore, Madhya Pradesh 452016",Ilyas Colony,PWJ8+JV3,Indore,452016,Madhya Pradesh,IN,https://www.google.com/maps/place/Masjid+AL-FAJR/data=!4m7!3m6!1s0x3962e38f6600c5b1:0xa7d9c393aadff16a!8m2!3d22.731524!4d75.9171685!16s%2Fg%2F11tf0313sq!19sChIJscUAZo_jYjkRavHfqpPD2ac?authuser=0&hl=en&rclk=1,"22.731524,75.9171685"
Pathan Mohalla Masjid,Mosque,"66, Pathan Mohalla Masjid, 2, Raoji Bazar, Juni Indore, Indore, Madhya Pradesh 452007","Raoji Bazar, Juni Indore","66, 2",Indore,452007,Madhya Pradesh,IN,https://www.google.com/maps/place/Pathan+Mohalla+Masjid/data=!4m7!3m6!1s0x3962fd5e10c7bb79:0xcc073917565c7d5f!8m2!3d22.71012!4d75.8627401!16s%2Fg%2F11pgcl8b0q!19sChIJebvHEF79YjkRX31cVhc5B8w?authuser=0&hl=en&rclk=1,"22.71012,75.8627401"
Hussaini masjid,Mosque,"PR5G+486 Hussaini masjid, Dhar Rd, Chandan Nagar, Sector I, Green Park Colony, Indore, Madhya Pradesh 452002","Chandan Nagar, Sector I, Green Park Colony","PR5G+486, Dhar Rd",Indore,452002,Madhya Pradesh,IN,https://www.google.com/maps/place/Hussaini+masjid/data=!4m7!3m6!1s0x3962fd3a1a5759cb:0x13aa477bb91d3a25!8m2!3d22.7077967!4d75.8257732!16s%2Fg%2F11j0r6k787!19sChIJy1lXGjr9YjkRJToduXtHqhM?authuser=0&hl=en&rclk=1,"22.7077967,75.8257732"
Makkah masjid,Mosque,"Makkah masjid, 133, Sector I, Green Park Colony, Indore, Madhya Pradesh 452006","Sector I, Green Park Colony",133,Indore,452006,Madhya Pradesh,IN,https://www.google.com/maps/place/Makkah+masjid/data=!4m7!3m6!1s0x3962fd00354252a5:0x6213cf775b6c1540!8m2!3d22.7071145!4d75.8070878!16s%2Fg%2F11fvvyrsxn!19sChIJpVJCNQD9YjkRQBVsW3fPE2I?authuser=0&hl=en&rclk=1,"22.7071145,75.80708779999999"
Madina Masjid,Mosque,"Madina Masjid, B101, Haroon Colony, Ilyas Colony, Indore, Madhya Pradesh 452010","Haroon Colony, Ilyas Colony",B101,Indore,452010,Madhya Pradesh,IN,https://www.google.com/maps/place/Madina+Masjid/data=!4m7!3m6!1s0x3962e369d2d08653:0xa1c070469556ef02!8m2!3d22.7349299!4d75.9197723!16s%2Fg%2F11kpl3g4pl!19sChIJU4bQ0mnjYjkRAu9WlUZwwKE?authuser=0&hl=en&rclk=1,"22.734929899999997,75.91977229999999"
Hari masjid,Mosque,"Hari masjid, 9\1, Sonone Market, Nihalpura, Rajwada, Indore, Madhya Pradesh 452001","Sonone Market, Nihalpura, Rajwada",9\1,Indore,452001,Madhya Pradesh,IN,https://www.google.com/maps/place/Hari+masjid/data=!4m7!3m6!1s0x3962fd0967872a73:0xb1d3303a72b5004d!8m2!3d22.7172786!4d75.8546467!16s%2Fg%2F11h6d89htb!19sChIJcyqHZwn9YjkRTQC1cjow07E?authuser=0&hl=en&rclk=1,"22.7172786,75.8546467"
