name,main_category,address,address_ward,address_street,address_city,address_postal_code,address_state,address_country_code,link,coordinates
Masjid Center,Cultural center,"R9G4+VX2 Masjid Center, Polimera Rd, Wood Nagar Colony, Chirala, Andhra Pradesh 523155",Wood Nagar Colony,"R9G4+VX2, Polimera Rd",Chirala,523155,Andhra Pradesh,IN,https://www.google.com/maps/place/Masjid+Center/data=!4m7!3m6!1s0x3a4a4418f533ee53:0xd4ef4a15bf963ee1!8m2!3d15.8271488!4d80.3574056!16s%2Fg%2F1tfhy017!19sChIJU-4z9RhESjoR4T6WvxVK79Q?authuser=0&hl=en&rclk=1,"15.8271488,80.35740559999999"
Juma Masjid,Mosque,"R9G4+RXC Juma Masjid, Polimera Rd, Wood Nagar Colony, Chirala, Andhra Pradesh 523155",Wood Nagar Colony,"R9G4+RXC, Polimera Rd",Chirala,523155,Andhra Pradesh,IN,https://www.google.com/maps/place/Juma+Masjid/data=!4m7!3m6!1s0x3a4a44185f3a1d0f:0x54c8be6e330d874e!8m2!3d15.8270743!4d80.3574036!16s%2Fg%2F1q6clmgq2!19sChIJDx06XxhESjoRTocNM26-yFQ?authuser=0&hl=en&rclk=1,"15.8270743,80.3574036"
"Jamia Masjid, Islam Peta - 2",Mosque,"Jamia Masjid, Islam Peta - 2, Islam peta-2,, Chirala, Andhra Pradesh",R.K Puram,"Islam peta-2,",Chirala,,Andhra Pradesh,IN,"https://www.google.com/maps/place/Jamia+Masjid,+Islam+Peta+-+2/data=!4m7!3m6!1s0x3a4a443c857be415:0x16b6b8cb6fa4a6b8!8m2!3d15.8199035!4d80.3525842!16s%2Fg%2F11c3n2pbh6!19sChIJFeR7hTxESjoRuKakb8u4thY?authuser=0&hl=en&rclk=1","15.819903499999999,80.3525842"
Masjid-A-Aksa,Mosque,"R976+QR6 Masjid-A-Aksa, Papay Palem Rd, Kothapeta, Chirala, Andhra Pradesh 523157",Kothapeta,"R976+QR6, Papay Palem Rd",Chirala,523157,Andhra Pradesh,IN,https://www.google.com/maps/place/Masjid-A-Aksa/data=!4m7!3m6!1s0x3a4a44263b25ad33:0xad3298bd5a7518f8!8m2!3d15.8144182!4d80.3620308!16s%2Fg%2F1q6bbjqjz!19sChIJM60lOyZESjoR-Bh1Wr2YMq0?authuser=0&hl=en&rclk=1,"15.814418199999999,80.3620308"
Masjid E Mommin (shaik Hussain BANO) founder,Mosque,"Masjid E Mommin (shaik Hussain BANO) founder, Bano Rahiman, Road, Vetapalem, Chirala, Andhra Pradesh 523187",,"Bano Rahiman, Road","Vetapalem, Chirala",523187,Andhra Pradesh,IN,https://www.google.com/maps/place/Masjid+E+Mommin+%28shaik+Hussain+BANO%29+founder/data=!4m7!3m6!1s0x3a4a45f96ee7f7df:0xd66f3f3aad810082!8m2!3d15.7759867!4d80.3034034!16s%2Fg%2F11g0480c9l!19sChIJ3_fnbvlFSjoRggCBrTo_b9Y?authuser=0&hl=en&rclk=1,"15.775986699999999,80.3034034"
Juma Masjid,Mosque,"R9P7+7FX Juma Masjid, Bapatla Rd, Perala, Chirala, Andhra Pradesh 523157",Perala,"R9P7+7FX, Bapatla Rd",Chirala,523157,Andhra Pradesh,IN,https://www.google.com/maps/place/Juma+Masjid/data=!4m7!3m6!1s0x3a4a441d1807bcff:0xddadde2e4280b6b5!8m2!3d15.835747!4d80.363741!16s%2Fg%2F1pyqfx249!19sChIJ_7wHGB1ESjoRtbaAQi7erd0?authuser=0&hl=en&rclk=1,"15.835747,80.36374099999999"
Masjid e Saleemia,Mosque,"Q8P3+5XP Masjid e Saleemia, Vetapalem, Chirala, Andhra Pradesh 523187",,Q8P3+5XP,"Vetapalem, Chirala",523187,Andhra Pradesh,IN,https://www.google.com/maps/place/Masjid+e+Saleemia/data=!4m7!3m6!1s0x3a4a4510d4270463:0x52b870868b6980ae!8m2!3d15.7854676!4d80.3049469!16s%2Fg%2F1td0dy18!19sChIJYwQn1BBFSjoRroBpi4ZwuFI?authuser=0&hl=en&rclk=1,"15.785467599999999,80.30494689999999"
Noor Masjid,Mosque,"R83J+6HP Noor Masjid, Jandrapeta, Jandrapeta Main Centre, Chirala, Andhra Pradesh 523165",Jandrapeta,R83J+6HP,"Jandrapeta Main Centre, Chirala",523165,Andhra Pradesh,IN,https://www.google.com/maps/place/Noor+Masjid/data=!4m7!3m6!1s0x3a4a445291be484f:0xc7f040087e4e356!8m2!3d15.8030904!4d80.3314381!16s%2Fg%2F1pyqjs46_!19sChIJT0i-kVJESjoRVuPkhwAEfww?authuser=0&hl=en&rclk=1,"15.803090399999999,80.3314381"
Khuduciya Masjid,Mosque,"R8JX+9WW Khuduciya Masjid, Gandhi nagar, Chirala, Andhra Pradesh 523155",Gandhi nagar,R8JX+9WW,Chirala,523155,Andhra Pradesh,IN,https://www.google.com/maps/place/Khuduciya+Masjid/data=!4m7!3m6!1s0x3a4a441152796d01:0xa5c520fa6b9d9348!8m2!3d15.83099!4d80.349839!16s%2Fg%2F11c6d_xg2y!19sChIJAW15UhFESjoRSJOda_ogxaU?authuser=0&hl=en&rclk=1,"15.83099,80.349839"
Mecca Mosque,Mosque,"R89W+J2Q Mecca Mosque, Nawabpet, Chirala, Andhra Pradesh 523155",Nawabpet,R89W+J2Q,Chirala,523155,Andhra Pradesh,IN,https://www.google.com/maps/place/Mecca+Mosque/data=!4m7!3m6!1s0x3a4a443f352b915b:0xde4ee88e62c80940!8m2!3d15.8190758!4d80.3451204!16s%2Fg%2F1vj5yn0r!19sChIJW5ErNT9ESjoRQAnIYo7oTt4?authuser=0&hl=en&rclk=1,"15.819075799999998,80.3451204"
Aakhsha Masjid,Mosque,"Q8H5+Q9Q Aakhsha Masjid, Vetapalem, Chirala, Andhra Pradesh 523187",,Q8H5+Q9Q,"Vetapalem, Chirala",523187,Andhra Pradesh,IN,https://www.google.com/maps/place/Aakhsha+Masjid/data=!4m7!3m6!1s0x3a4a4512f5c3c265:0x8e2ef8d4a9de2e3b!8m2!3d15.779473!4d80.308489!16s%2Fg%2F1pyqv_pq9!19sChIJZcLD9RJFSjoROy7eqdT4Lo4?authuser=0&hl=en&rclk=1,"15.779473,80.308489"
Masjid,Mosque,"VCG9+9PM Masjid, Vedullapalli, Chirala, Andhra Pradesh 522317",Vedullapalli,VCG9+9PM,Chirala,522317,Andhra Pradesh,IN,https://www.google.com/maps/place/Masjid/data=!4m7!3m6!1s0x3a4a40e79878fed1:0xab16286b610a7237!8m2!3d15.87597!4d80.419296!16s%2Fg%2F1pyqgd057!19sChIJ0f54mOdASjoRN3IKYWsoFqs?authuser=0&hl=en&rclk=1,"15.875969999999999,80.419296"
madeena Masjid,Mosque,"R9P7+9G3 madeena Masjid, Market Rd, Perala, Chirala, Andhra Pradesh 523157",Perala,"R9P7+9G3, Market Rd",Chirala,523157,Andhra Pradesh,IN,https://www.google.com/maps/place/madeena+Masjid/data=!4m7!3m6!1s0x3a4a441d3d3b9c6d:0xcbdca3a274b3f07f!8m2!3d15.8358879!4d80.3637895!16s%2Fg%2F11gc5nvy7x!19sChIJbZw7PR1ESjoRf_CzdKKj3Ms?authuser=0&hl=en&rclk=1,"15.8358879,80.3637895"
Masjid,Mosque,"R9HC+9VR Masjid, ILTD Colony, AR Nagar, Kothapeta, Chirala, Andhra Pradesh 523157","ILTD Colony, AR Nagar, Kothapeta",R9HC+9VR,Chirala,523157,Andhra Pradesh,IN,https://www.google.com/maps/place/Masjid/data=!4m7!3m6!1s0x3a4a46a231fe146b:0x2bd5ad9b6e88f481!8m2!3d15.828487!4d80.372133!16s%2Fg%2F11f3jwvxb7!19sChIJaxT-MaJGSjoRgfSIbput1Ss?authuser=0&hl=en&rclk=1,"15.828486999999999,80.37213299999999"
Madina mosque,Mosque,"R9XQ+9JP Madina mosque, Ipurupalem, Ipuru Palem Rural, Andhra Pradesh 523166",Ipurupalem,R9XQ+9JP,Ipuru Palem Rural,523166,Andhra Pradesh,IN,https://www.google.com/maps/place/Madina+mosque/data=!4m7!3m6!1s0x3a4a46ca961f026d:0x5410f9afe9cf5f9e!8m2!3d15.848474!4d80.3890897!16s%2Fg%2F11b66925xd!19sChIJbQIflspGSjoRnl_P6a_5EFQ?authuser=0&hl=en&rclk=1,"15.848474,80.3890897"
Masjid e ansar,Mosque,"R9H8+66X Masjid e ansar, Perala High School Rd, Perala, Chirala, Andhra Pradesh 523157",Perala,"R9H8+66X, Perala High School Rd",Chirala,523157,Andhra Pradesh,IN,https://www.google.com/maps/place/Masjid+e+ansar/data=!4m7!3m6!1s0x3a4a45ffec07554b:0xa5a7f6c390887699!8m2!3d15.8281155!4d80.3656146!16s%2Fg%2F11hpxk4vwz!19sChIJS1UH7P9FSjoRmXaIkMP2p6U?authuser=0&hl=en&rclk=1,"15.8281155,80.3656146"
Bilal masjid,Mosque,"V93R+329 Bilal masjid, Ipurupalem, Chirala, Ipuru Palem Rural, Andhra Pradesh 523166",Ipurupalem,V93R+329,"Chirala, Ipuru Palem Rural",523166,Andhra Pradesh,IN,https://www.google.com/maps/place/Bilal+masjid/data=!4m7!3m6!1s0x3a4a412a47865e6f:0x2505d11b2686cb81!8m2!3d15.8526624!4d80.3901091!16s%2Fg%2F11k1gbrywv!19sChIJb16GRypBSjoRgcuGJhvRBSU?authuser=0&hl=en&rclk=1,"15.8526624,80.39010909999999"
Islampet Masjid,Mosque,"R9XP+W78 Islampet Masjid, Ipurupalem, Chirala, Ipuru Palem Rural, Andhra Pradesh 523166",Ipurupalem,R9XP+W78,"Chirala, Ipuru Palem Rural",523166,Andhra Pradesh,IN,https://www.google.com/maps/place/Islampet+Masjid/data=!4m7!3m6!1s0x3a4a414ac5517a19:0x727ff698db7c5ef4!8m2!3d15.8497823!4d80.3857053!16s%2Fg%2F1pyqsf43v!19sChIJGXpRxUpBSjoR9F5825j2f3I?authuser=0&hl=en&rclk=1,"15.8497823,80.3857053"
MASJID E SALAAM,Mosque,"Q8M3+MV4 MASJID E SALAAM, Vetapalem, Chirala, Andhra Pradesh 523187",,Q8M3+MV4,"Vetapalem, Chirala",523187,Andhra Pradesh,IN,https://www.google.com/maps/place/MASJID+E+SALAAM/data=!4m7!3m6!1s0x3a4a45a58f0e5a3b:0xddfd04e5a9da60c1!8m2!3d15.7841396!4d80.3047012!16s%2Fg%2F11fn79l_kl!19sChIJO1oOj6VFSjoRwWDaqeUE_d0?authuser=0&hl=en&rclk=1,"15.7841396,80.3047012"
Dargah,Mosque,"R976+QRV Dargah, Kothapeta, Chirala, Andhra Pradesh 523157",Kothapeta,R976+QRV,Chirala,523157,Andhra Pradesh,IN,https://www.google.com/maps/place/Dargah/data=!4m7!3m6!1s0x3a4a442624836081:0x71c4fd888317fcf3!8m2!3d15.814486!4d80.362058!16s%2Fg%2F1pyqhc8fl!19sChIJgWCDJCZESjoR8_wXg4j9xHE?authuser=0&hl=en&rclk=1,"15.814485999999999,80.36205799999999"
Masjid-e-Mubarak,Mosque,"Q8M4+V2C Masjid-e-Mubarak, Vetapalem, Chirala, Andhra Pradesh 523187",,Q8M4+V2C,"Vetapalem, Chirala",523187,Andhra Pradesh,IN,https://www.google.com/maps/place/Masjid-e-Mubarak/data=!4m7!3m6!1s0x3a4a45112e5a7849:0xae11f55fb280396!8m2!3d15.7846854!4d80.3050207!16s%2Fg%2F1pyqk238r!19sChIJSXhaLhFFSjoRlgMo-1Uf4Qo?authuser=0&hl=en&rclk=1,"15.784685399999999,80.3050207"
Gousiya Jamiya Masjid,Mosque,"Q8M4+629 Gousiya Jamiya Masjid, Vetapalem, Chirala, Andhra Pradesh 523187",,Q8M4+629,"Vetapalem, Chirala",523187,Andhra Pradesh,IN,https://www.google.com/maps/place/Gousiya+Jamiya+Masjid/data=!4m7!3m6!1s0x3a4a453ae010fb65:0x88c1161707af1667!8m2!3d15.7830343!4d80.3051122!16s%2Fg%2F11pz2vnw1t!19sChIJZfsQ4DpFSjoRZxavBxcWwYg?authuser=0&hl=en&rclk=1,"15.783034299999999,80.3051122"
Madina Masjid,Mosque,"Q8M4+63J Madina Masjid, Vetapalem, Chirala, Andhra Pradesh 523187",,Q8M4+63J,"Vetapalem, Chirala",523187,Andhra Pradesh,IN,https://www.google.com/maps/place/Madina+Masjid/data=!4m7!3m6!1s0x3a4a45114fd0cb9d:0xb7a16da22f7295ea!8m2!3d15.783083!4d80.305156!16s%2Fg%2F1pyqfgllg!19sChIJncvQTxFFSjoR6pVyL6Jtobc?authuser=0&hl=en&rclk=1,"15.783083,80.305156"
Jamayath Masjid,Mosque,"Q8Q7+68X Jamayath Masjid, Rama Nagar, Vetapalem, Chirala, Andhra Pradesh 523187",Rama Nagar,Q8Q7+68X,"Vetapalem, Chirala",523187,Andhra Pradesh,IN,https://www.google.com/maps/place/Jamayath+Masjid/data=!4m7!3m6!1s0x3a4a450f7bf72bb3:0x97331ba63882a4ce!8m2!3d15.788121!4d80.313356!16s%2Fg%2F1pyql2887!19sChIJsyv3ew9FSjoRzqSCOKYbM5c?authuser=0&hl=en&rclk=1,"15.788120999999999,80.313356"
Muslim Eid-Ga,Mosque,"Q8M3+6G2 Muslim Eid-Ga, Vetapalem, Chirala, Andhra Pradesh 523187",,Q8M3+6G2,"Vetapalem, Chirala",523187,Andhra Pradesh,IN,https://www.google.com/maps/place/Muslim+Eid-Ga/data=!4m7!3m6!1s0x3a4a4516bad24f5f:0x3da2fbc00cd5ca15!8m2!3d15.7830125!4d80.3037614!16s%2Fg%2F11by__c2lp!19sChIJX0_SuhZFSjoRFcrVDMD7oj0?authuser=0&hl=en&rclk=1,"15.7830125,80.3037614"
Masjid E Abubakar,Mosque,"R84X+C42 Masjid E Abubakar, Lakshmipuram, Chirala, Andhra Pradesh 523155",Lakshmipuram,R84X+C42,Chirala,523155,Andhra Pradesh,IN,https://www.google.com/maps/place/Masjid+E+Abubakar/data=!4m7!3m6!1s0x3a4a45e56770f951:0x50858027b52ba6fa!8m2!3d15.8060166!4d80.347757!16s%2Fg%2F11k9sjyzx7!19sChIJUflwZ-VFSjoR-qYrtSeAhVA?authuser=0&hl=en&rclk=1,"15.8060166,80.347757"
Meeraan Masjid,Mosque,"Q8H5+MP4 Meeraan Masjid, Degree College Road, Islampeta, Vinakaya Colony, Vetapalem, Andhra Pradesh 523187",,"Q8H5+MP4, Degree College Road, Islampeta, Vinakaya Colony","Vetapalem, Chirala",523187,Andhra Pradesh,IN,https://www.google.com/maps/place/Meeraan+Masjid/data=!4m7!3m6!1s0x3a4a4523ed7119cb:0xbe4333ebe1205458!8m2!3d15.7791339!4d80.3093246!16s%2Fg%2F11qnflqd9s!19sChIJyxlx7SNFSjoRWFQg4eszQ74?authuser=0&hl=en&rclk=1,"15.7791339,80.3093246"
Masjid A Noor,Mosque,"Masjid A Noor, 3-30-20/1, Karanchedu Rd, Srinivas Nagar, Uzilipet, Chirala, Andhra Pradesh 523157","Srinivas Nagar, Uzilipet","3-30-20/1, Karanchedu Rd",Chirala,523157,Andhra Pradesh,IN,https://www.google.com/maps/place/Masjid+A+Noor/data=!4m7!3m6!1s0x3a4a4578b91afa47:0x9806da8ffd9fd40a!8m2!3d15.8381361!4d80.3558563!16s%2Fg%2F11v13bt7__!19sChIJR_oauXhFSjoRCtSf_Y_aBpg?authuser=0&hl=en&rclk=1,"15.8381361,80.3558563"
Bilal Maszid,Mosque,"Q8Q7+68X Bilal Maszid, Rama Nagar, Vetapalem, Chirala, Andhra Pradesh 523187",Rama Nagar,Q8Q7+68X,"Vetapalem, Chirala",523187,Andhra Pradesh,IN,https://www.google.com/maps/place/Bilal+Maszid/data=!4m7!3m6!1s0x3a4a456a50aa717d:0xf2c99d4a36a52034!8m2!3d15.7881069!4d80.313349!16s%2Fg%2F11snm9qfbc!19sChIJfXGqUGpFSjoRNCClNkqdyfI?authuser=0&hl=en&rclk=1,"15.788106899999999,80.313349"
Masjid a yousuf,Mosque,"Masjid a yousuf, Railway Station, Ipurupalem, Chirala, Ipuru Palem Rural, Andhra Pradesh 523166",Ipurupalem,Railway Station,"Chirala, Ipuru Palem Rural",523166,Andhra Pradesh,IN,https://www.google.com/maps/place/Masjid+a+yousuf/data=!4m7!3m6!1s0x3a4a41f629653bfd:0x62b2ed1097b2f5a!8m2!3d15.8533285!4d80.3844054!16s%2Fg%2F11ng6f17d_!19sChIJ_TtlKfZBSjoRWi97CdEuKwY?authuser=0&hl=en&rclk=1,"15.8533285,80.38440539999999"
mrkhzy jm` msjd w lmdrs@ lslmy@ chrrlh,Mosque,"R985+MCQ mrkhzy jm` msjd w lmdrs@ lslmy@ chrrlh, Chirala bagh ajk, Chirala",Kothapeta,"R985+MCQ, Chirala bagh ajk",Chirala,,Andhra Pradesh,IN,https://www.google.com/maps/place/%D9%85%D8%B1%DA%A9%D8%B2%DB%8C+%D8%AC%D8%A7%D9%85%D8%B9+%D9%85%D8%B3%D8%AC%D8%AF+%D9%88+%D8%A7%D9%84%D9%85%D8%AF%D8%B1%D8%B3%DB%83+%D8%A7%D9%84%D8%A7%D8%B3%D9%84%D8%A7%D9%85%DB%8C%DB%83+%DA%86%DA%91%D8%A7%D9%84%DB%81%E2%80%AD/data=!4m7!3m6!1s0x3a4a45de9f283325:0x7beec9e5f78d75f6!8m2!3d15.8167138!4d80.3586136!16s%2Fg%2F11kprr58vd!19sChIJJTMon95FSjoR9nWN9-XJ7ns?authuser=0&hl=en&rclk=1,"15.816713799999999,80.3586136"
Masjid Mir Mohalla,Museum,"R9H5+GMG Masjid Mir Mohalla, Boys, High School Rd, Perala, Chirala, Andhra Pradesh 523157",Perala,"R9H5+GMG Boys, High School Rd",Chirala,523157,Andhra Pradesh,IN,https://www.google.com/maps/place/Masjid+Mir+Mohalla/data=!4m7!3m6!1s0x3a4a459f0aad179d:0x8bb37627fc5f6e0f!8m2!3d15.8288204!4d80.3592131!16s%2Fg%2F11fjtm8jx2!19sChIJnRetCp9FSjoRD25f_Cd2s4s?authuser=0&hl=en&rclk=1,"15.8288204,80.35921309999999"
