name,main_category,address,address_ward,address_street,address_city,address_postal_code,address_state,address_country_code,link,coordinates
Masjid-e-Ibad Ur Rahman,Mosque,"Masjid-e-Ibad Ur Rahman, 9-8-110/C/41, Dhankota Rd, near Fateh Darwaza, Dhankota, Saleh Nagar, Golconda Fort, Hyderabad, Telangana 500008","Dhankota, Saleh Nagar, Golconda Fort","9-8-110/C/41, Dhankota Rd, near Fateh Darwaza",Hyderabad,500008,Telangana,IN,https://www.google.com/maps/place/Masjid-e-Ibad+Ur+Rahman/data=!4m7!3m6!1s0x3bcb96f5f1aa623f:0xa942d5c8b980d481!8m2!3d17.3776952!4d78.41244!16s%2Fg%2F12qg8ywz6!19sChIJP2Kq8fWWyzsRgdSAucjVQqk?authuser=0&hl=en&rclk=1,"17.377695199999998,78.41243999999999"
"Masjid-e-Taj, Gajulpet",Mosque,"484M+GW7 Masjid-e-Taj, Gajulpet, Gajulpet, Telangana 504106",,484M+GW7,Gajulpet,504106,Telangana,IN,"https://www.google.com/maps/place/Masjid-e-Taj,+Gajulpet/data=!4m7!3m6!1s0x3bcd8b7ecb94f33f:0xa1733fcc34181556!8m2!3d19.1062844!4d78.3347824!16s%2Fg%2F1yg4v7gr2!19sChIJP_OUy36LzTsRVhUYNMw_c6E?authuser=0&hl=en&rclk=1","19.1062844,78.3347824"
Jama Masjid,Mosque,"Jama Masjid, Gandhi Rd, Dubbak, Telangana 502108",,Gandhi Rd,Dubbak,502108,Telangana,IN,https://www.google.com/maps/place/Jama+Masjid/data=!4m7!3m6!1s0x3bccf5f0419ad509:0xd0caed1dbd36850f!8m2!3d18.1720208!4d78.6665167!16s%2Fg%2F11cn934y79!19sChIJCdWaQfD1zDsRD4U2vR3tytA?authuser=0&hl=en&rclk=1,"18.1720208,78.6665167"
"MASJID E MOINUDDIN ZAHED, MAKTAB HAZRAT UMAR FAROOQ R.Z",Mosque,"MASJID E MOINUDDIN ZAHED, MAKTAB HAZRAT UMAR FAROOQ R.Z, SUNNAM BATTI, Edla Wada, Mancherial, Telangana 504208",,"SUNNAM BATTI, Edla Wada",Mancherial,504208,Telangana,IN,"https://www.google.com/maps/place/MASJID+E+MOINUDDIN+ZAHED,+MAKTAB+HAZRAT+UMAR+FAROOQ+R.Z/data=!4m7!3m6!1s0x3a32cbd20eb48977:0x15c91af9fdef8ae3!8m2!3d18.8653693!4d79.4573734!16s%2Fg%2F11swy46385!19sChIJd4m0DtLLMjoR44rv_fkayRU?authuser=0&hl=en&rclk=1","18.865369299999998,79.4573734"
Masjid-E-Malapally,Mosque,"Masjid-E-Malapally, Malapally St, beside New Minar Super Market, Mujahed Nagar, Nizamabad, Telangana 503001",Mujahed Nagar,"Malapally St, beside New Minar Super Market",Nizamabad,503001,Telangana,IN,https://www.google.com/maps/place/Masjid-E-Malapally/data=!4m7!3m6!1s0x3bcddb1a1c000001:0x2a23dbfff15ea39e!8m2!3d18.6717076!4d78.081221!16s%2Fg%2F11b6dg07fz!19sChIJAQAAHBrbzTsRnqNe8f_bIyo?authuser=0&hl=en&rclk=1,"18.671707599999998,78.081221"
Jama Masjid,Mosque,"MGGQ+F5Q Jama Masjid, Jama Masjid Rd, Mahalaxmiwada, Adilabad, Telangana 504001",Mahalaxmiwada,"MGGQ+F5Q, Jama Masjid Rd",Adilabad,504001,Telangana,IN,https://www.google.com/maps/place/Jama+Masjid/data=!4m7!3m6!1s0x3bd25c75f87e8a01:0x25a95ee1fbab37d0!8m2!3d19.6762137!4d78.5379985!16s%2Fg%2F1tlqnfwv!19sChIJAYp--HVc0jsR0Der--FeqSU?authuser=0&hl=en&rclk=1,"19.676213699999998,78.5379985"
Gulzaar Masjid,Mosque,"MGCR+66Q Gulzaar Masjid, Bokkalguda St, Brahmanwadi, Adilabad, Telangana 504001",Brahmanwadi,"MGCR+66Q, Bokkalguda St",Adilabad,504001,Telangana,IN,https://www.google.com/maps/place/Gulzaar+Masjid/data=!4m7!3m6!1s0x3bd25c7477d00337:0x3dc61fe7489f62b1!8m2!3d19.6704596!4d78.5395986!16s%2Fg%2F1tcz6sjz!19sChIJNwPQd3Rc0jsRsWKfSOcfxj0?authuser=0&hl=en&rclk=1,"19.670459599999997,78.53959859999999"
"Masjid-e-Yahya, Gajulpet",Mosque,"485J+MRG Masjid-e-Yahya, Gajulpet, Gajulpet, Telangana 504106",,485J+MRG,Gajulpet,504106,Telangana,IN,"https://www.google.com/maps/place/Masjid-e-Yahya,+Gajulpet/data=!4m7!3m6!1s0x3bcd8b7bcb59113d:0x9c871539096c8956!8m2!3d19.1091943!4d78.3320753!16s%2Fg%2F11c716w5jr!19sChIJPRFZy3uLzTsRVolsCTkVh5w?authuser=0&hl=en&rclk=1","19.1091943,78.3320753"
Masjid E Khair Ul Anam,Mosque,"M4R7+5R4 Masjid E Khair Ul Anam, Chandrashekar Colony, Nizamabad, Telangana 503002",Chandrashekar Colony,M4R7+5R4,Nizamabad,503002,Telangana,IN,https://www.google.com/maps/place/Masjid+E+Khair+Ul+Anam/data=!4m7!3m6!1s0x3bcdc4b597d335bb:0x7df1622082f1ce0c!8m2!3d18.6903775!4d78.1145696!16s%2Fg%2F11b7rttbxh!19sChIJuzXTl7XEzTsRDM7xgiBi8X0?authuser=0&hl=en&rclk=1,"18.6903775,78.1145696"
Madina Masjid,Mosque,"Madina Masjid, Government Junior College, Bhainsa, Telangana 504103",,Government Junior College,Bhainsa,504103,Telangana,IN,https://www.google.com/maps/place/Madina+Masjid/data=!4m7!3m6!1s0x3bcdfe5aef2fd1e3:0x48c8397dc97ab0f6!8m2!3d19.1096769!4d77.9643594!16s%2Fg%2F11b7w99d4p!19sChIJ49Ev71r-zTsR9rB6yX05yEg?authuser=0&hl=en&rclk=1,"19.1096769,77.96435939999999"
Masjid Panjesha,Mosque,"Masjid Panjesha, masjid, panjesha marg, Bhainsa, Telangana 504103",,"masjid, panjesha marg",Bhainsa,,Telangana,IN,https://www.google.com/maps/place/Masjid+Panjesha/data=!4m7!3m6!1s0x3bcdfe45594b318b:0xa9a4527a0d3bdd4e!8m2!3d19.1114013!4d77.9614446!16s%2Fg%2F11xfvxc4m!19sChIJizFLWUX-zTsRTt07DXpSpKk?authuser=0&hl=en&rclk=1,"19.1114013,77.9614446"
Masjid e Noor Khursheed Nagar,Mosque,"Masjid e Noor Khursheed Nagar, khursheed Nagar, Adilabad, Telangana 504001",khursheed Nagar,,Adilabad,,Telangana,IN,https://www.google.com/maps/place/Masjid+e+Noor+Khursheed+Nagar/data=!4m7!3m6!1s0x3bd25b7f77891187:0xd64d9d2522c68201!8m2!3d19.6780656!4d78.5199255!16s%2Fg%2F1pp2x6dd1!19sChIJhxGJd39b0jsRAYLGIiWdTdY?authuser=0&hl=en&rclk=1,"19.6780656,78.5199255"
Mohammadia Masjid,Mosque,"MGFH+M8P Mohammadia Masjid, NH 44, Vidya Nagar, Adilabad, Telangana 504001",Vidya Nagar,"MGFH+M8P, NH 44",Adilabad,504001,Telangana,IN,https://www.google.com/maps/place/Mohammadia+Masjid/data=!4m7!3m6!1s0x3bd25c7892a2eb3b:0x89c3b0daf8ff360!8m2!3d19.6742243!4d78.5283275!16s%2Fg%2F1tjz1t_5!19sChIJO-uiknhc0jsRYPOPrw07nAg?authuser=0&hl=en&rclk=1,"19.6742243,78.5283275"
Ayesha Masjid,Mosque,"MV8X+W8G Ayesha Masjid, Main Rd, Buswatarag Nagar, Pandu Tarfa (Bodhan Urban), Telangana 503180",Buswatarag Nagar,"MV8X+W8G, Main Rd",Pandu Tarfa (Bodhan Urban),503180,Telangana,IN,https://www.google.com/maps/place/Ayesha+Masjid/data=!4m7!3m6!1s0x3bce764438bf31c5:0x2fd99e6fb551c13d!8m2!3d18.667309!4d77.8983227!16s%2Fg%2F11bwylgd4w!19sChIJxTG_OER2zjsRPcFRtW-e2S8?authuser=0&hl=en&rclk=1,"18.667309,77.8983227"
Masjid e Khadim,Mosque,"974W+GHR Masjid e Khadim, Asifabad, Telangana 504293",,974W+GHR,Asifabad,504293,Telangana,IN,https://www.google.com/maps/place/Masjid+e+Khadim/data=!4m7!3m6!1s0x3bd2ac0487a9f291:0x6fbe7074c3de740b!8m2!3d19.3563518!4d79.2964018!16s%2Fg%2F11cjj61r0q!19sChIJkfKphwSs0jsRC3Tew3Rwvm8?authuser=0&hl=en&rclk=1,"19.3563518,79.2964018"
Eid-Gah,Mosque,"4XC4+J65 Eid-Gah, Palsi Road, Telangana 504103",,"4XC4+J65, Palsi Road",,504103,Telangana,IN,https://www.google.com/maps/place/Eid-Gah/data=!4m7!3m6!1s0x3bcdfe4b41f2b35b:0x49272df21ed88662!8m2!3d19.1215231!4d77.9556209!16s%2Fg%2F11b7lhbkzd!19sChIJW7PyQUv-zTsRYobYHvItJ0k?authuser=0&hl=en&rclk=1,"19.121523099999997,77.9556209"
Sabera Masjid,Mosque,"M3FM+35Q Sabera Masjid, Malapally, Mujahed Nagar, Nizamabad, Telangana 503001","Malapally, Mujahed Nagar",M3FM+35Q,Nizamabad,503001,Telangana,IN,https://www.google.com/maps/place/Sabera+Masjid/data=!4m7!3m6!1s0x3bcddb1984ba1037:0x8145996f08919629!8m2!3d18.6727151!4d78.0829728!16s%2Fg%2F11c6v9_3j7!19sChIJNxC6hBnbzTsRKZaRCG-ZRYE?authuser=0&hl=en&rclk=1,"18.672715099999998,78.0829728"
Masjid-e-Charbhai,Mosque,"H6W9+2MC Masjid-e-Charbhai, NH 44, Dichpally, Telangana 503322",,"H6W9+2MC, NH 44",Dichpally,503322,Telangana,IN,https://www.google.com/maps/place/Masjid-e-Charbhai/data=!4m7!3m6!1s0x3bcdc8c3f5f4318b:0xb96f0e4800c8cc5c!8m2!3d18.5950729!4d78.2191446!16s%2Fg%2F11b6p4j0sd!19sChIJizH09cPIzTsRXMzIAEgOb7k?authuser=0&hl=en&rclk=1,"18.595072899999998,78.21914459999999"
Masjid E Bilal Ahle Hadees,Mosque,"Masjid E Bilal Ahle Hadees, IMDAD COLONY, Raipally Road, Narayankhed Bypass Road, Turkapally, Narayankhed (CT), Telangana 502286",Turkapally,"IMDAD COLONY, Raipally Road, Narayankhed Bypass Road",Narayankhed (CT),502286,Telangana,IN,https://www.google.com/maps/place/Masjid+E+Bilal+Ahle+Hadees/data=!4m7!3m6!1s0x3bcea29cf6ee7b1b:0xd3077b050994ac6b!8m2!3d18.0333129!4d77.7769093!16s%2Fg%2F11clhpshy4!19sChIJG3vu9pyizjsRa6yUCQV7B9M?authuser=0&hl=en&rclk=1,"18.0333129,77.7769093"
Masjid e Yaqoob,Mosque,"M3JC+JQ2 Masjid e Yaqoob, Arsapally, Nizamabad, Telangana 503001",Arsapally,M3JC+JQ2,Nizamabad,503001,Telangana,IN,https://www.google.com/maps/place/Masjid+e+Yaqoob/data=!4m7!3m6!1s0x3bcddb0c1154110f:0xe09328da6a1e5ee7!8m2!3d18.6815197!4d78.0718971!16s%2Fg%2F11bxfdtw9x!19sChIJDxFUEQzbzTsR514eatook-A?authuser=0&hl=en&rclk=1,"18.6815197,78.0718971"
MASJID-E-MOMINAN,Mosque,"4X76+4V9 MASJID-E-MOMINAN, mominan Galli, Siddhartha Nagar, Bhainsa, Telangana 504103",Siddhartha Nagar,"4X76+4V9, mominan Galli",Bhainsa,504103,Telangana,IN,https://www.google.com/maps/place/MASJID-E-MOMINAN/data=!4m7!3m6!1s0x3bcdfe4fe1772615:0x1ea8449dd9031e42!8m2!3d19.1127883!4d77.9622459!16s%2Fg%2F11bymwdg7g!19sChIJFSZ34U_-zTsRQh4D2Z1EqB4?authuser=0&hl=en&rclk=1,"19.1127883,77.9622459"
Madeena Masjid,Mosque,"Madeena Masjid, Bheemaram-Chinthagattu Rd, Bheemaram, Hanamkonda, Telangana 506015",Bheemaram,Bheemaram-Chinthagattu Rd,Hanamkonda,506015,Telangana,IN,https://www.google.com/maps/place/Madeena+Masjid/data=!4m7!3m6!1s0x3a334f324cddced3:0xf7c790e120faf6b5!8m2!3d18.0434688!4d79.529353!16s%2Fg%2F1pp2txl9w!19sChIJ087dTDJPMzoRtfb6IOGQx_c?authuser=0&hl=en&rclk=1,"18.0434688,79.529353"
Masjid-e-Amera | msjd `myrh,Mosque,"8FVM+P2F Masjid-e-Amera | msjd `myrh, New Indira Market, Kagaznagar, Telangana",Ward Number 3,"8FVM+P2F, New Indira Market",Kagaznagar,,Telangana,IN,https://www.google.com/maps/place/Masjid-e-Amera+%7C+%D9%85%D8%B3%D8%AC%D8%AF+%D8%B9%D8%A7%D9%85%DB%8C%D8%B1%D8%A7%DB%81%E2%80%AD/data=!4m7!3m6!1s0x3a2d56badb25cd45:0x64c23d8b7bb9f786!8m2!3d19.3443152!4d79.4825415!16s%2Fg%2F11b6w96mkl!19sChIJRc0l27pWLToRhve5e4s9wmQ?authuser=0&hl=en&rclk=1,"19.3443152,79.4825415"
Saleheen Masjid,Mosque,"Saleheen Masjid, Unnamed Road, 503001, Arsapally, Nizamabad, Telangana 503001",Arsapally,"Unnamed Road, 503001",Nizamabad,503001,Telangana,IN,https://www.google.com/maps/place/Saleheen+Masjid/data=!4m7!3m6!1s0x3bcddb0f5281ccd7:0xa074b4f784e52bc7!8m2!3d18.6752289!4d78.0708761!16s%2Fg%2F11gb3n18h5!19sChIJ18yBUg_bzTsRxyvlhPe0dKA?authuser=0&hl=en&rclk=1,"18.6752289,78.07087609999999"
Jamah Masjid,Mosque,"Jamah Masjid, 21-4-43, Tilak Nagar Road, Fertilizer City, Tilak Nagar Road, Fertilizer City, Godavarikhani, Ramagundam, Shanthinagar, Telangana 505211","Fertilizer City, Godavarikhani","21-4-43, Tilak Nagar Road, Fertilizer City, Tilak Nagar Road","Ramagundam, Shanthinagar",505211,Telangana,IN,https://www.google.com/maps/place/Jamah+Masjid/data=!4m7!3m6!1s0x3a32ce5c85790e6b:0xd31aaa3a2dd0934a!8m2!3d18.7393712!4d79.4978368!16s%2Fg%2F11c60d45mn!19sChIJaw55hVzOMjoRSpPQLTqqGtM?authuser=0&hl=en&rclk=1,"18.7393712,79.4978368"
Masjid-e-Garib Nawaz,Mosque,"MGPP+943 Masjid-e-Garib Nawaz, raza chowk, Jai Jawan Nagar, Tatiguda Colony, Adilabad, Telangana 504001","Kranti Nagar, Tatiguda Colony","MGPP+943, raza chowk, Jai Jawan Nagar",Adilabad,504001,Telangana,IN,https://www.google.com/maps/place/Masjid-e-Garib+Nawaz/data=!4m7!3m6!1s0x3bd25b8e4eca922b:0x9859180dd7cc6aa7!8m2!3d19.6858886!4d78.5352986!16s%2Fg%2F11g889_zry!19sChIJK5LKTo5b0jsRp2rM1w0YWZg?authuser=0&hl=en&rclk=1,"19.6858886,78.53529859999999"
Jama Masjid,Mosque,"4X76+PG6 Jama Masjid, Bhainsa, Telangana 504103",,4X76+PG6,Bhainsa,504103,Telangana,IN,https://www.google.com/maps/place/Jama+Masjid/data=!4m7!3m6!1s0x3bcdfe4fcb6d4d3b:0x5b221d8cd9bf7450!8m2!3d19.1142804!4d77.961278!16s%2Fg%2F11by_ln6gj!19sChIJO01ty0_-zTsRUHS_2YwdIls?authuser=0&hl=en&rclk=1,"19.1142804,77.961278"
Jama E Masjid,Mosque,"VQ5V+JXP Jama E Masjid, Chennur, Telangana 504201",,VQ5V+JXP,Chennur,504201,Telangana,IN,https://www.google.com/maps/place/Jama+E+Masjid/data=!4m7!3m6!1s0x3a32eba81e6cb449:0x5d8ccd07c61ccb39!8m2!3d18.8590975!4d79.7949404!16s%2Fg%2F1pv1smc81!19sChIJSbRsHqjrMjoROcscxgfNjF0?authuser=0&hl=en&rclk=1,"18.8590975,79.7949404"
Jama Masjid Mentrajpally,Mosque,"M653+6J5 Jama Masjid Mentrajpally, Mentrajpalle, Telangana 503175",,M653+6J5,Mentrajpalle,503175,Telangana,IN,https://www.google.com/maps/place/Jama+Masjid+Mentrajpally/data=!4m7!3m6!1s0x3bcdc677bd39b34f:0x689b3b96c24575ee!8m2!3d18.6580109!4d78.2041237!16s%2Fg%2F11cmsjbd0w!19sChIJT7M5vXfGzTsR7nVFwpY7m2g?authuser=0&hl=en&rclk=1,"18.6580109,78.2041237"
Masjid E Tayyaba,Mosque,"VF7F+3FH Masjid E Tayyaba, Flood Colony, Naspur, Mancherial, Telangana 504302",Flood Colony,VF7F+3FH,"Naspur, Mancherial",504302,Telangana,IN,https://www.google.com/maps/place/Masjid+E+Tayyaba/data=!4m7!3m6!1s0x3a32c9a33d61e42d:0x67ab2dc79cc1b591!8m2!3d18.8626989!4d79.4737213!16s%2Fg%2F11g4h2ms8d!19sChIJLeRhPaPJMjoRkbXBnMctq2c?authuser=0&hl=en&rclk=1,"18.862698899999998,79.4737213"
Masjid-e-Mohammadia,Mosque,"3V66+WV3 Masjid-e-Mohammadia, Ponnal, Telangana 502277",,3V66+WV3,Ponnal,502277,Telangana,IN,https://www.google.com/maps/place/Masjid-e-Mohammadia/data=!4m7!3m6!1s0x3bcc92f4a1acebc3:0xe8ab0a3c98ad5a6c!8m2!3d18.0622664!4d78.8621794!16s%2Fg%2F11c52ls6lx!19sChIJw-usofSSzDsRbFqtmDwKq-g?authuser=0&hl=en&rclk=1,"18.0622664,78.8621794"
JAMA MASJID SULTANGUDA,Mosque,"C2RR+XGF JAMA MASJID SULTANGUDA, Sultanguda, Kerimeri, Adilabad, Telangana 504313",Sultanguda,C2RR+XGF,"Kerimeri, Adilabad",,Telangana,IN,https://www.google.com/maps/place/JAMA+MASJID+SULTANGUDA/data=!4m7!3m6!1s0x3bd2bd475cdd2b39:0x2b52fccf2d27bcc0!8m2!3d19.4424339!4d79.0413029!16s%2Fg%2F11d_5drtt9!19sChIJOSvdXEe90jsRwLwnLc_8Uis?authuser=0&hl=en&rclk=1,"19.442433899999997,79.04130289999999"
Abdullah Masjid,Mosque,"M3FR+WQ3 Abdullah Masjid, NRI Colony, Arsapally, Nizamabad, Telangana 503001","NRI Colony, Arsapally",M3FR+WQ3,Nizamabad,503001,Telangana,IN,https://www.google.com/maps/place/Abdullah+Masjid/data=!4m7!3m6!1s0x3bcddb233be2efa7:0xc2aaa7b71845e8eb!8m2!3d18.6747696!4d78.0919267!16s%2Fg%2F11bwl3p7rm!19sChIJp-_iOyPbzTsR6-hFGLenqsI?authuser=0&hl=en&rclk=1,"18.674769599999998,78.0919267"
Masjid e Ishaat-e-Islam,Mosque,"MH33+H28 Masjid e Ishaat-e-Islam, Adilabad, Telangana 504001",,MH33+H28,Adilabad,504001,Telangana,IN,https://www.google.com/maps/place/Masjid+e+Ishaat-e-Islam/data=!4m7!3m6!1s0x3bd25c17d761b9e3:0x9051e74decccc3da!8m2!3d19.653917!4d78.552592!16s%2Fg%2F11g9vtzndj!19sChIJ47lh1xdc0jsR2sPM7E3nUZA?authuser=0&hl=en&rclk=1,"19.653917,78.55259199999999"
Budharpet Masjid,Mosque,"483V+F49 Budharpet Masjid, Pinjari Gutta, Nirmal, Telangana 504106",Pinjari Gutta,483V+F49,Nirmal,504106,Telangana,IN,https://www.google.com/maps/place/Budharpet+Masjid/data=!4m7!3m6!1s0x3bcd8b80c2fc5e99:0xbd732aff04f66e07!8m2!3d19.1036542!4d78.3428597!16s%2Fg%2F11dxchc4cr!19sChIJmV78woCLzTsRB272BP8qc70?authuser=0&hl=en&rclk=1,"19.103654199999998,78.34285969999999"
Osman Masjid,Mosque,"4X47+RJX Osman Masjid, Asad Baba Nagar, Bhainsa, Telangana 504103",Asad Baba Nagar,4X47+RJX,Bhainsa,504103,Telangana,IN,https://www.google.com/maps/place/Osman+Masjid/data=!4m7!3m6!1s0x3bcdfe5b6bc0025d:0x854fb770d38fd2a3!8m2!3d19.107103!4d77.9641068!16s%2Fg%2F11cn6jvztk!19sChIJXQLAa1v-zTsRo9KP03C3T4U?authuser=0&hl=en&rclk=1,"19.107103,77.9641068"
MedipallyJama Masjid,Mosque,"926F+GCJ MedipallyJama Masjid, Metpally, Medpalle, Telangana 503175",,926F+GCJ,"Metpally, Medpalle",,Telangana,IN,https://www.google.com/maps/place/MedipallyJama+Masjid/data=!4m7!3m6!1s0x3bcc2d0e856f82f7:0x4c65b0ad609dee85!8m2!3d18.3613343!4d78.0235026!16s%2Fg%2F11gmv6yym8!19sChIJ94JvhQ4tzDsRhe6dYK2wZUw?authuser=0&hl=en&rclk=1,"18.3613343,78.0235026"
Masjid-e-Anas,Mosque,"Masjid-e-Anas, Chennur, Telangana 504201",,,Chennur,,Telangana,IN,https://www.google.com/maps/place/Masjid-e-Anas/data=!4m7!3m6!1s0x3a32eba90c00966d:0xdf13a48769c39ab1!8m2!3d18.8557902!4d79.7921374!16s%2Fg%2F1pv5zg601!19sChIJbZYADKnrMjoRsZrDaYekE98?authuser=0&hl=en&rclk=1,"18.855790199999998,79.7921374"
masjid e noor,Mosque,"MG4Q+H92 masjid e noor, Sri Rama Colony, Adilabad, Telangana 504001",Sri Rama Colony,MG4Q+H92,Adilabad,504001,Telangana,IN,https://www.google.com/maps/place/masjid+e+noor/data=!4m7!3m6!1s0x3bd25c6bd009a42f:0x83777eaad70e454d!8m2!3d19.6563983!4d78.5384053!16s%2Fg%2F11c5t1smfj!19sChIJL6QJ0Gtc0jsRTUUO16p-d4M?authuser=0&hl=en&rclk=1,"19.6563983,78.5384053"
Masjid e Bilala,Mosque,"Masjid e Bilala, Adilabad-Asifabad Rd, Jainoor, Telangana 504313",,Adilabad-Asifabad Rd,Jainoor,504313,Telangana,IN,https://www.google.com/maps/place/Masjid+e+Bilala/data=!4m7!3m6!1s0x3bd29bb7204a9e0f:0x706dab2553f72b79!8m2!3d19.3750134!4d78.9120455!16s%2Fg%2F11f6qq3rwz!19sChIJD55KILeb0jsReSv3UyWrbXA?authuser=0&hl=en&rclk=1,"19.3750134,78.91204549999999"
"Jama-e-masjid ,Rudrur jm` msjd rwdrwr",Mosque,"HVJH+X8G Jama-e-masjid ,Rudrur jm` msjd rwdrwr, Rudrur, Telangana 503188",,HVJH+X8G,Rudrur,503188,Telangana,IN,"https://www.google.com/maps/place/Jama-e-masjid+,Rudrur+%D8%AC%D9%85%D8%B9+%D9%85%D8%B3%D8%AC%D8%AF+%D8%B1%D9%88%D8%AF%D8%B1%D9%88%D8%B1%E2%80%AD/data=!4m7!3m6!1s0x3bce79ca47e1b4ad:0xf45d47bc57672886!8m2!3d18.5824369!4d77.8783342!16s%2Fg%2F11g71cz0wb!19sChIJrbThR8p5zjsRhihnV7xHXfQ?authuser=0&hl=en&rclk=1","18.582436899999998,77.8783342"
Gorlavedu Masjid,Mosque,"CQ6M+43G Gorlavedu Masjid, Vajinepalle, Telangana 506168",,CQ6M+43G,Vajinepalle,506168,Telangana,IN,https://www.google.com/maps/place/Gorlavedu+Masjid/data=!4m7!3m6!1s0x3a3318e0502dd7e3:0x386feda162094a3f!8m2!3d18.4103218!4d79.7826964!16s%2Fg%2F11g8f7rg0x!19sChIJ49ctUOAYMzoRP0oJYqHtbzg?authuser=0&hl=en&rclk=1,"18.4103218,79.78269639999999"
Masjid-e-Bakhtawar,Mosque,"Masjid-e-Bakhtawar, Chennur, Telangana 504201",,,Chennur,,Telangana,IN,https://www.google.com/maps/place/Masjid-e-Bakhtawar/data=!4m7!3m6!1s0x3a32ebabc3634da1:0x9871628c748cf414!8m2!3d18.8548409!4d79.7896162!16s%2Fg%2F1ptxr7h2s!19sChIJoU1jw6vrMjoRFPSMdIxicZg?authuser=0&hl=en&rclk=1,"18.8548409,79.7896162"
JAMA MASJID POTHANGAL,Mosque,"R2CX+8MH JAMA MASJID POTHANGAL, Pothangal, Telangana 503246",,R2CX+8MH,Pothangal,503246,Telangana,IN,https://www.google.com/maps/place/JAMA+MASJID+POTHANGAL/data=!4m7!3m6!1s0x3bcde76c6b758535:0x7621dc1128fdb510!8m2!3d18.8208019!4d78.0492206!16s%2Fg%2F11d_txd_3l!19sChIJNYV1a2znzTsRELX9KBHcIXY?authuser=0&hl=en&rclk=1,"18.8208019,78.0492206"
jama masjid,Mosque,"4556+99V jama masjid, Narsapur, Telangana 504104",,4556+99V,Narsapur,504104,Telangana,IN,https://www.google.com/maps/place/jama+masjid/data=!4m7!3m6!1s0x3bcdf6debe130ce1:0x496ea4eb093e0f95!8m2!3d19.1084754!4d78.1609358!16s%2Fg%2F11dymkzz5r!19sChIJ4QwTvt72zTsRlQ8-Ceukbkk?authuser=0&hl=en&rclk=1,"19.1084754,78.16093579999999"
Masjid-e-habeeb,Mosque,"MV6W+WC4 Masjid-e-habeeb, Saraswathi Nagar, Pandu Tarfa (Bodhan Urban), Telangana 503185",Saraswathi Nagar,MV6W+WC4,Pandu Tarfa (Bodhan Urban),503185,Telangana,IN,https://www.google.com/maps/place/Masjid-e-habeeb/data=!4m7!3m6!1s0x3bce764fa6828d13:0xa261e085282ddc81!8m2!3d18.6622574!4d77.8960784!16s%2Fg%2F11dxdjlb7t!19sChIJE42Cpk92zjsRgdwtKIXgYaI?authuser=0&hl=en&rclk=1,"18.662257399999998,77.8960784"
JAMA masjid Devapur,Mosque,"JF65+PVQ JAMA masjid Devapur, Unnamed Road, Devpur, Telangana 504308",,"JF65+PVQ, Unnamed Road",Devpur,504308,Telangana,IN,https://www.google.com/maps/place/JAMA+masjid+Devapur/data=!4m7!3m6!1s0x3bd24302f69b407f:0x99ca94e9fc151aa!8m2!3d19.6118457!4d78.4597213!16s%2Fg%2F11j2c2qfql!19sChIJf0Cb9gJD0jsRqlHBn06pnAk?authuser=0&hl=en&rclk=1,"19.6118457,78.4597213"
MASJID E QUWWAT UL ISLAM msjd qwt lslm,Mosque,"27X9+47W MASJID E QUWWAT UL ISLAM msjd qwt lslm, Unnamed Road, Jambikunta, Ram Nagar, Medak, Telangana 502110","Jambikunta, Ram Nagar","27X9+47W, Unnamed Road",Medak,502110,Telangana,IN,https://www.google.com/maps/place/MASJID+E+QUWWAT+UL+ISLAM+%D9%85%D8%B3%D8%AC%D8%AF+%D9%82%D9%88%D8%AA+%D8%A7%D9%84%D8%A7%D8%B3%D9%84%D8%A7%D9%85%E2%80%AD/data=!4m7!3m6!1s0x3bcc1555fdeebfed:0x2b19c4a24201227e!8m2!3d18.0478679!4d78.2681942!16s%2Fg%2F11h5998dr1!19sChIJ7b_u_VUVzDsRfiIBQqLEGSs?authuser=0&hl=en&rclk=1,"18.0478679,78.2681942"
Masjid-e-Bilall,Diagnostic center,"Masjid-e-Bilall, Bilalpura, Korutla, Telangana 505326",Bilalpura,,Korutla,505326,Telangana,IN,https://www.google.com/maps/place/Masjid-e-Bilall/data=!4m7!3m6!1s0x3bcd0ae0070c6887:0xfc23cdd75824b486!8m2!3d18.8190955!4d78.7017632!16s%2Fg%2F11gzwlr7f!19sChIJh2gMB-AKzTsRhrQkWNfNI_w?authuser=0&hl=en&rclk=1,"18.8190955,78.7017632"
Chenjarla Masjid,Mosque,"966Q+PFV Chenjarla Masjid, Chenjerla, Telangana 505469",,966Q+PFV,Chenjerla,505469,Telangana,IN,https://www.google.com/maps/place/Chenjarla+Masjid/data=!4m7!3m6!1s0x3bccd1a35508e1db:0x59792bc9e8f236d8!8m2!3d18.361867!4d79.2386846!16s%2Fg%2F11f7n4rl_s!19sChIJ2-EIVaPRzDsR2Dby6MkreVk?authuser=0&hl=en&rclk=1,"18.361867,79.2386846"
Noor Masjid Mubeen,Mosque,"MV6P+54G Noor Masjid Mubeen, Buswatarag Nagar, Pandu Tarfa (Bodhan Urban), Telangana 503185",Buswatarag Nagar,MV6P+54G,Pandu Tarfa (Bodhan Urban),503185,Telangana,IN,https://www.google.com/maps/place/Noor+Masjid+Mubeen/data=!4m7!3m6!1s0x3bce76577263295b:0xd9d2cda17c200346!8m2!3d18.6604299!4d77.8853302!16s%2Fg%2F1pp2tjwt6!19sChIJWyljcld2zjsRRgMgfKHN0tk?authuser=0&hl=en&rclk=1,"18.6604299,77.8853302"
MASJID E JEELANIYA,Mosque,"27W3+HHM MASJID E JEELANIYA, Marketyard-Nawabpet Rd, Arabgalli, Medak, Telangana 502110",Arabgalli,"27W3+HHM, Marketyard-Nawabpet Rd",Medak,502110,Telangana,IN,https://www.google.com/maps/place/MASJID+E+JEELANIYA/data=!4m7!3m6!1s0x3bcc157378a4996f:0xaf05db3510bf9480!8m2!3d18.0464721!4d78.2539241!16s%2Fg%2F11fxdxn26z!19sChIJb5mkeHMVzDsRgJS_EDXbBa8?authuser=0&hl=en&rclk=1,"18.0464721,78.25392409999999"
MASJID-E-NOORAIN,Mosque,"VCFQ+9FV MASJID-E-NOORAIN, Reddy Colony, Mancherial, Telangana 504208",Reddy Colony,VCFQ+9FV,Mancherial,504208,Telangana,IN,https://www.google.com/maps/place/MASJID-E-NOORAIN/data=!4m7!3m6!1s0x3a32cb27edba3829:0x47d4434a72563692!8m2!3d18.8734981!4d79.4386736!16s%2Fg%2F11ghnfl4km!19sChIJKTi67SfLMjoRkjZWckpD1Ec?authuser=0&hl=en&rclk=1,"18.8734981,79.4386736"
Umar Masjid,Mosque,"MG2H+9J7 Umar Masjid, Pittalwada, Khoja Colony, Adilabad, Telangana 504001","Pittalwada, Khoja Colony",MG2H+9J7,Adilabad,504001,Telangana,IN,https://www.google.com/maps/place/Umar+Masjid/data=!4m7!3m6!1s0x3bd25c5d9e45a7ff:0xd9937a4c4bfe8c53!8m2!3d19.6509166!4d78.5290486!16s%2Fg%2F11fx95lqmp!19sChIJ_6dFnl1c0jsRU4z-S0x6k9k?authuser=0&hl=en&rclk=1,"19.6509166,78.5290486"
Masjid Dosapally,Mosque,"WRMV+996 Masjid Dosapally, Lingampalle, Telangana 502290",,WRMV+996,Lingampalle,502290,Telangana,IN,https://www.google.com/maps/place/Masjid+Dosapally/data=!4m7!3m6!1s0x3bcea6a433ad7ebf:0x519c514508b72777!8m2!3d17.9334082!4d77.8433874!16s%2Fg%2F11hblr18yp!19sChIJv36tM6SmzjsRdye3CEVRnFE?authuser=0&hl=en&rclk=1,"17.9334082,77.8433874"
Jama Masjid Ghotkuri,Mosque,"PGM5+G6V Jama Masjid Ghotkuri, Ghotkuri, Telangana 504312",,PGM5+G6V,Ghotkuri,504312,Telangana,IN,https://www.google.com/maps/place/Jama+Masjid+Ghotkuri/data=!4m7!3m6!1s0x3bd25b8331a0a60d:0x41ef8cf68b67feef!8m2!3d19.7338744!4d78.5080623!16s%2Fg%2F11gyyzzys3!19sChIJDaagMYNb0jsR7_5ni_aM70E?authuser=0&hl=en&rclk=1,"19.733874399999998,78.50806229999999"
"Masjid-e- Hazrath Ali, Sangupet",Mosque,"Q3QF+6FC Masjid-e- Hazrath Ali, Sangupet, Sangupet, Telangana 502273",,Q3QF+6FC,Sangupet,502273,Telangana,IN,"https://www.google.com/maps/place/Masjid-e-+Hazrath+Ali,+Sangupet/data=!4m7!3m6!1s0x3bcc05ce2b14d45d:0x9ed676d1f60bdf06!8m2!3d17.7880558!4d78.0736498!16s%2Fg%2F11f04m_xh_!19sChIJXdQUK84FzDsRBt8L9tF21p4?authuser=0&hl=en&rclk=1","17.7880558,78.0736498"
Noori Masjid,Mosque,"Noori Masjid, c.c.c, C.C.C Plant Rd, Gandhi nagar, Naspur, Mancherial, Telangana 504302",Gandhi nagar,"c.c.c, C.C.C Plant Rd","Naspur, Mancherial",504302,Telangana,IN,https://www.google.com/maps/place/Noori+Masjid/data=!4m7!3m6!1s0x3a32c9eba6e4957f:0x841ba9258603bdb!8m2!3d18.8687021!4d79.4891449!16s%2Fg%2F11gbz9rzkv!19sChIJf5XkpuvJMjoR2ztgWJK6QQg?authuser=0&hl=en&rclk=1,"18.8687021,79.4891449"
Bilal Rz Masjid,Mosque,"29C7+8C3 Bilal Rz Masjid, Gamjal, Telangana 504105",,29C7+8C3,Gamjal,504105,Telangana,IN,https://www.google.com/maps/place/Bilal+Rz+Masjid/data=!4m7!3m6!1s0x3bcd8dfd5e8bef41:0x90088cf3276a00b4!8m2!3d19.0207686!4d78.3635425!16s%2Fg%2F11g1dywtz6!19sChIJQe-LXv2NzTsRtABqJ_OMCJA?authuser=0&hl=en&rclk=1,"19.0207686,78.3635425"
Masjid Abubakar,Mosque,"2C99+738 Masjid Abubakar, Mirzapally, Telangana 502248",,2C99+738,Mirzapally,502248,Telangana,IN,https://www.google.com/maps/place/Masjid+Abubakar/data=!4m7!3m6!1s0x3bcc69af0c7561b1:0xe6bc2ac9ea12e2ca!8m2!3d18.0181648!4d78.4177025!16s%2Fg%2F11n85dg96n!19sChIJsWF1DK9pzDsRyuIS6skqvOY?authuser=0&hl=en&rclk=1,"18.018164799999997,78.41770249999999"
Masjid - e - Shaik Fareed,Mosque,"Masjid - e - Shaik Fareed, 118, Anil Talkies Rd, venkateshwara colony, Venkateshwara Colony, Pandu Tarfa (Bodhan Urban), Telangana 503185","venkateshwara colony, Venkateshwara Colony","118, Anil Talkies Rd",Pandu Tarfa (Bodhan Urban),503185,Telangana,IN,https://www.google.com/maps/place/Masjid+-+e+-+Shaik+Fareed/data=!4m7!3m6!1s0x3bce764be7a45855:0x26ab68fa4fb0cd67!8m2!3d18.6570741!4d77.9009132!16s%2Fg%2F11c37hgbq0!19sChIJVVik50t2zjsRZ82wT_poqyY?authuser=0&hl=en&rclk=1,"18.6570741,77.90091319999999"
Jama masjid,Mosque,"CFH3+8WC Jama masjid, Ichoda, Telangana 504307",,CFH3+8WC,Ichoda,504307,Telangana,IN,https://www.google.com/maps/place/Jama+masjid/data=!4m7!3m6!1s0x3bd26fcb3b2536e3:0x24b38adada85879e!8m2!3d19.4283175!4d78.454781!16s%2Fg%2F11ppybzh_0!19sChIJ4zYlO8tv0jsRnoeF2tqKsyQ?authuser=0&hl=en&rclk=1,"19.4283175,78.454781"
Chennur Eidgah,Mosque,"VQ3J+64P Chennur Eidgah, Chennur, Telangana 504201",,VQ3J+64P,Chennur,504201,Telangana,IN,https://www.google.com/maps/place/Chennur+Eidgah/data=!4m7!3m6!1s0x3a32eb346e2922d1:0x522bc793d3989cc0!8m2!3d18.8530758!4d79.7803149!16s%2Fg%2F11gr41f9d1!19sChIJ0SIpbjTrMjoRwJyY05PHK1I?authuser=0&hl=en&rclk=1,"18.8530758,79.7803149"
"Dargah Hazrat Syed Shah Baba,R.A (GADI)",Mosque,"VQ5V+RW7 Dargah Hazrat Syed Shah Baba,R.A (GADI), Chennur, Telangana 504201",,VQ5V+RW7,Chennur,504201,Telangana,IN,"https://www.google.com/maps/place/Dargah+Hazrat+Syed+Shah+Baba,R.A+%28GADI%29/data=!4m7!3m6!1s0x3a32eb45406c13c1:0x6ceb3a5b566c116e!8m2!3d18.8595385!4d79.7947966!16s%2Fg%2F11h6r2nwsr!19sChIJwRNsQEXrMjoRbhFsVls662w?authuser=0&hl=en&rclk=1","18.8595385,79.7947966"
Nagina Mosque,Mosque,"MGJM+HP5 Nagina Mosque, Tatiguda Colony, Adilabad, Telangana 504001",Tatiguda Colony,MGJM+HP5,Adilabad,504001,Telangana,IN,https://www.google.com/maps/place/Nagina+Mosque/data=!4m7!3m6!1s0x3bd25b4ce49791ef:0x49520374c45c5a0!8m2!3d19.6813908!4d78.5343507!16s%2Fg%2F11h6tjfc17!19sChIJ75GX5Exb0jsRoMVFTDcglQQ?authuser=0&hl=en&rclk=1,"19.6813908,78.53435069999999"
Muhammadia Masjid,Mosque,"XRH4+F5X Muhammadia Masjid, Gatlingampalle, Telangana 502286",,XRH4+F5X,Gatlingampalle,502286,Telangana,IN,https://www.google.com/maps/place/Muhammadia+Masjid/data=!4m7!3m6!1s0x3bcea3ba590ccd71:0x6906873f9782d778!8m2!3d17.9787445!4d77.8054883!16s%2Fg%2F11hbny4z02!19sChIJcc0MWbqjzjsReNeClz-HBmk?authuser=0&hl=en&rclk=1,"17.978744499999998,77.8054883"
Masjid-e- Amina,Mosque,"MGFR+G3G Masjid-e- Amina, Brahmanwadi, Adilabad, Telangana 504001",Brahmanwadi,MGFR+G3G,Adilabad,504001,Telangana,IN,https://www.google.com/maps/place/Masjid-e-+Amina/data=!4m7!3m6!1s0x3bd25ddc88f570b9:0x22cb1f0c107c4bc6!8m2!3d19.6738162!4d78.5401916!16s%2Fg%2F11k7xv923r!19sChIJuXD1iNxd0jsRxkt8EAwfyyI?authuser=0&hl=en&rclk=1,"19.673816199999997,78.5401916"
Masjid-E-Aqsa,Mosque,"Masjid-E-Aqsa, Masjid-E-Aqsa Khanapur, Ambedkar Nagar, Khanapur, Telangana 504001",Ambedkar Nagar,Masjid-E-Aqsa Khanapur,Khanapur,504001,Telangana,IN,https://www.google.com/maps/place/Masjid-E-Aqsa/data=!4m7!3m6!1s0x3bd25dcc44670e61:0x730f194bf8b6847d!8m2!3d19.6716338!4d78.5448989!16s%2Fg%2F11j07wlncw!19sChIJYQ5nRMxd0jsRfYS2-EsZD3M?authuser=0&hl=en&rclk=1,"19.6716338,78.54489889999999"
Fathima Masjid,Mosque,"8V6F+R9R Fathima Masjid, Ghanpur, Telangana 506345",,8V6F+R9R,Ghanpur,506345,Telangana,IN,https://www.google.com/maps/place/Fathima+Masjid/data=!4m7!3m6!1s0x3a3310f7f42369f1:0x2b140ad3dab510d!8m2!3d18.3121221!4d79.8733885!16s%2Fg%2F11c5wxyl8x!19sChIJ8Wkj9PcQMzoRDVGrPa1AsQI?authuser=0&hl=en&rclk=1,"18.3121221,79.87338849999999"
Masjid Mohammadia,Mosque,"9QCG+VR7 Masjid Mohammadia, Utnoor Rd, Utnur, Telangana 504311",,"9QCG+VR7, Utnoor Rd",Utnur,504311,Telangana,IN,https://www.google.com/maps/place/Masjid+Mohammadia/data=!4m7!3m6!1s0x3bd285b0dc0d26a7:0xf6fa3333ae2948b7!8m2!3d19.3721507!4d78.7770528!16s%2Fg%2F11c2p105cs!19sChIJpyYN3LCF0jsRt0gprjMz-vY?authuser=0&hl=en&rclk=1,"19.3721507,78.77705279999999"
Masjid-E-Mohammediya Qadriya,Mosque,"RQXV+PFX Masjid-E-Mohammediya Qadriya, Indranagar, Chennur, Telangana 504201",Indranagar,RQXV+PFX,Chennur,504201,Telangana,IN,https://www.google.com/maps/place/Masjid-E-Mohammediya+Qadriya/data=!4m7!3m6!1s0x3a32ebde9850dce3:0x83824848ff621cc1!8m2!3d18.849373!4d79.7937199!16s%2Fg%2F11g0gppcnj!19sChIJ49xQmN7rMjoRwRxi_0hIgoM?authuser=0&hl=en&rclk=1,"18.849373,79.7937199"
Masjid-e-Hazrat Syedna Ali,Mosque,"Masjid-e-Hazrat Syedna Ali, Tatiguda Colony, Adilabad, Telangana 504001",Tatiguda Colony,,Adilabad,504001,Telangana,IN,https://www.google.com/maps/place/Masjid-e-Hazrat+Syedna+Ali/data=!4m7!3m6!1s0x3bd25b054f1b7477:0xbe5511ba6cbe653a!8m2!3d19.6844778!4d78.5344335!16s%2Fg%2F11h_488z3f!19sChIJd3QbTwVb0jsROmW-bLoRVb4?authuser=0&hl=en&rclk=1,"19.6844778,78.53443349999999"
Osmania Masjid,Mosque,"MGGH+J95 Osmania Masjid, Unnamed Road, Osmania Nagar, Adilabad, Telangana 504001",Osmania Nagar,"MGGH+J95, Unnamed Road",Adilabad,504001,Telangana,IN,https://www.google.com/maps/place/Osmania+Masjid/data=!4m7!3m6!1s0x3bd25be4233f9883:0xb2c0a1b37d2b2191!8m2!3d19.6765118!4d78.5284822!16s%2Fg%2F11h76l8r35!19sChIJg5g_I-Rb0jsRkSErfbOhwLI?authuser=0&hl=en&rclk=1,"19.6765118,78.5284822"
Masjid e Abubakar Siddiqe Rz (Ahle Hadees),Mosque,"66W7+CXQ Masjid e Abubakar Siddiqe Rz (Ahle Hadees), Swarna, Ponkur, Telangana 504323",,66W7+CXQ,"Swarna, Ponkur",504323,Telangana,IN,https://www.google.com/maps/place/Masjid+e+Abubakar+Siddiqe+Rz+%28Ahle+Hadees%29/data=!4m7!3m6!1s0x3bd20b47175f92cd:0xcb2bb92ffbba3442!8m2!3d19.2460903!4d78.2149797!16s%2Fg%2F11s0xl6zg7!19sChIJzZJfF0cL0jsRQjS6-y-5K8s?authuser=0&hl=en&rclk=1,"19.2460903,78.2149797"
"Dargah Hazrat Syed Meer Anwar Ali Shah Baba, R.A,",Mosque,"VQ3Q+CRF Dargah Hazrat Syed Meer Anwar Ali Shah Baba, R.A,, Chennur, Telangana 504201",,VQ3Q+CRF,Chennur,504201,Telangana,IN,"https://www.google.com/maps/place/Dargah+Hazrat+Syed+Meer+Anwar+Ali+Shah+Baba,+R.A,/data=!4m7!3m6!1s0x3a32ebec0e3164a9:0xfd7c4c0a32d7ff90!8m2!3d18.853568!4d79.7895399!16s%2Fg%2F11h7607fr7!19sChIJqWQxDuzrMjoRkP_XMgpMfP0?authuser=0&hl=en&rclk=1","18.853568,79.7895399"
Masjid [ msjd ],Mosque,"PXXP+89W Masjid [ msjd ], Renjal, Telangana 503245",,PXXP+89W,Renjal,,Telangana,IN,https://www.google.com/maps/place/Masjid+%5B+%D9%85%D8%B3%D8%AC%D8%AF+%5D%E2%80%AD/data=!4m7!3m6!1s0x3bcddf700a902b7f:0x47f17b2912ed6eb2!8m2!3d18.748356!4d77.9859651!16s%2Fg%2F11sd6ltps8!19sChIJfyuQCnDfzTsRsm7tEil78Uc?authuser=0&hl=en&rclk=1,"18.748355999999998,77.9859651"
Jama masjid bela,Mosque,"PQCC+JH9 Jama masjid bela, Bela, Telangana 504309",,PQCC+JH9,Bela,504309,Telangana,IN,https://www.google.com/maps/place/Jama+masjid+bela/data=!4m7!3m6!1s0x3bd2f1488630dd93:0xfcaa6b3e01b7e421!8m2!3d19.7215441!4d78.771485!16s%2Fg%2F11pzkgxv_6!19sChIJk90whkjx0jsRIeS3AT5rqvw?authuser=0&hl=en&rclk=1,"19.7215441,78.771485"
"Masjid, Rebarthy",Mosque,"W3PJ+XJR Masjid, Rebarthy, Rebarthi, Telangana 506367",,W3PJ+XJR,Rebarthi,506367,Telangana,IN,"https://www.google.com/maps/place/Masjid,+Rebarthy/data=!4m7!3m6!1s0x3bccbdf8c1a42cc3:0x9307a4a214416480!8m2!3d17.9374932!4d79.0815187!16s%2Fg%2F11gxjw65tt!19sChIJwyykwfi9zDsRgGRBFKKkB5M?authuser=0&hl=en&rclk=1","17.9374932,79.08151869999999"
Masjid-Maqta-Pocharam-Road Basheer Farm,Mosque,"P245+35Q Masjid-Maqta-Pocharam-Road Basheer Farm, Nizamabad, Telangana 503186",,P245+35Q,Nizamabad,503186,Telangana,IN,https://www.google.com/maps/place/Masjid-Maqta-Pocharam-Road+Basheer+Farm/data=!4m7!3m6!1s0x3bcdd94d5598b06d:0x6b01cfef1641f576!8m2!3d18.7052069!4d78.0079761!16s%2Fg%2F11f1lvmnt3!19sChIJbbCYVU3ZzTsRdvVBFu_PAWs?authuser=0&hl=en&rclk=1,"18.7052069,78.0079761"
Jama masjid,Mosque,"MC8G+7J9 Jama masjid, Unnamed Road, Umadam, Telangana 504001",,"MC8G+7J9, Unnamed Road",Umadam,504001,Telangana,IN,https://www.google.com/maps/place/Jama+masjid/data=!4m7!3m6!1s0x3bd2438922bc7361:0x90f6ce9e5e66ddca!8m2!3d19.6656543!4d78.426601!16s%2Fg%2F11qsvy6d57!19sChIJYXO8IolD0jsRyt1mXp7O9pA?authuser=0&hl=en&rclk=1,"19.6656543,78.42660099999999"
Jama Mosque Devapur,Mosque,"29R3+5CH Jama Mosque Devapur, Devapur, Telangana 504218",,29R3+5CH,Devapur,504218,Telangana,IN,https://www.google.com/maps/place/Jama+Mosque+Devapur/data=!4m7!3m6!1s0x3bcd4d143d51615b:0xd161b4f792ad7f92!8m2!3d19.0404421!4d79.3536248!16s%2Fg%2F11hbvtzyrz!19sChIJW2FRPRRNzTsRkn-tkve0YdE?authuser=0&hl=en&rclk=1,"19.0404421,79.35362479999999"
Jama MaSjid,Mosque,"69HV+CH5 Jama MaSjid, Bondemregod, Telangana 504323",,69HV+CH5,Bondemregod,504323,Telangana,IN,https://www.google.com/maps/place/Jama+MaSjid/data=!4m7!3m6!1s0x3bd2767193830f55:0xb6bc8cfd60a42707!8m2!3d19.2285041!4d78.393985!16s%2Fg%2F11gf071m2m!19sChIJVQ-Dk3F20jsRByekYP2MvLY?authuser=0&hl=en&rclk=1,"19.2285041,78.393985"
Bilal Masjid,Mosque,"Bilal Masjid, 239, Ramakrishnapur, Telangana 504301",,"239, Ramakrishnapur",Ramakrishnapur,504301,Telangana,IN,https://www.google.com/maps/place/Bilal+Masjid/data=!4m7!3m6!1s0x3a32b42b770d68b1:0xeba45575d4f1ea69!8m2!3d18.9371057!4d79.4662879!16s%2Fg%2F1261y2qj1!19sChIJsWgNdyu0MjoRaerx1HVVpOs?authuser=0&hl=en&rclk=1,"18.9371057,79.4662879"
Eid Gah,Mosque,"Eid Gah, 91/6, Flood Colony, Naspur, Mancherial, Telangana 504302",Flood Colony,91/6,"Naspur, Mancherial",504302,Telangana,IN,https://www.google.com/maps/place/Eid+Gah/data=!4m7!3m6!1s0x3a32c954c13ca8c9:0x9bbf13e306419306!8m2!3d18.8639623!4d79.4728178!16s%2Fg%2F11trwz7gfq!19sChIJyag8wVTJMjoRBpNBBuMTv5s?authuser=0&hl=en&rclk=1,"18.8639623,79.4728178"
Masjid E Ibrahim,Mosque,"Masjid E Ibrahim, Sri Renuka Ellamma Temple, Indiramma Colony, Narsapur, Telangana 502276",Indiramma Colony,Sri Renuka Ellamma Temple,Narsapur,502276,Telangana,IN,https://www.google.com/maps/place/Masjid+E+Ibrahim/data=!4m7!3m6!1s0x3bcced9e24765b31:0xf9ef95f347e2a92a!8m2!3d18.1241248!4d78.8589023!16s%2Fg%2F11n0j7h7r4!19sChIJMVt2JJ7tzDsRKqniR_OV7_k?authuser=0&hl=en&rclk=1,"18.1241248,78.8589023"
Masjid e Afsana,Mosque,"JGRP+7WM Masjid e Afsana, KRK Rd, KRK Colony, Khoja Colony, Adilabad, Telangana 504001","KRK Colony, Khoja Colony","JGRP+7WM, KRK Rd",Adilabad,504001,Telangana,IN,https://www.google.com/maps/place/Masjid+e+Afsana/data=!4m7!3m6!1s0x3bd25d5d2e428473:0xd94d955bdaa63bd4!8m2!3d19.6407052!4d78.5372911!16s%2Fg%2F11t4wlk9cp!19sChIJc4RCLl1d0jsR1Dum2luVTdk?authuser=0&hl=en&rclk=1,"19.6407052,78.53729109999999"
Masjid Andukuthanda,Mosque,"CMQV+32H Masjid Andukuthanda, Garimillapalli, Telangana 506356",,CMQV+32H,Garimillapalli,,Telangana,IN,https://www.google.com/maps/place/Masjid+Andukuthanda/data=!4m7!3m6!1s0x3a33217c2e9aefad:0xda27a8922b3be9d9!8m2!3d18.4376907!4d79.6925959!16s%2Fg%2F11f6y1b01q!19sChIJre-aLnwhMzoR2ek7K5KoJ9o?authuser=0&hl=en&rclk=1,"18.437690699999997,79.6925959"
Owaisi masjid,Mosque,"4X3C+PVW Owaisi masjid, Rd number 2, Bhainsa, Telangana 504103",,"4X3C+PVW, Rd number 2",Bhainsa,504103,Telangana,IN,https://www.google.com/maps/place/Owaisi+masjid/data=!4m7!3m6!1s0x3bcdffb38f817769:0x3746a83dd7b84291!8m2!3d19.1044739!4d77.9714137!16s%2Fg%2F11s5627lk5!19sChIJaXeBj7P_zTsRkUK41z2oRjc?authuser=0&hl=en&rclk=1,"19.1044739,77.9714137"
Sangapur masjid,Mosque,"RM96+HW2 Sangapur masjid, Sangapur Rd, Sangapur, Telangana 502278",,"RM96+HW2, Sangapur Rd",Sangapur,502278,Telangana,IN,https://www.google.com/maps/place/Sangapur+masjid/data=!4m7!3m6!1s0x3bcc872f4cd87d43:0xf018ce2094386065!8m2!3d17.8188953!4d78.6622522!16s%2Fg%2F11rl8tccfb!19sChIJQ33YTC-HzDsRZWA4lCDOGPA?authuser=0&hl=en&rclk=1,"17.818895299999998,78.6622522"
MASJID- E -SIDDIQ,Mosque,"39W3+9GR MASJID- E -SIDDIQ, Moghalpura, Nirmal, Telangana 504106",Moghalpura,39W3+9GR,Nirmal,504106,Telangana,IN,https://www.google.com/maps/place/MASJID-+E+-SIDDIQ/data=!4m7!3m6!1s0x3bcd8d77ced13693:0x2b1f9d1fdf452958!8m2!3d19.0959983!4d78.3537797!16s%2Fg%2F11g1gmhbgh!19sChIJkzbRzneNzTsRWClF3x-dHys?authuser=0&hl=en&rclk=1,"19.095998299999998,78.35377969999999"
Aqsa Masjid,Mosque,"4X4G+44V Aqsa Masjid, Bhainsa, Telangana 504103",,4X4G+44V,Bhainsa,504103,Telangana,IN,https://www.google.com/maps/place/Aqsa+Masjid/data=!4m7!3m6!1s0x3bcdffefc08d1e65:0x78398d3d727b1cd0!8m2!3d19.1053514!4d77.9752969!16s%2Fg%2F11jf0jv14x!19sChIJZR6NwO__zTsR0Bx7cj2NOXg?authuser=0&hl=en&rclk=1,"19.1053514,77.9752969"
Ancient masjid,Mosque,"VMV5+RC Ancient masjid, Arepalle, Telangana 502278",,VMV5+RC,Arepalle,,Telangana,IN,https://www.google.com/maps/place/Ancient+masjid/data=!4m7!3m6!1s0x3bcc87f61b61a8e3:0xcaa00d45cc046b97!8m2!3d17.8946017!4d78.658521!16s%2Fg%2F11ks10rlyx!19sChIJ46hhG_aHzDsRl2sEzEUNoMo?authuser=0&hl=en&rclk=1,"17.8946017,78.658521"
Chilla Mubarak Gouse e Azam,Mosque,"VQ4W+X4G Chilla Mubarak Gouse e Azam, Chennur, Telangana 504201",,VQ4W+X4G,Chennur,504201,Telangana,IN,https://www.google.com/maps/place/Chilla+Mubarak+Gouse+e+Azam/data=!4m7!3m6!1s0x3a32eb21ab958ad5:0x3ae6b59a4b6f5e6f!8m2!3d18.8574495!4d79.7953405!16s%2Fg%2F11h6gc2ps0!19sChIJ1YqVqyHrMjoRb15vS5q15jo?authuser=0&hl=en&rclk=1,"18.857449499999998,79.7953405"
Masjid e Noor,Mosque,"Masjid e Noor, 2-63/3, Akbar Nagar, Kundanpalli, Ramagundam, Telangana 505208","Akbar Nagar, Kundanpalli",2-63/3,Ramagundam,505208,Telangana,IN,https://www.google.com/maps/place/Masjid+e+Noor/data=!4m7!3m6!1s0x3a32cd1d62d77495:0x841ed3c2b10f6201!8m2!3d18.763756!4d79.4336758!16s%2Fg%2F11v64znr09!19sChIJlXTXYh3NMjoRAWIPscLTHoQ?authuser=0&hl=en&rclk=1,"18.763756,79.4336758"
Masjid E Chisthi un Nayabi,Mosque,"WV3H+RCW Masjid E Chisthi un Nayabi, Vatpally, Telangana 502269",,WV3H+RCW,Vatpally,,Telangana,IN,https://www.google.com/maps/place/Masjid+E+Chisthi+un+Nayabi/data=!4m7!3m6!1s0x3bcea7afe32979a3:0x84bbbb52883e5f01!8m2!3d17.9046088!4d77.8785714!16s%2Fg%2F11sdys1zqb!19sChIJo3kp46-nzjsRAV8-iFK7u4Q?authuser=0&hl=en&rclk=1,"17.9046088,77.8785714"
Masjid-e-Taweed,Mosque,"W49M+X9V Masjid-e-Taweed, Ummeda, Telangana 503212",,W49M+X9V,Ummeda,503212,Telangana,IN,https://www.google.com/maps/place/Masjid-e-Taweed/data=!4m7!3m6!1s0x3bcdef84711adc7f:0x8386494f394d9ae7!8m2!3d18.9199843!4d78.1334202!16s%2Fg%2F11f9zdrpmj!19sChIJf9wacYTvzTsR55pNOU9JhoM?authuser=0&hl=en&rclk=1,"18.9199843,78.1334202"
Kulcharam Mosque,Mosque,"X54R+44F Kulcharam Mosque, Kulcharam, Telangana 502381",,X54R+44F,Kulcharam,502381,Telangana,IN,https://www.google.com/maps/place/Kulcharam+Mosque/data=!4m7!3m6!1s0x3bcc1169eb1582fd:0x83d74cf7a5bfbc89!8m2!3d17.9553052!4d78.1903016!16s%2Fg%2F11mjm1yybg!19sChIJ_YIV62kRzDsRiby_pfdM14M?authuser=0&hl=en&rclk=1,"17.955305199999998,78.1903016"
Jama masjid mkhtb HDrt mwln syd s`d mdny mjls tHfZ khtm nbwt khmryddy,Mosque,"49M8+25 Jama masjid mkhtb HDrt mwln syd s`d mdny mjls tHfZ khtm nbwt khmryddy, Ch.Laxmapur (DP), Telangana 502115",,49M8+25,Ch.Laxmapur (DP),502115,Telangana,IN,https://www.google.com/maps/place/Jama+masjid+%D9%85%DA%A9%D8%AA%D8%A8+%D8%AD%D8%B6%D8%B1%D8%AA+%D9%85%D9%88%D9%84%D8%A7%D9%86%D8%A7+%D8%B3%DB%8C%D8%AF+%D8%A7%D8%B3%D8%B9%D8%AF+%D9%85%D8%AF%D9%86%DB%8C+%D9%85%D8%AC%D9%84%D8%B3+%D8%AA%D8%AD%D9%81%D8%B8+%D8%AE%D8%AA%D9%85+%D9%86%D8%A8%D9%88%D8%AA+%DA%A9%D8%A7%D9%85%D8%A7%D8%B1%DB%8C%DA%88%DB%8C%E2%80%AD/data=!4m7!3m6!1s0x3bcc41a799121243:0x23afc0052c07deb7!8m2!3d18.1325675!4d78.3655253!16s%2Fg%2F11t8c8b268!19sChIJQxISmadBzDsRt94HLAXAryM?authuser=0&hl=en&rclk=1,"18.1325675,78.3655253"
Masjid-E-Madina,Mosque,"5HJX+V47 Masjid-E-Madina, Unnamed Road, Shanigaram, Telangana 505102",,"5HJX+V47, Unnamed Road",Shanigaram,505102,Telangana,IN,https://www.google.com/maps/place/Masjid-E-Madina/data=!4m7!3m6!1s0x3a3339f990d1c69b:0xf452ed6b23ed3150!8m2!3d18.182167!4d79.5977945!16s%2Fg%2F11pc48pzff!19sChIJm8bRkPk5MzoRUDHtI2vtUvQ?authuser=0&hl=en&rclk=1,"18.182167,79.59779449999999"
MASJID E EIDGAON NIRMAL,Mosque,"38PV+W2C MASJID E EIDGAON NIRMAL, Unnamed Road, Natraj Nagar, Eidgoan, Nirmal, Telangana 504106","Natraj Nagar, Eidgoan","38PV+W2C, Unnamed Road",Nirmal,504106,Telangana,IN,https://www.google.com/maps/place/MASJID+E+EIDGAON+NIRMAL/data=!4m7!3m6!1s0x3bcd8c6358878827:0x9e6de3030bed805a!8m2!3d19.0873155!4d78.3425302!16s%2Fg%2F11hd07t83z!19sChIJJ4iHWGOMzTsRWoDtCwPjbZ4?authuser=0&hl=en&rclk=1,"19.0873155,78.3425302"
Chennur kabrasthan,Mosque,"VQ4R+FW8 Chennur kabrasthan, Chennur, Telangana 504201",,VQ4R+FW8,Chennur,504201,Telangana,IN,https://www.google.com/maps/place/Chennur+kabrasthan/data=!4m7!3m6!1s0x3a32eba0a7c7ff67:0xe404c258bc15105d!8m2!3d18.8561847!4d79.7923442!16s%2Fg%2F11pzmp4fjp!19sChIJZ__Hp6DrMjoRXRAVvFjCBOQ?authuser=0&hl=en&rclk=1,"18.8561847,79.7923442"
SYED ASAD,Mosque,"VQ2V+6FJ SYED ASAD, Indranagar, Chennur, Telangana 504201",Indranagar,VQ2V+6FJ,Chennur,504201,Telangana,IN,https://www.google.com/maps/place/SYED+ASAD/data=!4m7!3m6!1s0x3a32eb1eae76e5b3:0xb5aa5071272715ee!8m2!3d18.8505943!4d79.7936422!16s%2Fg%2F11vj31rz5x!19sChIJs-V2rh7rMjoR7hUnJ3FQqrU?authuser=0&hl=en&rclk=1,"18.8505943,79.7936422"
Masjid-E-Ayesha,Mosque,"MGCQ+XRX Masjid-E-Ayesha, Brahmanwadi, Adilabad, Telangana 504001",Brahmanwadi,MGCQ+XRX,Adilabad,504001,Telangana,IN,https://www.google.com/maps/place/Masjid-E-Ayesha/data=!4m7!3m6!1s0x3bd25c7445a55555:0xe3f8a99466fc71ef!8m2!3d19.6724753!4d78.5395986!16s%2Fg%2F11sscsfbvt!19sChIJVVWlRXRc0jsR73H8ZpSp-OM?authuser=0&hl=en&rclk=1,"19.6724753,78.53959859999999"
Sudarah Nagar Patan kirana Feroza khan,Mosque,"Sudarah Nagar Patan kirana Feroza khan, Masjid e durdana, Sundaraiah Nagar, khursheed Nagar, Adilabad, Telangana 504001","Sundaraiah Nagar, khursheed Nagar",Masjid e durdana,Adilabad,,Telangana,IN,https://www.google.com/maps/place/Sudarah+Nagar+Patan+kirana+Feroza+khan/data=!4m7!3m6!1s0x3bd25bdb37aefa07:0x2a1a0c954e06593f!8m2!3d19.6769183!4d78.5171223!16s%2Fg%2F11s8_g6_vk!19sChIJB_quN9tb0jsRP1kGTpUMGio?authuser=0&hl=en&rclk=1,"19.6769183,78.5171223"
Masjid E Madeena,Mosque,"3XX8+XMW Masjid E Madeena, Vinayak Nagar, Bhainsa, Telangana 504103",Vinayak Nagar,3XX8+XMW,Bhainsa,504103,Telangana,IN,https://www.google.com/maps/place/Masjid+E+Madeena/data=!4m7!3m6!1s0x3bcdfe67609b6a17:0xd10b98fe9ebd9b74!8m2!3d19.1!4d77.9667!16s%2Fg%2F11b7tns2dg!19sChIJF2qbYGf-zTsRdJu9nv6YC9E?authuser=0&hl=en&rclk=1,"19.099999999999998,77.9667"
Madina masjid,Mosque,"HJX5+HJ6 Madina masjid, Lokari, Telangana 504001",,HJX5+HJ6,Lokari,504001,Telangana,IN,https://www.google.com/maps/place/Madina+masjid/data=!4m7!3m6!1s0x3bd25fd0b85e3af7:0x58b0d4e158d49e84!8m2!3d19.5986215!4d78.6098443!16s%2Fg%2F11s39q45km!19sChIJ9zpeuNBf0jsRhJ7UWOHUsFg?authuser=0&hl=en&rclk=1,"19.5986215,78.60984429999999"
Masjide Mera,Mosque,"Masjide Mera, Police line, Old Housing Board Colony, Ravindra Nagar Colony, Adilabad, Telangana 504001","Old Housing Board Colony, Ravindra Nagar Colony",Police line,Adilabad,,Telangana,IN,https://www.google.com/maps/place/Masjide+Mera/data=!4m7!3m6!1s0x3bd25d4f276d7737:0xfba7d6c285a2493a!8m2!3d19.6640624!4d78.5320107!16s%2Fg%2F11jt228q6b!19sChIJN3dtJ09d0jsROkmihcLWp_s?authuser=0&hl=en&rclk=1,"19.6640624,78.5320107"
Nirmal,Mosque,"MG7J+FM7 Nirmal, Ravindra Nagar Colony, Nirmal, Adilabad, Telangana 504001",Ravindra Nagar Colony,MG7J+FM7,"Nirmal, Adilabad",,Telangana,IN,https://www.google.com/maps/place/Nirmal/data=!4m7!3m6!1s0x3bd25d0be6d4dcc7:0x851c659ed80ab906!8m2!3d19.6636686!4d78.5316792!16s%2Fg%2F11vcm4jw2n!19sChIJx9zU5gtd0jsRBrkK2J5lHIU?authuser=0&hl=en&rclk=1,"19.663668599999998,78.5316792"
Masjid E Mariyam Baig (Jama Masjid Banapur),Mosque,"Masjid E Mariyam Baig (Jama Masjid Banapur), Bus Station, Banapur, Telangana 503124",,Bus Station,Banapur,503124,Telangana,IN,https://www.google.com/maps/place/Masjid+E+Mariyam+Baig+%28Jama+Masjid+Banapur%29/data=!4m7!3m6!1s0x3bcc2f3586691d37:0x69efc0458829c1a5!8m2!3d18.3000685!4d78.1020164!16s%2Fg%2F11rkn8gd8b!19sChIJNx1phjUvzDsRpcEpiEXA72k?authuser=0&hl=en&rclk=1,"18.3000685,78.1020164"
Masjid-E-Jamia Mamidgi,Mosque,"RH54+W66 Masjid-E-Jamia Mamidgi, Mamidgi, Telangana 502249",,RH54+W66,Mamidgi,502249,Telangana,IN,https://www.google.com/maps/place/Masjid-E-Jamia+Mamidgi/data=!4m7!3m6!1s0x3bcec980370a3073:0x73a915bb076d9a4a!8m2!3d17.8097981!4d77.5555174!16s%2Fg%2F11mhhc6pzd!19sChIJczAKN4DJzjsRSpptB7sVqXM?authuser=0&hl=en&rclk=1,"17.8097981,77.5555174"
JAMA MASJID. VELLULLA,Mosque,"JAMA MASJID. VELLULLA, H.No. 8-158, Brahmapuri wada, Metpally, Vellulla, Telangana 505325",,"H.No. 8-158, Brahmapuri wada, Metpally",Vellulla,505325,Telangana,IN,https://www.google.com/maps/place/JAMA+MASJID.+VELLULLA/data=!4m7!3m6!1s0x3bcda195a90cd427:0xcc32c332e0d8c520!8m2!3d18.8168803!4d78.6164572!16s%2Fg%2F11rtrjdzm8!19sChIJJ9QMqZWhzTsRIMXY4DLDMsw?authuser=0&hl=en&rclk=1,"18.816880299999998,78.6164572"
"Masjid-E-Moula, Jame Masjid",Mosque,"Masjid-E-Moula, Jame Masjid, Ghanpur, 506144, Uppugal - Warangal Rd, Station, Ghanpur, Telangana 506143",Station,"Ghanpur, 506144, Uppugal - Warangal Rd",Ghanpur,506143,Telangana,IN,"https://www.google.com/maps/place/Masjid-E-Moula,+Jame+Masjid/data=!4m7!3m6!1s0x3bccab9fa2f83b71:0x956d79489c2c235f!8m2!3d17.8496651!4d79.3770113!16s%2Fg%2F11fs_rg6l5!19sChIJcTv4op-rzDsRXyMsnEh5bZU?authuser=0&hl=en&rclk=1","17.8496651,79.37701129999999"
Chintha Nekkonda masjid,Mosque,"QQV7+M43 Chintha Nekkonda masjid, Chintha Nekkonda, Telangana 506369",,QQV7+M43,Chintha Nekkonda,506369,Telangana,IN,https://www.google.com/maps/place/Chintha+Nekkonda+masjid/data=!4m7!3m6!1s0x3a336189c6bb4019:0xcbce82a4b8df4566!8m2!3d17.7941428!4d79.7627914!16s%2Fg%2F11fr9gdy_c!19sChIJGUC7xolhMzoRZkXfuKSCzss?authuser=0&hl=en&rclk=1,"17.7941428,79.7627914"
MAILARAM MASJID,Mosque,"2JJX+GQH MAILARAM MASJID, Mailaram, Telangana 504219",,2JJX+GQH,Mailaram,504219,Telangana,IN,https://www.google.com/maps/place/MAILARAM+MASJID/data=!4m7!3m6!1s0x3a32bb5b926e6ac5:0x186727f39bcf1153!8m2!3d19.0313067!4d79.6494769!16s%2Fg%2F11s1781cc2!19sChIJxWpuklu7MjoRUxHPm_MnZxg?authuser=0&hl=en&rclk=1,"19.0313067,79.6494769"
Masjid e Muhammadiya Mangurla,Mosque,"JMQ7+G2 Masjid e Muhammadiya Mangurla, Mangurla, Telangana 504346",,JMQ7+G2,Mangurla,504346,Telangana,IN,https://www.google.com/maps/place/Masjid+e+Muhammadiya+Mangurla/data=!4m7!3m6!1s0x3bd2f580fd42be85:0x16a5654839535615!8m2!3d19.6388015!4d78.6625003!16s%2Fg%2F11s6xpgq0r!19sChIJhb5C_YD10jsRFVZTOUhlpRY?authuser=0&hl=en&rclk=1,"19.6388015,78.66250029999999"
