name,main_category,address,address_ward,address_street,address_city,address_postal_code,address_state,address_country_code,link,coordinates
Jama Masjid,Mosque,"Jama Masjid, Old Delhi, Delhi, 110006","Jama Masjid, Old Delhi",,Delhi,110006,Delhi,IN,https://www.google.com/maps/place/Jama+Masjid/data=!4m7!3m6!1s0x390cfd18df89b215:0xdd57369e29bf9d96!8m2!3d28.6506792!4d77.2334421!16zL20vMDR5emo1!19sChIJFbKJ3xj9DDkRlp2_KZ42V90?authuser=0&hl=en&rclk=1,"28.6506792,77.23344209999999"
Masjid Moth,Mosque,"Masjid Moth, 92, Masjid Moth Rd, South Extension II, Masjid Moth Village, New Delhi, Delhi 110049","South Extension II, Masjid Moth Village","92, Masjid Moth Rd",New Delhi,110049,Delhi,IN,https://www.google.com/maps/place/Masjid+Moth/data=!4m7!3m6!1s0x390ce242799950e9:0xb2f0ba5418b140f8!8m2!3d28.562458!4d77.2176906!16s%2Fm%2F05zxh9f!19sChIJ6VCZeULiDDkR-ECxGFS68LI?authuser=0&hl=en&rclk=1,"28.562458,77.2176906"
Usmania Jama Masjid,Mosque,"Usmania Jama Masjid, C-26/A, Old Jasola Village, Jasola, New Delhi, Delhi 110025","Old Jasola Village, Jasola",C-26/A,New Delhi,110025,Delhi,IN,https://www.google.com/maps/place/Usmania+Jama+Masjid/data=!4m7!3m6!1s0x390ce406080ed887:0x588888aec17d44dd!8m2!3d28.5494558!4d77.2921275!16s%2Fg%2F1ptvwq7cv!19sChIJh9gOCAbkDDkR3UR9wa6IiFg?authuser=0&hl=en&rclk=1,"28.549455799999997,77.29212749999999"
Sabz Masjid,Mosque,"Sabz Masjid, 3571, Lalkuan Bazar Rd, Bazar Sirkiwalan, Lal Kuan Bazar, Chandni Chowk, Delhi, 110006","Bazar Sirkiwalan, Lal Kuan Bazar, Chandni Chowk","3571, Lalkuan Bazar Rd",Delhi,110006,Delhi,IN,https://www.google.com/maps/place/Sabz+Masjid/data=!4m7!3m6!1s0x390cfd16a94877a7:0x7b35bb653cd42e20!8m2!3d28.652163!4d77.223599!16s%2Fm%2F04q247t!19sChIJp3dIqRb9DDkRIC7UPGW7NXs?authuser=0&hl=en&rclk=1,"28.652162999999998,77.223599"
Dibiya wali Masjid,Mosque,"G54H+M78 Dibiya wali Masjid, Mehrauli-Gurgaon Road, M G Road, Dr Ambedkar Colony, Chhatarpur, New Delhi, Delhi 110030","Dr Ambedkar Colony, Chhatarpur","G54H+M78, Mehrauli-Gurgaon Road, M G Road",New Delhi,110030,Delhi,IN,https://www.google.com/maps/place/Dibiya+wali+Masjid/data=!4m7!3m6!1s0x390d1e16e71c9d4d:0x176d7f6163772932!8m2!3d28.5091206!4d77.1796709!16s%2Fg%2F119w0d7q4!19sChIJTZ0c5xYeDTkRMil3Y2F_bRc?authuser=0&hl=en&rclk=1,"28.5091206,77.17967089999999"
Masjid Umar ibn Khattab Ahle Hadees,Mosque,"G8X3+2R4 Masjid Umar ibn Khattab Ahle Hadees, Kalindi Kunj Rd, Shaheen Bagh, Jamia Nagar, Okhla, New Delhi, Delhi 110025","Shaheen Bagh, Jamia Nagar, Okhla","G8X3+2R4, Kalindi Kunj Rd",New Delhi,110025,Delhi,IN,https://www.google.com/maps/place/Masjid+Umar+ibn+Khattab+Ahle+Hadees/data=!4m7!3m6!1s0x390ce4196e33e035:0x7187e898e383e521!8m2!3d28.5475049!4d77.3045864!16s%2Fg%2F11ddwvd6j7!19sChIJNeAzbhnkDDkRIeWD45joh3E?authuser=0&hl=en&rclk=1,"28.5475049,77.30458639999999"
Masjid Namaz Room msjd,Mosque,"H88C+WFJ Masjid Namaz Room msjd, Staff Canteen, Basement Area, DLF Mall of India, Sector 18, Noida, Uttar Pradesh 201301",Sector 18,"H88C+WFJ, Staff Canteen, Basement Area, DLF Mall of India",Noida,201301,Uttar Pradesh,IN,https://www.google.com/maps/place/Masjid+Namaz+Room+%D9%85%D8%B3%D8%AC%D8%AF%E2%80%AD/data=!4m7!3m6!1s0x390ce4489fa6993b:0xe99be10b4e852f53!8m2!3d28.5673409!4d77.3211303!16s%2Fg%2F11f__7tqs7!19sChIJO5mmn0jkDDkRUy-FTgvhm-k?authuser=0&hl=en&rclk=1,"28.567340899999998,77.3211303"
Ahle Sunnat wal jamaat RazaeMuhammadi Masjid,Mosque,"J6X8+JC2 Ahle Sunnat wal jamaat RazaeMuhammadi Masjid, Aram Nagar, Paharganj, New Delhi, Delhi 110055","Aram Nagar, Paharganj",J6X8+JC2,New Delhi,110055,Delhi,IN,https://www.google.com/maps/place/Ahle+Sunnat+wal+jamaat+RazaeMuhammadi+Masjid/data=!4m7!3m6!1s0x390cfd6b1c55570b:0xb6cbdaabca9cc6b2!8m2!3d28.6490022!4d77.2160178!16s%2Fg%2F11g6mj_5x9!19sChIJC1dVHGv9DDkRssacyqvay7Y?authuser=0&hl=en&rclk=1,"28.649002199999998,77.2160178"
Masjid Alahazrat,Mosque,"R342+CX5 Masjid Alahazrat, b block, JJ Colony, JJ Cluster Colony, Bawana, Delhi, 110039","JJ Colony, JJ Cluster Colony, Bawana","R342+CX5, b block",Delhi,110039,Delhi,IN,https://www.google.com/maps/place/Masjid+Alahazrat/data=!4m7!3m6!1s0x390da833b9909e53:0x7267e7ff8986237f!8m2!3d28.8060016!4d77.0524872!16s%2Fg%2F11bc7f9t38!19sChIJU56QuTOoDTkRfyOGif_nZ3I?authuser=0&hl=en&rclk=1,"28.8060016,77.0524872"
Masjid Majeedia Motilal nehru marg- msjdi mjdyh,Mosque,"Masjid Majeedia Motilal nehru marg- msjdi mjdyh, Unnamed Road, Dr APJ Abdul Kalam Rd, South Block, Aurangzeb Road, New Delhi, Delhi 110001","South Block, Aurangzeb Road","Unnamed Road, Dr APJ Abdul Kalam Rd",New Delhi,110001,Delhi,IN,https://www.google.com/maps/place/Masjid+Majeedia+Motilal+nehru+marg-+%D9%85%D8%B3%D8%AC%D8%AF%D9%90+%D9%85%D8%AC%D8%AF%DB%8C%DB%81%E2%80%AD/data=!4m7!3m6!1s0x390ce2c111445fc5:0x1156210e810cd168!8m2!3d28.6046984!4d77.2215032!16s%2Fg%2F11f1lpdw85!19sChIJxV9EEcHiDDkRaNEMgQ4hVhE?authuser=0&hl=en&rclk=1,"28.6046984,77.2215032"
MASJID,Mosque,"MASJID, Wz 173a/1 new ranjeet nagar, Guru Nanak Nagar, Shadipur, Delhi 110008","Guru Nanak Nagar, Shadipur",Wz 173a/1 new ranjeet nagar,New Delhi,110008,Delhi,IN,https://www.google.com/maps/place/MASJID/data=!4m7!3m6!1s0x390d0327bb6f6129:0xe8342be2eca63326!8m2!3d28.6456917!4d77.1597324!16s%2Fg%2F11h5lkhmc2!19sChIJKWFvuycDDTkRJjOm7OIrNOg?authuser=0&hl=en&rclk=1,"28.6456917,77.1597324"
Masjid Dhobiyan,Mosque,"Masjid Dhobiyan, 3280, Delhi Gate Bazar, Kucha Alam, Old Dariya Ganj, New Delhi, Delhi 110002","Chatta lal Miya, Chandni Mahal, Old Delhi","3280, Delhi Gate Bazar, Kucha Alam, Old Dariya Ganj","New Delhi, Delhi",110002,Delhi,IN,https://www.google.com/maps/place/Masjid+Dhobiyan/data=!4m7!3m6!1s0x390cfd273340d127:0x7d6d2edf4a35f8d9!8m2!3d28.6425263!4d77.2386389!16s%2Fg%2F11cs5s2vzb!19sChIJJ9FAMyf9DDkR2fg1St8ubX0?authuser=0&hl=en&rclk=1,"28.6425263,77.2386389"
Muhammadi Masjid,Mosque,"Muhammadi Masjid, 2/55, Moonga Nagar, New Mustafabad, New Delhi, Delhi, 110094","Moonga Nagar, New Mustafabad",2/55,"New Delhi, Delhi",110094,Delhi,IN,https://www.google.com/maps/place/Muhammadi+Masjid/data=!4m7!3m6!1s0x390cfc175aee92eb:0xaa6d7ae014408908!8m2!3d28.7081354!4d77.2682226!16s%2Fg%2F11c5sz6frk!19sChIJ65LuWhf8DDkRCIlAFOB6bao?authuser=0&hl=en&rclk=1,"28.7081354,77.2682226"
Masjid-e-Mustafa msjd  mSTf,Mosque,"Masjid-e-Mustafa msjd  mSTf, B-377, Hind Vihar, Sharda Vats Enclave, Prem Nagar III, Mundka, Delhi, 110081","Hind Vihar, Sharda Vats Enclave, Prem Nagar III, Mundka",B-377,Delhi,110081,Delhi,IN,https://www.google.com/maps/place/Masjid-e-Mustafa+%D9%85%D8%B3%D8%AC%D8%AF+%D8%A1+%D9%85%D8%B5%D8%B7%D9%81%D8%A7%E2%80%AD/data=!4m7!3m6!1s0x390d05d0425cb661:0x21b131c90f771975!8m2!3d28.6891672!4d77.0465112!16s%2Fg%2F11b_2n0bn_!19sChIJYbZcQtAFDTkRdRl3D8kxsSE?authuser=0&hl=en&rclk=1,"28.6891672,77.0465112"
Ata E Rasool Masjid,Mosque,"P744+V55 Ata E Rasool Masjid, Shriram Colony, Block A, Rajiv Nagar, Sonia Vihar, Delhi, 110094","Shriram Colony, Block A, Rajiv Nagar, Sonia Vihar",P744+V55,Delhi,110094,Delhi,IN,https://www.google.com/maps/place/Ata+E+Rasool+Masjid/data=!4m7!3m6!1s0x390cfc3b2d10341f:0xd365e06455e65096!8m2!3d28.7071349!4d77.2554772!16s%2Fg%2F11dxrw2d2x!19sChIJHzQQLTv8DDkRllDmVWTgZdM?authuser=0&hl=en&rclk=1,"28.7071349,77.2554772"
Masjid-e-Anjum,Mosque,"Masjid-e-Anjum, Indira Gandhi Camp Part 2, New Friends Colony, New Delhi, Delhi 110065","Block A, Taimoor Nagar, New Friends Colony","Indira Gandhi Camp Part 2, New Friends Colony",New Delhi,110065,Delhi,IN,https://www.google.com/maps/place/Masjid-e-Anjum/data=!4m7!3m6!1s0x390ce39a2cbe5dad:0x263099a5cc320902!8m2!3d28.573773!4d77.2696933!16s%2Fg%2F11ckkxbn_t!19sChIJrV2-LJrjDDkRAgkyzKWZMCY?authuser=0&hl=en&rclk=1,"28.573773,77.2696933"
Masjid Nizam Hyderabad,Mosque,"J68G+Q6H Masjid Nizam Hyderabad, Telengana Bhawan, New Delhi, Delhi 110001",Hyderabad House,"J68G+Q6H, Telengana Bhawan",New Delhi,110001,Delhi,IN,https://www.google.com/maps/place/Masjid+Nizam+Hyderabad/data=!4m7!3m6!1s0x390ce2ce698414ab:0x72527463b80efac0!8m2!3d28.616931!4d77.225605!16s%2Fg%2F1tc_pcyt!19sChIJqxSEac7iDDkRwPoOuGN0UnI?authuser=0&hl=en&rclk=1,"28.616930999999997,77.225605"
Masjid Badi msjd,Mosque,"Masjid Badi msjd, 893,, Chittli Qabar Bazar Rd, Jama Masjid, Chandni Chowk, New Delhi, Delhi 110006","Bazar Chitli Qabar, Kucha Chelan, Jama Masjid, Chandni Chowk","893,, Chittli Qabar Bazar Rd","New Delhi, Delhi",110006,Delhi,IN,https://www.google.com/maps/place/Masjid+Badi+%D9%85%D8%B3%D8%AC%D8%AF%E2%80%AD/data=!4m7!3m6!1s0x390cfd219cfec1f3:0x93ccacb281d71709!8m2!3d28.645321!4d77.2357133!16s%2Fg%2F12m98gjn5!19sChIJ88H-nCH9DDkRCRfXgbKszJM?authuser=0&hl=en&rclk=1,"28.645321,77.2357133"
Mohmmadi Masjid,Mosque,"Mohmmadi Masjid, Shiv Vihar West, Hastsal, Delhi, 110059","Shiv Vihar West, Hastsal",,Delhi,110059,Delhi,IN,https://www.google.com/maps/place/Mohmmadi+Masjid%F0%9F%95%8C/data=!4m7!3m6!1s0x390d05062c9a90af:0x8914870c11399783!8m2!3d28.649701!4d77.0453345!16s%2Fg%2F11dft2v_f9!19sChIJr5CaLAYFDTkRg5c5EQyHFIk?authuser=0&hl=en&rclk=1,"28.649701,77.0453345"
Usmani Masjid,Mosque,"Usmani Masjid, D-5/72,Service Road,Vitay Delhi, Third Pusta Main Rd, Jagjeet Nagar, Shahdara, Delhi, 110053","Jagjeet Nagar, Shahdara","D-5/72,Service Road,Vitay Delhi, Third Pusta Main Rd",Delhi,110053,Delhi,IN,https://www.google.com/maps/place/Usmani+Masjid/data=!4m7!3m6!1s0x390cfc45ceaf9e83:0x231720ca2a2ebd4d!8m2!3d28.6889739!4d77.2545189!16s%2Fg%2F1pp2vjm5t!19sChIJg56vzkX8DDkRTb0uKsogFyM?authuser=0&hl=en&rclk=1,"28.688973899999997,77.2545189"
Masjid msjd,Mosque,"H6VX+34H Masjid msjd, Nizamuddin, Nizamuddin East, New Delhi, Delhi 110013","Nizamuddin, Nizamuddin East",H6VX+34H,New Delhi,110013,Delhi,IN,https://www.google.com/maps/place/Masjid+%D9%85%D8%B3%D8%AC%D8%AF%E2%80%AD/data=!4m7!3m6!1s0x390ce31b384dab99:0x1853a43e8d3f0e37!8m2!3d28.592699!4d77.247867!16s%2Fg%2F11g6vgsy16!19sChIJmatNOBvjDDkRNw4_jT6kUxg?authuser=0&hl=en&rclk=1,"28.592699,77.247867"
Masjid E Umar,Mosque,"M3P6+W5W Masjid E Umar, Nomadic Banjara Community, Railway Colony, Prem Nagar II, Prem Nagar, Delhi, 110086","Nomadic Banjara Community, Railway Colony, Prem Nagar II, Prem Nagar",M3P6+W5W,Delhi,110086,Delhi,IN,https://www.google.com/maps/place/Masjid+E+Umar/data=!4m7!3m6!1s0x390d04326bc31b0f:0xa6e2b96d7dadb38d!8m2!3d28.6873504!4d77.0604564!16s%2Fg%2F11g9npm5_d!19sChIJDxvDazIEDTkRjbOtfW254qY?authuser=0&hl=en&rclk=1,"28.6873504,77.06045639999999"
madina masjid mdyn msjyd,Mosque,"8W29+3WJ madina masjid mdyn msjyd, Amet, Rajasthan 313332",,8W29+3WJ,Amet,313332,Rajasthan,IN,https://www.google.com/maps/place/madina+masjid+%D9%85%D8%A7%D8%AF%DB%8C%D9%86%D8%A7+%D9%85%D8%A7%D8%B3%D8%AC%DB%8C%D8%AF%E2%80%AD/data=!4m7!3m6!1s0x39684665f52f1aa7:0x1da0621f68612050!8m2!3d25.3002015!4d73.9197788!16s%2Fg%2F11gfmkfhnx!19sChIJpxov9WVGaDkRUCBhaB9ioB0?authuser=0&hl=en&rclk=1,"25.3002015,73.9197788"
JAMA MASJID UMAR BIN KHATTAB,Mosque,"G8W3+XWV JAMA MASJID UMAR BIN KHATTAB, Kalindi Kunj Rd, Block H, Jamia Nagar, Okhla, New Delhi, Delhi 110025","Block H, Jamia Nagar, Okhla","G8W3+XWV, Kalindi Kunj Rd",New Delhi,110025,Delhi,IN,https://www.google.com/maps/place/JAMA+MASJID+UMAR+BIN+KHATTAB/data=!4m7!3m6!1s0x390ce51eb7ea0bfd:0xe968824c610cc265!8m2!3d28.5474867!4d77.3047909!16s%2Fg%2F11h7p6jtqd!19sChIJ_Qvqtx7lDDkRZcIMYUyCaOk?authuser=0&hl=en&rclk=1,"28.5474867,77.3047909"
Aqsha Masjid,Mosque,"6X6Q+4W2 Aqsha Masjid, Raheri, Haryana 122103",,6X6Q+4W2,Raheri,122103,Haryana,IN,https://www.google.com/maps/place/Aqsha+Masjid/data=!4m7!3m6!1s0x390d303fc96dc523:0x7de38ec6173f5970!8m2!3d28.2102553!4d76.9897513!16s%2Fg%2F11gfdspw5h!19sChIJI8VtyT8wDTkRcFk_F8aO430?authuser=0&hl=en&rclk=1,"28.2102553,76.9897513"
Masjid,Mosque,"2633+G4J Masjid, Kukkar Chati, Haryana 121103",,2633+G4J,Kukkar Chati,121103,Haryana,IN,https://www.google.com/maps/place/Masjid/data=!4m7!3m6!1s0x39732b996cfc1043:0xd0b5fc59e74806f1!8m2!3d28.0038399!4d77.2027798!16s%2Fg%2F11f5tcmx0p!19sChIJQxD8bJkrczkR8QZI51n8tdA?authuser=0&hl=en&rclk=1,"28.0038399,77.2027798"
Masjid,Mosque,"Masjid, C-78/6, Ghazipur Dairy Farm, Ghazipur, New Delhi, Delhi, 110091","Ghazipur Dairy Farm, Ghazipur",C-78/6,"New Delhi, Delhi",110091,Delhi,IN,https://www.google.com/maps/place/Masjid/data=!4m7!3m6!1s0x390ce59d2385649b:0xb67be5c3e3ed3d8!8m2!3d28.621932!4d77.3237081!16s%2Fg%2F11r6dvzgp5!19sChIJm2SFI53lDDkR2NM-Ply-Zws?authuser=0&hl=en&rclk=1,"28.621931999999997,77.32370809999999"
Qaziyon Ki Masjid msjd qDywN khy,Mosque,"Qaziyon Ki Masjid msjd qDywN khy, 1091/1, Ambawatta Complex, Internal Path, Mehrauli Village, Mehrauli, New Delhi, Delhi 110030","Mehrauli Village, Mehrauli","1091/1, Ambawatta Complex, Internal Path",New Delhi,110030,Delhi,IN,https://www.google.com/maps/place/Qaziyon+Ki+Masjid+%D9%85%D8%B3%D8%AC%D8%AF+%D9%82%D8%A7%D8%B6%DB%8C%D9%88%DA%BA+%DA%A9%DB%8C%E2%80%AD/data=!4m7!3m6!1s0x390d1e08ca8810ed:0x3b88df5382ea5830!8m2!3d28.52261!4d77.181538!16s%2Fg%2F11gfd8b5cs!19sChIJ7RCIyggeDTkRMFjqglPfiDs?authuser=0&hl=en&rclk=1,"28.52261,77.181538"
Eidgaah masjid,Mosque,"6V4Q+WVR Eidgaah masjid, Haryana 122015",,6V4Q+WVR,,122015,Haryana,IN,https://www.google.com/maps/place/Eidgaah+masjid/data=!4m7!3m6!1s0x390d3769558e25e3:0x41b2327e9c7d82fd!8m2!3d28.2073643!4d76.8896302!16s%2Fg%2F11g71y0lyz!19sChIJ4yWOVWk3DTkR_YJ9nH4yskE?authuser=0&hl=en&rclk=1,"28.2073643,76.8896302"
Jaama Masjid,Mosque,"8W4H+W75 Jaama Masjid, Amet, Rajasthan 313332",,8W4H+W75,Amet,313332,Rajasthan,IN,https://www.google.com/maps/place/Jaama+Masjid/data=!4m7!3m6!1s0x39684673df6246df:0x8763a47eebc17b4d!8m2!3d25.3072689!4d73.9282485!16s%2Fg%2F11g6mc0vhg!19sChIJ30Zi33NGaDkRTXvB636kY4c?authuser=0&hl=en&rclk=1,"25.3072689,73.9282485"
jama masjid madarsa taleemul quran,Mosque,"jama masjid madarsa taleemul quran, C 10, Captain Gaur Marg, C Block, Kailash Hills, East of Kailash, New Delhi, Delhi 110065","C Block, Kailash Hills, East of Kailash","C 10, Captain Gaur Marg",New Delhi,110065,Delhi,IN,https://www.google.com/maps/place/jama+masjid+madarsa+taleemul+quran/data=!4m7!3m6!1s0x390ce3bedd0d5df7:0x3a3b95b54ca809a8!8m2!3d28.5619545!4d77.2590985!16s%2Fg%2F11g7zz4m0j!19sChIJ910N3b7jDDkRqAmoTLWVOzo?authuser=0&hl=en&rclk=1,"28.5619545,77.2590985"
Masjid,Mosque,"H77Q+868 Masjid, Okhla Village, Okhla, New Delhi, Delhi 110025","Okhla Village, Okhla",H77Q+868,New Delhi,110025,Delhi,IN,https://www.google.com/maps/place/Masjid/data=!4m7!3m6!1s0x390ce47512f7aa2b:0x544337a9b9e5d7a2!8m2!3d28.5632814!4d77.2880932!16s%2Fg%2F11gbtpj5td!19sChIJK6r3EnXkDDkRotfluak3Q1Q?authuser=0&hl=en&rclk=1,"28.563281399999997,77.28809319999999"
Fatemi Masjid,Mosque,"Fatemi Masjid, 3673, Main Bazar, Sabzi Mandi Rd, New Delhi, Delhi 110007","Arya Pura, Sabzi Mandi Old","3673, Main Bazar, Sabzi Mandi Rd","New Delhi, Delhi",110007,Delhi,IN,https://www.google.com/maps/place/Fatemi+Masjid/data=!4m7!3m6!1s0x390cfd77d6b49cc1:0xb29abba5fdd4f679!8m2!3d28.669022!4d77.2078086!16s%2Fg%2F12lksysp9!19sChIJwZy01nf9DDkRefbU_aW7mrI?authuser=0&hl=en&rclk=1,"28.669022,77.20780859999999"
Mr.SAHEEM MALIK,Mosque,"Mr.SAHEEM MALIK, Gali no. 3 - Tirpal Factory Mustafabad, near Ayisha masjid, 25 Futa Rd, near by Aisha Masjid, chowk, Delhi 110094","Shakti Vihar, Old Mustafabad, chowk","Gali no. 3 - Tirpal Factory Mustafabad, near Ayisha masjid, 25 Futa Rd, near by Aisha Masjid",Delhi,110094,Delhi,IN,https://www.google.com/maps/place/Mr.SAHEEM+MALIK/data=!4m7!3m6!1s0x390cfd9a44cd4997:0xffdc8860c53e3f2b!8m2!3d28.7159667!4d77.272238!16s%2Fg%2F11h3cwgc8y!19sChIJl0nNRJr9DDkRKz8-xWCI3P8?authuser=0&hl=en&rclk=1,"28.7159667,77.272238"
Masjid,Mosque,"M647+7CW Masjid, Narain Market, Sadar Bazaar, New Delhi, Delhi, 110006","Narain Market, Sadar Bazaar",M647+7CW,"New Delhi, Delhi",110006,Delhi,IN,https://www.google.com/maps/place/Masjid/data=!4m7!3m6!1s0x390cfde8cbf21c77:0x8550d15998f1660d!8m2!3d28.6557316!4d77.2135821!16s%2Fg%2F11gx_wrsm_!19sChIJdxzyy-j9DDkRDWbxmFnRUIU?authuser=0&hl=en&rclk=1,"28.6557316,77.2135821"
Masjid,Mosque,"Q6MJ+5H5 Masjid, Badarpur, Madanpur Khadar, New Delhi, 110084",Madanpur Khadar,"Q6MJ+5H5, Badarpur","New Delhi, Delhi",110084,Delhi,IN,https://www.google.com/maps/place/Masjid/data=!4m7!3m6!1s0x390cffb780460377:0x9fe224e9c653e965!8m2!3d28.7828891!4d77.2314704!16s%2Fg%2F11qn790lvq!19sChIJdwNGgLf_DDkRZelTxukk4p8?authuser=0&hl=en&rclk=1,"28.7828891,77.23147039999999"
Masjid,Mosque,"Q7JJ+7WC Masjid, Pavi Sadakpur, Uttar Pradesh 201102",,Q7JJ+7WC,Pavi Sadakpur,201102,Uttar Pradesh,IN,https://www.google.com/maps/place/Masjid/data=!4m7!3m6!1s0x390cff3247b3c4d7:0xf1b7407f946dd8cc!8m2!3d28.7806806!4d77.2822504!16s%2Fg%2F11ggz8tfhy!19sChIJ18SzRzL_DDkRzNhtlH9At_E?authuser=0&hl=en&rclk=1,"28.7806806,77.2822504"
Ameer Hamzah Mosque,Mosque,"86FM+972 Ameer Hamzah Mosque, Uttar Pradesh 247775",,86FM+972,,,Uttar Pradesh,IN,https://www.google.com/maps/place/Ameer+Hamzah+Mosque/data=!4m7!3m6!1s0x390c32f0996a4a55:0x396860d36159f6f7!8m2!3d29.3233769!4d77.2331309!16s%2Fg%2F11hbbt9l4w!19sChIJVUpqmfAyDDkR9_ZZYdNgaDk?authuser=0&hl=en&rclk=1,"29.3233769,77.23313089999999"
Masjid,Mosque,"Masjid, 242, Masjid Jheel Pio, Near ITO metro GateNo.3, Bahadur Shah Zafar Marg, Balmiki Basti, Vikram Nagar, Delhi, 110002","Bahadur Shah Zafar Marg, Balmiki Basti, Vikram Nagar","242, Masjid Jheel Pio, Near ITO metro GateNo.3, Bahadur Shah Zafar Marg",Delhi,110002,Delhi,IN,https://www.google.com/maps/place/Masjid/data=!4m7!3m6!1s0x390cfd441769149d:0xa1929f1b4f5921d6!8m2!3d28.6298914!4d77.2415098!16s%2Fg%2F11s2n38r9b!19sChIJnRRpF0T9DDkR1iFZTxufkqE?authuser=0&hl=en&rclk=1,"28.629891399999998,77.2415098"
Masjid,Mosque,"J7WG+44R Masjid, Shastri Nagar, Geeta Colony, New Delhi, Delhi, 110031","Shastri Nagar, Geeta Colony",J7WG+44R,"New Delhi, Delhi",110031,Delhi,IN,https://www.google.com/maps/place/Masjid/data=!4m7!3m6!1s0x390cfdd602d3790d:0x318c83bff04345b3!8m2!3d28.6453628!4d77.2752524!16s%2Fg%2F11h_7ms07y!19sChIJDXnTAtb9DDkRs0VD8L-DjDE?authuser=0&hl=en&rclk=1,"28.645362799999997,77.2752524"
Masjid,Mosque,"Masjid, 42C, Central Auto Market, Block B, Sector 16, Noida, Uttar Pradesh 201301","Central Auto Market, Block B, Sector 16",42C,Noida,201301,Uttar Pradesh,IN,https://www.google.com/maps/place/Masjid/data=!4m7!3m6!1s0x390ce45b6e8b8d05:0x1c6debc04866e60!8m2!3d28.577362!4d77.31624!16s%2Fg%2F11c6rj0f0y!19sChIJBY2LblvkDDkRYG6GBLzexgE?authuser=0&hl=en&rclk=1,"28.577361999999997,77.31624"
Madrsa imdadul uloom and masjid,Mosque,"Madrsa imdadul uloom and masjid, B-25, Main Rd, East Laxmi Market, Block B, New Brij Puri, Krishna Nagar, New Delhi, Delhi, 110051","East Laxmi Market, Block B, New Brij Puri, Krishna Nagar","B-25, Main Rd","New Delhi, Delhi",110051,Delhi,IN,https://www.google.com/maps/place/Madrsa+imdadul+uloom+and+masjid/data=!4m7!3m6!1s0x390cfda04739d0e9:0xeb893cdafc532844!8m2!3d28.6436744!4d77.2825759!16s%2Fg%2F11mw5vzf9q!19sChIJ6dA5R6D9DDkRRChT_No8ies?authuser=0&hl=en&rclk=1,"28.6436744,77.2825759"
Masjid,Mosque,"Masjid, 191/1, JJ Colony, New Krishna Park, Vikaspuri, New Delhi, Delhi, 110018","JJ Colony, New Krishna Park, Vikaspuri",191/1,"New Delhi, Delhi",110018,Delhi,IN,https://www.google.com/maps/place/Masjid/data=!4m7!3m6!1s0x390d0523e13f6ebf:0xcf430f5986189794!8m2!3d28.6318645!4d77.0776203!16s%2Fg%2F11kq3krq6c!19sChIJv24_4SMFDTkRlJcYhlkPQ88?authuser=0&hl=en&rclk=1,"28.6318645,77.07762029999999"
Masjid Rehmat Fatima,Mosque,"Masjid Rehmat Fatima, P-5 107, Block P, Mangolpuri, New Delhi, Delhi, 110083","Block P, Mangolpuri",P-5 107,"New Delhi, Delhi",110083,Delhi,IN,https://www.google.com/maps/place/Masjid+Rehmat+Fatima/data=!4m7!3m6!1s0x390d05175b007503:0x14c9a28868daa616!8m2!3d28.6913641!4d77.0876265!16s%2Fg%2F11p5_0gr0l!19sChIJA3UAWxcFDTkRFqbaaIiiyRQ?authuser=0&hl=en&rclk=1,"28.691364099999998,77.0876265"
Masjid,Mosque,"P9HF+33Q Masjid, Farukh Nagar, Uttar Pradesh 201003",,P9HF+33Q,Farukh Nagar,201003,Uttar Pradesh,IN,https://www.google.com/maps/place/Masjid/data=!4m7!3m6!1s0x390cfa018875b495:0xeea7b0caec7e470d!8m2!3d28.7277145!4d77.3727433!16s%2Fg%2F11f0krqvls!19sChIJlbR1iAH6DDkRDUd-7Mqwp-4?authuser=0&hl=en&rclk=1,"28.727714499999998,77.3727433"
MASJID LATEEF,Mosque,"Q75Q+X4R MASJID LATEEF, Loni Dehat, Uttar Pradesh 201102",Loni Dehat,Q75Q+X4R,,201102,Uttar Pradesh,IN,https://www.google.com/maps/place/MASJID+LATEEF/data=!4m7!3m6!1s0x390cf9e990cf0617:0xdd30689c572c744b!8m2!3d28.7602006!4d77.2873153!16s%2Fg%2F11q9ywtw1f!19sChIJFwbPkOn5DDkRS3QsV5xoMN0?authuser=0&hl=en&rclk=1,"28.760200599999997,77.2873153"
Masjid,Mosque,"Masjid, Generator section LNH, Maulana Azad Medical College Campus, LNJP Colony, New Delhi, Delhi, 110002","Maulana Azad Medical College Campus, LNJP Colony",Generator section LNH,"New Delhi, Delhi",110002,Delhi,IN,https://www.google.com/maps/place/Masjid/data=!4m7!3m6!1s0x390cfda80d3a142f:0x7e63ba6e21dc1e97!8m2!3d28.6378466!4d77.2379581!16s%2Fg%2F11ss881009!19sChIJLxQ6Daj9DDkRlx7cIW66Y34?authuser=0&hl=en&rclk=1,"28.6378466,77.2379581"
Masjid Amania,Mosque,"Masjid Amania, Main, Maujpur Rd, Shahdara, Delhi, 110053",Shahdara,"Main, Maujpur Rd",Delhi,110053,Delhi,IN,https://www.google.com/maps/place/Masjid+Amania/data=!4m7!3m6!1s0x390cfd4212229ecb:0x56b4673279cdc3f1!8m2!3d28.6855897!4d77.2762341!16s%2Fg%2F11s0s2pf6g!19sChIJy54iEkL9DDkR8cPNeTJntFY?authuser=0&hl=en&rclk=1,"28.685589699999998,77.2762341"
Aaysha Masjid,Mosque,"P7CX+QMG Aaysha Masjid, Behta Hajipur, Ghaziabad, Uttar Pradesh 201102",Behta Hajipur,P7CX+QMG,Ghaziabad,201102,Uttar Pradesh,IN,https://www.google.com/maps/place/Aaysha+Masjid/data=!4m7!3m6!1s0x390cfbf022f89051:0xb013b8564338f97b!8m2!3d28.7219416!4d77.2992103!16s%2Fg%2F11mqtwgw0n!19sChIJUZD4IvD7DDkRe_k4Q1a4E7A?authuser=0&hl=en&rclk=1,"28.721941599999997,77.2992103"
Masjid,Mosque,"9M74+66G Masjid, Hirnoti, Uttar Pradesh 203203",,9M74+66G,Hirnoti,203203,Uttar Pradesh,IN,https://www.google.com/maps/place/Masjid/data=!4m7!3m6!1s0x390cbbdfa6584727:0x4a1e67c0bd32dfaf!8m2!3d28.36306!4d77.6555641!16s%2Fg%2F11dzwm3m09!19sChIJJ0dYpt-7DDkRr98yvcBnHko?authuser=0&hl=en&rclk=1,"28.363059999999997,77.65556409999999"
Takia,Mosque,"8W4H+WF5 Takia, Amet, Rajasthan 313332",,8W4H+WF5,Amet,313332,Rajasthan,IN,https://www.google.com/maps/place/Takia/data=!4m7!3m6!1s0x396847fc935efde9:0x652d549ba4f3c1cd!8m2!3d25.3072147!4d73.9286561!16s%2Fg%2F11sk6py67v!19sChIJ6f1ek_xHaDkRzcHzpJtULWU?authuser=0&hl=en&rclk=1,"25.3072147,73.9286561"
Masjid Amaanullah,Mosque,"Masjid Amaanullah, 216 Prem Gali, Punja Sharif Rd, Kashmere Gate, New Delhi, Delhi 110006",Kashmere Gate,"216 Prem Gali, Punja Sharif Rd","New Delhi, Delhi",110006,Delhi,IN,https://www.google.com/maps/place/Masjid+Amaanullah/data=!4m7!3m6!1s0x390cfd0cb3e8d4f9:0x5ade9f3222c5a86!8m2!3d28.6644081!4d77.2266476!16s%2Fg%2F11gnpfq15m!19sChIJ-dToswz9DDkRhlosIvPprQU?authuser=0&hl=en&rclk=1,"28.6644081,77.22664759999999"
Masjid Shatoot Wali,Mosque,"M67H+G5Q Masjid Shatoot Wali, Chhota Bazar, Mori Gate, New Delhi, Delhi, 110006","Chhota Bazar, Mori Gate",M67H+G5Q,"New Delhi, Delhi",110006,Delhi,IN,https://www.google.com/maps/place/Masjid+Shatoot+Wali/data=!4m7!3m6!1s0x390cfdd8114d08fd:0x326042596014276a!8m2!3d28.663827!4d77.2279973!16s%2Fg%2F11g4h_zjtj!19sChIJ_QhNEdj9DDkRaicUYFlCYDI?authuser=0&hl=en&rclk=1,"28.663826999999998,77.2279973"
Masjid,Mosque,"Masjid, Gali No 19, Gali Number 1, Mustafabad Extn, New Mustafabad, Delhi, 110094","E2 Block, Mustafabad Extn, New Mustafabad","Gali No 19, Gali Number 1",Delhi,110094,Delhi,IN,https://www.google.com/maps/place/Masjid/data=!4m7!3m6!1s0x390cfc1b020b0e91:0xb48a3c3233e41cbd!8m2!3d28.711773!4d77.272563!16s%2Fg%2F12hpqnhjr!19sChIJkQ4LAhv8DDkRvRzkMzI8irQ?authuser=0&hl=en&rclk=1,"28.711772999999997,77.27256299999999"
Masjid gulshane ahmad rza,Mosque,"P323+V95 Masjid gulshane ahmad rza, Phase I, Baljit Vihar, Delhi, 110086","Phase I, Baljit Vihar",P323+V95,Delhi,110086,Delhi,IN,https://www.google.com/maps/place/Masjid+gulshane+ahmad+rza/data=!4m7!3m6!1s0x390d0709508d6209:0x6199915298bc7e5c!8m2!3d28.702353!4d77.0530291!16s%2Fg%2F11q3tq1rsm!19sChIJCWKNUAkHDTkRXH68mFKRmWE?authuser=0&hl=en&rclk=1,"28.702353,77.0530291"
Mohommdi masjid,Mosque,"gali no 17Dariy, Mohommdi masjid, Prem Vihar Nagali, A-31, Prem Vihar Colony, Ghasipura, Nangli Vihar, Delhi, 110043","Prem Vihar Colony, Ghasipura, Nangli Vihar","gali no 17Dariy, Prem Vihar Nagali, A-31",Delhi,110043,Delhi,IN,https://www.google.com/maps/place/Mohommdi+masjid/data=!4m7!3m6!1s0x390d05caf0ec8929:0x16273277b0fd0b7e!8m2!3d28.6253681!4d77.0186624!16s%2Fg%2F11q3n7zwcr!19sChIJKYns8MoFDTkRfgv9sHcyJxY?authuser=0&hl=en&rclk=1,"28.6253681,77.0186624"
Musalla Masjid,Mosque,"Musalla Masjid, A84, Gali Number 19, Block B, Bharat Vihar, Madhu Vihar, New Delhi, Delhi, 110059","Block B, Bharat Vihar, Madhu Vihar","A84, Gali Number 19","New Delhi, Delhi",110059,Delhi,IN,https://www.google.com/maps/place/Musalla+Masjid/data=!4m7!3m6!1s0x390d1b5228eab2b5:0x4c225624c80dfd40!8m2!3d28.6062216!4d77.0614438!16s%2Fg%2F11t6nng3_f!19sChIJtbLqKFIbDTkRQP0NyCRWIkw?authuser=0&hl=en&rclk=1,"28.606221599999998,77.06144379999999"
Masjid Islamuddin,Place of worship,"M6G3+629 Masjid Islamuddin, Basti Harphool Singh, Subzi Mandi, Delhi, 110007","Basti Harphool Singh, Subzi Mandi",M6G3+629,Delhi,110007,Delhi,IN,https://www.google.com/maps/place/Masjid+Islamuddin/data=!4m7!3m6!1s0x390cfd845b000001:0x90d83cb23e84b555!8m2!3d28.6755426!4d77.202595!16s%2Fg%2F11clhqsfc5!19sChIJAQAAW4T9DDkRVbWEPrI82JA?authuser=0&hl=en&rclk=1,"28.6755426,77.202595"
Masjid,Mosque,"Masjid, 8/2, Budh Bazar, Block L 1, Devli, Sangam Vihar, New Delhi, Delhi 110062","Budh Bazar, Block L 1, Devli, Sangam Vihar",8/2,New Delhi,110062,Delhi,IN,https://www.google.com/maps/place/Masjid/data=!4m7!3m6!1s0x390ce1dde82b3bc3:0x4d3537cacd38aec4!8m2!3d28.4940769!4d77.2261653!16s%2Fg%2F11rk33_10p!19sChIJwzsr6N3hDDkRxK44zco3NU0?authuser=0&hl=en&rclk=1,"28.4940769,77.22616529999999"
Masjid-e-Aqsa,Mosque,"5W6V+HGM Masjid-e-Aqsa, Nanuka, Haryana 122015",,5W6V+HGM,Nanuka,122015,Haryana,IN,https://www.google.com/maps/place/Masjid-e-Aqsa/data=!4m7!3m6!1s0x390d31e65512ccc9:0x9bb45c3973141159!8m2!3d28.1614439!4d76.9438944!16s%2Fg%2F11sw59r2kj!19sChIJycwSVeYxDTkRWREUczlctJs?authuser=0&hl=en&rclk=1,"28.1614439,76.94389439999999"
Eslamee masgit,Mosque,"HP7F+PVJ Eslamee masgit, Balwandka, Rajasthan 301026",,HP7F+PVJ,Balwandka,301026,Rajasthan,IN,https://www.google.com/maps/place/Eslamee+masgit/data=!4m7!3m6!1s0x3972911d99828137:0xf22cb2cbddd303bd!8m2!3d27.5643274!4d76.7246284!16s%2Fg%2F11rd7vk32t!19sChIJN4GCmR2RcjkRvQPT3cuyLPI?authuser=0&hl=en&rclk=1,"27.5643274,76.7246284"
msjid tamim ul majid,Mosque,"QMRM+62R msjid tamim ul majid, Kherla, Rajasthan 301404",,QMRM+62R,Kherla,301404,Rajasthan,IN,https://www.google.com/maps/place/msjid+tamim+ul+majid/data=!4m7!3m6!1s0x3972bb01c9a6ca4d:0x75b9648e51d1b00d!8m2!3d27.7906066!4d76.6825211!16s%2Fg%2F11pkl10wp4!19sChIJTcqmyQG7cjkRDbDRUY5kuXU?authuser=0&hl=en&rclk=1,"27.7906066,76.6825211"
Masjid,Mosque,"Shop No: 5035, Masjid, Netaji Subhash Marg, Daryaganj, New Delhi, Delhi, 110002",Daryaganj,"Shop No: 5035, Netaji Subhash Marg","New Delhi, Delhi",110002,Delhi,IN,https://www.google.com/maps/place/Masjid/data=!4m7!3m6!1s0x390cfdf175041b95:0x8ef57a2bc9f92c1c!8m2!3d28.6480954!4d77.2403964!16s%2Fg%2F11s664lvxh!19sChIJlRsEdfH9DDkRHCz5ySt69Y4?authuser=0&hl=en&rclk=1,"28.6480954,77.2403964"
Masjid,Mosque,"M794+RG5 Masjid, Block A, Shastri Park, Shahdara, Delhi, 110053","Block A, Shastri Park, Shahdara",M794+RG5,Delhi,,Delhi,IN,https://www.google.com/maps/place/Masjid/data=!4m7!3m6!1s0x390cfd74b6378221:0x2da5c9212f831088!8m2!3d28.6695164!4d77.2563643!16s%2Fg%2F11tb42z9g0!19sChIJIYI3tnT9DDkRiBCDLyHJpS0?authuser=0&hl=en&rclk=1,"28.6695164,77.2563643"
Masjid,Mosque,"H83H+29J Masjid, Sector 94, Noida, Uttar Pradesh 201303",Sector 94,H83H+29J,Noida,201303,Uttar Pradesh,IN,https://www.google.com/maps/place/Masjid/data=!4m7!3m6!1s0x390ce5523d4d368d:0xcf5974716566d4a3!8m2!3d28.5525905!4d77.3283803!16s%2Fg%2F11l6bhrqhb!19sChIJjTZNPVLlDDkRo9RmZXF0Wc8?authuser=0&hl=en&rclk=1,"28.552590499999997,77.32838029999999"
Masjid,Mosque,"J2WM+MXF Masjid, Sunni Masjid Rd, Deep Enclave, Hastsal, Delhi, 110059","Deep Enclave, Hastsal","J2WM+MXF, Sunni Masjid Rd",Delhi,110059,Delhi,IN,https://www.google.com/maps/place/Masjid/data=!4m7!3m6!1s0x390d05267bb46283:0xaef6f06f366d7113!8m2!3d28.6466834!4d77.0349292!16s%2Fg%2F11vl8tpxw1!19sChIJg2K0eyYFDTkRE3FtNm_w9q4?authuser=0&hl=en&rclk=1,"28.646683399999997,77.0349292"
Masjid,Mosque,"Masjid, L385, Block L, JJ Colony No 3, Nangloi, New Delhi, Delhi, 110041","Block L, JJ Colony No 3, Nangloi",L385,"New Delhi, Delhi",110041,Delhi,IN,https://www.google.com/maps/place/Masjid/data=!4m7!3m6!1s0x390d0530462f99ad:0xf47aa8290ce093fa!8m2!3d28.6842352!4d77.0742041!16s%2Fg%2F11smtj7p27!19sChIJrZkvRjAFDTkR-pPgDCmoevQ?authuser=0&hl=en&rclk=1,"28.6842352,77.0742041"
Masjid,Mosque,"H662+8G4 Masjid, Green Park Ext Rd, Block J, Green Park Extension, Green Park, New Delhi, Delhi 110016","Block J, Green Park Extension, Green Park","H662+8G4, Green Park Ext Rd",New Delhi,110016,Delhi,IN,https://www.google.com/maps/place/Masjid/data=!4m7!3m6!1s0x390ce3053c6f74cf:0x33b8d79c09cb4f99!8m2!3d28.5607743!4d77.2013357!16s%2Fg%2F11krd8fpw7!19sChIJz3RvPAXjDDkRmU_LCZzXuDM?authuser=0&hl=en&rclk=1,"28.5607743,77.2013357"
Masjid,Mosque,"Masjid, 20, Masjid Rd, Pervesh Nagar, Mubarakpur Dabas, New Delhi, Delhi, 110081","Pervesh Nagar, Mubarakpur Dabas","20, Masjid Rd","New Delhi, Delhi",110081,Delhi,IN,https://www.google.com/maps/place/Masjid/data=!4m7!3m6!1s0x390d075632dea237:0xe707b406c4cff64!8m2!3d28.7098866!4d77.0310854!16s%2Fg%2F11kq2cq2_1!19sChIJN6LeMlYHDTkRZP9MbEB7cA4?authuser=0&hl=en&rclk=1,"28.709886599999997,77.0310854"
Masjid Mohammadiya,Mosque,"M675+4VF Masjid Mohammadiya, Bahadurgarh Rd, Hathi Khana, Sadar Bazaar, New Delhi, Delhi, 110006","Hathi Khana, Sadar Bazaar","M675+4VF, Bahadurgarh Rd","New Delhi, Delhi",110006,Delhi,IN,https://www.google.com/maps/place/Masjid+Mohammadiya/data=!4m7!3m6!1s0x390cfd1e19b763d7:0xf26449d51a7a5a53!8m2!3d28.6628007!4d77.2096573!16s%2Fg%2F11tfwp5hs4!19sChIJ12O3GR79DDkRU1p6GtVJZPI?authuser=0&hl=en&rclk=1,"28.6628007,77.2096573"
msjd,Mosque,"msjd, B-110, Panday Enclave, Prem Nagar III, Kirari Suleman Nagar, Delhi, 110086","Panday Enclave, Prem Nagar III, Kirari Suleman Nagar",B-110,Delhi,110086,Delhi,IN,https://www.google.com/maps/place/%D9%85%D8%B3%D8%AC%D8%AF%E2%80%AD/data=!4m7!3m6!1s0x390d050ee02471eb:0xd53bfc94df598bf3!8m2!3d28.6920282!4d77.041928!16s%2Fg%2F11swfzfnz9!19sChIJ63Ek4A4FDTkR84tZ35T8O9U?authuser=0&hl=en&rclk=1,"28.6920282,77.041928"
Masjid msjd,Mosque,"P33Q+5Q5 Masjid msjd, Y Block, Mangolpuri, Delhi, 110085","Pocket C, Sector 1, Mangolpuri","P33Q+5Q5, Y Block",Delhi,110085,Delhi,IN,https://www.google.com/maps/place/Masjid+%D9%85%D8%B3%D8%AC%D8%AF%E2%80%AD/data=!4m7!3m6!1s0x390d075006af1d37:0x77cfb359c992ee54!8m2!3d28.702881!4d77.089479!16s%2Fg%2F11pzyfmlyd!19sChIJNx2vBlAHDTkRVO6SyVmzz3c?authuser=0&hl=en&rclk=1,"28.702880999999998,77.089479"
Masjid,Mosque,"Masjid, I116, DSIIDC Industrial Area, Sector 5, Bawana, New Delhi, Delhi, 110039","DSIIDC Industrial Area, Sector 5, Bawana",I116,"New Delhi, Delhi",110039,Delhi,IN,https://www.google.com/maps/place/Masjid/data=!4m7!3m6!1s0x390da9cb278fea55:0x351e1b7ec09414c4!8m2!3d28.8011996!4d77.0752247!16s%2Fg%2F11vd9vydsd!19sChIJVeqPJ8upDTkRxBSUwH4bHjU?authuser=0&hl=en&rclk=1,"28.8011996,77.07522469999999"
Masjid,Mosque,"22V8+G6F Masjid, Malab, Haryana 122107",,22V8+G6F,Malab,122107,Haryana,IN,https://www.google.com/maps/place/Masjid/data=!4m7!3m6!1s0x3972d31cb89fa00b:0xb71b0488d8838ecb!8m2!3d28.0438171!4d77.0155502!16s%2Fg%2F11hnl6823s!19sChIJC6CfuBzTcjkRy46D2IgEG7c?authuser=0&hl=en&rclk=1,"28.0438171,77.01555019999999"
Masjid,Mosque,"W4X5+C3X Masjid, Bazidpur, Haryana 122508",,W4X5+C3X,Bazidpur,,Haryana,IN,https://www.google.com/maps/place/Masjid/data=!4m7!3m6!1s0x3972d78636d1a3c5:0xee4f8d1680829d38!8m2!3d27.9486005!4d77.1077437!16s%2Fg%2F11k02z3y7b!19sChIJxaPRNobXcjkROJ2CgBaNT-4?authuser=0&hl=en&rclk=1,"27.948600499999998,77.1077437"
Mehmoodia masjid,Mosque,"Mehmoodia masjid, 1, Bani sarai, hakeem Mehmood ul haq road, Uttar Pradesh 250002",,"1, Bani sarai, hakeem Mehmood ul haq road",Tatina Sani,250002,Uttar Pradesh,IN,https://www.google.com/maps/place/Mehmoodia+masjid/data=!4m7!3m6!1s0x390c6386c4811685:0x1d40fbc1c9ffe83c!8m2!3d28.9104503!4d77.7108686!16s%2Fg%2F11n5nfl42l!19sChIJhRaBxIZjDDkRPOj_ycH7QB0?authuser=0&hl=en&rclk=1,"28.910450299999997,77.7108686"
