name,main_category,address,address_ward,address_street,address_city,address_postal_code,address_state,address_country_code,link,coordinates
Ashrafiya Masjid Purebaaz,Mosque,"Ashrafiya Masjid Purebaaz, Purebaaz 227816, Jagdishpur, Uttar Pradesh",,Purebaaz 227816,"Jagdishpur, Mirapur",,Uttar Pradesh,IN,https://www.google.com/maps/place/Ashrafiya+Masjid+Purebaaz/data=!4m7!3m6!1s0x399a4903383a1d6d:0x7a6951d093d488db!8m2!3d26.4937046!4d81.6433605!16s%2Fg%2F11g6b32zlq!19sChIJbR06OANJmjkR24jUk9BRaXo?authuser=0&hl=en&rclk=1,"26.493704599999997,81.6433605"
sunni noori masjid,Mosque,"2JCV+9XJ sunni noori masjid, Jagadishpur, Uttar Pradesh 273151",,2JCV+9XJ,Jagadishpur,273151,Uttar Pradesh,IN,https://www.google.com/maps/place/sunni+noori+masjid/data=!4m7!3m6!1s0x3993ff7ad06714d7:0x5fe71588ea2ceba3!8m2!3d27.0209583!4d83.6448869!16s%2Fg%2F11c54cty15!19sChIJ1xRn0Hr_kzkRo-ss6ogV518?authuser=0&hl=en&rclk=1,"27.0209583,83.6448869"
Masjid HUDA,Place of worship,"FJ2F+RR5 Masjid HUDA, Jagdishpur, Uttar Pradesh 227809",,FJ2F+RR5,Jagdishpur,227809,Uttar Pradesh,IN,https://www.google.com/maps/place/Masjid+HUDA/data=!4m7!3m6!1s0x399a4eb5edb077ab:0x2c6701e0831ac69e!8m2!3d26.4520148!4d81.6245999!16s%2Fg%2F11b6m11s_r!19sChIJq3ew7bVOmjkRnsYag-ABZyw?authuser=0&hl=en&rclk=1,"26.452014799999997,81.62459989999999"
Gulzar Mosque haldhar mau Gonda,Mosque,"Gulzar Mosque haldhar mau Gonda, Haldhar Mau, Kauraha Jagdishpur, Uttar Pradesh 271126",,,"Haldhar Mau, Kauraha Jagdishpur",271126,Uttar Pradesh,IN,https://www.google.com/maps/place/Gulzar+Mosque+haldhar+mau+Gonda/data=!4m7!3m6!1s0x39999225f8bf5679:0x64b94546d411a01c!8m2!3d27.1560354!4d81.7845142!16s%2Fg%2F11df1r816k!19sChIJeVa_-CWSmTkRHKAR1EZFuWQ?authuser=0&hl=en&rclk=1,"27.1560354,81.78451419999999"
Jama Masjid jagdishpur,Mosque,"CJXC+9VR Jama Masjid jagdishpur, Jagdishpur, Uttar Pradesh 227809",,CJXC+9VR,Jagdishpur,227809,Uttar Pradesh,IN,https://www.google.com/maps/place/Jama+Masjid+jagdishpur/data=!4m7!3m6!1s0x399a4eb6f014d2cd:0x4c23f036a38d2251!8m2!3d26.4484985!4d81.6221467!16s%2Fg%2F11c6dj_y04!19sChIJzdIU8LZOmjkRUSKNozbwI0w?authuser=0&hl=en&rclk=1,"26.4484985,81.6221467"
jama masjid nagpur,Mosque,"W9WR+38M jama masjid nagpur, Nagpur Bazar, Parasrampur, Uttar Pradesh 272130",Nagpur Bazar,W9WR+38M,Parasrampur,272130,Uttar Pradesh,IN,https://www.google.com/maps/place/jama+masjid+nagpur/data=!4m7!3m6!1s0x3990b2a02ec1e90d:0xe9536ad2fcbc6541!8m2!3d26.9452079!4d82.3907866!16s%2Fg%2F11c6pv89bg!19sChIJDenBLqCykDkRQWW8_NJqU-k?authuser=0&hl=en&rclk=1,"26.9452079,82.3907866"
Masjid Lodhiyawan,Mosque,"CJVV+7W4 Masjid Lodhiyawan, Jagdishpur, Bagahi, Uttar Pradesh 227809",,CJVV+7W4,"Jagdishpur, Bagahi",227809,Uttar Pradesh,IN,https://www.google.com/maps/place/Masjid+Lodhiyawan/data=!4m7!3m6!1s0x399a4ed8ff6c871f:0xac240e3b1303d01!8m2!3d26.4431297!4d81.6448385!16s%2Fg%2F11hbc39tqs!19sChIJH4ds_9hOmjkRAT0wseNAwgo?authuser=0&hl=en&rclk=1,"26.4431297,81.64483849999999"
Masjid E Ghousia,Mosque,"VPPH+GW7 Masjid E Ghousia, Raghunathpur, Jagdishpur, Bihar 841414",,VPPH+GW7,"Raghunathpur, Jagdishpur",841414,Bihar,IN,https://www.google.com/maps/place/Masjid+E+Ghousia/data=!4m7!3m6!1s0x3992b908710436df:0xd3ee826d03bd1016!8m2!3d25.8862852!4d84.7297892!16s%2Fg%2F11f397rlp0!19sChIJ3zYEcQi5kjkRFhC9A22C7tM?authuser=0&hl=en&rclk=1,"25.8862852,84.7297892"
Masjid Manechha Road Wali,Mosque,"XM4J+MHP Masjid Manechha Road Wali, Jagdishpur, Uttar Pradesh 222139",,XM4J+MHP,Jagdishpur,222139,Uttar Pradesh,IN,https://www.google.com/maps/place/Masjid+Manechha+Road+Wali/data=!4m7!3m6!1s0x39904428b264d819:0xc54023b58b04fa04!8m2!3d25.9567219!4d82.6814656!16s%2Fg%2F11b8_mvst_!19sChIJGdhksihEkDkRBPoEi7UjQMU?authuser=0&hl=en&rclk=1,"25.956721899999998,82.6814656"
Masjid -murtii kaa purvaa,Mosque,"HHG7+RWH Masjid -murtii kaa purvaa, Newaj Bhadar Garh, Uttar Pradesh 227811",,HHG7+RWH,Newaj Bhadar Garh,227811,Uttar Pradesh,IN,https://www.google.com/maps/place/Masjid+-%E0%A4%AE%E0%A5%81%E0%A4%B0%E0%A5%8D%E0%A4%A4%E0%A5%80+%E0%A4%95%E0%A4%BE+%E0%A4%AA%E0%A5%81%E0%A4%B0%E0%A4%B5%E0%A4%BE/data=!4m7!3m6!1s0x399a35a6a6dcc543:0xa8908092410b4185!8m2!3d26.5770732!4d81.5648526!16s%2Fg%2F11ggg_657r!19sChIJQ8XcpqY1mjkRhUELQZKAkKg?authuser=0&hl=en&rclk=1,"26.577073199999997,81.5648526"
Fatehpur Jama Masjid,Mosque,"44Q9+CGP Fatehpur Jama Masjid, Jagdishpur, Bihar 847422",,44Q9+CGP,Jagdishpur,,Bihar,IN,https://www.google.com/maps/place/Fatehpur+Jama+Masjid/data=!4m7!3m6!1s0x39eddae698b26585:0x384cdeb7eaca8b97!8m2!3d26.1385764!4d86.1188337!16s%2Fg%2F11hb286d9j!19sChIJhWWymOba7TkRl4vK6rfeTDg?authuser=0&hl=en&rclk=1,"26.138576399999998,86.1188337"
madeena masjid Muhammad Pur,Mosque,"5Q5C+9FP madeena masjid Muhammad Pur, Kauraha Jagdishpur, Uttar Pradesh 271126",,5Q5C+9FP,Kauraha Jagdishpur,,Uttar Pradesh,IN,https://www.google.com/maps/place/madeena+masjid+Muhammad+Pur/data=!4m7!3m6!1s0x399991844d7f395f:0xdf9140c43413ec59!8m2!3d27.1584739!4d81.7711986!16s%2Fg%2F11f502g3z5!19sChIJXzl_TYSRmTkRWewTNMRAkd8?authuser=0&hl=en&rclk=1,"27.158473899999997,81.77119859999999"
Kaziyapur Masjid,Mosque,"33WW+XJJ Kaziyapur Masjid, Village Sansaripur, Post, Kaziyapur. Post, Miranpur, Uttar Pradesh 227304",Kaziyapur. Post,"33WW+XJJ, Village Sansaripur, Post","Miranpur, Belsauna",227304,Uttar Pradesh,IN,https://www.google.com/maps/place/Kaziyapur+Masjid/data=!4m7!3m6!1s0x399a842544dce639:0xc161f31ff72ec301!8m2!3d26.0974527!4d82.0965211!16s%2Fg%2F11hb5j05rc!19sChIJOebcRCWEmjkRAcMu9x_zYcE?authuser=0&hl=en&rclk=1,"26.097452699999998,82.09652109999999"
Masjid-e-huda,Mosque,"5Q4F+JHP Masjid-e-huda, MOHAMMAD Pur, Kauraha Jagdishpur, Uttar Pradesh 271126",,5Q4F+JHP MOHAMMAD Pur,Kauraha Jagdishpur,271126,Uttar Pradesh,IN,https://www.google.com/maps/place/Masjid-e-huda/data=!4m7!3m6!1s0x39999186120f0683:0xfb0c16abd4eca066!8m2!3d27.1565756!4d81.7739479!16s%2Fg%2F11f4qlq5cf!19sChIJgwYPEoaRmTkRZqDs1KsWDPs?authuser=0&hl=en&rclk=1,"27.1565756,81.7739479"
Masjide Belal,Mosque,"73CM+33Q Masjide Belal, sidhdaarth ngr, Bagiyawa, Belsar, Jagdishpur Khurd, Uttar Pradesh 272207","sidhdaarth ngr, Bagiyawa",73CM+33Q,"Belsar, Jagdishpur Khurd",272207,Uttar Pradesh,IN,https://www.google.com/maps/place/Masjide+Belal/data=!4m7!3m6!1s0x3996c4b24ca6ae9d:0x4f42bd911dba6062!8m2!3d27.2702039!4d83.0827308!16s%2Fg%2F11hbg9s3dq!19sChIJna6mTLLEljkRYmC6HZG9Qk8?authuser=0&hl=en&rclk=1,"27.2702039,83.0827308"
Jama Masjid Mohammadpur,Mosque,"5Q5C+83X Jama Masjid Mohammadpur, Kauraha Jagdishpur, Uttar Pradesh 271126",,5Q5C+83X,Kauraha Jagdishpur,,Uttar Pradesh,IN,https://www.google.com/maps/place/Jama+Masjid+Mohammadpur/data=!4m7!3m6!1s0x3999914fe897a6c1:0x64f709c87563674d!8m2!3d27.1583565!4d81.7702418!16s%2Fg%2F11gm9xgq0b!19sChIJwaaX6E-RmTkRTWdjdcgJ92Q?authuser=0&hl=en&rclk=1,"27.1583565,81.7702418"
Ghausiya Masjid Chaheti Nagar,Mosque,"Ghausiya Masjid Chaheti Nagar, Jagdishpur, Uttar Pradesh 227809",,,Jagdishpur,227809,Uttar Pradesh,IN,https://www.google.com/maps/place/Ghausiya+Masjid+Chaheti+Nagar/data=!4m7!3m6!1s0x399a4f74a035566b:0xe8833b4d6d45c700!8m2!3d26.4391875!4d81.6239375!16s%2Fg%2F11hzpc52m7!19sChIJa1Y1oHRPmjkRAMdFbU07g-g?authuser=0&hl=en&rclk=1,"26.4391875,81.6239375"
Masjid umar bin al khattab,Mosque,"GM53+5PG Masjid umar bin al khattab, Jagdishpur Satthin Rd, Jagdishpur, Rasta Mau, Uttar Pradesh 227816",,"GM53+5PG, Jagdishpur Satthin Rd","Jagdishpur, Rasta Mau",227816,Uttar Pradesh,IN,https://www.google.com/maps/place/Masjid+umar+bin+al+khattab/data=!4m7!3m6!1s0x399a48565eeca47f:0x6f582e27f9bcef8a!8m2!3d26.5079258!4d81.6543341!16s%2Fg%2F1hm57qkzg!19sChIJf6TsXlZImjkRiu-8-ScuWG8?authuser=0&hl=en&rclk=1,"26.5079258,81.6543341"
Jagdishpur Masjid,Mosque,"VJG4+3C5 Jagdishpur Masjid, Jagdishpur, Uttar Pradesh 272163",,VJG4+3C5,Jagdishpur,272163,Uttar Pradesh,IN,https://www.google.com/maps/place/Jagdishpur+Masjid/data=!4m7!3m6!1s0x3990c9d1508156b3:0x95b30b1047dcabfb!8m2!3d26.8751433!4d82.6061214!16s%2Fg%2F11f6g22tyv!19sChIJs1aBUNHJkDkR-6vcRxALs5U?authuser=0&hl=en&rclk=1,"26.875143299999998,82.60612139999999"
Barkatiya Masjid,Mosque,"7XG5+52W Barkatiya Masjid, Jagdishpur, Bihar 843125",,7XG5+52W,Jagdishpur,843125,Bihar,IN,https://www.google.com/maps/place/Barkatiya+Masjid/data=!4m7!3m6!1s0x39ed2b9f94b16cc9:0x887e74c227859f02!8m2!3d26.2754869!4d84.9575746!16s%2Fg%2F11g22z6sgt!19sChIJyWyxlJ8r7TkRAp-FJ8J0fog?authuser=0&hl=en&rclk=1,"26.275486899999997,84.9575746"
msjd Masjid,Mosque,"FJ3F+CWW msjd Masjid, MDR 154E, Raniganj, Jagdishpur, Uttar Pradesh 227809",Raniganj,"FJ3F+CWW, MDR 154E",Jagdishpur,227809,Uttar Pradesh,IN,https://www.google.com/maps/place/%D9%85%D8%B3%D8%AC%D8%AF+Masjid%E2%80%AD/data=!4m7!3m6!1s0x399a4eb5824bcfab:0x35d798f50715f3fb!8m2!3d26.4536005!4d81.6248158!16s%2Fg%2F1hm6869d4!19sChIJq89LgrVOmjkR-_MVB_WY1zU?authuser=0&hl=en&rclk=1,"26.4536005,81.6248158"
Jama Masjid Jagdish pur,Mosque,"5448+C88 Jama Masjid Jagdish pur, Jagdishpur, Bihar 847233",,5448+C88,Jagdishpur,847233,Bihar,IN,https://www.google.com/maps/place/Jama+Masjid+Jagdish+pur/data=!4m7!3m6!1s0x39eddb0836dab3c5:0x587c359599720bd6!8m2!3d26.156042!4d86.1158241!16s%2Fg%2F11h7n7hkxv!19sChIJxbPaNgjb7TkR1gtymZU1fFg?authuser=0&hl=en&rclk=1,"26.156042,86.1158241"
"Chhoti Masjid, Judupur",Mosque,"7XGP+Q9C Chhoti Masjid, Judupur, Sultanpur, Uttar Pradesh 227808",,7XGP+Q9C,Sultanpur,227808,Uttar Pradesh,IN,"https://www.google.com/maps/place/Chhoti+Masjid,+Judupur/data=!4m7!3m6!1s0x399a63900bf19c1d:0x4cdf0895a0aa5d70!8m2!3d26.2769441!4d81.9858982!16s%2Fg%2F1hm5x4kq8!19sChIJHZzxC5BjmjkRcF2qoJUI30w?authuser=0&hl=en&rclk=1","26.276944099999998,81.9858982"
Jama Masjid Jahiruddinpur,Mosque,"48PW+2PW Jama Masjid Jahiruddinpur, Jahiruddinpur, Uttar Pradesh 276124",,48PW+2PW,Jahiruddinpur,276124,Uttar Pradesh,IN,https://www.google.com/maps/place/Jama+Masjid+Jahiruddinpur/data=!4m7!3m6!1s0x39919bfe9a6c8475:0x4a0732e5d72068e!8m2!3d26.1351011!4d83.3468188!16s%2Fg%2F11g2xrl_k3!19sChIJdYRsmv6bkTkRjgZyXS5zoAQ?authuser=0&hl=en&rclk=1,"26.1351011,83.3468188"
Munderwa Masjid,Mosque,"QWH2+QQH Munderwa Masjid, Munderwa Masjid Rd, Jagdishpur, Uttar Pradesh 272170",,"QWH2+QQH, Munderwa Masjid Rd",Jagdishpur,272170,Uttar Pradesh,IN,https://www.google.com/maps/place/Munderwa+Masjid/data=!4m7!3m6!1s0x3990d8740b6d3b4f:0x22d43ed7c83e4918!8m2!3d26.779443!4d82.9019979!16s%2Fg%2F1s04j4ylp!19sChIJTzttC3TYkDkRGEk-yNc-1CI?authuser=0&hl=en&rclk=1,"26.779443,82.9019979"
RAZA JAMA MASJID,Mosque,"CJCG+RM4 RAZA JAMA MASJID, Itraur, Uttar Pradesh 227809",,CJCG+RM4,Itraur,227809,Uttar Pradesh,IN,https://www.google.com/maps/place/RAZA+JAMA+MASJID/data=!4m7!3m6!1s0x399a4eed5de4cc6f:0x6aa3624f37dca0f3!8m2!3d26.4220132!4d81.626703!16s%2Fg%2F11f31l4slr!19sChIJb8zkXe1OmjkR86DcN09io2o?authuser=0&hl=en&rclk=1,"26.4220132,81.62670299999999"
Shah Masjid,Mosque,"Shah Masjid, Jagdishpur - Jais Rd, Jais, Uttar Pradesh 229305",,Jagdishpur - Jais Rd,Jais,229305,Uttar Pradesh,IN,https://www.google.com/maps/place/Shah+Masjid/data=!4m7!3m6!1s0x399a537304db6b99:0x57a61ca5c7c67dd1!8m2!3d26.2860923!4d81.551874!16s%2Fg%2F11f3_22b49!19sChIJmWvbBHNTmjkR0X3Gx6Ucplc?authuser=0&hl=en&rclk=1,"26.2860923,81.551874"
Jagdishpur Mosque,Mosque,"Jagdishpur Mosque, Masjid, Jagdishpur, Sahebganj, Jagdishpur, Bihar 843125",,"Masjid, Jagdishpur","Sahebganj, Jagdishpur",843125,Bihar,IN,https://www.google.com/maps/place/Jagdishpur+Mosque/data=!4m7!3m6!1s0x39ed2d0d63678823:0x6ec563856e903172!8m2!3d26.2027567!4d84.9544229!16s%2Fg%2F11h84k9_yv!19sChIJI4hnYw0t7TkRcjGQboVjxW4?authuser=0&hl=en&rclk=1,"26.2027567,84.9544229"
Jama Masjid jagdishpur,Mosque,"VQWR+9MQ Jama Masjid jagdishpur, Jagdishpur, Bihar 841419",,VQWR+9MQ,Jagdishpur,841419,Bihar,IN,https://www.google.com/maps/place/Jama+Masjid+jagdishpur/data=!4m7!3m6!1s0x3992b7ff795f4651:0x6209bc67ef77b31b!8m2!3d25.89597!4d84.7917486!16s%2Fg%2F11h0spllm1!19sChIJUUZfef-3kjkRG7N372e8CWI?authuser=0&hl=en&rclk=1,"25.89597,84.79174859999999"
Islahul Muslinm Jama Masjid,Mosque,"6MR9+PR5 Islahul Muslinm Jama Masjid, Naraunda, Uttar Pradesh 271872",,6MR9+PR5,Naraunda,271872,Uttar Pradesh,IN,https://www.google.com/maps/place/Islahul+Muslinm+Jama+Masjid/data=!4m7!3m6!1s0x399999c7f13623c5:0x45aed342c817e059!8m2!3d27.2417741!4d81.6696231!16s%2Fg%2F11gfkkcmrg!19sChIJxSM28ceZmTkRWeAXyELTrkU?authuser=0&hl=en&rclk=1,"27.241774099999997,81.6696231"
Masjid E Yusuf,Mosque,"P2V5+V8H Masjid E Yusuf, basahi aqbalpur laljang azamgarh, Deogaon",,"P2V5+V8H, basahi aqbalpur laljang azamgarh","Deogaon, Jagdishpur Bujurg",,Uttar Pradesh,IN,https://www.google.com/maps/place/Masjid+E+Yusuf/data=!4m7!3m6!1s0x3991cf39eb158037:0xabe37cd365cc3b5!8m2!3d25.7446819!4d83.0083471!16s%2Fg%2F11hnlnmnvg!19sChIJN4AV6znPkTkRtcNcNs03vgo?authuser=0&hl=en&rclk=1,"25.7446819,83.0083471"
msjd lqds,Mosque,"3XRW+PGV msjd lqds, Muslim Patti, Uttar Pradesh 276206",,3XRW+PGV,Muslim Patti,276206,Uttar Pradesh,IN,https://www.google.com/maps/place/%D9%85%D8%B3%D8%AC%D8%AF+%D8%A7%D9%84%D9%82%D8%AF%D8%B3%E2%80%AD/data=!4m7!3m6!1s0x3991affb815852db:0x10dbbabb73e46ecb!8m2!3d26.0918742!4d82.9963037!16s%2Fg%2F11g_qpx24q!19sChIJ21JYgfuvkTkRy27kc7u62xA?authuser=0&hl=en&rclk=1,"26.0918742,82.9963037"
"Jagdharpur Maszid, jgdhrpur msjid",Mosque,"CMC2+93X Jagdharpur Maszid, jgdhrpur msjid, Harimau, Uttar Pradesh 227801",,CMC2+93X,Harimau,227801,Uttar Pradesh,IN,"https://www.google.com/maps/place/Jagdharpur+Maszid,+%E0%A4%9C%E0%A4%97%E0%A4%A7%E0%A4%B0%E0%A4%AA%E0%A5%81%E0%A4%B0+%E0%A4%AE%E0%A4%B8%E0%A5%8D%E0%A4%9C%E0%A4%BF%E0%A4%A6/data=!4m7!3m6!1s0x399a4ffe35f6d1e1:0xc2d08f7ab900fed5!8m2!3d26.421!4d81.6502398!16s%2Fg%2F11l_fyprm1!19sChIJ4dH2Nf5PmjkR1f4AuXqP0MI?authuser=0&hl=en&rclk=1","26.421,81.6502398"
JAGDEESHPUR MUSLIM BASTI,Mosque,"9JWF+537 JAGDEESHPUR MUSLIM BASTI, SULHANTARA JAGDISHPUR, Akbarpur, Uttar Pradesh 224186",,"9JWF+537, SULHANTARA JAGDISHPUR","Akbarpur, Mirjabagdubakar",224186,Uttar Pradesh,IN,https://www.google.com/maps/place/JAGDEESHPUR+MUSLIM+BASTI/data=!4m7!3m6!1s0x3990f32de6afb26d:0x60440ccbc0e38688!8m2!3d26.3954023!4d82.622661!16s%2Fg%2F11qszhpx56!19sChIJbbKv5i3zkDkRiIbjwMsMRGA?authuser=0&hl=en&rclk=1,"26.395402299999997,82.622661"
NOORI JUMA MASJID PURE BHAGU,Mosque,"FJXR+HHJ NOORI JUMA MASJID PURE BHAGU, Jagdishpur Satthin Rd, Lakhanipur, Uttar Pradesh 227816",,"FJXR+HHJ, Jagdishpur Satthin Rd",Lakhanipur,,Uttar Pradesh,IN,https://www.google.com/maps/place/NOORI+JUMA+MASJID+PURE+BHAGU/data=!4m7!3m6!1s0x399a498744e9fe27:0xb03b2c96b9724ada!8m2!3d26.4989714!4d81.6413807!16s%2Fg%2F11q2r4tyv9!19sChIJJ_7pRIdJmjkR2kpyuZYsO7A?authuser=0&hl=en&rclk=1,"26.4989714,81.6413807"
Jama Masjid Ashishpur,Mosque,"HJ33+R3H Jama Masjid Ashishpur, Ashishpur, Uttar Pradesh 227811",,HJ33+R3H,Ashishpur,227811,Uttar Pradesh,IN,https://www.google.com/maps/place/Jama+Masjid+Ashishpur/data=!4m7!3m6!1s0x399a354429420dcf:0x7da5c22620867f3d!8m2!3d26.554568!4d81.6027201!16s%2Fg%2F11h71j__2k!19sChIJzw1CKUQ1mjkRPX-GICbCpX0?authuser=0&hl=en&rclk=1,"26.554568,81.6027201"
Masjid Barahra,Mosque,"GW48+HV9 Masjid Barahra, Jagdishpur Rd, Barahra, Bihar 841508",,"GW48+HV9, Jagdishpur Rd",Barahra,841508,Bihar,IN,https://www.google.com/maps/place/Masjid+Barahra/data=!4m7!3m6!1s0x3993c79394725fbf:0xb86e5751e2002e20!8m2!3d26.506423!4d83.9172403!16s%2Fg%2F11g7_ps_yz!19sChIJv19ylJPHkzkRIC4A4lFXbrg?authuser=0&hl=en&rclk=1,"26.506422999999998,83.9172403"
masjid,Mosque,"FFC4+XF7 masjid, Bashudiha, Jagdeeshpur, Uttar Pradesh 273411",,FFC4+XF7,"Bashudiha, Jagdeeshpur",273411,Uttar Pradesh,IN,https://www.google.com/maps/place/masjid/data=!4m7!3m6!1s0x399165650d83a23f:0x9c13ecc70ca6cd9!8m2!3d26.4724017!4d83.4561664!16s%2Fg%2F11gsbcg2qn!19sChIJP6KDDWVlkTkR2WzKcMw-wQk?authuser=0&hl=en&rclk=1,"26.4724017,83.4561664"
Sonerpati Masjid,Mosque,"MGJW+X87 Sonerpati Masjid, Jhakhara, Bihar 845459",,MGJW+X87,Jhakhara,,Bihar,IN,https://www.google.com/maps/place/Sonerpati+Masjid/data=!4m7!3m6!1s0x399314c8f676f467:0x20d77b6b71d8ba79!8m2!3d26.6824173!4d84.5457994!16s%2Fg%2F11hc_df6h2!19sChIJZ_R29sgUkzkRebrYcWt71yA?authuser=0&hl=en&rclk=1,"26.682417299999997,84.54579939999999"
Jama Masjid Jagdishpur,Mosque,"R2CX+P3M Jama Masjid Jagdishpur, Purey Charan, Uttar Pradesh 230304",,R2CX+P3M,Purey Charan,230304,Uttar Pradesh,IN,https://www.google.com/maps/place/Jama+Masjid+Jagdishpur/data=!4m7!3m6!1s0x399aa3ef3a051d57:0xbe9a8b28e0c3935e!8m2!3d25.8218273!4d82.0476803!16s%2Fg%2F11h8vy_ncc!19sChIJVx0FOu-jmjkRXpPD4CiLmr4?authuser=0&hl=en&rclk=1,"25.8218273,82.0476803"
Naimul Auliya Masjid Phadpur,Mosque,"FMV7+C83 Naimul Auliya Masjid Phadpur, Gariyadeeh phadpur, Jagdishpur, Gadriya Dih, Uttar Pradesh 227809",,"FMV7+C83, Gariyadeeh phadpur","Jagdishpur, Gadriya Dih",227809,Uttar Pradesh,IN,https://www.google.com/maps/place/Naimul+Auliya+Masjid+Phadpur/data=!4m7!3m6!1s0x399a490aa46c85cf:0x9b953d8125b67f2f!8m2!3d26.4935168!4d81.6632863!16s%2Fg%2F11q2738q4t!19sChIJz4VspApJmjkRL3-2JYE9lZs?authuser=0&hl=en&rclk=1,"26.4935168,81.6632863"
HASANI HUSSAINI KARBALA JAGDISHPUR,Mosque,"FC86+49C HASANI HUSSAINI KARBALA JAGDISHPUR, Jagdishpur, Bihar 802158",,FC86+49C,Jagdishpur,802158,Bihar,IN,https://www.google.com/maps/place/HASANI+HUSSAINI+KARBALA+JAGDISHPUR/data=!4m7!3m6!1s0x398d7d899695ab6d:0x9d9c4dbe1733fb1c!8m2!3d25.4653049!4d84.4108752!16s%2Fg%2F11t9_gzyf2!19sChIJbauVlol9jTkRHPszF75NnJ0?authuser=0&hl=en&rclk=1,"25.4653049,84.41087519999999"
Masjid Kaituka Nandan,Mosque,"XX9J+48Q Masjid Kaituka Nandan, Jagdishpur, Bihar 841215",,XX9J+48Q,Jagdishpur,841215,Bihar,IN,https://www.google.com/maps/place/Masjid+Kaituka+Nandan/data=!4m7!3m6!1s0x39ed354d6e3bde07:0x423601f494a88a3f!8m2!3d25.9678339!4d84.9808466!16s%2Fg%2F11qphcy2t1!19sChIJB947bk017TkRP4qolPQBNkI?authuser=0&hl=en&rclk=1,"25.9678339,84.98084659999999"
Jama Masjid,Mosque,"Jama Masjid, Birtitola, Jagdishpur Rd, Bettiah, Bihar 845459",,"Birtitola, Jagdishpur Rd","Bettiah, Bishunpura",845459,Bihar,IN,https://www.google.com/maps/place/Jama+Masjid/data=!4m7!3m6!1s0x3993152b4b553865:0x1efc6b03d447e722!8m2!3d26.742241!4d84.545182!16s%2Fg%2F11gvy24h6w!19sChIJZThVSysVkzkRIudH1ANr_B4?authuser=0&hl=en&rclk=1,"26.742241,84.545182"
Masjid,Mosque,"5Q6H+459 Masjid, Jagdispur, Bihar 847428",,5Q6H+459,Jagdispur,,Bihar,IN,https://www.google.com/maps/place/Masjid/data=!4m7!3m6!1s0x39edbbf1782bd3b1:0x148f6dffae03db94!8m2!3d26.1602807!4d85.7779985!16s%2Fg%2F11fhl49fw6!19sChIJsdMrePG77TkRlNsDrv9tjxQ?authuser=0&hl=en&rclk=1,"26.160280699999998,85.7779985"
Choti Masjid Jagdish pur,Mosque,"5439+P7F Choti Masjid Jagdish pur, Station Rd, Jagdishpur, Bihar 847422",,"5439+P7F, Station Rd",Jagdishpur,847422,Bihar,IN,https://www.google.com/maps/place/Choti+Masjid+Jagdish+pur/data=!4m7!3m6!1s0x39eddbcadbb0ee77:0x50c4cf712d1cd8de!8m2!3d26.1543231!4d86.1181781!16s%2Fg%2F11lgyf4bbp!19sChIJd-6w28rb7TkR3tgcLXHPxFA?authuser=0&hl=en&rclk=1,"26.1543231,86.1181781"
Kodri masjid,Mosque,"6MQP+F58 Kodri masjid, Khem Pur, Jairam Jot, Uttar Pradesh 271503",,6MQP+F58,"Khem Pur, Jairam Jot",271503,Uttar Pradesh,IN,https://www.google.com/maps/place/Kodri+masjid/data=!4m7!3m6!1s0x39999975a3e79abd:0x70e00d52744d43ea!8m2!3d27.2388692!4d81.6856473!16s%2Fg%2F11jz5p7gbh!19sChIJvZrno3WZmTkR6kNNdFIN4HA?authuser=0&hl=en&rclk=1,"27.2388692,81.6856473"
msjd Masjid,Mosque,"FJ4G+V2M msjd Masjid, National Highway 56, Jagdishpur, Uttar Pradesh 227809",,"FJ4G+V2M, National Highway 56",Jagdishpur,227809,Uttar Pradesh,IN,https://www.google.com/maps/place/%D9%85%D8%B3%D8%AC%D8%AF+Masjid%E2%80%AD/data=!4m7!3m6!1s0x399a494aa8fca6c9:0xe4e7ac2165e79807!8m2!3d26.4572225!4d81.6250522!16s%2Fg%2F1hm53rmgv!19sChIJyab8qEpJmjkRB5jnZSGs5-Q?authuser=0&hl=en&rclk=1,"26.4572225,81.6250522"
Gosiya Masjid,Mosque,"CWCQ+2CV Gosiya Masjid, Jagdishpur, Uttar Pradesh 227812",,CWCQ+2CV,Jagdishpur,227812,Uttar Pradesh,IN,https://www.google.com/maps/place/Gosiya+Masjid/data=!4m7!3m6!1s0x399a698b2a60f103:0x7b258ee56353e5f4!8m2!3d26.4201056!4d81.9385511!16s%2Fg%2F11rx3tftz5!19sChIJA_FgKotpmjkR9OVTY-WOJXs?authuser=0&hl=en&rclk=1,"26.4201056,81.9385511"
Masjid-e Bilal,Mosque,"FJ3C+H49 Masjid-e Bilal, Nihal Garh Chak Jangla, Jagdishpur, Uttar Pradesh 227809",,FJ3C+H49,"Nihal Garh Chak Jangla, Jagdishpur",227809,Uttar Pradesh,IN,https://www.google.com/maps/place/Masjid-e+Bilal/data=!4m7!3m6!1s0x399a4f373c6fcbbb:0x25e8991b5f5cb926!8m2!3d26.4539203!4d81.62035!16s%2Fg%2F11fnrsgxnt!19sChIJu8tvPDdPmjkRJrlcXxuZ6CU?authuser=0&hl=en&rclk=1,"26.4539203,81.62035"
Masjid Darussalam Naukapura Jagdishpur Bhaluwan,Mosque,"FC9V+399 Masjid Darussalam Naukapura Jagdishpur Bhaluwan, Jagadishpur Bhaluwan, Bhaluan, Uttar Pradesh 273411",,FC9V+399,"Jagadishpur Bhaluwan, Bhaluan",273411,Uttar Pradesh,IN,https://www.google.com/maps/place/Masjid+Darussalam+Naukapura+Jagdishpur+Bhaluwan/data=!4m7!3m6!1s0x399165225042b94d:0x90bcc641c30dd5c0!8m2!3d26.4676619!4d83.4434816!16s%2Fg%2F11fklpls2z!19sChIJTblCUCJlkTkRwNUNw0HGvJA?authuser=0&hl=en&rclk=1,"26.4676619,83.4434816"
Noorani Masjid Jagdishpur,Mosque,"8H8P+FMQ Noorani Masjid Jagdishpur, Jagdishpur, Bihar 841434",,8H8P+FMQ,Jagdishpur,,Bihar,IN,https://www.google.com/maps/place/Noorani+Masjid+Jagdishpur/data=!4m7!3m6!1s0x3992e1d8ebf54a21:0xac03dc3287247efb!8m2!3d26.3162162!4d84.5867325!16s%2Fg%2F11j8rddfys!19sChIJIUr169jhkjkR-34khzLcA6w?authuser=0&hl=en&rclk=1,"26.3162162,84.5867325"
Juma Masjid Naaupurva,Mosque,"5Q5H+9M6 Juma Masjid Naaupurva, Kauraha Jagdishpur, Uttar Pradesh 271126",,5Q5H+9M6,Kauraha Jagdishpur,271126,Uttar Pradesh,IN,https://www.google.com/maps/place/Juma+Masjid+Naaupurva/data=!4m7!3m6!1s0x3999936fcc016da3:0x52c7de3e8148219b!8m2!3d27.1584154!4d81.7791506!16s%2Fg%2F11j6zjzmhr!19sChIJo20BzG-TmTkRmyFIgT7ex1I?authuser=0&hl=en&rclk=1,"27.1584154,81.7791506"
Masjid E Aaisha,Mosque,"FJ69+MW4 Masjid E Aaisha, near A.H.Inter Collage, Nihal Garh Chak Jangla, Jagdishpur, Uttar Pradesh 227809",,"FJ69+MW4, near A.H.Inter Collage","Nihal Garh Chak Jangla, Jagdishpur",227809,Uttar Pradesh,IN,https://www.google.com/maps/place/Masjid+E+Aaisha/data=!4m7!3m6!1s0x399a495a5d24c629:0x2b03899633a19950!8m2!3d26.4616255!4d81.6198218!16s%2Fg%2F11h2jzgs83!19sChIJKcYkXVpJmjkRUJmhM5aJAys?authuser=0&hl=en&rclk=1,"26.4616255,81.6198218"
Mohmmadiya Masjid chhardahi,Mosque,"JQFM+46X Mohmmadiya Masjid chhardahi, Chhardahi, Chhardhi, Jagdishpur, Uttar Pradesh 272301",Chhardahi,JQFM+46X,"Chhardhi, Jagdishpur",272301,Uttar Pradesh,IN,https://www.google.com/maps/place/Mohmmadiya+Masjid+chhardahi/data=!4m7!3m6!1s0x3990dd564e88dd81:0xe0abfb9c547fc6ca!8m2!3d26.6228626!4d82.7831214!16s%2Fg%2F11jx6dcrb9!19sChIJgd2ITlbdkDkRysZ_VJz7q-A?authuser=0&hl=en&rclk=1,"26.622862599999998,82.7831214"
Masjid,Mosque,"Masjid, Molvi Khurd, Jagdishpur - Jais Rd, Uttar Pradesh 229305",,"Molvi Khurd, Jagdishpur - Jais Rd",,,Uttar Pradesh,IN,https://www.google.com/maps/place/Masjid/data=!4m7!3m6!1s0x399a53b1af4b93dd:0xaf05a83e9ff85506!8m2!3d26.2864108!4d81.5568553!16s%2Fg%2F11sy6x7htc!19sChIJ3ZNLr7FTmjkRBlX4nz6oBa8?authuser=0&hl=en&rclk=1,"26.2864108,81.5568553"
MASJID MOHABBATPUR,Internet cafe,"FM48+R6W MASJID MOHABBATPUR, Jagdishpur, Husain Ganj Kalan, Uttar Pradesh 227816",,FM48+R6W,"Jagdishpur, Husain Ganj Kalan",,Uttar Pradesh,IN,https://www.google.com/maps/place/MASJID+MOHABBATPUR/data=!4m7!3m6!1s0x399a4f62cc5db851:0xdc299c1ed0e88909!8m2!3d26.4571151!4d81.6655857!16s%2Fg%2F11s34hj3_k!19sChIJUbhdzGJPmjkRCYno0B6cKdw?authuser=0&hl=en&rclk=1,"26.4571151,81.6655857"
AL MASAJID,Mosque,"AL MASAJID, Sector 16, behind KK Hospital, UPSIDC Colony, Jagdishpur, Kamrauli, Uttar Pradesh 227809",UPSIDC Colony,"Sector 16, behind KK Hospital","Jagdishpur, Kamrauli",,Uttar Pradesh,IN,https://www.google.com/maps/place/AL+MASAJID/data=!4m7!3m6!1s0x399a4b1ef855f8c3:0xb2ecf9ce6b75c0fb!8m2!3d26.4860381!4d81.5560315!16s%2Fg%2F11rq1x3cgp!19sChIJw_hV-B5LmjkR-8B1a8757LI?authuser=0&hl=en&rclk=1,"26.4860381,81.5560315"
Jama masjid jagdishpur,Mosque,"Jama masjid jagdishpur, Badi Masjid, Jagdishpur, Bihar 802158",,Badi Masjid,Jagdishpur,802158,Bihar,IN,https://www.google.com/maps/place/Jama+masjid+jagdishpur/data=!4m7!3m6!1s0x398d7da6ad163009:0xed6e3ae8d5280b51!8m2!3d25.4679489!4d84.4195004!16s%2Fg%2F11tcq_v06f!19sChIJCTAWraZ9jTkRUQso1eg6bu0?authuser=0&hl=en&rclk=1,"25.4679489,84.41950039999999"
JANTA BAZAR MADINA MASJID,Mosque,"F6RP+6HJ JANTA BAZAR MADINA MASJID, Janta Bazar, Jagdishpur, Bihar 841425",Janta Bazar,F6RP+6HJ,Jagdishpur,841425,Bihar,IN,https://www.google.com/maps/place/JANTA+BAZAR+MADINA+MASJID/data=!4m7!3m6!1s0x3993a90d0d357233:0x249634f39c46f40b!8m2!3d26.4905923!4d84.2363815!16s%2Fg%2F11lfpv00wk!19sChIJM3I1DQ2pkzkRC_RGnPM0liQ?authuser=0&hl=en&rclk=1,"26.4905923,84.2363815"
Noorani masjid,Mosque,"Noorani masjid, haldhar mau, Kauraha Jagdishpur, Uttar Pradesh 271126",,haldhar mau,Kauraha Jagdishpur,271126,Uttar Pradesh,IN,https://www.google.com/maps/place/Noorani+masjid/data=!4m7!3m6!1s0x399993e740a4737f:0xd869ee76f9e8b665!8m2!3d27.1511046!4d81.7812975!16s%2Fg%2F11nmj0v3l1!19sChIJf3OkQOeTmTkRZbbo-Xbuadg?authuser=0&hl=en&rclk=1,"27.1511046,81.7812975"
Jama masjid,Mosque,"9578+WCF Jama masjid, Jagdishpur - Bhawani Chhapar Rd, Uttar Pradesh 841243",,"9578+WCF, Jagdishpur - Bhawani Chhapar Rd",,841243,Uttar Pradesh,IN,https://www.google.com/maps/place/Jama+masjid/data=!4m7!3m6!1s0x3993ada65e6f9071:0x4f43245cb392bb1e!8m2!3d26.364818!4d84.1660136!16s%2Fg%2F11kjm5qvnq!19sChIJcZBvXqatkzkRHruSs1wkQ08?authuser=0&hl=en&rclk=1,"26.364818,84.1660136"
mdiinaa msjid,Mosque,"mdiinaa msjid, Pure Gulal Masjid, Jagdishpur Satthin Rd, Lakhanipur, Uttar Pradesh 227816",,"Pure Gulal Masjid, Jagdishpur Satthin Rd",Lakhanipur,,Uttar Pradesh,IN,https://www.google.com/maps/place/%E0%A4%AE%E0%A4%A6%E0%A5%80%E0%A4%A8%E0%A4%BE+%E0%A4%AE%E0%A4%B8%E0%A5%8D%E0%A4%9C%E0%A4%BF%E0%A4%A6/data=!4m7!3m6!1s0x399a49358ce8dc59:0xb0b27c062474580f!8m2!3d26.5046354!4d81.6319029!16s%2Fg%2F11h1kbz7ps!19sChIJWdzojDVJmjkRD1h0JAZ8srA?authuser=0&hl=en&rclk=1,"26.504635399999998,81.6319029"
Masjid as musapur,Mosque,"H6FX+CX3 Masjid as musapur, Musapur, Uttar Pradesh 246731",,H6FX+CX3,Musapur,246731,Uttar Pradesh,IN,https://www.google.com/maps/place/Masjid+as+musapur/data=!4m7!3m6!1s0x390be1dee15893b3:0xc1f0e73708e409b5!8m2!3d29.5735139!4d78.2499284!16s%2Fg%2F11mfvdvlln!19sChIJs5NY4d7hCzkRtQnkCDfn8ME?authuser=0&hl=en&rclk=1,"29.5735139,78.2499284"
Al Madina Masjid,Mosque,"FJ22+W8J Al Madina Masjid, Mubarakpur, Jagdishpur, Mubarakpur, Uttar Pradesh 227809",Mubarakpur,FJ22+W8J,"Jagdishpur, Mubarakpur",227809,Uttar Pradesh,IN,https://www.google.com/maps/place/Al+Madina+Masjid/data=!4m7!3m6!1s0x399a4dd361e2cc4d:0xe9d602043a7320d6!8m2!3d26.452336!4d81.6007655!16s%2Fg%2F11khzlrtmv!19sChIJTcziYdNNmjkR1iBzOgQC1uk?authuser=0&hl=en&rclk=1,"26.452336,81.6007655"
Idgah Masjid Jagdishpur,Mosque,"3VCJ+W7W Idgah Masjid Jagdishpur, Jagdispur, Uttar Pradesh 276304",,3VCJ+W7W,Jagdispur,276304,Uttar Pradesh,IN,https://www.google.com/maps/place/Idgah+Masjid+Jagdishpur/data=!4m7!3m6!1s0x3990537cc448ee07:0x22b03e64fb231bfe!8m2!3d26.0723634!4d82.8806927!16s%2Fg%2F11h4lpqkz8!19sChIJB-5IxHxTkDkR_hsj-2Q-sCI?authuser=0&hl=en&rclk=1,"26.0723634,82.8806927"
Mohamadi Masjid,Mosque,"5Q3Q+WH4 Mohamadi Masjid, Unnamed Road, Kauraha Jagdishpur, Uttar Pradesh 271126",,"5Q3Q+WH4, Unnamed Road",Kauraha Jagdishpur,271126,Uttar Pradesh,IN,https://www.google.com/maps/place/Mohamadi+Masjid/data=!4m7!3m6!1s0x399993ad7c8c08ff:0x3881e527724b3a4a!8m2!3d27.1547636!4d81.788956!16s%2Fg%2F11mxd2p1fm!19sChIJ_wiMfK2TmTkRSjpLciflgTg?authuser=0&hl=en&rclk=1,"27.1547636,81.788956"
Masjid Umar Jama Masjid,Mosque,"3V8J+Q7M Masjid Umar Jama Masjid, Jagdispur, Uttar Pradesh 276304",,3V8J+Q7M,Jagdispur,276304,Uttar Pradesh,IN,https://www.google.com/maps/place/Masjid+Umar+Jama+Masjid/data=!4m7!3m6!1s0x399052975659e77f:0x7e318f64e153e8b4!8m2!3d26.0669511!4d82.8806597!16s%2Fg%2F11h9xwrh8m!19sChIJf-dZVpdSkDkRtOhT4WSPMX4?authuser=0&hl=en&rclk=1,"26.066951099999997,82.8806597"
Noori masjid kasab muhalla jagdishpur bhojpur,Mosque,"FCCF+35V Noori masjid kasab muhalla jagdishpur bhojpur, Jagdishpur, Bihar 802158",,FCCF+35V,Jagdishpur,802158,Bihar,IN,https://www.google.com/maps/place/Noori+masjid+kasab+muhalla+jagdishpur+bhojpur/data=!4m7!3m6!1s0x398d7da61ed9765b:0xcd83955c6d33c2cc!8m2!3d25.4697851!4d84.4226957!16s%2Fg%2F11kqbs6stj!19sChIJW3bZHqZ9jTkRzMIzbVyVg80?authuser=0&hl=en&rclk=1,"25.4697851,84.42269569999999"
JAGDISHPUR NORIE MASJID ,Place of worship,"J6H8+HV JAGDISHPUR NORIE MASJID , Jagdish Pur, Uttar Pradesh 233307",,J6H8+HV,Jagdish Pur,,Uttar Pradesh,IN,https://www.google.com/maps/place/JAGDISHPUR+NORIE+MASJID+%F0%9F%92%9A/data=!4m7!3m6!1s0x3991dd7d0c8c28f5:0xb1a79965365943d2!8m2!3d25.6289747!4d83.2171099!16s%2Fg%2F11stphfcqb!19sChIJ9SiMDH3dkTkR0kNZNmWZp7E?authuser=0&hl=en&rclk=1,"25.6289747,83.2171099"
MOHAMMADIA MASJID PURVA MATTE,Mosque,"FJVC+3HM MOHAMMADIA MASJID PURVA MATTE, Jagdishpur Satthin Rd, Matte Ka Purva, Daulatpur Nisura, Uttar Pradesh 227816",Matte Ka Purva,"FJVC+3HM, Jagdishpur Satthin Rd",Daulatpur Nisura,227816,Uttar Pradesh,IN,https://www.google.com/maps/place/MOHAMMADIA+MASJID+PURVA+MATTE/data=!4m7!3m6!1s0x399a492240f6d7cd:0x5a986e5401b8b49d!8m2!3d26.4927155!4d81.6214362!16s%2Fg%2F11nxsl4r88!19sChIJzdf2QCJJmjkRnbS4AVRumFo?authuser=0&hl=en&rclk=1,"26.4927155,81.62143619999999"
Badi masjid brry msjd nSyr pwr,Mosque,"6MPC+9XH Badi masjid brry msjd nSyr pwr, Khem Pur, Uttar Pradesh 271503",,6MPC+9XH,Khem Pur,271503,Uttar Pradesh,IN,https://www.google.com/maps/place/Badi+masjid+%D8%A8%DA%91%DB%8C+%D9%85%D8%B3%D8%AC%D8%AF+%D9%86%D8%B5%DB%8C%D8%B1+%D9%BE%D9%88%D8%B1%E2%80%AD/data=!4m7!3m6!1s0x39999917e2a3390d:0xb642744e73e2c42b!8m2!3d27.2359393!4d81.6724689!16s%2Fg%2F11q35y3rnb!19sChIJDTmj4heZmTkRK8Tic050QrY?authuser=0&hl=en&rclk=1,"27.2359393,81.6724689"
Madeena Masjid Narayanpur,Mosque,"CG6R+FPX Madeena Masjid Narayanpur, Narayanpur, Jagdishpur, Uttar Pradesh 274208",,CG6R+FPX,"Narayanpur, Jagdishpur",274208,Uttar Pradesh,IN,https://www.google.com/maps/place/Madeena+Masjid+Narayanpur/data=!4m7!3m6!1s0x39917d8a56d66cbd:0xf9f800f925fc7399!8m2!3d26.4112431!4d83.5418478!16s%2Fg%2F11j352g5sp!19sChIJvWzWVop9kTkRmXP8JfkA-Pk?authuser=0&hl=en&rclk=1,"26.4112431,83.5418478"
Qadiri Masjid,Mosque,"FJ78+2JC Qadiri Masjid, Jalalpur, Uttar Pradesh 227809",,FJ78+2JC,Jalalpur,227809,Uttar Pradesh,IN,https://www.google.com/maps/place/Qadiri+Masjid/data=!4m7!3m6!1s0x399a49f9913dffc7:0xc0170fc5a99b56d0!8m2!3d26.4625561!4d81.6165297!16s%2Fg%2F11l71xpk0g!19sChIJx_89kflJmjkR0FabqcUPF8A?authuser=0&hl=en&rclk=1,"26.4625561,81.6165297"
Masjid Al iman,Mosque,"Masjid Al iman, 109, Uttar Pradesh 230304",,109,Jagdishpur,230304,Uttar Pradesh,IN,https://www.google.com/maps/place/Masjid+Al+iman/data=!4m7!3m6!1s0x399aa3fb9efbf8b1:0x583c3e1e91e3f371!8m2!3d25.8188962!4d82.0542927!16s%2Fg%2F11j1zx07jn!19sChIJsfj7nvujmjkRcfPjkR4-PFg?authuser=0&hl=en&rclk=1,"25.818896199999998,82.05429269999999"
Taiba Masjid Mewati Mohalla,Mosque,"FJ58+287 Taiba Masjid Mewati Mohalla, Nihal Garh Chak Jangla, Jagdishpur, Uttar Pradesh 227809",,FJ58+287,"Nihal Garh Chak Jangla, Jagdishpur",227809,Uttar Pradesh,IN,https://www.google.com/maps/place/Taiba+Masjid+Mewati+Mohalla/data=!4m7!3m6!1s0x399a49330045485d:0x676601aec7858fc0!8m2!3d26.4575391!4d81.6158023!16s%2Fg%2F11h3qcsm7p!19sChIJXUhFADNJmjkRwI-Fx64BZmc?authuser=0&hl=en&rclk=1,"26.457539099999998,81.6158023"
Jaama Masjid Nihapur,Mosque,"FMMW+43M Jaama Masjid Nihapur, Raniganj Shukul Bazar Rd, Nihal Pur, Uttar Pradesh 227816",,"FMMW+43M, Raniganj Shukul Bazar Rd",Nihal Pur,227816,Uttar Pradesh,IN,https://www.google.com/maps/place/Jaama+Masjid+Nihapur/data=!4m7!3m6!1s0x399a461f6abff26f:0x898767b5145f51ca!8m2!3d26.4828433!4d81.6951789!16s%2Fg%2F11f3jl3yj6!19sChIJb_K_ah9GmjkRylFfFLVnh4k?authuser=0&hl=en&rclk=1,"26.4828433,81.6951789"
Masjid Imam Mehdi,Mosque,"QM6C+CRJ Masjid Imam Mehdi, Taukirhasan Rd, Shekh Mohamid, Jagdishpur, Jaunpur, Uttar Pradesh 222001",Shekh Mohamid,"QM6C+CRJ, Taukirhasan Rd","Jagdishpur, Jaunpur",222001,Uttar Pradesh,IN,https://www.google.com/maps/place/Masjid+Imam+Mehdi/data=!4m7!3m6!1s0x39903b90f2bbdceb:0xa9665565b27880a7!8m2!3d25.7611!4d82.6720254!16s%2Fg%2F11tghpvv5b!19sChIJ69y78pA7kDkRp4B4smVVZqk?authuser=0&hl=en&rclk=1,"25.7611,82.6720254"
Aaisha Masjid msjd,Mosque,"44Q9+CGP Aaisha Masjid msjd, Fatahpur, Jagdishpur, Bihar 847422",Fatahpur,44Q9+CGP,Jagdishpur,847422,Bihar,IN,https://www.google.com/maps/place/Aaisha+Masjid+%D9%85%D8%B3%D8%AC%D8%AF%E2%80%AD/data=!4m7!3m6!1s0x39eddbafeef4bae7:0xb2f9e707bc2a831a!8m2!3d26.1385764!4d86.1188337!16s%2Fg%2F11kfc7140h!19sChIJ57r07q_b7TkRGoMqvAfn-bI?authuser=0&hl=en&rclk=1,"26.138576399999998,86.1188337"
Muhammadi Masjid mHmWdy msjd muh'mmdii msjid,Mosque,"9JFR+3RC Muhammadi Masjid mHmWdy msjd muh'mmdii msjid, Jagdishpur Sujan, Parsipur, Uttar Pradesh 221402",,9JFR+3RC,"Jagdishpur Sujan, Parsipur",221402,Uttar Pradesh,IN,https://www.google.com/maps/place/Muhammadi+Masjid+%D9%85%D8%AD%D9%85%D9%91%D8%AF%DB%8C+%D9%85%D8%B3%D8%AC%D8%AF+%E0%A4%AE%E0%A5%81%E0%A4%B9%E0%A4%BC%E0%A4%AE%E0%A5%8D%E0%A4%AE%E0%A4%A6%E0%A5%80+%E0%A4%AE%E0%A4%B8%E0%A5%8D%E0%A4%9C%E0%A4%BF%E0%A4%A6%E2%80%AD/data=!4m7!3m6!1s0x398fddd51ec8e40f:0x9df45e671f05a989!8m2!3d25.3726965!4d82.6412074!16s%2Fg%2F11qbqkhf5z!19sChIJD-TIHtXdjzkRiakFH2de9J0?authuser=0&hl=en&rclk=1,"25.3726965,82.6412074"
Jaama Masjid,Mosque,"FMMX+G67 Jaama Masjid, Mujahit Khani Road, Nihal Pur, Uttar Pradesh 227816",,"FMMX+G67, Mujahit Khani Road",Nihal Pur,227816,Uttar Pradesh,IN,https://www.google.com/maps/place/Jaama+Masjid/data=!4m7!3m6!1s0x399a4618986f37c5:0xe7968c6741a94ddd!8m2!3d26.4837879!4d81.6980611!16s%2Fg%2F11gdymxkl2!19sChIJxTdvmBhGmjkR3U2pQWeMluc?authuser=0&hl=en&rclk=1,"26.4837879,81.69806109999999"
Masjid Jagdispur,Mosque,"92WH+768 Masjid Jagdispur, Chilhiya - Palta Devi Rd, Palta Devi, Uttar Pradesh 272202",,"92WH+768, Chilhiya - Palta Devi Rd",Palta Devi,272202,Uttar Pradesh,IN,https://www.google.com/maps/place/Masjid+Jagdispur/data=!4m7!3m6!1s0x3996e7f605654a5b:0xabab1b50ef562d39!8m2!3d27.3956597!4d83.0280708!16s%2Fg%2F11fl8sf1xg!19sChIJW0plBfbnljkROS1W71Abq6s?authuser=0&hl=en&rclk=1,"27.3956597,83.0280708"
ISLAMI MASJID,Mosque,"63V6+HWP ISLAMI MASJID, Jagdishpur Aurangabad, Uttar Pradesh 203129",,63V6+HWP,Jagdishpur Aurangabad,,Uttar Pradesh,IN,https://www.google.com/maps/place/ISLAMI+MASJID/data=!4m7!3m6!1s0x390b513511b6bceb:0xc849ffe35434f83e!8m2!3d28.2439743!4d78.0623192!16s%2Fg%2F11try4q602!19sChIJ67y2ETVRCzkRPvg0VOP_Scg?authuser=0&hl=en&rclk=1,"28.243974299999998,78.06231919999999"
Badi masjid Jagdishpur,Mosque,"FWXQ+9FX Badi masjid Jagdishpur, Jagdishpur, Bihar 841508",,FWXQ+9FX,Jagdishpur,841508,Bihar,IN,https://www.google.com/maps/place/Badi+masjid+Jagdishpur/data=!4m7!3m6!1s0x3993b9980172a22d:0x380657c115d67f01!8m2!3d26.4984961!4d83.9387257!16s%2Fg%2F11skb934vv!19sChIJLaJyAZi5kzkRAX_WFcFXBjg?authuser=0&hl=en&rclk=1,"26.4984961,83.93872569999999"
Masjid Umar Faruq,Mosque,"FJ5F+R34 Masjid Umar Faruq, Jagdishpur, Uttar Pradesh 227809",,FJ5F+R34,Jagdishpur,,Uttar Pradesh,IN,https://www.google.com/maps/place/Masjid+Umar+Faruq/data=!4m7!3m6!1s0x399a494affffffff:0xc4257a197b251e93!8m2!3d26.4595042!4d81.6226993!16s%2Fg%2F11hb4mbqsq!19sChIJ_____0pJmjkRkx4lexl6JcQ?authuser=0&hl=en&rclk=1,"26.459504199999998,81.6226993"
Jama badi masjid jagdishpur,Mosque,"VH4J+JXM Jama badi masjid jagdishpur, Jagdishpur, Uttar Pradesh 274149",,VH4J+JXM,Jagdishpur,274149,Uttar Pradesh,IN,https://www.google.com/maps/place/Jama+badi+masjid+jagdishpur/data=!4m7!3m6!1s0x3991577b298fe3fb:0x36e04b7c6fc11912!8m2!3d26.8565792!4d83.5824109!16s%2Fg%2F11pvl8r6c3!19sChIJ--OPKXtXkTkREhnBb3xL4DY?authuser=0&hl=en&rclk=1,"26.8565792,83.5824109"
Masjid,Mosque,"FF94+WJ Masjid, Jagdeeshpur, Uttar Pradesh 273411",,FF94+WJ,Jagdeeshpur,,Uttar Pradesh,IN,https://www.google.com/maps/place/Masjid/data=!4m7!3m6!1s0x399165cacfc81599:0x172329958d7a5b85!8m2!3d26.4697888!4d83.456612!16s%2Fg%2F11t4yb6s_v!19sChIJmRXIz8plkTkRhVt6jZUpIxc?authuser=0&hl=en&rclk=1,"26.4697888,83.45661199999999"
Aasrafi masjid,Mosque,"FMJ8+RXR Aasrafi masjid, Pure gauhar raniganj, Jagdishpur",,"FMJ8+RXR, Pure gauhar raniganj","Jagdishpur, Parwej Pur",,Uttar Pradesh,IN,https://www.google.com/maps/place/Aasrafi+masjid/data=!4m7!3m6!1s0x399a49dd3296debd:0x3b970e279891e331!8m2!3d26.4821207!4d81.6673868!16s%2Fg%2F11rthzkn32!19sChIJvd6WMt1JmjkRMeORmCcOlzs?authuser=0&hl=en&rclk=1,"26.4821207,81.6673868"
Noorani masjid Maigal purwa,Mosque,"4QVW+FHQ Noorani masjid Maigal purwa, Haldhar Mau, Kauraha Jagdishpur, Uttar Pradesh 271126",,"4QVW+FHQ, Haldhar Mau","Kauraha Jagdishpur, Haldhar Mau",271126,Uttar Pradesh,IN,https://www.google.com/maps/place/Noorani+masjid+Maigal+purwa/data=!4m7!3m6!1s0x399993ed40b214f3:0x75e6dc028aef4e0e!8m2!3d27.1437203!4d81.7964722!16s%2Fg%2F11q1lqpcjh!19sChIJ8xSyQO2TmTkRDk7vigLc5nU?authuser=0&hl=en&rclk=1,"27.1437203,81.7964722"
Noor masjid,Mosque,"3V8M+5MX Noor masjid, Jagdispur, Uttar Pradesh 276304",,3V8M+5MX,Jagdispur,276304,Uttar Pradesh,IN,https://www.google.com/maps/place/Noor+masjid/data=!4m7!3m6!1s0x399053917e9b70bb:0x383c2aea9833de2d!8m2!3d26.0654873!4d82.8842374!16s%2Fg%2F11lf_qhctr!19sChIJu3CbfpFTkDkRLd4zmOoqPDg?authuser=0&hl=en&rclk=1,"26.065487299999997,82.88423739999999"
Badi Masjid,Mosque,"FC99+4R6 Badi Masjid, Jagdishpur, Bihar 802158",,FC99+4R6,Jagdishpur,802158,Bihar,IN,https://www.google.com/maps/place/Badi+Masjid/data=!4m7!3m6!1s0x398d7ca1840fffff:0x7079e02add3946b1!8m2!3d25.4677843!4d84.4195234!16s%2Fg%2F11sscs4kxp!19sChIJ__8PhKF8jTkRsUY53SrgeXA?authuser=0&hl=en&rclk=1,"25.467784299999998,84.4195234"
Masjid Usaimeen msjd `thymyn,Mosque,"73CM+XH9 Masjid Usaimeen msjd `thymyn, Above Dilli Chat Hotel, Azad Market Uska Road Tetri Bazar, Naugarh, Uttar Pradesh 272207","Sri Ganganagar, Bagiyawa","73CM+XH9, Above Dilli Chat Hotel, Azad Market Uska Road Tetri Bazar","Naugarh, Jagdishpur Khurd",272207,Uttar Pradesh,IN,https://www.google.com/maps/place/Masjid+Usaimeen+%D9%85%D8%B3%D8%AC%D8%AF+%D8%B9%D8%AB%DB%8C%D9%85%DB%8C%D9%86%E2%80%AD/data=!4m7!3m6!1s0x3996c51ab2e57f25:0xa0772622b8ca29fd!8m2!3d27.2724224!4d83.083997!16s%2Fg%2F11j0xb1hwq!19sChIJJX_lshrFljkR_SnKuCImd6A?authuser=0&hl=en&rclk=1,"27.2724224,83.083997"
Mosque,Mosque,"RVJR+CX Mosque, Jagdishpur, Uttar Pradesh 276301",,RVJR+CX,Jagdishpur,,Uttar Pradesh,IN,https://www.google.com/maps/place/Mosque/data=!4m7!3m6!1s0x3990350022612f35:0x5900d214ff759630!8m2!3d25.8311077!4d82.8923932!16s%2Fg%2F11pf2nx0ny!19sChIJNS9hIgA1kDkRMJZ1_xTSAFk?authuser=0&hl=en&rclk=1,"25.8311077,82.8923932"
Masjid ghosiyana,Mosque,"Masjid ghosiyana, Bank Of Baroda Atm, Nh731, Jagdishpur - Jais Rd, Jalalpur, Nihal Garh Chak Jangla, Uttar Pradesh 227809",,"Bank Of Baroda Atm, Nh731, Jagdishpur - Jais Rd","Jalalpur, Nihal Garh Chak Jangla",227809,Uttar Pradesh,IN,https://www.google.com/maps/place/Masjid+ghosiyana/data=!4m7!3m6!1s0x399a49ec9bbae647:0x4f30e86a04e3fd14!8m2!3d26.4576151!4d81.6158382!16s%2Fg%2F11vb7fkj1y!19sChIJR-a6m-xJmjkRFP3jBGroME8?authuser=0&hl=en&rclk=1,"26.457615099999998,81.6158382"
Jama masjid Jagdishpur,Mosque,"FFM5+73R Jama masjid Jagdishpur, Barari - Jagdishpur - Kabar Rd, Kalikapurhat, Jagdishpur, Bihar 854104",Kalikapurhat,"FFM5+73R, Barari - Jagdishpur - Kabar Rd",Jagdishpur,,Bihar,IN,https://www.google.com/maps/place/Jama+masjid+Jagdishpur/data=!4m7!3m6!1s0x39f005d5e87cc677:0xed3168c6e00ccd82!8m2!3d25.4832378!4d87.4576454!16s%2Fg%2F11k9drsq9r!19sChIJd8Z86NUF8DkRgs0M4MZoMe0?authuser=0&hl=en&rclk=1,"25.483237799999998,87.45764539999999"
Masjid Raghunathpur,Mosque,"VCXC+7V5 Masjid Raghunathpur, J Janul Abden, Urf, Jainpur",,"VCXC+7V5, J Janul Abden, Urf","Jainpur, J. Janul Abden Urf Jainp",,Uttar Pradesh,IN,https://www.google.com/maps/place/Masjid+Raghunathpur/data=!4m7!3m6!1s0x399151bb9c90881f:0x5dc777f896f098a7!8m2!3d26.8981277!4d83.4222448!16s%2Fg%2F11t7t2z4g0!19sChIJH4iQnLtRkTkRp5jwlvh3x10?authuser=0&hl=en&rclk=1,"26.8981277,83.4222448"
Masjid,Mosque,"F545+2RV Masjid, Kawe - Lamichaur - Husepur Rd, Lachhmipur, Dikshitauli, Bihar 841426",,"F545+2RV, Kawe - Lamichaur - Husepur Rd","Lachhmipur, Dikshitauli",841426,Bihar,IN,https://www.google.com/maps/place/Masjid/data=!4m7!3m6!1s0x3993afed77569abb:0xeec2ee2d8ac83908!8m2!3d26.4551187!4d84.1595556!16s%2Fg%2F11v04tbvg7!19sChIJu5pWd-2vkzkRCDnIii3uwu4?authuser=0&hl=en&rclk=1,"26.4551187,84.15955559999999"
Jagdishpur masjid,Mosque,"PGXQ+5V6 Jagdishpur masjid, Jagadispur, Koni, Uttar Pradesh 273002",,PGXQ+5V6,"Jagadispur, Koni",273002,Uttar Pradesh,IN,https://www.google.com/maps/place/Jagdishpur+masjid/data=!4m7!3m6!1s0x3991594095899e21:0x972ec2cef3ca807b!8m2!3d26.7479053!4d83.5396139!16s%2Fg%2F11vlr7xpkg!19sChIJIZ6JlUBZkTkRe4DK887CLpc?authuser=0&hl=en&rclk=1,"26.7479053,83.53961389999999"
