name,main_category,address,address_ward,address_street,address_city,address_postal_code,address_state,address_country_code,link,coordinates
Bachhaon,Students support association,"W6HM+522 Bachhaon, Bachhraon, Uttar Pradesh 244225",,W6HM+522,Bachhraon,244225,Uttar Pradesh,IN,https://www.google.com/maps/place/Bachhaon/data=!4m7!3m6!1s0x390b9f5139bde723:0xa5d889bf19a59cb6!8m2!3d28.9278943!4d78.2325091!16s%2Fg%2F11gnnstjmw!19sChIJI-e9OVGfCzkRtpylGb-J2KU?authuser=0&hl=en&rclk=1,"28.9278943,78.2325091"
Lal Masjid,Mosque,"W6GJ+HVF Lal Masjid, Bachhraon, Uttar Pradesh 244225",,W6GJ+HVF,Bachhraon,244225,Uttar Pradesh,IN,https://www.google.com/maps/place/Lal+Masjid/data=!4m7!3m6!1s0x390b9e46e6fa1893:0xd7ab292053a4497d!8m2!3d28.9264345!4d78.2321674!16s%2Fg%2F1hd_dp6tj!19sChIJkxj65kaeCzkRfUmkUyApq9c?authuser=0&hl=en&rclk=1,"28.9264345,78.2321674"
Jama Masjid,Place of worship,"W6GM+5JC Jama Masjid, peerzadjan, Bachhraon, Uttar Pradesh 244225",,"W6GM+5JC, peerzadjan",Bachhraon,,Uttar Pradesh,IN,https://www.google.com/maps/place/Jama+Masjid/data=!4m7!3m6!1s0x390b9e47a560a491:0x4040943e0b66d803!8m2!3d28.9254336!4d78.2340089!16s%2Fg%2F11b7y9l4g4!19sChIJkaRgpUeeCzkRA9hmCz6UQEA?authuser=0&hl=en&rclk=1,"28.925433599999998,78.23400889999999"
Choudhary Wali Masjid,Mosque,"W6FM+HVJ Choudhary Wali Masjid, Salik seth building, near choudhary wali maajid, Bachhraon, Uttar Pradesh 244225",,"W6FM+HVJ Salik seth building, near choudhary wali maajid",Bachhraon,244225,Uttar Pradesh,IN,https://www.google.com/maps/place/Choudhary+Wali+Masjid/data=!4m7!3m6!1s0x390b9e478cdcea17:0x67cdec3045ea0ea1!8m2!3d28.9237374!4d78.2346286!16s%2Fg%2F11cs9mbllj!19sChIJF-rcjEeeCzkRoQ7qRTDszWc?authuser=0&hl=en&rclk=1,"28.9237374,78.2346286"
Haji Peer Wali Masjid,Mosque,"W6GJ+2V8 Haji Peer Wali Masjid, Bachhraon, Uttar Pradesh 244225",,W6GJ+2V8,Bachhraon,244225,Uttar Pradesh,IN,https://www.google.com/maps/place/Haji+Peer+Wali+Masjid/data=!4m7!3m6!1s0x390b9ffde25281b9:0xcbafb12605c070fc!8m2!3d28.925026!4d78.2322002!16s%2Fg%2F11g1ksyr3y!19sChIJuYFS4v2fCzkR_HDABSaxr8s?authuser=0&hl=en&rclk=1,"28.925026,78.2322002"
Yaad-E-ilahi Bagh Wali Masjid,Mosque,"Yaad-E-ilahi Bagh Wali Masjid, police station, dist, near kashiram colony, behind to, Bachhraon, Amroha, Uttar Pradesh 244225",,"police station, dist, near kashiram colony, behind to","Bachhraon, Amroha",,Uttar Pradesh,IN,https://www.google.com/maps/place/Yaad-E-ilahi+Bagh+Wali+Masjid/data=!4m7!3m6!1s0x390b9e358227bf2f:0x64c832862bc223d9!8m2!3d28.9231275!4d78.2444996!16s%2Fg%2F11cs9m1by4!19sChIJL78ngjWeCzkR2SPCK4YyyGQ?authuser=0&hl=en&rclk=1,"28.9231275,78.2444996"
Mev wali masjid,Mosque,"Mev wali masjid, Bachhraon, Uttar Pradesh 244225",,,Bachhraon,244225,Uttar Pradesh,IN,https://www.google.com/maps/place/Mev+wali+masjid/data=!4m7!3m6!1s0x390b9fed3b2b8c29:0x2ddab0922dc4add0!8m2!3d28.9233648!4d78.2317096!16s%2Fg%2F11rchr1bqn!19sChIJKYwrO-2fCzkR0K3ELZKw2i0?authuser=0&hl=en&rclk=1,"28.923364799999998,78.2317096"
Chand Masjid Bachhraon,Mosque,"W6HP+2FV Chand Masjid Bachhraon, Unnamed Road, Bachhraon, Uttar Pradesh 244225",,"W6HP+2FV, Unnamed Road",Bachhraon,244225,Uttar Pradesh,IN,https://www.google.com/maps/place/Chand+Masjid+Bachhraon/data=!4m7!3m6!1s0x390b9ffb520703ed:0xea8eed4989552200!8m2!3d28.9276061!4d78.2361591!16s%2Fg%2F11fhkd20k7!19sChIJ7QMHUvufCzkRACJViUntjuo?authuser=0&hl=en&rclk=1,"28.9276061,78.2361591"
kunde wali masjid,Mosque,"W6CP+9M4 kunde wali masjid, Bachhraon, Uttar Pradesh 244225",,W6CP+9M4,Bachhraon,244225,Uttar Pradesh,IN,https://www.google.com/maps/place/kunde+wali+masjid/data=!4m7!3m6!1s0x390b9e378391e887:0x28c2a51709eb954d!8m2!3d28.9208885!4d78.2367072!16s%2Fg%2F11dz3p3bz3!19sChIJh-iRgzeeCzkRTZXrCRelwig?authuser=0&hl=en&rclk=1,"28.9208885,78.2367072"
Bismillah Masjid,Mosque,"W6CJ+GCJ Bismillah Masjid, Bachhraon, Uttar Pradesh 244225",,W6CJ+GCJ,Bachhraon,244225,Uttar Pradesh,IN,https://www.google.com/maps/place/Bismillah+Masjid/data=!4m7!3m6!1s0x390b9feb4ce7116d:0x2867ea439f7edd35!8m2!3d28.921333!4d78.2310294!16s%2Fg%2F11gv1y4425!19sChIJbRHnTOufCzkRNd1-n0PqZyg?authuser=0&hl=en&rclk=1,"28.921332999999997,78.2310294"
Fakirowali Masjid,Mosque,"W6FM+4H8 Fakirowali Masjid, Pathyapura Rd, Bachhraon, Uttar Pradesh 244225",,"W6FM+4H8, Pathyapura Rd",Bachhraon,244225,Uttar Pradesh,IN,https://www.google.com/maps/place/Fakirowali+Masjid/data=!4m7!3m6!1s0x390b9e387a3b1fd7:0xe872f6f26cb9b253!8m2!3d28.9228!4d78.233964!16s%2Fg%2F11c2pnmjfv!19sChIJ1x87ejieCzkRU7K5bPL2cug?authuser=0&hl=en&rclk=1,"28.9228,78.233964"
Bhattay wali Masjid,Mosque,"W6GM+JW7 Bhattay wali Masjid, Bachhraon, Uttar Pradesh 244225",,W6GM+JW7,Bachhraon,244225,Uttar Pradesh,IN,https://www.google.com/maps/place/Bhattay+wali+Masjid/data=!4m7!3m6!1s0x390b9e46506a1663:0x281b6706248f5bb6!8m2!3d28.9265296!4d78.2347842!16s%2Fg%2F11dyx9b2pk!19sChIJYxZqUEaeCzkRtluPJAZnGyg?authuser=0&hl=en&rclk=1,"28.9265296,78.23478419999999"
badh wali masjid,Mosque,"W6CP+W87 badh wali masjid, Bachhraon, Uttar Pradesh 244225",,W6CP+W87,Bachhraon,244225,Uttar Pradesh,IN,https://www.google.com/maps/place/badh+wali+masjid/data=!4m7!3m6!1s0x390b9e381bd5541d:0x136f9a2cfc949697!8m2!3d28.9222894!4d78.2357815!16s%2Fg%2F11g8917rnh!19sChIJHVTVGzieCzkRl5aU_CyabxM?authuser=0&hl=en&rclk=1,"28.9222894,78.2357815"
Sakhawat Hussain Wali Masjid,Mosque,"W6CP+Q27 Sakhawat Hussain Wali Masjid, Bachhraon, Uttar Pradesh 244225",,W6CP+Q27,Bachhraon,244225,Uttar Pradesh,IN,https://www.google.com/maps/place/Sakhawat+Hussain+Wali+Masjid/data=!4m7!3m6!1s0x390b9e38158cec07:0x7c2fcd0ce45fd960!8m2!3d28.9219007!4d78.2350584!16s%2Fg%2F11d_2ln6ms!19sChIJB-yMFTieCzkRYNlf5AzNL3w?authuser=0&hl=en&rclk=1,"28.9219007,78.2350584"
Ghuntagher kothi wali masjid Bachhraon,Mosque,"W6HJ+9XP Ghuntagher kothi wali masjid Bachhraon, Mohalla baqabad, Bachhraon, Uttar Pradesh 244225",Mohalla baqabad,W6HJ+9XP,Bachhraon,,Uttar Pradesh,IN,https://www.google.com/maps/place/Ghuntagher+kothi+wali+masjid+Bachhraon/data=!4m7!3m6!1s0x390b9ff4dcd06b99:0xfff2afb51aaee65d!8m2!3d28.9284623!4d78.2324502!16s%2Fg%2F11h1f_7q5b!19sChIJmWvQ3PSfCzkRXeauGrWv8v8?authuser=0&hl=en&rclk=1,"28.9284623,78.2324502"
MAHAL WALI MASJID,Mosque,"W6GM+C89 MAHAL WALI MASJID, Bachhraon, Uttar Pradesh 244225",,W6GM+C89,Bachhraon,244225,Uttar Pradesh,IN,https://www.google.com/maps/place/MAHAL+WALI+MASJID/data=!4m7!3m6!1s0x390b9e4655555555:0x2d01d5e4f1d75d2e!8m2!3d28.9260272!4d78.2333743!16s%2Fg%2F11g6_4kxfd!19sChIJVVVVVUaeCzkRLl3X8eTVAS0?authuser=0&hl=en&rclk=1,"28.9260272,78.2333743"
MUFTI WALI MASJID,Mosque,"W6HJ+32Q MUFTI WALI MASJID, Bachhraon, Uttar Pradesh 244225",,W6HJ+32Q,Bachhraon,244225,Uttar Pradesh,IN,https://www.google.com/maps/place/MUFTI+WALI+MASJID/data=!4m7!3m6!1s0x390b9fbeee4d7e09:0x1b9d5c77695d73d3!8m2!3d28.9277167!4d78.23011!16s%2Fg%2F11j8hj1nzn!19sChIJCX5N7r6fCzkR03NdaXdcnRs?authuser=0&hl=en&rclk=1,"28.927716699999998,78.23011"
Mansooriyan Masjid,Mosque,"W6GM+95Q Mansooriyan Masjid, Bachhraon, Uttar Pradesh 244225",,W6GM+95Q,Bachhraon,244225,Uttar Pradesh,IN,https://www.google.com/maps/place/Mansooriyan+Masjid/data=!4m7!3m6!1s0x390b9e46fd66a04f:0xbc4f0b0f26022b93!8m2!3d28.9259711!4d78.2329941!16s%2Fg%2F11dxm1_2f2!19sChIJT6Bm_UaeCzkRkysCJg8LT7w?authuser=0&hl=en&rclk=1,"28.925971099999998,78.2329941"
Akbarpur masjid,Mosque,"W6MP+2WV Akbarpur masjid, Bachhraon, Uttar Pradesh 244225",,W6MP+2WV,Bachhraon,244225,Uttar Pradesh,IN,https://www.google.com/maps/place/Akbarpur+masjid/data=!4m7!3m6!1s0x390b9fd30e502a9d:0xcaf805d302ab23db!8m2!3d28.9326088!4d78.2372981!16s%2Fg%2F11ngt04tlf!19sChIJnSpQDtOfCzkR2yOrAtMF-Mo?authuser=0&hl=en&rclk=1,"28.932608799999997,78.23729809999999"
Maniharo Wali Masjid,Mosque,"W6FP+H7R Maniharo Wali Masjid, Bachhraon, Uttar Pradesh 244225",,W6FP+H7R,Bachhraon,,Uttar Pradesh,IN,https://www.google.com/maps/place/Maniharo+Wali+Masjid/data=!4m7!3m6!1s0x390b9f3ef657a49f:0x5a218791691784f!8m2!3d28.923979!4d78.2356265!16s%2Fg%2F11g22z7xh1!19sChIJn6RX9j6fCzkRT3iRFnkYogU?authuser=0&hl=en&rclk=1,"28.923979,78.2356265"
Qazi Wali Masjid,Mosque,"W6GM+9GM Qazi Wali Masjid, Mohalla Shekhzadgan, Bachhraon, Uttar Pradesh 244225",,"W6GM+9GM, Mohalla Shekhzadgan",Bachhraon,244225,Uttar Pradesh,IN,https://www.google.com/maps/place/Qazi+Wali+Masjid/data=!4m7!3m6!1s0x390b9fde131fa0ad:0x3db0cf1e60575bc6!8m2!3d28.9259609!4d78.2338058!16s%2Fg%2F11l0kp9s_f!19sChIJraAfE96fCzkRxltXYB7PsD0?authuser=0&hl=en&rclk=1,"28.9259609,78.2338058"
Masjid alhamd,Mosque,"W6CM+3HR Masjid alhamd, Mohalla choudhariyan, Bachhraon, Uttar Pradesh 244225",,"W6CM+3HR, Mohalla choudhariyan",Bachhraon,244225,Uttar Pradesh,IN,https://www.google.com/maps/place/Masjid+alhamd/data=!4m7!3m6!1s0x390b9f14292fc6c3:0xa4f90d21b9eaf33d!8m2!3d28.9202488!4d78.2338853!16s%2Fg%2F11pkj_bmvf!19sChIJw8YvKRSfCzkRPfPquSEN-aQ?authuser=0&hl=en&rclk=1,"28.9202488,78.2338853"
Qaber Wali Masjid,Mosque,"W6HH+52F Qaber Wali Masjid, Bachhraon, Uttar Pradesh 244225",,W6HH+52F,Bachhraon,244225,Uttar Pradesh,IN,https://www.google.com/maps/place/Qaber+Wali+Masjid/data=!4m7!3m6!1s0x390b9f49dba27f19:0x6eba4eb1dae4dc4!8m2!3d28.9279443!4d78.2275402!16s%2Fg%2F11t6y4ds2h!19sChIJGX-i20mfCzkRxE2uHeuk6wY?authuser=0&hl=en&rclk=1,"28.9279443,78.22754019999999"
Bachhraun Qabristaan,Mosque,"W6CP+96G Bachhraun Qabristaan, Bachhraon, Uttar Pradesh 244225",,W6CP+96G,Bachhraon,244225,Uttar Pradesh,IN,https://www.google.com/maps/place/Bachhraun+Qabristaan/data=!4m7!3m6!1s0x390b9fa45b6007a1:0xd131e09c176384be!8m2!3d28.920934!4d78.2355862!16s%2Fg%2F11j0rg7m29!19sChIJoQdgW6SfCzkRvoRjF5zgMdE?authuser=0&hl=en&rclk=1,"28.920934,78.2355862"
Madina masajid,Mosque,"W6GM+M9V Madina masajid, Kanoon goyan, Ramleela Maidan Road, Bachhraon, Uttar Pradesh 244225",,"W6GM+M9V Kanoon goyan, Ramleela Maidan Road",Bachhraon,244225,Uttar Pradesh,IN,https://www.google.com/maps/place/Madina+masajid/data=!4m7!3m6!1s0x390b9f1621b36bb3:0xb2d3671b700af5!8m2!3d28.926733!4d78.2334082!16s%2Fg%2F11fmfhtwmr!19sChIJs2uzIRafCzkR9QpwG2fTsgA?authuser=0&hl=en&rclk=1,"28.926733,78.2334082"
Ek Minar Masjid Peerzadgan,Mosque,"W6GP+34X Ek Minar Masjid Peerzadgan, Mohalla Peerzadgan, Bachhraon, Uttar Pradesh 244225",Mohalla Peerzadgan,W6GP+34X,Bachhraon,244225,Uttar Pradesh,IN,https://www.google.com/maps/place/Ek+Minar+Masjid+Peerzadgan/data=!4m7!3m6!1s0x390b9fa01ee5aa73:0xc65477434a43817!8m2!3d28.9252398!4d78.2353662!16s%2Fg%2F11sxsdvmtx!19sChIJc6rlHqCfCzkRFzikNHRHZQw?authuser=0&hl=en&rclk=1,"28.9252398,78.2353662"
Molvi hafizur rehman kothi wali masjid,Place of worship,"W6FJ+MG7 Molvi hafizur rehman kothi wali masjid, Baqabad, Bachhraon, Uttar Pradesh 244225",Baqabad,W6FJ+MG7,Bachhraon,244225,Uttar Pradesh,IN,https://www.google.com/maps/place/Molvi+hafizur+rehman+kothi+wali+masjid/data=!4m7!3m6!1s0x390b9f291fb3a48d:0x7c1b8810a15c37fd!8m2!3d28.9241688!4d78.2313124!16s%2Fg%2F11h77zh43m!19sChIJjaSzHymfCzkR_TdcoRCIG3w?authuser=0&hl=en&rclk=1,"28.9241688,78.2313124"
Noor masjid,Mosque,"W6FP+XQ7 Noor masjid, Mohalla Peerzada, Amroha, Bachhraon, Uttar Pradesh 244225",Mohalla Peerzada,W6FP+XQ7,"Amroha, Bachhraon",,Uttar Pradesh,IN,https://www.google.com/maps/place/Noor+masjid/data=!4m7!3m6!1s0x390b9f36b00b9889:0xd251500de8228454!8m2!3d28.9249143!4d78.2369285!16s%2Fg%2F11sbdnnpdh!19sChIJiZgLsDafCzkRVIQi6A1QUdI?authuser=0&hl=en&rclk=1,"28.924914299999998,78.23692849999999"
