name,main_category,address,address_ward,address_street,address_city,address_postal_code,address_state,address_country_code,link,coordinates
Jama Masjid,Mosque,"Jama Masjid, Old Delhi, Delhi, 110006","Jama Masjid, Old Delhi",,Delhi,110006,Delhi,IN,https://www.google.com/maps/place/Jama+Masjid/data=!4m7!3m6!1s0x390cfd18df89b215:0xdd57369e29bf9d96!8m2!3d28.6506792!4d77.2334421!16zL20vMDR5emo1!19sChIJFbKJ3xj9DDkRlp2_KZ42V90?authuser=0&hl=en&rclk=1,"28.6506792,77.23344209999999"
Rabia Masjid (Jamia Hamdard),Mosque,"Rabia Masjid (Jamia Hamdard), Rabia Masjid, Hamdard Nagar, New Delhi, Delhi 110062",Hamdard Nagar,Rabia Masjid,New Delhi,110062,Delhi,IN,https://www.google.com/maps/place/Rabia+Masjid+%28Jamia+Hamdard%29/data=!4m7!3m6!1s0x390ce171fd50237d:0xce4e2bf10a8dca8b!8m2!3d28.5183137!4d77.2520345!16s%2Fg%2F1hm348c90!19sChIJfSNQ_XHhDDkRi8qNCvErTs4?authuser=0&hl=en&rclk=1,"28.5183137,77.2520345"
Masjid Moth,Mosque,"Masjid Moth, 92, Masjid Moth Rd, South Extension II, Masjid Moth Village, New Delhi, Delhi 110049","South Extension II, Masjid Moth Village","92, Masjid Moth Rd",New Delhi,110049,Delhi,IN,https://www.google.com/maps/place/Masjid+Moth/data=!4m7!3m6!1s0x390ce242799950e9:0xb2f0ba5418b140f8!8m2!3d28.562458!4d77.2176906!16s%2Fm%2F05zxh9f!19sChIJ6VCZeULiDDkR-ECxGFS68LI?authuser=0&hl=en&rclk=1,"28.562458,77.2176906"
Kabuli Bagh Masjid,Mosque,"9XWR+G4R Kabuli Bagh Masjid, 9909, Gali Number 2, Ramnagar, Bajaj Nagar, Manmohan Nagar, Panipat, Panipat Taraf Makhdum Zadgan, Haryana 132103","Ramnagar, Bajaj Nagar, Manmohan Nagar","9XWR+G4R, 9909, Gali Number 2","Panipat, Panipat Taraf Makhdum Zadgan",132103,Haryana,IN,https://www.google.com/maps/place/Kabuli+Bagh+Masjid/data=!4m7!3m6!1s0x390dda6989ab3ca9:0x5eb82fc3f2594555!8m2!3d29.3958972!4d76.9890751!16s%2Fg%2F11bwwlsdmr!19sChIJqTyriWnaDTkRVUVZ8sMvuF4?authuser=0&hl=en&rclk=1,"29.3958972,76.9890751"
Zeenat-ul Masjid,Mosque,"J6WV+HXF Zeenat-ul Masjid, Daryaganj, New Delhi, Delhi, 110002",Daryaganj,J6WV+HXF,"New Delhi, Delhi",110002,Delhi,IN,https://www.google.com/maps/place/Zeenat-ul+Masjid/data=!4m7!3m6!1s0x390cfcde5e11d987:0xdf29372369063d5f!8m2!3d28.6464447!4d77.2449347!16s%2Fg%2F1vrq80b4!19sChIJh9kRXt78DDkRXz0GaSM3Kd8?authuser=0&hl=en&rclk=1,"28.6464447,77.2449347"
Sabz Masjid,Mosque,"Sabz Masjid, 3571, Lalkuan Bazar Rd, Bazar Sirkiwalan, Lal Kuan Bazar, Chandni Chowk, Delhi, 110006","Bazar Sirkiwalan, Lal Kuan Bazar, Chandni Chowk","3571, Lalkuan Bazar Rd",Delhi,110006,Delhi,IN,https://www.google.com/maps/place/Sabz+Masjid/data=!4m7!3m6!1s0x390cfd16a94877a7:0x7b35bb653cd42e20!8m2!3d28.652163!4d77.223599!16s%2Fm%2F04q247t!19sChIJp3dIqRb9DDkRIC7UPGW7NXs?authuser=0&hl=en&rclk=1,"28.652162999999998,77.223599"
"Jama Masjid, Khadda Colony jm` msjd",Mosque,"Jama Masjid, Khadda Colony jm` msjd, D-202, near by Jama Masjid Gali, Jaitpur Extension Part II, Khadda Colony, Badarpur, New Delhi, Delhi 110044","Jaitpur Extension Part II, Khadda Colony, Badarpur","D-202, near by Jama Masjid Gali",New Delhi,110044,Delhi,IN,"https://www.google.com/maps/place/Jama+Masjid,+Khadda+Colony+%D8%AC%D8%A7%D9%85%D8%B9+%D9%85%D8%B3%D8%AC%D8%AF%E2%80%AD/data=!4m7!3m6!1s0x390ce65a1cc2d345:0x508d72d241ba7c2f!8m2!3d28.5094725!4d77.3384064!16s%2Fg%2F11b_23cdbd!19sChIJRdPCHFrmDDkRL3y6QdJyjVA?authuser=0&hl=en&rclk=1","28.509472499999998,77.3384064"
Masjid Patherwali msjd,Mosque,"1608, Masjid Patherwali msjd, 32, Block 39E, Nai Walan, Karol Bagh, New Delhi, Delhi, 110005","Block 39E, Nai Walan, Karol Bagh","1608, 32","New Delhi, Delhi",110005,Delhi,IN,https://www.google.com/maps/place/Masjid+Patherwali+%D9%85%D8%B3%D8%AC%D8%AF%E2%80%AD/data=!4m7!3m6!1s0x390cfd61ca03d689:0x8ff36a5a3c66d0bd!8m2!3d28.6475823!4d77.1958499!16s%2Fg%2F12hm6x9t2!19sChIJidYDymH9DDkRvdBmPFpq848?authuser=0&hl=en&rclk=1,"28.6475823,77.1958499"
Madni Masjid under Delhi Wakaf,Mosque,"Madni Masjid under Delhi Wakaf, Aravali Apartments, near, Alaknanda, New Delhi, Delhi 110019",Alaknanda,"Aravali Apartments, near",New Delhi,110019,Delhi,IN,https://www.google.com/maps/place/Madni+Masjid+under+Delhi+Wakaf/data=!4m7!3m6!1s0x390ce16350f7e38f:0xa1c7701e04aad5f2!8m2!3d28.5296762!4d77.252511!16s%2Fg%2F1q67vgk8s!19sChIJj-P3UGPhDDkR8tWqBB5wx6E?authuser=0&hl=en&rclk=1,"28.529676199999997,77.252511"
Madhi Masjid msjd,Mosque,"G57P+X22 Madhi Masjid msjd, Aam Bagh, Ladha Sarai Village, Mehrauli, New Delhi, Delhi 110030","Aam Bagh, Ladha Sarai Village, Mehrauli",G57P+X22,"Mehrauli, New Delhi",110030,Delhi,IN,https://www.google.com/maps/place/Madhi+Masjid+%D9%85%D8%B3%D8%AC%D8%AF%E2%80%AD/data=!4m7!3m6!1s0x390d1e1aefd51b73:0xeb817d5121e0c393!8m2!3d28.5148909!4d77.1850159!16s%2Fg%2F1tnk_stq!19sChIJcxvV7xoeDTkRk8PgIVF9ges?authuser=0&hl=en&rclk=1,"28.514890899999997,77.1850159"
Masjid Umar ibn Khattab Ahle Hadees,Mosque,"G8X3+2R4 Masjid Umar ibn Khattab Ahle Hadees, Kalindi Kunj Rd, Shaheen Bagh, Jamia Nagar, Okhla, New Delhi, Delhi 110025","Shaheen Bagh, Jamia Nagar, Okhla","G8X3+2R4, Kalindi Kunj Rd",New Delhi,110025,Delhi,IN,https://www.google.com/maps/place/Masjid+Umar+ibn+Khattab+Ahle+Hadees/data=!4m7!3m6!1s0x390ce4196e33e035:0x7187e898e383e521!8m2!3d28.5475049!4d77.3045864!16s%2Fg%2F11ddwvd6j7!19sChIJNeAzbhnkDDkRIeWD45joh3E?authuser=0&hl=en&rclk=1,"28.5475049,77.30458639999999"
Haneefa Maszid,Mosque,"Haneefa Maszid, Gareeb yar, Haneefa mszid road, 110044, near Dargah, Jaitpur Extension Part II, Khadda Colony, Jaitpur, New Delhi, Delhi 110044","Jaitpur Extension Part II, Khadda Colony, Jaitpur","Gareeb yar, Haneefa mszid road, 110044, near Dargah",New Delhi,110044,Delhi,IN,https://www.google.com/maps/place/Haneefa+Maszid/data=!4m7!3m6!1s0x390ce65bd7dcffed:0x835b6e616cf17019!8m2!3d28.5120862!4d77.3382194!16s%2Fg%2F11dxbjqkn2!19sChIJ7f_c11vmDDkRGXDxbGFuW4M?authuser=0&hl=en&rclk=1,"28.5120862,77.3382194"
Masjid Umar bin Khattab,Mosque,"Masjid Umar bin Khattab, Gali No.5, Main Rd, Old Mustafabad, New Mustafabad, Delhi, 110094","Guru Nanak Nagar, Block B, Old Mustafabad, New Mustafabad","Gali No.5, Main Rd",Delhi,110094,Delhi,IN,https://www.google.com/maps/place/Masjid+Umar+bin+Khattab/data=!4m7!3m6!1s0x390cfc046208898d:0x4b97628baf9cdb6c!8m2!3d28.7142796!4d77.2760241!16s%2Fg%2F12ll2jrmr!19sChIJjYkIYgT8DDkRbNucr4til0s?authuser=0&hl=en&rclk=1,"28.714279599999998,77.2760241"
Saeediya Masjid,Mosque,"Saeediya Masjid, 45, New Silampur Gali, Block A, Chauhan Banger, Shahdara, Delhi, 110031","Block A, Chauhan Banger, Shahdara","45, New Silampur Gali",Delhi,110031,Delhi,IN,https://www.google.com/maps/place/Saeediya+Masjid/data=!4m7!3m6!1s0x390cfc61230920b1:0xd4902005e34cb106!8m2!3d28.678415!4d77.2672561!16s%2Fg%2F11c6qcjmhv!19sChIJsSAJI2H8DDkRBrFM4wUgkNQ?authuser=0&hl=en&rclk=1,"28.678414999999998,77.2672561"
Noori Masjid,Mosque,"F858+P23 Noori Masjid, Rajeev Nagar, Sector 32, Faridabad, Haryana 121003","Rajeev Nagar, Sector 32",F858+P23,Faridabad,121003,Haryana,IN,https://www.google.com/maps/place/Noori+Masjid/data=!4m7!3m6!1s0x390ce7666fe98ee7:0xad8e1c427007f1f1!8m2!3d28.4592688!4d77.3150624!16s%2Fg%2F11b6hv8hmk!19sChIJ547pb2bnDDkR8fEHcEIcjq0?authuser=0&hl=en&rclk=1,"28.4592688,77.3150624"
Jannati Masjid,Mosque,"Jannati Masjid, Gali No.18,Maan Singh Nagar, Old Mustafabad, New Mustafabad, Delhi, 110094","Mansingh Nagar, Old Mustafabad, New Mustafabad","Gali No.18,Maan Singh Nagar",Delhi,110094,Delhi,IN,https://www.google.com/maps/place/Jannati+Masjid/data=!4m7!3m6!1s0x390cfc04dab2904d:0xf9f8d25ed97684f2!8m2!3d28.7112961!4d77.2767655!16s%2Fg%2F12lkffcg4!19sChIJTZCy2gT8DDkR8oR22V7S-Pk?authuser=0&hl=en&rclk=1,"28.7112961,77.2767655"
Jannatul Firdose Masjid msjd jn@lfrdws,Mosque,"G8J6+H6X Jannatul Firdose Masjid msjd jn@lfrdws, Madanpur Khadar Extension, Block A, Madanpur Khadar, New Delhi, Delhi 110076","Madanpur Khadar Extension, Block A, Madanpur Khadar",G8J6+H6X,New Delhi,110076,Delhi,IN,https://www.google.com/maps/place/Jannatul+Firdose+Masjid+%D9%85%D8%B3%D8%AC%D8%AF+%D8%AC%D9%86%D8%A9%D8%A7%D9%84%D9%81%D8%B1%D8%AF%D9%88%D8%B3%E2%80%AD/data=!4m7!3m6!1s0x390ce698614a56a5:0x1c3fad641cabab20!8m2!3d28.5314784!4d77.3106246!16s%2Fg%2F11dybr1nt3!19sChIJpVZKYZjmDDkRIKurHGStPxw?authuser=0&hl=en&rclk=1,"28.531478399999997,77.3106246"
Al-Mateen Masjid,Mosque,"Al-Mateen Masjid, Block M, Brahampuri, Shahdara, Delhi, 110053","Block M, Brahampuri, Shahdara",,Delhi,,Delhi,IN,https://www.google.com/maps/place/Al-Mateen+Masjid/data=!4m7!3m6!1s0x390cfc65cf47c239:0x9cb27deae050e07f!8m2!3d28.6830205!4d77.2668895!16s%2Fg%2F1pv2q6lxx!19sChIJOcJHz2X8DDkRf-BQ4Op9spw?authuser=0&hl=en&rclk=1,"28.683020499999998,77.26688949999999"
Nurani Masjid,Mosque,"G87P+9FG Nurani Masjid, Shamshul Marg, Jaitpur Extension Part II, Khadda Colony, Badarpur, New Delhi, Delhi 110044","Jaitpur Extension Part II, Khadda Colony, Badarpur","G87P+9FG, Shamshul Marg",New Delhi,110044,Delhi,IN,https://www.google.com/maps/place/Nurani+Masjid/data=!4m7!3m6!1s0x390ce65930824353:0xc2da84d501d29ac9!8m2!3d28.5134438!4d77.3362129!16s%2Fg%2F11bv1cg3ng!19sChIJU0OCMFnmDDkRyZrSAdWE2sI?authuser=0&hl=en&rclk=1,"28.513443799999997,77.33621289999999"
Masjid Nizamia,Mosque,"Masjid Nizamia, Gali Number 4, 110053, Kardam Puri, Sabzi Mandi Old, Delhi","Kardampuri Extn, Kardam Puri, Sabzi Mandi Old","Gali Number 4, 110053",Delhi,,Delhi,IN,https://www.google.com/maps/place/Masjid+Nizamia/data=!4m7!3m6!1s0x390cfc7503a5a4fd:0xf763759b5c823f50!8m2!3d28.6961464!4d77.2838551!16s%2Fg%2F11c2y8m5h1!19sChIJ_aSlA3X8DDkRUD-CXJt1Y_c?authuser=0&hl=en&rclk=1,"28.6961464,77.2838551"
Madina Masjid,Mosque,"P76C+XRR Madina Masjid, Mustafabad Extn, New Mustafabad, Delhi, 110094","Mustafabad Extn, New Mustafabad",P76C+XRR,Delhi,110094,Delhi,IN,https://www.google.com/maps/place/Madina+Masjid/data=!4m7!3m6!1s0x390cfc1ba78e57eb:0x36e88cc0986088d6!8m2!3d28.7124927!4d77.2720251!16s%2Fg%2F11gbkvy5wt!19sChIJ61eOpxv8DDkR1ohgmMCM6DY?authuser=0&hl=en&rclk=1,"28.7124927,77.2720251"
Fatima Masjid msjd fTmh,Mosque,"Fatima Masjid msjd fTmh, Unnamed Road, 110031, Rani Garden, Shastri Nagar, Geeta Colony, New Delhi, Delhi 110031","Rani Garden, Shastri Nagar, Geeta Colony","Unnamed Road, 110031","New Delhi, Delhi",110031,Delhi,IN,https://www.google.com/maps/place/Fatima+Masjid+%D9%85%D8%B3%D8%AC%D8%AF+%D9%81%D8%A7%D8%B7%D9%85%D9%87%E2%80%AD/data=!4m7!3m6!1s0x390cfcbda01782df:0xed7d3e5220987ea5!8m2!3d28.6500988!4d77.2720068!16s%2Fg%2F11fzfbpqny!19sChIJ34IXoL38DDkRpX6YIFI-fe0?authuser=0&hl=en&rclk=1,"28.6500988,77.2720068"
Masjid Teliyan,Mosque,"J6VP+9JM Masjid Teliyan, Bazar Chitli Qabar, Rakab Ganj, Chandni Mahal, Chandni Chowk, New Delhi, Delhi, 110006","Bazar Chitli Qabar, Rakab Ganj, Chandni Mahal, Chandni Chowk",J6VP+9JM,"New Delhi, Delhi",110006,Delhi,IN,https://www.google.com/maps/place/Masjid+Teliyan/data=!4m7!3m6!1s0x390cfd214be94f43:0x2cda7c5aeb3a5464!8m2!3d28.6434733!4d77.2365384!16s%2Fg%2F11bzzlszqp!19sChIJQ0_pSyH9DDkRZFQ661p82iw?authuser=0&hl=en&rclk=1,"28.6434733,77.2365384"
Madani Masjid,Mosque,"P886+FCR Madani Masjid, Radha Vihar, Village Mandoli, Delhi, 201102","Radha Vihar, Mandoli","P886+FCR, Radha Vihar, Village Mandoli",Delhi,201102,Uttar Pradesh,IN,https://www.google.com/maps/place/Madani+Masjid/data=!4m7!3m6!1s0x390cfbddbd142d67:0x91ffbc86707dab8!8m2!3d28.7162291!4d77.311013!16s%2Fg%2F11g8ky0m_1!19sChIJZy0Uvd37DDkRuNoHZ8j7Hwk?authuser=0&hl=en&rclk=1,"28.7162291,77.311013"
Masjid Mashal Chiyan,Mosque,"Masjid Mashal Chiyan, 2100, Pahari Bhojla Rd, Pahari Bhojla, Sita Ram Bazar, Old Delhi, Delhi, 110006","Pahari Bhojla, Sita Ram Bazar, Old Delhi","2100, Pahari Bhojla Rd",Delhi,110006,Delhi,IN,https://www.google.com/maps/place/Masjid+Mashal+Chiyan/data=!4m7!3m6!1s0x390cfd225b6ed379:0x9d5cccd781f0a815!8m2!3d28.6454716!4d77.232231!16s%2Fg%2F11f1211zsv!19sChIJedNuWyL9DDkRFajwgdfMXJ0?authuser=0&hl=en&rclk=1,"28.6454716,77.232231"
Masjid Badi msjd,Mosque,"Masjid Badi msjd, 893,, Chittli Qabar Bazar Rd, Jama Masjid, Chandni Chowk, New Delhi, Delhi 110006","Bazar Chitli Qabar, Kucha Chelan, Jama Masjid, Chandni Chowk","893,, Chittli Qabar Bazar Rd","New Delhi, Delhi",110006,Delhi,IN,https://www.google.com/maps/place/Masjid+Badi+%D9%85%D8%B3%D8%AC%D8%AF%E2%80%AD/data=!4m7!3m6!1s0x390cfd219cfec1f3:0x93ccacb281d71709!8m2!3d28.645321!4d77.2357133!16s%2Fg%2F12m98gjn5!19sChIJ88H-nCH9DDkRCRfXgbKszJM?authuser=0&hl=en&rclk=1,"28.645321,77.2357133"
Masjid Phatak Dhobiyan,Mosque,"M639+4W9 Masjid Phatak Dhobiyan, Phatak Dhobiyan, Farash Khana, Chandni Chowk, Delhi, 110006","Chabdi Bazar, Shardhanand Market, Farash Khana, Chandni Chowk","M639+4W9, Phatak Dhobiyan",Delhi,110006,Delhi,IN,https://www.google.com/maps/place/Masjid+Phatak+Dhobiyan/data=!4m7!3m6!1s0x390cfd137ba86047:0x6315b181c3dabea9!8m2!3d28.6527816!4d77.2198509!16s%2Fg%2F11gcqww2w6!19sChIJR2CoexP9DDkRqb7aw4GxFWM?authuser=0&hl=en&rclk=1,"28.652781599999997,77.2198509"
JAMA MASJID UMAR BIN KHATTAB,Mosque,"G8W3+XWV JAMA MASJID UMAR BIN KHATTAB, Kalindi Kunj Rd, Block H, Jamia Nagar, Okhla, New Delhi, Delhi 110025","Block H, Jamia Nagar, Okhla","G8W3+XWV, Kalindi Kunj Rd",New Delhi,110025,Delhi,IN,https://www.google.com/maps/place/JAMA+MASJID+UMAR+BIN+KHATTAB/data=!4m7!3m6!1s0x390ce51eb7ea0bfd:0xe968824c610cc265!8m2!3d28.5474867!4d77.3047909!16s%2Fg%2F11h7p6jtqd!19sChIJ_Qvqtx7lDDkRZcIMYUyCaOk?authuser=0&hl=en&rclk=1,"28.5474867,77.3047909"
Masjid Nalwali msjd,Mosque,"H6RV+C2F Masjid Nalwali msjd, Nizamuddin, Nizammudin West Slum, Nizamuddin West, New Delhi, Delhi 110013","Nizamuddin, Nizammudin West Slum, Nizamuddin West",H6RV+C2F,New Delhi,110013,Delhi,IN,https://www.google.com/maps/place/Masjid+Nalwali+%D9%85%D8%B3%D8%AC%D8%AF%E2%80%AD/data=!4m7!3m6!1s0x390ce302d2730367:0x324f36ed7bad214!8m2!3d28.591058!4d77.2425509!16s%2Fg%2F11d_txk_bj!19sChIJZwNz0gLjDDkRFNK6127zJAM?authuser=0&hl=en&rclk=1,"28.591058,77.2425509"
Jama Masjid Jehtana,Mosque,"W5V7+WQ5 Jama Masjid Jehtana, Jehtana, Haryana 122508",,W5V7+WQ5,Jehtana,,Haryana,IN,https://www.google.com/maps/place/Jama+Masjid+Jehtana/data=!4m7!3m6!1s0x3972d724ef22f57d:0xae268dd5074cbaac!8m2!3d27.9447699!4d77.1644688!16s%2Fg%2F11f8nqq1_w!19sChIJffUi7yTXcjkRrLpMB9WNJq4?authuser=0&hl=en&rclk=1,"27.944769899999997,77.1644688"
Munawra masjid,Mosque,"M7P4+6M2 Munawra masjid, Masjid Road, Third Pushta, Usmanpur, Nayagaon Village, Shahdara, Delhi, 110053","Third Pushta, Nayagaon, Nayagaon Village, Shahdara","M7P4+6M2, Masjid Road, Third Pushta, Usmanpur",Delhi,110053,Delhi,IN,https://www.google.com/maps/place/Munawra+masjid/data=!4m7!3m6!1s0x390cfd030e33f563:0x5dc12b36744f9a85!8m2!3d28.6855176!4d77.2566372!16s%2Fg%2F11hzwz2ypj!19sChIJY_UzDgP9DDkRhZpPdDYrwV0?authuser=0&hl=en&rclk=1,"28.685517599999997,77.2566372"
Jame Masjid Nasir Al-Dahmani,Mosque,"Jame Masjid Nasir Al-Dahmani, Jalalpur Ferozepur, Haryana 122108",,,Jalalpur Ferozepur,122108,Haryana,IN,https://www.google.com/maps/place/Jame+Masjid+Nasir+Al-Dahmani/data=!4m7!3m6!1s0x3972d03a94ce7b19:0xf2014fca68ac4a2e!8m2!3d27.9025787!4d77.0235757!16s%2Fg%2F11f50f06fc!19sChIJGXvOlDrQcjkRLkqsaMpPAfI?authuser=0&hl=en&rclk=1,"27.9025787,77.0235757"
Masjid Chatta Sheikh Manglo,Mosque,"J6XJ+HXC Masjid Chatta Sheikh Manglo, Choori Walan, Kalan Mehal, Chandni Chowk, New Delhi, Delhi, 110002","Choori Walan, Kalan Mehal, Chandni Chowk",J6XJ+HXC,"New Delhi, Delhi",110002,Delhi,IN,https://www.google.com/maps/place/Masjid+Chatta+Sheikh+Manglo/data=!4m7!3m6!1s0x390cfd188c598f69:0x5942000107ab82cb!8m2!3d28.6489319!4d77.2323897!16s%2Fg%2F11gchs9zp4!19sChIJaY9ZjBj9DDkRy4KrBwEAQlk?authuser=0&hl=en&rclk=1,"28.648931899999997,77.2323897"
Mosque msjd,Mosque,"Mosque msjd, 3696, Mori Gate, New Delhi, Delhi 110006",Mori Gate,3696,"New Delhi, Delhi",110006,Delhi,IN,https://www.google.com/maps/place/Mosque+%D9%85%D8%B3%D8%AC%D8%AF%E2%80%AD/data=!4m7!3m6!1s0x390cfd0c79fa6f11:0x326ac233054d2efa!8m2!3d28.6635017!4d77.2212005!16s%2Fg%2F12lkq2186!19sChIJEW_6eQz9DDkR-i5NBTPCajI?authuser=0&hl=en&rclk=1,"28.663501699999998,77.2212005"
Masjid Sanauji,Mosque,"Masjid Sanauji, Shop No. 1630, Lal Kuan, Lalkuan Bazar Rd, Baradari, Chandni Chowk, New Delhi, Delhi 110006","Bazar Sirkiwalan, Baradari, Chandni Chowk","Shop No. 1630, Lal Kuan, Lalkuan Bazar Rd","New Delhi, Delhi",110006,Delhi,IN,https://www.google.com/maps/place/Masjid+Sanauji/data=!4m7!3m6!1s0x390cfd13fe3ea72d:0x27ea23bc5f650202!8m2!3d28.6529317!4d77.2232485!16s%2Fg%2F12hplq4pp!19sChIJLac-_hP9DDkRAgJlX7wj6ic?authuser=0&hl=en&rclk=1,"28.6529317,77.2232485"
Jama Masjid,Mosque,"Q26G+6V8 Jama Masjid, Basaimeo, Haryana 122104",,Q26G+6V8,Basaimeo,122104,Haryana,IN,https://www.google.com/maps/place/Jama+Masjid/data=!4m7!3m6!1s0x3972ddf99b4c92ff:0x95f83d239c427b57!8m2!3d27.76053!4d77.0271934!16s%2Fg%2F11gvzksz51!19sChIJ_5JMm_ndcjkRV3tCnCM9-JU?authuser=0&hl=en&rclk=1,"27.76053,77.0271934"
Anarwali Masjid msjd nr wly,Mosque,"Anarwali Masjid msjd nr wly, hno.230/ mandavali, 3, Mandawali Main Road, Fazalpur, Railway Colony, Mandawali, Delhi, 110092","Railway Colony, Mandawali","hno.230/ mandavali, 3, Mandawali Main Road, Fazalpur, Railway Colony, Mandawali",Delhi,110092,Delhi,IN,https://www.google.com/maps/place/Anarwali+Masjid+%D9%85%D8%B3%D8%AC%D8%AF+%D8%A7%D9%86%D8%A7%D8%B1+%D9%88%D8%A7%D9%84%DB%8C%E2%80%AD/data=!4m7!3m6!1s0x390ce4aceaaaaaab:0xf35cfc3b5a9a894a!8m2!3d28.6291881!4d77.2936695!16s%2Fg%2F11cmfdyfyg!19sChIJq6qq6qzkDDkRSomaWjv8XPM?authuser=0&hl=en&rclk=1,"28.6291881,77.2936695"
Masjid Mehendiyan msjd mhndyn,Mosque,"J6MP+QX3 Masjid Mehendiyan msjd mhndyn, Qabrastan Mehendiyan, Mirdard Road, Delh, Gandhi Market Area, Barakhamba, New Delhi, Delhi 110002","Maulana Azad Medical College Campus, Gandhi Market Area, Barakhamba","J6MP+QX3, Qabrastan Mehendiyan, Mirdard Road, Delh","New Delhi, Delhi",110002,Delhi,IN,https://www.google.com/maps/place/Masjid+Mehendiyan+%D9%85%D8%B3%D8%AC%D8%AF+%D9%85%DB%81%D9%86%D8%AF%DB%8C%D8%A7%D9%86%E2%80%AD/data=!4m7!3m6!1s0x390cfd28f90517f3:0xd21a0ff0de2e7447!8m2!3d28.6343771!4d77.2374252!16s%2Fg%2F11d_9hcbf5!19sChIJ8xcF-Sj9DDkRR3Qu3vAPGtI?authuser=0&hl=en&rclk=1,"28.6343771,77.23742519999999"
Baghwali Masjid msjd bG wly,Mosque,"Baghwali Masjid msjd bG wly, 785, Nicholson Rd, Kashmere Gate, New Delhi, Delhi 110006","Ganda Nala Bazar, Kashmere Gate","785, Nicholson Rd","New Delhi, Delhi",110006,Delhi,IN,https://www.google.com/maps/place/Baghwali+Masjid+%D9%85%D8%B3%D8%AC%D8%AF+%D8%A8%D8%A7%D8%BA+%D9%88%D8%A7%D9%84%DB%8C%E2%80%AD/data=!4m7!3m6!1s0x390cfd092767785b:0xd4966cf4d21cbda8!8m2!3d28.6653187!4d77.2261277!16s%2Fg%2F12llwbr4n!19sChIJW3hnJwn9DDkRqL0c0vRsltQ?authuser=0&hl=en&rclk=1,"28.6653187,77.22612769999999"
Madina Jama Masjid,Mosque,"676c, Madina Jama Masjid, 8, Block I 2, Sangam Vihar, New Delhi, Delhi 110080","Block I 2, Sangam Vihar","676c, 8",New Delhi,110080,Delhi,IN,https://www.google.com/maps/place/Madina+Jama+Masjid/data=!4m7!3m6!1s0x390ce104a44daa37:0x8eaf6a12eb6ffa1a!8m2!3d28.4951062!4d77.2511003!16s%2Fg%2F11btrr6t9y!19sChIJN6pNpAThDDkRGvpv6xJqr44?authuser=0&hl=en&rclk=1,"28.4951062,77.25110029999999"
Masjid,Mosque,"H77Q+868 Masjid, Okhla Village, Okhla, New Delhi, Delhi 110025","Okhla Village, Okhla",H77Q+868,New Delhi,110025,Delhi,IN,https://www.google.com/maps/place/Masjid/data=!4m7!3m6!1s0x390ce47512f7aa2b:0x544337a9b9e5d7a2!8m2!3d28.5632814!4d77.2880932!16s%2Fg%2F11gbtpj5td!19sChIJK6r3EnXkDDkRotfluak3Q1Q?authuser=0&hl=en&rclk=1,"28.563281399999997,77.28809319999999"
Fatemi Masjid,Mosque,"Fatemi Masjid, 3673, Main Bazar, Sabzi Mandi Rd, New Delhi, Delhi 110007","Arya Pura, Sabzi Mandi Old","3673, Main Bazar, Sabzi Mandi Rd","New Delhi, Delhi",110007,Delhi,IN,https://www.google.com/maps/place/Fatemi+Masjid/data=!4m7!3m6!1s0x390cfd77d6b49cc1:0xb29abba5fdd4f679!8m2!3d28.669022!4d77.2078086!16s%2Fg%2F12lksysp9!19sChIJwZy01nf9DDkRefbU_aW7mrI?authuser=0&hl=en&rclk=1,"28.669022,77.20780859999999"
Natham masjid,Mosque,"Natham masjid, Natham, Tamil Nadu 609118",,,Natham,609118,Tamil Nadu,IN,https://www.google.com/maps/place/Natham+masjid/data=!4m7!3m6!1s0x3a5521b00b2534a9:0x331cb3f51b060381!8m2!3d11.1373125!4d79.6943125!16s%2Fg%2F11h81m3gzv!19sChIJqTQlC7AhVToRgQMGG_WzHDM?authuser=0&hl=en&rclk=1,"11.1373125,79.6943125"
Masjid namra,Mosque,"P76H+J76 Masjid namra, Gali Number 8, Phase 1, Bhagirathi Vihar, Gokalpur, Delhi, 110094","Phase 1, Bhagirathi Vihar, Gokalpur","P76H+J76, Gali Number 8",Delhi,110094,Delhi,IN,https://www.google.com/maps/place/Masjid+namra/data=!4m7!3m6!1s0x390cfdc46dc585df:0x9ce1c441e96c1482!8m2!3d28.711527!4d77.278134!16s%2Fg%2F11j7mtbxcy!19sChIJ34XFbcT9DDkRghRs6UHE4Zw?authuser=0&hl=en&rclk=1,"28.711527,77.278134"
Jama Masjid,Mosque,"5W8X+G5F Jama Masjid, Mashit, Thana Alam Alias Masit, Haryana 122015",,5W8X+G5F,"Mashit, Thana Alam Alias Masit",122015,Haryana,IN,https://www.google.com/maps/place/Jama+Masjid/data=!4m7!3m6!1s0x390d3113e5827119:0x5f28dd1ffbe55675!8m2!3d28.1663167!4d76.947924!16s%2Fg%2F11cs01mlx9!19sChIJGXGC5RMxDTkRdVbl-x_dKF8?authuser=0&hl=en&rclk=1,"28.1663167,76.947924"
Baadiyan masjid,Mosque,"4534+CHF Baadiyan masjid, Kotana, Uttar Pradesh 250611",,4534+CHF,Kotana,,Uttar Pradesh,IN,https://www.google.com/maps/place/Baadiyan+masjid/data=!4m7!3m6!1s0x390db5c3fa2ecab5:0x8e9a571c00c2441b!8m2!3d29.1035625!4d77.1564219!16s%2Fg%2F11h_ytl9s_!19sChIJtcou-sO1DTkRG0TCABxXmo4?authuser=0&hl=en&rclk=1,"29.1035625,77.1564219"
Mr.SAHEEM MALIK,Mosque,"Mr.SAHEEM MALIK, Gali no. 3 - Tirpal Factory Mustafabad, near Ayisha masjid, 25 Futa Rd, near by Aisha Masjid, chowk, Delhi 110094","Shakti Vihar, Old Mustafabad, chowk","Gali no. 3 - Tirpal Factory Mustafabad, near Ayisha masjid, 25 Futa Rd, near by Aisha Masjid",Delhi,110094,Delhi,IN,https://www.google.com/maps/place/Mr.SAHEEM+MALIK/data=!4m7!3m6!1s0x390cfd9a44cd4997:0xffdc8860c53e3f2b!8m2!3d28.7159667!4d77.272238!16s%2Fg%2F11h3cwgc8y!19sChIJl0nNRJr9DDkRKz8-xWCI3P8?authuser=0&hl=en&rclk=1,"28.7159667,77.272238"
Jama Madjid,Mosque,"Jama Madjid, khuwaja park Illaichipur, Trans Delhi Signature City, Ghaziabad, Uttar Pradesh 201102",Trans Delhi Signature City,khuwaja park Illaichipur,Ghaziabad,201102,Uttar Pradesh,IN,https://www.google.com/maps/place/Jama+Madjid/data=!4m7!3m6!1s0x390cffd519959253:0x75d57b5584aaf66f!8m2!3d28.764901!4d77.256208!16s%2Fg%2F11g2_3w7fd!19sChIJU5KVGdX_DDkRb_aqhFV71XU?authuser=0&hl=en&rclk=1,"28.764901,77.256208"
Ijaba Masjid,Mosque,"Ijaba Masjid, 1489/16, Block D, Chand Vihar, New Mustafabad, Delhi, 110094","Block D, Chand Vihar, New Mustafabad",1489/16,Delhi,110094,Delhi,IN,https://www.google.com/maps/place/Ijaba+Masjid/data=!4m7!3m6!1s0x390cfd4112cff819:0x124578cf76e8540b!8m2!3d28.7086594!4d77.2713446!16s%2Fg%2F11j08711wr!19sChIJGfjPEkH9DDkRC1Tods94RRI?authuser=0&hl=en&rclk=1,"28.7086594,77.27134459999999"
Masjid,Mosque,"Q7JJ+7WC Masjid, Pavi Sadakpur, Uttar Pradesh 201102",,Q7JJ+7WC,Pavi Sadakpur,201102,Uttar Pradesh,IN,https://www.google.com/maps/place/Masjid/data=!4m7!3m6!1s0x390cff3247b3c4d7:0xf1b7407f946dd8cc!8m2!3d28.7806806!4d77.2822504!16s%2Fg%2F11ggz8tfhy!19sChIJ18SzRzL_DDkRzNhtlH9At_E?authuser=0&hl=en&rclk=1,"28.7806806,77.2822504"
Hajra Masjid,Mosque,"M7MC+542 Hajra Masjid, Street Number 10, New Seelampur, Chauhan Banger, Shahdara, Delhi, 110031","New Seelampur, Chauhan Banger, Shahdara","M7MC+542, Street Number 10",Delhi,110031,Delhi,IN,https://www.google.com/maps/place/Hajra+Masjid/data=!4m7!3m6!1s0x390cfdcdb2279f75:0x7d20aba66d6d5ac9!8m2!3d28.6828822!4d77.2702585!16s%2Fg%2F11n8p4lf1b!19sChIJdZ8nss39DDkRyVptbaarIH0?authuser=0&hl=en&rclk=1,"28.682882199999998,77.2702585"
Masjid Hamam Wali,Mosque,"Masjid Hamam Wali, 6470, Katra Bariyan, Fatehpuri, Chandni Chowk, New Delhi, Delhi, 110006","Fatehpuri, Chandni Chowk","6470, Katra Bariyan","New Delhi, Delhi",110006,Delhi,IN,https://www.google.com/maps/place/Masjid+Hamam+Wali/data=!4m7!3m6!1s0x390cfd12316f31ef:0x174a76ac455f8b5!8m2!3d28.655784!4d77.222307!16s%2Fg%2F12hqwxj4v!19sChIJ7zFvMRL9DDkRtfhVxGqndAE?authuser=0&hl=en&rclk=1,"28.655783999999997,77.222307"
Madina Masjid,Mosque,"C6JH+WX7 Madina Masjid, Sanjay Colony, Bhatti Kalan, New Delhi, Delhi 110074","Sanjay Colony, Bhatti Kalan",C6JH+WX7,New Delhi,110074,Delhi,IN,https://www.google.com/maps/place/Madina+Masjid/data=!4m7!3m6!1s0x390cdfe6a4296667:0x55ca1032eb54d74!8m2!3d28.4322987!4d77.2299221!16s%2Fg%2F11fhr0mqv2!19sChIJZ2YppObfDDkRdE21LgOhXAU?authuser=0&hl=en&rclk=1,"28.4322987,77.2299221"
Masjid Rehmat Fatima,Mosque,"Masjid Rehmat Fatima, P-5 107, Block P, Mangolpuri, New Delhi, Delhi, 110083","Block P, Mangolpuri",P-5 107,"New Delhi, Delhi",110083,Delhi,IN,https://www.google.com/maps/place/Masjid+Rehmat+Fatima/data=!4m7!3m6!1s0x390d05175b007503:0x14c9a28868daa616!8m2!3d28.6913641!4d77.0876265!16s%2Fg%2F11p5_0gr0l!19sChIJA3UAWxcFDTkRFqbaaIiiyRQ?authuser=0&hl=en&rclk=1,"28.691364099999998,77.0876265"
Sunni Jama Masjid,Mosque,"338M+VMF Sunni Jama Masjid, Gundbas, Haryana 122107",,338M+VMF,Gundbas,122107,Haryana,IN,https://www.google.com/maps/place/Sunni+Jama+Masjid/data=!4m7!3m6!1s0x390d2d6b83a1c535:0x1e2f6bbb827764b1!8m2!3d28.0671939!4d77.0841839!16s%2Fg%2F11gmyt_r28!19sChIJNcWhg2stDTkRsWR3grtrLx4?authuser=0&hl=en&rclk=1,"28.0671939,77.0841839"
NOORANI MUSTAFA SUNNI JAMA MASJID,Mosque,"NOORANI MUSTAFA SUNNI JAMA MASJID, ward no.47 block no.4 ashok vihar loni Dehat, Ghaziabad, Uttar Pradesh 201102",Loni Dehat,ward no.47 block no.4 ashok vihar loni Dehat,Ghaziabad,201102,Uttar Pradesh,IN,https://www.google.com/maps/place/NOORANI+MUSTAFA+SUNNI+JAMA+MASJID/data=!4m7!3m6!1s0x390cff7d1ab58abf:0x2f802dd791b65916!8m2!3d28.7588355!4d77.2859301!16s%2Fg%2F11fkkzpwp9!19sChIJv4q1Gn3_DDkRFlm2kdctgC8?authuser=0&hl=en&rclk=1,"28.7588355,77.2859301"
Masjid Chah hathi,Mosque,"M63M+FM7 Masjid Chah hathi, Kucha Bulaki Begam, Chandni Chowk, New Delhi, Delhi, 110006","Kucha Bulaki Begam, Chandni Chowk",M63M+FM7,"New Delhi, Delhi",110006,Delhi,IN,https://www.google.com/maps/place/Masjid+Chah+hathi/data=!4m7!3m6!1s0x390cfd21be28681f:0x89414e118639a027!8m2!3d28.6536676!4d77.2341741!16s%2Fg%2F11g5ssbglz!19sChIJH2goviH9DDkRJ6A5hhFOQYk?authuser=0&hl=en&rclk=1,"28.6536676,77.23417409999999"
HADHRAT UMAR MASJID ALMAROOF CHOTI MASJID,Mosque,"HADHRAT UMAR MASJID ALMAROOF CHOTI MASJID, Chotti Masjid, Street number 9, Mulla Colony, Gharoli Extension, Gharoli, Delhi, 110096","Mulla Colony, Gharoli Extension, Gharoli","Chotti Masjid, Street number 9",Delhi,110096,Delhi,IN,https://www.google.com/maps/place/HADHRAT+UMAR+MASJID+ALMAROOF+CHOTI+MASJID/data=!4m7!3m6!1s0x390ce5c6cf830b2f:0x6bb8084dadf0d513!8m2!3d28.6213398!4d77.3314246!16s%2Fg%2F11sy4vfb7s!19sChIJLwuDz8blDDkRE9XwrU0IuGs?authuser=0&hl=en&rclk=1,"28.621339799999998,77.33142459999999"
Madrsa imdadul uloom and masjid,Mosque,"Madrsa imdadul uloom and masjid, B-25, Main Rd, East Laxmi Market, Block B, New Brij Puri, Krishna Nagar, New Delhi, Delhi, 110051","East Laxmi Market, Block B, New Brij Puri, Krishna Nagar","B-25, Main Rd","New Delhi, Delhi",110051,Delhi,IN,https://www.google.com/maps/place/Madrsa+imdadul+uloom+and+masjid/data=!4m7!3m6!1s0x390cfda04739d0e9:0xeb893cdafc532844!8m2!3d28.6436744!4d77.2825759!16s%2Fg%2F11mw5vzf9q!19sChIJ6dA5R6D9DDkRRChT_No8ies?authuser=0&hl=en&rclk=1,"28.6436744,77.2825759"
Masjid,Mosque,"Masjid, 242, Masjid Jheel Pio, Near ITO metro GateNo.3, Bahadur Shah Zafar Marg, Balmiki Basti, Vikram Nagar, Delhi, 110002","Bahadur Shah Zafar Marg, Balmiki Basti, Vikram Nagar","242, Masjid Jheel Pio, Near ITO metro GateNo.3, Bahadur Shah Zafar Marg",Delhi,110002,Delhi,IN,https://www.google.com/maps/place/Masjid/data=!4m7!3m6!1s0x390cfd441769149d:0xa1929f1b4f5921d6!8m2!3d28.6298914!4d77.2415098!16s%2Fg%2F11s2n38r9b!19sChIJnRRpF0T9DDkR1iFZTxufkqE?authuser=0&hl=en&rclk=1,"28.629891399999998,77.2415098"
Madina Masjid Shahbas,Mosque,"339M+3JX Madina Masjid Shahbas, Gundbas, Haryana 122107",,339M+3JX,Gundbas,122107,Haryana,IN,https://www.google.com/maps/place/Madina+Masjid+Shahbas/data=!4m7!3m6!1s0x390d2de8d6aa5bcd:0xa7c513dc3d4781a7!8m2!3d28.0677341!4d77.0840975!16s%2Fg%2F11gr5_wlyy!19sChIJzVuq1ugtDTkRp4FHPdwTxac?authuser=0&hl=en&rclk=1,"28.0677341,77.0840975"
Masjid,Mosque,"Masjid, Generator section LNH, Maulana Azad Medical College Campus, LNJP Colony, New Delhi, Delhi, 110002","Maulana Azad Medical College Campus, LNJP Colony",Generator section LNH,"New Delhi, Delhi",110002,Delhi,IN,https://www.google.com/maps/place/Masjid/data=!4m7!3m6!1s0x390cfda80d3a142f:0x7e63ba6e21dc1e97!8m2!3d28.6378466!4d77.2379581!16s%2Fg%2F11ss881009!19sChIJLxQ6Daj9DDkRlx7cIW66Y34?authuser=0&hl=en&rclk=1,"28.6378466,77.2379581"
Jama masjid Kot jaamaa msjid kott jm` msjd khwtt,Mosque,"X65H+GFX Jama masjid Kot jaamaa msjid kott jm` msjd khwtt, Kot, Haryana 121103",,X65H+GFX,Kot,121103,Haryana,IN,https://www.google.com/maps/place/Jama+masjid+Kot+%E0%A4%9C%E0%A4%BE%E0%A4%AE%E0%A4%BE+%E0%A4%AE%E0%A4%B8%E0%A5%8D%E0%A4%9C%E0%A4%BF%E0%A4%A6+%E0%A4%95%E0%A5%8B%E0%A4%9F+%D8%AC%D8%A7%D9%85%D8%B9+%D9%85%D8%B3%D8%AC%D8%AF+%DA%A9%D9%88%D9%B9%E2%80%AD/data=!4m7!3m6!1s0x397329899757ad49:0x233251c5ca6471f5!8m2!3d27.9588543!4d77.2287234!16s%2Fg%2F11t9_7n4m7!19sChIJSa1Xl4kpczkR9XFkysVRMiM?authuser=0&hl=en&rclk=1,"27.9588543,77.22872339999999"
Masjid Amania,Mosque,"Masjid Amania, Main, Maujpur Rd, Shahdara, Delhi, 110053",Shahdara,"Main, Maujpur Rd",Delhi,110053,Delhi,IN,https://www.google.com/maps/place/Masjid+Amania/data=!4m7!3m6!1s0x390cfd4212229ecb:0x56b4673279cdc3f1!8m2!3d28.6855897!4d77.2762341!16s%2Fg%2F11s0s2pf6g!19sChIJy54iEkL9DDkR8cPNeTJntFY?authuser=0&hl=en&rclk=1,"28.685589699999998,77.2762341"
Munwara Masjid,Mosque,"Munwara Masjid, E-130, Gali No.6, Third Pusta Main Rd, Jagjeet Nagar, Delhi, 110053","Third Pushta, Nayagaon, Jagjeet Nagar, Shahdara","E-130, Gali No.6, Third Pusta Main Rd",Delhi,110053,Delhi,IN,https://www.google.com/maps/place/Munwara+Masjid/data=!4m7!3m6!1s0x390cfc44ec3cee7b:0x6817d8194e44c0a7!8m2!3d28.6861966!4d77.2559837!16s%2Fg%2F12hq6qdwg!19sChIJe-487ET8DDkRp8BEThnYF2g?authuser=0&hl=en&rclk=1,"28.6861966,77.2559837"
Mahond Masjid,Mosque,"VP6M+25G Mahond Masjid, Nagaliya, Rajasthan 301405",,VP6M+25G,Nagaliya,301405,Rajasthan,IN,https://www.google.com/maps/place/Mahond+Masjid/data=!4m7!3m6!1s0x3972b15c8545c399:0x5da255ab4632c6b7!8m2!3d27.8600744!4d76.7329383!16s%2Fg%2F11ny1yfpnb!19sChIJmcNFhVyxcjkRt8YyRqtVol0?authuser=0&hl=en&rclk=1,"27.8600744,76.7329383"
Masjid,Mosque,"RX4J+M39 Masjid, Rajoli, Sulela, Haryana 122104",,RX4J+M39,"Rajoli, Sulela",122104,Haryana,IN,https://www.google.com/maps/place/Masjid/data=!4m7!3m6!1s0x3972c534275ef4ab:0xdc27d3a7ace97738!8m2!3d27.8066544!4d76.9802205!16s%2Fg%2F11j3xmhg73!19sChIJq_ReJzTFcjkROHfprKfTJ9w?authuser=0&hl=en&rclk=1,"27.8066544,76.9802205"
meeltteru pllllivaacl,Mosque,"66FJ+84J meeltteru pllllivaacl, Meenachipuram, Natham, Tamil Nadu 624401",Meenachipuram,66FJ+84J,Natham,624401,Tamil Nadu,IN,https://www.google.com/maps/place/%E0%AE%AE%E0%AF%87%E0%AE%B2%E0%AE%A4%E0%AF%8D%E0%AE%A4%E0%AF%86%E0%AE%B0%E0%AF%81+%E0%AE%AA%E0%AE%B3%E0%AF%8D%E0%AE%B3%E0%AE%BF%E0%AE%B5%E0%AE%BE%E0%AE%9A%E0%AE%B2%E0%AF%8D/data=!4m7!3m6!1s0x3b00bd3947691069:0x40e863f4d9b6163!8m2!3d10.223326!4d78.2302576!16s%2Fg%2F11k66hnvql!19sChIJaRBpRzm9ADsRY2GbTT-GDgQ?authuser=0&hl=en&rclk=1,"10.223326,78.2302576"
MDINA MASJID THALCHANA,Mosque,"Q45Q+478 MDINA MASJID THALCHANA, Thalchana, Rajasthan 321023",,Q45Q+478,Thalchana,321023,Rajasthan,IN,https://www.google.com/maps/place/MDINA+MASJID+THALCHANA/data=!4m7!3m6!1s0x3972df6cc26dff81:0x54d76fde5d6ad6bf!8m2!3d27.757791!4d77.1382046!16s%2Fg%2F11sr7pfjlp!19sChIJgf9twmzfcjkRv9ZqXd5v11Q?authuser=0&hl=en&rclk=1,"27.757790999999997,77.1382046"
Unth (camel) wali masjid,Mosque,"4XFH+6C8 Unth (camel) wali masjid, Nuh, Haryana 122107",,4XFH+6C8,Nuh,,Haryana,IN,https://www.google.com/maps/place/Unth+%28camel%29+wali+masjid/data=!4m7!3m6!1s0x390d33bff78e5121:0x548a9ec1d503e!8m2!3d28.1230283!4d76.9785797!16s%2Fg%2F11spwfq00j!19sChIJIVGO978zDTkRPlAd7KlIBQA?authuser=0&hl=en&rclk=1,"28.123028299999998,76.9785797"
Musalla Masjid,Mosque,"Musalla Masjid, A84, Gali Number 19, Block B, Bharat Vihar, Madhu Vihar, New Delhi, Delhi, 110059","Block B, Bharat Vihar, Madhu Vihar","A84, Gali Number 19","New Delhi, Delhi",110059,Delhi,IN,https://www.google.com/maps/place/Musalla+Masjid/data=!4m7!3m6!1s0x390d1b5228eab2b5:0x4c225624c80dfd40!8m2!3d28.6062216!4d77.0614438!16s%2Fg%2F11t6nng3_f!19sChIJtbLqKFIbDTkRQP0NyCRWIkw?authuser=0&hl=en&rclk=1,"28.606221599999998,77.06144379999999"
MASJID,Mosque,"W28M+37Q MASJID, Pahat Bass Rd, Haryana 122108",,"W28M+37Q, Pahat Bass Rd",,122108,Haryana,IN,https://www.google.com/maps/place/MASJID/data=!4m7!3m6!1s0x3972d1afbf147dc1:0x2af389fa897c4c22!8m2!3d27.915205!4d77.033236!16s%2Fg%2F11rxjhmnyz!19sChIJwX0Uv6_RcjkRIkx8ifqJ8yo?authuser=0&hl=en&rclk=1,"27.915205,77.033236"
Masjid Shatoot Wali,Mosque,"M67H+G5Q Masjid Shatoot Wali, Chhota Bazar, Mori Gate, New Delhi, Delhi, 110006","Chhota Bazar, Mori Gate",M67H+G5Q,"New Delhi, Delhi",110006,Delhi,IN,https://www.google.com/maps/place/Masjid+Shatoot+Wali/data=!4m7!3m6!1s0x390cfdd8114d08fd:0x326042596014276a!8m2!3d28.663827!4d77.2279973!16s%2Fg%2F11g4h_zjtj!19sChIJ_QhNEdj9DDkRaicUYFlCYDI?authuser=0&hl=en&rclk=1,"28.663826999999998,77.2279973"
Masjid,Mosque,"Masjid, 8/2, Budh Bazar, Block L 1, Devli, Sangam Vihar, New Delhi, Delhi 110062","Budh Bazar, Block L 1, Devli, Sangam Vihar",8/2,New Delhi,110062,Delhi,IN,https://www.google.com/maps/place/Masjid/data=!4m7!3m6!1s0x390ce1dde82b3bc3:0x4d3537cacd38aec4!8m2!3d28.4940769!4d77.2261653!16s%2Fg%2F11rk33_10p!19sChIJwzsr6N3hDDkRxK44zco3NU0?authuser=0&hl=en&rclk=1,"28.4940769,77.22616529999999"
Zama Masjid Batnor,Mosque,"5QCW+5RC Zama Masjid Batnor, Batnor, Uttar Pradesh 250222",,5QCW+5RC,Batnor,250222,Uttar Pradesh,IN,https://www.google.com/maps/place/Zama+Masjid+Batnor/data=!4m7!3m6!1s0x390c73628434a437:0x353420d4abe27bde!8m2!3d29.170427!4d77.797118!16s%2Fg%2F11qh1bw_c3!19sChIJN6Q0hGJzDDkR3nviq9QgNDU?authuser=0&hl=en&rclk=1,"29.170427,77.797118"
Masjid Kaddan Wali,Mosque,"Masjid Kaddan Wali, 3800,, Charkhiwalan Gali, Khush Dil, Chandni Chowk, New Delhi, Delhi 110006","Khush Dil, Chandni Chowk","3800,, Charkhiwalan Gali","New Delhi, Delhi",110006,Delhi,IN,https://www.google.com/maps/place/Masjid+Kaddan+Wali/data=!4m7!3m6!1s0x390cfd19d610452b:0xf81efc1a357adee8!8m2!3d28.6506731!4d77.2290561!16s%2Fg%2F12hkbxr_7!19sChIJK0UQ1hn9DDkR6N56NRr8Hvg?authuser=0&hl=en&rclk=1,"28.6506731,77.2290561"
JAMA MASJID NATHOOTHALA,Mosque,"9F7W+HQ7 JAMA MASJID NATHOOTHALA, Nathoothala, Rajasthan 305207",,9F7W+HQ7,Nathoothala,,Rajasthan,IN,https://www.google.com/maps/place/JAMA+MASJID+NATHOOTHALA/data=!4m7!3m6!1s0x396bd99e569ca927:0xa15cd0c156895f9!8m2!3d26.3639015!4d74.4969224!16s%2Fg%2F11gydkp4dm!19sChIJJ6mcVp7ZazkR-ZVoFQzNFQo?authuser=0&hl=en&rclk=1,"26.363901499999997,74.4969224"
Masjid thaan (msjd thn),Mosque,"HCFR+79 Masjid thaan (msjd thn), Mahara, 185212",,HCFR+79,Mahara,,,IN,https://www.google.com/maps/place/Masjid+thaan+%28%D9%85%D8%B3%D8%AC%D8%AF+%D8%AA%DB%81%D9%86%29%E2%80%AD/data=!4m7!3m6!1s0x38e1d95fb60c11b9:0xeb487fff76a0d78!8m2!3d33.573159!4d74.4409474!16s%2Fg%2F11t6j9kt1w!19sChIJuREMtl_Z4TgReA1q9_-HtA4?authuser=0&hl=en&rclk=1,"33.573159,74.4409474"
Namaz,Mosque,"Namaz, 16/679, Mata Rameshwari Nehru Nagar, Karol Bagh, New Delhi, Delhi, 110005","Mata Rameshwari Nehru Nagar, Karol Bagh",16/679,"New Delhi, Delhi",110005,Delhi,IN,https://www.google.com/maps/place/Namaz/data=!4m7!3m6!1s0x390d03ea4497e52f:0x3e00e878bc51ad38!8m2!3d28.650615!4d77.1802944!16s%2Fg%2F11s640lyz2!19sChIJL-WXROoDDTkROK1RvHjoAD4?authuser=0&hl=en&rclk=1,"28.650615,77.1802944"
JAMA MASJID jm` msjd,Mosque,"JAMA MASJID jm` msjd, JAMIA TUL ABRAR, AL ISLAMIA, Madanpur Khadar Phase 3, Madanpur Khadar, New Delhi, Delhi 110076","Madanpur Khadar Phase 3, Madanpur Khadar","JAMIA TUL ABRAR, AL ISLAMIA",New Delhi,110076,Delhi,IN,https://www.google.com/maps/place/JAMA+MASJID+%D8%AC%D8%A7%D9%85%D8%B9+%D9%85%D8%B3%D8%AC%D8%AF%E2%80%AD/data=!4m7!3m6!1s0x390ce7a4c5ffc659:0x83d8ecc557f86b97!8m2!3d28.5270399!4d77.3257331!16s%2Fg%2F11krrd17t2!19sChIJWcb_xaTnDDkRl2v4V8Xs2IM?authuser=0&hl=en&rclk=1,"28.5270399,77.3257331"
Maann Masjid,Mosque,"Maann Masjid, 351, Shahzada Bagh, Phase 1, Shivaji Nagar, Inderlok, Delhi, 110035","Shahzada Bagh, Phase 1, Shivaji Nagar, Inderlok",351,Delhi,110035,Delhi,IN,https://www.google.com/maps/place/Maann+Masjid/data=!4m7!3m6!1s0x390d03624b23ed19:0x5fd68d5b45b206f9!8m2!3d28.6706058!4d77.168636!16s%2Fg%2F11ssxng_ck!19sChIJGe0jS2IDDTkR-QayRVuN1l8?authuser=0&hl=en&rclk=1,"28.670605799999997,77.16863599999999"
Masjid Mohanmad Deen,Mosque,"867C+Q5 Masjid Mohanmad Deen, Tikri Khera, Haryana 121004",,867C+Q5,Tikri Khera,,Haryana,IN,https://www.google.com/maps/place/Masjid+Mohanmad+Deen/data=!4m7!3m6!1s0x390cd9447b7b4bc3:0xfa0fa8e9f4792f65!8m2!3d28.314438!4d77.220447!16s%2Fg%2F11srrhgjrz!19sChIJw0t7e0TZDDkRZS959OmoD_o?authuser=0&hl=en&rclk=1,"28.314438,77.220447"
Masjid,Mosque,"M794+RG5 Masjid, Block A, Shastri Park, Shahdara, Delhi, 110053","Block A, Shastri Park, Shahdara",M794+RG5,Delhi,,Delhi,IN,https://www.google.com/maps/place/Masjid/data=!4m7!3m6!1s0x390cfd74b6378221:0x2da5c9212f831088!8m2!3d28.6695164!4d77.2563643!16s%2Fg%2F11tb42z9g0!19sChIJIYI3tnT9DDkRiBCDLyHJpS0?authuser=0&hl=en&rclk=1,"28.6695164,77.2563643"
Masjid,Mosque,"Shop No: 5035, Masjid, Netaji Subhash Marg, Daryaganj, New Delhi, Delhi, 110002",Daryaganj,"Shop No: 5035, Netaji Subhash Marg","New Delhi, Delhi",110002,Delhi,IN,https://www.google.com/maps/place/Masjid/data=!4m7!3m6!1s0x390cfdf175041b95:0x8ef57a2bc9f92c1c!8m2!3d28.6480954!4d77.2403964!16s%2Fg%2F11s664lvxh!19sChIJlRsEdfH9DDkRHCz5ySt69Y4?authuser=0&hl=en&rclk=1,"28.6480954,77.2403964"
Masjid,Mosque,"22V8+G6F Masjid, Malab, Haryana 122107",,22V8+G6F,Malab,122107,Haryana,IN,https://www.google.com/maps/place/Masjid/data=!4m7!3m6!1s0x3972d31cb89fa00b:0xb71b0488d8838ecb!8m2!3d28.0438171!4d77.0155502!16s%2Fg%2F11hnl6823s!19sChIJC6CfuBzTcjkRy46D2IgEG7c?authuser=0&hl=en&rclk=1,"28.0438171,77.01555019999999"
Masjid e Khatiman Nabiyeen,Mosque,"JRHR+JF6 Masjid e Khatiman Nabiyeen, Forest Block, 192233",,JRHR+JF6,Forest Block,,,IN,https://www.google.com/maps/place/Masjid+e+Khatiman+Nabiyeen/data=!4m7!3m6!1s0x38e1fd9a0e5587d7:0xefb54f0e80ccbc82!8m2!3d33.6290472!4d74.8411358!16s%2Fg%2F11smtwt903!19sChIJ14dVDpr94TgRgrzMgA5Pte8?authuser=0&hl=en&rclk=1,"33.629047199999995,74.8411358"
