name,main_category,address,address_ward,address_street,address_city,address_postal_code,address_state,address_country_code,link,coordinates
Masjid-e-jafaria,Mosque,"Masjid-e-jafaria, No. 01, 9th, Jafariya Street Gauribidanur, tq, Alipura, Karnataka 561213",,"No. 01, 9th, Jafariya Street Gauribidanur, tq",Alipura,561213,Karnataka,IN,https://www.google.com/maps/place/Masjid-e-jafaria/data=!4m7!3m6!1s0x3bb1c542a9dd373f:0xe58a85c020b9d8e2!8m2!3d13.484995!4d77.4580967!16s%2Fg%2F11f0l0qsj8!19sChIJPzfdqULFsTsR4ti5IMCFiuU?authuser=0&hl=en&rclk=1,"13.484995,77.4580967"
Ali pur Masjid Andar Wali msjd `ly pwr dhly,Mosque,"Ali pur Masjid Andar Wali msjd `ly pwr dhly, Alipur Village, Delhi, 110036",Alipur Village,,Delhi,110036,Delhi,IN,https://www.google.com/maps/place/Ali+pur+Masjid+Andar+Wali+%D9%85%D8%B3%D8%AC%D8%AF+%D8%B9%D9%84%DB%8C+%D9%BE%D9%88%D8%B1+%D8%AF%DB%81%D9%84%DB%8C%E2%80%AD/data=!4m7!3m6!1s0x390d009d9442c2e9:0x25e97506648577a6!8m2!3d28.7971798!4d77.1326578!16s%2Fg%2F11hc2_2pw_!19sChIJ6cJClJ0ADTkRpneFZAZ16SU?authuser=0&hl=en&rclk=1,"28.7971798,77.13265779999999"
Ayma Colony Masjid klni maasjid,Mosque,"Ayma Colony Masjid klni maasjid, Alipur, Ayma Colony, Shyampur, West Bengal 711315",Ayma Colony,Alipur,"Shyampur, Alipur",711315,West Bengal,IN,https://www.google.com/maps/place/Ayma+Colony+Masjid+%E0%A6%95%E0%A6%B2%E0%A6%A8%E0%A6%BF+%E0%A6%AE%E0%A6%BE%E0%A6%B8%E0%A6%9C%E0%A6%BF%E0%A6%A6/data=!4m7!3m6!1s0x3a028c6e7247c173:0x1270591bdbc8b927!8m2!3d22.2921282!4d88.0788108!16s%2Fg%2F11gfhqlkc_!19sChIJc8FHcm6MAjoRJ7nI2xtZcBI?authuser=0&hl=en&rclk=1,"22.2921282,88.0788108"
Kaliachak Panch Tala Masjid,Mosque,"V269+4CR Kaliachak Panch Tala Masjid, Pastala masjid road alipur, Kaliachak, West Bengal 732201",,"V269+4CR, Pastala masjid road alipur","Kaliachak, Baliadanga",732201,West Bengal,IN,https://www.google.com/maps/place/Kaliachak+Panch+Tala+Masjid/data=!4m7!3m6!1s0x39fa578e921de86b:0xa40d214ccf716304!8m2!3d24.8603583!4d88.0185208!16s%2Fg%2F11bzsd4lmz!19sChIJa-gdko5X-jkRBGNxz0whDaQ?authuser=0&hl=en&rclk=1,"24.860358299999998,88.01852079999999"
Alipur Goroshthan Jame Masjid,Mosque,"JR3J+M5X Alipur Goroshthan Jame Masjid, Bridge, Faridpur, Bangladesh",,JR3J+M5X Bridge,Faridpur,,,BD,https://www.google.com/maps/place/Alipur+Goroshthan+Jame+Masjid/data=!4m7!3m6!1s0x39fe3be2c38165dd:0xa347a212ceeec892!8m2!3d23.6042369!4d89.8304727!16s%2Fg%2F11gjqp89nl!19sChIJ3WWBw-I7_jkRksjuzhKiR6M?authuser=0&hl=en&rclk=1,"23.6042369,89.8304727"
New Alipore Jama Masjid,Mosque,"New Alipore Jama Masjid, 21/1A, Diamond Harbour Rd, Block B, New Alipore, Kolkata, West Bengal 700053","Mani Aangan, Block B, New Alipore","21/1A, Diamond Harbour Rd",Kolkata,700053,West Bengal,IN,https://www.google.com/maps/place/New+Alipore+Jama+Masjid/data=!4m7!3m6!1s0x3a027a005d25376f:0x453b4c9ee3d70fdb!8m2!3d22.513926!4d88.3227542!16s%2Fg%2F1pp2x8rjr!19sChIJbzclXQB6AjoR2w_X455MO0U?authuser=0&hl=en&rclk=1,"22.513925999999998,88.32275419999999"
Alipur Mukund Masjid,Mosque,"QC54+46Q Alipur Mukund Masjid, Alipur Makund, Bihar 844126",,QC54+46Q,Alipur Makund,,Bihar,IN,https://www.google.com/maps/place/Alipur+Mukund+Masjid/data=!4m7!3m6!1s0x39ed6578153acb8f:0x190b8224a23c5632!8m2!3d25.7578348!4d85.4056098!16s%2Fg%2F11f6g5k5h0!19sChIJj8s6FXhl7TkRMlY8oiSCCxk?authuser=0&hl=en&rclk=1,"25.757834799999998,85.4056098"
Noor Masjid Kureni msjd nwr,Mosque,"Noor Masjid Kureni msjd nwr, 359, Alipur Rd, Narela Mandi, Narela, Delhi, 110040","Narela Mandi, Narela","359, Alipur Rd",Delhi,110040,Delhi,IN,https://www.google.com/maps/place/Noor+Masjid+Kureni+%D9%85%D8%B3%D8%AC%D8%AF+%D9%86%D9%88%D8%B1%E2%80%AD/data=!4m7!3m6!1s0x390da982933feba9:0x4884f2f7fb7ea621!8m2!3d28.8391444!4d77.0928501!16s%2Fg%2F11c2y88kn_!19sChIJqes_k4KpDTkRIaZ--_fyhEg?authuser=0&hl=en&rclk=1,"28.8391444,77.09285009999999"
West Alipur mosque,Mosque,"V32R+RW4 West Alipur mosque, Noakhali, Bangladesh",,V32R+RW4,Noakhali,,,BD,https://www.google.com/maps/place/West+Alipur+mosque/data=!4m7!3m6!1s0x3754a50186db1d8d:0x6d5826e2bda99170!8m2!3d22.8520161!4d91.0923341!16s%2Fg%2F11c56c21z_!19sChIJjR3bhgGlVDcRcJGpveImWG0?authuser=0&hl=en&rclk=1,"22.8520161,91.0923341"
masjid adde wali msjd ddy wly,Mosque,"masjid adde wali msjd ddy wly, 2054, Main Narela Rd, Alipur Village, New Delhi, Delhi, 110036",Alipur Village,"2054, Main Narela Rd","New Delhi, Delhi",110036,Delhi,IN,https://www.google.com/maps/place/masjid+adde+wali+%D9%85%D8%B3%D8%AC%D8%AF+%D8%A7%DA%88%DB%92+%D9%88%D8%A7%D9%84%DB%8C%E2%80%AD/data=!4m7!3m6!1s0x390d0082e5925329:0x55443993081f9b5f!8m2!3d28.7971036!4d77.1389107!16s%2Fg%2F11c5j5g6nd!19sChIJKVOS5YIADTkRX5sfCJM5RFU?authuser=0&hl=en&rclk=1,"28.7971036,77.1389107"
Alipur Jame Masjid,Mosque,"Q62X+5VX Alipur Jame Masjid, klaatiyyaa - keraaniignyj - ddhaakaa srrk, Hazratpur, Bangladesh",,"Q62X+5VX, klaatiyyaa - keraaniignyj - ddhaakaa srrk",Hazratpur,,,BD,https://www.google.com/maps/place/Alipur+Jame+Masjid/data=!4m7!3m6!1s0x375594c58530b387:0x13fab20d76d3321c!8m2!3d23.7504804!4d90.2497452!16s%2Fg%2F11b7fft0kz!19sChIJh7MwhcWUVTcRHDLTdg2y-hM?authuser=0&hl=en&rclk=1,"23.750480399999997,90.24974519999999"
Alipur Mia Bari Jame Mosque,Mosque,"Alipur Mia Bari Jame Mosque, Rd No 3, Chowmuhani, Bangladesh",,Rd No 3,Chowmuhani,,,BD,https://www.google.com/maps/place/Alipur+Mia+Bari+Jame+Mosque/data=!4m7!3m6!1s0x3754a3b992d214e7:0xdce2ed13e49aec7d!8m2!3d22.9362452!4d91.1120373!16s%2Fg%2F11bzxb0b_j!19sChIJ5xTSkrmjVDcRfeya5BPt4tw?authuser=0&hl=en&rclk=1,"22.9362452,91.1120373"
Alipore Masjid Wakf Estate,Mosque,"Alipore Masjid Wakf Estate, 19/1/1, Alipore Rd, Alipore, Kolkata, West Bengal 700027",Alipore,"19/1/1, Alipore Rd",Kolkata,700027,West Bengal,IN,https://www.google.com/maps/place/Alipore+Masjid+Wakf+Estate/data=!4m7!3m6!1s0x3a02773d7c122ffb:0x5d50800a0fc5b6cd!8m2!3d22.5205257!4d88.3341071!16s%2Fg%2F11fd4_cv4y!19sChIJ-y8SfD13AjoRzbbFDwqAUF0?authuser=0&hl=en&rclk=1,"22.5205257,88.3341071"
EK MINARA MASJID,Mosque,"95VJ+HWR EK MINARA MASJID, Alipur, Uttar Pradesh 207250",,95VJ+HWR,Alipur,207250,Uttar Pradesh,IN,https://www.google.com/maps/place/EK+MINARA+MASJID/data=!4m7!3m6!1s0x39759b4479e64a4d:0x53082311c884eff2!8m2!3d27.3939961!4d79.1822608!16s%2Fg%2F11c5_lz8n3!19sChIJTUrmeUSbdTkR8u-EyBEjCFM?authuser=0&hl=en&rclk=1,"27.3939961,79.1822608"
West Alipur Mosque,Mosque,"JR38+HJQ West Alipur Mosque, B587, Bangladesh",,"JR38+HJQ, B587",,,,BD,https://www.google.com/maps/place/West+Alipur+Mosque/data=!4m7!3m6!1s0x39fe3af6bf833d29:0x69eb4ea15e719df6!8m2!3d23.6039659!4d89.8166247!16s%2Fg%2F11c5fytkm4!19sChIJKT2Dv_Y6_jkR9p1xXqFO62k?authuser=0&hl=en&rclk=1,"23.6039659,89.81662469999999"
Jibanpur Sahi Masjid,Mosque,"PMFP+6VP Jibanpur Sahi Masjid, Jibanpur, Alipur, West Bengal 743424",,PMFP+6VP,"Jibanpur, Alipur",743424,West Bengal,IN,https://www.google.com/maps/place/Jibanpur+Sahi+Masjid/data=!4m7!3m6!1s0x39f8aec60cf496ab:0xd31c08971cad52cb!8m2!3d22.7230931!4d88.6871962!16s%2Fg%2F11cnb6r8x1!19sChIJq5b0DMau-DkRy1KtHJcIHNM?authuser=0&hl=en&rclk=1,"22.7230931,88.6871962"
Alipur Jame Masjid,Mosque,"CW98+GWQ Alipur Jame Masjid, Dakshin Mahendrapur, West Bengal 732125",,CW98+GWQ,Dakshin Mahendrapur,732125,West Bengal,IN,https://www.google.com/maps/place/Alipur+Jame+Masjid/data=!4m7!3m6!1s0x39fac666ea4f0771:0x316a81f69acc3893!8m2!3d25.4188402!4d87.9173438!16s%2Fg%2F11g86jjbq7!19sChIJcQdP6mbG-jkRkzjMmvaBajE?authuser=0&hl=en&rclk=1,"25.418840199999998,87.9173438"
Alipur Raza Jama Masjid,Mosque,"96CW+J6V Alipur Raza Jama Masjid, Munkeri, Jharkhand 822113",,96CW+J6V,Munkeri,822113,Jharkhand,IN,https://www.google.com/maps/place/Alipur+Raza+Jama+Masjid/data=!4m7!3m6!1s0x398c61c642a605a7:0x1c8f7f8b7cee71c4!8m2!3d24.3716043!4d84.2455472!16s%2Fg%2F11gnn3b7nt!19sChIJpwWmQsZhjDkRxHHufIt_jxw?authuser=0&hl=en&rclk=1,"24.371604299999998,84.24554719999999"
Fatima Masjid Alipur,Mosque,"2PH8+P33 Fatima Masjid Alipur, MP SH 41, Patwari Colony, Alipur, Ashta, Madhya Pradesh 466116","Patwari Colony, Alipur","2PH8+P33, MP SH 41",Ashta,466116,Madhya Pradesh,IN,https://www.google.com/maps/place/Fatima+Masjid+Alipur/data=!4m7!3m6!1s0x397cc4be66b52815:0x640336d8fde8c363!8m2!3d23.0292684!4d76.7151606!16s%2Fg%2F11dxkvtggt!19sChIJFSi1Zr7EfDkRY8Po_dg2A2Q?authuser=0&hl=en&rclk=1,"23.0292684,76.71516059999999"
Gazi Masjid,Mosque,"5CVH+5GF Gazi Masjid, Alipur, West Bengal 743372",,5CVH+5GF,Alipur,,West Bengal,IN,https://www.google.com/maps/place/Gazi+Masjid/data=!4m7!3m6!1s0x3a0241a51ac0ed5d:0x264f7a9ea2379b29!8m2!3d22.1929358!4d88.4287956!16s%2Fg%2F11f4_2j0nb!19sChIJXe3AGqVBAjoRKZs3op56TyY?authuser=0&hl=en&rclk=1,"22.1929358,88.4287956"
Alipur Nayarhat Jame Mosque,Mosque,"J893+P25 Alipur Nayarhat Jame Mosque, Kafrikhal Rd, Kafrikhal, Bangladesh",,"J893+P25, Kafrikhal Rd",Kafrikhal,,,BD,https://www.google.com/maps/place/Alipur+Nayarhat+Jame+Mosque/data=!4m7!3m6!1s0x39fcd30b5dac108b:0x7305c031e0b20f0e!8m2!3d25.6192603!4d89.3026229!16s%2Fg%2F11b7l6zdl6!19sChIJixCsXQvT_DkRDg-y4DHABXM?authuser=0&hl=en&rclk=1,"25.6192603,89.3026229"
Islampur Jame Masjid,Mosque,"JWH5+3JM Islampur Jame Masjid, Silampur- Garchumuk- Dafarpur- Ghoshpur Kalia- Alipur- Ramchandrapur Rd, Chandpur, Bhasaipaikar, West Bengal 711314",,"JWH5+3JM, Silampur- Garchumuk- Dafarpur- Ghoshpur Kalia- Alipur- Ramchandrapur Rd","Chandpur, Bhasaipaikar",711314,West Bengal,IN,https://www.google.com/maps/place/Islampur+Jame+Masjid/data=!4m7!3m6!1s0x39fa43c0b2f62719:0x85dc78257ea80843!8m2!3d24.6277215!4d87.909049!16s%2Fg%2F11dxr14kg8!19sChIJGSf2ssBD-jkRQwiofiV43IU?authuser=0&hl=en&rclk=1,"24.6277215,87.909049"
Alipur Jummah Maszid,Mosque,"W58C+CXP Alipur Jummah Maszid, Alipur, Dhemua, West Bengal 712305",,W58C+CXP,"Alipur, Dhemua",712305,West Bengal,IN,https://www.google.com/maps/place/Alipur+Jummah+Maszid/data=!4m7!3m6!1s0x39f88a0b832b0af3:0xc770b2c4d5ed0eff!8m2!3d22.9160814!4d88.1724425!16s%2Fg%2F11bytn646y!19sChIJ8worgwuK-DkR_w7t1cSycMc?authuser=0&hl=en&rclk=1,"22.9160814,88.1724425"
Solpa-Alipur Jame Masjid,Mosque,"PVVP+MV Solpa-Alipur Jame Masjid, Ramchandrapur - Shalfa - Chandanail Rd, Purbohati, Bangladesh",,"PVVP+MV, Ramchandrapur - Shalfa - Chandanail Rd",Purbohati,,,BD,https://www.google.com/maps/place/Solpa-Alipur+Jame+Masjid/data=!4m7!3m6!1s0x37544014f38b2cdb:0x5bb05186dd8e33cc!8m2!3d23.7411264!4d90.8886588!16s%2Fg%2F11bxw8gyfj!19sChIJ2yyL8xRAVDcRzDOO3YZRsFs?authuser=0&hl=en&rclk=1,"23.7411264,90.8886588"
Masjid Shekhpura,Mosque,"2PF8+VV5 Masjid Shekhpura, Ali Ganj, Alipur, Ashta, Madhya Pradesh 466116","Ali Ganj, Alipur",2PF8+VV5,Ashta,466116,Madhya Pradesh,IN,https://www.google.com/maps/place/Masjid+Shekhpura/data=!4m7!3m6!1s0x397cc4bbc262c66f:0xcf808b104b453bbc!8m2!3d23.0246441!4d76.7172446!16s%2Fg%2F11f1df1zqw!19sChIJb8ZiwrvEfDkRvDtFSxCLgM8?authuser=0&hl=en&rclk=1,"23.0246441,76.7172446"
Alipur Masjid,Mosque,"Alipur Masjid, 23no, 23no, Magra-Gurup Rd, Bhastara, West Bengal 712303",,"23no, 23no, Magra-Gurup Rd",Bhastara,712303,West Bengal,IN,https://www.google.com/maps/place/Alipur+Masjid/data=!4m7!3m6!1s0x39f85f85f2915dc7:0x87fc4dbbe1feebc4!8m2!3d23.0270024!4d88.1621704!16s%2Fg%2F11dxl81v4t!19sChIJx12R8oVf-DkRxOv-4btN_Ic?authuser=0&hl=en&rclk=1,"23.0270024,88.1621704"
Taj Masjid,Mosque,"2PJ7+P7V Taj Masjid, Alipur, Ashta, Bahadarpura, Madhya Pradesh 466116",Alipur,2PJ7+P7V,"Ashta, Bahadarpura",466116,Madhya Pradesh,IN,https://www.google.com/maps/place/Taj+Masjid/data=!4m7!3m6!1s0x397cc4957e8dbadb:0xd5ce81cd8764c74d!8m2!3d23.031869!4d76.7131647!16s%2Fg%2F11g8_1yl3w!19sChIJ27qNfpXEfDkRTcdkh82BztU?authuser=0&hl=en&rclk=1,"23.031869,76.7131647"
ABDULLAH MASJID,Mosque,"6MHJ+P5M ABDULLAH MASJID, shivaji nagar bagwan plot, Alipur Rd, Barshi, Maharashtra 413401",Chatrapati Colony,"6MHJ+P5M, shivaji nagar bagwan plot, Alipur Rd",Barshi,413401,Maharashtra,IN,https://www.google.com/maps/place/ABDULLAH+MASJID/data=!4m7!3m6!1s0x3bc455103ffbf8df:0xf34417fa0705686!8m2!3d18.2293413!4d75.680414!16s%2Fg%2F11f0_gbqvb!19sChIJ3_j7PxBVxDsRhlZwoH9BNA8?authuser=0&hl=en&rclk=1,"18.229341299999998,75.680414"
Chhoti Masjid Alipur Kheda,Mosque,"8587+89H Chhoti Masjid Alipur Kheda, Alipur Khera, Allikhera, Uttar Pradesh 205267",,8587+89H,"Alipur Khera, Allikhera",,Uttar Pradesh,IN,https://www.google.com/maps/place/Chhoti+Masjid+Alipur+Kheda/data=!4m7!3m6!1s0x39759a82896bebff:0xbdf15bf8bd0f16ef!8m2!3d27.3158016!4d79.1634701!16s%2Fg%2F11gfxhj3zl!19sChIJ_-triYKadTkR7xYPvfhb8b0?authuser=0&hl=en&rclk=1,"27.3158016,79.1634701"
Chakjaydi Alipur Jame Masjid,Mosque,"87HH+JF8 Chakjaydi Alipur Jame Masjid, Devipure Rd, Shirakol, Chak Jaydi, West Bengal 743513",Shirakol,"87HH+JF8, Devipure Rd",Chak Jaydi,743513,West Bengal,IN,https://www.google.com/maps/place/Chakjaydi+Alipur+Jame+Masjid/data=!4m7!3m6!1s0x3a026429166d8fef:0xb7e109225d572be4!8m2!3d22.3290386!4d88.2786931!16s%2Fg%2F11fx2zcdc_!19sChIJ749tFilkAjoR5CtXXSIJ4bc?authuser=0&hl=en&rclk=1,"22.3290386,88.2786931"
Nurani Masjid,Mosque,"4P7V+3P8 Nurani Masjid, Alipur, Uttar Pradesh 221602",,4P7V+3P8,Alipur,221602,Uttar Pradesh,IN,https://www.google.com/maps/place/Nurani+Masjid/data=!4m7!3m6!1s0x39922fec787c9b27:0x1f7c3330031d4a19!8m2!3d26.1126593!4d83.7443165!16s%2Fg%2F11dxl83npl!19sChIJJ5t8eOwvkjkRGUodAzAzfB8?authuser=0&hl=en&rclk=1,"26.112659299999997,83.7443165"
Madeena Masjid,Mosque,"2PG6+8G8 Madeena Masjid, Mirpura, Ashta, Bahadarpura, Madhya Pradesh 466116",Mirpura,2PG6+8G8,"Ashta, Bahadarpura",466116,Madhya Pradesh,IN,https://www.google.com/maps/place/Madeena+Masjid/data=!4m7!3m6!1s0x397cc4bf4d5feb7f:0xadc7990cb453b73d!8m2!3d23.0257891!4d76.7113172!16s%2Fg%2F11f4pmq5w3!19sChIJf-tfTb_EfDkRPbdTtAyZx60?authuser=0&hl=en&rclk=1,"23.025789099999997,76.7113172"
Dhalipara Ahle Hadith Masjid,Mosque,"M2J7+G84 Dhalipara Ahle Hadith Masjid, Alipur, Bangladesh",,M2J7+G84,Alipur West (Dhalipara),,,BD,https://www.google.com/maps/place/Dhalipara+Ahle+Hadith+Masjid/data=!4m7!3m6!1s0x39ff5933e181dd07:0xeeb566d4ee25377b!8m2!3d22.681253!4d89.0133307!16s%2Fg%2F11ddwwc9d7!19sChIJB92B4TNZ_zkRezcl7tRmte4?authuser=0&hl=en&rclk=1,"22.681252999999998,89.0133307"
Masjid Alipur,Mosque,"2PG7+549 Masjid Alipur, Mirpura, Ashta, Madhya Pradesh 466116",Mirpura,2PG7+549,Ashta,466116,Madhya Pradesh,IN,https://www.google.com/maps/place/Masjid+Alipur/data=!4m7!3m6!1s0x397cc4b8d17b52af:0xa6fdb3dd30da6a0c!8m2!3d23.0254135!4d76.7128548!16s%2Fg%2F11f3xysvhp!19sChIJr1J70bjEfDkRDGraMN2z_aY?authuser=0&hl=en&rclk=1,"23.0254135,76.7128548"
Alipur Mandalpara Jumma Masjid,Mosque,"V269+39W Alipur Mandalpara Jumma Masjid, Alipur Rd, Kaliachak, Baliadanga, West Bengal 732201",,"V269+39W, Alipur Rd","Kaliachak, Baliadanga",732201,West Bengal,IN,https://www.google.com/maps/place/Alipur+Mandalpara+Jumma+Masjid/data=!4m7!3m6!1s0x39fa578e924451f9:0xfe4f21bb0b020072!8m2!3d24.8602468!4d88.0184631!16s%2Fg%2F11c509jtf3!19sChIJ-VFEko5X-jkRcgACC7shT_4?authuser=0&hl=en&rclk=1,"24.8602468,88.01846309999999"
Debipur Station Bazar Zame Masjid,Mosque,"45W3+9RQ Debipur Station Bazar Zame Masjid, Alipur, West Bengal 713146",,45W3+9RQ,Alipur,713146,West Bengal,IN,https://www.google.com/maps/place/Debipur+Station+Bazar+Zame+Masjid/data=!4m7!3m6!1s0x39f859642d922d45:0x7bc93b0732600b0!8m2!3d23.1459651!4d88.1546154!16s%2Fg%2F11ghtb5nh5!19sChIJRS2SLWRZ-DkRsAAmc7CTvAc?authuser=0&hl=en&rclk=1,"23.145965099999998,88.1546154"
Khajur wali masjid,Mosque,"Khajur wali masjid, Bus Stop, Dhakka Mor, Alipur Bhoor Sharki, Uttar Pradesh 244242",Dhakka Mor,Bus Stop,Alipur Bhoor Sharki,244242,Uttar Pradesh,IN,https://www.google.com/maps/place/Khajur+wali+masjid/data=!4m7!3m6!1s0x390b13ba263c1547:0x7be90703673f66e4!8m2!3d28.6806606!4d78.3761239!16s%2Fg%2F11qnjgzvy9!19sChIJRxU8JroTCzkR5GY_ZwMH6Xs?authuser=0&hl=en&rclk=1,"28.6806606,78.3761239"
Habibpur Shahpur-Majhpara Jame Masjid,Mosque,"QHFC+H74 Habibpur Shahpur-Majhpara Jame Masjid, Jagannathpur Road, Alipur, Bangladesh",,"QHFC+H74, Jagannathpur Road",Alipur,,,BD,https://www.google.com/maps/place/Habibpur+Shahpur-Majhpara+Jame+Masjid/data=!4m7!3m6!1s0x375119170c5c6699:0xce618f3a6a847906!8m2!3d24.7738835!4d91.5706946!16s%2Fg%2F11h9z1hgpm!19sChIJmWZcDBcZUTcRBnmEajqPYc4?authuser=0&hl=en&rclk=1,"24.7738835,91.5706946"
CHAR MINAR MASJID Ahle sunnat wal zamat,Mosque,"95VP+HM9 CHAR MINAR MASJID Ahle sunnat wal zamat, Alipur aliganj, Alipur, Uttar Pradesh 207250",,"95VP+HM9, Alipur aliganj",Alipur,207250,Uttar Pradesh,IN,https://www.google.com/maps/place/CHAR+MINAR+MASJID+Ahle+sunnat+wal+zamat/data=!4m7!3m6!1s0x39759b4d6100fef7:0x517541112bafd997!8m2!3d27.393909!4d79.1867307!16s%2Fg%2F11nmhn9xnr!19sChIJ9_4AYU2bdTkRl9mvKxFBdVE?authuser=0&hl=en&rclk=1,"27.393908999999997,79.1867307"
Alipur Jame Masjid,Mosque,"889X+4Q8 Alipur Jame Masjid, Idilpur, Bangladesh",,889X+4Q8,Idilpur,,,BD,https://www.google.com/maps/place/Alipur+Jame+Masjid/data=!4m7!3m6!1s0x39fcdf6d499af5cd:0x24de799ab52b9b2c!8m2!3d25.317791!4d89.3494678!16s%2Fg%2F11h0_b3t7q!19sChIJzfWaSW3f_DkRLJsrtZp53iQ?authuser=0&hl=en&rclk=1,"25.317791,89.3494678"
msjid,Mosque,"6P3Q+6H8 msjid, Alipur, West Bengal 713103",,6P3Q+6H8,Alipur,713103,West Bengal,IN,https://www.google.com/maps/place/%E0%A6%AE%E0%A6%B8%E0%A6%9C%E0%A6%BF%E0%A6%A6/data=!4m7!3m6!1s0x39f830f5afacc42f:0xaefe322d3e61cf0e!8m2!3d23.2030267!4d87.7389578!16s%2Fg%2F11c67x5vbv!19sChIJL8Ssr_Uw-DkRDs9hPi0y_q4?authuser=0&hl=en&rclk=1,"23.2030267,87.7389578"
Alipur jame masjid,Mosque,"397F+HPQ Alipur jame masjid, Noapara, Bangladesh",,397F+HPQ,Noapara,,,BD,https://www.google.com/maps/place/Alipur+jame+masjid/data=!4m7!3m6!1s0x39ff0b36208a9999:0xb2d21e61b8b7c3a9!8m2!3d23.0639732!4d89.3743516!16s%2Fg%2F11qn521zsh!19sChIJmZmKIDYL_zkRqcO3uGEe0rI?authuser=0&hl=en&rclk=1,"23.0639732,89.3743516"
JAMIA MASJID ALIPUR,Mosque,"8RC3+RJH JAMIA MASJID ALIPUR, Haridaspalle, Telangana 501121",,8RC3+RJH,Haridaspalle,501121,Telangana,IN,https://www.google.com/maps/place/JAMIA+MASJID+ALIPUR/data=!4m7!3m6!1s0x3bc95d890642a75f:0xbe14e9573d6a4c5a!8m2!3d17.3220689!4d77.8041006!16s%2Fg%2F11fqd67mwq!19sChIJX6dCBoldyTsRWkxqPVfpFL4?authuser=0&hl=en&rclk=1,"17.322068899999998,77.8041006"
Alipur Mistripara Masjid,Mosque,"M2J7+W73 Alipur Mistripara Masjid, Dalipara Rd, Alipur West (Dhalipara), Bangladesh",,"M2J7+W73, Dalipara Rd",Alipur West (Dhalipara),,,BD,https://www.google.com/maps/place/Alipur+Mistripara+Masjid/data=!4m7!3m6!1s0x39ff5933ffd8def5:0xe360ca909a87d24f!8m2!3d22.6822718!4d89.0131617!16s%2Fg%2F11c6cg122f!19sChIJ9d7Y_zNZ_zkRT9KHmpDKYOM?authuser=0&hl=en&rclk=1,"22.6822718,89.0131617"
Alipur Kandaparha Jama Masjid,Mosque,"VPF8+GWF Alipur Kandaparha Jama Masjid, Bangladesh",,VPF8+GWF,,,,BD,https://www.google.com/maps/place/Alipur+Kandaparha+Jama+Masjid/data=!4m7!3m6!1s0x375430d8da3edb55:0xa0115c59a83ff340!8m2!3d23.8738028!4d90.7172898!16s%2Fg%2F11ddx7f6ll!19sChIJVds-2tgwVDcRQPM_qFlcEaA?authuser=0&hl=en&rclk=1,"23.8738028,90.71728979999999"
Baitull Aaman Jame Masjid,Mosque,"V23M+589 Baitull Aaman Jame Masjid, Alipur Rd, Kaliachak, Alipur, West Bengal 732201",,"V23M+589, Alipur Rd","Kaliachak, Alipur",732201,West Bengal,IN,https://www.google.com/maps/place/Baitull+Aaman+Jame+Masjid/data=!4m7!3m6!1s0x39fa57a2f847725f:0xbddc391a03440b27!8m2!3d24.8529011!4d88.0333563!16s%2Fg%2F11gf06xlr3!19sChIJX3JH-KJX-jkRJwtEAxo53L0?authuser=0&hl=en&rclk=1,"24.8529011,88.0333563"
JAMURI MASJID,Mosque,"RG6J+CF7 JAMURI MASJID, Jamuri, Alipur, West Bengal 731102",,RG6J+CF7,"Jamuri, Alipur",731102,West Bengal,IN,https://www.google.com/maps/place/JAMURI+MASJID/data=!4m7!3m6!1s0x39f75f6e5c500c13:0xcf9b953c051c2f21!8m2!3d23.8110364!4d87.531168!16s%2Fg%2F11h2fqmgn7!19sChIJEwxQXG5f9zkRIS8cBTyVm88?authuser=0&hl=en&rclk=1,"23.8110364,87.531168"
Paschim Sarder Para Jame Masjid | pshcim srdaarpaadd'aa jaame msjid,Mosque,"Paschim Sarder Para Jame Masjid | pshcim srdaarpaadd'aa jaame msjid, Paschim Sarder Para, Mahmudpur(Bharukhali Bazar), Alipur Union, 9400, Bangladesh",,"Paschim Sarder Para, Mahmudpur(Bharukhali Bazar), Alipur Union",,9400,,BD,https://www.google.com/maps/place/Paschim+Sarder+Para+Jame+Masjid+%7C+%E0%A6%AA%E0%A6%B6%E0%A7%8D%E0%A6%9A%E0%A6%BF%E0%A6%AE+%E0%A6%B8%E0%A6%B0%E0%A6%A6%E0%A6%BE%E0%A6%B0%E0%A6%AA%E0%A6%BE%E0%A6%A1%E0%A6%BC%E0%A6%BE+%E0%A6%9C%E0%A6%BE%E0%A6%AE%E0%A7%87+%E0%A6%AE%E0%A6%B8%E0%A6%9C%E0%A6%BF%E0%A6%A6/data=!4m7!3m6!1s0x39ff59511c5d9bb5:0xe2e19b71e940e2d6!8m2!3d22.6910128!4d88.9820805!16s%2Fg%2F11t28cq027!19sChIJtZtdHFFZ_zkR1uJA6XGb4eI?authuser=0&hl=en&rclk=1,"22.6910128,88.9820805"
Alipur Mia Bari Jame Mosjid,Mosque,"8654+5GF Alipur Mia Bari Jame Mosjid, Shibchar, Bangladesh",,8654+5GF,Shibchar,,,BD,https://www.google.com/maps/place/Alipur+Mia+Bari+Jame+Mosjid/data=!4m7!3m6!1s0x375577d628081659:0x49485bd1e411fd5f!8m2!3d23.3079349!4d90.2062931!16s%2Fg%2F11kp3glrj_!19sChIJWRYIKNZ3VTcRX_0R5NFbSEk?authuser=0&hl=en&rclk=1,"23.3079349,90.2062931"
ALIPURGRAM JUMMA MASJID,Mosque,"4459+J3X ALIPURGRAM JUMMA MASJID, Mekpur, West Bengal 732128",,4459+J3X,Mekpur,732128,West Bengal,IN,https://www.google.com/maps/place/ALIPURGRAM+JUMMA+MASJID/data=!4m7!3m6!1s0x39fae34e07f7a65d:0x34e2d0dce75c159a!8m2!3d25.1091174!4d88.1177399!16s%2Fg%2F11llt341vh!19sChIJXab3B07j-jkRmhVc59zQ4jQ?authuser=0&hl=en&rclk=1,"25.1091174,88.11773989999999"
Hazrat Ali Mosque,Mosque,"WV7M+WJ Hazrat Ali Mosque, Alipur Sahna, Uttar Pradesh 209734",,WV7M+WJ,Alipur Sahna,,Uttar Pradesh,IN,https://www.google.com/maps/place/Hazrat+Ali+Mosque/data=!4m7!3m6!1s0x399e710b882e045f:0xdd6205d214fc9289!8m2!3d26.9147639!4d79.8840856!16s%2Fg%2F11qb3lcvyp!19sChIJXwQuiAtxnjkRiZL8FNIFYt0?authuser=0&hl=en&rclk=1,"26.9147639,79.88408559999999"
Alipur Khayeria Zame Masjid,Mosque,"M2MF+CCJ Alipur Khayeria Zame Masjid, Unnamed Road, Alipur West (Dhalipara), Bangladesh",,"M2MF+CCJ, Unnamed Road",Alipur West (Dhalipara),,,BD,https://www.google.com/maps/place/Alipur+Khayeria+Zame+Masjid/data=!4m7!3m6!1s0x39ff5f1e925d727b:0x3dbd36e9dfa0ad70!8m2!3d22.6835899!4d89.0235163!16s%2Fg%2F11p5n5ys52!19sChIJe3Jdkh5f_zkRcK2g3-k2vT0?authuser=0&hl=en&rclk=1,"22.683589899999998,89.0235163"
Dakkhin mohalla masjid,Mosque,"V2R4+V29 Dakkhin mohalla masjid, Alipur T, Dilawalpur, Uttar Pradesh 277123",,V2R4+V29,"Alipur T, Dilawalpur",277123,Uttar Pradesh,IN,https://www.google.com/maps/place/Dakkhin+mohalla+masjid/data=!4m7!3m6!1s0x39926bcc5a85bac9:0xbcfe46d37644df06!8m2!3d25.892171!4d84.0051148!16s%2Fg%2F11q1m593fb!19sChIJybqFWsxrkjkRBt9EdtNG_rw?authuser=0&hl=en&rclk=1,"25.892170999999998,84.0051148"
Moti Masjid Ashta Alipur,Mosque,"2PGG+F58 Moti Masjid Ashta Alipur, Unnamed Road, Ali Ganj, Ashta, Madhya Pradesh 466116",Ali Ganj,"2PGG+F58, Unnamed Road",Ashta,466116,Madhya Pradesh,IN,https://www.google.com/maps/place/Moti+Masjid+Ashta+Alipur/data=!4m7!3m6!1s0x397cc54be4459d33:0x2ccb5dd17846fa13!8m2!3d23.0261533!4d76.7254388!16s%2Fg%2F11fk3wn0sw!19sChIJM51F5EvFfDkRE_pGeNFdyyw?authuser=0&hl=en&rclk=1,"23.0261533,76.72543879999999"
"Noori Masjid(Sunni), Alipur Mukund",Mosque,"QC54+Q3J Noori Masjid(Sunni), Alipur Mukund, Alipur Makund, Bihar 844126",,QC54+Q3J,Alipur Makund,844126,Bihar,IN,"https://www.google.com/maps/place/Noori+Masjid%28Sunni%29,+Alipur+Mukund/data=!4m7!3m6!1s0x39ed657ea0e316ed:0x65086344741b9305!8m2!3d25.7594501!4d85.4051369!16s%2Fg%2F11qh1crj29!19sChIJ7RbjoH5l7TkRBZMbdERjCGU?authuser=0&hl=en&rclk=1","25.7594501,85.4051369"
NURI MASJID,Mosque,"V23J+Q8V NURI MASJID, Alipur, West Bengal 732201",,V23J+Q8V,Alipur,732201,West Bengal,IN,https://www.google.com/maps/place/NURI+MASJID/data=!4m7!3m6!1s0x39fa57981276aef7:0x33384dad0883a89d!8m2!3d24.8544751!4d88.0307885!16s%2Fg%2F11f3vldhtl!19sChIJ9652EphX-jkRnaiDCK1NODM?authuser=0&hl=en&rclk=1,"24.8544751,88.0307885"
BHATPOA KHANEKHODA JUMMA MASJID,Mosque,"BHATPOA KHANEKHODA JUMMA MASJID, Unnamed Road, Alipore, Kolkata, Alipur, West Bengal 743387",Alipore,Unnamed Road,"Kolkata, Alipur",743387,West Bengal,IN,https://www.google.com/maps/place/BHATPOA+KHANEKHODA+JUMMA+MASJID/data=!4m7!3m6!1s0x3a026b5400444dbd:0xda4da3aed7415a91!8m2!3d22.3064602!4d88.4720257!16s%2Fg%2F11mqxg38y1!19sChIJvU1EAFRrAjoRkVpB166jTdo?authuser=0&hl=en&rclk=1,"22.3064602,88.47202569999999"
Jannatul Ferdous Jame Masjid,Mosque,"HMPG+W8 Jannatul Ferdous Jame Masjid, Alipur, Bangladesh",Alapur,HMPG+W8,Alipur,,,BD,https://www.google.com/maps/place/Jannatul+Ferdous+Jame+Masjid/data=!4m7!3m6!1s0x375113c94cc0eda9:0x515d097f25d6195c!8m2!3d24.5872876!4d91.6757973!16s%2Fg%2F11t5s_0xqt!19sChIJqe3ATMkTUTcRXBnWJX8JXVE?authuser=0&hl=en&rclk=1,"24.5872876,91.6757973"
uttr aaliipur bhuunyaabaarrii jaame msjid /Uttar Alipur Bhuiyan Bari Jame Masjid,Mosque,"X962+R6V uttr aaliipur bhuunyaabaarrii jaame msjid /Uttar Alipur Bhuiyan Bari Jame Masjid, Unnamed Road, Matu Bhuiyan, Bangladesh",,"X962+R6V, Unnamed Road",Matu Bhuiyan,,,BD,https://www.google.com/maps/place/%E0%A6%89%E0%A6%A4%E0%A7%8D%E0%A6%A4%E0%A6%B0+%E0%A6%86%E0%A6%B2%E0%A7%80%E0%A6%AA%E0%A7%81%E0%A6%B0+%E0%A6%AD%E0%A7%82%E0%A6%9E%E0%A6%BE%E0%A6%AC%E0%A6%BE%E0%A7%9C%E0%A7%80+%E0%A6%9C%E0%A6%BE%E0%A6%AE%E0%A7%87+%E0%A6%AE%E0%A6%B8%E0%A6%9C%E0%A6%BF%E0%A6%A6+%2FUttar+Alipur+Bhuiyan+Bari+Jame+Masjid/data=!4m7!3m6!1s0x37535def2cbde9bf:0xa5aa38d3c968d6a7!8m2!3d22.9621083!4d91.3505605!16s%2Fg%2F11rfmxpzrn!19sChIJv-m9LO9dUzcRp9ZoydM4qqU?authuser=0&hl=en&rclk=1,"22.9621083,91.3505605"
Sarai Masjid Tekari sraay msjid ttekaarii,Mosque,"WRRW+R8G Sarai Masjid Tekari sraay msjid ttekaarii, Alipur, Tekari, Bihar 824236",Alipur,WRRW+R8G,Tekari,824236,Bihar,IN,https://www.google.com/maps/place/Sarai+Masjid+Tekari+%E0%A4%B8%E0%A4%B0%E0%A4%BE%E0%A4%AF+%E0%A4%AE%E0%A4%B8%E0%A5%8D%E0%A4%9C%E0%A4%BF%E0%A4%A6+%E0%A4%9F%E0%A5%87%E0%A4%95%E0%A4%BE%E0%A4%B0%E0%A5%80/data=!4m7!3m6!1s0x398d2f41e6e7849d:0x5cdbfe08e3697810!8m2!3d24.9420651!4d84.8458191!16s%2Fg%2F11t7r8l9hs!19sChIJnYTn5kEvjTkREHhp4wj-21w?authuser=0&hl=en&rclk=1,"24.942065099999997,84.8458191"
Madeena Masjid Alipur,Mosque,"MJGH+4HM Madeena Masjid Alipur, Zahirabad Rural, Zaheerabad, Telangana 502318",Zahirabad Rural,MJGH+4HM,Zaheerabad,502318,Telangana,IN,https://www.google.com/maps/place/Madeena+Masjid+Alipur/data=!4m7!3m6!1s0x3bceb583f91e6da9:0x67941381c5571b89!8m2!3d17.6748027!4d77.6296856!16s%2Fg%2F11q4m2cb1p!19sChIJqW0e-YO1zjsRiRtXxYETlGc?authuser=0&hl=en&rclk=1,"17.6748027,77.6296856"
Masjid msjid,Mosque,"629H+MHP Masjid msjid, Kulgaon, Badlapur, Kugaon, Maharashtra 413202",Kulgaon,629H+MHP,"Badlapur, Kugaon",,Maharashtra,IN,https://www.google.com/maps/place/Masjid+%E0%A4%AE%E0%A4%B8%E0%A5%8D%E0%A4%9C%E0%A4%BF%E0%A4%A6/data=!4m7!3m6!1s0x3bc4811199882f31:0xa2d5d942be180c4d!8m2!3d18.2192065!4d75.0289546!16s%2Fg%2F11ft4wzy0_!19sChIJMS-ImRGBxDsRTQwYvkLZ1aI?authuser=0&hl=en&rclk=1,"18.2192065,75.02895459999999"
Masjid-E-Noor,Mosque,"MJHJ+MJ6 Masjid-E-Noor, Friends colony, Alipur, Zaheerabad, Telangana 502318","Friends colony, Alipur",MJHJ+MJ6,Zaheerabad,,Telangana,IN,https://www.google.com/maps/place/Masjid-E-Noor/data=!4m7!3m6!1s0x3bceb5a2d644b5ad:0x80ebefa9a4798bee!8m2!3d17.6791541!4d77.6315024!16s%2Fg%2F11h7spvc48!19sChIJrbVE1qK1zjsR7ot5pKnv64A?authuser=0&hl=en&rclk=1,"17.679154099999998,77.6315024"
Alipur Sk Para Jame Masjid,Mosque,"87VM+24Q Alipur Sk Para Jame Masjid, Chandni, Chandi, Alipore, West Bengal 743503",Chandni,87VM+24Q,"Chandi, Alipore",743503,West Bengal,IN,https://www.google.com/maps/place/Alipur+Sk+Para+Jame+Masjid/data=!4m7!3m6!1s0x3a026523babb4605:0x380f5977e604eb0d!8m2!3d22.3425888!4d88.2828515!16s%2Fg%2F11p12wmtdy!19sChIJBUa7uiNlAjoRDesE5ndZDzg?authuser=0&hl=en&rclk=1,"22.342588799999998,88.28285149999999"
Muhamdiya masjid,Mosque,"5X34+6Q9 Muhamdiya masjid, Bijwadi, Maharashtra 413132",,5X34+6Q9,Bijwadi,413132,Maharashtra,IN,https://www.google.com/maps/place/Muhamdiya+masjid/data=!4m7!3m6!1s0x3bc38142b524d80b:0x7387a536e65d026f!8m2!3d18.1530376!4d74.9569899!16s%2Fg%2F11p7817_rz!19sChIJC9gktUKBwzsRbwJd5jalh3M?authuser=0&hl=en&rclk=1,"18.153037599999998,74.9569899"
Allah Masjid Alipur Aligarh,Mosque,"Q4M9+862 Allah Masjid Alipur Aligarh, Alipur, Uttar Pradesh 202150",,Q4M9+862,Alipur,202150,Uttar Pradesh,IN,https://www.google.com/maps/place/Allah+Masjid+Alipur+Aligarh/data=!4m7!3m6!1s0x397497fd94d8a06d:0x1765f62b3dfc4297!8m2!3d27.7832698!4d78.1180182!16s%2Fg%2F11fy2td4sz!19sChIJbaDYlP2XdDkRl0L8PSv2ZRc?authuser=0&hl=en&rclk=1,"27.7832698,78.1180182"
aalipur jaame msjid Alipur jama masjid,Mosque,"V76M+HV aalipur jaame msjid Alipur jama masjid, Manmathapur, West Bengal 743347",,V76M+HV,Manmathapur,,West Bengal,IN,https://www.google.com/maps/place/%E0%A6%86%E0%A6%B2%E0%A6%BF%E0%A6%AA%E0%A7%81%E0%A6%B0+%E0%A6%9C%E0%A6%BE%E0%A6%AE%E0%A7%87+%E0%A6%AE%E0%A6%B8%E0%A6%9C%E0%A6%BF%E0%A6%A6+Alipur+jama+masjid/data=!4m7!3m6!1s0x3a0253f8c068ab57:0x6affb5e6c15b464!8m2!3d21.8614121!4d88.2846752!16s%2Fg%2F11khzmf2sp!19sChIJV6towPhTAjoRZLQVbF77rwY?authuser=0&hl=en&rclk=1,"21.8614121,88.2846752"
Jumma masjid aalipur dkssinn paarraa msjd,Mosque,"P55Q+P6C Jumma masjid aalipur dkssinn paarraa msjd, Alipur Rd, Bhagabatipur, Nababpur, Alipur, West Bengal 712701",Bhagabatipur,"P55Q+P6C, Alipur Rd","Nababpur, Alipur",712701,West Bengal,IN,https://www.google.com/maps/place/Jumma+masjid+%E0%A6%86%E0%A6%B2%E0%A6%BF%E0%A6%AA%E0%A7%81%E0%A6%B0+%E0%A6%A6%E0%A6%95%E0%A7%8D%E0%A6%B7%E0%A6%BF%E0%A6%A3+%E0%A6%AA%E0%A6%BE%E0%A7%9C%E0%A6%BE+%D9%85%D8%B3%D8%AC%D8%AF%E2%80%AD/data=!4m7!3m6!1s0x39f887b9bb5cec8b:0xdc74747d2bbcf60e!8m2!3d22.7093232!4d88.1880253!16s%2Fg%2F11thkw73cj!19sChIJi-xcu7mH-DkRDva8K310dNw?authuser=0&hl=en&rclk=1,"22.7093232,88.18802529999999"
Eidgha Ahle sunnat wal jamat Alipur,Mosque,"95WH+XX3 Eidgha Ahle sunnat wal jamat Alipur, Unnamed Road, Alipur, Uttar Pradesh 207247",,"95WH+XX3, Unnamed Road",Alipur,207247,Uttar Pradesh,IN,https://www.google.com/maps/place/Eidgha+Ahle+sunnat+wal+jamat+Alipur/data=!4m7!3m6!1s0x39759bc099096fbd:0xd6d0fcaf63facc09!8m2!3d27.397378!4d79.1799232!16s%2Fg%2F11nn45c27n!19sChIJvW8JmcCbdTkRCcz6Y6_80NY?authuser=0&hl=en&rclk=1,"27.397378,79.17992319999999"
Nuri jama masjid,Mosque,"V24G+8X6 Nuri jama masjid, Alipur, West Bengal 732201",,V24G+8X6,Alipur,732201,West Bengal,IN,https://www.google.com/maps/place/Nuri+jama+masjid/data=!4m7!3m6!1s0x39fa570680803fa9:0x20138422158dc80e!8m2!3d24.8557933!4d88.0274046!16s%2Fg%2F11jr6p95k5!19sChIJqT-AgAZX-jkRDsiNFSKEEyA?authuser=0&hl=en&rclk=1,"24.8557933,88.0274046"
Masjid adda wali,Mosque,"QXCJ+8XV Masjid adda wali, Alipur Tigra, Haryana 122104",,QXCJ+8XV,Alipur Tigra,122104,Haryana,IN,https://www.google.com/maps/place/Masjid+adda+wali/data=!4m7!3m6!1s0x3972c316f97804d7:0x6037431d32f65281!8m2!3d27.7708539!4d76.982385!16s%2Fg%2F11sy4th7cv!19sChIJ1wR4-RbDcjkRgVL2Mh1DN2A?authuser=0&hl=en&rclk=1,"27.7708539,76.982385"
Mauhariya Masjid,Mosque,"P26G+X2V Mauhariya Masjid, Mauhariya, Alipur, Uttar Pradesh 204216",,P26G+X2V,"Mauhariya, Alipur",204216,Uttar Pradesh,IN,https://www.google.com/maps/place/Mauhariya+Masjid/data=!4m7!3m6!1s0x397499e2d94ed1a5:0x45f8a86adb054a4e!8m2!3d27.7131513!4d78.0258656!16s%2Fg%2F11sz3rxcxw!19sChIJpdFO2eKZdDkRTkoF22qo-EU?authuser=0&hl=en&rclk=1,"27.7131513,78.0258656"
Masjid Al-Noor,Mosque,"Masjid Al-Noor, 3202 Alipur Rd, Bangladesh",,3202 Alipur Rd,,,,BD,https://www.google.com/maps/place/Masjid+Al-Noor/data=!4m7!3m6!1s0x37510fcd77dc4cc9:0x3d24ffe1e21c68c6!8m2!3d24.610268!4d91.697708!16s%2Fg%2F11t5qwwg36!19sChIJyUzcd80PUTcRxmgc4uH_JD0?authuser=0&hl=en&rclk=1,"24.610267999999998,91.69770799999999"
Darus Salam Masjid,Mosque,"Darus Salam Masjid, 9400 Alipur-Roispur Rd, Bangladesh",,9400 Alipur-Roispur Rd,,,,BD,https://www.google.com/maps/place/Darus+Salam+Masjid/data=!4m7!3m6!1s0x39ff5f859a908023:0xd917c451b97ac88c!8m2!3d22.7080806!4d89.0308288!16s%2Fg%2F11fnsk00bs!19sChIJI4CQmoVf_zkRjMh6uVHEF9k?authuser=0&hl=en&rclk=1,"22.7080806,89.0308288"
maataapaadd'aa ntun jaame msjid Matapara new jame masjid,Mosque,"maataapaadd'aa ntun jaame msjid Matapara new jame masjid, Matapara, sekh para Matapara, Gohalberia, Shyampur, West Bengal 711315",,"Matapara, sekh para Matapara, Gohalberia","Shyampur, Alipur",711315,West Bengal,IN,https://www.google.com/maps/place/%E0%A6%AE%E0%A6%BE%E0%A6%A4%E0%A6%BE%E0%A6%AA%E0%A6%BE%E0%A6%A1%E0%A6%BC%E0%A6%BE+%E0%A6%A8%E0%A6%A4%E0%A7%81%E0%A6%A8+%E0%A6%9C%E0%A6%BE%E0%A6%AE%E0%A7%87+%E0%A6%AE%E0%A6%B8%E0%A6%9C%E0%A6%BF%E0%A6%A6+Matapara+new+jame+masjid/data=!4m7!3m6!1s0x3a028da98946c4ad:0xc058b1c99e13d8d7!8m2!3d22.2991208!4d88.0588614!16s%2Fg%2F11sv7279vw!19sChIJrcRGiamNAjoR19gTnsmxWMA?authuser=0&hl=en&rclk=1,"22.2991208,88.0588614"
Mosque,Mosque,"427F+FX8 Mosque, Indapur, Maharashtra 413106",,427F+FX8,Indapur,413106,Maharashtra,IN,https://www.google.com/maps/place/Mosque/data=!4m7!3m6!1s0x3bc479fd7060dff9:0xedf14a0c2a4948d8!8m2!3d18.1136722!4d75.0249675!16s%2Fg%2F11tfws44s4!19sChIJ-d9gcP15xDsR2EhJKgxK8e0?authuser=0&hl=en&rclk=1,"18.1136722,75.0249675"
Jummah masjid Bagwan mohlla Akluj,Mosque,"Jummah masjid Bagwan mohlla Akluj, Bagwa mohalla, Akluj, Anandnagar, Maharashtra 413101",,Bagwa mohalla,"Akluj, Anandnagar",413101,Maharashtra,IN,https://www.google.com/maps/place/Jummah+masjid+Bagwan+mohlla+Akluj/data=!4m7!3m6!1s0x3bc475f5bb4e4e8d:0x42db0003c448162d!8m2!3d17.8962281!4d74.9793243!16s%2Fg%2F11q4b8j01g!19sChIJjU5Ou_V1xDsRLRZIxAMA20I?authuser=0&hl=en&rclk=1,"17.8962281,74.9793243"
Masjid Alipur,Mosque,"R2JJ+H57 Masjid Alipur, Mohammadpur, Alipur, Bihar 823003",,R2JJ+H57,"Mohammadpur, Alipur",823003,Bihar,IN,https://www.google.com/maps/place/Masjid+Alipur/data=!4m7!3m6!1s0x39f2d7921192fb77:0x5cce5bd1409bc228!8m2!3d24.8314049!4d85.030426!16s%2Fg%2F11k3k_gwps!19sChIJd_uSEZLX8jkRKMKbQNFbzlw?authuser=0&hl=en&rclk=1,"24.8314049,85.03042599999999"
Alamgiri Masjid,Mosque,"2PG9+X78 Alamgiri Masjid, Ali Ganj, Alipur, Ashta, Madhya Pradesh 466116","Ali Ganj, Alipur",2PG9+X78,Ashta,466116,Madhya Pradesh,IN,https://www.google.com/maps/place/Alamgiri+Masjid/data=!4m7!3m6!1s0x397cc5a316115c89:0x9181c9494aafae0f!8m2!3d23.0274133!4d76.7181999!16s%2Fg%2F11rtd8jcb9!19sChIJiVwRFqPFfDkRD66vSknJgZE?authuser=0&hl=en&rclk=1,"23.0274133,76.7181999"
Alipur Molla Para masjid,Mosque,"W57F+GW6 Alipur Molla Para masjid, Pora Bazar, Dhemua, West Bengal 712305",,W57F+GW6,"Pora Bazar, Dhemua",712305,West Bengal,IN,https://www.google.com/maps/place/Alipur+Molla+Para+masjid/data=!4m7!3m6!1s0x39f88b02c2b93e27:0x3717e33f8121a805!8m2!3d22.9138437!4d88.1746886!16s%2Fg%2F11shw46qtc!19sChIJJz65wgKL-DkRBaghgT_jFzc?authuser=0&hl=en&rclk=1,"22.913843699999997,88.1746886"
Dakshin alipur Chowk jaidi jame masjid,Mosque,"87QH+HGG Dakshin alipur Chowk jaidi jame masjid, Ayodhyanagar, Rajarhat, Chak Jaydi, West Bengal 743398",Ayodhyanagar,87QH+HGG,"Rajarhat, Chak Jaydi",743398,West Bengal,IN,https://www.google.com/maps/place/Dakshin+alipur+Chowk+jaidi+jame+masjid/data=!4m7!3m6!1s0x3a02652d7c8ffb5b:0xb64132723f086a7d!8m2!3d22.3389329!4d88.2788146!16s%2Fg%2F11r9kzstfz!19sChIJW_uPfC1lAjoRfWoIP3IyQbY?authuser=0&hl=en&rclk=1,"22.3389329,88.27881459999999"
Iqra masjid (Alipur Morna),Mosque,"3XMP+QV9 Iqra masjid (Alipur Morna), Alipur Morna, Mawana",,"3XMP+QV9, Alipur Morna","Mawana, Alipur Morna",,Uttar Pradesh,IN,https://www.google.com/maps/place/Iqra+masjid+%28Alipur+Morna%29/data=!4m7!3m6!1s0x390b890f916eb7ff:0x963050daa1793b08!8m2!3d29.0844119!4d77.9872377!16s%2Fg%2F11sr6h3g2w!19sChIJ_7dukQ-JCzkRCDt5odpQMJY?authuser=0&hl=en&rclk=1,"29.0844119,77.9872377"
Masjid - e - Ali,Mosque,"5CVJ+6G2 Masjid - e - Ali, Alipur Kakapara, Jaynagar, West Bengal 743372",,"5CVJ+6G2, Alipur Kakapara","Jaynagar, Alipur",743372,West Bengal,IN,https://www.google.com/maps/place/Masjid+-+e+-+Ali/data=!4m7!3m6!1s0x3a0241bb4372b90b:0x22d37c66549e08ea!8m2!3d22.193024!4d88.4312759!16s%2Fg%2F11s0xwsl__!19sChIJC7lyQ7tBAjoR6gieVGZ80yI?authuser=0&hl=en&rclk=1,"22.193023999999998,88.4312759"
Alipur Gazi bari GOPAL GAZI House,Mosque,"Alipur Gazi bari GOPAL GAZI House, Alipur, West Bengal 743395",,,Alipur,743395,West Bengal,IN,https://www.google.com/maps/place/Alipur+Gazi+bari+GOPAL+GAZI+House/data=!4m7!3m6!1s0x3a02412f0dc828e7:0x95e5920e721aee8c!8m2!3d22.193142!4d88.4275003!16s%2Fg%2F11kq3m5jvc!19sChIJ5yjIDS9BAjoRjO4acg6S5ZU?authuser=0&hl=en&rclk=1,"22.193141999999998,88.42750029999999"
rj'aa jaamaa msjid aliipur khjurii ayodhyaa (Faizabad) raja jama masjid,Mosque,"MW6Q+2CP rj'aa jaamaa msjid aliipur khjurii ayodhyaa (Faizabad) raja jama masjid, Alipur Khajuri, Taradih Urf Tarauli, Uttar Pradesh 224158",,MW6Q+2CP,"Alipur Khajuri, Taradih Urf Tarauli",224158,Uttar Pradesh,IN,https://www.google.com/maps/place/%E0%A4%B0%E0%A4%9C%E0%A4%BC%E0%A4%BE+%E0%A4%9C%E0%A4%BE%E0%A4%AE%E0%A4%BE+%E0%A4%AE%E0%A4%B8%E0%A5%8D%E0%A4%9C%E0%A4%BF%E0%A4%A6+%E0%A4%85%E0%A4%B2%E0%A5%80%E0%A4%AA%E0%A5%81%E0%A4%B0+%E0%A4%96%E0%A4%9C%E0%A5%81%E0%A4%B0%E0%A5%80+%E0%A4%85%E0%A4%AF%E0%A5%8B%E0%A4%A7%E0%A5%8D%E0%A4%AF%E0%A4%BE+%28Faizabad%29+raja+jama+masjid/data=!4m7!3m6!1s0x399a15c6ba9566cf:0x6de3751646e36863!8m2!3d26.660076!4d81.9385903!16s%2Fg%2F11pkcf2rvw!19sChIJz2aVusYVmjkRY2jjRhZ1420?authuser=0&hl=en&rclk=1,"26.660076,81.9385903"
"Olipur,rojapa,masjid",Mosque,"V4W4+WQ Olipur,rojapa,masjid, Alipur, West Bengal 712301",,V4W4+WQ,Alipur,712301,West Bengal,IN,"https://www.google.com/maps/place/Olipur,rojapa,masjid/data=!4m7!3m6!1s0x39f8615c727fae6b:0xc5a32e9949446d94!8m2!3d22.8976686!4d88.1071731!16s%2Fg%2F11vhhzqqht!19sChIJa65_clxh-DkRlG1ESZkuo8U?authuser=0&hl=en&rclk=1","22.8976686,88.1071731"
Madina masjid,Mosque,"XMJ9+496 Madina masjid, Zamin Shahrullah, Uttar Pradesh 221705",,XMJ9+496,Zamin Shahrullah,221705,Uttar Pradesh,IN,https://www.google.com/maps/place/Madina+masjid/data=!4m7!3m6!1s0x3992211c28defce5:0x435580dacdb30786!8m2!3d25.9802852!4d83.6683945!16s%2Fg%2F11kqhwrcc1!19sChIJ5fzeKBwhkjkRhgezzdqAVUM?authuser=0&hl=en&rclk=1,"25.980285199999997,83.66839449999999"
Alipur Pir Bari Jame Masjid,Mosque,"6RJ3+47H Alipur Pir Bari Jame Masjid, Bangladesh",,6RJ3+47H,,,,BD,https://www.google.com/maps/place/Alipur+Pir+Bari+Jame+Masjid/data=!4m7!3m6!1s0x3754f154d42e37bb:0xace4db26465738fc!8m2!3d23.230304!4d90.8032329!16s%2Fg%2F11k0yyf5_p!19sChIJuzcu1FTxVDcR_DhXRibb5Kw?authuser=0&hl=en&rclk=1,"23.230304,90.8032329"
Bhatpoya sardar para. Nurani masjid,Mosque,"bhatpoya, Bhatpoya sardar para. Nurani masjid, surjyapur hat, Baruipur, Alipur, West Bengal 743372",,"bhatpoya, surjyapur hat","Baruipur, Alipur",743372,West Bengal,IN,https://www.google.com/maps/place/Bhatpoya+sardar+para.+Nurani+masjid/data=!4m7!3m6!1s0x3a026ba317295283:0x9107a4246aaea3!8m2!3d22.3098871!4d88.4732673!16s%2Fg%2F11ncb_dpl5!19sChIJg1IpF6NrAjoRo65qJKQHkQA?authuser=0&hl=en&rclk=1,"22.309887099999997,88.47326729999999"
Shibpur Zame Masjid,Mosque,"GQ6C+JQ Shibpur Zame Masjid, Alipur, Bangladesh",,GQ6C+JQ,Alipur,,,BD,https://www.google.com/maps/place/Shibpur+Zame+Masjid/data=!4m7!3m6!1s0x39fbf5b65f6cff35:0x64d2a9c136fadc4e!8m2!3d24.511623!4d88.771983!16s%2Fg%2F11rqy_f499!19sChIJNf9sX7b1-zkRTtz6NsGp0mQ?authuser=0&hl=en&rclk=1,"24.511623,88.77198299999999"
Alipur Karigorpara Darusunnah Masjid,Mosque,"M2MC+QH Alipur Karigorpara Darusunnah Masjid, Alipur West (Dhalipara), Bangladesh",,M2MC+QH,Alipur West (Dhalipara),,,BD,https://www.google.com/maps/place/Alipur+Karigorpara+Darusunnah+Masjid/data=!4m7!3m6!1s0x39ff5f005a110e45:0x4786da532c8bb9a1!8m2!3d22.6842529!4d89.0226321!16s%2Fg%2F11lcfpb3y8!19sChIJRQ4RWgBf_zkRobmLLFPahkc?authuser=0&hl=en&rclk=1,"22.6842529,89.0226321"
