name,main_category,address,address_ward,address_street,address_city,address_postal_code,address_state,address_country_code,link,coordinates
Baitul Aman Zame Masijd,Mosque,"J726+XQ7 Baitul Aman Zame Masijd, Munshidanga, Bankra, Howrah, Nibra, West Bengal 711403","Munshidanga, Bankra",J726+XQ7,"Howrah, Nibra",711403,West Bengal,IN,https://www.google.com/maps/place/Baitul+Aman+Zame+Masijd/data=!4m7!3m6!1s0x3a0278a3983cdfe7:0x39ace7f4e5b56ac0!8m2!3d22.6024178!4d88.2619208!16s%2Fg%2F11bw1qr6f2!19sChIJ5988mKN4AjoRwGq15fTnrDk?authuser=0&hl=en&rclk=1,"22.602417799999998,88.2619208"
Amtala Phari Jama Masjid,Mosque,"Amtala Phari Jama Masjid, 181/4, Andul Rd, B Shalimar Area, South Baksara, Shalimar, Howrah, West Bengal 711103","B Shalimar Area, South Baksara, Shalimar","181/4, Andul Rd",Howrah,711103,West Bengal,IN,https://www.google.com/maps/place/Amtala+Phari+Jama+Masjid/data=!4m7!3m6!1s0x3a02784b50e00c63:0x188f33fe250d9632!8m2!3d22.564036!4d88.299622!16s%2Fg%2F11csrg4dxw!19sChIJYwzgUEt4AjoRMpYNJf4zjxg?authuser=0&hl=en&rclk=1,"22.564035999999998,88.299622"
Unsani Puraton Jame Masjid,Mosque,"H7Q3+2GV Unsani Puraton Jame Masjid, Kamrangu, Andul, Howrah, West Bengal 711302","Kamrangu, Andul",H7Q3+2GV,Howrah,711302,West Bengal,IN,https://www.google.com/maps/place/Unsani+Puraton+Jame+Masjid/data=!4m7!3m6!1s0x3a0278b6e5196759:0x67b34f45d9dd3a74!8m2!3d22.5904164!4d88.2529391!16s%2Fg%2F1q69r72pq!19sChIJWWcZ5bZ4AjoRdDrd2UVPs2c?authuser=0&hl=en&rclk=1,"22.5904164,88.25293909999999"
Dharsa Jame Masjid,Mosque,"J72R+4H7 Dharsa Jame Masjid, Dharsa, Balitikuri, Howrah, West Bengal 711113","Dharsa, Balitikuri",J72R+4H7,Howrah,711113,West Bengal,IN,https://www.google.com/maps/place/Dharsa+Jame+Masjid/data=!4m7!3m6!1s0x3a02787b3e74f75f:0x87dc84cf1bfa7c1a!8m2!3d22.600291!4d88.2914127!16s%2Fg%2F11f50j4m40!19sChIJX_d0Pnt4AjoRGnz6G8-E3Ic?authuser=0&hl=en&rclk=1,"22.600291,88.2914127"
Munshidanga Laskar Para Bara Masjid,Mosque,"J729+XHP Munshidanga Laskar Para Bara Masjid, Munshidanga, Bankra, Howrah, Nibra, West Bengal 711409","Munshidanga, Bankra",J729+XHP,"Howrah, Nibra",711409,West Bengal,IN,https://www.google.com/maps/place/Munshidanga+Laskar+Para+Bara+Masjid/data=!4m7!3m6!1s0x3a0278a3c9555555:0x84bbbdeda0b82126!8m2!3d22.6024529!4d88.2689593!16s%2Fg%2F11c1ny23d7!19sChIJVVVVyaN4AjoRJiG4oO29u4Q?authuser=0&hl=en&rclk=1,"22.6024529,88.26895929999999"
1 No Moukhali Madina Masjid,Mosque,"1 No Moukhali Madina Masjid, K/22, Santragachi, Howrah, West Bengal 711302",Santragachi,K/22,Howrah,711302,West Bengal,IN,https://www.google.com/maps/place/1+No+Moukhali+Madina+Masjid/data=!4m7!3m6!1s0x3a0278f2e44c0bcb:0x5ad4dfabd2aa625b!8m2!3d22.584861!4d88.2773057!16s%2Fg%2F11bwrvr9v9!19sChIJywtM5PJ4AjoRW2Kq0qvf1Fo?authuser=0&hl=en&rclk=1,"22.584861,88.2773057"
Garpa Masjid msjd,Mosque,"H7R6+5MR Garpa Masjid msjd, Unsani Rd, Kamrangu, garpa musalmanpara, Howrah, West Bengal 711302","Kamrangu, garpa musalmanpara","H7R6+5MR, Unsani Rd",Howrah,711302,West Bengal,IN,https://www.google.com/maps/place/Garpa+Masjid+%D9%85%D8%B3%D8%AC%D8%AF%E2%80%AD/data=!4m7!3m6!1s0x3a0278bec35a9303:0x3d0bad83a800f940!8m2!3d22.5904795!4d88.2616538!16s%2Fg%2F11bw4zs4ln!19sChIJA5Naw754AjoRQPkAqIOtCz0?authuser=0&hl=en&rclk=1,"22.5904795,88.26165379999999"
Bankra Madina Masjid msjd,Mosque,"J73F+RWH Bankra Madina Masjid msjd, Bankra, Howrah, West Bengal 711403",Bankra,J73F+RWH,Howrah,711403,West Bengal,IN,https://www.google.com/maps/place/Bankra+Madina+Masjid+%D9%85%D8%B3%D8%AC%D8%AF%E2%80%AD/data=!4m7!3m6!1s0x3a02789b564dbc7b:0x28341c478bded7f4!8m2!3d22.6045547!4d88.2748491!16s%2Fg%2F11g5_ffw2q!19sChIJe7xNVpt4AjoR9Nfei0ccNCg?authuser=0&hl=en&rclk=1,"22.604554699999998,88.2748491"
Malipara Masjid,Mosque,"Malipara Masjid, 48/1, S Buxarah Ln, Shibpur, Howrah, West Bengal 711109",Shibpur,"48/1, S Buxarah Ln",Howrah,711109,West Bengal,IN,https://www.google.com/maps/place/Malipara+Masjid/data=!4m7!3m6!1s0x3a027855b047224d:0x84b8c57a32d2e1d0!8m2!3d22.5668994!4d88.2869789!16s%2Fg%2F11cs60cz0z!19sChIJTSJHsFV4AjoR0OHSMnrFuIQ?authuser=0&hl=en&rclk=1,"22.5668994,88.2869789"
"Munshidanga Sardar Para jame Masjid,",Mosque,"J729+9VH Munshidanga Sardar Para jame Masjid,, Unnamed Road, Bankra, Howrah, Nibra, West Bengal 711403",Bankra,"J729+9VH, Unnamed Road","Howrah, Nibra",711403,West Bengal,IN,"https://www.google.com/maps/place/Munshidanga+Sardar+Para+jame+Masjid,/data=!4m7!3m6!1s0x3a0278999aece777:0x33b96bcb4cadf411!8m2!3d22.6009324!4d88.2697397!16s%2Fg%2F11c1wwwtdw!19sChIJd-fsmpl4AjoREfStTMtruTM?authuser=0&hl=en&rclk=1","22.600932399999998,88.2697397"
HIL-FUL-FAZAL MASJID,Mosque,"H7XF+F5R HIL-FUL-FAZAL MASJID, Bankra, Nibra, West Bengal 711403",Bankra,H7XF+F5R,Nibra,711403,West Bengal,IN,https://www.google.com/maps/place/HIL-FUL-FAZAL+MASJID/data=!4m7!3m6!1s0x3a02789a800948a7:0x1388aaed9b76e282!8m2!3d22.5987453!4d88.2728887!16s%2Fg%2F11cs4hh2b9!19sChIJp0gJgJp4AjoRguJ2m-2qiBM?authuser=0&hl=en&rclk=1,"22.598745299999997,88.2728887"
Munshidanga Gazi Para Notun Masjid,Mosque,"J738+PMG Munshidanga Gazi Para Notun Masjid, Bankra, Nibra, West Bengal 711409",Bankra,J738+PMG,Nibra,,West Bengal,IN,https://www.google.com/maps/place/Munshidanga+Gazi+Para+Notun+Masjid/data=!4m7!3m6!1s0x3a027898b5db1ca9:0xc5b8173b85651bdd!8m2!3d22.6043011!4d88.2666967!16s%2Fg%2F11f38f0hqy!19sChIJqRzbtZh4AjoR3RtlhTsXuMU?authuser=0&hl=en&rclk=1,"22.6043011,88.2666967"
Khan Para Jama Masjid,Mosque,"J76J+MGG Khan Para Jama Masjid, Bankra Khan Para, Kona, Howrah, West Bengal 711403","Bankra Khan Para, Kona",J76J+MGG,Howrah,711403,West Bengal,IN,https://www.google.com/maps/place/Khan+Para+Jama+Masjid/data=!4m7!3m6!1s0x39f88278a953ce53:0x35f562b01fd2e220!8m2!3d22.611344!4d88.2799748!16s%2Fg%2F11clylymzx!19sChIJU85TqXiC-DkRIOLSH7Bi9TU?authuser=0&hl=en&rclk=1,"22.611344,88.27997479999999"
Unsani Majher Para Jame Masjid,Mosque,"H7W5+4F3 Unsani Majher Para Jame Masjid, 711302, Unsani Rd, Majher Para, Kamrangu, Andul, Howrah, West Bengal 711302","Majher Para, Kamrangu, Andul","H7W5+4F3, 711302, Unsani Rd",Howrah,711302,West Bengal,IN,https://www.google.com/maps/place/Unsani+Majher+Para+Jame+Masjid/data=!4m7!3m6!1s0x3a0278bbcccf2541:0x4effc511bce8a16c!8m2!3d22.593651!4d88.2583783!16s%2Fg%2F11g690wm29!19sChIJQSXPzLt4AjoRbKHovBHF_04?authuser=0&hl=en&rclk=1,"22.593650999999998,88.25837829999999"
Ankurhati Uttar Para Mosjid,Mosque,"J66X+Q7J Ankurhati Uttar Para Mosjid, Ankurhati, Howrah, West Bengal 711409",Ankurhati,J66X+Q7J,Howrah,711409,West Bengal,IN,https://www.google.com/maps/place/Ankurhati+Uttar+Para+Mosjid/data=!4m7!3m6!1s0x39f882005db64d67:0xffa9114a054db2c0!8m2!3d22.6119558!4d88.24815!16s%2Fg%2F11bwl3tqw6!19sChIJZ022XQCC-DkRwLJNBUoRqf8?authuser=0&hl=en&rclk=1,"22.6119558,88.24815"
Ankurhati Boro Masjid,Mosque,"J66W+69V Ankurhati Boro Masjid, Ankurhati, Howrah, West Bengal 711409",Ankurhati,J66W+69V,Howrah,711409,West Bengal,IN,https://www.google.com/maps/place/Ankurhati+Boro+Masjid/data=!4m7!3m6!1s0x39f881fffedd5317:0xd36eca5c6ccb9274!8m2!3d22.6106218!4d88.2459213!16s%2Fg%2F11cr_gdk2p!19sChIJF1Pd_v-B-DkRdJLLbFzKbtM?authuser=0&hl=en&rclk=1,"22.6106218,88.24592129999999"
Balitikuri Jumma Masjid,Mosque,"J74R+5H5 Balitikuri Jumma Masjid, Balitikuri, Howrah, West Bengal 711113",Balitikuri,J74R+5H5,Howrah,711113,West Bengal,IN,https://www.google.com/maps/place/Balitikuri+Jumma+Masjid/data=!4m7!3m6!1s0x3a027879643176fd:0xe762e0d2aed10848!8m2!3d22.6053951!4d88.2914728!16s%2Fg%2F11dxd1knt8!19sChIJ_XYxZHl4AjoRSAjRrtLgYuc?authuser=0&hl=en&rclk=1,"22.6053951,88.2914728"
Panch Para Ahle Hadees Masjid,Mosque,"Panch Para Ahle Hadees Masjid, Duillya, Howrah, West Bengal 711109",Duillya,,Howrah,711109,West Bengal,IN,https://www.google.com/maps/place/Panch+Para+Ahle+Hadees+Masjid/data=!4m7!3m6!1s0x3a0278df933395a5:0x1d344f3e9c4f89df!8m2!3d22.5638766!4d88.2643657!16s%2Fg%2F11cltjpn8j!19sChIJpZUzk994AjoR34lPnD5PNB0?authuser=0&hl=en&rclk=1,"22.5638766,88.2643657"
Panchpara Jame Masjid,Mosque,"H784+QVJ Panchpara Jame Masjid, Duillya, Howrah, West Bengal 711317",Duillya,H784+QVJ,Howrah,711317,West Bengal,IN,https://www.google.com/maps/place/Panchpara+Jame+Masjid/data=!4m7!3m6!1s0x3a0278d9bf4421c7:0x2c0ee834ad93f0bd!8m2!3d22.5669625!4d88.2571406!16s%2Fg%2F11bztgxfwr!19sChIJxyFEv9l4AjoRvfCTrTToDiw?authuser=0&hl=en&rclk=1,"22.5669625,88.2571406"
Ghausia Masjid Nayi Basti Kabar para Bankra,Mosque,"J76C+GMJ Ghausia Masjid Nayi Basti Kabar para Bankra, Bankra, Howrah, West Bengal 711403",Bankra,J76C+GMJ,Howrah,711403,West Bengal,IN,https://www.google.com/maps/place/Ghausia+Masjid+Nayi+Basti+Kabar+para+Bankra/data=!4m7!3m6!1s0x39f883759ee8af57:0x94a4736b11da578a!8m2!3d22.6113442!4d88.2716472!16s%2Fg%2F11f775bk_l!19sChIJV6_onnWD-DkRilfaEWtzpJQ?authuser=0&hl=en&rclk=1,"22.611344199999998,88.27164719999999"
Mouri Halder Para Masjid msjd,Mosque,"Mouri Halder Para Masjid msjd, Kamrangu, Andul, Mahiari, West Bengal 711302","Kamrangu, Andul",,Mahiari,711302,West Bengal,IN,https://www.google.com/maps/place/Mouri+Halder+Para+Masjid+%D9%85%D8%B3%D8%AC%D8%AF%E2%80%AD/data=!4m7!3m6!1s0x3a0278b18798e737:0x368339e2ea764183!8m2!3d22.5960132!4d88.251048!16s%2Fg%2F11d_9g1_qw!19sChIJN-eYh7F4AjoRg0F26uI5gzY?authuser=0&hl=en&rclk=1,"22.596013199999998,88.251048"
Prasastha Jame Masjid,Mosque,"J63W+Q2W Prasastha Jame Masjid, Andul Makardah Rd, Kamrangu, Andul, Prasastha, Howrah, West Bengal 711302","Kamrangu, Andul","J63W+Q2W, Andul Makardah Rd","Prasastha, Howrah",711302,West Bengal,IN,https://www.google.com/maps/place/Prasastha+Jame+Masjid/data=!4m7!3m6!1s0x3a027f54a0c6ec2f:0x237c0c8199f7a857!8m2!3d22.6044763!4d88.2450661!16s%2Fg%2F11c5hkbf20!19sChIJL-zGoFR_AjoRV6j3mYEMfCM?authuser=0&hl=en&rclk=1,"22.604476299999998,88.2450661"
DAXIN NIBRA JAMMA MASZID,Mosque,"J743+4WC DAXIN NIBRA JAMMA MASZID, Kamrangu, Andul, Nibra, West Bengal 711302","Kamrangu, Andul",J743+4WC,Nibra,711302,West Bengal,IN,https://www.google.com/maps/place/DAXIN+NIBRA+JAMMA+MASZID/data=!4m7!3m6!1s0x3a0278a8b8487f3d:0x6e3ce3bed78ce0b!8m2!3d22.6053189!4d88.2547503!16s%2Fg%2F11dxdzdhcr!19sChIJPX9IuKh4AjoRC8547TvO4wY?authuser=0&hl=en&rclk=1,"22.6053189,88.2547503"
Baitul aman zame masjid,Mosque,"H7W9+HJ2 Baitul aman zame masjid, Bankra, Nibra, West Bengal 711403",Bankra,H7W9+HJ2,Nibra,711403,West Bengal,IN,https://www.google.com/maps/place/Baitul+aman+zame+masjid/data=!4m7!3m6!1s0x3a02789719e823b7:0xa05bcc79f192bd6!8m2!3d22.5963791!4d88.2690039!16s%2Fg%2F11c0xpxkdn!19sChIJtyPoGZd4AjoR1isZn8e8BQo?authuser=0&hl=en&rclk=1,"22.5963791,88.2690039"
Munshi Para Jama Masjid,Mosque,"H5RP+37M Munshi Para Jama Masjid, Dhulagori, Dhulagari, West Bengal 711302",Dhulagori,H5RP+37M,Dhulagari,711302,West Bengal,IN,https://www.google.com/maps/place/Munshi+Para+Jama+Masjid/data=!4m7!3m6!1s0x3a027fc67dfdaab1:0xbe0ca884273a626b!8m2!3d22.5902066!4d88.1856657!16s%2Fg%2F11gjt6gc3s!19sChIJsar9fcZ_AjoRa2I6J4SoDL4?authuser=0&hl=en&rclk=1,"22.5902066,88.1856657"
Maccam E Alahie Masjid,Mosque,"H7R2+6C8 Maccam E Alahie Masjid, Kamrangu, Andul, Howrah, West Bengal 711302","Kamrangu, Andul",H7R2+6C8,Howrah,711302,West Bengal,IN,https://www.google.com/maps/place/Maccam+E+Alahie+Masjid/data=!4m7!3m6!1s0x3a0278b69dbbcb1b:0x8918f192c5db3d96!8m2!3d22.5905328!4d88.2510898!16s%2Fg%2F1q69jdzrn!19sChIJG8u7nbZ4AjoRlj3bxZLxGIk?authuser=0&hl=en&rclk=1,"22.5905328,88.2510898"
Shaikh Para Jama Masjid,Mosque,"J742+6MF Shaikh Para Jama Masjid, Kamrangu, Andul, Nibra, West Bengal 711302","Kamrangu, Andul",J742+6MF,Nibra,,West Bengal,IN,https://www.google.com/maps/place/Shaikh+Para+Jama+Masjid/data=!4m7!3m6!1s0x3a0278a9436047fd:0xac262b6544b9cb81!8m2!3d22.6055604!4d88.2516772!16s%2Fg%2F11gdl0fvs3!19sChIJ_UdgQ6l4AjoRgcu5RGUrJqw?authuser=0&hl=en&rclk=1,"22.605560399999998,88.25167719999999"
Noori Masjid,Mosque,"H77F+8FH Noori Masjid, Podara, Mourigram, Howrah, West Bengal 711109","Podara, Mourigram",H77F+8FH,Howrah,711109,West Bengal,IN,https://www.google.com/maps/place/Noori+Masjid/data=!4m7!3m6!1s0x3a0278e29c0e7219:0x5263e79d2d02c2cf!8m2!3d22.5633038!4d88.2737393!16s%2Fg%2F11c6yff5qr!19sChIJGXIOnOJ4AjoRz8ICLZ3nY1I?authuser=0&hl=en&rclk=1,"22.5633038,88.2737393"
Muhammadi Masjid mHmdy msjd,Mosque,"J73P+QF9 Muhammadi Masjid mHmdy msjd, Bankra, Howrah, West Bengal 711113",Bankra,J73P+QF9,Howrah,,West Bengal,IN,https://www.google.com/maps/place/Muhammadi+Masjid+%D9%85%D8%AD%D9%85%D8%AF%DB%8C+%D9%85%D8%B3%D8%AC%D8%AF%E2%80%AD/data=!4m7!3m6!1s0x3a02787de75048fd:0x864d82dc704bd9a4!8m2!3d22.6044009!4d88.286226!16s%2Fg%2F11g8vmt3d9!19sChIJ_UhQ5314AjoRpNlLcNyCTYY?authuser=0&hl=en&rclk=1,"22.604400899999998,88.286226"
Baniara Jamia masjid,Mosque,"J645+245 Baniara Jamia masjid, Sankharidaha Lichutala, Domjur, Baniara, Sankharidaha, West Bengal 711411","Sankharidaha Lichutala, Domjur",J645+245,"Baniara, Sankharidaha",711411,West Bengal,IN,https://www.google.com/maps/place/Baniara+Jamia+masjid/data=!4m7!3m6!1s0x3a027f466f8a826b:0xa37e69e04b61b46!8m2!3d22.60501!4d88.2078733!16s%2Fg%2F11h70rx397!19sChIJa4KKb0Z_AjoRRhu2BJ7mNwo?authuser=0&hl=en&rclk=1,"22.60501,88.2078733"
Masjide Baitul Mamur,Mosque,"Masjide Baitul Mamur, 711302, Majher Para, Kamrangu, Andul, Howrah, West Bengal 711302","Majher Para, Kamrangu, Andul",711302,Howrah,711302,West Bengal,IN,https://www.google.com/maps/place/Masjide+Baitul+Mamur/data=!4m7!3m6!1s0x3a0278b0d2a00b23:0xa8757a13bda28ed0!8m2!3d22.592651!4d88.25403!16s%2Fg%2F11f123rl_2!19sChIJIwug0rB4AjoR0I6ivRN6dag?authuser=0&hl=en&rclk=1,"22.592651,88.25403"
Madrasha Para Jame Masjid,Mosque,"H78C+287 Madrasha Para Jame Masjid, Panchpara, Mourigram, Howrah, West Bengal 711109","Panchpara, Mourigram",H78C+287,Howrah,711109,West Bengal,IN,https://www.google.com/maps/place/Madrasha+Para+Jame+Masjid/data=!4m7!3m6!1s0x3a0279a3db6e1a43:0x21c517f7ea217a2a!8m2!3d22.5650404!4d88.2708035!16s%2Fg%2F11gj3qrgdk!19sChIJQxpu26N5AjoRKnoh6vcXxSE?authuser=0&hl=en&rclk=1,"22.565040399999997,88.2708035"
Chakraberia Jumma Masjid ckrbedd'iy'aa jummaa msjid,Mosque,"Chakraberia Jumma Masjid ckrbedd'iy'aa jummaa msjid, 139, MB Rd, Chakra Beriya, Shibpur, Howrah, West Bengal 711104","Chakra Beriya, Shibpur","139, MB Rd",Howrah,711104,West Bengal,IN,https://www.google.com/maps/place/Chakraberia+Jumma+Masjid+%E0%A6%9A%E0%A6%95%E0%A7%8D%E0%A6%B0%E0%A6%AC%E0%A7%87%E0%A6%A1%E0%A6%BC%E0%A6%BF%E0%A6%AF%E0%A6%BC%E0%A6%BE+%E0%A6%9C%E0%A7%81%E0%A6%AE%E0%A7%8D%E0%A6%AE%E0%A6%BE+%E0%A6%AE%E0%A6%B8%E0%A6%9C%E0%A6%BF%E0%A6%A6/data=!4m7!3m6!1s0x3a02792545d3bb09:0xc59856f18a97b4b2!8m2!3d22.5841736!4d88.3079337!16s%2Fg%2F11h2jv7d5s!19sChIJCbvTRSV5AjoRsrSXivFWmMU?authuser=0&hl=en&rclk=1,"22.5841736,88.30793369999999"
Ankurhati Danga Para Masjid,Mosque,"J67V+37X Ankurhati Danga Para Masjid, Ankurhati, Howrah, West Bengal 711302",Ankurhati,J67V+37X,Howrah,711302,West Bengal,IN,https://www.google.com/maps/place/Ankurhati+Danga+Para+Masjid/data=!4m7!3m6!1s0x39f881fe50fdd189:0x4e1a031fbb8251bf!8m2!3d22.612749!4d88.2432198!16s%2Fg%2F11gflyn0bf!19sChIJidH9UP6B-DkRv1GCux8DGk4?authuser=0&hl=en&rclk=1,"22.612748999999997,88.24321979999999"
Qadri Jame Masjid,Mosque,"Qadri Jame Masjid, Maqbool Mohalla, Birju Nala Rd, Badartala, Kolkata, West Bengal 700044",Badartala,"Maqbool Mohalla, Birju Nala Rd",Kolkata,700044,West Bengal,IN,https://www.google.com/maps/place/Qadri+Jame+Masjid/data=!4m7!3m6!1s0x3a02792412cca2ed:0x895a72e60ffd4554!8m2!3d22.5555229!4d88.2600975!16s%2Fg%2F11b723bckc!19sChIJ7aLMEiR5AjoRVEX9D-ZyWok?authuser=0&hl=en&rclk=1,"22.5555229,88.2600975"
KATLIA MOSZID,Mosque,"J773+X44 KATLIA MOSZID, Ankurhati, Howrah, West Bengal 711409",Ankurhati,J773+X44,Howrah,711409,West Bengal,IN,https://www.google.com/maps/place/KATLIA+MOSZID/data=!4m7!3m6!1s0x39f88356027f35b1:0x5a62249e6e6600c5!8m2!3d22.6148782!4d88.2528333!16s%2Fg%2F11gj71lt41!19sChIJsTV_AlaD-DkRxQBmbp4kYlo?authuser=0&hl=en&rclk=1,"22.6148782,88.25283329999999"
Unsani Darul Aman Masjid msjd,Mosque,"Unsani Darul Aman Masjid msjd, 727, Unsani Rd, Kamrangu, Andul, Howrah, West Bengal 711302","Kamrangu, Andul","727, Unsani Rd",Howrah,711302,West Bengal,IN,https://www.google.com/maps/place/Unsani+Darul+Aman+Masjid+%D9%85%D8%B3%D8%AC%D8%AF%E2%80%AD/data=!4m7!3m6!1s0x3a0278b43127372f:0x64ccf743b57bc715!8m2!3d22.5901186!4d88.2501775!16s%2Fg%2F11c6014zf0!19sChIJLzcnMbR4AjoRFcd7tUP3zGQ?authuser=0&hl=en&rclk=1,"22.5901186,88.25017749999999"
Kristorampur Jame Masjid,Mosque,"J66R+JFM Kristorampur Jame Masjid, kristorampur, Howrah, West Bengal 711409",kristorampur,J66R+JFM,Howrah,711409,West Bengal,IN,https://www.google.com/maps/place/Kristorampur+Jame+Masjid/data=!4m7!3m6!1s0x39f881fde04a9f71:0x120b433208c258c8!8m2!3d22.61159!4d88.2411736!16s%2Fg%2F11hdc2z_n4!19sChIJcZ9K4P2B-DkRyFjCCDJDCxI?authuser=0&hl=en&rclk=1,"22.61159,88.2411736"
Masjid a Baitur Rehman,Mosque,"H7P4+R4F Masjid a Baitur Rehman, Kamrangu, Andul, Howrah, West Bengal 711302","Kamrangu, Andul",H7P4+R4F,Howrah,711302,West Bengal,IN,https://www.google.com/maps/place/Masjid+a+Baitur+Rehman/data=!4m7!3m6!1s0x3a0278b7fb488257:0xf729605a03e1284a!8m2!3d22.587072!4d88.2552823!16s%2Fg%2F11cp7fffgh!19sChIJV4JI-7d4AjoRSijhA1pgKfc?authuser=0&hl=en&rclk=1,"22.587072,88.25528229999999"
NIBRA PURATON MASJID,Mosque,"NIBRA PURATON MASJID, Nibra, masjid para, Howrah, West Bengal 711409","Kamrangu, masjid para",Nibra,"Howrah, Nibra",711409,West Bengal,IN,https://www.google.com/maps/place/NIBRA+PURATON+MASJID/data=!4m7!3m6!1s0x3a0278a5f3c9de65:0x3dc3d0a3b30ba4e0!8m2!3d22.6032725!4d88.2563406!16s%2Fg%2F11g9jmn_lq!19sChIJZd7J86V4AjoR4KQLs6PQwz0?authuser=0&hl=en&rclk=1,"22.6032725,88.2563406"
Ramchandrapur Mullick Para Masjid,Mosque,"H67C+HJP Ramchandrapur Mullick Para Masjid, Ramchandrapur, Sankrail, Howrah, West Bengal 711313","Ramchandrapur, Sankrail",H67C+HJP,Howrah,711313,West Bengal,IN,https://www.google.com/maps/place/Ramchandrapur+Mullick+Para+Masjid/data=!4m7!3m6!1s0x3a027f1dde3a265d:0x655cea6a142704ee!8m2!3d22.5639636!4d88.2215764!16s%2Fg%2F11c5fyk56s!19sChIJXSY63h1_AjoR7gQnFGrqXGU?authuser=0&hl=en&rclk=1,"22.563963599999997,88.22157639999999"
Podrah Chunavati Boro Masjid,Mosque,"Podrah Chunavati Boro Masjid, Mullick Para Ln, Chunavati, Panchpara, Duillya, Howrah, West Bengal 711109","Chunavati, Panchpara, Duillya",Mullick Para Ln,Howrah,711109,West Bengal,IN,https://www.google.com/maps/place/Podrah+Chunavati+Boro+Masjid/data=!4m7!3m6!1s0x3a027976661b476d:0x8e83eb757e377d0f!8m2!3d22.5655933!4d88.2669413!16s%2Fg%2F11hhfc1fjz!19sChIJbUcbZnZ5AjoRD303fnXrg44?authuser=0&hl=en&rclk=1,"22.5655933,88.2669413"
1 No Moukhali Railway Masjid,Mosque,"H7MG+J2W 1 No Moukhali Railway Masjid, Santragachi, Howrah, West Bengal 711109",Santragachi,H7MG+J2W,Howrah,711109,West Bengal,IN,https://www.google.com/maps/place/1+No+Moukhali+Railway+Masjid/data=!4m7!3m6!1s0x3a0278ed7eea98dd:0xd3f3d0a2ef8b327e!8m2!3d22.5841103!4d88.2750878!16s%2Fg%2F11hd1mhc08!19sChIJ3Zjqfu14AjoRfjKL76LQ89M?authuser=0&hl=en&rclk=1,"22.5841103,88.2750878"
JOLA NOTUN MASJID,Mosque,"JOLA NOTUN MASJID, Unnamed Road, Ankurhati, Howrah, West Bengal 711409",Ankurhati,Unnamed Road,Howrah,711409,West Bengal,IN,https://www.google.com/maps/place/JOLA+NOTUN+MASJID/data=!4m7!3m6!1s0x39f883bf9844da01:0xa918450d3c0cf9ae!8m2!3d22.613784!4d88.2463721!16s%2Fg%2F11f9zc557f!19sChIJAdpEmL-D-DkRrvkMPA1FGKk?authuser=0&hl=en&rclk=1,"22.613784,88.2463721"
Dakshin Kolorah Maddha Para Jama Masjid (Green Masjid),Mosque,"H5XQ+827 Dakshin Kolorah Maddha Para Jama Masjid (Green Masjid), Natibpur, West Bengal 711302",,H5XQ+827,Natibpur,711302,West Bengal,IN,https://www.google.com/maps/place/Dakshin+Kolorah+Maddha+Para+Jama+Masjid+%28Green+Masjid%29/data=!4m7!3m6!1s0x3a027ff2acf0a6eb:0xc7f8d99c776608ef!8m2!3d22.5982834!4d88.1875375!16s%2Fg%2F11f24wy8xc!19sChIJ66bwrPJ_AjoR7whmd5zZ-Mc?authuser=0&hl=en&rclk=1,"22.5982834,88.18753749999999"
Makka Masjid .Unsani Laskar Para.,Mosque,"Makka Masjid .Unsani Laskar Para., Kamrangu, Andul, Howrah, West Bengal unsani laskar, Howrah, West Bengal 711302","Kamrangu, Andul","Kamrangu, Andul, Howrah, West Bengal unsani laskar",Howrah,711302,West Bengal,IN,https://www.google.com/maps/place/Makka+Masjid+.Unsani+Laskar+Para./data=!4m7!3m6!1s0x3a027982f99dc1d7:0x4d61a2575050704d!8m2!3d22.592325!4d88.2532769!16s%2Fg%2F11h1m5dkbf!19sChIJ18Gd-YJ5AjoRTXBQUFeiYU0?authuser=0&hl=en&rclk=1,"22.592325,88.2532769"
Ankurhati Gazi Para Jama Masjid,Mosque,"Ankurhati Gazi Para Jama Masjid, Ankurhati, Howrah, West Bengal 711302",Ankurhati,,Howrah,711302,West Bengal,IN,https://www.google.com/maps/place/Ankurhati+Gazi+Para+Jama+Masjid/data=!4m7!3m6!1s0x3a027f8cc2d1f821:0x2e5cfe5e90941eb1!8m2!3d22.6085745!4d88.2459392!16s%2Fg%2F11fqd7dfd4!19sChIJIfjRwox_AjoRsR6UkF7-XC4?authuser=0&hl=en&rclk=1,"22.6085745,88.2459392"
Mashila Jame Masjid,Mosque,"H6GH+6JW Mashila Jame Masjid, Andul, Masila, West Bengal 711302",Andul,H6GH+6JW,Masila,,West Bengal,IN,https://www.google.com/maps/place/Mashila+Jame+Masjid/data=!4m7!3m6!1s0x3a027f7b58931b59:0xae1d876a3eb63b0d!8m2!3d22.575614!4d88.2290819!16s%2Fg%2F11gnrvzvn2!19sChIJWRuTWHt_AjoRDTu2PmqHHa4?authuser=0&hl=en&rclk=1,"22.575613999999998,88.2290819"
Jangalpur masjid,Mosque,"H6RG+JP3 Jangalpur masjid, Unnamed Road, Kamrangu, Andul, Howrah, Jangalpur, West Bengal 711302","Kamrangu, Andul","H6RG+JP3, Unnamed Road","Howrah, Jangalpur",711302,West Bengal,IN,https://www.google.com/maps/place/Jangalpur+masjid/data=!4m7!3m6!1s0x3a027f8d94eef9fb:0xac162edd4e12adc7!8m2!3d22.5915169!4d88.226785!16s%2Fg%2F11fm4r23f7!19sChIJ-_nulI1_AjoRx60STt0uFqw?authuser=0&hl=en&rclk=1,"22.5915169,88.22678499999999"
Mouri sk Para Masjid msjd,Mosque,"H7W2+W66 Mouri sk Para Masjid msjd, Kamrangu, Andul, Mahiari, West Bengal 711302","Kamrangu, Andul",H7W2+W66,Mahiari,711302,West Bengal,IN,https://www.google.com/maps/place/Mouri+sk+Para+Masjid+%D9%85%D8%B3%D8%AC%D8%AF%E2%80%AD/data=!4m7!3m6!1s0x3a0279e78da47bab:0x3c0afd3e47486e04!8m2!3d22.5972969!4d88.2505211!16s%2Fg%2F11fjvzy7t8!19sChIJq3ukjed5AjoRBG5IRz79Cjw?authuser=0&hl=en&rclk=1,"22.5972969,88.2505211"
Argori jumma Masjid,Mosque,"H6PG+XGM Argori jumma Masjid, Argori,, Andul, Howrah, West Bengal 711302","Kamrangu, Andul","H6PG+XGM, Argori,","Howrah, Argari",711302,West Bengal,IN,https://www.google.com/maps/place/Argori+jumma+Masjid/data=!4m7!3m6!1s0x3a027f6db4aec45f:0x5b37ea37bc75f312!8m2!3d22.5874623!4d88.2262961!16s%2Fg%2F11q2tl6qzn!19sChIJX8SutG1_AjoREvN1vDfqN1s?authuser=0&hl=en&rclk=1,"22.5874623,88.2262961"
MASZID -E-GARIB NAWAZ,Mosque,"J733+GV8 MASZID -E-GARIB NAWAZ, Kamrangu, Andul, Nibra, West Bengal 711302","Kamrangu, Andul",J733+GV8,Nibra,711302,West Bengal,IN,https://www.google.com/maps/place/MASZID+-E-GARIB+NAWAZ/data=!4m7!3m6!1s0x3a0278af4810a59b:0xcda86a55b8543a27!8m2!3d22.6037856!4d88.2546946!16s%2Fg%2F11g8cg02c8!19sChIJm6UQSK94AjoRJzpUuFVqqM0?authuser=0&hl=en&rclk=1,"22.6037856,88.2546946"
Prasastha Baitul Aman Jame Masjid,Mosque,"J62W+652 Prasastha Baitul Aman Jame Masjid, Andul Makardah Rd, Kamrangu, Domjur, Prasastha, Howrah, West Bengal 711302","Kamrangu, Domjur","J62W+652, Andul Makardah Rd","Prasastha, Howrah",711302,West Bengal,IN,https://www.google.com/maps/place/Prasastha+Baitul+Aman+Jame+Masjid/data=!4m7!3m6!1s0x3a027fd4952be7ed:0xdb4154f18da43774!8m2!3d22.6005196!4d88.2453855!16s%2Fg%2F11qg9vbf8z!19sChIJ7ecrldR_AjoRdDekjfFUQds?authuser=0&hl=en&rclk=1,"22.6005196,88.2453855"
Masjid,Mosque,"H66F+HWG Masjid, Ramchandrapur, Sankrail, Howrah, West Bengal 711313","Ramchandrapur, Sankrail",H66F+HWG,Howrah,711313,West Bengal,IN,https://www.google.com/maps/place/Masjid/data=!4m7!3m6!1s0x3a027ee03a764fb3:0x709ec3c83cb2728b!8m2!3d22.5614498!4d88.2248239!16s%2Fg%2F11g8737s3t!19sChIJs092OuB-AjoRi3KyPMjDnnA?authuser=0&hl=en&rclk=1,"22.5614498,88.22482389999999"
1 no moukhali GARIB NAWAZ MASJID,Mosque,"H7PG+266 1 no moukhali GARIB NAWAZ MASJID, Santragachi, Howrah, West Bengal 711109",Santragachi,H7PG+266,Howrah,711109,West Bengal,IN,https://www.google.com/maps/place/1+no+moukhali+GARIB+NAWAZ+MASJID/data=!4m7!3m6!1s0x3a02799a3b1cdf19:0x5c63f69ed192f440!8m2!3d22.5850276!4d88.2755172!16s%2Fg%2F11g0hkshx1!19sChIJGd8cO5p5AjoRQPSS0Z72Y1w?authuser=0&hl=en&rclk=1,"22.5850276,88.2755172"
Bankra kabar para jame masjid,Mosque,"J75F+XVM Bankra kabar para jame masjid, Kabar, Swami Vivekananda Rd, Bankra, Howrah, West Bengal 711403",Bankra,"J75F+XVM, Kabar, Swami Vivekananda Rd",Howrah,711403,West Bengal,IN,https://www.google.com/maps/place/Bankra+kabar+para+jame+masjid/data=!4m7!3m6!1s0x3a0279a7a2aea16d:0xdc2f618d8e4bcaa0!8m2!3d22.609953!4d88.2746687!16s%2Fg%2F11h2qm4gbz!19sChIJbaGuoqd5AjoRoMpLjo1hL9w?authuser=0&hl=en&rclk=1,"22.609952999999997,88.27466869999999"
Argori mirday para jama masjid aargorrii middepaarraa jaamaa msjid,Mosque,"H6PJ+JMP Argori mirday para jama masjid aargorrii middepaarraa jaamaa msjid, Kamrangu, Andul, Argari, West Bengal 711302","Kamrangu, Andul",H6PJ+JMP,Argari,711302,West Bengal,IN,https://www.google.com/maps/place/Argori+mirday+para+jama+masjid+%E0%A6%86%E0%A6%B0%E0%A6%97%E0%A7%8B%E0%A7%9C%E0%A7%80+%E0%A6%AE%E0%A6%BF%E0%A6%A6%E0%A7%8D%E0%A6%A6%E0%A7%87%E0%A6%AA%E0%A6%BE%E0%A7%9C%E0%A6%BE+%E0%A6%9C%E0%A6%BE%E0%A6%AE%E0%A6%BE+%E0%A6%AE%E0%A6%B8%E0%A6%9C%E0%A6%BF%E0%A6%A6/data=!4m7!3m6!1s0x3a027f863e64e2c7:0x169f62350be44a93!8m2!3d22.5865977!4d88.2317133!16s%2Fg%2F11r9vpf3gh!19sChIJx-JkPoZ_AjoRk0rkCzVinxY?authuser=0&hl=en&rclk=1,"22.5865977,88.2317133"
Masjid E Aaishah maasjid i aayyishaah,Mosque,"Masjid E Aaishah maasjid i aayyishaah, 108, Kamrangu, Andul, Howrah, Argari, West Bengal 711302","Kamrangu, Andul",108,"Howrah, Argari",711302,West Bengal,IN,https://www.google.com/maps/place/Masjid+E+Aaishah+%E0%A6%AE%E0%A6%BE%E0%A6%B8%E0%A6%9C%E0%A6%BF%E0%A6%A6+%E0%A6%87+%E0%A6%86%E0%A7%9F%E0%A6%BF%E0%A6%B6%E0%A6%BE%E0%A6%B9%E0%A7%8D/data=!4m7!3m6!1s0x3a027f7c4b93bc65:0xc67c5f3561a5513a!8m2!3d22.5888949!4d88.223924!16s%2Fg%2F11s5mxk25t!19sChIJZbyTS3x_AjoROlGlYTVffMY?authuser=0&hl=en&rclk=1,"22.5888949,88.223924"
MASJID-E-NOOR MUNSHI DANGA SHEK PARA,Mosque,"J739+85G MASJID-E-NOOR MUNSHI DANGA SHEK PARA, Bankra, Howrah, Nibra, West Bengal 711403",Bankra,J739+85G,"Howrah, Nibra",711403,West Bengal,IN,https://www.google.com/maps/place/MASJID-E-NOOR+MUNSHI+DANGA+SHEK+PARA/data=!4m7!3m6!1s0x3a0279101e633517:0xe447f7796403d78b!8m2!3d22.6032693!4d88.2680883!16s%2Fg%2F11smfy2_81!19sChIJFzVjHhB5AjoRi9cDZHn3R-Q?authuser=0&hl=en&rclk=1,"22.603269299999997,88.2680883"
LAL MASJID,Mosque,"LAL MASJID, Panch para mollapara lalmasjid sankril, Howrah, West Bengal 711317",Duillya,Panch para mollapara lalmasjid sankril,Howrah,711317,West Bengal,IN,https://www.google.com/maps/place/LAL+MASJID/data=!4m7!3m6!1s0x3a02794f22fb4fd5:0x5b372a680167a6d5!8m2!3d22.5665571!4d88.2545957!16s%2Fg%2F11j_swg_4y!19sChIJ1U_7Ik95AjoR1aZnAWgqN1s?authuser=0&hl=en&rclk=1,"22.5665571,88.2545957"
Millatnagar Masjid,Mosque,"Millatnagar Masjid, C/194, Chunavati, Mallickpara, Panchpara, Duillya, Howrah, West Bengal 711109","Chunavati, Mallickpara, Panchpara, Duillya",C/194,Howrah,711109,West Bengal,IN,https://www.google.com/maps/place/Millatnagar+Masjid/data=!4m7!3m6!1s0x3a027975607e4cab:0x5d4973b69cab2109!8m2!3d22.565964!4d88.26524!16s%2Fg%2F11jr5qljkb!19sChIJq0x-YHV5AjoRCSGrnLZzSV0?authuser=0&hl=en&rclk=1,"22.565963999999997,88.26523999999999"
NIBRA EIDGAH,Mosque,"J734+H48 NIBRA EIDGAH, Kamrangu, Bandel, Howrah, Nibra, West Bengal 711302","Kamrangu, Bandel",J734+H48,"Howrah, Nibra",711302,West Bengal,IN,https://www.google.com/maps/place/NIBRA+EIDGAH/data=!4m7!3m6!1s0x3a0278af504d2763:0x3de148e9f9ec3093!8m2!3d22.6039237!4d88.2553246!16s%2Fg%2F11g8vpt61q!19sChIJYydNUK94AjoRkzDs-elI4T0?authuser=0&hl=en&rclk=1,"22.6039237,88.2553246"
Mukarrama Masjid Argor,Mosque,"Mukarrama Masjid Argor, 146, Kamrangu, Andul, Howrah, Jangalpur, West Bengal 711302","Kamrangu, Andul",146,"Howrah, Jangalpur",711302,West Bengal,IN,https://www.google.com/maps/place/Mukarrama+Masjid+Argor/data=!4m7!3m6!1s0x3a027f07f63f672b:0x8097fdc08170fb77!8m2!3d22.589974!4d88.2262844!16s%2Fg%2F11nms8wt8m!19sChIJK2c_9gd_AjoRd_twgcD9l4A?authuser=0&hl=en&rclk=1,"22.589973999999998,88.2262844"
MASJID E BILAL,Mosque,"MASJID E BILAL, Kamrangu, Andul, Argari, West Bengal 711302","Kamrangu, Andul",,Argari,711302,West Bengal,IN,https://www.google.com/maps/place/MASJID+E+BILAL/data=!4m7!3m6!1s0x3a027f85555764cf:0x5ea16d0c6bfa0fbd!8m2!3d22.5882118!4d88.2229032!16s%2Fg%2F11tcw105s3!19sChIJz2RXVYV_AjoRvQ_6awxtoV4?authuser=0&hl=en&rclk=1,"22.5882118,88.22290319999999"
mosque msjd,Mosque,"H66C+QP3 mosque msjd, Ramchandrapur, Sankrail, Howrah, West Bengal 711313","Ramchandrapur, Sankrail",H66C+QP3,Howrah,711313,West Bengal,IN,https://www.google.com/maps/place/mosque+%D9%85%D8%B3%D8%AC%D8%AF%E2%80%AD/data=!4m7!3m6!1s0x3a027ee1f883cdd5:0x964d9dd58d2d9268!8m2!3d22.561876!4d88.221784!16s%2Fg%2F11c7v_km90!19sChIJ1c2D-OF-AjoRaJItjdWdTZY?authuser=0&hl=en&rclk=1,"22.561875999999998,88.221784"
Daptarypara Jumma Masjid msjd,Mosque,"H65G+CRG Daptarypara Jumma Masjid msjd, Sankrail, Howrah, West Bengal 711313",Sankrail,H65G+CRG,Howrah,711313,West Bengal,IN,https://www.google.com/maps/place/Daptarypara+Jumma+Masjid+%D9%85%D8%B3%D8%AC%D8%AF%E2%80%AD/data=!4m7!3m6!1s0x3a027ede24552ecd:0xe702c4b4d8aa1fca!8m2!3d22.5585542!4d88.2270917!16s%2Fg%2F11g6ml00qr!19sChIJzS5VJN5-AjoRyh-q2LTEAuc?authuser=0&hl=en&rclk=1,"22.5585542,88.2270917"
Podrah New Jame Masjid,Mosque,"H78C+286 Podrah New Jame Masjid, Panchpara, Mourigram, Howrah, West Bengal 711109","Panchpara, Mourigram",H78C+286,Howrah,711109,West Bengal,IN,https://www.google.com/maps/place/Podrah+New+Jame+Masjid/data=!4m7!3m6!1s0x3a027969ae9a072d:0x9c9ffa58b765db90!8m2!3d22.5650926!4d88.2707988!16s%2Fg%2F11rtqw86lg!19sChIJLQearml5AjoRkNtlt1j6n5w?authuser=0&hl=en&rclk=1,"22.5650926,88.2707988"
Jolar Bari Jumma Mosjid,Mosque,"H6CC+VXG Jolar Bari Jumma Mosjid, Mashila Sahid Math, Ramchandrapur, Sankrail, Masila, West Bengal 711302","Ramchandrapur, Sankrail","H6CC+VXG, Mashila Sahid Math",Masila,711302,West Bengal,IN,https://www.google.com/maps/place/Jolar+Bari+Jumma+Mosjid/data=!4m7!3m6!1s0x3a027f0700e74361:0x670484788c146f72!8m2!3d22.5721826!4d88.2224391!16s%2Fg%2F11jsqv6rsm!19sChIJYUPnAAd_AjoRcm8UjHiEBGc?authuser=0&hl=en&rclk=1,"22.572182599999998,88.2224391"
Pathorghata Jumma Masjid,Mosque,"H6CG+WWF Pathorghata Jumma Masjid, Ramchandrapur, Sankrail, Masila, West Bengal 711302","Ramchandrapur, Sankrail",H6CG+WWF,Masila,,West Bengal,IN,https://www.google.com/maps/place/Pathorghata+Jumma+Masjid/data=!4m7!3m6!1s0x3a027f250312c78d:0xa34076da9f773c27!8m2!3d22.5723055!4d88.2272974!16s%2Fg%2F11j48jqpq9!19sChIJjccSAyV_AjoRJzx3n9p2QKM?authuser=0&hl=en&rclk=1,"22.5723055,88.2272974"
msjid e kubaa,Mosque,"J737+93W msjid e kubaa, Munshidanga, Bankra, Howrah, Nibra, West Bengal 711403","Munshidanga, Bankra",J737+93W,"Howrah, Nibra",711403,West Bengal,IN,https://www.google.com/maps/place/%E0%A6%AE%E0%A6%B8%E0%A6%9C%E0%A6%BF%E0%A6%A6+%E0%A6%8F+%E0%A6%95%E0%A7%81%E0%A6%AC%E0%A6%BE/data=!4m7!3m6!1s0x3a027962df4e7529:0xb7978cb97b41a6c5!8m2!3d22.6034935!4d88.2626986!16s%2Fg%2F11h4f0kk9s!19sChIJKXVO32J5AjoRxaZBe7mMl7c?authuser=0&hl=en&rclk=1,"22.6034935,88.2626986"
Biprannapara Jama Masjid,Mosque,"J6C9+522 Biprannapara Jama Masjid, Begri, Domjur, Howrah, West Bengal 711411","Begri, Domjur",J6C9+522,Howrah,711411,West Bengal,IN,https://www.google.com/maps/place/Biprannapara+Jama+Masjid/data=!4m7!3m6!1s0x39f8818064680cf1:0xa314cc0d9be7a9ab!8m2!3d22.6210357!4d88.2177603!16s%2Fg%2F11sq_9_8_j!19sChIJ8QxoZICB-DkRq6nnmw3MFKM?authuser=0&hl=en&rclk=1,"22.6210357,88.2177603"
Al ohud jame masjid,Mosque,"Al ohud jame masjid, Begri, Domjur, Bhandardaha, Howrah, West Bengal 711411","Begri, Domjur",,"Bhandardaha, Howrah",711411,West Bengal,IN,https://www.google.com/maps/place/Al+ohud+jame+masjid/data=!4m7!3m6!1s0x39f881387c227861:0x6ac510c9acd76f51!8m2!3d22.6209883!4d88.2212574!16s%2Fg%2F11s55ssgk0!19sChIJYXgifDiB-DkRUW_XrMkQxWo?authuser=0&hl=en&rclk=1,"22.6209883,88.2212574"
Shankharidaha boro Masjid,Mosque,"J643+53 Shankharidaha boro Masjid, Sankharidaha Lichutala, Domjur, Howrah, Kesabpur, West Bengal 711411","Sankharidaha Lichutala, Domjur",J643+53,"Howrah, Kesabpur",,West Bengal,IN,https://www.google.com/maps/place/Shankharidaha+boro+Masjid/data=!4m7!3m6!1s0x3a027fd9162efa49:0x37cd2883095638a4!8m2!3d22.6054334!4d88.2027721!16s%2Fg%2F11rd_8vk6g!19sChIJSfouFtl_AjoRpDhWCYMozTc?authuser=0&hl=en&rclk=1,"22.6054334,88.20277209999999"
Iztema masjid,Mosque,"J726+XQ7 Iztema masjid, Unnamed Road, Munshidanga, Bankra, Howrah, Nibra, West Bengal 711409","Munshidanga, Bankra","J726+XQ7, Unnamed Road","Howrah, Nibra",711409,West Bengal,IN,https://www.google.com/maps/place/Iztema+masjid/data=!4m7!3m6!1s0x3a0279e55fcd226b:0xd6ba8b6d30147f9f!8m2!3d22.6024181!4d88.2619299!16s%2Fg%2F11p14ly27_!19sChIJayLNX-V5AjoRn38UMG2LutY?authuser=0&hl=en&rclk=1,"22.602418099999998,88.2619299"
Argori Naya Masjid,Mosque,"Argori Naya Masjid, Tarafdar para, Kamrangu, Andul, Argari, Jangalpur, West Bengal 711302","Kamrangu, Andul",Tarafdar para,"Argari, Jangalpur",711302,West Bengal,IN,https://www.google.com/maps/place/Argori+Naya+Masjid/data=!4m7!3m6!1s0x3a027f377cbbd46d:0x53b59b4d2a512934!8m2!3d22.5890658!4d88.2275697!16s%2Fg%2F11khz7_bxm!19sChIJbdS7fDd_AjoRNClRKk2btVM?authuser=0&hl=en&rclk=1,"22.5890658,88.22756969999999"
Masjid-e-firdous,Mosque,"H6QJ+WJJ Masjid-e-firdous, Lichu Bgan, Borkon Tola, Andul, Argari, Kamrangu, Andul, Howrah, West Bengal 711302","Kamrangu, Andul","H6QJ+WJJ, Lichu Bgan, Borkon Tola, Andul, Argari","Howrah, Argari",711302,West Bengal,IN,https://www.google.com/maps/place/Masjid-e-firdous/data=!4m7!3m6!1s0x3a027f4d46ea9067:0xd609fe7903b83a69!8m2!3d22.5898396!4d88.2315176!16s%2Fg%2F11t_tsf4vr!19sChIJZ5DqRk1_AjoRaTq4A3n-CdY?authuser=0&hl=en&rclk=1,"22.589839599999998,88.23151759999999"
Mohammadi Masjid,Mosque,"Mohammadi Masjid, Unnamed Road, Duillya, Howrah, West Bengal 711109",Duillya,Unnamed Road,Howrah,711109,West Bengal,IN,https://www.google.com/maps/place/Mohammadi+Masjid/data=!4m7!3m6!1s0x3a027903f627e8c9:0x532dc2ff75c4deb9!8m2!3d22.5692349!4d88.2569242!16s%2Fg%2F11rbt4xx4h!19sChIJyegn9gN5AjoRud7Edf_CLVM?authuser=0&hl=en&rclk=1,"22.569234899999998,88.2569242"
Ankurhati haat masjid,Mosque,"Ankurhati haat masjid, check, post, near Ankurhati, Ankurhati, Howrah, West Bengal 711302",Ankurhati,"check, post, near Ankurhati",Howrah,,West Bengal,IN,https://www.google.com/maps/place/Ankurhati+haat+masjid/data=!4m7!3m6!1s0x39f883c6524b24dd:0x7e03d3e7216ce8da!8m2!3d22.6133398!4d88.2485521!16s%2Fg%2F11l6j74ww7!19sChIJ3SRLUsaD-DkR2uhsIefTA34?authuser=0&hl=en&rclk=1,"22.6133398,88.2485521"
Bankra Natun Para Ahelihadis jame masjid,Mosque,"J73C+QW7 Bankra Natun Para Ahelihadis jame masjid, Bankra, Howrah, West Bengal 711403",Bankra,J73C+QW7,Howrah,711403,West Bengal,IN,https://www.google.com/maps/place/Bankra+Natun+Para+Ahelihadis+jame+masjid/data=!4m7!3m6!1s0x3a0279cbd81317db:0xa97e642786708500!8m2!3d22.6044375!4d88.2723006!16s%2Fg%2F11vdh2vrkk!19sChIJ2xcT2Mt5AjoRAIVwhidkfqk?authuser=0&hl=en&rclk=1,"22.6044375,88.2723006"
MASJID-E-UMAR MUNSHIDANGA LASKAR PARA,Mosque,"J73C+Q49 MASJID-E-UMAR MUNSHIDANGA LASKAR PARA, Bankra, Nibra, West Bengal 711403",Bankra,J73C+Q49,Nibra,,West Bengal,IN,https://www.google.com/maps/place/MASJID-E-UMAR+MUNSHIDANGA+LASKAR+PARA/data=!4m7!3m6!1s0x3a0279608eeef475:0xadf160dafba2c108!8m2!3d22.6044046!4d88.2703467!16s%2Fg%2F11vcwfk3ck!19sChIJdfTujmB5AjoRCMGi-9pg8a0?authuser=0&hl=en&rclk=1,"22.6044046,88.27034669999999"
Munshidanga sk para ahle hadis jame mosjid,Mosque,"H7W7+8CQ Munshidanga sk para ahle hadis jame mosjid, Notun bari, Munshidanga, Bankra, Howrah, West Bengal 711409","Munshidanga, Bura Bazar, Bankra","H7W7+8CQ, Notun bari",Howrah,711409,West Bengal,IN,https://www.google.com/maps/place/Munshidanga+sk+para+ahle+hadis+jame+mosjid/data=!4m7!3m6!1s0x3a0279b06f0195b7:0x6aeebfa8648877e2!8m2!3d22.5958412!4d88.2636204!16s%2Fg%2F11pzrjysjz!19sChIJt5UBb7B5AjoR4neIZKi_7mo?authuser=0&hl=en&rclk=1,"22.5958412,88.2636204"
Saikat Mondal,Mosque,"Saikat Mondal, Sanaidar Para Masjid, Bankra, Muragachha, Nibra, West Bengal 711403",Bankra,Sanaidar Para Masjid,"Muragachha, Nibra",,West Bengal,IN,https://www.google.com/maps/place/Saikat+Mondal/data=!4m7!3m6!1s0x3a0279c20bc18697:0x8599b87dd9b5d6!8m2!3d22.6009324!4d88.2697397!16s%2Fg%2F11rdjt6gwv!19sChIJl4bBC8J5AjoR1rXZfbiZhQA?authuser=0&hl=en&rclk=1,"22.600932399999998,88.2697397"
Zumma Masjid jummaa msjid kaattliy'aa ntun paadd'aa,Mosque,"J67V+VW Zumma Masjid jummaa msjid kaattliy'aa ntun paadd'aa, Ankurhati, Howrah, West Bengal 711409",Ankurhati,J67V+VW,Howrah,711409,West Bengal,IN,https://www.google.com/maps/place/Zumma+Masjid+%E0%A6%9C%E0%A7%81%E0%A6%AE%E0%A7%8D%E0%A6%AE%E0%A6%BE+%E0%A6%AE%E0%A6%B8%E0%A6%9C%E0%A6%BF%E0%A6%A6+%E0%A6%95%E0%A6%BE%E0%A6%9F%E0%A6%B2%E0%A6%BF%E0%A6%AF%E0%A6%BC%E0%A6%BE+%E0%A6%A8%E0%A6%A4%E0%A7%81%E0%A6%A8+%E0%A6%AA%E0%A6%BE%E0%A6%A1%E0%A6%BC%E0%A6%BE/data=!4m7!3m6!1s0x39f8815d20884f23:0xe41a8eb34ee4fd6c!8m2!3d22.6146609!4d88.2448202!16s%2Fg%2F11s2q0mms9!19sChIJI0-IIF2B-DkRbP3kTrOOGuQ?authuser=0&hl=en&rclk=1,"22.6146609,88.24482019999999"
