name,main_category,address,address_ward,address_street,address_city,address_postal_code,address_state,address_country_code,link,coordinates
Memon Masjid,Mosque,"Memon Masjid, z, Siddharth Nagar, Lonavala, Maharashtra 410401",Siddharth Nagar,z,Lonavala,410401,Maharashtra,IN,https://www.google.com/maps/place/Memon+Masjid/data=!4m7!3m6!1s0x3be80111f2049367:0xa352e0f08132d0fc!8m2!3d18.749591!4d73.4051856!16s%2Fg%2F11bwrrckwl!19sChIJZ5ME8hEB6DsR_NAygfDgUqM?authuser=0&hl=en&rclk=1,"18.749591,73.4051856"
Sunni Minar masjid,Mosque,"PCX4+4FP Sunni Minar masjid, Siddharth Nagar, Lonavala, Maharashtra 410401",Siddharth Nagar,PCX4+4FP,Lonavala,410401,Maharashtra,IN,https://www.google.com/maps/place/Sunni+Minar+masjid/data=!4m7!3m6!1s0x3be801120f0436a1:0x17e5bd654d3b489f!8m2!3d18.7478263!4d73.4062018!16s%2Fg%2F11bzq00cnk!19sChIJoTYEDxIB6DsRn0g7TWW95Rc?authuser=0&hl=en&rclk=1,"18.7478263,73.40620179999999"
Hazrat Qasim Shah Vali (RH),Mosque,"QC23+732 Hazrat Qasim Shah Vali (RH), Thombrewadi, Lonavala, Maharashtra 410401",Thombrewadi,QC23+732,Lonavala,410401,Maharashtra,IN,https://www.google.com/maps/place/Hazrat+Qasim+Shah+Vali+%28RH%29/data=!4m7!3m6!1s0x3be801110fee010d:0x4e8857e464dfb686!8m2!3d18.7506477!4d73.4026453!16s%2Fg%2F11clzv9s8_!19sChIJDQHuDxEB6DsRhrbfZORXiE4?authuser=0&hl=en&rclk=1,"18.7506477,73.4026453"
Valvan Masjid,Mosque,"Valvan Masjid, house no 295, plot no 9B Valvan",Valvan,"house no 295, plot no 9B Valvan",Lonavala,,Maharashtra,IN,https://www.google.com/maps/place/Valvan+Masjid/data=!4m7!3m6!1s0x3be801a8c0000001:0xc6fe3a4d85910e0a!8m2!3d18.7587245!4d73.4215882!16s%2Fg%2F11bt_k1gqm!19sChIJAQAAwKgB6DsRCg6RhU06_sY?authuser=0&hl=en&rclk=1,"18.7587245,73.4215882"
Kusgaon Masjid,Mosque,"PCRF+WJ6 Kusgaon Masjid, Aundhe Road,, Bhangarwadi, Lonavala, Maharashtra 410401",Bhangarwadi,"PCRF+WJ6, Aundhe Road,","Lonavala, Kusgaon Budruk",410401,Maharashtra,IN,https://www.google.com/maps/place/Kusgaon+Masjid/data=!4m7!3m6!1s0x3be80198d31355bb:0xf021243e21c309ab!8m2!3d18.7422939!4d73.4240299!16s%2Fg%2F11clkvtwt0!19sChIJu1UT05gB6DsRqwnDIT4kIfA?authuser=0&hl=en&rclk=1,"18.7422939,73.4240299"
Sunni Jama Masjid,Mosque,"Q94F+HMM Sunni Jama Masjid, Khandala, Lonavala, Kune N.m., Maharashtra 410301",Khandala,Q94F+HMM,"Lonavala, Kune N.m.",,Maharashtra,IN,https://www.google.com/maps/place/Sunni+Jama+Masjid/data=!4m7!3m6!1s0x3be8012c033b6bdb:0x3eb8812aca7bec26!8m2!3d18.7564625!4d73.3741638!16s%2Fg%2F11bw4hf7bt!19sChIJ22s7AywB6DsRJux7yiqBuD4?authuser=0&hl=en&rclk=1,"18.756462499999998,73.37416379999999"
Rehbar Ibadatga Masjid,Mosque,"QC63+4QP Rehbar Ibadatga Masjid, Tungarli, Lonavala, Maharashtra 410403",Tungarli,QC63+4QP,Lonavala,410403,Maharashtra,IN,https://www.google.com/maps/place/Rehbar+Ibadatga+Masjid/data=!4m7!3m6!1s0x3be8011c9e6fbeed:0xb528f5d7522ff392!8m2!3d18.7603378!4d73.4044453!16s%2Fg%2F11fy1c_hmg!19sChIJ7b5vnhwB6DsRkvMvUtf1KLU?authuser=0&hl=en&rclk=1,"18.7603378,73.40444529999999"
Usmaniya Masjid,Mosque,"QC5M+92J Usmaniya Masjid, Old Mumbai - Pune Hwy, Next to Khatri farm, Varsoli, Lonavala, Maharashtra 410401",Varsoli,"QC5M+92J, Old Mumbai - Pune Hwy, Next to Khatri farm",Lonavala,410401,Maharashtra,IN,https://www.google.com/maps/place/Usmaniya+Masjid/data=!4m7!3m6!1s0x3be80108feb2e345:0x2a848222fbb4a0fb!8m2!3d18.7584719!4d73.4325264!16s%2Fg%2F11fd50cr88!19sChIJReOy_ggB6DsR-6C0-yKChCo?authuser=0&hl=en&rclk=1,"18.7584719,73.4325264"
Eidgah Masjid,Mosque,"PCX3+X5M Eidgah Masjid, Gaothan Rd, Thombrewadi, Lonavala, Maharashtra 410401",Thombrewadi,"PCX3+X5M, Gaothan Rd",Lonavala,410401,Maharashtra,IN,https://www.google.com/maps/place/Eidgah+Masjid/data=!4m7!3m6!1s0x3be80111735d07b7:0xc25e0ecb3d375a99!8m2!3d18.7499641!4d73.4029284!16s%2Fg%2F11cjtm_wtq!19sChIJtwddcxEB6DsRmVo3PcsOXsI?authuser=0&hl=en&rclk=1,"18.7499641,73.4029284"
Masjid khadijah,School,"QF63+GHJ Masjid khadijah, NH 48, Maval, Karandoli, Lonavala, Maharashtra 410405",Maval,"QF63+GHJ, NH 48","Karandoli, Lonavala",410405,Maharashtra,IN,https://www.google.com/maps/place/Masjid+khadijah/data=!4m7!3m6!1s0x3be8018d2a87bae7:0xa1b560121d9a89a5!8m2!3d18.7613441!4d73.453881!16s%2Fg%2F11hy9r0f37!19sChIJ57qHKo0B6DsRpYmaHRJgtaE?authuser=0&hl=en&rclk=1,"18.7613441,73.453881"
TUNGARLI MASJID,Mosque,"QC63+6W2 TUNGARLI MASJID, Tungarli, Lonavala, Maharashtra 410403",Tungarli,QC63+6W2,Lonavala,410403,Maharashtra,IN,https://www.google.com/maps/place/TUNGARLI+MASJID/data=!4m7!3m6!1s0x3be8011c9f732e31:0x44b4230a5ad40a1d!8m2!3d18.7605016!4d73.404751!16s%2Fg%2F11f5bthj17!19sChIJMS5znxwB6DsRHQrUWgojtEQ?authuser=0&hl=en&rclk=1,"18.760501599999998,73.40475099999999"
Imambada Masjid,Mosque,"PCW6+XCW Imambada Masjid, Gold Valley, Lonavala, Kusgaon Budruk, Maharashtra 410401",Gold Valley,PCW6+XCW,"Lonavala, Kusgaon Budruk",410401,Maharashtra,IN,https://www.google.com/maps/place/Imambada+Masjid/data=!4m7!3m6!1s0x3be80186b956014d:0x444343b779bde662!8m2!3d18.7474868!4d73.4110679!16s%2Fg%2F11h763jnrb!19sChIJTQFWuYYB6DsRYua9ebdDQ0Q?authuser=0&hl=en&rclk=1,"18.7474868,73.41106789999999"
Masjid,Mosque,"QF63+GCQ Masjid, near sidhachal, Maval, Lonavala, Maharashtra 410401",Maval,"QF63+GCQ, near sidhachal",Lonavala,,Maharashtra,IN,https://www.google.com/maps/place/Masjid/data=!4m7!3m6!1s0x3be801c5378ffc69:0x5a5d12f5a1883c86!8m2!3d18.7613299!4d73.4535988!16s%2Fg%2F11jz4b3fs9!19sChIJafyPN8UB6DsRhjyIofUSXVo?authuser=0&hl=en&rclk=1,"18.7613299,73.4535988"
Gausiya masjid,Mosque,"Q95G+87G Gausiya masjid, Khandala, makardhwaj, Kune N.m., Maharashtra 410301",Khandala,Q95G+87G,"makardhwaj, Kune N.m.",,Maharashtra,IN,https://www.google.com/maps/place/Gausiya+masjid/data=!4m7!3m6!1s0x3be801ef9a114455:0x7b1f43e2aa63485a!8m2!3d18.7583142!4d73.3757026!16s%2Fg%2F11tjgw1ptr!19sChIJVUQRmu8B6DsRWkhjquJDH3s?authuser=0&hl=en&rclk=1,"18.758314199999997,73.3757026"
Masjid needa enterprises,Mosque,"Q95Q+V8F Masjid needa enterprises, Old Khandala Rd, opp. police training school, St.Stanislaus Villa, Khandala, Lonavala, Kune N.m., Maharashtra 410401","St.Stanislaus Villa, Khandala","Q95Q+V8F, Old Khandala Rd, opp. police training school","Lonavala, Kune N.m.",410401,Maharashtra,IN,https://www.google.com/maps/place/Masjid+needa+enterprises/data=!4m7!3m6!1s0x3be801ac18609da9:0x20851ad0b9bc63b7!8m2!3d18.7596816!4d73.3882974!16s%2Fg%2F11l6zpbwsg!19sChIJqZ1gGKwB6DsRt2O8udAahSA?authuser=0&hl=en&rclk=1,"18.7596816,73.3882974"
"Hakimi Masjid, Lonavla",Mosque,"Hakimi Masjid, Lonavla, Crystal Complex, 8, MG Rd, next to BakerAlis, Siddharth Nagar, Lonavala, Maharashtra 410401",Siddharth Nagar,"Crystal Complex, 8, MG Rd, next to BakerAlis",Lonavala,410401,Maharashtra,IN,"https://www.google.com/maps/place/Hakimi+Masjid,+Lonavla/data=!4m7!3m6!1s0x3be801f117fec4eb:0xc0694490bc166605!8m2!3d18.7503503!4d73.4053477!16s%2Fg%2F11v19qxs89!19sChIJ68T-F_EB6DsRBWYWvJBEacA?authuser=0&hl=en&rclk=1","18.7503503,73.4053477"
Hakimi Masjid(Dawoodi Bohra Masjid),Mosque,"QC23+3XH Hakimi Masjid(Dawoodi Bohra Masjid), Siddharth Nagar, Lonavala, Maharashtra 410401",Siddharth Nagar,QC23+3XH,Lonavala,410401,Maharashtra,IN,https://www.google.com/maps/place/Hakimi+Masjid%28Dawoodi+Bohra+Masjid%29/data=!4m7!3m6!1s0x3be801315b7f7cbd:0x39202b7b4b79112e!8m2!3d18.7501328!4d73.4050824!16s%2Fg%2F11kbj2x_5p!19sChIJvXx_WzEB6DsRLhF5S3srIDk?authuser=0&hl=en&rclk=1,"18.7501328,73.4050824"
Shia Masjid,Mosque,"Q95H+7JV Shia Masjid, Ambience Villa, Khandala, Lonavala, Kune N.m., Maharashtra 412801","Ambience Villa, Khandala",Q95H+7JV,"Lonavala, Kune N.m.",412801,Maharashtra,IN,https://www.google.com/maps/place/Shia+Masjid/data=!4m7!3m6!1s0x3be8013363268c51:0x7100a10a9e416f46!8m2!3d18.7583146!4d73.3790417!16s%2Fg%2F11t222l_h4!19sChIJUYwmYzMB6DsRRm9BngqhAHE?authuser=0&hl=en&rclk=1,"18.7583146,73.3790417"
Darga,Mosque,"Q95V+9HV Darga, Arsiwalla Villa, Lonavala, Kune N.m., Maharashtra 410403",Arsiwalla Villa,Q95V+9HV,"Lonavala, Kune N.m.",410403,Maharashtra,IN,https://www.google.com/maps/place/Darga/data=!4m7!3m6!1s0x3be801b2ab4f50a7:0x7a0daf51edf7198!8m2!3d18.7584914!4d73.393923!16s%2Fg%2F11nxpydn5g!19sChIJp1BPq7IB6DsRmHHfHvXaoAc?authuser=0&hl=en&rclk=1,"18.7584914,73.393923"
Waksai,Mosque,"QF63+FGG Waksai, Maval, Lonavala, Maharashtra 410401",Maval,QF63+FGG,Lonavala,410401,Maharashtra,IN,https://www.google.com/maps/place/Waksai/data=!4m7!3m6!1s0x3be801ccdb292101:0x50b8abf4597b5109!8m2!3d18.7611916!4d73.4538354!16s%2Fg%2F11tg8zlnx3!19sChIJASEp28wB6DsRCVF7WfSruFA?authuser=0&hl=en&rclk=1,"18.7611916,73.4538354"
