name,main_category,address,address_ward,address_street,address_city,address_postal_code,address_state,address_country_code,link,coordinates
Ali Ibn Abu Talib Mosque,Mosque,"Ali Ibn Abu Talib Mosque, 12, Jagat Narayan Rd, Golaganj, Maulviganj, Wazirganj, Lucknow, Uttar Pradesh 226018","Golaganj, Maulviganj, Wazirganj","12, Jagat Narayan Rd",Lucknow,226018,Uttar Pradesh,IN,https://www.google.com/maps/place/Ali+Ibn+Abu+Talib+Mosque/data=!4m7!3m6!1s0x399bfdbe94e8f05f:0xfd729b353206a549!8m2!3d26.8538515!4d80.9249232!16s%2Fg%2F1tj50_q9!19sChIJX_DolL79mzkRSaUGMjWbcv0?authuser=0&hl=en&rclk=1,"26.853851499999998,80.9249232"
Wali Masjid,Mosque,"Wali Masjid, Lakshman Parsad Road, Lakshmanprasad Srivastava Rd, Wazirganj, Lucknow, Uttar Pradesh 226018",Wazirganj,"Lakshman Parsad Road, Lakshmanprasad Srivastava Rd",Lucknow,226018,Uttar Pradesh,IN,https://www.google.com/maps/place/Wali+Masjid/data=!4m7!3m6!1s0x399bfd4548485579:0x8b1238f619049c26!8m2!3d26.8562866!4d80.9206659!16s%2Fg%2F11g0km15k_!19sChIJeVVISEX9mzkRJpwEGfY4Eos?authuser=0&hl=en&rclk=1,"26.856286599999997,80.9206659"
Mohammadia Mosque ( Masjid ),Mosque,"VVJP+FWC Mohammadia Mosque ( Masjid ), c/o Hafiz Maqsood Alam , Misri Ki Bagia, Jal Nigam Rd, Near, Balaganj, Lucknow, Uttar Pradesh 226003","Near, Balaganj","VVJP+FWC, c/o Hafiz Maqsood Alam , Misri Ki Bagia, Jal Nigam Rd",Lucknow,226003,Uttar Pradesh,IN,https://www.google.com/maps/place/Mohammadia+Mosque+%28+Masjid+%29/data=!4m7!3m6!1s0x399955f788d64d87:0xcca3b54e9151c0e5!8m2!3d26.8811921!4d80.8872501!16s%2Fg%2F11b7q6m4p4!19sChIJh03WiPdVmTkR5cBRkU61o8w?authuser=0&hl=en&rclk=1,"26.8811921,80.8872501"
Lal Masjid,Mosque,"Lal Masjid, Golaganj, 157, Jagat Narayan Rd, Wazirganj, Lucknow, Uttar Pradesh 226018","Maulviganj, Wazirganj","Golaganj, 157, Jagat Narayan Rd",Lucknow,226018,Uttar Pradesh,IN,https://www.google.com/maps/place/Lal+Masjid/data=!4m7!3m6!1s0x399bfdbf0d64e989:0x42250b173f7e097e!8m2!3d26.8548608!4d80.9224767!16s%2Fg%2F12hk5jnws!19sChIJielkDb_9mzkRfgl-PxcLJUI?authuser=0&hl=en&rclk=1,"26.854860799999997,80.92247669999999"
Jama Masjid,Mosque,"VW48+CPM Jama Masjid, Mashakganj, Wazirganj, Lucknow, Uttar Pradesh 226018","Bagh Sher Jung, Wazirganj","VW48+CPM, Mashakganj",Lucknow,226018,Uttar Pradesh,IN,https://www.google.com/maps/place/Jama+Masjid/data=!4m7!3m6!1s0x399bfdc1c17737ed:0x13f00a3c6bffdc76!8m2!3d26.8560821!4d80.9167941!16s%2Fg%2F12qh8p0zp!19sChIJ7Td3wcH9mzkRdtz_azwK8BM?authuser=0&hl=en&rclk=1,"26.8560821,80.91679409999999"
Aminabad Masjid ( Shia),Mosque,"RWXG+X3J Aminabad Masjid ( Shia), Aminabada, ICICI Bank, Aminabad, Lucknow, Uttar Pradesh 226018","Kesar Bagh, Maulviganj, Wazirganj","RWXG+X3J, Aminabada, ICICI Bank, Aminabad",Lucknow,226018,Uttar Pradesh,IN,https://www.google.com/maps/place/Aminabad+Masjid+%28+Shia%29/data=!4m7!3m6!1s0x399bfdb90b47471b:0xa06b676c170a7ae8!8m2!3d26.8499575!4d80.9251511!16s%2Fg%2F1w15xvmy!19sChIJG0dHC7n9mzkR6HoKF2xna6A?authuser=0&hl=en&rclk=1,"26.8499575,80.9251511"
Masjid Anwar aakhoon zadah (Mosque),Mosque,"VW2F+GJ9 Masjid Anwar aakhoon zadah (Mosque), Haider Mirza Rd, Maulviganj, Wazirganj, Lucknow, Uttar Pradesh 226018","Maulviganj, Wazirganj","VW2F+GJ9, Haider Mirza Rd",Lucknow,226018,Uttar Pradesh,IN,https://www.google.com/maps/place/Masjid+Anwar+aakhoon+zadah+%28Mosque%29/data=!4m7!3m6!1s0x399bfd2fd3e3a293:0xe80bed67d0734788!8m2!3d26.8512793!4d80.9240993!16s%2Fg%2F11ghwq1yph!19sChIJk6Lj0y_9mzkRiEdz0GftC-g?authuser=0&hl=en&rclk=1,"26.851279299999998,80.9240993"
Masjid Khwas,Mosque,"RWXC+PWR Masjid Khwas, Gangaprasad Marg, Maulviganj, Aminabad, Lucknow, Uttar Pradesh 226018","Maulviganj, Aminabad","RWXC+PWR, Gangaprasad Marg",Lucknow,226018,Uttar Pradesh,IN,https://www.google.com/maps/place/Masjid+Khwas/data=!4m7!3m6!1s0x399bfdb8f4ea42e5:0x15b8dd8181d18486!8m2!3d26.84936!4d80.9222552!16s%2Fg%2F1th1b3c9!19sChIJ5ULq9Lj9mzkRhoTRgYHduBU?authuser=0&hl=en&rclk=1,"26.849359999999997,80.9222552"
Masjid Kareem Shah Chikmandi,Mosque,"Masjid Kareem Shah Chikmandi, 163,Mosque Abdul Kareem Shah, Chikmandi, Maulviganj, Wazirganj, Lucknow, Uttar Pradesh 226018","Maulviganj, Wazirganj","163,Mosque Abdul Kareem Shah, Chikmandi",Lucknow,226018,Uttar Pradesh,IN,https://www.google.com/maps/place/Masjid+Kareem+Shah+Chikmandi/data=!4m7!3m6!1s0x399bfd5045c4b217:0x5423bb86189eeb83!8m2!3d26.8524282!4d80.9216607!16s%2Fg%2F11h1_0m4yd!19sChIJF7LERVD9mzkRg-ueGIa7I1Q?authuser=0&hl=en&rclk=1,"26.8524282,80.92166069999999"
JAMA MASJID WAZIRGAJ,Mosque,"Q6XQ+R3V JAMA MASJID WAZIRGAJ, Bhareti, Bihar 805131",,Q6XQ+R3V,Bhareti,805131,Bihar,IN,https://www.google.com/maps/place/JAMA+MASJID+WAZIRGAJ/data=!4m7!3m6!1s0x39f3205c71783895:0x871118a7c8fdc473!8m2!3d24.7996041!4d85.237679!16s%2Fg%2F11gfh7k7z7!19sChIJlTh4cVwg8zkRc8T9yKcYEYc?authuser=0&hl=en&rclk=1,"24.7996041,85.237679"
Mohammadi masjid,Mosque,"VV7J+CWC Mohammadi masjid, Mozzam Nagar, Wazirbagh Mohallah, Lucknow, Uttar Pradesh 226003","Mozzam Nagar, Wazirbagh Mohallah",VV7J+CWC,Lucknow,226003,Uttar Pradesh,IN,https://www.google.com/maps/place/Mohammadi+masjid/data=!4m7!3m6!1s0x399bfe112c5b8a7f:0xd83aeee47998b25f!8m2!3d26.8635582!4d80.8822542!16s%2Fg%2F11gdlxt876!19sChIJf4pbLBH-mzkRX7KYeeTuOtg?authuser=0&hl=en&rclk=1,"26.8635582,80.88225419999999"
Hari Masjid daliganj,Mosque,"Hari Masjid daliganj, 498/55, Acharya Narendradev Marg, Kutubpur, Hasanganj, Lucknow, Uttar Pradesh 226007","Kutubpur, Hasanganj","498/55, Acharya Narendradev Marg",Lucknow,226007,Uttar Pradesh,IN,https://www.google.com/maps/place/Hari+Masjid+daliganj/data=!4m7!3m6!1s0x399bfd12b2fc89a5:0x91ffa4f5385a5b88!8m2!3d26.8717292!4d80.9305203!16s%2Fg%2F11kk1vh413!19sChIJpYn8shL9mzkRiFtaOPWk_5E?authuser=0&hl=en&rclk=1,"26.871729199999997,80.9305203"
Khajoor Wali Masjid,Mosque,"VW3F+W7P Khajoor Wali Masjid, Jagat Narayan Rd, Maulviganj, Wazirganj, Lucknow, Uttar Pradesh 226018","Maulviganj, Wazirganj","VW3F+W7P, Jagat Narayan Rd",Lucknow,226018,Uttar Pradesh,IN,https://www.google.com/maps/place/Khajoor+Wali+Masjid/data=!4m7!3m6!1s0x399bfdbf00a58e55:0xd0889d6de492cb02!8m2!3d26.8548444!4d80.9232147!16s%2Fg%2F11h0dqb2b!19sChIJVY6lAL_9mzkRAsuS5G2diNA?authuser=0&hl=en&rclk=1,"26.854844399999998,80.9232147"
Khajoor Wali Masjid,Mosque,"VV7P+4FV Khajoor Wali Masjid, Wazirbagh Mohallah, Lucknow, Uttar Pradesh 226003",Wazirbagh Mohallah,VV7P+4FV,Lucknow,226003,Uttar Pradesh,IN,https://www.google.com/maps/place/Khajoor+Wali+Masjid/data=!4m7!3m6!1s0x399bfe11bfffffff:0x300032b8633e325f!8m2!3d26.8628652!4d80.886172!16s%2Fg%2F11btwtcr0t!19sChIJ____vxH-mzkRXzI-Y7gyADA?authuser=0&hl=en&rclk=1,"26.862865199999998,80.886172"
Mosque,Mosque,"VW2G+M5W Mosque, Gwynne Rd, Maulviganj, Aminabad, Lucknow, Uttar Pradesh 226018","Maulviganj, Aminabad","VW2G+M5W, Gwynne Rd",Lucknow,226018,Uttar Pradesh,IN,https://www.google.com/maps/place/Mosque/data=!4m7!3m6!1s0x399bfdb94e59b071:0x2dfcd7462bbd4b13!8m2!3d26.8517255!4d80.9254535!16s%2Fg%2F12hkhbp_l!19sChIJcbBZTrn9mzkRE0u9K0bX_C0?authuser=0&hl=en&rclk=1,"26.851725499999997,80.9254535"
Masjid-e-Aisha,Mosque,"Masjid-e-Aisha, 12, Jagat Narayan Rd, Golaganj, Maulviganj, Wazirganj, Lucknow, Uttar Pradesh 226018","Golaganj, Maulviganj, Wazirganj","12, Jagat Narayan Rd",Lucknow,226018,Uttar Pradesh,IN,https://www.google.com/maps/place/Masjid-e-Aisha/data=!4m7!3m6!1s0x399bfdbea766d413:0xc4f96598c408bc26!8m2!3d26.8532749!4d80.9263041!16s%2Fg%2F11fx9mb0x_!19sChIJE9Rmp779mzkRJrwIxJhl-cQ?authuser=0&hl=en&rclk=1,"26.8532749,80.9263041"
Chilwar Wali Masjid (Masjid E Muavia),Mosque,"VV4Q+F5C Chilwar Wali Masjid (Masjid E Muavia), Saadatganj, Lucknow, Uttar Pradesh 226003",Saadatganj,VV4Q+F5C,Lucknow,226003,Uttar Pradesh,IN,https://www.google.com/maps/place/Chilwar+Wali+Masjid+%28Masjid+E+Muavia%29/data=!4m7!3m6!1s0x399bfe0d573178bb:0x7ac4e6d8d483c376!8m2!3d26.856182!4d80.8878766!16s%2Fg%2F11c5_c19_s!19sChIJu3gxVw3-mzkRdsOD1NjmxHo?authuser=0&hl=en&rclk=1,"26.856182,80.8878766"
Tazikhana Masjid,Mosque,"Tazikhana Masjid, tazikhana, 161/94, raod, Patthar Wali Gali, Astabal Charbagh, Mashak Ganj, Wazirganj, Lucknow, Uttar Pradesh 226018","Patthar Wali Gali, Astabal Charbagh, Mashak Ganj, Wazirganj","tazikhana, 161/94, raod",Lucknow,226018,Uttar Pradesh,IN,https://www.google.com/maps/place/Tazikhana+Masjid/data=!4m7!3m6!1s0x399bfd98b044fcfb:0xf7d68a2f08f184b3!8m2!3d26.8530363!4d80.9176886!16s%2Fg%2F11flbq022h!19sChIJ-_xEsJj9mzkRs4TxCC-K1vc?authuser=0&hl=en&rclk=1,"26.8530363,80.91768859999999"
Masjid jamiatul Quraish,Mosque,"VW2C+FP2 Masjid jamiatul Quraish, Chickmandi, Maulviganj, Wazirganj, Lucknow, Uttar Pradesh 226018","Maulviganj, Wazirganj","VW2C+FP2, Chickmandi",Lucknow,226018,Uttar Pradesh,IN,https://www.google.com/maps/place/Masjid+jamiatul+Quraish/data=!4m7!3m6!1s0x399bfd32d9414c5f:0xe05019756cade05c!8m2!3d26.8511411!4d80.9217726!16s%2Fg%2F11jcml8m5p!19sChIJX0xB2TL9mzkRXOCtbHUZUOA?authuser=0&hl=en&rclk=1,"26.8511411,80.9217726"
Gumbadi masjid,Mosque,"VW3C+PX5 Gumbadi masjid, Maulviganj, Wazirganj, Lucknow, Uttar Pradesh 226018","Maulviganj, Wazirganj",VW3C+PX5,Lucknow,226018,Uttar Pradesh,IN,https://www.google.com/maps/place/Gumbadi+masjid/data=!4m7!3m6!1s0x399bfdc8672dfeb1:0x43df5ad0f3ce6d6f!8m2!3d26.8542532!4d80.922473!16s%2Fg%2F11h77wwj9j!19sChIJsf4tZ8j9mzkRb23O89Ba30M?authuser=0&hl=en&rclk=1,"26.8542532,80.922473"
Ruhani Jama Masjid,Mosque,"W4PF+98W Ruhani Jama Masjid, Wazir Ganj, Uttar Pradesh 271129",,W4PF+98W,Wazir Ganj,271129,Uttar Pradesh,IN,https://www.google.com/maps/place/Ruhani+Jama+Masjid/data=!4m7!3m6!1s0x399a021c1d91a185:0xab0e8d4d0776df02!8m2!3d26.9359827!4d82.1233277!16s%2Fg%2F11c2j90pwv!19sChIJhaGRHRwCmjkRAt92B02NDqs?authuser=0&hl=en&rclk=1,"26.9359827,82.12332769999999"
Mulsare Mosque,Mosque,"VW3G+24M Mulsare Mosque, Gwynne Rd, Maulviganj, Aminabad, Lucknow, Uttar Pradesh 226018","Maulviganj, Aminabad","VW3G+24M, Gwynne Rd",Lucknow,226018,Uttar Pradesh,IN,https://www.google.com/maps/place/Mulsare+Mosque/data=!4m7!3m6!1s0x399bfdbeb157ff89:0x1f426f02149f60c2!8m2!3d26.8525921!4d80.9252847!16s%2Fg%2F12hnqgw9g!19sChIJif9Xsb79mzkRwmCfFAJvQh8?authuser=0&hl=en&rclk=1,"26.8525921,80.92528469999999"
Hari Masjid,Mosque,"VW3G+358 Hari Masjid, Barudkhana, Lal Masjid, Golaganj, Lucknow, Uttar Pradesh 226018","Maulviganj, Wazirganj","VW3G+358, Barudkhana, Lal Masjid, Golaganj",Lucknow,226018,Uttar Pradesh,IN,https://www.google.com/maps/place/Hari+Masjid/data=!4m7!3m6!1s0x399bfdbeb1747c7f:0x85f6080f29dcd3b3!8m2!3d26.8526743!4d80.9254578!16s%2Fg%2F1tftcq_m!19sChIJf3x0sb79mzkRs9PcKQ8I9oU?authuser=0&hl=en&rclk=1,"26.8526743,80.92545779999999"
Bilal Masjid,Mosque,"RWXF+JRQ Bilal Masjid, ICICI Bank, Maulviganj, Aminabad, Lucknow, Uttar Pradesh 226018","Maulviganj, Aminabad",RWXF+JRQ ICICI Bank,Lucknow,226018,Uttar Pradesh,IN,https://www.google.com/maps/place/Bilal+Masjid/data=!4m7!3m6!1s0x399bfdb9a119909d:0x95a3320bc40b8a93!8m2!3d26.8490869!4d80.9246161!16s%2Fg%2F1tds535k!19sChIJnZAZobn9mzkRk4oLxAsyo5U?authuser=0&hl=en&rclk=1,"26.8490869,80.9246161"
Chapakhana Masjid,Mosque,"VW38+2WF Chapakhana Masjid, Massaganj Dhal, Kundari Rakabganj, Lucknow, Uttar Pradesh 226018","Patthar Wali Gali, Astabal Charbagh, Kundari Rakabganj","VW38+2WF, Massaganj Dhal",Lucknow,226018,Uttar Pradesh,IN,https://www.google.com/maps/place/Chapakhana+Masjid/data=!4m7!3m6!1s0x399bfdc13ac8b523:0xedc92cd45f1ddb1e!8m2!3d26.8525547!4d80.9172898!16s%2Fg%2F12hkzlcd1!19sChIJI7XIOsH9mzkRHtsdX9Qsye0?authuser=0&hl=en&rclk=1,"26.8525547,80.91728979999999"
Jama Masjid,Mosque,"WCPG+WV5 Jama Masjid, Shahid peer ali khan Rd, Muslim Tola, Nardiganj, Bihar 805109",Muslim Tola,"WCPG+WV5, Shahid peer ali khan Rd",Nardiganj,805109,Bihar,IN,https://www.google.com/maps/place/Jama+Masjid/data=!4m7!3m6!1s0x39f2e4a588262d97:0xeaaeed1cb6f6c239!8m2!3d24.9372625!4d85.4272344!16s%2Fg%2F11dfgt9_hh!19sChIJly0miKXk8jkROcL2thztruo?authuser=0&hl=en&rclk=1,"24.9372625,85.4272344"
Masjid QUBA,Mosque,"VW49+V78 Masjid QUBA, Laxman Prasad Road, Near Buland Bagh, near City Railway Station, 226018",Wazirganj,"VW49+V78, Laxman Prasad Road, Near Buland Bagh, near City Railway Station",Lucknow,226018,Uttar Pradesh,IN,https://www.google.com/maps/place/Masjid+QUBA/data=!4m7!3m6!1s0x399bfd6d27abeef7:0xe48317a82a2709ba!8m2!3d26.8571619!4d80.9181918!16s%2Fg%2F11h2jv0j99!19sChIJ9-6rJ239mzkRugknKqgXg-Q?authuser=0&hl=en&rclk=1,"26.857161899999998,80.9181918"
Panditaien Ki Masjid,Mosque,"Panditaien Ki Masjid, Maulviganj, Wazirganj, Lucknow, Uttar Pradesh 226018","Maulviganj, Wazirganj",,Lucknow,226018,Uttar Pradesh,IN,https://www.google.com/maps/place/Panditaien+Ki+Masjid/data=!4m7!3m6!1s0x399bfdb9a6e706fd:0xe8af72f20f23aa51!8m2!3d26.8490308!4d80.9244803!16s%2Fg%2F126472863!19sChIJ_Qbnprn9mzkRUaojD_Jyr-g?authuser=0&hl=en&rclk=1,"26.849030799999998,80.9244803"
Masjid Raushan Ali,Mosque,"VW49+G5F Masjid Raushan Ali, Wazirganj, Lucknow, Uttar Pradesh 226018",Wazirganj,VW49+G5F,Lucknow,226018,Uttar Pradesh,IN,https://www.google.com/maps/place/Masjid+Raushan+Ali/data=!4m7!3m6!1s0x399bfd244d5c283f:0x7f32dd4e70634c8b!8m2!3d26.8563184!4d80.9179149!16s%2Fg%2F11fjy3ltqp!19sChIJPyhcTST9mzkRi0xjcE7dMn8?authuser=0&hl=en&rclk=1,"26.8563184,80.9179149"
Masjid Momsiri (Shia),Mosque,"Masjid Momsiri (Shia), 190/24, Lallumal Mandir Rd, Bagh Sher Jung, Wazirganj, Lucknow, Uttar Pradesh 226018","Bagh Sher Jung, Wazirganj","190/24, Lallumal Mandir Rd",Lucknow,226018,Uttar Pradesh,IN,https://www.google.com/maps/place/Masjid+Momsiri+%28Shia%29/data=!4m7!3m6!1s0x399bfdc1bcbe1abb:0x642afe1257e9ad3d!8m2!3d26.855416!4d80.916904!16s%2Fg%2F11gfnff66j!19sChIJuxq-vMH9mzkRPa3pVxL-KmQ?authuser=0&hl=en&rclk=1,"26.855415999999998,80.916904"
Aatuji Masjid (Shia),Mosque,"Aatuji Masjid (Shia), 145/2, Lakshman Prasad Shrivastav Rd, Maulviganj, Wazirganj, Lucknow, Uttar Pradesh 226018","Maulviganj, Wazirganj","145/2, Lakshman Prasad Shrivastav Rd",Lucknow,226018,Uttar Pradesh,IN,https://www.google.com/maps/place/Aatuji+Masjid+%28Shia%29/data=!4m7!3m6!1s0x399bfdbf8c314939:0xf44c8e822571c764!8m2!3d26.8560461!4d80.9213024!16s%2Fg%2F11hcw1tzm3!19sChIJOUkxjL_9mzkRZMdxJYKOTPQ?authuser=0&hl=en&rclk=1,"26.8560461,80.9213024"
Gazi Munne Khan Masjid,Mosque,"VW29+6W2 Gazi Munne Khan Masjid, Unnamed Road, Pandey Ganj, Wazirganj, Lucknow, Uttar Pradesh 226018","Pandey Ganj, Wazirganj","VW29+6W2, Unnamed Road",Lucknow,226018,Uttar Pradesh,IN,https://www.google.com/maps/place/Gazi+Munne+Khan+Masjid/data=!4m7!3m6!1s0x399bfd8cdf0c43c3:0xca289ad9b6a2e98d!8m2!3d26.8505226!4d80.9197811!16s%2Fg%2F11g2tppjgy!19sChIJw0MM34z9mzkRjemittmaKMo?authuser=0&hl=en&rclk=1,"26.850522599999998,80.9197811"
Masjid Hakeem Sardar Khan,Mosque,"193, Masjid Hakeem Sardar Khan, 105, Wazirganj, Lucknow, Uttar Pradesh 226018",Wazirganj,"193, 105",Lucknow,226018,Uttar Pradesh,IN,https://www.google.com/maps/place/Masjid+Hakeem+Sardar+Khan/data=!4m7!3m6!1s0x399bfdda1689f241:0xecccb9fb0939b2a4!8m2!3d26.8544996!4d80.9196162!16s%2Fg%2F11smgl2p4k!19sChIJQfKJFtr9mzkRpLI5Cfu5zOw?authuser=0&hl=en&rclk=1,"26.8544996,80.9196162"
Gulsan-e-Warsi madrsha and masjid,Mosque,"X49V+FM7 Gulsan-e-Warsi madrsha and masjid, Gaura khirideeh, Wazir Ganj, Uttar Pradesh",,"X49V+FM7, Gaura khirideeh","Wazir Ganj, Khirideeh",,Uttar Pradesh,IN,https://www.google.com/maps/place/Gulsan-e-Warsi+madrsha+and+masjid/data=!4m7!3m6!1s0x3999ffbc86a7959f:0xfbd142332fa24200!8m2!3d26.9686597!4d82.1441803!16s%2Fg%2F11q4np1c8d!19sChIJn5Wnhrz_mTkRAEKiLzNC0fs?authuser=0&hl=en&rclk=1,"26.9686597,82.1441803"
Masjid Do Minara,Mosque,"Masjid Do Minara, 1228, Qaisar Bagh, Lucknow, Uttar Pradesh 226018",Qaisar Bagh,1228,Lucknow,226018,Uttar Pradesh,IN,https://www.google.com/maps/place/Masjid+Do+Minara/data=!4m7!3m6!1s0x399bfd2dd7f39fd7:0x53971c9b967d040f!8m2!3d26.8632085!4d80.9210591!16s%2Fg%2F11sx21m62h!19sChIJ15_z1y39mzkRDwR9lpscl1M?authuser=0&hl=en&rclk=1,"26.8632085,80.9210591"
Masjid-e -Alia,Mosque,"Masjid-e -Alia, 178/102, Haider Mirza Rd, Golaganj, Maulviganj, Wazirganj, Lucknow, Uttar Pradesh 226018","Golaganj, Maulviganj, Wazirganj","178/102, Haider Mirza Rd",Lucknow,226018,Uttar Pradesh,IN,https://www.google.com/maps/place/Masjid-e+-Alia/data=!4m7!3m6!1s0x399bfdfeb2c86741:0xe299a1bedc3f44f8!8m2!3d26.8530357!4d80.9248948!16s%2Fg%2F11h711115n!19sChIJQWfIsv79mzkR-EQ_3L6hmeI?authuser=0&hl=en&rclk=1,"26.8530357,80.92489479999999"
Munkari masjid,Mosque,"177, Munkari masjid, 98, Gwynne Rd, Maulviganj, Aminabad, Lucknow, Uttar Pradesh 226018","Maulviganj, Aminabad","177, 98, Gwynne Rd",Lucknow,226018,Uttar Pradesh,IN,https://www.google.com/maps/place/Munkari+masjid/data=!4m7!3m6!1s0x399bfdab02d15683:0x6482d6ca255a9969!8m2!3d26.852829!4d80.925286!16s%2Fg%2F11h1k1mf2b!19sChIJg1bRAqv9mzkRaZlaJcrWgmQ?authuser=0&hl=en&rclk=1,"26.852829,80.925286"
Aisha Masjid,Mosque,"VRMM+FWH Aisha Masjid, Husainabad, Lucknow, Mahipatmau, Uttar Pradesh 226003",Husainabad,VRMM+FWH,"Lucknow, Mahipatmau",226003,Uttar Pradesh,IN,https://www.google.com/maps/place/Aisha+Masjid/data=!4m7!3m6!1s0x399955cbd338be4f:0x8afe73f8ca70e8b2!8m2!3d26.8836936!4d80.8348539!16s%2Fg%2F11qgyd1w_g!19sChIJT74408tVmTkRsuhwyvhz_oo?authuser=0&hl=en&rclk=1,"26.883693599999997,80.8348539"
Chauari masjid,Mosque,"HXGJ+3F6 Chauari masjid, Wazirganj, Chauari, Bihar 805131",,HXGJ+3F6,"Wazirganj, Chauari",805131,Bihar,IN,https://www.google.com/maps/place/Chauari+masjid/data=!4m7!3m6!1s0x39f333ccb47965c5:0x7e0cd11aa04edb59!8m2!3d24.574848!4d84.980392!16s%2Fg%2F11y1lspjqp!19sChIJxWV5tMwz8zkRWdtOoBrRDH4?authuser=0&hl=en&rclk=1,"24.574848,84.980392"
Badi Masjid,Mosque,"X459+RF5 Badi Masjid, Wazir Ganj, Uttar Pradesh 271124",,X459+RF5,Wazir Ganj,,Uttar Pradesh,IN,https://www.google.com/maps/place/Badi+Masjid/data=!4m7!3m6!1s0x3999f9c2c2e3590d:0x4bace1090bac5bb3!8m2!3d26.9595199!4d82.1187393!16s%2Fg%2F11gsbcg4ss!19sChIJDVnjwsL5mTkRs1usCwnhrEs?authuser=0&hl=en&rclk=1,"26.9595199,82.1187393"
Masjid Noor Muhammad (Ahate Wali),Mosque,"93, Masjid Noor Muhammad (Ahate Wali), 1, Wazirganj, Lucknow, Uttar Pradesh 226018",Wazirganj,"93, 1",Lucknow,226018,Uttar Pradesh,IN,https://www.google.com/maps/place/Masjid+Noor+Muhammad+%28Ahate+Wali%29/data=!4m7!3m6!1s0x399bfd6bcf19f343:0x202507fcd83abb7a!8m2!3d26.8555634!4d80.9187295!16s%2Fg%2F11sghxtp93!19sChIJQ_MZz2v9mzkRers62PwHJSA?authuser=0&hl=en&rclk=1,"26.855563399999998,80.9187295"
Masjid Ateeqiya,Mosque,"VW4C+4F2 Masjid Ateeqiya, Badrinath Road, near Barood Khana, Golaganj, Lucknow, Uttar Pradesh 226018","Golaganj, Maulviganj, Wazirganj","VW4C+4F2, Badrinath Road, near Barood Khana",Lucknow,226018,Uttar Pradesh,IN,https://www.google.com/maps/place/Masjid+Ateeqiya/data=!4m7!3m6!1s0x399bfddd9343f041:0x8825e0970330f0e6!8m2!3d26.8552722!4d80.9211281!16s%2Fg%2F11fgm2q9f3!19sChIJQfBDk939mzkR5vAwA5fgJYg?authuser=0&hl=en&rclk=1,"26.855272199999998,80.92112809999999"
Husaini Mosque,Mosque,"Husaini Mosque, 46, Husanabad Rd
Musahabganj, Husainabad Trust Rd, Musahabganj, Musahibganj, Daulatganj, Lucknow, Uttar Pradesh 226003","Musahabganj, Musahibganj, Daulatganj","46, Husanabad Rd
Musahabganj, Husainabad Trust Rd",Lucknow,226003,Uttar Pradesh,IN,https://www.google.com/maps/place/Husaini+Mosque/data=!4m7!3m6!1s0x399bfe010b5f3459:0x482fa39d8c130d9b!8m2!3d26.8761509!4d80.8945669!16s%2Fg%2F11c5szyw2t!19sChIJWTRfCwH-mzkRmw0TjJ2jL0g?authuser=0&hl=en&rclk=1,"26.8761509,80.8945669"
Dhaniya Mahyri Masjid,Mosque,"RWXC+XP2 Dhaniya Mahyri Masjid, Maulviganj, Wazirganj, Lucknow, Uttar Pradesh 226018","Maulviganj, Wazirganj",RWXC+XP2,Lucknow,226018,Uttar Pradesh,IN,https://www.google.com/maps/place/Dhaniya+Mahyri+Masjid/data=!4m7!3m6!1s0x399bfd00f83aca77:0x5d8875c820b385c5!8m2!3d26.8498807!4d80.9217736!16s%2Fg%2F11hssxj1fx!19sChIJd8o6-AD9mzkRxYWzIMh1iF0?authuser=0&hl=en&rclk=1,"26.8498807,80.9217736"
Masjid Padayan,Mosque,"RWXF+HRH Masjid Padayan, Book Market Rd, Maulviganj, Aminabad, Lucknow, Uttar Pradesh 226018","Maulviganj, Aminabad","RWXF+HRH, Book Market Rd",Lucknow,226018,Uttar Pradesh,IN,https://www.google.com/maps/place/Masjid+Padayan/data=!4m7!3m6!1s0x399bfdd99e0a24a5:0x9f0a70def154e6a3!8m2!3d26.8489284!4d80.9246228!16s%2Fg%2F11h7bzdqm0!19sChIJpSQKntn9mzkRo-ZU8d5wCp8?authuser=0&hl=en&rclk=1,"26.8489284,80.9246228"
Al Makkah Masjid,Mosque,"Al Makkah Masjid, Vicky Restaurant, Lakshman Prasad Road, Lakshman Parsad Road, Wazirganj, Lucknow, Uttar Pradesh 226018","Maulviganj, Wazirganj","Vicky Restaurant, Lakshman Prasad Road, Lakshman Parsad Road",Lucknow,226018,Uttar Pradesh,IN,https://www.google.com/maps/place/Al+Makkah+Masjid/data=!4m7!3m6!1s0x399bfd8ba4dac143:0x9f1098195e7e3a6e!8m2!3d26.8544294!4d80.9222342!16s%2Fg%2F11fjqk0wrn!19sChIJQ8HapIv9mzkRbjp-XhmYEJ8?authuser=0&hl=en&rclk=1,"26.854429399999997,80.92223419999999"
Masjid Umar,Mosque,"Masjid Umar, 432/107, Yaseen Ganj, Chowk, Lucknow, Uttar Pradesh 226003","Yaseen Ganj, Chowk",432/107,Lucknow,226003,Uttar Pradesh,IN,https://www.google.com/maps/place/Masjid+Umar/data=!4m7!3m6!1s0x399bffeb7b107c69:0x7ead92815893809a!8m2!3d26.8650148!4d80.8839645!16s%2Fg%2F11p51nxbqz!19sChIJaXwQe-v_mzkRmoCTWIGSrX4?authuser=0&hl=en&rclk=1,"26.865014799999997,80.88396449999999"
Tajushsharia Masjid,Mosque,"R72Q+RHQ Tajushsharia Masjid, Makhdoompur, P.O Tungi, Wazirganj Distt, Jumuanwan, Bihar",,"R72Q+RHQ, Makhdoompur, P.O Tungi, Wazirganj Distt",Jumuanwan,,Bihar,IN,https://www.google.com/maps/place/Tajushsharia+Masjid/data=!4m7!3m6!1s0x39f31fa5d7fed029:0x568c5079f162da07!8m2!3d24.8020751!4d85.2889809!16s%2Fg%2F11ng55t_g2!19sChIJKdD-16Uf8zkRB9pi8XlQjFY?authuser=0&hl=en&rclk=1,"24.8020751,85.2889809"
"Moti Masjid, Wazirganj Lucknow",Mosque,"VW4C+98V Moti Masjid, Wazirganj Lucknow, Layman Prasad Rd, Maulviganj, Wazirganj, Lucknow, Uttar Pradesh 226018","Maulviganj, Wazirganj","VW4C+98V, Layman Prasad Rd",Lucknow,226018,Uttar Pradesh,IN,"https://www.google.com/maps/place/Moti+Masjid,+Wazirganj+Lucknow/data=!4m7!3m6!1s0x399bfd7514a7d8e3:0x86620095a9b8991e!8m2!3d26.8559953!4d80.9207988!16s%2Fg%2F11shpcb7tw!19sChIJ49inFHX9mzkRHpm4qZUAYoY?authuser=0&hl=en&rclk=1","26.8559953,80.9207988"
Masjid-e-khamsa,Mosque,"Masjid-e-khamsa, 133, M.n. Abdi Marg, Maulviganj, Wazirganj, Lucknow, Uttar Pradesh 226018","Maulviganj, Wazirganj","133, M.n. Abdi Marg",Lucknow,226018,Uttar Pradesh,IN,https://www.google.com/maps/place/Masjid-e-khamsa/data=!4m7!3m6!1s0x399bfd2cd6312f95:0x9a07d66c76217ffa!8m2!3d26.8536718!4d80.923372!16s%2Fg%2F11fk1bhj3c!19sChIJlS8x1iz9mzkR-n8hdmzWB5o?authuser=0&hl=en&rclk=1,"26.853671799999997,80.923372"
Maulana Anwar Ahmad Sahab Masjid,Mosque,"VW3F+C7H Maulana Anwar Ahmad Sahab Masjid, Golaganj, Maulviganj, Wazirganj, Lucknow, Uttar Pradesh 226018","Golaganj, Maulviganj, Wazirganj",VW3F+C7H,Lucknow,226018,Uttar Pradesh,IN,https://www.google.com/maps/place/Maulana+Anwar+Ahmad+Sahab+Masjid/data=!4m7!3m6!1s0x399bfdfa111b8e81:0x3a09dfca8962de44!8m2!3d26.853562!4d80.9232366!16s%2Fg%2F11jskx1zl2!19sChIJgY4bEfr9mzkRRN5iicrfCTo?authuser=0&hl=en&rclk=1,"26.853562,80.9232366"
Masjid Haider Mirza,Mosque,"Masjid Haider Mirza, 278/121, Golaganj, Maulviganj, Wazirganj, Lucknow, Uttar Pradesh 226018","Golaganj, Maulviganj, Wazirganj",278/121,Lucknow,226018,Uttar Pradesh,IN,https://www.google.com/maps/place/Masjid+Haider+Mirza/data=!4m7!3m6!1s0x399bfd67255ac85d:0x36573c1ffb098dd3!8m2!3d26.8523681!4d80.9237855!16s%2Fg%2F11s9b_cc33!19sChIJXchaJWf9mzkR040J-x88VzY?authuser=0&hl=en&rclk=1,"26.8523681,80.9237855"
Sayyad Hashim Shaheed(Sunni Masjid,Mosque,"VW3F+FRJ Sayyad Hashim Shaheed(Sunni Masjid, Maulviganj, Wazirganj, Hallaur, Lucknow, Uttar Pradesh 226018","Maulviganj, Wazirganj",VW3F+FRJ,"Hallaur, Lucknow",226018,Uttar Pradesh,IN,https://www.google.com/maps/place/Sayyad+Hashim+Shaheed%28Sunni+Masjid/data=!4m7!3m6!1s0x399bfdfd35b52013:0x6c91e679120e195b!8m2!3d26.8536359!4d80.9245151!16s%2Fg%2F11rvb8vj72!19sChIJEyC1Nf39mzkRWxkOEnnmkWw?authuser=0&hl=en&rclk=1,"26.8536359,80.9245151"
Chhoti masjid,Mosque,"Chhoti masjid, 193/34, Wazirganj, Lucknow, Uttar Pradesh 226018",Wazirganj,193/34,Lucknow,226018,Uttar Pradesh,IN,https://www.google.com/maps/place/Chhoti+masjid/data=!4m7!3m6!1s0x399bfda21d0f7695:0x1ef5b9998330ea8e!8m2!3d26.8557259!4d80.91819!16s%2Fg%2F11khs238_n!19sChIJlXYPHaL9mzkRjuowg5m59R4?authuser=0&hl=en&rclk=1,"26.8557259,80.91819"
Masjid usmania,Mosque,"Masjid usmania, 182/5, Lallumal Mandir Rd, Patthar Wali Gali, Astabal Charbagh, Mashak Ganj, Wazirganj, Lucknow, Uttar Pradesh 226018","Patthar Wali Gali, Astabal Charbagh, Mashak Ganj, Wazirganj","182/5, Lallumal Mandir Rd",Lucknow,226018,Uttar Pradesh,IN,https://www.google.com/maps/place/Masjid+usmania/data=!4m7!3m6!1s0x399bfddd97a1ad61:0xbe6612bd4cb4f20a!8m2!3d26.8537973!4d80.9172266!16s%2Fg%2F11mpcv3lr9!19sChIJYa2hl939mzkRCvK0TL0SZr4?authuser=0&hl=en&rclk=1,"26.8537973,80.91722659999999"
Masjid Bilal,Mosque,"VW3C+844 Masjid Bilal, Badrinath Rd, Golaganj, Wazirganj, Lucknow, Uttar Pradesh 226018","Golaganj, Wazirganj","VW3C+844, Badrinath Rd",Lucknow,226018,Uttar Pradesh,IN,https://www.google.com/maps/place/Masjid+Bilal/data=!4m7!3m6!1s0x399bfd3ac208e68f:0x968e32ea10345c90!8m2!3d26.8532608!4d80.9203235!16s%2Fg%2F11td3f59cj!19sChIJj-YIwjr9mzkRkFw0EOoyjpY?authuser=0&hl=en&rclk=1,"26.853260799999997,80.9203235"
ttiile vaalii msjid,Mosque,"RWXF+MCF ttiile vaalii msjid, TEELA SHAH PEER MOHAAMD, 226003","Maulviganj, Wazirganj","RWXF+MCF, TEELA SHAH PEER MOHAAMD",Lucknow,226003,Uttar Pradesh,IN,https://www.google.com/maps/place/%E0%A4%9F%E0%A5%80%E0%A4%B2%E0%A5%87+%E0%A4%B5%E0%A4%BE%E0%A4%B2%E0%A5%80+%E0%A4%AE%E0%A4%B8%E0%A5%8D%E0%A4%9C%E0%A4%BF%E0%A4%A6/data=!4m7!3m6!1s0x399bfd06c30438bf:0xa7312bbcec6fbdc4!8m2!3d26.8491938!4d80.9235448!16s%2Fg%2F11rsg2bjnw!19sChIJvzgEwwb9mzkRxL1v7LwrMac?authuser=0&hl=en&rclk=1,"26.8491938,80.9235448"
Masjid-e-IBNE HAZRAT ABU TALIB,Mosque,"Masjid-e-IBNE HAZRAT ABU TALIB, GwynneRoad, Near Hanuman Temple, A-6, Gwynne Rd, Maulviganj, Aminabad, Lucknow, Uttar Pradesh 226018","Maulviganj, Aminabad","GwynneRoad, Near Hanuman Temple, A-6, Gwynne Rd",Lucknow,226018,Uttar Pradesh,IN,https://www.google.com/maps/place/Masjid-e-IBNE+HAZRAT+ABU+TALIB/data=!4m7!3m6!1s0x399bfd839dc87935:0x104b5d0e28bdf279!8m2!3d26.8522434!4d80.9253727!16s%2Fg%2F11g_tgl9jd!19sChIJNXnInYP9mzkRefK9KA5dSxA?authuser=0&hl=en&rclk=1,"26.8522434,80.9253727"
