name,main_category,address,address_ward,address_street,address_city,address_postal_code,address_state,address_country_code,link,coordinates
Masjid,Mosque,"RX5M+G6M Masjid, Sulela, Haryana 122104",,RX5M+G6M,Sulela,122104,Haryana,IN,https://www.google.com/maps/place/Masjid/data=!4m7!3m6!1s0x3972c4e63d5db929:0xa81453990cb0418b!8m2!3d27.8088314!4d76.9830566!16s%2Fg%2F11hbg9583y!19sChIJKbldPebEcjkRi0GwDJlTFKg?authuser=0&hl=en&rclk=1,"27.8088314,76.9830566"
Hussaini Mobile Sarwar Sharif,Mosque,"Hussaini Mobile Sarwar Sharif, Dargah Bazar Sarwar Sharif, Purane Gate Ke Samne, Sarwar, Rajasthan 305403",,"Dargah Bazar Sarwar Sharif, Purane Gate Ke Samne",Sarwar,305403,Rajasthan,IN,https://www.google.com/maps/place/Hussaini+Mobile+Sarwar+Sharif/data=!4m7!3m6!1s0x396eb564e81b643f:0xb1454bea83b592de!8m2!3d26.0608841!4d75.012759!16s%2Fg%2F11qng92gd1!19sChIJP2Qb6GS1bjkR3pK1g-pLRbE?authuser=0&hl=en&rclk=1,"26.0608841,75.012759"
Al Taqwa Masjid,Mosque,"Al Taqwa Masjid, 42A, Jogabai Extension, Okhla, New Delhi, Delhi 110025","Jogabai Extension, Okhla",42A,New Delhi,110025,Delhi,IN,https://www.google.com/maps/place/Al+Taqwa+Masjid/data=!4m7!3m6!1s0x390ce3886898c141:0x9ba952352c057021!8m2!3d28.5711037!4d77.2843441!16s%2Fg%2F11b6j7lmqh!19sChIJQcGYaIjjDDkRIXAFLDVSqZs?authuser=0&hl=en&rclk=1,"28.5711037,77.2843441"
Masjid Shahab,Mosque,"H78P+VWV Masjid Shahab, Jamia, Batla House, Jamia Nagar, Okhla, New Delhi, Delhi 110025","Jamia, Batla House, Jamia Nagar, Okhla",H78P+VWV,New Delhi,110025,Delhi,IN,https://www.google.com/maps/place/Masjid+Shahab/data=!4m7!3m6!1s0x390ce4760f556f8d:0xc0285f5f2f62012c!8m2!3d28.5672496!4d77.2873032!16s%2Fg%2F1hhm006pz!19sChIJjW9VD3bkDDkRLAFiL19fKMA?authuser=0&hl=en&rclk=1,"28.5672496,77.2873032"
Masjid Zakir Bagh,Mosque,"H75C+HJW Masjid Zakir Bagh, Zakir Bagh, Sarai Jullena, New Friends Colony, New Delhi, Delhi 110065","Zakir Bagh, Sarai Jullena, New Friends Colony",H75C+HJW,New Delhi,110065,Delhi,IN,https://www.google.com/maps/place/Masjid+Zakir+Bagh/data=!4m7!3m6!1s0x390ce39347cf47cd:0xcd195916d4862cac!8m2!3d28.5589795!4d77.2715934!16s%2Fg%2F1ptzpshd9!19sChIJzUfPR5PjDDkRrCyG1BZZGc0?authuser=0&hl=en&rclk=1,"28.5589795,77.2715934"
Sarwar Mosque srwr msjd,Mosque,"95FH+G74 Sarwar Mosque srwr msjd, CC-Block Cc Block Sector D Bahria Town, Lahore, Punjab, Pakistan",CC-Block Cc Block Sector D Bahria Town,95FH+G74,Lahore,,"Lahore, Punjab",PK,https://www.google.com/maps/place/Sarwar+Mosque+%D8%B3%D8%B1%D9%88%D8%B1+%D9%85%D8%B3%D8%AC%D8%AF%E2%80%AD/data=!4m7!3m6!1s0x3918ff8495086e53:0xc9a739102415fab7!8m2!3d31.3737524!4d74.1782171!16s%2Fg%2F11b6dn_bjv!19sChIJU24IlYT_GDkRt_oVJBA5p8k?authuser=0&hl=en&rclk=1,"31.373752399999997,74.1782171"
Masjid Abu Bakr,Mosque,"H78H+5JH Masjid Abu Bakr, Zakir Nagar, Okhla, New Delhi, Delhi 110025","Zakir Nagar, Okhla",H78H+5JH,New Delhi,110025,Delhi,IN,https://www.google.com/maps/place/Masjid+Abu+Bakr/data=!4m7!3m6!1s0x390ce38f1d28095f:0xa4ca1135e803cbd7!8m2!3d28.5654308!4d77.2790984!16s%2Fg%2F11bwqmc4wb!19sChIJXwkoHY_jDDkR18sD6DURyqQ?authuser=0&hl=en&rclk=1,"28.565430799999998,77.2790984"
Sabz Masjid,Mosque,"Sabz Masjid, 3571, Lalkuan Bazar Rd, Bazar Sirkiwalan, Lal Kuan Bazar, Chandni Chowk, Delhi, 110006","Bazar Sirkiwalan, Lal Kuan Bazar, Chandni Chowk","3571, Lalkuan Bazar Rd",Delhi,110006,Delhi,IN,https://www.google.com/maps/place/Sabz+Masjid/data=!4m7!3m6!1s0x390cfd16a94877a7:0x7b35bb653cd42e20!8m2!3d28.652163!4d77.223599!16s%2Fm%2F04q247t!19sChIJp3dIqRb9DDkRIC7UPGW7NXs?authuser=0&hl=en&rclk=1,"28.652162999999998,77.223599"
Masjid Faizane Ghausia and Madarsa,Mosque,"Masjid Faizane Ghausia and Madarsa, D-100, Maulana Azad Rd, Shaheen Bagh, Jamia Nagar, Okhla, New Delhi, Delhi 110025","Shaheen Bagh, Jamia Nagar, Okhla","D-100, Maulana Azad Rd",New Delhi,110025,Delhi,IN,https://www.google.com/maps/place/Masjid+Faizane+Ghausia+and+Madarsa/data=!4m7!3m6!1s0x390ce41ba6415db1:0xa9911783ddc9514d!8m2!3d28.5472543!4d77.3012896!16s%2Fg%2F11b6pk_b3y!19sChIJsV1BphvkDDkRTVHJ3YMXkak?authuser=0&hl=en&rclk=1,"28.5472543,77.30128959999999"
Nisar Masjid,Mosque,"Nisar Masjid, Block F, Allama Shibli Nomani Road, Shaheen Bagh, Okhla, New Delhi, Delhi 110025","Shaheen Bagh, Okhla","Block F, Allama Shibli Nomani Road",New Delhi,110025,Delhi,IN,https://www.google.com/maps/place/Nisar+Masjid/data=!4m7!3m6!1s0x390ce41c8c57650b:0x3a50c11b9ffca255!8m2!3d28.5440829!4d77.300487!16s%2Fg%2F11b6wdw3zz!19sChIJC2VXjBzkDDkRVaL8nxvBUDo?authuser=0&hl=en&rclk=1,"28.5440829,77.30048699999999"
Masjid Umar,Mosque,"Masjid Umar, H Block, Abul Fazal Enclave, Jamia Nagar, Okhla, New Delhi, Delhi 110025","Abul Fazal Enclave, Jamia Nagar, Okhla",H Block,New Delhi,110025,Delhi,IN,https://www.google.com/maps/place/Masjid+Umar/data=!4m7!3m6!1s0x390ce40e52efde7f:0x5e0487c814d4c357!8m2!3d28.5535005!4d77.2956955!16s%2Fg%2F11b6snzn79!19sChIJf97vUg7kDDkRV8PUFMiHBF4?authuser=0&hl=en&rclk=1,"28.5535005,77.2956955"
Masjid and Madarsa,Mosque,"H78P+G28 Masjid and Madarsa, Jamia, Batla House, Jamia Nagar, Okhla, New Delhi, Delhi 110025","Jamia, Batla House, Jamia Nagar, Okhla",H78P+G28,New Delhi,110025,Delhi,IN,https://www.google.com/maps/place/Masjid+and+Madarsa/data=!4m7!3m6!1s0x390ce38a18a5d97f:0xdcfc61f3d0f88168!8m2!3d28.5662905!4d77.2850829!16s%2Fg%2F1hg4wfd46!19sChIJf9mlGIrjDDkRaIH40PNh_Nw?authuser=0&hl=en&rclk=1,"28.566290499999997,77.28508289999999"
Masjid Chakkarwali,Mosque,"H6VV+J99 Masjid Chakkarwali, Dr Zakir Hussain Marg, Nizamuddin, National Zoological Park, Sundar Nagar, New Delhi, Delhi 110003","Nizamuddin, National Zoological Park, Sundar Nagar","H6VV+J99, Dr Zakir Hussain Marg",New Delhi,110003,Delhi,IN,https://www.google.com/maps/place/Masjid+Chakkarwali/data=!4m7!3m6!1s0x390ce31d01969b01:0xa554bb4cb707340e!8m2!3d28.5940396!4d77.2434789!16s%2Fg%2F1tg6nhqh!19sChIJAZuWAR3jDDkRDjQHt0y7VKU?authuser=0&hl=en&rclk=1,"28.5940396,77.2434789"
Masjid Umar,Mosque,"Masjid Umar, Noida-Greater Noida Expy, Raipur Khadar, Sector 126, near Akansha Stationary Store, Noida, Uttar Pradesh 201313","Raipur Khadar, Sector 126","Noida-Greater Noida Expy, Raipur Khadar, Sector 126, near Akansha Stationary Store",Noida,201313,Uttar Pradesh,IN,https://www.google.com/maps/place/Masjid+Umar/data=!4m7!3m6!1s0x390ce678bd924cf9:0x4ecd946c6faa6ec6!8m2!3d28.5423387!4d77.3395738!16s%2Fg%2F11bxk9qkr9!19sChIJ-UySvXjmDDkRxm6qb2yUzU4?authuser=0&hl=en&rclk=1,"28.5423387,77.3395738"
Gausia Masjid (Ishtiyak),Mosque,"Gausia Masjid (Ishtiyak), gali no.24 L block 110080, Sangam Vihar, New Delhi, Delhi 110080","Block L 2, Devli, Sangam Vihar",gali no.24 L block 110080,New Delhi,110080,Delhi,IN,https://www.google.com/maps/place/Gausia+Masjid+%28Ishtiyak%29/data=!4m7!3m6!1s0x390ce1af8789b4d3:0x9a3ff5f69c351894!8m2!3d28.4984758!4d77.2312984!16s%2Fg%2F11g9djgs2m!19sChIJ07SJh6_hDDkRlBg1nPb1P5o?authuser=0&hl=en&rclk=1,"28.498475799999998,77.2312984"
MASJID AMROOD WALI,Mosque,"MASJID AMROOD WALI, Bulbuli khana, near kala masjid, Turkman Gate, Old Delhi, New Delhi, Delhi, 110006","Turkman Gate, Old Delhi","Bulbuli khana, near kala masjid","New Delhi, Delhi",110006,Delhi,IN,https://www.google.com/maps/place/MASJID+AMROOD+WALI/data=!4m7!3m6!1s0x390cfd22f0eb7eef:0xc91420f046ba3b88!8m2!3d28.6410797!4d77.2337194!16s%2Fg%2F11d_x09zhj!19sChIJ737r8CL9DDkRiDu6RvAgFMk?authuser=0&hl=en&rclk=1,"28.6410797,77.2337194"
CMH Masjid,Mosque,"G9Q9+6W5 CMH Masjid, Sarwar Colony, Lahore, Punjab, Pakistan",Sarwar Colony,G9Q9+6W5,Lahore,,"Lahore, Punjab",PK,https://www.google.com/maps/place/CMH+Masjid/data=!4m7!3m6!1s0x3919051a04934e43:0x766da2cfe43bc14c!8m2!3d31.5380218!4d74.3698618!16s%2Fg%2F11f0_gb9v9!19sChIJQ06TBBoFGTkRTME75M-ibXY?authuser=0&hl=en&rclk=1,"31.5380218,74.3698618"
Masjid Sabeel Wali,Mosque,"J6WP+93F Masjid Sabeel Wali, Chittli Qabar Bazar Rd, Bazar Chitli Qabar, Kalan Mehal, Old Delhi, Delhi, 110002","Bazar Chitli Qabar, Kalan Mehal, Old Delhi","J6WP+93F, Chittli Qabar Bazar Rd",Delhi,110002,Delhi,IN,https://www.google.com/maps/place/Masjid+Sabeel+Wali/data=!4m7!3m6!1s0x390cfd218f4865b9:0x8392357b25cb3df8!8m2!3d28.6459304!4d77.2351802!16s%2Fg%2F11fxb41y92!19sChIJuWVIjyH9DDkR-D3LJXs1koM?authuser=0&hl=en&rclk=1,"28.645930399999997,77.2351802"
Sabri Masjid msjd Sbry,Mosque,"Sabri Masjid msjd Sbry, Gali Number 3 or 4, Gupta Colony, Block J 2, Sangam Vihar, New Delhi, Delhi 110080","Gupta Colony, Block J 2, Devli, Sangam Vihar",Gali Number 3 or 4,New Delhi,110080,Delhi,IN,https://www.google.com/maps/place/Sabri+Masjid+%D9%85%D8%B3%D8%AC%D8%AF+%D8%B5%D8%A7%D8%A8%D8%B1%DB%8C%E2%80%AD/data=!4m7!3m6!1s0x390ce1017534ede5:0x755592f4dff83704!8m2!3d28.491264!4d77.2448342!16s%2Fg%2F11f28hlnqq!19sChIJ5e00dQHhDDkRBDf43_SSVXU?authuser=0&hl=en&rclk=1,"28.491263999999997,77.2448342"
Garrison Masjid,Mosque,"Garrison Masjid, Garrison Mosque, Aziz Bhatti Rd, Sarwar Colony, Lahore, Punjab 54810, Pakistan",Sarwar Colony,"Garrison Mosque, Aziz Bhatti Rd",Lahore,54810,"Lahore, Punjab",PK,https://www.google.com/maps/place/Garrison+Masjid/data=!4m7!3m6!1s0x3919050571838e8d:0x7863c52461990852!8m2!3d31.5305908!4d74.3694077!16s%2Fg%2F11fzd0_vct!19sChIJjY6DcQUFGTkRUgiZYSTFY3g?authuser=0&hl=en&rclk=1,"31.5305908,74.3694077"
Masjid & Dargah Sabri,Mosque,"Masjid & Dargah Sabri, 5051 Masjid dargah sabri, Netaji Subhash Marg, near khalsa girls school, Daryaganj, New Delhi, Delhi 110002",Daryaganj,"5051 Masjid dargah sabri, Netaji Subhash Marg, near khalsa girls school","New Delhi, Delhi",110002,Delhi,IN,https://www.google.com/maps/place/Masjid+%26+Dargah+Sabri/data=!4m7!3m6!1s0x390cfcdf8988bac1:0x44d5f1f4e4bb33b1!8m2!3d28.6467942!4d77.2405412!16s%2Fg%2F11d_8rr1kj!19sChIJwbqIid_8DDkRsTO75PTx1UQ?authuser=0&hl=en&rclk=1,"28.6467942,77.2405412"
"Masjid Madarsa Faizyab ISBT, Sarai Kale Khan Nizamuddin",Mosque,"Masjid Madarsa Faizyab ISBT, Sarai Kale Khan Nizamuddin, ISBT Sarai Kale Khan, Sarai Kale Khan, New Delhi, Delhi 110013","ISBT Sarai Kale Khan, Sarai Kale Khan",,New Delhi,110013,Delhi,IN,"https://www.google.com/maps/place/Masjid+Madarsa+Faizyab+ISBT,+Sarai+Kale+Khan+Nizamuddin/data=!4m7!3m6!1s0x390ce30be59a7b59:0x3d13dab7c7eb962f!8m2!3d28.586186!4d77.2584179!16s%2Fg%2F11ddwzrlh3!19sChIJWXua5QvjDDkRL5brx7faEz0?authuser=0&hl=en&rclk=1","28.586185999999998,77.2584179"
Masjid Sher Shah Soori Tees Hazari,Mosque,"Masjid Sher Shah Soori Tees Hazari, 11054, Railway Colony, Tis Hazari, New Delhi, Delhi 110054","Railway Colony, Tis Hazari",11054,"New Delhi, Delhi",110054,Delhi,IN,https://www.google.com/maps/place/Masjid+Sher+Shah+Soori+Tees+Hazari/data=!4m7!3m6!1s0x390cfd7446017293:0x82a78a4167e8ed51!8m2!3d28.6651199!4d77.2134616!16s%2Fg%2F11cn95kjbv!19sChIJk3IBRnT9DDkRUe3oZ0GKp4I?authuser=0&hl=en&rclk=1,"28.665119899999997,77.2134616"
Jamia Masjid,Mosque,"Jamia Masjid, Jamia Mosque, Sarwar Rd, Cantt, Lahore, Punjab, Pakistan",Cantt,"Jamia Mosque, Sarwar Rd",Lahore,,"Lahore, Punjab",PK,https://www.google.com/maps/place/Jamia+Masjid/data=!4m7!3m6!1s0x391905097e85dab5:0x5c69dcd7849c715a!8m2!3d31.5256332!4d74.3761351!16s%2Fg%2F1tvdh5d1!19sChIJtdqFfgkFGTkRWnGchNfcaVw?authuser=0&hl=en&rclk=1,"31.525633199999998,74.3761351"
"Al-Yakoob Masjid, Sarla Vihar",Mosque,"P7R5+PPX Al-Yakoob Masjid, Sarla Vihar, Vijay Vihar, Rohini, New Delhi, Ghaziabad, Delhi 201102","Vijay Vihar, Rohini",P7R5+PPX,"New Delhi, Ghaziabad",201102,Delhi,IN,"https://www.google.com/maps/place/Al-Yakoob+Masjid,+Sarla+Vihar/data=!4m7!3m6!1s0x390cfe94cafc4a91:0xbca64e26cc5201c6!8m2!3d28.7418736!4d77.2593617!16s%2Fg%2F11ddwtzqvh!19sChIJkUr8ypT-DDkRxgFSzCZOprw?authuser=0&hl=en&rclk=1","28.741873599999998,77.2593617"
gosiiyaa msjid,Mosque,"gosiiyaa msjid, 02, New Delhi Main Rd, D Block, Madanpur Khadar, New Delhi, Delhi 110076, New Delhi Main Rd, D Block, Madanpur Khadar, New Delhi, Delhi 110076","D Block, Madanpur Khadar","02, New Delhi Main Rd, D Block, Madanpur Khadar, New Delhi, Delhi 110076, New Delhi Main Rd",New Delhi,110076,Delhi,IN,https://www.google.com/maps/place/%E0%A4%97%E0%A5%8B%E0%A4%B8%E0%A5%80%E0%A4%AF%E0%A4%BE+%E0%A4%AE%E0%A4%B8%E0%A5%8D%E0%A4%9C%E0%A4%BF%E0%A4%A6/data=!4m7!3m6!1s0x390ce69a677df04b:0x404fbe46be663e7f!8m2!3d28.5310436!4d77.317571!16s%2Fg%2F11g6rfnfc8!19sChIJS_B9Z5rmDDkRfz5mvka-T0A?authuser=0&hl=en&rclk=1,"28.5310436,77.317571"
Masjid Sarwar Sb,Mosque,"F89J+WM7 Masjid Sarwar Sb, Kotwali - Banyota Rd, Balkhandi Naka, Banda, Uttar Pradesh 210001",Balkhandi Naka,"F89J+WM7, Kotwali - Banyota Rd",Banda,210001,Uttar Pradesh,IN,https://www.google.com/maps/place/Masjid+Sarwar+Sb/data=!4m7!3m6!1s0x399ccef1d3151417:0xbba4288222c82138!8m2!3d25.4697766!4d80.3316675!16s%2Fg%2F1tgb5r_s!19sChIJFxQV0_HOnDkROCHIIoIopLs?authuser=0&hl=en&rclk=1,"25.4697766,80.3316675"
Masjid Ghaffar (Ahl-e-Hadees),Mosque,"Masjid Ghaffar (Ahl-e-Hadees), P-102, Block P, Batla House, Okhla, New Delhi, Delhi 110025","Block P, Batla House, Okhla",P-102,New Delhi,110025,Delhi,IN,https://www.google.com/maps/place/Masjid+Ghaffar+%28Ahl-e-Hadees%29/data=!4m7!3m6!1s0x390ce5f38957cde3:0x573e5c67ce07d2a8!8m2!3d28.5708158!4d77.287928!16s%2Fg%2F11ql65ls0c!19sChIJ481XifPlDDkRqNIHzmdcPlc?authuser=0&hl=en&rclk=1,"28.5708158,77.287928"
sakhi sarkar mosque,Mosque,"F754+8JX sakhi sarkar mosque, Unnamed Road, Aitchison Society Lahore, Punjab, Pakistan",Aitchison Society,"F754+8JX, Unnamed Road",Lahore,,"Lahore, Punjab",PK,https://www.google.com/maps/place/sakhi+sarkar+mosque/data=!4m7!3m6!1s0x3919018031cc4f6b:0x2b212871cfd89440!8m2!3d31.4583693!4d74.2566224!16s%2Fg%2F11hzw5b5qv!19sChIJa0_MMYABGTkRQJTYz3EoISs?authuser=0&hl=en&rclk=1,"31.458369299999998,74.2566224"
Masjid Sultani,Mosque,"Masjid Sultani, M-99 Gali no 12, Batla House, Okhla, New Delhi, Delhi 110025","Batla House, Okhla",M-99 Gali no 12,New Delhi,110025,Delhi,IN,https://www.google.com/maps/place/Masjid+Sultani/data=!4m7!3m6!1s0x390ce4770555a743:0xddc26b798b59ecce!8m2!3d28.5707577!4d77.2900673!16s%2Fg%2F11hd24hr29!19sChIJQ6dVBXfkDDkRzuxZi3lrwt0?authuser=0&hl=en&rclk=1,"28.570757699999998,77.29006729999999"
MASJID GOUSUL WARA,Mosque,"G79M+8MW MASJID GOUSUL WARA, Tekhand, Okhla Phase I, Okhla Industrial Estate, New Delhi, Delhi 110020","Tekhand, Okhla Phase I, Okhla Industrial Estate",G79M+8MW,New Delhi,110020,Delhi,IN,https://www.google.com/maps/place/MASJID+GOUSUL+WARA/data=!4m7!3m6!1s0x390ce15f4f8ec11b:0x9d50897d641b8031!8m2!3d28.5183625!4d77.2842054!16s%2Fg%2F11sy5qrxj3!19sChIJG8GOT1_hDDkRMYAbZH2JUJ0?authuser=0&hl=en&rclk=1,"28.5183625,77.28420539999999"
Munawra masjid,Mosque,"M7P4+6M2 Munawra masjid, Masjid Road, Third Pushta, Usmanpur, Nayagaon Village, Shahdara, Delhi, 110053","Third Pushta, Nayagaon, Nayagaon Village, Shahdara","M7P4+6M2, Masjid Road, Third Pushta, Usmanpur",Delhi,110053,Delhi,IN,https://www.google.com/maps/place/Munawra+masjid/data=!4m7!3m6!1s0x390cfd030e33f563:0x5dc12b36744f9a85!8m2!3d28.6855176!4d77.2566372!16s%2Fg%2F11hzwz2ypj!19sChIJY_UzDgP9DDkRhZpPdDYrwV0?authuser=0&hl=en&rclk=1,"28.685517599999997,77.2566372"
Badi Masjid,Mosque,"3275+3MQ Badi Masjid, Sarwar, Rajasthan 305403",,3275+3MQ,Sarwar,305403,Rajasthan,IN,https://www.google.com/maps/place/Badi+Masjid/data=!4m7!3m6!1s0x396eb4f98ded50d1:0x9c980547d72cc6b7!8m2!3d26.0627068!4d75.0092338!16s%2Fg%2F11g81cd0j1!19sChIJ0VDtjfm0bjkRt8Ys10cFmJw?authuser=0&hl=en&rclk=1,"26.062706799999997,75.00923379999999"
Jame Masjid Nasir Al-Dahmani,Mosque,"Jame Masjid Nasir Al-Dahmani, Jalalpur Ferozepur, Haryana 122108",,,Jalalpur Ferozepur,122108,Haryana,IN,https://www.google.com/maps/place/Jame+Masjid+Nasir+Al-Dahmani/data=!4m7!3m6!1s0x3972d03a94ce7b19:0xf2014fca68ac4a2e!8m2!3d27.9025787!4d77.0235757!16s%2Fg%2F11f50f06fc!19sChIJGXvOlDrQcjkRLkqsaMpPAfI?authuser=0&hl=en&rclk=1,"27.9025787,77.0235757"
SHAHI JAMA MASJID jm` msjd shhy,Mosque,"SHAHI JAMA MASJID jm` msjd shhy, 22, foot road, Shram Vihar, Pocket N, Madanpur Khadar, New Delhi, Delhi 110025","Shram Vihar, Pocket N, Madanpur Khadar","22, foot road",New Delhi,110025,Delhi,IN,https://www.google.com/maps/place/SHAHI+JAMA+MASJID+%D8%AC%D8%A7%D9%85%D8%B9+%D9%85%D8%B3%D8%AC%D8%AF+%D8%B4%D8%A7%DA%BE%DB%8C%E2%80%AD/data=!4m7!3m6!1s0x390ce5a36ba3a95d:0x7cb7c1435cda3fd2!8m2!3d28.5405938!4d77.3038368!16s%2Fg%2F11n733rllr!19sChIJXamja6PlDDkR0j_aXEPBt3w?authuser=0&hl=en&rclk=1,"28.5405938,77.3038368"
Madarse Wali Masjid,Mosque,"Madarse Wali Masjid, 110074, Kharak, Sat Bari, New Delhi, Delhi 110074","Kharak, Sat Bari",110074,New Delhi,110074,Delhi,IN,https://www.google.com/maps/place/Madarse+Wali+Masjid/data=!4m7!3m6!1s0x390ce024de45f913:0xd9c197951c578692!8m2!3d28.4699009!4d77.2047009!16s%2Fg%2F11f1k4x3by!19sChIJE_lF3iTgDDkRkoZXHJWXwdk?authuser=0&hl=en&rclk=1,"28.4699009,77.20470089999999"
Mosque msjd,Mosque,"Mosque msjd, 3696, Mori Gate, New Delhi, Delhi 110006",Mori Gate,3696,"New Delhi, Delhi",110006,Delhi,IN,https://www.google.com/maps/place/Mosque+%D9%85%D8%B3%D8%AC%D8%AF%E2%80%AD/data=!4m7!3m6!1s0x390cfd0c79fa6f11:0x326ac233054d2efa!8m2!3d28.6635017!4d77.2212005!16s%2Fg%2F12lkq2186!19sChIJEW_6eQz9DDkR-i5NBTPCajI?authuser=0&hl=en&rclk=1,"28.663501699999998,77.2212005"
Masjid Sanauji,Mosque,"Masjid Sanauji, Shop No. 1630, Lal Kuan, Lalkuan Bazar Rd, Baradari, Chandni Chowk, New Delhi, Delhi 110006","Bazar Sirkiwalan, Baradari, Chandni Chowk","Shop No. 1630, Lal Kuan, Lalkuan Bazar Rd","New Delhi, Delhi",110006,Delhi,IN,https://www.google.com/maps/place/Masjid+Sanauji/data=!4m7!3m6!1s0x390cfd13fe3ea72d:0x27ea23bc5f650202!8m2!3d28.6529317!4d77.2232485!16s%2Fg%2F12hplq4pp!19sChIJLac-_hP9DDkRAgJlX7wj6ic?authuser=0&hl=en&rclk=1,"28.6529317,77.2232485"
Jama Mominan Masjid,Mosque,"Jama Mominan Masjid, Sarwar, Rajasthan 305403",,,Sarwar,305403,Rajasthan,IN,https://www.google.com/maps/place/Jama+Mominan+Masjid/data=!4m7!3m6!1s0x396eb4f866b2dced:0x934b5f1ec1accf4e!8m2!3d26.0622917!4d75.0132322!16s%2Fg%2F11c0xswg1y!19sChIJ7dyyZvi0bjkRTs-swR5fS5M?authuser=0&hl=en&rclk=1,"26.0622917,75.01323219999999"
Sarvar Peer,Mosque,"F823+WCP Sarvar Peer, Kaka Nagar, Shamli, Uttar Pradesh 247776",Kaka Nagar,F823+WCP,Shamli,247776,Uttar Pradesh,IN,https://www.google.com/maps/place/Sarvar+Peer/data=!4m7!3m6!1s0x390c2f82f3053cf9:0xdbf40cd9bade6998!8m2!3d29.4523355!4d77.3035669!16s%2Fg%2F11f9y8k8r6!19sChIJ-TwF84IvDDkRmGneutkM9Ns?authuser=0&hl=en&rclk=1,"29.4523355,77.30356689999999"
Masjid Raza-E-Mustafa msjd rD mSTfy,Mosque,"G8Q7+HJ5 Masjid Raza-E-Mustafa msjd rD mSTfy, kanchan kunj, Madanpur Khadar, New Delhi, Delhi 110076","kanchan kunj, Madanpur Khadar",G8Q7+HJ5,New Delhi,110076,Delhi,IN,https://www.google.com/maps/place/Masjid+Raza-E-Mustafa+%D9%85%D8%B3%D8%AC%D8%AF+%D8%B1%D8%B6%D8%A7%D8%A1+%D9%85%D8%B5%D8%B7%D9%81%DB%8C%E2%80%AD/data=!4m7!3m6!1s0x390ce69e69e96a6d:0x38f14a242a6bc124!8m2!3d28.5388974!4d77.3141243!16s%2Fg%2F11g8nqrqdb!19sChIJbWrpaZ7mDDkRJMFrKiRK8Tg?authuser=0&hl=en&rclk=1,"28.5388974,77.3141243"
Masjid Ahmad Raza,Mosque,"MF73+4QJ Masjid Ahmad Raza, Mandli Shamaspur, Uttar Pradesh 244304",,MF73+4QJ,Mandli Shamaspur,244304,Uttar Pradesh,IN,https://www.google.com/maps/place/Masjid+Ahmad+Raza/data=!4m7!3m6!1s0x390b10bf11075015:0xdbe75c54da70e2da!8m2!3d28.6628489!4d78.454388!16s%2Fg%2F11c6ldxzzd!19sChIJFVAHEb8QCzkR2uJw2lRc59s?authuser=0&hl=en&rclk=1,"28.6628489,78.454388"
Thailan Masjid Ahle hadis Sarwar,Mosque,"3275+8FG Thailan Masjid Ahle hadis Sarwar, Unnamed Road, Sarwar, Rajasthan 305403",,"3275+8FG, Unnamed Road",Sarwar,305403,Rajasthan,IN,https://www.google.com/maps/place/Thailan+Masjid+Ahle+hadis+Sarwar/data=!4m7!3m6!1s0x396eb4f9f6fa4659:0xd00a9249c499a3e6!8m2!3d26.0633051!4d75.0087112!16s%2Fg%2F11f54_1t1n!19sChIJWUb69vm0bjkR5qOZxEmSCtA?authuser=0&hl=en&rclk=1,"26.063305099999997,75.0087112"
Mosque,Mosque,"2H35+MMQ Mosque, Narvari, Uttar Pradesh 202165",,2H35+MMQ,Narvari,202165,Uttar Pradesh,IN,https://www.google.com/maps/place/Mosque/data=!4m7!3m6!1s0x397336024afd3835:0x66eb75f1f504f5c5!8m2!3d28.004215!4d77.5592486!16s%2Fg%2F11fxqt9xw7!19sChIJNTj9SgI2czkRxfUE9fF162Y?authuser=0&hl=en&rclk=1,"28.004215,77.55924859999999"
Jamia Masjid Sarwar E Konain,Mosque,"458W+525 Jamia Masjid Sarwar E Konain, Muhammadi Town, Gujranwala, Punjab, Pakistan",Muhammadi Town,458W+525,Gujranwala,,"Gujranwala, Punjab",PK,https://www.google.com/maps/place/Jamia+Masjid+Sarwar+E+Konain/data=!4m7!3m6!1s0x391f2a8ca4f2c6cd:0xffb224bb85e517!8m2!3d32.1153866!4d74.1950941!16s%2Fg%2F11cnc5z51g!19sChIJzcbypIwqHzkRF-WFuySy_wA?authuser=0&hl=en&rclk=1,"32.1153866,74.19509409999999"
Masjid,Mosque,"H77Q+868 Masjid, Okhla Village, Okhla, New Delhi, Delhi 110025","Okhla Village, Okhla",H77Q+868,New Delhi,110025,Delhi,IN,https://www.google.com/maps/place/Masjid/data=!4m7!3m6!1s0x390ce47512f7aa2b:0x544337a9b9e5d7a2!8m2!3d28.5632814!4d77.2880932!16s%2Fg%2F11gbtpj5td!19sChIJK6r3EnXkDDkRotfluak3Q1Q?authuser=0&hl=en&rclk=1,"28.563281399999997,77.28809319999999"
Ishaq Masjid,Mosque,"Ishaq Masjid, Ishaq Masjid Wali Gali, Block C, Sarai Kale Khan, New Delhi, Delhi 110013","Block C, Sarai Kale Khan",Ishaq Masjid Wali Gali,New Delhi,110013,Delhi,IN,https://www.google.com/maps/place/Ishaq+Masjid/data=!4m7!3m6!1s0x390ce376f8a80f59:0x43d242dbd3376818!8m2!3d28.5849571!4d77.2565889!16s%2Fg%2F11q2tx_6x1!19sChIJWQ-o-HbjDDkRGGg309tC0kM?authuser=0&hl=en&rclk=1,"28.5849571,77.2565889"
Masjid Sarwar-e-Konain,Mosque,"V2X9+HFC Masjid Sarwar-e-Konain, Mailsi Multan Rd, Dokota, Vehari, Punjab 61180, Pakistan",,"V2X9+HFC, Mailsi Multan Rd",Dokota,61180,"Vehari, Punjab",PK,https://www.google.com/maps/place/Masjid+Sarwar-e-Konain/data=!4m7!3m6!1s0x393c9c3c21d8df11:0xe6793c34dcda457f!8m2!3d29.8989415!4d72.0186324!16s%2Fg%2F11z6c0s9v!19sChIJEd_YITycPDkRf0Xa3DQ8eeY?authuser=0&hl=en&rclk=1,"29.8989415,72.0186324"
Kalandari Masjid,Mosque,"3277+G89 Kalandari Masjid, Government Hospital Rd, Sarwar, Rajasthan 305403",,"3277+G89, Government Hospital Rd",Sarwar,305403,Rajasthan,IN,https://www.google.com/maps/place/Kalandari+Masjid/data=!4m7!3m6!1s0x396eb4f81edf8221:0xd72b05ee73b74836!8m2!3d26.0637895!4d75.0133569!16s%2Fg%2F11cs9lfvxr!19sChIJIYLfHvi0bjkRNki3c-4FK9c?authuser=0&hl=en&rclk=1,"26.0637895,75.01335689999999"
Madeena masjid sarwar,Mosque,"M28H+GHG Madeena masjid sarwar, Beehta, nai aabadi, sarwar",,"M28H+GHG, Beehta, nai aabadi",sarwar,,Uttar Pradesh,IN,https://www.google.com/maps/place/Madeena+masjid+sarwar/data=!4m7!3m6!1s0x390b65be65b01abd:0x8e8c65c152d8b0fd!8m2!3d28.6663174!4d78.0289665!16s%2Fg%2F11j8z_mchg!19sChIJvRqwZb5lCzkR_bDYUsFljI4?authuser=0&hl=en&rclk=1,"28.666317399999997,78.0289665"
Haji Rojdaar Wali Masjid,Mosque,"Haji Rojdaar Wali Masjid, 110074, Kharak, Sat Bari, New Delhi, Delhi 110074","Kharak, Sat Bari",110074,New Delhi,110074,Delhi,IN,https://www.google.com/maps/place/Haji+Rojdaar+Wali+Masjid/data=!4m7!3m6!1s0x390ce024a51f068f:0x1d8c2d91ee022fdd!8m2!3d28.4679055!4d77.2051939!16s%2Fg%2F11c5_hph3y!19sChIJjwYfpSTgDDkR3S8C7pEtjB0?authuser=0&hl=en&rclk=1,"28.467905499999997,77.2051939"
Masjid,Mosque,"G9HG+MQ4 Masjid, Sarwar Rd, Cantt, Lahore, Punjab, Pakistan",Cantt,"G9HG+MQ4, Sarwar Rd",Lahore,,"Lahore, Punjab",PK,https://www.google.com/maps/place/Masjid/data=!4m7!3m6!1s0x3919050c1a38899f:0x85e7117731c731ed!8m2!3d31.5291425!4d74.37696!16s%2Fg%2F1hc6sdnh7!19sChIJn4k4GgwFGTkR7THHMXcR54U?authuser=0&hl=en&rclk=1,"31.5291425,74.37696"
Sarwar-e-Konain Mosque,Mosque,"Sarwar-e-Konain Mosque, R C A Colony Rd, RCA Colony Mailsi, Vehari, Punjab, Pakistan",RCA Colony,R C A Colony Rd,Mailsi,,"Vehari, Punjab",PK,https://www.google.com/maps/place/Sarwar-e-Konain+Mosque/data=!4m7!3m6!1s0x393c8fafab751a59:0xc2f23eaa7bbd8fe9!8m2!3d29.812367!4d72.1799438!16s%2Fg%2F12nqgnlxy!19sChIJWRp1q6-PPDkR6Y-9e6o-8sI?authuser=0&hl=en&rclk=1,"29.812367,72.1799438"
Masjid Tariq Ul Saqib,Mosque,"H72X+XVH Masjid Tariq Ul Saqib, Abul Fazal Enclave Part 2, Jamia Nagar, Okhla, New Delhi, Delhi 110025","Abul Fazal Enclave Part 2, Jamia Nagar, Okhla",H72X+XVH,New Delhi,110025,Delhi,IN,https://www.google.com/maps/place/Masjid+Tariq+Ul+Saqib/data=!4m7!3m6!1s0x390ce5f89a22443d:0x7f1f8010c76175ea!8m2!3d28.5524415!4d77.2997285!16s%2Fg%2F11pdr6sc4g!19sChIJPUQimvjlDDkR6nVhxxCAH38?authuser=0&hl=en&rclk=1,"28.5524415,77.2997285"
Masjid Syed Rafai,Mosque,"J6WM+QH6 Masjid Syed Rafai, Bazar Chitli Qabar, Sheesh Mahal, Old Delhi, Delhi, 110006","Bazar Chitli Qabar, Sheesh Mahal, Old Delhi",J6WM+QH6,Delhi,110006,Delhi,IN,https://www.google.com/maps/place/Masjid+Syed+Rafai/data=!4m7!3m6!1s0x390cfd221053c913:0x87b5fec533d754bb!8m2!3d28.6469176!4d77.2338965!16s%2Fg%2F11g86m2x49!19sChIJE8lTECL9DDkRu1TXM8X-tYc?authuser=0&hl=en&rclk=1,"28.6469176,77.2338965"
Juma Masjid,Mosque,"GMJ3+348 Juma Masjid, Cholas Rd, Mohalla Abbas Nagar, Chholas, Uttar Pradesh 203207",Mohalla Abbas Nagar,"GMJ3+348, Cholas Rd",Chholas,203207,Uttar Pradesh,IN,https://www.google.com/maps/place/Juma+Masjid/data=!4m7!3m6!1s0x390c942a6e349581:0xfd6322c2aa576325!8m2!3d28.5301599!4d77.6528246!16s%2Fg%2F11c52lz9x6!19sChIJgZU0biqUDDkRJWNXqsIiY_0?authuser=0&hl=en&rclk=1,"28.530159899999997,77.6528246"
Masjid Hamam Wali,Mosque,"Masjid Hamam Wali, 6470, Katra Bariyan, Fatehpuri, Chandni Chowk, New Delhi, Delhi, 110006","Fatehpuri, Chandni Chowk","6470, Katra Bariyan","New Delhi, Delhi",110006,Delhi,IN,https://www.google.com/maps/place/Masjid+Hamam+Wali/data=!4m7!3m6!1s0x390cfd12316f31ef:0x174a76ac455f8b5!8m2!3d28.655784!4d77.222307!16s%2Fg%2F12hqwxj4v!19sChIJ7zFvMRL9DDkRtfhVxGqndAE?authuser=0&hl=en&rclk=1,"28.655783999999997,77.222307"
Zainabia Masjid Karbala,Mosque,"HMG3+RQ6 Zainabia Masjid Karbala, Uttar Pradesh 203207",,HMG3+RQ6,,203207,Uttar Pradesh,IN,https://www.google.com/maps/place/Zainabia+Masjid+Karbala/data=!4m7!3m6!1s0x390c9155ed947c11:0xe02d1fb1580dfdc2!8m2!3d28.5770428!4d77.6543971!16s%2Fg%2F11gbzchw6_!19sChIJEXyU7VWRDDkRwv0NWLEfLeA?authuser=0&hl=en&rclk=1,"28.577042799999997,77.6543971"
Masjid e Sarwar e Qunain,Mosque,"CC59+8GH Masjid e Sarwar e Qunain, Unnamed Road, Chak 60 GB, Faisalabad, Punjab, Pakistan",,"CC59+8GH, Unnamed Road",Chak 60 GB,,"Faisalabad, Punjab",PK,https://www.google.com/maps/place/Masjid+e+Sarwar+e+Qunain/data=!4m7!3m6!1s0x3922799de4f13f79:0xec309232eba7f14!8m2!3d31.4083032!4d73.4188451!16s%2Fg%2F11h6yq3tvs!19sChIJeT_x5J15IjkRFH-6LiMJww4?authuser=0&hl=en&rclk=1,"31.4083032,73.4188451"
Masjid Ramzan Shah,Mosque,"Masjid Ramzan Shah, 2426-27, Tilak Bazar, Chhota Chamarwara, Khari Baoli, Chandni Chowk, Delhi, 110006","Tilak Bazar, Chhota Chamarwara, Khari Baoli, Chandni Chowk",2426-27,Delhi,110006,Delhi,IN,https://www.google.com/maps/place/Masjid+Ramzan+Shah/data=!4m7!3m6!1s0x390cfd0d753d925d:0x642ac5cf3bf4413b!8m2!3d28.6593521!4d77.2201978!16s%2Fg%2F11cnczp9wn!19sChIJXZI9dQ39DDkRO0H0O8_FKmQ?authuser=0&hl=en&rclk=1,"28.6593521,77.2201978"
Masjid,Mosque,"Masjid, 42C, Central Auto Market, Block B, Sector 16, Noida, Uttar Pradesh 201301","Central Auto Market, Block B, Sector 16",42C,Noida,201301,Uttar Pradesh,IN,https://www.google.com/maps/place/Masjid/data=!4m7!3m6!1s0x390ce45b6e8b8d05:0x1c6debc04866e60!8m2!3d28.577362!4d77.31624!16s%2Fg%2F11c6rj0f0y!19sChIJBY2LblvkDDkRYG6GBLzexgE?authuser=0&hl=en&rclk=1,"28.577361999999997,77.31624"
Masjid Anar Wali,Mosque,"J6WP+H6G Masjid Anar Wali, Haveli Azam Khan, Chittli Qabar Bazar Rd, Delhi, 110006","Kalan Mehal, Old Delhi","J6WP+H6G, Haveli Azam Khan, Chittli Qabar Bazar Rd",Delhi,110006,Delhi,IN,https://www.google.com/maps/place/Masjid+Anar+Wali/data=!4m7!3m6!1s0x390cfd2192f45833:0xddf1e01c9e23f7d3!8m2!3d28.6464403!4d77.2355876!16s%2Fg%2F11f4v9j1sy!19sChIJM1j0kiH9DDkR0_cjnhzg8d0?authuser=0&hl=en&rclk=1,"28.6464403,77.2355876"
Masjid,Mosque,"Masjid, 242, Masjid Jheel Pio, Near ITO metro GateNo.3, Bahadur Shah Zafar Marg, Balmiki Basti, Vikram Nagar, Delhi, 110002","Bahadur Shah Zafar Marg, Balmiki Basti, Vikram Nagar","242, Masjid Jheel Pio, Near ITO metro GateNo.3, Bahadur Shah Zafar Marg",Delhi,110002,Delhi,IN,https://www.google.com/maps/place/Masjid/data=!4m7!3m6!1s0x390cfd441769149d:0xa1929f1b4f5921d6!8m2!3d28.6298914!4d77.2415098!16s%2Fg%2F11s2n38r9b!19sChIJnRRpF0T9DDkR1iFZTxufkqE?authuser=0&hl=en&rclk=1,"28.629891399999998,77.2415098"
Masjid haji mohd jaan patna wali,Mosque,"M654+JX6 Masjid haji mohd jaan patna wali, Ahata Kidara, Sadar Bazaar, New Delhi, Delhi, 110006","Ahata Kidara, Sadar Bazaar",M654+JX6,"New Delhi, Delhi",110006,Delhi,IN,https://www.google.com/maps/place/Masjid+haji+mohd+jaan+patna+wali/data=!4m7!3m6!1s0x390cfd66d89606d1:0x493ed1c5176e034!8m2!3d28.6590458!4d77.2073922!16s%2Fg%2F11tcczv521!19sChIJ0QaW2Gb9DDkRNOB2URztkwQ?authuser=0&hl=en&rclk=1,"28.659045799999998,77.2073922"
HADHRAT UMAR MASJID ALMAROOF CHOTI MASJID,Mosque,"HADHRAT UMAR MASJID ALMAROOF CHOTI MASJID, Chotti Masjid, Street number 9, Mulla Colony, Gharoli Extension, Gharoli, Delhi, 110096","Mulla Colony, Gharoli Extension, Gharoli","Chotti Masjid, Street number 9",Delhi,110096,Delhi,IN,https://www.google.com/maps/place/HADHRAT+UMAR+MASJID+ALMAROOF+CHOTI+MASJID/data=!4m7!3m6!1s0x390ce5c6cf830b2f:0x6bb8084dadf0d513!8m2!3d28.6213398!4d77.3314246!16s%2Fg%2F11sy4vfb7s!19sChIJLwuDz8blDDkRE9XwrU0IuGs?authuser=0&hl=en&rclk=1,"28.621339799999998,77.33142459999999"
Jamia Masjid Sarwar,Mosque,"JPW6+9WH Jamia Masjid Sarwar, Gujrat - Sargodha Rd, Dinga, Gujrat, Punjab, Pakistan",,"JPW6+9WH, Gujrat - Sargodha Rd",Dinga,,"Gujrat, Punjab",PK,https://www.google.com/maps/place/Jamia+Masjid+Sarwar/data=!4m7!3m6!1s0x391f7714993e4f95:0x38351ba37c550091!8m2!3d32.645934!4d73.712368!16s%2Fg%2F11kcc78mf9!19sChIJlU8-mRR3HzkRkQBVfKMbNTg?authuser=0&hl=en&rclk=1,"32.645934,73.712368"
JAMIA MASJID,Mosque,"FHV8+V24 JAMIA MASJID, MUHALLAH SIRAJDIN, Awan St, Rangpura Awana, Sialkot, Punjab, Pakistan",Laal Pura Rangpura Awana,"FHV8+V24, MUHALLAH SIRAJDIN, Awan St",Sialkot,,"Sialkot, Punjab",PK,https://www.google.com/maps/place/JAMIA+MASJID/data=!4m7!3m6!1s0x391eebfda3382167:0x67a136ccdcba314!8m2!3d32.4946487!4d74.5650767!16s%2Fg%2F11fn344prt!19sChIJZyE4o_3rHjkRFKPLzWwTegY?authuser=0&hl=en&rclk=1,"32.4946487,74.56507669999999"
Jafar Nagar Masjid,Mosque,"GCPW+CX Jafar Nagar Masjid, Kulesara, Greater Noida, Uttar Pradesh 201306",Kulesara,GCPW+CX,Greater Noida,,Uttar Pradesh,IN,https://www.google.com/maps/place/Jafar+Nagar+Masjid/data=!4m7!3m6!1s0x390ce9ad38dcdb91:0x2d6a8e92f67c00d1!8m2!3d28.5360757!4d77.4474791!16s%2Fg%2F11swrzhqlk!19sChIJkdvcOK3pDDkR0QB89pKOai0?authuser=0&hl=en&rclk=1,"28.536075699999998,77.4474791"
Masjid Saguwa Wali (Choti Masjid),Mosque,"Masjid Saguwa Wali (Choti Masjid), 1614, Old Dariya Ganj, Daryaganj, New Delhi, Delhi, 110002","Old Dariya Ganj, Daryaganj",1614,"New Delhi, Delhi",110002,Delhi,IN,https://www.google.com/maps/place/Masjid+Saguwa+Wali+%28Choti+Masjid%29/data=!4m7!3m6!1s0x390cfde70c37cfe3:0xcd9ebd43305f88c8!8m2!3d28.6470267!4d77.2382029!16s%2Fg%2F11f7qykm_q!19sChIJ4883DOf9DDkRyIhfMEO9ns0?authuser=0&hl=en&rclk=1,"28.647026699999998,77.23820289999999"
Sabeel Wali Masjid,Mosque,"M676+PJQ Sabeel Wali Masjid, Gali Zameer Wali, Nawabganj, Tis Hazari, New Delhi, Delhi, 110055","Nawabganj, Tis Hazari","M676+PJQ, Gali Zameer Wali","New Delhi, Delhi",110055,Delhi,IN,https://www.google.com/maps/place/Sabeel+Wali+Masjid/data=!4m7!3m6!1s0x390cfda2f2270c4d:0x9587bec3bb500c1f!8m2!3d28.6643348!4d77.2116016!16s%2Fg%2F11fpd01gx9!19sChIJTQwn8qL9DDkRHwxQu8O-h5U?authuser=0&hl=en&rclk=1,"28.6643348,77.2116016"
Gosulwara masjid,Mosque,"Q72W+G9R Gosulwara masjid, Mustafabad, Uttar Pradesh 201102",Mustafabad,Q72W+G9R,,201102,Uttar Pradesh,IN,https://www.google.com/maps/place/Gosulwara+masjid/data=!4m7!3m6!1s0x390cf9ef81571c89:0xb77bdbd6711a246c!8m2!3d28.7513625!4d77.2958906!16s%2Fg%2F11ngtdnrdk!19sChIJiRxXge_5DDkRbCQacdbbe7c?authuser=0&hl=en&rclk=1,"28.7513625,77.29589059999999"
Gulshan Raza Masjid,Mosque,"Gulshan Raza Masjid, Lane No.15, Rajiv Gandhi Nagar, New Mustafabad, Delhi, 110094","E2 Block, Rajiv Gandhi Nagar, New Mustafabad",Lane No.15,Delhi,110094,Delhi,IN,https://www.google.com/maps/place/Gulshan+Raza+Masjid/data=!4m7!3m6!1s0x390cfc1affbdd5d7:0x52b7520c83f199ba!8m2!3d28.711613!4d77.272223!16s%2Fg%2F12hrt5qhv!19sChIJ19W9_xr8DDkRupnxgwxSt1I?authuser=0&hl=en&rclk=1,"28.711613,77.272223"
Syed Hasan Masjid,Mosque,"Syed Hasan Masjid, 124, Sector C, Gole Market, New Delhi, Delhi 110001","Sector C, Gole Market",124,New Delhi,110001,Delhi,IN,https://www.google.com/maps/place/Syed+Hasan+Masjid/data=!4m7!3m6!1s0x390cfd263f536697:0x174e102183d9d2d1!8m2!3d28.63939!4d77.2065116!16s%2Fg%2F11pvclr7q6!19sChIJl2ZTPyb9DDkR0dLZgyEQThc?authuser=0&hl=en&rclk=1,"28.63939,77.2065116"
Masjid,Mosque,"9M74+66G Masjid, Hirnoti, Uttar Pradesh 203203",,9M74+66G,Hirnoti,203203,Uttar Pradesh,IN,https://www.google.com/maps/place/Masjid/data=!4m7!3m6!1s0x390cbbdfa6584727:0x4a1e67c0bd32dfaf!8m2!3d28.36306!4d77.6555641!16s%2Fg%2F11dzwm3m09!19sChIJJ0dYpt-7DDkRr98yvcBnHko?authuser=0&hl=en&rclk=1,"28.363059999999997,77.65556409999999"
Sannaut masjid,Mosque,"9XHR+Q4V Sannaut masjid, Sannaut, Uttar Pradesh 203150",,9XHR+Q4V,Sannaut,203150,Uttar Pradesh,IN,https://www.google.com/maps/place/Sannaut+masjid/data=!4m7!3m6!1s0x390b590a5d0b0e25:0xeaff554327474052!8m2!3d28.3794979!4d77.9903021!16s%2Fg%2F11h7cp0j52!19sChIJJQ4LXQpZCzkRUkBHJ0NV_-o?authuser=0&hl=en&rclk=1,"28.379497899999997,77.9903021"
Masjid a Hajrat saad,Mosque,"W2QM+Q9M Masjid a Hajrat saad, Haryana 122108",,W2QM+Q9M,,122108,Haryana,IN,https://www.google.com/maps/place/Masjid+a+Hajrat+saad/data=!4m7!3m6!1s0x3972d19555555555:0xf2d6a796822d662f!8m2!3d27.9394584!4d77.0334179!16s%2Fg%2F11hbq9r0j7!19sChIJVVVVVZXRcjkRL2Ytgpan1vI?authuser=0&hl=en&rclk=1,"27.9394584,77.0334179"
Jamia masjid rifat sarwar,Mosque,"J6FW+84M Jamia masjid rifat sarwar, Kot Abdul Malik, Sheikhupura, Punjab, Pakistan",Kot Abdul Malik,J6FW+84M,Kot Abdul Malik,,"Sheikhupura, Punjab",PK,https://www.google.com/maps/place/Jamia+masjid+rifat+sarwar/data=!4m7!3m6!1s0x39191dfecfe88e77:0xe4ab21515e138152!8m2!3d31.6233419!4d74.245286!16s%2Fg%2F11fnhsb8x6!19sChIJd47oz_4dGTkRUoETXlEhq-Q?authuser=0&hl=en&rclk=1,"31.6233419,74.245286"
Masjid,Mosque,"Masjid, 8/2, Budh Bazar, Block L 1, Devli, Sangam Vihar, New Delhi, Delhi 110062","Budh Bazar, Block L 1, Devli, Sangam Vihar",8/2,New Delhi,110062,Delhi,IN,https://www.google.com/maps/place/Masjid/data=!4m7!3m6!1s0x390ce1dde82b3bc3:0x4d3537cacd38aec4!8m2!3d28.4940769!4d77.2261653!16s%2Fg%2F11rk33_10p!19sChIJwzsr6N3hDDkRxK44zco3NU0?authuser=0&hl=en&rclk=1,"28.4940769,77.22616529999999"
Masjid Salarpur,Mosque,"G9WQ+G9M Masjid Salarpur, Salarpur Khadar, Salarpur, Noida, Uttar Pradesh","Salarpur Khadar, Salarpur",G9WQ+G9M,Noida,,Uttar Pradesh,IN,https://www.google.com/maps/place/Masjid+Salarpur/data=!4m7!3m6!1s0x390ce9d7c68a644b:0x8e7b553da13aa19f!8m2!3d28.5463281!4d77.388425!16s%2Fg%2F11gzpwf5c9!19sChIJS2SKxtfpDDkRn6E6oT1Ve44?authuser=0&hl=en&rclk=1,"28.5463281,77.388425"
Masjid Shatoot Wali,Mosque,"M67H+G5Q Masjid Shatoot Wali, Chhota Bazar, Mori Gate, New Delhi, Delhi, 110006","Chhota Bazar, Mori Gate",M67H+G5Q,"New Delhi, Delhi",110006,Delhi,IN,https://www.google.com/maps/place/Masjid+Shatoot+Wali/data=!4m7!3m6!1s0x390cfdd8114d08fd:0x326042596014276a!8m2!3d28.663827!4d77.2279973!16s%2Fg%2F11g4h_zjtj!19sChIJ_QhNEdj9DDkRaicUYFlCYDI?authuser=0&hl=en&rclk=1,"28.663826999999998,77.2279973"
Masjid,Mosque,"Masjid, Gali No 19, Gali Number 1, Mustafabad Extn, New Mustafabad, Delhi, 110094","E2 Block, Mustafabad Extn, New Mustafabad","Gali No 19, Gali Number 1",Delhi,110094,Delhi,IN,https://www.google.com/maps/place/Masjid/data=!4m7!3m6!1s0x390cfc1b020b0e91:0xb48a3c3233e41cbd!8m2!3d28.711773!4d77.272563!16s%2Fg%2F12hpqnhjr!19sChIJkQ4LAhv8DDkRvRzkMzI8irQ?authuser=0&hl=en&rclk=1,"28.711772999999997,77.27256299999999"
Masjid Qureshiyaan,Mosque,"GMJ3+348 Masjid Qureshiyaan, Mohalla Abbas Nagar, Chholas, Uttar Pradesh 203207",Mohalla Abbas Nagar,GMJ3+348,Chholas,203207,Uttar Pradesh,IN,https://www.google.com/maps/place/Masjid+Qureshiyaan/data=!4m7!3m6!1s0x390c942a6e346be7:0x1eafc690a5d649ff!8m2!3d28.5301699!4d77.652825!16s%2Fg%2F11c1rfrv0f!19sChIJ52s0biqUDDkR_0nWpZDGrx4?authuser=0&hl=en&rclk=1,"28.530169899999997,77.65282499999999"
Jama Masjid,Mosque,"G4V4+9PW Jama Masjid, Khanpur - Umarpur - Kamalpur Rd, Umarpur, Uttar Pradesh 203405",,"G4V4+9PW, Khanpur - Umarpur - Kamalpur Rd",Umarpur,203405,Uttar Pradesh,IN,https://www.google.com/maps/place/Jama+Masjid/data=!4m7!3m6!1s0x390b67e0979fac27:0x875c653f324e67dc!8m2!3d28.543488!4d78.1068428!16s%2Fg%2F11c323jb97!19sChIJJ6yfl-BnCzkR3GdOMj9lXIc?authuser=0&hl=en&rclk=1,"28.543488,78.1068428"
Jamia Masjid Shamim Sarwar,Mosque,"J762+QQQ Jamia Masjid Shamim Sarwar, Khaki, Shahdara, Lahore, Punjab, Pakistan",Khaki,J762+QQQ,Shahdara,,"Lahore, Punjab",PK,https://www.google.com/maps/place/Jamia+Masjid+Shamim+Sarwar/data=!4m7!3m6!1s0x39191dd04bcc886d:0xb46710f35ce15953!8m2!3d31.6119647!4d74.25199!16s%2Fg%2F11j8tp1vr0!19sChIJbYjMS9AdGTkRU1nhXPMQZ7Q?authuser=0&hl=en&rclk=1,"31.611964699999998,74.25198999999999"
Jamia Masjid Sarwar Yaqoob,Mosque,"45JQ+474 Jamia Masjid Sarwar Yaqoob, Jinnah Colony, Gujranwala, Punjab, Pakistan",Jinnah Colony,45JQ+474,Gujranwala,,"Gujranwala, Punjab",PK,https://www.google.com/maps/place/Jamia+Masjid+Sarwar+Yaqoob/data=!4m7!3m6!1s0x391f2b68fdbfaebb:0xa3752131ae17089c!8m2!3d32.1302569!4d74.1881933!16s%2Fg%2F11ss0f8hyw!19sChIJu66__WgrHzkRnAgXrjEhdaM?authuser=0&hl=en&rclk=1,"32.1302569,74.1881933"
masjid madrisa muhammad sarwar awan,Mosque,"FQ4J+2PR masjid madrisa muhammad sarwar awan, Wahgey, Sialkot, Punjab, Pakistan",,FQ4J+2PR,Wahgey,,"Sialkot, Punjab",PK,https://www.google.com/maps/place/masjid+madrisa+muhammad+sarwar+awan/data=!4m7!3m6!1s0x391ea30a6fc8c037:0x311306a03a02d3bb!8m2!3d32.4551074!4d74.7817653!16s%2Fg%2F11hdtfzvn0!19sChIJN8DIbwqjHjkRu9MCOqAGEzE?authuser=0&hl=en&rclk=1,"32.455107399999996,74.7817653"
JAMIA MASJID SUFI SARWAR,Mosque,"H397+WPJ JAMIA MASJID SUFI SARWAR, Faiz Abad St, Faizabad, Gujrat, Punjab, Pakistan",Faizabad,"H397+WPJ, Faiz Abad St",Gujrat,,"Gujrat, Punjab",PK,https://www.google.com/maps/place/JAMIA+MASJID+SUFI+SARWAR/data=!4m7!3m6!1s0x391f1bb0ade82631:0xd03e6923396701b7!8m2!3d32.569832!4d74.0642768!16s%2Fg%2F11hff_lnf6!19sChIJMSborbAbHzkRtwFnOSNpPtA?authuser=0&hl=en&rclk=1,"32.569832,74.0642768"
Jamete islami Markaz Masjid,Mosque,"H73W+G6F Jamete islami Markaz Masjid, Abul Fazal Enclave Part 2, Jamia Nagar, Okhla, New Delhi, Delhi 110025","Abul Fazal Enclave Part 2, Jamia Nagar, Okhla",H73W+G6F,New Delhi,110025,Delhi,IN,https://www.google.com/maps/place/Jamete+islami+Markaz+Masjid/data=!4m7!3m6!1s0x390ce584b6f10bd5:0xdadc52adbd2e5235!8m2!3d28.5538228!4d77.2955576!16s%2Fg%2F11t061tn1_!19sChIJ1QvxtoTlDDkRNVIuva1S3No?authuser=0&hl=en&rclk=1,"28.5538228,77.2955576"
Masjid madarse wali,Mosque,"Masjid madarse wali, A-304, Burari, New Delhi, Delhi, 110084",Burari,A-304,"New Delhi, Delhi",110084,Delhi,IN,https://www.google.com/maps/place/Masjid+madarse+wali/data=!4m7!3m6!1s0x390cff3807730b4f:0x7bd188a37a0cd7ca!8m2!3d28.7262379!4d77.2250131!16s%2Fg%2F11r99r5x99!19sChIJTwtzBzj_DDkRytcMeqOI0Xs?authuser=0&hl=en&rclk=1,"28.726237899999997,77.2250131"
Masjid,Mosque,"M794+RG5 Masjid, Block A, Shastri Park, Shahdara, Delhi, 110053","Block A, Shastri Park, Shahdara",M794+RG5,Delhi,,Delhi,IN,https://www.google.com/maps/place/Masjid/data=!4m7!3m6!1s0x390cfd74b6378221:0x2da5c9212f831088!8m2!3d28.6695164!4d77.2563643!16s%2Fg%2F11tb42z9g0!19sChIJIYI3tnT9DDkRiBCDLyHJpS0?authuser=0&hl=en&rclk=1,"28.6695164,77.2563643"
Noori Masjid,Mosque,"Noori Masjid, 263C, Block G 1, Talimabad, Sangam Vihar, New Delhi, Delhi 110080","Block G 1, Talimabad, Sangam Vihar",263C,New Delhi,110080,Delhi,IN,https://www.google.com/maps/place/Noori+Masjid/data=!4m7!3m6!1s0x390ce1ce9bad762d:0x8b1bd5983da6f608!8m2!3d28.5055544!4d77.2562686!16s%2Fg%2F11sjght1nw!19sChIJLXatm87hDDkRCPamPZjVG4s?authuser=0&hl=en&rclk=1,"28.505554399999998,77.2562686"
Sayyed wali masjid,Mosque,"Sayyed wali masjid, Saleh Nagar, Salnagar, Uttar Pradesh 250501",,,"Saleh Nagar, Salnagar",,Uttar Pradesh,IN,https://www.google.com/maps/place/Sayyed+wali+masjid/data=!4m7!3m6!1s0x390c5f6a58857799:0x8bcdd2e7d296c7d7!8m2!3d28.8913825!4d77.5335927!16s%2Fg%2F11rtm7qrn2!19sChIJmXeFWGpfDDkR18eW0ufSzYs?authuser=0&hl=en&rclk=1,"28.8913825,77.5335927"
Masjid Bodsawala Wali,Mosque,"Masjid Bodsawala Wali, 2370,Chatta Shahji,Chawri Bazar, Dharam Pura Rd, Nai Wala, Chandni Chowk, New Delhi, Delhi 110006","Nai Wala, Chandni Chowk","2370,Chatta Shahji,Chawri Bazar, Dharam Pura Rd","New Delhi, Delhi",110006,Delhi,IN,https://www.google.com/maps/place/Masjid+Bodsawala+Wali/data=!4m7!3m6!1s0x390cfd19b6b59b81:0x1d0c8dba8ab5b549!8m2!3d28.6509214!4d77.2308029!16s%2Fg%2F1ptx9cfbw!19sChIJgZu1thn9DDkRSbW1irqNDB0?authuser=0&hl=en&rclk=1,"28.650921399999998,77.2308029"
Masjid Peerji Wali,Mosque,"Masjid Peerji Wali, Chitli Qabar Rd, 110006, Turkman Gate, Chandni Chowk, Delhi, 110006","Bazar Chitli Qabar, Turkman Gate, Chandni Chowk","Chitli Qabar Rd, 110006",Delhi,110006,Delhi,IN,https://www.google.com/maps/place/Masjid+Peerji+Wali/data=!4m7!3m6!1s0x390cfd23cbc4bb81:0xf0ad0e52d2c26be7!8m2!3d28.6446931!4d77.2335229!16s%2Fg%2F11fzfbkyrv!19sChIJgbvEyyP9DDkR52vC0lIOrfA?authuser=0&hl=en&rclk=1,"28.644693099999998,77.2335229"
Masjid,Mosque,"Shop No: 5035, Masjid, Netaji Subhash Marg, Daryaganj, New Delhi, Delhi, 110002",Daryaganj,"Shop No: 5035, Netaji Subhash Marg","New Delhi, Delhi",110002,Delhi,IN,https://www.google.com/maps/place/Masjid/data=!4m7!3m6!1s0x390cfdf175041b95:0x8ef57a2bc9f92c1c!8m2!3d28.6480954!4d77.2403964!16s%2Fg%2F11s664lvxh!19sChIJlRsEdfH9DDkRHCz5ySt69Y4?authuser=0&hl=en&rclk=1,"28.6480954,77.2403964"
Masjid daroura,Mosque,"C52P+WFF Masjid daroura, Daraura, Uttar Pradesh 203394",,C52P+WFF,Daraura,203394,Uttar Pradesh,IN,https://www.google.com/maps/place/Masjid+daroura/data=!4m7!3m6!1s0x390b45f8434c5c29:0xf9c2ca23e4545095!8m2!3d28.4023021!4d78.1861671!16s%2Fg%2F11qp270pq2!19sChIJKVxMQ_hFCzkRlVBU5CPKwvk?authuser=0&hl=en&rclk=1,"28.4023021,78.18616709999999"
Saad,Mosque,"M654+XG7 Saad, Chamelian Marg, Chowk Nai Basti, Sadar Bazaar, New Delhi, Delhi, 110006","Chowk Nai Basti, Sadar Bazaar","M654+XG7, Chamelian Marg","New Delhi, Delhi",110006,Delhi,IN,https://www.google.com/maps/place/Saad/data=!4m7!3m6!1s0x390cfd801afcfe3b:0xc53ce6720742fae7!8m2!3d28.6599115!4d77.2063006!16s%2Fg%2F11n7s2n2g4!19sChIJO_78GoD9DDkR5_pCB3LmPMU?authuser=0&hl=en&rclk=1,"28.6599115,77.20630059999999"
Al Jazeera Masjid,Mosque,"87G4+QRW Al Jazeera Masjid, Madalpur, Haryana 121004",,87G4+QRW,Madalpur,121004,Haryana,IN,https://www.google.com/maps/place/Al+Jazeera+Masjid/data=!4m7!3m6!1s0x390cd93e77fc37e3:0x5e55f8d21799c3d2!8m2!3d28.3270171!4d77.2570992!16s%2Fg%2F11tc9c64dp!19sChIJ4zf8dz7ZDDkR0sOZF9L4VV4?authuser=0&hl=en&rclk=1,"28.3270171,77.2570992"
Masjid,Mosque,"Masjid, 09, Jarcha Rd, Khatana Dhirkhera, Uttar Pradesh 203207",,"09, Jarcha Rd",Khatana Dhirkhera,203207,Uttar Pradesh,IN,https://www.google.com/maps/place/Masjid/data=!4m7!3m6!1s0x390c954d8087893b:0x4722acd4a13b5bf2!8m2!3d28.5589068!4d77.5998939!16s%2Fg%2F11rn0djxgz!19sChIJO4mHgE2VDDkR8ls7odSsIkc?authuser=0&hl=en&rclk=1,"28.5589068,77.5998939"
Faizan E Raza,Mosque,"J8JW+HXV Faizan E Raza, Makanpur Colony, Sector 62A, Noida, Uttar Pradesh 201010","Makanpur Colony, Sector 62A",J8JW+HXV,Noida,201010,Uttar Pradesh,IN,https://www.google.com/maps/place/Faizan+E+Raza/data=!4m7!3m6!1s0x390ce5086e457e8b:0xeb1a90014d1eddaf!8m2!3d28.631485!4d77.347482!16s%2Fg%2F11tgdsrqw4!19sChIJi35FbgjlDDkRr90eTQGQGus?authuser=0&hl=en&rclk=1,"28.631484999999998,77.347482"
Dr Sarwar Zarha,Hospital,"MC78+MX5 Dr Sarwar Zarha, Moti Masjid Rd, Kaila Bhatta Village, Madhopura, Ghaziabad, Uttar Pradesh 201009","Kaila Bhatta Village, Madhopura","MC78+MX5, Moti Masjid Rd",Ghaziabad,201009,Uttar Pradesh,IN,https://www.google.com/maps/place/Dr+Sarwar+Zarha/data=!4m7!3m6!1s0x390cf10b7480392d:0xf494bed69db23af6!8m2!3d28.6641387!4d77.4174812!16s%2Fg%2F11j10v93c0!19sChIJLTmAdAvxDDkR9jqynda-lPQ?authuser=0&hl=en&rclk=1,"28.6641387,77.4174812"
Syed Sarwar Hussain (Shanore & Akku),Housing society,"Syed Sarwar Hussain (Shanore & Akku), CCRP+3FX Sarai Meer, near New Masjid, Nagina, Uttar Pradesh 246762",Bishnoi Sarai,"CCRP+3FX Sarai Meer, near New Masjid",Nagina,246762,Uttar Pradesh,IN,https://www.google.com/maps/place/Syed+Sarwar+Hussain+%28Shanore+%26+Akku%29/data=!4m7!3m6!1s0x390bc5c00318dc53:0x77ed1bf65f793e36!8m2!3d29.4402041!4d78.4361621!16s%2Fg%2F11k4y695mv!19sChIJU9wYA8DFCzkRNj55X_Yb7Xc?authuser=0&hl=en&rclk=1,"29.4402041,78.43616209999999"
Jamia Masjid Sarwar e kainat,Mosque,"Jamia Masjid Sarwar e kainat, Ansari Road, Qaiser Town-Shahdara Town Rd, Shahdara Town, Shahdara, Lahore, Punjab, Pakistan",Shahdara Town,"Ansari Road, Qaiser Town-Shahdara Town Rd",Shahdara,,"Lahore, Punjab",PK,https://www.google.com/maps/place/Jamia+Masjid+Sarwar+e+kainat/data=!4m7!3m6!1s0x39191d3b324713e9:0x7a7635e838d2bf48!8m2!3d31.646231!4d74.30354!16s%2Fg%2F11t429d3lh!19sChIJ6RNHMjsdGTkRSL_SOOg1dno?authuser=0&hl=en&rclk=1,"31.646231,74.30354"
Jamia Masjid Al Sarwar,Mosque,"FJ3H+5F8 Jamia Masjid Al Sarwar, Pipli Mahtab Rai, Pakpattan, Punjab, Pakistan",,FJ3H+5F8,Pipli Mahtab Rai,,"Pakpattan, Punjab",PK,https://www.google.com/maps/place/Jamia+Masjid+Al+Sarwar/data=!4m7!3m6!1s0x3917fb2286b66a0d:0xff1cd1d003359833!8m2!3d30.4529107!4d73.6286957!16s%2Fg%2F11k5f4_vqs!19sChIJDWq2hiL7FzkRM5g1A9DRHP8?authuser=0&hl=en&rclk=1,"30.4529107,73.6286957"
Jamia masjid sarwar-e-kohnain,Mosque,"HFVH+HG7 Jamia masjid sarwar-e-kohnain, Manawan Manawan, Lahore, Punjab, Pakistan",Manawan Manawan,HFVH+HG7,Lahore,,"Lahore, Punjab",PK,https://www.google.com/maps/place/Jamia+masjid+sarwar-e-kohnain/data=!4m7!3m6!1s0x39191151a0ca8aef:0xe514450b73e8dbc6!8m2!3d31.5939003!4d74.4787896!16s%2Fg%2F11v08jtfsx!19sChIJ74rKoFERGTkRxtvocwtFFOU?authuser=0&hl=en&rclk=1,"31.593900299999998,74.4787896"
Masjid-e-Sarwar-e-Konain,Mosque,"G95G+CR7 Masjid-e-Sarwar-e-Konain, Sarwar Park near Margazar Colony Niaz Baig Rood, Falcon Complex, Lahore, Punjab, Pakistan",Falcon Complex,"G95G+CR7, Sarwar Park near Margazar Colony Niaz Baig Rood",Lahore,,"Lahore, Punjab",PK,https://www.google.com/maps/place/Masjid-e-Sarwar-e-Konain/data=!4m7!3m6!1s0x391905049df545f7:0xa11ed3d88e303b2b!8m2!3d31.5085391!4d74.3770478!16s%2Fg%2F11hq11jfkf!19sChIJ90X1nQQFGTkRKzswjtjTHqE?authuser=0&hl=en&rclk=1,"31.5085391,74.3770478"
Jamia Masjid Sarwar e Gulzar e Madina,Mosque,"64XX+W46 Jamia Masjid Sarwar e Gulzar e Madina, Allama Iqbal Town, Rahwali Cantonments, Gujranwala, Punjab, Pakistan",Allama Iqbal Town,64XX+W46,Rahwali Cantonments,,"Gujranwala, Punjab",PK,https://www.google.com/maps/place/Jamia+Masjid+Sarwar+e+Gulzar+e+Madina/data=!4m7!3m6!1s0x391f278d5cbcfd29:0xa68c24f2d7db619!8m2!3d32.2497873!4d74.1477709!16s%2Fg%2F11k4lrnmx6!19sChIJKf28XI0nHzkRGbZ9LU_CaAo?authuser=0&hl=en&rclk=1,"32.2497873,74.1477709"
Masjid e Sarwar,Mosque,"Masjid e Sarwar, Plot 66, Block B Samanabad, Faisalabad, Punjab, Pakistan",Block B Samanabad,Plot 66,Faisalabad,,"Faisalabad, Punjab",PK,https://www.google.com/maps/place/Masjid+e+Sarwar/data=!4m7!3m6!1s0x39225d86e48be2f9:0x9c6ed83641895376!8m2!3d31.3925962!4d73.0689616!16s%2Fg%2F11j1hlr13l!19sChIJ-eKL5IZdIjkRdlOJQTbYbpw?authuser=0&hl=en&rclk=1,"31.3925962,73.0689616"
JAMIA MASJID SARWAR SHAMMAS AHLE-HADEES,Mosque,"JAMIA MASJID SARWAR SHAMMAS AHLE-HADEES, Street 21, Ali Park Sector Y Fareed Town, Gujranwala, Punjab, Pakistan",Ali Park Sector Y Fareed Town,Street 21,Gujranwala,,"Gujranwala, Punjab",PK,https://www.google.com/maps/place/JAMIA+MASJID+SARWAR+SHAMMAS+AHLE-HADEES/data=!4m7!3m6!1s0x391f2bfe8f5d80b7:0xb81d27860ffc3afb!8m2!3d32.1354685!4d74.2102746!16s%2Fg%2F11kr9m_mjk!19sChIJt4Bdj_4rHzkR-zr8D4YnHbg?authuser=0&hl=en&rclk=1,"32.1354685,74.21027459999999"
Shazia bint Muhammad sarwar awan masjid gulewali,Mosque,"Shazia bint Muhammad sarwar awan masjid gulewali, muhammad sarwar awan masjid, Gulewali, Sialkot, Punjab, Pakistan",,muhammad sarwar awan masjid,Gulewali,,"Sialkot, Punjab",PK,https://www.google.com/maps/place/Shazia+bint+Muhammad+sarwar+awan+masjid+gulewali/data=!4m7!3m6!1s0x391ebf4048152d95:0x775d16b40aa7bd4f!8m2!3d32.4042411!4d74.6699869!16s%2Fg%2F11ptvfj2qw!19sChIJlS0VSEC_HjkRT72nCrQWXXc?authuser=0&hl=en&rclk=1,"32.4042411,74.6699869"
Sarwar Qasai Wali Masjid,Mosque,"9JXV+HP5 Sarwar Qasai Wali Masjid, Saeedabad Colony, Bahawalpur, Punjab, Pakistan",Saeedabad Colony,9JXV+HP5,Bahawalpur,,"Bahawalpur, Punjab",PK,https://www.google.com/maps/place/Sarwar+Qasai+Wali+Masjid/data=!4m7!3m6!1s0x393b97f76702c3d5:0xc673cf3c1be163a7!8m2!3d29.3976566!4d71.6441531!16s%2Fg%2F11tk8kzy84!19sChIJ1cMCZ_eXOzkRp2PhGzzPc8Y?authuser=0&hl=en&rclk=1,"29.397656599999998,71.6441531"
"Jamia Masjid Sarwar, Izhar Town",Mosque,"4JWV+6VP Jamia Masjid Sarwar, Izhar Town, Jhal Chakian, Sargodha, Punjab, Pakistan",,4JWV+6VP,Jhal Chakian,,"Sargodha, Punjab",PK,"https://www.google.com/maps/place/Jamia+Masjid+Sarwar,+Izhar+Town/data=!4m7!3m6!1s0x3921757727af06b9:0xe379f8da5f6a6749!8m2!3d32.1455901!4d72.644704!16s%2Fg%2F11l260ypl_!19sChIJuQavJ3d1ITkRSWdqX9r4eeM?authuser=0&hl=en&rclk=1","32.1455901,72.64470399999999"
Masjid Sarwar e konain,Mosque,"4FVR+497 Masjid Sarwar e konain, Unnamed Road, Basti Shorkot Multan, Punjab, Pakistan",Basti Shorkot,"4FVR+497, Unnamed Road",Multan,,"Multan, Punjab",PK,https://www.google.com/maps/place/Masjid+Sarwar+e+konain/data=!4m7!3m6!1s0x393b377fe4d059fd:0xec527ded2069012c!8m2!3d30.142788!4d71.4909862!16s%2Fg%2F11tc7b_k50!19sChIJ_VnQ5H83OzkRLAFpIO19Uuw?authuser=0&hl=en&rclk=1,"30.142788,71.4909862"
jamia masjid sarwar e konain abbas colony,Mosque,"56P9+P9H jamia masjid sarwar e konain abbas colony, Chak Jagna Jagna, Gujranwala, Punjab, Pakistan",Chak Jagna Jagna,56P9+P9H,Gujranwala,,"Gujranwala, Punjab",PK,https://www.google.com/maps/place/jamia+masjid+sarwar+e+konain+abbas+colony/data=!4m7!3m6!1s0x391ed7335f430879:0xe1c7a068bbef978f!8m2!3d32.1868226!4d74.2184695!16s%2Fg%2F11v0qsfztv!19sChIJeQhDXzPXHjkRj5fvu2igx-E?authuser=0&hl=en&rclk=1,"32.1868226,74.2184695"
