name,main_category,address,address_ward,address_street,address_city,address_postal_code,address_state,address_country_code,link,coordinates
Masjid Abu bakar R.z Ahle Hadees,Mosque,"Masjid Abu bakar R.z Ahle Hadees, G.336 Juma bazar Road, Shaheed Nagar, Ghaziabad, Uttar Pradesh 201005",Shaheed Nagar,G.336 Juma bazar Road,Ghaziabad,201005,Uttar Pradesh,IN,https://www.google.com/maps/place/Masjid+Abu+bakar+R.z+Ahle+Hadees/data=!4m7!3m6!1s0x390cfb8374f606bb:0x8cdb3f4f490e4a2e!8m2!3d28.6806126!4d77.3359288!16s%2Fg%2F11h1pdqs72!19sChIJuwb2dIP7DDkRLkoOSU8_24w?authuser=0&hl=en&rclk=1,"28.6806126,77.33592879999999"
Jama Masjid Abu Bakr Siddique Ahle Hadees,Mosque,"H78M+M32 Jama Masjid Abu Bakr Siddique Ahle Hadees, Zakir Nagar Main Rd, Mehboob Nagar, Jogabai Extension, Jamia Nagar, Okhla, New Delhi, Delhi 110025","Mehboob Nagar, Jogabai Extension, Jamia Nagar, Okhla","H78M+M32, Zakir Nagar Main Rd",New Delhi,110025,Delhi,IN,https://www.google.com/maps/place/Jama+Masjid+Abu+Bakr+Siddique+Ahle+Hadees/data=!4m7!3m6!1s0x390ce38962496867:0x3deed9e1febe9bfc!8m2!3d28.5666295!4d77.2826439!16s%2Fg%2F124srs5b7!19sChIJZ2hJYonjDDkR_Ju-_uHZ7j0?authuser=0&hl=en&rclk=1,"28.566629499999998,77.2826439"
Sabz Masjid,Mosque,"Sabz Masjid, 3571, Lalkuan Bazar Rd, Bazar Sirkiwalan, Lal Kuan Bazar, Chandni Chowk, Delhi, 110006","Bazar Sirkiwalan, Lal Kuan Bazar, Chandni Chowk","3571, Lalkuan Bazar Rd",Delhi,110006,Delhi,IN,https://www.google.com/maps/place/Sabz+Masjid/data=!4m7!3m6!1s0x390cfd16a94877a7:0x7b35bb653cd42e20!8m2!3d28.652163!4d77.223599!16s%2Fm%2F04q247t!19sChIJp3dIqRb9DDkRIC7UPGW7NXs?authuser=0&hl=en&rclk=1,"28.652162999999998,77.223599"
Abu Bakr Mosque,Mosque,"Abu Bakr Mosque, Block H, Bhagwati Garden, Nawada, Delhi, 110059","Block H, Bhagwati Garden, Nawada",,Delhi,,Delhi,IN,https://www.google.com/maps/place/Abu+Bakr+Mosque/data=!4m7!3m6!1s0x390d054024fc4f99:0xa39867f7fae8e4b2!8m2!3d28.6267831!4d77.0315731!16s%2Fg%2F11byyq7mh6!19sChIJmU_8JEAFDTkRsuTo-vdnmKM?authuser=0&hl=en&rclk=1,"28.626783099999997,77.0315731"
Shahi Chhoti Masjid Abu Road shaahii chottii msjid aabuurodd,Mosque,"FQMM+523 Shahi Chhoti Masjid Abu Road shaahii chottii msjid aabuurodd, Near Hardik Hospital, Ghosi Mohalla, Abu Road, Rajasthan 307026",Ghosi Mohalla,"FQMM+523, Near Hardik Hospital",Abu Road,307026,Rajasthan,IN,https://www.google.com/maps/place/Shahi+Chhoti+Masjid+Abu+Road+%E0%A4%B6%E0%A4%BE%E0%A4%B9%E0%A5%80+%E0%A4%9B%E0%A5%8B%E0%A4%9F%E0%A5%80+%E0%A4%AE%E0%A4%B8%E0%A5%8D%E0%A4%9C%E0%A4%BF%E0%A4%A6+%E0%A4%86%E0%A4%AC%E0%A5%82%E0%A4%B0%E0%A5%8B%E0%A4%A1/data=!4m7!3m6!1s0x395d28bda6bb9437:0x5fa97b53cd5f4b20!8m2!3d24.4828832!4d72.7825533!16s%2Fg%2F11gdkqq4_1!19sChIJN5S7pr0oXTkRIEtfzVN7qV8?authuser=0&hl=en&rclk=1,"24.4828832,72.7825533"
Bilal Masjid msjd bll,Mosque,"Bilal Masjid msjd bll, Bilal Masjid, 3, Street No 29, D Block, Abul Fazal Enclave, Part-1 Block D, Jamia Nagar, Okhla, New Delhi, Delhi 110025","D Block, Abul Fazal Enclave, Part-1 Block D, Jamia Nagar, Okhla","Bilal Masjid, 3, Street No 29",New Delhi,110025,Delhi,IN,https://www.google.com/maps/place/Bilal+Masjid+%D9%85%D8%B3%D8%AC%D8%AF+%D8%A8%D9%84%D8%A7%D9%84%E2%80%AD/data=!4m7!3m6!1s0x390ce50f2af84891:0x3bc522ba8b7bd90a!8m2!3d28.5583498!4d77.2940393!16s%2Fg%2F11hdwgl3f4!19sChIJkUj4Kg_lDDkRCtl7i7oixTs?authuser=0&hl=en&rclk=1,"28.5583498,77.2940393"
Abu Bakar Masjid,Mosque,"XP84+RJ7 Abu Bakar Masjid, Pilokhani Road, Masud Nagar, Meerut, Uttar Pradesh 250002",Masud Nagar,"XP84+RJ7, Pilokhani Road",Meerut,250002,Uttar Pradesh,IN,https://www.google.com/maps/place/Abu+Bakar+Masjid/data=!4m7!3m6!1s0x390c648cb5f0c257:0x1fdcd08299242852!8m2!3d28.9670379!4d77.7065525!16s%2Fg%2F1pyqqvjsk!19sChIJV8LwtYxkDDkRUigkmYLQ3B8?authuser=0&hl=en&rclk=1,"28.967037899999998,77.7065525"
Masjid,Mosque,"FQMM+RJ8 Masjid, Behind Vishnu dharamshala, Abu Road, Rajasthan 307026",Ghosi Mohalla,"FQMM+RJ8, Behind Vishnu dharamshala",Abu Road,307026,Rajasthan,IN,https://www.google.com/maps/place/Masjid/data=!4m7!3m6!1s0x395d28bc36cb9a89:0xf6346ec22db2e99d!8m2!3d24.4845459!4d72.7840782!16s%2Fg%2F11fxzw347g!19sChIJiZrLNrwoXTkRnemyLcJuNPY?authuser=0&hl=en&rclk=1,"24.4845459,72.7840782"
Masjid Abu Bakr Siddique,Mosque,"Masjid Abu Bakr Siddique, 120/121, Paprawat Rd Roshan Vihar II, Roshan Vihar 1, Paprawat Rd, Roshan Vihar II, Roshan Vihar 1, Najafgarh, Delhi, 110043","Roshan Vihar II, Roshan Vihar 1, Najafgarh","120/121, Paprawat Rd Roshan Vihar II, Roshan Vihar 1, Paprawat Rd",Delhi,110043,Delhi,IN,https://www.google.com/maps/place/Masjid+Abu+Bakr+Siddique/data=!4m7!3m6!1s0x390d1020983df7a5:0x4cf26b8254682764!8m2!3d28.5998067!4d76.9830872!16s%2Fg%2F11c6vswp4n!19sChIJpfc9mCAQDTkRZCdoVIJr8kw?authuser=0&hl=en&rclk=1,"28.5998067,76.9830872"
Masjid Al-Sahabi Abu Bakar Al-Siddiq Rz.,Mosque,"4245+7R8 Masjid Al-Sahabi Abu Bakar Al-Siddiq Rz., Beside Gandhi Park, Mandi Rd, Nuh, Haryana 122107",,"4245+7R8, Beside Gandhi Park, Mandi Rd",Nuh,122107,Haryana,IN,https://www.google.com/maps/place/Masjid+Al-Sahabi+Abu+Bakar+Al-Siddiq+Rz./data=!4m7!3m6!1s0x390d32789712c47d:0x3ba2e3757f81bcfb!8m2!3d28.1056666!4d77.0095745!16s%2Fg%2F11fyx97z23!19sChIJfcQSl3gyDTkR-7yBf3Xjojs?authuser=0&hl=en&rclk=1,"28.1056666,77.0095745"
Masjid abu bakr,Mosque,"Masjid abu bakr, 20, Noorpur - Dhampur Rd, Mohammad Alipur Bhikan, Wazidpur, Uttar Pradesh 246761",,"20, Noorpur - Dhampur Rd","Mohammad Alipur Bhikan, Wazidpur",246761,Uttar Pradesh,IN,https://www.google.com/maps/place/Masjid+abu+bakr/data=!4m7!3m6!1s0x390bb7edd2b046f5:0x15d0f70f61d4f55f!8m2!3d29.2717594!4d78.4893647!16s%2Fg%2F11g6mhg6zl!19sChIJ9Uaw0u23CzkRX_XUYQ_30BU?authuser=0&hl=en&rclk=1,"29.271759399999997,78.4893647"
Madina Masjid,Mosque,"FQJH+RCG Madina Masjid, Sindhi Colony, Abu Road, Rajasthan 307026",Sindhi Colony,FQJH+RCG,Abu Road,307026,Rajasthan,IN,https://www.google.com/maps/place/Madina+Masjid/data=!4m7!3m6!1s0x395d294393db3c07:0x9c261c227eddb986!8m2!3d24.4820561!4d72.778567!16s%2Fg%2F11fm1xs29s!19sChIJBzzbk0MpXTkRhrndfiIcJpw?authuser=0&hl=en&rclk=1,"24.482056099999998,72.778567"
Masjid Abu Hurayra,Mosque,"WF48+983 Masjid Abu Hurayra, Satti Road, near Ali Sweets, Amroha, Uttar Pradesh 244221",Mohalla Mullana,"WF48+983, Satti Road, near Ali Sweets",Amroha,244221,Uttar Pradesh,IN,https://www.google.com/maps/place/Masjid+Abu+Hurayra/data=!4m7!3m6!1s0x390b080e4db35705:0x768289d948321b4d!8m2!3d28.9058765!4d78.4657834!16s%2Fg%2F11bw1_0dmr!19sChIJBVezTQ4ICzkRTRsySNmJgnY?authuser=0&hl=en&rclk=1,"28.905876499999998,78.46578339999999"
Masjid Abu Bakr msjd bw bkhr,Mosque,"Masjid Abu Bakr msjd bw bkhr, C-85, Kalindi Kunj Rd, Shaheen Bagh, Jamia Nagar, Okhla, New Delhi, Delhi 110025","Shaheen Bagh, Jamia Nagar, Okhla","C-85, Kalindi Kunj Rd",New Delhi,110025,Delhi,IN,https://www.google.com/maps/place/Masjid+Abu+Bakr+%D9%85%D8%B3%D8%AC%D8%AF+%D8%A7%D8%A8%D9%88+%D8%A8%DA%A9%D8%B1%E2%80%AD/data=!4m7!3m6!1s0x390ce418d6501b7b:0x2f1b538b7ce247e6!8m2!3d28.5463003!4d77.3067314!16s%2Fg%2F11c6fbqvnf!19sChIJextQ1hjkDDkR5kfifItTGy8?authuser=0&hl=en&rclk=1,"28.5463003,77.30673139999999"
Abu Bakar Masjid,Place of worship,"M7H6+6WR Abu Bakar Masjid, Unnamed Road, Block T, Goutampuri, Shahdara, Delhi, 110031","Block T, Goutampuri, Shahdara","M7H6+6WR, Unnamed Road, Block T",Delhi,110031,Delhi,IN,https://www.google.com/maps/place/Abu+Bakar+Masjid/data=!4m7!3m6!1s0x390cfc5e147bd0dd:0x58f00e4a3e68fdaa!8m2!3d28.6781239!4d77.2622701!16s%2Fg%2F11hcw76z9h!19sChIJ3dB7FF78DDkRqv1oPkoO8Fg?authuser=0&hl=en&rclk=1,"28.6781239,77.2622701"
Masjid Aaisha (AhleHadees) msjd `y'shh,Mosque,"G8R2+7VC Masjid Aaisha (AhleHadees) msjd `y'shh, Abu Huraira Rd, Shram Vihar, Pocket N, Madanpur Khadar, New Delhi, Delhi 110025","Shram Vihar, Pocket N, Madanpur Khadar","G8R2+7VC, Abu Huraira Rd",New Delhi,110025,Delhi,IN,https://www.google.com/maps/place/Masjid+Aaisha+%28AhleHadees%29+%D9%85%D8%B3%D8%AC%D8%AF+%D8%B9%D8%A7%D8%A6%D8%B4%DB%81%E2%80%AD/data=!4m7!3m6!1s0x390ce5b89893a5af:0x11e8971831978edd!8m2!3d28.5406801!4d77.3021456!16s%2Fg%2F11n04m8twz!19sChIJr6WTmLjlDDkR3Y6XMRiX6BE?authuser=0&hl=en&rclk=1,"28.5406801,77.3021456"
Masjid Abu Bakr Siddique (Rz),Mosque,"Masjid Abu Bakr Siddique (Rz), Railway Station Rd, Masuri, Uttar Pradesh 201015",,Railway Station Rd,Masuri,201015,Uttar Pradesh,IN,https://www.google.com/maps/place/Masjid+Abu+Bakr+Siddique+%28Rz%29/data=!4m7!3m6!1s0x390cf3df13b464b7:0xa1985d1ce7dbc28f!8m2!3d28.6922745!4d77.544577!16s%2Fg%2F11lg4n5z30!19sChIJt2S0E9_zDDkRj8Lb5xxdmKE?authuser=0&hl=en&rclk=1,"28.6922745,77.54457699999999"
Masjid Abu Bakr,Mosque,"5J26+5R5 Masjid Abu Bakr, Sardhana, Uttar Pradesh 250342",,5J26+5R5,Sardhana,250342,Uttar Pradesh,IN,https://www.google.com/maps/place/Masjid+Abu+Bakr/data=!4m7!3m6!1s0x390c6bb3caacb12b:0xe066e953bfb53424!8m2!3d29.1503956!4d77.61211!16s%2Fg%2F11fxx4c_f6!19sChIJK7GsyrNrDDkRJDS1v1PpZuA?authuser=0&hl=en&rclk=1,"29.1503956,77.61211"
"Multaniya Jama Masjid, Abu Road",Mosque,"FQCR+9H2 Multaniya Jama Masjid, Abu Road, NH 27, Ambica Colony, Kui, Rajasthan 307026",Ambica Colony,"FQCR+9H2, NH 27",Kui,307026,Rajasthan,IN,"https://www.google.com/maps/place/Multaniya+Jama+Masjid,+Abu+Road/data=!4m7!3m6!1s0x395d293950ddc345:0x52afdfa547ca0070!8m2!3d24.470892!4d72.791401!16s%2Fg%2F11trwqc3mv!19sChIJRcPdUDkpXTkRcADKR6Xfr1I?authuser=0&hl=en&rclk=1","24.470892,72.791401"
Masjid Abu Huraira msjid abuu hurairaa,Mosque,"2VM6+V5G Masjid Abu Huraira msjid abuu hurairaa, Sahabsar, Rajasthan 332304",,2VM6+V5G,Sahabsar,332304,Rajasthan,IN,https://www.google.com/maps/place/Masjid+Abu+Huraira+%E0%A4%AE%E0%A4%B8%E0%A5%8D%E0%A4%9C%E0%A4%BF%E0%A4%A6+%E0%A4%85%E0%A4%AC%E0%A5%82+%E0%A4%B9%E0%A5%81%E0%A4%B0%E0%A5%88%E0%A4%B0%E0%A4%BE/data=!4m7!3m6!1s0x3914a5e488ae5945:0x1e34fbc224fd5a6e!8m2!3d28.0346906!4d74.8604667!16s%2Fg%2F11n09_ycqd!19sChIJRVmuiOSlFDkRblr9JML7NB4?authuser=0&hl=en&rclk=1,"28.034690599999998,74.8604667"
