name,main_category,address,address_ward,address_street,address_city,address_postal_code,address_state,address_country_code,link,coordinates
Gole Market Masjid,Mosque,"Gole Market Masjid, Gole Market Graveyard, Karan Nagar, Srinagar, Jammu and Kashmir 190010",Karan Nagar,Gole Market Graveyard,Srinagar,190010,Jammu and Kashmir,IN,https://www.google.com/maps/place/Gole+Market+Masjid/data=!4m7!3m6!1s0x38e18ff613a05e61:0x5ae04b9556781b42!8m2!3d34.084227!4d74.7968755!16s%2Fg%2F1vc_nqxj!19sChIJYV6gE_aP4TgRQht4VpVL4Fo?authuser=0&hl=en&rclk=1,"34.084227,74.7968755"
Jamia Masjid Srinagar,Mosque,"Jamia Masjid Srinagar, Nowhatta Kathi Darwaza Road, Nowhatta, Srinagar, Jammu and Kashmir 190003",Nowhatta,Nowhatta Kathi Darwaza Road,Srinagar,190003,Jammu and Kashmir,IN,https://www.google.com/maps/place/Jamia+Masjid+Srinagar/data=!4m7!3m6!1s0x38e191e258cfeccd:0x846880354f8ac020!8m2!3d34.0984872!4d74.8096718!16zL20vMGRmeXJy!19sChIJzezPWOKR4TgRIMCKTzWAaIQ?authuser=0&hl=en&rclk=1,"34.0984872,74.80967179999999"
Masjid Dastgeer Sahib,Mosque,"3RV8+8V5 Masjid Dastgeer Sahib, Khaniyar, Srinagar, Jammu and Kashmir 190003",Khaniyar,3RV8+8V5,Srinagar,190003,Jammu and Kashmir,IN,https://www.google.com/maps/place/Masjid+Dastgeer+Sahib/data=!4m7!3m6!1s0x38e1857c9fd3b8e1:0xf460b3cf4be9f8db!8m2!3d34.0932684!4d74.8172486!16s%2Fm%2F0k2fs2s!19sChIJ4bjTn3yF4TgR2_jpS8-zYPQ?authuser=0&hl=en&rclk=1,"34.0932684,74.8172486"
Dargah Hazratbal Shrine,Mosque,"Dargah Hazratbal Shrine, Hazratbal near Fire Brigade station, Srinagar, Jammu and Kashmir 190006",Hazaratbal,Hazratbal near Fire Brigade station,Srinagar,190006,Jammu and Kashmir,IN,https://www.google.com/maps/place/Dargah+Hazratbal+Shrine/data=!4m7!3m6!1s0x38e185bc7a3fbbd9:0x9b6cf66822475e36!8m2!3d34.1289329!4d74.8424909!16zL20vMGM2bnpz!19sChIJ2bs_eryF4TgRNl5HImj2bJs?authuser=0&hl=en&rclk=1,"34.128932899999995,74.8424909"
Shah E Hamdan R.H Mosque,Mosque,"3RR5+H44 Shah E Hamdan R.H Mosque, Shamswari, Srinagar, Jammu and Kashmir 190002",Shamswari,3RR5+H44,Srinagar,190002,Jammu and Kashmir,IN,https://www.google.com/maps/place/Shah+E+Hamdan+R.H+Mosque/data=!4m7!3m6!1s0x38e185613f0c7f03:0xd7101aa55cec520a!8m2!3d34.0913875!4d74.8078281!16s%2Fg%2F1tj448hm!19sChIJA38MP2GF4TgRClLsXKUaENc?authuser=0&hl=en&rclk=1,"34.091387499999996,74.8078281"
Pathar Masjid Srinagar pthr msjd sry ngr,Mosque,"3RR4+P8R Pathar Masjid Srinagar pthr msjd sry ngr, Pather Masjid Rd, Zaldagar, Srinagar, Jammu and Kashmir 190002",Zaldagar,"3RR4+P8R, Pather Masjid Rd",Srinagar,190002,Jammu and Kashmir,IN,https://www.google.com/maps/place/Pathar+Masjid+Srinagar+%D9%BE%D8%AA%DA%BE%D8%B1+%D9%85%D8%B3%D8%AC%D8%AF+%D8%B3%D8%B1%DB%8C+%D9%86%DA%AF%D8%B1%E2%80%AD/data=!4m7!3m6!1s0x38e18560d32110ad:0x54f450c3c3186183!8m2!3d34.0918504!4d74.8057681!16s%2Fg%2F11b88yhb6l!19sChIJrRAh02CF4TgRg2EYw8NQ9FQ?authuser=0&hl=en&rclk=1,"34.0918504,74.8057681"
Rangar Masjid - rngr msjd,Mosque,"3RV6+HG Rangar Masjid - rngr msjd, Bohri Kadal, Srinagar, Jammu and Kashmir 190001",Bohri Kadal,3RV6+HG,Srinagar,190001,Jammu and Kashmir,IN,https://www.google.com/maps/place/Rangar+Masjid+-+%D8%B1%D9%86%DA%AF%D8%B1+%D9%85%D8%B3%D8%AC%D8%AF%E2%80%AD/data=!4m7!3m6!1s0x38e185642506c451:0x77095764148de3aa!8m2!3d34.094303!4d74.810254!16s%2Fg%2F1hf3sxv1t!19sChIJUcQGJWSF4TgRquONFGRXCXc?authuser=0&hl=en&rclk=1,"34.094303,74.810254"
Khanqah-e-Moula,Shrine,"Khanqah-e-Moula, On the banks of Jehlum river and near to, Zaina Kadal - Maharak Ganj Rd, Srinagar, Jammu and Kashmir 190002",Shamswari,"On the banks of Jehlum river and near to, Zaina Kadal - Maharak Ganj Rd",Srinagar,190002,Jammu and Kashmir,IN,https://www.google.com/maps/place/Khanqah-e-Moula/data=!4m7!3m6!1s0x38e1856139804945:0xf55d6bbe4a3bb9bb!8m2!3d34.0914006!4d74.8078022!16s%2Fm%2F012vqrg1!19sChIJRUmAOWGF4TgRu7k7Sr5rXfU?authuser=0&hl=en&rclk=1,"34.0914006,74.8078022"
Ali Masjid msjd shryf,Mosque,"3QWR+JJP Ali Masjid msjd shryf, Eidgah Park, Srinagar, Jammu and Kashmir 191112",Rathapura,"3QWR+JJP, Eidgah Park",Srinagar,191112,Jammu and Kashmir,IN,https://www.google.com/maps/place/Ali+Masjid+%D9%85%D8%B3%D8%AC%D8%AF+%D8%B4%D8%B1%DB%8C%D9%81%E2%80%AD/data=!4m7!3m6!1s0x38e1854fedcce775:0xd40350b30bf291a!8m2!3d34.0965813!4d74.7915928!16s%2Fm%2F011l50y2!19sChIJdefM7U-F4TgRGim_MAs1QA0?authuser=0&hl=en&rclk=1,"34.0965813,74.7915928"
Iqra Masjid,Mosque,"3R93+4G3 Iqra Masjid, Airport (IG) Rd, Wazir Bagh, Srinagar, Jammu and Kashmir 190001",Wazir Bagh,"3R93+4G3, Airport (IG) Rd",Srinagar,190001,Jammu and Kashmir,IN,https://www.google.com/maps/place/Iqra+Masjid/data=!4m7!3m6!1s0x38e18feb2d6f3a2b:0x6b5cd689d968f1e2!8m2!3d34.0677629!4d74.8038027!16s%2Fg%2F1tj94t35!19sChIJKzpvLeuP4TgR4vFo2YnWXGs?authuser=0&hl=en&rclk=1,"34.0677629,74.80380269999999"
Wazir Khan Masjid,Mosque,"2RW2+FH4 Wazir Khan Masjid, Aerodrome Rd, Baghat, Srinagar, Jammu and Kashmir 190005",Baghat,"2RW2+FH4, Aerodrome Rd, Baghat",Srinagar,190005,Jammu and Kashmir,IN,https://www.google.com/maps/place/Wazir+Khan+Masjid/data=!4m7!3m6!1s0x38e18fca48ceaa3d:0x15769be206fc46f9!8m2!3d34.046129!4d74.8014608!16s%2Fg%2F1tt0phlk!19sChIJParOSMqP4TgR-Ub8BuKbdhU?authuser=0&hl=en&rclk=1,"34.046129,74.8014608"
Bait ul Kareem,Mosque,"Bait ul Kareem, main road, near bait ul kareem Masjid, Tawheed Abad, Bemina, Srinagar, Jammu and Kashmir 190018","Tawheed Abad, Bemina","main road, near bait ul kareem Masjid",Srinagar,190018,Jammu and Kashmir,IN,https://www.google.com/maps/place/Bait+ul+Kareem/data=!4m7!3m6!1s0x38e190047b9bf1e3:0x4d613a0858e8c7d9!8m2!3d34.0746666!4d74.7741473!16s%2Fg%2F124t0ck2p!19sChIJ4_GbewSQ4TgR2cfoWAg6YU0?authuser=0&hl=en&rclk=1,"34.0746666,74.7741473"
Ahmadiyya Mosque Srinagar,Mosque,"Ahmadiyya Mosque Srinagar, Srinagar 190009",Shaheed Gunj,,Srinagar,,,,https://www.google.com/maps/place/Ahmadiyya+Mosque+Srinagar/data=!4m7!3m6!1s0x38e18ff2258f24a3:0xd9095892e7465a72!8m2!3d34.076721!4d74.7986321!16s%2Fg%2F1tfrvwf5!19sChIJoySPJfKP4TgRclpG55JYCdk?authuser=0&hl=en&rclk=1,"34.076721,74.79863209999999"
Masjid Al-Huda - msjd lhd~,Mosque,"3QFX+377 Masjid Al-Huda - msjd lhd~, BARAPATHER BATAMALOO SRINAGAR, Srinagar, Jammu and Kashmir 190009",Shergarhi,"3QFX+377, BARAPATHER BATAMALOO SRINAGAR",Srinagar,190009,Jammu and Kashmir,IN,https://www.google.com/maps/place/Masjid+Al-Huda+-+%D9%85%D8%B3%D8%AC%D8%AF+%D8%A7%D9%84%D9%87%D8%AF%D9%89%E2%80%AD/data=!4m7!3m6!1s0x38e18fedd85d6add:0xa17078fdf2b659f!8m2!3d34.0726731!4d74.7981673!16s%2Fg%2F1hjh18yhn!19sChIJ3Wpd2O2P4TgRn2Ur348HFwo?authuser=0&hl=en&rclk=1,"34.072673099999996,74.7981673"
Kanni Masjid - khny msjd,Mosque,"3RQ2+VFJ Kanni Masjid - khny msjd, Nawabazar, Srinagar, Jammu and Kashmir 190002",Nawabazar,3RQ2+VFJ,Srinagar,190002,Jammu and Kashmir,IN,https://www.google.com/maps/place/Kanni+Masjid+-+%DA%A9%D9%86%DB%8C+%D9%85%D8%B3%D8%AC%D8%AF%E2%80%AD/data=!4m7!3m6!1s0x38e1855e5f1d83df:0x5097ef9141df7011!8m2!3d34.0897033!4d74.8011305!16s%2Fg%2F1hc1j7sxk!19sChIJ34MdX16F4TgREXDfQZHvl1A?authuser=0&hl=en&rclk=1,"34.0897033,74.8011305"
Masjid Imam Zaman,Mosque,"Masjid Imam Zaman, The Bund Road, Press Colony, Srinagar, Jammu and Kashmir 190001",Press Colony,The Bund Road,Srinagar,190001,Jammu and Kashmir,IN,https://www.google.com/maps/place/Masjid+Imam+Zaman/data=!4m7!3m6!1s0x38e18f99fa247c55:0x864b8f9a0625445!8m2!3d34.0710042!4d74.8162621!16s%2Fg%2F1hhw48jdn!19sChIJVXwk-pmP4TgRRVRioPm4ZAg?authuser=0&hl=en&rclk=1,"34.0710042,74.8162621"
Noor Masjid,Mosque,"3QHW+WXP Noor Masjid, Balgarden, Srinagar, Jammu and Kashmir",Balgarden,"3QHW+WXP, Balgarden",Srinagar,,Jammu and Kashmir,IN,https://www.google.com/maps/place/Noor+Masjid/data=!4m7!3m6!1s0x38e18ff15381b991:0x63a466d71015e8c0!8m2!3d34.079834!4d74.7974475!16s%2Fg%2F1tfz8kj1!19sChIJkbmBU_GP4TgRwOgVENdmpGM?authuser=0&hl=en&rclk=1,"34.079834,74.79744749999999"
TRC Masjid,Mosque,"3RFH+M7H TRC Masjid, Rajbagh, Srinagar, Jammu and Kashmir 190001",Rajbagh,3RFH+M7H,Srinagar,190001,Jammu and Kashmir,IN,https://www.google.com/maps/place/TRC+Masjid/data=!4m7!3m6!1s0x38e18f76164da285:0x300236c8282a3f6e!8m2!3d34.074178!4d74.8282366!16s%2Fg%2F1tfx38hf!19sChIJhaJNFnaP4TgRbj8qKMg2AjA?authuser=0&hl=en&rclk=1,"34.074177999999996,74.8282366"
Jamia Masjid Shareef Old Barzallah Srinagar Abdul Qadeer Bali Al_madani,Mosque,"3Q2X+VW6 Jamia Masjid Shareef Old Barzallah Srinagar Abdul Qadeer Bali Al_madani, Old Barzallah, Srinagar, Jammu and Kashmir 190005","Barzulla, Ram Bagh","3Q2X+VW6, Old Barzallah",Srinagar,190005,Jammu and Kashmir,IN,https://www.google.com/maps/place/Jamia+Masjid+Shareef+Old+Barzallah+Srinagar+Abdul+Qadeer+Bali+Al_madani/data=!4m7!3m6!1s0x38e18fc896997e0b:0x157e2d1f229a0ba9!8m2!3d34.0521547!4d74.799762!16s%2Fg%2F124szcrxb!19sChIJC36ZlsiP4TgRqQuaIh8tfhU?authuser=0&hl=en&rclk=1,"34.052154699999996,74.799762"
Masjid Bilal rDy llh `nh,Mosque,"Masjid Bilal rDy llh `nh, Parking PoloView, Bund road, The Bund Road, Srinagar, 190001",Munshi Bagh,"Parking PoloView, Bund road, The Bund Road",Srinagar,190001,,IN,https://www.google.com/maps/place/Masjid+Bilal+%D8%B1%D8%B6%D9%8A+%D8%A7%D9%84%D9%84%D9%87+%D8%B9%D9%86%D9%87%E2%80%AD/data=!4m7!3m6!1s0x38e18f97e4ae4559:0x52376336a34c56af!8m2!3d34.0721135!4d74.8193159!16s%2Fg%2F11rsbvg6v_!19sChIJWUWu5JeP4TgRr1ZMozZjN1I?authuser=0&hl=en&rclk=1,"34.0721135,74.81931589999999"
Aali Masjid- ` ly msjd,Mosque,"4Q3V+XM8 Aali Masjid- ` ly msjd, Chandihar, Srinagar, 190002",Chandihar,4Q3V+XM8,Srinagar,190002,,IN,https://www.google.com/maps/place/Aali+Masjid-+%D8%B9%D8%A7+%D9%84%DB%8C+%D9%85%D8%B3%D8%AC%D8%AF%E2%80%AD/data=!4m7!3m6!1s0x38e185efe207cb19:0x58ab0af31e0de9c0!8m2!3d34.1049037!4d74.7942067!16s%2Fg%2F11q2vjhbpd!19sChIJGcsH4u-F4TgRwOkNHvMKq1g?authuser=0&hl=en&rclk=1,"34.1049037,74.7942067"
Zindshah Mosque,Mosque,"3RXF+V28 Zindshah Mosque, Karapura, Rainawari, Srinagar, Jammu and Kashmir 190003","Karapura, Rainawari",3RXF+V28,Srinagar,190003,Jammu and Kashmir,IN,https://www.google.com/maps/place/Zindshah+Mosque/data=!4m7!3m6!1s0x38e1857760f77e1b:0x318f930132ca46df!8m2!3d34.0996677!4d74.8225865!16s%2Fg%2F1txnmv5j!19sChIJG373YHeF4TgR30bKMgGTjzE?authuser=0&hl=en&rclk=1,"34.0996677,74.8225865"
Masjid Sajadia,Mosque,"3QPP+HMX Masjid Sajadia, Chhatabal, Srinagar, Jammu and Kashmir 190010",Chhatabal,3QPP+HMX,Srinagar,190010,Jammu and Kashmir,IN,https://www.google.com/maps/place/Masjid+Sajadia/data=!4m7!3m6!1s0x38e185567c20b585:0xa7041032cfc6e265!8m2!3d34.0864968!4d74.7867411!16s%2Fg%2F1hhw63b0f!19sChIJhbUgfFaF4TgRZeLGzzIQBKc?authuser=0&hl=en&rclk=1,"34.0864968,74.7867411"
Shahi Hamdan Masjid,Mosque,"4QCV+VX7 Shahi Hamdan Masjid, Dr Ali Jan Rd, Zunnamar, Srinagar, Jammu and Kashmir 190011",Zunnamar,"4QCV+VX7, Dr Ali Jan Rd",Srinagar,190011,Jammu and Kashmir,IN,https://www.google.com/maps/place/Shahi+Hamdan+Masjid/data=!4m7!3m6!1s0x38e18525cc5d8039:0x5008f76aa1d5529b!8m2!3d34.122165!4d74.7949286!16s%2Fg%2F11bzzr81xm!19sChIJOYBdzCWF4TgRm1LVoWr3CFA?authuser=0&hl=en&rclk=1,"34.122164999999995,74.79492859999999"
Latter Masjid,Mosque,"3QVR+8J9 Latter Masjid, Safa Kadal Bridge, Waniyar, Safakadal, Srinagar, Jammu and Kashmir 190002",Safakadal,"3QVR+8J9, Safa Kadal Bridge, Waniyar, Safakadal",Srinagar,190002,Jammu and Kashmir,IN,https://www.google.com/maps/place/Latter+Masjid/data=!4m7!3m6!1s0x38e185507b1f4629:0x48a286a680ef3ca5!8m2!3d34.0932884!4d74.791608!16s%2Fg%2F12mjs011k!19sChIJKUYfe1CF4TgRpTzvgKaGokg?authuser=0&hl=en&rclk=1,"34.0932884,74.791608"
Qazi Masjid - qDy msjd,Mosque,"3RP3+7M7 Qazi Masjid - qDy msjd, Kani Kadal, Srinagar, Jammu and Kashmir 190002",Kani Kadal,3RP3+7M7,Srinagar,190002,Jammu and Kashmir,IN,https://www.google.com/maps/place/Qazi+Masjid+-+%D9%82%D8%A7%D8%B6%DB%8C+%D9%85%D8%B3%D8%AC%D8%AF%E2%80%AD/data=!4m7!3m6!1s0x38e18f8aadba2f21:0xc6aa839fa088c119!8m2!3d34.0856504!4d74.8041701!16s%2Fg%2F12610wd3h!19sChIJIS-6rYqP4TgRGcGIoJ-DqsY?authuser=0&hl=en&rclk=1,"34.0856504,74.8041701"
Masjid Sharif,Mosque,"3Q9J+J76 Masjid Sharif, J&k District Court Complex, Batamaloo, Srinagar, Jammu and Kashmir 190009",Batamaloo,"3Q9J+J76, J&k District Court Complex",Srinagar,190009,Jammu and Kashmir,IN,https://www.google.com/maps/place/Masjid+Sharif/data=!4m7!3m6!1s0x38e18fa5fc39aa5f:0x253806c2861b373d!8m2!3d34.0690413!4d74.7806378!16s%2Fg%2F11gtzb0gqv!19sChIJX6o5_KWP4TgRPTcbhsIGOCU?authuser=0&hl=en&rclk=1,"34.069041299999995,74.7806378"
Madina Masjid,Mosque,"Madina Masjid, Arabal,Shalimar, Srinagar, Jammu and Kashmir 191121",Shalimar,"Arabal,Shalimar",Srinagar,191121,Jammu and Kashmir,IN,https://www.google.com/maps/place/Madina+Masjid/data=!4m7!3m6!1s0x38e1869ba8bceb37:0x930b76e0a2725067!8m2!3d34.153425!4d74.882213!16s%2Fg%2F11g_jx928!19sChIJN-u8qJuG4TgRZ1ByouB2C5M?authuser=0&hl=en&rclk=1,"34.153425,74.882213"
Masjid Jamia Ahle Hadith,Mosque,"3QMV+W6P Masjid Jamia Ahle Hadith, Zampa Kadal Bridge, Chhatabal, Srinagar, Jammu and Kashmir 190010",Chhatabal,"3QMV+W6P, Zampa Kadal Bridge",Srinagar,190010,Jammu and Kashmir,IN,https://www.google.com/maps/place/Masjid+Jamia+Ahle+Hadith/data=!4m7!3m6!1s0x38e185580826282b:0x6ba61c0d696bc09f!8m2!3d34.0848263!4d74.7930886!16s%2Fg%2F11clzkc_rw!19sChIJKygmCFiF4TgRn8BraQ0cpms?authuser=0&hl=en&rclk=1,"34.084826299999996,74.79308859999999"
Chinkral Mohalla Masjid - chnkhrl mHlh msjd,Mosque,"3RM4+MV2 Chinkral Mohalla Masjid - chnkhrl mHlh msjd, Babdem- Habba kadal- Fateh Kadal Rd, Chinkral Mohalla, Fateh Kadal, Srinagar, Jammu and Kashmir 190001","Chinkral Mohalla, Fateh Kadal","3RM4+MV2, Babdem- Habba kadal- Fateh Kadal Rd",Srinagar,190001,Jammu and Kashmir,IN,https://www.google.com/maps/place/Chinkral+Mohalla+Masjid+-+%DA%86%D9%86%DA%A9%D8%B1%D8%A7%D9%84+%D9%85%D8%AD%D9%84%DB%81+%D9%85%D8%B3%D8%AC%D8%AF%E2%80%AD/data=!4m7!3m6!1s0x38e18f8a54151a5f:0x2387bfc2cc20ff5c!8m2!3d34.0841276!4d74.8071286!16s%2Fg%2F1ptyvlfkb!19sChIJXxoVVIqP4TgRXP8gzMK_hyM?authuser=0&hl=en&rclk=1,"34.084127599999995,74.8071286"
Gilli Kadal Jamia ahlihadith masjid,Mosque,"4QCX+2W8 Gilli Kadal Jamia ahlihadith masjid, Gili, Gili Kadal, Zunnamar, Srinagar, Jammu and Kashmir 190011",Teng Pora,"4QCX+2W8, Gili, Gili Kadal, Zunnamar",Srinagar,190011,Jammu and Kashmir,IN,https://www.google.com/maps/place/Gilli+Kadal+Jamia+ahlihadith+masjid/data=!4m7!3m6!1s0x38e185231392ea19:0x9ad0da8b035eacbb!8m2!3d34.1200276!4d74.7998134!16s%2Fg%2F11cs12xp1x!19sChIJGeqSEyOF4TgRu6xeA4va0Jo?authuser=0&hl=en&rclk=1,"34.1200276,74.79981339999999"
Jamia Masjid Malik Sahib,Mosque,"3QRQ+79R Jamia Masjid Malik Sahib, Safa Kadal Bridge, MALIK SAHIB MOHALLA, Safakadal, Srinagar, Jammu and Kashmir 190002","MALIK SAHIB MOHALLA, Safakadal","3QRQ+79R, Safa Kadal Bridge",Srinagar,190002,Jammu and Kashmir,IN,https://www.google.com/maps/place/Jamia+Masjid+Malik+Sahib/data=!4m7!3m6!1s0x38e185513c8961c1:0xad9c07954640386f!8m2!3d34.0907414!4d74.7883971!16s%2Fg%2F11cn3pxbh4!19sChIJwWGJPFGF4TgRbzhARpUHnK0?authuser=0&hl=en&rclk=1,"34.0907414,74.7883971"
Jamia Masjid Ahle Hadith - jm` msjd hli Hdyth,Mosque,"3QXJ+5PR Jamia Masjid Ahle Hadith - jm` msjd hli Hdyth, Baghwanpora Noor Bagh Baghwanpora, Srinagar, Jammu and Kashmir 190002",Shongli Pora,"3QXJ+5PR, Baghwanpora Noor Bagh Baghwanpora",Srinagar,190002,Jammu and Kashmir,IN,https://www.google.com/maps/place/Jamia+Masjid+Ahle+Hadith+-+%D8%AC%D8%A7%D9%85%D8%B9+%D9%85%D8%B3%D8%AC%D8%AF+%D8%A7%DB%81%D9%84%D9%90+%D8%AD%D8%AF%DB%8C%D8%AB%E2%80%AD/data=!4m7!3m6!1s0x38e1854cc3d699bf:0xdac58d4de93bd5d4!8m2!3d34.0979817!4d74.7817737!16s%2Fg%2F1w453_gy!19sChIJv5nWw0yF4TgR1NU76U2Nxdo?authuser=0&hl=en&rclk=1,"34.0979817,74.7817737"
Gole Masjid - gwl msjd,Mosque,"Gole Masjid - gwl msjd, Baulach Pur, Srinagar, Jammu and Kashmir 190011",Baulach Pur,,Srinagar,190011,Jammu and Kashmir,IN,https://www.google.com/maps/place/Gole+Masjid+-+%DA%AF%D9%88%D9%84+%D9%85%D8%B3%D8%AC%D8%AF%E2%80%AD/data=!4m7!3m6!1s0x38e184df6c479431:0x398a4b42542cea6e!8m2!3d34.1302856!4d74.8000288!16s%2Fg%2F1pp2x5fwm!19sChIJMZRHbN-E4TgRbuosVEJLijk?authuser=0&hl=en&rclk=1,"34.1302856,74.80002879999999"
Mughal Masjid,Mosque,"4R34+RG9 Mughal Masjid, Nohata, Srinagar, Jammu and Kashmir 190002",Nohata,4R34+RG9,Srinagar,190002,Jammu and Kashmir,IN,https://www.google.com/maps/place/Mughal+Masjid/data=!4m7!3m6!1s0x38e1856a4ec6060b:0x5c0c31bcbdb04afa!8m2!3d34.1045425!4d74.8063669!16s%2Fg%2F1tfnrcf9!19sChIJCwbGTmqF4TgR-kqwvbwxDFw?authuser=0&hl=en&rclk=1,"34.1045425,74.8063669"
Masjid Khaiwaan - msjd khywan,Mosque,"4Q3X+R4H Masjid Khaiwaan - msjd khywan, Khaiwaan Eid gah, Narwara, Srinagar, Jammu and Kashmir 190002",Narwara,"4Q3X+R4H, Khaiwaan Eid gah",Srinagar,190002,Jammu and Kashmir,IN,https://www.google.com/maps/place/Masjid+Khaiwaan+-+%D9%85%D8%B3%D8%AC%D8%AF+%D8%AE%DB%8C%D9%88%D8%A2%D9%86%E2%80%AD/data=!4m7!3m6!1s0x38e185472a5c0051:0x4e1a78a3b0348973!8m2!3d34.1045502!4d74.7978642!16s%2Fg%2F11cs4yw24g!19sChIJUQBcKkeF4TgRc4k0sKN4Gk4?authuser=0&hl=en&rclk=1,"34.1045502,74.79786419999999"
Jamia Masjid Shareef rambagh,Mosque,"2RX4+GVQ Jamia Masjid Shareef rambagh, Ram Bagh, Srinagar, Jammu and Kashmir 190005",Ram Bagh,2RX4+GVQ,Srinagar,,Jammu and Kashmir,IN,https://www.google.com/maps/place/Jamia+Masjid+Shareef+rambagh/data=!4m7!3m6!1s0x38e18fb683fcd025:0x1b63bfa8714add16!8m2!3d34.0488375!4d74.8072344!16s%2Fg%2F1vy7dz9p!19sChIJJdD8g7aP4TgRFt1Kcai_Yxs?authuser=0&hl=en&rclk=1,"34.0488375,74.8072344"
Ahle-Hadees Masjid,Mosque,"Ahle-Hadees Masjid, Dr Ali Jan Rd Saidpura Srinagar Jammu and Kashmir, 190002",Saidpura,Dr Ali Jan Rd Saidpura Srinagar Jammu and Kashmir,Srinagar,190002,,IN,https://www.google.com/maps/place/Ahle-Hadees+Masjid/data=!4m7!3m6!1s0x38e1853af911bca5:0x513136fd2f6845a6!8m2!3d34.1151156!4d74.7946081!16s%2Fg%2F11b6x8806v!19sChIJpbwR-TqF4TgRpkVoL_02MVE?authuser=0&hl=en&rclk=1,"34.115115599999996,74.79460809999999"
Ahl Al-Hadith Masjid Zaldagar msjd Zlddgr,Mosque,"3RP2+VVC Ahl Al-Hadith Masjid Zaldagar msjd Zlddgr, Zaldagar Bridge, Zaldagar, Srinagar, Jammu and Kashmir 190002",Zaldagar,"3RP2+VVC, Zaldagar Bridge",Srinagar,190002,Jammu and Kashmir,IN,https://www.google.com/maps/place/Ahl+Al-Hadith+Masjid+Zaldagar+%D9%85%D8%B3%D8%AC%D8%AF+%D8%B8%D8%A7%D9%84%DA%88%DA%AF%D8%B1%E2%80%AD/data=!4m7!3m6!1s0x38e1855f94312fc3:0x6d2b0da1d567f74e!8m2!3d34.0871787!4d74.8021331!16s%2Fg%2F1thw52_f!19sChIJwy8xlF-F4TgRTvdn1aENK20?authuser=0&hl=en&rclk=1,"34.087178699999996,74.80213309999999"
Samandar Bagh Mosque smndr bG msjd,Mosque,"3RF8+W29 Samandar Bagh Mosque smndr bG msjd, 45, Exchange Rd, Kothi Bagh, Srinagar, Jammu and Kashmir 190001",Kothi Bagh,"3RF8+W29, 45, Exchange Rd",Srinagar,190001,Jammu and Kashmir,IN,https://www.google.com/maps/place/Samandar+Bagh+Mosque+%D8%B3%D9%85%D9%86%D8%AF%D8%B1+%D8%A8%D8%A7%D8%BA+%D9%85%D8%B3%D8%AC%D8%AF%E2%80%AD/data=!4m7!3m6!1s0x38e18f907055890f:0x62908fb419657d38!8m2!3d34.0748027!4d74.8150821!16s%2Fg%2F1tl9ky_q!19sChIJD4lVcJCP4TgROH1lGbSPkGI?authuser=0&hl=en&rclk=1,"34.0748027,74.8150821"
Jamia Central Masjid,Mosque,"3RFV+4G3 Jamia Central Masjid, Gupkar Rd, Sonwar Bagh, Srinagar, Jammu and Kashmir 190004",Sonwar Bagh,"3RFV+4G3, Gupkar Rd",Srinagar,190004,Jammu and Kashmir,IN,https://www.google.com/maps/place/Jamia+Central+Masjid/data=!4m7!3m6!1s0x38e18f6c660b70df:0xd09fbda79029b63f!8m2!3d34.0727621!4d74.8438122!16s%2Fg%2F1tg_vg94!19sChIJ33ALZmyP4TgRP7YpkKe9n9A?authuser=0&hl=en&rclk=1,"34.0727621,74.8438122"
Qalamdanpora Masjid,Mosque,"3RQ3+JQV Qalamdanpora Masjid, Bhatt Manzil Road, Zaldagar, Srinagar, Jammu and Kashmir 190002",Zaldagar,"3RQ3+JQV, Bhatt Manzil Road, Zaldagar",Srinagar,190002,Jammu and Kashmir,IN,https://www.google.com/maps/place/Qalamdanpora+Masjid/data=!4m7!3m6!1s0x38e18560871b4bb3:0x21d346eb66f9130d!8m2!3d34.0891057!4d74.8044223!16s%2Fg%2F1pv2bywqs!19sChIJs0sbh2CF4TgRDRP5ZutG0yE?authuser=0&hl=en&rclk=1,"34.0891057,74.8044223"
Masjid Mir Syed Mohammad Hamdani,Mosque,"3RR6+338 Masjid Mir Syed Mohammad Hamdani, Babdem- Kahan Kah Rd, Shamswari, Srinagar, Jammu and Kashmir 190001",Shamswari,"3RR6+338, Babdem- Kahan Kah Rd",Srinagar,190001,Jammu and Kashmir,IN,https://www.google.com/maps/place/Masjid+Mir+Syed+Mohammad+Hamdani/data=!4m7!3m6!1s0x38e18563d13ce38b:0x92cc32e483529df8!8m2!3d34.090152!4d74.8102145!16s%2Fg%2F11bbrlbsvj!19sChIJi-M80WOF4TgR-J1Sg-QyzJI?authuser=0&hl=en&rclk=1,"34.090151999999996,74.8102145"
Masjid Narwara - msjd shryf nrwr,Mosque,"Masjid Narwara - msjd shryf nrwr, Narwara Srinagar Jammu and Kashmir, 190002",Narwara,Narwara Srinagar Jammu and Kashmir,Srinagar,190002,,IN,https://www.google.com/maps/place/Masjid+Narwara+-+%D9%85%D8%B3%D8%AC%D8%AF+%D8%B4%D8%B1%DB%8C%D9%81+%D9%86%D8%B1%D9%88%D8%B1%D8%A7%E2%80%AD/data=!4m7!3m6!1s0x38e18546c79d7a43:0x4edc80458065fb90!8m2!3d34.103015!4d74.7971599!16s%2Fg%2F124yk8kb0!19sChIJQ3qdx0aF4TgRkPtlgEWA3E4?authuser=0&hl=en&rclk=1,"34.103015,74.7971599"
Kral Masjid,Mosque,"Kral Masjid, Krala Masjid, Soor Taing Link, Karapura, Rainawari, Srinagar, Jammu and Kashmir 190003","Karapura, Rainawari","Krala Masjid, Soor Taing Link",Srinagar,190003,Jammu and Kashmir,IN,https://www.google.com/maps/place/Kral+Masjid/data=!4m7!3m6!1s0x38e18579af9752a5:0x796ffd7fb5629fa8!8m2!3d34.0973718!4d74.8237198!16s%2Fg%2F1hm4010rq!19sChIJpVKXr3mF4TgRqJ9itX_9b3k?authuser=0&hl=en&rclk=1,"34.0973718,74.82371979999999"
Masjid Madina,Mosque,"3R9P+V72 Masjid Madina, GPO Bund, Aramwari, Rajbagh, Srinagar, Jammu and Kashmir 190008","Aramwari, Rajbagh","3R9P+V72, GPO Bund",Srinagar,190008,Jammu and Kashmir,IN,https://www.google.com/maps/place/Masjid+Madina/data=!4m7!3m6!1s0x38e18f7322498659:0x829131fdc45e30f0!8m2!3d34.0696314!4d74.8356257!16s%2Fg%2F11c15ffxk0!19sChIJWYZJInOP4TgR8DBexP0xkYI?authuser=0&hl=en&rclk=1,"34.0696314,74.8356257"
Dukaan-e Sangeen Masjid dwkhn.y.sngyn msjd,Mosque,"3RQ5+W7Q Dukaan-e Sangeen Masjid dwkhn.y.sngyn msjd, Shamswari, Srinagar, Jammu and Kashmir 190001",Shamswari,3RQ5+W7Q,Srinagar,190001,Jammu and Kashmir,IN,https://www.google.com/maps/place/Dukaan-e+Sangeen+Masjid+%D8%AF%D9%88%DA%A9%D8%A7%D9%86%DB%94%D8%A7%DB%92%DB%94%D8%B3%D9%86%DA%AF%DB%8C%D9%86+%D9%85%D8%B3%D8%AC%D8%AF%E2%80%AD/data=!4m7!3m6!1s0x38e185610c939891:0x73c0aae1949fe7ff!8m2!3d34.0898332!4d74.8082418!16s%2Fg%2F1262g02m3!19sChIJkZiTDGGF4TgR_-eflOGqwHM?authuser=0&hl=en&rclk=1,"34.0898332,74.80824179999999"
Rah Masjid,Mosque,"4RQG+CX8 Rah Masjid, Omer Colony A, Omer Colony B, Kanitar, Srinagar, Jammu and Kashmir 190006","Omer Colony A, Omer Colony B, Kanitar",4RQG+CX8,Srinagar,190006,Jammu and Kashmir,IN,https://www.google.com/maps/place/Rah+Masjid/data=!4m7!3m6!1s0x38e18456024fa375:0x4720087c282e1cb3!8m2!3d34.1385289!4d74.8274624!16s%2Fg%2F1hm2l7x10!19sChIJdaNPAlaE4TgRsxwuKHwIIEc?authuser=0&hl=en&rclk=1,"34.1385289,74.8274624"
Masjid Abu Bakr Sidiq,Mosque,"4R43+9QV Masjid Abu Bakr Sidiq, Ganderbal Rd, Hawal, Srinagar, Jammu and Kashmir 190002",Hawal,"4R43+9QV, Ganderbal Rd",Srinagar,190002,Jammu and Kashmir,IN,https://www.google.com/maps/place/Masjid+Abu+Bakr+Sidiq/data=!4m7!3m6!1s0x38e1856a9b2e3cbb:0x5863a3f75b80efdc!8m2!3d34.1059794!4d74.8044263!16s%2Fg%2F1tj2lvdc!19sChIJuzwum2qF4TgR3O-AW_ejY1g?authuser=0&hl=en&rclk=1,"34.105979399999995,74.8044263"
Shia Mosque,Mosque,"Shia Mosque, 1, Boulevard Lane, Durgjan, Srinagar, Jammu and Kashmir 190001",Durgjan,"1, Boulevard Lane",Srinagar,190001,Jammu and Kashmir,IN,https://www.google.com/maps/place/Shia+Mosque/data=!4m7!3m6!1s0x38e18f79cb330e6b:0xce9e9f8fce8b7eca!8m2!3d34.0797535!4d74.8302519!16s%2Fg%2F125_w4qw0!19sChIJaw4zy3mP4TgRyn6Lzo-fns4?authuser=0&hl=en&rclk=1,"34.079753499999995,74.8302519"
Jamia Masjid,Mosque,"3RCW+CGW Jamia Masjid, Iqbal Colony, Sonwar Bagh, Srinagar, Jammu and Kashmir 190001","Iqbal Colony, Sonwar Bagh",3RCW+CGW,Srinagar,190001,Jammu and Kashmir,IN,https://www.google.com/maps/place/Jamia+Masjid/data=!4m7!3m6!1s0x38e18f6c660b70df:0xfeea1425b45d4ecb!8m2!3d34.0711246!4d74.8463269!16s%2Fg%2F11_wqvtyx!19sChIJ33ALZmyP4TgRy05dtCUU6v4?authuser=0&hl=en&rclk=1,"34.0711246,74.8463269"
Baazar Masjid - bzr msjd,Mosque,"3RV5+WQ6 Baazar Masjid - bzr msjd, Bohri Kadal, Srinagar, Jammu and Kashmir 190003",Bohri Kadal,3RV5+WQ6,Srinagar,190003,Jammu and Kashmir,IN,https://www.google.com/maps/place/Baazar+Masjid+-+%D8%A8%D8%A7%D8%B2%D8%A7%D8%B1+%D9%85%D8%B3%D8%AC%D8%AF%E2%80%AD/data=!4m7!3m6!1s0x38e1856686cc946b:0x34b5a16b4493c2b3!8m2!3d34.0947966!4d74.8093978!16s%2Fg%2F1hdy_9tdp!19sChIJa5TMhmaF4TgRs8KTRGuhtTQ?authuser=0&hl=en&rclk=1,"34.094796599999995,74.8093978"
Masjid Ghazali,Mosque,"Masjid Ghazali, Srinagar 190003",Nowhatta,,Srinagar,,,,https://www.google.com/maps/place/Masjid+Ghazali/data=!4m7!3m6!1s0x38e185708ea3305b:0x511fb20ef9a5013!8m2!3d34.0999317!4d74.8189867!16s%2Fg%2F1v2yx7f2!19sChIJWzCjjnCF4TgRE1Ca7yD7EQU?authuser=0&hl=en&rclk=1,"34.0999317,74.8189867"
Masjid Shareef,Mosque,"5VC4+649 Masjid Shareef, Gassu, Batapora, Srinagar, Jammu and Kashmir 190006","Gassu, Batapora",5VC4+649,Srinagar,190006,Jammu and Kashmir,IN,https://www.google.com/maps/place/Masjid+Shareef/data=!4m7!3m6!1s0x38e1840dc6c1bc93:0x59622adf71134c2b!8m2!3d34.1705267!4d74.8553574!16s%2Fg%2F1hhw7jrpq!19sChIJk7zBxg2E4TgRK0wTcd8qYlk?authuser=0&hl=en&rclk=1,"34.170526699999996,74.8553574"
Arm Masjid - rm msjd,Mosque,"3RV8+XJ9 Arm Masjid - rm msjd, Hazari Bazaar Road, Khaniyar, Srinagar, Jammu and Kashmir 190003",Khaniyar,"3RV8+XJ9, Hazari Bazaar Road, Khaniyar",Srinagar,190003,Jammu and Kashmir,IN,https://www.google.com/maps/place/Arm+Masjid+-+%D8%A7%D8%B1%D9%85+%D9%85%D8%B3%D8%AC%D8%AF%E2%80%AD/data=!4m7!3m6!1s0x38e1857b3bff873d:0x9421910ec5f63804!8m2!3d34.0949221!4d74.8166025!16s%2Fg%2F11clyh34js!19sChIJPYf_O3uF4TgRBDj2xQ6RIZQ?authuser=0&hl=en&rclk=1,"34.0949221,74.8166025"
Masjid-e-Madina,Mosque,"Masjid-e-Madina, 36, M A Road, Sonwar Bagh, Srinagar, Jammu and Kashmir 190004",Sonwar Bagh,"36, M A Road",Srinagar,190004,Jammu and Kashmir,IN,https://www.google.com/maps/place/Masjid-e-Madina/data=!4m7!3m6!1s0x38e18f14c5b13f8d:0x69c523e70783e661!8m2!3d34.0690027!4d74.8468119!16s%2Fg%2F1tdqfvmt!19sChIJjT-xxRSP4TgRYeaDB-cjxWk?authuser=0&hl=en&rclk=1,"34.0690027,74.84681189999999"
Noor Shah Mosque,Mosque,"4Q2X+J3V Noor Shah Mosque, Narwara, Srinagar, Jammu and Kashmir 190002",Narwara,4Q2X+J3V,Srinagar,190002,Jammu and Kashmir,IN,https://www.google.com/maps/place/Noor+Shah+Mosque/data=!4m7!3m6!1s0x38e18544021f4f93:0x15c01e9543bac124!8m2!3d34.1016219!4d74.7976846!16s%2Fg%2F124ygytwt!19sChIJk08fAkSF4TgRJMG6Q5UewBU?authuser=0&hl=en&rclk=1,"34.1016219,74.7976846"
Masjid Sharif,Mosque,"3RP9+MMM Masjid Sharif, Nawpura , Baba Dawood Khaki Bridge, Srinagar, Jammu and Kashmir 190003",Khaniyar,"3RP9+MMM, Nawpura , Baba Dawood Khaki Bridge",Srinagar,190003,Jammu and Kashmir,IN,https://www.google.com/maps/place/Masjid+Sharif/data=!4m7!3m6!1s0x38e18f870d364caf:0x5ffb137b31c5f2b6!8m2!3d34.0867111!4d74.8191771!16s%2Fg%2F124sxh52s!19sChIJr0w2DYeP4TgRtvLFMXsT-18?authuser=0&hl=en&rclk=1,"34.086711099999995,74.81917709999999"
Masjid Ranthain Shah,Mosque,"3RW3+C3M Masjid Ranthain Shah, Aali kadal ,Owaisi Sahib, Srinagar, Jammu and Kashmir 190002","Bulbul Lanker, Sokalipora","3RW3+C3M, Aali kadal ,Owaisi Sahib",Srinagar,190002,Jammu and Kashmir,IN,https://www.google.com/maps/place/Masjid+Ranthain+Shah/data=!4m7!3m6!1s0x38e1855d46dd42d5:0x7efd1d0ec1d06e0a!8m2!3d34.0960782!4d74.8026735!16s%2Fg%2F1hf1c_w_v!19sChIJ1ULdRl2F4TgRCm7QwQ4d_X4?authuser=0&hl=en&rclk=1,"34.0960782,74.8026735"
Masjid Shareef,Mosque,"3RGM+F4J Masjid Shareef, Sonwar Bagh, Srinagar, Jammu and Kashmir 190001",Sonwar Bagh,3RGM+F4J,Srinagar,190001,Jammu and Kashmir,IN,https://www.google.com/maps/place/Masjid+Shareef/data=!4m7!3m6!1s0x38e18f76d61df257:0x24c3cf61d7d98e27!8m2!3d34.0762152!4d74.8327657!16s%2Fg%2F1261k0zn7!19sChIJV_Id1naP4TgRJ47Z12HPwyQ?authuser=0&hl=en&rclk=1,"34.0762152,74.8327657"
Masjid Tangbagh - msjd ttng bG,Mosque,"Masjid Tangbagh - msjd ttng bG, Mirjanpura Narwara, Srinagar Jammu and Kashmir, 190002",Narwara,"Mirjanpura Narwara, Srinagar Jammu and Kashmir",Srinagar,190002,,IN,https://www.google.com/maps/place/Masjid+Tangbagh+-+%D9%85%D8%B3%D8%AC%D8%AF+%D9%B9%D9%86%DA%AF%D8%A1+%D8%A8%D8%A7%D8%BA%E2%80%AD/data=!4m7!3m6!1s0x38e185187a2587f7:0xb431877d9ba0d968!8m2!3d34.1007746!4d74.7953591!16s%2Fg%2F11f6dlkh75!19sChIJ94clehiF4TgRaNmgm32HMbQ?authuser=0&hl=en&rclk=1,"34.1007746,74.7953591"
Masjid Sharif Saraf Kadal msjd shryf Srf khdl,Mosque,"3RW4+5Q2 Masjid Sharif Saraf Kadal msjd shryf Srf khdl, Nalahmar Rd, Sokalipora, Srinagar, 190002",Sokalipora,"3RW4+5Q2, Nalahmar Rd",Srinagar,190002,,IN,https://www.google.com/maps/place/Masjid+Sharif+Saraf+Kadal+%D9%85%D8%B3%D8%AC%D8%AF+%D8%B4%D8%B1%DB%8C%D9%81+%D8%B5%D8%B1%D9%81+%DA%A9%D8%AF%D9%84%E2%80%AD/data=!4m7!3m6!1s0x38e18575226de0ed:0x1cbafb7054082f42!8m2!3d34.0953871!4d74.8068782!16s%2Fg%2F11rjv0r_xk!19sChIJ7eBtInWF4TgRQi8IVHD7uhw?authuser=0&hl=en&rclk=1,"34.095387099999996,74.8068782"
Masjid Shareef,Mosque,"3QPQ+7MF Masjid Shareef, Mughal Mohalla, Chhatabal, Srinagar, Jammu and Kashmir 190010","Mughal Mohalla, Chhatabal",3QPQ+7MF,Srinagar,190010,Jammu and Kashmir,IN,https://www.google.com/maps/place/Masjid+Shareef/data=!4m7!3m6!1s0x38e185563561f6a1:0x8d6ab8406e955e4d!8m2!3d34.085676!4d74.7891819!16s%2Fg%2F124t63lq1!19sChIJofZhNVaF4TgRTV6VbkC4ao0?authuser=0&hl=en&rclk=1,"34.085676,74.7891819"
Masjid Shareef,Mosque,"3RQW+M4C Masjid Shareef, Old Gagribal Road, Gagribal, Srinagar, Jammu and Kashmir 190001",Gagribal,"3RQW+M4C, Old Gagribal Road",Srinagar,190001,Jammu and Kashmir,IN,https://www.google.com/maps/place/Masjid+Shareef/data=!4m7!3m6!1s0x38e18f6185d3b9e5:0x2c7406a46bfa6fb0!8m2!3d34.0891902!4d74.8452616!16s%2Fg%2F124swynnx!19sChIJ5bnThWGP4TgRsG_6a6QGdCw?authuser=0&hl=en&rclk=1,"34.0891902,74.8452616"
Masjid Sharief,Mosque,"3QVJ+6RP Masjid Sharief, Noor Bagh, Cement Kadal Bridge, Srinagar, Jammu and Kashmir 190002",Safakadal,"3QVJ+6RP, Noor Bagh, Cement Kadal Bridge",Srinagar,190002,Jammu and Kashmir,IN,https://www.google.com/maps/place/Masjid+Sharief/data=!4m7!3m6!1s0x38e1858f7183b3a5:0x6f7025b51b95403e!8m2!3d34.0930993!4d74.7820738!16s%2Fg%2F11g0h856cx!19sChIJpbODcY-F4TgRPkCVG7UlcG8?authuser=0&hl=en&rclk=1,"34.0930993,74.78207379999999"
Masjid Sidiq - msjd Sdyq,Mosque,"4R49+PFJ Masjid Sidiq - msjd Sdyq, Kota Mohalla, Mum Khan, Srinagar",Botaraj Colony,"4R49+PFJ, Kota Mohalla, Mum Khan",Srinagar,,,IN,https://www.google.com/maps/place/Masjid+Sidiq+-+%D9%85%D8%B3%D8%AC%D8%AF+%D8%B5%D8%AF%DB%8C%D9%82%E2%80%AD/data=!4m7!3m6!1s0x38e18573aae11c71:0x81f77317579215d5!8m2!3d34.1068474!4d74.8186323!16s%2Fg%2F11cs2gpsgq!19sChIJcRzhqnOF4TgR1RWSVxdz94E?authuser=0&hl=en&rclk=1,"34.1068474,74.81863229999999"
Masjid Shareef,Mosque,"Masjid Shareef, Srinagar - Sumbal Rd, Ummer Abad, Srinagar, Jammu and Kashmir 190012",Ummer Abad,Srinagar - Sumbal Rd,Srinagar,190012,Jammu and Kashmir,IN,https://www.google.com/maps/place/Masjid+Shareef/data=!4m7!3m6!1s0x38e19b11ac921f7f:0x24509cd2b76b4a6e!8m2!3d34.1175589!4d74.7370157!16s%2Fg%2F11fkf5kzrj!19sChIJfx-SrBGb4TgRbkprt9KcUCQ?authuser=0&hl=en&rclk=1,"34.1175589,74.7370157"
shere kashmir Masjid Shareef Gojwara,Mosque,"4R25+8H7 shere kashmir Masjid Shareef Gojwara, Rajouri Kadal-Gojwara Road, Gojwara, Srinagar, Jammu and Kashmir 190002",Gojwara,"4R25+8H7, Rajouri Kadal-Gojwara Road",Srinagar,190002,Jammu and Kashmir,IN,https://www.google.com/maps/place/shere+kashmir+Masjid+Shareef+Gojwara/data=!4m7!3m6!1s0x38e1856925dcf573:0x449ab445032a9699!8m2!3d34.1007757!4d74.8089311!16s%2Fg%2F11bwn1h8j6!19sChIJc_XcJWmF4TgRmZYqA0W0mkQ?authuser=0&hl=en&rclk=1,"34.1007757,74.8089311"
Qureshi Masjid,Mosque,"Qureshi Masjid, Qureshi Mohalla, Molvi Stop, Lal Bazar, Srinagar, Jammu and Kashmir 190011",Lal Bazar,"Qureshi Mohalla, Molvi Stop",Srinagar,190011,Jammu and Kashmir,IN,https://www.google.com/maps/place/Qureshi+Masjid/data=!4m7!3m6!1s0x38e18592b549a4bd:0xb182e6ed44ebd1f8!8m2!3d34.1236629!4d74.8206861!16s%2Fg%2F11jk5nq6ht!19sChIJvaRJtZKF4TgR-NHrRO3mgrE?authuser=0&hl=en&rclk=1,"34.1236629,74.8206861"
Jamia Ahlihadees Kundangar Masjid,Mosque,"3RW6+8PP Jamia Ahlihadees Kundangar Masjid, Daribal, Srinagar, 190002",Daribal,3RW6+8PP,Srinagar,190002,,IN,https://www.google.com/maps/place/Jamia+Ahlihadees+Kundangar+Masjid/data=!4m7!3m6!1s0x38e185fb2c89c011:0x7de5774295a79067!8m2!3d34.0958258!4d74.8118355!16s%2Fg%2F11n0yrx3w4!19sChIJEcCJLPuF4TgRZ5CnlUJ35X0?authuser=0&hl=en&rclk=1,"34.0958258,74.8118355"
Killi Masjid,Mosque,"3RW5+F5X Killi Masjid, Jamia Masjid Rd, Sokalipora, Srinagar, 190002",Sokalipora,"3RW5+F5X, Jamia Masjid Rd",Srinagar,190002,,IN,https://www.google.com/maps/place/Killi+Masjid/data=!4m7!3m6!1s0x38e185354b10297b:0xafaab89bedd53dbf!8m2!3d34.0962424!4d74.8079737!16s%2Fg%2F11f6nlhblv!19sChIJeykQSzWF4TgRvz3V7Zu4qq8?authuser=0&hl=en&rclk=1,"34.0962424,74.80797369999999"
Masjid Shukar Baba Katrew breng,Mosque,"3RQC+W8Q Masjid Shukar Baba Katrew breng, Khanyaar, Srinagar, Jammu and Kashmir 190003",Khanyaar,3RQC+W8Q,Srinagar,190003,Jammu and Kashmir,IN,https://www.google.com/maps/place/Masjid+Shukar+Baba+Katrew+breng/data=!4m7!3m6!1s0x38e185c485030f79:0x64462d0b4dce5c8c!8m2!3d34.089828!4d74.8208449!16s%2Fg%2F11lgn020nm!19sChIJeQ8DhcSF4TgRjFzOTQstRmQ?authuser=0&hl=en&rclk=1,"34.089828,74.8208449"
Kawdara Masjid - khwddr msjd,Mosque,"3RX2+MVH Kawdara Masjid - khwddr msjd, Pacha Kadal, Dangarpura, Srinagar, Jammu and Kashmir 190002","Pacha Kadal, Dangarpura",3RX2+MVH,Srinagar,190002,Jammu and Kashmir,IN,https://www.google.com/maps/place/Kawdara+Masjid+-+%DA%A9%D8%A7%D9%88%DA%88%D8%B1%D8%A7+%D9%85%D8%B3%D8%AC%D8%AF%E2%80%AD/data=!4m7!3m6!1s0x38e18574df535561:0xfb85b54f716f5914!8m2!3d34.0991755!4d74.8022383!16s%2Fg%2F11qqc_ctmp!19sChIJYVVT33SF4TgRFFlvcU-1hfs?authuser=0&hl=en&rclk=1,"34.0991755,74.8022383"
Masjid Syed Mohammad Ainposh Sahib,Mosque,"4R65+7RQ Masjid Syed Mohammad Ainposh Sahib, Hawal, Srinagar, Jammu and Kashmir 190002",Hawal,4R65+7RQ,Srinagar,190002,Jammu and Kashmir,IN,https://www.google.com/maps/place/Masjid+Syed+Mohammad+Ainposh+Sahib/data=!4m7!3m6!1s0x38e18584756c4271:0x360d8a58d650cec1!8m2!3d34.1107212!4d74.809602!16s%2Fg%2F11ll4x7n23!19sChIJcUJsdYSF4TgRwc5Q1liKDTY?authuser=0&hl=en&rclk=1,"34.1107212,74.809602"
Jamia Masjid Safa Kadal - jm` msjd Sfkhdl,Mosque,"Jamia Masjid Safa Kadal - jm` msjd Sfkhdl, Chowk, Safa Kadal Bridge, Safakadal, Srinagar, Jammu and Kashmir 190002",Safakadal,"Chowk, Safa Kadal Bridge",Srinagar,190002,Jammu and Kashmir,IN,https://www.google.com/maps/place/Jamia+Masjid+Safa+Kadal+-+%D8%AC%D8%A7%D9%85%D8%B9+%D9%85%D8%B3%D8%AC%D8%AF+%D8%B5%D9%81%D8%A7%DA%A9%D8%AF%D9%84%E2%80%AD/data=!4m7!3m6!1s0x38e18538ef682911:0xc61771920e87174f!8m2!3d34.0921038!4d74.7920698!16s%2Fg%2F11ghnfpyqb!19sChIJESlo7ziF4TgRTxeHDpJxF8Y?authuser=0&hl=en&rclk=1,"34.0921038,74.7920698"
Haji Masjid Sharef,Mosque,"Haji Masjid Sharef, Auqaf Building, MA Road, Maisuma, Kothi Bagh, Srinagar, 190001","Maisuma, Kothi Bagh","Auqaf Building, MA Road",Srinagar,190001,,IN,https://www.google.com/maps/place/Haji+Masjid+Sharef/data=!4m7!3m6!1s0x38e18f1f7b2bef2b:0x52a06f4ec3e4311d!8m2!3d34.0724836!4d74.8096377!16s%2Fg%2F11pkbz3_jr!19sChIJK-8rex-P4TgRHTHkw05voFI?authuser=0&hl=en&rclk=1,"34.0724836,74.8096377"
Masjid Umer,Mosque,"Masjid Umer, Masjid Shareef, eidgah, Aali, Srinagar - Gulmarg Rd, Iqbal Colony, Tangmarg, 193402","Iqbal Colony, Chandihar","Masjid Shareef, eidgah, Aali, Srinagar - Gulmarg Rd","Tangmarg, Srinagar",193402,,IN,https://www.google.com/maps/place/Masjid+Umer/data=!4m7!3m6!1s0x38e18547660a0cdd:0xb8bb072a60d17eed!8m2!3d34.1063474!4d74.7962443!16s%2Fg%2F11c594yv9n!19sChIJ3QwKZkeF4TgR7X7RYCoHu7g?authuser=0&hl=en&rclk=1,"34.1063474,74.7962443"
Masjid msjd,Mosque,"3RPC+QXF Masjid msjd, Naupura, Srinagar, Jammu and Kashmir 190003",Naupura,3RPC+QXF,Srinagar,190003,Jammu and Kashmir,IN,https://www.google.com/maps/place/Masjid+%D9%85%D8%B3%D8%AC%D8%AF%E2%80%AD/data=!4m7!3m6!1s0x38e18f80c6faf2cb:0xe7a067b578377aba!8m2!3d34.0869253!4d74.8224215!16s%2Fg%2F124sqzbpx!19sChIJy_L6xoCP4TgRuno3eLVnoOc?authuser=0&hl=en&rclk=1,"34.0869253,74.82242149999999"
Masjid shreef zunimar,Mosque,"4Q9W+WPF Masjid shreef zunimar, Teng Pora, Srinagar, 190011",Teng Pora,4Q9W+WPF,Srinagar,190011,,IN,https://www.google.com/maps/place/Masjid+shreef+zunimar/data=!4m7!3m6!1s0x38e185dcb67e653f:0xfbe82be909883b95!8m2!3d34.1198199!4d74.7968108!16s%2Fg%2F11rhvxl3sq!19sChIJP2V-ttyF4TgRlTuICekr6Ps?authuser=0&hl=en&rclk=1,"34.119819899999996,74.7968108"
Masjid Sharief Hanfia msjd shryf,Mosque,"3RP2+MF2 Masjid Sharief Hanfia msjd shryf, Zaldagar Fateh Kadal Rd, Karan Nagar, Srinagar, Jammu and Kashmir 190002",Karan Nagar,"3RP2+MF2, Zaldagar Fateh Kadal Rd",Srinagar,190002,Jammu and Kashmir,IN,https://www.google.com/maps/place/Masjid+Sharief+Hanfia+%D9%85%D8%B3%D8%AC%D8%AF+%D8%B4%D8%B1%DB%8C%D9%81%E2%80%AD/data=!4m7!3m6!1s0x38e1855f9d1af907:0xa9724f20d0e27075!8m2!3d34.0866267!4d74.8011419!16s%2Fg%2F11c6_vs7w4!19sChIJB_kanV-F4TgRdXDi0CBPcqk?authuser=0&hl=en&rclk=1,"34.0866267,74.80114189999999"
Masjid Shareef,Mosque,"4R37+CRH Masjid Shareef, Makhdoom Sahib Rd Via Baachi Darwaza, Nowhatta, Srinagar, 190003",Nowhatta,"4R37+CRH, Makhdoom Sahib Rd Via Baachi Darwaza",Srinagar,190003,,IN,https://www.google.com/maps/place/Masjid+Shareef/data=!4m7!3m6!1s0x38e185847f6a8cc7:0xbe91b6fbde151a2d!8m2!3d34.1035689!4d74.8145942!16s%2Fg%2F11pdvvh5gf!19sChIJx4xqf4SF4TgRLRoV3vu2kb4?authuser=0&hl=en&rclk=1,"34.1035689,74.8145942"
Jildagar Mohalla Masjid,Mosque,"Jildagar Mohalla Masjid, Jamia Masjid, Sokalipora, Srinagar, 190002",Sokalipora,Jamia Masjid,Srinagar,190002,,IN,https://www.google.com/maps/place/Jildagar+Mohalla+Masjid/data=!4m7!3m6!1s0x38e1855020fe3fd1:0x321d91195b059e39!8m2!3d34.0992399!4d74.8082219!16s%2Fg%2F11qhwf1zh9!19sChIJ0T_-IFCF4TgROZ4FWxmRHTI?authuser=0&hl=en&rclk=1,"34.0992399,74.80822189999999"
Masjid,Mosque,"Masjid, Kral Khud, opposite Masjid Salfia, Nai Sarak Rd, Barbar Shah, Habba Kadal, Srinagar, Jammu and Kashmir 190001","Barbar Shah, Habba Kadal","Kral Khud, opposite Masjid Salfia, Nai Sarak Rd",Srinagar,190001,Jammu and Kashmir,IN,https://www.google.com/maps/place/Masjid/data=!4m7!3m6!1s0x38e18fb987f0a585:0x6dce8a858976ba42!8m2!3d34.0799148!4d74.8074992!16s%2Fg%2F11tj92kk90!19sChIJhaXwh7mP4TgRQrp2iYWKzm0?authuser=0&hl=en&rclk=1,"34.0799148,74.8074992"
Masjid Sharief Syed Kamal ud din Madni RA,Mosque,"3QHX+955 Masjid Sharief Syed Kamal ud din Madni RA, Balgarden, Srinagar, 190010",Balgarden,3QHX+955,Srinagar,190010,,IN,https://www.google.com/maps/place/Masjid+Sharief+Syed+Kamal+ud+din+Madni+RA/data=!4m7!3m6!1s0x38e18fdc8cf7e67d:0xe0efa564ed4a4e08!8m2!3d34.0783139!4d74.797539!16s%2Fg%2F11s7ch6zmr!19sChIJfeb3jNyP4TgRCE5K7WSl7-A?authuser=0&hl=en&rclk=1,"34.0783139,74.797539"
Historical Jamia Masjid Nowhatta Srinagar,Mosque,"4R29+5XQ Historical Jamia Masjid Nowhatta Srinagar, Nowhatta, Srinagar, Jammu and Kashmir 190003",Nowhatta,4R29+5XQ,Srinagar,,Jammu and Kashmir,IN,https://www.google.com/maps/place/Historical+Jamia+Masjid+Nowhatta+Srinagar/data=!4m7!3m6!1s0x38e1856e257e7dab:0x7a16e970cebaea7d!8m2!3d34.1004619!4d74.8199988!16s%2Fg%2F11v5_wcjfb!19sChIJq31-JW6F4TgRfeq6znDpFno?authuser=0&hl=en&rclk=1,"34.1004619,74.8199988"
Masjid Shareef Rang Hamam,Mosque,"3RX6+HG7 Masjid Shareef Rang Hamam, Rang Hamam Ln, Nowhatta, Srinagar, Jammu and Kashmir 190003",Nowhatta,"3RX6+HG7, Rang Hamam Ln",Srinagar,190003,Jammu and Kashmir,IN,https://www.google.com/maps/place/Masjid+Shareef+Rang+Hamam/data=!4m7!3m6!1s0x38e1856f69e9cea5:0x9b4e045635df010!8m2!3d34.0989212!4d74.8112914!16s%2Fg%2F1pv5w23yh!19sChIJpc7paW-F4TgREPBdY0XgtAk?authuser=0&hl=en&rclk=1,"34.0989212,74.8112914"
Gousia masjid,Mosque,"Gousia masjid, Firdous Cinama, Bus Stop, NH 1D, Hawal, Srinagar, Jammu and Kashmir 190002",Hawal,"Firdous Cinama, Bus Stop, NH 1D",Srinagar,190002,Jammu and Kashmir,IN,https://www.google.com/maps/place/Gousia+masjid/data=!4m7!3m6!1s0x38e18536e06f8289:0x808c286a18bca5e!8m2!3d34.109262!4d74.809158!16s%2Fg%2F11n109qdk1!19sChIJiYJv4DaF4TgRXsqLoYbCCAg?authuser=0&hl=en&rclk=1,"34.109262,74.809158"
Masjid Shareef msjd shryf,Mosque,"3QQX+VJF Masjid Shareef msjd shryf, Nawabazar, Srinagar, 190002",Nawabazar,3QQX+VJF,Srinagar,190002,,IN,https://www.google.com/maps/place/Masjid+Shareef+%D9%85%D8%B3%D8%AC%D8%AF+%D8%B4%D8%B1%DB%8C%D9%81%E2%80%AD/data=!4m7!3m6!1s0x38e185151cd4bd5f:0x25ab37c461f564c7!8m2!3d34.0896947!4d74.7990568!16s%2Fg%2F11p15q340s!19sChIJX73UHBWF4TgRx2T1YcQ3qyU?authuser=0&hl=en&rclk=1,"34.089694699999995,74.7990568"
Masjid Sharief,Mosque,"Masjid Sharief, Ranga Prasad Residency, Gopanapalli Rd, Masjid Banda, Rail Vihar, Bharat Heavy Electricals Limited, Hyderabad, Srinagar, Telangana 500019","Masjid Banda, Rail Vihar, Bharat Heavy Electricals Limited","Ranga Prasad Residency, Gopanapalli Rd","Hyderabad, Srinagar",500019,Telangana,IN,https://www.google.com/maps/place/Masjid+Sharief/data=!4m7!3m6!1s0x38e1856b1e2bffff:0xdc662efa62ad820d!8m2!3d34.1067481!4d74.8068682!16s%2Fg%2F11g6bzkt8y!19sChIJ__8rHmuF4TgRDYKtYvouZtw?authuser=0&hl=en&rclk=1,"34.1067481,74.8068682"
Masjid msjd,Mosque,"3RJ4+QQ6 Masjid msjd, Syed Ali Akbar St, Habba Kadal, Srinagar, 190001",Habba Kadal,"3RJ4+QQ6, Syed Ali Akbar St",Srinagar,190001,,IN,https://www.google.com/maps/place/Masjid+%D9%85%D8%B3%D8%AC%D8%AF%E2%80%AD/data=!4m7!3m6!1s0x38e18f3ea082e231:0xd67e6e281c5cf072!8m2!3d34.0819075!4d74.8068802!16s%2Fg%2F11rxrws14y!19sChIJMeKCoD6P4TgRcvBcHChuftY?authuser=0&hl=en&rclk=1,"34.0819075,74.8068802"
Bilal Masjid,Mosque,"4R75+MHJ Bilal Masjid, Bilal Masjid Ln, Hawal, Srinagar, Jammu and Kashmir 190011",Hawal,"4R75+MHJ, Bilal Masjid Ln",Srinagar,190011,Jammu and Kashmir,IN,https://www.google.com/maps/place/Bilal+Masjid/data=!4m7!3m6!1s0x38e18517101059f9:0x2b8ef27a9ecb3e63!8m2!3d34.1142037!4d74.8088762!16s%2Fg%2F11qy7_014d!19sChIJ-VkQEBeF4TgRYz7Lnnryjis?authuser=0&hl=en&rclk=1,"34.1142037,74.8088762"
Malchimar Masjid - mlchmr msjd,Mosque,"3RW3+J78 Malchimar Masjid - mlchmr msjd, Maharaj Ganj Rd, Bulbul Lanker, Sokalipora, Srinagar, Jammu and Kashmir 190002","Bulbul Lanker, Sokalipora","3RW3+J78, Maharaj Ganj Rd",Srinagar,190002,Jammu and Kashmir,IN,https://www.google.com/maps/place/Malchimar+Masjid+-+%D9%85%D9%84%DA%86%D9%85%D8%A7%D8%B1+%D9%85%D8%B3%D8%AC%D8%AF%E2%80%AD/data=!4m7!3m6!1s0x38e185e687849549:0xa4292025ec7d4503!8m2!3d34.0965397!4d74.8031877!16s%2Fg%2F11qrl3jn8s!19sChIJSZWEh-aF4TgRA0V97CUgKaQ?authuser=0&hl=en&rclk=1,"34.0965397,74.8031877"
Masjid shareef,Mosque,"Masjid shareef, Dargah Hazratbal Mosque, Hazaratbal, Srinagar, Jammu and Kashmir 190006",Hazaratbal,Dargah Hazratbal Mosque,Srinagar,190006,Jammu and Kashmir,IN,https://www.google.com/maps/place/Masjid+shareef/data=!4m7!3m6!1s0x38e185f7c03814c9:0xd12caddd5b3f730f!8m2!3d34.1289295!4d74.8425647!16s%2Fg%2F11nx16lqrb!19sChIJyRQ4wPeF4TgRD3M_W92tLNE?authuser=0&hl=en&rclk=1,"34.1289295,74.8425647"
Jamia Masjid DPL Srinagar,Mosque,"3QGX+48W Jamia Masjid DPL Srinagar, Shaheed Gunj, Srinagar, 190009",Shaheed Gunj,3QGX+48W,Srinagar,190009,,IN,https://www.google.com/maps/place/Jamia+Masjid+DPL+Srinagar/data=!4m7!3m6!1s0x38e18f813cf164d1:0x25af2eebbbf5c5a!8m2!3d34.0753557!4d74.7983189!16s%2Fg%2F11ny238q1g!19sChIJ0WTxPIGP4TgRWly_u-7yWgI?authuser=0&hl=en&rclk=1,"34.075355699999996,74.7983189"
Masjid shareef,Mosque,"Masjid shareef, Opp. Matyers park, Central, Srinagar 190003, Jail road, Botaraj Colony, Srinagar, 190003",Botaraj Colony,"Opp. Matyers park, Central, Srinagar 190003, Jail road",Srinagar,190003,,IN,https://www.google.com/maps/place/Masjid+shareef/data=!4m7!3m6!1s0x38e1850f9413f941:0x7df9644edcd77d9d!8m2!3d34.1065257!4d74.8236123!16s%2Fg%2F11rg8ld1tz!19sChIJQfkTlA-F4TgRnX3X3E5k-X0?authuser=0&hl=en&rclk=1,"34.1065257,74.8236123"
Gazidoori masjid,Mosque,"Gazidoori masjid, Gazidoori, Alamgari Bazar, Srinagar, Jammu and Kashmir 190002","Gazidoori, Alamgari Bazar",,Srinagar,190002,Jammu and Kashmir,IN,https://www.google.com/maps/place/Gazidoori+masjid/data=!4m7!3m6!1s0x38e1850be941414f:0x68b4340f18e84fcf!8m2!3d34.1152624!4d74.8021233!16s%2Fg%2F11qnvhz024!19sChIJT0FB6QuF4TgRz0_oGA80tGg?authuser=0&hl=en&rclk=1,"34.1152624,74.80212329999999"
Hamambal Masjid Sharief,Mosque,"3RW7+4RJ Hamambal Masjid Sharief, Khaniyar, Srinagar, Jammu and Kashmir 190003",Khaniyar,3RW7+4RJ,Srinagar,190003,Jammu and Kashmir,IN,https://www.google.com/maps/place/Hamambal+Masjid+Sharief/data=!4m7!3m6!1s0x38e18599f8fdfce3:0xef9b3a4cbfb7f548!8m2!3d34.0953405!4d74.8145194!16s%2Fg%2F11lsmrzb3b!19sChIJ4_z9-JmF4TgRSPW3v0w6m-8?authuser=0&hl=en&rclk=1,"34.0953405,74.8145194"
"Masjid Sherif, Kadi Kadal,",Mosque,"3RX4+9JR Masjid Sherif, Kadi Kadal,, Kadi Kadal, Sokalipora, Srinagar, Jammu and Kashmir 190002","Kadi Kadal, Sokalipora",3RX4+9JR,Srinagar,190002,Jammu and Kashmir,IN,"https://www.google.com/maps/place/Masjid+Sherif,+Kadi+Kadal,/data=!4m7!3m6!1s0x38e185e54fdf8be3:0xd1df351a4ad1a415!8m2!3d34.0984755!4d74.8065216!16s%2Fg%2F11llp1q2_d!19sChIJ44vfT-WF4TgRFaTRSho139E?authuser=0&hl=en&rclk=1","34.0984755,74.8065216"
Kaanil Masjid,Mosque,"3RW4+467 Kaanil Masjid, Mahraj Gunj, Sokalipora, Srinagar, Jammu and Kashmir 190002",Sokalipora,"3RW4+467, Mahraj Gunj",Srinagar,190002,Jammu and Kashmir,IN,https://www.google.com/maps/place/Kaanil+Masjid/data=!4m7!3m6!1s0x38e18561b1c23433:0x8d3bc4498eb19d9e!8m2!3d34.0952885!4d74.8055432!16s%2Fg%2F11ns1vv42h!19sChIJMzTCsWGF4TgRnp2xjknEO40?authuser=0&hl=en&rclk=1,"34.095288499999995,74.8055432"
Masjid Imam Zaman (A.S),Mosque,"4R82+3RX Masjid Imam Zaman (A.S), Zadibal, Srinagar, 190002",Zadibal,4R82+3RX,Srinagar,190002,,IN,https://www.google.com/maps/place/Masjid+Imam+Zaman+%28A.S%29/data=!4m7!3m6!1s0x38e185a8241b602f:0xa3d6cada07259d84!8m2!3d34.1152391!4d74.8021172!16s%2Fg%2F11rw_mtjwk!19sChIJL2AbJKiF4TgRhJ0lB9rK1qM?authuser=0&hl=en&rclk=1,"34.1152391,74.8021172"
Masjid Shareef,Mosque,"Masjid Shareef, Comminity Centre, Ikhrajpora, Rajbagh, Srinagar, 190008","Ikhrajpora, Rajbagh",Comminity Centre,Srinagar,190008,,IN,https://www.google.com/maps/place/Masjid+Shareef/data=!4m7!3m6!1s0x38e18f819f66401b:0x1a49cee39e6ddeca!8m2!3d34.0653094!4d74.8184561!16s%2Fg%2F11szb61jd8!19sChIJG0Bmn4GP4TgRyt5tnuPOSRo?authuser=0&hl=en&rclk=1,"34.0653094,74.81845609999999"
MASJID SHAREEF gwgjy bG,Mosque,"3R65+987 MASJID SHAREEF gwgjy bG, Gogji Bagh, Jawahar Nagar, Srinagar, Jammu and Kashmir 190008","Gogji Bagh, Jawahar Nagar",3R65+987,Srinagar,190008,Jammu and Kashmir,IN,https://www.google.com/maps/place/MASJID+SHAREEF+%DA%AF%D9%88%DA%AF%D8%AC%DB%8C+%D8%A8%D8%A7%D8%BA%E2%80%AD/data=!4m7!3m6!1s0x38e18f0c0a5d975b:0xc0dc95044ef6c85e!8m2!3d34.0609016!4d74.8083078!16s%2Fg%2F11sjgn8bzw!19sChIJW5ddCgyP4TgRXsj2TgSV3MA?authuser=0&hl=en&rclk=1,"34.0609016,74.8083078"
Mustafa Masjid mSTfy msjd,Mosque,"4RGF+PXH Mustafa Masjid mSTfy msjd, Old Ganj Bagh, Lal Bazar, Srinagar, 190011","Old Ganj Bagh, Lal Bazar",4RGF+PXH,Srinagar,190011,,IN,https://www.google.com/maps/place/Mustafa+Masjid+%D9%85%D8%B5%D8%B7%D9%81%DB%8C%D9%B0+%D9%85%D8%B3%D8%AC%D8%AF%E2%80%AD/data=!4m7!3m6!1s0x38e18582cd7f4221:0x5185c1479df5e1fe!8m2!3d34.1268137!4d74.8249786!16s%2Fg%2F11rlj6j0w7!19sChIJIUJ_zYKF4TgR_uH1nUfBhVE?authuser=0&hl=en&rclk=1,"34.1268137,74.8249786"
Pather masjid srinagar,Mosque,"3QMW+FW7 Pather masjid srinagar, Karan Nagar, Srinagar, Jammu and Kashmir 190010",Karan Nagar,3QMW+FW7,Srinagar,,Jammu and Kashmir,IN,https://www.google.com/maps/place/Pather+masjid+srinagar/data=!4m7!3m6!1s0x38e18fb17e757de9:0xa34f228592d3e5c7!8m2!3d34.0836708!4d74.7972825!16s%2Fg%2F11stxf3t8l!19sChIJ6X11frGP4TgRx-XTkoUiT6M?authuser=0&hl=en&rclk=1,"34.0836708,74.7972825"
Mir masjid khanyar Srinagar Kashmir,Mosque,"3RWM+47F Mir masjid khanyar Srinagar Kashmir, Karapura Pain, Karapura, Rainawari, Srinagar, 190003","Karapura Pain, Karapura, Rainawari",3RWM+47F,Srinagar,190003,,IN,https://www.google.com/maps/place/Mir+masjid+khanyar+Srinagar+Kashmir/data=!4m7!3m6!1s0x38e1856e7560a55d:0x4ce8116cbea10a6d!8m2!3d34.0953008!4d74.8331674!16s%2Fg%2F11rz3tfb12!19sChIJXaVgdW6F4TgRbQqhvmwR6Ew?authuser=0&hl=en&rclk=1,"34.0953008,74.8331674"
Masjid Sharif Nawabazar,Mosque,"3RQ2+F7P Masjid Sharif Nawabazar, Shreen Bagh Rd, Karan Nagar, Srinagar, Jammu and Kashmir 190002",Karan Nagar,"3RQ2+F7P, Shreen Bagh Rd",Srinagar,190002,Jammu and Kashmir,IN,https://www.google.com/maps/place/Masjid+Sharif+Nawabazar/data=!4m7!3m6!1s0x38e185f7307a3873:0xedb9c65ad90c8fc1!8m2!3d34.0887228!4d74.8006977!16s%2Fg%2F11qy93n9kv!19sChIJczh6MPeF4TgRwY8M2VrGue0?authuser=0&hl=en&rclk=1,"34.0887228,74.8006977"
Masjid shareef,Mosque,"3RC7+QXC Masjid shareef, Regal Chowk, Press Colony, Srinagar, Jammu and Kashmir 190001","Regal Chowk, Press Colony",3RC7+QXC,Srinagar,,Jammu and Kashmir,IN,https://www.google.com/maps/place/Masjid+shareef/data=!4m7!3m6!1s0x38e18f2c4427f06f:0xa994c969bef1042a!8m2!3d34.071928!4d74.8148887!16s%2Fg%2F11sf5nhyxg!19sChIJb_AnRCyP4TgRKgTxvmnJlKk?authuser=0&hl=en&rclk=1,"34.071928,74.8148887"
Peer padshah masjid srinagar,Mosque,"4R3M+472 Peer padshah masjid srinagar, Karapura, Amda Kadal, Srinagar, Jammu and Kashmir 190003","Karapura, Amda Kadal",4R3M+472,Srinagar,,Jammu and Kashmir,IN,https://www.google.com/maps/place/Peer+padshah+masjid+srinagar/data=!4m7!3m6!1s0x38e185f1fe8d1d21:0x5d10bf2344b61773!8m2!3d34.1027618!4d74.8331277!16s%2Fg%2F11stwn44p4!19sChIJIR2N_vGF4TgRcxe2RCO_EF0?authuser=0&hl=en&rclk=1,"34.102761799999996,74.83312769999999"
