name,main_category,address,address_ward,address_street,address_city,address_postal_code,address_state,address_country_code,link,coordinates
Idgah,Mosque,"C2QH+73V Idgah, Sadabad, Uttar Pradesh 281306",,C2QH+73V,Sadabad,281306,Uttar Pradesh,IN,https://www.google.com/maps/place/Idgah/data=!4m7!3m6!1s0x3974873101611647:0x7b4bbfbc53fe2d8!8m2!3d27.4382462!4d78.0276851!16s%2Fg%2F11b8_w48tp!19sChIJRxZhATGHdDkR2OI_xfu7tAc?authuser=0&hl=en&rclk=1,"27.4382462,78.0276851"
Jama Masjid,Mosque,"C2QM+MFH Jama Masjid, Meat Market,, Sadabad, Uttar Pradesh",,"C2QM+MFH, Meat Market,",Sadabad,,Uttar Pradesh,IN,https://www.google.com/maps/place/Jama+Masjid/data=!4m7!3m6!1s0x3974873b003e0e77:0xa29200fe5f675bb2!8m2!3d27.4391761!4d78.0337238!16s%2Fg%2F11bxdvf3jq!19sChIJdw4-ADuHdDkRsltnX_4AkqI?authuser=0&hl=en&rclk=1,"27.439176099999997,78.03372379999999"
Salmani Masjid,Mosque,"C2PP+MM2 Salmani Masjid, Jawahar Bazaar, Karkauli, Sadabad, Uttar Pradesh 281306",Karkauli,"C2PP+MM2, Jawahar Bazaar",Sadabad,281306,Uttar Pradesh,IN,https://www.google.com/maps/place/Salmani+Masjid/data=!4m7!3m6!1s0x3974873bff7f21cb:0xc814b149a356dbdd!8m2!3d27.4366358!4d78.0366444!16s%2Fg%2F11f51_5vj0!19sChIJyyF__zuHdDkR3dtWo0mxFMg?authuser=0&hl=en&rclk=1,"27.436635799999998,78.0366444"
Aulia Masjid,Mosque,"Aulia Masjid, Ahmad Nagar, Sadabad, Uttar Pradesh 281306",,Ahmad Nagar,Sadabad,281306,Uttar Pradesh,IN,https://www.google.com/maps/place/Aulia+Masjid/data=!4m7!3m6!1s0x3974873981c92ab5:0xb2d71a952f60ead0!8m2!3d27.4359748!4d78.0338248!16s%2Fg%2F11f4vx35n5!19sChIJtSrJgTmHdDkR0OpgL5Ua17I?authuser=0&hl=en&rclk=1,"27.4359748,78.03382479999999"
Islam Nagar Masjid,Mosque,"C2PJ+3PC Islam Nagar Masjid, SH 39, Sadabad, Uttar Pradesh 281306",,"C2PJ+3PC, SH 39",Sadabad,281306,Uttar Pradesh,IN,https://www.google.com/maps/place/Islam+Nagar+Masjid/data=!4m7!3m6!1s0x39748739ef9576eb:0x56b2f7691647b09a!8m2!3d27.4351968!4d78.031753!16s%2Fg%2F11ggfm50_h!19sChIJ63aV7zmHdDkRmrBHFmn3slY?authuser=0&hl=en&rclk=1,"27.4351968,78.031753"
Taj Masjid,Mosque,"C2QJ+R46 Taj Masjid, SH 39, Sadabad, Uttar Pradesh 281306",,"C2QJ+R46, SH 39",Sadabad,281306,Uttar Pradesh,IN,https://www.google.com/maps/place/Taj+Masjid/data=!4m7!3m6!1s0x397487307004a38d:0x7331661560ebf81b!8m2!3d27.4395477!4d78.0302648!16s%2Fg%2F11ggpmljvl!19sChIJjaMEcDCHdDkRG_jrYBVmMXM?authuser=0&hl=en&rclk=1,"27.4395477,78.0302648"
Medina Masjid,Mosque,"C2MH+WXG Medina Masjid, Sadabad, Uttar Pradesh 281306",,C2MH+WXG,Sadabad,281306,Uttar Pradesh,IN,https://www.google.com/maps/place/Medina+Masjid/data=!4m7!3m6!1s0x3974873743f6daf7:0xda3b7dd54b059d1a!8m2!3d27.4348226!4d78.0299437!16s%2Fg%2F11hcp7qgj6!19sChIJ99r2QzeHdDkRGp0FS9V9O9o?authuser=0&hl=en&rclk=1,"27.4348226,78.02994369999999"
Khajoor Wali Masjid,Mosque,"C2QP+FMM Khajoor Wali Masjid, Sadabad, Uttar Pradesh 281306",,C2QP+FMM,Sadabad,281306,Uttar Pradesh,IN,https://www.google.com/maps/place/Khajoor+Wali+Masjid/data=!4m7!3m6!1s0x3974873b878a6c15:0x3d8928ee569213ad!8m2!3d27.4387211!4d78.0366575!16s%2Fg%2F11f51_d8t4!19sChIJFWyKhzuHdDkRrROSVu4oiT0?authuser=0&hl=en&rclk=1,"27.4387211,78.03665749999999"
Mecca Masjid,Mosque,"C2PH+VCJ Mecca Masjid, Sadabad, Uttar Pradesh 281306",,C2PH+VCJ,Sadabad,281306,Uttar Pradesh,IN,https://www.google.com/maps/place/Mecca+Masjid/data=!4m7!3m6!1s0x39748730fbcce0ab:0xca18569b2b8fa146!8m2!3d27.437204!4d78.0285025!16s%2Fg%2F11hcw67wdr!19sChIJq-DM-zCHdDkRRqGPK5tWGMo?authuser=0&hl=en&rclk=1,"27.437203999999998,78.0285025"
Usmanganj Masjid,Mosque,"C2WR+X4J Usmanganj Masjid, Radha Puram, Salem Pur, Sadabad, Uttar Pradesh 281306",Radha Puram,C2WR+X4J,"Salem Pur, Sadabad",281306,Uttar Pradesh,IN,https://www.google.com/maps/place/Usmanganj+Masjid/data=!4m7!3m6!1s0x397487bc4566535b:0x1d8a7577b94e4404!8m2!3d27.4474644!4d78.0402527!16s%2Fg%2F11f5v9tyrg!19sChIJW1NmRbyHdDkRBEROuXd1ih0?authuser=0&hl=en&rclk=1,"27.447464399999998,78.0402527"
Baag Wali Masjid,Mosque,"C2RJ+6R8 Baag Wali Masjid, SH 39, Sadabad, Uttar Pradesh 281306",,"C2RJ+6R8, SH 39",Sadabad,281306,Uttar Pradesh,IN,https://www.google.com/maps/place/Baag+Wali+Masjid/data=!4m7!3m6!1s0x3974873abe6404cf:0x72adf3c8b5c2a3bf!8m2!3d27.4405436!4d78.0320893!16s%2Fg%2F11ggpm6gz_!19sChIJzwRkvjqHdDkRv6PCtcjzrXI?authuser=0&hl=en&rclk=1,"27.440543599999998,78.0320893"
Beg Masjid,Mosque,"C2QM+RVG Beg Masjid, Sadabad, Uttar Pradesh 281306",,C2QM+RVG,Sadabad,281306,Uttar Pradesh,IN,https://www.google.com/maps/place/Beg+Masjid/data=!4m7!3m6!1s0x3974873b0ed7970d:0x2ac1abae135e1e79!8m2!3d27.4395709!4d78.0347075!16s%2Fg%2F11hcxbz7s_!19sChIJDZfXDjuHdDkReR5eE66rwSo?authuser=0&hl=en&rclk=1,"27.4395709,78.0347075"
Masjid Bangalpura,Mosque,"C2HP+HFP Masjid Bangalpura, Sadabad, Uttar Pradesh 281306",,C2HP+HFP,Sadabad,281306,Uttar Pradesh,IN,https://www.google.com/maps/place/Masjid+Bangalpura/data=!4m7!3m6!1s0x397487d7c1f8aef7:0xb74557f63e0b30e1!8m2!3d27.4289607!4d78.0362079!16s%2Fg%2F11g0mg_60r!19sChIJ9674wdeHdDkR4TALPvZXRbc?authuser=0&hl=en&rclk=1,"27.428960699999998,78.0362079"
Masjid Mohalla Qureshiyan,Mosque,"C2QM+7HF Masjid Mohalla Qureshiyan, Sadabad, Uttar Pradesh 281306",,C2QM+7HF,Sadabad,281306,Uttar Pradesh,IN,https://www.google.com/maps/place/Masjid+Mohalla+Qureshiyan/data=!4m7!3m6!1s0x3974879015862f87:0x18a1e7a86fb71f56!8m2!3d27.4381877!4d78.0339333!16s%2Fg%2F11gk8rhj0_!19sChIJhy-GFZCHdDkRVh-3b6jnoRg?authuser=0&hl=en&rclk=1,"27.4381877,78.0339333"
Tehsil Wali Masjid,Mosque,"C2RQ+947 Tehsil Wali Masjid, Bhagat Singh Colony, Karkauli, Sadabad, Uttar Pradesh 281306","Bhagat Singh Colony, Karkauli",C2RQ+947,Sadabad,281306,Uttar Pradesh,IN,https://www.google.com/maps/place/Tehsil+Wali+Masjid/data=!4m7!3m6!1s0x39748790c9ebee47:0x62e24286109d9ae1!8m2!3d27.440915!4d78.0378048!16s%2Fg%2F11hdjgdkc2!19sChIJR-7ryZCHdDkR4ZqdEIZC4mI?authuser=0&hl=en&rclk=1,"27.440915,78.0378048"
Qureshiyan Masjid,Mosque,"C2QM+HP4 Qureshiyan Masjid, Sadabad, Uttar Pradesh 281306",,C2QM+HP4,Sadabad,281306,Uttar Pradesh,IN,https://www.google.com/maps/place/Qureshiyan+Masjid/data=!4m7!3m6!1s0x3974873ba91e0e79:0xef091ec57eeafcf5!8m2!3d27.4388862!4d78.0343387!16s%2Fg%2F11hcxlcf9z!19sChIJeQ4eqTuHdDkR9fzqfsUeCe8?authuser=0&hl=en&rclk=1,"27.4388862,78.03433869999999"
Muker Khana Masjid,Mosque,"C2QP+9XX Muker Khana Masjid, Subhash Gali, Bhagat Singh Colony, Karkauli, Sadabad, Uttar Pradesh 281306","Bhagat Singh Colony, Karkauli","C2QP+9XX, Subhash Gali",Sadabad,281306,Uttar Pradesh,IN,https://www.google.com/maps/place/Muker+Khana+Masjid/data=!4m7!3m6!1s0x397487b753bb21ff:0x5e12768a2415960f!8m2!3d27.4384833!4d78.0374943!16s%2Fg%2F11s9wgv47s!19sChIJ_yG7U7eHdDkRD5YVJIp2El4?authuser=0&hl=en&rclk=1,"27.438483299999998,78.03749429999999"
Nadi Wali Masjid,Mosque,"Mukerkhana, Nadi Wali Masjid, Nadi Ke Pass, Karkauli, Sadabad, Uttar Pradesh 281306",Karkauli,"Mukerkhana, Nadi Ke Pass",Sadabad,,Uttar Pradesh,IN,https://www.google.com/maps/place/Nadi+Wali+Masjid/data=!4m7!3m6!1s0x3974873c488f0fdd:0x2c046c014a43de70!8m2!3d27.4382892!4d78.0388544!16s%2Fg%2F11f57dfcr_!19sChIJ3Q-PSDyHdDkRcN5DSgFsBCw?authuser=0&hl=en&rclk=1,"27.4382892,78.03885439999999"
nababi masjid,Place of worship,"C2JM+MVX nababi masjid, Krishna Inter College, RD, Sadabad, Garhi Nilkanth, Uttar Pradesh 281306",,"C2JM+MVX Krishna Inter College, RD","Sadabad, Garhi Nilkanth",281306,Uttar Pradesh,IN,https://www.google.com/maps/place/nababi+masjid/data=!4m7!3m6!1s0x397487dec8eb8acb:0x10330c1aabc3b8c9!8m2!3d27.4310292!4d78.0345851!16s%2Fg%2F11l28k_wtf!19sChIJy4rryN6HdDkRybjDqxoMMxA?authuser=0&hl=en&rclk=1,"27.431029199999998,78.0345851"
Masjid Riyazul Jannah madrasa Misbah Ul Uloom,Place of worship,"C2PM+43G Masjid Riyazul Jannah madrasa Misbah Ul Uloom, Sadabad Bypass Rd, Sadabad, Uttar Pradesh 281306",,"C2PM+43G, Sadabad Bypass Rd",Sadabad,281306,Uttar Pradesh,IN,https://www.google.com/maps/place/Masjid+Riyazul+Jannah+madrasa+Misbah+Ul+Uloom/data=!4m7!3m6!1s0x397487acb6ff18d9:0xebae1fe42fb2220!8m2!3d27.4353225!4d78.0326965!16s%2Fg%2F11fkvprcjj!19sChIJ2Rj_tqyHdDkRICL7Qv7hug4?authuser=0&hl=en&rclk=1,"27.435322499999998,78.0326965"
