name,main_category,address,address_ward,address_street,address_city,address_postal_code,address_state,address_country_code,link,coordinates
Masjid Nasir,Mosque,"MPX7+W93 Masjid Nasir, Asura E St, Melapalayam, Tirunelveli, Tamil Nadu 627005",Melapalayam,"MPX7+W93, Asura E St",Tirunelveli,627005,Tamil Nadu,IN,https://www.google.com/maps/place/Masjid+Nasir/data=!4m7!3m6!1s0x3b041247a63c6d55:0x668e5fb01f10eb7a!8m2!3d8.6997681!4d77.7134257!16s%2Fg%2F1263mdd02!19sChIJVW08pkcSBDsReusQH7BfjmY?authuser=0&hl=en&rclk=1,"8.6997681,77.7134257"
Masjid Salaam,Mosque,"MPV7+JFJ Masjid Salaam, Hameempuram, Raja Nagar, Tirunelveli, Tamil Nadu 627005","Hameempuram, Raja Nagar",MPV7+JFJ,Tirunelveli,627005,Tamil Nadu,IN,https://www.google.com/maps/place/Masjid+Salaam/data=!4m7!3m6!1s0x3b041245bc5e4711:0x555b6d6276c60b8a!8m2!3d8.6940906!4d77.7136369!16s%2Fg%2F11f557ycrc!19sChIJEUdevEUSBDsRigvGdmJtW1U?authuser=0&hl=en&rclk=1,"8.6940906,77.7136369"
msjittuur rhiim TNTJ,Mosque,"PMG4+25J msjittuur rhiim TNTJ, Tirunelveli, Tamil Nadu 627004",,PMG4+25J,Tirunelveli,627004,Tamil Nadu,IN,https://www.google.com/maps/place/%E0%AE%AE%E0%AE%B8%E0%AF%8D%E0%AE%9C%E0%AE%BF%E0%AE%A4%E0%AF%8D%E0%AE%A4%E0%AF%82%E0%AE%B0%E0%AF%8D+%E0%AE%B0%E0%AE%B9%E0%AF%80%E0%AE%AE%E0%AF%8D+TNTJ/data=!4m7!3m6!1s0x3b041154e9541523:0x9b2413c0eaef02b9!8m2!3d8.7250975!4d77.6553851!16s%2Fg%2F1vxw6p_l!19sChIJIxVU6VQRBDsRuQLv6sATJJs?authuser=0&hl=en&rclk=1,"8.7250975,77.65538509999999"
Masjid-ur-Rahman,Mosque,"PP26+VGG Masjid-ur-Rahman, Melapalayam, Tirunelveli, Tamil Nadu 627005",Melapalayam,PP26+VGG,Tirunelveli,627005,Tamil Nadu,IN,https://www.google.com/maps/place/Masjid-ur-Rahman/data=!4m7!3m6!1s0x3b04123804ff6949:0xa570ac5dba7f5d2a!8m2!3d8.7021768!4d77.7113239!16s%2Fg%2F124yl0jng!19sChIJSWn_BDgSBDsRKl1_ul2scKU?authuser=0&hl=en&rclk=1,"8.7021768,77.7113239"
Puthumanai Jumma Masjid Kothba Pallivasal,Mosque,"PP35+HC4 Puthumanai Jumma Masjid Kothba Pallivasal, Melapalayam, Tirunelveli, Tamil Nadu 627005",Melapalayam,PP35+HC4,Tirunelveli,627005,Tamil Nadu,IN,https://www.google.com/maps/place/Puthumanai+Jumma+Masjid+Kothba+Pallivasal/data=!4m7!3m6!1s0x3b041237a84ab483:0xe4c5596758a6b4f3!8m2!3d8.7038894!4d77.7085687!16s%2Fg%2F1w6_m7pr!19sChIJg7RKqDcSBDsR87SmWGdZxeQ?authuser=0&hl=en&rclk=1,"8.7038894,77.7085687"
Shanthi Nagar Masjid e Salam,Mosque,"Shanthi Nagar Masjid e Salam, 627002, Palayamkottai, Tirunelveli, Tamil Nadu 627002",Palayamkottai,627002,Tirunelveli,627002,Tamil Nadu,IN,https://www.google.com/maps/place/Shanthi+Nagar+Masjid+e+Salam/data=!4m7!3m6!1s0x3b040e06dba5f77d:0xaa9680ce7627541e!8m2!3d8.7277377!4d77.7518699!16s%2Fg%2F11dxnlzf4s!19sChIJffel2wYOBDsRHlQnds6Alqo?authuser=0&hl=en&rclk=1,"8.7277377,77.7518699"
Masjid Thaqwa,Mosque,"Masjid Thaqwa, Kottikulam Bazar Rd, Melapalayam, Tirunelveli, Tamil Nadu 627005",Melapalayam,Kottikulam Bazar Rd,Tirunelveli,627005,Tamil Nadu,IN,https://www.google.com/maps/place/Masjid+Thaqwa/data=!4m7!3m6!1s0x3b0412489c9926f9:0xebbe043ca01ff0d0!8m2!3d8.6981474!4d77.7105367!16s%2Fg%2F124ydkmmd!19sChIJ-SaZnEgSBDsR0PAfoDwEvus?authuser=0&hl=en&rclk=1,"8.6981474,77.71053669999999"
Military Line Mosque,Mosque,"Military Line Mosque, 27, Water Tank Rd, Palayamkottai, Tirunelveli, Tamil Nadu 627002",Palayamkottai,"27, Water Tank Rd",Tirunelveli,627002,Tamil Nadu,IN,https://www.google.com/maps/place/Military+Line+Mosque/data=!4m7!3m6!1s0x3b041201b0d55167:0xd202a1c64b20855b!8m2!3d8.7225598!4d77.7417354!16s%2Fg%2F1260d7xs1!19sChIJZ1HVsAESBDsRW4UgS8ahAtI?authuser=0&hl=en&rclk=1,"8.722559799999999,77.7417354"
Nellai Grand Masjid,Mosque,"PPH7+H4Q Nellai Grand Masjid, Kailasapuram Rd, Meenakshipuram, Tirunelveli, Tamil Nadu 627001",Meenakshipuram,"PPH7+H4Q, Kailasapuram Rd",Tirunelveli,627001,Tamil Nadu,IN,https://www.google.com/maps/place/Nellai+Grand+Masjid/data=!4m7!3m6!1s0x3b04118f3246d33d:0x762f30f1ef5785e4!8m2!3d8.7289561!4d77.7128749!16s%2Fg%2F1w2ys98w!19sChIJPdNGMo8RBDsR5IVX7_EwL3Y?authuser=0&hl=en&rclk=1,"8.7289561,77.7128749"
M O C Masjid,Mosque,"PQ73+823 M O C Masjid, Palayamkottai, Tirunelveli, Tamil Nadu 627011",Palayamkottai,PQ73+823,Tirunelveli,627011,Tamil Nadu,IN,https://www.google.com/maps/place/M+O+C+Masjid/data=!4m7!3m6!1s0x3b040df099ab4041:0xe04932c87fb06245!8m2!3d8.7132568!4d77.7525448!16s%2Fg%2F11f_tlt8zg!19sChIJQUCrmfANBDsRRWKwf8gySeA?authuser=0&hl=en&rclk=1,"8.7132568,77.7525448"
Masjid Ur Rahman,Mosque,"MPWM+WHJ Masjid Ur Rahman, Perumalpuram, Vasantha Nager, Tirunelveli, Tamil Nadu 627007","Perumalpuram, Vasantha Nager",MPWM+WHJ,Tirunelveli,627007,Tamil Nadu,IN,https://www.google.com/maps/place/Masjid+Ur+Rahman/data=!4m7!3m6!1s0x3b04127200a11803:0x296f8ce62c3a4527!8m2!3d8.6973474!4d77.7339038!16s%2Fg%2F11b6_ccbj7!19sChIJAxihAHISBDsRJ0U6LOaMbyk?authuser=0&hl=en&rclk=1,"8.6973474,77.7339038"
IBNU ABBAS MASJID AND MADARASA,Mosque,"PMJH+R4R IBNU ABBAS MASJID AND MADARASA, Lalugapuram, Nellai Nagaram, Tirunelveli, Tamil Nadu 627006","Lalugapuram, Nellai Nagaram",PMJH+R4R,Tirunelveli,627006,Tamil Nadu,IN,https://www.google.com/maps/place/IBNU+ABBAS+MASJID+AND+MADARASA/data=!4m7!3m6!1s0x3b0411ad43948e13:0x29e6ef342747e32c!8m2!3d8.7321174!4d77.6777531!16s%2Fg%2F11jm6fzxr0!19sChIJE46UQ60RBDsRLONHJzTv5ik?authuser=0&hl=en&rclk=1,"8.7321174,77.67775309999999"
Masjid Mariam Alfel msjit mrym,Mosque,"Masjid Mariam Alfel msjit mrym, Crescent Nagar, Mugambigai Nagar, KTC Nagar North, KTC Nagar, Tirunelveli, Tamil Nadu 627011","Mugambigai Nagar, KTC Nagar North, KTC Nagar",Crescent Nagar,Tirunelveli,627011,Tamil Nadu,IN,https://www.google.com/maps/place/Masjid+Mariam+Alfel+%E0%AE%AE%E0%AE%B8%E0%AF%8D%E0%AE%9C%E0%AE%BF%E0%AE%A4%E0%AF%8D+%E0%AE%AE%E0%AE%B0%E0%AF%8D%E0%AE%AF%E0%AE%AE%E0%AF%8D/data=!4m7!3m6!1s0x3b040dde7c9ba7d5:0x6a38d4eaa8e618ab!8m2!3d8.7203688!4d77.770703!16s%2Fg%2F113h77lk1!19sChIJ1aebfN4NBDsRqxjmqOrUOGo?authuser=0&hl=en&rclk=1,"8.7203688,77.770703"
Fathima Masjid,Mosque,"PQQC+VF9 Fathima Masjid, Sivalaperi Road, Keelanatham Chidambaram Nagar, Thirunelveli, Thoothukudi, Tamil Nadu 627353","Chidambaram Nagar, Keelanatham","PQQC+VF9, Sivalaperi Road, Keelanatham Chidambaram Nagar, Thirunelveli","Thoothukudi, Tirunelveli",627353,Tamil Nadu,IN,https://www.google.com/maps/place/Fathima+Masjid/data=!4m7!3m6!1s0x3b040e6c5a496c51:0xcce8806f13654c12!8m2!3d8.7396674!4d77.7712468!16s%2Fg%2F11cfgf3zb!19sChIJUWxJWmwOBDsREkxlE2-A6Mw?authuser=0&hl=en&rclk=1,"8.7396674,77.7712468"
Jamiya Masjid,Mosque,"PMHM+P3F Jamiya Masjid, Courtallam Rd, Tirunelveli Town, Tirunelveli, Tamil Nadu 627006",Tirunelveli Town,"PMHM+P3F, Courtallam Rd",Tirunelveli,627006,Tamil Nadu,IN,https://www.google.com/maps/place/Jamiya+Masjid/data=!4m7!3m6!1s0x3b041164239274d7:0xad7f5ada0ac1c649!8m2!3d8.7293159!4d77.6826584!16s%2Fg%2F11byw4xcnj!19sChIJ13SSI2QRBDsRScbBCtpaf60?authuser=0&hl=en&rclk=1,"8.7293159,77.6826584"
Rahmath Nagar Mosque,Mosque,"PQF6+V5C Rahmath Nagar Mosque, Rahmath Nagar, Kamaraj Nagar, Tirunelveli, Tamil Nadu 627002","Rahmath Nagar, Kamaraj Nagar",PQF6+V5C,Tirunelveli,627002,Tamil Nadu,IN,https://www.google.com/maps/place/Rahmath+Nagar+Mosque/data=!4m7!3m6!1s0x3b040de277ab6d95:0x15e53570f5ef4005!8m2!3d8.724681!4d77.760399!16s%2Fg%2F1pyqj08pd!19sChIJlW2rd-INBDsRBUDv9XA15RU?authuser=0&hl=en&rclk=1,"8.724681,77.76039899999999"
Masjidur Rahmath rhmttu msjit,Mosque,"PQ96+9V5 Masjidur Rahmath rhmttu msjit, Rehmath Nagar East, Kamaraj Nagar, Tirunelveli, Tamil Nadu 627011","Rehmath Nagar East, Kamaraj Nagar",PQ96+9V5,Tirunelveli,627011,Tamil Nadu,IN,https://www.google.com/maps/place/Masjidur+Rahmath+%E0%AE%B0%E0%AE%B9%E0%AF%8D%E0%AE%AE%E0%AE%A4%E0%AF%8D%E0%AE%A4%E0%AF%81+%E0%AE%AE%E0%AE%B8%E0%AF%8D%E0%AE%9C%E0%AE%BF%E0%AE%A4%E0%AF%8D/data=!4m7!3m6!1s0x3b040de41fcca38f:0xc4837c9c1938cabc!8m2!3d8.7183844!4d77.7622427!16s%2Fg%2F1pp2tgyb8!19sChIJj6PMH-QNBDsRvMo4GZx8g8Q?authuser=0&hl=en&rclk=1,"8.7183844,77.7622427"
Masjid,Mosque,"PP2H+9WW Masjid, NGO A Colony, Perumalpuram, Vasantha Nager, Tirunelveli, Tamil Nadu 627007","NGO A Colony, Perumalpuram, Vasantha Nager",PP2H+9WW,Tirunelveli,627007,Tamil Nadu,IN,https://www.google.com/maps/place/Masjid/data=!4m7!3m6!1s0x3b04126cc03ddfad:0xc8c344b5d0586d68!8m2!3d8.7009844!4d77.7298167!16s%2Fg%2F11df7k6nqk!19sChIJrd89wGwSBDsRaG1Y0LVEw8g?authuser=0&hl=en&rclk=1,"8.7009844,77.7298167"
Masjid Al Aqsa,Mosque,"MQV5+XJC Masjid Al Aqsa, Thiyagaraja Nagar, Tirunelveli, Tamil Nadu 627011",Thiyagaraja Nagar,MQV5+XJC,Tirunelveli,627011,Tamil Nadu,IN,https://www.google.com/maps/place/Masjid+Al+Aqsa/data=!4m7!3m6!1s0x3b040d905307e15d:0xb4d569d7acced12e!8m2!3d8.6949313!4d77.7590267!16s%2Fg%2F11btmbp7xf!19sChIJXeEHU5ANBDsRLtHOrNdp1bQ?authuser=0&hl=en&rclk=1,"8.6949313,77.75902669999999"
Periya Pallivasal (MNP MASJID),Mosque,"PMG5+2XJ Periya Pallivasal (MNP MASJID), Pettai, Tirunelveli, Tamil Nadu 627004",,PMG5+2XJ,"Pettai, Tirunelveli",627004,Tamil Nadu,IN,https://www.google.com/maps/place/Periya+Pallivasal+%28MNP+MASJID%29/data=!4m7!3m6!1s0x3b0411569af89929:0x33168bf74dd7715b!8m2!3d8.7250915!4d77.6599046!16s%2Fg%2F1pyqw8_s5!19sChIJKZn4mlYRBDsRW3HXTfeLFjM?authuser=0&hl=en&rclk=1,"8.7250915,77.65990459999999"
Arasan Masjid arcnnn pllllivaacl,Mosque,"PPJ6+F33 Arasan Masjid arcnnn pllllivaacl, Madurai Rd, Balabagya Nagar South, Tirunelveli Town, Tirunelveli, Tamil Nadu 627001","Balabagya Nagar South, Tirunelveli Town","PPJ6+F33, Madurai Rd",Tirunelveli,627001,Tamil Nadu,IN,https://www.google.com/maps/place/Arasan+Masjid+%E0%AE%85%E0%AE%B0%E0%AE%9A%E0%AE%A9%E0%AF%8D+%E0%AE%AA%E0%AE%B3%E0%AF%8D%E0%AE%B3%E0%AE%BF%E0%AE%B5%E0%AE%BE%E0%AE%9A%E0%AE%B2%E0%AF%8D/data=!4m7!3m6!1s0x3b0411857958a9bf:0xdd21605cc4109b!8m2!3d8.7311254!4d77.7101678!16s%2Fg%2F124yp_8yq!19sChIJv6lYeYURBDsRmxDEXGAh3QA?authuser=0&hl=en&rclk=1,"8.7311254,77.7101678"
Periya Kothba Pallivasal (Big Jumma Masjid),Mosque,"PP24+MCR Periya Kothba Pallivasal (Big Jumma Masjid), Periya kothba pallivasal, Street, Melapalayam, Tirunelveli, Tamil Nadu 627005",Melapalayam,"PP24+MCR, Periya kothba pallivasal, Street",Tirunelveli,627005,Tamil Nadu,IN,https://www.google.com/maps/place/Periya+Kothba+Pallivasal+%28Big+Jumma+Masjid%29/data=!4m7!3m6!1s0x3b0412361afdc941:0xf9fdc23dde8bc7a2!8m2!3d8.7017293!4d77.7060283!16s%2Fg%2F1tfvrc_h!19sChIJQcn9GjYSBDsRoseL3j3C_fk?authuser=0&hl=en&rclk=1,"8.7017293,77.7060283"
MASJID RAHMANIA MASJID,Mosque,"PMC4+PC7 MASJID RAHMANIA MASJID, Tirunelveli, Tamil Nadu 627004",,PMC4+PC7,Tirunelveli,627004,Tamil Nadu,IN,https://www.google.com/maps/place/MASJID+RAHMANIA+MASJID/data=!4m7!3m6!1s0x3b0411557bec289d:0x3e8f2ebcf0f1ca7c!8m2!3d8.721792!4d77.6560512!16s%2Fg%2F11csqj15w8!19sChIJnSjse1URBDsRfMrx8Lwujz4?authuser=0&hl=en&rclk=1,"8.721791999999999,77.6560512"
Vaavar Jumma Masjid,Mosque,"PP45+58Q Vaavar Jumma Masjid, Melapalayam, Tirunelveli, Tamil Nadu 627005",Melapalayam,PP45+58Q,Tirunelveli,627005,Tamil Nadu,IN,https://www.google.com/maps/place/Vaavar+Jumma+Masjid/data=!4m7!3m6!1s0x3b041237192ca2bf:0xa379d0d87bdad138!8m2!3d8.7054663!4d77.7083708!16s%2Fg%2F124ynf6ym!19sChIJv6IsGTcSBDsRONHae9jQeaM?authuser=0&hl=en&rclk=1,"8.7054663,77.7083708"
MNP Mosque,Mosque,"PMG6+525 MNP Mosque, Tirunelveli, Tamil Nadu 627004",,PMG6+525,Tirunelveli,627004,Tamil Nadu,IN,https://www.google.com/maps/place/MNP+Mosque/data=!4m7!3m6!1s0x3b0411568ffbe6ad:0xeaba3d6995be5177!8m2!3d8.7253838!4d77.6601192!16s%2Fg%2F11b6lm_n4t!19sChIJreb7j1YRBDsRd1G-lWk9uuo?authuser=0&hl=en&rclk=1,"8.7253838,77.6601192"
South Mohideen Masjid,Mosque,"MPW5+G8J South Mohideen Masjid, Sivarajapuram, Melapalayam, Tirunelveli, Tamil Nadu 627005","Sivarajapuram, Melapalayam",MPW5+G8J,Tirunelveli,627005,Tamil Nadu,IN,https://www.google.com/maps/place/South+Mohideen+Masjid/data=!4m7!3m6!1s0x3b041248d48acc5d:0x9a915baa82dd7f7!8m2!3d8.6963411!4d77.7082719!16s%2Fg%2F124ygsrjr!19sChIJXcyK1EgSBDsR99ctqLoVqQk?authuser=0&hl=en&rclk=1,"8.6963411,77.7082719"
Masjid Aqeel Bin Abi Talib,Mosque,"PQH7+335 Masjid Aqeel Bin Abi Talib, Chidambaram Nagar, Keelanatham, Tirunelveli, Tamil Nadu 627011","Chidambaram Nagar, Keelanatham",PQH7+335,Tirunelveli,627011,Tamil Nadu,IN,https://www.google.com/maps/place/Masjid+Aqeel+Bin+Abi+Talib/data=!4m7!3m6!1s0x3b040e0bd357abe7:0x55709419cd12609f!8m2!3d8.7276419!4d77.7627416!16s%2Fg%2F11c2l3y01j!19sChIJ56tX0wsOBDsRn2ASzRmUcFU?authuser=0&hl=en&rclk=1,"8.7276419,77.7627416"
AL MISBAH jumma pallivasal,Mosque,"AL MISBAH jumma pallivasal, 1st Street, Sivanthipatti Road, Thyagaraja Nagar, Tirunelveli, Tamil Nadu 627007","Anbunagar Extension, Anbunagar","1st Street, Sivanthipatti Road, Thyagaraja Nagar",Tirunelveli,627007,Tamil Nadu,IN,https://www.google.com/maps/place/AL+MISBAH+jumma+pallivasal/data=!4m7!3m6!1s0x3b040df35243c345:0x732994ce575b0d5!8m2!3d8.7031916!4d77.7515423!16s%2Fg%2F11c67w6nny!19sChIJRcNDUvMNBDsR1bB15UyZMgc?authuser=0&hl=en&rclk=1,"8.7031916,77.7515423"
Big Street Masjid,Mosque,"MPX4+6V4 Big Street Masjid, Sivarajapuram, Melapalayam, Tirunelveli, Tamil Nadu 627005","Sivarajapuram, Melapalayam",MPX4+6V4,Tirunelveli,627005,Tamil Nadu,IN,https://www.google.com/maps/place/Big+Street+Masjid/data=!4m7!3m6!1s0x3b0412491010b851:0xef81b67d9ec50e01!8m2!3d8.6980247!4d77.7072144!16s%2Fg%2F11cs18q4nk!19sChIJUbgQEEkSBDsRAQ7Fnn22ge8?authuser=0&hl=en&rclk=1,"8.6980247,77.7072144"
JAMIAA MASJID,Mosque,"PPCP+PMF JAMIAA MASJID, Yadavar Kulasakara Alwaar Street, Palayam Kottai, Tirunelveli, Tamil Nadu 627002",Palayamkottai,"PPCP+PMF, Yadavar Kulasakara Alwaar Street, Palayam Kottai",Tirunelveli,627002,Tamil Nadu,IN,https://www.google.com/maps/place/JAMIAA+MASJID/data=!4m7!3m6!1s0x3b041202f8a5e98b:0xd4b7f08f565daef!8m2!3d8.7218195!4d77.7366669!16s%2Fg%2F11g6rd6dd4!19sChIJi-ml-AISBDsR79pl9Qh_Sw0?authuser=0&hl=en&rclk=1,"8.721819499999999,77.7366669"
Al-Hasanathul Jariyath Arabic Matharasa,Mosque,"PMG7+XMV Al-Hasanathul Jariyath Arabic Matharasa, MGP Pallivasal, Pettai, Tirunelveli, Tamil Nadu 627004",,"PMG7+XMV, MGP Pallivasal, Pettai",Tirunelveli,627004,Tamil Nadu,IN,https://www.google.com/maps/place/Al-Hasanathul+Jariyath+Arabic+Matharasa/data=!4m7!3m6!1s0x3b041150b1132ddb:0xb27dcb41064cbef4!8m2!3d8.7274816!4d77.6641717!16s%2Fg%2F1q662f8yn!19sChIJ2y0TsVARBDsR9L5MBkHLfbI?authuser=0&hl=en&rclk=1,"8.727481599999999,77.6641717"
Jumma Masjid,Mosque,"PMPC+WCV Jumma Masjid, Palayapettai, Tirunelveli, Tamil Nadu 627008",Palayapettai,PMPC+WCV,Tirunelveli,627008,Tamil Nadu,IN,https://www.google.com/maps/place/Jumma+Masjid/data=!4m7!3m6!1s0x3b041143f6e80d81:0xdc14e1b7748a173c!8m2!3d8.7373515!4d77.6710366!16s%2Fg%2F11dxf0c2zt!19sChIJgQ3o9kMRBDsRPBeKdLfhFNw?authuser=0&hl=en&rclk=1,"8.737351499999999,77.6710366"
Jumma Masjid Thai Nagar jumaa msjit taay nkr,Mosque,"Jumma Masjid Thai Nagar jumaa msjit taay nkr, 627005, Raja Nagar, Tirunelveli, Tamil Nadu",Raja Nagar,627005,Tirunelveli,,Tamil Nadu,IN,https://www.google.com/maps/place/Jumma+Masjid+Thai+Nagar+%E0%AE%9C%E0%AF%81%E0%AE%AE%E0%AE%BE+%E0%AE%AE%E0%AE%B8%E0%AF%8D%E0%AE%9C%E0%AE%BF%E0%AE%A4%E0%AF%8D+%E0%AE%A4%E0%AE%BE%E0%AE%AF%E0%AF%8D+%E0%AE%A8%E0%AE%95%E0%AE%B0%E0%AF%8D/data=!4m7!3m6!1s0x3b041243904375f5:0x78875ccb6a7aab8d!8m2!3d8.6945099!4d77.7174386!16s%2Fg%2F11fx8g97q9!19sChIJ9XVDkEMSBDsRjat6astch3g?authuser=0&hl=en&rclk=1,"8.6945099,77.7174386"
Kalvath Nayagam Masjid klvttu naaykm msjit,Mosque,"PP46+7M5 Kalvath Nayagam Masjid klvttu naaykm msjit, Melapalayam, Tirunelveli, Tamil Nadu 627005",Melapalayam,PP46+7M5,Tirunelveli,627005,Tamil Nadu,IN,https://www.google.com/maps/place/Kalvath+Nayagam+Masjid+%E0%AE%95%E0%AE%B2%E0%AF%8D%E0%AE%B5%E0%AE%A4%E0%AF%8D%E0%AE%A4%E0%AF%81+%E0%AE%A8%E0%AE%BE%E0%AE%AF%E0%AE%95%E0%AE%AE%E0%AF%8D+%E0%AE%AE%E0%AE%B8%E0%AF%8D%E0%AE%9C%E0%AE%BF%E0%AE%A4%E0%AF%8D/data=!4m7!3m6!1s0x3b041239c260bbef:0xa0a7779d2c4282dc!8m2!3d8.7056362!4d77.7117398!16s%2Fg%2F124yh8z2p!19sChIJ77tgwjkSBDsR3IJCLJ13p6A?authuser=0&hl=en&rclk=1,"8.705636199999999,77.71173979999999"
Masjid Thouba Mosque,Mosque,"MPV8+QGP Masjid Thouba Mosque, Nethaji Rd, Melapalayam, Tirunelveli, Tamil Nadu 627005",Melapalayam,"MPV8+QGP, Nethaji Rd",Tirunelveli,627005,Tamil Nadu,IN,https://www.google.com/maps/place/Masjid+Thouba+Mosque/data=!4m7!3m6!1s0x3b0412447741d483:0x6cf17bb0ae18176c!8m2!3d8.6944598!4d77.7163135!16s%2Fg%2F11b6_zs6m9!19sChIJg9RBd0QSBDsRbBcYrrB78Ww?authuser=0&hl=en&rclk=1,"8.694459799999999,77.7163135"
vatakkupaddai jum aa pallivasal,Mosque,"vatakkupaddai jum aa pallivasal, 117, Tiruchendur Main Rd, Palayamkottai, Tirunelveli, Tamil Nadu 627002",Palayamkottai,"117, Tiruchendur Main Rd",Tirunelveli,627002,Tamil Nadu,IN,https://www.google.com/maps/place/vatakkupaddai+jum+aa+pallivasal/data=!4m7!3m6!1s0x3b0411f911d19df1:0xb2b1e242dd629ea3!8m2!3d8.7277702!4d77.7373994!16s%2Fg%2F11dzdd6hfd!19sChIJ8Z3REfkRBDsRo55i3ULisbI?authuser=0&hl=en&rclk=1,"8.7277702,77.7373994"
Janathul Firthos Jumma Masjid,Mosque,"MPW7+RQH Janathul Firthos Jumma Masjid, Naniyar Nagar, Raja Nagar, Melapalayam, Tirunelveli, Tamil Nadu 627005","Naniyar Nagar, Raja Nagar, Melapalayam",MPW7+RQH,Tirunelveli,627005,Tamil Nadu,IN,https://www.google.com/maps/place/Janathul+Firthos+Jumma+Masjid/data=!4m7!3m6!1s0x3b041246909daa6f:0x5bb9e9a2cbfa7528!8m2!3d8.6970722!4d77.7144893!16s%2Fg%2F11dfhtl0x2!19sChIJb6qdkEYSBDsRKHX6y6LpuVs?authuser=0&hl=en&rclk=1,"8.6970722,77.7144893"
Meera Pallivaasal [Masjid],Mosque,"PP54+2G5 Meera Pallivaasal [Masjid], Melapalayam, Tirunelveli, Tamil Nadu 627005",Melapalayam,PP54+2G5,Tirunelveli,627005,Tamil Nadu,IN,https://www.google.com/maps/place/Meera+Pallivaasal+%5BMasjid%5D/data=!4m7!3m6!1s0x3b041231386fff83:0x2d8313069b95dd5a!8m2!3d8.7075169!4d77.7063566!16s%2Fg%2F124yjgll9!19sChIJg_9vODESBDsRWt2VmwYTgy0?authuser=0&hl=en&rclk=1,"8.7075169,77.70635659999999"
Sindha Madharsha Thaikka Jumaa Pallivasal,Mosque,"PP9P+25F Sindha Madharsha Thaikka Jumaa Pallivasal, Kattnayakan, Palayamkottai, Tirunelveli, Tamil Nadu 627007","Kattnayakan, Palayamkottai",PP9P+25F,Tirunelveli,627007,Tamil Nadu,IN,https://www.google.com/maps/place/Sindha+Madharsha+Thaikka+Jumaa+Pallivasal/data=!4m7!3m6!1s0x3b0412049439a3a7:0x56b28ced3272f738!8m2!3d8.7175552!4d77.7354068!16s%2Fg%2F11c60jfbnw!19sChIJp6M5lAQSBDsROPdyMu2MslY?authuser=0&hl=en&rclk=1,"8.7175552,77.73540679999999"
Masjid Rayyan,Mosque,"PP27+267 Masjid Rayyan, Melapalayam, Tirunelveli, Tamil Nadu 627005",Melapalayam,PP27+267,Tirunelveli,627005,Tamil Nadu,IN,https://www.google.com/maps/place/Masjid+Rayyan/data=!4m7!3m6!1s0x3b041247a3417d07:0x6bafd65b41aa7f40!8m2!3d8.7000312!4d77.7130456!16s%2Fg%2F11g6qhzngz!19sChIJB31Bo0cSBDsRQH-qQVvWr2s?authuser=0&hl=en&rclk=1,"8.7000312,77.7130456"
TSMO Nagar Osman Masjid,Mosque,"PP5C+892 TSMO Nagar Osman Masjid, S Bypass Rd, Shanthi Nagar, Tirunelveli, Tamil Nadu 627005",Shanthi Nagar,"PP5C+892, S Bypass Rd",Tirunelveli,627005,Tamil Nadu,IN,https://www.google.com/maps/place/TSMO+Nagar+Osman+Masjid/data=!4m7!3m6!1s0x3b04123de829c131:0xeaa767c42c1fde43!8m2!3d8.7082621!4d77.720881!16s%2Fg%2F11b7clxfy_!19sChIJMcEp6D0SBDsRQ94fLMRnp-o?authuser=0&hl=en&rclk=1,"8.708262099999999,77.72088099999999"
Annai Fathima Masjid,Mosque,"MPQ8+76J Annai Fathima Masjid, Poonga Nagar, Hameempuram, Melapalayam, Tirunelveli, Tamil Nadu 627005","Hameempuram, Melapalayam","MPQ8+76J, Poonga Nagar",Tirunelveli,627005,Tamil Nadu,IN,https://www.google.com/maps/place/Annai+Fathima+Masjid/data=!4m7!3m6!1s0x3b04125b9dcfe56b:0x8216dfce7a0270a!8m2!3d8.6882045!4d77.7155302!16s%2Fg%2F11g9dg0w1j!19sChIJa-XPnVsSBDsRCieg5_xtIQg?authuser=0&hl=en&rclk=1,"8.6882045,77.7155302"
Palayapettai Mosque,Mosque,"PMV6+J4C Palayapettai Mosque, Palayapettai, Tirunelveli, Tamil Nadu 627004",Palayapettai,PMV6+J4C,Tirunelveli,627004,Tamil Nadu,IN,https://www.google.com/maps/place/Palayapettai+Mosque/data=!4m7!3m6!1s0x3b04113611093977:0xdb246adc7a969533!8m2!3d8.744057!4d77.660253!16s%2Fg%2F1pyql1rqk!19sChIJdzkJETYRBDsRM5WWetxqJNs?authuser=0&hl=en&rclk=1,"8.744057,77.660253"
MNH JUMMAH MASJID em ennn ec jumaa pllllivaacl,Mosque,"MNH JUMMAH MASJID em ennn ec jumaa pllllivaacl, Tirunelveli, 64, Madurai Rd, Balabagya Nagar South, Tirunelveli Town, Tirunelveli, Tamil Nadu 627001","Balabagya Nagar South, Tirunelveli Town","Tirunelveli, 64, Madurai Rd",Tirunelveli,627001,Tamil Nadu,IN,https://www.google.com/maps/place/MNH+JUMMAH+MASJID+%E0%AE%8E%E0%AE%AE%E0%AF%8D+%E0%AE%8E%E0%AE%A9%E0%AF%8D+%E0%AE%8E%E0%AE%9A%E0%AF%8D+%E0%AE%9C%E0%AF%81%E0%AE%AE%E0%AE%BE+%E0%AE%AA%E0%AE%B3%E0%AF%8D%E0%AE%B3%E0%AE%BF%E0%AE%B5%E0%AE%BE%E0%AE%9A%E0%AE%B2%E0%AF%8D/data=!4m7!3m6!1s0x3b04119009e587c3:0x801befc2c795995f!8m2!3d8.7346912!4d77.7109315!16s%2Fg%2F11gc13k7yk!19sChIJw4flCZARBDsRX5mVx8LvG4A?authuser=0&hl=en&rclk=1,"8.7346912,77.7109315"
Khader Avuliya Jumma Masjid,Mosque,"PP7J+4F4 Khader Avuliya Jumma Masjid, Kattnayakan, Palayamkottai, Tirunelveli, Tamil Nadu 627009","Kattnayakan, Palayamkottai",PP7J+4F4,Tirunelveli,627009,Tamil Nadu,IN,https://www.google.com/maps/place/Khader+Avuliya+Jumma+Masjid/data=!4m7!3m6!1s0x3b0412107c047449:0x3e081378f7bb20f4!8m2!3d8.7127626!4d77.7311933!16s%2Fg%2F1hc243gr9!19sChIJSXQEfBASBDsR9CC793gTCD4?authuser=0&hl=en&rclk=1,"8.7127626,77.7311933"
Masjid,Mosque,"PP26+699 Masjid, Sappani Aalim Street, Melapalayam, Tirunelveli, Tamil Nadu 627005",Melapalayam,"PP26+699, Sappani Aalim Street",Tirunelveli,627005,Tamil Nadu,IN,https://www.google.com/maps/place/Masjid/data=!4m7!3m6!1s0x3b041247e1eeac4f:0xd1be49ad3247387f!8m2!3d8.7005475!4d77.7109757!16s%2Fg%2F125_ylw0k!19sChIJT6zu4UcSBDsRfzhHMq1JvtE?authuser=0&hl=en&rclk=1,"8.700547499999999,77.71097569999999"
Masjid Shamsu Raahilah,Mosque,"Masjid Shamsu Raahilah, Kaja Beedi Colony, T.Karungulam, Melapalayam, Tirunelveli, Tamil Nadu 627005","T.Karungulam, Melapalayam",Kaja Beedi Colony,Tirunelveli,627005,Tamil Nadu,IN,https://www.google.com/maps/place/Masjid+Shamsu+Raahilah/data=!4m7!3m6!1s0x3b04125a0c6347d3:0x49ffd3724df129c3!8m2!3d8.6866359!4d77.7112793!16s%2Fg%2F11c48rgrr0!19sChIJ00djDFoSBDsRwynxTXLT_0k?authuser=0&hl=en&rclk=1,"8.686635899999999,77.7112793"
Masjithul Aksha Jumma Pallivasal,Mosque,"MPV8+F9F Masjithul Aksha Jumma Pallivasal, Raja Nagar, Tirunelveli, Tamil Nadu 627005",Raja Nagar,MPV8+F9F,Tirunelveli,627005,Tamil Nadu,IN,https://www.google.com/maps/place/Masjithul+Aksha+Jumma+Pallivasal/data=!4m7!3m6!1s0x3b04124599a91c71:0x48264a8e80911076!8m2!3d8.6936941!4d77.7159216!16s%2Fg%2F11hc_k3552!19sChIJcRypmUUSBDsRdhCRgI5KJkg?authuser=0&hl=en&rclk=1,"8.6936941,77.7159216"
"masjidhul Hudha ,Kareem Nagar, Melapalayam",Mosque,"MPV9+WFJ masjidhul Hudha ,Kareem Nagar, Melapalayam, Reddiarpatti Rd, Raja Nagar, Tirunelveli, Tamil Nadu 627005",Raja Nagar,"MPV9+WFJ, Reddiarpatti Rd",Tirunelveli,627005,Tamil Nadu,IN,"https://www.google.com/maps/place/masjidhul+Hudha+,Kareem+Nagar,+Melapalayam/data=!4m7!3m6!1s0x3b0413af552214f1:0xa93f4c8edfe8e4f0!8m2!3d8.6948266!4d77.7186383!16s%2Fg%2F11h1snrd4c!19sChIJ8RQiVa8TBDsR8OTo345MP6k?authuser=0&hl=en&rclk=1","8.694826599999999,77.7186383"
Khanmiyan Jumma Masjid (Jamath),Mosque,"PMHH+M67 Khanmiyan Jumma Masjid (Jamath), Nellai Nagaram, Tirunelveli, Tamil Nadu 627006",Nellai Nagaram,PMHH+M67,Tirunelveli,627006,Tamil Nadu,IN,https://www.google.com/maps/place/Khanmiyan+Jumma+Masjid+%28Jamath%29/data=!4m7!3m6!1s0x3b04116714c0f727:0x17171407c012ea2a!8m2!3d8.7291591!4d77.6780317!16s%2Fg%2F11cmsx06qy!19sChIJJ_fAFGcRBDsRKuoSwAcUFxc?authuser=0&hl=en&rclk=1,"8.7291591,77.67803169999999"
Buhari Hotel Masjid,Mosque,"First Floor, Buhari Hotel Masjid, Trivandrum Rd, above Buhari hotel, Kailash Nagar, Vannarpettai, Tirunelveli, Tamil Nadu 627003","Kailash Nagar, Vannarpettai","First Floor, Trivandrum Rd, above Buhari hotel",Tirunelveli,627003,Tamil Nadu,IN,https://www.google.com/maps/place/Buhari+Hotel+Masjid/data=!4m7!3m6!1s0x3b04118b71e2811f:0x5f2be0a3107921af!8m2!3d8.7279773!4d77.7201363!16s%2Fg%2F11fy_gc3hy!19sChIJH4HicYsRBDsRryF5EKPgK18?authuser=0&hl=en&rclk=1,"8.7279773,77.7201363"
MASJID IMAM IBRAHIM(ALAI),Mosque,"MASJID IMAM IBRAHIM(ALAI), 246, Cheranmahadevi Road, Pettai, Tirunelveli, Tamil Nadu 627004",,"246, Cheranmahadevi Road, Pettai",Tirunelveli,627004,Tamil Nadu,IN,https://www.google.com/maps/place/MASJID+IMAM+IBRAHIM%28ALAI%29/data=!4m7!3m6!1s0x3b0411563f2bd08f:0x3cb30f27037dd58f!8m2!3d8.7227843!4d77.6611086!16s%2Fg%2F11g6b1rlnt!19sChIJj9ArP1YRBDsRj9V9AycPszw?authuser=0&hl=en&rclk=1,"8.722784299999999,77.66110859999999"
Kottur Mosque,Mosque,"PPPW+RP2 Kottur Mosque, Kotter, Thimmarajapuram, Tirunelveli, Tamil Nadu 627002","Kotter, Thimmarajapuram",PPPW+RP2,Tirunelveli,627002,Tamil Nadu,IN,https://www.google.com/maps/place/Kottur+Mosque/data=!4m7!3m6!1s0x3b040ffe41648669:0xe1d06f84bb1f8231!8m2!3d8.7370217!4d77.7467558!16s%2Fg%2F11gkbgt99n!19sChIJaYZkQf4PBDsRMYIfu4Rv0OE?authuser=0&hl=en&rclk=1,"8.7370217,77.7467558"
MASJID ABU UBAIDAH BIN JARRAH,Mosque,"PQ5H+9HM MASJID ABU UBAIDAH BIN JARRAH, VOC Nagar, Tirunelveli, Tamil Nadu 627011",VOC Nagar,PQ5H+9HM,Tirunelveli,627011,Tamil Nadu,IN,https://www.google.com/maps/place/MASJID+ABU+UBAIDAH+BIN+JARRAH/data=!4m7!3m6!1s0x3b040dc61ade223d:0x9b5dcc3094c0d795!8m2!3d8.708451!4d77.778925!16s%2Fg%2F11c52s3yfh!19sChIJPSLeGsYNBDsRldfAlDDMXZs?authuser=0&hl=en&rclk=1,"8.708451,77.778925"
Thachanallur Jumma Masjid,Mosque,"PPR3+XX7 Thachanallur Jumma Masjid, Thattarmadam, Tirunelveli, Tamil Nadu 627001",Thachanallur,"PPR3+XX7, Thattarmadam",Tirunelveli,627001,Tamil Nadu,IN,https://www.google.com/maps/place/Thachanallur+Jumma+Masjid/data=!4m7!3m6!1s0x3b04119f2db44bf1:0xa81a54e64537a82b!8m2!3d8.7424237!4d77.704923!16s%2Fg%2F11f3xqnvv4!19sChIJ8Uu0LZ8RBDsRK6g3ReZUGqg?authuser=0&hl=en&rclk=1,"8.7424237,77.704923"
Aysha Masjith,Mosque,"PP28+PVH Aysha Masjith, Veeramanikapuram, t.nagar, Melapalayam, Tirunelveli, Tamil Nadu 627005","Veeramanikapuram, t.nagar, Melapalayam",PP28+PVH,Tirunelveli,627005,Tamil Nadu,IN,https://www.google.com/maps/place/Aysha+Masjith/data=!4m7!3m6!1s0x3b04123900000001:0xf02902f0e3afbc1f!8m2!3d8.7018231!4d77.7172456!16s%2Fg%2F11hbc44vzv!19sChIJAQAAADkSBDsRH7yv4_ACKfA?authuser=0&hl=en&rclk=1,"8.7018231,77.7172456"
Masji-e-Umar Jumma Masjid,Mosque,"MPV7+8R4 Masji-e-Umar Jumma Masjid, Hameempuram, Jeba Nagar, Raja Nagar, Tirunelveli, Tamil Nadu 627005","Hameempuram, Jeba Nagar, Raja Nagar",MPV7+8R4,Tirunelveli,627005,Tamil Nadu,IN,https://www.google.com/maps/place/Masji-e-Umar+Jumma+Masjid/data=!4m7!3m6!1s0x3b0413eeaca9ed4d:0x65eebe9420f65001!8m2!3d8.6932517!4d77.7145892!16s%2Fg%2F11gycnyqrj!19sChIJTe2prO4TBDsRAVD2IJS-7mU?authuser=0&hl=en&rclk=1,"8.6932517,77.71458919999999"
Masjidul Madinah TNTJ,Mosque,"Masjidul Madinah TNTJ, 7, 8th St, Gnaniyar Appa nagar, Raja Nagar, Melapalayam, Tirunelveli, Tamil Nadu 627005","Gnaniyar Appa nagar, Raja Nagar, Melapalayam","7, 8th St",Tirunelveli,627005,Tamil Nadu,IN,https://www.google.com/maps/place/Masjidul+Madinah+TNTJ/data=!4m7!3m6!1s0x3b0413fb06f97b17:0x6fbdf0ac09555c7f!8m2!3d8.6972882!4d77.7139226!16s%2Fg%2F11hz50xhyp!19sChIJF3v5BvsTBDsRf1xVCazwvW8?authuser=0&hl=en&rclk=1,"8.6972882,77.71392259999999"
Jumma Masjid,Mosque,"PM8G+26M Jumma Masjid, C N Village, Tirunelveli, Tamil Nadu 627006",C N Village,PM8G+26M,Tirunelveli,627006,Tamil Nadu,IN,https://www.google.com/maps/place/Jumma+Masjid/data=!4m7!3m6!1s0x3b0413e7691424af:0xbfc2e30c45ea2853!8m2!3d8.715078!4d77.675554!16s%2Fg%2F1pyqjpkqt!19sChIJryQUaecTBDsRUyjqRQzjwr8?authuser=0&hl=en&rclk=1,"8.715078,77.67555399999999"
tntj Mosque,Mosque,"PQ9C+R6M tntj Mosque, Mugambigai Nagar, Chidambaram Nagar, KTC Nagar, Tirunelveli, Tamil Nadu 627011","Mugambigai Nagar, Chidambaram Nagar, KTC Nagar",PQ9C+R6M,Tirunelveli,627011,Tamil Nadu,IN,https://www.google.com/maps/place/tntj+Mosque/data=!4m7!3m6!1s0x3b040dddd6896319:0x452fe260761a9418!8m2!3d8.7195804!4d77.770532!16s%2Fg%2F11g8nzc600!19sChIJGWOJ1t0NBDsRGJQadmDiL0U?authuser=0&hl=en&rclk=1,"8.7195804,77.770532"
Khaja Nayagam Masjid,Mosque,"PP44+M84 Khaja Nayagam Masjid, Kajanayagam St, Melapalayam, Tirunelveli, Tamil Nadu 627005",Melapalayam,"PP44+M84, Kajanayagam St",Tirunelveli,627005,Tamil Nadu,IN,https://www.google.com/maps/place/Khaja+Nayagam+Masjid/data=!4m7!3m6!1s0x3b041236ad88f795:0xefe74cf8028826fe!8m2!3d8.7066415!4d77.7058264!16s%2Fg%2F124sq6v_g!19sChIJlfeIrTYSBDsR_iaIAvhM5-8?authuser=0&hl=en&rclk=1,"8.7066415,77.70582639999999"
Masjid,Mosque,"PMHQ+X66 Masjid, Nainarkulam Rd, Thirunagar, Tirunelveli Town, Tirunelveli, Tamil Nadu 627006","Thirunagar, Tirunelveli Town","PMHQ+X66, Nainarkulam Rd",Tirunelveli,627006,Tamil Nadu,IN,https://www.google.com/maps/place/Masjid/data=!4m7!3m6!1s0x3b04117b32a8ce11:0x3f977520b01992d8!8m2!3d8.7299122!4d77.6880099!16s%2Fg%2F124ydzkf5!19sChIJEc6oMnsRBDsR2JIZsCB1lz8?authuser=0&hl=en&rclk=1,"8.7299122,77.6880099"
MASJID MOHAMED msjit muhmmt,Mosque,"PM9J+F7Q MASJID MOHAMED msjit muhmmt, msjit muhmmt ,kunnnnnnttuur roottu , ryilvee keett arukil , meettttu teru, Mettu St, Mahivanapuram, Tirunelveli Town, Tirunelveli, Tamil Nadu 627006","Mahivanapuram, Tirunelveli Town","PM9J+F7Q, msjit muhmmt ,kunnnnnnttuur roottu , ryilvee keett arukil , meettttu teru, Mettu St",Tirunelveli,627006,Tamil Nadu,IN,https://www.google.com/maps/place/MASJID+MOHAMED+%E0%AE%AE%E0%AE%B8%E0%AF%8D%E0%AE%9C%E0%AE%BF%E0%AE%A4%E0%AF%8D+%E0%AE%AE%E0%AF%81%E0%AE%B9%E0%AE%AE%E0%AF%8D%E0%AE%AE%E0%AE%A4%E0%AF%8D/data=!4m7!3m6!1s0x3b0413dee82cde3d:0x455babc18176eff6!8m2!3d8.7187172!4d77.6807356!16s%2Fg%2F11g6nl32x3!19sChIJPd4s6N4TBDsR9u92gcGrW0U?authuser=0&hl=en&rclk=1,"8.7187172,77.68073559999999"
TNTJ TOWN MARKAS MASJIDUL AKSHA,Mosque,"PMJH+789 TNTJ TOWN MARKAS MASJIDUL AKSHA, Nellai Nagaram, Tirunelveli, Tamil Nadu 627006",Nellai Nagaram,PMJH+789,Tirunelveli,627006,Tamil Nadu,IN,https://www.google.com/maps/place/TNTJ+TOWN+MARKAS+MASJIDUL+AKSHA/data=!4m7!3m6!1s0x3b041167a65add87:0xad6566b3f0d7d70c!8m2!3d8.7306587!4d77.6783463!16s%2Fg%2F11f38fn04r!19sChIJh91apmcRBDsRDNfX8LNmZa0?authuser=0&hl=en&rclk=1,"8.7306587,77.6783463"
Kadai Pallivasal Masjid,Mosque,"PP35+56P Kadai Pallivasal Masjid, Anna Veethi, Melapalayam, Tirunelveli, Tamil Nadu 627005",Melapalayam,"PP35+56P, Anna Veethi",Tirunelveli,627005,Tamil Nadu,IN,https://www.google.com/maps/place/Kadai+Pallivasal+Masjid/data=!4m7!3m6!1s0x3b041237ca9825e9:0x32abfe2e63369f4c!8m2!3d8.7029571!4d77.7080841!16s%2Fg%2F124yk_r25!19sChIJ6SWYyjcSBDsRTJ82Yy7-qzI?authuser=0&hl=en&rclk=1,"8.702957099999999,77.7080841"
Masjid,Mosque,"PP44+CM6 Masjid, Melapalayam, Tirunelveli, Tamil Nadu 627005",Melapalayam,PP44+CM6,Tirunelveli,627005,Tamil Nadu,IN,https://www.google.com/maps/place/Masjid/data=!4m7!3m6!1s0x3b041236c79d0547:0x11ff195306f44f73!8m2!3d8.7060479!4d77.7066418!16s%2Fg%2F124ynprf1!19sChIJRwWdxzYSBDsRc0_0BlMZ_xE?authuser=0&hl=en&rclk=1,"8.7060479,77.7066418"
aptullaah aaminnnaa msjit,Mosque,"MPX7+GGM aptullaah aaminnnaa msjit, Raja Nagar, Tirunelveli, Tamil Nadu 627005",Raja Nagar,MPX7+GGM,Tirunelveli,627005,Tamil Nadu,IN,https://www.google.com/maps/place/%E0%AE%85%E0%AE%AA%E0%AF%8D%E0%AE%A4%E0%AF%81%E0%AE%B2%E0%AF%8D%E0%AE%B2%E0%AE%BE%E0%AE%B9%E0%AF%8D+%E0%AE%86%E0%AE%AE%E0%AE%BF%E0%AE%A9%E0%AE%BE+%E0%AE%AE%E0%AE%B8%E0%AF%8D%E0%AE%9C%E0%AE%BF%E0%AE%A4%E0%AF%8D/data=!4m7!3m6!1s0x3b041246ff742dbf:0x839822443705f0de!8m2!3d8.6988438!4d77.7138001!16s%2Fg%2F11hcj2m35t!19sChIJvy10_0YSBDsR3vAFN0QimIM?authuser=0&hl=en&rclk=1,"8.698843799999999,77.7138001"
SYED MOHAIDEEN JUMMAH MASJID,Mosque,"MPW4+PH6 SYED MOHAIDEEN JUMMAH MASJID, Asan Tharagan St, Nabi Nagar, Melapalayam, Tirunelveli, Tamil Nadu 627005","Nabi Nagar, Melapalayam","MPW4+PH6, Asan Tharagan St",Tirunelveli,627005,Tamil Nadu,IN,https://www.google.com/maps/place/SYED+MOHAIDEEN+JUMMAH+MASJID/data=!4m7!3m6!1s0x3b04124931c12f81:0xa0e650ba5b6feb45!8m2!3d8.6967829!4d77.706394!16s%2Fg%2F11gbkr_299!19sChIJgS_BMUkSBDsRRetvW7pQ5qA?authuser=0&hl=en&rclk=1,"8.696782899999999,77.706394"
Jamiya Jumma Masjid,Mosque,"QQ3W+4MM Jamiya Jumma Masjid, Burkitmanagaram, Tirunelveli, Tamil Nadu 627351",,QQ3W+4MM,"Burkitmanagaram, Tirunelveli",627351,Tamil Nadu,IN,https://www.google.com/maps/place/Jamiya+Jumma+Masjid/data=!4m7!3m6!1s0x3b040ef400810a9d:0xbcf96c2acc738136!8m2!3d8.752834!4d77.7966863!16s%2Fg%2F11g8cd_tkk!19sChIJnQqBAPQOBDsRNoFzzCps-bw?authuser=0&hl=en&rclk=1,"8.752834,77.79668629999999"
TNTJ town markus,Mosque,"PMGH+7PP TNTJ town markus, Tirunelveli Town, Tirunelveli, Tamil Nadu 627006",Tirunelveli Town,PMGH+7PP,Tirunelveli,627006,Tamil Nadu,IN,https://www.google.com/maps/place/TNTJ+town+markus/data=!4m7!3m6!1s0x3b041160e28948eb:0x3846074cb30ca8d8!8m2!3d8.7257109!4d77.6793188!16s%2Fg%2F11g9jvl12j!19sChIJ60iJ4mARBDsR2KgMs0wHRjg?authuser=0&hl=en&rclk=1,"8.7257109,77.67931879999999"
Thowheed Margas Tamilnadu Thowheed Jammadh,Mosque,"Thowheed Margas Tamilnadu Thowheed Jammadh, 6, Pichuvana St, Palayamkottai, Tirunelveli, Tamil Nadu 627002",Palayamkottai,"6, Pichuvana St",Tirunelveli,627002,Tamil Nadu,IN,https://www.google.com/maps/place/Thowheed+Margas+Tamilnadu+Thowheed+Jammadh/data=!4m7!3m6!1s0x3b0411ff2fc82f49:0xe1a61272831a0e9b!8m2!3d8.7250624!4d77.7405255!16s%2Fg%2F11ckqrlc89!19sChIJSS_IL_8RBDsRmw4ag3ISpuE?authuser=0&hl=en&rclk=1,"8.725062399999999,77.74052549999999"
Masjidhur Rahim Jumma Pallivasal,Mosque,"PP2H+9WF Masjidhur Rahim Jumma Pallivasal, Unnamed Road, NGO A Colony, Perumalpuram, Vasantha Nager, Tirunelveli, Tamil Nadu 627007","NGO A Colony, Perumalpuram, Vasantha Nager","PP2H+9WF, Unnamed Road",Tirunelveli,627007,Tamil Nadu,IN,https://www.google.com/maps/place/Masjidhur+Rahim+Jumma+Pallivasal/data=!4m7!3m6!1s0x3b04134675ca3bcd:0xf537a0c70aec0634!8m2!3d8.7009336!4d77.72979!16s%2Fg%2F11fl7dhwfy!19sChIJzTvKdUYTBDsRNAbsCsegN_U?authuser=0&hl=en&rclk=1,"8.700933599999999,77.72979"
Al Masjithun Noor Mosque,Mosque,"PMHP+C22 Al Masjithun Noor Mosque, Tirunelveli Town, Tirunelveli, Tamil Nadu 627006",Tirunelveli Town,PMHP+C22,Tirunelveli,627006,Tamil Nadu,IN,https://www.google.com/maps/place/Al+Masjithun+Noor+Mosque/data=!4m7!3m6!1s0x3b04116462c12133:0xab21c09248ca272b!8m2!3d8.7285138!4d77.6850054!16s%2Fg%2F11fxcdfd4c!19sChIJMyHBYmQRBDsRKyfKSJLAIas?authuser=0&hl=en&rclk=1,"8.7285138,77.6850054"
prjullaassaa taikkaa jum aa plllli masjid,Mosque,"PMWR+7M9 prjullaassaa taikkaa jum aa plllli masjid, Tirunelveli, Tamil Nadu 627358",,PMWR+7M9,Tirunelveli,,Tamil Nadu,IN,https://www.google.com/maps/place/%E0%AE%AA%E0%AE%B0%E0%AF%8D%E0%AE%9C%E0%AF%81%E0%AE%B2%E0%AF%8D%E0%AE%B2%E0%AE%BE%E0%AE%B7%E0%AE%BE+%E0%AE%A4%E0%AF%88%E0%AE%95%E0%AF%8D%E0%AE%95%E0%AE%BE+%E0%AE%9C%E0%AF%81%E0%AE%AE%E0%AF%8D+%E0%AE%86+%E0%AE%AA%E0%AE%B3%E0%AF%8D%E0%AE%B3%E0%AE%BF+masjid/data=!4m7!3m6!1s0x3b041158ecc2bacb:0x5c1d792b739b35e7!8m2!3d8.7456604!4d77.6917239!16s%2Fg%2F11g0vz7wmf!19sChIJy7rC7FgRBDsR5zWbcyt5HVw?authuser=0&hl=en&rclk=1,"8.7456604,77.6917239"
TNTJ Masjidur Rahman,Mosque,"PQ4H+CCW TNTJ Masjidur Rahman, VOC Nagar, Tirunelveli, Tamil Nadu 627011",VOC Nagar,PQ4H+CCW,Tirunelveli,627011,Tamil Nadu,IN,https://www.google.com/maps/place/TNTJ+Masjidur+Rahman/data=!4m7!3m6!1s0x3b040d675b740cc5:0xbde711273487db8e!8m2!3d8.7060102!4d77.7795521!16s%2Fg%2F11pz1kyr6_!19sChIJxQx0W2cNBDsRjtuHNCcR570?authuser=0&hl=en&rclk=1,"8.7060102,77.77955209999999"
"Masjid Malik , Kottur",Mosque,"PPPX+W5X Masjid Malik , Kottur, Kotter, Thimmarajapuram, Tirunelveli, Tamil Nadu 627002","Kotter, Thimmarajapuram",PPPX+W5X,Tirunelveli,627002,Tamil Nadu,IN,"https://www.google.com/maps/place/Masjid+Malik+,+Kottur/data=!4m7!3m6!1s0x3b040f1fe7fe74e5:0x79e2985c5dc318c4!8m2!3d8.7373679!4d77.7479925!16s%2Fg%2F11gtg9mx4r!19sChIJ5XT-5x8PBDsRxBjDXVyY4nk?authuser=0&hl=en&rclk=1","8.737367899999999,77.7479925"
Jummah Masjid (Hotel Vairamaligai),Mosque,"PQ87+6H7 Jummah Masjid (Hotel Vairamaligai), Rahmath Nagar, Kamaraj Nagar, Tirunelveli, Tamil Nadu 627002","Rahmath Nagar, Kamaraj Nagar",PQ87+6H7,Tirunelveli,627002,Tamil Nadu,IN,https://www.google.com/maps/place/Jummah+Masjid+%28Hotel+Vairamaligai%29/data=!4m7!3m6!1s0x3b040da41aac3afb:0x4c7987fe254a7e3f!8m2!3d8.715542!4d77.763937!16s%2Fg%2F11t2_8_c46!19sChIJ-zqsGqQNBDsRP35KJf6HeUw?authuser=0&hl=en&rclk=1,"8.715542,77.763937"
Almasjidunnoor Jumma Mosque,Mosque,"PMFM+76J Almasjidunnoor Jumma Mosque, Thirunagar, Tirunelveli Town, Tirunelveli, Tamil Nadu 627006","Thirunagar, Tirunelveli Town",PMFM+76J,Tirunelveli,627006,Tamil Nadu,IN,https://www.google.com/maps/place/Almasjidunnoor+Jumma+Mosque/data=!4m7!3m6!1s0x3b0411623dc94fed:0xec2a80e9abba3bff!8m2!3d8.7232185!4d77.6830085!16s%2Fg%2F1pyqfglmb!19sChIJ7U_JPWIRBDsR_zu6q-mAKuw?authuser=0&hl=en&rclk=1,"8.7232185,77.6830085"
Nawab Khutba Masjid,Mosque,"Nawab Khutba Masjid, Near, Buhari Thangal Thaikka St, Melapalayam, Tirunelveli, Tamil Nadu 627005",Melapalayam,"Near, Buhari Thangal Thaikka St",Tirunelveli,627005,Tamil Nadu,IN,https://www.google.com/maps/place/Nawab+Khutba+Masjid/data=!4m7!3m6!1s0x3b04136adcf650c7:0x2578a1e9630ae9c6!8m2!3d8.7077442!4d77.7066914!16s%2Fg%2F11f65dhf05!19sChIJx1D23GoTBDsRxukKY-mheCU?authuser=0&hl=en&rclk=1,"8.7077442,77.7066914"
masjid mubeen,Mosque,"MPP6+XM2 masjid mubeen, Tirunelveli, Tamil Nadu 627356",,MPP6+XM2,Tirunelveli,,Tamil Nadu,IN,https://www.google.com/maps/place/masjid+mubeen/data=!4m7!3m6!1s0x3b04125a7020e973:0x1b1d067537b39bc3!8m2!3d8.6873847!4d77.7116383!16s%2Fg%2F11ggvsm6ms!19sChIJc-kgcFoSBDsRw5uzN3UGHRs?authuser=0&hl=en&rclk=1,"8.687384699999999,77.71163829999999"
Masjid Jamaathul Shahih Al Islam,Mosque,"MPP6+8J9 Masjid Jamaathul Shahih Al Islam, Tirunelveli, Tamil Nadu 627356",,MPP6+8J9,Tirunelveli,,Tamil Nadu,IN,https://www.google.com/maps/place/Masjid+Jamaathul+Shahih+Al+Islam/data=!4m7!3m6!1s0x3b04136f3a153797:0xc03735a795a8b8c4!8m2!3d8.6857888!4d77.7115972!16s%2Fg%2F11fkt8fs7j!19sChIJlzcVOm8TBDsRxLiolac1N8A?authuser=0&hl=en&rclk=1,"8.6857888,77.7115972"
Kareemsha thaikka pallivasal,Mosque,"Kareemsha thaikka pallivasal, No:59/1A KAREEMSHA THAIKKA Ramayanpatti, Thachanallur, Tirunelveli, Tamil Nadu 627358",Thachanallur,No:59/1A KAREEMSHA THAIKKA Ramayanpatti,Tirunelveli,627358,Tamil Nadu,IN,https://www.google.com/maps/place/Kareemsha+thaikka+pallivasal/data=!4m7!3m6!1s0x3b0411919361a6ad:0xb7c6db04530f67ee!8m2!3d8.7472286!4d77.6940932!16s%2Fg%2F11hf8lp4j9!19sChIJraZhk5ERBDsR7mcPUwTbxrc?authuser=0&hl=en&rclk=1,"8.7472286,77.6940932"
msjitunnn nuur (pllllivaacl),Mosque,"msjitunnn nuur (pllllivaacl), 10/1, Trivandrum Rd, Kailash Nagar, Vannarpettai, Tirunelveli, Tamil Nadu 627003","Kailash Nagar, Vannarpettai","10/1, Trivandrum Rd",Tirunelveli,627003,Tamil Nadu,IN,https://www.google.com/maps/place/%E0%AE%AE%E0%AE%B8%E0%AF%8D%E0%AE%9C%E0%AE%BF%E0%AE%A4%E0%AF%81%E0%AE%A9%E0%AF%8D+%E0%AE%A8%E0%AF%82%E0%AE%B0%E0%AF%8D+%28%E0%AE%AA%E0%AE%B3%E0%AF%8D%E0%AE%B3%E0%AE%BF%E0%AE%B5%E0%AE%BE%E0%AE%9A%E0%AE%B2%E0%AF%8D%29/data=!4m7!3m6!1s0x3b0411b80541a3fd:0xcdb7faa0bbdb3271!8m2!3d8.7280721!4d77.7201189!16s%2Fg%2F11f767k8qy!19sChIJ_aNBBbgRBDsRcTLbu6D6t80?authuser=0&hl=en&rclk=1,"8.7280721,77.7201189"
Masjid Quba,Mosque,"MPV5+84H Masjid Quba, Nabi Nagar, Melapalayam, Tirunelveli, Tamil Nadu 627005","Nabi Nagar, Melapalayam",MPV5+84H,Tirunelveli,627005,Tamil Nadu,IN,https://www.google.com/maps/place/Masjid+Quba/data=!4m7!3m6!1s0x3b0413bc337fced3:0x4efbdd01488de13f!8m2!3d8.6933228!4d77.7078653!16s%2Fg%2F11ll9vhsqf!19sChIJ085_M7wTBDsRP-GNSAHd-04?authuser=0&hl=en&rclk=1,"8.693322799999999,77.7078653"
Masjid e Khadir,Mosque,"PP47+392 Masjid e Khadir, Melapalayam, Tirunelveli, Tamil Nadu 627005",Melapalayam,PP47+392,Tirunelveli,627005,Tamil Nadu,IN,https://www.google.com/maps/place/Masjid+e+Khadir/data=!4m7!3m6!1s0x3b04123854c10faf:0x8ccdb2d41bb3ccd5!8m2!3d8.705128!4d77.7133983!16s%2Fg%2F11c2q6pcq4!19sChIJrw_BVDgSBDsR1cyzG9SyzYw?authuser=0&hl=en&rclk=1,"8.705128,77.7133983"
Masjid in Noor,Mosque,"PPHC+52X Masjid in Noor, N Bypass Rd, above Hotel Buhari, Kailash Nagar, Vannarpettai, Tirunelveli, Tamil Nadu 627003","Kailash Nagar, Vannarpettai","PPHC+52X, N Bypass Rd, above Hotel Buhari",Tirunelveli,627003,Tamil Nadu,IN,https://www.google.com/maps/place/Masjid+in+Noor/data=!4m7!3m6!1s0x3b041139e0fb1015:0x8fe8c3c397e2e49b!8m2!3d8.7279893!4d77.7201198!16s%2Fg%2F11j11dlxp_!19sChIJFRD74DkRBDsRm-Til8PD6I8?authuser=0&hl=en&rclk=1,"8.727989299999999,77.72011979999999"
Gauthul Aalam Jummah Masjid,Mosque,"PM8H+C8H Gauthul Aalam Jummah Masjid, Tirunelveli, Tamil Nadu 627006",,PM8H+C8H,Tirunelveli,,Tamil Nadu,IN,https://www.google.com/maps/place/Gauthul+Aalam+Jummah+Masjid/data=!4m7!3m6!1s0x3b0413e5bf3b25e5:0xde6a7aa0460149b9!8m2!3d8.7160728!4d77.6783516!16s%2Fg%2F11fpf3h86f!19sChIJ5SU7v-UTBDsRuUkBRqB6at4?authuser=0&hl=en&rclk=1,"8.7160728,77.6783516"
NAVAB VALAJA PALLIVASAL,Mosque,"NAVAB VALAJA PALLIVASAL, Nawab Walajah Pallivasal, Tirunelveli, Tamil Nadu 627004",,Nawab Walajah Pallivasal,Tirunelveli,627004,Tamil Nadu,IN,https://www.google.com/maps/place/NAVAB+VALAJA+PALLIVASAL/data=!4m7!3m6!1s0x3b04115763d8a01f:0x66fa19ec7a6fed1b!8m2!3d8.7254232!4d77.6648255!16s%2Fg%2F11g659tw1l!19sChIJH6DYY1cRBDsRG-1veuwZ-mY?authuser=0&hl=en&rclk=1,"8.7254232,77.66482549999999"
kallanai mosque,Mosque,"PMFM+867 kallanai mosque, Tirunelveli Town, Tirunelveli, Tamil Nadu 627006",Tirunelveli Town,PMFM+867,Tirunelveli,627006,Tamil Nadu,IN,https://www.google.com/maps/place/kallanai+mosque/data=!4m7!3m6!1s0x3b04113d5f6a1551:0xe7cb1183d283fe1f!8m2!3d8.7232933!4d77.6830437!16s%2Fg%2F11g3zb0kc8!19sChIJURVqXz0RBDsRH_6D0oMRy-c?authuser=0&hl=en&rclk=1,"8.7232933,77.6830437"
Nantha Miyan Thaika Madarasa Jumma Masjid,Mosque,"Nantha Miyan Thaika Madarasa Jumma Masjid, 10, Mohammed Ali St, Tirunelveli Town, Tirunelveli, Tamil Nadu 627006",Tirunelveli Town,"10, Mohammed Ali St",Tirunelveli,627006,Tamil Nadu,IN,https://www.google.com/maps/place/Nantha+Miyan+Thaika+Madarasa+Jumma+Masjid/data=!4m7!3m6!1s0x3b04114fbd18a05d:0x9a34a552f1d83d2e!8m2!3d8.7273729!4d77.6797996!16s%2Fg%2F11h1r5_j44!19sChIJXaAYvU8RBDsRLj3Y8VKlNJo?authuser=0&hl=en&rclk=1,"8.727372899999999,77.6797996"
Masjid Raheem-TNTJ,Mosque,"Masjid Raheem-TNTJ, 120, Madurai Road, Tirunelveli Jn, 121, Madurai Rd, Tirunelveli, Tamil Nadu 627001",Vannarpettai,"120, Madurai Road, Tirunelveli Jn, 121, Madurai Rd",Tirunelveli,627001,Tamil Nadu,IN,https://www.google.com/maps/place/Masjid+Raheem-TNTJ/data=!4m7!3m6!1s0x3b041132e8fa2e83:0xccd5b457752fa7a1!8m2!3d8.7293274!4d77.7095933!16s%2Fg%2F11l2r96m_0!19sChIJgy766DIRBDsRoacvdVe01cw?authuser=0&hl=en&rclk=1,"8.729327399999999,77.7095933"
Kattu jumma masjid. kaattttu juummaa pllllivaacl,Mosque,"MPX4+RP Kattu jumma masjid. kaattttu juummaa pllllivaacl, Bangalapa Nagar, Tirunelveli, Tamil Nadu 627005",Bangalapa Nagar,MPX4+RP,Tirunelveli,,Tamil Nadu,IN,https://www.google.com/maps/place/Kattu+jumma+masjid.+%E0%AE%95%E0%AE%BE%E0%AE%9F%E0%AF%8D%E0%AE%9F%E0%AF%81+%E0%AE%9C%E0%AF%82%E0%AE%AE%E0%AF%8D%E0%AE%AE%E0%AE%BE+%E0%AE%AA%E0%AE%B3%E0%AF%8D%E0%AE%B3%E0%AE%BF%E0%AE%B5%E0%AE%BE%E0%AE%9A%E0%AE%B2%E0%AF%8D/data=!4m7!3m6!1s0x3b0413b923db2e79:0x309fdac3a6d4f029!8m2!3d8.6995801!4d77.7068144!16s%2Fg%2F11ptv8qmfm!19sChIJeS7bI7kTBDsRKfDUpsPanzA?authuser=0&hl=en&rclk=1,"8.6995801,77.7068144"
Tntj mosque,Mosque,"PMH6+5HX Tntj mosque, Adam Nagar, Pettai, Tirunelveli, Tamil Nadu 627004",Adam Nagar,PMH6+5HX,"Pettai, Tirunelveli",627004,Tamil Nadu,IN,https://www.google.com/maps/place/Tntj+mosque/data=!4m7!3m6!1s0x3b0411c6c5c5e02b:0x54c7ec56713770d0!8m2!3d8.7285977!4d77.6611133!16s%2Fg%2F11jzbdmq7l!19sChIJK-DFxcYRBDsR0HA3cVbsx1Q?authuser=0&hl=en&rclk=1,"8.7285977,77.6611133"
Royal hospital masjid,Mosque,"Royal hospital masjid, Royal Hospital, 2nd Sharon Street, Kamarajar Rd, Vasantha Nager, Tirunelveli, Tamil Nadu 627007",Vasantha Nager,"Royal Hospital, 2nd Sharon Street, Kamarajar Rd",Tirunelveli,627007,Tamil Nadu,IN,https://www.google.com/maps/place/Royal+hospital+masjid/data=!4m7!3m6!1s0x3b0413fdfe628b13:0x39f7233d24b2d553!8m2!3d8.695844!4d77.7393737!16s%2Fg%2F11k583rw4v!19sChIJE4ti_v0TBDsRU9WyJD0j9zk?authuser=0&hl=en&rclk=1,"8.695844,77.7393737"
al jaamiiaa msjitunnn nuurul islaam,Mosque,"MPP9+9PJ al jaamiiaa msjitunnn nuurul islaam, Tirunelveli, Tamil Nadu 627005",,MPP9+9PJ,Tirunelveli,627005,Tamil Nadu,IN,https://www.google.com/maps/place/%E0%AE%85%E0%AE%B2%E0%AF%8D+%E0%AE%9C%E0%AE%BE%E0%AE%AE%E0%AF%80%E0%AE%86+%E0%AE%AE%E0%AE%B8%E0%AF%8D%E0%AE%9C%E0%AE%BF%E0%AE%A4%E0%AF%81%E0%AE%A9%E0%AF%8D+%E0%AE%A8%E0%AF%82%E0%AE%B0%E0%AF%81%E0%AE%B2%E0%AF%8D+%E0%AE%87%E0%AE%B8%E0%AF%8D%E0%AE%B2%E0%AE%BE%E0%AE%AE%E0%AF%8D/data=!4m7!3m6!1s0x3b04135f8fc7670d:0x9b6d2e4a436a24ef!8m2!3d8.6859582!4d77.7192767!16s%2Fg%2F11ky5_tfgc!19sChIJDWfHj18TBDsR7yRqQ0oubZs?authuser=0&hl=en&rclk=1,"8.6859582,77.7192767"
Hajrath Mohamed Khan dharha sharief,Mosque,"Hajrath Mohamed Khan dharha sharief, 1 West, S Mount Rd, Nellai Nagaram, Tirunelveli, Tamil Nadu 627006",Nellai Nagaram,"1 West, S Mount Rd",Tirunelveli,627006,Tamil Nadu,IN,https://www.google.com/maps/place/Hajrath+Mohamed+Khan+dharha+sharief/data=!4m7!3m6!1s0x3b04119628775685:0x47c62a23e0ab03cf!8m2!3d8.7266063!4d77.6782453!16s%2Fg%2F11j3rjkxz0!19sChIJhVZ3KJYRBDsRzwOr4CMqxkc?authuser=0&hl=en&rclk=1,"8.7266063,77.6782453"
Jamaath ul sahih al islam,Mosque,"MPV8+GCM Jamaath ul sahih al islam, 3rd St, Tirunelveli, Tamil Nadu 627005",,"MPV8+GCM, 3rd St",Tirunelveli,627005,Tamil Nadu,IN,https://www.google.com/maps/place/Jamaath+ul+sahih+al+islam/data=!4m7!3m6!1s0x3b04130350f43295:0x7e02a6b797922cb5!8m2!3d8.6938466!4d77.716055!16s%2Fg%2F11h6qk1kf6!19sChIJlTL0UAMTBDsRtSySl7emAn4?authuser=0&hl=en&rclk=1,"8.693846599999999,77.716055"
Rahmaniah masjid,Mosque,"PMF7+C9G Rahmaniah masjid, Pettai, Tirunelveli, Tamil Nadu 627004",,PMF7+C9G,"Pettai, Tirunelveli",,Tamil Nadu,IN,https://www.google.com/maps/place/Rahmaniah+masjid/data=!4m7!3m6!1s0x3b0411defd86bab1:0xfb4b4479fb2c9dcf!8m2!3d8.7235556!4d77.6634632!16s%2Fg%2F11rn592wq7!19sChIJsbqG_d4RBDsRz50s-3lES_s?authuser=0&hl=en&rclk=1,"8.7235556,77.6634632"
Masjidul Noor,Mosque,"MPX7+H5M Masjidul Noor, Melapalayam, Tirunelveli, Tamil Nadu 627005",Melapalayam,MPX7+H5M,Tirunelveli,627005,Tamil Nadu,IN,https://www.google.com/maps/place/Masjidul+Noor/data=!4m7!3m6!1s0x3b04137d7b97ea45:0x25765d5fbec072a4!8m2!3d8.6989723!4d77.7129154!16s%2Fg%2F11gsn448y3!19sChIJReqXe30TBDsRpHLAvl9ddiU?authuser=0&hl=en&rclk=1,"8.6989723,77.7129154"
Hazrath Bilal Jumma Masjid,Mosque,"MPR9+MGW Hazrath Bilal Jumma Masjid, Unnamed Road, Engineers Colony, Raja Nagar, Tirunelveli, Tamil Nadu 627005","Engineers Colony, Raja Nagar","MPR9+MGW, Unnamed Road",Tirunelveli,627005,Tamil Nadu,IN,https://www.google.com/maps/place/Hazrath+Bilal+Jumma+Masjid/data=!4m7!3m6!1s0x3b04137b721dbb8f:0x4979ea64784d0c93!8m2!3d8.6917461!4d77.7188185!16s%2Fg%2F11q93j4fq0!19sChIJj7sdcnsTBDsRkwxNeGTqeUk?authuser=0&hl=en&rclk=1,"8.6917461,77.7188185"
Masjid Ul Ajees,Mosque,"MPR9+HPQ Masjid Ul Ajees, Engineers Colony, Raja Nagar, Tirunelveli, Tamil Nadu 627005","Engineers Colony, Raja Nagar",MPR9+HPQ,Tirunelveli,627005,Tamil Nadu,IN,https://www.google.com/maps/place/Masjid+Ul+Ajees/data=!4m7!3m6!1s0x3b04136e4687b2bf:0xdd50fc08e7fd0c72!8m2!3d8.6914782!4d77.7193025!16s%2Fg%2F11svnkhtyw!19sChIJv7KHRm4TBDsRcgz95wj8UN0?authuser=0&hl=en&rclk=1,"8.691478199999999,77.7193025"
Kariyullasha Jumma Masjid,Mosque,"PMFH+J3X Kariyullasha Jumma Masjid, Samiyar, S Thaikka St, Tirunelveli Town, Tirunelveli, Tamil Nadu 627006",Tirunelveli Town,"PMFH+J3X Samiyar, S Thaikka St",Tirunelveli,627006,Tamil Nadu,IN,https://www.google.com/maps/place/Kariyullasha+Jumma+Masjid/data=!4m7!3m6!1s0x3b0411ac61e20473:0xd0fba2371191abf9!8m2!3d8.7241176!4d77.6777268!16s%2Fg%2F11s_tq033w!19sChIJcwTiYawRBDsR-auRETei-9A?authuser=0&hl=en&rclk=1,"8.7241176,77.6777268"
Jannathul firthouse masjid,Mosque,"PQ74+HM6 Jannathul firthouse masjid, Palayamkottai, Tirunelveli, Tamil Nadu 627011",Palayamkottai,PQ74+HM6,Tirunelveli,,Tamil Nadu,IN,https://www.google.com/maps/place/Jannathul+firthouse+masjid/data=!4m7!3m6!1s0x3b040da2fa37baf3:0x29f488d916c73580!8m2!3d8.7139126!4d77.7566523!16s%2Fg%2F11twqjlns0!19sChIJ87o3-qINBDsRgDXHFtmI9Ck?authuser=0&hl=en&rclk=1,"8.7139126,77.7566523"
Masjid Al Haq TNTJ,Mosque,"Masjid Al Haq TNTJ, 6, Pichuvana St, Palayamkottai, Tirunelveli, Tamil Nadu 627002",Palayamkottai,"6, Pichuvana St",Tirunelveli,627002,Tamil Nadu,IN,https://www.google.com/maps/place/Masjid+Al+Haq+TNTJ/data=!4m7!3m6!1s0x3b041194fb4bf3b1:0xc900b37d0d26e331!8m2!3d8.7250599!4d77.7405396!16s%2Fg%2F11tj2l30c0!19sChIJsfNL-5QRBDsRMeMmDX2zAMk?authuser=0&hl=en&rclk=1,"8.7250599,77.74053959999999"
MGP masjid,Mosque,"PMH7+33R MGP masjid, MNP 2nd N St, Tirunelveli, Tamil Nadu 627004",,"PMH7+33R, MNP 2nd N St",Tirunelveli,627004,Tamil Nadu,IN,https://www.google.com/maps/place/MGP+masjid/data=!4m7!3m6!1s0x3b0411ca7a3304d5:0x7ef9956b856c3685!8m2!3d8.7277402!4d77.6626329!16s%2Fg%2F11krp4s_92!19sChIJ1QQzesoRBDsRhTZshWuV-X4?authuser=0&hl=en&rclk=1,"8.7277402,77.66263289999999"
Masjidur Raheem,Mosque,"PP4R+JGJ Masjidur Raheem, Perumalpuram, Vasantha Nager, Tirunelveli, Tamil Nadu 627007","Perumalpuram, Vasantha Nager",PP4R+JGJ,Tirunelveli,627007,Tamil Nadu,IN,https://www.google.com/maps/place/Masjidur+Raheem/data=!4m7!3m6!1s0x3b04134a87a32199:0x8fce437076cb6e35!8m2!3d8.7065989!4d77.7412627!16s%2Fg%2F11v184zcrn!19sChIJmSGjh0oTBDsRNW7LdnBDzo8?authuser=0&hl=en&rclk=1,"8.7065989,77.7412627"
nvaap juummaa msjit potttt kullm Nawab Jumma Masjid Potta Kulam,Mosque,"PMG4+2JW nvaap juummaa msjit potttt kullm Nawab Jumma Masjid Potta Kulam, Tirunelveli, Tamil Nadu 627004",,PMG4+2JW,Tirunelveli,627004,Tamil Nadu,IN,https://www.google.com/maps/place/%E0%AE%A8%E0%AE%B5%E0%AE%BE%E0%AE%AA%E0%AF%8D+%E0%AE%9C%E0%AF%82%E0%AE%AE%E0%AF%8D%E0%AE%AE%E0%AE%BE+%E0%AE%AE%E0%AE%B8%E0%AF%8D%E0%AE%9C%E0%AE%BF%E0%AE%A4%E0%AF%8D+%E0%AE%AA%E0%AF%8A%E0%AE%9F%E0%AF%8D%E0%AE%9F+%E0%AE%95%E0%AF%81%E0%AE%B3%E0%AE%AE%E0%AF%8D+Nawab+Jumma+Masjid+Potta+Kulam/data=!4m7!3m6!1s0x3b041193fefc9065:0xc1abf72a9e8f2979!8m2!3d8.7243716!4d77.6570917!16s%2Fg%2F11v3jq0qfr!19sChIJZZD8_pMRBDsReSmPnir3q8E?authuser=0&hl=en&rclk=1,"8.7243716,77.6570917"
Sappani Aaleem Jumma Masjid,Mosque,"PP26+69H Sappani Aaleem Jumma Masjid, Melapalayam, Tirunelveli, Tamil Nadu 627005",Melapalayam,PP26+69H,Tirunelveli,627005,Tamil Nadu,IN,https://www.google.com/maps/place/Sappani+Aaleem+Jumma+Masjid/data=!4m7!3m6!1s0x3b041306ed195085:0x44d99a50fab58fa6!8m2!3d8.7005675!4d77.7109792!16s%2Fg%2F11gyyxxdg4!19sChIJhVAZ7QYTBDsRpo-1-lCa2UQ?authuser=0&hl=en&rclk=1,"8.7005675,77.7109792"
MGP masjid,Mosque,"PMF7+C9G MGP masjid, Pettai, Tirunelveli, Tamil Nadu 627004",,PMF7+C9G,"Pettai, Tirunelveli",,Tamil Nadu,IN,https://www.google.com/maps/place/MGP+masjid/data=!4m7!3m6!1s0x3b041143913c1eab:0x909eca7603cae03d!8m2!3d8.7235556!4d77.6634632!16s%2Fg%2F11krp8x7gy!19sChIJqx48kUMRBDsRPeDKA3bKnpA?authuser=0&hl=en&rclk=1,"8.7235556,77.6634632"
Masjid,Mosque,"PPV7+44P Masjid, Madurai Rd, Gomathy Nagar, Balabagya Nagar South, Balabagya Nagar North, Tirunelveli, Tamil Nadu 627001","Gomathy Nagar, Balabagya Nagar South, Balabagya Nagar North","PPV7+44P, Madurai Rd",Tirunelveli,627001,Tamil Nadu,IN,https://www.google.com/maps/place/Masjid/data=!4m7!3m6!1s0x3b0411db413990eb:0x391cae51b910fe81!8m2!3d8.7428298!4d77.7128202!16s%2Fg%2F11qrfm09rg!19sChIJ65A5QdsRBDsRgf4QuVGuHDk?authuser=0&hl=en&rclk=1,"8.742829799999999,77.7128202"
Rahumaniyapuram Jumma Masjid,Mosque,"MPW6+W9Q Rahumaniyapuram Jumma Masjid, Kottikulam Bazar Rd, Melapalayam, Tirunelveli, Tamil Nadu 627005",Melapalayam,"MPW6+W9Q, Kottikulam Bazar Rd",Tirunelveli,627005,Tamil Nadu,IN,https://www.google.com/maps/place/Rahumaniyapuram+Jumma+Masjid/data=!4m7!3m6!1s0x3b04134964bb1001:0x392a2a480f7f254a!8m2!3d8.6973498!4d77.7109748!16s%2Fg%2F11l5vgjqfb!19sChIJARC7ZEkTBDsRSiV_D0gqKjk?authuser=0&hl=en&rclk=1,"8.6973498,77.7109748"
Tirunelveli,Mosque,"PP47+33M Tirunelveli, Sheikul Akbar St, Melapalayam, Tirunelveli, Tamil Nadu 627005",Melapalayam,"PP47+33M, Sheikul Akbar St",Tirunelveli,627005,Tamil Nadu,IN,https://www.google.com/maps/place/Tirunelveli/data=!4m7!3m6!1s0x3b04131913fbe293:0xc43f50d9566b7541!8m2!3d8.7052199!4d77.7126831!16s%2Fg%2F11krrcpj8w!19sChIJk-L7ExkTBDsRQXVrVtlQP8Q?authuser=0&hl=en&rclk=1,"8.7052199,77.71268309999999"
Mappillai Lebbai Aalim Masjid,Mosque,"Mappillai Lebbai Aalim Masjid, 58, Kajanayagam St, Melapalayam, Tirunelveli, Tamil Nadu 627005",Melapalayam,"58, Kajanayagam St",Tirunelveli,627005,Tamil Nadu,IN,https://www.google.com/maps/place/Mappillai+Lebbai+Aalim+Masjid/data=!4m7!3m6!1s0x3b041236c7820295:0x6c9af8f55294a0d4!8m2!3d8.705136!4d77.7058995!16s%2Fg%2F1pyqv0678!19sChIJlQKCxzYSBDsR1KCUUvX4mmw?authuser=0&hl=en&rclk=1,"8.705136,77.7058995"
