name,main_category,address,address_ward,address_street,address_city,address_postal_code,address_state,address_country_code,link,coordinates
Madina Masjid Kudachi mdynh msjd,Mosque,"Madina Masjid Kudachi mdynh msjd, Bus Stop, Kudachi(R), Karnataka 591311",,Bus Stop,Kudachi(R),591311,Karnataka,IN,https://www.google.com/maps/place/Madina+Masjid+Kudachi+%D9%85%D8%AF%DB%8C%D9%86%DB%81+%D9%85%D8%B3%D8%AC%D8%AF%E2%80%AD/data=!4m7!3m6!1s0x3bc0d14edfc1611d:0x1568624f28ed4512!8m2!3d16.623722!4d74.8580285!16s%2Fg%2F1ptyvrnyy!19sChIJHWHB307RwDsREkXtKE9iaBU?authuser=0&hl=en&rclk=1,"16.623722,74.8580285"
kuubaa msiidi ( Quba Masjid ),Mosque,"JVG4+F57 kuubaa msiidi ( Quba Masjid ), Kudachi(R), Karnataka 591311",,JVG4+F57,Kudachi(R),591311,Karnataka,IN,https://www.google.com/maps/place/%E0%B2%95%E0%B3%82%E0%B2%AC%E0%B2%BE+%E0%B2%AE%E0%B2%B8%E0%B3%80%E0%B2%A6%E0%B2%BF+%28+Quba+Masjid+%29/data=!4m7!3m6!1s0x3bc0d1495f306a4b:0x9f54b69e8c9c67f6!8m2!3d16.6261698!4d74.8554241!16s%2Fg%2F11c1xwkgf1!19sChIJS2owX0nRwDsR9mecjJ62VJ8?authuser=0&hl=en&rclk=1,"16.6261698,74.8554241"
msjid i nuur ( Masjid-e-Noor ),Mosque,"JVF2+RJC msjid i nuur ( Masjid-e-Noor ), Kudachi(R), Karnataka 591311",,JVF2+RJC,Kudachi(R),591311,Karnataka,IN,https://www.google.com/maps/place/%E0%B2%AE%E0%B2%B8%E0%B3%8D%E0%B2%9C%E0%B2%BF%E0%B2%A6%E0%B3%8D+%E0%B2%87+%E0%B2%A8%E0%B3%82%E0%B2%B0%E0%B3%8D+%28+Masjid-e-Noor+%29/data=!4m7!3m6!1s0x3bc0d149c4fc3af3:0xfbee4fa1ecd9e193!8m2!3d16.6245584!4d74.8515135!16s%2Fg%2F11ckkz8l2k!19sChIJ8zr8xEnRwDsRk-HZ7KFP7vs?authuser=0&hl=en&rclk=1,"16.624558399999998,74.8515135"
shaams msiidi ( SHAMS MASJID),Mosque,"JVF6+29P shaams msiidi ( SHAMS MASJID), Kudachi(R), Karnataka 591311",,JVF6+29P,Kudachi(R),591311,Karnataka,IN,https://www.google.com/maps/place/%E0%B2%B6%E0%B2%BE%E0%B2%AE%E0%B3%8D%E0%B2%B8%E0%B3%8D+%E0%B2%AE%E0%B2%B8%E0%B3%80%E0%B2%A6%E0%B2%BF+%28+SHAMS+MASJID%29/data=!4m7!3m6!1s0x3bc0d14fc08000d1:0xe298facb08e45409!8m2!3d16.6225839!4d74.8609485!16s%2Fg%2F11c30tsj8g!19sChIJ0QCAwE_RwDsRCVTkCMv6mOI?authuser=0&hl=en&rclk=1,"16.6225839,74.86094849999999"
msiidi (Masjid msjd),Mosque,"JVG2+X8Q msiidi (Masjid msjd), Kudachi(R), Karnataka 591311",,JVG2+X8Q,Kudachi(R),591311,Karnataka,IN,https://www.google.com/maps/place/%E0%B2%AE%E0%B2%B8%E0%B3%80%E0%B2%A6%E0%B2%BF+%28Masjid+%D9%85%D8%B3%D8%AC%D8%AF%29%E2%80%AD/data=!4m7!3m6!1s0x3bc0d14a7524de6d:0x1dafe3cba3e22ef0!8m2!3d16.6274503!4d74.8508555!16s%2Fg%2F11df3z12py!19sChIJbd4kdUrRwDsR8C7io8vjrx0?authuser=0&hl=en&rclk=1,"16.6274503,74.8508555"
"mrkj, kuddci ( Markaz Kudachi )",Mosque,"JRGX+JFC mrkj, kuddci ( Markaz Kudachi ), Kudachi(R), Karnataka 591311",,JRGX+JFC,Kudachi(R),591311,Karnataka,IN,"https://www.google.com/maps/place/%E0%B2%AE%E0%B2%B0%E0%B3%8D%E0%B2%95%E0%B2%9C%E0%B3%8D,+%E0%B2%95%E0%B3%81%E0%B2%A1%E0%B2%9A%E0%B2%BF+%28+Markaz+Kudachi+%29/data=!4m7!3m6!1s0x3bc0d135c524de33:0x62bf89aa6c5d17ce!8m2!3d16.6265712!4d74.8486518!16s%2Fg%2F11bbt93bp_!19sChIJM94kxTXRwDsRzhddbKqJv2I?authuser=0&hl=en&rclk=1","16.6265712,74.8486518"
"jaakriyaa msiidi, kuddci (Zakriya Masjid Kudchi)",Mosque,"JVM6+436 jaakriyaa msiidi, kuddci (Zakriya Masjid Kudchi), Kudachi(R), Karnataka 591311",,JVM6+436,Kudachi(R),591311,Karnataka,IN,"https://www.google.com/maps/place/%E0%B2%9C%E0%B2%BE%E0%B2%95%E0%B3%8D%E0%B2%B0%E0%B2%BF%E0%B2%AF%E0%B2%BE+%E0%B2%AE%E0%B2%B8%E0%B3%80%E0%B2%A6%E0%B2%BF,+%E0%B2%95%E0%B3%81%E0%B2%A1%E0%B2%9A%E0%B2%BF+%28Zakriya+Masjid+Kudchi%29/data=!4m7!3m6!1s0x3bc0d6b2d1ed56a5:0x206896c5c5a26dc3!8m2!3d16.6327838!4d74.8601262!16s%2Fg%2F11b6hwds_p!19sChIJpVbt0bLWwDsRw22ixcWWaCA?authuser=0&hl=en&rclk=1","16.6327838,74.8601262"
Masjid-e-abdullah,Mosque,"JV66+XWV Masjid-e-abdullah, Kudachi (R), Karnataka 591311",,JV66+XWV,Kudachi (R),591311,Karnataka,IN,https://www.google.com/maps/place/Masjid-e-abdullah/data=!4m7!3m6!1s0x3bc0d1432a99338d:0x8058414e2102ca67!8m2!3d16.6124866!4d74.8623023!16s%2Fg%2F11dx93q3b1!19sChIJjTOZKkPRwDsRZ8oCIU5BWIA?authuser=0&hl=en&rclk=1,"16.6124866,74.8623023"
Masjid-e Sulaiman msjdi slymn,Mosque,"JVH3+G8P Masjid-e Sulaiman msjdi slymn, Kudachi(R), Karnataka 591311",,JVH3+G8P,Kudachi(R),591311,Karnataka,IN,https://www.google.com/maps/place/Masjid-e+Sulaiman+%D9%85%D8%B3%D8%AC%D8%AF%D9%90+%D8%B3%D9%84%DB%8C%D9%85%D8%A7%D9%86%E2%80%AD/data=!4m7!3m6!1s0x3bc0d14a55ccf37f:0x8de951c10e0f2045!8m2!3d16.6288261!4d74.8533314!16s%2Fg%2F11dz1lwyr6!19sChIJf_PMVUrRwDsRRSAPDsFR6Y0?authuser=0&hl=en&rclk=1,"16.628826099999998,74.8533314"
Masjid.e.Aqsasani,Mosque,"JR3Q+HHW Masjid.e.Aqsasani, Chinchali Road, Kudachi (R), Karnataka",,"JR3Q+HHW, Chinchali Road",Kudachi (R),,Karnataka,IN,https://www.google.com/maps/place/Masjid.e.Aqsasani/data=!4m7!3m6!1s0x3bc0d123b40e6dff:0xc928a1a4c1297cad!8m2!3d16.603976!4d74.8389631!16s%2Fg%2F11ghzr1pzb!19sChIJ_20OtCPRwDsRrXwpwaShKMk?authuser=0&hl=en&rclk=1,"16.603976,74.8389631"
htiim msiidi ( Hateem Masjid),Mosque,"JVGF+H89 htiim msiidi ( Hateem Masjid), Unnamed Road, Kudachi(R), Kudachi (R), Karnataka 591311",,"JVGF+H89, Unnamed Road","Kudachi(R), Kudachi (R)",591311,Karnataka,IN,https://www.google.com/maps/place/%E0%B2%B9%E0%B2%A4%E0%B3%80%E0%B2%AE%E0%B3%8D+%E0%B2%AE%E0%B2%B8%E0%B3%80%E0%B2%A6%E0%B2%BF+%28+Hateem+Masjid%29/data=!4m7!3m6!1s0x3bc0d176f9ae5b81:0xa9de49cbcc80ac3a!8m2!3d16.6264143!4d74.8733446!16s%2Fg%2F11q22cz522!19sChIJgVuu-XbRwDsROqyAzMtJ3qk?authuser=0&hl=en&rclk=1,"16.6264143,74.8733446"
"msjid i khddijaa, kuddci ( Masjid-e-khdija, Kudchi)",Mosque,"JVH4+RGG msjid i khddijaa, kuddci ( Masjid-e-khdija, Kudchi), Kudachi(R), Karnataka 591311",,JVH4+RGG,Kudachi(R),591311,Karnataka,IN,"https://www.google.com/maps/place/%E0%B2%AE%E0%B2%B8%E0%B3%8D%E0%B2%9C%E0%B2%BF%E0%B2%A6%E0%B3%8D+%E0%B2%87+%E0%B2%96%E0%B3%8D%E0%B2%A1%E0%B2%BF%E0%B2%9C%E0%B2%BE,+%E0%B2%95%E0%B3%81%E0%B2%A1%E0%B2%9A%E0%B2%BF+%28+Masjid-e-khdija,+Kudchi%29/data=!4m7!3m6!1s0x3bc0d1205dc8032d:0x39b73f0e5c0c0d29!8m2!3d16.6295591!4d74.8563203!16s%2Fg%2F11fhkm18qk!19sChIJLQPIXSDRwDsRKQ0MXA4_tzk?authuser=0&hl=en&rclk=1","16.629559099999998,74.8563203"
msjid i moohdis ajm ( Masjid e Mohaddis e Azam),Mosque,"JVF2+P86 msjid i moohdis ajm ( Masjid e Mohaddis e Azam), Ugar road, Road, Kudachi(R), Karnataka 591311",,"JVF2+P86, Ugar road, Road",Kudachi(R),591311,Karnataka,IN,https://www.google.com/maps/place/%E0%B2%AE%E0%B2%B8%E0%B3%8D%E0%B2%9C%E0%B2%BF%E0%B2%A6%E0%B3%8D+%E0%B2%87+%E0%B2%AE%E0%B3%8B%E0%B2%B9%E0%B2%A6%E0%B2%BF%E0%B2%B8%E0%B3%8D+%E0%B2%85%E0%B2%9C%E0%B2%AE%E0%B3%8D+%28+Masjid+e+Mohaddis+e+Azam%29/data=!4m7!3m6!1s0x3bc0d1ae4fd6f4c5:0xb3d5600db24e8859!8m2!3d16.624294!4d74.8507714!16s%2Fg%2F11mvzqc84l!19sChIJxfTWT67RwDsRWYhOsg1g1bM?authuser=0&hl=en&rclk=1,"16.624294,74.8507714"
Chand Tara Masjid,Mosque,"JRJG+6FG Chand Tara Masjid, Kudachi (R), Karnataka 591311",,JRJG+6FG,Kudachi (R),,Karnataka,IN,https://www.google.com/maps/place/Chand+Tara+Masjid/data=!4m7!3m6!1s0x3bc0d79088166a41:0x4262238c9daf9e28!8m2!3d16.6305523!4d74.8262011!16s%2Fg%2F11g0tf17sp!19sChIJQWoWiJDXwDsRKJ6vnYwjYkI?authuser=0&hl=en&rclk=1,"16.630552299999998,74.82620109999999"
msjid i abuubkr ( Masjid e Abubakar (Markaz),Mosque,"JRGX+QGJ msjid i abuubkr ( Masjid e Abubakar (Markaz), Kudachi (R), Karnataka 591311",,JRGX+QGJ,Kudachi (R),,Karnataka,IN,https://www.google.com/maps/place/%E0%B2%AE%E0%B2%B8%E0%B3%8D%E0%B2%9C%E0%B2%BF%E0%B2%A6%E0%B3%8D+%E0%B2%87+%E0%B2%85%E0%B2%AC%E0%B3%82%E0%B2%AC%E0%B2%95%E0%B2%B0%E0%B3%8D+%28+Masjid+e+Abubakar+%28Markaz%29/data=!4m7!3m6!1s0x3bc0d147163bfb23:0x6d72d75c140a820b!8m2!3d16.6269579!4d74.8487766!16s%2Fg%2F11q9rz8msf!19sChIJI_s7FkfRwDsRC4IKFFzXcm0?authuser=0&hl=en&rclk=1,"16.6269579,74.8487766"
MASJID-E-AMMAR,Mosque,"JVH2+RM3 MASJID-E-AMMAR, Kudachi(R), Karnataka 591311",,JVH2+RM3,Kudachi(R),591311,Karnataka,IN,https://www.google.com/maps/place/MASJID-E-AMMAR/data=!4m7!3m6!1s0x3bc0d12c792100cf:0xa004ea31be90451f!8m2!3d16.6295084!4d74.8516805!16s%2Fg%2F11g08czky7!19sChIJzwAheSzRwDsRH0WQvjHqBKA?authuser=0&hl=en&rclk=1,"16.6295084,74.8516805"
Jatagar Galli Khadija Masjid,Mosque,"JVH4+PQ2 Jatagar Galli Khadija Masjid, Kudachi(R), Karnataka 591311",,JVH4+PQ2,Kudachi(R),591311,Karnataka,IN,https://www.google.com/maps/place/Jatagar+Galli+Khadija+Masjid/data=!4m7!3m6!1s0x3bc0d149c26aec41:0x7bea4902e9f6b98f!8m2!3d16.6292678!4d74.8568897!16s%2Fg%2F11fhlrz9k3!19sChIJQexqwknRwDsRj7n26QJJ6ns?authuser=0&hl=en&rclk=1,"16.6292678,74.8568897"
maaji i ali ( Masjid-e-Ali),Mosque,"JVFF+6F5 maaji i ali ( Masjid-e-Ali), Peer Mahboob Dargah Rd, Kudachi (R), Karnataka 591311",,"JVFF+6F5, Peer Mahboob Dargah Rd",Kudachi (R),591311,Karnataka,IN,https://www.google.com/maps/place/%E0%B2%AE%E0%B2%BE%E0%B2%9C%E0%B2%BF+%E0%B2%87+%E0%B2%85%E0%B2%B2%E0%B2%BF+%28+Masjid-e-Ali%29/data=!4m7!3m6!1s0x3bc0d145a7483d83:0xa25fbf0ea17aeabb!8m2!3d16.6230057!4d74.8737419!16s%2Fg%2F11q95dwxs6!19sChIJgz1Ip0XRwDsRu-p6oQ6_X6I?authuser=0&hl=en&rclk=1,"16.6230057,74.8737419"
"maaji ee kureeshi ( MASJID-E-QURESH, KUDACHI)",Mosque,"JVF2+WCF maaji ee kureeshi ( MASJID-E-QURESH, KUDACHI), Kudachi(R), Karnataka 591311",,JVF2+WCF,Kudachi(R),591311,Karnataka,IN,"https://www.google.com/maps/place/%E0%B2%AE%E0%B2%BE%E0%B2%9C%E0%B2%BF+%E0%B2%8F+%E0%B2%95%E0%B3%81%E0%B2%B0%E0%B3%87%E0%B2%B6%E0%B2%BF+%28+MASJID-E-QURESH,+KUDACHI%29/data=!4m7!3m6!1s0x3bc0d115fdb05bc1:0x5d4e79c02a52de1a!8m2!3d16.6248038!4d74.85105!16s%2Fg%2F11k3hmml7s!19sChIJwVuw_RXRwDsRGt5SKsB5Tl0?authuser=0&hl=en&rclk=1","16.6248038,74.85105"
arphaat msiidi ( ARFAT MASJID (takia masjid),Mosque,"arphaat msiidi ( ARFAT MASJID (takia masjid), Near, masaheba dargah road, Kudachi(R), Kudachi (R), Karnataka 591311",,"Near, masaheba dargah road","Kudachi(R), Kudachi (R)",,Karnataka,IN,https://www.google.com/maps/place/%E0%B2%85%E0%B2%B0%E0%B3%8D%E0%B2%AB%E0%B2%BE%E0%B2%A4%E0%B3%8D+%E0%B2%AE%E0%B2%B8%E0%B3%80%E0%B2%A6%E0%B2%BF+%28+ARFAT+MASJID+%28takia+masjid%29/data=!4m7!3m6!1s0x3bc0d7a1a311e2fb:0x4a1f8ea77909d82f!8m2!3d16.6320696!4d74.8478042!16s%2Fg%2F11pd2zb4zb!19sChIJ--IRo6HXwDsRL9gJeaeOH0o?authuser=0&hl=en&rclk=1,"16.632069599999998,74.8478042"
maaji i bilaal ( Masjid-e-Bilal),Mosque,"JVH4+8MH maaji i bilaal ( Masjid-e-Bilal), Kudachi(R), Karnataka 591311",,JVH4+8MH,Kudachi(R),591311,Karnataka,IN,https://www.google.com/maps/place/%E0%B2%AE%E0%B2%BE%E0%B2%9C%E0%B2%BF+%E0%B2%87+%E0%B2%AC%E0%B2%BF%E0%B2%B2%E0%B2%BE%E0%B2%B2%E0%B3%8D+%28+Masjid-e-Bilal%29/data=!4m7!3m6!1s0x3bc0d1c4c953e003:0x187c1ae8c34848ac!8m2!3d16.628135!4d74.856688!16s%2Fg%2F11kb2zvv25!19sChIJA-BTycTRwDsRrEhIw-gafBg?authuser=0&hl=en&rclk=1,"16.628135,74.85668799999999"
Abbubakar Masjid msjdi bwbkhr,Mosque,"JVG2+XF7 Abbubakar Masjid msjdi bwbkhr, Unnamed Road, Kudachi(R), Karnataka 591311",,"JVG2+XF7, Unnamed Road",Kudachi(R),591311,Karnataka,IN,https://www.google.com/maps/place/Abbubakar+Masjid+%D9%85%D8%B3%D8%AC%D8%AF%D9%90+%D8%A7%D8%A8%D9%88%D8%A8%DA%A9%D8%B1%E2%80%AD/data=!4m7!3m6!1s0x3bc0d14a733e8561:0xd1800dcdea54069f!8m2!3d16.6274131!4d74.8511804!16s%2Fg%2F11f4z6g8sc!19sChIJYYU-c0rRwDsRnwZU6s0NgNE?authuser=0&hl=en&rclk=1,"16.6274131,74.85118039999999"
drgaa msiidi (Dargah Masjid),Mosque,"JRMX+F7V drgaa msiidi (Dargah Masjid), SH 53, Kudachi (R), Karnataka 591316",,"JRMX+F7V, SH 53",Kudachi (R),591316,Karnataka,IN,https://www.google.com/maps/place/%E0%B2%A6%E0%B2%B0%E0%B3%8D%E0%B2%97%E0%B2%BE+%E0%B2%AE%E0%B2%B8%E0%B3%80%E0%B2%A6%E0%B2%BF+%28Dargah+Masjid%29/data=!4m7!3m6!1s0x3bc0d7e5390b3719:0x64dff70714d15c2d!8m2!3d16.6337485!4d74.8481649!16s%2Fg%2F11j5g88hf6!19sChIJGTcLOeXXwDsRLVzRFAf332Q?authuser=0&hl=en&rclk=1,"16.6337485,74.8481649"
Al shajar masjid,Mosque,"Al shajar masjid, Tikan hal tot, Kudachi(R), Karnataka 591311",,Tikan hal tot,Kudachi(R),,Karnataka,IN,https://www.google.com/maps/place/Al+shajar+masjid/data=!4m7!3m6!1s0x3bc0d131cb16ae61:0xb584921e9cc0aa4d!8m2!3d16.6263737!4d74.8565915!16s%2Fg%2F11h3wzpr5v!19sChIJYa4WyzHRwDsRTarAnB6ShLU?authuser=0&hl=en&rclk=1,"16.6263737,74.8565915"
ibraahiN msiidi ( ibrahim masjid),Mosque,"JRHG+R2 ibraahiN msiidi ( ibrahim masjid), Kudachi (R), Karnataka 591311",,JRHG+R2,Kudachi (R),,Karnataka,IN,https://www.google.com/maps/place/%E0%B2%87%E0%B2%AC%E0%B3%8D%E0%B2%B0%E0%B2%BE%E0%B2%B9%E0%B2%BF%E0%B2%82+%E0%B2%AE%E0%B2%B8%E0%B3%80%E0%B2%A6%E0%B2%BF+%28+ibrahim+masjid%29/data=!4m7!3m6!1s0x3bc0d1ed44b68a33:0x15e6bc74c418b56b!8m2!3d16.6295936!4d74.8249825!16s%2Fg%2F11swqtgtpl!19sChIJM4q2RO3RwDsRa7UYxHS85hU?authuser=0&hl=en&rclk=1,"16.6295936,74.82498249999999"
mhjrin msiidi ( Mahajrin masjid),Mosque,"HVXM+V4 mhjrin msiidi ( Mahajrin masjid), Kudachi (R), Karnataka 591311",,HVXM+V4,Kudachi (R),,Karnataka,IN,https://www.google.com/maps/place/%E0%B2%AE%E0%B2%B9%E0%B2%9C%E0%B3%8D%E0%B2%B0%E0%B2%BF%E0%B2%A8%E0%B3%8D+%E0%B2%AE%E0%B2%B8%E0%B3%80%E0%B2%A6%E0%B2%BF+%28+Mahajrin+masjid%29/data=!4m7!3m6!1s0x3bc0d34fce3a8faf:0x40f125a1cee36f9!8m2!3d16.5996747!4d74.8827991!16s%2Fg%2F11rz2wtlch!19sChIJr486zk_TwDsR-TbuHFoSDwQ?authuser=0&hl=en&rclk=1,"16.599674699999998,74.8827991"
Mahumadiya masjid,Agricultural association,"JV25+6R2 Mahumadiya masjid, Unnamed Road, Kudachi(R), Kudachi (R), Karnataka 591311",,"JV25+6R2, Unnamed Road","Kudachi(R), Kudachi (R)",591311,Karnataka,IN,https://www.google.com/maps/place/Mahumadiya+masjid/data=!4m7!3m6!1s0x3bc0d1bc2b90e04f:0x71ea11e481f3ba97!8m2!3d16.6005185!4d74.8595232!16s%2Fg%2F11hrydwmns!19sChIJT-CQK7zRwDsRl7rzgeQR6nE?authuser=0&hl=en&rclk=1,"16.6005185,74.8595232"
msjid i kureess (MASJID-E-QURESH),Mosque,"JVH4+26F msjid i kureess (MASJID-E-QURESH), Kudachi(R), Karnataka 591311",,JVH4+26F,Kudachi(R),591311,Karnataka,IN,https://www.google.com/maps/place/%E0%B2%AE%E0%B2%B8%E0%B3%8D%E0%B2%9C%E0%B2%BF%E0%B2%A6%E0%B3%8D+%E0%B2%87+%E0%B2%95%E0%B3%81%E0%B2%B0%E0%B3%87%E0%B2%B7%E0%B3%8D+%28MASJID-E-QURESH%29/data=!4m7!3m6!1s0x3bc0d1419836c2d5:0x2e30d7e22c413c54!8m2!3d16.6280026!4d74.8548384!16s%2Fg%2F11sk2p657g!19sChIJ1cI2mEHRwDsRVDxBLOLXMC4?authuser=0&hl=en&rclk=1,"16.6280026,74.85483839999999"
jaamiyaa msiidi ( Jamiya Masjid),Mosque,"JRHX+XVX jaamiyaa msiidi ( Jamiya Masjid), Kudachi (R), Karnataka 591311",,JRHX+XVX,Kudachi (R),591311,Karnataka,IN,https://www.google.com/maps/place/%E0%B2%9C%E0%B2%BE%E0%B2%AE%E0%B2%BF%E0%B2%AF%E0%B2%BE+%E0%B2%AE%E0%B2%B8%E0%B3%80%E0%B2%A6%E0%B2%BF+%28+Jamiya+Masjid%29/data=!4m7!3m6!1s0x3bc0d11136665691:0x377507a2472be8fc!8m2!3d16.6299915!4d74.8497355!16s%2Fg%2F11fhrhs0ns!19sChIJkVZmNhHRwDsR_OgrR6IHdTc?authuser=0&hl=en&rclk=1,"16.6299915,74.8497355"
Bageusman masjid kudachi,Mosque,"JRQ8+3W2 Bageusman masjid kudachi, Kudachi(R), Karnataka 591311",,JRQ8+3W2,Kudachi(R),,Karnataka,IN,https://www.google.com/maps/place/Bageusman+masjid+kudachi/data=!4m7!3m6!1s0x3bc0d770f2d25d55:0x90defeb975b91dde!8m2!3d16.6376464!4d74.8172737!16s%2Fg%2F11ssc1_7_j!19sChIJVV3S8nDXwDsR3h25dbn-3pA?authuser=0&hl=en&rclk=1,"16.637646399999998,74.8172737"
umr phaaruuk msiidi ( Umar Farooq masjid),Mosque,"JR9W+2P3 umr phaaruuk msiidi ( Umar Farooq masjid), Junned Nagar, Kudachi (R), Karnataka 591311",Junned Nagar,JR9W+2P3,Kudachi (R),,Karnataka,IN,https://www.google.com/maps/place/%E0%B2%89%E0%B2%AE%E0%B2%B0%E0%B3%8D+%E0%B2%AB%E0%B2%BE%E0%B2%B0%E0%B3%82%E0%B2%95%E0%B3%8D+%E0%B2%AE%E0%B2%B8%E0%B3%80%E0%B2%A6%E0%B2%BF+%28+Umar+Farooq+masjid%29/data=!4m7!3m6!1s0x3bc0d146843f75fd:0xe164a966d872e4c1!8m2!3d16.6175156!4d74.8468105!16s%2Fg%2F11stf0wpw1!19sChIJ_XU_hEbRwDsRweRy2GapZOE?authuser=0&hl=en&rclk=1,"16.6175156,74.8468105"
Masjid e badar kudchi,Housing complex,"JVF2+WCV Masjid e badar kudchi, Masjid e badar kudchi gunwad, road, Kudachi(R)",,"JVF2+WCV, Masjid e badar kudchi gunwad, road",Kudachi(R),,Karnataka,IN,https://www.google.com/maps/place/Masjid+e+badar+kudchi/data=!4m7!3m6!1s0x3bc0d184932613e3:0x295c5a0ef24d0484!8m2!3d16.6248639!4d74.85106!16s%2Fg%2F11rfmyq70s!19sChIJ4xMmk4TRwDsRhARN8g5aXCk?authuser=0&hl=en&rclk=1,"16.624863899999998,74.85105999999999"
umr msiidi ( Umer Masjid),Mosque,"JVJ7+W2W umr msiidi ( Umer Masjid), Kudachi(R), Karnataka 591311",,JVJ7+W2W,Kudachi(R),591311,Karnataka,IN,https://www.google.com/maps/place/%E0%B2%89%E0%B2%AE%E0%B2%B0%E0%B3%8D+%E0%B2%AE%E0%B2%B8%E0%B3%80%E0%B2%A6%E0%B2%BF+%28+Umer+Masjid%29/data=!4m7!3m6!1s0x3bc0d1a611a8f6e9:0x1b117e14f20eb0c3!8m2!3d16.6316764!4d74.8624334!16s%2Fg%2F11tfnj3n7w!19sChIJ6faoEabRwDsRw7AO8hR-ERs?authuser=0&hl=en&rclk=1,"16.6316764,74.8624334"
hmjaa msiidi ( Hamza Masjid),Mosque,"JV43+43X hmjaa msiidi ( Hamza Masjid), Kudachi(R), Kudachi (R), Karnataka 591311",,JV43+43X,"Kudachi(R), Kudachi (R)",591311,Karnataka,IN,https://www.google.com/maps/place/%E0%B2%B9%E0%B2%AE%E0%B3%8D%E0%B2%9C%E0%B2%BE+%E0%B2%AE%E0%B2%B8%E0%B3%80%E0%B2%A6%E0%B2%BF+%28+Hamza+Masjid%29/data=!4m7!3m6!1s0x3bc0d159b83504bf:0x5c5e25a1e617f1e4!8m2!3d16.6053945!4d74.8531362!16s%2Fg%2F11v5bb0zy1!19sChIJvwQ1uFnRwDsR5PEX5qElXlw?authuser=0&hl=en&rclk=1,"16.6053945,74.8531362"
Mubarak Masjid,Mosque,"JVM8+5Q6 Mubarak Masjid, Kudachi(R), Kudachi (R), Karnataka 591311",,JVM8+5Q6,"Kudachi(R), Kudachi (R)",591311,Karnataka,IN,https://www.google.com/maps/place/Mubarak+Masjid/data=!4m7!3m6!1s0x3bc0d70a463f9505:0xeb6920aec7f3857e!8m2!3d16.6329194!4d74.8668916!16s%2Fg%2F11fpslq7yc!19sChIJBZU_RgrXwDsRfoXzx64gaes?authuser=0&hl=en&rclk=1,"16.6329194,74.8668916"
Ruqaiya Masjid,Mosque,"Ruqaiya Masjid, ruqaiya masjid, opposite of railway station, Kudachi(R), Karnataka",,"ruqaiya masjid, opposite of railway station",Kudachi(R),,Karnataka,IN,https://www.google.com/maps/place/Ruqaiya+Masjid/data=!4m7!3m6!1s0x3bc0d1939b13be47:0x362d66d34ce380ba!8m2!3d16.6239499!4d74.8594337!16s%2Fg%2F11gh_gyhzz!19sChIJR74Tm5PRwDsRuoDjTNNmLTY?authuser=0&hl=en&rclk=1,"16.6239499,74.8594337"
msjid i moohmdiyaa ( Masjid e Mohammadiyyah),Mosque,"HVX6+JG msjid i moohmdiyaa ( Masjid e Mohammadiyyah), Kudachi (R), Karnataka 591311",,HVX6+JG,Kudachi (R),,Karnataka,IN,https://www.google.com/maps/place/%E0%B2%AE%E0%B2%B8%E0%B3%8D%E0%B2%9C%E0%B2%BF%E0%B2%A6%E0%B3%8D+%E0%B2%87+%E0%B2%AE%E0%B3%8B%E0%B2%B9%E0%B2%AE%E0%B2%A6%E0%B2%BF%E0%B2%AF%E0%B2%BE+%28+Masjid+e+Mohammadiyyah%29/data=!4m7!3m6!1s0x3bc0d170dc7e67a3:0x77781b9a33c9af9f!8m2!3d16.599031!4d74.8612807!16s%2Fg%2F11k521yp32!19sChIJo2d-3HDRwDsRn6_JM5obeHc?authuser=0&hl=en&rclk=1,"16.599031,74.8612807"
msjid i kubraa ( Masjid e kubra),Mosque,"JV6C+QFM msjid i kubraa ( Masjid e kubra), Buddh Nagar, Raibag Rural, Kudachi(R), Karnataka 591311",Buddh Nagar,JV6C+QFM,"Raibag Rural, Kudachi(R)",591311,Karnataka,IN,https://www.google.com/maps/place/%E0%B2%AE%E0%B2%B8%E0%B3%8D%E0%B2%9C%E0%B2%BF%E0%B2%A6%E0%B3%8D+%E0%B2%87+%E0%B2%95%E0%B3%81%E0%B2%AC%E0%B3%8D%E0%B2%B0%E0%B2%BE+%28+Masjid+e+kubra%29/data=!4m7!3m6!1s0x3bc0d12962ffecfd:0x1faa5e4965e85c81!8m2!3d16.61199!4d74.871313!16s%2Fg%2F11l5nxm1rd!19sChIJ_ez_YinRwDsRgVzoZUleqh8?authuser=0&hl=en&rclk=1,"16.61199,74.871313"
"msjid i irphaan, kuddci ( MASJID E IRFAN, KUDACHI)",Mosque,"HRRQ+X6J msjid i irphaan, kuddci ( MASJID E IRFAN, KUDACHI), Kudachi (R), Karnataka 591217",,HRRQ+X6J,Kudachi (R),591217,Karnataka,IN,"https://www.google.com/maps/place/%E0%B2%AE%E0%B2%B8%E0%B3%8D%E0%B2%9C%E0%B2%BF%E0%B2%A6%E0%B3%8D+%E0%B2%87+%E0%B2%87%E0%B2%B0%E0%B3%8D%E0%B2%AB%E0%B2%BE%E0%B2%A8%E0%B3%8D,+%E0%B2%95%E0%B3%81%E0%B2%A1%E0%B2%9A%E0%B2%BF+%28+MASJID+E+IRFAN,+KUDACHI%29/data=!4m7!3m6!1s0x3bc0d1445ddc9403:0x870cf70bf54bd311!8m2!3d16.592453!4d74.8380096!16s%2Fg%2F11pz398gtz!19sChIJA5TcXUTRwDsREdNL9Qv3DIc?authuser=0&hl=en&rclk=1","16.592453,74.83800959999999"
piir mehbuub msiidi ( PeerMahboob Masjid),Mosque,"JVCC+F3X piir mehbuub msiidi ( PeerMahboob Masjid), Peer Mahboob Dargah Rd, Kudachi(R), Kudachi (R), Karnataka 591311",,"JVCC+F3X, Peer Mahboob Dargah Rd","Kudachi(R), Kudachi (R)",591311,Karnataka,IN,https://www.google.com/maps/place/%E0%B2%AA%E0%B3%80%E0%B2%B0%E0%B3%8D+%E0%B2%AE%E0%B3%86%E0%B2%B9%E0%B2%AC%E0%B3%82%E0%B2%AC+%E0%B2%AE%E0%B2%B8%E0%B3%80%E0%B2%A6%E0%B2%BF+%28+PeerMahboob+Masjid%29/data=!4m7!3m6!1s0x3bc0d10c733bc785:0xac48fc06a706b9a0!8m2!3d16.621237!4d74.8702402!16s%2Fg%2F11v0mlbzzh!19sChIJhcc7cwzRwDsRoLkGpwb8SKw?authuser=0&hl=en&rclk=1,"16.621237,74.8702402"
moomin msiidi ( Momin Masjid),Mosque,"JVG8+V34 moomin msiidi ( Momin Masjid), Unnamed Road, Kudachi(R), Karnataka 591311",,"JVG8+V34, Unnamed Road",Kudachi(R),591311,Karnataka,IN,https://www.google.com/maps/place/%E0%B2%AE%E0%B3%8B%E0%B2%AE%E0%B2%BF%E0%B2%A8%E0%B3%8D+%E0%B2%AE%E0%B2%B8%E0%B3%80%E0%B2%A6%E0%B2%BF+%28+Momin+Masjid%29/data=!4m7!3m6!1s0x3bc0d1a3a2ee54dd:0xb6059977a85d5d43!8m2!3d16.6271356!4d74.8652056!16s%2Fg%2F11q22d348b!19sChIJ3VTuoqPRwDsRQ11dqHeZBbY?authuser=0&hl=en&rclk=1,"16.6271356,74.8652056"
maaji ishaajr ( Masjid e Shajar),Mosque,"JR29+6W7 maaji ishaajr ( Masjid e Shajar), Kudachi(R), Karnataka 591217",,JR29+6W7,Kudachi(R),,Karnataka,IN,https://www.google.com/maps/place/%E0%B2%AE%E0%B2%BE%E0%B2%9C%E0%B2%BF+%E0%B2%87%E0%B2%B6%E0%B2%BE%E0%B2%9C%E0%B2%B0%E0%B3%8D+%28+Masjid+e+Shajar%29/data=!4m7!3m6!1s0x3bc0d17d1c3fbcb1:0xc284c5fa3ba2111c!8m2!3d16.6005368!4d74.8197922!16s%2Fg%2F11vbxc3q9s!19sChIJsbw_HH3RwDsRHBGiO_rFhMI?authuser=0&hl=en&rclk=1,"16.6005368,74.8197922"
