name,main_category,address,address_ward,address_street,address_city,address_postal_code,address_state,address_country_code,link,coordinates
TNTJ East Anna Branch Villupuram,Mosque,"WFWX+Q43 TNTJ East Anna Branch Villupuram, Nappalaya St, Ayyur Agaram Village, Viluppuram, Tamil Nadu 605602",Ayyur Agaram Village,"WFWX+Q43, Nappalaya St",Viluppuram,605602,Tamil Nadu,IN,https://www.google.com/maps/place/TNTJ+East+Anna+Branch+Villupuram/data=!4m7!3m6!1s0x3a5356c165c58ecf:0x487b31b8b7b7553c!8m2!3d11.9468768!4d79.4977814!16s%2Fg%2F11cnph5rw9!19sChIJz47FZcFWUzoRPFW3t7gxe0g?authuser=0&hl=en&rclk=1,"11.9468768,79.4977814"
Mandimahalla Masjid,Mosque,"WFWQ+4R2 Mandimahalla Masjid, Thiru Vi Ka Street, Viluppuram, Tamil Nadu 605602",Thiru Vi Ka Street,WFWQ+4R2,Viluppuram,605602,Tamil Nadu,IN,https://www.google.com/maps/place/Mandimahalla+Masjid/data=!4m7!3m6!1s0x3a5356be5652b13d:0xa0ec6c94d481d7e2!8m2!3d11.9452544!4d79.4895312!16s%2Fg%2F11f3jwr7rw!19sChIJPbFSVr5WUzoR4teB1JRs7KA?authuser=0&hl=en&rclk=1,"11.9452544,79.4895312"
Masjid Madina,Mosque,"WFHM+7PW Masjid Madina, KK Nagar Rd, K K Nagar, Viluppuram, Tamil Nadu 605602",K K Nagar,"WFHM+7PW, KK Nagar Rd",Viluppuram,605602,Tamil Nadu,IN,https://www.google.com/maps/place/Masjid+Madina/data=!4m7!3m6!1s0x3a53568f0041712f:0x425125c19ca039b6!8m2!3d11.9282374!4d79.4843436!16s%2Fg%2F11f29xs2vf!19sChIJL3FBAI9WUzoRtjmgnMElUUI?authuser=0&hl=en&rclk=1,"11.928237399999999,79.4843436"
VILLUPURAM,Mosque,"VILLUPURAM, Walaja moseq, North St, Viluppuram, Tamil Nadu 605602",Kamalanagar,"Walaja moseq, North St",Viluppuram,605602,Tamil Nadu,IN,https://www.google.com/maps/place/VILLUPURAM/data=!4m7!3m6!1s0x3a5356c74fcfc6c9:0x518a862a93c8d9a5!8m2!3d11.9488635!4d79.493576!16s%2Fg%2F1tf6kmp5!19sChIJycbPT8dWUzoRpdnIkyqGilE?authuser=0&hl=en&rclk=1,"11.9488635,79.49357599999999"
Masjid Mohamadiya Ahle Hadees,Mosque,"WGW2+W98 Masjid Mohamadiya Ahle Hadees, Keezperum Pakkam, Viluppuram, Tamil Nadu 605602",Keezperum Pakkam,WGW2+W98,Viluppuram,605602,Tamil Nadu,IN,https://www.google.com/maps/place/Masjid+Mohamadiya+Ahle+Hadees/data=!4m7!3m6!1s0x3a5356c3a2033bff:0x60573cfe3465c245!8m2!3d11.9472814!4d79.5009568!16s%2Fg%2F12qg0_4rm!19sChIJ_zsDosNWUzoRRcJlNP48V2A?authuser=0&hl=en&rclk=1,"11.9472814,79.5009568"
Jamia Ahle-Hadees Masjid,Mosque,"WFXX+234 Jamia Ahle-Hadees Masjid, Thaikkal St, Pettai, Viluppuram, Tamil Nadu 605602",Pettai,"WFXX+234, Thaikkal St",Viluppuram,605602,Tamil Nadu,IN,https://www.google.com/maps/place/Jamia+Ahle-Hadees+Masjid/data=!4m7!3m6!1s0x3a535743a841eddd:0xc5fee3acf23f3aff!8m2!3d11.9475057!4d79.497688!16s%2Fg%2F11gx_4l682!19sChIJ3e1BqENXUzoR_zo_8qzj_sU?authuser=0&hl=en&rclk=1,"11.947505699999999,79.497688"
Makkah Masjid,Mosque,"Makkah Masjid, razak lay out 4th street",Keezperum Pakkam,razak lay out 4th street,Viluppuram,,Tamil Nadu,IN,https://www.google.com/maps/place/Makkah+Masjid/data=!4m7!3m6!1s0x3a5356c484d7e683:0x2d23c8e0d241ac0!8m2!3d11.949166!4d79.5019418!16s%2Fg%2F11cmmrmbmd!19sChIJg-bXhMRWUzoRwBokDY480gI?authuser=0&hl=en&rclk=1,"11.949166,79.5019418"
Masjidur Rahman,Mosque,"Masjidur Rahman, 4/36 KuppusamiStrert, E Pondy Rd, Keezperum Pakkam, Viluppuram, Tamil Nadu 605602",Keezperum Pakkam,"4/36 KuppusamiStrert, E Pondy Rd","Viluppuram, V. Marudur",605602,Tamil Nadu,IN,https://www.google.com/maps/place/Masjidur+Rahman/data=!4m7!3m6!1s0x3a5356e8ac1852cb:0x39bc246b4307b568!8m2!3d11.9379628!4d79.503627!16s%2Fg%2F11d_bkjxjp!19sChIJy1IYrOhWUzoRaLUHQ2skvDk?authuser=0&hl=en&rclk=1,"11.9379628,79.503627"
"Walaja Masjith, North Street Villupuram",Mosque,"Walaja Masjith, North Street Villupuram, 23, Walaja Masjid St, Kamalanagar, Fathima Layout, Viluppuram, Tamil Nadu 605602","Kamalanagar, Fathima Layout","23, Walaja Masjid St",Viluppuram,605602,Tamil Nadu,IN,"https://www.google.com/maps/place/Walaja+Masjith,+North+Street+Villupuram/data=!4m7!3m6!1s0x3a5356c75f526d41:0x1be9ec184662df23!8m2!3d11.9492554!4d79.4938938!16s%2Fg%2F11cst0bjdr!19sChIJQW1SX8dWUzoRI99iRhjs6Rs?authuser=0&hl=en&rclk=1","11.9492554,79.4938938"
Mosque,Mosque,"Mosque, 7, KK Rd, K K Nagar, Viluppuram, Tamil Nadu 605602",K K Nagar,"7, KK Rd",Viluppuram,605602,Tamil Nadu,IN,https://www.google.com/maps/place/Mosque/data=!4m7!3m6!1s0x3a5356949c54cb35:0x2b80c701ffb12904!8m2!3d11.9372047!4d79.490974!16s%2Fg%2F11g8gtqbxq!19sChIJNctUnJRWUzoRBCmx_wHHgCs?authuser=0&hl=en&rclk=1,"11.937204699999999,79.490974"
Haji Mansoorsha Masjid,Mosque,"WFRR+WWW Haji Mansoorsha Masjid, Bagarsha Street, Viluppuram, Tamil Nadu 605602",Thiru Vi Ka Street,"WFRR+WWW, Bagarsha Street",Viluppuram,605602,Tamil Nadu,IN,https://www.google.com/maps/place/Haji+Mansoorsha+Masjid/data=!4m7!3m6!1s0x3a53569550d67915:0xd03288d0edd40ab1!8m2!3d11.9423523!4d79.4923391!16s%2Fg%2F11dxlcwzs5!19sChIJFXnWUJVWUzoRsQrU7dCIMtA?authuser=0&hl=en&rclk=1,"11.9423523,79.4923391"
Umar Sha Auvilya Majid,Mosque,"XF2Q+97C Umar Sha Auvilya Majid, Unnamed Road, Kamalanagar, Viluppuram, Tamil Nadu 605602",Kamalanagar,"XF2Q+97C, Unnamed Road",Viluppuram,605602,Tamil Nadu,IN,https://www.google.com/maps/place/Umar+Sha+Auvilya+Majid/data=!4m7!3m6!1s0x3a5356b9bffcc919:0x11ffbc38f45643e9!8m2!3d11.9509497!4d79.488145!16s%2Fg%2F11ggf056dh!19sChIJGcn8v7lWUzoR6UNW9Di8_xE?authuser=0&hl=en&rclk=1,"11.950949699999999,79.488145"
Masjid-ey Ilahi,Mosque,"WFXQ+F29 Masjid-ey Ilahi, Virattikuppam Rd, Fathima Layout, Viluppuram, Tamil Nadu 605602",Fathima Layout,"WFXQ+F29, Virattikuppam Rd",Viluppuram,,Tamil Nadu,IN,https://www.google.com/maps/place/Masjid-ey+Ilahi/data=!4m7!3m6!1s0x3a5356b950d2e6f3:0x7ef47b6f00b16bf7!8m2!3d11.9486623!4d79.4876138!16s%2Fg%2F11gdkx1_q4!19sChIJ8-bSULlWUzoR92uxAG979H4?authuser=0&hl=en&rclk=1,"11.948662299999999,79.48761379999999"
Yumiya Jamiya Masjid,Mosque,"Yumiya Jamiya Masjid, 42/36, Sankara Madam St Mandhakarai, Sankaramadam St, Mandhakarai, Viluppuram, Tamil Nadu 605602",Mandhakarai,"42/36, Sankara Madam St Mandhakarai, Sankaramadam St",Viluppuram,605602,Tamil Nadu,IN,https://www.google.com/maps/place/Yumiya+Jamiya+Masjid/data=!4m7!3m6!1s0x3a5356c092a1a243:0x9387157ba2efc8c5!8m2!3d11.9463136!4d79.4942128!16s%2Fg%2F11d_9cw0z7!19sChIJQ6KhksBWUzoRxcjvonsVh5M?authuser=0&hl=en&rclk=1,"11.9463136,79.4942128"
Masjide Mubaaraka,Mosque,"XF3X+9J3 Masjide Mubaaraka, Chitherikarai, Mandapam Village, Viluppuram, Tamil Nadu 605602","Chitherikarai, Mandapam Village",XF3X+9J3,Viluppuram,605602,Tamil Nadu,IN,https://www.google.com/maps/place/Masjide+Mubaaraka/data=!4m7!3m6!1s0x3a5356c5e530f77d:0x274e100820cb45ad!8m2!3d11.9533861!4d79.4990542!16s%2Fg%2F11f_0hnj98!19sChIJffcw5cVWUzoRrUXLIAgQTic?authuser=0&hl=en&rclk=1,"11.9533861,79.4990542"
Masjid-un-Noor,Mosque,"WFQX+FPF Masjid-un-Noor, Mandhakarai, V. Marudur, Tamil Nadu 605602",Mandhakarai,WFQX+FPF,V. Marudur,605602,Tamil Nadu,IN,https://www.google.com/maps/place/Masjid-un-Noor/data=!4m7!3m6!1s0x3a5356e942bec1f3:0x34eaecf74f3f661d!8m2!3d11.9386753!4d79.4992831!16s%2Fg%2F1vzqqply!19sChIJ88G-QulWUzoRHWY_T_fs6jQ?authuser=0&hl=en&rclk=1,"11.9386753,79.4992831"
Masjid Abdullah,Mosque,"Masjid Abdullah, Mosque Street,NH 45, National Highway 45A, Viluppuram, Tamil Nadu 605103",Arumugam Nagar,"Mosque Street,NH 45, National Highway 45A",Viluppuram,605103,Tamil Nadu,IN,https://www.google.com/maps/place/Masjid+Abdullah/data=!4m7!3m6!1s0x3a53570e20f47e81:0x3659d6573507b6b8!8m2!3d11.9328383!4d79.5311226!16s%2Fg%2F1hhwm2_pm!19sChIJgX70IA5XUzoRuLYHNVfWWTY?authuser=0&hl=en&rclk=1,"11.9328383,79.5311226"
Mosque Nidhaye Islam,Mosque,"XF2Q+H6M Mosque Nidhaye Islam, Mazhavanthangal - Gingee Main Rd, Kamalanagar, Gingee, Viluppuram, Tamil Nadu 604202",Kamalanagar,"XF2Q+H6M, Mazhavanthangal - Gingee Main Rd","Gingee, Viluppuram",604202,Tamil Nadu,IN,https://www.google.com/maps/place/Mosque+Nidhaye+Islam/data=!4m7!3m6!1s0x3a5356b99b20791d:0xf3673f7b90a515cc!8m2!3d11.9514716!4d79.4880338!16s%2Fg%2F11csrgww88!19sChIJHXkgm7lWUzoRzBWlkHs_Z_M?authuser=0&hl=en&rclk=1,"11.9514716,79.4880338"
Masjid Umar Farooq,Mosque,"WFJR+2V2 Masjid Umar Farooq, K K Nagar, Viluppuram, Tamil Nadu 605602",K K Nagar,WFJR+2V2,Viluppuram,605602,Tamil Nadu,IN,https://www.google.com/maps/place/Masjid+Umar+Farooq/data=!4m7!3m6!1s0x3a5357f460fb0799:0x79b5b8dcaaad37f1!8m2!3d11.9300211!4d79.4921255!16s%2Fg%2F11h1m4l8jn!19sChIJmQf7YPRXUzoR8Tetqty4tXk?authuser=0&hl=en&rclk=1,"11.9300211,79.4921255"
masjid E Ansari Pallivasal. msjitee annncaari pllllivaacl,Mosque,"WFP9+GVF masjid E Ansari Pallivasal. msjitee annncaari pllllivaacl, Mambalapattu Rd, Indira Nagar, Sri Ganesh Nagar, Viluppuram, Tamil Nadu 605602","Indira Nagar, Sri Ganesh Nagar","WFP9+GVF, Mambalapattu Rd",Viluppuram,605602,Tamil Nadu,IN,https://www.google.com/maps/place/masjid+E+Ansari+Pallivasal.+%E0%AE%AE%E0%AE%B8%E0%AF%8D%E0%AE%9C%E0%AE%BF%E0%AE%A4%E0%AF%87+%E0%AE%85%E0%AE%A9%E0%AF%8D%E0%AE%9A%E0%AE%BE%E0%AE%B0%E0%AE%BF+%E0%AE%AA%E0%AE%B3%E0%AF%8D%E0%AE%B3%E0%AE%BF%E0%AE%B5%E0%AE%BE%E0%AE%9A%E0%AE%B2%E0%AF%8D/data=!4m7!3m6!1s0x3a53557d2a613221:0x168dbc069374a751!8m2!3d11.9363102!4d79.4696783!16s%2Fg%2F11h1yvl55z!19sChIJITJhKn1VUzoRUad0kwa8jRY?authuser=0&hl=en&rclk=1,"11.9363102,79.4696783"
Virattikuppam Road Masjid,Mosque,"1, Virattikuppam Road Masjid, Ponvishalachi, Jayalakshmi Nagar Rd, Selva Nagar, Viluppuram, Tamil Nadu 605604",Selva Nagar,"1, Ponvishalachi, Jayalakshmi Nagar Rd",Viluppuram,605604,Tamil Nadu,IN,https://www.google.com/maps/place/Virattikuppam+Road+Masjid/data=!4m7!3m6!1s0x3a5357f957eae8e3:0x269404d09bbdc53f!8m2!3d11.9486002!4d79.4802773!16s%2Fg%2F11kqd2fqbq!19sChIJ4-jqV_lXUzoRP8W9m9AElCY?authuser=0&hl=en&rclk=1,"11.9486002,79.4802773"
Masjid Ground,Mosque,"WFRR+QMQ Masjid Ground, Bagarsha Street, Viluppuram, Tamil Nadu 605602",Thiru Vi Ka Street,"WFRR+QMQ, Bagarsha Street",Viluppuram,605602,Tamil Nadu,IN,https://www.google.com/maps/place/Masjid+Ground/data=!4m7!3m6!1s0x3a5356954333f139:0x9904ba804597a464!8m2!3d11.9419639!4d79.4917198!16s%2Fg%2F11g6xs8_dm!19sChIJOfEzQ5VWUzoRZKSXRYC6BJk?authuser=0&hl=en&rclk=1,"11.9419639,79.4917198"
Jumma pallivasal,Mosque,"WGG9+3XQ Jumma pallivasal, Gandhi Nagar, Viluppuram, Panampattu, Tamil Nadu 605103",Gandhi Nagar,WGG9+3XQ,"Viluppuram, Panampattu",605103,Tamil Nadu,IN,https://www.google.com/maps/place/Jumma+pallivasal/data=!4m7!3m6!1s0x3a53570e57eebbb7:0x91dfbb41094c3f34!8m2!3d11.9252208!4d79.5199759!16s%2Fg%2F11h9g3sd4f!19sChIJt7vuVw5XUzoRND9MCUG735E?authuser=0&hl=en&rclk=1,"11.9252208,79.51997589999999"
JUMMA MASJITH,Mosque,"WFWR+57Q JUMMA MASJITH, Kamarajar St, Thiru Vi Ka Street, Viluppuram, Tamil Nadu 605602",Thiru Vi Ka Street,"WFWR+57Q, Kamarajar St",Viluppuram,605602,Tamil Nadu,IN,https://www.google.com/maps/place/JUMMA+MASJITH/data=!4m7!3m6!1s0x3a5357f668596d2f:0x4965e080ca3f50d3!8m2!3d11.9454643!4d79.4907254!16s%2Fg%2F11gy7gz103!19sChIJL21ZaPZXUzoR01A_yoDgZUk?authuser=0&hl=en&rclk=1,"11.9454643,79.4907254"
Madeena mahal,Mosque,"WFRP+3F2 Madeena mahal, Selva Nagar, Viluppuram, Tamil Nadu 605602",Selva Nagar,WFRP+3F2,Viluppuram,,Tamil Nadu,IN,https://www.google.com/maps/place/Madeena+mahal/data=!4m7!3m6!1s0x3a5357071545105f:0x1194d10512a7047b!8m2!3d11.9401378!4d79.4861449!16s%2Fg%2F11t3hwd2vf!19sChIJXxBFFQdXUzoRewSnEgXRlBE?authuser=0&hl=en&rclk=1,"11.940137799999999,79.4861449"
taahaa pllllivaacl,Mosque,"WGG9+3XQ taahaa pllllivaacl, Gandhi Nagar, Viluppuram, Panampattu, Tamil Nadu 605103",Gandhi Nagar,WGG9+3XQ,"Viluppuram, Panampattu",605103,Tamil Nadu,IN,https://www.google.com/maps/place/%E0%AE%A4%E0%AE%BE%E0%AE%B9%E0%AE%BE+%E0%AE%AA%E0%AE%B3%E0%AF%8D%E0%AE%B3%E0%AE%BF%E0%AE%B5%E0%AE%BE%E0%AE%9A%E0%AE%B2%E0%AF%8D/data=!4m7!3m6!1s0x3a5357b74127da61:0x6305661fddb2e762!8m2!3d11.9252219!4d79.5199682!16s%2Fg%2F11ty2c4z_y!19sChIJYdonQbdXUzoRYuey3R9mBWM?authuser=0&hl=en&rclk=1,"11.925221899999999,79.5199682"
Masjid Taqwa Ahle Hadees,Mosque,"Masjid Taqwa Ahle Hadees, 159, Agaram, Pettai Main Rd, Chitherikarai, Mandapam Village, Viluppuram, Tamil Nadu 605604","Chitherikarai, Mandapam Village","159, Agaram, Pettai Main Rd",Viluppuram,605604,Tamil Nadu,IN,https://www.google.com/maps/place/Masjid+Taqwa+Ahle+Hadees/data=!4m7!3m6!1s0x3a5357ac46d29c2f:0x13b4e46b716ce135!8m2!3d11.9533837!4d79.4955911!16s%2Fg%2F11jz6g301m!19sChIJL5zSRqxXUzoRNeFscWvktBM?authuser=0&hl=en&rclk=1,"11.9533837,79.4955911"
Mosque,Mosque,"WF7H+34G Mosque, Thanthai Periyar Nagar, Viluppuram, Tamil Nadu 605401",Thanthai Periyar Nagar,WF7H+34G,Viluppuram,605401,Tamil Nadu,IN,https://www.google.com/maps/place/Mosque/data=!4m7!3m6!1s0x3a53567b9613ffff:0x3070e52c2f8143db!8m2!3d11.912684!4d79.4778369!16s%2Fg%2F11tgg7rjjg!19sChIJ__8TlntWUzoR20OBLyzlcDA?authuser=0&hl=en&rclk=1,"11.912683999999999,79.4778369"
Masjid,Mosque,"Masjid, 28/11, Cinger Main Rd, Ayyampalayam, Thanthai Periyar Nagar, Viluppuram, Tamil Nadu 605604",Thanthai Periyar Nagar,"28/11, Cinger Main Rd, Ayyampalayam",Viluppuram,605604,Tamil Nadu,IN,https://www.google.com/maps/place/Masjid/data=!4m7!3m6!1s0x3a53571d1372888d:0x6abb6c8d3bdff461!8m2!3d11.9588552!4d79.488383!16s%2Fg%2F11jskxzvlg!19sChIJjYhyEx1XUzoRYfTfO41su2o?authuser=0&hl=en&rclk=1,"11.958855199999999,79.488383"
masjideh abdul azeez,Mosque,"9, masjideh abdul azeez, 9, Villupuram-Mambalapattu-Tirukkovilur Rd, Vandimedu, Balasubramaniyan Nagar, Viluppuram, Tamil Nadu 605604","Vandimedu, Balasubramaniyan Nagar","9, 9, Villupuram-Mambalapattu-Tirukkovilur Rd",Viluppuram,605604,Tamil Nadu,IN,https://www.google.com/maps/place/masjideh+abdul+azeez/data=!4m7!3m6!1s0x3a53572eddbc068b:0x3b6fcf511ec42fc7!8m2!3d11.9391386!4d79.4781803!16s%2Fg%2F11s5yjr40w!19sChIJiwa83S5XUzoRxy_EHlHPbzs?authuser=0&hl=en&rclk=1,"11.9391386,79.47818029999999"
Thatha masjid,Mosque,"WGG9+7V3 Thatha masjid, Gandhi Nagar, Viluppuram, Panampattu, Tamil Nadu 605103",Gandhi Nagar,WGG9+7V3,"Viluppuram, Panampattu",605103,Tamil Nadu,IN,https://www.google.com/maps/place/Thatha+masjid/data=!4m7!3m6!1s0x3a53577e9940f5e3:0x17f59188326e37ac!8m2!3d11.925636!4d79.5196739!16s%2Fg%2F11sstmh41f!19sChIJ4_VAmX5XUzoRrDduMoiR9Rc?authuser=0&hl=en&rclk=1,"11.925635999999999,79.5196739"
AbuBakkar Siddique Masjid,Mosque,"AbuBakkar Siddique Masjid, Murugaiya Nagar, Virattikuppam Rd, Vandimedu, Viluppuram, Tamil Nadu 605602",Vandimedu,"Murugaiya Nagar, Virattikuppam Rd",Viluppuram,605602,Tamil Nadu,IN,https://www.google.com/maps/place/AbuBakkar+Siddique+Masjid/data=!4m7!3m6!1s0x3a5357df7248dc6b:0x5b53414daa9abf82!8m2!3d11.9485679!4d79.4812472!16s%2Fg%2F11vhqg3_32!19sChIJa9xIct9XUzoRgr-aqk1BU1s?authuser=0&hl=en&rclk=1,"11.948567899999999,79.4812472"
"TNTJ Villupuram HO, Vandimedu Branch, Villupuram",Mosque,"TNTJ Villupuram HO, Vandimedu Branch, Villupuram, 34, Singarathoppu St, Fathima Layout, Viluppuram, Tamil Nadu 605602",Fathima Layout,"34, Singarathoppu St",Viluppuram,605602,Tamil Nadu,IN,"https://www.google.com/maps/place/TNTJ+Villupuram+HO,+Vandimedu+Branch,+Villupuram/data=!4m7!3m6!1s0x3a5357fcb3ff8c7b:0x4c4a08df472156d3!8m2!3d11.9464829!4d79.4883!16s%2Fg%2F11n5wd2pt7!19sChIJe4z_s_xXUzoR01YhR98ISkw?authuser=0&hl=en&rclk=1","11.9464829,79.4883"
