name,main_category,address,address_ward,address_street,address_city,address_postal_code,address_state,address_country_code,link,coordinates
Jama Masjid,Mosque,"Jama Masjid, Old Delhi, Delhi, 110006","Jama Masjid, Old Delhi",,Delhi,110006,Delhi,IN,https://www.google.com/maps/place/Jama+Masjid/data=!4m7!3m6!1s0x390cfd18df89b215:0xdd57369e29bf9d96!8m2!3d28.6506792!4d77.2334421!16zL20vMDR5emo1!19sChIJFbKJ3xj9DDkRlp2_KZ42V90?authuser=0&hl=en&rclk=1,"28.6506792,77.23344209999999"
Masjid Abu bakar R.z Ahle Hadees,Mosque,"Masjid Abu bakar R.z Ahle Hadees, G.336 Juma bazar Road, Shaheed Nagar, Ghaziabad, Uttar Pradesh 201005",Shaheed Nagar,G.336 Juma bazar Road,Ghaziabad,201005,Uttar Pradesh,IN,https://www.google.com/maps/place/Masjid+Abu+bakar+R.z+Ahle+Hadees/data=!4m7!3m6!1s0x390cfb8374f606bb:0x8cdb3f4f490e4a2e!8m2!3d28.6806126!4d77.3359288!16s%2Fg%2F11h1pdqs72!19sChIJuwb2dIP7DDkRLkoOSU8_24w?authuser=0&hl=en&rclk=1,"28.6806126,77.33592879999999"
Jama Masjid,Mosque,"6J29+948 Jama Masjid, Kayasthwara Mohalla, Rewari, Kanmajra, Haryana 123401",Kayasthwara Mohalla,6J29+948,"Rewari, Kanmajra",123401,Haryana,IN,https://www.google.com/maps/place/Jama+Masjid/data=!4m7!3m6!1s0x390d5a9f79665751:0x8f45f817913a0c5a!8m2!3d28.2009209!4d76.6178169!16s%2Fg%2F11h0_z_pg!19sChIJUVdmeZ9aDTkRWgw6kRf4RY8?authuser=0&hl=en&rclk=1,"28.2009209,76.6178169"
Jama Masjid Baldana Shafipur,Mosque,"Jama Masjid Baldana Shafipur, Unnamed Road, Rampur, Uttar Pradesh 246734",,Unnamed Road,Rampur,246734,Uttar Pradesh,IN,https://www.google.com/maps/place/Jama+Masjid+Baldana+Shafipur/data=!4m7!3m6!1s0x390bb9d89ec65251:0x83ceed1f865e2375!8m2!3d29.2087315!4d78.3974486!16s%2Fg%2F11h256961s!19sChIJUVLGnti5CzkRdSNehh_tzoM?authuser=0&hl=en&rclk=1,"29.2087315,78.39744859999999"
Dhaka Basti Masjid,Mosque,"5JRC+PGV Dhaka Basti Masjid, Rajeev Nagar, krishna Nagar, Rewari, Haryana 123401","Rajeev Nagar, krishna Nagar",5JRC+PGV,Rewari,123401,Haryana,IN,https://www.google.com/maps/place/Dhaka+Basti+Masjid/data=!4m7!3m6!1s0x390d500c9486d085:0xf39f260c28ea5228!8m2!3d28.1918701!4d76.6212863!16s%2Fg%2F11f2w5j6wq!19sChIJhdCGlAxQDTkRKFLqKAwmn_M?authuser=0&hl=en&rclk=1,"28.1918701,76.6212863"
Masjid Sharif (Sheikho Bali),Mosque,"Masjid Sharif (Sheikho Bali), Jatt Colany, Chandausi, Uttar Pradesh 244412",Jatt Colany,,Chandausi,244412,Uttar Pradesh,IN,https://www.google.com/maps/place/Masjid+Sharif+%28Sheikho+Bali%29/data=!4m7!3m6!1s0x390adba8d855be1b:0x1068d13d23c775b1!8m2!3d28.4502394!4d78.7882219!16s%2Fg%2F11c3k562lp!19sChIJG75V2KjbCjkRsXXHIz3RaBA?authuser=0&hl=en&rclk=1,"28.450239399999997,78.7882219"
Noori Jamia Masjid,Mosque,"CWWR+G7H Noori Jamia Masjid, Chak 60 JB Shahbazpur, Faisalabad, Punjab, Pakistan",,CWWR+G7H,Chak 60 JB Shahbazpur,,"Faisalabad, Punjab",PK,https://www.google.com/maps/place/Noori+Jamia+Masjid/data=!4m7!3m6!1s0x392245ca07a5f7d5:0xf8172c5b7b3a9aa3!8m2!3d31.4463074!4d72.9407312!16s%2Fg%2F11c5rty6tk!19sChIJ1felB8pFIjkRo5o6e1ssF_g?authuser=0&hl=en&rclk=1,"31.4463074,72.9407312"
Lal Masjid,Mosque,"QHC4+FG7 Lal Masjid, Shahbazpur Kalan, Uttar Pradesh 244102",,QHC4+FG7,Shahbazpur Kalan,244102,Uttar Pradesh,IN,https://www.google.com/maps/place/Lal+Masjid/data=!4m7!3m6!1s0x390b0499b8f8e845:0xd604a52c4fc31ff7!8m2!3d28.7711508!4d78.5562972!16s%2Fg%2F11fxccg1vz!19sChIJRej4uJkECzkR9x_DTyylBNY?authuser=0&hl=en&rclk=1,"28.771150799999997,78.5562972"
Salamba Eidgah,Mosque,"Salamba Eidgah, MDR134, Salamba, Haryana 122107",,MDR134,Salamba,122107,Haryana,IN,https://www.google.com/maps/place/Salamba+Eidgah/data=!4m7!3m6!1s0x390d2dba5411d0df:0xe7a879bad45efed7!8m2!3d28.1157136!4d77.0429379!16s%2Fg%2F11b8_8v_0t!19sChIJ39ARVLotDTkR1_5e1Lp5qOc?authuser=0&hl=en&rclk=1,"28.1157136,77.0429379"
"Badi Masjid ,Pavi",Place of worship,"Q7GM+56X Badi Masjid ,Pavi, Om Sai City, Pavi Sadakpur, Uttar Pradesh 201102",Om Sai City,Q7GM+56X,Pavi Sadakpur,201102,Uttar Pradesh,IN,"https://www.google.com/maps/place/Badi+Masjid+,Pavi/data=!4m7!3m6!1s0x390cff2c53da0bdf:0xa25a4bc0b00aca37!8m2!3d28.775475!4d77.2831224!16s%2Fg%2F11c6cqx39d!19sChIJ3wvaUyz_DDkRN8oKsMBLWqI?authuser=0&hl=en&rclk=1","28.775475,77.2831224"
Haroon Sweets,Restaurant,"Haroon Sweets, Shahbazpur Kalan, Uttar Pradesh 244102",,,Shahbazpur Kalan,244102,Uttar Pradesh,IN,https://www.google.com/maps/place/Haroon+Sweets/data=!4m7!3m6!1s0x390b052ee25b87b1:0x54126b2be04b0b2!8m2!3d28.7708787!4d78.556484!16s%2Fg%2F11m460t434!19sChIJsYdb4i4FCzkRsrAEvrImQQU?authuser=0&hl=en&rclk=1,"28.770878699999997,78.556484"
Jama Masjid Shakarpur Samaspur(jaamaa msjid shkrpur smspur),Mosque,"R9G4+QGH Jama Masjid Shakarpur Samaspur(jaamaa msjid shkrpur smspur), Sakarpur Samaspur, Uttar Pradesh 244236",,R9G4+QGH,Sakarpur Samaspur,244236,Uttar Pradesh,IN,https://www.google.com/maps/place/Jama+Masjid+Shakarpur+Samaspur%28%E0%A4%9C%E0%A4%BE%E0%A4%AE%E0%A4%BE+%E0%A4%AE%E0%A4%B8%E0%A5%8D%E0%A4%9C%E0%A4%BF%E0%A4%A6+%E0%A4%B6%E0%A4%95%E0%A4%B0%E0%A4%AA%E0%A5%81%E0%A4%B0+%E0%A4%B8%E0%A4%AE%E0%A4%B8%E0%A4%AA%E0%A5%81%E0%A4%B0%29/data=!4m7!3m6!1s0x390b0bfb0d11f85b:0xae22079b4fab96b3!8m2!3d28.8269404!4d78.3563466!16s%2Fg%2F11f8jy1dg6!19sChIJW_gRDfsLCzkRs5arT5sHIq4?authuser=0&hl=en&rclk=1,"28.826940399999998,78.3563466"
Madina Mosque,Mosque,"946Q+MJJ Madina Mosque, Furkan Bagh Colony, Bijnor, Uttar Pradesh 246701",Furkan Bagh Colony,946Q+MJJ,Bijnor,246701,Uttar Pradesh,IN,https://www.google.com/maps/place/Madina+Mosque/data=!4m7!3m6!1s0x390bee720090707f:0xfa96afe4095a4294!8m2!3d29.3617134!4d78.1390211!16s%2Fg%2F11b7cjk18h!19sChIJf3CQAHLuCzkRlEJaCeSvlvo?authuser=0&hl=en&rclk=1,"29.3617134,78.1390211"
SHAHBAJPUR MASJID & MADARSA,Mosque,"RGX4+V3G SHAHBAJPUR MASJID & MADARSA, Simarwara, Bihar 843110",,RGX4+V3G,Simarwara,,Bihar,IN,https://www.google.com/maps/place/SHAHBAJPUR+MASJID+%26+MADARSA/data=!4m7!3m6!1s0x39ed7139375dcb43:0x9515f79c709897c6!8m2!3d25.849683!4d85.505191!16s%2Fg%2F11gdzhz5d0!19sChIJQ8tdNzlx7TkRxpeYcJz3FZU?authuser=0&hl=en&rclk=1,"25.849683,85.505191"
Shahabate Rasool Masjid,Mosque,"Q78F+QJG Shahabate Rasool Masjid, Loni, Azad Vihar, Khora Colony, Sector 62A, Noida, Uttar Pradesh","Azad Vihar, Khora Colony, Sector 62A","Q78F+QJG, Loni","Noida, Ghaziabad",,Uttar Pradesh,IN,https://www.google.com/maps/place/Shahabate+Rasool+Masjid/data=!4m7!3m6!1s0x390cff27f74f9b03:0xd609160ed60edb1c!8m2!3d28.7669479!4d77.2740907!16s%2Fg%2F11f1jwz7lz!19sChIJA5tP9yf_DDkRHNsO1g4WCdY?authuser=0&hl=en&rclk=1,"28.766947899999998,77.2740907"
Chand Wali Masjid,Mosque,"QHC5+28X Chand Wali Masjid, Shahbazpur Kalan, Uttar Pradesh 244102",,QHC5+28X,Shahbazpur Kalan,244102,Uttar Pradesh,IN,https://www.google.com/maps/place/Chand+Wali+Masjid/data=!4m7!3m6!1s0x390b0498e367e9b7:0x7ba8d25c9d76d448!8m2!3d28.7701037!4d78.5583713!16s%2Fg%2F11fxvs9_8h!19sChIJt-ln45gECzkRSNR2nVzSqHs?authuser=0&hl=en&rclk=1,"28.7701037,78.55837129999999"
Aala Hajrat Masjid Bhawalpur Mafi,Mosque,"QGCQ+88F Aala Hajrat Masjid Bhawalpur Mafi, Kamalpur Zaid, Uttar Pradesh 244245",,QGCQ+88F,Kamalpur Zaid,244245,Uttar Pradesh,IN,https://www.google.com/maps/place/Aala+Hajrat+Masjid+Bhawalpur+Mafi/data=!4m7!3m6!1s0x390b053f6446cf99:0x1065e357a056f842!8m2!3d28.7708064!4d78.5382839!16s%2Fg%2F11flrxrz1z!19sChIJmc9GZD8FCzkRQvhWoFfjZRA?authuser=0&hl=en&rclk=1,"28.770806399999998,78.5382839"
Jamia Arabia Minhajul-Uloom,Mosque,"P8GP+W57 Jamia Arabia Minhajul-Uloom, Tila More, Ghaziabad, Uttar Pradesh 201102",Tila More,P8GP+W57,Ghaziabad,201102,Uttar Pradesh,IN,https://www.google.com/maps/place/Jamia+Arabia+Minhajul-Uloom/data=!4m7!3m6!1s0x390cf98089cb5cb9:0x23e3db14842f4792!8m2!3d28.7272896!4d77.3354335!16s%2Fg%2F11g9vns35j!19sChIJuVzLiYD5DDkRkkcvhBTb4yM?authuser=0&hl=en&rclk=1,"28.7272896,77.3354335"
Badaun Marbel sahaswan,Store,"Badaun Marbel sahaswan, moh, near Jama Masjid, Shahbazpur, Sahaswan, Uttar Pradesh 243638",Shahbazpur,"moh, near Jama Masjid",Sahaswan,243638,Uttar Pradesh,IN,https://www.google.com/maps/place/Badaun+Marbel+sahaswan/data=!4m7!3m6!1s0x39752f20d7859f41:0xc3746132c6742a09!8m2!3d28.0674396!4d78.7648773!16s%2Fg%2F11gf5zmkjj!19sChIJQZ-F1yAvdTkRCSp0xjJhdMM?authuser=0&hl=en&rclk=1,"28.0674396,78.7648773"
Jama Masjid,Mosque,"QH95+QPC Jama Masjid, Shahbazpur Kalan, Uttar Pradesh 244102",,QH95+QPC,Shahbazpur Kalan,244102,Uttar Pradesh,IN,https://www.google.com/maps/place/Jama+Masjid/data=!4m7!3m6!1s0x390b0498c3e05c33:0x75ca42495cac54ae!8m2!3d28.7694292!4d78.5592597!16s%2Fg%2F11d_tc52x4!19sChIJM1zgw5gECzkRrlSsXElCynU?authuser=0&hl=en&rclk=1,"28.769429199999998,78.5592597"
Rajapur Ghalibpur Jama Masjid,Mosque,"QHCF+7G8 Rajapur Ghalibpur Jama Masjid, Rajapur Ghalibpur, Uttar Pradesh 244102",,QHCF+7G8,Rajapur Ghalibpur,244102,Uttar Pradesh,IN,https://www.google.com/maps/place/Rajapur+Ghalibpur+Jama+Masjid/data=!4m7!3m6!1s0x390b03fab8573171:0x5d11a8b7893f7b34!8m2!3d28.7706727!4d78.5738147!16s%2Fg%2F11ftb2vwmx!19sChIJcTFXuPoDCzkRNHs_ibeoEV0?authuser=0&hl=en&rclk=1,"28.7706727,78.5738147"
Idgah Chote Khutba,Mosque,"Idgah Chote Khutba, 242001, Eidgah Road, Uttar Pradesh 209505",Aligai,"242001, Eidgah Road",Shahjahanpur,209505,Uttar Pradesh,IN,https://www.google.com/maps/place/Idgah+Chote+Khutba/data=!4m7!3m6!1s0x399fbd21ec4a4567:0x2e0d41891d1d9d1f!8m2!3d27.8858143!4d79.8980325!16s%2Fg%2F11f0_dltzs!19sChIJZ0VK7CG9nzkRH50dHYlBDS4?authuser=0&hl=en&rclk=1,"27.8858143,79.8980325"
Masjid,Mosque,"RX74+6HJ Masjid, near NH 248A, Dhanwala, Haryana 122104",,"RX74+6HJ, near NH 248A",Dhanwala,122104,Haryana,IN,https://www.google.com/maps/place/Masjid/data=!4m7!3m6!1s0x3972c453b844f149:0x24ec54e8ddf55acd!8m2!3d27.8130983!4d76.9563768!16s%2Fg%2F11ggbl6j5z!19sChIJSfFEuFPEcjkRzVr13ehU7CQ?authuser=0&hl=en&rclk=1,"27.8130983,76.9563768"
Noori Masjid Mohlla Dehliz,Mosque,"3PFX+93R Noori Masjid Mohlla Dehliz, Khairpur Khairati, Budaun, Sahaswan, Uttar Pradesh 243638",Khairpur Khairati,3PFX+93R,"Budaun, Sahaswan",,Uttar Pradesh,IN,https://www.google.com/maps/place/Noori+Masjid+Mohlla+Dehliz/data=!4m7!3m6!1s0x3975292b4b5334f1:0x11c7dbdabebff88a!8m2!3d28.0734869!4d78.7476281!16s%2Fg%2F11hbhh1pvq!19sChIJ8TRTSyspdTkRivi_vtrbxxE?authuser=0&hl=en&rclk=1,"28.0734869,78.7476281"
mdiinaa msjid mohllaa kttraa,Place of worship,"3Q86+CH9 mdiinaa msjid mohllaa kttraa, kttraa, Sahaswan, Uttar Pradesh 243638",kttraa,3Q86+CH9,Sahaswan,243638,Uttar Pradesh,IN,https://www.google.com/maps/place/%E0%A4%AE%E0%A4%A6%E0%A5%80%E0%A4%A8%E0%A4%BE+%E0%A4%AE%E0%A4%B8%E0%A5%8D%E0%A4%9C%E0%A4%BF%E0%A4%A6+%E0%A4%AE%E0%A5%8B%E0%A4%B9%E0%A4%B2%E0%A5%8D%E0%A4%B2%E0%A4%BE+%E0%A4%95%E0%A4%9F%E0%A4%B0%E0%A4%BE/data=!4m7!3m6!1s0x39752f11efebb995:0x3fe4b06285d08e0c!8m2!3d28.0660423!4d78.7614916!16s%2Fg%2F11grbty_77!19sChIJlbnr7xEvdTkRDI7QhWKw5D8?authuser=0&hl=en&rclk=1,"28.0660423,78.7614916"
Saiyad Baba Ki Mazar,Shrine,"3H9H+F58 Saiyad Baba Ki Mazar, Bawal, Haryana 123501",,3H9H+F58,Bawal,123501,Haryana,IN,https://www.google.com/maps/place/Saiyad+Baba+Ki+Mazar/data=!4m7!3m6!1s0x390d53bb593a7e05:0x86fce58a4ff2a8c2!8m2!3d28.0686713!4d76.5779499!16s%2Fg%2F11f2wr5gtc!19sChIJBX46WbtTDTkRwqjyT4rl_IY?authuser=0&hl=en&rclk=1,"28.0686713,76.5779499"
Ijaba Masjid,Mosque,"Ijaba Masjid, 1489/16, Block D, Chand Vihar, New Mustafabad, Delhi, 110094","Block D, Chand Vihar, New Mustafabad",1489/16,Delhi,110094,Delhi,IN,https://www.google.com/maps/place/Ijaba+Masjid/data=!4m7!3m6!1s0x390cfd4112cff819:0x124578cf76e8540b!8m2!3d28.7086594!4d77.2713446!16s%2Fg%2F11j08711wr!19sChIJGfjPEkH9DDkRC1Tods94RRI?authuser=0&hl=en&rclk=1,"28.7086594,77.27134459999999"
Masjid,Mosque,"Q7JJ+7WC Masjid, Pavi Sadakpur, Uttar Pradesh 201102",,Q7JJ+7WC,Pavi Sadakpur,201102,Uttar Pradesh,IN,https://www.google.com/maps/place/Masjid/data=!4m7!3m6!1s0x390cff3247b3c4d7:0xf1b7407f946dd8cc!8m2!3d28.7806806!4d77.2822504!16s%2Fg%2F11ggz8tfhy!19sChIJ18SzRzL_DDkRzNhtlH9At_E?authuser=0&hl=en&rclk=1,"28.7806806,77.2822504"
Masjid,Mosque,"Q6MJ+5H5 Masjid, Badarpur, Madanpur Khadar, New Delhi, 110084",Madanpur Khadar,"Q6MJ+5H5, Badarpur","New Delhi, Delhi",110084,Delhi,IN,https://www.google.com/maps/place/Masjid/data=!4m7!3m6!1s0x390cffb780460377:0x9fe224e9c653e965!8m2!3d28.7828891!4d77.2314704!16s%2Fg%2F11qn790lvq!19sChIJdwNGgLf_DDkRZelTxukk4p8?authuser=0&hl=en&rclk=1,"28.7828891,77.23147039999999"
Eid Gah,Mosque,"QH74+7PC Eid Gah, Talwar, Uttar Pradesh 244102",,QH74+7PC,Talwar,244102,Uttar Pradesh,IN,https://www.google.com/maps/place/Eid+Gah/data=!4m7!3m6!1s0x390b055b6c0a881b:0x1954b6267a8574f3!8m2!3d28.7631971!4d78.5567673!16s%2Fg%2F11nmlhvqwb!19sChIJG4gKbFsFCzkR83SFeia2VBk?authuser=0&hl=en&rclk=1,"28.7631971,78.55676729999999"
New Masjid Begampur,Mosque,"New Masjid Begampur, 26, Begumpur, New Delhi, Delhi 110017",Begumpur,26,New Delhi,110017,Delhi,IN,https://www.google.com/maps/place/New+Masjid+Begampur/data=!4m7!3m6!1s0x390ce30ae2909c87:0x4a3dda5610ebfb86!8m2!3d28.5380415!4d77.2083668!16s%2Fg%2F11t59h8jbc!19sChIJh5yQ4grjDDkRhvvrEFbaPUo?authuser=0&hl=en&rclk=1,"28.5380415,77.2083668"
Masjid,Mosque,"3PCR+7H3 Masjid, Khairpur Khairati, Sahaswan, Uttar Pradesh 243638",Khairpur Khairati,3PCR+7H3,Sahaswan,243638,Uttar Pradesh,IN,https://www.google.com/maps/place/Masjid/data=!4m7!3m6!1s0x397529733d0191f5:0xaa806100cfc5516b!8m2!3d28.0706408!4d78.7414134!16s%2Fg%2F11h6m989q6!19sChIJ9ZEBPXMpdTkRa1HFzwBhgKo?authuser=0&hl=en&rclk=1,"28.0706408,78.7414134"
Haji Isab Wali Masjid,Mosque,"6338+98G Haji Isab Wali Masjid, Kanwarsika, Raisika, Haryana 122103",,6338+98G,"Kanwarsika, Raisika",122103,Haryana,IN,https://www.google.com/maps/place/Haji+Isab+Wali+Masjid/data=!4m7!3m6!1s0x390d2f04eff9593b:0xeb40b114ad1e3c4d!8m2!3d28.2034288!4d77.0658255!16s%2Fg%2F11g9fmngdh!19sChIJO1n57wQvDTkRTTwerRSxQOs?authuser=0&hl=en&rclk=1,"28.203428799999998,77.0658255"
Mohammadi Masjid,Mosque,"Mohammadi Masjid, 1094/44, Rampuri, Muzaffarnagar, Uttar Pradesh 251001",Rampuri,1094/44,Muzaffarnagar,251001,Uttar Pradesh,IN,https://www.google.com/maps/place/Mohammadi+Masjid/data=!4m7!3m6!1s0x390c1be46cfe0179:0x5e19e2022e66a891!8m2!3d29.4842418!4d77.6927448!16s%2Fg%2F11h48wrn9n!19sChIJeQH-bOQbDDkRkahmLgLiGV4?authuser=0&hl=en&rclk=1,"29.4842418,77.6927448"
Shahi Eid Gah,Mosque,"XCXW+JH9 Shahi Eid Gah, Shahjahanpur, Rajasthan 301706",,XCXW+JH9,Shahjahanpur,301706,Rajasthan,IN,https://www.google.com/maps/place/Shahi+Eid+Gah/data=!4m7!3m6!1s0x3912ab42f44e13a3:0x9585c2398c3f37fa!8m2!3d27.999035!4d76.446486!16s%2Fg%2F11h6m6h_fh!19sChIJoxNO9EKrEjkR-jc_jDnChZU?authuser=0&hl=en&rclk=1,"27.999035,76.446486"
Zuneera optical center,Eye care center,"Zuneera optical center, near Lal masjid, near I Khan Mobile Shop, Shahbazpur Kalan, Uttar Pradesh 244102",,"near Lal masjid, near I Khan Mobile Shop",Shahbazpur Kalan,244102,Uttar Pradesh,IN,https://www.google.com/maps/place/Zuneera+optical+center/data=!4m7!3m6!1s0x390b0506cb6efe8f:0x41103baeb5ec6abd!8m2!3d28.7719102!4d78.5570795!16s%2Fg%2F11l6_x715k!19sChIJj_5uywYFCzkRvWrsta47EEE?authuser=0&hl=en&rclk=1,"28.771910199999997,78.5570795"
shaahbaajpur msjid shahbazpur Masjid,Mosque,"4RXW+HF2 shaahbaajpur msjid shahbazpur Masjid, Kansua Rd, Kansua, Bihar 804425",,"4RXW+HF2, Kansua Rd",Kansua,804425,Bihar,IN,https://www.google.com/maps/place/%E0%A4%B6%E0%A4%BE%E0%A4%B9%E0%A4%AC%E0%A4%BE%E0%A4%9C%E0%A4%AA%E0%A5%81%E0%A4%B0+%E0%A4%AE%E0%A4%B8%E0%A5%8D%E0%A4%9C%E0%A4%BF%E0%A4%A6+shahbazpur+Masjid/data=!4m7!3m6!1s0x398d37486175fd97:0xe7d16df791a85d9c!8m2!3d25.1488929!4d84.846136!16s%2Fg%2F11l_fj2qqk!19sChIJl_11YUg3jTkRnF2okfdt0ec?authuser=0&hl=en&rclk=1,"25.1488929,84.846136"
JAMA MASJID E SHAHBAZ PUR jm` msjd shhbz pwr jaamaa msjid e shhbaaj' puur,Mosque,"583F+Q5J JAMA MASJID E SHAHBAZ PUR jm` msjd shhbz pwr jaamaa msjid e shhbaaj' puur, Muzaffarpur, Chiknauta urf Harpur Lahauri, Bihar 843108",,583F+Q5J,"Muzaffarpur, Chiknauta urf Harpur Lahauri",843108,Bihar,IN,https://www.google.com/maps/place/JAMA+MASJID+E+SHAHBAZ+PUR+%D8%AC%D8%A7%D9%85%D8%B9+%D9%85%D8%B3%D8%AC%D8%AF+%D8%B4%DB%81%D8%A8%D8%A7%D8%B2+%D9%BE%D9%88%D8%B1+%E0%A4%9C%E0%A4%BE%E0%A4%AE%E0%A4%BE+%E0%A4%AE%E0%A4%B8%E0%A5%8D%E0%A4%9C%E0%A4%BF%E0%A4%A6+%E0%A4%8F+%E0%A4%B6%E0%A4%B9%E0%A4%AC%E0%A4%BE%E0%A4%9C%E0%A4%BC+%E0%A4%AA%E0%A5%82%E0%A4%B0%E2%80%AD/data=!4m7!3m6!1s0x39ed1735fe6c58e1:0xfcb7e6988f63631f!8m2!3d26.1544518!4d85.3229044!16s%2Fg%2F11p710wgsw!19sChIJ4Vhs_jUX7TkRH2Njj5jmt_w?authuser=0&hl=en&rclk=1,"26.1544518,85.3229044"
QB - Baqala,Mosque,"MVM4+FP5 QB - Baqala, Mahraunda, Shahbazpur, Uttar Pradesh 212507",,MVM4+FP5,"Mahraunda, Shahbazpur",212507,Uttar Pradesh,IN,https://www.google.com/maps/place/QB+-+Baqala/data=!4m7!3m6!1s0x399ac748d047daa5:0xe2a569fcb3eedddb!8m2!3d25.6830823!4d81.8556267!16s%2Fg%2F11k44cplvk!19sChIJpdpH0EjHmjkR293us_xppeI?authuser=0&hl=en&rclk=1,"25.6830823,81.8556267"
Jama masjid Shahbazpur puraina,Mosque,"VFW7+5RP Jama masjid Shahbazpur puraina, Shahwazpur Puraina, Shahbazpur Puraina Balbhadarpu, Bihar 844116",,"VFW7+5RP, Shahwazpur Puraina",Shahbazpur Puraina Balbhadarpu,844116,Bihar,IN,https://www.google.com/maps/place/Jama+masjid+Shahbazpur+puraina/data=!4m7!3m6!1s0x39ed73f0bf6a6d9f:0x6825fa0703bf0b00!8m2!3d25.8954709!4d85.4645879!16s%2Fg%2F11mprvhlxq!19sChIJn21qv_Bz7TkRAAu_Awf6JWg?authuser=0&hl=en&rclk=1,"25.8954709,85.4645879"
Shahi Masjid,Mosque,"P9HF+697 Shahi Masjid, Main Gate, Farrukh nagar, Ghaziabad, Uttar Pradesh",,"P9HF+697, Main Gate, Farrukh nagar","Ghaziabad, Farukh Nagar",,Uttar Pradesh,IN,https://www.google.com/maps/place/Shahi+Masjid/data=!4m7!3m6!1s0x390cfb1d7a720817:0x913a9f49df572a5e!8m2!3d28.7280385!4d77.3734345!16s%2Fg%2F11g_w8n4t1!19sChIJFwhyeh37DDkRXipX30mfOpE?authuser=0&hl=en&rclk=1,"28.7280385,77.3734345"
Masjid Al Qadri,Mosque,"R626+W5H Masjid Al Qadri, Shahbazpur Dor, Uttar Pradesh 244235",,R626+W5H,Shahbazpur Dor,244235,Uttar Pradesh,IN,https://www.google.com/maps/place/Masjid+Al+Qadri/data=!4m7!3m6!1s0x390b73afc01581e7:0xd1275526f2f758de!8m2!3d28.8023236!4d78.2104777!16s%2Fg%2F11kpxz_tq1!19sChIJ54EVwK9zCzkR3lj38iZVJ9E?authuser=0&hl=en&rclk=1,"28.802323599999998,78.2104777"
Masjid,Mosque,"P9HF+33Q Masjid, Farukh Nagar, Uttar Pradesh 201003",,P9HF+33Q,Farukh Nagar,201003,Uttar Pradesh,IN,https://www.google.com/maps/place/Masjid/data=!4m7!3m6!1s0x390cfa018875b495:0xeea7b0caec7e470d!8m2!3d28.7277145!4d77.3727433!16s%2Fg%2F11f0krqvls!19sChIJlbR1iAH6DDkRDUd-7Mqwp-4?authuser=0&hl=en&rclk=1,"28.727714499999998,77.3727433"
Anaar wali masjid,Mosque,"Anaar wali masjid, 243601, Shahbazpur, Sahaswan, Uttar Pradesh",Shahbazpur,243601,"Sahaswan, Budaun",,Uttar Pradesh,IN,https://www.google.com/maps/place/Anaar+wali+masjid/data=!4m7!3m6!1s0x397545ed27227c71:0x4fe0c120bb511495!8m2!3d28.0393898!4d79.1313126!16s%2Fg%2F11gb3z8z6n!19sChIJcXwiJ-1FdTkRlRRRuyDB4E8?authuser=0&hl=en&rclk=1,"28.0393898,79.1313126"
Masjid abubakar,Mosque,"85FM+2GP Masjid abubakar, Alampur, Kot, Haryana 121004",,85FM+2GP,"Alampur, Kot",121004,Haryana,IN,https://www.google.com/maps/place/Masjid+abubakar/data=!4m7!3m6!1s0x390d270e24d44b11:0xa4ec04fb8d76cead!8m2!3d28.3211914!4d77.1822679!16s%2Fg%2F11t_q9r92g!19sChIJEUvUJA4nDTkRrc52jfsE7KQ?authuser=0&hl=en&rclk=1,"28.3211914,77.1822679"
Masjid Bilal R.A. (Mosque),Mosque,"FMCP+G64 Masjid Bilal R.A. (Mosque), SHAMLI, Muzaffarnagar, Uttar Pradesh 251002",SHAMLI,FMCP+G64,Muzaffarnagar,251002,Uttar Pradesh,IN,https://www.google.com/maps/place/Masjid+Bilal+R.A.+%28Mosque%29/data=!4m7!3m6!1s0x390c1b97aecf94d9:0x7a36026fe86bc28!8m2!3d29.4712527!4d77.6855932!16s%2Fg%2F11fy07wtlz!19sChIJ2ZTPrpcbDDkRKLyG_iZgowc?authuser=0&hl=en&rclk=1,"29.471252699999997,77.6855932"
Tila shahbazpur Loni,Indian restaurant,"P8HG+82M Tila shahbazpur Loni, Tila Shahbazpur, Loni, Ghaziabad, Uttar Pradesh 201102","Tila Shahbazpur, Loni",P8HG+82M,Ghaziabad,201102,Uttar Pradesh,IN,https://www.google.com/maps/place/Tila+shahbazpur+Loni/data=!4m7!3m6!1s0x390cf9403283892d:0x6d5a78757b9075a5!8m2!3d28.7283282!4d77.3250462!16s%2Fg%2F11t1h183tc!19sChIJLYmDMkD5DDkRpXWQe3V4Wm0?authuser=0&hl=en&rclk=1,"28.7283282,77.3250462"
Talwar Kirana & Aata Change Shop,Grocery store,"QH84+9M6 Talwar Kirana & Aata Change Shop, near Noori Masjid, Shahbazpur Kalan, Uttar Pradesh 244102",,"QH84+9M6, near Noori Masjid",Shahbazpur Kalan,244102,Uttar Pradesh,IN,https://www.google.com/maps/place/Talwar+Kirana+%26+Aata+Change+Shop/data=!4m7!3m6!1s0x390b05fd89a84b65:0xa08094b466548b30!8m2!3d28.7659042!4d78.5566513!16s%2Fg%2F11nmlsyncg!19sChIJZUuoif0FCzkRMItUZrSUgKA?authuser=0&hl=en&rclk=1,"28.765904199999998,78.5566513"
Bareilvy Masjid,Mosque,"Bareilvy Masjid, Molana azad colony-2, Behta Hajipur, Ghaziabad, Uttar Pradesh 201102","Tila Shahbazpur, Behta Hajipur",Molana azad colony-2,Ghaziabad,201102,Uttar Pradesh,IN,https://www.google.com/maps/place/Bareilvy+Masjid/data=!4m7!3m6!1s0x390cf94d658380a1:0xb9a805541825a785!8m2!3d28.7270023!4d77.3123396!16s%2Fg%2F11ghdj_w97!19sChIJoYCDZU35DDkRhaclGFQFqLk?authuser=0&hl=en&rclk=1,"28.7270023,77.3123396"
Al Shaba Masjid,Mosque,"Q7JJ+HG7 Al Shaba Masjid, Pavi Sadakpur, Uttar Pradesh 201102",,Q7JJ+HG7,Pavi Sadakpur,201102,Uttar Pradesh,IN,https://www.google.com/maps/place/Al+Shaba+Masjid/data=!4m7!3m6!1s0x390cff59ab93452d:0xf2421782d29386d1!8m2!3d28.7814007!4d77.2813039!16s%2Fg%2F11fpfkyzm6!19sChIJLUWTq1n_DDkR0YaT0oIXQvI?authuser=0&hl=en&rclk=1,"28.7814007,77.2813039"
Masjid,Mosque,"Masjid, 01, Seh, Uttar Pradesh 246727",,01,Seh,246727,Uttar Pradesh,IN,https://www.google.com/maps/place/Masjid/data=!4m7!3m6!1s0x390ba553cd149501:0xb352973c75e7deb9!8m2!3d29.0580863!4d78.4390729!16s%2Fg%2F11lg3d_9kl!19sChIJAZUUzVOlCzkRud7ndTyXUrM?authuser=0&hl=en&rclk=1,"29.0580863,78.4390729"
Gosulwara masjid,Mosque,"Q72W+G9R Gosulwara masjid, Mustafabad, Uttar Pradesh 201102",Mustafabad,Q72W+G9R,,201102,Uttar Pradesh,IN,https://www.google.com/maps/place/Gosulwara+masjid/data=!4m7!3m6!1s0x390cf9ef81571c89:0xb77bdbd6711a246c!8m2!3d28.7513625!4d77.2958906!16s%2Fg%2F11ngtdnrdk!19sChIJiRxXge_5DDkRbCQacdbbe7c?authuser=0&hl=en&rclk=1,"28.7513625,77.29589059999999"
Button Wali Masjid Kanjri Sarai,Mosque,"RQQC+PMG Button Wali Masjid Kanjri Sarai, Punjab Trunk Wali Gali, Pat Pat Sarai, Moradabad, Uttar Pradesh 244001",Pat Pat Sarai,"RQQC+PMG, Punjab Trunk Wali Gali",Moradabad,244001,Uttar Pradesh,IN,https://www.google.com/maps/place/Button+Wali+Masjid+Kanjri+Sarai/data=!4m7!3m6!1s0x390afb776e604433:0x6d655da6ab4a2a5a!8m2!3d28.8393231!4d78.7717116!16s%2Fg%2F11fhz6g3n6!19sChIJM0Rgbnf7CjkRWipKq6ZdZW0?authuser=0&hl=en&rclk=1,"28.839323099999998,78.7717116"
Madina masjid,School,"C92C+X57 Madina masjid, Nizampur Padarath, Shahbajpur, Uttar Pradesh 246733",,C92C+X57,"Nizampur Padarath, Shahbajpur",,Uttar Pradesh,IN,https://www.google.com/maps/place/Madina+masjid/data=!4m7!3m6!1s0x390bc3e95e425c3d:0xd0dfbaccb81acfe8!8m2!3d29.4024005!4d78.3704305!16s%2Fg%2F11kn9tyf2h!19sChIJPVxCXunDCzkR6M8auMy639A?authuser=0&hl=en&rclk=1,"29.4024005,78.3704305"
Imli Wali Masjid,Mosque,"24RH+8CP Imli Wali Masjid, Ticket Ganj Rd, Katrabrahmpur, Budaun, Uttar Pradesh 243601",Katrabrahmpur,"24RH+8CP, Ticket Ganj Rd",Budaun,243601,Uttar Pradesh,IN,https://www.google.com/maps/place/Imli+Wali+Masjid/data=!4m7!3m6!1s0x3975450d86dc0cad:0xba7b25415e46ba0b!8m2!3d28.0408315!4d79.1285689!16s%2Fg%2F11n069n_hg!19sChIJrQzchg1FdTkRC7pGXkEle7o?authuser=0&hl=en&rclk=1,"28.0408315,79.12856889999999"
Memorial Methodist Church Shahwajpur Sahaswan,Methodist church,"3Q88+VPG Memorial Methodist Church Shahwajpur Sahaswan, Shahbazpur, Sahaswan, Uttar Pradesh 243638",Shahbazpur,3Q88+VPG,Sahaswan,243638,Uttar Pradesh,IN,https://www.google.com/maps/place/Memorial+Methodist+Church+Shahwajpur+Sahaswan/data=!4m7!3m6!1s0x39752f50090d568b:0x164a3126cefc0827!8m2!3d28.0672141!4d78.7668116!16s%2Fg%2F11plx_wc57!19sChIJi1YNCVAvdTkRJwj8ziYxShY?authuser=0&hl=en&rclk=1,"28.067214099999998,78.7668116"
Masjid,Mosque,"RX4J+M39 Masjid, Rajoli, Sulela, Haryana 122104",,RX4J+M39,"Rajoli, Sulela",122104,Haryana,IN,https://www.google.com/maps/place/Masjid/data=!4m7!3m6!1s0x3972c534275ef4ab:0xdc27d3a7ace97738!8m2!3d27.8066544!4d76.9802205!16s%2Fg%2F11j3xmhg73!19sChIJq_ReJzTFcjkROHfprKfTJ9w?authuser=0&hl=en&rclk=1,"27.8066544,76.9802205"
Salafi Masjid,Mosque,"JWVV+MW6 Salafi Masjid, salafi Masjid Baitut Taqwa jamait Ahlul Hadith Nowgam, Shahabad, Uttar Pradesh",,"JWVV+MW6, salafi Masjid Baitut Taqwa jamait Ahlul Hadith Nowgam",Shahabad,,Uttar Pradesh,IN,https://www.google.com/maps/place/Salafi+Masjid/data=!4m7!3m6!1s0x399faddc5394dfcf:0x2b7c49c09714ed71!8m2!3d27.6441541!4d79.944752!16s%2Fg%2F11gf976xtw!19sChIJz9-UU9ytnzkRce0Ul8BJfCs?authuser=0&hl=en&rclk=1,"27.644154099999998,79.944752"
msjd Masjid,Mosque,"P9JH+9V5 msjd Masjid, Unnamed Road, Shahbazpur, Bahawalpur, Punjab, Pakistan",,"P9JH+9V5, Unnamed Road",Shahbazpur,,"Bahawalpur, Punjab",PK,https://www.google.com/maps/place/%D9%85%D8%B3%D8%AC%D8%AF+Masjid%E2%80%AD/data=!4m7!3m6!1s0x393cf54df82784ef:0xcd4b494921a091e1!8m2!3d29.7308795!4d72.3797445!16s%2Fg%2F11fpmjd2dl!19sChIJ74Qn-E31PDkR4ZGgIUlJS80?authuser=0&hl=en&rclk=1,"29.7308795,72.3797445"
griib nvaaj phuttviyr seNttr,Shoe store,"3Q75+MX5 griib nvaaj phuttviyr seNttr, Mohalla katra kachla, road, near bilal masjid, Sahaswan, 243638",Shahbazpur,"3Q75+MX5, Mohalla katra kachla, road, near bilal masjid",Sahaswan,243638,Uttar Pradesh,IN,https://www.google.com/maps/place/%E0%A4%97%E0%A4%B0%E0%A5%80%E0%A4%AC+%E0%A4%A8%E0%A4%B5%E0%A4%BE%E0%A4%9C+%E0%A4%AB%E0%A5%81%E0%A4%9F%E0%A4%B5%E0%A4%BF%E0%A4%AF%E0%A4%B0+%E0%A4%B8%E0%A5%87%E0%A4%82%E0%A4%9F%E0%A4%B0/data=!4m7!3m6!1s0x39752faa4d5a1539:0xff168773a50a8f7e!8m2!3d28.0641253!4d78.7599882!16s%2Fg%2F11s6558363!19sChIJORVaTaovdTkRfo8KpXOHFv8?authuser=0&hl=en&rclk=1,"28.064125299999997,78.7599882"
Rehmati Masjid (rHmty msjd),Mosque,"P8FC+RQR Rehmati Masjid (rHmty msjd), Tila Shahbazpur, Behta Hajipur, Ghaziabad, Uttar Pradesh 201102","Tila Shahbazpur, Behta Hajipur",P8FC+RQR,Ghaziabad,201102,Uttar Pradesh,IN,https://www.google.com/maps/place/Rehmati+Masjid+%28%D8%B1%D8%AD%D9%85%D8%AA%DB%8C+%D9%85%D8%B3%D8%AC%D8%AF%29%E2%80%AD/data=!4m7!3m6!1s0x390cfbda3f3c4873:0xdfbd3b1357b1a694!8m2!3d28.7246125!4d77.3218906!16s%2Fg%2F11vbdpf_gq!19sChIJc0g8P9r7DDkRlKaxVxM7vd8?authuser=0&hl=en&rclk=1,"28.7246125,77.3218906"
Masjid,Mosque,"Masjid, Gali No 19, Gali Number 1, Mustafabad Extn, New Mustafabad, Delhi, 110094","E2 Block, Mustafabad Extn, New Mustafabad","Gali No 19, Gali Number 1",Delhi,110094,Delhi,IN,https://www.google.com/maps/place/Masjid/data=!4m7!3m6!1s0x390cfc1b020b0e91:0xb48a3c3233e41cbd!8m2!3d28.711773!4d77.272563!16s%2Fg%2F12hpqnhjr!19sChIJkQ4LAhv8DDkRvRzkMzI8irQ?authuser=0&hl=en&rclk=1,"28.711772999999997,77.27256299999999"
JAMA MASJID,Mosque,"JAMA MASJID, Sadhiranpur, Uttar Pradesh 244302",,,Sadhiranpur,244302,Uttar Pradesh,IN,https://www.google.com/maps/place/JAMA+MASJID/data=!4m7!3m6!1s0x390b199f0b4a9a67:0xf7c43ba19a7abdad!8m2!3d28.6506519!4d78.5624355!16s%2Fg%2F11s55fvmh0!19sChIJZ5pKC58ZCzkRrb16mqE7xPc?authuser=0&hl=en&rclk=1,"28.6506519,78.56243549999999"
Masjid as musapur,Mosque,"H6FX+CX3 Masjid as musapur, Musapur, Uttar Pradesh 246731",,H6FX+CX3,Musapur,246731,Uttar Pradesh,IN,https://www.google.com/maps/place/Masjid+as+musapur/data=!4m7!3m6!1s0x390be1dee15893b3:0xc1f0e73708e409b5!8m2!3d29.5735139!4d78.2499284!16s%2Fg%2F11mfvdvlln!19sChIJs5NY4d7hCzkRtQnkCDfn8ME?authuser=0&hl=en&rclk=1,"29.5735139,78.2499284"
kuvaaN vaalii msjid baajidpur,Mosque,"W4W4+8FC kuvaaN vaalii msjid baajidpur, Bazidpur, Haryana 122508",,W4W4+8FC,Bazidpur,,Haryana,IN,https://www.google.com/maps/place/%E0%A4%95%E0%A5%81%E0%A4%B5%E0%A4%BE%E0%A4%82+%E0%A4%B5%E0%A4%BE%E0%A4%B2%E0%A5%80+%E0%A4%AE%E0%A4%B8%E0%A5%8D%E0%A4%9C%E0%A4%BF%E0%A4%A6+%E0%A4%AC%E0%A4%BE%E0%A4%9C%E0%A4%BF%E0%A4%A6%E0%A4%AA%E0%A5%81%E0%A4%B0/data=!4m7!3m6!1s0x3972d7811028afdf:0x27f6beadd97674e2!8m2!3d27.945806!4d77.1061264!16s%2Fg%2F11p5nc4089!19sChIJ368oEIHXcjkR4nR22a2-9ic?authuser=0&hl=en&rclk=1,"27.945805999999997,77.1061264"
Masjid suffa,Mosque,"759C+M4X Masjid suffa, Satlaka, Haryana 122102",,759C+M4X,Satlaka,122102,Haryana,IN,https://www.google.com/maps/place/Masjid+suffa/data=!4m7!3m6!1s0x390d27e6578a0d3d:0x7d853a600d0bcd3f!8m2!3d28.2692479!4d77.1703641!16s%2Fg%2F11h58drzvh!19sChIJPQ2KV-YnDTkRP80LDWA6hX0?authuser=0&hl=en&rclk=1,"28.2692479,77.1703641"
Jama Masjid,Mosque,"JQ6V+6J4 Jama Masjid, Rustamnagar Sahaspur, Uttar Pradesh 244411",,JQ6V+6J4,Rustamnagar Sahaspur,244411,Uttar Pradesh,IN,https://www.google.com/maps/place/Jama+Masjid/data=!4m7!3m6!1s0x390ae71f2ed423e1:0xab653ddd05ad2f38!8m2!3d28.6105026!4d78.7940774!16s%2Fg%2F11j8nn302q!19sChIJ4SPULh_nCjkROC-tBd09Zas?authuser=0&hl=en&rclk=1,"28.6105026,78.79407739999999"
Chhoti Masjid Gajarpur,Mosque,"53F3+PC8 Chhoti Masjid Gajarpur, Gajarpur, Haryana 122103",,53F3+PC8,Gajarpur,122103,Haryana,IN,https://www.google.com/maps/place/Chhoti+Masjid+Gajarpur/data=!4m7!3m6!1s0x390d2f97c3e11301:0x94f108ddb6bfc32c!8m2!3d28.1742816!4d77.053568!16s%2Fg%2F11h0ylfqj5!19sChIJARPhw5cvDTkRLMO_tt0I8ZQ?authuser=0&hl=en&rclk=1,"28.1742816,77.053568"
Jama Masjid,Mosque,"QHP4+WXM Jama Masjid, Kakrali, Uttar Pradesh 244245",,QHP4+WXM,Kakrali,,Uttar Pradesh,IN,https://www.google.com/maps/place/Jama+Masjid/data=!4m7!3m6!1s0x390b0504d49f7397:0xaf9ffd2e0fb430f7!8m2!3d28.78734!4d78.5574328!16s%2Fg%2F11sshd7l8r!19sChIJl3Of1AQFCzkR9zC0Dy79n68?authuser=0&hl=en&rclk=1,"28.78734,78.5574328"
"Mosque msjid, gaaNv mubaarikpur tigaaNii",School,"Mosque msjid, gaaNv mubaarikpur tigaaNii, Unnamed Road, Mubarikpur, Shahbazpur Tingai, Uttar Pradesh 251201",,Unnamed Road,"Mubarikpur, Shahbazpur Tingai",251201,Uttar Pradesh,IN,"https://www.google.com/maps/place/Mosque+%E0%A4%AE%E0%A4%B8%E0%A5%8D%E0%A4%9C%E0%A4%BF%E0%A4%A6,+%E0%A4%97%E0%A4%BE%E0%A4%82%E0%A4%B5+%E0%A4%AE%E0%A5%81%E0%A4%AC%E0%A4%BE%E0%A4%B0%E0%A4%BF%E0%A4%95%E0%A4%AA%E0%A5%81%E0%A4%B0+%E0%A4%A4%E0%A4%BF%E0%A4%97%E0%A4%BE%E0%A4%82%E0%A4%88/data=!4m7!3m6!1s0x390c13691a145d07:0xb34d080097b8eaab!8m2!3d29.2543673!4d77.725307!16s%2Fg%2F11j3s8f2j7!19sChIJB10UGmkTDDkRq-q4lwAITbM?authuser=0&hl=en&rclk=1","29.2543673,77.725307"
Masjid,Mosque,"R8MQ+8WC Masjid, Rataul, Uttar Pradesh 250101",,R8MQ+8WC,Rataul,250101,Uttar Pradesh,IN,https://www.google.com/maps/place/Masjid/data=!4m7!3m6!1s0x390c57cef24cc299:0x81fa3191b7d3d3d!8m2!3d28.8333117!4d77.3397708!16s%2Fg%2F11dd_r6cjs!19sChIJmcJM8s5XDDkRPT19GxmjHwg?authuser=0&hl=en&rclk=1,"28.8333117,77.3397708"
Masjid,Mosque,"22M6+6XR Masjid, Malab, Haryana 122107",,22M6+6XR,Malab,122107,Haryana,IN,https://www.google.com/maps/place/Masjid/data=!4m7!3m6!1s0x3972d3868c8be52f:0xbb3ffa2d9ed49cdf!8m2!3d28.0331122!4d77.0123832!16s%2Fg%2F11l45_ysln!19sChIJL-WLjIbTcjkR35zUni36P7s?authuser=0&hl=en&rclk=1,"28.033112199999998,77.0123832"
Lalit Prajapati House,Community center,"Lalit Prajapati House, Khushi vatika colony, Tila Shahbazpur, Behta Hajipur, Ghaziabad, Uttar Pradesh 201102","Tila Shahbazpur, Behta Hajipur",Khushi vatika colony,Ghaziabad,201102,Uttar Pradesh,IN,https://www.google.com/maps/place/Lalit+Prajapati+House/data=!4m7!3m6!1s0x390cfbbf5bde51e5:0xb5f55e4a215a90e2!8m2!3d28.7227586!4d77.3146588!16s%2Fg%2F11vdd1mg6z!19sChIJ5VHeW7_7DDkR4pBaIUpe9bU?authuser=0&hl=en&rclk=1,"28.7227586,77.31465879999999"
Good tech communication,Cell phone store,"Good tech communication, A715,Gali no.28,main road jafrabad Near mohmmadi masjid chowk, 110053","Tila Shahbazpur, Behta Hajipur","A715,Gali no.28,main road jafrabad Near mohmmadi masjid chowk",Ghaziabad,110053,Uttar Pradesh,IN,https://www.google.com/maps/place/Good+tech+communication/data=!4m7!3m6!1s0x390cfd1541a9cebd:0x7d5bf27938bdf490!8m2!3d28.7274598!4d77.3254576!16s%2Fg%2F11gtzq38sb!19sChIJvc6pQRX9DDkRkPS9OHnyW30?authuser=0&hl=en&rclk=1,"28.7274598,77.3254576"
Mosque Madina,Mosque,"Mosque Madina, 292/3, Loni Ghaziabad Rd, Shanti Vihar, Tila Shahbazpur, Behta Hajipur, Ghaziabad, Uttar Pradesh 201102","Shanti Vihar, Tila Shahbazpur, Behta Hajipur","292/3, Loni Ghaziabad Rd",Ghaziabad,201102,Uttar Pradesh,IN,https://www.google.com/maps/place/Mosque+Madina/data=!4m7!3m6!1s0x390cf959c1f10879:0xa8d37c3b2303ecac!8m2!3d28.7294167!4d77.3064803!16s%2Fg%2F11rxsm3svs!19sChIJeQjxwVn5DDkRrOwDIzt806g?authuser=0&hl=en&rclk=1,"28.729416699999998,77.30648029999999"
Badi masjid [ new badarpur village],Mosque,"Q6RJ+7RC Badi masjid [ new badarpur village], Loni, Ghaziabad, Mirpur Hindu, Uttar Pradesh 201102",Loni,Q6RJ+7RC,"Ghaziabad, Mirpur Hindu",,Uttar Pradesh,IN,https://www.google.com/maps/place/Badi+masjid+%5B+new+badarpur+village%5D/data=!4m7!3m6!1s0x390cffc82c617403:0x41d4914f8bc9b13d!8m2!3d28.7906877!4d77.232031!16s%2Fg%2F11sssgmxxz!19sChIJA3RhLMj_DDkRPbHJi0-R1EE?authuser=0&hl=en&rclk=1,"28.7906877,77.23203099999999"
Shahbajpur Jama Masjid,Mosque,"C957+87 Shahbajpur Jama Masjid, Kotwali - Nehtaur Rd, Shahbajpur, Jal Pura, Uttar Pradesh 246764",,"C957+87, Kotwali - Nehtaur Rd","Shahbajpur, Jal Pura",246764,Uttar Pradesh,IN,https://www.google.com/maps/place/Shahbajpur+Jama+Masjid/data=!4m7!3m6!1s0x390bc38eee43cf13:0x2563b271b8b8b188!8m2!3d29.4083247!4d78.3631461!16s%2Fg%2F11pl5gq42n!19sChIJE89D7o7DCzkRiLG4uHGyYyU?authuser=0&hl=en&rclk=1,"29.408324699999998,78.3631461"
Masjid,Mosque,"42JW+VFJ Masjid, Shahbazpur, Uttar Pradesh 243726",,42JW+VFJ,Shahbazpur,,Uttar Pradesh,IN,https://www.google.com/maps/place/Masjid/data=!4m7!3m6!1s0x3975495f34963101:0xedbbcf9072666dc4!8m2!3d28.1322152!4d79.0461433!16s%2Fg%2F11tp6p2qfr!19sChIJATGWNF9JdTkRxG1mcpDPu-0?authuser=0&hl=en&rclk=1,"28.132215199999997,79.0461433"
Masjid Ahle Hadees,Mosque,"QHC5+M46 Masjid Ahle Hadees, Shahbazpur Kalan, Uttar Pradesh 244102",,QHC5+M46,Shahbazpur Kalan,,Uttar Pradesh,IN,https://www.google.com/maps/place/Masjid+Ahle+Hadees/data=!4m7!3m6!1s0x390b05a72a43d159:0x4bb95a97a54a2725!8m2!3d28.7716707!4d78.5577718!16s%2Fg%2F11q4g73l50!19sChIJWdFDKqcFCzkRJSdKpZdauUs?authuser=0&hl=en&rclk=1,"28.771670699999998,78.5577718"
Shahi Masjid,Mosque,"V74V+4RQ Shahi Masjid, Shahpur Bujurg, Uttar Pradesh 244235",,V74V+4RQ,Shahpur Bujurg,,Uttar Pradesh,IN,https://www.google.com/maps/place/Shahi+Masjid/data=!4m7!3m6!1s0x390b0b0315006c51:0x1bef876f5e8a6d9e!8m2!3d28.8553433!4d78.2945939!16s%2Fg%2F11q8wcvq59!19sChIJUWwAFQMLCzkRnm2KXm-H7xs?authuser=0&hl=en&rclk=1,"28.855343299999998,78.2945939"
Masjid,Mosque,"W4X5+C3X Masjid, Bazidpur, Haryana 122508",,W4X5+C3X,Bazidpur,,Haryana,IN,https://www.google.com/maps/place/Masjid/data=!4m7!3m6!1s0x3972d78636d1a3c5:0xee4f8d1680829d38!8m2!3d27.9486005!4d77.1077437!16s%2Fg%2F11k02z3y7b!19sChIJxaPRNobXcjkROJ2CgBaNT-4?authuser=0&hl=en&rclk=1,"27.948600499999998,77.1077437"
Athar jan seva kaendre jama masjid,Internet cafe,"Athar jan seva kaendre jama masjid, near Badi Masjid, Shahbazpur Kalan, Uttar Pradesh 244102",,near Badi Masjid,Shahbazpur Kalan,244102,Uttar Pradesh,IN,https://www.google.com/maps/place/Athar+jan+seva+kaendre+jama+masjid/data=!4m7!3m6!1s0x390b05576b4e42a1:0x22f91b84a49e3eef!8m2!3d28.769425!4d78.5593777!16s%2Fg%2F11kq4xftcb!19sChIJoUJOa1cFCzkR7z6epIQb-SI?authuser=0&hl=en&rclk=1,"28.769425,78.5593777"
Jama masjid,Housing society,"C39P+JG6 Jama masjid, Shahbajpur, Uttar Pradesh 243303",,C39P+JG6,Shahbajpur,243303,Uttar Pradesh,IN,https://www.google.com/maps/place/Jama+masjid/data=!4m7!3m6!1s0x390ab7ddca7d225f:0xa2e3f5555787b887!8m2!3d28.4190278!4d79.0862677!16s%2Fg%2F11lkyvmmmz!19sChIJXyJ9yt23CjkRh7iHV1X146I?authuser=0&hl=en&rclk=1,"28.4190278,79.0862677"
Moti Masjid Obri,Mosque,"PHW4+94R Moti Masjid Obri, Obri, Uttar Pradesh 244102",,PHW4+94R,Obri,,Uttar Pradesh,IN,https://www.google.com/maps/place/Moti+Masjid+Obri/data=!4m7!3m6!1s0x390b05c3396bd3f3:0x4c2b0b761d18744d!8m2!3d28.7459857!4d78.5552744!16s%2Fg%2F11g4c72bp_!19sChIJ89NrOcMFCzkRTXQYHXYLK0w?authuser=0&hl=en&rclk=1,"28.7459857,78.5552744"
Shahbazpur,,"Shahbazpur, Uttar Pradesh 243726",,,Shahbazpur,,Uttar Pradesh,IN,https://www.google.com/maps/place/Shahbazpur/data=!4m7!3m6!1s0x3975498cf4cf1123:0x88e552c562276682!8m2!3d28.1322152!4d79.0461433!16s%2Fg%2F12hl3msz2!19sChIJIxHP9IxJdTkRgmYnYsVS5Yg?authuser=0&hl=en&rclk=1,"28.132215199999997,79.0461433"
Shahbajpur,,"Shahbajpur, Uttar Pradesh 246733",,,Shahbajpur,,Uttar Pradesh,IN,https://www.google.com/maps/place/Shahbajpur/data=!4m7!3m6!1s0x390bc3906f64caa9:0xeedfd0896ef63063!8m2!3d29.4038384!4d78.3714233!16s%2Fg%2F12hygryzd!19sChIJqcpkb5DDCzkRYzD2bonQ3-4?authuser=0&hl=en&rclk=1,"29.403838399999998,78.37142329999999"
Shahbajpur,,"Shahbajpur, Uttar Pradesh 244411",,,Shahbajpur,,Uttar Pradesh,IN,https://www.google.com/maps/place/Shahbajpur/data=!4m7!3m6!1s0x390ac47a0f122c67:0x362336451fccc3c6!8m2!3d28.4898882!4d78.8941667!16s%2Fg%2F12hnwzm84!19sChIJZywSD3rECjkRxsPMH0U2IzY?authuser=0&hl=en&rclk=1,"28.4898882,78.8941667"
Shahbajpur,,"Shahbajpur, Uttar Pradesh 203129",,,Shahbajpur,,Uttar Pradesh,IN,https://www.google.com/maps/place/Shahbajpur/data=!4m7!3m6!1s0x390b55ef84029aa5:0x72f7317a9fbcca57!8m2!3d28.2196199!4d77.9417391!16s%2Fg%2F1td03f5g!19sChIJpZoChO9VCzkRV8q8n3ox93I?authuser=0&hl=en&rclk=1,"28.219619899999998,77.94173909999999"
Mohd Anees General Store,General store,"Mohd Anees General Store, Manota Road, near Jama Masjid Chwok, Shahbazpur Kalan, Uttar Pradesh 244102",,"Manota Road, near Jama Masjid Chwok",Shahbazpur Kalan,244102,Uttar Pradesh,IN,https://www.google.com/maps/place/Mohd+Anees+General+Store/data=!4m7!3m6!1s0x390b05203a27f97d:0xb30f11cd870cbed5!8m2!3d28.7700335!4d78.5598746!16s%2Fg%2F11rn4n74f9!19sChIJffknOiAFCzkR1b4Mh80RD7M?authuser=0&hl=en&rclk=1,"28.7700335,78.5598746"
Masjid Markus Ayesha Bint Abubakar,Mosque,"2WV5+3C8 Masjid Markus Ayesha Bint Abubakar, Mandri, Rajasthan 332746",,2WV5+3C8,Mandri,,Rajasthan,IN,https://www.google.com/maps/place/Masjid+Markus+Ayesha+Bint+Abubakar/data=!4m7!3m6!1s0x3912cf7dae6e617f:0xb629495dbeaf8287!8m2!3d28.0426565!4d75.9085792!16s%2Fg%2F11t6_n86jt!19sChIJf2Furn3PEjkRh4Kvvl1JKbY?authuser=0&hl=en&rclk=1,"28.0426565,75.90857919999999"
Khalid Malik Kirana Store,Grocery store,"Khalid Malik Kirana Store, 1 Main Market, near Masjid And Aata Chakki, Loni, Uttar Pradesh 201102","Tila Shahbazpur, Loni","1 Main Market, near Masjid And Aata Chakki",Ghaziabad,201102,Uttar Pradesh,IN,https://www.google.com/maps/place/Khalid+Malik+Kirana+Store/data=!4m7!3m6!1s0x390cf98d1085075d:0x181b7d5a7d0cb9c2!8m2!3d28.735977!4d77.3191401!16s%2Fg%2F11q47zs5pd!19sChIJXQeFEI35DDkRwrkMfVp9Gxg?authuser=0&hl=en&rclk=1,"28.735977,77.3191401"
Shahi masjid,Mosque,"Shahi masjid, Shahbajpur, Uttar Pradesh 212661",,,Shahbajpur,212661,Uttar Pradesh,IN,https://www.google.com/maps/place/Shahi+masjid/data=!4m7!3m6!1s0x399c8fe3332214a1:0x8b159601a2c6cc48!8m2!3d25.9352341!4d80.6167297!16s%2Fg%2F11l2hlg66j!19sChIJoRQiM-OPnDkRSMzGogGWFYs?authuser=0&hl=en&rclk=1,"25.9352341,80.6167297"
ATTARI TIKKA HOTEL,Chicken & Mutton Shop,"ATTARI TIKKA HOTEL, 53 Shahbazpur, near Lal Masjid, Shahbazpur Kalan, Uttar Pradesh 244102",,"53 Shahbazpur, near Lal Masjid",Shahbazpur Kalan,244102,Uttar Pradesh,IN,https://www.google.com/maps/place/ATTARI+TIKKA+HOTEL/data=!4m7!3m6!1s0x390b05d118884473:0xe07780f2f011a73e!8m2!3d28.7716075!4d78.5565517!16s%2Fg%2F11ty4m2cb8!19sChIJc0SIGNEFCzkRPqcR8PKAd-A?authuser=0&hl=en&rclk=1,"28.7716075,78.5565517"
Norani Masjid Mahraunda,Mosque,"MVJ3+WJC Norani Masjid Mahraunda, Shahbazpur, Uttar Pradesh 212507",,MVJ3+WJC,Shahbazpur,212507,Uttar Pradesh,IN,https://www.google.com/maps/place/Norani+Masjid+Mahraunda/data=!4m7!3m6!1s0x399ac726bbf039c7:0xe4665b9404157d40!8m2!3d25.6823136!4d81.8540293!16s%2Fg%2F11trkymlwb!19sChIJxznwuybHmjkRQH0VBJRbZuQ?authuser=0&hl=en&rclk=1,"25.6823136,81.8540293"
Masjid,Mosque,"P9MQ+VX Masjid, Shahbazpur, Bahawalpur, Punjab, Pakistan",,P9MQ+VX,Shahbazpur,,"Bahawalpur, Punjab",PK,https://www.google.com/maps/place/Masjid/data=!4m7!3m6!1s0x393cf55d01a323f5:0x2f176bfd72b2a4e7!8m2!3d29.7346262!4d72.3899776!16s%2Fg%2F11t6xp41wk!19sChIJ9SOjAV31PDkR56Sycv1rFy8?authuser=0&hl=en&rclk=1,"29.734626199999997,72.3899776"
Ali Health Care,Doctor,"Ali Health Care, Main Marjet shahbazpur, near Lal Masjid, Moradabad, Uttar Pradesh 244102",,"Main Marjet shahbazpur, near Lal Masjid","Moradabad, Shahbazpur Kalan",244102,Uttar Pradesh,IN,https://www.google.com/maps/place/Ali+Health+Care/data=!4m7!3m6!1s0x390b0539ba411373:0xb95759e838256364!8m2!3d28.7703814!4d78.556612!16s%2Fg%2F11rvhqw8hx!19sChIJcxNBujkFCzkRZGMlOOhZV7k?authuser=0&hl=en&rclk=1,"28.770381399999998,78.556612"
Bilal Mansoori,Software company,"Bilal Mansoori, Mohalla Mustark Near Sahi Jama Masjid, Miranpur, Uttar Pradesh 251315",,Mohalla Mustark Near Sahi Jama Masjid,"Miranpur, Rasulpur",251315,Uttar Pradesh,IN,https://www.google.com/maps/place/Bilal+Mansoori/data=!4m7!3m6!1s0x390bf5c6bb836723:0x2746e090fd132e5c!8m2!3d29.2925747!4d77.9449303!16s%2Fg%2F11thhf68ym!19sChIJI2eDu8b1CzkRXC4T_ZDgRic?authuser=0&hl=en&rclk=1,"29.2925747,77.9449303"
M H Madical Store,Pharmacy,"M H Madical Store, Main Market, near Lal Masjid, Moradabad, Uttar Pradesh 244102",,"Main Market, near Lal Masjid","Moradabad, Shahbazpur Kalan",244102,Uttar Pradesh,IN,https://www.google.com/maps/place/M+H+Madical+Store/data=!4m7!3m6!1s0x390b05bee32882c7:0xd82f0f81b3c656ee!8m2!3d28.7709164!4d78.557419!16s%2Fg%2F11pvg8tgn9!19sChIJx4Io474FCzkR7lbGs4EPL9g?authuser=0&hl=en&rclk=1,"28.770916399999997,78.557419"
Jama Masjid Mahraunda,Mosque,"MVJ3+GPP Jama Masjid Mahraunda, Shahbazpur, Uttar Pradesh 212507",,MVJ3+GPP,Shahbazpur,212507,Uttar Pradesh,IN,https://www.google.com/maps/place/Jama+Masjid+Mahraunda/data=!4m7!3m6!1s0x399ac70a76e498db:0x9885849de0e43d33!8m2!3d25.681325!4d81.8543294!16s%2Fg%2F11shc0gv5f!19sChIJ25jkdgrHmjkRMz3k4J2EhZg?authuser=0&hl=en&rclk=1,"25.681324999999998,81.8543294"
Nida Clinic,Doctor,"Nida Clinic, Manota Road, near Jama Masjid, Chwok, Shahbazpur Kalan, Uttar Pradesh 244102",Chwok,"Manota Road, near Jama Masjid",Shahbazpur Kalan,244102,Uttar Pradesh,IN,https://www.google.com/maps/place/Nida+Clinic/data=!4m7!3m6!1s0x390b05b28a6ac339:0xa59c406e6d65438!8m2!3d28.7694148!4d78.5593771!16s%2Fg%2F11pv31h2r3!19sChIJOcNqirIFCzkROFTW5gbEWQo?authuser=0&hl=en&rclk=1,"28.7694148,78.55937709999999"
Salafi Masjid,Mosque,"HV3M+4M9 Salafi Masjid, Punjab 148023",,HV3M+4M9,,,Punjab,IN,https://www.google.com/maps/place/Salafi+Masjid/data=!4m7!3m6!1s0x3910663c46a4464b:0x7a0417837f47ef59!8m2!3d30.5527756!4d75.8842283!16s%2Fg%2F11hb61zb_c!19sChIJS0akRjxmEDkRWe9Hf4MXBHo?authuser=0&hl=en&rclk=1,"30.5527756,75.88422829999999"
Sameer Malik,Housing society,"P7XX+HW3 Sameer Malik, Sitara Masjid Rd, Loni Dehat, Uttar Pradesh 201102",Loni Dehat,"P7XX+HW3, Sitara Masjid Rd",,201102,Uttar Pradesh,IN,https://www.google.com/maps/place/Sameer+Malik/data=!4m7!3m6!1s0x390cf9242b313d37:0xbca9566c650530bc!8m2!3d28.7488968!4d77.2998096!16s%2Fg%2F11tg6zfpqy!19sChIJNz0xKyT5DDkRvDAFZWxWqbw?authuser=0&hl=en&rclk=1,"28.748896799999997,77.2998096"
Kaif Icecream Shop,Ice cream shop,"Kaif Icecream Shop, Choudharpur manouta road Shahbazpur kalanUttar Pradesh, QHC7 QG6, Choudharpur Mamouta Road Near Chand Bali Masjid Shahbajpur, Moradabad, Uttar Pradesh 244102",,"Choudharpur manouta road Shahbazpur kalanUttar Pradesh, QHC7 QG6, Choudharpur Mamouta Road Near Chand Bali Masjid Shahbajpur","Moradabad, Shahbazpur Kalan",244102,Uttar Pradesh,IN,https://www.google.com/maps/place/Kaif+Icecream+Shop/data=!4m7!3m6!1s0x390b05fe3f529435:0x940a518899ad4300!8m2!3d28.771522!4d78.5606293!16s%2Fg%2F11kjf28_mt!19sChIJNZRSP_4FCzkRAEOtmYhRCpQ?authuser=0&hl=en&rclk=1,"28.771521999999997,78.5606293"
General store,General store,"General store, Hanuman Vatika, 1/83 , Hanuman Vatika , Behta hazipur, Loni, Ghaziabad, Uttar Pradesh 201102","Tila Shahbazpur, Loni","Hanuman Vatika, 1/83 , Hanuman Vatika , Behta hazipur",Ghaziabad,201102,Uttar Pradesh,IN,https://www.google.com/maps/place/General+store/data=!4m7!3m6!1s0x390cfb47a625bc43:0x437fdb168dc7314!8m2!3d28.722326!4d77.3135338!16s%2Fg%2F11r1dc1dlx!19sChIJQ7wlpkf7DDkRFHPcaLH9NwQ?authuser=0&hl=en&rclk=1,"28.722326,77.3135338"
