name,main_category,address,address_ward,address_street,address_city,address_postal_code,address_state,address_country_code,link,coordinates
Jama Masjid,Mosque,"Jama Masjid, Old Delhi, Delhi, 110006","Jama Masjid, Old Delhi",,Delhi,110006,Delhi,IN,https://www.google.com/maps/place/Jama+Masjid/data=!4m7!3m6!1s0x390cfd18df89b215:0xdd57369e29bf9d96!8m2!3d28.6506792!4d77.2334421!16zL20vMDR5emo1!19sChIJFbKJ3xj9DDkRlp2_KZ42V90?authuser=0&hl=en&rclk=1,"28.6506792,77.23344209999999"
Chand Wali Masjid,Mosque,"RQJM+39W Chand Wali Masjid, BasantaPur, Chhajlet, Moradabad, Uttar Pradesh 244001","BasantaPur, Chhajlet",RQJM+39W,Moradabad,244001,Uttar Pradesh,IN,https://www.google.com/maps/place/Chand+Wali+Masjid/data=!4m7!3m6!1s0x390afbb79a140f63:0x3d5fd1c821bbd59d!8m2!3d28.8302407!4d78.7834632!16s%2Fg%2F11c60fxmdn!19sChIJYw8Umrf7CjkRndW7IcjRXz0?authuser=0&hl=en&rclk=1,"28.830240699999997,78.7834632"
Chand Tara Masjid (chnd tr msjd),Mosque,"Chand Tara Masjid (chnd tr msjd), Sharda Nagar, Latur, Maharashtra 413512",Sharda Nagar,,Latur,413512,Maharashtra,IN,https://www.google.com/maps/place/Chand+Tara+Masjid+%28%DA%86%D8%A7%D9%86%D8%AF+%D8%AA%D8%A7%D8%B1%D8%A7+%D9%85%D8%B3%D8%AC%D8%AF%29%E2%80%AD/data=!4m7!3m6!1s0x3bcf84752ddc775f:0x4e43a5d29a3ae9df!8m2!3d18.42291!4d76.5720801!16s%2Fg%2F119tqgf_5!19sChIJX3fcLXWEzzsR3-k6mtKlQ04?authuser=0&hl=en&rclk=1,"18.422909999999998,76.5720801"
Masjid Meer Ji - msjd myr jy,Mosque,"Masjid Meer Ji - msjd myr jy, 3, Mir Ji Ka Bagh, Sansar Chandra Rd, Jaipur, Rajasthan 302001",Pink City,"3, Mir Ji Ka Bagh, Sansar Chandra Rd",Jaipur,302001,Rajasthan,IN,https://www.google.com/maps/place/Masjid+Meer+Ji+-+%D9%85%D8%B3%D8%AC%D8%AF+%D9%85%DB%8C%D8%B1+%D8%AC%DB%8C%E2%80%AD/data=!4m7!3m6!1s0x396db3ff6701b675:0x80728955af885e66!8m2!3d26.9200339!4d75.8027248!16s%2Fg%2F11f2p1l_jn!19sChIJdbYBZ_-zbTkRZl6Ir1WJcoA?authuser=0&hl=en&rclk=1,"26.9200339,75.8027248"
Usmania Masjid,Mosque,"WQH6+MQM Usmania Masjid, Near Bus Stand, Maltekdi, Amravati, Maharashtra 444606",Maltekdi,"WQH6+MQM, Near Bus Stand",Amravati,444606,Maharashtra,IN,https://www.google.com/maps/place/Usmania+Masjid/data=!4m7!3m6!1s0x3bd6a55b855e21db:0xd3cf430d3e30a119!8m2!3d20.9292145!4d77.7619139!16s%2Fg%2F11hdj9h9w4!19sChIJ2yFehVul1jsRGaEwPg1Dz9M?authuser=0&hl=en&rclk=1,"20.9292145,77.7619139"
Ali Masjid Baipass Chandpur,Mosque,"47V8+8VM Ali Masjid Baipass Chandpur, Chandpur - Bijnor Rd, Chandpur, Uttar Pradesh 246725",,"47V8+8VM, Chandpur - Bijnor Rd",Chandpur,246725,Uttar Pradesh,IN,https://www.google.com/maps/place/Ali+Masjid+Baipass+Chandpur/data=!4m7!3m6!1s0x390b96488f37b0bf:0x304f5ed757d158ff!8m2!3d29.1433466!4d78.2671571!16s%2Fg%2F11f39rnpl3!19sChIJv7A3j0iWCzkR_1jRV9deTzA?authuser=0&hl=en&rclk=1,"29.143346599999997,78.26715709999999"
Jama Masjid Chandpur,Mosque,"47M8+XXX Jama Masjid Chandpur, Chandpur, Uttar Pradesh 246725",,47M8+XXX,Chandpur,246725,Uttar Pradesh,IN,https://www.google.com/maps/place/Jama+Masjid+Chandpur/data=!4m7!3m6!1s0x390b97c6bb21dfd1:0xb5f195a7eede8dcd!8m2!3d29.1349757!4d78.2674752!16s%2Fg%2F11hdvl7zqy!19sChIJ0d8hu8aXCzkRzY3e7qeV8bU?authuser=0&hl=en&rclk=1,"29.1349757,78.26747519999999"
Chand Tara Masjid,Mosque,"JVXW+W5G Chand Tara Masjid, Utkarsh Nagar Rd, Bhushan Nagar, Solapur, Maharashtra 413004",Bhushan Nagar,"JVXW+W5G, Utkarsh Nagar Rd",Solapur,413004,Maharashtra,IN,https://www.google.com/maps/place/Chand+Tara+Masjid/data=!4m7!3m6!1s0x3bc5d0a172a3e757:0x97923f36c50e48fc!8m2!3d17.6498037!4d75.8954376!16s%2Fg%2F11b700wp57!19sChIJV-ejcqHQxTsR_EgOxTY_kpc?authuser=0&hl=en&rclk=1,"17.6498037,75.8954376"
SUNNI JAMIA MASJID CHANDOR,Mosque,"728J+6QW SUNNI JAMIA MASJID CHANDOR, Masjid Road, Cavorim Covatem, Guirdolim, Goa 403714",Cavorim Covatem,"728J+6QW, Masjid Road",Guirdolim,403714,Goa,IN,https://www.google.com/maps/place/SUNNI+JAMIA+MASJID+CHANDOR/data=!4m7!3m6!1s0x3bbfad91a17e52c5:0x3600e8232b9e8dd6!8m2!3d15.2656208!4d74.0319447!16s%2Fg%2F11f48m6k4r!19sChIJxVJ-oZGtvzsR1o2eKyPoADY?authuser=0&hl=en&rclk=1,"15.265620799999999,74.0319447"
mahmood pur mosque,Mosque,"57F7+GG3 mahmood pur mosque, Mahmood pur, Ziradei, Bihar 841245",Mahmood pur,57F7+GG3,Ziradei,841245,Bihar,IN,https://www.google.com/maps/place/mahmood+pur+mosque/data=!4m7!3m6!1s0x3992562f38d73963:0x47e09743f6afe698!8m2!3d26.173771!4d84.2637923!16s%2Fg%2F11c5bpcjpw!19sChIJYznXOC9WkjkRmOav9kOX4Ec?authuser=0&hl=en&rclk=1,"26.173771,84.26379229999999"
Bandhu-Hata Mosque,Mosque,"57C9+RGR Bandhu-Hata Mosque, Jiradei - Hussainganj Road, Mohammadpur, Bihar 841245",,"57C9+RGR, Jiradei - Hussainganj Road",Mohammadpur,841245,Bihar,IN,https://www.google.com/maps/place/Bandhu-Hata+Mosque/data=!4m7!3m6!1s0x39925629c83a4713:0x6f2df55726f67b4!8m2!3d26.1721164!4d84.2687583!16s%2Fg%2F11bz0ss9fd!19sChIJE0c6yClWkjkRtGdvclXf8gY?authuser=0&hl=en&rclk=1,"26.1721164,84.2687583"
Dewan Shah Daulat Wakf Estate Masjid,Mosque,"Dewan Shah Daulat Wakf Estate Masjid, Miapara,P.O+P.S, Chandur, Arambag, West Bengal 712602",,"Miapara,P.O+P.S, Chandur",Arambag,712602,West Bengal,IN,https://www.google.com/maps/place/Dewan+Shah+Daulat+Wakf+Estate+Masjid/data=!4m7!3m6!1s0x39f8169eeba9715b:0xacc939daa4a664d1!8m2!3d22.918454!4d87.7728162!16s%2Fg%2F11f08m9_s8!19sChIJW3Gp654W-DkR0WSmpNo5yaw?authuser=0&hl=en&rclk=1,"22.918454,87.7728162"
Masjid E Almas Badnera,Mosque,"VP8M+MXF Masjid E Almas Badnera, Juni Basti, Amravati, Maharashtra 444607",Juni Basti,VP8M+MXF,Amravati,444607,Maharashtra,IN,https://www.google.com/maps/place/Masjid+E+Almas+Badnera/data=!4m7!3m6!1s0x3bd6bac8668b1e09:0x6fa5c65a8e5de3eb!8m2!3d20.8666758!4d77.7349183!16s%2Fg%2F11g6z3nsjt!19sChIJCR6LZsi61jsR6-NdjlrGpW8?authuser=0&hl=en&rclk=1,"20.8666758,77.73491829999999"
Karajgaon Markaz,Mosque,"Karajgaon Markaz, 341/342, Paratwada - Karajgaon Road, Karajgaon, Maharashtra 444809",,"341/342, Paratwada - Karajgaon Road",Karajgaon,444809,Maharashtra,IN,https://www.google.com/maps/place/Karajgaon+Markaz/data=!4m7!3m6!1s0x3bd68b9ff8cf0cc9:0x8bc77a9a264d10f1!8m2!3d21.3237032!4d77.6082412!16s%2Fg%2F11cs31jhmz!19sChIJyQzP-J-L1jsR8RBNJpp6x4s?authuser=0&hl=en&rclk=1,"21.3237032,77.6082412"
Jame-E-Masjid,Mosque,"X3J4+PMW Jame-E-Masjid, Chandur, Telangana 508255",,X3J4+PMW,Chandur,508255,Telangana,IN,https://www.google.com/maps/place/Jame-E-Masjid/data=!4m7!3m6!1s0x3bcadf9b2fdd0ea7:0x4e592512af11d25e!8m2!3d16.9818659!4d79.0567026!16s%2Fg%2F124yp5m8y!19sChIJpw7dL5vfyjsRXtIRrxIlWU4?authuser=0&hl=en&rclk=1,"16.9818659,79.0567026"
Jama Masjid Nerpinglai,Mosque,"5XMM+XMP Jama Masjid Nerpinglai, Ner Pinglai, Maharashtra 444707",,5XMM+XMP,Ner Pinglai,444707,Maharashtra,IN,https://www.google.com/maps/place/Jama+Masjid+Nerpinglai/data=!4m7!3m6!1s0x3bd426f83a1cabc3:0xbe24b2e30072b14d!8m2!3d21.1849509!4d77.9842158!16s%2Fg%2F11fxvf6k07!19sChIJw6scOvgm1DsRTbFyAOOyJL4?authuser=0&hl=en&rclk=1,"21.1849509,77.9842158"
Masjid,Mosque,"Masjid, Chandan Nagar, Uttar Pradesh 243601",,,Chandan Nagar,,Uttar Pradesh,IN,https://www.google.com/maps/place/Masjid/data=!4m7!3m6!1s0x39754f77d499cd0b:0xfa585f2b837e3350!8m2!3d28.0699891!4d79.1545415!16s%2Fg%2F124t466g6!19sChIJC82Z1HdPdTkRUDN-gytfWPo?authuser=0&hl=en&rclk=1,"28.069989099999997,79.1545415"
Masjid Abubakar Chandpur,Mosque,"47HH+3G7 Masjid Abubakar Chandpur, Pheena, Link Road, Chandpur, Uttar Pradesh 246725",,"47HH+3G7, Pheena, Link Road","Chandpur, Tharpur",246725,Uttar Pradesh,IN,https://www.google.com/maps/place/Masjid+Abubakar+Chandpur/data=!4m7!3m6!1s0x390b97ce80e6a6eb:0xf6b1b4308ef58413!8m2!3d29.1276657!4d78.2787858!16s%2Fg%2F11c2nkkzsd!19sChIJ66bmgM6XCzkRE4T1jjC0sfY?authuser=0&hl=en&rclk=1,"29.127665699999998,78.2787858"
Madina masjid,Mosque,"M2R3+G98 Madina masjid, Islam chowk, khadan, Akola, Maharashtra 444001",khadan,"M2R3+G98, Islam chowk",Akola,,Maharashtra,IN,https://www.google.com/maps/place/Madina+masjid/data=!4m7!3m6!1s0x3bd733c55946ac19:0xb80ed8020b56ea87!8m2!3d20.6912894!4d77.0034387!16s%2Fg%2F11smzh94_z!19sChIJGaxGWcUz1zsRh-pWCwLYDrg?authuser=0&hl=en&rclk=1,"20.6912894,77.00343869999999"
Markaz Masjid,Mosque,"PW3P+Q6H Markaz Masjid, Masjid-E-Markas Dastgir Colony, Ahmedpur, Maharashtra 413515",Masjid-E-Markas Dastgir Colony,PW3P+Q6H,Ahmedpur,413515,Maharashtra,IN,https://www.google.com/maps/place/Markaz+Masjid/data=!4m7!3m6!1s0x3bcfb8bf4aecd8ad:0x1b2ab3253caab481!8m2!3d18.7044489!4d76.9356215!16s%2Fg%2F11g698sz1s!19sChIJrdjsSr-4zzsRgbSqPCWzKhs?authuser=0&hl=en&rclk=1,"18.7044489,76.9356215"
Mohammadia Masjid (Choti Masjid),Mosque,"RX9C+4J8 Mohammadia Masjid (Choti Masjid), Chandur Railway, Chandur, Maharashtra 444904",,RX9C+4J8,"Chandur Railway, Chandur",444904,Maharashtra,IN,https://www.google.com/maps/place/Mohammadia+Masjid+%28Choti+Masjid%29/data=!4m7!3m6!1s0x3bd402fdcf6c06c9:0xafd425fd267e31a9!8m2!3d20.8177844!4d77.971593!16s%2Fg%2F11dfwyslkk!19sChIJyQZsz_0C1DsRqTF-Jv0l1K8?authuser=0&hl=en&rclk=1,"20.8177844,77.971593"
Markaz Masjid mrkhz msjd,Mosque,"6PQW+235 Markaz Masjid mrkhz msjd, kasab pura, Chandur Bazar, Maharashtra",,"6PQW+235, kasab pura",Chandur Bazar,,Maharashtra,IN,https://www.google.com/maps/place/Markaz+Masjid+%D9%85%D8%B1%DA%A9%D8%B2+%D9%85%D8%B3%D8%AC%D8%AF%E2%80%AD/data=!4m7!3m6!1s0x3bd6855f809f4d79:0xdd248138290bc7ea!8m2!3d21.2375162!4d77.7452298!16s%2Fg%2F11c3mtfd45!19sChIJeU2fgF-F1jsR6scLKTiBJN0?authuser=0&hl=en&rclk=1,"21.237516199999998,77.74522979999999"
Jama Masjid,Mosque,"6PMG+GJP Jama Masjid, Jamapur, Chandur Bazar, Maharashtra 444704",Jamapur,6PMG+GJP,Chandur Bazar,444704,Maharashtra,IN,https://www.google.com/maps/place/Jama+Masjid/data=!4m7!3m6!1s0x3bd68febc291c1db:0x64f879bac03c2dcc!8m2!3d21.2338332!4d77.726582!16s%2Fg%2F11f03w71t1!19sChIJ28GRwuuP1jsRzC08wLp5-GQ?authuser=0&hl=en&rclk=1,"21.2338332,77.726582"
Noori Masjid,Mosque,"47GJ+564 Noori Masjid, Gowali Sadaat Road, Tharpur, Chandpur, Uttar Pradesh 246725",,"47GJ+564, Gowali Sadaat Road, Tharpur","Chandpur, Tharpur",246725,Uttar Pradesh,IN,https://www.google.com/maps/place/Noori+Masjid/data=!4m7!3m6!1s0x390b97ce34cd3483:0x8de63feddf4b2969!8m2!3d29.1253868!4d78.2805926!16s%2Fg%2F11bw6q3kxb!19sChIJgzTNNM6XCzkRaSlL3-0_5o0?authuser=0&hl=en&rclk=1,"29.125386799999998,78.28059259999999"
Sitara Mosque,Mosque,"47GJ+RMF Sitara Mosque, Gowali Sadaat Rd, Tharpur, Uttar Pradesh 246725",,"47GJ+RMF, Gowali Sadaat Rd",Tharpur,246725,Uttar Pradesh,IN,https://www.google.com/maps/place/Sitara+Mosque/data=!4m7!3m6!1s0x390b97ce1e7460df:0xd965c9b08b0dc43f!8m2!3d29.1270729!4d78.2816823!16s%2Fg%2F11bw67l06h!19sChIJ32B0Hs6XCzkRP8QNi7DJZdk?authuser=0&hl=en&rclk=1,"29.127072899999998,78.2816823"
Masjid Ahle Hadith,Mosque,"Masjid Ahle Hadith, Old Basta Rd, kazi sarai, Chandpur, Uttar Pradesh 246725",kazi sarai,Old Basta Rd,Chandpur,246725,Uttar Pradesh,IN,https://www.google.com/maps/place/Masjid+Ahle+Hadith/data=!4m7!3m6!1s0x390b97b52a470a83:0x8159123a919725a!8m2!3d29.1323786!4d78.26777!16s%2Fg%2F11c6w07f_r!19sChIJgwpHKrWXCzkRWnIZqSORFQg?authuser=0&hl=en&rclk=1,"29.1323786,78.26777"
Hanuman Mandir,Hindu temple,"RX7M+3V2 Hanuman Mandir, Indira Nagar, Chandur Railway, Chandur, Maharashtra 444904",Indira Nagar,RX7M+3V2,"Chandur Railway, Chandur",444904,Maharashtra,IN,https://www.google.com/maps/place/Hanuman+Mandir/data=!4m7!3m6!1s0x3bd40307e56c7b35:0x902a251d758f8572!8m2!3d20.8126415!4d77.9846524!16s%2Fg%2F11fy2q814d!19sChIJNXts5QcD1DsRcoWPdR0lKpA?authuser=0&hl=en&rclk=1,"20.812641499999998,77.9846524"
Jaama Masjid (Markaz),Mosque,"RX9F+VVJ Jaama Masjid (Markaz), Chandur Railway, Chandur, Maharashtra 444904",,RX9F+VVJ,"Chandur Railway, Chandur",444904,Maharashtra,IN,https://www.google.com/maps/place/Jaama+Masjid+%28Markaz%29/data=!4m7!3m6!1s0x3bd4030286c5752f:0x8ef257494e892601!8m2!3d20.8197091!4d77.9746434!16s%2Fg%2F11gcks5yr1!19sChIJL3XFhgID1DsRASaJTklX8o4?authuser=0&hl=en&rclk=1,"20.8197091,77.97464339999999"
Masjid a jumah,Mosque,"GXQP+WCV Masjid a jumah, Laxmapur, Telangana 503206",,GXQP+WCV,Laxmapur,503206,Telangana,IN,https://www.google.com/maps/place/Masjid+a+jumah/data=!4m7!3m6!1s0x3bcdd692b0119043:0xaff25692f47a689d!8m2!3d18.5398749!4d77.9860594!16s%2Fg%2F11g9q6n5pc!19sChIJQ5ARsJLWzTsRnWh69JJW8q8?authuser=0&hl=en&rclk=1,"18.5398749,77.9860594"
Jama Masjid,Mosque,"6PRW+CM8 Jama Masjid, pipal pura, Riddhpur, Chandur Bazar, Maharashtra 444704",Riddhpur,"6PRW+CM8, pipal pura",Chandur Bazar,444704,Maharashtra,IN,https://www.google.com/maps/place/Jama+Masjid/data=!4m7!3m6!1s0x3bd685606d58db15:0x833b7589ee1ddf05!8m2!3d21.2410253!4d77.7467019!16s%2Fg%2F11c3s95vwp!19sChIJFdtYbWCF1jsRBd8d7ol1O4M?authuser=0&hl=en&rclk=1,"21.2410253,77.74670189999999"
Pakeeza Masjid,Mosque,"6QQ2+3J2 Pakeeza Masjid, zameer colony, morshi road, maharaahtra, Chandur Bazar",,"6QQ2+3J2, zameer colony, morshi road, maharaahtra",Chandur Bazar,,Maharashtra,IN,https://www.google.com/maps/place/Pakeeza+Masjid/data=!4m7!3m6!1s0x3bd6855c2d3a5427:0x56b208a83e5935a7!8m2!3d21.2376499!4d77.7515236!16s%2Fg%2F11c3mtdy07!19sChIJJ1Q6LVyF1jsRpzVZPqgIslY?authuser=0&hl=en&rclk=1,"21.237649899999997,77.7515236"
Markaj masjid,Mosque,"GRM3+CQ8 Markaj masjid, Gharani to Wadwal Nagnath road, Wadwal Nagnath, Maharashtra 413529",,"GRM3+CQ8, Gharani to Wadwal Nagnath road",Wadwal Nagnath,413529,Maharashtra,IN,https://www.google.com/maps/place/Markaj+masjid/data=!4m7!3m6!1s0x3bcf97f51f0f7335:0xdeb15545818dccd3!8m2!3d18.5335288!4d76.8044651!16s%2Fg%2F11bwgcsg4r!19sChIJNXMPH_WXzzsR08yNgUVVsd4?authuser=0&hl=en&rclk=1,"18.5335288,76.8044651"
Chandurpara Jame Masjid,Mosque,"G22V+G27 Chandurpara Jame Masjid, Bharua Khali, Bangladesh",,G22V+G27,Bharua Khali,,,BD,https://www.google.com/maps/place/Chandurpara+Jame+Masjid/data=!4m7!3m6!1s0x30adb9f7ecb41677:0x891c98a34816ab34!8m2!3d21.5012947!4d92.0425367!16s%2Fg%2F11gjw1k4jv!19sChIJdxa07Pe5rTARNKsWSKOYHIk?authuser=0&hl=en&rclk=1,"21.5012947,92.0425367"
Khundanga Madani Masjid,Mosque,"2JX4+JFP Khundanga Madani Masjid, Unnamed Road, Kotulpur, Khundanga, West Bengal 722141",,"2JX4+JFP, Unnamed Road","Kotulpur, Khundanga",722141,West Bengal,IN,https://www.google.com/maps/place/Khundanga+Madani+Masjid/data=!4m7!3m6!1s0x39f82193ca978bdb:0x52aace100e56e6b3!8m2!3d23.0490814!4d87.6062085!16s%2Fg%2F11f8fs_8c1!19sChIJ24uXypMh-DkRs-ZWDhDOqlI?authuser=0&hl=en&rclk=1,"23.0490814,87.6062085"
Islampura Masjid slm pwrh msjd,Place of worship,"H3G9+5XG Islampura Masjid slm pwrh msjd, Barsitakli islampura, Barsi Takli",,"H3G9+5XG, Barsitakli islampura",Barsi Takli,,Maharashtra,IN,https://www.google.com/maps/place/Islampura+Masjid+%D8%A7%D8%B3%D9%84%D8%A7%D9%85+%D9%BE%D9%88%D8%B1%DB%81+%D9%85%D8%B3%D8%AC%D8%AF%E2%80%AD/data=!4m7!3m6!1s0x3bd0d317322bac03:0x68762624af5bf119!8m2!3d20.5754303!4d77.0699504!16s%2Fg%2F11b7kf2zky!19sChIJA6wrMhfT0DsRGfFbryQmdmg?authuser=0&hl=en&rclk=1,"20.5754303,77.0699504"
Kuba Masjid,Mosque,"GRJ4+55X Kuba Masjid, Wadwal Nagnath, Maharashtra 413529",,GRJ4+55X,Wadwal Nagnath,413529,Maharashtra,IN,https://www.google.com/maps/place/Kuba+Masjid/data=!4m7!3m6!1s0x3bcf981fd1da337d:0x7b79dab0b9d6e968!8m2!3d18.5304968!4d76.805484!16s%2Fg%2F11crzq1bhf!19sChIJfTPa0R-YzzsRaOnWubDaeXs?authuser=0&hl=en&rclk=1,"18.530496799999998,76.80548399999999"
Masjid,Mosque,"3JHW+79H Masjid, Malpur Tatera Mustahkam, Nadayal, Uttar Pradesh 243638",,3JHW+79H,"Malpur Tatera Mustahkam, Nadayal",243638,Uttar Pradesh,IN,https://www.google.com/maps/place/Masjid/data=!4m7!3m6!1s0x3974d62351444a31:0xbad6f8a505425ac1!8m2!3d28.0781857!4d78.6459793!16s%2Fg%2F1hm22vqw4!19sChIJMUpEUSPWdDkRwVpCBaX41ro?authuser=0&hl=en&rclk=1,"28.0781857,78.6459793"
Kachchi Masjid,Mosque,"6PRW+7CP Kachchi Masjid, marwadi pura, maharshtra, Chandur Bazar",Riddhpur,"6PRW+7CP, marwadi pura, maharshtra",Chandur Bazar,,Maharashtra,IN,https://www.google.com/maps/place/Kachchi+Masjid/data=!4m7!3m6!1s0x3bd685600f1bdeeb:0x268600649534a86a!8m2!3d21.2407193!4d77.7460733!16s%2Fg%2F11bv5t0swh!19sChIJ694bD2CF1jsRaqg0lWQAhiY?authuser=0&hl=en&rclk=1,"21.2407193,77.74607329999999"
Jama Masjid,Mosque,"8RW4+3XH Jama Masjid, Ghatladki, Maharashtra 444905",,8RW4+3XH,Ghatladki,444905,Maharashtra,IN,https://www.google.com/maps/place/Jama+Masjid/data=!4m7!3m6!1s0x3bd686eeb01067a9:0x76db2366771cbe10!8m2!3d21.3451924!4d77.8074751!16s%2Fg%2F11c6ts89sp!19sChIJqWcQsO6G1jsREL4cd2Yj23Y?authuser=0&hl=en&rclk=1,"21.3451924,77.80747509999999"
NAGINA MASJID KURAL PURNA,Mosque,"6MHG+4QC NAGINA MASJID KURAL PURNA, Kural, Maharashtra 444723",,6MHG+4QC,Kural,444723,Maharashtra,IN,https://www.google.com/maps/place/NAGINA+MASJID+KURAL+PURNA/data=!4m7!3m6!1s0x3bd68f7604dfe871:0xf99e307bea155fb0!8m2!3d21.227803!4d77.6768769!16s%2Fg%2F11fflyd9qz!19sChIJcejfBHaP1jsRsF8V6nswnvk?authuser=0&hl=en&rclk=1,"21.227802999999998,77.6768769"
Eidgah Masjid,Mosque,"PQF9+WHW Eidgah Masjid, Kingaon - Gangakhed Main Rd, Kingaon, Maharashtra 413523",,"PQF9+WHW, Kingaon - Gangakhed Main Rd",Kingaon,413523,Maharashtra,IN,https://www.google.com/maps/place/Eidgah+Masjid/data=!4m7!3m6!1s0x3bcfeb2fe7c4ebd1:0xa4a1b1b138b320cd!8m2!3d18.7248585!4d76.7689472!16s%2Fg%2F11bw7d2bxn!19sChIJ0evE5y_rzzsRzSCzOLGxoaQ?authuser=0&hl=en&rclk=1,"18.7248585,76.7689472"
Raza Masjid,Mosque,"P5J9+XRF Raza Masjid, Gadchandur, Chandur, Maharashtra 442908",,P5J9+XRF,"Gadchandur, Chandur",442908,Maharashtra,IN,https://www.google.com/maps/place/Raza+Masjid/data=!4m7!3m6!1s0x3bd2c5c43069ae25:0x97d0aa222aa68995!8m2!3d19.7324401!4d79.1695371!16s%2Fg%2F11gd4jj7jg!19sChIJJa5pMMTF0jsRlYmmKiKq0Jc?authuser=0&hl=en&rclk=1,"19.732440099999998,79.1695371"
Sakina Masjid,Mosque,"MCRH+FQC Sakina Masjid, Unnamed Road, Chandur, Maharashtra 416116",,"MCRH+FQC, Unnamed Road",Chandur,416116,Maharashtra,IN,https://www.google.com/maps/place/Sakina+Masjid/data=!4m7!3m6!1s0x3bc0e31f887c6da7:0x1cfa98e11ebcd4fe!8m2!3d16.6911755!4d74.4293857!16s%2Fg%2F11h24qjc31!19sChIJp218iB_jwDsR_tS8HuGY-hw?authuser=0&hl=en&rclk=1,"16.6911755,74.4293857"
madina masjid nalegao,Mosque,"CRG5+VP5 madina masjid nalegao, Nalegaon, Maharashtra 413524",,CRG5+VP5,Nalegaon,413524,Maharashtra,IN,https://www.google.com/maps/place/madina+masjid+nalegao/data=!4m7!3m6!1s0x3bcf9f4f50089aa9:0x954642376ecc8fea!8m2!3d18.4271363!4d76.8093568!16s%2Fg%2F11g88cz_q9!19sChIJqZoIUE-fzzsR6o_MbjdCRpU?authuser=0&hl=en&rclk=1,"18.4271363,76.8093568"
Jama Masjid Gumsani,Mosque,"QJ2W+VM5 Jama Masjid Gumsani, Gumsani, Uttar Pradesh 244102",,QJ2W+VM5,Gumsani,244102,Uttar Pradesh,IN,https://www.google.com/maps/place/Jama+Masjid+Gumsani/data=!4m7!3m6!1s0x390b02ad4b3ea7ed:0x797f56d629bcd36f!8m2!3d28.7521294!4d78.6467219!16s%2Fg%2F11dxdp3bkc!19sChIJ7ac-S60CCzkRb9O8KdZWf3k?authuser=0&hl=en&rclk=1,"28.752129399999998,78.6467219"
Mohammadia Masjid,Mosque,"6QP2+744 Mohammadia Masjid, islam pura,, Chandur Bazar, Maharashtra",,"6QP2+744, islam pura,",Chandur Bazar,,Maharashtra,IN,https://www.google.com/maps/place/Mohammadia+Masjid/data=!4m7!3m6!1s0x3bd6855eb9326ca7:0xca39e1f39b3384cc!8m2!3d21.2356336!4d77.7503373!16s%2Fg%2F11bv5twdw2!19sChIJp2wyuV6F1jsRzIQzm_PhOco?authuser=0&hl=en&rclk=1,"21.2356336,77.7503373"
Taj Masjid,Mosque,"6PRX+3R4 Taj Masjid, Taj Nagar, Chandur Bazar, Maharashtra 444704",Riddhpur,"6PRX+3R4, Taj Nagar",Chandur Bazar,444704,Maharashtra,IN,https://www.google.com/maps/place/Taj+Masjid/data=!4m7!3m6!1s0x3bd6855e1f4bd3a1:0x1db8aa7b272f0420!8m2!3d21.240149!4d77.7495773!16s%2Fg%2F11c6q14rq2!19sChIJodNLH16F1jsRIAQvJ3uquB0?authuser=0&hl=en&rclk=1,"21.240149,77.7495773"
muhammadi masjid,Mosque,"P5PG+HM8 muhammadi masjid, Gadchandur, Chandur, Maharashtra 442908",,P5PG+HM8,"Gadchandur, Chandur",442908,Maharashtra,IN,https://www.google.com/maps/place/muhammadi+masjid/data=!4m7!3m6!1s0x3bd2c5c1cd8efb41:0x8920209f0e35a340!8m2!3d19.7364094!4d79.1766908!16s%2Fg%2F11hc_w02g9!19sChIJQfuOzcHF0jsRQKM1Dp8gIIk?authuser=0&hl=en&rclk=1,"19.7364094,79.1766908"
Madina Masjid,Mosque,"P5PC+Q63 Madina Masjid, Gadchandur, Chandur, Maharashtra 442908",,P5PC+Q63,"Gadchandur, Chandur",442908,Maharashtra,IN,https://www.google.com/maps/place/Madina+Masjid/data=!4m7!3m6!1s0x3bd2c5c7231d5f0b:0x4f62a9cd3c6922f3!8m2!3d19.7368772!4d79.1705375!16s%2Fg%2F11gbz3pspv!19sChIJC18dI8fF0jsR8yJpPM2pYk8?authuser=0&hl=en&rclk=1,"19.7368772,79.1705375"
Mosque,Mosque,"JW49+VC7 Mosque, Bodhan- Chandur Rd, Sangam, Telangana 503185",,"JW49+VC7, Bodhan- Chandur Rd",Sangam,503185,Telangana,IN,https://www.google.com/maps/place/Mosque/data=!4m7!3m6!1s0x3bce77f86e810acf:0xa086569891673318!8m2!3d18.6071739!4d77.9185427!16s%2Fg%2F11gbwt1b8j!19sChIJzwqBbvh3zjsRGDNnkZhWhqA?authuser=0&hl=en&rclk=1,"18.6071739,77.9185427"
Jama Masjid chandur,Mosque,"HX73+7H5 Jama Masjid chandur, Chandur, Telangana 503206",,HX73+7H5,Chandur,503206,Telangana,IN,https://www.google.com/maps/place/Jama+Masjid+chandur/data=!4m7!3m6!1s0x3bcdd7444a1d1a93:0x99f52d73c5e624df!8m2!3d18.563141!4d77.953976!16s%2Fg%2F11h22l3g9p!19sChIJkxodSkTXzTsR3yTmxXMt9Zk?authuser=0&hl=en&rclk=1,"18.563140999999998,77.953976"
Madina Masjid,Mosque,"6PQV+XJ8 Madina Masjid, rambhat plot,, Chandur Bazar, Maharashtra",Riddhpur,"6PQV+XJ8, rambhat plot,",Chandur Bazar,,Maharashtra,IN,https://www.google.com/maps/place/Madina+Masjid/data=!4m7!3m6!1s0x3bd68ff54b9e042b:0xefbf141ae580fc19!8m2!3d21.2399049!4d77.7440667!16s%2Fg%2F11c3mrby_8!19sChIJKwSeS_WP1jsRGfyA5RoUv-8?authuser=0&hl=en&rclk=1,"21.2399049,77.74406669999999"
Noorani Masjid,Mosque,"6PPQ+XX9 Noorani Masjid, lakkad bazar,, Chandur Bazar",,"6PPQ+XX9, lakkad bazar,",Chandur Bazar,,Maharashtra,IN,https://www.google.com/maps/place/Noorani+Masjid/data=!4m7!3m6!1s0x3bd68ff48457cdcd:0x30e7d64313b8c756!8m2!3d21.2374059!4d77.7399901!16s%2Fg%2F11bv3rv28z!19sChIJzc1XhPSP1jsRVse4E0PW5zA?authuser=0&hl=en&rclk=1,"21.2374059,77.7399901"
Mohammadiya Masjid,Mosque,"G7FV+2QM Mohammadiya Masjid, Shendurjana Ghat, Maharashtra 444907",,G7FV+2QM,Shendurjana Ghat,444907,Maharashtra,IN,https://www.google.com/maps/place/Mohammadiya+Masjid/data=!4m7!3m6!1s0x3bd5b5f6370805ed:0x7ed84fb30c298eed!8m2!3d21.5225996!4d78.2944117!16s%2Fg%2F11gd3b2lpv!19sChIJ7QUIN_a11TsR7Y4pDLNP2H4?authuser=0&hl=en&rclk=1,"21.5225996,78.2944117"
Masjid Noor Ul Huda,Mosque,"7JVP+7MR Masjid Noor Ul Huda, Kurha, Khel Januji, Maharashtra 444723",,7JVP+7MR,"Kurha, Khel Januji",,Maharashtra,IN,https://www.google.com/maps/place/Masjid+Noor+Ul+Huda/data=!4m7!3m6!1s0x3bd68d7ddc41c409:0x542b372ee6d44c1c!8m2!3d21.2932328!4d77.6366504!16s%2Fg%2F11ffw42wb8!19sChIJCcRB3H2N1jsRHEzU5i43K1Q?authuser=0&hl=en&rclk=1,"21.2932328,77.6366504"
jama masjid,Mosque,"8P24+FW3 jama masjid, Deurwada, Maharashtra 444810",,8P24+FW3,Deurwada,444810,Maharashtra,IN,https://www.google.com/maps/place/jama+masjid/data=!4m7!3m6!1s0x3bd68f2e9aaaaaab:0x1c6b185b02e39e41!8m2!3d21.3011357!4d77.7072909!16s%2Fg%2F11fx89911y!19sChIJq6qqmi6P1jsRQZ7jAlsYaxw?authuser=0&hl=en&rclk=1,"21.3011357,77.70729089999999"
Masjid-e-aqsa,Mosque,"6PPV+Q9W Masjid-e-aqsa, sufi nagar, Chandur Bazar, Maharashtra 444704",sufi nagar,6PPV+Q9W,Chandur Bazar,,Maharashtra,IN,https://www.google.com/maps/place/Masjid-e-aqsa/data=!4m7!3m6!1s0x3bd68ff5a0c5704f:0xa09458882c49400d!8m2!3d21.2369868!4d77.7434679!16s%2Fg%2F11b8c2wfqq!19sChIJT3DFoPWP1jsRDUBJLIhYlKA?authuser=0&hl=en&rclk=1,"21.2369868,77.7434679"
Aqsa Masjid Wadner Bholji,Mosque,"R8QF+WJV Aqsa Masjid Wadner Bholji, Mohammadiya Rd, Wadner Bholji, Maharashtra 443404",,"R8QF+WJV, Mohammadiya Rd",Wadner Bholji,443404,Maharashtra,IN,https://www.google.com/maps/place/Aqsa+Masjid+Wadner+Bholji/data=!4m7!3m6!1s0x3bd9e68938cbbcc5:0x4e67154f15fef5f3!8m2!3d20.8398507!4d76.3240369!16s%2Fg%2F11gbxg542z!19sChIJxbzLOInm2TsR8_X-FU8VZ04?authuser=0&hl=en&rclk=1,"20.8398507,76.3240369"
Masjid E Hashim,Mosque,"RRJ3+525 Masjid E Hashim, v vinjmoor x road m chinthapally distic, Telangana 508250",,"RRJ3+525, v vinjmoor x road m chinthapally distic",,508250,Telangana,IN,https://www.google.com/maps/place/Masjid+E+Hashim/data=!4m7!3m6!1s0x3bcafb9915557885:0xb37571c39ce0ecef!8m2!3d16.8303762!4d78.8026179!16s%2Fg%2F11g_qr6fgx!19sChIJhXhVFZn7yjsR7-zgnMNxdbM?authuser=0&hl=en&rclk=1,"16.8303762,78.8026179"
Nagina Masjid & Markaz,Mosque,"5H38+G9V Nagina Masjid & Markaz, Bilal Nagar, Mehkar, Maharashtra 443301",Bilal Nagar,5H38+G9V,Mehkar,443301,Maharashtra,IN,https://www.google.com/maps/place/Nagina+Masjid+%26+Markaz/data=!4m7!3m6!1s0x3bd098db81daa775:0x47ed02c7ac07c47a!8m2!3d20.1538723!4d76.5659362!16s%2Fg%2F1hm38kdd8!19sChIJdafagduY0DsResQHrMcC7Uc?authuser=0&hl=en&rclk=1,"20.1538723,76.5659362"
Mahalaxmi Temple Chandur Railway,Hindu temple,"Mahalaxmi Temple Chandur Railway, Mahalaxmi Temple, Chandur Railway, Chandur, Maharashtra 444904",,Mahalaxmi Temple,"Chandur Railway, Chandur",444904,Maharashtra,IN,https://www.google.com/maps/place/Mahalaxmi+Temple+Chandur+Railway/data=!4m7!3m6!1s0x3bd403f822d436f7:0xbe0c3717686efd31!8m2!3d20.8076545!4d77.9854113!16s%2Fg%2F11rc6nzr_m!19sChIJ9zbUIvgD1DsRMf1uaBc3DL4?authuser=0&hl=en&rclk=1,"20.807654499999998,77.9854113"
Chand wali Masjid,Mosque,"Chand wali Masjid, 112, Moradabad Rd, Shekhupur Mafi, Mubarakpur Noori, Uttar Pradesh 244102",,"112, Moradabad Rd","Shekhupur Mafi, Mubarakpur Noori",244102,Uttar Pradesh,IN,https://www.google.com/maps/place/Chand+wali+Masjid/data=!4m7!3m6!1s0x390b03789280eac3:0x66753a7aa64b8d81!8m2!3d28.7905195!4d78.5739111!16s%2Fg%2F11fx954cy2!19sChIJw-qAkngDCzkRgY1Lpno6dWY?authuser=0&hl=en&rclk=1,"28.7905195,78.57391109999999"
Masjid,Mosque,"RX8H+GRF Masjid, Chandur Railway, Chandur, Maharashtra 444904",,RX8H+GRF,"Chandur Railway, Chandur",444904,Maharashtra,IN,https://www.google.com/maps/place/Masjid/data=!4m7!3m6!1s0x3bd403ffce894ebf:0x5246a9352f3ac02d!8m2!3d20.8163216!4d77.9795435!16s%2Fg%2F11rwhdf338!19sChIJv06Jzv8D1DsRLcA6LzWpRlI?authuser=0&hl=en&rclk=1,"20.8163216,77.97954349999999"
"Chishtiya Usmaniya Sunni Masjid, Dattapur, Dhamangaon(cishtiyaa usmaaniyaa sunnii msjid",Mosque,"Q4HQ+3JQ Chishtiya Usmaniya Sunni Masjid, Dattapur, Dhamangaon(cishtiyaa usmaaniyaa sunnii msjid, Dattapur Dhamangaon, Dattapur, Maharashtra 444709",,Q4HQ+3JQ,"Dattapur Dhamangaon, Dattapur",444709,Maharashtra,IN,"https://www.google.com/maps/place/Chishtiya+Usmaniya+Sunni+Masjid,+Dattapur,+Dhamangaon%28%E0%A4%9A%E0%A4%BF%E0%A4%B6%E0%A5%8D%E0%A4%A4%E0%A4%BF%E0%A4%AF%E0%A4%BE+%E0%A4%89%E0%A4%B8%E0%A5%8D%E0%A4%AE%E0%A4%BE%E0%A4%A8%E0%A4%BF%E0%A4%AF%E0%A4%BE+%E0%A4%B8%E0%A5%81%E0%A4%A8%E0%A5%8D%E0%A4%A8%E0%A5%80+%E0%A4%AE%E0%A4%B8%E0%A5%8D%E0%A4%9C%E0%A4%BF%E0%A4%A6/data=!4m7!3m6!1s0x3bd40f7ff089ae7f:0xdafc17a45f4497ca!8m2!3d20.7777079!4d78.1385968!16s%2Fg%2F11sv747zxb!19sChIJf66J8H8P1DsRypdEX6QX_No?authuser=0&hl=en&rclk=1","20.7777079,78.1385968"
MASJID,Mosque,"3M73+JC6 MASJID, Chaudhar Palli, Chowderpalle, Telangana 501509",,3M73+JC6,"Chaudhar Palli, Chowderpalle",501509,Telangana,IN,https://www.google.com/maps/place/MASJID/data=!4m7!3m6!1s0x3bcbaa01cf1f75a7:0x77a47e1a7dd4648d!8m2!3d17.0640262!4d78.6535142!16s%2Fg%2F11f3mb44j1!19sChIJp3UfzwGqyzsRjWTUfRp-pHc?authuser=0&hl=en&rclk=1,"17.0640262,78.65351419999999"
Markaz Jama Masjid Walgaon,Mosque,"2P64+QQF Markaz Jama Masjid Walgaon, Walgaon, Maharashtra 444801",Walgaon,2P64+QQF,Walgaon,444801,Maharashtra,IN,https://www.google.com/maps/place/Markaz+Jama+Masjid+Walgaon/data=!4m7!3m6!1s0x3bd6bd70e17cc849:0xcbdb08c8799e9151!8m2!3d21.0119265!4d77.7069167!16s%2Fg%2F11c558l_cs!19sChIJSch84XC91jsRUZGeecgI28s?authuser=0&hl=en&rclk=1,"21.011926499999998,77.7069167"
Jamaa Masjid chandur,Mosque,"MC7F+9JR Jamaa Masjid chandur, Unnamed Road, Chandur, Maharashtra 416116",,"MC7F+9JR, Unnamed Road",Chandur,416116,Maharashtra,IN,https://www.google.com/maps/place/Jamaa+Masjid+chandur/data=!4m7!3m6!1s0x3bc0e37bd65f0b65:0x701ab5ea989c8304!8m2!3d16.6634849!4d74.4240196!16s%2Fg%2F11n0kk8lvn!19sChIJZQtf1nvjwDsRBIOcmOq1GnA?authuser=0&hl=en&rclk=1,"16.6634849,74.4240196"
Anas Masjid,Mosque,"MCVH+33J Anas Masjid, Unnamed Road, Chandur, Maharashtra 416116",,"MCVH+33J, Unnamed Road",Chandur,416116,Maharashtra,IN,https://www.google.com/maps/place/Anas+Masjid/data=!4m7!3m6!1s0x3bc11d04d33e3fab:0xb13f6005e3c33585!8m2!3d16.6927218!4d74.4276547!16s%2Fg%2F11fwhdrqnv!19sChIJqz8-0wQdwTsRhTXD4wVgP7E?authuser=0&hl=en&rclk=1,"16.692721799999998,74.42765469999999"
Masjid e Ayesha,Mosque,"MRMQ+F66 Masjid e Ayesha, Sahara Colony, Chandur rly, Rd, Nandgaon Khandeshwar, Maharashtra 444708",,"MRMQ+F66, Sahara Colony, Chandur rly, Rd",Nandgaon Khandeshwar,444708,Maharashtra,IN,https://www.google.com/maps/place/Masjid+e+Ayesha/data=!4m7!3m6!1s0x3bd6ab77bf8ec88d:0x1fa957483baff4df!8m2!3d20.6836668!4d77.8380123!16s%2Fg%2F11nxrj_yx8!19sChIJjciOv3er1jsR3_SvO0hXqR8?authuser=0&hl=en&rclk=1,"20.683666799999997,77.8380123"
Masjid Abuzar Giffari Belora,Mosque,"5QXQ+2CP Masjid Abuzar Giffari Belora, Bazar Chowk, Belora, Chandur Bazar, Maharashtra 444718",,"5QXQ+2CP, Bazar Chowk, Belora","Chandur Bazar, Trimalpur",444718,Maharashtra,IN,https://www.google.com/maps/place/Masjid+Abuzar+Giffari+Belora/data=!4m7!3m6!1s0x3bd69adfc95d1bef:0x2c5d522ea097f78c!8m2!3d21.1975934!4d77.7885649!16s%2Fg%2F11f31n6qys!19sChIJ7xtdyd-a1jsRjPeXoC5SXSw?authuser=0&hl=en&rclk=1,"21.1975934,77.7885649"
Idikuda masjid,Mosque,"X2VF+37Q Idikuda masjid, Idikuda, Telangana 508255",,X2VF+37Q,Idikuda,508255,Telangana,IN,https://www.google.com/maps/place/Idikuda+masjid/data=!4m7!3m6!1s0x3bcb217486a5432d:0xd853f5c3ac712a97!8m2!3d16.9927153!4d79.0232221!16s%2Fg%2F11q7zkjy8k!19sChIJLUOlhnQhyzsRlypxrMP1U9g?authuser=0&hl=en&rclk=1,"16.9927153,79.0232221"
"mahboobiya Masjid, minarpalle",Mosque,"mahboobiya Masjid, minarpalle, Shaikh Ahmed Patel House, Bodhan- Chandur Rd, Achampalle (R, Minarpalle, Nizamabad, Telangana 503185",Achampalle (R,"Shaikh Ahmed Patel House, Bodhan- Chandur Rd","Minarpalle, Nizamabad",503185,Telangana,IN,"https://www.google.com/maps/place/mahboobiya+Masjid,+minarpalle/data=!4m7!3m6!1s0x3bce774e284ed6e5:0xf77be49e1b1f57ed!8m2!3d18.6110692!4d77.9028028!16s%2Fg%2F11fvwh680t!19sChIJ5dZOKE53zjsR7VcfG57ke_c?authuser=0&hl=en&rclk=1","18.6110692,77.9028028"
Masjid e Ibrahim,Mosque,"229V+QM7 Masjid e Ibrahim, Unnamed Road, Taskhanigudem, Telangana 508255",,"229V+QM7, Unnamed Road",Taskhanigudem,508255,Telangana,IN,https://www.google.com/maps/place/Masjid+e+Ibrahim/data=!4m7!3m6!1s0x3bcb21cb85991d1b:0xadd2d022f85c0877!8m2!3d17.0194102!4d79.044158!16s%2Fg%2F11mprmpf9q!19sChIJGx2ZhcshyzsRdwhc-CLQ0q0?authuser=0&hl=en&rclk=1,"17.0194102,79.044158"
Jama Masjid,Mosque,"4PFW+P59 Jama Masjid, Near Gandhi Chowk, Shirala, Maharashtra 444704",,"4PFW+P59, Near Gandhi Chowk",Shirala,,Maharashtra,IN,https://www.google.com/maps/place/Jama+Masjid/data=!4m7!3m6!1s0x3bd69b34f2340135:0x45c617620201b13a!8m2!3d21.1242798!4d77.7454688!16s%2Fg%2F11gtyshpht!19sChIJNQE08jSb1jsROrEBAmIXxkU?authuser=0&hl=en&rclk=1,"21.1242798,77.7454688"
Chandur Masjid,Mosque,"5PGV+G27 Chandur Masjid, Karigondanahalli, Karnataka 572215",,5PGV+G27,Karigondanahalli,572215,Karnataka,IN,https://www.google.com/maps/place/Chandur+Masjid/data=!4m7!3m6!1s0x3bafe1207a59bd9b:0xa44ef7f43688d52d!8m2!3d13.1762584!4d76.7424903!16s%2Fg%2F11khwygd87!19sChIJm71ZeiDhrzsRLdWINvT3TqQ?authuser=0&hl=en&rclk=1,"13.1762584,76.7424903"
Markaz e Ahlesunnat Jama Masjid,Religious destination,"Markaz e Ahlesunnat Jama Masjid, Kathora-Chandur Bazar Road, Sultanpur, Maharashtra 443302",,Kathora-Chandur Bazar Road,Sultanpur,443302,Maharashtra,IN,https://www.google.com/maps/place/Markaz+e+Ahlesunnat+Jama+Masjid/data=!4m7!3m6!1s0x3bd09c247a3e572d:0x69b4b7299f0ccc7!8m2!3d20.0874517!4d76.5184904!16s%2Fg%2F11bw68bbhf!19sChIJLVc-eiSc0DsRx8zwmXJLmwY?authuser=0&hl=en&rclk=1,"20.0874517,76.51849039999999"
Chandur Charpara Masjid,Mosque,"WQ9C+GFJ Chandur Charpara Masjid, Bhadur, West Bengal 712602",,WQ9C+GFJ,Bhadur,,West Bengal,IN,https://www.google.com/maps/place/Chandur+Charpara+Masjid/data=!4m7!3m6!1s0x39f8170be2c38e5d:0x50b4e3850efb753a!8m2!3d22.9188423!4d87.7711345!16s%2Fg%2F11ghlj_3mq!19sChIJXY7D4gsX-DkROnX7DoXjtFA?authuser=0&hl=en&rclk=1,"22.918842299999998,87.7711345"
Daddu Corner Road,Mosque,"6QQ2+W9 Daddu Corner Road, Riddhpur, Chandur Bazar, Maharashtra 444704",Riddhpur,6QQ2+W9,Chandur Bazar,,Maharashtra,IN,https://www.google.com/maps/place/Daddu+Corner+Road/data=!4m7!3m6!1s0x3bd6851e9345cbdb:0xbbecb0ae32eca08d!8m2!3d21.2397755!4d77.7509423!16s%2Fg%2F11rvd5wjjm!19sChIJ28tFkx6F1jsRjaDsMq6w7Ls?authuser=0&hl=en&rclk=1,"21.2397755,77.75094229999999"
Pimpal pura chandur bazar,Buddhist temple,"Pimpal pura chandur bazar, Jama Masjid, Riddhpur, Chandur Bazar, Maharashtra 444704",Riddhpur,Jama Masjid,Chandur Bazar,,Maharashtra,IN,https://www.google.com/maps/place/Pimpal+pura+chandur+bazar/data=!4m7!3m6!1s0x3bd685d31c4bda7f:0x9604b6d6681bb50f!8m2!3d21.2393559!4d77.7477361!16s%2Fg%2F11lh6dpk_y!19sChIJf9pLHNOF1jsRD7UbaNa2BJY?authuser=0&hl=en&rclk=1,"21.2393559,77.7477361"
Madar JAMA masjid,Mosque,"98RX+JM3 Madar JAMA masjid, Chandpur jogiyan, C.B.Ganj, Bareilly, Uttar Pradesh 243502",C.B.Ganj,"98RX+JM3, Chandpur jogiyan","Bareilly, Chandur Jogian",243502,Uttar Pradesh,IN,https://www.google.com/maps/place/Madar+JAMA+masjid/data=!4m7!3m6!1s0x390aa9553d2e1ac3:0xa69614218c2ae654!8m2!3d28.3915166!4d79.3491635!16s%2Fg%2F11jsy39v44!19sChIJwxouPVWpCjkRVOYqjCEUlqY?authuser=0&hl=en&rclk=1,"28.3915166,79.3491635"
Mosque,Mosque,"X4V8+Q5M Mosque, Regatte, Telangana 508255",,X4V8+Q5M,Regatte,508255,Telangana,IN,https://www.google.com/maps/place/Mosque/data=!4m7!3m6!1s0x3bcad9c16cd0c3a3:0xed3372e08d093f48!8m2!3d16.9944663!4d79.1154307!16s%2Fg%2F11qnhvtw0_!19sChIJo8PQbMHZyjsRSD8JjeByM-0?authuser=0&hl=en&rclk=1,"16.9944663,79.11543069999999"
Jama Masjid palaskhed,Mosque,"QW9G+P8G Jama Masjid palaskhed, Palaskhed, Maharashtra 444904",,QW9G+P8G,Palaskhed,444904,Maharashtra,IN,https://www.google.com/maps/place/Jama+Masjid+palaskhed/data=!4m7!3m6!1s0x3bd6a996bada2d85:0xb533597c90750e07!8m2!3d20.7693179!4d77.925839!16s%2Fg%2F11rrh9lc01!19sChIJhS3aupap1jsRBw51kHxZM7U?authuser=0&hl=en&rclk=1,"20.7693179,77.925839"
Masjid abdullah Salem bazuhier,Mosque,"M3F9+W55 Masjid abdullah Salem bazuhier, Arsapally, Nizamabad, Telangana 503001",Arsapally,M3F9+W55,Nizamabad,503001,Telangana,IN,https://www.google.com/maps/place/Masjid+abdullah+Salem+bazuhier/data=!4m7!3m6!1s0x3bcddba07f3b2e75:0x6afa7d6feb7027cb!8m2!3d18.674761!4d78.0679959!16s%2Fg%2F11srh_h5cv!19sChIJdS47f6DbzTsRyydw6299-mo?authuser=0&hl=en&rclk=1,"18.674761,78.0679959"
Masjid E Alamgir,Mosque,"MWWF+RP7 Masjid E Alamgir, Qasim Gatla Road, Devarakonda, Penchikalpahad, Telangana 508248",,"MWWF+RP7, Qasim Gatla Road","Devarakonda, Penchikalpahad",508248,Telangana,IN,https://www.google.com/maps/place/Masjid+E+Alamgir/data=!4m7!3m6!1s0x3bcaed07dd527c81:0x2cfefb928a928e43!8m2!3d16.6975338!4d78.9241411!16s%2Fg%2F11l1nynz6n!19sChIJgXxS3QftyjsRQ46SipL7_iw?authuser=0&hl=en&rclk=1,"16.6975338,78.9241411"
msjid,Mosque,"47PG+VHJ msjid, Chandpur - Bijnor Rd, Chandpur, Mehmoodpur Kasba, Uttar Pradesh 246725",,"47PG+VHJ, Chandpur - Bijnor Rd","Chandpur, Mehmoodpur Kasba",246725,Uttar Pradesh,IN,https://www.google.com/maps/place/%E0%A4%AE%E0%A4%B8%E0%A5%8D%E0%A4%9C%E0%A4%BF%E0%A4%A6/data=!4m7!3m6!1s0x390b97dfd09bff4b:0x738ffcfa60b9deaa!8m2!3d29.1372152!4d78.2763981!16s%2Fg%2F11j3wxhk7q!19sChIJS_-b0N-XCzkRqt65YPr8j3M?authuser=0&hl=en&rclk=1,"29.1372152,78.2763981"
Karemiya masjid,Mosque,"4PCV+GRJ Karemiya masjid, Shirala, Maharashtra 444704",,4PCV+GRJ,Shirala,444704,Maharashtra,IN,https://www.google.com/maps/place/Karemiya+masjid/data=!4m7!3m6!1s0x3bd697a986ac6111:0xc19efb8d356ebc91!8m2!3d21.1213265!4d77.7445059!16s%2Fg%2F11rvfx20rg!19sChIJEWGshqmX1jsRkbxuNY37nsE?authuser=0&hl=en&rclk=1,"21.1213265,77.7445059"
Masjid,Mosque,"72RC+C3R Masjid, Pardi, Maharashtra 444905",,72RC+C3R,Pardi,,Maharashtra,IN,https://www.google.com/maps/place/Masjid/data=!4m7!3m6!1s0x3bd42ff9be9154dd:0x83d127191e2e6c9a!8m2!3d21.2911055!4d78.0201475!16s%2Fg%2F11nnr_vprm!19sChIJ3VSRvvkv1DsRmmwuHhkn0YM?authuser=0&hl=en&rclk=1,"21.2911055,78.0201475"
MASJID,Mosque,"Q9M4+X8 MASJID, Peruru, Telangana 508278",,Q9M4+X8,Peruru,,Telangana,IN,https://www.google.com/maps/place/MASJID/data=!4m7!3m6!1s0x3bcacdcf68741b67:0x4964e076c153c8af!8m2!3d16.784934!4d79.3558024!16s%2Fg%2F11smkxz3nl!19sChIJZxt0aM_NyjsRr8hTwXbgZEk?authuser=0&hl=en&rclk=1,"16.784934,79.3558024"
Jama-e-masjid chinnamuddunoor,Mosque,"FC47+3QJ Jama-e-masjid chinnamuddunoor, SH 20, Chinnamudunur, Telangana 509385",,"FC47+3QJ, SH 20",Chinnamudunur,509385,Telangana,IN,https://www.google.com/maps/place/Jama-e-masjid+chinnamuddunoor/data=!4m7!3m6!1s0x3bca6fc486210ca9:0x8388e2cf36d9823!8m2!3d16.4552218!4d78.4144044!16s%2Fg%2F11rd2nmh4z!19sChIJqQwhhsRvyjsRI5ht8yyOOAg?authuser=0&hl=en&rclk=1,"16.4552218,78.4144044"
"Jamiya Masjid- E -Rokhiya Begum Sahaba, Bodangiparthy",Mosque,"Jamiya Masjid- E -Rokhiya Begum Sahaba, Bodangiparthy, Bodangparthy, Telangana 508244",,,Bodangparthy,,Telangana,IN,"https://www.google.com/maps/place/Jamiya+Masjid-+E+-Rokhiya+Begum+Sahaba,+Bodangiparthy/data=!4m7!3m6!1s0x3bcb204ae2545651:0xa71b2fd13a797dc0!8m2!3d17.0380776!4d79.0445656!16s%2Fg%2F1260f4xlp!19sChIJUVZU4kogyzsRwH15OtEvG6c?authuser=0&hl=en&rclk=1","17.038077599999998,79.0445656"
Mahadev Temple,Hindu temple,"RX9C+R36 Mahadev Temple, Chandur, Maharashtra 444904",,RX9C+R36,Chandur,444904,Maharashtra,IN,https://www.google.com/maps/place/Mahadev+Temple/data=!4m7!3m6!1s0x3bd402fc589c87ef:0xbe452481ac8fbcd2!8m2!3d20.8195349!4d77.9701402!16s%2Fg%2F11f1n94hcn!19sChIJ74ecWPwC1DsR0ryPrIEkRb4?authuser=0&hl=en&rclk=1,"20.8195349,77.9701402"
Azad Colony Masjid,Mosque,"M2M7+GVW Azad Colony Masjid, Kapila Nagar, Akola, Maharashtra 444001",Kapila Nagar,M2M7+GVW,Akola,444001,Maharashtra,IN,https://www.google.com/maps/place/Azad+Colony+Masjid/data=!4m7!3m6!1s0x3bd72d907c638b7f:0xfdecb6ea56f1bcab!8m2!3d20.6838594!4d77.0147046!16s%2Fg%2F11kjd181cr!19sChIJf4tjfJAt1zsRq7zxVuq27P0?authuser=0&hl=en&rclk=1,"20.6838594,77.0147046"
Chandupatla masjid (syeda),Mosque,"GX3J+PFC Chandupatla masjid (syeda), masjid, Chandupatla, Telangana 508116",,GX3J+PFC masjid,Chandupatla,,Telangana,IN,https://www.google.com/maps/place/Chandupatla+masjid+%28syeda%29/data=!4m7!3m6!1s0x3bcb69750ef18efb:0x307960f9eae15ea9!8m2!3d17.5043207!4d78.9811407!16s%2Fg%2F11ll8097q1!19sChIJ-47xDnVpyzsRqV7h6vlgeTA?authuser=0&hl=en&rclk=1,"17.5043207,78.9811407"
"Zaini Masjid, Bohra Jamaat",Mosque,"6PQW+5JC Zaini Masjid, Bohra Jamaat, SH24A, Chandur Bazar, Maharashtra 444704",,"6PQW+5JC, SH24A",Chandur Bazar,444704,Maharashtra,IN,"https://www.google.com/maps/place/Zaini+Masjid,+Bohra+Jamaat/data=!4m7!3m6!1s0x3bd6855f985aaaab:0xb52bc90c8bf2087b!8m2!3d21.2379332!4d77.7465046!16s%2Fg%2F11sscs0m00!19sChIJq6pamF-F1jsRewjyiwzJK7U?authuser=0&hl=en&rclk=1","21.2379332,77.7465046"
Makka Sunni Masjid,Mosque,"6QR2+HJ2 Makka Sunni Masjid, Riddhpur, Chandur Bazar, Maharashtra 444704",Riddhpur,6QR2+HJ2,Chandur Bazar,444704,Maharashtra,IN,https://www.google.com/maps/place/Makka+Sunni+Masjid/data=!4m7!3m6!1s0x3bd685c5612c53db:0x3dbd6bf454fa3006!8m2!3d21.2413816!4d77.7515079!16s%2Fg%2F11kjh5787j!19sChIJ21MsYcWF1jsRBjD6VPRrvT0?authuser=0&hl=en&rclk=1,"21.2413816,77.7515079"
Jama masjid,Mosque,"M246+4MQ Jama masjid, Khadki, Chandur, Maharashtra 444302",Khadki,M246+4MQ,Chandur,444302,Maharashtra,IN,https://www.google.com/maps/place/Jama+masjid/data=!4m7!3m6!1s0x3bd72d77e4cf5b83:0x7642d0bea2bd29ea!8m2!3d20.6553339!4d77.0117297!16s%2Fg%2F11qp0bg80_!19sChIJg1vP5Hct1zsR6im9or7QQnY?authuser=0&hl=en&rclk=1,"20.6553339,77.0117297"
"Jama Masjid, quzi Pura",Mosque,"Jama Masjid, quzi Pura, Jama Masjid, Shirajgaon Band, quazi Pura, Chandur Bazar, Maharashtra 444704","Shirajgaon Band, quazi Pura",Jama Masjid,Chandur Bazar,444704,Maharashtra,IN,"https://www.google.com/maps/place/Jama+Masjid,+quzi+Pura/data=!4m7!3m6!1s0x3bd68f890fdbdf73:0xbf9ddf2268a1e612!8m2!3d21.2306187!4d77.7269099!16s%2Fg%2F11kj7cdkcs!19sChIJc9_bD4mP1jsREuahaCLfnb8?authuser=0&hl=en&rclk=1","21.230618699999997,77.7269099"
Jama masjid,Mosque,"V8JQ+H7J Jama masjid, Chandur Biswa, Maharashtra 443401",,V8JQ+H7J,Chandur Biswa,443401,Maharashtra,IN,https://www.google.com/maps/place/Jama+masjid/data=!4m7!3m6!1s0x3bd9e799756332fd:0x29bd8b151919a6d4!8m2!3d20.8814653!4d76.3381257!16s%2Fg%2F11t_m9_wdj!19sChIJ_TJjdZnn2TsR1KYZGRWLvSk?authuser=0&hl=en&rclk=1,"20.8814653,76.33812569999999"
Nagina masjid,Mosque,"Nagina masjid, Chandur Biswa, Maharashtra 443401",,,Chandur Biswa,,Maharashtra,IN,https://www.google.com/maps/place/Nagina+masjid/data=!4m7!3m6!1s0x3bd9e76711675603:0xf98aeec718a0f5df!8m2!3d20.883618!4d76.3373949!16s%2Fg%2F11v5jb5_nt!19sChIJA1ZnEWfn2TsR3_WgGMfuivk?authuser=0&hl=en&rclk=1,"20.883618,76.33739489999999"
msjd bwbkhr Masjid-e-Abubakar,Mosque,"V8PP+3M8 msjd bwbkhr Masjid-e-Abubakar, Chandur Biswa, Maharashtra 443401",,V8PP+3M8,Chandur Biswa,,Maharashtra,IN,https://www.google.com/maps/place/%D9%85%D8%B3%D8%AC%D8%AF+%D8%A7%D8%A8%D9%88%D8%A8%DA%A9%D8%B1+Masjid-e-Abubakar%E2%80%AD/data=!4m7!3m6!1s0x3bd9e7f7bd422b8f:0x9af58e41370a1e83!8m2!3d20.8851651!4d76.3366922!16s%2Fg%2F11jp0_7m49!19sChIJjytCvffn2TsRgx4KN0GO9Zo?authuser=0&hl=en&rclk=1,"20.8851651,76.3366922"
Pir Khwajasahab Masjid,Mosque,"JM27+VJM Pir Khwajasahab Masjid, Chandur, Karnataka 591213",,JM27+VJM,Chandur,591213,Karnataka,IN,https://www.google.com/maps/place/Pir+Khwajasahab+Masjid/data=!4m7!3m6!1s0x3bc0dc16230ed535:0x47461794424f5f58!8m2!3d16.6022221!4d74.6640354!16s%2Fg%2F11dfqwz3gn!19sChIJNdUOIxbcwDsRWF9PQpQXRkc?authuser=0&hl=en&rclk=1,"16.6022221,74.6640354"
Ansarul madina masjid Ghatladki,Mosque,"8RV6+FHP Ansarul madina masjid Ghatladki, Ghatladki, Maharashtra 444905",,8RV6+FHP,Ghatladki,,Maharashtra,IN,https://www.google.com/maps/place/Ansarul+madina+masjid+Ghatladki/data=!4m7!3m6!1s0x3bd687d4fa4d7353:0xa9ec34a4fc49a690!8m2!3d21.3437047!4d77.8114669!16s%2Fg%2F11kjk6sswj!19sChIJU3NN-tSH1jsRkKZJ_KQ07Kk?authuser=0&hl=en&rclk=1,"21.3437047,77.8114669"
"Kasabpura Masjid, Mohammadiya masji",Mosque,"6RQ6+53X Kasabpura Masjid, Mohammadiya masji, Ner Pinglai - Riddhapur - Chandurbajar Rd, Ridhapur, Maharashtra 444704",,"6RQ6+53X, Ner Pinglai - Riddhapur - Chandurbajar Rd",Ridhapur,444704,Maharashtra,IN,"https://www.google.com/maps/place/Kasabpura+Masjid,+Mohammadiya+masji/data=!4m7!3m6!1s0x3bd68557e636778b:0x93f09c430a7051d5!8m2!3d21.237985!4d77.810224!16s%2Fg%2F11jnpjn7fb!19sChIJi3c25leF1jsR1VFwCkOc8JM?authuser=0&hl=en&rclk=1","21.237985,77.81022399999999"
Chand Masjid,Mosque,"Chand Masjid, Dhankosiya patti, Chhaprauli, Chhaprauli Dehat, Uttar Pradesh 250617",,Dhankosiya patti,"Chhaprauli, Chhaprauli Dehat",,Uttar Pradesh,IN,https://www.google.com/maps/place/Chand+Masjid/data=!4m7!3m6!1s0x390dcb7087c1bbbd:0xad9fd1ef33f96c6a!8m2!3d29.2094241!4d77.1711452!16s%2Fg%2F11qbdvq7s7!19sChIJvbvBh3DLDTkRamz5M-_Rn60?authuser=0&hl=en&rclk=1,"29.2094241,77.1711452"
Madina Masjid,Mosque,"MRMM+VR9 Madina Masjid, Mominpura, Nandgaon Khandeshwar, Maharashtra 444708",,"MRMM+VR9, Mominpura",Nandgaon Khandeshwar,444708,Maharashtra,IN,https://www.google.com/maps/place/Madina+Masjid/data=!4m7!3m6!1s0x3bd6ad5ca8329bf5:0xec1debe2150916b2!8m2!3d20.6846687!4d77.8345979!16s%2Fg%2F11nn_qz589!19sChIJ9ZsyqFyt1jsRshYJFeLrHew?authuser=0&hl=en&rclk=1,"20.6846687,77.83459789999999"
Chand masjid,Mosque,"3P33+6X8 Chand masjid, Amanpur, Uttar Pradesh 243638",,3P33+6X8,Amanpur,243638,Uttar Pradesh,IN,https://www.google.com/maps/place/Chand+masjid/data=!4m7!3m6!1s0x397529b43afb1cff:0x3a9418b4bf3a3686!8m2!3d28.0530412!4d78.7049597!16s%2Fg%2F11h4fgykvd!19sChIJ_xz7OrQpdTkRhjY6v7QYlDo?authuser=0&hl=en&rclk=1,"28.0530412,78.7049597"
Jama Masjid,Mosque,"Jama Masjid, Jayastambh Chowk, infront of Badi Dargah, Talegaon Dashasar, Maharashtra 444710",,"Jayastambh Chowk, infront of Badi Dargah",Talegaon Dashasar,444710,Maharashtra,IN,https://www.google.com/maps/place/Jama+Masjid/data=!4m7!3m6!1s0x3bd407c902933a09:0x59938e95d38f0c61!8m2!3d20.6789925!4d78.0963525!16s%2Fg%2F11kqrj39g6!19sChIJCTqTAskH1DsRYQyP05WOk1k?authuser=0&hl=en&rclk=1,"20.6789925,78.0963525"
Masjid alhamd,Mosque,"WPHQ+8MM Masjid alhamd, Madnapur, Telangana 508250",,WPHQ+8MM,Madnapur,508250,Telangana,IN,https://www.google.com/maps/place/Masjid+alhamd/data=!4m7!3m6!1s0x3bcaffe30baceb39:0x7cb83aa28d894e07!8m2!3d16.9283465!4d78.7391608!16s%2Fg%2F11rxtgw5p8!19sChIJOeusC-P_yjsRB06JjaI6uHw?authuser=0&hl=en&rclk=1,"16.9283465,78.7391608"
Inamdar pura masjid,Mosque,"8PGJ+JG4 Inamdar pura masjid, Brahmanwada Thadi, Maharashtra 444720",,8PGJ+JG4,Brahmanwada Thadi,444720,Maharashtra,IN,https://www.google.com/maps/place/Inamdar+pura+masjid/data=!4m7!3m6!1s0x3bd6895ac5f6bacb:0xb1daa3084f03686e!8m2!3d21.3265198!4d77.7312189!16s%2Fg%2F11p73rwb45!19sChIJy7r2xVqJ1jsRbmgDTwij2rE?authuser=0&hl=en&rclk=1,"21.3265198,77.7312189"
MASJID,Mosque,"FH8R+RQ MASJID, Pedda Thadgur, Telangana 503309",,FH8R+RQ,Pedda Thadgur,503309,Telangana,IN,https://www.google.com/maps/place/MASJID/data=!4m7!3m6!1s0x3bce61c44b5677a9:0xefda13deed4cd459!8m2!3d18.4670198!4d77.5928219!16s%2Fg%2F11sdwpsm1t!19sChIJqXdWS8RhzjsRWdRM7d4T2u8?authuser=0&hl=en&rclk=1,"18.4670198,77.59282189999999"
Agar Masjid,Mosque,"RXF2+PM3 Agar Masjid, Agar, Maharashtra 444006",,RXF2+PM3,Agar,444006,Maharashtra,IN,https://www.google.com/maps/place/Agar+Masjid/data=!4m7!3m6!1s0x3bd73b60ee1fff8b:0x569087339924c770!8m2!3d20.8242559!4d76.951669!16s%2Fg%2F11sxwvnrc_!19sChIJi_8f7mA71zsRcMckmTOHkFY?authuser=0&hl=en&rclk=1,"20.8242559,76.951669"
chand masjid,Mosque,"WX99+8J3 chand masjid, Saharia Narpat, Uttar Pradesh 244927",,WX99+8J3,Saharia Narpat,,Uttar Pradesh,IN,https://www.google.com/maps/place/chand+masjid/data=!4m7!3m6!1s0x390af502818dc1ef:0x91a746123b9aad90!8m2!3d28.9182516!4d78.9690604!16s%2Fg%2F11t82gym30!19sChIJ78GNgQL1CjkRkK2aOxJGp5E?authuser=0&hl=en&rclk=1,"28.918251599999998,78.96906039999999"
Chad. Masjid,Mosque,"2PM8+RH8 Chad. Masjid, Bajpur, Uttar Pradesh 243638",,2PM8+RH8,Bajpur,243638,Uttar Pradesh,IN,https://www.google.com/maps/place/Chad.+Masjid/data=!4m7!3m6!1s0x39752924b0a5febb:0xec5d0aebf08680e6!8m2!3d28.0345358!4d78.7164428!16s%2Fg%2F11szdfnzx5!19sChIJu_6lsCQpdTkR5oCG8OsKXew?authuser=0&hl=en&rclk=1,"28.0345358,78.7164428"
Darul Imarat & Amil Saheb Office,Religious organization,"6PQW+5JC Darul Imarat & Amil Saheb Office, Zaini Masjid, Bohra Jamaat, SH24A, Chandur Bazar, Maharashtra 444704",,"6PQW+5JC Zaini Masjid, Bohra Jamaat, SH24A",Chandur Bazar,444704,Maharashtra,IN,https://www.google.com/maps/place/Darul+Imarat+%26+Amil+Saheb+Office/data=!4m7!3m6!1s0x3bd685d737563117:0xc07e713d9d998093!8m2!3d21.2378491!4d77.7464299!16s%2Fg%2F11g18wcwsp!19sChIJFzFWN9eF1jsRk4CZnT1xfsA?authuser=0&hl=en&rclk=1,"21.2378491,77.7464299"
