name,main_category,address,address_ward,address_street,address_city,address_postal_code,address_state,address_country_code,link,coordinates
Mayei Leikei Masjid,Mosque,"CPXQ+54G Mayei Leikei Masjid, Kabarstan Rd, Ward No.5, Kwakta, Ukhatampak, Manipur 795133","Ward No.5, Kwakta","CPXQ+54G, Kabarstan Rd",Ukhatampak,795133,Manipur,IN,https://www.google.com/maps/place/Mayei+Leikei+Masjid/data=!4m7!3m6!1s0x374eb5315024fe6d:0xc34fc16748114405!8m2!3d24.447948!4d93.7378272!16s%2Fg%2F11c1n6px9l!19sChIJbf4kUDG1TjcRBUQRSGfBT8M?authuser=0&hl=en&rclk=1,"24.447948,93.7378272"
Masjid e Aqsa Sabal Leikai,Mosque,"FP2M+RXM Masjid e Aqsa Sabal Leikai, NH-150, Kwakta, Ukhatampak, Manipur 795133",Kwakta,"FP2M+RXM, NH-150",Ukhatampak,795133,Manipur,IN,https://www.google.com/maps/place/Masjid+e+Aqsa+Sabal+Leikai/data=!4m7!3m6!1s0x374eb537a38962b9:0x91424f22fe78d2b4!8m2!3d24.4520889!4d93.7349105!16s%2Fg%2F1tlc6f6_!19sChIJuWKJoze1TjcRtNJ4_iJPQpE?authuser=0&hl=en&rclk=1,"24.4520889,93.7349105"
"Jama Masjid, Kwakta Markaz",Mosque,"CPXH+C6Q Jama Masjid, Kwakta Markaz, N.H. 150, Tiddim Rd, Kwakta, Ukhatampak, Manipur 795133",Kwakta,"CPXH+C6Q, N.H. 150, Tiddim Rd",Ukhatampak,795133,Manipur,IN,"https://www.google.com/maps/place/Jama+Masjid,+Kwakta+Markaz/data=!4m7!3m6!1s0x374eb539842905c5:0x4b6fa9276c113ac9!8m2!3d24.4490975!4d93.7312717!16s%2Fg%2F11c1qyj208!19sChIJxQUphDm1TjcRyToRbCepb0s?authuser=0&hl=en&rclk=1","24.4490975,93.7312717"
"Khurma Wali Masjid, Bengoon Maning Awang Leikai",Mosque,"Khurma Wali Masjid, Bengoon Maning Awang Leikai, Mayang Imphal Bengoon Meikibi Leirak, Mayai Lambi Rd, Mayang Imphal, Manipur 795132",,"Mayang Imphal Bengoon Meikibi Leirak, Mayai Lambi Rd","Mayang Imphal, Irong Chesaba",795132,Manipur,IN,"https://www.google.com/maps/place/Khurma+Wali+Masjid,+Bengoon+Maning+Awang+Leikai/data=!4m7!3m6!1s0x3749308e9c8638cd:0x8979364a49f90e8d!8m2!3d24.6031478!4d93.9003611!16s%2Fg%2F11c3k2xwnl!19sChIJzTiGnI4wSTcRjQ75SUo2eYk?authuser=0&hl=en&rclk=1","24.6031478,93.9003611"
masjid-e-taqwa,Mosque,"JV5V+5PQ masjid-e-taqwa, Bengoon Mayai Rd, Mayang Imphal, Manipur 795132",,"JV5V+5PQ, Bengoon Mayai Rd",Mayang Imphal,795132,Manipur,IN,https://www.google.com/maps/place/masjid-e-taqwa/data=!4m7!3m6!1s0x3749308f0513e4f5:0x20624515dfb4f538!8m2!3d24.6079553!4d93.8943687!16s%2Fg%2F11bxdyvqbz!19sChIJ9eQTBY8wSTcROPW03xVFYiA?authuser=0&hl=en&rclk=1,"24.6079553,93.8943687"
Chowrai Wali Masjid No 3,Mosque,"JVWP+R42 Chowrai Wali Masjid No 3, Paobitek Rd, Yumnam Huidrom, Manipur 795009",,"JVWP+R42, Paobitek Rd",Yumnam Huidrom,795009,Manipur,IN,https://www.google.com/maps/place/Chowrai+Wali+Masjid+No+3/data=!4m7!3m6!1s0x3749303de4d48b55:0x89b1abfd64fafe95!8m2!3d24.6470141!4d93.8852502!16s%2Fg%2F11gffr6hnz!19sChIJVYvU5D0wSTcRlf76ZP2rsYk?authuser=0&hl=en&rclk=1,"24.6470141,93.8852502"
Borayangbi Purani Masjid (Markaz),Mosque,"9RFM+CG2 Borayangbi Purani Masjid (Markaz), Borayangbi, Sagang, Manipur 795133",Borayangbi,9RFM+CG2,Sagang,795133,Manipur,IN,https://www.google.com/maps/place/Borayangbi+Purani+Masjid+%28Markaz%29/data=!4m7!3m6!1s0x37494eae1560f4c7:0xde3bbf850f7bdc06!8m2!3d24.3735086!4d93.8337516!16s%2Fg%2F11by_d6z0b!19sChIJx_RgFa5OSTcRBtx7D4W_O94?authuser=0&hl=en&rclk=1,"24.373508599999997,93.8337516"
Noorwali Masjid,Mosque,"Noorwali Masjid, 795133, Ward Number 8, Kwakta, Ukhatampak, Manipur 795133","Ward Number 8, Kwakta",795133,Ukhatampak,795133,Manipur,IN,https://www.google.com/maps/place/Noorwali+Masjid/data=!4m7!3m6!1s0x374eb53b9243d809:0x9e434fa2050a4912!8m2!3d24.4470415!4d93.7290034!16s%2Fg%2F11gbxch_b8!19sChIJCdhDkju1TjcREkkKBaJPQ54?authuser=0&hl=en&rclk=1,"24.447041499999997,93.7290034"
Jama Masjid- Bishnupur,Mosque,"JQJ3+5F7 Jama Masjid- Bishnupur, Bishnupur, Chini Ingkhol, Manipur 795126",,JQJ3+5F7,"Bishnupur, Chini Ingkhol",795126,Manipur,IN,https://www.google.com/maps/place/Jama+Masjid-+Bishnupur/data=!4m7!3m6!1s0x374932d0756e64e3:0xfa50304a7f57df13!8m2!3d24.6304006!4d93.7536697!16s%2Fg%2F11dfjcj7n4!19sChIJ42RuddAySTcRE99Xf0owUPo?authuser=0&hl=en&rclk=1,"24.630400599999998,93.75366969999999"
Masjid e Abu Bakr,Mosque,"CPWJ+4VP Masjid e Abu Bakr, Kwakta, Ward No.7, Ukhatampak, Manipur 795133","Ward No.7, Kwakta","CPWJ+4VP, Kwakta",Ukhatampak,795133,Manipur,IN,https://www.google.com/maps/place/Masjid+e+Abu+Bakr/data=!4m7!3m6!1s0x374eb53a8c8721e9:0xa98e8846517514ff!8m2!3d24.4453389!4d93.732196!16s%2Fg%2F11f122s70r!19sChIJ6SGHjDq1TjcR_xR1UUaIjqk?authuser=0&hl=en&rclk=1,"24.4453389,93.732196"
Maronglou Awang Masjid,Mosque,"FQ34+F33 Maronglou Awang Masjid, Maronglou, Kwakta, Ukhatampak, Manipur 795133",Kwakta,"FQ34+F33, Maronglou",Ukhatampak,795133,Manipur,IN,https://www.google.com/maps/place/Maronglou+Awang+Masjid/data=!4m7!3m6!1s0x37494ac78c6d0f95:0xec4bffc2af4a1710!8m2!3d24.4536411!4d93.7551664!16s%2Fg%2F11fzvph48f!19sChIJlQ9tjMdKSTcREBdKr8L_S-w?authuser=0&hl=en&rclk=1,"24.4536411,93.7551664"
Masjid-e-Saaliheen,Mosque,"JV2W+RGW Masjid-e-Saaliheen, Muslam Leirak Bengoon Mayang Imphal, Imphal, Manipur 795132",,"JV2W+RGW, Muslam Leirak Bengoon Mayang Imphal","Imphal, Irong Chesaba",795132,Manipur,IN,https://www.google.com/maps/place/Masjid-e-Saaliheen/data=!4m7!3m6!1s0x3749309a9abe1edd:0x5d387c7925e14f79!8m2!3d24.6021155!4d93.8963367!16s%2Fg%2F11c525t_zt!19sChIJ3R6-mpowSTcReU_hJXl8OF0?authuser=0&hl=en&rclk=1,"24.6021155,93.89633669999999"
Houj Wali Masjid,Mosque,"JV2R+Q77 Houj Wali Masjid, Bengoon Makha Leikai, Mayang Imphal, Manipur 795132",,"JV2R+Q77, Bengoon Makha Leikai",Mayang Imphal,795132,Manipur,IN,https://www.google.com/maps/place/Houj+Wali+Masjid/data=!4m7!3m6!1s0x374930922b55642b:0xc36b97b01652434a!8m2!3d24.6019215!4d93.8906852!16s%2Fg%2F11fy26bfwq!19sChIJK2RVK5IwSTcRSkNSFrCXa8M?authuser=0&hl=en&rclk=1,"24.6019215,93.8906852"
Jannat Wali Masjid,Mosque,"JV5Q+9F4 Jannat Wali Masjid, Mayang Imphal, Manipur 795132",,JV5Q+9F4,Mayang Imphal,795132,Manipur,IN,https://www.google.com/maps/place/Jannat+Wali+Masjid/data=!4m7!3m6!1s0x3749308c56d8fc05:0x7f28a4867346cc4f!8m2!3d24.6083967!4d93.8887089!16s%2Fg%2F11g020knfg!19sChIJBfzYVowwSTcRT8xGc4akKH8?authuser=0&hl=en&rclk=1,"24.6083967,93.8887089"
Noorani Masjid Halka Markaj,Mosque,"JW63+2Q6 Noorani Masjid Halka Markaj, Irong Chesaba, Manipur 795132",,JW63+2Q6,Irong Chesaba,795132,Manipur,IN,https://www.google.com/maps/place/Noorani+Masjid+Halka+Markaj/data=!4m7!3m6!1s0x3749308225e2d2bf:0xa3130be5dfd7dd31!8m2!3d24.6100314!4d93.9043985!16s%2Fg%2F11c74d50vj!19sChIJv9LiJYIwSTcRMd3X3-ULE6M?authuser=0&hl=en&rclk=1,"24.6100314,93.9043985"
Paobitek Idiga Walli Masjid.No.4,Mosque,"JVVM+P59 Paobitek Idiga Walli Masjid.No.4, Paobitek Rd, Yumnam Huidrom, Manipur 795009",,"JVVM+P59, Paobitek Rd",Yumnam Huidrom,795009,Manipur,IN,https://www.google.com/maps/place/Paobitek+Idiga+Walli+Masjid.No.4/data=!4m7!3m6!1s0x3749303efa0419df:0x70982eab96a61828!8m2!3d24.6442849!4d93.8829933!16s%2Fg%2F11h9y56hsd!19sChIJ3xkE-j4wSTcRKBimlqsumHA?authuser=0&hl=en&rclk=1,"24.6442849,93.8829933"
Foorqaniwali Masjid,Mosque,"Bengoon, Foorqaniwali Masjid, Mayang Imphal, Irong Chesaba, Manipur 795132",,Bengoon,"Mayang Imphal, Irong Chesaba",,Manipur,IN,https://www.google.com/maps/place/Foorqaniwali+Masjid/data=!4m7!3m6!1s0x3749308fe7048ab9:0x1d4e2674343679bb!8m2!3d24.605247!4d93.8949423!16s%2Fg%2F11bvcttj73!19sChIJuYoE548wSTcRu3k2NHQmTh0?authuser=0&hl=en&rclk=1,"24.605247,93.8949423"
Muslam Masjid,Mosque,"Muslam Masjid, Bengoon Mamang, Mayai Lambi Road, Muslam Leirak Bengoon, Mayang Imphal, Manipur 795132",,"Bengoon Mamang, Mayai Lambi Road, Muslam Leirak Bengoon","Mayang Imphal, Irong Chesaba",795132,Manipur,IN,https://www.google.com/maps/place/Muslam+Masjid/data=!4m7!3m6!1s0x3749309abcfc8dff:0x14be33e2634b1ce0!8m2!3d24.6034044!4d93.8967717!16s%2Fg%2F11cjp75mm6!19sChIJ_438vJowSTcR4BxLY-IzvhQ?authuser=0&hl=en&rclk=1,"24.6034044,93.8967717"
Wangmayum Masjid,Mosque,"JV4V+H59 Wangmayum Masjid, Mayang Imphal, Manipur 795132",,JV4V+H59,Mayang Imphal,795132,Manipur,IN,https://www.google.com/maps/place/Wangmayum+Masjid/data=!4m7!3m6!1s0x3749308e485cc7e1:0xe450bffea236025e!8m2!3d24.6064023!4d93.8929813!16s%2Fg%2F11c5xk6679!19sChIJ4cdcSI4wSTcRXgI2ov6_UOQ?authuser=0&hl=en&rclk=1,"24.6064023,93.8929813"
"Aam Wali Masjid, Bengoon",Mosque,"JV6R+2G9 Aam Wali Masjid, Bengoon, Meikibi Leirak,, Mayang Imphal, Manipur 795132",,"JV6R+2G9, Meikibi Leirak,",Mayang Imphal,795132,Manipur,IN,"https://www.google.com/maps/place/Aam+Wali+Masjid,+Bengoon/data=!4m7!3m6!1s0x3749308eaf5b5cc1:0x1e1e5375995b0dee!8m2!3d24.6100477!4d93.8913638!16s%2Fg%2F11csssbhk0!19sChIJwVxbr44wSTcR7g1bmXVTHh4?authuser=0&hl=en&rclk=1","24.6100477,93.8913638"
Daee Masjid Khuman Mayai,Mosque,"FQ46+JH7 Daee Masjid Khuman Mayai, Khuman, Kwakta, Ukhatampak, Manipur 795133",Kwakta,"FQ46+JH7, Khuman",Ukhatampak,795133,Manipur,IN,https://www.google.com/maps/place/Daee+Masjid+Khuman+Mayai/data=!4m7!3m6!1s0x37494abfaa2c5a43:0xe381189e086d2114!8m2!3d24.456538!4d93.7614327!16s%2Fg%2F11gc9h2f5f!19sChIJQ1osqr9KSTcRFCFtCJ4YgeM?authuser=0&hl=en&rclk=1,"24.456538,93.7614327"
Loktak Project Masjid,Mosque,"HPJQ+5CG Loktak Project Masjid, Ningthoukhong, Zero Colony, Loktak, Manipur 795126",Zero Colony,"HPJQ+5CG, Ningthoukhong",Loktak,795126,Manipur,IN,https://www.google.com/maps/place/Loktak+Project+Masjid/data=!4m7!3m6!1s0x374eccac1f9e42bf:0x27ea97e05e3d8f0f!8m2!3d24.5804332!4d93.7385826!16s%2Fg%2F11fzwpvjzq!19sChIJv0KeH6zMTjcRD489XuCX6ic?authuser=0&hl=en&rclk=1,"24.580433199999998,93.7385826"
Tower Wali Masjid,Mosque,"JV9X+5H5 Tower Wali Masjid, Irong Chesaba Rd, Mayang Imphal, Manipur 795132",,"JV9X+5H5, Irong Chesaba Rd",Mayang Imphal,795132,Manipur,IN,https://www.google.com/maps/place/Tower+Wali+Masjid/data=!4m7!3m6!1s0x3749307d98b7b3eb:0xfbf6ad7896973642!8m2!3d24.6178767!4d93.898977!16s%2Fg%2F11b73xky6x!19sChIJ67O3mH0wSTcRQjaXlnit9vs?authuser=0&hl=en&rclk=1,"24.6178767,93.898977"
AISHA Masjid LEITANPOKPI,Mosque,"CQ73+WP9 AISHA Masjid LEITANPOKPI, LEITANPOKPI, Saiton, Manipur 795133",,"CQ73+WP9, LEITANPOKPI",Saiton,795133,Manipur,IN,https://www.google.com/maps/place/AISHA+Masjid+LEITANPOKPI/data=!4m7!3m6!1s0x37494b3a655f02a1:0x3d6d287b280f791f!8m2!3d24.4147764!4d93.7543442!16s%2Fg%2F11crzq4bf5!19sChIJoQJfZTpLSTcRH3kPKHsobT0?authuser=0&hl=en&rclk=1,"24.414776399999997,93.75434419999999"
Nababwali Masjid,Mosque,"CQX2+CCP Nababwali Masjid, Sevla, Kwakta, Ukhatampak, Manipur 795133",Kwakta,"CQX2+CCP, Sevla",Ukhatampak,795133,Manipur,IN,https://www.google.com/maps/place/Nababwali+Masjid/data=!4m7!3m6!1s0x37494ac92a1bef75:0xf73cf1f4967b130b!8m2!3d24.4485798!4d93.75107!16s%2Fg%2F11gcf19w49!19sChIJde8bKslKSTcRCxN7lvTxPPc?authuser=0&hl=en&rclk=1,"24.448579799999997,93.75107"
Unchiwali Masjid,Mosque,"CPXX+3VC Unchiwali Masjid, Sevla, Kwakta, Ukhatampak, Manipur 795133",Kwakta,"CPXX+3VC, Sevla",Ukhatampak,795133,Manipur,IN,https://www.google.com/maps/place/Unchiwali+Masjid/data=!4m7!3m6!1s0x37494aceb71bf03b:0x625b48686dd59373!8m2!3d24.4476892!4d93.7496417!16s%2Fg%2F11gbxbr5y8!19sChIJO_Abt85KSTcRc5PVbWhIW2I?authuser=0&hl=en&rclk=1,"24.4476892,93.7496417"
Muqaam Walli Masjid,Mosque,"JW42+Q37 Muqaam Walli Masjid, Mayai Lambi Rd, Mayang Imphal, Irong Chesaba, Manipur 795132",,"JW42+Q37, Mayai Lambi Rd","Mayang Imphal, Irong Chesaba",795132,Manipur,IN,https://www.google.com/maps/place/Muqaam+Walli+Masjid/data=!4m7!3m6!1s0x374930848dfcc1c5:0xd0a4c9e9ff71d241!8m2!3d24.6069008!4d93.9001721!16s%2Fg%2F11bw218h6v!19sChIJxcH8jYQwSTcRQdJx_-nJpNA?authuser=0&hl=en&rclk=1,"24.6069008,93.90017209999999"
Irong Cheshaba Uchiwa Zilla Markaz Masjid,Mosque,"JV8W+VGV Irong Cheshaba Uchiwa Zilla Markaz Masjid, Irong Chesaba Rd, Mayang Imphal, Manipur 795132",,"JV8W+VGV, Irong Chesaba Rd",Mayang Imphal,795132,Manipur,IN,https://www.google.com/maps/place/Irong+Cheshaba+Uchiwa+Zilla+Markaz+Masjid/data=!4m7!3m6!1s0x3749307d52649447:0xfca864eb646227c4!8m2!3d24.6172422!4d93.8962962!16s%2Fg%2F11g027j_l9!19sChIJR5RkUn0wSTcRxCdiZOtkqPw?authuser=0&hl=en&rclk=1,"24.6172422,93.8962962"
Masjide Anwar Kakyenkhong,Mosque,"GVF7+WRM Masjide Anwar Kakyenkhong, Komlakhong, Manipur 795132",,GVF7+WRM,Komlakhong,795132,Manipur,IN,https://www.google.com/maps/place/Masjide+Anwar+Kakyenkhong/data=!4m7!3m6!1s0x374936ffcf34a759:0x581c89b31ef39d66!8m2!3d24.5248325!4d93.8645601!16s%2Fg%2F11gbxgpynj!19sChIJWac0z_82STcRZp3zHrOJHFg?authuser=0&hl=en&rclk=1,"24.5248325,93.86456009999999"
Paobitek Maning Masjid 5,Mosque,"JVVG+J6W Paobitek Maning Masjid 5, Paobitek Rd, Shamushang, Manipur 795132",,"JVVG+J6W, Paobitek Rd",Shamushang,795132,Manipur,IN,https://www.google.com/maps/place/Paobitek+Maning+Masjid+5/data=!4m7!3m6!1s0x374930139be7919d:0xa72f45ea9236e671!8m2!3d24.6441164!4d93.8755875!16s%2Fg%2F11gfcz1gnd!19sChIJnZHnmxMwSTcRceY2kupFL6c?authuser=0&hl=en&rclk=1,"24.644116399999998,93.8755875"
Masjid Al Falah,Mosque,"FP2R+9PR Masjid Al Falah, sabal leikai Rd, Kwakta, Ukhatampak, Manipur 795133",Kwakta,"FP2R+9PR, sabal leikai Rd",Ukhatampak,795133,Manipur,IN,https://www.google.com/maps/place/Masjid+Al+Falah/data=!4m7!3m6!1s0x374eb534e463f029:0x3f7e6ec317aa13be!8m2!3d24.4509943!4d93.7417808!16s%2Fg%2F11dyqszm3l!19sChIJKfBj5DS1TjcRvhOqF8Nufj8?authuser=0&hl=en&rclk=1,"24.450994299999998,93.7417808"
Purana Masjid,Mosque,"CPXV+J42 Purana Masjid, Thingel Leikai, Kwakta, Ukhatampak, Manipur 795133","Ward No.4, Kwakta","CPXV+J42, Thingel Leikai",Ukhatampak,795133,Manipur,IN,https://www.google.com/maps/place/Purana+Masjid/data=!4m7!3m6!1s0x374eb534a50c8847:0x6a3b81b0aab3f58!8m2!3d24.4490247!4d93.7427675!16s%2Fg%2F11fz9yt_h2!19sChIJR4gMpTS1TjcRWD-rChu4owY?authuser=0&hl=en&rclk=1,"24.4490247,93.7427675"
Madani Masjid,Mosque,"FP4M+JW3 Madani Masjid, Terakhong, Kwakta, Ukhatampak, Manipur 795133",Kwakta,"FP4M+JW3, Terakhong",Ukhatampak,795133,Manipur,IN,https://www.google.com/maps/place/Madani+Masjid/data=!4m7!3m6!1s0x374eb54843ca0dd1:0xb55744bdd52e6059!8m2!3d24.456513!4d93.7347977!16s%2Fg%2F11f122rwb9!19sChIJ0Q3KQ0i1TjcRWWAu1b1EV7U?authuser=0&hl=en&rclk=1,"24.456512999999998,93.7347977"
Idgahwali Masjid,Mosque,"CPXV+234 Idgahwali Masjid, Kabarstan Rd, Ward No.4, Kwakta, Ukhatampak, Manipur 795133","Ward No.4, Kwakta","CPXV+234, Kabarstan Rd",Ukhatampak,795133,Manipur,IN,https://www.google.com/maps/place/Idgahwali+Masjid/data=!4m7!3m6!1s0x374eb53345a791b9:0x67b1503a7a5d3dc0!8m2!3d24.4475158!4d93.7426919!16s%2Fg%2F11dyqt32t5!19sChIJuZGnRTO1TjcRwD1dejpQsWc?authuser=0&hl=en&rclk=1,"24.447515799999998,93.7426919"
"Mayai Masjid, Bengoon",Mosque,"JV5V+77R Mayai Masjid, Bengoon, Mayang Imphal, Manipur 795132",,JV5V+77R,Mayang Imphal,795132,Manipur,IN,"https://www.google.com/maps/place/Mayai+Masjid,+Bengoon/data=!4m7!3m6!1s0x3749308efb914a99:0xf808939e130f1ae2!8m2!3d24.6082304!4d93.8931339!16s%2Fg%2F11csss__zs!19sChIJmUqR-44wSTcR4hoPE56TCPg?authuser=0&hl=en&rclk=1","24.6082304,93.8931339"
Usmania Masjid,Mosque,"Usmania Masjid, Md imtiyas, Kwakta, Ukhatampak, Manipur 795133",Kwakta,Md imtiyas,Ukhatampak,795133,Manipur,IN,https://www.google.com/maps/place/Usmania+Masjid/data=!4m7!3m6!1s0x37494ac891a1a7cf:0xe4908815f7f7322f!8m2!3d24.4508137!4d93.7512386!16s%2Fg%2F11f1njmsb3!19sChIJz6ehkchKSTcRLzL39xWIkOQ?authuser=0&hl=en&rclk=1,"24.450813699999998,93.7512386"
Pakka Wali Masjid,Mosque,"JV3R+MGV Pakka Wali Masjid, Mayang Imphal, Manipur 795132",,JV3R+MGV,Mayang Imphal,795132,Manipur,IN,https://www.google.com/maps/place/Pakka+Wali+Masjid/data=!4m7!3m6!1s0x374930921d8774f5:0xe6da85148213f144!8m2!3d24.6041791!4d93.891257!16s%2Fg%2F11f04lx4l6!19sChIJ9XSHHZIwSTcRRPETghSF2uY?authuser=0&hl=en&rclk=1,"24.6041791,93.891257"
Masjid e Aziziya,Mosque,"FP3R+JH6 Masjid e Aziziya, Terakhonshangbi, Kwakta, Ukhatampak, Manipur 795133",Kwakta,"FP3R+JH6, Terakhonshangbi",Ukhatampak,795133,Manipur,IN,https://www.google.com/maps/place/Masjid+e+Aziziya/data=!4m7!3m6!1s0x374eb54a843427a1:0x91199d647b8988ae!8m2!3d24.4540321!4d93.7413931!16s%2Fg%2F11f122s93w!19sChIJoSc0hEq1TjcRroiJe2SdGZE?authuser=0&hl=en&rclk=1,"24.4540321,93.7413931"
Qutabwali Masjid,Place of worship,"FP2C+P9F Qutabwali Masjid, Ward Number 8, Kwakta, Ukhatampak, Manipur 795133","Ward Number 8, Kwakta",FP2C+P9F,Ukhatampak,795133,Manipur,IN,https://www.google.com/maps/place/Qutabwali+Masjid/data=!4m7!3m6!1s0x374eb515aa376c37:0x101565b8b0e4e891!8m2!3d24.4518001!4d93.7209136!16s%2Fg%2F11f122sp5c!19sChIJN2w3qhW1TjcRkejksLhlFRA?authuser=0&hl=en&rclk=1,"24.4518001,93.72091359999999"
Masjide Khadija,Mosque,"GVP6+8WW Masjide Khadija, Komlakhong, Manipur 795132",,GVP6+8WW,Komlakhong,795132,Manipur,IN,https://www.google.com/maps/place/Masjide+Khadija/data=!4m7!3m6!1s0x374936e33d50daa3:0x6ecbb4b12ab18b56!8m2!3d24.5358652!4d93.8623169!16s%2Fg%2F11fy54tpdp!19sChIJo9pQPeM2STcRVouxKrG0y24?authuser=0&hl=en&rclk=1,"24.5358652,93.8623169"
Uchiwa Halka Masjid,Mosque,"HWR4+C2P Uchiwa Halka Masjid, Mayang Imphal, Manipur 795132",,HWR4+C2P,Mayang Imphal,,Manipur,IN,https://www.google.com/maps/place/Uchiwa+Halka+Masjid/data=!4m7!3m6!1s0x374930a06ab626ad:0xa34fcb494ce25a5!8m2!3d24.5910942!4d93.9050737!16s%2Fg%2F11f2wcv6xx!19sChIJrSa2aqAwSTcRpSXOlLT8NAo?authuser=0&hl=en&rclk=1,"24.5910942,93.9050737"
Minara Walli Masjid,Mosque,"JVVR+J9W Minara Walli Masjid, Yumnam Huidrom, Manipur 881078",,JVVR+J9W,Yumnam Huidrom,881078,Manipur,IN,https://www.google.com/maps/place/Minara+Walli+Masjid/data=!4m7!3m6!1s0x374930138800cd55:0x87787fd315ec6341!8m2!3d24.6441144!4d93.8909644!16s%2Fg%2F11hbk5h2q1!19sChIJVc0AiBMwSTcRQWPsFdN_eIc?authuser=0&hl=en&rclk=1,"24.6441144,93.8909644"
Nurul Huda Masjid,Mosque,"GVXC+XFV Nurul Huda Masjid, Phoubakchao Awang, Thongam",,"GVXC+XFV, Phoubakchao Awang",Thongam,,Manipur,IN,https://www.google.com/maps/place/Nurul+Huda+Masjid/data=!4m7!3m6!1s0x3749377cadcb6a57:0xbc0b178ce93c4ea8!8m2!3d24.5499972!4d93.8711796!16s%2Fg%2F11h5rdps34!19sChIJV2rLrXw3STcRqE486YwXC7w?authuser=0&hl=en&rclk=1,"24.5499972,93.87117959999999"
PHOUBAKCHAO MADRASHA WALI MASAJID,Mosque,"GVP9+J74 PHOUBAKCHAO MADRASHA WALI MASAJID, Phoubakchao, Manipur 795132",,GVP9+J74,Phoubakchao,795132,Manipur,IN,https://www.google.com/maps/place/PHOUBAKCHAO+MADRASHA+WALI+MASAJID/data=!4m7!3m6!1s0x3749371cfca0a67b:0xc92e3a36ff47131d!8m2!3d24.5365054!4d93.8682!16s%2Fg%2F11dz5bl_hv!19sChIJe6ag_Bw3STcRHRNH_zY6Lsk?authuser=0&hl=en&rclk=1,"24.5365054,93.8682"
Masjid E Wali,Mosque,"Masjid E Wali, Kwakta, khuman Awang Leikai, Moirang, Manipur 795133",,"Kwakta, khuman Awang Leikai",Moirang,795133,Manipur,IN,https://www.google.com/maps/place/Masjid+E+Wali/data=!4m7!3m6!1s0x37494bcbb82170ff:0xfa5fa27add705662!8m2!3d24.460091!4d93.7629105!16s%2Fg%2F11ty73ngky!19sChIJ_3AhuMtLSTcRYlZw3XqiX_o?authuser=0&hl=en&rclk=1,"24.460091,93.76291049999999"
Khuman Thongkhong Masjid,Mosque,"FQ25+X8M Khuman Thongkhong Masjid, Khuman, Kwakta, Ukhatampak, Manipur 795133",Kwakta,"FQ25+X8M, Khuman",Ukhatampak,795133,Manipur,IN,https://www.google.com/maps/place/Khuman+Thongkhong+Masjid/data=!4m7!3m6!1s0x37494ac737bf277d:0x75b345c6858a36d9!8m2!3d24.4524625!4d93.7582925!16s%2Fg%2F11fz9zkk55!19sChIJfSe_N8dKSTcR2TaKhcZFs3U?authuser=0&hl=en&rclk=1,"24.4524625,93.7582925"
Masjid e Sulaiman Urupmayum,Mosque,"CQX3+HXG Masjid e Sulaiman Urupmayum, Sevla, Kwakta, Ukhatampak, Manipur 795133",Kwakta,"CQX3+HXG, Sevla",Ukhatampak,795133,Manipur,IN,https://www.google.com/maps/place/Masjid+e+Sulaiman+Urupmayum/data=!4m7!3m6!1s0x37494ac66d4ec49d:0x2a0256cc6e2f300!8m2!3d24.4489464!4d93.7549629!16s%2Fg%2F11f1nj6h9z!19sChIJncRObcZKSTcRAPPixmwloAI?authuser=0&hl=en&rclk=1,"24.4489464,93.7549629"
Chowrei Wali Masjid,Mosque,"JV4R+FHC Chowrei Wali Masjid, Mayang Imphal, Manipur 795132",,JV4R+FHC,Mayang Imphal,,Manipur,IN,https://www.google.com/maps/place/Chowrei+Wali+Masjid/data=!4m7!3m6!1s0x37493179f3499b9d:0x5455a1479b619d08!8m2!3d24.6061951!4d93.8913877!16s%2Fg%2F11fd6mc4fq!19sChIJnZtJ83kxSTcRCJ1hm0ehVVQ?authuser=0&hl=en&rclk=1,"24.606195099999997,93.8913877"
Bogiwali Masjid,Mosque,"JV3V+GVP Bogiwali Masjid, Mayang Imphal, Irong Chesaba, Manipur 795132",,JV3V+GVP,"Mayang Imphal, Irong Chesaba",,Manipur,IN,https://www.google.com/maps/place/Bogiwali+Masjid/data=!4m7!3m6!1s0x374930903d0fecb5:0x686601b1daf44e35!8m2!3d24.6038468!4d93.8946919!16s%2Fg%2F11f3n68j2s!19sChIJtewPPZAwSTcRNU702rEBZmg?authuser=0&hl=en&rclk=1,"24.6038468,93.8946919"
Kinarawali Masjid,Mosque,"FP5M+C7M Kinarawali Masjid, Islampur, Terakhongshangbi, Manipur 795133",,"FP5M+C7M, Islampur",Terakhongshangbi,795133,Manipur,IN,https://www.google.com/maps/place/Kinarawali+Masjid/data=!4m7!3m6!1s0x374eb54627186471:0xc4bc2da001c64757!8m2!3d24.4585934!4d93.7331807!16s%2Fg%2F11f1p18fbk!19sChIJcWQYJ0a1TjcRV0fGAaAtvMQ?authuser=0&hl=en&rclk=1,"24.458593399999998,93.73318069999999"
Masjid E Aisha,Mosque,"FP4Q+F6X Masjid E Aisha, Terakhongshangbi, Manipur 795133",,FP4Q+F6X,Terakhongshangbi,795133,Manipur,IN,https://www.google.com/maps/place/Masjid+E+Aisha/data=!4m7!3m6!1s0x374eb5498b861621:0xe87922438a457016!8m2!3d24.4562336!4d93.7381195!16s%2Fg%2F11gcfjw_l3!19sChIJIRaGi0m1TjcRFnBFikMieeg?authuser=0&hl=en&rclk=1,"24.456233599999997,93.7381195"
"Masjid E Rashidiya, Keithelmacha",Place of worship,"FQ47+9JP Masjid E Rashidiya, Keithelmacha, Khuman, Kwakta, Ukhatampak, Manipur 795133",Kwakta,"FQ47+9JP, Khuman",Ukhatampak,795133,Manipur,IN,"https://www.google.com/maps/place/Masjid+E+Rashidiya,+Keithelmacha/data=!4m7!3m6!1s0x37494a95636a4f83:0x9df62454264fbdc2!8m2!3d24.4559688!4d93.7640767!16s%2Fg%2F11fzfdp4nt!19sChIJg09qY5VKSTcRwr1PJlQk9p0?authuser=0&hl=en&rclk=1","24.455968799999997,93.76407669999999"
MARKAZ Masjid KOMLAKHONG MAKHA,Mosque,"MARKAZ Masjid KOMLAKHONG MAKHA, Komlakhong, Manipur 795132",,,Komlakhong,795132,Manipur,IN,https://www.google.com/maps/place/MARKAZ+Masjid+KOMLAKHONG+MAKHA/data=!4m7!3m6!1s0x3749376d519eb923:0x9a6962419af919bc!8m2!3d24.5221875!4d93.8679375!16s%2Fg%2F11rsp8bhg1!19sChIJI7meUW03STcRvBn5mkFiaZo?authuser=0&hl=en&rclk=1,"24.522187499999998,93.8679375"
Karanchi wali masjid,Mosque,"Karanchi wali masjid, Moirang Palli Rd, Cherapur Bazar, Sangaiyumpham, Manipur 795148",Cherapur Bazar,Moirang Palli Rd,Sangaiyumpham,795148,Manipur,IN,https://www.google.com/maps/place/Karanchi+wali+masjid/data=!4m7!3m6!1s0x37493d62e32c6b59:0x27db28f44ba4c1be!8m2!3d24.5975599!4d94.0046183!16s%2Fg%2F11q2lv236y!19sChIJWWss42I9STcRvsGkS_Qo2yc?authuser=0&hl=en&rclk=1,"24.5975599,94.00461829999999"
Nongyai Wali Masjid,Mosque,"JV5W+56Q Nongyai Wali Masjid, Laisalam Rd, leirak Bengoon, Mayang Imphal, Manipur 795132",leirak Bengoon,"JV5W+56Q, Laisalam Rd",Mayang Imphal,795132,Manipur,IN,https://www.google.com/maps/place/Nongyai+Wali+Masjid/data=!4m7!3m6!1s0x374931ccb8767191:0xf6710d27b58c5ed5!8m2!3d24.6079675!4d93.8955951!16s%2Fg%2F11f7qyr_k7!19sChIJkXF2uMwxSTcR1V6MtScNcfY?authuser=0&hl=en&rclk=1,"24.607967499999997,93.8955951"
Jama Masjid,Mosque,"JV4P+RQ4 Jama Masjid, Bengoon Maning,, Mayang Imphal, Manipur",,"JV4P+RQ4, Bengoon Maning,",Mayang Imphal,,Manipur,IN,https://www.google.com/maps/place/Jama+Masjid/data=!4m7!3m6!1s0x3749308d3cc3a843:0x98397b425ed2f695!8m2!3d24.6070183!4d93.8869601!16s%2Fg%2F11c5xkjj9w!19sChIJQ6jDPI0wSTcRlfbSXkJ7OZg?authuser=0&hl=en&rclk=1,"24.6070183,93.8869601"
Noor Wali Masjid Dolaipabam,Mosque,"JV4R+3G9 Noor Wali Masjid Dolaipabam, Mayang Imphal, Manipur 795132",,JV4R+3G9,Mayang Imphal,,Manipur,IN,https://www.google.com/maps/place/Noor+Wali+Masjid+Dolaipabam/data=!4m7!3m6!1s0x3749308e0e77315d:0x8a38b4c893de15e3!8m2!3d24.6051691!4d93.8913602!16s%2Fg%2F11hc_2kzj1!19sChIJXTF3Do4wSTcR4xXek8i0OIo?authuser=0&hl=en&rclk=1,"24.605169099999998,93.8913602"
Masjid.,Mosque,"MX24+MH2 Masjid., Wangmataba Leikai, Nungei, Manipur 795130",Wangmataba Leikai,MX24+MH2,Nungei,795130,Manipur,IN,https://www.google.com/maps/place/Masjid./data=!4m7!3m6!1s0x37493b3296676be1:0x4e2722c56bf15fbb!8m2!3d24.6516408!4d93.956376!16s%2Fg%2F11h11k54wg!19sChIJ4WtnljI7STcRu1_xa8UiJ04?authuser=0&hl=en&rclk=1,"24.6516408,93.95637599999999"
"MASJID AMMAR KONUMA HIYANGAM, MANIPUR",Mosque,"MASJID AMMAR KONUMA HIYANGAM, MANIPUR, Konuma Rd, Hiyanglam Ii, Manipur 795133",,Konuma Rd,Hiyanglam Ii,795133,Manipur,IN,"https://www.google.com/maps/place/MASJID+AMMAR+KONUMA+HIYANGAM,+MANIPUR/data=!4m7!3m6!1s0x374937a34433b085:0xc20a753913d462c1!8m2!3d24.5163053!4d93.8770495!16s%2Fg%2F11lgvqc7mc!19sChIJhbAzRKM3STcRwWLUEzl1CsI?authuser=0&hl=en&rclk=1","24.5163053,93.8770495"
Masjid e Ahmadia,Mosque,"FP3R+GX8 Masjid e Ahmadia, Terakhongshangbi, Ukhatampak, Manipur 795133",,FP3R+GX8,"Terakhongshangbi, Ukhatampak",795133,Manipur,IN,https://www.google.com/maps/place/Masjid+e+Ahmadia/data=!4m7!3m6!1s0x374eb56431d94b23:0x8142176e6ddc02c1!8m2!3d24.4537812!4d93.7424601!16s%2Fg%2F11lt0tl258!19sChIJI0vZMWS1TjcRwQLcbW4XQoE?authuser=0&hl=en&rclk=1,"24.453781199999998,93.7424601"
Masjid e Habibullah,Mosque,"FP2G+GJ2 Masjid e Habibullah, Kwakta, Ukhatampak, Manipur 795133",Kwakta,FP2G+GJ2,Ukhatampak,795133,Manipur,IN,https://www.google.com/maps/place/Masjid+e+Habibullah/data=!4m7!3m6!1s0x374eb5b99da36f77:0x5d0cde0c70a46e15!8m2!3d24.4512633!4d93.7265138!16s%2Fg%2F11s_w1z7r7!19sChIJd2-jnbm1TjcRFW6kcAzeDF0?authuser=0&hl=en&rclk=1,"24.451263299999997,93.72651379999999"
Firdous wali masjid,Mosque,"JV4M+H8V Firdous wali masjid, Bengoon Yangbi Rd, Mayang Imphal, Manipur 795132",,"JV4M+H8V, Bengoon Yangbi Rd",Mayang Imphal,795132,Manipur,IN,https://www.google.com/maps/place/Firdous+wali+masjid/data=!4m7!3m6!1s0x3749319f30c151b5:0x5f84977611cc4d19!8m2!3d24.606483!4d93.8833096!16s%2Fg%2F11t3dj0n3s!19sChIJtVHBMJ8xSTcRGU3MEXaXhF8?authuser=0&hl=en&rclk=1,"24.606482999999997,93.88330959999999"
Leitanpokpi Wangma Masjid,Mosque,"Leitanpokpi Wangma Masjid, Leitanpokpi, 795133, Saiton, Manipur",,"Leitanpokpi, 795133",Saiton,,Manipur,IN,https://www.google.com/maps/place/Leitanpokpi+Wangma+Masjid/data=!4m7!3m6!1s0x37494b379a9cd723:0x85b678ecdc62daf3!8m2!3d24.408902!4d93.7529143!16s%2Fg%2F11fzw5v9qq!19sChIJI9ecmjdLSTcR89pi3Ox4toU?authuser=0&hl=en&rclk=1,"24.408901999999998,93.7529143"
HAJI MUHAMDALI WALI MASJID,Mosque,"JWJ4+P87 HAJI MUHAMDALI WALI MASJID, Irong Idgah Rd, Irong Chesaba, Manipur 795132",,"JWJ4+P87, Irong Idgah Rd",Irong Chesaba,795132,Manipur,IN,https://www.google.com/maps/place/HAJI+MUHAMDALI+WALI+MASJID/data=!4m7!3m6!1s0x374931af2187481d:0x69afa56b5e9c437f!8m2!3d24.6317786!4d93.9058008!16s%2Fg%2F11n5bs3jnb!19sChIJHUiHIa8xSTcRf0OcXmulr2k?authuser=0&hl=en&rclk=1,"24.6317786,93.9058008"
Masjid e Umar,Mosque,"CPXQ+54G Masjid e Umar, Kabarstan Rd, Ward No.5, Kwakta, Ukhatampak, Manipur 795133","Ward No.5, Kwakta","CPXQ+54G, Kabarstan Rd",Ukhatampak,795133,Manipur,IN,https://www.google.com/maps/place/Masjid+e+Umar/data=!4m7!3m6!1s0x374eb5e0fab1df8d:0xe6e0a673f0769450!8m2!3d24.447948!4d93.7378272!16s%2Fg%2F11hdqgvjfd!19sChIJjd-x-uC1TjcRUJR28HOm4OY?authuser=0&hl=en&rclk=1,"24.447948,93.7378272"
"Masjid-e Noor, Basei",Mosque,"JV4V+53M Masjid-e Noor, Basei, Mayang Imphal, Manipur 795132",,JV4V+53M,Mayang Imphal,,Manipur,IN,"https://www.google.com/maps/place/Masjid-e+Noor,+Basei/data=!4m7!3m6!1s0x374931c950fb6de9:0x2e56b50dc5be0b31!8m2!3d24.605474!4d93.8926712!16s%2Fg%2F11fnvm9csy!19sChIJ6W37UMkxSTcRMQu-xQ21Vi4?authuser=0&hl=en&rclk=1","24.605473999999997,93.8926712"
Moirang,Housing society,"FQR6+54W Moirang, Hemam Colony, Moirang, Manipur 795133",Hemam Colony,FQR6+54W,Moirang,,Manipur,IN,https://www.google.com/maps/place/Moirang/data=!4m7!3m6!1s0x3749358e1dcc3a89:0xca80683ccf3709b!8m2!3d24.4904808!4d93.7603339!16s%2Fg%2F11l5h576dy!19sChIJiTrMHY41STcRm3DzzIMGqAw?authuser=0&hl=en&rclk=1,"24.4904808,93.76033389999999"
Hafsah Masjid phusam colony,Mosque,"GVP7+89G Hafsah Masjid phusam colony, Phoubakchao, Manipur 795133",,GVP7+89G,Phoubakchao,795133,Manipur,IN,https://www.google.com/maps/place/Hafsah+Masjid+phusam+colony/data=!4m7!3m6!1s0x3749371f46c3f2b1:0x4d190944f24c2485!8m2!3d24.5358249!4d93.863444!16s%2Fg%2F11qnt4hcng!19sChIJsfLDRh83STcRhSRM8kQJGU0?authuser=0&hl=en&rclk=1,"24.535824899999998,93.863444"
Firdosh Waali Masjid,Religious destination,"HVXC+Q69 Firdosh Waali Masjid, Chirai, Mayang Imphal, Manipur 795132",,"HVXC+Q69, Chirai",Mayang Imphal,795132,Manipur,IN,https://www.google.com/maps/place/Firdosh+Waali+Masjid/data=!4m7!3m6!1s0x3749312feacf357f:0x1d99dbc0eb9643fb!8m2!3d24.5994221!4d93.8706208!16s%2Fg%2F11h_9wlq48!19sChIJfzXP6i8xSTcR-0OW68DbmR0?authuser=0&hl=en&rclk=1,"24.599422099999998,93.8706208"
Noori Masjid. Heibong Makhong,Mosque,"JW66+HVX Noori Masjid. Heibong Makhong, Irong Chesaba, Manipur 795132",,JW66+HVX,Irong Chesaba,,Manipur,IN,https://www.google.com/maps/place/Noori+Masjid.+Heibong+Makhong/data=!4m7!3m6!1s0x37493b90cb9e5f23:0x4cd4139e09784cba!8m2!3d24.6114897!4d93.9122191!16s%2Fg%2F11fklt66nt!19sChIJI1-ey5A7STcRukx4CZ4T1Ew?authuser=0&hl=en&rclk=1,"24.6114897,93.9122191"
Sangai Wali Masjid(Wangmayum),Religious destination,"JV3R+MWG Sangai Wali Masjid(Wangmayum), Muslam Leirak Bengoon, Mayang Imphal, Manipur 795132",,"JV3R+MWG, Muslam Leirak Bengoon",Mayang Imphal,795132,Manipur,IN,https://www.google.com/maps/place/Sangai+Wali+Masjid%28Wangmayum%29/data=!4m7!3m6!1s0x374931d9afa35aad:0x5ff7570eaef3046e!8m2!3d24.6041793!4d93.8923245!16s%2Fg%2F11j61t7p6l!19sChIJrVqjr9kxSTcRbgTzrg5X918?authuser=0&hl=en&rclk=1,"24.6041793,93.8923245"
Moirang stone maiba,Place of worship,"FQHJ+WHJ Moirang stone maiba, leikai, Moirang",,"FQHJ+WHJ, leikai",Moirang,,Manipur,IN,https://www.google.com/maps/place/Moirang+stone+maiba/data=!4m7!3m6!1s0x374935eee1ade257:0x9f547fe696bd5eee!8m2!3d24.479838!4d93.7813969!16s%2Fg%2F11sz5k9m65!19sChIJV-Kt4e41STcR7l69luZ_VJ8?authuser=0&hl=en&rclk=1,"24.479837999999997,93.78139689999999"
