name,main_category,address,address_ward,address_street,address_city,address_postal_code,address_state,address_country_code,link,coordinates
Masjid Nabi (msjd nby) Johri farm,Mosque,"Masjid Nabi (msjd nby) Johri farm, C7, 1st Lane Johri Farm, Noor Nagar Extension, Noor Nagar, Okhla, New Delhi, Delhi 110025","Noor Nagar Extension, Noor Nagar, Okhla","C7, 1st Lane Johri Farm",New Delhi,110025,Delhi,IN,https://www.google.com/maps/place/Masjid+Nabi+%28%D9%85%D8%B3%D8%AC%D8%AF+%D9%86%D8%A8%DB%8C%29+Johri+farm%E2%80%AD/data=!4m7!3m6!1s0x390ce5082fe1ad5f:0x5775343e83da2a45!8m2!3d28.555116!4d77.2871876!16s%2Fg%2F11mvgvl28g!19sChIJX63hLwjlDDkRRSragz40dVc?authuser=0&hl=en&rclk=1,"28.555115999999998,77.2871876"
Badi Masjid Pul Pehladpur,Mosque,"Badi Masjid Pul Pehladpur, Badi Masjid St, Block T, Pulpharadpur, Block B, Pul Pehlad Pur, New Delhi, Delhi 110044","Block T, Pulpharadpur, Block B, Pul Pehlad Pur",Badi Masjid St,New Delhi,110044,Delhi,IN,https://www.google.com/maps/place/Badi+Masjid+Pul+Pehladpur/data=!4m7!3m6!1s0x390ce778aa66f107:0xdce49d76410971ec!8m2!3d28.5004879!4d77.2923424!16s%2Fg%2F11h5rq10rt!19sChIJB_FmqnjnDDkR7HEJQXad5Nw?authuser=0&hl=en&rclk=1,"28.5004879,77.2923424"
Badi Masjid (brry msjd),Mosque,"2144, Badi Masjid (brry msjd), Turkman Gate, Asaf Ali Rd, Phatak Teliyan, Katra Chobey Lal, Chandni Chowk, Delhi, 110002","Phatak Teliyan, Katra Chobey Lal, Chandni Chowk","2144, Turkman Gate, Asaf Ali Rd",Delhi,110002,Delhi,IN,https://www.google.com/maps/place/Badi+Masjid+%28%D8%A8%DA%91%DB%8C+%D9%85%D8%B3%D8%AC%D8%AF%29%E2%80%AD/data=!4m7!3m6!1s0x390cfd239073b37f:0x43a13d14f694fc55!8m2!3d28.642746!4d77.2323859!16s%2Fg%2F1pw3wybbx!19sChIJf7NzkCP9DDkRVfyU9hQ9oUM?authuser=0&hl=en&rclk=1,"28.642746,77.2323859"
Bedi Tent & Light House,Tent House Supplier,"Bedi Tent & Light House, 572, Masjid Rd, Jangpura, Bhogal, New Delhi, Delhi 110014","Jangpura, Bhogal","572, Masjid Rd",New Delhi,110014,Delhi,IN,https://www.google.com/maps/place/Bedi+Tent+%26+Light+House/data=!4m7!3m6!1s0x390ce3a82d6cb8eb:0xcc50bc1f02d4d28d!8m2!3d28.584107!4d77.248207!16s%2Fg%2F1pp2vb0my!19sChIJ67hsLajjDDkRjdLUAh-8UMw?authuser=0&hl=en&rclk=1,"28.584107,77.248207"
Akbari Jama Masjid jm` msjd khbry,Mosque,"H8R4+QXG Akbari Jama Masjid jm` msjd khbry, Block D, New Ashok Nagar, New Delhi, Delhi, 110096","Block D, New Ashok Nagar",H8R4+QXG,"New Delhi, Delhi",110096,Delhi,IN,https://www.google.com/maps/place/Akbari+Jama+Masjid+%D8%AC%D8%A7%D9%85%D8%B9+%D9%85%D8%B3%D8%AC%D8%AF+%D8%A7%DA%A9%D8%A8%D8%B1%DB%8C%E2%80%AD/data=!4m7!3m6!1s0x390ce48c9d102c1b:0xd247049122f58286!8m2!3d28.591929!4d77.3074671!16s%2Fg%2F12vs84fbn!19sChIJGywQnYzkDDkRhoL1IpEER9I?authuser=0&hl=en&rclk=1,"28.591929,77.3074671"
Badi Masjid Ramesh Park (juma namaz 1:50pm),Mosque,"J7PF+64F Badi Masjid Ramesh Park (juma namaz 1:50pm), Ramesh Park, Laxmi Nagar, Delhi, 110031","Ramesh Park, Laxmi Nagar",J7PF+64F,Delhi,110031,Delhi,IN,https://www.google.com/maps/place/Badi+Masjid+Ramesh+Park+%28juma+namaz+1:50pm%29/data=!4m7!3m6!1s0x390cfcb1a384f9d9:0x3618add6a7e777f3!8m2!3d28.6355718!4d77.2727901!16s%2Fg%2F1hjhbc0vj!19sChIJ2fmEo7H8DDkR83fnp9atGDY?authuser=0&hl=en&rclk=1,"28.635571799999997,77.2727901"
Mohammadi Masjid,Mosque,"G7XX+C4X Mohammadi Masjid, Shaheen Bagh, Block E, Jamia Nagar, Okhla, New Delhi, Delhi 110025","Shaheen Bagh, Block E, Jamia Nagar, Okhla",G7XX+C4X,New Delhi,110025,Delhi,IN,https://www.google.com/maps/place/Mohammadi+Masjid/data=!4m7!3m6!1s0x390ce41acd709b67:0x8df25e5235479b77!8m2!3d28.5486052!4d77.2978715!16s%2Fg%2F11cp1893xh!19sChIJZ5twzRrkDDkRd5tHNVJe8o0?authuser=0&hl=en&rclk=1,"28.548605199999997,77.2978715"
Badi Masjid,Mosque,"P32Q+4M8 Badi Masjid, Unnamed Road, Block Y, Mangolpur Khurd, Mangolpuri, Delhi, 110083","Block Y, Mangolpur Khurd, Mangolpuri","P32Q+4M8, Unnamed Road",Delhi,110083,Delhi,IN,https://www.google.com/maps/place/Badi+Masjid/data=!4m7!3m6!1s0x390d041d38b0777d:0xf2ef86afcc1e862e!8m2!3d28.701363!4d77.089946!16s%2Fg%2F12hv862rn!19sChIJfXewOB0EDTkRLoYezK-G7_I?authuser=0&hl=en&rclk=1,"28.701362999999997,77.089946"
Badi Masjid,Mosque,"Badi Masjid, 11, Chhatarpur Trail, Near Dispenasary, Block A1, Chhatarpur, New Delhi, Delhi 110074","Block A1, Chhatarpur","11, Chhatarpur Trail, Near Dispenasary",New Delhi,110074,Delhi,IN,https://www.google.com/maps/place/Badi+Masjid/data=!4m7!3m6!1s0x390d1e3b2e5bd6bb:0xce37645bbda19147!8m2!3d28.497262!4d77.18255!16s%2Fg%2F12llmm12w!19sChIJu9ZbLjseDTkRR5GhvVtkN84?authuser=0&hl=en&rclk=1,"28.497262,77.18254999999999"
Subhania Masjid( Badi Masjid),Mosque,"Subhania Masjid( Badi Masjid), Ghazipur Police Station, Mulla Colony, Rajbir Colony, I.P.Extension, Gharoli, New Delhi, Delhi, 110096","Mulla Colony, Rajbir Colony, I.P.Extension, Gharoli",Ghazipur Police Station,"New Delhi, Delhi",110096,Delhi,IN,https://www.google.com/maps/place/Subhania+Masjid%28+Badi+Masjid%29/data=!4m7!3m6!1s0x390ce4d854ffffff:0xb3add6f2399e893f!8m2!3d28.6208327!4d77.3291085!16s%2Fg%2F11cjp6912h!19sChIJ____VNjkDDkRP4meOfLWrbM?authuser=0&hl=en&rclk=1,"28.620832699999998,77.32910849999999"
Abdullah Bin Masood Masjid msjd `bdllh bn ms`wd,Mosque,"J7PF+CJ5 Abdullah Bin Masood Masjid msjd `bdllh bn ms`wd, Juma Namaz time, 1:00, Street Number 12, Block N, Ramesh Park, Laxmi Nagar, New Delhi, Delhi, 110092","Block N, Ramesh Park, Laxmi Nagar","J7PF+CJ5 Juma Namaz time, 1:00, Street Number 12","New Delhi, Delhi",110092,Delhi,IN,https://www.google.com/maps/place/Abdullah+Bin+Masood+Masjid+%D9%85%D8%B3%D8%AC%D8%AF+%D8%B9%D8%A8%D8%AF%D8%A7%D9%84%D9%84%D9%87+%D8%A7%D8%A8%D9%86+%D9%85%D8%B3%D8%B9%D9%88%D8%AF%E2%80%AD/data=!4m7!3m6!1s0x390cfcb1c26380ad:0xb673c201a94112e9!8m2!3d28.6360132!4d77.2741142!16s%2Fg%2F11bytz498p!19sChIJrYBjwrH8DDkR6RJBqQHCc7Y?authuser=0&hl=en&rclk=1,"28.636013199999997,77.2741142"
"Jama Masjid, Mandawali",Mosque,"Jama Masjid, Mandawali, A-62, Mandawali Main Rd, Fazalpur, Railway Colony, Mandawali, New Delhi, Delhi 110092","Block A, Fazalpur, Railway Colony, Mandawali","A-62, Mandawali Main Rd","New Delhi, Delhi",110092,Delhi,IN,"https://www.google.com/maps/place/Jama+Masjid,+Mandawali/data=!4m7!3m6!1s0x390ce4adf29907e1:0xe801d18c3682a725!8m2!3d28.6265604!4d77.2972935!16s%2Fg%2F11dzxc3xz3!19sChIJ4QeZ8q3kDDkRJaeCNozRAeg?authuser=0&hl=en&rclk=1","28.6265604,77.2972935"
Badi(jama) Masjid,Mosque,"J4P4+2V4 Badi(jama) Masjid, Gali No. 4, Manak Vihar, Tihar Village, New Delhi, Delhi, 110018","Manak Vihar, Tihar Village","J4P4+2V4, Gali No. 4","New Delhi, Delhi",110018,Delhi,IN,https://www.google.com/maps/place/Badi%28jama%29+Masjid/data=!4m7!3m6!1s0x390d035e10a9d55f:0x40599e23ef175c9a!8m2!3d28.635023!4d77.1071989!16s%2Fg%2F11c1n313xp!19sChIJX9WpEF4DDTkRmlwX7yOeWUA?authuser=0&hl=en&rclk=1,"28.635023,77.1071989"
Jam'a Masjid Muhammadi (Badi Masjid),Mosque,"Jam'a Masjid Muhammadi (Badi Masjid), Open 24*365, From 'Fajr' Prayer to 'Isha' Prayer), Phase 2, i, Nangloi, Delhi, 110041","Block A, JJ Colony No 2, Nangloi","Open 24*365, From 'Fajr' Prayer to 'Isha' Prayer), Phase 2, i",Delhi,110041,Delhi,IN,https://www.google.com/maps/place/Jam%27a+Masjid+Muhammadi+%28Badi+Masjid%29/data=!4m7!3m6!1s0x390d0431466b1907:0x27ba04939e7e31f6!8m2!3d28.6839018!4d77.0633588!16s%2Fg%2F11bx6v55xw!19sChIJBxlrRjEEDTkR9jF-npMEuic?authuser=0&hl=en&rclk=1,"28.683901799999997,77.0633588"
Badi Masjid Maharajpur,Mosque,"Badi Masjid Maharajpur, 130, Maharajpur, Sahibabad Industrial Area Site 4, Sahibabad, Ghaziabad, Uttar Pradesh 201012","Maharajpur, Sahibabad Industrial Area Site 4, Sahibabad",130,Ghaziabad,201012,Uttar Pradesh,IN,https://www.google.com/maps/place/Badi+Masjid+Maharajpur/data=!4m7!3m6!1s0x390cfb205278f3d1:0xef23f137b4fc1d07!8m2!3d28.6550826!4d77.3297606!16s%2Fg%2F11ckr53vf6!19sChIJ0fN4UiD7DDkRBx38tDfxI-8?authuser=0&hl=en&rclk=1,"28.6550826,77.3297606"
Jama Masjid,Mosque,"Jama Masjid, A-332, JJ Colony, Block A, Sector 4, Madangir, New Delhi, Delhi 110062","JJ Colony, Block A, Sector 4, Madangir",A-332,New Delhi,110062,Delhi,IN,https://www.google.com/maps/place/Jama+Masjid/data=!4m7!3m6!1s0x390ce19b926ebdb1:0x8fc9cb3ca968f3ad!8m2!3d28.5176313!4d77.2339866!16s%2Fg%2F11g6p2lzkf!19sChIJsb1ukpvhDDkRrfNoqTzLyY8?authuser=0&hl=en&rclk=1,"28.517631299999998,77.2339866"
Badi Masjid,Mosque,"MXW4+M8X Badi Masjid, chhotu ram nagar, Bahadurgarh, Haryana 124507",chhotu ram nagar,MXW4+M8X,Bahadurgarh,124507,Haryana,IN,https://www.google.com/maps/place/Badi+Masjid/data=!4m7!3m6!1s0x390d092e8b505c8d:0xab1d1769551a3c5f!8m2!3d28.6965945!4d76.9557498!16s%2Fg%2F11c581z4zh!19sChIJjVxQiy4JDTkRXzwaVWkXHas?authuser=0&hl=en&rclk=1,"28.6965945,76.95574979999999"
"Masjid, Pul Prahladpur",Mosque,"G72R+9RX Masjid, Pul Prahladpur, Block B, Pul Pehlad Pur, New Delhi, Delhi 110044","Block B, Pul Pehlad Pur",G72R+9RX,New Delhi,110044,Delhi,IN,"https://www.google.com/maps/place/Masjid,+Pul+Prahladpur/data=!4m7!3m6!1s0x390ce6d17da0d769:0x61e2e631182fef87!8m2!3d28.5009971!4d77.2921111!16s%2Fg%2F1q5blsw29!19sChIJadegfdHmDDkRh-8vGDHm4mE?authuser=0&hl=en&rclk=1","28.5009971,77.2921111"
MASJID,Mosque,"MASJID, Wz 173a/1 new ranjeet nagar, Guru Nanak Nagar, Shadipur, Delhi 110008","Guru Nanak Nagar, Shadipur",Wz 173a/1 new ranjeet nagar,New Delhi,110008,Delhi,IN,https://www.google.com/maps/place/MASJID/data=!4m7!3m6!1s0x390d0327bb6f6129:0xe8342be2eca63326!8m2!3d28.6456917!4d77.1597324!16s%2Fg%2F11h5lkhmc2!19sChIJKWFvuycDDTkRJjOm7OIrNOg?authuser=0&hl=en&rclk=1,"28.6456917,77.1597324"
Masjid Maula Bakhsh,Mosque,"Masjid Maula Bakhsh, West Jyoti Nagar, Block D, Ashok Nagar, Shahdara, Delhi, 110093","West Jyoti Nagar, Block D, Ashok Nagar, Shahdara",,Delhi,110093,Delhi,IN,https://www.google.com/maps/place/Masjid+Maula+Bakhsh/data=!4m7!3m6!1s0x390cfb92c298e73f:0x6e4650cbeacd6690!8m2!3d28.6986216!4d77.3001071!16s%2Fg%2F11hckbc4k9!19sChIJP-eYwpL7DDkRkGbN6stQRm4?authuser=0&hl=en&rclk=1,"28.6986216,77.30010709999999"
Masjid Devband,Mosque,"G66Q+44V Masjid Devband, Tigri Colony, Tigri, Sangam Vihar, New Delhi, Delhi 110062","Tigri Colony, Tigri, Sangam Vihar",G66Q+44V,New Delhi,110062,Delhi,IN,https://www.google.com/maps/place/Masjid+Devband/data=!4m7!3m6!1s0x390ce1a02ba173f3:0x74659f41cc7c1b39!8m2!3d28.5103517!4d77.2377863!16s%2Fg%2F11b808708z!19sChIJ83OhK6DhDDkRORt8zEGfZXQ?authuser=0&hl=en&rclk=1,"28.510351699999998,77.2377863"
Badi or sabri Masjid,Mosque,"Badi or sabri Masjid, 30 Feet Rd, opposite kanchan park, Ikram Nagar, Loni Dehat, Ghaziabad, Uttar Pradesh 201102","Ikram Nagar, Loni Dehat","30 Feet Rd, opposite kanchan park",Ghaziabad,201102,Uttar Pradesh,IN,https://www.google.com/maps/place/Badi+or+sabri+Masjid/data=!4m7!3m6!1s0x390cf9379569e633:0xb86aa5d18210008!8m2!3d28.747368!4d77.2967946!16s%2Fg%2F11c5b2flj0!19sChIJM-ZplTf5DDkRCAAhGF2qhgs?authuser=0&hl=en&rclk=1,"28.747367999999998,77.2967946"
Badi Masjid,Mosque,"85QW+FH7 Badi Masjid, Dhouj, Haryana 121004",,85QW+FH7,Dhouj,121004,Haryana,IN,https://www.google.com/maps/place/Badi+Masjid/data=!4m7!3m6!1s0x390cd8a9bd8dfc11:0xf43b15178fb034ab!8m2!3d28.3386731!4d77.1964327!16s%2Fg%2F11c6cx3nsh!19sChIJEfyNvanYDDkRqzSwjxcVO_Q?authuser=0&hl=en&rclk=1,"28.338673099999998,77.1964327"
Badi Masjid Shidipura,Mosque,"M642+MWW Badi Masjid Shidipura, E Park Rd, Block 69D, Sidipura, Karol Bagh, New Delhi, Delhi, 110005","Block 69D, Sidipura, Karol Bagh","M642+MWW, E Park Rd","New Delhi, Delhi",110005,Delhi,IN,https://www.google.com/maps/place/Badi+Masjid+Shidipura/data=!4m7!3m6!1s0x390cfd7b31f19c73:0xacef813287b4cb2!8m2!3d28.6567287!4d77.2023344!16s%2Fg%2F11dyqzs123!19sChIJc5zxMXv9DDkRskx7KBP4zgo?authuser=0&hl=en&rclk=1,"28.6567287,77.2023344"
Badi Masjid msjd,Mosque,"Badi Masjid msjd, J-117, Block J, JJ Colony Wazirpur, Ashok Vihar, Delhi, 110052","Block J, JJ Colony Wazirpur, Ashok Vihar",J-117,Delhi,110052,Delhi,IN,https://www.google.com/maps/place/Badi+Masjid+%D9%85%D8%B3%D8%AC%D8%AF%E2%80%AD/data=!4m7!3m6!1s0x390d037d263d350f:0x14750643475921f8!8m2!3d28.6823172!4d77.1678431!16s%2Fg%2F11g4btk67m!19sChIJDzU9Jn0DDTkR-CFZR0MGdRQ?authuser=0&hl=en&rclk=1,"28.6823172,77.1678431"
Badi Masjid,Mosque,"Badi Masjid, 110074, Kharak, Sat Bari, New Delhi, Delhi 110074","Kharak, Sat Bari",110074,New Delhi,110074,Delhi,IN,https://www.google.com/maps/place/Badi+Masjid/data=!4m7!3m6!1s0x390ce03b4d29edfd:0x103a4cedbe1fbe4d!8m2!3d28.468273!4d77.2060496!16s%2Fg%2F11c0t58w9h!19sChIJ_e0pTTvgDDkRTb4fvu1MOhA?authuser=0&hl=en&rclk=1,"28.468273,77.2060496"
JAMA MASJID (BADI MASJID),Mosque,"C76G+FRP JAMA MASJID (BADI MASJID), bdddhkhl, Badkhal, Badkhal Village, Faridabad, Haryana 121012","bdddhkhl, Badkhal, Badkhal Village",C76G+FRP,Faridabad,121012,Haryana,IN,https://www.google.com/maps/place/JAMA+MASJID+%28BADI+MASJID%29/data=!4m7!3m6!1s0x390cde70776b0ca5:0x299e97326e3a208e!8m2!3d28.4112185!4d77.2770711!16s%2Fg%2F11cs9m3g0w!19sChIJpQxrd3DeDDkRjiA6bjKXnik?authuser=0&hl=en&rclk=1,"28.4112185,77.2770711"
Masjid Badi msjd,Mosque,"Masjid Badi msjd, 893,, Chittli Qabar Bazar Rd, Jama Masjid, Chandni Chowk, New Delhi, Delhi 110006","Bazar Chitli Qabar, Kucha Chelan, Jama Masjid, Chandni Chowk","893,, Chittli Qabar Bazar Rd","New Delhi, Delhi",110006,Delhi,IN,https://www.google.com/maps/place/Masjid+Badi+%D9%85%D8%B3%D8%AC%D8%AF%E2%80%AD/data=!4m7!3m6!1s0x390cfd219cfec1f3:0x93ccacb281d71709!8m2!3d28.645321!4d77.2357133!16s%2Fg%2F12m98gjn5!19sChIJ88H-nCH9DDkRCRfXgbKszJM?authuser=0&hl=en&rclk=1,"28.645321,77.2357133"
Badi Masjid,Mosque,"MGXF+63Q Badi Masjid, Kallu Garhi, Ghaziabad, Uttar Pradesh 201015",Kallu Garhi,MGXF+63Q,Ghaziabad,201015,Uttar Pradesh,IN,https://www.google.com/maps/place/Badi+Masjid/data=!4m7!3m6!1s0x390cf3026f91bf83:0x1bbe3ead5715766!8m2!3d28.6980855!4d77.5227395!16s%2Fg%2F11byyq_13h!19sChIJg7-RbwLzDDkRZldx1erjuwE?authuser=0&hl=en&rclk=1,"28.698085499999998,77.5227395"
badi masjid,Mosque,"8633+R9G badi masjid, Binjopur, Haryana 121004",,8633+R9G,Binjopur,121004,Haryana,IN,https://www.google.com/maps/place/badi+masjid/data=!4m7!3m6!1s0x390cd8865eb2be39:0x4b506cbda1f18406!8m2!3d28.3045625!4d77.2034591!16s%2Fg%2F11gdkq_qt_!19sChIJOb6yXobYDDkRBoTxob1sUEs?authuser=0&hl=en&rclk=1,"28.3045625,77.2034591"
Badhi Masjid,Mosque,"J6RQ+M62 Badhi Masjid, Chatta Lal Main Rd, Chatta lal Miya, Chandni Mahal, Old Delhi, New Delhi, Delhi, 110006","Chatta lal Miya, Chandni Mahal, Old Delhi","J6RQ+M62, Chatta Lal Main Rd","New Delhi, Delhi",110006,Delhi,IN,https://www.google.com/maps/place/Badhi+Masjid/data=!4m7!3m6!1s0x390cfd26cf7d2d8b:0xe45e99d7a0f602a7!8m2!3d28.64163!4d77.2380187!16s%2Fg%2F11fzb0fvsj!19sChIJiy19zyb9DDkRpwL2oNeZXuQ?authuser=0&hl=en&rclk=1,"28.64163,77.2380187"
Badi Masjid,Mosque,"MC7F+V67 Badi Masjid, Nai Bastir, Peer Wali Gali, Jassipura, Madhopura, Ghaziabad, Uttar Pradesh 201001","Jassipura, Madhopura","MC7F+V67, Nai Bastir, Peer Wali Gali",Ghaziabad,201001,Uttar Pradesh,IN,https://www.google.com/maps/place/Badi+Masjid/data=!4m7!3m6!1s0x390cf1cadf69cff3:0x208d9b6cad1ad97b!8m2!3d28.6646602!4d77.4230431!16s%2Fg%2F1ptwp6x6r!19sChIJ889p38rxDDkRe9karWybjSA?authuser=0&hl=en&rclk=1,"28.6646602,77.4230431"
Badi masjid,Mosque,"76WG+J5V Badi masjid, jabba, Ladiyapur Rd, Auli, 121004",,"76WG+J5V, jabba, Ladiyapur Rd",Auli,121004,Haryana,IN,https://www.google.com/maps/place/Badi+masjid/data=!4m7!3m6!1s0x390cd85bd7580e99:0xe8413383ba12ad3!8m2!3d28.2966088!4d77.2254228!16s%2Fg%2F11gbk3jmkj!19sChIJmQ5Y11vYDDkR0yqhOzgThA4?authuser=0&hl=en&rclk=1,"28.296608799999998,77.22542279999999"
Badi Jama Masjid,Mosque,"JCCP+798 Badi Jama Masjid, Sai Garden Rd, Shahberi, Ghaziabad, Uttar Pradesh 201009",Shahberi,"JCCP+798, Sai Garden Rd",Ghaziabad,201009,Uttar Pradesh,IN,https://www.google.com/maps/place/Badi+Jama+Masjid/data=!4m7!3m6!1s0x390cef9c56c86301:0xc65647a07153afce!8m2!3d28.620657!4d77.4359538!16s%2Fg%2F11hyw22c0_!19sChIJAWPIVpzvDDkRzq9TcaBHVsY?authuser=0&hl=en&rclk=1,"28.620656999999998,77.4359538"
Badi Masjid (Jama Masjid),Mosque,"QM68+6XV Badi Masjid (Jama Masjid), Modinagar Rd, Chaupal, Nahali, Uttar Pradesh 245304",Chaupal,"QM68+6XV, Modinagar Rd",Nahali,245304,Uttar Pradesh,IN,https://www.google.com/maps/place/Badi+Masjid+%28Jama+Masjid%29/data=!4m7!3m6!1s0x390c894daed22e8b:0x15144475368969c1!8m2!3d28.7606007!4d77.6674276!16s%2Fg%2F11hbmv948c!19sChIJiy7Srk2JDDkRwWmJNnVEFBU?authuser=0&hl=en&rclk=1,"28.760600699999998,77.6674276"
"BADI MASJID, RAKAB GANJ",Mosque,"BADI MASJID, RAKAB GANJ, Partap Gali, NEAR, Asaf Ali Rd, Rakab Ganj, New Delhi, Delhi","Bazar Chitli Qabar, Rakab Ganj, Katra Chobey Lal, Chandni Chowk","Partap Gali, NEAR, Asaf Ali Rd","New Delhi, Delhi",,Delhi,IN,"https://www.google.com/maps/place/BADI+MASJID,+RAKAB+GANJ/data=!4m7!3m6!1s0x390cfd26ab7e79ed:0x8000b54be94e3210!8m2!3d28.6420932!4d77.2351127!16s%2Fg%2F11f3rgtgrc!19sChIJ7Xl-qyb9DDkREDJO6Uu1AIA?authuser=0&hl=en&rclk=1","28.642093199999998,77.2351127"
Badi Masjid,Mosque,"G4GG+H2R Badi Masjid, Rangpuri B-Block Rd, Rangpuri Nallapar, Rangpuri, New Delhi, Delhi 110037","Rangpuri Nallapar, Rangpuri","G4GG+H2R, Rangpuri B-Block Rd",New Delhi,110037,Delhi,IN,https://www.google.com/maps/place/Badi+Masjid/data=!4m7!3m6!1s0x390d1d6824cd1367:0xf9d5fd3653ebd098!8m2!3d28.5264898!4d77.1250213!16s%2Fg%2F11scfjmbjz!19sChIJZxPNJGgdDTkRmNDrUzb91fk?authuser=0&hl=en&rclk=1,"28.5264898,77.1250213"
Noori Maszid (badi masjid),Mosque,"J27C+HG4 Noori Maszid (badi masjid), Nand Vihar, Sector 16A, Dwarka, Delhi, 110078","Nand Vihar, Sector 16A, Dwarka",J27C+HG4,Delhi,110078,Delhi,IN,https://www.google.com/maps/place/Noori+Maszid+%28badi+masjid%29/data=!4m7!3m6!1s0x390d05bf275b70e9:0x9f51b66f707a87d6!8m2!3d28.6138779!4d77.021329!16s%2Fg%2F11pdxz9qp3!19sChIJ6XBbJ78FDTkR1od6cG-2UZ8?authuser=0&hl=en&rclk=1,"28.6138779,77.021329"
Madrsa imdadul uloom and masjid,Mosque,"Madrsa imdadul uloom and masjid, B-25, Main Rd, East Laxmi Market, Block B, New Brij Puri, Krishna Nagar, New Delhi, Delhi, 110051","East Laxmi Market, Block B, New Brij Puri, Krishna Nagar","B-25, Main Rd","New Delhi, Delhi",110051,Delhi,IN,https://www.google.com/maps/place/Madrsa+imdadul+uloom+and+masjid/data=!4m7!3m6!1s0x390cfda04739d0e9:0xeb893cdafc532844!8m2!3d28.6436744!4d77.2825759!16s%2Fg%2F11mw5vzf9q!19sChIJ6dA5R6D9DDkRRChT_No8ies?authuser=0&hl=en&rclk=1,"28.6436744,77.2825759"
Badi masjid,Mosque,"Badi masjid, 3, Geetanjali Enclave, Malviya Nagar, New Delhi, Delhi 110017","Geetanjali Enclave, Malviya Nagar",3,New Delhi,110017,Delhi,IN,https://www.google.com/maps/place/Badi+masjid/data=!4m7!3m6!1s0x390ce1d4fd462019:0x9b61ff75eac846c0!8m2!3d28.5285032!4d77.2067504!16s%2Fg%2F11rwr9ywmr!19sChIJGSBG_dThDDkRwEbI6nX_YZs?authuser=0&hl=en&rclk=1,"28.5285032,77.20675039999999"
Badi Masjid,Mosque,"J6XJ+XGG Badi Masjid, Kucha Mir Ashiq, Chawri Bazar Rd, Hauz Qazi, Chandni Chowk, New Delhi, Delhi 110006","Manohar Market, Hauz Qazi, Chandni Chowk","J6XJ+XGG, Kucha Mir Ashiq, Chawri Bazar Rd","New Delhi, Delhi",110006,Delhi,IN,https://www.google.com/maps/place/Badi+Masjid/data=!4m7!3m6!1s0x390cfd185059c1f5:0xa748debb3532a!8m2!3d28.6499334!4d77.2313346!16s%2Fg%2F12hk5jmzf!19sChIJ9cFZUBj9DDkRKlOz6410CgA?authuser=0&hl=en&rclk=1,"28.6499334,77.2313346"
New Hindon vihar haj house badi masjid,Mosque,"MCH2+64H New Hindon vihar haj house badi masjid, Ghaziabad, Uttar Pradesh 201007",,MCH2+64H,Ghaziabad,201007,Uttar Pradesh,IN,https://www.google.com/maps/place/New+Hindon+vihar+haj+house+badi+masjid/data=!4m7!3m6!1s0x390cf18282f41a7f:0x6cacd34882805d18!8m2!3d28.6780642!4d77.4003483!16s%2Fg%2F11pm3ld9yk!19sChIJfxr0goLxDDkRGF2AgkjTrGw?authuser=0&hl=en&rclk=1,"28.678064199999998,77.40034829999999"
Badi Masjid,Mosque,"Badi Masjid, 5691/2, North Dr, Rui Mandi, Sadar Bazaar, New Delhi, Delhi, 110006","Rui Mandi, Sadar Bazaar","5691/2, North Dr","New Delhi, Delhi",110006,Delhi,IN,https://www.google.com/maps/place/Badi+Masjid/data=!4m7!3m6!1s0x390cfdeaea1cfd8d:0xde446d76a9804e69!8m2!3d28.6584283!4d77.2146963!16s%2Fg%2F11n7ybk2nh!19sChIJjf0c6ur9DDkRaU6AqXZtRN4?authuser=0&hl=en&rclk=1,"28.658428299999997,77.2146963"
Badi masjid,Mosque,"J6VM+GF4 Badi masjid, Unnamed Road, Bazar Chitli Qabar, Hauz Suiwalan, Old Delhi, Delhi, 110006","Bazar Chitli Qabar, Hauz Suiwalan, Old Delhi","J6VM+GF4, Unnamed Road",Delhi,110006,Delhi,IN,https://www.google.com/maps/place/Badi+masjid/data=!4m7!3m6!1s0x390cfd5cb477432d:0x1e4d3ba7a9b468!8m2!3d28.6437557!4d77.233705!16s%2Fg%2F11l3xyqqc8!19sChIJLUN3tFz9DDkRaLSppztNHgA?authuser=0&hl=en&rclk=1,"28.6437557,77.233705"
Badi Masjid,Mosque,"GCQP+HFM Badi Masjid, Kulesara, Noida, Greater Noida, Uttar Pradesh 201306",Kulesara,GCQP+HFM,"Noida, Greater Noida",201306,Uttar Pradesh,IN,https://www.google.com/maps/place/Badi+Masjid/data=!4m7!3m6!1s0x390ce9b27647bdd7:0x8d61f35560f66757!8m2!3d28.5389716!4d77.436138!16s%2Fg%2F11khvq7fy4!19sChIJ171HdrLpDDkRV2f2YFXzYY0?authuser=0&hl=en&rclk=1,"28.5389716,77.436138"
Badi Masjid,Mosque,"MH96+2CW Badi Masjid, MDR 155W, Shekhpur Khichara, Uttar Pradesh 201015",,"MH96+2CW, MDR 155W",Shekhpur Khichara,201015,Uttar Pradesh,IN,https://www.google.com/maps/place/Badi+Masjid/data=!4m7!3m6!1s0x390cf2b2a5cbffff:0x21acfc57b57d9012!8m2!3d28.6676135!4d77.5610687!16s%2Fg%2F11sscscxb1!19sChIJ___LpbLyDDkREpB9tVf8rCE?authuser=0&hl=en&rclk=1,"28.667613499999998,77.56106869999999"
Badi Masjid,Mosque,"VFRC+38X Badi Masjid, Khindora, Uttar Pradesh 201204",,VFRC+38X,Khindora,201204,Uttar Pradesh,IN,https://www.google.com/maps/place/Badi+Masjid/data=!4m7!3m6!1s0x390c5ecd3018d075:0x583ddc4998fc7db!8m2!3d28.8902274!4d77.470845!16s%2Fg%2F11c6pqvbnr!19sChIJddAYMM1eDDkR28ePmcTdgwU?authuser=0&hl=en&rclk=1,"28.890227399999997,77.470845"
Jamah Masjid Badi,Mosque,"G8J7+7F5 Jamah Masjid Badi, JJ Colony, Madanpur Khadar, New Delhi, Delhi 110076","JJ Colony, Madanpur Khadar",G8J7+7F5,New Delhi,110076,Delhi,IN,https://www.google.com/maps/place/Jamah+Masjid+Badi/data=!4m7!3m6!1s0x390ce7b78eb036b1:0x8f6236080c1ca163!8m2!3d28.5306406!4d77.3137464!16s%2Fg%2F11kk081p_j!19sChIJsTawjrfnDDkRY6EcDAg2Yo8?authuser=0&hl=en&rclk=1,"28.530640599999998,77.3137464"
Badi masjid,Mosque,"Badi masjid, B-311, Ravi Nagar, Vishnu Garden, Delhi, 110018","Ravi Nagar, Vishnu Garden",B-311,Delhi,110018,Delhi,IN,https://www.google.com/maps/place/Badi+masjid/data=!4m7!3m6!1s0x390d05281df6f2a7:0xc0baa3f30673d146!8m2!3d28.6507934!4d77.0942831!16s%2Fg%2F11txhpx306!19sChIJp_L2HSgFDTkRRtFzBvOjusA?authuser=0&hl=en&rclk=1,"28.650793399999998,77.0942831"
Badi Masjid wala Park,Mosque,"M8Q3+XJF Badi Masjid wala Park, West Jyoti Nagar, Block C 3, Nand Nagri, Mandoli, Delhi, 110093","West Jyoti Nagar, Block C 3, Nand Nagri, Mandoli",M8Q3+XJF,Delhi,110093,Delhi,IN,https://www.google.com/maps/place/Badi+Masjid+wala+Park/data=!4m7!3m6!1s0x390cfbef875c59f5:0x705a9c66e6225915!8m2!3d28.6899377!4d77.3040436!16s%2Fg%2F11t3czjlvd!19sChIJ9Vlch-_7DDkRFVki5macWnA?authuser=0&hl=en&rclk=1,"28.689937699999998,77.3040436"
Jama masjid Shan-e-ilahi badi masjid,Mosque,"M8RM+GJ3 Jama masjid Shan-e-ilahi badi masjid, Pappu Colony, Vikram Enclave, Shalimar Garden, Ghaziabad, Uttar Pradesh 201005","Pappu Colony, Vikram Enclave, Shalimar Garden",M8RM+GJ3,Ghaziabad,,Uttar Pradesh,IN,https://www.google.com/maps/place/Jama+masjid+Shan-e-ilahi+badi+masjid/data=!4m7!3m6!1s0x390cfbaf9e4c1601:0xc29b3d0785bedd9e!8m2!3d28.6912576!4d77.3340577!16s%2Fg%2F11rvlz26w_!19sChIJARZMnq_7DDkRnt2-hQc9m8I?authuser=0&hl=en&rclk=1,"28.6912576,77.3340577"
chhatta Lal miya badi masjid,Housing society,"chhatta Lal miya badi masjid, 41 gali beri wali chhatta Lal miya, Badi Masjid Rd, Delhi Gate","Delhi Gate, Old Delhi","41 gali beri wali chhatta Lal miya, Badi Masjid Rd",Delhi,,Delhi,IN,https://www.google.com/maps/place/chhatta+Lal+miya+badi+masjid/data=!4m7!3m6!1s0x390cfd1cac0270c7:0xce0fecefd8776430!8m2!3d28.6411903!4d77.2405826!16s%2Fg%2F11t1k3cdgc!19sChIJx3ACrBz9DDkRMGR32O_sD84?authuser=0&hl=en&rclk=1,"28.641190299999998,77.2405826"
Badi Masjid Orange Transformer,Mosque,"J6RQ+G28 Badi Masjid Orange Transformer, Unnamed Road, Chatta lal Miya, Chandni Mahal, Old Delhi, New Delhi, Delhi, 110006","Chatta lal Miya, Chandni Mahal, Old Delhi","J6RQ+G28, Unnamed Road","New Delhi, Delhi",110006,Delhi,IN,https://www.google.com/maps/place/Badi+Masjid+Orange+Transformer/data=!4m7!3m6!1s0x390cfd385f0a0083:0x5d7a47e91051e080!8m2!3d28.6412906!4d77.2375893!16s%2Fg%2F11gmcxp1nd!19sChIJgwAKXzj9DDkRgOBREOlHel0?authuser=0&hl=en&rclk=1,"28.641290599999998,77.2375893"
U block near badi masjid,Housing society,"U block, U block near badi masjid, near, Badi Masjid St, Pulpharadpur, Block B, minar, New Delhi, Delhi 110044","Pulpharadpur, Block B, minar","U block, near, Badi Masjid St",New Delhi,110044,Delhi,IN,https://www.google.com/maps/place/U+block+near+badi+masjid/data=!4m7!3m6!1s0x390ce7cc25f56c11:0x7204f2c17601a723!8m2!3d28.5006037!4d77.292199!16s%2Fg%2F11s8l_7g34!19sChIJEWz1JcznDDkRI6cBdsHyBHI?authuser=0&hl=en&rclk=1,"28.5006037,77.292199"
Badi Masjid,Mosque,"P5QH+G6C Badi Masjid, B-block, Mukund Pur Part I, Mukund Vihar, Mukundpur, Delhi, 110042","B-block, Mukund Pur Part I, Mukund Vihar, Mukundpur",P5QH+G6C,Delhi,,Delhi,IN,https://www.google.com/maps/place/Badi+Masjid/data=!4m7!3m6!1s0x390d016ce3e715cb:0x2354f708bd2e498c!8m2!3d28.7388213!4d77.1780294!16s%2Fg%2F11k9lj2xk1!19sChIJyxXn42wBDTkRjEkuvQj3VCM?authuser=0&hl=en&rclk=1,"28.738821299999998,77.1780294"
Markaz (Badi Masjid),Mosque,"MHH4+45P Markaz (Badi Masjid), Masuri, Uttar Pradesh 201015",,MHH4+45P,Masuri,201015,Uttar Pradesh,IN,https://www.google.com/maps/place/Markaz+%28Badi+Masjid%29/data=!4m7!3m6!1s0x390cf2b61cbaaaab:0xb5397ef14585017f!8m2!3d28.6778279!4d77.5554487!16s%2Fg%2F11txmzmkct!19sChIJq6q6HLbyDDkRfwGFRfF-ObU?authuser=0&hl=en&rclk=1,"28.677827899999997,77.5554487"
Badi masjid [ new badarpur village],Mosque,"Q6RJ+7RC Badi masjid [ new badarpur village], Loni, Ghaziabad, Mirpur Hindu, Uttar Pradesh 201102",Loni,Q6RJ+7RC,"Ghaziabad, Mirpur Hindu",,Uttar Pradesh,IN,https://www.google.com/maps/place/Badi+masjid+%5B+new+badarpur+village%5D/data=!4m7!3m6!1s0x390cffc82c617403:0x41d4914f8bc9b13d!8m2!3d28.7906877!4d77.232031!16s%2Fg%2F11sssgmxxz!19sChIJA3RhLMj_DDkRPbHJi0-R1EE?authuser=0&hl=en&rclk=1,"28.7906877,77.23203099999999"
Masjid Abu baqer siddiki,Mosque,"Masjid Abu baqer siddiki, A313, Hari enclave, Phase 1, Kirari Suleman Nagar Village, New Delhi, Delhi 110086","Phase 1, Kirari Suleman Nagar Village, Sultanpuri","A313, Hari enclave","New Delhi, Delhi",110086,Delhi,IN,https://www.google.com/maps/place/Masjid+Abu+baqer+siddiki/data=!4m7!3m6!1s0x390d05a9ccf2426d:0x3ca1464eeea82d7e!8m2!3d28.6963572!4d77.0668489!16s%2Fg%2F11qbq11_r7!19sChIJbULyzKkFDTkRfi2o7k5GoTw?authuser=0&hl=en&rclk=1,"28.696357199999998,77.0668489"
Badi Masjid,Mosque,"FM3V+VH4 Badi Masjid, Ansariyan, Sikandrabad, Uttar Pradesh 203205",Ansariyan,FM3V+VH4,Sikandrabad,203205,Uttar Pradesh,IN,https://www.google.com/maps/place/Badi+Masjid/data=!4m7!3m6!1s0x390cbd9d8ea64d63:0x49d585b77845eef4!8m2!3d28.4546323!4d77.6939409!16s%2Fg%2F11rd3mmjb_!19sChIJY02mjp29DDkR9O5FeLeF1Uk?authuser=0&hl=en&rclk=1,"28.4546323,77.6939409"
