name,main_category,address,address_ward,address_street,address_city,address_postal_code,address_state,address_country_code,link,coordinates
Dawoodi Bohra Masjid,Mosque,"P9MC+VFF Dawoodi Bohra Masjid, Old City, Murtizapur, Maharashtra 444107",Old City,P9MC+VFF,Murtizapur,444107,Maharashtra,IN,https://www.google.com/maps/place/Dawoodi+Bohra+Masjid/data=!4m7!3m6!1s0x3bd6d1e4f34189db:0x61c3c32456b9a479!8m2!3d20.7346822!4d77.3711688!16s%2Fg%2F11dftp2rps!19sChIJ24lB8-TR1jsReaS5ViTDw2E?authuser=0&hl=en&rclk=1,"20.734682199999998,77.37116879999999"
Qila Masjid,Mosque,"P9MC+PC5 Qila Masjid, Old City, Murtizapur, Maharashtra 444107",Old City,P9MC+PC5,Murtizapur,444107,Maharashtra,IN,https://www.google.com/maps/place/Qila+Masjid/data=!4m7!3m6!1s0x3bd6d1e4ed17fb6f:0x5095970c0e084bbf!8m2!3d20.7342559!4d77.3711112!16s%2Fg%2F11f2xmfdym!19sChIJb_sX7eTR1jsRv0sIDgyXlVA?authuser=0&hl=en&rclk=1,"20.734255899999997,77.3711112"
Kasabpura Masjid,Mosque,"P9MG+V34 Kasabpura Masjid, MH SH 212, Kokanwadi, Murtizapur, Maharashtra 444107",Kokanwadi,"P9MG+V34, MH SH 212",Murtizapur,444107,Maharashtra,IN,https://www.google.com/maps/place/Kasabpura+Masjid/data=!4m7!3m6!1s0x3bd6d1e31cbac1b3:0xf903c24d216e475c!8m2!3d20.7346418!4d77.3751996!16s%2Fg%2F11f2wdz2b1!19sChIJs8G6HOPR1jsRXEduIU3CA_k?authuser=0&hl=en&rclk=1,"20.7346418,77.3751996"
Pathanpura Masjid,Mosque,"P9MG+74G Pathanpura Masjid, Old City, Murtizapur, Maharashtra 444107",Old City,P9MG+74G,Murtizapur,444107,Maharashtra,IN,https://www.google.com/maps/place/Pathanpura+Masjid/data=!4m7!3m6!1s0x3bd6d1e32862e59d:0x6d648bed02979b8c!8m2!3d20.7331872!4d77.3753377!16s%2Fg%2F11h9rc8ncc!19sChIJneViKOPR1jsRjJuXAu2LZG0?authuser=0&hl=en&rclk=1,"20.7331872,77.3753377"
Jama Masjid (Sunni Masjid),Mosque,"P9PF+2C3 Jama Masjid (Sunni Masjid), Momin pura, Old City, Murtizapur, Maharashtra 444107","Momin pura, Old City",P9PF+2C3,Murtizapur,444107,Maharashtra,IN,https://www.google.com/maps/place/Jama+Masjid+%28Sunni+Masjid%29/data=!4m7!3m6!1s0x3bd6d1e3777a08d1:0xeb57d30bf8a9bc4c!8m2!3d20.7350213!4d77.3735548!16s%2Fg%2F11f2xl96jf!19sChIJ0Qh6d-PR1jsRTLyp-AvTV-s?authuser=0&hl=en&rclk=1,"20.7350213,77.3735548"
Masjid Of Telephone Colony,Mosque,"P9J2+CVV Masjid Of Telephone Colony, Telephone Colony, Ganesh Nagar, Murtizapur, Maharashtra 444107","Telephone Colony, Ganesh Nagar",P9J2+CVV,Murtizapur,444107,Maharashtra,IN,https://www.google.com/maps/place/Masjid+Of+Telephone+Colony/data=!4m7!3m6!1s0x3bd6d19274270605:0xa390fccb60b5976c!8m2!3d20.7309953!4d77.3514122!16s%2Fg%2F11f3qzyydn!19sChIJBQYndJLR1jsRbJe1YMv8kKM?authuser=0&hl=en&rclk=1,"20.7309953,77.3514122"
Eidgah Masjid,Mosque,"P9P8+893 Eidgah Masjid, Kokanwadi, Murtizapur, Maharashtra 444107",Kokanwadi,P9P8+893,Murtizapur,444107,Maharashtra,IN,https://www.google.com/maps/place/Eidgah+Masjid/data=!4m7!3m6!1s0x3bd6d1ef6ec07195:0xf415099aeb888902!8m2!3d20.7357503!4d77.3659121!16s%2Fg%2F11gdqtj12g!19sChIJlXHAbu_R1jsRAomI65oJFfQ?authuser=0&hl=en&rclk=1,"20.7357503,77.3659121"
Aksa Masjid,Mosque,"P9MG+75C Aksa Masjid, Old City, Murtizapur, Maharashtra 444107",Old City,P9MG+75C,Murtizapur,444107,Maharashtra,IN,https://www.google.com/maps/place/Aksa+Masjid/data=!4m7!3m6!1s0x3bd6d1e3286e4539:0xbc3c4e5001407fde!8m2!3d20.7331904!4d77.3753883!16s%2Fg%2F11h9x1stsf!19sChIJOUVuKOPR1jsR3n9AAVBOPLw?authuser=0&hl=en&rclk=1,"20.733190399999998,77.3753883"
Sailani baba darga,Mosque,"Sailani baba darga, 1 Naka No 7, Maharashtra 444107",Bhatore,1 Naka No 7,Murtizapur,444107,Maharashtra,IN,https://www.google.com/maps/place/Sailani+baba+darga/data=!4m7!3m6!1s0x3bd6d1595f07b783:0x55b798549ac84611!8m2!3d20.7424067!4d77.3593779!16s%2Fg%2F11shm_v24z!19sChIJg7cHX1nR1jsREUbImlSYt1U?authuser=0&hl=en&rclk=1,"20.7424067,77.3593779"
Masjid,Mosque,"P9PF+JX9 Masjid, Old City, Murtizapur, Maharashtra 444107",Old City,P9PF+JX9,Murtizapur,444107,Maharashtra,IN,https://www.google.com/maps/place/Masjid/data=!4m7!3m6!1s0x3bd6d1e3b6d52da1:0xde68f7ec41c2ae0f!8m2!3d20.7365497!4d77.3749959!16s%2Fg%2F11f2xmzfbp!19sChIJoS3VtuPR1jsRD67CQez3aN4?authuser=0&hl=en&rclk=1,"20.736549699999998,77.3749959"
Nurani masjid Khadakpur Murtizapur,Group home,"Nurani masjid Khadakpur Murtizapur, Old City, Murtizapur, Maharashtra 444107",Old City,,Murtizapur,444107,Maharashtra,IN,https://www.google.com/maps/place/Nurani+masjid+Khadakpur+Murtizapur/data=!4m7!3m6!1s0x3bd6d1e3aef35bab:0xb6ee985e6380180f!8m2!3d20.7358539!4d77.3750307!16s%2Fg%2F11c76t5qmp!19sChIJq1vzruPR1jsRDxiAY16Y7rY?authuser=0&hl=en&rclk=1,"20.7358539,77.3750307"
Rahematiya Masjid,Mosque,"P9PF+JX9 Rahematiya Masjid, Old City, Murtizapur, Maharashtra 444107",Old City,P9PF+JX9,Murtizapur,444107,Maharashtra,IN,https://www.google.com/maps/place/Rahematiya+Masjid/data=!4m7!3m6!1s0x3bd6d19aa27804b1:0x8c09d905f5cbe0ac!8m2!3d20.7365497!4d77.3749959!16s%2Fg%2F11rc54n4y2!19sChIJsQR4oprR1jsRrODL9QXZCYw?authuser=0&hl=en&rclk=1,"20.736549699999998,77.3749959"
Namuna Masjid,Place of worship,"P8CQ+7PG Namuna Masjid, Unnamed Road, Chikhali, Sonori, Maharashtra 444107",,"P8CQ+7PG, Unnamed Road","Chikhali, Sonori",444107,Maharashtra,IN,https://www.google.com/maps/place/Namuna+Masjid/data=!4m7!3m6!1s0x3bd6d1e037983589:0x11c734259b00c8a8!8m2!3d20.7206868!4d77.3393223!16s%2Fg%2F11jmyy2d2g!19sChIJiTWYN-DR1jsRqMgAmyU0xxE?authuser=0&hl=en&rclk=1,"20.7206868,77.33932229999999"
Masjid Hayatussahaba Mubarak Pura,Mosque,"P9F9+8XV Masjid Hayatussahaba Mubarak Pura, MSEB Colony, Murtizapur, Maharashtra 444107",MSEB Colony,P9F9+8XV,Murtizapur,,Maharashtra,IN,https://www.google.com/maps/place/Masjid+Hayatussahaba+Mubarak+Pura/data=!4m7!3m6!1s0x3bd6d10069eea3e3:0xca37ff6635621d21!8m2!3d20.7233557!4d77.3699315!16s%2Fg%2F11tj5tnt5h!19sChIJ46PuaQDR1jsRIR1iNWb_N8o?authuser=0&hl=en&rclk=1,"20.7233557,77.36993149999999"
Bilal masjid,Mosque,"P9HG+CCW Bilal masjid, Unnamed Road, Old City, Murtizapur, Maharashtra 444107",Old City,"P9HG+CCW, Unnamed Road",Murtizapur,444107,Maharashtra,IN,https://www.google.com/maps/place/Bilal+masjid/data=!4m7!3m6!1s0x3bd6d1902d1dba3d:0x105af15ad36c9db4!8m2!3d20.728617!4d77.376069!16s%2Fg%2F11kxnft5cn!19sChIJPbodLZDR1jsRtJ1s01rxWhA?authuser=0&hl=en&rclk=1,"20.728617,77.376069"
Mohammadiya Masjid,Mosque,"Mohammadiya Masjid, Mohammadiya plot, Rahematiya Nagar, Murtizapur, Maharashtra 444107",Rahematiya Nagar,Mohammadiya plot,Murtizapur,444107,Maharashtra,IN,https://www.google.com/maps/place/Mohammadiya+Masjid/data=!4m7!3m6!1s0x3bd6d17264de2603:0x7ae1c59b23f7695c!8m2!3d20.7361472!4d77.3781483!16s%2Fg%2F11qfx1hffj!19sChIJAybeZHLR1jsRXGn3I5vF4Xo?authuser=0&hl=en&rclk=1,"20.736147199999998,77.37814829999999"
Masjid,Mosque,"QC93+78C Masjid, Hirpur, Murtizapur, Hirpur, Maharashtra 444107",Hirpur,QC93+78C,"Murtizapur, Hirpur",444107,Maharashtra,IN,https://www.google.com/maps/place/Masjid/data=!4m7!3m6!1s0x3bd6cf7832925515:0x7725d25d72b787ff!8m2!3d20.7681942!4d77.403276!16s%2Fg%2F11ftctj74c!19sChIJFVWSMnjP1jsR_4e3cl3SJXc?authuser=0&hl=en&rclk=1,"20.7681942,77.40327599999999"
Noorani masjid khadakpura,Mosque,"P9PG+477 Noorani masjid khadakpura, kharagpur, Murtizapur, Maharashtra",Old City,"P9PG+477, kharagpur",Murtizapur,,Maharashtra,IN,https://www.google.com/maps/place/Noorani+masjid+khadakpura/data=!4m7!3m6!1s0x3bd6d147aecc999b:0x31740baf94a18d17!8m2!3d20.7352931!4d77.3756659!16s%2Fg%2F11rbfj18bv!19sChIJm5nMrkfR1jsRF42hlK8LdDE?authuser=0&hl=en&rclk=1,"20.7352931,77.3756659"
Safed masjid murtizapur,Religious destination,"P9M3+H5M Safed masjid murtizapur, Ganesh Nagar, Murtizapur, Maharashtra 444107",Ganesh Nagar,P9M3+H5M,Murtizapur,444107,Maharashtra,IN,https://www.google.com/maps/place/Safed+masjid+murtizapur/data=!4m7!3m6!1s0x3bd6d1cf5600d925:0x830e25d277376e38!8m2!3d20.7339219!4d77.3530599!16s%2Fg%2F11tfg15fyl!19sChIJJdkAVs_R1jsROG43d9IlDoM?authuser=0&hl=en&rclk=1,"20.7339219,77.35305989999999"
Islamia majid Roshan Nagar,Mosque,"P9QF+GRC Islamia majid Roshan Nagar, Rahematiya Nagar, Murtizapur, Maharashtra 444107",Rahematiya Nagar,P9QF+GRC,Murtizapur,444107,Maharashtra,IN,https://www.google.com/maps/place/Islamia+majid+Roshan+Nagar/data=!4m7!3m6!1s0x3bd6d1113114da01:0xf51c08f261405ac8!8m2!3d20.7388282!4d77.374551!16s%2Fg%2F11kq8g40_8!19sChIJAdoUMRHR1jsRyFpAYfIIHPU?authuser=0&hl=en&rclk=1,"20.7388282,77.374551"
Hazrat Roshan Zameer,Mosque,"Hazrat Roshan Zameer, Hazratroshan, Roshanpura Rd, Old City, Murtizapur, Maharashtra 444107",Old City,"Hazratroshan, Roshanpura Rd",Murtizapur,444107,Maharashtra,IN,https://www.google.com/maps/place/Hazrat+Roshan+Zameer/data=!4m7!3m6!1s0x3bd6d1d74ba5105f:0x49bce74e0ef1f5f5!8m2!3d20.7342596!4d77.3709345!16s%2Fg%2F11qpscmkm3!19sChIJXxClS9fR1jsR9fXxDk7nvEk?authuser=0&hl=en&rclk=1,"20.734259599999998,77.37093449999999"
Taj Masjid Minar & Marbles,Non-profit organization,"P9MG+4GX Taj Masjid Minar & Marbles, Old City, Murtizapur, Maharashtra 444107",Old City,P9MG+4GX,Murtizapur,444107,Maharashtra,IN,https://www.google.com/maps/place/Taj+Masjid+Minar+%26+Marbles/data=!4m7!3m6!1s0x3bd6d150cf37fae9:0x94622e44709b66ff!8m2!3d20.7328643!4d77.3763479!16s%2Fg%2F11t7j35rg8!19sChIJ6fo3z1DR1jsR_2abcEQuYpQ?authuser=0&hl=en&rclk=1,"20.7328643,77.3763479"
