name,main_category,address,address_ward,address_street,address_city,address_postal_code,address_state,address_country_code,link,coordinates
Jamia Masjid,Mosque,"WPQ9+CC3 Jamia Masjid, Peranampattu, Tamil Nadu 635810",,WPQ9+CC3,Peranampattu,635810,Tamil Nadu,IN,https://www.google.com/maps/place/Jamia+Masjid/data=!4m7!3m6!1s0x3bad74cf458989bb:0x8f96e8986966d2bd!8m2!3d12.9385027!4d78.7185615!16s%2Fg%2F11ddw_mcpr!19sChIJu4mJRc90rTsRvdJmaZjolo8?authuser=0&hl=en&rclk=1,"12.938502699999999,78.71856149999999"
Masjid - E - Fazal,Mosque,"Masjid - E - Fazal, Masjid-e- fazal, High Rd, Peranampattu, Tamil Nadu 635810",,"Masjid-e- fazal, High Rd",Peranampattu,635810,Tamil Nadu,IN,https://www.google.com/maps/place/Masjid+-+E+-+Fazal/data=!4m7!3m6!1s0x3bad74c663ef5055:0xd194e638a192db92!8m2!3d12.9421077!4d78.7202362!16s%2Fg%2F11c5_8r15v!19sChIJVVDvY8Z0rTsRktuSoTjmlNE?authuser=0&hl=en&rclk=1,"12.9421077,78.7202362"
Road Masjid Ahle Hadees,Mosque,"WPP9+524 Road Masjid Ahle Hadees, Islamia High School Street, Peranampattu, Tamil Nadu 635810",,"WPP9+524, Islamia High School Street",Peranampattu,635810,Tamil Nadu,IN,https://www.google.com/maps/place/Road+Masjid+Ahle+Hadees/data=!4m7!3m6!1s0x3bad74ceeb9819b7:0x9824b5117a2cd849!8m2!3d12.9353801!4d78.7175898!16s%2Fg%2F11c7vvxqk8!19sChIJtxmY6850rTsRSdgsehG1JJg?authuser=0&hl=en&rclk=1,"12.9353801,78.7175898"
Chowk Masjid,Mosque,"WPM9+PHC Chowk Masjid, Peranampattu, Tamil Nadu 635810",,WPM9+PHC,Peranampattu,635810,Tamil Nadu,IN,https://www.google.com/maps/place/Chowk+Masjid/data=!4m7!3m6!1s0x3bad74ceb1ed6829:0xd336387b877a7b63!8m2!3d12.9343092!4d78.7189005!16s%2Fg%2F11cm3qb2c5!19sChIJKWjtsc50rTsRY3t6h3s4NtM?authuser=0&hl=en&rclk=1,"12.9343092,78.71890049999999"
Rasheedabad Masjid,Mosque,"WPJC+324 Rasheedabad Masjid, Hak St, Peranampattu, Tamil Nadu 635810",,"WPJC+324, Hak St",Peranampattu,635810,Tamil Nadu,IN,https://www.google.com/maps/place/Rasheedabad+Masjid/data=!4m7!3m6!1s0x3bad74cb6fa98917:0xff64a68fb62a45b1!8m2!3d12.9301468!4d78.7200708!16s%2Fg%2F11g732yqbz!19sChIJF4mpb8t0rTsRsUUqto-mZP8?authuser=0&hl=en&rclk=1,"12.9301468,78.7200708"
Park Mosque,Mosque,"WPP8+768 Park Mosque, Rahamadabad, Peranampattu, Tamil Nadu 635810",Rahamadabad,WPP8+768,Peranampattu,635810,Tamil Nadu,IN,https://www.google.com/maps/place/Park+Mosque/data=!4m7!3m6!1s0x3bad74ce5fc782fb:0xe9e91c464fb16b35!8m2!3d12.9356697!4d78.7155822!16s%2Fg%2F11c6055p29!19sChIJ-4LHX850rTsRNWuxT0Yc6ek?authuser=0&hl=en&rclk=1,"12.9356697,78.7155822"
Lal Masjid,Mosque,"WPP9+VV9 Lal Masjid, Lal Mosque St, Peranampattu, Tamil Nadu 635810",,"WPP9+VV9, Lal Mosque St",Peranampattu,635810,Tamil Nadu,IN,https://www.google.com/maps/place/Lal+Masjid/data=!4m7!3m6!1s0x3bad74c8d0e600df:0x3c48f7850b15a98b!8m2!3d12.9371726!4d78.7197435!16s%2Fg%2F11dfj84zg2!19sChIJ3wDm0Mh0rTsRi6kVC4X3SDw?authuser=0&hl=en&rclk=1,"12.9371726,78.71974349999999"
Masjid-e-Bilal,Mosque,"WPQ5+287 Masjid-e-Bilal, Peranampattu, Tamil Nadu 635810",,WPQ5+287,Peranampattu,635810,Tamil Nadu,IN,https://www.google.com/maps/place/Masjid-e-Bilal/data=!4m7!3m6!1s0x3bad74d0c9ddb82d:0xd7d7f0e24c295715!8m2!3d12.9375394!4d78.7082866!16s%2Fg%2F11f03rnb0d!19sChIJLbjdydB0rTsRFVcpTOLw19c?authuser=0&hl=en&rclk=1,"12.937539399999999,78.7082866"
Masjid-e-Mahmood,Mosque,"WPPG+W82 Masjid-e-Mahmood, Peranampattu, Tamil Nadu 635810",,WPPG+W82,Peranampattu,635810,Tamil Nadu,IN,https://www.google.com/maps/place/Masjid-e-Mahmood/data=!4m7!3m6!1s0x3bad74b7d2ad8c25:0x3cd4ba15c834f2c5!8m2!3d12.9372515!4d78.725777!16s%2Fg%2F11g7yb3rp6!19sChIJJYyt0rd0rTsRxfI0yBW61Dw?authuser=0&hl=en&rclk=1,"12.937251499999999,78.725777"
Masjid e Shaikh ul hadith,Mosque,"WPMF+Q74 Masjid e Shaikh ul hadith, Peranampattu, Tamil Nadu 635810",,WPMF+Q74,Peranampattu,635810,Tamil Nadu,IN,https://www.google.com/maps/place/Masjid+e+Shaikh+ul+hadith/data=!4m7!3m6!1s0x3bad74c98c1a9b2b:0x97a99368f4b4fe65!8m2!3d12.9343959!4d78.7232175!16s%2Fg%2F11gb3tr5v7!19sChIJK5sajMl0rTsRZf609GiTqZc?authuser=0&hl=en&rclk=1,"12.9343959,78.72321749999999"
Masjid-e-Umar,Mosque,"Masjid-e-Umar, 61/32, Umar Street, Peranampattu, Tamil Nadu 635810",,"61/32, Umar Street",Peranampattu,635810,Tamil Nadu,IN,https://www.google.com/maps/place/Masjid-e-Umar/data=!4m7!3m6!1s0x3bad74cfa1cfd39f:0x4b62b623dceecd0b!8m2!3d12.9380624!4d78.7155786!16s%2Fg%2F11c6z0t1d8!19sChIJn9PPoc90rTsRC83u3CO2Yks?authuser=0&hl=en&rclk=1,"12.9380624,78.7155786"
Masjid-E-Abdullah,Mosque,"WPJC+RWJ Masjid-E-Abdullah, Tahir St, Peranampattu, Tamil Nadu 635810",,"WPJC+RWJ, Tahir St",Peranampattu,635810,Tamil Nadu,IN,https://www.google.com/maps/place/Masjid-E-Abdullah/data=!4m7!3m6!1s0x3bad74ca4cf330c1:0x327cb06d355ca775!8m2!3d12.9320854!4d78.7222601!16s%2Fg%2F11c37kp056!19sChIJwTDzTMp0rTsRdadcNW2wfDI?authuser=0&hl=en&rclk=1,"12.9320854,78.7222601"
Masjid-e-Nowmaan,Mosque,"WPP5+6VH Masjid-e-Nowmaan, Peranampattu, Tamil Nadu 635810",,WPP5+6VH,Peranampattu,635810,Tamil Nadu,IN,https://www.google.com/maps/place/Masjid-e-Nowmaan/data=!4m7!3m6!1s0x3bad74d11a0516dd:0xdc08b20d160b2d0f!8m2!3d12.9355657!4d78.7097468!16s%2Fg%2F11h9x3035f!19sChIJ3RYFGtF0rTsRDy0LFg2yCNw?authuser=0&hl=en&rclk=1,"12.9355657,78.70974679999999"
Lathifiya Masjid,Mosque,"WPM6+CR5 Lathifiya Masjid, 7th St, Peranampattu, Tamil Nadu 635810",,"WPM6+CR5, 7th St",Peranampattu,635810,Tamil Nadu,IN,https://www.google.com/maps/place/Lathifiya+Masjid/data=!4m7!3m6!1s0x3bad74d18a988f4d:0x9ebd27c337688af2!8m2!3d12.9335069!4d78.7120953!16s%2Fg%2F11c542xfts!19sChIJTY-YitF0rTsR8opoN8MnvZ4?authuser=0&hl=en&rclk=1,"12.9335069,78.7120953"
Masjid E Ameen,Mosque,"WPQC+J6C Masjid E Ameen, Peranampattu, Tamil Nadu 635810",,WPQC+J6C,Peranampattu,635810,Tamil Nadu,IN,https://www.google.com/maps/place/Masjid+E+Ameen/data=!4m7!3m6!1s0x3bad74c8a3b252c3:0xdf6262627a1cccfc!8m2!3d12.9390625!4d78.7205044!16s%2Fg%2F11df69qnpz!19sChIJw1Kyo8h0rTsR_MwcemJiYt8?authuser=0&hl=en&rclk=1,"12.939062499999999,78.7205044"
Masjid E Ibrahim Khaleelullah,Mosque,"WPR9+66P Masjid E Ibrahim Khaleelullah, Peranampattu, Tamil Nadu 635810",,WPR9+66P,Peranampattu,635810,Tamil Nadu,IN,https://www.google.com/maps/place/Masjid+E+Ibrahim+Khaleelullah/data=!4m7!3m6!1s0x3bad74c5eb978df7:0x574e07d92f8847e3!8m2!3d12.940578!4d78.7180844!16s%2Fg%2F11c7hgbwy1!19sChIJ942X68V0rTsR40eIL9kHTlc?authuser=0&hl=en&rclk=1,"12.940577999999999,78.7180844"
Abu Bakkar Masjid,Mosque,"WPP9+CJC Abu Bakkar Masjid, Bazaar St, Peranampattu, Tamil Nadu 635810",,"WPP9+CJC, Bazaar St",Peranampattu,635810,Tamil Nadu,IN,https://www.google.com/maps/place/Abu+Bakkar+Masjid/data=!4m7!3m6!1s0x3bad74c915bae33d:0xac5a392810194ae3!8m2!3d12.9360733!4d78.7190303!16s%2Fg%2F11b81skqx5!19sChIJPeO6Fcl0rTsR40oZECg5Wqw?authuser=0&hl=en&rclk=1,"12.936073299999999,78.7190303"
Masjid-E-Furqan Muslimpur,Mosque,"WPMG+RJ7 Masjid-E-Furqan Muslimpur, Peranampattu, Tamil Nadu 635810",,WPMG+RJ7,Peranampattu,635810,Tamil Nadu,IN,https://www.google.com/maps/place/Masjid-E-Furqan+Muslimpur/data=!4m7!3m6!1s0x3bad74b5d8d9d7f1:0x45b4fa08429b6eda!8m2!3d12.9345292!4d78.7265319!16s%2Fg%2F11f03lvqtb!19sChIJ8dfZ2LV0rTsR2m6bQgj6tEU?authuser=0&hl=en&rclk=1,"12.9345292,78.7265319"
Masjid E Ali,Mosque,"WPR5+53P Masjid E Ali, Peranampattu, Tamil Nadu 635810",,WPR5+53P,Peranampattu,635810,Tamil Nadu,IN,https://www.google.com/maps/place/Masjid+E+Ali/data=!4m7!3m6!1s0x3bad74d98b20b4e7:0x8cac133247df5ed9!8m2!3d12.9404747!4d78.7077142!16s%2Fg%2F11dfj70kb_!19sChIJ57Qgi9l0rTsR2V7fRzITrIw?authuser=0&hl=en&rclk=1,"12.9404747,78.7077142"
Masjid-E-Abrar,Mosque,"WPPF+3XF Masjid-E-Abrar, Abrar Abad,Qaiday Millath Nagar,, Peranampattu, Tamil Nadu",,"WPPF+3XF, Abrar Abad,Qaiday Millath Nagar,",Peranampattu,,Tamil Nadu,IN,https://www.google.com/maps/place/Masjid-E-Abrar/data=!4m7!3m6!1s0x3bad74c9e1e57ac7:0x526c413eb1285264!8m2!3d12.9351765!4d78.7249264!16s%2Fg%2F1hc37nkjg!19sChIJx3rl4cl0rTsRZFIosT5BbFI?authuser=0&hl=en&rclk=1,"12.935176499999999,78.7249264"
Masjid E Jamia-e-ahle-hadees,Mosque,"WPMG+F7M Masjid E Jamia-e-ahle-hadees, Peranampattu, Tamil Nadu 635810",,WPMG+F7M,Peranampattu,635810,Tamil Nadu,IN,https://www.google.com/maps/place/Masjid+E+Jamia-e-ahle-hadees/data=!4m7!3m6!1s0x3bad74b5e34ae977:0x3f51156bcfc63e9c!8m2!3d12.9337113!4d78.725659!16s%2Fg%2F11g7ztwm2l!19sChIJd-lK47V0rTsRnD7Gz2sVUT8?authuser=0&hl=en&rclk=1,"12.933711299999999,78.725659"
Masjidul Muslimeen ( JAQH Masjid),Mosque,"WPP7+798 Masjidul Muslimeen ( JAQH Masjid), Islamia High School Street, Rahamadabad, Peranampattu, Tamil Nadu 635810",Rahamadabad,"WPP7+798, Islamia High School Street",Peranampattu,635810,Tamil Nadu,IN,https://www.google.com/maps/place/Masjidul+Muslimeen+%28+JAQH+Masjid%29/data=!4m7!3m6!1s0x3bad74d1d9d37b6f:0xfc294b2449641ab!8m2!3d12.935658!4d78.713447!16s%2Fg%2F11c5ssgk6v!19sChIJb3vT2dF0rTsRq0GWRLKUwg8?authuser=0&hl=en&rclk=1,"12.935658,78.713447"
Masjid-e-Mohammadia AJS,Mosque,"WPM7+RM6 Masjid-e-Mohammadia AJS, Rahamadabad, Peranampattu, Tamil Nadu 635810",Rahamadabad,WPM7+RM6,Peranampattu,635810,Tamil Nadu,IN,https://www.google.com/maps/place/Masjid-e-Mohammadia+AJS/data=!4m7!3m6!1s0x3bad74ce1bb93519:0x28c0cfc63115160b!8m2!3d12.9345372!4d78.714145!16s%2Fg%2F11g732mblz!19sChIJGTW5G850rTsRCxYVMcbPwCg?authuser=0&hl=en&rclk=1,"12.9345372,78.714145"
Nawab Masjid,Mosque,"WPM9+7MJ Nawab Masjid, Big Mosque St, Peranampattu, Tamil Nadu 635810",,"WPM9+7MJ, Big Mosque St",Peranampattu,635810,Tamil Nadu,IN,https://www.google.com/maps/place/Nawab+Masjid/data=!4m7!3m6!1s0x3bad74cc07be5cdf:0x765f5da718f2ef80!8m2!3d12.9332083!4d78.7191543!16s%2Fg%2F11bz0b6xyj!19sChIJ31y-B8x0rTsRgO_yGKddX3Y?authuser=0&hl=en&rclk=1,"12.933208299999999,78.7191543"
Masjid-e-Ayesha,Mosque,"WPQ6+G3G Masjid-e-Ayesha, Peranampattu, Tamil Nadu 635810",,WPQ6+G3G,Peranampattu,635810,Tamil Nadu,IN,https://www.google.com/maps/place/Masjid-e-Ayesha/data=!4m7!3m6!1s0x3bad75fab4e04427:0xf344c82ae015413e!8m2!3d12.9388026!4d78.7101989!16s%2Fg%2F11g1_ny7vd!19sChIJJ0TgtPp1rTsRPkEV4CrIRPM?authuser=0&hl=en&rclk=1,"12.938802599999999,78.7101989"
Choti Masjid Ahle Hadees,Mosque,"WPM9+MX5 Choti Masjid Ahle Hadees, Peranampattu, Tamil Nadu 635810",,WPM9+MX5,Peranampattu,635810,Tamil Nadu,IN,https://www.google.com/maps/place/Choti+Masjid+Ahle+Hadees/data=!4m7!3m6!1s0x3bad74c957607bdd:0x6a68682c59023ec4!8m2!3d12.9341469!4d78.7199734!16s%2Fg%2F11c7vvvk9m!19sChIJ3XtgV8l0rTsRxD4CWSxoaGo?authuser=0&hl=en&rclk=1,"12.9341469,78.7199734"
Masjid-e-Hud,Mosque,"WPR6+73 Masjid-e-Hud, Peranampattu, Tamil Nadu 635810",,WPR6+73,Peranampattu,,Tamil Nadu,IN,https://www.google.com/maps/place/Masjid-e-Hud/data=!4m7!3m6!1s0x3bad750c41a52703:0xd5504b5389f98cce!8m2!3d12.9406391!4d78.710209!16s%2Fg%2F11pcmqp9vh!19sChIJAyelQQx1rTsRzoz5iVNLUNU?authuser=0&hl=en&rclk=1,"12.9406391,78.71020899999999"
Masjid e Usman Ghani,Mosque,"Masjid e Usman Ghani, Peranampattu, Tamil Nadu 635810",,,Peranampattu,635810,Tamil Nadu,IN,https://www.google.com/maps/place/Masjid+e+Usman+Ghani/data=!4m7!3m6!1s0x3bad74b516585459:0x578f28746a5194d3!8m2!3d12.9300503!4d78.7268165!16s%2Fg%2F11h9rd5b77!19sChIJWVRYFrV0rTsR05RRanQoj1c?authuser=0&hl=en&rclk=1,"12.9300503,78.7268165"
Masjide Isthiqamath,Mosque,"WPJF+C8C Masjide Isthiqamath, Peranampattu, Tamil Nadu 635810",,WPJF+C8C,Peranampattu,635810,Tamil Nadu,IN,https://www.google.com/maps/place/Masjide+Isthiqamath/data=!4m7!3m6!1s0x3bad74caf5c07903:0x5371abf4c5dd1e9b!8m2!3d12.9310596!4d78.7232631!16s%2Fg%2F11fxvkt8kq!19sChIJA3nA9cp0rTsRmx7dxfSrcVM?authuser=0&hl=en&rclk=1,"12.9310596,78.7232631"
Masjid,Mosque,"XP3G+QPQ Masjid, Aravatla, Tamil Nadu 635810",,XP3G+QPQ,Aravatla,635810,Tamil Nadu,IN,https://www.google.com/maps/place/Masjid/data=!4m7!3m6!1s0x3bad7494e45ad9cb:0x770c22efc1ad818c!8m2!3d12.9544626!4d78.7268544!16s%2Fg%2F11ggs4g0ql!19sChIJy9la5JR0rTsRjIGtwe8iDHc?authuser=0&hl=en&rclk=1,"12.9544626,78.7268544"
Taherkhan Mosque,Mosque,"WPXF+JW3 Taherkhan Mosque, Peranampattu, Tamil Nadu 635810",,WPXF+JW3,Peranampattu,635810,Tamil Nadu,IN,https://www.google.com/maps/place/Taherkhan+Mosque/data=!4m7!3m6!1s0x3bad74c0779f00cb:0x8529f051057c9e4d!8m2!3d12.9490025!4d78.7247919!16s%2Fg%2F1tfsfvkp!19sChIJywCfd8B0rTsRTZ58BVHwKYU?authuser=0&hl=en&rclk=1,"12.949002499999999,78.7247919"
Kerala Complex and Khateeja Masjid New Town Pernambut,Mosque,"WPPF+RG2 Kerala Complex and Khateeja Masjid New Town Pernambut, Peranampattu, Tamil Nadu 635810",,WPPF+RG2,Peranampattu,635810,Tamil Nadu,IN,https://www.google.com/maps/place/Kerala+Complex+and+Khateeja+Masjid+New+Town+Pernambut/data=!4m7!3m6!1s0x3bad74c9b52f3889:0x1ee191a68d05a658!8m2!3d12.9370218!4d78.723763!16s%2Fg%2F11g9dhs03g!19sChIJiTgvtcl0rTsRWKYFjaaR4R4?authuser=0&hl=en&rclk=1,"12.9370218,78.72376299999999"
Masjid E Taqwa,Mosque,"WPPC+QM2 Masjid E Taqwa, mohammadia street, Peranampattu, Tamil Nadu 635810",,"WPPC+QM2, mohammadia street",Peranampattu,635810,Tamil Nadu,IN,https://www.google.com/maps/place/Masjid+E+Taqwa/data=!4m7!3m6!1s0x3bad74c8fdb13a01:0xc5e0115fe8c4ab5e!8m2!3d12.9368792!4d78.7216426!16s%2Fg%2F11g7npjgmb!19sChIJATqx_ch0rTsRXqvE6F8R4MU?authuser=0&hl=en&rclk=1,"12.9368792,78.7216426"
Abrar Eid-Gah,Mosque,"WPJF+VJ9 Abrar Eid-Gah, Muslimpur, Pernambut, Peranampattu, Tamil Nadu 635810",Muslimpur,WPJF+VJ9,"Pernambut, Peranampattu",635810,Tamil Nadu,IN,https://www.google.com/maps/place/Abrar+Eid-Gah/data=!4m7!3m6!1s0x3bad74ca6e5b1c6f:0x460bb5ec11f70d6b!8m2!3d12.9321693!4d78.7240956!16s%2Fg%2F11g7y55_jg!19sChIJbxxbbsp0rTsRaw33Eey1C0Y?authuser=0&hl=en&rclk=1,"12.9321693,78.7240956"
Hirasath Khan Jumma Masjid,Mosque,"XP4H+X9P Hirasath Khan Jumma Masjid, Siddiue abad, Kottai chery, Aravatla, Tamil Nadu 635810",,"XP4H+X9P, Siddiue abad, Kottai chery",Aravatla,635810,Tamil Nadu,IN,https://www.google.com/maps/place/Hirasath+Khan+Jumma+Masjid/data=!4m7!3m6!1s0x3bad7554497db895:0xa5731c337ce7c520!8m2!3d12.9574748!4d78.7284419!16s%2Fg%2F11ghr9zyjw!19sChIJlbh9SVR1rTsRIMXnfDMcc6U?authuser=0&hl=en&rclk=1,"12.9574748,78.72844189999999"
Masjid-E-Rahmaniya AJS,Mosque,"WPHC+XQQ Masjid-E-Rahmaniya AJS, Peranampattu, Tamil Nadu 635810",,WPHC+XQQ,Peranampattu,635810,Tamil Nadu,IN,https://www.google.com/maps/place/Masjid-E-Rahmaniya+AJS/data=!4m7!3m6!1s0x3bad74cb1e68e91f:0x6f990d09c12abbed!8m2!3d12.9299543!4d78.7219873!16s%2Fg%2F11g9mg3hvj!19sChIJH-loHst0rTsR7bsqwQkNmW8?authuser=0&hl=en&rclk=1,"12.929954299999999,78.7219873"
Masjid-e-Zakir,Mosque,"Rashidabad, Masjid-e-Zakir, Pernambut, Peranampattu, Tamil Nadu 635810",,Rashidabad,"Pernambut, Peranampattu",635810,Tamil Nadu,IN,https://www.google.com/maps/place/Masjid-e-Zakir/data=!4m7!3m6!1s0x3bad75b5e21e6b6b:0xa2bd7b2987351a83!8m2!3d12.9292159!4d78.721868!16s%2Fg%2F11gk5hff6z!19sChIJa2se4rV1rTsRgxo1hyl7vaI?authuser=0&hl=en&rclk=1,"12.929215899999999,78.721868"
Masjid-e-maswood,Mosque,"WPP6+JQ2 Masjid-e-maswood, Peranampattu, Tamil Nadu 635810",,WPP6+JQ2,Peranampattu,635810,Tamil Nadu,IN,https://www.google.com/maps/place/Masjid-e-maswood/data=!4m7!3m6!1s0x3bad75f6cecf9f1f:0x831523431e072134!8m2!3d12.9365221!4d78.7118813!16s%2Fg%2F11fj6jp_8p!19sChIJH5_PzvZ1rTsRNCEHHkMjFYM?authuser=0&hl=en&rclk=1,"12.9365221,78.7118813"
Masjid e Ibrahim,Mosque,"WPP8+QHJ Masjid e Ibrahim, Peranampattu, Tamil Nadu 635810",,WPP8+QHJ,Peranampattu,635810,Tamil Nadu,IN,https://www.google.com/maps/place/Masjid+e+Ibrahim/data=!4m7!3m6!1s0x3bad752af406944b:0x57b6b6c4aed1ea50!8m2!3d12.9369626!4d78.7163888!16s%2Fg%2F11r83h1vpg!19sChIJS5QG9Cp1rTsRUOrRrsS2tlc?authuser=0&hl=en&rclk=1,"12.9369626,78.71638879999999"
Masjid E Shafeeq,Mosque,"WPP5+M25 Masjid E Shafeeq, Peranampattu, Tamil Nadu 635810",,WPP5+M25,Peranampattu,635810,Tamil Nadu,IN,https://www.google.com/maps/place/Masjid+E+Shafeeq/data=!4m7!3m6!1s0x3bad75e8554e3e09:0xbfc1e755d33cf00a!8m2!3d12.9366313!4d78.7076224!16s%2Fg%2F11mvm3fs5c!19sChIJCT5OVeh1rTsRCvA801Xnwb8?authuser=0&hl=en&rclk=1,"12.9366313,78.70762239999999"
Masjide Hasania,Mosque,"WPM9+M4J Masjide Hasania, Safdar Street, Peranampattu, Tamil Nadu 635810",,"WPM9+M4J, Safdar Street",Peranampattu,635810,Tamil Nadu,IN,https://www.google.com/maps/place/Masjide+Hasania/data=!4m7!3m6!1s0x3bad74ce98e07347:0x5825edb7a5ae9af0!8m2!3d12.9342005!4d78.7177662!16s%2Fg%2F11d_tp6qtx!19sChIJR3PgmM50rTsR8JqupbftJVg?authuser=0&hl=en&rclk=1,"12.9342005,78.7177662"
Small Mosque,Mosque,"WPMC+J3J Small Mosque, Peranampattu, Tamil Nadu 635810",,WPMC+J3J,Peranampattu,635810,Tamil Nadu,IN,https://www.google.com/maps/place/Small+Mosque/data=!4m7!3m6!1s0x3bad74c9575e18ed:0xffe00c8cb348d1b5!8m2!3d12.9340754!4d78.720146!16s%2Fg%2F11d_8tg7jq!19sChIJ7RheV8l0rTsRtdFIs4wM4P8?authuser=0&hl=en&rclk=1,"12.9340754,78.720146"
Masjid-E-Ameer Hasan,Mosque,"WPPG+8RJ Masjid-E-Ameer Hasan, Peranampattu, Tamil Nadu 635810",,WPPG+8RJ,Peranampattu,635810,Tamil Nadu,IN,https://www.google.com/maps/place/Masjid-E-Ameer+Hasan/data=!4m7!3m6!1s0x3bad75db0a94b185:0xfa60a32275bf905!8m2!3d12.9355981!4d78.7263634!16s%2Fg%2F11rj5dkw3t!19sChIJhbGUCtt1rTsRBflbJzIKpg8?authuser=0&hl=en&rclk=1,"12.9355981,78.7263634"
Big Mosque,Mosque,"WPM9+RGH Big Mosque, Peranampattu, Tamil Nadu 635810",,WPM9+RGH,Peranampattu,635810,Tamil Nadu,IN,https://www.google.com/maps/place/Big+Mosque/data=!4m7!3m6!1s0x3bad74ceb1e97c95:0xfbb340e93649ef68!8m2!3d12.9345728!4d78.7188481!16s%2Fg%2F11fx9bh9b9!19sChIJlXzpsc50rTsRaO9JNulAs_s?authuser=0&hl=en&rclk=1,"12.9345728,78.7188481"
Shequl Hadees Masjid,Religious destination,"WPMF+M7J Shequl Hadees Masjid, Patel St, Peranampattu, Tamil Nadu 635810",,"WPMF+M7J, Patel St",Peranampattu,635810,Tamil Nadu,IN,https://www.google.com/maps/place/Shequl+Hadees+Masjid/data=!4m7!3m6!1s0x3bad74c98b8588d9:0x406cb06ccd481eb5!8m2!3d12.9342243!4d78.7231251!16s%2Fg%2F1w15xwkw!19sChIJ2YiFi8l0rTsRtR5IzWywbEA?authuser=0&hl=en&rclk=1,"12.934224299999999,78.72312509999999"
Masjid-e-Habeeb,Mosque,"WPR5+CR2 Masjid-e-Habeeb, Pernambut, Peranampattu, Tamil Nadu 635810",,WPR5+CR2,"Pernambut, Peranampattu",635810,Tamil Nadu,IN,https://www.google.com/maps/place/Masjid-e-Habeeb/data=!4m7!3m6!1s0x3bad75b043209489:0xd2f373491c9a10f0!8m2!3d12.9410111!4d78.7095003!16s%2Fg%2F11kb895p0w!19sChIJiZQgQ7B1rTsR8BCaHElz89I?authuser=0&hl=en&rclk=1,"12.941011099999999,78.7095003"
MASJID E QAYOOM,Mosque,"WPHG+H2G MASJID E QAYOOM, Peranampattu, Tamil Nadu 635810",,WPHG+H2G,Peranampattu,635810,Tamil Nadu,IN,https://www.google.com/maps/place/MASJID+E+QAYOOM/data=!4m7!3m6!1s0x3bad750e4cccf9f7:0x40891b5a6de4dbc8!8m2!3d12.9289385!4d78.7250652!16s%2Fg%2F11mtk3wfpv!19sChIJ9_nMTA51rTsRyNvkbVobiUA?authuser=0&hl=en&rclk=1,"12.9289385,78.7250652"
TNTJ Peranampattu,Mosque,"WPP8+CXP TNTJ Peranampattu, Malang St, Peranampattu, Tamil Nadu 635810",,"WPP8+CXP, Malang St",Peranampattu,635810,Tamil Nadu,IN,https://www.google.com/maps/place/TNTJ+Peranampattu/data=!4m7!3m6!1s0x3bad7586547088eb:0xe90202c9b14b580a!8m2!3d12.9360817!4d78.7174459!16s%2Fg%2F11sqnddh0w!19sChIJ64hwVIZ1rTsRClhLsckCAuk?authuser=0&hl=en&rclk=1,"12.936081699999999,78.7174459"
Niyamath Khan Masjid,Mosque,"WPVF+X22 Niyamath Khan Masjid, Peranampattu, Tamil Nadu 635810",,WPVF+X22,Peranampattu,635810,Tamil Nadu,IN,https://www.google.com/maps/place/Niyamath+Khan+Masjid/data=!4m7!3m6!1s0x3bad75f395f379a5:0x954577142ee7b6be!8m2!3d12.9460708!4d78.7225328!16s%2Fg%2F11rnbwr5yf!19sChIJpXnzlfN1rTsRvrbnLhR3RZU?authuser=0&hl=en&rclk=1,"12.9460708,78.7225328"
Thouheed Masjid AJS Markaz,Mosque,"WPP9+F6M Thouheed Masjid AJS Markaz, High Rd, Peranampattu, Tamil Nadu 635810",,"WPP9+F6M, High Rd",Peranampattu,635810,Tamil Nadu,IN,https://www.google.com/maps/place/Thouheed+Masjid+AJS+Markaz/data=!4m7!3m6!1s0x3bad74cedc2d8335:0xfbb26aa8dd9a30d1!8m2!3d12.9362023!4d78.7180495!16s%2Fg%2F11gfk4dlfl!19sChIJNYMt3M50rTsR0TCa3ahqsvs?authuser=0&hl=en&rclk=1,"12.9362023,78.71804949999999"
Masjid E Kashifa,Mosque,"WPPG+GX2 Masjid E Kashifa, Khaide Millath Nagar Erigutti, Pernambut, Tamil Nadu 635810",,"WPPG+GX2, Khaide Millath Nagar Erigutti","Pernambut, Peranampattu",635810,Tamil Nadu,IN,https://www.google.com/maps/place/Masjid+E+Kashifa/data=!4m7!3m6!1s0x3bad756820825e5b:0x452e8c95e0705f78!8m2!3d12.9362658!4d78.7273945!16s%2Fg%2F11tsp0yhxc!19sChIJW16CIGh1rTsReF9w4JWMLkU?authuser=0&hl=en&rclk=1,"12.9362658,78.7273945"
Makkah Nagar 4th Street,Mosque,"WPP6+JQ2 Makkah Nagar 4th Street, Pernambut, Peranampattu, Tamil Nadu 635810",,WPP6+JQ2,"Pernambut, Peranampattu",635810,Tamil Nadu,IN,https://www.google.com/maps/place/Makkah+Nagar+4th+Street/data=!4m7!3m6!1s0x3bad75e10b00dad3:0x9a2eb215d9505f7a!8m2!3d12.9365256!4d78.7118904!16s%2Fg%2F11nmcttr7q!19sChIJ09oAC-F1rTsRel9Q2RWyLpo?authuser=0&hl=en&rclk=1,"12.9365256,78.7118904"
Masjid-e-Mamur,Mosque,"WPQ5+RH4 Masjid-e-Mamur, Pernambut, Peranampattu, Tamil Nadu 635810",,WPQ5+RH4,"Pernambut, Peranampattu",635810,Tamil Nadu,IN,https://www.google.com/maps/place/Masjid-e-Mamur/data=!4m7!3m6!1s0x3bad752edbf4e669:0xaeedaba58de38250!8m2!3d12.9391043!4d78.7090785!16s%2Fg%2F11tt5ms266!19sChIJaeb02y51rTsRUILjjaWr7a4?authuser=0&hl=en&rclk=1,"12.939104299999999,78.70907849999999"
Masjid Ibadur Rahman,Mosque,"WPP5+M25 Masjid Ibadur Rahman, Pernambut, Peranampattu, Tamil Nadu 635810",,WPP5+M25,"Pernambut, Peranampattu",635810,Tamil Nadu,IN,https://www.google.com/maps/place/Masjid+Ibadur+Rahman/data=!4m7!3m6!1s0x3bad75376f51826f:0xdb8e270aa8f26b14!8m2!3d12.9360543!4d78.7079517!16s%2Fg%2F11k520m4n5!19sChIJb4JRbzd1rTsRFGvyqAonjts?authuser=0&hl=en&rclk=1,"12.936054299999999,78.7079517"
Masjid Hazrath Khaja Basheer Saheb,Mosque,"Masjid Hazrath Khaja Basheer Saheb, No 9 V Kota Road, Peranampattu, Tamil Nadu 635810",,No 9 V Kota Road,Peranampattu,635810,Tamil Nadu,IN,https://www.google.com/maps/place/Masjid+Hazrath+Khaja+Basheer+Saheb/data=!4m7!3m6!1s0x3bad75b7a47c22eb:0x49c600f6fd2ec9cd!8m2!3d12.9400215!4d78.7156811!16s%2Fg%2F11t4x_vc5r!19sChIJ6yJ8pLd1rTsRzcku_fYAxkk?authuser=0&hl=en&rclk=1,"12.9400215,78.7156811"
Baag Masjid,Mosque,"WPMF+84V Baag Masjid, Peranampattu, Tamil Nadu 635810",,WPMF+84V,Peranampattu,635810,Tamil Nadu,IN,https://www.google.com/maps/place/Baag+Masjid/data=!4m7!3m6!1s0x3bad74ca2f8bffff:0x2fe27c19762c9813!8m2!3d12.9333731!4d78.7227988!16s%2Fg%2F11sscsgp0s!19sChIJ__-LL8p0rTsRE5gsdhl84i8?authuser=0&hl=en&rclk=1,"12.933373099999999,78.72279879999999"
Masjid-e-Raziya,Religious destination,"WPP6+M8F Masjid-e-Raziya, Pernambut, Peranampattu, Tamil Nadu 635810",,WPP6+M8F,"Pernambut, Peranampattu",635810,Tamil Nadu,IN,https://www.google.com/maps/place/Masjid-e-Raziya/data=!4m7!3m6!1s0x3bad75256a860e5b:0xc02e5019983dfc95!8m2!3d12.9367751!4d78.7106553!16s%2Fg%2F11vb2pjcz3!19sChIJWw6GaiV1rTsRlfw9mBlQLsA?authuser=0&hl=en&rclk=1,"12.9367751,78.7106553"
Masjid e Israth jahan,Mosque,"WPHF+QH8 Masjid e Israth jahan, Peranampattu, Tamil Nadu 635810",,WPHF+QH8,Peranampattu,635810,Tamil Nadu,IN,https://www.google.com/maps/place/Masjid+e+Israth+jahan/data=!4m7!3m6!1s0x3bad750a244e8d91:0x6f768113c46e3817!8m2!3d12.9294009!4d78.7239521!16s%2Fg%2F11rrpsk464!19sChIJkY1OJAp1rTsRFzhuxBOBdm8?authuser=0&hl=en&rclk=1,"12.9294009,78.72395209999999"
Khateejatul Kubra Mosque,Mosque,"WPPF+VH2 Khateejatul Kubra Mosque, Lal Mosque St, Peranampattu, Tamil Nadu 635810",,"WPPF+VH2, Lal Mosque St",Peranampattu,635810,Tamil Nadu,IN,https://www.google.com/maps/place/Khateejatul+Kubra+Mosque/data=!4m7!3m6!1s0x3bad7591dafccf49:0x3abafa6172178f89!8m2!3d12.9371488!4d78.7239036!16s%2Fg%2F11kl9m18f1!19sChIJSc_82pF1rTsRiY8XcmH6ujo?authuser=0&hl=en&rclk=1,"12.9371488,78.7239036"
ROAD MOSQUE,Mosque,"XP2F+CXG ROAD MOSQUE, High Rd, Peranampattu, Sathger, Tamil Nadu 635810",,"XP2F+CXG, High Rd","Peranampattu, Sathger",635810,Tamil Nadu,IN,https://www.google.com/maps/place/ROAD+MOSQUE/data=!4m7!3m6!1s0x3bad754ff2e56439:0x45ae517d6a2e511d!8m2!3d12.9510685!4d78.7249469!16s%2Fg%2F11t0px93rr!19sChIJOWTl8k91rTsRHVEuan1RrkU?authuser=0&hl=en&rclk=1,"12.9510685,78.72494689999999"
Big Eid-Ga,Mosque,"WPP7+QWX Big Eid-Ga, Peranampattu, Tamil Nadu 635810",,WPP7+QWX,Peranampattu,635810,Tamil Nadu,IN,https://www.google.com/maps/place/Big+Eid-Ga/data=!4m7!3m6!1s0x3bad74cfc9aaaaab:0xe029f74435e59fdf!8m2!3d12.93699!4d78.7148483!16s%2Fg%2F11tgg7q5f8!19sChIJq6qqyc90rTsR35_lNUT3KeA?authuser=0&hl=en&rclk=1,"12.93699,78.7148483"
Lalapet Masjid,Mosque,"WPVG+52J Lalapet Masjid, Vellore, Tamil Nadu 635810",,WPVG+52J,Vellore,,Tamil Nadu,IN,https://www.google.com/maps/place/Lalapet+Masjid/data=!4m7!3m6!1s0x3bad74b8821780cd:0xfe12440ef0088715!8m2!3d12.9429685!4d78.7250257!16s%2Fg%2F11f57dt23_!19sChIJzYAXgrh0rTsRFYcI8A5EEv4?authuser=0&hl=en&rclk=1,"12.9429685,78.7250257"
Chowk masjid Qabarastan,Cemetery,"WPM9+VG8 Chowk masjid Qabarastan, Peranampattu, Tamil Nadu 635810",,WPM9+VG8,Peranampattu,635810,Tamil Nadu,IN,https://www.google.com/maps/place/Chowk+masjid+Qabarastan/data=!4m7!3m6!1s0x3bad751e37475be9:0xecd8ecd8d1bcbd9f!8m2!3d12.9346711!4d78.718822!16s%2Fg%2F11g4h4_l17!19sChIJ6VtHNx51rTsRn7280djs2Ow?authuser=0&hl=en&rclk=1,"12.9346711,78.718822"
Taherkhan Mosque,Mosque,"WPMC+65H Taherkhan Mosque, Permanent Satghur Road Satghur, Tamil Nadu 635810",,"WPMC+65H, Permanent Satghur Road Satghur",Peranampattu,635810,Tamil Nadu,IN,https://www.google.com/maps/place/Taherkhan+Mosque/data=!4m7!3m6!1s0x3bad75aed20b856b:0x16ceec87414a670d!8m2!3d12.9330616!4d78.7204706!16s%2Fg%2F11ljvngycb!19sChIJa4UL0q51rTsRDWdKQYfszhY?authuser=0&hl=en&rclk=1,"12.9330616,78.7204706"
Masjid idrahim khalilulah,Historical landmark,"WPR9+668 Masjid idrahim khalilulah, Pernambut, Peranampattu, Tamil Nadu 635810",,WPR9+668,"Pernambut, Peranampattu",635810,Tamil Nadu,IN,https://www.google.com/maps/place/Masjid+idrahim+khalilulah/data=!4m7!3m6!1s0x3bad75266c840e8f:0x8499433ab4cc94d0!8m2!3d12.9405401!4d78.7180753!16s%2Fg%2F11t6kwlyys!19sChIJjw6EbCZ1rTsR0JTMtDpDmYQ?authuser=0&hl=en&rclk=1,"12.9405401,78.7180753"
