name,main_category,address,address_ward,address_street,address_city,address_postal_code,address_state,address_country_code,link,coordinates
Sunni Jama Masjid Koter Gate,Mosque,"Sunni Jama Masjid Koter Gate, Kaneri, Bhiwandi, Maharashtra 421302",Kaneri,,Bhiwandi,421302,Maharashtra,IN,https://www.google.com/maps/place/Sunni+Jama+Masjid+Koter+Gate/data=!4m7!3m6!1s0x3be7bd125f607a81:0x11ce719fdab709c!8m2!3d19.2997686!4d73.0611859!16s%2Fg%2F1tfpn4vk!19sChIJgXpgXxK95zsRnHCr_RnnHAE?authuser=0&hl=en&rclk=1,"19.2997686,73.0611859"
Auliya Masjid,Mosque,"Auliya Masjid, Maulana Abdul Kalam, Maulana Azad Rd, Fandole Nagar, Gaibi Nagar Bhiwandi, Bhiwandi, Maharashtra 421302","Fandole Nagar, Gaibi Nagar Bhiwandi","Maulana Abdul Kalam, Maulana Azad Rd",Bhiwandi,421302,Maharashtra,IN,https://www.google.com/maps/place/Auliya+Masjid/data=!4m7!3m6!1s0x3be7bd710ad697ef:0x90dc41fc36755558!8m2!3d19.2961264!4d73.0715952!16s%2Fg%2F11b6q3kq6v!19sChIJ75fWCnG95zsRWFV1NvxB3JA?authuser=0&hl=en&rclk=1,"19.2961264,73.07159519999999"
Aas Bibi Masjid,Mosque,"73R8+8X9 Aas Bibi Masjid, Ashok Nagar Rd, Punit Sagar Complex, Bhiwandi, Maharashtra 421302",Punit Sagar Complex,"73R8+8X9, Ashok Nagar Rd",Bhiwandi,421302,Maharashtra,IN,https://www.google.com/maps/place/Aas+Bibi+Masjid/data=!4m7!3m6!1s0x3be7bd74fdf77e55:0xf7513df4523ad823!8m2!3d19.2907882!4d73.0674814!16s%2Fg%2F1tflkx9q!19sChIJVX73_XS95zsRI9g6UvQ9Ufc?authuser=0&hl=en&rclk=1,"19.290788199999998,73.06748139999999"
Sunni Hanfi Hindustani Masjid (Markaz),Mosque,"73X3+WQ3 Sunni Hanfi Hindustani Masjid (Markaz), Wani Ali, Bhiwandi, Maharashtra 421302",Wani Ali,73X3+WQ3,Bhiwandi,421302,Maharashtra,IN,https://www.google.com/maps/place/Sunni+Hanfi+Hindustani+Masjid+%28Markaz%29/data=!4m7!3m6!1s0x3be7bd105a69b24d:0xc5cc49603cc8cab0!8m2!3d19.2997607!4d73.0544197!16s%2Fg%2F1tf801lg!19sChIJTbJpWhC95zsRsMrIPGBJzMU?authuser=0&hl=en&rclk=1,"19.2997607,73.0544197"
Baghe-e-Firdaus Masjid,Mosque,"Baghe-e-Firdaus Masjid, Bage firdous, Quresh Nagar, Gokul Nagar, Bhiwandi, Maharashtra 421302","Quresh Nagar, Gokul Nagar",Bage firdous,Bhiwandi,421302,Maharashtra,IN,https://www.google.com/maps/place/Baghe-e-Firdaus+Masjid/data=!4m7!3m6!1s0x3be7bd6b5e5bb663:0x950304fdecd4a14d!8m2!3d19.3044732!4d73.0654352!16s%2Fg%2F11c6q4__sz!19sChIJY7ZbXmu95zsRTaHU7P0EA5U?authuser=0&hl=en&rclk=1,"19.3044732,73.0654352"
Aqsa Masjid,Mosque,"Aqsa Masjid, Dargah Rd, Narpoli, Bhiwandi, Maharashtra 421302",Narpoli,Dargah Rd,Bhiwandi,421302,Maharashtra,IN,https://www.google.com/maps/place/Aqsa+Masjid/data=!4m7!3m6!1s0x3be7bd04f8d0aff7:0x2027b18feced6790!8m2!3d19.294244!4d73.049196!16s%2Fg%2F1hg4wykwm!19sChIJ96_Q-AS95zsRkGft7I-xJyA?authuser=0&hl=en&rclk=1,"19.294244,73.049196"
Allah Masjid,Mosque,"73W6+F53 Allah Masjid, Mangal Bazar Rd, Kaneri, Bhiwandi, Maharashtra 421302",Kaneri,"73W6+F53, Mangal Bazar Rd",Bhiwandi,421302,Maharashtra,IN,https://www.google.com/maps/place/Allah+Masjid/data=!4m7!3m6!1s0x3be7bd0da4c9a109:0xc107fdeecd4581fa!8m2!3d19.2961276!4d73.0604369!16s%2Fg%2F1pyqst778!19sChIJCaHJpA295zsR-oFFze79B8E?authuser=0&hl=en&rclk=1,"19.2961276,73.0604369"
Baag-e-Amjadi Masjid,Mosque,"Baag-e-Amjadi Masjid, Amjadiya Masjid&Madrasa Pirani Pada Bhiwandi, 2, Maulana Azad Rd, Fandole Nagar, Gaibi Nagar Bhiwandi, Bhiwandi, Maharashtra 421302","Fandole Nagar, Gaibi Nagar Bhiwandi","Amjadiya Masjid&Madrasa Pirani Pada Bhiwandi, 2, Maulana Azad Rd",Bhiwandi,421302,Maharashtra,IN,https://www.google.com/maps/place/Baag-e-Amjadi+Masjid/data=!4m7!3m6!1s0x3be7bd70bd6a434d:0xc21ab9b0e2ba9727!8m2!3d19.2950571!4d73.075185!16s%2Fg%2F11b6x8vgf1!19sChIJTUNqvXC95zsRJ5e64rC5GsI?authuser=0&hl=en&rclk=1,"19.295057099999998,73.07518499999999"
Tayyeb Masjid,Mosque,"Shop no.4, Tayyeb Masjid, near by Tayyab Masjid Road, Avachit Pada, Bhiwandi, Maharashtra 421302",Avachit Pada,"Shop no.4, near by Tayyab Masjid Road",Bhiwandi,421302,Maharashtra,IN,https://www.google.com/maps/place/Tayyeb+Masjid/data=!4m7!3m6!1s0x3be7bd693aa7fe63:0x23940f5384e6f601!8m2!3d19.3056519!4d73.0722352!16s%2Fg%2F1tcy7bzk!19sChIJY_6nOmm95zsRAfbmhFMPlCM?authuser=0&hl=en&rclk=1,"19.3056519,73.0722352"
Sunni Hanfi Jama Masjid Shama Nagar,Mosque,"Sunni Hanfi Jama Masjid Shama Nagar, Shama Nagar, Metro Station, West, Dhamankar Naka, Narpoli, Bhiwandi, Maharashtra 421305","Dhamankar Naka, Narpoli","Shama Nagar, Metro Station, West",Bhiwandi,421305,Maharashtra,IN,https://www.google.com/maps/place/Sunni+Hanfi+Jama+Masjid+Shama+Nagar/data=!4m7!3m6!1s0x3be7bd080dad567d:0x3dcd52dd5a3b7425!8m2!3d19.2868629!4d73.0529924!16s%2Fg%2F1pyqnj_dc!19sChIJfVatDQi95zsRJXQ7Wt1SzT0?authuser=0&hl=en&rclk=1,"19.2868629,73.0529924"
Nagina Masjid,Mosque,"73PC+6HM Nagina Masjid, Kalyan - Bhiwandi Rd, Nai Basti, Padma Nagar, Bhiwandi, Maharashtra 421302","Nai Basti, Padma Nagar","73PC+6HM, Kalyan - Bhiwandi Rd",Bhiwandi,421302,Maharashtra,IN,https://www.google.com/maps/place/Nagina+Masjid/data=!4m7!3m6!1s0x3be7bd9db8a1bc31:0x620301ef9ec3b957!8m2!3d19.2855768!4d73.0714259!16s%2Fg%2F11b6qc31nq!19sChIJMbyhuJ295zsRV7nDnu8BA2I?authuser=0&hl=en&rclk=1,"19.285576799999998,73.0714259"
Sirajul Uloom Masjid and Madarsa,Mosque,"Sirajul Uloom Masjid and Madarsa, Sirajul Uloom Masjid, Naigaon - Juchandra Rd, Avachit Pada, Bhiwandi, Maharashtra 421302",Avachit Pada,"Sirajul Uloom Masjid, Naigaon - Juchandra Rd",Bhiwandi,421302,Maharashtra,IN,https://www.google.com/maps/place/Sirajul+Uloom+Masjid+and+Madarsa/data=!4m7!3m6!1s0x3be7bd6bdea05fe5:0x83a5745ca43d5142!8m2!3d19.3063759!4d73.0696449!16s%2Fg%2F11b6q3f_8n!19sChIJ5V-g3mu95zsRQlE9pFx0pYM?authuser=0&hl=en&rclk=1,"19.3063759,73.0696449"
Sunni Hanfi Darul Falah Masjid msjd,Mosque,"Sunni Hanfi Darul Falah Masjid msjd, Al Razi Hospital, Opp, Nashik Rd, Avachit Pada, Bhiwandi, Maharashtra 421302",Avachit Pada,"Al Razi Hospital, Opp, Nashik Rd",Bhiwandi,421302,Maharashtra,IN,https://www.google.com/maps/place/Sunni+Hanfi+Darul+Falah+Masjid+%D9%85%D8%B3%D8%AC%D8%AF%E2%80%AD/data=!4m7!3m6!1s0x3be7bd423ee0c3a3:0xfe9244dd0fdc4e41!8m2!3d19.3122574!4d73.0713897!16s%2Fg%2F1pyqqqt3z!19sChIJo8PgPkK95zsRQU7cD91Ekv4?authuser=0&hl=en&rclk=1,"19.3122574,73.0713897"
Karga Masjid,Mosque,"8323+CPG Karga Masjid, Saudager St, Bunder Mohalla, Wani Ali, Bhiwandi, Maharashtra 421302","Bunder Mohalla, Wani Ali","8323+CPG, Saudager St",Bhiwandi,421302,Maharashtra,IN,https://www.google.com/maps/place/Karga+Masjid/data=!4m7!3m6!1s0x3be7bd10efd4c103:0xbca33978f9804560!8m2!3d19.301064!4d73.05434!16s%2Fg%2F1hhvtvnhg!19sChIJA8HU7xC95zsRYEWA-Xg5o7w?authuser=0&hl=en&rclk=1,"19.301064,73.05434"
Sunni Hanfi Huda Masjid,Mosque,"8359+C34 Sunni Hanfi Huda Masjid, Bala Compaund Aslam nagar, Bhiwandi, Maharashtra",Avachit Pada,"8359+C34, Bala Compaund Aslam nagar",Bhiwandi,,Maharashtra,IN,https://www.google.com/maps/place/Sunni+Hanfi+Huda+Masjid/data=!4m7!3m6!1s0x3be7bd6a5ced7607:0x532b4d42e579ce22!8m2!3d19.3085184!4d73.0676946!16s%2Fg%2F11_rc5wdq!19sChIJB3btXGq95zsRIs555UJNK1M?authuser=0&hl=en&rclk=1,"19.3085184,73.0676946"
Sunni Hanfi Islampura Masjid (Sunni Jamaat),Mosque,"8327+22P Sunni Hanfi Islampura Masjid (Sunni Jamaat), Momin Masjid Islampura Bhiwandi, Bhiwandi","Old Zakat Naka, Gokul Nagar","8327+22P, Momin Masjid Islampura Bhiwandi",Bhiwandi,,Maharashtra,IN,https://www.google.com/maps/place/Sunni+Hanfi+Islampura+Masjid+%28Sunni+Jamaat%29/data=!4m7!3m6!1s0x3be7bd12ea29d89b:0x117f2df1a111e19e!8m2!3d19.3000977!4d73.0625867!16s%2Fg%2F11b6pyd158!19sChIJm9gp6hK95zsRnuERofEtfxE?authuser=0&hl=en&rclk=1,"19.3000977,73.0625867"
Sunni Masjid,Mosque,"8325+PJC Sunni Masjid, Sunni Masjid Teen Batti Bhiwandi, Bhiwandi","Nazarana Compound, Gokul Nagar","8325+PJC, Sunni Masjid Teen Batti Bhiwandi",Bhiwandi,,Maharashtra,IN,https://www.google.com/maps/place/Sunni+Masjid/data=!4m7!3m6!1s0x3be7bd13c4a61cb1:0x61be35a6dd2dc244!8m2!3d19.3018184!4d73.059022!16s%2Fg%2F11b6t7b637!19sChIJsRymxBO95zsRRMIt3aY1vmE?authuser=0&hl=en&rclk=1,"19.3018184,73.059022"
Hazrat Ali Murtaza Sunni Masjid Astana Mama Bhanja,Mosque,"8369+QPM Hazrat Ali Murtaza Sunni Masjid Astana Mama Bhanja, Rd Number 2, behind mamta hospital nashik, Millat Nagar, Avachit Pada, Bhiwandi, Maharashtra 421302","Millat Nagar, Avachit Pada","8369+QPM, Rd Number 2, behind mamta hospital nashik",Bhiwandi,421302,Maharashtra,IN,https://www.google.com/maps/place/Hazrat+Ali+Murtaza+Sunni+Masjid+Astana+Mama+Bhanja/data=!4m7!3m6!1s0x3be7bd418e76246d:0xce9d9f0511c1c694!8m2!3d19.311954!4d73.0693023!16s%2Fg%2F1pyqtg5hz!19sChIJbSR2jkG95zsRlMbBEQWfnc4?authuser=0&hl=en&rclk=1,"19.311954,73.06930229999999"
Sunni Hanfi Noorani Masjid,Mosque,"73XC+28R Sunni Hanfi Noorani Masjid, Kacheri Pada, Gulzar Nagar, Bhiwandi, Maharashtra 421302","Kacheri Pada, Gulzar Nagar",73XC+28R,Bhiwandi,421302,Maharashtra,IN,https://www.google.com/maps/place/Sunni+Hanfi+Noorani+Masjid/data=!4m7!3m6!1s0x3be7bd718d41527b:0x7a4e563803820910!8m2!3d19.2976231!4d73.0707597!16s%2Fg%2F1pyqnd1k8!19sChIJe1JBjXG95zsREAmCAzhWTno?authuser=0&hl=en&rclk=1,"19.2976231,73.0707597"
NASIRABAD MASJID,Mosque,"73Q3+GCW NASIRABAD MASJID, Shahnawaz Siddiqui, Dhamankar Naka, Narpoli, Bhiwandi, Maharashtra 421302","Dhamankar Naka, Narpoli","73Q3+GCW, Shahnawaz Siddiqui",Bhiwandi,421302,Maharashtra,IN,https://www.google.com/maps/place/NASIRABAD+MASJID/data=!4m7!3m6!1s0x3be7bd088a52b031:0xc7a0c77e6c0f1103!8m2!3d19.2888664!4d73.0535791!16s%2Fg%2F11cfg99_8!19sChIJMbBSigi95zsRAxEPbH7HoMc?authuser=0&hl=en&rclk=1,"19.2888664,73.0535791"
Waja Mohalla Masjid,Mosque,"73X4+C9C Waja Mohalla Masjid, Mandai - Dhamankar Naka Rd, Kumbhar Ali, Mandai, Bhiwandi, Maharashtra 421302","Kumbhar Ali, Mandai","73X4+C9C, Mandai - Dhamankar Naka Rd",Bhiwandi,421302,Maharashtra,IN,https://www.google.com/maps/place/Waja+Mohalla+Masjid/data=!4m7!3m6!1s0x3be7bd11cecf63a9:0x63fa9f00257fe25d!8m2!3d19.2985642!4d73.0558962!16s%2Fg%2F1tx1rnxh!19sChIJqWPPzhG95zsRXeJ_JQCf-mM?authuser=0&hl=en&rclk=1,"19.298564199999998,73.05589619999999"
Ahle Hadis Dokla Masjid,Mosque,"8322+7X6 Ahle Hadis Dokla Masjid, Saudagar Mohalla Rd, Narpoli, Bhiwandi, Maharashtra 421302",Narpoli,"8322+7X6, Saudagar Mohalla Rd",Bhiwandi,421302,Maharashtra,IN,https://www.google.com/maps/place/Ahle+Hadis+Dokla+Masjid/data=!4m7!3m6!1s0x3be7bd1082615209:0xb3bf645918a291d!8m2!3d19.3006508!4d73.0524033!16s%2Fg%2F1hhwmp0fb!19sChIJCVJhghC95zsRHSmKkUX2Ows?authuser=0&hl=en&rclk=1,"19.3006508,73.0524033"
Sunni Islamabad Masjid,Mosque,"73X4+RVP Sunni Islamabad Masjid, Bangal Pura Rd, Navi Chal, Prabhu Ali, Mandai, Bhiwandi, Maharashtra 421302","Navi Chal, Prabhu Ali, Mandai","73X4+RVP, Bangal Pura Rd",Bhiwandi,421302,Maharashtra,IN,https://www.google.com/maps/place/Sunni+Islamabad+Masjid/data=!4m7!3m6!1s0x3be7bd119140b0b7:0x8ed075d44554a2f9!8m2!3d19.2995926!4d73.0572018!16s%2Fg%2F1hhn4cw4_!19sChIJt7BAkRG95zsR-aJURdR10I4?authuser=0&hl=en&rclk=1,"19.2995926,73.0572018"
Sunni Hanfi Nai Masjid,Mosque,"8322+5GM Sunni Hanfi Nai Masjid, jumai kampaund, Bhiwandi",Narpoli,"8322+5GM, jumai kampaund",Bhiwandi,,Maharashtra,IN,https://www.google.com/maps/place/Sunni+Hanfi+Nai+Masjid/data=!4m7!3m6!1s0x3be7bd1a64172d6d:0x94ba07293b4a4d9f!8m2!3d19.3004508!4d73.0512822!16s%2Fg%2F1tdkf2yq!19sChIJbS0XZBq95zsRn01KOykHupQ?authuser=0&hl=en&rclk=1,"19.3004508,73.0512822"
"Sunni Raza Jama Masjid (Hanfi, Ahle Sunnat Wa Jamaat)",Mosque,"8357+94F Sunni Raza Jama Masjid (Hanfi, Ahle Sunnat Wa Jamaat), Gokul Nagar, Bhiwandi, Maharashtra 421302",Gokul Nagar,8357+94F,Bhiwandi,421302,Maharashtra,IN,"https://www.google.com/maps/place/Sunni+Raza+Jama+Masjid+%28Hanfi,+Ahle+Sunnat+Wa+Jamaat%29/data=!4m7!3m6!1s0x3be7bd1540448901:0xd9740783c421364!8m2!3d19.3084272!4d73.0627915!16s%2Fg%2F12627y2n_!19sChIJAYlEQBW95zsRZBNCPHhAlw0?authuser=0&hl=en&rclk=1","19.3084272,73.0627915"
Patel Masjid,Mosque,"Patel Masjid, Nizampur, Quresh Nagar, Gokul Nagar, Bhiwandi, Maharashtra 421302","Nizampur, Quresh Nagar, Gokul Nagar",,Bhiwandi,421302,Maharashtra,IN,https://www.google.com/maps/place/Patel+Masjid/data=!4m7!3m6!1s0x3be7bd1361b6d7a1:0x7bfb935d75cd505a!8m2!3d19.3038518!4d73.0624455!16s%2Fg%2F11_t03xcc!19sChIJode2YRO95zsRWlDNdV2T-3s?authuser=0&hl=en&rclk=1,"19.3038518,73.0624455"
Sunni Hanfi Momin Masjid,Mosque,"Sunni Hanfi Momin Masjid, Chuniwala mohalla, Asma Fakih Rd Lane 2, Bhusar Mohalla, Kahjoor Pura, Bhiwandi, Maharashtra 421302","Bhusar Mohalla, Kahjoor Pura","Chuniwala mohalla, Asma Fakih Rd Lane 2",Bhiwandi,421302,Maharashtra,IN,https://www.google.com/maps/place/Sunni+Hanfi+Momin+Masjid/data=!4m7!3m6!1s0x3be7bd12ccb82111:0x45e9c3d27ce54255!8m2!3d19.2960995!4d73.0515792!16s%2Fg%2F1tdd89db!19sChIJESG4zBK95zsRVULlfNLD6UU?authuser=0&hl=en&rclk=1,"19.2960995,73.05157919999999"
Sunni Hanfi Noori Masjid,Mosque,"73MC+GF2 Sunni Hanfi Noori Masjid, KGN Chowk Rd, Nai Basti, Padma Nagar, Bhiwandi, Maharashtra 421302","Nai Basti, Padma Nagar","73MC+GF2, KGN Chowk Rd",Bhiwandi,421302,Maharashtra,IN,https://www.google.com/maps/place/Sunni+Hanfi+Noori+Masjid/data=!4m7!3m6!1s0x3be7bd9c3bd4af27:0x47564ac33078ea53!8m2!3d19.2837701!4d73.0711412!16s%2Fg%2F11b6nz9wp6!19sChIJJ6_UO5y95zsRU-p4MMNKVkc?authuser=0&hl=en&rclk=1,"19.283770099999998,73.0711412"
Sunni HanfiDeeniyat Masjid & Madrasa,Mosque,"73VH+V57 Sunni HanfiDeeniyat Masjid & Madrasa, Deeniyat Masjid&Madrasa Shanti Nagar Bhiwandi, Maulana Azad Rd, Gulzar Nagar, Bhiwandi, Maharashtra 421302",Gulzar Nagar,"73VH+V57, Deeniyat Masjid&Madrasa Shanti Nagar Bhiwandi, Maulana Azad Rd",Bhiwandi,421302,Maharashtra,IN,https://www.google.com/maps/place/Sunni+HanfiDeeniyat+Masjid+%26+Madrasa/data=!4m7!3m6!1s0x3be7bd7a3b2bd59b:0x892938672a7e0be7!8m2!3d19.2946606!4d73.0779101!16s%2Fg%2F11b6rx_2k2!19sChIJm9UrO3q95zsR5wt-Kmc4KYk?authuser=0&hl=en&rclk=1,"19.2946606,73.0779101"
Sunni Tauheed Masjid Ahle Hadith,Mosque,"73QC+V6M Sunni Tauheed Masjid Ahle Hadith, ravji nagar kalyan road bhiwandi, Bhiwandi","MSEB Colony, Gaibi Nagar Bhiwandi","73QC+V6M, ravji nagar kalyan road bhiwandi",Bhiwandi,,Maharashtra,IN,https://www.google.com/maps/place/Sunni+Tauheed+Masjid+Ahle+Hadith/data=!4m7!3m6!1s0x3be7bd767a43b2d1:0x1ddecf58683fe15f!8m2!3d19.2897234!4d73.0705344!16s%2Fg%2F11b6nhqd6w!19sChIJ0bJDena95zsRX-E_aFjP3h0?authuser=0&hl=en&rclk=1,"19.2897234,73.0705344"
SUNNI JAMA MASJID ROSHAN BAUG,Mosque,"SUNNI JAMA MASJID ROSHAN BAUG, Roushan Baugh, near Mohammad Ali Johar Chowk, Bhiwandi, Maharashtra 421302","New Taware Compound, Narpoli","Roushan Baugh, near Mohammad Ali Johar Chowk",Bhiwandi,421302,Maharashtra,IN,https://www.google.com/maps/place/SUNNI+JAMA+MASJID+ROSHAN+BAUG/data=!4m7!3m6!1s0x3be7bd0614a15ff9:0xdb893a246dae391c!8m2!3d19.2902892!4d73.0510009!16s%2Fg%2F1hg4vng84!19sChIJ-V-hFAa95zsRHDmubSQ6ids?authuser=0&hl=en&rclk=1,"19.2902892,73.05100089999999"
Sunni Jama Masjid Atai Rasool,Mosque,"73M2+VQ2 Sunni Jama Masjid Atai Rasool, Ajmer Nagar Bhiwandi, Bhiwandi",Kamatghar,"73M2+VQ2, Ajmer Nagar Bhiwandi",Bhiwandi,,Maharashtra,IN,https://www.google.com/maps/place/Sunni+Jama+Masjid+Atai+Rasool/data=!4m7!3m6!1s0x3be7bda80ea2f7df:0xd9ca5a525b6e146d!8m2!3d19.2846474!4d73.051881!16s%2Fg%2F11bymypz_7!19sChIJ3_eiDqi95zsRbRRuW1Jaytk?authuser=0&hl=en&rclk=1,"19.2846474,73.051881"
Rabiya Masjid Ahle Hadis,Mosque,"73X5+3W8 Rabiya Masjid Ahle Hadis, Samad Nagar, Kaneri, Bhiwandi, Maharashtra 421302","Samad Nagar, Kaneri",73X5+3W8,Bhiwandi,421302,Maharashtra,IN,https://www.google.com/maps/place/Rabiya+Masjid+Ahle+Hadis/data=!4m7!3m6!1s0x3be7bd0d8b71b2d3:0x7356b04533d279e4!8m2!3d19.2976602!4d73.0598225!16s%2Fg%2F11dxbdxg75!19sChIJ07Jxiw295zsR5HnSM0WwVnM?authuser=0&hl=en&rclk=1,"19.2976602,73.0598225"
Sunni Hanfi Makkah Masjid,Mosque,"73P9+886 Sunni Hanfi Makkah Masjid, Padma Nagar, Bhiwandi, Maharashtra 421302",Padma Nagar,73P9+886,Bhiwandi,421302,Maharashtra,IN,https://www.google.com/maps/place/Sunni+Hanfi+Makkah+Masjid/data=!4m7!3m6!1s0x3be7bd9e3f5bb09b:0x320f0928f4d1e126!8m2!3d19.2857857!4d73.0682559!16s%2Fg%2F1pyqm34mw!19sChIJm7BbP5695zsRJuHR9CgJDzI?authuser=0&hl=en&rclk=1,"19.285785699999998,73.0682559"
Sunni Hanfi Bilal Masjid,Mosque,"73RJ+VM9 Sunni Hanfi Bilal Masjid, Santinagar, Gaibi Nagar Bhiwandi, Bhiwandi, Maharashtra 421302","Santinagar, Gaibi Nagar Bhiwandi",73RJ+VM9,Bhiwandi,421302,Maharashtra,IN,https://www.google.com/maps/place/Sunni+Hanfi+Bilal+Masjid/data=!4m7!3m6!1s0x3be7bdf6a1008a53:0xde08a3dd353bef30!8m2!3d19.2921518!4d73.0817353!16s%2Fg%2F11gsztwztn!19sChIJU4oAofa95zsRMO87Nd2jCN4?authuser=0&hl=en&rclk=1,"19.2921518,73.08173529999999"
Sunni Hanfi Taiba Masjid,Mosque,"73VH+7RH Sunni Hanfi Taiba Masjid, Shanti Nagar, Near police chowky, Bhiwandi, Maharashtra 421302","Santinagar, Gaibi Nagar Bhiwandi","73VH+7RH, Shanti Nagar, Near police chowky",Bhiwandi,421302,Maharashtra,IN,https://www.google.com/maps/place/Sunni+Hanfi+Taiba+Masjid/data=!4m7!3m6!1s0x3be7bd7971b8465b:0x6fb77c896c0c5c1f!8m2!3d19.2931964!4d73.0796103!16s%2Fg%2F11bwl3mx50!19sChIJW0a4cXm95zsRH1wMbIl8t28?authuser=0&hl=en&rclk=1,"19.2931964,73.0796103"
Rehmaniya Masjid,Mosque,"Rehmaniya Masjid, Masjid e Rahmania Taj Mohammad Khan Pathan Road, Fandole Nagar, Gaibi Nagar Bhiwandi, Bhiwandi, Maharashtra 421302","Fandole Nagar, Gaibi Nagar Bhiwandi",Masjid e Rahmania Taj Mohammad Khan Pathan Road,Bhiwandi,421302,Maharashtra,IN,https://www.google.com/maps/place/Rehmaniya+Masjid/data=!4m7!3m6!1s0x3be7bd7126428f8f:0x484d13824fcb3904!8m2!3d19.294272!4d73.0727197!16s%2Fg%2F11b6pzkm3t!19sChIJj49CJnG95zsRBDnLT4ITTUg?authuser=0&hl=en&rclk=1,"19.294272,73.0727197"
Bhiwandi Bag-E-Firdos Masjid,Mosque,"Bhiwandi Bag-E-Firdos Masjid, MH SH 76, Quresh Nagar, Babu Ganj Groups, Bhiwandi, Maharashtra 421302","Quresh Nagar, Babu Ganj Groups",MH SH 76,Bhiwandi,421302,Maharashtra,IN,https://www.google.com/maps/place/Bhiwandi+Bag-E-Firdos+Masjid/data=!4m7!3m6!1s0x3be7bd6b589c463d:0xa22e90b446badc71!8m2!3d19.3044556!4d73.0654134!16s%2Fg%2F11fx8c08__!19sChIJPUacWGu95zsRcdy6RrSQLqI?authuser=0&hl=en&rclk=1,"19.3044556,73.0654134"
Sonapur Masjid,Mosque,"73X4+5V9 Sonapur Masjid, Bangalpura, Samad Nagar, Kaneri, Bhiwandi, Maharashtra 421302","Bangalpura, Samad Nagar, Kaneri",73X4+5V9,Bhiwandi,421302,Maharashtra,IN,https://www.google.com/maps/place/Sonapur+Masjid/data=!4m7!3m6!1s0x3be7bd11e3b7618b:0x43aaa33648ccbdf5!8m2!3d19.2979249!4d73.0572338!16s%2Fg%2F11b6gfldbb!19sChIJi2G34xG95zsR9b3MSDajqkM?authuser=0&hl=en&rclk=1,"19.297924899999998,73.05723379999999"
"Noorani Masjid (Hanfi, Ahle Sunnat Wa Jamaat)",Mosque,"Noorani Masjid (Hanfi, Ahle Sunnat Wa Jamaat), Sunni Masjid, Aminabad, Bhiwandi, Maharashtra 421302",Aminabad,Sunni Masjid,Bhiwandi,,Maharashtra,IN,"https://www.google.com/maps/place/Noorani+Masjid+%28Hanfi,+Ahle+Sunnat+Wa+Jamaat%29/data=!4m7!3m6!1s0x3be7bd4058dad717:0xe7f50cace886ff31!8m2!3d19.3128301!4d73.0653403!16s%2Fg%2F1pyqmvz05!19sChIJF9faWEC95zsRMf-G6KwM9ec?authuser=0&hl=en&rclk=1","19.3128301,73.0653403"
Sunni Ahle Hadis Asma Masjid,Mosque,"Sunni Ahle Hadis Asma Masjid, Chuniwala mohalla, Asma masjid compound, New, New Gauri Pada, Narpoli, Bhiwandi, Maharashtra 421302","New Gauri Pada, Narpoli","Chuniwala mohalla, Asma masjid compound, New",Bhiwandi,421302,Maharashtra,IN,https://www.google.com/maps/place/Sunni+Ahle+Hadis+Asma+Masjid/data=!4m7!3m6!1s0x3be7bd05bdb00bc9:0x2c6333bb86faf1a9!8m2!3d19.2932135!4d73.0507876!16s%2Fg%2F1pyqtdq1g!19sChIJyQuwvQW95zsRqfH6hrszYyw?authuser=0&hl=en&rclk=1,"19.2932135,73.05078759999999"
Haji siddqui Patel Masjid Haji siddqui Patel Compound Bhiwandi,Mosque,"73P3+GPR Haji siddqui Patel Masjid Haji siddqui Patel Compound Bhiwandi, MH SH 35, Kamatghar, Bhiwandi, Maharashtra 421302",Kamatghar,"73P3+GPR, MH SH 35",Bhiwandi,421302,Maharashtra,IN,https://www.google.com/maps/place/Haji+siddqui+Patel+Masjid+Haji+siddqui+Patel+Compound+Bhiwandi/data=!4m7!3m6!1s0x3be7bd082415fcd1:0xb5f7959dd5709cbf!8m2!3d19.2863709!4d73.0542681!16s%2Fg%2F11b7fgmbvh!19sChIJ0fwVJAi95zsRv5xw1Z2V97U?authuser=0&hl=en&rclk=1,"19.286370899999998,73.0542681"
Sunni Shafi Jama Masjid,Mosque,"Sunni Shafi Jama Masjid, 1, Wani Ali Rd, Saudager Mohalla, Nazarana Compound, Wani Ali, Bhiwandi, Maharashtra 421302","Saudager Mohalla, Nazarana Compound, Wani Ali","1, Wani Ali Rd",Bhiwandi,421302,Maharashtra,IN,https://www.google.com/maps/place/Sunni+Shafi+Jama+Masjid/data=!4m7!3m6!1s0x3be7bd1064557e01:0x912d6890fb0e2852!8m2!3d19.2996812!4d73.0532563!16s%2Fg%2F1tt89qpz!19sChIJAX5VZBC95zsRUigO-5BoLZE?authuser=0&hl=en&rclk=1,"19.2996812,73.0532563"
Noor Masjid nwr msjd,Mosque,"1443, Noor Masjid nwr msjd, 1, Nagaon, Gulzar Nagar, Bhiwandi, Maharashtra 421302","Nagaon, Gulzar Nagar","1443, 1",Bhiwandi,421302,Maharashtra,IN,https://www.google.com/maps/place/Noor+Masjid+%D9%86%D9%88%D8%B1+%D9%85%D8%B3%D8%AC%D8%AF%E2%80%AD/data=!4m7!3m6!1s0x3be7bd6e30d359a7:0x1b88e84467fcadf5!8m2!3d19.3002353!4d73.0723938!16s%2Fg%2F1pyqs3zg5!19sChIJp1nTMG695zsR9a38Z0ToiBs?authuser=0&hl=en&rclk=1,"19.3002353,73.0723938"
sunni Hanfi gausiya masjid,Mosque,"73WM+58R sunni Hanfi gausiya masjid, Dongari Pada, Bhiwandi, Maharashtra 421302",Dongari Pada,73WM+58R,Bhiwandi,421302,Maharashtra,IN,https://www.google.com/maps/place/sunni+Hanfi+gausiya+masjid/data=!4m7!3m6!1s0x3be7bd7c15f3eaad:0xa07fd87c919488e0!8m2!3d19.295477!4d73.0832782!16s%2Fg%2F11dxm89gts!19sChIJrerzFXy95zsR4IiUkXzYf6A?authuser=0&hl=en&rclk=1,"19.295476999999998,73.0832782"
Sunni Hanfi Ashraf Masjid Madhav Nagar,Mosque,"73Q3+69C Sunni Hanfi Ashraf Masjid Madhav Nagar, Dhamankar Naka, Padma Nagar, Bhiwandi, Maharashtra 421302","Dhamankar Naka, Padma Nagar",73Q3+69C,Bhiwandi,421302,Maharashtra,IN,https://www.google.com/maps/place/Sunni+Hanfi+Ashraf+Masjid+Madhav+Nagar/data=!4m7!3m6!1s0x3be7bd0865e5ad07:0xfcf214ae580cfe72!8m2!3d19.2880541!4d73.0534055!16s%2Fg%2F11bzs251sm!19sChIJB63lZQi95zsRcv4MWK4U8vw?authuser=0&hl=en&rclk=1,"19.2880541,73.0534055"
Sunni Masjid,Mosque,"Sunni Masjid, Kalyan - Bhiwandi Rd, Gaibi Nagar Bhiwandi, Bhiwandi, Maharashtra 421302",Gaibi Nagar Bhiwandi,"Sunni Masjid, Kalyan - Bhiwandi Rd",Bhiwandi,,Maharashtra,IN,https://www.google.com/maps/place/Sunni+Masjid/data=!4m7!3m6!1s0x3be7bd9c563724d7:0xc8fd25fd89c8279b!8m2!3d19.2845056!4d73.0730711!16s%2Fg%2F11b6ss_ql5!19sChIJ1yQ3Vpy95zsRmyfIif0l_cg?authuser=0&hl=en&rclk=1,"19.2845056,73.07307109999999"
Shia Jafery Haidary Jama Masjid,Mosque,"73X2+MW9 Shia Jafery Haidary Jama Masjid, Sutar Aly, Narpoli, Bhiwandi, Maharashtra 421302",Narpoli,"73X2+MW9, Sutar Aly",Bhiwandi,421302,Maharashtra,IN,https://www.google.com/maps/place/Shia+Jafery+Haidary+Jama+Masjid/data=!4m7!3m6!1s0x3be7bd1077a4f7b7:0x93bb40e310aecb6f!8m2!3d19.2991586!4d73.0523566!16s%2Fg%2F11c1q8gbz6!19sChIJt_ekdxC95zsRb8uuEONAu5M?authuser=0&hl=en&rclk=1,"19.2991586,73.0523566"
Sunni Hanfi Masjid E Umar,Mosque,"73V2+MJ5 Sunni Hanfi Masjid E Umar, Narpoli, Bhiwandi, Maharashtra 421302",Narpoli,73V2+MJ5,Bhiwandi,421302,Maharashtra,IN,https://www.google.com/maps/place/Sunni+Hanfi+Masjid+E+Umar/data=!4m7!3m6!1s0x3be7bd059cd52957:0xa63718ca57e595b!8m2!3d19.2941328!4d73.0516171!16s%2Fg%2F1hm36fbns!19sChIJVynVnAW95zsRW1l-pYxxYwo?authuser=0&hl=en&rclk=1,"19.2941328,73.0516171"
Sunni Ahle Hadis Muhammadi Masjid Ahle Hadith,Mosque,"72RW+HR2 Sunni Ahle Hadis Muhammadi Masjid Ahle Hadith, Rahman Gali, New Taware Compound, Narpoli, Bhiwandi, Maharashtra 431302","New Taware Compound, Narpoli","72RW+HR2, Rahman Gali",Bhiwandi,431302,Maharashtra,IN,https://www.google.com/maps/place/Sunni+Ahle+Hadis+Muhammadi+Masjid+Ahle+Hadith/data=!4m7!3m6!1s0x3be7bd04048fbbb9:0x3b29bce9103df32b!8m2!3d19.291398!4d73.0470228!16s%2Fg%2F1vc808hd!19sChIJubuPBAS95zsRK_M9EOm8KTs?authuser=0&hl=en&rclk=1,"19.291397999999997,73.0470228"
Sunni Hanfi Murshad Masjid,Mosque,"73V3+XHC Sunni Hanfi Murshad Masjid, Narpoli, Bhiwandi, Maharashtra 421302",Narpoli,73V3+XHC,Bhiwandi,421302,Maharashtra,IN,https://www.google.com/maps/place/Sunni+Hanfi+Murshad+Masjid/data=!4m7!3m6!1s0x3be7bd0fa23df329:0x7f0f794a49b426e7!8m2!3d19.294939!4d73.053904!16s%2Fg%2F1pyqjn50g!19sChIJKfM9og-95zsR5ya0SUp5D38?authuser=0&hl=en&rclk=1,"19.294939,73.053904"
Furqaniya Masjid,Mosque,"73V3+J4G Furqaniya Masjid, Narpoli, Bhiwandi, Maharashtra 421302",Narpoli,73V3+J4G,Bhiwandi,421302,Maharashtra,IN,https://www.google.com/maps/place/Furqaniya+Masjid/data=!4m7!3m6!1s0x3be7bd0f797e4b1f:0x7c226b600d3a7b3f!8m2!3d19.2940654!4d73.0528412!16s%2Fg%2F1hm3hkdf1!19sChIJH0t-eQ-95zsRP3s6DWBrInw?authuser=0&hl=en&rclk=1,"19.294065399999997,73.0528412"
Sunni Hanfi Masjid-E-Noor,Mosque,"Sunni Hanfi Masjid-E-Noor, Qari road,Bhiwandi421302,,India, Wali, Maharashtra","Samru Baugh, Narpoli","Qari road,Bhiwandi421302,,India","Wali, Bhiwandi",,Maharashtra,IN,https://www.google.com/maps/place/Sunni+Hanfi+Masjid-E-Noor/data=!4m7!3m6!1s0x3be7bd1ac35d1e5d:0xb13076319ee63ff!8m2!3d19.2982079!4d73.0502193!16s%2Fg%2F11bv2lz2rf!19sChIJXR5dwxq95zsR_2PuGWMHEws?authuser=0&hl=en&rclk=1,"19.298207899999998,73.0502193"
Sunni Hanfi Mohammadiya Masjid,Mosque,"73XF+3WQ Sunni Hanfi Mohammadiya Masjid, kidwai Nagar talab, Gulzar Nagar, Bhiwandi, Maharashtra 421302","kidwai Nagar talab, Gulzar Nagar",73XF+3WQ,Bhiwandi,421302,Maharashtra,IN,https://www.google.com/maps/place/Sunni+Hanfi+Mohammadiya+Masjid/data=!4m7!3m6!1s0x3be7bd706c719ee9:0x5298df571517f3e!8m2!3d19.2977051!4d73.0748735!16s%2Fg%2F11cjnnvw4h!19sChIJ6Z5xbHC95zsRPn9RcfWNKQU?authuser=0&hl=en&rclk=1,"19.297705099999998,73.0748735"
Sunni Hanfi Miraj Masjid,Mosque,"73RH+PF5 Sunni Hanfi Miraj Masjid, Santinagar, Gaibi Nagar Bhiwandi, Bhiwandi, Maharashtra 421302","Santinagar, Gaibi Nagar Bhiwandi",73RH+PF5,Bhiwandi,421302,Maharashtra,IN,https://www.google.com/maps/place/Sunni+Hanfi+Miraj+Masjid/data=!4m7!3m6!1s0x3be7bd79a866fbbf:0x7716d7df7840740b!8m2!3d19.291763!4d73.078744!16s%2Fg%2F1pyqvvlf8!19sChIJv_tmqHm95zsRC3RAeN_XFnc?authuser=0&hl=en&rclk=1,"19.291763,73.078744"
Masjid E Qadeem,Mosque,"72WX+936 Masjid E Qadeem, Kariwali Rd, Kariwali, Bhiwandi, Maharashtra 421302",Kariwali,"72WX+936, Kariwali Rd",Bhiwandi,421302,Maharashtra,IN,https://www.google.com/maps/place/Masjid+E+Qadeem/data=!4m7!3m6!1s0x3be7bd1b40f0a82d:0x35ffeaf053f498ec!8m2!3d19.2959185!4d73.0476367!16s%2Fg%2F11c58222dv!19sChIJLajwQBu95zsR7Jj0U_Dq_zU?authuser=0&hl=en&rclk=1,"19.2959185,73.0476367"
Sunni Masjid Khadipar,Mosque,"823X+V9H Sunni Masjid Khadipar, Khadipar Rd, Katai, Bhiwandi, Maharashtra 421302",Katai,"823X+V9H, Khadipar Rd",Bhiwandi,421302,Maharashtra,IN,https://www.google.com/maps/place/Sunni+Masjid+Khadipar/data=!4m7!3m6!1s0x3be7bd19105e6cf1:0x8be504ccbfafc5bb!8m2!3d19.3046963!4d73.0484793!16s%2Fg%2F11b6q2n43f!19sChIJ8WxeEBm95zsRu8Wvv8wE5Ys?authuser=0&hl=en&rclk=1,"19.3046963,73.0484793"
Sunni Shafi Bhusar Mohalla Masjid,Mosque,"Sunni Shafi Bhusar Mohalla Masjid, Bhusar Mohalla Masjid Rd, Bhusar Mohalla, Narpoli, Bhiwandi, Maharashtra 421302","Bhusar Mohalla, Narpoli",Bhusar Mohalla Masjid Rd,Bhiwandi,421302,Maharashtra,IN,https://www.google.com/maps/place/Sunni+Shafi+Bhusar+Mohalla+Masjid/data=!4m7!3m6!1s0x3be7bd1017d1f27f:0x66c0cd3c5dd6fb3e!8m2!3d19.2982366!4d73.0537465!16s%2Fg%2F1hc1dt04b!19sChIJf_LRFxC95zsRPvvWXTzNwGY?authuser=0&hl=en&rclk=1,"19.2982366,73.0537465"
Ad Darul Qayyimah Masjid,Mosque,"822X+8PH Ad Darul Qayyimah Masjid, Eidgah Rd, Wani Ali, Bhiwandi, Maharashtra 421302",Wani Ali,"822X+8PH, Eidgah Rd",Bhiwandi,421302,Maharashtra,IN,https://www.google.com/maps/place/Ad+Darul+Qayyimah+Masjid/data=!4m7!3m6!1s0x3be7bd1a4cd96f8f:0x4e76dab1a0bf94d3!8m2!3d19.3008086!4d73.049358!16s%2Fg%2F1hc1qpsw4!19sChIJj2_ZTBq95zsR05S_oLHadk4?authuser=0&hl=en&rclk=1,"19.3008086,73.049358"
Sunni Hanfi Hashmati Jama Masjid,Mosque,"Sunni Hanfi Hashmati Jama Masjid, Babu Ganj Groups, Fatima Apartment, Nagar, 60 Fits Road, Bhiwandi, Maharashtra 421302",Gulzar Nagar,"Babu Ganj Groups, Fatima Apartment, Nagar, 60 Fits Road",Bhiwandi,421302,Maharashtra,IN,https://www.google.com/maps/place/Sunni+Hanfi+Hashmati+Jama+Masjid/data=!4m7!3m6!1s0x3be7bd661f17e957:0x58392e70272c50f2!8m2!3d19.3064976!4d73.0762132!16s%2Fg%2F11bx1j66q2!19sChIJV-kXH2a95zsR8lAsJ3AuOVg?authuser=0&hl=en&rclk=1,"19.3064976,73.0762132"
Sunni Ahle Hadees Khairunnisa Masjid,Mosque,"835C+HQ9 Sunni Ahle Hadees Khairunnisa Masjid, Avachit Pada, Bhiwandi, Maharashtra 421302",Avachit Pada,835C+HQ9,Bhiwandi,421302,Maharashtra,IN,https://www.google.com/maps/place/Sunni+Ahle+Hadees+Khairunnisa+Masjid/data=!4m7!3m6!1s0x3be7bd69b96a44d5:0xfca465e5c267b001!8m2!3d19.3089009!4d73.0719868!16s%2Fg%2F11c1nwnn2_!19sChIJ1URquWm95zsRAbBnwuVlpPw?authuser=0&hl=en&rclk=1,"19.308900899999998,73.07198679999999"
Sunni Masjid Faizan E Garib Nawaz,Mosque,"73M3+XC8 Sunni Masjid Faizan E Garib Nawaz, Kamatghar, Bhiwandi, Maharashtra 421302",Kamatghar,73M3+XC8,Bhiwandi,421302,Maharashtra,IN,https://www.google.com/maps/place/Sunni+Masjid+Faizan+E+Garib+Nawaz/data=!4m7!3m6!1s0x3be7bda7e65c8d83:0x9a9593d15430339!8m2!3d19.2849031!4d73.0535848!16s%2Fg%2F11b773f5nd!19sChIJg41c5qe95zsROQNDFT1ZqQk?authuser=0&hl=en&rclk=1,"19.284903099999998,73.0535848"
Sunni Hanfi Masjid Talab Jabbar Compound Bhiwandi,Mosque,"73XF+CXJ Sunni Hanfi Masjid Talab Jabbar Compound Bhiwandi, Gulzar Nagar, Bhiwandi, Maharashtra 421302",Gulzar Nagar,73XF+CXJ,Bhiwandi,421302,Maharashtra,IN,https://www.google.com/maps/place/Sunni+Hanfi+Masjid+Talab+Jabbar+Compound+Bhiwandi/data=!4m7!3m6!1s0x3be7bd7010b080c1:0x8fa80c488b1feab8!8m2!3d19.2985953!4d73.0749044!16s%2Fg%2F11b72p9yj1!19sChIJwYCwEHC95zsRuOofi0gMqI8?authuser=0&hl=en&rclk=1,"19.2985953,73.0749044"
Sunni Hanfi Aam Pada Merajunnabi Masjid,Mosque,"8349+WPC Sunni Hanfi Aam Pada Merajunnabi Masjid, Avachit Pada, Bhiwandi, Maharashtra 421302",Avachit Pada,8349+WPC,Bhiwandi,421302,Maharashtra,IN,https://www.google.com/maps/place/Sunni+Hanfi+Aam+Pada+Merajunnabi+Masjid/data=!4m7!3m6!1s0x3be7bd6bd1e3baeb:0x601fd9226675615d!8m2!3d19.3073005!4d73.0692771!16s%2Fg%2F11gbwxsg3x!19sChIJ67rj0Wu95zsRXWF1ZiLZH2A?authuser=0&hl=en&rclk=1,"19.3073005,73.0692771"
Sunni Hanfi Masjid Gulshan-E-Taiba,Mosque,"72VV+MXV Sunni Hanfi Masjid Gulshan-E-Taiba, Dargah Rd, Tipu Sultan Chowk, Kariwali, Bhiwandi, Maharashtra 421302","Tipu Sultan Chowk, Kariwali","72VV+MXV, Dargah Rd",Bhiwandi,421302,Maharashtra,IN,https://www.google.com/maps/place/Sunni+Hanfi+Masjid+Gulshan-E-Taiba/data=!4m7!3m6!1s0x3be7bd030d2ecc05:0xfa08673e8b512da7!8m2!3d19.2942271!4d73.0449247!16s%2Fg%2F11hbc933n9!19sChIJBcwuDQO95zsRpy1Riz5nCPo?authuser=0&hl=en&rclk=1,"19.2942271,73.0449247"
Masjid Kacheri Pada Bhiwandi,Mosque,"73W9+XPG Masjid Kacheri Pada Bhiwandi, Noorani Road, Maulana Azad Road, Kacheri Pada, Gulzar Nagar, Bhiwandi, Maharashtra 421302","Kacheri Pada, Gulzar Nagar","73W9+XPG, Noorani Road, Maulana Azad Road, Kacheri Pada, Gulzar Nagar",Bhiwandi,421302,Maharashtra,IN,https://www.google.com/maps/place/Masjid+Kacheri+Pada+Bhiwandi/data=!4m7!3m6!1s0x3be7bd72182fbbb5:0x36d5a9f60d8411e!8m2!3d19.2974326!4d73.0693331!16s%2Fg%2F11b6q6gct0!19sChIJtbsvGHK95zsRHkHYYJ9abQM?authuser=0&hl=en&rclk=1,"19.2974326,73.0693331"
Furqaniya Masjid,Mosque,"8377+6M7 Furqaniya Masjid, Naddi, Naka, Bhiwandi, Maharashtra 421302","Naddi, Naka",8377+6M7,Bhiwandi,421302,Maharashtra,IN,https://www.google.com/maps/place/Furqaniya+Masjid/data=!4m7!3m6!1s0x3be7bd4081de0f4d:0xb6d6f7cd9d1cb8fb!8m2!3d19.3130254!4d73.0641866!16s%2Fg%2F11c3s93nx6!19sChIJTQ_egUC95zsR-7gcnc331rY?authuser=0&hl=en&rclk=1,"19.3130254,73.0641866"
Sunni Hanfi Usman E Gani Masjid,Mosque,"Sunni Hanfi Usman E Gani Masjid, Jabbar Compound, Naigaon 2, Bhiwandi, Maharashtra 421302",Gulzar Nagar,"Jabbar Compound, Naigaon 2",Bhiwandi,421302,Maharashtra,IN,https://www.google.com/maps/place/Sunni+Hanfi+Usman+E+Gani+Masjid/data=!4m7!3m6!1s0x3be7bd7ae964ddf1:0x2733875ee7ac3d94!8m2!3d19.2979967!4d73.0778268!16s%2Fg%2F11d_d4jynz!19sChIJ8d1k6Xq95zsRlD2s516HMyc?authuser=0&hl=en&rclk=1,"19.2979967,73.0778268"
Sunni Hanfi Garib Nawaz Masjid,Mosque,"73VM+QCR Sunni Hanfi Garib Nawaz Masjid, Bilal Nagar,, Bhiwandi, Maharashtra 421302",Dongari Pada,"73VM+QCR, Bilal Nagar,",Bhiwandi,421302,Maharashtra,IN,https://www.google.com/maps/place/Sunni+Hanfi+Garib+Nawaz+Masjid/data=!4m7!3m6!1s0x3be7bd7c207d7653:0x6160acbd6b6918a4!8m2!3d19.294484!4d73.0835032!16s%2Fg%2F11b8_rmkxf!19sChIJU3Z9IHy95zsRpBhpa72sYGE?authuser=0&hl=en&rclk=1,"19.294484,73.0835032"
Sunni Hanfi Gausiya Masjid,Mosque,"Sunni Hanfi Gausiya Masjid, Nagina Compound, Gaibi Nagar Rd, near Sana Hotel, Gaibi Nagar Bhiwandi, Bhiwandi, Maharashtra 421302",Gaibi Nagar Bhiwandi,"Nagina Compound, Gaibi Nagar Rd, near Sana Hotel",Bhiwandi,421302,Maharashtra,IN,https://www.google.com/maps/place/Sunni+Hanfi+Gausiya+Masjid/data=!4m7!3m6!1s0x3be7bd9d8722ab21:0x9e21e8ae953c46b5!8m2!3d19.2875183!4d73.072533!16s%2Fg%2F11gfnh1373!19sChIJIasih5295zsRtUY8la7oIZ4?authuser=0&hl=en&rclk=1,"19.2875183,73.07253299999999"
Sunni Hanfi Gulshan E Madina Masjid,Mosque,"Sunni Hanfi Gulshan E Madina Masjid, 1443/1, Nagaon Rd, Nagaon, Gulzar Nagar, Bhiwandi, Maharashtra 421302","Nagaon, Gulzar Nagar","1443/1, Nagaon Rd",Bhiwandi,421302,Maharashtra,IN,https://www.google.com/maps/place/Sunni+Hanfi+Gulshan+E+Madina+Masjid/data=!4m7!3m6!1s0x3be7bd6e575c5a7f:0xd4163149df799b12!8m2!3d19.301735!4d73.072288!16s%2Fg%2F1pyqh1w0t!19sChIJf1pcV2695zsREpt530kxFtQ?authuser=0&hl=en&rclk=1,"19.301735,73.072288"
Momin Masjid,Mosque,"8327+5M3 Momin Masjid, Old Zakat Naka, Gokul Nagar, Bhiwandi, Maharashtra 421302","Old Zakat Naka, Gokul Nagar",8327+5M3,Bhiwandi,421302,Maharashtra,IN,https://www.google.com/maps/place/Momin+Masjid/data=!4m7!3m6!1s0x3be7bd12cd257af1:0x3c4677d0426f7980!8m2!3d19.3003885!4d73.0641836!16s%2Fg%2F11bxfqz40z!19sChIJ8XolzRK95zsRgHlvQtB3Rjw?authuser=0&hl=en&rclk=1,"19.3003885,73.06418359999999"
Sunni Jama Masjid Bangal Pura Bhiwandi.,Mosque,"73X5+948 Sunni Jama Masjid Bangal Pura Bhiwandi., Bangal Pura Rd, Bangalpura, Samad Nagar, Kaneri, Bhiwandi, Maharashtra 421302","Bangalpura, Samad Nagar, Kaneri","73X5+948, Bangal Pura Rd",Bhiwandi,421302,Maharashtra,IN,https://www.google.com/maps/place/Sunni+Jama+Masjid+Bangal+Pura+Bhiwandi./data=!4m7!3m6!1s0x3be7bd11fa19b897:0x52015d28efa3b23b!8m2!3d19.2984123!4d73.0578278!16s%2Fg%2F11g9djk0vf!19sChIJl7gZ-hG95zsRO7Kj7yhdAVI?authuser=0&hl=en&rclk=1,"19.2984123,73.0578278"
Sunni HanfiMakkah Masjid,Mosque,"73VJ+MMH Sunni HanfiMakkah Masjid, Makkah Masjid, Tipu Sultan Road, Shantinagar, Dongari Pada, Bhiwandi, Maharashtra 421302",Dongari Pada,"73VJ+MMH, Makkah Masjid, Tipu Sultan Road, Shantinagar",Bhiwandi,421302,Maharashtra,IN,https://www.google.com/maps/place/Sunni+HanfiMakkah+Masjid/data=!4m7!3m6!1s0x3be7bd795514437f:0x280a7aa907c85afd!8m2!3d19.2941777!4d73.0817387!16s%2Fg%2F11b76fmvyk!19sChIJf0MUVXm95zsR_VrIB6l6Cig?authuser=0&hl=en&rclk=1,"19.2941777,73.0817387"
Masjid sunni Hanfi Ahmadiya Barkatiya,Mosque,"Masjid sunni Hanfi Ahmadiya Barkatiya, near Dilshad Hotel, Santinagar, Sanjay Nagar, Gaibi Nagar Bhiwandi, Bhiwandi, Maharashtra 421302","Santinagar, Sanjay Nagar, Gaibi Nagar Bhiwandi",near Dilshad Hotel,Bhiwandi,421302,Maharashtra,IN,https://www.google.com/maps/place/Masjid+sunni+Hanfi+Ahmadiya+Barkatiya/data=!4m7!3m6!1s0x3be7bd7e8c2542db:0x1acd3d782c7bf632!8m2!3d19.2933995!4d73.084274!16s%2Fg%2F11b7ck0g8m!19sChIJ20IljH695zsRMvZ7LHg9zRo?authuser=0&hl=en&rclk=1,"19.2933995,73.084274"
Sunni Hanfi Masjid Abu Hanifa,Mosque,"72QR+5QC Sunni Hanfi Masjid Abu Hanifa, nala par, Kariwali, Bhiwandi, Maharashtra 421302",Kariwali,"72QR+5QC, nala par",Bhiwandi,421302,Maharashtra,IN,https://www.google.com/maps/place/Sunni+Hanfi+Masjid+Abu+Hanifa/data=!4m7!3m6!1s0x3be7bd01c98ea98f:0x438ac26f73714786!8m2!3d19.2879496!4d73.0418995!16s%2Fg%2F11bz0n4_dj!19sChIJj6mOyQG95zsRhkdxc2_CikM?authuser=0&hl=en&rclk=1,"19.287949599999997,73.0418995"
"Anware Raza Jama Masjid (Hanfi, Ahle Sunnat Wa Jamaat)",Mosque,"Anware Raza Jama Masjid (Hanfi, Ahle Sunnat Wa Jamaat), Mahada colony, raza nagar, Bhiwandi, Maharashtra 421302",Gokul Nagar,"Mahada colony, raza nagar",Bhiwandi,421302,Maharashtra,IN,"https://www.google.com/maps/place/Anware+Raza+Jama+Masjid+%28Hanfi,+Ahle+Sunnat+Wa+Jamaat%29/data=!4m7!3m6!1s0x3be7bd3fa16df1a9:0x711e4be9ac33abfe!8m2!3d19.3123049!4d73.0624311!16s%2Fg%2F11c1mzcjbq!19sChIJqfFtoT-95zsR_qszrOlLHnE?authuser=0&hl=en&rclk=1","19.3123049,73.0624311"
Masjid Noor Complex Gulzar Market Bhiwandi,Mosque,"Masjid Noor Complex Gulzar Market Bhiwandi, Masjid Noor Complex, Gulzar Market, Fandole Nagar, Gaibi Nagar Bhiwandi, Bhiwandi, Maharashtra 421302","Fandole Nagar, Gaibi Nagar Bhiwandi","Masjid Noor Complex, Gulzar Market",Bhiwandi,,Maharashtra,IN,https://www.google.com/maps/place/Masjid+Noor+Complex+Gulzar+Market+Bhiwandi/data=!4m7!3m6!1s0x3be7bd7170e8929f:0xec46b63df9901e28!8m2!3d19.2958105!4d73.0709798!16s%2Fg%2F11b6q1j647!19sChIJn5LocHG95zsRKB6Q-T22Ruw?authuser=0&hl=en&rclk=1,"19.295810499999998,73.0709798"
Sunni Hanfi Umar farooque Masjid,Mosque,"Sunni Hanfi Umar farooque Masjid, Mujahid e, Millat Nagar, Avachit Pada, Bhiwandi, Maharashtra 421302","Millat Nagar, Avachit Pada",Mujahid e,Bhiwandi,421302,Maharashtra,IN,https://www.google.com/maps/place/Sunni+Hanfi+Umar+farooque+Masjid/data=!4m7!3m6!1s0x3be7bd7b4244cb11:0xc9a170625abd7d93!8m2!3d19.2986364!4d73.080878!16s%2Fg%2F11dfj269ry!19sChIJEctEQnu95zsRk329WmJwock?authuser=0&hl=en&rclk=1,"19.2986364,73.080878"
Sunni Masjid Centre Bhiwandi City,Mosque,"73X6+WFP Sunni Masjid Centre Bhiwandi City, Imam Ahmed Raza Rd, Kaneri, Bhiwandi, Maharashtra 421302",Kaneri,"73X6+WFP, Imam Ahmed Raza Rd",Bhiwandi,421302,Maharashtra,IN,https://www.google.com/maps/place/Sunni+Masjid+Centre+Bhiwandi+City/data=!4m7!3m6!1s0x3be7bd125f48694f:0x5b5717537e2cb7bf!8m2!3d19.2998336!4d73.0612123!16s%2Fg%2F11b6xr9rj0!19sChIJT2lIXxK95zsRv7csflMXV1s?authuser=0&hl=en&rclk=1,"19.2998336,73.0612123"
Masjid E Ya Rasool Allaha / Peer Chingi Shah Kabrastan,Mosque,"Masjid E Ya Rasool Allaha / Peer Chingi Shah Kabrastan, Kaneri, Bhiwandi, Maharashtra 421302",Kaneri,,Bhiwandi,421302,Maharashtra,IN,https://www.google.com/maps/place/Masjid+E+Ya+Rasool+Allaha+%2F+Peer+Chingi+Shah+Kabrastan/data=!4m7!3m6!1s0x3be7bd0d8edda9b5:0x71b8fc6e99561962!8m2!3d19.2975549!4d73.0601545!16s%2Fg%2F11cls6g2f6!19sChIJtandjg295zsRYhlWmW78uHE?authuser=0&hl=en&rclk=1,"19.297554899999998,73.0601545"
Sunni Hanfi chistiya Masjid Azad Nagar dongri Bhiwandi,Mosque,"73XM+89X Sunni Hanfi chistiya Masjid Azad Nagar dongri Bhiwandi, Sunni Masjid Azad Nagar Dongri Bhiwandi, Bhiwandi",Dongari Pada,"73XM+89X, Sunni Masjid Azad Nagar Dongri Bhiwandi",Bhiwandi,,Maharashtra,IN,https://www.google.com/maps/place/Sunni+Hanfi+chistiya+Masjid+Azad+Nagar+dongri+Bhiwandi/data=!4m7!3m6!1s0x3be7bd7cecf22df1:0x95b206cff2d59c23!8m2!3d19.2983504!4d73.0834945!16s%2Fg%2F11b74ndwrr!19sChIJ8S3y7Hy95zsRI5zV8s8GspU?authuser=0&hl=en&rclk=1,"19.2983504,73.0834945"
Masjid Qamar Complex Gulzar Nagar Bhiwandi,Mosque,"73WC+78Q Masjid Qamar Complex Gulzar Nagar Bhiwandi, Maulana Azad Rd, Fandole Nagar, Gaibi Nagar Bhiwandi, Bhiwandi, Maharashtra 421302","Fandole Nagar, Gaibi Nagar Bhiwandi","73WC+78Q, Maulana Azad Rd",Bhiwandi,421302,Maharashtra,IN,https://www.google.com/maps/place/Masjid+Qamar+Complex+Gulzar+Nagar+Bhiwandi/data=!4m7!3m6!1s0x3be7bd717adaf897:0x78d4ae6c93b7b88c!8m2!3d19.2957213!4d73.0708564!16s%2Fg%2F11b6q2qhn4!19sChIJl_jaenG95zsRjLi3k2yu1Hg?authuser=0&hl=en&rclk=1,"19.2957213,73.0708564"
Sunni Hanfi Ashrafi Masjid Gulzar Nagar,Mosque,"73XC+RF3 Sunni Hanfi Ashrafi Masjid Gulzar Nagar, Jama Masjid Rd, Nagaon, Gulzar Nagar, Bhiwandi, Maharashtra 421302","Nagaon, Gulzar Nagar","73XC+RF3, Jama Masjid Rd",Bhiwandi,421302,Maharashtra,IN,https://www.google.com/maps/place/Sunni+Hanfi+Ashrafi+Masjid+Gulzar+Nagar/data=!4m7!3m6!1s0x3be7bd6e1a4d2cf5:0x28f4f58b071d9162!8m2!3d19.2995168!4d73.0711779!16s%2Fg%2F11b6q3g3qf!19sChIJ9SxNGm695zsRYpEdB4v19Cg?authuser=0&hl=en&rclk=1,"19.2995168,73.0711779"
Banda Nawaz Masjid,Mosque,"73WF+MF2 Banda Nawaz Masjid, Ansar Nagar, Gulzar Nagar, Bhiwandi, Maharashtra 421302","Ansar Nagar, Gulzar Nagar",73WF+MF2,Bhiwandi,421302,Maharashtra,IN,https://www.google.com/maps/place/Banda+Nawaz+Masjid/data=!4m7!3m6!1s0x3be7bd84b5d07aa1:0x9c456ca33850eccd!8m2!3d19.2966324!4d73.073637!16s%2Fg%2F11fm4s8zd1!19sChIJoXrQtYS95zsRzexQOKNsRZw?authuser=0&hl=en&rclk=1,"19.2966324,73.07363699999999"
Mariyam Masjid,Mosque,"Mariyam Masjid, 60 fit Road, Fatima Nagar, Gulzar Nagar, Bhiwandi, Maharashtra 421302","Fatima Nagar, Gulzar Nagar",60 fit Road,Bhiwandi,421302,Maharashtra,IN,https://www.google.com/maps/place/Mariyam+Masjid/data=!4m7!3m6!1s0x3be7bd65af107497:0xe7a720eec0e33217!8m2!3d19.3030471!4d73.0786773!16s%2Fg%2F11ggz8bg_g!19sChIJl3QQr2W95zsRFzLjwO4gp-c?authuser=0&hl=en&rclk=1,"19.3030471,73.0786773"
Shakkar Shah Sunni Masjid,Mosque,"8323+5X3 Shakkar Shah Sunni Masjid, Wani Ali, Bhiwandi, Maharashtra 421302",Wani Ali,8323+5X3,Bhiwandi,421302,Maharashtra,IN,https://www.google.com/maps/place/Shakkar+Shah+Sunni+Masjid/data=!4m7!3m6!1s0x3be7bd106118a7eb:0xc9a071212e73f5f4!8m2!3d19.3003926!4d73.0549247!16s%2Fg%2F1pyqsf4bk!19sChIJ66cYYRC95zsR9PVzLiFxoMk?authuser=0&hl=en&rclk=1,"19.3003926,73.0549247"
Sunni Hanfi Masjid-e-Bilal,Mosque,"Sunni Hanfi Masjid-e-Bilal, 421302, Patel Compound, Kariwali, Bhiwandi, Maharashtra 421302","Patel Compound, Kariwali",421302,Bhiwandi,421302,Maharashtra,IN,https://www.google.com/maps/place/Sunni+Hanfi+Masjid-e-Bilal/data=!4m7!3m6!1s0x3be7bd03d2985835:0x7540804c48e7486c!8m2!3d19.2913436!4d73.0435799!16s%2Fg%2F11c5xnmpkx!19sChIJNViY0gO95zsRbEjnSEyAQHU?authuser=0&hl=en&rclk=1,"19.291343599999998,73.0435799"
Sunni HanfiMadni Masjid,Mosque,"Sunni HanfiMadni Masjid, Sunni Masjid, Noori Nagar, Dongari Pada, Bhiwandi, Maharashtra 421302",Dongari Pada,"Sunni Masjid, Noori Nagar",Bhiwandi,,Maharashtra,IN,https://www.google.com/maps/place/Sunni+HanfiMadni+Masjid/data=!4m7!3m6!1s0x3be7bd7d93a8d44f:0x45a83a30db98917c!8m2!3d19.2963935!4d73.0868508!16s%2Fg%2F11b6x5rst8!19sChIJT9Sok3295zsRfJGY2zA6qEU?authuser=0&hl=en&rclk=1,"19.2963935,73.0868508"
Rashidiya Masjid,Mosque,"73VC+2JJ Rashidiya Masjid, Rashidiya Masjid Khan Compound Bhiwandi, Bhiwandi","Fandole Nagar, Gaibi Nagar Bhiwandi","73VC+2JJ, Rashidiya Masjid Khan Compound Bhiwandi",Bhiwandi,,Maharashtra,IN,https://www.google.com/maps/place/Rashidiya+Masjid/data=!4m7!3m6!1s0x3be7bd76b7ffed15:0x13d1a6b16d113e45!8m2!3d19.2925958!4d73.0715124!16s%2Fg%2F11bxw8jzsl!19sChIJFe3_t3a95zsRRT4RbbGm0RM?authuser=0&hl=en&rclk=1,"19.2925958,73.0715124"
Kasaiwada Masjid,Mosque,"8327+G3C Kasaiwada Masjid, Quresh Nagar, Gokul Nagar, Bhiwandi, Maharashtra 421302","Quresh Nagar, Gokul Nagar",8327+G3C,Bhiwandi,421302,Maharashtra,IN,https://www.google.com/maps/place/Kasaiwada+Masjid/data=!4m7!3m6!1s0x3be7bd49c94d939f:0x6b9dff86d660af7b!8m2!3d19.3013011!4d73.062635!16s%2Fg%2F11h_46tcg7!19sChIJn5NNyUm95zsRe69g1ob_nWs?authuser=0&hl=en&rclk=1,"19.3013011,73.062635"
Sunni Hanfi Quba Masjid,Mosque,"73PC+G2C Sunni Hanfi Quba Masjid, Kalyan - Bhiwandi Rd, Shastri Nagar, Bhiwandi, Maharashtra 421302",Shastri Nagar,"73PC+G2C, Kalyan - Bhiwandi Rd",Bhiwandi,421302,Maharashtra,IN,https://www.google.com/maps/place/Sunni+Hanfi+Quba+Masjid/data=!4m7!3m6!1s0x3be7bd9de1fa0d65:0x420d6167627bd66b!8m2!3d19.286317!4d73.0700013!16s%2Fg%2F11b6q7t33y!19sChIJZQ364Z295zsRa9Z7YmdhDUI?authuser=0&hl=en&rclk=1,"19.286317,73.0700013"
Mukhtarul Masjid,Mosque,"73RC+49C Mukhtarul Masjid, Fandole Nagar, Gaibi Nagar Bhiwandi, Bhiwandi, Thane, Maharashtra 421302","Fandole Nagar, Gaibi Nagar Bhiwandi",73RC+49C,"Bhiwandi, Thane",421302,Maharashtra,IN,https://www.google.com/maps/place/Mukhtarul+Masjid/data=!4m7!3m6!1s0x3be7bd766296da4f:0x9abacb979253ecab!8m2!3d19.2903173!4d73.0708918!16s%2Fg%2F11b75rlnlk!19sChIJT9qWYna95zsRq-xTkpfLupo?authuser=0&hl=en&rclk=1,"19.290317299999998,73.0708918"
Sahaba Masjid,Mosque,"Sahaba Masjid, Sanjay Nagar, Shanti Nagar, Bhiwandi, Maharashtra 421302",Dongari Pada,"Sanjay Nagar, Shanti Nagar",Bhiwandi,421302,Maharashtra,IN,https://www.google.com/maps/place/Sahaba+Masjid/data=!4m7!3m6!1s0x3be7bd7ea3ec1361:0x4b702a68aba53215!8m2!3d19.2939097!4d73.083011!16s%2Fg%2F11by_d_yf3!19sChIJYRPso3695zsRFTKlq2gqcEs?authuser=0&hl=en&rclk=1,"19.2939097,73.083011"
Sunni Hanfi Aamina Masjid,Mosque,"8338+MM4 Sunni Hanfi Aamina Masjid, Vetal Pada, Gulzar Nagar, Bhiwandi, Maharashtra 421302","Vetal Pada, Gulzar Nagar",8338+MM4,Bhiwandi,421302,Maharashtra,IN,https://www.google.com/maps/place/Sunni+Hanfi+Aamina+Masjid/data=!4m7!3m6!1s0x3be7bd6c83d91773:0x6e230d437e4e301b!8m2!3d19.3041258!4d73.0667072!16s%2Fg%2F11gfj5t17_!19sChIJcxfZg2y95zsRGzBOfkMNI24?authuser=0&hl=en&rclk=1,"19.304125799999998,73.0667072"
Sunni Ahle Hadees Masjid,Mosque,"8325+MXG Sunni Ahle Hadees Masjid, Nazarana Compound, Gokul Nagar, Bhiwandi, Maharashtra 421302","Nazarana Compound, Gokul Nagar",8325+MXG,Bhiwandi,421302,Maharashtra,IN,https://www.google.com/maps/place/Sunni+Ahle+Hadees+Masjid/data=!4m7!3m6!1s0x3be7bd13b9dbf00f:0xea9e36b4c2545b71!8m2!3d19.3016796!4d73.0599603!16s%2Fg%2F11gfd23rgq!19sChIJD_DbuRO95zsRcVtUwrQ2nuo?authuser=0&hl=en&rclk=1,"19.3016796,73.0599603"
Sunni Ahle Hadis Masjid Quba,Mosque,"8342+X8C Sunni Ahle Hadis Masjid Quba, Katai, Bhiwandi, Maharashtra 421302",Katai,8342+X8C,Bhiwandi,421302,Maharashtra,IN,https://www.google.com/maps/place/Sunni+Ahle+Hadis+Masjid+Quba/data=!4m7!3m6!1s0x3be7bd1873070e45:0xcc7024e023671c30!8m2!3d19.3074464!4d73.0507752!16s%2Fg%2F11gzd8w23!19sChIJRQ4Hcxi95zsRMBxnI-AkcMw?authuser=0&hl=en&rclk=1,"19.3074464,73.05077519999999"
Masjid E Hamza,Mosque,"Masjid E Hamza, Babu Ganj Groups, Quresh Nagar, Gokul Nagar, Bhiwandi, Maharashtra 421302","Quresh Nagar, Gokul Nagar",Babu Ganj Groups,Bhiwandi,421302,Maharashtra,IN,https://www.google.com/maps/place/Masjid+E+Hamza/data=!4m7!3m6!1s0x3be7bd6c381cbd41:0x64f1c5687797e5b3!8m2!3d19.3053671!4d73.0649373!16s%2Fg%2F11h2bcsrgx!19sChIJQb0cOGy95zsRs-WXd2jF8WQ?authuser=0&hl=en&rclk=1,"19.305367099999998,73.0649373"
Sunni Hanfi Malika Masjid,Mosque,"8357+V89 Sunni Hanfi Malika Masjid, Gokul Nagar, Bhiwandi, Maharashtra 421302",Gokul Nagar,8357+V89,Bhiwandi,421302,Maharashtra,IN,https://www.google.com/maps/place/Sunni+Hanfi+Malika+Masjid/data=!4m7!3m6!1s0x3be7bd15582e6989:0xe8b6e8f19792a08d!8m2!3d19.3096521!4d73.0633628!16s%2Fg%2F11c5blk8y1!19sChIJiWkuWBW95zsRjaCSl_Hotug?authuser=0&hl=en&rclk=1,"19.309652099999997,73.0633628"
PeerChingiShahBabaSunni Masjid Zaitoon Poora Bhiwandi,Mosque,"73X6+P65 PeerChingiShahBabaSunni Masjid Zaitoon Poora Bhiwandi, Koter Gate Rd, Zaitunpura, Kaneri, Bhiwandi, Maharashtra 421302","Zaitunpura, Kaneri","73X6+P65, Koter Gate Rd",Bhiwandi,421302,Maharashtra,IN,https://www.google.com/maps/place/PeerChingiShahBabaSunni+Masjid+Zaitoon+Poora+Bhiwandi/data=!4m7!3m6!1s0x3be7bd1266316415:0xf80c935916e55a13!8m2!3d19.2992517!4d73.0606032!16s%2Fg%2F11b6p_32qf!19sChIJFWQxZhK95zsRE1rlFlmTDPg?authuser=0&hl=en&rclk=1,"19.2992517,73.0606032"
Usmania Masjid Nehru Nagar,Mosque,"73M9+VFH Usmania Masjid Nehru Nagar, Nehru Nagar Road, Nehru Nagar, Nai Basti, Padma Nagar, Bhiwandi, Maharashtra 421302","Nai Basti, Padma Nagar","73M9+VFH, Nehru Nagar Road, Nehru Nagar",Bhiwandi,421302,Maharashtra,IN,https://www.google.com/maps/place/Usmania+Masjid+Nehru+Nagar/data=!4m7!3m6!1s0x3be7bd9e60ddd0f1:0x594cd25b7064899d!8m2!3d19.2846933!4d73.0687259!16s%2Fg%2F11cn9pp8xt!19sChIJ8dDdYJ695zsRnYlkcFvSTFk?authuser=0&hl=en&rclk=1,"19.2846933,73.06872589999999"
Sunni Anas Masjid,Mosque,"Sunni Anas Masjid, khalique Compound Compound, New Taware Compound, Narpoli, Bhiwandi, Maharashtra 421302","New Taware Compound, Narpoli",khalique Compound Compound,Bhiwandi,421302,Maharashtra,IN,https://www.google.com/maps/place/Sunni+Anas+Masjid/data=!4m7!3m6!1s0x3be7bd06e0df6305:0x2296117f9fa4d958!8m2!3d19.2884943!4d73.0480903!16s%2Fg%2F1pp2vdc0m!19sChIJBWPf4Aa95zsRWNmkn38RliI?authuser=0&hl=en&rclk=1,"19.2884943,73.0480903"
Sunni Hanfi Jama Masjid,Mosque,"73WP+2G4 Sunni Hanfi Jama Masjid, Halim Nagar, Dongari Pada, Bhiwandi, Maharashtra 421302","Halim Nagar, Dongari Pada",73WP+2G4,Bhiwandi,421302,Maharashtra,IN,https://www.google.com/maps/place/Sunni+Hanfi+Jama+Masjid/data=!4m7!3m6!1s0x3be7bd7de0c8fa33:0x2f6a8881aef1caa9!8m2!3d19.2950111!4d73.0863366!16s%2Fg%2F11bw5m9gl9!19sChIJM_rI4H295zsRqcrxroGIai8?authuser=0&hl=en&rclk=1,"19.2950111,73.0863366"
Sunni Hanfi Halimi Jama Masjid,Mosque,"73XP+VRX Sunni Hanfi Halimi Jama Masjid, Dongari Pada, Bhiwandi, Maharashtra 421302",Dongari Pada,73XP+VRX,Bhiwandi,421302,Maharashtra,IN,https://www.google.com/maps/place/Sunni+Hanfi+Halimi+Jama+Masjid/data=!4m7!3m6!1s0x3be7bd7d5aeae445:0x7af4b2999e32f15c!8m2!3d19.299731!4d73.087113!16s%2Fg%2F11dx8l3c6c!19sChIJReTqWn295zsRXPEynpmy9Ho?authuser=0&hl=en&rclk=1,"19.299730999999998,73.087113"
Yakub Masjid,Mosque,"73W9+XPG Yakub Masjid, Kacheri Pada, Gulzar Nagar, Bhiwandi, Maharashtra 421302","Kacheri Pada, Gulzar Nagar",73W9+XPG,Bhiwandi,421302,Maharashtra,IN,https://www.google.com/maps/place/Yakub+Masjid/data=!4m7!3m6!1s0x3be7bd3df8107eef:0xa8e8d59c5e1d03f5!8m2!3d19.297432!4d73.0693311!16s%2Fg%2F11j453z8f6!19sChIJ734Q-D295zsR9QMdXpzV6Kg?authuser=0&hl=en&rclk=1,"19.297432,73.0693311"
Masjid,Mosque,"Masjid, 302, Mandai - Dhamankar Naka Rd, Dhamankar Naka, Samad Nagar, Kaneri, Bhiwandi, Maharashtra 421302","Dhamankar Naka, Samad Nagar, Kaneri","302, Mandai - Dhamankar Naka Rd",Bhiwandi,421302,Maharashtra,IN,https://www.google.com/maps/place/Masjid/data=!4m7!3m6!1s0x3be7bd0924447e79:0xced7e6141227b244!8m2!3d19.2908492!4d73.0557806!16s%2Fg%2F11c712x0zt!19sChIJeX5EJAm95zsRRLInEhTm184?authuser=0&hl=en&rclk=1,"19.2908492,73.05578059999999"
Masjid-e-ala-Hazrat,Mosque,"822V+RV8 Masjid-e-ala-Hazrat, Subhash Nagar, Narpoli, Bhiwandi, Maharashtra 421302","Subhash Nagar, Narpoli",822V+RV8,Bhiwandi,421302,Maharashtra,IN,https://www.google.com/maps/place/Masjid-e-ala-Hazrat/data=!4m7!3m6!1s0x3be7bd7a3bcaf2af:0xdeb13a98cd35179!8m2!3d19.3020383!4d73.0447054!16s%2Fg%2F11rgfwj5h7!19sChIJr_LKO3q95zsReVHTjKkT6w0?authuser=0&hl=en&rclk=1,"19.3020383,73.0447054"
Sunni Hanfi Chistiya Masjid,Mosque,"73XF+H9W Sunni Hanfi Chistiya Masjid, Ansar Nagar, Gulzar Nagar, Bhiwandi, Maharashtra 421302","Ansar Nagar, Gulzar Nagar",73XF+H9W,Bhiwandi,421302,Maharashtra,IN,https://www.google.com/maps/place/Sunni+Hanfi+Chistiya+Masjid/data=!4m7!3m6!1s0x3be7bd404e8b6a3d:0x6c149154a2a2e5f1!8m2!3d19.2989841!4d73.073456!16s%2Fg%2F11jwv96ctr!19sChIJPWqLTkC95zsR8eWiolSRFGw?authuser=0&hl=en&rclk=1,"19.2989841,73.073456"
Dastagir masjid bhiwandi,Mosque,"Dastagir masjid bhiwandi, 45/1, Samru Baugh, Azmi Nagar, Kariwali, Bhiwandi, Maharashtra 421305","Samru Baugh, Azmi Nagar, Kariwali",45/1,Bhiwandi,421305,Maharashtra,IN,https://www.google.com/maps/place/Dastagir+masjid+bhiwandi/data=!4m7!3m6!1s0x3be7bd0396ec0b61:0x17ca8e687f96e416!8m2!3d19.2978611!4d73.0485659!16s%2Fg%2F11v0n2w4yt!19sChIJYQvslgO95zsRFuSWf2iOyhc?authuser=0&hl=en&rclk=1,"19.2978611,73.0485659"
Shehnaz masjid bhiwandi,Mosque,"73X4+FRW Shehnaz masjid bhiwandi, Kumhar, MIDC, Bhiwandi","MIDC, Kumbhar Ali, Narpoli","73X4+FRW, Kumhar",Bhiwandi,,Maharashtra,IN,https://www.google.com/maps/place/Shehnaz+masjid+bhiwandi/data=!4m7!3m6!1s0x3be7bd6388e63875:0x87c93ef223e303d3!8m2!3d19.298747!4d73.0570729!16s%2Fg%2F11rwxn6wbm!19sChIJdTjmiGO95zsR0wPjI_I-yYc?authuser=0&hl=en&rclk=1,"19.298747,73.0570729"
