name,main_category,address,address_ward,address_street,address_city,address_postal_code,address_state,address_country_code,link,coordinates
Masjid Umar Farooq,Mosque,"8VC2+354 Masjid Umar Farooq, Jansath, Uttar Pradesh 251314",,8VC2+354,Jansath,251314,Uttar Pradesh,IN,https://www.google.com/maps/place/Masjid+Umar+Farooq/data=!4m7!3m6!1s0x390c0be30dd70261:0x9542857b25ae301d!8m2!3d29.3201255!4d77.8504515!16s%2Fg%2F11dy_zyhpq!19sChIJYQLXDeMLDDkRHTCuJXuFQpU?authuser=0&hl=en&rclk=1,"29.3201255,77.85045149999999"
Madarsa Islamia Arabia Faizul Uloom Saidpur Jansath Muzaffarnagar U P,Mosque,"8RFM+8VV Madarsa Islamia Arabia Faizul Uloom Saidpur Jansath Muzaffarnagar U P, Unnamed Road, Jansath, Uttar Pradesh 251314",,"8RFM+8VV, Unnamed Road",Jansath,251314,Uttar Pradesh,IN,https://www.google.com/maps/place/Madarsa+Islamia+Arabia+Faizul+Uloom+Saidpur+Jansath+Muzaffarnagar+U+P/data=!4m7!3m6!1s0x390c0fefd0f79a99:0x8ff6721a15b1b1b1!8m2!3d29.3233714!4d77.8346626!16s%2Fg%2F11h0xl61ws!19sChIJmZr30O8PDDkRsbGxFRpy9o8?authuser=0&hl=en&rclk=1,"29.3233714,77.8346626"
Chhoti Masjid Narsinghpur MuzaffarNagar U P,Mosque,"8V3R+894 Chhoti Masjid Narsinghpur MuzaffarNagar U P, Unnamed Road, Jansath, Uttar Pradesh 251314",,"8V3R+894, Unnamed Road",Jansath,251314,Uttar Pradesh,IN,https://www.google.com/maps/place/Chhoti+Masjid+Narsinghpur+MuzaffarNagar+U+P/data=!4m7!3m6!1s0x390c0b6bc3e6e6ab:0xe5d36c8d631d797b!8m2!3d29.3032581!4d77.8909581!16s%2Fg%2F11h068f068!19sChIJq-bmw2sLDDkRe3kdY41s0-U?authuser=0&hl=en&rclk=1,"29.303258099999997,77.89095809999999"
Masjid Aisha,Mosque,"8VF2+27F Masjid Aisha, Jansath, Uttar Pradesh 251314",,8VF2+27F,Jansath,251314,Uttar Pradesh,IN,https://www.google.com/maps/place/Masjid+Aisha/data=!4m7!3m6!1s0x390c0be2f49b08cf:0x89189356473958c8!8m2!3d29.3225517!4d77.8506669!16s%2Fg%2F11gf5rvxpw!19sChIJzwib9OILDDkRyFg5R1aTGIk?authuser=0&hl=en&rclk=1,"29.322551699999998,77.8506669"
Eidgah Jannatabad,Mosque,"8RGW+8CJ Eidgah Jannatabad, Jansath, Uttar Pradesh 251314",,8RGW+8CJ,Jansath,251314,Uttar Pradesh,IN,https://www.google.com/maps/place/Eidgah+Jannatabad/data=!4m7!3m6!1s0x390c0957bc945585:0xb139421d0ad0bb94!8m2!3d29.3258406!4d77.8460084!16s%2Fg%2F11dxs4p7j5!19sChIJhVWUvFcJDDkRlLvQCh1CObE?authuser=0&hl=en&rclk=1,"29.3258406,77.8460084"
Bilal Masjid,Mosque,"8RFX+JW3 Bilal Masjid, Jansath, Uttar Pradesh 251314",,8RFX+JW3,Jansath,251314,Uttar Pradesh,IN,https://www.google.com/maps/place/Bilal+Masjid/data=!4m7!3m6!1s0x390c0be29e21c1a5:0x4854e7d78020aa9e!8m2!3d29.3240137!4d77.8498116!16s%2Fg%2F11g731v7y7!19sChIJpcEhnuILDDkRnqoggNfnVEg?authuser=0&hl=en&rclk=1,"29.3240137,77.8498116"
Rizwaan Masjid (Eidgah Wali),Mosque,"8RGW+C9G Rizwaan Masjid (Eidgah Wali), Jansath, Uttar Pradesh 251314",,8RGW+C9G,Jansath,251314,Uttar Pradesh,IN,https://www.google.com/maps/place/Rizwaan+Masjid+%28Eidgah+Wali%29/data=!4m7!3m6!1s0x390c0957af41d423:0x83190843c46b3c58!8m2!3d29.3260692!4d77.845942!16s%2Fg%2F11g7z4gybr!19sChIJI9RBr1cJDDkRWDxrxEMIGYM?authuser=0&hl=en&rclk=1,"29.3260692,77.845942"
Masjid-e-Rang Mahal shiya masjid,Mosque,"8RGX+X92 Masjid-e-Rang Mahal shiya masjid, Jansath, Uttar Pradesh 251314",,8RGX+X92,Jansath,251314,Uttar Pradesh,IN,https://www.google.com/maps/place/Masjid-e-Rang+Mahal+shiya+masjid/data=!4m7!3m6!1s0x390c0916cc80e98f:0x327a519ba3debf93!8m2!3d29.3273808!4d77.8483829!16s%2Fg%2F11f62tvml2!19sChIJj-mAzBYJDDkRk7_eo5tRejI?authuser=0&hl=en&rclk=1,"29.3273808,77.84838289999999"
Jhod wali masjid,Mosque,"8VH3+63R Jhod wali masjid, Jansath Main Bazar Rd, Jansath, Uttar Pradesh 251314",,"8VH3+63R, Jansath Main Bazar Rd",Jansath,251314,Uttar Pradesh,IN,https://www.google.com/maps/place/Jhod+wali+masjid/data=!4m7!3m6!1s0x390c099ca1d357cf:0x72d46b2decd51b4d!8m2!3d29.3281069!4d77.8526415!16s%2Fg%2F11h73sh6x0!19sChIJz1fToZwJDDkRTRvV7C1r1HI?authuser=0&hl=en&rclk=1,"29.328106899999998,77.85264149999999"
Jama Masjid,Mosque,"8VG2+43R Jama Masjid, Main Market St, Jansath, Uttar Pradesh 250401",,"8VG2+43R, Main Market St",Jansath,250401,Uttar Pradesh,IN,https://www.google.com/maps/place/Jama+Masjid/data=!4m7!3m6!1s0x390c09713419c67b:0xce5f2c38e4930718!8m2!3d29.3253586!4d77.850144!16s%2Fg%2F11s99mc44v!19sChIJe8YZNHEJDDkRGAeT5DgsX84?authuser=0&hl=en&rclk=1,"29.325358599999998,77.850144"
Kajiyan Masjid,Mosque,"8VF2+J66 Kajiyan Masjid, Jansath, Uttar Pradesh 251314",,8VF2+J66,Jansath,251314,Uttar Pradesh,IN,https://www.google.com/maps/place/Kajiyan+Masjid/data=!4m7!3m6!1s0x390c0be28264ab05:0xf9f29f953c7c784!8m2!3d29.3240303!4d77.8505085!16s%2Fg%2F11dxsrvv1g!19sChIJBatkguILDDkRhMfHU_kpnw8?authuser=0&hl=en&rclk=1,"29.3240303,77.85050849999999"
Mohammadi Masjid,Mosque,"8RGM+JXF Mohammadi Masjid, Unnamed Road, Bhaleri, Jansath, Uttar Pradesh 251314",Bhaleri,"8RGM+JXF, Unnamed Road",Jansath,251314,Uttar Pradesh,IN,https://www.google.com/maps/place/Mohammadi+Masjid/data=!4m7!3m6!1s0x390c0f5187d9ee17:0x84db7c1cf33f9c65!8m2!3d29.3265697!4d77.8349272!16s%2Fg%2F11hzwf72yx!19sChIJF-7Zh1EPDDkRZZw_8xx824Q?authuser=0&hl=en&rclk=1,"29.3265697,77.8349272"
Bara Dare Wali Masjid,Mosque,"Bara Dare Wali Masjid, Saray Tulsiram, Jansath, Uttar Pradesh 251314",,Saray Tulsiram,Jansath,,Uttar Pradesh,IN,https://www.google.com/maps/place/Bara+Dare+Wali+Masjid/data=!4m7!3m6!1s0x390c0bd6d4a522ff:0xbd1741bc6c051ce!8m2!3d29.3235752!4d77.8462857!16s%2Fg%2F11fldw46y0!19sChIJ_yKl1NYLDDkRzlHAxht00Qs?authuser=0&hl=en&rclk=1,"29.323575199999997,77.8462857"
Masjid Tehseel Vali,Mosque,"8VJ4+C23 Masjid Tehseel Vali, Miranpur-Muzaffarnagar Rd, Jansath, Uttar Pradesh 251314",,"8VJ4+C23, Miranpur-Muzaffarnagar Rd",Jansath,251314,Uttar Pradesh,IN,https://www.google.com/maps/place/Masjid+Tehseel+Vali/data=!4m7!3m6!1s0x390c095c183a0ea5:0x10aa75aec6926d93!8m2!3d29.3310059!4d77.8550491!16s%2Fg%2F11f_cfgljf!19sChIJpQ46GFwJDDkRk22Sxq51qhA?authuser=0&hl=en&rclk=1,"29.331005899999997,77.8550491"
jama masjid,Mosque,"8V74+5C6 jama masjid, Khalwara, Jansath, Uttar Pradesh 251314",,8V74+5C6,"Khalwara, Jansath",251314,Uttar Pradesh,IN,https://www.google.com/maps/place/jama+masjid/data=!4m7!3m6!1s0x390c0b72324d54f5:0x50f5eee78225b97a!8m2!3d29.3129048!4d77.856013!16s%2Fg%2F11kx265tp2!19sChIJ9VRNMnILDDkRerklgufu9VA?authuser=0&hl=en&rclk=1,"29.3129048,77.85601299999999"
Jama Masjid,Mosque,"8RJV+27M Jama Masjid, Muzaffarnagar, Uttar Pradesh 251314",,8RJV+27M,Muzaffarnagar,,Uttar Pradesh,IN,https://www.google.com/maps/place/Jama+Masjid/data=!4m7!3m6!1s0x390c09286a5f0f3f:0xc55321dfdeeaa81!8m2!3d29.3300868!4d77.8431719!16s%2Fg%2F11s9vtfbhy!19sChIJPw9faigJDDkRgaru_R0yVQw?authuser=0&hl=en&rclk=1,"29.3300868,77.8431719"
Shia Masjid Chittora,Mosque,"9R48+7G2 Shia Masjid Chittora, Unnamed Road, Jansath, Uttar Pradesh 251314",,"9R48+7G2, Unnamed Road",Jansath,251314,Uttar Pradesh,IN,https://www.google.com/maps/place/Shia+Masjid+Chittora/data=!4m7!3m6!1s0x390c0f332474f4ab:0x7f1e7f5b1ad8d761!8m2!3d29.355634!4d77.8162754!16s%2Fg%2F11q1vqwf21!19sChIJq_R0JDMPDDkRYdfYGlt_Hn8?authuser=0&hl=en&rclk=1,"29.355634,77.8162754"
Shia Masjid,Mosque,"8V64+R3Q Shia Masjid, Garhi, Jansath, Uttar Pradesh 251314",Garhi,8V64+R3Q Garhi,Jansath,251314,Uttar Pradesh,IN,https://www.google.com/maps/place/Shia+Masjid/data=!4m7!3m6!1s0x390c0b03956fa289:0x1772dfb55cfd57f8!8m2!3d29.3120284!4d77.8552496!16s%2Fg%2F11kj32138d!19sChIJiaJvlQMLDDkR-Ff9XLXfchc?authuser=0&hl=en&rclk=1,"29.3120284,77.8552496"
Masjid E Sadat,Mosque,"8VCQ+CCV Masjid E Sadat, Salarpur, Jansath, Salarpur, Uttar Pradesh 251314",Salarpur,8VCQ+CCV,"Jansath, Salarpur",,Uttar Pradesh,IN,https://www.google.com/maps/place/Masjid+E+Sadat/data=!4m7!3m6!1s0x390c0b0eae9adeff:0x3b746cea38a1e38d!8m2!3d29.3211058!4d77.8885492!16s%2Fg%2F11jt2bh92z!19sChIJ_96arg4LDDkRjeOhOOpsdDs?authuser=0&hl=en&rclk=1,"29.321105799999998,77.8885492"
Khalid Siddiqui house,Mosque,"Khalid Siddiqui house, Karimulla patti, Bhaleri, Jansath, Saidpur, Uttar Pradesh 251314",Bhaleri,Karimulla patti,"Jansath, Saidpur",251314,Uttar Pradesh,IN,https://www.google.com/maps/place/Khalid+Siddiqui+house/data=!4m7!3m6!1s0x390c0f62d4900c47:0x1d2bf99e54e5a557!8m2!3d29.3269151!4d77.8337212!16s%2Fg%2F11t4l3kgs1!19sChIJRwyQ1GIPDDkRV6XlVJ75Kx0?authuser=0&hl=en&rclk=1,"29.326915099999997,77.8337212"
