name,main_category,address,address_ward,address_street,address_city,address_postal_code,address_state,address_country_code,link,coordinates
Latif Shah Masjid,Mosque,"26CV+H4Q Latif Shah Masjid, Chakiya Latif Saha Rd, Chakia, Uttar Pradesh 232103",,"26CV+H4Q, Chakiya Latif Saha Rd",Chakia,232103,Uttar Pradesh,IN,https://www.google.com/maps/place/Latif+Shah+Masjid/data=!4m7!3m6!1s0x398e420f08a5dfa3:0xa12302ed8998d6f9!8m2!3d25.0214503!4d83.2428581!16s%2Fg%2F11cs5tgmp5!19sChIJo9-lCA9CjjkR-daYie0CI6E?authuser=0&hl=en&rclk=1,"25.021450299999998,83.24285809999999"
Chakiya Masjid,Mosque,"69P8+PP Chakiya Masjid, ward-18,bendusar buzurg, Chakia Rd, Hardia Village, Takiya, Mahadeva, Siwan, Bihar 841227","Ward Number 18, Hardia Village, Takiya, Mahadeva","69P8+PP, ward-18,bendusar buzurg, Chakia Rd",Siwan,841227,Bihar,IN,https://www.google.com/maps/place/Chakiya+Masjid/data=!4m7!3m6!1s0x3992fc17a7f2d1ab:0x24f18cf160abbec6!8m2!3d26.235446!4d84.3665631!16s%2Fg%2F11fylqm8tz!19sChIJq9Hypxf8kjkRxr6rYPGM8SQ?authuser=0&hl=en&rclk=1,"26.235446,84.3665631"
Masjid Hajra,Mosque,"Masjid Hajra, Chakia Rajrooppur ilaahaabaad Uttar Pradesh 211011 Republic of",Rajrooppur,Chakia Rajrooppur ilaahaabaad Uttar Pradesh 211011 Republic of,Prayagraj,,Uttar Pradesh,IN,https://www.google.com/maps/place/Masjid+Hajra/data=!4m7!3m6!1s0x399acb4aad27c62b:0xa23bdaac9791ef6a!8m2!3d25.433784!4d81.8000519!16s%2Fg%2F11b6_49cm0!19sChIJK8YnrUrLmjkRau-Rl6zaO6I?authuser=0&hl=en&rclk=1,"25.433784,81.8000519"
Shekhi Chakia EID-GAAH,Mosque,"C22X+7MM Shekhi Chakia EID-GAAH, Sahebganj - Mehsi Rd, Bihar 845412",,"C22X+7MM, Sahebganj - Mehsi Rd",,845412,Bihar,IN,https://www.google.com/maps/place/Shekhi+Chakia+EID-GAAH/data=!4m7!3m6!1s0x39ecd6ebdf293e6b:0xb71916caef44eee!8m2!3d26.4007207!4d85.0491786!16s%2Fg%2F11xfb7t_w!19sChIJaz4p3-vW7DkR7k70rmyRcQs?authuser=0&hl=en&rclk=1,"26.400720699999997,85.04917859999999"
"Badi Masjid, Shaikhi Chakia",Mosque,"C322+QHG Badi Masjid, Shaikhi Chakia, Sahebganj - Chakia Rd, Chakia, Bihar 845412",,"C322+QHG, Sahebganj - Chakia Rd",Chakia,845412,Bihar,IN,"https://www.google.com/maps/place/Badi+Masjid,+Shaikhi+Chakia/data=!4m7!3m6!1s0x39ecd6e9077fe8bd:0xf3fe66dd7e0dcc0d!8m2!3d26.4019292!4d85.0514397!16s%2Fg%2F11xnygf18!19sChIJveh_B-nW7DkRDcwNft1m_vM?authuser=0&hl=en&rclk=1","26.401929199999998,85.0514397"
Shahi Jama Masjid Kudra,Mosque,"2QWR+4G8 Shahi Jama Masjid Kudra, Kudra Market Rd, Chakia, Kudra, Bihar 821108",Chakia,"2QWR+4G8, Kudra Market Rd",Kudra,821108,Bihar,IN,https://www.google.com/maps/place/Shahi+Jama+Masjid+Kudra/data=!4m7!3m6!1s0x398dc490f9e600b3:0x3450d868ba26e5fa!8m2!3d25.0452774!4d83.7913322!16s%2Fg%2F11bv2l85dy!19sChIJswDm-ZDEjTkR-uUmumjYUDQ?authuser=0&hl=en&rclk=1,"25.0452774,83.7913322"
Jama Masjid Budhadei Ahraura,Mosque,"22FM+J3Q Jama Masjid Budhadei Ahraura, Ahraura - Chakia Rd, Ahraura, Uttar Pradesh 231301",,"22FM+J3Q, Ahraura - Chakia Rd",Ahraura,231301,Uttar Pradesh,IN,https://www.google.com/maps/place/Jama+Masjid+Budhadei+Ahraura/data=!4m7!3m6!1s0x398e4ed4e9f5a68d:0x759a0c0b4eac1ef6!8m2!3d25.0240964!4d83.0327449!16s%2Fg%2F11g6xprxmq!19sChIJjab16dROjjkR9h6sTgsMmnU?authuser=0&hl=en&rclk=1,"25.024096399999998,83.0327449"
Imad patti Masjid,Mosque,"C326+P8V Imad patti Masjid, Chakia, Bihar 845412",,C326+P8V,Chakia,845412,Bihar,IN,https://www.google.com/maps/place/Imad+patti+Masjid/data=!4m7!3m6!1s0x39ecd70226f64b79:0xc44c379c1b1220f6!8m2!3d26.4018541!4d85.0607958!16s%2Fg%2F11fnvt7_c2!19sChIJeUv2JgLX7DkR9iASG5w3TMQ?authuser=0&hl=en&rclk=1,"26.401854099999998,85.0607958"
Masjid E Ayesha Chakiya HusainaBaad,Mosque,"229F+V64 Masjid E Ayesha Chakiya HusainaBaad, Makkhn Patti, Uttar Pradesh 223227",,229F+V64,Makkhn Patti,223227,Uttar Pradesh,IN,https://www.google.com/maps/place/Masjid+E+Ayesha+Chakiya+HusainaBaad/data=!4m7!3m6!1s0x3991b1a666b175dd:0xd86393ad24d87219!8m2!3d26.0196382!4d83.0230679!16s%2Fg%2F11fz285hwb!19sChIJ3XWxZqaxkTkRGXLYJK2TY9g?authuser=0&hl=en&rclk=1,"26.0196382,83.0230679"
JAMA MASJID CHAKIA,Mosque,"C382+H68 JAMA MASJID CHAKIA, Kunawa, Chakia, Bihar 845412",,C382+H68,"Kunawa, Chakia",845412,Bihar,IN,https://www.google.com/maps/place/JAMA+MASJID+CHAKIA/data=!4m7!3m6!1s0x39ecd6c5f4dbb06f:0x6ab17275bcd0a053!8m2!3d26.4164035!4d85.0505709!16s%2Fg%2F11f50029kl!19sChIJb7Db9MXW7DkRU6DQvHVysWo?authuser=0&hl=en&rclk=1,"26.416403499999998,85.0505709"
Chhoti Masjid Nai Abadi Chakiya,Mosque,"CRP2+RH2 Chhoti Masjid Nai Abadi Chakiya, Nai Abadi, Chakiya, Rajrooppur, Prayagraj, Uttar Pradesh 211011","Nai Abadi, Chakiya, Rajrooppur",CRP2+RH2,Prayagraj,211011,Uttar Pradesh,IN,https://www.google.com/maps/place/Chhoti+Masjid+Nai+Abadi+Chakiya/data=!4m7!3m6!1s0x399acbe432c8d19b:0x8bcdc2b02f7f8214!8m2!3d25.4370245!4d81.8013811!16s%2Fg%2F11fd455_c1!19sChIJm9HIMuTLmjkRFIJ_L7DCzYs?authuser=0&hl=en&rclk=1,"25.4370245,81.8013811"
Chakiyan Masjid,Mosque,"8C7V+4FM Chakiyan Masjid, Pipra, Bihar 802207",,8C7V+4FM,Pipra,802207,Bihar,IN,https://www.google.com/maps/place/Chakiyan+Masjid/data=!4m7!3m6!1s0x398d6e2ed4f447a3:0x82a4b4ae2b51659c!8m2!3d25.3128288!4d84.4436704!16s%2Fg%2F11h9wr5v2b!19sChIJo0f01C5ujTkRnGVRK660pII?authuser=0&hl=en&rclk=1,"25.3128288,84.4436704"
Masjid Pandey Chakia,Mosque,"Masjid Pandey Chakia, Unnamed Road, Chakia, Khajurha Panre, Bihar 841426",,Unnamed Road,"Chakia, Khajurha Panre",841426,Bihar,IN,https://www.google.com/maps/place/Masjid+Pandey+Chakia/data=!4m7!3m6!1s0x3993afaea0122211:0x605cb25ffdf01d40!8m2!3d26.4564865!4d84.1195145!16s%2Fg%2F11qnb2rzgx!19sChIJESISoK6vkzkRQB3w_V-yXGA?authuser=0&hl=en&rclk=1,"26.4564865,84.1195145"
"Zama Mosque, Chakia",Mosque,"362C+PM8 Zama Mosque, Chakia, Chakia, Uttar Pradesh 232103",,362C+PM8,Chakia,232103,Uttar Pradesh,IN,"https://www.google.com/maps/place/Zama+Mosque,+Chakia/data=!4m7!3m6!1s0x398e41912e70f7b7:0x3105113b2d64e7b4!8m2!3d25.0517751!4d83.2217046!16s%2Fg%2F11dfxnr3tv!19sChIJt_dwLpFBjjkRtOdkLTsRBTE?authuser=0&hl=en&rclk=1","25.0517751,83.2217046"
BICHLI MASJID,Mosque,"38G5+6QW BICHLI MASJID, Chak Sash Ahmad Urf Chakia, Uttar Pradesh 276404",,38G5+6QW,Chak Sash Ahmad Urf Chakia,276404,Uttar Pradesh,IN,https://www.google.com/maps/place/BICHLI+MASJID/data=!4m7!3m6!1s0x399199f379e0af13:0xa0c77353a981a951!8m2!3d26.0756101!4d83.3094456!16s%2Fg%2F11fl94vt_d!19sChIJE6_gefOZkTkRUamBqVNzx6A?authuser=0&hl=en&rclk=1,"26.0756101,83.30944559999999"
Noori Masjid,Mosque,"4323+8MF Noori Masjid, Chakia Link Road, Bhuili Khas, Uttar Pradesh 231302",,"4323+8MF, Chakia Link Road",Bhuili Khas,231302,Uttar Pradesh,IN,https://www.google.com/maps/place/Noori+Masjid/data=!4m7!3m6!1s0x398e483ee3770cc5:0xbbe1f8d78232f2a1!8m2!3d25.1008185!4d83.0541653!16s%2Fg%2F11c6q53rd7!19sChIJxQx34z5IjjkRofIygtf44bs?authuser=0&hl=en&rclk=1,"25.1008185,83.0541653"
Masjid Chakia,Mosque,"38G5+GPR Masjid Chakia, Chakia, Amilo, 276404",,"38G5+GPR, Chakia","Amilo, Mubarakpur",276404,Uttar Pradesh,IN,https://www.google.com/maps/place/Masjid+Chakia/data=!4m7!3m6!1s0x39919918f02d5637:0x503d864bcde9923f!8m2!3d26.0763523!4d83.3092677!16s%2Fg%2F11fj2mx9zb!19sChIJN1Yt8BiZkTkRP5LpzUuGPVA?authuser=0&hl=en&rclk=1,"26.0763523,83.30926769999999"
Gausiya Masjid,Mosque,"93QF+VMG Gausiya Masjid, Halim Nagar Taraniya, NH 28, Chakia, Bihar 845412",,"93QF+VMG, Halim Nagar Taraniya, NH 28","Chakia, Harpur Nag",845412,Bihar,IN,https://www.google.com/maps/place/Gausiya+Masjid/data=!4m7!3m6!1s0x39ecd76dbd17c02f:0x29f60538cf8886a9!8m2!3d26.3896886!4d85.0742033!16s%2Fg%2F11h18cpn70!19sChIJL8AXvW3X7DkRqYaIzzgF9ik?authuser=0&hl=en&rclk=1,"26.3896886,85.0742033"
Masjid Al Barkaat,Mosque,"CRM2+QCW Masjid Al Barkaat, Chakiya, Rajrooppur, Prayagraj, Uttar Pradesh 211016","Chakiya, Rajrooppur",CRM2+QCW,Prayagraj,211016,Uttar Pradesh,IN,https://www.google.com/maps/place/Masjid+Al+Barkaat/data=!4m7!3m6!1s0x399acb355b050591:0x3c532e69dbf9ea86!8m2!3d25.4344816!4d81.8010879!16s%2Fg%2F11cmyltcj0!19sChIJkQUFWzXLmjkRhur522kuUzw?authuser=0&hl=en&rclk=1,"25.434481599999998,81.8010879"
SHAHI JAMA MASJID jm` msjd shhy,Mosque,"SHAHI JAMA MASJID jm` msjd shhy, 22, foot road, Shram Vihar, Pocket N, Madanpur Khadar, New Delhi, Delhi 110025","Shram Vihar, Pocket N, Madanpur Khadar","22, foot road",New Delhi,110025,Delhi,IN,https://www.google.com/maps/place/SHAHI+JAMA+MASJID+%D8%AC%D8%A7%D9%85%D8%B9+%D9%85%D8%B3%D8%AC%D8%AF+%D8%B4%D8%A7%DA%BE%DB%8C%E2%80%AD/data=!4m7!3m6!1s0x390ce5a36ba3a95d:0x7cb7c1435cda3fd2!8m2!3d28.5405938!4d77.3038368!16s%2Fg%2F11n733rllr!19sChIJXamja6PlDDkR0j_aXEPBt3w?authuser=0&hl=en&rclk=1,"28.5405938,77.3038368"
Raza Masjid,Mosque,"93W5+QXR Raza Masjid, shekhi, Chakia, Bihar 845412",shekhi,93W5+QXR,Chakia,,Bihar,IN,https://www.google.com/maps/place/Raza+Masjid/data=!4m7!3m6!1s0x39ecd7c51b9cd775:0xeb0b327a33e3912f!8m2!3d26.3969948!4d85.0598804!16s%2Fg%2F11gy8sc5vm!19sChIJddecG8XX7DkRL5HjM3oyC-s?authuser=0&hl=en&rclk=1,"26.396994799999998,85.0598804"
Islamia masjid Chakiya HusainaBaad,Mosque,"Islamia masjid Chakiya HusainaBaad, Unnamed Road, Makkhn Patti, Uttar Pradesh 223227",,Unnamed Road,Makkhn Patti,223227,Uttar Pradesh,IN,https://www.google.com/maps/place/Islamia+masjid+Chakiya+HusainaBaad/data=!4m7!3m6!1s0x3991b1a5de7dda8d:0x750db36674a5feac!8m2!3d26.0212319!4d83.0238929!16s%2Fg%2F11fzf4jjtp!19sChIJjdp93qWxkTkRrP6ldGazDXU?authuser=0&hl=en&rclk=1,"26.0212319,83.02389289999999"
Sherwan Masjid,Mosque,"Sherwan Masjid, Chakia Link Road, Sherwa, Uttar Pradesh 231302",,Chakia Link Road,Sherwa,231302,Uttar Pradesh,IN,https://www.google.com/maps/place/Sherwan+Masjid/data=!4m7!3m6!1s0x398e47f67efcbf0f:0xb1c20be917c76ce0!8m2!3d25.0717044!4d83.1183001!16s%2Fg%2F11fnx65qjs!19sChIJD7_8fvZHjjkR4GzHF-kLwrE?authuser=0&hl=en&rclk=1,"25.071704399999998,83.1183001"
Eid Gah Jamunia,Mosque,"Eid Gah Jamunia, Chakia - Madhuban, Sheohar Road, Jamunia, Phenhara, Bihar 845430",Jamunia,"Chakia - Madhuban, Sheohar Road",Phenhara,845430,Bihar,IN,https://www.google.com/maps/place/Eid+Gah+Jamunia/data=!4m7!3m6!1s0x39ecdca5efbdc633:0xb930d293f0f12fe2!8m2!3d26.5148587!4d85.1953218!16s%2Fg%2F11fx3fmvb8!19sChIJM8a976Xc7DkR4i_x8JPSMLk?authuser=0&hl=en&rclk=1,"26.514858699999998,85.1953218"
Chakiya Sunni Masjid,Mosque,"7WH9+CH5 Chakiya Sunni Masjid, Ghatwa, Uttar Pradesh 212301",,7WH9+CH5,Ghatwa,212301,Uttar Pradesh,IN,https://www.google.com/maps/place/Chakiya+Sunni+Masjid/data=!4m7!3m6!1s0x3985498a4d9ad5f3:0x171d7b098e8d6110!8m2!3d25.278521!4d81.9189776!16s%2Fg%2F11g0mtxzjj!19sChIJ89WaTYpJhTkREGGNjgl7HRc?authuser=0&hl=en&rclk=1,"25.278520999999998,81.91897759999999"
MASJID E UMAR CHAKIYA,Mosque,"XWX7+WCF MASJID E UMAR CHAKIYA, Kamal Pur, Uttar Pradesh 223227",,XWX7+WCF,Kamal Pur,223227,Uttar Pradesh,IN,https://www.google.com/maps/place/MASJID+E+UMAR+CHAKIYA/data=!4m7!3m6!1s0x3991b32e69463533:0xbd5c92627f5262a5!8m2!3d25.9998037!4d82.9135592!16s%2Fg%2F11fyzck31n!19sChIJMzVGaS6zkTkRpWJSf2KSXL0?authuser=0&hl=en&rclk=1,"25.999803699999998,82.9135592"
Jaali Masjid,Mosque,"4323+8V6 Jaali Masjid, Chakia Link Road, Barbhuili, Bhuili Khas, Uttar Pradesh 231302",,"4323+8V6, Chakia Link Road","Barbhuili, Bhuili Khas",231302,Uttar Pradesh,IN,https://www.google.com/maps/place/Jaali+Masjid/data=!4m7!3m6!1s0x398e4946824bc67d:0x6e5175fe7c1e18b!8m2!3d25.1007929!4d83.0546493!16s%2Fg%2F11h02kxfb1!19sChIJfcZLgkZJjjkRi-HB518X5QY?authuser=0&hl=en&rclk=1,"25.1007929,83.0546493"
Noori Masjid,Mosque,"35PW+V8Q Noori Masjid, Sikandarpur, Chakia, Uttar Pradesh",,"35PW+V8Q, Sikandarpur","Chakia, Sikenderpur",,Uttar Pradesh,IN,https://www.google.com/maps/place/Noori+Masjid/data=!4m7!3m6!1s0x398e40e4bd27c185:0xb7c599fedbc38c05!8m2!3d25.0872031!4d83.1958734!16s%2Fg%2F11gfls0tvd!19sChIJhcEnveRAjjkRBYzD2_6Zxbc?authuser=0&hl=en&rclk=1,"25.0872031,83.1958734"
Eidgah Chakia,Mosque,"38H5+8J6 Eidgah Chakia, Chakia, Amilo, Mubarakpur, Uttar Pradesh 276404",,"38H5+8J6, Chakia, Amilo",Mubarakpur,276404,Uttar Pradesh,IN,https://www.google.com/maps/place/Eidgah+Chakia/data=!4m7!3m6!1s0x399199eabd6c7b03:0x2b9f6a034f01f9aa!8m2!3d26.0782859!4d83.309008!16s%2Fg%2F11h9402vjh!19sChIJA3tsveqZkTkRqvkBTwNqnys?authuser=0&hl=en&rclk=1,"26.078285899999997,83.30900799999999"
Chakiya Sunni Masjid,Mosque,"HWH7+28R Chakiya Sunni Masjid, Dulhapar, Chakiya, Atraulia, Uttar Pradesh 272162",Dulhapar,HWH7+28R,"Chakiya, Atraulia",272162,Uttar Pradesh,IN,https://www.google.com/maps/place/Chakiya+Sunni+Masjid/data=!4m7!3m6!1s0x39911fd3925d1927:0x275f2ab9a1ed902!8m2!3d26.5776237!4d82.9132692!16s%2Fg%2F11f4020g54!19sChIJJxldktMfkTkRAtkemqvydQI?authuser=0&hl=en&rclk=1,"26.5776237,82.9132692"
Shahi Masjid 1530 A.D,Mosque,"34F9+477 Shahi Masjid 1530 A.D, Chakia Link Road, Sherwa, Uttar Pradesh 231302",,"34F9+477, Chakia Link Road",Sherwa,231302,Uttar Pradesh,IN,https://www.google.com/maps/place/Shahi+Masjid+1530+A.D/data=!4m7!3m6!1s0x398e47fc23af6b67:0xaad7d2e43f824319!8m2!3d25.0727769!4d83.1181808!16s%2Fg%2F11fnx7hy_5!19sChIJZ2uvI_xHjjkRGUOCP-TS16o?authuser=0&hl=en&rclk=1,"25.072776899999997,83.11818079999999"
Mohammadi Masjid,Mosque,"Mohammadi Masjid, 319A/142A, Nai Abadi, Chakiya, Rajrooppur, Prayagraj, Uttar Pradesh 211016","Nai Abadi, Chakiya, Rajrooppur",319A/142A,Prayagraj,211016,Uttar Pradesh,IN,https://www.google.com/maps/place/Mohammadi+Masjid/data=!4m7!3m6!1s0x399acb54f29c725f:0x2ad3c457b960a411!8m2!3d25.4375172!4d81.800312!16s%2Fg%2F11h58fn4w3!19sChIJX3Kc8lTLmjkREaRguVfE0yo?authuser=0&hl=en&rclk=1,"25.4375172,81.80031199999999"
Chhoti Masjid,Mosque,"C322+CM7 Chhoti Masjid, Shekhi Chakia, SahebGanj Road, Chakia, Bihar 845412",,"C322+CM7, Shekhi Chakia, SahebGanj Road",Chakia,845412,Bihar,IN,https://www.google.com/maps/place/Chhoti+Masjid/data=!4m7!3m6!1s0x39ecd6e91c5e1315:0xc512333a2c872113!8m2!3d26.4010324!4d85.0516748!16s%2Fg%2F11x9d5dfj!19sChIJFRNeHOnW7DkREyGHLDozEsU?authuser=0&hl=en&rclk=1,"26.4010324,85.0516748"
Masjide Reza,Mosque,"Masjide Reza, Officer Colony, Chakia, Bihar 845412",Officer Colony,,Chakia,845412,Bihar,IN,https://www.google.com/maps/place/Masjide+Reza/data=!4m7!3m6!1s0x39ecd74b370779f3:0xfbc2d7f3aa976ea3!8m2!3d26.409884!4d85.0560715!16s%2Fg%2F11fjv4wh2_!19sChIJ83kHN0vX7DkRo26XqvPXwvs?authuser=0&hl=en&rclk=1,"26.409883999999998,85.0560715"
JAMA MASJID (CHAKIBRAHIM),Mosque,"245C+5V4 JAMA MASJID (CHAKIBRAHIM), Kutrum kolhua, Chakia urf Chak Bishunpur Anan, Bihar 843143",,"245C+5V4, Kutrum kolhua",Chakia urf Chak Bishunpur Anan,843143,Bihar,IN,https://www.google.com/maps/place/JAMA+MASJID+%28CHAKIBRAHIM%29/data=!4m7!3m6!1s0x39ed39e2fbe30b19:0x146f92598d2be992!8m2!3d26.0078972!4d85.1222095!16s%2Fg%2F11qwwrnk9n!19sChIJGQvj--I57TkRkukrjVmSbxQ?authuser=0&hl=en&rclk=1,"26.0078972,85.1222095"
Kabristan Masjid,Mosque,"4332+WVX Kabristan Masjid, Chakia Link Road, Barbhuili, Ulhopur, Uttar Pradesh 231302",,"4332+WVX, Chakia Link Road","Barbhuili, Ulhopur",231302,Uttar Pradesh,IN,https://www.google.com/maps/place/Kabristan+Masjid/data=!4m7!3m6!1s0x398e4973b805265b:0x62097a4612963871!8m2!3d25.104868!4d83.0522334!16s%2Fg%2F11h_lb7828!19sChIJWyYFuHNJjjkRcTiWEkZ6CWI?authuser=0&hl=en&rclk=1,"25.104868,83.05223339999999"
Hasan Raza Jama Masjid (Barelvi),Mosque,"Hasan Raza Jama Masjid (Barelvi), phase_2 kakrala khwaspur, Noida, sec. 80",Jalpura,phase_2 kakrala khwaspur,"Noida, Greater Noida",sec. 80,Uttar Pradesh,IN,https://www.google.com/maps/place/Hasan+Raza+Jama+Masjid+%28Barelvi%29/data=!4m7!3m6!1s0x390ce94eb14b7b3f:0x84815a16733cf3cb!8m2!3d28.5467268!4d77.4251939!16s%2Fg%2F11h64z0k9l!19sChIJP3tLsU7pDDkRy_M8cxZagYQ?authuser=0&hl=en&rclk=1,"28.5467268,77.4251939"
Badi masjid chakiya,Mosque,"HJFV+J2X Badi masjid chakiya, Arrah, Ratanpur, Bihar 802301",,HJFV+J2X,"Arrah, Ratanpur",802301,Bihar,IN,https://www.google.com/maps/place/Badi+masjid+chakiya/data=!4m7!3m6!1s0x3992a1e5c0b9f205:0xd04f8897886ae27e!8m2!3d25.5740473!4d84.6426469!16s%2Fg%2F11t7cy1b_z!19sChIJBfK5wOWhkjkRfuJqiJeIT9A?authuser=0&hl=en&rclk=1,"25.5740473,84.6426469"
Kondhia Barimasjid,Mosque,"92HR+JHG Kondhia Barimasjid, Sahebganj - Chakia Rd, Koyla Belwa, Bansghat, Bihar 845412",,"92HR+JHG, Sahebganj - Chakia Rd","Koyla Belwa, Bansghat",845412,Bihar,IN,https://www.google.com/maps/place/Kondhia+Barimasjid/data=!4m7!3m6!1s0x39ecd7bf1632ffc5:0xa2b048531a8efa04!8m2!3d26.379052!4d85.0414572!16s%2Fg%2F11q8w39mbf!19sChIJxf8yFr_X7DkRBPqOGlNIsKI?authuser=0&hl=en&rclk=1,"26.379051999999998,85.0414572"
Shahi Masjid Chakiya(Bibiganj),Mosque,"HHGH+5VG Shahi Masjid Chakiya(Bibiganj), Chit Kundi, Bihar 802157",,HHGH+5VG,Chit Kundi,,Bihar,IN,https://www.google.com/maps/place/Shahi+Masjid+Chakiya%28Bibiganj%29/data=!4m7!3m6!1s0x39929f9557116c0b:0xbf88fb7cb89771a!8m2!3d25.5754486!4d84.5797174!16s%2Fg%2F11j97tthds!19sChIJC2wRV5WfkjkRGneJy7eP-As?authuser=0&hl=en&rclk=1,"25.575448599999998,84.57971739999999"
NURANI MASJID(U.B),Mosque,"5PGC+C83 NURANI MASJID(U.B), Chakia, West Bengal 723151",,5PGC+C83,Chakia,,West Bengal,IN,https://www.google.com/maps/place/NURANI+MASJID%28U.B%29/data=!4m7!3m6!1s0x39f65bbd4db8a8df:0x7cbc32fa304a8e71!8m2!3d23.1760118!4d86.7207966!16s%2Fg%2F11mb0gmw6j!19sChIJ36i4Tb1b9jkRcY5KMPoyvHw?authuser=0&hl=en&rclk=1,"23.176011799999998,86.7207966"
jaamiyaa islaamiyaa (msjid),Mosque,"C227+5JX jaamiyaa islaamiyaa (msjid), Chakia, Bihar 845412",,C227+5JX,Chakia,845412,Bihar,IN,https://www.google.com/maps/place/%E0%A4%9C%E0%A4%BE%E0%A4%AE%E0%A4%BF%E0%A4%AF%E0%A4%BE+%E0%A4%87%E0%A4%B8%E0%A5%8D%E0%A4%B2%E0%A4%BE%E0%A4%AE%E0%A4%BF%E0%A4%AF%E0%A4%BE+%28%E0%A4%AE%E0%A4%B8%E0%A5%8D%E0%A4%9C%E0%A4%BF%E0%A4%A6%29/data=!4m7!3m6!1s0x39ecd5695a6a36a5:0x3c950fbd638a4eed!8m2!3d26.4004817!4d85.0141033!16s%2Fg%2F11kjz65n99!19sChIJpTZqWmnV7DkR7U6KY70PlTw?authuser=0&hl=en&rclk=1,"26.4004817,85.0141033"
Jamma Masjid Khaira Asha,Mosque,"6V9G+23R Jamma Masjid Khaira Asha, Chakiya, Bihar 841413",,6V9G+23R,Chakiya,,Bihar,IN,https://www.google.com/maps/place/Jamma+Masjid+Khaira+Asha/data=!4m7!3m6!1s0x3992d322b4e09cfb:0xee7a4dcb35ea1cd5!8m2!3d26.2176236!4d84.8751549!16s%2Fg%2F11flrldwk4!19sChIJ-5zgtCLTkjkR1RzqNctNeu4?authuser=0&hl=en&rclk=1,"26.2176236,84.8751549"
KGN Masjid Hindu Chakia,Mosque,"C362+943 KGN Masjid Hindu Chakia, Chakia, Bihar 845412",,C362+943,Chakia,845412,Bihar,IN,https://www.google.com/maps/place/KGN+Masjid+Hindu+Chakia/data=!4m7!3m6!1s0x39ecd760019d9891:0xb3aed783bc4c98a5!8m2!3d26.4108861!4d85.0503064!16s%2Fg%2F11smgth17j!19sChIJkZidAWDX7DkRpZhMvIPXrrM?authuser=0&hl=en&rclk=1,"26.4108861,85.0503064"
Bahuara Masjid,Religious destination,"Bahuara Masjid, post pipariya, Village bahuara, Chakia",,"post pipariya, Village bahuara",Chakia,,Uttar Pradesh,IN,https://www.google.com/maps/place/Bahuara+Masjid/data=!4m7!3m6!1s0x398e41cf2c69577d:0x45ff3b9afd2e5bcb!8m2!3d25.0532986!4d83.2218925!16s%2Fg%2F11spzbzbc3!19sChIJfVdpLM9BjjkRy1su_Zo7_0U?authuser=0&hl=en&rclk=1,"25.053298599999998,83.2218925"
SHAIKH WAJID ALI MASJID TURKCHAKIYA,Mosque,"GXX4+73P SHAIKH WAJID ALI MASJID TURKCHAKIYA, Turkish chakia Rd, Barka Nuawan, Buxar, Bihar 802102",Barka Nuawan,"GXX4+73P, Turkish chakia Rd",Buxar,802102,Bihar,IN,https://www.google.com/maps/place/SHAIKH+WAJID+ALI+MASJID+T%C3%9CRKCH%C3%84K%C3%8EY%C3%84/data=!4m7!3m6!1s0x399275dbbcdcb1e9:0x9b3b084940a35a46!8m2!3d25.5482028!4d83.9552094!16s%2Fg%2F11s5yj3y63!19sChIJ6bHcvNt1kjkRRlqjQEkIO5s?authuser=0&hl=en&rclk=1,"25.5482028,83.9552094"
Masjid chakiya,Mosque,"X42P+HGV Masjid chakiya, Barhasari Jagir to Ghogha Marg, Badsari Jagir, Panicha, Uttar Pradesh 277207",,"X42P+HGV, Barhasari Jagir to Ghogha Marg","Badsari Jagir, Panicha",277207,Uttar Pradesh,IN,https://www.google.com/maps/place/Masjid+chakiya/data=!4m7!3m6!1s0x39925d55e8660cb1:0x907b48d282d1c85b!8m2!3d25.9514912!4d84.1362819!16s%2Fg%2F11mwjlfflb!19sChIJsQxm6FVdkjkRW8jRgtJIe5A?authuser=0&hl=en&rclk=1,"25.9514912,84.1362819"
Shia Masjid,Mosque,"4323+5Q7 Shia Masjid, Chakia Link Road, Barbhuili, Bhuili Khas, Uttar Pradesh 231302",,"4323+5Q7, Chakia Link Road","Barbhuili, Bhuili Khas",231302,Uttar Pradesh,IN,https://www.google.com/maps/place/Shia+Masjid/data=!4m7!3m6!1s0x398e49da8fd1bc9f:0xea2c157ae9f8ebcf!8m2!3d25.1004019!4d83.0544355!16s%2Fg%2F11j06v0xd3!19sChIJn7zRj9pJjjkRz-v46XoVLOo?authuser=0&hl=en&rclk=1,"25.100401899999998,83.0544355"
EidGah Al Shahi Turkchakiya road,Mosque,"GXX4+73P EidGah Al Shahi Turkchakiya road, Turkish chakia Rd, Barka Nuawan, Buxar, Bihar 802102",Barka Nuawan,"GXX4+73P, Turkish chakia Rd",Buxar,802102,Bihar,IN,https://www.google.com/maps/place/EidGah+Al+Shahi+T%C3%BCrkch%C3%A4k%C3%AEy%C3%A4+road/data=!4m7!3m6!1s0x3992755275de7025:0x466f6bbaa1337d83!8m2!3d25.5482028!4d83.9552094!16s%2Fg%2F11s5yj9z3f!19sChIJJXDedVJ1kjkRg30zobprb0Y?authuser=0&hl=en&rclk=1,"25.5482028,83.9552094"
Mosque,Mosque,"C24Q+Q45 Mosque, Kuawan, Chakia, Bihar 845412",Kuawan,C24Q+Q45,Chakia,845412,Bihar,IN,https://www.google.com/maps/place/Mosque/data=!4m7!3m6!1s0x39ecd7de63f6ee17:0x225552ff8029da45!8m2!3d26.406889!4d85.0378546!16s%2Fg%2F11r3mn0mrd!19sChIJF-72Y97X7DkRRdopgP9SVSI?authuser=0&hl=en&rclk=1,"26.406889,85.0378546"
Kuawan EID-GAAH,Mosque,"C24V+PR5 Kuawan EID-GAAH, Kunawa, Chakia, Bihar 845412",,C24V+PR5,"Kunawa, Chakia",845412,Bihar,IN,https://www.google.com/maps/place/Kuawan+EID-GAAH/data=!4m7!3m6!1s0x39ecd76a3d815e0b:0xb4c5ec5ead22b15e!8m2!3d26.4067724!4d85.0446058!16s%2Fg%2F11ll6dsw1_!19sChIJC16BPWrX7DkRXrEirV7sxbQ?authuser=0&hl=en&rclk=1,"26.406772399999998,85.0446058"
Gule Baghdadi Masjid,Mosque,"R42F+VQ4 Gule Baghdadi Masjid, Chakia Hayat Nagar, Pipal Gaon, Uttar Pradesh 244927",,R42F+VQ4,"Chakia Hayat Nagar, Pipal Gaon",,Uttar Pradesh,IN,https://www.google.com/maps/place/Gule+Baghdadi+Masjid/data=!4m7!3m6!1s0x390a8f704462addf:0xfd3bb80da1c712a!8m2!3d28.8021306!4d79.1244431!16s%2Fg%2F11vcmd0zrs!19sChIJ361iRHCPCjkRKnEc2oC70w8?authuser=0&hl=en&rclk=1,"28.802130599999998,79.1244431"
Jama Masjid Chakia Husaibad,School,"229F+C83 Jama Masjid Chakia Husaibad, Husainabad, Chakia, Suddanpur Gaura Patti, Uttar Pradesh 223227",Husainabad,229F+C83,"Chakia, Suddanpur Gaura Patti",223227,Uttar Pradesh,IN,https://www.google.com/maps/place/Jama+Masjid+Chakia+Husaibad/data=!4m7!3m6!1s0x3991b1a650482de5:0xe220b1f36e1eab10!8m2!3d26.0185076!4d83.0232954!16s%2Fg%2F11c1q9llxp!19sChIJ5S1IUKaxkTkREKsebvOxIOI?authuser=0&hl=en&rclk=1,"26.0185076,83.0232954"
Chakiya mosque,Mosque,"GMG4+FWW Chakiya mosque, Chakia, Bihar 802210",,GMG4+FWW,Chakia,802210,Bihar,IN,https://www.google.com/maps/place/Chakiya+mosque/data=!4m7!3m6!1s0x398d5f3759414d27:0xd21d39d5280985!8m2!3d25.52618!4d84.656067!16s%2Fg%2F11kqrbkx2c!19sChIJJ01BWTdfjTkRhQko1Tkd0gA?authuser=0&hl=en&rclk=1,"25.52618,84.656067"
husainii jaamaa msjid vijypurvaa postt ckiyaa jilaa cNdaulii UP 232103,Mosque,"husainii jaamaa msjid vijypurvaa postt ckiyaa jilaa cNdaulii UP 232103, Chakia, Uttar Pradesh 232103",,,Chakia,232103,Uttar Pradesh,IN,https://www.google.com/maps/place/%E0%A4%B9%E0%A5%81%E0%A4%B8%E0%A5%88%E0%A4%A8%E0%A5%80+%E0%A4%9C%E0%A4%BE%E0%A4%AE%E0%A4%BE+%E0%A4%AE%E0%A4%B8%E0%A5%8D%E0%A4%9C%E0%A4%BF%E0%A4%A6+%E0%A4%B5%E0%A4%BF%E0%A4%9C%E0%A4%AF%E0%A4%AA%E0%A5%81%E0%A4%B0%E0%A4%B5%E0%A4%BE+%E0%A4%AA%E0%A5%8B%E0%A4%B8%E0%A5%8D%E0%A4%9F+%E0%A4%9A%E0%A4%95%E0%A4%BF%E0%A4%AF%E0%A4%BE+%E0%A4%9C%E0%A4%BF%E0%A4%B2%E0%A4%BE+%E0%A4%9A%E0%A4%82%E0%A4%A6%E0%A5%8C%E0%A4%B2%E0%A5%80+UP+232103/data=!4m7!3m6!1s0x398e4165da727d35:0x1ff572d2fef6274e!8m2!3d25.0849713!4d83.1997385!16s%2Fg%2F11sclcszgj!19sChIJNX1y2mVBjjkRTif2_tJy9R8?authuser=0&hl=en&rclk=1,"25.0849713,83.1997385"
Masjid pahleja c,Mosque,"W4MW+W77 Masjid pahleja c, Pahleza, Chakia, Bihar 821305",,W4MW+W77,"Pahleza, Chakia",821305,Bihar,IN,https://www.google.com/maps/place/Masjid+pahleja+c/data=!4m7!3m6!1s0x398dafd8de45da09:0xf176bc58c2b24689!8m2!3d24.9347853!4d84.1456826!16s%2Fg%2F11tnhj3xvc!19sChIJCdpF3tivjTkRiUaywli8dvE?authuser=0&hl=en&rclk=1,"24.934785299999998,84.1456826"
madarsa islamia,Mosque,"363C+FRP madarsa islamia, Chakia, Chhangurpur, Uttar Pradesh 232103",,363C+FRP,"Chakia, Chhangurpur",,Uttar Pradesh,IN,https://www.google.com/maps/place/madarsa+islamia/data=!4m7!3m6!1s0x398e415b4fcaf93b:0xaa6142b5bd516956!8m2!3d25.0537062!4d83.222084!16s%2Fg%2F11glyc91rf!19sChIJO_nKT1tBjjkRVmlRvbVCYao?authuser=0&hl=en&rclk=1,"25.0537062,83.222084"
Tajussaria Masjid,Mosque,"82GG+6X7 Tajussaria Masjid, pathani tola sikanderpur, Chakia, Uttar Pradesh",Pathani Tola,"82GG+6X7, pathani tola sikanderpur","Chakia, Varanasi",,Uttar Pradesh,IN,https://www.google.com/maps/place/Tajussaria+Masjid/data=!4m7!3m6!1s0x398e2f32f7aae057:0xac36943077297a12!8m2!3d25.3255491!4d83.0274101!16s%2Fg%2F11fjmc13r4!19sChIJV-Cq9zIvjjkREnopdzCUNqw?authuser=0&hl=en&rclk=1,"25.3255491,83.0274101"
Masjid Mehnajpur,Mosque,"M4G8+5XM Masjid Mehnajpur, Rd, Lalganj, Tarwa, Mehnajpur, Chakia Kasrawal, Uttar Pradesh 276203","Lalganj, Tarwa","M4G8+5XM, Rd","Mehnajpur, Chakia Kasrawal",276203,Uttar Pradesh,IN,https://www.google.com/maps/place/Masjid+Mehnajpur/data=!4m7!3m6!1s0x3991db67d6fbf943:0x75a2fb18c73dcc83!8m2!3d25.6751104!4d83.1177018!16s%2Fg%2F11qbsb8dly!19sChIJQ_n71mfbkTkRg8w9xxj7onU?authuser=0&hl=en&rclk=1,"25.675110399999998,83.11770179999999"
