name,main_category,address,address_ward,address_street,address_city,address_postal_code,address_state,address_country_code,link,coordinates
Maulana Masjid msjd,Mosque,"Maulana Masjid msjd, Gewalbigha, Gaya, Bihar 823001",Gewalbigha,,Gaya,823001,Bihar,IN,https://www.google.com/maps/place/Maulana+Masjid+%D9%85%D8%B3%D8%AC%D8%AF%E2%80%AD/data=!4m7!3m6!1s0x39f32a458ee9ed7d:0xc5752dcd339c6d3c!8m2!3d24.7855864!4d84.9956853!16s%2Fg%2F11cnxl3pm6!19sChIJfe3pjkUq8zkRPG2cM80tdcU?authuser=0&hl=en&rclk=1,"24.7855864,84.99568529999999"
Mosque (Maroof Gunj Ki Masjid),Mosque,"Mosque (Maroof Gunj Ki Masjid), Dipak, Rina Mandal Rd, Nagmatia Colony, Gaya, Bihar 823001",Nagmatia Colony,"Dipak, Rina Mandal Rd",Gaya,823001,Bihar,IN,https://www.google.com/maps/place/Mosque+%28Maroof+Gunj+Ki+Masjid%29/data=!4m7!3m6!1s0x39f32a41e1c236a1:0x20697b64a288611a!8m2!3d24.7970955!4d84.9984196!16s%2Fg%2F11dz5q3mvz!19sChIJoTbC4UEq8zkRGmGIomR7aSA?authuser=0&hl=en&rclk=1,"24.797095499999998,84.99841959999999"
Dulhinganj Mosque,Mosque,"QXXX+8HX Dulhinganj Mosque, Dipak Mandal Rd, Maroof Ganj, Gaya, Bihar 823001",Maroof Ganj,"QXXX+8HX, Dipak Mandal Rd",Gaya,823001,Bihar,IN,https://www.google.com/maps/place/Dulhinganj+Mosque/data=!4m7!3m6!1s0x39f32a6a692b2815:0xbfb4b8c047d88771!8m2!3d24.7983588!4d84.9989706!16s%2Fg%2F11df803tsv!19sChIJFSgraWoq8zkRcYfYR8C4tL8?authuser=0&hl=en&rclk=1,"24.7983588,84.99897059999999"
Masjid_e_Fazal Khiryawan,Mosque,"P2Q4+PXC Masjid_e_Fazal Khiryawan, Khiriyawan, Bihar 823004",,P2Q4+PXC,Khiriyawan,,Bihar,IN,https://www.google.com/maps/place/Masjid_e_Fazal+Khiryawan/data=!4m7!3m6!1s0x39f32be013b5cc1f:0xea74f823d6d4b16c!8m2!3d24.739313!4d85.0073844!16s%2Fg%2F11n5bkn88_!19sChIJH8y1E-Ar8zkRbLHU1iP4dOo?authuser=0&hl=en&rclk=1,"24.739313,85.00738439999999"
Grand Mosque,Mosque,"Q2W2+R68 Grand Mosque, Nala Rd, Maroof Ganj, Gaya, Bihar 823001",Maroof Ganj,"Q2W2+R68, Nala Rd",Gaya,823001,Bihar,IN,https://www.google.com/maps/place/Grand+Mosque/data=!4m7!3m6!1s0x39f32a41b719c737:0x3bcc269cdfe10573!8m2!3d24.7970362!4d85.0005791!16s%2Fg%2F11df0m7tbs!19sChIJN8cZt0Eq8zkRcwXh35wmzDs?authuser=0&hl=en&rclk=1,"24.797036199999997,85.0005791"
Chhatta Masjid (chhtW msjd),Mosque,"Q2W5+865 Chhatta Masjid (chhtW msjd), Dulhingunj, Gaya, Bihar 823001",Dulhingunj,Q2W5+865,Gaya,823001,Bihar,IN,https://www.google.com/maps/place/Chhatta+Masjid+%28%DA%86%DA%BE%D8%AA%D9%91%D8%A7+%D9%85%D8%B3%D8%AC%D8%AF%29%E2%80%AD/data=!4m7!3m6!1s0x39f32a3ddc379ff7:0x639b8c32acf259c!8m2!3d24.7957724!4d85.0081079!16s%2Fg%2F11bwpzq7b0!19sChIJ95833D0q8zkRnCXPKsO4OQY?authuser=0&hl=en&rclk=1,"24.7957724,85.0081079"
Kotwali Thana Mazar,Mosque,"Q2W5+P9J Kotwali Thana Mazar, Gautam Buddha Rd, Dulhingunj, Gaya, Bihar 823001",Dulhingunj,"Q2W5+P9J, Gautam Buddha Rd",Gaya,823001,Bihar,IN,https://www.google.com/maps/place/Kotwali+Thana+Mazar/data=!4m7!3m6!1s0x39f32a3deff36cc9:0x932f93be5b5c9345!8m2!3d24.7968489!4d85.0084008!16s%2Fg%2F11c5s3bl0v!19sChIJyWzz7z0q8zkRRZNcW76TL5M?authuser=0&hl=en&rclk=1,"24.7968489,85.00840079999999"
Almanar Masjid,Mosque,"QXWP+P8V Almanar Masjid, Road No. 14, Old Kareem Ganj, Kareem Ganj, Gaya, Bihar 823001","Old Kareem Ganj, Kareem Ganj","QXWP+P8V, Road No. 14",Gaya,823001,Bihar,IN,https://www.google.com/maps/place/Almanar+Masjid/data=!4m7!3m6!1s0x39f32a60a1e6034d:0xc96bf816eaad397c!8m2!3d24.7968735!4d84.9857963!16s%2Fg%2F1td08blv!19sChIJTQPmoWAq8zkRfDmt6hb4a8k?authuser=0&hl=en&rclk=1,"24.7968735,84.98579629999999"
Moriya Ghat Masjid,Mosque,"Moriya Ghat Masjid, 127, Shaheed Road, Murarpur, Gaya, Bihar 823001",Murarpur,"127, Shaheed Road",Gaya,823001,Bihar,IN,https://www.google.com/maps/place/Moriya+Ghat+Masjid/data=!4m7!3m6!1s0x39f32a19dbb865b3:0x6a177f61db254cb7!8m2!3d24.8015371!4d85.0133309!16s%2Fg%2F1hf4b9tz1!19sChIJs2W42xkq8zkRt0wl22F_F2o?authuser=0&hl=en&rclk=1,"24.801537099999997,85.0133309"
Jama Masjid.jm` msjd,Mosque,"Q2X6+M7P Jama Masjid.jm` msjd, Jama Masjid Rd, Murarpur, Gaya, Bihar 823001",Murarpur,"Q2X6+M7P, Jama Masjid Rd",Gaya,823001,Bihar,IN,https://www.google.com/maps/place/Jama+Masjid.%D8%AC%D8%A7%D9%85%D8%B9+%D9%85%D8%B3%D8%AC%D8%AF%E2%80%AD/data=!4m7!3m6!1s0x39f32a17b67cc4db:0xe171f6081d9af86b!8m2!3d24.7992196!4d85.010714!16s%2Fg%2F11dxqjm7p9!19sChIJ28R8thcq8zkRa_iaHQj2ceE?authuser=0&hl=en&rclk=1,"24.799219599999997,85.010714"
Murarpur Masjid,Mosque,"R224+MM3 Murarpur Masjid, BN Jha Rd, Gol Bagicha, Gaya, Bihar 823001",Gol Bagicha,"R224+MM3, BN Jha Rd",Gaya,823001,Bihar,IN,https://www.google.com/maps/place/Murarpur+Masjid/data=!4m7!3m6!1s0x39f32a143ea6645f:0xf0b05813cba2421a!8m2!3d24.8016402!4d85.0066782!16s%2Fg%2F11bz07mzth!19sChIJX2SmPhQq8zkRGkKiyxNYsPA?authuser=0&hl=en&rclk=1,"24.801640199999998,85.0066782"
Pir mansoor Masjid,Mosque,"Q2R5+W52 Pir mansoor Masjid, Peer Mansoor Rd, Durga Bari, Gaya, Bihar 823001",Durga Bari,"Q2R5+W52, Peer Mansoor Rd",Gaya,823001,Bihar,IN,https://www.google.com/maps/place/Pir+mansoor+Masjid/data=!4m7!3m6!1s0x39f32a3c024f6913:0x348f648364a272b5!8m2!3d24.7922744!4d85.0078843!16s%2Fg%2F124yj24w8!19sChIJE2lPAjwq8zkRtXKiZINkjzQ?authuser=0&hl=en&rclk=1,"24.7922744,85.0078843"
Nadraganj Mosque,Mosque,"Q2Q4+5GH Nadraganj Mosque, Ramsagar Rd, Chand Chaura, Gaya, Bihar 823001",Chand Chaura,"Q2Q4+5GH, Ramsagar Rd",Gaya,823001,Bihar,IN,https://www.google.com/maps/place/Nadraganj+Mosque/data=!4m7!3m6!1s0x39f32a3a36c13ae9:0x3fbf05150663d20a!8m2!3d24.7879432!4d85.0063501!16s%2Fg%2F11hbgntkz_!19sChIJ6TrBNjoq8zkRCtJjBhUFvz8?authuser=0&hl=en&rclk=1,"24.787943199999997,85.00635009999999"
"Badi Masjid, Abgilla",Mosque,"Badi Masjid, Abgilla, Saurav Paravan, Gaya-Nawada-Sikandara Rd, Abgilla, Nauranga, Gaya-Nawada-Sikandara Rd, Abgilla, Nauranga, Bihar 823003",Abgilla,"Saurav Paravan, Gaya-Nawada-Sikandara Rd, Abgilla, Nauranga, Gaya-Nawada-Sikandara Rd",Nauranga,823003,Bihar,IN,"https://www.google.com/maps/place/Badi+Masjid,+Abgilla/data=!4m7!3m6!1s0x39f329f4a4c8ba6f:0xf94cba8ccfe51c72!8m2!3d24.7991462!4d85.0278899!16s%2Fg%2F11csrxts9g!19sChIJb7rIpPQp8zkRchzlz4y6TPk?authuser=0&hl=en&rclk=1","24.7991462,85.02788989999999"
Md farazuddin,Mosque,"Md farazuddin, New Karimganj, Rd Number 5, Old Kareem Ganj, Kareem Ganj, Gaya, Bihar 823001","Old Kareem Ganj, Kareem Ganj","New Karimganj, Rd Number 5",Gaya,823001,Bihar,IN,https://www.google.com/maps/place/Md+farazuddin/data=!4m7!3m6!1s0x39f32a5de669330d:0xac2d565b6d957d3c!8m2!3d24.7955366!4d84.9876067!16s%2Fg%2F11c5zrft_j!19sChIJDTNp5l0q8zkRPH2VbVtWLaw?authuser=0&hl=en&rclk=1,"24.7955366,84.9876067"
Manpur Pehani Jama Masjid,Mosque,"Manpur Pehani Jama Masjid, SH 4, Manpur Patwatoli, Gaya, Manpur, Bihar 823003",Manpur Patwatoli,SH 4,"Gaya, Manpur",823003,Bihar,IN,https://www.google.com/maps/place/Manpur+Pehani+Jama+Masjid/data=!4m7!3m6!1s0x39f329f9079392cf:0x8f84b56ac75ebdd0!8m2!3d24.8148176!4d85.0257944!16s%2Fg%2F119trndzq!19sChIJz5KTB_kp8zkR0L1ex2q1hI8?authuser=0&hl=en&rclk=1,"24.814817599999998,85.0257944"
Munni Masjid - mnny msjd,Mosque,"Munni Masjid - mnny msjd, Gewalbigha, Gaya, Bihar 823001",Gewalbigha,,Gaya,823001,Bihar,IN,https://www.google.com/maps/place/Munni+Masjid+-+%D9%85%D9%86%D9%86%DB%8C+%D9%85%D8%B3%D8%AC%D8%AF%E2%80%AD/data=!4m7!3m6!1s0x39f32bb835135759:0x6573283d6e999124!8m2!3d24.7835065!4d84.9973885!16s%2Fg%2F11j5v7sw08!19sChIJWVcTNbgr8zkRJJGZbj0oc2U?authuser=0&hl=en&rclk=1,"24.783506499999998,84.9973885"
Pachhati masjid,Mosque,"PX2R+CVF Pachhati masjid, Bodh Gaya, Bihar 824231",,PX2R+CVF,Bodh Gaya,824231,Bihar,IN,https://www.google.com/maps/place/Pachhati+masjid/data=!4m7!3m6!1s0x39f32c42b4b1dd0f:0xd1b399daed9db4cd!8m2!3d24.7010704!4d84.9921807!16s%2Fg%2F11c2q4fxz_!19sChIJD92xtEIs8zkRzbSd7dqZs9E?authuser=0&hl=en&rclk=1,"24.7010704,84.99218069999999"
Dumri Masjid,Mosque,"V253+9V6 Dumri Masjid, Patna - Gaya Rd, Dumri, Bihar 804404",,"V253+9V6, Patna - Gaya Rd",Dumri,804404,Bihar,IN,https://www.google.com/maps/place/Dumri+Masjid/data=!4m7!3m6!1s0x39f2d5c85dcebc2d:0xc8f48d864e57b27c!8m2!3d24.8584056!4d85.0046559!16s%2Fg%2F11f159lb2f!19sChIJLbzOXcjV8jkRfLJXToaN9Mg?authuser=0&hl=en&rclk=1,"24.858405599999998,85.0046559"
"Azizia Masjid, Bhadeja Gaya (Bihar)",Mosque,"Azizia Masjid, Bhadeja Gaya (Bihar), Patna - Gaya - Dobhi Rd, Bhadeja, Bihar 823003",,Patna - Gaya - Dobhi Rd,Bhadeja,823003,Bihar,IN,"https://www.google.com/maps/place/Azizia+Masjid,+Bhadeja+Gaya+%28Bihar%29/data=!4m7!3m6!1s0x39f3297dfc1dbde9:0xedbe540181298824!8m2!3d24.7680933!4d85.0236845!16s%2Fg%2F11c2l8_xln!19sChIJ6b0d_H0p8zkRJIgpgQFUvu0?authuser=0&hl=en&rclk=1","24.7680933,85.0236845"
Masjid Umar,Mosque,"Masjid Umar, Rd Number 15, Aliganj, Gaya, Bihar 823001",Aliganj,Rd Number 15,Gaya,823001,Bihar,IN,https://www.google.com/maps/place/Masjid+Umar/data=!4m7!3m6!1s0x39f32a8b2b9be457:0xd61a7abffef71ee0!8m2!3d24.7966968!4d84.9788531!16s%2Fg%2F11dx9dgsmw!19sChIJV-SbK4sq8zkR4B73_r96GtY?authuser=0&hl=en&rclk=1,"24.7966968,84.9788531"
Shahi Masjid,Mosque,"Q2Q4+2G6 Shahi Masjid, Nadraganj, Ramsagar Road, Gaya, Bihar 823001",Ramna,"Q2Q4+2G6, Nadraganj, Ramsagar Road","Gaya, Kirani Ghat",823001,Bihar,IN,https://www.google.com/maps/place/Shahi+Masjid/data=!4m7!3m6!1s0x39f32a39bc4bc84b:0x2bceb92ebbd1ded5!8m2!3d24.7875387!4d85.0062749!16s%2Fg%2F11c7sr7jnt!19sChIJS8hLvDkq8zkR1d7Ruy65zis?authuser=0&hl=en&rclk=1,"24.7875387,85.0062749"
Bilal Masjid Nauranga.,Mosque,"Q2QG+RV2 Bilal Masjid Nauranga., Sidharthpuri Colony, Manpur, Bihar 823003",Sidharthpuri Colony,Q2QG+RV2,Manpur,823003,Bihar,IN,https://www.google.com/maps/place/Bilal+Masjid+Nauranga./data=!4m7!3m6!1s0x39f329892065c1bd:0xf95a70537f7a75a4!8m2!3d24.7895005!4d85.0271365!16s%2Fg%2F11f3vfpgtc!19sChIJvcFlIIkp8zkRpHV6f1NwWvk?authuser=0&hl=en&rclk=1,"24.7895005,85.0271365"
Jama Masjid & Madarsa Ziyaul Uloom,Mosque,"Jama Masjid & Madarsa Ziyaul Uloom, Ambedkar Rd, old taridih, Bodh Gaya, Bihar 824231",old taridih,Ambedkar Rd,Bodh Gaya,824231,Bihar,IN,https://www.google.com/maps/place/Jama+Masjid+%26+Madarsa+Ziyaul+Uloom/data=!4m7!3m6!1s0x39f32c5b7256f499:0x39c35ea49bb271a1!8m2!3d24.6949482!4d84.9900445!16s%2Fg%2F1hf46hrmh!19sChIJmfRWclss8zkRoXGym6Rewzk?authuser=0&hl=en&rclk=1,"24.6949482,84.9900445"
Mashriqi Masjid,Mosque,"QXWM+P59 Mashriqi Masjid, Rd-2, Aliganj, Gaya, Bihar 823001",Aliganj,"QXWM+P59, Rd-2",Gaya,823001,Bihar,IN,https://www.google.com/maps/place/Mashriqi+Masjid/data=!4m7!3m6!1s0x39f32a600a8d2bfd:0x26e8d8d06f0a129a!8m2!3d24.7967857!4d84.9829824!16s%2Fg%2F11bz_dnlhj!19sChIJ_SuNCmAq8zkRmhIKb9DY6CY?authuser=0&hl=en&rclk=1,"24.796785699999997,84.9829824"
Joda masjid ( piir saahb ),Mosque,"R29H+QJH Joda masjid ( piir saahb ), Joda Masjid Rd, Head Manpur, Bihar 823003",,"R29H+QJH, Joda Masjid Rd",Head Manpur,823003,Bihar,IN,https://www.google.com/maps/place/Joda+masjid+%28+%E0%A4%AA%E0%A5%80%E0%A4%B0+%E0%A4%B8%E0%A4%BE%E0%A4%B9%E0%A4%AC+%29/data=!4m7!3m6!1s0x39f3299201f3a8d9:0x5deb6df7e75c6c03!8m2!3d24.8194444!4d85.029119!16s%2Fg%2F11hz4186ft!19sChIJ2ajzAZIp8zkRA2xc5_dt610?authuser=0&hl=en&rclk=1,"24.8194444,85.029119"
Jamila Masjid,Mosque,"QXWJ+CPW Jamila Masjid, Aliganj, Gaya, Bihar 823001",Aliganj,QXWJ+CPW,Gaya,823001,Bihar,IN,https://www.google.com/maps/place/Jamila+Masjid/data=!4m7!3m6!1s0x39f32a5ff8bf8d6b:0x5dc38d44c3f1ebc4!8m2!3d24.7961076!4d84.9818214!16s%2Fg%2F11f3n22lrj!19sChIJa42_-F8q8zkRxOvxw0SNw10?authuser=0&hl=en&rclk=1,"24.7961076,84.9818214"
"Chotti Masjid, Abgilla",Mosque,"Chotti Masjid, Abgilla, Abgila Water Tank, Gaya-Nawada-Sikandara Rd, Abgilla, Nauranga, Bihar 823003",Abgilla,"Abgila Water Tank, Gaya-Nawada-Sikandara Rd",Nauranga,823003,Bihar,IN,"https://www.google.com/maps/place/Chotti+Masjid,+Abgilla/data=!4m7!3m6!1s0x39f329f36e059745:0x9d96c067796d2dd5!8m2!3d24.800409!4d85.0294811!16s%2Fg%2F11csr2vgv4!19sChIJRZcFbvMp8zkR1S1teWfAlp0?authuser=0&hl=en&rclk=1","24.800409,85.0294811"
Raza Masjid,Mosque,"QXVW+3R8 Raza Masjid, New, Nagmatia Colony, Gaya, Bihar 823001",Nagmatia Colony,"QXVW+3R8, New",Gaya,823001,Bihar,IN,https://www.google.com/maps/place/Raza+Masjid/data=!4m7!3m6!1s0x39f32bc183956ca7:0xe3f532494cd7e14f!8m2!3d24.792658!4d84.9970761!16s%2Fg%2F11f6d25cty!19sChIJp2yVg8Er8zkRT-HXTEky9eM?authuser=0&hl=en&rclk=1,"24.792658,84.9970761"
Ali BABA General Store,General store,"Ali BABA General Store, near Masjid, Old Kareem Ganj, Kareem Ganj, Gaya, Bihar 823001","Old Kareem Ganj, Kareem Ganj",near Masjid,Gaya,823001,Bihar,IN,https://www.google.com/maps/place/Ali+BABA+General+Store/data=!4m7!3m6!1s0x39f32befe7c4d7df:0x8d2c4d3325406555!8m2!3d24.7964527!4d84.9934237!16s%2Fg%2F11jpdzfvg3!19sChIJ39fE5-8r8zkRVWVAJTNNLI0?authuser=0&hl=en&rclk=1,"24.7964527,84.9934237"
Salfia Masjid,Mosque,"QXWX+62W Salfia Masjid, Nagmatia Colony, Gaya, Bihar 823001",Nagmatia Colony,QXWX+62W,Gaya,823001,Bihar,IN,https://www.google.com/maps/place/Salfia+Masjid/data=!4m7!3m6!1s0x39f32a41f4bd2b83:0xc04a95ef8004e2dc!8m2!3d24.7956223!4d84.9975812!16s%2Fg%2F11g6j7sldr!19sChIJgyu99EEq8zkR3OIEgO-VSsA?authuser=0&hl=en&rclk=1,"24.795622299999998,84.9975812"
Mosque,Mosque,"Q2H4+CM6 Mosque, Shankar Rd, Chand Chaura, Gaya, Bihar 823001",Chand Chaura,"Q2H4+CM6, Shankar Rd",Gaya,823001,Bihar,IN,https://www.google.com/maps/place/Mosque/data=!4m7!3m6!1s0x39f32a34d5bec56f:0x7ede51b5b511e2d7!8m2!3d24.7785373!4d85.0066311!16s%2Fg%2F124ynj52l!19sChIJb8W-1TQq8zkR1-IRtbVR3n4?authuser=0&hl=en&rclk=1,"24.7785373,85.00663109999999"
Chhoti Masjid,Mosque,"Q2X6+C79 Chhoti Masjid, Jama Masjid Rd, Murarpur, Gaya, Bihar 823001",Murarpur,"Q2X6+C79, Jama Masjid Rd",Gaya,823001,Bihar,IN,https://www.google.com/maps/place/Chhoti+Masjid/data=!4m7!3m6!1s0x39f32a17cf0b6ec3:0x48e724626e40ed52!8m2!3d24.7985383!4d85.0107266!16s%2Fg%2F11dxqjt0rg!19sChIJw24Lzxcq8zkRUu1AbmIk50g?authuser=0&hl=en&rclk=1,"24.7985383,85.0107266"
Chaman Masjid Manpur,Mosque,"Chaman Masjid Manpur, State Highway 4 Head Manpur Takiya Head Manpur, Gaya, Bihar 823003",Head Manpur Takiya,State Highway 4 Head Manpur Takiya Head Manpur,Gaya,823003,Bihar,IN,https://www.google.com/maps/place/Chaman+Masjid+Manpur/data=!4m7!3m6!1s0x39f2d6027ef219bb:0xf9748dcb06932270!8m2!3d24.8221749!4d85.0309423!16s%2Fg%2F1pt_qp_16!19sChIJuxnyfgLW8jkRcCKTBsuNdPk?authuser=0&hl=en&rclk=1,"24.8221749,85.03094229999999"
Noori masjid Bhusunda,Mosque,"Q2MC+VXW Noori masjid Bhusunda, Bhusanda, Bihar 823003",,Q2MC+VXW,Bhusanda,823003,Bihar,IN,https://www.google.com/maps/place/Noori+masjid+Bhusunda/data=!4m7!3m6!1s0x39f329965e1165d7:0x2043840917986574!8m2!3d24.7847478!4d85.0224383!16s%2Fg%2F11fjty593t!19sChIJ12URXpYp8zkRdGWYFwmEQyA?authuser=0&hl=en&rclk=1,"24.784747799999998,85.02243829999999"
Surehri masjid,Mosque,"Surehri masjid, Surehri nr, Bhadeja, Bihar 823003",,Surehri nr,Bhadeja,823003,Bihar,IN,https://www.google.com/maps/place/Surehri+masjid/data=!4m7!3m6!1s0x39f329995d5d4249:0xdacca53fa46f505c!8m2!3d24.7711392!4d85.0240516!16s%2Fg%2F11gx_0s2zm!19sChIJSUJdXZkp8zkRXFBvpD-lzNo?authuser=0&hl=en&rclk=1,"24.7711392,85.02405159999999"
Police Line Masjid.,Mosque,"QXJR+VGQ Police Line Masjid., Police line, Masjid Rd, Gewalbigha, Gaya, Bihar 823001","Ram Pur, Gewalbigha","QXJR+VGQ, Police line, Masjid Rd",Gaya,823001,Bihar,IN,https://www.google.com/maps/place/Police+Line+Masjid./data=!4m7!3m6!1s0x39f32bfd0f9ff357:0xcdcf19743ff6400a!8m2!3d24.7822058!4d84.9913636!16s%2Fg%2F11fn5zn4mq!19sChIJV_OfD_0r8zkRCkD2P3QZz80?authuser=0&hl=en&rclk=1,"24.7822058,84.9913636"
Masjid khatim'un Nabiyeen,Religious destination,"Masjid khatim'un Nabiyeen, faiz colony, new, Katari, Aliganj, Gaya, Bihar 823001","Katari, Aliganj","faiz colony, new",Gaya,823001,Bihar,IN,https://www.google.com/maps/place/Masjid+khatim%27un+Nabiyeen/data=!4m7!3m6!1s0x39f32bb4059cd093:0x4b9b853c5545ac78!8m2!3d24.7975875!4d84.973652!16s%2Fg%2F11h1kbsx3l!19sChIJk9CcBbQr8zkReKxFVTyFm0s?authuser=0&hl=en&rclk=1,"24.7975875,84.973652"
Chatta Masjid,Mosque,"QXWP+7X9 Chatta Masjid, Old Kareem Ganj, Kareem Ganj, Gaya, Bihar 823001","Old Kareem Ganj, Kareem Ganj",QXWP+7X9,Gaya,823001,Bihar,IN,https://www.google.com/maps/place/Chatta+Masjid/data=!4m7!3m6!1s0x39f32a5de5dc0aa7:0x410aa773f7353113!8m2!3d24.7956737!4d84.9874937!16s%2Fg%2F11s0s61pqd!19sChIJpwrc5V0q8zkREzE193OnCkE?authuser=0&hl=en&rclk=1,"24.7956737,84.9874937"
Markaz Mosque,Mosque,"Q2W4+9X4 Markaz Mosque, Dr Wazir Ali Rd, Purani Godaam, Dulhingunj, Gaya, Bihar 823001","Purani Godaam, Dulhingunj","Q2W4+9X4, Dr Wazir Ali Rd",Gaya,823001,Bihar,IN,https://www.google.com/maps/place/Markaz+Mosque/data=!4m7!3m6!1s0x39f32a3e7497f39f:0xf90ae15b475dfd45!8m2!3d24.7958847!4d85.0074651!16s%2Fg%2F11f_0t2705!19sChIJn_OXdD4q8zkRRf1dR1vhCvk?authuser=0&hl=en&rclk=1,"24.7958847,85.00746509999999"
Al-hamd Masjid,Mosque,"R2P5+FQJ Al-hamd Masjid, Ahmad Colony, Kandi, Bihar 823002",Ahmad Colony,R2P5+FQJ,Kandi,823002,Bihar,IN,https://www.google.com/maps/place/Al-hamd+Masjid/data=!4m7!3m6!1s0x39f2d5dff1cd1dbd:0xb8c3e3ae3ce6b280!8m2!3d24.836224!4d85.0093783!16s%2Fg%2F11g0mryhrx!19sChIJvR3N8d_V8jkRgLLmPK7jw7g?authuser=0&hl=en&rclk=1,"24.836223999999998,85.0093783"
Warish Nagar Masjid,Mosque,"Warish Nagar Masjid, Warish Nagar, Ramshila, Gaya, Bihar 823001",Ramshila,Warish Nagar,Gaya,823001,Bihar,IN,https://www.google.com/maps/place/Warish+Nagar+Masjid/data=!4m7!3m6!1s0x39f32b81ed446435:0xbe1ad2f6de0b3dc4!8m2!3d24.8128392!4d85.0165368!16s%2Fg%2F11n5v3gb6d!19sChIJNWRE7YEr8zkRxD0L3vbSGr4?authuser=0&hl=en&rclk=1,"24.8128392,85.0165368"
Panhar Masjid,Mosque,"R226+9JV Panhar Masjid, Murarpur Rd, Murarpur, Gaya, Bihar 823001",Murarpur,"R226+9JV, Murarpur Rd",Gaya,823001,Bihar,IN,https://www.google.com/maps/place/Panhar+Masjid/data=!4m7!3m6!1s0x39f32a170c8b0581:0x5cd2e615435a3006!8m2!3d24.8009797!4d85.0115351!16s%2Fg%2F11c6rj9sl7!19sChIJgQWLDBcq8zkRBjBaQxXm0lw?authuser=0&hl=en&rclk=1,"24.8009797,85.0115351"
Bari Masjid,Place of worship,"Bari Masjid, Swarajpuri Rd, Maroof Ganj, Gaya, Bihar 823001",Maroof Ganj,Swarajpuri Rd,Gaya,823001,Bihar,IN,https://www.google.com/maps/place/Bari+Masjid/data=!4m7!3m6!1s0x39f32a6a90fe5d21:0x825a05755bac9adb!8m2!3d24.7977982!4d85.0006879!16s%2Fg%2F11dzwbg9gh!19sChIJIV3-kGoq8zkR25qsW3UFWoI?authuser=0&hl=en&rclk=1,"24.7977982,85.0006879"
Masjid E Ghazi,Mosque,"Masjid E Ghazi, Gulam Rasool Khan Rd, Gaya, Akthu Kachanpur, Bihar 804404",,Gulam Rasool Khan Rd,"Gaya, Akthu Kachanpur",804404,Bihar,IN,https://www.google.com/maps/place/Masjid+E+Ghazi/data=!4m7!3m6!1s0x39f2d490591f7f47:0x5042a8115320412!8m2!3d24.9007937!4d84.9689138!16s%2Fg%2F11dfsvlsqf!19sChIJR38fWZDU8jkREgQyFYEqBAU?authuser=0&hl=en&rclk=1,"24.900793699999998,84.9689138"
Masjid Ummul Qura,Mosque,"Masjid Ummul Qura, White House Compound, Road Number 2, near Dr. Barkat, Gaya, Bihar 823001","White House Compound, Judges Colony","White House Compound, Road Number 2, near Dr. Barkat",Gaya,823001,Bihar,IN,https://www.google.com/maps/place/Masjid+Ummul+Qura/data=!4m7!3m6!1s0x39f32a5b529476b7:0xddd60edc669759b0!8m2!3d24.7903836!4d84.9920448!16s%2Fg%2F11g81h48vd!19sChIJt3aUUlsq8zkRsFmXZtwO1t0?authuser=0&hl=en&rclk=1,"24.7903836,84.9920448"
Durga Bari Masjid,Mosque,"Q2W3+6H7 Durga Bari Masjid, Enayat Colony, Gaya, Bihar 823001",Enayat Colony,Q2W3+6H7,Gaya,823001,Bihar,IN,https://www.google.com/maps/place/Durga+Bari+Masjid/data=!4m7!3m6!1s0x39f32b4587a58e2f:0x82d7a543c302504!8m2!3d24.7955331!4d85.0039279!16s%2Fg%2F11h87sjwq4!19sChIJL46lh0Ur8zkRBCUwPFR6LQg?authuser=0&hl=en&rclk=1,"24.7955331,85.0039279"
Enayat Colony Masjid Gaya Bihar,Mosque,"Enayat Colony Masjid Gaya Bihar, B/17, Bari Rd, Enayat Colony, Gaya, Bihar 823001",Enayat Colony,"B/17, Bari Rd",Gaya,823001,Bihar,IN,https://www.google.com/maps/place/Enayat+Colony+Masjid+Gaya+Bihar/data=!4m7!3m6!1s0x39f32b0f1be64b5d:0x12f8a41ac8418431!8m2!3d24.7937861!4d85.0022892!16s%2Fg%2F11rsbn0fbf!19sChIJXUvmGw8r8zkRMYRByBqk-BI?authuser=0&hl=en&rclk=1,"24.7937861,85.00228919999999"
Enayat Colony Masjid,Mosque,"Q2V3+897 Enayat Colony Masjid, Enayat Colony, Gaya, Bihar 823001",Enayat Colony,Q2V3+897,Gaya,823001,Bihar,IN,https://www.google.com/maps/place/Enayat+Colony+Masjid/data=!4m7!3m6!1s0x39f32b06e6944c45:0xa6861d1fa5f5704a!8m2!3d24.793286!4d85.0034087!16s%2Fg%2F11hksx7l6g!19sChIJRUyU5gYr8zkRSnD1pR8dhqY?authuser=0&hl=en&rclk=1,"24.793286,85.0034087"
Ahmad Raza Masjid ahmd rj'aa msjid,Mosque,"Ahmad Raza Masjid ahmd rj'aa msjid, Islamganj, Katari Hill Rd, Gaya, Bihar 823001","Katari, Aliganj","Islamganj, Katari Hill Rd",Gaya,823001,Bihar,IN,https://www.google.com/maps/place/Ahmad+Raza+Masjid+%E0%A4%85%E0%A4%B9%E0%A4%AE%E0%A4%A6+%E0%A4%B0%E0%A4%9C%E0%A4%BC%E0%A4%BE+%E0%A4%AE%E0%A4%B8%E0%A5%8D%E0%A4%9C%E0%A4%BF%E0%A4%A6/data=!4m7!3m6!1s0x39f32b5cf404844f:0xabf971eb70162f4e!8m2!3d24.795132!4d84.9685534!16s%2Fg%2F11gn25_l9t!19sChIJT4QE9Fwr8zkRTi8WcOtx-as?authuser=0&hl=en&rclk=1,"24.795132,84.96855339999999"
Husaini Masjid,Mosque,"Husaini Masjid, Manpur Patwatoli, Murarpur, Gaya, Manpur, Bihar 823003","Manpur Patwatoli, Murarpur",,"Gaya, Manpur",823003,Bihar,IN,https://www.google.com/maps/place/Husaini+Masjid/data=!4m7!3m6!1s0x39f329f8d11ada35:0x8236d50a2ac1d62a!8m2!3d24.8153491!4d85.0254304!16s%2Fg%2F11c2q55gq4!19sChIJNdoa0fgp8zkRKtbBKgrVNoI?authuser=0&hl=en&rclk=1,"24.8153491,85.02543039999999"
Madina Masjid (Bhagwanpur),Mosque,"PX2F+MX8 Madina Masjid (Bhagwanpur), Bhagalpur, Bhagwanpur, Bodh Gaya, Bihar 824231","Bhagalpur, Bhagwanpur",PX2F+MX8,Bodh Gaya,,Bihar,IN,https://www.google.com/maps/place/Madina+Masjid+%28Bhagwanpur%29/data=!4m7!3m6!1s0x39f32d37ffb613eb:0x9c46734499c8f77c!8m2!3d24.7016601!4d84.9749572!16s%2Fg%2F11ryhydq7r!19sChIJ6xO2_zct8zkRfPfImURzRpw?authuser=0&hl=en&rclk=1,"24.701660099999998,84.97495719999999"
Masjid,Mosque,"Q2V4+HRP Masjid, Gautam Buddha Rd, Durga Bari, Gaya, Bihar 823001",Durga Bari,"Q2V4+HRP, Gautam Buddha Rd",Gaya,823001,Bihar,IN,https://www.google.com/maps/place/Masjid/data=!4m7!3m6!1s0x39f32a3e8f8569a1:0xa6e4aecbee24a44b!8m2!3d24.793962!4d85.0070769!16s%2Fg%2F1261xgwq7!19sChIJoWmFjz4q8zkRS6Qk7suu5KY?authuser=0&hl=en&rclk=1,"24.793962,85.0070769"
Masjid Kathokar Talab,Mosque,"Q2W4+Q6C Masjid Kathokar Talab, Purani Godaam, Dulhingunj, Gaya, Bihar 823001","Purani Godaam, Dulhingunj",Q2W4+Q6C,Gaya,823001,Bihar,IN,https://www.google.com/maps/place/Masjid+Kathokar+Talab/data=!4m7!3m6!1s0x39f32b91b0213715:0xee96a712570404f!8m2!3d24.7969007!4d85.0054512!16s%2Fg%2F11s2nrdvq3!19sChIJFTchsJEr8zkRT0BwJXFq6Q4?authuser=0&hl=en&rclk=1,"24.7969007,85.0054512"
"Masjid-E-Taibah, Saraiya,Gaya",Mosque,"Masjid-E-Taibah, Saraiya,Gaya, Bazar, Main road, Saraiya, Gaya, Bihar 805131",,"Bazar, Main road, Saraiya","Gaya, Dohari",805131,Bihar,IN,"https://www.google.com/maps/place/Masjid-E-Taibah,+Saraiya,Gaya/data=!4m7!3m6!1s0x39f2d79f5316f3b7:0xbfbb72c0058ccc9b!8m2!3d24.8255619!4d85.090139!16s%2Fg%2F11llk6rmcj!19sChIJt_MWU5_X8jkRm8yMBcByu78?authuser=0&hl=en&rclk=1","24.8255619,85.090139"
QASMIYA MASJID MADARSA GAYA (BIHAR),Mosque,"QASMIYA MASJID MADARSA GAYA (BIHAR), Magadh Super 30, Dr Haridas Chatterjee Ln, Durga Bari, Gaya, Bihar 823001",Durga Bari,"Magadh Super 30, Dr Haridas Chatterjee Ln",Gaya,823001,Bihar,IN,https://www.google.com/maps/place/QASMIYA+MASJID+MADARSA+GAYA+%28BIHAR%29/data=!4m7!3m6!1s0x39f32b425047ae1d:0xad9a6d8df43b1a0e!8m2!3d24.794096!4d85.0052507!16s%2Fg%2F11s2nr6yq9!19sChIJHa5HUEIr8zkRDho79I1tmq0?authuser=0&hl=en&rclk=1,"24.794096,85.00525069999999"
Badi masjid karimganj,Mosque,"QXWV+F84 Badi masjid karimganj, Old Kareem Ganj, Kareem Ganj, Gaya, Bihar 823001","Old Kareem Ganj, Kareem Ganj",QXWV+F84,Gaya,823001,Bihar,IN,https://www.google.com/maps/place/Badi+masjid+karimganj/data=!4m7!3m6!1s0x39f32baf495d4009:0x165e950b9cdc9210!8m2!3d24.7961954!4d84.9931869!16s%2Fg%2F11s3r_g0w8!19sChIJCUBdSa8r8zkREJLcnAuVXhY?authuser=0&hl=en&rclk=1,"24.7961954,84.9931869"
Loco masjid,Mosque,"R262+HRM Loco masjid, Loco Colony, Gaya, Bihar 823001",Loco Colony,R262+HRM,Gaya,823001,Bihar,IN,https://www.google.com/maps/place/Loco+masjid/data=!4m7!3m6!1s0x39f32b62c6b87857:0x9e15d96fe792bb5!8m2!3d24.8114515!4d85.0020612!16s%2Fg%2F11h88t7vsd!19sChIJV3i4xmIr8zkRtSt5_pZd4Qk?authuser=0&hl=en&rclk=1,"24.8114515,85.0020612"
Near AT gate masjid,Mosque,"QX62+H93 Near AT gate masjid, AT Gate Rd, Neema Tola, Dhansir, Gaya, Bihar 823005",Neema Tola,"QX62+H93, AT Gate Rd","Dhansir, Gaya",,Bihar,IN,https://www.google.com/maps/place/Near+AT+gate+masjid/data=!4m7!3m6!1s0x39f32b1fc72d3d19:0x369ad34d14668884!8m2!3d24.761384!4d84.9509101!16s%2Fg%2F11kpyfmd_v!19sChIJGT0txx8r8zkRhIhmFE3TmjY?authuser=0&hl=en&rclk=1,"24.761384,84.9509101"
Baata moor masjid,Mosque,"Q2X2+M75 Baata moor masjid, Baata moor, Station Rd, near Mahavir Inter School, Gol Bagicha, Gaya, Bihar 823001",Gol Bagicha,"Q2X2+M75, Baata moor, Station Rd, near Mahavir Inter School",Gaya,823001,Bihar,IN,https://www.google.com/maps/place/Baata+moor+masjid/data=!4m7!3m6!1s0x39f32bcb78dea257:0xd1c1cd503a51501d!8m2!3d24.7991381!4d85.0007309!16s%2Fg%2F11f9g6hkyf!19sChIJV6LeeMsr8zkRHVBROlDNwdE?authuser=0&hl=en&rclk=1,"24.7991381,85.0007309"
Tootwari Masjid,Mosque,"R236+HRC Tootwari Masjid, Murarpur, Gaya, Bihar 823001",Murarpur,R236+HRC,Gaya,823001,Bihar,IN,https://www.google.com/maps/place/Tootwari+Masjid/data=!4m7!3m6!1s0x39f32b20cbaa88f3:0x7c655e263e2031ff!8m2!3d24.8039262!4d85.0120111!16s%2Fg%2F11gxxxbn91!19sChIJ84iqyyAr8zkR_zEgPiZeZXw?authuser=0&hl=en&rclk=1,"24.8039262,85.0120111"
Mosque ajejeya,Mosque,"QX4F+W96 Mosque ajejeya, Kajichak, Paharpur, Gaya, Bihar 823004",Paharpur,"QX4F+W96, Kajichak","Gaya, Dubhal",823004,Bihar,IN,https://www.google.com/maps/place/Mosque+ajejeya/data=!4m7!3m6!1s0x39f32b07133e036f:0x4883d867bd34a6d0!8m2!3d24.7572951!4d84.9733814!16s%2Fg%2F11q58fbplq!19sChIJbwM-Ewcr8zkR0KY0vWfYg0g?authuser=0&hl=en&rclk=1,"24.7572951,84.9733814"
Mosque,Mosque,"QXVX+3FR Mosque, new, Nagmatia Colony, Gaya, Bihar 823001",Nagmatia Colony,"QXVX+3FR, new",Gaya,823001,Bihar,IN,https://www.google.com/maps/place/Mosque/data=!4m7!3m6!1s0x39f32b1c748065ed:0xdd8cf2ce3f4fbed0!8m2!3d24.7927417!4d84.9986554!16s%2Fg%2F11ghpy5tzl!19sChIJ7WWAdBwr8zkR0L5PP87yjN0?authuser=0&hl=en&rclk=1,"24.7927417,84.99865539999999"
Yusuf Masjid,Mosque,"R237+CJ5 Yusuf Masjid, Panchaiti Akhara, Gaya, Bihar 823001",Panchaiti Akhara,R237+CJ5,Gaya,823001,Bihar,IN,https://www.google.com/maps/place/Yusuf+Masjid/data=!4m7!3m6!1s0x39f32b402f815435:0x8094e8f5cd1e3d51!8m2!3d24.8035104!4d85.0140977!16s%2Fg%2F11krbpc546!19sChIJNVSBL0Ar8zkRUT0ezfXolIA?authuser=0&hl=en&rclk=1,"24.8035104,85.0140977"
Masjid Tekari Road,Mosque,"Q2X4+FQ5 Masjid Tekari Road, Dhamitola, Dulhingunj, Gaya, Bihar 823001","Dhamitola, Dulhingunj",Q2X4+FQ5,Gaya,823001,Bihar,IN,https://www.google.com/maps/place/Masjid+Tekari+Road/data=!4m7!3m6!1s0x39f32b65492e37cf:0xdb6aa83a91816708!8m2!3d24.7986465!4d85.0069693!16s%2Fg%2F11t0rv7tmj!19sChIJzzcuSWUr8zkRCGeBkTqoats?authuser=0&hl=en&rclk=1,"24.7986465,85.0069693"
Jafra masjid / ,Mosque,"Q2R2+H35 Jafra masjid / , Nagmatia Colony, Gaya, Bihar 823001",Nagmatia Colony,Q2R2+H35,Gaya,,Bihar,IN,https://www.google.com/maps/place/Jafra+masjid%E0%A5%A4/data=!4m7!3m6!1s0x39f32b3d35df7bb7:0x35d8d5dbdd9ebd9!8m2!3d24.7913957!4d85.0002336!16s%2Fg%2F11s8gvp549!19sChIJt3vfNT0r8zkR2evZvV2NXQM?authuser=0&hl=en&rclk=1,"24.7913957,85.0002336"
Choti Masjid,Mosque,"Q2W4+9XJ Choti Masjid, Dr Wazir Ali Rd, Purani Godaam, Dulhingunj, Gaya, Bihar 823001","Purani Godaam, Dulhingunj","Q2W4+9XJ, Dr Wazir Ali Rd",Gaya,823001,Bihar,IN,https://www.google.com/maps/place/Choti+Masjid/data=!4m7!3m6!1s0x39f32b504486e915:0x1d3e99b785384447!8m2!3d24.7959511!4d85.0073791!16s%2Fg%2F11rw7msdl3!19sChIJFemGRFAr8zkRR0Q4hbeZPh0?authuser=0&hl=en&rclk=1,"24.7959511,85.0073791"
Masjid,Place of worship,"R243+9WC Masjid, Ambedakar Nagar, Panchaiti Akhara, Gaya, Bihar 823001","Ambedakar Nagar, Panchaiti Akhara",R243+9WC,Gaya,823001,Bihar,IN,https://www.google.com/maps/place/Masjid/data=!4m7!3m6!1s0x39f32bb664d980e5:0xe37d493e203cf8f5!8m2!3d24.8059499!4d85.00475!16s%2Fg%2F11kg9c3p6h!19sChIJ5YDZZLYr8zkR9fg8ID5JfeM?authuser=0&hl=en&rclk=1,"24.805949899999998,85.00475"
Jamal Masjid Murarpur,Mosque,"R225+PF6 Jamal Masjid Murarpur, Khairat Ahmad Rd, Gol Bagicha, Gaya, Bihar 823001",Gol Bagicha,"R225+PF6, Khairat Ahmad Rd",Gaya,823001,Bihar,IN,https://www.google.com/maps/place/Jamal+Masjid+Murarpur/data=!4m7!3m6!1s0x39f32b9bc4b7ffc1:0x8d45170d37577e5b!8m2!3d24.8016821!4d85.0086218!16s%2Fg%2F11t0rwjcb0!19sChIJwf-3xJsr8zkRW35XNw0XRY0?authuser=0&hl=en&rclk=1,"24.801682099999997,85.0086218"
Masjid Shahabuddin,Mosque,"Q2W5+CHP Masjid Shahabuddin, KP Road Chowk, Gaya, Bihar 823001",Dulhingunj,"Q2W5+CHP, KP Road Chowk",Gaya,823001,Bihar,IN,https://www.google.com/maps/place/Masjid+Shahabuddin/data=!4m7!3m6!1s0x39f32a3dea99e245:0x132b7d95e54cef7e!8m2!3d24.7960767!4d85.0089541!16s%2Fg%2F11g6xgbph_!19sChIJReKZ6j0q8zkRfu9M5ZV9KxM?authuser=0&hl=en&rclk=1,"24.7960767,85.0089541"
Masjid Naye Godwon G B Road,Mosque,"Masjid Naye Godwon G B Road, R235+FW4 New Godwon, Bahorabigha, Ambedakar Nagar, Gaya, Bihar 823001","New Godwon, Bahorabigha, Ambedakar Nagar, Murarpur",R235+FW4 New Godwon,Gaya,823001,Bihar,IN,https://www.google.com/maps/place/Masjid+Naye+Godwon+G+B+Road/data=!4m7!3m6!1s0x39f32bab5b7c5acb:0x278b77c7375bfb42!8m2!3d24.803648!4d85.009819!16s%2Fg%2F11t2b1rbl1!19sChIJy1p8W6sr8zkRQvtbN8d3iyc?authuser=0&hl=en&rclk=1,"24.803648,85.009819"
Jama Masjid Society,Apartment building,"Q2X6+F8C Jama Masjid Society, Jama Masjid Rd, Murarpur, Gaya, Bihar 823001",Murarpur,"Q2X6+F8C, Jama Masjid Rd",Gaya,823001,Bihar,IN,https://www.google.com/maps/place/Jama+Masjid+Society/data=!4m7!3m6!1s0x39f32bb101f5afcd:0x372635d352508ed2!8m2!3d24.798681!4d85.0107514!16s%2Fg%2F11q8wwvp8t!19sChIJza_1AbEr8zkR0o5QUtM1Jjc?authuser=0&hl=en&rclk=1,"24.798681,85.01075139999999"
Badi Masjid,Mosque,"R23H+JJG Badi Masjid, Abgila Rd, Manpur, Nauranga, Bihar 823003",,"R23H+JJG, Abgila Rd","Manpur, Nauranga",823003,Bihar,IN,https://www.google.com/maps/place/Badi+Masjid/data=!4m7!3m6!1s0x39f329145519f51b:0xbd5af9fa4eb40455!8m2!3d24.8040617!4d85.0290908!16s%2Fg%2F11rs0rp8nm!19sChIJG_UZVRQp8zkRVQS0Tvr5Wr0?authuser=0&hl=en&rclk=1,"24.8040617,85.02909079999999"
New abgila pahartalli Masjid,Mosque,"R23J+94C New abgila pahartalli Masjid, Nauranga, Bihar 823003",,R23J+94C,Nauranga,823003,Bihar,IN,https://www.google.com/maps/place/New+abgila+pahartalli+Masjid/data=!4m7!3m6!1s0x39f32947b3d5c57f:0x7581b877b63d5518!8m2!3d24.8034419!4d85.0302802!16s%2Fg%2F11ty1vr58d!19sChIJf8XVs0cp8zkRGFU9tne4gXU?authuser=0&hl=en&rclk=1,"24.8034419,85.03028019999999"
Noori masjid,Mosque,"R28H+62G Noori masjid, Purana madarsa pehani, Manpur, Bihar 823003",Manpur Patwatoli,"R28H+62G, Purana madarsa pehani",Manpur,823003,Bihar,IN,https://www.google.com/maps/place/Noori+masjid/data=!4m7!3m6!1s0x39f329bfcb4c661f:0x5c5d16a0c5cd28bc!8m2!3d24.8155602!4d85.0275738!16s%2Fg%2F11rxqqx5fb!19sChIJH2ZMy78p8zkRvCjNxaAWXVw?authuser=0&hl=en&rclk=1,"24.8155602,85.0275738"
New imambada,Mosque,"Q2WH+WPF New imambada, Abgilla, Nauranga, Bihar 823003",Abgilla,Q2WH+WPF,Nauranga,823003,Bihar,IN,https://www.google.com/maps/place/New+imambada/data=!4m7!3m6!1s0x39f3299da472e941:0xca557b896065f40b!8m2!3d24.7973012!4d85.029287!16s%2Fg%2F11n153_k4j!19sChIJQelypJ0p8zkRC_RlYIl7Vco?authuser=0&hl=en&rclk=1,"24.7973012,85.029287"
Masjid,Mosque,"Masjid, 194, Tekari Road, More, near Bata Store, Gaya, Bihar 823001",Maroof Ganj,"194, Tekari Road, More, near Bata Store",Gaya,823001,Bihar,IN,https://www.google.com/maps/place/Masjid/data=!4m7!3m6!1s0x39f32ba381836c99:0x37e4d64d67870cf3!8m2!3d24.7992945!4d85.0008348!16s%2Fg%2F11sbqjjr_f!19sChIJmWyDgaMr8zkR8wyHZ03W5Dc?authuser=0&hl=en&rclk=1,"24.7992945,85.00083479999999"
Tilha Wali Masjid Gaya,Mosque,"Tilha Wali Masjid Gaya, Q2M4+M58 Basanta Rd, Ramsagar Rd, Chand Chaura, Gaya, Bihar 823001",Chand Chaura,"Q2M4+M58 Basanta Rd, Ramsagar Rd","Gaya, Kirani Ghat",823001,Bihar,IN,https://www.google.com/maps/place/Tilha+Wali+Masjid+Gaya/data=!4m7!3m6!1s0x39f32b6d82710fb9:0x6d521f30c6bab4a8!8m2!3d24.7841968!4d85.0054053!16s%2Fg%2F11ssfqz31c!19sChIJuQ9xgm0r8zkRqLS6xjAfUm0?authuser=0&hl=en&rclk=1,"24.7841968,85.00540529999999"
Iqra Masjid (qr msjd),Mosque,"R247+FWR Iqra Masjid (qr msjd), Maksudpur Kothi Compound, Panchaiti Akhara, Gaya, Bihar 823001","Maksudpur Kothi Compound, Panchaiti Akhara",R247+FWR,Gaya,823001,Bihar,IN,https://www.google.com/maps/place/Iqra+Masjid+%28%D8%A7%D9%82%D8%B1%D8%A7+%D9%85%D8%B3%D8%AC%D8%AF%29%E2%80%AD/data=!4m7!3m6!1s0x39f32b7bff406d51:0x2b31b72038891ae2!8m2!3d24.8062307!4d85.0147736!16s%2Fg%2F11l33x1gww!19sChIJUW1A_3sr8zkR4hqJOCC3MSs?authuser=0&hl=en&rclk=1,"24.8062307,85.0147736"
Madina Masjid,Mosque,"R258+Q29 Madina Masjid, Eqbal nagar, Gaya, Bihar 823001",Eqbal nagar,R258+Q29,Gaya,,Bihar,IN,https://www.google.com/maps/place/Madina+Masjid/data=!4m7!3m6!1s0x39f32b7e6611483b:0x1a07ad698c77f2f0!8m2!3d24.8094234!4d85.0151028!16s%2Fg%2F11ghzsw6cm!19sChIJO0gRZn4r8zkR8PJ3jGmtBxo?authuser=0&hl=en&rclk=1,"24.8094234,85.0151028"
Shera Shahid Masjid,Mosque,"Q2X5+V34 Shera Shahid Masjid, Fetah Bahadur Shiwala Road, Gol Bagicha, Gaya, Bihar 823001",Gol Bagicha,"Q2X5+V34, Fetah Bahadur Shiwala Road",Gaya,823001,Bihar,IN,https://www.google.com/maps/place/Shera+Shahid+Masjid/data=!4m7!3m6!1s0x39f32b58a46b610d:0xf9e29a129cb0b750!8m2!3d24.7996386!4d85.0077161!16s%2Fg%2F11t2b0wc8f!19sChIJDWFrpFgr8zkRULewnBKa4vk?authuser=0&hl=en&rclk=1,"24.799638599999998,85.0077161"
Pshr hata masjid ( pshr htt msjd),Mosque,"Q2V6+W54 Pshr hata masjid ( pshr htt msjd), Durga Bari, Gaya, Bihar 823001",Durga Bari,Q2V6+W54,Gaya,823001,Bihar,IN,https://www.google.com/maps/place/Pshr+hata+masjid+%28+%D9%BE%D8%B4%D8%B1+%DB%81%D9%B9%D8%A7+%D9%85%D8%B3%D8%AC%D8%AF%29%E2%80%AD/data=!4m7!3m6!1s0x39f32b8860b0149d:0xbebbbf06d8098983!8m2!3d24.7948449!4d85.0105217!16s%2Fg%2F11kjjnt5s2!19sChIJnRSwYIgr8zkRg4kJ2Aa_u74?authuser=0&hl=en&rclk=1,"24.794844899999998,85.0105217"
Mohammadpur masjid,Mosque,"Q2R2+H35 Mohammadpur masjid, Mohammadpur po+ps guraru, dist, Gaya, Bihar",Nagmatia Colony,"Q2R2+H35, Mohammadpur po+ps guraru, dist",Gaya,,Bihar,IN,https://www.google.com/maps/place/Mohammadpur+masjid/data=!4m7!3m6!1s0x39f32bd19dab03ab:0xa59db42632a7837a!8m2!3d24.7913957!4d85.0002336!16s%2Fg%2F11td402ymp!19sChIJqwOrndEr8zkReoOnMia0naU?authuser=0&hl=en&rclk=1,"24.7913957,85.0002336"
Mustafa Masjid,Mosque,"Q2V2+R9V Mustafa Masjid, Millat Colony, Enayat Colony, Cherki, Gaya, Bihar 823004","Millat Colony, Enayat Colony",Q2V2+R9V,"Cherki, Gaya",823004,Bihar,IN,https://www.google.com/maps/place/Mustafa+Masjid/data=!4m7!3m6!1s0x39f32ba7d3fde1cf:0x683957e6ceb3e886!8m2!3d24.7946143!4d85.0009259!16s%2Fg%2F11s1pv2fjd!19sChIJz-H906cr8zkRhuizzuZXOWg?authuser=0&hl=en&rclk=1,"24.7946143,85.0009259"
Nuri masjid,Mosque,"QXW8+HJQ Nuri masjid, Gaya, Bihar 824209",,QXW8+HJQ,Gaya,,Bihar,IN,https://www.google.com/maps/place/Nuri+masjid/data=!4m7!3m6!1s0x39f32b94c991e9e7:0x69ce5f9db56dde21!8m2!3d24.7964697!4d84.9666014!16s%2Fg%2F11vd8q0g03!19sChIJ5-mRyZQr8zkRId5ttZ1fzmk?authuser=0&hl=en&rclk=1,"24.7964697,84.9666014"
Raza Majid,Mosque,"QXXF+97M Raza Majid, New Aliganj Faiz colony, near Raja masjid, Gaya, Bihar 823001","Katari, Aliganj","QXXF+97M, New Aliganj Faiz colony, near Raja masjid",Gaya,823001,Bihar,IN,https://www.google.com/maps/place/Raza+Majid/data=!4m7!3m6!1s0x39f32b243aa01569:0xb200176b915729e2!8m2!3d24.7984509!4d84.973162!16s%2Fg%2F11t8br4d_b!19sChIJaRWgOiQr8zkR4ilXkWsXALI?authuser=0&hl=en&rclk=1,"24.7984509,84.973162"
Gaya,Mosque,"R245+VV8 Gaya, Ambedakar Nagar, Panchaiti Akhara, Gaya, Bihar 823001","Ambedakar Nagar, Panchaiti Akhara",R245+VV8,Gaya,823001,Bihar,IN,https://www.google.com/maps/place/Gaya/data=!4m7!3m6!1s0x39f32b968d6077e3:0x70a6fda86f4c9167!8m2!3d24.8071548!4d85.009702!16s%2Fg%2F11vj8bjjc6!19sChIJ43dgjZYr8zkRZ5FMb6j9pnA?authuser=0&hl=en&rclk=1,"24.8071548,85.00970199999999"
Munni masjid lane,Housing society,"QXMW+CX4 Munni masjid lane, Gaya - Bodhgaya Rd, Gewalbigha, Gaya, Bihar 823001",Gewalbigha,"QXMW+CX4, Gaya - Bodhgaya Rd",Gaya,823001,Bihar,IN,https://www.google.com/maps/place/Munni+masjid+lane/data=!4m7!3m6!1s0x39f32ba2bc5a089f:0x5e7f922bbd7ad87f!8m2!3d24.7835065!4d84.9974673!16s%2Fg%2F11q1czfzrw!19sChIJnwhavKIr8zkRf9h6vSuSf14?authuser=0&hl=en&rclk=1,"24.783506499999998,84.9974673"
Baber,Department of education,"QXWX+FHG Baber, Baniya pokhar, near salfiy masjid, Nagmatia Colony, Gaya, Bihar 823001",Nagmatia Colony,"QXWX+FHG Baniya pokhar, near salfiy masjid",Gaya,,Bihar,IN,https://www.google.com/maps/place/Baber/data=!4m7!3m6!1s0x39f32bebb77e808d:0x6039f348ef9da96a!8m2!3d24.7961864!4d84.9989663!16s%2Fg%2F11nn7b3p1l!19sChIJjYB-t-sr8zkRaqmd70jzOWA?authuser=0&hl=en&rclk=1,"24.7961864,84.99896629999999"
Masjid Road No 5,,"QXWP+4H9 Masjid Road No 5, New karimganj road no 5, Main Rd, Old Kareem Ganj, Kareem Ganj, Gaya, Bihar 823001","Old Kareem Ganj, Kareem Ganj","QXWP+4H9, New karimganj road no 5, Main Rd",Gaya,823001,Bihar,IN,https://www.google.com/maps/place/Masjid+Road+No+5/data=!4m7!3m6!1s0x39f32bca54ed2af5:0xbf8aa9b34d0f3d48!8m2!3d24.7955928!4d84.9875518!16s%2Fg%2F11s0_6np3s!19sChIJ9SrtVMor8zkRSD0PTbOpir8?authuser=0&hl=en&rclk=1,"24.795592799999998,84.98755179999999"
