name,main_category,address,address_ward,address_street,address_city,address_postal_code,address_state,address_country_code,link,coordinates
Masjid e Gadi,Mosque,"3726+JFH Masjid e Gadi, Old City, Nalgonda, Telangana 508001",Old City,3726+JFH,Nalgonda,508001,Telangana,IN,https://www.google.com/maps/place/Masjid+e+Gadi/data=!4m7!3m6!1s0x3bcb29a759d384a5:0x7ed3997be56c0fbf!8m2!3d17.0515523!4d79.2612386!16s%2Fg%2F1hm3p1sys!19sChIJpYTTWacpyzsRvw9s5XuZ034?authuser=0&hl=en&rclk=1,"17.0515523,79.2612386"
Masjid E Osmania,Mosque,"27WC+WMH Masjid E Osmania, Manyamchelka Road, Golla Guda Rural, Hyder khan guda, Nalgonda, Telangana 508001","Golla Guda Rural, Hyder khan guda","27WC+WMH, Manyamchelka Road",Nalgonda,508001,Telangana,IN,https://www.google.com/maps/place/Masjid+E+Osmania/data=!4m7!3m6!1s0x3bcb299ec7a4fb25:0xf01eb738b8a2c184!8m2!3d17.0473121!4d79.2717441!16s%2Fg%2F11bww8kf4s!19sChIJJfukx54pyzsRhMGiuDi3HvA?authuser=0&hl=en&rclk=1,"17.0473121,79.27174409999999"
Masjid E Khatamun Nabiyyin (S.A.S) Awwal Talluq Dari,Mosque,"3738+87Q Masjid E Khatamun Nabiyyin (S.A.S) Awwal Talluq Dari, RP Rd, Shanthi Nagar, Nalgonda, Telangana 508001",Shanthi Nagar,"3738+87Q, RP Rd",Nalgonda,508001,Telangana,IN,https://www.google.com/maps/place/Masjid+E+Khatamun+Nabiyyin+%28S.A.S%29+Awwal+Talluq+Dari/data=!4m7!3m6!1s0x3bcb290a93268a6b:0x40777f97255d2bd4!8m2!3d17.0533408!4d79.2657465!16s%2Fg%2F11btmqthkd!19sChIJa4omkwopyzsR1CtdJZd_d0A?authuser=0&hl=en&rclk=1,"17.0533408,79.26574649999999"
Jailkhana Masjid-e-mahbas,Mosque,"27X9+255 Jailkhana Masjid-e-mahbas, DVK Rd, Golla Guda Rural, Nalgonda, Telangana 508001",Golla Guda Rural,"27X9+255, DVK Rd",Nalgonda,508001,Telangana,IN,https://www.google.com/maps/place/Jailkhana+Masjid-e-mahbas/data=!4m7!3m6!1s0x3bcb299f5ea7a9f1:0x43508775b329b466!8m2!3d17.0475163!4d79.2679955!16s%2Fg%2F11bwywlt25!19sChIJ8amnXp8pyzsRZrQps3WHUEM?authuser=0&hl=en&rclk=1,"17.047516299999998,79.2679955"
Masjid-E-Kulsum,Mosque,"Masjid-E-Kulsum, Miryalaguda Rd, Ansari Colony, Ramgiri, Nalgonda, Telangana 508001","Ansari Colony, Ramgiri",Miryalaguda Rd,Nalgonda,508001,Telangana,IN,https://www.google.com/maps/place/Masjid-E-Kulsum/data=!4m7!3m6!1s0x3bcb299d928824a7:0xf94c83deb305d3a8!8m2!3d17.0507932!4d79.2747693!16s%2Fg%2F11b6gcrvf2!19sChIJpySIkp0pyzsRqNMFs96DTPk?authuser=0&hl=en&rclk=1,"17.050793199999998,79.2747693"
Masjid E Burhan,Mosque,"3796+2PC Masjid E Burhan, Lane Number 1, Meerbagh Colony, Ravindra Nagar, Nalgonda, Telangana 508001","Meerbagh Colony, Ravindra Nagar","3796+2PC, Lane Number 1",Nalgonda,508001,Telangana,IN,https://www.google.com/maps/place/Masjid+E+Burhan/data=!4m7!3m6!1s0x3bcb291161207057:0x3e810a8dee47a506!8m2!3d17.0675695!4d79.2617574!16s%2Fg%2F11ckvf9dd5!19sChIJV3AgYREpyzsRBqVH7o0KgT4?authuser=0&hl=en&rclk=1,"17.067569499999998,79.2617574"
Jam e Masjid,Mosque,"Jam e Masjid, Old City, Nalgonda, Telangana 508001",Old City,,Nalgonda,508001,Telangana,IN,https://www.google.com/maps/place/Jam+e+Masjid/data=!4m7!3m6!1s0x3bcb29a7fa95332f:0xe4672ca1e9a32c4f!8m2!3d17.050847!4d79.2570082!16s%2Fg%2F11b7grv3jq!19sChIJLzOV-qcpyzsRTyyj6aEsZ-Q?authuser=0&hl=en&rclk=1,"17.050847,79.2570082"
Masjid E Abbasiya,Mosque,"Masjid E Abbasiya, street no.3(east, Abbasia Colony, Sai Nagar, Nalgonda, Telangana 508001","Abbasia Colony, Sai Nagar",street no.3(east,Nalgonda,508001,Telangana,IN,https://www.google.com/maps/place/Masjid+E+Abbasiya/data=!4m7!3m6!1s0x3bcb29a2c5e0cfc9:0xd719685cb51f28a4!8m2!3d17.0411135!4d79.265742!16s%2Fg%2F1pzs9c1nl!19sChIJyc_gxaIpyzsRpCgftVxoGdc?authuser=0&hl=en&rclk=1,"17.041113499999998,79.265742"
Masjid e Mohammadia,Mosque,"27XJ+JPF Masjid e Mohammadia, Miryalaguda Rd, Golla Guda, Nalgonda, Telangana 508001",Golla Guda,"27XJ+JPF, Miryalaguda Rd",Nalgonda,508001,Telangana,IN,https://www.google.com/maps/place/Masjid+e+Mohammadia/data=!4m7!3m6!1s0x3bcb2983a7e38093:0xf1579ff791353288!8m2!3d17.0490684!4d79.2817944!16s%2Fg%2F11bwyv22h_!19sChIJk4Djp4MpyzsRiDI1kfefV_E?authuser=0&hl=en&rclk=1,"17.0490684,79.2817944"
Masjid e Aqsa,Mosque,"372C+89V Masjid e Aqsa, Miryalaguda Rd, New Prakasham Bazar, Barkatpura, Bottu Guda, Nalgonda, Telangana 508001","New Prakasham Bazar, Barkatpura, Bottu Guda","372C+89V, Miryalaguda Rd",Nalgonda,508001,Telangana,IN,https://www.google.com/maps/place/Masjid+e+Aqsa/data=!4m7!3m6!1s0x3bcb299e366f21d3:0xcea06dd8da740e95!8m2!3d17.0508682!4d79.2709091!16s%2Fg%2F11c3sr77nh!19sChIJ0yFvNp4pyzsRlQ502thtoM4?authuser=0&hl=en&rclk=1,"17.0508682,79.2709091"
Masjid-e-mehrunnisa,Mosque,"3776+HQ4 Masjid-e-mehrunnisa, Hyderabad Rd, Sri Nagar Colony, Sri Lakshmi Nagar Colony, Housing Board Colony, Nalgonda, Telangana 508001","Sri Nagar Colony, Sri Lakshmi Nagar Colony, Housing Board Colony","3776+HQ4, Hyderabad Rd",Nalgonda,508001,Telangana,IN,https://www.google.com/maps/place/Masjid-e-mehrunnisa/data=!4m7!3m6!1s0x3bcb2911f8fbca15:0x930fe6c18266d49d!8m2!3d17.063881!4d79.2619512!16s%2Fg%2F11bzypbn1v!19sChIJFcr7-BEpyzsRndRmgsHmD5M?authuser=0&hl=en&rclk=1,"17.063881,79.2619512"
Masjid e Razzaqia,Mosque,"373H+V6Q Masjid e Razzaqia, Bus Stand Way, Rahamath Nagar, Darulshifa, Nalgonda, Telangana 508001","Rahamath Nagar, Darulshifa","373H+V6Q, Bus Stand Way",Nalgonda,508001,Telangana,IN,https://www.google.com/maps/place/Masjid+e+Razzaqia/data=!4m7!3m6!1s0x3bcb29779060a5c9:0xb1779c714c002c4c!8m2!3d17.0547083!4d79.2781047!16s%2Fg%2F11bx1gsx1z!19sChIJyaVgkHcpyzsRTCwATHGcd7E?authuser=0&hl=en&rclk=1,"17.054708299999998,79.2781047"
Masjid e Shah Lateefullah,Mosque,"27WG+W8M Masjid e Shah Lateefullah, Anand Nagar, Srinivasa Colony BTS, Nalgonda, Telangana 508001","Anand Nagar, Srinivasa Colony BTS",27WG+W8M,Nalgonda,508001,Telangana,IN,https://www.google.com/maps/place/Masjid+e+Shah+Lateefullah/data=!4m7!3m6!1s0x3bcb299c7ca5fa7f:0x480d09735437dea4!8m2!3d17.0473288!4d79.2757948!16s%2Fg%2F11csr1xsbv!19sChIJf_qlfJwpyzsRpN43VHMJDUg?authuser=0&hl=en&rclk=1,"17.0473288,79.2757948"
Quba Masjid,Mosque,"27X7+Q9Q Quba Masjid, Rahman Bagh, Nalgonda, Telangana 508001",Rahman Bagh,27X7+Q9Q,Nalgonda,508001,Telangana,IN,https://www.google.com/maps/place/Quba+Masjid/data=!4m7!3m6!1s0x3bcb29a0e1c3cd81:0x632180c599d4df4f!8m2!3d17.0494716!4d79.2634942!16s%2Fg%2F11x9cl57w!19sChIJgc3D4aApyzsRT9_UmcWAIWM?authuser=0&hl=en&rclk=1,"17.0494716,79.2634942"
Masjid-e-Arafat,Mosque,"3728+6CH Masjid-e-Arafat, DVK Rd, Rahman Bagh, Nalgonda, Telangana 508001",Rahman Bagh,"3728+6CH, DVK Rd",Nalgonda,508001,Telangana,IN,https://www.google.com/maps/place/Masjid-e-Arafat/data=!4m7!3m6!1s0x3bcb29a06a584d2d:0xddff627401822f2f!8m2!3d17.0505706!4d79.2661148!16s%2Fg%2F1260ssm36!19sChIJLU1YaqApyzsRLy-CAXRi_90?authuser=0&hl=en&rclk=1,"17.0505706,79.2661148"
Masjid-e-Azizya,Mosque,"3774+VHQ Masjid-e-Azizya, Lane Number 5, Green Hills Colony, Ravindra Nagar, Nalgonda, Telangana 508001","Green Hills Colony, Ravindra Nagar","3774+VHQ, Lane Number 5",Nalgonda,508001,Telangana,IN,https://www.google.com/maps/place/Masjid-e-Azizya/data=!4m7!3m6!1s0x3bcb2910750c3c29:0x50463faeb293c46e!8m2!3d17.064713!4d79.2564976!16s%2Fg%2F11c1lm70ky!19sChIJKTwMdRApyzsRbsSTsq4_RlA?authuser=0&hl=en&rclk=1,"17.064712999999998,79.2564976"
Masjid e bilal,Mosque,"37GQ+57F Masjid e bilal, Panagal, Telangana 508004",Panagal,37GQ+57F,,,Telangana,IN,https://www.google.com/maps/place/Masjid+e+bilal/data=!4m7!3m6!1s0x3bcb29606f6ad571:0xafb509dd4298a16f!8m2!3d17.0754417!4d79.2881843!16s%2Fg%2F11gfn097vm!19sChIJcdVqb2ApyzsRb6GYQt0Jta8?authuser=0&hl=en&rclk=1,"17.0754417,79.2881843"
Rahmania Masjid,Mosque,"3727+CRQ Rahmania Masjid, Rahman Bagh, Nalgonda, Telangana 508001",Rahman Bagh,3727+CRQ,Nalgonda,508001,Telangana,IN,https://www.google.com/maps/place/Rahmania+Masjid/data=!4m7!3m6!1s0x3bcb29a0884546c7:0x3ebc8f6478bb8141!8m2!3d17.0510993!4d79.2645966!16s%2Fg%2F1263r71vw!19sChIJx0ZFiKApyzsRQYG7eGSPvD4?authuser=0&hl=en&rclk=1,"17.0510993,79.26459659999999"
shaik hussain masjid,Mosque,"shaik hussain masjid, 5-12-109, Miryalaguda Rd, Anand Nagar, Srinivasa Colony BTS, Nalgonda, Telangana 508003","Anand Nagar, Srinivasa Colony BTS","5-12-109, Miryalaguda Rd",Nalgonda,508003,Telangana,IN,https://www.google.com/maps/place/shaik+hussain+masjid/data=!4m7!3m6!1s0x3bcb299ccfac787d:0x31cbe31d4c4c0dca!8m2!3d17.0488122!4d79.2783992!16s%2Fg%2F11c6w0k455!19sChIJfXisz5wpyzsRyg1MTB3jyzE?authuser=0&hl=en&rclk=1,"17.0488122,79.2783992"
Sara e Mir Alam,Mosque,"3726+RXM Sara e Mir Alam, Old City, Nalgonda, Telangana 508001",Old City,3726+RXM,Nalgonda,508001,Telangana,IN,https://www.google.com/maps/place/Sara+e+Mir+Alam/data=!4m7!3m6!1s0x3bcb290a06cee71b:0x77b94accdda85c13!8m2!3d17.0520799!4d79.2624116!16s%2Fg%2F11ddw_scgy!19sChIJG-fOBgopyzsRE1yo3cxKuXc?authuser=0&hl=en&rclk=1,"17.0520799,79.2624116"
Masjid-e-Anas,Mosque,"Masjid-e-Anas, 5-09-154, Miryalaguda Rd, Rahamath Nagar, Ramgiri, Nalgonda, Telangana 508001","Rahamath Nagar, Ramgiri","5-09-154, Miryalaguda Rd",Nalgonda,508001,Telangana,IN,https://www.google.com/maps/place/Masjid-e-Anas/data=!4m7!3m6!1s0x3bcb299b0af5dc07:0x89ad9ad3872e45b0!8m2!3d17.0450536!4d79.276238!16s%2Fg%2F11c601bmrl!19sChIJB9z1CpspyzsRsEUuh9OarYk?authuser=0&hl=en&rclk=1,"17.0450536,79.27623799999999"
Sayeeda masjeed Nalgonda,Mosque,"27WF+HJF Sayeeda masjeed Nalgonda, Afzalnagar, near masjeed-E-sayeeda, Golla Guda Rural, Nalgonda, Telangana 508001",Golla Guda Rural,"27WF+HJF, Afzalnagar, near masjeed-E-sayeeda",Nalgonda,508001,Telangana,IN,https://www.google.com/maps/place/Sayeeda+masjeed+Nalgonda/data=!4m7!3m6!1s0x3bcb299bf78e578d:0xfa18cea8985bad46!8m2!3d17.0464325!4d79.274042!16s%2Fg%2F11cmsfk2xh!19sChIJjVeO95spyzsRRq1bmKjOGPo?authuser=0&hl=en&rclk=1,"17.046432499999998,79.274042"
Masjid E Kareem,Mosque,"27QF+PW2 Masjid E Kareem, Golla Guda Rural, Annadurai Nagar, Nalgonda, Telangana 508004","Golla Guda Rural, Annadurai Nagar",27QF+PW2,Nalgonda,508004,Telangana,IN,https://www.google.com/maps/place/Masjid+E+Kareem/data=!4m7!3m6!1s0x3bcb2990eade13b3:0xef36bc341dd2078a!8m2!3d17.0392588!4d79.2747506!16s%2Fg%2F11b8v4fs6p!19sChIJsxPe6pApyzsRigfSHTS8Nu8?authuser=0&hl=en&rclk=1,"17.0392588,79.27475059999999"
Masjid-E-Noor,Mosque,"373H+FQ Masjid-E-Noor, Bus Stand Way, Rahamath Nagar, Ramgiri, Nalgonda, Telangana 508001","Rahamath Nagar, Ramgiri","373H+FQ, Bus Stand Way",Nalgonda,508001,Telangana,IN,https://www.google.com/maps/place/Masjid-E-Noor/data=!4m7!3m6!1s0x3bcb2976658932f9:0x75dcc1252eb12170!8m2!3d17.054686!4d79.2739882!16s%2Fg%2F1hc50828g!19sChIJ-TKJZXYpyzsRcCGxLiXB3HU?authuser=0&hl=en&rclk=1,"17.054686,79.27398819999999"
Masjid-e-Hussaini ( Ahle Sunnat Wal Jamaat),Mosque,"3736+FX3 Masjid-e-Hussaini ( Ahle Sunnat Wal Jamaat), Moosa St, Old City, Nalgonda, Telangana 508001",Old City,"3736+FX3, Moosa St",Nalgonda,508001,Telangana,IN,https://www.google.com/maps/place/Masjid-e-Hussaini+%28+Ahle+Sunnat+Wal+Jamaat%29/data=!4m7!3m6!1s0x3bcb290a241ad03b:0x926ebe2f45256064!8m2!3d17.0536331!4d79.2624173!16s%2Fg%2F11ckvllyxd!19sChIJO9AaJAopyzsRZGAlRS--bpI?authuser=0&hl=en&rclk=1,"17.0536331,79.2624173"
Amina Masjid,Mosque,"3735+4V4 Amina Masjid, Old City, Nalgonda, Telangana 508001",Old City,3735+4V4,Nalgonda,508001,Telangana,IN,https://www.google.com/maps/place/Amina+Masjid/data=!4m7!3m6!1s0x3bcb2909c9301333:0xaa49398ee5007707!8m2!3d17.0527536!4d79.2596895!16s%2Fg%2F11bwyyxfj3!19sChIJMxMwyQkpyzsRB3cA5Y45Sao?authuser=0&hl=en&rclk=1,"17.0527536,79.2596895"
masjid E Munawwara,Mosque,"27XC+H3R masjid E Munawwara, Golla Guda Rural, Manyamchalka, Nalgonda, Telangana 508001","Golla Guda Rural, Manyamchalka",27XC+H3R,Nalgonda,508001,Telangana,IN,https://www.google.com/maps/place/masjid+E+Munawwara/data=!4m7!3m6!1s0x3bcb299f012d29db:0x857f270fef82a3f3!8m2!3d17.0489821!4d79.2701263!16s%2Fg%2F11fy_qt677!19sChIJ2yktAZ8pyzsR86OC7w8nf4U?authuser=0&hl=en&rclk=1,"17.0489821,79.2701263"
Masjid e Ayesha,Mosque,"27R7+345 Masjid e Ayesha, Nilagiri Colony, Nalgonda, Telangana 508001",Nilagiri Colony,27R7+345,Nalgonda,508001,Telangana,IN,https://www.google.com/maps/place/Masjid+e+Ayesha/data=!4m7!3m6!1s0x3bcb29a34d2d31cd:0xcff244980637702a!8m2!3d17.0401372!4d79.2628742!16s%2Fg%2F11fxzq_27j!19sChIJzTEtTaMpyzsRKnA3BphE8s8?authuser=0&hl=en&rclk=1,"17.0401372,79.2628742"
Jamalia Masjid,Mosque,"373C+7JH Jamalia Masjid, New Prakasham Bazar, Bottu Guda, Nalgonda, Telangana 508001","New Prakasham Bazar, Bottu Guda",373C+7JH,Nalgonda,508001,Telangana,IN,https://www.google.com/maps/place/Jamalia+Masjid/data=!4m7!3m6!1s0x3bcb297592386abf:0x3be2f7c026d73992!8m2!3d17.053186!4d79.2716085!16s%2Fg%2F1tk1xhpf!19sChIJv2o4knUpyzsRkjnXJsD34js?authuser=0&hl=en&rclk=1,"17.053186,79.2716085"
Masjid-E-shah Waliullah,Mosque,"362X+734 Masjid-E-shah Waliullah, Munugodu -- Nalgonda, APHB Colony, Madhava Nagar, Nalgonda, Telangana 508004","APHB Colony, Madhava Nagar","362X+734, Munugodu -- Nalgonda",Nalgonda,,Telangana,IN,https://www.google.com/maps/place/Masjid-E-shah+Waliullah/data=!4m7!3m6!1s0x3bcb29aa812ebee9:0xbe3cf691773d07ff!8m2!3d17.050646!4d79.2476948!16s%2Fg%2F11hbg8w07b!19sChIJ6b4ugaopyzsR_wc9d5H2PL4?authuser=0&hl=en&rclk=1,"17.050646,79.24769479999999"
Masjid E Latheefia,Mosque,"373J+93V Masjid E Latheefia, Golla Guda Rural, Darulshifa, Nalgonda, Telangana 508001","Golla Guda Rural, Darulshifa",373J+93V,Nalgonda,508001,Telangana,IN,https://www.google.com/maps/place/Masjid+E+Latheefia/data=!4m7!3m6!1s0x3bcb2978126cefab:0xc62a020441090f24!8m2!3d17.0534853!4d79.2801608!16s%2Fg%2F11gdqjmncc!19sChIJq-9sEngpyzsRJA8JQQQCKsY?authuser=0&hl=en&rclk=1,"17.0534853,79.28016079999999"
Masjid-E-Tawheed Ahle Hadees,Mosque,"26HW+Q4V Masjid-E-Tawheed Ahle Hadees, Sagar Rd, Nalgonda, GV Gudem, Telangana 508004",,"26HW+Q4V, Sagar Rd","Nalgonda, GV Gudem",508004,Telangana,IN,https://www.google.com/maps/place/Masjid-E-Tawheed+Ahle+Hadees/data=!4m7!3m6!1s0x3bcb29962bb75739:0xbd1b1577a5de68f8!8m2!3d17.0294854!4d79.2452833!16s%2Fg%2F11gtzcgdp3!19sChIJOVe3K5YpyzsR-GjepXcVG70?authuser=0&hl=en&rclk=1,"17.0294854,79.2452833"
Masjid e Qutubshahi,Mosque,"37Q5+V9G Masjid e Qutubshahi, DRB Area, Nalgonda, Telangana 508001",DRB Area,37Q5+V9G,Nalgonda,508001,Telangana,IN,https://www.google.com/maps/place/Masjid+e+Qutubshahi/data=!4m7!3m6!1s0x3bcb2931b2782a33:0x86d913dabb2a82b9!8m2!3d17.0896875!4d79.2584531!16s%2Fg%2F11bwysgzwg!19sChIJMyp4sjEpyzsRuYIqu9oT2YY?authuser=0&hl=en&rclk=1,"17.0896875,79.2584531"
Masjid-e-Qutubshahi,Mosque,"3726+JPX Masjid-e-Qutubshahi, Munugodu Rd, Old City, Nalgonda, Telangana 508001",Old City,"3726+JPX, Munugodu Rd",Nalgonda,508001,Telangana,IN,https://www.google.com/maps/place/Masjid-e-Qutubshahi/data=!4m7!3m6!1s0x3bcb29a7551005a3:0x7c30eb0bf2667c55!8m2!3d17.0516007!4d79.2618705!16s%2Fg%2F11c6cx996v!19sChIJowUQVacpyzsRVXxm8gvrMHw?authuser=0&hl=en&rclk=1,"17.051600699999998,79.2618705"
Masjid-E-Mohiuddin,Mosque,"372H+GX9 Masjid-E-Mohiuddin, Golla Guda, Nalgonda, Telangana 508001",Golla Guda,372H+GX9,Nalgonda,508001,Telangana,IN,https://www.google.com/maps/place/Masjid-E-Mohiuddin/data=!4m7!3m6!1s0x3bcb2982b8b15f45:0xc3bf1e4a787a415!8m2!3d17.0512995!4d79.2799886!16s%2Fg%2F11fy18ngzf!19sChIJRV-xuIIpyzsRFaSHp-TxOww?authuser=0&hl=en&rclk=1,"17.0512995,79.2799886"
Masjid-e-Malanbee (Ahle Sunnat Wal Jamaat),Mosque,"3748+XPH Masjid-e-Malanbee (Ahle Sunnat Wal Jamaat), Latif Saheb Hill Trail, Housing Board Colony, Nalgonda, Telangana 508001",Housing Board Colony,"3748+XPH, Latif Saheb Hill Trail",Nalgonda,508001,Telangana,IN,https://www.google.com/maps/place/Masjid-e-Malanbee+%28Ahle+Sunnat+Wal+Jamaat%29/data=!4m7!3m6!1s0x3bcb290b5a221d59:0xf2cdbd67e266324a!8m2!3d17.0574401!4d79.2668521!16s%2Fg%2F1hm27wwfj!19sChIJWR0iWgspyzsRSjJm4me9zfI?authuser=0&hl=en&rclk=1,"17.0574401,79.2668521"
Masjid e Ibrahim,Mosque,"27X6+JX7 Masjid e Ibrahim, Quba St, Old City, Nalgonda, Telangana 508001",Old City,"27X6+JX7, Quba St",Nalgonda,508001,Telangana,IN,https://www.google.com/maps/place/Masjid+e+Ibrahim/data=!4m7!3m6!1s0x3bcb29a0d42a7dab:0xcfe3eca75f0acf4d!8m2!3d17.0490365!4d79.2624081!16s%2Fg%2F11bwyw3zx0!19sChIJq30q1KApyzsRTc8KX6fs488?authuser=0&hl=en&rclk=1,"17.0490365,79.2624081"
Mosque AMER,Mosque,"37G6+48P Mosque AMER, Hyderabad Rd, Balaji Colony, Nalgonda, Telangana 508001",Balaji Colony,"37G6+48P, Hyderabad Rd",Nalgonda,508001,Telangana,IN,https://www.google.com/maps/place/Mosque+AMER/data=!4m7!3m6!1s0x3bcb293df5011ca9:0xd550359afb7b8d95!8m2!3d17.0753491!4d79.2608427!16s%2Fg%2F1tdw1y77!19sChIJqRwB9T0pyzsRlY17-5o1UNU?authuser=0&hl=en&rclk=1,"17.0753491,79.2608427"
Masjid e Hyderia,Mosque,"27VC+RRX Masjid e Hyderia, Little Flower Jr College Rd, Golla Guda Rural, Nalgonda, Telangana 508001",Golla Guda Rural,"27VC+RRX, Little Flower Jr College Rd",Nalgonda,508001,Telangana,IN,https://www.google.com/maps/place/Masjid+e+Hyderia/data=!4m7!3m6!1s0x3bcb29996b8fd16d:0xe8e72a963d59ce16!8m2!3d17.0446217!4d79.2720977!16s%2Fg%2F11bwytfnwc!19sChIJbdGPa5kpyzsRFs5ZPZYq5-g?authuser=0&hl=en&rclk=1,"17.0446217,79.2720977"
Masjid -e-Aalamgeer Pangal,Mosque,"37HQ+MJF Masjid -e-Aalamgeer Pangal, NH565, Telangana 508004",,"37HQ+MJF, NH565",,508004,Telangana,IN,https://www.google.com/maps/place/Masjid+-e-Aalamgeer+Pangal/data=!4m7!3m6!1s0x3bcb295f9ef3af6f:0xeec4dc307d3b1f32!8m2!3d17.0791905!4d79.2890378!16s%2Fg%2F11csrd9fnz!19sChIJb6_znl8pyzsRMh87fTDcxO4?authuser=0&hl=en&rclk=1,"17.0791905,79.2890378"
Madeena Masjid,Mosque,"Madeena Masjid, Nagarjunar Colony, Nalgonda, Telangana 508001",Nagarjunar Colony,Madeena Masjid,Nalgonda,508001,Telangana,IN,https://www.google.com/maps/place/Madeena+Masjid/data=!4m7!3m6!1s0x3bcb293e1e0b86bb:0x2d1299cf86cad885!8m2!3d17.0591729!4d79.2679634!16s%2Fg%2F11rdqdfwfd!19sChIJu4YLHj4pyzsRhdjKhs-ZEi0?authuser=0&hl=en&rclk=1,"17.0591729,79.2679634"
Masjid_E_Madani,Place of worship,"27XP+23R Masjid_E_Madani, Madeena Colony St, Madeena Colony, Nalgonda, Telangana 508001",Madeena Colony,"27XP+23R, Madeena Colony St",Nalgonda,508001,Telangana,IN,https://www.google.com/maps/place/Masjid_E_Madani/data=!4m7!3m6!1s0x3bcb298151ef7123:0x112918277875b6b7!8m2!3d17.0476102!4d79.2851561!16s%2Fg%2F11b6gpbzlz!19sChIJI3HvUYEpyzsRt7Z1eCcYKRE?authuser=0&hl=en&rclk=1,"17.047610199999998,79.2851561"
"Eidgah, Nalgonda",Mosque,"Eidgah, Nalgonda, Eig Gaah, APHB Colony, Madhava Nagar, Nalgonda, Telangana 508001","APHB Colony, Madhava Nagar",Eig Gaah,Nalgonda,,Telangana,IN,"https://www.google.com/maps/place/Eidgah,+Nalgonda/data=!4m7!3m6!1s0x3bcb2902bf36a115:0x25db93ee78e2a979!8m2!3d17.0524561!4d79.2465734!16s%2Fg%2F11hzyx52l0!19sChIJFaE2vwIpyzsReanieO6T2yU?authuser=0&hl=en&rclk=1","17.0524561,79.2465734"
Masjid-E-Imam-Ul-Ambiya,Mosque,"3766+6Q9 Masjid-E-Imam-Ul-Ambiya, Unnamed Road, Sri Lakshmi Nagar Colony, Housing Board Colony, Nalgonda, Telangana 508001","Sri Lakshmi Nagar Colony, Housing Board Colony","3766+6Q9, Unnamed Road",Nalgonda,508001,Telangana,IN,https://www.google.com/maps/place/Masjid-E-Imam-Ul-Ambiya/data=!4m7!3m6!1s0x3bcb299c8a6ab2bf:0xccd24f5c9b33514a!8m2!3d17.0605462!4d79.2619925!16s%2Fg%2F11hykz6mkt!19sChIJv7JqipwpyzsRSlEzm1xP0sw?authuser=0&hl=en&rclk=1,"17.0605462,79.26199249999999"
Jama e Masjid Pull,Mosque,"3724+CFF Jama e Masjid Pull, Unnamed Road, Old City, Nalgonda, Telangana 508001",Old City,"3724+CFF, Unnamed Road",Nalgonda,508001,Telangana,IN,https://www.google.com/maps/place/Jama+e+Masjid+Pull/data=!4m7!3m6!1s0x3bcb29a8071fe705:0x679e1d6e1c629e20!8m2!3d17.0510654!4d79.2561567!16s%2Fg%2F11gd67gsxg!19sChIJBecfB6gpyzsRIJ5iHG4dnmc?authuser=0&hl=en&rclk=1,"17.0510654,79.25615669999999"
Masjid e siddiquia Namaz Timings,Mosque,"Masjid e siddiquia Namaz Timings, Siddiquia colony, Hyderabad Rd, Nalgonda, Telangana 508001",,"Siddiquia colony, Hyderabad Rd",Nalgonda,508001,Telangana,IN,https://www.google.com/maps/place/Masjid+e+siddiquia+Namaz+Timings/data=!4m7!3m6!1s0x3bcb29f14fbe23ad:0x94e1faee75f06290!8m2!3d17.0739702!4d79.2849397!16s%2Fg%2F11rg_n5tjx!19sChIJrSO-T_EpyzsRkGLwde764ZQ?authuser=0&hl=en&rclk=1,"17.073970199999998,79.2849397"
Masjid -e- Pyari Latheefunnisa,Mosque,"372F+WCF Masjid -e- Pyari Latheefunnisa, Ansari Colony, Ramgiri, Nalgonda, Telangana 508001","Ansari Colony, Ramgiri",372F+WCF,Nalgonda,508001,Telangana,IN,https://www.google.com/maps/place/Masjid+-e-+Pyari+Latheefunnisa/data=!4m7!3m6!1s0x3bcb295473935537:0x2aebf3976286acf9!8m2!3d17.0523097!4d79.2735514!16s%2Fg%2F11lkv_2w5n!19sChIJN1WTc1QpyzsR-ayGYpfz6yo?authuser=0&hl=en&rclk=1,"17.0523097,79.2735514"
MASJID - E - MIRZA ASADULLAH BAIG,Mosque,"27WC+R5V MASJID - E - MIRZA ASADULLAH BAIG, near little flower school, Golla Guda Rural, Manyamchalka, Nalgonda, Telangana 508001","Golla Guda Rural, Manyamchalka","27WC+R5V, near little flower school",Nalgonda,508001,Telangana,IN,https://www.google.com/maps/place/MASJID+-+E+-+MIRZA+ASADULLAH+BAIG/data=!4m7!3m6!1s0x3bcb2913f99114e5:0xda4394a880a6ce85!8m2!3d17.0470625!4d79.2704375!16s%2Fg%2F11tny51t0l!19sChIJ5RSR-RMpyzsRhc6mgKiUQ9o?authuser=0&hl=en&rclk=1,"17.0470625,79.2704375"
Masjid-e-Athiya,Mosque,"27XP+983 Masjid-e-Athiya, Madeena Colony St, Madeena Colony, Nalgonda, Telangana 508001",Madeena Colony,"27XP+983, Madeena Colony St",Nalgonda,508001,Telangana,IN,https://www.google.com/maps/place/Masjid-e-Athiya/data=!4m7!3m6!1s0x3bcb292de2460a9d:0x78a96239092bd4d8!8m2!3d17.0483875!4d79.2858088!16s%2Fg%2F11rfph5r9g!19sChIJnQpG4i0pyzsR2NQrCTliqXg?authuser=0&hl=en&rclk=1,"17.0483875,79.2858088"
Masjid E Ansar,Mosque,"373G+C2G Masjid E Ansar, Ansari Colony, Ramgiri, Nalgonda, Telangana 508001","Ansari Colony, Ramgiri",373G+C2G,Nalgonda,508001,Telangana,IN,https://www.google.com/maps/place/Masjid+E+Ansar/data=!4m7!3m6!1s0x3bcb297639534201:0x77c1f78ea5cccc3e!8m2!3d17.0535562!4d79.2750709!16s%2Fg%2F11c3tjccj0!19sChIJAUJTOXYpyzsRPszMpY73wXc?authuser=0&hl=en&rclk=1,"17.0535562,79.2750709"
Masjid E Mecca,Mosque,"3797+972 Masjid E Mecca, Darul Uloom Masjid, Meerbagh Colony, Ravindra Nagar, Nalgonda, Telangana 508001","Meerbagh Colony, Ravindra Nagar",3797+972 Darul Uloom Masjid,Nalgonda,508001,Telangana,IN,https://www.google.com/maps/place/Masjid+E+Mecca/data=!4m7!3m6!1s0x3bcb290611cbfeed:0x3ceb36dac16274cc!8m2!3d17.0685938!4d79.2632561!16s%2Fg%2F11tc7lyqbp!19sChIJ7f7LEQYpyzsRzHRiwdo26zw?authuser=0&hl=en&rclk=1,"17.0685938,79.26325609999999"
Masjid E Wahed Jaan,Mosque,"3729+38R Masjid E Wahed Jaan, Manyamchalka, Nalgonda, Telangana 508001",Manyamchalka,3729+38R,Nalgonda,508001,Telangana,IN,https://www.google.com/maps/place/Masjid+E+Wahed+Jaan/data=!4m7!3m6!1s0x3bcb299f8e7460a7:0x1c96a337eb0b9ed3!8m2!3d17.050237!4d79.2682546!16s%2Fg%2F11fy_d91p5!19sChIJp2B0jp8pyzsR054L6zejlhw?authuser=0&hl=en&rclk=1,"17.050237,79.26825459999999"
Masjid-E-Rehaan,Priest,"27Q6+7X3 Masjid-E-Rehaan, Behind chaitanya Puri, Shasthri Nagar, Chaitanyapuri Colony, Nalgonda, Telangana 508004","Shasthri Nagar, Chaitanyapuri Colony","27Q6+7X3, Behind chaitanya Puri",Nalgonda,508004,Telangana,IN,https://www.google.com/maps/place/Masjid-E-Rehaan/data=!4m7!3m6!1s0x3bcb29bc9b9ada6f:0x1f7235ccf3135ac8!8m2!3d17.0381446!4d79.2624287!16s%2Fg%2F11cpqfxg0s!19sChIJb9qam7wpyzsRyFoT88w1ch8?authuser=0&hl=en&rclk=1,"17.0381446,79.2624287"
Masjid e kouser,Mosque,"27VP+7V6 Masjid e kouser, Golla Guda Rural, Srinivasa Colony BTS, Nalgonda, Telangana 508004","Golla Guda Rural, Srinivasa Colony BTS",27VP+7V6,Nalgonda,508004,Telangana,IN,https://www.google.com/maps/place/Masjid+e+kouser/data=!4m7!3m6!1s0x3bcb29f4cc99602f:0xcaf52da81be231cb!8m2!3d17.0431615!4d79.2871426!16s%2Fg%2F11f5_jynt9!19sChIJL2CZzPQpyzsRyzHiG6gt9co?authuser=0&hl=en&rclk=1,"17.0431615,79.2871426"
Masjid e mahboobiya,Mosque,"3736+CG3 Masjid e mahboobiya, Linewada Rd, Old City, Nalgonda, Telangana 508001",Old City,"3736+CG3, Linewada Rd",Nalgonda,508001,Telangana,IN,https://www.google.com/maps/place/Masjid+e+mahboobiya/data=!4m7!3m6!1s0x3bcb29216c2504c5:0xb660ae29c8204f1d!8m2!3d17.0540493!4d79.2614151!16s%2Fg%2F11rylg1cbq!19sChIJxQQlbCEpyzsRHU8gyCmuYLY?authuser=0&hl=en&rclk=1,"17.0540493,79.2614151"
Masjid e yousuf karima,Mosque,"37P7+73V Masjid e yousuf karima, DRB Area, Nalgonda, Telangana 508001",DRB Area,37P7+73V,Nalgonda,508001,Telangana,IN,https://www.google.com/maps/place/Masjid+e+yousuf+karima/data=!4m7!3m6!1s0x3bcb29d53460da3d:0x49c8d4273d18f136!8m2!3d17.0857313!4d79.2626862!16s%2Fg%2F11g086wzrj!19sChIJPdpgNNUpyzsRNvEYPSfUyEk?authuser=0&hl=en&rclk=1,"17.0857313,79.26268619999999"
Masjid a Sara,Mosque,"3727+6VV Masjid a Sara, Azad Rd, Rahman Bagh, Nalgonda, Telangana 508001",Rahman Bagh,"3727+6VV, Azad Rd",Nalgonda,508001,Telangana,IN,https://www.google.com/maps/place/Masjid+a+Sara/data=!4m7!3m6!1s0x3bcb29a08b000001:0x9065ff6abf57f1ed!8m2!3d17.0506095!4d79.2646719!16s%2Fg%2F11f2v3rzr7!19sChIJAQAAi6ApyzsR7fFXv2r_ZZA?authuser=0&hl=en&rclk=1,"17.0506095,79.2646719"
Masjid asad,Mosque,"27R4+926 Masjid asad, Unnamed Road, Asad Nagar, Nilagiri Colony, Nalgonda, Telangana 508001","Asad Nagar, Nilagiri Colony","27R4+926, Unnamed Road",Nalgonda,508001,Telangana,IN,https://www.google.com/maps/place/Masjid+asad/data=!4m7!3m6!1s0x3bcb292c436455e1:0xeaf5726a2cac35!8m2!3d17.0409168!4d79.2550251!16s%2Fg%2F11lh5688yy!19sChIJ4VVkQywpyzsRNawsanL16gA?authuser=0&hl=en&rclk=1,"17.040916799999998,79.2550251"
Masjid E Hafsah,Mosque,"3729+MMG Masjid E Hafsah, Vegetable Market, New Prakasham Bazar, Bottu Guda, Nalgonda, Telangana 508001","New Prakasham Bazar, Bottu Guda","3729+MMG, Vegetable Market",Nalgonda,508001,Telangana,IN,https://www.google.com/maps/place/Masjid+E+Hafsah/data=!4m7!3m6!1s0x3bcb29207363a8ab:0xca727c512a60cced!8m2!3d17.0516798!4d79.269217!16s%2Fg%2F11q8sw36mt!19sChIJq6hjcyApyzsR7cxgKlF8cso?authuser=0&hl=en&rclk=1,"17.0516798,79.269217"
Municipality Masjid,Mosque,"27VP+6RX Municipality Masjid, RTA Testing Track, Golla Guda Rural, Srinivasa Colony BTS, Nalgonda, Telangana 508004","Golla Guda Rural, Srinivasa Colony BTS","27VP+6RX, RTA Testing Track",Nalgonda,508004,Telangana,IN,https://www.google.com/maps/place/Municipality+Masjid/data=!4m7!3m6!1s0x3bcb29864a4fb6e3:0x7d2cd53fa2a0a4b5!8m2!3d17.0431105!4d79.287119!16s%2Fg%2F11bx1h_lxl!19sChIJ47ZPSoYpyzsRtaSgoj_VLH0?authuser=0&hl=en&rclk=1,"17.0431105,79.28711899999999"
MASJIDE-NABI (SAALIHEEN MASJID),Mosque,"3726+65W MASJIDE-NABI (SAALIHEEN MASJID), Old City, Nalgonda, Telangana 508001",Old City,3726+65W,Nalgonda,508001,Telangana,IN,https://www.google.com/maps/place/MASJIDE-NABI+%28SAALIHEEN+MASJID%29/data=!4m7!3m6!1s0x3bcb295f3740ecb1:0x815645c74e561e1f!8m2!3d17.0506224!4d79.2604651!16s%2Fg%2F11gm9zn9gz!19sChIJsexAN18pyzsRHx5WTsdFVoE?authuser=0&hl=en&rclk=1,"17.050622399999998,79.26046509999999"
MASJIDE ABDUR RAHMAN,Mosque,"27P5+2RV MASJIDE ABDUR RAHMAN, Shasthri Nagar, Nilagiri Colony, Nalgonda, Telangana 508004","Shasthri Nagar, Nilagiri Colony",27P5+2RV,Nalgonda,508004,Telangana,IN,https://www.google.com/maps/place/MASJIDE+ABDUR+RAHMAN/data=!4m7!3m6!1s0x3bcb2972a25edde1:0x663b54c35054f817!8m2!3d17.0351062!4d79.2595581!16s%2Fg%2F11pbzwxsdg!19sChIJ4d1eonIpyzsRF_hUUMNUO2Y?authuser=0&hl=en&rclk=1,"17.035106199999998,79.25955809999999"
MASJID E AFZAL,Mosque,"27JJ+Q2P MASJID E AFZAL, Golla Guda Rural, Nalgonda, Telangana 508004",Golla Guda Rural,27JJ+Q2P,Nalgonda,508004,Telangana,IN,https://www.google.com/maps/place/MASJID+E+AFZAL/data=!4m7!3m6!1s0x3bcb29efdc1cb493:0x409ca7d48b3e82f9!8m2!3d17.0324074!4d79.2802476!16s%2Fg%2F11txrvsf8m!19sChIJk7Qc3O8pyzsR-YI-i9SnnEA?authuser=0&hl=en&rclk=1,"17.0324074,79.2802476"
Masjid-e-Moinuddin,Mosque,"27QW + 22R, Masjid-e-Moinuddin, Unnamed Road, Golla Guda, Dwaraka Nagar Colony, Nalgonda, Telangana 508004","Golla Guda, Dwaraka Nagar Colony","27QW + 22R, Unnamed Road",Nalgonda,508004,Telangana,IN,https://www.google.com/maps/place/Masjid-e-Moinuddin/data=!4m7!3m6!1s0x3bcb2b89ac7c9b8b:0x50dc4df4ac23b1a1!8m2!3d17.0364329!4d79.294165!16s%2Fg%2F11kpdhhdbs!19sChIJi5t8rIkryzsRobEjrPRN3FA?authuser=0&hl=en&rclk=1,"17.036432899999998,79.29416499999999"
Masjid E Siddiqiya msjdSdyqyh,Mosque,"37G6+69 Masjid E Siddiqiya msjdSdyqyh, Balaji Colony, Nalgonda, Telangana 508001",Balaji Colony,37G6+69,Nalgonda,508001,Telangana,IN,https://www.google.com/maps/place/Masjid+E+Siddiqiya+%D9%85%D8%B3%D8%AC%D8%AF%D8%B5%D8%AF%DB%8C%D9%82%DB%8C%DB%81%E2%80%AD/data=!4m7!3m6!1s0x3bcb2998e3763299:0x31616a5a822c30d4!8m2!3d17.0754862!4d79.2609817!16s%2Fg%2F11k3rrwwvb!19sChIJmTJ245gpyzsR1DAsglpqYTE?authuser=0&hl=en&rclk=1,"17.0754862,79.2609817"
Masjid-e-Muneer,Mosque,"26XP+77H Masjid-e-Muneer, Nalgonda, Mamillagudem, Telangana 508004",,26XP+77H,"Nalgonda, Mamillagudem",,Telangana,IN,https://www.google.com/maps/place/Masjid-e-Muneer/data=!4m7!3m6!1s0x3bcb29b4047edd97:0xe4287aa2becca59c!8m2!3d17.0481781!4d79.2357188!16s%2Fg%2F11l2txfc5f!19sChIJl91-BLQpyzsRnKXMvqJ6KOQ?authuser=0&hl=en&rclk=1,"17.048178099999998,79.2357188"
Masjid-E-Rashida,Mosque,"27VV+X73 Masjid-E-Rashida, Alkapuri Colony, Hitech Colony, Nalgonda, Telangana 508004","Alkapuri Colony, Hitech Colony",27VV+X73,Nalgonda,508004,Telangana,IN,https://www.google.com/maps/place/Masjid-E-Rashida/data=!4m7!3m6!1s0x3bcb2bddc14c692d:0xb683ba2fbcdf3906!8m2!3d17.0449024!4d79.2931022!16s%2Fg%2F11t_zl87yj!19sChIJLWlMwd0ryzsRBjnfvC-6g7Y?authuser=0&hl=en&rclk=1,"17.044902399999998,79.29310219999999"
Masjid e Rabia,Mosque,"375J+MF2 Masjid e Rabia, Nalgonda Railway Station Rd, Golla Guda Rural, Padmavathi Nagar Colony, Nalgonda, Telangana 508001","Golla Guda Rural, Padmavathi Nagar Colony","375J+MF2, Nalgonda Railway Station Rd",Nalgonda,508001,Telangana,IN,https://www.google.com/maps/place/Masjid+e+Rabia/data=!4m7!3m6!1s0x3bcb29fb54db833d:0x5e0056f1441a3ab9!8m2!3d17.0591485!4d79.2811549!16s%2Fg%2F11fm4j1ql8!19sChIJPYPbVPspyzsRuToaRPFWAF4?authuser=0&hl=en&rclk=1,"17.0591485,79.28115489999999"
Macca Masjid,Mosque,"Macca Masjid, Nalgonda, SH-2, Guntur, Hyderabad Rd, Meerbagh Colony, Ravindra Nagar, Nalgonda, Telangana 508001","Meerbagh Colony, Ravindra Nagar","Nalgonda, SH-2, Guntur, Hyderabad Rd",Nalgonda,508001,Telangana,IN,https://www.google.com/maps/place/Macca+Masjid/data=!4m7!3m6!1s0x3bcb298109970db9:0x2488c0f57fecee78!8m2!3d17.0690617!4d79.2632699!16s%2Fg%2F11td880qjr!19sChIJuQ2XCYEpyzsReO7sf_XAiCQ?authuser=0&hl=en&rclk=1,"17.0690617,79.2632699"
Masjid-e-Abu Bakar (R.z),Mosque,"372F+C2M Masjid-e-Abu Bakar (R.z), New Prakasham Bazar, Bottu Guda, Nalgonda, Telangana 508001","New Prakasham Bazar, Bottu Guda",372F+C2M,Nalgonda,508001,Telangana,IN,https://www.google.com/maps/place/Masjid-e-Abu+Bakar+%28R.z%29/data=!4m7!3m6!1s0x3bcb29988998ff23:0x8163c9be5a05210c!8m2!3d17.0511508!4d79.272515!16s%2Fg%2F11txp0yg21!19sChIJI_-YiZgpyzsRDCEFWr7JY4E?authuser=0&hl=en&rclk=1,"17.0511508,79.272515"
Darul Uloom Masjid,Mosque,"3797+9FW Darul Uloom Masjid, Meerbagh Colony, Ravindra Nagar, Nalgonda, Telangana 508001","Meerbagh Colony, Ravindra Nagar",3797+9FW,Nalgonda,508001,Telangana,IN,https://www.google.com/maps/place/Darul+Uloom+Masjid/data=!4m7!3m6!1s0x3bcb291392eaaaab:0x1b322c228578292c!8m2!3d17.0684852!4d79.2635269!16s%2Fg%2F11tgg7q66v!19sChIJq6rqkhMpyzsRLCl4hSIsMhs?authuser=0&hl=en&rclk=1,"17.068485199999998,79.2635269"
Masjid E Basheer Unnisa,Mosque,"27JM+9J5 Masjid E Basheer Unnisa, Golla Guda Rural, Nalgonda, Telangana 508004",Golla Guda Rural,27JM+9J5,Nalgonda,,Telangana,IN,https://www.google.com/maps/place/Masjid+E+Basheer+Unnisa/data=!4m7!3m6!1s0x3bcb29d988340edd:0x57c2f553cc404efd!8m2!3d17.0308847!4d79.2841056!16s%2Fg%2F11sdv5pw4k!19sChIJ3Q40iNkpyzsR_U5AzFP1wlc?authuser=0&hl=en&rclk=1,"17.030884699999998,79.28410559999999"
A R nagar masjid,Mosque,"27JJ+W6G A R nagar masjid, Nalgonda, Telangana 508004",,27JJ+W6G,Nalgonda,,Telangana,IN,https://www.google.com/maps/place/A+R+nagar+masjid/data=!4m7!3m6!1s0x3bcb29f94b2d6b3d:0x274f70529dae192f!8m2!3d17.032316!4d79.2805651!16s%2Fg%2F11l5pmcbsf!19sChIJPWstS_kpyzsRLxmunVJwTyc?authuser=0&hl=en&rclk=1,"17.032315999999998,79.28056509999999"
Basheer Bagh old city,Mosque,"Basheer Bagh old city, state Basheer Bagh, Old City, Nalgonda, Telangana 508001",Old City,state Basheer Bagh,Nalgonda,,Telangana,IN,https://www.google.com/maps/place/Basheer+Bagh+old+city/data=!4m7!3m6!1s0x3bcb2902523cc259:0xea262d4b68c9eeed!8m2!3d17.0536469!4d79.2573762!16s%2Fg%2F11n77qsfc3!19sChIJWcI8UgIpyzsR7e7JaEstJuo?authuser=0&hl=en&rclk=1,"17.0536469,79.2573762"
Masjid E Razzaqia Road,Toll road rest stop,"373H+R78 Masjid E Razzaqia Road, Rahamath Nagar, Ramgiri, Nalgonda, Telangana 508001","Rahamath Nagar, Ramgiri",373H+R78,Nalgonda,508001,Telangana,IN,https://www.google.com/maps/place/Masjid+E+Razzaqia+Road/data=!4m7!3m6!1s0x3bcb29c1e2133a1f:0xa0961a68fe2c60e7!8m2!3d17.0545431!4d79.278195!16s%2Fg%2F11fhqj6zb4!19sChIJHzoT4sEpyzsR52As_mgalqA?authuser=0&hl=en&rclk=1,"17.0545431,79.278195"
