name,main_category,address,address_ward,address_street,address_city,address_postal_code,address_state,address_country_code,link,coordinates
Jama Masjid,Mosque,"Jama Masjid, Old Delhi, Delhi, 110006","Jama Masjid, Old Delhi",,Delhi,110006,Delhi,IN,https://www.google.com/maps/place/Jama+Masjid/data=!4m7!3m6!1s0x390cfd18df89b215:0xdd57369e29bf9d96!8m2!3d28.6506792!4d77.2334421!16zL20vMDR5emo1!19sChIJFbKJ3xj9DDkRlp2_KZ42V90?authuser=0&hl=en&rclk=1,"28.6506792,77.23344209999999"
Bikanervala,Family restaurant,"Bikanervala, 7,Masjid Moth ,GK-II Savitri Cinema Main Road,, New Delhi, Delhi 110048","Greater Kailash Part 3, Greater Kailash","7,Masjid Moth ,GK-II Savitri Cinema Main Road,",New Delhi,110048,Delhi,IN,https://www.google.com/maps/place/Bikanervala/data=!4m7!3m6!1s0x390ce22b17e2d781:0x40c5f102209b866c!8m2!3d28.5374253!4d77.2389712!16s%2Fg%2F11cmr0t9q8!19sChIJgdfiFyviDDkRbIabIALxxUA?authuser=0&hl=en&rclk=1,"28.5374253,77.2389712"
Masjid Mujeeb Bagh,Mosque,"H74R+R4J Masjid Mujeeb Bagh, Mujeeb Bagh, Jamia Nagar, Okhla, New Delhi, Delhi 110025","Mujeeb Bagh, Jamia Nagar, Okhla",H74R+R4J,New Delhi,110025,Delhi,IN,https://www.google.com/maps/place/Masjid+Mujeeb+Bagh/data=!4m7!3m6!1s0x390ce40bc79e1ce9:0x18ab01f5fdcf10b3!8m2!3d28.5570856!4d77.2902574!16s%2Fg%2F11hbvrlrnj!19sChIJ6RyexwvkDDkRsxDP_fUBqxg?authuser=0&hl=en&rclk=1,"28.557085599999997,77.2902574"
Al Taqwa Masjid,Mosque,"Al Taqwa Masjid, 42A, Jogabai Extension, Okhla, New Delhi, Delhi 110025","Jogabai Extension, Okhla",42A,New Delhi,110025,Delhi,IN,https://www.google.com/maps/place/Al+Taqwa+Masjid/data=!4m7!3m6!1s0x390ce3886898c141:0x9ba952352c057021!8m2!3d28.5711037!4d77.2843441!16s%2Fg%2F11b6j7lmqh!19sChIJQcGYaIjjDDkRIXAFLDVSqZs?authuser=0&hl=en&rclk=1,"28.5711037,77.2843441"
Masjid Shahab,Mosque,"H78P+VWV Masjid Shahab, Jamia, Batla House, Jamia Nagar, Okhla, New Delhi, Delhi 110025","Jamia, Batla House, Jamia Nagar, Okhla",H78P+VWV,New Delhi,110025,Delhi,IN,https://www.google.com/maps/place/Masjid+Shahab/data=!4m7!3m6!1s0x390ce4760f556f8d:0xc0285f5f2f62012c!8m2!3d28.5672496!4d77.2873032!16s%2Fg%2F1hhm006pz!19sChIJjW9VD3bkDDkRLAFiL19fKMA?authuser=0&hl=en&rclk=1,"28.5672496,77.2873032"
Jama Masjid (Shaheen Bagh),Mosque,"Jama Masjid (Shaheen Bagh), 12, Kalindi Kunj Rd, Block B, Jamia Nagar, Jasola, New Delhi, Delhi 110025","Block B, Jamia Nagar, Jasola","12, Kalindi Kunj Rd",New Delhi,110025,Delhi,IN,https://www.google.com/maps/place/Jama+Masjid+%28Shaheen+Bagh%29/data=!4m7!3m6!1s0x390ce41a3d9d581b:0xc7b0e62465b11de9!8m2!3d28.5496905!4d77.3028252!16s%2Fg%2F11g7p2t2hd!19sChIJG1idPRrkDDkR6R2xZSTmsMc?authuser=0&hl=en&rclk=1,"28.549690499999997,77.3028252"
Sabz Masjid,Mosque,"Sabz Masjid, 3571, Lalkuan Bazar Rd, Bazar Sirkiwalan, Lal Kuan Bazar, Chandni Chowk, Delhi, 110006","Bazar Sirkiwalan, Lal Kuan Bazar, Chandni Chowk","3571, Lalkuan Bazar Rd",Delhi,110006,Delhi,IN,https://www.google.com/maps/place/Sabz+Masjid/data=!4m7!3m6!1s0x390cfd16a94877a7:0x7b35bb653cd42e20!8m2!3d28.652163!4d77.223599!16s%2Fm%2F04q247t!19sChIJp3dIqRb9DDkRIC7UPGW7NXs?authuser=0&hl=en&rclk=1,"28.652162999999998,77.223599"
Shahi Jama Masjid,Mosque,"Shahi Jama Masjid, Ahmed Marg, Kot, Sambhal, Uttar Pradesh 244302",Kot,Ahmed Marg,Sambhal,244302,Uttar Pradesh,IN,https://www.google.com/maps/place/Shahi+Jama+Masjid/data=!4m7!3m6!1s0x390b1f4b2324f455:0x355efdd8d84f721b!8m2!3d28.5806937!4d78.5671478!16s%2Fg%2F1hm23m41m!19sChIJVfQkI0sfCzkRG3JP2Nj9XjU?authuser=0&hl=en&rclk=1,"28.580693699999998,78.5671478"
Shahi Masjid Khuwaja Pir,Mosque,"Shahi Masjid Khuwaja Pir, A9A, Block A, Friends Colony East, New Friends Colony, New Delhi, Delhi 110065","Block A, Friends Colony East, New Friends Colony",A9A,New Delhi,110065,Delhi,IN,https://www.google.com/maps/place/Shahi+Masjid+Khuwaja+Pir/data=!4m7!3m6!1s0x390ce3a2ce05250b:0xe736d93d4567accc!8m2!3d28.5705505!4d77.2613256!16s%2Fg%2F11b66bs93g!19sChIJCyUFzqLjDDkRzKxnRT3ZNuc?authuser=0&hl=en&rclk=1,"28.5705505,77.26132559999999"
"Masjid Bengali Market, New Delhi",Mosque,"Masjid Bengali Market, New Delhi, 63, Babar Rd, Todermal Road Area, Mandi House, New Delhi, Delhi 110001","Todermal Road Area, Mandi House","63, Babar Rd",New Delhi,110001,Delhi,IN,"https://www.google.com/maps/place/Masjid+Bengali+Market,+New+Delhi/data=!4m7!3m6!1s0x390cfd2c240fee67:0x197eb12fd25a0753!8m2!3d28.6302118!4d77.2327613!16s%2Fg%2F1vm_w860!19sChIJZ-4PJCz9DDkRUwda0i-xfhk?authuser=0&hl=en&rclk=1","28.630211799999998,77.23276129999999"
Madni Masjid under Delhi Wakaf,Mosque,"Madni Masjid under Delhi Wakaf, Aravali Apartments, near, Alaknanda, New Delhi, Delhi 110019",Alaknanda,"Aravali Apartments, near",New Delhi,110019,Delhi,IN,https://www.google.com/maps/place/Madni+Masjid+under+Delhi+Wakaf/data=!4m7!3m6!1s0x390ce16350f7e38f:0xa1c7701e04aad5f2!8m2!3d28.5296762!4d77.252511!16s%2Fg%2F1q67vgk8s!19sChIJj-P3UGPhDDkR8tWqBB5wx6E?authuser=0&hl=en&rclk=1,"28.529676199999997,77.252511"
Masjid Basant Vihar Jumma,Mosque,"Masjid Basant Vihar Jumma, Juma 2:30 Shankar Vihar, near IGI Airport, Shankar Vihar, New Delhi, Delhi 110010",Shankar Vihar,"Juma 2:30 Shankar Vihar, near IGI Airport",New Delhi,110010,Delhi,IN,https://www.google.com/maps/place/Masjid+Basant+Vihar+Jumma/data=!4m7!3m6!1s0x390d1cf9351869c5:0x4156c39cbdc5bc6e!8m2!3d28.5744872!4d77.1426721!16s%2Fg%2F11c7swq8tz!19sChIJxWkYNfkcDTkRbrzFvZzDVkE?authuser=0&hl=en&rclk=1,"28.5744872,77.1426721"
Masjid Chakkarwali,Mosque,"H6VV+J99 Masjid Chakkarwali, Dr Zakir Hussain Marg, Nizamuddin, National Zoological Park, Sundar Nagar, New Delhi, Delhi 110003","Nizamuddin, National Zoological Park, Sundar Nagar","H6VV+J99, Dr Zakir Hussain Marg",New Delhi,110003,Delhi,IN,https://www.google.com/maps/place/Masjid+Chakkarwali/data=!4m7!3m6!1s0x390ce31d01969b01:0xa554bb4cb707340e!8m2!3d28.5940396!4d77.2434789!16s%2Fg%2F1tg6nhqh!19sChIJAZuWAR3jDDkRDjQHt0y7VKU?authuser=0&hl=en&rclk=1,"28.5940396,77.2434789"
Sunehari Bagh Masjid msjd,Mosque,"J666+5R2 Sunehari Bagh Masjid msjd, Motilal Nehru Marg, Rajpath Area, Central Secretariat, New Delhi, Delhi 110011","Rajpath Area, Central Secretariat","J666+5R2, Motilal Nehru Marg",New Delhi,110011,Delhi,IN,https://www.google.com/maps/place/Sunehari+Bagh+Masjid+%D9%85%D8%B3%D8%AC%D8%AF%E2%80%AD/data=!4m7!3m6!1s0x390ce2b9f7ae5b25:0x9e058e770ffa962f!8m2!3d28.610384!4d77.212024!16s%2Fg%2F124ycq4lc!19sChIJJVuu97niDDkRL5b6D3eOBZ4?authuser=0&hl=en&rclk=1,"28.610384,77.212024"
Abdul Salam Masjid,Mosque,"Abdul Salam Masjid, Gali No.13, Subhas Mohalla, North Ghonda, Delhi, 110053","Block C, Subash Vihar, Shahdara","Gali No.13, Subhas Mohalla, North Ghonda",Delhi,110053,Delhi,IN,https://www.google.com/maps/place/Abdul+Salam+Masjid/data=!4m7!3m6!1s0x390cfc6cea81d02d:0x4eff761b07605697!8m2!3d28.6956007!4d77.2705344!16s%2Fg%2F1jgly4_2k!19sChIJLdCB6mz8DDkRl1ZgBxt2_04?authuser=0&hl=en&rclk=1,"28.6956007,77.2705344"
Jama masjid,Mosque,"Jama masjid, Metro station, Giri Nagar, Maa Anandmayee Marg, near Govindpuri, Kalkaji, New Delhi, Delhi 110019","Ami Chand Khand, Block AC, Giri Nagar, Kalkaji","Metro station, Giri Nagar, Maa Anandmayee Marg, near Govindpuri",New Delhi,110019,Delhi,IN,https://www.google.com/maps/place/Jama+masjid/data=!4m7!3m6!1s0x390ce3915ddf4023:0xc0785bd0f9e63fa0!8m2!3d28.5435534!4d77.2644385!16s%2Fg%2F11fj32cs9z!19sChIJI0DfXZHjDDkRoD_m-dBbeMA?authuser=0&hl=en&rclk=1,"28.5435534,77.2644385"
Jama Masjid (Batla House),Mosque,"H, Jama Masjid (Batla House), 334, 7, Street Number 6, Batla House, Okhla, New Delhi, Delhi 110025","Jamia, Batla House, Jamia Nagar, Okhla","H, 334, 7, Street Number 6",New Delhi,110025,Delhi,IN,https://www.google.com/maps/place/Jama+Masjid+%28Batla+House%29/data=!4m7!3m6!1s0x390ce3207d46fe8f:0xe6bf4d1a3f6d4108!8m2!3d28.5661636!4d77.2851632!16s%2Fg%2F11llyqcllh!19sChIJj_5GfSDjDDkRCEFtPxpNv-Y?authuser=0&hl=en&rclk=1,"28.5661636,77.2851632"
MASJID AMROOD WALI,Mosque,"MASJID AMROOD WALI, Bulbuli khana, near kala masjid, Turkman Gate, Old Delhi, New Delhi, Delhi, 110006","Turkman Gate, Old Delhi","Bulbuli khana, near kala masjid","New Delhi, Delhi",110006,Delhi,IN,https://www.google.com/maps/place/MASJID+AMROOD+WALI/data=!4m7!3m6!1s0x390cfd22f0eb7eef:0xc91420f046ba3b88!8m2!3d28.6410797!4d77.2337194!16s%2Fg%2F11d_x09zhj!19sChIJ737r8CL9DDkRiDu6RvAgFMk?authuser=0&hl=en&rclk=1,"28.6410797,77.2337194"
Masjid Dai-Wali,Mosque,"Shop No, Masjid Dai-Wali, 3136, Delhi Gate Bazar, Kucha Alam, Khabas Pura, Daryaganj, New Delhi, Delhi, 110002","Kucha Alam, Khabas Pura, Daryaganj","Shop No, 3136, Delhi Gate Bazar","New Delhi, Delhi",110002,Delhi,IN,https://www.google.com/maps/place/Masjid+Dai-Wali/data=!4m7!3m6!1s0x390cfd20da360d31:0x7e303aff50cc4c2b!8m2!3d28.6435772!4d77.2380546!16s%2Fg%2F1jky_pbsw!19sChIJMQ022iD9DDkRK0zMUP86MH4?authuser=0&hl=en&rclk=1,"28.6435772,77.2380546"
Subhan Allah Masjid sbHn llWh msjd,Mosque,"Subhan Allah Masjid sbHn llWh msjd, N32 subhan allaha masjid, Brahampuri Rd, Delhi, 110053","Ghonda, Shahdara","N32 subhan allaha masjid, Brahampuri Rd",Delhi,110053,Delhi,IN,https://www.google.com/maps/place/Subhan+Allah+Masjid+%D8%B3%D8%A8%D8%AD%D8%A7%D9%86+%D8%A7%D9%84%D9%84%D9%91%D9%B0%D9%87+%D9%85%D8%B3%D8%AC%D8%AF%E2%80%AD/data=!4m7!3m6!1s0x390cfc6f6fef68fb:0x2a849d748e28f474!8m2!3d28.6866232!4d77.2713568!16s%2Fg%2F11c4kb6wqr!19sChIJ-2jvb2_8DDkRdPQojnSdhCo?authuser=0&hl=en&rclk=1,"28.6866232,77.27135679999999"
Jama Masjid,Mosque,"Jama Masjid, Transport Bhawan Masjid, 1, Annexe Rd, Gokul Nagar, Pandit Pant Marg Area, Central Secretariat, New Delhi, Delhi 110001","Gokul Nagar, Pandit Pant Marg Area, Central Secretariat","Transport Bhawan Masjid, 1, Annexe Rd",New Delhi,110001,Delhi,IN,https://www.google.com/maps/place/Jama+Masjid/data=!4m7!3m6!1s0x390ce2b39554d7fd:0xd8f8e403ebe796c8!8m2!3d28.618668!4d77.2101746!16s%2Fg%2F11c4ww6ts3!19sChIJ_ddUlbPiDDkRyJbn6wPk-Ng?authuser=0&hl=en&rclk=1,"28.618668,77.2101746"
Masjid Jamun Wali,Mosque,"Masjid Jamun Wali, Jamun Street, Kalan Mahal Rd, Kalan Mahal, Daryaganj, Delhi, 110002","Kalan Mahal, Daryaganj","Jamun Street, Kalan Mahal Rd",Delhi,110002,Delhi,IN,https://www.google.com/maps/place/Masjid+Jamun+Wali/data=!4m7!3m6!1s0x390cfd21e86c6d67:0xebc83db6fbea62a8!8m2!3d28.6473277!4d77.2360868!16s%2Fg%2F11g6qh_snj!19sChIJZ21s6CH9DDkRqGLq-7Y9yOs?authuser=0&hl=en&rclk=1,"28.647327699999998,77.2360868"
Masjid Sabeel Wali,Mosque,"J6WP+93F Masjid Sabeel Wali, Chittli Qabar Bazar Rd, Bazar Chitli Qabar, Kalan Mehal, Old Delhi, Delhi, 110002","Bazar Chitli Qabar, Kalan Mehal, Old Delhi","J6WP+93F, Chittli Qabar Bazar Rd",Delhi,110002,Delhi,IN,https://www.google.com/maps/place/Masjid+Sabeel+Wali/data=!4m7!3m6!1s0x390cfd218f4865b9:0x8392357b25cb3df8!8m2!3d28.6459304!4d77.2351802!16s%2Fg%2F11fxb41y92!19sChIJuWVIjyH9DDkR-D3LJXs1koM?authuser=0&hl=en&rclk=1,"28.645930399999997,77.2351802"
Jama Masjid,Mosque,"Jama Masjid, F-132, Kalindi Kunj Rd, Abul Fazal Enclave Part 1, Part 1 Abul Fazal Enclave, Block C, Jamia Nagar, Okhla, New Delhi, Delhi 110025","Abul Fazal Enclave Part 1, Part 1 Abul Fazal Enclave, Block C, Jamia Nagar, Okhla","F-132, Kalindi Kunj Rd",New Delhi,110025,Delhi,IN,https://www.google.com/maps/place/Jama+Masjid/data=!4m7!3m6!1s0x390ce474fc283e6d:0xbf47a3d3e25a4cad!8m2!3d28.560132!4d77.294788!16s%2Fg%2F12hkzr6p1!19sChIJbT4o_HTkDDkRrUxa4tOjR78?authuser=0&hl=en&rclk=1,"28.560132,77.294788"
Jama Masjid Gate Number 1,Mosque,"J6XM+XW9 Jama Masjid Gate Number 1, Urdu Bazar Rd, Meena Bazaar, Jama Masjid, Chandni Chowk, New Delhi, Delhi, 110006","Meena Bazaar, Jama Masjid, Chandni Chowk","J6XM+XW9, Urdu Bazar Rd","New Delhi, Delhi",110006,Delhi,IN,https://www.google.com/maps/place/Jama+Masjid+Gate+Number+1/data=!4m7!3m6!1s0x390cfdb4c9715319:0x6ce59b2dd83221f9!8m2!3d28.6499148!4d77.2348516!16s%2Fg%2F11v5bbt7zx!19sChIJGVNxybT9DDkR-SEy2C2b5Ww?authuser=0&hl=en&rclk=1,"28.649914799999998,77.2348516"
Mohammadi Masjid,Mosque,"Mohammadi Masjid, block - c , gali no. 12 , shiv vihar part 2, Ismailpur Rd, Ekta Vihar, Basantpur, Faridabad, Delhi 121003","Ekta Vihar, Basantpur","block - c , gali no. 12 , shiv vihar part 2, Ismailpur Rd","Faridabad, New Delhi",121003,Delhi,IN,https://www.google.com/maps/place/Mohammadi+Masjid/data=!4m7!3m6!1s0x390ce65691d77451:0x37e5a2edf0d4bd81!8m2!3d28.5035617!4d77.3360423!16s%2Fg%2F12hmr57km!19sChIJUXTXkVbmDDkRgb3U8O2i5Tc?authuser=0&hl=en&rclk=1,"28.5035617,77.3360423"
"Masjid Madarsa Faizyab ISBT, Sarai Kale Khan Nizamuddin",Mosque,"Masjid Madarsa Faizyab ISBT, Sarai Kale Khan Nizamuddin, ISBT Sarai Kale Khan, Sarai Kale Khan, New Delhi, Delhi 110013","ISBT Sarai Kale Khan, Sarai Kale Khan",,New Delhi,110013,Delhi,IN,"https://www.google.com/maps/place/Masjid+Madarsa+Faizyab+ISBT,+Sarai+Kale+Khan+Nizamuddin/data=!4m7!3m6!1s0x390ce30be59a7b59:0x3d13dab7c7eb962f!8m2!3d28.586186!4d77.2584179!16s%2Fg%2F11ddwzrlh3!19sChIJWXua5QvjDDkRL5brx7faEz0?authuser=0&hl=en&rclk=1","28.586185999999998,77.2584179"
Masjid Neem Wali,Mosque,"J6XP+GQ3 Masjid Neem Wali, Street khidhki, Kalan Mahal, Daryaganj, New Delhi, Delhi 110002","Kalan Mahal, Daryaganj","J6XP+GQ3, Street khidhki","New Delhi, Delhi",110002,Delhi,IN,https://www.google.com/maps/place/Masjid+Neem+Wali/data=!4m7!3m6!1s0x390cfd1f65334c69:0x68db7ecd3a5693b1!8m2!3d28.6487668!4d77.236922!16s%2Fg%2F11c6wq6p8g!19sChIJaUwzZR_9DDkRsZNWOs1-22g?authuser=0&hl=en&rclk=1,"28.648766799999997,77.23692199999999"
Jamia masjid delhi,Mosque,"M62M+7MX Jamia masjid delhi, Jama Masjid, Old Delhi, Delhi, 110006","Jama Masjid, Old Delhi",M62M+7MX,Delhi,110006,Delhi,IN,https://www.google.com/maps/place/Jamia+masjid+delhi/data=!4m7!3m6!1s0x390cfdf9aa594345:0xdbfb5c229943975e!8m2!3d28.6507366!4d77.2342448!16s%2Fg%2F11v3h02xv7!19sChIJRUNZqvn9DDkRXpdDmSJc-9s?authuser=0&hl=en&rclk=1,"28.6507366,77.2342448"
bengali masjid,Mosque,"H764+VVX bengali masjid, Captain Gaur Marg, B Block, Sri Niwaspuri, New Delhi, Delhi 110065","B Block, Sri Niwaspuri","H764+VVX, Captain Gaur Marg",New Delhi,110065,Delhi,IN,https://www.google.com/maps/place/bengali+masjid/data=!4m7!3m6!1s0x390ce3b939444715:0x2a65d4354b4231cf!8m2!3d28.5622322!4d77.257234!16s%2Fg%2F11f24v_2cr!19sChIJFUdEObnjDDkRzzFCSzXUZSo?authuser=0&hl=en&rclk=1,"28.5622322,77.257234"
IMAM AHMAD RAZA JAMA MASJID,Mosque,"IMAM AHMAD RAZA JAMA MASJID, B 665, Pocket 4, B Block, JJ Colony, Uttam Nagar, New Delhi, Delhi, 110059","Pocket 4, B Block, JJ Colony, Uttam Nagar",B 665,"New Delhi, Delhi",110059,Delhi,IN,https://www.google.com/maps/place/IMAM+AHMAD+RAZA+JAMA+MASJID/data=!4m7!3m6!1s0x390d052171654883:0xcbc2bc8f49e66da2!8m2!3d28.6253214!4d77.0630461!16s%2Fg%2F11n5gz54q_!19sChIJg0hlcSEFDTkRom3mSY-8wss?authuser=0&hl=en&rclk=1,"28.625321399999997,77.0630461"
Choti Masjid Kashmiri Gate,Mosque,"Choti Masjid Kashmiri Gate, 893, Tilak Gali, Mori Gate, New Delhi, Delhi, 110006",Mori Gate,"893, Tilak Gali","New Delhi, Delhi",110006,Delhi,IN,https://www.google.com/maps/place/Choti+Masjid+Kashmiri+Gate/data=!4m7!3m6!1s0x390cfd0596663853:0x1397a83a6f383559!8m2!3d28.6628877!4d77.2303117!16s%2Fg%2F11dzd08k1_!19sChIJUzhmlgX9DDkRWTU4bzqolxM?authuser=0&hl=en&rclk=1,"28.6628877,77.2303117"
Muhamadi Wali Masjid,Historical landmark,"H638+R8G Muhamadi Wali Masjid, Siri Fort Institutional Area, Siri Fort, New Delhi, Delhi 110049","Siri Fort Institutional Area, Siri Fort",H638+R8G,New Delhi,110049,Delhi,IN,https://www.google.com/maps/place/Muhamadi+Wali+Masjid/data=!4m7!3m6!1s0x390ce26acaf52495:0x99ea43a076fc60c!8m2!3d28.5545536!4d77.2158416!16s%2Fg%2F11gzqh6d0!19sChIJlST1ymriDDkRDMZvBzqkngk?authuser=0&hl=en&rclk=1,"28.5545536,77.21584159999999"
Masjid Badi msjd,Mosque,"Masjid Badi msjd, 893,, Chittli Qabar Bazar Rd, Jama Masjid, Chandni Chowk, New Delhi, Delhi 110006","Bazar Chitli Qabar, Kucha Chelan, Jama Masjid, Chandni Chowk","893,, Chittli Qabar Bazar Rd","New Delhi, Delhi",110006,Delhi,IN,https://www.google.com/maps/place/Masjid+Badi+%D9%85%D8%B3%D8%AC%D8%AF%E2%80%AD/data=!4m7!3m6!1s0x390cfd219cfec1f3:0x93ccacb281d71709!8m2!3d28.645321!4d77.2357133!16s%2Fg%2F12m98gjn5!19sChIJ88H-nCH9DDkRCRfXgbKszJM?authuser=0&hl=en&rclk=1,"28.645321,77.2357133"
Garahaiya Wali Masjid msjd ghrrhy wly,Mosque,"M645+P9X Garahaiya Wali Masjid msjd ghrrhy wly, Qureshnagar, Sadar Bazaar, Delhi, 110006","Sarai Khalil, Sadar Bazaar","M645+P9X, Qureshnagar, Sadar Bazaar",Delhi,110006,Delhi,IN,https://www.google.com/maps/place/Garahaiya+Wali+Masjid+%D9%85%D8%B3%D8%AC%D8%AF+%DA%AF%DA%BE%DA%91%DA%BE%DB%8C%D8%A7+%D9%88%D8%A7%D9%84%DB%8C%E2%80%AD/data=!4m7!3m6!1s0x390cfd6fd6004367:0xfebc1f26322235da!8m2!3d28.6568604!4d77.2084973!16s%2Fg%2F11c3w0w7y_!19sChIJZ0MA1m_9DDkR2jUiMiYfvP4?authuser=0&hl=en&rclk=1,"28.6568604,77.20849729999999"
Masjid Ghaffar (Ahl-e-Hadees),Mosque,"Masjid Ghaffar (Ahl-e-Hadees), P-102, Block P, Batla House, Okhla, New Delhi, Delhi 110025","Block P, Batla House, Okhla",P-102,New Delhi,110025,Delhi,IN,https://www.google.com/maps/place/Masjid+Ghaffar+%28Ahl-e-Hadees%29/data=!4m7!3m6!1s0x390ce5f38957cde3:0x573e5c67ce07d2a8!8m2!3d28.5708158!4d77.287928!16s%2Fg%2F11ql65ls0c!19sChIJ481XifPlDDkRqNIHzmdcPlc?authuser=0&hl=en&rclk=1,"28.5708158,77.287928"
Subhaniya Masjid,Mosque,"Subhaniya Masjid, F-3, Gali Number 4, Block C, Devli, Sangam Vihar, New Delhi, Delhi 110080, Gali Number 4, Block C, Devli, Sangam Vihar, New Delhi, Delhi 110080","Block C, Devli, Sangam Vihar","F-3, Gali Number 4, Block C, Devli, Sangam Vihar, New Delhi, Delhi 110080, Gali Number 4",New Delhi,110080,Delhi,IN,https://www.google.com/maps/place/Subhaniya+Masjid/data=!4m7!3m6!1s0x390ce107cf98c8e9:0x7387f695087ffa88!8m2!3d28.4986983!4d77.2427538!16s%2Fg%2F11g8wd8z83!19sChIJ6ciYzwfhDDkRiPp_CJX2h3M?authuser=0&hl=en&rclk=1,"28.498698299999997,77.2427538"
Masjid Barh Wali,Mosque,"M67F+GWW Masjid Barh Wali, Ram Bazar, South Indian Madrasi Colony, Old Delhi, New Delhi, Delhi, 110006","Ram Bazar, South Indian Madrasi Colony, Old Delhi",M67F+GWW,"New Delhi, Delhi",110006,Delhi,IN,https://www.google.com/maps/place/Masjid+Barh+Wali/data=!4m7!3m6!1s0x390cfd0ec99b60a9:0xd50c2467d3be3d5e!8m2!3d28.6638574!4d77.2248316!16s%2Fg%2F12hmx30fh!19sChIJqWCbyQ79DDkRXj2-02ckDNU?authuser=0&hl=en&rclk=1,"28.663857399999998,77.2248316"
JAMA MASJID UMAR BIN KHATTAB,Mosque,"G8W3+XWV JAMA MASJID UMAR BIN KHATTAB, Kalindi Kunj Rd, Block H, Jamia Nagar, Okhla, New Delhi, Delhi 110025","Block H, Jamia Nagar, Okhla","G8W3+XWV, Kalindi Kunj Rd",New Delhi,110025,Delhi,IN,https://www.google.com/maps/place/JAMA+MASJID+UMAR+BIN+KHATTAB/data=!4m7!3m6!1s0x390ce51eb7ea0bfd:0xe968824c610cc265!8m2!3d28.5474867!4d77.3047909!16s%2Fg%2F11h7p6jtqd!19sChIJ_Qvqtx7lDDkRZcIMYUyCaOk?authuser=0&hl=en&rclk=1,"28.5474867,77.3047909"
Jama masjid,Mosque,"Jama masjid, Red Fort Metro Station Jama Masjid, 1470, Bazar Chitli Qabar, Jama Masjid, Chandni Chowk, Delhi, 110006","Bazar Chitli Qabar, Jama Masjid, Chandni Chowk","Red Fort Metro Station Jama Masjid, 1470",Delhi,110006,Delhi,IN,https://www.google.com/maps/place/Jama+masjid/data=!4m7!3m6!1s0x390cfda4444f0ab5:0xb5651f207dbbb435!8m2!3d28.6499266!4d77.2375969!16s%2Fg%2F11kr97bv5h!19sChIJtQpPRKT9DDkRNbS7fSAfZbU?authuser=0&hl=en&rclk=1,"28.649926599999997,77.2375969"
Imam Chok Masjid,Mosque,"W55H+VH5 Imam Chok Masjid, Purana Cinema Holl Ke Paas, Sambhar, Rajasthan 303604",,"W55H+VH5, Purana Cinema Holl Ke Paas",Sambhar,303604,Rajasthan,IN,https://www.google.com/maps/place/Imam+Chok+Masjid/data=!4m7!3m6!1s0x396c6fb7c8c40c45:0xe28605fb862c890a!8m2!3d26.9096288!4d75.1789754!16s%2Fg%2F11ggrmc3j3!19sChIJRQzEyLdvbDkRCokshvsFhuI?authuser=0&hl=en&rclk=1,"26.9096288,75.1789754"
Bada Baazar Mosque,Mosque,"W57M+596 Bada Baazar Mosque, Sambhar, Rajasthan 303604",,W57M+596,Sambhar,303604,Rajasthan,IN,https://www.google.com/maps/place/Bada+Baazar+Mosque/data=!4m7!3m6!1s0x396c6fb9c218ad3f:0x9ee6609929431074!8m2!3d26.9129199!4d75.1833919!16s%2Fg%2F1hc2l425k!19sChIJP60YwrlvbDkRdBBDKZlg5p4?authuser=0&hl=en&rclk=1,"26.9129199,75.18339189999999"
Munawra masjid,Mosque,"M7P4+6M2 Munawra masjid, Masjid Road, Third Pushta, Usmanpur, Nayagaon Village, Shahdara, Delhi, 110053","Third Pushta, Nayagaon, Nayagaon Village, Shahdara","M7P4+6M2, Masjid Road, Third Pushta, Usmanpur",Delhi,110053,Delhi,IN,https://www.google.com/maps/place/Munawra+masjid/data=!4m7!3m6!1s0x390cfd030e33f563:0x5dc12b36744f9a85!8m2!3d28.6855176!4d77.2566372!16s%2Fg%2F11hzwz2ypj!19sChIJY_UzDgP9DDkRhZpPdDYrwV0?authuser=0&hl=en&rclk=1,"28.685517599999997,77.2566372"
MASJID GOUSUL WARA,Mosque,"G79M+8MW MASJID GOUSUL WARA, Tekhand, Okhla Phase I, Okhla Industrial Estate, New Delhi, Delhi 110020","Tekhand, Okhla Phase I, Okhla Industrial Estate",G79M+8MW,New Delhi,110020,Delhi,IN,https://www.google.com/maps/place/MASJID+GOUSUL+WARA/data=!4m7!3m6!1s0x390ce15f4f8ec11b:0x9d50897d641b8031!8m2!3d28.5183625!4d77.2842054!16s%2Fg%2F11sy5qrxj3!19sChIJG8GOT1_hDDkRMYAbZH2JUJ0?authuser=0&hl=en&rclk=1,"28.5183625,77.28420539999999"
SE Road Mosque,Mosque,"J6Q9+QQX SE Road Mosque, State Entry Rd, Railway Colony, Paharganj, New Delhi, Delhi, 110006","Railway Colony, Paharganj","J6Q9+QQX, State Entry Rd","New Delhi, Delhi",110006,Delhi,IN,https://www.google.com/maps/place/SE+Road+Mosque/data=!4m7!3m6!1s0x390cfd38cc2255bd:0x8b76006125eef67c!8m2!3d28.6394908!4d77.2194758!16s%2Fg%2F1q2w4_nrg!19sChIJvVUizDj9DDkRfPbuJWEAdos?authuser=0&hl=en&rclk=1,"28.639490799999997,77.2194758"
Ghaziuddin's Mosque,Mosque,"J6WC+27Q Ghaziuddin's Mosque, Desh Bandhu Gupta Rd, Ajmeri Gate, New Delhi, Delhi, 110006",Ajmeri Gate,"J6WC+27Q, Desh Bandhu Gupta Rd","New Delhi, Delhi",110006,Delhi,IN,https://www.google.com/maps/place/Ghaziuddin%27s+Mosque/data=!4m7!3m6!1s0x390cfd3e4a23a085:0xc3158b353abd92f2!8m2!3d28.6450762!4d77.2207416!16s%2Fg%2F12hmk812x!19sChIJhaAjSj79DDkR8pK9OjWLFcM?authuser=0&hl=en&rclk=1,"28.6450762,77.2207416"
SHAHI JAMA MASJID jm` msjd shhy,Mosque,"SHAHI JAMA MASJID jm` msjd shhy, 22, foot road, Shram Vihar, Pocket N, Madanpur Khadar, New Delhi, Delhi 110025","Shram Vihar, Pocket N, Madanpur Khadar","22, foot road",New Delhi,110025,Delhi,IN,https://www.google.com/maps/place/SHAHI+JAMA+MASJID+%D8%AC%D8%A7%D9%85%D8%B9+%D9%85%D8%B3%D8%AC%D8%AF+%D8%B4%D8%A7%DA%BE%DB%8C%E2%80%AD/data=!4m7!3m6!1s0x390ce5a36ba3a95d:0x7cb7c1435cda3fd2!8m2!3d28.5405938!4d77.3038368!16s%2Fg%2F11n733rllr!19sChIJXamja6PlDDkR0j_aXEPBt3w?authuser=0&hl=en&rclk=1,"28.5405938,77.3038368"
Masjid Sanauji,Mosque,"Masjid Sanauji, Shop No. 1630, Lal Kuan, Lalkuan Bazar Rd, Baradari, Chandni Chowk, New Delhi, Delhi 110006","Bazar Sirkiwalan, Baradari, Chandni Chowk","Shop No. 1630, Lal Kuan, Lalkuan Bazar Rd","New Delhi, Delhi",110006,Delhi,IN,https://www.google.com/maps/place/Masjid+Sanauji/data=!4m7!3m6!1s0x390cfd13fe3ea72d:0x27ea23bc5f650202!8m2!3d28.6529317!4d77.2232485!16s%2Fg%2F12hplq4pp!19sChIJLac-_hP9DDkRAgJlX7wj6ic?authuser=0&hl=en&rclk=1,"28.6529317,77.2232485"
Mashal Shihan Masjid,Mosque,"Mashal Shihan Masjid, 2106, Sitaram Bazar Rd, Pahari Bhojla, Sita Ram Bazar, Chandni Chowk, Delhi, 110006","Pahari Bhojla, Sita Ram Bazar, Chandni Chowk","2106, Sitaram Bazar Rd",Delhi,110006,Delhi,IN,https://www.google.com/maps/place/Mashal+Shihan+Masjid/data=!4m7!3m6!1s0x390cfd22573ea689:0xd0bacca9e2a885ae!8m2!3d28.6458657!4d77.2314269!16s%2Fg%2F11g6rftfft!19sChIJiaY-VyL9DDkRroWo4qnMutA?authuser=0&hl=en&rclk=1,"28.645865699999998,77.2314269"
Mosque msjd,Mosque,"Mosque msjd, 3696, Mori Gate, New Delhi, Delhi 110006",Mori Gate,3696,"New Delhi, Delhi",110006,Delhi,IN,https://www.google.com/maps/place/Mosque+%D9%85%D8%B3%D8%AC%D8%AF%E2%80%AD/data=!4m7!3m6!1s0x390cfd0c79fa6f11:0x326ac233054d2efa!8m2!3d28.6635017!4d77.2212005!16s%2Fg%2F12lkq2186!19sChIJEW_6eQz9DDkR-i5NBTPCajI?authuser=0&hl=en&rclk=1,"28.663501699999998,77.2212005"
Subhanallah masjid,Mosque,"P77J+M63 Subhanallah masjid, Indra Vihar II, Phase 1, Indra Vihar, New Mustafabad, Delhi, 110094","Indra Vihar II, Phase 1, Indra Vihar, New Mustafabad",P77J+M63,Delhi,110094,Delhi,IN,https://www.google.com/maps/place/Subhanallah+masjid/data=!4m7!3m6!1s0x390cfd73e42a428d:0x9775315c361b368f!8m2!3d28.7141446!4d77.280536!16s%2Fg%2F11q1r51bwh!19sChIJjUIq5HP9DDkRjzYbNlwxdZc?authuser=0&hl=en&rclk=1,"28.714144599999997,77.280536"
KAASMI MASJID,Mosque,"KAASMI MASJID, 8 -110094, Gali No. 2, E2 Block, Nehru Vihar, New Mustafabad, Delhi, 110094","E2 Block, Nehru Vihar, Old Mustafabad, New Mustafabad","8 -110094, Gali No. 2",Delhi,110094,Delhi,IN,https://www.google.com/maps/place/KAASMI+MASJID/data=!4m7!3m6!1s0x390cfc1bc20852c3:0xbeb256e8db121704!8m2!3d28.712964!4d77.2702719!16s%2Fg%2F11fxb790sf!19sChIJw1IIwhv8DDkRBBcS2-hWsr4?authuser=0&hl=en&rclk=1,"28.712964,77.2702719"
Masjid Abu Bakr Siddique,Mosque,"Masjid Abu Bakr Siddique, near, aaliya farm, extn, Jaitpur Extension Part II, Vishwakarma Colony, Haryana 110044","Jaitpur Extension Part II, Vishwakarma Colony","near, aaliya farm, extn",Faridabad,110044,Haryana,IN,https://www.google.com/maps/place/Masjid+Abu+Bakr+Siddique/data=!4m7!3m6!1s0x390ce65acabd0ad5:0x4fd78768436bfb84!8m2!3d28.5106274!4d77.3438573!16s%2Fg%2F11fy1llv4d!19sChIJ1Qq9ylrmDDkRhPtrQ2iH108?authuser=0&hl=en&rclk=1,"28.510627399999997,77.3438573"
Masjid Berry Wali,Mosque,"Masjid Berry Wali, 5052, Netaji Subhash Marg, Daryaganj, New Delhi, Delhi, 110002",Daryaganj,"5052, Netaji Subhash Marg","New Delhi, Delhi",110002,Delhi,IN,https://www.google.com/maps/place/Masjid+Berry+Wali/data=!4m7!3m6!1s0x390cfd2077ef9a35:0x65651f472fd052c6!8m2!3d28.6463141!4d77.2405098!16s%2Fg%2F11g6_1mz03!19sChIJNZrvdyD9DDkRxlLQL0cfZWU?authuser=0&hl=en&rclk=1,"28.646314099999998,77.2405098"
Baghwali Masjid msjd bG wly,Mosque,"Baghwali Masjid msjd bG wly, 785, Nicholson Rd, Kashmere Gate, New Delhi, Delhi 110006","Ganda Nala Bazar, Kashmere Gate","785, Nicholson Rd","New Delhi, Delhi",110006,Delhi,IN,https://www.google.com/maps/place/Baghwali+Masjid+%D9%85%D8%B3%D8%AC%D8%AF+%D8%A8%D8%A7%D8%BA+%D9%88%D8%A7%D9%84%DB%8C%E2%80%AD/data=!4m7!3m6!1s0x390cfd092767785b:0xd4966cf4d21cbda8!8m2!3d28.6653187!4d77.2261277!16s%2Fg%2F12llwbr4n!19sChIJW3hnJwn9DDkRqL0c0vRsltQ?authuser=0&hl=en&rclk=1,"28.6653187,77.22612769999999"
BADI MASJID,Mosque,"HHPF+QWC BADI MASJID, Sambhal, Uttar Pradesh 244302",,HHPF+QWC,Sambhal,244302,Uttar Pradesh,IN,https://www.google.com/maps/place/BADI+MASJID/data=!4m7!3m6!1s0x390b1f37b28b88c9:0x1b1a4914dc1df21a!8m2!3d28.5869429!4d78.5747585!16s%2Fg%2F11g7245rw4!19sChIJyYiLsjcfCzkRGvId3BRJGhs?authuser=0&hl=en&rclk=1,"28.5869429,78.5747585"
Ishaq Masjid,Mosque,"Ishaq Masjid, Ishaq Masjid Wali Gali, Block C, Sarai Kale Khan, New Delhi, Delhi 110013","Block C, Sarai Kale Khan",Ishaq Masjid Wali Gali,New Delhi,110013,Delhi,IN,https://www.google.com/maps/place/Ishaq+Masjid/data=!4m7!3m6!1s0x390ce376f8a80f59:0x43d242dbd3376818!8m2!3d28.5849571!4d77.2565889!16s%2Fg%2F11q2tx_6x1!19sChIJWQ-o-HbjDDkRGGg309tC0kM?authuser=0&hl=en&rclk=1,"28.5849571,77.2565889"
Madrasa Jamia Sabeelus Salam,Mosque,"M7PC+W6X Madrasa Jamia Sabeelus Salam, Ghonda, Shahdara, Delhi, 110053","Ghonda, Shahdara",M7PC+W6X,Delhi,110053,Delhi,IN,https://www.google.com/maps/place/Madrasa+Jamia+Sabeelus+Salam/data=!4m7!3m6!1s0x390cfc6f168b78a1:0x37e249f54c3ed033!8m2!3d28.6873735!4d77.2706142!16s%2Fg%2F11f3v5d5fn!19sChIJoXiLFm_8DDkRM9A-TPVJ4jc?authuser=0&hl=en&rclk=1,"28.6873735,77.2706142"
Ijaba Masjid,Mosque,"Ijaba Masjid, 1489/16, Block D, Chand Vihar, New Mustafabad, Delhi, 110094","Block D, Chand Vihar, New Mustafabad",1489/16,Delhi,110094,Delhi,IN,https://www.google.com/maps/place/Ijaba+Masjid/data=!4m7!3m6!1s0x390cfd4112cff819:0x124578cf76e8540b!8m2!3d28.7086594!4d77.2713446!16s%2Fg%2F11j08711wr!19sChIJGfjPEkH9DDkRC1Tods94RRI?authuser=0&hl=en&rclk=1,"28.7086594,77.27134459999999"
Masjid,Mosque,"Q6MJ+5H5 Masjid, Badarpur, Madanpur Khadar, New Delhi, 110084",Madanpur Khadar,"Q6MJ+5H5, Badarpur","New Delhi, Delhi",110084,Delhi,IN,https://www.google.com/maps/place/Masjid/data=!4m7!3m6!1s0x390cffb780460377:0x9fe224e9c653e965!8m2!3d28.7828891!4d77.2314704!16s%2Fg%2F11qn790lvq!19sChIJdwNGgLf_DDkRZelTxukk4p8?authuser=0&hl=en&rclk=1,"28.7828891,77.23147039999999"
Masjid sahsan,Mosque,"P5VJ+8RM Masjid sahsan, MDR50, Sahsan, Rajasthan 321023",,"P5VJ+8RM, MDR50",Sahsan,321023,Rajasthan,IN,https://www.google.com/maps/place/Masjid+sahsan/data=!4m7!3m6!1s0x3972dfc35624039f:0x2ef074d803ba50a8!8m2!3d27.7433331!4d77.182039!16s%2Fg%2F11fphcks4c!19sChIJnwMkVsPfcjkRqFC6A9h08C4?authuser=0&hl=en&rclk=1,"27.743333099999997,77.182039"
Jama Masjid,Mosque,"5W8X+G5F Jama Masjid, Mashit, Thana Alam Alias Masit, Haryana 122015",,5W8X+G5F,"Mashit, Thana Alam Alias Masit",122015,Haryana,IN,https://www.google.com/maps/place/Jama+Masjid/data=!4m7!3m6!1s0x390d3113e5827119:0x5f28dd1ffbe55675!8m2!3d28.1663167!4d76.947924!16s%2Fg%2F11cs01mlx9!19sChIJGXGC5RMxDTkRdVbl-x_dKF8?authuser=0&hl=en&rclk=1,"28.1663167,76.947924"
Sakina Masjid,Mosque,"Sakina Masjid, 155 opp.yamin hotel, Nizamuddin, Nizammudin West Slum, Nizamuddin West, New Delhi, Delhi 110013","Nizamuddin, Nizammudin West Slum, Nizamuddin West",155 opp.yamin hotel,New Delhi,110013,Delhi,IN,https://www.google.com/maps/place/Sakina+Masjid/data=!4m7!3m6!1s0x390ce39c0167077f:0xe6700225851ed06c!8m2!3d28.5908254!4d77.2425466!16s%2Fg%2F11fjxf0lg6!19sChIJfwdnAZzjDDkRbNAehSUCcOY?authuser=0&hl=en&rclk=1,"28.5908254,77.2425466"
Masjid Hamam Wali,Mosque,"Masjid Hamam Wali, 6470, Katra Bariyan, Fatehpuri, Chandni Chowk, New Delhi, Delhi, 110006","Fatehpuri, Chandni Chowk","6470, Katra Bariyan","New Delhi, Delhi",110006,Delhi,IN,https://www.google.com/maps/place/Masjid+Hamam+Wali/data=!4m7!3m6!1s0x390cfd12316f31ef:0x174a76ac455f8b5!8m2!3d28.655784!4d77.222307!16s%2Fg%2F12hqwxj4v!19sChIJ7zFvMRL9DDkRtfhVxGqndAE?authuser=0&hl=en&rclk=1,"28.655783999999997,77.222307"
Kharda Masjid,Mosque,"W56J+2GP Kharda Masjid, Sambhar, Rajasthan 303604",,W56J+2GP,Sambhar,303604,Rajasthan,IN,https://www.google.com/maps/place/Kharda+Masjid/data=!4m7!3m6!1s0x396c6fb70f62b35b:0x9d4961bf0a12ef3c!8m2!3d26.9100863!4d75.1813147!16s%2Fg%2F11dxq9_g2n!19sChIJW7NiD7dvbDkRPO8SCr9hSZ0?authuser=0&hl=en&rclk=1,"26.9100863,75.1813147"
Qureshiyan Masjid Chota Bazar,Mosque,"W57P+PX3 Qureshiyan Masjid Chota Bazar, Sambhar, Rajasthan 303604",,W57P+PX3,Sambhar,303604,Rajasthan,IN,https://www.google.com/maps/place/Qureshiyan+Masjid+Chota+Bazar/data=!4m7!3m6!1s0x396c6fcede94d1eb:0x66f00367381ff828!8m2!3d26.9142749!4d75.1874084!16s%2Fg%2F11flxk5kvb!19sChIJ69GU3s5vbDkRKPgfOGcD8GY?authuser=0&hl=en&rclk=1,"26.9142749,75.1874084"
Eidgah Sambhar Lake,Mosque,"W53H+FFQ Eidgah Sambhar Lake, Jaipur, Rajasthan 303604",,W53H+FFQ,Jaipur,,Rajasthan,IN,https://www.google.com/maps/place/Eidgah+Sambhar+Lake/data=!4m7!3m6!1s0x396c6fb59b15c573:0x8b5b1b8bcb3f58b9!8m2!3d26.9037014!4d75.1787307!16s%2Fg%2F11hcwl9bqk!19sChIJc8UVm7VvbDkRuVg_y4sbW4s?authuser=0&hl=en&rclk=1,"26.9037014,75.1787307"
Masjid,Mosque,"Masjid, 2508, Fasil Rd, Gali Sakko Wali, Shah Ganj, Chandni Chowk, New Delhi, Delhi, 110006","Gali Sakko Wali, Shah Ganj, Chandni Chowk","2508, Fasil Rd","New Delhi, Delhi",110006,Delhi,IN,https://www.google.com/maps/place/Masjid/data=!4m7!3m6!1s0x390cfd15c9a8a4b1:0xf975aada141da03e!8m2!3d28.6491552!4d77.2220471!16s%2Fg%2F1hm4gjxkd!19sChIJsaSoyRX9DDkRPqAdFNqqdfk?authuser=0&hl=en&rclk=1,"28.6491552,77.2220471"
Masjid Anar Wali,Mosque,"J6WP+H6G Masjid Anar Wali, Haveli Azam Khan, Chittli Qabar Bazar Rd, Delhi, 110006","Kalan Mehal, Old Delhi","J6WP+H6G, Haveli Azam Khan, Chittli Qabar Bazar Rd",Delhi,110006,Delhi,IN,https://www.google.com/maps/place/Masjid+Anar+Wali/data=!4m7!3m6!1s0x390cfd2192f45833:0xddf1e01c9e23f7d3!8m2!3d28.6464403!4d77.2355876!16s%2Fg%2F11f4v9j1sy!19sChIJM1j0kiH9DDkR0_cjnhzg8d0?authuser=0&hl=en&rclk=1,"28.6464403,77.2355876"
Masjid,Mosque,"Masjid, 242, Masjid Jheel Pio, Near ITO metro GateNo.3, Bahadur Shah Zafar Marg, Balmiki Basti, Vikram Nagar, Delhi, 110002","Bahadur Shah Zafar Marg, Balmiki Basti, Vikram Nagar","242, Masjid Jheel Pio, Near ITO metro GateNo.3, Bahadur Shah Zafar Marg",Delhi,110002,Delhi,IN,https://www.google.com/maps/place/Masjid/data=!4m7!3m6!1s0x390cfd441769149d:0xa1929f1b4f5921d6!8m2!3d28.6298914!4d77.2415098!16s%2Fg%2F11s2n38r9b!19sChIJnRRpF0T9DDkR1iFZTxufkqE?authuser=0&hl=en&rclk=1,"28.629891399999998,77.2415098"
Madina Masjid,Mosque,"C6JH+WX7 Madina Masjid, Sanjay Colony, Bhatti Kalan, New Delhi, Delhi 110074","Sanjay Colony, Bhatti Kalan",C6JH+WX7,New Delhi,110074,Delhi,IN,https://www.google.com/maps/place/Madina+Masjid/data=!4m7!3m6!1s0x390cdfe6a4296667:0x55ca1032eb54d74!8m2!3d28.4322987!4d77.2299221!16s%2Fg%2F11fhr0mqv2!19sChIJZ2YppObfDDkRdE21LgOhXAU?authuser=0&hl=en&rclk=1,"28.4322987,77.2299221"
Masjid Saraye Chota Bazar msjid sraay chottaa baajaar,Mosque,"W57P+8RV Masjid Saraye Chota Bazar msjid sraay chottaa baajaar, Sambhar, Rajasthan 303604",,W57P+8RV,Sambhar,303604,Rajasthan,IN,https://www.google.com/maps/place/Masjid+Saraye+Chota+Bazar+%E0%A4%AE%E0%A4%B8%E0%A5%8D%E0%A4%9C%E0%A4%BF%E0%A4%A6+%E0%A4%B8%E0%A4%B0%E0%A4%BE%E0%A4%AF+%E0%A4%9B%E0%A5%8B%E0%A4%9F%E0%A4%BE+%E0%A4%AC%E0%A4%BE%E0%A4%9C%E0%A4%BE%E0%A4%B0/data=!4m7!3m6!1s0x396c6f5d728b608d:0x9296a76b1e8f1849!8m2!3d26.9133573!4d75.1870337!16s%2Fg%2F11fm14s_y6!19sChIJjWCLcl1vbDkRSRiPHmunlpI?authuser=0&hl=en&rclk=1,"26.913357299999998,75.1870337"
Nirbano Ki Masjid nirmaanno kii msjid,Mosque,"W58P+29C Nirbano Ki Masjid nirmaanno kii msjid, Sambhar, Rajasthan 303604",,W58P+29C,Sambhar,303604,Rajasthan,IN,https://www.google.com/maps/place/Nirbano+Ki+Masjid+%E0%A4%A8%E0%A4%BF%E0%A4%B0%E0%A5%8D%E0%A4%AE%E0%A4%BE%E0%A4%A3%E0%A5%8B+%E0%A4%95%E0%A5%80+%E0%A4%AE%E0%A4%B8%E0%A5%8D%E0%A4%9C%E0%A4%BF%E0%A4%A6/data=!4m7!3m6!1s0x396c6fce6e4b47c1:0x3e7a38f2480b1c35!8m2!3d26.9150532!4d75.1858876!16s%2Fg%2F11hz0kkpt2!19sChIJwUdLbs5vbDkRNRwLSPI4ej4?authuser=0&hl=en&rclk=1,"26.9150532,75.1858876"
Masjid e luhaaran msjid e luhaaraan,Mosque,"W56J+P96 Masjid e luhaaran msjid e luhaaraan, Sambhar, Rajasthan 303604",,W56J+P96,Sambhar,303604,Rajasthan,IN,https://www.google.com/maps/place/Masjid+e+luhaaran+%E0%A4%AE%E0%A4%B8%E0%A5%8D%E0%A4%9C%E0%A4%BF%E0%A4%A6+%E0%A4%8F+%E0%A4%B2%E0%A5%81%E0%A4%B9%E0%A4%BE%E0%A4%B0%E0%A4%BE%E0%A4%A8/data=!4m7!3m6!1s0x396c6f4502a6ed1f:0x153ead274efcbca9!8m2!3d26.9117935!4d75.1808988!16s%2Fg%2F11fm5n394h!19sChIJH-2mAkVvbDkRqbz8TietPhU?authuser=0&hl=en&rclk=1,"26.911793499999998,75.1808988"
Masjid Shamsul Qamar @ Suraj wali Masjid,Mosque,"Masjid Shamsul Qamar @ Suraj wali Masjid, 318, Dariba Kalan Rd, Kucha Alam, Chandni Chowk, New Delhi, Delhi, 110006","Kucha Alam, Chandni Chowk","318, Dariba Kalan Rd","New Delhi, Delhi",110006,Delhi,IN,https://www.google.com/maps/place/Masjid+Shamsul+Qamar+@+Suraj+wali+Masjid/data=!4m7!3m6!1s0x390cfd1be6cf6f7b:0x43ed1fadfe18a46c!8m2!3d28.6540031!4d77.233588!16s%2Fg%2F11fzwh0881!19sChIJe2_P5hv9DDkRbKQY_q0f7UM?authuser=0&hl=en&rclk=1,"28.654003099999997,77.233588"
Sabeel Wali Masjid,Mosque,"M676+PJQ Sabeel Wali Masjid, Gali Zameer Wali, Nawabganj, Tis Hazari, New Delhi, Delhi, 110055","Nawabganj, Tis Hazari","M676+PJQ, Gali Zameer Wali","New Delhi, Delhi",110055,Delhi,IN,https://www.google.com/maps/place/Sabeel+Wali+Masjid/data=!4m7!3m6!1s0x390cfda2f2270c4d:0x9587bec3bb500c1f!8m2!3d28.6643348!4d77.2116016!16s%2Fg%2F11fpd01gx9!19sChIJTQwn8qL9DDkRHwxQu8O-h5U?authuser=0&hl=en&rclk=1,"28.6643348,77.2116016"
Masjid Saguwa Wali (Choti Masjid),Mosque,"Masjid Saguwa Wali (Choti Masjid), 1614, Old Dariya Ganj, Daryaganj, New Delhi, Delhi, 110002","Old Dariya Ganj, Daryaganj",1614,"New Delhi, Delhi",110002,Delhi,IN,https://www.google.com/maps/place/Masjid+Saguwa+Wali+%28Choti+Masjid%29/data=!4m7!3m6!1s0x390cfde70c37cfe3:0xcd9ebd43305f88c8!8m2!3d28.6470267!4d77.2382029!16s%2Fg%2F11f7qykm_q!19sChIJ4883DOf9DDkRyIhfMEO9ns0?authuser=0&hl=en&rclk=1,"28.647026699999998,77.23820289999999"
Jamaia masjid of Delhi,Place of worship,"M6PC+GQ7 Jamaia masjid of Delhi, Khyber Pass, Civil Lines, Delhi, 110054","Khyber Pass, Civil Lines",M6PC+GQ7,Delhi,,Delhi,IN,https://www.google.com/maps/place/Jamaia+masjid+of+Delhi/data=!4m7!3m6!1s0x390cfd08fc769ef1:0xcdc968d6b1ee6441!8m2!3d28.6862891!4d77.2219155!16s%2Fg%2F11t17x64_v!19sChIJ8Z52_Aj9DDkRQWTusdZoyc0?authuser=0&hl=en&rclk=1,"28.6862891,77.2219155"
Masjid bardoti mohalla2,Mosque,"W57M+P44 Masjid bardoti mohalla2, Sambhar, Rajasthan 303604",,W57M+P44,Sambhar,303604,Rajasthan,IN,https://www.google.com/maps/place/Masjid+bardoti+mohalla2/data=!4m7!3m6!1s0x396c6f8adff46475:0x1de623b22887ce48!8m2!3d26.9142569!4d75.1828333!16s%2Fg%2F11g_rw33xq!19sChIJdWT034pvbDkRSM6HKLIj5h0?authuser=0&hl=en&rclk=1,"26.914256899999998,75.1828333"
Madina Masjid,Mosque,"8WF9+PJV Madina Masjid, Sambhalhera, Uttar Pradesh 251315",,8WF9+PJV,Sambhalhera,251315,Uttar Pradesh,IN,https://www.google.com/maps/place/Madina+Masjid/data=!4m7!3m6!1s0x390c0b1547ac1c81:0x4f9b4cf8ac3c8910!8m2!3d29.3243568!4d77.9190594!16s%2Fg%2F11jsk3b61d!19sChIJgRysRxULDDkREIk8rPhMm08?authuser=0&hl=en&rclk=1,"29.3243568,77.9190594"
Jama masjid,Mosque,"G7PG+8H3 Jama masjid, F Block, Pocket X, Okhla Phase II, Okhla Industrial Estate, New Delhi, Delhi 110020","F Block, Pocket X, Okhla Phase II, Okhla Industrial Estate",G7PG+8H3,New Delhi,,Delhi,IN,https://www.google.com/maps/place/Jama+masjid/data=!4m7!3m6!1s0x390ce10bb81649c7:0xebcbe96019fd666b!8m2!3d28.5357628!4d77.2764329!16s%2Fg%2F11v0nr84ms!19sChIJx0kWuAvhDDkRa2b9GWDpy-s?authuser=0&hl=en&rclk=1,"28.535762799999997,77.2764329"
Jama masjid,Mosque,"Jama masjid, Jama Masjid, Abul Fazal Enclave Part 1, Part 1 Abul Fazal Enclave, Block I, Jamia Nagar, Chandni Chowk, New Delhi, Delhi 110025","Abul Fazal Enclave Part 1, Part 1 Abul Fazal Enclave, Block I, Jamia Nagar, Chandni Chowk",Jama Masjid,New Delhi,,Delhi,IN,https://www.google.com/maps/place/Jama+masjid/data=!4m7!3m6!1s0x390ce542b18bb9c1:0xcacf2517b90d6255!8m2!3d28.5545167!4d77.2972904!16s%2Fg%2F11kqc0mn0x!19sChIJwbmLsULlDDkRVWINuRclz8o?authuser=0&hl=en&rclk=1,"28.554516699999997,77.2972904"
Masjid,Mosque,"Masjid, 8/2, Budh Bazar, Block L 1, Devli, Sangam Vihar, New Delhi, Delhi 110062","Budh Bazar, Block L 1, Devli, Sangam Vihar",8/2,New Delhi,110062,Delhi,IN,https://www.google.com/maps/place/Masjid/data=!4m7!3m6!1s0x390ce1dde82b3bc3:0x4d3537cacd38aec4!8m2!3d28.4940769!4d77.2261653!16s%2Fg%2F11rk33_10p!19sChIJwzsr6N3hDDkRxK44zco3NU0?authuser=0&hl=en&rclk=1,"28.4940769,77.22616529999999"
Masjid aam wali,Mosque,"M669+PQG Masjid aam wali, Shyama Prasad Mukherjee Marg, Katra Ghel, Khari Baoli, Old Delhi, New Delhi, Delhi, 110006","Katra Ghel, Khari Baoli, Old Delhi","M669+PQG, Shyama Prasad Mukherjee Marg","New Delhi, Delhi",110006,Delhi,IN,https://www.google.com/maps/place/Masjid+aam+wali/data=!4m7!3m6!1s0x390cfd211c5f53ad:0x839ab177460b6f5c!8m2!3d28.6618057!4d77.219461!16s%2Fg%2F11v0rgvglz!19sChIJrVNfHCH9DDkRXG8LRnexmoM?authuser=0&hl=en&rclk=1,"28.6618057,77.219461"
Masjid Shatoot Wali,Mosque,"M67H+G5Q Masjid Shatoot Wali, Chhota Bazar, Mori Gate, New Delhi, Delhi, 110006","Chhota Bazar, Mori Gate",M67H+G5Q,"New Delhi, Delhi",110006,Delhi,IN,https://www.google.com/maps/place/Masjid+Shatoot+Wali/data=!4m7!3m6!1s0x390cfdd8114d08fd:0x326042596014276a!8m2!3d28.663827!4d77.2279973!16s%2Fg%2F11g4h_zjtj!19sChIJ_QhNEdj9DDkRaicUYFlCYDI?authuser=0&hl=en&rclk=1,"28.663826999999998,77.2279973"
Masjid,Mosque,"Masjid, Gali No 19, Gali Number 1, Mustafabad Extn, New Mustafabad, Delhi, 110094","E2 Block, Mustafabad Extn, New Mustafabad","Gali No 19, Gali Number 1",Delhi,110094,Delhi,IN,https://www.google.com/maps/place/Masjid/data=!4m7!3m6!1s0x390cfc1b020b0e91:0xb48a3c3233e41cbd!8m2!3d28.711773!4d77.272563!16s%2Fg%2F12hpqnhjr!19sChIJkQ4LAhv8DDkRvRzkMzI8irQ?authuser=0&hl=en&rclk=1,"28.711772999999997,77.27256299999999"
Bisaitiyaan Masjid bisaaiitiyaan msjid,Mosque,"W56M+WQG Bisaitiyaan Masjid bisaaiitiyaan msjid, Nandakehwar Marg, Sambhar, Rajasthan 303604",,"W56M+WQG, Nandakehwar Marg",Sambhar,303604,Rajasthan,IN,https://www.google.com/maps/place/Bisaitiyaan+Masjid+%E0%A4%AC%E0%A4%BF%E0%A4%B8%E0%A4%BE%E0%A4%88%E0%A4%A4%E0%A4%BF%E0%A4%AF%E0%A4%BE%E0%A4%A8+%E0%A4%AE%E0%A4%B8%E0%A5%8D%E0%A4%9C%E0%A4%BF%E0%A4%A6/data=!4m7!3m6!1s0x396c6f4185ea41ff:0x1f7130133053450f!8m2!3d26.9123244!4d75.1844464!16s%2Fg%2F11hz9bh4ws!19sChIJ_0HqhUFvbDkRD0VTMBMwcR8?authuser=0&hl=en&rclk=1,"26.9123244,75.1844464"
"Madina Masjid, Teli Darwaja",Mosque,"W56M+385 Madina Masjid, Teli Darwaja, Teli Darwaja, Sambhar, Rajasthan 303604",Teli Darwaja,W56M+385,Sambhar,303604,Rajasthan,IN,"https://www.google.com/maps/place/Madina+Masjid,+Teli+Darwaja/data=!4m7!3m6!1s0x396c6fb72df1df51:0x564df82a0a28b0fd!8m2!3d26.9101416!4d75.1833555!16s%2Fg%2F11f4nwjdh6!19sChIJUd_xLbdvbDkR_bAoCir4TVY?authuser=0&hl=en&rclk=1","26.9101416,75.18335549999999"
JAMA MASJID jm` msjd,Mosque,"JAMA MASJID jm` msjd, JAMIA TUL ABRAR, AL ISLAMIA, Madanpur Khadar Phase 3, Madanpur Khadar, New Delhi, Delhi 110076","Madanpur Khadar Phase 3, Madanpur Khadar","JAMIA TUL ABRAR, AL ISLAMIA",New Delhi,110076,Delhi,IN,https://www.google.com/maps/place/JAMA+MASJID+%D8%AC%D8%A7%D9%85%D8%B9+%D9%85%D8%B3%D8%AC%D8%AF%E2%80%AD/data=!4m7!3m6!1s0x390ce7a4c5ffc659:0x83d8ecc557f86b97!8m2!3d28.5270399!4d77.3257331!16s%2Fg%2F11krrd17t2!19sChIJWcb_xaTnDDkRl2v4V8Xs2IM?authuser=0&hl=en&rclk=1,"28.5270399,77.3257331"
Masjid,Mosque,"H662+8G4 Masjid, Green Park Ext Rd, Block J, Green Park Extension, Green Park, New Delhi, Delhi 110016","Block J, Green Park Extension, Green Park","H662+8G4, Green Park Ext Rd",New Delhi,110016,Delhi,IN,https://www.google.com/maps/place/Masjid/data=!4m7!3m6!1s0x390ce3053c6f74cf:0x33b8d79c09cb4f99!8m2!3d28.5607743!4d77.2013357!16s%2Fg%2F11krd8fpw7!19sChIJz3RvPAXjDDkRmU_LCZzXuDM?authuser=0&hl=en&rclk=1,"28.5607743,77.2013357"
Masjid savitri nagar kali masjid,Mosque,"G6Q8+WV2 Masjid savitri nagar kali masjid, Savitri Nagar, Sadhna Enclave, Panchsheel Park, New Delhi, Delhi 110017","Savitri Nagar, Sadhna Enclave, Panchsheel Park",G6Q8+WV2,New Delhi,110017,Delhi,IN,https://www.google.com/maps/place/Masjid+savitri+nagar+kali+masjid/data=!4m7!3m6!1s0x390ce301a7d8408f:0x10a5e961e0366cbf!8m2!3d28.5397704!4d77.2171385!16s%2Fg%2F11krcllkqp!19sChIJj0DYpwHjDDkRv2w24GHppRA?authuser=0&hl=en&rclk=1,"28.5397704,77.21713849999999"
Masjid Moulvi Muhammad Baqir Dehlavi,Mosque,"Masjid Moulvi Muhammad Baqir Dehlavi, Durga motor mkt, Punja Sharif Rd, Chhota Bazar, Kashmere Gate, Delhi, 110006","Chhota Bazar, Kashmere Gate","Durga motor mkt, Punja Sharif Rd",Delhi,110006,Delhi,IN,https://www.google.com/maps/place/Masjid+Moulvi+Muhammad+Baqir+Dehlavi/data=!4m7!3m6!1s0x390cfd28962f937b:0xbd98130b8f919c4e!8m2!3d28.6638068!4d77.2272271!16s%2Fg%2F11tfxtj2_l!19sChIJe5Mvlij9DDkRTpyRjwsTmL0?authuser=0&hl=en&rclk=1,"28.6638068,77.2272271"
Masjid Bodsawala Wali,Mosque,"Masjid Bodsawala Wali, 2370,Chatta Shahji,Chawri Bazar, Dharam Pura Rd, Nai Wala, Chandni Chowk, New Delhi, Delhi 110006","Nai Wala, Chandni Chowk","2370,Chatta Shahji,Chawri Bazar, Dharam Pura Rd","New Delhi, Delhi",110006,Delhi,IN,https://www.google.com/maps/place/Masjid+Bodsawala+Wali/data=!4m7!3m6!1s0x390cfd19b6b59b81:0x1d0c8dba8ab5b549!8m2!3d28.6509214!4d77.2308029!16s%2Fg%2F1ptx9cfbw!19sChIJgZu1thn9DDkRSbW1irqNDB0?authuser=0&hl=en&rclk=1,"28.650921399999998,77.2308029"
Ayesha jama masjid,Mosque,"M7Q6+CC8 Ayesha jama masjid, Gali No. 4, Third Pushta, Jagjeet Nagar, Shahdara, Delhi, 110053","Third Pushta, Jagjeet Nagar, Shahdara","M7Q6+CC8, Gali No. 4",Delhi,110053,Delhi,IN,https://www.google.com/maps/place/Ayesha+jama+masjid/data=!4m7!3m6!1s0x390cfd47a267d931:0xe2efd88af2bdc98!8m2!3d28.6885295!4d77.261074!16s%2Fg%2F11vb7s8n53!19sChIJMdlnokf9DDkRmNwrr4j9Lg4?authuser=0&hl=en&rclk=1,"28.688529499999998,77.261074"
Masjid,Mosque,"Shop No: 5035, Masjid, Netaji Subhash Marg, Daryaganj, New Delhi, Delhi, 110002",Daryaganj,"Shop No: 5035, Netaji Subhash Marg","New Delhi, Delhi",110002,Delhi,IN,https://www.google.com/maps/place/Masjid/data=!4m7!3m6!1s0x390cfdf175041b95:0x8ef57a2bc9f92c1c!8m2!3d28.6480954!4d77.2403964!16s%2Fg%2F11s664lvxh!19sChIJlRsEdfH9DDkRHCz5ySt69Y4?authuser=0&hl=en&rclk=1,"28.6480954,77.2403964"
saabiir,Mosque,"P725+5MP saabiir, Block B, Bhajanpura, Shahdara, Delhi, 110053","Block B, Bhajanpura, Shahdara",P725+5MP,Delhi,110053,Delhi,IN,https://www.google.com/maps/place/%E0%A4%B8%E0%A4%BE%E0%A4%AC%E0%A5%80%E0%A4%B0/data=!4m7!3m6!1s0x390cfd6727f11af9:0x6cbd380e2b13088e!8m2!3d28.7004534!4d77.2591938!16s%2Fg%2F11t9d47j31!19sChIJ-RrxJ2f9DDkRjggTKw44vWw?authuser=0&hl=en&rclk=1,"28.700453399999997,77.25919379999999"
Quba Masjid,Mosque,"Quba Masjid, Street No. 5, Block C, Bhajanpura, Tukhmirpur, Delhi, 110053","Block C, Bhajanpura, Tukhmirpur",Street No. 5,Delhi,,Delhi,IN,https://www.google.com/maps/place/Quba+Masjid/data=!4m7!3m6!1s0x390cfd7d0c4778cf:0x1b7a13f85f04b579!8m2!3d28.6987637!4d77.2619871!16s%2Fg%2F11k40v2n98!19sChIJz3hHDH39DDkRebUEX_gTehs?authuser=0&hl=en&rclk=1,"28.698763699999997,77.2619871"
Jama masjid,Mosque,"7W6R+Q6R Jama masjid, Sabras, Sheikhpur, Haryana 122015",,7W6R+Q6R,"Sabras, Sheikhpur",122015,Haryana,IN,https://www.google.com/maps/place/Jama+masjid/data=!4m7!3m6!1s0x390d3beab2762c47:0x89f6bac7b7943a3f!8m2!3d28.2619926!4d76.9405245!16s%2Fg%2F11v0pl9t3w!19sChIJRyx2suo7DTkRPzqUt8e69ok?authuser=0&hl=en&rclk=1,"28.2619926,76.9405245"
Jama Masjid,,"Jama Masjid, Old Delhi, Delhi, 110006","Jama Masjid, Old Delhi",,Delhi,,Delhi,IN,https://www.google.com/maps/place/Jama+Masjid/data=!4m7!3m6!1s0x390cfd1f21d3e5ef:0xacc90ea5513db022!8m2!3d28.6516128!4d77.2354859!16s%2Fg%2F12hnmgq8v!19sChIJ7-XTIR_9DDkRIrA9UaUOyaw?authuser=0&hl=en&rclk=1,"28.6516128,77.2354859"
"Masjid e Bilaal (R.A),Sabji mandi",Mosque,"W56M+C29 Masjid e Bilaal (R.A),Sabji mandi, Sambhar, Rajasthan 303604",,W56M+C29,Sambhar,303604,Rajasthan,IN,"https://www.google.com/maps/place/Masjid+e+Bilaal+%28R.A%29,Sabji+mandi/data=!4m7!3m6!1s0x396c6fb97d5bcda7:0xf6b570840524e7c8!8m2!3d26.9110093!4d75.1826868!16s%2Fg%2F11vkrkg54r!19sChIJp81bfblvbDkRyOckBYRwtfY?authuser=0&hl=en&rclk=1","26.9110093,75.1826868"
Shia Masjid,Mosque,"8WG9+C3M Shia Masjid, Jumma masjid wali gali, Sambhalhera, Uttar Pradesh 251315",,"8WG9+C3M, Jumma masjid wali gali",Sambhalhera,251315,Uttar Pradesh,IN,https://www.google.com/maps/place/Shia+Masjid/data=!4m7!3m6!1s0x390c0b86e25b8e63:0x31d3d83a17483e9!8m2!3d29.3260828!4d77.9176824!16s%2Fg%2F11qg4yfjqt!19sChIJY45b4oYLDDkR6YN0oYM9HQM?authuser=0&hl=en&rclk=1,"29.3260828,77.91768239999999"
