name,main_category,address,address_ward,address_street,address_city,address_postal_code,address_state,address_country_code,link,coordinates
Ahle'Sunnat Ayesha Masjid,Mosque,"7C7P+R58 Ahle'Sunnat Ayesha Masjid, Ayesha Nagar, Manmad, Maharashtra 423104","Bhabad Vasti, Hanuman Nagar","7C7P+R58, Ayesha Nagar",Manmad,423104,Maharashtra,IN,https://www.google.com/maps/place/Ahle%27Sunnat+Ayesha+Masjid/data=!4m7!3m6!1s0x3bdc25b949b8a78d:0x554bda3fbd0f9306!8m2!3d20.2645287!4d74.4354603!16s%2Fg%2F11fzf09s6w!19sChIJjae4Sbkl3DsRBpMPvT_aS1U?authuser=0&hl=en&rclk=1,"20.2645287,74.4354603"
Manmad Railway Station Mosque,Mosque,"Manmad Railway Station Mosque, Veer Savarkar Rd, near Railway Station, Ahmed Nagar, Manmad, Maharashtra 423104",Ahmed Nagar,"Veer Savarkar Rd, near Railway Station",Manmad,423104,Maharashtra,IN,https://www.google.com/maps/place/Manmad+Railway+Station+Mosque/data=!4m7!3m6!1s0x3bdc25a670dbad39:0xbf3e1b6df387d05f!8m2!3d20.2513767!4d74.4388627!16s%2Fg%2F11f3_lr26_!19sChIJOa3bcKYl3DsRX9CH820bPr8?authuser=0&hl=en&rclk=1,"20.251376699999998,74.4388627"
Nagina Masjid (Markaz),Mosque,"Nagina Masjid (Markaz), nagina, IUDP, Manmad, Maharashtra 423104",IUDP,nagina,Manmad,423104,Maharashtra,IN,https://www.google.com/maps/place/Nagina+Masjid+%28Markaz%29/data=!4m7!3m6!1s0x3bdc25af5851abb3:0xff7ac2c16edb0114!8m2!3d20.2529292!4d74.4409879!16s%2Fg%2F1pzrj171v!19sChIJs6tRWK8l3DsRFAHbbsHCev8?authuser=0&hl=en&rclk=1,"20.2529292,74.4409879"
Ahle'Sunnat Gausiya Masjid,Mosque,"7C9V+2CP Ahle'Sunnat Gausiya Masjid, near Sarfaraz Shaikh sadik House, Gausiya Nagar, Bhagyalaxmi Nagar, Manmad, Maharashtra 423104","Gausiya Nagar, Bhagyalaxmi Nagar","7C9V+2CP, near Sarfaraz Shaikh sadik House",Manmad,423104,Maharashtra,IN,https://www.google.com/maps/place/Ahle%27Sunnat+Gausiya+Masjid/data=!4m7!3m6!1s0x3bdc25b7b2f7b3d9:0x854bbfbba02d1fc0!8m2!3d20.2675994!4d74.4435726!16s%2Fg%2F11bt_h9yc0!19sChIJ2bP3srcl3DsRwB8toLu_S4U?authuser=0&hl=en&rclk=1,"20.267599399999998,74.4435726"
Sunni Jama Masjid,Mosque,"7C4Q+CG9 Sunni Jama Masjid, Takar Mohalla, Manmad, Maharashtra 423104",Takar Mohalla,7C4Q+CG9,Manmad,423104,Maharashtra,IN,https://www.google.com/maps/place/Sunni+Jama+Masjid/data=!4m7!3m6!1s0x3bdc25a516f9b3cb:0x73e9e52d2754b26f!8m2!3d20.2560398!4d74.4388613!16s%2Fg%2F11bt_h9_wz!19sChIJy7P5FqUl3DsRb7JUJy3l6XM?authuser=0&hl=en&rclk=1,"20.2560398,74.4388613"
Masjid-e-Quba (Ahle Hadees),Education center,"Masjid-e-Quba (Ahle Hadees), Nehru Nagar 55/56, MH SH 10, Manmad Camp, Manmad, Maharashtra 423104",Manmad Camp,"Nehru Nagar 55/56, MH SH 10",Manmad,423104,Maharashtra,IN,https://www.google.com/maps/place/Masjid-e-Quba+%28Ahle+Hadees%29/data=!4m7!3m6!1s0x3bdc250980ba6071:0xb63267215932db20!8m2!3d20.2435624!4d74.4350642!16s%2Fg%2F11xqvbzn9!19sChIJcWC6gAkl3DsRINsyWSFnMrY?authuser=0&hl=en&rclk=1,"20.2435624,74.4350642"
Rahmat Masjid,Mosque,"6CVP+X9R Rahmat Masjid, Manmad Camp, Manmad, Maharashtra 423104",Manmad Camp,6CVP+X9R,Manmad,423104,Maharashtra,IN,https://www.google.com/maps/place/Rahmat+Masjid/data=!4m7!3m6!1s0x3bdc2509ef7b401b:0xdf6e312e9c2c636f!8m2!3d20.2449871!4d74.4359052!16s%2Fg%2F1ptx4c7_n!19sChIJG0B77wkl3DsRb2MsnC4xbt8?authuser=0&hl=en&rclk=1,"20.2449871,74.4359052"
Ahle'Sunnat Qadriya Masjid,Mosque,"7CFV+3HF Ahle'Sunnat Qadriya Masjid, Bhagyalaxmi Nagar, Manmad, Dahegaon Manmad, Maharashtra 423104",Bhagyalaxmi Nagar,7CFV+3HF,"Manmad, Dahegaon Manmad",423104,Maharashtra,IN,https://www.google.com/maps/place/Ahle%27Sunnat+Qadriya+Masjid/data=!4m7!3m6!1s0x3bdc25c9006783a9:0x936c0c644c91f312!8m2!3d20.2726984!4d74.443916!16s%2Fg%2F11c1v02vt0!19sChIJqYNnAMkl3DsREvORTGQMbJM?authuser=0&hl=en&rclk=1,"20.2726984,74.443916"
Mohammadi Masjid,Mosque,"7C2P+873 Mohammadi Masjid, near Mahatma Phule chawk, Ahmed Nagar, Manmad, Maharashtra 423104",Ahmed Nagar,"7C2P+873, near Mahatma Phule chawk",Manmad,423104,Maharashtra,IN,https://www.google.com/maps/place/Mohammadi+Masjid/data=!4m7!3m6!1s0x3bdc25a6b07d2037:0x57be7a9b9cc4a77!8m2!3d20.2507578!4d74.4356802!16s%2Fg%2F11f1222hzn!19sChIJNyB9sKYl3DsRd0rMuannewU?authuser=0&hl=en&rclk=1,"20.2507578,74.4356802"
Aamna Masjid,Mosque,"6CWW+FHW Aamna Masjid, Habeeb nagar, Anandwadi, Manmad, Maharashtra 423104","Habeeb nagar, Anandwadi",6CWW+FHW,Manmad,423104,Maharashtra,IN,https://www.google.com/maps/place/Aamna+Masjid/data=!4m7!3m6!1s0x3bdc25a96662af87:0xa7e57c1fd23848d0!8m2!3d20.2462437!4d74.4464467!16s%2Fg%2F11g0sy81mv!19sChIJh69iZqkl3DsR0Eg40h985ac?authuser=0&hl=en&rclk=1,"20.2462437,74.4464467"
Anjuman Gareeb Nawaz Masjid,Mosque,"6CWX+J5J Anjuman Gareeb Nawaz Masjid, Anandwadi, Manmad, Maharashtra 423104",Anandwadi,6CWX+J5J,Manmad,423104,Maharashtra,IN,https://www.google.com/maps/place/Anjuman+Gareeb+Nawaz+Masjid/data=!4m7!3m6!1s0x3bdc255ff493b281:0x8b8384008717963f!8m2!3d20.246591!4d74.447894!16s%2Fg%2F11p9m0qhp5!19sChIJgbKT9F8l3DsRP5YXhwCEg4s?authuser=0&hl=en&rclk=1,"20.246591,74.44789399999999"
Aqsa Masjid,Mosque,"Aqsa Masjid, Kohinoor Plaza, Malegaon Naka, Solapur - Dhule National Hwy, Bardiya Nagar, Manmad, Maharashtra 423104",Bardiya Nagar,"Kohinoor Plaza, Malegaon Naka, Solapur - Dhule National Hwy",Manmad,423104,Maharashtra,IN,https://www.google.com/maps/place/Aqsa+Masjid/data=!4m7!3m6!1s0x3bdc25624245930b:0xe9ea1dce879986a6!8m2!3d20.2603238!4d74.4399553!16s%2Fg%2F11g_qyx4zn!19sChIJC5NFQmIl3DsRpoaZh84d6uk?authuser=0&hl=en&rclk=1,"20.2603238,74.4399553"
MAKKA MASJID,Mosque,"MAKKA MASJID, Maulinagar, Nandgaon Rd, Bardiya Nagar, Manmad, Maharashtra 423104",Bardiya Nagar,"Maulinagar, Nandgaon Rd",Manmad,,Maharashtra,IN,https://www.google.com/maps/place/MAKKA+MASJID/data=!4m7!3m6!1s0x3bdc2573614f3041:0x32214695129e2cab!8m2!3d20.2616156!4d74.4467631!16s%2Fg%2F11s5vzbjyz!19sChIJQTBPYXMl3DsRqyyeEpVGITI?authuser=0&hl=en&rclk=1,"20.2616156,74.4467631"
Misbahul Ulum Masjid wa Madarsa dawat nagar,Mosque,"6CXV+3Q6 Misbahul Ulum Masjid wa Madarsa dawat nagar, Shakuntala Nagar, Manmad, Maharashtra 423104",Shakuntala Nagar,6CXV+3Q6,Manmad,423104,Maharashtra,IN,https://www.google.com/maps/place/Misbahul+Ulum+Masjid+wa+Madarsa+dawat+nagar/data=!4m7!3m6!1s0x3bdc25e6dc88a5ff:0x73f4acac2e310c51!8m2!3d20.2476625!4d74.4443906!16s%2Fg%2F11fm7kx8m5!19sChIJ_6WI3OYl3DsRUQwxLqys9HM?authuser=0&hl=en&rclk=1,"20.2476625,74.44439059999999"
MAKKA MASJID,Mosque,"443J+H63 MAKKA MASJID, Mauli Nagar, Narsala, Shri Mahalaxmi Nagar, manmad, Nagpur, Maharashtra 440034","Mauli Nagar, Narsala, Shri Mahalaxmi Nagar",443J+H63,"manmad, Nagpur",,Maharashtra,IN,https://www.google.com/maps/place/MAKKA+MASJID/data=!4m7!3m6!1s0x3bd4b9874163ffa9:0xc3905c6a40287ba8!8m2!3d21.1038909!4d79.1305396!16s%2Fg%2F11t7_m4bcm!19sChIJqf9jQYe51DsRqHsoQGpckMM?authuser=0&hl=en&rclk=1,"21.1038909,79.13053959999999"
Jama masjid manmad,Mosque,"3472+RW6 Jama masjid manmad, Manmad, Telangana 504104",,3472+RW6,Manmad,,Telangana,IN,https://www.google.com/maps/place/Jama+masjid+manmad/data=!4m7!3m6!1s0x3bcdfbf0cc314743:0x7260ab24ad71b5c9!8m2!3d19.0645456!4d78.1022656!16s%2Fg%2F11rvjykm2h!19sChIJQ0cxzPD7zTsRybVxrSSrYHI?authuser=0&hl=en&rclk=1,"19.0645456,78.1022656"
Masjid abuhurairh,Mosque,"7C7Q+W8 Masjid abuhurairh, Bhabad Vasti, Hanuman Nagar, Manmad, Maharashtra 423104","Bhabad Vasti, Hanuman Nagar",7C7Q+W8,Manmad,423104,Maharashtra,IN,https://www.google.com/maps/place/Masjid+abuhurairh/data=!4m7!3m6!1s0x3bdc25953f70ba89:0x3c6b04b22b4de855!8m2!3d20.2649692!4d74.4382343!16s%2Fg%2F11s5vl0qlz!19sChIJibpwP5Ul3DsRVehNK7IEazw?authuser=0&hl=en&rclk=1,"20.2649692,74.43823429999999"
SUNNI KURESHI MASJID,Mosque,"SUNNI KURESHI MASJID, Kasai Mohalla, Station Rd, near Railway Station, Ahmed Nagar, Manmad, Maharashtra 423104",Ahmed Nagar,"Kasai Mohalla, Station Rd, near Railway Station",Manmad,423104,Maharashtra,IN,https://www.google.com/maps/place/SUNNI+KURESHI+MASJID/data=!4m7!3m6!1s0x3bdc25c1c2e3c589:0x38e902a18efc2d82!8m2!3d20.2510708!4d74.43919!16s%2Fg%2F11pw07j8rd!19sChIJicXjwsEl3DsRgi38jqEC6Tg?authuser=0&hl=en&rclk=1,"20.2510708,74.43919"
Hazrat Umar farooq(R.A.) Masjid & Madrsa,Mosque,"Hazrat Umar farooq(R.A.) Masjid & Madrsa, 9, IUDP, Manmad, Maharashtra 423104",IUDP,9,Manmad,423104,Maharashtra,IN,https://www.google.com/maps/place/Hazrat+Umar+farooq%28R.A.%29+Masjid+%26+Madrsa/data=!4m7!3m6!1s0x3bdc25b0d7090fd9:0xd62c3066eb1d9d9f!8m2!3d20.2539957!4d74.4334955!16s%2Fg%2F11swm22l48!19sChIJ2Q8J17Al3DsRn50d62YwLNY?authuser=0&hl=en&rclk=1,"20.2539957,74.43349549999999"
Near Gausiya Masjid,Mosque,"7C8V+XVW Near Gausiya Masjid, Gausiya Nagar, Bhagyalaxmi Nagar, Manmad, Maharashtra 423104","Gausiya Nagar, Bhagyalaxmi Nagar",7C8V+XVW,Manmad,423104,Maharashtra,IN,https://www.google.com/maps/place/Near+Gausiya+Masjid/data=!4m7!3m6!1s0x3bdc25e89cb0e3df:0x8f3d2a1bbcbdf156!8m2!3d20.2674937!4d74.4447075!16s%2Fg%2F11v6stzrfg!19sChIJ3-OwnOgl3DsRVvG9vBsqPY8?authuser=0&hl=en&rclk=1,"20.2674937,74.44470749999999"
