name,main_category,address,address_ward,address_street,address_city,address_postal_code,address_state,address_country_code,link,coordinates
"Town Juma Masjid, Perumbavoor",Mosque,"4F7G+VMP Town Juma Masjid, Perumbavoor, SH 16, Perumbavoor, Kerala 683542",,"4F7G+VMP, SH 16",Perumbavoor,683542,Kerala,IN,"https://www.google.com/maps/place/Town+Juma+Masjid,+Perumbavoor/data=!4m7!3m6!1s0x3b07e28af8f5e8eb:0x3afa5ee6f2c2d767!8m2!3d10.1147041!4d76.476714!16s%2Fg%2F1tf9lppj!19sChIJ6-j1-IriBzsRZ9fC8uZe-jo?authuser=0&hl=en&rclk=1","10.114704099999999,76.476714"
Mudickal Juma Masjid muttikk jumaa msjid,Mosque,"4F82+C8F Mudickal Juma Masjid muttikk jumaa msjid, Mudickal, Kerala 683547",,4F82+C8F,Mudickal,683547,Kerala,IN,https://www.google.com/maps/place/Mudickal+Juma+Masjid+%E0%B4%AE%E0%B5%81%E0%B4%9F%E0%B4%BF%E0%B4%95%E0%B5%8D%E0%B4%95%E0%B5%BD+%E0%B4%9C%E0%B5%81%E0%B4%AE%E0%B4%BE+%E0%B4%AE%E0%B4%B8%E0%B5%8D%E0%B4%9C%E0%B4%BF%E0%B4%A6%E0%B5%8D/data=!4m7!3m6!1s0x3b08082bf08d4cd7:0xcc09b472d658a215!8m2!3d10.1160579!4d76.4507832!16s%2Fg%2F11c1qlnnfy!19sChIJ10yN8CsICDsRFaJY1nK0Ccw?authuser=0&hl=en&rclk=1,"10.1160579,76.4507832"
MASJID TAQWA msjid tkh v,Mosque,"4F77+XQP MASJID TAQWA msjid tkh v, Aluva - Perumbavoor Rd, Perumbavoor, Marampally, Kerala 683547",,"4F77+XQP, Aluva - Perumbavoor Rd","Perumbavoor, Marampally",683547,Kerala,IN,https://www.google.com/maps/place/MASJID+TAQWA+%E0%B4%AE%E0%B4%B8%E0%B5%8D%E0%B4%9C%E0%B4%BF%E0%B4%A6%E0%B5%8D+%E0%B4%A4%E0%B4%96%E0%B5%8D+%E0%B4%B5/data=!4m7!3m6!1s0x3b07e287034d37fb:0x92c9e133b7f6e2db!8m2!3d10.1149616!4d76.4644394!16s%2Fg%2F11_1qqyc3!19sChIJ-zdNA4fiBzsR2-L2tzPhyZI?authuser=0&hl=en&rclk=1,"10.114961599999999,76.4644394"
Marampally Juma Masjid,Mosque,"4C79+683 Marampally Juma Masjid, Marampilly Jangar Road, Marampally, Kerala 683105",,"4C79+683, Marampilly Jangar Road",Marampally,683105,Kerala,IN,https://www.google.com/maps/place/Marampally+Juma+Masjid/data=!4m7!3m6!1s0x3b080853aa2b55a1:0xd4bfcecd0247fb0b!8m2!3d10.1130001!4d76.4182859!16s%2Fg%2F1pp2x9yqt!19sChIJoVUrqlMICDsRC_tHAs3Ov9Q?authuser=0&hl=en&rclk=1,"10.113000099999999,76.4182859"
Kalady Town Juma Masjid,Mosque,"5C8Q+J54 Kalady Town Juma Masjid, SH 1, Chengal, Kalady, Vadakkumbhagom, Kerala 683574",Chengal,"5C8Q+J54, SH 1","Kalady, Vadakkumbhagom",683574,Kerala,IN,https://www.google.com/maps/place/Kalady+Town+Juma+Masjid/data=!4m7!3m6!1s0x3b0807e8bb9f9b6d:0xf9df261e365cd49b!8m2!3d10.1665143!4d76.4379573!16s%2Fg%2F1hm5856wj!19sChIJbZufu-gHCDsRm9RcNh4m3_k?authuser=0&hl=en&rclk=1,"10.1665143,76.4379573"
Vattakkattupady Muslim Juma Masjid,Mosque,"4F2Q+7HM Vattakkattupady Muslim Juma Masjid, Vattakattupady, Perumbavoor, Kerala 683542",Vattakattupady,4F2Q+7HM,Perumbavoor,683542,Kerala,IN,https://www.google.com/maps/place/Vattakkattupady+Muslim+Juma+Masjid/data=!4m7!3m6!1s0x3b07e24517e78fc5:0x2ffd52c11961bc38!8m2!3d10.1007113!4d76.4889286!16s%2Fg%2F1hhwn70db!19sChIJxY_nF0XiBzsROLxhGcFS_S8?authuser=0&hl=en&rclk=1,"10.1007113,76.4889286"
MOULOODUPURA JUMA MASJID m+luudpur jumaa msjid,Mosque,"4F52+VFQ MOULOODUPURA JUMA MASJID m+luudpur jumaa msjid, Marampally, Kerala 683547",,4F52+VFQ,Marampally,683547,Kerala,IN,https://www.google.com/maps/place/MOULOODUPURA+JUMA+MASJID+%E0%B4%AE%E0%B5%97%E0%B4%B2%E0%B5%82%E0%B4%A6%E0%B5%8D%E0%B4%AA%E0%B5%81%E0%B4%B0+%E0%B4%9C%E0%B5%81%E0%B4%AE%E0%B4%BE+%E0%B4%AE%E0%B4%B8%E0%B5%8D%E0%B4%9C%E0%B4%BF%E0%B4%A6%E0%B5%8D/data=!4m7!3m6!1s0x3b0809d49a0a04e5:0x70fde5d44b998363!8m2!3d10.1097125!4d76.451245!16s%2Fg%2F11dzwcb162!19sChIJ5QQKmtQJCDsRY4OZS9Tl_XA?authuser=0&hl=en&rclk=1,"10.109712499999999,76.451245"
Juma Masjid Thandakad,Mosque,"3FW3+G36 Juma Masjid Thandakad, Near Higher Secondary School, Aluva - Munnar Rd, Thandakad, Kerala 683547",,"3FW3+G36, Near Higher Secondary School, Aluva - Munnar Rd",Thandakad,683547,Kerala,IN,https://www.google.com/maps/place/Juma+Masjid+Thandakad/data=!4m7!3m6!1s0x3b0809d9af39db8f:0xd68cd1ad56a1e430!8m2!3d10.0962843!4d76.4526413!16s%2Fg%2F1tdk3lzc!19sChIJj9s5r9kJCDsRMOShVq3RjNY?authuser=0&hl=en&rclk=1,"10.096284299999999,76.4526413"
Odakkaly Town Juma Masjid,Mosque,"3HV4+VXP Odakkaly Town Juma Masjid, SH 16, Odakkali, Kerala 683549",,"3HV4+VXP, SH 16",Odakkali,683549,Kerala,IN,https://www.google.com/maps/place/Odakkaly+Town+Juma+Masjid/data=!4m7!3m6!1s0x3b07e472d8763cb1:0x500e2d0b5461ad68!8m2!3d10.0947187!4d76.5574491!16s%2Fg%2F11c1qbywnw!19sChIJsTx22HLkBzsRaK1hVAstDlA?authuser=0&hl=en&rclk=1,"10.0947187,76.5574491"
South Vallam Juma Masjid s+tt vllN jumaa msjid,Mosque,"4FF4+GP7 South Vallam Juma Masjid s+tt vllN jumaa msjid, South Vallam, Vallom, Perumbavoor, Kerala 683543","South Vallam, Vallom",4FF4+GP7,Perumbavoor,683543,Kerala,IN,https://www.google.com/maps/place/South+Vallam+Juma+Masjid+%E0%B4%B8%E0%B5%97%E0%B4%A4%E0%B5%8D%E0%B4%A4%E0%B5%8D+%E0%B4%B5%E0%B4%B2%E0%B5%8D%E0%B4%B2%E0%B4%82+%E0%B4%9C%E0%B5%81%E0%B4%AE%E0%B4%BE+%E0%B4%AE%E0%B4%B8%E0%B5%8D%E0%B4%9C%E0%B4%BF%E0%B4%A6%E0%B5%8D/data=!4m7!3m6!1s0x3b07e29d5c8d9f11:0xc03672e8714f955c!8m2!3d10.1237846!4d76.4568088!16s%2Fg%2F11b6rz4y83!19sChIJEZ-NXJ3iBzsRXJVPcehyNsA?authuser=0&hl=en&rclk=1,"10.123784599999999,76.45680879999999"
illithode Juma Masjid Malayattur,Mosque,"6G2H+R8F illithode Juma Masjid Malayattur, Malayattoor, Kerala 683587",,6G2H+R8F,Malayattoor,683587,Kerala,IN,https://www.google.com/maps/place/illithode+Juma+Masjid+Malayattur/data=!4m7!3m6!1s0x3b07fc8a816f586f:0x9b34ca176d9985f9!8m2!3d10.202074!4d76.528283!16s%2Fg%2F11f03_dm2t!19sChIJb1hvgYr8BzsR-YWZbRfKNJs?authuser=0&hl=en&rclk=1,"10.202074,76.528283"
Makkah Masjid,Mosque,"Makkah Masjid, Opp to Max Shopping Complex, SH 16, AM Rd,.Aluva, Aluva - Munnar Rd, Millumpady, Perumbavoor, Kerala 683542",Millumpady,"Opp to Max Shopping Complex, SH 16, AM Rd,.Aluva, Aluva - Munnar Rd",Perumbavoor,683542,Kerala,IN,https://www.google.com/maps/place/Makkah+Masjid/data=!4m7!3m6!1s0x3b07e28859692e41:0xb2b83f7008f1a0a2!8m2!3d10.1147774!4d76.4698112!16s%2Fg%2F124ypym3f!19sChIJQS5pWYjiBzsRoqDxCHA_uLI?authuser=0&hl=en&rclk=1,"10.1147774,76.4698112"
Masjidu-Rahma Chalackal,Mosque,"4C93+J78 Masjidu-Rahma Chalackal, Aluva - Perumbavoor Rd, Chalakkal East, Kerala 683105",Chalakkal East,"4C93+J78, Aluva - Perumbavoor Rd",,683105,Kerala,IN,https://www.google.com/maps/place/Masjidu-Rahma+Chalackal/data=!4m7!3m6!1s0x3b0808fa161d55fb:0x7c9332ba40612320!8m2!3d10.1190264!4d76.4031941!16s%2Fg%2F1tdk3lzb!19sChIJ-1UdFvoICDsRICNhQLoyk3w?authuser=0&hl=en&rclk=1,"10.1190264,76.4031941"
Chalackal Juma Masjid,Mosque,"49CX+822 Chalackal Juma Masjid, Aluva - Perumbavoor Rd, Chalakkal East, Kerala 683105",Chalakkal East,"49CX+822, Aluva - Perumbavoor Rd",,683105,Kerala,IN,https://www.google.com/maps/place/Chalackal+Juma+Masjid/data=!4m7!3m6!1s0x3b0808effab4bb03:0x2539c6b6caf5d155!8m2!3d10.1207723!4d76.3975297!16s%2Fg%2F11c6cdlzy4!19sChIJA7u0-u8ICDsRVdH1yrbGOSU?authuser=0&hl=en&rclk=1,"10.120772299999999,76.39752969999999"
Cheruvelikunnu Juma Masjid - cerruveelikkunnu jumaa msjid,Mosque,"4C4R+9QP Cheruvelikunnu Juma Masjid - cerruveelikkunnu jumaa msjid, Manjapetty - Ponjassery Rd, Marampally, Kerala 683547",,"4C4R+9QP, Manjapetty - Ponjassery Rd",Marampally,683547,Kerala,IN,https://www.google.com/maps/place/Cheruvelikunnu+Juma+Masjid+-+%E0%B4%9A%E0%B5%86%E0%B4%B1%E0%B5%81%E0%B4%B5%E0%B5%87%E0%B4%B2%E0%B4%BF%E0%B4%95%E0%B5%8D%E0%B4%95%E0%B5%81%E0%B4%A8%E0%B5%8D%E0%B4%A8%E0%B5%81+%E0%B4%9C%E0%B5%81%E0%B4%AE%E0%B4%BE+%E0%B4%AE%E0%B4%B8%E0%B5%8D%E0%B4%9C%E0%B4%BF%E0%B4%A6%E0%B5%8D/data=!4m7!3m6!1s0x3b080962b200543d:0x6938bf3a9b29f24b!8m2!3d10.1059569!4d76.4419394!16s%2Fg%2F11l5q2tg59!19sChIJPVQAsmIJCDsRS_Ipmzq_OGk?authuser=0&hl=en&rclk=1,"10.105956899999999,76.4419394"
Al Huda Juma Masjid,Mosque,"5C64+MG7 Al Huda Juma Masjid, Kariyad - Airport - Mattoor Rd, Chetikkodu, Nedumbassery, Kerala 683572",Chetikkodu,"5C64+MG7, Kariyad - Airport - Mattoor Rd",Nedumbassery,683572,Kerala,IN,https://www.google.com/maps/place/Al+Huda+Juma+Masjid/data=!4m7!3m6!1s0x3b08062db2c3fbe9:0xf37c4f3be845147!8m2!3d10.1616511!4d76.4062955!16s%2Fg%2F11b7ys9ppp!19sChIJ6fvDsi0GCDsRR1GEvvPENw8?authuser=0&hl=en&rclk=1,"10.1616511,76.4062955"
Masjid Thouheed (msjd ltwHyd) Salafi Juma Masjid,Mosque,"4F2C+X75 Masjid Thouheed (msjd ltwHyd) Salafi Juma Masjid, Kandanthara, P.O, Allapra, Perumbavoor, Kerala 683556",Allapra,"4F2C+X75, Kandanthara, P.O",Perumbavoor,683556,Kerala,IN,https://www.google.com/maps/place/Masjid+Thouheed+%28%D9%85%D8%B3%D8%AC%D8%AF+%D8%A7%D9%84%D8%AA%D9%88%D8%AD%D9%8A%D8%AF%29+Salafi+Juma+Masjid%E2%80%AD/data=!4m7!3m6!1s0x3b07e37dbfc4dec1:0xc6302a06001a2f1d!8m2!3d10.1023758!4d76.4707226!16s%2Fg%2F11ghq66873!19sChIJwd7Ev33jBzsRHS8aAAYqMMY?authuser=0&hl=en&rclk=1,"10.102375799999999,76.4707226"
pooppani muslim juma masjid,Mosque,"4FGM+GF3 pooppani muslim juma masjid, Pooppani Rd, Aimury, Koovappady, Perumbavoor, Kerala 683543",Aimury,"4FGM+GF3, Pooppani Rd","Koovappady, Perumbavoor",,Kerala,IN,https://www.google.com/maps/place/pooppani+muslim+juma+masjid/data=!4m7!3m6!1s0x3b07e2edb5b89941:0x5b260e7f3f9ed8b5!8m2!3d10.1262597!4d76.4836611!16s%2Fg%2F11f4t6yxbz!19sChIJQZm4te3iBzsRtdieP38OJls?authuser=0&hl=en&rclk=1,"10.1262597,76.48366109999999"
Chiramugal Masjid cirrmug msjid,Mosque,"4F65+6VV Chiramugal Masjid cirrmug msjid, SH 16, Perumbavoor, Marampally, Kerala 683547",,"4F65+6VV, SH 16","Perumbavoor, Marampally",683547,Kerala,IN,https://www.google.com/maps/place/Chiramugal+Masjid+%E0%B4%9A%E0%B4%BF%E0%B4%B1%E0%B4%AE%E0%B5%81%E0%B4%97%E0%B5%BE+%E0%B4%AE%E0%B4%B8%E0%B5%8D%E0%B4%9C%E0%B4%BF%E0%B4%A6%E0%B5%8D/data=!4m7!3m6!1s0x3b07e27e365b3a51:0xd70a767a423a1316!8m2!3d10.1106047!4d76.4596727!16s%2Fg%2F11bw68b9dy!19sChIJUTpbNn7iBzsRFhM6Qnp2Ctc?authuser=0&hl=en&rclk=1,"10.1106047,76.4596727"
Orna Masjid onn msjid,Mosque,"3FX7+VWV Orna Masjid onn msjid, Nedumthod, Rd, Allapra, Ponjassery, Kerala 683547",Allapra,"3FX7+VWV Nedumthod, Rd",Ponjassery,683547,Kerala,IN,https://www.google.com/maps/place/Orna+Masjid+%E0%B4%92%E0%B5%BC%E0%B4%A3+%E0%B4%AE%E0%B4%B8%E0%B5%8D%E0%B4%9C%E0%B4%BF%E0%B4%A6%E0%B5%8D/data=!4m7!3m6!1s0x3b07e270f4d4ac2b:0x8cb3d9fe7461f847!8m2!3d10.0997426!4d76.4647834!16s%2Fg%2F11hbn8p6qy!19sChIJK6zU9HDiBzsRR_hhdP7Zs4w?authuser=0&hl=en&rclk=1,"10.099742599999999,76.4647834"
Mullankunnu Juma Masjid mullllkunn jumaa msjid,Mosque,"3CXP+QM7 Mullankunnu Juma Masjid mullllkunn jumaa msjid, Kochi, Kerala 683547",,3CXP+QM7,Kochi,683547,Kerala,IN,https://www.google.com/maps/place/Mullankunnu+Juma+Masjid+%E0%B4%AE%E0%B5%81%E0%B4%B3%E0%B5%8D%E0%B4%B3%E0%B5%BB%E0%B4%95%E0%B5%81%E0%B4%A8%E0%B5%8D%E0%B4%A8%E0%B5%8D+%E0%B4%9C%E0%B5%81%E0%B4%AE%E0%B4%BE+%E0%B4%AE%E0%B4%B8%E0%B5%8D%E0%B4%9C%E0%B4%BF%E0%B4%A6%E0%B5%8D/data=!4m7!3m6!1s0x3b0809c62f0c2675:0x79ed75ad581df696!8m2!3d10.0994124!4d76.4366583!16s%2Fg%2F11bw5y2rb5!19sChIJdSYML8YJCDsRlvYdWK117Xk?authuser=0&hl=en&rclk=1,"10.0994124,76.43665829999999"
Nadakkavu Mosque,Mosque,"3CHF+H39 Nadakkavu Mosque, Pukkattupady - Perumbavoor Rd, Vazhakkulam, Kerala 683105",Vazhakkulam,"3CHF+H39, Pukkattupady - Perumbavoor Rd",,683105,Kerala,IN,https://www.google.com/maps/place/Nadakkavu+Mosque/data=!4m7!3m6!1s0x3b0809906f2e8b3d:0x1a78d7944d4ab0be!8m2!3d10.0789037!4d76.4227292!16s%2Fg%2F11f3gd89bj!19sChIJPYsub5AJCDsRvrBKTZTXeBo?authuser=0&hl=en&rclk=1,"10.0789037,76.42272919999999"
Kaarattupally Muslim Jamath Masjid kaaraattttuplllli musliN jmaaatt,Mosque,"4F8R+MWC Kaarattupally Muslim Jamath Masjid kaaraattttuplllli musliN jmaaatt, Aluva - Munnar Highway, Perumbavoor, Kerala 683543",,"4F8R+MWC, Aluva - Munnar Highway",Perumbavoor,683543,Kerala,IN,https://www.google.com/maps/place/Kaarattupally+Muslim+Jamath+Masjid+%E0%B4%95%E0%B4%BE%E0%B4%B0%E0%B4%BE%E0%B4%9F%E0%B5%8D%E0%B4%9F%E0%B5%81%E0%B4%AA%E0%B4%B3%E0%B5%8D%E0%B4%B3%E0%B4%BF+%E0%B4%AE%E0%B5%81%E0%B4%B8%E0%B5%8D%E0%B4%B2%E0%B4%BF%E0%B4%82+%E0%B4%9C%E0%B4%AE%E0%B4%BE%E0%B4%85%E0%B4%A4%E0%B5%8D%E0%B4%A4%E0%B5%8D/data=!4m7!3m6!1s0x3b07e2f9c64ce053:0xeabde72a94502fef!8m2!3d10.1166762!4d76.4922559!16s%2Fg%2F124ygptrq!19sChIJU-BMxvniBzsR7y9QlCrnveo?authuser=0&hl=en&rclk=1,"10.116676199999999,76.4922559"
Mekalady Juma Masjid,Mosque,"5FF3+JW7 Mekalady Juma Masjid, Mekalady, Kalady, Vadakkumbhagom, Kerala 683574",Mekalady,5FF3+JW7,"Kalady, Vadakkumbhagom",683574,Kerala,IN,https://www.google.com/maps/place/Mekalady+Juma+Masjid/data=!4m7!3m6!1s0x3b0807f5843abf2f:0x85b176f522fa571f!8m2!3d10.1740356!4d76.4547848!16s%2Fg%2F11f27nmj96!19sChIJL786hPUHCDsRH1f6IvV2sYU?authuser=0&hl=en&rclk=1,"10.1740356,76.4547848"
Kaipurikkara Masjid,Mosque,"4C3F+M6R Kaipurikkara Masjid, Marampally, Kerala 683105",,4C3F+M6R,Marampally,,Kerala,IN,https://www.google.com/maps/place/Kaipurikkara+Masjid/data=!4m7!3m6!1s0x3b0809b1fb53319f:0xb036bfd23bb9d125!8m2!3d10.104232!4d76.423006!16s%2Fg%2F11gdz2fm8x!19sChIJnzFT-7EJCDsRJdG5O9K_NrA?authuser=0&hl=en&rclk=1,"10.104232,76.423006"
West Vengola Salafi Masjid,Mosque,"3CCQ+WQ8 West Vengola Salafi Masjid, Ernakulam, Kerala 682011",,3CCQ+WQ8,Ernakulam,682011,Kerala,IN,https://www.google.com/maps/place/West+Vengola+Salafi+Masjid/data=!4m7!3m6!1s0x3b0809f6aef3297f:0x6781c2355544bbfd!8m2!3d10.0722879!4d76.439464!16s%2Fg%2F11c45nz19n!19sChIJfynzrvYJCDsR_btEVTXCgWc?authuser=0&hl=en&rclk=1,"10.0722879,76.439464"
ChembarathKunnu Juma Masjid cempaarttukunn jumaa msjid,Mosque,"3CXR+JFX ChembarathKunnu Juma Masjid cempaarttukunn jumaa msjid, Chembarathukunnu, Ponjassery, Kerala 683547",Chembarathukunnu,3CXR+JFX,Ponjassery,683547,Kerala,IN,https://www.google.com/maps/place/ChembarathKunnu+Juma+Masjid+%E0%B4%9A%E0%B5%86%E0%B4%AE%E0%B5%8D%E0%B4%AA%E0%B4%BE%E0%B4%B0%E0%B4%A4%E0%B5%8D%E0%B4%A4%E0%B5%81%E0%B4%95%E0%B5%81%E0%B4%A8%E0%B5%8D%E0%B4%A8%E0%B5%8D+%E0%B4%9C%E0%B5%81%E0%B4%AE%E0%B4%BE+%E0%B4%AE%E0%B4%B8%E0%B5%8D%E0%B4%9C%E0%B4%BF%E0%B4%A6%E0%B5%8D/data=!4m7!3m6!1s0x3b0809c5913d55db:0x987fba1a98ab41a0!8m2!3d10.0991141!4d76.4412249!16s%2Fg%2F11r90d2jb!19sChIJ21U9kcUJCDsRoEGrmBq6f5g?authuser=0&hl=en&rclk=1,"10.0991141,76.4412249"
Rayonpuram Muslim Jumua Masjid Vallam,Mosque,"4FH6+HWH Rayonpuram Muslim Jumua Masjid Vallam, Vallom, Perumbavoor, Kerala 683543",Vallom,4FH6+HWH,Perumbavoor,683543,Kerala,IN,https://www.google.com/maps/place/Rayonpuram+Muslim+Jumua+Masjid+Vallam/data=!4m7!3m6!1s0x3b07e324f7fd72ff:0x841684d0eb62eca1!8m2!3d10.1289362!4d76.462349!16s%2Fg%2F11ghnfm762!19sChIJ_3L99yTjBzsRoexi69CEFoQ?authuser=0&hl=en&rclk=1,"10.1289362,76.462349"
Karunagapally Shaikanmaar Vaka-Namaskara Pally,Mosque,"Karunagapally Shaikanmaar Vaka-Namaskara Pally, MH Kavala, SH 16, AM Rd, Ponjassery, Perumbavoor, Kerala 683547",,"MH Kavala, SH 16, AM Rd, Ponjassery","Perumbavoor, Ponjassery",683547,Kerala,IN,https://www.google.com/maps/place/Karunagapally+Shaikanmaar+Vaka-Namaskara+Pally/data=!4m7!3m6!1s0x3b0809db9ae35f85:0xaffeb0ebd408c159!8m2!3d10.0957941!4d76.448146!16s%2Fg%2F11c0ppgb9w!19sChIJhV_jmtsJCDsRWcEI1Ouw_q8?authuser=0&hl=en&rclk=1,"10.095794099999999,76.448146"
Kandanthara Muslim Juma Masjid,Mosque,"4F49+P4H Kandanthara Muslim Juma Masjid, Kandanthara, Kerala 683542",Kandanthara,4F49+P4H,,683542,Kerala,IN,https://www.google.com/maps/place/Kandanthara+Muslim+Juma+Masjid/data=!4m7!3m6!1s0x3b07e357b6045841:0x6c27f820e4b12502!8m2!3d10.1068176!4d76.467853!16s%2Fg%2F11ng0g42_x!19sChIJQVgEtlfjBzsRAiWx5CD4J2w?authuser=0&hl=en&rclk=1,"10.1068176,76.46785299999999"
Kaipoorikkara Juma Masjid kaippuurikkr jumaamsjid,Mosque,"3CWG+RFG Kaipoorikkara Juma Masjid kaippuurikkr jumaamsjid, Unnamed Road, Ponjassery, Kerala 683547",,"3CWG+RFG, Unnamed Road",Ponjassery,683547,Kerala,IN,https://www.google.com/maps/place/Kaipoorikkara+Juma+Masjid+%E0%B4%95%E0%B5%88%E0%B4%AA%E0%B5%8D%E0%B4%AA%E0%B5%82%E0%B4%B0%E0%B4%BF%E0%B4%95%E0%B5%8D%E0%B4%95%E0%B4%B0+%E0%B4%9C%E0%B5%81%E0%B4%AE%E0%B4%BE%E0%B4%AE%E0%B4%B8%E0%B5%8D%E0%B4%9C%E0%B4%BF%E0%B4%A6%E0%B5%8D/data=!4m7!3m6!1s0x3b0809b9a1e57bd3:0x65e2117181fd4dec!8m2!3d10.0970744!4d76.4261959!16s%2Fg%2F11c6qrbm7y!19sChIJ03vlobkJCDsR7E39gXER4mU?authuser=0&hl=en&rclk=1,"10.0970744,76.4261959"
Okkal Muhiyadheen Juma Masjid,Mosque,"4FW4+GWC Okkal Muhiyadheen Juma Masjid, Okkal, Chelamattom part, Kerala 683550",Okkal,4FW4+GWC,Chelamattom part,683550,Kerala,IN,https://www.google.com/maps/place/Okkal+Muhiyadheen+Juma+Masjid/data=!4m7!3m6!1s0x3b07e2a84f63342f:0xa9e303c3a2c132e8!8m2!3d10.1463217!4d76.457277!16s%2Fg%2F11g7z9v8p0!19sChIJLzRjT6jiBzsR6DLBosMD46k?authuser=0&hl=en&rclk=1,"10.1463217,76.45727699999999"
Masjid thauheed,Mosque,"4CG5+68H Masjid thauheed, Thekkumbhagom, Kerala 683580",,4CG5+68H,Thekkumbhagom,683580,Kerala,IN,https://www.google.com/maps/place/Masjid+thauheed/data=!4m7!3m6!1s0x3b0808f673c970d1:0x8cfa948b777ff3c2!8m2!3d10.125571!4d76.4083517!16s%2Fg%2F11c5t4mv55!19sChIJ0XDJc_YICDsRwvN_d4uU-ow?authuser=0&hl=en&rclk=1,"10.125570999999999,76.4083517"
Onnamile Mosque,Mosque,"4F8R+JVX Onnamile Mosque, Perumbavoor, Kerala 683543",,4F8R+JVX,Perumbavoor,,Kerala,IN,https://www.google.com/maps/place/Onnamile+Mosque/data=!4m7!3m6!1s0x3b07e2f84d60f7ab:0x2394ff69a5696a85!8m2!3d10.1166201!4d76.4922439!16s%2Fg%2F11f3jgcsf2!19sChIJq_dgTfjiBzsRhWpppWn_lCM?authuser=0&hl=en&rclk=1,"10.116620099999999,76.49224389999999"
Juma-Masjid Parappuram,Mosque,"4F99+39R Juma-Masjid Parappuram, Perumbavoor, Kerala 683543",,4F99+39R,Perumbavoor,683543,Kerala,IN,https://www.google.com/maps/place/Juma-Masjid+Parappuram/data=!4m7!3m6!1s0x3b07e28af8f5e8eb:0x52bccc80db189123!8m2!3d10.1177407!4d76.4683894!16s%2Fg%2F1v5_7w10!19sChIJ6-j1-IriBzsRI5EY24DMvFI?authuser=0&hl=en&rclk=1,"10.117740699999999,76.46838939999999"
Rifaiyya Juma Masjid,Mosque,"4CJ3+PWQ Rifaiyya Juma Masjid, Sreemoolanagaram, Kerala 683580",,4CJ3+PWQ,Sreemoolanagaram,683580,Kerala,IN,https://www.google.com/maps/place/Rifaiyya+Juma+Masjid/data=!4m7!3m6!1s0x3b08088c55555555:0xe8446c56476b0d74!8m2!3d10.13183!4d76.4048472!16s%2Fg%2F11b76vczbv!19sChIJVVVVVYwICDsRdA1rR1ZsROg?authuser=0&hl=en&rclk=1,"10.131829999999999,76.40484719999999"
Eakkunnam Al falah Juma Masjid,Mosque,"3HQ6+6V5 Eakkunnam Al falah Juma Masjid, Ekunnam Pallippadi Rd, Eramalloor, Kerala 683549",,"3HQ6+6V5, Ekunnam Pallippadi Rd",Eramalloor,683549,Kerala,IN,https://www.google.com/maps/place/Eakkunnam+Al+falah+Juma+Masjid/data=!4m7!3m6!1s0x3b07e41191e3471d:0xcf50d420f4e31550!8m2!3d10.0880139!4d76.5622498!16s%2Fg%2F11c57k24xf!19sChIJHUfjkRHkBzsRUBXj9CDUUM8?authuser=0&hl=en&rclk=1,"10.0880139,76.5622498"
Masjid Annoor(A/C palli),Mosque,"Masjid Annoor(A/C palli), Kandanthara, Marampally, Kerala 683542",Kandanthara,,Marampally,683542,Kerala,IN,https://www.google.com/maps/place/Masjid+Annoor%28A%2FC+palli%29/data=!4m7!3m6!1s0x3b07e27d1e76a6ab:0x555b254fd91132e8!8m2!3d10.1049895!4d76.4627476!16s%2Fg%2F11g6wcmq7f!19sChIJq6Z2Hn3iBzsR6DIR2U8lW1U?authuser=0&hl=en&rclk=1,"10.1049895,76.4627476"
Kunnathukara Juma Masjid,Mosque,"4C57+V6R Kunnathukara Juma Masjid, Mrampally Nusruttal Islam MES Rd, Marampally, Kerala 683105",,"4C57+V6R, Mrampally Nusruttal Islam MES Rd",Marampally,683105,Kerala,IN,https://www.google.com/maps/place/Kunnathukara+Juma+Masjid/data=!4m7!3m6!1s0x3b0809ab2b1fa3c3:0x6b59057f1dcd48b8!8m2!3d10.1097372!4d76.4130184!16s%2Fg%2F11cr_fk0jz!19sChIJw6MfK6sJCDsRuEjNHX8FWWs?authuser=0&hl=en&rclk=1,"10.1097372,76.4130184"
Kunnuvazhy Thaikkavu,Mosque,"4C6C+XRX Kunnuvazhy Thaikkavu, Aluva - Perumbavoor Rd, Marampally, Kerala 683547",,"4C6C+XRX, Aluva - Perumbavoor Rd",Marampally,683547,Kerala,IN,https://www.google.com/maps/place/Kunnuvazhy+Thaikkavu/data=!4m7!3m6!1s0x3b08084d7b014ad1:0x5209c53b5498636b!8m2!3d10.1124789!4d76.4221187!16s%2Fg%2F11c2qmy7zq!19sChIJ0UoBe00ICDsRa2OYVDvFCVI?authuser=0&hl=en&rclk=1,"10.1124789,76.4221187"
Asasul Islam Masjid and Madrasa,Mosque,"4F85+MM8 Asasul Islam Masjid and Madrasa, Asasul Islam Masjid, Power House Jn, Mudickal,, Perumbavoor, Kerala",,"4F85+MM8, Asasul Islam Masjid, Power House Jn, Mudickal,","Perumbavoor, Marampally",,Kerala,IN,https://www.google.com/maps/place/Asasul+Islam+Masjid+and+Madrasa/data=!4m7!3m6!1s0x3b07e2819d7cf915:0xd7f37b901bab85ad!8m2!3d10.1166685!4d76.4592058!16s%2Fg%2F11c603rmzv!19sChIJFfl8nYHiBzsRrYWrG5B789c?authuser=0&hl=en&rclk=1,"10.1166685,76.45920579999999"
East Okkal Badariya Juma Masjid,Mosque,"4FW8+CP3 East Okkal Badariya Juma Masjid, Chelamattom part, Kerala 683550",,4FW8+CP3,Chelamattom part,,Kerala,IN,https://www.google.com/maps/place/East+Okkal+Badariya+Juma+Masjid/data=!4m7!3m6!1s0x3b07e2afe932c7e5:0xfd534e09cd4a01ae!8m2!3d10.1460136!4d76.4668041!16s%2Fg%2F11gffft1t6!19sChIJ5ccy6a_iBzsRrgFKzQlOU_0?authuser=0&hl=en&rclk=1,"10.1460136,76.46680409999999"
Muhiyudheen masjid mundankarappuram,Mosque,"3CGV+7M5 Muhiyudheen masjid mundankarappuram, Vengola, Kerala 683547",,3CGV+7M5,Vengola,683547,Kerala,IN,https://www.google.com/maps/place/Muhiyudheen+masjid+mundankarappuram/data=!4m7!3m6!1s0x3b0809f0877c13e1:0xf61cdaf5697666a3!8m2!3d10.0756302!4d76.4442243!16s%2Fg%2F11c44vfhyb!19sChIJ4RN8h_AJCDsRo2Z2afXaHPY?authuser=0&hl=en&rclk=1,"10.075630199999999,76.4442243"
Nedumthod Ilfathul Islam Juma Masjid,Mosque,"4F24+QW8 Nedumthod Ilfathul Islam Juma Masjid, SH 16, Nedumthodu, Perumbavoor, Kerala 683547",Nedumthodu,"4F24+QW8, SH 16",Perumbavoor,683547,Kerala,IN,https://www.google.com/maps/place/Nedumthod+Ilfathul+Islam+Juma+Masjid/data=!4m7!3m6!1s0x3b07e358403176bd:0x43936baef044f0c6!8m2!3d10.1019172!4d76.4573142!16s%2Fg%2F11f5q60xd5!19sChIJvXYxQFjjBzsRxvBE8K5rk0M?authuser=0&hl=en&rclk=1,"10.101917199999999,76.4573142"
Thykaavu Masjid,Mosque,"3CRQ+CQ5 Thykaavu Masjid, Ponjassery, Kerala 683547",,3CRQ+CQ5,Ponjassery,683547,Kerala,IN,https://www.google.com/maps/place/Thykaavu+Masjid/data=!4m7!3m6!1s0x3b0809c225ac0091:0x60b8ad1b18a1ab28!8m2!3d10.091021!4d76.4394744!16s%2Fg%2F11c30sl099!19sChIJkQCsJcIJCDsRKKuhGButuGA?authuser=0&hl=en&rclk=1,"10.091021,76.4394744"
Muhiyudheen Sunni Juma Masjid,Mosque,"Muhiyudheen Sunni Juma Masjid, Sreemoolanagaram, Thekkumbhagom, Kerala 683580",,,"Sreemoolanagaram, Thekkumbhagom",683580,Kerala,IN,https://www.google.com/maps/place/Muhiyudheen+Sunni+Juma+Masjid/data=!4m7!3m6!1s0x3b080861a1321e9d:0x3e40dba82a5cb854!8m2!3d10.1356695!4d76.4120448!16s%2Fg%2F11c60db_58!19sChIJnR4yoWEICDsRVLhcKqjbQD4?authuser=0&hl=en&rclk=1,"10.135669499999999,76.41204479999999"
Thycavu Mosque taikkaav plllli,Mosque,"3CQM+M9F Thycavu Mosque taikkaav plllli, SH 16, Vazhakkulam, Kerala 683547",Vazhakkulam,"3CQM+M9F, SH 16",,683547,Kerala,IN,https://www.google.com/maps/place/Thycavu+Mosque+%E0%B4%A4%E0%B5%88%E0%B4%95%E0%B5%8D%E0%B4%95%E0%B4%BE%E0%B4%B5%E0%B5%8D+%E0%B4%AA%E0%B4%B3%E0%B5%8D%E0%B4%B3%E0%B4%BF/data=!4m7!3m6!1s0x3b0809c006664ea7:0xd447ac50b21c013e!8m2!3d10.0891848!4d76.43342!16s%2Fg%2F1vfp6myp!19sChIJp05mBsAJCDsRPgEcslCsR9Q?authuser=0&hl=en&rclk=1,"10.0891848,76.43342"
NOOR JUMA MASJID,Mosque,"3CJH+5Q6 NOOR JUMA MASJID, Chembarakky - Mecherimukal - Thamarachal Road, Vazhakkulam, Kerala 683105",,"3CJH+5Q6, Chembarakky - Mecherimukal - Thamarachal Road",Vazhakkulam,683105,Kerala,IN,https://www.google.com/maps/place/NOOR+JUMA+MASJID/data=!4m7!3m6!1s0x3b0809924d16e54f:0xd3e91b5c3d769a82!8m2!3d10.0804021!4d76.429399!16s%2Fg%2F11f3m9twrl!19sChIJT-UWTZIJCDsRgpp2PVwb6dM?authuser=0&hl=en&rclk=1,"10.080402099999999,76.429399"
Hira Juma Masjid,Mosque,"49JW+7F2 Hira Juma Masjid, Sreemoolanagaram, Kerala 683580",,49JW+7F2,Sreemoolanagaram,683580,Kerala,IN,https://www.google.com/maps/place/Hira+Juma+Masjid/data=!4m7!3m6!1s0x3b0808ed2e42e51f:0x2e3f8d13c5a2df11!8m2!3d10.1306313!4d76.3961561!16s%2Fg%2F1pyqfkvbx!19sChIJH-VCLu0ICDsREd-ixRONPy4?authuser=0&hl=en&rclk=1,"10.1306313,76.3961561"
"Juma Masjid,South Vazhakkulam.",Mosque,"3CQ6+R2V Juma Masjid,South Vazhakkulam., Vazhakkulam, Kerala 683105",Vazhakkulam,3CQ6+R2V,,683105,Kerala,IN,"https://www.google.com/maps/place/Juma+Masjid,South+Vazhakkulam./data=!4m7!3m6!1s0x3b08090a9e79da49:0x66db654712a4dee4!8m2!3d10.089602!4d76.4100606!16s%2Fg%2F11dfh14cp1!19sChIJSdp5ngoJCDsR5N6kEkdl22Y?authuser=0&hl=en&rclk=1","10.089602,76.4100606"
NOOR MASJID,Mosque,"NOOR MASJID, Noor Junction, Kandanthara, Perumbavoor, Kerala 683556",Kandanthara,Noor Junction,Perumbavoor,683556,Kerala,IN,https://www.google.com/maps/place/NOOR+MASJID/data=!4m7!3m6!1s0x3b07e27aac1e6435:0x24fba020efd0cd9b!8m2!3d10.1016349!4d76.4675243!16s%2Fg%2F11gfk4f1pn!19sChIJNWQerHriBzsRm83Q7yCg-yQ?authuser=0&hl=en&rclk=1,"10.101634899999999,76.4675243"
MUDICKAL RAZAKHIYA MASJID,Mosque,"MUDICKAL RAZAKHIYA MASJID, Aluva - Munnar Rd, Mudickal, Kerala 683547",,Aluva - Munnar Rd,Mudickal,683547,Kerala,IN,https://www.google.com/maps/place/MUDICKAL+RAZAKHIYA+MASJID/data=!4m7!3m6!1s0x3b080987727f6d81:0xd787401bc925db50!8m2!3d10.1170759!4d76.4449696!16s%2Fg%2F11fj2tyf44!19sChIJgW1_cocJCDsRUNslyRtAh9c?authuser=0&hl=en&rclk=1,"10.1170759,76.4449696"
Juma Masjid,Mosque,"5FG2+G9H Juma Masjid, Mattoor - Kaippattoor Rd, Mekalady, Kalady, Vadakkumbhagom, Kerala 683574",Mekalady,"5FG2+G9H, Mattoor - Kaippattoor Rd","Kalady, Vadakkumbhagom",683574,Kerala,IN,https://www.google.com/maps/place/Juma+Masjid/data=!4m7!3m6!1s0x3b0807f4b0b0c751:0x5cc2ab31c7ab080e!8m2!3d10.1763078!4d76.4509948!16s%2Fg%2F11xd0rq0t!19sChIJUcewsPQHCDsRDgirxzGrwlw?authuser=0&hl=en&rclk=1,"10.1763078,76.45099479999999"
Ma'nbaul Islam Juma Masjid,Mosque,"49MR+8C4 Ma'nbaul Islam Juma Masjid, Kochi, Kerala 683580",,49MR+8C4,Kochi,683580,Kerala,IN,https://www.google.com/maps/place/Ma%27nbaul+Islam+Juma+Masjid/data=!4m7!3m6!1s0x3b080894f4834ac7:0x1f7547e396d6e14b!8m2!3d10.1332644!4d76.3910842!16s%2Fg%2F11f03q9jf1!19sChIJx0qD9JQICDsRS-HWluNHdR8?authuser=0&hl=en&rclk=1,"10.1332644,76.3910842"
Kanamparamb Juma Masjid kaanaaNprrmp jumaa msjid,Mosque,"4C5H+H3M Kanamparamb Juma Masjid kaanaaNprrmp jumaa msjid, Kanamparamb Junction, Ezhipuram Rd, Marampally, Kerala 683547",,"4C5H+H3M, Kanamparamb Junction, Ezhipuram Rd",Marampally,683547,Kerala,IN,https://www.google.com/maps/place/Kanamparamb+Juma+Masjid+%E0%B4%95%E0%B4%BE%E0%B4%A8%E0%B4%BE%E0%B4%82%E0%B4%AA%E0%B4%B1%E0%B4%AE%E0%B5%8D%E0%B4%AA%E0%B5%8D+%E0%B4%9C%E0%B5%81%E0%B4%AE%E0%B4%BE+%E0%B4%AE%E0%B4%B8%E0%B5%8D%E0%B4%9C%E0%B4%BF%E0%B4%A6%E0%B5%8D/data=!4m7!3m6!1s0x3b080943eaa1bba9:0xba1c15c6041ddbc6!8m2!3d10.1089629!4d76.4276804!16s%2Fg%2F11fm3n0w_9!19sChIJqbuh6kMJCDsRxtsdBMYVHLo?authuser=0&hl=en&rclk=1,"10.1089629,76.4276804"
Mosco Masjid Road,Mosque,"4C54+P5V Mosco Masjid Road, Chalakkal East, Marampally, Kerala 683105",Chalakkal East,4C54+P5V,Marampally,683105,Kerala,IN,https://www.google.com/maps/place/Mosco+Masjid+Road/data=!4m7!3m6!1s0x3b080901de331605:0x2e89d899faa63e3a!8m2!3d10.1094681!4d76.4054862!16s%2Fg%2F11g8ybm0sy!19sChIJBRYz3gEJCDsROj6m-pnYiS4?authuser=0&hl=en&rclk=1,"10.109468099999999,76.4054862"
MES stop Masjid,Mosque,"4C67+X69 MES stop Masjid, MES stop, Marampally, Kerala",,"4C67+X69, MES stop",Marampally,,Kerala,IN,https://www.google.com/maps/place/MES+stop+Masjid/data=!4m7!3m6!1s0x3b080854fef82b59:0x305294fa9023ae20!8m2!3d10.1124197!4d76.4131117!16s%2Fg%2F11g6bfzxh2!19sChIJWSv4_lQICDsRIK4jkPqUUjA?authuser=0&hl=en&rclk=1,"10.1124197,76.4131117"
HIRA MASJID,Mosque,"4F2V+J3J HIRA MASJID, VATTAKKATTUPADY, Old Muvattupuzha Rd, Perumbavoor, Kerala 683548",Vattakattupady,"4F2V+J3J, VATTAKKATTUPADY, Old Muvattupuzha Rd",Perumbavoor,683548,Kerala,IN,https://www.google.com/maps/place/HIRA+MASJID/data=!4m7!3m6!1s0x3b07e24fdd2a8b53:0x2a91f71ae82c7f6f!8m2!3d10.1015933!4d76.4926301!16s%2Fg%2F1hhvvkf_1!19sChIJU4sq3U_iBzsRb38s6Br3kSo?authuser=0&hl=en&rclk=1,"10.1015933,76.4926301"
Anwarul Islam Masjid,Mosque,"4F64+MJ3 Anwarul Islam Masjid, Marampally, Kerala 683547",,4F64+MJ3,Marampally,683547,Kerala,IN,https://www.google.com/maps/place/Anwarul+Islam+Masjid/data=!4m7!3m6!1s0x3b07e27ffe396489:0x21a36bfe87690c38!8m2!3d10.1116424!4d76.456553!16s%2Fg%2F11fxyhcs44!19sChIJiWQ5_n_iBzsROAxph_5royE?authuser=0&hl=en&rclk=1,"10.1116424,76.456553"
Bilal Masjid,Mosque,"499R+Q6F Bilal Masjid, Aluva - Perumbavoor Rd, Chalakkal East, Kerala 683105",Chalakkal East,"499R+Q6F, Aluva - Perumbavoor Rd",,683105,Kerala,IN,https://www.google.com/maps/place/Bilal+Masjid/data=!4m7!3m6!1s0x3b0808ef79e86bdf:0x825730db476bf9c2!8m2!3d10.1194337!4d76.390557!16s%2Fg%2F11c1l4dm0x!19sChIJ32voee8ICDsRwvlrR9swV4I?authuser=0&hl=en&rclk=1,"10.1194337,76.390557"
Puthanpalli Juma Masjid puttplllli jumaa msjid,Mosque,"4CGR+XX6 Puthanpalli Juma Masjid puttplllli jumaa msjid, Thirunarayanapuram Temple Rd, Parappuram, Kizhakkumbhagom, Kerala 683575",Parappuram,"4CGR+XX6, Thirunarayanapuram Temple Rd",Kizhakkumbhagom,683575,Kerala,IN,https://www.google.com/maps/place/Puthanpalli+Juma+Masjid+%E0%B4%AA%E0%B5%81%E0%B4%A4%E0%B5%8D%E0%B4%A4%E0%B5%BB%E0%B4%AA%E0%B4%B3%E0%B5%8D%E0%B4%B3%E0%B4%BF+%E0%B4%9C%E0%B5%81%E0%B4%AE%E0%B4%BE+%E0%B4%AE%E0%B4%B8%E0%B5%8D%E0%B4%9C%E0%B4%BF%E0%B4%A6%E0%B5%8D/data=!4m7!3m6!1s0x3b08083cf381935d:0xa9e07f279f5b672!8m2!3d10.1290679!4d76.4422274!16s%2Fg%2F1hhj405rp!19sChIJXZOB8zwICDsRcrb1efIHngo?authuser=0&hl=en&rclk=1,"10.129067899999999,76.4422274"
Noorul hudha masjid North Kandanthara,Mosque,"4F68+832 Noorul hudha masjid North Kandanthara, Saddam Rd, Kandanthara, Perumbavoor, Marampally, Kerala 683556",Kandanthara,"4F68+832, Saddam Rd","Perumbavoor, Marampally",683556,Kerala,IN,https://www.google.com/maps/place/Noorul+hudha+masjid+North+Kandanthara/data=!4m7!3m6!1s0x3b07e27d75245161:0x3ddb538081ef2ac3!8m2!3d10.1107532!4d76.4651334!16s%2Fg%2F11csp857tn!19sChIJYVEkdX3iBzsRwyrvgYBT2z0?authuser=0&hl=en&rclk=1,"10.1107532,76.4651334"
JUMA MASJID ALLAPRA,Mosque,"3FW9+785 JUMA MASJID ALLAPRA, Allapra, Perumbavoor, Vengola, Kerala 683556",Allapra,3FW9+785,"Perumbavoor, Vengola",683556,Kerala,IN,https://www.google.com/maps/place/JUMA+MASJID+ALLAPRA/data=!4m7!3m6!1s0x3b07e26dfdb6cc45:0xfd97e01fff28d6b8!8m2!3d10.0956475!4d76.4683501!16s%2Fg%2F11b_1zp9vg!19sChIJRcy2_W3iBzsRuNYo_x_gl_0?authuser=0&hl=en&rclk=1,"10.0956475,76.4683501"
Central Juma Masjid,Mosque,"4C9M+G74 Central Juma Masjid, Puthiyedam-Manjappetty Kovilakam Rd, Marampally, Kerala 683575",,"4C9M+G74, Puthiyedam-Manjappetty Kovilakam Rd",Marampally,683575,Kerala,IN,https://www.google.com/maps/place/Central+Juma+Masjid/data=!4m7!3m6!1s0x3b0808362a632d03:0xb559d30eda247a27!8m2!3d10.1187578!4d76.4332155!16s%2Fg%2F11c2q3hzkh!19sChIJAy1jKjYICDsRJ3ok2g7TWbU?authuser=0&hl=en&rclk=1,"10.1187578,76.4332155"
Noorul Hudha Masjid,Mosque,"3FG8+88M Noorul Hudha Masjid, Onamkulam, Vengola, Kerala 683556",Onamkulam,3FG8+88M,Vengola,683556,Kerala,IN,https://www.google.com/maps/place/Noorul+Hudha+Masjid/data=!4m7!3m6!1s0x3b07e204ef8b0c55:0xd3881514a36eaa7f!8m2!3d10.0758448!4d76.4658073!16s%2Fg%2F11gd863fpn!19sChIJVQyL7wTiBzsRf6puoxQViNM?authuser=0&hl=en&rclk=1,"10.075844799999999,76.4658073"
Muhiyudheen Juma Masjid Kurickilakodu,Mosque,"5FFV+3V8 Muhiyudheen Juma Masjid Kurickilakodu, Kurichilakodu, Kerala 683544",,5FFV+3V8,Kurichilakodu,683544,Kerala,IN,https://www.google.com/maps/place/Muhiyudheen+Juma+Masjid+Kurickilakodu/data=!4m7!3m6!1s0x3b07fd246f9f1d07:0xf098aa1ea6788ef6!8m2!3d10.1726564!4d76.4947031!16s%2Fg%2F11f5j74glm!19sChIJBx2fbyT9BzsR9o54ph6qmPA?authuser=0&hl=en&rclk=1,"10.1726564,76.4947031"
Masjid Thaikkaavu,Mosque,"4F85+MM6 Masjid Thaikkaavu, Marampally, Kerala 683547",,4F85+MM6,Marampally,683547,Kerala,IN,https://www.google.com/maps/place/Masjid+Thaikkaavu/data=!4m7!3m6!1s0x3b07e2819d4420bf:0x45e201da6fbb9386!8m2!3d10.1166729!4d76.459144!16s%2Fg%2F11c2nw7fqt!19sChIJvyBEnYHiBzsRhpO7b9oB4kU?authuser=0&hl=en&rclk=1,"10.1166729,76.459144"
Pallipram West Juma Masjid,Mosque,"4C9Q+PJW Pallipram West Juma Masjid, Mudickal - Vanchinadu Road, Mudickal, Kerala 683547",,"4C9Q+PJW, Mudickal - Vanchinadu Road",Mudickal,683547,Kerala,IN,https://www.google.com/maps/place/Pallipram+West+Juma+Masjid/data=!4m7!3m6!1s0x3b0808372c811e03:0x22eea5086088e8bb!8m2!3d10.1193596!4d76.4390702!16s%2Fg%2F11c2pqzd1r!19sChIJAx6BLDcICDsRu-iIYAil7iI?authuser=0&hl=en&rclk=1,"10.1193596,76.4390702"
Masjid NOOR,Mosque,"4C84+CV4 Masjid NOOR, Aluva - Perumbavoor Rd, Chalakkal East, Marampally, Kerala 683105",Chalakkal East,"4C84+CV4, Aluva - Perumbavoor Rd",Marampally,683105,Kerala,IN,https://www.google.com/maps/place/Masjid+NOOR/data=!4m7!3m6!1s0x3b0808f8d88c53c7:0xb1f529d2677709b5!8m2!3d10.1160048!4d76.4071979!16s%2Fg%2F11csr5jgr6!19sChIJx1OM2PgICDsRtQl3Z9Ip9bE?authuser=0&hl=en&rclk=1,"10.116004799999999,76.4071979"
Masjidu-Rahma,Mosque,"3CVV+VPX Masjidu-Rahma, Khalifia Nagar, Ershadh Nagar, Ponjassery, Kerala 683547","Khalifia Nagar, Ershadh Nagar",3CVV+VPX,Ponjassery,683547,Kerala,IN,https://www.google.com/maps/place/Masjidu-Rahma/data=!4m7!3m6!1s0x3b0809c3562174c3:0x198eb5beb5042bee!8m2!3d10.0947293!4d76.4443562!16s%2Fg%2F11ggmp84gk!19sChIJw3QhVsMJCDsR7isEtb61jhk?authuser=0&hl=en&rclk=1,"10.0947293,76.4443562"
Thashreeful-Islam Masjid,Mosque,"4CJ2+XM7 Thashreeful-Islam Masjid, Sreemoolanagaram, Kerala 683580",,4CJ2+XM7,Sreemoolanagaram,683580,Kerala,IN,https://www.google.com/maps/place/Thashreeful-Islam+Masjid/data=!4m7!3m6!1s0x3b08088cde9ecfd5:0xe30cb4e511ea1131!8m2!3d10.1324086!4d76.4016813!16s%2Fg%2F11c1txxfr2!19sChIJ1c-e3owICDsRMRHqEeW0DOM?authuser=0&hl=en&rclk=1,"10.1324086,76.40168129999999"
Al Hudha Masjid,Mosque,"3HXH+C83 Al Hudha Masjid, Thrikkariyoor, Kerala 683549",,3HXH+C83,Thrikkariyoor,,Kerala,IN,https://www.google.com/maps/place/Al+Hudha+Masjid/data=!4m7!3m6!1s0x3b07e53fac796bf7:0xc9fd0e9e5dee4a0e!8m2!3d10.098509!4d76.5783015!16s%2Fg%2F11ffkqmbzb!19sChIJ92t5rD_lBzsRDkruXZ4O_ck?authuser=0&hl=en&rclk=1,"10.098509,76.5783015"
Madeena Masjid,Mosque,"Madeena Masjid, Near, Private Bus Stand Rd, Perumbavoor, Kerala 683542",,"Near, Private Bus Stand Rd",Perumbavoor,683542,Kerala,IN,https://www.google.com/maps/place/Madeena+Masjid/data=!4m7!3m6!1s0x3b07e28a236a36db:0xd8224ba70a97f6ad!8m2!3d10.1140879!4d76.4742834!16s%2Fg%2F11b67mqvtc!19sChIJ2zZqI4riBzsRrfaXCqdLItg?authuser=0&hl=en&rclk=1,"10.1140879,76.47428339999999"
"Juma Masjid jumaa msjid, kanjirakkad",Mosque,"4FJC+CF5 Juma Masjid jumaa msjid, kanjirakkad, Kanjirakkad, Perumbavoor, Kerala 683543",Kanjirakkad,4FJC+CF5,Perumbavoor,683543,Kerala,IN,"https://www.google.com/maps/place/Juma+Masjid+%E0%B4%9C%E0%B5%81%E0%B4%AE%E0%B4%BE+%E0%B4%AE%E0%B4%B8%E0%B5%8D%E0%B4%9C%E0%B4%BF%E0%B4%A6%E0%B5%8D,+kanjirakkad/data=!4m7!3m6!1s0x3b07e30bcaf6a955:0x58c15004fc6f9ce1!8m2!3d10.131023!4d76.471221!16s%2Fg%2F11ghs7mzpy!19sChIJVan2ygvjBzsR4Zxv_ARQwVg?authuser=0&hl=en&rclk=1","10.131022999999999,76.471221"
Masjid-ul-Farooq,Mosque,"4CJ5+4XQ Masjid-ul-Farooq, Sreemoolanagaram, Thekkumbhagom, Kerala 683580",,4CJ5+4XQ,"Sreemoolanagaram, Thekkumbhagom",683580,Kerala,IN,https://www.google.com/maps/place/Masjid-ul-Farooq/data=!4m7!3m6!1s0x3b0808f55ff30b63:0xd08163e4857ddb0e!8m2!3d10.1303276!4d76.4099979!16s%2Fg%2F11c2q3czmf!19sChIJYwvzX_UICDsRDtt9heRjgdA?authuser=0&hl=en&rclk=1,"10.1303276,76.4099979"
"Masjidul Ajmeer, Kaipoorikkara",Mosque,"3CVG+P9F Masjidul Ajmeer, Kaipoorikkara, Chembarakky-Kunnuvazhy Road, Vazhakkulam, Kerala 683105",Vazhakkulam,"3CVG+P9F, Chembarakky-Kunnuvazhy Road",,,Kerala,IN,"https://www.google.com/maps/place/Masjidul+Ajmeer,+Kaipoorikkara/data=!4m7!3m6!1s0x3b0809bb8b25f2eb:0x872e0baaee07757e!8m2!3d10.0943247!4d76.4259277!16s%2Fg%2F11f3xh5r48!19sChIJ6_Ili7sJCDsRfnUH7qoLLoc?authuser=0&hl=en&rclk=1","10.0943247,76.4259277"
Muhiyudheen Masjid muhiyuddii msjid,Mosque,"4FGC+763 Muhiyudheen Masjid muhiyuddii msjid, Kanjirakkad, Perumbavoor, Kerala 683543",Kanjirakkad,4FGC+763,Perumbavoor,683543,Kerala,IN,https://www.google.com/maps/place/Muhiyudheen+Masjid+%E0%B4%AE%E0%B5%81%E0%B4%B9%E0%B4%BF%E0%B4%AF%E0%B5%81%E0%B4%A6%E0%B5%8D%E0%B4%A6%E0%B5%80%E0%B5%BB+%E0%B4%AE%E0%B4%B8%E0%B5%8D%E0%B4%9C%E0%B4%BF%E0%B4%A6%E0%B5%8D/data=!4m7!3m6!1s0x3b07e2905477704f:0xd6dfb112b0557308!8m2!3d10.1256393!4d76.4705391!16s%2Fg%2F11hc2_8kh0!19sChIJT3B3VJDiBzsRCHNVsBKx39Y?authuser=0&hl=en&rclk=1,"10.1256393,76.4705391"
Badariya Jumma Masjid,Mosque,"4C2X+M7P Badariya Jumma Masjid, Ernakulam, Kerala 683547",,4C2X+M7P,Ernakulam,683547,Kerala,IN,https://www.google.com/maps/place/Badariya+Jumma+Masjid/data=!4m7!3m6!1s0x3b0809d08d040a83:0x1336da8770c27643!8m2!3d10.1017048!4d76.4482037!16s%2Fg%2F11fxvh23s6!19sChIJgwoEjdAJCDsRQ3bCcIfaNhM?authuser=0&hl=en&rclk=1,"10.1017048,76.4482037"
"Salafi Masjid Perumbavoor, Pallikavala",Mosque,"4F54+P2W Salafi Masjid Perumbavoor, Pallikavala, Aluva - Perumbavoor Rd, Marampally, Kerala 683547",,"4F54+P2W, Aluva - Perumbavoor Rd",Marampally,,Kerala,IN,"https://www.google.com/maps/place/Salafi+Masjid+Perumbavoor,+Pallikavala/data=!4m7!3m6!1s0x3b0809ef1d4ff9b5:0x23e218ed2ecd3eda!8m2!3d10.1093577!4d76.4550684!16s%2Fg%2F11fjn3kl3_!19sChIJtflPHe8JCDsR2j7NLu0Y4iM?authuser=0&hl=en&rclk=1","10.1093577,76.4550684"
Masjid Al Huda Marampally,Mosque,"4C59+223 Masjid Al Huda Marampally, Marampally, Kerala 683105",,4C59+223,Marampally,683105,Kerala,IN,https://www.google.com/maps/place/Masjid+Al+Huda+Marampally/data=!4m7!3m6!1s0x3b0809b5dd442699:0x50bd702c20e4b6e4!8m2!3d10.1075136!4d76.4175423!16s%2Fg%2F11f61f5kf8!19sChIJmSZE3bUJCDsR5LbkICxwvVA?authuser=0&hl=en&rclk=1,"10.107513599999999,76.4175423"
Vallam Choondi Juma Msjid,Mosque,"4FP8+WCP Vallam Choondi Juma Msjid, Antopuram Church Rd, Vallom, Chelamattom part, Kerala 683550",Vallom,"4FP8+WCP, Antopuram Church Rd",Chelamattom part,683550,Kerala,IN,https://www.google.com/maps/place/Vallam+Choondi+Juma+Msjid/data=!4m7!3m6!1s0x3b07e2a31942de4d:0x8126c27f95ba5ced!8m2!3d10.137329!4d76.4660766!16s%2Fg%2F11c38kd5x7!19sChIJTd5CGaPiBzsR7Vy6lX_CJoE?authuser=0&hl=en&rclk=1,"10.137329,76.4660766"
Juma Masjid,Mosque,"4F6M+42F Juma Masjid, opp. KSRTC Bus Station, Perumbavoor, Kerala 683542",,"4F6M+42F, opp. KSRTC Bus Station",Perumbavoor,683542,Kerala,IN,https://www.google.com/maps/place/Juma+Masjid/data=!4m7!3m6!1s0x3b07e25f74684ad9:0xb833b5dde29f9b0a!8m2!3d10.110304!4d76.4825393!16s%2Fg%2F11dfj25vst!19sChIJ2UpodF_iBzsRCpuf4t21M7g?authuser=0&hl=en&rclk=1,"10.110304,76.4825393"
Mudikkal palli,Mosque,"Mudikkal palli, Mudikkal Muslim Juma Mazjid, Vanchinadu, Aluva - Perumbavoor Rd, Perumbavoor, Mudickal, Kerala 683547",,"Mudikkal Muslim Juma Mazjid, Vanchinadu, Aluva - Perumbavoor Rd","Perumbavoor, Mudickal",683547,Kerala,IN,https://www.google.com/maps/place/Mudikkal+palli/data=!4m7!3m6!1s0x3b080913b6197d23:0x50593e708a392601!8m2!3d10.1158339!4d76.4509821!16s%2Fg%2F11jkv0l73g!19sChIJI30ZthMJCDsRASY5inA-WVA?authuser=0&hl=en&rclk=1,"10.1158339,76.45098209999999"
Majmua Chalackal,Mosque,"4C94+354 Majmua Chalackal, Aluva - Perumbavoor Rd, Chalakkal East, Marampally, Kerala 683105",Chalakkal East,"4C94+354, Aluva - Perumbavoor Rd",Marampally,683105,Kerala,IN,https://www.google.com/maps/place/Majmua+Chalackal/data=!4m7!3m6!1s0x3b0808f975adbf3d:0xccfab12ece8f81ca!8m2!3d10.1176268!4d76.4054677!16s%2Fg%2F1pp2vd5d0!19sChIJPb-tdfkICDsRyoGPzi6x-sw?authuser=0&hl=en&rclk=1,"10.1176268,76.4054677"
Zaina Masjid sain plllli,Mosque,"4FH9+M72 Zaina Masjid sain plllli, Vallom, Perumbavoor, Kerala 683543",Vallom,4FH9+M72,Perumbavoor,683543,Kerala,IN,https://www.google.com/maps/place/Zaina+Masjid+%E0%B4%B8%E0%B5%88%E0%B4%A8+%E0%B4%AA%E0%B4%B3%E0%B5%8D%E0%B4%B3%E0%B4%BF/data=!4m7!3m6!1s0x3b07e3067bef4011:0x4e0f3a3e7f1fcade!8m2!3d10.1291335!4d76.4681333!16s%2Fg%2F11fk8d_rr_!19sChIJEUDvewbjBzsR3soffz46D04?authuser=0&hl=en&rclk=1,"10.1291335,76.46813329999999"
Tharbiyathul Islam Madrassa & Masjid,Mosque,"3FV5+8R4 Tharbiyathul Islam Madrassa & Masjid, Unnamed Road, Kuttipadam, Perumbavoor, Vengola, Kerala 683556",Kuttipadam,"3FV5+8R4, Unnamed Road","Perumbavoor, Vengola",683556,Kerala,IN,https://www.google.com/maps/place/Tharbiyathul+Islam+Madrassa+%26+Masjid/data=!4m7!3m6!1s0x3b07e27414101e71:0x87a2f6b24e863dab!8m2!3d10.0932638!4d76.4595825!16s%2Fg%2F11ggm4m9bt!19sChIJcR4QFHTiBzsRqz2GTrL2ooc?authuser=0&hl=en&rclk=1,"10.093263799999999,76.4595825"
Onambilly Mosque,Mosque,"5F77+Q7G Onambilly Mosque, Ezhattumugham, Kerala 683544",,5F77+Q7G,Ezhattumugham,683544,Kerala,IN,https://www.google.com/maps/place/Onambilly+Mosque/data=!4m7!3m6!1s0x3b07fd50dc70cae1:0xc2a4087ffbaa09dd!8m2!3d10.1644358!4d76.4632073!16s%2Fg%2F11cmffwp45!19sChIJ4cpw3FD9BzsR3Qmq-38IpMI?authuser=0&hl=en&rclk=1,"10.1644358,76.4632073"
Thaikkavu - Darussalam Masjid,Mosque,"4CVF+R92 Thaikkavu - Darussalam Masjid, Kanjoor, Kerala 683575",,4CVF+R92,Kanjoor,683575,Kerala,IN,https://www.google.com/maps/place/Thaikkavu+-+Darussalam+Masjid/data=!4m7!3m6!1s0x3b08087040aa6ed9:0xc97c301549dec7e9!8m2!3d10.1445218!4d76.4233919!16s%2Fg%2F11g888rxgz!19sChIJ2W6qQHAICDsR6cfeSRUwfMk?authuser=0&hl=en&rclk=1,"10.1445218,76.4233919"
Munavvirul Islam Masjid munvvirru islaaN msjid,Spiritist center,"4F45+WP5 Munavvirul Islam Masjid munvvirru islaaN msjid, Marampally, Kerala 683547",,4F45+WP5,Marampally,683547,Kerala,IN,https://www.google.com/maps/place/Munavvirul+Islam+Masjid+%E0%B4%AE%E0%B5%81%E0%B4%A8%E0%B4%B5%E0%B5%8D%E0%B4%B5%E0%B4%BF%E0%B4%B1%E0%B5%81%E0%B5%BD+%E0%B4%87%E0%B4%B8%E0%B5%8D%E0%B4%B2%E0%B4%BE%E0%B4%82+%E0%B4%AE%E0%B4%B8%E0%B5%8D%E0%B4%9C%E0%B4%BF%E0%B4%A6%E0%B5%8D/data=!4m7!3m6!1s0x3b07e3f7c7143705:0x4db82d1ae22d3a01!8m2!3d10.1072684!4d76.4593542!16s%2Fg%2F11f7c8stcd!19sChIJBTcUx_fjBzsRATot4hotuE0?authuser=0&hl=en&rclk=1,"10.107268399999999,76.45935419999999"
Central Muhiyudheen Juma masjid marottichod,Mosque,"3CHQ+8PF Central Muhiyudheen Juma masjid marottichod, Marottychod, Kerala 683547",Marottychod,3CHQ+8PF,,683547,Kerala,IN,https://www.google.com/maps/place/Central+Muhiyudheen+Juma+masjid+marottichod/data=!4m7!3m6!1s0x3b08092eb5c33955:0x8f0a21adb44ede26!8m2!3d10.078302!4d76.4392934!16s%2Fg%2F11hz15yc_x!19sChIJVTnDtS4JCDsRJt5OtK0hCo8?authuser=0&hl=en&rclk=1,"10.078301999999999,76.4392934"
Badharul Huda Masjid,Mosque,"4F5F+G78 Badharul Huda Masjid, Perumbavoor, Kerala 683542",,4F5F+G78,Perumbavoor,,Kerala,IN,https://www.google.com/maps/place/Badharul+Huda+Masjid/data=!4m7!3m6!1s0x3b07e3bdb079a451:0xacfb3869aed22b57!8m2!3d10.1087969!4d76.4732129!16s%2Fg%2F11h1sqz91h!19sChIJUaR5sL3jBzsRVyvSrmk4-6w?authuser=0&hl=en&rclk=1,"10.1087969,76.4732129"
"Irshadul Anaam Masjid, ishaadu anaaN msjid",Mosque,"4FX8+XMF Irshadul Anaam Masjid, ishaadu anaaN msjid, Chelamattom part, Kerala 683550",,4FX8+XMF,Chelamattom part,,Kerala,IN,"https://www.google.com/maps/place/Irshadul+Anaam+Masjid,+%E0%B4%87%E0%B5%BC%E0%B4%B6%E0%B4%BE%E0%B4%A6%E0%B5%81%E0%B5%BD+%E0%B4%85%E0%B4%A8%E0%B4%BE%E0%B4%82+%E0%B4%AE%E0%B4%B8%E0%B5%8D%E0%B4%9C%E0%B4%BF%E0%B4%A6%E0%B5%8D/data=!4m7!3m6!1s0x3b07e3410be1eb27:0xf62a2d1b6932e717!8m2!3d10.1499413!4d76.4666576!16s%2Fg%2F11f9y7x22y!19sChIJJ-vhC0HjBzsRF-cyaRstKvY?authuser=0&hl=en&rclk=1","10.1499413,76.46665759999999"
Nagoor Masjid,Mosque,"Nagoor Masjid, Ponjassery Bus Stop, Chitrapuzha Rd Junction, SH 16, AM Rd, Ponjassery, Perumbavoor, Kerala 683547",Near Ponjaseery Junction,"Ponjassery Bus Stop, Chitrapuzha Rd Junction, SH 16, AM Rd, Ponjassery","Perumbavoor, Ponjassery",683547,Kerala,IN,https://www.google.com/maps/place/Nagoor+Masjid/data=!4m7!3m6!1s0x3b080992a176e405:0x18c3224b45600ded!8m2!3d10.0915528!4d76.4423373!16s%2Fg%2F11pttn36lh!19sChIJBeR2oZIJCDsR7Q1gRUsiwxg?authuser=0&hl=en&rclk=1,"10.091552799999999,76.44233729999999"
NOOR JUMA MASJID,Mosque,"3CFH+MF9 NOOR JUMA MASJID, South Ezhippuram, Kerala 683547",South Ezhippuram,3CFH+MF9,,683547,Kerala,IN,https://www.google.com/maps/place/NOOR+JUMA+MASJID/data=!4m7!3m6!1s0x3b0809bf63d2a009:0xeb0ac45918e1ce57!8m2!3d10.0740557!4d76.4287542!16s%2Fg%2F11v03y42mv!19sChIJCaDSY78JCDsRV87hGFnECus?authuser=0&hl=en&rclk=1,"10.074055699999999,76.4287542"
Badriya Masjid,Mosque,"4CFP+X7W Badriya Masjid, Puthiyedam-Manjappetty Kovilakam Rd, Parappuram, Thekkumbhagom, Kerala 683575",Parappuram,"4CFP+X7W, Puthiyedam-Manjappetty Kovilakam Rd",Thekkumbhagom,683575,Kerala,IN,https://www.google.com/maps/place/Badriya+Masjid/data=!4m7!3m6!1s0x3b080838fb88eedb:0x368f91b5998c49d8!8m2!3d10.1249778!4d76.4356911!16s%2Fg%2F1hhj8l_2l!19sChIJ2-6I-zgICDsR2EmMmbWRjzY?authuser=0&hl=en&rclk=1,"10.1249778,76.4356911"
Muhiyudheen Juma Masjid Malayidam Thuruth,Mosque,"Muhiyudheen Juma Masjid Malayidam Thuruth, Pukkattupady - Perumbavoor Rd, SH 16, AM Rd, Malayidam Thuruth, Kerala 683105",,"Pukkattupady - Perumbavoor Rd, SH 16, AM Rd",Malayidam Thuruth,683105,Kerala,IN,https://www.google.com/maps/place/Muhiyudheen+Juma+Masjid+Malayidam+Thuruth/data=!4m7!3m6!1s0x3b0809aa6a08cf57:0x73ceddd439907a1b!8m2!3d10.0751821!4d76.4146129!16s%2Fg%2F11p14wfs47!19sChIJV88IaqoJCDsRG3qQOdTdznM?authuser=0&hl=en&rclk=1,"10.0751821,76.4146129"
Hidhayath Nagar Masjid,Mosque,"3CMM+9WV Hidhayath Nagar Masjid, Ponjassery, Kerala 683547",,3CMM+9WV,Ponjassery,683547,Kerala,IN,https://www.google.com/maps/place/Hidhayath+Nagar+Masjid/data=!4m7!3m6!1s0x3b0809eb61d2b0ed:0xf0b127df471bcf5d!8m2!3d10.0834972!4d76.4347993!16s%2Fg%2F11g9r13yvl!19sChIJ7bDSYesJCDsRXc8bR98nsfA?authuser=0&hl=en&rclk=1,"10.0834972,76.4347993"
Masjidussalam,Mosque,"4FG8+WCP Masjidussalam, Vallom, Perumbavoor, Kerala 683543",Vallom,4FG8+WCP,Perumbavoor,683543,Kerala,IN,https://www.google.com/maps/place/Masjidussalam/data=!4m7!3m6!1s0x3b07e3a58dfb6b07:0x608c9527ef372704!8m2!3d10.1273336!4d76.4660694!16s%2Fg%2F11fl5npk1k!19sChIJB2v7jaXjBzsRBCc37yeVjGA?authuser=0&hl=en&rclk=1,"10.1273336,76.4660694"
Muhiyuddheen mosque,Mosque,"5F97+X38 Muhiyuddheen mosque, Kalady Cheranalloor, Rd, Edavoor, Kerala 683544",Rd,"5F97+X38, Kalady Cheranalloor",Edavoor,683544,Kerala,IN,https://www.google.com/maps/place/Muhiyuddheen+mosque/data=!4m7!3m6!1s0x3b07fdf3b63d8483:0x24e3196226adccd9!8m2!3d10.1699024!4d76.4627135!16s%2Fg%2F11h4tzn1x6!19sChIJg4Q9tvP9BzsR2cytJmIZ4yQ?authuser=0&hl=en&rclk=1,"10.1699024,76.46271349999999"
Masjidul amaan,Mosque,"5F72+8X7 Masjidul amaan, Onampilly, Chelamattom part, Kerala 683544",,5F72+8X7,"Onampilly, Chelamattom part",683544,Kerala,IN,https://www.google.com/maps/place/Masjidul+amaan/data=!4m7!3m6!1s0x3b0807f9096c7dcd:0x136433d6a5001017!8m2!3d10.163285!4d76.4524104!16s%2Fg%2F11b807hjg_!19sChIJzX1sCfkHCDsRFxAApdYzZBM?authuser=0&hl=en&rclk=1,"10.163285,76.45241039999999"
Kuthiraparambu Juma Masjid,Mosque,"4C6M+PWR Kuthiraparambu Juma Masjid, Kuthiraparambu Manjapetti Rd, Marampally, Kerala 683547",,"4C6M+PWR, Kuthiraparambu Manjapetti Rd",Marampally,683547,Kerala,IN,https://www.google.com/maps/place/Kuthiraparambu+Juma+Masjid/data=!4m7!3m6!1s0x3b0808353f300001:0x43a37515b6b7d351!8m2!3d10.1118688!4d76.4347516!16s%2Fg%2F11sscschvz!19sChIJAQAwPzUICDsRUdO3thV1o0M?authuser=0&hl=en&rclk=1,"10.1118688,76.4347516"
Gouziya masjid,Mosque,"4F75+5MC Gouziya masjid, Marampally, Kerala 683547",,4F75+5MC,Marampally,,Kerala,IN,https://www.google.com/maps/place/Gouziya+masjid/data=!4m7!3m6!1s0x3b07e305d6c2ee25:0x54af1c7dc9433efa!8m2!3d10.1129415!4d76.4591414!16s%2Fg%2F11txznvh0g!19sChIJJe7C1gXjBzsR-j5DyX0cr1Q?authuser=0&hl=en&rclk=1,"10.1129415,76.4591414"
Juma Masjid Chengal,Mosque,"5C6J+9PH Juma Masjid Chengal, Kalady - Aluva Rd, Chengal, Kalady, Vadakkumbhagom, Kerala 683574",Chengal,"5C6J+9PH, Kalady - Aluva Rd","Kalady, Vadakkumbhagom",683574,Kerala,IN,https://www.google.com/maps/place/Juma+Masjid+Chengal/data=!4m7!3m6!1s0x3b08073ff15395d9:0x39b072f3efd93b7e!8m2!3d10.1609475!4d76.4318462!16s%2Fg%2F11fj5dvhz_!19sChIJ2ZVT8T8HCDsRfjvZ7_NysDk?authuser=0&hl=en&rclk=1,"10.160947499999999,76.4318462"
Mosco Juma Masjid,Mosque,"4C54+JRJ Mosco Juma Masjid, Marampally, Kerala 683105",,4C54+JRJ,Marampally,,Kerala,IN,https://www.google.com/maps/place/Mosco+Juma+Masjid/data=!4m7!3m6!1s0x3b08094666f41e5b:0xd0aa874a6f0eaa65!8m2!3d10.1090774!4d76.4070294!16s%2Fg%2F11gxglc362!19sChIJWx70ZkYJCDsRZaoOb0qHqtA?authuser=0&hl=en&rclk=1,"10.1090774,76.4070294"
Juma Masjid,Mosque,"5F85+PVW Juma Masjid, Kalady Cheranaloor Rd, Onampilly, Kerala 683544",,"5F85+PVW, Kalady Cheranaloor Rd",Onampilly,683544,Kerala,IN,https://www.google.com/maps/place/Juma+Masjid/data=!4m7!3m6!1s0x3b07fd59d6c55555:0x3e807e00288a31d3!8m2!3d10.1668597!4d76.4596978!16s%2Fg%2F11kj3f96p7!19sChIJVVXF1ln9BzsR0zGKKAB-gD4?authuser=0&hl=en&rclk=1,"10.1668597,76.4596978"
Tsentralna dzhamiia na Onampili,Mosque,"5F85+PVW Tsentralna dzhamiia na Onampili, Juma Masjid, Kalady Cheranaloor Rd, Onampilly, Kerala 683544",,"5F85+PVW Juma Masjid, Kalady Cheranaloor Rd",Onampilly,683544,Kerala,IN,https://www.google.com/maps/place/%D0%A6%D0%B5%D0%BD%D1%82%D1%80%D0%B0%D0%BB%D0%BD%D0%B0+%D0%B4%D0%B6%D0%B0%D0%BC%D0%B8%D1%8F+%D0%BD%D0%B0+%D0%9E%D0%BD%D0%B0%D0%BC%D0%BF%D0%B8%D0%BB%D0%B8/data=!4m7!3m6!1s0x3b07fdd69756aba3:0xab63873af7e9c016!8m2!3d10.1668604!4d76.4596866!16s%2Fg%2F11fd3qprml!19sChIJo6tWl9b9BzsRFsDp9zqHY6s?authuser=0&hl=en&rclk=1,"10.1668604,76.4596866"
Central Juma Masjid,Mosque,"4CHH+RMG Central Juma Masjid, Thekkumbhagom, Kerala 683575",,4CHH+RMG,Thekkumbhagom,,Kerala,IN,https://www.google.com/maps/place/Central+Juma+Masjid/data=!4m7!3m6!1s0x3b0809805c4bc217:0xe9b9064d709bf16c!8m2!3d10.129559!4d76.4292022!16s%2Fg%2F11gs4rct7t!19sChIJF8JLXIAJCDsRbPGbcE0Guek?authuser=0&hl=en&rclk=1,"10.129559,76.42920219999999"
Masjid Twaiba Thandekkad,Mosque,"3FV3+65W Masjid Twaiba Thandekkad, Ernakulam, Kerala 683547",,3FV3+65W,Ernakulam,,Kerala,IN,https://www.google.com/maps/place/Masjid+Twaiba+Thandekkad/data=!4m7!3m6!1s0x3b0809f2b43dab43:0x5ed29a673b44f208!8m2!3d10.0931191!4d76.4529428!16s%2Fg%2F11h8d6nlpw!19sChIJQ6s9tPIJCDsRCPJEO2ea0l4?authuser=0&hl=en&rclk=1,"10.0931191,76.4529428"
"Ksrtc Masjid, Perumbavoor",Mosque,"4F6M+428 Ksrtc Masjid, Perumbavoor, Perumbavoor, Kerala 683542",,4F6M+428,Perumbavoor,,Kerala,IN,"https://www.google.com/maps/place/Ksrtc+Masjid,+Perumbavoor/data=!4m7!3m6!1s0x3b07e38597ac286b:0x279ba99396041db3!8m2!3d10.1102857!4d76.4825773!16s%2Fg%2F11fflxmd61!19sChIJayisl4XjBzsRsx0ElpOpmyc?authuser=0&hl=en&rclk=1","10.1102857,76.4825773"
Taqwa masjid for ladies travelers,Mosque,"4F77+RJQ Taqwa masjid for ladies travelers, Aluva - Munnar Rd, Perumbavoor, Marampally, Kerala 683547",,"4F77+RJQ, Aluva - Munnar Rd","Perumbavoor, Marampally",683547,Kerala,IN,https://www.google.com/maps/place/Taqwa+masjid+for+ladies+travelers/data=!4m7!3m6!1s0x3b07e38b966fd1df:0x3e12cffdcd22f4d8!8m2!3d10.1145985!4d76.464122!16s%2Fg%2F11ngq82zbj!19sChIJ39FvlovjBzsR2PQizf3PEj4?authuser=0&hl=en&rclk=1,"10.1145985,76.464122"
Masjidunnoor,Mosque,"4FG6+6GV Masjidunnoor, Simla Rd, Vallom, Perumbavoor, Kerala 683543",Vallom,"4FG6+6GV, Simla Rd",Perumbavoor,683543,Kerala,IN,https://www.google.com/maps/place/Masjidunnoor/data=!4m7!3m6!1s0x3b07e30dd558e11b:0xef5148f336593af7!8m2!3d10.1256116!4d76.4613006!16s%2Fg%2F11kh_fl_jv!19sChIJG-FY1Q3jBzsR9zpZNvNIUe8?authuser=0&hl=en&rclk=1,"10.1256116,76.4613006"
Edayakunnam Juma Masjid,Mosque,"5FGG+P29 Edayakunnam Juma Masjid, Cheranalloor, Kerala 683544",,5FGG+P29,Cheranalloor,683544,Kerala,IN,https://www.google.com/maps/place/Edayakunnam+Juma+Masjid/data=!4m7!3m6!1s0x3b07fdf369f2dbd7:0xb372942a891de391!8m2!3d10.176785!4d76.475106!16s%2Fg%2F11v5ytbdrq!19sChIJ19vyafP9BzsRkeMdiSqUcrM?authuser=0&hl=en&rclk=1,"10.176784999999999,76.475106"
Thaikkav,Mosque,"4F7J+G4G Thaikkav, Perumbavoor, Kerala 683542",,4F7J+G4G,Perumbavoor,,Kerala,IN,https://www.google.com/maps/place/Thaikkav/data=!4m7!3m6!1s0x3b07e2f5465c40e9:0x78e747825df53e81!8m2!3d10.1138238!4d76.4803184!16s%2Fg%2F11hd1tbvy5!19sChIJ6UBcRvXiBzsRgT71XYJH53g?authuser=0&hl=en&rclk=1,"10.113823799999999,76.4803184"
Thableeg Markaz,Mosque,"4F77+WQ9 Thableeg Markaz, Perumbavoor, Marampally, Kerala 683547",,4F77+WQ9,"Perumbavoor, Marampally",,Kerala,IN,https://www.google.com/maps/place/Thableeg+Markaz/data=!4m7!3m6!1s0x3b07e3dc83f9350b:0xa9bfe9daccf43da0!8m2!3d10.1147936!4d76.4644696!16s%2Fg%2F11tfvtl0vf!19sChIJCzX5g9zjBzsRoD30zNrpv6k?authuser=0&hl=en&rclk=1,"10.114793599999999,76.4644696"
Muhiyudheen Juma Masjid Marottichod,Mosque,"3FH9+P5R Muhiyudheen Juma Masjid Marottichod, Marottichuvadu, west, Vengola, po, PERUMBAVOOR , pin, 683556",,"3FH9+P5R, Marottichuvadu, west, Vengola, po, PERUMBAVOOR , pin",Vengola,683556,Kerala,IN,https://www.google.com/maps/place/Muhiyudheen+Juma+Masjid+Marottichod/data=!4m7!3m6!1s0x3b07e3c52d19cfbb:0xed382119ed994d6e!8m2!3d10.0793635!4d76.4678766!16s%2Fg%2F11g3_9yhnj!19sChIJu88ZLcXjBzsRbk2Z7RkhOO0?authuser=0&hl=en&rclk=1,"10.0793635,76.4678766"
Masjid,Mosque,"5F22+VF4 Masjid, SH 1, Okkal, Chelamattom part, Kerala 683550",Okkal,"5F22+VF4, SH 1",Chelamattom part,683550,Kerala,IN,https://www.google.com/maps/place/Masjid/data=!4m7!3m6!1s0x3b07e31b166b77d7:0x7779b54f2b94a71f!8m2!3d10.1521335!4d76.4512187!16s%2Fg%2F11pz4zbqj2!19sChIJ13drFhvjBzsRH6eUK0-1eXc?authuser=0&hl=en&rclk=1,"10.1521335,76.4512187"
Muslim Jama Ath Chemparacky,Mosque,"3CPG+2C7 Muslim Jama Ath Chemparacky, Pukkattupady - Perumbavoor Rd, Vazhakkulam, Kerala 683105",Vazhakkulam,"3CPG+2C7, Pukkattupady - Perumbavoor Rd",,683105,Kerala,IN,https://www.google.com/maps/place/Muslim+Jama+Ath+Chemparacky/data=!4m7!3m6!1s0x3b080996f8474921:0x3949f21277f4edcd!8m2!3d10.0850376!4d76.426052!16s%2Fg%2F11f3gddwk2!19sChIJIUlH-JYJCDsRze30dxLySTk?authuser=0&hl=en&rclk=1,"10.0850376,76.426052"
KANJIRAKKAD MADRASSA AUDITORIUM,Mosque,"KANJIRAKKAD MADRASSA AUDITORIUM, P.O, BEHIND KANJIRAKKAD JUMA MASJID AYATHUPADY, KOOVAPPADY, Perumbavoor, Kerala",Kanjirakkad,"P.O, BEHIND KANJIRAKKAD JUMA MASJID AYATHUPADY, KOOVAPPADY",Perumbavoor,,Kerala,IN,https://www.google.com/maps/place/KANJIRAKKAD+MADRASSA+AUDITORIUM/data=!4m7!3m6!1s0x3b07e33a9a14dacd:0x4aa4731a30318fc3!8m2!3d10.1314237!4d76.4711751!16s%2Fg%2F11v6116d6q!19sChIJzdoUmjrjBzsRw48xMBpzpEo?authuser=0&hl=en&rclk=1,"10.1314237,76.4711751"
