name,main_category,address,address_ward,address_street,address_city,address_postal_code,address_state,address_country_code,link,coordinates
Jama Masjid Kalyanpur,Mosque,"9FG4+JRM Jama Masjid Kalyanpur, Nagina Dhampur Rd, Kalyanpur, Kayamuddinpur Chandu, Uttar Pradesh 246761",,"9FG4+JRM, Nagina Dhampur Rd","Kalyanpur, Kayamuddinpur Chandu",246761,Uttar Pradesh,IN,https://www.google.com/maps/place/Jama+Masjid+Kalyanpur/data=!4m7!3m6!1s0x390bc60a395b3017:0x8f554a0697594ab3!8m2!3d29.3765933!4d78.4570434!16s%2Fg%2F11bxdy0525!19sChIJFzBbOQrGCzkRs0pZlwZKVY8?authuser=0&hl=en&rclk=1,"29.3765933,78.4570434"
Ek Minara Masjid,Mosque,"8G35+9H3 Ek Minara Masjid, Udaipur, Dhampur, Uttar Pradesh 246761",Udaipur,8G35+9H3,Dhampur,246761,Uttar Pradesh,IN,https://www.google.com/maps/place/Ek+Minara+Masjid/data=!4m7!3m6!1s0x390bc830755613e1:0xc0352cebc731dc53!8m2!3d29.3033939!4d78.5089264!16s%2Fg%2F11ckr598q9!19sChIJ4RNWdTDICzkRU9wxx-ssNcA?authuser=0&hl=en&rclk=1,"29.3033939,78.5089264"
Jama Masjid,Mosque,"8G44+8VG Jama Masjid, Bombay Building Road, Udaipur, Dhampur, Uttar Pradesh 246761",Udaipur,"8G44+8VG, Bombay Building Road",Dhampur,246761,Uttar Pradesh,IN,https://www.google.com/maps/place/Jama+Masjid/data=!4m7!3m6!1s0x390bc83a59fa5dad:0x8cd039fac1b9b0a9!8m2!3d29.3058093!4d78.5071957!16s%2Fg%2F1tgj766g!19sChIJrV36WTrICzkRqbC5wfo50Iw?authuser=0&hl=en&rclk=1,"29.3058093,78.5071957"
Masitullah Chand Masjid,Mosque,"8G75+MQQ Masitullah Chand Masjid, Nai Basti, Nai Sarai, Dhampur, Uttar Pradesh 246761","Nai Basti, Nai Sarai",8G75+MQQ,Dhampur,,Uttar Pradesh,IN,https://www.google.com/maps/place/Masitullah+Chand+Masjid/data=!4m7!3m6!1s0x390bc837ffd36657:0xd9dab0e22a2fd91!8m2!3d29.3142199!4d78.5094977!16s%2Fg%2F11f3rv180j!19sChIJV2bT_zfICzkRkf2iIg6rnQ0?authuser=0&hl=en&rclk=1,"29.314219899999998,78.5094977"
Jama Masjid,Mosque,"Jama Masjid, 20, Noorpur - Dhampur Rd, Mohammad Alipur Bhikan, Uttar Pradesh 246761",,"20, Noorpur - Dhampur Rd",Mohammad Alipur Bhikan,246761,Uttar Pradesh,IN,https://www.google.com/maps/place/Jama+Masjid/data=!4m7!3m6!1s0x390bb7ecdc03ff9f:0x82297a4c1bd91cd!8m2!3d29.2678278!4d78.4897785!16s%2Fg%2F11g8yfzb00!19sChIJn_8D3Oy3CzkRzZG9waSXIgg?authuser=0&hl=en&rclk=1,"29.2678278,78.4897785"
Unchi Masjid,Mosque,"8G44+6F3 Unchi Masjid, Dr Zakir Hussain Rd, Udaipur, Dhampur, Uttar Pradesh 246761",Udaipur,"8G44+6F3, Dr Zakir Hussain Rd",Dhampur,246761,Uttar Pradesh,IN,https://www.google.com/maps/place/Unchi+Masjid/data=!4m7!3m6!1s0x390bc83baa39a153:0xae7ba80d28dc0a07!8m2!3d29.3055178!4d78.5061657!16s%2Fg%2F11c6pv2slg!19sChIJU6E5qjvICzkRBwrcKA2oe64?authuser=0&hl=en&rclk=1,"29.305517799999997,78.5061657"
Kulsoom masjid,Mosque,"8G65+XGM Kulsoom masjid, Unnamed Road, Dhampur, Uttar Pradesh 246761",,"8G65+XGM, Unnamed Road",Dhampur,246761,Uttar Pradesh,IN,https://www.google.com/maps/place/Kulsoom+masjid/data=!4m7!3m6!1s0x390bc90a4e85c1c1:0xb261bd5db685ab95!8m2!3d29.3124591!4d78.5087964!16s%2Fg%2F11fl5md2tl!19sChIJwcGFTgrJCzkRlauFtl29YbI?authuser=0&hl=en&rclk=1,"29.312459099999998,78.5087964"
sunehri masjid,Mosque,"sunehri masjid, 20, Noorpur - Dhampur Rd, Mohammad Alipur Bhikan, Wazidpur, Uttar Pradesh 246761",,"20, Noorpur - Dhampur Rd","Mohammad Alipur Bhikan, Wazidpur",246761,Uttar Pradesh,IN,https://www.google.com/maps/place/sunehri+masjid/data=!4m7!3m6!1s0x390bb7edaa69cf2f:0xac52efae5e389d94!8m2!3d29.269692!4d78.4891997!16s%2Fg%2F11c6zdwxq_!19sChIJL89pqu23CzkRlJ04Xq7vUqw?authuser=0&hl=en&rclk=1,"29.269692,78.4891997"
Masjid Pahari Darwaja,Mosque,"8G56+CMM Masjid Pahari Darwaja, Udaipur, Dhampur, Uttar Pradesh 246761",Udaipur,8G56+CMM,Dhampur,246761,Uttar Pradesh,IN,https://www.google.com/maps/place/Masjid+Pahari+Darwaja/data=!4m7!3m6!1s0x390bc9b8cba3da8d:0x4fa52539c949a252!8m2!3d29.3085844!4d78.5116633!16s%2Fg%2F11lh50bnkh!19sChIJjdqjy7jJCzkRUqJJyTklpU8?authuser=0&hl=en&rclk=1,"29.308584399999997,78.5116633"
Nai sarai nai basti makka masjid,Place of worship,"8G64+QXQ Nai sarai nai basti makka masjid, Dhampur, Uttar Pradesh 246761",,8G64+QXQ,Dhampur,246761,Uttar Pradesh,IN,https://www.google.com/maps/place/Nai+sarai+nai+basti+makka+masjid/data=!4m7!3m6!1s0x390bc9bed3b9b68d:0x459caf9dcf7d0296!8m2!3d29.3119667!4d78.5074922!16s%2Fg%2F11jz_sxvl_!19sChIJjba5077JCzkRlgJ9z52vnEU?authuser=0&hl=en&rclk=1,"29.3119667,78.5074922"
masjid marqaz pilkhan wali,School,"8G35+P7X masjid marqaz pilkhan wali, Udaipur, Dhampur, Uttar Pradesh 246761",Udaipur,8G35+P7X,Dhampur,246761,Uttar Pradesh,IN,https://www.google.com/maps/place/masjid+marqaz+pilkhan+wali/data=!4m7!3m6!1s0x390bc9c9e9ade08b:0x3a69aa769695c086!8m2!3d29.3043638!4d78.5082465!16s%2Fg%2F11gm9xmwjv!19sChIJi-Ct6cnJCzkRhsCVlnaqaTo?authuser=0&hl=en&rclk=1,"29.304363799999997,78.5082465"
kureshiyan masjid,Mosque,"8G35+4FF kureshiyan masjid, Udaipur, Dhampur, Uttar Pradesh 246761",Udaipur,8G35+4FF,Dhampur,246761,Uttar Pradesh,IN,https://www.google.com/maps/place/kureshiyan+masjid/data=!4m7!3m6!1s0x390bc83ab6499eeb:0xc3b7e6961274c919!8m2!3d29.3028221!4d78.5086602!16s%2Fg%2F11c6s2spxs!19sChIJ655JtjrICzkRGcl0Epbmt8M?authuser=0&hl=en&rclk=1,"29.3028221,78.5086602"
Ali masjid,Mosque,"8G39+FXH Ali masjid, Dittanpur, Dhampur, Uttar Pradesh 246761",,8G39+FXH,"Dittanpur, Dhampur",246761,Uttar Pradesh,IN,https://www.google.com/maps/place/Ali+masjid/data=!4m7!3m6!1s0x390bc93df6dab64f:0xfa363e73f7d1e71d!8m2!3d29.3036828!4d78.5199942!16s%2Fg%2F11tjl25fps!19sChIJT7ba9j3JCzkRHefR93M-Nvo?authuser=0&hl=en&rclk=1,"29.303682799999997,78.5199942"
Suneri Masjid,Mosque,"8G76+7R9 Suneri Masjid, Unnamed Road, Purana Dhampur, Dhampur, Uttar Pradesh 246761",Purana Dhampur,"8G76+7R9, Unnamed Road",Dhampur,246761,Uttar Pradesh,IN,https://www.google.com/maps/place/Suneri+Masjid/data=!4m7!3m6!1s0x390bc9a23bccaed1:0x6115cb148d661e78!8m2!3d29.3131731!4d78.5120977!16s%2Fg%2F11jqhx3lff!19sChIJ0a7MO6LJCzkReB5mjRTLFWE?authuser=0&hl=en&rclk=1,"29.3131731,78.5120977"
Diggi Wali Masjid,Mosque,"8G55+RW7 Diggi Wali Masjid, Unnamed Road, Udaipur, Dhampur, Uttar Pradesh 246761",Udaipur,"8G55+RW7, Unnamed Road",Dhampur,246761,Uttar Pradesh,IN,https://www.google.com/maps/place/Diggi+Wali+Masjid/data=!4m7!3m6!1s0x390bc971994d92f1:0x5519f286622faed6!8m2!3d29.3095463!4d78.5098035!16s%2Fg%2F11qpx8mw_x!19sChIJ8ZJNmXHJCzkR1q4vYobyGVU?authuser=0&hl=en&rclk=1,"29.309546299999997,78.50980349999999"
BADA VAALI MASJUD,Mosque,"8G35+GH8 BADA VAALI MASJUD, Mohalla Bandookchiyan, Udaipur, Dhampur, Uttar Pradesh 246761",Udaipur,"8G35+GH8, Mohalla Bandookchiyan",Dhampur,,Uttar Pradesh,IN,https://www.google.com/maps/place/BADA+VAALI+MASJUD/data=!4m7!3m6!1s0x390bc97bd9ef25e3:0x6ea0e89f78affab7!8m2!3d29.303786!4d78.5089481!16s%2Fg%2F11rv13szzg!19sChIJ4yXv2XvJCzkRt_qveJ_ooG4?authuser=0&hl=en&rclk=1,"29.303786,78.5089481"
Sufiyan masjid dhampur,Mosque,"8G25+XF9 Sufiyan masjid dhampur, Udaipur, Dhampur, Uttar Pradesh 246761",Udaipur,8G25+XF9,Dhampur,246761,Uttar Pradesh,IN,https://www.google.com/maps/place/Sufiyan+masjid+dhampur/data=!4m7!3m6!1s0x390bc93f3b82ff2b:0xe1de518d1163c3d3!8m2!3d29.3024127!4d78.5087231!16s%2Fg%2F11l5p38c9q!19sChIJK_-COz_JCzkR08NjEY1R3uE?authuser=0&hl=en&rclk=1,"29.302412699999998,78.5087231"
Macci masjid mkkii msjid mkhy msjd dhm pwr,Mosque,"8G75+F5Q Macci masjid mkkii msjid mkhy msjd dhm pwr, nai sarai, Dhampur, Uttar Pradesh 246761",nai sarai,8G75+F5Q,Dhampur,,Uttar Pradesh,IN,https://www.google.com/maps/place/Macci+masjid+%E0%A4%AE%E0%A4%95%E0%A5%8D%E0%A4%95%E0%A5%80+%E0%A4%AE%E0%A4%B8%E0%A5%8D%E0%A4%9C%E0%A4%BF%E0%A4%A6+%D9%85%DA%A9%DB%8C+%D9%85%D8%B3%D8%AC%D8%AF+%D8%AF%DA%BE%D8%A7%D9%85+%D9%BE%D9%88%D8%B1%E2%80%AD/data=!4m7!3m6!1s0x390bc9543a9a34ed:0x4f0822d84afcbe6c!8m2!3d29.3137215!4d78.5079895!16s%2Fg%2F11h4cg4dzn!19sChIJ7TSaOlTJCzkRbL78StgiCE8?authuser=0&hl=en&rclk=1,"29.3137215,78.5079895"
Bilaal Masjid,Mosque,"8G53+68V Bilaal Masjid, Ahmad ali road mohalla bandook chiyan, Dhampur, Uttar Pradesh 246761",,"8G53+68V, Ahmad ali road mohalla bandook chiyan",Dhampur,246761,Uttar Pradesh,IN,https://www.google.com/maps/place/Bilaal+Masjid/data=!4m7!3m6!1s0x390bc9f19dc6a4c9:0x4788d2926c9a0e75!8m2!3d29.3081196!4d78.50329!16s%2Fg%2F11qh2n82zm!19sChIJyaTGnfHJCzkRdQ6abJLSiEc?authuser=0&hl=en&rclk=1,"29.308119599999998,78.50328999999999"
mdrsaa taaliimul kuraan,Mosque,"mdrsaa taaliimul kuraan, Purana Dhampur, Dhampur, Rosanpur Raju, Uttar Pradesh 246761",Purana Dhampur,,"Dhampur, Rosanpur Raju",246761,Uttar Pradesh,IN,https://www.google.com/maps/place/%E0%A4%AE%E0%A4%A6%E0%A4%B0%E0%A4%B8%E0%A4%BE+%E0%A4%A4%E0%A4%BE%E0%A4%B2%E0%A5%80%E0%A4%AE%E0%A5%81%E0%A4%B2+%E0%A4%95%E0%A5%81%E0%A4%B0%E0%A4%BE%E0%A4%A8/data=!4m7!3m6!1s0x390bc97f4bd9c031:0xbfe3e6307daf2415!8m2!3d29.3169592!4d78.5102437!16s%2Fg%2F11fsf7lhxj!19sChIJMcDZS3_JCzkRFSSvfTDm478?authuser=0&hl=en&rclk=1,"29.3169592,78.51024369999999"
