name,main_category,address,address_ward,address_street,address_city,address_postal_code,address_state,address_country_code,link,coordinates
Bhinga Sabji Mandi,Market,"Bhinga Sabji Mandi, NEAR Jama masjid, New Sabzi Mandi, Bhinga, Uttar Pradesh 271831",New Sabzi Mandi,NEAR Jama masjid,Bhinga,271831,Uttar Pradesh,IN,https://www.google.com/maps/place/Bhinga+Sabji+Mandi/data=!4m7!3m6!1s0x399834b9f55ee523:0xa5808417b419f0bb!8m2!3d27.7029255!4d81.9371656!16s%2Fg%2F11g8bv1fvf!19sChIJI-Ve9bk0mDkRu_AZtBeEgKU?authuser=0&hl=en&rclk=1,"27.7029255,81.9371656"
Raza Jama Masjid Raza Nagar,Mosque,"PW3J+JP8 Raza Jama Masjid Raza Nagar, Bhinga, Uttar Pradesh 271831",,PW3J+JP8,Bhinga,271831,Uttar Pradesh,IN,https://www.google.com/maps/place/Raza+Jama+Masjid+Raza+Nagar/data=!4m7!3m6!1s0x399834b87ee162bd:0x51c159b3347fc29c!8m2!3d27.7040363!4d81.9318412!16s%2Fg%2F11g6rkxjqd!19sChIJvWLhfrg0mDkRnMJ_NLNZwVE?authuser=0&hl=en&rclk=1,"27.7040363,81.9318412"
Masjid Satti Chaura,Mosque,"MWWM+WRR Masjid Satti Chaura, Bhinga, Uttar Pradesh 271831",,MWWM+WRR,Bhinga,271831,Uttar Pradesh,IN,https://www.google.com/maps/place/Masjid+Satti+Chaura/data=!4m7!3m6!1s0x399834b6f452546b:0x4527fc0541a47439!8m2!3d27.6973558!4d81.9345075!16s%2Fg%2F11g8lj4wjv!19sChIJa1RS9LY0mDkROXSkQQX8J0U?authuser=0&hl=en&rclk=1,"27.6973558,81.9345075"
Masjid Laxamanpur Kothi,Mosque,"VR6G+783 Masjid Laxamanpur Kothi, Bhinga Range, Uttar Pradesh 271831",,VR6G+783,Bhinga Range,,Uttar Pradesh,IN,https://www.google.com/maps/place/Masjid+Laxamanpur+Kothi/data=!4m7!3m6!1s0x3998492c4c35d8fd:0x33f4c8b8a445ba6c!8m2!3d27.8606397!4d81.8258081!16s%2Fg%2F11j5cf99w1!19sChIJ_dg1TCxJmDkRbLpFpLjI9DM?authuser=0&hl=en&rclk=1,"27.8606397,81.8258081"
Masjid Mohalla Ansari,Mosque,"PW2P+43H Masjid Mohalla Ansari, Bhinga, Uttar Pradesh 271831",,PW2P+43H,Bhinga,271831,Uttar Pradesh,IN,https://www.google.com/maps/place/Masjid+Mohalla+Ansari/data=!4m7!3m6!1s0x399834b76daa56e1:0xb365a266a0b2d5a0!8m2!3d27.7003229!4d81.9352402!16s%2Fg%2F11dz_pzgfz!19sChIJ4Vaqbbc0mDkRoNWyoGaiZbM?authuser=0&hl=en&rclk=1,"27.7003229,81.9352402"
Noori Maszid,Mosque,"M2QQ+H4X Noori Maszid, Darjipurwa, Bhinga, Durgapur, Uttar Pradesh 271831",Darjipurwa,M2QQ+H4X,"Bhinga, Durgapur",271831,Uttar Pradesh,IN,https://www.google.com/maps/place/Noori+Maszid/data=!4m7!3m6!1s0x3999cdf8adbac599:0xc24d15afef31daae!8m2!3d27.6889754!4d82.0378706!16s%2Fg%2F11qpw6_d5_!19sChIJmcW6rfjNmTkRrtox768VTcI?authuser=0&hl=en&rclk=1,"27.6889754,82.03787059999999"
Noorani Masjid,Mosque,"PW3P+F6G Noorani Masjid, Bhinga, Uttar Pradesh 271831",,PW3P+F6G,Bhinga,271831,Uttar Pradesh,IN,https://www.google.com/maps/place/Noorani+Masjid/data=!4m7!3m6!1s0x399834b9bce14de1:0x5f2b3347230c668b!8m2!3d27.7036865!4d81.9355699!16s%2Fg%2F11bzsdzsh6!19sChIJ4U3hvLk0mDkRi2YMI0czK18?authuser=0&hl=en&rclk=1,"27.7036865,81.93556989999999"
Junubi Masjid,Mosque,"PW2J+4H9 Junubi Masjid, Bhinga, Uttar Pradesh 271831",,PW2J+4H9,Bhinga,271831,Uttar Pradesh,IN,https://www.google.com/maps/place/Junubi+Masjid/data=!4m7!3m6!1s0x399834c81dd388ab:0xb2123d7eedea5735!8m2!3d27.7002863!4d81.9314999!16s%2Fg%2F11hb57dlkw!19sChIJq4jTHcg0mDkRNVfq7X49ErI?authuser=0&hl=en&rclk=1,"27.7002863,81.93149989999999"
Sahroja masjid,Mosque,"PW2P+43Q Sahroja masjid, Bhinga, Uttar Pradesh 271831",,PW2P+43Q,Bhinga,271831,Uttar Pradesh,IN,https://www.google.com/maps/place/Sahroja+masjid/data=!4m7!3m6!1s0x399834b76d094cd7:0x9a13f7cce290c1e!8m2!3d27.7003314!4d81.9352273!16s%2Fg%2F11dftg0zkd!19sChIJ10wJbbc0mDkRHgwpznw_oQk?authuser=0&hl=en&rclk=1,"27.7003314,81.9352273"
masjid,Mosque,"PW3J+Q24 masjid, Bankatwa Tendwa, Bhinga, Uttar Pradesh 271831",,PW3J+Q24,"Bankatwa Tendwa, Bhinga",271831,Uttar Pradesh,IN,https://www.google.com/maps/place/masjid/data=!4m7!3m6!1s0x399834c70baf2f1b:0xd3a78cde7b1551ba!8m2!3d27.7043829!4d81.9300862!16s%2Fg%2F11f1263flz!19sChIJGy-vC8c0mDkRulEVe96Mp9M?authuser=0&hl=en&rclk=1,"27.7043829,81.93008619999999"
Jama masjid,School,"PW2Q+W4J Jama masjid, Ikauna-Bhinga Sampark Marg, Bhinga, Uttar Pradesh 271831",,"PW2Q+W4J, Ikauna-Bhinga Sampark Marg",Bhinga,271831,Uttar Pradesh,IN,https://www.google.com/maps/place/Jama+masjid/data=!4m7!3m6!1s0x399834ba053cabf3:0x870bf062714389f1!8m2!3d27.7023361!4d81.9377693!16s%2Fg%2F11dzvhgcpy!19sChIJ86s8Bbo0mDkR8YlDcWLwC4c?authuser=0&hl=en&rclk=1,"27.7023361,81.9377693"
Badrahwa masjid msjid bdddhrhvaa,Apartment building,"RW78+QPH Badrahwa masjid msjid bdddhrhvaa, badrahwa hempur, Bhinga, Uttar Pradesh 271840",,"RW78+QPH, badrahwa hempur","Bhinga, Shahpur Pure Shivdin",271840,Uttar Pradesh,IN,https://www.google.com/maps/place/Badrahwa+masjid+%E0%A4%AE%E0%A4%B8%E0%A4%9C%E0%A4%BF%E0%A4%A6+%E0%A4%AC%E0%A5%9C%E0%A4%B0%E0%A4%B9%E0%A4%B5%E0%A4%BE/data=!4m7!3m6!1s0x399837a58715213f:0x9fc9f589be7f5331!8m2!3d27.8144261!4d81.9168748!16s%2Fg%2F11p4zcpnlv!19sChIJPyEVh6U3mDkRMVN_von1yZ8?authuser=0&hl=en&rclk=1,"27.8144261,81.9168748"
Hari masjid,Mosque,"HJR7+79P Hari masjid, Bhinga Rd, Baikuntha, Bahraich, Uttar Pradesh 271802",Baikuntha,"HJR7+79P, Bhinga Rd",Bahraich,271802,Uttar Pradesh,IN,https://www.google.com/maps/place/Hari+masjid/data=!4m7!3m6!1s0x3999ada62728c121:0x34a934145dac6fbf!8m2!3d27.5907211!4d81.61346!16s%2Fg%2F11r7hdhnmx!19sChIJIcEoJ6atmTkRv2-sXRQ0qTQ?authuser=0&hl=en&rclk=1,"27.5907211,81.61345999999999"
Badi Maszid Bhinga,Mosque,"PW2Q+W38 Badi Maszid Bhinga, Bhinga, Uttar Pradesh 271831",,PW2Q+W38,Bhinga,271831,Uttar Pradesh,IN,https://www.google.com/maps/place/Badi+Maszid+Bhinga/data=!4m7!3m6!1s0x3998353e741facb9:0x3a0f2097bb57f8fb!8m2!3d27.7022898!4d81.9376982!16s%2Fg%2F11txqxc03k!19sChIJuawfdD41mDkR-_hXu5cgDzo?authuser=0&hl=en&rclk=1,"27.7022898,81.9376982"
Bhinga Shrawasti,Mosque,"PW3M+QW3 Bhinga Shrawasti, Bhinga, Uttar Pradesh 271831",,PW3M+QW3,Bhinga,271831,Uttar Pradesh,IN,https://www.google.com/maps/place/Bhinga+Shrawasti/data=!4m7!3m6!1s0x399835617d0b10b3:0x5d7bc5fb0f25392!8m2!3d27.7043817!4d81.9347929!16s%2Fg%2F11vl30xjjv!19sChIJsxALfWE1mDkRklPysF-81wU?authuser=0&hl=en&rclk=1,"27.7043817,81.93479289999999"
RAZAA masjid GILAULI,Mosque,"JQVM+W76 RAZAA masjid GILAULI, Bharaich Bhinga Rd, Husenpur Khuruhri, Uttar Pradesh 271804",,"JQVM+W76, Bharaich Bhinga Rd",Husenpur Khuruhri,271804,Uttar Pradesh,IN,https://www.google.com/maps/place/RAZAA+masjid+GILAULI/data=!4m7!3m6!1s0x3999b589aa2de711:0x5ec89be8b98fe19c!8m2!3d27.6447846!4d81.7831556!16s%2Fg%2F11td5r35nf!19sChIJEectqom1mTkRnOGPueibyF4?authuser=0&hl=en&rclk=1,"27.644784599999998,81.7831556"
Shastri Nagar home 18 junubi masjid,High school,"PW2J+PFH Shastri Nagar home 18 junubi masjid, Unnamed Road, Bhinga, Uttar Pradesh 271831",,"PW2J+PFH, Unnamed Road",Bhinga,271831,Uttar Pradesh,IN,https://www.google.com/maps/place/Shastri+Nagar+home+18+junubi+masjid/data=!4m7!3m6!1s0x399835e108bdf39d:0x1bfaac17b2bfbb18!8m2!3d27.7018082!4d81.9312491!16s%2Fg%2F11r2wft92g!19sChIJnfO9COE1mDkRGLu_shes-hs?authuser=0&hl=en&rclk=1,"27.7018082,81.9312491"
Noorani Masjid bhinga,Mosque,"PW9Q+J7F Noorani Masjid bhinga, SH 96A, Bhinga, Bhinga Range, Uttar Pradesh 271831",,"PW9Q+J7F, SH 96A","Bhinga, Bhinga Range",271831,Uttar Pradesh,IN,https://www.google.com/maps/place/Noorani+Masjid+bhinga/data=!4m7!3m6!1s0x3998354b75530c3d:0x147cee7b9f406bf9!8m2!3d27.7197669!4d81.9370916!16s%2Fg%2F11kjlw2p8r!19sChIJPQxTdUs1mDkR-WtAn3vufBQ?authuser=0&hl=en&rclk=1,"27.7197669,81.9370916"
Markaz jama masjid,School,"PW2Q+85G Markaz jama masjid, Bhinga, Uttar Pradesh 271831",,PW2Q+85G,Bhinga,271831,Uttar Pradesh,IN,https://www.google.com/maps/place/Markaz+jama+masjid/data=!4m7!3m6!1s0x399835c94ed31c35:0x48c17676d009dd81!8m2!3d27.7008076!4d81.9379426!16s%2Fg%2F11hzypdjl7!19sChIJNRzTTsk1mDkRgd0J0HZ2wUg?authuser=0&hl=en&rclk=1,"27.700807599999997,81.9379426"
