name,main_category,address,address_ward,address_street,address_city,address_postal_code,address_state,address_country_code,link,coordinates
"Kali Masjid,Jalna",Mosque,"RVQG+VJC Kali Masjid,Jalna, opposite Urdu high school court road, Guru Ganesh Nagar, Sanjay Nagar, Old Jalna, Jalna, Maharashtra 431213","Guru Ganesh Nagar, Sanjay Nagar, Old Jalna","RVQG+VJC, opposite Urdu high school court road",Jalna,431213,Maharashtra,IN,"https://www.google.com/maps/place/Kali+Masjid,Jalna/data=!4m7!3m6!1s0x3bda573f562ea949:0x257e8b7fd8c2eed6!8m2!3d19.83968!4d75.8765237!16s%2Fg%2F1tvq2l3y!19sChIJSakuVj9X2jsR1u7C2H-LfiU?authuser=0&hl=en&rclk=1","19.839679999999998,75.87652369999999"
Moti Masjid,Mosque,"RWX2+595 Moti Masjid, Jalna, Maharashtra 431203",,RWX2+595,Jalna,431203,Maharashtra,IN,https://www.google.com/maps/place/Moti+Masjid/data=!4m7!3m6!1s0x3bda59e2b49c8777:0xcc21ccb3045ac614!8m2!3d19.8478925!4d75.900977!16s%2Fg%2F1hm4qy4xt!19sChIJd4ectOJZ2jsRFMZaBLPMIcw?authuser=0&hl=en&rclk=1,"19.8478925,75.900977"
Bilal Masjid,Mosque,"RVXW+4XQ Bilal Masjid, Sangram nagar, Rahman Ganj, Jalna, Maharashtra 431203","Sangram nagar, Rahman Ganj",RVXW+4XQ,Jalna,431203,Maharashtra,IN,https://www.google.com/maps/place/Bilal+Masjid/data=!4m7!3m6!1s0x3bda57582a1ef3b1:0x35e82c6e497602c8!8m2!3d19.8478326!4d75.8974709!16s%2Fg%2F1pyqm4k17!19sChIJsfMeKlhX2jsRyAJ2SW4s6DU?authuser=0&hl=en&rclk=1,"19.8478326,75.8974709"
Baagwaan Masjid,Mosque,"Baagwaan Masjid, Millat Nagar, Bhawani Nagar, Jalna, Maharashtra 431213","Millat Nagar, Bhawani Nagar",,Jalna,431213,Maharashtra,IN,https://www.google.com/maps/place/Baagwaan+Masjid/data=!4m7!3m6!1s0x3bda5744304b35f9:0x57d035dfb7789e87!8m2!3d19.8431399!4d75.883276!16s%2Fg%2F1pyqmcqw5!19sChIJ-TVLMERX2jsRh554t9810Fc?authuser=0&hl=en&rclk=1,"19.8431399,75.883276"
Gol Masjid,Mosque,"RWR2+RMX Gol Masjid, Ram Nagar, Rahman Ganj, Jalna, Maharashtra 431203","Ram Nagar, Rahman Ganj",RWR2+RMX,Jalna,431203,Maharashtra,IN,https://www.google.com/maps/place/Gol+Masjid/data=!4m7!3m6!1s0x3bda59e220d460e9:0x1b77077aa55a1302!8m2!3d19.8424318!4d75.9016793!16s%2Fg%2F1pyqr1k06!19sChIJ6WDUIOJZ2jsRAhNapXoHdxs?authuser=0&hl=en&rclk=1,"19.8424318,75.9016793"
Chowk Masjid,Mosque,"RWV2+HQP Chowk Masjid, NEAR KADRABAD POLICE STATION SARAFA CORNER SHIVAJI STATUE, ROAD, Jalna, Maharashtra",Gawali Pura,"RWV2+HQP, NEAR KADRABAD POLICE STATION SARAFA CORNER SHIVAJI STATUE, ROAD",Jalna,,Maharashtra,IN,https://www.google.com/maps/place/Chowk+Masjid/data=!4m7!3m6!1s0x3bda59e24647ef97:0xf1ca309026bc52aa!8m2!3d19.8439609!4d75.9019513!16s%2Fg%2F11b6gdkk5t!19sChIJl-9HRuJZ2jsRqlK8JpAwyvE?authuser=0&hl=en&rclk=1,"19.8439609,75.9019513"
Aqsa Masjid,Mosque,"RVMR+8Q9 Aqsa Masjid, Railway Station Rd, Jalna, Maharashtra 431213",Jalna,"RVMR+8Q9, Railway Station Rd",Jalna,431213,Maharashtra,IN,https://www.google.com/maps/place/Aqsa+Masjid/data=!4m7!3m6!1s0x3bda57670535d011:0xd7d9eefecb742915!8m2!3d19.8332983!4d75.8919847!16s%2Fg%2F1pyqv1nmy!19sChIJEdA1BWdX2jsRFSl0y_7u2dc?authuser=0&hl=en&rclk=1,"19.8332983,75.8919847"
Markaz Masjid,Mosque,"RVVP+F46 Markaz Masjid, Millat Nagar, Bhawani Nagar, Jalna, Maharashtra 431213","Millat Nagar, Bhawani Nagar",RVVP+F46,Jalna,431213,Maharashtra,IN,https://www.google.com/maps/place/Markaz+Masjid/data=!4m7!3m6!1s0x3bda574455a1ce0b:0xed20df152e7aeed3!8m2!3d19.8436625!4d75.8852656!16s%2Fg%2F11b6y_j0_v!19sChIJC86hVURX2jsR0-56LhXfIO0?authuser=0&hl=en&rclk=1,"19.8436625,75.8852656"
Akeli Masjid,Mosque,"VW22+22H Akeli Masjid, Dhangarpura, Jalna, Maharashtra 431203",Dhangarpura,VW22+22H,Jalna,431203,Maharashtra,IN,https://www.google.com/maps/place/Akeli+Masjid/data=!4m7!3m6!1s0x3bda59fd63eec30d:0x915c9ed4a74994da!8m2!3d19.8500708!4d75.9000993!16s%2Fg%2F1pyqjpkwk!19sChIJDcPuY_1Z2jsR2pRJp9SeXJE?authuser=0&hl=en&rclk=1,"19.850070799999997,75.9000993"
Aqsa Masjid,Mosque,"RVWH+H8J Aqsa Masjid, Millat Nagar, Bhawani Nagar, Jalna, Maharashtra 431213","Millat Nagar, Bhawani Nagar",RVWH+H8J,Jalna,431213,Maharashtra,IN,https://www.google.com/maps/place/Aqsa+Masjid/data=!4m7!3m6!1s0x3bda5748748aa141:0x126d624892d0b29b!8m2!3d19.846472!4d75.878266!16s%2Fg%2F1pyqhp_sk!19sChIJQaGKdEhX2jsRm7LQkkhibRI?authuser=0&hl=en&rclk=1,"19.846472,75.878266"
Yousuf Masjid,Mosque,"RVWH+9WQ Yousuf Masjid, Yousuf calony, Yusuf St, Dukhi Nagar, Millat Nagar, Bhawani Nagar, Jalna, Maharashtra 431213","Dukhi Nagar, Millat Nagar, Bhawani Nagar","RVWH+9WQ, Yousuf calony, Yusuf St",Jalna,431213,Maharashtra,IN,https://www.google.com/maps/place/Yousuf+Masjid/data=!4m7!3m6!1s0x3bda57462bf86e27:0xb1df301b6fefd89c!8m2!3d19.845962!4d75.879863!16s%2Fg%2F1pyqnk21k!19sChIJJ274K0ZX2jsRnNjvbxsw37E?authuser=0&hl=en&rclk=1,"19.845962,75.879863"
Chamda Bazar Masjid,Mosque,"RWR3+3Q3 Chamda Bazar Masjid, Gandhinagar, Vyankatesh Nagar, Jalna, Maharashtra 431203","Gandhinagar, Vyankatesh Nagar",RWR3+3Q3,Jalna,431203,Maharashtra,IN,https://www.google.com/maps/place/Chamda+Bazar+Masjid/data=!4m7!3m6!1s0x3bda59e12301768d:0xb844193e00c5380d!8m2!3d19.840127!4d75.904417!16s%2Fg%2F1pyqpt2t1!19sChIJjXYBI-FZ2jsRDTjFAD4ZRLg?authuser=0&hl=en&rclk=1,"19.840127,75.904417"
Abbasiya Masjid (Ahle Sunnat),Mosque,"RWX2+2PM Abbasiya Masjid (Ahle Sunnat), Dana Bazaar Rd, Gawali Pura, Jalna, Maharashtra 431203",Gawali Pura,"RWX2+2PM, Dana Bazaar Rd",Jalna,431203,Maharashtra,IN,https://www.google.com/maps/place/Abbasiya+Masjid+%28Ahle+Sunnat%29/data=!4m7!3m6!1s0x3bda59e2ceee68cf:0x6ab4d7eb372063c2!8m2!3d19.8475835!4d75.9018119!16s%2Fg%2F11cn950xwm!19sChIJz2juzuJZ2jsRwmMgN-vXtGo?authuser=0&hl=en&rclk=1,"19.8475835,75.9018119"
Jama Masjid,Mosque,"RVVP+CQ7 Jama Masjid, Millat Nagar, Bhawani Nagar, Jalna, Maharashtra 431213","Millat Nagar, Bhawani Nagar",RVVP+CQ7,Jalna,431213,Maharashtra,IN,https://www.google.com/maps/place/Jama+Masjid/data=!4m7!3m6!1s0x3bda5744ddedfa35:0xf037b7a6145055fd!8m2!3d19.8435355!4d75.8869296!16s%2Fg%2F11b6ggcs4p!19sChIJNfrt3URX2jsR_VVQFKa3N_A?authuser=0&hl=en&rclk=1,"19.843535499999998,75.8869296"
Madina Masjid (Ahle Sunnat),Mosque,"RVVM+4J9 Madina Masjid (Ahle Sunnat), Millat Nagar, Bhawani Nagar, Jalna, Maharashtra 431213","Millat Nagar, Bhawani Nagar",RVVM+4J9,Jalna,431213,Maharashtra,IN,https://www.google.com/maps/place/Madina+Masjid+%28Ahle+Sunnat%29/data=!4m7!3m6!1s0x3bda574446e469ed:0x5b7501606b464e49!8m2!3d19.8427868!4d75.8841043!16s%2Fg%2F1pyqvl449!19sChIJ7WnkRkRX2jsRSU5Ga2ABdVs?authuser=0&hl=en&rclk=1,"19.8427868,75.88410429999999"
Umar Farooq Masjid,Mosque,"RVWM+32V Umar Farooq Masjid, Dukhi Nagar, Millat Nagar, Bhawani Nagar, Jalna, Maharashtra 431213","Dukhi Nagar, Millat Nagar, Bhawani Nagar",RVWM+32V,Jalna,431213,Maharashtra,IN,https://www.google.com/maps/place/Umar+Farooq+Masjid/data=!4m7!3m6!1s0x3bda5745e04c049d:0x56f48b33e5fe02f7!8m2!3d19.8452449!4d75.882558!16s%2Fg%2F1pyql7ddz!19sChIJnQRM4EVX2jsR9wL-5TOL9FY?authuser=0&hl=en&rclk=1,"19.8452449,75.882558"
Bibi Noor Masjid,Mosque,"VV29+3WP Bibi Noor Masjid, Maheshwari Twp, Jalna, Maharashtra 431213",Maheshwari Township,VV29+3WP,Jalna,431213,Maharashtra,IN,https://www.google.com/maps/place/Bibi+Noor+Masjid/data=!4m7!3m6!1s0x3bda573146a22f43:0x799d39ee9aaa65b6!8m2!3d19.85022!4d75.869817!16s%2Fg%2F1pyqt04h4!19sChIJQy-iRjFX2jsRtmWqmu45nXk?authuser=0&hl=en&rclk=1,"19.85022,75.869817"
Maniyar Masjid (Ahle Sunnat),Mosque,"RVVJ+4XG Maniyar Masjid (Ahle Sunnat), Millat Nagar, Shashtri Mohalla, Jalna, Maharashtra 431213","Millat Nagar, Shashtri Mohalla",RVVJ+4XG,Jalna,431213,Maharashtra,IN,https://www.google.com/maps/place/Maniyar+Masjid+%28Ahle+Sunnat%29/data=!4m7!3m6!1s0x3bda5744217f2465:0x48a91003745cf6b!8m2!3d19.842818!4d75.8824463!16s%2Fg%2F1pyqvmjgl!19sChIJZSR_IURX2jsRa89FNwCRigQ?authuser=0&hl=en&rclk=1,"19.842817999999998,75.8824463"
Quba Masjid,Mosque,"VV29+C5Q Quba Masjid, Maheshwari Twp, Jalna, Maharashtra 431213",Maheshwari Township,VV29+C5Q,Jalna,431213,Maharashtra,IN,https://www.google.com/maps/place/Quba+Masjid/data=!4m7!3m6!1s0x3bda57317f934643:0x87372bd7fe47299c!8m2!3d19.851094!4d75.867983!16s%2Fg%2F1pyqd_9d6!19sChIJQ0aTfzFX2jsRnClH_tcrN4c?authuser=0&hl=en&rclk=1,"19.851094,75.867983"
Makkah Masjid (Ahle Sunnat),Mosque,"Makkah Masjid (Ahle Sunnat), Ambad Road, Near, Visava School, Kharat Nagar, Jalna, Maharashtra 431203",Kharat Nagar,"Ambad Road, Near, Visava School",Jalna,431203,Maharashtra,IN,https://www.google.com/maps/place/Makkah+Masjid+%28Ahle+Sunnat%29/data=!4m7!3m6!1s0x3bda576bde85d54d:0xca371ddb0db0cf6a!8m2!3d19.8307073!4d75.8821532!16s%2Fg%2F11dx9gv54j!19sChIJTdWF3mtX2jsRas-wDdsdN8o?authuser=0&hl=en&rclk=1,"19.8307073,75.88215319999999"
Elyas Masjid,Mosque,"RWM5+6QX Elyas Masjid, Gandhinagar, Vyankatesh Nagar, Jalna, Maharashtra 431203","Gandhinagar, Vyankatesh Nagar",RWM5+6QX,Jalna,431203,Maharashtra,IN,https://www.google.com/maps/place/Elyas+Masjid/data=!4m7!3m6!1s0x3bda59dcee622e8b:0x57d597a6590b6e79!8m2!3d19.833122!4d75.909477!16s%2Fg%2F1pyqdztn4!19sChIJiy5i7txZ2jsReW4LWaaX1Vc?authuser=0&hl=en&rclk=1,"19.833122,75.909477"
Kgn Masjid (Ahle Sunnat),Mosque,"VV2P+54P Kgn Masjid (Ahle Sunnat), Saklecha Nagar, Jalna, Maharashtra 431203",Saklecha Nagar,VV2P+54P,Jalna,431203,Maharashtra,IN,https://www.google.com/maps/place/Kgn+Masjid+%28Ahle+Sunnat%29/data=!4m7!3m6!1s0x3bda574ef7e68521:0x7d8e40c15ca0158c!8m2!3d19.850469!4d75.885315!16s%2Fg%2F1pyqqg09c!19sChIJIYXm905X2jsRjBWgXMFAjn0?authuser=0&hl=en&rclk=1,"19.850469,75.88531499999999"
Head Quarters Masjid,Mosque,"VW35+7GM Head Quarters Masjid, Old MIDC, Jalna, Maharashtra 431203",Old MIDC,VW35+7GM,Jalna,431203,Maharashtra,IN,https://www.google.com/maps/place/Head+Quarters+Masjid/data=!4m7!3m6!1s0x3bda59fbb58d9a45:0xd1571765303dcebc!8m2!3d19.8532023!4d75.9087814!16s%2Fg%2F11g8cz1nx7!19sChIJRZqNtftZ2jsRvM49MGUXV9E?authuser=0&hl=en&rclk=1,"19.8532023,75.9087814"
Al Furkan Masjid,Mosque,"RVHR+2G5 Al Furkan Masjid, Masjid Rd, Anand Nagar, Kharat Nagar, Jalna, Maharashtra 431213","Anand Nagar, Kharat Nagar","RVHR+2G5, Masjid Rd",Jalna,431213,Maharashtra,IN,https://www.google.com/maps/place/Al+Furkan+Masjid/data=!4m7!3m6!1s0x3bda574f5dfc1c65:0xabc629328ef8c94e!8m2!3d19.8275125!4d75.8913594!16s%2Fg%2F11hzmqlhwv!19sChIJZRz8XU9X2jsRTsn4jjIpxqs?authuser=0&hl=en&rclk=1,"19.827512499999997,75.8913594"
Umar Masjid,Mosque,"VV2F+W5W Umar Masjid, National Nagar, Maheshwari Twp, Jalna, Maharashtra 431213","National Nagar, Maheshwari Township",VV2F+W5W,Jalna,431213,Maharashtra,IN,https://www.google.com/maps/place/Umar+Masjid/data=!4m7!3m6!1s0x3bda57343aafbc65:0x31cbf0e1ef9f9c67!8m2!3d19.852355!4d75.8729649!16s%2Fg%2F1pyqp3lq4!19sChIJZbyvOjRX2jsRZ5yf7-HwyzE?authuser=0&hl=en&rclk=1,"19.852355,75.8729649"
Rabiya masjid sunder nagar,Mosque,"VV45+VX4 Rabiya masjid sunder nagar, Jalna Rd, Chandanzira, Jalna, Maharashtra 431213",Chandanzira,"VV45+VX4, Jalna Rd",Jalna,431213,Maharashtra,IN,https://www.google.com/maps/place/Rabiya+masjid+sunder+nagar/data=!4m7!3m6!1s0x3bda571fb2b86c6d:0x99bc5595fbfd2202!8m2!3d19.8571273!4d75.8599533!16s%2Fg%2F11hz0th22p!19sChIJbWy4sh9X2jsRAiL9-5VVvJk?authuser=0&hl=en&rclk=1,"19.8571273,75.8599533"
Huda Masjid,Mosque,"RVHM+PFG Huda Masjid, Visava School, Kharat Nagar, Jalna, Maharashtra 431213",Kharat Nagar,"RVHM+PFG, Visava School",Jalna,431213,Maharashtra,IN,https://www.google.com/maps/place/Huda+Masjid/data=!4m7!3m6!1s0x3bda5769563f5bbb:0xc6088049fc22fdd7!8m2!3d19.8293198!4d75.8837057!16s%2Fg%2F1pyqpfcj1!19sChIJu1s_VmlX2jsR1_0i_EmACMY?authuser=0&hl=en&rclk=1,"19.8293198,75.8837057"
Nurani Masjid,Mosque,"VW82+GMG Nurani Masjid, kanhaiya nagar, Jalna, Maharashtra 431203",kanhaiya nagar,VW82+GMG,Jalna,431203,Maharashtra,IN,https://www.google.com/maps/place/Nurani+Masjid/data=!4m7!3m6!1s0x3bda5a073a00dea5:0x3535346f775f74da!8m2!3d19.8663162!4d75.9017121!16s%2Fg%2F11b6mphyv1!19sChIJpd4AOgda2jsR2nRfd280NTU?authuser=0&hl=en&rclk=1,"19.8663162,75.9017121"
Ali Masjid,Mosque,"VV55+43H Ali Masjid, Chandanzira, Jalna, Maharashtra 431213",Chandanzira,VV55+43H,Jalna,431213,Maharashtra,IN,https://www.google.com/maps/place/Ali+Masjid/data=!4m7!3m6!1s0x3bda50d4952c253d:0xb7e129ad105525b!8m2!3d19.8578113!4d75.8577265!16s%2Fg%2F1pyqpcw1p!19sChIJPSUsldRQ2jsRW1IF0ZoSfgs?authuser=0&hl=en&rclk=1,"19.857811299999998,75.8577265"
Gulshan Masjid,Mosque,"Gulshan Masjid, Manth Bypass Road Jalna, Jalna, Maharashtra 431203",Vyankatesh Nagar,Manth Bypass Road Jalna,Jalna,431203,Maharashtra,IN,https://www.google.com/maps/place/Gulshan+Masjid/data=!4m7!3m6!1s0x3bda59eb8cba01f1:0x565d344d130f5289!8m2!3d19.8431472!4d75.9187031!16s%2Fg%2F1232kfkg5!19sChIJ8QG6jOtZ2jsRiVIPE000XVY?authuser=0&hl=en&rclk=1,"19.8431472,75.9187031"
Hamza Masjid & Madarsa,Mosque,"RVJV+VF9 Hamza Masjid & Madarsa, Nariman Nagar, Jalna, Maharashtra 431213",Nariman Nagar,RVJV+VF9,Jalna,431213,Maharashtra,IN,https://www.google.com/maps/place/Hamza+Masjid+%26+Madarsa/data=!4m7!3m6!1s0x3bda57d9482c6a63:0x63bc16d5151cb8a!8m2!3d19.8321651!4d75.8937404!16s%2Fg%2F11j3xctlct!19sChIJY2osSNlX2jsRistRUW3BOwY?authuser=0&hl=en&rclk=1,"19.832165099999997,75.8937404"
Sher Sawar Masjid Sunni,Mosque,"RVXM+8MR Sher Sawar Masjid Sunni, Sayyed Ahmed Sher Sawar Dargah Old, Jalna, Maharashtra 431213","Millat Nagar, Bhawani Nagar","RVXM+8MR, Sayyed Ahmed Sher Sawar Dargah Old",Jalna,431213,Maharashtra,IN,https://www.google.com/maps/place/Sher+Sawar+Masjid+Sunni/data=!4m7!3m6!1s0x3bda572bee19d187:0x9c0d640dc80873e3!8m2!3d19.8483698!4d75.8841536!16s%2Fg%2F11hdnfkv8f!19sChIJh9EZ7itX2jsR43MIyA1kDZw?authuser=0&hl=en&rclk=1,"19.8483698,75.88415359999999"
Abu Bakar Masjid,Mosque,"Abu Bakar Masjid, Off, Sarvadi Road, Gandhinagar, Arjun Nagar, Jalna, Maharashtra 431213","Gandhinagar, Arjun Nagar","Off, Sarvadi Road",Jalna,431213,Maharashtra,IN,https://www.google.com/maps/place/Abu+Bakar+Masjid/data=!4m7!3m6!1s0x3bda59dcf82846bf:0x9a6aa47c07a35e8a!8m2!3d19.833378!4d75.9088362!16s%2Fg%2F11b8v9hp6w!19sChIJv0Yo-NxZ2jsRil6jB3ykapo?authuser=0&hl=en&rclk=1,"19.833378,75.9088362"
TAUHEED MASJID (ahle hadees) jalna,Mosque,"RVXH+527 TAUHEED MASJID (ahle hadees) jalna, Millat Nagar, Bhawani Nagar, Jalna, Maharashtra 431213","Millat Nagar, Bhawani Nagar",RVXH+527,Jalna,431213,Maharashtra,IN,https://www.google.com/maps/place/TAUHEED+MASJID+%28ahle+hadees%29+jalna/data=!4m7!3m6!1s0x3bda57f00359b933:0x96066a2935186c48!8m2!3d19.847908!4d75.8775396!16s%2Fg%2F11sx04z273!19sChIJM7lZA_BX2jsRSGwYNSlqBpY?authuser=0&hl=en&rclk=1,"19.847908,75.87753959999999"
Shahmanik Masjid (Ahle Sunnat),Mosque,"RVVJ+4WF Shahmanik Masjid (Ahle Sunnat), Maniyar Mohalla, Old Jalna, Jalna, Maharashtra 431213","Millat Nagar, Old Jalna","RVVJ+4WF, Maniyar Mohalla",Jalna,431213,Maharashtra,IN,https://www.google.com/maps/place/Shahmanik+Masjid+%28Ahle+Sunnat%29/data=!4m7!3m6!1s0x3bda574432fffff7:0xeeffb2ab5cebfbf8!8m2!3d19.8428025!4d75.8822954!16s%2Fg%2F11gfgx_l2v!19sChIJ9___MkRX2jsR-PvrXKuy_-4?authuser=0&hl=en&rclk=1,"19.842802499999998,75.88229539999999"
Raheman Ganj masjid,Mosque,"Raheman Ganj masjid, Sangram nagar, Rahman Ganj, Jalna, Maharashtra 431203","Sangram nagar, Rahman Ganj",,Jalna,431203,Maharashtra,IN,https://www.google.com/maps/place/Raheman+Ganj+masjid/data=!4m7!3m6!1s0x3bda575f2a4bcaaf:0xd5d7b384c928d433!8m2!3d19.8526342!4d75.8994016!16s%2Fg%2F11h2vxmn00!19sChIJr8pLKl9X2jsRM9QoyYSz19U?authuser=0&hl=en&rclk=1,"19.8526342,75.89940159999999"
Malik E Ambar Masjid Shish Tekdi,Mosque,"RVVQ+JMF Malik E Ambar Masjid Shish Tekdi, Shish Tekdi, Sayyed Nagar, Old Jalna, Jalna, Maharashtra 431203","Mali Pura, Millat Nagar, Old Jalna","RVVQ+JMF, Shish Tekdi, Sayyed Nagar",Jalna,431203,Maharashtra,IN,https://www.google.com/maps/place/Malik+E+Ambar+Masjid+Shish+Tekdi/data=!4m7!3m6!1s0x3bda575b27a754a1:0x2cfce774dcd2bf0e!8m2!3d19.8440579!4d75.8891578!16s%2Fg%2F1pyqjm72p!19sChIJoVSnJ1tX2jsRDr_S3HTn_Cw?authuser=0&hl=en&rclk=1,"19.8440579,75.88915779999999"
Kasba Masjid (Ahle Sunnat),Mosque,"RVVQ+CXR Kasba Masjid (Ahle Sunnat), Mali Pura, Millat Nagar, Bhawani Nagar, Jalna, Maharashtra 431213","Mali Pura, Millat Nagar, Bhawani Nagar",RVVQ+CXR,Jalna,431213,Maharashtra,IN,https://www.google.com/maps/place/Kasba+Masjid+%28Ahle+Sunnat%29/data=!4m7!3m6!1s0x3bda575b184b4e2d:0x215308fb9a54f3f5!8m2!3d19.8436004!4d75.8898824!16s%2Fg%2F11b6gm7xnh!19sChIJLU5LGFtX2jsR9fNUmvsIUyE?authuser=0&hl=en&rclk=1,"19.8436004,75.88988239999999"
Panjetan Masjid (Ahle Sunnat),Mosque,"RVWC+X6X Panjetan Masjid (Ahle Sunnat), opp to meerat hotel, Bhawani Nagar, Jalna, Maharashtra 431213",Bhawani Nagar,"RVWC+X6X, opp to meerat hotel",Jalna,431213,Maharashtra,IN,https://www.google.com/maps/place/Panjetan+Masjid+%28Ahle+Sunnat%29/data=!4m7!3m6!1s0x3bda5730cd5d482d:0x200ed7c7528c6987!8m2!3d19.8474924!4d75.8705966!16s%2Fg%2F1pyqnwrxg!19sChIJLUhdzTBX2jsRh2mMUsfXDiA?authuser=0&hl=en&rclk=1,"19.8474924,75.8705966"
Mujahediya Masjid,Mosque,"VW24+G6G Mujahediya Masjid, Gajanan Colony, Bhistipura, Penshanpura, Jalna, Maharashtra 431203","Gajanan Colony, Bhistipura, Penshanpura",VW24+G6G,Jalna,431203,Maharashtra,IN,https://www.google.com/maps/place/Mujahediya+Masjid/data=!4m7!3m6!1s0x3bda59e4bcc2ea79:0xbd78f6412aa38d86!8m2!3d19.8513125!4d75.9055781!16s%2Fg%2F11fj2sqyzr!19sChIJeerCvORZ2jsRho2jKkH2eL0?authuser=0&hl=en&rclk=1,"19.8513125,75.9055781"
Noor Shah Wali Masjid,Mosque,"RVWR+JQC Noor Shah Wali Masjid, Noor Shah Wali Dargah, Lakkad Kot, Jalna, Maharashtra 431203",Rahman Ganj,"RVWR+JQC, Noor Shah Wali Dargah, Lakkad Kot",Jalna,431203,Maharashtra,IN,https://www.google.com/maps/place/Noor+Shah+Wali+Masjid/data=!4m7!3m6!1s0x3bda5729aed27f5d:0xb98abc847fa5a9d7!8m2!3d19.8465727!4d75.8918954!16s%2Fg%2F11gxgq2s89!19sChIJXX_SrilX2jsR16mlf4S8irk?authuser=0&hl=en&rclk=1,"19.8465727,75.8918954"
Masjid,Mosque,"RWV2+FRH Masjid, Jintur Hwy, Rahman Ganj, Jalna, Maharashtra 431203",Rahman Ganj,"RWV2+FRH, Jintur Hwy",Jalna,431203,Maharashtra,IN,https://www.google.com/maps/place/Masjid/data=!4m7!3m6!1s0x3bda59e237eff043:0xef737654043402d8!8m2!3d19.843694!4d75.902094!16s%2Fg%2F1pyqqm3xw!19sChIJQ_DvN-JZ2jsR2AI0BFR2c-8?authuser=0&hl=en&rclk=1,"19.843694,75.90209399999999"
Jama Masjid,Mosque,"RVVX+HR9 Jama Masjid, Jintur Hwy, Ram Nagar, Rahman Ganj, Jalna, Maharashtra 431203","Ram Nagar, Rahman Ganj","RVVX+HR9, Jintur Hwy",Jalna,431203,Maharashtra,IN,https://www.google.com/maps/place/Jama+Masjid/data=!4m7!3m6!1s0x3bda57589c26d8b7:0xf9043905e98c1aac!8m2!3d19.843919!4d75.8996219!16s%2Fg%2F1pyqg0b5q!19sChIJt9gmnFhX2jsRrBqM6QU5BPk?authuser=0&hl=en&rclk=1,"19.843919,75.8996219"
Aqsa Masjid Balaji Nagar Jalna,Mosque,"RWP4+MF8 Aqsa Masjid Balaji Nagar Jalna, Gandhinagar, Vyankatesh Nagar, Jalna, Maharashtra 431203","Gandhinagar, Vyankatesh Nagar",RWP4+MF8,Jalna,431203,Maharashtra,IN,https://www.google.com/maps/place/Aqsa+Masjid+Balaji+Nagar+Jalna/data=!4m7!3m6!1s0x3bda5996850d853f:0xe43210c09915ced7!8m2!3d19.8366704!4d75.9062016!16s%2Fg%2F11jfcwgxk8!19sChIJP4UNhZZZ2jsR184VmcAQMuQ?authuser=0&hl=en&rclk=1,"19.8366704,75.9062016"
Gaundi Masjid,Mosque,"RVRP+96W Gaundi Masjid, Kacheri Rd, Millat Nagar, Old Jalna, Jalna, Maharashtra 431213","Millat Nagar, Old Jalna","RVRP+96W, Kacheri Rd",Jalna,431213,Maharashtra,IN,https://www.google.com/maps/place/Gaundi+Masjid/data=!4m7!3m6!1s0x3bda57437c3645f9:0xd198d504a4cd3368!8m2!3d19.8409876!4d75.8855751!16s%2Fg%2F1tgf67f4!19sChIJ-UU2fENX2jsRaDPNpATVmNE?authuser=0&hl=en&rclk=1,"19.8409876,75.8855751"
Kadriya Masjid,Mosque,"RVXQ+6HR Kadriya Masjid, Nagpur Aurragabad Mumbai Highway, Millat Nagar, Bhawani Nagar, Jalna, Maharashtra 431203","Millat Nagar, Bhawani Nagar","RVXQ+6HR, Nagpur Aurragabad Mumbai Highway",Jalna,431203,Maharashtra,IN,https://www.google.com/maps/place/Kadriya+Masjid/data=!4m7!3m6!1s0x3bda57501a21ed0d:0xb5064cdab3351ef4!8m2!3d19.848119!4d75.888881!16s%2Fg%2F1pyql4z89!19sChIJDe0hGlBX2jsR9B41s9pMBrU?authuser=0&hl=en&rclk=1,"19.848119,75.888881"
4 No Naka Masjid,Mosque,"VV4X+33X 4 No Naka Masjid, Dadawadi, Jalna, Maharashtra 431203",Dadawadi,VV4X+33X,Jalna,431203,Maharashtra,IN,https://www.google.com/maps/place/4+No+Naka+Masjid/data=!4m7!3m6!1s0x3bda5710c3141a37:0x1f027ac4d87fe5ee!8m2!3d19.8552477!4d75.8977467!16s%2Fg%2F11rmnzkrx9!19sChIJNxoUwxBX2jsR7uV_2MR6Ah8?authuser=0&hl=en&rclk=1,"19.8552477,75.8977467"
Noor A Aalam Masjid,Mosque,"RWV2+JC3 Noor A Aalam Masjid, Jintur Hwy, Rahman Ganj, Jalna, Maharashtra 431203",Rahman Ganj,"RWV2+JC3, Jintur Hwy",Jalna,431203,Maharashtra,IN,https://www.google.com/maps/place/Noor+A+Aalam+Masjid/data=!4m7!3m6!1s0x3bda59e26be1d009:0x800b4ceb610bb112!8m2!3d19.8440171!4d75.901047!16s%2Fg%2F1pyqrf7cp!19sChIJCdDha-JZ2jsRErELYetMC4A?authuser=0&hl=en&rclk=1,"19.8440171,75.90104699999999"
Nomania Masjid,Mosque,"RVQV+87P Nomania Masjid, Trimbakdas Mantri Nagar, Laxminarayanpura, Jalna, Maharashtra 431213","Trimbakdas Mantri Nagar, Laxminarayanpura",RVQV+87P,Jalna,431213,Maharashtra,IN,https://www.google.com/maps/place/Nomania+Masjid/data=!4m7!3m6!1s0x3bda5795b2029bd1:0x86608da2494f9125!8m2!3d19.8383485!4d75.8931908!16s%2Fg%2F11rvclcnlq!19sChIJ0ZsCspVX2jsRJZFPSaKNYIY?authuser=0&hl=en&rclk=1,"19.8383485,75.8931908"
Ambad Base Masjid,Mosque,"RVQM+94R Ambad Base Masjid, Ambad Rd, Near Flyover Bridge, Kharat Nagar, Jalna, Maharashtra 431213",Kharat Nagar,"RVQM+94R, Ambad Rd, Near Flyover Bridge",Jalna,431213,Maharashtra,IN,https://www.google.com/maps/place/Ambad+Base+Masjid/data=!4m7!3m6!1s0x3bda5743d9bcde5d:0x1834b106316f9136!8m2!3d19.838493!4d75.8827735!16s%2Fg%2F11fy7czp1f!19sChIJXd682UNX2jsRNpFvMQaxNBg?authuser=0&hl=en&rclk=1,"19.838493,75.8827735"
Farhan Masjid,Mosque,"VV73+9VX Farhan Masjid, Unnamed Road, Chandanzira, Jalna, Maharashtra 431213",Chandanzira,"VV73+9VX, Unnamed Road",Jalna,431213,Maharashtra,IN,https://www.google.com/maps/place/Farhan+Masjid/data=!4m7!3m6!1s0x3bda51d03fb92dbd:0x859e6bf1b68cb45c!8m2!3d19.8634863!4d75.8547418!16s%2Fg%2F11mpbvwh98!19sChIJvS25P9BR2jsRXLSMtvFrnoU?authuser=0&hl=en&rclk=1,"19.863486299999998,75.8547418"
Masjid Qazi Pura,Mosque,"RWX3+477 Masjid Qazi Pura, Tanga Stand Chowk, Mission Hospital Road, kazi Pura, near Udpi Hotel, Maharashtra 431203",Dhangarpura,"RWX3+477, Tanga Stand Chowk, Mission Hospital Road, kazi Pura, near Udpi Hotel",Jalna,431203,Maharashtra,IN,https://www.google.com/maps/place/Masjid+Qazi+Pura/data=!4m7!3m6!1s0x3bda5984cacca5c3:0xd52e34bb5f9875e6!8m2!3d19.8477975!4d75.903164!16s%2Fg%2F11gzqhz178!19sChIJw6XMyoRZ2jsR5nWYX7s0LtU?authuser=0&hl=en&rclk=1,"19.8477975,75.90316399999999"
Masjide Maula Ali (R.A.) Ahele Sunnat-wal-jama'at,Mosque,"Masjide Maula Ali (R.A.) Ahele Sunnat-wal-jama'at, Maheshwari Twp, Jalna, Maharashtra 431203",Maheshwari Township,,Jalna,431203,Maharashtra,IN,https://www.google.com/maps/place/Masjide+Maula+Ali+%28R.A.%29+Ahele+Sunnat-wal-jama%27at/data=!4m7!3m6!1s0x3bda5737112423e9:0xa5479e15cf2e453a!8m2!3d19.8523277!4d75.8721158!16s%2Fg%2F11tfd84bpk!19sChIJ6SMkETdX2jsROkUuzxWeR6U?authuser=0&hl=en&rclk=1,"19.8523277,75.8721158"
Kanzul Iman Masjid Jamat e ahle sunnat,Mosque,"RVWM+W6H Kanzul Iman Masjid Jamat e ahle sunnat, Sher Sawar Nagar, Millat Nagar, Bhawani Nagar, Jalna, Maharashtra 431213","Sher Sawar Nagar, Millat Nagar, Bhawani Nagar",RVWM+W6H,Jalna,431213,Maharashtra,IN,https://www.google.com/maps/place/Kanzul+Iman+Masjid+Jamat+e+ahle+sunnat/data=!4m7!3m6!1s0x3bda57254ded3d41:0xca7f0e36b30838e8!8m2!3d19.8473132!4d75.8831102!16s%2Fg%2F11gw2q7pfr!19sChIJQT3tTSVX2jsR6DgIszYOf8o?authuser=0&hl=en&rclk=1,"19.8473132,75.88311019999999"
Masjid Al Nahdi,Mosque,"RVXJ+2RG Masjid Al Nahdi, Nahdi Colony, Sher Sawar Nagar, Millat Nagar, Bhawani Nagar, Jalna, Maharashtra 431203","Sher Sawar Nagar, Millat Nagar, Bhawani Nagar","RVXJ+2RG, Nahdi Colony",Jalna,431203,Maharashtra,IN,https://www.google.com/maps/place/Masjid+Al+Nahdi/data=!4m7!3m6!1s0x3bda5778d430e24b:0x2e3fc3b82e5a01a5!8m2!3d19.8475739!4d75.8820772!16s%2Fg%2F11htv11jxb!19sChIJS-Iw1HhX2jsRpQFaLrjDPy4?authuser=0&hl=en&rclk=1,"19.8475739,75.8820772"
Razia Masjid,Mosque,"RVWG+P98 Razia Masjid, Unnamed Road, Millat Nagar, Bhawani Nagar, Jalna, Maharashtra 431213","Millat Nagar, Bhawani Nagar","RVWG+P98, Unnamed Road",Jalna,431213,Maharashtra,IN,https://www.google.com/maps/place/Razia+Masjid/data=!4m7!3m6!1s0x3bda57b919e03c01:0x81fb265f81a1e22e!8m2!3d19.8467913!4d75.8759674!16s%2Fg%2F11ft0m0jmd!19sChIJATzgGblX2jsRLuKhgV8m-4E?authuser=0&hl=en&rclk=1,"19.8467913,75.8759674"
Mohammadi Masjid (Ahle Sunnat),Mosque,"RVRH+C27 Mohammadi Masjid (Ahle Sunnat), Maheboob subhani chowk, Sanjay Nagar, Old Jalna, Jalna, Maharashtra 431213","Sanjay Nagar, Old Jalna","RVRH+C27, Maheboob subhani chowk",Jalna,431213,Maharashtra,IN,https://www.google.com/maps/place/Mohammadi+Masjid+%28Ahle+Sunnat%29/data=!4m7!3m6!1s0x3bda57953768401d:0xece457f48c4a4d87!8m2!3d19.8410398!4d75.8775331!16s%2Fg%2F11gzr97mbf!19sChIJHUBoN5VX2jsRh01KjPRX5Ow?authuser=0&hl=en&rclk=1,"19.8410398,75.8775331"
Makka Masjid Islampura,Mosque,"VV73+6JX Makka Masjid Islampura, Chandanzira, Jalna, Maharashtra 431213",Chandanzira,VV73+6JX,Jalna,431213,Maharashtra,IN,https://www.google.com/maps/place/Makka+Masjid+Islampura/data=!4m7!3m6!1s0x3bda51fe507da1f1:0x666cd8d17996a763!8m2!3d19.862815!4d75.854258!16s%2Fg%2F11p5ct7tm9!19sChIJ8aF9UP5R2jsRY6eWedHYbGY?authuser=0&hl=en&rclk=1,"19.862814999999998,75.854258"
Usmaniya Masjid Kabadi Mohalla,Mosque,"Usmaniya Masjid Kabadi Mohalla, Kabadi Mohalla, Sarafa Bazar, Gawali Pura, Jalna, Maharashtra 431203","Sarafa Bazar, Gawali Pura",Kabadi Mohalla,Jalna,431203,Maharashtra,IN,https://www.google.com/maps/place/Usmaniya+Masjid+Kabadi+Mohalla/data=!4m7!3m6!1s0x3bda59f326291553:0xb233daf09a5c634b!8m2!3d19.84598!4d75.9004871!16s%2Fg%2F11gzqg2pcs!19sChIJUxUpJvNZ2jsRS2NcmvDaM7I?authuser=0&hl=en&rclk=1,"19.84598,75.90048709999999"
sadar Bazar Masjid,Mosque,"RWX3+J2M sadar Bazar Masjid, Naya Bazar, Dhangarpura, Jalna, Maharashtra 431203","Naya Bazar, Dhangarpura",RWX3+J2M,Jalna,431203,Maharashtra,IN,https://www.google.com/maps/place/sadar+Bazar+Masjid/data=!4m7!3m6!1s0x3bda5964eb217127:0x9d9c91eaee9cb976!8m2!3d19.8490879!4d75.9025343!16s%2Fg%2F11gn1wb9ld!19sChIJJ3Eh62RZ2jsRdrmc7uqRnJ0?authuser=0&hl=en&rclk=1,"19.8490879,75.9025343"
Garib Shah Baba Masjid,Mosque,"RVVW+QFF Garib Shah Baba Masjid, Gareeb shah bazar, Railway Station Road, Lokhand Pul, Rahman Ganj, Jalna, Maharashtra 431203",Rahman Ganj,"RVVW+QFF, Gareeb shah bazar, Railway Station Road, Lokhand Pul",Jalna,431203,Maharashtra,IN,https://www.google.com/maps/place/Garib+Shah+Baba+Masjid/data=!4m7!3m6!1s0x3bda575908b9fc7b:0x49260566bc851e49!8m2!3d19.8444469!4d75.8961674!16s%2Fg%2F11h9y5p4h4!19sChIJe_y5CFlX2jsRSR6FvGYFJkk?authuser=0&hl=en&rclk=1,"19.844446899999998,75.8961674"
Masjid Abuhera Ra,Mosque,"VV65+4PW Masjid Abuhera Ra, Chandanzira, Jalna, Maharashtra 431213",Chandanzira,VV65+4PW,Jalna,431213,Maharashtra,IN,https://www.google.com/maps/place/Masjid+Abuhera+Ra/data=!4m7!3m6!1s0x3bda51a0223ac351:0xf3092820900c9e0f!8m2!3d19.8603592!4d75.859321!16s%2Fg%2F11t61vp8dn!19sChIJUcM6IqBR2jsRD54MkCAoCfM?authuser=0&hl=en&rclk=1,"19.860359199999998,75.859321"
Masjid,Mosque,"RWP3+72 Masjid, Bhale Nagari, Vyankatesh Nagar, Jalna, Maharashtra 431213","Bhale Nagari, Vyankatesh Nagar",RWP3+72,Jalna,,Maharashtra,IN,https://www.google.com/maps/place/Masjid/data=!4m7!3m6!1s0x3bda59306fe585a3:0x8095278152ee2158!8m2!3d19.8356463!4d75.9025106!16s%2Fg%2F11txy1w7ql!19sChIJo4XlbzBZ2jsRWCHuUoEnlYA?authuser=0&hl=en&rclk=1,"19.8356463,75.9025106"
Sayyadi Masjid,Mosque,"RVRG+XR5 Sayyadi Masjid, Sayad Colony, Sanjay Nagar, Old jalana, Jalna, Maharashtra 431213","Sayad Colony, Sanjay Nagar, Old jalana",RVRG+XR5,Jalna,431213,Maharashtra,IN,https://www.google.com/maps/place/Sayyadi+Masjid/data=!4m7!3m6!1s0x3bda57fd691bf483:0xb7465696fc5eab3b!8m2!3d19.8423907!4d75.8771184!16s%2Fg%2F11gzq148xb!19sChIJg_Qbaf1X2jsRO6te_JZWRrc?authuser=0&hl=en&rclk=1,"19.8423907,75.8771184"
Masjid Dawatulhaq,Mosque,"RVMJ+MGC Masjid Dawatulhaq, Kanchan Nagar, Bhagya Nagar, Jalna, Maharashtra 431213","Kanchan Nagar, Bhagya Nagar",RVMJ+MGC,Jalna,431213,Maharashtra,IN,https://www.google.com/maps/place/Masjid+Dawatulhaq/data=!4m7!3m6!1s0x3bda57d528a0153f:0x82b3ea7d8d42f946!8m2!3d19.8341779!4d75.8812661!16s%2Fg%2F11h1d_trcx!19sChIJPxWgKNVX2jsRRvlCjX3qs4I?authuser=0&hl=en&rclk=1,"19.8341779,75.88126609999999"
Kadriya Masjid,Mosque,"RWWC+J9G Kadriya Masjid, Sai Nath Nagar, Shakuntala Nagar, Jalna, Maharashtra 431203","Sai Nath Nagar, Shakuntala Nagar",RWWC+J9G,Jalna,431203,Maharashtra,IN,https://www.google.com/maps/place/Kadriya+Masjid/data=!4m7!3m6!1s0x3bda59bcb17dd751:0x6499ec3e2b5f7880!8m2!3d19.8465551!4d75.9209377!16s%2Fg%2F11grv8078v!19sChIJUdd9sbxZ2jsRgHhfKz7smWQ?authuser=0&hl=en&rclk=1,"19.8465551,75.9209377"
Macca Masjid,Mosque,"RVHJ+9W5 Macca Masjid, Visava School, Kharat Nagar, Jalna, Maharashtra 431213",Kharat Nagar,"RVHJ+9W5, Visava School",Jalna,431213,Maharashtra,IN,https://www.google.com/maps/place/Macca+Masjid/data=!4m7!3m6!1s0x3bda576c02e83361:0xdb3de0e22177022a!8m2!3d19.828398!4d75.8823458!16s%2Fg%2F11dx9gv53m!19sChIJYTPoAmxX2jsRKgJ3IeLgPds?authuser=0&hl=en&rclk=1,"19.828398,75.8823458"
Jama Masjid Murti,Mosque,"VW4R+Q6R Jama Masjid Murti, Deomurti, Jalna, Maharashtra 431203",Deomurti,VW4R+Q6R,Jalna,431203,Maharashtra,IN,https://www.google.com/maps/place/Jama+Masjid+Murti/data=!4m7!3m6!1s0x3bda5955996c4191:0x4f0a2dbe4e786d95!8m2!3d19.8569231!4d75.9404736!16s%2Fg%2F11snysf1dz!19sChIJkUFsmVVZ2jsRlW14Tr4tCk8?authuser=0&hl=en&rclk=1,"19.8569231,75.94047359999999"
Masjid Amer,Mosque,"Masjid Amer, Nahdi Colony, Sher Sawar Nagar, Millat Nagar, Bhawani Nagar, Jalna, Maharashtra 431203","Sher Sawar Nagar, Millat Nagar, Bhawani Nagar",Nahdi Colony,Jalna,431203,Maharashtra,IN,https://www.google.com/maps/place/Masjid+Amer/data=!4m7!3m6!1s0x3bda573ab8a07ba7:0x65bef17d2bb1cca7!8m2!3d19.8480439!4d75.881797!16s%2Fg%2F11j8hg_mk5!19sChIJp3uguDpX2jsRp8yxK33xvmU?authuser=0&hl=en&rclk=1,"19.8480439,75.88179699999999"
Juma Masjid,Mosque,"RVVM+PV5 Juma Masjid, Mali Pura, Millat Nagar, Old Jalna, Jalna, Maharashtra 431203","Mali Pura, Millat Nagar, Old Jalna",RVVM+PV5,Jalna,431203,Maharashtra,IN,https://www.google.com/maps/place/Juma+Masjid/data=!4m7!3m6!1s0x3bda5745ae404983:0x9006442841beadb2!8m2!3d19.844264!4d75.884721!16s%2Fg%2F1pyql7ddx!19sChIJg0lArkVX2jsRsq2-QShEBpA?authuser=0&hl=en&rclk=1,"19.844264,75.884721"
Jaan Mohammed Masjid (Ahle sunnat),Place of worship,"RVWM+8VC Jaan Mohammed Masjid (Ahle sunnat), Near Raja Bagh Sawaar Qabristan, Dargah Road, Tattu Pura, Old Jalna, Jalna, Maharashtra 431203","Dukhi Nagar, Millat Nagar, Old Jalna","RVWM+8VC, Near Raja Bagh Sawaar Qabristan, Dargah Road, Tattu Pura",Jalna,431203,Maharashtra,IN,https://www.google.com/maps/place/Jaan+Mohammed+Masjid+%28Ahle+sunnat%29/data=!4m7!3m6!1s0x3bda57422c4ec739:0x527a8890ae8f64da!8m2!3d19.8458017!4d75.8846427!16s%2Fg%2F11hyl4vty9!19sChIJOcdOLEJX2jsR2mSPrpCIelI?authuser=0&hl=en&rclk=1,"19.8458017,75.8846427"
Mansoor Masjid,Mosque,"RVWM+3WJ Mansoor Masjid, Dukhi Nagar, Millat Nagar, Bhawani Nagar, Jalna, Maharashtra 431213","Dukhi Nagar, Millat Nagar, Bhawani Nagar",RVWM+3WJ,Jalna,431213,Maharashtra,IN,https://www.google.com/maps/place/Mansoor+Masjid/data=!4m7!3m6!1s0x3bda5745a28fac3b:0xa628b69be35399e9!8m2!3d19.845206!4d75.884766!16s%2Fg%2F1pyqgg93q!19sChIJO6yPokVX2jsR6ZlT45u2KKY?authuser=0&hl=en&rclk=1,"19.845205999999997,75.884766"
Jama Masjid,Mosque,"VV29+C4H Jama Masjid, Maheshwari Twp, Jalna, Maharashtra 431213",Maheshwari Township,VV29+C4H,Jalna,431213,Maharashtra,IN,https://www.google.com/maps/place/Jama+Masjid/data=!4m7!3m6!1s0x3bda57235aca5047:0x187d5c5c226e5061!8m2!3d19.8510716!4d75.8678959!16s%2Fg%2F11kpqy93t6!19sChIJR1DKWiNX2jsRYVBuIlxcfRg?authuser=0&hl=en&rclk=1,"19.851071599999997,75.8678959"
Mustafa Masjid,Mosque,"VV5X+QHM Mustafa Masjid, Gyatri Nagar, Jalna, Maharashtra 431203",Gyatri Nagar,VV5X+QHM,Jalna,431203,Maharashtra,IN,https://www.google.com/maps/place/Mustafa+Masjid/data=!4m7!3m6!1s0x3bda57b71ba569f7:0xff007152f06ed656!8m2!3d19.8590937!4d75.8984346!16s%2Fg%2F11sjh9xzk5!19sChIJ92mlG7dX2jsRVtZu8FJxAP8?authuser=0&hl=en&rclk=1,"19.8590937,75.8984346"
Aqsa Masjid,Mosque,"RVWG+MF2 Aqsa Masjid, KGN Rd, Millat Nagar, Bhawani Nagar, Jalna, Maharashtra 431213","Millat Nagar, Bhawani Nagar","RVWG+MF2, KGN Rd",Jalna,431213,Maharashtra,IN,https://www.google.com/maps/place/Aqsa+Masjid/data=!4m7!3m6!1s0x3bda5790d2e6dd2f:0x58f4beb84435e69e!8m2!3d19.8466379!4d75.8761269!16s%2Fg%2F11hzkzt633!19sChIJL93m0pBX2jsRnuY1RLi-9Fg?authuser=0&hl=en&rclk=1,"19.846637899999998,75.8761269"
Masjid,Mosque,"VV48+5V8 Masjid, Maheshwari Twp, Jalna, Maharashtra 431213",Maheshwari Township,VV48+5V8,Jalna,431213,Maharashtra,IN,https://www.google.com/maps/place/Masjid/data=!4m7!3m6!1s0x3bda57c6f9a8b69b:0x271c4c28cd6ce888!8m2!3d19.8554055!4d75.8671879!16s%2Fg%2F11kprlscjj!19sChIJm7ao-cZX2jsRiOhszShMHCc?authuser=0&hl=en&rclk=1,"19.8554055,75.86718789999999"
"Hasniya Masjid, Buhran nagar, jalna",Mosque,"RWQ6+RPV Hasniya Masjid, Buhran nagar, jalna, Kharpudi Rd, near HASNIYA MASJID, Markandey Nagar, BURHAN NAGAR, Jalna, Maharashtra 431213","Markandey Nagar, BURHAN NAGAR","RWQ6+RPV, Kharpudi Rd, near HASNIYA MASJID",Jalna,431213,Maharashtra,IN,"https://www.google.com/maps/place/Hasniya+Masjid,+Buhran+nagar,+jalna/data=!4m7!3m6!1s0x3bda594a3e28fc67:0xaf27211e76746ccb!8m2!3d19.839622!4d75.9117974!16s%2Fg%2F11trgb186b!19sChIJZ_woPkpZ2jsRy2x0dh4hJ68?authuser=0&hl=en&rclk=1","19.839622,75.9117974"
Bhikan masjid Shekh ul hind nagar jalna,Mosque,"VVFR+878 Bhikan masjid Shekh ul hind nagar jalna, New Mondha, Jalna, Maharashtra 431203",New Mondha,VVFR+878,Jalna,431203,Maharashtra,IN,https://www.google.com/maps/place/Bhikan+masjid+Shekh+ul+hind+nagar+jalna/data=!4m7!3m6!1s0x3bda51c206e815d1:0x413011be6134a8f7!8m2!3d19.8735264!4d75.8899072!16s%2Fg%2F11txmr4jbc!19sChIJ0RXoBsJR2jsR96g0Yb4RMEE?authuser=0&hl=en&rclk=1,"19.8735264,75.8899072"
Madina Masjid,Mosque,"Madina Masjid, Chandanzira, Jalna, Maharashtra 431213",Chandanzira,,Jalna,431213,Maharashtra,IN,https://www.google.com/maps/place/Madina+Masjid/data=!4m7!3m6!1s0x3bda51c06330232b:0x23624f8fb0a1da3d!8m2!3d19.858974!4d75.8562445!16s%2Fg%2F11kqwkzmt8!19sChIJKyMwY8BR2jsRPdqhsI9PYiM?authuser=0&hl=en&rclk=1,"19.858974,75.8562445"
Jalebi Masjid,Mosque,"Jalebi Masjid, 3, JES College Rd, Mission Compound, Jalna, Maharashtra 431203",Mission Compound,"3, JES College Rd",Jalna,431203,Maharashtra,IN,https://www.google.com/maps/place/Jalebi+Masjid/data=!4m7!3m6!1s0x3bda59a1285a7b8f:0x5ac2051445649177!8m2!3d19.852508!4d75.906431!16s%2Fg%2F11mw7hndtz!19sChIJj3taKKFZ2jsRd5FkRRQFwlo?authuser=0&hl=en&rclk=1,"19.852508,75.906431"
Masjid e Quraish,Mosque,"RVMJ+VM6 Masjid e Quraish, Kanchan Nagar, Bhagya Nagar, Jalna, Maharashtra 431213","Kanchan Nagar, Bhagya Nagar",RVMJ+VM6,Jalna,,Maharashtra,IN,https://www.google.com/maps/place/Masjid+e+Quraish/data=!4m7!3m6!1s0x3bda5728e8c7c65d:0x24f70baf0736a5f9!8m2!3d19.8346659!4d75.8816345!16s%2Fg%2F11vdzwj3h9!19sChIJXcbH6ChX2jsR-aU2B68L9yQ?authuser=0&hl=en&rclk=1,"19.834665899999997,75.88163449999999"
Masjid e Quraish,Mosque,"RWV2+RQQ Masjid e Quraish, Gawali Pura, Jalna, Maharashtra 431203",Gawali Pura,RWV2+RQQ,Jalna,431203,Maharashtra,IN,https://www.google.com/maps/place/Masjid+e+Quraish/data=!4m7!3m6!1s0x3bda59c1454b754f:0x3be4ef3258df4b96!8m2!3d19.8445978!4d75.901984!16s%2Fg%2F11l2v2xtxp!19sChIJT3VLRcFZ2jsRlkvfWDLv5Ds?authuser=0&hl=en&rclk=1,"19.8445978,75.901984"
Masjid raiway station,Mosque,"RVMR+G9C Masjid raiway station, Jalna, Maharashtra 431213",Jalna,RVMR+G9C,Jalna,431213,Maharashtra,IN,https://www.google.com/maps/place/Masjid+raiway+station/data=!4m7!3m6!1s0x3bda57ddd5a961fd:0x556f3f2b98aee282!8m2!3d19.8337433!4d75.8910668!16s%2Fg%2F11kq2zhvft!19sChIJ_WGp1d1X2jsRguKumCs_b1U?authuser=0&hl=en&rclk=1,"19.8337433,75.89106679999999"
Aqsa Masjid,Mosque,"VV54+HFQ Aqsa Masjid, Chandanzira, Jalna, Maharashtra 431213",Chandanzira,VV54+HFQ,Jalna,431213,Maharashtra,IN,https://www.google.com/maps/place/Aqsa+Masjid/data=!4m7!3m6!1s0x3bda51b1da323e3d:0x9a9421825516fe08!8m2!3d19.858974!4d75.8562445!16s%2Fg%2F11v0gysg_l!19sChIJPT4y2rFR2jsRCP4WVYIhlJo?authuser=0&hl=en&rclk=1,"19.858974,75.8562445"
Abbasiya Masjid,Mosque,"RVQV+XQC Abbasiya Masjid, Railway Station Rd, Bhale Nagari, Laxminarayanpura, Jalna, Maharashtra 431213","Bhale Nagari, Laxminarayanpura","RVQV+XQC, Railway Station Rd",Jalna,431213,Maharashtra,IN,https://www.google.com/maps/place/Abbasiya+Masjid/data=!4m7!3m6!1s0x3bda57ed3fee8c07:0x7deba1ca2b97b047!8m2!3d19.8399477!4d75.8943941!16s%2Fg%2F11ttb8dtwm!19sChIJB4zuP-1X2jsRR7CXK8qh630?authuser=0&hl=en&rclk=1,"19.8399477,75.8943941"
Khureshi masjid,Mosque,"RWR2+CF6 Khureshi masjid, Gandhinagar, Rahman Ganj, Jalna, Maharashtra 431203","Gandhinagar, Rahman Ganj",RWR2+CF6,Jalna,431203,Maharashtra,IN,https://www.google.com/maps/place/Khureshi+masjid/data=!4m7!3m6!1s0x3bda598827966899:0x935a1a13ee5fc3ba!8m2!3d19.8410327!4d75.9011531!16s%2Fg%2F11p5fwhvb3!19sChIJmWiWJ4hZ2jsRusNf7hMaWpM?authuser=0&hl=en&rclk=1,"19.8410327,75.9011531"
RAAJ NOOR MASJID,Mosque,"RWX5+47J RAAJ NOOR MASJID, Bhumika, Mission Compound, Jalna, Maharashtra 431203","Bhumika, Mission Compound",RWX5+47J,Jalna,,Maharashtra,IN,https://www.google.com/maps/place/RAAJ+NOOR+MASJID/data=!4m7!3m6!1s0x3bda590a06d3cb45:0xd80e0970c1b39f9f!8m2!3d19.8478481!4d75.9081399!16s%2Fg%2F11t_z7y6hr!19sChIJRcvTBgpZ2jsRn5-zwXAJDtg?authuser=0&hl=en&rclk=1,"19.8478481,75.9081399"
