name,main_category,address,address_ward,address_street,address_city,address_postal_code,address_state,address_country_code,link,coordinates
Kilakarai Grand Jumma Masjid (Al Masjidul Jamiu),Mosque,"6QJM+HM7 Kilakarai Grand Jumma Masjid (Al Masjidul Jamiu), Keelakarai, Tamil Nadu 623517",,6QJM+HM7,Keelakarai,,Tamil Nadu,IN,https://www.google.com/maps/place/Kilakarai+Grand+Jumma+Masjid+%28Al+Masjidul+Jamiu%29/data=!4m7!3m6!1s0x3b019b065dc01103:0x471c12486661d14b!8m2!3d9.2314231!4d78.7841817!16s%2Fg%2F11bvv4xg47!19sChIJAxHAXQabATsRS9FhZkgSHEc?authuser=0&hl=en&rclk=1,"9.231423099999999,78.78418169999999"
Odaikarai masjid oottaikkrai plllli,Mosque,"Odaikarai masjid oottaikkrai plllli, Pandaga Salai, Keelakarai, Tamil Nadu 623517",,Pandaga Salai,Keelakarai,623517,Tamil Nadu,IN,https://www.google.com/maps/place/Odaikarai+masjid+%E0%AE%93%E0%AE%9F%E0%AF%88%E0%AE%95%E0%AF%8D%E0%AE%95%E0%AE%B0%E0%AF%88+%E0%AE%AA%E0%AE%B3%E0%AF%8D%E0%AE%B3%E0%AE%BF/data=!4m7!3m6!1s0x3b019b05f0e89e7b:0x92e2560f6258c0d!8m2!3d9.2286161!4d78.7821959!16s%2Fg%2F11c59_ff1h!19sChIJe57o8AWbATsRDYwl9mAlLgk?authuser=0&hl=en&rclk=1,"9.2286161,78.78219589999999"
Al Madrasathur Raaliya,Mosque,"Al Madrasathur Raaliya, 11/69,V.S, Vallal Seethakathi Salai, Keelakarai, Tamil Nadu 623517",,"11/69,V.S, Vallal Seethakathi Salai",Keelakarai,623517,Tamil Nadu,IN,https://www.google.com/maps/place/Al+Madrasathur+Raaliya/data=!4m7!3m6!1s0x3b019b05d3c21403:0x8fa86cb6573b4e86!8m2!3d9.2290514!4d78.7840966!16s%2Fg%2F11fz9drh77!19sChIJAxTC0wWbATsRhk47V7ZsqI8?authuser=0&hl=en&rclk=1,"9.2290514,78.7840966"
Masjithur Rahmaan msjd TNTJ Kilakarai,Mosque,"6QMH+GXH Masjithur Rahmaan msjd TNTJ Kilakarai, Thowheeth St, Keelakarai, Tamil Nadu 623517",,"6QMH+GXH, Thowheeth St",Keelakarai,623517,Tamil Nadu,IN,https://www.google.com/maps/place/Masjithur+Rahmaan+%D9%85%D8%B3%D8%AC%D8%AF+TNTJ+Kilakarai%E2%80%AD/data=!4m7!3m6!1s0x3b019b083ee5cc39:0x27849c077ff679bc!8m2!3d9.2338055!4d78.7799695!16s%2Fg%2F1q63ckfs5!19sChIJOczlPgibATsRvHn2fwechCc?authuser=0&hl=en&rclk=1,"9.233805499999999,78.77996949999999"
Masjid Ibrahim,Mosque,"Masjid Ibrahim, Bharat Petroleum, mmk petrol bunk, SH 49, Keelakarai, Tamil Nadu 623517",,"Bharat Petroleum, mmk petrol bunk, SH 49",Keelakarai,623517,Tamil Nadu,IN,https://www.google.com/maps/place/Masjid+Ibrahim/data=!4m7!3m6!1s0x3b019bfd808ac373:0xc9359958e867cf0f!8m2!3d9.2418926!4d78.7846172!16s%2Fg%2F11hpkhy2m3!19sChIJc8OKgP2bATsRD89n6FiZNck?authuser=0&hl=en&rclk=1,"9.2418926,78.7846172"
Jumma Masjid,Mosque,"6QJM+GPR Jumma Masjid, Keelakarai, Tamil Nadu 623517",,6QJM+GPR,Keelakarai,623517,Tamil Nadu,IN,https://www.google.com/maps/place/Jumma+Masjid/data=!4m7!3m6!1s0x3b019b0790312007:0x67b7a9427eb4c757!8m2!3d9.2313647!4d78.7842691!16s%2Fm%2F0z2nm58!19sChIJByAxkAebATsRV8e0fkKpt2c?authuser=0&hl=en&rclk=1,"9.2313647,78.7842691"
Old Jumma Masjid (OJM Street),Mosque,"6QHP+R98 Old Jumma Masjid (OJM Street), Keelakarai, Tamil Nadu 623517",,6QHP+R98,Keelakarai,623517,Tamil Nadu,IN,https://www.google.com/maps/place/Old+Jumma+Masjid+%28OJM+Street%29/data=!4m7!3m6!1s0x3b019b041f9e41c5:0x9231039a86c0018f!8m2!3d9.2295353!4d78.7859434!16s%2Fg%2F11cnx5tlvq!19sChIJxUGeHwSbATsRjwHAhpoDMZI?authuser=0&hl=en&rclk=1,"9.2295353,78.7859434"
"Masjidul Manbaee, North Street",Mosque,"6QMM+5PG Masjidul Manbaee, North Street, Keelakarai, Tamil Nadu 623517",,6QMM+5PG,Keelakarai,623517,Tamil Nadu,IN,"https://www.google.com/maps/place/Masjidul+Manbaee,+North+Street/data=!4m7!3m6!1s0x3b019b07078e4565:0x5044e4478795d2fb!8m2!3d9.232928!4d78.7843295!16s%2Fg%2F1tfq3283!19sChIJZUWOBwebATsR-9KVh0fkRFA?authuser=0&hl=en&rclk=1","9.232928,78.7843295"
East Street Masjid(EMJP),Mosque,"6QJP+QVC East Street Masjid(EMJP), Keza(East) St, Keelakarai, Tamil Nadu 623517",,"6QJP+QVC, Keza(East) St",Keelakarai,623517,Tamil Nadu,IN,https://www.google.com/maps/place/East+Street+Masjid%28EMJP%29/data=!4m7!3m6!1s0x3b019b06d2fd654d:0xed061935dd4fe530!8m2!3d9.2319496!4d78.7871466!16s%2Fg%2F11c0pzv3xy!19sChIJTWX90gabATsRMOVP3TUZBu0?authuser=0&hl=en&rclk=1,"9.2319496,78.7871466"
Manal medu masjid,Mosque,"6QPJ+QV5 Manal medu masjid, North St, Keelakarai, Tamil Nadu 623517",,"6QPJ+QV5, North St",Keelakarai,623517,Tamil Nadu,IN,https://www.google.com/maps/place/Manal+medu+masjid/data=!4m7!3m6!1s0x3b019ba871c9c739:0x1a3d90468f91d0a2!8m2!3d9.2368816!4d78.7822467!16s%2Fg%2F11gcfs_g1g!19sChIJOcfJcaibATsRotCRj0aQPRo?authuser=0&hl=en&rclk=1,"9.2368816,78.7822467"
Keelakkarai Sadaqathullah Darga And jinn Masjid,Mosque,"6QJM+FQX Keelakkarai Sadaqathullah Darga And jinn Masjid, Keelakarai, Tamil Nadu 623517",,6QJM+FQX,Keelakarai,,Tamil Nadu,IN,https://www.google.com/maps/place/Keelakkarai+Sadaqathullah+Darga+And+jinn+Masjid/data=!4m7!3m6!1s0x3b019bb96397a921:0x73aa62ab1807783!8m2!3d9.2312258!4d78.7844722!16s%2Fg%2F11fm9rx5qb!19sChIJIamXY7mbATsRg3eAsSqmOgc?authuser=0&hl=en&rclk=1,"9.231225799999999,78.7844722"
Kannadi Vappa Dargah,Mosque,"6QGG+XRM Kannadi Vappa Dargah, Keelakarai, Tamil Nadu 623517",,6QGG+XRM,Keelakarai,623517,Tamil Nadu,IN,https://www.google.com/maps/place/Kannadi+Vappa+Dargah/data=!4m7!3m6!1s0x3b019b0e920594bf:0x74dc83e0dc725cd!8m2!3d9.2274505!4d78.77706!16s%2Fg%2F11dx9w_nwz!19sChIJv5QFkg6bATsRzSXHDT7ITQc?authuser=0&hl=en&rclk=1,"9.2274505,78.77705999999999"
Masjid Al Aqsa,Place of worship,"6QMJ+M72 Masjid Al Aqsa, New E St, Keelakarai, Tamil Nadu 623517",,"6QMJ+M72, New E St",Keelakarai,623517,Tamil Nadu,IN,https://www.google.com/maps/place/Masjid+Al+Aqsa/data=!4m7!3m6!1s0x3b019b0810dfa809:0xe5160a911de049e8!8m2!3d9.2341411!4d78.7806372!16s%2Fg%2F11bv38c78d!19sChIJCajfEAibATsR6EngHZEKFuU?authuser=0&hl=en&rclk=1,"9.2341411,78.7806372"
Kadakarai Palli,Mosque,"6QHP+F2M Kadakarai Palli, Keelakarai, Tamil Nadu 623517",,6QHP+F2M,Keelakarai,623517,Tamil Nadu,IN,https://www.google.com/maps/place/Kadakarai+Palli/data=!4m7!3m6!1s0x3b019b0430bf7609:0xf37ba6beb585c2f4!8m2!3d9.2287206!4d78.7850502!16s%2Fg%2F11clvt58h2!19sChIJCXa_MASbATsR9MKFtb6me_M?authuser=0&hl=en&rclk=1,"9.228720599999999,78.7850502"
Keelakarai nagara jama athul ulama sabai,Mosque,"6QQJ+H4M Keelakarai nagara jama athul ulama sabai, Keelakarai, Tamil Nadu 623517",,6QQJ+H4M,Keelakarai,623517,Tamil Nadu,IN,https://www.google.com/maps/place/Keelakarai+nagara+jama+athul+ulama+sabai/data=!4m7!3m6!1s0x3b019b74f1e9799f:0xfeab94001a837dcd!8m2!3d9.2389564!4d78.7802986!16s%2Fg%2F11rsfbfd59!19sChIJn3np8XSbATsRzX2DGgCUq_4?authuser=0&hl=en&rclk=1,"9.2389564,78.7802986"
Al Madharasathul Mohammadhiya (NASA),Mosque,"6QMM+CJH Al Madharasathul Mohammadhiya (NASA), Keelakarai, Tamil Nadu 623517",,6QMM+CJH,Keelakarai,623517,Tamil Nadu,IN,https://www.google.com/maps/place/Al+Madharasathul+Mohammadhiya+%28NASA%29/data=!4m7!3m6!1s0x3b019b07a22a94b9:0xbfb6433feaaa862c!8m2!3d9.2335665!4d78.7840954!16s%2Fg%2F11dxqdk9bq!19sChIJuZQqogebATsRLIaq6j9Dtr8?authuser=0&hl=en&rclk=1,"9.2335665,78.7840954"
MasjidThowheed TNTJ KLK WEST,Mosque,"6QJJ+2G4 MasjidThowheed TNTJ KLK WEST, Keelakarai, Tamil Nadu 623517",,6QJJ+2G4,Keelakarai,,Tamil Nadu,IN,https://www.google.com/maps/place/MasjidThowheed+TNTJ+KLK+WEST/data=!4m7!3m6!1s0x3b019b9057961455:0x43f3c4902d806ac4!8m2!3d9.2300008!4d78.7813355!16s%2Fg%2F11f669ttb2!19sChIJVRSWV5CbATsRxGqALZDE80M?authuser=0&hl=en&rclk=1,"9.2300008,78.7813355"
sadkathullah kahiri masjid (masjidul jamia),Mosque,"6QJM+HQ8 sadkathullah kahiri masjid (masjidul jamia), Keelakarai, Tamil Nadu 623517",,6QJM+HQ8,Keelakarai,,Tamil Nadu,IN,https://www.google.com/maps/place/sadkathullah+kahiri+masjid+%28masjidul+jamia%29/data=!4m7!3m6!1s0x3b019b0658a8b207:0xda47f9a2e5e52429!8m2!3d9.2314248!4d78.7844407!16s%2Fg%2F11hcdyy9zp!19sChIJB7KoWAabATsRKSTl5aL5R9o?authuser=0&hl=en&rclk=1,"9.2314248,78.78444069999999"
Mohaideen masjid,Mosque,"6QJV+C84 Mohaideen masjid, Keelakarai, Tamil Nadu 623517",,6QJV+C84,Keelakarai,,Tamil Nadu,IN,https://www.google.com/maps/place/Mohaideen+masjid/data=!4m7!3m6!1s0x3b019b1b52bda74f:0xe191a4fd727b8243!8m2!3d9.2310073!4d78.793335!16s%2Fg%2F11f9zkyb70!19sChIJT6e9UhubATsRQ4J7cv2kkeE?authuser=0&hl=en&rclk=1,"9.2310073,78.793335"
MinHaji Masjid,Mosque,"6QHM+WX4 MinHaji Masjid, Keelakarai, Tamil Nadu 623517",,6QHM+WX4,Keelakarai,623517,Tamil Nadu,IN,https://www.google.com/maps/place/MinHaji+Masjid/data=!4m7!3m6!1s0x3b019b068242acc7:0x74eae3974587d08d!8m2!3d9.2297502!4d78.78494!16s%2Fg%2F11cn6sl2xm!19sChIJx6xCggabATsRjdCHRZfj6nQ?authuser=0&hl=en&rclk=1,"9.2297502,78.78493999999999"
Masjidun noor (TNTJ EAST),Mosque,"Masjidun noor (TNTJ EAST), New Bus Stand, Keelakarai, Tamil Nadu 623517",,New Bus Stand,Keelakarai,623517,Tamil Nadu,IN,https://www.google.com/maps/place/Masjidun+noor+%28TNTJ+EAST%29/data=!4m7!3m6!1s0x3b019bb65311407b:0xa3b7119f3b36abc!8m2!3d9.2336834!4d78.7876113!16s%2Fg%2F11j2cgy72d!19sChIJe0ARU7abATsRvGqz8xlxOwo?authuser=0&hl=en&rclk=1,"9.2336834,78.7876113"
Al Matharasathul Firthouws,Mosque,"6QHM+W8H Al Matharasathul Firthouws, Keelakarai, Tamil Nadu 623517",,6QHM+W8H,Keelakarai,623517,Tamil Nadu,IN,https://www.google.com/maps/place/Al+Matharasathul+Firthouws/data=!4m7!3m6!1s0x3b019b05d7c5c38d:0xcc4b4215273f2c35!8m2!3d9.2298203!4d78.7833508!16s%2Fg%2F11c1vql1rq!19sChIJjcPF1wWbATsRNSw_JxVCS8w?authuser=0&hl=en&rclk=1,"9.2298203,78.7833508"
Kilakara North Mosque,Mosque,"6QWP+84W Kilakara North Mosque, Keelakarai, Tamil Nadu 623517",,6QWP+84W,Keelakarai,623517,Tamil Nadu,IN,https://www.google.com/maps/place/Kilakara+North+Mosque/data=!4m7!3m6!1s0x3b019b58ede5f9ad:0x825ea160f27a4e4b!8m2!3d9.2458681!4d78.7853405!16s%2Fg%2F11ghfl7hnc!19sChIJrfnl7VibATsRS0568mChXoI?authuser=0&hl=en&rclk=1,"9.2458681,78.78534049999999"
Bakiyathul shaliha women masjid,Mosque,"6QHJ+RVW Bakiyathul shaliha women masjid, Chinna Kadai Theru, Keelakarai, Tamil Nadu 623517",,"6QHJ+RVW, Chinna Kadai Theru",Keelakarai,623517,Tamil Nadu,IN,https://www.google.com/maps/place/Bakiyathul+shaliha+women+masjid/data=!4m7!3m6!1s0x3b019bbe462cffe1:0x4ed258a0b74c0744!8m2!3d9.2296079!4d78.7822106!16s%2Fg%2F11j5knb6z5!19sChIJ4f8sRr6bATsRRAdMt6BY0k4?authuser=0&hl=en&rclk=1,"9.2296079,78.7822106"
Makkathuamma womens mosque,Mosque,"6QJJ+WXF Makkathuamma womens mosque, Keelakarai, Tamil Nadu 623517",,6QJJ+WXF,Keelakarai,,Tamil Nadu,IN,https://www.google.com/maps/place/Makkathuamma+womens+mosque/data=!4m7!3m6!1s0x3b019b5ae74e4aad:0x84a093db1849b8b7!8m2!3d9.2323052!4d78.7824284!16s%2Fg%2F11fkl8ymnk!19sChIJrUpO51qbATsRt7hJGNuToIQ?authuser=0&hl=en&rclk=1,"9.232305199999999,78.7824284"
msjit putuplllli,Mosque,"6QHJ+92 msjit putuplllli, Keelakarai, Tamil Nadu 623517",,6QHJ+92,Keelakarai,,Tamil Nadu,IN,https://www.google.com/maps/place/%E0%AE%AE%E0%AE%B8%E0%AF%8D%E0%AE%9C%E0%AE%BF%E0%AE%A4%E0%AF%8D+%E0%AE%AA%E0%AF%81%E0%AE%A4%E0%AF%81%E0%AE%AA%E0%AE%B3%E0%AF%8D%E0%AE%B3%E0%AE%BF/data=!4m7!3m6!1s0x3b019b44c90f99db:0xcb5f2edb0e1f0fb7!8m2!3d9.228397!4d78.7800109!16s%2Fg%2F11t1lhbbrf!19sChIJ25kPyUSbATsRtw8fDtsuX8s?authuser=0&hl=en&rclk=1,"9.228397,78.7800109"
Keelakkara,Mosque,"6QJM+GRQ Keelakkara, Vallal Seethakathi Salai, Keelakarai, Tamil Nadu 623517",,"6QJM+GRQ, Vallal Seethakathi Salai",Keelakarai,623517,Tamil Nadu,IN,https://www.google.com/maps/place/Keelakkara/data=!4m7!3m6!1s0x3b019bcc2f68e3e1:0x2d07f0136dc16168!8m2!3d9.2313344!4d78.7846172!16s%2Fg%2F11pl7nmq04!19sChIJ4eNoL8ybATsRaGHBbRPwBy0?authuser=0&hl=en&rclk=1,"9.2313344,78.7846172"
Masjid Pudhupalli,Mosque,"6QHH+CXG Masjid Pudhupalli, Keelakarai, Tamil Nadu 623517",,6QHH+CXG,Keelakarai,623517,Tamil Nadu,IN,https://www.google.com/maps/place/Masjid+Pudhupalli/data=!4m7!3m6!1s0x3b019b0f39400001:0xc15fc95a8eb7a8a6!8m2!3d9.2285739!4d78.7799398!16s%2Fg%2F11txmzf3hb!19sChIJAQBAOQ-bATsRpqi3jlrJX8E?authuser=0&hl=en&rclk=1,"9.228573899999999,78.7799398"
Hussain Hajiyar masjid,Mosque,"Hussain Hajiyar masjid, 500 flat, Hussain Hajiyar Nagr, Keelakarai, Tamil Nadu",,"500 flat, Hussain Hajiyar Nagr",Keelakarai,,Tamil Nadu,IN,https://www.google.com/maps/place/Hussain+Hajiyar+masjid/data=!4m7!3m6!1s0x3b019b925a32718f:0x569c6a53a5678460!8m2!3d9.2285199!4d78.7755903!16s%2Fg%2F11fqsbgwjn!19sChIJj3EyWpKbATsRYIRnpVNqnFY?authuser=0&hl=en&rclk=1,"9.2285199,78.77559029999999"
"TNTJ, North (kilakarai), Masjid-ur-Raheem.",Mosque,"6QPJ+7V5 TNTJ, North (kilakarai), Masjid-ur-Raheem., N St, Keelakarai, Tamil Nadu 623517",,"6QPJ+7V5, N St",Keelakarai,623517,Tamil Nadu,IN,"https://www.google.com/maps/place/TNTJ,+North+%28kilakarai%29,+Masjid-ur-Raheem./data=!4m7!3m6!1s0x3b019b3d799ab56f:0x761e345e186aa2e1!8m2!3d9.2356403!4d78.782246!16s%2Fg%2F11sk6mjj63!19sChIJb7WaeT2bATsR4aJqGF40HnY?authuser=0&hl=en&rclk=1","9.2356403,78.782246"
Abubakkar Siddique masque,Mosque,"6QJH+39 Abubakkar Siddique masque, Keelakarai, Tamil Nadu 623517",,6QJH+39,Keelakarai,623517,Tamil Nadu,IN,https://www.google.com/maps/place/Abubakkar+Siddique+masque/data=!4m7!3m6!1s0x3b019bfe968be873:0xf66ac878108d09ad!8m2!3d9.2304233!4d78.778105!16s%2Fg%2F11jyk94dqc!19sChIJc-iLlv6bATsRrQmNEHjIavY?authuser=0&hl=en&rclk=1,"9.2304233,78.778105"
Masjid AL-FALAH (Nadutheru Jumma Masjid),Mosque,"Masjid AL-FALAH (Nadutheru Jumma Masjid), NH32, Keelakarai, Tamil Nadu 623517",,NH32,Keelakarai,623517,Tamil Nadu,IN,https://www.google.com/maps/place/Masjid+AL-FALAH+%28Nadutheru+Jumma+Masjid%29/data=!4m7!3m6!1s0x3b019b67854ff93d:0x2f273c9345282274!8m2!3d9.2462073!4d78.7869005!16s%2Fg%2F11rj16xg2q!19sChIJPflPhWebATsRdCIoRZM8Jy8?authuser=0&hl=en&rclk=1,"9.2462073,78.7869005"
Masjid Kulangarai Appa Palli,Mosque,"6QJQ+F8J Masjid Kulangarai Appa Palli, Keelakarai, Tamil Nadu 623517",,6QJQ+F8J,Keelakarai,623517,Tamil Nadu,IN,https://www.google.com/maps/place/Masjid+Kulangarai+Appa+Palli/data=!4m7!3m6!1s0x3b019b0138bfffff:0x2b5e9ea126ff3758!8m2!3d9.2312204!4d78.7882614!16s%2Fg%2F11kj3f9dyk!19sChIJ__-_OAGbATsRWDf_JqGeXis?authuser=0&hl=en&rclk=1,"9.2312204,78.7882614"
INTJ Mosque,Mosque,"6QJQ+MP4 INTJ Mosque, New E St, Keelakarai, Tamil Nadu 623517",,"6QJQ+MP4, New E St",Keelakarai,623517,Tamil Nadu,IN,https://www.google.com/maps/place/INTJ+Mosque/data=!4m7!3m6!1s0x3b019b60431bef49:0x47bced0a76972ba5!8m2!3d9.2316447!4d78.7893402!16s%2Fg%2F11s4wy77vf!19sChIJSe8bQ2CbATsRpSuXdgrtvEc?authuser=0&hl=en&rclk=1,"9.2316447,78.7893402"
Masjid Suhada,Mosque,"6QGJ+RPG Masjid Suhada, Keelakarai, Tamil Nadu 623517",,6QGJ+RPG,Keelakarai,,Tamil Nadu,IN,https://www.google.com/maps/place/Masjid+Suhada/data=!4m7!3m6!1s0x3b019bacabdfe13d:0xf4236dd8e6436a8!8m2!3d9.2270568!4d78.7818144!16s%2Fg%2F11l2_sqshf!19sChIJPeHfq6ybATsRqDZkjt02Qg8?authuser=0&hl=en&rclk=1,"9.2270568,78.7818144"
Masjid pearl Montessori,Mosque,"6QRJ+QJ8 Masjid pearl Montessori, Keelakarai, Tamil Nadu 623517",,6QRJ+QJ8,Keelakarai,,Tamil Nadu,IN,https://www.google.com/maps/place/Masjid+pearl+Montessori/data=!4m7!3m6!1s0x3b019b33fcab6767:0x37e5e3a17f7e11c7!8m2!3d9.2419228!4d78.7815766!16s%2Fg%2F11fsngsj27!19sChIJZ2er_DObATsRxxF-f6Hj5Tc?authuser=0&hl=en&rclk=1,"9.2419228,78.7815766"
Al madrasathur niswanil furqan,Mosque,"6QHM+QQR Al madrasathur niswanil furqan, Vallal Seethakathi Salai, Keelakarai, Tamil Nadu 623517",,"6QHM+QQR, Vallal Seethakathi Salai",Keelakarai,623517,Tamil Nadu,IN,https://www.google.com/maps/place/Al+madrasathur+niswanil+furqan/data=!4m7!3m6!1s0x3b019bb5152e6073:0x66e3f75ece126e45!8m2!3d9.2294971!4d78.784396!16s%2Fg%2F11j12gsy7s!19sChIJc2AuFbWbATsRRW4Szl7342Y?authuser=0&hl=en&rclk=1,"9.2294971,78.784396"
Salai Street Ladies Masjid & 18 Shuhada Ladies Arabic College,Mosque,"6QHM+F4W Salai Street Ladies Masjid & 18 Shuhada Ladies Arabic College, Keelakarai, Tamil Nadu 623517",,6QHM+F4W,Keelakarai,,Tamil Nadu,IN,https://www.google.com/maps/place/Salai+Street+Ladies+Masjid+%26+18+Shuhada+Ladies+Arabic+College/data=!4m7!3m6!1s0x3b019bc9a6d50553:0x833ba455e2a76484!8m2!3d9.228734!4d78.7828372!16s%2Fg%2F11rxpmcjsk!19sChIJUwXVpsmbATsRhGSn4lWkO4M?authuser=0&hl=en&rclk=1,"9.228734,78.7828372"
Dharul Ikram women's mosque,Mosque,"6QJJ+7HH Dharul Ikram women's mosque, Keelakarai, Tamil Nadu 623517",,6QJJ+7HH,Keelakarai,,Tamil Nadu,IN,https://www.google.com/maps/place/Dharul+Ikram+women%27s+mosque/data=!4m7!3m6!1s0x3b019b81bb432119:0xa3816051e3ac3fda!8m2!3d9.2306881!4d78.7814795!16s%2Fg%2F11js9c_zbd!19sChIJGSFDu4GbATsR2j-s41FggaM?authuser=0&hl=en&rclk=1,"9.2306881,78.7814795"
Al Madrasathul Azhariyya,Mosque,"6QJJ+6VM Al Madrasathul Azhariyya, Chinna Kadai Theru, Keelakarai, Tamil Nadu 623517",,"6QJJ+6VM, Chinna Kadai Theru",Keelakarai,623517,Tamil Nadu,IN,https://www.google.com/maps/place/Al+Madrasathul+Azhariyya/data=!4m7!3m6!1s0x3b019bcb3bbaecf3:0x97597a59d6f9119b!8m2!3d9.2305884!4d78.7821663!16s%2Fg%2F11fs_85r_4!19sChIJ8-y6O8ubATsRmxH51ll6WZc?authuser=0&hl=en&rclk=1,"9.2305884,78.7821663"
Masjidhul Hussainiya,Mosque,"6QHF+G48 Masjidhul Hussainiya, Keelakarai, Tamil Nadu 623517",,6QHF+G48,Keelakarai,623517,Tamil Nadu,IN,https://www.google.com/maps/place/Masjidhul+Hussainiya/data=!4m7!3m6!1s0x3b019b2dc5e35847:0x3bdd091a223d7dc3!8m2!3d9.2287839!4d78.772834!16s%2Fg%2F11p04qnxm4!19sChIJR1jjxS2bATsRw309IhoJ3Ts?authuser=0&hl=en&rclk=1,"9.2287839,78.772834"
apuupkkr cittik pllllivaacl,Mosque,"6QJH+39 apuupkkr cittik pllllivaacl, Keelakarai, Tamil Nadu 623517",,6QJH+39,Keelakarai,623517,Tamil Nadu,IN,https://www.google.com/maps/place/%E0%AE%85%E0%AE%AA%E0%AF%82%E0%AE%AA%E0%AE%95%E0%AF%8D%E0%AE%95%E0%AE%B0%E0%AF%8D+%E0%AE%9A%E0%AE%BF%E0%AE%A4%E0%AF%8D%E0%AE%A4%E0%AE%BF%E0%AE%95%E0%AF%8D+%E0%AE%AA%E0%AE%B3%E0%AF%8D%E0%AE%B3%E0%AE%BF%E0%AE%B5%E0%AE%BE%E0%AE%9A%E0%AE%B2%E0%AF%8D/data=!4m7!3m6!1s0x3b019b9b1cb01ca9:0x3ce87a8b9df0e352!8m2!3d9.2304816!4d78.7781216!16s%2Fg%2F11s9hf2lz9!19sChIJqRywHJubATsRUuPwnYt66Dw?authuser=0&hl=en&rclk=1,"9.2304816,78.77812159999999"
Hathija Raliallahanho Mosque,Mosque,"Hathija Raliallahanho Mosque, 15, New E St, Keelakarai, Tamil Nadu 623517",,"15, New E St",Keelakarai,623517,Tamil Nadu,IN,https://www.google.com/maps/place/Hathija+Raliallahanho+Mosque/data=!4m7!3m6!1s0x3b019b5dc3c06f41:0xf61c994eb7e664fb!8m2!3d9.2317499!4d78.7944064!16s%2Fg%2F11g0khqfft!19sChIJQW_Aw12bATsR-2Tmt06ZHPY?authuser=0&hl=en&rclk=1,"9.231749899999999,78.7944064"
Masjidul mahmoor,Mosque,"6QPV+6FC Masjidul mahmoor, Keelakarai, Tamil Nadu 623517",,6QPV+6FC,Keelakarai,623517,Tamil Nadu,IN,https://www.google.com/maps/place/Masjidul+mahmoor/data=!4m7!3m6!1s0x3b019b89c56ddc31:0x2194f75dfa095cbc!8m2!3d9.2346705!4d78.7938467!16s%2Fg%2F11rvdc947r!19sChIJMdxtxYmbATsRvFwJ-l33lCE?authuser=0&hl=en&rclk=1,"9.2346705,78.7938467"
