name,main_category,address,address_ward,address_street,address_city,address_postal_code,address_state,address_country_code,link,coordinates
Choti masjid,Mosque,"Choti masjid, Churihar tola Shekhauna math, Bettiah, Bihar 845438",,Churihar tola Shekhauna math,"Bettiah, Ahwar Majhariya",845438,Bihar,IN,https://www.google.com/maps/place/Choti+masjid/data=!4m7!3m6!1s0x39936b6fc8dbd1a7:0x80322a8dc4096ac1!8m2!3d26.7533702!4d84.5837234!16s%2Fg%2F11f6676xr8!19sChIJp9HbyG9rkzkRwWoJxI0qMoA?authuser=0&hl=en&rclk=1,"26.7533702,84.5837234"
Grand Mosque,Mosque,"RG38+3QQ Grand Mosque, Kamalnath Nagar, Bettiah, Bihar 845438",Kamalnath Nagar,RG38+3QQ,Bettiah,845438,Bihar,IN,https://www.google.com/maps/place/Grand+Mosque/data=!4m7!3m6!1s0x39936eb155555555:0xc98773e7fee7eb9a!8m2!3d26.8027139!4d84.5169712!16s%2Fg%2F11c7t2qkll!19sChIJVVVVVbFukzkRmuvn_udzh8k?authuser=0&hl=en&rclk=1,"26.8027139,84.5169712"
"Jangi Masjid, Bettiah jngy msjd, byty",Mosque,"QGX2+RH3 Jangi Masjid, Bettiah jngy msjd, byty, Meena Bazar Rd, Kamalnath Nagar, Bettiah, Bihar 845438",Kamalnath Nagar,"QGX2+RH3, Meena Bazar Rd",Bettiah,845438,Bihar,IN,"https://www.google.com/maps/place/Jangi+Masjid,+Bettiah+%D8%AC%D9%86%DA%AF%DB%8C+%D9%85%D8%B3%D8%AC%D8%AF%D8%8C+%D8%A8%DB%8C%D8%AA%DB%8C%D8%A7%E2%80%AD/data=!4m7!3m6!1s0x39936ebd80f80245:0x82cf732b0a27b2bf!8m2!3d26.7995222!4d84.5014219!16s%2Fg%2F11g8wwd3s3!19sChIJRQL4gL1ukzkRv7InCitzz4I?authuser=0&hl=en&rclk=1","26.7995222,84.5014219"
Chhawani Masjid chhw'ny msjd,Mosque,"RG82+RF9 Chhawani Masjid chhw'ny msjd, Bagaha Dhala Rd, Noor Colony, Chawani, Bettiah, Bihar 845438","Noor Colony, Chawani","RG82+RF9, Bagaha Dhala Rd",Bettiah,845438,Bihar,IN,https://www.google.com/maps/place/Chhawani+Masjid+%DA%86%DA%BE%D8%A7%D8%A4%D9%86%DB%8C+%D9%85%D8%B3%D8%AC%D8%AF%E2%80%AD/data=!4m7!3m6!1s0x39936ee82a9db061:0xfd87568a294e6d54!8m2!3d26.8170271!4d84.5012201!16s%2Fg%2F1hm6n34z7!19sChIJYbCdKuhukzkRVG1OKYpWh_0?authuser=0&hl=en&rclk=1,"26.817027099999997,84.5012201"
Dargah Masjid,Mosque,"Dargah Masjid, Dargah Mohalla, Kamalnath Nagar, Bettiah, Bihar 845438",Kamalnath Nagar,Dargah Mohalla,Bettiah,845438,Bihar,IN,https://www.google.com/maps/place/Dargah+Masjid/data=!4m7!3m6!1s0x39936ebeb7721061:0x2dd99c41fc29478c!8m2!3d26.8037405!4d84.5058767!16s%2Fg%2F11g7ksqhfb!19sChIJYRByt75ukzkRjEcp_EGc2S0?authuser=0&hl=en&rclk=1,"26.8037405,84.5058767"
Akbar Nagar Mosque khbr ngr msjd,Mosque,"Akbar Nagar Mosque khbr ngr msjd, Akbar Nagar, Banuchapar, Tola Mansaraut, Bihar 845438",Banuchapar,Akbar Nagar,Tola Mansaraut,845438,Bihar,IN,https://www.google.com/maps/place/Akbar+Nagar+Mosque+%D8%A7%DA%A9%D8%A8%D8%B1+%D9%86%DA%AF%D8%B1+%D9%85%D8%B3%D8%AC%D8%AF%E2%80%AD/data=!4m7!3m6!1s0x3993694433acd6db:0x277b2ade986bca7e!8m2!3d26.8026153!4d84.5355557!16s%2Fg%2F11cn7s__kg!19sChIJ29asM0RpkzkRfsprmN4qeyc?authuser=0&hl=en&rclk=1,"26.8026153,84.53555569999999"
Ujjain Tola MASJID,Mosque,"RG26+GV6 Ujjain Tola MASJID, Kamalnath Nagar, Ujjain Tola, Bettiah, Bihar 845438",Kamalnath Nagar,RG26+GV6,"Ujjain Tola, Bettiah",,Bihar,IN,https://www.google.com/maps/place/Ujjain+Tola+MASJID/data=!4m7!3m6!1s0x39936fec701cbe4d:0x69e20557fd0d11ee!8m2!3d26.8012875!4d84.5121406!16s%2Fg%2F11g1p2n9rh!19sChIJTb4ccOxvkzkR7hEN_VcF4mk?authuser=0&hl=en&rclk=1,"26.801287499999997,84.5121406"
Baswariya Jama Masjid,Mosque,"QGR4+G2P Baswariya Jama Masjid, Baswaria Main Rd, Baswaria, Bettiah, Bihar 845438",Baswaria,"QGR4+G2P, Baswaria Main Rd",Bettiah,845438,Bihar,IN,https://www.google.com/maps/place/Baswariya+Jama+Masjid/data=!4m7!3m6!1s0x39936ea3e9bb5391:0xb66c41cedfd8defb!8m2!3d26.7913429!4d84.5050843!16s%2Fg%2F1pv043nzz!19sChIJkVO76aNukzkR-97Y385BbLY?authuser=0&hl=en&rclk=1,"26.7913429,84.5050843"
Naya Tola Masjid,Place of worship,"RF2V+C3P Naya Tola Masjid, Sant Ghat Rd, Naya Tola Colony, Kali Bagh Colony, Bettiah, Bihar 845438","Naya Tola Colony, Kali Bagh Colony","RF2V+C3P, Sant Ghat Rd",Bettiah,845438,Bihar,IN,https://www.google.com/maps/place/Naya+Tola+Masjid/data=!4m7!3m6!1s0x39936e919072a8c3:0x98961f6c776122ed!8m2!3d26.8011!4d84.4927036!16s%2Fg%2F11bw708r95!19sChIJw6hykJFukzkR7SJhd2wflpg?authuser=0&hl=en&rclk=1,"26.801099999999998,84.4927036"
New Masjid Kali Bagh Bettiah,Religious destination,"RF3W+5H5 New Masjid Kali Bagh Bettiah, Kali Bagh Colony, Bettiah, Bihar 845438",Kali Bagh Colony,RF3W+5H5,Bettiah,845438,Bihar,IN,https://www.google.com/maps/place/New+Masjid+Kali+Bagh+Bettiah/data=!4m7!3m6!1s0x39936e940f066061:0x2f64364616c1564c!8m2!3d26.8028939!4d84.4964746!16s%2Fg%2F11f33237zw!19sChIJYWAGD5RukzkRTFbBFkY2ZC8?authuser=0&hl=en&rclk=1,"26.802893899999997,84.4964746"
YATEEM KHANA BADARIA,Orphanage,"RF2W+QF9 YATEEM KHANA BADARIA, Kali Bagh Colony, Bettiah, Bihar 845438",Kali Bagh Colony,RF2W+QF9,Bettiah,845438,Bihar,IN,https://www.google.com/maps/place/YATEEM+KHANA+BADARIA/data=!4m7!3m6!1s0x39936f59cd4a9dbb:0xb0c9c835d860d187!8m2!3d26.8019024!4d84.496219!16s%2Fg%2F11f63709xd!19sChIJu51KzVlvkzkRh9Fg2DXIybA?authuser=0&hl=en&rclk=1,"26.8019024,84.496219"
JAMA MASJID,Mosque,"RG28+R55 JAMA MASJID, MAHAWAT TOLI, Bettiah, Bihar 845438",Kamalnath Nagar,"RG28+R55, MAHAWAT TOLI",Bettiah,845438,Bihar,IN,https://www.google.com/maps/place/JAMA+MASJID/data=!4m7!3m6!1s0x39936eb1377dd487:0xab7affe00ae6d0fb!8m2!3d26.8020093!4d84.5154801!16s%2Fg%2F11fxwv1kg7!19sChIJh9R9N7FukzkR-9DmCuD_eqs?authuser=0&hl=en&rclk=1,"26.802009299999998,84.51548009999999"
"Amna Masjid, Chhawani",Mosque,"RF8X+8X8 Amna Masjid, Chhawani, Bettiah-Bishramgarh-Nawalpur Rd, Chawani, Tola Chhawni, Bettiah, Bihar 845438",Chawani,"RF8X+8X8, Bettiah-Bishramgarh-Nawalpur Rd","Tola Chhawni, Bettiah",845438,Bihar,IN,"https://www.google.com/maps/place/Amna+Masjid,+Chhawani/data=!4m7!3m6!1s0x39936ee9dd1d65e1:0x772b5ca2e7050d5!8m2!3d26.815777!4d84.4999618!16s%2Fg%2F11b8v9mxfk!19sChIJ4WUd3elukzkR1VBwLsq1cgc?authuser=0&hl=en&rclk=1","26.815776999999997,84.4999618"
Manuwa Pool Masjidmnw pwl msjd,Mosque,"RFFP+JGW Manuwa Pool Masjidmnw pwl msjd, Tunia Bishunpur, Bihar 845438",,RFFP+JGW,Tunia Bishunpur,845438,Bihar,IN,https://www.google.com/maps/place/Manuwa+Pool+Masjid%D9%85%D9%86%D9%88%D8%A7+%D9%BE%D9%88%D9%84+%D9%85%D8%B3%D8%AC%D8%AF%E2%80%AD/data=!4m7!3m6!1s0x39936efbeee0d94f:0x8fbf53c8a0a8b60f!8m2!3d26.8241085!4d84.4863435!16s%2Fg%2F11c6rwtjqv!19sChIJT9ng7vtukzkRD7aooMhTv48?authuser=0&hl=en&rclk=1,"26.824108499999998,84.48634349999999"
masjid abubakar siddiqe,Mosque,"RF3V+F5H masjid abubakar siddiqe, mohammad nagar, Bettiah, Bihar","Kishun Bagh Colony, Kali Bagh Colony","RF3V+F5H, mohammad nagar",Bettiah,,Bihar,IN,https://www.google.com/maps/place/masjid+abubakar+siddiqe/data=!4m7!3m6!1s0x39936e92494a618f:0x9b5d575850f6bdf0!8m2!3d26.8036986!4d84.4929699!16s%2Fg%2F11g7ybyrrg!19sChIJj2FKSZJukzkR8L32UFhXXZs?authuser=0&hl=en&rclk=1,"26.803698599999997,84.49296989999999"
"jm`drttwlh, msjd, bty",Mosque,"RF6R+PH8 jm`drttwlh, msjd, bty, Unnamed Road, Jamadar Tola, Bettiah, Bihar 845438",Jamadar Tola,"RF6R+PH8, Unnamed Road",Bettiah,845438,Bihar,IN,https://www.google.com/maps/place/%D8%AC%D9%85%D8%B9%D8%AF%D8%A7%D8%B1%D9%B9%D9%88%D9%84%DB%81%D8%8C+%D9%85%D8%B3%D8%AC%D8%AF%D8%8C+%D8%A8%D8%AA%DB%8C%D8%A7%E2%80%AD/data=!4m7!3m6!1s0x39936eed9211dc2f:0xe744b86a86a0043!8m2!3d26.8117886!4d84.4914511!16s%2Fg%2F11f00n5fyc!19sChIJL9wRku1ukzkRQwBqqIZLdA4?authuser=0&hl=en&rclk=1,"26.8117886,84.49145109999999"
Beldari Chhoti Masjid,Mosque,"QHR2+XQH Beldari Chhoti Masjid, Barwat Pasrain, Bihar 845438",,QHR2+XQH,Barwat Pasrain,845438,Bihar,IN,https://www.google.com/maps/place/Beldari+Chhoti+Masjid/data=!4m7!3m6!1s0x3993696361dc28e7:0xd7322dbb97f3e328!8m2!3d26.7924311!4d84.551991!16s%2Fg%2F11gb3_46cs!19sChIJ5yjcYWNpkzkRKOPzl7stMtc?authuser=0&hl=en&rclk=1,"26.792431099999998,84.551991"
Masjid Hazrat Ibrahim (A.S),Mosque,"Masjid Hazrat Ibrahim (A.S), 845438, Noor Colony, Chawani, Tola Chhawni, Bihar 845438","Noor Colony, Chawani",845438,"Tola Chhawni, Bettiah",845438,Bihar,IN,https://www.google.com/maps/place/Masjid+Hazrat+Ibrahim+%28A.S%29/data=!4m7!3m6!1s0x39936ee82383db51:0xcb88900e3da161b5!8m2!3d26.817995!4d84.5007346!16s%2Fg%2F11d_7t4511!19sChIJUduDI-hukzkRtWGhPQ6QiMs?authuser=0&hl=en&rclk=1,"26.817995,84.5007346"
Jama Masjid,Mosque,"RGP8+M9Q Jama Masjid, Shaikh dhurwa, Sri Nagar, Bettiah Dih, Bihar 845450",Sri Nagar,RGP8+M9Q Shaikh dhurwa,Bettiah Dih,845450,Bihar,IN,https://www.google.com/maps/place/Jama+Masjid/data=!4m7!3m6!1s0x39936f838b3ce835:0xa99e67fdf3805b8f!8m2!3d26.8367234!4d84.5159794!16s%2Fg%2F11fm1xcsgp!19sChIJNeg8i4NvkzkRj1uA8_1nnqk?authuser=0&hl=en&rclk=1,"26.8367234,84.51597939999999"
Masjid E Abu Bakr,Mosque,"RF8X+W78 Masjid E Abu Bakr, Chawani, Bettiah, Bihar 845438",Chawani,RF8X+W78,Bettiah,845438,Bihar,IN,https://www.google.com/maps/place/Masjid+E+Abu+Bakr/data=!4m7!3m6!1s0x39936ee8fbd03f9b:0x6b8c8a387cf3fae8!8m2!3d26.8172907!4d84.4982046!16s%2Fg%2F11c6t0l105!19sChIJmz_Q--hukzkR6PrzfDiKjGs?authuser=0&hl=en&rclk=1,"26.817290699999997,84.4982046"
Noori Masjid Bharpatia,Mosque,"RFHM+X58 Noori Masjid Bharpatia, Bettiah - Valmikinagar Rd, Gurwalia Biswas Bandobasti, Bihar 845450",,"RFHM+X58, Bettiah - Valmikinagar Rd",Gurwalia Biswas Bandobasti,845450,Bihar,IN,https://www.google.com/maps/place/Noori+Masjid+Bharpatia/data=!4m7!3m6!1s0x39936efe331f5e29:0x318e9ba02299c072!8m2!3d26.8299134!4d84.4829666!16s%2Fg%2F11c60ktzg6!19sChIJKV4fM_5ukzkRcsCZIqCbjjE?authuser=0&hl=en&rclk=1,"26.8299134,84.4829666"
Bari Toal Masjid,Mosque,"RG4R+FJP Bari Toal Masjid, Bettiah-Sarisawa Rd, Banuchapar, Mahnagani, Tola Mansaraut, Bihar 845454",Banuchapar,"RG4R+FJP, Bettiah-Sarisawa Rd","Mahnagani, Tola Mansaraut",845454,Bihar,IN,https://www.google.com/maps/place/Bari+Toal+Masjid/data=!4m7!3m6!1s0x399369cba83d5621:0xd1b6f1562c4f92ff!8m2!3d26.8062017!4d84.5415859!16s%2Fg%2F11dfmfp253!19sChIJIVY9qMtpkzkR_5JPLFbxttE?authuser=0&hl=en&rclk=1,"26.8062017,84.5415859"
Shia Imambada,Mosque,"QFXV+VGH Shia Imambada, Indira chowk, Naya Tola Colony, Naya Tola, Bettiah, Bihar 845438","Naya Tola Colony, Naya Tola","QFXV+VGH, Indira chowk",Bettiah,,Bihar,IN,https://www.google.com/maps/place/Shia+Imambada/data=!4m7!3m6!1s0x39936e9116d8df77:0x5f3db8a84a2fdffc!8m2!3d26.7996984!4d84.4938651!16s%2Fg%2F11fz2rrr08!19sChIJd9_YFpFukzkR_N8vSqi4PV8?authuser=0&hl=en&rclk=1,"26.7996984,84.4938651"
"MIRSHIKAR TOLI MASJID ,",Mosque,"RF3W+MQV MIRSHIKAR TOLI MASJID ,, Kali Bagh Colony, Bettiah, Bihar 845438",Kali Bagh Colony,RF3W+MQV,Bettiah,845438,Bihar,IN,"https://www.google.com/maps/place/MIRSHIKAR+TOLI+MASJID+,/data=!4m7!3m6!1s0x39936e9468afd7a9:0xb8055fc4467a7fc8!8m2!3d26.8042449!4d84.4969372!16s%2Fg%2F11f54kyz4t!19sChIJqdevaJRukzkRyH96RsRfBbg?authuser=0&hl=en&rclk=1","26.8042449,84.49693719999999"
Chhoti Masjid Beldari West,Mosque,"QGVV+M2C Chhoti Masjid Beldari West, Barwat Pasrain, Bihar 845438",,QGVV+M2C,Barwat Pasrain,845438,Bihar,IN,https://www.google.com/maps/place/Chhoti+Masjid+Beldari+West/data=!4m7!3m6!1s0x3993695d901ce269:0xc2320762f4df5a10!8m2!3d26.7941921!4d84.5425211!16s%2Fg%2F11ggb801rg!19sChIJaeIckF1pkzkREFrf9GIHMsI?authuser=0&hl=en&rclk=1,"26.7941921,84.5425211"
Minar Masjid,Mosque,"RG2Q+VV3 Minar Masjid, Banuchapar, Tola Mansaraut, Bihar 845438",Banuchapar,RG2Q+VV3,Tola Mansaraut,845438,Bihar,IN,https://www.google.com/maps/place/Minar+Masjid/data=!4m7!3m6!1s0x39936943b88bdda1:0x66844924677f2737!8m2!3d26.8021489!4d84.5396803!16s%2Fg%2F11dzs_wz3f!19sChIJod2LuENpkzkRNyd_ZyRJhGY?authuser=0&hl=en&rclk=1,"26.8021489,84.5396803"
Masjeed-jannat Bagahi Badhaiya Tola,Mosque,"QF76+RJC Masjeed-jannat Bagahi Badhaiya Tola, Bettiah - Bairiya - Laukariya Rd, Bagahi Ratanpur, Bihar 845438",,"QF76+RJC, Bettiah - Bairiya - Laukariya Rd",Bagahi Ratanpur,845438,Bihar,IN,https://www.google.com/maps/place/Masjeed-jannat+Bagahi+Badhaiya+Tola/data=!4m7!3m6!1s0x39936dc19b64700b:0x9c399794b453d4bb!8m2!3d26.7645576!4d84.4615026!16s%2Fg%2F11dxrzt8s1!19sChIJC3Bkm8FtkzkRu9RTtJSXOZw?authuser=0&hl=en&rclk=1,"26.7645576,84.4615026"
"Masjid, Kora Beldari msjd khwrr byldry",Mosque,"QGWR+H27 Masjid, Kora Beldari msjd khwrr byldry, Kora Beldari, Po, Bettiah, Barwat Pasrain, Bihar",,"QGWR+H27, Kora Beldari, Po, Bettiah","Barwat Pasrain, Purbi Kargahia",,Bihar,IN,"https://www.google.com/maps/place/Masjid,+Kora+Beldari+%D9%85%D8%B3%D8%AC%D8%AF+%DA%A9%D9%88%DA%91%D8%A7+%D8%A8%DB%8C%D9%84%D8%AF%D8%A7%D8%B1%DB%8C%E2%80%AD/data=!4m7!3m6!1s0x39936920edb7f727:0x6da9523ec2269a77!8m2!3d26.7964044!4d84.5400409!16s%2Fg%2F11g1mk_p29!19sChIJJ_e37SBpkzkRd5omwj5SqW0?authuser=0&hl=en&rclk=1","26.7964044,84.5400409"
Masjid E Fatima msjd fTmh,Mosque,"PFVH+QVH Masjid E Fatima msjd fTmh, Gopalganj - Bettiah Rd, Bakuliya Tola, Bagahi Ratanpur, Bihar 845438",Bakuliya Tola,"PFVH+QVH, Gopalganj - Bettiah Rd",Bagahi Ratanpur,845438,Bihar,IN,https://www.google.com/maps/place/Masjid+E+Fatima+%D9%85%D8%B3%D8%AC%D8%AF+%D9%81%D8%A7%D8%B7%D9%85%DB%81%E2%80%AD/data=!4m7!3m6!1s0x39936daccf2dca9f:0x9a7e32e886c15022!8m2!3d26.7444349!4d84.4797366!16s%2Fg%2F11fy4q8r0n!19sChIJn8otz6xtkzkRIlDBhugyfpo?authuser=0&hl=en&rclk=1,"26.744434899999998,84.4797366"
"Masjid Jagirahan, msjid jgiiraahaaN",Mosque,"Masjid Jagirahan, msjid jgiiraahaaN, Jagirahan, Ward No. 1, Ahwar Shekh, Bettiah, Bihar",,"Jagirahan, Ward No. 1, Ahwar Shekh","Bettiah, Ahwar Kudia",,Bihar,IN,"https://www.google.com/maps/place/Masjid+Jagirahan,+%E0%A4%AE%E0%A4%B8%E0%A5%8D%E0%A4%9C%E0%A4%BF%E0%A4%A6+%E0%A4%9C%E0%A4%97%E0%A5%80%E0%A4%B0%E0%A4%BE%E0%A4%B9%E0%A4%BE%E0%A4%81/data=!4m7!3m6!1s0x39936b7ca8dd60db:0x2e046b131fdff282!8m2!3d26.7269675!4d84.5915805!16s%2Fg%2F11gvy1_47v!19sChIJ22DdqHxrkzkRgvLfHxNrBC4?authuser=0&hl=en&rclk=1","26.726967499999997,84.59158049999999"
"Madina Masjid,Baswariya Ward No.21 Bettiah",Mosque,"QGR2+5G8 Madina Masjid,Baswariya Ward No.21 Bettiah, Unnamed Road, Baswaria, Bettiah, Khusi Tola, Bihar 845438",Baswaria,"QGR2+5G8, Unnamed Road","Bettiah, Khusi Tola",845438,Bihar,IN,"https://www.google.com/maps/place/Madina+Masjid,Baswariya+Ward+No.21+Bettiah/data=!4m7!3m6!1s0x39936fbd3823b8f3:0xed8de6910cf0dbed!8m2!3d26.7904238!4d84.5013351!16s%2Fg%2F11fd4gnwdr!19sChIJ87gjOL1vkzkR7dvwDJHmje0?authuser=0&hl=en&rclk=1","26.7904238,84.50133509999999"
Badi Masjid,Mosque,"QH4M+57V Badi Masjid, Shekhauna Math Chudihar Tola, 845438",,"QH4M+57V, Shekhauna Math Chudihar Tola",Ahwar Majhariya,845438,Bihar,IN,https://www.google.com/maps/place/Badi+Masjid/data=!4m7!3m6!1s0x39936a4257f5ff61:0x2bffe5114d8a9a58!8m2!3d26.7554855!4d84.58317!16s%2Fg%2F11f57ckh01!19sChIJYf_1V0JqkzkRWJqKTRHl_ys?authuser=0&hl=en&rclk=1,"26.7554855,84.58317"
Noor Masjid,Mosque,"RG3F+264 Noor Masjid, Saraswati Nagar, Banuchapar, Bettiah, Ujjain Tola, Bihar 845438","Saraswati Nagar, Banuchapar",RG3F+264,"Bettiah, Ujjain Tola",845438,Bihar,IN,https://www.google.com/maps/place/Noor+Masjid/data=!4m7!3m6!1s0x3993694ca459d41d:0xa5cdcafbb07742b0!8m2!3d26.8025152!4d84.5230812!16s%2Fg%2F11hbn5rz0g!19sChIJHdRZpExpkzkRsEJ3sPvKzaU?authuser=0&hl=en&rclk=1,"26.8025152,84.5230812"
Purani Masjid,Mosque,"RF2X+C89 Purani Masjid, Kali Bagh Colony, Bettiah, Bihar 845438",Kali Bagh Colony,RF2X+C89,Bettiah,845438,Bihar,IN,https://www.google.com/maps/place/Purani+Masjid/data=!4m7!3m6!1s0x39936e9689426bfd:0xba6d1c3d2a570c7c!8m2!3d26.8010454!4d84.4983712!16s%2Fg%2F11gg3j1lmt!19sChIJ_WtCiZZukzkRfAxXKj0cbbo?authuser=0&hl=en&rclk=1,"26.8010454,84.4983712"
Masjid inside Madarsa,Mosque,"QGV3+2H6 Masjid inside Madarsa, Badka Ramna Rd, Baswaria, Bettiah, Bihar 845438",Baswaria,"QGV3+2H6, Badka Ramna Rd",Bettiah,845438,Bihar,IN,https://www.google.com/maps/place/Masjid+inside+Madarsa/data=!4m7!3m6!1s0x39936ea3b32ee047:0x7094246498a5937d!8m2!3d26.7925428!4d84.5038962!16s%2Fg%2F1ptx3xl4t!19sChIJR-Aus6NukzkRfZOlmGQklHA?authuser=0&hl=en&rclk=1,"26.7925428,84.5038962"
Banuchhapar Mosque,Mosque,"RG5H+5FQ Banuchhapar Mosque, Banuchapar, Banu Chhapra, Bihar 845438",Banuchapar,RG5H+5FQ,Banu Chhapra,,Bihar,IN,https://www.google.com/maps/place/Banuchhapar+Mosque/data=!4m7!3m6!1s0x399369dccc0bac77:0x817e15f95e1ab21e!8m2!3d26.8079664!4d84.5287449!16s%2Fg%2F11gy1qnm7q!19sChIJd6wLzNxpkzkRHrIaXvkVfoE?authuser=0&hl=en&rclk=1,"26.807966399999998,84.52874489999999"
Ghusukpur masjid,Mosque,"RF5W+96R Ghusukpur masjid, Unnamed Road, Shastri Nagar, Bettiah, Bihar 845438",Shastri Nagar,"RF5W+96R, Unnamed Road",Bettiah,845438,Bihar,IN,https://www.google.com/maps/place/Ghusukpur+masjid/data=!4m7!3m6!1s0x39936f41fb7eb153:0x1eccd2e5513033aa!8m2!3d26.8084886!4d84.4955006!16s%2Fg%2F11rxyk9p9q!19sChIJU7F--0FvkzkRqjMwUeXSzB4?authuser=0&hl=en&rclk=1,"26.8084886,84.4955006"
Badi Masjid Beldari,Mosque,"QGRW+PPW Badi Masjid Beldari, Beldari, Ward no=35, Bettiah, Bihar 845438",Ward no=35,"QGRW+PPW, Beldari",Bettiah,845438,Bihar,IN,https://www.google.com/maps/place/Badi+Masjid+Beldari/data=!4m7!3m6!1s0x39936fe5723a6f1d:0x2a99cb6b8d5a1ee5!8m2!3d26.7918647!4d84.5468206!16s%2Fg%2F11sf2cff0h!19sChIJHW86cuVvkzkR5R5ajWvLmSo?authuser=0&hl=en&rclk=1,"26.791864699999998,84.54682059999999"
Masjid Ray Dhurwa,Mosque,"RGW6+9GP Masjid Ray Dhurwa, Unnamed Road, Bettiah Dih, Bihar 845450",,"RGW6+9GP, Unnamed Road",Bettiah Dih,845450,Bihar,IN,https://www.google.com/maps/place/Masjid+Ray+Dhurwa/data=!4m7!3m6!1s0x39936fe5e0230b7d:0x6fe3f282cb40b5f1!8m2!3d26.8459519!4d84.5113178!16s%2Fg%2F11fk1lnrlx!19sChIJfQsj4OVvkzkR8bVAy4Ly428?authuser=0&hl=en&rclk=1,"26.8459519,84.5113178"
"Masjid,Bagahi",Mosque,"QF76+RHX Masjid,Bagahi, Bettiah - Bairiya - Laukariya Rd, Bagahi Ratanpur, Bihar 845438",,"QF76+RHX, Bettiah - Bairiya - Laukariya Rd",Bagahi Ratanpur,845438,Bihar,IN,"https://www.google.com/maps/place/Masjid,Bagahi/data=!4m7!3m6!1s0x39936dc19b4771b3:0x370fc2000336a251!8m2!3d26.7646072!4d84.4614872!16s%2Fg%2F11dxrm1463!19sChIJs3FHm8FtkzkRUaI2AwDCDzc?authuser=0&hl=en&rclk=1","26.7646072,84.4614872"
MASJID-E-UMAR FAROOQUE,Mosque,"RF36+8F4 MASJID-E-UMAR FAROOQUE, Siswa Saraiya, Bihar 845438",,RF36+8F4,Siswa Saraiya,845438,Bihar,IN,https://www.google.com/maps/place/MASJID-E-UMAR+FAROOQUE/data=!4m7!3m6!1s0x39936f5953e442b3:0x8bfed95477e6671a!8m2!3d26.8032642!4d84.4611924!16s%2Fg%2F11gzs0l0hc!19sChIJs0LkU1lvkzkRGmfmd1TZ_os?authuser=0&hl=en&rclk=1,"26.803264199999997,84.4611924"
Chawwani Eidgah chhwny `yd gh,Mosque,"RGC2+6W3 Chawwani Eidgah chhwny `yd gh, Banuchhapar, Bettiah, Bihar 845438",,RGC2+6W3,"Banuchhapar, Bettiah",845438,Bihar,IN,https://www.google.com/maps/place/Chawwani+Eidgah+%DA%86%DA%BE%D8%A7%D9%88%D9%86%DB%8C+%D8%B9%DB%8C%D8%AF+%DA%AF%D8%A7%DB%81%E2%80%AD/data=!4m7!3m6!1s0x39936edd489516b1:0x28e0e356e620bb66!8m2!3d26.8205034!4d84.5023059!16s%2Fg%2F11f0k_8_ch!19sChIJsRaVSN1ukzkRZrsg5lbj4Cg?authuser=0&hl=en&rclk=1,"26.8205034,84.5023059"
FATMA MASJID,Mosque,"QF6R+5Q7 FATMA MASJID, Unnamed Road, Khadda, Bihar 845438",,"QF6R+5Q7, Unnamed Road",Khadda,845438,Bihar,IN,https://www.google.com/maps/place/FATMA+MASJID/data=!4m7!3m6!1s0x39936d1c2cbad10f:0x55df39fda6f886a6!8m2!3d26.760404!4d84.4919353!16s%2Fg%2F11h3m7tk23!19sChIJD9G6LBxtkzkRpob4pv0531U?authuser=0&hl=en&rclk=1,"26.760403999999998,84.4919353"
BADI EIDGAH,Mosque,"QFXV+55G BADI EIDGAH, Naya Tola Colony, Kali Bagh Colony, Bettiah, Bihar 845438","Naya Tola Colony, Kali Bagh Colony",QFXV+55G,Bettiah,845438,Bihar,IN,https://www.google.com/maps/place/BADI+EIDGAH/data=!4m7!3m6!1s0x39936f611e5cb90d:0x9950a1a34d9313f1!8m2!3d26.7979374!4d84.4929556!16s%2Fg%2F11gzrflf1m!19sChIJDblcHmFvkzkR8ROTTaOhUJk?authuser=0&hl=en&rclk=1,"26.7979374,84.4929556"
Khushi Tola Masjid,Mosque,"QFWW+338 Khushi Tola Masjid, Unnamed Road, Hat Saraiya, Bettiah, Bihar 845438",Hat Saraiya,"QFWW+338, Unnamed Road",Bettiah,845438,Bihar,IN,https://www.google.com/maps/place/Khushi+Tola+Masjid/data=!4m7!3m6!1s0x39936f2def5b5883:0x2c11370187eede9f!8m2!3d26.7951719!4d84.4952004!16s%2Fg%2F11q8s7vdfk!19sChIJg1hb7y1vkzkRn97uhwE3ESw?authuser=0&hl=en&rclk=1,"26.7951719,84.4952004"
Jama Masjid,Mosque,"Jama Masjid, Birtitola, Jagdishpur Rd, Bettiah, Bihar 845459",,"Birtitola, Jagdishpur Rd","Bettiah, Bishunpura",845459,Bihar,IN,https://www.google.com/maps/place/Jama+Masjid/data=!4m7!3m6!1s0x3993152b4b553865:0x1efc6b03d447e722!8m2!3d26.742241!4d84.545182!16s%2Fg%2F11gvy24h6w!19sChIJZThVSysVkzkRIudH1ANr_B4?authuser=0&hl=en&rclk=1,"26.742241,84.545182"
Masjid-e- Abu bakkar,Mosque,"PCQV+99G Masjid-e- Abu bakkar, Rd, Laukariya, Bettiah, Bihar 845438",,"PCQV+99G, Rd","Laukariya, Bettiah",845438,Bihar,IN,https://www.google.com/maps/place/Masjid-e-+Abu+bakkar/data=!4m7!3m6!1s0x39936d411bfabd97:0xfe46ab563f1a46e0!8m2!3d26.7384319!4d84.4434647!16s%2Fg%2F11q96lt13x!19sChIJl736G0FtkzkR4EYaP1arRv4?authuser=0&hl=en&rclk=1,"26.7384319,84.44346469999999"
Hajari Tola Masjid,Mosque,"Hajari Tola Masjid, Hajari, Mirza Tola Rd, Kali Bagh Colony, Bettiah, Bihar 845438",Kali Bagh Colony,"Hajari, Mirza Tola Rd",Bettiah,845438,Bihar,IN,https://www.google.com/maps/place/Hajari+Tola+Masjid/data=!4m7!3m6!1s0x39936fa2e04c2b03:0xce64be7c7f390e48!8m2!3d26.8063068!4d84.4936349!16s%2Fg%2F11q4jv_v3z!19sChIJAytM4KJvkzkRSA45f3y-ZM4?authuser=0&hl=en&rclk=1,"26.806306799999998,84.49363489999999"
Jama Masjid,Mosque,"QFFM+92C Jama Masjid, Shahi Tola, Bettiah, Bhitaha, Bihar 845438",,QFFM+92C Shahi Tola,"Bettiah, Bhitaha",845438,Bihar,IN,https://www.google.com/maps/place/Jama+Masjid/data=!4m7!3m6!1s0x39936d6cd3142f5d:0x4181affa9f320f38!8m2!3d26.7734467!4d84.4825243!16s%2Fg%2F11hhn7kbj_!19sChIJXS8U02xtkzkROA8yn_qvgUE?authuser=0&hl=en&rclk=1,"26.773446699999997,84.4825243"
nsry ttwl msjd ( MASJID )ANSARI TOLA,Mosque,"PGX8+W96 nsry ttwl msjd ( MASJID )ANSARI TOLA, Unnamed Road, Bihar 845459",,"PGX8+W96, Unnamed Road",,845459,Bihar,IN,https://www.google.com/maps/place/%D8%A7%D9%86%D8%B3%D8%A7%D8%B1%DB%8C+%D9%B9%D9%88%D9%84%D8%A7+%D9%85%D8%B3%D8%AC%D8%AF+%28+MASJID+%29ANSARI+TOLA%E2%80%AD/data=!4m7!3m6!1s0x39936dc332caeaed:0xb3ddc58e24f62de1!8m2!3d26.7497815!4d84.515879!16s%2Fg%2F11rww9hyxh!19sChIJ7erKMsNtkzkR4S32JI7F3bM?authuser=0&hl=en&rclk=1,"26.749781499999997,84.515879"
Sagrauwa masjid,Mosque,"QGX5+X62 Sagrauwa masjid, Gulab Baag, Bettiah, Bihar 845306",Gulab Baag,QGX5+X62,Bettiah,845306,Bihar,IN,https://www.google.com/maps/place/Sagrauwa+masjid/data=!4m7!3m6!1s0x39936fd449c644cf:0x23822110b85d4c27!8m2!3d26.7998799!4d84.5080151!16s%2Fg%2F11sh6dmwqf!19sChIJz0TGSdRvkzkRJ0xduBAhgiM?authuser=0&hl=en&rclk=1,"26.7998799,84.5080151"
MASJID HAZRAT BHAIYASHAH,Mosque,"RF3X+55X MASJID HAZRAT BHAIYASHAH, Kali Bagh Colony, Bettiah, Bihar 845438",Kali Bagh Colony,RF3X+55X,Bettiah,845438,Bihar,IN,https://www.google.com/maps/place/MASJID+HAZRAT+BHAIYASHAH/data=!4m7!3m6!1s0x39936f1f46ef3139:0xa3bff2f6a7ec99f1!8m2!3d26.8029752!4d84.4979753!16s%2Fg%2F11f63764g3!19sChIJOTHvRh9vkzkR8Znsp_byv6M?authuser=0&hl=en&rclk=1,"26.8029752,84.4979753"
Basant Tola Masjid,Mosque,"Basant Tola Masjid, ward no 1,masjid, Basant Tola Rd, Bettiah, Bihar 845438",,"ward no 1,masjid, Basant Tola Rd","Bettiah, Basant Tola",845438,Bihar,IN,https://www.google.com/maps/place/Basant+Tola+Masjid/data=!4m7!3m6!1s0x39936fede1f9be99:0x7c17c56a488aac4d!8m2!3d26.820825!4d84.4887106!16s%2Fg%2F11hqljllcn!19sChIJmb754e1vkzkRTayKSGrFF3w?authuser=0&hl=en&rclk=1,"26.820825,84.48871059999999"
AL-TaQua Masjid Mehadiabari,Mosque,"RGH2+7P8 AL-TaQua Masjid Mehadiabari, Mehadiabari, Bettiah - Valmikinagar Rd, Tola Chhawni, Bihar",,"RGH2+7P8, Mehadiabari, Bettiah - Valmikinagar Rd",Tola Chhawni,,Bihar,IN,https://www.google.com/maps/place/AL-TaQua+Masjid+Mehadiabari/data=!4m7!3m6!1s0x39936fb134aa89b7:0x3b68e6c1f8a310f0!8m2!3d26.8281626!4d84.5018249!16s%2Fg%2F11fm19jlg9!19sChIJt4mqNLFvkzkR8BCj-MHmaDs?authuser=0&hl=en&rclk=1,"26.8281626,84.5018249"
Hazrat Abu Baquar Masjid HDrt bw bkhr Sdyq msjd,Mosque,"RG2M+P23 Hazrat Abu Baquar Masjid HDrt bw bkhr Sdyq msjd, Industrial Area, Purbi Kargahia, Tola Mansaraut, Bihar 845438",Industrial Area,RG2M+P23,"Purbi Kargahia, Tola Mansaraut",845438,Bihar,IN,https://www.google.com/maps/place/Hazrat+Abu+Baquar+Masjid+%D8%AD%D8%B6%D8%B1%D8%AA+%D8%A7%D8%A8%D9%88+%D8%A8%DA%A9%D8%B1+%D8%B5%D8%AF%DB%8C%D9%82+%D9%85%D8%B3%D8%AC%D8%AF%E2%80%AD/data=!4m7!3m6!1s0x3993694f6055ee81:0x7c2b383f227975b9!8m2!3d26.8017723!4d84.5325432!16s%2Fg%2F11f37txdfg!19sChIJge5VYE9pkzkRuXV5Ij84K3w?authuser=0&hl=en&rclk=1,"26.8017723,84.53254319999999"
Mahawat toli,Housing society,"Mahawat toli, Mahawat Toli Masjid, Lal Bazar, Bettiah, Bihar 845438",Lal Bazar,Mahawat Toli Masjid,Bettiah,845438,Bihar,IN,https://www.google.com/maps/place/Mahawat+toli/data=!4m7!3m6!1s0x39936f6eef3edfe1:0x7161cb882e5fc601!8m2!3d26.7999145!4d84.5039008!16s%2Fg%2F11rr_z_93c!19sChIJ4d8-725vkzkRAcZfLojLYXE?authuser=0&hl=en&rclk=1,"26.7999145,84.5039008"
Jama Masjid Laptahi Ansari Tola,Mosque,"RFCJ+52C Jama Masjid Laptahi Ansari Tola, Tunia Bishunpur, Bihar 845438",,RFCJ+52C,Tunia Bishunpur,845438,Bihar,IN,https://www.google.com/maps/place/Jama+Masjid+Laptahi+Ansari+Tola/data=!4m7!3m6!1s0x39936fe53e557b2f:0x7ed8462c7be77612!8m2!3d26.8204366!4d84.4800189!16s%2Fg%2F11s175yn8m!19sChIJL3tVPuVvkzkREnbneyxG2H4?authuser=0&hl=en&rclk=1,"26.820436599999997,84.48001889999999"
Lalu Nagar mosque,Mosque,"QGWP+3H7 Lalu Nagar mosque, Lalu Nagar, Bettiah, Purbi Kargahia, Bihar 845438",Lalu Nagar,QGWP+3H7,"Bettiah, Purbi Kargahia",,Bihar,IN,https://www.google.com/maps/place/Lalu+Nagar+mosque/data=!4m7!3m6!1s0x399369d4ad78f01f:0x719cf36ad1cf3ffb!8m2!3d26.795165!4d84.5364277!16s%2Fg%2F11k3g4sh_c!19sChIJH_B4rdRpkzkR-z_P0WrznHE?authuser=0&hl=en&rclk=1,"26.795164999999997,84.53642769999999"
Bhudiya masjid,Mosque,"RF2X+C86 Bhudiya masjid, Naya Bazar Rd, Kali Bagh Colony, Bettiah, Bihar 845438",Kali Bagh Colony,"RF2X+C86, Naya Bazar Rd",Bettiah,845438,Bihar,IN,https://www.google.com/maps/place/Bhudiya+masjid/data=!4m7!3m6!1s0x39936f464e1f24e7:0x639bc71e277fb89a!8m2!3d26.8010406!4d84.4982542!16s%2Fg%2F11hkb6bvx2!19sChIJ5yQfTkZvkzkRmrh_Jx7Hm2M?authuser=0&hl=en&rclk=1,"26.8010406,84.49825419999999"
mdynh msjd prny gdry,Mosque,"mdynh msjd prny gdry, ASHA NAGAR, near Siddharth Public School, Shastri Nagar, Bettiah, Bihar 845438",Shastri Nagar,"ASHA NAGAR, near Siddharth Public School",Bettiah,845438,Bihar,IN,https://www.google.com/maps/place/%D9%85%D8%AF%DB%8C%D9%86%DB%81+%D9%85%D8%B3%D8%AC%D8%AF+%D9%BE%D8%B1%D8%A7%D9%86%DB%8C+%DA%AF%D8%AF%D8%B1%DB%8C%E2%80%AD/data=!4m7!3m6!1s0x39936f1f5920e5e3:0xccfeacfe55dff36c!8m2!3d26.8065709!4d84.4997696!16s%2Fg%2F11q4db4zlj!19sChIJ4-UgWR9vkzkRbPPfVf6s_sw?authuser=0&hl=en&rclk=1,"26.8065709,84.4997696"
Koda Beldari Eidgah,Mosque,"QGWQ+F8F Koda Beldari Eidgah, Purbi Kargahia, Bihar 845438",,QGWQ+F8F,Purbi Kargahia,845438,Bihar,IN,https://www.google.com/maps/place/Koda+Beldari+Eidgah/data=!4m7!3m6!1s0x399369f76dc147c7:0x2ed9d9425a47fc07!8m2!3d26.7961978!4d84.5383027!16s%2Fg%2F11nx1qklwt!19sChIJx0fBbfdpkzkRB_xHWkLZ2S4?authuser=0&hl=en&rclk=1,"26.796197799999998,84.5383027"
Saheb tola mosque,Mosque,"RG7Q+6XJ Saheb tola mosque, Padry dussaiya, Banuchapar, Banuchhapar, Bettiah, Bihar 845450",Banuchapar,"RG7Q+6XJ, Padry dussaiya","Banuchhapar, Bettiah",,Bihar,IN,https://www.google.com/maps/place/Saheb+tola+mosque/data=!4m7!3m6!1s0x3993697100ee72cd:0xaf9d3011011e43c7!8m2!3d26.8130974!4d84.5398966!16s%2Fg%2F11h8k_vf1q!19sChIJzXLuAHFpkzkRx0MeAREwna8?authuser=0&hl=en&rclk=1,"26.8130974,84.53989659999999"
Masjid aaysha,Mosque,"QFC4+89F Masjid aaysha, Bettiah, Bihar 845438",,QFC4+89F,Bettiah,,Bihar,IN,https://www.google.com/maps/place/Masjid+aaysha/data=!4m7!3m6!1s0x39936d3aa5263395:0xf23b029d85f0e342!8m2!3d26.7708059!4d84.4559195!16s%2Fg%2F11v6mkcdcd!19sChIJlTMmpTptkzkRQuPwhZ0CO_I?authuser=0&hl=en&rclk=1,"26.7708059,84.4559195"
"Pipra chauk Badi Masjid, Bettiah, pipraa cauk bdd'ii msjid , betiyaa",Mosque,"QHCG+982 Pipra chauk Badi Masjid, Bettiah, pipraa cauk bdd'ii msjid , betiyaa, Pipra Pakri, Bihar 845438",,QHCG+982,Pipra Pakri,845438,Bihar,IN,"https://www.google.com/maps/place/Pipra+chauk+Badi+Masjid,+Bettiah,+%E0%A4%AA%E0%A4%BF%E0%A4%AA%E0%A4%B0%E0%A4%BE+%E0%A4%9A%E0%A5%8C%E0%A4%95+%E0%A4%AC%E0%A4%A1%E0%A4%BC%E0%A5%80+%E0%A4%AE%E0%A4%B8%E0%A5%8D%E0%A4%9C%E0%A4%BF%E0%A4%A6+,+%E0%A4%AC%E0%A5%87%E0%A4%A4%E0%A4%BF%E0%A4%AF%E0%A4%BE/data=!4m7!3m6!1s0x39936b3b6cb4d4a9:0xa724718fff0cccd9!8m2!3d26.771433!4d84.5774961!16s%2Fg%2F11s4x5vkq5!19sChIJqdS0bDtrkzkR2cwM_49xJKc?authuser=0&hl=en&rclk=1","26.771433,84.57749609999999"
Masjid taiyeba,Mosque,"PCRV+QQG Masjid taiyeba, Bettiah - Bairiya - Laukariya Rd, Bairia, Bihar 845438",,"PCRV+QQG, Bettiah - Bairiya - Laukariya Rd",Bairia,845438,Bihar,IN,https://www.google.com/maps/place/Masjid+taiyeba/data=!4m7!3m6!1s0x39936d4094313f8b:0xad4785749c082abd!8m2!3d26.7419398!4d84.4444478!16s%2Fg%2F11rbf8nkqj!19sChIJiz8xlEBtkzkRvSoInHSFR60?authuser=0&hl=en&rclk=1,"26.741939799999997,84.44444779999999"
Badi Masjid,Mosque,"RF2W+7VM Badi Masjid, Kali Bagh Colony, Bettiah, Bihar 845438",Kali Bagh Colony,RF2W+7VM,Bettiah,845438,Bihar,IN,https://www.google.com/maps/place/Badi+Masjid/data=!4m7!3m6!1s0x39936e96bfa55555:0x803cdbbaaaa37fb5!8m2!3d26.8007084!4d84.4971868!16s%2Fg%2F11kj3f9mw4!19sChIJVVWlv5ZukzkRtX-jqrrbPIA?authuser=0&hl=en&rclk=1,"26.800708399999998,84.4971868"
UMAR MASJID PIUNI BAGH,Mosque,"QGR5+XMG UMAR MASJID PIUNI BAGH, Hathikhana, Bettiah, Bihar 845438",Hathikhana,QGR5+XMG,Bettiah,,Bihar,IN,https://www.google.com/maps/place/UMAR+MASJID+PIUNI+BAGH/data=!4m7!3m6!1s0x39936f4d153b6da3:0xd5c2ef06f762dd0a!8m2!3d26.7924395!4d84.5091943!16s%2Fg%2F11v113lzcq!19sChIJo207FU1vkzkRCt1i9wbvwtU?authuser=0&hl=en&rclk=1,"26.7924395,84.50919429999999"
"Mosque , masjid for muslim",Mosque,"QGQ4+F9C Mosque , masjid for muslim, Baswaria, Bettiah, Bihar 845438",Baswaria,QGQ4+F9C,Bettiah,845438,Bihar,IN,"https://www.google.com/maps/place/Mosque+,+masjid+for+muslim/data=!4m7!3m6!1s0x39936fc2e06e1f47:0x71e2006f243c0e1f!8m2!3d26.7886821!4d84.505888!16s%2Fg%2F11v5s21t9q!19sChIJRx9u4MJvkzkRHw48JG8A4nE?authuser=0&hl=en&rclk=1","26.7886821,84.505888"
chota Basant Tola Masjid,Mosque,"RFCR+8GV chota Basant Tola Masjid, Basant Tola Rd, Bettiah, Basant Tola, Bihar 845438",,"RFCR+8GV, Basant Tola Rd","Bettiah, Basant Tola",845438,Bihar,IN,https://www.google.com/maps/place/chota+Basant+Tola+Masjid/data=!4m7!3m6!1s0x39936ff2f6d9dc3b:0xbb8ccff1563e1790!8m2!3d26.8208636!4d84.4912936!16s%2Fg%2F11svm74_04!19sChIJO9zZ9vJvkzkRkBc-VvHPjLs?authuser=0&hl=en&rclk=1,"26.8208636,84.49129359999999"
Umar Masjid Jamadar Tola Bettiah,Mosque,"RF7Q+6V2 Umar Masjid Jamadar Tola Bettiah, Jamadar Tola, Bettiah, Bihar 845438",Jamadar Tola,RF7Q+6V2,Bettiah,845438,Bihar,IN,https://www.google.com/maps/place/Umar+Masjid+Jamadar+Tola+Bettiah/data=!4m7!3m6!1s0x39936fb1cf87a219:0xe21413094c6e5f20!8m2!3d26.8131462!4d84.489585!16s%2Fg%2F11jylb86dj!19sChIJGaKHz7FvkzkRIF9uTAkTFOI?authuser=0&hl=en&rclk=1,"26.8131462,84.48958499999999"
Balal Masjid Ghuspura,Mosque,"QGQ3+3HC Balal Masjid Ghuspura, Baswaria, Bettiah, Bihar 845438",Baswaria,QGQ3+3HC,Bettiah,845438,Bihar,IN,https://www.google.com/maps/place/Balal+Masjid+Ghuspura/data=!4m7!3m6!1s0x39936f5accf9cd27:0x99c658372343a14a!8m2!3d26.7876869!4d84.5038881!16s%2Fg%2F11kk98rbkv!19sChIJJ835zFpvkzkRSqFDIzdYxpk?authuser=0&hl=en&rclk=1,"26.787686899999997,84.5038881"
Masjide Umar Koda Beldari,Mosque,"Masjide Umar Koda Beldari, Masjid Beldari, Bettiah, Purbi Kargahia, Bihar 845438",,Masjid Beldari,"Bettiah, Purbi Kargahia",,Bihar,IN,https://www.google.com/maps/place/Masjide+Umar+Koda+Beldari/data=!4m7!3m6!1s0x399369924463823b:0x39e966ab3ef411f5!8m2!3d26.7962419!4d84.5401807!16s%2Fg%2F11q2rvt2t2!19sChIJO4JjRJJpkzkR9RH0Pqtm6Tk?authuser=0&hl=en&rclk=1,"26.7962419,84.5401807"
Zama masjid,Mosque,"PGQ2+Q95 Zama masjid, Nautan Rd, Baswaria, Bettiah, Bihar 845438",Baswaria,"PGQ2+Q95, Nautan Rd",Bettiah,,Bihar,IN,https://www.google.com/maps/place/Zama+masjid/data=!4m7!3m6!1s0x39936d5affa5cd7b:0xf6c120bcfa0d605c!8m2!3d26.7393856!4d84.500975!16s%2Fg%2F11v59_k8xq!19sChIJe82l_1ptkzkRXGAN-rwgwfY?authuser=0&hl=en&rclk=1,"26.7393856,84.500975"
Masjid,Mosque,"VG3C+8M4 Masjid, Bettiah Dih, Ranipur Rampurwa, Bihar 845450",,VG3C+8M4,"Bettiah Dih, Ranipur Rampurwa",845450,Bihar,IN,https://www.google.com/maps/place/Masjid/data=!4m7!3m6!1s0x39936facdeaa173b:0x4c9b04bb4d04d07c!8m2!3d26.8532627!4d84.5217076!16s%2Fg%2F11nx3hq72g!19sChIJOxeq3qxvkzkRfNAETbsEm0w?authuser=0&hl=en&rclk=1,"26.8532627,84.5217076"
Masjid Umar Farooq,Mosque,"RJ27+F92 Masjid Umar Farooq, Bettiah, Bihar 845438",,RJ27+F92,Bettiah,845438,Bihar,IN,https://www.google.com/maps/place/Masjid+Umar+Farooq/data=!4m7!3m6!1s0x399343062f208917:0x4d8625e23ac6bb3e!8m2!3d26.8010205!4d84.6134039!16s%2Fg%2F11krmtpq5n!19sChIJF4kgLwZDkzkRPrvGOuIlhk0?authuser=0&hl=en&rclk=1,"26.8010205,84.6134039"
ujjain ttolaa kbristaan,Place of worship,"ujjain ttolaa kbristaan, MASJID, UJJAIN TOLA, Kamalnath Nagar, Bettiah, Bihar 845438",Kamalnath Nagar,"MASJID, UJJAIN TOLA",Bettiah,845438,Bihar,IN,https://www.google.com/maps/place/%E0%A4%89%E0%A4%9C%E0%A5%8D%E0%A4%9C%E0%A5%88%E0%A4%A8+%E0%A4%9F%E0%A5%8B%E0%A4%B2%E0%A4%BE+%E0%A4%95%E0%A4%AC%E0%A5%8D%E0%A4%B0%E0%A4%BF%E0%A4%B8%E0%A5%8D%E0%A4%A4%E0%A4%BE%E0%A4%A8/data=!4m7!3m6!1s0x39936f566a8f8e69:0xae1eebd911973dea!8m2!3d26.8016891!4d84.5137725!16s%2Fg%2F11kpygv2m9!19sChIJaY6PalZvkzkR6j2XEdnrHq4?authuser=0&hl=en&rclk=1,"26.801689099999997,84.5137725"
