name,main_category,address,address_ward,address_street,address_city,address_postal_code,address_state,address_country_code,link,coordinates
Mirganj Madina Masjid,Mosque,"989M+3RC Mirganj Madina Masjid, Mirganj, Bihar 841438",,989M+3RC,Mirganj,841438,Bihar,IN,https://www.google.com/maps/place/Mirganj+Madina+Masjid/data=!4m7!3m6!1s0x3993016d69f90827:0xe0c964d7b7148e1a!8m2!3d26.3676814!4d84.3345151!16s%2Fg%2F11c67vzhmk!19sChIJJwj5aW0BkzkRGo4Ut9dkyeA?authuser=0&hl=en&rclk=1,"26.3676814,84.33451509999999"
Sawreji Masjid,Mosque,"982H+9VV Sawreji Masjid, Sawreji, Mirganj, Kaparpura, Bihar 841438",Sawreji,982H+9VV,"Mirganj, Kaparpura",841438,Bihar,IN,https://www.google.com/maps/place/Sawreji+Masjid/data=!4m7!3m6!1s0x399301a110a8a33b:0x41603507c496657c!8m2!3d26.3509843!4d84.3296844!16s%2Fg%2F11c1l9rvkv!19sChIJO6OoEKEBkzkRfGWWxAc1YEE?authuser=0&hl=en&rclk=1,"26.3509843,84.32968439999999"
Mirganj Jama Masjid dkssinn muhllaa,Mosque,"Mirganj Jama Masjid dkssinn muhllaa, 9, Shyam Bihari Rd, Narainian, Mirganj, Bihar 841438",Narainian,"9, Shyam Bihari Rd",Mirganj,841438,Bihar,IN,https://www.google.com/maps/place/Mirganj+Jama+Masjid+%E0%A4%A6%E0%A4%95%E0%A5%8D%E0%A4%B7%E0%A4%BF%E0%A4%A3+%E0%A4%AE%E0%A5%81%E0%A4%B9%E0%A4%B2%E0%A5%8D%E0%A4%B2%E0%A4%BE/data=!4m7!3m6!1s0x39930173b44ecd91:0xc5d1a6150511cb55!8m2!3d26.363495!4d84.3369217!16s%2Fg%2F11d_bbf5m5!19sChIJkc1OtHMBkzkRVcsRBRWm0cU?authuser=0&hl=en&rclk=1,"26.363495,84.33692169999999"
Mirganj MOSQUE,Mosque,"987M+XX5 Mirganj MOSQUE, Hathua Road, Narainian, Mirganj, Bihar 841438",Narainian,"987M+XX5, Hathua Road",Mirganj,841438,Bihar,IN,https://www.google.com/maps/place/Mirganj+MOSQUE/data=!4m7!3m6!1s0x39930172ec4ceae3:0xb28120954484b61b!8m2!3d26.364894!4d84.3349717!16s%2Fg%2F11c6vvd9pt!19sChIJ4-pM7HIBkzkRG7aERJUggbI?authuser=0&hl=en&rclk=1,"26.364894,84.3349717"
MIRGANJ Badi Masjid,Mosque,"988Q+P4G MIRGANJ Badi Masjid, Mirganj, Bihar 841438",,988Q+P4G,Mirganj,,Bihar,IN,https://www.google.com/maps/place/MIRGANJ+Badi+Masjid/data=!4m7!3m6!1s0x3993016df8161639:0xae8e5beaa1f226f2!8m2!3d26.3668121!4d84.3378283!16s%2Fg%2F11gds1hfl3!19sChIJORYW-G0BkzkR8ibyoepbjq4?authuser=0&hl=en&rclk=1,"26.366812099999997,84.3378283"
Jama Masjid Meerganj,Mosque,"Jama Masjid Meerganj, ward no 9, Thana Rd, Mirganj, Uttar Pradesh 243504",,"ward no 9, Thana Rd",Mirganj,243504,Uttar Pradesh,IN,https://www.google.com/maps/place/Jama+Masjid+Meerganj/data=!4m7!3m6!1s0x390aa34893a138d9:0x98296367ef3c537d!8m2!3d28.5411926!4d79.2100779!16s%2Fg%2F11g9jz0ry8!19sChIJ2Tihk0ijCjkRfVM872djKZg?authuser=0&hl=en&rclk=1,"28.5411926,79.2100779"
Nagar Mirganj Jame Masjid,Mosque,"P74J+5FF Nagar Mirganj Jame Masjid, Mirganj Bazar, Chawkbazar Road, Tamphat, Bangladesh",,"P74J+5FF Mirganj Bazar, Chawkbazar Road",Tamphat,,,BD,https://www.google.com/maps/place/Nagar+Mirganj+Jame+Masjid/data=!4m7!3m6!1s0x39e32d011ffe641f:0xd0a83eb8c89abc1!8m2!3d25.7054477!4d89.2811787!16s%2Fg%2F11xfsltjv!19sChIJH2T-HwEt4zkRwauJjOuDCg0?authuser=0&hl=en&rclk=1,"25.7054477,89.2811787"
JAMA MASJID,Mosque,"G5VH+PGX JAMA MASJID, sujatpur, Mirganj, Uttar Pradesh",,"G5VH+PGX, sujatpur","Mirganj, Sujatpur",,Uttar Pradesh,IN,https://www.google.com/maps/place/JAMA+MASJID/data=!4m7!3m6!1s0x390abdfd39c2ae3f:0x90bcf852cf2c1dc0!8m2!3d28.5443722!4d79.178864!16s%2Fg%2F11h2fgj2nr!19sChIJP67COf29CjkRwB0sz1L4vJA?authuser=0&hl=en&rclk=1,"28.544372199999998,79.17886399999999"
Balahata masjid,Mosque,"Balahata masjid, Balahata Bazar, Mirganj Rd, Balesra, Bihar 841438",,"Balahata Bazar, Mirganj Rd",Balesra,841438,Bihar,IN,https://www.google.com/maps/place/Balahata+masjid/data=!4m7!3m6!1s0x399301b9f7fbb99d:0x364d80a8bd9ef140!8m2!3d26.3944574!4d84.3245656!16s%2Fg%2F11h7n7p0bx!19sChIJnbn797kBkzkRQPGevaiATTY?authuser=0&hl=en&rclk=1,"26.3944574,84.3245656"
Haji Ji Masjid,Mosque,"Haji Ji Masjid, ward no 11 mohalla sekhupur gali imam badha, Mirganj, Uttar Pradesh 243504",,ward no 11 mohalla sekhupur gali imam badha,Mirganj,243504,Uttar Pradesh,IN,https://www.google.com/maps/place/Haji+Ji+Masjid/data=!4m7!3m6!1s0x390aa348ed1ed7e7:0xaaf152eef1b2d4cb!8m2!3d28.539204!4d79.2077562!16s%2Fg%2F11g7z4sd8s!19sChIJ59ce7UijCjkRy9Sy8e5S8ao?authuser=0&hl=en&rclk=1,"28.539203999999998,79.20775619999999"
Mirganj Madarsa,Mosque,"987J+CWM Mirganj Madarsa, Rajapur, Bihar 841438",,987J+CWM,Rajapur,841438,Bihar,IN,https://www.google.com/maps/place/Mirganj+Madarsa/data=!4m7!3m6!1s0x3993010d277ccee3:0x99f75e4154d19fc0!8m2!3d26.36358!4d84.3323083!16s%2Fg%2F11g8yb1lyr!19sChIJ4858Jw0BkzkRwJ_RVEFe95k?authuser=0&hl=en&rclk=1,"26.36358,84.3323083"
Sarai Masjid,Religious destination,"Sarai Masjid, ward no 9, Thana Rd, Mirganj, Uttar Pradesh 243504",,"ward no 9, Thana Rd",Mirganj,243504,Uttar Pradesh,IN,https://www.google.com/maps/place/Sarai+Masjid/data=!4m7!3m6!1s0x390aa3492669a537:0xa4be90412154e0c7!8m2!3d28.539634!4d79.2081508!16s%2Fg%2F11c749rf5s!19sChIJN6VpJkmjCjkRx-BUIUGQvqQ?authuser=0&hl=en&rclk=1,"28.539634,79.2081508"
Noori Masjid,Mosque,"Noori Masjid, Milak Tajkhan, Mirapur Mirganj, Uttar Pradesh 244924",,,"Milak Tajkhan, Mirapur Mirganj",244924,Uttar Pradesh,IN,https://www.google.com/maps/place/Noori+Masjid/data=!4m7!3m6!1s0x390a636c47820417:0x3310d516eb72ca9d!8m2!3d29.0119407!4d79.1182809!16s%2Fg%2F11vf3s93vk!19sChIJFwSCR2xjCjkRncpy6xbVEDM?authuser=0&hl=en&rclk=1,"29.0119407,79.1182809"
Nurani masjid,Mosque,"989V+FG7 Nurani masjid, Barharia Rd, Mirganj, Bihar 841438",,"989V+FG7, Barharia Rd",Mirganj,841438,Bihar,IN,https://www.google.com/maps/place/Nurani+masjid/data=!4m7!3m6!1s0x3993016fa3038387:0xa0e07840e97b6d12!8m2!3d26.3686721!4d84.3437975!16s%2Fg%2F11gdtpgngk!19sChIJh4MDo28BkzkREm176UB44KA?authuser=0&hl=en&rclk=1,"26.368672099999998,84.3437975"
Masjid Kaparpura,Mosque,"98CF+9W4 Masjid Kaparpura, Barua Kapar Pura, Bihar 841438",,98CF+9W4,Barua Kapar Pura,,Bihar,IN,https://www.google.com/maps/place/Masjid+Kaparpura/data=!4m7!3m6!1s0x399301d4f61dfc61:0x8b279eb0e278d723!8m2!3d26.3708958!4d84.3248295!16s%2Fg%2F11g4dhtjpr!19sChIJYfwd9tQBkzkRI9d44rCeJ4s?authuser=0&hl=en&rclk=1,"26.3708958,84.32482949999999"
Hari masjid,Mosque,"G6R4+4MX Hari masjid, Mirganj, Uttar Pradesh 243504",,G6R4+4MX,Mirganj,243504,Uttar Pradesh,IN,https://www.google.com/maps/place/Hari+masjid/data=!4m7!3m6!1s0x390aa3042d56da99:0xab44903b0adef75c!8m2!3d28.5403517!4d79.2067193!16s%2Fg%2F11ft7c4mdq!19sChIJmdpWLQSjCjkRXPfeCjuQRKs?authuser=0&hl=en&rclk=1,"28.5403517,79.2067193"
"Jorgama JAMA MASJID, Mirganj",Mosque,"WX99+3F Jorgama JAMA MASJID, Mirganj, Rahta, Bihar 852122",,WX99+3F,Rahta,852122,Bihar,IN,"https://www.google.com/maps/place/Jorgama+JAMA+MASJID,+Mirganj/data=!4m7!3m6!1s0x39efcbf2e0e289ff:0x9de7f536fad68557!8m2!3d25.9176116!4d86.968687!16s%2Fg%2F11pdxp5lzm!19sChIJ_4ni4PLL7zkRV4XW-jb1550?authuser=0&hl=en&rclk=1","25.917611599999997,86.968687"
Narainia Jama Masjid,Mosque,"Narainia Jama Masjid, Chhapra - Gopalganj Rd, Mirganj, Kaparpura, Bihar 841436",,Chhapra - Gopalganj Rd,"Mirganj, Kaparpura",841436,Bihar,IN,https://www.google.com/maps/place/Narainia+Jama+Masjid/data=!4m7!3m6!1s0x39930194222927c7:0x897a58b2e20dff7!8m2!3d26.3586037!4d84.3354303!16s%2Fg%2F11hzhw9qm6!19sChIJxycpIpQBkzkR998gLoullwg?authuser=0&hl=en&rclk=1,"26.3586037,84.3354303"
Mirganj Eid Gah,Mosque,"987J+CW3 Mirganj Eid Gah, Rajapur, Bihar 841438",,987J+CW3,Rajapur,841438,Bihar,IN,https://www.google.com/maps/place/Mirganj+Eid+Gah/data=!4m7!3m6!1s0x3993010cd8ef728b:0x3c3877158644e5ff!8m2!3d26.3635182!4d84.3322871!16s%2Fg%2F11d_bcj2lh!19sChIJi3Lv2AwBkzkR_-VEhhV3ODw?authuser=0&hl=en&rclk=1,"26.363518199999998,84.3322871"
Maaz Bin Jabal Masjid Karimganj,Mosque,"PHMR+Q5C Maaz Bin Jabal Masjid Karimganj, Mirganj, Bihar 824125",,PHMR+Q5C,Mirganj,824125,Bihar,IN,https://www.google.com/maps/place/Maaz+Bin+Jabal+Masjid+Karimganj/data=!4m7!3m6!1s0x398ce111b5fc269b:0x78560af61b85af57!8m2!3d24.734501!4d84.590398!16s%2Fg%2F11vhft0vhl!19sChIJmyb8tRHhjDkRV6-FG_YKVng?authuser=0&hl=en&rclk=1,"24.734500999999998,84.590398"
Raza Masjid Hurhuri,Mosque,"G64J+P75 Raza Masjid Hurhuri, Hurhuri, Mirganj",,"G64J+P75, Hurhuri","Mirganj, Hurhuri",,Uttar Pradesh,IN,https://www.google.com/maps/place/Raza+Masjid+Hurhuri/data=!4m7!3m6!1s0x390aa5502146f827:0xae15966340e4fc0c!8m2!3d28.5067673!4d79.2307267!16s%2Fg%2F11s78bklwk!19sChIJJ_hGIVClCjkRDPzkQGOWFa4?authuser=0&hl=en&rclk=1,"28.5067673,79.23072669999999"
Masjid,Mosque,"989P+R7W Masjid, Mauje Narayanpur (pachhim tola) District Gopalganj post, Mirganj, Bihar",,"989P+R7W, Mauje Narayanpur (pachhim tola) District Gopalganj post",Mirganj,,Bihar,IN,https://www.google.com/maps/place/Masjid/data=!4m7!3m6!1s0x399301ed5abc1e33:0x656bd75ac51c161e!8m2!3d26.3696161!4d84.3357088!16s%2Fg%2F11g4dkdtx1!19sChIJMx68Wu0BkzkRHhYcxVrXa2U?authuser=0&hl=en&rclk=1,"26.3696161,84.33570879999999"
Masjid mirganj,Mosque,"QQF6+4F7 Masjid mirganj, Mirganj, Jharkhand 825407",,QQF6+4F7,Mirganj,825407,Jharkhand,IN,https://www.google.com/maps/place/Masjid+mirganj/data=!4m7!3m6!1s0x39f3adc1cb316da9:0xd296bcf1735a264c!8m2!3d24.7727967!4d85.7611834!16s%2Fg%2F11p064hpgw!19sChIJqW0xy8Gt8zkRTCZac_G8ltI?authuser=0&hl=en&rclk=1,"24.772796699999997,85.7611834"
Madeena masjid balupura meerganj Bareilly up,Mosque,"G5MX+RHR Madeena masjid balupura meerganj Bareilly up, Unnamed Road, Uttar Pradesh 243504",,"G5MX+RHR, Unnamed Road",Balpura,243504,Uttar Pradesh,IN,https://www.google.com/maps/place/Madeena+masjid+balupura+meerganj+Bareilly+up/data=!4m7!3m6!1s0x390abd3c6a970bff:0x1d240705a8ed2a76!8m2!3d28.5346083!4d79.198899!16s%2Fg%2F11ry8m35wn!19sChIJ_wuXajy9CjkRdirtqAUHJB0?authuser=0&hl=en&rclk=1,"28.5346083,79.198899"
Tahsil mazar meerganj,Mosque,"G6Q2+JR Tahsil mazar meerganj, Mirganj, Uttar Pradesh 243504",,G6Q2+JR,Mirganj,243504,Uttar Pradesh,IN,https://www.google.com/maps/place/Tahsil+mazar+meerganj/data=!4m7!3m6!1s0x390aa3bdd4f3f6cd:0xa7e47f1c343c9795!8m2!3d28.5390557!4d79.2019597!16s%2Fg%2F11r_whtzhj!19sChIJzfbz1L2jCjkRlZc8NBx_5Kc?authuser=0&hl=en&rclk=1,"28.5390557,79.2019597"
Masjid imam bada msjid imaambaadd'aa,Mosque,"G6R5+47X Masjid imam bada msjid imaambaadd'aa, Mirganj, Uttar Pradesh 243504",,G6R5+47X,Mirganj,,Uttar Pradesh,IN,https://www.google.com/maps/place/Masjid+imam+bada+%E0%A4%AE%E0%A4%B8%E0%A5%8D%E0%A4%9C%E0%A4%BF%E0%A4%A6+%E0%A4%87%E0%A4%AE%E0%A4%BE%E0%A4%AE%E0%A4%AC%E0%A4%BE%E0%A4%A1%E0%A4%BC%E0%A4%BE/data=!4m7!3m6!1s0x390aa3b45a8a5a4d:0xc822fc12efecc7de!8m2!3d28.5403586!4d79.2082283!16s%2Fg%2F11vdbddcl3!19sChIJTVqKWrSjCjkR3sfs7xL8Isg?authuser=0&hl=en&rclk=1,"28.540358599999998,79.2082283"
Raza Masjid Meerganj,Mosque,"XP4R+VW6 Raza Masjid Meerganj, Tilhar, Uttar Pradesh 242307",,XP4R+VW6,Tilhar,242307,Uttar Pradesh,IN,https://www.google.com/maps/place/Raza+Masjid+Meerganj/data=!4m7!3m6!1s0x399f95bae9882031:0x4aac0434a047aa5a!8m2!3d27.9571748!4d79.7422715!16s%2Fg%2F11txggy7qz!19sChIJMSCI6bqVnzkRWqpHoDQErEo?authuser=0&hl=en&rclk=1,"27.957174799999997,79.7422715"
MIRGANJ MASJID MADARSHA,Mosque,"PHPQ+H6R MIRGANJ MASJID MADARSHA, Mirganj, Parsa, Bihar 824125",,PHPQ+H6R,"Mirganj, Parsa",824125,Bihar,IN,https://www.google.com/maps/place/MIRGANJ+MASJID+MADARSHA/data=!4m7!3m6!1s0x398ce1608b4027a3:0x2ee6ff6a2fd11672!8m2!3d24.7364618!4d84.5880721!16s%2Fg%2F11l30pw0gh!19sChIJoydAi2DhjDkRchbRL2r_5i4?authuser=0&hl=en&rclk=1,"24.736461799999997,84.58807209999999"
Jama Masjid Dakaita Mirganj,Mosque,"Q75G+Q4X Jama Masjid Dakaita Mirganj, Dakaiha, Bihar 854205",,Q75G+Q4X,Dakaiha,854205,Bihar,IN,https://www.google.com/maps/place/Jama+Masjid+Dakaita+Mirganj/data=!4m7!3m6!1s0x39efe7f81d80f51d:0xac6304ae7168e2a2!8m2!3d25.7594924!4d87.2753581!16s%2Fg%2F11tp38w0y6!19sChIJHfWAHfjn7zkRouJoca4EY6w?authuser=0&hl=en&rclk=1,"25.7594924,87.27535809999999"
ASARIA JAME MASJID,Mosque,"989P+R7W ASARIA JAME MASJID, Amtali, Mirganj, Bihar 841438",Amtali,989P+R7W,Mirganj,,Bihar,IN,https://www.google.com/maps/place/ASARIA+JAME+MASJID/data=!4m7!3m6!1s0x399301bb5af86f4f:0x14ad3f22f6c0f409!8m2!3d26.3696161!4d84.3357088!16s%2Fg%2F11j0lzk3ym!19sChIJT2_4WrsBkzkRCfTA9iI_rRQ?authuser=0&hl=en&rclk=1,"26.3696161,84.33570879999999"
Bangra masjid,Mosque,"992J+QFM Bangra masjid, Gopalganj - Siwan, Road, Mirganj, Bihar 841436",,"992J+QFM, Gopalganj - Siwan, Road","Mirganj, Bangra Buzurg",841436,Bihar,IN,https://www.google.com/maps/place/Bangra+masjid/data=!4m7!3m6!1s0x399303f81b78ec15:0x282df8591d79d4a2!8m2!3d26.3519592!4d84.381162!16s%2Fg%2F11stp26qrh!19sChIJFex4G_gDkzkRotR5HVn4LSg?authuser=0&hl=en&rclk=1,"26.3519592,84.38116199999999"
