name,main_category,address,address_ward,address_street,address_city,address_postal_code,address_state,address_country_code,link,coordinates
Jama Masjid,Mosque,"Jama Masjid, Old Delhi, Delhi, 110006","Jama Masjid, Old Delhi",,Delhi,110006,Delhi,IN,https://www.google.com/maps/place/Jama+Masjid/data=!4m7!3m6!1s0x390cfd18df89b215:0xdd57369e29bf9d96!8m2!3d28.6506792!4d77.2334421!16zL20vMDR5emo1!19sChIJFbKJ3xj9DDkRlp2_KZ42V90?authuser=0&hl=en&rclk=1,"28.6506792,77.23344209999999"
Masjid Mujeeb Bagh,Mosque,"H74R+R4J Masjid Mujeeb Bagh, Mujeeb Bagh, Jamia Nagar, Okhla, New Delhi, Delhi 110025","Mujeeb Bagh, Jamia Nagar, Okhla",H74R+R4J,New Delhi,110025,Delhi,IN,https://www.google.com/maps/place/Masjid+Mujeeb+Bagh/data=!4m7!3m6!1s0x390ce40bc79e1ce9:0x18ab01f5fdcf10b3!8m2!3d28.5570856!4d77.2902574!16s%2Fg%2F11hbvrlrnj!19sChIJ6RyexwvkDDkRsxDP_fUBqxg?authuser=0&hl=en&rclk=1,"28.557085599999997,77.2902574"
"Ghausia Masjid, Jasola",Mosque,"Ghausia Masjid, Jasola, 171, Jasola, Jasola Vihar, New Delhi, Delhi 110025","Jasola, Jasola Vihar",171,New Delhi,110025,Delhi,IN,"https://www.google.com/maps/place/Ghausia+Masjid,+Jasola/data=!4m7!3m6!1s0x390ce5c200a37205:0xfebb591e8a3c8619!8m2!3d28.5488829!4d77.2921906!16s%2Fg%2F11nl7bc3f7!19sChIJBXKjAMLlDDkRGYY8ih5Zu_4?authuser=0&hl=en&rclk=1","28.5488829,77.2921906"
Khalilullah Masjid,Mosque,"Khalilullah Masjid, KHALILULLAH masjid, I 80/A, Batla House, Jamia Nagar, Okhla, New Delhi, Delhi 110025","Batla House, Jamia Nagar, Okhla","KHALILULLAH masjid, I 80/A",New Delhi,110025,Delhi,IN,https://www.google.com/maps/place/Khalilullah+Masjid/data=!4m7!3m6!1s0x390ce475d1de5d13:0xe00156a6e547ab99!8m2!3d28.566411!4d77.2889085!16s%2Fg%2F1tj1kwt5!19sChIJE13e0XXkDDkRmatH5aZWAeA?authuser=0&hl=en&rclk=1,"28.566411,77.28890849999999"
Masjid Moth,Mosque,"Masjid Moth, 92, Masjid Moth Rd, South Extension II, Masjid Moth Village, New Delhi, Delhi 110049","South Extension II, Masjid Moth Village","92, Masjid Moth Rd",New Delhi,110049,Delhi,IN,https://www.google.com/maps/place/Masjid+Moth/data=!4m7!3m6!1s0x390ce242799950e9:0xb2f0ba5418b140f8!8m2!3d28.562458!4d77.2176906!16s%2Fm%2F05zxh9f!19sChIJ6VCZeULiDDkR-ECxGFS68LI?authuser=0&hl=en&rclk=1,"28.562458,77.2176906"
Jama Masjid (Shaheen Bagh),Mosque,"Jama Masjid (Shaheen Bagh), 12, Kalindi Kunj Rd, Block B, Jamia Nagar, Jasola, New Delhi, Delhi 110025","Block B, Jamia Nagar, Jasola","12, Kalindi Kunj Rd",New Delhi,110025,Delhi,IN,https://www.google.com/maps/place/Jama+Masjid+%28Shaheen+Bagh%29/data=!4m7!3m6!1s0x390ce41a3d9d581b:0xc7b0e62465b11de9!8m2!3d28.5496905!4d77.3028252!16s%2Fg%2F11g7p2t2hd!19sChIJG1idPRrkDDkR6R2xZSTmsMc?authuser=0&hl=en&rclk=1,"28.549690499999997,77.3028252"
Sabz Masjid,Mosque,"Sabz Masjid, 3571, Lalkuan Bazar Rd, Bazar Sirkiwalan, Lal Kuan Bazar, Chandni Chowk, Delhi, 110006","Bazar Sirkiwalan, Lal Kuan Bazar, Chandni Chowk","3571, Lalkuan Bazar Rd",Delhi,110006,Delhi,IN,https://www.google.com/maps/place/Sabz+Masjid/data=!4m7!3m6!1s0x390cfd16a94877a7:0x7b35bb653cd42e20!8m2!3d28.652163!4d77.223599!16s%2Fm%2F04q247t!19sChIJp3dIqRb9DDkRIC7UPGW7NXs?authuser=0&hl=en&rclk=1,"28.652162999999998,77.223599"
"Jama Masjid, Khadda Colony jm` msjd",Mosque,"Jama Masjid, Khadda Colony jm` msjd, D-202, near by Jama Masjid Gali, Jaitpur Extension Part II, Khadda Colony, Badarpur, New Delhi, Delhi 110044","Jaitpur Extension Part II, Khadda Colony, Badarpur","D-202, near by Jama Masjid Gali",New Delhi,110044,Delhi,IN,"https://www.google.com/maps/place/Jama+Masjid,+Khadda+Colony+%D8%AC%D8%A7%D9%85%D8%B9+%D9%85%D8%B3%D8%AC%D8%AF%E2%80%AD/data=!4m7!3m6!1s0x390ce65a1cc2d345:0x508d72d241ba7c2f!8m2!3d28.5094725!4d77.3384064!16s%2Fg%2F11b_23cdbd!19sChIJRdPCHFrmDDkRL3y6QdJyjVA?authuser=0&hl=en&rclk=1","28.509472499999998,77.3384064"
Masjid Patherwali msjd,Mosque,"1608, Masjid Patherwali msjd, 32, Block 39E, Nai Walan, Karol Bagh, New Delhi, Delhi, 110005","Block 39E, Nai Walan, Karol Bagh","1608, 32","New Delhi, Delhi",110005,Delhi,IN,https://www.google.com/maps/place/Masjid+Patherwali+%D9%85%D8%B3%D8%AC%D8%AF%E2%80%AD/data=!4m7!3m6!1s0x390cfd61ca03d689:0x8ff36a5a3c66d0bd!8m2!3d28.6475823!4d77.1958499!16s%2Fg%2F12hm6x9t2!19sChIJidYDymH9DDkRvdBmPFpq848?authuser=0&hl=en&rclk=1,"28.6475823,77.1958499"
Shahi Masjid Vasant Vihar msjd shhy,Mosque,"H47X+FQ4 Shahi Masjid Vasant Vihar msjd shhy, Muradabad Pahari, D3 St, near Shri Raam School, Vasant Vihar, New Delhi, Delhi 110057",Vasant Vihar,"H47X+FQ4, Muradabad Pahari, D3 St, near Shri Raam School",New Delhi,110057,Delhi,IN,https://www.google.com/maps/place/Shahi+Masjid+Vasant+Vihar+%D9%85%D8%B3%D8%AC%D8%AF+%D8%B4%D8%A7%DB%81%DB%8C%E2%80%AD/data=!4m7!3m6!1s0x390d1dacc6b7318b:0xd650b525228c3634!8m2!3d28.5636477!4d77.1494618!16s%2Fg%2F1xg5r1k0!19sChIJizG3xqwdDTkRNDaMIiW1UNY?authuser=0&hl=en&rclk=1,"28.563647699999997,77.1494618"
Chhappar Wali Masjid,Mosque,"Chhappar Wali Masjid, 48, Okhla Rd, Jamia Nagar, Okhla, New Delhi, Delhi 110025","Jamia Nagar, Okhla","48, Okhla Rd",New Delhi,110025,Delhi,IN,https://www.google.com/maps/place/Chhappar+Wali+Masjid/data=!4m7!3m6!1s0x390ce47512f9ba69:0xdab55473377f5c32!8m2!3d28.5632638!4d77.2880895!16s%2Fg%2F11cn9tyv1h!19sChIJabr5EnXkDDkRMlx_N3NUtdo?authuser=0&hl=en&rclk=1,"28.563263799999998,77.2880895"
Shahi Masjid Khuwaja Pir,Mosque,"Shahi Masjid Khuwaja Pir, A9A, Block A, Friends Colony East, New Friends Colony, New Delhi, Delhi 110065","Block A, Friends Colony East, New Friends Colony",A9A,New Delhi,110065,Delhi,IN,https://www.google.com/maps/place/Shahi+Masjid+Khuwaja+Pir/data=!4m7!3m6!1s0x390ce3a2ce05250b:0xe736d93d4567accc!8m2!3d28.5705505!4d77.2613256!16s%2Fg%2F11b66bs93g!19sChIJCyUFzqLjDDkRzKxnRT3ZNuc?authuser=0&hl=en&rclk=1,"28.5705505,77.26132559999999"
Jahanpanah Masjid,Mosque,"G6J7+CJ4 Jahanpanah Masjid, H Block, Block T, Malviya Nagar, New Delhi, Delhi 110017","H Block, Block T, Malviya Nagar",G6J7+CJ4,New Delhi,110017,Delhi,IN,https://www.google.com/maps/place/Jahanpanah+Masjid/data=!4m7!3m6!1s0x390ce1f5865cbe15:0x62c27e45a052dde8!8m2!3d28.5310221!4d77.2140692!16s%2Fg%2F11c1rsk4mf!19sChIJFb5chvXhDDkR6N1SoEV-wmI?authuser=0&hl=en&rclk=1,"28.531022099999998,77.2140692"
Champa Masjid,Mosque,"V8QR+5FP Champa Masjid, Champa Chowk Rd, Kaiser Colony, Mondha, Aurangabad, Maharashtra 431001","Kaiser Colony, Mondha","V8QR+5FP, Champa Chowk Rd",Aurangabad,431001,Maharashtra,IN,https://www.google.com/maps/place/Champa+Masjid/data=!4m7!3m6!1s0x3bdba2a0a004cde1:0xad9f6f31f9c90cd1!8m2!3d19.887959!4d75.3412029!16s%2Fg%2F11b6v03mh6!19sChIJ4c0EoKCi2zsR0QzJ-TFvn60?authuser=0&hl=en&rclk=1,"19.887959,75.3412029"
Chand Masjid Delhi msjd chnd,Mosque,"M8HJ+Q89 Chand Masjid Delhi msjd chnd, Block D, Old Seemapuri, Delhi, 110095","Block D, Old Seemapuri",M8HJ+Q89,Delhi,110095,Delhi,IN,https://www.google.com/maps/place/Chand+Masjid+Delhi+%D9%85%D8%B3%D8%AC%D8%AF+%DA%86%D8%A7%D9%86%D8%AF%E2%80%AD/data=!4m7!3m6!1s0x390cfb007267e3d3:0xf76fdcb0b751b4ae!8m2!3d28.6794231!4d77.3308684!16s%2Fg%2F1tt1flys!19sChIJ0-NncgD7DDkRrrRRt7Dcb_c?authuser=0&hl=en&rclk=1,"28.679423099999998,77.3308684"
Chand Masjid msjd chnd,Mosque,"J7FR+HCJ Chand Masjid msjd chnd, Block B, Saraswati Gali, Vinod Nagar East, Delhi, 110092","Block B, Saraswati Gali, Vinod Nagar East",J7FR+HCJ,Delhi,110092,Delhi,IN,https://www.google.com/maps/place/Chand+Masjid+%D9%85%D8%B3%D8%AC%D8%AF+%DA%86%D8%A7%D9%86%D8%AF%E2%80%AD/data=!4m7!3m6!1s0x390ce4a95cda3d2b:0xcab349efd1a3d0e5!8m2!3d28.6239676!4d77.2910017!16s%2Fg%2F11xw1d7j7!19sChIJKz3aXKnkDDkR5dCj0e9Js8o?authuser=0&hl=en&rclk=1,"28.6239676,77.2910017"
Masjid Hayat Madarsa Sahabia,Mosque,"F7XW+9R3 Masjid Hayat Madarsa Sahabia, Mehrauli - Badarpur Rd, Mittal Colony, Block RZ H, Pul Pehlad Pur, New Delhi, Faridabad, Delhi 110044","Mittal Colony, Block RZ H, Pul Pehlad Pur","F7XW+9R3, Mehrauli - Badarpur Rd","New Delhi, Faridabad",110044,Delhi,IN,https://www.google.com/maps/place/Masjid+Hayat+Madarsa+Sahabia/data=!4m7!3m6!1s0x390ce6d74f08cf85:0xcf35c38ec0e866ca!8m2!3d28.4983917!4d77.2970623!16s%2Fg%2F12hkbl23n!19sChIJhc8IT9fmDDkRymbowI7DNc8?authuser=0&hl=en&rclk=1,"28.4983917,77.2970623"
Masjid Chakkarwali,Mosque,"H6VV+J99 Masjid Chakkarwali, Dr Zakir Hussain Marg, Nizamuddin, National Zoological Park, Sundar Nagar, New Delhi, Delhi 110003","Nizamuddin, National Zoological Park, Sundar Nagar","H6VV+J99, Dr Zakir Hussain Marg",New Delhi,110003,Delhi,IN,https://www.google.com/maps/place/Masjid+Chakkarwali/data=!4m7!3m6!1s0x390ce31d01969b01:0xa554bb4cb707340e!8m2!3d28.5940396!4d77.2434789!16s%2Fg%2F1tg6nhqh!19sChIJAZuWAR3jDDkRDjQHt0y7VKU?authuser=0&hl=en&rclk=1,"28.5940396,77.2434789"
Saeediya Masjid,Mosque,"Saeediya Masjid, 45, New Silampur Gali, Block A, Chauhan Banger, Shahdara, Delhi, 110031","Block A, Chauhan Banger, Shahdara","45, New Silampur Gali",Delhi,110031,Delhi,IN,https://www.google.com/maps/place/Saeediya+Masjid/data=!4m7!3m6!1s0x390cfc61230920b1:0xd4902005e34cb106!8m2!3d28.678415!4d77.2672561!16s%2Fg%2F11c6qcjmhv!19sChIJsSAJI2H8DDkRBrFM4wUgkNQ?authuser=0&hl=en&rclk=1,"28.678414999999998,77.2672561"
Mohammadi Masjid,Mosque,"M7JC+4R2 Mohammadi Masjid, Chauhan Banger, Shahdara, Delhi, 110031","Chauhan Banger, Shahdara",M7JC+4R2,Delhi,110031,Delhi,IN,https://www.google.com/maps/place/Mohammadi+Masjid/data=!4m7!3m6!1s0x390cfc647f925475:0xea73bafddc2f968a!8m2!3d28.6802653!4d77.2720261!16s%2Fg%2F1tfldmh_!19sChIJdVSSf2T8DDkRipYv3P26c-o?authuser=0&hl=en&rclk=1,"28.6802653,77.27202609999999"
Jama masjid,Mosque,"Jama masjid, Metro station, Giri Nagar, Maa Anandmayee Marg, near Govindpuri, Kalkaji, New Delhi, Delhi 110019","Ami Chand Khand, Block AC, Giri Nagar, Kalkaji","Metro station, Giri Nagar, Maa Anandmayee Marg, near Govindpuri",New Delhi,110019,Delhi,IN,https://www.google.com/maps/place/Jama+masjid/data=!4m7!3m6!1s0x390ce3915ddf4023:0xc0785bd0f9e63fa0!8m2!3d28.5435534!4d77.2644385!16s%2Fg%2F11fj32cs9z!19sChIJI0DfXZHjDDkRoD_m-dBbeMA?authuser=0&hl=en&rclk=1,"28.5435534,77.2644385"
LAL MASJID,Mosque,"M68H+3RH LAL MASJID, Mehar Parwar St, Old Dariya Ganj, Daryaganj, New Delhi, Delhi, 110006","Old Dariya Ganj, Daryaganj","M68H+3RH, Mehar Parwar St","New Delhi, Delhi",110006,Delhi,IN,https://www.google.com/maps/place/LAL+MASJID/data=!4m7!3m6!1s0x390cfd204bfd4f9d:0xfd439f7db6b2c4b0!8m2!3d28.6651865!4d77.2296039!16s%2Fm%2F02w18tr!19sChIJnU_9SyD9DDkRsMSytn2fQ_0?authuser=0&hl=en&rclk=1,"28.665186499999997,77.2296039"
Masjid Majeedia Motilal nehru marg- msjdi mjdyh,Mosque,"Masjid Majeedia Motilal nehru marg- msjdi mjdyh, Unnamed Road, Dr APJ Abdul Kalam Rd, South Block, Aurangzeb Road, New Delhi, Delhi 110001","South Block, Aurangzeb Road","Unnamed Road, Dr APJ Abdul Kalam Rd",New Delhi,110001,Delhi,IN,https://www.google.com/maps/place/Masjid+Majeedia+Motilal+nehru+marg-+%D9%85%D8%B3%D8%AC%D8%AF%D9%90+%D9%85%D8%AC%D8%AF%DB%8C%DB%81%E2%80%AD/data=!4m7!3m6!1s0x390ce2c111445fc5:0x1156210e810cd168!8m2!3d28.6046984!4d77.2215032!16s%2Fg%2F11f1lpdw85!19sChIJxV9EEcHiDDkRaNEMgQ4hVhE?authuser=0&hl=en&rclk=1,"28.6046984,77.2215032"
Masjid Jamun Wali,Mosque,"Masjid Jamun Wali, Jamun Street, Kalan Mahal Rd, Kalan Mahal, Daryaganj, Delhi, 110002","Kalan Mahal, Daryaganj","Jamun Street, Kalan Mahal Rd",Delhi,110002,Delhi,IN,https://www.google.com/maps/place/Masjid+Jamun+Wali/data=!4m7!3m6!1s0x390cfd21e86c6d67:0xebc83db6fbea62a8!8m2!3d28.6473277!4d77.2360868!16s%2Fg%2F11g6qh_snj!19sChIJZ21s6CH9DDkRqGLq-7Y9yOs?authuser=0&hl=en&rclk=1,"28.647327699999998,77.2360868"
Chand Masjid msjd chnd,Mosque,"G722+6QH Chand Masjid msjd chnd, Block H, Sangam Vihar, New Delhi, Delhi 110062","Block H, Sangam Vihar",G722+6QH,New Delhi,110062,Delhi,IN,https://www.google.com/maps/place/Chand+Masjid+%D9%85%D8%B3%D8%AC%D8%AF+%DA%86%D8%A7%D9%86%D8%AF%E2%80%AD/data=!4m7!3m6!1s0x390ce10fffdac40d:0x5e63edae8007a0dc!8m2!3d28.5005721!4d77.2519693!16s%2Fg%2F11g6ngyjk_!19sChIJDcTa_w_hDDkR3KAHgK7tY14?authuser=0&hl=en&rclk=1,"28.5005721,77.2519693"
Mohammadi Masjid,Mosque,"Mohammadi Masjid, block - c , gali no. 12 , shiv vihar part 2, Ismailpur Rd, Ekta Vihar, Basantpur, Faridabad, Delhi 121003","Ekta Vihar, Basantpur","block - c , gali no. 12 , shiv vihar part 2, Ismailpur Rd","Faridabad, New Delhi",121003,Delhi,IN,https://www.google.com/maps/place/Mohammadi+Masjid/data=!4m7!3m6!1s0x390ce65691d77451:0x37e5a2edf0d4bd81!8m2!3d28.5035617!4d77.3360423!16s%2Fg%2F12hmr57km!19sChIJUXTXkVbmDDkRgb3U8O2i5Tc?authuser=0&hl=en&rclk=1,"28.5035617,77.3360423"
Champa Masjid,Mosque,"Champa Masjid, 26, Late Shree Kasambhai J Shekh Marg, Rajpur Hirpur, Gomtipur, Ahmedabad, Gujarat 380021","Rajpur Hirpur, Gomtipur","26, Late Shree Kasambhai J Shekh Marg",Ahmedabad,380021,Gujarat,IN,https://www.google.com/maps/place/Champa+Masjid/data=!4m7!3m6!1s0x395e85d5d591ae19:0xcc2660bec706c024!8m2!3d23.0143741!4d72.6117759!16s%2Fg%2F11c5_dz98q!19sChIJGa6R1dWFXjkRJMAGx75gJsw?authuser=0&hl=en&rclk=1,"23.014374099999998,72.6117759"
Masjid Chaunsath Khamba,Mosque,"Masjid Chaunsath Khamba, J-2 masjid, Mirdard Marg, 64 Khamba, New Delhi, Delhi 110002",64 Khamba,"J-2 masjid, Mirdard Marg","New Delhi, Delhi",110002,Delhi,IN,https://www.google.com/maps/place/Masjid+Chaunsath+Khamba/data=!4m7!3m6!1s0x390cfd25fcb6f9fb:0x234be84bf96f2653!8m2!3d28.637151!4d77.2344427!16s%2Fg%2F11dx8h8fyc!19sChIJ-_m2_CX9DDkRUyZv-UvoSyM?authuser=0&hl=en&rclk=1,"28.637151,77.2344427"
Masjid-e-Anjum,Mosque,"Masjid-e-Anjum, Indira Gandhi Camp Part 2, New Friends Colony, New Delhi, Delhi 110065","Block A, Taimoor Nagar, New Friends Colony","Indira Gandhi Camp Part 2, New Friends Colony",New Delhi,110065,Delhi,IN,https://www.google.com/maps/place/Masjid-e-Anjum/data=!4m7!3m6!1s0x390ce39a2cbe5dad:0x263099a5cc320902!8m2!3d28.573773!4d77.2696933!16s%2Fg%2F11ckkxbn_t!19sChIJrV2-LJrjDDkRAgkyzKWZMCY?authuser=0&hl=en&rclk=1,"28.573773,77.2696933"
Masjid Mashal Chiyan,Mosque,"Masjid Mashal Chiyan, 2100, Pahari Bhojla Rd, Pahari Bhojla, Sita Ram Bazar, Old Delhi, Delhi, 110006","Pahari Bhojla, Sita Ram Bazar, Old Delhi","2100, Pahari Bhojla Rd",Delhi,110006,Delhi,IN,https://www.google.com/maps/place/Masjid+Mashal+Chiyan/data=!4m7!3m6!1s0x390cfd225b6ed379:0x9d5cccd781f0a815!8m2!3d28.6454716!4d77.232231!16s%2Fg%2F11f1211zsv!19sChIJedNuWyL9DDkRFajwgdfMXJ0?authuser=0&hl=en&rclk=1,"28.6454716,77.232231"
Masjid Badi msjd,Mosque,"Masjid Badi msjd, 893,, Chittli Qabar Bazar Rd, Jama Masjid, Chandni Chowk, New Delhi, Delhi 110006","Bazar Chitli Qabar, Kucha Chelan, Jama Masjid, Chandni Chowk","893,, Chittli Qabar Bazar Rd","New Delhi, Delhi",110006,Delhi,IN,https://www.google.com/maps/place/Masjid+Badi+%D9%85%D8%B3%D8%AC%D8%AF%E2%80%AD/data=!4m7!3m6!1s0x390cfd219cfec1f3:0x93ccacb281d71709!8m2!3d28.645321!4d77.2357133!16s%2Fg%2F12m98gjn5!19sChIJ88H-nCH9DDkRCRfXgbKszJM?authuser=0&hl=en&rclk=1,"28.645321,77.2357133"
Masjid Chaman Wali,Mosque,"J6VQ+35F Masjid Chaman Wali, Chatta Lal Main Rd, Chatta lal Miya, Chandni Mahal, Old Delhi, New Delhi, Delhi, 110006","Chatta lal Miya, Chandni Mahal, Old Delhi","J6VQ+35F, Chatta Lal Main Rd","New Delhi, Delhi",110006,Delhi,IN,https://www.google.com/maps/place/Masjid+Chaman+Wali/data=!4m7!3m6!1s0x390cfd20d48b3cf5:0x916e89198649cad7!8m2!3d28.6426911!4d77.2379154!16s%2Fg%2F11dylqpy8c!19sChIJ9TyL1CD9DDkR18pJhhmJbpE?authuser=0&hl=en&rclk=1,"28.6426911,77.23791539999999"
Jama Masjid,Mosque,"2JPR+F29 Jama Masjid, Champa Basti, Champa, Chhattisgarh 495671",Champa Basti,2JPR+F29,Champa,495671,Chhattisgarh,IN,https://www.google.com/maps/place/Jama+Masjid/data=!4m7!3m6!1s0x3a27be7a8a4a30a5:0x57fffb5787881188!8m2!3d22.0361656!4d82.640099!16s%2Fg%2F11gf2x3m40!19sChIJpTBKinq-JzoRiBGIh1f7_1c?authuser=0&hl=en&rclk=1,"22.0361656,82.64009899999999"
Masjid-e-Sheikh Gaamon Main,Mosque,"M666+HGC Masjid-e-Sheikh Gaamon Main, Bahadurgarh Rd, Fyaz Ganj, Sadar Bazaar, New Delhi, Delhi, 110006","Fyaz Ganj, Sadar Bazaar","M666+HGC, Bahadurgarh Rd","New Delhi, Delhi",110006,Delhi,IN,https://www.google.com/maps/place/Masjid-e-Sheikh+Gaamon+Main/data=!4m7!3m6!1s0x390cfd71670a93f3:0x268d3d15d4cf21e6!8m2!3d28.6614422!4d77.2112784!16s%2Fg%2F11b75fwqwr!19sChIJ85MKZ3H9DDkR5iHP1BU9jSY?authuser=0&hl=en&rclk=1,"28.6614422,77.2112784"
Jama Masjid,Mosque,"87F4+RHW Jama Masjid, Madalpur, Haryana 121004",,87F4+RHW,Madalpur,121004,Haryana,IN,https://www.google.com/maps/place/Jama+Masjid/data=!4m7!3m6!1s0x390cd91694a40627:0xfe3405ceedb81edc!8m2!3d28.3246073!4d77.2564525!16s%2Fg%2F11g6rjt8bt!19sChIJJwaklBbZDDkR3B647c4FNP4?authuser=0&hl=en&rclk=1,"28.3246073,77.2564525"
SHAHI JAMA MASJID jm` msjd shhy,Mosque,"SHAHI JAMA MASJID jm` msjd shhy, 22, foot road, Shram Vihar, Pocket N, Madanpur Khadar, New Delhi, Delhi 110025","Shram Vihar, Pocket N, Madanpur Khadar","22, foot road",New Delhi,110025,Delhi,IN,https://www.google.com/maps/place/SHAHI+JAMA+MASJID+%D8%AC%D8%A7%D9%85%D8%B9+%D9%85%D8%B3%D8%AC%D8%AF+%D8%B4%D8%A7%DA%BE%DB%8C%E2%80%AD/data=!4m7!3m6!1s0x390ce5a36ba3a95d:0x7cb7c1435cda3fd2!8m2!3d28.5405938!4d77.3038368!16s%2Fg%2F11n733rllr!19sChIJXamja6PlDDkR0j_aXEPBt3w?authuser=0&hl=en&rclk=1,"28.5405938,77.3038368"
Mashal Shihan Masjid,Mosque,"Mashal Shihan Masjid, 2106, Sitaram Bazar Rd, Pahari Bhojla, Sita Ram Bazar, Chandni Chowk, Delhi, 110006","Pahari Bhojla, Sita Ram Bazar, Chandni Chowk","2106, Sitaram Bazar Rd",Delhi,110006,Delhi,IN,https://www.google.com/maps/place/Mashal+Shihan+Masjid/data=!4m7!3m6!1s0x390cfd22573ea689:0xd0bacca9e2a885ae!8m2!3d28.6458657!4d77.2314269!16s%2Fg%2F11g6rftfft!19sChIJiaY-VyL9DDkRroWo4qnMutA?authuser=0&hl=en&rclk=1,"28.645865699999998,77.2314269"
Masjid Chatta Sheikh Manglo,Mosque,"J6XJ+HXC Masjid Chatta Sheikh Manglo, Choori Walan, Kalan Mehal, Chandni Chowk, New Delhi, Delhi, 110002","Choori Walan, Kalan Mehal, Chandni Chowk",J6XJ+HXC,"New Delhi, Delhi",110002,Delhi,IN,https://www.google.com/maps/place/Masjid+Chatta+Sheikh+Manglo/data=!4m7!3m6!1s0x390cfd188c598f69:0x5942000107ab82cb!8m2!3d28.6489319!4d77.2323897!16s%2Fg%2F11gchs9zp4!19sChIJaY9ZjBj9DDkRy4KrBwEAQlk?authuser=0&hl=en&rclk=1,"28.648931899999997,77.2323897"
Masjid Sanauji,Mosque,"Masjid Sanauji, Shop No. 1630, Lal Kuan, Lalkuan Bazar Rd, Baradari, Chandni Chowk, New Delhi, Delhi 110006","Bazar Sirkiwalan, Baradari, Chandni Chowk","Shop No. 1630, Lal Kuan, Lalkuan Bazar Rd","New Delhi, Delhi",110006,Delhi,IN,https://www.google.com/maps/place/Masjid+Sanauji/data=!4m7!3m6!1s0x390cfd13fe3ea72d:0x27ea23bc5f650202!8m2!3d28.6529317!4d77.2232485!16s%2Fg%2F12hplq4pp!19sChIJLac-_hP9DDkRAgJlX7wj6ic?authuser=0&hl=en&rclk=1,"28.6529317,77.2232485"
Mosque msjd,Mosque,"Mosque msjd, 3696, Mori Gate, New Delhi, Delhi 110006",Mori Gate,3696,"New Delhi, Delhi",110006,Delhi,IN,https://www.google.com/maps/place/Mosque+%D9%85%D8%B3%D8%AC%D8%AF%E2%80%AD/data=!4m7!3m6!1s0x390cfd0c79fa6f11:0x326ac233054d2efa!8m2!3d28.6635017!4d77.2212005!16s%2Fg%2F12lkq2186!19sChIJEW_6eQz9DDkR-i5NBTPCajI?authuser=0&hl=en&rclk=1,"28.663501699999998,77.2212005"
KAASMI MASJID,Mosque,"KAASMI MASJID, 8 -110094, Gali No. 2, E2 Block, Nehru Vihar, New Mustafabad, Delhi, 110094","E2 Block, Nehru Vihar, Old Mustafabad, New Mustafabad","8 -110094, Gali No. 2",Delhi,110094,Delhi,IN,https://www.google.com/maps/place/KAASMI+MASJID/data=!4m7!3m6!1s0x390cfc1bc20852c3:0xbeb256e8db121704!8m2!3d28.712964!4d77.2702719!16s%2Fg%2F11fxb790sf!19sChIJw1IIwhv8DDkRBBcS2-hWsr4?authuser=0&hl=en&rclk=1,"28.712964,77.2702719"
Qaziyon Ki Masjid msjd qDywN khy,Mosque,"Qaziyon Ki Masjid msjd qDywN khy, 1091/1, Ambawatta Complex, Internal Path, Mehrauli Village, Mehrauli, New Delhi, Delhi 110030","Mehrauli Village, Mehrauli","1091/1, Ambawatta Complex, Internal Path",New Delhi,110030,Delhi,IN,https://www.google.com/maps/place/Qaziyon+Ki+Masjid+%D9%85%D8%B3%D8%AC%D8%AF+%D9%82%D8%A7%D8%B6%DB%8C%D9%88%DA%BA+%DA%A9%DB%8C%E2%80%AD/data=!4m7!3m6!1s0x390d1e08ca8810ed:0x3b88df5382ea5830!8m2!3d28.52261!4d77.181538!16s%2Fg%2F11gfd8b5cs!19sChIJ7RCIyggeDTkRMFjqglPfiDs?authuser=0&hl=en&rclk=1,"28.52261,77.181538"
Mosque msjd,Mosque,"J76X+W9R Mosque msjd, New, Kotla Village, Mayur Vihar, New Delhi, Delhi 110091","Kotla Village, Mayur Vihar","J76X+W9R, New","New Delhi, Delhi",110091,Delhi,IN,https://www.google.com/maps/place/Mosque+%D9%85%D8%B3%D8%AC%D8%AF%E2%80%AD/data=!4m7!3m6!1s0x390ce4bcc9c6272b:0x172c875eb9dd78e2!8m2!3d28.612373!4d77.2984052!16s%2Fg%2F11c3182y_w!19sChIJKyfGybzkDDkR4njduV6HLBc?authuser=0&hl=en&rclk=1,"28.612372999999998,77.29840519999999"
Masjid,Mosque,"RFW6+4GQ Masjid, Kumheda, Uttar Pradesh 201206",,RFW6+4GQ,Kumheda,201206,Uttar Pradesh,IN,https://www.google.com/maps/place/Masjid/data=!4m7!3m6!1s0x390c58b0e1125b4d:0xfd9e63316d494a36!8m2!3d28.8453408!4d77.4613748!16s%2Fg%2F11gclz8wp4!19sChIJTVsS4bBYDDkRNkpJbTFjnv0?authuser=0&hl=en&rclk=1,"28.8453408,77.4613748"
Masjid,Mosque,"H77Q+868 Masjid, Okhla Village, Okhla, New Delhi, Delhi 110025","Okhla Village, Okhla",H77Q+868,New Delhi,110025,Delhi,IN,https://www.google.com/maps/place/Masjid/data=!4m7!3m6!1s0x390ce47512f7aa2b:0x544337a9b9e5d7a2!8m2!3d28.5632814!4d77.2880932!16s%2Fg%2F11gbtpj5td!19sChIJK6r3EnXkDDkRotfluak3Q1Q?authuser=0&hl=en&rclk=1,"28.563281399999997,77.28809319999999"
Masjid,Mosque,"Q7JJ+7WC Masjid, Pavi Sadakpur, Uttar Pradesh 201102",,Q7JJ+7WC,Pavi Sadakpur,201102,Uttar Pradesh,IN,https://www.google.com/maps/place/Masjid/data=!4m7!3m6!1s0x390cff3247b3c4d7:0xf1b7407f946dd8cc!8m2!3d28.7806806!4d77.2822504!16s%2Fg%2F11ggz8tfhy!19sChIJ18SzRzL_DDkRzNhtlH9At_E?authuser=0&hl=en&rclk=1,"28.7806806,77.2822504"
Masjid Hamam Wali,Mosque,"Masjid Hamam Wali, 6470, Katra Bariyan, Fatehpuri, Chandni Chowk, New Delhi, Delhi, 110006","Fatehpuri, Chandni Chowk","6470, Katra Bariyan","New Delhi, Delhi",110006,Delhi,IN,https://www.google.com/maps/place/Masjid+Hamam+Wali/data=!4m7!3m6!1s0x390cfd12316f31ef:0x174a76ac455f8b5!8m2!3d28.655784!4d77.222307!16s%2Fg%2F12hqwxj4v!19sChIJ7zFvMRL9DDkRtfhVxGqndAE?authuser=0&hl=en&rclk=1,"28.655783999999997,77.222307"
Juma Masjid,Mosque,"GMJ3+348 Juma Masjid, Cholas Rd, Mohalla Abbas Nagar, Chholas, Uttar Pradesh 203207",Mohalla Abbas Nagar,"GMJ3+348, Cholas Rd",Chholas,203207,Uttar Pradesh,IN,https://www.google.com/maps/place/Juma+Masjid/data=!4m7!3m6!1s0x390c942a6e349581:0xfd6322c2aa576325!8m2!3d28.5301599!4d77.6528246!16s%2Fg%2F11c52lz9x6!19sChIJgZU0biqUDDkRJWNXqsIiY_0?authuser=0&hl=en&rclk=1,"28.530159899999997,77.6528246"
Zainabia Masjid Karbala,Mosque,"HMG3+RQ6 Zainabia Masjid Karbala, Uttar Pradesh 203207",,HMG3+RQ6,,203207,Uttar Pradesh,IN,https://www.google.com/maps/place/Zainabia+Masjid+Karbala/data=!4m7!3m6!1s0x390c9155ed947c11:0xe02d1fb1580dfdc2!8m2!3d28.5770428!4d77.6543971!16s%2Fg%2F11gbzchw6_!19sChIJEXyU7VWRDDkRwv0NWLEfLeA?authuser=0&hl=en&rclk=1,"28.577042799999997,77.6543971"
Masjid,Mosque,"Masjid, 2508, Fasil Rd, Gali Sakko Wali, Shah Ganj, Chandni Chowk, New Delhi, Delhi, 110006","Gali Sakko Wali, Shah Ganj, Chandni Chowk","2508, Fasil Rd","New Delhi, Delhi",110006,Delhi,IN,https://www.google.com/maps/place/Masjid/data=!4m7!3m6!1s0x390cfd15c9a8a4b1:0xf975aada141da03e!8m2!3d28.6491552!4d77.2220471!16s%2Fg%2F1hm4gjxkd!19sChIJsaSoyRX9DDkRPqAdFNqqdfk?authuser=0&hl=en&rclk=1,"28.6491552,77.2220471"
Chotti Masjid,Mosque,"M645+JH6 Chotti Masjid, Naulakha, Sarai Khalil, Sadar Bazaar, New Delhi, Delhi, 110055","Naulakha, Sarai Khalil, Sadar Bazaar",M645+JH6,"New Delhi, Delhi",110055,Delhi,IN,https://www.google.com/maps/place/Chotti+Masjid/data=!4m7!3m6!1s0x390cfdcd30df094b:0xf1488b6824b282f6!8m2!3d28.6565295!4d77.2088818!16s%2Fg%2F11v9k6fydb!19sChIJSwnfMM39DDkR9oKyJGiLSPE?authuser=0&hl=en&rclk=1,"28.656529499999998,77.2088818"
Masjid,Mosque,"Masjid, 191/1, JJ Colony, New Krishna Park, Vikaspuri, New Delhi, Delhi, 110018","JJ Colony, New Krishna Park, Vikaspuri",191/1,"New Delhi, Delhi",110018,Delhi,IN,https://www.google.com/maps/place/Masjid/data=!4m7!3m6!1s0x390d0523e13f6ebf:0xcf430f5986189794!8m2!3d28.6318645!4d77.0776203!16s%2Fg%2F11kq3krq6c!19sChIJv24_4SMFDTkRlJcYhlkPQ88?authuser=0&hl=en&rclk=1,"28.6318645,77.07762029999999"
HADHRAT UMAR MASJID ALMAROOF CHOTI MASJID,Mosque,"HADHRAT UMAR MASJID ALMAROOF CHOTI MASJID, Chotti Masjid, Street number 9, Mulla Colony, Gharoli Extension, Gharoli, Delhi, 110096","Mulla Colony, Gharoli Extension, Gharoli","Chotti Masjid, Street number 9",Delhi,110096,Delhi,IN,https://www.google.com/maps/place/HADHRAT+UMAR+MASJID+ALMAROOF+CHOTI+MASJID/data=!4m7!3m6!1s0x390ce5c6cf830b2f:0x6bb8084dadf0d513!8m2!3d28.6213398!4d77.3314246!16s%2Fg%2F11sy4vfb7s!19sChIJLwuDz8blDDkRE9XwrU0IuGs?authuser=0&hl=en&rclk=1,"28.621339799999998,77.33142459999999"
Jama Masjid Chholas,Mosque,"GMJ2+23P Jama Masjid Chholas, Jama Masjid Rd, Mohalla Cholas, Chholas, Uttar Pradesh 203207",Mohalla Cholas,"GMJ2+23P, Jama Masjid Rd",Chholas,203207,Uttar Pradesh,IN,https://www.google.com/maps/place/Jama+Masjid+Chholas/data=!4m7!3m6!1s0x390c942bc83277e9:0xc64dc3b712e42b33!8m2!3d28.5305143!4d77.6501346!16s%2Fg%2F124sxkwj4!19sChIJ6XcyyCuUDDkRMyvkErfDTcY?authuser=0&hl=en&rclk=1,"28.5305143,77.6501346"
Chand Masjid,Mosque,"W67Q+8WW Chand Masjid, Pali, Uttar Pradesh 250609",,W67Q+8WW,Pali,250609,Uttar Pradesh,IN,https://www.google.com/maps/place/Chand+Masjid/data=!4m7!3m6!1s0x390c53461245f90d:0x699c52aea0a98cc3!8m2!3d28.9136078!4d77.2401827!16s%2Fg%2F11qh7qvpv3!19sChIJDflFEkZTDDkRw4ypoK5SnGk?authuser=0&hl=en&rclk=1,"28.913607799999998,77.24018269999999"
Masjid,Mosque,"M65J+GV7 Masjid, Chhippy Wada, Chandni Chowk, Delhi, 110006","Chhippy Wada, Chandni Chowk",M65J+GV7,Delhi,110006,Delhi,IN,https://www.google.com/maps/place/Masjid/data=!4m7!3m6!1s0x390cfd04823e663b:0x88920d6fe0b74a65!8m2!3d28.6587916!4d77.2321828!16s%2Fg%2F11n0gg69p2!19sChIJO2Y-ggT9DDkRZUq34G8Nkog?authuser=0&hl=en&rclk=1,"28.658791599999997,77.23218279999999"
Chand masjid caaNd msjid,Mosque,"P7RJ+XJ3 Chand masjid caaNd msjid, Nasbandi Colony, Ghaziabad, Uttar Pradesh 201102",Nasbandi Colony,P7RJ+XJ3,Ghaziabad,201102,Uttar Pradesh,IN,https://www.google.com/maps/place/Chand+masjid+%E0%A4%9A%E0%A4%BE%E0%A4%82%E0%A4%A6+%E0%A4%AE%E0%A4%B8%E0%A5%8D%E0%A4%9C%E0%A4%BF%E0%A4%A6/data=!4m7!3m6!1s0x390cff51369290b5:0xadd9573c07eab872!8m2!3d28.7423886!4d77.2815486!16s%2Fg%2F11qq5c8ly4!19sChIJtZCSNlH_DDkRcrjqBzxX2a0?authuser=0&hl=en&rclk=1,"28.742388599999998,77.2815486"
Jama masjid,Mosque,"G7PG+8H3 Jama masjid, F Block, Pocket X, Okhla Phase II, Okhla Industrial Estate, New Delhi, Delhi 110020","F Block, Pocket X, Okhla Phase II, Okhla Industrial Estate",G7PG+8H3,New Delhi,,Delhi,IN,https://www.google.com/maps/place/Jama+masjid/data=!4m7!3m6!1s0x390ce10bb81649c7:0xebcbe96019fd666b!8m2!3d28.5357628!4d77.2764329!16s%2Fg%2F11v0nr84ms!19sChIJx0kWuAvhDDkRa2b9GWDpy-s?authuser=0&hl=en&rclk=1,"28.535762799999997,77.2764329"
Jama masjid,Mosque,"Jama masjid, Jama Masjid, Abul Fazal Enclave Part 1, Part 1 Abul Fazal Enclave, Block I, Jamia Nagar, Chandni Chowk, New Delhi, Delhi 110025","Abul Fazal Enclave Part 1, Part 1 Abul Fazal Enclave, Block I, Jamia Nagar, Chandni Chowk",Jama Masjid,New Delhi,,Delhi,IN,https://www.google.com/maps/place/Jama+masjid/data=!4m7!3m6!1s0x390ce542b18bb9c1:0xcacf2517b90d6255!8m2!3d28.5545167!4d77.2972904!16s%2Fg%2F11kqc0mn0x!19sChIJwbmLsULlDDkRVWINuRclz8o?authuser=0&hl=en&rclk=1,"28.554516699999997,77.2972904"
Masjid,Mosque,"Masjid, 8/2, Budh Bazar, Block L 1, Devli, Sangam Vihar, New Delhi, Delhi 110062","Budh Bazar, Block L 1, Devli, Sangam Vihar",8/2,New Delhi,110062,Delhi,IN,https://www.google.com/maps/place/Masjid/data=!4m7!3m6!1s0x390ce1dde82b3bc3:0x4d3537cacd38aec4!8m2!3d28.4940769!4d77.2261653!16s%2Fg%2F11rk33_10p!19sChIJwzsr6N3hDDkRxK44zco3NU0?authuser=0&hl=en&rclk=1,"28.4940769,77.22616529999999"
Masjid msjid,Mosque,"Masjid msjid, A 95, Chanchal Park, Laxmi Park, Ranhola Extesion, Delhi, 110041","Chanchal Park, Laxmi Park, Ranhola Extesion",A 95,Delhi,110041,Delhi,IN,https://www.google.com/maps/place/Masjid+%E0%A4%AE%E0%A4%B8%E0%A5%8D%E0%A4%9C%E0%A4%BF%E0%A4%A6/data=!4m7!3m6!1s0x390d0570d033b0bb:0x480768d95ae5b61d!8m2!3d28.6495218!4d77.0230135!16s%2Fg%2F11rf4j7m64!19sChIJu7Az0HAFDTkRHbblWtloB0g?authuser=0&hl=en&rclk=1,"28.6495218,77.02301349999999"
Masjid,Mosque,"Masjid, Gali No 19, Gali Number 1, Mustafabad Extn, New Mustafabad, Delhi, 110094","E2 Block, Mustafabad Extn, New Mustafabad","Gali No 19, Gali Number 1",Delhi,110094,Delhi,IN,https://www.google.com/maps/place/Masjid/data=!4m7!3m6!1s0x390cfc1b020b0e91:0xb48a3c3233e41cbd!8m2!3d28.711773!4d77.272563!16s%2Fg%2F12hpqnhjr!19sChIJkQ4LAhv8DDkRvRzkMzI8irQ?authuser=0&hl=en&rclk=1,"28.711772999999997,77.27256299999999"
Jama masjid,Mosque,"HMC2+4W8 Jama masjid, Dadri-Jarcha Rd, Jarcha, Uttar Pradesh 203207",,"HMC2+4W8, Dadri-Jarcha Rd",Jarcha,203207,Uttar Pradesh,IN,https://www.google.com/maps/place/Jama+masjid/data=!4m7!3m6!1s0x390c954406a73239:0x48761119ba6e28a!8m2!3d28.5700876!4d77.6522356!16s%2Fg%2F11v3q5drlf!19sChIJOTKnBkSVDDkRiuKmmxFhhwQ?authuser=0&hl=en&rclk=1,"28.570087599999997,77.6522356"
Masjid ke paas,Mosque,"GX2W+QJH Masjid ke paas, Parawana Mahmudpur, Uttar Pradesh 203407",,GX2W+QJH,Parawana Mahmudpur,203407,Uttar Pradesh,IN,https://www.google.com/maps/place/Masjid+ke+paas/data=!4m7!3m6!1s0x390b5fa7c32cef77:0xbd7a2e23e5c6773d!8m2!3d28.5019687!4d77.9965037!16s%2Fg%2F11tcf920xc!19sChIJd-8sw6dfCzkRPXfG5SMuer0?authuser=0&hl=en&rclk=1,"28.5019687,77.99650369999999"
Masque-Masjid,Mosque,"2FGQ+P6H Masque-Masjid, Peeragarhi, Haryana 121107",,2FGQ+P6H,Peeragarhi,121107,Haryana,IN,https://www.google.com/maps/place/Masque-Masjid/data=!4m7!3m6!1s0x397335deb9b20f4f:0x48a52cb13f504d6f!8m2!3d28.0268195!4d77.4881018!16s%2Fg%2F11kmvmkfqm!19sChIJTw-yud41czkRb01QP7EspUg?authuser=0&hl=en&rclk=1,"28.0268195,77.4881018"
Champa Masjid,Mosque,"2MJ2+2J2 Champa Masjid, Champa, Chhattisgarh 495671",,2MJ2+2J2,Champa,,Chhattisgarh,IN,https://www.google.com/maps/place/Champa+Masjid/data=!4m7!3m6!1s0x3a27bd9613bc701f:0xc69730e2fcbb90fc!8m2!3d22.0300039!4d82.6515036!16s%2Fg%2F11pzfbmmxz!19sChIJH3C8E5a9JzoR_JC7_OIwl8Y?authuser=0&hl=en&rclk=1,"22.0300039,82.6515036"
Masjid,Mosque,"H662+8G4 Masjid, Green Park Ext Rd, Block J, Green Park Extension, Green Park, New Delhi, Delhi 110016","Block J, Green Park Extension, Green Park","H662+8G4, Green Park Ext Rd",New Delhi,110016,Delhi,IN,https://www.google.com/maps/place/Masjid/data=!4m7!3m6!1s0x390ce3053c6f74cf:0x33b8d79c09cb4f99!8m2!3d28.5607743!4d77.2013357!16s%2Fg%2F11krd8fpw7!19sChIJz3RvPAXjDDkRmU_LCZzXuDM?authuser=0&hl=en&rclk=1,"28.5607743,77.2013357"
Masjid,Mosque,"M794+RG5 Masjid, Block A, Shastri Park, Shahdara, Delhi, 110053","Block A, Shastri Park, Shahdara",M794+RG5,Delhi,,Delhi,IN,https://www.google.com/maps/place/Masjid/data=!4m7!3m6!1s0x390cfd74b6378221:0x2da5c9212f831088!8m2!3d28.6695164!4d77.2563643!16s%2Fg%2F11tb42z9g0!19sChIJIYI3tnT9DDkRiBCDLyHJpS0?authuser=0&hl=en&rclk=1,"28.6695164,77.2563643"
Masjid,Mosque,"Masjid, 94L, Adarsh Mohalla, Block P, Mayur Vihar, Delhi, 110091","Adarsh Mohalla, Block P, Mayur Vihar",94L,Delhi,110091,Delhi,IN,https://www.google.com/maps/place/Masjid/data=!4m7!3m6!1s0x390ce594aaf9a4ed:0x7705b6bd1214d779!8m2!3d28.6097585!4d77.2915521!16s%2Fg%2F11vdfgxvzr!19sChIJ7aT5qpTlDDkRedcUEr22BXc?authuser=0&hl=en&rclk=1,"28.609758499999998,77.29155209999999"
Oonchi Masjid,Mosque,"J6XF+3RW Oonchi Masjid, Gali Shahtara, Kaccha Pandit Main Bazar, Lal Kuan Bazar, Chandni Chowk, New Delhi, Delhi, 110006","Kaccha Pandit Main Bazar, Lal Kuan Bazar, Chandni Chowk","J6XF+3RW, Gali Shahtara","New Delhi, Delhi",110006,Delhi,IN,https://www.google.com/maps/place/Oonchi+Masjid/data=!4m7!3m6!1s0x390cfd44d270e491:0x1d13505ffc38ae50!8m2!3d28.6477405!4d77.2245864!16s%2Fg%2F11j2lz5nlg!19sChIJkeRw0kT9DDkRUK44_F9QEx0?authuser=0&hl=en&rclk=1,"28.647740499999998,77.22458639999999"
Masjid,Mosque,"Shop No: 5035, Masjid, Netaji Subhash Marg, Daryaganj, New Delhi, Delhi, 110002",Daryaganj,"Shop No: 5035, Netaji Subhash Marg","New Delhi, Delhi",110002,Delhi,IN,https://www.google.com/maps/place/Masjid/data=!4m7!3m6!1s0x390cfdf175041b95:0x8ef57a2bc9f92c1c!8m2!3d28.6480954!4d77.2403964!16s%2Fg%2F11s664lvxh!19sChIJlRsEdfH9DDkRHCz5ySt69Y4?authuser=0&hl=en&rclk=1,"28.6480954,77.2403964"
Masjid,Mosque,"Masjid, 20, Masjid Rd, Pervesh Nagar, Mubarakpur Dabas, New Delhi, Delhi, 110081","Pervesh Nagar, Mubarakpur Dabas","20, Masjid Rd","New Delhi, Delhi",110081,Delhi,IN,https://www.google.com/maps/place/Masjid/data=!4m7!3m6!1s0x390d075632dea237:0xe707b406c4cff64!8m2!3d28.7098866!4d77.0310854!16s%2Fg%2F11kq2cq2_1!19sChIJN6LeMlYHDTkRZP9MbEB7cA4?authuser=0&hl=en&rclk=1,"28.709886599999997,77.0310854"
Masjid,Mosque,"Masjid, L385, Block L, JJ Colony No 3, Nangloi, New Delhi, Delhi, 110041","Block L, JJ Colony No 3, Nangloi",L385,"New Delhi, Delhi",110041,Delhi,IN,https://www.google.com/maps/place/Masjid/data=!4m7!3m6!1s0x390d0530462f99ad:0xf47aa8290ce093fa!8m2!3d28.6842352!4d77.0742041!16s%2Fg%2F11smtj7p27!19sChIJrZkvRjAFDTkR-pPgDCmoevQ?authuser=0&hl=en&rclk=1,"28.6842352,77.0742041"
Masjid msjd,Mosque,"P33Q+5Q5 Masjid msjd, Y Block, Mangolpuri, Delhi, 110085","Pocket C, Sector 1, Mangolpuri","P33Q+5Q5, Y Block",Delhi,110085,Delhi,IN,https://www.google.com/maps/place/Masjid+%D9%85%D8%B3%D8%AC%D8%AF%E2%80%AD/data=!4m7!3m6!1s0x390d075006af1d37:0x77cfb359c992ee54!8m2!3d28.702881!4d77.089479!16s%2Fg%2F11pzyfmlyd!19sChIJNx2vBlAHDTkRVO6SyVmzz3c?authuser=0&hl=en&rclk=1,"28.702880999999998,77.089479"
Al Jazeera Masjid,Mosque,"87G4+QRW Al Jazeera Masjid, Madalpur, Haryana 121004",,87G4+QRW,Madalpur,121004,Haryana,IN,https://www.google.com/maps/place/Al+Jazeera+Masjid/data=!4m7!3m6!1s0x390cd93e77fc37e3:0x5e55f8d21799c3d2!8m2!3d28.3270171!4d77.2570992!16s%2Fg%2F11tc9c64dp!19sChIJ4zf8dz7ZDDkR0sOZF9L4VV4?authuser=0&hl=en&rclk=1,"28.3270171,77.2570992"
Jumma Masjid jummaa msjid,Mosque,"86G4+CPX Jumma Masjid jummaa msjid, Tikri Khera, Alampur, Haryana 121004",,86G4+CPX,"Tikri Khera, Alampur",121004,Haryana,IN,https://www.google.com/maps/place/Jumma+Masjid+%E0%A4%9C%E0%A5%81%E0%A4%AE%E0%A5%8D%E0%A4%AE%E0%A4%BE+%E0%A4%AE%E0%A4%B8%E0%A5%8D%E0%A4%9C%E0%A4%BF%E0%A4%A6/data=!4m7!3m6!1s0x390cd902a43b519b:0xbac7aad4f8422450!8m2!3d28.326101!4d77.2068541!16s%2Fg%2F11p5kvhq9y!19sChIJm1E7pALZDDkRUCRC-NSqx7o?authuser=0&hl=en&rclk=1,"28.326100999999998,77.2068541"
Chand masjid,Mosque,"XH5M+3CF Chand masjid, Bafar, Uttar Pradesh 250501",,XH5M+3CF,Bafar,250501,Uttar Pradesh,IN,https://www.google.com/maps/place/Chand+masjid/data=!4m7!3m6!1s0x390c676b8ba6bb85:0x5f1689fb27141e33!8m2!3d28.9576847!4d77.5835534!16s%2Fg%2F11y1f8t8kp!19sChIJhbumi2tnDDkRMx4UJ_uJFl8?authuser=0&hl=en&rclk=1,"28.957684699999998,77.5835534"
Masjid,Mosque,"63CX+6C2 Masjid, Lakhuwas, Haryana 122103",,63CX+6C2,Lakhuwas,122103,Haryana,IN,https://www.google.com/maps/place/Masjid/data=!4m7!3m6!1s0x390d2f11b23b8fc7:0xdf74a5736cb8f405!8m2!3d28.2205243!4d77.0985221!16s%2Fg%2F11q8vg336t!19sChIJx487shEvDTkRBfS4bHOldN8?authuser=0&hl=en&rclk=1,"28.220524299999997,77.0985221"
jumma masjid,Mosque,"5VC6+MRR jumma masjid, Kamalpur Mazra Nayser, Uttar Pradesh 203131",,5VC6+MRR,Kamalpur Mazra Nayser,203131,Uttar Pradesh,IN,https://www.google.com/maps/place/jumma+masjid/data=!4m7!3m6!1s0x390cabbf374c83d7:0x9b825d416f7cdbd9!8m2!3d28.1717271!4d77.8620309!16s%2Fg%2F11q3cgllgq!19sChIJ14NMN7-rDDkR2dt8b0Fdgps?authuser=0&hl=en&rclk=1,"28.1717271,77.8620309"
Aasam masjid,Mosque,"MX6R+P3Q Aasam masjid, Jotri Pahari, Rajasthan 321204",,MX6R+P3Q,Jotri Pahari,321204,Rajasthan,IN,https://www.google.com/maps/place/Aasam+masjid/data=!4m7!3m6!1s0x3972e9a34f30f829:0x39060dcd88084ac3!8m2!3d27.6618394!4d76.9902276!16s%2Fg%2F11rp3cmrn8!19sChIJKfgwT6PpcjkRw0oIiM0NBjk?authuser=0&hl=en&rclk=1,"27.661839399999998,76.9902276"
Masjid,Mosque,"98PM+Q26 Masjid, Ishaqpur, Uttar Pradesh 243727",,98PM+Q26,Ishaqpur,243727,Uttar Pradesh,IN,https://www.google.com/maps/place/Masjid/data=!4m7!3m6!1s0x390b39492871701d:0x54138cc39c7d8ded!8m2!3d28.3869054!4d78.3325281!16s%2Fg%2F11khz6l8_x!19sChIJHXBxKEk5CzkR7Y19nMOME1Q?authuser=0&hl=en&rclk=1,"28.3869054,78.33252809999999"
