name,main_category,address,address_ward,address_street,address_city,address_postal_code,address_state,address_country_code,link,coordinates
Masjid Islam gNj,Mosque,"J6G2+HCC Masjid Islam gNj, Mohalla-Nagar, Pihani, Pihani Dehat, Uttar Pradesh 241406",Mohalla-Nagar,J6G2+HCC,"Pihani, Pihani Dehat",241406,Uttar Pradesh,IN,https://www.google.com/maps/place/Masjid+Islam+%E0%A4%97%E0%A4%82%E0%A4%9C/data=!4m7!3m6!1s0x399f03cd1b6cf21d:0x1d4d2fd4ff26d2d7!8m2!3d27.6264456!4d80.2010268!16s%2Fg%2F11b8v6t0bk!19sChIJHfJsG80DnzkR19Im_9QvTR0?authuser=0&hl=en&rclk=1,"27.6264456,80.2010268"
Masjid Bada Kuwan,Mosque,"J693+34C Masjid Bada Kuwan, Pihani, Uttar Pradesh 241406",,J693+34C,Pihani,241406,Uttar Pradesh,IN,https://www.google.com/maps/place/Masjid+Bada+Kuwan/data=!4m7!3m6!1s0x399f023169e0e035:0x5f01b7fd81b0e98!8m2!3d27.6176931!4d80.2027663!16s%2Fg%2F11c1vn5850!19sChIJNeDgaTECnzkRmA4b2H8b8AU?authuser=0&hl=en&rclk=1,"27.6176931,80.2027663"
Jama Masjid,Mosque,"J6C3+C7G Jama Masjid, Pihani, Uttar Pradesh 241406",,J6C3+C7G,Pihani,241406,Uttar Pradesh,IN,https://www.google.com/maps/place/Jama+Masjid/data=!4m7!3m6!1s0x399f02339972b31d:0xa55e7a0440d2df0c!8m2!3d27.6210678!4d80.203215!16s%2Fg%2F11css7tt04!19sChIJHbNymTMCnzkRDN_SQAR6XqU?authuser=0&hl=en&rclk=1,"27.6210678,80.203215"
Farooq E Azam Mosque,Mosque,"J5HX+3PJ Farooq E Azam Mosque, Pihani, Pihani Dehat, Uttar Pradesh 241406",,J5HX+3PJ,"Pihani, Pihani Dehat",241406,Uttar Pradesh,IN,https://www.google.com/maps/place/Farooq+E+Azam+Mosque/data=!4m7!3m6!1s0x399f03cd84e072db:0x9744c6f89aed51cd!8m2!3d27.6277063!4d80.199273!16s%2Fg%2F11c1xddwg2!19sChIJ23LghM0DnzkRzVHtmvjGRJc?authuser=0&hl=en&rclk=1,"27.6277063,80.19927299999999"
Masjid Rashidiya,Mosque,"J682+JQH Masjid Rashidiya, Pihani, Uttar Pradesh 241406",,J682+JQH,Pihani,241406,Uttar Pradesh,IN,https://www.google.com/maps/place/Masjid+Rashidiya/data=!4m7!3m6!1s0x399f02310f0a157f:0x73f78440b41fba28!8m2!3d27.6165563!4d80.2019894!16s%2Fg%2F11c5wm959w!19sChIJfxUKDzECnzkRKLoftECE93M?authuser=0&hl=en&rclk=1,"27.6165563,80.2019894"
msjd ddkh bnglh Masjid Dak Bangla,Mosque,"J6F5+7XV msjd ddkh bnglh Masjid Dak Bangla, near Pwd guest house, Pihani, Pihani Dehat, Uttar Pradesh 241406",,"J6F5+7XV, near Pwd guest house","Pihani, Pihani Dehat",241406,Uttar Pradesh,IN,https://www.google.com/maps/place/%D9%85%D8%B3%D8%AC%D8%AF+%DA%88%D8%A7%DA%A9+%D8%A8%D9%86%DA%AF%D9%84%DB%81+Masjid+Dak+Bangla%E2%80%AD/data=!4m7!3m6!1s0x399f024a9e73b395:0xddf22848db51d0e5!8m2!3d27.6232368!4d80.2099237!16s%2Fg%2F11dxhkl5my!19sChIJlbNznkoCnzkR5dBR20go8t0?authuser=0&hl=en&rclk=1,"27.623236799999997,80.20992369999999"
Masjid Habsa,Mosque,"J6F2+V43 Masjid Habsa, Pihani, Pihani Dehat, Uttar Pradesh 241406",,J6F2+V43,"Pihani, Pihani Dehat",241406,Uttar Pradesh,IN,https://www.google.com/maps/place/Masjid+Habsa/data=!4m7!3m6!1s0x399f03cd343654a5:0xe6f50114c3b6ebf2!8m2!3d27.6246389!4d80.2003093!16s%2Fg%2F11bz_3vn3j!19sChIJpVQ2NM0DnzkR8uu2wxQB9eY?authuser=0&hl=en&rclk=1,"27.624638899999997,80.2003093"
Masjid Abrar,Mosque,"J5GX+CH8 Masjid Abrar, Mohalla Nagar, Pihani, Pihani Dehat, Uttar Pradesh 241406",Mohalla Nagar,J5GX+CH8,"Pihani, Pihani Dehat",241406,Uttar Pradesh,IN,https://www.google.com/maps/place/Masjid+Abrar/data=!4m7!3m6!1s0x399f03cd61769775:0x11b5a1eaeac20b2f!8m2!3d27.62603!4d80.1989403!16s%2Fg%2F11f2rqrsr_!19sChIJdZd2Yc0DnzkRLwvC6uqhtRE?authuser=0&hl=en&rclk=1,"27.62603,80.19894029999999"
Idgah,Mosque,"J5GQ+J9G Idgah, Karawan Road, Pihani, Uttar Pradesh 241406",,"J5GQ+J9G, Karawan Road","Pihani, Pihani Dehat",241406,Uttar Pradesh,IN,https://www.google.com/maps/place/Idgah/data=!4m7!3m6!1s0x399f03d59db4957d:0x7d974275f381c97f!8m2!3d27.6265748!4d80.1884486!16s%2Fg%2F11f_z9s551!19sChIJfZW0ndUDnzkRf8mB83VCl30?authuser=0&hl=en&rclk=1,"27.6265748,80.1884486"
Masjid Ibraahem,Mosque,"J695+F8G Masjid Ibraahem, Pihani, Uttar Pradesh 241406",,J695+F8G,Pihani,241406,Uttar Pradesh,IN,https://www.google.com/maps/place/Masjid+Ibraahem/data=!4m7!3m6!1s0x399f0236736f2191:0xdaeba3923d3bf1f4!8m2!3d27.6186777!4d80.2083134!16s%2Fg%2F11f03lfnkr!19sChIJkSFvczYCnzkR9PE7PZKj69o?authuser=0&hl=en&rclk=1,"27.6186777,80.2083134"
Masjid Syedna Siddique Akbar msjd sydn Sdyq kbr,Mosque,"J6H2+7W3 Masjid Syedna Siddique Akbar msjd sydn Sdyq kbr, Pihani, Pihani Dehat, Uttar Pradesh 241406",,J6H2+7W3,"Pihani, Pihani Dehat",241406,Uttar Pradesh,IN,https://www.google.com/maps/place/Masjid+Syedna+Siddique+Akbar+%D9%85%D8%B3%D8%AC%D8%AF+%D8%B3%D9%8A%D8%AF%D9%86%D8%A7+%D8%B5%D8%AF%D9%8A%D9%82+%D8%A7%D9%83%D8%A8%D8%B1%E2%80%AD/data=!4m7!3m6!1s0x399f03cc452bff0b:0x8724d5ceccd5c82e!8m2!3d27.6281307!4d80.2023045!16s%2Fg%2F11c2y56c1p!19sChIJC_8rRcwDnzkRLsjVzM7VJIc?authuser=0&hl=en&rclk=1,"27.6281307,80.2023045"
Masjid e Panjatni Lohani Mohalla,Mosque,"J692+9RX Masjid e Panjatni Lohani Mohalla, Pihani, Uttar Pradesh 241406",,J692+9RX,Pihani,241406,Uttar Pradesh,IN,https://www.google.com/maps/place/Masjid+e+Panjatni+Lohani+Mohalla/data=!4m7!3m6!1s0x399f03110a0165d5:0xc75987a2c52f0f05!8m2!3d27.6184865!4d80.2021212!16s%2Fg%2F11f6cx57rz!19sChIJ1WUBChEDnzkRBQ8vxaKHWcc?authuser=0&hl=en&rclk=1,"27.6184865,80.2021212"
Masjid Salman Farsi,Mosque,"J6F3+988 Masjid Salman Farsi, Pihani, Pihani Dehat, Uttar Pradesh 241406",,J6F3+988,"Pihani, Pihani Dehat",241406,Uttar Pradesh,IN,https://www.google.com/maps/place/Masjid+Salman+Farsi/data=!4m7!3m6!1s0x399f0233439a911d:0x48f5c94a11e8c371!8m2!3d27.6234094!4d80.2033318!16s%2Fg%2F11dxd_xndj!19sChIJHZGaQzMCnzkRccPoEUrJ9Ug?authuser=0&hl=en&rclk=1,"27.6234094,80.2033318"
msjd lsyd@ `y'sh@ rDy llh `nh,Mosque,"J685+C89 msjd lsyd@ `y'sh@ rDy llh `nh, Mohalla, Chhipitola Rd, Pihani, Uttar Pradesh 241406",,"J685+C89, Mohalla, Chhipitola Rd",Pihani,241406,Uttar Pradesh,IN,https://www.google.com/maps/place/%D9%85%D8%B3%D8%AC%D8%AF+%D8%A7%D9%84%D8%B3%D9%8A%D8%AF%D8%A9+%D8%B9%D8%A7%D8%A6%D8%B4%D8%A9+%D8%B1%D8%B6%D9%8A+%D8%A7%D9%84%D9%84%D9%87+%D8%B9%D9%86%D9%87%D8%A7%E2%80%AD/data=!4m7!3m6!1s0x399f0237b56410e5:0x82ec303ef0e68cf1!8m2!3d27.6160273!4d80.2083728!16s%2Fg%2F11gdd7ypm2!19sChIJ5RBktTcCnzkR8Yzm8D4w7II?authuser=0&hl=en&rclk=1,"27.6160273,80.20837279999999"
msjd sydn `thmn Gn~ Rz Masjid Uthman Ghani,Mosque,"J5FX+R2W msjd sydn `thmn Gn~ Rz Masjid Uthman Ghani, Pihani, Pihani Dehat, Uttar Pradesh 241406",,J5FX+R2W,"Pihani, Pihani Dehat",241406,Uttar Pradesh,IN,https://www.google.com/maps/place/%D9%85%D8%B3%D8%AC%D8%AF+%D8%B3%D9%8A%D8%AF%D9%86%D8%A7+%D8%B9%D8%AB%D9%85%D8%A7%D9%86+%D8%BA%D9%86%D9%89+Rz+Masjid+Uthman+Ghani%E2%80%AD/data=!4m7!3m6!1s0x399f03d2b6c8fb73:0xb83991151c43ce67!8m2!3d27.624611!4d80.1975845!16s%2Fg%2F11g690m156!19sChIJc_vIttIDnzkRZ85DHBWRObg?authuser=0&hl=en&rclk=1,"27.624610999999998,80.19758449999999"
msjd kttr bdhr Masjid Katra Bazar,Mosque,"J6C2+9H7 msjd kttr bdhr Masjid Katra Bazar, Pihani, Uttar Pradesh 241406",,J6C2+9H7,Pihani,241406,Uttar Pradesh,IN,https://www.google.com/maps/place/%D9%85%D8%B3%D8%AC%D8%AF+%D9%83%D9%B9%D8%B1%D8%A7+%D8%A8%D8%A7%D8%B0%D8%A7%D8%B1+Masjid+Katra+Bazar%E2%80%AD/data=!4m7!3m6!1s0x399f023252e11525:0x98b49c0f12bcc28c!8m2!3d27.6209148!4d80.2014264!16s%2Fg%2F11g6vgjhtd!19sChIJJRXhUjICnzkRjMK8Eg-ctJg?authuser=0&hl=en&rclk=1,"27.620914799999998,80.2014264"
Saikh Munaa Masjid,School,"J6G3+V2J Saikh Munaa Masjid, Pihani, Pihani Dehat, Uttar Pradesh 241406",,J6G3+V2J,"Pihani, Pihani Dehat",241406,Uttar Pradesh,IN,https://www.google.com/maps/place/Saikh+Munaa+Masjid/data=!4m7!3m6!1s0x399f0340886d3fe5:0x386d55d6a1175263!8m2!3d27.6272033!4d80.2025059!16s%2Fg%2F11gj0xyg9f!19sChIJ5T9tiEADnzkRY1IXodZVbTg?authuser=0&hl=en&rclk=1,"27.627203299999998,80.20250589999999"
Maszid,Mosque,"J6C2+H2M Maszid, Pihani, Pihani Dehat, Uttar Pradesh 241406",,J6C2+H2M,"Pihani, Pihani Dehat",241406,Uttar Pradesh,IN,https://www.google.com/maps/place/Maszid/data=!4m7!3m6!1s0x399f02328ab3b70f:0x55285778b7225336!8m2!3d27.6214624!4d80.2000447!16s%2Fg%2F11f3m7sh50!19sChIJD7ezijICnzkRNlMit3hXKFU?authuser=0&hl=en&rclk=1,"27.6214624,80.20004469999999"
Masjid Rahman,Mosque,"Masjid Rahman, Mohalla, Khurmuli, Pihani, 241406 Hardwick, Uttar Pradesh",,"Mohalla, Khurmuli, Pihani, 241406 Hardwick","Mahmoodbag, Pihani",,Uttar Pradesh,IN,https://www.google.com/maps/place/Masjid+Rahman/data=!4m7!3m6!1s0x399f03cddb58771d:0x5de8df57e4cf8923!8m2!3d27.6294796!4d80.2004092!16s%2Fg%2F11f352cmfl!19sChIJHXdY280DnzkRI4nP5Fff6F0?authuser=0&hl=en&rclk=1,"27.6294796,80.2004092"
Khajoor Wali Masjid,Mosque,"J692+QVC Khajoor Wali Masjid, Pihani, Uttar Pradesh 241406",,J692+QVC,Pihani,241406,Uttar Pradesh,IN,https://www.google.com/maps/place/Khajoor+Wali+Masjid/data=!4m7!3m6!1s0x399f0233cff442d5:0xadb1f19f73e4c7eb!8m2!3d27.6194439!4d80.202136!16s%2Fg%2F11c5wzn7p5!19sChIJ1UL0zzMCnzkR68fkc5_xsa0?authuser=0&hl=en&rclk=1,"27.6194439,80.202136"
Masjid Husaini,Mosque,"J693+HC9 Masjid Husaini, Pihani, Uttar Pradesh 241406",,J693+HC9,Pihani,241406,Uttar Pradesh,IN,https://www.google.com/maps/place/Masjid+Husaini/data=!4m7!3m6!1s0x399f0233fd269e6b:0xa2799a1beeb31021!8m2!3d27.6189216!4d80.2036051!16s%2Fg%2F11cst0ww51!19sChIJa54m_TMCnzkRIRCz7huaeaI?authuser=0&hl=en&rclk=1,"27.6189216,80.20360509999999"
Masjid Aksa lohani.pihani,Mosque,"J682+H5R Masjid Aksa lohani.pihani, Pihani, Uttar Pradesh 241406",,J682+H5R,Pihani,241406,Uttar Pradesh,IN,https://www.google.com/maps/place/Masjid+Aksa+lohani.pihani/data=!4m7!3m6!1s0x399f0397a96d2a0f:0x3262143e81a7a9bf!8m2!3d27.6164895!4d80.2003754!16s%2Fg%2F11l5p_0v6z!19sChIJDyptqZcDnzkRv6mngT4UYjI?authuser=0&hl=en&rclk=1,"27.6164895,80.2003754"
Aayesha masjid Kot kla,Mosque,"J5GW+C3R Aayesha masjid Kot kla, Pihani Dehat, Pihani, Uttar Pradesh 241406",,J5GW+C3R,"Pihani Dehat, Pihani",241406,Uttar Pradesh,IN,https://www.google.com/maps/place/Aayesha+masjid+Kot+kla/data=!4m7!3m6!1s0x399f03a89c97b01d:0x32c827d0adf4daec!8m2!3d27.62612!4d80.1951484!16s%2Fg%2F11vc95g4f4!19sChIJHbCXnKgDnzkR7Nr0rdAnyDI?authuser=0&hl=en&rclk=1,"27.62612,80.1951484"
msjd ryD ljnh,Mosque,"J5GR+8WR msjd ryD ljnh, Pihani, Pihani Dehat, Uttar Pradesh 241406",,J5GR+8WR,"Pihani, Pihani Dehat",241406,Uttar Pradesh,IN,https://www.google.com/maps/place/%D9%85%D8%B3%D8%AC%D8%AF+%D8%B1%D9%8A%D8%A7%D8%B6+%D8%A7%D9%84%D8%AC%D9%86%D9%87%E2%80%AD/data=!4m7!3m6!1s0x399f03d490379b55:0x712d1866555c6b4a!8m2!3d27.6258625!4d80.192255!16s%2Fg%2F11g6rl6s24!19sChIJVZs3kNQDnzkRSmtcVWYYLXE?authuser=0&hl=en&rclk=1,"27.6258625,80.192255"
Masjid Yousufzai,Mosque,"J6G2+4QH Masjid Yousufzai, Jahani kheda RD, Mohalla, Yousufzai Nagar, Pihani, Pihani Dehat, Uttar Pradesh 241406","Mohalla, Yousufzai Nagar","J6G2+4QH, Jahani kheda RD","Pihani, Pihani Dehat",241406,Uttar Pradesh,IN,https://www.google.com/maps/place/Masjid+Yousufzai/data=!4m7!3m6!1s0x399f03ccda84394b:0xacb26740117540a2!8m2!3d27.6253052!4d80.2019971!16s%2Fg%2F11f_j1qv0d!19sChIJSzmE2swDnzkRokB1EUBnsqw?authuser=0&hl=en&rclk=1,"27.6253052,80.2019971"
Shia Masjid,Mosque,"J692+V3W Shia Masjid, Pihani, Uttar Pradesh 241406",,J692+V3W,Pihani,241406,Uttar Pradesh,IN,https://www.google.com/maps/place/Shia+Masjid/data=!4m7!3m6!1s0x399f03802104c3e9:0x29036e0a7892b878!8m2!3d27.6197393!4d80.200195!16s%2Fg%2F11n38n8xp6!19sChIJ6cMEIYADnzkReLiSeApuAyk?authuser=0&hl=en&rclk=1,"27.6197393,80.200195"
Shia chhoti masjid,Mosque,"Shia chhoti masjid, Unnamed Road, Pihani, Pihani Dehat, Uttar Pradesh 241406",,Unnamed Road,"Pihani, Pihani Dehat",241406,Uttar Pradesh,IN,https://www.google.com/maps/place/Shia+chhoti+masjid/data=!4m7!3m6!1s0x399f03499380ef09:0x190d063a25d40397!8m2!3d27.6267806!4d80.1951505!16s%2Fg%2F11ng76vyzs!19sChIJCe-Ak0kDnzkRlwPUJToGDRk?authuser=0&hl=en&rclk=1,"27.6267806,80.1951505"
Masjid ground,Mosque,"J693+34C Masjid ground, Pihani, Uttar Pradesh 241406",,J693+34C,Pihani,241406,Uttar Pradesh,IN,https://www.google.com/maps/place/Masjid+ground/data=!4m7!3m6!1s0x399f030f51b4355f:0x49f0e4ec3b36823e!8m2!3d27.6176582!4d80.2031528!16s%2Fg%2F11vc01qlgr!19sChIJXzW0UQ8DnzkRPoI2O-zk8Ek?authuser=0&hl=en&rclk=1,"27.617658199999997,80.2031528"
Masjid Ayesha,Mosque,"J6C2+265 Masjid Ayesha, Pihani, Uttar Pradesh 241406",,J6C2+265,Pihani,241406,Uttar Pradesh,IN,https://www.google.com/maps/place/Masjid+Ayesha/data=!4m7!3m6!1s0x399f037e92c2a18b:0x406e56d1577e13a4!8m2!3d27.6200008!4d80.2006229!16s%2Fg%2F11sc33x5zg!19sChIJi6HCkn4DnzkRpBN-V9FWbkA?authuser=0&hl=en&rclk=1,"27.6200008,80.2006229"
Masjid Sarkaspura,Mosque,"J677+JQH Masjid Sarkaspura, Pihani, Uttar Pradesh 241406",,J677+JQH,Pihani,,Uttar Pradesh,IN,https://www.google.com/maps/place/Masjid+Sarkaspura/data=!4m7!3m6!1s0x399f0374835c91a1:0xffbd2213d254d070!8m2!3d27.614059!4d80.2144878!16s%2Fg%2F11pkfhhz88!19sChIJoZFcg3QDnzkRcNBU0hMivf8?authuser=0&hl=en&rclk=1,"27.614058999999997,80.2144878"
Bagiya nai basti,Mosque,"J692+X7Q Bagiya nai basti, Pihani, Uttar Pradesh 241406",,J692+X7Q,Pihani,241406,Uttar Pradesh,IN,https://www.google.com/maps/place/Bagiya+nai+basti/data=!4m7!3m6!1s0x399f03de6ff0ca1f:0x956de9b4f3576d7e!8m2!3d27.6199603!4d80.200725!16s%2Fg%2F11t7k7xl31!19sChIJH8rwb94DnzkRfm1X87TpbZU?authuser=0&hl=en&rclk=1,"27.6199603,80.20072499999999"
