name,main_category,address,address_ward,address_street,address_city,address_postal_code,address_state,address_country_code,link,coordinates
Habib Manzil Masjid,Mosque,"Habib Manzil Masjid, Fahad Education & Welfare Society , A-77/78, Habib Manzil Masjid, behind SBI Bank, Sector 20, Nerul West, Navi Mumbai, Maharashtra 400706","Sector 20, Nerul West, Nerul","Fahad Education & Welfare Society , A-77/78, Habib Manzil Masjid, behind SBI Bank",Navi Mumbai,400706,Maharashtra,IN,https://www.google.com/maps/place/Habib+Manzil+Masjid/data=!4m7!3m6!1s0x3be7c3df81b5b211:0xc38a69e4abd44824!8m2!3d19.0340753!4d73.0161993!16s%2Fg%2F11h_4yz277!19sChIJEbK1gd_D5zsRJEjUq-RpisM?authuser=0&hl=en&rclk=1,"19.034075299999998,73.0161993"
Ulwe Jama Masjid,Mosque,"X2FH+4V7 Ulwe Jama Masjid, Sector 19, Ulwe, Navi Mumbai, Maharashtra 410206","Sector 19, Ulwe",X2FH+4V7,Navi Mumbai,410206,Maharashtra,IN,https://www.google.com/maps/place/Ulwe+Jama+Masjid/data=!4m7!3m6!1s0x3be7c32ff6f8c21d:0xae3ebccaa20931a5!8m2!3d18.9727952!4d73.0296706!16s%2Fg%2F11c5820x5s!19sChIJHcL49i_D5zsRpTEJosq8Pq4?authuser=0&hl=en&rclk=1,"18.9727952,73.0296706"
Sunni jama masjid,Mosque,"103, Sunni jama masjid, Shahbaz, Noor Manzil, PX-2, Pambrij Rd, near Sunni Jama Masjid Shahabaz, Shahbaz Village, Sector 19, CBD Belapur, Navi Mumbai, Maharashtra 400614","Shahbaz Village, Sector 19, CBD Belapur","103, Shahbaz, Noor Manzil, PX-2, Pambrij Rd, near Sunni Jama Masjid Shahabaz",Navi Mumbai,400614,Maharashtra,IN,https://www.google.com/maps/place/Sunni+jama+masjid/data=!4m7!3m6!1s0x3be7c3ca8269a20d:0x2470b02b12a2f119!8m2!3d19.0158356!4d73.0353927!16s%2Fg%2F11rvcttnb9!19sChIJDaJpgsrD5zsRGfGiEiuwcCQ?authuser=0&hl=en&rclk=1,"19.0158356,73.0353927"
Masjid E Suffa,Mosque,"X4Q4+4F2 Masjid E Suffa, Masjid E Suffa, Kaachi Mohalla, Old Panvel, Mahatma Gandhi Rd, Old Panvel, Panvel, Navi Mumbai, Maharashtra 410206","Old Panvel, Panvel","X4Q4+4F2, Masjid E Suffa, Kaachi Mohalla, Old Panvel, Mahatma Gandhi Rd",Navi Mumbai,410206,Maharashtra,IN,https://www.google.com/maps/place/Masjid+E+Suffa/data=!4m7!3m6!1s0x3be7e81424ab776f:0xf68134d6b74e34eb!8m2!3d18.9877579!4d73.1061451!16s%2Fg%2F11gz9md95!19sChIJb3erJBTo5zsR6zROt9Y0gfY?authuser=0&hl=en&rclk=1,"18.9877579,73.10614509999999"
Usmani Masjid Taloja,Mosque,"Usmani Masjid Taloja, Plot No 107, Phase 1 Main Rd, Taloja Phase 1, Taloja Panchanand, Taloja, Navi Mumbai, Maharashtra 410208","Taloja Phase 1, Taloja Panchanand, Taloja","Plot No 107, Phase 1 Main Rd",Navi Mumbai,410208,Maharashtra,IN,https://www.google.com/maps/place/Usmani+Masjid+Taloja/data=!4m7!3m6!1s0x3be7ea095a61e6f3:0x8b0369357c698991!8m2!3d19.0761106!4d73.0928396!16s%2Fg%2F11byx8p8gc!19sChIJ8-ZhWgnq5zsRkYlpfDVpA4s?authuser=0&hl=en&rclk=1,"19.0761106,73.09283959999999"
Masjid o Madrasa Anjuman faizan e noori siraji charitable trust kamothe,Mosque,"Masjid o Madrasa Anjuman faizan e noori siraji charitable trust kamothe, 106, Sion - Panvel Hwy, Sector 9, Kamothe, Panvel, Navi Mumbai, Maharashtra 410206","Sector 9, Kamothe, Panvel","106, Sion - Panvel Hwy",Navi Mumbai,410206,Maharashtra,IN,https://www.google.com/maps/place/Masjid+o+Madrasa+Anjuman+faizan+e+noori+siraji+charitable+trust+kamothe/data=!4m7!3m6!1s0x3be7e9f4ce955357:0xf43be7253e1637bb!8m2!3d19.0199872!4d73.0956841!16s%2Fg%2F11tf4wzp37!19sChIJV1OVzvTp5zsRuzcWPiXnO_Q?authuser=0&hl=en&rclk=1,"19.0199872,73.0956841"
Masjid-E-Suffa,Mosque,"24M3+CGV Masjid-E-Suffa, Sector 6E, Kalamboli, Panvel, Navi Mumbai, Maharashtra 410218","Sector 6E, Kalamboli, Panvel",24M3+CGV,Navi Mumbai,410218,Maharashtra,IN,https://www.google.com/maps/place/Masjid-E-Suffa/data=!4m7!3m6!1s0x3be7e9c3b974bc71:0x88031f176ea406f3!8m2!3d19.0336104!4d73.1037917!16s%2Fg%2F1th1b5bn!19sChIJcbx0ucPp5zsR8wakbhcfA4g?authuser=0&hl=en&rclk=1,"19.0336104,73.1037917"
Jama Masjid Markaz,Mosque,"339Q+5RV Jama Masjid Markaz, Taloje Panchanand, Sector 40, Taloja, Navi Mumbai, Maharashtra 410210","Taloje Panchanand, Sector 40, Taloja",339Q+5RV,Navi Mumbai,410210,Maharashtra,IN,https://www.google.com/maps/place/Jama+Masjid+Markaz/data=!4m7!3m6!1s0x3be7ea07a1487323:0x3f2e734f2e01e307!8m2!3d19.0679973!4d73.0895417!16s%2Fg%2F1tf41f3t!19sChIJI3NIoQfq5zsRB-MBLk9zLj8?authuser=0&hl=en&rclk=1,"19.0679973,73.0895417"
Gulestan Masjid (Sunni),Mosque,"23WG+FGX Gulestan Masjid (Sunni), Gulestan masjid, Muslim burial ground masjid, Nr., Kesar Symphony, Sector 14, Kharghar, Navi Mumbai, Maharashtra 410210","Kesar Symphony, Sector 14, Kharghar","23WG+FGX, Gulestan masjid, Muslim burial ground masjid, Nr.",Navi Mumbai,410210,Maharashtra,IN,https://www.google.com/maps/place/Gulestan+Masjid+%28Sunni%29/data=!4m7!3m6!1s0x3be7c20ff8cb0e43:0xe0c73156b2fa9b55!8m2!3d19.0462479!4d73.0763581!16s%2Fg%2F11ckqrqc6b!19sChIJQw7L-A_C5zsRVZv6slYxx-A?authuser=0&hl=en&rclk=1,"19.0462479,73.0763581"
Jama Masjid Owe,Mosque,"338C+MQW Jama Masjid Owe, Owe Village, Sector 30, Kharghar, Navi Mumbai, Maharashtra 410210","Owe Village, Sector 30, Kharghar",338C+MQW,Navi Mumbai,410210,Maharashtra,IN,https://www.google.com/maps/place/Jama+Masjid+Owe/data=!4m7!3m6!1s0x3be7c1f1a352b82d:0x2426ddc10369001!8m2!3d19.0667416!4d73.0719637!16s%2Fg%2F11b_3h1_2d!19sChIJLbhSo_HB5zsRAZA2ENxtQgI?authuser=0&hl=en&rclk=1,"19.0667416,73.0719637"
Shamsh Masjid Sector 10,Mosque,"Shamsh Masjid Sector 10, Ground Floor, Shelter Empire, 255, Kopra, Sector 10, Kharghar, Navi Mumbai, Maharashtra 410210","Sector 10, Kharghar","Ground Floor, Shelter Empire, 255, Kopra",Navi Mumbai,410210,Maharashtra,IN,https://www.google.com/maps/place/Shamsh+Masjid+Sector+10/data=!4m7!3m6!1s0x3be7c26cd1abffff:0xfc0b1857ee4734d9!8m2!3d19.0342354!4d73.072381!16s%2Fg%2F11cmnk_d9b!19sChIJ__-r0WzC5zsR2TRH7lcYC_w?authuser=0&hl=en&rclk=1,"19.0342354,73.072381"
Masjid-e-Darul Aman,Mosque,"Masjid-e-Darul Aman, 35, Sector 3, New Panvel East, Panvel, Navi Mumbai, Maharashtra 410206","New Panvel East, Panvel","35, Sector 3",Navi Mumbai,410206,Maharashtra,IN,https://www.google.com/maps/place/Masjid-e-Darul+Aman/data=!4m7!3m6!1s0x3be7e8460fd71323:0x774c55e10e2ce402!8m2!3d19.0031799!4d73.116371!16s%2Fg%2F1tg59kz6!19sChIJIxPXD0bo5zsRAuQsDuFVTHc?authuser=0&hl=en&rclk=1,"19.0031799,73.116371"
"Jama Masjid (Zohar-1:30, Juma-1:30)",Mosque,"23FW+9VG Jama Masjid (Zohar-1:30, Juma-1:30), Near Hotel Venkatesh INN, Sector 6A, Kamothe, Panvel, Navi Mumbai, Maharashtra 410206","Sector 6A, Kamothe, Panvel","23FW+9VG, Near Hotel Venkatesh INN",Navi Mumbai,410206,Maharashtra,IN,"https://www.google.com/maps/place/Jama+Masjid+%28Zohar-1:30,+Juma-1:30%29/data=!4m7!3m6!1s0x3be7e9d05b72fc67:0xed7f0467e95270bb!8m2!3d19.0234273!4d73.0971909!16s%2Fg%2F1jglzcg4d!19sChIJZ_xyW9Dp5zsRu3BS6WcEf-0?authuser=0&hl=en&rclk=1","19.023427299999998,73.0971909"
Shalimar Masjid,Mosque,"336W+469 Shalimar Masjid, Navde, Taloja, Navi Mumbai, Maharashtra 410208","Navde, Taloja",336W+469,Navi Mumbai,410208,Maharashtra,IN,https://www.google.com/maps/place/Shalimar+Masjid/data=!4m7!3m6!1s0x3be7eb41ea79a99f:0x1bb6db12c879ee5c!8m2!3d19.0602958!4d73.0956234!16s%2Fg%2F11px4jjj0w!19sChIJn6l56kHr5zsRXO55yBLbths?authuser=0&hl=en&rclk=1,"19.0602958,73.0956234"
Pada Mohalla Masjid,Mosque,"Pada Mohalla Masjid, 201, Maulana Azad Chowk, 351, Mahatma Gandhi Rd, Old Panvel, Panvel, Navi Mumbai, Maharashtra 410206","Old Panvel, Panvel","201, Maulana Azad Chowk, 351, Mahatma Gandhi Rd",Navi Mumbai,410206,Maharashtra,IN,https://www.google.com/maps/place/Pada+Mohalla+Masjid/data=!4m7!3m6!1s0x3be7e8146eb2be17:0xc81ba73e16989592!8m2!3d18.9871568!4d73.1073735!16s%2Fg%2F11cs3hj428!19sChIJF76ybhTo5zsRkpWYFj6nG8g?authuser=0&hl=en&rclk=1,"18.987156799999998,73.1073735"
Masjid-e-Ayesha,Mosque,"Masjid-e-Ayesha, 84, Bacchumiya Dhuru Marg, Belapur Village, Sector 20, CBD Belapur, Navi Mumbai, Maharashtra 400614","Belapur Village, Sector 20, CBD Belapur","84, Bacchumiya Dhuru Marg",Navi Mumbai,400614,Maharashtra,IN,https://www.google.com/maps/place/Masjid-e-Ayesha/data=!4m7!3m6!1s0x3be7c3a956f0388b:0xa866459164681ad6!8m2!3d19.0131757!4d73.0344105!16s%2Fg%2F11dym8trdb!19sChIJizjwVqnD5zsR1hpoZJFFZqg?authuser=0&hl=en&rclk=1,"19.013175699999998,73.03441049999999"
At-Tawheed Masjid Kharghar,Mosque,"At-Tawheed Masjid Kharghar, 36/31, Block G, Sector 12, Kharghar, Navi Mumbai, Maharashtra 410210","Block G, Sector 12, Kharghar",36/31,Navi Mumbai,410210,Maharashtra,IN,https://www.google.com/maps/place/At-Tawheed+Masjid+Kharghar/data=!4m7!3m6!1s0x3be7c21724805d15:0xf6f39a64b830851b!8m2!3d19.0435515!4d73.0688469!16s%2Fg%2F11bxf_l0_4!19sChIJFV2AJBfC5zsRG4UwuGSa8_Y?authuser=0&hl=en&rclk=1,"19.0435515,73.0688469"
Momin Pada Masjid,Mosque,"X4M6+CQ5 Momin Pada Masjid, Mahatma Gandhi Rd, Mominpada, Old Panvel, Panvel, Navi Mumbai, Maharashtra 410206","Mominpada, Old Panvel, Panvel","X4M6+CQ5, Mahatma Gandhi Rd",Navi Mumbai,410206,Maharashtra,IN,https://www.google.com/maps/place/Momin+Pada+Masjid/data=!4m7!3m6!1s0x3be7e86d2822c1a1:0x7ad8e1a2a49562!8m2!3d18.9835105!4d73.1119946!16s%2Fg%2F1pty73ysy!19sChIJocEiKG3o5zsRYpWkouHYegA?authuser=0&hl=en&rclk=1,"18.983510499999998,73.1119946"
Munira Masjid Sec 35 Kamothe,Mosque,"23CQ+W96 Munira Masjid Sec 35 Kamothe, Sector 35, Kamothe, Panvel, Navi Mumbai, Maharashtra 410209","Sector 35, Kamothe, Panvel",23CQ+W96,Navi Mumbai,410209,Maharashtra,IN,https://www.google.com/maps/place/Munira+Masjid+Sec+35+Kamothe/data=!4m7!3m6!1s0x3be7c27874000001:0x59d4f7dee880df60!8m2!3d19.0222945!4d73.0883971!16s%2Fg%2F11b7gp9209!19sChIJAQAAdHjC5zsRYN-A6N731Fk?authuser=0&hl=en&rclk=1,"19.022294499999997,73.0883971"
Jama Masjid Sector 12,Mosque,"Jama Masjid Sector 12, B 47, Prime Mall Ln, Sector 12, Kharghar, Navi Mumbai, Maharashtra 410210","Sector 12, Kharghar","B 47, Prime Mall Ln",Navi Mumbai,410210,Maharashtra,IN,https://www.google.com/maps/place/Jama+Masjid+Sector+12/data=!4m7!3m6!1s0x3be7c2170a32df45:0xe3ad35fed6d2f930!8m2!3d19.0440281!4d73.0665833!16s%2Fg%2F11b_3fwvz5!19sChIJRd8yChfC5zsRMPnS1v41reM?authuser=0&hl=en&rclk=1,"19.0440281,73.06658329999999"
Masjid Nouman Taloja,Mosque,"Masjid Nouman Taloja, Taloje Panchanand, Sector 40, Taloja, Navi Mumbai, Maharashtra 410208","Taloje Panchanand, Sector 40, Taloja",,Navi Mumbai,410208,Maharashtra,IN,https://www.google.com/maps/place/Masjid+Nouman+Taloja/data=!4m7!3m6!1s0x3be7ea064c4a9e2f:0x5115423eae6f0cc4!8m2!3d19.0687019!4d73.0909143!16s%2Fg%2F11bxdzqwxp!19sChIJL55KTAbq5zsRxAxvrj5CFVE?authuser=0&hl=en&rclk=1,"19.0687019,73.0909143"
Kalamboli Ahle Hadees Masjid,Mosque,"Kalamboli Ahle Hadees Masjid, Sector 14 23, Roadpali, Kalamboli, Panvel, Navi Mumbai, Maharashtra 410218","Roadpali, Kalamboli, Panvel",Sector 14 23,Navi Mumbai,410218,Maharashtra,IN,https://www.google.com/maps/place/Kalamboli+Ahle+Hadees+Masjid/data=!4m7!3m6!1s0x3be7e9c28df06747:0x20b8751a9bf3ff4!8m2!3d19.0361153!4d73.101848!16s%2Fg%2F11c74_n8nw!19sChIJR2fwjcLp5zsR9D-_qVGHCwI?authuser=0&hl=en&rclk=1,"19.0361153,73.10184799999999"
Shams Masjid,Mosque,"Shams Masjid, Wit centre, Bandar Rd, Old Panvel, Panvel, Navi Mumbai, Maharashtra 410206","Old Panvel, Panvel","Wit centre, Bandar Rd",Navi Mumbai,,Maharashtra,IN,https://www.google.com/maps/place/Shams+Masjid/data=!4m7!3m6!1s0x3be7e817b34f88db:0xc3862b78db395de6!8m2!3d18.9894369!4d73.1024587!16s%2Fg%2F11b8t66my6!19sChIJ24hPsxfo5zsR5l0523grhsM?authuser=0&hl=en&rclk=1,"18.989436899999998,73.1024587"
Noori Jama Masjid,Mosque,"X49M+H7P Noori Jama Masjid, Palaspe Phata, Panvel, Navi Mumbai, Maharashtra 410221","Palaspe Phata, Panvel",X49M+H7P,Navi Mumbai,410221,Maharashtra,IN,https://www.google.com/maps/place/Noori+Jama+Masjid/data=!4m7!3m6!1s0x3be7e7d5e78d35f3:0x1629723832f8b2ea!8m2!3d18.9689511!4d73.1331938!16s%2Fg%2F11dfmk5y5z!19sChIJ8zWN59Xn5zsR6rL4MjhyKRY?authuser=0&hl=en&rclk=1,"18.968951099999998,73.1331938"
Sunni Masjid,Mosque,"Sunni Masjid, B-54, Sector 27, Nerul, Navi Mumbai, Maharashtra 400706","Sector 27, Nerul",B-54,Navi Mumbai,400706,Maharashtra,IN,https://www.google.com/maps/place/Sunni+Masjid/data=!4m7!3m6!1s0x3be7c3a4c3605d99:0x628fc55b50121130!8m2!3d19.0176041!4d73.0251077!16s%2Fg%2F11b_3h2dyk!19sChIJmV1gw6TD5zsRMBESUFvFj2I?authuser=0&hl=en&rclk=1,"19.0176041,73.02510769999999"
Aqsa Masjid Taloja,Mosque,"338R+F74 Aqsa Masjid Taloja, Taloje Panchanand, Sector 40, Taloja, Navi Mumbai, Maharashtra 410210","Taloje Panchanand, Sector 40, Taloja",338R+F74,Navi Mumbai,410210,Maharashtra,IN,https://www.google.com/maps/place/Aqsa+Masjid+Taloja/data=!4m7!3m6!1s0x3be7ea072063c641:0x33e08fb54a1db932!8m2!3d19.0661428!4d73.0907088!16s%2Fg%2F1pp2vlrp3!19sChIJQcZjIAfq5zsRMrkdSrWP4DM?authuser=0&hl=en&rclk=1,"19.066142799999998,73.0907088"
Bhusar Mohalla Masjid,Mosque,"Bhusar Mohalla Masjid, Republic of, 201, Mahatma Gandhi Rd, Old Panvel, Panvel, Navi Mumbai, Maharashtra 410206","Old Panvel, Panvel","Republic of, 201, Mahatma Gandhi Rd",Navi Mumbai,410206,Maharashtra,IN,https://www.google.com/maps/place/Bhusar+Mohalla+Masjid/data=!4m7!3m6!1s0x3be7e81478502ccb:0x880d4da0986ad51f!8m2!3d18.9864466!4d73.1079751!16s%2Fg%2F11ckr4_slt!19sChIJyyxQeBTo5zsRH9VqmKBNDYg?authuser=0&hl=en&rclk=1,"18.9864466,73.10797509999999"
Husami Masjid - Bohra Community,Mosque,"X4M5+RVF Husami Masjid - Bohra Community, Uran Rd, Tapal Naka, Old Panvel, Panvel, Navi Mumbai, Maharashtra 410206","Tapal Naka, Old Panvel, Panvel","X4M5+RVF, Uran Rd",Navi Mumbai,410206,Maharashtra,IN,https://www.google.com/maps/place/Husami+Masjid+-+Bohra+Community/data=!4m7!3m6!1s0x3be7e8131452179b:0xc9ed74ec8d1444ff!8m2!3d18.9845523!4d73.1096762!16s%2Fg%2F1ptx6tdbs!19sChIJmxdSFBPo5zsR_0QUjex07ck?authuser=0&hl=en&rclk=1,"18.9845523,73.1096762"
"Masjid e Quba , Wazi Mohalla",Mosque,"X4M4+VMJ Masjid e Quba , Wazi Mohalla, Masjid e Quba Road, Wazi Mohalla, Old Panvel, Panvel, Navi Mumbai, Maharashtra 410206","Old Panvel, Panvel","X4M4+VMJ, Masjid e Quba Road, Wazi Mohalla",Navi Mumbai,410206,Maharashtra,IN,"https://www.google.com/maps/place/Masjid+e+Quba+,+Wazi+Mohalla/data=!4m7!3m6!1s0x3be7e813ebb6218f:0xf13f0a7272d9c20b!8m2!3d18.9847084!4d73.1066542!16s%2Fg%2F11gdhhfsb6!19sChIJjyG26xPo5zsRC8LZcnIKP_E?authuser=0&hl=en&rclk=1","18.9847084,73.1066542"
Masjid-E-Tuba,Mosque,"3488+6PH Masjid-E-Tuba, Taloja, Navi Mumbai, Maharashtra 410208",Taloja,3488+6PH,Navi Mumbai,410208,Maharashtra,IN,https://www.google.com/maps/place/Masjid-E-Tuba/data=!4m7!3m6!1s0x3be7ea21315b9a6b:0x6c54eafca6b7fa9a!8m2!3d19.0655545!4d73.1168565!16s%2Fg%2F11cm0314tz!19sChIJa5pbMSHq5zsRmvq3pvzqVGw?authuser=0&hl=en&rclk=1,"19.065554499999998,73.1168565"
Mosque,Mosque,"Mosque, 84, Bacchumiya Dhuru Marg, Sector 19, Bacchumiya Dhuru Marg, Belapur Village, Sector 20, CBD Belapur, Navi Mumbai, Maharashtra 400614","Belapur Village, Sector 20, CBD Belapur","84, Bacchumiya Dhuru Marg, Sector 19, Bacchumiya Dhuru Marg",Navi Mumbai,400614,Maharashtra,IN,https://www.google.com/maps/place/Mosque/data=!4m7!3m6!1s0x3be7c3a9566cc669:0x89ed8e90b94df824!8m2!3d19.0132328!4d73.0345251!16s%2Fg%2F11dym8lg0q!19sChIJacZsVqnD5zsRJPhNuZCO7Yk?authuser=0&hl=en&rclk=1,"19.0132328,73.0345251"
Sunni Takka Masjid,Mosque,"X4J9+M5W Sunni Takka Masjid, Takka Colony, Panvel, Navi Mumbai, Maharashtra 410206","Takka Colony, Panvel",X4J9+M5W,Navi Mumbai,410206,Maharashtra,IN,https://www.google.com/maps/place/Sunni+Takka+Masjid/data=!4m7!3m6!1s0x3be7e86e04da4623:0x6c2a7ee6f0271d93!8m2!3d18.9817399!4d73.1179404!16s%2Fg%2F12hpk13kv!19sChIJI0baBG7o5zsRkx0n8OZ-Kmw?authuser=0&hl=en&rclk=1,"18.9817399,73.1179404"
Ayesha Masjid,Mosque,"Ayesha Masjid, 410206, Old Panvel, Panvel, Navi Mumbai, Maharashtra 410206","Kacchi Mohalla, Old Panvel, Panvel",410206,Navi Mumbai,410206,Maharashtra,IN,https://www.google.com/maps/place/Ayesha+Masjid/data=!4m7!3m6!1s0x3be7e8167018e213:0x19b19534e7b0fc7d!8m2!3d18.9893963!4d73.1047209!16s%2Fg%2F11cs3bh2yc!19sChIJE-IYcBbo5zsRffyw5zSVsRk?authuser=0&hl=en&rclk=1,"18.9893963,73.1047209"
Rahimiya masjid,Mosque,"V5R7+975 Rahimiya masjid, Waveghar, Rasayani, Panvel, Navi Mumbai, Maharashtra 410207","Waveghar, Panvel","V5R7+975, Waveghar, Rasayani","Navi Mumbai, Dapiwali",410207,Maharashtra,IN,https://www.google.com/maps/place/Rahimiya+masjid/data=!4m7!3m6!1s0x3be7e6b73b223989:0x9cf1fb12c5ea00ad!8m2!3d18.8908838!4d73.1632302!16s%2Fg%2F11dxbwwjrs!19sChIJiTkiO7fm5zsRrQDqxRL78Zw?authuser=0&hl=en&rclk=1,"18.890883799999997,73.1632302"
Madni Masjid Taloja,Mosque,"339Q+723 Madni Masjid Taloja, Taloja Panchanand, Sector 40, Taloja, Navi Mumbai, Maharashtra 410208","Taloja Panchanand, Sector 40, Taloja",339Q+723,Navi Mumbai,410208,Maharashtra,IN,https://www.google.com/maps/place/Madni+Masjid+Taloja/data=!4m7!3m6!1s0x3be7c1fd7ce37bc3:0xce32c11a5ab36062!8m2!3d19.0681368!4d73.0875433!16s%2Fg%2F11cmshp29f!19sChIJw3vjfP3B5zsRYmCzWhrBMs4?authuser=0&hl=en&rclk=1,"19.068136799999998,73.0875433"
MASJID E GARIB NAWAZ,Mosque,"X4R9+8RX MASJID E GARIB NAWAZ, Forest Colony, Panvel, Navi Mumbai, Maharashtra 410206","Forest Colony, Panvel",X4R9+8RX,Navi Mumbai,410206,Maharashtra,IN,https://www.google.com/maps/place/MASJID+E+GARIB+NAWAZ/data=!4m7!3m6!1s0x3be7e9563ee10685:0x47976f89c0cdffe1!8m2!3d18.9908658!4d73.1196007!16s%2Fg%2F11gtzp_nf6!19sChIJhQbhPlbp5zsR4f_NwIlvl0c?authuser=0&hl=en&rclk=1,"18.990865799999998,73.11960069999999"
"jama masjid, peth gaon",Mosque,"337M+62M jama masjid, peth gaon, Pethapada, Sector 33, Kharghar, Navi Mumbai, Maharashtra 410210","Pethapada, Sector 33, Kharghar",337M+62M,Navi Mumbai,410210,Maharashtra,IN,"https://www.google.com/maps/place/jama+masjid,+peth+gaon/data=!4m7!3m6!1s0x3be7c1feb0abcd4f:0xb8a3f61024d4f218!8m2!3d19.0630805!4d73.0825517!16s%2Fg%2F11g69gxlsm!19sChIJT82rsP7B5zsRGPLUJBD2o7g?authuser=0&hl=en&rclk=1","19.063080499999998,73.0825517"
Masjid-E-Ayesha Taloja,Mosque,"Plot No - 162, Masjid-E-Ayesha Taloja, Ground floor, Aakar residency, Sector 2, Taloja Phase 1 Rd, Petali, Taloja, Navi Mumbai, Maharashtra 410208","Petali, Taloja Panchanand, Taloja","Plot No - 162, Ground floor, Aakar residency, Sector 2, Taloja Phase 1 Rd",Navi Mumbai,410208,Maharashtra,IN,https://www.google.com/maps/place/Masjid-E-Ayesha+Taloja/data=!4m7!3m6!1s0x3be7eb02d0bf6ee3:0x15b7c20dcff4ce23!8m2!3d19.0801115!4d73.0913614!16s%2Fg%2F11fl5mb0nk!19sChIJ426_0ALr5zsRI870zw3CtxU?authuser=0&hl=en&rclk=1,"19.080111499999997,73.0913614"
Shia Imambada Gazi Mension,Mosque,"Shia Imambada Gazi Mension, Plot No. 1156, Wazi Mohalla, opposite Sameer Apartment, Old Panvel, Navi Mumbai, Maharashtra 410206","Old Panvel, Panvel","Plot No. 1156, Wazi Mohalla, opposite Sameer Apartment",Navi Mumbai,410206,Maharashtra,IN,https://www.google.com/maps/place/Shia+Imambada+Gazi+Mension/data=!4m7!3m6!1s0x3be7e8139388d617:0x56642ebe22ae2cdb!8m2!3d18.9849182!4d73.1071717!16s%2Fg%2F11bzt988ms!19sChIJF9aIkxPo5zsR2yyuIr4uZFY?authuser=0&hl=en&rclk=1,"18.9849182,73.1071717"
Sunni Masjid,Mosque,"X4J8+V48 Sunni Masjid, MCCH Society, Panvel, Navi Mumbai, Maharashtra 410206","MCCH Society, Panvel",X4J8+V48,Navi Mumbai,410206,Maharashtra,IN,https://www.google.com/maps/place/Sunni+Masjid/data=!4m7!3m6!1s0x3be7e86d96ecb883:0xfc8a96fa60547e63!8m2!3d18.9821731!4d73.115332!16s%2Fg%2F11b5yvhvtf!19sChIJg7jslm3o5zsRY35UYPqWivw?authuser=0&hl=en&rclk=1,"18.9821731,73.115332"
Noorani Masjid Taloja,Mosque,"Noorani Masjid Taloja, Taloja Panchanand, Sector 40, Taloja, Navi Mumbai, Maharashtra 410208","Taloja Panchanand, Sector 40, Taloja",,Navi Mumbai,410208,Maharashtra,IN,https://www.google.com/maps/place/Noorani+Masjid+Taloja/data=!4m7!3m6!1s0x3be7ea07cf9b20a5:0x1c654a07caaa8502!8m2!3d19.0697858!4d73.0900129!16s%2Fg%2F11c1g668wp!19sChIJpSCbzwfq5zsRAoWqygdKZRw?authuser=0&hl=en&rclk=1,"19.0697858,73.09001289999999"
Peer Baba Dargah,Mosque,"W5X5+F78 Peer Baba Dargah, Navi Mumbai, Maharashtra 410221",,W5X5+F78,Navi Mumbai,,Maharashtra,IN,https://www.google.com/maps/place/Peer+Baba+Dargah/data=!4m7!3m6!1s0x3be7e64026aa5e3d:0x539955d1f96b3bbf!8m2!3d18.9486581!4d73.1581999!16s%2Fg%2F11gff28515!19sChIJPV6qJkDm5zsRvztr-dFVmVM?authuser=0&hl=en&rclk=1,"18.9486581,73.1581999"
Vadghar Jama Masjid,Mosque,"X4M3+MVF Vadghar Jama Masjid, Vadghar, Panvel, Navi Mumbai, Maharashtra 410206","Vadghar, Panvel",X4M3+MVF,Navi Mumbai,410206,Maharashtra,IN,https://www.google.com/maps/place/Vadghar+Jama+Masjid/data=!4m7!3m6!1s0x3be7e811114dd695:0x172eabc99394dd76!8m2!3d18.9841982!4d73.1046805!16s%2Fg%2F11f3wxpfgv!19sChIJldZNERHo5zsRdt2Uk8mrLhc?authuser=0&hl=en&rclk=1,"18.984198199999998,73.1046805"
Yunus Masjid Taloja,Mosque,"33CQ+M7G Yunus Masjid Taloja, Taloja Panchanand, Sector 40, Taloja, Navi Mumbai, Maharashtra 410208","Taloja Panchanand, Sector 40, Taloja",33CQ+M7G,Navi Mumbai,410208,Maharashtra,IN,https://www.google.com/maps/place/Yunus+Masjid+Taloja/data=!4m7!3m6!1s0x3be7ea08193b9da7:0xd8981bba08fa4a7f!8m2!3d19.0716802!4d73.0882078!16s%2Fg%2F11b_3cj6hk!19sChIJp507GQjq5zsRf0r6CLobmNg?authuser=0&hl=en&rclk=1,"19.0716802,73.08820779999999"
Sunni Muhammadiya Masjid,Mosque,"Sunni Muhammadiya Masjid, Palaspe Phata, Panvel, Navi Mumbai, Maharashtra 410221","Palaspe Phata, Panvel",,Navi Mumbai,410221,Maharashtra,IN,https://www.google.com/maps/place/Sunni+Muhammadiya+Masjid/data=!4m7!3m6!1s0x3be7e90aa14cd521:0x9930cc61557d235d!8m2!3d18.9721615!4d73.1294121!16s%2Fg%2F11n7jmhcm1!19sChIJIdVMoQrp5zsRXSN9VWHMMJk?authuser=0&hl=en&rclk=1,"18.9721615,73.1294121"
Masjid Ibraheem Taloja,Mosque,"33CP+6Q7 Masjid Ibraheem Taloja, Mannan colony, Taloja Panchanand, Sector 40, Taloja, Navi Mumbai, Maharashtra 410208","Mannan colony, Taloja Panchanand, Sector 40, Taloja",33CP+6Q7,Navi Mumbai,410208,Maharashtra,IN,https://www.google.com/maps/place/Masjid+Ibraheem+Taloja/data=!4m7!3m6!1s0x3be7c1e2add8c013:0x10a0f3329938679d!8m2!3d19.0705479!4d73.0869123!16s%2Fg%2F11b7j3r05r!19sChIJE8DYreLB5zsRnWc4mTLzoBA?authuser=0&hl=en&rclk=1,"19.070547899999998,73.0869123"
Akurli Dargah Masjid,Mosque,"Akurli Dargah Masjid, New, Panvel, Akurli, Maharashtra 410206",Panvel,New,Akurli,410206,Maharashtra,IN,https://www.google.com/maps/place/Akurli+Dargah+Masjid/data=!4m7!3m6!1s0x3be7e8f17c0c67f5:0xfb67cb3eb864aa0d!8m2!3d19.0011904!4d73.1433647!16s%2Fg%2F11dz56shym!19sChIJ9WcMfPHo5zsRDapkuD7LZ_s?authuser=0&hl=en&rclk=1,"19.0011904,73.14336469999999"
Masjid-e-suffah,Mosque,"24M2+4FM Masjid-e-suffah, Sector 11, Kalamboli, Panvel, Navi Mumbai, Maharashtra 410218","Sector 11, Kalamboli, Panvel",24M2+4FM,Navi Mumbai,410218,Maharashtra,IN,https://www.google.com/maps/place/Masjid-e-suffah/data=!4m7!3m6!1s0x3be7e9c36b20afcd:0xb978f7a9949485d8!8m2!3d19.0328499!4d73.1011657!16s%2Fg%2F11bttcr5m6!19sChIJza8ga8Pp5zsR2IWUlKn3eLk?authuser=0&hl=en&rclk=1,"19.0328499,73.1011657"
S.W.E.F. Trust Madrasa & Masjid,Mosque,"22FF+5WV S.W.E.F. Trust Madrasa & Masjid, Sector 27, Nerul, Navi Mumbai, Maharashtra 400706","Sector 27, Nerul",22FF+5WV,Navi Mumbai,400706,Maharashtra,IN,https://www.google.com/maps/place/S.W.E.F.+Trust+Madrasa+%26+Masjid/data=!4m7!3m6!1s0x3be7c3bbc71da90d:0xda3d28c895e90486!8m2!3d19.0229937!4d73.0247882!16s%2Fg%2F11hcjyrw37!19sChIJDakdx7vD5zsRhgTplcgoPdo?authuser=0&hl=en&rclk=1,"19.0229937,73.0247882"
Sunni Jama Masjid,Mosque,"35Q2+FR8 Sunni Jama Masjid, Wavanje, Taloja, Navi Mumbai, Maharashtra 410208","Wavanje, Taloja",35Q2+FR8,Navi Mumbai,410208,Maharashtra,IN,https://www.google.com/maps/place/Sunni+Jama+Masjid/data=!4m7!3m6!1s0x3be7ebb8af0d6f37:0x959f5c25338062be!8m2!3d19.088656!4d73.1520685!16s%2Fg%2F11f40s1t50!19sChIJN28Nr7jr5zsRvmKAMyVcn5U?authuser=0&hl=en&rclk=1,"19.088656,73.1520685"
Jama masjid old panvel,Mosque,"X4P4+8J8 Jama masjid old panvel, Old Panvel, Panvel, Navi Mumbai, Maharashtra 410206","Old Panvel, Panvel",X4P4+8J8,Navi Mumbai,410206,Maharashtra,IN,https://www.google.com/maps/place/Jama+masjid+old+panvel/data=!4m7!3m6!1s0x3be7e9f6bb604ae3:0x5c0779c03546943a!8m2!3d18.9857811!4d73.1065629!16s%2Fg%2F11tds67dfv!19sChIJ40pgu_bp5zsROpRGNcB5B1w?authuser=0&hl=en&rclk=1,"18.9857811,73.1065629"
Mosque,Mosque,"239Q+FJG Mosque, Sector 12, Kamothe, Panvel, Navi Mumbai, Maharashtra 410209","Sector 12, Kamothe, Panvel",239Q+FJG,Navi Mumbai,410209,Maharashtra,IN,https://www.google.com/maps/place/Mosque/data=!4m7!3m6!1s0x3be7e949e1dc8e8f:0xa2345bbd2986cfb!8m2!3d19.0186881!4d73.0890852!16s%2Fg%2F11gxg0schk!19sChIJj47c4Unp5zsR-2yY0rtFIwo?authuser=0&hl=en&rclk=1,"19.0186881,73.0890852"
Masjid Safai,Mosque,"X4CJ+MJH Masjid Safai, Peth, Kolkhe Village, Panvel, Navi Mumbai, Maharashtra 410221","Peth, Kolkhe Village, Panvel",X4CJ+MJH,Navi Mumbai,410221,Maharashtra,IN,https://www.google.com/maps/place/Masjid+Safai/data=!4m7!3m6!1s0x3be7e9aae69f910f:0xfd8a64fb298fb784!8m2!3d18.9716906!4d73.1316136!16s%2Fg%2F11gl16j_xp!19sChIJD5Gf5qrp5zsRhLePKftkiv0?authuser=0&hl=en&rclk=1,"18.9716906,73.1316136"
Prestige Garden Mosque,Mosque,"Prestige Garden Mosque, La Mer Residency, Sai Nagar, Panvel, Navi Mumbai, Maharashtra 410206","Sai Nagar, Panvel",La Mer Residency,Navi Mumbai,410206,Maharashtra,IN,https://www.google.com/maps/place/Prestige+Garden+Mosque/data=!4m7!3m6!1s0x3be7e822a44130db:0x39100ac2861870a0!8m2!3d18.9913871!4d73.0985592!16s%2Fg%2F11f5bnn82b!19sChIJ2zBBpCLo5zsRoHAYhsIKEDk?authuser=0&hl=en&rclk=1,"18.9913871,73.0985592"
masjid-hira,Mosque,"masjid-hira, Panvel Co-op Housing Society, Old Panvel, Panvel, Navi Mumbai, Maharashtra 410206","Panvel Co-op Housing Society, Old Panvel, Panvel",,Navi Mumbai,410206,Maharashtra,IN,https://www.google.com/maps/place/masjid-hira/data=!4m7!3m6!1s0x3be7e9109e2b7bd3:0x6bb3fe6531bcecf4!8m2!3d18.9928668!4d73.1044731!16s%2Fg%2F11g0kh7j3y!19sChIJ03srnhDp5zsR9Oy8MWX-s2s?authuser=0&hl=en&rclk=1,"18.992866799999998,73.10447309999999"
Masjid-E-Muhammadia,Mosque,"X4Q4+W4X Masjid-E-Muhammadia, Bandar Rd, Near Aiysha Masjid, Kacchi Mohalla, Old Panvel, Panvel, Navi Mumbai, Maharashtra 410206","Kacchi Mohalla, Old Panvel, Panvel","X4Q4+W4X, Bandar Rd, Near Aiysha Masjid",Navi Mumbai,410206,Maharashtra,IN,https://www.google.com/maps/place/Masjid-E-Muhammadia/data=!4m7!3m6!1s0x3be7e81675be2a0b:0xeda0d6f448ddbb6a!8m2!3d18.9898633!4d73.1053622!16s%2Fg%2F11b_2qv4p9!19sChIJCyq-dRbo5zsRarvdSPTWoO0?authuser=0&hl=en&rclk=1,"18.9898633,73.1053622"
Aqsa Masjid,Religious destination,"Aqsa Masjid, Lotus CHS, Sai Nagar Rd, Sai Nagar, Panvel, Navi Mumbai, Maharashtra 410206","Sai Nagar, Panvel","Lotus CHS, Sai Nagar Rd",Navi Mumbai,410206,Maharashtra,IN,https://www.google.com/maps/place/Aqsa+Masjid/data=!4m7!3m6!1s0x3be7e83cd5e37ec9:0x78361a78b4c46dfd!8m2!3d18.9938452!4d73.0998087!16s%2Fg%2F11f_f6m863!19sChIJyX7j1Tzo5zsR_W3EtHgaNng?authuser=0&hl=en&rclk=1,"18.9938452,73.0998087"
Masjid-e-Arkam,Mosque,"Plot no. 90, Masjid-e-Arkam, Thakur Keystone, Sector 02, Taloja Phase 1 Rd, Petali, Taloja, Navi Mumbai, Maharashtra 410208","Petali, Taloja Panchanand, Taloja","Plot no. 90, Thakur Keystone, Sector 02, Taloja Phase 1 Rd",Navi Mumbai,410208,Maharashtra,IN,https://www.google.com/maps/place/Masjid-e-Arkam/data=!4m7!3m6!1s0x3be7eb696c2b4d2f:0x979bc271e1f02809!8m2!3d19.0800526!4d73.0902565!16s%2Fg%2F11j349mm3c!19sChIJL00rbGnr5zsRCSjw4XHCm5c?authuser=0&hl=en&rclk=1,"19.0800526,73.0902565"
Eidgah Kabrastan,Mosque,"X4P3+R9W Eidgah Kabrastan, EIDGAH Road, Patel Mohalla, Old Panvel, Panvel, Navi Mumbai, Maharashtra 410206","Old Panvel, Panvel","X4P3+R9W, EIDGAH Road, Patel Mohalla",Navi Mumbai,410206,Maharashtra,IN,https://www.google.com/maps/place/Eidgah+Kabrastan/data=!4m7!3m6!1s0x3be7e90c6b3dcf7d:0xb4c163747be73c06!8m2!3d18.9871089!4d73.1034558!16s%2Fg%2F11fk8c7v0_!19sChIJfc89awzp5zsRBjzne3RjwbQ?authuser=0&hl=en&rclk=1,"18.9871089,73.10345579999999"
Sunni masjid,Mosque,"339W+FG6 Sunni masjid, Sector 20, Taloja Panchanand, Taloja Phase 2, Taloja, Navi Mumbai, Maharashtra 410208","Sector 20, Taloja Panchanand, Taloja Phase 2, Taloja",339W+FG6,Navi Mumbai,410208,Maharashtra,IN,https://www.google.com/maps/place/Sunni+masjid/data=!4m7!3m6!1s0x3be7ebefc5b70743:0x6b58128feb65d2b6!8m2!3d19.0686647!4d73.096276!16s%2Fg%2F11s3rdz939!19sChIJQwe3xe_r5zsRttJl648SWGs?authuser=0&hl=en&rclk=1,"19.0686647,73.096276"
Mosque,Mosque,"Mosque, 351, Mahatma Gandhi Rd, Old Panvel, Panvel, Navi Mumbai, Maharashtra 410206","Old Panvel, Panvel","351, Mahatma Gandhi Rd",Navi Mumbai,410206,Maharashtra,IN,https://www.google.com/maps/place/Mosque/data=!4m7!3m6!1s0x3be7e81469684d17:0x89ced6c40be0b14e!8m2!3d18.9869707!4d73.1075707!16s%2Fg%2F11dyz4lxyg!19sChIJF01oaRTo5zsRTrHgC8TWzok?authuser=0&hl=en&rclk=1,"18.9869707,73.1075707"
Masjid Darussalam,Religious destination,"Masjid Darussalam, La Mer Residency, Sai Nagar, Panvel, Navi Mumbai, Maharashtra 410206","Sai Nagar, Panvel",La Mer Residency,Navi Mumbai,410206,Maharashtra,IN,https://www.google.com/maps/place/Masjid+Darussalam/data=!4m7!3m6!1s0x3be7e822bbc50a15:0xcf4fddf5decacfd!8m2!3d18.9916082!4d73.0983046!16s%2Fg%2F11gd679lb5!19sChIJFQrFuyLo5zsR_azsXd_99Aw?authuser=0&hl=en&rclk=1,"18.991608199999998,73.09830459999999"
Hazarat Dada Subhan Shah,Mosque,"X4J8+W4M Hazarat Dada Subhan Shah, Service Rd, MCCH Society, Panvel, Navi Mumbai, Maharashtra 410206","MCCH Society, Panvel","X4J8+W4M, Service Rd",Navi Mumbai,410206,Maharashtra,IN,https://www.google.com/maps/place/Hazarat+Dada+Subhan+Shah/data=!4m7!3m6!1s0x3be7e86d9639d1f9:0x441090009b03c250!8m2!3d18.9823488!4d73.1153023!16s%2Fg%2F1ptx__cf5!19sChIJ-dE5lm3o5zsRUMIDmwCQEEQ?authuser=0&hl=en&rclk=1,"18.9823488,73.1153023"
Hazrat Zindashah Madar Chilla/dargah,Mosque,"X4P5+5FG Hazrat Zindashah Madar Chilla/dargah, Old Panvel, Panvel, Navi Mumbai, Maharashtra 410206","Old Panvel, Panvel",X4P5+5FG,Navi Mumbai,410206,Maharashtra,IN,https://www.google.com/maps/place/Hazrat+Zindashah+Madar+Chilla%2Fdargah/data=!4m7!3m6!1s0x3be7e813776ea065:0xa0a5a72304fa1d2d!8m2!3d18.9854342!4d73.1087099!16s%2Fg%2F11cn6c3dpb!19sChIJZaBudxPo5zsRLR36BCOnpaA?authuser=0&hl=en&rclk=1,"18.9854342,73.1087099"
Jama Masjit old panvel,Mosque,"X4Q9+Q25 Jama Masjit old panvel, Forest Colony, Panvel, Navi Mumbai, Maharashtra 410206","Forest Colony, Panvel",X4Q9+Q25,Navi Mumbai,410206,Maharashtra,IN,https://www.google.com/maps/place/Jama+Masjit+old+panvel/data=!4m7!3m6!1s0x3be7e9d923dc66db:0xe8948e2a1f6ccba4!8m2!3d18.9893751!4d73.117603!16s%2Fg%2F11jsq0xmzc!19sChIJ22bcI9np5zsRpMtsHyqOlOg?authuser=0&hl=en&rclk=1,"18.9893751,73.117603"
Sunni Muhammadiya Trust,Mosque,"Sunni Muhammadiya Trust, near shifa Hospita, Palaspe Phata, parpund village, Parpund, Navi Mumbai, Maharashtra 410221","Palaspe Phata, parpund village",near shifa Hospita,"Parpund, Navi Mumbai",410221,Maharashtra,IN,https://www.google.com/maps/place/Sunni+Muhammadiya+Trust/data=!4m7!3m6!1s0x3be7e9bf0da6ed59:0x33567dbf2d526e43!8m2!3d18.9721877!4d73.1293765!16s%2Fg%2F11s3vw4d8p!19sChIJWe2mDb_p5zsRQ25SLb99VjM?authuser=0&hl=en&rclk=1,"18.9721877,73.12937649999999"
Masjid-E-Umar,Mosque,"Masjid-E-Umar, Shop No. 2 Plot No C101, Sector 39, Mumbra, Panvel Rd, Taloja, Navi Mumbai, Maharashtra 410208","Taloje Panchanand, Sector 40, Taloja","Shop No. 2 Plot No C101, Sector 39, Mumbra, Panvel Rd",Navi Mumbai,410208,Maharashtra,IN,https://www.google.com/maps/place/Masjid-E-Umar/data=!4m7!3m6!1s0x3be7eb4f79e5f50b:0x53d0b2a76e173069!8m2!3d19.0731769!4d73.0888685!16s%2Fg%2F11r2r440n0!19sChIJC_XleU_r5zsRaTAXbqey0FM?authuser=0&hl=en&rclk=1,"19.0731769,73.0888685"
Masjid Maktab E Al Noor,Mosque,"bldg,plot no 96, Masjid Maktab E Al Noor, Real Paradise, sector 10, Taloja Phase 1 Rd, Petali, Taloja Panchanand, Taloja, Navi Mumbai, Maharashtra 410208","Petali, Taloja Panchanand, Taloja","bldg,plot no 96, Real Paradise, sector 10, Taloja Phase 1 Rd",Navi Mumbai,410208,Maharashtra,IN,https://www.google.com/maps/place/Masjid+Maktab+E+Al+Noor/data=!4m7!3m6!1s0x3be7ebc51050748f:0x4ce808ca173329e6!8m2!3d19.079059!4d73.0920625!16s%2Fg%2F11trh_3b4_!19sChIJj3RQEMXr5zsR5ikzF8oI6Ew?authuser=0&hl=en&rclk=1,"19.079059,73.0920625"
Kabristan Masjid,Mosque,"Kabristan Masjid, near Uran Naka Bhaji Market, 2, Appasaheb Panhale Rd, Old Panvel, Panvel, Navi Mumbai, Maharashtra 410206","Old Panvel, Panvel","near Uran Naka Bhaji Market, 2, Appasaheb Panhale Rd",Navi Mumbai,410206,Maharashtra,IN,https://www.google.com/maps/place/Kabristan+Masjid/data=!4m7!3m6!1s0x3be7e97c1136006b:0x11127a83192ee178!8m2!3d18.9866843!4d73.1108969!16s%2Fg%2F11hdpsfmgz!19sChIJawA2EXzp5zsReOEuGYN6EhE?authuser=0&hl=en&rclk=1,"18.9866843,73.1108969"
Fatima masjid,Mosque,"X49H+M2G Fatima masjid, Palaspe Phata, Panvel, Navi Mumbai, Maharashtra 410221","Palaspe Phata, Panvel",X49H+M2G,Navi Mumbai,410221,Maharashtra,IN,https://www.google.com/maps/place/Fatima+masjid/data=!4m7!3m6!1s0x3be7e788e1c2e779:0xf5b75f1182480fab!8m2!3d18.9691877!4d73.1275844!16s%2Fg%2F11sbxrnx3y!19sChIJeefC4Yjn5zsRqw9IghFft_U?authuser=0&hl=en&rclk=1,"18.9691877,73.1275844"
Masjiddd ummeed tower,Mosque,"Shop No.8, Masjiddd ummeed tower, Ummeed Tower, Sai Nagar Rd, opp. Gurupushpa Society, Old Panvel, Panvel, Navi Mumbai, Maharashtra 410206","Old Panvel, Panvel","Shop No.8, Ummeed Tower, Sai Nagar Rd, opp. Gurupushpa Society",Navi Mumbai,410206,Maharashtra,IN,https://www.google.com/maps/place/Masjiddd+ummeed+tower/data=!4m7!3m6!1s0x3be7e90ea5ec3b29:0xcef73ae505ed4cd5!8m2!3d18.9951492!4d73.1045958!16s%2Fg%2F11svqdz6jq!19sChIJKTvspQ7p5zsR1UztBeU6984?authuser=0&hl=en&rclk=1,"18.9951492,73.1045958"
Kalamboli Ahle Sunni Masjid,Mosque,"Kalamboli Ahle Sunni Masjid, Unnamed Road, Sector 14, Roadpali, Kalamboli, Panvel, Navi Mumbai, Maharashtra 410218","Roadpali, Kalamboli, Panvel","Unnamed Road, Sector 14",Navi Mumbai,410218,Maharashtra,IN,https://www.google.com/maps/place/Kalamboli+Ahle+Sunni+Masjid/data=!4m7!3m6!1s0x3be7e9516107b53b:0x4851c5bb19110d4a!8m2!3d19.0360835!4d73.1015816!16s%2Fg%2F11h3p0tjmj!19sChIJO7UHYVHp5zsRSg0RGbvFUUg?authuser=0&hl=en&rclk=1,"19.0360835,73.1015816"
Khanqah e Qadriya Sirajiya Arifiya,Mosque,"Khanqah e Qadriya Sirajiya Arifiya, 106, Sion - Panvel Hwy, Sector 9, Kamothe, Panvel, Navi Mumbai, Maharashtra 410206","Sector 9, Kamothe, Panvel","106, Sion - Panvel Hwy",Navi Mumbai,410206,Maharashtra,IN,https://www.google.com/maps/place/Khanqah+e+Qadriya+Sirajiya+Arifiya/data=!4m7!3m6!1s0x3be7e930355a2673:0x3c1c960ec5d865df!8m2!3d19.0199429!4d73.0956516!16s%2Fg%2F11tf4xm43g!19sChIJcyZaNTDp5zsR32XYxQ6WHDw?authuser=0&hl=en&rclk=1,"19.0199429,73.0956516"
N.P.C. TRUST,Mosque,"243X+G8Q N.P.C. TRUST, Bhokarpada, Chipale, Maharashtra 410206",Bhokarpada,243X+G8Q,Chipale,410206,Maharashtra,IN,https://www.google.com/maps/place/N.P.C.+TRUST/data=!4m7!3m6!1s0x3be7e900bc4f8213:0x20e88990f57d1e80!8m2!3d19.0038371!4d73.1483534!16s%2Fg%2F11mhl931rg!19sChIJE4JPvADp5zsRgB599ZCJ6CA?authuser=0&hl=en&rclk=1,"19.0038371,73.14835339999999"
Dare Arkam Masjid,Mosque,"X4P4+F32 Dare Arkam Masjid, Old Panvel, Panvel, Navi Mumbai, Maharashtra 410206","Old Panvel, Panvel",X4P4+F32,Navi Mumbai,410206,Maharashtra,IN,https://www.google.com/maps/place/Dare+Arkam+Masjid/data=!4m7!3m6!1s0x3be7e991cef2f4e1:0x97459e27e32a4627!8m2!3d18.9861271!4d73.1051506!16s%2Fg%2F11vc0xcx3j!19sChIJ4fTyzpHp5zsRJ0Yq4yeeRZc?authuser=0&hl=en&rclk=1,"18.986127099999997,73.1051506"
Rehmat Masjid Kabrastan,Mosque,"23PX+JFF Rehmat Masjid Kabrastan, Sector 12, Kalamboli, Panvel, Navi Mumbai, Maharashtra 410218","Sector 12, Kalamboli, Panvel",23PX+JFF,Navi Mumbai,410218,Maharashtra,IN,https://www.google.com/maps/place/Rehmat+Masjid+Kabrastan/data=!4m7!3m6!1s0x3be7e98b0cf309f9:0x7917479022b2f262!8m2!3d19.0366177!4d73.098775!16s%2Fg%2F11shcvbl0n!19sChIJ-QnzDIvp5zsRYvKyIpBHF3k?authuser=0&hl=en&rclk=1,"19.0366177,73.098775"
Qari shaukat Masjid,Mosque,"24P2+JP8 Qari shaukat Masjid, Roadpali, Kalamboli, Panvel, Navi Mumbai, Maharashtra 410218","Roadpali, Kalamboli, Panvel",24P2+JP8,Navi Mumbai,,Maharashtra,IN,https://www.google.com/maps/place/Qari+shaukat+Masjid/data=!4m7!3m6!1s0x3be7e963ec6e76ab:0xfd955ff9749d1f28!8m2!3d19.0365355!4d73.1018252!16s%2Fg%2F11l5zds51w!19sChIJq3Zu7GPp5zsRKB-ddPlflf0?authuser=0&hl=en&rclk=1,"19.0365355,73.1018252"
Hazrat Faki Ali sha peer R.H dargha,Mosque,"Hazrat Faki Ali sha peer R.H dargha, hazrat Faki, sha peer R.H, Kaul Ali Rd, Vadghar, Panvel, Navi Mumbai, Maharashtra 410206","Vadghar, Panvel","hazrat Faki, sha peer R.H, Kaul Ali Rd",Navi Mumbai,410206,Maharashtra,IN,https://www.google.com/maps/place/Hazrat+Faki+Ali+sha+peer+R.H+dargha/data=!4m7!3m6!1s0x3be7e909167e2b2f:0x2b007315f4891a1b!8m2!3d18.9828767!4d73.1053865!16s%2Fg%2F11fks76cpj!19sChIJLyt-Fgnp5zsRGxqJ9BVzACs?authuser=0&hl=en&rclk=1,"18.9828767,73.1053865"
Dut,Place of worship,"Dut, Plot no 20/34 Near Kinara Society 52 Bunglow, Kacchi Mohalla, Old Panvel, Panvel, Navi Mumbai, Maharashtra 410206","Kacchi Mohalla, Old Panvel, Panvel",Plot no 20/34 Near Kinara Society 52 Bunglow,Navi Mumbai,410206,Maharashtra,IN,https://www.google.com/maps/place/Dut/data=!4m7!3m6!1s0x3be7e980b70c204b:0x21f5af9e50f8d601!8m2!3d18.9898943!4d73.1042893!16s%2Fg%2F11rgzyq1lc!19sChIJSyAMt4Dp5zsRAdb4UJ6v9SE?authuser=0&hl=en&rclk=1,"18.9898943,73.10428929999999"
JUMMA MASJID PANVEL,Charity,"Shop No 3, JUMMA MASJID PANVEL, JUMMA MASJID TRUST, Behind JUMMA MASJID, PATEL MOHALLA, Panvel, Navi Mumbai, Maharashtra 410206","PATEL MOHALLA, Old Panvel, Panvel","Shop No 3, JUMMA MASJID TRUST, Behind JUMMA MASJID",Navi Mumbai,410206,Maharashtra,IN,https://www.google.com/maps/place/JUMMA+MASJID+PANVEL/data=!4m7!3m6!1s0x3be7e9f166bf259d:0x2797f876c3fab9c0!8m2!3d18.985721!4d73.1070698!16s%2Fg%2F11lcgtmlfw!19sChIJnSW_ZvHp5zsRwLn6w3b4lyc?authuser=0&hl=en&rclk=1,"18.985720999999998,73.10706979999999"
