name,main_category,address,address_ward,address_street,address_city,address_postal_code,address_state,address_country_code,link,coordinates
Jama Masjid,Mosque,"Jama Masjid, Old Delhi, Delhi, 110006","Jama Masjid, Old Delhi",,Delhi,110006,Delhi,IN,https://www.google.com/maps/place/Jama+Masjid/data=!4m7!3m6!1s0x390cfd18df89b215:0xdd57369e29bf9d96!8m2!3d28.6506792!4d77.2334421!16zL20vMDR5emo1!19sChIJFbKJ3xj9DDkRlp2_KZ42V90?authuser=0&hl=en&rclk=1,"28.6506792,77.23344209999999"
Jama Masjid Shamsi jm` msjd shmsy,Mosque,"24QC+FMQ Jama Masjid Shamsi jm` msjd shmsy, Molvi Tola, Budaun, Uttar Pradesh 243601",Molvi Tola,24QC+FMQ,Budaun,243601,Uttar Pradesh,IN,https://www.google.com/maps/place/Jama+Masjid+Shamsi+%D8%AC%D8%A7%D9%85%D8%B9+%D9%85%D8%B3%D8%AC%D8%AF+%D8%B4%D9%85%D8%B3%DB%8C%E2%80%AD/data=!4m7!3m6!1s0x397545ef82cf8fa3:0x850fadc4472fa2e7!8m2!3d28.0386803!4d79.1219285!16s%2Fg%2F11bwjc_06v!19sChIJo4_Pgu9FdTkR56IvR8StD4U?authuser=0&hl=en&rclk=1,"28.0386803,79.1219285"
Sunehri Masjid,Mosque,"M62Q+5QW Sunehri Masjid, Nishad Raj Marg, Lal Qila, Old Delhi, New Delhi, Delhi, 110006","Lal Qila, Old Delhi","M62Q+5QW, Nishad Raj Marg","New Delhi, Delhi",110006,Delhi,IN,https://www.google.com/maps/place/Sunehri+Masjid/data=!4m7!3m6!1s0x390cfd1e2ed1ec0d:0xb341e6c5c83f65e7!8m2!3d28.650487!4d77.2394481!16s%2Fm%2F0zwr167!19sChIJDezRLh79DDkR52U_yMXmQbM?authuser=0&hl=en&rclk=1,"28.650487,77.23944809999999"
Moti Masjid,Mosque,"M64V+P7J Moti Masjid, Lal Qila, Old Delhi, New Delhi, Delhi, 110006","Lal Qila, Old Delhi",M64V+P7J,"New Delhi, Delhi",110006,Delhi,IN,https://www.google.com/maps/place/Moti+Masjid/data=!4m7!3m6!1s0x390cfce252446dcd:0xdd83160d9aa6cbf1!8m2!3d28.6568443!4d77.2431421!16zL20vMDZ2cV92!19sChIJzW1EUuL8DDkR8cummg0Wg90?authuser=0&hl=en&rclk=1,"28.6568443,77.2431421"
Shahi Masjid Vasant Vihar msjd shhy,Mosque,"H47X+FQ4 Shahi Masjid Vasant Vihar msjd shhy, Muradabad Pahari, D3 St, near Shri Raam School, Vasant Vihar, New Delhi, Delhi 110057",Vasant Vihar,"H47X+FQ4, Muradabad Pahari, D3 St, near Shri Raam School",New Delhi,110057,Delhi,IN,https://www.google.com/maps/place/Shahi+Masjid+Vasant+Vihar+%D9%85%D8%B3%D8%AC%D8%AF+%D8%B4%D8%A7%DB%81%DB%8C%E2%80%AD/data=!4m7!3m6!1s0x390d1dacc6b7318b:0xd650b525228c3634!8m2!3d28.5636477!4d77.1494618!16s%2Fg%2F1xg5r1k0!19sChIJizG3xqwdDTkRNDaMIiW1UNY?authuser=0&hl=en&rclk=1,"28.563647699999997,77.1494618"
Mosque Tarinan.,Mosque,"7V35+FH6 Mosque Tarinan., Khurja, Uttar Pradesh 203131",,7V35+FH6,Khurja,203131,Uttar Pradesh,IN,https://www.google.com/maps/place/Mosque+Tarinan./data=!4m7!3m6!1s0x390ca93d8e194da1:0x10b867f6e5be83f3!8m2!3d28.2536743!4d77.8589048!16s%2Fg%2F11b77w_2d7!19sChIJoU0Zjj2pDDkR84O-5fZnuBA?authuser=0&hl=en&rclk=1,"28.2536743,77.85890479999999"
MOHAMMADI MASJID,Mosque,"M8JP+PMP MOHAMMADI MASJID, Madarsa Jamia Faizul Uloom F, block Shaheed Nagar, Sahibabad, Ghaziabad, Uttar Pradesh 201006","Block B, Sahibabad","M8JP+PMP, Madarsa Jamia Faizul Uloom F, block Shaheed Nagar",Ghaziabad,201006,Uttar Pradesh,IN,https://www.google.com/maps/place/MOHAMMADI+MASJID/data=!4m7!3m6!1s0x390cfa5594d04361:0xd178b1ec5a20cba0!8m2!3d28.681845!4d77.3366891!16s%2Fg%2F11gbxg3bnl!19sChIJYUPQlFX6DDkRoMsgWuyxeNE?authuser=0&hl=en&rclk=1,"28.681845,77.3366891"
Al-Huda Masjid and Library,Mosque,"M7MX+HWG Al-Huda Masjid and Library, Mansarowar Marg, New Modern Shahdara, Shahdara, New Delhi, Delhi, 110032","New Modern Shahdara, Shahdara","M7MX+HWG, Mansarowar Marg","New Delhi, Delhi",110032,Delhi,IN,https://www.google.com/maps/place/Al-Huda+Masjid+and+Library/data=!4m7!3m6!1s0x390cfb9b6c1a0343:0x92dc2d5f42fa066c!8m2!3d28.6839358!4d77.2998396!16s%2Fg%2F113jqpwvh!19sChIJQwMabJv7DDkRbAb6Ql8t3JI?authuser=0&hl=en&rclk=1,"28.6839358,77.2998396"
Sunehri Masjid,Mosque,"M8HM+PXG Sunehri Masjid, Shaheed Nagar, Ghaziabad, Uttar Pradesh 201005",Shaheed Nagar,M8HM+PXG,Ghaziabad,201005,Uttar Pradesh,IN,https://www.google.com/maps/place/Sunehri+Masjid/data=!4m7!3m6!1s0x390cfaff9eaceea7:0xf4f33d3341473a7e!8m2!3d28.6793078!4d77.3349623!16s%2Fg%2F11c2jqc75l!19sChIJp-6snv_6DDkRfjpHQTM98_Q?authuser=0&hl=en&rclk=1,"28.6793078,77.3349623"
Masjid Qaziyan,Mosque,"Masjid Qaziyan, 200, Nawada Bazar, Jatav Mohalla, Najafgarh, Delhi, 110043","Jatav Mohalla, Najafgarh","200, Nawada Bazar",Delhi,110043,Delhi,IN,https://www.google.com/maps/place/Masjid+Qaziyan/data=!4m7!3m6!1s0x390d0fc352302969:0xca914f22c7dc318a!8m2!3d28.6124928!4d76.9821631!16s%2Fg%2F11c1pg7cmf!19sChIJaSkwUsMPDTkRijHcxyJPkco?authuser=0&hl=en&rclk=1,"28.6124928,76.9821631"
Masjid Peeron Wali.,Mosque,"G56M+FRR Masjid Peeron Wali., MB Road Near Outab Minar Metro Station, New Delhi, Delhi 110030","Mittal Garden, Sainik Farm","G56M+FRR, MB Road Near Outab Minar Metro Station",New Delhi,110030,Delhi,IN,https://www.google.com/maps/place/Masjid+Peeron+Wali./data=!4m7!3m6!1s0x390d1e198abd9ec1:0xdbb19552d12b6dd3!8m2!3d28.5112252!4d77.1845169!16s%2Fg%2F11cn8z5txr!19sChIJwZ69ihkeDTkR020r0VKVsds?authuser=0&hl=en&rclk=1,"28.5112252,77.18451689999999"
Jama Masjid Deenpur,Mosque,"Jama Masjid Deenpur, RZ-6, nii, Najafgarh Kapashera Rd, Deenpur, Surya Vihar, Najafgarh, New Delhi, Delhi 110043","Deenpur, Delhi Teachers Colony, Surya Vihar, Najafgarh","RZ-6, nii, Najafgarh Kapashera Rd","New Delhi, Delhi",110043,Delhi,IN,https://www.google.com/maps/place/Jama+Masjid+Deenpur/data=!4m7!3m6!1s0x390d101a2f2d3b99:0xca466eeef5b8b9e3!8m2!3d28.5926436!4d76.9934713!16s%2Fg%2F11c6zwdbgj!19sChIJmTstLxoQDTkR47m49e5uRso?authuser=0&hl=en&rclk=1,"28.5926436,76.9934713"
Masjid Quba,Mosque,"HXRW+R9G Masjid Quba, Deenpur, Shiv Puri I, Najafgarh, Delhi, 110043","Deenpur, Shiv Puri I, Najafgarh",HXRW+R9G,Delhi,110043,Delhi,IN,https://www.google.com/maps/place/Masjid+Quba/data=!4m7!3m6!1s0x390d101a5ffd21cd:0x50b8c670639862c7!8m2!3d28.5920547!4d76.9959481!16s%2Fg%2F11c6zwcfv_!19sChIJzSH9XxoQDTkRx2KYY3DGuFA?authuser=0&hl=en&rclk=1,"28.5920547,76.99594809999999"
Masjid Abu Bakr Siddique,Mosque,"Masjid Abu Bakr Siddique, 120/121, Paprawat Rd Roshan Vihar II, Roshan Vihar 1, Paprawat Rd, Roshan Vihar II, Roshan Vihar 1, Najafgarh, Delhi, 110043","Roshan Vihar II, Roshan Vihar 1, Najafgarh","120/121, Paprawat Rd Roshan Vihar II, Roshan Vihar 1, Paprawat Rd",Delhi,110043,Delhi,IN,https://www.google.com/maps/place/Masjid+Abu+Bakr+Siddique/data=!4m7!3m6!1s0x390d1020983df7a5:0x4cf26b8254682764!8m2!3d28.5998067!4d76.9830872!16s%2Fg%2F11c6vswp4n!19sChIJpfc9mCAQDTkRZCdoVIJr8kw?authuser=0&hl=en&rclk=1,"28.5998067,76.9830872"
Masjid-e-Sheikh Gaamon Main,Mosque,"M666+HGC Masjid-e-Sheikh Gaamon Main, Bahadurgarh Rd, Fyaz Ganj, Sadar Bazaar, New Delhi, Delhi, 110006","Fyaz Ganj, Sadar Bazaar","M666+HGC, Bahadurgarh Rd","New Delhi, Delhi",110006,Delhi,IN,https://www.google.com/maps/place/Masjid-e-Sheikh+Gaamon+Main/data=!4m7!3m6!1s0x390cfd71670a93f3:0x268d3d15d4cf21e6!8m2!3d28.6614422!4d77.2112784!16s%2Fg%2F11b75fwqwr!19sChIJ85MKZ3H9DDkR5iHP1BU9jSY?authuser=0&hl=en&rclk=1,"28.6614422,77.2112784"
Jama Masjid Harauda,Mosque,"P2F9+HPH Jama Masjid Harauda, Post Simbhaoli, Haroda, Uttar Pradesh 245207",,"P2F9+HPH, Post Simbhaoli",Haroda,245207,Uttar Pradesh,IN,https://www.google.com/maps/place/Jama+Masjid+Harauda/data=!4m7!3m6!1s0x390b7c9e28446f2d:0xdb4373942c2613de!8m2!3d28.7239261!4d78.0193591!16s%2Fg%2F11g7ywth4l!19sChIJLW9EKJ58CzkR3hMmLJRzQ9s?authuser=0&hl=en&rclk=1,"28.7239261,78.0193591"
Madina Masjid Azad Nagar,Mosque,"4JX5+57R Madina Masjid Azad Nagar, Azad Nagar, Sardhana, Uttar Pradesh 250342",Azad Nagar,4JX5+57R,Sardhana,250342,Uttar Pradesh,IN,https://www.google.com/maps/place/Madina+Masjid+Azad+Nagar/data=!4m7!3m6!1s0x390c6bccbd90cb19:0xad6a34ddfd38d274!8m2!3d29.1479932!4d77.6081296!16s%2Fg%2F11f6kwpzb4!19sChIJGcuQvcxrDDkRdNI4_d00aq0?authuser=0&hl=en&rclk=1,"29.1479932,77.6081296"
Chaar minar masjid,Mosque,"M8W6+CVX Chaar minar masjid, Block E 2, Nand Nagri, Mandoli, Delhi, 110093","Block E 2, Nand Nagri, Mandoli",M8W6+CVX,Delhi,110093,Delhi,IN,https://www.google.com/maps/place/Chaar+minar+masjid/data=!4m7!3m6!1s0x390cfb0361ef62b1:0xa2b2e4655c55e71a!8m2!3d28.6961057!4d77.3122471!16s%2Fg%2F11h_wyqy3k!19sChIJsWLvYQP7DDkRGudVXGXksqI?authuser=0&hl=en&rclk=1,"28.6961057,77.3122471"
Jamea Masjid Ken'nan Khel,Mosque,"5QC3+734 Jamea Masjid Ken'nan Khel, Razar, Charsadda, Charsadda, Khyber Pakhtunkhwa, Pakistan",Razar,5QC3+734,Charsadda,,"Charsadda, Khyber Pakhtunkhwa",PK,https://www.google.com/maps/place/Jamea+Masjid+Ken%27nan+Khel/data=!4m7!3m6!1s0x38d9393f3fa4ae29:0xdea31d4ab3ca7062!8m2!3d34.1706296!4d71.7527108!16s%2Fg%2F11vb12l37q!19sChIJKa6kPz852TgRYnDKs0odo94?authuser=0&hl=en&rclk=1,"34.1706296,71.7527108"
Nousad Bhai Mashallah Nan House,Store,"Khasra No 22, Nousad Bhai Mashallah Nan House, Gali Number 6, near Aayash Masjid, Sangam Vihar, Wazirabad, New Delhi, Delhi, 110084","Sangam Vihar, Wazirabad","Khasra No 22, Gali Number 6, near Aayash Masjid","New Delhi, Delhi",110084,Delhi,IN,https://www.google.com/maps/place/Nousad+Bhai+Mashallah+Nan+House/data=!4m7!3m6!1s0x390cff5dcb0492df:0x72719060b4f2d34c!8m2!3d28.7282986!4d77.2180336!16s%2Fg%2F11sd5clg8k!19sChIJ35IEy13_DDkRTNPytGCQcXI?authuser=0&hl=en&rclk=1,"28.7282986,77.2180336"
