name,main_category,address,address_ward,address_street,address_city,address_postal_code,address_state,address_country_code,link,coordinates
Madina Masjid,Mosque,"Madina Masjid, Government Junior College, Bhainsa, Telangana 504103",,Government Junior College,Bhainsa,504103,Telangana,IN,https://www.google.com/maps/place/Madina+Masjid/data=!4m7!3m6!1s0x3bcdfe5aef2fd1e3:0x48c8397dc97ab0f6!8m2!3d19.1096769!4d77.9643594!16s%2Fg%2F11b7w99d4p!19sChIJ49Ev71r-zTsR9rB6yX05yEg?authuser=0&hl=en&rclk=1,"19.1096769,77.96435939999999"
Masjid Panjesha,Mosque,"Masjid Panjesha, masjid, panjesha marg, Bhainsa, Telangana 504103",,"masjid, panjesha marg",Bhainsa,,Telangana,IN,https://www.google.com/maps/place/Masjid+Panjesha/data=!4m7!3m6!1s0x3bcdfe45594b318b:0xa9a4527a0d3bdd4e!8m2!3d19.1114013!4d77.9614446!16s%2Fg%2F11xfvxc4m!19sChIJizFLWUX-zTsRTt07DXpSpKk?authuser=0&hl=en&rclk=1,"19.1114013,77.9614446"
Eid-Gah,Mosque,"4XC4+J65 Eid-Gah, Palsi Road, Telangana 504103",,"4XC4+J65, Palsi Road",,504103,Telangana,IN,https://www.google.com/maps/place/Eid-Gah/data=!4m7!3m6!1s0x3bcdfe4b41f2b35b:0x49272df21ed88662!8m2!3d19.1215231!4d77.9556209!16s%2Fg%2F11b7lhbkzd!19sChIJW7PyQUv-zTsRYobYHvItJ0k?authuser=0&hl=en&rclk=1,"19.121523099999997,77.9556209"
Masjid-e-Umar Farooq,Mosque,"4X79+M2F Masjid-e-Umar Farooq, Umar Farooq St, Abadi, Bhainsa, Telangana 504103",Abadi,"4X79+M2F, Umar Farooq St",Bhainsa,504103,Telangana,IN,https://www.google.com/maps/place/Masjid-e-Umar+Farooq/data=!4m7!3m6!1s0x3bcdfe50d026f4b3:0x9d2df10fc48b7b47!8m2!3d19.1141962!4d77.9675498!16s%2Fg%2F11c1s1_b43!19sChIJs_Qm0FD-zTsRR3uLxA_xLZ0?authuser=0&hl=en&rclk=1,"19.1141962,77.9675498"
MASJID-E-MOMINAN,Mosque,"4X76+4V9 MASJID-E-MOMINAN, mominan Galli, Siddhartha Nagar, Bhainsa, Telangana 504103",Siddhartha Nagar,"4X76+4V9, mominan Galli",Bhainsa,504103,Telangana,IN,https://www.google.com/maps/place/MASJID-E-MOMINAN/data=!4m7!3m6!1s0x3bcdfe4fe1772615:0x1ea8449dd9031e42!8m2!3d19.1127883!4d77.9622459!16s%2Fg%2F11bymwdg7g!19sChIJFSZ34U_-zTsRQh4D2Z1EqB4?authuser=0&hl=en&rclk=1,"19.1127883,77.9622459"
"Masjid E Ibrahim, Barktpura",Mosque,"V5G2+6GW Masjid E Ibrahim, Barktpura, Nandipet, Telangana 503212",,V5G2+6GW,Nandipet,503212,Telangana,IN,"https://www.google.com/maps/place/Masjid+E+Ibrahim,+Barktpura/data=!4m7!3m6!1s0x3bcde8e0d7a7ca29:0x90e848f7ab731261!8m2!3d18.8756018!4d78.1513263!16s%2Fg%2F11c3117pqk!19sChIJKcqn1-DozTsRYRJzq_dI6JA?authuser=0&hl=en&rclk=1","18.8756018,78.1513263"
Masjid E IbadurRahman Ahle Hadees,Mosque,"XWG6+27P Masjid E IbadurRahman Ahle Hadees, Mudhole, Telangana 504102",,XWG6+27P,Mudhole,504102,Telangana,IN,https://www.google.com/maps/place/Masjid+E+IbadurRahman+Ahle+Hadees/data=!4m7!3m6!1s0x3bce080be6d32c33:0x252823fccc2f49dc!8m2!3d18.975097!4d77.9106939!16s%2Fg%2F11g7zv4hq8!19sChIJMyzT5gsIzjsR3EkvzPwjKCU?authuser=0&hl=en&rclk=1,"18.975096999999998,77.9106939"
Osman Masjid,Mosque,"4X47+RJX Osman Masjid, Asad Baba Nagar, Bhainsa, Telangana 504103",Asad Baba Nagar,4X47+RJX,Bhainsa,504103,Telangana,IN,https://www.google.com/maps/place/Osman+Masjid/data=!4m7!3m6!1s0x3bcdfe5b6bc0025d:0x854fb770d38fd2a3!8m2!3d19.107103!4d77.9641068!16s%2Fg%2F11cn6jvztk!19sChIJXQLAa1v-zTsRo9KP03C3T4U?authuser=0&hl=en&rclk=1,"19.107103,77.9641068"
Zulfaquar Masjid,Mosque,"Zulfaquar Masjid, Batti Galli, Bhainsa, Telangana 504103",,Batti Galli,Bhainsa,504103,Telangana,IN,https://www.google.com/maps/place/Zulfaquar+Masjid/data=!4m7!3m6!1s0x3bcdfe458e005063:0x3327cc952a5d40c3!8m2!3d19.1106687!4d77.9585257!16s%2Fg%2F11b7lgcncq!19sChIJY1AAjkX-zTsRw0BdKpXMJzM?authuser=0&hl=en&rclk=1,"19.110668699999998,77.9585257"
jama masjid,Mosque,"4556+99V jama masjid, Narsapur, Telangana 504104",,4556+99V,Narsapur,504104,Telangana,IN,https://www.google.com/maps/place/jama+masjid/data=!4m7!3m6!1s0x3bcdf6debe130ce1:0x496ea4eb093e0f95!8m2!3d19.1084754!4d78.1609358!16s%2Fg%2F11dymkzz5r!19sChIJ4QwTvt72zTsRlQ8-Ceukbkk?authuser=0&hl=en&rclk=1,"19.1084754,78.16093579999999"
ISLAMIA MASJID,Mosque,"33P9+Q3G ISLAMIA MASJID, Unnamed Road, Pendapalle, Telangana 504109",,"33P9+Q3G, Unnamed Road",Pendapalle,504109,Telangana,IN,https://www.google.com/maps/place/ISLAMIA+MASJID/data=!4m7!3m6!1s0x3bcdf9a84cf030af:0x3505c992c42fe512!8m2!3d19.0869441!4d78.0677168!16s%2Fg%2F11h1lsvqdn!19sChIJrzDwTKj5zTsREuUvxJLJBTU?authuser=0&hl=en&rclk=1,"19.0869441,78.0677168"
Jama Masjid,Mosque,"XWG6+C48 Jama Masjid, Mudhole, Telangana 504102",,XWG6+C48,Mudhole,504102,Telangana,IN,https://www.google.com/maps/place/Jama+Masjid/data=!4m7!3m6!1s0x3bce080bcfe00875:0x521c3c0cceda907b!8m2!3d18.976033!4d77.910315!16s%2Fg%2F11cs6hpvpt!19sChIJdQjgzwsIzjsRe5Dazgw8HFI?authuser=0&hl=en&rclk=1,"18.976032999999997,77.910315"
Makkah Masjid,Mosque,"XWG6+PX2 Makkah Masjid, Mudhole, Telangana 504102",,XWG6+PX2,Mudhole,504102,Telangana,IN,https://www.google.com/maps/place/Makkah+Masjid/data=!4m7!3m6!1s0x3bce0809755c9b3f:0x48d5663eeadd5675!8m2!3d18.976772!4d77.9123917!16s%2Fg%2F11c1xm9fpd!19sChIJP5tcdQkIzjsRdVbd6j5m1Ug?authuser=0&hl=en&rclk=1,"18.976772,77.9123917"
Puspoor Jama Masjid,Mosque,"22XJ+P6Q Puspoor Jama Masjid, Puspur, Telangana 504102",,22XJ+P6Q,Puspur,504102,Telangana,IN,https://www.google.com/maps/place/Puspoor+Jama+Masjid/data=!4m7!3m6!1s0x3bcdfb8e2e750bc9:0x687fc9f12d518e7d!8m2!3d19.0493459!4d78.0306125!16s%2Fg%2F11hbnncv9l!19sChIJyQt1Lo77zTsRfY5RLfHJf2g?authuser=0&hl=en&rclk=1,"19.0493459,78.03061249999999"
EIDGAH MUDHOLE,Mosque,"XWJ9+GF6 EIDGAH MUDHOLE, Mudhole, Telangana 504102",,XWJ9+GF6,Mudhole,504102,Telangana,IN,https://www.google.com/maps/place/EIDGAH+MUDHOLE/data=!4m7!3m6!1s0x3bce07fd6c3d37c5:0xd851295bd8707bd0!8m2!3d18.9812863!4d77.9186262!16s%2Fg%2F11gck4xmd2!19sChIJxTc9bP0HzjsR0Htw2FspUdg?authuser=0&hl=en&rclk=1,"18.9812863,77.91862619999999"
Madina Masjid,Mosque,"XWPC+CGC Madina Masjid, Mudhole St, Mudhole, Telangana 504102",,"XWPC+CGC, Mudhole St",Mudhole,504102,Telangana,IN,https://www.google.com/maps/place/Madina+Masjid/data=!4m7!3m6!1s0x3bce07fc0d5ab6d9:0xef39beed9a49c2b0!8m2!3d18.9860691!4d77.9212626!16s%2Fg%2F11fyzflsc6!19sChIJ2bZaDfwHzjsRsMJJmu2-Oe8?authuser=0&hl=en&rclk=1,"18.986069099999998,77.92126259999999"
New Masjid,Mosque,"4536+837 New Masjid, Narsapur, Telangana 504104",,4536+837,Narsapur,504104,Telangana,IN,https://www.google.com/maps/place/New+Masjid/data=!4m7!3m6!1s0x3bcdf6d9badf7107:0x959db33fe812bc3a!8m2!3d19.1032998!4d78.1601806!16s%2Fg%2F11dyqr83fc!19sChIJB3Hfutn2zTsROrwS6D-znZU?authuser=0&hl=en&rclk=1,"19.1032998,78.16018059999999"
JAAMA MASJID,Mosque,"V5HQ+CR2 JAAMA MASJID, Khudavandapur, Telangana 503212",,V5HQ+CR2,Khudavandapur,503212,Telangana,IN,https://www.google.com/maps/place/JAAMA+MASJID/data=!4m7!3m6!1s0x3bcde9686667a3f5:0xee541aaa8c8de747!8m2!3d18.8785188!4d78.1895025!16s%2Fg%2F11c5350yrl!19sChIJ9aNnZmjpzTsRR-eNjKoaVO4?authuser=0&hl=en&rclk=1,"18.8785188,78.1895025"
Masjid-E-Imam Unnissa,Mosque,"4X88+73C Masjid-E-Imam Unnissa, Bhainsa, Telangana 504103",,4X88+73C,Bhainsa,504103,Telangana,IN,https://www.google.com/maps/place/Masjid-E-Imam+Unnissa/data=!4m7!3m6!1s0x3bcdff48f9d34921:0xbfa3a3b4df1b04b1!8m2!3d19.1156767!4d77.965154!16s%2Fg%2F11n60wjr3b!19sChIJIUnT-Uj_zTsRsQQb37Sjo78?authuser=0&hl=en&rclk=1,"19.115676699999998,77.965154"
Masjid e Raza,Mosque,"XWF6+J4R Masjid e Raza, Mudhole, Telangana 504102",,XWF6+J4R,Mudhole,504102,Telangana,IN,https://www.google.com/maps/place/Masjid+e+Raza/data=!4m7!3m6!1s0x3bce080bf0b3996b:0x6a28aa7b8634486e!8m2!3d18.9741249!4d77.9102554!16s%2Fg%2F11gbk4v73l!19sChIJa5mz8AsIzjsRbkg0hnuqKGo?authuser=0&hl=en&rclk=1,"18.9741249,77.9102554"
MOHAMMADIYA MASJID,Mosque,"XVR7+2R5 MOHAMMADIYA MASJID, Nandgam, Telangana 504102",,XVR7+2R5,Nandgam,504102,Telangana,IN,https://www.google.com/maps/place/MOHAMMADIYA+MASJID/data=!4m7!3m6!1s0x3bce07528ded7757:0x80b1e2eefa1c65c1!8m2!3d18.9900182!4d77.8646149!16s%2Fg%2F11tcm00p9l!19sChIJV3ftjVIHzjsRwWUc-u7isYA?authuser=0&hl=en&rclk=1,"18.990018199999998,77.86461489999999"
Masjid,Mosque,"V4J3+G35 Masjid, Talveda, Telangana 503212",,V4J3+G35,Talveda,503212,Telangana,IN,https://www.google.com/maps/place/Masjid/data=!4m7!3m6!1s0x3bcde61bd6f5a8df:0x2075fc2b5df30b25!8m2!3d18.8812633!4d78.1027307!16s%2Fg%2F11d_bkbh7z!19sChIJ36j11hvmzTsRJQvzXSv8dSA?authuser=0&hl=en&rclk=1,"18.8812633,78.1027307"
Masjid e Ansar,Mosque,"XWH8+35H Masjid e Ansar, Mudhole, Telangana 504102",,XWH8+35H,Mudhole,504102,Telangana,IN,https://www.google.com/maps/place/Masjid+e+Ansar/data=!4m7!3m6!1s0x3bce0808663e36b7:0x507a7de2ed269433!8m2!3d18.9776815!4d77.9154895!16s%2Fg%2F11fyzflcvx!19sChIJtzY-ZggIzjsRM5Qm7eJ9elA?authuser=0&hl=en&rclk=1,"18.9776815,77.91548949999999"
Masijd,Mosque,"37RJ+GWX Masijd, Sirgapur, Telangana 504306",,37RJ+GWX,Sirgapur,504306,Telangana,IN,https://www.google.com/maps/place/Masijd/data=!4m7!3m6!1s0x3bcdf33758e9a9e3:0xdf1a41fcd63d0884!8m2!3d19.0913546!4d78.2823573!16s%2Fg%2F11ssjwr2t4!19sChIJ46npWDfzzTsRhAg91vxBGt8?authuser=0&hl=en&rclk=1,"19.0913546,78.2823573"
MAKTAB ABU BAKKAR SIDDIQ AILAPUR masjid,Mosque,"R4XC+R93 MAKTAB ABU BAKKAR SIDDIQ AILAPUR masjid, Ailapur, Gunjali, Telangana 503212",,R4XC+R93,"Ailapur, Gunjali",,Telangana,IN,https://www.google.com/maps/place/MAKTAB+ABU+BAKKAR+SIDDIQ+AILAPUR+masjid/data=!4m7!3m6!1s0x3bcde9f36adbabc3:0x71fe00fb81b6ee5d!8m2!3d18.849512!4d78.12091!16s%2Fg%2F11tx1s7mnm!19sChIJw6vbavPpzTsRXe62gfsA_nE?authuser=0&hl=en&rclk=1,"18.849512,78.12091"
Masjid e Mubeen,Mosque,"XWF5+7JW Masjid e Mubeen, Mudhole, Telangana 504102",,XWF5+7JW,Mudhole,504102,Telangana,IN,https://www.google.com/maps/place/Masjid+e+Mubeen/data=!4m7!3m6!1s0x3bce080c712766a7:0x4da094a3ac35a2d9!8m2!3d18.9732415!4d77.9090696!16s%2Fg%2F11f0_gjyz0!19sChIJp2YncQwIzjsR2aI1rKOUoE0?authuser=0&hl=en&rclk=1,"18.9732415,77.9090696"
Wattoli Darga ,Mosque,"X3H6+4X6 Wattoli Darga , Wastapur, Telangana 504101",,X3H6+4X6,Wastapur,504101,Telangana,IN,https://www.google.com/maps/place/Wattoli+Darga+%F0%9F%95%8B/data=!4m7!3m6!1s0x3bcde5434ff9fddb:0x570612386c856213!8m2!3d18.977918!4d78.061883!16s%2Fg%2F11vb_7nnp1!19sChIJ2_35T0PlzTsRE2KFbDgSBlc?authuser=0&hl=en&rclk=1,"18.977918,78.061883"
Owaisi masjid,Mosque,"4X3C+PVW Owaisi masjid, Rd number 2, Bhainsa, Telangana 504103",,"4X3C+PVW, Rd number 2",Bhainsa,504103,Telangana,IN,https://www.google.com/maps/place/Owaisi+masjid/data=!4m7!3m6!1s0x3bcdffb38f817769:0x3746a83dd7b84291!8m2!3d19.1044739!4d77.9714137!16s%2Fg%2F11s5627lk5!19sChIJaXeBj7P_zTsRkUK41z2oRjc?authuser=0&hl=en&rclk=1,"19.1044739,77.9714137"
Jama Masjid Nikalpoor,Mosque,"W5Q8+3CH Jama Masjid Nikalpoor, Nizmabad, Nikalpur, Telangana 503212",,"W5Q8+3CH, Nizmabad",Nikalpur,503212,Telangana,IN,https://www.google.com/maps/place/Jama+Masjid+Nikalpoor/data=!4m7!3m6!1s0x3bcdeee53497f8e9:0x39d6ff72e8b22f94!8m2!3d18.9376999!4d78.1661121!16s%2Fg%2F11g6bm2xmm!19sChIJ6fiXNOXuzTsRlC-y6HL_1jk?authuser=0&hl=en&rclk=1,"18.9376999,78.16611209999999"
JAME MASJID msiid Nagepoor,Mosque,"RX2W+G8Q JAME MASJID msiid Nagepoor, Basara Rd, near zphs, Nagepur, Telangana 503245",,"RX2W+G8Q, Basara Rd, near zphs",Nagepur,,Telangana,IN,https://www.google.com/maps/place/JAME+MASJID+%E0%B0%AE%E0%B0%B8%E0%B1%80%E0%B0%A6%E0%B1%8D+Nagepoor/data=!4m7!3m6!1s0x3bcde1757e333251:0x3f5941690a1096c8!8m2!3d18.8013323!4d77.9958577!16s%2Fg%2F11h3kbhg6b!19sChIJUTIzfnXhzTsRyJYQCmlBWT8?authuser=0&hl=en&rclk=1,"18.8013323,77.9958577"
Dargah Ahmed Pasha Quadri,Mosque,"XWF5+8JF Dargah Ahmed Pasha Quadri, Mudhole, Telangana 504102",,XWF5+8JF,Mudhole,504102,Telangana,IN,https://www.google.com/maps/place/Dargah+Ahmed+Pasha+Quadri/data=!4m7!3m6!1s0x3bce080c77299c19:0x9f92a587190f7f8e!8m2!3d18.973309!4d77.9090555!16s%2Fg%2F11fy_2cstl!19sChIJGZwpdwwIzjsRjn8PGYelkp8?authuser=0&hl=en&rclk=1,"18.973309,77.9090555"
Masjid kothwal,Mosque,"VXP3+V4Q Masjid kothwal, Unnamed Road, Basar, Telangana 504101",,"VXP3+V4Q, Unnamed Road",Basar,504101,Telangana,IN,https://www.google.com/maps/place/Masjid+kothwal/data=!4m7!3m6!1s0x3bcde16442d9a5c5:0x6573bdfe9c430a9c!8m2!3d18.8872129!4d77.9528679!16s%2Fg%2F11kky5c5x4!19sChIJxaXZQmThzTsRnApDnP69c2U?authuser=0&hl=en&rclk=1,"18.887212899999998,77.9528679"
Masjid-e-Ibrahim,Mosque,"4X3F+MGW Masjid-e-Ibrahim, Owasi Nagar, Bhainsa, Telangana 504103",Owasi Nagar,4X3F+MGW,Bhainsa,504103,Telangana,IN,https://www.google.com/maps/place/Masjid-e-Ibrahim/data=!4m7!3m6!1s0x3bcdff2e3ed8c869:0x9a1ebb33c7592548!8m2!3d19.1042258!4d77.9738428!16s%2Fg%2F11jpgpwxgp!19sChIJacjYPi7_zTsRSCVZxzO7Hpo?authuser=0&hl=en&rclk=1,"19.1042258,77.9738428"
Eidgah.Khudavandpoor,Mosque,"V5GW+H8G Eidgah.Khudavandpoor, Khudavandapur, Telangana 503212",,V5GW+H8G,Khudavandapur,,Telangana,IN,https://www.google.com/maps/place/Eidgah.Khudavandpoor/data=!4m7!3m6!1s0x3bcde9ac4d4f8c19:0xed0c61cfdbaf9aa5!8m2!3d18.8764358!4d78.1958335!16s%2Fg%2F11f653w8gn!19sChIJGYxPTazpzTsRpZqv289hDO0?authuser=0&hl=en&rclk=1,"18.8764358,78.19583349999999"
Jama masjid,Mosque,"X3CH+HHH Jama masjid, Unnamed Road, Dharmara, Telangana 504104",,"X3CH+HHH, Unnamed Road",Dharmara,504104,Telangana,IN,https://www.google.com/maps/place/Jama+masjid/data=!4m7!3m6!1s0x3bcde506ad45489d:0xd1d7c1c541293b7c!8m2!3d18.9714412!4d78.0789727!16s%2Fg%2F11r6xq5r2z!19sChIJnUhFrQblzTsRfDspQcXB19E?authuser=0&hl=en&rclk=1,"18.971441199999997,78.0789727"
Darul Uloom Faiz ul Quran,Mosque,"XWRC+9P3 Darul Uloom Faiz ul Quran, Adilabad, Telangana 504102",,XWRC+9P3,Adilabad,,Telangana,IN,https://www.google.com/maps/place/Darul+Uloom+Faiz+ul+Quran/data=!4m7!3m6!1s0x3bce0764d16d9c37:0x9f8a0bf244810834!8m2!3d18.9908992!4d77.9218055!16s%2Fg%2F11g1fv10bs!19sChIJN5xt0WQHzjsRNAiBRPILip8?authuser=0&hl=en&rclk=1,"18.990899199999998,77.92180549999999"
Dargah masjid,Mosque,"4X86+MR9 Dargah masjid, Old Bazar Rd, Bhainsa, Telangana 504103",,"4X86+MR9, Old Bazar Rd",Bhainsa,504103,Telangana,IN,https://www.google.com/maps/place/Dargah+masjid/data=!4m7!3m6!1s0x3bcdff763fbf880f:0x512b48d84c4231e0!8m2!3d19.1167346!4d77.962365!16s%2Fg%2F11sz2st0k3!19sChIJD4i_P3b_zTsR4DFCTNhIK1E?authuser=0&hl=en&rclk=1,"19.1167346,77.96236499999999"
Masjid e Ehtesabi,Mosque,"XWF6+X43 Masjid e Ehtesabi, Mudhole, Telangana 504102",,XWF6+X43,Mudhole,504102,Telangana,IN,https://www.google.com/maps/place/Masjid+e+Ehtesabi/data=!4m7!3m6!1s0x3bce080bef54c367:0x4a93e5c981198351!8m2!3d18.9748753!4d77.9102991!16s%2Fg%2F11fyzfn1m_!19sChIJZ8NU7wsIzjsRUYMZgcnlk0o?authuser=0&hl=en&rclk=1,"18.9748753,77.9102991"
Thimmapur masjid,Mosque,"435F+Q9G Thimmapur masjid, Unnamed Road, Thimmapur, Telangana 504109",,"435F+Q9G, Unnamed Road",Thimmapur,504109,Telangana,IN,https://www.google.com/maps/place/Thimmapur+masjid/data=!4m7!3m6!1s0x3bcdf93c28513963:0x7dcfb1f3b4f8e7af!8m2!3d19.1094489!4d78.0734603!16s%2Fg%2F11qzbkts3t!19sChIJYzlRKDz5zTsRr-f4tPOxz30?authuser=0&hl=en&rclk=1,"19.1094489,78.0734603"
"pedd gutttt deevuddu, dhrmaarN",Mosque,"X3PH+PC pedd gutttt deevuddu, dhrmaarN, VIP ADDA, New Raipur (K), Telangana 504104",,X3PH+PC VIP ADDA,New Raipur (K),504104,Telangana,IN,"https://www.google.com/maps/place/%E0%B0%AA%E0%B1%86%E0%B0%A6%E0%B1%8D%E0%B0%A6+%E0%B0%97%E0%B1%81%E0%B0%9F%E0%B1%8D%E0%B0%9F+%E0%B0%A6%E0%B1%87%E0%B0%B5%E0%B1%81%E0%B0%A1%E0%B1%81,+%E0%B0%A7%E0%B0%B0%E0%B1%8D%E0%B0%AE%E0%B0%BE%E0%B0%B0%E0%B0%82/data=!4m7!3m6!1s0x3bcde5abeb56f289:0xb9041ab83c7f2d55!8m2!3d18.9880077!4d78.07903!16s%2Fg%2F11vj7tb2v9!19sChIJifJW66vlzTsRVS1_PLgaBLk?authuser=0&hl=en&rclk=1","18.9880077,78.07903"
Quadanshah ali,Mosque,"4X5F+FPC Quadanshah ali, Bhainsa, Telangana 504103",,4X5F+FPC,Bhainsa,504103,Telangana,IN,https://www.google.com/maps/place/Quadanshah+ali/data=!4m7!3m6!1s0x3bcdff7a411bd27f:0xf18f2bb4d86febfc!8m2!3d19.1086944!4d77.9742549!16s%2Fg%2F11l6yhsc3v!19sChIJf9IbQXr_zTsR_Otv2LQrj_E?authuser=0&hl=en&rclk=1,"19.108694399999997,77.97425489999999"
Masjid-e-Taweed,Mosque,"W49M+X9V Masjid-e-Taweed, Ummeda, Telangana 503212",,W49M+X9V,Ummeda,503212,Telangana,IN,https://www.google.com/maps/place/Masjid-e-Taweed/data=!4m7!3m6!1s0x3bcdef84711adc7f:0x8386494f394d9ae7!8m2!3d18.9199843!4d78.1334202!16s%2Fg%2F11f9zdrpmj!19sChIJf9wacYTvzTsR55pNOU9JhoM?authuser=0&hl=en&rclk=1,"18.9199843,78.1334202"
Jama masjid,Mosque,"Jama masjid, Tondakur, Shahpur, Telangana 503212",,,"Tondakur, Shahpur",503212,Telangana,IN,https://www.google.com/maps/place/Jama+masjid/data=!4m7!3m6!1s0x3bcde9b6689d0d6d:0xd82ac2d148723667!8m2!3d18.9007382!4d78.1827624!16s%2Fg%2F11ty4q1_7p!19sChIJbQ2daLbpzTsRZzZySNHCKtg?authuser=0&hl=en&rclk=1,"18.9007382,78.1827624"
Nagar masjid,Mosque,"2462+FF8 Nagar masjid, Nagar, Telangana 504104",,2462+FF8,Nagar,504104,Telangana,IN,https://www.google.com/maps/place/Nagar+masjid/data=!4m7!3m6!1s0x3bcdfb87f4e1ca07:0x97a41421f66a5818!8m2!3d19.010881!4d78.102116!16s%2Fg%2F11jt0w_z_l!19sChIJB8rh9If7zTsRGFhq9iEUpJc?authuser=0&hl=en&rclk=1,"19.010880999999998,78.102116"
Dastagir Saheb Burj,Mosque,"2X6X+X44 Dastagir Saheb Burj, Edbid, Telangana 504102",,2X6X+X44,Edbid,504102,Telangana,IN,https://www.google.com/maps/place/Dastagir+Saheb+Burj/data=!4m7!3m6!1s0x3bcdfdd991c2255f:0xc03dc50b054bc67f!8m2!3d19.0131884!4d77.9979526!16s%2Fg%2F11pz0j6z29!19sChIJXyXCkdn9zTsRf8ZLBQvFPcA?authuser=0&hl=en&rclk=1,"19.0131884,77.99795259999999"
Masjid-e-ubaidullah,Mosque,"6763+MPH Masjid-e-ubaidullah, Sarangpur, Telangana 504110",,6763+MPH,Sarangpur,,Telangana,IN,https://www.google.com/maps/place/Masjid-e-ubaidullah/data=!4m7!3m6!1s0x3bd20b252120dd91:0x7c73203f3c9c251a!8m2!3d19.2116901!4d78.2543469!16s%2Fg%2F11t9pbrlmq!19sChIJkd0gISUL0jsRGiWcPD8gc3w?authuser=0&hl=en&rclk=1,"19.2116901,78.2543469"
Madarse Mohammadia Talim Ul Quran Wo Deniyat,Mosque,"XWG7+PGX Madarse Mohammadia Talim Ul Quran Wo Deniyat, Mudhole, Telangana 504102",,XWG7+PGX,Mudhole,504102,Telangana,IN,https://www.google.com/maps/place/Madarse+Mohammadia+Talim+Ul+Quran+Wo+Deniyat/data=!4m7!3m6!1s0x3bce080855555555:0xa685082d5b291ae3!8m2!3d18.9768748!4d77.9138661!16s%2Fg%2F11fy_395k9!19sChIJVVVVVQgIzjsR4xopWy0IhaY?authuser=0&hl=en&rclk=1,"18.976874799999997,77.91386609999999"
Masjid Mahboobia,Mosque,"4X47+736 Masjid Mahboobia, Bhainsa, Telangana 504103",,4X47+736,Bhainsa,504103,Telangana,IN,https://www.google.com/maps/place/Masjid+Mahboobia/data=!4m7!3m6!1s0x3bcdffa54730d159:0x3070551ca0bf95d2!8m2!3d19.1056685!4d77.9626302!16s%2Fg%2F11n001s619!19sChIJWdEwR6X_zTsR0pW_oBxVcDA?authuser=0&hl=en&rclk=1,"19.1056685,77.96263019999999"
Dubba Masjid Nandipet,Mosque,"V4GV+QGF Dubba Masjid Nandipet, Noothpalli, Telangana 503212",,V4GV+QGF,Noothpalli,503212,Telangana,IN,https://www.google.com/maps/place/Dubba+Masjid+Nandipet/data=!4m7!3m6!1s0x3bcde98d96886be9:0x3478282a5d76648b!8m2!3d18.8769333!4d78.1437879!16s%2Fg%2F11h57m9nzq!19sChIJ6WuIlo3pzTsRi2R2XSooeDQ?authuser=0&hl=en&rclk=1,"18.876933299999997,78.14378789999999"
Eid Gah Pendpally,Mosque,"33V5+4J5 Eid Gah Pendpally, Pendapalle, Telangana 504109",,33V5+4J5,Pendapalle,,Telangana,IN,https://www.google.com/maps/place/Eid+Gah+Pendpally/data=!4m7!3m6!1s0x3bcdf96438d2ab65:0x81c7b0a7ae7719bd!8m2!3d19.0927654!4d78.0591246!16s%2Fg%2F11h4s0gw3_!19sChIJZavSOGT5zTsRvRl3rqewx4E?authuser=0&hl=en&rclk=1,"19.092765399999998,78.05912459999999"
Jamiya Masjid,Mosque,"Jamiya Masjid, Panchagudi, Dharmara, Telangana 504104",,,"Panchagudi, Dharmara",504104,Telangana,IN,https://www.google.com/maps/place/Jamiya+Masjid/data=!4m7!3m6!1s0x3bcde5f57d5ce841:0x54a16d15ab8d2131!8m2!3d18.9698223!4d78.0838299!16s%2Fg%2F11g23bk4d8!19sChIJQehcffXlzTsRMSGNqxVtoVQ?authuser=0&hl=en&rclk=1,"18.9698223,78.0838299"
"EIDGAH, NARSAPUR (G)",Mosque,"4575+M2P EIDGAH, NARSAPUR (G), Mallanna temple road, Narsapur G, Dist:Nirmal, Telangana 504104",,"4575+M2P, Mallanna temple road, Narsapur G, Dist:Nirmal",Shakapur,504104,Telangana,IN,"https://www.google.com/maps/place/EIDGAH,+NARSAPUR+%28G%29/data=!4m7!3m6!1s0x3bcdf72f7b2bd6cf:0xd8b0b0a1390199e5!8m2!3d19.1142006!4d78.1575704!16s%2Fg%2F11ffw748c1!19sChIJz9Yrey_3zTsR5ZkBOaGwsNg?authuser=0&hl=en&rclk=1","19.1142006,78.1575704"
Dargah masjid,Mosque,"4X85+RH4 Dargah masjid, Kisan Gally, Bhainsa, Telangana 504103",,"4X85+RH4, Kisan Gally",Bhainsa,504103,Telangana,IN,https://www.google.com/maps/place/Dargah+masjid/data=!4m7!3m6!1s0x3bcdff8149341c71:0x4ab8fbf5c4f17c84!8m2!3d19.1170017!4d77.9589653!16s%2Fg%2F11n8wky035!19sChIJcRw0SYH_zTsRhHzxxPX7uEo?authuser=0&hl=en&rclk=1,"19.1170017,77.9589653"
Jamamasjid,Mosque,"2X6W+RJ9 Jamamasjid, Edbid, Telangana 504102",,2X6W+RJ9,Edbid,504102,Telangana,IN,https://www.google.com/maps/place/Jamamasjid/data=!4m7!3m6!1s0x3bcdfd9419127871:0xbb4ac3774c96936d!8m2!3d19.0120371!4d77.9966174!16s%2Fg%2F11rchyqlgj!19sChIJcXgSGZT9zTsRbZOWTHfDSrs?authuser=0&hl=en&rclk=1,"19.0120371,77.99661739999999"
Ajaz uddin mpp mudhole,Mosque,"XWG6+X2V Ajaz uddin mpp mudhole, Mudhole, Telangana 504102",,XWG6+X2V,Mudhole,504102,Telangana,IN,https://www.google.com/maps/place/Ajaz+uddin+mpp+mudhole/data=!4m7!3m6!1s0x3bce092b3bed0477:0x9883546bb0eb0297!8m2!3d18.9774875!4d77.9100469!16s%2Fg%2F11l2byjt14!19sChIJdwTtOysJzjsRlwLrsGtUg5g?authuser=0&hl=en&rclk=1,"18.9774875,77.9100469"
Masjid e noor banu,Mosque,"4298+7M3 Masjid e noor banu, Ekgaon, Telangana 504103",,4298+7M3,Ekgaon,504103,Telangana,IN,https://www.google.com/maps/place/Masjid+e+noor+banu/data=!4m7!3m6!1s0x3bcdff742aedeb0d:0x1cc2047094df4e93!8m2!3d19.1181434!4d78.0166847!16s%2Fg%2F11h6443h1y!19sChIJDevtKnT_zTsRk07flHAEwhw?authuser=0&hl=en&rclk=1,"19.118143399999997,78.0166847"
Chowk masjid,Mosque,"XWF6+P52 Chowk masjid, Mudhole, Telangana 504102",,XWF6+P52,Mudhole,504102,Telangana,IN,https://www.google.com/maps/place/Chowk+masjid/data=!4m7!3m6!1s0x3bce096f7564b777:0x6713987bed345f0f!8m2!3d18.9741684!4d77.9104478!16s%2Fg%2F11vcm56l_7!19sChIJd7dkdW8JzjsRD1807XuYE2c?authuser=0&hl=en&rclk=1,"18.9741684,77.9104478"
Dulha masjid,Mosque,"4X76+QPR Dulha masjid, Bhainsa, Telangana 504103",,4X76+QPR,Bhainsa,504103,Telangana,IN,https://www.google.com/maps/place/Dulha+masjid/data=!4m7!3m6!1s0x3bcdff11036a7bc1:0x2af6a0e9a007d28e!8m2!3d19.1144859!4d77.9617514!16s%2Fg%2F11pzpf_hcw!19sChIJwXtqAxH_zTsRjtIHoOmg9io?authuser=0&hl=en&rclk=1,"19.1144859,77.9617514"
smshaanvaattik,Mosque,"539X+CCJ smshaanvaattik, adilaabaadu, Telangana 504109",,539X+CCJ,adilaabaadu,504109,Telangana,IN,https://www.google.com/maps/place/%E0%B0%B8%E0%B1%8D%E0%B0%AE%E0%B0%B6%E0%B0%BE%E0%B0%A8%E0%B0%B5%E0%B0%BE%E0%B0%9F%E0%B0%BF%E0%B0%95/data=!4m7!3m6!1s0x3bcdf97b97a183ab:0xe00cb011d279594d!8m2!3d19.1682263!4d78.0990057!16s%2Fg%2F11v5bbbfvm!19sChIJq4Ohl3v5zTsRTVl50hGwDOA?authuser=0&hl=en&rclk=1,"19.1682263,78.09900569999999"
Jama Masjid,Mosque,"24MG+M6H Jama Masjid, Rajura, Telangana 504104",,24MG+M6H,Rajura,504104,Telangana,IN,https://www.google.com/maps/place/Jama+Masjid/data=!4m7!3m6!1s0x3bcdf16c0271a325:0x36c8259feb23b1f8!8m2!3d19.0341967!4d78.125624!16s%2Fg%2F11sh79cpjj!19sChIJJaNxAmzxzTsR-LEj658lyDY?authuser=0&hl=en&rclk=1,"19.0341967,78.125624"
Jama masjid Mohammadia godapur,Mosque,"6V2P+QWW Jama masjid Mohammadia godapur, Godapur, Telangana 504103",,6V2P+QWW,Godapur,504103,Telangana,IN,https://www.google.com/maps/place/Jama+masjid+Mohammadia+godapur/data=!4m7!3m6!1s0x3bd1ff67c74f1d71:0x6fbccdef3e8d57!8m2!3d19.2027752!4d77.8869778!16s%2Fg%2F11rn96vg7f!19sChIJcR1Px2f_0TsRV40-7828bwA?authuser=0&hl=en&rclk=1,"19.202775199999998,77.8869778"
Momino mosque,Mosque,"4X38+64M Momino mosque, New Abadi, Bhainsa, Telangana 504103",New Abadi,4X38+64M,Bhainsa,504103,Telangana,IN,https://www.google.com/maps/place/Momino+mosque/data=!4m7!3m6!1s0x3bcdfffea979f1ef:0x5d2c7b949536d054!8m2!3d19.1030811!4d77.9652985!16s%2Fg%2F11kqn0r70h!19sChIJ7_F5qf7_zTsRVNA2lZR7LF0?authuser=0&hl=en&rclk=1,"19.1030811,77.9652985"
masjid-e-Ameena. Taroda,Mosque,"2W6P+HMC masjid-e-Ameena. Taroda, Taroda, Telangana 504102",,2W6P+HMC,Taroda,504102,Telangana,IN,https://www.google.com/maps/place/masjid-e-Ameena.+Taroda/data=!4m7!3m6!1s0x3bcdfd8ced879fc7:0xa8c8d0a46a879700!8m2!3d19.0114475!4d77.9366469!16s%2Fg%2F11nx3xpp3n!19sChIJx5-H7Yz9zTsRAJeHaqTQyKg?authuser=0&hl=en&rclk=1,"19.0114475,77.9366469"
Qureshi's dayra,Mosque,"XW74+RV Qureshi's dayra, Mudhole, Telangana 504102",,XW74+RV,Mudhole,,Telangana,IN,https://www.google.com/maps/place/Qureshi%27s+dayra/data=!4m7!3m6!1s0x3bce09a66983ce9b:0x9269f425b8a9c771!8m2!3d18.9645492!4d77.9071758!16s%2Fg%2F11kphpbb44!19sChIJm86DaaYJzjsRccepuCX0aZI?authuser=0&hl=en&rclk=1,"18.9645492,77.90717579999999"
Jama masjid,Mosque,"XR2M+XH9 Jama masjid, JewlaBuzurg, Jawala, Telangana 504102",,XR2M+XH9,"JewlaBuzurg, Jawala",504102,Telangana,IN,https://www.google.com/maps/place/Jama+masjid/data=!4m7!3m6!1s0x3bce0fa40d8bb217:0xcbc4166bd40c1b17!8m2!3d18.9523864!4d77.834005!16s%2Fg%2F11s58b6fbg!19sChIJF7KLDaQPzjsRFxsM1GsWxMs?authuser=0&hl=en&rclk=1,"18.952386399999998,77.83400499999999"
Mosque,Mosque,"V23P+64R Mosque, Binola, Abbapur B, Telangana 503246",,V23P+64R,"Binola, Abbapur B",503246,Telangana,IN,https://www.google.com/maps/place/Mosque/data=!4m7!3m6!1s0x3bcde6d95e2f713f:0x4911a7c1ec28e174!8m2!3d18.8531021!4d78.0352664!16s%2Fg%2F11g9nhhhng!19sChIJP3EvXtnmzTsRdOEo7MGnEUk?authuser=0&hl=en&rclk=1,"18.853102099999997,78.0352664"
Masjid e rahmat wayi lingi sanwli,Mosque,"5VHV+7M Masjid e rahmat wayi lingi sanwli, Sanwali, Telangana 504103",,5VHV+7M,Sanwali,,Telangana,IN,https://www.google.com/maps/place/Masjid+e+rahmat+wayi+lingi+sanwli/data=!4m7!3m6!1s0x3bd1ff51b4c00ebd:0x99ad3e5f1ac806ec!8m2!3d19.1781415!4d77.8941574!16s%2Fg%2F11rp5ck9mf!19sChIJvQ7AtFH_0TsR7AbIGl8-rZk?authuser=0&hl=en&rclk=1,"19.1781415,77.8941574"
Sarkari masjid,Mosque,"4X76+7FF Sarkari masjid, Bhainsa, Telangana 504103",,4X76+7FF,Bhainsa,504103,Telangana,IN,https://www.google.com/maps/place/Sarkari+masjid/data=!4m7!3m6!1s0x3bcdff1e48424da9:0xe5975291b8aab459!8m2!3d19.1131196!4d77.9611631!16s%2Fg%2F11sq9fy4l6!19sChIJqU1CSB7_zTsRWbSquJFSl-U?authuser=0&hl=en&rclk=1,"19.113119599999997,77.9611631"
Masjid e mohammadiya,Mosque,"4X78+7FX Masjid e mohammadiya, Bhainsa, Telangana 504103",,4X78+7FX,Bhainsa,504103,Telangana,IN,https://www.google.com/maps/place/Masjid+e+mohammadiya/data=!4m7!3m6!1s0x3bcdffafe5575e1f:0xadcb9e0d27ec98a!8m2!3d19.1131596!4d77.9653526!16s%2Fg%2F11qbh1lndc!19sChIJH15X5a__zTsRisl-0uC53Ao?authuser=0&hl=en&rclk=1,"19.1131596,77.9653526"
Haji Sahab Masjid,Mosque,"4X76+WR5 Haji Sahab Masjid, Bhainsa, Telangana 504103",,4X76+WR5,Bhainsa,504103,Telangana,IN,https://www.google.com/maps/place/Haji+Sahab+Masjid/data=!4m7!3m6!1s0x3bcdffd89e630f21:0x6958ac2f4082e62d!8m2!3d19.114766!4d77.9621118!16s%2Fg%2F11r0wdt94j!19sChIJIQ9jntj_zTsRLeaCQC-sWGk?authuser=0&hl=en&rclk=1,"19.114766,77.9621118"
Jama Masjid Limba,Mosque,"523V+7F2 Jama Masjid Limba, Limba Khurd, Telangana 504109",,523V+7F2,Limba Khurd,504109,Telangana,IN,https://www.google.com/maps/place/Jama+Masjid+Limba/data=!4m7!3m6!1s0x3bcdf91c30be5c01:0x41b0942c84df9744!8m2!3d19.1531407!4d78.0436445!16s%2Fg%2F11v9z80ywd!19sChIJAVy-MBz5zTsRRJffhCyUsEE?authuser=0&hl=en&rclk=1,"19.153140699999998,78.0436445"
Masjid e Fatima,Mosque,"4X5G+9P4 Masjid e Fatima, Bhainsa, Telangana 504103",,4X5G+9P4,Bhainsa,504103,Telangana,IN,https://www.google.com/maps/place/Masjid+e+Fatima/data=!4m7!3m6!1s0x3bcdffb3b5a3debf:0x2063de0cbf29b1de!8m2!3d19.1083892!4d77.9768327!16s%2Fg%2F11l29xysl3!19sChIJv96jtbP_zTsR3rEpvwzeYyA?authuser=0&hl=en&rclk=1,"19.108389199999998,77.9768327"
Masjid,Mosque,"VW8Q+JJP Masjid, Basar, Telangana 504101",,VW8Q+JJP,Basar,,Telangana,IN,https://www.google.com/maps/place/Masjid/data=!4m7!3m6!1s0x3bcde10cc7f5aca5:0x9964a345088a20b6!8m2!3d18.8665932!4d77.9390706!16s%2Fg%2F11rvgjzrxx!19sChIJpaz1xwzhzTsRtiCKCEWjZJk?authuser=0&hl=en&rclk=1,"18.8665932,77.9390706"
