name,main_category,address,address_ward,address_street,address_city,address_postal_code,address_state,address_country_code,link,coordinates
Masjid Al-Muhaymin,Mosque,"Masjid Al-Muhaymin, Padavu 1st Cross Rd, Eliyar Padavu, Karnataka 574199",,Padavu 1st Cross Rd,Eliyar Padavu,574199,Karnataka,IN,https://www.google.com/maps/place/Masjid+Al-Muhaymin/data=!4m7!3m6!1s0x3ba359a6a4375be5:0xe1f554c3e603e31e!8m2!3d12.8374042!4d74.9111806!16s%2Fg%2F11jjm5k9m3!19sChIJ5Vs3pKZZozsRHuMD5sNU9eE?authuser=0&hl=en&rclk=1,"12.8374042,74.9111806"
Miskhal Masjid,Mosque,"Miskhal Masjid, Mishkal Mosque, Bavootty haji Rd, Kuttichira, Kozhikode, Kerala 673001",Kuttichira,"Mishkal Mosque, Bavootty haji Rd",Kozhikode,673001,Kerala,IN,https://www.google.com/maps/place/Miskhal+Masjid/data=!4m7!3m6!1s0x3ba659163f0e1fbb:0xfec5fdfa19462a9a!8m2!3d11.24555!4d75.776166!16s%2Fm%2F09gf7mp!19sChIJux8OPxZZpjsRmipGGfr9xf4?authuser=0&hl=en&rclk=1,"11.24555,75.776166"
Salafi Juma Masjid,Mosque,"Salafi Juma Masjid, 3rd Cross Road, Giringar Housing Colony, Giri Nagar, Kadavanthra, Ernakulam, Kerala 682020","Giringar Housing Colony, Giri Nagar, Kadavanthra",3rd Cross Road,Ernakulam,682020,Kerala,IN,https://www.google.com/maps/place/Salafi+Juma+Masjid/data=!4m7!3m6!1s0x3b0872c9293073f3:0x50a9a814c6547eba!8m2!3d9.9660652!4d76.299605!16s%2Fg%2F11cly7pmy1!19sChIJ83MwKclyCDsRun5UxhSoqVA?authuser=0&hl=en&rclk=1,"9.9660652,76.299605"
Masjid-e-Moiniya,Mosque,"Masjid-e-Moiniya, 851/6, 4th Cross Rd, Gokul Extension, Subedarpalya, Mathikere, Bengaluru, Karnataka 560022","Gokul Extension, Subedarpalya, Mathikere","851/6, 4th Cross Rd",Bengaluru,560022,Karnataka,IN,https://www.google.com/maps/place/Masjid-e-Moiniya/data=!4m7!3m6!1s0x3bae3d7d55cde43d:0xd5a22bc646fd5ed2!8m2!3d13.0218873!4d77.5617113!16s%2Fg%2F11clyt253z!19sChIJPeTNVX09rjsR0l79RsYrotU?authuser=0&hl=en&rclk=1,"13.0218873,77.5617113"
Masjid E Taqwaa,Mosque,"Masjid E Taqwaa, 22, S K Garden, Chinnapa Garden, Benson Town, Bengaluru, Karnataka 560046","S K Garden, Chinnapa Garden, Benson Town",22,Bengaluru,560046,Karnataka,IN,https://www.google.com/maps/place/Masjid+E+Taqwaa/data=!4m7!3m6!1s0x3bae16f87bf00001:0x53cf1f285c42412e!8m2!3d13.0043105!4d77.6078872!16s%2Fg%2F11bw_6qj_4!19sChIJAQDwe_gWrjsRLkFCXCgfz1M?authuser=0&hl=en&rclk=1,"13.004310499999999,77.6078872"
Masjid-al A'la,Mosque,"2H9V+CPF Masjid-al A'la, 8th Cross Rd, Rahmath Nagar, RT Nagar, Bengaluru, Karnataka 560032","Rahmath Nagar, RT Nagar","2H9V+CPF, 8th Cross Rd",Bengaluru,560032,Karnataka,IN,https://www.google.com/maps/place/Masjid-al+A%27la/data=!4m7!3m6!1s0x3bae17b22625c4e9:0xc7e87b2a300678d7!8m2!3d13.0185711!4d77.5943025!16s%2Fg%2F1v3_13c2!19sChIJ6cQlJrIXrjsR13gGMCp76Mc?authuser=0&hl=en&rclk=1,"13.018571099999999,77.5943025"
Chalikavattom Juma Masjid,Mosque,"X8PF+5PJ Chalikavattom Juma Masjid, Chalikkavattom, Vennala, Ernakulam, Kerala 682028","Chalikkavattom, Vennala",X8PF+5PJ,Ernakulam,682028,Kerala,IN,https://www.google.com/maps/place/Chalikavattom+Juma+Masjid/data=!4m7!3m6!1s0x3b080cd0a480cefb:0xfbb562d6dbab1048!8m2!3d9.9854586!4d76.3242692!16s%2Fg%2F124yjwtgb!19sChIJ-86ApNAMCDsRSBCr29Zitfs?authuser=0&hl=en&rclk=1,"9.9854586,76.3242692"
Kuttichira Jumaath Masjid,Mosque,"6QVG+FJF Kuttichira Jumaath Masjid, Kuttichira, Kozhikode, Kerala 673001",Kuttichira,6QVG+FJF,Kozhikode,673001,Kerala,IN,https://www.google.com/maps/place/Kuttichira+Jumaath+Masjid/data=!4m7!3m6!1s0x3ba659168c85d869:0x72ae52c34bd573a7!8m2!3d11.2436934!4d75.7765514!16s%2Fg%2F124sv99xc!19sChIJadiFjBZZpjsRp3PVS8NSrnI?authuser=0&hl=en&rclk=1,"11.2436934,75.7765514"
Thottathumpadi Muslim Jama Aath,Mosque,"X7WQ+P74 Thottathumpadi Muslim Jama Aath, Krishnadi Rd, SRM Road, Peediyakkal Rd, Kaloor, Ernakulam, Kerala 682018",Kaloor,"X7WQ+P74, Krishnadi Rd, SRM Road, Peediyakkal Rd",Ernakulam,682018,Kerala,IN,https://www.google.com/maps/place/Thottathumpadi+Muslim+Jama+Aath/data=!4m7!3m6!1s0x3b080d698b4a149d:0x28a813841bf9c1b8!8m2!3d9.9967605!4d76.2881942!16s%2Fg%2F1ptypxyld!19sChIJnRRKi2kNCDsRuMH5G4QTqCg?authuser=0&hl=en&rclk=1,"9.996760499999999,76.28819419999999"
Masjid E Qadar,Mosque,"Masjid E Qadar, 48, 2nd Main Rd, APMC Yard, Yesvantpur Industrial Suburb, Yeswanthpur, Bengaluru, Karnataka 560022","APMC Yard, Yesvantpur Industrial Suburb, Yeswanthpur","48, 2nd Main Rd",Bengaluru,560022,Karnataka,IN,https://www.google.com/maps/place/Masjid+E+Qadar/data=!4m7!3m6!1s0x3bae3d7aa8acd813:0x28b30e40f5ae1877!8m2!3d13.0209094!4d77.5506905!16s%2Fg%2F11dx8pxfm9!19sChIJE9isqHo9rjsRdxiu9UAOsyg?authuser=0&hl=en&rclk=1,"13.020909399999999,77.5506905"
Central Juma Masjid,Mosque,"Central Juma Masjid, Central Beach Rd, Matool, Kerala 670325",,Central Beach Rd,Matool,670325,Kerala,IN,https://www.google.com/maps/place/Central+Juma+Masjid/data=!4m7!3m6!1s0x3ba41447d540f6c3:0x73298fe71de22158!8m2!3d11.9780904!4d75.2828211!16s%2Fg%2F1q6jhjp65!19sChIJw_ZA1UcUpDsRWCHiHeePKXM?authuser=0&hl=en&rclk=1,"11.9780904,75.28282109999999"
Madavana (Aluvai) Abubacker Musaliyar Makham,Mosque,"4F82+62V Madavana (Aluvai) Abubacker Musaliyar Makham, Aluva - Perumbavoor Rd, Vanchinad, Mudickal, Kerala 683547",Vanchinad,"4F82+62V, Aluva - Perumbavoor Rd",Mudickal,683547,Kerala,IN,https://www.google.com/maps/place/Madavana+%28Aluvai%29+Abubacker+Musaliyar+Makham/data=!4m7!3m6!1s0x3b08082c0cc1512f:0x7d4b45504042f13d!8m2!3d10.1156068!4d76.4500514!16s%2Fg%2F124t3046p!19sChIJL1HBDCwICDsRPfFCQFBFS30?authuser=0&hl=en&rclk=1,"10.1156068,76.45005139999999"
masjid e umme jameel,Mosque,"masjid e umme jameel, Gurrappagari Palli, Rayachoty, Syamalavaripalle, Andhra Pradesh 516269",Gurrappagari Palli,,"Rayachoty, Syamalavaripalle",,Andhra Pradesh,IN,https://www.google.com/maps/place/masjid+e+umme+jameel/data=!4m7!3m6!1s0x3bb3021efe3e8191:0xb4e45336a37a94e2!8m2!3d14.0425152!4d78.7507081!16s%2Fg%2F1jkv_mrqz!19sChIJkYE-_h4CszsR4pR6ozZT5LQ?authuser=0&hl=en&rclk=1,"14.042515199999999,78.7507081"
Karunagapally Shaikanmaar Vaka-Namaskara Pally,Mosque,"Karunagapally Shaikanmaar Vaka-Namaskara Pally, MH Kavala, SH 16, AM Rd, Ponjassery, Perumbavoor, Kerala 683547",,"MH Kavala, SH 16, AM Rd, Ponjassery","Perumbavoor, Ponjassery",683547,Kerala,IN,https://www.google.com/maps/place/Karunagapally+Shaikanmaar+Vaka-Namaskara+Pally/data=!4m7!3m6!1s0x3b0809db9ae35f85:0xaffeb0ebd408c159!8m2!3d10.0957941!4d76.448146!16s%2Fg%2F11c0ppgb9w!19sChIJhV_jmtsJCDsRWcEI1Ouw_q8?authuser=0&hl=en&rclk=1,"10.095794099999999,76.448146"
InaMul Hasan Masjid Barde Plot Khamgaon,Mosque,"MHW8+C5P InaMul Hasan Masjid Barde Plot Khamgaon, Barde Plot, Khamgaon, Maharashtra 444303",Barde Plot,MHW8+C5P,Khamgaon,444303,Maharashtra,IN,https://www.google.com/maps/place/InaMul+Hasan+Masjid+Barde+Plot+Khamgaon/data=!4m7!3m6!1s0x3bd751248fffffff:0x717dbaf4537978ef!8m2!3d20.6960817!4d76.5654398!16s%2Fg%2F11dxd0gdps!19sChIJ____jyRR1zsR73h5U_S6fXE?authuser=0&hl=en&rclk=1,"20.6960817,76.5654398"
Jama Masjid mul,Mosque,"3M9G+2FV Jama Masjid mul, Mul, Maharashtra 441224",,3M9G+2FV,Mul,441224,Maharashtra,IN,https://www.google.com/maps/place/Jama+Masjid+mul/data=!4m7!3m6!1s0x3a2cdf19182aa9ef:0x821ab39466e70857!8m2!3d20.0676248!4d79.6761707!16s%2Fg%2F11bzq3qmqp!19sChIJ76kqGBnfLDoRVwjnZpSzGoI?authuser=0&hl=en&rclk=1,"20.0676248,79.6761707"
"Jumma masjid , mukkanahalli",Mosque,"J7GP+247 Jumma masjid , mukkanahalli, Mukkanahalli, Karnataka 573210",,J7GP+247,Mukkanahalli,573210,Karnataka,IN,"https://www.google.com/maps/place/Jumma+masjid+,+mukkanahalli/data=!4m7!3m6!1s0x3ba57bfcd309f143:0x654a19e0aa2e1665!8m2!3d12.6250305!4d76.2853044!16s%2Fg%2F11ghvg1gkh!19sChIJQ_EJ0_x7pTsRZRYuquAZSmU?authuser=0&hl=en&rclk=1","12.6250305,76.2853044"
Masjidul Hidaya,Mosque,"X7VR+24G Masjidul Hidaya, Cherukunnu, Kerala 670301",,X7VR+24G,Cherukunnu,670301,Kerala,IN,https://www.google.com/maps/place/Masjidul+Hidaya/data=!4m7!3m6!1s0x3ba41454750d6cb3:0xfd06f706e9e61ca9!8m2!3d11.9925535!4d75.2903373!16s%2Fg%2F11bxfqz3_d!19sChIJs2wNdVQUpDsRqRzm6Qb3Bv0?authuser=0&hl=en&rclk=1,"11.9925535,75.29033729999999"
Zain Masjid,Mosque,"X7MC+75G Zain Masjid, Mattool North, Matool, Kerala 670325",Mattool North,X7MC+75G,Matool,670325,Kerala,IN,https://www.google.com/maps/place/Zain+Masjid/data=!4m7!3m6!1s0x3ba41469d5d7b8e7:0x64ae0caaa324b13c!8m2!3d11.9831835!4d75.2704416!16s%2Fg%2F11fy_4j3qc!19sChIJ57jX1WkUpDsRPLEko6oMrmQ?authuser=0&hl=en&rclk=1,"11.983183499999999,75.2704416"
Juma Masjid,Mosque,"Juma Masjid, Maruthonkara, Kunduthode, Kerala 673513",,,"Maruthonkara, Kunduthode",,Kerala,IN,https://www.google.com/maps/place/Juma+Masjid/data=!4m7!3m6!1s0x3ba678d7e6b01da3:0xbca53763e4ab6424!8m2!3d11.6701605!4d75.8174188!16s%2Fg%2F1hc2nfmpv!19sChIJox2w5td4pjsRJGSr5GM3pbw?authuser=0&hl=en&rclk=1,"11.6701605,75.8174188"
Masjid-E-Muhammediya,Mosque,"VX4W+FP2 Masjid-E-Muhammediya, Karnataka 563139",,VX4W+FP2,,563139,Karnataka,IN,https://www.google.com/maps/place/Masjid-E-Muhammediya/data=!4m7!3m6!1s0x3baddf052f6b6861:0x9ec6691d3ec49910!8m2!3d12.8561313!4d77.996768!16s%2Fg%2F11mq2_4dvt!19sChIJYWhrLwXfrTsREJnEPh1pxp4?authuser=0&hl=en&rclk=1,"12.8561313,77.996768"
Muhalar Juma Masjid,Mosque,"Muhalar Juma Masjid, Matool, Kerala 670302",,,Matool,,Kerala,IN,https://www.google.com/maps/place/Muhalar+Juma+Masjid/data=!4m7!3m6!1s0x3ba415d5f873bcff:0x371b639b9bc0a96e!8m2!3d11.954092!4d75.299778!16s%2Fg%2F1td_3m67!19sChIJ_7xz-NUVpDsRbqnAm5tjGzc?authuser=0&hl=en&rclk=1,"11.954092,75.299778"
Jamalullaili Sunni Juma Masjid,Mosque,"29RC+3V3 Jamalullaili Sunni Juma Masjid, Kurudya, Karnataka 574228",,29RC+3V3,Kurudya,,Karnataka,IN,https://www.google.com/maps/place/Jamalullaili+Sunni+Juma+Masjid/data=!4m7!3m6!1s0x3ba4ca24c1ff8ee9:0xdecb9bb2f533c969!8m2!3d13.0401338!4d75.3721563!16s%2Fg%2F11gfhjfgk4!19sChIJ6Y7_wSTKpDsRackz9bKby94?authuser=0&hl=en&rclk=1,"13.0401338,75.3721563"
Masjid-Al-Moumin,Mosque,"Masjid-Al-Moumin, 4th Cross Road, Blue Diamond Layout, Thammarasanahalli Main Road, Sulibele Town, Taluk, Hoskote",,"4th Cross Road, Blue Diamond Layout, Thammarasanahalli Main Road, Sulibele Town, Taluk","Hoskote, Doddaralagere",,Karnataka,IN,https://www.google.com/maps/place/Masjid-Al-Moumin/data=!4m7!3m6!1s0x3bae03ff826b229b:0x7e41aa60bbfbf5a3!8m2!3d13.1950157!4d77.8280628!16s%2Fg%2F11t5w_bvfz!19sChIJmyJrgv8DrjsRo_X7u2CqQX4?authuser=0&hl=en&rclk=1,"13.195015699999999,77.8280628"
Noorul Huda Juma Masjid,Mosque,"Noorul Huda Juma Masjid, Paddandadka, Karnataka 574242",,,Paddandadka,,Karnataka,IN,https://www.google.com/maps/place/Noorul+Huda+Juma+Masjid/data=!4m7!3m6!1s0x3ba4ad02e9f3b299:0x88913ba412b84ff5!8m2!3d13.0315846!4d75.1079331!16s%2Fg%2F11jy9l5ksp!19sChIJmbLz6QKtpDsR9U-4EqQ7kYg?authuser=0&hl=en&rclk=1,"13.031584599999999,75.1079331"
masjid abu bakr siddeeq r.a,Mosque,"3M7G+5VG masjid abu bakr siddeeq r.a, Mul, Maharashtra 441224",,3M7G+5VG,Mul,441224,Maharashtra,IN,https://www.google.com/maps/place/masjid+abu+bakr+siddeeq+r.a/data=!4m7!3m6!1s0x3a2cdf175c78440f:0x416731980f3aab82!8m2!3d20.0629421!4d79.6772162!16s%2Fg%2F11dfj21v2f!19sChIJD0R4XBffLDoRgqs6D5gxZ0E?authuser=0&hl=en&rclk=1,"20.0629421,79.67721619999999"
Juma Masjid,Mosque,"4F6M+42F Juma Masjid, opp. KSRTC Bus Station, Perumbavoor, Kerala 683542",,"4F6M+42F, opp. KSRTC Bus Station",Perumbavoor,683542,Kerala,IN,https://www.google.com/maps/place/Juma+Masjid/data=!4m7!3m6!1s0x3b07e25f74684ad9:0xb833b5dde29f9b0a!8m2!3d10.110304!4d76.4825393!16s%2Fg%2F11dfj25vst!19sChIJ2UpodF_iBzsRCpuf4t21M7g?authuser=0&hl=en&rclk=1,"10.110304,76.4825393"
Sunni Jamiya Masjid Mulathalli,Mosque,"M8RH+VQV Sunni Jamiya Masjid Mulathalli, mullthlllli, Mulathalli, Karnataka 581120",,M8RH+VQV,"mullthlllli, Mulathalli",,Karnataka,IN,https://www.google.com/maps/place/Sunni+Jamiya+Masjid+Mulathalli/data=!4m7!3m6!1s0x3bb95d9b33726239:0x244b99621ef967e2!8m2!3d14.6922421!4d75.3294164!16s%2Fg%2F11hb6d8hml!19sChIJOWJyM5tduTsR4mf5HmKZSyQ?authuser=0&hl=en&rclk=1,"14.6922421,75.3294164"
Eidgah masjid murugamale iidgaa msiidi murugmle,Mosque,"C4PF+H7H Eidgah masjid murugamale iidgaa msiidi murugmle, Murugamalla, Duganarepalli, Karnataka 563125",,C4PF+H7H,"Murugamalla, Duganarepalli",,Karnataka,IN,https://www.google.com/maps/place/Eidgah+masjid+murugamale+%E0%B2%88%E0%B2%A6%E0%B3%8D%E0%B2%97%E0%B2%BE+%E0%B2%AE%E0%B2%B8%E0%B3%80%E0%B2%A6%E0%B2%BF+%E0%B2%AE%E0%B3%81%E0%B2%B0%E0%B3%81%E0%B2%97%E0%B2%AE%E0%B2%B2%E0%B3%86/data=!4m7!3m6!1s0x3bb20f81561d9b77:0x8588af8e910cb154!8m2!3d13.4364435!4d78.1232442!16s%2Fg%2F11rkdzwzq_!19sChIJd5sdVoEPsjsRVLEMkY6viIU?authuser=0&hl=en&rclk=1,"13.4364435,78.1232442"
Jumma masjid,Mosque,"Q9MG+QX4 Jumma masjid, Chinnakhar Rd, Chinnakhar, Karnataka 585321",,"Q9MG+QX4, Chinnakhar Rd",Chinnakhar,585321,Karnataka,IN,https://www.google.com/maps/place/Jumma+masjid/data=!4m7!3m6!1s0x3bc9afbbb58e9c11:0x93a260e9dfdea7eb!8m2!3d16.7843998!4d77.3774617!16s%2Fg%2F11j7hmtbc8!19sChIJEZyOtbuvyTsR66fe3-lgopM?authuser=0&hl=en&rclk=1,"16.7843998,77.3774617"
"Muhiyuddeen Jumma Masjid,Bengila",Mosque,"V693+282 Muhiyuddeen Jumma Masjid,Bengila, Kolya, Karnataka 574326",,V693+282,Kolya,574326,Karnataka,IN,"https://www.google.com/maps/place/Muhiyuddeen+Jumma+Masjid,Bengila/data=!4m7!3m6!1s0x3ba4bb7da5e631d5:0xac98d5c5121ffb04!8m2!3d12.8675006!4d75.2032617!16s%2Fg%2F11fps4vl_1!19sChIJ1THmpX27pDsRBPsfEsXVmKw?authuser=0&hl=en&rclk=1","12.8675006,75.2032617"
Juma Masjid,Mosque,"Juma Masjid, Porur, Kerala 679328",,,Porur,,Kerala,IN,https://www.google.com/maps/place/Juma+Masjid/data=!4m7!3m6!1s0x3ba6311a6317d357:0x24fff6f1d2a6fc65!8m2!3d11.1466384!4d76.2100232!16s%2Fg%2F1hc45lhtt!19sChIJV9MXYxoxpjsRZfym0vH2_yQ?authuser=0&hl=en&rclk=1,"11.146638399999999,76.2100232"
Matakere Masjid,Mosque,"V9PG+MG Matakere Masjid, Harijana Colony (B.Mategere), Karnataka 571121",,V9PG+MG,Harijana Colony (B.Mategere),,Karnataka,IN,https://www.google.com/maps/place/Matakere+Masjid/data=!4m7!3m6!1s0x3ba5f9e31ef6071f:0x15ae289448960d05!8m2!3d11.8867491!4d76.3763228!16s%2Fg%2F11t6n84739!19sChIJHwf2HuP5pTsRBQ2WSJQorhU?authuser=0&hl=en&rclk=1,"11.8867491,76.3763228"
"masjid,kadumoor",Mosque,"CMCF+36F masjid,kadumoor, Kadumoor, Telangana 509130",,CMCF+36F,Kadumoor,509130,Telangana,IN,"https://www.google.com/maps/place/masjid,kadumoor/data=!4m7!3m6!1s0x3bc9eec3afe3cb87:0xc9bf4a9490fd5859!8m2!3d16.4201852!4d77.6730327!16s%2Fg%2F11c5zlkw6x!19sChIJh8vjr8PuyTsRWVj9kJRKv8k?authuser=0&hl=en&rclk=1","16.4201852,77.6730327"
Jumma Masjid,Mosque,"5QV6+29P Jumma Masjid, Maradimath, Karnataka 591231",,5QV6+29P,Maradimath,,Karnataka,IN,https://www.google.com/maps/place/Jumma+Masjid/data=!4m7!3m6!1s0x3bc0ba944daac467:0xcc0ad602305f5a01!8m2!3d16.1925957!4d74.7609507!16s%2Fg%2F11hcj24c_7!19sChIJZ8SqTZS6wDsRAVpfMALWCsw?authuser=0&hl=en&rclk=1,"16.1925957,74.7609507"
Masjid Ahmadiya,Mosque,"FQWQ+FQ4 Masjid Ahmadiya, Waddemanu, Telangana 509409",,FQWQ+FQ4,Waddemanu,509409,Telangana,IN,https://www.google.com/maps/place/Masjid+Ahmadiya/data=!4m7!3m6!1s0x3bc9f2531f36a79d:0xa0486bc40c28c892!8m2!3d16.4961336!4d77.7894393!16s%2Fg%2F11fyzby3c0!19sChIJnac2H1PyyTsRksgoDMRrSKA?authuser=0&hl=en&rclk=1,"16.4961336,77.7894393"
MASJID RAHMANIA MAIN ROAD AMARCHINTA,Mosque,"9QFC+VX5 MASJID RAHMANIA MAIN ROAD AMARCHINTA, Amarchinta, Telangana 509131",,9QFC+VX5,Amarchinta,509131,Telangana,IN,https://www.google.com/maps/place/MASJID+RAHMANIA+MAIN+ROAD+AMARCHINTA/data=!4m7!3m6!1s0x3bc9f1c7f1749505:0x42a9f9d9a41ade34!8m2!3d16.3746362!4d77.7724867!16s%2Fg%2F11j09xxs53!19sChIJBZV08cfxyTsRNN4apNn5qUI?authuser=0&hl=en&rclk=1,"16.374636199999998,77.7724867"
Naj Mul Uloom Masjid,Mosque,"Naj Mul Uloom Masjid, Ansari Mohalla, Phoolpur, Uttar Pradesh 276304",Ansari Mohalla,,Phoolpur,,Uttar Pradesh,IN,https://www.google.com/maps/place/Naj+Mul+Uloom+Masjid/data=!4m7!3m6!1s0x3990528d4f6da36b:0x283a0dd9d6abfa60!8m2!3d26.0775854!4d82.8739406!16s%2Fg%2F1hc2t5m0l!19sChIJa6NtT41SkDkRYPqr1tkNOig?authuser=0&hl=en&rclk=1,"26.0775854,82.8739406"
Juma masjid palemadu,Mosque,"8P3H+W6 Juma masjid palemadu, Palemadu Paisary Area, Karnataka 571252",,8P3H+W6,Palemadu Paisary Area,,Karnataka,IN,https://www.google.com/maps/place/Juma+masjid+palemadu/data=!4m7!3m6!1s0x3ba5ad8a56aaf825:0xaef89004f67b0d90!8m2!3d12.3048221!4d75.7281144!16s%2Fg%2F11qbklvj5s!19sChIJJfiqVoqtpTsRkA179gSQ-K4?authuser=0&hl=en&rclk=1,"12.304822099999999,75.7281144"
Mubarak Juma Masjid Kudloor,Mosque,"Q8G4+977 Mubarak Juma Masjid Kudloor, Karnataka 574241",,Q8G4+977,,,Karnataka,IN,https://www.google.com/maps/place/Mubarak+Juma+Masjid+Kudloor/data=!4m7!3m6!1s0x3ba4bf90b93dad97:0x97d768c01e783cc2!8m2!3d12.7759134!4d75.3056648!16s%2Fg%2F11nfp984xq!19sChIJl609uZC_pDsRwjx4HsBo15c?authuser=0&hl=en&rclk=1,"12.7759134,75.3056648"
Masjid e ummehanni Madasanal,Mosque,"2MV5+MHC Masjid e ummehanni Madasanal, Madasanal, Karnataka 586119",,2MV5+MHC,Madasanal,,Karnataka,IN,https://www.google.com/maps/place/Masjid+e+ummehanni+Madasanal/data=!4m7!3m6!1s0x3bc6f73530e67251:0x21e86f3f27490a29!8m2!3d17.0441879!4d75.6588881!16s%2Fg%2F11n04h_vnh!19sChIJUXLmMDX3xjsRKQpJJz9v6CE?authuser=0&hl=en&rclk=1,"17.0441879,75.6588881"
Masjid-ul-huda,Mosque,"5985+WR6 Masjid-ul-huda, Sharief Colony, Karnataka 571125",,5985+WR6,Sharief Colony,,Karnataka,IN,https://www.google.com/maps/place/Masjid-ul-huda/data=!4m7!3m6!1s0x3ba58dcad906fdef:0xb86ad670205066e5!8m2!3d12.1672805!4d76.3595087!16s%2Fg%2F11h8jpc1v1!19sChIJ7_0G2cqNpTsR5WZQIHDWarg?authuser=0&hl=en&rclk=1,"12.167280499999999,76.35950869999999"
Sunni Jamia Masjid Muduvala,Mosque,"2FWR+8R7 Sunni Jamia Masjid Muduvala, Muduvala, Yadavala, Karnataka 577416",,2FWR+8R7,"Muduvala, Yadavala",577416,Karnataka,IN,https://www.google.com/maps/place/Sunni+Jamia+Masjid+Muduvala/data=!4m7!3m6!1s0x3bbbbbaa8eb47299:0x8d5462df1ab34c31!8m2!3d14.0458!4d75.492045!16s%2Fg%2F11mwkp4f4m!19sChIJmXK0jqq7uzsRMUyzGt9iVI0?authuser=0&hl=en&rclk=1,"14.0458,75.49204499999999"
Jumma Masjid,Mosque,"G9FQ+QM Jumma Masjid, Bintravalli, Karnataka 577126",,G9FQ+QM,Bintravalli,,Karnataka,IN,https://www.google.com/maps/place/Jumma+Masjid/data=!4m7!3m6!1s0x3bbb151ed0901795:0x2593cdb8c61cb53c!8m2!3d13.5243948!4d75.3890678!16s%2Fg%2F11sgq7tyz8!19sChIJlReQ0B4VuzsRPLUcxrjNkyU?authuser=0&hl=en&rclk=1,"13.5243948,75.38906779999999"
Jumma masjid,Mosque,"6WG7+9HH Jumma masjid, Konimadenahalli, Karnataka 572219",,6WG7+9HH,Konimadenahalli,,Karnataka,IN,https://www.google.com/maps/place/Jumma+masjid/data=!4m7!3m6!1s0x3bb02190e720cb85:0x982d36ba8c7cb343!8m2!3d13.2259264!4d76.9139719!16s%2Fg%2F11t3h9640x!19sChIJhcsg55AhsDsRQ7N8jLo2LZg?authuser=0&hl=en&rclk=1,"13.225926399999999,76.91397189999999"
Masjid-E-Hameeda,Mosque,"JQQC+VJ Masjid-E-Hameeda, Mukkanadi, Karnataka 576211",,JQQC+VJ,Mukkanadi,,Karnataka,IN,https://www.google.com/maps/place/Masjid-E-Hameeda/data=!4m7!3m6!1s0x3bbc8fb676bb9ff1:0xa370861b3ea7ece7!8m2!3d13.6397682!4d74.771551!16s%2Fg%2F11swy3vyfr!19sChIJ8Z-7draPvDsR5-ynPhuGcKM?authuser=0&hl=en&rclk=1,"13.639768199999999,74.771551"
Moorukol juma masjid,Mosque,"V6G6+3MF Moorukol juma masjid, Barya J.H.C, Karnataka 574326",,V6G6+3MF,Barya J.H.C,,Karnataka,IN,https://www.google.com/maps/place/Moorukol+juma+masjid/data=!4m7!3m6!1s0x3ba4bb06b355110b:0xf4097e229cd3a592!8m2!3d12.875183!4d75.2116644!16s%2Fg%2F11j0phchqz!19sChIJCxFVswa7pDsRkqXTnCJ-CfQ?authuser=0&hl=en&rclk=1,"12.875183,75.2116644"
Rifaiyya Masjid Ettammal,Mosque,"X7VV+PP6 Rifaiyya Masjid Ettammal, Cherukunnu, Kerala 670301",,X7VV+PP6,Cherukunnu,,Kerala,IN,https://www.google.com/maps/place/Rifaiyya+Masjid+Ettammal/data=!4m7!3m6!1s0x3ba41560a7470afb:0xda5337aed23f5c!8m2!3d11.9942776!4d75.2942587!16s%2Fg%2F11hkr1609v!19sChIJ-wpHp2AVpDsRXD_SrjdT2gA?authuser=0&hl=en&rclk=1,"11.9942776,75.2942587"
Jamiya Masjid Multanpur,Mosque,"9P75+R86 Jamiya Masjid Multanpur, Karnataka 591222",,9P75+R86,,,Karnataka,IN,https://www.google.com/maps/place/Jamiya+Masjid+Multanpur/data=!4m7!3m6!1s0x3bc0c7015729e421:0x10b4eb5a44f55905!8m2!3d16.3645369!4d74.7082657!16s%2Fg%2F11ghtb6xtt!19sChIJIeQpVwHHwDsRBVn1RFrrtBA?authuser=0&hl=en&rclk=1,"16.3645369,74.7082657"
MOHMMADIA MASJID,Mosque,"CGMM+WFG MOHMMADIA MASJID, Karni, Telangana 509208",,CGMM+WFG,Karni,509208,Telangana,IN,https://www.google.com/maps/place/MOHMMADIA+MASJID/data=!4m7!3m6!1s0x3bc9c348a2887943:0xd2694d41e048f47e!8m2!3d16.4348162!4d77.5336967!16s%2Fg%2F11f9vf30_v!19sChIJQ3mIokjDyTsRfvRI4EFNadI?authuser=0&hl=en&rclk=1,"16.4348162,77.5336967"
Jumma Masjid jm` msjd,Mosque,"JM74+844 Jumma Masjid jm` msjd, Malagathi, Karnataka 585216",,JM74+844,Malagathi,585216,Karnataka,IN,https://www.google.com/maps/place/Jumma+Masjid+%D8%AC%D9%85%D8%B9+%D9%85%D8%B3%D8%AC%D8%AF%E2%80%AD/data=!4m7!3m6!1s0x3bc86f1b687abbf1:0xade43896ecf7b0cd!8m2!3d16.6132689!4d76.6553369!16s%2Fg%2F11qnk7mnl2!19sChIJ8bt6aBtvyDsRzbD37JY45K0?authuser=0&hl=en&rclk=1,"16.613268899999998,76.6553369"
Jumma masjid,Mosque,"WVVP+H4X Jumma masjid, Ballupet, Karnataka 573214",,WVVP+H4X,Ballupet,,Karnataka,IN,https://www.google.com/maps/place/Jumma+masjid/data=!4m7!3m6!1s0x3ba52500aaaca371:0x8718854d493772ad!8m2!3d12.9439762!4d75.8853465!16s%2Fg%2F11swvd1jqb!19sChIJcaOsqgAlpTsRrXI3SU2FGIc?authuser=0&hl=en&rclk=1,"12.9439762,75.8853465"
Muhiyudeen juma masjid,Mosque,"V289+GMJ Muhiyudeen juma masjid, Malaibettu, Karnataka 574231",,V289+GMJ,Malaibettu,,Karnataka,IN,https://www.google.com/maps/place/Muhiyudeen+juma+masjid/data=!4m7!3m6!1s0x3ba4a7c56e588ce9:0xca4186cc55b22c7e!8m2!3d12.8663484!4d75.0191519!16s%2Fg%2F11ryk0jml_!19sChIJ6YxYbsWnpDsRfiyyVcyGQco?authuser=0&hl=en&rclk=1,"12.8663484,75.0191519"
Muhiyaddeen Jumah Masjid muhiyyddiin jumaa msiidi,Mosque,"H8RR+HQQ Muhiyaddeen Jumah Masjid muhiyyddiin jumaa msiidi, Jalsoor, Karnataka 574239",,H8RR+HQQ,Jalsoor,,Karnataka,IN,https://www.google.com/maps/place/Muhiyaddeen+Jumah+Masjid+%E0%B2%AE%E0%B3%81%E0%B2%B9%E0%B2%BF%E0%B2%AF%E0%B3%8D%E0%B2%AF%E0%B2%A6%E0%B3%8D%E0%B2%A6%E0%B3%80%E0%B2%A8%E0%B3%8D+%E0%B2%9C%E0%B3%81%E0%B2%AE%E0%B2%BE+%E0%B2%AE%E0%B2%B8%E0%B3%80%E0%B2%A6%E0%B2%BF/data=!4m7!3m6!1s0x3ba4ed455acb4fd7:0x84c048d307a3dd0e!8m2!3d12.5914656!4d75.3419825!16s%2Fg%2F11t_sf674h!19sChIJ10_LWkXtpDsRDt2jB9NIwIQ?authuser=0&hl=en&rclk=1,"12.5914656,75.3419825"
Hamzath Masjid,Mosque,"X833+89F Hamzath Masjid, Mattool Main Rd, Matool, Kerala",,"X833+89F, Mattool Main Rd",Matool,,Kerala,IN,https://www.google.com/maps/place/Hamzath+Masjid/data=!4m7!3m6!1s0x3ba4167862504983:0xaeff16c95df1ed49!8m2!3d11.9533194!4d75.3034183!16s%2Fg%2F11c1xd3zdw!19sChIJg0lQYngWpDsRSe3xXckW_64?authuser=0&hl=en&rclk=1,"11.9533194,75.30341829999999"
Alhe sunnat Wal jammat masjid kuruburmallur,Mosque,"W82M+5F Alhe sunnat Wal jammat masjid kuruburmallur, Kalmadavu, Karnataka 581118",,W82M+5F,Kalmadavu,,Karnataka,IN,https://www.google.com/maps/place/Alhe+sunnat+Wal+jammat+masjid+kuruburmallur/data=!4m7!3m6!1s0x3bb9418229b4ad55:0x33225c0a48eb0524!8m2!3d14.9003856!4d75.3336677!16s%2Fg%2F11pdy680wk!19sChIJVa20KYJBuTsRJAXrSApcIjM?authuser=0&hl=en&rclk=1,"14.9003856,75.33366769999999"
Muhimmath sunni Jamia masjid Billahalli,Mosque,"GH73+8W Muhimmath sunni Jamia masjid Billahalli, Billahalli, Karnataka 581208",,GH73+8W,Billahalli,,Karnataka,IN,https://www.google.com/maps/place/Muhimmath+sunni+Jamia+masjid+Billahalli/data=!4m7!3m6!1s0x3bbbd74183989351:0x53f7015bd440734c!8m2!3d14.5133321!4d75.5547887!16s%2Fg%2F11svtmz943!19sChIJUZOYg0HXuzsRTHNA1FsB91M?authuser=0&hl=en&rclk=1,"14.5133321,75.5547887"
Muhyadheen masjid,Mosque,"X7MP+6H3 Muhyadheen masjid, Thekkumbad, Kerala 670301",,X7MP+6H3,Thekkumbad,,Kerala,IN,https://www.google.com/maps/place/Muhyadheen+masjid/data=!4m7!3m6!1s0x3ba415a80970d21b:0xc9d41031ddf1759!8m2!3d11.983025!4d75.286436!16s%2Fg%2F11ghpdnpls!19sChIJG9JwCagVpDsRWRffHQNBnQw?authuser=0&hl=en&rclk=1,"11.983025,75.286436"
Murugamale Jamia masjid,Mosque,"C4RG+H9M Murugamale Jamia masjid, Yerramantapalli, Karnataka 563146",,C4RG+H9M,Yerramantapalli,563146,Karnataka,IN,https://www.google.com/maps/place/Murugamale+Jamia+masjid/data=!4m7!3m6!1s0x3bb20f33257f1cb5:0x12be105ac63eea0b!8m2!3d13.4414519!4d78.1259251!16s%2Fg%2F11rjv2878l!19sChIJtRx_JTMPsjsRC-o-xloQvhI?authuser=0&hl=en&rclk=1,"13.441451899999999,78.1259251"
MASJID NOORULLAH msjid nuurullaa,Mosque,"27WH+866 MASJID NOORULLAH msjid nuurullaa, Madapura, Karnataka 577412",,27WH+866,Madapura,,Karnataka,IN,https://www.google.com/maps/place/MASJID+NOORULLAH+%E0%B2%AE%E0%B2%B8%E0%B3%8D%E0%B2%9C%E0%B2%BF%E0%B2%A6%E0%B3%8D+%E0%B2%A8%E0%B3%82%E0%B2%B0%E0%B3%81%E0%B2%B2%E0%B3%8D%E0%B2%B2%E0%B2%BE/data=!4m7!3m6!1s0x3bbb9776e228be55:0x9bc2528b7b3e4fe0!8m2!3d14.0457781!4d75.2780041!16s%2Fg%2F11s2ss1lsp!19sChIJVb4o4naXuzsR4E8-e4tSwps?authuser=0&hl=en&rclk=1,"14.0457781,75.27800409999999"
Jumma Masjid Peradka,Mosque,"GF4W+FWP Jumma Masjid Peradka, Pelthadka, Karnataka 574314",,GF4W+FWP,Pelthadka,,Karnataka,IN,https://www.google.com/maps/place/Jumma+Masjid+Peradka/data=!4m7!3m6!1s0x3ba4f19fd33046d1:0xe6d0bd83819592e0!8m2!3d12.5062071!4d75.4973166!16s%2Fg%2F11j8wph60w!19sChIJ0UYw05_xpDsR4JKVgYO90OY?authuser=0&hl=en&rclk=1,"12.5062071,75.49731659999999"
Jamiya masjid,Mosque,"XM9J+MC Jamiya masjid, New Yelanadu, Karnataka 577545",,XM9J+MC,New Yelanadu,,Karnataka,IN,https://www.google.com/maps/place/Jamiya+masjid/data=!4m7!3m6!1s0x3bb089f426fdbfa1:0xaf27f9cf25c2e3c3!8m2!3d13.9692435!4d76.6810723!16s%2Fg%2F11s232h6lz!19sChIJob_9JvSJsDsRw-PCJc_5J68?authuser=0&hl=en&rclk=1,"13.9692435,76.6810723"
Juma masjid,Mosque,"RCP5+HX8 Juma masjid, Bengaluru, Karnataka 562109",,RCP5+HX8,Bengaluru,562109,Karnataka,IN,https://www.google.com/maps/place/Juma+masjid/data=!4m7!3m6!1s0x3bae477a7afb433b:0xcf9a01acae01bed9!8m2!3d12.8364006!4d77.4099418!16s%2Fg%2F11tnkv6j3p!19sChIJO0P7enpHrjsR2b4BrqwBms8?authuser=0&hl=en&rclk=1,"12.8364006,77.4099418"
Jamia Masjid,Mosque,"WWPH+Q5P Jamia Masjid, Tq, Indiranagar, Devarayanapalya, Karnataka",,"WWPH+Q5P, Tq, Indiranagar",Devarayanapalya,,Karnataka,IN,https://www.google.com/maps/place/Jamia+Masjid/data=!4m7!3m6!1s0x3bafc56f07cb7f23:0x72c64cfcd2034888!8m2!3d12.9369525!4d76.9279499!16s%2Fg%2F11h84swfgj!19sChIJI3_LB2_FrzsRiEgD0vxMxnI?authuser=0&hl=en&rclk=1,"12.9369525,76.9279499"
Masjid For Prayer Gummakallu,Musalla,"5G22+59Q Masjid For Prayer Gummakallu, G.Marandahalli, Myalapura, Karnataka 563132",,5G22+59Q,"G.Marandahalli, Myalapura",563132,Karnataka,IN,https://www.google.com/maps/place/Masjid+For+Prayer+Gummakallu/data=!4m7!3m6!1s0x3bad85d3139239bf:0x1f8bd8034be2f21d!8m2!3d13.1504534!4d78.5009817!16s%2Fg%2F11qg1hdhy3!19sChIJvzmSE9OFrTsRHfLiSwPYix8?authuser=0&hl=en&rclk=1,"13.1504534,78.5009817"
Masjid a mahabub,Mosque,"C9P6+3QM Masjid a mahabub, Ragimakalapalli, Karnataka 563138",,C9P6+3QM,Ragimakalapalli,,Karnataka,IN,https://www.google.com/maps/place/Masjid+a+mahabub/data=!4m7!3m6!1s0x3bb273c9ed053cef:0x9ce292d251252b79!8m2!3d13.4352242!4d78.3619189!16s%2Fg%2F11ny23d286!19sChIJ7zwF7clzsjsReSslUdKS4pw?authuser=0&hl=en&rclk=1,"13.435224199999999,78.36191889999999"
Mulla Masjid Markaz,Mosque,"FXRR+M49 Mulla Masjid Markaz, Karnataka 583232",,FXRR+M49,,,Karnataka,IN,https://www.google.com/maps/place/Mulla+Masjid+Markaz/data=!4m7!3m6!1s0x3bb84f34f09a6e57:0xe06f6cd16ee8e056!8m2!3d15.4916532!4d75.9903469!16s%2Fg%2F11hb6nzt1s!19sChIJV26a8DRPuDsRVuDobtFsb-A?authuser=0&hl=en&rclk=1,"15.4916532,75.99034689999999"
Badriya Juma Masjid Kalminja,School center,"p.o thaudugoli, Badriya Juma Masjid Kalminja, Naringana, Karnataka 574199",Naringana,p.o thaudugoli,,,Karnataka,IN,https://www.google.com/maps/place/Badriya+Juma+Masjid+Kalminja/data=!4m7!3m6!1s0x3ba35f3adca4dfa7:0xb9e4800bad55795f!8m2!3d12.7928381!4d74.9223399!16s%2Fg%2F11fkn4hp99!19sChIJp9-k3DpfozsRX3lVrQuA5Lk?authuser=0&hl=en&rclk=1,"12.792838099999999,74.9223399"
Jumma Masjid,Mosque,"M86R+HCC Jumma Masjid, Homminhal, Karnataka 583279",,M86R+HCC,Homminhal,,Karnataka,IN,https://www.google.com/maps/place/Jumma+Masjid/data=!4m7!3m6!1s0x3bb823c75120ddc9:0xef9d09bbfae2937e!8m2!3d15.661425!4d76.341008!16s%2Fg%2F11hcw3zp2x!19sChIJyd0gUccjuDsRfpPi-rsJne8?authuser=0&hl=en&rclk=1,"15.661425,76.341008"
Jamia Maszid Mutkod,Mosque,"WMR6+3QF Jamia Maszid Mutkod, Mutkod, Karnataka 585325",,WMR6+3QF,Mutkod,,Karnataka,IN,https://www.google.com/maps/place/Jamia+Maszid+Mutkod/data=!4m7!3m6!1s0x3bc889983ace5271:0xb8e47ea55a2e9a69!8m2!3d16.9401766!4d76.6619209!16s%2Fg%2F11fmqbyl9h!19sChIJcVLOOpiJyDsRaZouWqV-5Lg?authuser=0&hl=en&rclk=1,"16.9401766,76.6619209"
"Jamia Masjid, Mullur (jm` msjd)",Mosque,"5357+V9V Jamia Masjid, Mullur (jm` msjd), Mullur, Karnataka 571442",,5357+V9V,Mullur,571442,Karnataka,IN,"https://www.google.com/maps/place/Jamia+Masjid,+Mullur+%28%D8%AC%D8%A7%D9%85%D8%B9+%D9%85%D8%B3%D8%AC%D8%AF%29%E2%80%AD/data=!4m7!3m6!1s0x3baf19316fafd713:0xec5835b99b23ac65!8m2!3d12.1597301!4d77.0634209!16s%2Fg%2F11r9vcvc25!19sChIJE9evbzEZrzsRZawjm7k1WOw?authuser=0&hl=en&rclk=1","12.159730099999999,77.0634209"
Jamiya masjid,Mosque,"M3W8+54M Jamiya masjid, Kaniyar, Karnataka 573142",,M3W8+54M,Kaniyar,,Karnataka,IN,https://www.google.com/maps/place/Jamiya+masjid/data=!4m7!3m6!1s0x3ba513cf6c2b30b1:0xf7ef88301a657b1a!8m2!3d12.6954639!4d76.0652985!16s%2Fg%2F11ryllfvrr!19sChIJsTArbM8TpTsRGntlGjCI7_c?authuser=0&hl=en&rclk=1,"12.6954639,76.0652985"
Jamiya masjid,Mosque,"3253+R8J Jamiya masjid, Gullenahalli, Karnataka 573217",,3253+R8J,Gullenahalli,,Karnataka,IN,https://www.google.com/maps/place/Jamiya+masjid/data=!4m7!3m6!1s0x3ba537a0a3bc4d39:0xff49e09d5d9cd6d6!8m2!3d13.0595894!4d76.0032792!16s%2Fg%2F11q3sjmk06!19sChIJOU28o6A3pTsR1tacXZ3gSf8?authuser=0&hl=en&rclk=1,"13.0595894,76.0032792"
Qhilr juma masjid manjampara,Mosque,"R4F7+VM Qhilr juma masjid manjampara, Dadikemar, Karnataka 574253",,R4F7+VM,Dadikemar,,Karnataka,IN,https://www.google.com/maps/place/Qhilr+juma+masjid+manjampara/data=!4m7!3m6!1s0x3ba4a34150c9a5c9:0xd95440be3ae313ae!8m2!3d12.8246516!4d75.114211!16s%2Fg%2F11t0rbp814!19sChIJyaXJUEGjpDsRrhPjOr5AVNk?authuser=0&hl=en&rclk=1,"12.8246516,75.114211"
Badriya Juma masjid BANDAMUGERU,Mosque,"Q2CG+XF Badriya Juma masjid BANDAMUGERU, Kulal, Karnataka 574323",,Q2CG+XF,Kulal,,Karnataka,IN,https://www.google.com/maps/place/Badriya+Juma+masjid+BANDAMUGERU/data=!4m7!3m6!1s0x3ba4a196763d4aad:0xdc2c0b9dc17c43b1!8m2!3d12.7724026!4d75.0261829!16s%2Fg%2F11v3wv43l1!19sChIJrUo9dpahpDsRsUN8wZ0LLNw?authuser=0&hl=en&rclk=1,"12.7724026,75.0261829"
Masjid msjid,Mosque,"RR9R+356 Masjid msjid, Machenahalli, Karnataka 577540",,RR9R+356,Machenahalli,,Karnataka,IN,https://www.google.com/maps/place/Masjid+%E0%B2%AE%E0%B2%B8%E0%B3%8D%E0%B2%9C%E0%B2%BF%E0%B2%A6%E0%B3%8D/data=!4m7!3m6!1s0x3bb737741b8648c7:0x4771a6a2fd0e0e9a!8m2!3d14.8176527!4d76.840383!16s%2Fg%2F11kpsn46pc!19sChIJx0iGG3Q3tzsRmg4O_aKmcUc?authuser=0&hl=en&rclk=1,"14.8176527,76.840383"
Itehadul Muslim jamia madjid,Mosque,"RMH2+JH5 Itehadul Muslim jamia madjid, Hosur Siddapur, Veerapura, Karnataka 577302",Hosur Siddapur,RMH2+JH5,Veerapura,,Karnataka,IN,https://www.google.com/maps/place/Itehadul+Muslim+jamia+madjid/data=!4m7!3m6!1s0x3bbb01ee72ede1af:0x9fbb4297adce62fa!8m2!3d13.8290056!4d75.6514903!16s%2Fg%2F11sx3_bsw8!19sChIJr-Htcu4BuzsR-mLOrZdCu58?authuser=0&hl=en&rclk=1,"13.829005599999999,75.65149029999999"
Masjid (Mosque),Mosque,"RQ7Q+X8 Masjid (Mosque), BEML Cooperative Society Layout, S.Medihalli, Karnataka 562125",BEML Cooperative Society Layout,RQ7Q+X8,S.Medihalli,,Karnataka,IN,https://www.google.com/maps/place/Masjid+%28Mosque%29/data=!4m7!3m6!1s0x3bae739ee62675e3:0x95642a12dd2f5a73!8m2!3d12.8149771!4d77.7883657!16s%2Fg%2F11sy3fbz03!19sChIJ43Um5p5zrjsRc1ov3RIqZJU?authuser=0&hl=en&rclk=1,"12.8149771,77.7883657"
Masjid E Salma,Mosque,"35V7+RRJ Masjid E Salma, Gollahalli, Karnataka 561101",,35V7+RRJ,Gollahalli,,Karnataka,IN,https://www.google.com/maps/place/Masjid+E+Salma/data=!4m7!3m6!1s0x3bafd3cfd8e2f493:0x6e54d05c24012265!8m2!3d13.0945967!4d77.1645181!16s%2Fg%2F11vd9wcv6r!19sChIJk_Ti2M_TrzsRZSIBJFzQVG4?authuser=0&hl=en&rclk=1,"13.094596699999999,77.1645181"
Jummah masjid,Mosque,"26PW+2VM Jummah masjid, Bannur, Karnataka 581205",,26PW+2VM,Bannur,,Karnataka,IN,https://www.google.com/maps/place/Jummah+masjid/data=!4m7!3m6!1s0x3bb93bea9f6c193d:0xe7c8a2b97aeb2829!8m2!3d15.0350781!4d75.247175!16s%2Fg%2F11rq3vrtnr!19sChIJPRlsn-o7uTsRKSjrermiyOc?authuser=0&hl=en&rclk=1,"15.0350781,75.247175"
Jamia Masjid,Mosque,"6HMM+4CQ Jamia Masjid, Mandar, Karnataka 581335",,6HMM+4CQ,Mandar,,Karnataka,IN,https://www.google.com/maps/place/Jamia+Masjid/data=!4m7!3m6!1s0x3bbc3f42510711dd:0x5e4a01fa0a4193e4!8m2!3d14.2328327!4d74.5836166!16s%2Fg%2F11hj76f6fc!19sChIJ3REHUUI_vDsR5JNBCvoBSl4?authuser=0&hl=en&rclk=1,"14.2328327,74.5836166"
MASJID-E-JAMIYA,Mosque,"R775+739 MASJID-E-JAMIYA, Kotturu - Banavikallu Rd, Kodihalli, Karnataka 583134",,"R775+739, Kotturu - Banavikallu Rd",Kodihalli,,Karnataka,IN,https://www.google.com/maps/place/MASJID-E-JAMIYA/data=!4m7!3m6!1s0x3bb9ef540dad9b99:0x3f63184d9660a223!8m2!3d14.8131712!4d76.2577397!16s%2Fg%2F11sqh_b2sq!19sChIJmZutDVTvuTsRI6Jglk0YYz8?authuser=0&hl=en&rclk=1,"14.8131712,76.2577397"
Jumma Masjid,Mosque,"VJX5+4HF Jumma Masjid, Neglur, Karnataka 581213",,VJX5+4HF,Neglur,,Karnataka,IN,https://www.google.com/maps/place/Jumma+Masjid/data=!4m7!3m6!1s0x3bb973e92db2297d:0xa49ea45dbdeee1f9!8m2!3d14.897812!4d75.6089314!16s%2Fg%2F11t27kc9_w!19sChIJfSmyLelzuTsR-eHuvV2knqQ?authuser=0&hl=en&rclk=1,"14.897812,75.6089314"
Moulali Maszid,Mosque,"8MHG+XH4 Moulali Maszid, Hampadevanahalli, Karnataka 583129",,8MHG+XH4,Hampadevanahalli,,Karnataka,IN,https://www.google.com/maps/place/Moulali+Maszid/data=!4m7!3m6!1s0x3bb777d3b399bfd7:0x795ddd67f3daecae!8m2!3d15.3298929!4d76.6764623!16s%2Fg%2F11t8b5bx0w!19sChIJ17-Zs9N3tzsRruza82fdXXk?authuser=0&hl=en&rclk=1,"15.329892899999999,76.6764623"
Juma masjid,Mosque,"88J6+4JH Juma masjid, Jumma Masjid Road, Sulthangunta, Shivaji Nagar, Bengaluru, Hitnal, Karnataka 583234","Sulthangunta, Shivaji Nagar","88J6+4JH, Jumma Masjid Road","Bengaluru, Hitnal",,Karnataka,IN,https://www.google.com/maps/place/Juma+masjid/data=!4m7!3m6!1s0x3bb9d316e8f1c4b9:0x44d545da44766cf8!8m2!3d15.3303107!4d76.3116102!16s%2Fg%2F11svlb6y38!19sChIJucTx6BbTuTsR-Gx2RNpF1UQ?authuser=0&hl=en&rclk=1,"15.3303107,76.31161019999999"
Jumma masjid ,Mosque,"HGJX+RC5 Jumma masjid , Lingadhal, Karnataka 582204",,HGJX+RC5,Lingadhal,582204,Karnataka,IN,https://www.google.com/maps/place/Jumma+masjid+%F0%9F%95%8C%F0%9F%95%8C%F0%9F%8C%99/data=!4m7!3m6!1s0x3bb8f3fe904e2015:0x461bf654a81a4a9a!8m2!3d15.5812879!4d75.5484691!16s%2Fg%2F11l6bs0dhj!19sChIJFSBOkP7zuDsRmkoaqFT2G0Y?authuser=0&hl=en&rclk=1,"15.5812879,75.54846909999999"
Jamia masjid,Mosque,"X587+29C Jamia masjid, Arnalli, Karnataka 584203",,X587+29C,Arnalli,,Karnataka,IN,https://www.google.com/maps/place/Jamia+masjid/data=!4m7!3m6!1s0x3bb7d37ccc7a4a8d:0x1842ca10f3f44b69!8m2!3d15.9650538!4d77.1633973!16s%2Fg%2F11mvmjqtlk!19sChIJjUp6zHzTtzsRaUv08xDKQhg?authuser=0&hl=en&rclk=1,"15.9650538,77.1633973"
Jamiya masjid,Mosque,"CP3V+25P Jamiya masjid, Halerolli.R.C., Karnataka 586210",,CP3V+25P,Halerolli.R.C.,,Karnataka,IN,https://www.google.com/maps/place/Jamiya+masjid/data=!4m7!3m6!1s0x3bc79f16849b5493:0x62d827ddd2254662!8m2!3d16.402578!4d75.7429636!16s%2Fg%2F11k3hpsbnf!19sChIJk1SbhBafxzsRYkYl0t0n2GI?authuser=0&hl=en&rclk=1,"16.402578,75.7429636"
mohrN msiidi,Mosque,"65QW+XQ8 mohrN msiidi, Kesapur, Karnataka 586129",,65QW+XQ8,Kesapur,,Karnataka,IN,https://www.google.com/maps/place/%E0%B2%AE%E0%B3%8A%E0%B2%B9%E0%B2%B0%E0%B2%82+%E0%B2%AE%E0%B2%B8%E0%B3%80%E0%B2%A6%E0%B2%BF/data=!4m7!3m6!1s0x3bc7f1caa1efa2bb:0xc4a791571bb2727a!8m2!3d16.2399137!4d76.196963!16s%2Fg%2F11qg9md71h!19sChIJu6LvocrxxzsRenKyG1eRp8Q?authuser=0&hl=en&rclk=1,"16.2399137,76.196963"
Jamiya Masjid,Mosque,"MCJ9+7HX Jamiya Masjid, Halagundaknal, Karnataka 586118",,MCJ9+7HX,Halagundaknal,,Karnataka,IN,https://www.google.com/maps/place/Jamiya+Masjid/data=!4m7!3m6!1s0x3bc7d75511f41ebb:0x328c10473944d7!8m2!3d16.6807385!4d76.4189726!16s%2Fg%2F11tnbsgbk4!19sChIJux70EVXXxzsR10Q5RxCMMgA?authuser=0&hl=en&rclk=1,"16.6807385,76.4189726"
Mohharam masjid mHrWm msjd mauhrN msjid,Mosque,"7Q7V+QQC Mohharam masjid mHrWm msjd mauhrN msjid, Sitnoor, Karnataka 585308",,7Q7V+QQC,Sitnoor,585308,Karnataka,IN,https://www.google.com/maps/place/Mohharam+masjid+%D9%85%D8%AD%D8%B1%D9%91%D9%85+%D9%85%D8%B3%D8%AC%D8%AF+%E0%B2%AE%E0%B3%8C%E0%B2%B9%E0%B2%B0%E0%B2%82+%E0%B2%AE%E0%B2%B8%E0%B3%8D%E0%B2%9C%E0%B2%BF%E0%B2%A6%E0%B3%8D%E2%80%AD/data=!4m7!3m6!1s0x3bc8bf949dd821fd:0x2454837e6d000d53!8m2!3d17.2644476!4d76.794397!16s%2Fg%2F11rr68j_8f!19sChIJ_SHYnZS_yDsRUw0AbX6DVCQ?authuser=0&hl=en&rclk=1,"17.2644476,76.794397"
Mohammadiya masjid,Mosque,"Mohammadiya masjid, Near, bankur road, Aldihal, Karnataka 585228",,"Near, bankur road",Aldihal,,Karnataka,IN,https://www.google.com/maps/place/Mohammadiya+masjid/data=!4m7!3m6!1s0x3bc8e954fde062d7:0x356a5ac178c424ed!8m2!3d17.2153586!4d76.9601515!16s%2Fg%2F11rq9j_98l!19sChIJ12Lg_VTpyDsR7STEeMFaajU?authuser=0&hl=en&rclk=1,"17.2153586,76.9601515"
Jumma masjid jm` msjd,Mosque,"MCXG+HFH Jumma masjid jm` msjd, Asantapur, Karnataka 586128",,MCXG+HFH,Asantapur,586128,Karnataka,IN,https://www.google.com/maps/place/Jumma+masjid+%D8%AC%D9%85%D8%B9+%D9%85%D8%B3%D8%AC%D8%AF%E2%80%AD/data=!4m7!3m6!1s0x3bc7d7c08b104b0f:0x24545f82bdb22e1e!8m2!3d16.6979431!4d76.4268682!16s%2Fg%2F11s4w_lm6d!19sChIJD0sQi8DXxzsRHi6yvYJfVCQ?authuser=0&hl=en&rclk=1,"16.6979431,76.4268682"
Jumma masjid,Mosque,"6HCF+54C Jumma masjid, Chinmmgera, Karnataka 585265",,6HCF+54C,Chinmmgera,585265,Karnataka,IN,https://www.google.com/maps/place/Jumma+masjid/data=!4m7!3m6!1s0x3bc8a353a1dec1af:0x860db1b0f3969b4a!8m2!3d17.220596!4d76.5731249!16s%2Fg%2F11s4flmqjy!19sChIJr8HeoVOjyDsRSpuW87CxDYY?authuser=0&hl=en&rclk=1,"17.220596,76.5731249"
