name,main_category,address,address_ward,address_street,address_city,address_postal_code,address_state,address_country_code,link,coordinates
Gulzaar Masjid,Mosque,"MGCR+66Q Gulzaar Masjid, Bokkalguda St, Brahmanwadi, Adilabad, Telangana 504001",Brahmanwadi,"MGCR+66Q, Bokkalguda St",Adilabad,504001,Telangana,IN,https://www.google.com/maps/place/Gulzaar+Masjid/data=!4m7!3m6!1s0x3bd25c7477d00337:0x3dc61fe7489f62b1!8m2!3d19.6704596!4d78.5395986!16s%2Fg%2F1tcz6sjz!19sChIJNwPQd3Rc0jsRsWKfSOcfxj0?authuser=0&hl=en&rclk=1,"19.670459599999997,78.53959859999999"
Masjid-E-Taneem,Mosque,"MG8P+GJ2 Masjid-E-Taneem, Shanti Nagar, Adilabad, Telangana 504001",Shanti Nagar,MG8P+GJ2,Adilabad,504001,Telangana,IN,https://www.google.com/maps/place/Masjid-E-Taneem/data=!4m7!3m6!1s0x3bd25c7196951817:0xe1695f659d337d7!8m2!3d19.6662707!4d78.5365283!16s%2Fg%2F11c52zx1f3!19sChIJFxiVlnFc0jsR1zfTWfaVFg4?authuser=0&hl=en&rclk=1,"19.6662707,78.5365283"
Masjid e Khadim,Mosque,"974W+GHR Masjid e Khadim, Asifabad, Telangana 504293",,974W+GHR,Asifabad,504293,Telangana,IN,https://www.google.com/maps/place/Masjid+e+Khadim/data=!4m7!3m6!1s0x3bd2ac0487a9f291:0x6fbe7074c3de740b!8m2!3d19.3563518!4d79.2964018!16s%2Fg%2F11cjj61r0q!19sChIJkfKphwSs0jsRC3Tew3Rwvm8?authuser=0&hl=en&rclk=1,"19.3563518,79.2964018"
Masjid-e-Huda,Mosque,"Masjid-e-Huda, opp. Bus Stand, Asifabad, Telangana 504293",,opp. Bus Stand,Asifabad,,Telangana,IN,https://www.google.com/maps/place/Masjid-e-Huda/data=!4m7!3m6!1s0x3bd2ac1c5f823685:0x442868b52a3ced5e!8m2!3d19.3620003!4d79.2942735!16s%2Fg%2F11bw7cz2mz!19sChIJhTaCXxys0jsRXu08KrVoKEQ?authuser=0&hl=en&rclk=1,"19.3620003,79.2942735"
Jama Masjid,Mosque,"Jama Masjid, Bazarwadi,, Asifabad, Telangana 504293",,"Bazarwadi,",Asifabad,504293,Telangana,IN,https://www.google.com/maps/place/Jama+Masjid/data=!4m7!3m6!1s0x3bd2aea773cd3d43:0xc60c04b9f21fcf83!8m2!3d19.3622125!4d79.289124!16s%2Fg%2F11bw77yf0r!19sChIJQz3Nc6eu0jsRg88f8rkEDMY?authuser=0&hl=en&rclk=1,"19.3622125,79.289124"
Masjid e Sahaba & Madarsa Tahfiz ul Quraan,Mosque,"Masjid e Sahaba & Madarsa Tahfiz ul Quraan, NAWAZISH NAGAR, Asifabad, Telangana 504293",,NAWAZISH NAGAR,Asifabad,504293,Telangana,IN,https://www.google.com/maps/place/Masjid+e+Sahaba+%26+Madarsa+Tahfiz+ul+Quraan/data=!4m7!3m6!1s0x3bd2aea7c6631baf:0x62b87d4b00422aba!8m2!3d19.3598125!4d79.2883125!16s%2Fg%2F113dzbrlr!19sChIJrxtjxqeu0jsRuipCAEt9uGI?authuser=0&hl=en&rclk=1,"19.3598125,79.28831249999999"
Fathima Masjid,Mosque,"MGFF+676 Fathima Masjid, Sanjay Nagar, Adilabad, Telangana 504001",Sanjay Nagar,MGFF+676,Adilabad,504001,Telangana,IN,https://www.google.com/maps/place/Fathima+Masjid/data=!4m7!3m6!1s0x3bd25c7fa619132f:0x3fc5279c8cd8c162!8m2!3d19.6730467!4d78.5231404!16s%2Fg%2F11g65c9p2q!19sChIJLxMZpn9c0jsRYsHYjJwnxT8?authuser=0&hl=en&rclk=1,"19.6730467,78.5231404"
Masjid-e-Qadeem,Mosque,"8FXM+3MX Masjid-e-Qadeem, Nizamuddin Colony, Kagaznagar, Telangana 504296",Nizamuddin Colony,8FXM+3MX,Kagaznagar,504296,Telangana,IN,https://www.google.com/maps/place/Masjid-e-Qadeem/data=!4m7!3m6!1s0x3a2d56b063da2fbd:0xe321e240d18cecbb!8m2!3d19.3477485!4d79.4842215!16s%2Fg%2F11bw65hd1l!19sChIJvS_aY7BWLToRu-yM0UDiIeM?authuser=0&hl=en&rclk=1,"19.347748499999998,79.48422149999999"
Masjid E Hassan,Mosque,"MG8V+QPM Masjid E Hassan, Unnamed Road, Shanti Nagar, Adilabad, Telangana 504001",Shanti Nagar,"MG8V+QPM, Unnamed Road",Adilabad,504001,Telangana,IN,https://www.google.com/maps/place/Masjid+E+Hassan/data=!4m7!3m6!1s0x3bd25c0d29000079:0xa0cc092090b96993!8m2!3d19.6669651!4d78.5443022!16s%2Fg%2F11dfk_8lt4!19sChIJeQAAKQ1c0jsRk2m5kCAJzKA?authuser=0&hl=en&rclk=1,"19.6669651,78.54430219999999"
JAMA MASJID SULTANGUDA,Mosque,"C2RR+XGF JAMA MASJID SULTANGUDA, Sultanguda, Kerimeri, Adilabad, Telangana 504313",Sultanguda,C2RR+XGF,"Kerimeri, Adilabad",,Telangana,IN,https://www.google.com/maps/place/JAMA+MASJID+SULTANGUDA/data=!4m7!3m6!1s0x3bd2bd475cdd2b39:0x2b52fccf2d27bcc0!8m2!3d19.4424339!4d79.0413029!16s%2Fg%2F11d_5drtt9!19sChIJOSvdXEe90jsRwLwnLc_8Uis?authuser=0&hl=en&rclk=1,"19.442433899999997,79.04130289999999"
Masjid e Noor,Mosque,"976M+99C Masjid e Noor, Asifabad, Telangana 504293",,976M+99C,Asifabad,504293,Telangana,IN,https://www.google.com/maps/place/Masjid+e+Noor/data=!4m7!3m6!1s0x3bd2aea5cbc568eb:0x5aed9b5568109c20!8m2!3d19.3609381!4d79.283388!16s%2Fg%2F11cjj4r8cv!19sChIJ62jFy6Wu0jsRIJwQaFWb7Vo?authuser=0&hl=en&rclk=1,"19.3609381,79.283388"
Masjid e Yaseen,Mosque,"Masjid e Yaseen, opp. Jail, Jankapur, Asifabad, Telangana 504293",Jankapur,opp. Jail,Asifabad,504293,Telangana,IN,https://www.google.com/maps/place/Masjid+e+Yaseen/data=!4m7!3m6!1s0x3bd2ae9ef5cade0b:0xa80f60e413fdcad2!8m2!3d19.374471!4d79.2873049!16s%2Fg%2F11cjpfh3jq!19sChIJC97K9Z6u0jsR0sr9E-RgD6g?authuser=0&hl=en&rclk=1,"19.374471,79.2873049"
Masjid Mohammadia,Mosque,"9QCG+VR7 Masjid Mohammadia, Utnoor Rd, Utnur, Telangana 504311",,"9QCG+VR7, Utnoor Rd",Utnur,504311,Telangana,IN,https://www.google.com/maps/place/Masjid+Mohammadia/data=!4m7!3m6!1s0x3bd285b0dc0d26a7:0xf6fa3333ae2948b7!8m2!3d19.3721507!4d78.7770528!16s%2Fg%2F11c2p105cs!19sChIJpyYN3LCF0jsRt0gprjMz-vY?authuser=0&hl=en&rclk=1,"19.3721507,78.77705279999999"
Masjid-E-Aqsa,Mosque,"Masjid-E-Aqsa, Masjid-E-Aqsa Khanapur, Ambedkar Nagar, Khanapur, Telangana 504001",Ambedkar Nagar,Masjid-E-Aqsa Khanapur,Khanapur,504001,Telangana,IN,https://www.google.com/maps/place/Masjid-E-Aqsa/data=!4m7!3m6!1s0x3bd25dcc44670e61:0x730f194bf8b6847d!8m2!3d19.6716338!4d78.5448989!16s%2Fg%2F11j07wlncw!19sChIJYQ5nRMxd0jsRfYS2-EsZD3M?authuser=0&hl=en&rclk=1,"19.6716338,78.54489889999999"
Masjid-E-Zohra,Mosque,"Masjid-E-Zohra, Masjid-E- Zohra, Ambedkar Nagar, Khanapur, Telangana 504001",Ambedkar Nagar,Masjid-E- Zohra,Khanapur,504001,Telangana,IN,https://www.google.com/maps/place/Masjid-E-Zohra/data=!4m7!3m6!1s0x3bd25dbaced23b33:0xe16af2c30b24656!8m2!3d19.6729258!4d78.5447961!16s%2Fg%2F11j000cqb1!19sChIJMzvSzrpd0jsRVkayMCyvFg4?authuser=0&hl=en&rclk=1,"19.672925799999998,78.5447961"
MASJID-E-AQSA,Mosque,"9QCM+6FG MASJID-E-AQSA, Utnur, Telangana 504311",,9QCM+6FG,Utnur,504311,Telangana,IN,https://www.google.com/maps/place/MASJID-E-AQSA/data=!4m7!3m6!1s0x3bd285ae68120e2d:0x511a2112271c67ab!8m2!3d19.3705709!4d78.7836997!16s%2Fg%2F11d_8_t86t!19sChIJLQ4SaK6F0jsRq2ccJxIhGlE?authuser=0&hl=en&rclk=1,"19.3705709,78.7836997"
Masjid e Afsana,Mosque,"JGRP+7WM Masjid e Afsana, KRK Rd, KRK Colony, Khoja Colony, Adilabad, Telangana 504001","KRK Colony, Khoja Colony","JGRP+7WM, KRK Rd",Adilabad,504001,Telangana,IN,https://www.google.com/maps/place/Masjid+e+Afsana/data=!4m7!3m6!1s0x3bd25d5d2e428473:0xd94d955bdaa63bd4!8m2!3d19.6407052!4d78.5372911!16s%2Fg%2F11t4wlk9cp!19sChIJc4RCLl1d0jsR1Dum2luVTdk?authuser=0&hl=en&rclk=1,"19.6407052,78.53729109999999"
Masjid-E-Kausar,Mosque,"MG8Q+6M8 Masjid-E-Kausar, Shanti Nagar, Adilabad, Telangana 504001",Shanti Nagar,MG8Q+6M8,Adilabad,504001,Telangana,IN,https://www.google.com/maps/place/Masjid-E-Kausar/data=!4m7!3m6!1s0x3bd25c726cbfffff:0xdcc8a30755b4260c!8m2!3d19.6655322!4d78.5391992!16s%2Fg%2F11txmzh9h_!19sChIJ__-_bHJc0jsRDCa0VQejyNw?authuser=0&hl=en&rclk=1,"19.665532199999998,78.5391992"
Masjid-e-Khadijah,Mosque,"974R+XWR Masjid-e-Khadijah, Asifabad, Telangana 504293",,974R+XWR,Asifabad,504293,Telangana,IN,https://www.google.com/maps/place/Masjid-e-Khadijah/data=!4m7!3m6!1s0x3bd2ad43aa7c3d41:0xceb45b62869910bb!8m2!3d19.3574779!4d79.2922524!16s%2Fg%2F11sshd34_9!19sChIJQT18qkOt0jsRuxCZhmJbtM4?authuser=0&hl=en&rclk=1,"19.3574779,79.2922524"
KHANKHA E MOHAMMADI ADILABAD,Mosque,"MG7H+84G KHANKHA E MOHAMMADI ADILABAD, Adilabad Main Rd, Satnala Quarters, chaitanyapuri, Adilabad, Telangana 504001","Satnala Quarters, chaitanyapuri","MG7H+84G, Adilabad Main Rd",Adilabad,504001,Telangana,IN,https://www.google.com/maps/place/KHANKHA+E+MOHAMMADI+ADILABAD/data=!4m7!3m6!1s0x3bd25d7de627a569:0x4868af4429eca682!8m2!3d19.6633136!4d78.5278399!16s%2Fg%2F11nxrkqmlw!19sChIJaaUn5n1d0jsRgqbsKUSvaEg?authuser=0&hl=en&rclk=1,"19.6633136,78.52783989999999"
MOHAMMADIA MASJID,Mosque,"FMVC+JFR MOHAMMADIA MASJID, Heerapur, Indervelly, Telangana",,"FMVC+JFR, Heerapur",Indervelly,,Telangana,IN,https://www.google.com/maps/place/MOHAMMADIA+MASJID/data=!4m7!3m6!1s0x3bd289c55f8ff47d:0x2d649ece3f38847e!8m2!3d19.494116!4d78.6711451!16s%2Fg%2F11fcnd7c7s!19sChIJffSPX8WJ0jsRfoQ4P86eZC0?authuser=0&hl=en&rclk=1,"19.494115999999998,78.67114509999999"
