name,main_category,address,address_ward,address_street,address_city,address_postal_code,address_state,address_country_code,link,coordinates
Jama Masjid,Mosque,"Jama Masjid, Old Delhi, Delhi, 110006","Jama Masjid, Old Delhi",,Delhi,110006,Delhi,IN,https://www.google.com/maps/place/Jama+Masjid/data=!4m7!3m6!1s0x390cfd18df89b215:0xdd57369e29bf9d96!8m2!3d28.6506792!4d77.2334421!16zL20vMDR5emo1!19sChIJFbKJ3xj9DDkRlp2_KZ42V90?authuser=0&hl=en&rclk=1,"28.6506792,77.23344209999999"
MASJID BAHADUR KA PURVA,Place of worship,"FJV9+HR5 MASJID BAHADUR KA PURVA, Matte Ka Purva Rd S.K, Daulatpur Nisura, Uttar Pradesh 227816",,"FJV9+HR5, Matte Ka Purva Rd S.K",Daulatpur Nisura,227816,Uttar Pradesh,IN,https://www.google.com/maps/place/MASJID+BAHADUR+KA+PURVA/data=!4m7!3m6!1s0x399a4971868083e5:0x356480a926150137!8m2!3d26.4938899!4d81.619618!16s%2Fg%2F11fxz69w72!19sChIJ5YOAhnFJmjkRNwEVJqmAZDU?authuser=0&hl=en&rclk=1,"26.4938899,81.619618"
Jumma Masjid,Mosque,"Jumma Masjid, Peerashah baba, Purwa, Uttar Pradesh 209825",,Peerashah baba,Purwa,209825,Uttar Pradesh,IN,https://www.google.com/maps/place/Jumma+Masjid/data=!4m7!3m6!1s0x399c750ddaf32b8b:0xd11d0fbca4d2d403!8m2!3d26.4621849!4d80.7740216!16s%2Fg%2F11ff0w8kv8!19sChIJiyvz2g11nDkRA9TSpLwPHdE?authuser=0&hl=en&rclk=1,"26.4621849,80.7740216"
Masjid Moth,Mosque,"Masjid Moth, 92, Masjid Moth Rd, South Extension II, Masjid Moth Village, New Delhi, Delhi 110049","South Extension II, Masjid Moth Village","92, Masjid Moth Rd",New Delhi,110049,Delhi,IN,https://www.google.com/maps/place/Masjid+Moth/data=!4m7!3m6!1s0x390ce242799950e9:0xb2f0ba5418b140f8!8m2!3d28.562458!4d77.2176906!16s%2Fm%2F05zxh9f!19sChIJ6VCZeULiDDkR-ECxGFS68LI?authuser=0&hl=en&rclk=1,"28.562458,77.2176906"
R.k. puram masjid ar.khy.pwrm msjd,Mosque,"H589+G96 R.k. puram masjid ar.khy.pwrm msjd, Sonia Gandhi Camp, Sector 6, Rama Krishna Puram, New Delhi, Delhi 110022","Sonia Gandhi Camp, Sector 6, Rama Krishna Puram",H589+G96,New Delhi,110022,Delhi,IN,https://www.google.com/maps/place/R.k.+puram+masjid+%D8%A2%D8%B1%DB%94%DA%A9%DB%92%DB%94%D9%BE%D9%88%D8%B1%D9%85+%D9%85%D8%B3%D8%AC%D8%AF%E2%80%AD/data=!4m7!3m6!1s0x390d1da3cd9417f9:0x3ddd7b3c734d1c63!8m2!3d28.5662808!4d77.1683972!16s%2Fg%2F11c1xj2kt3!19sChIJ-ReUzaMdDTkRYxxNczx73T0?authuser=0&hl=en&rclk=1,"28.566280799999998,77.1683972"
Pare wali masjid - paare vaalii msjid (vkph),Mosque,"Pare wali masjid - paare vaalii msjid (vkph), Dr Ambedkar Colony, near Nature Bazar, Andheria Mor Village, Chhatarpur, New Delhi, Delhi 110074","Pocket A, Andheria Mor Village, Chhatarpur","Dr Ambedkar Colony, near Nature Bazar",New Delhi,110074,Delhi,IN,https://www.google.com/maps/place/Pare+wali+masjid+-+%E0%A4%AA%E0%A4%BE%E0%A4%B0%E0%A5%87+%E0%A4%B5%E0%A4%BE%E0%A4%B2%E0%A5%80+%E0%A4%AE%E0%A4%B8%E0%A5%8D%E0%A4%9C%E0%A4%BF%E0%A4%A6+%28%E0%A4%B5%E0%A4%95%E0%A5%8D%E0%A4%AB%29/data=!4m7!3m6!1s0x390d1e16f6905e1f:0x25b96cc9ca94f881!8m2!3d28.5081282!4d77.1791472!16s%2Fg%2F1s04dqgww!19sChIJH16Q9hYeDTkRgfiUyslsuSU?authuser=0&hl=en&rclk=1,"28.508128199999998,77.1791472"
Mehboo e Elahi Masjid msjd mHbwbi lhy,Mosque,"Mehboo e Elahi Masjid msjd mHbwbi lhy, 337A, Gali Number 12, Block G, Talimabad, Sangam Vihar, New Delhi, Delhi 110080","Block G, Talimabad, Sangam Vihar","337A, Gali Number 12",New Delhi,110080,Delhi,IN,https://www.google.com/maps/place/Mehboo+e+Elahi+Masjid+%D9%85%D8%B3%D8%AC%D8%AF+%D9%85%D8%AD%D8%A8%D9%88%D8%A8%D9%90+%D8%A7%D9%84%D9%B0%DB%81%DB%8C%E2%80%AD/data=!4m7!3m6!1s0x390ce1117bd6badd:0xebb2a755e5d86cc5!8m2!3d28.5059839!4d77.2552619!16s%2Fg%2F11hcx9jlc5!19sChIJ3brWexHhDDkRxWzY5VWnsus?authuser=0&hl=en&rclk=1,"28.5059839,77.2552619"
Peepal Wali Masjid,Mosque,"Peepal Wali Masjid, B134, Begumpur, New Delhi, Delhi 110017",Begumpur,B134,New Delhi,110017,Delhi,IN,https://www.google.com/maps/place/Peepal+Wali+Masjid/data=!4m7!3m6!1s0x390ce21b0b03c791:0x1561084abd369527!8m2!3d28.5380854!4d77.2087045!16s%2Fg%2F11gb3ymxth!19sChIJkccDCxviDDkRJ5U2vUoIYRU?authuser=0&hl=en&rclk=1,"28.5380854,77.2087045"
Purva Shekh Lal Masjid,Mosque,"Purva Shekh Lal Masjid, Main Road, Subhash Nagar, Meerut, Uttar Pradesh 250001",Subhash Nagar,Main Road,Meerut,250001,Uttar Pradesh,IN,https://www.google.com/maps/place/Purva+Shekh+Lal+Masjid/data=!4m7!3m6!1s0x390c64e54c0ca99b:0x912ca0672ea2aeb0!8m2!3d28.980294!4d77.7111385!16s%2Fg%2F11f_0cpk9w!19sChIJm6kMTOVkDDkRsK6iLmegLJE?authuser=0&hl=en&rclk=1,"28.980293999999997,77.71113849999999"
Masjid Al Hayas,Mosque,"VWXJ+GM2 Masjid Al Hayas, Jugal Vihar Colony, Naya Purwa, Keshav Nagar, Fazullaganj, Lucknow, Uttar Pradesh 226020","Jugal Vihar Colony, Naya Purwa, Keshav Nagar, Fazullaganj",VWXJ+GM2,Lucknow,226020,Uttar Pradesh,IN,https://www.google.com/maps/place/Masjid+Al+Hayas/data=!4m7!3m6!1s0x399957713fa515b9:0x76a79c31e80edd43!8m2!3d26.8987687!4d80.9316478!16s%2Fg%2F11h1m4xlgv!19sChIJuRWlP3FXmTkRQ90O6DGcp3Y?authuser=0&hl=en&rclk=1,"26.898768699999998,80.9316478"
MASJID SARAI NAZAR ALI,Mosque,"MC6G+M2C MASJID SARAI NAZAR ALI, Bihari Pura, Purva Shambu Dyal, Sarai Nazar Ali, Madhopura, Ghaziabad, Uttar Pradesh 201009","Bihari Pura, Purva Shambu Dyal, Sarai Nazar Ali, Madhopura",MC6G+M2C,Ghaziabad,201009,Uttar Pradesh,IN,https://www.google.com/maps/place/MASJID+SARAI+NAZAR+ALI/data=!4m7!3m6!1s0x390cf1cb38013503:0x6cdf846ace34f33d!8m2!3d28.661681!4d77.4250174!16s%2Fg%2F11g9df93fv!19sChIJAzUBOMvxDDkRPfM0zmqE32w?authuser=0&hl=en&rclk=1,"28.661680999999998,77.4250174"
Masjid Thani Ka Purwa,Mosque,"Masjid Thani Ka Purwa, Amethi Sultanpur Uttar Pradesh 227816 Republic",,Amethi Sultanpur Uttar Pradesh 227816 Republic,,,Uttar Pradesh,IN,https://www.google.com/maps/place/Masjid+Thani+Ka+Purwa/data=!4m7!3m6!1s0x399a48f86b91c149:0x2622d68317ccfcc4!8m2!3d26.5042428!4d81.6566418!16s%2Fg%2F11b77mpk3k!19sChIJScGRa_hImjkRxPzMF4PWIiY?authuser=0&hl=en&rclk=1,"26.5042428,81.6566418"
Masjid -murtii kaa purvaa,Mosque,"HHG7+RWH Masjid -murtii kaa purvaa, Newaj Bhadar Garh, Uttar Pradesh 227811",,HHG7+RWH,Newaj Bhadar Garh,227811,Uttar Pradesh,IN,https://www.google.com/maps/place/Masjid+-%E0%A4%AE%E0%A5%81%E0%A4%B0%E0%A5%8D%E0%A4%A4%E0%A5%80+%E0%A4%95%E0%A4%BE+%E0%A4%AA%E0%A5%81%E0%A4%B0%E0%A4%B5%E0%A4%BE/data=!4m7!3m6!1s0x399a35a6a6dcc543:0xa8908092410b4185!8m2!3d26.5770732!4d81.5648526!16s%2Fg%2F11ggg_657r!19sChIJQ8XcpqY1mjkRhUELQZKAkKg?authuser=0&hl=en&rclk=1,"26.577073199999997,81.5648526"
Masjid purwa peer baksh,Mosque,"Masjid purwa peer baksh, 24, Ansar Colony, Gola Kuan, Meerut, Uttar Pradesh 250002","Ansar Colony, Gola Kuan",24,Meerut,250002,Uttar Pradesh,IN,https://www.google.com/maps/place/Masjid+purwa+peer+baksh/data=!4m7!3m6!1s0x390c65b048f1645d:0xee4959c533d3cf50!8m2!3d28.97373!4d77.7118354!16s%2Fg%2F11h5ljz2h0!19sChIJXWTxSLBlDDkRUM_TM8VZSe4?authuser=0&hl=en&rclk=1,"28.97373,77.7118354"
Salarpurwa Masjid,Mosque,"4X7W+RWW Salarpurwa Masjid, Ummed Jot, Amdad Para, Uttar Pradesh 271123",,4X7W+RWW,"Ummed Jot, Amdad Para",271123,Uttar Pradesh,IN,https://www.google.com/maps/place/Salarpurwa+Masjid/data=!4m7!3m6!1s0x3999f034b452ad3b:0x7c4a35dd732bab44!8m2!3d27.1146167!4d81.9973216!16s%2Fg%2F11gd_pw6xj!19sChIJO61StDTwmTkRRKsrc901Snw?authuser=0&hl=en&rclk=1,"27.1146167,81.99732159999999"
Masjid Al Hilal,Mosque,"XMMX+24R Masjid Al Hilal, Purwa Faiyaz Ali, Jali Kothi, Meerut, Uttar Pradesh 250002",Jali Kothi,XMMX+24R Purwa Faiyaz Ali,Meerut,,Uttar Pradesh,IN,https://www.google.com/maps/place/Masjid+Al+Hilal/data=!4m7!3m6!1s0x390c64566c00f2d9:0x36d779f4058b874e!8m2!3d28.9826134!4d77.6977543!16s%2Fg%2F11hbgh6615!19sChIJ2fIAbFZkDDkRToeLBfR51zY?authuser=0&hl=en&rclk=1,"28.982613399999998,77.6977543"
Angoor Wali Masjid Purwa Ilahi Baksh,Mosque,"XPC2+XMR Angoor Wali Masjid Purwa Ilahi Baksh, Shohrab Gate, Meerut, Uttar Pradesh 250002",Shohrab Gate,XPC2+XMR,Meerut,250002,Uttar Pradesh,IN,https://www.google.com/maps/place/Angoor+Wali+Masjid+Purwa+Ilahi+Baksh/data=!4m7!3m6!1s0x390c64f5d798e507:0xa69b4ba4907edca8!8m2!3d28.9724931!4d77.7016366!16s%2Fg%2F11f54lc1_b!19sChIJB-WY1_VkDDkRqNx-kKRLm6Y?authuser=0&hl=en&rclk=1,"28.972493099999998,77.7016366"
Aalam Masjid Banjaran Purwa,Place of worship,"Aalam Masjid Banjaran Purwa, MDR 137E, Maharu Murtiha, Uttar Pradesh 271802",,MDR 137E,Maharu Murtiha,271802,Uttar Pradesh,IN,https://www.google.com/maps/place/Aalam+Masjid+Banjaran+Purwa/data=!4m7!3m6!1s0x39984df2cd38a18f:0x18bbd585381b804!8m2!3d27.7378164!4d81.7346941!16s%2Fg%2F11mw7gtps0!19sChIJj6E4zfJNmDkRBLiBU1i9iwE?authuser=0&hl=en&rclk=1,"27.7378164,81.7346941"
Noori Masjid Bhulai Ka Purwa,Mosque,"PXVV+MMQ Noori Masjid Bhulai Ka Purwa, Khirauni, Uttar Pradesh 224188",,PXVV+MMQ,Khirauni,224188,Uttar Pradesh,IN,https://www.google.com/maps/place/Noori+Masjid+Bhulai+Ka+Purwa/data=!4m7!3m6!1s0x399a11446928873d:0x819b45f9a21789eb!8m2!3d26.7442031!4d81.9942204!16s%2Fg%2F11gpgn5wb0!19sChIJPYcoaUQRmjkR64kXovlFm4E?authuser=0&hl=en&rclk=1,"26.7442031,81.9942204"
Budhanapur Masjid,Mosque,"QQFJ+VWW Budhanapur Masjid, Rahi, Uttar Pradesh 262721",,QQFJ+VWW,Rahi,,Uttar Pradesh,IN,https://www.google.com/maps/place/Budhanapur+Masjid/data=!4m7!3m6!1s0x399f2d11556ad3cf:0x246873d0593bba32!8m2!3d27.774741!4d80.7823181!16s%2Fg%2F11hbh8drsb!19sChIJz9NqVREtnzkRMro7WdBzaCQ?authuser=0&hl=en&rclk=1,"27.774741,80.7823181"
Masjid Chile Purva,Mosque,"94WP+HM5 Masjid Chile Purva, Unnamed Road, Civil Lines, Avas Vikas Colony, Hardoi, Uttar Pradesh 241001","Civil Lines, Avas Vikas Colony","94WP+HM5, Unnamed Road",Hardoi,241001,Uttar Pradesh,IN,https://www.google.com/maps/place/Masjid+Chile+Purva/data=!4m7!3m6!1s0x399ef82e7ca5dafd:0x1f5d236b4f7a2b1f!8m2!3d27.3963761!4d80.1367282!16s%2Fg%2F11f4l9v5g4!19sChIJ_dqlfC74njkRHyt6T2sjXR8?authuser=0&hl=en&rclk=1,"27.396376099999998,80.1367282"
Masjid (Mosque),Mosque,"95FQ+82P Masjid (Mosque), Home, Hisavati, Uttar Pradesh 203390",,"95FQ+82P, Home",Hisavati,,Uttar Pradesh,IN,https://www.google.com/maps/place/Masjid+%28Mosque%29/data=!4m7!3m6!1s0x390b45c4547b6f7f:0x42e22913e5fdee6!8m2!3d28.373339!4d78.1875815!16s%2Fg%2F11hbnvrf22!19sChIJf297VMRFCzkR5t5fPpEiLgQ?authuser=0&hl=en&rclk=1,"28.373338999999998,78.1875815"
MASJID JOLAHANPURWA,Mosque,"7JJ8+GH5 MASJID JOLAHANPURWA, Kataka Marautha, Uttar Pradesh 271903",,7JJ8+GH5,Kataka Marautha,,Uttar Pradesh,IN,https://www.google.com/maps/place/MASJID+JOLAHANPURWA/data=!4m7!3m6!1s0x3999999ba9f3061d:0x2baf22ba0224b44e!8m2!3d27.2812509!4d81.6164845!16s%2Fg%2F11gyytcck3!19sChIJHQbzqZuZmTkRTrQkAroirys?authuser=0&hl=en&rclk=1,"27.2812509,81.6164845"
Pathan purwa masjid,Mosque,"Pathan purwa masjid, Unnamed Road, Khargaura Janoob, Uttar Pradesh 271845",,Unnamed Road,Khargaura Janoob,271845,Uttar Pradesh,IN,https://www.google.com/maps/place/Pathan+purwa+masjid/data=!4m7!3m6!1s0x3999c520c2728f35:0x5dc6e5e0d7bba4be!8m2!3d27.4454163!4d81.9621471!16s%2Fg%2F11gy1ys57h!19sChIJNY9ywiDFmTkRvqS71-Dlxl0?authuser=0&hl=en&rclk=1,"27.445416299999998,81.9621471"
Linepurwa Masjid,Mosque,"W5JP+PQM Linepurwa Masjid, Line Purwa, Preet Vihar Colony, Civil Lines, Barabanki, Uttar Pradesh 225001","Line Purwa, Preet Vihar Colony, Civil Lines",W5JP+PQM,Barabanki,225001,Uttar Pradesh,IN,https://www.google.com/maps/place/Linepurwa+Masjid/data=!4m7!3m6!1s0x399961fe09fb4c7d:0x166b63570088357e!8m2!3d26.9318368!4d81.1869194!16s%2Fg%2F11h7rpdjgp!19sChIJfUz7Cf5hmTkRfjWIAFdjaxY?authuser=0&hl=en&rclk=1,"26.9318368,81.1869194"
Aisha Masjid,Mosque,"Aisha Masjid, aisha masjid purwa mahaveer 250002, Meerut, Uttar Pradesh",Dharmashala,aisha masjid purwa mahaveer 250002,Meerut,,Uttar Pradesh,IN,https://www.google.com/maps/place/Aisha+Masjid/data=!4m7!3m6!1s0x390c6457407d4537:0x3e244c8be30851a7!8m2!3d28.9791378!4d77.6949501!16s%2Fg%2F11d_d55msh!19sChIJN0V9QFdkDDkRp1EI44tMJD4?authuser=0&hl=en&rclk=1,"28.9791378,77.6949501"
Elahi Masjid Purwa,Mosque,"X9RH+9W7 Elahi Masjid Purwa, Barabanki, Uttar Pradesh 225206",,X9RH+9W7,Barabanki,,Uttar Pradesh,IN,https://www.google.com/maps/place/Elahi+Masjid+Purwa/data=!4m7!3m6!1s0x39997d515acf0ed9:0x592c2d554d5fe8da!8m2!3d26.9909139!4d81.3797836!16s%2Fg%2F11h264jwdt!19sChIJ2Q7PWlF9mTkR2uhfTVUtLFk?authuser=0&hl=en&rclk=1,"26.9909139,81.3797836"
Jama Masjid Chainpur,Mosque,"C2PX+3J7 Jama Masjid Chainpur, Bhat Purwa Kalan, Uttar Pradesh 271805",,C2PX+3J7,Bhat Purwa Kalan,271805,Uttar Pradesh,IN,https://www.google.com/maps/place/Jama+Masjid+Chainpur/data=!4m7!3m6!1s0x3999db3ce544b807:0x77af2c3bf13afd9d!8m2!3d27.4351518!4d82.0490599!16s%2Fg%2F11h3w7y79f!19sChIJB7hE5TzbmTkRnf068Tssr3c?authuser=0&hl=en&rclk=1,"27.4351518,82.0490599"
Madina Masjid,Mosque,"MW8H+C5C Madina Masjid, Kallan kha ka purwa Tarauli, Kurawan, Uttar Pradesh 224158",,"MW8H+C5C, Kallan kha ka purwa Tarauli",Kurawan,224158,Uttar Pradesh,IN,https://www.google.com/maps/place/Madina+Masjid/data=!4m7!3m6!1s0x399a1787fd937b87:0x1dbd231d221cf38b!8m2!3d26.6660654!4d81.9278943!16s%2Fg%2F11h3sn5ykz!19sChIJh3uT_YcXmjkRi_McIh0jvR0?authuser=0&hl=en&rclk=1,"26.666065399999997,81.92789429999999"
Masjid Mufti Ajam-e-hind (Hazrat Shaheed Mard Rahmtullah Alaih),Mosque,"Masjid Mufti Ajam-e-hind (Hazrat Shaheed Mard Rahmtullah Alaih), shyal lal, Purwa, Kheri, Uttar Pradesh 262701",,shyal lal,"Purwa, Kheri",,Uttar Pradesh,IN,https://www.google.com/maps/place/Masjid+Mufti+Ajam-e-hind+%28Hazrat+Shaheed+Mard+Rahmtullah+Alaih%29/data=!4m7!3m6!1s0x399f353271a3c0d3:0xf94e653a632aa4f8!8m2!3d27.9067942!4d80.7958552!16s%2Fg%2F11g2y012dc!19sChIJ08CjcTI1nzkR-KQqYzplTvk?authuser=0&hl=en&rclk=1,"27.9067942,80.79585519999999"
Muslim Masjid,Mosque,"MMCR+9QH Muslim Masjid, Purwa Hema, Uttar Pradesh 206244",,MMCR+9QH,Purwa Hema,,Uttar Pradesh,IN,https://www.google.com/maps/place/Muslim+Masjid/data=!4m7!3m6!1s0x399de76c3b397a95:0x2293374fd8ddae5d!8m2!3d26.670935!4d79.6919874!16s%2Fg%2F11gh_49z_d!19sChIJlXo5O2znnTkRXa7d2E83kyI?authuser=0&hl=en&rclk=1,"26.670935,79.6919874"
Gareeb Nawaz Masjid Pathan Purwa,Mosque,"6234+MRV Gareeb Nawaz Masjid Pathan Purwa, Unnamed Road, Teliyani Upadhayay, Uttar Pradesh 271601",,"6234+MRV, Unnamed Road",Teliyani Upadhayay,271601,Uttar Pradesh,IN,https://www.google.com/maps/place/Gareeb+Nawaz+Masjid+Pathan+Purwa/data=!4m7!3m6!1s0x3999efce6308d549:0xc7ad7ca45a0b8682!8m2!3d27.2042424!4d82.0070351!16s%2Fg%2F11rggsqsnz!19sChIJSdUIY87vmTkRgoYLWqR8rcc?authuser=0&hl=en&rclk=1,"27.2042424,82.0070351"
Farooqi Masjid Balkaran Purwa,Mosque,"CF3P+W45 Farooqi Masjid Balkaran Purwa, Sahawapur Mahipal Sing, Uttar Pradesh 271902",,CF3P+W45,Sahawapur Mahipal Sing,271902,Uttar Pradesh,IN,https://www.google.com/maps/place/Farooqi+Masjid+Balkaran+Purwa/data=!4m7!3m6!1s0x3999096e4ebe8329:0xf414d98f2d60aa62!8m2!3d27.4047656!4d81.4853523!16s%2Fg%2F11h_vlv_yt!19sChIJKYO-Tm4JmTkRYqpgLY_ZFPQ?authuser=0&hl=en&rclk=1,"27.404765599999998,81.4853523"
Jama masjid haseen purwa bijnaur,Mosque,"PVVX+V4F Jama masjid haseen purwa bijnaur, Bijnor, Uttar Pradesh 226008",,PVVX+V4F,Bijnor,226008,Uttar Pradesh,IN,https://www.google.com/maps/place/Jama+masjid+haseen+purwa+bijnaur/data=!4m7!3m6!1s0x399bf93e33913417:0xd7e8a82b53e5d02!8m2!3d26.744675!4d80.8977899!16s%2Fg%2F11s0ywl932!19sChIJFzSRMz75mzkRAl0-tYKKfg0?authuser=0&hl=en&rclk=1,"26.744674999999997,80.89778989999999"
Kingariyan purwa Masjid,Mosque,"3M4C+864 Kingariyan purwa Masjid, Puraini 21900, Nepal",,3M4C+864,Puraini,21900,,NP,https://www.google.com/maps/place/Kingariyan+purwa+Masjid/data=!4m7!3m6!1s0x399867d3021f28b5:0x6daec7a855d50d4d!8m2!3d28.0557633!4d81.6705936!16s%2Fg%2F11jrlz68dq!19sChIJtSgfAtNnmDkRTQ3VVajHrm0?authuser=0&hl=en&rclk=1,"28.0557633,81.67059359999999"
Masjid Dumkaapur,Mosque,"PPM2+FQM Masjid Dumkaapur, Gularia, Uttar Pradesh 242223",,PPM2+FQM,Gularia,,Uttar Pradesh,IN,https://www.google.com/maps/place/Masjid+Dumkaapur/data=!4m7!3m6!1s0x399fc75998218553:0x2039ba62080faaf7!8m2!3d27.7337016!4d79.7019244!16s%2Fg%2F11gn21sq43!19sChIJU4UhmFnHnzkR96oPCGK6OSA?authuser=0&hl=en&rclk=1,"27.7337016,79.7019244"
Masjid Riharpurwa (Joga Gaon),Mosque,"VW2R+PV5 Masjid Riharpurwa (Joga Gaon), Tal Baghaura, Uttar Pradesh 271840",,VW2R+PV5,Tal Baghaura,271840,Uttar Pradesh,IN,https://www.google.com/maps/place/Masjid+Riharpurwa+%28Joga+Gaon%29/data=!4m7!3m6!1s0x3998379ccd5218e9:0xe6822c204146e9c2!8m2!3d27.85177!4d81.9422382!16s%2Fg%2F11qrsmc91p!19sChIJ6RhSzZw3mDkRwulGQSAsguY?authuser=0&hl=en&rclk=1,"27.85177,81.94223819999999"
New Masjid Begampur,Mosque,"New Masjid Begampur, 26, Begumpur, New Delhi, Delhi 110017",Begumpur,26,New Delhi,110017,Delhi,IN,https://www.google.com/maps/place/New+Masjid+Begampur/data=!4m7!3m6!1s0x390ce30ae2909c87:0x4a3dda5610ebfb86!8m2!3d28.5380415!4d77.2083668!16s%2Fg%2F11t59h8jbc!19sChIJh5yQ4grjDDkRhvvrEFbaPUo?authuser=0&hl=en&rclk=1,"28.5380415,77.2083668"
phaaruuk'ii msjid,Mosque,"phaaruuk'ii msjid, P1 / 488, Block P, Sultanpuri, New Delhi, Delhi, 110086","Block P, Sultanpuri",P1 / 488,"New Delhi, Delhi",110086,Delhi,IN,https://www.google.com/maps/place/%E0%A4%AB%E0%A4%BE%E0%A4%B0%E0%A5%82%E0%A4%95%E0%A4%BC%E0%A5%80+%E0%A4%AE%E0%A4%B8%E0%A5%8D%E0%A4%9C%E0%A4%BF%E0%A4%A6/data=!4m7!3m6!1s0x390d056907c05221:0x5718087f433958ef!8m2!3d28.7017328!4d77.0848303!16s%2Fg%2F11ryrwj27v!19sChIJIVLAB2kFDTkR71g5Q38IGFc?authuser=0&hl=en&rclk=1,"28.7017328,77.0848303"
Depo Wali Masjid,Mosque,"H559+26W Depo Wali Masjid, Unnamed Road, Basant Lok, Vasant Vihar, New Delhi, Delhi 110070","Basant Lok, Vasant Vihar","H559+26W, Unnamed Road",New Delhi,110070,Delhi,IN,https://www.google.com/maps/place/Depo+Wali+Masjid/data=!4m7!3m6!1s0x390d1d964513d629:0x8d4bd74a0cdc5aa6!8m2!3d28.557603!4d77.1680784!16s%2Fg%2F11h6t6kq7k!19sChIJKdYTRZYdDTkRplrcDErXS40?authuser=0&hl=en&rclk=1,"28.557603,77.1680784"
Kandosa Purwa Masjid,Mosque,"9FQP+HV7 Kandosa Purwa Masjid, Kundas Para, Uttar Pradesh 271902",,9FQP+HV7,Kundas Para,271902,Uttar Pradesh,IN,https://www.google.com/maps/place/Kandosa+Purwa+Masjid/data=!4m7!3m6!1s0x399909ec3a2e7499:0x553708770238d7d1!8m2!3d27.3889237!4d81.487187!16s%2Fg%2F11j0qwc9_d!19sChIJmXQuOuwJmTkR0dc4AncIN1U?authuser=0&hl=en&rclk=1,"27.3889237,81.48718699999999"
Gausiya masjid Badal Purwa,Mosque,"QMGC+JX Gausiya masjid Badal Purwa, Patpar Ganj, Uttar Pradesh 271803",,QMGC+JX,Patpar Ganj,,Uttar Pradesh,IN,https://www.google.com/maps/place/Gausiya+masjid+Badal+Purwa/data=!4m7!3m6!1s0x399851dbf26095cf:0x8c3990b3b130d6a7!8m2!3d27.7765569!4d81.6724632!16s%2Fg%2F11sdxhhby5!19sChIJz5Vg8ttRmDkRp9YwsbOQOYw?authuser=0&hl=en&rclk=1,"27.7765569,81.6724632"
Ayesha Masjid & Madarsa Faijululoom Bajar Purwa,Mosque,"9WCF+H42 Ayesha Masjid & Madarsa Faijululoom Bajar Purwa, Lalapur, Uttar Pradesh 262906",,9WCF+H42,Lalapur,262906,Uttar Pradesh,IN,https://www.google.com/maps/place/Ayesha+Masjid+%26+Madarsa+Faijululoom+Bajar+Purwa/data=!4m7!3m6!1s0x39a2070ce94cfcc1:0x2fd419e45300d26f!8m2!3d28.3713822!4d80.9227504!16s%2Fg%2F11pbzkg1b2!19sChIJwfxM6QwHojkRb9IAU-QZ1C8?authuser=0&hl=en&rclk=1,"28.3713822,80.9227504"
Buddhupurwa masjid,Mosque,"2CGH+799 Buddhupurwa masjid, Kundwa, Uttar Pradesh 271855",,2CGH+799,Kundwa,,Uttar Pradesh,IN,https://www.google.com/maps/place/Buddhupurwa+masjid/data=!4m7!3m6!1s0x3998f5192d961119:0x476161b7962ef845!8m2!3d28.0256627!4d81.4284978!16s%2Fg%2F11q4bqjgy0!19sChIJGRGWLRn1mDkRRfgulrdhYUc?authuser=0&hl=en&rclk=1,"28.025662699999998,81.4284978"
Goushiya Masjid,Mosque,"QMVR+RJR Goushiya Masjid, Naseer Purwa Road, Uttar Pradesh 271875",,"QMVR+RJR, Naseer Purwa Road",Mahadeva Salarpur,271875,Uttar Pradesh,IN,https://www.google.com/maps/place/Goushiya+Masjid/data=!4m7!3m6!1s0x39984f54ec1c5023:0xa0805af1fa54289a!8m2!3d27.7946025!4d81.6915045!16s%2Fg%2F11mjnqwpbr!19sChIJI1Ac7FRPmDkRmihU-vFagKA?authuser=0&hl=en&rclk=1,"27.7946025,81.6915045"
Meo Masjid,Mosque,"XGM3+Q27 Meo Masjid, Alampur Fatehpur, Uttar Pradesh 202133",,XGM3+Q27,Alampur Fatehpur,202133,Uttar Pradesh,IN,https://www.google.com/maps/place/Meo+Masjid/data=!4m7!3m6!1s0x3974da94197d4cb9:0x901d3525fdf99e79!8m2!3d27.9844064!4d78.5025374!16s%2Fg%2F11c6q9m4d5!19sChIJuUx9GZTadDkReZ75_SU1HZA?authuser=0&hl=en&rclk=1,"27.984406399999997,78.5025374"
Noori masjid,Mosque,"R8R4+X2J Noori masjid, Dallapurwa, Uttar Pradesh 271830",,R8R4+X2J,Dallapurwa,,Uttar Pradesh,IN,https://www.google.com/maps/place/Noori+masjid/data=!4m7!3m6!1s0x3998efc7e6d0a26b:0x47cb2fd744df4c39!8m2!3d27.8424733!4d81.3050283!16s%2Fg%2F11sd86pvk7!19sChIJa6LQ5sfvmDkROUzfRNcvy0c?authuser=0&hl=en&rclk=1,"27.842473299999998,81.30502829999999"
Pagdi Walo Ki Masjid,Mosque,"H966+93R Pagdi Walo Ki Masjid, Maursidabad, Uttar Pradesh 209502",,H966+93R,Maursidabad,209502,Uttar Pradesh,IN,https://www.google.com/maps/place/Pagdi+Walo+Ki+Masjid/data=!4m7!3m6!1s0x39757fcadc400de7:0x412195713b2706dd!8m2!3d27.5609851!4d79.36014!16s%2Fg%2F11gbxcq6t6!19sChIJ5w1A3Mp_dTkR3QYnO3GVIUE?authuser=0&hl=en&rclk=1,"27.5609851,79.36014"
Mohan purwa masjid,Mosque,"XRFM+HH Mohan purwa masjid, Shitalapur, Uttar Pradesh 262701",,XRFM+HH,Shitalapur,262701,Uttar Pradesh,IN,https://www.google.com/maps/place/Mohan+purwa+masjid/data=!4m7!3m6!1s0x3998cb3cefc375bf:0x280c8852292b25c4!8m2!3d27.9740183!4d80.83407!16s%2Fg%2F11s30vbk24!19sChIJv3XD7zzLmDkRxCUrKVKIDCg?authuser=0&hl=en&rclk=1,"27.974018299999997,80.83407"
Sai Purwa Masjid,Mosque,"JG3C+M5 Sai Purwa Masjid, Baukaha, Uttar Pradesh 271825",,JG3C+M5,Baukaha,,Uttar Pradesh,IN,https://www.google.com/maps/place/Sai+Purwa+Masjid/data=!4m7!3m6!1s0x3999abd0afac915f:0x18daf6bf717f45b!8m2!3d27.6041912!4d81.5203816!16s%2Fg%2F11jyxc3d09!19sChIJX5Gsr9CrmTkRW_QX92uvjQE?authuser=0&hl=en&rclk=1,"27.6041912,81.5203816"
Jama masjid julahan Purva,Mosque,"GH8H+F5H Jama masjid julahan Purva, Husenpur, Uttar Pradesh 271801",,GH8H+F5H,Husenpur,271801,Uttar Pradesh,IN,https://www.google.com/maps/place/Jama+masjid+julahan+Purva/data=!4m7!3m6!1s0x3999a931d6c42c1d:0xd145db0efe98eecf!8m2!3d27.5161952!4d81.5779863!16s%2Fg%2F11s1s1dct7!19sChIJHSzE1jGpmTkRz-6Y_g7bRdE?authuser=0&hl=en&rclk=1,"27.5161952,81.57798629999999"
Gousiya Masjid karamat purva,Mosque,"MMQC+7HJ Gousiya Masjid karamat purva, Acharaura, Uttar Pradesh 271802",,MMQC+7HJ,Acharaura,271802,Uttar Pradesh,IN,https://www.google.com/maps/place/Gousiya+Masjid+karamat+purva/data=!4m7!3m6!1s0x399853467a4487d1:0x13fa7a9fbcd89689!8m2!3d27.6882115!4d81.6713883!16s%2Fg%2F11jwfgf7fz!19sChIJ0YdEekZTmDkRiZbYvJ96-hM?authuser=0&hl=en&rclk=1,"27.688211499999998,81.67138829999999"
Matanpurwa Masjid,Mosque,"MVWJ+95H Matanpurwa Masjid, Rajapur, Uttar Pradesh 261135",,MVWJ+95H,Rajapur,261135,Uttar Pradesh,IN,https://www.google.com/maps/place/Matanpurwa+Masjid/data=!4m7!3m6!1s0x3998d529bd356539:0x1d17f83b24d0b515!8m2!3d27.6959317!4d80.8804806!16s%2Fg%2F11gs5nh6y4!19sChIJOWU1vSnVmDkRFbXQJDv4Fx0?authuser=0&hl=en&rclk=1,"27.6959317,80.8804806"
Rajwapur masjid,Mosque,"5MHM+42Q Rajwapur masjid, Rajawapur, Chhataura, Uttar Pradesh 271502",,5MHM+42Q,"Rajawapur, Chhataura",271502,Uttar Pradesh,IN,https://www.google.com/maps/place/Rajwapur+masjid/data=!4m7!3m6!1s0x39999b5c9e3dced5:0x51f04cf68dc9448c!8m2!3d27.1778367!4d81.6826117!16s%2Fg%2F11nyjrvj00!19sChIJ1c49nlybmTkRjETJjfZM8FE?authuser=0&hl=en&rclk=1,"27.1778367,81.6826117"
Masjid Kallu Purwa,Mosque,"323Q+G52 Masjid Kallu Purwa, Kallu Purwa, Uttar Pradesh 225302",,323Q+G52,Kallu Purwa,225302,Uttar Pradesh,IN,https://www.google.com/maps/place/Masjid+Kallu+Purwa/data=!4m7!3m6!1s0x39995b596ec8c0c5:0xaf37118c3e17a729!8m2!3d27.0537587!4d81.0378837!16s%2Fg%2F11r8_12qn2!19sChIJxcDIbllbmTkRKacXPowRN68?authuser=0&hl=en&rclk=1,"27.0537587,81.0378837"
Sunni jama Masjid Bichle Purwa Near Gonda City',Mosque,"3XQF+2PJ Sunni jama Masjid Bichle Purwa Near Gonda City', Banghusra, Uttar Pradesh 271123",,3XQF+2PJ,Banghusra,271123,Uttar Pradesh,IN,https://www.google.com/maps/place/Sunni+jama+Masjid+Bichle+Purwa+Near+Gonda+City%27/data=!4m7!3m6!1s0x3999f165ae66ba51:0xbba6c050e1474bf9!8m2!3d27.0875893!4d81.9742768!16s%2Fg%2F11p0yf1r4v!19sChIJUbpmrmXxmTkR-UtH4VDAprs?authuser=0&hl=en&rclk=1,"27.087589299999998,81.9742768"
Qadri masjid (qdry msjd),Mosque,"V9X6+84P Qadri masjid (qdry msjd), Pandit purwa, Daljit Purwa, Uttar Pradesh 271830",Pandit purwa,V9X6+84P,Daljit Purwa,,Uttar Pradesh,IN,https://www.google.com/maps/place/Qadri+masjid+%28%D9%82%D8%A7%D8%AF%D8%B1%DB%8C+%D9%85%D8%B3%D8%AC%D8%AF%29%E2%80%AD/data=!4m7!3m6!1s0x3998f18c23290b2f:0xc6b8a9352cd1f29b!8m2!3d27.898348!4d81.360316!16s%2Fg%2F11l25469lr!19sChIJLwspI4zxmDkRm_LRLDWpuMY?authuser=0&hl=en&rclk=1,"27.898348,81.360316"
Noori Masjid Teliyan Purwa,Mosque,"MJ8R+4W5 Noori Masjid Teliyan Purwa, Teliyan purwa, Katiliya Bhup Singh, Uttar Pradesh 271802",,"MJ8R+4W5, Teliyan purwa",Katiliya Bhup Singh,271802,Uttar Pradesh,IN,https://www.google.com/maps/place/Noori+Masjid+Teliyan+Purwa/data=!4m7!3m6!1s0x3999adfc3f4cefdd:0xb1eda6b05636e438!8m2!3d27.6652512!4d81.6423501!16s%2Fg%2F11hdvk1nzm!19sChIJ3e9MP_ytmTkROOQ2VrCm7bE?authuser=0&hl=en&rclk=1,"27.6652512,81.6423501"
Amkotwa purwa Eidgah,Mosque,"WVR2+6J Amkotwa purwa Eidgah, Amkotwa, Uttar Pradesh 262701",,WVR2+6J,Amkotwa,,Uttar Pradesh,IN,https://www.google.com/maps/place/Amkotwa+purwa+Eidgah/data=!4m7!3m6!1s0x3998cb4446212253:0x6c3e1f37acca491f!8m2!3d27.9406014!4d80.8515406!16s%2Fg%2F11s22_jv0b!19sChIJUyIhRkTLmDkRH0nKrDcfPmw?authuser=0&hl=en&rclk=1,"27.9406014,80.85154059999999"
Amina Kareem Masjid,Mosque,"5G5R+V7R Amina Kareem Masjid, Jarwal Rd, Naya Purwa, Jarwal, Uttar Pradesh 271904",,"5G5R+V7R, Jarwal Rd","Naya Purwa, Jarwal",271904,Uttar Pradesh,IN,https://www.google.com/maps/place/Amina+Kareem+Masjid/data=!4m7!3m6!1s0x39999deb4e6bbe1b:0xed263e20d9044686!8m2!3d27.1597369!4d81.5406535!16s%2Fg%2F11r3hvbgsx!19sChIJG75rTuudmTkRhkYE2SA-Ju0?authuser=0&hl=en&rclk=1,"27.1597369,81.54065349999999"
Aysha Masjid,Mosque,"4P3R+P6P Aysha Masjid, Majh Purwa, Murad Ganj, Uttar Pradesh 209722",,4P3R+P6P,"Majh Purwa, Murad Ganj",209722,Uttar Pradesh,IN,https://www.google.com/maps/place/Aysha+Masjid/data=!4m7!3m6!1s0x399e6b1ee98d87f5:0xf8e5c5f3a46fc09d!8m2!3d27.1043434!4d79.7405642!16s%2Fg%2F11fmmtxn86!19sChIJ9YeN6R5rnjkRncBvpPPF5fg?authuser=0&hl=en&rclk=1,"27.104343399999998,79.7405642"
Madina masjid,Mosque,"GW52+JJC Madina masjid, Biswan - Sitapur Rd, Purwa Dasapur, Uttar Pradesh 261145",,"GW52+JJC, Biswan - Sitapur Rd",Purwa Dasapur,261145,Uttar Pradesh,IN,https://www.google.com/maps/place/Madina+masjid/data=!4m7!3m6!1s0x39992fa038839025:0x8b0b95d595b47831!8m2!3d27.5090501!4d80.9015225!16s%2Fg%2F11n308gvlt!19sChIJJZCDOKAvmTkRMXi0ldWVC4s?authuser=0&hl=en&rclk=1,"27.5090501,80.9015225"
Masjid,Mosque,"X624+2CQ Masjid, Murtaza Pur, Uttar Pradesh 209869",,X624+2CQ,Murtaza Pur,209869,Uttar Pradesh,IN,https://www.google.com/maps/place/Masjid/data=!4m7!3m6!1s0x399e843e26e8dcbd:0x65e95760ea984213!8m2!3d26.9500772!4d80.2060976!16s%2Fg%2F11f2wcpxqd!19sChIJvdzoJj6EnjkRE0KY6mBX6WU?authuser=0&hl=en&rclk=1,"26.9500772,80.20609759999999"
JUMMA MASJID jumaa msjid,Mosque,"J5CV+5GW JUMMA MASJID jumaa msjid, Chaubepur - Bithoor Rd, Tari Pathakpur, Bhindury, Uttar Pradesh 209203",,"J5CV+5GW, Chaubepur - Bithoor Rd","Tari Pathakpur, Bhindury",209203,Uttar Pradesh,IN,https://www.google.com/maps/place/JUMMA+MASJID+%E0%A4%9C%E0%A5%81%E0%A4%AE%E0%A4%BE+%E0%A4%AE%E0%A4%B8%E0%A5%8D%E0%A4%9C%E0%A4%BF%E0%A4%A6/data=!4m7!3m6!1s0x399c31965b00a837:0x9622c5e6aa091482!8m2!3d26.6204785!4d80.1938297!16s%2Fg%2F11rwm73g2v!19sChIJN6gAW5YxnDkRghQJqubFIpY?authuser=0&hl=en&rclk=1,"26.620478499999997,80.1938297"
Jama Masjid Aurahwa,Mosque,"FJF5+F4G Jama Masjid Aurahwa, Aurahwa, Uttar Pradesh 271215",,FJF5+F4G,Aurahwa,,Uttar Pradesh,IN,https://www.google.com/maps/place/Jama+Masjid+Aurahwa/data=!4m7!3m6!1s0x399713b91d83c9d3:0x1c7b0cb0d6a65a36!8m2!3d27.4736876!4d82.6078205!16s%2Fg%2F11fm5y99zr!19sChIJ08mDHbkTlzkRNlqm1rAMexw?authuser=0&hl=en&rclk=1,"27.473687599999998,82.6078205"
Masjid purwa peer baksh,Mosque,"XP82+G7M Masjid purwa peer baksh, Purwa peer baksh, Gola Kuan, Uttar Pradesh 250002",Muftiyan,"XP82+G7M, Purwa peer baksh, Gola Kuan",Meerut,250002,Uttar Pradesh,IN,https://www.google.com/maps/place/Masjid+purwa+peer+baksh/data=!4m7!3m6!1s0x390c650074ae6879:0x209f3c3c0f84f0f8!8m2!3d28.9663275!4d77.7006668!16s%2Fg%2F11h5l54gyd!19sChIJeWiudABlDDkR-PCEDzw8nyA?authuser=0&hl=en&rclk=1,"28.9663275,77.7006668"
Masjid Shatoot Wali,Mosque,"M67H+G5Q Masjid Shatoot Wali, Chhota Bazar, Mori Gate, New Delhi, Delhi, 110006","Chhota Bazar, Mori Gate",M67H+G5Q,"New Delhi, Delhi",110006,Delhi,IN,https://www.google.com/maps/place/Masjid+Shatoot+Wali/data=!4m7!3m6!1s0x390cfdd8114d08fd:0x326042596014276a!8m2!3d28.663827!4d77.2279973!16s%2Fg%2F11g4h_zjtj!19sChIJ_QhNEdj9DDkRaicUYFlCYDI?authuser=0&hl=en&rclk=1,"28.663826999999998,77.2279973"
Masjid ubarpur,Mosque,"MQC8+XMW Masjid ubarpur, Hafizpur Ubarpur, Uttar Pradesh 245101",,MQC8+XMW,Hafizpur Ubarpur,,Uttar Pradesh,IN,https://www.google.com/maps/place/Masjid+ubarpur/data=!4m7!3m6!1s0x390c9bb41bca8969:0x94e9845e783bb337!8m2!3d28.6724836!4d77.7667153!16s%2Fg%2F11rqv9w39g!19sChIJaYnKG7SbDDkRN7M7eF6E6ZQ?authuser=0&hl=en&rclk=1,"28.6724836,77.7667153"
Allahbakhsh Purwa Nayi masjid,Mosque,"JHW4+VVR Allahbakhsh Purwa Nayi masjid, Allahbakhsh Purwa Rd, Allahbakhsh Purwa, Bhagwanpur Mafi, Uttar Pradesh 271875",Allahbakhsh Purwa,"JHW4+VVR, Allahbakhsh Purwa Rd",Bhagwanpur Mafi,271875,Uttar Pradesh,IN,https://www.google.com/maps/place/Allahbakhsh+Purwa+Nayi+masjid/data=!4m7!3m6!1s0x3999ab168355b633:0xeeedb3df0ee0ec6c!8m2!3d27.6469004!4d81.5584318!16s%2Fg%2F11sf6t171_!19sChIJM7ZVgxarmTkRbOzgDt-z7e4?authuser=0&hl=en&rclk=1,"27.6469004,81.5584318"
Masjid afjal purwa,Mosque,"5WF8+88 Masjid afjal purwa, Dhobaha Ray, Uttar Pradesh 271003",,5WF8+88,Dhobaha Ray,,Uttar Pradesh,IN,https://www.google.com/maps/place/Masjid+afjal+purwa/data=!4m7!3m6!1s0x3999ed3c3580c5ed:0xda3152621fcc52c6!8m2!3d27.1733749!4d81.9157999!16s%2Fg%2F11v0c7mgzt!19sChIJ7cWANTztmTkRxlLMH2JSMdo?authuser=0&hl=en&rclk=1,"27.1733749,81.9157999"
Masjid Gulaab purwa,Mosque,"PM52+M7V Masjid Gulaab purwa, Bahboliya Mahada, Uttar Pradesh 271875",,PM52+M7V,Bahboliya Mahada,271875,Uttar Pradesh,IN,https://www.google.com/maps/place/Masjid+Gulaab+purwa/data=!4m7!3m6!1s0x399853977c0ebc43:0xa362ac95f67ac9f5!8m2!3d27.7092591!4d81.6506914!16s%2Fg%2F11s2yh0xx5!19sChIJQ7wOfJdTmDkR9cl69pWsYqM?authuser=0&hl=en&rclk=1,"27.709259099999997,81.6506914"
Kandosa Purwa Masjid,Mosque,"7G2W+HWX Kandosa Purwa Masjid, Bahraich kandawsa, Kaisarganj, Uttar Pradesh 271902",,"7G2W+HWX, Bahraich kandawsa","Kaisarganj, Dihawa Sher Bahadur Si",271902,Uttar Pradesh,IN,https://www.google.com/maps/place/Kandosa+Purwa+Masjid/data=!4m7!3m6!1s0x39999fd88103a239:0xdbd1d5557616c38f!8m2!3d27.2514825!4d81.5473721!16s%2Fg%2F11j2ydd674!19sChIJOaIDgdifmTkRj8MWdlXV0ds?authuser=0&hl=en&rclk=1,"27.251482499999998,81.54737209999999"
MASJID SHEKH PURWA msjid shekhpur rhmaan khaan,Mosque,"PM9Q+4V2 MASJID SHEKH PURWA msjid shekhpur rhmaan khaan, Utghaniya, Patna Ghusiyari, Uttar Pradesh 271802",,PM9Q+4V2,"Utghaniya, Patna Ghusiyari",271802,Uttar Pradesh,IN,https://www.google.com/maps/place/MASJID+SHEKH+PURWA+%E0%A4%AE%E0%A4%B8%E0%A5%8D%E0%A4%9C%E0%A4%BF%E0%A4%A6+%E0%A4%B6%E0%A5%87%E0%A4%96%E0%A4%AA%E0%A5%81%E0%A4%B0+%E0%A4%B0%E0%A4%B9%E0%A4%AE%E0%A4%BE%E0%A4%A8+%E0%A4%96%E0%A4%BE%E0%A4%A8/data=!4m7!3m6!1s0x39985390aa876a23:0xf8060142059b6178!8m2!3d27.7177599!4d81.6896417!16s%2Fg%2F11v0v3590j!19sChIJI2qHqpBTmDkReGGbBUIBBvg?authuser=0&hl=en&rclk=1,"27.717759899999997,81.6896417"
Masjid bachilan purwa,Mosque,"C3QH+VG Masjid bachilan purwa, Sheorukh Kalan, Uttar Pradesh 261201",,C3QH+VG,Sheorukh Kalan,,Uttar Pradesh,IN,https://www.google.com/maps/place/Masjid+bachilan+purwa/data=!4m7!3m6!1s0x39993df7fb9bd12f:0xc4518f17a4aedd30!8m2!3d27.4401068!4d81.0796283!16s%2Fg%2F11jymxhzcw!19sChIJL9Gb-_c9mTkRMN2upBePUcQ?authuser=0&hl=en&rclk=1,"27.4401068,81.0796283"
Ayesha masjid Imran Purwa,Mosque,"Ayesha masjid Imran Purwa, Ayesha Masjid Imran Purwa, Bhawanipur Bankar, Uttar Pradesh 271845",,Ayesha Masjid Imran Purwa,"Bhawanipur Bankar, Khargaura Janoob",271845,Uttar Pradesh,IN,https://www.google.com/maps/place/Ayesha+masjid+Imran+Purwa/data=!4m7!3m6!1s0x3999c7ea3a0e9b29:0x8f3d13998e4910cc!8m2!3d27.4603555!4d81.9525462!16s%2Fg%2F11fpg61h4p!19sChIJKZsOOurHmTkRzBBJjpkTPY8?authuser=0&hl=en&rclk=1,"27.4603555,81.9525462"
Pathan Ka Purwa Madina Masjid,Mosque,"MJV8+JF Pathan Ka Purwa Madina Masjid, Sherpur, Duwarika Pur, Uttar Pradesh 224118",,MJV8+JF,"Sherpur, Duwarika Pur",224118,Uttar Pradesh,IN,https://www.google.com/maps/place/Pathan+Ka+Purwa+Madina+Masjid/data=!4m7!3m6!1s0x399a3143d60527db:0x71b93a8a1a5c6766!8m2!3d26.6940625!4d81.6161875!16s%2Fg%2F11kj4kl97c!19sChIJ2ycF1kMxmjkRZmdcGoo6uXE?authuser=0&hl=en&rclk=1,"26.694062499999998,81.6161875"
Masjid madkain ka Purwa,Mosque,"JVXJ+586 Masjid madkain ka Purwa, Shivalay Rd, Taldholi, Uttar Pradesh 224228",,"JVXJ+586, Shivalay Rd",Taldholi,224228,Uttar Pradesh,IN,https://www.google.com/maps/place/Masjid+madkain+ka+Purwa/data=!4m7!3m6!1s0x399a1599f497aaff:0x52dc067ba5ba4701!8m2!3d26.6479082!4d81.8807756!16s%2Fg%2F11s9by2nc7!19sChIJ_6qX9JkVmjkRAUe6pXsG3FI?authuser=0&hl=en&rclk=1,"26.6479082,81.88077559999999"
Masjid,Mosque,"94WX+8HF Masjid, Unnamed Road, Mangli Purwa, Saiyapurwa, Hardoi, Uttar Pradesh 241001","Mangli Purwa, Saiyapurwa","94WX+8HF, Unnamed Road",Hardoi,241001,Uttar Pradesh,IN,https://www.google.com/maps/place/Masjid/data=!4m7!3m6!1s0x399ef94f50da127d:0xb65e00ff5de3bb54!8m2!3d27.3958038!4d80.1489191!16s%2Fg%2F11nxsbl9zl!19sChIJfRLaUE_5njkRVLvjXf8AXrY?authuser=0&hl=en&rclk=1,"27.3958038,80.1489191"
Noorani Masjid Fakiran Purwa Dharampur,Mosque,"V8RF+QJV Noorani Masjid Fakiran Purwa Dharampur, Unnamed Road, Dharampur, Jiv Narainpur, Uttar Pradesh 272130",,"V8RF+QJV, Unnamed Road","Dharampur, Jiv Narainpur",272130,Uttar Pradesh,IN,https://www.google.com/maps/place/Noorani+Masjid+Fakiran+Purwa+Dharampur/data=!4m7!3m6!1s0x3990ad0cdbdf491f:0x9ffc386b9b17229!8m2!3d26.8919856!4d82.3240322!16s%2Fg%2F11pb0w9xdj!19sChIJH0nf2wytkDkRKXKxuYbD_wk?authuser=0&hl=en&rclk=1,"26.891985599999998,82.32403219999999"
Masjid-e-Nabvi Chand Khan Purwa,Mosque,"65G3+F5Q Masjid-e-Nabvi Chand Khan Purwa, Sujauli Rd, Sujauli, Uttar Pradesh 271841",,"65G3+F5Q, Sujauli Rd",Sujauli,271841,Uttar Pradesh,IN,https://www.google.com/maps/place/Masjid-e-Nabvi+Chand+Khan+Purwa/data=!4m7!3m6!1s0x3998a299d46e5e61:0x71ea4b47993c4275!8m2!3d28.2262064!4d81.1529894!16s%2Fg%2F11f0krnw88!19sChIJYV5u1JmimDkRdUI8mUdL6nE?authuser=0&hl=en&rclk=1,"28.2262064,81.1529894"
Noori masjid dafali purwa mniiss haashmii,Housing society,"Noori masjid dafali purwa mniiss haashmii, Dulhapur Gajadhar, Uttar Pradesh 271202",,,Dulhapur Gajadhar,271202,Uttar Pradesh,IN,https://www.google.com/maps/place/Noori+masjid+dafali+purwa+%E0%A4%AE%E0%A4%A8%E0%A5%80%E0%A4%B7+%E0%A4%B9%E0%A4%BE%E0%A4%B6%E0%A4%AE%E0%A5%80/data=!4m7!3m6!1s0x3999e9c5069802a3:0x30a23069e1291b7!8m2!3d27.2469991!4d82.0034793!16s%2Fg%2F11scs4y2zw!19sChIJowKYBsXpmTkRt5ESngYjCgM?authuser=0&hl=en&rclk=1,"27.2469991,82.0034793"
Jama masjid wazeedpur,Mosque,"XQW4+FWR3 Jama masjid wazeedpur, Wazeedpur, Uttar Pradesh 244401",,XQW4+FWR3,Wazeedpur,,Uttar Pradesh,IN,https://www.google.com/maps/place/Jama+masjid+wazeedpur/data=!4m7!3m6!1s0x390a570524e280e7:0xaaf4d0f14035ca50!8m2!3d28.9962275!4d78.7572617!16s%2Fg%2F11s75fkgx9!19sChIJ54DiJAVXCjkRUMo1QPHQ9Ko?authuser=0&hl=en&rclk=1,"28.9962275,78.7572617"
Iddar masjid,Mosque,"V48Q+6HM Iddar masjid, Chaudhry Purwa, Nawabganj, Uttar Pradesh 271303",Chaudhry Purwa,V48Q+6HM,Nawabganj,,Uttar Pradesh,IN,https://www.google.com/maps/place/Iddar+masjid/data=!4m7!3m6!1s0x399a0104f26d2483:0x2d954859c22b7f70!8m2!3d26.8655854!4d82.1389339!16s%2Fg%2F11t9x55jh4!19sChIJgyRt8gQBmjkRcH8rwllIlS0?authuser=0&hl=en&rclk=1,"26.8655854,82.1389339"
Jama Masjid Fatima Pathan Purw jm` msjd fTmh ptthn pwrwh,Mosque,"Jama Masjid Fatima Pathan Purw jm` msjd fTmh ptthn pwrwh, Pathan purwa, Khargaura Janoob, Uttar Pradesh 271845",,Pathan purwa,Khargaura Janoob,271845,Uttar Pradesh,IN,https://www.google.com/maps/place/Jama+Masjid+Fatima+Pathan+Purw+%D8%AC%D8%A7%D9%85%D8%B9+%D9%85%D8%B3%D8%AC%D8%AF+%D9%81%D8%A7%D8%B7%D9%85%DB%81+%D9%BE%D9%B9%DA%BE%D8%A7%D9%86+%D9%BE%D9%88%D8%B1%D9%88%DB%81%E2%80%AD/data=!4m7!3m6!1s0x3999c5e1d13c8d3b:0xac5e9bb982ac1bc0!8m2!3d27.4483801!4d81.962698!16s%2Fg%2F11nn74dp2y!19sChIJO4080eHFmTkRwBusgrmbXqw?authuser=0&hl=en&rclk=1,"27.448380099999998,81.962698"
Bilal masjid,Mosque,"Bilal masjid, Khwaja Ka purwa, Rajauli, Uttar Pradesh 226026",,Khwaja Ka purwa,Rajauli,226026,Uttar Pradesh,IN,https://www.google.com/maps/place/Bilal+masjid/data=!4m7!3m6!1s0x39995910e296481b:0xdfcec6ae6bb1571c!8m2!3d26.9580822!4d81.0352873!16s%2Fg%2F11pcn547ns!19sChIJG0iW4hBZmTkRHFexa67Gzt8?authuser=0&hl=en&rclk=1,"26.9580822,81.0352873"
MASJID E FAIZAN E MADINA,Mosque,"VHQ6+6WV MASJID E FAIZAN E MADINA, Nai Bazar, Dariyabad, Khubaka Purwa, Uttar Pradesh 225403",Nai Bazar,VHQ6+6WV,"Dariyabad, Khubaka Purwa",225403,Uttar Pradesh,IN,https://www.google.com/maps/place/MASJID+E+FAIZAN+E+MADINA/data=!4m7!3m6!1s0x399a2b037b21ca3f:0xcbca7a27bf390d8d!8m2!3d26.8881055!4d81.5622945!16s%2Fg%2F11rgsyx9_z!19sChIJP8ohewMrmjkRjQ05vyd6yss?authuser=0&hl=en&rclk=1,"26.888105499999998,81.5622945"
Masjid Bodsawala Wali,Mosque,"Masjid Bodsawala Wali, 2370,Chatta Shahji,Chawri Bazar, Dharam Pura Rd, Nai Wala, Chandni Chowk, New Delhi, Delhi 110006","Nai Wala, Chandni Chowk","2370,Chatta Shahji,Chawri Bazar, Dharam Pura Rd","New Delhi, Delhi",110006,Delhi,IN,https://www.google.com/maps/place/Masjid+Bodsawala+Wali/data=!4m7!3m6!1s0x390cfd19b6b59b81:0x1d0c8dba8ab5b549!8m2!3d28.6509214!4d77.2308029!16s%2Fg%2F1ptx9cfbw!19sChIJgZu1thn9DDkRSbW1irqNDB0?authuser=0&hl=en&rclk=1,"28.650921399999998,77.2308029"
MASJID BURNA QURESH NAGAR,Mosque,"MASJID BURNA QURESH NAGAR, Masjid, Gali Barna, Quresh Nagar, Naulakha, Sarai Khalil, Sadar Bazaar, Delhi, 110006","Quresh Nagar, Naulakha, Sarai Khalil, Sadar Bazaar","Masjid, Gali Barna",Delhi,110006,Delhi,IN,https://www.google.com/maps/place/MASJID+BURNA+QURESH+NAGAR/data=!4m7!3m6!1s0x390cfd3d778af761:0x1c8c55265cb97e56!8m2!3d28.6558265!4d77.2088988!16s%2Fg%2F11jz6fqf68!19sChIJYfeKdz39DDkRVn65XCZVjBw?authuser=0&hl=en&rclk=1,"28.6558265,77.2088988"
Masjid purwa,Mosque,"WQWH+FFQ Masjid purwa, Maharaj Nagar, Lakhimpur, Uttar Pradesh 262701",Maharaj Nagar,WQWH+FFQ,Lakhimpur,,Uttar Pradesh,IN,https://www.google.com/maps/place/Masjid+purwa/data=!4m7!3m6!1s0x399f3505f1d24ed3:0x16e12e5923022b6a!8m2!3d27.9462147!4d80.7787369!16s%2Fg%2F11str7mmys!19sChIJ007S8QU1nzkRaisCI1ku4RY?authuser=0&hl=en&rclk=1,"27.9462147,80.7787369"
Masjid,Mosque,"H662+8G4 Masjid, Green Park Ext Rd, Block J, Green Park Extension, Green Park, New Delhi, Delhi 110016","Block J, Green Park Extension, Green Park","H662+8G4, Green Park Ext Rd",New Delhi,110016,Delhi,IN,https://www.google.com/maps/place/Masjid/data=!4m7!3m6!1s0x390ce3053c6f74cf:0x33b8d79c09cb4f99!8m2!3d28.5607743!4d77.2013357!16s%2Fg%2F11krd8fpw7!19sChIJz3RvPAXjDDkRmU_LCZzXuDM?authuser=0&hl=en&rclk=1,"28.5607743,77.2013357"
Mukhmelpur Masjid/Eidgaha,Mosque,"Q5R8+M66 Mukhmelpur Masjid/Eidgaha, Mukhmelpur, Delhi, 110036",Mukhmelpur,Q5R8+M66,Delhi,110036,Delhi,IN,https://www.google.com/maps/place/Mukhmelpur+Masjid%2FEidgaha/data=!4m7!3m6!1s0x390d0157272287db:0xd0510c14ae9e6db3!8m2!3d28.7916576!4d77.1655125!16s%2Fg%2F11rnczcrft!19sChIJ24ciJ1cBDTkRs22erhQMUdA?authuser=0&hl=en&rclk=1,"28.791657599999997,77.16551249999999"
Masjid Haji Hakimuddin Kallu Purwa,Mosque,"Masjid Haji Hakimuddin Kallu Purwa, Near, Kursi Rd, Kallu Purwa, Uttar Pradesh 225302",,"Near, Kursi Rd",Kallu Purwa,225302,Uttar Pradesh,IN,https://www.google.com/maps/place/Masjid+Haji+Hakimuddin+Kallu+Purwa/data=!4m7!3m6!1s0x39995bc310c13293:0x428aa7ffb6268bb5!8m2!3d27.0510622!4d81.0418795!16s%2Fg%2F11ls4mlhgf!19sChIJkzLBEMNbmTkRtYsmtv-nikI?authuser=0&hl=en&rclk=1,"27.0510622,81.0418795"
Masjid khairi Purwa,Mosque,"QFVV+XX Masjid khairi Purwa, Jura, Uttar Pradesh 271882",,QFVV+XX,Jura,,Uttar Pradesh,IN,https://www.google.com/maps/place/Masjid+khairi+Purwa/data=!4m7!3m6!1s0x3998f996eabc0991:0x41fd4f29a3e4c25b!8m2!3d27.7949461!4d81.4948912!16s%2Fg%2F11v5xr9z09!19sChIJkQm86pb5mDkRW8LkoylP_UE?authuser=0&hl=en&rclk=1,"27.794946099999997,81.4948912"
The masjid sohrat purwa,Mosque,"3QRH+JCX The masjid sohrat purwa, Unnamed Road, Bhonka, Uttar Pradesh 271502",,"3QRH+JCX, Unnamed Road",Bhonka,271502,Uttar Pradesh,IN,https://www.google.com/maps/place/The+masjid+sohrat+purwa/data=!4m7!3m6!1s0x39998f4d9361791d:0xf34ea376dd2b5fa!8m2!3d27.0916194!4d81.7786127!16s%2Fg%2F11nmpfxkzj!19sChIJHXlhk02PmTkR-rXSbTfqNA8?authuser=0&hl=en&rclk=1,"27.0916194,81.7786127"
Masjid Ali Murtaza R. A. Botal Purwa,Mosque,"Masjid Ali Murtaza R. A. Botal Purwa, Botal Purwa Jhingaha, Metukaha, Chaukhdiya, Uttar Pradesh 271825",,Botal Purwa Jhingaha,"Metukaha, Chaukhdiya",,Uttar Pradesh,IN,https://www.google.com/maps/place/Masjid+Ali+Murtaza+R.+A.+Botal+Purwa/data=!4m7!3m6!1s0x3999ab02a0526141:0x47f5ee7372a09afe!8m2!3d27.5847427!4d81.5488398!16s%2Fg%2F11trwxzdb0!19sChIJQWFSoAKrmTkR_pqgcnPu9Uc?authuser=0&hl=en&rclk=1,"27.5847427,81.5488398"
Noorani masjid Maigal purwa,Mosque,"4QVW+FHQ Noorani masjid Maigal purwa, Haldhar Mau, Kauraha Jagdishpur, Uttar Pradesh 271126",,"4QVW+FHQ, Haldhar Mau","Kauraha Jagdishpur, Haldhar Mau",271126,Uttar Pradesh,IN,https://www.google.com/maps/place/Noorani+masjid+Maigal+purwa/data=!4m7!3m6!1s0x399993ed40b214f3:0x75e6dc028aef4e0e!8m2!3d27.1437203!4d81.7964722!16s%2Fg%2F11q1lqpcjh!19sChIJ8xSyQO2TmTkRDk7vigLc5nU?authuser=0&hl=en&rclk=1,"27.1437203,81.7964722"
Masjid pathan purwa,Mosque,"2QQQ+5V9 Masjid pathan purwa, Balpur Rd, Gonda, Uttar Pradesh 271504",,"2QQQ+5V9, Balpur Rd",Gonda,271504,Uttar Pradesh,IN,https://www.google.com/maps/place/Masjid+pathan+purwa/data=!4m7!3m6!1s0x39998d4f228d91a5:0x33508e09143b1427!8m2!3d27.0380277!4d81.7896591!16s%2Fg%2F11stx7wvcn!19sChIJpZGNIk-NmTkRJxQ7FAmOUDM?authuser=0&hl=en&rclk=1,"27.038027699999997,81.7896591"
Masjid e Kamal Khan ( Uchhe Purwa Diha ),Mosque,"4QWQ+4JG Masjid e Kamal Khan ( Uchhe Purwa Diha ), Haldhar Mau, Uttar Pradesh 271126",,4QWQ+4JG,Haldhar Mau,271126,Uttar Pradesh,IN,https://www.google.com/maps/place/Masjid+e+Kamal+Khan+%28+Uchhe+Purwa+Diha+%29/data=!4m7!3m6!1s0x399993cbc31a8e71:0xa13944404430a3d7!8m2!3d27.144537!4d81.790069!16s%2Fg%2F11tt6hhqym!19sChIJcY4aw8uTmTkR16MwREBEOaE?authuser=0&hl=en&rclk=1,"27.144537,81.790069"
Madrasa masjid Mahesh Purva,Mosque,"7QP3+7JP Madrasa masjid Mahesh Purva, Sahariya Kalan, Uttar Pradesh 271503",,7QP3+7JP,Sahariya Kalan,271503,Uttar Pradesh,IN,https://www.google.com/maps/place/Madrasa+masjid+Mahesh+Purva/data=!4m7!3m6!1s0x3999974607e250bf:0x9dbf9ceec122a3fb!8m2!3d27.2857196!4d81.7540902!16s%2Fg%2F11vbfdvl3h!19sChIJv1DiB0aXmTkR-6Miwe6cv50?authuser=0&hl=en&rclk=1,"27.2857196,81.7540902"
Pathan Purwa Razvi Mosque,Mosque,"545V+X75 Pathan Purwa Razvi Mosque, Pathan Purwa Matwariya, Gonda, Uttar Pradesh",,"545V+X75, Pathan Purwa Matwariya","Gonda, Achalpur",,Uttar Pradesh,IN,https://www.google.com/maps/place/Pathan+Purwa+Razvi+Mosque/data=!4m7!3m6!1s0x3999e3242f1c1f6d:0xe30adbc84f0a7e86!8m2!3d27.1598902!4d82.1432281!16s%2Fg%2F11v0911b16!19sChIJbR8cLyTjmTkRhn4KT8jbCuM?authuser=0&hl=en&rclk=1,"27.1598902,82.1432281"
"Masjid abubakr, rajisterd 2396",Mosque,"Masjid abubakr, rajisterd 2396, Navvan purwa, Acholaya, Uttar Pradesh 271902",Navvan purwa,,Acholaya,271902,Uttar Pradesh,IN,"https://www.google.com/maps/place/Masjid+abubakr,+rajisterd+2396/data=!4m7!3m6!1s0x3999a70933c54f3d:0x53e044a8650de1f!8m2!3d27.4192852!4d81.5856555!16s%2Fg%2F11qqqydrx9!19sChIJPU_FMwmnmTkRH95QhkoEPgU?authuser=0&hl=en&rclk=1","27.419285199999997,81.5856555"
Abubakar masjid,Mosque,"X4HG+7V5 Abubakar masjid, Devi Purwa, Noorpur, Uttar Pradesh 262723",,X4HG+7V5,"Devi Purwa, Noorpur",,Uttar Pradesh,IN,https://www.google.com/maps/place/Abubakar+masjid/data=!4m7!3m6!1s0x3998c18563b05695:0x2177a8474d89e61!8m2!3d27.978136!4d81.1272362!16s%2Fg%2F11jz70zgdr!19sChIJlVawY4XBmDkRYZ7YdIR6FwI?authuser=0&hl=en&rclk=1,"27.978136,81.1272362"
Jafri Masjid Jafar Purwa Banke,Mosque,"Jafri Masjid Jafar Purwa Banke, Unnamed Road, 21900, Nepal",,"Unnamed Road, 21900",,,,NP,https://www.google.com/maps/place/Jafri+Masjid+Jafar+Purwa+Banke/data=!4m7!3m6!1s0x39984365ef97be43:0xf97a9dbe5eb2257b!8m2!3d28.0225028!4d81.6991564!16s%2Fg%2F11rxwfbf92!19sChIJQ76X72VDmDkReyWyXr6devk?authuser=0&hl=en&rclk=1,"28.022502799999998,81.69915639999999"
Gwsyh msjd Gosia Masjid,Mosque,"Gwsyh msjd Gosia Masjid, Farrash purwa, Bus stop, Dhaneypur, Uttar Pradesh 271602",,"Farrash purwa, Bus stop",Dhaneypur,271602,Uttar Pradesh,IN,https://www.google.com/maps/place/%D8%BA%D9%88%D8%B3%DB%8C%DB%81+%D9%85%D8%B3%D8%AC%D8%AF+Gosia+Masjid%E2%80%AD/data=!4m7!3m6!1s0x3999e3c28a589b6f:0x75356dd0cdf6eb0b!8m2!3d27.2233162!4d82.1507969!16s%2Fg%2F11qq980gb_!19sChIJb5tYisLjmTkRC-v2zdBtNXU?authuser=0&hl=en&rclk=1,"27.2233162,82.1507969"
Qadri masjid,Mosque,"CHCH+VXJ Qadri masjid, Nawanpurwa Maniharan Purwa acholiya, Acholaya",,"CHCH+VXJ, Nawanpurwa Maniharan Purwa acholiya",Acholaya,,Uttar Pradesh,IN,https://www.google.com/maps/place/Qadri+masjid/data=!4m7!3m6!1s0x3999a74d09b7b0b1:0x81b9d6270df3cce!8m2!3d27.422225!4d81.5798774!16s%2Fg%2F11qqcfc7tq!19sChIJsbC3CU2nmTkRzjzfcGKdGwg?authuser=0&hl=en&rclk=1,"27.422224999999997,81.5798774"
Masjid Madinatul Uloom Durveshpur,Mosque,"2VCW+RM9 Masjid Madinatul Uloom Durveshpur, Durveshpur, Uttar Pradesh 250401",,2VCW+RM9,Durveshpur,,Uttar Pradesh,IN,https://www.google.com/maps/place/Masjid+Madinatul+Uloom+Durveshpur/data=!4m7!3m6!1s0x390c7974d6391669:0x2413328555b3c74f!8m2!3d29.0220381!4d77.8967468!16s%2Fg%2F11h4k6zfk5!19sChIJaRY51nR5DDkRT8ezVYUyEyQ?authuser=0&hl=en&rclk=1,"29.0220381,77.8967468"
Poorav wali masjid,Mosque,"2257+34G Poorav wali masjid, Mahanandpur, Uttar Pradesh 242306",,2257+34G,Mahanandpur,242306,Uttar Pradesh,IN,https://www.google.com/maps/place/Poorav+wali+masjid/data=!4m7!3m6!1s0x399f9f852b9f1ff1:0x9f3d3fcdaf19e141!8m2!3d28.007892!4d80.0127703!16s%2Fg%2F11v3_xpc_y!19sChIJ8R-fK4WfnzkRQeEZr80_PZ8?authuser=0&hl=en&rclk=1,"28.007892,80.0127703"
Jama Masjid,Mosque,"9J2R+F8G Jama Masjid, Chuharpur Masjid, Chuharpur, Uttar Pradesh 203203",,9J2R+F8G Chuharpur Masjid,Chuharpur,203203,Uttar Pradesh,IN,https://www.google.com/maps/place/Jama+Masjid/data=!4m7!3m6!1s0x390cb9b85bcd9dbf:0xff4be486dd04d6a7!8m2!3d28.3517878!4d77.6414715!16s%2Fg%2F11q7ls01g9!19sChIJv53NW7i5DDkRp9YE3YbkS_8?authuser=0&hl=en&rclk=1,"28.3517878,77.6414715"
Sunni masjid,Mosque,"7Q6F+MGG Sunni masjid, Baisan purwa, Dubaha Bazar, Dharampur, Uttar Pradesh 271503",Baisan purwa,7Q6F+MGG,"Dubaha Bazar, Dharampur",,Uttar Pradesh,IN,https://www.google.com/maps/place/Sunni+masjid/data=!4m7!3m6!1s0x39999761d92a9bcf:0xdc0492564a8bca1d!8m2!3d27.2616926!4d81.773841!16s%2Fg%2F11svbvzmqj!19sChIJz5sq2WGXmTkRHcqLSlaSBNw?authuser=0&hl=en&rclk=1,"27.2616926,81.77384099999999"
Masjid Sadipura ( Andar Wali),Mosque,"9428+29 Masjid Sadipura ( Andar Wali), Salempur Mathna, Puranpur, Uttar Pradesh 246701",,9428+29,"Salempur Mathna, Puranpur",,Uttar Pradesh,IN,https://www.google.com/maps/place/Masjid+Sadipura+%28+Andar+Wali%29/data=!4m7!3m6!1s0x390beff24affb065:0xf04d589205644ed6!8m2!3d29.3500591!4d78.1158879!16s%2Fg%2F11s5qt0c9_!19sChIJZbD_SvLvCzkR1k5kBZJYTfA?authuser=0&hl=en&rclk=1,"29.3500591,78.11588789999999"
Eidgah of Jafar Purwa Banke,Mosque,"Eidgah of Jafar Purwa Banke, Unnamed Road, 21900, Nepal",,"Unnamed Road, 21900",,,,NP,https://www.google.com/maps/place/Eidgah+of+Jafar+Purwa+Banke/data=!4m7!3m6!1s0x399843c31c1c828d:0x4e352d80c540451d!8m2!3d28.0245489!4d81.694883!16s%2Fg%2F11qh900kb1!19sChIJjYIcHMNDmDkRHUVAxYAtNU4?authuser=0&hl=en&rclk=1,"28.0245489,81.69488299999999"
Masjid Luharo Wali,Mosque,"RXJ4+55 Masjid Luharo Wali, Dibai, Uttar Pradesh 245205",,RXJ4+55,Dibai,,Uttar Pradesh,IN,https://www.google.com/maps/place/Masjid+Luharo+Wali/data=!4m7!3m6!1s0x390b7f394b0e5463:0x51e86e24d7906947!8m2!3d28.83049!4d77.955477!16s%2Fg%2F11k44crj02!19sChIJY1QOSzl_CzkRR2mQ1yRu6FE?authuser=0&hl=en&rclk=1,"28.830489999999998,77.955477"
Masjid abubakar meesa,Mosque,"QR6C+772 Masjid abubakar meesa, Karimpur, Uttar Pradesh 224122",,QR6C+772,Karimpur,224122,Uttar Pradesh,IN,https://www.google.com/maps/place/Masjid+abubakar+meesa/data=!4m7!3m6!1s0x399a23f079b8dc5b:0x6d0b514c9421f53a!8m2!3d26.7606342!4d81.8206455!16s%2Fg%2F11sx2g3d13!19sChIJW9y4efAjmjkROvUhlExRC20?authuser=0&hl=en&rclk=1,"26.7606342,81.8206455"
OLD MASJID,Mosque,"WF62+GV OLD MASJID, Lodha Teekur, Uttar Pradesh 209870",,WF62+GV,Lodha Teekur,209870,Uttar Pradesh,IN,https://www.google.com/maps/place/OLD+MASJID/data=!4m7!3m6!1s0x399e9f09f6e0a76f:0xd7993a0d7e1581a8!8m2!3d26.9112972!4d80.452185!16s%2Fg%2F11sqxf042k!19sChIJb6fg9gmfnjkRqIEVfg06mdc?authuser=0&hl=en&rclk=1,"26.9112972,80.452185"
Jamiya Mewat Masjid,Mosque,"G9CW+6QW Jamiya Mewat Masjid, Devseras, Uttar Pradesh 281502",,G9CW+6QW,Devseras,,Uttar Pradesh,IN,https://www.google.com/maps/place/Jamiya+Mewat+Masjid/data=!4m7!3m6!1s0x39730f1895b221ed:0xe9474c4ea091d886!8m2!3d27.520617!4d77.3969483!16s%2Fg%2F11tx4r7x8y!19sChIJ7SGylRgPczkRhtiRoE5MR-k?authuser=0&hl=en&rclk=1,"27.520616999999998,77.39694829999999"
Madina masjid parsahar purva 272162,Mosque,"HWVF+3QV Madina masjid parsahar purva 272162, Madina masjid, Parsahar, Pachra, Uttar Pradesh 272162",,HWVF+3QV Madina masjid,"Parsahar, Pachra",272162,Uttar Pradesh,IN,https://www.google.com/maps/place/Madina+masjid+parsahar+purva+272162/data=!4m7!3m6!1s0x39911fccb659987f:0x692705b3bad6bec4!8m2!3d26.5927331!4d82.9243329!16s%2Fg%2F11q2yg4k26!19sChIJf5hZtswfkTkRxL7WurMFJ2k?authuser=0&hl=en&rclk=1,"26.5927331,82.9243329"
