name,main_category,address,address_ward,address_street,address_city,address_postal_code,address_state,address_country_code,link,coordinates
Bangle Wali Masjid,Mosque,"HQVQ+GQ6 Bangle Wali Masjid, Gulaothi, Uttar Pradesh 203408",,HQVQ+GQ6,Gulaothi,203408,Uttar Pradesh,IN,https://www.google.com/maps/place/Bangle+Wali+Masjid/data=!4m7!3m6!1s0x390c9a2d1ed23cfb:0x976414e188571f1e!8m2!3d28.593781!4d77.789384!16s%2Fg%2F11g8979l9q!19sChIJ-zzSHi2aDDkRHh9XiOEUZJc?authuser=0&hl=en&rclk=1,"28.593781,77.789384"
Ek Minar Masjid,Mosque,"Ek Minar Masjid, Khudwadhar, Gulaothi, Uttar Pradesh 203408",Khudwadhar,,Gulaothi,203408,Uttar Pradesh,IN,https://www.google.com/maps/place/Ek+Minar+Masjid/data=!4m7!3m6!1s0x390c9bd451f01e01:0xde7a50e36e9df84d!8m2!3d28.5884031!4d77.7944908!16s%2Fg%2F11dzzcyyp6!19sChIJAR7wUdSbDDkRTfidbuNQet4?authuser=0&hl=en&rclk=1,"28.588403099999997,77.79449079999999"
Maqbra Masjid,Mosque,"HQQQ+GG3 Maqbra Masjid, Gulaothi, Uttar Pradesh 203408",,HQQQ+GG3,Gulaothi,203408,Uttar Pradesh,IN,https://www.google.com/maps/place/Maqbra+Masjid/data=!4m7!3m6!1s0x390c9a2b121bf2eb:0xac87a5c87f5cd40f!8m2!3d28.5887592!4d77.7888027!16s%2Fg%2F11c2k5n2n0!19sChIJ6_IbEiuaDDkRD9Rcf8ilh6w?authuser=0&hl=en&rclk=1,"28.5887592,77.78880269999999"
Ibrahim Masjid,Mosque,"HQQW+9FF Ibrahim Masjid, Khudwadhar, Gulaothi, Uttar Pradesh 203408",Khudwadhar,HQQW+9FF,Gulaothi,203408,Uttar Pradesh,IN,https://www.google.com/maps/place/Ibrahim+Masjid/data=!4m7!3m6!1s0x390c9bd42cee5113:0x20beb1438d95e72!8m2!3d28.5884416!4d77.7961667!16s%2Fg%2F11c75mgvvd!19sChIJE1HuLNSbDDkRcl7ZOBTrCwI?authuser=0&hl=en&rclk=1,"28.5884416,77.7961667"
Makka Masjid,Mosque,"HQPW+WVC Makka Masjid, Unnamed Road, Khudwadhar, Gulaothi, Uttar Pradesh 203408",Khudwadhar,"HQPW+WVC, Unnamed Road",Gulaothi,203408,Uttar Pradesh,IN,https://www.google.com/maps/place/Makka+Masjid/data=!4m7!3m6!1s0x390c9bf0fb43d35d:0xad061567520643a6!8m2!3d28.5873003!4d77.7971483!16s%2Fg%2F11f7qz8l2y!19sChIJXdND-_CbDDkRpkMGUmcVBq0?authuser=0&hl=en&rclk=1,"28.5873003,77.7971483"
Maszid-e-Quba(bdddh vaalii msjid),Mosque,"Maszid-e-Quba(bdddh vaalii msjid), Akbarpur Road, 203408, Gulaothi, Uttar Pradesh",,"Akbarpur Road, 203408",Gulaothi,,Uttar Pradesh,IN,https://www.google.com/maps/place/Maszid-e-Quba%28%E0%A4%AC%E0%A5%9C+%E0%A4%B5%E0%A4%BE%E0%A4%B2%E0%A5%80+%E0%A4%AE%E0%A4%B8%E0%A5%8D%E0%A4%9C%E0%A4%BF%E0%A4%A6%29/data=!4m7!3m6!1s0x390c9a2cdb05d671:0xece0dcec8fd600fd!8m2!3d28.5929435!4d77.7899883!16s%2Fg%2F11gdw4ctpj!19sChIJcdYF2yyaDDkR_QDWj-zc4Ow?authuser=0&hl=en&rclk=1,"28.592943499999997,77.78998829999999"
Jannat masjid,Mosque,"HQQW+QR6 Jannat masjid, Saidpur Rd, Khudwadhar, Gulaothi, Uttar Pradesh 203408",Khudwadhar,"HQQW+QR6, Saidpur Rd",Gulaothi,203408,Uttar Pradesh,IN,https://www.google.com/maps/place/Jannat+masjid/data=!4m7!3m6!1s0x390c9b11fcc9997d:0x6b810da259da7835!8m2!3d28.5894207!4d77.7970041!16s%2Fg%2F11flv2yfcq!19sChIJfZnJ_BGbDDkRNXjaWaINgWs?authuser=0&hl=en&rclk=1,"28.589420699999998,77.7970041"
Takiya Wali Masjid,Mosque,"HQVQ+5XQ Takiya Wali Masjid, Gulaothi, Uttar Pradesh 203408",,HQVQ+5XQ,Gulaothi,,Uttar Pradesh,IN,https://www.google.com/maps/place/Takiya+Wali+Masjid/data=!4m7!3m6!1s0x390c9a2cdb083d4f:0xb02c6454cc1334f2!8m2!3d28.5929597!4d77.7899909!16s%2Fg%2F11hb5_zlxn!19sChIJTz0I2yyaDDkR8jQTzFRkLLA?authuser=0&hl=en&rclk=1,"28.592959699999998,77.78999089999999"
Bilgis masjid,Mosque,"Bilgis masjid, Gulaothi, Uttar Pradesh 203408",,,Gulaothi,203408,Uttar Pradesh,IN,https://www.google.com/maps/place/Bilgis+masjid/data=!4m7!3m6!1s0x390c9b80031e6077:0x54a8760e8975f2fe!8m2!3d28.5900644!4d77.7980109!16s%2Fg%2F11rjvrt7w2!19sChIJd2AeA4CbDDkR_vJ1iQ52qFQ?authuser=0&hl=en&rclk=1,"28.5900644,77.7980109"
Masjid Azizia,Mosque,"HQRR+29P Masjid Azizia, Gulaothi, Uttar Pradesh 203408",,HQRR+29P,Gulaothi,,Uttar Pradesh,IN,https://www.google.com/maps/place/Masjid+Azizia/data=!4m7!3m6!1s0x390c9b3061176ba5:0x1846c14b162135d2!8m2!3d28.5900861!4d77.7909496!16s%2Fg%2F11h2nb4nh_!19sChIJpWsXYTCbDDkR0jUhFkvBRhg?authuser=0&hl=en&rclk=1,"28.590086099999997,77.79094959999999"
Tahira Masjid,Mosque,"HQRV+3CW Tahira Masjid, Gulaothi, Uttar Pradesh 203408",,HQRV+3CW,Gulaothi,,Uttar Pradesh,IN,https://www.google.com/maps/place/Tahira+Masjid/data=!4m7!3m6!1s0x390c9b1e93c8f4b3:0x3915370c50c189a5!8m2!3d28.5902259!4d77.7935723!16s%2Fg%2F11f64pgy47!19sChIJs_TIkx6bDDkRpYnBUAw3FTk?authuser=0&hl=en&rclk=1,"28.5902259,77.7935723"
Bilal Masjid Gulaothi,Mosque,"HQVP+MW7 Bilal Masjid Gulaothi, Gulaothi, Uttar Pradesh 203408",,HQVP+MW7,Gulaothi,,Uttar Pradesh,IN,https://www.google.com/maps/place/Bilal+Masjid+Gulaothi/data=!4m7!3m6!1s0x390c9b77d2b548dd:0x7322a822535abd4b!8m2!3d28.5941547!4d77.7872958!16s%2Fg%2F11jspfmk33!19sChIJ3Ui10nebDDkRS71aUyKoInM?authuser=0&hl=en&rclk=1,"28.594154699999997,77.7872958"
"Masjid Murshadpur, Gulaothi",Mosque,"HQPW+W6P Masjid Murshadpur, Gulaothi, Khudwadhar, Gulaothi, Uttar Pradesh 203408",Khudwadhar,HQPW+W6P,Gulaothi,,Uttar Pradesh,IN,"https://www.google.com/maps/place/Masjid+Murshadpur,+Gulaothi/data=!4m7!3m6!1s0x390c9bde50184261:0x84200412320cc37!8m2!3d28.5873259!4d77.7955933!16s%2Fg%2F11fp9d811m!19sChIJYUIYUN6bDDkRN8wgI0EAQgg?authuser=0&hl=en&rclk=1","28.5873259,77.7955933"
Masjid khodijah,Mosque,"HQRW+FVQ Masjid khodijah, Gulaothi, Uttar Pradesh 203408",,HQRW+FVQ,Gulaothi,203408,Uttar Pradesh,IN,https://www.google.com/maps/place/Masjid+khodijah/data=!4m7!3m6!1s0x390c9bf76b77d4f5:0xe0408e1578d745dc!8m2!3d28.5912238!4d77.7972441!16s%2Fg%2F11fq8yb2vd!19sChIJ9dR3a_ebDDkR3EXXeBWOQOA?authuser=0&hl=en&rclk=1,"28.591223799999998,77.7972441"
Khatiza masjid,Mosque,"HQRW+PXH Khatiza masjid, Gulaothi, Uttar Pradesh 203408",,HQRW+PXH,Gulaothi,,Uttar Pradesh,IN,https://www.google.com/maps/place/Khatiza+masjid/data=!4m7!3m6!1s0x390c9bb319221493:0xf92a0ea0fa46db5c!8m2!3d28.5918128!4d77.7974943!16s%2Fg%2F11j9k7rw8z!19sChIJkxQiGbObDDkRXNtG-qAOKvk?authuser=0&hl=en&rclk=1,"28.5918128,77.7974943"
Saida Masjid,Mosque,"HQRV+3H6 Saida Masjid, Gulaothi, Uttar Pradesh 203408",,HQRV+3H6,Gulaothi,203408,Uttar Pradesh,IN,https://www.google.com/maps/place/Saida+Masjid/data=!4m7!3m6!1s0x390c9bd462984079:0x5b8e4198982308e2!8m2!3d28.5901589!4d77.7938766!16s%2Fg%2F11f33203w_!19sChIJeUCYYtSbDDkR4ggjmJhBjls?authuser=0&hl=en&rclk=1,"28.5901589,77.79387659999999"
Idgah Gulaothi,Mosque,"HQQP+X94 Idgah Gulaothi, Gulaothi, Uttar Pradesh 203408",,HQQP+X94,Gulaothi,,Uttar Pradesh,IN,https://www.google.com/maps/place/Idgah+Gulaothi/data=!4m7!3m6!1s0x390c9b3a81d14647:0x58c01bffc039caa1!8m2!3d28.5898999!4d77.7859494!16s%2Fg%2F11v0bql5bz!19sChIJR0bRgTqbDDkRoco5wP8bwFg?authuser=0&hl=en&rclk=1,"28.5898999,77.78594939999999"
Masjid Shafi Mufid-E-Am Inter College,Mosque,"HQRQ+4HF Masjid Shafi Mufid-E-Am Inter College, Gulaothi, Uttar Pradesh 203408",,HQRQ+4HF,Gulaothi,,Uttar Pradesh,IN,https://www.google.com/maps/place/Masjid+Shafi+Mufid-E-Am+Inter+College/data=!4m7!3m6!1s0x390c9b5748e0e8ef:0x7fbb1446817de686!8m2!3d28.5903048!4d77.7889351!16s%2Fg%2F11h1ywrz0y!19sChIJ7-jgSFebDDkRhuZ9gUYUu38?authuser=0&hl=en&rclk=1,"28.5903048,77.7889351"
Maqbara Masjid Gulaothi,Mosque,"Maqbara Masjid Gulaothi, Maqbara Masjid, Gulaothi, Uttar Pradesh 203408",,Maqbara Masjid,Gulaothi,,Uttar Pradesh,IN,https://www.google.com/maps/place/Maqbara+Masjid+Gulaothi/data=!4m7!3m6!1s0x390c9b0800151c37:0xf1ca03bd1bc60d8b!8m2!3d28.5902367!4d77.7935881!16s%2Fg%2F11krfh_xc6!19sChIJNxwVAAibDDkRiw3GG70DyvE?authuser=0&hl=en&rclk=1,"28.5902367,77.7935881"
Fatima Masjid,Mosque,"HQMR+V8F Fatima Masjid, MDR 50W, Gulaothi, Uttar Pradesh 203408",,"HQMR+V8F, MDR 50W",Gulaothi,203408,Uttar Pradesh,IN,https://www.google.com/maps/place/Fatima+Masjid/data=!4m7!3m6!1s0x390c99bbd848cb15:0xed9eff6f59205549!8m2!3d28.5846938!4d77.7908068!16s%2Fg%2F11ghfjy812!19sChIJFctI2LuZDDkRSVUgWW__nu0?authuser=0&hl=en&rclk=1,"28.5846938,77.7908068"
master Wali Masjid,Mosque,"HQPQ+97M master Wali Masjid, Karan Puri, Gulaothi, Uttar Pradesh 203408",Karan Puri,HQPQ+97M,Gulaothi,203408,Uttar Pradesh,IN,https://www.google.com/maps/place/master+Wali+Masjid/data=!4m7!3m6!1s0x390c9b36d892d4ab:0xf3520426157e0563!8m2!3d28.5859628!4d77.7881723!16s%2Fg%2F11gy2yfhjz!19sChIJq9SS2DabDDkRYwV-FSYEUvM?authuser=0&hl=en&rclk=1,"28.585962799999997,77.7881723"
masjid palwalyan,Mosque,"HQRV+PGH masjid palwalyan, Palwalyan, Gulaothi, Uttar Pradesh 203408",Palwalyan,HQRV+PGH,Gulaothi,203408,Uttar Pradesh,IN,https://www.google.com/maps/place/masjid+palwalyan/data=!4m7!3m6!1s0x390c9b651217312d:0xb676c04ace76b7fb!8m2!3d28.5918059!4d77.7938466!16s%2Fg%2F11qy9xnxlt!19sChIJLTEXEmWbDDkR-7d2zkrAdrY?authuser=0&hl=en&rclk=1,"28.591805899999997,77.7938466"
Taj Masjid,Place of worship,"Taj Masjid, Sikandrabad Rd, Gulaothi, Uttar Pradesh 203408",,Sikandrabad Rd,Gulaothi,203408,Uttar Pradesh,IN,https://www.google.com/maps/place/Taj+Masjid/data=!4m7!3m6!1s0x390c99f29fa4df67:0x242861da963a0014!8m2!3d28.5829391!4d77.7895556!16s%2Fg%2F11fn2pl8yt!19sChIJZ9-kn_KZDDkRFAA6ltphKCQ?authuser=0&hl=en&rclk=1,"28.582939099999997,77.7895556"
Fatak Wale masjid,Mosque,"HRR2+FFJ Fatak Wale masjid, Gulavathi Rural Natthugari, Uttar Pradesh 203408",,HRR2+FFJ,Gulavathi Rural Natthugari,203408,Uttar Pradesh,IN,https://www.google.com/maps/place/Fatak+Wale+masjid/data=!4m7!3m6!1s0x390c9bbee9eb35a3:0x3982c13999137b41!8m2!3d28.5912167!4d77.8011528!16s%2Fg%2F11hkqw5gzh!19sChIJozXr6b6bDDkRQXsTmTnBgjk?authuser=0&hl=en&rclk=1,"28.5912167,77.8011528"
