name,main_category,address,address_ward,address_street,address_city,address_postal_code,address_state,address_country_code,link,coordinates
Jama Masjid Jaan Mohammad --jaamaa msjid jaan muhNmd-- jm` msjd jn mHmd,Mosque,"Jama Masjid Jaan Mohammad --jaamaa msjid jaan muhNmd-- jm` msjd jn mHmd, Hall Bazar, Katra Ahluwalia, Amritsar, Punjab 143006","Hall Bazar, Katra Ahluwalia",,Amritsar,143006,Punjab,IN,https://www.google.com/maps/place/Jama+Masjid+Jaan+Mohammad+%E2%80%94%E0%A8%9C%E0%A8%BE%E0%A8%AE%E0%A8%BE+%E0%A8%AE%E0%A8%B8%E0%A8%9C%E0%A8%BF%E0%A8%A6+%E0%A8%9C%E0%A8%BE%E0%A8%A8+%E0%A8%AE%E0%A9%81%E0%A8%B9%E0%A9%B0%E0%A8%AE%E0%A8%A6%E2%80%94+%D8%AC%D8%A7%D9%85%D8%B9+%D9%85%D8%B3%D8%AC%D8%AF+%D8%AC%D8%A7%D9%86+%D9%85%D8%AD%D9%85%D8%AF%E2%80%AD/data=!4m7!3m6!1s0x39197d7295514ac5:0x84ebbdd9b5d1869a!8m2!3d31.6266324!4d74.8783989!16s%2Fg%2F11f611s17l!19sChIJxUpRlXJ9GTkRmobRtdm964Q?authuser=0&hl=en&rclk=1,"31.6266324,74.8783989"
Masjid Khairuddin,Mosque,"JVHG+V3M Masjid Khairuddin, Katra Sher Singh, Katra Ahluwalia, Amritsar, Punjab 143006","Katra Sher Singh, Katra Ahluwalia",JVHG+V3M,Amritsar,143006,Punjab,IN,https://www.google.com/maps/place/Masjid+Khairuddin/data=!4m7!3m6!1s0x391963f29eb5c02f:0x932f3a54255c5e7b!8m2!3d31.6297033!4d74.8751752!16s%2Fg%2F11llx69174!19sChIJL8C1nvJjGTkRe15cJVQ6L5M?authuser=0&hl=en&rclk=1,"31.6297033,74.8751752"
Jama Masjid Deen Mohammad,Mosque,"JRH3+9VR Jama Masjid Deen Mohammad, Grand Trunk Road, Chowk, Modren Colony, Chheharta, Amritsar, Punjab 143001","Modren Colony, Chheharta","JRH3+9VR, Grand Trunk Road, Chowk",Amritsar,143001,Punjab,IN,https://www.google.com/maps/place/Jama+Masjid+Deen+Mohammad/data=!4m7!3m6!1s0x3919653713de13a3:0xf41cf449f8e3c723!8m2!3d31.6284874!4d74.80464!16s%2Fg%2F11b6dq1g77!19sChIJoxPeEzdlGTkRI8fj-En0HPQ?authuser=0&hl=en&rclk=1,"31.628487399999997,74.80463999999999"
Jamai Masjed Baba SAHANSHAH,Mosque,"PR92+3GP Jamai Masjed Baba SAHANSHAH, Raja Sansi, Punjab 143101",,PR92+3GP,Raja Sansi,143101,Punjab,IN,https://www.google.com/maps/place/Jamai+Masjed+Baba+SAHANSHAH/data=!4m7!3m6!1s0x3919660d0930968b:0x6850a4985c8c5d4f!8m2!3d31.7177248!4d74.8013194!16s%2Fg%2F11g699d_z5!19sChIJi5YwCQ1mGTkRT12MXJikUGg?authuser=0&hl=en&rclk=1,"31.7177248,74.8013194"
Masjid E Anwar E Madina,Mosque,"Q6RQ+MHG Masjid E Anwar E Madina, Ajnala, Gujrat, Punjab, Pakistan",,Q6RQ+MHG,Ajnala,,"Gujrat, Punjab",PK,https://www.google.com/maps/place/Masjid+E+Anwar+E+Madina/data=!4m7!3m6!1s0x391e555facf6597d:0xc5b43028b85c420a!8m2!3d32.7916768!4d74.238964!16s%2Fg%2F11f1nlplwc!19sChIJfVn2rF9VHjkRCkJcuCgwtMU?authuser=0&hl=en&rclk=1,"32.7916768,74.238964"
Masjid,Mosque,"Masjid, d-7/2207 welcome Street, Kotkhalsa, New Azad Nagar, Amritsar, Punjab 143001",New Azad Nagar,"d-7/2207 welcome Street, Kotkhalsa",Amritsar,143001,Punjab,IN,https://www.google.com/maps/place/Masjid/data=!4m7!3m6!1s0x391965aef475782f:0xe53ba856ea379c96!8m2!3d31.6243059!4d74.8318036!16s%2Fg%2F11ncm7_ckc!19sChIJL3h19K5lGTkRlpw36laoO-U?authuser=0&hl=en&rclk=1,"31.6243059,74.8318036"
Masjid msjd,Mosque,"RV98+8XP Masjid msjd, Khatrai Kalan, Punjab 143606",,RV98+8XP,Khatrai Kalan,143606,Punjab,IN,https://www.google.com/maps/place/Masjid+%D9%85%D8%B3%D8%AC%D8%AF%E2%80%AD/data=!4m7!3m6!1s0x39195de4ac3cad29:0xd641249802346354!8m2!3d31.8183269!4d74.8674377!16s%2Fg%2F11f03ldty_!19sChIJKa08rORdGTkRVGM0ApgkQdY?authuser=0&hl=en&rclk=1,"31.8183269,74.8674377"
Jama Masjid Thoba,Mosque,"WVP2+R9G Jama Masjid Thoba, Thoba, Punjab 143102",,WVP2+R9G,Thoba,143102,Punjab,IN,https://www.google.com/maps/place/Jama+Masjid+Thoba/data=!4m7!3m6!1s0x39195a355458c9ad:0xa42d44674866c736!8m2!3d31.9370737!4d74.8509623!16s%2Fg%2F11g8v1wbsh!19sChIJrclYVDVaGTkRNsdmSGdELaQ?authuser=0&hl=en&rclk=1,"31.9370737,74.85096229999999"
Peer Baba Roshan Shah Ji,Mosque,"QRCF+98G Peer Baba Roshan Shah Ji, Amritsar, Punjab 143102",,QRCF+98G,Amritsar,143102,Punjab,IN,https://www.google.com/maps/place/Peer+Baba+Roshan+Shah+Ji/data=!4m7!3m6!1s0x391967a6e9fb06b5:0x109321b049dfbd36!8m2!3d31.7709353!4d74.8233345!16s%2Fg%2F11f__d90j2!19sChIJtQb76aZnGTkRNr3fSbAhkxA?authuser=0&hl=en&rclk=1,"31.770935299999998,74.8233345"
Jamiya Masjid Noor(Aday Wali Masjid),Mosque,"P7XH+377 Jamiya Masjid Noor(Aday Wali Masjid), Ajnala-Karianwala Rd, Karianwala, Gujrat, Punjab, Pakistan",,"P7XH+377, Ajnala-Karianwala Rd",Karianwala,,"Gujrat, Punjab",PK,https://www.google.com/maps/place/Jamiya+Masjid+Noor%28Aday+Wali+Masjid%29/data=!4m7!3m6!1s0x391efee2ddee3721:0xd194a513e27552b5!8m2!3d32.7476629!4d74.2781816!16s%2Fg%2F11cr_d6g5q!19sChIJITfu3eL-HjkRtVJ14hOllNE?authuser=0&hl=en&rclk=1,"32.7476629,74.2781816"
Jammiah Masjid / Barhi Masjid,Mosque,"5R53+HM2 Jammiah Masjid / Barhi Masjid, Ajnala Loak, Sargodha, Punjab, Pakistan",,5R53+HM2,Ajnala Loak,,"Sargodha, Punjab",PK,https://www.google.com/maps/place/Jammiah+Masjid+%2F+Barhi+Masjid/data=!4m7!3m6!1s0x39219eaad314697b:0xfd46fe47c4b2fcf2!8m2!3d32.1588851!4d72.8041469!16s%2Fg%2F11g9vly2d7!19sChIJe2kU06qeITkR8vyyxEf-Rv0?authuser=0&hl=en&rclk=1,"32.1588851,72.80414689999999"
masjid and Emam Bargah ajnala loak,Mosque,"5R53+963 masjid and Emam Bargah ajnala loak, Ajnala Loak, Sargodha, Punjab, Pakistan",,5R53+963,Ajnala Loak,,"Sargodha, Punjab",PK,https://www.google.com/maps/place/masjid+and+Emam+Bargah+ajnala+loak/data=!4m7!3m6!1s0x39219eaac33b2ae7:0xd1a0b6316efba53d!8m2!3d32.158381!4d72.8030357!16s%2Fg%2F11g9vlhy0g!19sChIJ5yo7w6qeITkRPaX7bjG2oNE?authuser=0&hl=en&rclk=1,"32.158381,72.8030357"
purani masjid,Mosque,"J224+R7J purani masjid, Wadali Dogran, Rakh Devi Dasspura, Punjab 143113",,J224+R7J,"Wadali Dogran, Rakh Devi Dasspura",143113,Punjab,IN,https://www.google.com/maps/place/purani+masjid/data=!4m7!3m6!1s0x391bd79482d8dba9:0x25f82c6f4af57eed!8m2!3d31.6020852!4d75.0056533!16s%2Fg%2F11rp35kqth!19sChIJqdvYgpTXGzkR7X71Sm8s-CU?authuser=0&hl=en&rclk=1,"31.602085199999998,75.00565329999999"
Kasaiyo wali masjid,Mosque,"5R44+H3 Kasaiyo wali masjid, Ajnala Lok, Sargodha, Punjab, Pakistan",,5R44+H3,Ajnala Lok,,"Sargodha, Punjab",PK,https://www.google.com/maps/place/Kasaiyo+wali+masjid/data=!4m7!3m6!1s0x39219b4d81ba9757:0x9ac5c2de173d9db8!8m2!3d32.156486!4d72.8051493!16s%2Fg%2F11s0tb73v7!19sChIJV5e6gU2bITkRuJ09F97CxZo?authuser=0&hl=en&rclk=1,"32.156486,72.8051493"
Madina Masjid Mirowal,Mosque,"WJPP+687 Madina Masjid Mirowal, MIRROWAL TEHSIL MURIDKE DISTTRICT, Miroo Wal, Sheikhupura, Punjab, Pakistan",,"WJPP+687, MIRROWAL TEHSIL MURIDKE DISTTRICT",Miroo Wal,,"Sheikhupura, Punjab",PK,https://www.google.com/maps/place/Madina+Masjid+Mirowal/data=!4m7!3m6!1s0x39194713669c66fb:0x6b872f15e6f1f2f1!8m2!3d31.9355381!4d74.6357924!16s%2Fg%2F11rn3xx2zx!19sChIJ-2acZhNHGTkR8fLx5hUvh2s?authuser=0&hl=en&rclk=1,"31.9355381,74.6357924"
Noor Masjid,Mosque,"RQFW+FWX Noor Masjid, Dhariwal, kalair, Punjab",,"RQFW+FWX, Dhariwal","kalair, Dhariwal",,Punjab,IN,https://www.google.com/maps/place/Noor+Masjid/data=!4m7!3m6!1s0x39195d09a2d8490b:0xc6ad3cc74b3fbb1f!8m2!3d31.823747!4d74.7973647!16s%2Fg%2F11fk3wl_99!19sChIJC0nYogldGTkRH7s_S8c8rcY?authuser=0&hl=en&rclk=1,"31.823746999999997,74.7973647"
Jamia Masjid Ajnala,Mosque,"Q6VR+89P Jamia Masjid Ajnala, Ajnala, Gujrat, Punjab, Pakistan",,Q6VR+89P,Ajnala,,"Gujrat, Punjab",PK,https://www.google.com/maps/place/Jamia+Masjid+Ajnala/data=!4m7!3m6!1s0x391e5562782b225b:0xffaadef764c0eed1!8m2!3d32.7937489!4d74.2406367!16s%2Fg%2F11v9_m_bk2!19sChIJWyIreGJVHjkR0e7AZPfeqv8?authuser=0&hl=en&rclk=1,"32.7937489,74.2406367"
Jama Masjid Sohian Kalan,Mosque,"PWV7+MVG Jama Masjid Sohian Kalan, Shanewali, Sohian Kalan, Punjab 143601",,PWV7+MVG,"Shanewali, Sohian Kalan",143601,Punjab,IN,https://www.google.com/maps/place/Jama+Masjid+Sohian+Kalan/data=!4m7!3m6!1s0x3919615b7da3b531:0x181788df0bb11a7f!8m2!3d31.7441821!4d74.9147073!16s%2Fg%2F11shp8xxqf!19sChIJMbWjfVthGTkRfxqxC9-IFxg?authuser=0&hl=en&rclk=1,"31.7441821,74.9147073"
Masjid Bilal msjd bll,Mosque,"Q6VR+89P Masjid Bilal msjd bll, Ajnala, Gujrat, Punjab, Pakistan",,Q6VR+89P,Ajnala,,"Gujrat, Punjab",PK,https://www.google.com/maps/place/Masjid+Bilal+%D9%85%D8%B3%D8%AC%D8%AF+%D8%A8%D9%84%D8%A7%D9%84%E2%80%AD/data=!4m7!3m6!1s0x391e5599fa530b67:0x46dd9071ca6b6549!8m2!3d32.7923034!4d74.2414269!16s%2Fg%2F11t7t0_46c!19sChIJZwtT-plVHjkRSWVrynGQ3UY?authuser=0&hl=en&rclk=1,"32.7923034,74.2414269"
Masjid bani ismaeel,Mosque,"XMX9+R2 Masjid bani ismaeel, Baddomalhi, Narowal, Punjab, Pakistan",,XMX9+R2,Baddomalhi,,"Narowal, Punjab",PK,https://www.google.com/maps/place/Masjid+bani+ismaeel/data=!4m7!3m6!1s0x3919494ae4e986fb:0xf5b3086e9cd118b0!8m2!3d31.9995407!4d74.667587!16s%2Fg%2F11p64d2tj2!19sChIJ-4bp5EpJGTkRsBjRnG4Is_U?authuser=0&hl=en&rclk=1,"31.999540699999997,74.667587"
