name,main_category,address,address_ward,address_street,address_city,address_postal_code,address_state,address_country_code,link,coordinates
Saifee bohra Mosque,Mosque,"Saifee bohra Mosque, 55, Moore St, Mannadi, George Town, Chennai, Tamil Nadu 600001","Mannadi, George Town","55, Moore St",Chennai,600001,Tamil Nadu,IN,https://www.google.com/maps/place/Saifee+bohra+Mosque/data=!4m7!3m6!1s0x3a526f4fac855679:0x2354eac69a8bc804!8m2!3d13.0915575!4d80.2902084!16s%2Fg%2F1tcwddjq!19sChIJeVaFrE9vUjoRBMiLmsbqVCM?authuser=0&hl=en&rclk=1,"13.091557499999999,80.2902084"
TNTJ Masjid Aminjikarai,Mosque,"TNTJ Masjid Aminjikarai, Aminjikarai, Chennai, Tamil Nadu 600030",Aminjikarai,,Chennai,600030,Tamil Nadu,IN,https://www.google.com/maps/place/TNTJ+Masjid+Aminjikarai/data=!4m7!3m6!1s0x3a526783adc5685d:0xe0442b2e35f66b0!8m2!3d13.0747112!4d80.2251368!16s%2Fg%2F11v0xsn4rk!19sChIJXWjFrYNnUjoRsGZf47JCBA4?authuser=0&hl=en&rclk=1,"13.0747112,80.2251368"
Kodambakkam Puliyur Masjid,Mosque,"Kodambakkam Puliyur Masjid, 32, Arcot Rd, Zachariah Colony, Kodambakkam, Chennai, Tamil Nadu 600024","Zachariah Colony, Kodambakkam","32, Arcot Rd",Chennai,600024,Tamil Nadu,IN,https://www.google.com/maps/place/Kodambakkam+Puliyur+Masjid/data=!4m7!3m6!1s0x3a5266f45244263b:0x5b80b467d5645fe1!8m2!3d13.0542849!4d80.2292639!16s%2Fg%2F1td_3lyn!19sChIJOyZEUvRmUjoR4V9k1We0gFs?authuser=0&hl=en&rclk=1,"13.054284899999999,80.22926389999999"
Periamet Masjid,Mosque,"Periamet Masjid, 61, Raja Muthiah Rd, Periamet, Periyamedu, Periyamet, Chennai, Tamil Nadu 600003","Periamet, Periyamedu, Periyamet","61, Raja Muthiah Rd",Chennai,600003,Tamil Nadu,IN,https://www.google.com/maps/place/Periamet+Masjid/data=!4m7!3m6!1s0x3a5265fdcc09e387:0x679b53c25be7ec7b!8m2!3d13.0845319!4d80.2701389!16s%2Fm%2F0n46hnj!19sChIJh-MJzP1lUjoRe-znW8JTm2c?authuser=0&hl=en&rclk=1,"13.0845319,80.27013889999999"
Mana Muna Masjid,Mosque,"3782+5XP Mana Muna Masjid, Nungambakkam, Moores Rd, Thousand Lights West, Thousand Lights, Chennai, Tamil Nadu 600006","Thousand Lights West, Thousand Lights","3782+5XP, Nungambakkam, Moores Rd",Chennai,600006,Tamil Nadu,IN,https://www.google.com/maps/place/Mana+Muna+Masjid/data=!4m7!3m6!1s0x3a52666c8cf00313:0x837987a0cedd8005!8m2!3d13.0654719!4d80.2524558!16s%2Fg%2F1q64fdh4g!19sChIJEwPwjGxmUjoRBYDdzqCHeYM?authuser=0&hl=en&rclk=1,"13.065471899999999,80.25245579999999"
Jamia Masjid,Mosque,"Jamia Masjid, New No. 562, Old No. 685, Periyar EVR Salai, P.H. Road, Aminjikarai, Shenoy Nagar, Chennai, Tamil Nadu 600029",Shenoy Nagar,"New No. 562, Old No. 685, Periyar EVR Salai, P.H. Road, Aminjikarai",Chennai,600029,Tamil Nadu,IN,https://www.google.com/maps/place/Jamia+Masjid/data=!4m7!3m6!1s0x3a5266841b5279bf:0x7025f75353f2f956!8m2!3d13.074039!4d80.2261634!16s%2Fg%2F1ptyzwt6j!19sChIJv3lSG4RmUjoRVvnyU1P3JXA?authuser=0&hl=en&rclk=1,"13.074038999999999,80.22616339999999"
Model School Road Mosque - Anjuman,Mosque,"3752+4RV Model School Road Mosque - Anjuman, Model School Rd, Thousand Lights West, Thousand Lights, Chennai, Tamil Nadu 600006","Thousand Lights West, Thousand Lights","3752+4RV, Model School Rd",Chennai,600006,Tamil Nadu,IN,https://www.google.com/maps/place/Model+School+Road+Mosque+-+Anjuman/data=!4m7!3m6!1s0x3a5266403225434b:0xc7c8954d4fa4b9dd!8m2!3d13.0578706!4d80.252032!16s%2Fg%2F1ptzdrv1c!19sChIJS0MlMkBmUjoR3bmkT02VyMc?authuser=0&hl=en&rclk=1,"13.0578706,80.252032"
Azad Nagar Mosque,Mosque,"3699+82Q Azad Nagar Mosque, Maraimalai St, Ayyavoo Colony, Choolaimedu, Chennai, Tamil Nadu 600029","Ayyavoo Colony, Choolaimedu","3699+82Q, Maraimalai St",Chennai,600029,Tamil Nadu,IN,https://www.google.com/maps/place/Azad+Nagar+Mosque/data=!4m7!3m6!1s0x3a526690845ded39:0x78304cf65458d713!8m2!3d13.0683422!4d80.2176234!16s%2Fg%2F1tdghpjq!19sChIJOe1dhJBmUjoRE9dYVPZMMHg?authuser=0&hl=en&rclk=1,"13.0683422,80.2176234"
Makkah Masjid and Islamic Center,Mosque,"Makkah Masjid and Islamic Center, #822, Anna Salai, Chennai, Tamil Nadu 600002",Anna Salai,"#822, Anna Salai",Chennai,600002,Tamil Nadu,IN,https://www.google.com/maps/place/Makkah+Masjid+and+Islamic+Center/data=!4m7!3m6!1s0x3a52661a47b0a1eb:0x34790900f17281e2!8m2!3d13.066498!4d80.267561!16s%2Fg%2F1tgw8b64!19sChIJ66GwRxpmUjoR4oFy8QAJeTQ?authuser=0&hl=en&rclk=1,"13.066498,80.267561"
Masjid-e-Abdul Ali,Mosque,"37Q3+W9M Masjid-e-Abdul Ali, Thandavarayan St, Near Tana Street, Otteri, Purasaiwakkam, Chennai, Tamil Nadu 600084","Otteri, Purasaiwakkam","37Q3+W9M, Thandavarayan St, Near Tana Street",Chennai,600084,Tamil Nadu,IN,https://www.google.com/maps/place/Masjid-e-Abdul+Ali/data=!4m7!3m6!1s0x3a5265dd9e79d571:0x814976539cdec938!8m2!3d13.089845!4d80.2534318!16s%2Fg%2F1260_bks8!19sChIJcdV5nt1lUjoROMnenFN2SYE?authuser=0&hl=en&rclk=1,"13.089844999999999,80.2534318"
Malabar Muslim Association Masjid [Separate Ladies Prayer Area],Mosque,"20, Malabar Muslim Association Masjid [Separate Ladies Prayer Area], Railway Station, 14, Kennet Ln, opp. Egmore, opp. Hotel Pandian, Egmore, Chennai, Tamil Nadu 600008",Egmore,"20, Railway Station, 14, Kennet Ln, opp. Egmore, opp. Hotel Pandian",Chennai,600008,Tamil Nadu,IN,https://www.google.com/maps/place/Malabar+Muslim+Association+Masjid+%5BSeparate+Ladies+Prayer+Area%5D/data=!4m7!3m6!1s0x3a52660eda9d2815:0xcb71cdd2f48b8df3!8m2!3d13.0754473!4d80.2624926!16s%2Fg%2F1pxwdzxbs!19sChIJFSid2g5mUjoR842L9NLNccs?authuser=0&hl=en&rclk=1,"13.075447299999999,80.2624926"
Masjid-e-Hazrat Umer Farooq,Mosque,"36CR+WG4 Masjid-e-Hazrat Umer Farooq, Dr Guruswamy Bridge, MS Colony, Jagannathapuram, Chetpet, Chennai, Tamil Nadu 600031","MS Colony, Jagannathapuram, Chetpet","36CR+WG4, Dr Guruswamy Bridge",Chennai,600031,Tamil Nadu,IN,https://www.google.com/maps/place/Masjid-e-Hazrat+Umer+Farooq/data=!4m7!3m6!1s0x3a52667af70f0651:0x2da0ab8b297a54d5!8m2!3d13.0722611!4d80.2413257!16s%2Fg%2F1q6h_dlqh!19sChIJUQYP93pmUjoR1VR6KYuroC0?authuser=0&hl=en&rclk=1,"13.072261099999999,80.24132569999999"
Masjid-E-Mahmoodi,Mosque,"3744+84G Masjid-E-Mahmoodi, Greams Road-Anna Salai Corner, Aziz Mulk 1st St, Thousand Lights, Chennai, Tamil Nadu 600006","Thousand Lights West, Thousand Lights","3744+84G, Greams Road-Anna Salai Corner, Aziz Mulk 1st St",Chennai,600006,Tamil Nadu,IN,https://www.google.com/maps/place/Masjid-E-Mahmoodi/data=!4m7!3m6!1s0x3a52663f77cc309b:0xecaaf5fce0c39af7!8m2!3d13.0558021!4d80.2553133!16s%2Fg%2F1tz9450t!19sChIJmzDMdz9mUjoR95rD4Pz1quw?authuser=0&hl=en&rclk=1,"13.0558021,80.2553133"
Masjid E Ahle Hadees Charminar,Mosque,"Masjid E Ahle Hadees Charminar, 191, Perambur Barracks Rd, Dadashamakan, Jamalia, Chennai, Tamil Nadu 600012","Dadashamakan, Jamalia","191, Perambur Barracks Rd",Chennai,600012,Tamil Nadu,IN,https://www.google.com/maps/place/Masjid+E+Ahle+Hadees+Charminar/data=!4m7!3m6!1s0x3a5265e95aaff6ab:0x2f469bcab8daccee!8m2!3d13.0978265!4d80.2591877!16s%2Fg%2F1260mrsk1!19sChIJq_avWullUjoR7szauMqbRi8?authuser=0&hl=en&rclk=1,"13.0978265,80.2591877"
Masjid Mahmood,Mosque,"367J+X53 Masjid Mahmood, Basha St, Thiruvalluvar Puram, Choolaimedu, Chennai, Tamil Nadu 600094","Thiruvalluvar Puram, Choolaimedu","367J+X53, Basha St",Chennai,600094,Tamil Nadu,IN,https://www.google.com/maps/place/Masjid+Mahmood/data=!4m7!3m6!1s0x3a526781954f8cc1:0x9cd1e89aedecfda7!8m2!3d13.064893!4d80.230418!16s%2Fg%2F11g0ll7026!19sChIJwYxPlYFnUjoRp_3s7Zro0Zw?authuser=0&hl=en&rclk=1,"13.064893,80.230418"
Jamia Masjid Kilpauk,Mosque,"36QV+99Q Jamia Masjid Kilpauk, Barakka Rd, Near Secretariat Colony, Medavakkam, Kilpauk, Chennai, Tamil Nadu 600010","Medavakkam, Kilpauk","36QV+99Q, Barakka Rd, Near Secretariat Colony",Chennai,600010,Tamil Nadu,IN,https://www.google.com/maps/place/Jamia+Masjid+Kilpauk/data=!4m7!3m6!1s0x3a5265da74595d0b:0xa2b4afb703293741!8m2!3d13.0884545!4d80.2434862!16s%2Fg%2F11bbs2z7bf!19sChIJC11ZdNplUjoRQTcpA7evtKI?authuser=0&hl=en&rclk=1,"13.0884545,80.24348619999999"
Masjid-e-Muqaddas,Mosque,"37X5+HQ4 Masjid-e-Muqaddas, Perambur Barracks Rd, Buckingham Carnatic Mills, Jamalia, Chennai, Tamil Nadu 600012","Buckingham Carnatic Mills, Jamalia","37X5+HQ4, Perambur Barracks Rd",Chennai,600012,Tamil Nadu,IN,https://www.google.com/maps/place/Masjid-e-Muqaddas/data=!4m7!3m6!1s0x3a5265ebfd44d207:0x10ae66faddf7fd18!8m2!3d13.0988812!4d80.259453!16s%2Fg%2F11b63c14bd!19sChIJB9JE_etlUjoRGP333fpmrhA?authuser=0&hl=en&rclk=1,"13.0988812,80.259453"
Katheejathul Qubra Masjid,Mosque,"Katheejathul Qubra Masjid, 98, Valluvar Kottam High Rd, Jayalakshmipuram, Seetha Nagar, Nungambakkam, Chennai, Tamil Nadu 600034","Jayalakshmipuram, Seetha Nagar, Nungambakkam","98, Valluvar Kottam High Rd",Chennai,600034,Tamil Nadu,IN,https://www.google.com/maps/place/Katheejathul+Qubra+Masjid/data=!4m7!3m6!1s0x3a526667d25e7f33:0xf80077c997bfd552!8m2!3d13.0608567!4d80.2428518!16s%2Fg%2F1tf195bh!19sChIJM39e0mdmUjoRUtW_l8l3APg?authuser=0&hl=en&rclk=1,"13.060856699999999,80.2428518"
Masjid-e-Rahmaniya,Mosque,"3763+9RG Masjid-e-Rahmaniya, Opp.Apollo Heart Centre, Begum Sahib St, Thousand Lights East, Thousand Lights, Chennai, Tamil Nadu 600006","Thousand Lights East, Thousand Lights","3763+9RG, Opp.Apollo Heart Centre, Begum Sahib St",Chennai,600006,Tamil Nadu,IN,https://www.google.com/maps/place/Masjid-e-Rahmaniya/data=!4m7!3m6!1s0x3a52661530233bab:0x6bfacbe117600549!8m2!3d13.0609263!4d80.2545929!16s%2Fg%2F1th08w36!19sChIJqzsjMBVmUjoRSQVgF-HL-ms?authuser=0&hl=en&rclk=1,"13.0609263,80.25459289999999"
Maami Laatha Masjid - Hameed Fathima Palli,Mosque,"Maami Laatha Masjid - Hameed Fathima Palli, 78, Wallace Gdn 3rd St, Sadras, Thousand Lights, Chennai, Tamil Nadu 600006","Sadras, Thousand Lights","78, Wallace Gdn 3rd St",Chennai,600006,Tamil Nadu,IN,https://www.google.com/maps/place/Maami+Laatha+Masjid+-+Hameed+Fathima+Palli/data=!4m7!3m6!1s0x3a5267a3ee210431:0xa236f927af8a35e9!8m2!3d13.0615305!4d80.2516257!16s%2Fg%2F11bz0vzw88!19sChIJMQQh7qNnUjoR6TWKryf5NqI?authuser=0&hl=en&rclk=1,"13.0615305,80.25162569999999"
Al-Huda Jumma Masjid & Madarasa,Mosque,"Al-Huda Jumma Masjid & Madarasa, 24 30, Kamarajapuram 2nd St, Kakkan Colony, Kamarajapuram, Nungambakkam, Chennai, Tamil Nadu 600034","Kakkan Colony, Kamarajapuram, Nungambakkam","24 30, Kamarajapuram 2nd St",Chennai,600034,Tamil Nadu,IN,https://www.google.com/maps/place/Al-Huda+Jumma+Masjid+%26+Madarasa/data=!4m7!3m6!1s0x3a52665c21b97231:0xc7af963cc847ac7b!8m2!3d13.0539452!4d80.2379541!16s%2Fg%2F11bz0b313t!19sChIJMXK5IVxmUjoRe6xHyDyWr8c?authuser=0&hl=en&rclk=1,"13.0539452,80.2379541"
Fathima Islamic Cultural Society,Mosque,"Fathima Islamic Cultural Society, 130,, Nelson Manickam Rd, Rajaram Mehta Nagar, Aminjikarai, Chennai, Tamil Nadu 600029","Rajaram Mehta Nagar, Aminjikarai","130,, Nelson Manickam Rd",Chennai,600029,Tamil Nadu,IN,https://www.google.com/maps/place/Fathima+Islamic+Cultural+Society/data=!4m7!3m6!1s0x3a526688b7a2530d:0x683f1ad64bbc0f09!8m2!3d13.0687506!4d80.2259364!16s%2Fg%2F124st9sk0!19sChIJDVOit4hmUjoRCQ-8S9YaP2g?authuser=0&hl=en&rclk=1,"13.0687506,80.2259364"
Masjid e Hafeezia Ahle Hadees Pattalam,Mosque,"37W4+X4V Masjid e Hafeezia Ahle Hadees Pattalam, Strahans Rd, Ethiraj Gardens, Purasaiwakkam, Chennai, Tamil Nadu 600012","Ethiraj Gardens, Purasaiwakkam","37W4+X4V, Strahans Rd",Chennai,600012,Tamil Nadu,IN,https://www.google.com/maps/place/Masjid+e+Hafeezia+Ahle+Hadees+Pattalam/data=!4m7!3m6!1s0x3a5265e9e857dc91:0xad8776b2e30870f!8m2!3d13.0974952!4d80.2552852!16s%2Fg%2F1tycv1r8!19sChIJkdxX6OllUjoRD4cwLmt32Ao?authuser=0&hl=en&rclk=1,"13.0974952,80.2552852"
Masjid-e-Qudusiya,Mosque,"377H+V7F Masjid-e-Qudusiya, Bells Road-Walajah Road Corner, Wallahjah Rd, Triplicane, Chennai, Tamil Nadu 600014","Chepauk, Triplicane","377H+V7F, Bells Road-Walajah Road Corner, Wallahjah Rd",Chennai,600014,Tamil Nadu,IN,https://www.google.com/maps/place/Masjid-e-Qudusiya/data=!4m7!3m6!1s0x3a52662031ff9fef:0x9cae3008c4be4e71!8m2!3d13.0646956!4d80.2781757!16s%2Fg%2F1thgffxh!19sChIJ75__MSBmUjoRcU6-xAgwrpw?authuser=0&hl=en&rclk=1,"13.064695599999999,80.27817569999999"
Purasai Jumma Masjid,Mosque,"Purasai Jumma Masjid, 82/48, PM Ln, Purasaiwakkam, Chennai, Tamil Nadu 600084",Purasaiwakkam,"82/48, PM Ln",Chennai,600084,Tamil Nadu,IN,https://www.google.com/maps/place/Purasai+Jumma+Masjid/data=!4m7!3m6!1s0x3a5265e05ecfae6b:0xb2d9318f6656edb!8m2!3d13.0841065!4d80.2559004!16s%2Fg%2F11css0my6r!19sChIJa67PXuBlUjoR225l9hiTLQs?authuser=0&hl=en&rclk=1,"13.084106499999999,80.2559004"
"Madrasa e Azam Mosque, Chennai Markaz",Mosque,"3777+J2M Madrasa e Azam Mosque, Chennai Markaz, Government Madrasa-i-Azam Hr Sec School Campus, Anna Salai, Chennai, Tamil Nadu 600002",Anna Salai,"3777+J2M, Government Madrasa-i-Azam Hr Sec School Campus",Chennai,600002,Tamil Nadu,IN,"https://www.google.com/maps/place/Madrasa+e+Azam+Mosque,+Chennai+Markaz/data=!4m7!3m6!1s0x3a526616d76425c3:0x7775ce271b2feeda!8m2!3d13.0640841!4d80.262555!16s%2Fg%2F11bbt67wzb!19sChIJwyVk1xZmUjoR2u4vGyfOdXc?authuser=0&hl=en&rclk=1","13.064084099999999,80.26255499999999"
Al-Furkan Masjid and dawah centre,Mosque,"369J+2HP Al-Furkan Masjid and dawah centre, West Namasivaya Puram, Choolaimedu, Chennai, Tamil Nadu 600094","West Namasivaya Puram, Choolaimedu",369J+2HP,Chennai,600094,Tamil Nadu,IN,https://www.google.com/maps/place/Al-Furkan+Masjid+and+dawah+centre/data=!4m7!3m6!1s0x3a5266882336d039:0xd354dc4797d28711!8m2!3d13.0675984!4d80.2314632!16s%2Fg%2F12hks6jjx!19sChIJOdA2I4hmUjoREYfSl0fcVNM?authuser=0&hl=en&rclk=1,"13.0675984,80.2314632"
Masjid-e-Rahmani,Mosque,"36JG+VVP Masjid-e-Rahmani, Cemetery Rd, KVN Puram, Shenoy Nagar, Chennai, Tamil Nadu 600030","KVN Puram, Shenoy Nagar","36JG+VVP, Cemetery Rd",Chennai,600030,Tamil Nadu,IN,https://www.google.com/maps/place/Masjid-e-Rahmani/data=!4m7!3m6!1s0x3a52642a2345b83b:0xced30f78db3df17a!8m2!3d13.0822198!4d80.2272001!16s%2Fg%2F1ptyg46ff!19sChIJO7hFIypkUjoRevE923gP084?authuser=0&hl=en&rclk=1,"13.082219799999999,80.22720009999999"
Madarsa-e-Saliha,Mosque,"37P4+QR3 Madarsa-e-Saliha, Mookathal St, Above Chennai Fashion, Perumalpet, Purasaiwakkam, Chennai, Tamil Nadu 600010","Perumalpet, Purasaiwakkam","37P4+QR3, Mookathal St, Above Chennai Fashion",Chennai,600010,Tamil Nadu,IN,https://www.google.com/maps/place/Madarsa-e-Saliha/data=!4m7!3m6!1s0x3a5265e0d68a5653:0xa796a86405071b2!8m2!3d13.0868954!4d80.2570394!16s%2Fg%2F11b6b84pzb!19sChIJU1aK1uBlUjoRsnFQQIZqeQo?authuser=0&hl=en&rclk=1,"13.0868954,80.2570394"
Masjid-e-Basith,Mosque,"Masjid-e-Basith, Jyothi, Jothi Venkatachalam Rd, Vepery, Periyamet, Chennai, Tamil Nadu 600007","Vepery, Periyamet","Jyothi, Jothi Venkatachalam Rd",Chennai,600007,Tamil Nadu,IN,https://www.google.com/maps/place/Masjid-e-Basith/data=!4m7!3m6!1s0x3a5265e2ec42ad65:0x6fec107b18ee4bbe!8m2!3d13.0836027!4d80.2636287!16s%2Fg%2F124ycn0cm!19sChIJZa1C7OJlUjoRvkvuGHsQ7G8?authuser=0&hl=en&rclk=1,"13.0836027,80.2636287"
KMC Mosque,Mosque,"KMC Mosque, 821, Poonamallee High Rd, New Bupathy Nagar, Kilpauk, Chennai, Tamil Nadu 600010","New Bupathy Nagar, Kilpauk","821, Poonamallee High Rd",Chennai,600010,Tamil Nadu,IN,https://www.google.com/maps/place/KMC+Mosque/data=!4m7!3m6!1s0x3a526679e1fd4531:0xad383bba3cc33d61!8m2!3d13.0774734!4d80.2432887!16s%2Fg%2F11dynx1_ts!19sChIJMUX94XlmUjoRYT3DPLo7OK0?authuser=0&hl=en&rclk=1,"13.077473399999999,80.2432887"
pllllivaacl | Masjid,Mosque,"3746+F22 pllllivaacl | Masjid, ROB Main St, Peters Colony, Royapettah, Chennai, Tamil Nadu 600014","Peters Colony, Royapettah","3746+F22, ROB Main St",Chennai,600014,Tamil Nadu,IN,https://www.google.com/maps/place/%E0%AE%AA%E0%AE%B3%E0%AF%8D%E0%AE%B3%E0%AE%BF%E0%AE%B5%E0%AE%BE%E0%AE%9A%E0%AE%B2%E0%AF%8D+%7C+Masjid/data=!4m7!3m6!1s0x3a52679a0781cec1:0x4cd00d4817234b61!8m2!3d13.0561445!4d80.2600227!16s%2Fg%2F11g07zp5_z!19sChIJwc6BB5pnUjoRYUsjF0gN0Ew?authuser=0&hl=en&rclk=1,"13.0561445,80.2600227"
Quaid e Millath Jumma Masjid,Mosque,"Quaid e Millath Jumma Masjid, Border Thottam, Padupakkam, Triplicane, Chennai, Tamil Nadu 600002","Border Thottam, Padupakkam, Triplicane",,Chennai,600002,Tamil Nadu,IN,https://www.google.com/maps/place/Quaid+e+Millath+Jumma+Masjid/data=!4m7!3m6!1s0x3a52661943ab42ad:0xfcd4ad39d948cff2!8m2!3d13.0640968!4d80.2702783!16s%2Fg%2F11f0_fk90c!19sChIJrUKrQxlmUjoR8s9I2Tmt1Pw?authuser=0&hl=en&rclk=1,"13.0640968,80.2702783"
Neel Bathi Masjid,Mosque,"37Q8+8HR Neel Bathi Masjid, Aarni Muthu St, Periyamedu, Choolai, Chennai, Tamil Nadu 600007","Periyamedu, Choolai","37Q8+8HR, Aarni Muthu St",Chennai,600007,Tamil Nadu,IN,https://www.google.com/maps/place/Neel+Bathi+Masjid/data=!4m7!3m6!1s0x3a5265fb5add97fd:0xd2bc1ff966341872!8m2!3d13.0883528!4d80.2664!16s%2Fg%2F11b6bbvk7w!19sChIJ_ZfdWvtlUjoRchg0ZvkfvNI?authuser=0&hl=en&rclk=1,"13.0883528,80.26639999999999"
Masjid,Mosque,"Masjid, 37, Jambulingam St, Pushpa Nagar, Nungambakkam, Chennai, Tamil Nadu 600034","Pushpa Nagar, Nungambakkam","37, Jambulingam St",Chennai,600034,Tamil Nadu,IN,https://www.google.com/maps/place/Masjid/data=!4m7!3m6!1s0x3a52675a7e8004e9:0x25161fdaf5254f08!8m2!3d13.0584317!4d80.2414791!16s%2Fg%2F11f657t8l3!19sChIJ6QSAflpnUjoRCE8l9dofFiU?authuser=0&hl=en&rclk=1,"13.0584317,80.24147909999999"
TNTJ Pudhupet,Mosque,"TNTJ Pudhupet, 61/52, Thulasingam St, Balaji Nagar, Pudupet, Komaleeswaranpet, Egmore, Chennai, Tamil Nadu 600002","Balaji Nagar, Pudupet, Komaleeswaranpet, Egmore","61/52, Thulasingam St",Chennai,600002,Tamil Nadu,IN,https://www.google.com/maps/place/TNTJ+Pudhupet/data=!4m7!3m6!1s0x3a52660e253f5279:0xe5597eeabad6eae!8m2!3d13.0710705!4d80.2620107!16s%2Fg%2F11g02m8pd5!19sChIJeVI_JQ5mUjoRrm6tq-6XVQ4?authuser=0&hl=en&rclk=1,"13.0710705,80.26201069999999"
Masjid-e-Ibrahim,Mosque,"3797+3Q2 Masjid-e-Ibrahim, Mir Madan Ali St, Pudupet, Komaleeswaranpet, Egmore, Chennai, Tamil Nadu 600002","Pudupet, Komaleeswaranpet, Egmore","3797+3Q2, Mir Madan Ali St",Chennai,600002,Tamil Nadu,IN,https://www.google.com/maps/place/Masjid-e-Ibrahim/data=!4m7!3m6!1s0x3a5266108a7e8c25:0x3b6c2e72ef488aeb!8m2!3d13.0676493!4d80.2643779!16s%2Fg%2F11b6hml4vf!19sChIJJYx-ihBmUjoR64pI73IubDs?authuser=0&hl=en&rclk=1,"13.0676493,80.2643779"
Noor-ul-Hudha sowrashtra Nagar mosque,Mosque,"366J+GP4 Noor-ul-Hudha sowrashtra Nagar mosque, 9th St, Sowrashtra Nagar, Choolaimedu, Chennai, Tamil Nadu 600094","Sowrashtra Nagar, Choolaimedu","366J+GP4, 9th St",Chennai,600094,Tamil Nadu,IN,https://www.google.com/maps/place/Noor-ul-Hudha+sowrashtra+Nagar+mosque/data=!4m7!3m6!1s0x3a52668a78c736ff:0xafe24973e203c063!8m2!3d13.0612629!4d80.2318371!16s%2Fg%2F1tdz37g3!19sChIJ_zbHeIpmUjoRY8AD4nNJ4q8?authuser=0&hl=en&rclk=1,"13.0612629,80.23183709999999"
TNTJ Mosque Purasaivakam,Mosque,"TNTJ Mosque Purasaivakam, 38/34, Purasaiwakkam, Chennai, Tamil Nadu 600084",Purasaiwakkam,38/34,Chennai,600084,Tamil Nadu,IN,https://www.google.com/maps/place/TNTJ+Mosque+Purasaivakam/data=!4m7!3m6!1s0x3a5265e0fbb4c707:0x15e498d9fb10bb00!8m2!3d13.0858507!4d80.2552798!16s%2Fg%2F11cmcxp5tx!19sChIJB8e0--BlUjoRALsQ-9mY5BU?authuser=0&hl=en&rclk=1,"13.0858507,80.2552798"
Masjid,Mosque,"Masjid, 26, Josier St, Ponnangipuram, Tirumurthy Nagar, Nungambakkam, Chennai, Tamil Nadu 600006","Ponnangipuram, Tirumurthy Nagar, Nungambakkam","26, Josier St",Chennai,600006,Tamil Nadu,IN,https://www.google.com/maps/place/Masjid/data=!4m7!3m6!1s0x3a526642e0f1c77d:0x255fff6703494596!8m2!3d13.0558885!4d80.2450285!16s%2Fg%2F11g8g13mx_!19sChIJfcfx4EJmUjoRlkVJA2f_XyU?authuser=0&hl=en&rclk=1,"13.0558885,80.24502849999999"
Masjid in egmore,Mosque,"Masjid in egmore, 11, Gandhi Irwin Rd, Egmore, Chennai, Tamil Nadu 600008",Egmore,"11, Gandhi Irwin Rd",Chennai,600008,Tamil Nadu,IN,https://www.google.com/maps/place/Masjid+in+egmore/data=!4m7!3m6!1s0x3a526608d7693a1d:0x9db4d0593854a1d0!8m2!3d13.0768458!4d80.2630388!16s%2Fg%2F11g8clh3y7!19sChIJHTpp1whmUjoR0KFUOFnQtJ0?authuser=0&hl=en&rclk=1,"13.0768458,80.26303879999999"
Thaha Jumma Masjid,Mosque,"Thaha Jumma Masjid, 90A, TNHB Colony, Purasaiwakkam, Chennai, Tamil Nadu 600010","TNHB Colony, Purasaiwakkam",90A,Chennai,600010,Tamil Nadu,IN,https://www.google.com/maps/place/Thaha+Jumma+Masjid/data=!4m7!3m6!1s0x3a5265c33fb975b7:0x32c19a309e7e30b9!8m2!3d13.0940902!4d80.2503858!16s%2Fg%2F11f5bnmxfp!19sChIJt3W5P8NlUjoRuTB-njCawTI?authuser=0&hl=en&rclk=1,"13.0940902,80.25038579999999"
Masjid-E-Ayesha,Mosque,"Masjid-E-Ayesha, 8/10, Convent St., Shenoy Nagar Next to Sheshaiya Hospital road, TP Chatram Main Rd, near Rajamani Clinic, Shenoy Nagar, Chennai, Tamil Nadu 600030",Shenoy Nagar,"8/10, Convent St., Shenoy Nagar Next to Sheshaiya Hospital road, TP Chatram Main Rd, near Rajamani Clinic",Chennai,600030,Tamil Nadu,IN,https://www.google.com/maps/place/Masjid-E-Ayesha/data=!4m7!3m6!1s0x3a526680e879d911:0x2649d449e9b4566d!8m2!3d13.0767574!4d80.2300164!16s%2Fg%2F11g8lqp3gb!19sChIJEdl56IBmUjoRbVa06UnUSSY?authuser=0&hl=en&rclk=1,"13.0767574,80.2300164"
Masjid-E-Azam,Mosque,"37X6+VPW Masjid-E-Azam, Pattalam, Choolai, Chennai, Tamil Nadu 600012","Pattalam, Choolai",37X6+VPW,Chennai,600012,Tamil Nadu,IN,https://www.google.com/maps/place/Masjid-E-Azam/data=!4m7!3m6!1s0x3a5265ec2533da37:0x7a7e94666e880f8b!8m2!3d13.0997381!4d80.2618323!16s%2Fg%2F11hcnyrqv0!19sChIJN9ozJexlUjoRiw-IbmaUfno?authuser=0&hl=en&rclk=1,"13.0997381,80.2618323"
Choti masjid,Mosque,"36VQ+3QJ Choti masjid, Ayanavaram Rd, Thiruvalluvar Nagar, Dr Ambedkar Nagar, Venkatesapuram Colony Extension, Kilpauk, Chennai, Tamil Nadu 600023","Thiruvalluvar Nagar, Dr Ambedkar Nagar, Venkatesapuram Colony Extension, Kilpauk","36VQ+3QJ, Ayanavaram Rd",Chennai,600023,Tamil Nadu,IN,https://www.google.com/maps/place/Choti+masjid/data=!4m7!3m6!1s0x3a5265ce26ac793d:0x88fb77b1ed055bee!8m2!3d13.0927112!4d80.2393763!16s%2Fg%2F1pp2wwdjn!19sChIJPXmsJs5lUjoR7lsF7bF3-4g?authuser=0&hl=en&rclk=1,"13.0927112,80.23937629999999"
Masjid e Yaqoobia Ahle Hadees Pulianthope,Mosque,"37X6+C4H Masjid e Yaqoobia Ahle Hadees Pulianthope, Demellows Rd, Pattalam, Choolai, Chennai, Tamil Nadu 600012","Pattalam, Choolai","37X6+C4H, Demellows Rd",Chennai,600012,Tamil Nadu,IN,https://www.google.com/maps/place/Masjid+e+Yaqoobia+Ahle+Hadees+Pulianthope/data=!4m7!3m6!1s0x3a5265eeabe1febd:0xaf540e59db732d0a!8m2!3d13.0985615!4d80.2603573!16s%2Fg%2F11bw46vzt8!19sChIJvf7hq-5lUjoRCi1z21kOVK8?authuser=0&hl=en&rclk=1,"13.098561499999999,80.2603573"
AL HUDA MASJID,Mosque,"AL HUDA MASJID, 48, SAIT Colony 2nd St, Egmore, Chennai, Tamil Nadu 600008",Egmore,"48, SAIT Colony 2nd St",Chennai,600008,Tamil Nadu,IN,https://www.google.com/maps/place/AL+HUDA+MASJID/data=!4m7!3m6!1s0x3a5267dbc4745289:0x2f7fea4567c62824!8m2!3d13.0719755!4d80.2538355!16s%2Fg%2F11scfz92mf!19sChIJiVJ0xNtnUjoRJCjGZ0Xqfy8?authuser=0&hl=en&rclk=1,"13.071975499999999,80.2538355"
Madrsa and Masjid e Azam (chennai markaz),Mosque,"Madrsa and Masjid e Azam (chennai markaz), Rayala Towers, Mount Rd, Anna Salai, Triplicane, Chennai, Tamil Nadu 600002","Anna Salai, Triplicane","Rayala Towers, Mount Rd",Chennai,600002,Tamil Nadu,IN,https://www.google.com/maps/place/Madrsa+and+Masjid+e+Azam+%28chennai+markaz%29/data=!4m7!3m6!1s0x3a52675433c9df2b:0x90f777e1cedb0f01!8m2!3d13.0631014!4d80.2639667!16s%2Fg%2F11t27xtt2v!19sChIJK9_JM1RnUjoRAQ_bzuF395A?authuser=0&hl=en&rclk=1,"13.063101399999999,80.2639667"
Jamia Masjid,Mosque,"Jamia Masjid, Secretariat Colony, Kilpauk, Chennai, Tamil Nadu 600010","Secretariat Colony, Kilpauk",,Chennai,600010,Tamil Nadu,IN,https://www.google.com/maps/place/Jamia+Masjid/data=!4m7!3m6!1s0x3a5265d081555555:0xcc92d7e87541049c!8m2!3d13.0892868!4d80.2429354!16s%2Fg%2F11bw4mwbln!19sChIJVVVVgdBlUjoRnARBdejXksw?authuser=0&hl=en&rclk=1,"13.0892868,80.2429354"
MOHIDEEN JUMMA MASJID,Mosque,"36FV+XPH MOHIDEEN JUMMA MASJID, Tnhb Flats 1, McNichols Rd, New Bupathy Nagar, Chetpet, Chennai, Tamil Nadu 600031","New Bupathy Nagar, Chetpet","36FV+XPH Tnhb Flats 1, McNichols Rd",Chennai,600031,Tamil Nadu,IN,https://www.google.com/maps/place/MOHIDEEN+JUMMA+MASJID/data=!4m7!3m6!1s0x3a5267e6bf238e57:0xbddbe8b48db8fe88!8m2!3d13.0749933!4d80.2443559!16s%2Fg%2F11sd_ltp3q!19sChIJV44jv-ZnUjoRiP64jbTo270?authuser=0&hl=en&rclk=1,"13.0749933,80.2443559"
Masjid Al Quddoos,Mosque,"Masjid Al Quddoos, 600002, Pudupet, Komaleeswaranpet, Egmore, Chennai, Tamil Nadu 600002","Pudupet, Komaleeswaranpet, Egmore",600002,Chennai,600002,Tamil Nadu,IN,https://www.google.com/maps/place/Masjid+Al+Quddoos/data=!4m7!3m6!1s0x3a5267e7bae43e79:0x12c4cb1903eb5d40!8m2!3d13.0683097!4d80.2674752!16s%2Fg%2F11r8v_c8fx!19sChIJeT7kuudnUjoRQF3rAxnLxBI?authuser=0&hl=en&rclk=1,"13.068309699999999,80.26747519999999"
Masjid-us-Salam,Mosque,"37C8+V3G Masjid-us-Salam, Pudupet, Komaleeswaranpet, Egmore, Chennai, Tamil Nadu 600002","Pudupet, Komaleeswaranpet, Egmore",37C8+V3G,Chennai,600002,Tamil Nadu,IN,https://www.google.com/maps/place/Masjid-us-Salam/data=!4m7!3m6!1s0x3a5267ae3f37f34f:0xe7b39aa3c3b0c864!8m2!3d13.0721777!4d80.2652138!16s%2Fg%2F11g_rl1k8w!19sChIJT_M3P65nUjoRZMiww6Oas-c?authuser=0&hl=en&rclk=1,"13.0721777,80.2652138"
Mosque street,Mosque,"36FG+R8P Mosque street, Masuthi St, Shenoy Nagar, Chennai, Tamil Nadu 600030",Shenoy Nagar,"36FG+R8P, Masuthi St",Chennai,600030,Tamil Nadu,IN,https://www.google.com/maps/place/Mosque+street/data=!4m7!3m6!1s0x3a5267ffde3f9a99:0xe55c34149f7ded93!8m2!3d13.0745752!4d80.2258413!16s%2Fg%2F11nry5q7hf!19sChIJmZo_3v9nUjoRk-19nxQ0XOU?authuser=0&hl=en&rclk=1,"13.0745752,80.2258413"
Masjid - Mosque Nungambakam,Mosque,"Masjid - Mosque Nungambakam, Masjid - mosque, 1st Cross St, Nungambakkam, Chennai, Tamil Nadu 600034",Nungambakkam,"Masjid - mosque, 1st Cross St",Chennai,600034,Tamil Nadu,IN,https://www.google.com/maps/place/Masjid+-+Mosque+Nungambakam/data=!4m7!3m6!1s0x3a5267aed8d408dd:0xf2a4e310f92da117!8m2!3d13.0629707!4d80.2368158!16s%2Fg%2F11s76tlqg3!19sChIJ3QjU2K5nUjoRF6Et-RDjpPI?authuser=0&hl=en&rclk=1,"13.0629707,80.2368158"
Masjid E Mahmood,Mosque,"37C8+9F4 Masjid E Mahmood, Narayana Naicken St, Pudupet, Komaleeswaranpet, Egmore, Chennai, Tamil Nadu 600002","Pudupet, Komaleeswaranpet, Egmore","37C8+9F4, Narayana Naicken St",Chennai,600002,Tamil Nadu,IN,https://www.google.com/maps/place/Masjid+E+Mahmood/data=!4m7!3m6!1s0x3a52661ab2d284f5:0x4804c02beda3db24!8m2!3d13.0708979!4d80.2661887!16s%2Fg%2F11tgg7jkxh!19sChIJ9YTSshpmUjoRJNuj7SvABEg?authuser=0&hl=en&rclk=1,"13.0708979,80.2661887"
Barracks Road Masjid,Mosque,"37M8+88H Barracks Road Masjid, Barracks Rd, Periyamet, Chennai, Tamil Nadu 600007",Periyamet,"37M8+88H, Barracks Rd",Chennai,600007,Tamil Nadu,IN,https://www.google.com/maps/place/Barracks+Road+Masjid/data=!4m7!3m6!1s0x3a5265fd4a115555:0xc42d1c7d64b27334!8m2!3d13.0833232!4d80.2658677!16s%2Fg%2F11sscsgn6k!19sChIJVVURSv1lUjoRNHOyZH0cLcQ?authuser=0&hl=en&rclk=1,"13.083323199999999,80.2658677"
Masjid Prayer Hall,Mosque,"363R+5W7 Masjid Prayer Hall, Dr MGR Salai, Tirumurthy Nagar, Nungambakkam, Chennai, Tamil Nadu 600034","Tirumurthy Nagar, Nungambakkam","363R+5W7, Dr MGR Salai",Chennai,600034,Tamil Nadu,IN,https://www.google.com/maps/place/Masjid+Prayer+Hall/data=!4m7!3m6!1s0x3a52673cb2b9a177:0x21272b434690324!8m2!3d13.0529176!4d80.24231!16s%2Fg%2F11hz7gkdrb!19sChIJd6G5sjxnUjoRJANpNLRyEgI?authuser=0&hl=en&rclk=1,"13.052917599999999,80.24231"
Deeniyath Welfare Association,Mosque,"Deeniyath Welfare Association, 11/4, Halls Rd, Telecom Quarters, Kilpauk, Chennai, Tamil Nadu 10","Telecom Quarters, Kilpauk","11/4, Halls Rd",Chennai,10,Tamil Nadu,IN,https://www.google.com/maps/place/Deeniyath+Welfare+Association/data=!4m7!3m6!1s0x3a52673d6238885b:0xdd2e4b3152451f6!8m2!3d13.0802802!4d80.2359137!16s%2Fg%2F11jz6gqn7t!19sChIJW4g4Yj1nUjoR9lEkFbPk0g0?authuser=0&hl=en&rclk=1,"13.080280199999999,80.2359137"
Masjid,Mosque,"11, Masjid, 1, Halls Rd, KVN Puram, Kilpauk, Chennai, Tamil Nadu 600010","KVN Puram, Kilpauk","11, 1, Halls Rd",Chennai,600010,Tamil Nadu,IN,https://www.google.com/maps/place/Masjid/data=!4m7!3m6!1s0x3a52674a9293062d:0xac199c9535fade5b!8m2!3d13.0802337!4d80.2360383!16s%2Fg%2F11vks94zm9!19sChIJLQaTkkpnUjoRW976NZWcGaw?authuser=0&hl=en&rclk=1,"13.080233699999999,80.23603829999999"
Shia masjid pudupet,Mosque,"3798+4FH Shia masjid pudupet, Syful Mulk Nawab St, Pudupet, Komaleeswaranpet, Egmore, Chennai, Tamil Nadu 600002","Pudupet, Komaleeswaranpet, Egmore","3798+4FH, Syful Mulk Nawab St",Chennai,600002,Tamil Nadu,IN,https://www.google.com/maps/place/Shia+masjid+pudupet/data=!4m7!3m6!1s0x3a52679a1d3b43a9:0x30174926a6faabeb!8m2!3d13.0678238!4d80.2662466!16s%2Fg%2F11sy3tt80l!19sChIJqUM7HZpnUjoR66v6piZJFzA?authuser=0&hl=en&rclk=1,"13.0678238,80.2662466"
Masjid,Mosque,"Masjid, 28, Narayana Naicken St, Pudupet, Komaleeswaranpet, Egmore, Chennai, Tamil Nadu 600002","Pudupet, Komaleeswaranpet, Egmore","28, Narayana Naicken St",Chennai,600002,Tamil Nadu,IN,https://www.google.com/maps/place/Masjid/data=!4m7!3m6!1s0x3a5267aed42d1c2d:0x2f9e8cd63546264a!8m2!3d13.0711814!4d80.264169!16s%2Fg%2F11j10qlz6t!19sChIJLRwt1K5nUjoRSiZGNdaMni8?authuser=0&hl=en&rclk=1,"13.071181399999999,80.264169"
Masjid aysha,Mosque,"Shop No:7, Masjid aysha, 4, Pandaram St, Salama Nagar, Purasaiwakkam, Chennai, Tamil Nadu 600007","Salama Nagar, Purasaiwakkam","Shop No:7, 4, Pandaram St",Chennai,600007,Tamil Nadu,IN,https://www.google.com/maps/place/Masjid+aysha/data=!4m7!3m6!1s0x3a52657f9eb17247:0x6623fd15d4555c23!8m2!3d13.0868791!4d80.251741!16s%2Fg%2F11l5l3bm8n!19sChIJR3Kxnn9lUjoRI1xV1BX9I2Y?authuser=0&hl=en&rclk=1,"13.086879099999999,80.251741"
Thowheed Jummah Mosque,Mosque,"3rd Floor, Thowheed Jummah Mosque, Nawab Habibullah Complex, Wallers Rd, Mount Road, Chintadripet, Chennai, Tamil Nadu 600002","Mount Road, Chintadripet","3rd Floor, Nawab Habibullah Complex, Wallers Rd",Chennai,600002,Tamil Nadu,IN,https://www.google.com/maps/place/Thowheed+Jummah+Mosque/data=!4m7!3m6!1s0x3a526712f1db661b:0xa518186a3017783d!8m2!3d13.0702596!4d80.2709208!16s%2Fg%2F11h2mcwmdp!19sChIJG2bb8RJnUjoRPXgXMGoYGKU?authuser=0&hl=en&rclk=1,"13.0702596,80.2709208"
