name,main_category,address,address_ward,address_street,address_city,address_postal_code,address_state,address_country_code,link,coordinates
Masjid e Moosa,Mosque,"Masjid e Moosa, 26 & 27, Shawzadhi, Begum St, Avarapakkam, Tindivanam, Tamil Nadu 604001","MGR Nagar, Avarapakkam","26 & 27, Shawzadhi, Begum St",Tindivanam,604001,Tamil Nadu,IN,https://www.google.com/maps/place/Masjid+e+Moosa/data=!4m7!3m6!1s0x3a5347a52c87a1cb:0x9c71a648ab016cf9!8m2!3d12.2411431!4d79.6438658!16s%2Fg%2F11q8wf9zwv!19sChIJy6GHLKVHUzoR-WwBq0imcZw?authuser=0&hl=en&rclk=1,"12.241143099999999,79.6438658"
Alhudha Masjid,Mosque,"7JW8+G29 Alhudha Masjid, Tindivanam - Vandavasi Rd, Govindapuram, Govidapuram, Tamil Nadu 604207",,"7JW8+G29, Tindivanam - Vandavasi Rd","Govindapuram, Govidapuram",604207,Tamil Nadu,IN,https://www.google.com/maps/place/Alhudha+Masjid/data=!4m7!3m6!1s0x3a53390567f94967:0xd1e8b5fbd0af00ea!8m2!3d12.2962978!4d79.6150996!16s%2Fg%2F11c5_gktry!19sChIJZ0n5ZwU5UzoR6gCv0Pu16NE?authuser=0&hl=en&rclk=1,"12.2962978,79.6150996"
Gidangal Mosque,Mosque,"6JGX+75M Gidangal Mosque, Gidangal 1, Tindivanam, Tamil Nadu 604001",Gidangal 1,6JGX+75M,Tindivanam,604001,Tamil Nadu,IN,https://www.google.com/maps/place/Gidangal+Mosque/data=!4m7!3m6!1s0x3a53474c8e542bf5:0xafcddb979a622bd2!8m2!3d12.2257218!4d79.6479262!16s%2Fg%2F1pp2x8qrw!19sChIJ9StUjkxHUzoR0itimpfbza8?authuser=0&hl=en&rclk=1,"12.225721799999999,79.6479262"
Masjid-E-Nabavi (Mosque),Mosque,"6M98+453 Masjid-E-Nabavi (Mosque), SH 134, Manoor, Tindivanam, Tamil Nadu 604001",Manoor,"6M98+453, SH 134",Tindivanam,604001,Tamil Nadu,IN,https://www.google.com/maps/place/Masjid-E-Nabavi+%28Mosque%29/data=!4m7!3m6!1s0x3a5340c71649c3bd:0xf0db2989ae63be35!8m2!3d12.2177575!4d79.6654269!16s%2Fg%2F1pp2x8qmp!19sChIJvcNJFsdAUzoRNb5jrokp2_A?authuser=0&hl=en&rclk=1,"12.2177575,79.6654269"
Mubarak Masjid,Mosque,"6JFR+J2V Mubarak Masjid, Bootheri, Tindivanam, Tamil Nadu 604001",Bootheri,6JFR+J2V,Tindivanam,604001,Tamil Nadu,IN,https://www.google.com/maps/place/Mubarak+Masjid/data=!4m7!3m6!1s0x3a534748b6ad5ded:0xea58a9ed68f00d20!8m2!3d12.2241138!4d79.6400401!16s%2Fg%2F11ck69pvl8!19sChIJ7V2ttkhHUzoRIA3waO2pWOo?authuser=0&hl=en&rclk=1,"12.2241138,79.6400401"
Madhina Masjid,Mosque,"6JQX+J52 Madhina Masjid, Tindivanam, Tamil Nadu 604001",,6JQX+J52,Tindivanam,604001,Tamil Nadu,IN,https://www.google.com/maps/place/Madhina+Masjid/data=!4m7!3m6!1s0x3a534755024295e7:0x144aeb11e6ff2d67!8m2!3d12.239014!4d79.6478802!16s%2Fg%2F1pp2x8r22!19sChIJ55VCAlVHUzoRZy3_5hHrShQ?authuser=0&hl=en&rclk=1,"12.239014,79.6478802"
New Mosque,Mosque,"6JJX+5V2 New Mosque, Tindivanam, Tamil Nadu 604001",,6JJX+5V2,Tindivanam,604001,Tamil Nadu,IN,https://www.google.com/maps/place/New+Mosque/data=!4m7!3m6!1s0x3a53474d5644bd43:0x703e5a6e3ee38b40!8m2!3d12.2303974!4d79.6496513!16s%2Fg%2F1tjt0c18!19sChIJQ71EVk1HUzoRQIvjPm5aPnA?authuser=0&hl=en&rclk=1,"12.2303974,79.6496513"
Nawab Masjid,Mosque,"6JMX+HJM Nawab Masjid, NH 66, Tindivanam, Tamil Nadu 604001",,"6JMX+HJM, NH 66",Tindivanam,604001,Tamil Nadu,IN,https://www.google.com/maps/place/Nawab+Masjid/data=!4m7!3m6!1s0x3a534753231c6321:0x44e5cb352eda247a!8m2!3d12.2339588!4d79.6490483!16s%2Fg%2F1tgmtps1!19sChIJIWMcI1NHUzoReiTaLjXL5UQ?authuser=0&hl=en&rclk=1,"12.2339588,79.64904829999999"
Usmania Masjid,Mosque,"6JQV+2W9 Usmania Masjid, Sanjeevi Nagar, Tindivanam, Tamil Nadu 604001",Sanjeevi Nagar,6JQV+2W9,Tindivanam,604001,Tamil Nadu,IN,https://www.google.com/maps/place/Usmania+Masjid/data=!4m7!3m6!1s0x3a53475421989d15:0x17105df5c3c0c506!8m2!3d12.237536!4d79.6448593!16s%2Fg%2F1pp2xbp27!19sChIJFZ2YIVRHUzoRBsXAw_VdEBc?authuser=0&hl=en&rclk=1,"12.237535999999999,79.6448593"
Masjidh-E-Quba,Mosque,"6JCW+8GR Masjidh-E-Quba, Tindivanam, Tamil Nadu 604001",,6JCW+8GR,Tindivanam,604001,Tamil Nadu,IN,https://www.google.com/maps/place/Masjidh-E-Quba/data=!4m7!3m6!1s0x3a53474a414aba19:0x33792781117d140b!8m2!3d12.22086!4d79.6462672!16s%2Fg%2F11gfjr970p!19sChIJGbpKQUpHUzoRCxR9EYEneTM?authuser=0&hl=en&rclk=1,"12.22086,79.6462672"
Rahmaniya Masjid,Mosque,"Rahmaniya Masjid, 604001/604002, Tindivanam, Tamil Nadu",,604001/604002,Tindivanam,,Tamil Nadu,IN,https://www.google.com/maps/place/Rahmaniya+Masjid/data=!4m7!3m6!1s0x3a53475315be0215:0x2d4e2e131f637808!8m2!3d12.234474!4d79.6487191!16s%2Fg%2F11ckkq_j_r!19sChIJFQK-FVNHUzoRCHhjHxMuTi0?authuser=0&hl=en&rclk=1,"12.234473999999999,79.6487191"
Dharussalam Mosque,Mosque,"6JJX+77J Dharussalam Mosque, Kasamiyan St, next to AL Madarasathu Aayisha Niswan Building, Tindivanam, Tamil Nadu 604001",,"6JJX+77J, Kasamiyan St, next to AL Madarasathu Aayisha Niswan Building",Tindivanam,604001,Tamil Nadu,IN,https://www.google.com/maps/place/Dharussalam+Mosque/data=!4m7!3m6!1s0x3a5347529cae99b5:0xb09e5c397754b894!8m2!3d12.230717!4d79.6481521!16s%2Fg%2F1ptz6ntzh!19sChIJtZmunFJHUzoRlLhUdzlcnrA?authuser=0&hl=en&rclk=1,"12.230717,79.64815209999999"
Umar Pulavar Mosque,Mosque,"6JVW+2X6 Umar Pulavar Mosque, Roshanai, Tindivanam, Tamil Nadu 604001",Roshanai,6JVW+2X6,Tindivanam,604001,Tamil Nadu,IN,https://www.google.com/maps/place/Umar+Pulavar+Mosque/data=!4m7!3m6!1s0x3a5338aa882250d3:0x6ace3381a4abab4!8m2!3d12.2425375!4d79.6473833!16s%2Fg%2F11g8cy38yj!19sChIJ01AiiKo4UzoRtLpKGjjjrAY?authuser=0&hl=en&rclk=1,"12.2425375,79.6473833"
Jumma Masjid,Religious organization,"6MR8+X4X Jumma Masjid, T.V Nagar, Tindivanam, Salavadi, Tamil Nadu 604001",T.V Nagar,6MR8+X4X,"Tindivanam, Salavadi",,Tamil Nadu,IN,https://www.google.com/maps/place/Jumma+Masjid/data=!4m7!3m6!1s0x3a533f3a0bbc5467:0xf12f76fdc5710132!8m2!3d12.2424807!4d79.665372!16s%2Fg%2F11gy9q6ll_!19sChIJZ1S8Czo_UzoRMgFxxf12L_E?authuser=0&hl=en&rclk=1,"12.2424807,79.66537199999999"
Sandook inam masjid,Mosque,"6JMX+5J2 Sandook inam masjid, Mir Nasar ali Street, Tindivanam, Tamil Nadu 604001",,"6JMX+5J2, Mir Nasar ali Street",Tindivanam,604001,Tamil Nadu,IN,https://www.google.com/maps/place/Sandook+inam+masjid/data=!4m7!3m6!1s0x3a5347bd8f8b9d93:0x9f75bfa28e17904b!8m2!3d12.2328963!4d79.649021!16s%2Fg%2F11pw72t_kl!19sChIJk52Lj71HUzoRS5AXjqK_dZ8?authuser=0&hl=en&rclk=1,"12.2328963,79.64902099999999"
MARKAZ MASJID,Mosque,"6JJX+6V MARKAZ MASJID, Tindivanam, Tamil Nadu 604001",,6JJX+6V,Tindivanam,,Tamil Nadu,IN,https://www.google.com/maps/place/MARKAZ+MASJID/data=!4m7!3m6!1s0x3a5347e4cabb876d:0xfb119df749563bf1!8m2!3d12.2305972!4d79.6497186!16s%2Fg%2F11p74fjfl4!19sChIJbYe7yuRHUzoR8TtWSfedEfs?authuser=0&hl=en&rclk=1,"12.2305972,79.6497186"
TNTJ MOSQUE,Mosque,"6JVV+76C TNTJ MOSQUE, Tindivanam, Tamil Nadu 604001",,6JVV+76C,Tindivanam,604001,Tamil Nadu,IN,https://www.google.com/maps/place/TNTJ+MOSQUE/data=!4m7!3m6!1s0x3a5339a9f236efc1:0x34856b4918753c61!8m2!3d12.2431834!4d79.6430264!16s%2Fg%2F11sx0ntxb2!19sChIJwe828qk5UzoRYTx1GElrhTQ?authuser=0&hl=en&rclk=1,"12.2431834,79.6430264"
Roshanai Pallivasal,Mosque,"6JVW+C2C Roshanai Pallivasal, Roshanai, Tindivanam, Tamil Nadu 604001",Roshanai,6JVW+C2C,Tindivanam,604001,Tamil Nadu,IN,https://www.google.com/maps/place/Roshanai+Pallivasal/data=!4m7!3m6!1s0x3a5338aa26955555:0x324674dce4b36ce2!8m2!3d12.2434835!4d79.6448597!16s%2Fg%2F11tgg7r6t5!19sChIJVVWVJqo4UzoR4myz5Nx0RjI?authuser=0&hl=en&rclk=1,"12.2434835,79.6448597"
Eid Ground (Khabarastan),Mosque,"6JVV+3P5 Eid Ground (Khabarastan), vasanthapuram, Tindivanam, Tamil Nadu 604001",vasanthapuram,6JVV+3P5,Tindivanam,604001,Tamil Nadu,IN,https://www.google.com/maps/place/Eid+Ground+%28Khabarastan%29/data=!4m7!3m6!1s0x3a5338a9ead65fb7:0x1c3507cbcd0611d4!8m2!3d12.242632!4d79.6443595!16s%2Fg%2F1pp2xbp4w!19sChIJt1_W6qk4UzoR1BEGzcsHNRw?authuser=0&hl=en&rclk=1,"12.242631999999999,79.6443595"
Makkah Masjid,Museum,"6MG2+M4H Makkah Masjid, sudhakar nagar, sandhai medu, Tindivanam",,"6MG2+M4H, sudhakar nagar, sandhai medu",Tindivanam,,Tamil Nadu,IN,https://www.google.com/maps/place/Makkah+Masjid/data=!4m7!3m6!1s0x3a534143ae6f33fd:0xa421fe839c560360!8m2!3d12.2266754!4d79.6503543!16s%2Fg%2F11h_1vdkg5!19sChIJ_TNvrkNBUzoRYANWnIP-IaQ?authuser=0&hl=en&rclk=1,"12.2266754,79.65035429999999"
