name,main_category,address,address_ward,address_street,address_city,address_postal_code,address_state,address_country_code,link,coordinates
Alavi Bohras Nooraani Masjid,Mosque,"Alavi Bohras Nooraani Masjid, opp. Wadi Tower, Chowkhandi, Badri Mohalla, Wadi, Vadodara, Gujarat 390017","Chowkhandi, Badri Mohalla, Wadi",opp. Wadi Tower,Vadodara,390017,Gujarat,IN,https://www.google.com/maps/place/Alavi+Bohras+Nooraani+Masjid/data=!4m7!3m6!1s0x395fc58ea2c4904d:0xce441ff999332f45!8m2!3d22.2949687!4d73.2125733!16s%2Fg%2F1tdg65mn!19sChIJTZDEoo7FXzkRRS8zmfkfRM4?authuser=0&hl=en&rclk=1,"22.2949687,73.2125733"
Chishtiya Masjid,Mosque,"Chishtiya Masjid, Mohammadi Mohalla, BH Chandragupt complex, Harni Rd, Vadodara, Gujarat 390006","Muhammadi Mohalla, Vijay Nagar, Bapunagar","Mohammadi Mohalla, BH Chandragupt complex, Harni Rd",Vadodara,390006,Gujarat,IN,https://www.google.com/maps/place/Chishtiya+Masjid/data=!4m7!3m6!1s0x395fcf6f5750f915:0x712d5c6fa8ce3336!8m2!3d22.3137017!4d73.21246!16s%2Fg%2F1q64gblkz!19sChIJFflQV2_PXzkRNjPOqG9cLXE?authuser=0&hl=en&rclk=1,"22.3137017,73.21246"
HONESTY HOSIERY MART,Men's clothing store,"8624+5GP HONESTY HOSIERY MART, opp. Khajuri Masjid, Kamala Nagar, Bajwada, Laheripura, Vadodara, Gujarat 390001","Kamala Nagar, Bajwada, Laheripura","8624+5GP, opp. Khajuri Masjid",Vadodara,390001,Gujarat,IN,https://www.google.com/maps/place/HONESTY+HOSIERY+MART/data=!4m7!3m6!1s0x395fc58ab6932357:0x639232686ec8d7b2!8m2!3d22.3004509!4d73.2063164!16s%2Fg%2F1tnmq3b6!19sChIJVyOTtorFXzkRstfIbmgykmM?authuser=0&hl=en&rclk=1,"22.300450899999998,73.20631639999999"
Kadak Bazaar Masjid Vadodara,Mosque,"855J+9RV Kadak Bazaar Masjid Vadodara, Kadak Bazar, Chhayapuri Railway Colony, Sarod, Sayajiganj, Vadodara, Gujarat 390001","Chhayapuri Railway Colony, Sarod, Sayajiganj","855J+9RV, Kadak Bazar",Vadodara,390001,Gujarat,IN,https://www.google.com/maps/place/Kadak+Bazaar+Masjid+Vadodara/data=!4m7!3m6!1s0x395fc8ad48fa5f39:0xc0542597486daee3!8m2!3d22.3084975!4d73.1820392!16s%2Fg%2F11b7qt_67t!19sChIJOV_6SK3IXzkR465tSJclVMA?authuser=0&hl=en&rclk=1,"22.308497499999998,73.18203919999999"
Ajmeri Masjid,Mosque,"Ajmeri Masjid, Madhuram Society, Tandalja Rd, Tandalja, Vadodara, Gujarat 390012","Madhuram Society, Taif Nagar, Tandalja","Madhuram Society, Tandalja Rd",Vadodara,390012,Gujarat,IN,https://www.google.com/maps/place/Ajmeri+Masjid/data=!4m7!3m6!1s0x395fc62460a76979:0xcc3454b578097124!8m2!3d22.2873132!4d73.1512753!16s%2Fg%2F1v46yrp_!19sChIJeWmnYCTGXzkRJHEJeLVUNMw?authuser=0&hl=en&rclk=1,"22.2873132,73.1512753"
Masjid Al Aqsa,Mosque,"74MX+7RV Masjid Al Aqsa, Tandalja Gam, Taif Nagar, Tandalja, Vadodara, Gujarat 390012","Tandalja Gam, Taif Nagar, Tandalja",74MX+7RV,Vadodara,390012,Gujarat,IN,https://www.google.com/maps/place/Masjid+Al+Aqsa/data=!4m7!3m6!1s0x395fc63ad889cea7:0xc55a4318a0614ef2!8m2!3d22.2832337!4d73.1495516!16s%2Fg%2F11b6llksv_!19sChIJp86J2DrGXzkR8k5hoBhDWsU?authuser=0&hl=en&rclk=1,"22.2832337,73.1495516"
Saiyedpura masjid,Mosque,"8642+6GR Saiyedpura masjid, Saiyedpura, Nagarwada, Vadodara, Gujarat 390001",Nagarwada,"8642+6GR, Saiyedpura",Vadodara,390001,Gujarat,IN,https://www.google.com/maps/place/Saiyedpura+masjid/data=!4m7!3m6!1s0x395fcf5ebdc13ffd:0x6063bb45ba31c60c!8m2!3d22.3056065!4d73.2012779!16s%2Fg%2F11c1q7ybpc!19sChIJ_T_BvV7PXzkRDMYxukW7Y2A?authuser=0&hl=en&rclk=1,"22.3056065,73.2012779"
Jahangirpura Masjid msjd,Mosque,"76W7+83J Jahangirpura Masjid msjd, Jahangirpura Masjid Rd, Badri Mohalla, Moghul Wada, Vadodara, Gujarat 390017","Badri Mohalla, Moghul Wada","76W7+83J, Jahangirpura Masjid Rd",Vadodara,390017,Gujarat,IN,https://www.google.com/maps/place/Jahangirpura+Masjid+%D9%85%D8%B3%D8%AC%D8%AF%E2%80%AD/data=!4m7!3m6!1s0x395fc58eb1116f33:0x62dc05fea232dcfe!8m2!3d22.2958322!4d73.2126262!16s%2Fg%2F1q67k78jl!19sChIJM28RsY7FXzkR_twyov4F3GI?authuser=0&hl=en&rclk=1,"22.2958322,73.2126262"
Badi Masjid msjd,Mosque,"Badi Masjid msjd, Sadar Bazar, Abbas Tyabji Rd, Jayesh Colony, Fatehgunj, Vadodara, Gujarat 390008","Jayesh Colony, Fatehgunj","Sadar Bazar, Abbas Tyabji Rd",Vadodara,390008,Gujarat,IN,https://www.google.com/maps/place/Badi+Masjid+%D9%85%D8%B3%D8%AC%D8%AF%E2%80%AD/data=!4m7!3m6!1s0x395fcf49dfa79ac5:0x9a385cba41bfefdb!8m2!3d22.3228383!4d73.1896339!16s%2Fg%2F11b6p6pwkk!19sChIJxZqn30nPXzkR2--_QbpcOJo?authuser=0&hl=en&rclk=1,"22.322838299999997,73.18963389999999"
Hathikhana Masjid,Mosque,"8655+J9R Hathikhana Masjid, Tulsiwadi, Vadodara, Gujarat 390001",Tulsiwadi,8655+J9R,Vadodara,390001,Gujarat,IN,https://www.google.com/maps/place/Hathikhana+Masjid/data=!4m7!3m6!1s0x395fcf671eef13af:0x7c49ae195c3d6655!8m2!3d22.3091022!4d73.2083864!16s%2Fg%2F1tf2721v!19sChIJrxPvHmfPXzkRVWY9XBmuSXw?authuser=0&hl=en&rclk=1,"22.309102199999998,73.2083864"
Beena Nagar Masjid msjd,Mosque,"Beena Nagar Masjid msjd, Bina Nagar Society, Vasna Rd, Sahkar Nagar, Tandalja, Vadodara, Gujarat 390015","Sahkar Nagar, Tandalja","Bina Nagar Society, Vasna Rd",Vadodara,390015,Gujarat,IN,https://www.google.com/maps/place/Beena+Nagar+Masjid+%D9%85%D8%B3%D8%AC%D8%AF%E2%80%AD/data=!4m7!3m6!1s0x395fc61f962aa035:0x8963d6d72f20a32e!8m2!3d22.2945466!4d73.1600402!16s%2Fg%2F11cn06hk_9!19sChIJNaAqlh_GXzkRLqMgL9fWY4k?authuser=0&hl=en&rclk=1,"22.2945466,73.1600402"
Chistiya Jama Masjid,Mosque,"75Q3+25V Chistiya Jama Masjid, Alif Nagar 2, Tandalja, Vadodara, Gujarat 390012","Alif Nagar 2, Tandalja",75Q3+25V,Vadodara,390012,Gujarat,IN,https://www.google.com/maps/place/Chistiya+Jama+Masjid/data=!4m7!3m6!1s0x395fc62386f316af:0x2f38d3d7c043b644!8m2!3d22.2876201!4d73.1529319!16s%2Fg%2F11c4kpwzc7!19sChIJrxbzhiPGXzkRRLZDwNfTOC8?authuser=0&hl=en&rclk=1,"22.287620099999998,73.1529319"
Champaner Darwaza Masjid,Mosque,"Champaner Darwaza Masjid, 28, Hathikhana Main Rd, Nava Bazar, Bhaiswada, Chhipwad, Vadodara, Gujarat 390006","Nava Bazar, Bhaiswada, Chhipwad","28, Hathikhana Main Rd",Vadodara,390006,Gujarat,IN,https://www.google.com/maps/place/Champaner+Darwaza+Masjid/data=!4m7!3m6!1s0x395fcf619485131b:0x749a45765a12a486!8m2!3d22.3034684!4d73.2105125!16s%2Fg%2F1q6j0j5y6!19sChIJGxOFlGHPXzkRhqQSWnZFmnQ?authuser=0&hl=en&rclk=1,"22.3034684,73.2105125"
RAZA MASJID,Mosque,"RAZA MASJID, 10, Susen - Tarsali Ring Rd, Vihad Nagar, GIDC Industrial Area, Manjalpur, Vadodara, Gujarat 390010","Vihad Nagar, GIDC Industrial Area, Manjalpur","10, Susen - Tarsali Ring Rd",Vadodara,390010,Gujarat,IN,https://www.google.com/maps/place/RAZA+MASJID/data=!4m7!3m6!1s0x395fc5d22c41da2b:0xc416398ba4545cda!8m2!3d22.2589778!4d73.1910017!16s%2Fg%2F11c6qdrz98!19sChIJK9pBLNLFXzkR2lxUpIs5FsQ?authuser=0&hl=en&rclk=1,"22.2589778,73.1910017"
Minara Masjid,Mosque,"8647+4P3 Minara Masjid, B-364, Bhaiswada, Yakutpura, Vadodara, Gujarat 390006","Bhaiswada, Yakutpura","8647+4P3, B-364",Vadodara,390006,Gujarat,IN,https://www.google.com/maps/place/Minara+Masjid/data=!4m7!3m6!1s0x395fcf622cc49bf9:0x6e5e8d384c770dea!8m2!3d22.3048776!4d73.212158!16s%2Fg%2F11b6brd_kx!19sChIJ-ZvELGLPXzkR6g13TDiNXm4?authuser=0&hl=en&rclk=1,"22.304877599999998,73.212158"
Masjid-e-khwaja ghareeb nawaz,Mosque,"Masjid-e-khwaja ghareeb nawaz, Masjid e KGN, Momin Park, 1, Tandalja Rd, Vadodara, Gujarat 390012","Momin Park, Tandalja","Masjid e KGN, Momin Park, 1, Tandalja Rd",Vadodara,390012,Gujarat,IN,https://www.google.com/maps/place/Masjid-e-khwaja+ghareeb+nawaz/data=!4m7!3m6!1s0x395fc624302ba797:0xc38118ca524598af!8m2!3d22.2889773!4d73.1502771!16s%2Fg%2F1pp2tzqld!19sChIJl6crMCTGXzkRr5hFUsoYgcM?authuser=0&hl=en&rclk=1,"22.2889773,73.1502771"
Taif Nagar Masjid (taaiph ngr msjid),Mosque,"Taif Nagar Masjid (taaiph ngr msjid), 1, Garden, opposite Taif Nagar, Taif Nagar, Tandalja, Vadodara, Gujarat 390012","Taif Nagar, Tandalja","1, Garden, opposite Taif Nagar",Vadodara,390012,Gujarat,IN,https://www.google.com/maps/place/Taif+Nagar+Masjid+%28%E0%AA%A4%E0%AA%BE%E0%AA%87%E0%AA%AB+%E0%AA%A8%E0%AA%97%E0%AA%B0+%E0%AA%AE%E0%AA%B8%E0%AB%8D%E0%AA%9C%E0%AA%BF%E0%AA%A6%29/data=!4m7!3m6!1s0x395fc63b545793cf:0x6989545f2d0fd26a!8m2!3d22.283939!4d73.1523436!16s%2Fg%2F1q6jclx3y!19sChIJz5NXVDvGXzkRatIPLV9UiWk?authuser=0&hl=en&rclk=1,"22.283939,73.1523436"
Zakariya Masjid,Mosque,"76X4+JGP Zakariya Masjid, Lehripura New Rd, Opposite Nyay Mandir,Near Bhagat Singh Chowk, Mandvi, Vadodara, Gujarat 390001","Opposite Nyay Mandir,Near Bhagat Singh Chowk, Mandvi","76X4+JGP, Lehripura New Rd",Vadodara,390001,Gujarat,IN,https://www.google.com/maps/place/Zakariya+Masjid/data=!4m7!3m6!1s0x395fc58ad141987f:0xe54b09c499b125ab!8m2!3d22.2990809!4d73.206317!16s%2Fg%2F1tgf65hy!19sChIJf5hB0YrFXzkRqyWxmcQJS-U?authuser=0&hl=en&rclk=1,"22.2990809,73.206317"
Burhani Masjid,Mosque,"867P+35R Burhani Masjid, Bahar Colony, Sayaji Park Society, Vadodara, Gujarat 390019","Bahar Colony, Sayaji Park Society",867P+35R,Vadodara,390019,Gujarat,IN,https://www.google.com/maps/place/Burhani+Masjid/data=!4m7!3m6!1s0x395fcf8478e36a35:0x364a667eba60d5f5!8m2!3d22.3127339!4d73.2354041!16s%2Fg%2F1q67jf7f2!19sChIJNWrjeITPXzkR9dVgun5mSjY?authuser=0&hl=en&rclk=1,"22.312733899999998,73.2354041"
Muraad Shaheed Masjid,Mosque,"854J+H7G Muraad Shaheed Masjid, Jetalpur Rd, Parshuram Nagar, Sayajiganj, Vadodara, Gujarat 390020","Parshuram Nagar, Sayajiganj","854J+H7G, Jetalpur Rd",Vadodara,390020,Gujarat,IN,https://www.google.com/maps/place/Muraad+Shaheed+Masjid/data=!4m7!3m6!1s0x395fc8ace83e9587:0x34bb95630b22f31!8m2!3d22.3064494!4d73.180688!16s%2Fg%2F1q6kk3f3w!19sChIJh5U-6KzIXzkRMS-yMFa5SwM?authuser=0&hl=en&rclk=1,"22.306449399999998,73.180688"
Chistiya Masjid,Mosque,"Chistiya Masjid, 1, Navayard, Old Chhani Rd, Sardar Nagar, Nizampura, Vadodara, Gujarat 390024","Navyard, Sardar Nagar, Nizampura","1, Navayard, Old Chhani Rd",Vadodara,390024,Gujarat,IN,https://www.google.com/maps/place/Chistiya+Masjid/data=!4m7!3m6!1s0x395fc8d029fdbe49:0xf3802298097eb37d!8m2!3d22.3325537!4d73.1729143!16s%2Fg%2F11c5zrbvls!19sChIJSb79KdDIXzkRfbN-CZgigPM?authuser=0&hl=en&rclk=1,"22.3325537,73.1729143"
Masjid-e-Ayesha,Mosque,"75Q4+23V Masjid-e-Ayesha, Ayeshapark, Tandalja, Vadodara, Gujarat 390012","Ayeshapark, Tandalja",75Q4+23V,Vadodara,390012,Gujarat,IN,https://www.google.com/maps/place/Masjid-e-Ayesha/data=!4m7!3m6!1s0x395fc623a9402409:0x814f98bd8560e839!8m2!3d22.2876173!4d73.1551588!16s%2Fg%2F11b6byrf66!19sChIJCSRAqSPGXzkROehghb2YT4E?authuser=0&hl=en&rclk=1,"22.287617299999997,73.1551588"
Noorani Masjid msjd,Mosque,"85J5+C2W Noorani Masjid msjd, Masjid Mohalla,Gorwa village, Gujarat Refinery Rd, Gorwa, Vadodara, Gujarat 390016",Gorwa,"85J5+C2W, Masjid Mohalla,Gorwa village, Gujarat Refinery Rd",Vadodara,390016,Gujarat,IN,https://www.google.com/maps/place/Noorani+Masjid+%D9%85%D8%B3%D8%AC%D8%AF%E2%80%AD/data=!4m7!3m6!1s0x395fc8e7e36a3d79:0x1c3d50c5eb0ba83a!8m2!3d22.3311147!4d73.15758!16s%2Fg%2F11ckvt_tkm!19sChIJeT1q4-fIXzkROqgL68VQPRw?authuser=0&hl=en&rclk=1,"22.3311147,73.15758"
Bahar-e-Shariat Masjid,Mosque,"866M+7Q5 Bahar-e-Shariat Masjid, Bahar Colony, Kishanwadi, Vadodara, Gujarat 390019","Bahar Colony, Kishanwadi",866M+7Q5,Vadodara,390019,Gujarat,IN,https://www.google.com/maps/place/Bahar-e-Shariat+Masjid/data=!4m7!3m6!1s0x395fcf83fd784955:0xa8be1d351b1b102b!8m2!3d22.3106445!4d73.2344871!16s%2Fg%2F11bbt67yjc!19sChIJVUl4_YPPXzkRKxAbGzUdvqg?authuser=0&hl=en&rclk=1,"22.3106445,73.2344871"
Sheikh Harun Ji Ki Badi Masjid,Mosque,"76W7+6X5 Sheikh Harun Ji Ki Badi Masjid, Badri Mohalla, Moghul Wada, Vadodara, Gujarat 390017","Badri Mohalla, Moghul Wada",76W7+6X5,Vadodara,390017,Gujarat,IN,https://www.google.com/maps/place/Sheikh+Harun+Ji+Ki+Badi+Masjid/data=!4m7!3m6!1s0x395fc58f23ff4c11:0x2ad434823d45d9b4!8m2!3d22.2955194!4d73.2149995!16s%2Fg%2F1q64tr899!19sChIJEUz_I4_FXzkRtNlFPYI01Co?authuser=0&hl=en&rclk=1,"22.2955194,73.21499949999999"
Dhuldoyawad Masjid msjd,Mosque,"8656+C65 Dhuldoyawad Masjid msjd, Fatehpura Main Rd, Warasiya, Vadodara, Gujarat 390006",Warasiya,"8656+C65, Fatehpura Main Rd",Vadodara,390006,Gujarat,IN,https://www.google.com/maps/place/Dhuldoyawad+Masjid+%D9%85%D8%B3%D8%AC%D8%AF%E2%80%AD/data=!4m7!3m6!1s0x395fcf66ba4075f1:0xa730bfe53a5e76d0!8m2!3d22.3085243!4d73.2105984!16s%2Fg%2F11bbv15cnd!19sChIJ8XVAumbPXzkR0HZeOuW_MKc?authuser=0&hl=en&rclk=1,"22.3085243,73.2105984"
Nurani Masjid,Mosque,"76W8+WJM Nurani Masjid, Rafai Mohalla, Tai Wada, Wadi, Vadodara, Gujarat 390017","Rafai Mohalla, Tai Wada, Wadi",76W8+WJM,Vadodara,390017,Gujarat,IN,https://www.google.com/maps/place/Nurani+Masjid/data=!4m7!3m6!1s0x395fc588b0c2d49b:0x5211c571e9823c36!8m2!3d22.2973295!4d73.2165331!16s%2Fg%2F1q6kk4tdk!19sChIJm9TCsIjFXzkRNjyC6XHFEVI?authuser=0&hl=en&rclk=1,"22.2973295,73.21653309999999"
Shia Hussaini Masjid and Imambargah,Mosque,"854X+MWF Shia Hussaini Masjid and Imambargah, Salatwada, Nagarwada, Vadodara, Gujarat 390001","Salatwada, Nagarwada",854X+MWF,Vadodara,390001,Gujarat,IN,https://www.google.com/maps/place/Shia+Hussaini+Masjid+and+Imambargah/data=!4m7!3m6!1s0x395fcf5c001dd3b7:0xfa8a9efce2c9ef38!8m2!3d22.3066993!4d73.1997903!16s%2Fg%2F1q64q_v81!19sChIJt9MdAFzPXzkROO_J4vyeivo?authuser=0&hl=en&rclk=1,"22.3066993,73.1997903"
Masjid E Mahebub E Subhani,Mosque,"Masjid E Mahebub E Subhani, Jayratna Building, Slum Quarters, RV Desai Rd, Navapura, Vadodara, Gujarat 390001",Navapura,"Jayratna Building, Slum Quarters, RV Desai Rd",Vadodara,390001,Gujarat,IN,https://www.google.com/maps/place/Masjid+E+Mahebub+E+Subhani/data=!4m7!3m6!1s0x395fc5ed03fd44ff:0x64a120144cc155e3!8m2!3d22.286949!4d73.203287!16s%2Fg%2F11dzt52jkk!19sChIJ_0T9A-3FXzkR41XBTBQgoWQ?authuser=0&hl=en&rclk=1,"22.286949,73.203287"
Bismillah Park Masjid,Mosque,"Bismillah Park Masjid, New Bridge, Bismillah Park, near Madhunagar, Gorwa, Vadodara, Gujarat 390016",Gorwa,"New Bridge, Bismillah Park, near Madhunagar",Vadodara,390016,Gujarat,IN,https://www.google.com/maps/place/Bismillah+Park+Masjid/data=!4m7!3m6!1s0x395fc8e0501b99d5:0x1030124b507d91af!8m2!3d22.3401368!4d73.1562896!16s%2Fg%2F11csqcs7n5!19sChIJ1ZkbUODIXzkRr5F9UEsSMBA?authuser=0&hl=en&rclk=1,"22.3401368,73.1562896"
Zakariya Masjid,Mosque,"74QR+JR6 Zakariya Masjid, Ashwamegh Nagar, Tandalja, Vadodara, Gujarat 390012","Ashwamegh Nagar, Tandalja",74QR+JR6,Vadodara,390012,Gujarat,IN,https://www.google.com/maps/place/Zakariya+Masjid/data=!4m7!3m6!1s0x395fc6294b84d093:0x2a81212bd8dd9ba3!8m2!3d22.2890474!4d73.1420112!16s%2Fg%2F11f15cp_tn!19sChIJk9CESynGXzkRo5vd2CshgSo?authuser=0&hl=en&rclk=1,"22.289047399999998,73.1420112"
Panigate Darwaza Wali Masjid,Mosque,"8628+23Q Panigate Darwaza Wali Masjid, Panigate Rd, Sulemani Pol, Moghul Wada, Vadodara, Gujarat 390017","Sulemani Pol, Moghul Wada","8628+23Q, Panigate Rd",Vadodara,390017,Gujarat,IN,https://www.google.com/maps/place/Panigate+Darwaza+Wali+Masjid/data=!4m7!3m6!1s0x395fc58853b856ad:0x49df92edf22002b1!8m2!3d22.3000838!4d73.2152191!16s%2Fg%2F1q64gfswj!19sChIJrVa4U4jFXzkRsQIg8u2S30k?authuser=0&hl=en&rclk=1,"22.3000838,73.2152191"
"Madina masjid, Tabassum Park",Mosque,"Madina masjid, Tabassum Park, Tabassum Park, Patrakar Colony, Tandalja, Vadodara, Gujarat 390012","Patrakar Colony, Tandalja",Tabassum Park,Vadodara,390012,Gujarat,IN,"https://www.google.com/maps/place/Madina+masjid,+Tabassum+Park/data=!4m7!3m6!1s0x395fc6236b417731:0x3ce2bd4dc643eca3!8m2!3d22.2861206!4d73.1541046!16s%2Fg%2F11c12bsqjd!19sChIJMXdBayPGXzkRo-xDxk294jw?authuser=0&hl=en&rclk=1","22.2861206,73.1541046"
Mahdavia Masjid,Mosque,"Mahdavia Masjid, 786, Tai Wada, Wadi, Vadodara, Gujarat 390017","Tai Wada, Wadi",786,Vadodara,390017,Gujarat,IN,https://www.google.com/maps/place/Mahdavia+Masjid/data=!4m7!3m6!1s0x395fc58f43293401:0x41b8b961c56cb1ce!8m2!3d22.2955271!4d73.2167897!16s%2Fg%2F11c4875mkh!19sChIJATQpQ4_FXzkRzrFsxWG5uEE?authuser=0&hl=en&rclk=1,"22.295527099999997,73.21678969999999"
Faizan E Madina Masjid,Mosque,"Faizan E Madina Masjid, 48, Madhuram Society, Taif Nagar, Tandalja, Vadodara, Gujarat 390012","Madhuram Society, Taif Nagar, Tandalja",48,Vadodara,390012,Gujarat,IN,https://www.google.com/maps/place/Faizan+E+Madina+Masjid/data=!4m7!3m6!1s0x395fc624e830dd35:0x48ff02cb70bb9ad1!8m2!3d22.2854788!4d73.1505967!16s%2Fg%2F11hctgpgr9!19sChIJNd0w6CTGXzkR0Zq7cMsC_0g?authuser=0&hl=en&rclk=1,"22.2854788,73.1505967"
Masjid Hidaya,Mosque,"74MW+7MM Masjid Hidaya, Near Zam Zam Park Society, Soudagar Park, Tandalja Gam, Vadodara, Gujarat 390012","Soudagar Park, Tandalja Gam","74MW+7MM, Near Zam Zam Park Society",Vadodara,390012,Gujarat,IN,https://www.google.com/maps/place/Masjid+Hidaya/data=!4m7!3m6!1s0x395fc62386a521eb:0xd79cc2ae77c532a9!8m2!3d22.283216!4d73.14667!16s%2Fg%2F1tdl4jsk!19sChIJ6yGlhiPGXzkRqTLFd67CnNc?authuser=0&hl=en&rclk=1,"22.283216,73.14667"
Kasamhala Sunni Masjid,Mosque,"8643+M6Q Kasamhala Sunni Masjid, Nagarwada Main Rd, Mandvi, Vadodara, Gujarat 390001",Mandvi,"8643+M6Q, Nagarwada Main Rd",Vadodara,390001,Gujarat,IN,https://www.google.com/maps/place/Kasamhala+Sunni+Masjid/data=!4m7!3m6!1s0x395fcf5e7f244fa5:0x4306ec02f3ee3101!8m2!3d22.3067241!4d73.2031187!16s%2Fg%2F1q6kk0yw9!19sChIJpU8kf17PXzkRATHu8wLsBkM?authuser=0&hl=en&rclk=1,"22.3067241,73.20311869999999"
Masjid Aala Hazrat Navi Ramwadi,Mosque,"85PC+JJF Masjid Aala Hazrat Navi Ramwadi, Ahmed Raza, Sarita Nagar, Roshan Nagar, Ram Wadi, Vadodara, Gujarat 390002","Roshan Nagar, Ram Wadi","85PC+JJF Ahmed Raza, Sarita Nagar",Vadodara,390002,Gujarat,IN,https://www.google.com/maps/place/Masjid+Aala+Hazrat+Navi+Ramwadi/data=!4m7!3m6!1s0x395fc8d095b42fbd:0xab33a40d672b2c8a!8m2!3d22.3365649!4d73.1715494!16s%2Fg%2F11c1p6j4y6!19sChIJvS-0ldDIXzkRiiwrZw2kM6s?authuser=0&hl=en&rclk=1,"22.3365649,73.1715494"
Masjid-e-Umar,Mosque,"Shop No.3, Masjid-e-Umar, masjid e Umar, nr. aqsa Avanue, Taif Nagar, Tandalja, Vadodara, Gujarat 390012","Taif Nagar, Tandalja","Shop No.3, masjid e Umar, nr. aqsa Avanue",Vadodara,390012,Gujarat,IN,https://www.google.com/maps/place/Masjid-e-Umar/data=!4m7!3m6!1s0x395fc798ce1736bb:0xb43442f3eb9b089d!8m2!3d22.2862727!4d73.1481374!16s%2Fg%2F11h11khstf!19sChIJuzYXzpjHXzkRnQib6_NCNLQ?authuser=0&hl=en&rclk=1,"22.286272699999998,73.1481374"
Akota Village Masjid,Mosque,"75XH+88M Akota Village Masjid, Akota, Vadodara, Gujarat 390020",Akota,75XH+88M,Vadodara,390020,Gujarat,IN,https://www.google.com/maps/place/Akota+Village+Masjid/data=!4m7!3m6!1s0x395fc601d8581ca3:0x7318bc4aecc6630!8m2!3d22.2983309!4d73.1782938!16s%2Fg%2F11dxdy6668!19sChIJoxxY2AHGXzkRMGbMrsSLMQc?authuser=0&hl=en&rclk=1,"22.2983309,73.17829379999999"
Sulaimani Masjid,Mosque,"76X7+252 Sulaimani Masjid, Sulemani Pol, Moghul Wada, Vadodara, Gujarat 390017","Sulemani Pol, Moghul Wada",76X7+252,Vadodara,390017,Gujarat,IN,https://www.google.com/maps/place/Sulaimani+Masjid/data=!4m7!3m6!1s0x395fc58950410c3f:0x56e08fab459fb552!8m2!3d22.2975007!4d73.2128884!16s%2Fg%2F1q6645j0h!19sChIJPwxBUInFXzkRUrWfRauP4FY?authuser=0&hl=en&rclk=1,"22.2975007,73.2128884"
Makki Masjid Kagdiwada,Mosque,"Makki Masjid Kagdiwada, H-5/2/6, Kagdiwada, Salatwada, Jambubet, Vadodara, Gujarat 390001","Kagdiwada, Salatwada, Jambubet",H-5/2/6,Vadodara,390001,Gujarat,IN,https://www.google.com/maps/place/Makki+Masjid+Kagdiwada/data=!4m7!3m6!1s0x395fcf5973cd1dab:0x86af2fc9a0aea8ef!8m2!3d22.3049869!4d73.1974092!16s%2Fg%2F1q6j72fvg!19sChIJqx3Nc1nPXzkR76iuoMkvr4Y?authuser=0&hl=en&rclk=1,"22.3049869,73.1974092"
Shahi Masjid,Mosque,"65VV+FC8 Shahi Masjid, Makarpura Rd, Near Air Force Station, Himmat Nagar, Makarpura, Vadodara, Gujarat 390014","Himmat Nagar, Makarpura","65VV+FC8, Makarpura Rd, Near Air Force Station",Vadodara,390014,Gujarat,IN,https://www.google.com/maps/place/Shahi+Masjid/data=!4m7!3m6!1s0x395fc42fe735948b:0x32c27534a25a19aa!8m2!3d22.2436735!4d73.193584!16s%2Fg%2F11b6gh5nn_!19sChIJi5Q15y_EXzkRqhlaojR1wjI?authuser=0&hl=en&rclk=1,"22.2436735,73.193584"
Limwali Masjid,Mosque,"Limwali Masjid, Bhandra Kacheri Rd, Khatri Pole, Syedwada, Yakutpura, Vadodara, Gujarat 390001","Khatri Pole, Syedwada, Yakutpura",Bhandra Kacheri Rd,Vadodara,390001,Gujarat,IN,https://www.google.com/maps/place/Limwali+Masjid/data=!4m7!3m6!1s0x395fc589cc6feb6b:0xf34e64afd6f7e065!8m2!3d22.3012542!4d73.2144018!16s%2Fg%2F1v9ty96r!19sChIJa-tvzInFXzkRZeD31q9kTvM?authuser=0&hl=en&rclk=1,"22.3012542,73.21440179999999"
Hajimohalla Madina Masjid,Mosque,"Hajimohalla Madina Masjid, 1566/87, Hathikhana Main Rd, Bhandwada, Vijay Nagar, Bapunagar, Vadodara, Gujarat 390006","Bhandwada, Vijay Nagar, Bapunagar","1566/87, Hathikhana Main Rd",Vadodara,390006,Gujarat,IN,https://www.google.com/maps/place/Hajimohalla+Madina+Masjid/data=!4m7!3m6!1s0x395fcf65e010d86d:0x16dd01208ffb2043!8m2!3d22.3121529!4d73.2117487!16s%2Fg%2F1q6j35z3y!19sChIJbdgQ4GXPXzkRQyD7jyAB3RY?authuser=0&hl=en&rclk=1,"22.312152899999997,73.2117487"
Moti Masjid (Tandalja Masjid),Mosque,"74PV+FV6 Moti Masjid (Tandalja Masjid), Taif Nagar, Tandalja, Vadodara, Gujarat 390012","Taif Nagar, Tandalja",74PV+FV6,Vadodara,390012,Gujarat,IN,https://www.google.com/maps/place/Moti+Masjid+%28Tandalja+Masjid%29/data=!4m7!3m6!1s0x395fc62fa7945e4d:0xd021e332d04dd174!8m2!3d22.2861547!4d73.1446537!16s%2Fg%2F11dxm8lpx7!19sChIJTV6Upy_GXzkRdNFN0DLjIdA?authuser=0&hl=en&rclk=1,"22.286154699999997,73.14465369999999"
Laljikui Masjid,Mosque,"8642+9W9 Laljikui Masjid, Syedpura, Mandvi, Vadodara, Gujarat 390001","Kadwa Sheri, Mandvi","8642+9W9, Syedpura",Vadodara,390001,Gujarat,IN,https://www.google.com/maps/place/Laljikui+Masjid/data=!4m7!3m6!1s0x395fcf5e8680b175:0x38f1f9c18ab9c44e!8m2!3d22.3059062!4d73.2023542!16s%2Fg%2F1q65g30jm!19sChIJdbGAhl7PXzkRTsS5isH58Tg?authuser=0&hl=en&rclk=1,"22.3059062,73.2023542"
Gausiya Masjid,Mosque,"Gausiya Masjid, 7B, hajipark, Akota, Vadodara, Gujarat 390020","Akota Village, Akota","7B, hajipark",Vadodara,390020,Gujarat,IN,https://www.google.com/maps/place/Gausiya+Masjid/data=!4m7!3m6!1s0x395fc6017db17913:0x17b4113d42e0bb14!8m2!3d22.2948962!4d73.1764229!16s%2Fg%2F11g68_8ph_!19sChIJE3mxfQHGXzkRFLvgQj0RtBc?authuser=0&hl=en&rclk=1,"22.2948962,73.17642289999999"
Masjid-e-Gausiya,Mosque,"75P4+MRH Masjid-e-Gausiya, Gate No 2 Mahabalipuram, Tandalja, Vadodara, Gujarat 390015",Tandalja,"75P4+MRH, Gate No 2 Mahabalipuram",Vadodara,390015,Gujarat,IN,https://www.google.com/maps/place/Masjid-e-Gausiya/data=!4m7!3m6!1s0x395fc62292d2560f:0xd5b02bb97b15185!8m2!3d22.2866841!4d73.1570993!16s%2Fg%2F11b_2j32t9!19sChIJD1bSkiLGXzkRhVGxl7sCWw0?authuser=0&hl=en&rclk=1,"22.2866841,73.1570993"
Sunni Gausiya Masjid,Mosque,"76X7+G93 Sunni Gausiya Masjid, Khatki Wada, Mogalwada, Sulemani Pol, Wadi, Vadodara, Gujarat 390017","Khatki Wada, Mogalwada, Sulemani Pol, Wadi",76X7+G93,Vadodara,390017,Gujarat,IN,https://www.google.com/maps/place/Sunni+Gausiya+Masjid/data=!4m7!3m6!1s0x395fc5890c34f311:0xbdc1445f92035e03!8m2!3d22.2987695!4d73.2134264!16s%2Fg%2F11c2khxywf!19sChIJEfM0DInFXzkRA14Dkl9Ewb0?authuser=0&hl=en&rclk=1,"22.2987695,73.2134264"
Gaushiya Masjid,Mosque,"Gaushiya Masjid, A-20, Karodiya Rd, Gorwa, Vadodara, Gujarat 390016",Gorwa,"A-20, Karodiya Rd",Vadodara,390016,Gujarat,IN,https://www.google.com/maps/place/Gaushiya+Masjid/data=!4m7!3m6!1s0x395fc91ff261ffab:0xc348bc2a6bbdea09!8m2!3d22.3437635!4d73.1578949!16s%2Fg%2F11c6qj891s!19sChIJq_9h8h_JXzkRCeq9ayq8SMM?authuser=0&hl=en&rclk=1,"22.343763499999998,73.1578949"
Kasamhala Kabrastan Masjid,Mosque,"8664+338 Kasamhala Kabrastan Masjid, Karelibagh, Vadodara, Gujarat 390001",Karelibagh,8664+338,Vadodara,390001,Gujarat,IN,https://www.google.com/maps/place/Kasamhala+Kabrastan+Masjid/data=!4m7!3m6!1s0x395fcf5d78555501:0xb0b31d26971cb212!8m2!3d22.3101634!4d73.2052058!16s%2Fg%2F11gbxf74jf!19sChIJAVVVeF3PXzkRErIclyYds7A?authuser=0&hl=en&rclk=1,"22.3101634,73.2052058"
Akbari Masjid,Mosque,"Akbari Masjid, 8, Palace Rd, Mandvi, Vadodara, Gujarat 390001",Mandvi,"8, Palace Rd",Vadodara,390001,Gujarat,IN,https://www.google.com/maps/place/Akbari+Masjid/data=!4m7!3m6!1s0x395fc5f5239d7409:0xdab09c7e27fd17ec!8m2!3d22.2989014!4d73.204264!16s%2Fg%2F1q6kk4nsy!19sChIJCXSdI_XFXzkR7Bf9J36csNo?authuser=0&hl=en&rclk=1,"22.2989014,73.204264"
MADINA MASJID,Mosque,"85V2+F6G MADINA MASJID, Karodiya Rd, Madhu Nagar, Gorwa, Vadodara, Gujarat 390016","Madhu Nagar, Gorwa","85V2+F6G, Karodiya Rd",Vadodara,390016,Gujarat,IN,https://www.google.com/maps/place/MADINA+MASJID/data=!4m7!3m6!1s0x395fc91da4cf73f5:0xef91e6cc80240717!8m2!3d22.343681!4d73.1505745!16s%2Fg%2F11g6q4rcl4!19sChIJ9XPPpB3JXzkRFwckgMzmke8?authuser=0&hl=en&rclk=1,"22.343681,73.15057449999999"
Nani Masjid (Ahle sunnat wal jamaat) Mosque,Mosque,"Nani Masjid (Ahle sunnat wal jamaat) Mosque, 501, Abbas Tyabji Rd, Umang Society, Jayesh Colony, Fatehgunj, Vadodara, Gujarat 390008","Umang Society, Jayesh Colony, Fatehgunj","501, Abbas Tyabji Rd",Vadodara,390008,Gujarat,IN,https://www.google.com/maps/place/Nani+Masjid+%28Ahle+sunnat+wal+jamaat%29+Mosque/data=!4m7!3m6!1s0x395fcf49d0cd6b0b:0x31d80d607eab0e50!8m2!3d22.3221479!4d73.1902006!16s%2Fg%2F11g7y6fg79!19sChIJC2vN0EnPXzkRUA6rfmAN2DE?authuser=0&hl=en&rclk=1,"22.322147899999997,73.1902006"
Subedar Masjid,Mosque,"852H+JH8 Subedar Masjid, Akota, Vadodara, Gujarat 390020",Akota,852H+JH8,Vadodara,390020,Gujarat,IN,https://www.google.com/maps/place/Subedar+Masjid/data=!4m7!3m6!1s0x395fc9ba036c3983:0x23cb0af23f1453fa!8m2!3d22.3015421!4d73.1789597!16s%2Fg%2F11gv0r52gj!19sChIJgzlsA7rJXzkR-lMUP_IKyyM?authuser=0&hl=en&rclk=1,"22.3015421,73.1789597"
Panjni Gira Masjid,Mosque,"Panjni Gira Masjid, 786, Tai Wada, Wadi, Vadodara, Gujarat 390017","Tai Wada, Wadi",786,Vadodara,390017,Gujarat,IN,https://www.google.com/maps/place/Panjni+Gira+Masjid/data=!4m7!3m6!1s0x395fc58f4f96ff47:0x1abc78c5afb4fb43!8m2!3d22.296116!4d73.2166943!16s%2Fg%2F11c4p32k3b!19sChIJR_-WT4_FXzkRQ_u0r8V4vBo?authuser=0&hl=en&rclk=1,"22.296115999999998,73.2166943"
Masjid E Quba,Mosque,"76X7+7XF Masjid E Quba, nalbandhwada, Panigate Rd, Sulemani Pol, Moghul Wada, Vadodara, Gujarat 390017","Sulemani Pol, Moghul Wada","76X7+7XF, nalbandhwada, Panigate Rd",Vadodara,390017,Gujarat,IN,https://www.google.com/maps/place/Masjid+E+Quba/data=!4m7!3m6!1s0x395fc588e0d92381:0x4d4323798fefd4d!8m2!3d22.298182!4d73.2149117!16s%2Fg%2F11g691f91j!19sChIJgSPZ4IjFXzkRTf3-mDcy1AQ?authuser=0&hl=en&rclk=1,"22.298182,73.2149117"
MASJID E HABIB,Mosque,"MASJID E HABIB, Hathikhana, Tulsiwadi, Vadodara, Gujarat 390001","Hathikhana, Tulsiwadi",,Vadodara,390001,Gujarat,IN,https://www.google.com/maps/place/MASJID+E+HABIB/data=!4m7!3m6!1s0x395fcf67238b3221:0x4f12988acfea6032!8m2!3d22.3085629!4d73.2082253!16s%2Fg%2F11b6wjnf8g!19sChIJITKLI2fPXzkRMmDqz4qYEk8?authuser=0&hl=en&rclk=1,"22.3085629,73.2082253"
Madina Masjid,Mosque,"Madina Masjid, C-188,Sabina park, Ajwa Rd, Vadodara, Gujarat 390006","Jay Ambe Nagar, Kishanwadi","C-188,Sabina park, Ajwa Rd",Vadodara,390006,Gujarat,IN,https://www.google.com/maps/place/Madina+Masjid/data=!4m7!3m6!1s0x395fcf83ab013ced:0x1664a33fa3923e09!8m2!3d22.312339!4d73.2324734!16s%2Fg%2F1q6701710!19sChIJ7TwBq4PPXzkRCT6Soz-jZBY?authuser=0&hl=en&rclk=1,"22.312338999999998,73.2324734"
Masjid-e-Rifaiya Char Rasta,Mosque,"76R3+5W3 Masjid-e-Rifaiya Char Rasta, RV Desai Rd, Navapura, Vadodara, Gujarat 390001",Navapura,"76R3+5W3, RV Desai Rd",Vadodara,390001,Gujarat,IN,https://www.google.com/maps/place/Masjid-e-Rifaiya+Char+Rasta/data=!4m7!3m6!1s0x395fc5f2a4c55b9f:0x4d9990c1287bff32!8m2!3d22.2903969!4d73.2047877!16s%2Fg%2F1pp2vcl07!19sChIJn1vFpPLFXzkRMv97KMGQmU0?authuser=0&hl=en&rclk=1,"22.290396899999998,73.2047877"
Masjid E Nizamiya,Mosque,"Masjid E Nizamiya, 8,kumbharwada,behin food and drugs laboulatry, Nizampura, Vadodara, Gujarat 390002","Sardar Nagar, Nizampura","8,kumbharwada,behin food and drugs laboulatry",Vadodara,390002,Gujarat,IN,https://www.google.com/maps/place/Masjid+E+Nizamiya/data=!4m7!3m6!1s0x395fc9dbb3942da5:0xe3678cc86e30d5c8!8m2!3d22.3261951!4d73.1800411!16s%2Fg%2F11gnpzgsln!19sChIJpS2Us9vJXzkRyNUwbsiMZ-M?authuser=0&hl=en&rclk=1,"22.3261951,73.1800411"
Hussaini Masjid,Mosque,"Hussaini Masjid, 5, RV Desai Rd, Bakrawadi, Navapura, Vadodara, Gujarat 390001","Bakrawadi, Navapura","5, RV Desai Rd",Vadodara,390001,Gujarat,IN,https://www.google.com/maps/place/Hussaini+Masjid/data=!4m7!3m6!1s0x395fc5933a4fe871:0x16746e0d2e8eb45d!8m2!3d22.2860794!4d73.2066404!16s%2Fg%2F11bw4hkgb_!19sChIJcehPOpPFXzkRXbSOLg1udBY?authuser=0&hl=en&rclk=1,"22.2860794,73.2066404"
Masjid e Garib Nawaz,Mosque,"858H+X5H Masjid e Garib Nawaz, Aurobindo Ghosh Rd, Pratapgunj, Vadodara, Gujarat 390020",Pratapgunj,"858H+X5H, Aurobindo Ghosh Rd",Vadodara,390020,Gujarat,IN,https://www.google.com/maps/place/Masjid+e+Garib+Nawaz/data=!4m7!3m6!1s0x395fc9d424c627bb:0x8425fdf632583c67!8m2!3d22.3174337!4d73.1779753!16s%2Fg%2F11h6ddzdwf!19sChIJuyfGJNTJXzkRZzxYMvb9JYQ?authuser=0&hl=en&rclk=1,"22.3174337,73.1779753"
Nagina Masjid,Mosque,"8627+2H8 Nagina Masjid, Panigate Rd, Syedwada, Chhipwad, Vadodara, Gujarat 390017","Syedwada, Chhipwad","8627+2H8, Panigate Rd",Vadodara,390017,Gujarat,IN,https://www.google.com/maps/place/Nagina+Masjid/data=!4m7!3m6!1s0x395fc589adcccf45:0xb999370a04ac1ccb!8m2!3d22.3000345!4d73.2139434!16s%2Fg%2F1z44xyh0s!19sChIJRc_MrYnFXzkRyxysBAo3mbk?authuser=0&hl=en&rclk=1,"22.3000345,73.21394339999999"
Noor Masjid,Mosque,"862F+6P8 Noor Masjid, Chandranagar Society, Satyam Park Society, Vadodara, Gujarat 390019","Chandranagar Society, Satyam Park Society",862F+6P8,Vadodara,390019,Gujarat,IN,https://www.google.com/maps/place/Noor+Masjid/data=!4m7!3m6!1s0x395fc580d6f9ed41:0x2099afebfcc8d602!8m2!3d22.3005401!4d73.2243346!16s%2Fg%2F1q6493d1h!19sChIJQe351oDFXzkRAtbI_OuvmSA?authuser=0&hl=en&rclk=1,"22.3005401,73.22433459999999"
Gausiya Masjid msjd,Mosque,"859R+7J6 Gausiya Masjid msjd, Kalyan Nagar, Karelibagh, Vadodara, Gujarat 390018","Kalyan Nagar, Karelibagh",859R+7J6,Vadodara,390018,Gujarat,IN,https://www.google.com/maps/place/Gausiya+Masjid+%D9%85%D8%B3%D8%AC%D8%AF%E2%80%AD/data=!4m7!3m6!1s0x395fcf48dba29dd3:0x3d08143ef564f6e1!8m2!3d22.3181593!4d73.1915275!16s%2Fg%2F11clzgh700!19sChIJ052i20jPXzkR4fZk9T4UCD0?authuser=0&hl=en&rclk=1,"22.318159299999998,73.19152749999999"
Anas Masjid,Mosque,"Anas Masjid, B-26/313, Chhipwad, Vadodara, Gujarat 390006",Chhipwad,B-26/313,Vadodara,390006,Gujarat,IN,https://www.google.com/maps/place/Anas+Masjid/data=!4m7!3m6!1s0x395fcf624dd8ca83:0xd4848bfd9d621b28!8m2!3d22.3047576!4d73.2137546!16s%2Fg%2F11g6rkfbcb!19sChIJg8rYTWLPXzkRKBtinf2LhNQ?authuser=0&hl=en&rclk=1,"22.3047576,73.2137546"
Masjid Ahlee Hadeeth (Masjid Muhammadi),Mosque,"76X8+2CW Masjid Ahlee Hadeeth (Masjid Muhammadi), Mahesh Complex Rd, Kahar Mohalla, Tai Wada, Wadi, Vadodara, Gujarat 390017","Kahar Mohalla, Tai Wada, Wadi","76X8+2CW, Mahesh Complex Rd",Vadodara,390017,Gujarat,IN,https://www.google.com/maps/place/Masjid+Ahlee+Hadeeth+%28Masjid+Muhammadi%29/data=!4m7!3m6!1s0x395fc58f141a473b:0x49578dd94c165abb!8m2!3d22.2976079!4d73.2160844!16s%2Fg%2F11b73w_m_6!19sChIJO0caFI_FXzkRu1oWTNmNV0k?authuser=0&hl=en&rclk=1,"22.2976079,73.2160844"
Patrakar Masjid,Mosque,"Patrakar Masjid, 7, Patrakar Colony, Tandalja, Vadodara, Gujarat 390012","Patrakar Colony, Tandalja",7,Vadodara,390012,Gujarat,IN,https://www.google.com/maps/place/Patrakar+Masjid/data=!4m7!3m6!1s0x395fc62158ee31ff:0x3f6445d408d2138e!8m2!3d22.2901931!4d73.1536333!16s%2Fg%2F11f3n6507f!19sChIJ_zHuWCHGXzkRjhPSCNRFZD8?authuser=0&hl=en&rclk=1,"22.2901931,73.1536333"
Sunni Arab Masjid,Mosque,"Sunni Arab Masjid, A-11/202, Chittekhan Gali, near Sunni Arab Masjid, Sulemani Pol, Moghul Wada, Vadodara, Gujarat 390017","Sulemani Pol, Moghul Wada","A-11/202, Chittekhan Gali, near Sunni Arab Masjid",Vadodara,390017,Gujarat,IN,https://www.google.com/maps/place/Sunni+Arab+Masjid/data=!4m7!3m6!1s0x395fc58967f46755:0xba3d3ff3dc0a48f6!8m2!3d22.2976759!4d73.2116614!16s%2Fg%2F1q6jjkxb0!19sChIJVWf0Z4nFXzkR9kgK3PM_Pbo?authuser=0&hl=en&rclk=1,"22.297675899999998,73.2116614"
Rajpura Masjid,Mosque,"76X6+RCG Rajpura Masjid, Gendi Gate Rd, Laadwada, Sulemani Pol, Moghul Wada, Vadodara, Gujarat 390017","Laadwada, Sulemani Pol, Moghul Wada","76X6+RCG, Gendi Gate Rd",Vadodara,390017,Gujarat,IN,https://www.google.com/maps/place/Rajpura+Masjid/data=!4m7!3m6!1s0x395fc58a2e5341c7:0x38f60c32c1e3c627!8m2!3d22.2995653!4d73.2110903!16s%2Fg%2F12hrxcz7p!19sChIJx0FTLorFXzkRJ8bjwTIM9jg?authuser=0&hl=en&rclk=1,"22.299565299999998,73.2110903"
Mohammadiya Masjid,Mosque,"Mohammadiya Masjid, A-11, A-11, Tandalja Rd, Taif Nagar, Tandalja, Vadodara, Gujarat 390012","Taif Nagar, Tandalja","A-11, A-11, Tandalja Rd",Vadodara,390012,Gujarat,IN,https://www.google.com/maps/place/Mohammadiya+Masjid/data=!4m7!3m6!1s0x395fc6225be7f8f3:0x2e118dc00c1463c6!8m2!3d22.2879137!4d73.1566234!16s%2Fg%2F11fx8z54b_!19sChIJ8_jnWyLGXzkRxmMUDMCNES4?authuser=0&hl=en&rclk=1,"22.2879137,73.1566234"
Kalandari Masjid,Mosque,"Kalandari Masjid, 390006, 7/10/5/61, Sarsiya Talav Rd, Patel Park Society, Warasiya, Vadodara, Gujarat 390006","Madar Mohalla, Patel Park Society, Warasiya","390006, 7/10/5/61, Sarsiya Talav Rd",Vadodara,390006,Gujarat,IN,https://www.google.com/maps/place/Kalandari+Masjid/data=!4m7!3m6!1s0x395fcf63afc2f27b:0x4c85c932c154e05e!8m2!3d22.3058808!4d73.2140301!16s%2Fg%2F11c70j1hp7!19sChIJe_LCr2PPXzkRXuBUwTLJhUw?authuser=0&hl=en&rclk=1,"22.3058808,73.2140301"
Sabri Masjid,Mosque,"8627+FGR Sabri Masjid, Khatri Pole, Syedwada, Chhipwad, Dangiyawas, Vadodara, Gujarat 390006","Khatri Pole, Syedwada, Chhipwad",8627+FGR,"Dangiyawas, Vadodara",390006,Gujarat,IN,https://www.google.com/maps/place/Sabri+Masjid/data=!4m7!3m6!1s0x395fc589c736fd25:0xbc74eb890354ce96!8m2!3d22.3012375!4d73.2137656!16s%2Fg%2F11dybdckw2!19sChIJJf02x4nFXzkRls5UA4nrdLw?authuser=0&hl=en&rclk=1,"22.3012375,73.2137656"
Masjid e Halima,Mosque,"76W7+JQ9 Masjid e Halima, Yasin Khan Pathan Rd, Badri Mohalla, Moghul Wada, Vadodara, Gujarat 390017","Badri Mohalla, Moghul Wada","76W7+JQ9, Yasin Khan Pathan Rd",Vadodara,390017,Gujarat,IN,https://www.google.com/maps/place/Masjid+e+Halima/data=!4m7!3m6!1s0x395fc5c4846ed927:0x4edc7a4938a6ba0d!8m2!3d22.2965372!4d73.2144945!16s%2Fg%2F11jb6n10_0!19sChIJJ9luhMTFXzkRDbqmOEl63E4?authuser=0&hl=en&rclk=1,"22.2965372,73.2144945"
Mohammadi Masjid,Mosque,"8677+85V Mohammadi Masjid, Rahemat nagar, fatepura, Harni Rd, Bhandwada, Vadodara, Gujarat 390006","Bhandwada, Vijay Nagar, Bapunagar","8677+85V, Rahemat nagar, fatepura, Harni Rd",Vadodara,390006,Gujarat,IN,https://www.google.com/maps/place/Mohammadi+Masjid/data=!4m7!3m6!1s0x395fcf65f3b89265:0x79db91da94894790!8m2!3d22.3133716!4d73.2129101!16s%2Fg%2F11csps2b56!19sChIJZZK482XPXzkRkEeJlNqR23k?authuser=0&hl=en&rclk=1,"22.3133716,73.2129101"
Sara Masjid,Mosque,"76W5+6R2 Sara Masjid, Navapura, Vadodara, Gujarat 390001",Navapura,76W5+6R2,Vadodara,390001,Gujarat,IN,https://www.google.com/maps/place/Sara+Masjid/data=!4m7!3m6!1s0x395fc58c70892da9:0xc5d8c9cb9f6e60f7!8m2!3d22.2955129!4d73.2095039!16s%2Fg%2F1tfslczp!19sChIJqS2JcIzFXzkR92Bun8vJ2MU?authuser=0&hl=en&rclk=1,"22.2955129,73.2095039"
Miyasahab ki Masjid,Mosque,"76W7+R2R Miyasahab ki Masjid, Sulemani Pol, Moghul Wada, Vadodara, Gujarat 390017","Sulemani Pol, Moghul Wada",76W7+R2R,Vadodara,390017,Gujarat,IN,https://www.google.com/maps/place/Miyasahab+ki+Masjid/data=!4m7!3m6!1s0x395fc5893922ec33:0x96805bf6a33aeb28!8m2!3d22.2971!4d73.2125195!16s%2Fg%2F1q66sttlc!19sChIJM-wiOYnFXzkRKOs6o_ZbgJY?authuser=0&hl=en&rclk=1,"22.2971,73.2125195"
Mohammadi Masjid,Mosque,"Mohammadi Masjid, 2, Relief Colony, Fatepura, Vadodara, Gujarat 390017","Relief Colony, Fatepura",2,Vadodara,390017,Gujarat,IN,https://www.google.com/maps/place/Mohammadi+Masjid/data=!4m7!3m6!1s0x395fc5866b9fc719:0xb4532fada8855d2e!8m2!3d22.2980395!4d73.2193605!16s%2Fg%2F11c3vr8jgw!19sChIJGcefa4bFXzkRLl2FqK0vU7Q?authuser=0&hl=en&rclk=1,"22.298039499999998,73.2193605"
Dosumiya Sunni Masjid,Mosque,"76X6+VWQ Dosumiya Sunni Masjid, Laadwada, Sulemani Pol, Moghul Wada, Vadodara, Gujarat 390006","Laadwada, Sulemani Pol, Moghul Wada",76X6+VWQ,Vadodara,390006,Gujarat,IN,https://www.google.com/maps/place/Dosumiya+Sunni+Masjid/data=!4m7!3m6!1s0x395fc58998bb8cf1:0x439e2ef4dcc91564!8m2!3d22.2997061!4d73.2123632!16s%2Fg%2F1pzvrmr7c!19sChIJ8Yy7mInFXzkRZBXJ3PQunkM?authuser=0&hl=en&rclk=1,"22.299706099999998,73.2123632"
Chudiwala Hira Masjid,Mosque,"Chudiwala Hira Masjid, 83, Panigate Rd, Syedwada, Chhipwad, Vadodara, Gujarat 390006","Syedwada, Chhipwad","83, Panigate Rd",Vadodara,390006,Gujarat,IN,https://www.google.com/maps/place/Chudiwala+Hira+Masjid/data=!4m7!3m6!1s0x395fc589b1a6d2ff:0x72d5c9ca8927c32b!8m2!3d22.3002556!4d73.2141239!16s%2Fg%2F1pzrqw1lh!19sChIJ_9KmsYnFXzkRK8MnicrJ1XI?authuser=0&hl=en&rclk=1,"22.3002556,73.21412389999999"
Masjid E Aaysha,Mosque,"8637+WMF Masjid E Aaysha, aaysha complex,opp. slam quarters,, Yakutpura, Vadodara, Gujarat 390006",Yakutpura,"8637+WMF, aaysha complex,opp. slam quarters,",Vadodara,390006,Gujarat,IN,https://www.google.com/maps/place/Masjid+E+Aaysha/data=!4m7!3m6!1s0x395fcf6253e48c21:0xb6d6673920546779!8m2!3d22.3048242!4d73.2141833!16s%2Fg%2F11c42x6fb9!19sChIJIYzkU2LPXzkReWdUIDln1rY?authuser=0&hl=en&rclk=1,"22.3048242,73.2141833"
Ansari Mohalla Masjid,Mosque,"Ansari Mohalla Masjid, 6A, Navapura, Vadodara, Gujarat 390001",Navapura,6A,Vadodara,390001,Gujarat,IN,https://www.google.com/maps/place/Ansari+Mohalla+Masjid/data=!4m7!3m6!1s0x395fc5ed989891bd:0x62dc261584c57f9f!8m2!3d22.2879886!4d73.2023911!16s%2Fg%2F11cly89zkc!19sChIJvZGYmO3FXzkRn3_FhBUm3GI?authuser=0&hl=en&rclk=1,"22.2879886,73.2023911"
Wadi Choti Masjid,Mosque,"76W7+52Q Wadi Choti Masjid, Moti vhorwaad, Vadodara, Gujarat 390017","Chowkhandi, Badri Mohalla, Wadi","76W7+52Q, Moti vhorwaad",Vadodara,390017,Gujarat,IN,https://www.google.com/maps/place/Wadi+Choti+Masjid/data=!4m7!3m6!1s0x395fc58ebb560bbd:0xf262ccdc5f6419aa!8m2!3d22.2954608!4d73.2126147!16s%2Fg%2F1q66sy8tw!19sChIJvQtWu47FXzkRqhlkX9zMYvI?authuser=0&hl=en&rclk=1,"22.2954608,73.2126147"
Untkhana Masjid,Mosque,"76X3+326 Untkhana Masjid, UnthKhana Ln, Sultanpura, Vadodara, Gujarat 390001",Sultanpura,"76X3+326, UnthKhana Ln",Vadodara,390001,Gujarat,IN,https://www.google.com/maps/place/Untkhana+Masjid/data=!4m7!3m6!1s0x395fc5f456d038af:0x947638c14434e4e1!8m2!3d22.2976531!4d73.2025243!16s%2Fg%2F11c323q57t!19sChIJrzjQVvTFXzkR4eQ0RME4dpQ?authuser=0&hl=en&rclk=1,"22.297653099999998,73.2025243"
GULSHAN E RAZA MASJID,Mosque,"GULSHAN E RAZA MASJID, H-5/7/36, Kagdiwada, Raopura, Jambubet, Vadodara, Gujarat 390001","Kagdiwada, Raopura, Jambubet",H-5/7/36,Vadodara,390001,Gujarat,IN,https://www.google.com/maps/place/GULSHAN+E+RAZA+MASJID/data=!4m7!3m6!1s0x395fcf5b16cb8293:0xe6088de6205b0ab6!8m2!3d22.3048728!4d73.1987591!16s%2Fg%2F11grq8f_zz!19sChIJk4LLFlvPXzkRtgpbIOaNCOY?authuser=0&hl=en&rclk=1,"22.3048728,73.1987591"
Noorani Masjid,Mosque,"7637+7RQ Noorani Masjid, Vijaynagar, Noor Park, Tarsali, Vadodara, Gujarat 390009","Vijaynagar, Noor Park, Tarsali",7637+7RQ,Vadodara,390009,Gujarat,IN,https://www.google.com/maps/place/Noorani+Masjid/data=!4m7!3m6!1s0x395fc58b98cbf85b:0xb2a9453da9103980!8m2!3d22.253214!4d73.2146078!16s%2Fg%2F11hdj3q47t!19sChIJW_jLmIvFXzkRgDkQqT1FqbI?authuser=0&hl=en&rclk=1,"22.253214,73.2146078"
Gulmirsah Masjid,Mosque,"Gulmirsah Masjid, A-9/247, Sulemani Pol, Mughal Wada, Vadodara, Gujarat 390017","Sulemani Pol, Mughal Wada",A-9/247,Vadodara,390017,Gujarat,IN,https://www.google.com/maps/place/Gulmirsah+Masjid/data=!4m7!3m6!1s0x395fc565d4bae619:0x84a2b75b039807c4!8m2!3d22.2978364!4d73.2141368!16s%2Fg%2F11fsl00hdn!19sChIJGea61GXFXzkRxAeYA1u3ooQ?authuser=0&hl=en&rclk=1,"22.297836399999998,73.21413679999999"
Sunni Madina Masjid Tarsali Gam,Mosque,"7628+H48 Sunni Madina Masjid Tarsali Gam, Somnath Nagar, Tarsali, Vadodara, Gujarat 390009","Somnath Nagar, Tarsali",7628+H48,Vadodara,390009,Gujarat,IN,https://www.google.com/maps/place/Sunni+Madina+Masjid+Tarsali+Gam/data=!4m7!3m6!1s0x395fc55898a5fba1:0x9546a9b1b69709dd!8m2!3d22.2514012!4d73.2153284!16s%2Fg%2F11lr7vbtm3!19sChIJofulmFjFXzkR3QmXtrGpRpU?authuser=0&hl=en&rclk=1,"22.2514012,73.21532839999999"
Musafarkhan Khana Masjid,Mosque,"H, Musafarkhan Khana Masjid, 5/2/11, Macchipith, Kagdiwada, Salatwada, Jambubet, Vadodara, Gujarat 390001","Kagdiwada, Salatwada, Jambubet","H, 5/2/11, Macchipith",Vadodara,390001,Gujarat,IN,https://www.google.com/maps/place/Musafarkhan+Khana+Masjid/data=!4m7!3m6!1s0x395fcf5979f3cf4d:0x7ecc7a702f94c747!8m2!3d22.306292!4d73.1987108!16s%2Fg%2F11c0rlttmv!19sChIJTc_zeVnPXzkRR8eUL3B6zH4?authuser=0&hl=en&rclk=1,"22.306292,73.1987108"
Dawoodi Bohra Masjid -Taj & Burhani,Mosque,"859Q+XXH Dawoodi Bohra Masjid -Taj & Burhani, Jayesh Colony, Fatehgunj, Vadodara, Gujarat 390008","Jayesh Colony, Fatehgunj",859Q+XXH,Vadodara,390008,Gujarat,IN,https://www.google.com/maps/place/Dawoodi+Bohra+Masjid+-Taj+%26+Burhani/data=!4m7!3m6!1s0x395fcf063d20ac15:0xcace49955a799a55!8m2!3d22.3199433!4d73.1899792!16s%2Fg%2F11g4jh244f!19sChIJFawgPQbPXzkRVZp5WpVJzso?authuser=0&hl=en&rclk=1,"22.3199433,73.1899792"
Usmani Masjid,Mosque,"Usmani Masjid, A-56, Saraswati Societey, Jay Ambe Nagar, Kishanwadi, Vadodara, Gujarat 390019","Saraswati Societey, Jay Ambe Nagar, Kishanwadi",A-56,Vadodara,390019,Gujarat,IN,https://www.google.com/maps/place/Usmani+Masjid/data=!4m7!3m6!1s0x395fcf00edafd645:0x8be16584593244ed!8m2!3d22.312991!4d73.2332892!16s%2Fg%2F11qp8rbbxq!19sChIJRdav7QDPXzkR7UQyWYRl4Ys?authuser=0&hl=en&rclk=1,"22.312991,73.2332892"
Khanqah Masjid,Mosque,"76X7+MW6 Khanqah Masjid, Panigate Rd, Chandranagar Society, Yakutpura, Vadodara, Gujarat 390017","Chandranagar Society, Yakutpura","76X7+MW6, Panigate Rd",Vadodara,390017,Gujarat,IN,https://www.google.com/maps/place/Khanqah+Masjid/data=!4m7!3m6!1s0x395fc56fa3090773:0x230b74b4eaeba111!8m2!3d22.2991607!4d73.2147531!16s%2Fg%2F11g0_bypdt!19sChIJcwcJo2_FXzkREaHr6rR0CyM?authuser=0&hl=en&rclk=1,"22.299160699999998,73.2147531"
Mustafa Masjid,Mosque,"Mustafa Masjid, Mustafa, shaheed Kabrastan, Panigate Rd, Kidwai Nagar, Yakutpura, Vadodara, Gujarat 390017","Kidwai Nagar, Yakutpura","Mustafa, shaheed Kabrastan, Panigate Rd",Vadodara,,Gujarat,IN,https://www.google.com/maps/place/Mustafa+Masjid/data=!4m7!3m6!1s0x395fc58629e963c9:0xecc355d8c3e8d67c!8m2!3d22.2993102!4d73.2176254!16s%2Fg%2F1q6j8wjgw!19sChIJyWPpKYbFXzkRfNbow9hVw-w?authuser=0&hl=en&rclk=1,"22.2993102,73.2176254"
Dawoodi Bohra Masjid - Fatehgunj,Religious destination,"85FQ+7PP Dawoodi Bohra Masjid - Fatehgunj, Jayesh Colony, Fatehgunj, Vadodara, Gujarat 390008","Jayesh Colony, Fatehgunj",85FQ+7PP,Vadodara,390008,Gujarat,IN,https://www.google.com/maps/place/Dawoodi+Bohra+Masjid+-+Fatehgunj/data=!4m7!3m6!1s0x395fcfb57a78d785:0x71c1c717f4f9ecb8!8m2!3d22.3232115!4d73.1893371!16s%2Fg%2F11j19tf5__!19sChIJhdd4erXPXzkRuOz59BfHwXE?authuser=0&hl=en&rclk=1,"22.3232115,73.1893371"
msjiid e rjaa e mustphaa,Mosque,"msjiid e rjaa e mustphaa, Unnamed Road, Aatif Nagar, Pratham Upvan, Vadodara, Gujarat 390012","Aatif Nagar, Pratham Upvan",Unnamed Road,Vadodara,390012,Gujarat,IN,https://www.google.com/maps/place/%E0%AA%AE%E0%AA%B8%E0%AB%8D%E0%AA%9C%E0%AB%80%E0%AA%A6+%E0%AA%8F+%E0%AA%B0%E0%AA%9C%E0%AA%BE+%E0%AA%8F+%E0%AA%AE%E0%AB%81%E0%AA%B8%E0%AB%8D%E0%AA%A4%E0%AA%AB%E0%AA%BE/data=!4m7!3m6!1s0x395fc707d2c20055:0xaa8f3c5169f600c3!8m2!3d22.2868444!4d73.1402936!16s%2Fg%2F11h_3p0k7r!19sChIJVQDC0gfHXzkRwwD2aVE8j6o?authuser=0&hl=en&rclk=1,"22.2868444,73.14029359999999"
Navapura Islam Pura Masjid,Mosque,"76R2+3FQ Navapura Islam Pura Masjid, Navapura, Vadodara, Gujarat 390001",Navapura,76R2+3FQ,Vadodara,390001,Gujarat,IN,https://www.google.com/maps/place/Navapura+Islam+Pura+Masjid/data=!4m7!3m6!1s0x395fc5ea248ed74d:0x78ade51cf37c7f7f!8m2!3d22.2902232!4d73.2012428!16s%2Fg%2F11h8851vnc!19sChIJTdeOJOrFXzkRf3988xzlrXg?authuser=0&hl=en&rclk=1,"22.2902232,73.2012428"
Ahle Hadis masjid,Mosque,"Ahle Hadis masjid, A-2, Ayeshapark, Tandalja, Vadodara, Gujarat 390012","Ayeshapark, Tandalja",A-2,Vadodara,390012,Gujarat,IN,https://www.google.com/maps/place/Ahle+Hadis+masjid/data=!4m7!3m6!1s0x395fc78bca098ccd:0x6f9eeaef2959249a!8m2!3d22.2880349!4d73.155601!16s%2Fg%2F11srxrcdbx!19sChIJzYwJyovHXzkRmiRZKe_qnm8?authuser=0&hl=en&rclk=1,"22.2880349,73.15560099999999"
Salatwada Masjid,Mosque,"854V+QH5 Salatwada Masjid, Salatwada, Karelibagh, Vadodara, Gujarat 390001","Salatwada, Karelibagh",854V+QH5,Vadodara,390001,Gujarat,IN,https://www.google.com/maps/place/Salatwada+Masjid/data=!4m7!3m6!1s0x395fcf17afd19e85:0x24358e99f8a74b46!8m2!3d22.3068943!4d73.1939845!16s%2Fg%2F11h8dvzhf_!19sChIJhZ7RrxfPXzkRRkun-JmONSQ?authuser=0&hl=en&rclk=1,"22.3068943,73.1939845"
Tower Masjid,Mosque,"8632+H7J Tower Masjid, Near Tower, Raopura, Mandvi, Vadodara, Gujarat 390001","Near Tower, Raopura, Mandvi",8632+H7J,Vadodara,390001,Gujarat,IN,https://www.google.com/maps/place/Tower+Masjid/data=!4m7!3m6!1s0x395fcf5ed9b7dd0f:0xe328428d297c91c2!8m2!3d22.303965!4d73.200653!16s%2Fg%2F11gdy8l1mn!19sChIJD9232V7PXzkRwpF8KY1CKOM?authuser=0&hl=en&rclk=1,"22.303964999999998,73.200653"
Masjid E Bilal,Mosque,"76XF+424 Masjid E Bilal, Ayurvedic College Rd, Memon Colony, Yakutpura, Vadodara, Gujarat 390019","Memon Colony, Yakutpura","76XF+424, Ayurvedic College Rd",Vadodara,390019,Gujarat,IN,https://www.google.com/maps/place/Masjid+E+Bilal/data=!4m7!3m6!1s0x395fc59b4aeca775:0xb6f51158e1e23de3!8m2!3d22.297765!4d73.2225725!16s%2Fg%2F11h1262987!19sChIJdafsSpvFXzkR4z3i4VgR9bY?authuser=0&hl=en&rclk=1,"22.297765,73.2225725"
Masjid e makhdume asraf,Mosque,"74PQ+XXG Masjid e makhdume asraf, Khusbunager, Ashwamegh Nagar, Tandalja, Vadodara, Gujarat 390012","Ashwamegh Nagar, Tandalja","74PQ+XXG, Khusbunager",Vadodara,390012,Gujarat,IN,https://www.google.com/maps/place/Masjid+e+makhdume+asraf/data=!4m7!3m6!1s0x395fc7e06d81f6f9:0x5dd5a25360747686!8m2!3d22.2874227!4d73.1400003!16s%2Fg%2F11twktj9mj!19sChIJ-faBbeDHXzkRhnZ0YFOi1V0?authuser=0&hl=en&rclk=1,"22.2874227,73.1400003"
