name,main_category,address,address_ward,address_street,address_city,address_postal_code,address_state,address_country_code,link,coordinates
Masjid Imam e Azam,Mosque,"CRC7+3G8 Masjid Imam e Azam, 10B/5D, Azad Nagar, *, Azad Nagar, Prayagraj, Uttar Pradesh 211016",Azad Nagar,"CRC7+3G8, 10B/5D, Azad Nagar, *",Prayagraj,211016,Uttar Pradesh,IN,https://www.google.com/maps/place/Masjid+Imam+e+Azam/data=!4m7!3m6!1s0x398535a2d3313c41:0xe2b64b1366d6f255!8m2!3d25.4201352!4d81.8134554!16s%2Fg%2F11fkvyltpj!19sChIJQTwx06I1hTkRVfLWZhNLtuI?authuser=0&hl=en&rclk=1,"25.420135199999997,81.8134554"
Rauze Wali Masjid,Mosque,"Rauze Wali Masjid, 10A/58, Prayagraj, Uttar Pradesh 211019",,10A/58,Prayagraj,211019,Uttar Pradesh,IN,https://www.google.com/maps/place/Rauze+Wali+Masjid/data=!4m7!3m6!1s0x39854ada6cd8ff7d:0x3017adb249d3897!8m2!3d25.426788!4d81.9027966!16s%2Fg%2F11dfsn5vyt!19sChIJff_YbNpKhTkRlzidJNt6AQM?authuser=0&hl=en&rclk=1,"25.426788,81.9027966"
"Mahboob Ali Masjid, Beli",Mosque,"Mahboob Ali Masjid, Beli, Beli Road, 21, Stanley Rd, Annpurna Vihar, Prayagraj, Uttar Pradesh 211002",Annpurna Vihar,"Beli Road, 21, Stanley Rd",Prayagraj,211002,Uttar Pradesh,IN,"https://www.google.com/maps/place/Mahboob+Ali+Masjid,+Beli/data=!4m7!3m6!1s0x399aca8db7969d75:0x55e56a7eee6a8f20!8m2!3d25.4737899!4d81.8478978!16s%2Fg%2F1pt_zcblk!19sChIJdZ2Wt43KmjkRII9q7n5q5VU?authuser=0&hl=en&rclk=1","25.4737899,81.8478978"
Makka Masjid,Mosque,"Makka Masjid, M.A HASAN, J K Nagar, Kala Danda, Prayagraj, Daiwghat, Uttar Pradesh 211016","J K Nagar, Kala Danda",M.A HASAN,"Prayagraj, Daiwghat",211016,Uttar Pradesh,IN,https://www.google.com/maps/place/Makka+Masjid/data=!4m7!3m6!1s0x398534cede573c97:0xf845c92b7f7b0a5a!8m2!3d25.425535!4d81.8072519!16s%2Fg%2F1hm311jg8!19sChIJlzxX3s40hTkRWgp7fyvJRfg?authuser=0&hl=en&rclk=1,"25.425535,81.8072519"
Masjid Buddha Tazia,Mosque,"CRMF+X4V Masjid Buddha Tazia, Noorullah Rd, Khuldabad, Buddha Tazia, Prayagraj, Uttar Pradesh 211003","Khuldabad, Buddha Tazia","CRMF+X4V, Noorullah Rd",Prayagraj,211003,Uttar Pradesh,IN,https://www.google.com/maps/place/Masjid+Buddha+Tazia/data=!4m7!3m6!1s0x3985352aac9104d1:0xa91ff28f247ebf33!8m2!3d25.4349763!4d81.8227883!16s%2Fg%2F11byd31p3z!19sChIJ0QSRrCo1hTkRM79-JI_yH6k?authuser=0&hl=en&rclk=1,"25.4349763,81.8227883"
Daira Shah Ajmal Masjid,Mosque,"Daira Shah Ajmal Masjid, Daira Shah Ajmal, Atala, Prayagraj, Uttar Pradesh 211003",Atala,Daira Shah Ajmal,Prayagraj,211003,Uttar Pradesh,IN,https://www.google.com/maps/place/Daira+Shah+Ajmal+Masjid/data=!4m7!3m6!1s0x399acad4a1042e5f:0xd5cfaf7eaf752d0e!8m2!3d25.4365692!4d81.8279724!16s%2Fg%2F1tfyzjm8!19sChIJXy4EodTKmjkRDi11r36vz9U?authuser=0&hl=en&rclk=1,"25.436569199999997,81.8279724"
Mehndauri Masjid,Mosque,"Mehndauri Masjid, 174/1C, New Mehdauri, Rasulabad, Teliarganj, Prayagraj, Uttar Pradesh 211002","New Mehdauri, Rasulabad, Teliarganj",174/1C,Prayagraj,211002,Uttar Pradesh,IN,https://www.google.com/maps/place/Mehndauri+Masjid/data=!4m7!3m6!1s0x399aca6f750f12cf:0xd0dd6be028801c91!8m2!3d25.4967743!4d81.8523657!16s%2Fg%2F11g6bqfmby!19sChIJzxIPdW_KmjkRkRyAKOBr3dA?authuser=0&hl=en&rclk=1,"25.4967743,81.8523657"
Wasiyabad Jama Masjid,Mosque,"Wasiyabad Jama Masjid, 211003, Noorullah Rd, Shashtri Nagar, Malviyanagar, Prayagraj, Uttar Pradesh 211003","Shashtri Nagar, Malviyanagar","211003, Noorullah Rd",Prayagraj,211003,Uttar Pradesh,IN,https://www.google.com/maps/place/Wasiyabad+Jama+Masjid/data=!4m7!3m6!1s0x398534d7f0085965:0x86582076337b9caa!8m2!3d25.4239048!4d81.8217381!16s%2Fg%2F1pp2x6k6m!19sChIJZVkI8Nc0hTkRqpx7M3YgWIY?authuser=0&hl=en&rclk=1,"25.4239048,81.82173809999999"
Abubakar Masjid,Mosque,"Abubakar Masjid, 49/9, Haji Siddique Nagar, Mahewa East, Prayagraj, Uttar Pradesh 211007",Mahewa East,"49/9, Haji Siddique Nagar","Prayagraj, Mirakhpur Kachhar",211007,Uttar Pradesh,IN,https://www.google.com/maps/place/Abubakar+Masjid/data=!4m7!3m6!1s0x3985353fbae4d46d:0x851ba6eb28a48e5b!8m2!3d25.4146351!4d81.8423845!16s%2Fg%2F11c2pqw8qm!19sChIJbdTkuj81hTkRW46kKOumG4U?authuser=0&hl=en&rclk=1,"25.414635099999998,81.8423845"
Shia Jama Masjid,Mosque,"Shia Jama Masjid, Mansarover Chauraha, Zero Road, Prayagraj, Uttar Pradesh 211003",Zero Road,Mansarover Chauraha,Prayagraj,211003,Uttar Pradesh,IN,https://www.google.com/maps/place/Shia+Jama+Masjid/data=!4m7!3m6!1s0x399acacb7aaaaaab:0x85486b285eec607!8m2!3d25.4387769!4d81.83989!16s%2Fg%2F12q4vtk24!19sChIJq6qqesvKmjkRB8buhbKGVAg?authuser=0&hl=en&rclk=1,"25.4387769,81.83989"
Masjid-e-Meena Shah,Mosque,"Masjid-e-Meena Shah, 399, Kamla Nehru Rd, Katra, Prayagraj, Uttar Pradesh 211002",Katra,"399, Kamla Nehru Rd",Prayagraj,211002,Uttar Pradesh,IN,https://www.google.com/maps/place/Masjid-e-Meena+Shah/data=!4m7!3m6!1s0x399aca90c0eeeaf9:0x993ef868b7a8facb!8m2!3d25.466996!4d81.853966!16s%2Fg%2F11dzw7vd6q!19sChIJ-eruwJDKmjkRy_qot2j4Ppk?authuser=0&hl=en&rclk=1,"25.466995999999998,81.853966"
Masjid-E-Gazi,Mosque,"Masjid-E-Gazi, 175/93, Old Sohbatiya Bagh, New Sohabatia Bagh, Sohabatiya Bagh, Prayagraj, Uttar Pradesh 211006","Old Sohbatiya Bagh, New Sohabatia Bagh, Sohabatiya Bagh",175/93,Prayagraj,211006,Uttar Pradesh,IN,https://www.google.com/maps/place/Masjid-E-Gazi/data=!4m7!3m6!1s0x399acaa84ec45257:0xacf309980aee5f98!8m2!3d25.4468078!4d81.8643553!16s%2Fg%2F11g9qb3d9y!19sChIJV1LETqjKmjkRmF_uCpgJ86w?authuser=0&hl=en&rclk=1,"25.4468078,81.8643553"
Hari Masjid,Mosque,"CRPR+36H Hari Masjid, Tilak Rd, Bahadur Ganj, Malviyanagar, Prayagraj, Uttar Pradesh 211003","Bahadur Ganj, Malviyanagar","CRPR+36H, Tilak Rd",Prayagraj,211003,Uttar Pradesh,IN,https://www.google.com/maps/place/Hari+Masjid/data=!4m7!3m6!1s0x39853534c5c06415:0x997b7c5c2ae34200!8m2!3d25.4351794!4d81.8405975!16s%2Fg%2F11b7q8bjt2!19sChIJFWTAxTQ1hTkRAELjKlx8e5k?authuser=0&hl=en&rclk=1,"25.4351794,81.8405975"
Rajrooppur Masjid,Mosque,"CQQV+52Q Rajrooppur Masjid, Jhalwa Rd, near Punjab National Bank, Rajrooppur, Prayagraj, Uttar Pradesh 211011",Rajrooppur,"CQQV+52Q, Jhalwa Rd, near Punjab National Bank",Prayagraj,211011,Uttar Pradesh,IN,https://www.google.com/maps/place/Rajrooppur+Masjid/data=!4m7!3m6!1s0x399acb4c3448690b:0x35ed45cd64f611a3!8m2!3d25.437953!4d81.792621!16s%2Fg%2F11byp67qhp!19sChIJC2lINEzLmjkRoxH2ZM1F7TU?authuser=0&hl=en&rclk=1,"25.437953,81.792621"
Harwara Badi Juma Masjid time 1:00 pm,Mosque,"Harwara Badi Juma Masjid time 1:00 pm, Harwara, Dhoomanganj, Prayagraj, Uttar Pradesh 211011","Harwara, Dhoomanganj",,Prayagraj,211011,Uttar Pradesh,IN,https://www.google.com/maps/place/Harwara+Badi+Juma+Masjid+time+1:00+pm/data=!4m7!3m6!1s0x399acca7bd6820a1:0x132dd4a1a80acbd2!8m2!3d25.4463538!4d81.777286!16s%2Fg%2F1yg56gvnn!19sChIJoSBovafMmjkR0ssKqKHULRM?authuser=0&hl=en&rclk=1,"25.446353799999997,81.77728599999999"
Takiya Masjid,Mosque,"CRJG+GJ9 Takiya Masjid, Atala, Prayagraj, Uttar Pradesh 211003",Atala,CRJG+GJ9,Prayagraj,211003,Uttar Pradesh,IN,https://www.google.com/maps/place/Takiya+Masjid/data=!4m7!3m6!1s0x3985352bafffffff:0xf41a10f148335b80!8m2!3d25.4312942!4d81.8265997!16s%2Fg%2F11bv1c7_95!19sChIJ____rys1hTkRgFszSPEQGvQ?authuser=0&hl=en&rclk=1,"25.4312942,81.8265997"
Qaziji Ki Masjid,Mosque,"Qaziji Ki Masjid, 62/A, Ghari Kala Leader Rd, Miurabad, Prayagraj, Uttar Pradesh 211003",Miurabad,"62/A, Ghari Kala Leader Rd",Prayagraj,211003,Uttar Pradesh,IN,https://www.google.com/maps/place/Qaziji+Ki+Masjid/data=!4m7!3m6!1s0x399acad493cefca9:0x841e14807fb884ca!8m2!3d25.4372031!4d81.8268338!16s%2Fg%2F1v_0h556!19sChIJqfzOk9TKmjkRyoS4f4AUHoQ?authuser=0&hl=en&rclk=1,"25.437203099999998,81.8268338"
Munna masjid,Mosque,"Munna masjid, J K Nagar, Kala Danda, Prayagraj, Daiwghat, Uttar Pradesh 211016","J K Nagar, Kala Danda",,"Prayagraj, Daiwghat",211016,Uttar Pradesh,IN,https://www.google.com/maps/place/Munna+masjid/data=!4m7!3m6!1s0x39853549505a3fa5:0xfad9dbebdcba6792!8m2!3d25.4286893!4d81.8053023!16s%2Fg%2F11rd8sfmhx!19sChIJpT9aUEk1hTkRkme63Ovb2fo?authuser=0&hl=en&rclk=1,"25.4286893,81.8053023"
Masjid BABA JI KA BAGH (near Balson Crossing ),Mosque,"FV44+HH2 Masjid BABA JI KA BAGH (near Balson Crossing ), in front of st anthony college, Ganesh Puram, Darbhanga Colony, George Town, Prayagraj, Uttar Pradesh 211002","Ganesh Puram, Darbhanga Colony, George Town","FV44+HH2, in front of st anthony college",Prayagraj,,Uttar Pradesh,IN,https://www.google.com/maps/place/Masjid+BABA+JI+KA+BAGH+%28near+Balson+Crossing+%29/data=!4m7!3m6!1s0x399acaa33c2f35e9:0xac8fdedac3a63da2!8m2!3d25.4563987!4d81.856379!16s%2Fg%2F11b_01tlsh!19sChIJ6TUvPKPKmjkRoj2mw9rej6w?authuser=0&hl=en&rclk=1,"25.456398699999998,81.85637899999999"
Chhoti Masjid,Mosque,"FRFV+9FR Chhoti Masjid, Beli Goan, Prayagraj, Uttar Pradesh 211002",Beli Goan,FRFV+9FR,Prayagraj,211002,Uttar Pradesh,IN,https://www.google.com/maps/place/Chhoti+Masjid/data=!4m7!3m6!1s0x399acaf2cf922a89:0xb9894ccccded40b5!8m2!3d25.4734892!4d81.8436444!16s%2Fg%2F11b_02n_3d!19sChIJiSqSz_LKmjkRtUDtzcxMibk?authuser=0&hl=en&rclk=1,"25.4734892,81.8436444"
Masjid Hajra,Mosque,"Masjid Hajra, Chakia Rajrooppur ilaahaabaad Uttar Pradesh 211011 Republic of",Rajrooppur,Chakia Rajrooppur ilaahaabaad Uttar Pradesh 211011 Republic of,Prayagraj,,Uttar Pradesh,IN,https://www.google.com/maps/place/Masjid+Hajra/data=!4m7!3m6!1s0x399acb4aad27c62b:0xa23bdaac9791ef6a!8m2!3d25.433784!4d81.8000519!16s%2Fg%2F11b6_49cm0!19sChIJK8YnrUrLmjkRau-Rl6zaO6I?authuser=0&hl=en&rclk=1,"25.433784,81.8000519"
Shahi Masjid,Mosque,"CRPQ+7MX Shahi Masjid, Shiv Charan Lal Road, Malviyanagar, Prayagraj, Uttar Pradesh 211003",Malviyanagar,"CRPQ+7MX, Shiv Charan Lal Road",Prayagraj,211003,Uttar Pradesh,IN,https://www.google.com/maps/place/Shahi+Masjid/data=!4m7!3m6!1s0x39853534ac883fa3:0xe26f317e9137bea2!8m2!3d25.4357384!4d81.8392198!16s%2Fg%2F11b6rw83p1!19sChIJoz-IrDQ1hTkRor43kX4xb-I?authuser=0&hl=en&rclk=1,"25.435738399999998,81.8392198"
Masjid Ahle Hadith,Mosque,"Masjid Ahle Hadith, 94/83, Bakshi Bazar, Tara Babu ki Gali, Roshan Bagh, Prayagraj, Uttar Pradesh 211003",Roshan Bagh,"94/83, Bakshi Bazar, Tara Babu ki Gali",Prayagraj,211003,Uttar Pradesh,IN,https://www.google.com/maps/place/Masjid+Ahle+Hadith/data=!4m7!3m6!1s0x399acad4ee84cee1:0x5d4cad063da8be63!8m2!3d25.437168!4d81.826165!16s%2Fg%2F11gc9gkp5d!19sChIJ4c6E7tTKmjkRY76oPQatTF0?authuser=0&hl=en&rclk=1,"25.437168,81.826165"
MASJID-E-IKRAM msjd,Mosque,"FR8Q+V6H MASJID-E-IKRAM msjd, Rajapur, Prayagraj, Uttar Pradesh 211002",Maulvi Ganj,"FR8Q+V6H, Rajapur",Prayagraj,211002,Uttar Pradesh,IN,https://www.google.com/maps/place/MASJID-E-IKRAM+%D9%85%D8%B3%D8%AC%D8%AF%E2%80%AD/data=!4m7!3m6!1s0x399acaee9985e717:0xade575f128c29e9c!8m2!3d25.4671881!4d81.8380956!16s%2Fg%2F11c71c627m!19sChIJF-eFme7KmjkRnJ7CKPF15a0?authuser=0&hl=en&rclk=1,"25.467188099999998,81.8380956"
Masjid Abu Hurairah,Mosque,"Masjid Abu Hurairah, P-137, J K Nagar, Kala Danda, Prayagraj, Daiwghat, Uttar Pradesh 211016","J K Nagar, Kala Danda",P-137,"Prayagraj, Daiwghat",211016,Uttar Pradesh,IN,https://www.google.com/maps/place/Masjid%E2%80%8C+Abu+Hurairah/data=!4m7!3m6!1s0x398534cec03f0271:0x8aa6b7c48e1d8ae!8m2!3d25.4267429!4d81.8073511!16s%2Fg%2F11f123wnvv!19sChIJcQI_wM40hTkRrtjhSHxrqgg?authuser=0&hl=en&rclk=1,"25.426742899999997,81.80735109999999"
Garhi Sarai Masjid And Zaid's House,Mosque,"Garhi Sarai Masjid And Zaid's House, 73/60 garhi sarai ilaahaabaad Uttar Pradesh 211003 Republic of, 211011","Nakhas Kohna, Miurabad",73/60 garhi sarai ilaahaabaad Uttar Pradesh 211003 Republic of,Prayagraj,211011,Uttar Pradesh,IN,https://www.google.com/maps/place/Garhi+Sarai+Masjid+And+Zaid%27s+House/data=!4m7!3m6!1s0x399acad2f89ab899:0xe7319ac961df7f59!8m2!3d25.4383795!4d81.8311066!16s%2Fg%2F11bt_hth5v!19sChIJmbia-NLKmjkRWX_fYcmaMec?authuser=0&hl=en&rclk=1,"25.4383795,81.8311066"
Anar Shah Baba Masjid,Mosque,"Anar Shah Baba Masjid, gareeb nawaz madarsa, Mirza Ghalib Rd, SultanPur Bhawa, Malviyanagar, Prayagraj, Uttar Pradesh 211003","SultanPur Bhawa, Malviyanagar","gareeb nawaz madarsa, Mirza Ghalib Rd",Prayagraj,211003,Uttar Pradesh,IN,https://www.google.com/maps/place/Anar+Shah+Baba+Masjid/data=!4m7!3m6!1s0x3985352abce77051:0x897bdc2b9923e852!8m2!3d25.433764!4d81.823199!16s%2Fg%2F11bc73mtwx!19sChIJUXDnvCo1hTkRUugjmSvce4k?authuser=0&hl=en&rclk=1,"25.433764,81.823199"
Masjid-e-ajaz,Mosque,"Masjid-e-ajaz, 18H/37H/2M/3A, Al Zehra Lane, Azad Nagar, Prayagraj, Uttar Pradesh 211016",Azad Nagar,"18H/37H/2M/3A, Al Zehra Lane",Prayagraj,211016,Uttar Pradesh,IN,https://www.google.com/maps/place/Masjid-e-ajaz/data=!4m7!3m6!1s0x398534c4c4f9acb9:0xaad0d6da7a1a5cc6!8m2!3d25.4188807!4d81.8107817!16s%2Fg%2F11ddxsj7xc!19sChIJuaz5xMQ0hTkRxlwaetrW0Ko?authuser=0&hl=en&rclk=1,"25.4188807,81.81078169999999"
Jama Masjid Abubakr Siddique r.a.,Mosque,"CRF9+44R Jama Masjid Abubakr Siddique r.a., Azad Nagar, Prayagraj, Uttar Pradesh 211016",Azad Nagar,CRF9+44R,Prayagraj,211016,Uttar Pradesh,IN,https://www.google.com/maps/place/Jama+Masjid+Abubakr+Siddique+r.a./data=!4m7!3m6!1s0x398535ca3f7344c7:0xad770ce8ccaec905!8m2!3d25.4228515!4d81.8177756!16s%2Fg%2F11pxm4st_l!19sChIJx0RzP8o1hTkRBcmuzOgMd60?authuser=0&hl=en&rclk=1,"25.4228515,81.81777559999999"
Kolhu Masjid,Mosque,"CR8V+895 Kolhu Masjid, Mahewa East, Prayagraj, Uttar Pradesh 211007",Mahewa East,CR8V+895,Prayagraj,211007,Uttar Pradesh,IN,https://www.google.com/maps/place/Kolhu+Masjid/data=!4m7!3m6!1s0x3985353f7706f313:0x8eb4b37af9fd3ab0!8m2!3d25.415768!4d81.8434701!16s%2Fg%2F11c54_0gfx!19sChIJE_MGdz81hTkRsDr9-XqztI4?authuser=0&hl=en&rclk=1,"25.415768,81.84347009999999"
Ayesha Masjid,Mosque,"FRGV+G3W Ayesha Masjid, Unnamed Road, Myorabad, Prayagraj, Uttar Pradesh 211002",Myorabad,"FRGV+G3W, Unnamed Road",Prayagraj,211002,Uttar Pradesh,IN,https://www.google.com/maps/place/Ayesha+Masjid/data=!4m7!3m6!1s0x399acaf368eeddc9:0x82af3770b4526ba3!8m2!3d25.4763625!4d81.842688!16s%2Fg%2F11h9x1vhlp!19sChIJyd3uaPPKmjkRo2tStHA3r4I?authuser=0&hl=en&rclk=1,"25.4763625,81.842688"
SHAHI MASJID,Mosque,"CVM3+QFP SHAHI MASJID, Kydganj, Prayagraj, Uttar Pradesh 211213",Kydganj,CVM3+QFP,Prayagraj,211213,Uttar Pradesh,IN,https://www.google.com/maps/place/SHAHI+MASJID/data=!4m7!3m6!1s0x3985354d0d7703ff:0xa0e26db3bbadf701!8m2!3d25.4344597!4d81.8536953!16s%2Fg%2F11c6cd5_2n!19sChIJ_wN3DU01hTkRAfetu7Nt4qA?authuser=0&hl=en&rclk=1,"25.434459699999998,81.8536953"
Badi Masjid,Mosque,"Badi Masjid, 7/8, Imam bara Mundera Bazar, Neem Sarai Rd, Mundera Bazar, Dhoomanganj, Prayagraj, Uttar Pradesh 211011","Mundera Bazar, Dhoomanganj","7/8, Imam bara Mundera Bazar, Neem Sarai Rd",Prayagraj,211011,Uttar Pradesh,IN,https://www.google.com/maps/place/Badi+Masjid/data=!4m7!3m6!1s0x399accbc3359779d:0x2ea619f473c7c04f!8m2!3d25.4521981!4d81.7633022!16s%2Fg%2F11g874_ls8!19sChIJnXdZM7zMmjkRT8DHc_QZpi4?authuser=0&hl=en&rclk=1,"25.4521981,81.7633022"
shahi masjid,Mosque,"FVV6+59V shahi masjid, MLNR Rd, Barrister Mullah Colony, MNNIT Allahabad Campus, Teliarganj, Prayagraj, Uttar Pradesh 211002","Barrister Mullah Colony, MNNIT Allahabad Campus, Teliarganj","FVV6+59V, MLNR Rd",Prayagraj,211002,Uttar Pradesh,IN,https://www.google.com/maps/place/shahi+masjid/data=!4m7!3m6!1s0x399aca7980949f5b:0xefba2dcd2ab076fa!8m2!3d25.4929791!4d81.8609077!16s%2Fg%2F1tgq519n!19sChIJW5-UgHnKmjkR-nawKs0tuu8?authuser=0&hl=en&rclk=1,"25.4929791,81.8609077"
Saudagar Masjid,Mosque,"CRQM+W84 Saudagar Masjid, Johnston Ganj, Mohatsim Ganj, Prayagraj, Uttar Pradesh 211003","Johnston Ganj, Mohatsim Ganj",CRQM+W84,Prayagraj,211003,Uttar Pradesh,IN,https://www.google.com/maps/place/Saudagar+Masjid/data=!4m7!3m6!1s0x399acad275904447:0x74edbfc612980c4e!8m2!3d25.439762!4d81.8333159!16s%2Fg%2F11c1nzlcvg!19sChIJR0SQddLKmjkRTgyYEsa_7XQ?authuser=0&hl=en&rclk=1,"25.439761999999998,81.8333159"
Masjid-E-Nisar,Mosque,"CRC6+FRF Masjid-E-Nisar, Azad Nagar Rd, near karamat chawki, Azad Nagar, Karaili, Prayagraj, Uttar Pradesh 211016","Azad Nagar, Karaili","CRC6+FRF, Azad Nagar Rd, near karamat chawki",Prayagraj,211016,Uttar Pradesh,IN,https://www.google.com/maps/place/Masjid-E-Nisar/data=!4m7!3m6!1s0x398535b1587d0623:0xdd240c099135ee2e!8m2!3d25.4211821!4d81.812043!16s%2Fg%2F11f66gh6p6!19sChIJIwZ9WLE1hTkRLu41kQkMJN0?authuser=0&hl=en&rclk=1,"25.4211821,81.812043"
Shahi Masjid msjd,Mosque,"Shahi Masjid msjd, Jhusi, Prayagraj, Uttar Pradesh 211019",,,"Jhusi, Prayagraj",211019,Uttar Pradesh,IN,https://www.google.com/maps/place/Shahi+Masjid+%D9%85%D8%B3%D8%AC%D8%AF%E2%80%AD/data=!4m7!3m6!1s0x39854ad0829a82dd:0x9844b3859327528a!8m2!3d25.4276876!4d81.9022004!16s%2Fg%2F11b90fz_bm!19sChIJ3YKagtBKhTkRilInk4WzRJg?authuser=0&hl=en&rclk=1,"25.4276876,81.9022004"
Masjid-e-Hera,Mosque,"CRC6+PRV Masjid-e-Hera, Azad Nagar Rd, Azad Nagar, Prayagraj, Uttar Pradesh 211016",Azad Nagar,"CRC6+PRV, Azad Nagar Rd",Prayagraj,211016,Uttar Pradesh,IN,https://www.google.com/maps/place/Masjid-e-Hera/data=!4m7!3m6!1s0x398534dab03ac453:0x89339677e04bbd20!8m2!3d25.4218599!4d81.8120618!16s%2Fg%2F11c209p1jz!19sChIJU8Q6sNo0hTkRIL1L4HeWM4k?authuser=0&hl=en&rclk=1,"25.421859899999998,81.8120618"
"Hari Masjid Allahabad - hry msjd, lh abd",Mosque,"FR5Q+Q27 Hari Masjid Allahabad - hry msjd, lh abd, Gayatripuram Colony, Civil Lines, Prayagraj, Uttar Pradesh 211001","Gayatripuram Colony, Civil Lines",FR5Q+Q27,Prayagraj,211001,Uttar Pradesh,IN,https://www.google.com/maps/place/Hari+Masjid+Allahabad+-+%DB%81%D8%B1%DB%8C+%D9%85%D8%B3%D8%AC%D8%AF%D8%8C+%D8%A7%D9%84%DB%81+%D8%A2%D8%A8%D8%A7%D8%AF%E2%80%AD/data=!4m7!3m6!1s0x399acb021a71d19f:0x9a5c6b6d143f7892!8m2!3d25.459409!4d81.8375367!16s%2Fg%2F11t572k2nd!19sChIJn9FxGgLLmjkRkng_FG1rXJo?authuser=0&hl=en&rclk=1,"25.459408999999997,81.8375367"
Noori Masjid,Mosque,"Noori Masjid, J-69, 60 Feet Rd, JC Colony, Kala Danda, Prayagraj, Daiwghat, Uttar Pradesh 211016","JC Colony, Kala Danda","J-69, 60 Feet Rd","Prayagraj, Daiwghat",211016,Uttar Pradesh,IN,https://www.google.com/maps/place/Noori+Masjid/data=!4m7!3m6!1s0x398534cc4f8eb7ad:0xedfa23394e91d9e2!8m2!3d25.4303876!4d81.8081122!16s%2Fg%2F11fzw97vy4!19sChIJrbeOT8w0hTkR4tmRTjkj-u0?authuser=0&hl=en&rclk=1,"25.4303876,81.8081122"
Chhoti Masjid (Hari Masjid),Mosque,"CRFM+C5G Chhoti Masjid (Hari Masjid), Maulvi Chiragh, Shaukat Ali Rd, Katehra Dariyabad, Prayagraj, Uttar Pradesh 211003",Katehra Dariyabad,"CRFM+C5G, Maulvi Chiragh, Shaukat Ali Rd",Prayagraj,211003,Uttar Pradesh,IN,https://www.google.com/maps/place/Chhoti+Masjid+%28Hari+Masjid%29/data=!4m7!3m6!1s0x3985352556ea29c5:0x7e752be125d69506!8m2!3d25.42356!4d81.8329563!16s%2Fg%2F11ggbnfwhy!19sChIJxSnqViU1hTkRBpXWJeErdX4?authuser=0&hl=en&rclk=1,"25.42356,81.83295629999999"
Badi Masjid,Mosque,"Badi Masjid, 87, Maulvi Chirag Ali Road, Jogighat, Katehra Dariyabad, Prayagraj, Uttar Pradesh 211003","Jogighat, Katehra Dariyabad","87, Maulvi Chirag Ali Road",Prayagraj,211003,Uttar Pradesh,IN,https://www.google.com/maps/place/Badi+Masjid/data=!4m7!3m6!1s0x3985352539c1c8a7:0xc91cafa0318302c6!8m2!3d25.4215701!4d81.8324429!16s%2Fg%2F11g6xrk8gb!19sChIJp8jBOSU1hTkRxgKDMaCvHMk?authuser=0&hl=en&rclk=1,"25.4215701,81.83244289999999"
Jhapia Masjid,Mosque,"CPWH+XH3 Jhapia Masjid, Bamrauli Airport Area, Bamrauli, Prayagraj, Uttar Pradesh 211012","Bamrauli Airport Area, Bamrauli",CPWH+XH3,Prayagraj,211012,Uttar Pradesh,IN,https://www.google.com/maps/place/Jhapia+Masjid/data=!4m7!3m6!1s0x399acd240791dea9:0xbf1048cbc844778e!8m2!3d25.4473758!4d81.728917!16s%2Fg%2F11g730z2bd!19sChIJqd6RByTNmjkRjndEyMtIEL8?authuser=0&hl=en&rclk=1,"25.4473758,81.728917"
Shishe Wali Masjid Hatiya,Mosque,"CRMR+QHX Shishe Wali Masjid Hatiya, Bharti Bhawan Rd, Chowk, Malviyanagar, Prayagraj, Uttar Pradesh 211003","Chowk, Malviyanagar","CRMR+QHX, Bharti Bhawan Rd",Prayagraj,211003,Uttar Pradesh,IN,https://www.google.com/maps/place/Shishe+Wali+Masjid+Hatiya/data=!4m7!3m6!1s0x39853534e03f271f:0xfde31a0a3515b527!8m2!3d25.4344995!4d81.8414917!16s%2Fg%2F11d_d210m7!19sChIJHyc_4DQ1hTkRJ7UVNQoa4_0?authuser=0&hl=en&rclk=1,"25.434499499999998,81.84149169999999"
Masjid E Noor,Mosque,"Masjid E Noor, 178 Daira Shah Ajmal, Prayagraj, Uttar Pradesh",Atala,178 Daira Shah Ajmal,Prayagraj,,Uttar Pradesh,IN,https://www.google.com/maps/place/Masjid+E+Noor/data=!4m7!3m6!1s0x399acad345a0320d:0xe38b5cd923ed002c!8m2!3d25.436165!4d81.8287646!16s%2Fg%2F11dd_pnq2y!19sChIJDTKgRdPKmjkRLADtI9lci-M?authuser=0&hl=en&rclk=1,"25.436165,81.8287646"
Taha Masjid,Mosque,"Taha Masjid, B- 589, GTB Nagar, Kareli, Prayagraj, Uttar Pradesh 211016","GTB Nagar, Kareli",B- 589,Prayagraj,211016,Uttar Pradesh,IN,https://www.google.com/maps/place/Taha+Masjid/data=!4m7!3m6!1s0x398534d0cec389af:0x8dde8e177755fa4f!8m2!3d25.424835!4d81.8164785!16s%2Fg%2F11b77dt8t1!19sChIJr4nDztA0hTkRT_pVdxeO3o0?authuser=0&hl=en&rclk=1,"25.424834999999998,81.8164785"
Noori Masjid,Mosque,"Noori Masjid, 14a/1 nihalpur allahabad 14a/1 nihalpur, Akbarpur, Kareli, Prayagraj, Uttar Pradesh 211016","Akbarpur, Kareli",14a/1 nihalpur allahabad 14a/1 nihalpur,Prayagraj,211016,Uttar Pradesh,IN,https://www.google.com/maps/place/Noori+Masjid/data=!4m7!3m6!1s0x399acbda586b3a3b:0x751d9d581f1babb9!8m2!3d25.4348579!4d81.8183445!16s%2Fg%2F11k1j0m1l_!19sChIJOzprWNrLmjkRuasbH1idHXU?authuser=0&hl=en&rclk=1,"25.434857899999997,81.8183445"
Masjid-e-Nabi,Mosque,"Masjid-e-Nabi, Karamat ki chauki, Azad Nagar, Prayagraj, Uttar Pradesh 211016",Azad Nagar,Karamat ki chauki,Prayagraj,211016,Uttar Pradesh,IN,https://www.google.com/maps/place/Masjid-e-Nabi/data=!4m7!3m6!1s0x398534cff0c35e69:0x4586caa2df4a1c42!8m2!3d25.4230078!4d81.8106978!16s%2Fg%2F11f0l3xxqp!19sChIJaV7D8M80hTkRQhxK36LKhkU?authuser=0&hl=en&rclk=1,"25.4230078,81.8106978"
badi masjid,Mosque,"FRGV+453 badi masjid, Beli Goan, Prayagraj, Uttar Pradesh 211002",Beli Goan,FRGV+453,Prayagraj,211002,Uttar Pradesh,IN,https://www.google.com/maps/place/badi+masjid/data=!4m7!3m6!1s0x399acaf317d59fa3:0x17a81ff4e636382a!8m2!3d25.4752564!4d81.8429226!16s%2Fg%2F11bxc69v4p!19sChIJo5_VF_PKmjkRKjg25vQfqBc?authuser=0&hl=en&rclk=1,"25.4752564,81.8429226"
Latar Wali Mosque,Mosque,"Latar Wali Mosque, 54/64, Khuldabad, Prayagraj, 211003",Roshan Bagh,"54/64, Khuldabad",Prayagraj,211003,Uttar Pradesh,IN,https://www.google.com/maps/place/Latar+Wali+Mosque/data=!4m7!3m6!1s0x399acad4c9b70ccf:0x13b4e0244fb95787!8m2!3d25.4357166!4d81.8264371!16s%2Fg%2F11b7q2x67d!19sChIJzwy3ydTKmjkRh1e5TyTgtBM?authuser=0&hl=en&rclk=1,"25.4357166,81.82643709999999"
Masjid Raza E Habib,Mosque,"Masjid Raza E Habib, 4A/2/1, Kamla Nagar, Myorabad, Prayagraj, Uttar Pradesh 211002","Kamla Nagar, Myorabad",4A/2/1,Prayagraj,211002,Uttar Pradesh,IN,https://www.google.com/maps/place/Masjid+Raza+E+Habib/data=!4m7!3m6!1s0x399acaf49d8dd9e7:0x1552653f4bdd0455!8m2!3d25.4773028!4d81.8424804!16s%2Fg%2F11c2p__10r!19sChIJ59mNnfTKmjkRVQTdSz9lUhU?authuser=0&hl=en&rclk=1,"25.4773028,81.8424804"
Masjid Bibi Khadija S.A.,Mosque,"CR86+XW4 Masjid Bibi Khadija S.A., Unnamed Road, Azad Nagar, Prayagraj, Uttar Pradesh 211016",Azad Nagar,"CR86+XW4, Unnamed Road",Prayagraj,211016,Uttar Pradesh,IN,https://www.google.com/maps/place/Masjid+Bibi+Khadija+S.A./data=!4m7!3m6!1s0x3985352e29bcd693:0x6c14e3c33bf74e88!8m2!3d25.4173941!4d81.8123397!16s%2Fg%2F11h18sxfw_!19sChIJk9a8KS41hTkRiE73O8PjFGw?authuser=0&hl=en&rclk=1,"25.4173941,81.8123397"
Munnuar Ali Shah Masjid,Mosque,"CRXM+GRP Munnuar Ali Shah Masjid, Sardar Patel Marg, Near Indira Bhawan, Civil Lines, Prayagraj, Uttar Pradesh 211001",Civil Lines,"CRXM+GRP, Sardar Patel Marg, Near Indira Bhawan",Prayagraj,211001,Uttar Pradesh,IN,https://www.google.com/maps/place/Munnuar+Ali+Shah+Masjid/data=!4m7!3m6!1s0x399acac54062719d:0xcb0d28acae61f361!8m2!3d25.4488314!4d81.8345632!16s%2Fg%2F11b7qwg74t!19sChIJnXFiQMXKmjkRYfNhrqwoDcs?authuser=0&hl=en&rclk=1,"25.4488314,81.83456319999999"
Noori Masjid,Mosque,"Noori Masjid, 30/22/A, North Malaka, Prayagraj, Uttar Pradesh 211001",North Malaka,30/22/A,Prayagraj,211001,Uttar Pradesh,IN,https://www.google.com/maps/place/Noori+Masjid/data=!4m7!3m6!1s0x399acbefeedc8d89:0x13f89c9ef7daecfc!8m2!3d25.4434481!4d81.8476124!16s%2Fg%2F11g07_9jcj!19sChIJiY3c7u_LmjkR_Oza956c-BM?authuser=0&hl=en&rclk=1,"25.443448099999998,81.8476124"
"Badi Masjid, purwa",Mosque,"CRGM+6X3 Badi Masjid, purwa, Katehra Dariyabad, Prayagraj, Uttar Pradesh 211016",Katehra Dariyabad,CRGM+6X3,Prayagraj,211016,Uttar Pradesh,IN,"https://www.google.com/maps/place/Badi+Masjid,+purwa/data=!4m7!3m6!1s0x3985353041b14051:0xcb98f404331f2ca2!8m2!3d25.4255056!4d81.8349286!16s%2Fg%2F11d_1n9xrk!19sChIJUUCxQTA1hTkRoiwfMwT0mMs?authuser=0&hl=en&rclk=1","25.425505599999997,81.8349286"
Noori Jama Masjid,Mosque,"FQ37+999 Noori Jama Masjid, Near Madrsha School, Neem Sarai Rd, Sarai, Prayagraj, Uttar Pradesh 211011",Sarai,"FQ37+999, Near Madrsha School, Neem Sarai Rd",Prayagraj,211011,Uttar Pradesh,IN,https://www.google.com/maps/place/Noori+Jama+Masjid/data=!4m7!3m6!1s0x399accbdc0d7efab:0xdcad08a10f7bf9bf!8m2!3d25.453412!4d81.7634949!16s%2Fg%2F11b7tzt623!19sChIJq-_XwL3MmjkRv_l7D6EIrdw?authuser=0&hl=en&rclk=1,"25.453412,81.7634949"
Hazrat Ali Masjid,Mosque,"CR97+798 Hazrat Ali Masjid, VIP Nagar, Azad Nagar, Prayagraj, Uttar Pradesh 211016","VIP Nagar, Azad Nagar",CR97+798,Prayagraj,211016,Uttar Pradesh,IN,https://www.google.com/maps/place/Hazrat+Ali+Masjid/data=!4m7!3m6!1s0x398534db6da0dbd1:0xa456d7d34c9578d6!8m2!3d25.4181581!4d81.8134441!16s%2Fg%2F11f3q_8rcv!19sChIJ0dugbds0hTkR1niVTNPXVqQ?authuser=0&hl=en&rclk=1,"25.4181581,81.8134441"
Asharaf bhai Madina Masjid,Mosque,"FRCR+W5M Asharaf bhai Madina Masjid, Maulvi Ganj, Prayagraj, Uttar Pradesh 211002",Maulvi Ganj,FRCR+W5M,Prayagraj,211002,Uttar Pradesh,IN,https://www.google.com/maps/place/Asharaf+bhai+Madina+Masjid/data=!4m7!3m6!1s0x399acbfbb670a791:0xe1d7f33907ef9bed!8m2!3d25.4723468!4d81.8404196!16s%2Fg%2F11fj8c7j8z!19sChIJkadwtvvLmjkR7ZvvBznz1-E?authuser=0&hl=en&rclk=1,"25.4723468,81.84041959999999"
Masjid,Mosque,"CRQJ+654 Masjid, Nakhas Kohna, Prayagraj, Uttar Pradesh 211003","Sewai Mandi, Rani Ki Mandi","CRQJ+654, Nakhas Kohna",Prayagraj,211003,Uttar Pradesh,IN,https://www.google.com/maps/place/Masjid/data=!4m7!3m6!1s0x399acad30180adcb:0xaf286aed76c9cfbd!8m2!3d25.4380029!4d81.8304611!16s%2Fg%2F11bc7108h4!19sChIJy62AAdPKmjkRvc_Jdu1qKK8?authuser=0&hl=en&rclk=1,"25.438002899999997,81.8304611"
Masjid e Aaisha,Mosque,"Masjid e Aaisha, 616, Katehra Dariyabad, Prayagraj, Uttar Pradesh 211003",Katehra Dariyabad,"616, Katehra Dariyabad",Prayagraj,211003,Uttar Pradesh,IN,https://www.google.com/maps/place/Masjid+e+Aaisha/data=!4m7!3m6!1s0x3985353ace4ea363:0x89153bec8f1ac8f8!8m2!3d25.4217698!4d81.8338441!16s%2Fg%2F11d_3002y0!19sChIJY6NOzjo1hTkR-Mgaj-w7FYk?authuser=0&hl=en&rclk=1,"25.4217698,81.8338441"
Masjid,Mosque,"FRCG+3G8 Masjid, Hastings Rd, Opposite Power House, Newada, Ashok Nagar, Prayagraj, Uttar Pradesh 211001","Newada, Ashok Nagar","FRCG+3G8, Hastings Rd, Opposite Power House",Prayagraj,211001,Uttar Pradesh,IN,https://www.google.com/maps/place/Masjid/data=!4m7!3m6!1s0x399acae3342fd049:0x2cc942843ced3a3!8m2!3d25.4701609!4d81.82633!16s%2Fg%2F11b7kg01r7!19sChIJSdAvNOPKmjkRo9POQyiUzAI?authuser=0&hl=en&rclk=1,"25.4701609,81.82633"
Samdabad Masjid,Mosque,"Samdabad Masjid, 182-B, Attarsuiya, Malviyanagar, Prayagraj, Uttar Pradesh 211001","Attarsuiya, Malviyanagar",182-B,Prayagraj,211001,Uttar Pradesh,IN,https://www.google.com/maps/place/Samdabad+Masjid/data=!4m7!3m6!1s0x3985352cc6632bdd:0xaef8b11bc78305d3!8m2!3d25.4344731!4d81.8295649!16s%2Fg%2F11f4tl4tpp!19sChIJ3Stjxiw1hTkR0wWDxxux-K4?authuser=0&hl=en&rclk=1,"25.434473099999998,81.8295649"
Allah Muhammad Masjid,Mosque,"CRQC+H66 Allah Muhammad Masjid, Sarai Sabzi Mandi, Old GT Rd, near aman collection, Khuldabad, Prayagraj, Uttar Pradesh 211003","Khuldabad, Kareli","CRQC+H66, Sarai Sabzi Mandi, Old GT Rd, near aman collection",Prayagraj,211003,Uttar Pradesh,IN,https://www.google.com/maps/place/Allah+Muhammad+Masjid/data=!4m7!3m6!1s0x399acb2a45d9b1e1:0xcd6586bf4c8198cd!8m2!3d25.4389049!4d81.8205069!16s%2Fg%2F11bc7405g_!19sChIJ4bHZRSrLmjkRzZiBTL-GZc0?authuser=0&hl=en&rclk=1,"25.438904899999997,81.8205069"
Abu Saudagar Masjid,Mosque,"Abu Saudagar Masjid, 782 D, Baluaghat Rd, Katehra Dariyabad, Prayagraj, Uttar Pradesh 211003",Katehra Dariyabad,"782 D, Baluaghat Rd",Prayagraj,211003,Uttar Pradesh,IN,https://www.google.com/maps/place/Abu+Saudagar+Masjid/data=!4m7!3m6!1s0x398535305e6e03e7:0xee1a714809a4eff!8m2!3d25.4255505!4d81.8358!16s%2Fg%2F11df06ydpj!19sChIJ5wNuXjA1hTkR_06agBSn4Q4?authuser=0&hl=en&rclk=1,"25.4255505,81.83579999999999"
Chhoti Masjid Nai Abadi Chakiya,Mosque,"CRP2+RH2 Chhoti Masjid Nai Abadi Chakiya, Nai Abadi, Chakiya, Rajrooppur, Prayagraj, Uttar Pradesh 211011","Nai Abadi, Chakiya, Rajrooppur",CRP2+RH2,Prayagraj,211011,Uttar Pradesh,IN,https://www.google.com/maps/place/Chhoti+Masjid+Nai+Abadi+Chakiya/data=!4m7!3m6!1s0x399acbe432c8d19b:0x8bcdc2b02f7f8214!8m2!3d25.4370245!4d81.8013811!16s%2Fg%2F11fd455_c1!19sChIJm9HIMuTLmjkRFIJ_L7DCzYs?authuser=0&hl=en&rclk=1,"25.4370245,81.8013811"
Pathnai wali Masjid ( Raza masjid),Mosque,"CWG2+CXP Pathnai wali Masjid ( Raza masjid), Haveliya, Jhusi, Prayagraj, Uttar Pradesh 211019",Haveliya,CWG2+CXP,"Jhusi, Prayagraj",211019,Uttar Pradesh,IN,https://www.google.com/maps/place/Pathnai+wali+Masjid+%28+Raza+masjid%29/data=!4m7!3m6!1s0x39854ada6d4c70ed:0xb6e05428d44e12f1!8m2!3d25.4260843!4d81.9024542!16s%2Fg%2F11g8wh3k0c!19sChIJ7XBMbdpKhTkR8RJO1ChU4LY?authuser=0&hl=en&rclk=1,"25.4260843,81.9024542"
Hafiz Rajjab Ali Masjid,Mosque,"Dairah, Hafiz Rajjab Ali Masjid, Shah Ajmal, Nakhas Kohna, Miurabad, Prayagraj, Uttar Pradesh 211003","Nakhas Kohna, Miurabad","Dairah, Shah Ajmal",Prayagraj,211003,Uttar Pradesh,IN,https://www.google.com/maps/place/Hafiz+Rajjab+Ali+Masjid/data=!4m7!3m6!1s0x399acad378e2d15d:0x16dc8452cbe7a178!8m2!3d25.4380795!4d81.8283693!16s%2Fg%2F11fzcn8lmz!19sChIJXdHieNPKmjkReKHny1KE3BY?authuser=0&hl=en&rclk=1,"25.4380795,81.82836929999999"
Muhammadi Ahlehadees Masjid niva,Mosque,"FQ9R+9P4 Muhammadi Ahlehadees Masjid niva, Niva Dhoomangang, Prayagraj","Nyay Nagar, Dhoomanganj","FQ9R+9P4, Niva Dhoomangang","Prayagraj, Umarpurniwa Kachhar",,Uttar Pradesh,IN,https://www.google.com/maps/place/Muhammadi+Ahlehadees+Masjid+niva/data=!4m7!3m6!1s0x399acb6fd7ac3ec9:0x1c8b0a384e11aaf3!8m2!3d25.4683932!4d81.7918386!16s%2Fg%2F11cls6jnfg!19sChIJyT6s12_LmjkR86oRTjgKixw?authuser=0&hl=en&rclk=1,"25.468393199999998,81.79183859999999"
Niva Jama Masjid,Mosque,"FQ9R+65X Niva Jama Masjid, Niva, Dhoomanganj, Prayagraj, Umarpurniwa Kachhar, Uttar Pradesh 211011","Niva, Dhoomanganj",FQ9R+65X,"Prayagraj, Umarpurniwa Kachhar",211011,Uttar Pradesh,IN,https://www.google.com/maps/place/Niva+Jama+Masjid/data=!4m7!3m6!1s0x399acb6fe37ffbff:0x49fd04715aa1eba8!8m2!3d25.4681166!4d81.7904833!16s%2Fg%2F11b7vyp0rb!19sChIJ__t_42_LmjkRqOuhWnEE_Uk?authuser=0&hl=en&rclk=1,"25.4681166,81.79048329999999"
Masjid,Mosque,"FMHF+QP4 Masjid, Grand Trunk Rd, Puramufti, Prayagraj, Uttar Pradesh 212208",Puramufti,"FMHF+QP4, Grand Trunk Rd",Prayagraj,212208,Uttar Pradesh,IN,https://www.google.com/maps/place/Masjid/data=!4m7!3m6!1s0x399ad2615377bdf5:0xada1306f495f9491!8m2!3d25.4793942!4d81.6743341!16s%2Fg%2F11bttc_1g5!19sChIJ9b13U2HSmjkRkZRfSW8woa0?authuser=0&hl=en&rclk=1,"25.479394199999998,81.6743341"
Masjid Chaudahon Peer,Mosque,"Masjid Chaudahon Peer, 12c 211001, 12C Hastings Road, Nyaya Marg, Civil Lines, Prayagraj, Uttar Pradesh 211001","Canton, Civil Lines","12c 211001, 12C Hastings Road, Nyaya Marg",Prayagraj,211001,Uttar Pradesh,IN,https://www.google.com/maps/place/Masjid+Chaudahon+Peer/data=!4m7!3m6!1s0x399acadf7d3686ef:0xf54fbc52fbc9a98d!8m2!3d25.4563119!4d81.8228532!16s%2Fg%2F11b6y475c5!19sChIJ74Y2fd_KmjkRjanJ-1K8T_U?authuser=0&hl=en&rclk=1,"25.4563119,81.8228532"
Masjid-E-Hamza,Mosque,"1/1, Masjid-E-Hamza, Talab Naval Rai, Grand Trunk Rd, New Bairahana, Prayagraj, Uttar Pradesh 211003",New Bairahana,"1/1, Talab Naval Rai, Grand Trunk Rd",Prayagraj,211003,Uttar Pradesh,IN,https://www.google.com/maps/place/Masjid-E-Hamza/data=!4m7!3m6!1s0x399acaad1f7afd61:0xb297362b007dfd42!8m2!3d25.438451!4d81.8577459!16s%2Fg%2F11b7m9gzw1!19sChIJYf16H63KmjkRQv19ACs2l7I?authuser=0&hl=en&rclk=1,"25.438451,81.8577459"
Musalla-e-Zishaan Masjid,Mosque,"Musalla-e-Zishaan Masjid, 155/17, Karelabagh, Azad Nagar, Prayagraj, Uttar Pradesh 211016","Karelabagh, Azad Nagar",155/17,Prayagraj,211016,Uttar Pradesh,IN,https://www.google.com/maps/place/Musalla-e-Zishaan+Masjid/data=!4m7!3m6!1s0x398534db8cac5611:0x1162f83586301ee2!8m2!3d25.4173431!4d81.8155842!16s%2Fg%2F11gh08w_w1!19sChIJEVasjNs0hTkR4h4whjX4YhE?authuser=0&hl=en&rclk=1,"25.4173431,81.81558419999999"
Maqbara Masjid,Mosque,"CRMH+C4R Maqbara Masjid, Atala, Imambara, Prayagraj, Uttar Pradesh 211003",Atala,CRMH+C4R,"Imambara, Prayagraj",211003,Uttar Pradesh,IN,https://www.google.com/maps/place/Maqbara+Masjid/data=!4m7!3m6!1s0x3985350cd9a384af:0x618a779555de8194!8m2!3d25.4336194!4d81.8277603!16s%2Fg%2F11g1j2k58c!19sChIJr4Sj2Qw1hTkRlIHeVZV3imE?authuser=0&hl=en&rclk=1,"25.433619399999998,81.8277603"
Masjid,Mosque,"CVM5+MQJ Masjid, Near Kidganj Police Station, Krishna Nagar, Kydganj, Prayagraj, Uttar Pradesh 211001","Krishna Nagar, Kydganj","CVM5+MQJ, Near Kidganj Police Station",Prayagraj,211001,Uttar Pradesh,IN,https://www.google.com/maps/place/Masjid/data=!4m7!3m6!1s0x398535537517feb9:0xbf3fa1afc05b168b!8m2!3d25.4342193!4d81.8594028!16s%2Fg%2F11b7q4sh9d!19sChIJuf4XdVM1hTkRixZbwK-hP78?authuser=0&hl=en&rclk=1,"25.4342193,81.8594028"
Masjid,Mosque,"Masjid, Chandralok, Zero Rd, Bahadur Ganj, Zero Road, Prayagraj, Uttar Pradesh 211001","Bahadur Ganj, Zero Road","Chandralok, Zero Rd",Prayagraj,211001,Uttar Pradesh,IN,https://www.google.com/maps/place/Masjid/data=!4m7!3m6!1s0x399acacafcf90eb3:0x411a0f91fdcf83b7!8m2!3d25.438233!4d81.8415235!16s%2Fg%2F11byckhfz7!19sChIJsw75_MrKmjkRt4PP_ZEPGkE?authuser=0&hl=en&rclk=1,"25.438233,81.8415235"
Mak Town Masjid,Mosque,"Mak Town Masjid, Mak Town, Noorullah Rd, Karelabagh, Azad Nagar, Prayagraj, Uttar Pradesh 211016","Karelabagh, Azad Nagar","Mak Town, Noorullah Rd",Prayagraj,,Uttar Pradesh,IN,https://www.google.com/maps/place/Mak+Town+Masjid/data=!4m7!3m6!1s0x39853549a8c06269:0xf4be59fb8521a56c!8m2!3d25.420474!4d81.8191633!16s%2Fg%2F11fd43bgzy!19sChIJaWLAqEk1hTkRbKUhhftZvvQ?authuser=0&hl=en&rclk=1,"25.420474,81.8191633"
Masjid E Karimi(Masjid Johnstonganj),Mosque,"50, Masjid E Karimi(Masjid Johnstonganj), 211003, Johnston Ganj, Mohatsim Ganj, Prayagraj, Uttar Pradesh 211003","Johnston Ganj, Mohatsim Ganj","50, 211003",Prayagraj,211003,Uttar Pradesh,IN,https://www.google.com/maps/place/Masjid+E+Karimi%28Masjid+Johnstonganj%29/data=!4m7!3m6!1s0x399acace7c8384b9:0x1cd526febed025f7!8m2!3d25.4421593!4d81.8357608!16s%2Fg%2F11d_8ssj19!19sChIJuYSDfM7KmjkR9yXQvv4m1Rw?authuser=0&hl=en&rclk=1,"25.4421593,81.8357608"
Bagh wali masjid,Mosque,"CRMG+CC8 Bagh wali masjid, Khuldabad, Atala, Prayagraj, Uttar Pradesh 211003","Khuldabad, Atala",CRMG+CC8,Prayagraj,,Uttar Pradesh,IN,https://www.google.com/maps/place/Bagh+wali+masjid/data=!4m7!3m6!1s0x398535c6475f7077:0x979805e85774b726!8m2!3d25.4335418!4d81.826076!16s%2Fg%2F11kqn6gy80!19sChIJd3BfR8Y1hTkRJrd0V-gFmJc?authuser=0&hl=en&rclk=1,"25.4335418,81.826076"
Masjid,Mosque,"CRR4+FVR Masjid, Old GT Rd, Lukarganj, Prayagraj, Uttar Pradesh 211001",Lukarganj,"CRR4+FVR, Old GT Rd",Prayagraj,211001,Uttar Pradesh,IN,https://www.google.com/maps/place/Masjid/data=!4m7!3m6!1s0x399acb31413c1823:0x24c43ddfeeadba89!8m2!3d25.4412299!4d81.8071329!16s%2Fg%2F11bymwbgvk!19sChIJIxg8QTHLmjkRibqt7t89xCQ?authuser=0&hl=en&rclk=1,"25.4412299,81.8071329"
Masjid Hazrat Shah Muhibbullah Allahabadi Dada Miya,Mosque,"CVJ2+36M Masjid Hazrat Shah Muhibbullah Allahabadi Dada Miya, Nayi basti, Dargah Hazrat shah muhibbullah, Prayagraj, Uttar Pradesh",Kydganj,"CVJ2+36M, Nayi basti, Dargah Hazrat shah muhibbullah",Prayagraj,,Uttar Pradesh,IN,https://www.google.com/maps/place/Masjid+Hazrat+Shah+Muhibbullah+Allahabadi+Dada+Miya/data=!4m7!3m6!1s0x3985354ea5c16e47:0xb8db93f2be59ec6!8m2!3d25.4302241!4d81.8505387!16s%2Fg%2F11f50wqym8!19sChIJR27BpU41hTkRxp7lKz-5jQs?authuser=0&hl=en&rclk=1,"25.4302241,81.8505387"
Masjid Qari Abdul Kabeer,Mosque,"CRMG+547 Masjid Qari Abdul Kabeer, Atala Islam pur, Allahabad, Uttar Pradesh, India, Prayagraj","Khuldabad, Malviyanagar","CRMG+547, Atala Islam pur, Allahabad, Uttar Pradesh, India",Prayagraj,,Uttar Pradesh,IN,https://www.google.com/maps/place/Masjid+Qari+Abdul+Kabeer/data=!4m7!3m6!1s0x3985352b02d1a43d:0xce407d4bb4739579!8m2!3d25.4329062!4d81.8253059!16s%2Fg%2F11b6wf1ntz!19sChIJPaTRAis1hTkReZVztEt9QM4?authuser=0&hl=en&rclk=1,"25.432906199999998,81.82530589999999"
Masjid Darul Huda,Mosque,"CRC7+GXJ Masjid Darul Huda, Azad Nagar Rd, GTB Nagar, Azad Nagar, Kareli, Prayagraj, Uttar Pradesh 211016","GTB Nagar, Azad Nagar, Kareli","CRC7+GXJ, Azad Nagar Rd",Prayagraj,211016,Uttar Pradesh,IN,https://www.google.com/maps/place/Masjid+Darul+Huda/data=!4m7!3m6!1s0x398535c41da87f37:0xeebaef56c8e9b802!8m2!3d25.421339!4d81.8148972!16s%2Fg%2F11h196_n4v!19sChIJN3-oHcQ1hTkRArjpyFbvuu4?authuser=0&hl=en&rclk=1,"25.421339,81.81489719999999"
Chhoti Masjid,Mosque,"Chhoti Masjid, 122, Maulvi Chirag Ali Road, Jogighat, Katehra Dariyabad, Prayagraj, Uttar Pradesh 211003","Jogighat, Katehra Dariyabad","122, Maulvi Chirag Ali Road",Prayagraj,211003,Uttar Pradesh,IN,https://www.google.com/maps/place/Chhoti+Masjid/data=!4m7!3m6!1s0x39853525738e3955:0x2a7f22852a41f2b!8m2!3d25.4224724!4d81.8310136!16s%2Fg%2F11dxm8b164!19sChIJVTmOcyU1hTkRKx-kUijypwI?authuser=0&hl=en&rclk=1,"25.4224724,81.83101359999999"
Masjid e Daulat Green Masjid/Mazaar,Mosque,"Masjid e Daulat Green Masjid/Mazaar, BALU MARKET, Noorullah Rd, Karelabagh, GTB NAGAR, Kareli, Prayagraj, Uttar Pradesh 211016","Karelabagh, GTB NAGAR, Kareli","BALU MARKET, Noorullah Rd",Prayagraj,211016,Uttar Pradesh,IN,https://www.google.com/maps/place/Masjid+e+Daulat+Green+Masjid%2FMazaar/data=!4m7!3m6!1s0x398534de9de72bad:0x5af5515ea11f419c!8m2!3d25.4150772!4d81.8171816!16s%2Fg%2F11ddxvbtb9!19sChIJrSvnnd40hTkRnEEfoV5R9Vo?authuser=0&hl=en&rclk=1,"25.4150772,81.8171816"
Lal Masjid,Mosque,"Lal Masjid, Purushottam Das Tandon Marg, Civil Lines, Prayagraj, Uttar Pradesh 211001",Civil Lines,Purushottam Das Tandon Marg,Prayagraj,211001,Uttar Pradesh,IN,https://www.google.com/maps/place/Lal+Masjid/data=!4m7!3m6!1s0x399acb997689c039:0x92285f189d8f38da!8m2!3d25.4567512!4d81.8309577!16s%2Fg%2F11fl91w8wj!19sChIJOcCJdpnLmjkR2jiPnRhfKJI?authuser=0&hl=en&rclk=1,"25.4567512,81.8309577"
Daudi masjid (Sunni masjid),Mosque,"CRQJ+R37 Daudi masjid (Sunni masjid), Nakhas Kohna, Miurabad, Prayagraj, Uttar Pradesh 211003","Nakhas Kohna, Miurabad",CRQJ+R37,Prayagraj,211003,Uttar Pradesh,IN,https://www.google.com/maps/place/Daudi+masjid+%28Sunni+masjid%29/data=!4m7!3m6!1s0x399acb960d98e411:0x41b1225f819fd0d3!8m2!3d25.439711!4d81.830112!16s%2Fg%2F11ryhn4t_f!19sChIJEeSYDZbLmjkR09CfgV8isUE?authuser=0&hl=en&rclk=1,"25.439711,81.830112"
Madina Masjid,Mosque,"Madina Masjid, next to hotel ashoka, Kamla Nehru Rd Miurabad 211003, Johnston Ganj, Mohatsim Ganj, Prayagraj, Uttar Pradesh 211003","Johnston Ganj, Mohatsim Ganj","next to hotel ashoka, Kamla Nehru Rd Miurabad 211003",Prayagraj,211003,Uttar Pradesh,IN,https://www.google.com/maps/place/Madina+Masjid/data=!4m7!3m6!1s0x399acacef38a4eb3:0x4f1e0eba9317a00e!8m2!3d25.4433742!4d81.8364484!16s%2Fg%2F11f1223cng!19sChIJs06K887KmjkRDqAXk7oOHk8?authuser=0&hl=en&rclk=1,"25.443374199999997,81.8364484"
Masjid Abu Bakar,Mosque,"FP6V+96X Masjid Abu Bakar, Unnamed Road, Prayagraj, Uttar Pradesh 211012",,"FP6V+96X, Unnamed Road",Prayagraj,211012,Uttar Pradesh,IN,https://www.google.com/maps/place/Masjid+Abu+Bakar/data=!4m7!3m6!1s0x399acd403db505bf:0xf1ef5c537b6232d0!8m2!3d25.4609959!4d81.7431025!16s%2Fg%2F11fr6vsxqm!19sChIJvwW1PUDNmjkR0DJie1Nc7_E?authuser=0&hl=en&rclk=1,"25.4609959,81.74310249999999"
Masjid,Mosque,"CRJ6+6R9 Masjid, Kala Danda, Prayagraj, Daiwghat, Uttar Pradesh 211016",Kala Danda,CRJ6+6R9,"Prayagraj, Daiwghat",211016,Uttar Pradesh,IN,https://www.google.com/maps/place/Masjid/data=!4m7!3m6!1s0x398534d276a23579:0xd1482772efc38909!8m2!3d25.430536!4d81.8120943!16s%2Fg%2F11gf8fw959!19sChIJeTWidtI0hTkRCYnD73InSNE?authuser=0&hl=en&rclk=1,"25.430536,81.8120943"
Colonelganj Masjid,Mosque,"Colonelganj Masjid, 158/189, Colonelganj, Colnel Ganj, George Town, Prayagraj, Uttar Pradesh 211002","Colonelganj, Colnel Ganj, George Town",158/189,Prayagraj,211002,Uttar Pradesh,IN,https://www.google.com/maps/place/Colonelganj+Masjid/data=!4m7!3m6!1s0x399acb6819f0392f:0x9e7d1a822b7912f3!8m2!3d25.4616101!4d81.8582125!16s%2Fg%2F11rtvgg271!19sChIJLznwGWjLmjkR8xJ5K4IafZ4?authuser=0&hl=en&rclk=1,"25.461610099999998,81.8582125"
Masjid Shahzadey Sb,Mosque,"CRH8+FRG Masjid Shahzadey Sb, GTB Nagar, Kareli, Prayagraj, Daiwghat, Uttar Pradesh 211016","GTB Nagar, Kareli",CRH8+FRG,"Prayagraj, Daiwghat",211016,Uttar Pradesh,IN,https://www.google.com/maps/place/Masjid+Shahzadey+Sb/data=!4m7!3m6!1s0x398534d6aaea221d:0x6fbd76987306574!8m2!3d25.4286816!4d81.8170832!16s%2Fg%2F11b7cqr5fz!19sChIJHSLqqtY0hTkRdGUwh2nX-wY?authuser=0&hl=en&rclk=1,"25.428681599999997,81.8170832"
Jama Masjid Allahabad jm` msjd lh bd,Mosque,"CRQM+24V Jama Masjid Allahabad jm` msjd lh bd, Thatheri Bazar, Miurabad, Prayagraj, Uttar Pradesh 211003","Thatheri Bazar, Miurabad",CRQM+24V,Prayagraj,211003,Uttar Pradesh,IN,https://www.google.com/maps/place/Jama+Masjid+Allahabad+%D8%AC%D8%A7%D9%85%D8%B9+%D9%85%D8%B3%D8%AC%D8%AF+%D8%A7%D9%84%DB%81+%D8%A8%D8%A7%D8%AF%E2%80%AD/data=!4m7!3m6!1s0x399acb24b80a9965:0x1d10874a134029d3!8m2!3d25.4376359!4d81.8328348!16s%2Fg%2F11t6nkwxym!19sChIJZZkKuCTLmjkR0ylAE0qHEB0?authuser=0&hl=en&rclk=1,"25.4376359,81.8328348"
Masjid Dayee Haleema,Mosque,"CRJ6+F37 Masjid Dayee Haleema, Bhawapur, Prayagraj, Uttar Pradesh 211016",Bhawapur,CRJ6+F37,Prayagraj,211016,Uttar Pradesh,IN,https://www.google.com/maps/place/Masjid+Dayee+Haleema/data=!4m7!3m6!1s0x398534cd9f783f43:0x9bd9ff6530675f4e!8m2!3d25.4311673!4d81.8101762!16s%2Fg%2F11gd_7xq85!19sChIJQz94n800hTkRTl9nMGX_2Zs?authuser=0&hl=en&rclk=1,"25.4311673,81.8101762"
Masjid Police line,Mosque,"Masjid Police line, Masjid Juma 1:00 pm Police Line, Police Line, Prayagraj, Uttar Pradesh 211002",Police Line,Masjid Juma 1:00 pm Police Line,Prayagraj,211002,Uttar Pradesh,IN,https://www.google.com/maps/place/Masjid+Police+line/data=!4m7!3m6!1s0x399acbcdc15dfc73:0x501a27d35915690a!8m2!3d25.4644289!4d81.8441494!16s%2Fg%2F11h9bf7ry_!19sChIJc_xdwc3LmjkRCmkVWdMnGlA?authuser=0&hl=en&rclk=1,"25.464428899999998,81.84414939999999"
Mausaraiyan Masjid,Mosque,"FRFF+HQ7 Mausaraiyan Masjid, Ashok Nagar Chauraha, Ganga Nagar, Ashok Nagar, Prayagraj, Uttar Pradesh 211001","Ganga Nagar, Ashok Nagar","FRFF+HQ7, Ashok Nagar Chauraha",Prayagraj,211001,Uttar Pradesh,IN,https://www.google.com/maps/place/Mausaraiyan+Masjid/data=!4m7!3m6!1s0x399acafda5730f25:0x6b5d1276713cf438!8m2!3d25.4739004!4d81.8244093!16s%2Fg%2F11fxxrksw2!19sChIJJQ9zpf3KmjkROPQ8cXYSXWs?authuser=0&hl=en&rclk=1,"25.473900399999998,81.8244093"
Masjid,Mosque,"CPWQ+7FW Masjid, Near Bamrauli Station, Bamrauli Airport Area, Bamrauli, Prayagraj, Uttar Pradesh 211011","Bamrauli Airport Area, Bamrauli","CPWQ+7FW, Near Bamrauli Station",Prayagraj,211011,Uttar Pradesh,IN,https://www.google.com/maps/place/Masjid/data=!4m7!3m6!1s0x399accd911ff209f:0x51f29b7b01fc04d8!8m2!3d25.445745!4d81.738693!16s%2Fg%2F11c3k56b7b!19sChIJnyD_EdnMmjkR2AT8AXub8lE?authuser=0&hl=en&rclk=1,"25.445745,81.738693"
Masjid,Mosque,"Masjid, 2/C, Dwarika Puri, Old Katra, Prayagraj, Uttar Pradesh 211002","Dwarika Puri, Old Katra",2/C,Prayagraj,211002,Uttar Pradesh,IN,https://www.google.com/maps/place/Masjid/data=!4m7!3m6!1s0x399acbf68d62a323:0x6557ee5fd329c855!8m2!3d25.4696031!4d81.8501056!16s%2Fg%2F11h008lshj!19sChIJI6NijfbLmjkRVcgp01_uV2U?authuser=0&hl=en&rclk=1,"25.4696031,81.85010559999999"
Masjid PHQ,Mosque,"FR5H+CQQ Masjid PHQ, Canton, Dhoomanganj, Prayagraj, Uttar Pradesh 211001","Canton, Dhoomanganj",FR5H+CQQ,Prayagraj,211001,Uttar Pradesh,IN,https://www.google.com/maps/place/Masjid+PHQ/data=!4m7!3m6!1s0x399acb56f4cc70fb:0x2f65369fc6f25d31!8m2!3d25.4585828!4d81.8294958!16s%2Fg%2F11hzw5ss0q!19sChIJ-3DM9FbLmjkRMV3yxp82ZS8?authuser=0&hl=en&rclk=1,"25.4585828,81.82949579999999"
Tariq Masjid,Mosque,"CRJ2+G6W Tariq Masjid, Kasari Masari, 60 Feet Rd, Kareli, Prayagraj, Uttar Pradesh 211016","J K Nagar, Kareli","CRJ2+G6W, Kasari Masari, 60 Feet Rd",Prayagraj,211016,Uttar Pradesh,IN,https://www.google.com/maps/place/Tariq+Masjid/data=!4m7!3m6!1s0x398535e652b401c9:0xe01e51f66f6014ed!8m2!3d25.4313684!4d81.8005839!16s%2Fg%2F11tdgnjgy_!19sChIJyQG0UuY1hTkR7RRgb_ZRHuA?authuser=0&hl=en&rclk=1,"25.4313684,81.80058389999999"
Nai masjid,Mosque,"Nai masjid, 176/1, Naini, Prayagraj, Uttar Pradesh 211008",Naini,176/1,Prayagraj,211008,Uttar Pradesh,IN,https://www.google.com/maps/place/Nai+masjid/data=!4m7!3m6!1s0x39854b99894d54e9:0xef66b9827450f790!8m2!3d25.4007339!4d81.86654!16s%2Fg%2F11fkttr1qg!19sChIJ6VRNiZlLhTkRkPdQdIK5Zu8?authuser=0&hl=en&rclk=1,"25.4007339,81.86654"
Raza Masjid,Mosque,"FP6C+RJH Raza Masjid, Prayagraj, Uttar Pradesh 211012",,FP6C+RJH,Prayagraj,,Uttar Pradesh,IN,https://www.google.com/maps/place/Raza+Masjid/data=!4m7!3m6!1s0x399acd42f0d91bd3:0xcbfa939321340427!8m2!3d25.4620732!4d81.7216147!16s%2Fg%2F11h6m6t9nm!19sChIJ0xvZ8ELNmjkRJwQ0IZOT-ss?authuser=0&hl=en&rclk=1,"25.4620732,81.72161469999999"
C Block Masjid,Mosque,"C Block Masjid, C-96, GTB Nagar, Kareli, Prayagraj, Uttar Pradesh 211016","GTB Nagar, Kareli",C-96,Prayagraj,211016,Uttar Pradesh,IN,https://www.google.com/maps/place/C+Block+Masjid/data=!4m7!3m6!1s0x39853532ccbccef1:0xc58e985ac71579b6!8m2!3d25.4294383!4d81.8215457!16s%2Fg%2F11r8c12sbc!19sChIJ8c68zDI1hTkRtnkVx1qYjsU?authuser=0&hl=en&rclk=1,"25.429438299999997,81.8215457"
Husaini masjid husainii msjid,Mosque,"Husaini masjid husainii msjid, 34A, Mundera Bazar, Ghayasuddinpur, Prayagraj, Uttar Pradesh 211001","Mundera Bazar, Ghayasuddinpur",34A,Prayagraj,211001,Uttar Pradesh,IN,https://www.google.com/maps/place/Husaini+masjid+%E0%A4%B9%E0%A5%81%E0%A4%B8%E0%A5%88%E0%A4%A8%E0%A5%80+%E0%A4%AE%E0%A4%B8%E0%A5%8D%E0%A4%9C%E0%A4%BF%E0%A4%A6/data=!4m7!3m6!1s0x399acd22da203e89:0x6211a2fc287840ae!8m2!3d25.4521478!4d81.7627594!16s%2Fg%2F11qbt801s6!19sChIJiT4g2iLNmjkRrkB4KPyiEWI?authuser=0&hl=en&rclk=1,"25.4521478,81.7627594"
Shekh Abdullah masjid,Mosque,"FVVG+5F3 Shekh Abdullah masjid, Govindpur, Teliarganj, Prayagraj, Uttar Pradesh 211004","Govindpur, Teliarganj",FVVG+5F3,Prayagraj,211004,Uttar Pradesh,IN,https://www.google.com/maps/place/Shekh+Abdullah+masjid/data=!4m7!3m6!1s0x399ab5050d384359:0x45428f56fd3c9b9f!8m2!3d25.4928141!4d81.876176!16s%2Fg%2F11txn_fyt7!19sChIJWUM4DQW1mjkRn5s8_VaPQkU?authuser=0&hl=en&rclk=1,"25.4928141,81.876176"
Ek Minara Masjid,Mosque,"FVGH+36J Ek Minara Masjid, Om Gayatri Nagar, Teliarganj, Prayagraj, Uttar Pradesh 211002","Om Gayatri Nagar, Teliarganj",FVGH+36J,Prayagraj,,Uttar Pradesh,IN,https://www.google.com/maps/place/Ek+Minara+Masjid/data=!4m7!3m6!1s0x399ab5bb434a063f:0x6421c55ee2f04fa7!8m2!3d25.475211!4d81.8780076!16s%2Fg%2F11scv003kt!19sChIJPwZKQ7u1mjkRp0_w4l7FIWQ?authuser=0&hl=en&rclk=1,"25.475210999999998,81.87800759999999"
Masjid Hashimpur,Mosque,"FV68+JGP Masjid Hashimpur, Bakshi Bandh Rd, Shiv Nagar, New Rest House Railway Colony, Prayagraj, Uttar Pradesh 211002","Shiv Nagar, New Rest House Railway Colony","FV68+JGP, Bakshi Bandh Rd",Prayagraj,211002,Uttar Pradesh,IN,https://www.google.com/maps/place/Masjid+Hashimpur/data=!4m7!3m6!1s0x399ab5641afc1c25:0x436a7e928dfc4af9!8m2!3d25.4615827!4d81.8663269!16s%2Fg%2F11s63fs7l4!19sChIJJRz8GmS1mjkR-Ur8jZJ-akM?authuser=0&hl=en&rclk=1,"25.461582699999997,81.86632689999999"
Masjid e Khana e Bhag(Sunni),Mosque,"CRXQ+589 Masjid e Khana e Bhag(Sunni), Civil Lines Bus Station (UPSRCTC, Madhopur, Prayagraj, Uttar Pradesh 211001",Madhopur,"CRXQ+589, Civil Lines Bus Station (UPSRCTC",Prayagraj,211001,Uttar Pradesh,IN,https://www.google.com/maps/place/Masjid+e+Khana+e+Bhag%28Sunni%29/data=!4m7!3m6!1s0x399acb90818e1a57:0x51131b7fa6c51d24!8m2!3d25.447904!4d81.8383525!16s%2Fg%2F11tnmfdymk!19sChIJVxqOgZDLmjkRJB3Fpn8bE1E?authuser=0&hl=en&rclk=1,"25.447903999999998,81.8383525"
Badi Masjid Shahjung,Mosque,"43, Badi Masjid Shahjung, 51, Leader Rd, Miurabad, Prayagraj, Uttar Pradesh 211003",Miurabad,"43, 51, Leader Rd",Prayagraj,211003,Uttar Pradesh,IN,https://www.google.com/maps/place/Badi+Masjid+Shahjung/data=!4m7!3m6!1s0x399acbe4b9afbfef:0x6b1b446945d9a31!8m2!3d25.4426885!4d81.8324572!16s%2Fg%2F11r_fjh921!19sChIJ77-vueTLmjkRMZpdlEa0sQY?authuser=0&hl=en&rclk=1,"25.4426885,81.8324572"
Masjid,Mosque,"Masjid, B-1079, Kareli, Prayagraj, Uttar Pradesh 211016",Kareli,B-1079,Prayagraj,211016,Uttar Pradesh,IN,https://www.google.com/maps/place/Masjid/data=!4m7!3m6!1s0x3985352d4364ead7:0xdf2733a8bc0ed0e6!8m2!3d25.4251293!4d81.8139413!16s%2Fg%2F11h5qpn2sp!19sChIJ1-pkQy01hTkR5tAOvKgzJ98?authuser=0&hl=en&rclk=1,"25.4251293,81.8139413"
Masjid-e-ibaad ullah,Mosque,"CRQG+CM7 Masjid-e-ibaad ullah, Roshan Bagh, Prayagraj, Uttar Pradesh 211003",Roshan Bagh,CRQG+CM7,Prayagraj,211003,Uttar Pradesh,IN,https://www.google.com/maps/place/Masjid-e-ibaad+ullah/data=!4m7!3m6!1s0x399acbc39f80d2c7:0x97d9887ed60ef81d!8m2!3d25.4385301!4d81.8266596!16s%2Fg%2F11lgjp4p1c!19sChIJx9KAn8PLmjkRHfgO1n6I2Zc?authuser=0&hl=en&rclk=1,"25.438530099999998,81.8266596"
JUMMA MASJID ALLAHABAD,Mosque,"CG9J+CF JUMMA MASJID ALLAHABAD, JUMMA MASJID, Himmat Ganj, Kydganj, Prayagraj, Uttar Pradesh 211003","Himmat Ganj, Kydganj",CG9J+CF JUMMA MASJID,Prayagraj,,Uttar Pradesh,IN,https://www.google.com/maps/place/JUMMA+MASJID+ALLAHABAD/data=!4m7!3m6!1s0x3985351a9bc9d109:0x2055601f5cb2c4df!8m2!3d25.4358011!4d81.846311!16s%2Fg%2F11t40tbkzp!19sChIJCdHJmxo1hTkR38SyXB9gVSA?authuser=0&hl=en&rclk=1,"25.4358011,81.846311"
Masjid-e-Balan,Mosque,"Masjid-e-Balan, 28b, Chaitham Lines, New Rest House Railway Colony, Prayagraj, Uttar Pradesh 211002",New Rest House Railway Colony,"28b, Chaitham Lines",Prayagraj,211002,Uttar Pradesh,IN,https://www.google.com/maps/place/Masjid-e-Balan/data=!4m7!3m6!1s0x399ab54b42b8c88f:0xb667e05c54158ed0!8m2!3d25.4722778!4d81.8728906!16s%2Fg%2F11vkhc8_34!19sChIJj8i4Qku1mjkR0I4VVFzgZ7Y?authuser=0&hl=en&rclk=1,"25.4722778,81.87289059999999"
Purani Masjid,Mosque,"Purani Masjid, 10B/8, Mahewa, West (Karchana, Naini, Marauka Uparhar, Uttar Pradesh 211008","Mahewa, West (Karchana, Naini",10B/8,Marauka Uparhar,211008,Uttar Pradesh,IN,https://www.google.com/maps/place/Purani+Masjid/data=!4m7!3m6!1s0x3985352816ba6bf9:0x1e345cd966e8b3c3!8m2!3d25.4011607!4d81.8361795!16s%2Fg%2F11r8fnpdzs!19sChIJ-Wu6Fig1hTkRw7PoZtlcNB4?authuser=0&hl=en&rclk=1,"25.4011607,81.8361795"
Masjid,Mosque,"Masjid, 63/13C/1, Om Gayatri Nagar, Teliarganj, Prayagraj, Uttar Pradesh 211004","Om Gayatri Nagar, Teliarganj",63/13C/1,Prayagraj,211004,Uttar Pradesh,IN,https://www.google.com/maps/place/Masjid/data=!4m7!3m6!1s0x399ab5613cc70cef:0x3c979ec5779d66c!8m2!3d25.4785513!4d81.8723901!16s%2Fg%2F11vkklhnq0!19sChIJ7wzHPGG1mjkRbNZ5V-x5yQM?authuser=0&hl=en&rclk=1,"25.4785513,81.87239009999999"
Sunni Qadriya Nayi Masjid,Mosque,"Sunni Qadriya Nayi Masjid, near Village development society, Rajapur, Prayagraj, Uttar Pradesh 211002",Rajapur,near Village development society,Prayagraj,211002,Uttar Pradesh,IN,https://www.google.com/maps/place/Sunni+Qadriya+Nayi+Masjid/data=!4m7!3m6!1s0x399acbd93b1f6b6b:0x79be36b128dae33b!8m2!3d25.4699038!4d81.8381905!16s%2Fg%2F11tgd633r9!19sChIJa2sfO9nLmjkRO-PaKLE2vnk?authuser=0&hl=en&rclk=1,"25.469903799999997,81.8381905"
Sunni masjid,Mosque,"CRVG+P5J Sunni masjid, Civil Lines, Prayagraj, Uttar Pradesh 211001",Civil Lines,CRVG+P5J,Prayagraj,211001,Uttar Pradesh,IN,https://www.google.com/maps/place/Sunni+masjid/data=!4m7!3m6!1s0x399acbaac1cef7a9:0x7f207a37fe9bfd02!8m2!3d25.4443383!4d81.8253883!16s%2Fg%2F11srs4jgmb!19sChIJqffOwarLmjkRAv2b_jd6IH8?authuser=0&hl=en&rclk=1,"25.4443383,81.8253883"
Masjid-E-Sainik,Mosque,"Masjid-E-Sainik, 327/282Old, Bairhana, MadhwapurPrayagraj, Prayagraj, Uttar Pradesh 211003",Bairhana,327/282Old,"MadhwapurPrayagraj, Prayagraj",211003,Uttar Pradesh,IN,https://www.google.com/maps/place/Masjid-E-Sainik/data=!4m7!3m6!1s0x399acb798f9697b1:0x5d4a309970e0841f!8m2!3d25.4405701!4d81.8559203!16s%2Fg%2F11vkh7x7tn!19sChIJsZeWj3nLmjkRH4TgcJkwSl0?authuser=0&hl=en&rclk=1,"25.4405701,81.8559203"
Madina Masjid,Mosque,"CRH9+97Q Madina Masjid, GTB Nagar, Kareli, Prayagraj, Daiwghat, Uttar Pradesh 211016","GTB Nagar, Kareli",CRH9+97Q,"Prayagraj, Daiwghat",211016,Uttar Pradesh,IN,https://www.google.com/maps/place/Madina+Masjid/data=!4m7!3m6!1s0x398535da7c0151e9:0x611052401d219743!8m2!3d25.4284691!4d81.8182485!16s%2Fg%2F11vd8pqt4m!19sChIJ6VEBfNo1hTkRQ5chHUBSEGE?authuser=0&hl=en&rclk=1,"25.428469099999997,81.8182485"
Masjid-E-Ahle Sunnat Wa Jama'at,Mosque,"Masjid-E-Ahle Sunnat Wa Jama'at, Chak Niratul, Rajrooppur, Prayagraj, Uttar Pradesh 211016","Chak Niratul, Rajrooppur",,Prayagraj,211016,Uttar Pradesh,IN,https://www.google.com/maps/place/Masjid-E-Ahle+Sunnat+Wa+Jama%27at/data=!4m7!3m6!1s0x399acbe5079e8751:0x649fa32434b31a19!8m2!3d25.4390837!4d81.8045152!16s%2Fg%2F11sct7cmvm!19sChIJUYeeB-XLmjkRGRqzNCSjn2Q?authuser=0&hl=en&rclk=1,"25.439083699999998,81.8045152"
