name,main_category,address,address_ward,address_street,address_city,address_postal_code,address_state,address_country_code,link,coordinates
Jamia Masjid Bhatkala,Mosque,"Jamia Masjid Bhatkala, Jamia masjid, Jamia St, Soosgadi, Bhatkal, Karnataka 581320",Soosgadi,"Jamia masjid, Jamia St",Bhatkal,581320,Karnataka,IN,https://www.google.com/maps/place/Jamia+Masjid+Bhatkala/data=!4m7!3m6!1s0x3bbc42da3f8dba79:0x3166ab9b564caa4f!8m2!3d13.9832207!4d74.5537192!16s%2Fg%2F1td7lrm0!19sChIJebqNP9pCvDsRT6pMVpurZjE?authuser=0&hl=en&rclk=1,"13.983220699999999,74.5537192"
Milliya Masjid,Mosque,"2G2Q+JFX Milliya Masjid, Nawayath Colony, Bhatkal, Karnataka 581320",Nawayath Colony,2G2Q+JFX,Bhatkal,581320,Karnataka,IN,https://www.google.com/maps/place/Milliya+Masjid/data=!4m7!3m6!1s0x3bbc431b13881451:0xe64ea659861feabd!8m2!3d14.0016153!4d74.538725!16s%2Fg%2F1hm1s9twm!19sChIJURSIExtDvDsRveofhlmmTuY?authuser=0&hl=en&rclk=1,"14.0016153,74.538725"
Noor Juma Masjid,Mosque,"Noor Juma Masjid, Bus Stand, NH 66, Edapally - Panvel Highway, near KSRTC Ticket Booking Centre, Belalkanda, Bhatkal, Karnataka 581320",Belalkanda,"Bus Stand, NH 66, Edapally - Panvel Highway, near KSRTC Ticket Booking Centre",Bhatkal,581320,Karnataka,IN,https://www.google.com/maps/place/Noor+Juma+Masjid/data=!4m7!3m6!1s0x3bbc42e0940f7813:0xf995b6487ca5c854!8m2!3d13.9938711!4d74.5503902!16s%2Fg%2F11b60s232w!19sChIJE3gPlOBCvDsRVMilfEi2lfk?authuser=0&hl=en&rclk=1,"13.9938711,74.5503902"
Huda Masjid,Mosque,"XGXR+Q59 Huda Masjid, Azad Nagar, Soosgadi, Bhatkal, Karnataka 581320","Azad Nagar, Soosgadi",XGXR+Q59,Bhatkal,581320,Karnataka,IN,https://www.google.com/maps/place/Huda+Masjid/data=!4m7!3m6!1s0x3bbc431c758a2117:0x12380a7f94041c2e!8m2!3d13.9994156!4d74.5404761!16s%2Fg%2F11bxg2tzls!19sChIJFyGKdRxDvDsRLhwElH8KOBI?authuser=0&hl=en&rclk=1,"13.999415599999999,74.54047609999999"
Khalifa Jamia Masjid,Mosque,"XHM2+6PV Khalifa Jamia Masjid, Soosgadi, Bhatkal, Karnataka 581320",Soosgadi,XHM2+6PV,Bhatkal,581320,Karnataka,IN,https://www.google.com/maps/place/Khalifa+Jamia+Masjid/data=!4m7!3m6!1s0x3bbc42d98c9c7015:0x4ed2f8f882128a59!8m2!3d13.9831097!4d74.5518004!16s%2Fg%2F11bvt473my!19sChIJFXCcjNlCvDsRWYoSgvj40k4?authuser=0&hl=en&rclk=1,"13.9831097,74.55180039999999"
Masjid-E-Tooba,Mosque,"XGWR+M3V Masjid-E-Tooba, Tuba Street, Bhatkal, 2nd Cross Rd, Azad Nagar, Kasthuriba Nagar, Bengaluru, Karnataka","Azad Nagar, Kasthuriba Nagar, Devinagar","XGWR+M3V, Tuba Street, Bhatkal, 2nd Cross Rd","Bengaluru, Bhatkal",,Karnataka,IN,https://www.google.com/maps/place/Masjid-E-Tooba/data=!4m7!3m6!1s0x3bbc43195236dea3:0x326b2bb5d0fd3a20!8m2!3d13.9967495!4d74.5401818!16s%2Fg%2F1tfxf3sw!19sChIJo942UhlDvDsRIDr90LUrazI?authuser=0&hl=en&rclk=1,"13.9967495,74.5401818"
Masjid Maryam Ali,Mosque,"2G4Q+WR5 Masjid Maryam Ali, Bhatkal, Karnataka 581320",,2G4Q+WR5,Bhatkal,581320,Karnataka,IN,https://www.google.com/maps/place/Masjid+Maryam+Ali/data=!4m7!3m6!1s0x3bbc43046dd0859d:0x7804736e4c7c4077!8m2!3d14.007252!4d74.539597!16s%2Fg%2F11_rfc44g!19sChIJnYXQbQRDvDsRd0B8TG5zBHg?authuser=0&hl=en&rclk=1,"14.007252,74.539597"
Aysha Masjid,Mosque,"2G3P+5C2 Aysha Masjid, Devinagar, Bhatkal, Karnataka 581320",Devinagar,2G3P+5C2,Bhatkal,581320,Karnataka,IN,https://www.google.com/maps/place/Aysha+Masjid/data=!4m7!3m6!1s0x3bbc431ab57b84d7:0x68ff68054b30c76!8m2!3d14.0028779!4d74.5360277!16s%2Fg%2F11g8fzdt7x!19sChIJ14R7tRpDvDsRdgyzVID2jwY?authuser=0&hl=en&rclk=1,"14.0028779,74.53602769999999"
Usmania Masjid,Mosque,"2G3P+XJG Usmania Masjid, Usmania Colony, Nawayath Colony, Bhatkal, Karnataka 581320","Usmania Colony, Nawayath Colony",2G3P+XJG,Bhatkal,581320,Karnataka,IN,https://www.google.com/maps/place/Usmania+Masjid/data=!4m7!3m6!1s0x3bbc4305150aae61:0x97b18d191858374b!8m2!3d14.0049251!4d74.5365742!16s%2Fg%2F11ck4784yf!19sChIJYa4KFQVDvDsRSzdYGBmNsZc?authuser=0&hl=en&rclk=1,"14.0049251,74.53657419999999"
Masjid Imam Bukhari,Mosque,"XGXV+3Q4 Masjid Imam Bukhari, Devinagar, Bhatkal, Rangikatte, Karnataka 581320",Devinagar,XGXV+3Q4,"Bhatkal, Rangikatte",581320,Karnataka,IN,https://www.google.com/maps/place/Masjid+Imam+Bukhari/data=!4m7!3m6!1s0x3bbc431e714e1507:0xc6d7ea353604695d!8m2!3d13.997641!4d74.5444465!16s%2Fg%2F1hjgwplmg!19sChIJBxVOcR5DvDsRXWkENjXq18Y?authuser=0&hl=en&rclk=1,"13.997641,74.54444649999999"
Mohiddin Masjid,Mosque,"2G4M+C3J Mohiddin Masjid, Moosa Nagar, Bendekant, Bhatkal, Karnataka 581320","Moosa Nagar, Bendekant",2G4M+C3J,Bhatkal,581320,Karnataka,IN,https://www.google.com/maps/place/Mohiddin+Masjid/data=!4m7!3m6!1s0x3bbc430f0f30a563:0xaf131fd304f7812a!8m2!3d14.0060828!4d74.5326464!16s%2Fg%2F11cknjtqml!19sChIJY6UwDw9DvDsRKoH3BNMfE68?authuser=0&hl=en&rclk=1,"14.0060828,74.53264639999999"
Shaazli Masjid Tablighi Markaz,Mosque,"XHJ4+89W Shaazli Masjid Tablighi Markaz, Soosgadi, Bhatkal, Karnataka 581320",Soosgadi,XHJ4+89W,Bhatkal,581320,Karnataka,IN,https://www.google.com/maps/place/Shaazli+Masjid+Tablighi+Markaz/data=!4m7!3m6!1s0x3bbc42d07b3e3009:0xca84824ba9ff7a31!8m2!3d13.9808597!4d74.5559474!16s%2Fg%2F11b6gn_rhp!19sChIJCTA-e9BCvDsRMXr_qUuChMo?authuser=0&hl=en&rclk=1,"13.9808597,74.5559474"
Masjid-e-Abdul Aziz,Mosque,"Masjid-e-Abdul Aziz, Bunder road 2nd cross, Gokul street, Kokti Nagar, Bhatkal, Karnataka 581320",Kokti Nagar,"Bunder road 2nd cross, Gokul street",Bhatkal,581320,Karnataka,IN,https://www.google.com/maps/place/Masjid-e-Abdul+Aziz/data=!4m7!3m6!1s0x3bbc431f35adc985:0xbc6ede721e5dd74c!8m2!3d13.9935113!4d74.54062!16s%2Fg%2F11b_03flcf!19sChIJhcmtNR9DvDsRTNddHnLebrw?authuser=0&hl=en&rclk=1,"13.9935113,74.54061999999999"
Masjid Khalid Bin Walid [Gol Masjid],Mosque,"2G2V+3W4 Masjid Khalid Bin Walid [Gol Masjid], HuruliSaal, Kargedde, Bhatkal, Rangikatte, Karnataka 581320",Kargedde,"2G2V+3W4, HuruliSaal","Bhatkal, Rangikatte",581320,Karnataka,IN,https://www.google.com/maps/place/Masjid+Khalid+Bin+Walid+%5BGol+Masjid%5D/data=!4m7!3m6!1s0x3bbc431da2b31c61:0x8cf839950ba06472!8m2!3d14.0001307!4d74.5448204!16s%2Fg%2F11bych7z7h!19sChIJYRyzoh1DvDsRcmSgC5U5-Iw?authuser=0&hl=en&rclk=1,"14.0001307,74.54482039999999"
Masjid Muniri,Mosque,"Masjid Muniri, 5th Cross, Haneef Abad, Heble, Bhatkal, Karnataka 581320","Madeena Colony, Jamia Abad, Heble","5th Cross, Haneef Abad",Bhatkal,581320,Karnataka,IN,https://www.google.com/maps/place/Masjid+Muniri/data=!4m7!3m6!1s0x3bbc430bc9ac3f8b:0xcc95d4fa24f8aa87!8m2!3d14.0105005!4d74.5274403!16s%2Fg%2F11fx95kckt!19sChIJiz-syQtDvDsRh6r4JPrUlcw?authuser=0&hl=en&rclk=1,"14.0105005,74.5274403"
Badriya Juma Masjid,Mosque,"2G3H+F6M Badriya Juma Masjid, Badriya Colony, Jali, Moosa Nagar, Bendekant, Bhatkal, Karnataka 581320","Badriya Colony, Jali, Moosa Nagar, Bendekant",2G3H+F6M,Bhatkal,581320,Karnataka,IN,https://www.google.com/maps/place/Badriya+Juma+Masjid/data=!4m7!3m6!1s0x3bbc430d90159acf:0x4fd36a1aafa2f04f!8m2!3d14.0037224!4d74.5280369!16s%2Fg%2F11c5g8p0vg!19sChIJz5oVkA1DvDsRT_Cirxpq008?authuser=0&hl=en&rclk=1,"14.0037224,74.5280369"
Makhdoomiya Juma Masjid,Mosque,"Makhdoomiya Juma Masjid, Juma Masjid, Juma Masjid Rd, Magdoom Colony, Khizar Street, Bhatkal, Karnataka 581320","Magdoom Colony, Khizar Street","Juma Masjid, Juma Masjid Rd",Bhatkal,581320,Karnataka,IN,https://www.google.com/maps/place/Makhdoomiya+Juma+Masjid/data=!4m7!3m6!1s0x3bbc4320c4a1fb45:0x4a46e47a763303fe!8m2!3d13.9877667!4d74.5442211!16s%2Fg%2F11c528g997!19sChIJRfuhxCBDvDsR_gMzdnrkRko?authuser=0&hl=en&rclk=1,"13.9877667,74.5442211"
Masjid Al-Iman,Mosque,"XGXX+V4C Masjid Al-Iman, Kargedde, Rangikatte, Karnataka 581320",Kargedde,XGXX+V4C,Rangikatte,581320,Karnataka,IN,https://www.google.com/maps/place/Masjid+Al-Iman/data=!4m7!3m6!1s0x3bbc42e26aa59777:0x35dd1564b945a035!8m2!3d13.9996992!4d74.547762!16s%2Fg%2F11ckr_g99s!19sChIJd5elauJCvDsRNaBFuWQV3TU?authuser=0&hl=en&rclk=1,"13.9996992,74.54776199999999"
Bilal Juma Masjid,Mosque,"XHG8+J6F Bilal Juma Masjid, Purvarga, Bhatkal, Karnataka 581320",Purvarga,XHG8+J6F,Bhatkal,581320,Karnataka,IN,https://www.google.com/maps/place/Bilal+Juma+Masjid/data=!4m7!3m6!1s0x3bbc42cbde41bbdb:0x161e549e4b159fda!8m2!3d13.9765674!4d74.5655558!16s%2Fg%2F1hf3jc4m8!19sChIJ27tB3stCvDsR2p8VS55UHhY?authuser=0&hl=en&rclk=1,"13.976567399999999,74.5655558"
Muzammil Masjid,Mosque,"2G4Q+59J Muzammil Masjid, 1st Cross Rd, Kargedde, Bhatkal, Karnataka 581320",Kargedde,"2G4Q+59J, 1st Cross Rd",Bhatkal,581320,Karnataka,IN,https://www.google.com/maps/place/Muzammil+Masjid/data=!4m7!3m6!1s0x3bbc4304f01c3f7b:0xb5c208018cef05f!8m2!3d14.0054568!4d74.5384055!16s%2Fg%2F11d_vs7bvb!19sChIJez8c8ARDvDsRX_DOGIAgXAs?authuser=0&hl=en&rclk=1,"14.0054568,74.5384055"
Masjid Umar bin Khattab,Mosque,"XHP3+F9M Masjid Umar bin Khattab, Soosgadi, Bhatkal, Karnataka 581320",Soosgadi,XHP3+F9M,Bhatkal,581320,Karnataka,IN,https://www.google.com/maps/place/Masjid+Umar+bin+Khattab/data=!4m7!3m6!1s0x3bbc42dbeb87875b:0xd521a30df613c428!8m2!3d13.9862071!4d74.5534303!16s%2Fg%2F11dyzlf104!19sChIJW4eH69tCvDsRKMQT9g2jIdU?authuser=0&hl=en&rclk=1,"13.9862071,74.5534303"
Masjid Al Hilal Sherif,Mosque,"XGMV+X7H Masjid Al Hilal Sherif, Magdoom Colony, Khizar Street, Bhatkal, Karnataka 581320","Magdoom Colony, Khizar Street",XGMV+X7H,Bhatkal,581320,Karnataka,IN,https://www.google.com/maps/place/Masjid+Al+Hilal+Sherif/data=!4m7!3m6!1s0x3bbc4326e1ec085b:0x60447e55cae73fae!8m2!3d13.9849254!4d74.5432386!16s%2Fg%2F11cmcdw1zt!19sChIJWwjs4SZDvDsRrj_nylV-RGA?authuser=0&hl=en&rclk=1,"13.9849254,74.5432386"
Masjid-E-Touheed,Mosque,"XHV5+QJ3 Masjid-E-Touheed, Belalkanda, Bhatkal, Karnataka 581320",Belalkanda,XHV5+QJ3,Bhatkal,581320,Karnataka,IN,https://www.google.com/maps/place/Masjid-E-Touheed/data=!4m7!3m6!1s0x3bbc42e811475b67:0x12a00473924534cb!8m2!3d13.9943876!4d74.5590549!16s%2Fg%2F11f2wly7gq!19sChIJZ1tHEehCvDsRyzRFknMEoBI?authuser=0&hl=en&rclk=1,"13.9943876,74.55905489999999"
Masjid Hind Salim,Mosque,"XGWW+6M9 Masjid Hind Salim, Bunder Rd 1st Cross, Devinagar, Bhatkal, Karnataka 581320",Devinagar,"XGWW+6M9, Bunder Rd 1st Cross",Bhatkal,581320,Karnataka,IN,https://www.google.com/maps/place/Masjid+Hind+Salim/data=!4m7!3m6!1s0x3bbc431e32179525:0x6f9731e71a322892!8m2!3d13.9955482!4d74.5467455!16s%2Fg%2F11b_0dn7qq!19sChIJJZUXMh5DvDsRkigyGucxl28?authuser=0&hl=en&rclk=1,"13.9955482,74.5467455"
Hazrath Ismail Sunni Jamia Masjid,Mosque,"XHW6+299 Hazrath Ismail Sunni Jamia Masjid, gulmi Rd, Belalkanda, Bhatkal, Karnataka 581354",Belalkanda,"XHW6+299, gulmi Rd",Bhatkal,581354,Karnataka,IN,https://www.google.com/maps/place/Hazrath+Ismail+Sunni+Jamia+Masjid/data=!4m7!3m6!1s0x3bbc42e84dfc8ca3:0x795720563172df62!8m2!3d13.9950481!4d74.5609863!16s%2Fg%2F11fzf8hzfq!19sChIJo4z8TehCvDsRYt9yMVYgV3k?authuser=0&hl=en&rclk=1,"13.9950481,74.5609863"
"Masjid Quba, Heble",Mosque,"2G5F+356 Masjid Quba, Heble, Firdous Nagar, Jali, Moosa Nagar, Devinagar, Bhatkal, Karnataka 581320","Firdous Nagar, Jali, Moosa Nagar, Devinagar",2G5F+356,Bhatkal,581320,Karnataka,IN,"https://www.google.com/maps/place/Masjid+Quba,+Heble/data=!4m7!3m6!1s0x3bbc430cab334b21:0xa34d96f6b48b9be4!8m2!3d14.0076599!4d74.5228919!16s%2Fg%2F11cs1l2lhs!19sChIJIUszqwxDvDsR5JuLtPaWTaM?authuser=0&hl=en&rclk=1","14.0076599,74.52289189999999"
Masjid Alwa,Mosque,"XHM3+3X3 Masjid Alwa, Soosgadi, Bhatkal, Karnataka 581320",Soosgadi,XHM3+3X3,Bhatkal,581320,Karnataka,IN,https://www.google.com/maps/place/Masjid+Alwa/data=!4m7!3m6!1s0x3bbc42da62eca327:0xe90ce98aa4ec65be!8m2!3d13.9826411!4d74.5549368!16s%2Fg%2F1tdckds2!19sChIJJ6PsYtpCvDsRvmXspIrpDOk?authuser=0&hl=en&rclk=1,"13.982641099999999,74.5549368"
Al-Attar Abdul Raheem Masjid,Mosque,"2G77+C8G Al-Attar Abdul Raheem Masjid, Post Heble, Athar Mohalla, Hertar, Bhatkal, Karnataka 581320","Athar Mohalla, Hertar","2G77+C8G, Post Heble",Bhatkal,581320,Karnataka,IN,https://www.google.com/maps/place/Al-Attar+Abdul+Raheem+Masjid/data=!4m7!3m6!1s0x3bbc439d6fffffff:0x4f2dab6b77b17b47!8m2!3d14.0135586!4d74.5133387!16s%2Fg%2F11g8f_7cr0!19sChIJ____b51DvDsRR3uxd2urLU8?authuser=0&hl=en&rclk=1,"14.0135586,74.51333869999999"
"Masjid Alfalah, Nastar",Mosque,"Masjid Alfalah, Nastar, Nastar Beach, Mundalli, Bhatkal, Karnataka 581320",Mundalli,Nastar Beach,Bhatkal,581320,Karnataka,IN,"https://www.google.com/maps/place/Masjid+Alfalah,+Nastar/data=!4m7!3m6!1s0x3bbc5cd6acb02f2d:0x4d0af9252a9f3d96!8m2!3d13.9635512!4d74.5405082!16s%2Fg%2F11cs3zdwmp!19sChIJLS-wrNZcvDsRlj2fKiX5Ck0?authuser=0&hl=en&rclk=1","13.9635512,74.54050819999999"
Masjid-e-Gousia,Mosque,"XHH3+R5X Masjid-e-Gousia, Soosgadi, Bhatkal, Karnataka 581320",Soosgadi,XHH3+R5X,Bhatkal,581320,Karnataka,IN,https://www.google.com/maps/place/Masjid-e-Gousia/data=!4m7!3m6!1s0x3bbc42d0c54dcf49:0xb17a09ee326838ea!8m2!3d13.9796103!4d74.5529836!16s%2Fg%2F11dxf0zjjk!19sChIJSc9NxdBCvDsR6jhoMu4JerE?authuser=0&hl=en&rclk=1,"13.9796103,74.55298359999999"
Masjid Abdullah Anwahi,Mosque,"XGRV+95V Masjid Abdullah Anwahi, Bhatkal, Karnataka 581320",,XGRV+95V,Bhatkal,,Karnataka,IN,https://www.google.com/maps/place/Masjid+Abdullah+Anwahi/data=!4m7!3m6!1s0x3bbc43726fa91289:0xa7edb0b2d4d62da4!8m2!3d13.9909882!4d74.5429337!16s%2Fg%2F11h4yd958s!19sChIJiRKpb3JDvDsRpC3W1LKw7ac?authuser=0&hl=en&rclk=1,"13.990988199999999,74.54293369999999"
Masjid Ammar Bin Yasir msjd `mr bn ysr,Mosque,"Masjid Ammar Bin Yasir msjd `mr bn ysr, Heggal, 581320, Venktapura, Bhatkal, Karnataka",Venktapura,"Heggal, 581320",Bhatkal,,Karnataka,IN,https://www.google.com/maps/place/Masjid+Ammar+Bin+Yasir+%D9%85%D8%B3%D8%AC%D8%AF+%D8%B9%D9%85%D8%A7%D8%B1+%D8%A8%D9%86+%D9%8A%D8%A7%D8%B3%D8%B1%E2%80%AD/data=!4m7!3m6!1s0x3bbc4307176e41af:0xeb34100a5e42d52c!8m2!3d14.0125065!4d74.5387998!16s%2Fg%2F11c6slwr86!19sChIJr0FuFwdDvDsRLNVCXgoQNOs?authuser=0&hl=en&rclk=1,"14.012506499999999,74.53879979999999"
Juma Masjid Ahmad Saeed,Mosque,"2G3W+Q9P Juma Masjid Ahmad Saeed, HuruliSaal, Kargedde, Bhatkal, Karnataka 581320",Kargedde,"2G3W+Q9P, HuruliSaal",Bhatkal,581320,Karnataka,IN,https://www.google.com/maps/place/Juma+Masjid+Ahmad+Saeed/data=!4m7!3m6!1s0x3bbc4302a5fe36fd:0xe3181ba23b338d9!8m2!3d14.0044743!4d74.5459448!16s%2Fg%2F11bzyq2xgr!19sChIJ_Tb-pQJDvDsR2TizI7qBMQ4?authuser=0&hl=en&rclk=1,"14.0044743,74.5459448"
Masjid-e-sayyadna hussain,Mosque,"XGMV+57G Masjid-e-sayyadna hussain, Magdoom Colony, Khizar Street, Bhatkal, Karnataka 581320","Magdoom Colony, Khizar Street",XGMV+57G,Bhatkal,581320,Karnataka,IN,https://www.google.com/maps/place/Masjid-e-sayyadna+hussain/data=!4m7!3m6!1s0x3bbc43264cf8681d:0x5582006d6b38ca57!8m2!3d13.9829324!4d74.5431967!16s%2Fg%2F11bxg6qb34!19sChIJHWj4TCZDvDsRV8o4a20AglU?authuser=0&hl=en&rclk=1,"13.9829324,74.5431967"
Juma Masjid AbuZar Ghifari,Mosque,"XHW6+V69 Juma Masjid AbuZar Ghifari, gulmi Rd, Belalkanda, Bhatkal, Karnataka 581354",Belalkanda,"XHW6+V69, gulmi Rd",Bhatkal,581354,Karnataka,IN,https://www.google.com/maps/place/Juma+Masjid+AbuZar+Ghifari/data=!4m7!3m6!1s0x3bbc43af4d4e73a7:0x5df70ab45aa6059c!8m2!3d13.9971659!4d74.5606103!16s%2Fg%2F11g2sf7cpw!19sChIJp3NOTa9DvDsRnAWmWrQK910?authuser=0&hl=en&rclk=1,"13.997165899999999,74.5606103"
Masjid Fathima - Master Colony,Mosque,"2G6F+J96 Masjid Fathima - Master Colony, Jamia Abad, Gandhi Nagar, Bhatkal, Karnataka 581320","Jamia Abad, Gandhi Nagar",2G6F+J96,Bhatkal,581320,Karnataka,IN,https://www.google.com/maps/place/Masjid+Fathima+-+Master+Colony/data=!4m7!3m6!1s0x3bbc430ade32ed13:0x9a6e138d513ebb08!8m2!3d14.011534!4d74.5233905!16s%2Fg%2F11c43ny4b8!19sChIJE-0y3gpDvDsRCLs-UY0Tbpo?authuser=0&hl=en&rclk=1,"14.011534,74.52339049999999"
Makka Masjid,Mosque,"2G7P+V56 Makka Masjid, Bhatkal, Karnataka 581320",,2G7P+V56,Bhatkal,581320,Karnataka,IN,https://www.google.com/maps/place/Makka+Masjid/data=!4m7!3m6!1s0x3bbc43a803584803:0x276e10a4b6bfc0e7!8m2!3d14.0146727!4d74.5353857!16s%2Fg%2F11bt_h6d0s!19sChIJA0hYA6hDvDsR58C_tqQQbic?authuser=0&hl=en&rclk=1,"14.0146727,74.53538569999999"
Taqwa Masjid,Mosque,"XHR2+F8P Taqwa Masjid, Belalkanda, Bhatkal, Karnataka 581320",Belalkanda,XHR2+F8P,Bhatkal,581320,Karnataka,IN,https://www.google.com/maps/place/Taqwa+Masjid/data=!4m7!3m6!1s0x3bbc42de3cff65a5:0xc91ca9427046a928!8m2!3d13.991222!4d74.5508197!16s%2Fg%2F11dyzlltwk!19sChIJpWX_PN5CvDsRKKlGcEKpHMk?authuser=0&hl=en&rclk=1,"13.991221999999999,74.55081969999999"
MAKKA JUMA MASJID,Mosque,"XGXG+42M MAKKA JUMA MASJID, Subhash Nagar, Devinagar, Bhatkal, Karnataka 581320","Subhash Nagar, Devinagar",XGXG+42M,Bhatkal,581320,Karnataka,IN,https://www.google.com/maps/place/MAKKA+JUMA+MASJID/data=!4m7!3m6!1s0x3bbc43b22fdefeb1:0x3ae74cbe57a2504e!8m2!3d13.9978347!4d74.5250614!16s%2Fg%2F11hzxh4f4z!19sChIJsf7eL7JDvDsRTlCiV75M5zo?authuser=0&hl=en&rclk=1,"13.997834699999999,74.5250614"
Masjid-e-Abu Huraira,Mosque,"2G3F+4R8 Masjid-e-Abu Huraira, Moosa Nagar, Bendekant, Bhatkal, Karnataka 581320","Moosa Nagar, Bendekant",2G3F+4R8,Bhatkal,581320,Karnataka,IN,https://www.google.com/maps/place/Masjid-e-Abu+Huraira/data=!4m7!3m6!1s0x3bbc430d66c509a1:0x4e9a4b4d16c8487c!8m2!3d14.0027986!4d74.5245704!16s%2Fg%2F11b8tdvnp5!19sChIJoQnFZg1DvDsRfEjIFk1Lmk4?authuser=0&hl=en&rclk=1,"14.0027986,74.5245704"
Masjid-e-Firdous,Mosque,"2G5G+F8M Masjid-e-Firdous, Firdous Nagar, Moosa Nagar, Devinagar, Bhatkal, Karnataka 581320","Firdous Nagar, Moosa Nagar, Devinagar",2G5G+F8M,Bhatkal,581320,Karnataka,IN,https://www.google.com/maps/place/Masjid-e-Firdous/data=!4m7!3m6!1s0x3bbc430b780c739d:0x4791ae5c82af03b4!8m2!3d14.0087188!4d74.5257967!16s%2Fg%2F11cmhtkpny!19sChIJnXMMeAtDvDsRtAOvglyukUc?authuser=0&hl=en&rclk=1,"14.008718799999999,74.5257967"
Khatijatul Kubra Masjid,Mosque,"XGPR+6MG Khatijatul Kubra Masjid, khtijatul kubra street, magdom colony, Bhatkal, Karnataka 581320",magdom colony,"XGPR+6MG, khtijatul kubra street",Bhatkal,,Karnataka,IN,https://www.google.com/maps/place/Khatijatul+Kubra+Masjid/data=!4m7!3m6!1s0x3bbc435ca91706fd:0x4c8308b68ea221bb!8m2!3d13.9855683!4d74.5417187!16s%2Fg%2F11ghp2qxlk!19sChIJ_QYXqVxDvDsRuyGijrYIg0w?authuser=0&hl=en&rclk=1,"13.985568299999999,74.54171869999999"
Masjid Saeed Bin Zaid,Mosque,"XGWM+W3V Masjid Saeed Bin Zaid, Devinagar, Bhatkal, Karnataka 581320",Devinagar,XGWM+W3V,Bhatkal,581320,Karnataka,IN,https://www.google.com/maps/place/Masjid+Saeed+Bin+Zaid/data=!4m7!3m6!1s0x3bbc4310ccdb6663:0x841bd3eb5b8ebcfe!8m2!3d13.997355!4d74.5326846!16s%2Fg%2F11cs1k1pkc!19sChIJY2bbzBBDvDsR_ryOW-vTG4Q?authuser=0&hl=en&rclk=1,"13.997354999999999,74.5326846"
Masjid Talha Bin Ubaidullah,Mosque,"Masjid Talha Bin Ubaidullah, Heble, Bhatkal, Karnataka 581320",Heble,,Bhatkal,581320,Karnataka,IN,https://www.google.com/maps/place/Masjid+Talha+Bin+Ubaidullah/data=!4m7!3m6!1s0x3bbc4363868ff201:0x11f6ab3223c0bb39!8m2!3d14.0161046!4d74.5266266!16s%2Fg%2F11gjq19rqp!19sChIJAfKPhmNDvDsRObvAIzKr9hE?authuser=0&hl=en&rclk=1,"14.0161046,74.5266266"
"JUMA MASJID, TENGINAGUNDI",Mosque,"2GC3+JF4 JUMA MASJID, TENGINAGUNDI, Tenginagundi, Bhatkal, Karnataka 581320",Tenginagundi,2GC3+JF4,Bhatkal,581320,Karnataka,IN,"https://www.google.com/maps/place/JUMA+MASJID,+TENGINAGUNDI/data=!4m7!3m6!1s0x3bbc43b284794f75:0x145265d0e0b2628e!8m2!3d14.0215198!4d74.5036903!16s%2Fg%2F11gj0w2hhk!19sChIJdU95hLJDvDsRjmKy4NBlUhQ?authuser=0&hl=en&rclk=1","14.0215198,74.5036903"
msjd lrHm@,Mosque,"XGVQ+79H msjd lrHm@, Devinagar, Bhatkal, Karnataka 581320",Devinagar,XGVQ+79H,Bhatkal,581320,Karnataka,IN,https://www.google.com/maps/place/%D9%85%D8%B3%D8%AC%D8%AF+%D8%A7%D9%84%D8%B1%D8%AD%D9%85%D8%A9%E2%80%AD/data=!4m7!3m6!1s0x3bbc431893aeee13:0x94e2d6f498ff9cc2!8m2!3d13.9931985!4d74.5384856!16s%2Fg%2F11gdlxhmsb!19sChIJE-6ukxhDvDsRwpz_mPTW4pQ?authuser=0&hl=en&rclk=1,"13.9931985,74.5384856"
Siddique Masjid,Mosque,"Siddique Masjid, Soosgadi, Bhatkal, Karnataka 581320",Soosgadi,,Bhatkal,581320,Karnataka,IN,https://www.google.com/maps/place/Siddique+Masjid/data=!4m7!3m6!1s0x3bbc4387818381e3:0x32d114b7f42b37d7!8m2!3d13.9906321!4d74.5546509!16s%2Fg%2F11j8_2qh_g!19sChIJ44GDgYdDvDsR1zcr9LcU0TI?authuser=0&hl=en&rclk=1,"13.9906321,74.5546509"
Masjid e Umar al Jabiri,Mosque,"2G3M+FHV Masjid e Umar al Jabiri, Omar Street 3rd Cross, Moosa Nagar, Devinagar, Bhatkal, Karnataka 581320","Moosa Nagar, Devinagar","2G3M+FHV, Omar Street 3rd Cross",Bhatkal,581320,Karnataka,IN,https://www.google.com/maps/place/Masjid+e+Umar+al+Jabiri/data=!4m7!3m6!1s0x3bbc43c9eec1c367:0xfe8eeeac596ebb4d!8m2!3d14.0037341!4d74.5339325!16s%2Fg%2F11fl94_vf6!19sChIJZ8PB7slDvDsRTbtuWazujv4?authuser=0&hl=en&rclk=1,"14.003734099999999,74.53393249999999"
Ismail Masjid,Mosque,"Ismail Masjid, Chowtani 581320, Bhatkal, Karnataka",Mudbhatkal,Chowtani 581320,Bhatkal,,Karnataka,IN,https://www.google.com/maps/place/Ismail+Masjid/data=!4m7!3m6!1s0x3bbc42cee4c3f019:0xe0ece3b6f91eff51!8m2!3d13.9789255!4d74.5617782!16s%2Fg%2F11fyllyzj3!19sChIJGfDD5M5CvDsRUf8e-bbj7OA?authuser=0&hl=en&rclk=1,"13.978925499999999,74.56177819999999"
Masjid E Imam Abu Haneefa,Mosque,"XGXM+WW7 Masjid E Imam Abu Haneefa, Devinagar, Bhatkal, Karnataka 581320",Devinagar,XGXM+WW7,Bhatkal,581320,Karnataka,IN,https://www.google.com/maps/place/Masjid+E+Imam+Abu+Haneefa/data=!4m7!3m6!1s0x3bbc43eda0acb241:0x9c0a47f597999ef4!8m2!3d13.9997952!4d74.5347969!16s%2Fg%2F11rf4l0mz5!19sChIJQbKsoO1DvDsR9J6Zl_VHCpw?authuser=0&hl=en&rclk=1,"13.9997952,74.5347969"
Masjid-e-Abdur Raheem,Mosque,"2G86+8JG Masjid-e-Abdur Raheem, Athar Mohalla, Hertar, Bhatkal, Karnataka 581320","Athar Mohalla, Hertar",2G86+8JG,Bhatkal,581320,Karnataka,IN,https://www.google.com/maps/place/Masjid-e-Abdur+Raheem/data=!4m7!3m6!1s0x3bbc437113a5c3f1:0xc7b4bd1dece5ee2f!8m2!3d14.0158169!4d74.511582!16s%2Fg%2F11f6jygc56!19sChIJ8cOlE3FDvDsRL-7l7B29tMc?authuser=0&hl=en&rclk=1,"14.015816899999999,74.51158199999999"
Ibrahim Juma Masjid,Mosque,"2G69+97V Ibrahim Juma Masjid, Handsome Galli, Jali, Jamia Abad, Gandhi Nagar, Bhatkal, Karnataka 581320","Handsome Galli, Jali, Jamia Abad, Gandhi Nagar",2G69+97V,Bhatkal,581320,Karnataka,IN,https://www.google.com/maps/place/Ibrahim+Juma+Masjid/data=!4m7!3m6!1s0x3bbc4375c8cf1b51:0x4f893d431486cc3a!8m2!3d14.0109862!4d74.5181632!16s%2Fg%2F11fxccp1gf!19sChIJURvPyHVDvDsROsyGFEM9iU8?authuser=0&hl=en&rclk=1,"14.0109862,74.5181632"
Ali Mia Masjid,Mosque,"2G78+WCX Ali Mia Masjid, Unnamed Road, Ali Miya Mohalla, Heble, Bhatkal, Karnataka 581320","Ali Miya Mohalla, Heble","2G78+WCX, Unnamed Road",Bhatkal,581320,Karnataka,IN,https://www.google.com/maps/place/Ali+Mia+Masjid/data=!4m7!3m6!1s0x3bbc439dc3812997:0x6292d2c22c84ae34!8m2!3d14.014872!4d74.5161046!16s%2Fg%2F11f3x67nl8!19sChIJlymBw51DvDsRNK6ELMLSkmI?authuser=0&hl=en&rclk=1,"14.014871999999999,74.51610459999999"
Masjid Imam Malik,Mosque,"2H27+X3C Masjid Imam Malik, Belalkanda, Bhatkal, Karnataka 581354",Belalkanda,2H27+X3C,Bhatkal,581354,Karnataka,IN,https://www.google.com/maps/place/Masjid+Imam+Malik/data=!4m7!3m6!1s0x3bbc432b04188305:0x3ad6cc92205a4050!8m2!3d14.0024472!4d74.5626329!16s%2Fg%2F11ffl_f_bm!19sChIJBYMYBCtDvDsRUEBaIJLM1jo?authuser=0&hl=en&rclk=1,"14.002447199999999,74.5626329"
Jamia Islamia Bhatkala,Mosque,"2G6C+R2X Jamia Islamia Bhatkala, Gandinagar Road, Handsome Galli, Jamia Abad, Gandhi Nagar, Bhatkal, Karnataka 581320","Handsome Galli, Jamia Abad, Gandhi Nagar","2G6C+R2X, Gandinagar Road",Bhatkal,581320,Karnataka,IN,https://www.google.com/maps/place/Jamia+Islamia+Bhatkala/data=!4m7!3m6!1s0x3bbc43a49498a375:0x86167b0a52ebc49!8m2!3d14.0121133!4d74.5201235!16s%2Fg%2F11h06xzq74!19sChIJdaOYlKRDvDsRSbwupbBnYQg?authuser=0&hl=en&rclk=1,"14.0121133,74.5201235"
Dargha Hazrath Sayyed Muhammad Jablain (R.A),Mosque,"XG7X+HQ Dargha Hazrath Sayyed Muhammad Jablain (R.A), Bhatkal, Karnataka 581320",,XG7X+HQ,Bhatkal,,Karnataka,IN,https://www.google.com/maps/place/Dargha+Hazrath+Sayyed+Muhammad+Jablain+%28R.A%29/data=!4m7!3m6!1s0x3bbc5d7c5d084139:0x179fb77a83ece14f!8m2!3d13.9639204!4d74.5494744!16s%2Fg%2F11t2r9b4cz!19sChIJOUEIXXxdvDsRT-Hsg3q3nxc?authuser=0&hl=en&rclk=1,"13.9639204,74.5494744"
Masjid abu ubaida bin al jarrah,Mosque,"2G4V+6W8 Masjid abu ubaida bin al jarrah, Good Luck Rd, Kargedde, Bhatkal, Karnataka 581320",Kargedde,"2G4V+6W8, Good Luck Rd",Bhatkal,581320,Karnataka,IN,https://www.google.com/maps/place/Masjid+abu+ubaida+bin+al+jarrah/data=!4m7!3m6!1s0x3bbc4350263cc1db:0xce2835c0db0e6745!8m2!3d14.0055352!4d74.544815!16s%2Fg%2F11h7frlm8s!19sChIJ28E8JlBDvDsRRWcO28A1KM4?authuser=0&hl=en&rclk=1,"14.005535199999999,74.544815"
Masjid Al Ma'moor,Mosque,"XGVW+MHQ Masjid Al Ma'moor, Bunder Rd 2nd Cross, Devinagar, Bhatkal, Karnataka 581320",Devinagar,"XGVW+MHQ, Bunder Rd 2nd Cross",Bhatkal,581320,Karnataka,IN,https://www.google.com/maps/place/Masjid+Al+Ma%27moor/data=!4m7!3m6!1s0x3bbc435b36df1ef1:0x6ef31694496d06c6!8m2!3d13.9942081!4d74.5464695!16s%2Fg%2F11hz07_74m!19sChIJ8R7fNltDvDsRxgZtSZQW824?authuser=0&hl=en&rclk=1,"13.9942081,74.5464695"
Abu Moosa,Mosque,"2G2G+JR6 Abu Moosa, Hamza Nagar 1st Cross Rd, Subhash Nagar, Devinagar, Bhatkal, Karnataka 581320","Subhash Nagar, Devinagar","2G2G+JR6, Hamza Nagar 1st Cross Rd",Bhatkal,581320,Karnataka,IN,https://www.google.com/maps/place/Abu+Moosa/data=!4m7!3m6!1s0x3bbc438bb11a1a2d:0x863682c752ec79b8!8m2!3d14.0015412!4d74.5270238!16s%2Fg%2F11flgfpsjq!19sChIJLRoasYtDvDsRuHnsUseCNoY?authuser=0&hl=en&rclk=1,"14.0015412,74.5270238"
"Noor Masjid, Heble",Mosque,"2G59+754 Noor Masjid, Heble, Gandhi Nagar, Jamia Abad, Heble, Bhatkal, Karnataka 581320","Jamia Abad, Heble","2G59+754, Gandhi Nagar",Bhatkal,581320,Karnataka,IN,"https://www.google.com/maps/place/Noor+Masjid,+Heble/data=!4m7!3m6!1s0x3bbc43aa047d1217:0xa92e0a2f3d32f94c!8m2!3d14.0081427!4d74.5179531!16s%2Fg%2F11fhn4v770!19sChIJFxJ9BKpDvDsRTPkyPS8KLqk?authuser=0&hl=en&rclk=1","14.008142699999999,74.5179531"
Masjid Hasan Qaziya,Mosque,"2G3V+29X Masjid Hasan Qaziya, 3rd Cross Rd, Kargedde, Bhatkal, Karnataka 581320",Kargedde,"2G3V+29X, 3rd Cross Rd",Bhatkal,581320,Karnataka,IN,https://www.google.com/maps/place/Masjid+Hasan+Qaziya/data=!4m7!3m6!1s0x3bbc437e28ba0e73:0xebbfdc920cd70765!8m2!3d14.0026027!4d74.5434736!16s%2Fg%2F11jfm2dby1!19sChIJcw66KH5DvDsRZQfXDJLcv-s?authuser=0&hl=en&rclk=1,"14.002602699999999,74.5434736"
Madeena masjid,Mosque,"Madeena masjid, madeena 2 nd crossBhatkal, Madina Colony 2nd Cross, Musa Nagar, Usmania Colony, Nawayath Colony, Bhatkal, Karnataka 581320","Musa Nagar, Usmania Colony, Nawayath Colony","madeena 2 nd crossBhatkal, Madina Colony 2nd Cross",Bhatkal,581320,Karnataka,IN,https://www.google.com/maps/place/Madeena+masjid/data=!4m7!3m6!1s0x3bbc430f5f6f2e4b:0xa6502a74813fff51!8m2!3d14.0074862!4d74.5345555!16s%2Fg%2F11dxkl3582!19sChIJSy5vXw9DvDsRUf8_gXQqUKY?authuser=0&hl=en&rclk=1,"14.007486199999999,74.5345555"
Masjid-e- khatijatul kubra,Mosque,"2G2M+V5X Masjid-e- khatijatul kubra, Moosa Nagar, Devinagar, Bhatkal, Karnataka 581320","Moosa Nagar, Devinagar",2G2M+V5X,Bhatkal,581320,Karnataka,IN,https://www.google.com/maps/place/Masjid-e-+khatijatul+kubra/data=!4m7!3m6!1s0x3bbc432a2b537d47:0x5b8d71f4b812f902!8m2!3d14.0022425!4d74.5329957!16s%2Fg%2F11fp7tz40y!19sChIJR31TKypDvDsRAvkSuPRxjVs?authuser=0&hl=en&rclk=1,"14.0022425,74.5329957"
Masjid e Aysha,Mosque,"2G3J+535 Masjid e Aysha, Moosa Nagar, Devinagar, Bhatkal, Karnataka 581320","Moosa Nagar, Devinagar",2G3J+535,Bhatkal,581320,Karnataka,IN,https://www.google.com/maps/place/Masjid+e+Aysha/data=!4m7!3m6!1s0x3bbc430e2028e9f5:0xae481983948afe7d!8m2!3d14.0028751!4d74.5302327!16s%2Fg%2F11dz2wx00s!19sChIJ9ekoIA5DvDsRff6KlIMZSK4?authuser=0&hl=en&rclk=1,"14.002875099999999,74.5302327"
Masjid Ahle Hadees bhatkal,Mosque,"XGPW+J8C Masjid Ahle Hadees bhatkal, Bandar Rd, Magdoom Colony, Kargedde, Bhatkal, Karnataka 581320","Magdoom Colony, Kargedde","XGPW+J8C, Bandar Rd",Bhatkal,581320,Karnataka,IN,https://www.google.com/maps/place/Masjid+Ahle+Hadees+bhatkal/data=!4m7!3m6!1s0x3bbc439ee2c161a5:0x3d9f8f47071e6aa4!8m2!3d13.9864229!4d74.5453755!16s%2Fg%2F11t6pvnlg9!19sChIJpWHB4p5DvDsRpGoeB0ePnz0?authuser=0&hl=en&rclk=1,"13.986422899999999,74.54537549999999"
Masjid-e-Hajira,Mosque,"XGWG+8RX Masjid-e-Hajira, Devinagar, Bhatkal, Karnataka 581320",Devinagar,XGWG+8RX,Bhatkal,581320,Karnataka,IN,https://www.google.com/maps/place/Masjid-e-Hajira/data=!4m7!3m6!1s0x3bbc433f77f1d097:0x6bcdfd1dccb0e5d2!8m2!3d13.9958742!4d74.5271026!16s%2Fg%2F11rn5sxvqb!19sChIJl9Dxdz9DvDsR0uWwzB39zWs?authuser=0&hl=en&rclk=1,"13.9958742,74.52710259999999"
Khadeejahtul Qubra Masjid,Mosque,"XGXJ+899 Khadeejahtul Qubra Masjid, Subhash Nagar, Devinagar, Bhatkal, Karnataka 581320","Subhash Nagar, Devinagar",XGXJ+899,Bhatkal,581320,Karnataka,IN,https://www.google.com/maps/place/Khadeejahtul+Qubra+Masjid/data=!4m7!3m6!1s0x3bbc43ca3f0cf4f5:0x1df20b5b2daf28b!8m2!3d13.9982991!4d74.5309714!16s%2Fg%2F11hjnncvh7!19sChIJ9fQMP8pDvDsRi_LasrUg3wE?authuser=0&hl=en&rclk=1,"13.998299099999999,74.5309714"
Masjid e Maaz Bin Jabl,Mosque,"2G3R+GPG Masjid e Maaz Bin Jabl, Good Luck Road, 3rd Cross Rd, Kargedde, Bhatkal, Karnataka 581320",Kargedde,"2G3R+GPG, Good Luck Road, 3rd Cross Rd",Bhatkal,581320,Karnataka,IN,https://www.google.com/maps/place/Masjid+e+Maaz+Bin+Jabl/data=!4m7!3m6!1s0x3bbc433675b70007:0x8246d16d31019e04!8m2!3d14.0038106!4d74.5418129!16s%2Fg%2F11j_x3x_x0!19sChIJBwC3dTZDvDsRBJ4BMW3RRoI?authuser=0&hl=en&rclk=1,"14.0038106,74.5418129"
Masjid-e-Sahaba,Mosque,"2G5J+FP Masjid-e-Sahaba, Madeena Colony, Jamia Abad, Gandhi Nagar, Bhatkal, Karnataka 581320","Madeena Colony, Jamia Abad, Gandhi Nagar",2G5J+FP,Bhatkal,581320,Karnataka,IN,https://www.google.com/maps/place/Masjid-e-Sahaba/data=!4m7!3m6!1s0x3bbc434428760f3f:0xf8ac16707ee0570a!8m2!3d14.0087123!4d74.5322032!16s%2Fg%2F11kbd09b75!19sChIJPw92KERDvDsRClfgfnAWrPg?authuser=0&hl=en&rclk=1,"14.0087123,74.5322032"
Masjid e Toor,Mosque,"XHR4+X85 Masjid e Toor, Belalkanda, Bhatkal, Karnataka 581320",Belalkanda,XHR4+X85,Bhatkal,581320,Karnataka,IN,https://www.google.com/maps/place/Masjid+e+Toor/data=!4m7!3m6!1s0x3bbc435163a5b965:0xce00fddaccf58448!8m2!3d13.992399!4d74.5558539!16s%2Fg%2F11j3761q6n!19sChIJZbmlY1FDvDsRSIT1zNr9AM4?authuser=0&hl=en&rclk=1,"13.992398999999999,74.5558539"
Masjide sayyedina abu bakr,Mosque,"2G5H+9Q9 Masjide sayyedina abu bakr, Jamiabad Rd, Madeena Colony, Jamia Abad, Heble, Bhatkal, Karnataka 581320","Madeena Colony, Jamia Abad, Heble","2G5H+9Q9, Jamiabad Rd",Bhatkal,581320,Karnataka,IN,https://www.google.com/maps/place/Masjide+sayyedina+abu+bakr/data=!4m7!3m6!1s0x3bbc43ca88f9d051:0x52ce8e0dd88a3b76!8m2!3d14.0084159!4d74.5294887!16s%2Fg%2F11h_b6050f!19sChIJUdD5iMpDvDsRdjuK2A2OzlI?authuser=0&hl=en&rclk=1,"14.0084159,74.5294887"
Masjid Noor Mohammadiyr,Mosque,"2G6Q+VG2 Masjid Noor Mohammadiyr, pillaganhalli, Bhatkal, Karnataka 581320",,2G6Q+VG2,"pillaganhalli, Bhatkal",,Karnataka,IN,https://www.google.com/maps/place/Masjid+Noor+Mohammadiyr/data=!4m7!3m6!1s0x3bbc430719304113:0x15b184de4228dffa!8m2!3d14.012139!4d74.538769!16s%2Fg%2F11h9xwfm5k!19sChIJE0EwGQdDvDsR-t8oQt6EsRU?authuser=0&hl=en&rclk=1,"14.012139,74.538769"
Masjid Moulana Ali Miyan,Mosque,"XGWM+PXQ Masjid Moulana Ali Miyan, Ali Miyan Colony Sector - A, Azad Nagar, Bhatkal, Karnataka 581320","Azad Nagar, Devinagar","XGWM+PXQ, Ali Miyan Colony Sector - A",Bhatkal,581320,Karnataka,IN,https://www.google.com/maps/place/Masjid+Moulana+Ali+Miyan/data=!4m7!3m6!1s0x3bbc4389ed0be09b:0x3b5b71c964fa497!8m2!3d13.9968381!4d74.5349783!16s%2Fg%2F11gzs18vxq!19sChIJm-AL7YlDvDsRl6RPlhy3tQM?authuser=0&hl=en&rclk=1,"13.9968381,74.53497829999999"
Masjid Saad Bin Abi Waqqas,Mosque,"XGXX+4W9 Masjid Saad Bin Abi Waqqas, Near Amita Hospital Sagar Road,, Bandar Rd, Kargedde, Bhatkal, Karnataka 581320",Kargedde,"XGXX+4W9, Near Amita Hospital Sagar Road,, Bandar Rd",Bhatkal,581320,Karnataka,IN,https://www.google.com/maps/place/Masjid+Saad+Bin+Abi+Waqqas/data=!4m7!3m6!1s0x3bbc42e17aeeda21:0x6ebe414986527dab!8m2!3d13.9977873!4d74.5498669!16s%2Fg%2F11cltjpgqs!19sChIJIdrueuFCvDsRq31ShklBvm4?authuser=0&hl=en&rclk=1,"13.997787299999999,74.5498669"
Masjid umar al jabrani,Mosque,"Masjid umar al jabrani, City Light, Usmania Colony, Nawayath Colony, Bhatkal, Karnataka 581320","Usmania Colony, Nawayath Colony",City Light,Bhatkal,581320,Karnataka,IN,https://www.google.com/maps/place/Masjid+umar+al+jabrani/data=!4m7!3m6!1s0x3bbc4351ab420b1f:0xb08d3bbb8b82cb86!8m2!3d14.0057278!4d74.5382686!16s%2Fg%2F11fl9bdj2v!19sChIJHwtCq1FDvDsRhsuCi7s7jbA?authuser=0&hl=en&rclk=1,"14.005727799999999,74.5382686"
Farooqui Masjid,Mosque,"XHJ4+XJ3 Farooqui Masjid, Soosgadi, Bhatkal, Karnataka 581320",Soosgadi,XHJ4+XJ3,Bhatkal,581320,Karnataka,IN,https://www.google.com/maps/place/Farooqui+Masjid/data=!4m7!3m6!1s0x3bbc434c0e29fe43:0x3d0cd92861f9dd0d!8m2!3d13.9823556!4d74.5566408!16s%2Fg%2F11t1qb8nyh!19sChIJQ_4pDkxDvDsRDd35YSjZDD0?authuser=0&hl=en&rclk=1,"13.9823556,74.5566408"
Mosque,Mosque,"XHJ3+R2V Mosque, Soosgadi, Bhatkal, Karnataka 581320",Soosgadi,XHJ3+R2V,Bhatkal,581320,Karnataka,IN,https://www.google.com/maps/place/Mosque/data=!4m7!3m6!1s0x3bbc43a388b18079:0x8ca44ef971e4827b!8m2!3d13.9822772!4d74.552481!16s%2Fg%2F11txn9zxrp!19sChIJeYCxiKNDvDsRe4LkcflOpIw?authuser=0&hl=en&rclk=1,"13.982277199999999,74.552481"
Masjid e Syedna Yusuf,Mosque,"2G2H+PM4 Masjid e Syedna Yusuf, Moosa Nagar, Bendekant, Bhatkal, Karnataka 581320","Moosa Nagar, Bendekant",2G2H+PM4,Bhatkal,581320,Karnataka,IN,https://www.google.com/maps/place/Masjid+e+Syedna+Yusuf/data=!4m7!3m6!1s0x3bbc437b0953cb11:0x461e985af6b23033!8m2!3d14.0017547!4d74.5291973!16s%2Fg%2F11lrl1ltmr!19sChIJEctTCXtDvDsRMzCy9lqYHkY?authuser=0&hl=en&rclk=1,"14.0017547,74.52919729999999"
Masjide imaan,Mosque,"XGXX+9CQ Masjide imaan, Nagappa Nayak Rd, Kargedde, Bhatkal, Rangikatte, Karnataka 581320",Kargedde,"XGXX+9CQ, Nagappa Nayak Rd","Bhatkal, Rangikatte",581320,Karnataka,IN,https://www.google.com/maps/place/Masjide+imaan/data=!4m7!3m6!1s0x3bbc434c44c9ddcd:0xece49e0b32f91cd7!8m2!3d13.9984704!4d74.5486063!16s%2Fg%2F11hzlz61g9!19sChIJzd3JRExDvDsR1xz5Mgue5Ow?authuser=0&hl=en&rclk=1,"13.998470399999999,74.5486063"
Masjid Fathima Abdullah Al-Attar,Mosque,"XGVV+6CR Masjid Fathima Abdullah Al-Attar, Moulana Abdul Bari Street, Devinagar, Bhatkal, Karnataka 581320",Devinagar,"XGVV+6CR, Moulana Abdul Bari Street",Bhatkal,581320,Karnataka,IN,https://www.google.com/maps/place/Masjid+Fathima+Abdullah+Al-Attar/data=!4m7!3m6!1s0x3bbc431336232675:0x459e3349ffdd8bb4!8m2!3d13.9927933!4d74.5426551!16s%2Fg%2F11st8vgdj_!19sChIJdSYjNhNDvDsRtIvd_0kznkU?authuser=0&hl=en&rclk=1,"13.992793299999999,74.54265509999999"
Zubair-bin-Awam Masjid Mohiddin 3rd cross (B-Block),Mosque,"2G3G+VRM Zubair-bin-Awam Masjid Mohiddin 3rd cross (B-Block), Madeena Colony, Jali, Jamia Abad, Gandhi Nagar, Bhatkal, Karnataka 581320","Madeena Colony, Jali, Jamia Abad, Gandhi Nagar",2G3G+VRM,Bhatkal,581320,Karnataka,IN,https://www.google.com/maps/place/Zubair-bin-Awam+Masjid+Mohiddin+3rd+cross+%28B-Block%29/data=!4m7!3m6!1s0x3bbc43d1cb351131:0x4f3b487a3499aebf!8m2!3d14.0047221!4d74.5270363!16s%2Fg%2F11rzjfk79g!19sChIJMRE1y9FDvDsRv66ZNHpIO08?authuser=0&hl=en&rclk=1,"14.004722099999999,74.52703629999999"
Kazia Masjid,Mosque,"Kazia Masjid, 33, Jamia St, Soosgadi, Bhatkal, Karnataka 581320",Soosgadi,"33, Jamia St",Bhatkal,581320,Karnataka,IN,https://www.google.com/maps/place/Kazia+Masjid/data=!4m7!3m6!1s0x3bbc437b420bfb6f:0x5f12422c4f4f292c!8m2!3d13.983451!4d74.554322!16s%2Fg%2F11hf975szj!19sChIJb_sLQntDvDsRLClPTyxCEl8?authuser=0&hl=en&rclk=1,"13.983450999999999,74.554322"
Masjide Bilal,Mosque,"XGXR+35W Masjide Bilal, Purvarga, Mudbhatkal, Bhatkal, Karnataka 581320","Purvarga, Mudbhatkal",XGXR+35W,Bhatkal,581320,Karnataka,IN,https://www.google.com/maps/place/Masjide+Bilal/data=!4m7!3m6!1s0x3bbc431bffffffff:0x267617292f94a008!8m2!3d13.997745!4d74.5404675!16s%2Fg%2F11fz23kd71!19sChIJ_____xtDvDsRCKCULykXdiY?authuser=0&hl=en&rclk=1,"13.997745,74.54046749999999"
Makha masjid,Mosque,"Makha masjid, Jali Road devi nagar 2 Cross taluk bhatkal, dist, karwar, Karnataka","Subhash Nagar, Devinagar","Jali Road devi nagar 2 Cross taluk bhatkal, dist","karwar, Bhatkal",,Karnataka,IN,https://www.google.com/maps/place/Makha+masjid/data=!4m7!3m6!1s0x3bbc4398960d3f3b:0x9ab803038d5e427e!8m2!3d13.9961925!4d74.5253062!16s%2Fg%2F11t59ms83y!19sChIJOz8NlphDvDsRfkJejQMDuJo?authuser=0&hl=en&rclk=1,"13.9961925,74.5253062"
Qazia Masjid,Mosque,"XHM3+28F Qazia Masjid, Soosgadi, Bhatkal, Karnataka 581320",Soosgadi,XHM3+28F,Bhatkal,581320,Karnataka,IN,https://www.google.com/maps/place/Qazia+Masjid/data=!4m7!3m6!1s0x3bbc436a3fd1542d:0x31825c2061630380!8m2!3d13.9825638!4d74.5533025!16s%2Fg%2F11qpxqkk2f!19sChIJLVTRP2pDvDsRgANjYSBcgjE?authuser=0&hl=en&rclk=1,"13.9825638,74.5533025"
Umair masjid,Mosque,"2G6J+QF5 Umair masjid, Haneef Abad Rd, Narlesere, Bhatkal, Karnataka 581320",Narlesere,"2G6J+QF5, Haneef Abad Rd",Bhatkal,581320,Karnataka,IN,https://www.google.com/maps/place/Umair+masjid/data=!4m7!3m6!1s0x3bbc432847519573:0x30d9145fc625f8ce!8m2!3d14.0118935!4d74.5312355!16s%2Fg%2F11t761vlvf!19sChIJc5VRRyhDvDsRzvglxl8U2TA?authuser=0&hl=en&rclk=1,"14.0118935,74.5312355"
Masjid Abdullah anwahi,Mosque,"Masjid Abdullah anwahi, Abdul mateenabad, Bunder Rd 5th Cross, Devinagar, Bhatkal, Karnataka 581320",Devinagar,"Abdul mateenabad, Bunder Rd 5th Cross",Bhatkal,581320,Karnataka,IN,https://www.google.com/maps/place/Masjid+Abdullah+anwahi/data=!4m7!3m6!1s0x3bbc43fb5930bff7:0x90177a8b61a30cd8!8m2!3d13.9977451!4d74.5404677!16s%2Fg%2F11hzjyw8x6!19sChIJ978wWftDvDsR2AyjYYt6F5A?authuser=0&hl=en&rclk=1,"13.9977451,74.5404677"
Jamia Abad Eidgah,Mosque,"2G68+6QC Jamia Abad Eidgah, Handsome Galli, Jali, Jamia Abad, Gandhi Nagar, Bhatkal, Karnataka 581320","Handsome Galli, Jali, Jamia Abad, Gandhi Nagar",2G68+6QC,Bhatkal,581320,Karnataka,IN,https://www.google.com/maps/place/Jamia+Abad+Eidgah/data=!4m7!3m6!1s0x3bbc435353d4ceb1:0xe876498f7f55788e!8m2!3d14.0105701!4d74.5168831!16s%2Fg%2F11syrl789g!19sChIJsc7UU1NDvDsRjnhVf49Jdug?authuser=0&hl=en&rclk=1,"14.010570099999999,74.5168831"
Masjide Umme Ali,Mosque,"2G88+3GM Masjide Umme Ali, Ali Miya Mohalla, Heble, Bhatkal, Karnataka 581320","Ali Miya Mohalla, Heble",2G88+3GM,Bhatkal,581320,Karnataka,IN,https://www.google.com/maps/place/Masjide+Umme+Ali/data=!4m7!3m6!1s0x3bbc4356e1f94ac1:0x6fbd7d8d81819f76!8m2!3d14.0152217!4d74.5162994!16s%2Fg%2F11h_1lhz63!19sChIJwUr54VZDvDsRdp-BgY19vW8?authuser=0&hl=en&rclk=1,"14.0152217,74.5162994"
msjd sydn ywsf,Mosque,"2G2H+MP7 msjd sydn ywsf, Moosa Nagar, Bendekant, Bhatkal, Karnataka 581320","Moosa Nagar, Bendekant",2G2H+MP7,Bhatkal,581320,Karnataka,IN,https://www.google.com/maps/place/%D9%85%D8%B3%D8%AC%D8%AF+%D8%B3%D9%8A%D8%AF%D9%86%D8%A7+%D9%8A%D9%88%D8%B3%D9%81%E2%80%AD/data=!4m7!3m6!1s0x3bbc43203331ddcf:0x4776a4dac27c7759!8m2!3d14.0016564!4d74.5292883!16s%2Fg%2F11txp01vdy!19sChIJz90xMyBDvDsRWXd8wtqkdkc?authuser=0&hl=en&rclk=1,"14.0016564,74.52928829999999"
Bhatkal Eidgah,Mosque,"XGVX+6HX Bhatkal Eidgah, Belalkanda, Bhatkal, Karnataka 581320",Belalkanda,XGVX+6HX,Bhatkal,581320,Karnataka,IN,https://www.google.com/maps/place/Bhatkal+Eidgah/data=!4m7!3m6!1s0x3bbc42e07c3fffff:0x989cc9dfe547913b!8m2!3d13.9931166!4d74.548983!16s%2Fg%2F11kj3f634l!19sChIJ__8_fOBCvDsRO5FH5d_JnJg?authuser=0&hl=en&rclk=1,"13.993116599999999,74.54898299999999"
Hassan qazia shifa cross,Mosque,"XGXR+35W Hassan qazia shifa cross, Shifa cross Masjid e Hassan Qazia, Road, Bhatkal, Karnataka",Devinagar,"XGXR+35W, Shifa cross Masjid e Hassan Qazia, Road",Bhatkal,,Karnataka,IN,https://www.google.com/maps/place/Hassan+qazia+shifa+cross/data=!4m7!3m6!1s0x3bbc43be3085c683:0xf68861da62b25342!8m2!3d13.9977451!4d74.5404677!16s%2Fg%2F11h0yjpjl6!19sChIJg8aFML5DvDsRQlOyYtphiPY?authuser=0&hl=en&rclk=1,"13.9977451,74.5404677"
