name,main_category,address,address_ward,address_street,address_city,address_postal_code,address_state,address_country_code,link,coordinates
Hamidi Masjid Hmdy msjd,Mosque,"C967+99M Hamidi Masjid Hmdy msjd, Bareilly, Uttar Pradesh 243502",,C967+99M,Bareilly,243502,Uttar Pradesh,IN,https://www.google.com/maps/place/Hamidi+Masjid+%D8%AD%D8%A7%D9%85%D8%AF%DB%8C+%D9%85%D8%B3%D8%AC%D8%AF%E2%80%AD/data=!4m7!3m6!1s0x390aa839629c8ee5:0xa2798879b58586e9!8m2!3d28.4109602!4d79.3634333!16s%2Fg%2F11c5rv3yq9!19sChIJ5Y6cYjmoCjkR6YaFtXmIeaI?authuser=0&hl=en&rclk=1,"28.410960199999998,79.3634333"
Khajur Wali Masjid hjiyaapur khjur baalii msjiid,Mosque,"9CCM+Q42 Khajur Wali Masjid hjiyaapur khjur baalii msjiid, City Heart Colony, Bareilly, Uttar Pradesh 243005",City Heart Colony,9CCM+Q42,Bareilly,243005,Uttar Pradesh,IN,https://www.google.com/maps/place/Khajur+Wali+Masjid+%E0%A4%B9%E0%A4%9C%E0%A4%BF%E0%A4%AF%E0%A4%BE%E0%A4%AA%E0%A5%81%E0%A4%B0+%E0%A4%96%E0%A4%9C%E0%A5%81%E0%A4%B0+%E0%A4%AC%E0%A4%BE%E0%A4%B2%E0%A5%80+%E0%A4%AE%E0%A4%B8%E0%A4%9C%E0%A5%80%E0%A4%A6/data=!4m7!3m6!1s0x39a007360be5d11d:0x12a0e64c046459a5!8m2!3d28.3704674!4d79.4354412!16s%2Fg%2F11gtggn3t5!19sChIJHdHlCzYHoDkRpVlkBEzmoBI?authuser=0&hl=en&rclk=1,"28.3704674,79.4354412"
Chowki Chauraha Masjid,Mosque,"8CXC+838 Chowki Chauraha Masjid, Lal Fatak Rd, Civil Lines, Bareilly, Uttar Pradesh 243001",Civil Lines,"8CXC+838, Lal Fatak Rd",Bareilly,243001,Uttar Pradesh,IN,https://www.google.com/maps/place/Chowki+Chauraha+Masjid/data=!4m7!3m6!1s0x39a000d402487ae7:0xd8c858a7797185c5!8m2!3d28.348296!4d79.4201982!16s%2Fg%2F1q66syjbs!19sChIJ53pIAtQAoDkRxYVxeadYyNg?authuser=0&hl=en&rclk=1,"28.348295999999998,79.4201982"
Nakatiya Masjid nkhttyh msjd,Mosque,"8FM5+V27 Nakatiya Masjid nkhttyh msjd, NH 24, Civil Lines, Bareilly, Uttar Pradesh 243001",Civil Lines,"8FM5+V27, NH 24",Bareilly,243001,Uttar Pradesh,IN,https://www.google.com/maps/place/Nakatiya+Masjid+%D9%86%DA%A9%D9%B9%DB%8C%DB%81+%D9%85%D8%B3%D8%AC%D8%AF%E2%80%AD/data=!4m7!3m6!1s0x39a00142971a5fad:0xbb28965c8e0a7edb!8m2!3d28.3346729!4d79.4575423!16s%2Fg%2F1pyqljn_2!19sChIJrV8al0IBoDkR234KjlyWKLs?authuser=0&hl=en&rclk=1,"28.334672899999997,79.4575423"
Aala Hazrat Masjid `ly HDrt msjd,Mosque,"9C57+824 Aala Hazrat Masjid `ly HDrt msjd, N H 24, Bhoor, Bareilly, Uttar Pradesh 243003",Bhoor,"9C57+824, N H 24",Bareilly,243003,Uttar Pradesh,IN,https://www.google.com/maps/place/Aala+Hazrat+Masjid+%D8%A7%D8%B9%D9%84%DB%8C%D9%B0+%D8%AD%D8%B6%D8%B1%D8%AA+%D9%85%D8%B3%D8%AC%D8%AF%E2%80%AD/data=!4m7!3m6!1s0x39a007323e84989d:0x20a1d5d25c5802e0!8m2!3d28.3582565!4d79.4125824!16s%2Fg%2F1pyqj2n36!19sChIJnZiEPjIHoDkR4AJYXNLVoSA?authuser=0&hl=en&rclk=1,"28.3582565,79.41258239999999"
Chand Masjid,Mosque,"9C8W+4HH Chand Masjid, Mustafa Munzil Ajaz Nagar, Bareilly, Uttar Pradesh 243005",Mustafa Munzil Ajaz Nagar,9C8W+4HH,Bareilly,243005,Uttar Pradesh,IN,https://www.google.com/maps/place/Chand+Masjid/data=!4m7!3m6!1s0x39a006c837e34f3b:0x304ad1dc14c27af7!8m2!3d28.3653033!4d79.4464882!16s%2Fg%2F1hg4tpnvw!19sChIJO0_jN8gGoDkR93rCFNzRSjA?authuser=0&hl=en&rclk=1,"28.365303299999997,79.44648819999999"
Habibia Masjid Hbyby y msjd,Mosque,"Habibia Masjid Hbyby y msjd, MDR149W, Qureshi Nagar, Bareilly, Uttar Pradesh 243005",Qureshi Nagar,MDR149W,Bareilly,243005,Uttar Pradesh,IN,https://www.google.com/maps/place/Habibia+Masjid+%D8%AD%D8%A8%DB%8C%D8%A8%DB%8C+%DB%8C%D8%A7+%D9%85%D8%B3%D8%AC%D8%AF%E2%80%AD/data=!4m7!3m6!1s0x39a006d23dee9b5d:0xe9bddb09ad0286b6!8m2!3d28.3598218!4d79.4352477!16s%2Fg%2F1hm22pvpn!19sChIJXZvuPdIGoDkRtoYCrQnbvek?authuser=0&hl=en&rclk=1,"28.3598218,79.43524769999999"
Noumahillah Masjid Bareilly,Mosque,"9C48+R4F Noumahillah Masjid Bareilly, Civil Lines, Bareilly, Uttar Pradesh 243003",Civil Lines,9C48+R4F,Bareilly,243003,Uttar Pradesh,IN,https://www.google.com/maps/place/Noumahillah+Masjid+Bareilly/data=!4m7!3m6!1s0x39a0072d9848ba17:0x786ed2c3009aaa8!8m2!3d28.3570537!4d79.4153026!16s%2Fg%2F11fy99jj1j!19sChIJF7pImC0HoDkRqKoJMCzthgc?authuser=0&hl=en&rclk=1,"28.357053699999998,79.41530259999999"
Masjid Jahan Khan msjd jhN khn,Mosque,"9C8P+F4F Masjid Jahan Khan msjd jhN khn, opp. Wazir Palace, Kankar Tola, Old City, Bareilly, Haziyapur, Uttar Pradesh 243005","Kankar Tola, Old City","9C8P+F4F, opp. Wazir Palace","Bareilly, Haziyapur",243005,Uttar Pradesh,IN,https://www.google.com/maps/place/Masjid+Jahan+Khan+%D9%85%D8%B3%D8%AC%D8%AF+%D8%AC%DB%81%D8%A7%DA%BA+%D8%AE%D8%A7%D9%86%E2%80%AD/data=!4m7!3m6!1s0x39a006d00cc38e7d:0x8562014410902c86!8m2!3d28.3661804!4d79.4352937!16s%2Fg%2F1pv1f5g31!19sChIJfY7DDNAGoDkRhiyQEEQBYoU?authuser=0&hl=en&rclk=1,"28.366180399999998,79.4352937"
Noori Masjid,Mosque,"9CMR+X54 Noori Masjid, Delapeer, Rajendra Nagar, Bareilly, Uttar Pradesh 243122","Delapeer, Rajendra Nagar",9CMR+X54,Bareilly,243122,Uttar Pradesh,IN,https://www.google.com/maps/place/Noori+Masjid/data=!4m7!3m6!1s0x39a006eeced02393:0x228987d6ef1c5745!8m2!3d28.3848774!4d79.4404595!16s%2Fg%2F11b6nklkvw!19sChIJkyPQzu4GoDkRRVcc79aHiSI?authuser=0&hl=en&rclk=1,"28.384877399999997,79.4404595"
Noori Masjid,Mosque,"9CXW+494 Noori Masjid, Biharmaan Nagla, Bareilly, Uttar Pradesh 243122",Bihar Kalan,"9CXW+494, Biharmaan Nagla",Bareilly,243122,Uttar Pradesh,IN,https://www.google.com/maps/place/Noori+Masjid/data=!4m7!3m6!1s0x39a006f4934b26a9:0x901806dec6f3e461!8m2!3d28.3977715!4d79.4459402!16s%2Fg%2F1pyqv4bhw!19sChIJqSZLk_QGoDkRYeTzxt4GGJA?authuser=0&hl=en&rclk=1,"28.397771499999998,79.4459402"
JAMA MASJID AHLE HADEES MUHAMMADI,Mosque,"9C6M+RCW JAMA MASJID AHLE HADEES MUHAMMADI, Qureshi Nagar, Bareilly, Haziyapur, Uttar Pradesh 243005",Qureshi Nagar,9C6M+RCW,"Bareilly, Haziyapur",243005,Uttar Pradesh,IN,https://www.google.com/maps/place/JAMA+MASJID+AHLE+HADEES+MUHAMMADI/data=!4m7!3m6!1s0x39a006d174dcf975:0x32c516c6c89e7aaf!8m2!3d28.3621215!4d79.4335852!16s%2Fg%2F11g6j95_yd!19sChIJdfncdNEGoDkRr3qeyMYWxTI?authuser=0&hl=en&rclk=1,"28.362121499999997,79.4335852"
Masjid Asif Jamal,Mosque,"9F35+9QG Masjid Asif Jamal, Faiq Enclave Phase-II, Khushboo Enclave, Bareilly, Uttar Pradesh 243006","Faiq Enclave Phase-II, Khushboo Enclave",9F35+9QG,Bareilly,243006,Uttar Pradesh,IN,https://www.google.com/maps/place/Masjid+Asif+Jamal/data=!4m7!3m6!1s0x39a0015270aa671b:0x5f6d0aa8a79207c3!8m2!3d28.3534283!4d79.4594503!16s%2Fg%2F11bwn6dvvf!19sChIJG2eqcFIBoDkRwweSp6gKbV8?authuser=0&hl=en&rclk=1,"28.353428299999997,79.4594503"
Gausiya Masjid,Mosque,"9F92+CGM Gausiya Masjid, Gausiya Masjid, Ejaz Nagar,, Bareilly, Uttar Pradesh 243005",Mustafa Munzil Ajaz Nagar,"9F92+CGM, Gausiya Masjid, Ejaz Nagar,",Bareilly,243005,Uttar Pradesh,IN,https://www.google.com/maps/place/Gausiya+Masjid/data=!4m7!3m6!1s0x39a006b9d03b5655:0x83eaf7235f5159c1!8m2!3d28.368599!4d79.4513003!16s%2Fg%2F11cn95dfn7!19sChIJVVY70LkGoDkRwVlRXyP36oM?authuser=0&hl=en&rclk=1,"28.368599,79.4513003"
Bibi Ji Masjid by by jy khy msjd,Mosque,"9C66+F85 Bibi Ji Masjid by by jy khy msjd, Beharipur,Bareilly,Uttar Pradesh, Bareilly, Uttar Pradesh",Bhoor,"9C66+F85, Beharipur,Bareilly,Uttar Pradesh",Bareilly,,Uttar Pradesh,IN,https://www.google.com/maps/place/Bibi+Ji+Masjid+%D8%A8%DB%8C+%D8%A8%DB%8C+%D8%AC%DB%8C+%DA%A9%DB%8C+%D9%85%D8%B3%D8%AC%D8%AF%E2%80%AD/data=!4m7!3m6!1s0x39a007310f7b3d25:0xbc6ab8d8bfb58379!8m2!3d28.3611292!4d79.4108487!16s%2Fg%2F11xrdc44r!19sChIJJT17DzEHoDkReYO1v9i4arw?authuser=0&hl=en&rclk=1,"28.361129199999997,79.4108487"
City Wali Masjid,Mosque,"City Wali Masjid, Om Tara Vila, 2, GGIC Rd, near Mukesh English School, Beharipur Civil Lines, Beharipur, Bareilly, Uttar Pradesh 243003","Beharipur Civil Lines, Beharipur","Om Tara Vila, 2, GGIC Rd, near Mukesh English School",Bareilly,243003,Uttar Pradesh,IN,https://www.google.com/maps/place/City+Wali+Masjid/data=!4m7!3m6!1s0x39a007bcdb5bd811:0xfb233f048f1e0f55!8m2!3d28.3546571!4d79.406631!16s%2Fg%2F11ry1mgwsq!19sChIJEdhb27wHoDkRVQ8ejwQ_I_s?authuser=0&hl=en&rclk=1,"28.354657099999997,79.40663099999999"
Sunni Hussaini Masjid sny Hsyny msjd,Mosque,"Sunni Hussaini Masjid sny Hsyny msjd, Ajaj Nagar old city Bareilly, Sunni husaini masjid wali gali, Bareilly - Bisalpur Rd, Mustafa Munzil Ajaz Nagar, Bareilly, Uttar Pradesh 243006","Ezaz Nagar, Mustafa Munzil Ajaz Nagar","Ajaj Nagar old city Bareilly, Sunni husaini masjid wali gali, Bareilly - Bisalpur Rd",Bareilly,243006,Uttar Pradesh,IN,https://www.google.com/maps/place/Sunni+Hussaini+Masjid+%D8%B3%D9%86%DB%8C+%D8%AD%D8%B3%DB%8C%D9%86%DB%8C+%D9%85%D8%B3%D8%AC%D8%AF%E2%80%AD/data=!4m7!3m6!1s0x39a006b6521f3f63:0xc5c7654f62d932ce!8m2!3d28.3646091!4d79.4505885!16s%2Fg%2F11c1z7_9v7!19sChIJYz8fUrYGoDkRzjLZYk9lx8U?authuser=0&hl=en&rclk=1,"28.3646091,79.4505885"
Masjid Athar,Mosque,"9C7R+9GX Masjid Athar, Opp S M Plywood, Jagatpur, Old City, Bareilly, Uttar Pradesh 243005",Qureshi Nagar,"9C7R+9GX, Opp S M Plywood, Jagatpur, Old City",Bareilly,243005,Uttar Pradesh,IN,https://www.google.com/maps/place/Masjid+Athar/data=!4m7!3m6!1s0x39a006cedd496511:0x34e80a01596854df!8m2!3d28.3634939!4d79.4413457!16s%2Fg%2F1pv0_9qv8!19sChIJEWVJ3c4GoDkR31RoWQEK6DQ?authuser=0&hl=en&rclk=1,"28.363493899999998,79.4413457"
Lal Masjid ll msjd,Mosque,"Lal Masjid ll msjd, Malookpur lal masjid, Uttar Pradesh 243003",Zakhira,Malookpur lal masjid,Bareilly,243003,Uttar Pradesh,IN,https://www.google.com/maps/place/Lal+Masjid+%D9%84%D8%A7%D9%84+%D9%85%D8%B3%D8%AC%D8%AF%E2%80%AD/data=!4m7!3m6!1s0x39a00737a86f0227:0xb4bf28842d4083ed!8m2!3d28.3622517!4d79.4056766!16s%2Fg%2F1pyqlprd0!19sChIJJwJvqDcHoDkR7YNALYQov7Q?authuser=0&hl=en&rclk=1,"28.362251699999998,79.40567659999999"
Ghosiyan Masjid msjd ghwsyn,Mosque,"9CC6+J7X Ghosiyan Masjid msjd ghwsyn, gulab nagar, Bareilly, Uttar Pradesh 243003",Gulab Nagar,"9CC6+J7X, gulab nagar",Bareilly,243003,Uttar Pradesh,IN,https://www.google.com/maps/place/Ghosiyan+Masjid+%D9%85%D8%B3%D8%AC%D8%AF+%DA%AF%DA%BE%D9%88%D8%B3%DB%8C%D8%A7%D9%86%E2%80%AD/data=!4m7!3m6!1s0x39a0073c8c1b364d:0xe5d7cfeaf5206266!8m2!3d28.371602!4d79.410739!16s%2Fg%2F1pyqq4kwk!19sChIJTTYbjDwHoDkRZmIg9erP1-U?authuser=0&hl=en&rclk=1,"28.371602,79.41073899999999"
6 Minara Masjid Dawat E Islami hry msjd d`wt slmy,Mosque,"6 Minara Masjid Dawat E Islami hry msjd d`wt slmy, meera ki paith chauraha, Old City, Gulzar Nagar, Bareilly, Uttar Pradesh 243005","Old City, Gulzar Nagar",meera ki paith chauraha,Bareilly,243005,Uttar Pradesh,IN,https://www.google.com/maps/place/6+Minara+Masjid+Dawat+E+Islami+%DB%81%D8%B1%DB%8C+%D9%85%D8%B3%D8%AC%D8%AF+%D8%AF%D8%B9%D9%88%D8%AA+%D8%A7%D8%B3%D9%84%D8%A7%D9%85%DB%8C%E2%80%AD/data=!4m7!3m6!1s0x39a006cdc52dacc7:0x416f696c39d2e05b!8m2!3d28.3603927!4d79.438602!16s%2Fg%2F11c0xm_tms!19sChIJx6wtxc0GoDkRW-DSOWxpb0E?authuser=0&hl=en&rclk=1,"28.3603927,79.438602"
Qazi Tola Masjid,Mosque,"9C6M+83J Qazi Tola Masjid, Qureshi Nagar, Bareilly, Haziyapur, Uttar Pradesh 243005",Qureshi Nagar,9C6M+83J,"Bareilly, Haziyapur",243005,Uttar Pradesh,IN,https://www.google.com/maps/place/Qazi+Tola+Masjid/data=!4m7!3m6!1s0x39a006d160fffff9:0xcb2da9361c64f7b3!8m2!3d28.3608335!4d79.4326498!16s%2Fg%2F11f51ymfjl!19sChIJ-f__YNEGoDkRs_dkHDapLcs?authuser=0&hl=en&rclk=1,"28.3608335,79.4326498"
Chupshah Masjid,Mosque,"9C5V+V26 Chupshah Masjid, Qureshi Nagar, Bareilly, Uttar Pradesh 243005",Qureshi Nagar,9C5V+V26,Bareilly,243005,Uttar Pradesh,IN,https://www.google.com/maps/place/Chupshah+Masjid/data=!4m7!3m6!1s0x39a006cb8bddc4d5:0x3d8e20d072df6c6d!8m2!3d28.3596679!4d79.4425147!16s%2Fg%2F11f3n1vmvl!19sChIJ1cTdi8sGoDkRbWzfctAgjj0?authuser=0&hl=en&rclk=1,"28.359667899999998,79.44251469999999"
GHER WALI MASJID ghyr wly msjd,Mosque,"9C6Q+3X3 GHER WALI MASJID ghyr wly msjd, SHEKHAN MEERA KI PENTH, Nawada, Bareilly, Uttar Pradesh 243005",Nawada,"9C6Q+3X3, SHEKHAN MEERA KI PENTH",Bareilly,243005,Uttar Pradesh,IN,https://www.google.com/maps/place/GHER+WALI+MASJID+%DA%AF%DA%BE%DB%8C%D8%B1+%D9%88%D8%A7%D9%84%DB%8C+%D9%85%D8%B3%D8%AC%D8%AF%E2%80%AD/data=!4m7!3m6!1s0x39a006cc30c397ab:0x7da72c6c543421f4!8m2!3d28.3601339!4d79.4399123!16s%2Fg%2F11c6szt68c!19sChIJq5fDMMwGoDkR9CE0VGwsp30?authuser=0&hl=en&rclk=1,"28.360133899999997,79.4399123"
Gulzar Masjid,Mosque,"9C5W+9G4 Gulzar Masjid, Gulzar Nagar, Bareilly, Uttar Pradesh 243005",Gulzar Nagar,9C5W+9G4,Bareilly,243005,Uttar Pradesh,IN,https://www.google.com/maps/place/Gulzar+Masjid/data=!4m7!3m6!1s0x39a006caf30e840d:0x9a96aa15c6fc78e!8m2!3d28.3583836!4d79.4463347!16s%2Fg%2F11cncrx4r1!19sChIJDYQO88oGoDkRjsdvXKFqqQk?authuser=0&hl=en&rclk=1,"28.3583836,79.4463347"
Gausiya Masjid,Mosque,"9CWW+72X Gausiya Masjid, Bihar Kalan, Bareilly, Uttar Pradesh 243122",Bihar Kalan,9CWW+72X,Bareilly,243122,Uttar Pradesh,IN,https://www.google.com/maps/place/Gausiya+Masjid/data=!4m7!3m6!1s0x39a006f3826f7521:0x98173989515e3a7d!8m2!3d28.3957428!4d79.4450991!16s%2Fg%2F11c31pnr0x!19sChIJIXVvgvMGoDkRfTpeUYk5F5g?authuser=0&hl=en&rclk=1,"28.395742799999997,79.4450991"
Jama Masjid Qila,Mosque,"9C83+G47 Jama Masjid Qila, Jama Masjid Rd, Zakhira, Bareilly, Uttar Pradesh 243003",Zakhira,"9C83+G47, Jama Masjid Rd",Bareilly,243003,Uttar Pradesh,IN,https://www.google.com/maps/place/Jama+Masjid+Qila/data=!4m7!3m6!1s0x39a0073876fe63af:0x1f31d440d66a5bba!8m2!3d28.366276!4d79.4027819!16s%2Fg%2F11fq511n0j!19sChIJr2P-djgHoDkRultq1kDUMR8?authuser=0&hl=en&rclk=1,"28.366276,79.4027819"
6 Minaara Masjid chh mynrh mjd,Mosque,"9C7M+W3G 6 Minaara Masjid chh mynrh mjd, Old City, Bareilly, Haziyapur, Uttar Pradesh 243005",Old City,9C7M+W3G,"Bareilly, Haziyapur",,Uttar Pradesh,IN,https://www.google.com/maps/place/6+Minaara+Masjid+%DA%86%DA%BE+%D9%85%DB%8C%D9%86%D8%B1%DB%81+%D9%85%D8%AC%D8%AF%E2%80%AD/data=!4m7!3m6!1s0x39a006d0eb993bd5:0x72d73ac06f27e76b!8m2!3d28.364808!4d79.4326909!16s%2Fg%2F11c4818j2r!19sChIJ1TuZ69AGoDkRa-cnb8A613I?authuser=0&hl=en&rclk=1,"28.364808,79.4326909"
Imli Wali Masjid mly wly,Mosque,"9C6R+69W Imli Wali Masjid mly wly, Qureshi Nagar, Bareilly, Uttar Pradesh 243005",Qureshi Nagar,9C6R+69W,Bareilly,243005,Uttar Pradesh,IN,https://www.google.com/maps/place/Imli+Wali+Masjid+%D8%A7%D9%85%D9%84%DB%8C+%D9%88%D8%A7%D9%84%DB%8C%E2%80%AD/data=!4m7!3m6!1s0x39a006cc181c0a71:0xa86e54b180fd9727!8m2!3d28.360602!4d79.4409508!16s%2Fg%2F11g698np85!19sChIJcQocGMwGoDkRJ5f9gLFUbqg?authuser=0&hl=en&rclk=1,"28.360602,79.4409508"
Imli Wali Masjid mly wly msjd,Mosque,"9C72+CV9 Imli Wali Masjid mly wly msjd, Zakhira, Bareilly, Uttar Pradesh 243003",Zakhira,9C72+CV9,Bareilly,243003,Uttar Pradesh,IN,https://www.google.com/maps/place/Imli+Wali+Masjid+%D8%A7%D9%85%D9%84%DB%8C+%D9%88%D8%A7%D9%84%DB%8C+%D9%85%D8%B3%D8%AC%D8%AF%E2%80%AD/data=!4m7!3m6!1s0x39a00747e022c6ed:0x4407d7a2742347ee!8m2!3d28.3635482!4d79.402232!16s%2Fg%2F11c2jm3jw2!19sChIJ7cYi4EcHoDkR7kcjdKLXB0Q?authuser=0&hl=en&rclk=1,"28.3635482,79.402232"
Barkati Jama Masjid,Mosque,"CC6P+X8C Barkati Jama Masjid, Gayatri Nagar, Kurmanchal Nagar, Bareilly, Uttar Pradesh 243122","Gayatri Nagar, Kurmanchal Nagar",CC6P+X8C,Bareilly,243122,Uttar Pradesh,IN,https://www.google.com/maps/place/Barkati+Jama+Masjid/data=!4m7!3m6!1s0x39a006501b72106f:0x640d6033a444e4d2!8m2!3d28.4124311!4d79.4357696!16s%2Fg%2F11c5s87cll!19sChIJbxByG1AGoDkR0uREpDNgDWQ?authuser=0&hl=en&rclk=1,"28.4124311,79.4357696"
Badi Masjid,Mosque,"9C5R+C77 Badi Masjid, Gulzar Nagar, Bareilly, Uttar Pradesh 243005",Gulzar Nagar,9C5R+C77,Bareilly,243005,Uttar Pradesh,IN,https://www.google.com/maps/place/Badi+Masjid/data=!4m7!3m6!1s0x39a006cc5fa1caf3:0x4d40cc1fe40e44f5!8m2!3d28.358525!4d79.4406594!16s%2Fg%2F11fy46_mrz!19sChIJ88qhX8wGoDkR9UQO5B_MQE0?authuser=0&hl=en&rclk=1,"28.358525,79.4406594"
Badi Masjid bdrlslm nwry,Mosque,"9CM6+3QJ Badi Masjid bdrlslm nwry, chawni ashraf khan, Izatnagar, Bareilly, Uttar Pradesh 243122","Shastri Nagar, Izatnagar","9CM6+3QJ, chawni ashraf khan",Bareilly,243122,Uttar Pradesh,IN,https://www.google.com/maps/place/Badi+Masjid+%D8%A8%D8%AF%D8%B1%D8%A7%D9%84%D8%A7%D8%B3%D9%84%D8%A7%D9%85+%D9%86%D9%88%D8%B1%DB%8C%E2%80%AD/data=!4m7!3m6!1s0x39a00710d032841d:0x84f298a6418ba842!8m2!3d28.3827175!4d79.4119018!16s%2Fg%2F11f2wf7msh!19sChIJHYQy0BAHoDkRQqiLQaaY8oQ?authuser=0&hl=en&rclk=1,"28.3827175,79.4119018"
Kareem Masjid Neem Ke Paas Ezaz Nagar Bareilly,Mosque,"9C9X+V97 Kareem Masjid Neem Ke Paas Ezaz Nagar Bareilly, Mustafa Munzil Ajaz Nagar, Bareilly, Uttar Pradesh 243005",Mustafa Munzil Ajaz Nagar,9C9X+V97,Bareilly,243005,Uttar Pradesh,IN,https://www.google.com/maps/place/Kareem+Masjid+Neem+Ke+Paas+Ezaz+Nagar+Bareilly/data=!4m7!3m6!1s0x39a006b79f1d38e5:0x6cff431a79acf3bc!8m2!3d28.3696719!4d79.4484292!16s%2Fg%2F11dx93ldq2!19sChIJ5Tgdn7cGoDkRvPOseRpD_2w?authuser=0&hl=en&rclk=1,"28.3696719,79.44842919999999"
Ghousiya Masjid Gwthyh msjd,Mosque,"9C8P+5FG Ghousiya Masjid Gwthyh msjd, Rohili Tola, Old City, Bareilly, Uttar Pradesh 243005",Old City,"9C8P+5FG, Rohili Tola","Bareilly, Haziyapur",243005,Uttar Pradesh,IN,https://www.google.com/maps/place/Ghousiya+Masjid+%D8%BA%D9%88%D8%AB%DB%8C%DB%81+%D9%85%D8%B3%D8%AC%D8%AF%E2%80%AD/data=!4m7!3m6!1s0x39a006d018e0bb2d:0xa1c0acee278b53d8!8m2!3d28.365449!4d79.43619!16s%2Fg%2F11c0rmw1d1!19sChIJLbvgGNAGoDkR2FOLJ-6swKE?authuser=0&hl=en&rclk=1,"28.365448999999998,79.43619"
"Masjid Khan Bahadur, Bhoor, Barerilly msjd khn bhdr",Mosque,"Masjid Khan Bahadur, Bhoor, Barerilly msjd khn bhdr, masjid near Barahdwari, Rasalganj Road, Sarai Hakeem, Brahampura, Aligarh, Bareilly, Uttar Pradesh 202001","Sarai Hakeem, Brahampura","masjid near Barahdwari, Rasalganj Road","Aligarh, Bareilly",202001,Uttar Pradesh,IN,"https://www.google.com/maps/place/Masjid+Khan+Bahadur,+Bhoor,+Barerilly+%D9%85%D8%B3%D8%AC%D8%AF+%D8%AE%D8%A7%D9%86+%D8%A8%DB%81%D8%A7%D8%AF%D8%B1%E2%80%AD/data=!4m7!3m6!1s0x39a0072385ff6dd9:0xfc676d71ea093ce7!8m2!3d28.3714334!4d79.417635!16s%2Fg%2F11cspbg7q5!19sChIJ2W3_hSMHoDkR5zwJ6nFtZ_w?authuser=0&hl=en&rclk=1","28.371433399999997,79.41763499999999"
Dawat-E-Tableegh Markaz Khirni Wali Masjid,Mosque,"9C69+PX8 Dawat-E-Tableegh Markaz Khirni Wali Masjid, Azam Nagar, Gangapur, Bareilly, Uttar Pradesh 243001","Azam Nagar, Gangapur",9C69+PX8,Bareilly,243001,Uttar Pradesh,IN,https://www.google.com/maps/place/Dawat-E-Tableegh+Markaz+Khirni+Wali+Masjid/data=!4m7!3m6!1s0x39a007293235ec59:0x54f111e000f3519c!8m2!3d28.3617824!4d79.4199681!16s%2Fg%2F11cjkw706p!19sChIJWew1MikHoDkRnFHzAOAR8VQ?authuser=0&hl=en&rclk=1,"28.3617824,79.41996809999999"
Gareeb Nawaz Masjid Gryb nwz msjd,Mosque,"9F82+CJR Gareeb Nawaz Masjid Gryb nwz msjd, ejaj, Mustafa Munzil Ajaz Nagar, Bareilly, Uttar Pradesh 243005","Ezaz Nagar, Mustafa Munzil Ajaz Nagar","9F82+CJR, ejaj",Bareilly,243005,Uttar Pradesh,IN,https://www.google.com/maps/place/Gareeb+Nawaz+Masjid+%D8%BA%D8%B1%DB%8C%D8%A8+%D9%86%D9%88%D8%A7%D8%B2+%D9%85%D8%B3%D8%AC%D8%AF%E2%80%AD/data=!4m7!3m6!1s0x39a006b712237263:0xb0314366b8247bd2!8m2!3d28.3661001!4d79.4515067!16s%2Fg%2F11ddyd51rr!19sChIJY3IjErcGoDkR0nskuGZDMbA?authuser=0&hl=en&rclk=1,"28.366100099999997,79.4515067"
Al Mustafa Masjid,Mosque,"9CX6+HGP Al Mustafa Masjid, rahpura chaudhary, Izatnagar, Bareilly, Uttar Pradesh 243122",Izatnagar,"9CX6+HGP, rahpura chaudhary",Bareilly,243122,Uttar Pradesh,IN,https://www.google.com/maps/place/Al+Mustafa+Masjid/data=!4m7!3m6!1s0x39a00709d32aef43:0x5f2d555d3999dcfd!8m2!3d28.3989535!4d79.4113406!16s%2Fg%2F1pyqg0tdl!19sChIJQ-8q0wkHoDkR_dyZOV1VLV8?authuser=0&hl=en&rclk=1,"28.398953499999998,79.4113406"
Shia Jama Masjid,Mosque,"9C84+J2H Shia Jama Masjid, Barzi Chowk Road, Bari Bamanpuri, Zakhira, Bareilly, Uttar Pradesh 243003","Bari Bamanpuri, Zakhira","9C84+J2H, Barzi Chowk Road",Bareilly,243003,Uttar Pradesh,IN,https://www.google.com/maps/place/Shia+Jama+Masjid/data=!4m7!3m6!1s0x39a0073860d81777:0xdbda90e597e2ec6c!8m2!3d28.3665593!4d79.4051192!16s%2Fg%2F1pyqjblrv!19sChIJdxfYYDgHoDkRbOzil-WQ2ts?authuser=0&hl=en&rclk=1,"28.3665593,79.4051192"
Talab wali masjid sahaswani tola,Mosque,"9C6V+692 Talab wali masjid sahaswani tola, Unnamed Road, Qureshi Nagar, Bareilly, Uttar Pradesh 243005",Qureshi Nagar,"9C6V+692, Unnamed Road",Bareilly,243005,Uttar Pradesh,IN,https://www.google.com/maps/place/Talab+wali+masjid+sahaswani+tola/data=!4m7!3m6!1s0x39a007b1d438e7ef:0x46df38de9c79ebc9!8m2!3d28.3605174!4d79.4433913!16s%2Fg%2F11fgk12w4f!19sChIJ7-c41LEHoDkRyet5nN4430Y?authuser=0&hl=en&rclk=1,"28.3605174,79.4433913"
Surma Wali Masjid srm wly msjd,Mosque,"9C85+J5R Surma Wali Masjid srm wly msjd, sahukara, Bareilly, Uttar Pradesh 243003",sahukara,9C85+J5R,Bareilly,243003,Uttar Pradesh,IN,https://www.google.com/maps/place/Surma+Wali+Masjid+%D8%B3%D8%B1%D9%85%D8%A7+%D9%88%D8%A7%D9%84%DB%8C+%D9%85%D8%B3%D8%AC%D8%AF%E2%80%AD/data=!4m7!3m6!1s0x39a007398f960657:0xe7b91b6ede47ad28!8m2!3d28.3666065!4d79.4079029!16s%2Fg%2F1pyqr22gm!19sChIJVwaWjzkHoDkRKK1H3m4buec?authuser=0&hl=en&rclk=1,"28.3666065,79.4079029"
Masjid Bhatiyaro Wali bhttyrwN wly msjd,Mosque,"9C8M+MFP Masjid Bhatiyaro Wali bhttyrwN wly msjd, Haziyapur, Uttar Pradesh 243005",,9C8M+MFP,Haziyapur,243005,Uttar Pradesh,IN,https://www.google.com/maps/place/Masjid+Bhatiyaro+Wali+%D8%A8%DA%BE%D9%B9%DB%8C%D8%A7%D8%B1%D9%88%DA%BA+%D9%88%D8%A7%D9%84%DB%8C+%D9%85%D8%B3%D8%AC%D8%AF%E2%80%AD/data=!4m7!3m6!1s0x39a006da7fb24ac5:0x3ba0b8249220e3ce!8m2!3d28.3667009!4d79.4336977!16s%2Fg%2F11g6vghf4r!19sChIJxUqyf9oGoDkRzuMgkiS4oDs?authuser=0&hl=en&rclk=1,"28.366700899999998,79.4336977"
Noori Masjid nwry msjd,Mosque,"CC36+JG8 Noori Masjid nwry msjd, Noori Masjid St., Partapur Chaudhary, Ram Nagar Colony, Bareilly, Uttar Pradesh 243122","Partapur Chaudhary, Ram Nagar Colony","CC36+JG8, Noori Masjid St.",Bareilly,243122,Uttar Pradesh,IN,https://www.google.com/maps/place/Noori+Masjid+%D9%86%D9%88%D8%B1%DB%8C+%D9%85%D8%B3%D8%AC%D8%AF%E2%80%AD/data=!4m7!3m6!1s0x39a007a6602c1747:0xacbfe390c2a4f7d4!8m2!3d28.4040352!4d79.4113227!16s%2Fg%2F11b5phwp5q!19sChIJRxcsYKYHoDkR1PekwpDjv6w?authuser=0&hl=en&rclk=1,"28.4040352,79.4113227"
Sabri Masjid Aijaj Nagar Bareilly,Mosque,"9C8W+CHQ Sabri Masjid Aijaj Nagar Bareilly, Bidhouliya, Bareilly, Uttar Pradesh 243005",Bidhouliya,9C8W+CHQ,Bareilly,243005,Uttar Pradesh,IN,https://www.google.com/maps/place/Sabri+Masjid+Aijaj+Nagar+Bareilly/data=!4m7!3m6!1s0x39a006c840000001:0x92241c73a6d43e41!8m2!3d28.3660892!4d79.4464792!16s%2Fg%2F11dx9h61d6!19sChIJAQAAQMgGoDkRQT7UpnMcJJI?authuser=0&hl=en&rclk=1,"28.366089199999998,79.4464792"
Purani Masjid prny msjd,Mosque,"CC25+3FC Purani Masjid prny msjd, Izatnagar, Ram Nagar Colony, Bareilly, Uttar Pradesh 243122",Ram Nagar Colony,"CC25+3FC, Izatnagar",Bareilly,243122,Uttar Pradesh,IN,https://www.google.com/maps/place/Purani+Masjid+%D9%BE%D8%B1%D8%A7%D9%86%DB%8C+%D9%85%D8%B3%D8%AC%D8%AF%E2%80%AD/data=!4m7!3m6!1s0x39a007a74ceb9001:0xce1dd09520935c42!8m2!3d28.4001822!4d79.4086496!16s%2Fg%2F1pyqv151j!19sChIJAZDrTKcHoDkRQlyTIJXQHc4?authuser=0&hl=en&rclk=1,"28.4001822,79.40864959999999"
Rahat Masjid,Mosque,"Rahat Masjid, 22, Veer Savarkar Nagar, Gaganvihar Colony, Veer Savarkar Nagar, Bareilly, Uttar Pradesh 243122","Gaganvihar Colony, Veer Savarkar Nagar","22, Veer Savarkar Nagar",Bareilly,243122,Uttar Pradesh,IN,https://www.google.com/maps/place/Rahat+Masjid/data=!4m7!3m6!1s0x39a006ed662abbd3:0xc80ebd7598e2f170!8m2!3d28.3901326!4d79.446756!16s%2Fg%2F1pyqf050m!19sChIJ07sqZu0GoDkRcPHimHW9Dsg?authuser=0&hl=en&rclk=1,"28.390132599999998,79.446756"
Chhoti Masjid chhwtty msjd,Mosque,"9CM7+8HR Chhoti Masjid chhwtty msjd, Shastri Nagar, Izatnagar, Bareilly, Uttar Pradesh 243122","Shastri Nagar, Izatnagar",9CM7+8HR,Bareilly,243122,Uttar Pradesh,IN,https://www.google.com/maps/place/Chhoti+Masjid+%DA%86%DA%BE%D9%88%D9%B9%DB%8C+%D9%85%D8%B3%D8%AC%D8%AF%E2%80%AD/data=!4m7!3m6!1s0x39a00710a47e778b:0x43ec9f94fde46578!8m2!3d28.3833662!4d79.413905!16s%2Fg%2F11c85c02z9!19sChIJi3d-pBAHoDkReGXk_ZSf7EM?authuser=0&hl=en&rclk=1,"28.383366199999998,79.413905"
Taad Wali Masjid msjd trr wly,Mosque,"9C5P+Q29 Taad Wali Masjid msjd trr wly, Sailani Market Rd, Old City, Sindhu Nagar, Bareilly, Uttar Pradesh 243005","Old City, Sindhu Nagar","9C5P+Q29, Sailani Market Rd",Bareilly,243005,Uttar Pradesh,IN,https://www.google.com/maps/place/Taad+Wali+Masjid+%D9%85%D8%B3%D8%AC%D8%AF+%D8%AA%D8%A7%DA%91+%D9%88%D8%A7%D9%84%DB%8C%E2%80%AD/data=!4m7!3m6!1s0x39a006d240757e65:0xc99f9cb3ef07ecdf!8m2!3d28.3594171!4d79.4351239!16s%2Fg%2F11c0vyby1p!19sChIJZX51QNIGoDkR3-wH77Ocn8k?authuser=0&hl=en&rclk=1,"28.359417099999998,79.4351239"
Islamia Masjid Chappar Wali,Mosque,"9C8X+X3M Islamia Masjid Chappar Wali, Sabri Masjid Rd, Near, Mustafa Munzil Ajaz Nagar, Bareilly, Uttar Pradesh 243006","Near, Mustafa Munzil Ajaz Nagar","9C8X+X3M, Sabri Masjid Rd",Bareilly,243006,Uttar Pradesh,IN,https://www.google.com/maps/place/Islamia+Masjid+Chappar+Wali/data=!4m7!3m6!1s0x39a006c80101c9cb:0x3ab6e7a1987184a7!8m2!3d28.3674511!4d79.447685!16s%2Fg%2F11hcdst6hj!19sChIJy8kBAcgGoDkRp4RxmKHntjo?authuser=0&hl=en&rclk=1,"28.3674511,79.44768499999999"
Jhande Wali Masjid jhnddy wly msjd,Mosque,"9C6Q+JC7 Jhande Wali Masjid jhnddy wly msjd, Old City, Qureshi Nagar, Bareilly, Uttar Pradesh 243005","Old City, Qureshi Nagar",9C6Q+JC7,Bareilly,,Uttar Pradesh,IN,https://www.google.com/maps/place/Jhande+Wali+Masjid+%D8%AC%DA%BE%D9%86%DA%88%DB%92+%D9%88%D8%A7%D9%84%DB%8C+%D9%85%D8%B3%D8%AC%D8%AF%E2%80%AD/data=!4m7!3m6!1s0x39a006ce71292859:0xc817d83ed603aa99!8m2!3d28.361534!4d79.438547!16s%2Fg%2F11c0xn1wsg!19sChIJWSgpcc4GoDkRmaoD1j7YF8g?authuser=0&hl=en&rclk=1,"28.361534,79.438547"
"Noori Masjid, Garhia",Mosque,"9C74+QV3 Noori Masjid, Garhia, Zakhira, Bareilly, Uttar Pradesh 243003",Zakhira,9C74+QV3,Bareilly,243003,Uttar Pradesh,IN,"https://www.google.com/maps/place/Noori+Masjid,+Garhia/data=!4m7!3m6!1s0x39a007375fa8f7e1:0xe06fb7e9595775d0!8m2!3d28.3643765!4d79.4071842!16s%2Fg%2F11ddzvyck_!19sChIJ4feoXzcHoDkR0HVXWem3b-A?authuser=0&hl=en&rclk=1","28.3643765,79.4071842"
Naal Bando Wali Masjid nl bndwN wly msjd,Mosque,"9C7Q+7M8 Naal Bando Wali Masjid nl bndwN wly msjd, Old City, Qureshi Nagar, Bareilly, Uttar Pradesh 243005","Old City, Qureshi Nagar",9C7Q+7M8,Bareilly,,Uttar Pradesh,IN,https://www.google.com/maps/place/Naal+Bando+Wali+Masjid+%D9%86%D8%A7%D9%84+%D8%A8%D9%86%D8%AF%D9%88%DA%BA+%D9%88%D8%A7%D9%84%DB%8C+%D9%85%D8%B3%D8%AC%D8%AF%E2%80%AD/data=!4m7!3m6!1s0x39a006ce590b968b:0xe024102443ce3773!8m2!3d28.363158!4d79.4391969!16s%2Fg%2F11cp7dvmyq!19sChIJi5YLWc4GoDkRczfOQyQQJOA?authuser=0&hl=en&rclk=1,"28.363158,79.4391969"
Gadi Masjid,Mosque,"9CC4+FWV Gadi Masjid, Gulab Nagar, Bareilly, Uttar Pradesh 243003",Gulab Nagar,9CC4+FWV,Bareilly,243003,Uttar Pradesh,IN,https://www.google.com/maps/place/Gadi+Masjid/data=!4m7!3m6!1s0x39a0073ebf5e45b3:0x18f67d39d587271e!8m2!3d28.3712449!4d79.4072887!16s%2Fg%2F1pyqg6t3q!19sChIJs0Vevz4HoDkRHieH1Tl99hg?authuser=0&hl=en&rclk=1,"28.371244899999997,79.4072887"
Chaand Masjid chnd msjd,Mosque,"9C82+65R Chaand Masjid chnd msjd, Zakhira, Bareilly, Uttar Pradesh 243003",Zakhira,9C82+65R,Bareilly,243003,Uttar Pradesh,IN,https://www.google.com/maps/place/Chaand+Masjid+%DA%86%D8%A7%D9%86%D8%AF+%D9%85%D8%B3%D8%AC%D8%AF%E2%80%AD/data=!4m7!3m6!1s0x39a00747b4281f39:0x486bca23ca6f823!8m2!3d28.3656!4d79.4004!16s%2Fg%2F1pyqhn7fj!19sChIJOR8otEcHoDkRI_imPKK8hgQ?authuser=0&hl=en&rclk=1,"28.365599999999997,79.40039999999999"
Mustafa Masjid mSfy msjd,Mosque,"997V+G43 Mustafa Masjid mSfy msjd, Prem Nagar, Bareilly, Uttar Pradesh 243502",Prem Nagar,997V+G43,Bareilly,243502,Uttar Pradesh,IN,https://www.google.com/maps/place/Mustafa+Masjid+%D9%85%D8%B5%D9%81%DB%92%D9%B0+%D9%85%D8%B3%D8%AC%D8%AF%E2%80%AD/data=!4m7!3m6!1s0x39a007455e98b941:0xce7d46bfb5ed4899!8m2!3d28.363758!4d79.392805!16s%2Fg%2F1pyqpctyp!19sChIJQbmYXkUHoDkRmUjttb9Gfc4?authuser=0&hl=en&rclk=1,"28.363757999999997,79.392805"
Chirag Ali Shah Masjid,Mosque,"9C7M+QF4 Chirag Ali Shah Masjid, Mokat, Old City, Qureshi Nagar, Bareilly, Haziyapur, Uttar Pradesh 243005","Old City, Qureshi Nagar",9C7M+QF4 Mokat,"Bareilly, Haziyapur",,Uttar Pradesh,IN,https://www.google.com/maps/place/Chirag+Ali+Shah+Masjid/data=!4m7!3m6!1s0x39a006d0f78ebb27:0xcd5ebec31c726bfa!8m2!3d28.364398!4d79.433706!16s%2Fg%2F11c482x4hc!19sChIJJ7uO99AGoDkR-mtyHMO-Xs0?authuser=0&hl=en&rclk=1,"28.364397999999998,79.433706"
Bilal Masjid bll msjd,Mosque,"Bilal Masjid bll msjd, Jogi Navada, Bareilly, Uttar Pradesh 243005",Jogi Navada,,Bareilly,243005,Uttar Pradesh,IN,https://www.google.com/maps/place/Bilal+Masjid+%D8%A8%D9%84%D8%A7%D9%84+%D9%85%D8%B3%D8%AC%D8%AF%E2%80%AD/data=!4m7!3m6!1s0x39a006c6d9f4a7db:0x3c01f22fdcc39d62!8m2!3d28.3722998!4d79.4446582!16s%2Fg%2F11gb40hhm0!19sChIJ26f02cYGoDkRYp3D3C_yATw?authuser=0&hl=en&rclk=1,"28.3722998,79.44465819999999"
Masjid Hari Minar,Mosque,"998X+CG6 Masjid Hari Minar, Katghar, Bareilly, Uttar Pradesh 243502",Katghar,998X+CG6,Bareilly,243502,Uttar Pradesh,IN,https://www.google.com/maps/place/Masjid+Hari+Minar/data=!4m7!3m6!1s0x39a007465d35ab97:0x72ccaad71d5dfa17!8m2!3d28.36604!4d79.398764!16s%2Fg%2F1pyqgcg4w!19sChIJl6s1XUYHoDkRF_pdHdeqzHI?authuser=0&hl=en&rclk=1,"28.366039999999998,79.398764"
2 MINARA MASJID dw mynrh msjd,Mosque,"9C8X+QPH 2 MINARA MASJID dw mynrh msjd, Ezaz Nagar, Mustafa Munzil Ajaz Nagar, Bareilly, Uttar Pradesh 243005","Ezaz Nagar, Mustafa Munzil Ajaz Nagar",9C8X+QPH,Bareilly,243005,Uttar Pradesh,IN,https://www.google.com/maps/place/2+MINARA+MASJID+%D8%AF%D9%88+%D9%85%DB%8C%D9%86%D8%A7%D8%B1%DB%81+%D9%85%D8%B3%D8%AC%D8%AF%E2%80%AD/data=!4m7!3m6!1s0x39a0073787dc8929:0x4865acec90b824c5!8m2!3d28.3669306!4d79.4493706!16s%2Fg%2F11f9z64hr_!19sChIJKYnchzcHoDkRxSS4kOysZUg?authuser=0&hl=en&rclk=1,"28.3669306,79.4493706"
Gosia Masjid,Mosque,"CF54+MRC Gosia Masjid, N H 74, Peer Bahora, Sun City Vistaar, Bareilly, Uttar Pradesh 243122","Peer Bahora, Sun City Vistaar","CF54+MRC, N H 74",Bareilly,243122,Uttar Pradesh,IN,https://www.google.com/maps/place/Gosia+Masjid/data=!4m7!3m6!1s0x39a006649ca3383d:0x2792d39a6c033d71!8m2!3d28.4091815!4d79.4570096!16s%2Fg%2F1pyqsj062!19sChIJPTijnGQGoDkRcT0DbJrTkic?authuser=0&hl=en&rclk=1,"28.4091815,79.45700959999999"
Noori Masjid nwrysjd,Mosque,"Noori Masjid nwrysjd, Pilibhit Bypass Rd, Gardan City, Bareilly, Uttar Pradesh 243005",Gardan City,Pilibhit Bypass Rd,Bareilly,243005,Uttar Pradesh,IN,https://www.google.com/maps/place/Noori+Masjid+%D9%86%D9%88%D8%B1%DB%8C%D8%B3%D8%AC%D8%AF%E2%80%AD/data=!4m7!3m6!1s0x39a006b3f318346b:0x4b32367933e0462f!8m2!3d28.361!4d79.4539999!16s%2Fg%2F1pyqfqj2g!19sChIJazQY87MGoDkRL0bgM3k2Mks?authuser=0&hl=en&rclk=1,"28.360999999999997,79.4539999"
Jama Masjid jm` msjd,Mosque,"C93X+5QP Jama Masjid jm` msjd, Govindpur, Bareilly, Uttar Pradesh 243502",Govindpur,C93X+5QP,Bareilly,243502,Uttar Pradesh,IN,https://www.google.com/maps/place/Jama+Masjid+%D8%AC%D8%A7%D9%85%D8%B9+%D9%85%D8%B3%D8%AC%D8%AF%E2%80%AD/data=!4m7!3m6!1s0x39a0079edd753e2d:0xe3f0f998debcc2c6!8m2!3d28.4029564!4d79.3994675!16s%2Fg%2F11c30vzwhk!19sChIJLT513Z4HoDkRxsK83pj58OM?authuser=0&hl=en&rclk=1,"28.402956399999997,79.3994675"
Mosque,Mosque,"9CHG+QFR Mosque, Janakpuri, Bareilly, Uttar Pradesh 243003",Janakpuri,9CHG+QFR,Bareilly,243003,Uttar Pradesh,IN,https://www.google.com/maps/place/Mosque/data=!4m7!3m6!1s0x39a006e03adee9f1:0x21c9688d1cc3c22b!8m2!3d28.3794979!4d79.4261527!16s%2Fg%2F1w0p40v4!19sChIJ8eneOuAGoDkRK8LDHI1oySE?authuser=0&hl=en&rclk=1,"28.379497899999997,79.4261527"
Noorani Masjid,Mosque,"9FX2+922 Noorani Masjid, Bihar Mannagla Khand, Bareilly",North City Extension,"9FX2+922, Bihar Mannagla Khand",Bareilly,,Uttar Pradesh,IN,https://www.google.com/maps/place/Noorani+Masjid/data=!4m7!3m6!1s0x39a0068b0ded8acf:0x221c90a29ddaf667!8m2!3d28.3983964!4d79.4500285!16s%2Fg%2F11f558486t!19sChIJz4rtDYsGoDkRZ_banaKQHCI?authuser=0&hl=en&rclk=1,"28.3983964,79.4500285"
Masjid Hanfiya Gausiya ( Jama Masjid ),Mosque,"Masjid Hanfiya Gausiya ( Jama Masjid ), 20, Bareilly - Badaun Rd Mahaveer City Colony, Bareilly - Badaun Rd, Mahaveer City Colony, BDA Colony, Bareilly, Kargaina, Uttar Pradesh 243001","Mahaveer City Colony, BDA Colony","20, Bareilly - Badaun Rd Mahaveer City Colony, Bareilly - Badaun Rd","Bareilly, Kargaina",243001,Uttar Pradesh,IN,https://www.google.com/maps/place/Masjid+Hanfiya+Gausiya+%28+Jama+Masjid+%29/data=!4m7!3m6!1s0x39a000973c88cac3:0x4f92640d1628f2a6!8m2!3d28.3240576!4d79.393591!16s%2Fg%2F11g6qg9_t6!19sChIJw8qIPJcAoDkRpvIoFg1kkk8?authuser=0&hl=en&rclk=1,"28.3240576,79.393591"
Quadri Masjid qdry msjd,Mosque,"CC27+JGV Quadri Masjid qdry msjd, PARTAPUR CHAUDHRY, Bareilly, Uttar Pradesh 243122",Ram Nagar Colony,"CC27+JGV, PARTAPUR CHAUDHRY",Bareilly,243122,Uttar Pradesh,IN,https://www.google.com/maps/place/Quadri+Masjid+%D9%82%D8%A7%D8%AF%D8%B1%DB%8C+%D9%85%D8%B3%D8%AC%D8%AF%E2%80%AD/data=!4m7!3m6!1s0x39a007a7d95b87dd:0x2dbb7653feb96da3!8m2!3d28.4016216!4d79.4138101!16s%2Fg%2F1pyqlpv3s!19sChIJ3Ydb2acHoDkRo225_lN2uy0?authuser=0&hl=en&rclk=1,"28.4016216,79.41381009999999"
Masjid Abu Bakr msjd bw bkhr,Mosque,"9C6M+MVX Masjid Abu Bakr msjd bw bkhr, Qureshi Nagar, Bareilly, Haziyapur, Uttar Pradesh 243005",Qureshi Nagar,9C6M+MVX,"Bareilly, Haziyapur",243005,Uttar Pradesh,IN,https://www.google.com/maps/place/Masjid+Abu+Bakr+%D9%85%D8%B3%D8%AC%D8%AF+%D8%A7%D8%A8%D9%88+%D8%A8%DA%A9%D8%B1%E2%80%AD/data=!4m7!3m6!1s0x39a006d191aa7fa5:0xc5327bd1199ac85a!8m2!3d28.3617337!4d79.434733!16s%2Fg%2F11g86mrs0_!19sChIJpX-qkdEGoDkRWsiaGdF7MsU?authuser=0&hl=en&rclk=1,"28.3617337,79.434733"
Masjid Haji Kale Khan msjd Hjy khlykhn,Mosque,"9C5P+F95 Masjid Haji Kale Khan msjd Hjy khlykhn, Sindhu Nagar, Bareilly, Uttar Pradesh 243005",Sindhu Nagar,9C5P+F95,Bareilly,243005,Uttar Pradesh,IN,https://www.google.com/maps/place/Masjid+Haji+Kale+Khan+%D9%85%D8%B3%D8%AC%D8%AF+%D8%AD%D8%A7%D8%AC%DB%8C+%DA%A9%D8%A7%D9%84%DB%92%D8%AE%D8%A7%D9%86%E2%80%AD/data=!4m7!3m6!1s0x39a006d27afdaaad:0xe55ef46b79b16577!8m2!3d28.3586357!4d79.4359992!16s%2Fg%2F11cp5rcfr7!19sChIJrar9etIGoDkRd2WxeWv0XuU?authuser=0&hl=en&rclk=1,"28.358635699999997,79.4359992"
Noorani Masjid nwrny msjd,Mosque,"9C8J+8XX Noorani Masjid nwrny msjd, kankar Tala, Old City, Bareilly, Uttar Pradesh 243005",Old City,"9C8J+8XX, kankar Tala","Bareilly, Haziyapur",243005,Uttar Pradesh,IN,https://www.google.com/maps/place/Noorani+Masjid+%D9%86%D9%88%D8%B1%D8%A7%D9%86%DB%8C+%D9%85%D8%B3%D8%AC%D8%AF%E2%80%AD/data=!4m7!3m6!1s0x39a006d0989a62cb:0x8da86a9b6dd89d7e!8m2!3d28.3658748!4d79.4324737!16s%2Fg%2F11c483fpjq!19sChIJy2KamNAGoDkRfp3YbZtqqI0?authuser=0&hl=en&rclk=1,"28.3658748,79.4324737"
Masjid Umar msjd `mr,Mosque,"9C7C+FWV Masjid Umar msjd `mr, Kuppe Waalaan,, Alamgiri Ganj, Bareilly, Uttar Pradesh 243005",Alamgiri Ganj,"9C7C+FWV, Kuppe Waalaan,",Bareilly,243005,Uttar Pradesh,IN,https://www.google.com/maps/place/Masjid+Umar+%D9%85%D8%B3%D8%AC%D8%AF+%D8%B9%D9%85%D8%B1%E2%80%AD/data=!4m7!3m6!1s0x39a00728f6c16b51:0x3617894150dde403!8m2!3d28.3637344!4d79.4222846!16s%2Fg%2F11bw65tfr7!19sChIJUWvB9igHoDkRA-TdUEGJFzY?authuser=0&hl=en&rclk=1,"28.3637344,79.4222846"
Jama Masjid Saniya Rani Mewa Juwar C.b.Ganj Bareilly,Mosque,"Jama Masjid Saniya Rani Mewa Juwar C.b.Ganj Bareilly, Unnamed Road, 243502, Bareilly, Uttar Pradesh",,"Unnamed Road, 243502",Bareilly,,Uttar Pradesh,IN,https://www.google.com/maps/place/Jama+Masjid+Saniya+Rani+Mewa+Juwar+C.b.Ganj+Bareilly/data=!4m7!3m6!1s0x39a00789533e2857:0x3a9d27274905620b!8m2!3d28.4142771!4d79.3858705!16s%2Fg%2F11f3btvh06!19sChIJVyg-U4kHoDkRC2IFSScnnTo?authuser=0&hl=en&rclk=1,"28.4142771,79.3858705"
Bari Masjid,Mosque,"9CH2+P74 Bari Masjid, Gangawar Colony, Izatnagar, Bareilly, Uttar Pradesh 243502","Gangawar Colony, Izatnagar",9CH2+P74,Bareilly,243502,Uttar Pradesh,IN,https://www.google.com/maps/place/Bari+Masjid/data=!4m7!3m6!1s0x39a0076b0fbeeb65:0x2de619a61db651a6!8m2!3d28.3792591!4d79.400695!16s%2Fg%2F1pyqsg34v!19sChIJZeu-D2sHoDkRplG2HaYZ5i0?authuser=0&hl=en&rclk=1,"28.3792591,79.400695"
Muhammedi Masjid mHmdy msjd,Mosque,"Muhammedi Masjid mHmdy msjd, basnt vehar colony Rehpura Choudhary, Izatnagar, Bareilly, Uttar Pradesh 243122","Basant Vihar Colony, Izatnagar",basnt vehar colony Rehpura Choudhary,Bareilly,243122,Uttar Pradesh,IN,https://www.google.com/maps/place/Muhammedi+Masjid+%D9%85%D8%AD%D9%85%D8%AF%DB%8C+%D9%85%D8%B3%D8%AC%D8%AF%E2%80%AD/data=!4m7!3m6!1s0x39a0070857155a5b:0x2d2d3261e81b409f!8m2!3d28.3968819!4d79.4117118!16s%2Fg%2F11f4prjf4n!19sChIJW1oVVwgHoDkRn0Ab6GEyLS0?authuser=0&hl=en&rclk=1,"28.3968819,79.41171179999999"
Madrase Wali Masjid mdrsy wly msjd,Mosque,"9CFV+4RP Madrase Wali Masjid mdrsy wly msjd, Old City, Jogi Navada, Bareilly, Uttar Pradesh 243006","Old City, Jogi Navada",9CFV+4RP,Bareilly,243006,Uttar Pradesh,IN,https://www.google.com/maps/place/Madrase+Wali+Masjid+%D9%85%D8%AF%D8%B1%D8%B3%DB%92+%D9%88%D8%A7%D9%84%DB%8C+%D9%85%D8%B3%D8%AC%D8%AF%E2%80%AD/data=!4m7!3m6!1s0x39a006c6d3de3635:0x94ea61693db2b04e!8m2!3d28.3728287!4d79.4445809!16s%2Fg%2F11d_8g51n2!19sChIJNTbe08YGoDkRTrCyPWlh6pQ?authuser=0&hl=en&rclk=1,"28.3728287,79.44458089999999"
Raza Masjid,Mosque,"99HP+8XX Raza Masjid, Raza Nagar, Bareilly, Uttar Pradesh 243502",Raza Nagar,99HP+8XX,Bareilly,243502,Uttar Pradesh,IN,https://www.google.com/maps/place/Raza+Masjid/data=!4m7!3m6!1s0x39a00766ef790bf1:0x6f0a0fbb8f0a0ad7!8m2!3d28.3783558!4d79.3874727!16s%2Fg%2F1pyqw8hgp!19sChIJ8Qt572YHoDkR1woKj7sPCm8?authuser=0&hl=en&rclk=1,"28.378355799999998,79.38747269999999"
Sayyado wali noor masjid,Mosque,"9C4M+QQF Sayyado wali noor masjid, Sindhu Nagar, Bareilly, Uttar Pradesh 243005",Sindhu Nagar,9C4M+QQF,Bareilly,243005,Uttar Pradesh,IN,https://www.google.com/maps/place/Sayyado+wali+noor+masjid/data=!4m7!3m6!1s0x39a006d2e5bfb2d5:0x6014efde99ddd434!8m2!3d28.3569497!4d79.4344267!16s%2Fg%2F11hb79r3b9!19sChIJ1bK_5dIGoDkRNNTdmd7vFGA?authuser=0&hl=en&rclk=1,"28.356949699999998,79.4344267"
Hari Masjid Basti Wali hry msjd bsty wly,Mosque,"997V+WQF Hari Masjid Basti Wali hry msjd bsty wly, Baqarganj, Bareilly, Uttar Pradesh 243502",Baqarganj,997V+WQF,Bareilly,243502,Uttar Pradesh,IN,https://www.google.com/maps/place/Hari+Masjid+Basti+Wali+%DB%81%D8%B1%DB%8C+%D9%85%D8%B3%D8%AC%D8%AF+%D8%A8%D8%B3%D8%AA%DB%8C+%D9%88%D8%A7%D9%84%DB%8C%E2%80%AD/data=!4m7!3m6!1s0x39a007459fd6101d:0x25ad5a9dd2e546b3!8m2!3d28.3648149!4d79.3944335!16s%2Fg%2F11c6cch2fg!19sChIJHRDWn0UHoDkRs0bl0p1arSU?authuser=0&hl=en&rclk=1,"28.3648149,79.39443349999999"
Budh Wali Masjid bdh wly msjd,Mosque,"Budh Wali Masjid bdh wly msjd, Old City, Qureshi Nagar, Bareilly, Uttar Pradesh 243005","Old City, Qureshi Nagar",,Bareilly,243005,Uttar Pradesh,IN,https://www.google.com/maps/place/Budh+Wali+Masjid+%D8%A8%D8%AF%DA%BE+%D9%88%D8%A7%D9%84%DB%8C+%D9%85%D8%B3%D8%AC%D8%AF%E2%80%AD/data=!4m7!3m6!1s0x39a006ce69d12065:0x6841d85c51fdfef1!8m2!3d28.3625489!4d79.4385344!16s%2Fg%2F11cp7fgdp7!19sChIJZSDRac4GoDkR8f79UVzYQWg?authuser=0&hl=en&rclk=1,"28.3625489,79.4385344"
Masjid Ek Minar msjd ykh mynr,Mosque,"9CC7+QFW Masjid Ek Minar msjd ykh mynr, Gulab Nagar, Bareilly, Uttar Pradesh 243003",Gulab Nagar,9CC7+QFW,Bareilly,243003,Uttar Pradesh,IN,https://www.google.com/maps/place/Masjid+Ek+Minar+%D9%85%D8%B3%D8%AC%D8%AF+%D8%A7%DB%8C%DA%A9+%D9%85%DB%8C%D9%86%D8%A7%D8%B1%E2%80%AD/data=!4m7!3m6!1s0x39a0073cb68bcf15:0x50c76380070dcdc7!8m2!3d28.372!4d79.4137!16s%2Fg%2F1pyqj3p0j!19sChIJFc-LtjwHoDkRx80NB4Bjx1A?authuser=0&hl=en&rclk=1,"28.372,79.41369999999999"
JAMA MASJID Cantt jm` msjd khyntt,Mosque,"JAMA MASJID Cantt jm` msjd khyntt, 243001, Sadar Bazar, Sadar Colony, Bareilly, Uttar Pradesh 243001","Sadar Bazar, Sadar Colony",243001,Bareilly,243001,Uttar Pradesh,IN,https://www.google.com/maps/place/JAMA+MASJID+Cantt+%D8%AC%D8%A7%D9%85%D8%B9+%D9%85%D8%B3%D8%AC%D8%AF+%DA%A9%DB%8C%D9%86%D9%B9%E2%80%AD/data=!4m7!3m6!1s0x39a0010576e86d0d:0xdbd87401717e4b42!8m2!3d28.3178639!4d79.4357061!16s%2Fg%2F11cp7r40_7!19sChIJDW3odgUBoDkRQkt-cQF02Ns?authuser=0&hl=en&rclk=1,"28.3178639,79.43570609999999"
Noori Masjid nwry msjd,Mosque,"996R+RR4 Noori Masjid nwry msjd, Bakarganj, Prem Nagar, Uttar Pradesh 243003",Prem Nagar,"996R+RR4, Bakarganj",Bareilly,243003,Uttar Pradesh,IN,https://www.google.com/maps/place/Noori+Masjid+%D9%86%D9%88%D8%B1%DB%8C+%D9%85%D8%B3%D8%AC%D8%AF%E2%80%AD/data=!4m7!3m6!1s0x39a0074fe71eafe7:0x913ee3b8ae0ac55f!8m2!3d28.3620005!4d79.3920642!16s%2Fg%2F11bv2b5nb_!19sChIJ568e508HoDkRX8UKrrjjPpE?authuser=0&hl=en&rclk=1,"28.362000499999997,79.3920642"
Noori Raza Masjid nwry rD msjd,Mosque,"Noori Raza Masjid nwry rD msjd, Maheshpur atariya, C.B.Ganj, Bareilly, Uttar Pradesh 243502",C.B.Ganj,Maheshpur atariya,Bareilly,243502,Uttar Pradesh,IN,https://www.google.com/maps/place/Noori+Raza+Masjid+%D9%86%D9%88%D8%B1%DB%8C+%D8%B1%D8%B6%D8%A7+%D9%85%D8%B3%D8%AC%D8%AF%E2%80%AD/data=!4m7!3m6!1s0x390aa9d67cee19b7:0xe01332a1404cbddf!8m2!3d28.3904441!4d79.3777667!16s%2Fg%2F11hbpx2xrh!19sChIJtxnufNapCjkR371MQKEyE-A?authuser=0&hl=en&rclk=1,"28.3904441,79.3777667"
Masjid,Mosque,"9C9J+7CJ Masjid, City Heart Colony, Bareilly, Haziyapur, Uttar Pradesh 243005",City Heart Colony,9C9J+7CJ,"Bareilly, Haziyapur",243005,Uttar Pradesh,IN,https://www.google.com/maps/place/Masjid/data=!4m7!3m6!1s0x39a006d989df8a3f:0x10435ce539a959b4!8m2!3d28.3682104!4d79.431003!16s%2Fg%2F11hb8nbtq6!19sChIJP4rfidkGoDkRtFmpOeVcQxA?authuser=0&hl=en&rclk=1,"28.3682104,79.43100299999999"
Noori Masjid,Mosque,"CF29+X4H Noori Masjid, Unnamed Road, Dhaurera Mafi, Bareilly, Uttar Pradesh 243006",Dhaurera Mafi,"CF29+X4H, Unnamed Road",Bareilly,243006,Uttar Pradesh,IN,https://www.google.com/maps/place/Noori+Masjid/data=!4m7!3m6!1s0x39a00796157c5057:0xde8b3d61c3be0c75!8m2!3d28.402447!4d79.4678741!16s%2Fg%2F11f6q3_tls!19sChIJV1B8FZYHoDkRdQy-w2E9i94?authuser=0&hl=en&rclk=1,"28.402447,79.4678741"
Maqbare Wali Masjid mqbry wly msjd,Mosque,"997V+QC9 Maqbare Wali Masjid mqbry wly msjd, Baqarganj, Bareilly, Uttar Pradesh 243502",Baqarganj,997V+QC9,Bareilly,243502,Uttar Pradesh,IN,https://www.google.com/maps/place/Maqbare+Wali+Masjid+%D9%85%D9%82%D8%A8%D8%B1%DB%92+%D9%88%D8%A7%D9%84%DB%8C+%D9%85%D8%B3%D8%AC%D8%AF%E2%80%AD/data=!4m7!3m6!1s0x39a007456eb93a43:0xeb37f47aaf68412d!8m2!3d28.3644005!4d79.3936219!16s%2Fg%2F11g6925212!19sChIJQzq5bkUHoDkRLUFor3r0N-s?authuser=0&hl=en&rclk=1,"28.3644005,79.3936219"
masjid,Mosque,"9F58+8CH masjid, Harunagla, Bareilly, Uttar Pradesh 243006",Harunagla,9F58+8CH,Bareilly,243006,Uttar Pradesh,IN,https://www.google.com/maps/place/masjid/data=!4m7!3m6!1s0x39a006ab47f49d21:0x8349a3bd1e49b547!8m2!3d28.3583213!4d79.4661244!16s%2Fg%2F11dxq43xw2!19sChIJIZ30R6sGoDkRR7VJHr2jSYM?authuser=0&hl=en&rclk=1,"28.3583213,79.4661244"
Mustafa Masjid,Mosque,"Mustafa Masjid, 20, Bareilly - Badaun Rd Mahaveer City Colony, Bareilly - Badaun Rd, Mahaveer City Colony, BDA Colony, Bareilly, Kargaina, Uttar Pradesh 243001","Mahaveer City Colony, BDA Colony","20, Bareilly - Badaun Rd Mahaveer City Colony, Bareilly - Badaun Rd","Bareilly, Kargaina",243001,Uttar Pradesh,IN,https://www.google.com/maps/place/Mustafa+Masjid/data=!4m7!3m6!1s0x39a000973062479f:0x3959262d71ad44e!8m2!3d28.3236159!4d79.3935374!16s%2Fg%2F11d_8gm8jb!19sChIJn0diMJcAoDkRTtQa12KSlQM?authuser=0&hl=en&rclk=1,"28.3236159,79.3935374"
Neem Wali Masjid nym wly msjd,Mosque,"9C54+H2F Neem Wali Masjid nym wly msjd, Malookpur, Bareilly, Uttar Pradesh 243003",Malookpur,9C54+H2F,Bareilly,243003,Uttar Pradesh,IN,https://www.google.com/maps/place/Neem+Wali+Masjid+%D9%86%DB%8C%D9%85+%D9%88%D8%A7%D9%84%DB%8C+%D9%85%D8%B3%D8%AC%D8%AF%E2%80%AD/data=!4m7!3m6!1s0x39a0070c19a1704b:0x4a5a5415cc615ec5!8m2!3d28.3589283!4d79.4050558!16s%2Fg%2F11g_qn04v5!19sChIJS3ChGQwHoDkRxV5hzBVUWko?authuser=0&hl=en&rclk=1,"28.3589283,79.4050558"
Razvi Masjid,Mosque,"Razvi Masjid, 374, Chak Mehmood, Old City, Bidhouliya, Bareilly, Uttar Pradesh 243005","Chak Mehmood, Old City, Bidhouliya",374,Bareilly,243005,Uttar Pradesh,IN,https://www.google.com/maps/place/Razvi+Masjid/data=!4m7!3m6!1s0x39a006c89b39a747:0xdfbafb323c4cea70!8m2!3d28.3668129!4d79.4442996!16s%2Fg%2F11g8xgr109!19sChIJR6c5m8gGoDkRcOpMPDL7ut8?authuser=0&hl=en&rclk=1,"28.3668129,79.4442996"
Gausiya Masjid,Mosque,"Gausiya Masjid, 4th, Rampur Rd, Bareilly, Uttar Pradesh 243001, Rampur Rd, Ward Number 73, Bareilly, Uttar Pradesh 243001",Ward Number 73,"4th, Rampur Rd, Bareilly, Uttar Pradesh 243001, Rampur Rd",Bareilly,243001,Uttar Pradesh,IN,https://www.google.com/maps/place/Gausiya+Masjid/data=!4m7!3m6!1s0x39a0077c3988f413:0xb09540b1c88e560b!8m2!3d28.390414!4d79.3840126!16s%2Fg%2F11fx94vd89!19sChIJE_SIOXwHoDkRC1aOyLFAlbA?authuser=0&hl=en&rclk=1,"28.390414,79.38401259999999"
Gular Wali Masjid gwlrr wly msjd,Mosque,"9C84+RVP Gular Wali Masjid gwlrr wly msjd, sahukara, Bareilly, Uttar Pradesh 243003",sahukara,9C84+RVP,Bareilly,243003,Uttar Pradesh,IN,https://www.google.com/maps/place/Gular+Wali+Masjid+%DA%AF%D9%88%D9%84%DA%91+%D9%88%D8%A7%D9%84%DB%8C+%D9%85%D8%B3%D8%AC%D8%AF%E2%80%AD/data=!4m7!3m6!1s0x39a007399f17aabd:0x18c6ff4c27e12f96!8m2!3d28.3670961!4d79.4072069!16s%2Fg%2F1q66_kz1l!19sChIJvaoXnzkHoDkRli_hJ0z_xhg?authuser=0&hl=en&rclk=1,"28.367096099999998,79.40720689999999"
Ala Hazrat Masjid,Mosque,"8F9Q+QJ2 Ala Hazrat Masjid, Bareilly, Uttar Pradesh 243123",,8F9Q+QJ2,Bareilly,243123,Uttar Pradesh,IN,https://www.google.com/maps/place/Ala+Hazrat+Masjid/data=!4m7!3m6!1s0x39a003c9642c1073:0x4a01104ef0505a06!8m2!3d28.3193828!4d79.489021!16s%2Fg%2F11f0_dbt6l!19sChIJcxAsZMkDoDkRBlpQ8E4QAUo?authuser=0&hl=en&rclk=1,"28.3193828,79.489021"
Memran Masjid (Badi Masjid),Mosque,"9C9R+479 Memran Masjid (Badi Masjid), Chak Mehmood, Old City, Mustafa Munzil Ajaz Nagar, Bareilly, Uttar Pradesh 243005","Chak Mehmood, Old City, Mustafa Munzil Ajaz Nagar",9C9R+479,Bareilly,243005,Uttar Pradesh,IN,https://www.google.com/maps/place/Memran+Masjid+%28Badi+Masjid%29/data=!4m7!3m6!1s0x39a00760921245ad:0xb08b2dce06dd9d84!8m2!3d28.3677883!4d79.4407275!16s%2Fg%2F11gzmrj6vr!19sChIJrUUSkmAHoDkRhJ3dBs4ti7A?authuser=0&hl=en&rclk=1,"28.367788299999997,79.4407275"
Saqlaini masjid,Mosque,"Saqlaini masjid, Maheshpur atariya, Bareilly, Uttar Pradesh 243502",,Maheshpur atariya,Bareilly,,Uttar Pradesh,IN,https://www.google.com/maps/place/Saqlaini+masjid/data=!4m7!3m6!1s0x390aa9868e00cfe9:0x566d41cc90f2c0ef!8m2!3d28.387038!4d79.3800711!16s%2Fg%2F11hyzdjjc_!19sChIJ6c8AjoapCjkR78DykMxBbVY?authuser=0&hl=en&rclk=1,"28.387038,79.3800711"
Qadri Masjid,Mosque,"9C9W+4CX Qadri Masjid, Mustafa Munzil Ajaz Nagar, Bareilly, Uttar Pradesh 243005",Mustafa Munzil Ajaz Nagar,9C9W+4CX,Bareilly,243005,Uttar Pradesh,IN,https://www.google.com/maps/place/Qadri+Masjid/data=!4m7!3m6!1s0x39a006c7dc01c2dd:0xdfc4900a2669a0e0!8m2!3d28.3678727!4d79.4461086!16s%2Fg%2F11ggk5x8hb!19sChIJ3cIB3McGoDkR4KBpJgqQxN8?authuser=0&hl=en&rclk=1,"28.3678727,79.4461086"
Shia Masjid Sahaswani Tola Old City Bareilly,Mosque,"9C6R+CJR Shia Masjid Sahaswani Tola Old City Bareilly, mera ki paith, Old City, Qureshi Nagar, Bareilly, Uttar Pradesh 243005","Old City, Qureshi Nagar",9C6R+CJR mera ki paith,Bareilly,243005,Uttar Pradesh,IN,https://www.google.com/maps/place/Shia+Masjid+Sahaswani+Tola+Old+City+Bareilly/data=!4m7!3m6!1s0x39a006cc1cc81e75:0xac7273f0245dec37!8m2!3d28.3611014!4d79.4415146!16s%2Fg%2F11g9l4q5dn!19sChIJdR7IHMwGoDkRN-xdJPBzcqw?authuser=0&hl=en&rclk=1,"28.3611014,79.44151459999999"
Noori Masjid,Mosque,"CFCC+G9W Noori Masjid, Mudiya Ahmed Nagar, Bareilly, Uttar Pradesh 243006",Mudiya Ahmed Nagar,CFCC+G9W,Bareilly,243006,Uttar Pradesh,IN,https://www.google.com/maps/place/Noori+Masjid/data=!4m7!3m6!1s0x39a005d8ace11f29:0xa11c00fb706ed4df!8m2!3d28.4213736!4d79.4709477!16s%2Fg%2F1pyqmy9vn!19sChIJKR_hrNgFoDkR39RucPsAHKE?authuser=0&hl=en&rclk=1,"28.4213736,79.4709477"
Ek Raat Ki Masjid,Mosque,"Ek Raat Ki Masjid, 146/18, Alamgiri Ganj, Bareilly, Uttar Pradesh 243001",Alamgiri Ganj,146/18,Bareilly,243001,Uttar Pradesh,IN,https://www.google.com/maps/place/Ek+Raat+Ki+Masjid/data=!4m7!3m6!1s0x39a0075495bec3f5:0xd18d4f251bb69075!8m2!3d28.3660792!4d79.4212003!16s%2Fg%2F11s4b0y96c!19sChIJ9cO-lVQHoDkRdZC2GyVPjdE?authuser=0&hl=en&rclk=1,"28.366079199999998,79.4212003"
Banni Masjid msjd bny,Mosque,"9C46+WM7 Banni Masjid msjd bny, Unnamed Road, Bhoor, Bareilly, Uttar Pradesh 243003",Bhoor,"9C46+WM7, Unnamed Road",Bareilly,243003,Uttar Pradesh,IN,https://www.google.com/maps/place/Banni+Masjid+%D9%85%D8%B3%D8%AC%D8%AF+%D8%A8%D9%86%DB%8C%E2%80%AD/data=!4m7!3m6!1s0x39a0073249506493:0xb94d188ecfc178a!8m2!3d28.3572802!4d79.4116847!16s%2Fg%2F11f0_frhlr!19sChIJk2RQSTIHoDkRihf87IjRlAs?authuser=0&hl=en&rclk=1,"28.357280199999998,79.4116847"
Badshah Masjid,Mosque,"9C87+FMF Badshah Masjid, Alamgiri Ganj, Bareilly, Uttar Pradesh 243003",Alamgiri Ganj,9C87+FMF,Bareilly,243003,Uttar Pradesh,IN,https://www.google.com/maps/place/Badshah+Masjid/data=!4m7!3m6!1s0x39a007254b3960b1:0xca4f2240d5d4d233!8m2!3d28.3661991!4d79.4141791!16s%2Fg%2F11fzhsn7x5!19sChIJsWA5SyUHoDkRM9LU1UAiT8o?authuser=0&hl=en&rclk=1,"28.3661991,79.4141791"
Azhari Masjid zhr msjd,Mosque,"9C6R+R3R Azhari Masjid zhr msjd, Qureshi Nagar, Bareilly, Uttar Pradesh 243005",Qureshi Nagar,9C6R+R3R,Bareilly,243005,Uttar Pradesh,IN,https://www.google.com/maps/place/Azhari+Masjid+%D8%A7%D8%B2%DB%81%D8%B1+%D9%85%D8%B3%D8%AC%D8%AF%E2%80%AD/data=!4m7!3m6!1s0x39a0076e68ac5ef1:0x6c9e073459734e7b!8m2!3d28.3621058!4d79.4401488!16s%2Fg%2F11ghqc6xyn!19sChIJ8V6saG4HoDkRe05zWTQHnmw?authuser=0&hl=en&rclk=1,"28.3621058,79.4401488"
Raza Masjid,Mosque,"9CCR+XQC Raza Masjid, Jogi Nawada Near Gujran Shah wali Mazar, old City Bareilly shareef, 243006",Gopal Nagar,"9CCR+XQC, Jogi Nawada Near Gujran Shah wali Mazar, old City Bareilly shareef",Bareilly,243006,Uttar Pradesh,IN,https://www.google.com/maps/place/Raza+Masjid/data=!4m7!3m6!1s0x39a007f2e8688bc5:0xfb7710735cd3a04c!8m2!3d28.3724266!4d79.4419022!16s%2Fg%2F11gxmbq6pl!19sChIJxYto6PIHoDkRTKDTXHMQd_s?authuser=0&hl=en&rclk=1,"28.372426599999997,79.4419022"
Masjid Bareilly cantt,Mosque,"8CP7+5H5 Masjid Bareilly cantt, St Chowdary Rd, Civil Lines, Bareilly, Uttar Pradesh 243001",Civil Lines,"8CP7+5H5, St Chowdary Rd",Bareilly,243001,Uttar Pradesh,IN,https://www.google.com/maps/place/Masjid+Bareilly+cantt/data=!4m7!3m6!1s0x39a001b1c067ff5f:0xc3a5d071690fb6e8!8m2!3d28.3353988!4d79.4139791!16s%2Fg%2F11hzstnpn9!19sChIJX_9nwLEBoDkR6LYPaXHQpcM?authuser=0&hl=en&rclk=1,"28.3353988,79.41397909999999"
Mohammede masjid,Mosque,"9F72+F33 Mohammede masjid, Chakki Wali Gali, Mustafa Munzil Ajaz Nagar, Bareilly, Uttar Pradesh 243005",Mustafa Munzil Ajaz Nagar,"9F72+F33, Chakki Wali Gali",Bareilly,243005,Uttar Pradesh,IN,https://www.google.com/maps/place/Mohammede+masjid/data=!4m7!3m6!1s0x39a007168957cc13:0xbc86c59ff94315ec!8m2!3d28.3636445!4d79.4501625!16s%2Fg%2F11j0hn09ql!19sChIJE8xXiRYHoDkR7BVD-Z_Fhrw?authuser=0&hl=en&rclk=1,"28.3636445,79.45016249999999"
"Sabri Masjid, Gautia, Aijaz Nagar, Bareilly",Mosque,"9C9X+8CF Sabri Masjid, Gautia, Aijaz Nagar, Bareilly, Mustafa Munzil Ajaz Nagar, Bareilly, Uttar Pradesh 243005",Mustafa Munzil Ajaz Nagar,9C9X+8CF,Bareilly,243005,Uttar Pradesh,IN,"https://www.google.com/maps/place/Sabri+Masjid,+Gautia,+Aijaz+Nagar,+Bareilly/data=!4m7!3m6!1s0x39a007167a951537:0x7dc56e33b4ebb34c!8m2!3d28.3683178!4d79.448535!16s%2Fg%2F11ftwmm7pg!19sChIJNxWVehYHoDkRTLPrtDNuxX0?authuser=0&hl=en&rclk=1","28.3683178,79.44853499999999"
Masjid,Mosque,"22, Masjid, Bi Bazar Cantt, Civil Lines, Bareilly, Uttar Pradesh 243001",Civil Lines,"22, Bi Bazar Cantt",Bareilly,243001,Uttar Pradesh,IN,https://www.google.com/maps/place/Masjid/data=!4m7!3m6!1s0x39a0010f8d179e65:0x654fe56cb492f2f3!8m2!3d28.3293821!4d79.4296019!16s%2Fg%2F11v0by9k1g!19sChIJZZ4XjQ8BoDkR8_KStGzlT2U?authuser=0&hl=en&rclk=1,"28.3293821,79.4296019"
Masjid,Mosque,"9C4C+V5P Masjid, Bareilly College Rd, near 243003, Civil Lines, Bareilly, Uttar Pradesh 243001",Civil Lines,"9C4C+V5P, Bareilly College Rd, near 243003",Bareilly,243001,Uttar Pradesh,IN,https://www.google.com/maps/place/Masjid/data=!4m7!3m6!1s0x39a007c2ccb07df5:0x83b09bbb0d5d023e!8m2!3d28.3571607!4d79.4204433!16s%2Fg%2F11kpy24xrn!19sChIJ9X2wzMIHoDkRPgJdDbubsIM?authuser=0&hl=en&rclk=1,"28.357160699999998,79.4204433"
Masjid,Mosque,"8CQ6+8Q4 Masjid, Church Rd, Civil Lines, Bareilly, Uttar Pradesh 243001",Civil Lines,"8CQ6+8Q4, Church Rd",Bareilly,243001,Uttar Pradesh,IN,https://www.google.com/maps/place/Masjid/data=!4m7!3m6!1s0x39a0011853fdf003:0x58c9b224d3fda329!8m2!3d28.3383045!4d79.4119705!16s%2Fg%2F11l2j1yn7m!19sChIJA_D9UxgBoDkRKaP90ySyyVg?authuser=0&hl=en&rclk=1,"28.3383045,79.4119705"
Noori Masjid Junction Bareilly Sharif,Mosque,"8CP6+8FF Noori Masjid Junction Bareilly Sharif, 169, Station Rd, Civil Lines, Bareilly, Uttar Pradesh 243001",Civil Lines,"8CP6+8FF, 169, Station Rd",Bareilly,243001,Uttar Pradesh,IN,https://www.google.com/maps/place/Noori+Masjid+Junction+Bareilly+Sharif/data=!4m7!3m6!1s0x39a0017dac73c3bb:0xff58e574fbb1a87e!8m2!3d28.3385099!4d79.4117905!16s%2Fg%2F11l6zb2kqc!19sChIJu8NzrH0BoDkRfqix-3TlWP8?authuser=0&hl=en&rclk=1,"28.3385099,79.4117905"
Masjid e aala hazrat,Mosque,"Masjid e aala hazrat, 1235, Bhoor, Bareilly, Uttar Pradesh 243001",Bhoor,1235,Bareilly,243001,Uttar Pradesh,IN,https://www.google.com/maps/place/Masjid+e+aala+hazrat/data=!4m7!3m6!1s0x39a007f2694d6765:0x3d3e3e2d73b33e0d!8m2!3d28.3583435!4d79.4098791!16s%2Fg%2F11vdjthkbr!19sChIJZWdNafIHoDkRDT6zcy0-Pj0?authuser=0&hl=en&rclk=1,"28.3583435,79.4098791"
