name,main_category,address,address_ward,address_street,address_city,address_postal_code,address_state,address_country_code,link,coordinates
Anjuman E Mohammedi Masjid,Mosque,"Anjuman E Mohammedi Masjid, 35-39, Rangadoss Colony, Janakiraman Colony, Villivakkam, Chennai, Tamil Nadu 600049","Rangadoss Colony, Janakiraman Colony, Villivakkam",35-39,Chennai,600049,Tamil Nadu,IN,https://www.google.com/maps/place/Anjuman+E+Mohammedi+Masjid/data=!4m7!3m6!1s0x3a526467a6f96835:0x858248fefc29a551!8m2!3d13.1166074!4d80.2079647!16s%2Fg%2F11bbyf4x1g!19sChIJNWj5pmdkUjoRUaUp_P5IgoU?authuser=0&hl=en&rclk=1,"13.1166074,80.20796469999999"
Quaid-e-Millath Jumma Masjid & Madarasa Sunni Masjid,Mosque,"Quaid-e-Millath Jumma Masjid & Madarasa Sunni Masjid, 975, 28th St, B.V.Colony, Saliman Colony, Vyasarpadi, Chennai, Tamil Nadu 600039","B.V.Colony, Saliman Colony, Vyasarpadi","975, 28th St",Chennai,600039,Tamil Nadu,IN,https://www.google.com/maps/place/Quaid-e-Millath+Jumma+Masjid+%26+Madarasa+Sunni+Masjid/data=!4m7!3m6!1s0x3a526f87220dd917:0x43b35142df4c2e85!8m2!3d13.1164969!4d80.2590593!16s%2Fg%2F1vc_nsmz!19sChIJF9kNIodvUjoRhS5M30JRs0M?authuser=0&hl=en&rclk=1,"13.1164969,80.25905929999999"
Masjid-e-Hussainia sunnath wal jamaath,Mosque,"Masjid-e-Hussainia sunnath wal jamaath, Madhavaram High Road, Junction, Periyar Nagar, Moolakadai, Kodungaiyur, Chennai, Tamil Nadu 600060","Periyar Nagar, Moolakadai, Kodungaiyur","Madhavaram High Road, Junction",Chennai,600060,Tamil Nadu,IN,https://www.google.com/maps/place/Masjid-e-Hussainia+sunnath+wal+jamaath/data=!4m7!3m6!1s0x3a526507a6fca729:0x8ca5102d9997b423!8m2!3d13.1285137!4d80.2406913!16s%2Fg%2F11bbrmgnx9!19sChIJKaf8pgdlUjoRI7SXmS0QpYw?authuser=0&hl=en&rclk=1,"13.1285137,80.2406913"
msjit muhmmtiyyaa MASJID E MOHAMMADIA,Mosque,"msjit muhmmtiyyaa MASJID E MOHAMMADIA, 786, Periyar Nagar Main Rd, Sathiamurthy Nagar, Vyasarpadi, Chennai, Tamil Nadu 600039","Sathiamurthy Nagar, Vyasarpadi","786, Periyar Nagar Main Rd",Chennai,600039,Tamil Nadu,IN,https://www.google.com/maps/place/%E0%AE%AE%E0%AE%B8%E0%AF%8D%E0%AE%9C%E0%AE%BF%E0%AE%A4%E0%AF%8D+%E0%AE%AE%E0%AF%81%E0%AE%B9%E0%AE%AE%E0%AF%8D%E0%AE%AE%E0%AE%A4%E0%AE%BF%E0%AE%AF%E0%AF%8D%E0%AE%AF%E0%AE%BE+MASJID+E+MOHAMMADIA/data=!4m7!3m6!1s0x3a5265b9d49f0caf:0x8f14aabeb7ff1f2a!8m2!3d13.1192897!4d80.267556!16s%2Fg%2F11fkdjpnmp!19sChIJrwyf1LllUjoRKh__t76qFI8?authuser=0&hl=en&rclk=1,"13.1192897,80.267556"
MASJID E MUHAMMED MEERAN TRUST,Mosque,"MASJID E MUHAMMED MEERAN TRUST, 4/256, ambattur main road valluvar nagar , surapet, Puzhal, Chennai, Tamil Nadu 600066",Puzhal,"4/256, ambattur main road valluvar nagar , surapet","Chennai, Kadirvedu",600066,Tamil Nadu,IN,https://www.google.com/maps/place/MASJID+E+MUHAMMED+MEERAN+TRUST/data=!4m7!3m6!1s0x3a526579f0d30c7d:0xcfb3461c83218c46!8m2!3d13.1542125!4d80.1949704!16s%2Fg%2F11h71hnhky!19sChIJfQzT8HllUjoRRowhgxxGs88?authuser=0&hl=en&rclk=1,"13.1542125,80.1949704"
Muthamizh Nagar Al-Ameen Masjid,Mosque,"Muthamizh Nagar Al-Ameen Masjid, South Ave, MR Nagar, Kodungaiyur, Chennai, Tamil Nadu 600118","MR Nagar, Kodungaiyur",South Ave,Chennai,600118,Tamil Nadu,IN,https://www.google.com/maps/place/Muthamizh+Nagar+Al-Ameen+Masjid/data=!4m7!3m6!1s0x3a5265094957dbcf:0x23137eacd7da8292!8m2!3d13.1324343!4d80.2476033!16s%2Fg%2F1td2fb3n!19sChIJz9tXSQllUjoRkoLa16x-EyM?authuser=0&hl=en&rclk=1,"13.1324343,80.2476033"
Masjid-e-Abdul Ali,Mosque,"37Q3+W9M Masjid-e-Abdul Ali, Thandavarayan St, Near Tana Street, Otteri, Purasaiwakkam, Chennai, Tamil Nadu 600084","Otteri, Purasaiwakkam","37Q3+W9M, Thandavarayan St, Near Tana Street",Chennai,600084,Tamil Nadu,IN,https://www.google.com/maps/place/Masjid-e-Abdul+Ali/data=!4m7!3m6!1s0x3a5265dd9e79d571:0x814976539cdec938!8m2!3d13.089845!4d80.2534318!16s%2Fg%2F1260_bks8!19sChIJcdV5nt1lUjoROMnenFN2SYE?authuser=0&hl=en&rclk=1,"13.089844999999999,80.2534318"
MASJID - E - MUAZZAM,Mosque,"MASJID - E - MUAZZAM, Netta Muthiyalkhan St, KK Nagar, Ayanavaram, Chennai, Tamil Nadu 600023","KK Nagar, Ayanavaram",Netta Muthiyalkhan St,Chennai,600023,Tamil Nadu,IN,https://www.google.com/maps/place/MASJID+-+E+-+MUAZZAM/data=!4m7!3m6!1s0x3a5265ccae49525f:0xf7d5a3947ef1e41e!8m2!3d13.097196!4d80.23263!16s%2Fg%2F11hbsbsqnh!19sChIJX1JJrsxlUjoRHuTxfpSj1fc?authuser=0&hl=en&rclk=1,"13.097196,80.23263"
MASJID E BILAL,Mosque,"MASJID E BILAL, No: 8, 'B' Block 5th Street Thanikachalam Nagar Ponniammanmedu Chennai :, 600110","Selvam Nagar Extension, C Block, Anna Ayyar Thottam, Ponniammanmedu","No: 8, 'B' Block 5th Street Thanikachalam Nagar Ponniammanmedu Chennai :",Chennai,600110,Tamil Nadu,IN,https://www.google.com/maps/place/MASJID+E+BILAL/data=!4m7!3m6!1s0x3a5264fe494586a1:0x4b9cbe80b1d00e34!8m2!3d13.1294409!4d80.2303768!16s%2Fg%2F11f0l21czh!19sChIJoYZFSf5kUjoRNA7QsYC-nEs?authuser=0&hl=en&rclk=1,"13.129440899999999,80.2303768"
Jamia Masjid Kilpauk,Mosque,"36QV+99Q Jamia Masjid Kilpauk, Barakka Rd, Near Secretariat Colony, Medavakkam, Kilpauk, Chennai, Tamil Nadu 600010","Medavakkam, Kilpauk","36QV+99Q, Barakka Rd, Near Secretariat Colony",Chennai,600010,Tamil Nadu,IN,https://www.google.com/maps/place/Jamia+Masjid+Kilpauk/data=!4m7!3m6!1s0x3a5265da74595d0b:0xa2b4afb703293741!8m2!3d13.0884545!4d80.2434862!16s%2Fg%2F11bbs2z7bf!19sChIJC11ZdNplUjoRQTcpA7evtKI?authuser=0&hl=en&rclk=1,"13.0884545,80.24348619999999"
"Masjid e Kadheem, msjitee ktiim",Mosque,"Shop No.36, Masjid e Kadheem, msjitee ktiim, 2, W Cemetery Rd, Old Washermanpet, Chennai, Tamil Nadu 600021",Old Washermanpet,"Shop No.36, 2, W Cemetery Rd",Chennai,600021,Tamil Nadu,IN,"https://www.google.com/maps/place/Masjid+e+Kadheem,+%E0%AE%AE%E0%AE%B8%E0%AF%8D%E0%AE%9C%E0%AE%BF%E0%AE%A4%E0%AF%87+%E0%AE%95%E0%AE%A4%E0%AF%80%E0%AE%AE%E0%AF%8D/data=!4m7!3m6!1s0x3a526f6462db4ce3:0x4d98b37869164670!8m2!3d13.113805!4d80.2830839!16s%2Fg%2F124t2xpht!19sChIJ40zbYmRvUjoRcEYWaXizmE0?authuser=0&hl=en&rclk=1","13.113805,80.2830839"
MASJID E KHALIQUE,Mosque,"MASJID E KHALIQUE, 12/40, 3rd Circular St, Jawahar Nagar, Perambur, Chennai, Tamil Nadu 600082","Jawahar Nagar, Perambur","12/40, 3rd Circular St",Chennai,600082,Tamil Nadu,IN,https://www.google.com/maps/place/MASJID+E+KHALIQUE/data=!4m7!3m6!1s0x3a52645286bf76cd:0xed46ea53133f9a2f!8m2!3d13.1152123!4d80.2296058!16s%2Fg%2F11gzt420s!19sChIJzXa_hlJkUjoRL5o_E1PqRu0?authuser=0&hl=en&rclk=1,"13.1152123,80.2296058"
Masjid E Dayeyane Islam,Mosque,"469J+GQV Masjid E Dayeyane Islam, SRP Koil St N, Peravallur, Perambur, Chennai, Tamil Nadu 600082","Peravallur, Perambur","469J+GQV, SRP Koil St N",Chennai,600082,Tamil Nadu,IN,https://www.google.com/maps/place/Masjid+E+Dayeyane+Islam/data=!4m7!3m6!1s0x3a52645334651191:0x65fb0cef65f8594a!8m2!3d13.1188562!4d80.2319252!16s%2Fg%2F1hm3fy6h3!19sChIJkRFlNFNkUjoRSln4Ze8M-2U?authuser=0&hl=en&rclk=1,"13.1188562,80.23192519999999"
Masjid E-Nooria,Mosque,"Masjid E-Nooria, 30, 31st St, General Kumaramangalam Colony, Kolathur, Chennai, Tamil Nadu 600082","General Kumaramangalam Colony, Kolathur","30, 31st St",Chennai,600082,Tamil Nadu,IN,https://www.google.com/maps/place/Masjid+E-Nooria/data=!4m7!3m6!1s0x3a5264448e831197:0x7ba9ea176947e9d2!8m2!3d13.1129503!4d80.216555!16s%2Fg%2F11bw5m8ggd!19sChIJlxGDjkRkUjoR0ulHaRfqqXs?authuser=0&hl=en&rclk=1,"13.1129503,80.216555"
Masjid-E-Aalameen,Mosque,"47H4+P2W Masjid-E-Aalameen, Kodungaiyur (East), Thiruvalluvar Nagar, Kodungaiyur, Chennai, Tamil Nadu 600118","Kodungaiyur (East), Thiruvalluvar Nagar, Kodungaiyur",47H4+P2W,Chennai,600118,Tamil Nadu,IN,https://www.google.com/maps/place/Masjid-E-Aalameen/data=!4m7!3m6!1s0x3a52650ab655b45b:0xb92985d56bea50b7!8m2!3d13.1293701!4d80.2550918!16s%2Fg%2F11b7j3dc5n!19sChIJW7RVtgplUjoRt1Dqa9WFKbk?authuser=0&hl=en&rclk=1,"13.1293701,80.2550918"
MASJID-E-KHUDUS,Mosque,"MASJID-E-KHUDUS, 19, Thiruvottiyur High Road, Jeevanlal Nagar, Rajakadai, Tiruvottiyur, Chennai, Tamil Nadu 600019","Rajakadai, Tiruvottiyur","19, Thiruvottiyur High Road, Jeevanlal Nagar",Chennai,600019,Tamil Nadu,IN,https://www.google.com/maps/place/MASJID-E-KHUDUS/data=!4m7!3m6!1s0x3a526fc3361e16f9:0xfcd144a6607cfe57!8m2!3d13.1627518!4d80.3032202!16s%2Fg%2F124ymrlxh!19sChIJ-RYeNsNvUjoRV_58YKZE0fw?authuser=0&hl=en&rclk=1,"13.162751799999999,80.3032202"
Masjid Al Noor Makka Madrasa,Mosque,"Masjid Al Noor Makka Madrasa, Goyyathoppu, Gandhi Nagar, Kodungaiyur, Chennai, Tamil Nadu 600118","Goyyathoppu, Gandhi Nagar, Kodungaiyur",,Chennai,600118,Tamil Nadu,IN,https://www.google.com/maps/place/Masjid+Al+Noor+Makka+Madrasa/data=!4m7!3m6!1s0x3a526516db773787:0xab3febc7c89155fc!8m2!3d13.1449614!4d80.2465138!16s%2Fg%2F11b76fys7n!19sChIJhzd32xZlUjoR_FWRyMfrP6s?authuser=0&hl=en&rclk=1,"13.1449614,80.2465138"
Masjid - E - Massarrath,Mosque,"Masjid - E - Massarrath, 161, Majestic Colony Rd, Majestic Nagar, F Block, Ponniammanmedu, Chennai, Tamil Nadu 600099","Majestic Nagar, F Block, Ponniammanmedu","161, Majestic Colony Rd",Chennai,600099,Tamil Nadu,IN,https://www.google.com/maps/place/Masjid+-+E+-+Massarrath/data=!4m7!3m6!1s0x3a5264f9989ea40f:0xb886fe7888131edc!8m2!3d13.1302171!4d80.2233103!16s%2Fg%2F11c0xn7r3g!19sChIJD6SemPlkUjoR3B4TiHj-hrg?authuser=0&hl=en&rclk=1,"13.1302171,80.2233103"
Masjid E Muhammadiya,Mosque,"Masjid E Muhammadiya, 113, School Rd, Venkateswara Nagar, Kodungaiyur, Chennai, Tamil Nadu 600118","Venkateswara Nagar, Kodungaiyur","113, School Rd",Chennai,600118,Tamil Nadu,IN,https://www.google.com/maps/place/Masjid+E+Muhammadiya/data=!4m7!3m6!1s0x3a526512408421e9:0x227153a76f20e698!8m2!3d13.1399848!4d80.2502809!16s%2Fg%2F11dz5qkm2f!19sChIJ6SGEQBJlUjoRmOYgb6dTcSI?authuser=0&hl=en&rclk=1,"13.139984799999999,80.25028089999999"
Masjid E Shariff,Mosque,"46RQ+G7C Masjid E Shariff, Selavoyal, KKR Garden, 1st Main Rd, Thapalpetti, Palaniappa Nagar, Madhavaram, Chennai, Tamil Nadu 600118","Thapalpetti, Palaniappa Nagar, Madhavaram","46RQ+G7C, Selavoyal, KKR Garden, 1st Main Rd",Chennai,600118,Tamil Nadu,IN,https://www.google.com/maps/place/Masjid+E+Shariff/data=!4m7!3m6!1s0x3a52651b86f82d0d:0xdf321bb5df945e69!8m2!3d13.1413063!4d80.2381269!16s%2Fg%2F124t434sz!19sChIJDS34hhtlUjoRaV6U37UbMt8?authuser=0&hl=en&rclk=1,"13.1413063,80.2381269"
Al Masjidul Aqsa Jumma Masjid,Mosque,"569X+VXF Al Masjidul Aqsa Jumma Masjid, 3rd Main Rd, MMDA Layout, Mathur, Tamil Nadu 600068",MMDA Layout,"569X+VXF, 3rd Main Rd",Mathur,600068,Tamil Nadu,IN,https://www.google.com/maps/place/Al+Masjidul+Aqsa+Jumma+Masjid/data=!4m7!3m6!1s0x3a52653461ff1e6f:0xbcc75e2d25eb92d8!8m2!3d13.1696809!4d80.2499154!16s%2Fg%2F11b708kf71!19sChIJbx7_YTRlUjoR2JLrJS1ex7w?authuser=0&hl=en&rclk=1,"13.1696809,80.24991539999999"
Lalagunda Masjid,Mosque,"476J+J7G Lalagunda Masjid, Jayaram St, Korukkupet, Tondiarpet, Chennai, Tamil Nadu 600021","Korukkupet, Tondiarpet","476J+J7G, Jayaram St",Chennai,600021,Tamil Nadu,IN,https://www.google.com/maps/place/Lalagunda+Masjid/data=!4m7!3m6!1s0x3a526f63dcf85a0f:0x11b10847187ad21f!8m2!3d13.1115592!4d80.2807045!16s%2Fg%2F124t1b82y!19sChIJD1r43GNvUjoRH9J6GEcIsRE?authuser=0&hl=en&rclk=1,"13.111559199999999,80.2807045"
Masjid E Hussaini and Madarasa,Mosque,"467P+GVG Masjid E Hussaini and Madarasa, Mohammadian St, Sembiyan, Perambur, Chennai, Tamil Nadu 600011","Sembiyan, Perambur","467P+GVG, Mohammadian St",Chennai,600011,Tamil Nadu,IN,https://www.google.com/maps/place/Masjid+E+Hussaini+and+Madarasa/data=!4m7!3m6!1s0x3a5265b21b8555df:0xe47232405e5203c2!8m2!3d13.1138123!4d80.2372136!16s%2Fg%2F1tjgysyf!19sChIJ31WFG7JlUjoRwgNSXkAycuQ?authuser=0&hl=en&rclk=1,"13.1138123,80.23721359999999"
MOHIDEEN MASJID / MOSQUE,Mosque,"MOHIDEEN MASJID / MOSQUE, 3, Bose St, Kodungaiyur (East), Krishnamoorthy Nagar, Kodungaiyur, Chennai, Tamil Nadu 600118","Kodungaiyur (East), Krishnamoorthy Nagar, Kodungaiyur","3, Bose St",Chennai,600118,Tamil Nadu,IN,https://www.google.com/maps/place/MOHIDEEN+MASJID+%2F+MOSQUE/data=!4m7!3m6!1s0x3a5265742e303aeb:0xf88c8f36097e9ca6!8m2!3d13.130652!4d80.2593598!16s%2Fg%2F11g7ycxw2h!19sChIJ6zowLnRlUjoRppx-CTaPjPg?authuser=0&hl=en&rclk=1,"13.130652,80.2593598"
Makka Masjid,Mosque,"45MV+FVW Makka Masjid, Venkateshwara Nagar, Subash Nagar, Ayappakkam, Puthagaram, Chennai, Tamil Nadu 600099","Venkateshwara Nagar, Subash Nagar, Ayappakkam",45MV+FVW,"Puthagaram, Chennai",600099,Tamil Nadu,IN,https://www.google.com/maps/place/Makka+Masjid/data=!4m7!3m6!1s0x3a526484b0000001:0xe3e22315a3d04b0b!8m2!3d13.1337422!4d80.194695!16s%2Fg%2F11g6xd9sh_!19sChIJAQAAsIRkUjoRC0vQoxUj4uM?authuser=0&hl=en&rclk=1,"13.133742199999999,80.194695"
Noor Masjid,Mosque,"Noor Masjid, 26-17/2, Parthasarathy Nagar Main Rd, Meenambal Nagar, Korukkupet, Old Washermanpet, Chennai, Tamil Nadu 600021","Meenambal Nagar, Korukkupet, Old Washermanpet","26-17/2, Parthasarathy Nagar Main Rd",Chennai,600021,Tamil Nadu,IN,https://www.google.com/maps/place/Noor+Masjid/data=!4m7!3m6!1s0x3a526f624db59bcb:0xdc059ed3e5929bb2!8m2!3d13.1129343!4d80.2792621!16s%2Fg%2F11dynzq9yj!19sChIJy5u1TWJvUjoRspuS5dOeBdw?authuser=0&hl=en&rclk=1,"13.1129343,80.2792621"
Zakariya Masjid Mosque,Mosque,"Zakariya Masjid Mosque, Akbar Nagar, Retteri, Kolathur, Chennai, Tamil Nadu 600099","Akbar Nagar, Retteri, Kolathur",,Chennai,600099,Tamil Nadu,IN,https://www.google.com/maps/place/Zakariya+Masjid+Mosque/data=!4m7!3m6!1s0x3a526492d1b8c84f:0xc28cd6e1c9ca666f!8m2!3d13.1390794!4d80.2093366!16s%2Fg%2F11bwpml925!19sChIJT8i40ZJkUjoRb2bKyeHWjMI?authuser=0&hl=en&rclk=1,"13.1390794,80.2093366"
Masjid E Muhammadiya,Mosque,"Masjid E Muhammadiya, 24th Avenue, Kavankarai, Kannada Palaiyam, Puzhal, Chennai, Tamil Nadu 600066","Kavankarai, Kannada Palaiyam, Puzhal",24th Avenue,Chennai,600066,Tamil Nadu,IN,https://www.google.com/maps/place/Masjid+E+Muhammadiya/data=!4m7!3m6!1s0x3a5264acadbe4237:0x5b0971877213ef96!8m2!3d13.170146!4d80.193689!16s%2Fg%2F1q2_d25nk!19sChIJN0K-raxkUjoRlu8TcodxCVs?authuser=0&hl=en&rclk=1,"13.170145999999999,80.19368899999999"
Masjid E Jadeed,Mosque,"Masjid E Jadeed, 41, 38/7 3rd Street New Washhermenpet, Cherian Nagar, Tondiarpet, Chennai, Tamil Nadu 600081","Thangal, Chariyan Nagar, Tondiarpet","41, 38/7 3rd Street New Washhermenpet, Cherian Nagar, Tondiarpet",Chennai,600081,Tamil Nadu,IN,https://www.google.com/maps/place/Masjid+E+Jadeed/data=!4m7!3m6!1s0x3a526f9840760885:0xab59218bed4bd04d!8m2!3d13.138718!4d80.2975211!16s%2Fg%2F1vc8079f!19sChIJhQh2QJhvUjoRTdBL7YshWas?authuser=0&hl=en&rclk=1,"13.138717999999999,80.2975211"
"Manali JAMIUL ANWAR MASJID, No.6, N.S.K.Street, Periya sekkadu, Manali, Chennai-600068.",Mosque,"5774+QR7 Manali JAMIUL ANWAR MASJID, No.6, N.S.K.Street, Periya sekkadu, Manali, Chennai-600068., Periya Thoppu, Manali, Chennai, Tamil Nadu 600051","Periya Thoppu, Manali",5774+QR7,Chennai,600051,Tamil Nadu,IN,"https://www.google.com/maps/place/Manali+JAMIUL+ANWAR+MASJID,+No.6,+N.S.K.Street,+Periya+sekkadu,+Manali,+Chennai-600068./data=!4m7!3m6!1s0x3a526549aafd17ad:0xdd658edf74d46695!8m2!3d13.1644072!4d80.2570558!16s%2Fg%2F11cm071hpx!19sChIJrRf9qkllUjoRlWbUdN-OZd0?authuser=0&hl=en&rclk=1","13.1644072,80.2570558"
Muhammadi Jamia Masjid,Mosque,"Muhammadi Jamia Masjid, # 34, Kumarappa Puram Republic of India, Milk Colony Road, Kavi St, Devi Nagar, Madhavaram Milk Colony, Chennai, Tamil Nadu 600051","Devi Nagar, Madhavaram Milk Colony","# 34, Kumarappa Puram Republic of India, Milk Colony Road, Kavi St",Chennai,600051,Tamil Nadu,IN,https://www.google.com/maps/place/Muhammadi+Jamia+Masjid/data=!4m7!3m6!1s0x3a5265230c9483d7:0x888f50c9ba22cfa9!8m2!3d13.15358!4d80.2409245!16s%2Fg%2F11b6_s8w4s!19sChIJ14OUDCNlUjoRqc8iuslQj4g?authuser=0&hl=en&rclk=1,"13.15358,80.24092449999999"
Masjid Us Salaam Tntj Mkb nagar,Mosque,"47G6+748 Masjid Us Salaam Tntj Mkb nagar, 18th Central Cross Street, MKB Nagar, Mahakavi Bharathiyar Nagar Central, Mahakavi Bharathi Nagar, Vyasarpadi, Chennai, Tamil Nadu 600039","MKB Nagar, Mahakavi Bharathiyar Nagar Central, Mahakavi Bharathi Nagar, Vyasarpadi","47G6+748, 18th Central Cross Street",Chennai,600039,Tamil Nadu,IN,https://www.google.com/maps/place/Masjid+Us+Salaam+Tntj+Mkb+nagar/data=!4m7!3m6!1s0x3a52659dde9e5293:0x58c533e630d516d0!8m2!3d13.1256618!4d80.2603407!16s%2Fg%2F11c5qmztdg!19sChIJk1Ke3p1lUjoR0BbVMOYzxVg?authuser=0&hl=en&rclk=1,"13.1256618,80.2603407"
Jamia Mosque,Mosque,"47WX+Q7J Jamia Mosque, Thiruvottiyur High Rd, Thangal, Thyagarajapuram, Tiruvottiyur, Chennai, Tamil Nadu 600019","Thangal, Thyagarajapuram, Tiruvottiyur","47WX+Q7J, Thiruvottiyur High Rd",Chennai,600019,Tamil Nadu,IN,https://www.google.com/maps/place/Jamia+Mosque/data=!4m7!3m6!1s0x3a526f95ec30e49b:0xe3dba83ab552ccc2!8m2!3d13.1469656!4d80.2981322!16s%2Fg%2F1tsyhmgj!19sChIJm-Qw7JVvUjoRwsxStTqo2-M?authuser=0&hl=en&rclk=1,"13.1469656,80.2981322"
Masjid-e-Rahmaniya,Mosque,"5663+84G Masjid-e-Rahmaniya, NH16, New Central Jail, Puzhal, Vadaperumbakkam, Chennai, Tamil Nadu 600066","New Central Jail, Puzhal","5663+84G, NH16","Vadaperumbakkam, Chennai",600066,Tamil Nadu,IN,https://www.google.com/maps/place/Masjid-e-Rahmaniya/data=!4m7!3m6!1s0x3a5264b0c0060bd3:0x35e51bb589b21c50!8m2!3d13.160801!4d80.2028186!16s%2Fg%2F1hg4rs3bb!19sChIJ0wsGwLBkUjoRUByyibUb5TU?authuser=0&hl=en&rclk=1,"13.160801,80.2028186"
Masjid E Habibiya,Mosque,"674G+MJ6 Masjid E Habibiya, Manali New Town, Manali, Chennai, Edayanchavadi, Tamil Nadu 600103","Manali New Town, Manali",674G+MJ6,"Chennai, Edayanchavadi",600103,Tamil Nadu,IN,https://www.google.com/maps/place/Masjid+E+Habibiya/data=!4m7!3m6!1s0x3a527bfa1c0df765:0x60b436085fce7623!8m2!3d13.2066626!4d80.2765115!16s%2Fg%2F11k1bnkt5m!19sChIJZfcNHPp7UjoRI3bOXwg2tGA?authuser=0&hl=en&rclk=1,"13.2066626,80.2765115"
As-Sabiqun Masjid,Mosque,"As-Sabiqun Masjid, 28/15, Nataraja mudali street, Old washermenpet","Korukkupet, Old Washermanpet","28/15, Nataraja mudali street, Old washermenpet",Chennai,,Tamil Nadu,IN,https://www.google.com/maps/place/As-Sabiqun+Masjid/data=!4m7!3m6!1s0x3a526f63eb6afa71:0x195dc3c5118dbe91!8m2!3d13.112362!4d80.2811832!16s%2Fg%2F11bxc6jfjd!19sChIJcfpq62NvUjoRkb6NEcXDXRk?authuser=0&hl=en&rclk=1,"13.112362,80.2811832"
JAQH Masjid Thiruvotriyur,Mosque,"48W2+72P JAQH Masjid Thiruvotriyur, Second Main Rd, Thangal, Thyagarajapuram, Tiruvottiyur, Chennai, Tamil Nadu 600019","Thangal, Thyagarajapuram, Tiruvottiyur","48W2+72P, Second Main Rd",Chennai,600019,Tamil Nadu,IN,https://www.google.com/maps/place/JAQH+Masjid+Thiruvotriyur/data=!4m7!3m6!1s0x3a526fbde1e4546d:0x29f20a3acbb4b0f6!8m2!3d13.1457097!4d80.3000685!16s%2Fg%2F11g022gfkm!19sChIJbVTk4b1vUjoR9rC0yzoK8ik?authuser=0&hl=en&rclk=1,"13.1457097,80.3000685"
Masjid-e-Madeenathul Islam,Mosque,"Masjid-e-Madeenathul Islam, 600110, Valliammai Nagar Extension, Ponniammanmedu, Chennai, Tamil Nadu 600110","Valliammai Nagar Extension, Ponniammanmedu",600110,Chennai,600110,Tamil Nadu,IN,https://www.google.com/maps/place/Masjid-e-Madeenathul+Islam/data=!4m7!3m6!1s0x3a5264fb18fa5917:0x260ba2dcc2f34d20!8m2!3d13.1358308!4d80.2242288!16s%2Fg%2F11c5bt8zzp!19sChIJF1n6GPtkUjoRIE3zwtyiCyY?authuser=0&hl=en&rclk=1,"13.135830799999999,80.22422879999999"
Masjid Mosque,Mosque,"Masjid Mosque, 19/5, Singara Thottam 4th Ln, Singara Garden, Old Washermanpet, Chennai, Tamil Nadu 600021, Singara Thottam 4th Ln, Singara Garden, Old Washermanpet, Chennai, Tamil Nadu 600021","Singara Garden, Old Washermanpet","19/5, Singara Thottam 4th Ln, Singara Garden, Old Washermanpet, Chennai, Tamil Nadu 600021, Singara Thottam 4th Ln",Chennai,600021,Tamil Nadu,IN,https://www.google.com/maps/place/Masjid+Mosque/data=!4m7!3m6!1s0x3a526f6f0c9bd6ad:0xc9425dccd8e52121!8m2!3d13.1139971!4d80.2892208!16s%2Fg%2F11dfk_f65h!19sChIJrdabDG9vUjoRISHl2MxdQsk?authuser=0&hl=en&rclk=1,"13.113997099999999,80.2892208"
TNTJ Kolathur Office(Masjid),Mosque,"46QG+32J TNTJ Kolathur Office(Masjid), Nagavalli Nagar, Ponniammanmedu, Chennai, Tamil Nadu 600110","Nagavalli Nagar, Ponniammanmedu",46QG+32J,Chennai,600110,Tamil Nadu,IN,https://www.google.com/maps/place/TNTJ+Kolathur+Office%28Masjid%29/data=!4m7!3m6!1s0x3a5264e4b3c01243:0x9e192a8a9dc2f2d7!8m2!3d13.1377174!4d80.2250265!16s%2Fg%2F11c324zfsk!19sChIJQxLAs-RkUjoR1_LCnYoqGZ4?authuser=0&hl=en&rclk=1,"13.1377174,80.2250265"
Masjidul Hidayah,Mosque,"469W+XM9 Masjidul Hidayah, Jyothi Ramalingam St, New Kamaraj Nagar, Vyasarpadi, Chennai, Tamil Nadu 600039","New Kamaraj Nagar, Vyasarpadi","469W+XM9, Jyothi Ramalingam St",Chennai,600039,Tamil Nadu,IN,https://www.google.com/maps/place/Masjidul+Hidayah/data=!4m7!3m6!1s0x3a5265a437708dad:0x70f3b3a37885b3bf!8m2!3d13.1199102!4d80.2467206!16s%2Fg%2F11b7lqntj9!19sChIJrY1wN6RlUjoRv7OFeKOz83A?authuser=0&hl=en&rclk=1,"13.1199102,80.2467206"
Masjid AN-Noor,Mosque,"no.87, Masjid AN-Noor, 16, W Mada St, Voc Nagar, Thilakar Nagar, Tiruvottiyur, Chennai, Tamil Nadu 600019","Voc Nagar, Thilakar Nagar, Tiruvottiyur","no.87, 16, W Mada St",Chennai,600019,Tamil Nadu,IN,https://www.google.com/maps/place/Masjid+AN-Noor/data=!4m7!3m6!1s0x3a526feb2d4f68cb:0xf2943cb4a3bdf66a!8m2!3d13.151568!4d80.295596!16s%2Fg%2F11c1nvf_h1!19sChIJy2hPLetvUjoRava9o7Q8lPI?authuser=0&hl=en&rclk=1,"13.151568,80.295596"
makkah majid,Mosque,"56CV+G4V makkah majid, Chennai, Kamaraj Nagar, Mathur, Tamil Nadu 600051",Kamaraj Nagar,"56CV+G4V, Chennai",Mathur,600051,Tamil Nadu,IN,https://www.google.com/maps/place/makkah+majid/data=!4m7!3m6!1s0x3a52652d5bb2f707:0x25cad12543578890!8m2!3d13.1713749!4d80.2428123!16s%2Fg%2F11g9pyk34b!19sChIJB_eyWy1lUjoRkIhXQyXRyiU?authuser=0&hl=en&rclk=1,"13.1713749,80.2428123"
Masjid Taqwa,Mosque,"Building No 313, Masjid Taqwa, 8th St, Mahakavi Bharathiyar Nagar West, Mahakavi Bharathi Nagar, Vyasarpadi, Chennai, Tamil Nadu 600039","Mahakavi Bharathiyar Nagar West, Mahakavi Bharathi Nagar, Vyasarpadi","Building No 313, 8th St",Chennai,600039,Tamil Nadu,IN,https://www.google.com/maps/place/Masjid+Taqwa/data=!4m7!3m6!1s0x3a52659ee0366c75:0x6022eb404f5dabfb!8m2!3d13.1230812!4d80.2577522!16s%2Fg%2F11d_2jcry_!19sChIJdWw24J5lUjoR-6tdT0DrImA?authuser=0&hl=en&rclk=1,"13.1230812,80.2577522"
Masjid E Umar,Mosque,"46GJ+7W8 Masjid E Umar, Senthil Nagar, Perambur, Chennai, Tamil Nadu 600082","Senthil Nagar, Perambur",46GJ+7W8,Chennai,600082,Tamil Nadu,IN,https://www.google.com/maps/place/Masjid+E+Umar/data=!4m7!3m6!1s0x3a52651c93dd2a8b:0x8e468805676b5f79!8m2!3d13.125652!4d80.2323175!16s%2Fg%2F11f7bp75wt!19sChIJiyrdkxxlUjoReV9rZwWIRo4?authuser=0&hl=en&rclk=1,"13.125651999999999,80.2323175"
Masjid,Mosque,"6, Masjid, E Kal Mandapam Rd, Kanniyappan Colony, Pudumanaikuppam, Tondiarpet, Chennai, Tamil Nadu 600013","Kanniyappan Colony, Pudumanaikuppam, Tondiarpet","6, E Kal Mandapam Rd",Chennai,600013,Tamil Nadu,IN,https://www.google.com/maps/place/Masjid/data=!4m7!3m6!1s0x3a526f719cb0a39f:0x7cc5ce98b5429480!8m2!3d13.1197257!4d80.2927141!16s%2Fg%2F11g01wtbyq!19sChIJn6OwnHFvUjoRgJRCtZjOxXw?authuser=0&hl=en&rclk=1,"13.1197257,80.2927141"
Masjid E Noor,Mosque,"5693+W7F Masjid E Noor, Sakthivel Nagar, Mahalakshmi Nagar, Puzhal, Chennai, Lyon, Tamil Nadu 600066","Sakthivel Nagar, Mahalakshmi Nagar, Puzhal",5693+W7F,"Chennai, Lyon",600066,Tamil Nadu,IN,https://www.google.com/maps/place/Masjid+E+Noor/data=!4m7!3m6!1s0x3a5264b3469a926d:0xc05e1922d14b7a30!8m2!3d13.1698167!4d80.2031585!16s%2Fg%2F11f3b7j9z7!19sChIJbZKaRrNkUjoRMHpL0SIZXsA?authuser=0&hl=en&rclk=1,"13.1698167,80.2031585"
Masjid-Al-Haramain,Mosque,"56GG+5C5 Masjid-Al-Haramain, Parvathi puram, Vadaperumbakkam, Chennai, Ariyalur, Tamil Nadu 600060","Parvathi puram, Vadaperumbakkam",56GG+5C5,"Chennai, Ariyalur",600060,Tamil Nadu,IN,https://www.google.com/maps/place/Masjid-Al-Haramain/data=!4m7!3m6!1s0x3a527b422b369a4d:0x9286e1f0c67ed400!8m2!3d13.1753757!4d80.2261208!16s%2Fg%2F11g4lkp0m0!19sChIJTZo2K0J7UjoRANR-xvDhhpI?authuser=0&hl=en&rclk=1,"13.1753757,80.22612079999999"
Masjid E Islah Sazan,Mosque,"473M+HRG Masjid E Islah Sazan, Ponniamman Koil St, Thayapa, Bundar Rama Garden, George Town, Chennai, Tamil Nadu 600001","Thayapa, Bundar Rama Garden, George Town","473M+HRG, Ponniamman Koil St",Chennai,600001,Tamil Nadu,IN,https://www.google.com/maps/place/Masjid+E+Islah+Sazan/data=!4m7!3m6!1s0x3a526f5da2f46b39:0x44419f8f37822d32!8m2!3d13.1039302!4d80.2845766!16s%2Fg%2F11f3z8fkv1!19sChIJOWv0ol1vUjoRMi2CN4-fQUQ?authuser=0&hl=en&rclk=1,"13.103930199999999,80.2845766"
Masjid-e-Firdous,Mosque,"46HV+JWJ Masjid-e-Firdous, Tondiarpet High Rd, Nehru Nagar, Kodungaiyur, Chennai, Tamil Nadu 600118","Nehru Nagar, Kodungaiyur","46HV+JWJ, Tondiarpet High Rd",Chennai,600118,Tamil Nadu,IN,https://www.google.com/maps/place/Masjid-e-Firdous/data=!4m7!3m6!1s0x3a5265085d9f56f1:0xdbab06dbdd014218!8m2!3d13.1290857!4d80.2447642!16s%2Fg%2F11b6_s8v4x!19sChIJ8VafXQhlUjoRGEIB3dsGq9s?authuser=0&hl=en&rclk=1,"13.1290857,80.24476419999999"
Masjid & Madarasa-E-Ikhlas,Mosque,"Masjid & Madarasa-E-Ikhlas, Thirumal Srinivas Nagar, Katida Thozilalar Nagar, Tirumal Srinivas Nagar, Chennai, Tamil Nadu 600099","Katida Thozilalar Nagar, Tirumal Srinivas Nagar",Thirumal Srinivas Nagar,"Chennai, Kadirvedu",600099,Tamil Nadu,IN,https://www.google.com/maps/place/Masjid+%26+Madarasa-E-Ikhlas/data=!4m7!3m6!1s0x3a526553d9c3b86b:0x31bd4fe86fe6af02!8m2!3d13.1438222!4d80.2051745!16s%2Fg%2F11lt4wfwnz!19sChIJa7jD2VNlUjoRAq_mb-hPvTE?authuser=0&hl=en&rclk=1,"13.143822199999999,80.2051745"
Kaladipet Mosque,Mosque,"Kaladipet Mosque, 358, Thiruvottiyur High Rd, Rajakadai, Tiruvottiyur, Chennai, Tamil Nadu 600019","Rajakadai, Tiruvottiyur","358, Thiruvottiyur High Rd",Chennai,,Tamil Nadu,IN,https://www.google.com/maps/place/Kaladipet+Mosque/data=!4m7!3m6!1s0x3a526fc04db8e613:0xd78a956137fddb7e!8m2!3d13.1542879!4d80.3009618!16s%2Fg%2F1tf5j1rf!19sChIJE-a4TcBvUjoRftv9N2GVitc?authuser=0&hl=en&rclk=1,"13.1542879,80.3009618"
Masjid e Mohsi,Mosque,"46VF+8J5 Masjid e Mohsi, MBTT Complex, Inside Heavy vehicle parking, Madhavaram, Chennai, Tamil Nadu 110","J Garden, Madhavaram","46VF+8J5, MBTT Complex, Inside Heavy vehicle parking",Chennai,110,Tamil Nadu,IN,https://www.google.com/maps/place/Masjid+e+Mohsi/data=!4m7!3m6!1s0x3a5265688694a01b:0xc0c240029a1fad0c!8m2!3d13.1432739!4d80.2241022!16s%2Fg%2F11h18bw7lx!19sChIJG6CUhmhlUjoRDK0fmgJAwsA?authuser=0&hl=en&rclk=1,"13.143273899999999,80.22410219999999"
Masjid E Madeena,Mosque,"46PW+JMH Masjid E Madeena, 39th St, Gandhi Nagar, Kodungaiyur, Chennai, Tamil Nadu 600118","Gandhi Nagar, Kodungaiyur","46PW+JMH, 39th St",Chennai,600118,Tamil Nadu,IN,https://www.google.com/maps/place/Masjid+E+Madeena/data=!4m7!3m6!1s0x3a52650e4890b2bd:0x33234ab6abfd9538!8m2!3d13.1365536!4d80.2467223!16s%2Fg%2F11b76gmwvx!19sChIJvbKQSA5lUjoROJX9q7ZKIzM?authuser=0&hl=en&rclk=1,"13.1365536,80.2467223"
TNTJ Thangal Kilai,Mosque,"TNTJ Thangal Kilai, 22, PPD Rd, Thangal, Thyagarajapuram, Tiruvottiyur, Chennai, Tamil Nadu 600019","Thangal, Thyagarajapuram, Tiruvottiyur","22, PPD Rd",Chennai,600019,Tamil Nadu,IN,https://www.google.com/maps/place/TNTJ+Thangal+Kilai/data=!4m7!3m6!1s0x3a526fbe19e692af:0x7e7a2c7ef41c3289!8m2!3d13.1470747!4d80.2996914!16s%2Fg%2F11c45mhwjv!19sChIJr5LmGb5vUjoRiTIc9H4sen4?authuser=0&hl=en&rclk=1,"13.1470747,80.2996914"
Cutchi Memon Masjid,Mosque,"Cutchi Memon Masjid, 421, Thiruvottiyur High Rd, Old Washermanpet, Chennai, Tamil Nadu 600021","Minakshi Ammanpet, Old Washermanpet","421, Thiruvottiyur High Rd",Chennai,600021,Tamil Nadu,IN,https://www.google.com/maps/place/Cutchi+Memon+Masjid/data=!4m7!3m6!1s0x3a526f613e59a5e3:0x56e377a4e31ef559!8m2!3d13.1097953!4d80.2812214!16s%2Fg%2F1pxw9h875!19sChIJ46VZPmFvUjoRWfUe46R341Y?authuser=0&hl=en&rclk=1,"13.1097953,80.28122139999999"
"TNTJ, Atthipattu",Mosque,"774M+V7F TNTJ, Atthipattu, Attipattu, Vallur, Nandiambakkam, Tamil Nadu 600120",Attipattu,774M+V7F,"Vallur, Nandiambakkam",600120,Tamil Nadu,IN,"https://www.google.com/maps/place/TNTJ,+Atthipattu/data=!4m7!3m6!1s0x3a5270aedae5597f:0x5947202f5c0cfdc5!8m2!3d13.2571895!4d80.2831614!16s%2Fg%2F11c2pm77zr!19sChIJf1nl2q5wUjoRxf0MXC8gR1k?authuser=0&hl=en&rclk=1","13.257189499999999,80.2831614"
Masjid e Muhammadiyya,Mosque,"Masjid e Muhammadiyya, 1, Thiruvottiyur High Rd, Near Railway Station, Kalainger Nagar, Tiruvottiyur, Chennai, Tamil Nadu 600057","Kalainger Nagar, Tiruvottiyur","1, Thiruvottiyur High Rd, Near Railway Station",Chennai,600057,Tamil Nadu,IN,https://www.google.com/maps/place/Masjid+e+Muhammadiyya/data=!4m7!3m6!1s0x3a52702425665979:0x9651b8ec83bb8d37!8m2!3d13.1810153!4d80.3066522!16s%2Fg%2F1ptz1swmr!19sChIJeVlmJSRwUjoRN427g-y4UZY?authuser=0&hl=en&rclk=1,"13.181015299999999,80.3066522"
Quraishiya Masjid,Mosque,"47H8+FC5 Quraishiya Masjid, Krishnamoorthy Nagar, Kodungaiyur, Chennai, Tamil Nadu 600118","Krishnamoorthy Nagar, Kodungaiyur",47H8+FC5,Chennai,600118,Tamil Nadu,IN,https://www.google.com/maps/place/Quraishiya+Masjid/data=!4m7!3m6!1s0x3a52656031bc8557:0x9adef0e02d3edde7!8m2!3d13.1286363!4d80.2661193!16s%2Fg%2F11fr404mq_!19sChIJV4W8MWBlUjoR590-LeDw3po?authuser=0&hl=en&rclk=1,"13.1286363,80.2661193"
Masjid Masino Port Trust Colony Mosque,Mosque,"47QR+WHF Masjid Masino Port Trust Colony Mosque, Jawaharlal Nehru St, Port Trust Housing Colony, Tondiarpet, Chennai, Tamil Nadu 600081","Port Trust Housing Colony, Tondiarpet","47QR+WHF, Jawaharlal Nehru St",Chennai,600081,Tamil Nadu,IN,https://www.google.com/maps/place/Masjid+Masino+Port+Trust+Colony+Mosque/data=!4m7!3m6!1s0x3a526f9a77943951:0x8376419857dbf014!8m2!3d13.1398134!4d80.2914347!16s%2Fg%2F1q645wvv8!19sChIJUTmUd5pvUjoRFPDbV5hBdoM?authuser=0&hl=en&rclk=1,"13.1398134,80.2914347"
Masjid,Mosque,"57W9+8M8 Masjid, Rajiv Gandhi Nagar, Andarkuppam, Manali New Town, Manali, Edayanchavadi, Tamil Nadu 600103","Rajiv Gandhi Nagar, Andarkuppam, Manali New Town, Manali",57W9+8M8,Edayanchavadi,600103,Tamil Nadu,IN,https://www.google.com/maps/place/Masjid/data=!4m7!3m6!1s0x3a527aa2772512e7:0xb1bfffc7f7597ee3!8m2!3d13.1957841!4d80.2692068!16s%2Fg%2F11hcvyk97s!19sChIJ5xIld6J6UjoR435Z98f_v7E?authuser=0&hl=en&rclk=1,"13.1957841,80.26920679999999"
Mosque,Mosque,"66CG+CFG Mosque, Tiruvallur, Tamil Nadu 600067",,66CG+CFG,Tiruvallur,,Tamil Nadu,IN,https://www.google.com/maps/place/Mosque/data=!4m7!3m6!1s0x3a527ba96389a26d:0x8e03eeb31454a352!8m2!3d13.2210613!4d80.2262151!16s%2Fg%2F11ggbbw42q!19sChIJbaKJY6l7UjoRUqNUFLPuA44?authuser=0&hl=en&rclk=1,"13.221061299999999,80.22621509999999"
MASJID E MOHAMMADIA,Mosque,"MASJID E MOHAMMADIA, No 44, 4th st, Ambedkar Nagar, Korukkupet, Old Washermanpet, Chennai, Tamil Nadu 600021","Ambedkar Nagar, Korukkupet, Old Washermanpet","No 44, 4th st, Ambedkar Nagar, Korukkupet, Old Washermanpet",Chennai,600021,Tamil Nadu,IN,https://www.google.com/maps/place/MASJID+E+MOHAMMADIA/data=!4m7!3m6!1s0x3a52658856be137f:0xd705caa7d9faf4f6!8m2!3d13.114049!4d80.2741857!16s%2Fg%2F11f3n2ntj0!19sChIJfxO-VohlUjoR9vT62afKBdc?authuser=0&hl=en&rclk=1,"13.114049,80.27418569999999"
Mesjthe Rahamannya Adakasthalam,Mosque,"4676+7VV Mesjthe Rahamannya Adakasthalam, Kaveri St, Villivakkam, Indira Nagar, Kolathur, Chennai, Tamil Nadu 600099","Villivakkam, Indira Nagar, Kolathur","4676+7VV, Kaveri St",Chennai,600099,Tamil Nadu,IN,https://www.google.com/maps/place/Mesjthe+Rahamannya+Adakasthalam/data=!4m7!3m6!1s0x3a526442da3fe939:0xd7ea20dfe638a3b7!8m2!3d13.1132499!4d80.2121614!16s%2Fg%2F1z3t9db86!19sChIJOek_2kJkUjoRt6M45t8g6tc?authuser=0&hl=en&rclk=1,"13.1132499,80.2121614"
Masjid Walaja,Mosque,"774H+RJG Masjid Walaja, Pattamandhri, Minjur, Nandiambakkam, Tamil Nadu 600120",Pattamandhri,774H+RJG,"Minjur, Nandiambakkam",600120,Tamil Nadu,IN,https://www.google.com/maps/place/Masjid+Walaja/data=!4m7!3m6!1s0x3a5270a9af697e7d:0x266121d69e15263!8m2!3d13.2570578!4d80.2790762!16s%2Fg%2F11h9zbt39_!19sChIJfX5pr6lwUjoRY1LhaR0SZgI?authuser=0&hl=en&rclk=1,"13.2570578,80.27907619999999"
Masjid,Mosque,"6879+39R Masjid, Nehru Nagar, Ennore, Tamil Nadu 600057",Nehru Nagar,6879+39R,Ennore,600057,Tamil Nadu,IN,https://www.google.com/maps/place/Masjid/data=!4m7!3m6!1s0x3a527053a9b218b1:0x510bd5c845b42c61!8m2!3d13.2127334!4d80.3183999!16s%2Fg%2F11g01vgl4l!19sChIJsRiyqVNwUjoRYSy0RcjVC1E?authuser=0&hl=en&rclk=1,"13.2127334,80.3183999"
Masjid-UL-Hafeez,Mosque,"46PM+5J2 Masjid-UL-Hafeez, Dr. Ambedkar Nagar, KKR Nagar, Kolkata, Madhavaram, Chennai, Tamil Nadu 600060","Dr. Ambedkar Nagar, KKR Nagar, Kolkata, Madhavaram",46PM+5J2,Chennai,600060,Tamil Nadu,IN,https://www.google.com/maps/place/Masjid-UL-Hafeez/data=!4m7!3m6!1s0x3a526502f1052035:0x728b21a78e0deaaf!8m2!3d13.1353795!4d80.2340183!16s%2Fg%2F11gff75nqv!19sChIJNSAF8QJlUjoRr-oNjqchi3I?authuser=0&hl=en&rclk=1,"13.135379499999999,80.2340183"
MASJID E RAHMATH,Mosque,"469Q+4MQ MASJID E RAHMATH, Kannivakkam, State Bank Colony, Perambur, Chennai, Tamil Nadu 600011","Kannivakkam, State Bank Colony, Perambur",469Q+4MQ,Chennai,600011,Tamil Nadu,IN,https://www.google.com/maps/place/MASJID+E+RAHMATH/data=!4m7!3m6!1s0x3a5265ae5fac4ea3:0xdb70d624c12147b1!8m2!3d13.1178289!4d80.2392449!16s%2Fg%2F11cn9zqmhg!19sChIJo06sX65lUjoRsUchwSTWcNs?authuser=0&hl=en&rclk=1,"13.1178289,80.2392449"
"TNTJ Markaz, Kannadasan Nagar",Mosque,"47J6+Q25 TNTJ Markaz, Kannadasan Nagar, Unnamed Road, Kodungaiyur (East), Sasirekamma Nagar, Kodungaiyur, Chennai, Tamil Nadu 600118","Kodungaiyur (East), Sasirekamma Nagar, Kodungaiyur","47J6+Q25, Unnamed Road",Chennai,600118,Tamil Nadu,IN,"https://www.google.com/maps/place/TNTJ+Markaz,+Kannadasan+Nagar/data=!4m7!3m6!1s0x3a526576a0c04c2f:0x9892ea8c39855347!8m2!3d13.1318822!4d80.2601067!16s%2Fg%2F11f2wcxwzw!19sChIJL0zAoHZlUjoRR1OFOYzqkpg?authuser=0&hl=en&rclk=1","13.1318822,80.2601067"
Masjid-e-Khaleel,Mosque,"4743+87H Masjid-e-Khaleel, Shanthi Nagar, Arundati Nagar, Jamalia, Chennai, Tamil Nadu 600012","Shanthi Nagar, Arundati Nagar, Jamalia",4743+87H,Chennai,600012,Tamil Nadu,IN,https://www.google.com/maps/place/Masjid-e-Khaleel/data=!4m7!3m6!1s0x3a526504a075cf03:0xd103b72079270bb6!8m2!3d13.1058187!4d80.253245!16s%2Fg%2F11gmh8vs29!19sChIJA891oARlUjoRtgsneSC3A9E?authuser=0&hl=en&rclk=1,"13.105818699999999,80.25324499999999"
Masjid-ul Ilahi,Mosque,"57CW+85J Masjid-ul Ilahi, 3rd St, Charles Nagar, Tiruvottiyur, Chennai, Tamil Nadu 600019","Charles Nagar, Tiruvottiyur","57CW+85J, 3rd St",Chennai,600019,Tamil Nadu,IN,https://www.google.com/maps/place/Masjid-ul+Ilahi/data=!4m7!3m6!1s0x3a526ffcd880a53d:0xc2e40d32a1a14e1b!8m2!3d13.170841!4d80.2953886!16s%2Fg%2F11gk7ydxm8!19sChIJPaWA2PxvUjoRG06hoTIN5MI?authuser=0&hl=en&rclk=1,"13.170841,80.2953886"
Masjid - e - Mohammadi,Mosque,"Masjid - e - Mohammadi, 1, Voc Nagar Market Rd, Thiruvalluvar Nagar, New Washermenpet, Tondiarpet, Chennai, Tamil Nadu 600081","Thiruvalluvar Nagar, New Washermenpet, Tondiarpet","1, Voc Nagar Market Rd",Chennai,600081,Tamil Nadu,IN,https://www.google.com/maps/place/Masjid+-+e+-+Mohammadi/data=!4m7!3m6!1s0x3a526f6837a591bd:0xe724ddf5114aebcc!8m2!3d13.1315277!4d80.2857994!16s%2Fg%2F11sz3q1whz!19sChIJvZGlN2hvUjoRzOtKEfXdJOc?authuser=0&hl=en&rclk=1,"13.1315277,80.2857994"
Madrasa & Masjid-e-iqura,Mosque,"Madrasa & Masjid-e-iqura, 10/20 4th street tiyagi satyamoorthy nagar new, Manali Express Rd, Tiruvottiyur, Chennai, Tamil Nadu 600019","Sathya Moorthy Nagar, Tiruvottiyur","10/20 4th street tiyagi satyamoorthy nagar new, Manali Express Rd",Chennai,600019,Tamil Nadu,IN,https://www.google.com/maps/place/Madrasa+%26+Masjid-e-iqura/data=!4m7!3m6!1s0x3a52701c2836a8ed:0xbb8459c857593e7e!8m2!3d13.1776087!4d80.2934008!16s%2Fg%2F11f4_4mxsd!19sChIJ7ag2KBxwUjoRfj5ZV8hZhLs?authuser=0&hl=en&rclk=1,"13.177608699999999,80.2934008"
TNTJ SELAVOYAL BRANCH MASJIDUL HUDHA,Mosque,"TNTJ SELAVOYAL BRANCH MASJIDUL HUDHA, Gramaniyar Garden St, Andal Nagar, Selaivayal, Chennai, Tamil Nadu 600051","Andal Nagar, Selaivayal",Gramaniyar Garden St,Chennai,600051,Tamil Nadu,IN,https://www.google.com/maps/place/TNTJ+SELAVOYAL+BRANCH+MASJIDUL+HUDHA/data=!4m7!3m6!1s0x3a5265bc7a7a94af:0x200ccac56c1486c2!8m2!3d13.1442429!4d80.2569864!16s%2Fg%2F11rn0515bk!19sChIJr5R6erxlUjoRwoYUbMXKDCA?authuser=0&hl=en&rclk=1,"13.1442429,80.2569864"
Masjid e mubarak,Mosque,"Masjid e mubarak, No-1, 5 th Street, bharathiyar nagar, ennore beach road, Chennai, Tamil Nadu 600057",Bharathiyar Nagar,"No-1, 5 th Street, bharathiyar nagar, ennore beach road","Chennai, Ennore",600057,Tamil Nadu,IN,https://www.google.com/maps/place/Masjid+e+mubarak/data=!4m7!3m6!1s0x3a52719281a6eaeb:0x3f7816fb6ed67c59!8m2!3d13.1864229!4d80.3166978!16s%2Fg%2F11g0q5fb78!19sChIJ6-qmgZJxUjoRWXzWbvsWeD8?authuser=0&hl=en&rclk=1,"13.1864229,80.3166978"
Masjid Madeena,Mosque,"67XX+GQH Masjid Madeena, Unnamed Road, Athipattu Pudunagar, Tamil Nadu 600120",,"67XX+GQH, Unnamed Road",Athipattu Pudunagar,600120,Tamil Nadu,IN,https://www.google.com/maps/place/Masjid+Madeena/data=!4m7!3m6!1s0x3a5270c753de28b1:0x68a6d5bec6ee0924!8m2!3d13.2488117!4d80.2994897!16s%2Fg%2F11f_12t2g5!19sChIJsSjeU8dwUjoRJAnuxr7Vpmg?authuser=0&hl=en&rclk=1,"13.2488117,80.2994897"
Masjid-e-Ansar Jumma Pallivasal,Mosque,"57F5+9CG Masjid-e-Ansar Jumma Pallivasal, Harikrishna Puram, Manali, Chennai, Tamil Nadu 600051","Harikrishna Puram, Manali",57F5+9CG,Chennai,600051,Tamil Nadu,IN,https://www.google.com/maps/place/Masjid-e-Ansar+Jumma+Pallivasal/data=!4m7!3m6!1s0x3a527b4ac524d479:0x67903c9584665299!8m2!3d13.1734453!4d80.258585!16s%2Fg%2F11s9g7mqry!19sChIJedQkxUp7UjoRmVJmhJU8kGc?authuser=0&hl=en&rclk=1,"13.1734453,80.258585"
Thangal Big Masjid,Mosque,"Thangal Big Masjid, No-1063, Masuthi Complex, Tiruvottiyur High Road Poonamalle, High Road, Thangal, Thyagarajapuram, Tiruvottiyur, Chennai, Tamil Nadu 600081","Thangal, Thyagarajapuram, Tiruvottiyur","No-1063, Masuthi Complex, Tiruvottiyur High Road Poonamalle, High Road",Chennai,600081,Tamil Nadu,IN,https://www.google.com/maps/place/Thangal+Big+Masjid/data=!4m7!3m6!1s0x3a526f9e4c0933af:0xeb2b19639d29771!8m2!3d13.1469182!4d80.2980634!16s%2Fg%2F11n_d4xsd7!19sChIJrzMJTJ5vUjoRcZfSOZaxsg4?authuser=0&hl=en&rclk=1,"13.1469182,80.29806339999999"
Masjid-e-mammor,Mosque,"6868+9MC Masjid-e-mammor, Nehru Nagar, Ennore, Tamil Nadu 600057",Nehru Nagar,6868+9MC,Ennore,600057,Tamil Nadu,IN,https://www.google.com/maps/place/Masjid-e-mammor/data=!4m7!3m6!1s0x3a52713bf2255b95:0x43d81a2ef5779a7b!8m2!3d13.2109328!4d80.3166327!16s%2Fg%2F11h3994xmr!19sChIJlVsl8jtxUjoRe5p39S4a2EM?authuser=0&hl=en&rclk=1,"13.2109328,80.3166327"
Mosque Jama Masjid,Mosque,"Mosque Jama Masjid, 12, Kathivakkam High School Rd, Netaji Nagar West, Ennore, Tamil Nadu 600057",Netaji Nagar West,"12, Kathivakkam High School Rd",Ennore,600057,Tamil Nadu,IN,https://www.google.com/maps/place/Mosque+Jama+Masjid/data=!4m7!3m6!1s0x3a527030ae19e6b1:0xd7159fc1cd8e41ed!8m2!3d13.1915613!4d80.3108725!16s%2Fg%2F11df0p6y3k!19sChIJseYZrjBwUjoR7UGOzcGfFdc?authuser=0&hl=en&rclk=1,"13.1915613,80.3108725"
Masjid-e-Mehrunnissa Begum Sahiba,Mosque,"58Q3+W68 Masjid-e-Mehrunnissa Begum Sahiba, Girija Nagar extension Ernavoor, Chennai, Tamil Nadu 600057",Ernavur,"58Q3+W68, Girija Nagar extension Ernavoor","Chennai, Ennore",600057,Tamil Nadu,IN,https://www.google.com/maps/place/Masjid-e-Mehrunnissa+Begum+Sahiba/data=!4m7!3m6!1s0x3a5271019039d223:0x3795252e78ba492e!8m2!3d13.1897853!4d80.3030849!16s%2Fg%2F11h3qqd6zh!19sChIJI9I5kAFxUjoRLkm6eC4llTc?authuser=0&hl=en&rclk=1,"13.189785299999999,80.3030849"
TNTJ Kaladipet Markus,Mosque,"TNTJ Kaladipet Markus, 988, Thiruvottiyur High Rd, Kaladipet, Tiruvottiyur, Chennai, Tamil Nadu 600019","Kaladipet, Tiruvottiyur","988, Thiruvottiyur High Rd",Chennai,600019,Tamil Nadu,IN,https://www.google.com/maps/place/TNTJ+Kaladipet+Markus/data=!4m7!3m6!1s0x3a526fc013432f6f:0xd4d96d55b8a6ba8e!8m2!3d13.1526868!4d80.3003448!16s%2Fg%2F11f_c0cr3g!19sChIJby9DE8BvUjoRjrqmuFVt2dQ?authuser=0&hl=en&rclk=1,"13.1526868,80.30034479999999"
Masjid,Mosque,"776R+7P4 Masjid, Attipattu, Athipatttu, Nandiambakkam, Tamil Nadu 600120",Attipattu,776R+7P4,"Athipatttu, Nandiambakkam",600120,Tamil Nadu,IN,https://www.google.com/maps/place/Masjid/data=!4m7!3m6!1s0x3a5270b3e66eb5f9:0x501f63f4d5114fba!8m2!3d13.2606479!4d80.2918189!16s%2Fg%2F11h9yd6sqs!19sChIJ-bVu5rNwUjoRuk8R1fRjH1A?authuser=0&hl=en&rclk=1,"13.260647899999999,80.2918189"
Masjid taqwa,Mosque,"Masjid taqwa, 24/18 Patel Nagar, Singara Gdn 2nd St, Tondiarpet, Chennai, Tamil Nadu 600081","Vinobha Nagar, Tondiarpet","24/18 Patel Nagar, Singara Gdn 2nd St",Chennai,600081,Tamil Nadu,IN,https://www.google.com/maps/place/Masjid+taqwa/data=!4m7!3m6!1s0x3a526f7538e3c3ed:0xff4b1cda550ad611!8m2!3d13.1364899!4d80.2779133!16s%2Fg%2F11r9f5yxjk!19sChIJ7cPjOHVvUjoREdYKVdocS_8?authuser=0&hl=en&rclk=1,"13.136489899999999,80.2779133"
"Noor Masjid, Jagan Nagar",Mosque,"77P7+F3C Noor Masjid, Jagan Nagar, Unnamed Road, Minjur, Tamil Nadu 601203",,"77P7+F3C, Unnamed Road",Minjur,601203,Tamil Nadu,IN,"https://www.google.com/maps/place/Noor+Masjid,+Jagan+Nagar/data=!4m7!3m6!1s0x3a5279b4ce016cc5:0x79665c5db0476c07!8m2!3d13.2861876!4d80.2626288!16s%2Fg%2F11fj8f4bxl!19sChIJxWwBzrR5UjoRB2xHsF1cZnk?authuser=0&hl=en&rclk=1","13.2861876,80.2626288"
Masjid E Mahmoodhia,Mosque,"68CF+MP7 Masjid E Mahmoodhia, Satyavanimuthu, Ennore, Tamil Nadu 600057",Satyavanimuthu,68CF+MP7,Ennore,600057,Tamil Nadu,IN,https://www.google.com/maps/place/Masjid+E+Mahmoodhia/data=!4m7!3m6!1s0x3a5271cdc0bfb3fd:0xa53bdd24b7cc7d08!8m2!3d13.2216575!4d80.3243009!16s%2Fg%2F11n0d51g6d!19sChIJ_bO_wM1xUjoRCH3MtyTdO6U?authuser=0&hl=en&rclk=1,"13.2216575,80.3243009"
Masjid E Elahi,Mosque,"775P+XM2 Masjid E Elahi, Reddy Palayam, Sridevi Nagar, Attipattu, Minjur, Nandiambakkam, Tamil Nadu 600120","Reddy Palayam, Sridevi Nagar, Attipattu",775P+XM2,"Minjur, Nandiambakkam",600120,Tamil Nadu,IN,https://www.google.com/maps/place/Masjid+E+Elahi/data=!4m7!3m6!1s0x3a52716d2da9541b:0xe7c2b0b225d4da37!8m2!3d13.2598789!4d80.2866527!16s%2Fg%2F11gy3h0l9h!19sChIJG1SpLW1xUjoRN9rUJbKwwuc?authuser=0&hl=en&rclk=1,"13.259878899999999,80.28665269999999"
Masjid - E - Thaha.,Mosque,"No : 958, Masjid - E - Thaha., 250, Thiruvottiyur High Rd, Kaladipet, Tiruvottiyur, Chennai, Tamil Nadu 600019","Kaladipet, Tiruvottiyur","No : 958, 250, Thiruvottiyur High Rd",Chennai,600019,Tamil Nadu,IN,https://www.google.com/maps/place/Masjid+-+E+-+Thaha./data=!4m7!3m6!1s0x3a526f4e971d1b3d:0xd259b7614d9976b4!8m2!3d13.1542981!4d80.3007049!16s%2Fg%2F11fkn9p22m!19sChIJPRsdl05vUjoRtHaZTWG3WdI?authuser=0&hl=en&rclk=1,"13.1542981,80.3007049"
Masjid E Aqsa And Madarasa,Mosque,"66GC+R47 Masjid E Aqsa And Madarasa, Arumandai, Kodipallam, Tamil Nadu 600067",,66GC+R47,"Arumandai, Kodipallam",600067,Tamil Nadu,IN,https://www.google.com/maps/place/Masjid+E+Aqsa+And+Madarasa/data=!4m7!3m6!1s0x3a527b48d9bf8cfb:0xe66d8b98df80fd2c!8m2!3d13.2270295!4d80.2202998!16s%2Fg%2F11fkdly1kp!19sChIJ-4y_2Uh7UjoRLP2A35iLbeY?authuser=0&hl=en&rclk=1,"13.227029499999999,80.22029979999999"
Masjid E Noor,Mosque,"46GW+F9C Masjid E Noor, Kaveri Nagar, Erukkanchery, Nehru Nagar, Kodungaiyur, Chennai, Tamil Nadu 600118","Erukkanchery, Nehru Nagar, Kodungaiyur","46GW+F9C, Kaveri Nagar",Chennai,600118,Tamil Nadu,IN,https://www.google.com/maps/place/Masjid+E+Noor/data=!4m7!3m6!1s0x3a52659a40c35b5b:0x9af8aeac7ab1068f!8m2!3d13.1261758!4d80.2458945!16s%2Fg%2F11r4gycj16!19sChIJW1vDQJplUjoRjwaxeqyu-Jo?authuser=0&hl=en&rclk=1,"13.126175799999999,80.24589449999999"
Mosque,Mosque,"454X+CJH Mosque, 4th Main Rd, Sidco Industrial Estate, Villivakkam, Chennai, Tamil Nadu 600049","Sidco Industrial Estate, Villivakkam","454X+CJH, 4th Main Rd",Chennai,600049,Tamil Nadu,IN,https://www.google.com/maps/place/Mosque/data=!4m7!3m6!1s0x3a52646d8ee936af:0xcd63053a5a970ca5!8m2!3d13.1060511!4d80.1991237!16s%2Fg%2F11d_t_fc_r!19sChIJrzbpjm1kUjoRpQyXWjoFY80?authuser=0&hl=en&rclk=1,"13.1060511,80.1991237"
Masjid-Us-Salaam (TNTJ Marcus),Mosque,"Masjid-Us-Salaam (TNTJ Marcus), 232, Big Mosque St, Veera Raghavan Nagar, Vilangadupakkam, Dhargaas, Singilimedu, Perungavoor, Tamil Nadu 600052","Veera Raghavan Nagar, Vilangadupakkam, Dhargaas","232, Big Mosque St","Singilimedu, Perungavoor",600052,Tamil Nadu,IN,https://www.google.com/maps/place/Masjid-Us-Salaam+%28TNTJ+Marcus%29/data=!4m7!3m6!1s0x3a527bcbc3c7e15f:0xf8eec74c318b23ef!8m2!3d13.2047223!4d80.2107579!16s%2Fg%2F11pw1q7_bw!19sChIJX-HHw8t7UjoR7yOLMUzH7vg?authuser=0&hl=en&rclk=1,"13.2047223,80.21075789999999"
Al Bathh jummah masjid - madarsa,Mosque,"47XC+R26 Al Bathh jummah masjid - madarsa, Salai Ma Nagar, Old Washermanpet, Chennai, Tamil Nadu 600081","Salai Ma Nagar, Old Washermanpet",47XC+R26,Chennai,600081,Tamil Nadu,IN,https://www.google.com/maps/place/Al+Bathh+jummah+masjid+-+madarsa/data=!4m7!3m6!1s0x3a5265aeb77b9d65:0x1baffc522c9497d2!8m2!3d13.1495356!4d80.2700045!16s%2Fg%2F11rsfbxf06!19sChIJZZ17t65lUjoR0peULFL8rxs?authuser=0&hl=en&rclk=1,"13.1495356,80.2700045"
Masjid e mohammdiya,Mosque,"779G+HJQ Masjid e mohammdiya, Attipattu, Nandiambakkam, Tamil Nadu 600120",Attipattu,779G+HJQ,Nandiambakkam,,Tamil Nadu,IN,https://www.google.com/maps/place/Masjid+e+mohammdiya/data=!4m7!3m6!1s0x3a52792f96c2f42d:0x6ddb91293975dc55!8m2!3d13.268972!4d80.2766066!16s%2Fg%2F11k9s43v_5!19sChIJLfTCli95UjoRVdx1OSmR220?authuser=0&hl=en&rclk=1,"13.268972,80.2766066"
TNTJ Netaji nagar ( Masjidur rahman),Mosque,"TNTJ Netaji nagar ( Masjidur rahman), No: 27/22, 3rd St, Tamilar Nagar, Sanjay Gandhi Nagar, Tondiarpet, Chennai, Tamil Nadu 600118","Tamilar Nagar, Sanjay Gandhi Nagar, Tondiarpet","No: 27/22, 3rd St",Chennai,600118,Tamil Nadu,IN,https://www.google.com/maps/place/TNTJ+Netaji+nagar+%28+Masjidur+rahman%29/data=!4m7!3m6!1s0x3a526f8ec99faf0b:0x792e68b5e38dae87!8m2!3d13.1389001!4d80.2788024!16s%2Fg%2F11t3f3x62c!19sChIJC6-fyY5vUjoRh66N47VoLnk?authuser=0&hl=en&rclk=1,"13.138900099999999,80.27880239999999"
Masjid de rahmania,Mosque,"Masjid de rahmania, 7, Street No. 9, Shakthi Ganapathy Nagar, Kalaignar Nagar, Tiruvottiyur, Chennai, Tamil Nadu 600019","Shakthi Ganapathy Nagar, Kalaignar Nagar, Tiruvottiyur","7, Street No. 9",Chennai,600019,Tamil Nadu,IN,https://www.google.com/maps/place/Masjid+de+rahmania/data=!4m7!3m6!1s0x3a5271647f442ee1:0x9b0571382b883736!8m2!3d13.1746743!4d80.2981606!16s%2Fg%2F11rw65c5cl!19sChIJ4S5Ef2RxUjoRNjeIKzhxBZs?authuser=0&hl=en&rclk=1,"13.1746743,80.2981606"
Makkah Masjid And Madarasa kodipallam,Mosque,"Makkah Masjid And Madarasa kodipallam, 58 bavani amma garden, Madras, Arumandai, Tamil Nadu 600067",,"58 bavani amma garden, Madras",Arumandai,600067,Tamil Nadu,IN,https://www.google.com/maps/place/Makkah+Masjid+And+Madarasa+kodipallam/data=!4m7!3m6!1s0x3a527bd6717dd6dd:0x98fb7a282d427e4a!8m2!3d13.2321651!4d80.2252017!16s%2Fg%2F11fn0d64yp!19sChIJ3dZ9cdZ7UjoRSn5CLSh6-5g?authuser=0&hl=en&rclk=1,"13.2321651,80.2252017"
Masjid,Mosque,"47GV+VW3 Masjid, SH 114, Kasipuram, Tondiarpet, Chennai, Tamil Nadu 600013","Kasipuram, Tondiarpet","47GV+VW3, SH 114",Chennai,600013,Tamil Nadu,IN,https://www.google.com/maps/place/Masjid/data=!4m7!3m6!1s0x3a526fe37ec727c3:0xbe2ce4e385ad3d5d!8m2!3d13.1271302!4d80.2947941!16s%2Fg%2F11g4cht_py!19sChIJwyfHfuNvUjoRXT2thePkLL4?authuser=0&hl=en&rclk=1,"13.1271302,80.29479409999999"
Masjid e Noor,Mosque,"47JC+6QW Masjid e Noor, Thoppai Vinayagar Koil St, 17th street, Ezhil Nagar, Kodungaiyur, Chennai, Tamil Nadu 600118","Ezhil Nagar, Kodungaiyur","47JC+6QW, Thoppai Vinayagar Koil St, 17th street",Chennai,600118,Tamil Nadu,IN,https://www.google.com/maps/place/Masjid+e+Noor/data=!4m7!3m6!1s0x3a52657805720fe5:0xe7f763bef0fd3e96!8m2!3d13.1306114!4d80.2719481!16s%2Fg%2F11h8kpzbl4!19sChIJ5Q9yBXhlUjoRlj798L5j9-c?authuser=0&hl=en&rclk=1,"13.1306114,80.2719481"
TNTJ MARKAS,Mosque,"5795+38F TNTJ MARKAS, School Rd, Periya Thoppu, Manali, Chennai, Tamil Nadu 600068","Periya Thoppu, Manali","5795+38F, School Rd",Chennai,600068,Tamil Nadu,IN,https://www.google.com/maps/place/TNTJ+MARKAS/data=!4m7!3m6!1s0x3a52651789cfbdd9:0x70819f3db84cb194!8m2!3d13.1676796!4d80.2582817!16s%2Fg%2F11q9jytjzk!19sChIJ2b3PiRdlUjoRlLFMuD2fgXA?authuser=0&hl=en&rclk=1,"13.1676796,80.2582817"
Masjid E Mamoor,Mosque,"68FG+C89 Masjid E Mamoor, 12th Cross St, Thazankuppam, Tulsi Kuppam, Ennore, Tamil Nadu 600057","Thazankuppam, Tulsi Kuppam","68FG+C89, 12th Cross St",Ennore,600057,Tamil Nadu,IN,https://www.google.com/maps/place/Masjid+E+Mamoor/data=!4m7!3m6!1s0x3a5271e42e64dc45:0x2ec3436ec0a88457!8m2!3d13.2235438!4d80.3258561!16s%2Fg%2F11q49v5qzk!19sChIJRdxkLuRxUjoRV4SowG5Dwy4?authuser=0&hl=en&rclk=1,"13.2235438,80.3258561"
Masjid Thaqwa,Mosque,"Masjid Thaqwa, No:30, 2nd St, Thangal, Patel Nagar, Tondiarpet, Chennai, Tamil Nadu 600081","Thangal, Patel Nagar, Tondiarpet","No:30, 2nd St",Chennai,600081,Tamil Nadu,IN,https://www.google.com/maps/place/Masjid+Thaqwa/data=!4m7!3m6!1s0x3a526f501cbec0b1:0xfbdb22b1eabd5118!8m2!3d13.1392682!4d80.2978738!16s%2Fg%2F11hllwxtsg!19sChIJscC-HFBvUjoRGFG96rEi2_s?authuser=0&hl=en&rclk=1,"13.1392682,80.29787379999999"
Masjid-e-sayedi,Mosque,"5885+M34 Masjid-e-sayedi, Masthan Koil, Kamadevan Nagar, Tiruvottiyur, Chennai, Tamil Nadu 600019","Masthan Koil, Kamadevan Nagar, Tiruvottiyur",5885+M34,Chennai,600019,Tamil Nadu,IN,https://www.google.com/maps/place/Masjid-e-sayedi/data=!4m7!3m6!1s0x3a526f8936b5833d:0xfc0c545970b7622a!8m2!3d13.1666384!4d80.3076914!16s%2Fg%2F11h7g3j8p2!19sChIJPYO1NolvUjoRKmK3cFlUDPw?authuser=0&hl=en&rclk=1,"13.1666384,80.3076914"
Thaha masjid,Mosque,"574X+8P2 Thaha masjid, 2nd Cross St, Chinna Mettupalaiyam, Kaladipet, Tiruvottiyur, Chennai, Tamil Nadu 600019","Chinna Mettupalaiyam, Kaladipet, Tiruvottiyur","574X+8P2, 2nd Cross St",Chennai,600019,Tamil Nadu,IN,https://www.google.com/maps/place/Thaha+masjid/data=!4m7!3m6!1s0x3a526f259134bbeb:0x62e6090db3420cb2!8m2!3d13.1557537!4d80.2992769!16s%2Fg%2F11h1k1fmtq!19sChIJ67s0kSVvUjoRsgxCsw0J5mI?authuser=0&hl=en&rclk=1,"13.1557537,80.2992769"
Masjid E Nabavi Jumma Masjid,Mosque,"57CR+GMX Masjid E Nabavi Jumma Masjid, Abdul Sarthar St, Annai Gangai Amman Nagar, Balakrishna Nagar, Tiruvottiyur, Chennai, Tamil Nadu 600019","Annai Gangai Amman Nagar, Balakrishna Nagar, Tiruvottiyur","57CR+GMX, Abdul Sarthar St",Chennai,600019,Tamil Nadu,IN,https://www.google.com/maps/place/Masjid+E+Nabavi+Jumma+Masjid/data=!4m7!3m6!1s0x3a526f89645d8279:0xc50e8f5a0bec5930!8m2!3d13.1713569!4d80.2917309!16s%2Fg%2F11sh6bnw1s!19sChIJeYJdZIlvUjoRMFnsC1qPDsU?authuser=0&hl=en&rclk=1,"13.1713569,80.29173089999999"
Madina Masjid,Mosque,"No.139, Madina Masjid, Thirupthi Nagar, Subash Nagar, Vadaperumbakkam, Payasambakkam, Chennai, Tamil Nadu 600052","Thirupthi Nagar, Subash Nagar, Vadaperumbakkam",No.139,"Payasambakkam, Chennai",600052,Tamil Nadu,IN,https://www.google.com/maps/place/Madina+Masjid/data=!4m7!3m6!1s0x3a527b1b7b799c51:0x66a4c123e1f6c682!8m2!3d13.1834237!4d80.218037!16s%2Fg%2F11sdptg2xr!19sChIJUZx5ext7UjoRgsb24SPBpGY?authuser=0&hl=en&rclk=1,"13.183423699999999,80.218037"
Noorul Islam Mosque,Religious institution,"58V6+5F3 Noorul Islam Mosque, Kathivakkam High School Rd, ETS Colony, Ets Colony 2, Ennore, Tamil Nadu 600057","ETS Colony, Ets Colony 2","58V6+5F3, Kathivakkam High School Rd",Ennore,600057,Tamil Nadu,IN,https://www.google.com/maps/place/Noorul+Islam+Mosque/data=!4m7!3m6!1s0x3a52703744319973:0x6914ab6f69feee12!8m2!3d13.1928959!4d80.3111762!16s%2Fg%2F11s594bsm9!19sChIJc5kxRDdwUjoREu7-aW-rFGk?authuser=0&hl=en&rclk=1,"13.1928959,80.31117619999999"
Masjid,Mosque,"Masjid, 30b, Bharathiyar Nagar, Ennore, Tamil Nadu 600057",Bharathiyar Nagar,30b,Ennore,600057,Tamil Nadu,IN,https://www.google.com/maps/place/Masjid/data=!4m7!3m6!1s0x3a5271fceaed6ff9:0xa3f10fbd71aca7ae!8m2!3d13.1862666!4d80.3164413!16s%2Fg%2F11s814jhlz!19sChIJ-W_t6vxxUjoRrqescb0P8aM?authuser=0&hl=en&rclk=1,"13.1862666,80.3164413"
MASJID E MAMOOR,Mosque,"MASJID E MAMOOR, 102V,Sitthi vinayagar Koil 7th Street, ambedkar nagar, siringavoor, Vilangadupakkam, Chennai, 52","Vilangadupakkam, Rajiv Gandhi Nagar General","102V,Sitthi vinayagar Koil 7th Street, ambedkar nagar, siringavoor","Chennai, Perungavoor",52,Tamil Nadu,IN,https://www.google.com/maps/place/MASJID+E+MAMOOR/data=!4m7!3m6!1s0x3a527b7c5044ffd3:0x5018ccf1310749ce!8m2!3d13.2071642!4d80.219469!16s%2Fg%2F11gy7qty5l!19sChIJ0_9EUHx7UjoRzkkHMfHMGFA?authuser=0&hl=en&rclk=1,"13.2071642,80.21946899999999"
TNTJ MASJID KORUKUPET SOUTH,Mosque,"477F+CXR TNTJ MASJID KORUKUPET SOUTH, Ambedkar Nagar, Korukkupet, Old Washermanpet, Chennai, Tamil Nadu 600021","Ambedkar Nagar, Korukkupet, Old Washermanpet",477F+CXR,Chennai,600021,Tamil Nadu,IN,https://www.google.com/maps/place/TNTJ+MASJID+KORUKUPET+SOUTH/data=!4m7!3m6!1s0x3a52650f257de467:0xe2a6b741445a3518!8m2!3d13.1136013!4d80.2748782!16s%2Fg%2F11khx0bxgh!19sChIJZ-R9JQ9lUjoRGDVaREG3puI?authuser=0&hl=en&rclk=1,"13.1136013,80.2748782"
Masjid E Mamoor,Mosque,"6668+558 Masjid E Mamoor, Sirugavur, Rajiv Gandhi Nagar General, Chennai, Perungavoor, Tamil Nadu 600067","Sirugavur, Rajiv Gandhi Nagar General",6668+558,"Chennai, Perungavoor",600067,Tamil Nadu,IN,https://www.google.com/maps/place/Masjid+E+Mamoor/data=!4m7!3m6!1s0x3a527bbd93a0ae1d:0xfb281bce1cca38c1!8m2!3d13.2103956!4d80.2154268!16s%2Fg%2F11pz3tdl42!19sChIJHa6gk717UjoRwTjKHM4bKPs?authuser=0&hl=en&rclk=1,"13.2103956,80.2154268"
Sunnatul Jamaat Masjid,Mosque,"Sunnatul Jamaat Masjid, 448, Erukkenchery High Rd, Sivakami Amman Colony, Vyasarpadi, Chennai, Tamil Nadu 600039","Sivakami Amman Colony, Vyasarpadi","448, Erukkenchery High Rd",Chennai,600039,Tamil Nadu,IN,https://www.google.com/maps/place/Sunnatul+Jamaat+Masjid/data=!4m7!3m6!1s0x3a5265092021ea81:0x8fbea10f786eee7a!8m2!3d13.122733!4d80.2525594!16s%2Fg%2F11t49kc89r!19sChIJgeohIAllUjoReu5ueA-hvo8?authuser=0&hl=en&rclk=1,"13.122733,80.2525594"
Noor-E-Muhammadi Masjid.Madarsa Tajweedul Quran,Mosque,"66Q5+QWG Noor-E-Muhammadi Masjid.Madarsa Tajweedul Quran, Sholavaram, Mafaskanpet, Tamil Nadu 600067",,66Q5+QWG,"Sholavaram, Mafaskanpet",600067,Tamil Nadu,IN,https://www.google.com/maps/place/Noor-E-Muhammadi+Masjid.Madarsa+Tajweedul+Quran/data=!4m7!3m6!1s0x3a527b6207aa86d7:0x4c672cb94fc5e483!8m2!3d13.2394415!4d80.2098219!16s%2Fg%2F11qbfwj6m_!19sChIJ14aqB2J7UjoRg-TFT7ksZ0w?authuser=0&hl=en&rclk=1,"13.2394415,80.2098219"
"TNTJ Markus, kannadasan nagar (Masjidul Ahad)",Mosque,"47M6+G96 TNTJ Markus, kannadasan nagar (Masjidul Ahad), Kodungaiyur (East), Sasirekamma Nagar, Kodungaiyur, Chennai, Tamil Nadu 600118","Kodungaiyur (East), Sasirekamma Nagar, Kodungaiyur",47M6+G96,Chennai,600118,Tamil Nadu,IN,"https://www.google.com/maps/place/TNTJ+Markus,+kannadasan+nagar+%28Masjidul+Ahad%29/data=!4m7!3m6!1s0x3a52653035953049:0x59e936cad510fed8!8m2!3d13.1337932!4d80.2609027!16s%2Fg%2F11khch120x!19sChIJSTCVNTBlUjoR2P4Q1co26Vk?authuser=0&hl=en&rclk=1","13.1337932,80.2609027"
Ya Muhyideen Masjid and Madarasa,Mosque,"Ya Muhyideen Masjid and Madarasa, 2/6, 3rd St, Durga Devi Nagar, Tondiarpet, Chennai, Tamil Nadu 600081","Durga Devi Nagar, Tondiarpet","2/6, 3rd St",Chennai,600081,Tamil Nadu,IN,https://www.google.com/maps/place/Ya+Muhyideen+Masjid+and+Madarasa/data=!4m7!3m6!1s0x3a526f941c8c446d:0xf0bd9a7e2b13c17b!8m2!3d13.126975!4d80.2779666!16s%2Fg%2F11jgbmffy_!19sChIJbUSMHJRvUjoRe8ETK36avfA?authuser=0&hl=en&rclk=1,"13.126975,80.2779666"
Masjid E Jalaliya,Mosque,"Masjid E Jalaliya, 733, LIG Colony, Tondiarpet, Chennai, Tamil Nadu 600081","LIG Colony, Tondiarpet",733,Chennai,600081,Tamil Nadu,IN,https://www.google.com/maps/place/Masjid+E+Jalaliya/data=!4m7!3m6!1s0x3a526ffa48eed3e5:0xa8df0f3a8c224dfc!8m2!3d13.137346!4d80.2939151!16s%2Fg%2F11h3mtmkgg!19sChIJ5dPuSPpvUjoR_E0ijDoP36g?authuser=0&hl=en&rclk=1,"13.137345999999999,80.29391509999999"
LMT MASJID,Mosque,"LMT MASJID, 21, 12th St, Vinoba Nagar, New Washermenpet, Old Washermanpet, Chennai, Tamil Nadu 600081","Vinoba Nagar, New Washermenpet, Old Washermanpet","21, 12th St",Chennai,600081,Tamil Nadu,IN,https://www.google.com/maps/place/LMT+MASJID/data=!4m7!3m6!1s0x3a526fe37bb14f01:0x6bbcb0ea57048d91!8m2!3d13.1369033!4d80.2779193!16s%2Fg%2F11kpd05_qh!19sChIJAU-xe-NvUjoRkY0EV-qwvGs?authuser=0&hl=en&rclk=1,"13.1369033,80.2779193"
New Kavankarai Masjid,Mosque,"56H2+XX New Kavankarai Masjid, Grant Lyon, Red Hills, Chennai, Tamil Nadu 600052","Grant Lyon, Red Hills",56H2+XX,Chennai,,Tamil Nadu,IN,https://www.google.com/maps/place/New+Kavankarai+Masjid/data=!4m7!3m6!1s0x3a527b5ba6588215:0x7ce05a91f0662655!8m2!3d13.1798838!4d80.2024772!16s%2Fg%2F11sqnz7ckd!19sChIJFYJYplt7UjoRVSZm8JFa4Hw?authuser=0&hl=en&rclk=1,"13.179883799999999,80.20247719999999"
Mohammadi MasjjidMadawaram,Mosque,"563R+837 Mohammadi MasjjidMadawaram, Devi Nagar, Madhavaram, Chennai, Tamil Nadu 600051","Devi Nagar, Madhavaram",563R+837,Chennai,600051,Tamil Nadu,IN,https://www.google.com/maps/place/Mohammadi+MasjjidMadawaram/data=!4m7!3m6!1s0x3a5265d8449f7eb5:0x94dadd4ed03f650!8m2!3d13.153287!4d80.2401875!16s%2Fg%2F11f8bht2j5!19sChIJtX6fRNhlUjoRUPYD7dStTQk?authuser=0&hl=en&rclk=1,"13.153286999999999,80.24018749999999"
