name,main_category,address,address_ward,address_street,address_city,address_postal_code,address_state,address_country_code,link,coordinates
Noor Juma Masjid,Mosque,"44G8+8WV Noor Juma Masjid, SH71, Melakkam, Manjeri, Kerala 676121",Melakkam,"44G8+8WV, SH71",Manjeri,676121,Kerala,IN,https://www.google.com/maps/place/Noor+Juma+Masjid/data=!4m7!3m6!1s0x3ba6366f31e11e5f:0xf2379eccce72005a!8m2!3d11.1258588!4d76.1172814!16s%2Fg%2F11g8v0tnmx!19sChIJXx7hMW82pjsRWgByzsyeN_I?authuser=0&hl=en&rclk=1,"11.1258588,76.1172814"
Manjeri Central Juma Masjid,Mosque,"449C+VVP Manjeri Central Juma Masjid, Pandikkad Road, opp. Old Bus Stand, Vellarangal, Manjeri, Kerala 676121",Vellarangal,"449C+VVP, Pandikkad Road, opp. Old Bus Stand",Manjeri,676121,Kerala,IN,https://www.google.com/maps/place/Manjeri+Central+Juma+Masjid/data=!4m7!3m6!1s0x3ba6366548c93337:0xa9c9ee6ce851dfa0!8m2!3d11.1202905!4d76.1215995!16s%2Fg%2F11bz_3yr7_!19sChIJNzPJSGU2pjsRoN9R6Gzuyak?authuser=0&hl=en&rclk=1,"11.1202905,76.1215995"
Pullur Juma Masjid,Mosque,"44P3+FMQ Pullur Juma Masjid, Areekode - Manjeri Rd, Manjeri, Kerala 676121",,"44P3+FMQ, Areekode - Manjeri Rd",Manjeri,676121,Kerala,IN,https://www.google.com/maps/place/Pullur+Juma+Masjid/data=!4m7!3m6!1s0x3ba6363946e0c709:0x4e5128a00b8a8751!8m2!3d11.1362147!4d76.1042377!16s%2Fg%2F11xfb7v0q!19sChIJCcfgRjk2pjsRUYeKC6AoUU4?authuser=0&hl=en&rclk=1,"11.1362147,76.1042377"
Manjeri Hikamiyya Town Sunni Masjid,Mosque,"44CC+85C Manjeri Hikamiyya Town Sunni Masjid, Kuthukal, Manjeri, Kerala 676121",Kuthukal,44CC+85C,Manjeri,676121,Kerala,IN,https://www.google.com/maps/place/Manjeri+Hikamiyya+Town+Sunni+Masjid/data=!4m7!3m6!1s0x3ba6366ff0c0ab51:0x7f4900b1a0c3aa5e!8m2!3d11.1208145!4d76.120391!16s%2Fg%2F11b7gp7_66!19sChIJUavA8G82pjsRXqrDoLEASX8?authuser=0&hl=en&rclk=1,"11.1208145,76.120391"
Islahi Campus - Salafi Masjid,Mosque,"44C9+PM7 Islahi Campus - Salafi Masjid, Karuvambram, Manjeri, Kerala 676121",Karuvambram,44C9+PM7,Manjeri,676121,Kerala,IN,https://www.google.com/maps/place/Islahi+Campus+-+Salafi+Masjid/data=!4m7!3m6!1s0x3ba6366f991a5dad:0xcc7d29c607c89594!8m2!3d11.1217834!4d76.1191687!16s%2Fg%2F1hdzt7043!19sChIJrV0amW82pjsRlJXIB8Ypfcw?authuser=0&hl=en&rclk=1,"11.1217834,76.1191687"
"Vattapara Masjid, Manjeri",Mosque,"Vattapara Masjid, Manjeri, Mundithodika, Vattappara, Manjeri, Kerala 676122","Mundithodika, Vattappara",,Manjeri,676122,Kerala,IN,"https://www.google.com/maps/place/Vattapara+Masjid,+Manjeri/data=!4m7!3m6!1s0x3ba6360bf568b951:0x94446c026e5149e3!8m2!3d11.113238!4d76.1042765!16s%2Fg%2F1tngnqdz!19sChIJUblo9Qs2pjsR40lRbgJsRJQ?authuser=0&hl=en&rclk=1","11.113237999999999,76.1042765"
Mullampara town Masjid,Mosque,"4447+728 Mullampara town Masjid, Pallippadi, Manjeri, Kerala 676121",,4447+728,"Pallippadi, Manjeri",676121,Kerala,IN,https://www.google.com/maps/place/Mullampara+town+Masjid/data=!4m7!3m6!1s0x3ba64a21dd835cb1:0x554c1d78bb46dffc!8m2!3d11.1056575!4d76.1125836!16s%2Fg%2F1tct74kk!19sChIJsVyD3SFKpjsR_N9Gu3gdTFU?authuser=0&hl=en&rclk=1,"11.1056575,76.1125836"
meelaakkN jumaa msjid,Mosque,"44F9+RH3 meelaakkN jumaa msjid, SH28, Melakkam, Manjeri, Kerala 676121",Melakkam,"44F9+RH3, SH28",Manjeri,676121,Kerala,IN,https://www.google.com/maps/place/%E0%B4%AE%E0%B5%87%E0%B4%B2%E0%B4%BE%E0%B4%95%E0%B5%8D%E0%B4%95%E0%B4%82+%E0%B4%9C%E0%B5%81%E0%B4%AE%E0%B4%BE+%E0%B4%AE%E0%B4%B8%E0%B5%8D%E0%B4%9C%E0%B4%BF%E0%B4%A6%E0%B5%8D/data=!4m7!3m6!1s0x3ba6366f382c7c89:0xdfe0b74cbcc14427!8m2!3d11.1245008!4d76.1189102!16s%2Fg%2F1tqfzs49!19sChIJiXwsOG82pjsRJ0TBvEy34N8?authuser=0&hl=en&rclk=1,"11.1245008,76.1189102"
Variyal Small Mosque,Mosque,"4433+PXC Variyal Small Mosque, Mullampara Rd, Mullampara Town, Manjeri, Kerala 676517",Mullampara Town,"4433+PXC, Mullampara Rd",Manjeri,676517,Kerala,IN,https://www.google.com/maps/place/Variyal+Small+Mosque/data=!4m7!3m6!1s0x3ba635e10e2966e5:0x95a84c938a653a62!8m2!3d11.1043177!4d76.1048849!16s%2Fg%2F1tgh5_jl!19sChIJ5WYpDuE1pjsRYjplipNMqJU?authuser=0&hl=en&rclk=1,"11.1043177,76.1048849"
PAYYANAD ANGADI OLD JUMA'MASJID,Mosque,"PAYYANAD ANGADI OLD JUMA'MASJID, Payyanad Angadi, Manjeri, Kerala 676122",,Payyanad Angadi,Manjeri,676122,Kerala,IN,https://www.google.com/maps/place/PAYYANAD+ANGADI+OLD+JUMA%27MASJID/data=!4m7!3m6!1s0x3ba6369a68abd2f9:0x576ab90e3107bd40!8m2!3d11.119738!4d76.147227!16s%2Fg%2F1pp2t_qrt!19sChIJ-dKraJo2pjsRQL0HMQ65alc?authuser=0&hl=en&rclk=1,"11.119738,76.147227"
Imam Shafi Masjid,Mosque,"44CF+FJC Imam Shafi Masjid, Kuthukal, Manjeri, Kerala 676121",Kuthukal,44CF+FJC,Manjeri,676121,Kerala,IN,https://www.google.com/maps/place/Imam+Shafi+Masjid/data=!4m7!3m6!1s0x3ba63664e8e6480b:0xe98e8f98ed3a8311!8m2!3d11.1211801!4d76.1240057!16s%2Fg%2F11bz_lvhm7!19sChIJC0jm6GQ2pjsREYM67ZiPjuk?authuser=0&hl=en&rclk=1,"11.1211801,76.1240057"
Patterkulam Juma Masjid,Mosque,"43CW+JC3 Patterkulam Juma Masjid, Ambalappadi-Patterkulam Rd, Patterkulam, Manjeri, Kerala 676122",Pattarkulam,"43CW+JC3, Ambalappadi-Patterkulam Rd, Patterkulam",Manjeri,676122,Kerala,IN,https://www.google.com/maps/place/Patterkulam+Juma+Masjid/data=!4m7!3m6!1s0x3ba6361a614b4a0b:0xa6446d4d45869b8d!8m2!3d11.1215071!4d76.09604!16s%2Fg%2F11b7fdgjfd!19sChIJC0pLYRo2pjsRjZuGRU1tRKY?authuser=0&hl=en&rclk=1,"11.121507099999999,76.09604"
Kacherippadi Juma Masjid,Mosque,"4479+8X3 Kacherippadi Juma Masjid, Manchery, Karuvambram, Manjeri, Kerala 676121","Manchery, Karuvambram",4479+8X3,Manjeri,676121,Kerala,IN,https://www.google.com/maps/place/Kacherippadi+Juma+Masjid/data=!4m7!3m6!1s0x3ba6374393d99acf:0x34a218796ee8e480!8m2!3d11.1132572!4d76.119917!16s%2Fg%2F11j2hxzw00!19sChIJz5rZk0M3pjsRgOTobnkYojQ?authuser=0&hl=en&rclk=1,"11.1132572,76.119917"
Masjid(nmskaar plllli),Mosque,"447F+CVV Masjid(nmskaar plllli), Vellarangal, Manjeri, Kerala 676121",Vellarangal,447F+CVV,Manjeri,676121,Kerala,IN,https://www.google.com/maps/place/Masjid%28%E0%B4%A8%E0%B4%AE%E0%B4%B8%E0%B5%8D%E0%B4%95%E0%B4%BE%E0%B4%B0+%E0%B4%AA%E0%B4%B3%E0%B5%8D%E0%B4%B3%E0%B4%BF%29/data=!4m7!3m6!1s0x3ba6367967eb51dd:0xcb981d1189201421!8m2!3d11.1136088!4d76.1246766!16s%2Fg%2F11g025tdrz!19sChIJ3VHrZ3k2pjsRIRQgiREdmMs?authuser=0&hl=en&rclk=1,"11.1136088,76.1246766"
Ansar Masjid,Mosque,"44C8+99R Ansar Masjid, Kozhikode-Nilambur-Gudallur Rd, Karuvambram, Manjeri, Kerala 676121",Karuvambram,"44C8+99R, Kozhikode-Nilambur-Gudallur Rd",Manjeri,676121,Kerala,IN,https://www.google.com/maps/place/Ansar+Masjid/data=!4m7!3m6!1s0x3ba6366e6b829a19:0xefad79d1d4603f47!8m2!3d11.1209914!4d76.1158905!16s%2Fg%2F12qg7lbb9!19sChIJGZqCa242pjsRRz9g1NF5re8?authuser=0&hl=en&rclk=1,"11.1209914,76.11589049999999"
Muttippalam Masjid,Mosque,"Muttippalam Masjid, Muttippalam, SH24, Manjeri, Kerala 676509",,"Muttippalam, SH24",Manjeri,676509,Kerala,IN,https://www.google.com/maps/place/Muttippalam+Masjid/data=!4m7!3m6!1s0x3ba635c56d00a8a7:0x80f093bfe968a589!8m2!3d11.0953717!4d76.1189431!16s%2Fg%2F1tx1rmyk!19sChIJp6gAbcU1pjsRiaVo6b-T8IA?authuser=0&hl=en&rclk=1,"11.0953717,76.1189431"
Alukkal Juma Masjid,Mosque,"437J+WWM Alukkal Juma Masjid, Alukkal, Narukara P.O, Manjeri, Kerala",,"437J+WWM, Alukkal, Narukara P.O",Manjeri,,Kerala,IN,https://www.google.com/maps/place/Alukkal+Juma+Masjid/data=!4m7!3m6!1s0x3ba649fc5662d0e5:0x9b8504f1b884708c!8m2!3d11.11483!4d76.0822907!16s%2Fg%2F11ggw97xf1!19sChIJ5dBiVvxJpjsRjHCEuPEEhZs?authuser=0&hl=en&rclk=1,"11.11483,76.0822907"
Thurakkal Juma Masjid,Mosque,"4485+QMQ Thurakkal Juma Masjid, Thurakkal School Road, Thurakkal, Manjeri, Kerala 676121",Thurakkal,"4485+QMQ, Thurakkal School Road",Manjeri,676121,Kerala,IN,https://www.google.com/maps/place/Thurakkal+Juma+Masjid/data=!4m7!3m6!1s0x3ba63672d1b95bd5:0x259ead0679b30d13!8m2!3d11.116963!4d76.1092363!16s%2Fg%2F12hrdppbn!19sChIJ1Vu50XI2pjsREw2zeQatniU?authuser=0&hl=en&rclk=1,"11.116963,76.10923629999999"
Muttippalam Parammal Juma Masjid,Mosque,"34WF+V65 Muttippalam Parammal Juma Masjid, Manjeri, Kerala 676509",,34WF+V65,Manjeri,676509,Kerala,IN,https://www.google.com/maps/place/Muttippalam+Parammal+Juma+Masjid/data=!4m7!3m6!1s0x3ba635cfcd38cf71:0x2b088d080f8ce5b3!8m2!3d11.0971353!4d76.1231035!16s%2Fg%2F11b6bvxgs7!19sChIJcc84zc81pjsRs-WMDwiNCCs?authuser=0&hl=en&rclk=1,"11.0971353,76.1231035"
Madeena Masjid Salafi Masjid,Mosque,"Madeena Masjid Salafi Masjid, House No. 14/2967A, Pandikad Road, Medical College Cross Road, Near Seethi Haji Bus Stand, Chandakunnu, Manjeri, Kerala 676121","Chandakunnu, Vellarangal","House No. 14/2967A, Pandikad Road, Medical College Cross Road, Near Seethi Haji Bus Stand",Manjeri,676121,Kerala,IN,https://www.google.com/maps/place/Madeena+Masjid+Salafi+Masjid/data=!4m7!3m6!1s0x3ba6367b28460a65:0x43e077cedda52ae3!8m2!3d11.1191039!4d76.1235291!16s%2Fg%2F11c6smdvgz!19sChIJZQpGKHs2pjsR4yql3c534EM?authuser=0&hl=en&rclk=1,"11.119103899999999,76.1235291"
Kottupatta Juma Masjid,Mosque,"44C3+GQV Kottupatta Juma Masjid, Kottupatta, Manjeri, Kerala 676122",Kottupatta,44C3+GQV,Manjeri,676122,Kerala,IN,https://www.google.com/maps/place/Kottupatta+Juma+Masjid/data=!4m7!3m6!1s0x3ba6361233efc44f:0x5023c746139ad6b3!8m2!3d11.1213695!4d76.1044158!16s%2Fg%2F11bwl3n__c!19sChIJT8TvMxI2pjsRs9aaE0bHI1A?authuser=0&hl=en&rclk=1,"11.1213695,76.1044158"
Koomankulam Juma Masjid,Mosque,"Koomankulam Juma Masjid, KJM Building, Koomankulam, Koomankulam, Manjeri Elankur Wandoor Rd, Manjeri, Kerala 676123",,"KJM Building, Koomankulam, Koomankulam, Manjeri Elankur Wandoor Rd",Manjeri,676123,Kerala,IN,https://www.google.com/maps/place/Koomankulam+Juma+Masjid/data=!4m7!3m6!1s0x3ba636f77c80b5cd:0x3981ffa0ec03e51!8m2!3d11.1420256!4d76.1354286!16s%2Fg%2F11cjj0whr1!19sChIJzbWAfPc2pjsRUT7ADvofmAM?authuser=0&hl=en&rclk=1,"11.1420256,76.1354286"
Cherani Juma Masjid,Mosque,"44P7+PM6 Cherani Juma Masjid, Cherani, Manjeri, Kerala 676121",Cherani,44P7+PM6,Manjeri,676121,Kerala,IN,https://www.google.com/maps/place/Cherani+Juma+Masjid/data=!4m7!3m6!1s0x3ba63646bb88c831:0xa861a7a98271f3f!8m2!3d11.1367776!4d76.11415!16s%2Fg%2F11hcysc345!19sChIJMciIu0Y2pjsRPx8nmHoahgo?authuser=0&hl=en&rclk=1,"11.1367776,76.11415"
Masjidul Mujahideen(Pattarkulam Salafi Masjid),Mosque,"439V+VXJ Masjidul Mujahideen(Pattarkulam Salafi Masjid), Patterkulam, Manjeri, Kerala 676122",Patterkulam,439V+VXJ,Manjeri,676122,Kerala,IN,https://www.google.com/maps/place/Masjidul+Mujahideen%28Pattarkulam+Salafi+Masjid%29/data=!4m7!3m6!1s0x3ba6361a7c2ec3e3:0x163c006c9b3e7699!8m2!3d11.1197205!4d76.0948826!16s%2Fg%2F11c52rg6kq!19sChIJ48MufBo2pjsRmXY-m2wAPBY?authuser=0&hl=en&rclk=1,"11.1197205,76.09488259999999"
Ulladamkunnu Masjid,Mosque,"34X7+7P2 Ulladamkunnu Masjid, Muttipalam Upper, Manjeri, Kerala 676517",Muttipalam Upper,34X7+7P2,Manjeri,676517,Kerala,IN,https://www.google.com/maps/place/Ulladamkunnu+Masjid/data=!4m7!3m6!1s0x3ba635dca6bc9e2b:0x43d06dbdabfb2361!8m2!3d11.0981321!4d76.1142743!16s%2Fg%2F11dxb2nvth!19sChIJK568ptw1pjsRYSP7q71t0EM?authuser=0&hl=en&rclk=1,"11.098132099999999,76.11427429999999"
Pulyanthodi Masjid,Mosque,"437W+884 Pulyanthodi Masjid, Pattarkulam, Malappuram, Manjeri, Kerala 676517",Pattarkulam,437W+884,"Malappuram, Manjeri",676517,Kerala,IN,https://www.google.com/maps/place/Pulyanthodi+Masjid/data=!4m7!3m6!1s0x3ba63605e744184d:0x3cf5c5a1de04860f!8m2!3d11.1132703!4d76.0958167!16s%2Fg%2F11dxbds4ds!19sChIJTRhE5wU2pjsRD4YE3qHF9Tw?authuser=0&hl=en&rclk=1,"11.1132703,76.0958167"
Masjid,Mosque,"44HC+Q68 Masjid, Bismillah Rd, Kozhikkattu Kunnu, Manjeri, Kerala 676121",Kozhikkattu Kunnu,"44HC+Q68, Bismillah Rd",Manjeri,676121,Kerala,IN,https://www.google.com/maps/place/Masjid/data=!4m7!3m6!1s0x3ba63667e1aa2aff:0x7705686648ff44e8!8m2!3d11.129412!4d76.1205688!16s%2Fg%2F11d_9f6xz2!19sChIJ_yqq4Wc2pjsR6ET_SGZoBXc?authuser=0&hl=en&rclk=1,"11.129412,76.1205688"
Malamkulam Masjid,Mosque,"44FM+HGX Malamkulam Masjid, Malamkulam, Manjeri, Kerala 676122",Malamkulam,44FM+HGX,Manjeri,676122,Kerala,IN,https://www.google.com/maps/place/Malamkulam+Masjid/data=!4m7!3m6!1s0x3ba63689bbf8d781:0xc4310125d36f327c!8m2!3d11.123989!4d76.1338539!16s%2Fg%2F11gbzcf8mv!19sChIJgdf4u4k2pjsRfDJv0yUBMcQ?authuser=0&hl=en&rclk=1,"11.123989,76.13385389999999"
Najmul Huda College Masjid,Mosque,"443P+5MQ Najmul Huda College Masjid, Vettekode, Manjeri, Kerala 676122",Vettekode,443P+5MQ,Manjeri,676122,Kerala,IN,https://www.google.com/maps/place/Najmul+Huda+College+Masjid/data=!4m7!3m6!1s0x3ba6355862c13707:0x7159360a617bd642!8m2!3d11.1029599!4d76.1367355!16s%2Fg%2F11h1j367h0!19sChIJBzfBYlg1pjsRQtZ7YQo2WXE?authuser=0&hl=en&rclk=1,"11.1029599,76.1367355"
"Al-Hidaya Islamic College, Central Juma masjid Manjeri",Religious institution,"44CC+8JV Al-Hidaya Islamic College, Central Juma masjid Manjeri, Kuthukal, Manjeri, Kerala 676121",Kuthukal,44CC+8JV,Manjeri,676121,Kerala,IN,"https://www.google.com/maps/place/Al-Hidaya+Islamic+College,+Central+Juma+masjid+Manjeri/data=!4m7!3m6!1s0x3ba636654190dac1:0xda1e794b4f534c98!8m2!3d11.1208544!4d76.1215502!16s%2Fg%2F11f3jm3j8q!19sChIJwdqQQWU2pjsRmExTT0t5Hto?authuser=0&hl=en&rclk=1","11.120854399999999,76.1215502"
Salafi Masjid,Mosque,"Salafi Masjid, 22 Mile, Malappuram - Manjeri Rd, Muttipalam Upper, Manjeri, Kerala 676121",Muttipalam Upper,"22 Mile, Malappuram - Manjeri Rd",Manjeri,676121,Kerala,IN,https://www.google.com/maps/place/Salafi+Masjid/data=!4m7!3m6!1s0x3ba635be0d0f8f8d:0x5d837563b4bc31cd!8m2!3d11.1021543!4d76.1219589!16s%2Fg%2F11llylybng!19sChIJjY8PDb41pjsRzTG8tGN1g10?authuser=0&hl=en&rclk=1,"11.102154299999999,76.1219589"
Mosque,Mosque,"44G3+H4Q Mosque, Manjeri - Kizhisseri Rd, Manjeri, Kerala 676123",,"44G3+H4Q, Manjeri - Kizhisseri Rd",Manjeri,676123,Kerala,IN,https://www.google.com/maps/place/Mosque/data=!4m7!3m6!1s0x3ba6361427abc963:0x62a32e3ddab97d99!8m2!3d11.126457!4d76.1028456!16s%2Fg%2F1hhxkq416!19sChIJY8mrJxQ2pjsRmX252j0uo2I?authuser=0&hl=en&rclk=1,"11.126457,76.1028456"
Irshad Masjid,Mosque,"44FJ+853 Irshad Masjid, Kuttan Thampuran, Manjeri, Kerala 676122",Kuttan Thampuran,44FJ+853,Manjeri,676122,Kerala,IN,https://www.google.com/maps/place/Irshad+Masjid/data=!4m7!3m6!1s0x3ba636625da392fd:0x665060b6112a612d!8m2!3d11.1232629!4d76.130436!16s%2Fg%2F11g6_v7d4w!19sChIJ_ZKjXWI2pjsRLWEqEbZgUGY?authuser=0&hl=en&rclk=1,"11.1232629,76.130436"
Aspatripadi Masjid,Mosque,"Aspatripadi Masjid, 2nd floor, pulikkal Tower, near pushpa hotel, Manjeri",Vellarangal,"2nd floor, pulikkal Tower, near pushpa hotel",Manjeri,,Kerala,IN,https://www.google.com/maps/place/Aspatripadi+Masjid/data=!4m7!3m6!1s0x3ba637f2a5d6bea7:0x9ac7a338a6936e80!8m2!3d11.1171777!4d76.1199418!16s%2Fg%2F11s17p2jsw!19sChIJp77WpfI3pjsRgG6Tpjijx5o?authuser=0&hl=en&rclk=1,"11.1171777,76.11994179999999"
Masjid Thowheed thableeg markaz,Mosque,"33WW+5WX Masjid Thowheed thableeg markaz, Konikkallu Rd, Mullampara Town, Manjeri, Kerala 676517",Mullampara Town,"33WW+5WX, Konikkallu Rd",Manjeri,676517,Kerala,IN,https://www.google.com/maps/place/Masjid+Thowheed+thableeg+markaz/data=!4m7!3m6!1s0x3ba635a183f3a12d:0x25ef8a0550d7675!8m2!3d11.0954899!4d76.0973741!16s%2Fg%2F11h2qs2yw6!19sChIJLaHzg6E1pjsRdXYNVaD4XgI?authuser=0&hl=en&rclk=1,"11.095489899999999,76.0973741"
Paadathe Palli,Mosque,"438X+X25 Paadathe Palli, Pattarkulam, Manjeri, Kerala 676517",Pattarkulam,438X+X25,Manjeri,676517,Kerala,IN,https://www.google.com/maps/place/Paadathe+Palli/data=!4m7!3m6!1s0x3ba637c9e6057117:0x3db1e7e1f4bf1b35!8m2!3d11.1173886!4d76.0975956!16s%2Fg%2F11gv00rz0_!19sChIJF3EF5sk3pjsRNRu_9OHnsT0?authuser=0&hl=en&rclk=1,"11.1173886,76.09759559999999"
chakkini mosque,Mosque,"437X+C94 chakkini mosque, Pattarkulam, Manjeri, Kerala 676517",Pattarkulam,437X+C94,Manjeri,676517,Kerala,IN,https://www.google.com/maps/place/chakkini+mosque/data=!4m7!3m6!1s0x3ba6379efd52fdeb:0xe627e064e0f1e389!8m2!3d11.1135059!4d76.0984382!16s%2Fg%2F11gns796zb!19sChIJ6_1S_Z43pjsRiePx4GTgJ-Y?authuser=0&hl=en&rclk=1,"11.1135059,76.09843819999999"
Ahmadiyya muslim masjid Manjeri,Mosque,"44F7+HHQ Ahmadiyya muslim masjid Manjeri, Melakkam, Manjeri, Kerala 676517",Melakkam,44F7+HHQ,Manjeri,676517,Kerala,IN,https://www.google.com/maps/place/Ahmadiyya+muslim+masjid+Manjeri/data=!4m7!3m6!1s0x3ba63787f1be110d:0x12b612a5ad5b1f0e!8m2!3d11.1239548!4d76.1139826!16s%2Fg%2F11flgdbtl1!19sChIJDRG-8Yc3pjsRDh9braUSthI?authuser=0&hl=en&rclk=1,"11.1239548,76.1139826"
"Salafi Masjid, Mullampara",Place of worship,"4457+4GP Salafi Masjid, Mullampara, Kacherippadi, Manjeri, Kerala 676121",Kacherippadi,4457+4GP,Manjeri,676121,Kerala,IN,"https://www.google.com/maps/place/Salafi+Masjid,+Mullampara/data=!4m7!3m6!1s0x3ba635df43eea67d:0x7fc37dc9074f7ec3!8m2!3d11.1078383!4d76.1138304!16s%2Fg%2F11f24w91pv!19sChIJfabuQ981pjsRw35PB8l9w38?authuser=0&hl=en&rclk=1","11.1078383,76.1138304"
Masjid Al Noor,Mosque,"44C9+4FJ Masjid Al Noor, Karuvambram, Manjeri, Kerala 676121",Karuvambram,44C9+4FJ,Manjeri,676121,Kerala,IN,https://www.google.com/maps/place/Masjid+Al+Noor/data=!4m7!3m6!1s0x3ba6366fc39b8335:0x5b9c90da139293bc!8m2!3d11.1203458!4d76.1186437!16s%2Fg%2F11g02s601g!19sChIJNYObw282pjsRvJOSE9qQnFs?authuser=0&hl=en&rclk=1,"11.120345799999999,76.11864369999999"
"SALAAM MASJID, KAVALANGAD",Mosque,"447P+78G SALAAM MASJID, KAVALANGAD, Maalapuram, Manjeri, Kerala 676122",Maalapuram,447P+78G,Manjeri,676122,Kerala,IN,"https://www.google.com/maps/place/SALAAM+MASJID,+KAVALANGAD/data=!4m7!3m6!1s0x3ba637f0f581047f:0xbfb532451c0cb005!8m2!3d11.1133147!4d76.1359335!16s%2Fg%2F11vctg16by!19sChIJfwSB9fA3pjsRBbAMHEUytb8?authuser=0&hl=en&rclk=1","11.1133147,76.1359335"
Masjid Mubarak,Mosque,"437R+22M Masjid Mubarak, Narikkappara, Pappinippara, Pattarkulam, Manjeri, Kerala 676517",Pattarkulam,"437R+22M, Narikkappara, Pappinippara",Manjeri,676517,Kerala,IN,https://www.google.com/maps/place/Masjid+Mubarak/data=!4m7!3m6!1s0x3ba63754416ddae3:0x51138729a8e9137f!8m2!3d11.1125896!4d76.0900345!16s%2Fg%2F11fgjf83vc!19sChIJ49ptQVQ3pjsRfxPpqCmHE1E?authuser=0&hl=en&rclk=1,"11.1125896,76.0900345"
Masjid-Thableegh,Mosque,"4435+GGM Masjid-Thableegh, Pallikkal, Manjeri, Kerala 676517",,4435+GGM,"Pallikkal, Manjeri",676517,Kerala,IN,https://www.google.com/maps/place/Masjid-Thableegh/data=!4m7!3m6!1s0x3ba635373ac01ef7:0xcefd55e4a8e7eb46!8m2!3d11.1038403!4d76.1088001!16s%2Fg%2F11f7ktvyg0!19sChIJ9x7AOjc1pjsRRuvnqORV_c4?authuser=0&hl=en&rclk=1,"11.1038403,76.1088001"
Collegekunnu Juma Masjid (Jabal Noor),Mosque,"449J+25C Collegekunnu Juma Masjid (Jabal Noor), Radio Station Rd, Kuttan Thampuran, Manjeri, Kerala 676122",Kuttan Thampuran,"449J+25C, Radio Station Rd",Manjeri,676122,Kerala,IN,https://www.google.com/maps/place/Collegekunnu+Juma+Masjid+%28Jabal+Noor%29/data=!4m7!3m6!1s0x3ba637840f965eed:0x2ff60bde12481234!8m2!3d11.1175592!4d76.1304039!16s%2Fg%2F11h6slfgrv!19sChIJ7V6WD4Q3pjsRNBJIEt4L9i8?authuser=0&hl=en&rclk=1,"11.117559199999999,76.13040389999999"
JAMIA HIKAMIYYA MASJID,Mosque,"432X+MJ3 JAMIA HIKAMIYYA MASJID, Mullampara Town, Manjeri, Kerala 676517",Mullampara Town,432X+MJ3,Manjeri,676517,Kerala,IN,https://www.google.com/maps/place/JAMIA+HIKAMIYYA+MASJID/data=!4m7!3m6!1s0x3ba635e344d34cdd:0x4e109e1ae6492eff!8m2!3d11.1016337!4d76.0990613!16s%2Fg%2F11fks6kj_f!19sChIJ3UzTROM1pjsR_y5J5hqeEE4?authuser=0&hl=en&rclk=1,"11.101633699999999,76.0990613"
Thadthiparambu Masjid,Mosque,"4454+XVX Thadthiparambu Masjid, Mullampara-Pattarkulam Rd, Thadattiparambu, Manjeri, Kerala 676517",Thadattiparambu,"4454+XVX, Mullampara-Pattarkulam Rd",Manjeri,676517,Kerala,IN,https://www.google.com/maps/place/Thadthiparambu+Masjid/data=!4m7!3m6!1s0x3ba6377f8b6e480d:0xa10d850a879c443!8m2!3d11.1099778!4d76.107244!16s%2Fg%2F11h4fhr6n8!19sChIJDUhui383pjsRQ8R5qFDYEAo?authuser=0&hl=en&rclk=1,"11.1099778,76.107244"
Kottupatta Small Masjid,Mosque,"44C3+CRH Kottupatta Small Masjid, Kottupatta, Patterkulam, Manjeri, Kerala 676122",Patterkulam,"44C3+CRH, Kottupatta",Manjeri,676122,Kerala,IN,https://www.google.com/maps/place/Kottupatta+Small+Masjid/data=!4m7!3m6!1s0x3ba6361248539dd9:0x8b9adb4814c1aa37!8m2!3d11.1210527!4d76.104617!16s%2Fg%2F11bx1scdlt!19sChIJ2Z1TSBI2pjsRN6rBFEjbmos?authuser=0&hl=en&rclk=1,"11.1210527,76.10461699999999"
Alumkunnu Jumamasjid,Mosque,"433X+8MJ Alumkunnu Jumamasjid, Manjeri - Pookkottur Rd, Mullampara Town, Manjeri, Kerala 676517",Mullampara Town,"433X+8MJ, Manjeri - Pookkottur Rd",Manjeri,676517,Kerala,IN,https://www.google.com/maps/place/Alumkunnu+Jumamasjid/data=!4m7!3m6!1s0x3ba63533da80b233:0x799d22c43ded4bfe!8m2!3d11.103331!4d76.0991434!16s%2Fg%2F11g2328v39!19sChIJM7KA2jM1pjsR_kvtPcQinXk?authuser=0&hl=en&rclk=1,"11.103330999999999,76.0991434"
Masjid,Mosque,"434W+8GF Masjid, Pappinippara-Narukara Rd, Mullampara Town, Manjeri, Pappinippara, Kerala 676517",Mullampara Town,"434W+8GF, Pappinippara-Narukara Rd","Manjeri, Pappinippara",676517,Kerala,IN,https://www.google.com/maps/place/Masjid/data=!4m7!3m6!1s0x3ba635cccb02b859:0x667a31751681dfb7!8m2!3d11.1058213!4d76.0962827!16s%2Fg%2F11hygvdgqf!19sChIJWbgCy8w1pjsRt9-BFnUxemY?authuser=0&hl=en&rclk=1,"11.105821299999999,76.0962827"
Nedumpara Masjid,Mosque,"436J+2F8 Nedumpara Masjid, Alukkal, Manjeri, Kerala 676517",Alukkal,436J+2F8,Manjeri,,Kerala,IN,https://www.google.com/maps/place/Nedumpara+Masjid/data=!4m7!3m6!1s0x3ba6492a7b3da703:0xabf5e99b8099d158!8m2!3d11.11004!4d76.0812134!16s%2Fg%2F11gwmyvgrg!19sChIJA6c9eypJpjsRWNGZgJvp9as?authuser=0&hl=en&rclk=1,"11.11004,76.0812134"
niskkaar plllli,Mosque,"443C+4CV niskkaar plllli, Muttipalam Upper, Manjeri, Kerala 676517",Muttipalam Upper,443C+4CV,Manjeri,676517,Kerala,IN,https://www.google.com/maps/place/%E0%B4%A8%E0%B4%BF%E0%B4%B8%E0%B5%8D%E0%B4%95%E0%B5%8D%E0%B4%95%E0%B4%BE%E0%B4%B0+%E0%B4%AA%E0%B4%B3%E0%B5%8D%E0%B4%B3%E0%B4%BF/data=!4m7!3m6!1s0x3ba635ca79601979:0xcce575695966cd62!8m2!3d11.102854!4d76.1210604!16s%2Fg%2F11gxt7tlzn!19sChIJeRlgeco1pjsRYs1mWWl15cw?authuser=0&hl=en&rclk=1,"11.102853999999999,76.12106039999999"
Muttippalm Town Masjid,Mosque,"34X9+4Q7 Muttippalm Town Masjid, Muttipalam Upper, Manjeri, Kerala 676509",Muttipalam Upper,34X9+4Q7,Manjeri,676509,Kerala,IN,https://www.google.com/maps/place/Muttippalm+Town+Masjid/data=!4m7!3m6!1s0x3ba63580dfbe0031:0x4f5f105c5897b081!8m2!3d11.097794!4d76.1194253!16s%2Fg%2F11h_tb7ff0!19sChIJMQC-34A1pjsRgbCXWFwQX08?authuser=0&hl=en&rclk=1,"11.097794,76.1194253"
Masjid,Mosque,"4454+6CC Masjid, Mullampara Town, Manjeri, Kerala 676517",Mullampara Town,4454+6CC,Manjeri,676517,Kerala,IN,https://www.google.com/maps/place/Masjid/data=!4m7!3m6!1s0x3ba63740bd1054e1:0xa43407e609951a04!8m2!3d11.1080571!4d76.1060256!16s%2Fg%2F11g1v45scj!19sChIJ4VQQvUA3pjsRBBqVCeYHNKQ?authuser=0&hl=en&rclk=1,"11.1080571,76.1060256"
Hospital Masjid,Mosque,"44FG+46J Hospital Masjid, Kuthukal, Manjeri, Kerala 676121",Kuthukal,44FG+46J,Manjeri,676121,Kerala,IN,https://www.google.com/maps/place/Hospital+Masjid/data=!4m7!3m6!1s0x3ba63795f243d11f:0xd98945e338b98abe!8m2!3d11.1228388!4d76.1255269!16s%2Fg%2F11fsnbkm_b!19sChIJH9FD8pU3pjsRvoq5OONFidk?authuser=0&hl=en&rclk=1,"11.1228388,76.1255269"
Masjidul Jamiyul Kabeer,Mosque,"44CC+3M6 Masjidul Jamiyul Kabeer, Kuthukal, Manjeri, Kerala 676121",Kuthukal,44CC+3M6,Manjeri,676121,Kerala,IN,https://www.google.com/maps/place/Masjidul+Jamiyul+Kabeer/data=!4m7!3m6!1s0x3ba6366549af9cf3:0x511a3a7ace21116f!8m2!3d11.120154!4d76.1216459!16s%2Fg%2F11cr_z3dcf!19sChIJ85yvSWU2pjsRbxEhzno6GlE?authuser=0&hl=en&rclk=1,"11.120154,76.12164589999999"
Masjid,Mosque,"4457+3GC Masjid, Mullampara Rd, Kacherippadi, Manjeri, Kerala 676121",Kacherippadi,"4457+3GC, Mullampara Rd",Manjeri,676121,Kerala,IN,https://www.google.com/maps/place/Masjid/data=!4m7!3m6!1s0x3ba63510cb8f84d1:0x160a5a2bdf9acc6b!8m2!3d11.1076949!4d76.1137649!16s%2Fg%2F11frscj3qs!19sChIJ0YSPyxA1pjsRa8ya3ytaChY?authuser=0&hl=en&rclk=1,"11.1076949,76.11376489999999"
HMY Masjid,Mosque,"449F+RW7 HMY Masjid, Chanthakkunnu College Road, Vellarangal, Manjeri, Kerala 676122",Vellarangal,"449F+RW7, Chanthakkunnu College Road",Manjeri,676122,Kerala,IN,https://www.google.com/maps/place/HMY+Masjid/data=!4m7!3m6!1s0x3ba6374188e99447:0x2e47010f852dd518!8m2!3d11.1195474!4d76.1247849!16s%2Fg%2F11rrs7m2cn!19sChIJR5TpiEE3pjsRGNUthQ8BRy4?authuser=0&hl=en&rclk=1,"11.1195474,76.1247849"
Kuthukal Masjid,Mosque,"44GC+2CG Kuthukal Masjid, Kuthukal Rd, Kuthukal, Manjeri, Kerala 676121",Kuthukal,"44GC+2CG, Kuthukal Rd",Manjeri,676121,Kerala,IN,https://www.google.com/maps/place/Kuthukal+Masjid/data=!4m7!3m6!1s0x3ba63665fd4fffff:0x19ca78270136cfbd!8m2!3d11.1250545!4d76.1210778!16s%2Fg%2F11txmz9s4f!19sChIJ__9P_WU2pjsRvc82ASd4yhk?authuser=0&hl=en&rclk=1,"11.1250545,76.1210778"
Masjid,Mosque,"44F9+MGV Masjid, Asian Study Centre, Cherlayil Complex, Jaseela Junction, C H Bypass, Kozhikkattu Kunnu, Manjeri, Kerala 676121",Kozhikkattu Kunnu,"44F9+MGV, Asian Study Centre, Cherlayil Complex, Jaseela Junction, C H Bypass",Manjeri,676121,Kerala,IN,https://www.google.com/maps/place/Masjid/data=!4m7!3m6!1s0x3ba6374fdb19c5ab:0x14c8e1ebfdb531d5!8m2!3d11.1242478!4d76.1188009!16s%2Fg%2F11h_f6rscd!19sChIJq8UZ2083pjsR1TG1_evhyBQ?authuser=0&hl=en&rclk=1,"11.1242478,76.1188009"
Masjid,Mosque,"442Q+QHR Masjid, Quarry Rd, Manjeri, Kerala 676122",,"442Q+QHR, Quarry Rd",Manjeri,676122,Kerala,IN,https://www.google.com/maps/place/Masjid/data=!4m7!3m6!1s0x3ba63531d66ccab1:0x76663a3c7209d7df!8m2!3d11.1019897!4d76.1388846!16s%2Fg%2F11h6slgz9x!19sChIJscps1jE1pjsR39cJcjw6ZnY?authuser=0&hl=en&rclk=1,"11.101989699999999,76.1388846"
Masjidul Mujahideen,Mosque,"43GX+662 Masjidul Mujahideen, Ambalappadi-Patterkulam Road, Patterkulam, Manjeri, Kerala 676123",Patterkulam,"43GX+662, Ambalappadi-Patterkulam Road",Manjeri,676123,Kerala,IN,https://www.google.com/maps/place/Masjidul+Mujahideen/data=!4m7!3m6!1s0x3ba6371a0e1660c7:0xcb35171b28e1c6f9!8m2!3d11.1255085!4d76.0980232!16s%2Fg%2F11r9ft3t_5!19sChIJx2AWDho3pjsR-cbhKBsXNcs?authuser=0&hl=en&rclk=1,"11.125508499999999,76.0980232"
Masjid Sunnah msjd lsn@ msjidu ssunn,Mosque,"44QC+R54 Masjid Sunnah msjd lsn@ msjidu ssunn, Manjeri - Wandoor Rd, Cherani, Manjeri, Kerala 676121",Cherani,"44QC+R54, Manjeri - Wandoor Rd",Manjeri,,Kerala,IN,https://www.google.com/maps/place/Masjid+Sunnah+%D9%85%D8%B3%D8%AC%D8%AF+%D8%A7%D9%84%D8%B3%D9%86%D8%A9+%E0%B4%AE%E0%B4%B8%E0%B5%8D%E0%B4%9C%E0%B4%BF%E0%B4%A6%E0%B5%81+%E0%B4%B8%E0%B5%8D%E0%B4%B8%E0%B5%81%E0%B4%A8%E0%B5%8D%E0%B4%A8%E2%80%AD/data=!4m7!3m6!1s0x3ba637b842b25963:0xf7ebbdb9bdc4874e!8m2!3d11.1395179!4d76.1204417!16s%2Fg%2F11s4wcpb6h!19sChIJY1myQrg3pjsRTofEvbm96_c?authuser=0&hl=en&rclk=1,"11.1395179,76.1204417"
Masjid,Mosque,"Masjid, Near CH Bypass, Junction, Manjeri - Pandikad Rd, Manjeri, Kerala 676122",Kuthukal,"Near CH Bypass, Junction, Manjeri - Pandikad Rd",Manjeri,676122,Kerala,IN,https://www.google.com/maps/place/Masjid/data=!4m7!3m6!1s0x3ba63747ae481593:0x7c54b01f5412c817!8m2!3d11.1214379!4d76.1245958!16s%2Fg%2F11flbrjq5c!19sChIJkxVIrkc3pjsRF8gSVB-wVHw?authuser=0&hl=en&rclk=1,"11.1214379,76.1245958"
Masjid,Mosque,"44J7+GHC Masjid, Nellipparambu Bus Stop, SH24, Melakkam, Manjeri, Kerala 676123",Melakkam,"44J7+GHC, Nellipparambu Bus Stop, SH24",Manjeri,676123,Kerala,IN,https://www.google.com/maps/place/Masjid/data=!4m7!3m6!1s0x3ba6374d5a51e6bd:0x84cacda31ba95f5b!8m2!3d11.1313223!4d76.1138922!16s%2Fg%2F11frsxfsgb!19sChIJveZRWk03pjsRW1-pG6PNyoQ?authuser=0&hl=en&rclk=1,"11.131322299999999,76.1138922"
Mangalasseri Sunni Juma masjid,Mosque,"Mangalasseri Sunni Juma masjid, Bus Stop, Mangalasseri, Manjeri, Kerala 676121",,"Bus Stop, Mangalasseri",Manjeri,676121,Kerala,IN,https://www.google.com/maps/place/Mangalasseri+Sunni+Juma+masjid/data=!4m7!3m6!1s0x3ba637ac9cc102b1:0xcb18398214e2c744!8m2!3d11.1331495!4d76.1250887!16s%2Fg%2F11qsv91_rj!19sChIJsQLBnKw3pjsRRMfiFII5GMs?authuser=0&hl=en&rclk=1,"11.1331495,76.12508869999999"
Masjid,Mosque,"447F+FV5 Masjid, Pandikkad Rd Bypass, Vettekode, Manjeri, Kerala 676122",Vettekode,"447F+FV5, Pandikkad Rd Bypass",Manjeri,676122,Kerala,IN,https://www.google.com/maps/place/Masjid/data=!4m7!3m6!1s0x3ba637ac8e38e6bf:0x83ba3f0c15d94b8c!8m2!3d11.113634!4d76.1247272!16s%2Fg%2F11fsrtzwr7!19sChIJv-Y4jqw3pjsRjEvZFQw_uoM?authuser=0&hl=en&rclk=1,"11.113634,76.1247272"
Badriya Masjid,Mosque,"Badriya Masjid, GMLP school kuttan, Kuttan Thampuran, Manjeri, Kerala 676121",Kuttan Thampuran,GMLP school kuttan,Manjeri,676121,Kerala,IN,https://www.google.com/maps/place/Badriya+Masjid/data=!4m7!3m6!1s0x3ba637dee199b04b:0xa55c08c19a78f9f8!8m2!3d11.1232445!4d76.1273665!16s%2Fg%2F11fj8f9gwd!19sChIJS7CZ4d43pjsR-Pl4msEIXKU?authuser=0&hl=en&rclk=1,"11.1232445,76.1273665"
Mullampara juma masjid,Mosque,"4446+C4F Mullampara juma masjid, Mullampara Rd, Mullampara Town, Manjeri, Kerala 676517",Mullampara Town,"4446+C4F, Mullampara Rd",Manjeri,676517,Kerala,IN,https://www.google.com/maps/place/Mullampara+juma+masjid/data=!4m7!3m6!1s0x3ba6357700ff3747:0x378fa9888a42d119!8m2!3d11.1060368!4d76.1102508!16s%2Fg%2F11kp_c5p_v!19sChIJRzf_AHc1pjsRGdFCioipjzc?authuser=0&hl=en&rclk=1,"11.1060368,76.1102508"
Melakkam Salafi Masjid,Mosque,"44G7+C7W Melakkam Salafi Masjid, Melakkam, Manjeri, Kerala 676121",Melakkam,44G7+C7W,Manjeri,,Kerala,IN,https://www.google.com/maps/place/Melakkam+Salafi+Masjid/data=!4m7!3m6!1s0x3ba637e5162e0eb5:0x15b58171aa7c0d5a!8m2!3d11.1261106!4d76.1131922!16s%2Fg%2F11sv90lnwm!19sChIJtQ4uFuU3pjsRWg18qnGBtRU?authuser=0&hl=en&rclk=1,"11.126110599999999,76.1131922"
BADRIYYA MASJID THADAPPARAMBU,Mosque,"Thadapparambu, BADRIYYA MASJID THADAPPARAMBU, Thottupoyil-Cherukulam road, Malamkulam, Manjeri, Kerala 676122",Malamkulam,"Thadapparambu, Thottupoyil-Cherukulam road",Manjeri,676122,Kerala,IN,https://www.google.com/maps/place/BADRIYYA+MASJID+THADAPPARAMBU/data=!4m7!3m6!1s0x3ba637fb624d1d2d:0x7959daa5e3289066!8m2!3d11.12872!4d76.1427809!16s%2Fg%2F11p63xzc4x!19sChIJLR1NYvs3pjsRZpAo46XaWXk?authuser=0&hl=en&rclk=1,"11.12872,76.14278089999999"
Al Hidaya Masjid,Mosque,"44F9+2XP Al Hidaya Masjid, Kuthukal, Manjeri, Kerala 676121",Kuthukal,44F9+2XP,Manjeri,676121,Kerala,IN,https://www.google.com/maps/place/Al+Hidaya+Masjid/data=!4m7!3m6!1s0x3ba6376996a80051:0xc42a3f90e5dd1bed!8m2!3d11.122594!4d76.1199512!16s%2Fg%2F11h2g_k72h!19sChIJUQColmk3pjsR7Rvd5ZA_KsQ?authuser=0&hl=en&rclk=1,"11.122594,76.1199512"
konikkalu masjid,Mosque,"432X+6X2 konikkalu masjid, Mullampara Town, Manjeri, Kerala 676517",Mullampara Town,432X+6X2,Manjeri,676517,Kerala,IN,https://www.google.com/maps/place/konikkalu+masjid/data=!4m7!3m6!1s0x3ba6353346633f6f:0xe78a81f3490e8e4e!8m2!3d11.1005214!4d76.0998783!16s%2Fg%2F11qrkdby3m!19sChIJbz9jRjM1pjsRTo4OSfOBiuc?authuser=0&hl=en&rclk=1,"11.1005214,76.0998783"
Masjid,Mosque,"442C+F2W Masjid, Muttipalam Upper, Manjeri, Kerala 676517",Muttipalam Upper,442C+F2W,Manjeri,676517,Kerala,IN,https://www.google.com/maps/place/Masjid/data=!4m7!3m6!1s0x3ba63563bc6f6815:0x50d5a953f740ac12!8m2!3d11.1012407!4d76.12007!16s%2Fg%2F11fs03x0df!19sChIJFWhvvGM1pjsREqxA91Op1VA?authuser=0&hl=en&rclk=1,"11.1012407,76.12007"
Masjid Maghfirah,Mosque,"434X+572 Masjid Maghfirah, Alumkunnu, Mullampara Town, Pappinippara, Manjeri, Kerala 676517","Alumkunnu, Mullampara Town",434X+572,"Pappinippara, Manjeri",676517,Kerala,IN,https://www.google.com/maps/place/Masjid+Maghfirah/data=!4m7!3m6!1s0x3ba635829ff0fc19:0x5ba8ce8fdebd9e0a!8m2!3d11.1058631!4d76.0980868!16s%2Fg%2F11txdy1ngd!19sChIJGfzwn4I1pjsRCp693o_OqFs?authuser=0&hl=en&rclk=1,"11.105863099999999,76.09808679999999"
Pottikkal Masjid,Mosque,"439G+MJJ Pottikkal Masjid, Muttipadi, Alukkal, Manjeri, Kerala 676517","Muttipadi, Alukkal",439G+MJJ,Manjeri,676517,Kerala,IN,https://www.google.com/maps/place/Pottikkal+Masjid/data=!4m7!3m6!1s0x3ba649bca1dd82a1:0xb97277a9c6482c4b!8m2!3d11.1189012!4d76.0763278!16s%2Fg%2F11vb1fr71w!19sChIJoYLdobxJpjsRSyxIxql3crk?authuser=0&hl=en&rclk=1,"11.1189012,76.0763278"
