name,main_category,address,address_ward,address_street,address_city,address_postal_code,address_state,address_country_code,link,coordinates
Hauz Wali Masjid (Meerut Markaz),Mosque,"XPJ2+FJP Hauz Wali Masjid (Meerut Markaz), Khair Nagar, Meerut, Uttar Pradesh 250002",Khair Nagar,XPJ2+FJP,Meerut,250002,Uttar Pradesh,IN,https://www.google.com/maps/place/Hauz+Wali+Masjid+%28Meerut+Markaz%29/data=!4m7!3m6!1s0x390c64f858819c69:0x254cc37a5cc291b2!8m2!3d28.9812006!4d77.7015711!16s%2Fg%2F124t4hpkr!19sChIJaZyBWPhkDDkRspHCXHrDTCU?authuser=0&hl=en&rclk=1,"28.981200599999998,77.7015711"
Imliyan Masjid,Mosque,"XPG6+6XH Imliyan Masjid, Imliyan, Shohrab Gate, Meerut, Uttar Pradesh 250002","Imliyan, Shohrab Gate",XPG6+6XH,Meerut,250002,Uttar Pradesh,IN,https://www.google.com/maps/place/Imliyan+Masjid/data=!4m7!3m6!1s0x390c64ee46f29669:0xfa887a6d60fc8b27!8m2!3d28.9755565!4d77.7124856!16s%2Fg%2F124yfgt74!19sChIJaZbyRu5kDDkRJ4v8YG16iPo?authuser=0&hl=en&rclk=1,"28.9755565,77.7124856"
Rasheediya Masjid,Mosque,"XP72+VFR Rasheediya Masjid, Lisadi Road, Rasheed Nagar, Muftiyan, Meerut, Uttar Pradesh 250002","Rasheed Nagar, Muftiyan","XP72+VFR, Lisadi Road",Meerut,250002,Uttar Pradesh,IN,https://www.google.com/maps/place/Rasheediya+Masjid/data=!4m7!3m6!1s0x390c648aee74185d:0x873bc45deb078b9e!8m2!3d28.964739!4d77.701127!16s%2Fg%2F11b6pwr_nh!19sChIJXRh07opkDDkRnosH613EO4c?authuser=0&hl=en&rclk=1,"28.964738999999998,77.701127"
Patthar Wali Masjid,Mosque,"Patthar Wali Masjid, 280, Jali Kothi Rd, Jattiwara, Meerut, Uttar Pradesh 250002",Jattiwara,"280, Jali Kothi Rd",Meerut,250002,Uttar Pradesh,IN,https://www.google.com/maps/place/Patthar+Wali+Masjid/data=!4m7!3m6!1s0x390c64f910371eeb:0xb5227e83614cf240!8m2!3d28.9821586!4d77.7031419!16s%2Fg%2F124yfyscx!19sChIJ6x43EPlkDDkRQPJMYYN-IrU?authuser=0&hl=en&rclk=1,"28.982158599999998,77.70314189999999"
Kali Masjid,Mosque,"XPH6+JG8 Kali Masjid, NH709A, Hashimpura, Shohrab Gate, Meerut, Uttar Pradesh 250002","Hashimpura, Shohrab Gate","XPH6+JG8, NH709A",Meerut,250002,Uttar Pradesh,IN,https://www.google.com/maps/place/Kali+Masjid/data=!4m7!3m6!1s0x390c64eff9479435:0x47f07e2ac6a02232!8m2!3d28.9790311!4d77.7113246!16s%2Fg%2F1pyqgzt97!19sChIJNZRH-e9kDDkRMiKgxip-8Ec?authuser=0&hl=en&rclk=1,"28.9790311,77.7113246"
Jannatul Firdaus Masjid,Mosque,"Jannatul Firdaus Masjid, Hapur Rd, Meerut, Uttar Pradesh 250002",,Hapur Rd,Meerut,250002,Uttar Pradesh,IN,https://www.google.com/maps/place/Jannatul+Firdaus+Masjid/data=!4m7!3m6!1s0x390c649763978f15:0x8c938197884aa28f!8m2!3d28.9574487!4d77.7183617!16s%2Fg%2F11b8_t52fs!19sChIJFY-XY5dkDDkRj6JKiJeBk4w?authuser=0&hl=en&rclk=1,"28.957448699999997,77.7183617"
Ek Minara Masjid,Mosque,"XP96+85C Ek Minara Masjid, Islamabad, Meerut, Uttar Pradesh 250002",Islamabad,XP96+85C,Meerut,250002,Uttar Pradesh,IN,https://www.google.com/maps/place/Ek+Minara+Masjid/data=!4m7!3m6!1s0x390c64f2af288311:0xca1896e07d292f3b!8m2!3d28.9683151!4d77.7104022!16s%2Fg%2F124ynk244!19sChIJEYMor_JkDDkROy8pfeCWGMo?authuser=0&hl=en&rclk=1,"28.968315099999998,77.71040219999999"
Minni wali masjid,Mosque,"Minni wali masjid, Masjid 235, 16 Futa, Bisaati, Dhruv Wali Gali, Islamabad, Meerut, Uttar Pradesh 250002",Islamabad,"Masjid 235, 16 Futa, Bisaati, Dhruv Wali Gali",Meerut,250002,Uttar Pradesh,IN,https://www.google.com/maps/place/Minni+wali+masjid/data=!4m7!3m6!1s0x390c65ac9e148f25:0x31847f55e1296a44!8m2!3d28.9664082!4d77.7121957!16s%2Fg%2F11stpnwh58!19sChIJJY8UnqxlDDkRRGop4VV_hDE?authuser=0&hl=en&rclk=1,"28.9664082,77.7121957"
Masjid Shan-e-Ilahi,Mosque,"XJPV+9VF Masjid Shan-e-Ilahi, NH58, Khadoli, Meerut, Uttar Pradesh 250502",Khadoli,"XJPV+9VF, NH58",Meerut,250502,Uttar Pradesh,IN,https://www.google.com/maps/place/Masjid+Shan-e-Ilahi/data=!4m7!3m6!1s0x390c668787f32061:0x333c9bbed7d37044!8m2!3d28.9859344!4d77.6446573!16s%2Fg%2F11cs2h798t!19sChIJYSDzh4dmDDkRRHDT176bPDM?authuser=0&hl=en&rclk=1,"28.985934399999998,77.64465729999999"
Masjid Khadijatul,Mosque,"XP85+6M8 Masjid Khadijatul, Pilokhri, Kamela Road, Vikas Puri, Meerut, Uttar Pradesh 250002",Vikas Puri,"XP85+6M8, Pilokhri, Kamela Road",Meerut,250002,Uttar Pradesh,IN,https://www.google.com/maps/place/Masjid+Khadijatul/data=!4m7!3m6!1s0x390c648d12683b01:0x7c977e03504c81c5!8m2!3d28.965541!4d77.7091889!16s%2Fg%2F1v5_7t5b!19sChIJATtoEo1kDDkRxYFMUAN-l3w?authuser=0&hl=en&rclk=1,"28.965540999999998,77.7091889"
Madni Masjid Bhai Salik Wali,Mosque,"Madni Masjid Bhai Salik Wali, 98, Hapur Rd, Ansar Block, Karim Nagar, Rambagh Colony, Meerut, Uttar Pradesh 250002","Ansar Block, Karim Nagar, Rambagh Colony","98, Hapur Rd",Meerut,250002,Uttar Pradesh,IN,https://www.google.com/maps/place/Madni+Masjid+Bhai+Salik+Wali/data=!4m7!3m6!1s0x390c6497aaffcebd:0x11d3ec22bdac60c9!8m2!3d28.9598372!4d77.7196159!16s%2Fg%2F12hk_mxkh!19sChIJvc7_qpdkDDkRyWCsvSLs0xE?authuser=0&hl=en&rclk=1,"28.9598372,77.7196159"
Akhtar Masjid,Mosque,"XMJX+5VR Akhtar Masjid, Ahmed Rd, Khair Nagar, Meerut, Uttar Pradesh 250002",Khair Nagar,"XMJX+5VR, Ahmed Rd",Meerut,250002,Uttar Pradesh,IN,https://www.google.com/maps/place/Akhtar+Masjid/data=!4m7!3m6!1s0x390c64f8796a1211:0x657103f42eb2dda7!8m2!3d28.9804785!4d77.6996463!16s%2Fg%2F124srk_z6!19sChIJERJqefhkDDkRp92yLvQDcWU?authuser=0&hl=en&rclk=1,"28.9804785,77.6996463"
Madina Masjid,Mosque,"XP57+6H5 Madina Masjid, Ashiyana Colony, Ahmed Nagar, Meerut, Uttar Pradesh 250002",Ahmed Nagar,"XP57+6H5, Ashiyana Colony",Meerut,250002,Uttar Pradesh,IN,https://www.google.com/maps/place/Madina+Masjid/data=!4m7!3m6!1s0x390c64908b4a0669:0x11c593038b7ff551!8m2!3d28.9580053!4d77.7139871!16s%2Fg%2F1pyqr1nbj!19sChIJaQZKi5BkDDkRUfV_iwOTxRE?authuser=0&hl=en&rclk=1,"28.9580053,77.7139871"
Kasai Wali Masjid,Mosque,"Kasai Wali Masjid, Chopla Lisari Gate, Hanuman Mandir 250001, Bhagwat Pura, Mahmud Nagar, Meerut, Uttar Pradesh 250002","Bhagwat Pura, Mahmud Nagar","Chopla Lisari Gate, Hanuman Mandir 250001",Meerut,250002,Uttar Pradesh,IN,https://www.google.com/maps/place/Kasai+Wali+Masjid/data=!4m7!3m6!1s0x390c64f38cc5f3e5:0x2f3d73f2400b3afe!8m2!3d28.9714735!4d77.7054194!16s%2Fg%2F11f0wlgg54!19sChIJ5fPFjPNkDDkR_joLQPJzPS8?authuser=0&hl=en&rclk=1,"28.9714735,77.7054194"
Surahi Wali Masjid,Mosque,"Surahi Wali Masjid, 440, Pillokhari Rd, Kidwai Nagar, Umar Nagar, Meerut, Uttar Pradesh 250002","Kidwai Nagar, Umar Nagar","440, Pillokhari Rd",Meerut,250002,Uttar Pradesh,IN,https://www.google.com/maps/place/Surahi+Wali+Masjid/data=!4m7!3m6!1s0x390c64926c60b8cb:0x34501826077a83cb!8m2!3d28.9637801!4d77.7118617!16s%2Fg%2F11clyfrnfs!19sChIJy7hgbJJkDDkRy4N6ByYYUDQ?authuser=0&hl=en&rclk=1,"28.963780099999997,77.7118617"
Faisal Masjid,Mosque,"XP4F+QQM Faisal Masjid, Sector 10, Gandhi Market, Shastri Nagar, Meerut, Uttar Pradesh 250002","Sector 10, Gandhi Market, Shastri Nagar",XP4F+QQM,Meerut,250002,Uttar Pradesh,IN,https://www.google.com/maps/place/Faisal+Masjid/data=!4m7!3m6!1s0x390c6584087958a7:0xb4635d04303b11bd!8m2!3d28.956975!4d77.7244255!16s%2Fg%2F11n24p6y8s!19sChIJp1h5CIRlDDkRvRE7MARdY7Q?authuser=0&hl=en&rclk=1,"28.956975,77.7244255"
Masjid Ansariyan,Mosque,"Masjid Ansariyan, 629, Khatikan,, Shahpeer Gate, Meerut, Uttar Pradesh 250002","Shahpeer Gate, Shohrab Gate","629, Khatikan,, Shahpeer Gate",Meerut,250002,Uttar Pradesh,IN,https://www.google.com/maps/place/Masjid+Ansariyan/data=!4m7!3m6!1s0x390c64f079b57755:0x1ec2aafba409d16e!8m2!3d28.9788202!4d77.7085093!16s%2Fg%2F124yjvyn2!19sChIJVXe1efBkDDkRbtEJpPuqwh4?authuser=0&hl=en&rclk=1,"28.978820199999998,77.7085093"
Jama Masjid Abdullah Pur,Mosque,"XQR8+93W Jama Masjid Abdullah Pur, Abdullapur, Meerut, Uttar Pradesh 250001",Abdullapur,XQR8+93W,Meerut,250001,Uttar Pradesh,IN,https://www.google.com/maps/place/Jama+Masjid+Abdullah+Pur/data=!4m7!3m6!1s0x390c7b21761cb247:0x17558002c3c73ce2!8m2!3d28.9909827!4d77.7652155!16s%2Fg%2F11gfcgnr2d!19sChIJR7IcdiF7DDkR4jzHwwKAVRc?authuser=0&hl=en&rclk=1,"28.9909827,77.7652155"
Rasheediya Masjid,Mosque,"XP29+VQ4 Rasheediya Masjid, Zakir Colony, Meerut, Uttar Pradesh 250002",Zakir Colony,XP29+VQ4,Meerut,250002,Uttar Pradesh,IN,https://www.google.com/maps/place/Rasheediya+Masjid/data=!4m7!3m6!1s0x390c6498d803bcf3:0x43deef1a3c07400f!8m2!3d28.9521309!4d77.7194557!16s%2Fg%2F11c1q9pj7q!19sChIJ87wD2JhkDDkRD0AHPBrv3kM?authuser=0&hl=en&rclk=1,"28.9521309,77.7194557"
1-Menara Masjid,Mosque,"1-Menara Masjid, Sarai Lal Das 250002, Meerut, Uttar Pradesh",Velli Bazaar,Sarai Lal Das 250002,Meerut,,Uttar Pradesh,IN,https://www.google.com/maps/place/1-Menara+Masjid/data=!4m7!3m6!1s0x390c64587eb36c17:0x4a6edc89dc1fa0dd!8m2!3d28.9756191!4d77.6991246!16s%2Fg%2F11g9mbc9q5!19sChIJF2yzflhkDDkR3aAf3Incbko?authuser=0&hl=en&rclk=1,"28.9756191,77.69912459999999"
Aqsa Masjid,Mosque,"Aqsa Masjid, Unnamed Rd, Zakir Colony, Meerut, Uttar Pradesh 250002",Zakir Colony,"Unnamed Rd, Zakir Colony, Meerut, Uttar Pradesh 250002",Meerut,,Uttar Pradesh,IN,https://www.google.com/maps/place/Aqsa+Masjid/data=!4m7!3m6!1s0x390c649d2318efb1:0x3aae2015c1b1ceff!8m2!3d28.9470406!4d77.71209!16s%2Fg%2F11b6xbjrjk!19sChIJse8YI51kDDkR_86xwRUgrjo?authuser=0&hl=en&rclk=1,"28.947040599999998,77.71209"
Mohammadi Masjid,Mosque,"Mohammadi Masjid, 105, Hapur Rd, Ahmad Nagar, Meerut, Uttar Pradesh 250002",Ahmad Nagar,"105, Hapur Rd",Meerut,250002,Uttar Pradesh,IN,https://www.google.com/maps/place/Mohammadi+Masjid/data=!4m7!3m6!1s0x390c649037cabeef:0x76b288168bf67ca6!8m2!3d28.9579295!4d77.7129166!16s%2Fg%2F11ddzqdv3k!19sChIJ777KN5BkDDkRpnz2ixaIsnY?authuser=0&hl=en&rclk=1,"28.9579295,77.7129166"
Bilal Masjid,Mosque,"Bilal Masjid, Ahmed Nagar, Tarapuri, Meerut, Uttar Pradesh 250002","Ahmed Nagar, Tarapuri",,Meerut,250002,Uttar Pradesh,IN,https://www.google.com/maps/place/Bilal+Masjid/data=!4m7!3m6!1s0x390c648e7404406b:0xdec90f27e27f77fc!8m2!3d28.9615434!4d77.7090873!16s%2Fg%2F11bc8dwwxl!19sChIJa0AEdI5kDDkR_Hd_4icPyd4?authuser=0&hl=en&rclk=1,"28.9615434,77.7090873"
Masjid Khist Pazan,Mosque,"Masjid Khist Pazan, Bania para Police chowki, Lisari Rd, Tarapuri, Meerut, Uttar Pradesh 250002",Tarapuri,"Bania para Police chowki, Lisari Rd",Meerut,250002,Uttar Pradesh,IN,https://www.google.com/maps/place/Masjid+Khist+Pazan/data=!4m7!3m6!1s0x390c64f4103b1085:0xaafb42408f8abebf!8m2!3d28.9720034!4d77.7044101!16s%2Fg%2F11dxky_64h!19sChIJhRA7EPRkDDkRv76Kj0BC-6o?authuser=0&hl=en&rclk=1,"28.9720034,77.70441009999999"
Saajid Akhlaq Masjid,Mosque,"Saajid Akhlaq Masjid, 440, Pilokhari Rd, Tarapuri Tarapuri, Meerut, Uttar Pradesh 250002",Masud Nagar,"440, Pilokhari Rd, Tarapuri Tarapuri",Meerut,250002,Uttar Pradesh,IN,https://www.google.com/maps/place/Saajid+Akhlaq+Masjid/data=!4m7!3m6!1s0x390c648c8da2ac73:0x1a5186fb6d3d805!8m2!3d28.9650693!4d77.7063602!16s%2Fg%2F11b7jxkbw2!19sChIJc6yijYxkDDkRBdjTtm8YpQE?authuser=0&hl=en&rclk=1,"28.9650693,77.70636019999999"
Unchi Masjid,Mosque,"XPG3+89C Unchi Masjid, Shohrab Gate, Meerut, Uttar Pradesh 250002",Shohrab Gate,XPG3+89C,Meerut,250002,Uttar Pradesh,IN,https://www.google.com/maps/place/Unchi+Masjid/data=!4m7!3m6!1s0x390c64f71e41a877:0xc2fcbfceb921adf1!8m2!3d28.9758104!4d77.7033875!16s%2Fg%2F1pp2twzrm!19sChIJd6hBHvdkDDkR8a0huc6__MI?authuser=0&hl=en&rclk=1,"28.9758104,77.70338749999999"
JAMA MASJID MALYANA,Mosque,"XM87+JVV JAMA MASJID MALYANA, Baghpat Rd, Malyana, Meerut, Uttar Pradesh 250002",Malyana,"XM87+JVV, Baghpat Rd",Meerut,250002,Uttar Pradesh,IN,https://www.google.com/maps/place/JAMA+MASJID+MALYANA/data=!4m7!3m6!1s0x390c6423293ba0a9:0x99c704676d866a34!8m2!3d28.9666163!4d77.6646642!16s%2Fg%2F11b6y01lv4!19sChIJqaA7KSNkDDkRNGqGbWcEx5k?authuser=0&hl=en&rclk=1,"28.9666163,77.66466419999999"
Masjid KHADIJA-TUL-KUBRA,Mosque,"Masjid KHADIJA-TUL-KUBRA, Near, Era Gardenia Estate, Saraswati Lok, Meerut, Uttar Pradesh 250002",Saraswati Lok,"Near, Era Gardenia Estate",Meerut,250002,Uttar Pradesh,IN,https://www.google.com/maps/place/Masjid+KHADIJA-TUL-KUBRA/data=!4m7!3m6!1s0x390c647ec7d29657:0xe967065f9dbf9b21!8m2!3d28.9473723!4d77.6945048!16s%2Fg%2F11b8_s2sbg!19sChIJV5bSx35kDDkRIZu_nV8GZ-k?authuser=0&hl=en&rclk=1,"28.947372299999998,77.69450479999999"
Abu Bakar Masjid,Mosque,"XP84+RJ7 Abu Bakar Masjid, Pilokhani Road, Masud Nagar, Meerut, Uttar Pradesh 250002",Masud Nagar,"XP84+RJ7, Pilokhani Road",Meerut,250002,Uttar Pradesh,IN,https://www.google.com/maps/place/Abu+Bakar+Masjid/data=!4m7!3m6!1s0x390c648cb5f0c257:0x1fdcd08299242852!8m2!3d28.9670379!4d77.7065525!16s%2Fg%2F1pyqqvjsk!19sChIJV8LwtYxkDDkRUigkmYLQ3B8?authuser=0&hl=en&rclk=1,"28.967037899999998,77.7065525"
Jama Masjid Fatehullahpur,Mosque,"WPQ6+MW6 Jama Masjid Fatehullahpur, Fatehullahpur, Meerut, Uttar Pradesh 250002",Fatehullahpur,WPQ6+MW6,Meerut,250002,Uttar Pradesh,IN,https://www.google.com/maps/place/Jama+Masjid+Fatehullahpur/data=!4m7!3m6!1s0x390c63649f8e730d:0x14095f16fb606703!8m2!3d28.9391664!4d77.7122527!16s%2Fg%2F11c1w0f7z1!19sChIJDXOOn2RjDDkRA2dg-xZfCRQ?authuser=0&hl=en&rclk=1,"28.939166399999998,77.7122527"
Masjid,Mosque,"2Q63+C7X Masjid, Ganga Nagar, Meerut, Uttar Pradesh 250001",Ganga Nagar,2Q63+C7X,Meerut,250001,Uttar Pradesh,IN,https://www.google.com/maps/place/Masjid/data=!4m7!3m6!1s0x390c7aced06cb037:0x55c563d13a3d17dd!8m2!3d29.0111172!4d77.7532263!16s%2Fg%2F11gbz1846q!19sChIJN7Bs0M56DDkR3Rc9OtFjxVU?authuser=0&hl=en&rclk=1,"29.011117199999997,77.7532263"
Sunni Masjid [ Al Farooq ],Mosque,"Sunni Masjid [ Al Farooq ], Sunni Masjid (Alfarooq Masjid, Zaidi Nagar Society, Sector 9, Rambagh Colony, Meerut, Uttar Pradesh 250002","Zaidi Nagar Society, Sector 9, Rambagh Colony",Sunni Masjid (Alfarooq Masjid,Meerut,250002,Uttar Pradesh,IN,https://www.google.com/maps/place/Sunni+Masjid+%5B+Al+Farooq+%5D/data=!4m7!3m6!1s0x390c64bd0c11a3bb:0x70439db675be184d!8m2!3d28.9599619!4d77.7240516!16s%2Fg%2F119vl0_c7!19sChIJu6MRDL1kDDkRTRi-dbadQ3A?authuser=0&hl=en&rclk=1,"28.9599619,77.7240516"
Ahmadi Bait Meerut,Mosque,"XP67+J6F Ahmadi Bait Meerut, Ahmad Nagar, Meerut, Uttar Pradesh 250002",Ahmad Nagar,XP67+J6F,Meerut,250002,Uttar Pradesh,IN,https://www.google.com/maps/place/Ahmadi+Bait+Meerut/data=!4m7!3m6!1s0x390c64918ff7f051:0x63a56d844f78139c!8m2!3d28.9615502!4d77.7130328!16s%2Fg%2F11fy2glfm9!19sChIJUfD3j5FkDDkRnBN4T4RtpWM?authuser=0&hl=en&rclk=1,"28.961550199999998,77.7130328"
Makki Masjid,Mosque,"XP77+JVR Makki Masjid, Kidwai Nagar, Islamabad, Meerut, Uttar Pradesh 250002","Kidwai Nagar, Islamabad",XP77+JVR,Meerut,250002,Uttar Pradesh,IN,https://www.google.com/maps/place/Makki+Masjid/data=!4m7!3m6!1s0x390c6493b944d7f9:0x1fdeb1c1c968e8d7!8m2!3d28.964121!4d77.7146374!16s%2Fg%2F1tfl_v9q!19sChIJ-ddEuZNkDDkR1-hoycGx3h8?authuser=0&hl=en&rclk=1,"28.964121,77.7146374"
Bisatiyan Mosque,Mosque,"Bisatiyan Mosque, Prahlad Nagar, Meerut, Uttar Pradesh 250002",Prahlad Nagar,,Meerut,250002,Uttar Pradesh,IN,https://www.google.com/maps/place/Bisatiyan+Mosque/data=!4m7!3m6!1s0x390c64ed803c9797:0x735fb2f16852444b!8m2!3d28.9706217!4d77.7110019!16s%2Fg%2F11c5gc_8nh!19sChIJl5c8gO1kDDkRS0RSaPGyX3M?authuser=0&hl=en&rclk=1,"28.9706217,77.7110019"
Imli Wali Masjid,Mosque,"XP5C+RQ6 Imli Wali Masjid, Karim Nagar, Rambagh Colony, Meerut, Uttar Pradesh 250002","Karim Nagar, Rambagh Colony",XP5C+RQ6,Meerut,250002,Uttar Pradesh,IN,https://www.google.com/maps/place/Imli+Wali+Masjid/data=!4m7!3m6!1s0x390c6497d095147b:0xadcc9cd65b28fc1b!8m2!3d28.9595445!4d77.7218935!16s%2Fg%2F11b7729cv_!19sChIJexSV0JdkDDkRG_woW9aczK0?authuser=0&hl=en&rclk=1,"28.9595445,77.7218935"
Shia Masjid ... Masjid Al Murtaza,Mosque,"XP5F+RGX Shia Masjid ... Masjid Al Murtaza, Panjetani Rd, Zaidi Nagar Society, Sector 9, Rambagh Colony, Meerut, Uttar Pradesh 250002","Zaidi Nagar Society, Sector 9, Rambagh Colony","XP5F+RGX, Panjetani Rd",Meerut,250002,Uttar Pradesh,IN,https://www.google.com/maps/place/Shia+Masjid+...+Masjid+Al+Murtaza/data=!4m7!3m6!1s0x390c64bd129f714f:0x3d90104b93472573!8m2!3d28.9596213!4d77.7238548!16s%2Fg%2F119tv5pp6!19sChIJT3GfEr1kDDkRcyVHk0sQkD0?authuser=0&hl=en&rclk=1,"28.9596213,77.7238548"
Mohsen Masjid,Mosque,"Mohsen Masjid, Mohsin Bagh, Manzoor Nagar, Meerut, Uttar Pradesh 250002",Manzoor Nagar,Mohsin Bagh,Meerut,250002,Uttar Pradesh,IN,https://www.google.com/maps/place/Mohsen+Masjid/data=!4m7!3m6!1s0x390c64967458f5b5:0x8e671aeeb1817ce!8m2!3d28.9626851!4d77.720716!16s%2Fg%2F1pyqrhdv3!19sChIJtfVYdJZkDDkRzhcY665x5gg?authuser=0&hl=en&rclk=1,"28.962685099999998,77.720716"
Masjid,Mosque,"WPMQ+5QW Masjid, Lohia Nagar, Meerut, Uttar Pradesh 250002",Lohia Nagar,WPMQ+5QW,Meerut,250002,Uttar Pradesh,IN,https://www.google.com/maps/place/Masjid/data=!4m7!3m6!1s0x390c634e80292e77:0xe4701723d374eb5e!8m2!3d28.932997!4d77.7394647!16s%2Fg%2F11dzsy8rgf!19sChIJdy4pgE5jDDkRXut00yMXcOQ?authuser=0&hl=en&rclk=1,"28.932997,77.7394647"
Aysha Masjid,Mosque,"WPW6+83F Aysha Masjid, Samar Garden, Meerut, Uttar Pradesh 250002",Samar Garden,WPW6+83F,Meerut,250002,Uttar Pradesh,IN,https://www.google.com/maps/place/Aysha+Masjid/data=!4m7!3m6!1s0x390c6482b0a96927:0x1b9aa8ebf25c74c2!8m2!3d28.9458217!4d77.7101686!16s%2Fg%2F11dzsqr26w!19sChIJJ2mpsIJkDDkRwnRc8uuomhs?authuser=0&hl=en&rclk=1,"28.9458217,77.7101686"
Khaprail Wali Masjid,Mosque,"Khaprail Wali Masjid, 526, Ansar Colony, Mahmud Nagar, Meerut, Uttar Pradesh 250002","Ansar Colony, Mahmud Nagar",526,Meerut,250002,Uttar Pradesh,IN,https://www.google.com/maps/place/Khaprail+Wali+Masjid/data=!4m7!3m6!1s0x390c64f226c6f765:0x549a54deab849517!8m2!3d28.9735778!4d77.7094193!16s%2Fg%2F11ddwgdfvr!19sChIJZffGJvJkDDkRF5WEq95UmlQ?authuser=0&hl=en&rclk=1,"28.973577799999997,77.7094193"
Mumtaz Masjid,Mosque,"Mumtaz Masjid, Near, Lisari Rd, Indra Nagar, Tarapuri, Meerut, Uttar Pradesh 250002","Indra Nagar, Tarapuri","Near, Lisari Rd",Meerut,250002,Uttar Pradesh,IN,https://www.google.com/maps/place/Mumtaz+Masjid/data=!4m7!3m6!1s0x390c6489fe07bbf1:0xc1320c8e6d1e26d7!8m2!3d28.9605976!4d77.6994306!16s%2Fg%2F11cjkq5ydb!19sChIJ8bsH_olkDDkR1yYebY4MMsE?authuser=0&hl=en&rclk=1,"28.9605976,77.6994306"
Masjid Mohammadi,Mosque,"XP74+4M6 Masjid Mohammadi, Pillokhari Rd, Shyam Nagar, Tarapuri, Meerut, Uttar Pradesh 250002","Shyam Nagar, Tarapuri","XP74+4M6, Pillokhari Rd",Meerut,250002,Uttar Pradesh,IN,https://www.google.com/maps/place/Masjid+Mohammadi/data=!4m7!3m6!1s0x390c648c3e38233f:0x7fb4da5c8ced1990!8m2!3d28.9627989!4d77.7066411!16s%2Fg%2F1wl4nz_8!19sChIJPyM4PoxkDDkRkBntjFzatH8?authuser=0&hl=en&rclk=1,"28.9627989,77.7066411"
Zeenat Masjid,Mosque,"XP39+F7J Zeenat Masjid, Unnamed Road, Zakir Colony, Meerut, Uttar Pradesh 250002",Zakir Colony,"XP39+F7J, Unnamed Road",Meerut,250002,Uttar Pradesh,IN,https://www.google.com/maps/place/Zeenat+Masjid/data=!4m7!3m6!1s0x390c64990c9b1d0f:0x2f86bce00621fe01!8m2!3d28.9537221!4d77.7181277!16s%2Fg%2F11f3fbn9zq!19sChIJDx2bDJlkDDkRAf4hBuC8hi8?authuser=0&hl=en&rclk=1,"28.9537221,77.7181277"
Purva Shekh Lal Masjid,Mosque,"Purva Shekh Lal Masjid, Main Road, Subhash Nagar, Meerut, Uttar Pradesh 250001",Subhash Nagar,Main Road,Meerut,250001,Uttar Pradesh,IN,https://www.google.com/maps/place/Purva+Shekh+Lal+Masjid/data=!4m7!3m6!1s0x390c64e54c0ca99b:0x912ca0672ea2aeb0!8m2!3d28.980294!4d77.7111385!16s%2Fg%2F11f_0cpk9w!19sChIJm6kMTOVkDDkRsK6iLmegLJE?authuser=0&hl=en&rclk=1,"28.980293999999997,77.71113849999999"
Noor masjid,Mosque,"WPR9+57P Noor masjid, Noor gardan colony, Fatehullahpur Rd, Bajaut, Meerut, Uttar Pradesh 250002",Bajaut,"WPR9+57P Noor gardan colony, Fatehullahpur Rd",Meerut,250002,Uttar Pradesh,IN,https://www.google.com/maps/place/Noor+masjid/data=!4m7!3m6!1s0x390c638947ea35a1:0x4cd86df6c7ad112b!8m2!3d28.9395212!4d77.7178655!16s%2Fg%2F11rwplr476!19sChIJoTXqR4ljDDkRKxGtx_Zt2Ew?authuser=0&hl=en&rclk=1,"28.939521199999998,77.7178655"
Masjid Jaman Wali,Mosque,"XPF6+V6G Masjid Jaman Wali, Mori Para, Shohrab Gate, Meerut, Uttar Pradesh 250002","Mori Para, Shohrab Gate",XPF6+V6G,Meerut,250002,Uttar Pradesh,IN,https://www.google.com/maps/place/Masjid+Jaman+Wali/data=!4m7!3m6!1s0x390c64f1e14018e7:0x71ffb527b9c55eda!8m2!3d28.9746998!4d77.7105867!16s%2Fg%2F11c71mk6rt!19sChIJ5xhA4fFkDDkR2l7FuSe1_3E?authuser=0&hl=en&rclk=1,"28.9746998,77.7105867"
Noor e Ibrahim Masjid,Mosque,"XP29+64H Noor e Ibrahim Masjid, Zakir Colony, Meerut, Uttar Pradesh 250002",Zakir Colony,XP29+64H,Meerut,250002,Uttar Pradesh,IN,https://www.google.com/maps/place/Noor+e+Ibrahim+Masjid/data=!4m7!3m6!1s0x390c649eb79e82ef:0x6a5ef2df9e3bc48d!8m2!3d28.9505675!4d77.7178671!16s%2Fg%2F11b7q4hcrj!19sChIJ74Ket55kDDkRjcQ7nt_yXmo?authuser=0&hl=en&rclk=1,"28.9505675,77.71786709999999"
Namra Masjid,Mosque,"h no, Namra Masjid, 251, Lisari Rd, Khushhal Nagar, Rafiq Pura, Meerut, Uttar Pradesh 250002","Khushhal Nagar, Rafiq Pura","h no, 251, Lisari Rd",Meerut,250002,Uttar Pradesh,IN,https://www.google.com/maps/place/Namra+Masjid/data=!4m7!3m6!1s0x390c6486655a52a7:0x8e0a700259e4a256!8m2!3d28.9535423!4d77.7044461!16s%2Fg%2F11c2nhb_rj!19sChIJp1JaZYZkDDkRVqLkWQJwCo4?authuser=0&hl=en&rclk=1,"28.9535423,77.7044461"
Mosque,Mosque,"WJQQ+JWF Mosque, Dungrawali, Meerut, Uttar Pradesh 250103",Dungrawali,WJQQ+JWF,Meerut,,Uttar Pradesh,IN,https://www.google.com/maps/place/Mosque/data=!4m7!3m6!1s0x390c67a18c516347:0x6ade8637b86bbb27!8m2!3d28.939068!4d77.6397984!16s%2Fg%2F11ghnqk608!19sChIJR2NRjKFnDDkRJ7truDeG3mo?authuser=0&hl=en&rclk=1,"28.939068,77.63979839999999"
Masjid Roadways Wali,Mosque,"XMQX+8XP Masjid Roadways Wali, Delhi Rd, Lajpat Bazaar, Thapar Nagar, Meerut, Uttar Pradesh 250001","Lajpat Bazaar, Thapar Nagar","XMQX+8XP, Delhi Rd",Meerut,250001,Uttar Pradesh,IN,https://www.google.com/maps/place/Masjid+Roadways+Wali/data=!4m7!3m6!1s0x390c64fff3001e99:0x155c0d5feb3f9bef!8m2!3d28.988342!4d77.69995!16s%2Fg%2F11c7s_b3rv!19sChIJmR4A8_9kDDkR75s_618NXBU?authuser=0&hl=en&rclk=1,"28.988342,77.69995"
Zubaida Masjid,Mosque,"WMPX+3R5 Zubaida Masjid, Lisari, Meerut, Uttar Pradesh 250002",Lisari,WMPX+3R5,Meerut,250002,Uttar Pradesh,IN,https://www.google.com/maps/place/Zubaida+Masjid/data=!4m7!3m6!1s0x390c63787e2f93d5:0x495b685d938de79e!8m2!3d28.9351471!4d77.6996135!16s%2Fg%2F11h9xlyryx!19sChIJ1ZMvfnhjDDkRnueNk11oW0k?authuser=0&hl=en&rclk=1,"28.9351471,77.6996135"
Kauser Masjid,Mosque,"XP25+GJW Kauser Masjid, Ahmad Nagar, Meerut, Uttar Pradesh 250002",Ahmad Nagar,XP25+GJW,Meerut,250002,Uttar Pradesh,IN,https://www.google.com/maps/place/Kauser+Masjid/data=!4m7!3m6!1s0x390c648496cd1bf5:0xf1166f0c4207a06!8m2!3d28.9513538!4d77.709087!16s%2Fg%2F11gb3wd_68!19sChIJ9RvNloRkDDkRBnogxPBmEQ8?authuser=0&hl=en&rclk=1,"28.9513538,77.709087"
Anar Wali Masjid(Barelvi Maslak),Mosque,"XMFW+CPF Anar Wali Masjid(Barelvi Maslak), Kabari Bazaar, Meerut, Uttar Pradesh 250002",Kabari Bazaar,XMFW+CPF,Meerut,250002,Uttar Pradesh,IN,https://www.google.com/maps/place/Anar+Wali+Masjid%28Barelvi+Maslak%29/data=!4m7!3m6!1s0x390c6458de3c6695:0x1ae88ae85809f176!8m2!3d28.9735641!4d77.6968078!16s%2Fg%2F11gczryvxz!19sChIJlWY83lhkDDkRdvEJWOiK6Bo?authuser=0&hl=en&rclk=1,"28.973564099999997,77.6968078"
Masjid Aysha,Mosque,"Masjid Aysha, 70, Gurudwara Rd, Sotiganj, Meerut, Uttar Pradesh 250001",Sotiganj,"70, Gurudwara Rd",Meerut,250001,Uttar Pradesh,IN,https://www.google.com/maps/place/Masjid+Aysha/data=!4m7!3m6!1s0x390c6501c53a0afd:0xb7854f891c8b5ebb!8m2!3d28.9907529!4d77.7031033!16s%2Fg%2F11dz5kd8w0!19sChIJ_Qo6xQFlDDkRu16LHIlPhbc?authuser=0&hl=en&rclk=1,"28.9907529,77.7031033"
Chhapar Wali Masjid,Mosque,"XPG3+8JF Chhapar Wali Masjid, Chapparwali masjid, chawni road, Qazi St, Purani Tehsil, Meerut, Uttar Pradesh 250002","Purani Tehsil, Shohrab Gate","XPG3+8JF, Chapparwali masjid, chawni road, Qazi St",Meerut,250002,Uttar Pradesh,IN,https://www.google.com/maps/place/Chhapar+Wali+Masjid/data=!4m7!3m6!1s0x390c64f727493e8b:0xf54ab29e8df13e1b!8m2!3d28.9758085!4d77.7040534!16s%2Fg%2F1pyqn85zp!19sChIJiz5JJ_dkDDkRGz7xjZ6ySvU?authuser=0&hl=en&rclk=1,"28.9758085,77.70405339999999"
Madina Masjid,Mosque,"Madina Masjid, 647, Lisari Rd, Tarapuri, Meerut, Uttar Pradesh 250002",Tarapuri,"647, Lisari Rd",Meerut,250002,Uttar Pradesh,IN,https://www.google.com/maps/place/Madina+Masjid/data=!4m7!3m6!1s0x390c648a3574c355:0x3a5a850b96ddd1f7!8m2!3d28.9632536!4d77.7021608!16s%2Fg%2F11g6ypr0l5!19sChIJVcN0NYpkDDkR99HdlguFWjo?authuser=0&hl=en&rclk=1,"28.963253599999998,77.7021608"
Langri Masjid,Mosque,"Langri Masjid, Karam Ali, Jatav Gate Rd, Shohrab Gate, Meerut, Uttar Pradesh 250002",Shohrab Gate,"Karam Ali, Jatav Gate Rd",Meerut,250002,Uttar Pradesh,IN,https://www.google.com/maps/place/Langri+Masjid/data=!4m7!3m6!1s0x390c64f68f1a3a77:0x6f36425dabbea751!8m2!3d28.9736674!4d77.7027922!16s%2Fg%2F11d_d5xjq7!19sChIJdzoaj_ZkDDkRUae-q11CNm8?authuser=0&hl=en&rclk=1,"28.9736674,77.70279219999999"
Masjid Badi Qureshiyaan,Mosque,"XPP2+33M Masjid Badi Qureshiyaan, Patel Nagar, Jali Kothi, Meerut, Uttar Pradesh 250001","Patel Nagar, Jali Kothi",XPP2+33M,Meerut,250001,Uttar Pradesh,IN,https://www.google.com/maps/place/Masjid+Badi+Qureshiyaan/data=!4m7!3m6!1s0x390c64f8d9585f47:0x746f52581030becb!8m2!3d28.9852165!4d77.7001827!16s%2Fg%2F11fj1zlztg!19sChIJR19Y2fhkDDkRy74wEFhSb3Q?authuser=0&hl=en&rclk=1,"28.9852165,77.7001827"
Rahmat Masjid,Mosque,"Rahmat Masjid, 273/5, Hapur Rd, A1 Block, Zakir Colony, Meerut, Uttar Pradesh 250002","A1 Block, Zakir Colony","273/5, Hapur Rd",Meerut,250002,Uttar Pradesh,IN,https://www.google.com/maps/place/Rahmat+Masjid/data=!4m7!3m6!1s0x390c649a1fafa693:0x31e6ffaca24ad557!8m2!3d28.955551!4d77.7164928!16s%2Fg%2F11g6x7vmwy!19sChIJk6avH5pkDDkRV9VKoqz_5jE?authuser=0&hl=en&rclk=1,"28.955551,77.7164928"
Bilal Masjid,Mosque,"XM2X+HFG Bilal Masjid, Madhav Puram, Meerut, Uttar Pradesh 250002",Madhav Puram,XM2X+HFG,Meerut,250002,Uttar Pradesh,IN,https://www.google.com/maps/place/Bilal+Masjid/data=!4m7!3m6!1s0x390c647d9037e133:0x21ad39c30ec96a0!8m2!3d28.9514335!4d77.6987077!16s%2Fg%2F11fy2q68yq!19sChIJM-E3kH1kDDkRoJbsMJzTGgI?authuser=0&hl=en&rclk=1,"28.9514335,77.6987077"
Masjid Daree Wali,Mosque,"XMMX+9H4 Masjid Daree Wali, Jali Kothi, Meerut, Uttar Pradesh 250002",Jali Kothi,XMMX+9H4,Meerut,250002,Uttar Pradesh,IN,https://www.google.com/maps/place/Masjid+Daree+Wali/data=!4m7!3m6!1s0x390c645604471851:0xf858d961c4470f5e!8m2!3d28.9833888!4d77.6989439!16s%2Fg%2F11f37c_wyp!19sChIJURhHBFZkDDkRXg9HxGHZWPg?authuser=0&hl=en&rclk=1,"28.9833888,77.6989439"
Aksa Masjid,Mosque,"WPP6+2XF Aksa Masjid, Fatehullahpur, Meerut, Uttar Pradesh 250002",Fatehullahpur,WPP6+2XF,Meerut,250002,Uttar Pradesh,IN,https://www.google.com/maps/place/Aksa+Masjid/data=!4m7!3m6!1s0x390c63acec1a6c7d:0x19678447f168657c!8m2!3d28.9350542!4d77.7124319!16s%2Fg%2F11h60cxj1h!19sChIJfWwa7KxjDDkRfGVo8UeEZxk?authuser=0&hl=en&rclk=1,"28.9350542,77.7124319"
Ayubi Masjid QidwaiNagar Meerut,Mosque,"XP68+R3V Ayubi Masjid QidwaiNagar Meerut, Kidwai Nagar, Umar Nagar, Meerut, Uttar Pradesh 250002","Kidwai Nagar, Umar Nagar",XP68+R3V,Meerut,250002,Uttar Pradesh,IN,https://www.google.com/maps/place/Ayubi+Masjid+QidwaiNagar+Meerut/data=!4m7!3m6!1s0x390c649160b0c01d:0x991ee43ae3e43cf0!8m2!3d28.9621075!4d77.7151766!16s%2Fg%2F1pyqjm6tv!19sChIJHcCwYJFkDDkR8Dzk4zrkHpk?authuser=0&hl=en&rclk=1,"28.9621075,77.71517659999999"
Moti Masjid,Mosque,"Moti Masjid, 2377/7, Hapur Rd, D Block, Zakir Colony, Meerut, Uttar Pradesh 250001, Hapur Rd, D Block, Zakir Colony, Meerut, Uttar Pradesh 250001","D Block, Zakir Colony","2377/7, Hapur Rd, D Block, Zakir Colony, Meerut, Uttar Pradesh 250001, Hapur Rd",Meerut,250001,Uttar Pradesh,IN,https://www.google.com/maps/place/Moti+Masjid/data=!4m7!3m6!1s0x390c649ffce74f33:0x12bc28f8e54063fd!8m2!3d28.9460385!4d77.7216799!16s%2Fg%2F11dfq58mt6!19sChIJM0_n_J9kDDkR_WNA5fgovBI?authuser=0&hl=en&rclk=1,"28.9460385,77.7216799"
Zainul Masjid,Mosque,"XPR4+JX7 Zainul Masjid, Begambagh, Meerut, Uttar Pradesh 250001",Begambagh,XPR4+JX7,Meerut,250001,Uttar Pradesh,IN,https://www.google.com/maps/place/Zainul+Masjid/data=!4m7!3m6!1s0x390c6502663b7577:0x14cb3c0fbd7b070a!8m2!3d28.9915376!4d77.7074302!16s%2Fg%2F11f4l9tqjl!19sChIJd3U7ZgJlDDkRCgd7vQ88yxQ?authuser=0&hl=en&rclk=1,"28.991537599999997,77.70743019999999"
Gulbahar Masjid,Mosque,"XP55+XXW Gulbahar Masjid, Unnamed Road, Ahmad Nagar, Meerut, Uttar Pradesh 250002",Ahmad Nagar,"XP55+XXW, Unnamed Road",Meerut,250002,Uttar Pradesh,IN,https://www.google.com/maps/place/Gulbahar+Masjid/data=!4m7!3m6!1s0x390c648e3baac14d:0xdb5ced075f05f6a0!8m2!3d28.9599985!4d77.709939!16s%2Fg%2F11gfcyfksk!19sChIJTcGqO45kDDkRoPYFXwftXNs?authuser=0&hl=en&rclk=1,"28.959998499999998,77.70993899999999"
Shan E Ilahi Masjid,Mosque,"WPX7+FV3 Shan E Ilahi Masjid, Fatehullahpur, Meerut, Uttar Pradesh 250002",Fatehullahpur,WPX7+FV3,Meerut,250002,Uttar Pradesh,IN,https://www.google.com/maps/place/Shan+E+Ilahi+Masjid/data=!4m7!3m6!1s0x390c649c4f1e47b3:0xe7d9738477dc0c05!8m2!3d28.9486481!4d77.714672!16s%2Fg%2F1pyqnylq_!19sChIJs0ceT5xkDDkRBQzcd4Rz2ec?authuser=0&hl=en&rclk=1,"28.9486481,77.714672"
Fateh Masjid,Mosque,"XPF3+7JX Fateh Masjid, Bania Pada Gate, Lisari, Meerut, Uttar Pradesh 250002",Lisari,"XPF3+7JX, Bania Pada Gate",Meerut,250002,Uttar Pradesh,IN,https://www.google.com/maps/place/Fateh+Masjid/data=!4m7!3m6!1s0x390c64f6a41b3529:0xa78a88e53ace3371!8m2!3d28.9732295!4d77.7041115!16s%2Fg%2F11fy1dv5xz!19sChIJKTUbpPZkDDkRcTPOOuWIiqc?authuser=0&hl=en&rclk=1,"28.9732295,77.7041115"
Masjid Al Hilal,Mosque,"XMMX+24R Masjid Al Hilal, Purwa Faiyaz Ali, Jali Kothi, Meerut, Uttar Pradesh 250002",Jali Kothi,XMMX+24R Purwa Faiyaz Ali,Meerut,,Uttar Pradesh,IN,https://www.google.com/maps/place/Masjid+Al+Hilal/data=!4m7!3m6!1s0x390c64566c00f2d9:0x36d779f4058b874e!8m2!3d28.9826134!4d77.6977543!16s%2Fg%2F11hbgh6615!19sChIJ2fIAbFZkDDkRToeLBfR51zY?authuser=0&hl=en&rclk=1,"28.982613399999998,77.6977543"
Masjid Aqsa,Mosque,"XP7R+6J9 Masjid Aqsa, NH709A, B Block, Jagrati Vihar, Meerut, Uttar Pradesh 250004","B Block, Jagrati Vihar","XP7R+6J9, NH709A",Meerut,250004,Uttar Pradesh,IN,https://www.google.com/maps/place/Masjid+Aqsa/data=!4m7!3m6!1s0x390c654079e12f11:0x20653128532b7453!8m2!3d28.9630362!4d77.7416195!16s%2Fg%2F11k3j6g8r0!19sChIJES_heUBlDDkRU3QrUygxZSA?authuser=0&hl=en&rclk=1,"28.963036199999998,77.7416195"
Madina Masjid Zakir Colony,Mosque,"XP39+WQH Madina Masjid Zakir Colony, A1 Block, Ahmad Nagar, Meerut, Uttar Pradesh 250002","A1 Block, Ahmad Nagar",XP39+WQH,Meerut,250002,Uttar Pradesh,IN,https://www.google.com/maps/place/Madina+Masjid+Zakir+Colony/data=!4m7!3m6!1s0x390c65a1bb0fb4ab:0x4522a622068d0401!8m2!3d28.9548115!4d77.7194991!16s%2Fg%2F11qqf27tsl!19sChIJq7QPu6FlDDkRAQSNBiKmIkU?authuser=0&hl=en&rclk=1,"28.954811499999998,77.7194991"
Angoor Wali Masjid Purwa Ilahi Baksh,Mosque,"XPC2+XMR Angoor Wali Masjid Purwa Ilahi Baksh, Shohrab Gate, Meerut, Uttar Pradesh 250002",Shohrab Gate,XPC2+XMR,Meerut,250002,Uttar Pradesh,IN,https://www.google.com/maps/place/Angoor+Wali+Masjid+Purwa+Ilahi+Baksh/data=!4m7!3m6!1s0x390c64f5d798e507:0xa69b4ba4907edca8!8m2!3d28.9724931!4d77.7016366!16s%2Fg%2F11f54lc1_b!19sChIJB-WY1_VkDDkRqNx-kKRLm6Y?authuser=0&hl=en&rclk=1,"28.972493099999998,77.7016366"
Masjid Hamdan Karima,Mosque,"XP27+8J7 Masjid Hamdan Karima, Fatehullahpur, Meerut, Uttar Pradesh 250002",Fatehullahpur,XP27+8J7,Meerut,250002,Uttar Pradesh,IN,https://www.google.com/maps/place/Masjid+Hamdan+Karima/data=!4m7!3m6!1s0x390c649c78b381b3:0x3d0440284c76e72e!8m2!3d28.9507867!4d77.7140582!16s%2Fg%2F1pyqwbcds!19sChIJs4GzeJxkDDkRLud2TChABD0?authuser=0&hl=en&rclk=1,"28.9507867,77.7140582"
Ahmadi Bait,Mosque,"XP28+6QQ Ahmadi Bait, Zakir Colony, Meerut, Uttar Pradesh 250002",Zakir Colony,XP28+6QQ,Meerut,250002,Uttar Pradesh,IN,https://www.google.com/maps/place/Ahmadi+Bait/data=!4m7!3m6!1s0x390c649eaf291681:0xdf6e96e392fb1c05!8m2!3d28.9505787!4d77.7169797!16s%2Fg%2F11hbv2753h!19sChIJgRYpr55kDDkRBRz7kuOWbt8?authuser=0&hl=en&rclk=1,"28.950578699999998,77.7169797"
Masjid-e-Nabvi,Mosque,"WPQ7+V64 Masjid-e-Nabvi, Fatehullahpur, Meerut, Uttar Pradesh 250002",Fatehullahpur,"WPQ7+V64, Fatehullahpur",Meerut,250002,Uttar Pradesh,IN,https://www.google.com/maps/place/Masjid-e-Nabvi/data=!4m7!3m6!1s0x390c63637c98192d:0xc3040d091414558c!8m2!3d28.9396364!4d77.7130824!16s%2Fg%2F11c2p5rvzt!19sChIJLRmYfGNjDDkRjFUUFAkNBMM?authuser=0&hl=en&rclk=1,"28.939636399999998,77.71308239999999"
Hashmi Masjid,Mosque,"XP73+7PW Hashmi Masjid, Shyam Nagar, Meerut, Uttar Pradesh 250002",Shyam Nagar,XP73+7PW,Meerut,250002,Uttar Pradesh,IN,https://www.google.com/maps/place/Hashmi+Masjid/data=!4m7!3m6!1s0x390c648b92263619:0x16fe9abada02d06a!8m2!3d28.9632442!4d77.7043153!16s%2Fg%2F1pyqk5kcy!19sChIJGTYmkotkDDkRatAC2rqa_hY?authuser=0&hl=en&rclk=1,"28.9632442,77.70431529999999"
Masjid Shan e Ilahi,Mosque,"XP8V+RMR Masjid Shan e Ilahi, Aurang Shahpur Diggi, Meerut, Uttar Pradesh 250004",Aurang Shahpur Diggi,XP8V+RMR,Meerut,250004,Uttar Pradesh,IN,https://www.google.com/maps/place/Masjid+Shan+e+Ilahi/data=!4m7!3m6!1s0x390c65e79761a81b:0x58a590b712ed4c42!8m2!3d28.9671126!4d77.7441305!16s%2Fg%2F11j48l4dd4!19sChIJG6hhl-dlDDkRQkztEreQpVg?authuser=0&hl=en&rclk=1,"28.9671126,77.7441305"
Moti Masjid,Mosque,"Moti Masjid, Near, RTO Rd, Gandhi Market, Shastri Nagar, Meerut, Uttar Pradesh 250004","Gandhi Market, Shastri Nagar","Near, RTO Rd",Meerut,250004,Uttar Pradesh,IN,https://www.google.com/maps/place/Moti+Masjid/data=!4m7!3m6!1s0x390c64a28bd71291:0x745b5b11f962a3be!8m2!3d28.9548073!4d77.7234036!16s%2Fg%2F11hbl3l_9c!19sChIJkRLXi6JkDDkRvqNi-RFbW3Q?authuser=0&hl=en&rclk=1,"28.9548073,77.7234036"
Shia Jama Masjid,Mosque,"Shia Jama Masjid, 18, Neel Gali, Lala ka Bazar, Kotla Bazaar, Subhash Bazaar, Meerut, Uttar Pradesh 250002","Lala ka Bazar, Kotla Bazaar, Subhash Bazaar","18, Neel Gali",Meerut,250002,Uttar Pradesh,IN,https://www.google.com/maps/place/Shia+Jama+Masjid/data=!4m7!3m6!1s0x390c6457fe94c72d:0xbdf62f523ba7cf9c!8m2!3d28.977817!4d77.6995633!16s%2Fg%2F11f0404d1q!19sChIJLceU_ldkDDkRnM-nO1Iv9r0?authuser=0&hl=en&rclk=1,"28.977816999999998,77.6995633"
Ameer Hamza Masjid,Mosque,"D Block, Ameer Hamza Masjid, 2377/7, Hapur Rd, Zakir Colony, Meerut, Uttar Pradesh 250001",Zakir Colony,"D Block, 2377/7, Hapur Rd",Meerut,250001,Uttar Pradesh,IN,https://www.google.com/maps/place/Ameer+Hamza+Masjid/data=!4m7!3m6!1s0x390c649fc081cb17:0x1bf43318cffe769d!8m2!3d28.9471698!4d77.7206851!16s%2Fg%2F11fx9b2hhb!19sChIJF8uBwJ9kDDkRnXb-zxgz9Bs?authuser=0&hl=en&rclk=1,"28.947169799999998,77.7206851"
Badar Masjid,Mosque,"XP73+MR2 Badar Masjid, Masud Nagar, Meerut, Uttar Pradesh 250002",Masud Nagar,XP73+MR2,Meerut,250002,Uttar Pradesh,IN,https://www.google.com/maps/place/Badar+Masjid/data=!4m7!3m6!1s0x390c648b8307a4e5:0x5f1771f29fedbd6!8m2!3d28.9641321!4d77.7045235!16s%2Fg%2F1pyqtdqmf!19sChIJ5aQHg4tkDDkR1tv-KR938QU?authuser=0&hl=en&rclk=1,"28.964132099999997,77.7045235"
Tayyaba Masjid,Mosque,"XP4F+VC8 Tayyaba Masjid, Unnamed Road, Karim Nagar, Shastri Nagar, Meerut, Uttar Pradesh 250002","Karim Nagar, Shastri Nagar","XP4F+VC8, Unnamed Road",Meerut,250002,Uttar Pradesh,IN,https://www.google.com/maps/place/Tayyaba+Masjid/data=!4m7!3m6!1s0x390c64a2a6f6d9fd:0x297ed4ec1c08298d!8m2!3d28.9571631!4d77.7235688!16s%2Fg%2F11f3z8jgcg!19sChIJ_dn2pqJkDDkRjSkIHOzUfik?authuser=0&hl=en&rclk=1,"28.9571631,77.7235688"
Aisha Masjid,Mosque,"Aisha Masjid, aisha masjid purwa mahaveer 250002, Meerut, Uttar Pradesh",Dharmashala,aisha masjid purwa mahaveer 250002,Meerut,,Uttar Pradesh,IN,https://www.google.com/maps/place/Aisha+Masjid/data=!4m7!3m6!1s0x390c6457407d4537:0x3e244c8be30851a7!8m2!3d28.9791378!4d77.6949501!16s%2Fg%2F11d_d55msh!19sChIJN0V9QFdkDDkRp1EI44tMJD4?authuser=0&hl=en&rclk=1,"28.9791378,77.6949501"
NOORANI MASJID.,Mosque,"XP57+VX9 NOORANI MASJID., Ashiyana Colony, Meerut, Uttar Pradesh 250002",Ashiyana Colony,XP57+VX9,Meerut,250002,Uttar Pradesh,IN,https://www.google.com/maps/place/NOORANI+MASJID./data=!4m7!3m6!1s0x390c653e7583565f:0xd2e0558380c8e8d3!8m2!3d28.9596696!4d77.7149849!16s%2Fg%2F11f659q71b!19sChIJX1aDdT5lDDkR0-jIgINV4NI?authuser=0&hl=en&rclk=1,"28.959669599999998,77.71498489999999"
Imran Masjid,Mosque,"Imran Masjid, Fatehullahpur, Meerut, Uttar Pradesh 250002",Fatehullahpur,,Meerut,250002,Uttar Pradesh,IN,https://www.google.com/maps/place/Imran+Masjid/data=!4m7!3m6!1s0x390c6481ea678d45:0x22fe3ed13a4f3285!8m2!3d28.9454112!4d77.7038332!16s%2Fg%2F1pyqt046r!19sChIJRY1n6oFkDDkRhTJPOtE-_iI?authuser=0&hl=en&rclk=1,"28.9454112,77.70383319999999"
Masjid,Mosque,"XP97+GM5 Masjid, Hapur Rd, Nauchandi, Meerut, Uttar Pradesh 250002",Nauchandi,"XP97+GM5, Hapur Rd",Meerut,250002,Uttar Pradesh,IN,https://www.google.com/maps/place/Masjid/data=!4m7!3m6!1s0x390c64ecd082de57:0x23743cec4967ea1e!8m2!3d28.9687744!4d77.7142274!16s%2Fg%2F124yh1pqn!19sChIJV96C0OxkDDkRHupnSew8dCM?authuser=0&hl=en&rclk=1,"28.968774399999997,77.7142274"
Alamgir Masjid,Mosque,"Alamgir Masjid, Muftiyan, Meerut, Uttar Pradesh 250002",Muftiyan,,Meerut,250002,Uttar Pradesh,IN,https://www.google.com/maps/place/Alamgir+Masjid/data=!4m7!3m6!1s0x390c648aae2f9383:0x3e636bd483ccff5!8m2!3d28.966254!4d77.7001429!16s%2Fg%2F11ggvt59z9!19sChIJg5MvropkDDkR9c88SL025gM?authuser=0&hl=en&rclk=1,"28.966254,77.7001429"
Momin Masjid,Mosque,"XP35+W25 Momin Masjid, Fatehullahpur, Meerut, Uttar Pradesh 250002",Fatehullahpur,XP35+W25,Meerut,250002,Uttar Pradesh,IN,https://www.google.com/maps/place/Momin+Masjid/data=!4m7!3m6!1s0x390c6485992afca1:0xcb7ef33633e1dcec!8m2!3d28.9547666!4d77.7076145!16s%2Fg%2F11ggsg223n!19sChIJofwqmYVkDDkR7NzhMzbzfss?authuser=0&hl=en&rclk=1,"28.9547666,77.70761449999999"
Nure Nabi Masjid,Mosque,"XP53+X68 Nure Nabi Masjid, GBI Park Ave Rd, Tarapuri, Meerut, Uttar Pradesh 250002",Tarapuri,"XP53+X68, GBI Park Ave Rd",Meerut,250002,Uttar Pradesh,IN,https://www.google.com/maps/place/Nure+Nabi+Masjid/data=!4m7!3m6!1s0x390c64896e8f2dc5:0xcaa1b93cd941020b!8m2!3d28.95992!4d77.7030674!16s%2Fg%2F1pyqnpph9!19sChIJxS2PbolkDDkRCwJB2Ty5oco?authuser=0&hl=en&rclk=1,"28.95992,77.7030674"
Ghazi mosque,Mosque,"XP97+FPV Ghazi mosque, Hapur Rd, Near shambhu das gate, Nauchandi, Meerut, Uttar Pradesh 250002",Nauchandi,"XP97+FPV, Hapur Rd, Near shambhu das gate",Meerut,250002,Uttar Pradesh,IN,https://www.google.com/maps/place/Ghazi+mosque/data=!4m7!3m6!1s0x390c64ecd06fcf9f:0x19d58d48002a6955!8m2!3d28.9687456!4d77.7142996!16s%2Fg%2F11f_bzdvt3!19sChIJn89v0OxkDDkRVWkqAEiN1Rk?authuser=0&hl=en&rclk=1,"28.9687456,77.71429959999999"
Jama Masjid,Mosque,"WMQX+6M7 Jama Masjid, Lisari Village, Lisari, Meerut, Uttar Pradesh 250002","Lisari Village, Lisari",WMQX+6M7,Meerut,250002,Uttar Pradesh,IN,https://www.google.com/maps/place/Jama+Masjid/data=!4m7!3m6!1s0x390c638201f8f057:0x500dbb06ba8c7597!8m2!3d28.9380304!4d77.6991698!16s%2Fg%2F11f4tzwcjz!19sChIJV_D4AYJjDDkRl3WMuga7DVA?authuser=0&hl=en&rclk=1,"28.9380304,77.69916979999999"
Noor Aalam Masjid,Mosque,"XP64+F2R Noor Aalam Masjid, Gali No. 3, Shyam Nagar, Meerut, Uttar Pradesh 250002",Shyam Nagar,"XP64+F2R, Gali No. 3",Meerut,250002,Uttar Pradesh,IN,https://www.google.com/maps/place/Noor+Aalam+Masjid/data=!4m7!3m6!1s0x390c648954579c6f:0x2742549dfff9b266!8m2!3d28.9612342!4d77.7050083!16s%2Fg%2F11f4zxsfsg!19sChIJb5xXVIlkDDkRZrL5_51UQic?authuser=0&hl=en&rclk=1,"28.9612342,77.7050083"
Masjid,Mosque,"XP2C+HJR Masjid, Sector 12, Shastri Nagar, Meerut, Uttar Pradesh 250002","Sector 12, Shastri Nagar",XP2C+HJR,Meerut,250002,Uttar Pradesh,IN,https://www.google.com/maps/place/Masjid/data=!4m7!3m6!1s0x390c649f4d217e57:0xa55064cc598d81bf!8m2!3d28.9514827!4d77.7215205!16s%2Fg%2F11f12xz02h!19sChIJV34hTZ9kDDkRv4GNWcxkUKU?authuser=0&hl=en&rclk=1,"28.9514827,77.7215205"
Noori Masjid,Mosque,"XM3W+VGV Noori Masjid, Madhav Puram, Meerut, Uttar Pradesh 250002",Madhav Puram,XM3W+VGV,Meerut,250002,Uttar Pradesh,IN,https://www.google.com/maps/place/Noori+Masjid/data=!4m7!3m6!1s0x390c65060382b1c7:0x617cd280e94af0bc!8m2!3d28.9547492!4d77.6962958!16s%2Fg%2F11fhn5zy18!19sChIJx7GCAwZlDDkRvPBK6YDSfGE?authuser=0&hl=en&rclk=1,"28.9547492,77.6962958"
AYESHA MASJID,Mosque,"WPVC+HV3 AYESHA MASJID, Rasool Nagar, Hapur Rd, Meerut, Uttar Pradesh 250002",Shyam Nagar,"WPVC+HV3, Rasool Nagar, Hapur Rd",Meerut,250002,Uttar Pradesh,IN,https://www.google.com/maps/place/AYESHA+MASJID/data=!4m7!3m6!1s0x390c635cd75336e7:0xb60697a2fdb55a2c!8m2!3d28.9438887!4d77.7221645!16s%2Fg%2F11ffv416hf!19sChIJ5zZT11xjDDkRLFq1_aKXBrY?authuser=0&hl=en&rclk=1,"28.9438887,77.72216449999999"
Zubeda Masjid,Mosque,"WPRG+49M Zubeda Masjid, SH 18, Police Traning Center, Lohia Nagar, Meerut, Uttar Pradesh 250004","Police Traning Center, Lohia Nagar","WPRG+49M, SH 18",Meerut,250004,Uttar Pradesh,IN,https://www.google.com/maps/place/Zubeda+Masjid/data=!4m7!3m6!1s0x390c635c25dcb5bf:0x6a88479fc437b64a!8m2!3d28.9403376!4d77.7259158!16s%2Fg%2F1pyqsn33f!19sChIJv7XcJVxjDDkRSrY3xJ9HiGo?authuser=0&hl=en&rclk=1,"28.9403376,77.7259158"
Masjid Building Wali,Mosque,"Masjid Building Wali, Nadir Ali Buildings, Delhi Rd, Jali Kothi, Meerut, Uttar Pradesh 250002",Jali Kothi,"Nadir Ali Buildings, Delhi Rd",Meerut,250002,Uttar Pradesh,IN,https://www.google.com/maps/place/Masjid+Building+Wali/data=!4m7!3m6!1s0x390c65c41494052f:0x847babb6c3387e28!8m2!3d28.985806!4d77.6984178!16s%2Fg%2F11h2q2ryfs!19sChIJLwWUFMRlDDkRKH44w7are4Q?authuser=0&hl=en&rclk=1,"28.985806,77.6984178"
Nawab Ki Masjid,Mosque,"Nawab Ki Masjid, 210A, W End Rd, Sadar Bazaar, Meerut, Uttar Pradesh 250001",Sadar Bazaar,"210A, W End Rd",Meerut,250001,Uttar Pradesh,IN,https://www.google.com/maps/place/Nawab+Ki+Masjid/data=!4m7!3m6!1s0x390c65a971c25d19:0xcf77114f2d76b919!8m2!3d28.9960047!4d77.6963143!16s%2Fg%2F1pyqjs18l!19sChIJGV3CcallDDkRGbl2LU8Rd88?authuser=0&hl=en&rclk=1,"28.9960047,77.6963143"
Masjid-e-Sharifa,Mosque,"XPF4+G27 Masjid-e-Sharifa, Sarai Zeena, Kotwali, Shohrab Gate, Meerut, Uttar Pradesh 250002","Kotwali, Shohrab Gate","XPF4+G27, Sarai Zeena",Meerut,250002,Uttar Pradesh,IN,https://www.google.com/maps/place/Masjid-e-Sharifa/data=!4m7!3m6!1s0x390c64f6b2e901b3:0x572feb96b93885e0!8m2!3d28.9737891!4d77.7050429!16s%2Fg%2F11f3zgv5dy!19sChIJswHpsvZkDDkR4IU4uZbrL1c?authuser=0&hl=en&rclk=1,"28.973789099999998,77.7050429"
Fatima Masjid,Mosque,"WPQ8+3R2 Fatima Masjid, Bajaut, Meerut, Uttar Pradesh 250002",Bajaut,WPQ8+3R2,Meerut,250002,Uttar Pradesh,IN,https://www.google.com/maps/place/Fatima+Masjid/data=!4m7!3m6!1s0x390c6386c5e3a227:0x88f075011912ed80!8m2!3d28.9376267!4d77.7170152!16s%2Fg%2F11f6k0g4fz!19sChIJJ6LjxYZjDDkRgO0SGQF18Ig?authuser=0&hl=en&rclk=1,"28.9376267,77.71701519999999"
Masjid Quba,Mosque,"XP3C+MMW Masjid Quba, Gandhi Market, Shastri Nagar, Meerut, Uttar Pradesh 250002","Gandhi Market, Shastri Nagar",XP3C+MMW,Meerut,250002,Uttar Pradesh,IN,https://www.google.com/maps/place/Masjid+Quba/data=!4m7!3m6!1s0x390c65ccb1429fcb:0x6692ca860088ce0b!8m2!3d28.9542265!4d77.7217118!16s%2Fg%2F11fkkzr4kl!19sChIJy59CscxlDDkRC86IAIbKkmY?authuser=0&hl=en&rclk=1,"28.954226499999997,77.7217118"
Saifiyan Masjid,Mosque,"Saifiyan Masjid, 2377/7, Hapur Rd D Block, Zakir Colony Meerut, Uttar Pradesh 250001, Hapur Rd, D Block, Zakir Colony, Meerut, Uttar Pradesh 250001","D Block, Zakir Colony","2377/7, Hapur Rd D Block, Zakir Colony Meerut, Uttar Pradesh 250001, Hapur Rd",Meerut,250001,Uttar Pradesh,IN,https://www.google.com/maps/place/Saifiyan+Masjid/data=!4m7!3m6!1s0x390c649f8c1cf2f1:0x7942961f6c1485ad!8m2!3d28.947631!4d77.7218891!16s%2Fg%2F11g8x2v0jk!19sChIJ8fIcjJ9kDDkRrYUUbB-WQnk?authuser=0&hl=en&rclk=1,"28.947630999999998,77.7218891"
Angoor Wali Masjid,Mosque,"Angoor Wali Masjid, 208, Ismail Nagar, Kotwali, Purani Tehsil, Shohrab Gate, Meerut, Uttar Pradesh 250002","Kotwali, Purani Tehsil, Shohrab Gate","208, Ismail Nagar",Meerut,250002,Uttar Pradesh,IN,https://www.google.com/maps/place/Angoor+Wali+Masjid/data=!4m7!3m6!1s0x390c64f0d5225a4b:0x902d130079525b17!8m2!3d28.9761672!4d77.7053942!16s%2Fg%2F11c1tc2zvk!19sChIJS1oi1fBkDDkRF1tSeQATLZA?authuser=0&hl=en&rclk=1,"28.9761672,77.7053942"
"Kot Masjid, Abdullapur Meerut",Mosque,"XQR7+4RP Kot Masjid, Abdullapur Meerut, Ambedkar Chowk, Kila Rd, Abdullapur, Meerut, Uttar Pradesh 250001",Abdullapur,"XQR7+4RP, Ambedkar Chowk, Kila Rd",Meerut,250001,Uttar Pradesh,IN,"https://www.google.com/maps/place/Kot+Masjid,+Abdullapur+Meerut/data=!4m7!3m6!1s0x390c7bfab93501bd:0x984a37b48dde1aa5!8m2!3d28.9903482!4d77.7645641!16s%2Fg%2F11m42nk9j1!19sChIJvQE1ufp7DDkRpRrejbQ3Spg?authuser=0&hl=en&rclk=1","28.9903482,77.7645641"
Masjid e ismael,Mosque,"XMWW+F9H Masjid e ismael, Sadar Bazaar, Meerut, Uttar Pradesh 250001",Sadar Bazaar,XMWW+F9H,Meerut,250001,Uttar Pradesh,IN,https://www.google.com/maps/place/Masjid+e+ismael/data=!4m7!3m6!1s0x390c65a972389d35:0xd99b42925d3472ce!8m2!3d28.9961911!4d77.6959967!16s%2Fg%2F11c2k9jw10!19sChIJNZ04cqllDDkRznI0XZJCm9k?authuser=0&hl=en&rclk=1,"28.996191099999997,77.6959967"
Jama Masjid Meerut,Mosque,"XPG4+4P8 Jama Masjid Meerut, Jama Masjid Rd, Kotwali, Purani Tehsil, Shohrab Gate, Meerut, Uttar Pradesh 250002","Kotwali, Purani Tehsil, Shohrab Gate","XPG4+4P8, Jama Masjid Rd",Meerut,250002,Uttar Pradesh,IN,https://www.google.com/maps/place/Jama+Masjid+Meerut/data=!4m7!3m6!1s0x390c653b61dd7e5b:0xdf2a61f4004749ed!8m2!3d28.9752794!4d77.7068205!16s%2Fg%2F11kjydxh1l!19sChIJW37dYTtlDDkR7UlHAPRhKt8?authuser=0&hl=en&rclk=1,"28.975279399999998,77.70682049999999"
MASJID,Mosque,"MASJID, 3, Khatta Rd, police chawki Indra Nagar, Indra Nagar, Madhav Puram, Meerut, Uttar Pradesh 250002","Indra Nagar, Madhav Puram","3, Khatta Rd, police chawki Indra Nagar",Meerut,250002,Uttar Pradesh,IN,https://www.google.com/maps/place/MASJID/data=!4m7!3m6!1s0x390c658ae18f4ced:0x4e31582f9a29c40d!8m2!3d28.9608655!4d77.6946429!16s%2Fg%2F11j3vwp4ty!19sChIJ7UyP4YplDDkRDcQpmi9YMU4?authuser=0&hl=en&rclk=1,"28.960865499999997,77.69464289999999"
Qabristan Wali Masjid,Mosque,"Qabristan Wali Masjid, 2, shiv complex, Meerut-250001 Republic of, opp. N.A.S. College, Mohanpuri, Meerut, Uttar Pradesh 250001",Mohanpuri,"2, shiv complex, Meerut-250001 Republic of, opp. N.A.S. College",Meerut,250001,Uttar Pradesh,IN,https://www.google.com/maps/place/Qabristan+Wali+Masjid/data=!4m7!3m6!1s0x390c6531c75fda07:0xf05c7c46a6425a2c!8m2!3d28.9837926!4d77.7101347!16s%2Fg%2F11h6d5p98d!19sChIJB9pfxzFlDDkRLFpCpkZ8XPA?authuser=0&hl=en&rclk=1,"28.983792599999997,77.7101347"
Masjid,Mosque,"Masjid, kssetriiy sevaayojn kaaryaaly, Lalkurti Bazaar, Meerut Cantt, Meerut, Uttar Pradesh 250001","Lalkurti Bazaar, Meerut Cantt",kssetriiy sevaayojn kaaryaaly,Meerut,,Uttar Pradesh,IN,https://www.google.com/maps/place/Masjid/data=!4m7!3m6!1s0x390c65a4262d246f:0x92aa62dbc0708fde!8m2!3d28.9889923!4d77.7155154!16s%2Fg%2F11h1pgvxtg!19sChIJbyQtJqRlDDkR3o9wwNtiqpI?authuser=0&hl=en&rclk=1,"28.9889923,77.7155154"
Gulzar masjid,Mosque,"Gulzar masjid, Chopal Rajputan, Mahmud Nagar, Meerut, Uttar Pradesh 250002","Chopal Rajputan, Mahmud Nagar",,Meerut,250002,Uttar Pradesh,IN,https://www.google.com/maps/place/Gulzar+masjid/data=!4m7!3m6!1s0x390c65333a3b0407:0xf83f77df6c76cea9!8m2!3d28.9731335!4d77.7069013!16s%2Fg%2F11smtr675b!19sChIJBwQ7OjNlDDkRqc52bN93P_g?authuser=0&hl=en&rclk=1,"28.9731335,77.7069013"
Hakimuddin masjid,Mosque,"WPV9+6W3 Hakimuddin masjid, Hapur Chungi, Humayun Nagar, Meerut, Uttar Pradesh 250002","Hapur Chungi, Humayun Nagar",WPV9+6W3,Meerut,250002,Uttar Pradesh,IN,https://www.google.com/maps/place/Hakimuddin+masjid/data=!4m7!3m6!1s0x390c63f7b75fe1fb:0xc184ae39d717b860!8m2!3d28.9430235!4d77.7197834!16s%2Fg%2F11t7y2pp84!19sChIJ--Fft_djDDkRYLgX1zmuhME?authuser=0&hl=en&rclk=1,"28.9430235,77.7197834"
Tal Wali Masjid,Mosque,"XPX6+9QM Tal Wali Masjid, Jawahar Nagar, Meerut, Uttar Pradesh 250001",Jawahar Nagar,XPX6+9QM,Meerut,250001,Uttar Pradesh,IN,https://www.google.com/maps/place/Tal+Wali+Masjid/data=!4m7!3m6!1s0x390c653b567f7ed9:0x581a95f07859c15e!8m2!3d28.9984544!4d77.7119318!16s%2Fg%2F11h6g3t0tx!19sChIJ2X5_VjtlDDkRXsFZePCVGlg?authuser=0&hl=en&rclk=1,"28.9984544,77.7119318"
Choti Masjid,Mosque,"XPJ6+CG5 Choti Masjid, Subhash Nagar, Meerut, Uttar Pradesh 250003",Subhash Nagar,XPJ6+CG5,Meerut,250003,Uttar Pradesh,IN,https://www.google.com/maps/place/Choti+Masjid/data=!4m7!3m6!1s0x390c65ef72125acb:0x52bc0c1da5cea264!8m2!3d28.9810222!4d77.7113735!16s%2Fg%2F11ghlv4ydn!19sChIJy1oScu9lDDkRZKLOpR0MvFI?authuser=0&hl=en&rclk=1,"28.981022199999998,77.7113735"
Masjid/graveyardChune WLa,Mosque,"XPP5+FF4 Masjid/graveyardChune WLa, Western Kutchery Rd, Mohanpuri, Meerut, Uttar Pradesh 250003",Mohanpuri,"XPP5+FF4, Western Kutchery Rd",Meerut,250003,Uttar Pradesh,IN,https://www.google.com/maps/place/Masjid%2FgraveyardChune+WLa/data=!4m7!3m6!1s0x390c64fc9290ebef:0x28c1a1b3b4c0913f!8m2!3d28.98613!4d77.7087132!16s%2Fg%2F11c6f21hld!19sChIJ7-uQkvxkDDkRP5HAtLOhwSg?authuser=0&hl=en&rclk=1,"28.98613,77.70871319999999"
Fatima Masjid Kanch Ka Pul,Mosque,"XP56+24H Fatima Masjid Kanch Ka Pul, Galli Number 13, Ahmad Nagar, Meerut, Uttar Pradesh 250002",Ahmad Nagar,"XP56+24H, Galli Number 13",Meerut,250002,Uttar Pradesh,IN,https://www.google.com/maps/place/Fatima+Masjid+Kanch+Ka+Pul/data=!4m7!3m6!1s0x390c65f271b30f19:0xb5306e1234dc17b2!8m2!3d28.9575543!4d77.7103627!16s%2Fg%2F11j5k0ydzb!19sChIJGQ-zcfJlDDkRshfcNBJuMLU?authuser=0&hl=en&rclk=1,"28.957554299999998,77.71036269999999"
Asraf masjid,Mosque,"WPXC+VF2 Asraf masjid, Unnamed Road, D Block, Zakir Colony, Meerut, Uttar Pradesh 250002","D Block, Zakir Colony","WPXC+VF2, Unnamed Road",Meerut,250002,Uttar Pradesh,IN,https://www.google.com/maps/place/Asraf+masjid/data=!4m7!3m6!1s0x390c659553c42f53:0x8de9bd1ac2ef2b1a!8m2!3d28.9496463!4d77.7211268!16s%2Fg%2F11fj8d_ph0!19sChIJUy_EU5VlDDkRGivvwhq96Y0?authuser=0&hl=en&rclk=1,"28.949646299999998,77.7211268"
Teli wali masjid (Chhoti Masjid),Mosque,"XPF5+7VR Teli wali masjid (Chhoti Masjid), Sarai Behleem, Meerut, Uttar Pradesh 250002",Sarai Behleem,XPF5+7VR,Meerut,250002,Uttar Pradesh,IN,https://www.google.com/maps/place/Teli+wali+masjid+%28Chhoti+Masjid%29/data=!4m7!3m6!1s0x390c6560da6d1c43:0xa83662393a9398ea!8m2!3d28.9732317!4d77.709647!16s%2Fg%2F11rq2l6s7x!19sChIJQxxt2mBlDDkR6piTOjliNqg?authuser=0&hl=en&rclk=1,"28.9732317,77.70964699999999"
Fatima masjid,Mosque,"XP32+8J7 Fatima masjid, Lisari Rd, near ideal public school, Samar colony, Rafiq Pura, Meerut, Uttar Pradesh 250002","Samar colony, Rafiq Pura","XP32+8J7, Lisari Rd, near ideal public school",Meerut,250002,Uttar Pradesh,IN,https://www.google.com/maps/place/Fatima+masjid/data=!4m7!3m6!1s0x390c651140aa63c1:0x6385a5f7bb1bb654!8m2!3d28.9532754!4d77.7015622!16s%2Fg%2F11pv5r0q66!19sChIJwWOqQBFlDDkRVLYbu_elhWM?authuser=0&hl=en&rclk=1,"28.9532754,77.7015622"
Al-e-hadis Masjid,Mosque,"XP39+7WR Al-e-hadis Masjid, Unnamed Road, A1 Block, Zakir Colony, Meerut, Uttar Pradesh 250002","A1 Block, Zakir Colony","XP39+7WR, Unnamed Road",Meerut,250002,Uttar Pradesh,IN,https://www.google.com/maps/place/Al-e-hadis+Masjid/data=!4m7!3m6!1s0x390c65860f8b43c7:0xa0a40cf920b3337e!8m2!3d28.9532334!4d77.7197515!16s%2Fg%2F11ght8bmvm!19sChIJx0OLD4ZlDDkRfjOzIPkMpKA?authuser=0&hl=en&rclk=1,"28.9532334,77.7197515"
