name,main_category,address,address_ward,address_street,address_city,address_postal_code,address_state,address_country_code,link,coordinates
Sri Bhramaramba Mallikarjuna Swamy varla Devasthanam,Hindu temple,"Sri Bhramaramba Mallikarjuna Swamy varla Devasthanam, Srisailam, Andhra Pradesh 528101",,,Srisailam,528101,Andhra Pradesh,IN,https://www.google.com/maps/place/Sri+Bhramaramba+Mallikarjuna+Swamy+varla+Devasthanam/data=!4m7!3m6!1s0x3bb5656c41af32d5:0x1875cd84b9c2e163!8m2!3d16.0738467!4d78.8677919!16s%2Fm%2F0ds8_3j!19sChIJ1TKvQWxltTsRY-HCuYTNdRg?authuser=0&hl=en&rclk=1,"16.0738467,78.8677919"
Sri Sakshi Ganapathi Swamy Temple.,Hindu temple,"Sri Sakshi Ganapathi Swamy Temple., Sakshi Ganapathi, Srisailam, Andhra Pradesh 518101",,Sakshi Ganapathi,Srisailam,518101,Andhra Pradesh,IN,https://www.google.com/maps/place/Sri+Sakshi+Ganapathi+Swamy+Temple./data=!4m7!3m6!1s0x3bb5657e7a101acb:0x53813d4536cd686e!8m2!3d16.057638!4d78.8785077!16s%2Fg%2F11cs0rt9d3!19sChIJyxoQen5ltTsRbmjNNkU9gVM?authuser=0&hl=en&rclk=1,"16.057638,78.8785077"
Hatakeswaram,Hindu temple,"3V3Q+FC6 Hatakeswaram, Srisailam, Andhra Pradesh 518101",,3V3Q+FC6,Srisailam,518101,Andhra Pradesh,IN,https://www.google.com/maps/place/Hatakeswaram/data=!4m7!3m6!1s0x3bb56f7e65eb3255:0x235b0d00a0ee0e6!8m2!3d16.0536657!4d78.8885016!16s%2Fg%2F1ptyfcht7!19sChIJVTLrZX5vtTsR5uAOCtCwNQI?authuser=0&hl=en&rclk=1,"16.0536657,78.8885016"
"Sri Bhramaramba Ammavari Shakti Peetham Temple, Srisailam",Hindu temple,"3VF8+JW7 Sri Bhramaramba Ammavari Shakti Peetham Temple, Srisailam, Srisailam, Andhra Pradesh 518101",,3VF8+JW7,Srisailam,518101,Andhra Pradesh,IN,"https://www.google.com/maps/place/Sri+Bhramaramba+Ammavari+Shakti+Peetham+Temple,+Srisailam/data=!4m7!3m6!1s0x3bb5656c6c028aad:0x73dec6cb997c34a!8m2!3d16.0740381!4d78.86729!16s%2Fg%2F1hm5wd4mm!19sChIJrYoCbGxltTsRSsOXuWzsPQc?authuser=0&hl=en&rclk=1","16.0740381,78.86729"
Masjid E Osman E Ghani(R.A) Ahlesunnat Wal Jamaat,Mosque,"18-11, Masjid E Osman E Ghani(R.A) Ahlesunnat Wal Jamaat, 18-11-26/7, Srisailam Hwy, Patel Nagar, Bandlaguda, Chandrayangutta, Hyderabad, Telangana 500005","Patel Nagar, Bandlaguda, Chandrayangutta","18-11, 18-11-26/7, Srisailam Hwy",Hyderabad,500005,Telangana,IN,https://www.google.com/maps/place/Masjid+E+Osman+E+Ghani%28R.A%29+Ahlesunnat+Wal+Jamaat/data=!4m7!3m6!1s0x3bcba2b508c52ad9:0x4fdaa6d013b0b0f0!8m2!3d17.313101!4d78.4777357!16s%2Fg%2F11c5bp7h98!19sChIJ2SrFCLWiyzsR8LCwE9Cm2k8?authuser=0&hl=en&rclk=1,"17.313101,78.4777357"
MASJID-E-ARSHAD.,Mosque,"MASJID-E-ARSHAD., metro city, Kadthal Main Rd, Kadthal, Telangana 509358",,"metro city, Kadthal Main Rd",Kadthal,509358,Telangana,IN,https://www.google.com/maps/place/MASJID-E-ARSHAD./data=!4m7!3m6!1s0x3bcbadf7fb948dfb:0x235edde529fba1bd!8m2!3d16.9809593!4d78.5032378!16s%2Fg%2F11f9ymn25v!19sChIJ-42U-_etyzsRvaH7KeXdXiM?authuser=0&hl=en&rclk=1,"16.9809593,78.5032378"
Masjid-E-Quba masjidWi quba,Mosque,"7FVF+V65 Masjid-E-Quba masjidWi quba, Srisailam Hwy, Quba Colony, Chandrayangutta, Hyderabad, Telangana 500005","Quba Colony, Chandrayangutta","7FVF+V65, Srisailam Hwy",Hyderabad,500005,Telangana,IN,https://www.google.com/maps/place/Masjid-E-Quba+%D9%85%D9%8E%D8%B3%D9%92%D8%AC%D9%90%D8%AF%D9%91%D9%90+%D9%82%D9%8F%D8%A8%D9%8E%D8%A7%D8%A1%E2%80%AD/data=!4m7!3m6!1s0x3bcbbd2c9262c16b:0x5de453659ee3d2cc!8m2!3d17.2946299!4d78.4731081!16s%2Fg%2F11b7ztsmrl!19sChIJa8Fikiy9yzsRzNLjnmVT5F0?authuser=0&hl=en&rclk=1,"17.2946299,78.47310809999999"
Jamiya Masjid,Mosque,"3WH7+JPM Jamiya Masjid, Sundipenta, Andhra Pradesh 518102",,3WH7+JPM,Sundipenta,518102,Andhra Pradesh,IN,https://www.google.com/maps/place/Jamiya+Masjid/data=!4m7!3m6!1s0x3bb565e9ae3608c5:0xa977ce6ff0a5185!8m2!3d16.0790889!4d78.914296!16s%2Fg%2F1hm4_msyv!19sChIJxQg2rulltTsRhVEK_-Z8lwo?authuser=0&hl=en&rclk=1,"16.0790889,78.914296"
Masjid-e-Bilal,Mosque,"8F2G+X2X Masjid-e-Bilal, Srisailam Hwy, Sadat Nagar, Chandrayangutta, Hyderabad, Telangana 500005","Sadat Nagar, Chandrayangutta","8F2G+X2X, Srisailam Hwy",Hyderabad,500005,Telangana,IN,https://www.google.com/maps/place/Masjid-e-Bilal/data=!4m7!3m6!1s0x3bcbbd332b67bce3:0x2651463dc621acee!8m2!3d17.3024959!4d78.4750994!16s%2Fg%2F11btxlpy21!19sChIJ47xnKzO9yzsR7qwhxj1GUSY?authuser=0&hl=en&rclk=1,"17.3024959,78.47509939999999"
Masjid,Mosque,"Masjid, 32, 18-10-52, Srisailam Hwy, Maheswaram Lines, Chandrayangutta, Hyderabad, Telangana 500005","Maheswaram Lines, Chandrayangutta","32, 18-10-52, Srisailam Hwy",Hyderabad,500005,Telangana,IN,https://www.google.com/maps/place/Masjid/data=!4m7!3m6!1s0x3bcba2b18a657237:0x92f821143279ad29!8m2!3d17.3212041!4d78.4809308!16s%2Fg%2F11c6y_qpwz!19sChIJN3JlirGiyzsRKa15MhQh-JI?authuser=0&hl=en&rclk=1,"17.3212041,78.4809308"
Jaama masjid,Mosque,"6QWX+G45 Jaama masjid, SH 5, Mallapur, Telangana 509326",,"6QWX+G45, SH 5",Mallapur,509326,Telangana,IN,https://www.google.com/maps/place/Jaama+masjid/data=!4m7!3m6!1s0x3bca83811dd2aa11:0x2baca799aa5bc2b6!8m2!3d16.2462603!4d78.7978474!16s%2Fg%2F11h4dpyd2t!19sChIJEarSHYGDyjsRtsJbqpmnrCs?authuser=0&hl=en&rclk=1,"16.2462603,78.7978474"
Srisailam Room,,"3VFC+JHG Srisailam Room, Srisailam, Andhra Pradesh 518101",,3VFC+JHG,Srisailam,518101,Andhra Pradesh,IN,https://www.google.com/maps/place/Srisailam+Room/data=!4m7!3m6!1s0x3bb565eaae18d641:0xc12ff8bc17ac1ac5!8m2!3d16.0740558!4d78.8714404!16s%2Fg%2F11h4gz7ft_!19sChIJQdYYrupltTsRxRqsF7z4L8E?authuser=0&hl=en&rclk=1,"16.0740558,78.8714404"
Srisailam devasthanam,Religious destination,"3VF9+8F5 Srisailam devasthanam, Srisailam, Andhra Pradesh 518101",,3VF9+8F5,Srisailam,518101,Andhra Pradesh,IN,https://www.google.com/maps/place/Srisailam+devasthanam/data=!4m7!3m6!1s0x3bb5658abf69c7c1:0x158e355f26ada231!8m2!3d16.0732748!4d78.8687291!16s%2Fg%2F11kr_5r5fg!19sChIJwcdpv4pltTsRMaKtJl81jhU?authuser=0&hl=en&rclk=1,"16.0732748,78.8687291"
Jama Masjid,Mosque,"9Q95+X8C Jama Masjid, Mannanur, Telangana 509201",,9Q95+X8C,Mannanur,509201,Telangana,IN,https://www.google.com/maps/place/Jama+Masjid/data=!4m7!3m6!1s0x3bca842fcfcaeae1:0x4218520f9a231336!8m2!3d16.3699384!4d78.758275!16s%2Fg%2F11f3sfms8g!19sChIJ4erKzy-EyjsRNhMjmg9SGEI?authuser=0&hl=en&rclk=1,"16.3699384,78.758275"
Noorani Masjid,Mosque,"3WF6+9HR Noorani Masjid, Sundipenta, Andhra Pradesh 518102",,3WF6+9HR,Sundipenta,518102,Andhra Pradesh,IN,https://www.google.com/maps/place/Noorani+Masjid/data=!4m7!3m6!1s0x3bb565ec1bb8b871:0x94f3cd9abf5e59a6!8m2!3d16.07348!4d78.9113833!16s%2Fg%2F1hm2f6s4_!19sChIJcbi4G-xltTsRpllev5rN85Q?authuser=0&hl=en&rclk=1,"16.07348,78.9113833"
Jama Masjid Naser Bin Wahlan (Ahle Hadees),Mosque,"Jama Masjid Naser Bin Wahlan (Ahle Hadees), 1, Srisailam Hwy, Mohsin Colony, Quba Colony, Chandrayangutta, Hyderabad, Telangana 500005","Mohsin Colony, Quba Colony, Chandrayangutta","1, Srisailam Hwy",Hyderabad,500005,Telangana,IN,https://www.google.com/maps/place/Jama+Masjid+Naser+Bin+Wahlan+%28Ahle+Hadees%29/data=!4m7!3m6!1s0x3bcbbd13ee651745:0xf7b9fe4e9074596b!8m2!3d17.2921537!4d78.4746139!16s%2Fg%2F11sxwsdnyc!19sChIJRRdl7hO9yzsRa1l0kE7-ufc?authuser=0&hl=en&rclk=1,"17.2921537,78.4746139"
Jamia Masjid,Mosque,"4V3W+JX9 Jamia Masjid, Domalapenta, Telangana 509326",,4V3W+JX9,Domalapenta,509326,Telangana,IN,https://www.google.com/maps/place/Jamia+Masjid/data=!4m7!3m6!1s0x3bb5658a8271b1b5:0x66f8641a842818ac!8m2!3d16.1040368!4d78.897499!16s%2Fg%2F11r0_s1qhg!19sChIJtbFxgopltTsRrBgohBpk-GY?authuser=0&hl=en&rclk=1,"16.1040368,78.897499"
Khadriya masjid,Mosque,"HM3Q+C27 Khadriya masjid, Dindi, Telangana 508258",,HM3Q+C27,Dindi,508258,Telangana,IN,https://www.google.com/maps/place/Khadriya+masjid/data=!4m7!3m6!1s0x3bca8b0c94007951:0xa44721a1df766e6e!8m2!3d16.5535365!4d78.6875491!16s%2Fg%2F11qh94_b0x!19sChIJUXkAlAyLyjsRbm5236EhR6Q?authuser=0&hl=en&rclk=1,"16.5535365,78.6875491"
shriishailN,Housing society,"3VF9+HF6 shriishailN, Srisailam Temple Rd, Srisailam, Andhra Pradesh 518101",,"3VF9+HF6, Srisailam Temple Rd",Srisailam,518101,Andhra Pradesh,IN,https://www.google.com/maps/place/%E0%B0%B6%E0%B1%8D%E0%B0%B0%E0%B1%80%E0%B0%B6%E0%B1%88%E0%B0%B2%E0%B0%82/data=!4m7!3m6!1s0x3bb5656bbe72cd09:0xd2fc66e639ecba72!8m2!3d16.0739125!4d78.8686516!16s%2Fg%2F11krq23c4f!19sChIJCc1yvmtltTsRcrrsOeZm_NI?authuser=0&hl=en&rclk=1,"16.0739125,78.86865159999999"
Srisailam,,"Srisailam, Andhra Pradesh 518101",,,Srisailam,,Andhra Pradesh,IN,https://www.google.com/maps/place/Srisailam/data=!4m7!3m6!1s0x3bb5656d70792343:0xb2342e1f2ed1834b!8m2!3d16.0732748!4d78.8687291!16s%2Fg%2F11bc6689v7!19sChIJQyN5cG1ltTsRS4PRLh8uNLI?authuser=0&hl=en&rclk=1,"16.0732748,78.8687291"
