name,main_category,address,address_ward,address_street,address_city,address_postal_code,address_state,address_country_code,link,coordinates
Jama Masjid,Mosque,"Jama Masjid, Old Delhi, Delhi, 110006","Jama Masjid, Old Delhi",,Delhi,110006,Delhi,IN,https://www.google.com/maps/place/Jama+Masjid/data=!4m7!3m6!1s0x390cfd18df89b215:0xdd57369e29bf9d96!8m2!3d28.6506792!4d77.2334421!16zL20vMDR5emo1!19sChIJFbKJ3xj9DDkRlp2_KZ42V90?authuser=0&hl=en&rclk=1,"28.6506792,77.23344209999999"
juma masjid,Mosque,"V7MC+4G7 juma masjid, Khaika Hathin, Haryana 121106",,V7MC+4G7,Khaika Hathin,121106,Haryana,IN,https://www.google.com/maps/place/juma+masjid/data=!4m7!3m6!1s0x3973261a681787af:0x8795fdd7447e277b!8m2!3d27.8827803!4d77.2712917!16s%2Fg%2F11d_83c45r!19sChIJr4cXaBomczkReyd-RNf9lYc?authuser=0&hl=en&rclk=1,"27.8827803,77.27129169999999"
Lal masjid Santhawari,Mosque,"Lal masjid Santhawari, Santhawari, Nangal Mubarikpur, Haryana 122108",,,"Santhawari, Nangal Mubarikpur",122108,Haryana,IN,https://www.google.com/maps/place/Lal+masjid+Santhawari/data=!4m7!3m6!1s0x3972cf700db27e8b:0xb9ed5b136528fb7b!8m2!3d27.9041242!4d76.9663817!16s%2Fg%2F11h_wnxs2z!19sChIJi36yDXDPcjkRe_soZRNb7bk?authuser=0&hl=en&rclk=1,"27.9041242,76.9663817"
Hanif Mayapuri Phase II Mosque,Mosque,"J477+G58 Hanif Mayapuri Phase II Mosque, Opposite Delhi Cantt. Railway Station, Mayapuri Industrial Area Phase II, Mayapuri, New Delhi, Delhi 110046","Mayapuri Industrial Area Phase II, Mayapuri","J477+G58, Opposite Delhi Cantt. Railway Station",New Delhi,110046,Delhi,IN,https://www.google.com/maps/place/Hanif+Mayapuri+Phase+II+Mosque/data=!4m7!3m6!1s0x390d0352b14c302b:0xede26ae52c958d21!8m2!3d28.6137773!4d77.1129392!16s%2Fg%2F124svf9xr!19sChIJKzBMsVIDDTkRIY2VLOVq4u0?authuser=0&hl=en&rclk=1,"28.6137773,77.1129392"
Sunday Market Nangal,Market,"J454+WRG Sunday Market Nangal, PT Vishnu Datt Marg, D1-A Block, Block D2, Nangal Raya, Janakpuri, New Delhi, Delhi, 110058","D1-A Block, Block D2, Nangal Raya, Janakpuri","J454+WRG, PT Vishnu Datt Marg","New Delhi, Delhi",110058,Delhi,IN,https://www.google.com/maps/place/Sunday+Market+Nangal/data=!4m7!3m6!1s0x390d1cab9e3a1d65:0x9c1c79d1b697e143!8m2!3d28.6098035!4d77.1070857!16s%2Fg%2F11hbqb5lkr!19sChIJZR06nqscDTkRQ-GXttF5HJw?authuser=0&hl=en&rclk=1,"28.609803499999998,77.1070857"
Masjid Syed Gauhar Ali Shah Qadeem,Mosque,"Masjid Syed Gauhar Ali Shah Qadeem, Vasant Kunj Rd, near riyan international school, Pocket 8, Sector C, Mahipalpur, New Delhi, Delhi 110037","Pocket 8, Sector C, Mahipalpur","Vasant Kunj Rd, near riyan international school",New Delhi,110037,Delhi,IN,https://www.google.com/maps/place/Masjid+Syed+Gauhar+Ali+Shah+Qadeem/data=!4m7!3m6!1s0x390d1c3eec5e5d13:0xa92601d35ec2a44c!8m2!3d28.5385447!4d77.1353702!16s%2Fg%2F11h0x_24g!19sChIJE11e7D4cDTkRTKTCXtMBJqk?authuser=0&hl=en&rclk=1,"28.5385447,77.1353702"
Nangal Raya Market,Market,"Nangal Raya Market, C-73, Maya Vihar, Block WZ, Hari Nagar, New Delhi, Delhi 110064","Maya Vihar, Block WZ, Hari Nagar",C-73,New Delhi,110064,Delhi,IN,https://www.google.com/maps/place/Nangal+Raya+Market/data=!4m7!3m6!1s0x390d1d97ce719d73:0x757c8479fda21ebc!8m2!3d28.6116004!4d77.1122931!16s%2Fg%2F11rn0cbvlf!19sChIJc51xzpcdDTkRvB6i_XmEfHU?authuser=0&hl=en&rclk=1,"28.6116004,77.1122931"
Madina Masjid,Mosque,"J477+G59 Madina Masjid, Maya Vihar, Mayapuri Industrial Area Phase II, Mayapuri, New Delhi, Delhi 110064","Maya Vihar, Mayapuri Industrial Area Phase II, Mayapuri",J477+G59,New Delhi,110064,Delhi,IN,https://www.google.com/maps/place/Madina+Masjid/data=!4m7!3m6!1s0x390d0352b146e60b:0x7fa8b88c1aff39da!8m2!3d28.613799!4d77.11298!16s%2Fg%2F12m9bs3bn!19sChIJC-ZGsVIDDTkR2jn_Goy4qH8?authuser=0&hl=en&rclk=1,"28.613799,77.11298"
Noori Masjid,Mosque,"F858+P23 Noori Masjid, Rajeev Nagar, Sector 32, Faridabad, Haryana 121003","Rajeev Nagar, Sector 32",F858+P23,Faridabad,121003,Haryana,IN,https://www.google.com/maps/place/Noori+Masjid/data=!4m7!3m6!1s0x390ce7666fe98ee7:0xad8e1c427007f1f1!8m2!3d28.4592688!4d77.3150624!16s%2Fg%2F11b6hv8hmk!19sChIJ547pb2bnDDkR8fEHcEIcjq0?authuser=0&hl=en&rclk=1,"28.4592688,77.3150624"
Jamia Masjid Nangal,Mosque,"8Q4F+HHP Jamia Masjid Nangal, Unnamed Road, Chak No. 277 B, Jhang, Punjab, Pakistan",,"8Q4F+HHP, Unnamed Road",Chak No. 277 B,,"Jhang, Punjab",PK,https://www.google.com/maps/place/Jamia+Masjid+Nangal/data=!4m7!3m6!1s0x392253b15a2f3661:0x40adbed15d5ab196!8m2!3d31.3064622!4d72.7739676!16s%2Fg%2F11fxv3wg3h!19sChIJYTYvWrFTIjkRlrFaXdG-rUA?authuser=0&hl=en&rclk=1,"31.3064622,72.77396759999999"
Mecca Masjid,Mosque,"26RH+XRX Mecca Masjid, Buraka Hathin, Hathin, Haryana 121103",Buraka Hathin,26RH+XRX,Hathin,121103,Haryana,IN,https://www.google.com/maps/place/Mecca+Masjid/data=!4m7!3m6!1s0x39732ae58e6e34ff:0xe123f0a6f7abb628!8m2!3d28.0424971!4d77.229615!16s%2Fg%2F11d_8lymld!19sChIJ_zRujuUqczkRKLar96bwI-E?authuser=0&hl=en&rclk=1,"28.0424971,77.229615"
Badi masjid,Mosque,"G4WX+9XX Badi masjid, Nangal, Rajasthan 321024",,G4WX+9XX,Nangal,,Rajasthan,IN,https://www.google.com/maps/place/Badi+masjid/data=!4m7!3m6!1s0x3972e3d2f7488273:0x1b95dfe99eea4af1!8m2!3d27.5459929!4d77.1499773!16s%2Fg%2F11gl1y866q!19sChIJc4JI99LjcjkR8UrqnunflRs?authuser=0&hl=en&rclk=1,"27.545992899999998,77.1499773"
"Shiv Mandir Old Nangal Raya, Delhi Cantonment",Hindu temple,"J448+CC3 Shiv Mandir Old Nangal Raya, Delhi Cantonment, Shiv Mandir, Old, Nangal Raya, Delhi Cantonment, Delhi 110010","Nangal, Nangal Raya, Delhi Cantonment","J448+CC3, Shiv Mandir, Old",New Delhi,110010,Delhi,IN,"https://www.google.com/maps/place/Shiv+Mandir+Old+Nangal+Raya,+Delhi+Cantonment/data=!4m7!3m6!1s0x390d1deab784b965:0x1e927d86602ff983!8m2!3d28.6060138!4d77.1160429!16s%2Fg%2F11g0hh07_0!19sChIJZbmEt-odDTkRg_kvYIZ9kh4?authuser=0&hl=en&rclk=1","28.6060138,77.1160429"
Chhoti Masjid,Mosque,"G4VX+R23 Chhoti Masjid, Nangal, Rajasthan 321024",,G4VX+R23,Nangal,,Rajasthan,IN,https://www.google.com/maps/place/Chhoti+Masjid/data=!4m7!3m6!1s0x3972e35811814b53:0x8c51300d1c919e59!8m2!3d27.5445202!4d77.1475425!16s%2Fg%2F11g1qhb1q0!19sChIJU0uBEVjjcjkRWZ6RHA0wUYw?authuser=0&hl=en&rclk=1,"27.544520199999997,77.1475425"
Beech vali masjid Peeproli,Mosque,"HQ4F+WC2 Beech vali masjid Peeproli, Unnamed Road, Peeproli, Rajasthan 301026",,"HQ4F+WC2, Unnamed Road",Peeproli,301026,Rajasthan,IN,https://www.google.com/maps/place/Beech+vali+masjid+Peeproli/data=!4m7!3m6!1s0x397293f781813361:0x4a97f1dd73c72d89!8m2!3d27.5572709!4d76.7735281!16s%2Fg%2F11mxtmsm06!19sChIJYTOBgfeTcjkRiS3Hc93xl0o?authuser=0&hl=en&rclk=1,"27.5572709,76.7735281"
Eidgah Devla nagli iidgaah devlaa nglii,Mosque,"X4J4+9MR Eidgah Devla nagli iidgaah devlaa nglii, Bahadri, Haryana 122108",,X4J4+9MR,Bahadri,,Haryana,IN,https://www.google.com/maps/place/Eidgah+Devla+nagli+%E0%A4%88%E0%A4%A6%E0%A4%97%E0%A4%BE%E0%A4%B9+%E0%A4%A6%E0%A5%87%E0%A4%B5%E0%A4%B2%E0%A4%BE+%E0%A4%A8%E0%A4%97%E0%A4%B2%E0%A5%80/data=!4m7!3m6!1s0x3972d37068c6c405:0x77e4b33dfa054f7f!8m2!3d27.980976!4d77.1066404!16s%2Fg%2F11r70j0pmv!19sChIJBcTGaHDTcjkRf08F-j2z5Hc?authuser=0&hl=en&rclk=1,"27.980976,77.1066404"
Eidgah Masjid `yd gh msjd,Mosque,"H43X+382 Eidgah Masjid `yd gh msjd, Nangal, Bhuapur Garhi, Rajasthan 321024",,H43X+382,"Nangal, Bhuapur Garhi",,Rajasthan,IN,https://www.google.com/maps/place/Eidgah+Masjid+%D8%B9%DB%8C%D8%AF+%DA%AF%D8%A7%DB%81+%D9%85%D8%B3%D8%AC%D8%AF%E2%80%AD/data=!4m7!3m6!1s0x3972e3484f2797fd:0x20463cd888acec0!8m2!3d27.5526445!4d77.1482679!16s%2Fg%2F11g2xrtf9q!19sChIJ_ZcnT0jjcjkRwM6KiM1jBAI?authuser=0&hl=en&rclk=1,"27.5526445,77.1482679"
"Madina Masjid , Rujdar Sarpanch ki dhani",Mosque,"FH9R+6J Madina Masjid , Rujdar Sarpanch ki dhani, Palkhari, Rajasthan 301001",,FH9R+6J,Palkhari,301001,Rajasthan,IN,"https://www.google.com/maps/place/Madina+Masjid+,+Rujdar+Sarpanch+ki+dhani/data=!4m7!3m6!1s0x39729b7476f9e01b:0x8ee6352ef059c3c3!8m2!3d27.4680885!4d76.5915119!16s%2Fg%2F11sn3wh07d!19sChIJG-D5dnSbcjkRw8NZ8C415o4?authuser=0&hl=en&rclk=1","27.4680885,76.5915119"
Jama Masjid Mahrana Nangal,Mosque,"CW53+FRV Jama Masjid Mahrana Nangal, Nangal Khanjadi, Jawli, Mahrana, Rajasthan 301415",Nangal Khanjadi,CW53+FRV,"Jawli, Mahrana",,Rajasthan,IN,https://www.google.com/maps/place/Jama+Masjid+Mahrana+Nangal/data=!4m7!3m6!1s0x3972f3917a1236a7:0xf8236b69a8a95eb8!8m2!3d27.408743!4d76.9045386!16s%2Fg%2F11g0hywb84!19sChIJpzYSepHzcjkRuF6pqGlrI_g?authuser=0&hl=en&rclk=1,"27.408742999999998,76.9045386"
Madina masjid,Mosque,"Madina masjid, Raghubir Singh, Nangal, Uttar Pradesh 250617",,Raghubir Singh,Nangal,250617,Uttar Pradesh,IN,https://www.google.com/maps/place/Madina+masjid/data=!4m7!3m6!1s0x390dcbc8a566e561:0xa34ff5af94aeff72!8m2!3d29.2580761!4d77.1637629!16s%2Fg%2F11jgtgg8_5!19sChIJYeVmpcjLDTkRcv-ulK_1T6M?authuser=0&hl=en&rclk=1,"29.2580761,77.1637629"
Masjid rasoolpur,Mosque,"G5R2+HPG Masjid rasoolpur, Unnamed Road, Nangal, Rajasthan 321024",,"G5R2+HPG, Unnamed Road",Nangal,321024,Rajasthan,IN,https://www.google.com/maps/place/Masjid+rasoolpur/data=!4m7!3m6!1s0x3972e3b6ad85f11f:0xd4ea813a12eaba0b!8m2!3d27.5414465!4d77.1518386!16s%2Fg%2F11j0s61mbc!19sChIJH_GFrbbjcjkRC7rqEjqB6tQ?authuser=0&hl=en&rclk=1,"27.5414465,77.15183859999999"
Taj AL-Masjid,Mosque,"PR87+QVR Taj AL-Masjid, Neekach, Nakhnol, Rajasthan 301025",,PR87+QVR,"Neekach, Nakhnol",301025,Rajasthan,IN,https://www.google.com/maps/place/Taj+AL-Masjid/data=!4m7!3m6!1s0x3972bf5fd50a8197:0x5bbc60a1c0e0320d!8m2!3d27.7169764!4d76.8146348!16s%2Fg%2F11ghn65wgd!19sChIJl4EK1V-_cjkRDTLgwKFgvFs?authuser=0&hl=en&rclk=1,"27.7169764,76.8146348"
Badi Masjid Nangal,Mosque,"RM59+MFP Badi Masjid Nangal, Nangal Mouzia, Rajasthan 301404",,RM59+MFP,Nangal Mouzia,301404,Rajasthan,IN,https://www.google.com/maps/place/Badi+Masjid+Nangal/data=!4m7!3m6!1s0x3972bbac68f492c5:0x416f03fee832b4a0!8m2!3d27.8092182!4d76.6686972!16s%2Fg%2F11nx14k8l_!19sChIJxZL0aKy7cjkRoLQy6P4Db0E?authuser=0&hl=en&rclk=1,"27.8092182,76.6686972"
Moti Masjid,Mosque,"Moti Masjid, Rani Nagal, Uttar Pradesh 244402",,,Rani Nagal,,Uttar Pradesh,IN,https://www.google.com/maps/place/Moti+Masjid/data=!4m7!3m6!1s0x390af7680a6fcd07:0xd87a1491bd9bd5ea!8m2!3d28.9299223!4d78.8594721!16s%2Fg%2F11fct17c63!19sChIJB81vCmj3CjkR6tWbvZEUetg?authuser=0&hl=en&rclk=1,"28.929922299999998,78.85947209999999"
JAMA MASJID TANDA,Mosque,"74FV+9H8 JAMA MASJID TANDA, Tanda, Nangal, Uttar Pradesh 250617",,74FV+9H8,"Tanda, Nangal",250617,Uttar Pradesh,IN,https://www.google.com/maps/place/JAMA+MASJID+TANDA/data=!4m7!3m6!1s0x390dcd7c815ec791:0x98a8ab0baaef46dd!8m2!3d29.2734026!4d77.1439572!16s%2Fg%2F11h71460dw!19sChIJkcdegXzNDTkR3UbvqgurqJg?authuser=0&hl=en&rclk=1,"29.273402599999997,77.1439572"
msjid,Mosque,"9PHF+R9F msjid, Nangal Todiyar, Rajasthan 321633",,9PHF+R9F,Nangal Todiyar,321633,Rajasthan,IN,https://www.google.com/maps/place/%E0%A4%AE%E0%A4%B8%E0%A5%8D%E0%A4%9C%E0%A4%BF%E0%A4%A6/data=!4m7!3m6!1s0x39728930debcb139:0xf61d9db41fba9587!8m2!3d27.3795556!4d76.7234342!16s%2Fg%2F11q8gz4m3d!19sChIJObG83jCJcjkRh5W6H7SdHfY?authuser=0&hl=en&rclk=1,"27.3795556,76.7234342"
Jungal mosque,Mosque,"V7F5+8H2 Jungal mosque, Unnamed Road, Singar, Haryana 122508",,"V7F5+8H2, Unnamed Road",Singar,122508,Haryana,IN,https://www.google.com/maps/place/Jungal+mosque/data=!4m7!3m6!1s0x3973263ebe8cb517:0xe2893b4f38c95dab!8m2!3d27.8732701!4d77.2588852!16s%2Fg%2F11c32l7f48!19sChIJF7WMvj4mczkRq13JOE87ieI?authuser=0&hl=en&rclk=1,"27.8732701,77.2588852"
Masjid,Mosque,"XMX5+MR8 Masjid, Unnamed Road, Nangli Saledisingh, Rajasthan 333514",,"XMX5+MR8, Unnamed Road",Nangli Saledisingh,333514,Rajasthan,IN,https://www.google.com/maps/place/Masjid/data=!4m7!3m6!1s0x39132ba0e7eda125:0xfc6eacb6874af07a!8m2!3d27.9991523!4d75.6595822!16s%2Fg%2F11ngjjd_hy!19sChIJJaHt56ArEzkRevBKh7asbvw?authuser=0&hl=en&rclk=1,"27.9991523,75.6595822"
Jama Masjid,Mosque,"5C92+H3H Jama Masjid, Palra, Uttar Pradesh 250622",,5C92+H3H,Palra,250622,Uttar Pradesh,IN,https://www.google.com/maps/place/Jama+Masjid/data=!4m7!3m6!1s0x390c47eaea83869d:0x477545739e3a6055!8m2!3d29.1689442!4d77.4002297!16s%2Fg%2F11hbsp1ygc!19sChIJnYaD6upHDDkRVWA6nnNFdUc?authuser=0&hl=en&rclk=1,"29.1689442,77.4002297"
Nangal Khanjadi Masjid,Mosque,"CV3X+6QV Nangal Khanjadi Masjid, Nangal Khanjadi, Jawli, Rajasthan 321607",Nangal Khanjadi,CV3X+6QV,Jawli,,Rajasthan,IN,https://www.google.com/maps/place/Nangal+Khanjadi+Masjid/data=!4m7!3m6!1s0x3972f30fe92fd719:0xa67004a1292391d4!8m2!3d27.4031148!4d76.8994367!16s%2Fg%2F11rn4ty8v9!19sChIJGdcv6Q_zcjkR1JEjKaEEcKY?authuser=0&hl=en&rclk=1,"27.403114799999997,76.8994367"
MASJID Haji Malkha ka baas Gulpara,Mosque,"MASJID Haji Malkha ka baas Gulpara, Kakrala, road, Gulpara, Rajasthan 321024",,"Kakrala, road",Gulpara,321024,Rajasthan,IN,https://www.google.com/maps/place/MASJID+Haji+Malkha+ka+baas+Gulpara/data=!4m7!3m6!1s0x3972e3d5af20e47d:0x4505d8de22ca253b!8m2!3d27.5344672!4d77.1338109!16s%2Fg%2F11q8g6bcfv!19sChIJfeQgr9XjcjkROyXKIt7YBUU?authuser=0&hl=en&rclk=1,"27.534467199999998,77.1338109"
Maryam MASJID Tanda,Mosque,"74CV+R5W Maryam MASJID Tanda, Tanda, Nangal, Uttar Pradesh 250617",,74CV+R5W,"Tanda, Nangal",250617,Uttar Pradesh,IN,https://www.google.com/maps/place/Maryam+MASJID+Tanda/data=!4m7!3m6!1s0x390dcd6f420276e3:0x108de9463ca45cf2!8m2!3d29.2721007!4d77.1429679!16s%2Fg%2F11fl8ny2wb!19sChIJ43YCQm_NDTkR8lykPEbpjRA?authuser=0&hl=en&rclk=1,"29.2721007,77.1429679"
Masjid e Nomi msjd,Mosque,"G5W5+FJW Masjid e Nomi msjd, Nangal, Rajasthan 321024",,G5W5+FJW,Nangal,,Rajasthan,IN,https://www.google.com/maps/place/Masjid+e+Nomi+%D9%85%D8%B3%D8%AC%D8%AF%E2%80%AD/data=!4m7!3m6!1s0x3972e345d5b2f4f9:0x8a4ccc80a50c35dd!8m2!3d27.5462475!4d77.1590635!16s%2Fg%2F11gl20xq73!19sChIJ-fSy1UXjcjkR3TUMpYDMTIo?authuser=0&hl=en&rclk=1,"27.5462475,77.1590635"
Noorani Masjid Bora,Mosque,"PFPW+MH7 Noorani Masjid Bora, Ratia Tehsil, Nangal, Haryana",,"PFPW+MH7, Ratia Tehsil",Nangal,,Haryana,IN,https://www.google.com/maps/place/Noorani+Masjid+Bora/data=!4m7!3m6!1s0x391113435c1da873:0xb6580cd575c04a78!8m2!3d29.736672!4d75.4964356!16s%2Fg%2F11g10lq8dk!19sChIJc6gdXEMTETkReErAddUMWLY?authuser=0&hl=en&rclk=1,"29.736672,75.4964356"
Nayi Masjid Tehatra,Mosque,"QMWG+2VJ Nayi Masjid Tehatra, Dadarhera, Rajasthan 301404",,QMWG+2VJ,Dadarhera,301404,Rajasthan,IN,https://www.google.com/maps/place/Nayi+Masjid+Tehatra/data=!4m7!3m6!1s0x3972bafca33a9edf:0x9b4987ca2fc711a6!8m2!3d27.7950873!4d76.6771336!16s%2Fg%2F11c31qnvyx!19sChIJ3546o_y6cjkRphHHL8qHSZs?authuser=0&hl=en&rclk=1,"27.7950873,76.67713359999999"
Chhoti purani Masjid Nangal Tappa,Mosque,"CQHJ+VXV Chhoti purani Masjid Nangal Tappa, Nangal Tappa, Rajasthan 301021",,CQHJ+VXV,Nangal Tappa,301021,Rajasthan,IN,https://www.google.com/maps/place/Chhoti+purani+Masjid+Nangal+Tappa/data=!4m7!3m6!1s0x39728d42d95ffbcb:0xd0341284722e9960!8m2!3d27.4297352!4d76.7824228!16s%2Fg%2F11q49ddb99!19sChIJy_tf2UKNcjkRYJkucoQSNNA?authuser=0&hl=en&rclk=1,"27.4297352,76.78242279999999"
Badi masjid,Mosque,"QQMW+X9W Badi masjid, Nangal Mohammadpur, Rajasthan 301405",,QQMW+X9W,Nangal Mohammadpur,,Rajasthan,IN,https://www.google.com/maps/place/Badi+masjid/data=!4m7!3m6!1s0x3972b9803a5a2977:0x2e0d252b8449137!8m2!3d27.7849783!4d76.7959567!16s%2Fg%2F11rcxbbg0q!19sChIJdylaOoC5cjkRN5FEuFLS4AI?authuser=0&hl=en&rclk=1,"27.7849783,76.79595669999999"
Chhoti Masjid Gangwaniya,Mosque,"V7W3+J8W Chhoti Masjid Gangwaniya, Nangal Sabha, Haryana 121106",,V7W3+J8W,Nangal Sabha,121106,Haryana,IN,https://www.google.com/maps/place/Chhoti+Masjid+Gangwaniya/data=!4m7!3m6!1s0x39732904b4a9f921:0x7f9785ac06092c0d!8m2!3d27.8966031!4d77.2533307!16s%2Fg%2F11nnnd4r2d!19sChIJIfmptAQpczkRDSwJBqyFl38?authuser=0&hl=en&rclk=1,"27.8966031,77.25333069999999"
Qureshiyan Masjid,Mosque,"Qureshiyan Masjid, HN.380 Upper Wali Gali, near Masjid Kureshiyan, Nangal Mubarikpur, Haryana 122108",,"HN.380 Upper Wali Gali, near Masjid Kureshiyan","Nangal Mubarikpur, Nawli",122108,Haryana,IN,https://www.google.com/maps/place/Qureshiyan+Masjid/data=!4m7!3m6!1s0x3972cf99e64ade29:0x9245e8911d55dca4!8m2!3d27.8885669!4d76.9603788!16s%2Fg%2F11h79xnj6g!19sChIJKd5K5pnPcjkRpNxVHZHoRZI?authuser=0&hl=en&rclk=1,"27.888566899999997,76.9603788"
Chhoti Masjid,Mosque,"GCV7+7J4 Chhoti Masjid, Nangal, Rajasthan 332722",,GCV7+7J4,Nangal,,Rajasthan,IN,https://www.google.com/maps/place/Chhoti+Masjid/data=!4m7!3m6!1s0x396cc1fda33fc741:0xecc14a16a254e5d!8m2!3d27.5431475!4d75.4140781!16s%2Fg%2F11g0j0hzvr!19sChIJQcc_o_3BbDkRXU4laqEUzA4?authuser=0&hl=en&rclk=1,"27.5431475,75.4140781"
Jama masjid,Mosque,"WVH5+CWP Jama masjid, Hafiza Rasheed Rd, Rani Nagal, Uttar Pradesh 244402",,"WVH5+CWP, Hafiza Rasheed Rd",Rani Nagal,244402,Uttar Pradesh,IN,https://www.google.com/maps/place/Jama+masjid/data=!4m7!3m6!1s0x390af710011ffc87:0x7b6655c4c15269c0!8m2!3d28.9285853!4d78.8598387!16s%2Fg%2F11jhwv2cq9!19sChIJh_wfARD3CjkRwGlSwcRVZns?authuser=0&hl=en&rclk=1,"28.928585299999998,78.8598387"
Adda Wali Masjid (dd wly msjd ),Mosque,"R3P4+PMW Adda Wali Masjid (dd wly msjd ), Tigaon, Mahoon, Haryana 121101",,R3P4+PMW,"Tigaon, Mahoon",121101,Haryana,IN,https://www.google.com/maps/place/Adda+Wali+Masjid+%28%D8%A7%DA%88%D8%A7+%D9%88%D9%84%DB%8C+%D9%85%D8%B3%D8%AC%D8%AF+%29%E2%80%AD/data=!4m7!3m6!1s0x3972dbcc971218e9:0x1235579a127b827c!8m2!3d27.83687!4d77.056705!16s%2Fg%2F11nmjybh5q!19sChIJ6RgSl8zbcjkRfIJ7EppXNRI?authuser=0&hl=en&rclk=1,"27.836869999999998,77.056705"
BILAL MASJID,Mosque,"RJQG+9J2 BILAL MASJID, Pandoli, Road, Nangal, Uttar Pradesh 247551",,"RJQG+9J2, Pandoli, Road",Nangal,247551,Uttar Pradesh,IN,https://www.google.com/maps/place/BILAL+MASJID/data=!4m7!3m6!1s0x390ebd35d5b4745f:0x6db17287aaa7c926!8m2!3d29.8383897!4d77.6265239!16s%2Fg%2F11j0tl8pbp!19sChIJX3S01TW9DjkRJsmnqodysW0?authuser=0&hl=en&rclk=1,"29.838389699999997,77.6265239"
Madrasa Nangal sherpur,Mosque,"QVXC+6WQ Madrasa Nangal sherpur, Nangal Sherpur, Rajasthan 322238",,QVXC+6WQ,Nangal Sherpur,,Rajasthan,IN,https://www.google.com/maps/place/Madrasa+Nangal+sherpur/data=!4m7!3m6!1s0x39723d5c2bf3398f:0x20e2c849fe220e84!8m2!3d26.7980904!4d76.8723487!16s%2Fg%2F11mtd92pgv!19sChIJjznzK1w9cjkRhA4i_knI4iA?authuser=0&hl=en&rclk=1,"26.7980904,76.8723487"
Masjid,Mosque,"W42H+8J3 Masjid, Nangal Kalan, Sector 59, Sonipat, Haryana 131023","Nangal Kalan, Sector 59",W42H+8J3,Sonipat,131023,Haryana,IN,https://www.google.com/maps/place/Masjid/data=!4m7!3m6!1s0x390daddb5603ec5f:0x32d21e68c90fe9a6!8m2!3d28.900767!4d77.1290432!16s%2Fg%2F11qpqk2q8f!19sChIJX-wDVtutDTkRpukPyWge0jI?authuser=0&hl=en&rclk=1,"28.900767,77.1290432"
Masjid,Mosque,"X2GW+PWC Masjid, Nangal Shahpur, Haryana 122108",,X2GW+PWC,Nangal Shahpur,122108,Haryana,IN,https://www.google.com/maps/place/Masjid/data=!4m7!3m6!1s0x3972d382a0c269ab:0x96296a0c3069ac00!8m2!3d27.9768003!4d77.0472811!16s%2Fg%2F11qylm08nf!19sChIJq2nCoILTcjkRAKxpMAxqKZY?authuser=0&hl=en&rclk=1,"27.976800299999997,77.04728109999999"
Masjid rasoolpur 2,Mosque,"G4RX+7P4 Masjid rasoolpur 2, Unnamed Road, Nangal, Rajasthan 321024",,"G4RX+7P4, Unnamed Road",Nangal,321024,Rajasthan,IN,https://www.google.com/maps/place/Masjid+rasoolpur+2/data=!4m7!3m6!1s0x3972e3b4b4fa691b:0x3bcead39cca7cb27!8m2!3d27.5406415!4d77.1493405!16s%2Fg%2F11fphch72x!19sChIJG2n6tLTjcjkRJ8unzDmtzjs?authuser=0&hl=en&rclk=1,"27.5406415,77.1493405"
Masjid,Mosque,"FH6P+C2 Masjid, Nangal Ratawat, Rajasthan 301001",,FH6P+C2,Nangal Ratawat,,Rajasthan,IN,https://www.google.com/maps/place/Masjid/data=!4m7!3m6!1s0x39729b89c90e227b:0x9a65eddbb6fdf6e9!8m2!3d27.4611247!4d76.5850037!16s%2Fg%2F11ptwkyh2n!19sChIJeyIOyYmbcjkR6fb9ttvtZZo?authuser=0&hl=en&rclk=1,"27.4611247,76.5850037"
Patwari wali masjid,Mosque,"WX3C+J9W Patwari wali masjid, Unnamed Road, Santhawari, Nangal Mubarikpur, Haryana 122108",,"WX3C+J9W, Unnamed Road","Santhawari, Nangal Mubarikpur",122108,Haryana,IN,https://www.google.com/maps/place/Patwari+wali+masjid/data=!4m7!3m6!1s0x3972cf74fd0b2a83:0xa30f822dfd2b8a30!8m2!3d27.904119!4d76.970948!16s%2Fg%2F11qmmz9j34!19sChIJgyoL_XTPcjkRMIor_S2CD6M?authuser=0&hl=en&rclk=1,"27.904118999999998,76.97094799999999"
Badi Masjid Nagal Teppa,Mosque,"CQHJ+9CC Badi Masjid Nagal Teppa, Dwarkpur, Rajasthan 301021",,CQHJ+9CC,Dwarkpur,301021,Rajasthan,IN,https://www.google.com/maps/place/Badi+Masjid+Nagal+Teppa/data=!4m7!3m6!1s0x39728ded35897625:0x5e9f108756c7669a!8m2!3d27.4284473!4d76.7810215!16s%2Fg%2F11swgj2rc9!19sChIJJXaJNe2NcjkRmmbHVocQn14?authuser=0&hl=en&rclk=1,"27.4284473,76.7810215"
Jarakka masjid,Mosque,"GVJR+WWQ Jarakka masjid, Unnamed Road, Ladiyaka, Rajasthan 301021",,"GVJR+WWQ, Unnamed Road",Ladiyaka,301021,Rajasthan,IN,https://www.google.com/maps/place/Jarakka+masjid/data=!4m7!3m6!1s0x3972edabf93f2c0d:0xcdb58775defaff79!8m2!3d27.5323471!4d76.8923678!16s%2Fg%2F11htq4zssy!19sChIJDSw_-avtcjkRef_63nWHtc0?authuser=0&hl=en&rclk=1,"27.5323471,76.8923678"
Mohammadi masjid,Mosque,"W9CR+V73 Mohammadi masjid, Unnamed Road, Nangal Kalan, Punjab 151505",,"W9CR+V73, Unnamed Road",Nangal Kalan,151505,Punjab,IN,https://www.google.com/maps/place/Mohammadi+masjid/data=!4m7!3m6!1s0x3911194432db02a5:0xe6ceb325833875d9!8m2!3d29.922149!4d75.390681!16s%2Fg%2F11spn3r2zm!19sChIJpQLbMkQZETkR2XU4gyWzzuY?authuser=0&hl=en&rclk=1,"29.922148999999997,75.390681"
Masjid Adda Wali Kot msjid addddaa vaalii kott msjd dd wly khwtt,Mosque,"X67M+J3C Masjid Adda Wali Kot msjid addddaa vaalii kott msjd dd wly khwtt, Kot, Haryana 121103",,X67M+J3C,Kot,121103,Haryana,IN,https://www.google.com/maps/place/Masjid+Adda+Wali+Kot+%E0%A4%AE%E0%A4%B8%E0%A5%8D%E0%A4%9C%E0%A4%BF%E0%A4%A6+%E0%A4%85%E0%A4%A1%E0%A5%8D%E0%A4%A1%E0%A4%BE+%E0%A4%B5%E0%A4%BE%E0%A4%B2%E0%A5%80+%E0%A4%95%E0%A5%8B%E0%A4%9F+%D9%85%D8%B3%D8%AC%D8%AF+%D8%A7%DA%88%D8%A7+%D9%88%D8%A7%D9%84%DB%8C+%DA%A9%D9%88%D9%B9%E2%80%AD/data=!4m7!3m6!1s0x397329dc8fa5230f:0x8c263e647d78026c!8m2!3d27.9640568!4d77.2326485!16s%2Fg%2F11s6hzy4lm!19sChIJDyOlj9wpczkRbAJ4fWQ-Jow?authuser=0&hl=en&rclk=1,"27.964056799999998,77.2326485"
kcrottii msjid,Mosque,"GX5C+5Q8 kcrottii msjid, RJ SH 45, Teekri, Rajasthan 301604",,"GX5C+5Q8, RJ SH 45",Teekri,301604,Rajasthan,IN,https://www.google.com/maps/place/%E0%A4%95%E0%A4%9A%E0%A4%B0%E0%A5%8B%E0%A4%9F%E0%A5%80+%E0%A4%AE%E0%A4%B8%E0%A5%8D%E0%A4%9C%E0%A4%BF%E0%A4%A6/data=!4m7!3m6!1s0x3972ef3520d7ab1f:0x54b32f6e1ebcdab4!8m2!3d27.5079039!4d76.9719443!16s%2Fg%2F11q7kylqv1!19sChIJH6vXIDXvcjkRtNq8Hm4vs1Q?authuser=0&hl=en&rclk=1,"27.5079039,76.97194429999999"
Mohammadi masjid,Mosque,"W9QG+V9M Mohammadi masjid, Nangal Khurd, Punjab 151505",,W9QG+V9M,Nangal Khurd,151505,Punjab,IN,https://www.google.com/maps/place/Mohammadi+masjid/data=!4m7!3m6!1s0x3911199e1b0d3f37:0x39be8ed38ebe6ab0!8m2!3d29.9393567!4d75.3772043!16s%2Fg%2F11rq12st43!19sChIJNz8NG54ZETkRsGq-jtOOvjk?authuser=0&hl=en&rclk=1,"29.939356699999998,75.3772043"
Purani masjid jarakka,Mosque,"GVMR+959 Purani masjid jarakka, Jarakka, Alwar, Ladiyaka, Rajasthan 301021",,"GVMR+959, Jarakka","Alwar, Ladiyaka",,Rajasthan,IN,https://www.google.com/maps/place/Purani+masjid+jarakka/data=!4m7!3m6!1s0x3972ed5323db659d:0x604184f4bc862d6!8m2!3d27.5334111!4d76.8904745!16s%2Fg%2F11k_wcbj8l!19sChIJnWXbI1PtcjkR1mLIS08YBAY?authuser=0&hl=en&rclk=1,"27.5334111,76.8904745"
Jama Masjid,Mosque,"567X+9R9 Jama Masjid, Barwala, Uttar Pradesh 250621",,567X+9R9,Barwala,,Uttar Pradesh,IN,https://www.google.com/maps/place/Jama+Masjid/data=!4m7!3m6!1s0x390c4be24ad7b21f:0xee3bba053fd00814!8m2!3d29.1634157!4d77.2495998!16s%2Fg%2F11s5vj983c!19sChIJH7LXSuJLDDkRFAjQPwW6O-4?authuser=0&hl=en&rclk=1,"29.163415699999998,77.2495998"
Masjid Basheer,Mosque,"R94J+VC2 Masjid Basheer, Harchowal Rd, Nangal Bagbana, Punjab 143516",,"R94J+VC2, Harchowal Rd",Nangal Bagbana,143516,Punjab,IN,https://www.google.com/maps/place/Masjid+Basheer/data=!4m7!3m6!1s0x391bbf5ddc511e85:0x569aa6315b641a26!8m2!3d31.8072042!4d75.3808947!16s%2Fg%2F11twdm3n9n!19sChIJhR5R3F2_GzkRJhpkWzGmmlY?authuser=0&hl=en&rclk=1,"31.807204199999997,75.3808947"
Jamia Masjid Nangal,Mosque,"GFGQ+738 Jamia Masjid Nangal, Road, Nangal, Sialkot, Punjab, Pakistan",Nangal,"GFGQ+738, Road",Sialkot,,"Sialkot, Punjab",PK,https://www.google.com/maps/place/Jamia+Masjid+Nangal/data=!4m7!3m6!1s0x391ee9cee86399c7:0xd85ddd6c27ac720c!8m2!3d32.5256525!4d74.4877064!16s%2Fg%2F11jmxhpkrf!19sChIJx5lj6M7pHjkRDHKsJ2zdXdg?authuser=0&hl=en&rclk=1,"32.5256525,74.4877064"
Masjid Nangal Mirza Pasrur,Mosque,"Masjid Nangal Mirza Pasrur, astnh `lyh drbr `lyh mHmd jy thny lmtwkhl nngl rHmn shryf, Dulamwala Road, Pasrur, Pakistan",,"astnh `lyh drbr `lyh mHmd jy thny lmtwkhl nngl rHmn shryf, Dulamwala Road",Pasrur,,"Sialkot, Punjab",PK,https://www.google.com/maps/place/Masjid+Nangal+Mirza+Pasrur/data=!4m7!3m6!1s0x391eb726a3acf0e9:0xe7002738328559dc!8m2!3d32.2646556!4d74.6397443!16s%2Fg%2F11p027r6_8!19sChIJ6fCsoya3HjkR3FmFMjgnAOc?authuser=0&hl=en&rclk=1,"32.2646556,74.63974429999999"
Jamia Masjid Bilal Salamat Pura Nangal,Mosque,"Jamia Masjid Bilal Salamat Pura Nangal, Salamat pura, Malke Khurd, Nangal, Sialkot, Punjab, Pakistan",Malke Khurd,Salamat pura,Nangal,,"Sialkot, Punjab",PK,https://www.google.com/maps/place/Jamia+Masjid+Bilal+Salamat+Pura+Nangal/data=!4m7!3m6!1s0x391ee9446ee04c59:0xe2cd7330f22759e2!8m2!3d32.523417!4d74.489778!16s%2Fg%2F11lrkdwp58!19sChIJWUzgbkTpHjkR4lkn8jBzzeI?authuser=0&hl=en&rclk=1,"32.523417,74.489778"
Masjid Nangal kasa,Mosque,"RM76+2JV Masjid Nangal kasa, Rajasthan 301404",,RM76+2JV,,301404,Rajasthan,IN,https://www.google.com/maps/place/Masjid+Nangal+kasa/data=!4m7!3m6!1s0x3972bb9ea4b7a07d:0x6441e34d3b050f71!8m2!3d27.8126081!4d76.6615467!16s%2Fg%2F11rrppxvzw!19sChIJfaC3pJ67cjkRcQ8FO03jQWQ?authuser=0&hl=en&rclk=1,"27.8126081,76.6615467"
Badi Masjid,Mosque,"V7X3+3F3 Badi Masjid, Nangal Sabha, Haryana 121106",,V7X3+3F3,Nangal Sabha,,Haryana,IN,https://www.google.com/maps/place/Badi+Masjid/data=!4m7!3m6!1s0x3973295649b54551:0xf92a26dd7df2cdca!8m2!3d27.8976491!4d77.25366!16s%2Fg%2F11t8h07tcz!19sChIJUUW1SVYpczkRys3yfd0mKvk?authuser=0&hl=en&rclk=1,"27.8976491,77.25366"
"Makka Masjid _ Nangal Moujiya Rahmat Ka Bas Juber Khan ,, mkkaa msjid naaNgl maujiyaa rhmt kaa baas | juber khaan || AshifKhanSinghal",Mosque,"RM59+2JG Makka Masjid _ Nangal Moujiya Rahmat Ka Bas Juber Khan ,, mkkaa msjid naaNgl maujiyaa rhmt kaa baas | juber khaan || AshifKhanSinghal, Nangal Mouzia, Rajasthan 301404",,RM59+2JG,Nangal Mouzia,,Rajasthan,IN,"https://www.google.com/maps/place/Makka+Masjid+_+Nangal+Moujiya+Rahmat+Ka+Bas+Juber+Khan+,,+%E0%A4%AE%E0%A4%95%E0%A5%8D%E0%A4%95%E0%A4%BE+%E0%A4%AE%E0%A4%B8%E0%A5%8D%E0%A4%9C%E0%A4%BF%E0%A4%A6+%E0%A4%A8%E0%A4%BE%E0%A4%82%E0%A4%97%E0%A4%B2+%E0%A4%AE%E0%A5%8C%E0%A4%9C%E0%A4%BF%E0%A4%AF%E0%A4%BE+%E0%A4%B0%E0%A4%B9%E0%A4%AE%E0%A4%A4+%E0%A4%95%E0%A4%BE+%E0%A4%AC%E0%A4%BE%E0%A4%B8+%7C+%E0%A4%9C%E0%A5%81%E0%A4%AC%E0%A5%87%E0%A4%B0+%E0%A4%96%E0%A4%BE%E0%A4%A8+%7C%7C+AshifKhanSinghal/data=!4m7!3m6!1s0x3972bb95e0e823bb:0x247faeb9cd1998ad!8m2!3d27.8075556!4d76.6690648!16s%2Fg%2F11js84_4d0!19sChIJuyPo4JW7cjkRrZgZzbmufyQ?authuser=0&hl=en&rclk=1","27.807555599999997,76.6690648"
Masjid nangal nangli,Mosque,"JQVX+H33 Masjid nangal nangli, Khoh, Rajasthan 301025",,JQVX+H33,Khoh,,Rajasthan,IN,https://www.google.com/maps/place/Masjid+nangal+nangli/data=!4m7!3m6!1s0x397295b50891d527:0xcd7feb668fbf4250!8m2!3d27.6438842!4d76.7976732!16s%2Fg%2F11tkb2_r0y!19sChIJJ9WRCLWVcjkRUEK_j2brf80?authuser=0&hl=en&rclk=1,"27.6438842,76.79767319999999"
Hameed masjid / hmiid msjid,Mosque,"G4WR+366 Hameed masjid / hmiid msjid, Nangal, Rajasthan 321024",,G4WR+366,Nangal,,Rajasthan,IN,https://www.google.com/maps/place/Hameed+masjid+%2F+%E0%A4%B9%E0%A4%AE%E0%A5%80%E0%A4%A6+%E0%A4%AE%E0%A4%B8%E0%A5%8D%E0%A4%9C%E0%A4%BF%E0%A4%A6/data=!4m7!3m6!1s0x3972e3ff4c2c60cf:0xd26048a66fa6dd60!8m2!3d27.5451677!4d77.14051!16s%2Fg%2F11t9v32c6v!19sChIJz2AsTP_jcjkRYN2mb6ZIYNI?authuser=0&hl=en&rclk=1,"27.5451677,77.14050999999999"
"Haji Samsu Masjid, Nangal Ratawat",Mosque,"FHCG+QV Haji Samsu Masjid, Nangal Ratawat, Machri, Rajasthan 301001",,FHCG+QV,Machri,301001,Rajasthan,IN,"https://www.google.com/maps/place/Haji+Samsu+Masjid,+Nangal+Ratawat/data=!4m7!3m6!1s0x39729b5f35e48d9f:0x2e368088cee2dec7!8m2!3d27.4719522!4d76.5771706!16s%2Fg%2F11rmy6bqbr!19sChIJn43kNV-bcjkRx97izoiANi4?authuser=0&hl=en&rclk=1","27.4719522,76.5771706"
Masjid Bhagmal Ki Baithak,Mosque,"G5PF+V7R Masjid Bhagmal Ki Baithak, Nangal, Rajasthan 321024",,G5PF+V7R,Nangal,321024,Rajasthan,IN,https://www.google.com/maps/place/Masjid+Bhagmal+Ki+Baithak/data=!4m7!3m6!1s0x3972e39e6493aac7:0xfdb4681cf2d22072!8m2!3d27.5372443!4d77.173134!16s%2Fg%2F11s8hwqdkn!19sChIJx6qTZJ7jcjkRciDS8hxotP0?authuser=0&hl=en&rclk=1,"27.537244299999998,77.17313399999999"
Fatehpuri Masjid,Mosque,"VXP6+PHR Fatehpuri Masjid, Nangal Mubarikpur, Nawli, Haryana 122108",,VXP6+PHR,"Nangal Mubarikpur, Nawli",122108,Haryana,IN,https://www.google.com/maps/place/Fatehpuri+Masjid/data=!4m7!3m6!1s0x3972cfe0554a8023:0x70ff4b51e2aaf87e!8m2!3d27.8868579!4d76.9613908!16s%2Fg%2F11s5gx0r07!19sChIJI4BKVeDPcjkRfviq4lFL_3A?authuser=0&hl=en&rclk=1,"27.8868579,76.96139079999999"
"Masjid, Kale Khan Ka Baas, Nangal Ratawat",Mosque,"FH2M+RX Masjid, Kale Khan Ka Baas, Nangal Ratawat, Jatoli, Rajasthan 301001",,FH2M+RX,Jatoli,,Rajasthan,IN,"https://www.google.com/maps/place/Masjid,+Kale+Khan+Ka+Baas,+Nangal+Ratawat/data=!4m7!3m6!1s0x397285633349b43b:0x1849793e9bcfacd9!8m2!3d27.4520782!4d76.5849194!16s%2Fg%2F11ptwl4ztz!19sChIJO7RJM2OFcjkR2azPmz55SRg?authuser=0&hl=en&rclk=1","27.4520782,76.58491939999999"
Baas Ki masjid,Mosque,"QQPV+558 Baas Ki masjid, Deendar khan nangal, Moosa Khera, Rajasthan 301405",,"QQPV+558, Deendar khan nangal",Moosa Khera,301405,Rajasthan,IN,https://www.google.com/maps/place/Baas+Ki+masjid/data=!4m7!3m6!1s0x3972b9041fcb5b85:0x21a62ece070c2709!8m2!3d27.7854153!4d76.7929392!16s%2Fg%2F11pw7scrn6!19sChIJhVvLHwS5cjkRCScMB84upiE?authuser=0&hl=en&rclk=1,"27.7854153,76.79293919999999"
Muneer Masjid,Mosque,"VXV8+2X2 Muneer Masjid, Nangal Sabat, Nawli, Haryana 122108",,VXV8+2X2,"Nangal Sabat, Nawli",122108,Haryana,IN,https://www.google.com/maps/place/Muneer+Masjid/data=!4m7!3m6!1s0x3972cf2587435d5f:0x52624dc9bf373131!8m2!3d27.8925142!4d76.9673982!16s%2Fg%2F11n6756zt_!19sChIJX11DhyXPcjkRMTE3v8lNYlI?authuser=0&hl=en&rclk=1,"27.892514199999997,76.96739819999999"
Masjid Hasampur gaon,Mosque,"Q26C+9W4 Masjid Hasampur gaon, Chakkola Ki Nangal, Rajasthan 332718",,Q26C+9W4,Chakkola Ki Nangal,332718,Rajasthan,IN,https://www.google.com/maps/place/Masjid+Hasampur+gaon/data=!4m7!3m6!1s0x396d3968c692ba85:0x5029e04b55166bf1!8m2!3d27.7608967!4d76.0223299!16s%2Fg%2F11tmsmlvd2!19sChIJhbqSxmg5bTkR8WsWVUvgKVA?authuser=0&hl=en&rclk=1,"27.7608967,76.0223299"
Masjid Son Baras,Mosque,"75C2+CP4 Masjid Son Baras, Tanda - Ramala Rd, Kirthal, Nangal, Uttar Pradesh 250617",,"75C2+CP4, Tanda - Ramala Rd","Kirthal, Nangal",,Uttar Pradesh,IN,https://www.google.com/maps/place/Masjid+Son+Baras/data=!4m7!3m6!1s0x390dcd8e47923fbf:0x4458d5bc4b3b655d!8m2!3d29.2710151!4d77.151832!16s%2Fg%2F11h76kt89p!19sChIJvz-SR47NDTkRXWU7S7zVWEQ?authuser=0&hl=en&rclk=1,"29.2710151,77.151832"
MAHELLA FAKRUDDIN ALI KHAN TANDA KHAN CHOK,Mosque,"74FW+G3H MAHELLA FAKRUDDIN ALI KHAN TANDA KHAN CHOK, Tanda, Nangal, Uttar Pradesh 250617",,74FW+G3H,"Tanda, Nangal",,Uttar Pradesh,IN,https://www.google.com/maps/place/MAHELLA+FAKRUDDIN+ALI+KHAN+TANDA+KHAN+CHOK/data=!4m7!3m6!1s0x390dcde0b3fffc6d:0xd280f6ea1fb682f4!8m2!3d29.2738211!4d77.1452318!16s%2Fg%2F11s42v2_48!19sChIJbfz_s-DNDTkR9IK2H-r2gNI?authuser=0&hl=en&rclk=1,"29.2738211,77.14523179999999"
Purani Masjid,Mosque,"R5V7+HP9 Purani Masjid, Tundlaka, Haryana 122508",,R5V7+HP9,Tundlaka,122508,Haryana,IN,https://www.google.com/maps/place/Purani+Masjid/data=!4m7!3m6!1s0x3972d96a6f4534a9:0x56a2f2ac25f5cb81!8m2!3d27.843902!4d77.1643464!16s%2Fg%2F11jfvvxt0z!19sChIJqTRFb2rZcjkRgcv1JazyolY?authuser=0&hl=en&rclk=1,"27.843902,77.1643464"
Idrisia masjid,Mosque,"RJRJ+WP6 Idrisia masjid, Nangal, Uttar Pradesh 247551",,RJRJ+WP6,Nangal,247551,Uttar Pradesh,IN,https://www.google.com/maps/place/Idrisia+masjid/data=!4m7!3m6!1s0x390ebd4837330a1b:0xf4d047e14961c37e!8m2!3d29.8422885!4d77.6317505!16s%2Fg%2F11vkdp592n!19sChIJGwozN0i9DjkRfsNhSeFH0PQ?authuser=0&hl=en&rclk=1,"29.8422885,77.6317505"
Madina masjid,Mosque,"PP6P+W26 Madina masjid, Nangal Khurd, Punjab 141108",,PP6P+W26,Nangal Khurd,141108,Punjab,IN,https://www.google.com/maps/place/Madina+masjid/data=!4m7!3m6!1s0x39107d538833c785:0x3536fd2e73a60d3c!8m2!3d30.7122833!4d75.7350261!16s%2Fg%2F11j7j4tc6g!19sChIJhccziFN9EDkRPA2mcy79NjU?authuser=0&hl=en&rclk=1,"30.7122833,75.7350261"
Nangal,,"Nangal, Nangal Village, Delhi Cantonment, New Delhi, Delhi 110010","Nangal, Nangal Village, Delhi Cantonment",,New Delhi,,Delhi,IN,https://www.google.com/maps/place/Nangal/data=!4m7!3m6!1s0x390d1cb18d8d92b7:0x639cd50b22b8f0e2!8m2!3d28.6070819!4d77.1147176!16s%2Fg%2F1tz6_sl1!19sChIJt5KNjbEcDTkR4vC4IgvVnGM?authuser=0&hl=en&rclk=1,"28.607081899999997,77.11471759999999"
Madina masjid Dada ka bass peeproli,Mosque,"HQ5G+664 Madina masjid Dada ka bass peeproli, Peeproli, Rajasthan 301026",,HQ5G+664,Peeproli,301026,Rajasthan,IN,https://www.google.com/maps/place/Madina+masjid+Dada+ka+bass+peeproli/data=!4m7!3m6!1s0x397293e0d07a8bc5:0x3dabae59ec6b3076!8m2!3d27.5580121!4d76.7755917!16s%2Fg%2F11jkq9qs8g!19sChIJxYt60OCTcjkRdjBr7Fmuqz0?authuser=0&hl=en&rclk=1,"27.5580121,76.77559169999999"
Saheli masjid tanda,Place of worship,"74GV+3XJ Saheli masjid tanda, Tanda, Nangal, Uttar Pradesh 250617",,74GV+3XJ,"Tanda, Nangal",250617,Uttar Pradesh,IN,https://www.google.com/maps/place/Saheli+masjid+tanda/data=!4m7!3m6!1s0x390dcd001ec86371:0xb4a06c7631c71d85!8m2!3d29.2752084!4d77.1449004!16s%2Fg%2F11vm0zx83w!19sChIJcWPIHgDNDTkRhR3HMXZsoLQ?authuser=0&hl=en&rclk=1,"29.2752084,77.1449004"
Masjid,Mosque,"W4X5+C3X Masjid, Bazidpur, Haryana 122508",,W4X5+C3X,Bazidpur,,Haryana,IN,https://www.google.com/maps/place/Masjid/data=!4m7!3m6!1s0x3972d78636d1a3c5:0xee4f8d1680829d38!8m2!3d27.9486005!4d77.1077437!16s%2Fg%2F11k02z3y7b!19sChIJxaPRNobXcjkROJ2CgBaNT-4?authuser=0&hl=en&rclk=1,"27.948600499999998,77.1077437"
Masjid shahabuddin nangal msjd,Mosque,"JQRG+QXQ Masjid shahabuddin nangal msjd, Shahabudin, Punjab 144210",,JQRG+QXQ,Shahabudin,144210,Punjab,IN,https://www.google.com/maps/place/Masjid+shahabuddin+nangal+%D9%85%D8%B3%D8%AC%D8%AF%E2%80%AD/data=!4m7!3m6!1s0x391b01c09aa2356d:0xc92739233fef9eee!8m2!3d31.6418226!4d75.7777781!16s%2Fg%2F11rdl_zvkl!19sChIJbTWimsABGzkR7p7vPyM5J8k?authuser=0&hl=en&rclk=1,"31.641822599999998,75.77777809999999"
Shakib Home,Housing society,"Shakib Home, HN.380, Upper Wali Gali, near Masjid Kureshiyan, Nangal Mubarikpur, Nawli, Haryana 122108",,"HN.380, Upper Wali Gali, near Masjid Kureshiyan","Nangal Mubarikpur, Nawli",122108,Haryana,IN,https://www.google.com/maps/place/Shakib+Home/data=!4m7!3m6!1s0x3972cfac043dd197:0x62de6ac7b3584000!8m2!3d27.888498!4d76.960429!16s%2Fg%2F11sshn9989!19sChIJl9E9BKzPcjkRAEBYs8dq3mI?authuser=0&hl=en&rclk=1,"27.888498,76.96042899999999"
Jama masjid sadharansir,Mosque,"Jama masjid sadharansir, Jama masjid sadharansir nagal Saharanpur Main road sadharan sir, se, Nangal, Saharanpur, Uttar Pradesh 247551",,"Jama masjid sadharansir nagal Saharanpur Main road sadharan sir, se","Nangal, Saharanpur",247551,Uttar Pradesh,IN,https://www.google.com/maps/place/Jama+masjid+sadharansir/data=!4m7!3m6!1s0x390ebd4fa3e87ecf:0x1f3121c9d9bd7a6c!8m2!3d29.8273924!4d77.6380583!16s%2Fg%2F11vdq88z5z!19sChIJz37oo0-9DjkRbHq92ckhMR8?authuser=0&hl=en&rclk=1,"29.827392399999997,77.6380583"
Makka masjid (haji ruda),Mosque,"VXR7+3PJ Makka masjid (haji ruda), Nawli, Haryana 122108",,VXR7+3PJ,Nawli,,Haryana,IN,https://www.google.com/maps/place/Makka+masjid+%28haji+ruda%29/data=!4m7!3m6!1s0x3972cf09ef9df867:0xdcb6321623e6891c!8m2!3d27.8902055!4d76.964257!16s%2Fg%2F11rn0phbqs!19sChIJZ_id7wnPcjkRHInmIxYyttw?authuser=0&hl=en&rclk=1,"27.8902055,76.964257"
Nangal,,"Nangal, Haryana 123034",,,Nangal,,Haryana,IN,https://www.google.com/maps/place/Nangal/data=!4m7!3m6!1s0x3912a33421df48f1:0xb448668210bd6007!8m2!3d28.2832805!4d76.2761515!16s%2Fg%2F1232wrrqw!19sChIJ8UjfITSjEjkRB2C9EIJmSLQ?authuser=0&hl=en&rclk=1,"28.2832805,76.2761515"
Nangal,,"Nangal, Haryana 123034",,,Nangal,,Haryana,IN,https://www.google.com/maps/place/Nangal/data=!4m7!3m6!1s0x3912a49fb89c9fc5:0xe49431da17288b69!8m2!3d28.2552!4d76.3029374!16s%2Fg%2F12hnlv864!19sChIJxZ-cuJ-kEjkRaYsoF9oxlOQ?authuser=0&hl=en&rclk=1,"28.2552,76.30293739999999"
Nangal,,"Nangal, Rajasthan 301411",,,Nangal,,Rajasthan,IN,https://www.google.com/maps/place/Nangal/data=!4m7!3m6!1s0x3972cbf762c5fad3:0xcf0ec4bf80614607!8m2!3d27.9639635!4d76.9138873!16s%2Fg%2F12hmyxqt7!19sChIJ0_rFYvfLcjkRB0ZhgL_EDs8?authuser=0&hl=en&rclk=1,"27.9639635,76.9138873"
Nangal,,"Nangal, Haryana 123021",,,Nangal,,Haryana,IN,https://www.google.com/maps/place/Nangal/data=!4m7!3m6!1s0x3912ae1d44f99ea1:0x980a721e6c05f1c4!8m2!3d28.0898384!4d76.2592161!16s%2Fg%2F12hlxv1h_!19sChIJoZ75RB2uEjkRxPEFbB5yCpg?authuser=0&hl=en&rclk=1,"28.089838399999998,76.2592161"
Nangal,,"Nangal, Rajasthan",,,Nangal,,Rajasthan,IN,https://www.google.com/maps/place/Nangal/data=!4m7!3m6!1s0x3972db429042b073:0x2e2fa7a59657b97a!8m2!3d27.7950017!4d77.02766!16s%2Fg%2F12hmp6__t!19sChIJc7BCkELbcjkRerlXlqWnLy4?authuser=0&hl=en&rclk=1,"27.7950017,77.02766"
Nangal,,"Nangal, Haryana 127309",,,Nangal,,Haryana,IN,https://www.google.com/maps/place/Nangal/data=!4m7!3m6!1s0x39126240095e6749:0x74cbb145b7f1785a!8m2!3d28.7292118!4d76.2022817!16s%2Fg%2F11g_76vw0!19sChIJSWdeCUBiEjkRWnjxt0Wxy3Q?authuser=0&hl=en&rclk=1,"28.729211799999998,76.2022817"
Nangal,,"Nangal, Rajasthan 321024",,,Nangal,,Rajasthan,IN,https://www.google.com/maps/place/Nangal/data=!4m7!3m6!1s0x3972e2eb8080860b:0xe34a9bc613109ef1!8m2!3d27.544974!4d77.1571443!16s%2Fg%2F12jm3wnh6!19sChIJC4aAgOvicjkR8Z4QE8abSuM?authuser=0&hl=en&rclk=1,"27.544974,77.1571443"
Masjid Muhammadiya Hanfi Brailvi Nangal,Mosque,"GFHP+9WX Masjid Muhammadiya Hanfi Brailvi Nangal, Nangal, Sialkot, Punjab, Pakistan",Nangal,GFHP+9WX,Sialkot,,"Sialkot, Punjab",PK,https://www.google.com/maps/place/Masjid+Muhammadiya+Hanfi+Brailvi+Nangal/data=!4m7!3m6!1s0x391ee9198918aa15:0xf69afb08a7bb2481!8m2!3d32.5284894!4d74.4873501!16s%2Fg%2F11r3l223jm!19sChIJFaoYiRnpHjkRgSS7pwj7mvY?authuser=0&hl=en&rclk=1,"32.5284894,74.4873501"
