name,main_category,address,address_ward,address_street,address_city,address_postal_code,address_state,address_country_code,link,coordinates
Masjid Mubarak Ahmadiyya muslim jamaath,Mosque,"Masjid Mubarak Ahmadiyya muslim jamaath, Kochalumood Jn. Puthiyakavu Kattil Kadavu Road Adinadu South Kattil kadavu, Po, Karunagappalli, Kerala 690542",,"Kochalumood Jn. Puthiyakavu Kattil Kadavu Road Adinadu South Kattil kadavu, Po","Karunagappalli, Adinad",690542,Kerala,IN,https://www.google.com/maps/place/Masjid+Mubarak+Ahmadiyya+muslim+jamaath/data=!4m7!3m6!1s0x3b060308d6f4e587:0x63970677b5e68dd9!8m2!3d9.0753074!4d76.516838!16s%2Fg%2F11cssq6_lx!19sChIJh-X01ggDBjsR2Y3mtXcGl2M?authuser=0&hl=en&rclk=1,"9.0753074,76.51683799999999"
Athikkattukulangara Juma Masjid,Mosque,"5M88+F84 Athikkattukulangara Juma Masjid, Kayamkulam - Pathanapuram Rd, Athikkattukulangara, Nooranad, Kerala 690504",Athikkattukulangara,"5M88+F84, Kayamkulam - Pathanapuram Rd",Nooranad,690504,Kerala,IN,https://www.google.com/maps/place/Athikkattukulangara+Juma+Masjid/data=!4m7!3m6!1s0x3b06108c76be970d:0xb3b1c1307122758a!8m2!3d9.1661375!4d76.6658245!16s%2Fg%2F11ckqrvr_1!19sChIJDZe-dowQBjsRinUicTDBsbM?authuser=0&hl=en&rclk=1,"9.1661375,76.6658245"
Kanjippuzha Muslim Jama Ath,Mosque,"4HC7+3FG Kanjippuzha Muslim Jama Ath, Pallimukku Cheethazha Road, Vallikunnam, Kerala 690501",,"4HC7+3FG, Pallimukku Cheethazha Road",Vallikunnam,690501,Kerala,IN,https://www.google.com/maps/place/Kanjippuzha+Muslim+Jama+Ath/data=!4m7!3m6!1s0x3b061b4c29c589c5:0x68cc5415e5512891!8m2!3d9.1201801!4d76.5637006!16s%2Fg%2F1xgrlcl2!19sChIJxYnFKUwbBjsRkShR5RVUzGg?authuser=0&hl=en&rclk=1,"9.120180099999999,76.56370059999999"
Vavvakkavu Juma Masjid,Mosque,"4G2F+239 Vavvakkavu Juma Masjid, Vavvakkavu, Kulasekharapuram, Kerala 690546",,4G2F+239,"Vavvakkavu, Kulasekharapuram",690546,Kerala,IN,https://www.google.com/maps/place/Vavvakkavu+Juma+Masjid/data=!4m7!3m6!1s0x3b06033902bb6b83:0xd827722a68831251!8m2!3d9.1000416!4d76.5227247!16s%2Fg%2F1tc_72nh!19sChIJg2u7AjkDBjsRURKDaCpyJ9g?authuser=0&hl=en&rclk=1,"9.100041599999999,76.5227247"
Kayamkulam Town juma masjid,Mosque,"5GG2+X6C Kayamkulam Town juma masjid, Kayamkulam, Kerala 690572",,5GG2+X6C,Kayamkulam,690572,Kerala,IN,https://www.google.com/maps/place/Kayamkulam+Town+juma+masjid/data=!4m7!3m6!1s0x3b061db5649e7189:0xa37bea89ca6c19a0!8m2!3d9.177446!4d76.5005165!16s%2Fg%2F11bzv3wwmk!19sChIJiXGeZLUdBjsRoBlsyonqe6M?authuser=0&hl=en&rclk=1,"9.177446,76.5005165"
Elippakulam Muslim Jamath,Mosque,"5H23+G9J Elippakulam Muslim Jamath, Mangaram, Choonad, Kerala 690501",Mangaram,5H23+G9J,Choonad,690501,Kerala,IN,https://www.google.com/maps/place/Elippakulam+Muslim+Jamath/data=!4m7!3m6!1s0x3b061b7c6b2fe537:0x22da9478a627aa15!8m2!3d9.1513489!4d76.5533946!16s%2Fg%2F11c59_sygd!19sChIJN-Uva3wbBjsRFaonpniU2iI?authuser=0&hl=en&rclk=1,"9.1513489,76.55339459999999"
Oachira North Masjid,Mosque,"4GR6+6QJ Oachira North Masjid, NH 47, Oachira, Krishnapuram, Kerala 690533",,"4GR6+6QJ, NH 47","Oachira, Krishnapuram",690533,Kerala,IN,https://www.google.com/maps/place/Oachira+North+Masjid/data=!4m7!3m6!1s0x3b061ce5d76c8147:0x90a951566a46b65f!8m2!3d9.140597!4d76.5118897!16s%2Fg%2F1v6qg1b7!19sChIJR4Fs1-UcBjsRX7ZGalZRqZA?authuser=0&hl=en&rclk=1,"9.140597,76.5118897"
Veluthamanal Juma Masjid,Mosque,"3H94+CFG Veluthamanal Juma Masjid, Kallelibhagom, Kerala 690523",,3H94+CFG,Kallelibhagom,690523,Kerala,IN,https://www.google.com/maps/place/Veluthamanal+Juma+Masjid/data=!4m7!3m6!1s0x3b06047c2ef5b93d:0x4d4c83783310bc73!8m2!3d9.0685721!4d76.5562018!16s%2Fg%2F1262g4_0v!19sChIJPbn1LnwEBjsRc7wQM3iDTE0?authuser=0&hl=en&rclk=1,"9.068572099999999,76.5562018"
Kuttitheruvu Muslim Jamaath (kurrrritteruv musliN jmaaat ),Mosque,"5GHF+J4X Kuttitheruvu Muslim Jamaath (kurrrritteruv musliN jmaaat ), Peringala, Kayamkulam, Kerala 690502",Peringala,5GHF+J4X,Kayamkulam,690502,Kerala,IN,https://www.google.com/maps/place/Kuttitheruvu+Muslim+Jamaath+%28%E0%B4%95%E0%B5%81%E0%B4%B1%E0%B5%8D%E0%B4%B1%E0%B4%BF%E0%B4%A4%E0%B5%8D%E0%B4%A4%E0%B5%86%E0%B4%B0%E0%B5%81%E0%B4%B5%E0%B5%8D+%E0%B4%AE%E0%B5%81%E0%B4%B8%E0%B5%8D%E0%B4%B2%E0%B4%BF%E0%B4%82+%E0%B4%9C%E0%B4%AE%E0%B4%BE%E0%B4%85%E0%B4%A4%E0%B5%8D+%29/data=!4m7!3m6!1s0x3b061c3f826496ab:0xbe758a9913e04ce3!8m2!3d9.1791168!4d76.5228623!16s%2Fg%2F11dz07gckg!19sChIJq5Zkgj8cBjsR40zgE5mKdb4?authuser=0&hl=en&rclk=1,"9.1791168,76.5228623"
Shaheedar Juma Masjid,Mosque,"Shaheedar Juma Masjid, Pathisseri Gurumandiram Rd, near Mosque, Kayamkulam, Kerala 690526",,"Pathisseri Gurumandiram Rd, near Mosque",Kayamkulam,690526,Kerala,IN,https://www.google.com/maps/place/Shaheedar+Juma+Masjid/data=!4m7!3m6!1s0x3b061dc8b194c387:0x23541fa68959294d!8m2!3d9.1822242!4d76.492079!16s%2Fg%2F1ts1l1xs!19sChIJh8OUscgdBjsRTSlZiaYfVCM?authuser=0&hl=en&rclk=1,"9.1822242,76.49207899999999"
Clappana Juma Masjid,Mosque,"4F5W+GF9 Clappana Juma Masjid, Vallikkavu, Clappana, Kerala 690546",Vallikkavu,4F5W+GF9,Clappana,690546,Kerala,IN,https://www.google.com/maps/place/Clappana+Juma+Masjid/data=!4m7!3m6!1s0x3b0602d392bf4767:0xa286e50c327f15ba!8m2!3d9.1087937!4d76.4962296!16s%2Fg%2F1wf208bg!19sChIJZ0e_ktMCBjsRuhV_MgzlhqI?authuser=0&hl=en&rclk=1,"9.1087937,76.49622959999999"
Kappil Mekku Juma Masjid,Mosque,"Kappil Mekku Juma Masjid, Krishnapuram, Kerala 690533",,,Krishnapuram,690533,Kerala,IN,https://www.google.com/maps/place/Kappil+Mekku+Juma+Masjid/data=!4m7!3m6!1s0x3b061c8bb905dbed:0xe3f1b6bd1a827cb7!8m2!3d9.1535131!4d76.527078!16s%2Fg%2F11b8_x6j_5!19sChIJ7dsFuYscBjsRt3yCGr228eM?authuser=0&hl=en&rclk=1,"9.1535131,76.527078"
Valliyakulangara Juma Masjid,Mosque,"4GC9+89H Valliyakulangara Juma Masjid, Oachira, Kerala 690526",,4GC9+89H,Oachira,690526,Kerala,IN,https://www.google.com/maps/place/Valliyakulangara+Juma+Masjid/data=!4m7!3m6!1s0x3b061ccec27920c3:0x150c0ed1596c1907!8m2!3d9.120825!4d76.5184814!16s%2Fg%2F11b6jgtnvc!19sChIJwyB5ws4cBjsRBxlsWdEODBU?authuser=0&hl=en&rclk=1,"9.120825,76.5184814"
MAYYATUMKARA JUMA MASJID,Mosque,"3JMQ+PRG MAYYATUMKARA JUMA MASJID, Charumoodu - Sasthamkotta Rd, Chakkuvally, Poruvazhy, Kerala 690520",,"3JMQ+PRG, Charumoodu - Sasthamkotta Rd","Chakkuvally, Poruvazhy",690520,Kerala,IN,https://www.google.com/maps/place/MAYYATUMKARA+JUMA+MASJID/data=!4m7!3m6!1s0x3b06057d1583de73:0xddd21a9aa3b67891!8m2!3d9.0843079!4d76.6395871!16s%2Fg%2F11bwpms0w1!19sChIJc96DFX0FBjsRkXi2o5oa0t0?authuser=0&hl=en&rclk=1,"9.084307899999999,76.6395871"
Juma Masjid - Puthutheruve,Mosque,"4F9X+83R Juma Masjid - Puthutheruve, Vallikkavu-Oachira Rd, Clappana, Vallikavu, Kollam, Kerala 690525",,"4F9X+83R, Vallikkavu-Oachira Rd, Clappana, Vallikavu","Kollam, Oachira",690525,Kerala,IN,https://www.google.com/maps/place/Juma+Masjid+-+Puthutheruve/data=!4m7!3m6!1s0x3b061d29584e7fdb:0x6f9ace43f8da866e!8m2!3d9.118355!4d76.497639!16s%2Fg%2F1hhx1_42q!19sChIJ239OWCkdBjsRboba-EPOmm8?authuser=0&hl=en&rclk=1,"9.118355,76.49763899999999"
Juma Masjid Sooranad,Mosque,"4J5M+3Q8 Juma Masjid Sooranad, Sasthamkotta Charummoodu Road, Sooranad North, Sooranad, Kerala 690522",Sooranad North,"4J5M+3Q8, Sasthamkotta Charummoodu Road, Sooranad North",Sooranad,690522,Kerala,IN,https://www.google.com/maps/place/Juma+Masjid+Sooranad/data=!4m7!3m6!1s0x3b06055a12b51079:0x32fdbc269ae53db5!8m2!3d9.1076649!4d76.6344535!16s%2Fg%2F1tlmlrz9!19sChIJeRC1EloFBjsRtT3lmia8_TI?authuser=0&hl=en&rclk=1,"9.1076649,76.63445349999999"
Kattachira jumah Masjid,Mosque,"5G2Q+VJP Kattachira jumah Masjid, Bharanikkavu, Kerala 690533",,5G2Q+VJP,Bharanikkavu,690533,Kerala,IN,https://www.google.com/maps/place/Kattachira+jumah+Masjid/data=!4m7!3m6!1s0x3b061c8675fbd927:0xfb9ed4e4cae5bc74!8m2!3d9.1522241!4d76.5390915!16s%2Fg%2F1tdcpz8v!19sChIJJ9n7dYYcBjsRdLzlyuTUnvs?authuser=0&hl=en&rclk=1,"9.1522241,76.5390915"
MIM Juma Masjid,Mosque,"MIM Juma Masjid, M Jumamasjid, American junction, M.I, Thodiyoor, Kerala 690523",,"M Jumamasjid, American junction, M.I",Thodiyoor,690523,Kerala,IN,https://www.google.com/maps/place/MIM+Juma+Masjid/data=!4m7!3m6!1s0x3b061caafed9a4d5:0xfb3ad9e922c39e27!8m2!3d9.1171371!4d76.5462266!16s%2Fg%2F11x9mcth6!19sChIJ1aTZ_qocBjsRJ57DIunZOvs?authuser=0&hl=en&rclk=1,"9.117137099999999,76.5462266"
kannanakuzhy mosque,Mosque,"5H46+CXC kannanakuzhy mosque, Kannanakuzhi Sastham Nada Rd, Kerala 690503",,"5H46+CXC, Kannanakuzhi Sastham Nada Rd",,690503,Kerala,IN,https://www.google.com/maps/place/kannanakuzhy+mosque/data=!4m7!3m6!1s0x3b061b77a4082135:0xefc3a757a5996701!8m2!3d9.1560721!4d76.5623818!16s%2Fg%2F11c3k2_kfr!19sChIJNSEIpHcbBjsRAWeZpVenw-8?authuser=0&hl=en&rclk=1,"9.1560721,76.5623818"
Muhyadhin juma masjid,Mosque,"5JG8+6H7 Muhyadhin juma masjid, Kayamkulam - Pathanapuram Rd, Parayamkulam, Nooranad, Kerala 690505",Parayamkulam,"5JG8+6H7, Kayamkulam - Pathanapuram Rd",Nooranad,690505,Kerala,IN,https://www.google.com/maps/place/Muhyadhin+juma+masjid/data=!4m7!3m6!1s0x3b061a423f62d615:0xa363d52d04aecd3b!8m2!3d9.1755345!4d76.6164126!16s%2Fg%2F11g8yky3td!19sChIJFdZiP0IaBjsRO82uBC3VY6M?authuser=0&hl=en&rclk=1,"9.1755345,76.61641259999999"
"Juma Masjid, Thamarakulam",Mosque,"4JV7+4JM Juma Masjid, Thamarakulam, Thamarakulam, Kerala 690530",,4JV7+4JM,Thamarakulam,690530,Kerala,IN,"https://www.google.com/maps/place/Juma+Masjid,+Thamarakulam/data=!4m7!3m6!1s0x3b061aebbc2bbdc3:0x4f1e58f1b7dd819c!8m2!3d9.1428499!4d76.614048!16s%2Fg%2F11b808s68c!19sChIJw70rvOsaBjsRnIHdt_FYHk8?authuser=0&hl=en&rclk=1","9.1428499,76.614048"
Sasthampoika Juma Masjid,Mosque,"3GWM+P5H Sasthampoika Juma Masjid, Kulasekharapuram, Kerala 690539",,3GWM+P5H,Kulasekharapuram,690539,Kerala,IN,https://www.google.com/maps/place/Sasthampoika+Juma+Masjid/data=!4m7!3m6!1s0x3b06034394c6bdd7:0xcda11754cb70988c!8m2!3d9.0968229!4d76.5329997!16s%2Fg%2F11cmzhclm3!19sChIJ173GlEMDBjsRjJhwy1QXoc0?authuser=0&hl=en&rclk=1,"9.0968229,76.53299969999999"
ONNAMKUTTY MASJID (Roohiya masjid & madrasa),Mosque,"5GF9+9CJ ONNAMKUTTY MASJID (Roohiya masjid & madrasa), Kayamkulam, Kerala 690502",,5GF9+9CJ,Kayamkulam,,Kerala,IN,https://www.google.com/maps/place/ONNAMKUTTY+MASJID+%28Roohiya+masjid+%26+madrasa%29/data=!4m7!3m6!1s0x3b061d02d87902f1:0x57ffba9511aed56e!8m2!3d9.1734633!4d76.5185312!16s%2Fg%2F11vf2n3cqy!19sChIJ8QJ52AIdBjsRbtWuEZW6_1c?authuser=0&hl=en&rclk=1,"9.1734633,76.5185312"
Cheravallay Juma Masjid,Mosque,"5G97+Q3R Cheravallay Juma Masjid, cheravallay, Kayamkulam, Kerala 690502",cheravallay,5G97+Q3R,Kayamkulam,,Kerala,IN,https://www.google.com/maps/place/Cheravallay+Juma+Masjid/data=!4m7!3m6!1s0x3b061c4fa2b053b9:0xfa6e2cae482f9bef!8m2!3d9.169492!4d76.512638!16s%2Fg%2F11gfjrcnnv!19sChIJuVOwok8cBjsR75svSK4sbvo?authuser=0&hl=en&rclk=1,"9.169492,76.512638"
Thengumvila Juma-masjid,Mosque,"3JJJ+29V Thengumvila Juma-masjid, Puthiyakavu - Chakkuvally Rd, Sooranad South, Sooranad, Kerala 690522",Sooranad South,"3JJJ+29V, Puthiyakavu - Chakkuvally Rd",Sooranad,690522,Kerala,IN,https://www.google.com/maps/place/Thengumvila+Juma-masjid/data=!4m7!3m6!1s0x3b06057753853b67:0x3eb7bc8a125fd402!8m2!3d9.0801163!4d76.6309115!16s%2Fg%2F11c5b119hw!19sChIJZzuFU3cFBjsRAtRfEoq8tz4?authuser=0&hl=en&rclk=1,"9.0801163,76.6309115"
Varavila Muslim Jamath Masjid(Juma Masjid),Mosque,"4G94+H76 Varavila Muslim Jamath Masjid(Juma Masjid), Pallimukku Palakkulangara Rd, Oachira, Kerala 690546",,"4G94+H76, Pallimukku Palakkulangara Rd",Oachira,690546,Kerala,IN,https://www.google.com/maps/place/Varavila+Muslim+Jamath+Masjid%28Juma+Masjid%29/data=!4m7!3m6!1s0x3b061cd686dba457:0x49e6713e9857c3d1!8m2!3d9.1189226!4d76.5056349!16s%2Fg%2F11f3n10j4p!19sChIJV6TbhtYcBjsR0cNXmD5x5kk?authuser=0&hl=en&rclk=1,"9.1189226,76.50563489999999"
Muslim Jama Ath,Mosque,"5JH3+VX2 Muslim Jama Ath, Charumoodu Mankamkuzhi Rd, Thekkum Muri, Chunakkara, Kerala 690505",Thekkum Muri,"5JH3+VX2, Charumoodu Mankamkuzhi Rd",Chunakkara,690505,Kerala,IN,https://www.google.com/maps/place/Muslim+Jama+Ath/data=!4m7!3m6!1s0x3b061a3645734667:0x1f9dbe00a49c2303!8m2!3d9.1796275!4d76.6048879!16s%2Fg%2F1tnpjfm3!19sChIJZ0ZzRTYaBjsRAyOcpAC-nR8?authuser=0&hl=en&rclk=1,"9.179627499999999,76.6048879"
Pappankulangara Masjid,Mosque,"3GRQ+PRG Pappankulangara Masjid, Thazhava, Kerala 690523",,3GRQ+PRG,Thazhava,690523,Kerala,IN,https://www.google.com/maps/place/Pappankulangara+Masjid/data=!4m7!3m6!1s0x3b0603679a313a73:0x99f17300ade8d4d9!8m2!3d9.0918171!4d76.5395761!16s%2Fg%2F11bc7rj86z!19sChIJczoxmmcDBjsR2dTorQBz8Zk?authuser=0&hl=en&rclk=1,"9.0918171,76.53957609999999"
Badarul Huda Juma Masjid,Mosque,"5FQV+875 Badarul Huda Juma Masjid, Unnamed Road, Mavileth, Kareelakulangara, Kerala 690572",Mavileth,"5FQV+875, Unnamed Road",Kareelakulangara,690572,Kerala,IN,https://www.google.com/maps/place/Badarul+Huda+Juma+Masjid/data=!4m7!3m6!1s0x3b061dcfd7c8f139:0x1c20cb8a77b363db!8m2!3d9.1882722!4d76.4932349!16s%2Fg%2F11g6wbrpjw!19sChIJOfHI188dBjsR22Ozd4rLIBw?authuser=0&hl=en&rclk=1,"9.1882722,76.49323489999999"
Majlis Masjid,Mosque,"5FRM+4MM Majlis Masjid, Yatheem Khana Rd, Kottukulangara, Malamel, Bhagom, Kareelakulangara, Kerala 690502","Kottukulangara, Malamel","5FRM+4MM, Yatheem Khana Rd","Bhagom, Kareelakulangara",690502,Kerala,IN,https://www.google.com/maps/place/Majlis+Masjid/data=!4m7!3m6!1s0x3b061dc321783a5b:0x574d9767532ce0c8!8m2!3d9.1903257!4d76.484165!16s%2Fg%2F11g6rczf18!19sChIJWzp4IcMdBjsRyOAsU2eXTVc?authuser=0&hl=en&rclk=1,"9.190325699999999,76.48416499999999"
Chunakkara North Nooril Islam Masjid,Mosque,"5JP2+733 Chunakkara North Nooril Islam Masjid, Theruvil Mukku, Chunakkara, Kerala 690505",Theruvil Mukku,5JP2+733,Chunakkara,690505,Kerala,IN,https://www.google.com/maps/place/Chunakkara+North+Nooril+Islam+Masjid/data=!4m7!3m6!1s0x3b061a34180edfe7:0x454597816ad22f6f!8m2!3d9.1856285!4d76.6001679!16s%2Fg%2F11byxhc203!19sChIJ598OGDQaBjsRby_SaoGXRUU?authuser=0&hl=en&rclk=1,"9.1856285,76.6001679"
Masjid Rahman,Mosque,"Masjid Rahman, 38, Salem - Kochi Hwy, ONK Junction, Kayamkulam, Kerala 690502",ONK Junction,"38, Salem - Kochi Hwy",Kayamkulam,690502,Kerala,IN,https://www.google.com/maps/place/Masjid+Rahman/data=!4m7!3m6!1s0x3b061dc84134d0bd:0x1b72cdd72f635ae4!8m2!3d9.1785211!4d76.4927011!16s%2Fg%2F1q2vwnm7g!19sChIJvdA0QcgdBjsR5FpjL9fNchs?authuser=0&hl=en&rclk=1,"9.1785211,76.49270109999999"
Peringala Jumua Masjid,Mosque,"5GJ4+2QG Peringala Jumua Masjid, Kayamkulam, Kerala 690559",,5GJ4+2QG,Kayamkulam,690559,Kerala,IN,https://www.google.com/maps/place/Peringala+Jumua+Masjid/data=!4m7!3m6!1s0x3b061c35c807c6fb:0x7c1b191862abdb4c!8m2!3d9.1800694!4d76.5069511!16s%2Fg%2F11f4l9hmj7!19sChIJ-8YHyDUcBjsRTNurYhgZG3w?authuser=0&hl=en&rclk=1,"9.180069399999999,76.5069511"
Poovadiyil Juma Masjid,Mosque,"Poovadiyil Juma Masjid, 690106,, Bhagavathipady - Kareelakulangara Rd, Pathiyoor, Kerala 690106",,"690106,, Bhagavathipady - Kareelakulangara Rd","Pathiyoor, Pathiyoorkala",690106,Kerala,IN,https://www.google.com/maps/place/Poovadiyil+Juma+Masjid/data=!4m7!3m6!1s0x3b061e7267997073:0xf0df098e8ba82c92!8m2!3d9.2083201!4d76.4829128!16s%2Fg%2F11c6064dh0!19sChIJc3CZZ3IeBjsRkiyoi44J3_A?authuser=0&hl=en&rclk=1,"9.2083201,76.4829128"
Chirakkulangara Masjid,Mosque,"Chirakkulangara Masjid, Chirakkulangara Mosque, Chemmakkattu Road, Keerikkad, South, Kayamkulam, Kerala 690502",,"Chirakkulangara Mosque, Chemmakkattu Road, Keerikkad, South","Kayamkulam, Keerikkad",690502,Kerala,IN,https://www.google.com/maps/place/Chirakkulangara+Masjid/data=!4m7!3m6!1s0x3b061db93eab0991:0x46e4f6eccdad7b3f!8m2!3d9.1735149!4d76.4863334!16s%2Fg%2F11c6k4y9qm!19sChIJkQmrPrkdBjsRP3utzez25EY?authuser=0&hl=en&rclk=1,"9.173514899999999,76.48633339999999"
"Al,Abrar Masjid",Mosque,"5H34+RF9 Al,Abrar Masjid, Alappuzha, Kerala 690501",,5H34+RF9,Alappuzha,690501,Kerala,IN,"https://www.google.com/maps/place/Al,Abrar+Masjid/data=!4m7!3m6!1s0x3b061b791429b02b:0x8b3c361b6fae4408!8m2!3d9.1545366!4d76.5562402!16s%2Fg%2F11d_294wlz!19sChIJK7ApFHkbBjsRCESubxs2PIs?authuser=0&hl=en&rclk=1","9.1545366,76.55624019999999"
Choonad Town Masjid,Mosque,"4HR3+5GR Choonad Town Masjid, Choonad-Thazhava Rd, Mangaram, Choonad, Vallikunnam, Kerala 690501",Mangaram,"4HR3+5GR, Choonad-Thazhava Rd","Choonad, Vallikunnam",690501,Kerala,IN,https://www.google.com/maps/place/Choonad+Town+Masjid/data=!4m7!3m6!1s0x3b061b6140cccd65:0x5284aba4e4ece0a3!8m2!3d9.1404929!4d76.5537561!16s%2Fg%2F11f358_04h!19sChIJZc3MQGEbBjsRo-Ds5KSrhFI?authuser=0&hl=en&rclk=1,"9.1404929,76.5537561"
Kayamkulam Town Salafi Masjid,Mosque,"5FGW+H88 Kayamkulam Town Salafi Masjid, Kayamkulam, Kerala 690572",,5FGW+H88,Kayamkulam,,Kerala,IN,https://www.google.com/maps/place/Kayamkulam+Town+Salafi+Masjid/data=!4m7!3m6!1s0x3b061d538685dc51:0x65afa023270d2568!8m2!3d9.1764204!4d76.4958348!16s%2Fg%2F11g072pgl9!19sChIJUdyFhlMdBjsRaCUNJyOgr2U?authuser=0&hl=en&rclk=1,"9.1764204,76.4958348"
Kaduvinal Muslim Jama'ath,Mosque,"4HMR+WM5 Kaduvinal Muslim Jama'ath, Kaduvinal, Vallikunnam, Kerala 690501",Kaduvinal,4HMR+WM5,Vallikunnam,690501,Kerala,IN,https://www.google.com/maps/place/Kaduvinal+Muslim+Jama%27ath/data=!4m7!3m6!1s0x3b061b2104648ed1:0x4eda106a40451857!8m2!3d9.1347551!4d76.5917257!16s%2Fg%2F11ddwvnznd!19sChIJ0Y5kBCEbBjsRVxhFQGoQ2k4?authuser=0&hl=en&rclk=1,"9.1347551,76.5917257"
Salafi Centre,Mosque,"Salafi Centre, Palathatam paloothara road, Charummoodu, Kerala 690505",,Palathatam paloothara road,Charummoodu,690505,Kerala,IN,https://www.google.com/maps/place/Salafi+Centre/data=!4m7!3m6!1s0x3b061a51d66c3235:0x9c158c6612cf3091!8m2!3d9.1709732!4d76.6035938!16s%2Fg%2F11b8075vvk!19sChIJNTJs1lEaBjsRkTDPEmaMFZw?authuser=0&hl=en&rclk=1,"9.170973199999999,76.6035938"
Masjid Noor,Mosque,"5FVR+738 Masjid Noor, Eruva temple Rd, Mavileth, Kareelakulangara, Kerala 690572",Mavileth,"5FVR+738, Eruva temple Rd",Kareelakulangara,690572,Kerala,IN,https://www.google.com/maps/place/Masjid+Noor/data=!4m7!3m6!1s0x3b061dda1b17949b:0x559bf02eb7195dc3!8m2!3d9.193167!4d76.49019!16s%2Fg%2F11dxk89w8t!19sChIJm5QXG9odBjsRw10Zty7wm1U?authuser=0&hl=en&rclk=1,"9.193166999999999,76.49019"
HHYS Madrasa,Mosque,"5GGH+VW6 HHYS Madrasa, Krishnapuram, Kerala 690503",,5GGH+VW6,Krishnapuram,690503,Kerala,IN,https://www.google.com/maps/place/HHYS+Madrasa/data=!4m7!3m6!1s0x3b061c6b1392facd:0x9ce5ac8249553235!8m2!3d9.1771544!4d76.529774!16s%2Fg%2F11g88c5xwg!19sChIJzfqSE2scBjsRNTJVSYKs5Zw?authuser=0&hl=en&rclk=1,"9.1771544,76.529774"
Ramanchira Masjid,Mosque,"4HJJ+PFM Ramanchira Masjid, Vallikunnam, Kerala 690501",,4HJJ+PFM,Vallikunnam,690501,Kerala,IN,https://www.google.com/maps/place/Ramanchira+Masjid/data=!4m7!3m6!1s0x3b061b3b7c813165:0x9a8da8783be13652!8m2!3d9.1318318!4d76.5811665!16s%2Fg%2F11fxf7jz66!19sChIJZTGBfDsbBjsRUjbhO3iojZo?authuser=0&hl=en&rclk=1,"9.131831799999999,76.5811665"
Puthen Theruvu Juma Masjid,Mosque,"5FHW+FRM Puthen Theruvu Juma Masjid, Kayamkulam, Kerala 690572",,5FHW+FRM,Kayamkulam,,Kerala,IN,https://www.google.com/maps/place/Puthen+Theruvu+Juma+Masjid/data=!4m7!3m6!1s0x3b061dca1ef748eb:0x9b8e2c1e928f2e2e!8m2!3d9.1787143!4d76.4970578!16s%2Fg%2F11ggr0ll96!19sChIJ60j3HsodBjsRLi6Pkh4sjps?authuser=0&hl=en&rclk=1,"9.1787143,76.4970578"
Jeelani Masjid Onnamile Thamarakulam,Mosque,"4JM7+85J Jeelani Masjid Onnamile Thamarakulam, Thamarakulam, Kollam, Thamarakulam, Kerala 690530",Thamarakulam,4JM7+85J,"Kollam, Thamarakulam",690530,Kerala,IN,https://www.google.com/maps/place/Jeelani+Masjid+Onnamile+Thamarakulam/data=!4m7!3m6!1s0x3b061ac6acea7279:0x5a100e9615771670!8m2!3d9.133329!4d76.6128886!16s%2Fg%2F11fzfds90x!19sChIJeXLqrMYaBjsRcBZ3FZYOEFo?authuser=0&hl=en&rclk=1,"9.133329,76.61288859999999"
Masjid,Mosque,"4GF2+38V Masjid, Oachira, Kerala 690546",,4GF2+38V,Oachira,690546,Kerala,IN,https://www.google.com/maps/place/Masjid/data=!4m7!3m6!1s0x3b061d286c03ff7b:0xa730b09acd473334!8m2!3d9.1227478!4d76.5007899!16s%2Fg%2F11gcdr7n55!19sChIJe_8DbCgdBjsRNDNHzZqwMKc?authuser=0&hl=en&rclk=1,"9.122747799999999,76.5007899"
Bilal Masjid Pazhakulam,Mosque,"5M3G+H6H Bilal Masjid Pazhakulam, Payyanalloor, Nooranad, Kerala 690561",Payyanalloor,5M3G+H6H,Nooranad,690561,Kerala,IN,https://www.google.com/maps/place/Bilal+Masjid+Pazhakulam/data=!4m7!3m6!1s0x3b06105a8352ca4d:0xf5849a5e2d24266f!8m2!3d9.1539275!4d76.6755999!16s%2Fg%2F11c7vzpjjl!19sChIJTcpSg1oQBjsRbyYkLV6ahPU?authuser=0&hl=en&rclk=1,"9.1539275,76.6755999"
Salafi Juma Masjid,Mosque,"4HF6+2M7 Salafi Juma Masjid, Valiyakulam Link Rd, Vallikunnam, Kerala 690501",,"4HF6+2M7, Valiyakulam Link Rd",Vallikunnam,690501,Kerala,IN,https://www.google.com/maps/place/Salafi+Juma+Masjid/data=!4m7!3m6!1s0x3b061b4235f7b31f:0x3f47d5818d50e68e!8m2!3d9.1225287!4d76.5616689!16s%2Fg%2F11h541dj6n!19sChIJH7P3NUIbBjsRjuZQjYHVRz8?authuser=0&hl=en&rclk=1,"9.1225287,76.5616689"
kanjirathumood mosque,Mosque,"4HRQ+R2X kanjirathumood mosque, Vallikunnam, Kerala 690501",,4HRQ+R2X,Vallikunnam,690501,Kerala,IN,https://www.google.com/maps/place/kanjirathumood+mosque/data=!4m7!3m6!1s0x3b061bcad36efbc1:0x6544b1d1f8b67bb6!8m2!3d9.1421107!4d76.5876051!16s%2Fg%2F11g0y8s1zq!19sChIJwftu08obBjsRtnu2-NGxRGU?authuser=0&hl=en&rclk=1,"9.1421107,76.58760509999999"
Masjidul Ihsan,Mosque,"5FQQ+648 Masjidul Ihsan, Kottukulangara, Kareelakulangara, Kerala 690572",Kottukulangara,5FQQ+648,Kareelakulangara,690572,Kerala,IN,https://www.google.com/maps/place/Masjidul+Ihsan/data=!4m7!3m6!1s0x3b061ddb2b55d6ef:0xd603fa0924534270!8m2!3d9.1880453!4d76.4878219!16s%2Fg%2F11bt_hl9vn!19sChIJ79ZVK9sdBjsRcEJTJAn6A9Y?authuser=0&hl=en&rclk=1,"9.188045299999999,76.4878219"
Masjid Al-IHSAN,Mosque,"5FRP+GW5 Masjid Al-IHSAN, Kottukulangara, Kareelakulangara, Kerala 690572",Kottukulangara,5FRP+GW5,Kareelakulangara,690572,Kerala,IN,https://www.google.com/maps/place/Masjid+Al-IHSAN/data=!4m7!3m6!1s0x3b061ddba51cb961:0x7f233d989bf44493!8m2!3d9.1912733!4d76.4873549!16s%2Fg%2F11gg46pndc!19sChIJYbkcpdsdBjsRk0T0m5g9I38?authuser=0&hl=en&rclk=1,"9.191273299999999,76.4873549"
Darul Aman Juma Masjid &madrasa,Mosque,"Darul Aman Juma Masjid &madrasa, Kareelakulangara, Kerala 690572",,,Kareelakulangara,,Kerala,IN,https://www.google.com/maps/place/Darul+Aman+Juma+Masjid+%26madrasa/data=!4m7!3m6!1s0x3b061dcaecbdf901:0x8450cb3017919613!8m2!3d9.1901866!4d76.4821078!16s%2Fg%2F11h7jfkj0l!19sChIJAfm97ModBjsRE5aRFzDLUIQ?authuser=0&hl=en&rclk=1,"9.190186599999999,76.4821078"
Panamoottil Masjid,Mosque,"3GQJ+P7H Panamoottil Masjid, Kulasekharapuram, Kerala 690539",,3GQJ+P7H,Kulasekharapuram,,Kerala,IN,https://www.google.com/maps/place/Panamoottil+Masjid/data=!4m7!3m6!1s0x3b0603fe32b418df:0xd865500c7d70ac9f!8m2!3d9.0893052!4d76.5307433!16s%2Fg%2F11g0gwqsgy!19sChIJ3xi0Mv4DBjsRn6xwfQxQZdg?authuser=0&hl=en&rclk=1,"9.0893052,76.5307433"
JUMA MASJID SIJ NOORANAD,Mosque,"5JFQ+RPJ JUMA MASJID SIJ NOORANAD, Kayamkulam - Pathanapuram Rd, Nooranad, Kerala 690504",,"5JFQ+RPJ, Kayamkulam - Pathanapuram Rd",Nooranad,690504,Kerala,IN,https://www.google.com/maps/place/JUMA+MASJID+SIJ+NOORANAD/data=!4m7!3m6!1s0x3b061b27b59e27e7:0x83310705386fde51!8m2!3d9.1745903!4d76.6392564!16s%2Fg%2F11f7qyd22q!19sChIJ5yeetScbBjsRUd5vOAUHMYM?authuser=0&hl=en&rclk=1,"9.1745903,76.6392564"
Daaru salaam Jum'a Masjid,Mosque,"5FQQ+J5F Daaru salaam Jum'a Masjid, Kottukulangara, Kareelakulangara, Kerala 690572",Kottukulangara,5FQQ+J5F,Kareelakulangara,690572,Kerala,IN,https://www.google.com/maps/place/Daaru+salaam+Jum%27a+Masjid/data=!4m7!3m6!1s0x3b061ddb26db7339:0x7071345b1c84d1a1!8m2!3d9.189072!4d76.487908!16s%2Fg%2F11gbl3xf7f!19sChIJOXPbJtsdBjsRodGEHFs0cXA?authuser=0&hl=en&rclk=1,"9.189072,76.48790799999999"
Moulavi Nagar Masjid,Mosque,"3GMV+XFX Moulavi Nagar Masjid, Puliyoorvanchi North, Kunneltharayil, Thodiyoor, Thazhava, Kerala 690523","Puliyoorvanchi North, Kunneltharayil",3GMV+XFX,"Thodiyoor, Thazhava",690523,Kerala,IN,https://www.google.com/maps/place/Moulavi+Nagar+Masjid/data=!4m7!3m6!1s0x3b060363832a01df:0x9830ba67411171ad!8m2!3d9.0849778!4d76.5437429!16s%2Fg%2F11f0_fpw24!19sChIJ3wEqg2MDBjsRrXERQWe6MJg?authuser=0&hl=en&rclk=1,"9.084977799999999,76.5437429"
Al- Bilal Masjid,Mosque,"3JQJ+CVG Al- Bilal Masjid, Sooranad South, Sooranad, Kerala 690520",Sooranad South,3JQJ+CVG,Sooranad,690520,Kerala,IN,https://www.google.com/maps/place/Al-+Bilal+Masjid/data=!4m7!3m6!1s0x3b060565ac22f7b5:0xa8cf8c1f367e1e60!8m2!3d9.0885593!4d76.6321959!16s%2Fg%2F11f2b0tqx4!19sChIJtfcirGUFBjsRYB5-Nh-Mz6g?authuser=0&hl=en&rclk=1,"9.0885593,76.6321959"
Masjid Vettiyar East,Mosque,"6HFW+66P Masjid Vettiyar East, Mankamkuzhy, Vettiyar, Kerala 690558",Mankamkuzhy,6HFW+66P,Vettiyar,,Kerala,IN,https://www.google.com/maps/place/Masjid+Vettiyar+East/data=!4m7!3m6!1s0x3b0619a381f43687:0x9e37a131ff81f362!8m2!3d9.2230878!4d76.5955862!16s%2Fg%2F11gnrlm14g!19sChIJhzb0gaMZBjsRYvOB_zGhN54?authuser=0&hl=en&rclk=1,"9.2230878,76.5955862"
Padanilam Islamic cultural Centre,Mosque,"5JVF+5Q8 Padanilam Islamic cultural Centre, Naduvilemuri, Padanilam, Kerala 690529",Naduvilemuri,5JVF+5Q8,Padanilam,690529,Kerala,IN,https://www.google.com/maps/place/Padanilam+Islamic+cultural+Centre/data=!4m7!3m6!1s0x3b061bbe38cf0b53:0x8ee46094ebfa18c9!8m2!3d9.1929011!4d76.6244427!16s%2Fg%2F11f8fwfpzb!19sChIJUwvPOL4bBjsRyRj665Rg5I4?authuser=0&hl=en&rclk=1,"9.1929011,76.6244427"
Muhiyudheen Juma Masjid Perumkulam,Mosque,"Muhiyudheen Juma Masjid Perumkulam, Sooranad South, Sooranad, Kerala 690522",Sooranad South,,Sooranad,690522,Kerala,IN,https://www.google.com/maps/place/Muhiyudheen+Juma+Masjid+Perumkulam/data=!4m7!3m6!1s0x3b06055d5fd5d84f:0x2e85720881200f44!8m2!3d9.0963923!4d76.631135!16s%2Fg%2F11c74yqxmd!19sChIJT9jVX10FBjsRRA8ggQhyhS4?authuser=0&hl=en&rclk=1,"9.0963923,76.631135"
"Salafi Masjid, Noorattu, Kayamkulam",Mosque,"5FQR+J58 Salafi Masjid, Noorattu, Kayamkulam, Mavileth, Kareelakulangara, Kerala 690572",Mavileth,5FQR+J58,Kareelakulangara,690572,Kerala,IN,"https://www.google.com/maps/place/Salafi+Masjid,+Noorattu,+Kayamkulam/data=!4m7!3m6!1s0x3b061dee787e6ba7:0xce634eefaea42b32!8m2!3d9.1890278!4d76.4904571!16s%2Fg%2F11gmf00yy_!19sChIJp2t-eO4dBjsRMiukru9OY84?authuser=0&hl=en&rclk=1","9.1890278,76.4904571"
Chittuvila Jeelani Masjid,Mosque,"4JP8+QHC Chittuvila Jeelani Masjid, Thamarakulam, Kerala 690530",,4JP8+QHC,Thamarakulam,690530,Kerala,IN,https://www.google.com/maps/place/Chittuvila+Jeelani+Masjid/data=!4m7!3m6!1s0x3b061ac045787c37:0xf17da616d92f4574!8m2!3d9.1369289!4d76.6163919!16s%2Fg%2F11gcx_vrmq!19sChIJN3x4RcAaBjsRdEUv2RamffE?authuser=0&hl=en&rclk=1,"9.1369289,76.6163919"
NUSRATHUL ANAM MASJID,Mosque,"4H9C+Q5C NUSRATHUL ANAM MASJID, Vallikunnam, Kerala 690501",,4H9C+Q5C,Vallikunnam,690501,Kerala,IN,https://www.google.com/maps/place/NUSRATHUL+ANAM+MASJID/data=!4m7!3m6!1s0x3b061bb2474c5c57:0xc83b1f6cbeaa34e2!8m2!3d9.1194323!4d76.570384!16s%2Fg%2F11h3c3f0j2!19sChIJV1xMR7IbBjsR4jSqvmwfO8g?authuser=0&hl=en&rclk=1,"9.1194323,76.57038399999999"
Hashimiyya Jeelani Masjid Charummood,Mosque,"5J93+GJ7 Hashimiyya Jeelani Masjid Charummood, Charummoodu, Kerala 690505",,5J93+GJ7,Charummoodu,690505,Kerala,IN,https://www.google.com/maps/place/Hashimiyya+Jeelani+Masjid+Charummood/data=!4m7!3m6!1s0x3b061a50521959b3:0xa4a87e0147310e81!8m2!3d9.1687754!4d76.6040574!16s%2Fg%2F11c1txzpc2!19sChIJs1kZUlAaBjsRgQ4xRwF-qKQ?authuser=0&hl=en&rclk=1,"9.1687754,76.6040574"
Kayamkulam Cutchi Memon Jamath Mosque,Mosque,"Kayamkulam Cutchi Memon Jamath Mosque, Bus Station, Kochi-Kanyakumari Hwy Road, Near KSRTC, Kayamkulam, Kerala 690502",,"Bus Station, Kochi-Kanyakumari Hwy Road, Near KSRTC",Kayamkulam,690502,Kerala,IN,https://www.google.com/maps/place/Kayamkulam+Cutchi+Memon+Jamath+Mosque/data=!4m7!3m6!1s0x3b061d12865d4d29:0xc65f60c2b27da5ff!8m2!3d9.1695662!4d76.4977099!16s%2Fg%2F11fhz664_5!19sChIJKU1dhhIdBjsR_6V9ssJgX8Y?authuser=0&hl=en&rclk=1,"9.1695662,76.49770989999999"
Shamsul Ulama Juma Masjid&Hiflul Quran College for boys,Mosque,"Shamsul Ulama Juma Masjid&Hiflul Quran College for boys, Eruva p.o, Kayamkulam, Kerala 690572",,Eruva p.o,Kayamkulam,690572,Kerala,IN,https://www.google.com/maps/place/Shamsul+Ulama+Juma+Masjid%26Hiflul+Quran+College+for+boys/data=!4m7!3m6!1s0x3b061dcc0c583d47:0x3dac75fb3ffe301b!8m2!3d9.1908538!4d76.4972049!16s%2Fg%2F11g8_0jx1h!19sChIJRz1YDMwdBjsRGzD-P_t1rD0?authuser=0&hl=en&rclk=1,"9.1908538,76.4972049"
Chembakassery Masjid (Thaikkavu),Mosque,"3GQC+HVC Chembakassery Masjid (Thaikkavu), Kulasekharapuram, Kerala 690528",,3GQC+HVC,Kulasekharapuram,,Kerala,IN,https://www.google.com/maps/place/Chembakassery+Masjid+%28Thaikkavu%29/data=!4m7!3m6!1s0x3b0603271db08217:0xe44109327d6cb4b1!8m2!3d9.0889465!4d76.5221523!16s%2Fg%2F11jx6ktsvl!19sChIJF4KwHScDBjsRsbRsfTIJQeQ?authuser=0&hl=en&rclk=1,"9.088946499999999,76.5221523"
Noorul Islam Madrasa,Mosque,"5HVW+7J6 Noorul Islam Madrasa, Naduvil, Chunakkara, Kerala",,"5HVW+7J6, Naduvil",Chunakkara,,Kerala,IN,https://www.google.com/maps/place/Noorul+Islam+Madrasa/data=!4m7!3m6!1s0x3b061a2d69c20b25:0xd9b1060de67f1bae!8m2!3d9.1931536!4d76.5965084!16s%2Fg%2F11gh012ttp!19sChIJJQvCaS0aBjsRrht_5g0Gsdk?authuser=0&hl=en&rclk=1,"9.193153599999999,76.59650839999999"
Masjid,Mosque,"5G82+MJG Masjid, Kayamkulam - Pathanapuram Rd, Kayamkulam, Kerala 690502",,"5G82+MJG, Kayamkulam - Pathanapuram Rd",Kayamkulam,690502,Kerala,IN,https://www.google.com/maps/place/Masjid/data=!4m7!3m6!1s0x3b061d2c51fdbb45:0xa0fb260e755cdc66!8m2!3d9.1666902!4d76.501593!16s%2Fg%2F11h_ftfks2!19sChIJRbv9USwdBjsRZtxcdQ4m-6A?authuser=0&hl=en&rclk=1,"9.1666902,76.501593"
Marqazul Quadiriya,Mosque,"5GC6+6FG Marqazul Quadiriya, Cheravally Masjid Rd, Oachira, Kayamkulam, Kerala 690502",,"5GC6+6FG, Cheravally Masjid Rd","Oachira, Kayamkulam",690502,Kerala,IN,https://www.google.com/maps/place/Marqazul+Quadiriya/data=!4m7!3m6!1s0x3b061dfa92776195:0x25f165111c11f52e!8m2!3d9.1705599!4d76.5112034!16s%2Fg%2F11fjpjx52y!19sChIJlWF3kvodBjsRLvURHBFl8SU?authuser=0&hl=en&rclk=1,"9.170559899999999,76.5112034"
MAMOOTTIL MASJID,Mosque,"5GM9+HXF MAMOOTTIL MASJID, Peringala, Kayamkulam, Kerala 690503",Peringala,5GM9+HXF,Kayamkulam,,Kerala,IN,https://www.google.com/maps/place/MAMOOTTIL+MASJID/data=!4m7!3m6!1s0x3b061d4fc5adaa51:0xa77a415c65368c88!8m2!3d9.1839331!4d76.5199195!16s%2Fg%2F11h7b96sdm!19sChIJUaqtxU8dBjsRiIw2ZVxBeqc?authuser=0&hl=en&rclk=1,"9.183933099999999,76.5199195"
Kaduvinal Masjid Junction,Mosque,"4HMR+PQF Kaduvinal Masjid Junction, Chiraykkal Rd, Kaduvinal, Vallikunnam, Kerala 690501",Kaduvinal,"4HMR+PQF, Chiraykkal Rd",Vallikunnam,690501,Kerala,IN,https://www.google.com/maps/place/Kaduvinal+Masjid+Junction/data=!4m7!3m6!1s0x3b061b211c4a6d1f:0x250f766edd702c03!8m2!3d9.1343113!4d76.5919352!16s%2Fg%2F11c2nhd5gm!19sChIJH21KHCEbBjsRAyxw3W52DyU?authuser=0&hl=en&rclk=1,"9.1343113,76.5919352"
Chempakapally mosque,Mosque,"Chempakapally mosque, p.o, eruva, Kayamkulam, 690502",,"p.o, eruva",Kayamkulam,690502,Kerala,IN,https://www.google.com/maps/place/Chempakapally+mosque/data=!4m7!3m6!1s0x3b061dd1998fb857:0x60ccd04d9bceda44!8m2!3d9.1898353!4d76.4955874!16s%2Fg%2F11t7w6hgrv!19sChIJV7iPmdEdBjsRRNrOm03QzGA?authuser=0&hl=en&rclk=1,"9.1898353,76.49558739999999"
Muhiyadheen Mosque,Mosque,"Muhiyadheen Mosque, Mohiyudheen Mosque, Kayamkulam, Kerala 690572",,Mohiyudheen Mosque,Kayamkulam,690572,Kerala,IN,https://www.google.com/maps/place/Muhiyadheen+Mosque/data=!4m7!3m6!1s0x3b061dc917a93ecb:0x3b33b6a8f3d905f6!8m2!3d9.1814784!4d76.4947749!16s%2Fg%2F11ggr0m1sz!19sChIJyz6pF8kdBjsR9gXZ86i2Mzs?authuser=0&hl=en&rclk=1,"9.1814784,76.4947749"
Jamaat-e-Islami Masjid,Mosque,"4GP7+8XR Jamaat-e-Islami Masjid, MES School Rd, opposite MES School, Oachira, Kerala 690533",,"4GP7+8XR, MES School Rd, opposite MES School",Oachira,,Kerala,IN,https://www.google.com/maps/place/Jamaat-e-Islami+Masjid/data=!4m7!3m6!1s0x3b061d786746eda1:0xdf8e26dad29ab1be!8m2!3d9.1358574!4d76.5148884!16s%2Fg%2F11h4qm46mc!19sChIJoe1GZ3gdBjsRvrGa0tomjt8?authuser=0&hl=en&rclk=1,"9.135857399999999,76.51488839999999"
Jumua masjid,Mosque,"4GX5+PM2 Jumua masjid, Krishnapuram, Kerala 690547",,4GX5+PM2,Krishnapuram,690547,Kerala,IN,https://www.google.com/maps/place/Jumua+masjid/data=!4m7!3m6!1s0x3b061cfb91df49f7:0xd1f935ec63aa5f2!8m2!3d9.1492709!4d76.5091332!16s%2Fg%2F11c76ln94g!19sChIJ90nfkfscBjsR8qU6xl6THw0?authuser=0&hl=en&rclk=1,"9.1492709,76.5091332"
Masjidhul Badhriyya Thaaleeradi,Mosque,"4HGH+W5F Masjidhul Badhriyya Thaaleeradi, Vallikunnam, Kerala 690501",,4HGH+W5F,Vallikunnam,690501,Kerala,IN,https://www.google.com/maps/place/Masjidhul+Badhriyya+Thaaleeradi/data=!4m7!3m6!1s0x3b061b5865c7f0ed:0x669a1fbf7af502f6!8m2!3d9.1273043!4d76.5779158!16s%2Fg%2F11ll0qypr1!19sChIJ7fDHZVgbBjsR9gL1er8fmmY?authuser=0&hl=en&rclk=1,"9.127304299999999,76.5779158"
Khilir Masjid,Mosque,"3HQ7+MH7 Khilir Masjid, Thazhava, Kerala 690523",,3HQ7+MH7,Thazhava,690523,Kerala,IN,https://www.google.com/maps/place/Khilir+Masjid/data=!4m7!3m6!1s0x3b060496db3d1bf7:0x6a9b60271adb50a6!8m2!3d9.0891553!4d76.5639145!16s%2Fg%2F11bx5pxlh6!19sChIJ9xs925YEBjsRplDbGidgm2o?authuser=0&hl=en&rclk=1,"9.0891553,76.5639145"
Madrasathul Hidaya / Kochu Kunju Usthad Masjid,Mosque,"5FMQ+495 Madrasathul Hidaya / Kochu Kunju Usthad Masjid, Arackal, Kayamkulam, Kerala 690502",Arackal,5FMQ+495,Kayamkulam,690502,Kerala,IN,https://www.google.com/maps/place/Madrasathul+Hidaya+%2F+Kochu+Kunju+Usthad+Masjid/data=!4m7!3m6!1s0x3b061de99897f2ef:0x9fa1c32fc332f071!8m2!3d9.1827629!4d76.4884978!16s%2Fg%2F11gwmh3f5r!19sChIJ7_KXmOkdBjsRcfAywy_DoZ8?authuser=0&hl=en&rclk=1,"9.1827629,76.48849779999999"
Salafi Masjid,Mosque,"4GP7+9P2 Salafi Masjid, Oachira, Kerala 690533",,4GP7+9P2,Oachira,,Kerala,IN,https://www.google.com/maps/place/Salafi+Masjid/data=!4m7!3m6!1s0x3b061ce808446fbd:0xa3002e3133880134!8m2!3d9.1358974!4d76.5142582!16s%2Fg%2F11f5jn2r3t!19sChIJvW9ECOgcBjsRNAGIMzEuAKM?authuser=0&hl=en&rclk=1,"9.1358974,76.5142582"
Muhiyidheen Masjid,Mosque,"4GPC+RP4 Muhiyidheen Masjid, Oachira Thamarakulam Rd, Oachira, Kerala 690533",,"4GPC+RP4, Oachira Thamarakulam Rd",Oachira,690533,Kerala,IN,https://www.google.com/maps/place/Muhiyidheen+Masjid/data=!4m7!3m6!1s0x3b061ddd39edde3b:0x7007a53eb118307b!8m2!3d9.137016!4d76.5218427!16s%2Fg%2F11nxszh4mt!19sChIJO97tOd0dBjsRezAYsT6lB3A?authuser=0&hl=en&rclk=1,"9.137016,76.5218427"
Hidayathul Islam Jumah Masjid - Thazhava,Mosque,"3HQ3+5C2 Hidayathul Islam Jumah Masjid - Thazhava, Thazhava, Kerala 690523",,3HQ3+5C2,Thazhava,690523,Kerala,IN,https://www.google.com/maps/place/Hidayathul+Islam+Jumah+Masjid+-+Thazhava/data=!4m7!3m6!1s0x3b06049ea0aaef57:0xa5be881ce42d5ee7!8m2!3d9.087882!4d76.5535122!16s%2Fg%2F11c48cmk8t!19sChIJV--qoJ4EBjsR514t5ByIvqU?authuser=0&hl=en&rclk=1,"9.087882,76.5535122"
Sunni Juma masjid,Mosque,"5GJ3+8R9 Sunni Juma masjid, Kayamkulam, Kerala 690502",,5GJ3+8R9,Kayamkulam,690502,Kerala,IN,https://www.google.com/maps/place/Sunni+Juma+masjid/data=!4m7!3m6!1s0x3b061df42262294f:0xbcb8c0512336d153!8m2!3d9.180785!4d76.5046953!16s%2Fg%2F11l5c21lqg!19sChIJTyliIvQdBjsRU9E2I1HAuLw?authuser=0&hl=en&rclk=1,"9.180785,76.5046953"
Kallumoodu masjid,Mosque,"Kallumoodu masjid, majid, po, near K.P.A.C, opposite to medical trust hospital hospital, Kallummoodu, Krishnapuram, Kayamkulam, Kerala 690502",Kallummoodu,"majid, po, near K.P.A.C, opposite to medical trust hospital hospital","Krishnapuram, Kayamkulam",690502,Kerala,IN,https://www.google.com/maps/place/Kallumoodu+masjid/data=!4m7!3m6!1s0x3b061defb3eab763:0x8ae262912abaf35a!8m2!3d9.1615773!4d76.5075!16s%2Fg%2F11td47_zsg!19sChIJY7fqs-8dBjsRWvO6KpFi4oo?authuser=0&hl=en&rclk=1,"9.1615773,76.5075"
Kannankara Masjid,Mosque,"4HCF+VFF Kannankara Masjid, Kambissery, Vallikunnam, Kerala 690501",,4HCF+VFF,"Kambissery, Vallikunnam",690501,Kerala,IN,https://www.google.com/maps/place/Kannankara+Masjid/data=!4m7!3m6!1s0x3b061b366bc5d373:0x9daf1936d6d14e77!8m2!3d9.1221965!4d76.5736564!16s%2Fg%2F11dyxz1st3!19sChIJc9PFazYbBjsRd07R1jYZr50?authuser=0&hl=en&rclk=1,"9.1221965,76.57365639999999"
Al khadiriyya masjid,Mosque,"4GXW+8GG Al khadiriyya masjid, Mangaram, Choonad, Kerala 690501",Mangaram,4GXW+8GG,Choonad,690501,Kerala,IN,https://www.google.com/maps/place/Al+khadiriyya+masjid/data=!4m7!3m6!1s0x3b061dc5babb6b15:0x7abb2c07128386bf!8m2!3d9.1483103!4d76.5463293!16s%2Fg%2F11rttrpm2t!19sChIJFWu7usUdBjsRv4aDEgcsu3o?authuser=0&hl=en&rclk=1,"9.1483103,76.5463293"
Masjidussalam kodalakkuzhi,Mosque,"Valiyaparamb, Masjidussalam kodalakkuzhi, Kayamkulam, Kerala 690502",,Valiyaparamb,Kayamkulam,,Kerala,IN,https://www.google.com/maps/place/Masjidussalam+kodalakkuzhi/data=!4m7!3m6!1s0x3b061d21d5947e35:0xce863b159084ec99!8m2!3d9.1748451!4d76.5012524!16s%2Fg%2F11fnsgvq2x!19sChIJNX6U1SEdBjsRmeyEkBU7hs4?authuser=0&hl=en&rclk=1,"9.174845099999999,76.5012524"
Juma masjid,Mosque,"5GF2+8H3 Juma masjid, Kayamkulam - Pathanapuram Rd, Kayamkulam, Kerala 690502",,"5GF2+8H3, Kayamkulam - Pathanapuram Rd",Kayamkulam,690502,Kerala,IN,https://www.google.com/maps/place/Juma+masjid/data=!4m7!3m6!1s0x3b061df49903f747:0xa36a35f9ffbe7d13!8m2!3d9.1732686!4d76.5014066!16s%2Fg%2F11h7zb5_kr!19sChIJR_cDmfQdBjsRE32-__k1aqM?authuser=0&hl=en&rclk=1,"9.1732686,76.5014066"
Pallikutty juma masjid Vallikunnam pllllikkurrrri jmaaatt msjid,Mosque,"4HCG+82Q Pallikutty juma masjid Vallikunnam pllllikkurrrri jmaaatt msjid, Vallikunnam, Kerala 690501",,4HCG+82Q,Vallikunnam,690501,Kerala,IN,https://www.google.com/maps/place/Pallikutty+juma+masjid+Vallikunnam+%E0%B4%AA%E0%B4%B3%E0%B5%8D%E0%B4%B3%E0%B4%BF%E0%B4%95%E0%B5%8D%E0%B4%95%E0%B5%81%E0%B4%B1%E0%B5%8D%E0%B4%B1%E0%B4%BF+%E0%B4%9C%E0%B4%AE%E0%B4%BE%E0%B4%85%E0%B4%A4%E0%B5%8D%E0%B4%A4%E0%B5%8D+%E0%B4%AE%E0%B4%B8%E0%B5%8D%E0%B4%9C%E0%B4%BF%E0%B4%A6%E0%B5%8D/data=!4m7!3m6!1s0x3b061b79e8209abd:0x1cb5e531cad54934!8m2!3d9.1208386!4d76.5751176!16s%2Fg%2F11n5w3mkx_!19sChIJvZog6HkbBjsRNEnVyjHltRw?authuser=0&hl=en&rclk=1,"9.120838599999999,76.5751176"
Bilal Masjid,Mosque,"4H7J+245 Bilal Masjid, Unnamed Road, Vallikunnam, Pavumba, Kerala 690501",,"4H7J+245, Unnamed Road","Vallikunnam, Pavumba",690501,Kerala,IN,https://www.google.com/maps/place/Bilal+Masjid/data=!4m7!3m6!1s0x3b061b47dfaff0cb:0xf32329ef8fc92bac!8m2!3d9.1125125!4d76.5803633!16s%2Fg%2F11fmnd572j!19sChIJy_Cv30cbBjsRrCvJj-8pI_M?authuser=0&hl=en&rclk=1,"9.1125125,76.5803633"
Madarasathul islamia MASJID,Mosque,"4GW6+9GV Madarasathul islamia MASJID, Krishnapuram, Kerala 690533",,4GW6+9GV,Krishnapuram,690533,Kerala,IN,https://www.google.com/maps/place/Madarasathul+islamia+MASJID/data=!4m7!3m6!1s0x3b061de7a1bf00df:0xa2156a88b45b9048!8m2!3d9.1460349!4d76.5113647!16s%2Fg%2F11t80knqmw!19sChIJ3wC_oecdBjsRSJBbtIhqFaI?authuser=0&hl=en&rclk=1,"9.1460349,76.5113647"
Hassaniya Jum'a Masjid (HHYS),Mosque,"5GH3+737 Hassaniya Jum'a Masjid (HHYS), Mukkavala, Kayamkulam, Kerala 690502",Mukkavala,5GH3+737,Kayamkulam,690502,Kerala,IN,https://www.google.com/maps/place/Hassaniya+Jum%27a+Masjid+%28HHYS%29/data=!4m7!3m6!1s0x3b061d65eb194a9b:0x4ea3ec57909d8023!8m2!3d9.1783665!4d76.5028329!16s%2Fg%2F11ss0g98yr!19sChIJm0oZ62UdBjsRI4CdkFfso04?authuser=0&hl=en&rclk=1,"9.1783665,76.5028329"
Kurungappally Masjid(Vavvakkavu Muslim Jama-ath),Mosque,"4G6M+GG8 Kurungappally Masjid(Vavvakkavu Muslim Jama-ath), Kulasekharapuram, Kottampally, Kerala 690526",,4G6M+GG8,"Kulasekharapuram, Kottampally",,Kerala,IN,https://www.google.com/maps/place/Kurungappally+Masjid%28Vavvakkavu+Muslim+Jama-ath%29/data=!4m7!3m6!1s0x3b0603249ffabba9:0x13de2bf16874e7e9!8m2!3d9.1112923!4d76.5338252!16s%2Fg%2F11h5mfshyy!19sChIJqbv6nyQDBjsR6ed0aPEr3hM?authuser=0&hl=en&rclk=1,"9.111292299999999,76.5338252"
Rifae masjid,Mosque,"4GR5+8JP Rifae masjid, Masjid Rd, Puthuppally, Kerala 690533",,"4GR5+8JP, Masjid Rd",Puthuppally,690533,Kerala,IN,https://www.google.com/maps/place/Rifae+masjid/data=!4m7!3m6!1s0x3b061d51d745900b:0x868db38d0557813f!8m2!3d9.140844!4d76.5090651!16s%2Fg%2F11hkkgw_27!19sChIJC5BF11EdBjsRP4FXBY2zjYY?authuser=0&hl=en&rclk=1,"9.140844,76.5090651"
Masjiduthaqwa,Mosque,"5FPP+4W5 Masjiduthaqwa, Panachamoodu Rd, Kareelakulangara, Kerala 690559",,"5FPP+4W5, Panachamoodu Rd",Kareelakulangara,690559,Kerala,IN,https://www.google.com/maps/place/Masjiduthaqwa/data=!4m7!3m6!1s0x3b061d0ff0c64da1:0xa9f61c3a0f5bfc1f!8m2!3d9.1852594!4d76.4873576!16s%2Fg%2F11j34d03pl!19sChIJoU3G8A8dBjsRH_xbDzoc9qk?authuser=0&hl=en&rclk=1,"9.1852594,76.4873576"
Town Masjid Manappally,Mosque,"4H4C+PHV Town Masjid Manappally, Manappally, Pavumba, Kerala 690523",,4H4C+PHV,"Manappally, Pavumba",,Kerala,IN,https://www.google.com/maps/place/Town+Masjid+Manappally/data=!4m7!3m6!1s0x3b0605ec53602c15:0x5f8fe34b947a5967!8m2!3d9.1068718!4d76.5714212!16s%2Fg%2F11s0jhzmt3!19sChIJFSxgU-wFBjsRZ1l6lEvjj18?authuser=0&hl=en&rclk=1,"9.1068718,76.5714212"
Darul Aman Masjid (Under-Clappana Muslim Jama-ath),Mosque,"4G38+GM Darul Aman Masjid (Under-Clappana Muslim Jama-ath), Kulasekharapuram, Kerala 690546",,4G38+GM,Kulasekharapuram,,Kerala,IN,https://www.google.com/maps/place/Darul+Aman+Masjid+%28Under-Clappana+Muslim+Jama-ath%29/data=!4m7!3m6!1s0x3b06031432a24299:0x36063a1e68e549c!8m2!3d9.1037682!4d76.5167321!16s%2Fg%2F11snw11crd!19sChIJmUKiMhQDBjsRnFSO5qFjYAM?authuser=0&hl=en&rclk=1,"9.1037682,76.5167321"
Quilar Masjid,Mosque,"3HQ7+RGR Quilar Masjid, Unnamed Road, Thazhava, Kerala 690523",,"3HQ7+RGR, Unnamed Road",Thazhava,690523,Kerala,IN,https://www.google.com/maps/place/Quilar+Masjid/data=!4m7!3m6!1s0x3b0605d9a0d298d5:0xb8b4450a8d2d5a50!8m2!3d9.0896109!4d76.5637808!16s%2Fg%2F11fd4k_0qj!19sChIJ1ZjSoNkFBjsRUFotjQpFtLg?authuser=0&hl=en&rclk=1,"9.0896109,76.5637808"
Muhyidheen masjid SSF payikkuzhi,Mosque,"4GG5+34R Muhyidheen masjid SSF payikkuzhi, Edayanambalam - Payikuzhi Rd, Oachira, Kerala 690546",,"4GG5+34R, Edayanambalam - Payikuzhi Rd",Oachira,690546,Kerala,IN,https://www.google.com/maps/place/Muhyidheen+masjid+SSF+payikkuzhi/data=!4m7!3m6!1s0x3b061d843d63e4bb:0x687558514db7f159!8m2!3d9.1252314!4d76.5077527!16s%2Fg%2F11tfgzf3p8!19sChIJu-RjPYQdBjsRWfG3TVFYdWg?authuser=0&hl=en&rclk=1,"9.125231399999999,76.5077527"
Mamoottil Masjid,Mosque,"5GMH+33M Mamoottil Masjid, Krishnapuram - Mavelikkara Rd, Peringala, Krishnapuram, Kayamkulam, Kerala 690503",Peringala,"5GMH+33M, Krishnapuram - Mavelikkara Rd","Krishnapuram, Kayamkulam",690503,Kerala,IN,https://www.google.com/maps/place/Mamoottil+Masjid/data=!4m7!3m6!1s0x3b061d24f1e234b3:0x499722ee713b6590!8m2!3d9.1827702!4d76.527471!16s%2Fg%2F11t3cwqzzm!19sChIJszTi8SQdBjsRkGU7ce4il0k?authuser=0&hl=en&rclk=1,"9.1827702,76.52747099999999"
Town Masjid,Mosque,"5JF5+V67 Town Masjid, Charummoodu, Kerala 690505",,5JF5+V67,Charummoodu,690505,Kerala,IN,https://www.google.com/maps/place/Town+Masjid/data=!4m7!3m6!1s0x3b061b33bf8a7eff:0x331657e49db7db38!8m2!3d9.1748938!4d76.6079768!16s%2Fg%2F11txs3jh5b!19sChIJ_36KvzMbBjsRONu3neRXFjM?authuser=0&hl=en&rclk=1,"9.1748938,76.6079768"
Masjid Taqwa manackadu ..E T ku ju,Mosque,"4HM4+C54 Masjid Taqwa manackadu ..E T ku ju, PO, Manakkad, Vallikunnam, Kerala 690501",,"4HM4+C54, PO","Manakkad, Vallikunnam",690501,Kerala,IN,https://www.google.com/maps/place/Masjid+Taqwa+manackadu+..E+T+ku+ju/data=!4m7!3m6!1s0x3b061b5da654b6c5:0x3f2274c0c3368525!8m2!3d9.1334793!4d76.5554498!16s%2Fg%2F11vl5780vl!19sChIJxbZUpl0bBjsRJYU2w8B0Ij8?authuser=0&hl=en&rclk=1,"9.1334793,76.55544979999999"
Juma'ath Masjid,Mosque,"5G82+VFM Juma'ath Masjid, Kayamkulam - Thiruvalla Hwy, Kayamkulam, Kerala 690502",,"5G82+VFM, Kayamkulam - Thiruvalla Hwy",Kayamkulam,690502,Kerala,IN,https://www.google.com/maps/place/Juma%27ath+Masjid/data=!4m7!3m6!1s0x3b061db2a1100001:0x7d9578055584c44c!8m2!3d9.1672166!4d76.5013545!16s%2Fg%2F11sscsg4km!19sChIJAQAQobIdBjsRTMSEVQV4lX0?authuser=0&hl=en&rclk=1,"9.1672166,76.50135449999999"
Shamsul Ulama Juma Masjid & Hifzul Qur'an College,Mosque,"5FRW+9GH Shamsul Ulama Juma Masjid & Hifzul Qur'an College, Cut Rd, Kareelakulangara, Kayamkulam, Kerala 690572",,"5FRW+9GH, Cut Rd","Kareelakulangara, Kayamkulam",690572,Kerala,IN,https://www.google.com/maps/place/Shamsul+Ulama+Juma+Masjid+%26+Hifzul+Qur%27an+College/data=!4m7!3m6!1s0x3b061de5b7434845:0x51c3d704fc36198a!8m2!3d9.1909443!4d76.4969438!16s%2Fg%2F11s1s65_b8!19sChIJRUhDt-UdBjsRihk2_ATXw1E?authuser=0&hl=en&rclk=1,"9.1909443,76.4969438"
Kannanakuzhy Muslim jama ath,Mosque,"5H46+CXC Kannanakuzhy Muslim jama ath, Kannanakuzhy, kannanakuzhy (po), alappuzha (dist, Kerala 690505",,"5H46+CXC, Kannanakuzhy, kannanakuzhy (po), alappuzha (dist",,690505,Kerala,IN,https://www.google.com/maps/place/Kannanakuzhy+Muslim+jama+ath/data=!4m7!3m6!1s0x3b061ba2017ef61d:0xcd91d1282387a0e1!8m2!3d9.1560713!4d76.5623837!16s%2Fg%2F11m_zh0_vz!19sChIJHfZ-AaIbBjsR4aCHIyjRkc0?authuser=0&hl=en&rclk=1,"9.156071299999999,76.5623837"
Jumah Masjid,Mosque,"5GH8+9MR Jumah Masjid, Peringala, Kayamkulam, Kerala 690502",Peringala,5GH8+9MR,Kayamkulam,,Kerala,IN,https://www.google.com/maps/place/Jumah+Masjid/data=!4m7!3m6!1s0x3b061d199a930663:0x31286a0fc400ca39!8m2!3d9.1784963!4d76.5166477!16s%2Fg%2F11rmnnzbsw!19sChIJYwaTmhkdBjsROcoAxA9qKDE?authuser=0&hl=en&rclk=1,"9.178496299999999,76.5166477"
Badariyya Masjid,Mosque,"Badariyya Masjid, p.o, Pallickal, Kinaru mukku, via, Ilippakulam, Indiapin, Kerala 690503",Ilippakulam,"p.o, Pallickal, Kinaru mukku, via",Indiapin,690503,Kerala,IN,https://www.google.com/maps/place/Badariyya+Masjid/data=!4m7!3m6!1s0x3b061d3939432a27:0x153d37809365a7df!8m2!3d9.1372099!4d76.5450197!16s%2Fg%2F11h_cr8gnd!19sChIJJypDOTkdBjsR36dlk4A3PRU?authuser=0&hl=en&rclk=1,"9.1372099,76.5450197"
Darussalam Masjid,Mosque,"4H83+4GP Darussalam Masjid, Kannimel East, Kanjirapuzha, Vallikunnam, Kerala 690501",Kannimel East,4H83+4GP,"Kanjirapuzha, Vallikunnam",,Kerala,IN,https://www.google.com/maps/place/Darussalam+Masjid/data=!4m7!3m6!1s0x3b061ba7675e4ec7:0x8891e1cd49feb3e6!8m2!3d9.1153327!4d76.5538297!16s%2Fg%2F11h2jx4fc5!19sChIJx05eZ6cbBjsR5rP-Sc3hkYg?authuser=0&hl=en&rclk=1,"9.1153327,76.5538297"
PUTHUYIDA JUMA MASJID,Mosque,"5G82+MJG PUTHUYIDA JUMA MASJID, Kayamkulam - Pathanapuram Rd, Puthiyidom, Kayamkulam, Kerala 690502",Puthiyidom,"5G82+MJG, Kayamkulam - Pathanapuram Rd",Kayamkulam,690502,Kerala,IN,https://www.google.com/maps/place/PUTHUYIDA+JUMA+MASJID/data=!4m7!3m6!1s0x3b061db2df16614f:0x448428ac29d5e5ef!8m2!3d9.1666892!4d76.501582!16s%2Fg%2F11tdqvb5wt!19sChIJT2EW37IdBjsR7-XVKawohEQ?authuser=0&hl=en&rclk=1,"9.1666892,76.501582"
Hidayathul islam mosque(knnnnaangkr taikkaav ),Mosque,"4HCC+HV8 Hidayathul islam mosque(knnnnaangkr taikkaav ), Kambissery, Vallikunnam, Kerala 690501",,4HCC+HV8,"Kambissery, Vallikunnam",690501,Kerala,IN,https://www.google.com/maps/place/Hidayathul+islam+mosque%28%E0%B4%95%E0%B4%A3%E0%B5%8D%E0%B4%A3%E0%B4%BE%E0%B4%99%E0%B5%8D%E0%B4%95%E0%B4%B0+%E0%B4%A4%E0%B5%88%E0%B4%95%E0%B5%8D%E0%B4%95%E0%B4%BE%E0%B4%B5%E0%B5%8D+%29/data=!4m7!3m6!1s0x3b061be4dfe2acd7:0xe399210d58e3e4bd!8m2!3d9.1213435!4d76.5721163!16s%2Fg%2F11s31xrmpp!19sChIJ16zi3-QbBjsRveTjWA0hmeM?authuser=0&hl=en&rclk=1,"9.1213435,76.57211629999999"
Markazul hidaya masjid,Mosque,"5F6W+HPF Markazul hidaya masjid, Kayamkulam, Kerala 690502",,5F6W+HPF,Kayamkulam,690502,Kerala,IN,https://www.google.com/maps/place/Markazul+hidaya+masjid/data=!4m7!3m6!1s0x3b061d7c26ea9545:0xddc0a07feffd6842!8m2!3d9.1614268!4d76.4968017!16s%2Fg%2F11stp4_yrc!19sChIJRZXqJnwdBjsRQmj973-gwN0?authuser=0&hl=en&rclk=1,"9.1614268,76.49680169999999"
Masjidul hidaya,Mosque,"4H45+Q75 Masjidul hidaya, Pavumba - Anayadi - Thamarakulam - Sooranad - Parakkadavu Rd, Thazhava, Kerala 690501",,"4H45+Q75, Pavumba - Anayadi - Thamarakulam - Sooranad - Parakkadavu Rd",Thazhava,690501,Kerala,IN,https://www.google.com/maps/place/Masjidul+hidaya/data=!4m7!3m6!1s0x3b060552498c6f77:0x4e82802c1d6d6f96!8m2!3d9.1068785!4d76.5582192!16s%2Fg%2F11r8bf2gd6!19sChIJd2-MSVIFBjsRlm9tHSyAgk4?authuser=0&hl=en&rclk=1,"9.106878499999999,76.5582192"
Dawah Masjid,Mosque,"3GJM+RPW Dawah Masjid, Puthiyakavu, Karunagappalli, Thazhava, Kerala 690544",Puthiyakavu,3GJM+RPW,"Karunagappalli, Thazhava",690544,Kerala,IN,https://www.google.com/maps/place/Dawah+Masjid/data=!4m7!3m6!1s0x3b060380c99389f7:0x3727731caf0c02c4!8m2!3d9.0821104!4d76.5343361!16s%2Fg%2F11ks16k3rr!19sChIJ94mTyYADBjsRxAIMrxxzJzc?authuser=0&hl=en&rclk=1,"9.0821104,76.53433609999999"
Pooyappally Masjid,Mosque,"3GVQ+6QP Pooyappally Masjid, Thazhava, Kerala 690523",,3GVQ+6QP,Thazhava,,Kerala,IN,https://www.google.com/maps/place/Pooyappally+Masjid/data=!4m7!3m6!1s0x3b0603aa506378ab:0x57d9c9535a07f047!8m2!3d9.0930774!4d76.5394578!16s%2Fg%2F11pvhqtdfq!19sChIJq3hjUKoDBjsRR_AHWlPJ2Vc?authuser=0&hl=en&rclk=1,"9.0930774,76.5394578"
Masjid al noor,Mosque,"5FRP+RMF Masjid al noor, Kottukulangara, Kareelakulangara, Kerala 690572",Kottukulangara,5FRP+RMF,Kareelakulangara,690572,Kerala,IN,https://www.google.com/maps/place/Masjid+al+noor/data=!4m7!3m6!1s0x3b061dce5091cc23:0x88ad53ee39f9c43e!8m2!3d9.192058!4d76.4866799!16s%2Fg%2F11txs0fc4b!19sChIJI8yRUM4dBjsRPsT5Oe5TrYg?authuser=0&hl=en&rclk=1,"9.192058,76.4866799"
Amarithara Masjid,Mosque,"4H37+5CC Amarithara Masjid, Manappally, Thazhava, Kerala 690523",,4H37+5CC,"Manappally, Thazhava",690523,Kerala,IN,https://www.google.com/maps/place/Amarithara+Masjid/data=!4m7!3m6!1s0x3b0605c36d0a0755:0xfde14d0b8bd75d7!8m2!3d9.102928!4d76.5635118!16s%2Fg%2F11s77t1ptc!19sChIJVQcKbcMFBjsR13W9uNAU3g8?authuser=0&hl=en&rclk=1,"9.102928,76.5635118"
Vellachakkarasheril juma masjid,Mosque,"5FXP+42V Vellachakkarasheril juma masjid, Kottukulangara, Kareelakulangara, Kerala 690572",Kottukulangara,5FXP+42V,Kareelakulangara,690572,Kerala,IN,https://www.google.com/maps/place/Vellachakkarasheril+juma+masjid/data=!4m7!3m6!1s0x3b061dc5f021fadf:0xf221808e59121cb2!8m2!3d9.1983484!4d76.4858039!16s%2Fg%2F11rr88jqhz!19sChIJ3_oh8MUdBjsRshwSWY6AIfI?authuser=0&hl=en&rclk=1,"9.1983484,76.4858039"
Masjid Al Ijaba,Mosque,"4J2Q+RX2 Masjid Al Ijaba, Sooranad North, Sooranad, Kerala 690522",Sooranad North,4J2Q+RX2,Sooranad,,Kerala,IN,https://www.google.com/maps/place/Masjid+Al+Ijaba/data=!4m7!3m6!1s0x3b0605d0b88e87c3:0xb8f424f3de96696!8m2!3d9.1020219!4d76.6399015!16s%2Fg%2F11kpgblxh9!19sChIJw4eOuNAFBjsRlmbpPU9Cjws?authuser=0&hl=en&rclk=1,"9.1020219,76.6399015"
Masjid Hidaya,Mosque,"5FQR+7GG Masjid Hidaya, Mavileth, Kareelakulangara, Kerala 690572",Mavileth,5FQR+7GG,Kareelakulangara,690572,Kerala,IN,https://www.google.com/maps/place/Masjid+Hidaya/data=!4m7!3m6!1s0x3b061d072518697d:0x2944bf8ffaea1f1f!8m2!3d9.1875608!4d76.4911797!16s%2Fg%2F11vkktqbck!19sChIJfWkYJQcdBjsRHx_q-o-_RCk?authuser=0&hl=en&rclk=1,"9.1875608,76.4911797"
Masjid al badriya,Mosque,"4HGW+HQ4 Masjid al badriya, Pavumba, Kerala 690574",,4HGW+HQ4,Pavumba,690574,Kerala,IN,https://www.google.com/maps/place/Masjid+al+badriya/data=!4m7!3m6!1s0x3b061bf545d4b69d:0xcd4463349e998b9f!8m2!3d9.1259553!4d76.5968576!16s%2Fg%2F11vc4dwhw_!19sChIJnbbURfUbBjsRn4uZnjRjRM0?authuser=0&hl=en&rclk=1,"9.1259553,76.59685759999999"
