name,main_category,address,address_ward,address_street,address_city,address_postal_code,address_state,address_country_code,link,coordinates
"Masjith Hasana , Sangu Nagar",Mosque,"8PH3+J5F Masjith Hasana , Sangu Nagar, Sangu Nagar Main Rd, 4th Street, Sangu Nagar, Palayapalayam, Erode, Tamil Nadu 638011","4th Street, Sangu Nagar","8PH3+J5F, Sangu Nagar Main Rd","Palayapalayam, Erode",638011,Tamil Nadu,IN,"https://www.google.com/maps/place/Masjith+Hasana+,+Sangu+Nagar/data=!4m7!3m6!1s0x3ba96f1e85415365:0x82bb16d082737ff7!8m2!3d11.3290665!4d77.70293!16s%2Fg%2F11cst0lg4s!19sChIJZVNBhR5vqTsR939zgtAWu4I?authuser=0&hl=en&rclk=1","11.3290665,77.70293"
TNTJ Erode - Thindal,Mosque,"8M99+Q4Q TNTJ Erode - Thindal, Pudhu Colony, Thindal, Tamil Nadu 638012",Maruthi Nagar,"8M99+Q4Q, Pudhu Colony","Thindal, Erode",638012,Tamil Nadu,IN,https://www.google.com/maps/place/TNTJ+Erode+-+Thindal/data=!4m7!3m6!1s0x3ba96e8fb2df3149:0x9b0a0f34822271cf!8m2!3d11.3194544!4d77.6678739!16s%2Fg%2F11dz08jt54!19sChIJSTHfso9uqTsRz3EigjQPCps?authuser=0&hl=en&rclk=1,"11.3194544,77.6678739"
Dawoodiyyah Masjid & Madrasah,Mosque,"Dawoodiyyah Masjid & Madrasah, Bhavani Main Rd, B P Agraharam, Erode, Tamil Nadu 638005",,Bhavani Main Rd,"B P Agraharam, Erode",638005,Tamil Nadu,IN,https://www.google.com/maps/place/Dawoodiyyah+Masjid+%26+Madrasah/data=!4m7!3m6!1s0x3ba968da68bacc85:0x613d7712f73ae801!8m2!3d11.3684569!4d77.7072477!16s%2Fg%2F1hm50_r58!19sChIJhcy6aNpoqTsRAeg69xJ3PWE?authuser=0&hl=en&rclk=1,"11.3684569,77.7072477"
Sulthanpet Markaz Masjid,Mosque,"8PVH+W6Q Sulthanpet Markaz Masjid, Sulthanpet St, Thirunagar Colony, Erode, Tamil Nadu 638001",,"8PVH+W6Q, Sulthanpet St","Thirunagar Colony, Erode",638001,Tamil Nadu,IN,https://www.google.com/maps/place/Sulthanpet+Markaz+Masjid/data=!4m7!3m6!1s0x3ba96f4675a8dd11:0x8727946fa8e3827a!8m2!3d11.3448272!4d77.7281105!16s%2Fg%2F11clydypgv!19sChIJEd2odUZvqTsReoLjqG-UJ4c?authuser=0&hl=en&rclk=1,"11.3448272,77.7281105"
Big Bazzar Masjid,Mosque,"8PRH+3J5 Big Bazzar Masjid, Marapalam, Erode, Tamil Nadu 638001",,8PRH+3J5,"Marapalam, Erode",638001,Tamil Nadu,IN,https://www.google.com/maps/place/Big+Bazzar+Masjid/data=!4m7!3m6!1s0x3ba96f43f181ad0d:0xbe3ed150d860fe5!8m2!3d11.340139!4d77.729101!16s%2Fg%2F1pyqkb1cp!19sChIJDa2B8UNvqTsR5Q-GDRXt4ws?authuser=0&hl=en&rclk=1,"11.340138999999999,77.729101"
Jannathul bakkiyath masjid,Mosque,"8PPJ+V2H Jannathul bakkiyath masjid, Azad Street, Nethaji Road, Marapalam, Surampattivalasu, Erode, Tamil Nadu 638001",Surampattivalasu,"8PPJ+V2H, Azad Street, Nethaji Road, Marapalam, Surampattivalasu",Erode,638001,Tamil Nadu,IN,https://www.google.com/maps/place/Jannathul+bakkiyath+masjid/data=!4m7!3m6!1s0x3ba96f424f6d86c7:0x1690f4da93811a14!8m2!3d11.3371848!4d77.7301222!16s%2Fg%2F1261lq21c!19sChIJx4ZtT0JvqTsRFBqBk9r0kBY?authuser=0&hl=en&rclk=1,"11.3371848,77.7301222"
Azeeziah Masjid,Mosque,"9PF4+5J8 Azeeziah Masjid, BP Agraharam, Erode, Tamil Nadu 638005",BP Agraharam,9PF4+5J8,Erode,638005,Tamil Nadu,IN,https://www.google.com/maps/place/Azeeziah+Masjid/data=!4m7!3m6!1s0x3ba968db8b36cfc3:0x46ac26913515b3f2!8m2!3d11.372901!4d77.706581!16s%2Fg%2F1pyqr654h!19sChIJw882i9toqTsR8rMVNZEmrEY?authuser=0&hl=en&rclk=1,"11.372900999999999,77.706581"
Railway Colony Masjid,Mosque,"8PJH+5CV Railway Colony Masjid, Railway Colony, Erode, Tamil Nadu 638002",Railway Colony,8PJH+5CV,Erode,638002,Tamil Nadu,IN,https://www.google.com/maps/place/Railway+Colony+Masjid/data=!4m7!3m6!1s0x3ba96f695b9c7a53:0xb7dc3d9ab899a9bc!8m2!3d11.3304996!4d77.7285558!16s%2Fg%2F11cfjd6_3!19sChIJU3qcW2lvqTsRvKmZuJo93Lc?authuser=0&hl=en&rclk=1,"11.3304996,77.7285558"
Jannathul Firdous Masjid,Mosque,"8PWJ+VHH Jannathul Firdous Masjid, SH 79, Lakshmi Narayan Nagar, Indra Nagar, Karungalpalayam, Erode, Tamil Nadu 638003","Lakshmi Narayan Nagar, Indra Nagar","8PWJ+VHH, SH 79","Karungalpalayam, Erode",638003,Tamil Nadu,IN,https://www.google.com/maps/place/Jannathul+Firdous+Masjid/data=!4m7!3m6!1s0x3ba96f4f9af79fd1:0x60ed1ff109957f31!8m2!3d11.3471966!4d77.7314875!16s%2Fg%2F124ylrp6b!19sChIJ0Z_3mk9vqTsRMX-VCfEf7WA?authuser=0&hl=en&rclk=1,"11.3471966,77.7314875"
Masjidun Noor | msjd nwr | nuur mcuuti |,Mosque,"Masjidun Noor | msjd nwr | nuur mcuuti |, Bungalow, Gandhiji Rd, Erode, Tamil Nadu 638001",CSI Institutions Campus,"Bungalow, Gandhiji Rd",Erode,638001,Tamil Nadu,IN,https://www.google.com/maps/place/Masjidun+Noor+%7C+%D9%85%D8%B3%D8%AC%D8%AF+%D9%86%D9%88%D8%B1+%7C+%E0%AE%A8%E0%AF%82%E0%AE%B0%E0%AF%8D+%E0%AE%AE%E0%AE%9A%E0%AF%82%E0%AE%A4%E0%AE%BF+%7C%E2%80%AD/data=!4m7!3m6!1s0x3ba96f41c0e31775:0xf4f850cf8c74473d!8m2!3d11.3360625!4d77.7258857!16s%2Fg%2F11g8lph56k!19sChIJdRfjwEFvqTsRPUd0jM9Q-PQ?authuser=0&hl=en&rclk=1,"11.336062499999999,77.72588569999999"
Al Hidhaya Masjid,Mosque,"8PW2+3RV Al Hidhaya Masjid, Manikampalayam Housing Unit, Erode, Tamil Nadu 638011",,8PW2+3RV,"Manikampalayam Housing Unit, Erode",638011,Tamil Nadu,IN,https://www.google.com/maps/place/Al+Hidhaya+Masjid/data=!4m7!3m6!1s0x3ba96f2878e3ad01:0x24600b8b990b9d75!8m2!3d11.3452271!4d77.7020349!16s%2Fg%2F1ptz2_b7g!19sChIJAa3jeChvqTsRdZ0LmYsLYCQ?authuser=0&hl=en&rclk=1,"11.345227099999999,77.7020349"
Masjid- E- Thaqva,Mosque,"Masjid- E- Thaqva, Vandikaaran Thottam, Kollampalayam, Erode, Tamil Nadu 638002",Vandikaaran Thottam,,"Kollampalayam, Erode",638002,Tamil Nadu,IN,https://www.google.com/maps/place/Masjid-+E-+Thaqva/data=!4m7!3m6!1s0x3ba96f01933b5505:0xeac32c3e6d647ae9!8m2!3d11.3268762!4d77.7360248!16s%2Fg%2F11g0kjbwdp!19sChIJBVU7kwFvqTsR6XpkbT4sw-o?authuser=0&hl=en&rclk=1,"11.3268762,77.7360248"
Masjidus Samadhiya,Mosque,"Masjidus Samadhiya, Main Road, Lakshmi Nagar, Kalingarayanpalayam, Bhavani, Erode, Tamil Nadu 638316","Lakshmi Nagar, Kalingarayanpalayam",Main Road,"Bhavani, Erode",638316,Tamil Nadu,IN,https://www.google.com/maps/place/Masjidus+Samadhiya/data=!4m7!3m6!1s0x3ba969079060d66d:0x7dfb62806da64d76!8m2!3d11.3994632!4d77.6900064!16s%2Fg%2F11gf981hmw!19sChIJbdZgkAdpqTsRdk2mbYBi-30?authuser=0&hl=en&rclk=1,"11.3994632,77.6900064"
Masjid e Noor,Mosque,"Masjid e Noor, 50, SH 37, Vinay Nagar, Railway Colony, Erode, Tamil Nadu 638002","Vinay Nagar, Railway Colony","50, SH 37",Erode,638002,Tamil Nadu,IN,https://www.google.com/maps/place/Masjid+e+Noor/data=!4m7!3m6!1s0x3ba96f725ad1e90b:0x272ef5b4f64e679d!8m2!3d11.3218796!4d77.7258662!16s%2Fg%2F11d_27dfms!19sChIJC-nRWnJvqTsRnWdO9rT1Lic?authuser=0&hl=en&rclk=1,"11.321879599999999,77.7258662"
TNTJ Erode - Sasthiri Nagar,Mosque,"8P99+7GP TNTJ Erode - Sasthiri Nagar, Sasthiri Nagar, Erode, Tamil Nadu 638002",Vignesh Nagar,"8P99+7GP, Sasthiri Nagar",Erode,638002,Tamil Nadu,IN,https://www.google.com/maps/place/TNTJ+Erode+-+Sasthiri+Nagar/data=!4m7!3m6!1s0x3ba96fd673a99e5f:0x984a0efb54700fd5!8m2!3d11.3182031!4d77.7188232!16s%2Fg%2F11ght1fl82!19sChIJX56pc9ZvqTsR1Q9wVPsOSpg?authuser=0&hl=en&rclk=1,"11.3182031,77.7188232"
Janathul Baqi Mosque,Mosque,"8PRJ+P66 Janathul Baqi Mosque, Marapalam, Erode, Tamil Nadu 638001",,8PRJ+P66,"Marapalam, Erode",638001,Tamil Nadu,IN,https://www.google.com/maps/place/Janathul+Baqi+Mosque/data=!4m7!3m6!1s0x3ba96ff0157c17a9:0x814919bd8cb2ecbe!8m2!3d11.3417976!4d77.7305121!16s%2Fg%2F11f6f_q6tc!19sChIJqRd8FfBvqTsRvuyyjL0ZSYE?authuser=0&hl=en&rclk=1,"11.3417976,77.7305121"
Darussalam Masjid,Mosque,"Darussalam Masjid, 99, Mettur Main Rd, Nachiyappa Colony, Kottai, Tamil Nadu 638001",Erode Fort,"99, Mettur Main Rd, Nachiyappa Colony, Kottai",Erode,638001,Tamil Nadu,IN,https://www.google.com/maps/place/Darussalam+Masjid/data=!4m7!3m6!1s0x3ba96fce6570ab8f:0x23cfe820b606c362!8m2!3d11.3458212!4d77.7192965!16s%2Fg%2F11s5p76yky!19sChIJj6twZc5vqTsRYsMGtiDozyM?authuser=0&hl=en&rclk=1,"11.3458212,77.7192965"
Subulussalaam Masjid(VVCR Nagar),Mosque,"8PVP+FQV Subulussalaam Masjid(VVCR Nagar), Manikundu, Marapalam, Erode, Tamil Nadu 638001",Manikundu,8PVP+FQV,"Marapalam, Erode",638001,Tamil Nadu,IN,https://www.google.com/maps/place/Subulussalaam+Masjid%28VVCR+Nagar%29/data=!4m7!3m6!1s0x3ba96f845bae59bd:0xba6a5784cd81fde6!8m2!3d11.3437477!4d77.7369207!16s%2Fg%2F11rn89tczn!19sChIJvVmuW4RvqTsR5v2BzYRXaro?authuser=0&hl=en&rclk=1,"11.3437477,77.7369207"
"Dawoodi Bohra Masjid, Erode",Mosque,"9P49+WJF Dawoodi Bohra Masjid, Erode, Vairapalayam, Erode, Tamil Nadu 638003",,9P49+WJF,"Vairapalayam, Erode",638003,Tamil Nadu,IN,"https://www.google.com/maps/place/Dawoodi+Bohra+Masjid,+Erode/data=!4m7!3m6!1s0x3ba969ed87559153:0x9931537099cc3b48!8m2!3d11.3570193!4d77.719622!16s%2Fg%2F11kqclhcv7!19sChIJU5FVh-1pqTsRSDvMmXBTMZk?authuser=0&hl=en&rclk=1","11.3570193,77.719622"
"Jamia Masjid, Erode",Mosque,"8PPJ+V3C Jamia Masjid, Erode, Court St, Surampattivalasu, Erode, Tamil Nadu 638001",Surampattivalasu,"8PPJ+V3C, Court St",Erode,,Tamil Nadu,IN,"https://www.google.com/maps/place/Jamia+Masjid,+Erode/data=!4m7!3m6!1s0x3ba96f5586967e6b:0xf05cee7ab30189e0!8m2!3d11.3371835!4d77.7301427!16s%2Fg%2F11g19vnsf8!19sChIJa36WhlVvqTsR4IkBs3ruXPA?authuser=0&hl=en&rclk=1","11.3371835,77.7301427"
