name,main_category,address,address_ward,address_street,address_city,address_postal_code,address_state,address_country_code,link,coordinates
"Furqan Masjid, Ahle Hadees",Mosque,"Furqan Masjid, Ahle Hadees, Excise Office, Road, Kodibag, Karwar, Karnataka 581301",Kodibag,"Excise Office, Road",Karwar,581301,Karnataka,IN,"https://www.google.com/maps/place/Furqan+Masjid,+Ahle+Hadees/data=!4m7!3m6!1s0x3bbe60b6970c21e7:0xe11727284fff1f0c!8m2!3d14.827572!4d74.130706!16s%2Fg%2F1hc6vd3rn!19sChIJ5yEMl7ZgvjsRDB__TygnF-E?authuser=0&hl=en&rclk=1","14.827572,74.130706"
Gafoori Jamiya Masjid Ahle Sunnat ul Jamat,Mosque,"R4FJ+JVM Gafoori Jamiya Masjid Ahle Sunnat ul Jamat, Kodibag, Karwar, Karnataka 581301",Kodibag,R4FJ+JVM,Karwar,581301,Karnataka,IN,https://www.google.com/maps/place/Gafoori+Jamiya+Masjid+Ahle+Sunnat+ul+Jamat/data=!4m7!3m6!1s0x3bbe60b62fb8d367:0xb49d15ebc89086ae!8m2!3d14.8240915!4d74.1321866!16s%2Fg%2F1tg8h5dg!19sChIJZ9O4L7ZgvjsRroaQyOsVnbQ?authuser=0&hl=en&rclk=1,"14.8240915,74.1321866"
Madina Jamia Masjid (Karwara),Mosque,"Madina Jamia Masjid (Karwara), madina jamia masjid, K e b road, Kodibag, Karwar, Karnataka 581301",Kodibag,"madina jamia masjid, K e b road",Karwar,581301,Karnataka,IN,https://www.google.com/maps/place/Madina+Jamia+Masjid+%28Karwara%29/data=!4m7!3m6!1s0x3bbe60d430a4e02d:0x296c47f35b95fcaf!8m2!3d14.8041744!4d74.1288992!16s%2Fg%2F11c5_fpbx0!19sChIJLeCkMNRgvjsRr_yVW_NHbCk?authuser=0&hl=en&rclk=1,"14.804174399999999,74.12889919999999"
Masjid Sayyadina Abubakr Siddique(R. Z) Tablighi jamat,Mosque,"R4CH+GXG Masjid Sayyadina Abubakr Siddique(R. Z) Tablighi jamat, Pinge Rd, Kajubagh, Jailwada, Karwar, Karnataka 581302","Kajubagh, Jailwada","R4CH+GXG, Pinge Rd",Karwar,581302,Karnataka,IN,https://www.google.com/maps/place/Masjid+Sayyadina+Abubakr+Siddique%28R.+Z%29+Tablighi+jamat/data=!4m7!3m6!1s0x3bbe60c98befb37d:0x3ed1990e4f305252!8m2!3d14.8213164!4d74.1299384!16s%2Fg%2F11c2qf_gqd!19sChIJfbPvi8lgvjsRUlIwTw6Z0T4?authuser=0&hl=en&rclk=1,"14.821316399999999,74.1299384"
Mohammadia Masjid Ahle Sunnat Jamat,Mosque,"R5R2+4H9 Mohammadia Masjid Ahle Sunnat Jamat, Sunkeri, Karwar, Karnataka 581305",Sunkeri,R5R2+4H9,Karwar,581305,Karnataka,IN,https://www.google.com/maps/place/Mohammadia+Masjid+Ahle+Sunnat+Jamat/data=!4m7!3m6!1s0x3bbe6099167a872f:0x97b6a21f8ec572dc!8m2!3d14.8402891!4d74.1514869!16s%2Fg%2F11cjj04k0l!19sChIJL4d6FplgvjsR3HLFjh-itpc?authuser=0&hl=en&rclk=1,"14.8402891,74.1514869"
Badi Masjid Ahle Sunnat we Jamaat,Mosque,"R5R5+64H Badi Masjid Ahle Sunnat we Jamaat, Sunkeri, Karwar, Karnataka",Sunkeri,R5R5+64H,Karwar,,Karnataka,IN,https://www.google.com/maps/place/Badi+Masjid+Ahle+Sunnat+we+Jamaat/data=!4m7!3m6!1s0x3bbe609b3e6d9c37:0xd9656cafb23982d6!8m2!3d14.8405555!4d74.157864!16s%2Fg%2F11dfkm_pc9!19sChIJN5xtPptgvjsR1oI5sq9sZdk?authuser=0&hl=en&rclk=1,"14.840555499999999,74.157864"
Beparimohalla Masjid,Mosque,"V43M+954 Beparimohalla Masjid, Sadashivgad, Karwar, Majali, Karnataka 581352",Sadashivgad,V43M+954,"Karwar, Majali",581352,Karnataka,IN,https://www.google.com/maps/place/Beparimohalla+Masjid/data=!4m7!3m6!1s0x3bbe5e04f51f0495:0x312df6bfa9155379!8m2!3d14.8533784!4d74.13295!16s%2Fg%2F1hf3gv08f!19sChIJlQQf9QRevjsReVMVqb_2LTE?authuser=0&hl=en&rclk=1,"14.853378399999999,74.13295"
Idrusia Masjid,Mosque,"Idrusia Masjid, Nakhuda Mohalla, Sadashivgad, Karwar, Karnataka 581352",Sadashivgad,Nakhuda Mohalla,Karwar,581352,Karnataka,IN,https://www.google.com/maps/place/Idrusia+Masjid/data=!4m7!3m6!1s0x3bbe5e00fe79ffc1:0x1d506e294103a500!8m2!3d14.8489201!4d74.1267943!16s%2Fg%2F1tmxc_wh!19sChIJwf95_gBevjsRAKUDQSluUB0?authuser=0&hl=en&rclk=1,"14.848920099999999,74.1267943"
Noorani Masjid,Mosque,"Q4PJ+4QJ Noorani Masjid, Binaga, Karnataka 581308",Binaga,Q4PJ+4QJ,,,Karnataka,IN,https://www.google.com/maps/place/Noorani+Masjid/data=!4m7!3m6!1s0x3bbe61f49306ac1d:0xbc9d7f1830b8bdb3!8m2!3d14.7853432!4d74.1318956!16s%2Fg%2F11gr3c56t1!19sChIJHawGk_RhvjsRs724MBh_nbw?authuser=0&hl=en&rclk=1,"14.7853432,74.1318956"
Jamiya Masjid,Mosque,"Jamiya Masjid, Nakhuda mohalla, Sadashivgad, Karwar, Karnataka 581352",Sadashivgad,Nakhuda mohalla,Karwar,581352,Karnataka,IN,https://www.google.com/maps/place/Jamiya+Masjid/data=!4m7!3m6!1s0x3bbe5e00af605553:0xbc80491af77a36c7!8m2!3d14.8505587!4d74.1244662!16s%2Fg%2F1td36pln!19sChIJU1VgrwBevjsRxzZ69xpJgLw?authuser=0&hl=en&rclk=1,"14.850558699999999,74.1244662"
Karwar sunni Muslim Association,Mosque,"R43J+75F Karwar sunni Muslim Association, Konekar Wada, Karwar, Karnataka 581301",Konekar Wada,R43J+75F,Karwar,581301,Karnataka,IN,https://www.google.com/maps/place/Karwar+sunni+Muslim+Association/data=!4m7!3m6!1s0x3bbe61128ac75991:0x9c0ac45c25752028!8m2!3d14.8031766!4d74.13041!16s%2Fg%2F11j0trjlgl!19sChIJkVnHihJhvjsRKCB1JVzECpw?authuser=0&hl=en&rclk=1,"14.803176599999999,74.13041"
Khabarstan Gafoori JAMIYA MASJID,Religious organization,"Khabarstan Gafoori JAMIYA MASJID, NH 66, service Road, opp Sagar Darshan, Karwar, Karnataka",,"NH 66, service Road, opp Sagar Darshan",Karwar,,Karnataka,IN,https://www.google.com/maps/place/Khabarstan+Gafoori+JAMIYA+MASJID/data=!4m7!3m6!1s0x3bbe60b376283a17:0xaa66cf00518a97c!8m2!3d14.8296962!4d74.1269281!16s%2Fg%2F11g8wp89zy!19sChIJFzoodrNgvjsRfKkYBfBspgo?authuser=0&hl=en&rclk=1,"14.829696199999999,74.1269281"
Arabi Madarasa,Mosque,"R43J+8WF Arabi Madarasa, Konekar Wada, Karwar, Karnataka 581301",Konekar Wada,R43J+8WF,Karwar,581301,Karnataka,IN,https://www.google.com/maps/place/Arabi+Madarasa/data=!4m7!3m6!1s0x3bbe61d039791b9d:0x122d7d5a7a2e81bb!8m2!3d14.8033154!4d74.1322894!16s%2Fg%2F11fn2yncvb!19sChIJnRt5OdBhvjsRu4Euelp9LRI?authuser=0&hl=en&rclk=1,"14.803315399999999,74.13228939999999"
MADINA JAMIA MASJID KARWAR,School,"R44G+CJV MADINA JAMIA MASJID KARWAR, SH 6, Kodibag, Karwar, Karnataka 581301",Kodibag,"R44G+CJV, SH 6",Karwar,581301,Karnataka,IN,https://www.google.com/maps/place/MADINA+JAMIA+MASJID+KARWAR/data=!4m7!3m6!1s0x3bbe61f68a77d93b:0xdb38c9d7bd75b697!8m2!3d14.8061196!4d74.126562!16s%2Fg%2F11h4g85cp8!19sChIJO9l3ivZhvjsRl7Z1vdfJONs?authuser=0&hl=en&rclk=1,"14.806119599999999,74.12656199999999"
Madni Arabi Mosque,Mosque,"R45H+PQ8 Madni Arabi Mosque, Kodibag, Karwar, Karnataka 581301",Kodibag,R45H+PQ8,Karwar,581301,Karnataka,IN,https://www.google.com/maps/place/Madni+Arabi+Mosque/data=!4m7!3m6!1s0x3bbe61257470a425:0xad968420b3c2f2b7!8m2!3d14.8092991!4d74.1294581!16s%2Fg%2F11h84m21_9!19sChIJJaRwdCVhvjsRt_LCsyCElq0?authuser=0&hl=en&rclk=1,"14.809299099999999,74.1294581"
Muslim madrasa,Mosque,"R43J+5MC Muslim madrasa, Konekar Wada, Karwar, Karnataka 581301",Konekar Wada,R43J+5MC,Karwar,581301,Karnataka,IN,https://www.google.com/maps/place/Muslim+madrasa/data=!4m7!3m6!1s0x3bbe61dfd5bebb61:0x92f7215072356693!8m2!3d14.8029265!4d74.1316398!16s%2Fg%2F11q1t25136!19sChIJYbu-1d9hvjsRk2Y1clAh95I?authuser=0&hl=en&rclk=1,"14.8029265,74.1316398"
Wagle Wada Mosque,Mosque,"R5G2+VXX Wagle Wada Mosque, Wagle Wada, Karwar, Karnataka 581305",Wagle Wada,R5G2+VXX,Karwar,581305,Karnataka,IN,https://www.google.com/maps/place/Wagle+Wada+Mosque/data=!4m7!3m6!1s0x3bbe6178bd558ea3:0x2ac3a562c1bdbe4a!8m2!3d14.8272281!4d74.1524725!16s%2Fg%2F11h8b9swq2!19sChIJo45VvXhhvjsRSr69wWKlwyo?authuser=0&hl=en&rclk=1,"14.8272281,74.1524725"
Quran Madarasa,Mosque,"R43J+727 Quran Madarasa, Konekar Wada, Karwar, Karnataka 581301",Konekar Wada,R43J+727,Karwar,581301,Karnataka,IN,https://www.google.com/maps/place/Quran+Madarasa/data=!4m7!3m6!1s0x3bbe61f91480277b:0xba616cd82542e79c!8m2!3d14.803163!4d74.1300408!16s%2Fg%2F11h8bhfh41!19sChIJeyeAFPlhvjsRnOdCJdhsYbo?authuser=0&hl=en&rclk=1,"14.803163,74.1300408"
Noorani Jamiya Masjid Ahle Sunnat-Ul-Jamat,Mosque,"Q4MG+9CF Noorani Jamiya Masjid Ahle Sunnat-Ul-Jamat, Binaga, Karnataka 581308",Binaga,Q4MG+9CF,,581308,Karnataka,IN,https://www.google.com/maps/place/Noorani+Jamiya+Masjid+Ahle+Sunnat-Ul-Jamat/data=!4m7!3m6!1s0x3bbe61b83462435f:0xfefceb48d7e80971!8m2!3d14.7834277!4d74.1260452!16s%2Fg%2F11ty6pdqdt!19sChIJX0NiNLhhvjsRcQno10jr_P4?authuser=0&hl=en&rclk=1,"14.783427699999999,74.1260452"
