name,main_category,address,address_ward,address_street,address_city,address_postal_code,address_state,address_country_code,link,coordinates
AHLE-HADITH MASJID,Mosque,"23R4+R7Q AHLE-HADITH MASJID, Daltenganj, Medininagar, Jharkhand 822101",Daltenganj,23R4+R7Q,Medininagar,822101,Jharkhand,IN,https://www.google.com/maps/place/AHLE-HADITH+MASJID/data=!4m7!3m6!1s0x398c763267dfb215:0xde401fa5b04e43b2!8m2!3d24.0420773!4d84.0557189!16s%2Fg%2F11ddx4v4w0!19sChIJFbLfZzJ2jDkRskNOsKUfQN4?authuser=0&hl=en&rclk=1,"24.0420773,84.0557189"
Choti Masjid,Mosque,"23R5+RR7 Choti Masjid, Daltenganj, Medininagar, Jharkhand 822101",Daltenganj,23R5+RR7,Medininagar,822101,Jharkhand,IN,https://www.google.com/maps/place/Choti+Masjid/data=!4m7!3m6!1s0x398c77cd48de2cd3:0xeade8b31f81d6c9c!8m2!3d24.0420402!4d84.0595347!16s%2Fg%2F1hc6kjy4p!19sChIJ0yzeSM13jDkRnGwd-DGL3uo?authuser=0&hl=en&rclk=1,"24.0420402,84.0595347"
Madina Masjid,Mosque,"23R4+PF7 Madina Masjid, Daltenganj, Medininagar, Jharkhand 822101",Daltenganj,23R4+PF7,Medininagar,822101,Jharkhand,IN,https://www.google.com/maps/place/Madina+Masjid/data=!4m7!3m6!1s0x398c763263d0600d:0xcdc93ddb044ec58!8m2!3d24.0417849!4d84.0561856!16s%2Fg%2F11c44qx945!19sChIJDWDQYzJ2jDkRWOxEsN2T3Aw?authuser=0&hl=en&rclk=1,"24.0417849,84.05618559999999"
Noori Masjid,Mosque,"23W4+226 Noori Masjid, Daltenganj, Medininagar, Jharkhand 822101",Daltenganj,23W4+226,Medininagar,822101,Jharkhand,IN,https://www.google.com/maps/place/Noori+Masjid/data=!4m7!3m6!1s0x398c763395e542ad:0x85d24882c0949def!8m2!3d24.0450479!4d84.0550007!16s%2Fg%2F11c5stcz92!19sChIJrULllTN2jDkR752UwIJI0oU?authuser=0&hl=en&rclk=1,"24.0450479,84.0550007"
MILLAT MASJID,Mosque,"23W5+M2J MILLAT MASJID, Daltenganj, Medininagar, Jharkhand 822101",Daltenganj,23W5+M2J,Medininagar,822101,Jharkhand,IN,https://www.google.com/maps/place/MILLAT+MASJID/data=!4m7!3m6!1s0x398c76349e2276c1:0x4ac8e6b7631c5040!8m2!3d24.046708!4d84.0575081!16s%2Fg%2F11g8y9qm7c!19sChIJwXYinjR2jDkRQFAcY7fmyEo?authuser=0&hl=en&rclk=1,"24.046708,84.05750809999999"
TAIBAH MASJID,Mosque,"22HX+V98 TAIBAH MASJID, Shahpur, Jharkhand 822110",,22HX+V98,Shahpur,822110,Jharkhand,IN,https://www.google.com/maps/place/TAIBAH+MASJID/data=!4m7!3m6!1s0x398c762809fe6fbd:0x153e32e9096839b!8m2!3d24.0296534!4d84.0484675!16s%2Fg%2F11csqh9fk4!19sChIJvW_-CSh2jDkRm4OWkC7jUwE?authuser=0&hl=en&rclk=1,"24.029653399999997,84.0484675"
Gaushiya Masjid,Mosque,"22PX+7WJ Gaushiya Masjid, Shahpur, Jharkhand 822110",,22PX+7WJ,Shahpur,,Jharkhand,IN,https://www.google.com/maps/place/Gaushiya+Masjid/data=!4m7!3m6!1s0x398c762f40a5d313:0xd691e557fdec55b3!8m2!3d24.0357044!4d84.049759!16s%2Fg%2F11hd1llfld!19sChIJE9OlQC92jDkRs1Xs_VflkdY?authuser=0&hl=en&rclk=1,"24.0357044,84.049759"
Jama Masjid,Mosque,"23R7+45R Jama Masjid, chhah mohan chowk, Daltenganj, Medininagar, Jharkhand 822101",Daltenganj,"23R7+45R, chhah mohan chowk",Medininagar,822101,Jharkhand,IN,https://www.google.com/maps/place/Jama+Masjid/data=!4m7!3m6!1s0x398c77d27294d24f:0x456a97344b899519!8m2!3d24.0403551!4d84.0628783!16s%2Fg%2F1tdwt26g!19sChIJT9KUctJ3jDkRGZWJSzSXakU?authuser=0&hl=en&rclk=1,"24.0403551,84.0628783"
Hera Masjid,Mosque,"23H9+XHF Hera Masjid, Belwatika, Medininagar, Jharkhand 822101",Belwatika,23H9+XHF,Medininagar,822101,Jharkhand,IN,https://www.google.com/maps/place/Hera+Masjid/data=!4m7!3m6!1s0x398c77d7fad332d7:0x1bbe625be62effa7!8m2!3d24.0299412!4d84.0689358!16s%2Fg%2F11cssnbdwl!19sChIJ1zLT-td3jDkRp_8u5ltivhs?authuser=0&hl=en&rclk=1,"24.0299412,84.06893579999999"
Al-Qasim Masjid,Mosque,"23M8+42X Al-Qasim Masjid, Nawatoli, Belwatika, Medininagar, Jharkhand 822101","Nawatoli, Belwatika",23M8+42X,Medininagar,822101,Jharkhand,IN,https://www.google.com/maps/place/Al-Qasim+Masjid/data=!4m7!3m6!1s0x398c77d68fcfd627:0xaa97c12c9f813bb4!8m2!3d24.0328628!4d84.0651056!16s%2Fg%2F11c764tyfw!19sChIJJ9bPj9Z3jDkRtDuBnyzBl6o?authuser=0&hl=en&rclk=1,"24.0328628,84.0651056"
Bansdih masjid,Mosque,"3287+54R Bansdih masjid, Tintolwa Road, Bansdih, Jharkhand 822110",,"3287+54R, Tintolwa Road",Bansdih,822110,Jharkhand,IN,https://www.google.com/maps/place/Bansdih+masjid/data=!4m7!3m6!1s0x398c756da4eb93e9:0xcca6ee6c38277dd0!8m2!3d24.0654868!4d84.0127699!16s%2Fg%2F11fn04t_6c!19sChIJ6ZPrpG11jDkR0H0nOGzupsw?authuser=0&hl=en&rclk=1,"24.0654868,84.0127699"
Badi Masjid,Mosque,"228C+G3Q Badi Masjid, Neura, Jharkhand 822110",,228C+G3Q,Neura,822110,Jharkhand,IN,https://www.google.com/maps/place/Badi+Masjid/data=!4m7!3m6!1s0x398b89f9db29745d:0x755670b102560a93!8m2!3d24.0163297!4d84.0202235!16s%2Fg%2F11hbvv7cbb!19sChIJXXQp2_mJizkRkwpWArFwVnU?authuser=0&hl=en&rclk=1,"24.0163297,84.0202235"
Jama Masjid Darji Muhalla Chainpur,Mosque,"226W+74J Jama Masjid Darji Muhalla Chainpur, Chainpur, Jharkhand 822110",,226W+74J,Chainpur,822110,Jharkhand,IN,https://www.google.com/maps/place/Jama+Masjid+Darji+Muhalla+Chainpur/data=!4m7!3m6!1s0x398b89c4280c0751:0x642b435c64aacd22!8m2!3d24.0107135!4d84.0452728!16s%2Fg%2F11gg3hdccn!19sChIJUQcMKMSJizkRIs2qZFxDK2Q?authuser=0&hl=en&rclk=1,"24.010713499999998,84.04527279999999"
Masjid-e-hamadiya Qadriya,Mosque,"227V+RPQ Masjid-e-hamadiya Qadriya, Palamu, Jharkhand 822110",,"227V+RPQ, Palamu",,822110,Jharkhand,IN,https://www.google.com/maps/place/Masjid-e-hamadiya+Qadriya/data=!4m7!3m6!1s0x398b89c493bcecc1:0x7be6b5b4307f28f4!8m2!3d24.0145769!4d84.0443733!16s%2Fg%2F11dxnwcfps!19sChIJwey8k8SJizkR9Ch_MLS15ns?authuser=0&hl=en&rclk=1,"24.014576899999998,84.04437329999999"
MASJID E RAHIMIYA SHAHPUR,Mosque,"23H3+X7R MASJID E RAHIMIYA SHAHPUR, Shahpur, Jharkhand 822110",,23H3+X7R,Shahpur,822110,Jharkhand,IN,https://www.google.com/maps/place/MASJID+E+RAHIMIYA+SHAHPUR/data=!4m7!3m6!1s0x398c7629f286622b:0x47d05eb929bf4781!8m2!3d24.0299965!4d84.0531362!16s%2Fg%2F11dxl4d0s_!19sChIJK2KG8il2jDkRgUe_Kble0Ec?authuser=0&hl=en&rclk=1,"24.0299965,84.0531362"
Madrasa Ajimiya Kalamiya,Mosque,"23H9+XJ3 Madrasa Ajimiya Kalamiya, Belwatika, Medininagar, Jharkhand 822101",Belwatika,23H9+XJ3,Medininagar,822101,Jharkhand,IN,https://www.google.com/maps/place/Madrasa+Ajimiya+Kalamiya/data=!4m7!3m6!1s0x398c77d7fb1bcf43:0xfa973f18cfecd09a!8m2!3d24.0298863!4d84.0690468!16s%2Fg%2F11dxdj2l1d!19sChIJQ88b-9d3jDkRmtDszxg_l_o?authuser=0&hl=en&rclk=1,"24.029886299999998,84.0690468"
Masjid Imamia Quadriya,Mosque,"23J3+G79 Masjid Imamia Quadriya, Imamiya Muhalla Shahpur, Shahpur, Jharkhand",,"23J3+G79, Imamiya Muhalla Shahpur",Shahpur,,Jharkhand,IN,https://www.google.com/maps/place/Masjid+Imamia+Quadriya/data=!4m7!3m6!1s0x398c77fa7cba3b6d:0x4778369def7ca1f6!8m2!3d24.0312781!4d84.0532399!16s%2Fg%2F11gvzb1bxv!19sChIJbTu6fPp3jDkR9qF87502eEc?authuser=0&hl=en&rclk=1,"24.031278099999998,84.0532399"
Masjid-E-Raza kalyanpur,Mosque,"2378+Q96 Masjid-E-Raza kalyanpur, Kaleyanpur, Jharkhand 822110",,2378+Q96,Kaleyanpur,822110,Jharkhand,IN,https://www.google.com/maps/place/Masjid-E-Raza+kalyanpur/data=!4m7!3m6!1s0x398b898dee78fa2d:0x6ee2f87975cc151d!8m2!3d24.0144009!4d84.0659006!16s%2Fg%2F11h0_6h2bz!19sChIJLfp47o2JizkRHRXMdXn44m4?authuser=0&hl=en&rclk=1,"24.0144009,84.06590059999999"
MASJID,Mosque,"237W+FX6 MASJID, Chianki, Jharkhand 822102",,237W+FX6,Chianki,,Jharkhand,IN,https://www.google.com/maps/place/MASJID/data=!4m7!3m6!1s0x398b89f02e395e09:0x110eb0b3c0410a86!8m2!3d24.013668!4d84.097377!16s%2Fg%2F11fszlry53!19sChIJCV45LvCJizkRhgpBwLOwDhE?authuser=0&hl=en&rclk=1,"24.013668,84.097377"
Pokhraha Masjid,Mosque,"24X5+XMH Pokhraha Masjid, Pokhraha Khurd, Jharkhand 822101",,24X5+XMH,Pokhraha Khurd,822101,Jharkhand,IN,https://www.google.com/maps/place/Pokhraha+Masjid/data=!4m7!3m6!1s0x398c79c8d637346d:0x4647d31c3d0402d2!8m2!3d24.0488557!4d84.1090347!16s%2Fg%2F11thj_x2hk!19sChIJbTQ31sh5jDkR0gIEPRzTR0Y?authuser=0&hl=en&rclk=1,"24.048855699999997,84.1090347"
Masjid-e-raza qadri nagar(dhawatand),Mosque,"Masjid-e-raza qadri nagar(dhawatand), Qadri nagar(dhawatand) paneribandh, shahpur, Medininagar, Jharkhand 822110",shahpur,Qadri nagar(dhawatand) paneribandh,"Medininagar, Jhariwa",822110,Jharkhand,IN,https://www.google.com/maps/place/Masjid-e-raza+qadri+nagar%28dhawatand%29/data=!4m7!3m6!1s0x398c77f40e3cb125:0x1659bd1c114f78b6!8m2!3d24.0343947!4d84.0377125!16s%2Fg%2F11ptrcw_wf!19sChIJJbE8DvR3jDkRtnhPERy9WRY?authuser=0&hl=en&rclk=1,"24.0343947,84.0377125"
Madina Masjid,Computer support and services,"Madina Masjid, Thana Road, Medininagar, Jharkhand 822101",Daltenganj,Thana Road,Medininagar,822101,Jharkhand,IN,https://www.google.com/maps/place/Madina+Masjid/data=!4m7!3m6!1s0x398c7740f0729a81:0x19cd76a6f0a9f8b9!8m2!3d24.040654!4d84.0626203!16s%2Fg%2F11tk4y2wc1!19sChIJgZpy8EB3jDkRufip8KZ2zRk?authuser=0&hl=en&rclk=1,"24.040654,84.06262029999999"
