name,main_category,address,address_ward,address_street,address_city,address_postal_code,address_state,address_country_code,link,coordinates
phool masjid Ghati kuwa,Mosque,"5V36+5C6 phool masjid Ghati kuwa, Ghati kuwa, Sabalpura, Kuchaman City, Rajasthan 341508",Sabalpura,"5V36+5C6, Ghati kuwa",Kuchaman City,341508,Rajasthan,IN,https://www.google.com/maps/place/phool+masjid+Ghati+kuwa/data=!4m7!3m6!1s0x396b79254a1ee561:0x4bd5567dabf69ae0!8m2!3d27.1529194!4d74.8610244!16s%2Fg%2F11c20d2bgd!19sChIJYeUeSiV5azkR4Jr2q31W1Us?authuser=0&hl=en&rclk=1,"27.1529194,74.86102439999999"
Luhariya Bass,Housing society,"4VW4+6J3 Luhariya Bass, Kuchaman City, Rajasthan 341508",,4VW4+6J3,Kuchaman City,341508,Rajasthan,IN,https://www.google.com/maps/place/Luhariya+Bass/data=!4m7!3m6!1s0x396b7921354b2f2d:0xb11484064661eb30!8m2!3d27.1455218!4d74.856559!16s%2Fg%2F11_q1qzbp!19sChIJLS9LNSF5azkRMOthRgaEFLE?authuser=0&hl=en&rclk=1,"27.145521799999997,74.85655899999999"
Khan Mohallah Masjid,Mosque,"5V46+PCP Khan Mohallah Masjid, Kuchaman City, Rajasthan 341508",,5V46+PCP,Kuchaman City,341508,Rajasthan,IN,https://www.google.com/maps/place/Khan+Mohallah+Masjid/data=!4m7!3m6!1s0x396b793a67d82973:0xa4da205ce762c6a9!8m2!3d27.1568477!4d74.8610834!16s%2Fg%2F11csb3jl3k!19sChIJcynYZzp5azkRqcZi51wg2qQ?authuser=0&hl=en&rclk=1,"27.1568477,74.8610834"
masjid luharan,Mosque,"4VW4+6RP masjid luharan, Kuchaman City, Rajasthan 341508",,4VW4+6RP,Kuchaman City,341508,Rajasthan,IN,https://www.google.com/maps/place/masjid+luharan/data=!4m7!3m6!1s0x396b7926c9c92ba5:0xb1d724100715ad99!8m2!3d27.1455875!4d74.8570762!16s%2Fg%2F11csb2zkky!19sChIJpSvJySZ5azkRma0VBxAk17E?authuser=0&hl=en&rclk=1,"27.145587499999998,74.8570762"
TAKIYA MASJID,Mosque,"5V48+G67 TAKIYA MASJID, GULZARPURA, Kuchaman City, Rajasthan 341508",Sabalpura,"5V48+G67, GULZARPURA",Kuchaman City,341508,Rajasthan,IN,https://www.google.com/maps/place/TAKIYA+MASJID/data=!4m7!3m6!1s0x396b7931ab8790bf:0x6367ae3484eb7e77!8m2!3d27.1562761!4d74.8655533!16s%2Fg%2F11gc9gz62b!19sChIJv5CHqzF5azkRd37rhDSuZ2M?authuser=0&hl=en&rclk=1,"27.1562761,74.8655533"
Mustafa Masjid,Mosque,"5V38+PHF Mustafa Masjid, Prajapati Colony, Sabalpura, Kuchaman City, Rajasthan 341508","Prajapati Colony, Sabalpura",5V38+PHF,Kuchaman City,341508,Rajasthan,IN,https://www.google.com/maps/place/Mustafa+Masjid/data=!4m7!3m6!1s0x396b7931931b11a9:0x7e9fec180aa5b24d!8m2!3d27.1543072!4d74.8664077!16s%2Fg%2F11c30_s123!19sChIJqREbkzF5azkRTbKlChjsn34?authuser=0&hl=en&rclk=1,"27.154307199999998,74.8664077"
"EidGaah, Khan Mohalla",Mosque,"5V56+6H8 EidGaah, Khan Mohalla, Kuchaman City, Rajasthan 341508",,5V56+6H8,Kuchaman City,341508,Rajasthan,IN,"https://www.google.com/maps/place/EidGaah,+Khan+Mohalla/data=!4m7!3m6!1s0x396b793a1170f7f5:0xf80c3000b3d19c07!8m2!3d27.1580281!4d74.8614616!16s%2Fg%2F11by_f7s49!19sChIJ9fdwETp5azkRB5zRswAwDPg?authuser=0&hl=en&rclk=1","27.1580281,74.8614616"
Baba Hader Ali Dargah,Mosque,"4VV3+J2X Baba Hader Ali Dargah, Kuchaman City, Rajasthan 341508",,4VV3+J2X,Kuchaman City,341508,Rajasthan,IN,https://www.google.com/maps/place/Baba+Hader+Ali+Dargah/data=!4m7!3m6!1s0x396b7921b1597c8f:0x3bb5e436719cf40!8m2!3d27.1441089!4d74.8526001!16s%2Fg%2F11_rxxl1l!19sChIJj3xZsSF5azkRQM8ZZ0NeuwM?authuser=0&hl=en&rclk=1,"27.1441089,74.8526001"
Chhoti Eid Gah,Mosque,"4VV2+JV9 Chhoti Eid Gah, Kuchaman City, Rajasthan 341508",,4VV2+JV9,Kuchaman City,341508,Rajasthan,IN,https://www.google.com/maps/place/Chhoti+Eid+Gah/data=!4m7!3m6!1s0x396b7921b5e28d07:0x510e9a0bbd4b046f!8m2!3d27.144042!4d74.85223!16s%2Fg%2F11_tr5hsk!19sChIJB43itSF5azkRbwRLvQuaDlE?authuser=0&hl=en&rclk=1,"27.144042,74.85222999999999"
Madina Masjid,Mosque,"5V28+CCW Madina Masjid, Sabalpura, Kuchaman City, Rajasthan 341508",Sabalpura,5V28+CCW,Kuchaman City,341508,Rajasthan,IN,https://www.google.com/maps/place/Madina+Masjid/data=!4m7!3m6!1s0x396b797eb7706b0b:0xed6f080e24f393dc!8m2!3d27.1511041!4d74.8660712!16s%2Fg%2F11j0k62vzv!19sChIJC2twt355azkR3JPzJA4Ib-0?authuser=0&hl=en&rclk=1,"27.151104099999998,74.8660712"
Nurani Masjid,Mosque,"5V39+HF5 Nurani Masjid, vyapari mohalla, Kuchaman City, Rajasthan 341508",Prajapati Colony,"5V39+HF5, vyapari mohalla",Kuchaman City,341508,Rajasthan,IN,https://www.google.com/maps/place/Nurani+Masjid/data=!4m7!3m6!1s0x396b792df93e4d07:0xb1448da7ea6a6eb1!8m2!3d27.1538768!4d74.8687278!16s%2Fg%2F11dxsdtcm1!19sChIJB00--S15azkRsW5q6qeNRLE?authuser=0&hl=en&rclk=1,"27.1538768,74.8687278"
Masjid Teliyan,Mosque,"4VW4+RR2 Masjid Teliyan, Kuchaman City, Rajasthan 341508",,4VW4+RR2,Kuchaman City,341508,Rajasthan,IN,https://www.google.com/maps/place/Masjid+Teliyan/data=!4m7!3m6!1s0x396b7908453e6293:0x8ad6b741e94241a4!8m2!3d27.1470029!4d74.8570156!16s%2Fg%2F11gy496src!19sChIJk2I-RQh5azkRpEFC6UG31oo?authuser=0&hl=en&rclk=1,"27.1470029,74.8570156"
Niyariya Imam Chowk,Place of worship,"4VW4+5MH Niyariya Imam Chowk, Kuchaman City, Rajasthan 341508",,4VW4+5MH,Kuchaman City,341508,Rajasthan,IN,https://www.google.com/maps/place/Niyariya+Imam+Chowk/data=!4m7!3m6!1s0x396b7911d2ad2c39:0xceb1e2b502e7452b!8m2!3d27.1454373!4d74.8567457!16s%2Fg%2F11t7njccsr!19sChIJOSyt0hF5azkRK0XnArXisc4?authuser=0&hl=en&rclk=1,"27.145437299999998,74.85674569999999"
Sulaimaniya Masjid,Mosque,"4VW4+GGV Sulaimaniya Masjid, Kuchaman City, Rajasthan 341508",,4VW4+GGV,Kuchaman City,341508,Rajasthan,IN,https://www.google.com/maps/place/Sulaimaniya+Masjid/data=!4m7!3m6!1s0x396b79a176e33839:0xc3cee6cfd07b761e!8m2!3d27.1463549!4d74.8563014!16s%2Fg%2F11s5gjl8_t!19sChIJOTjjdqF5azkRHnZ70M_mzsM?authuser=0&hl=en&rclk=1,"27.1463549,74.85630139999999"
Luhariya Bass Kabristaan,Mosque,"4VV3+M7H Luhariya Bass Kabristaan, Kuchaman City, Rajasthan 341508",,4VV3+M7H,Kuchaman City,341508,Rajasthan,IN,https://www.google.com/maps/place/Luhariya+Bass+Kabristaan/data=!4m7!3m6!1s0x396b79dd97a4f411:0x4ee63ae6411cafdd!8m2!3d27.1441876!4d74.8532428!16s%2Fg%2F11ll47qt58!19sChIJEfSkl915azkR3a8cQeY65k4?authuser=0&hl=en&rclk=1,"27.1441876,74.85324279999999"
Chhipa masjid,Mosque,"5V37+G55 Chhipa masjid, Sabalpura, Kuchaman City, Rajasthan 341508",Sabalpura,5V37+G55,Kuchaman City,341508,Rajasthan,IN,https://www.google.com/maps/place/Chhipa+masjid/data=!4m7!3m6!1s0x396b7989e52a3c51:0x7caa2cb04e2e9d1a!8m2!3d27.1537568!4d74.8629806!16s%2Fg%2F11k4swl083!19sChIJUTwq5Yl5azkRGp0uTrAsqnw?authuser=0&hl=en&rclk=1,"27.1537568,74.8629806"
Rahmaniya Masjid,Mosque,"Rahmaniya Masjid, 5V39+FF8, Rahmaniya Colony, Prajapati Colony, Kuchaman City, Rajasthan 341508",Prajapati Colony,"5V39+FF8, Rahmaniya Colony",Kuchaman City,341508,Rajasthan,IN,https://www.google.com/maps/place/Rahmaniya+Masjid/data=!4m7!3m6!1s0x396b7952ac7ef521:0xc25f319a373a709d!8m2!3d27.1536658!4d74.8687098!16s%2Fg%2F11n7dh6qw5!19sChIJIfV-rFJ5azkRnXA6N5oxX8I?authuser=0&hl=en&rclk=1,"27.1536658,74.86870979999999"
Masjid,Mosque,"Masjid, Sabzimandi ke pass, Purani Dhan Mandi, Kuchaman City, Rajasthan 341508",Purani Dhan Mandi,Sabzimandi ke pass,Kuchaman City,,Rajasthan,IN,https://www.google.com/maps/place/Masjid/data=!4m7!3m6!1s0x396b794f73e748bf:0x51284cec8d9342d0!8m2!3d27.1493583!4d74.86071!16s%2Fg%2F11t0wh_sfr!19sChIJv0jnc095azkR0EKTjexMKFE?authuser=0&hl=en&rclk=1,"27.1493583,74.86071"
Aqsha masjid,Mosque,"5V3F+V2G Aqsha masjid, Dip pura, Road, Kuchaman City, Rajasthan 341508",,"5V3F+V2G Dip pura, Road",Kuchaman City,341508,Rajasthan,IN,https://www.google.com/maps/place/Aqsha+masjid/data=!4m7!3m6!1s0x396b79fe537d7811:0x2f51bf330f1e938e!8m2!3d27.1546899!4d74.8725695!16s%2Fg%2F11rxs1d172!19sChIJEXh9U_55azkRjpMeDzO_US8?authuser=0&hl=en&rclk=1,"27.154689899999997,74.8725695"
"Kabristan ,Shahar,e,khamosha",Religious destination,"5V48+R68 Kabristan ,Shahar,e,khamosha, Kuchaman City, Rajasthan 341508",,5V48+R68,Kuchaman City,341508,Rajasthan,IN,"https://www.google.com/maps/place/Kabristan+,Shahar,e,khamosha/data=!4m7!3m6!1s0x396b79d57b033171:0xeb8bed6939d8a7cf!8m2!3d27.157029!4d74.8655726!16s%2Fg%2F11rhnq7hbk!19sChIJcTEDe9V5azkRz6fYOWnti-s?authuser=0&hl=en&rclk=1","27.157028999999998,74.8655726"
