name,main_category,address,address_ward,address_street,address_city,address_postal_code,address_state,address_country_code,link,coordinates
Kamra Nawaban Madarsa Masjid,Mosque,"4JX3+VM5 Kamra Nawaban Madarsa Masjid, Sardhana, Uttar Pradesh 250342",,4JX3+VM5,Sardhana,250342,Uttar Pradesh,IN,https://www.google.com/maps/place/Kamra+Nawaban+Madarsa+Masjid/data=!4m7!3m6!1s0x390c6a4c52ac72df:0xf975fe65bc047d75!8m2!3d29.1496447!4d77.6042301!16s%2Fg%2F11c2j8fgtv!19sChIJ33KsUkxqDDkRdX0EvGX-dfk?authuser=0&hl=en&rclk=1,"29.1496447,77.6042301"
Tehsil Wali Masjid,Mosque,"4JW9+PQ2 Tehsil Wali Masjid, Sardhana, Uttar Pradesh 250342",,4JW9+PQ2,Sardhana,250342,Uttar Pradesh,IN,https://www.google.com/maps/place/Tehsil+Wali+Masjid/data=!4m7!3m6!1s0x390c6bb9e00fb617:0x998796437fa405d5!8m2!3d29.1467595!4d77.61938!16s%2Fg%2F11g9q1q7x7!19sChIJF7YP4LlrDDkR1QWkf0OWh5k?authuser=0&hl=en&rclk=1,"29.146759499999998,77.61937999999999"
Masjid Oqba,Mosque,"4JX7+53W Masjid Oqba, Mohalla Jogiyan, Sardhana, Uttar Pradesh 250342",Mohalla Jogiyan,4JX7+53W,Sardhana,250342,Uttar Pradesh,IN,https://www.google.com/maps/place/Masjid+Oqba/data=!4m7!3m6!1s0x390c6bb3f0b81dbf:0x76d70c36b85a05bd!8m2!3d29.147996!4d77.6127139!16s%2Fg%2F11ddyk3lhj!19sChIJvx248LNrDDkRvQVauDYM13Y?authuser=0&hl=en&rclk=1,"29.147996,77.6127139"
Noor Masjid Kila,Mosque,"4JX6+87R Noor Masjid Kila, Mohalla Kila khewan, Sardhana, Uttar Pradesh 250342",,"4JX6+87R, Mohalla Kila khewan",Sardhana,250342,Uttar Pradesh,IN,https://www.google.com/maps/place/Noor+Masjid+Kila/data=!4m7!3m6!1s0x390c6bb37621487b:0x20caa6f8ebb6f362!8m2!3d29.1483626!4d77.6106338!16s%2Fg%2F11g9q_tvx3!19sChIJe0ghdrNrDDkRYvO26_imyiA?authuser=0&hl=en&rclk=1,"29.1483626,77.6106338"
"Masjid Abu Ayyub Ansari, Takiya kait",Mosque,"4JV7+2R2 Masjid Abu Ayyub Ansari, Takiya kait, Sardhana, Uttar Pradesh 250342",,4JV7+2R2,Sardhana,250342,Uttar Pradesh,IN,"https://www.google.com/maps/place/Masjid+Abu+Ayyub+Ansari,+Takiya+kait/data=!4m7!3m6!1s0x390c6bb61bc42697:0x5390e33d69c500d2!8m2!3d29.1425173!4d77.614524!16s%2Fg%2F11c5zv62j3!19sChIJlybEG7ZrDDkR0gDFaT3jkFM?authuser=0&hl=en&rclk=1","29.142517299999998,77.614524"
Masjid Ali,Mosque,"4JX7+P5J Masjid Ali, mohalla dharampura, Sardhana, Uttar Pradesh 250342",,"4JX7+P5J, mohalla dharampura",Sardhana,250342,Uttar Pradesh,IN,https://www.google.com/maps/place/Masjid+Ali/data=!4m7!3m6!1s0x390c6bb3dc96e02b:0xf8c3de0afd8721ad!8m2!3d29.1493433!4d77.6129053!16s%2Fg%2F11c80hj1hw!19sChIJK-CW3LNrDDkRrSGH_Qrew_g?authuser=0&hl=en&rclk=1,"29.149343299999998,77.6129053"
Masjid Buddha Babu,Mosque,"4JW3+FV6 Masjid Buddha Babu, Sardhana, Uttar Pradesh 250342",,4JW3+FV6,Sardhana,250342,Uttar Pradesh,IN,https://www.google.com/maps/place/Masjid+Buddha+Babu/data=!4m7!3m6!1s0x390c6a4b9cad40f5:0xfcce1daf8a677227!8m2!3d29.1461505!4d77.6046304!16s%2Fg%2F11f01v52xl!19sChIJ9UCtnEtqDDkRJ3Jniq8dzvw?authuser=0&hl=en&rclk=1,"29.146150499999997,77.60463039999999"
Jama Masjid (Marquaz),Mosque,"4JV7+H5W Jama Masjid (Marquaz), Sardhana, Uttar Pradesh 250342",,4JV7+H5W,Sardhana,250342,Uttar Pradesh,IN,https://www.google.com/maps/place/Jama+Masjid+%28Marquaz%29/data=!4m7!3m6!1s0x390c6bb5da88b761:0xcb74fbc1dc5b8352!8m2!3d29.1439908!4d77.612959!16s%2Fg%2F11c2n9zqmx!19sChIJYbeI2rVrDDkRUoNb3MH7dMs?authuser=0&hl=en&rclk=1,"29.143990799999997,77.612959"
Sunehri masjid,Mosque,"4HWX+4R7 Sunehri masjid, Sardhana, Uttar Pradesh 250342",,4HWX+4R7,Sardhana,250342,Uttar Pradesh,IN,https://www.google.com/maps/place/Sunehri+masjid/data=!4m7!3m6!1s0x390c6a492410bbf7:0xdcd60ee11f95e889!8m2!3d29.1452838!4d77.5995431!16s%2Fg%2F11cr_9vmsw!19sChIJ97sQJElqDDkRieiVH-EO1tw?authuser=0&hl=en&rclk=1,"29.145283799999998,77.59954309999999"
Madina Masjid,Mosque,"5J26+4FP Madina Masjid, Sardhana, Uttar Pradesh 250342",,5J26+4FP,Sardhana,250342,Uttar Pradesh,IN,https://www.google.com/maps/place/Madina+Masjid/data=!4m7!3m6!1s0x390c6bb252d6658b:0x203957e4fdb2b44f!8m2!3d29.1503385!4d77.6111967!16s%2Fg%2F11df5xx1xr!19sChIJi2XWUrJrDDkRT7Sy_eRXOSA?authuser=0&hl=en&rclk=1,"29.1503385,77.6111967"
Masjid Aaysha,Mosque,"4JX5+GPC Masjid Aaysha, Mohalla Kila, Sardhana, Uttar Pradesh 250342",Mohalla Kila,4JX5+GPC,Sardhana,250342,Uttar Pradesh,IN,https://www.google.com/maps/place/Masjid+Aaysha/data=!4m7!3m6!1s0x390c6bb3395da711:0x70cb0ef749f11833!8m2!3d29.1488023!4d77.6092544!16s%2Fg%2F11fy5dkcyc!19sChIJEaddObNrDDkRMxjxSfcOy3A?authuser=0&hl=en&rclk=1,"29.1488023,77.6092544"
Makki Masjid Kumharan,Mosque,"4JV8+RQ6 Makki Masjid Kumharan, Sardhana, Uttar Pradesh 250342",,4JV8+RQ6,Sardhana,250342,Uttar Pradesh,IN,https://www.google.com/maps/place/Makki+Masjid+Kumharan/data=!4m7!3m6!1s0x390c6b5f74a9753b:0x31bc0153146a8399!8m2!3d29.1445419!4d77.6169018!16s%2Fg%2F11fntbg1s2!19sChIJO3WpdF9rDDkRmYNqFFMBvDE?authuser=0&hl=en&rclk=1,"29.1445419,77.6169018"
Masjid Ghosiyaan,Mosque,"4JX7+GJG Masjid Ghosiyaan, Sardhana, Uttar Pradesh 250342",,4JX7+GJG,Sardhana,250342,Uttar Pradesh,IN,https://www.google.com/maps/place/Masjid+Ghosiyaan/data=!4m7!3m6!1s0x390c6bb15cf2b9ef:0xd1ff965c6362c1b3!8m2!3d29.1488172!4d77.6140627!16s%2Fg%2F11df428cmm!19sChIJ77nyXLFrDDkRs8FiY1yW_9E?authuser=0&hl=en&rclk=1,"29.1488172,77.61406269999999"
Jinno Wali Masjid,Mosque,"4JV7+RG2 Jinno Wali Masjid, Sardhana, Uttar Pradesh 250342",,4JV7+RG2,Sardhana,250342,Uttar Pradesh,IN,https://www.google.com/maps/place/Jinno+Wali+Masjid/data=!4m7!3m6!1s0x390c6bb67c019b45:0x9184fdbac95c06eb!8m2!3d29.1445141!4d77.6137652!16s%2Fg%2F1ptx_5c2m!19sChIJRZsBfLZrDDkR6wZcybr9hJE?authuser=0&hl=en&rclk=1,"29.1445141,77.6137652"
Chowk Bazaar Masjid,Mosque,"4JW7+P99 Chowk Bazaar Masjid, Mohalla Chowk Bazaar, Sardhana, Uttar Pradesh 250342",,"4JW7+P99, Mohalla Chowk Bazaar",Sardhana,250342,Uttar Pradesh,IN,https://www.google.com/maps/place/Chowk+Bazaar+Masjid/data=!4m7!3m6!1s0x390c6bb41d643f71:0x5bd423cd6fe1e6d1!8m2!3d29.1467765!4d77.6134879!16s%2Fg%2F11dy_jj_mf!19sChIJcT9kHbRrDDkR0ebhb80j1Fs?authuser=0&hl=en&rclk=1,"29.146776499999998,77.6134879"
Jannat ul baqi Masjid,Mosque,"4JQ6+7Q2 Jannat ul baqi Masjid, Meerut Rd, Sardhana, Uttar Pradesh 250342",,"4JQ6+7Q2, Meerut Rd",Sardhana,250342,Uttar Pradesh,IN,https://www.google.com/maps/place/Jannat+ul+baqi+Masjid/data=!4m7!3m6!1s0x390c6bcbb9c898ef:0x1fecbdcf0e2ed5e8!8m2!3d29.1381425!4d77.6118759!16s%2Fg%2F11c1s2sdgk!19sChIJ75jIuctrDDkR6NUuDs-97B8?authuser=0&hl=en&rclk=1,"29.138142499999997,77.6118759"
Chhoti Masjid,Mosque,"4JV7+XJ4 Chhoti Masjid, Unchapur, Sardhana, Uttar Pradesh 250342",Unchapur,"4JV7+XJ4, Unchapur",Sardhana,250342,Uttar Pradesh,IN,https://www.google.com/maps/place/Chhoti+Masjid/data=!4m7!3m6!1s0x390c6bb687816f7b:0x8fdfe548d9028e24!8m2!3d29.1448781!4d77.6140745!16s%2Fg%2F11b6zpyq2g!19sChIJe2-Bh7ZrDDkRJI4C2Ujl348?authuser=0&hl=en&rclk=1,"29.1448781,77.6140745"
Masjid Zikriya,Mosque,"5J59+58M Masjid Zikriya, Sardhana Rural, Uttar Pradesh 250342",,5J59+58M,Sardhana Rural,250342,Uttar Pradesh,IN,https://www.google.com/maps/place/Masjid+Zikriya/data=!4m7!3m6!1s0x390c6baf69cc439b:0xddc24c17d8fe5356!8m2!3d29.1579506!4d77.6182843!16s%2Fg%2F11g01s5g3p!19sChIJm0PMaa9rDDkRVlP-2BdMwt0?authuser=0&hl=en&rclk=1,"29.1579506,77.6182843"
Madina Masjid Azad Nagar,Mosque,"4JX5+57R Madina Masjid Azad Nagar, Azad Nagar, Sardhana, Uttar Pradesh 250342",Azad Nagar,4JX5+57R,Sardhana,250342,Uttar Pradesh,IN,https://www.google.com/maps/place/Madina+Masjid+Azad+Nagar/data=!4m7!3m6!1s0x390c6bccbd90cb19:0xad6a34ddfd38d274!8m2!3d29.1479932!4d77.6081296!16s%2Fg%2F11f6kwpzb4!19sChIJGcuQvcxrDDkRdNI4_d00aq0?authuser=0&hl=en&rclk=1,"29.1479932,77.6081296"
Masjid Jamman Shaheed,Mosque,"4JQ6+RWR Masjid Jamman Shaheed, Sardhana, Uttar Pradesh 250342",,4JQ6+RWR,Sardhana,250342,Uttar Pradesh,IN,https://www.google.com/maps/place/Masjid+Jamman+Shaheed/data=!4m7!3m6!1s0x390c6bca3775786b:0xe5654c33dc6d3751!8m2!3d29.1396053!4d77.6122649!16s%2Fg%2F11c6djl_dc!19sChIJa3h1N8prDDkRUTdt3DNMZeU?authuser=0&hl=en&rclk=1,"29.1396053,77.6122649"
Masjid Suleman Shah,Mosque,"4JV9+65W Masjid Suleman Shah, Sardhana, Uttar Pradesh 250342",,4JV9+65W,Sardhana,250342,Uttar Pradesh,IN,https://www.google.com/maps/place/Masjid+Suleman+Shah/data=!4m7!3m6!1s0x390c6bb7e87bebd3:0x350f7dc1895043aa!8m2!3d29.1431038!4d77.6179643!16s%2Fg%2F11gbffhbtx!19sChIJ0-t76LdrDDkRqkNQicF9DzU?authuser=0&hl=en&rclk=1,"29.1431038,77.6179643"
Masjid Gomti Nagar,Mosque,"4JR8+J32 Masjid Gomti Nagar, Sardhana, Uttar Pradesh 250342",,4JR8+J32,Sardhana,250342,Uttar Pradesh,IN,https://www.google.com/maps/place/Masjid+Gomti+Nagar/data=!4m7!3m6!1s0x390c6bc9dcfb5111:0x96b07683b368fb38!8m2!3d29.1415199!4d77.6151513!16s%2Fg%2F11g6b2zzsj!19sChIJEVH73MlrDDkROPtos4N2sJY?authuser=0&hl=en&rclk=1,"29.1415199,77.6151513"
Masjid Kabari Bazar,Mosque,"4JW3+JR6 Masjid Kabari Bazar, Sardhana, Uttar Pradesh 250342",,4JW3+JR6,Sardhana,250342,Uttar Pradesh,IN,https://www.google.com/maps/place/Masjid+Kabari+Bazar/data=!4m7!3m6!1s0x390c6a4b86b97ed9:0x1872e55ed45b940b!8m2!3d29.1465369!4d77.604507!16s%2Fg%2F11ddwhhbvn!19sChIJ2X65hktqDDkRC5Rb1F7lchg?authuser=0&hl=en&rclk=1,"29.146536899999997,77.604507"
Masjid Qureshiyan Bus Stand,Mosque,"4JR7+Q4P Masjid Qureshiyan Bus Stand, Sardhana, Uttar Pradesh 250342",,4JR7+Q4P,Sardhana,250342,Uttar Pradesh,IN,https://www.google.com/maps/place/Masjid+Qureshiyan+Bus+Stand/data=!4m7!3m6!1s0x390c6bb5f7ed16a3:0x310adf0b44880a03!8m2!3d29.1419549!4d77.6128307!16s%2Fg%2F11c1s00slx!19sChIJoxbt97VrDDkRAwqIRAvfCjE?authuser=0&hl=en&rclk=1,"29.141954899999998,77.6128307"
Masjid Kaziyaan,Mosque,"4JW7+C65 Masjid Kaziyaan, Sardhana, Uttar Pradesh 250342",,4JW7+C65,Sardhana,250342,Uttar Pradesh,IN,https://www.google.com/maps/place/Masjid+Kaziyaan/data=!4m7!3m6!1s0x390c6bb423c861a9:0xfb58a6519bf5545c!8m2!3d29.1460168!4d77.6130969!16s%2Fg%2F11d_d149py!19sChIJqWHII7RrDDkRXFT1m1GmWPs?authuser=0&hl=en&rclk=1,"29.146016799999998,77.6130969"
Peerjadgaan Masjid,Mosque,"4JR7+Q8M Peerjadgaan Masjid, Sardhana, Uttar Pradesh 250342",,4JR7+Q8M,Sardhana,250342,Uttar Pradesh,IN,https://www.google.com/maps/place/Peerjadgaan+Masjid/data=!4m7!3m6!1s0x390c6bb5ff653957:0xd1baa4ba8543d854!8m2!3d29.1419629!4d77.6132879!16s%2Fg%2F11ddx437y0!19sChIJVzll_7VrDDkRVNhDhbqkutE?authuser=0&hl=en&rclk=1,"29.1419629,77.6132879"
Masjid Noor,Mosque,"5J59+M74 Masjid Noor, Sardhana Rural, Uttar Pradesh 250342",,5J59+M74,Sardhana Rural,250342,Uttar Pradesh,IN,https://www.google.com/maps/place/Masjid+Noor/data=!4m7!3m6!1s0x390c6baf4c2e5005:0x1b9ca0a9e80b961e!8m2!3d29.1591468!4d77.6182067!16s%2Fg%2F11g01sjv3p!19sChIJBVAuTK9rDDkRHpYL6KmgnBs?authuser=0&hl=en&rclk=1,"29.1591468,77.6182067"
Masjid Shahidiya,Mosque,"4JR4+3X3 Masjid Shahidiya, Sardhana, Uttar Pradesh 250342",,4JR4+3X3,Sardhana,250342,Uttar Pradesh,IN,https://www.google.com/maps/place/Masjid+Shahidiya/data=!4m7!3m6!1s0x390c6a354bd55fdb:0x8cc4a41997e0cf64!8m2!3d29.1401315!4d77.6074289!16s%2Fg%2F11g889y1tk!19sChIJ21_VSzVqDDkRZM_glxmkxIw?authuser=0&hl=en&rclk=1,"29.1401315,77.6074289"
Masjid Chhawni,Mosque,"5J29+C35 Masjid Chhawni, Sardhana, Uttar Pradesh 250342",,5J29+C35,Sardhana,250342,Uttar Pradesh,IN,https://www.google.com/maps/place/Masjid+Chhawni/data=!4m7!3m6!1s0x390c6bb05f8df4b1:0x9e02e4b897db550!8m2!3d29.1510132!4d77.617721!16s%2Fg%2F11g8cycmzs!19sChIJsfSNX7BrDDkRULV9iUsu4Ak?authuser=0&hl=en&rclk=1,"29.151013199999998,77.617721"
Muhammadi Masjid,Mosque,"5J25+6V5 Muhammadi Masjid, Sardhana, Uttar Pradesh 250342",,5J25+6V5,Sardhana,250342,Uttar Pradesh,IN,https://www.google.com/maps/place/Muhammadi+Masjid/data=!4m7!3m6!1s0x390c6bb2e382223f:0x161944599d658e95!8m2!3d29.1505107!4d77.60975!16s%2Fg%2F11dz3ws50r!19sChIJPyKC47JrDDkRlY5lnVlEGRY?authuser=0&hl=en&rclk=1,"29.150510699999998,77.60974999999999"
Saabri Masjid,Mosque,"4JX4+WW8 Saabri Masjid, Sardhana, Uttar Pradesh 250342",,4JX4+WW8,Sardhana,250342,Uttar Pradesh,IN,https://www.google.com/maps/place/Saabri+Masjid/data=!4m7!3m6!1s0x390c6a4cd65958df:0x316c9b4e0c755747!8m2!3d29.1497922!4d77.6073126!16s%2Fg%2F11f03yzsqz!19sChIJ31hZ1kxqDDkRR1d1DE6bbDE?authuser=0&hl=en&rclk=1,"29.1497922,77.6073126"
Masjid Khari Kuan,Mosque,"Masjid Khari Kuan, Sardhana, Uttar Pradesh 250342",,,Sardhana,250342,Uttar Pradesh,IN,https://www.google.com/maps/place/Masjid+Khari+Kuan/data=!4m7!3m6!1s0x390c6bb5a5c2d3bb:0x8677fc8902b44f9b!8m2!3d29.1438176!4d77.6110011!16s%2Fg%2F11g69wzqqn!19sChIJu9PCpbVrDDkRm0-0Aon8d4Y?authuser=0&hl=en&rclk=1,"29.1438176,77.6110011"
Eid Gah,Mosque,"4JQ5+7CG Eid Gah, Sardhana, Uttar Pradesh 250342",,4JQ5+7CG,Sardhana,250342,Uttar Pradesh,IN,https://www.google.com/maps/place/Eid+Gah/data=!4m7!3m6!1s0x390c6bcb25ea28ef:0xfed7d16a3d828825!8m2!3d29.138199!4d77.6085833!16s%2Fg%2F11c6dd2zlm!19sChIJ7yjqJctrDDkRJYiCPWrR1_4?authuser=0&hl=en&rclk=1,"29.138199,77.60858329999999"
Masjid Bilal,Mosque,"5J59+4W5 Masjid Bilal, Sardhana Rural, Uttar Pradesh 250342",,5J59+4W5,Sardhana Rural,250342,Uttar Pradesh,IN,https://www.google.com/maps/place/Masjid+Bilal/data=!4m7!3m6!1s0x390c6ba58fb3d07f:0xf24fae2d813f941b!8m2!3d29.157769!4d77.6198502!16s%2Fg%2F11g01sc2c6!19sChIJf9Czj6VrDDkRG5Q_gS2uT_I?authuser=0&hl=en&rclk=1,"29.157769,77.6198502"
Noor Masjid,Mosque,"4JW6+7VG Noor Masjid, Tarni street, near Imambara Road, Sardhana, Uttar Pradesh 250342",,"4JW6+7VG, Tarni street, near Imambara Road",Sardhana,250342,Uttar Pradesh,IN,https://www.google.com/maps/place/Noor+Masjid/data=!4m7!3m6!1s0x390c6ba31c4afd33:0x675e6503a7ad58fb!8m2!3d29.1456934!4d77.6122!16s%2Fg%2F11gj751d41!19sChIJM_1KHKNrDDkR-1itpwNlXmc?authuser=0&hl=en&rclk=1,"29.1456934,77.6122"
Masjid Kothhi Wali,Mosque,"4JW4+MCH Masjid Kothhi Wali, Sardhana, Uttar Pradesh 250342",,4JW4+MCH,Sardhana,250342,Uttar Pradesh,IN,https://www.google.com/maps/place/Masjid+Kothhi+Wali/data=!4m7!3m6!1s0x390c6a4b613b1a7f:0x468205ea37b597b2!8m2!3d29.1466783!4d77.6061227!16s%2Fg%2F11c5zgmgq8!19sChIJfxo7YUtqDDkRspe1N-oFgkY?authuser=0&hl=en&rclk=1,"29.146678299999998,77.6061227"
Masjid Aqsah,Mosque,"5J36+29P Masjid Aqsah, Mohalla Bunkarnagar, Church Rd, Sardhana, Uttar Pradesh 250342",,"5J36+29P, Mohalla Bunkarnagar, Church Rd",Sardhana,250342,Uttar Pradesh,IN,https://www.google.com/maps/place/Masjid+Aqsah/data=!4m7!3m6!1s0x390c6b27beaf25fd:0x3a7f14b8b710c3!8m2!3d29.1525794!4d77.6109483!16s%2Fg%2F11j94m1nw_!19sChIJ_SWvvidrDDkRwxC3uBR_OgA?authuser=0&hl=en&rclk=1,"29.152579399999997,77.61094829999999"
Madina Masjid,Mosque,"4JW9+2WG Madina Masjid, ansar nagar tehsil road, Sardhana, Uttar Pradesh 250342",,"4JW9+2WG, ansar nagar tehsil road",Sardhana,250342,Uttar Pradesh,IN,https://www.google.com/maps/place/Madina+Masjid/data=!4m7!3m6!1s0x390c6b94ce6a8df5:0x9f70e4c64790aea8!8m2!3d29.1450631!4d77.6198211!16s%2Fg%2F11hz76b5p_!19sChIJ9Y1qzpRrDDkRqK6QR8bkcJ8?authuser=0&hl=en&rclk=1,"29.145063099999998,77.6198211"
Takiya Jhannusha Masjid,Mosque,"4JX7+7JV Takiya Jhannusha Masjid, Sardhana, Uttar Pradesh 250342",,4JX7+7JV,Sardhana,250342,Uttar Pradesh,IN,https://www.google.com/maps/place/Takiya+Jhannusha+Masjid/data=!4m7!3m6!1s0x390c6bb15103ddcb:0x1589efaed36a2894!8m2!3d29.1482363!4d77.6140341!16s%2Fg%2F11df2lbg8g!19sChIJy90DUbFrDDkRlChq067viRU?authuser=0&hl=en&rclk=1,"29.148236299999997,77.6140341"
Chilley Wali Masjid,Mosque,"4JV7+C47 Chilley Wali Masjid, Near Markaz, Sardhana, Uttar Pradesh 250342",,"4JV7+C47, Near Markaz",Sardhana,250342,Uttar Pradesh,IN,https://www.google.com/maps/place/Chilley+Wali+Masjid/data=!4m7!3m6!1s0x390c6baa61a5cf43:0x40fd61dce59ec407!8m2!3d29.1435492!4d77.6128041!16s%2Fg%2F11f6kwcvgy!19sChIJQ8-lYaprDDkRB8Se5dxh_UA?authuser=0&hl=en&rclk=1,"29.1435492,77.61280409999999"
Masjid Mithe Shah,Mosque,"4JQ5+GXM Masjid Mithe Shah, Sardhana, Uttar Pradesh 250342",,4JQ5+GXM,Sardhana,250342,Uttar Pradesh,IN,https://www.google.com/maps/place/Masjid+Mithe+Shah/data=!4m7!3m6!1s0x390c6bcae2ccc383:0xc9cd42e06c846bcb!8m2!3d29.1388347!4d77.6099323!16s%2Fg%2F11c31w9pjz!19sChIJg8PM4sprDDkRy2uEbOBCzck?authuser=0&hl=en&rclk=1,"29.1388347,77.6099323"
Aysa Masjid,Mosque,"5J69+3FM Aysa Masjid, Sardhana Rural, Uttar Pradesh 250342",,5J69+3FM,Sardhana Rural,,Uttar Pradesh,IN,https://www.google.com/maps/place/Aysa+Masjid/data=!4m7!3m6!1s0x390c6baf5357610d:0x50cf007bae418c8!8m2!3d29.1602014!4d77.618664!16s%2Fg%2F11h9rbvp00!19sChIJDWFXU69rDDkRyBjkugfwDAU?authuser=0&hl=en&rclk=1,"29.1602014,77.618664"
Masjid Ayesha Sarai Afganan,Mosque,"4JV8+75W Masjid Ayesha Sarai Afganan, Sardhana, Uttar Pradesh 250342",,4JV8+75W,Sardhana,250342,Uttar Pradesh,IN,https://www.google.com/maps/place/Masjid+Ayesha+Sarai+Afganan/data=!4m7!3m6!1s0x390c6bce4c75daed:0x2da1efdbfeb20be3!8m2!3d29.1432449!4d77.6154645!16s%2Fg%2F11mv9rfvjn!19sChIJ7dp1TM5rDDkR4wuy_tvvoS0?authuser=0&hl=en&rclk=1,"29.1432449,77.6154645"
Basheeriya Masjid,Mosque,"4JW4+GVG Basheeriya Masjid, Azad Nagar, Sardhana, Uttar Pradesh 250342",Azad Nagar,4JW4+GVG,Sardhana,250342,Uttar Pradesh,IN,https://www.google.com/maps/place/Basheeriya+Masjid/data=!4m7!3m6!1s0x390c6a4b4e365673:0xcb546f2af90e934!8m2!3d29.1463221!4d77.6072157!16s%2Fg%2F11h9xrmxyd!19sChIJc1Y2TktqDDkRNOmQr_JGtQw?authuser=0&hl=en&rclk=1,"29.1463221,77.6072157"
Masjid Aqsa,Mosque,"Masjid Aqsa, Bunkar Nagar, Kalind Road, Sardhana, Uttar Pradesh 250342",,"Bunkar Nagar, Kalind Road",Sardhana,250342,Uttar Pradesh,IN,https://www.google.com/maps/place/Masjid+Aqsa/data=!4m7!3m6!1s0x390c6b7aaef8979f:0x3c94507f397cc396!8m2!3d29.1477668!4d77.6165642!16s%2Fg%2F11j0byfk3n!19sChIJn5f4rnprDDkRlsN8OX9QlDw?authuser=0&hl=en&rclk=1,"29.1477668,77.6165642"
Masjid Angoor Wali,Mosque,"4JV6+CQJ Masjid Angoor Wali, Sardhana, Uttar Pradesh 250342",,4JV6+CQJ,Sardhana,250342,Uttar Pradesh,IN,https://www.google.com/maps/place/Masjid+Angoor+Wali/data=!4m7!3m6!1s0x390c6bb5bf3771d5:0x462a210fe355af6a!8m2!3d29.1435943!4d77.6118981!16s%2Fg%2F11c31mpjwk!19sChIJ1XE3v7VrDDkRaq9V4w8hKkY?authuser=0&hl=en&rclk=1,"29.1435943,77.61189809999999"
Peer Wali Masjid,Mosque,"4JX6+245 Peer Wali Masjid, Mohalla Kila Khewan, Sardhana, Uttar Pradesh 250342",,"4JX6+245, Mohalla Kila Khewan",Sardhana,250342,Uttar Pradesh,IN,https://www.google.com/maps/place/Peer+Wali+Masjid/data=!4m7!3m6!1s0x390c6bb37e650631:0x8eaf3a1213ae102e!8m2!3d29.1475149!4d77.6103482!16s%2Fg%2F11fy5j0q5k!19sChIJMQZlfrNrDDkRLhCuExI6r44?authuser=0&hl=en&rclk=1,"29.147514899999997,77.61034819999999"
Choki Wali Masjid,Mosque,"4HQX+8FF Choki Wali Masjid, Juledha Rd, Sardhana, Uttar Pradesh 250342",,"4HQX+8FF, Juledha Rd",Sardhana,250342,Uttar Pradesh,IN,https://www.google.com/maps/place/Choki+Wali+Masjid/data=!4m7!3m6!1s0x390c6b643347669d:0xe3e18a8bf9975da9!8m2!3d29.1383013!4d77.5986629!16s%2Fg%2F11gj4ll13c!19sChIJnWZHM2RrDDkRqV2X-YuK4eM?authuser=0&hl=en&rclk=1,"29.1383013,77.5986629"
Masjid Ayesha,Mosque,"5J69+57C Masjid Ayesha, Sardhana Rural, Uttar Pradesh 250342",,5J69+57C,Sardhana Rural,,Uttar Pradesh,IN,https://www.google.com/maps/place/Masjid+Ayesha/data=!4m7!3m6!1s0x390c6ba8aee235fd:0xa885e90b6b636a2a!8m2!3d29.1604371!4d77.6181259!16s%2Fg%2F11gfn5x85t!19sChIJ_TXirqhrDDkRKmpjawvphag?authuser=0&hl=en&rclk=1,"29.1604371,77.6181259"
Chhoti Masjid,Mosque,"4HFR+V35 Chhoti Masjid, Sardhana, Meharmati Ganeshpur, Uttar Pradesh",,"4HFR+V35, Sardhana","Meharmati Ganeshpur, Mahermati",,Uttar Pradesh,IN,https://www.google.com/maps/place/Chhoti+Masjid/data=!4m7!3m6!1s0x390c6a2388cb6539:0x6a26ba7a36ec6524!8m2!3d29.1246414!4d77.590247!16s%2Fg%2F11gg9j2zby!19sChIJOWXLiCNqDDkRJGXsNnq6Jmo?authuser=0&hl=en&rclk=1,"29.124641399999998,77.59024699999999"
Makbare Wali Masjid,Mosque,"4JR7+CG5 Makbare Wali Masjid, Sardhana, Uttar Pradesh 250342",,4JR7+CG5,Sardhana,250342,Uttar Pradesh,IN,https://www.google.com/maps/place/Makbare+Wali+Masjid/data=!4m7!3m6!1s0x390c6bc9f13b87dd:0x56798c433b813295!8m2!3d29.1410148!4d77.6138531!16s%2Fg%2F11csszcbtb!19sChIJ3Yc78clrDDkRlTKBO0OMeVY?authuser=0&hl=en&rclk=1,"29.141014799999997,77.6138531"
Masjid shia bag,Mosque,"5J2F+QC4 Masjid shia bag, Sardhana, Sardhana Rural, Uttar Pradesh 250342",,5J2F+QC4,"Sardhana, Sardhana Rural",250342,Uttar Pradesh,IN,https://www.google.com/maps/place/Masjid+shia+bag/data=!4m7!3m6!1s0x390c6b9a933b92df:0x1e70ad8fca2ff039!8m2!3d29.1518934!4d77.6235684!16s%2Fg%2F11n60gcghw!19sChIJ35I7k5prDDkROfAvyo-tcB4?authuser=0&hl=en&rclk=1,"29.1518934,77.6235684"
Badi masjid jag mohan nagar,Mosque,"4JQ8+7MM Badi masjid jag mohan nagar, Sardhana, Uttar Pradesh 250342",,4JQ8+7MM,Sardhana,250342,Uttar Pradesh,IN,https://www.google.com/maps/place/Badi+masjid+jag+mohan+nagar/data=!4m7!3m6!1s0x390c6b9c35e29507:0x692fa6938dd0381f!8m2!3d29.1382118!4d77.6166696!16s%2Fg%2F11qnt2xjtp!19sChIJB5XiNZxrDDkRHzjQjZOmL2k?authuser=0&hl=en&rclk=1,"29.138211799999997,77.6166696"
Mecca Chand Masjid,Mosque,"4JV3+RH2 Mecca Chand Masjid, Sardhana, Uttar Pradesh 250342",,4JV3+RH2,Sardhana,250342,Uttar Pradesh,IN,https://www.google.com/maps/place/Mecca+Chand+Masjid/data=!4m7!3m6!1s0x390c6b2e0b5d1fc5:0x28aa936df68707a1!8m2!3d29.1445122!4d77.6038918!16s%2Fg%2F11f6kwm13m!19sChIJxR9dCy5rDDkRoQeH9m2Tqig?authuser=0&hl=en&rclk=1,"29.144512199999998,77.6038918"
Masjid huzaifa raziyallah,Mosque,"4JR8+MWF Masjid huzaifa raziyallah, Sardhana, Uttar Pradesh 250342",,4JR8+MWF,Sardhana,250342,Uttar Pradesh,IN,https://www.google.com/maps/place/Masjid+huzaifa+raziyallah/data=!4m7!3m6!1s0x390c6b26aa123729:0x3e9f615fa1a5b294!8m2!3d29.1416923!4d77.6172937!16s%2Fg%2F11lryb_bl1!19sChIJKTcSqiZrDDkRlLKloV9hnz4?authuser=0&hl=en&rclk=1,"29.1416923,77.61729369999999"
Sabiri Masjid,Mosque,"4JW8+2GP Sabiri Masjid, Chungi, kalad, Sardhana, Uttar Pradesh 250342",kalad,"4JW8+2GP, Chungi",Sardhana,250342,Uttar Pradesh,IN,https://www.google.com/maps/place/Sabiri+Masjid/data=!4m7!3m6!1s0x390c6bb700000001:0xc58b270b602f0411!8m2!3d29.145094!4d77.6163339!16s%2Fg%2F11gh0ly24m!19sChIJAQAAALdrDDkREQQvYAsni8U?authuser=0&hl=en&rclk=1,"29.145094,77.6163339"
Masjid Abu Bakr,Mosque,"5J26+5R5 Masjid Abu Bakr, Sardhana, Uttar Pradesh 250342",,5J26+5R5,Sardhana,250342,Uttar Pradesh,IN,https://www.google.com/maps/place/Masjid+Abu+Bakr/data=!4m7!3m6!1s0x390c6bb3caacb12b:0xe066e953bfb53424!8m2!3d29.1503956!4d77.61211!16s%2Fg%2F11fxx4c_f6!19sChIJK7GsyrNrDDkRJDS1v1PpZuA?authuser=0&hl=en&rclk=1,"29.1503956,77.61211"
Masjid Abu Ayyub Ansari Gojjar.chok Kirachi,Mosque,"4JR6+PHX Masjid Abu Ayyub Ansari Gojjar.chok Kirachi, mohalla takiya kait, sardhana, Sardhana",,"4JR6+PHX, mohalla takiya kait, sardhana",Sardhana,,Uttar Pradesh,IN,https://www.google.com/maps/place/Masjid+Abu+Ayyub+Ansari+Gojjar.chok+Kirachi/data=!4m7!3m6!1s0x390c6bb58887315b:0x33c05b10c0792297!8m2!3d29.1418644!4d77.611469!16s%2Fg%2F11bxfr45zr!19sChIJWzGHiLVrDDkRlyJ5wBBbwDM?authuser=0&hl=en&rclk=1,"29.1418644,77.611469"
Bilal Masjid,Mosque,"4JV7+FXM Bilal Masjid, Sardhana, Uttar Pradesh 250342",,4JV7+FXM,Sardhana,250342,Uttar Pradesh,IN,https://www.google.com/maps/place/Bilal+Masjid/data=!4m7!3m6!1s0x390c6b9c2ce0a369:0xd634e4bb65a028aa!8m2!3d29.1437164!4d77.6149107!16s%2Fg%2F11p16myvf5!19sChIJaaPgLJxrDDkRqiigZbvkNNY?authuser=0&hl=en&rclk=1,"29.1437164,77.6149107"
Makka masjid,Mosque,"5J23+G68 Makka masjid, Sardhana, Uttar Pradesh 250342",,5J23+G68,Sardhana,250342,Uttar Pradesh,IN,https://www.google.com/maps/place/Makka+masjid/data=!4m7!3m6!1s0x390c6b15e35c6e29:0xc11868e31a67dadb!8m2!3d29.1512802!4d77.603079!16s%2Fg%2F11hxs9t63b!19sChIJKW5c4xVrDDkR29pnGuNoGME?authuser=0&hl=en&rclk=1,"29.1512802,77.603079"
Fatima Masjid,Mosque,"5J29+6X3 Fatima Masjid, Sardhana, Uttar Pradesh 250342",,5J29+6X3,Sardhana,250342,Uttar Pradesh,IN,https://www.google.com/maps/place/Fatima+Masjid/data=!4m7!3m6!1s0x390c6bdc1e06e063:0x366c3b5d988b969d!8m2!3d29.1505146!4d77.6199186!16s%2Fg%2F11jqy_l9vw!19sChIJY-AGHtxrDDkRnZaLmF07bDY?authuser=0&hl=en&rclk=1,"29.150514599999998,77.61991859999999"
Chhoti Masjid,Mosque,"5J23+CXG Chhoti Masjid, Sardhana, Uttar Pradesh 250342",,5J23+CXG,Sardhana,250342,Uttar Pradesh,IN,https://www.google.com/maps/place/Chhoti+Masjid/data=!4m7!3m6!1s0x390c6b71b47a6669:0x4146b35f16cce57!8m2!3d29.1510578!4d77.6049643!16s%2Fg%2F11lg_2pk0z!19sChIJaWZ6tHFrDDkRV85s8TVrFAQ?authuser=0&hl=en&rclk=1,"29.1510578,77.60496429999999"
Chhoti masjid,Mosque,"4JQ5+Q5X Chhoti masjid, Sardhana, Uttar Pradesh 250342",,4JQ5+Q5X,Sardhana,250342,Uttar Pradesh,IN,https://www.google.com/maps/place/Chhoti+masjid/data=!4m7!3m6!1s0x390c6b7fc8203069:0x15c44fd1642be6e8!8m2!3d29.1394824!4d77.6079779!16s%2Fg%2F11mv9r1t8h!19sChIJaTAgyH9rDDkR6OYrZNFPxBU?authuser=0&hl=en&rclk=1,"29.1394824,77.6079779"
Chhoti Masjid Jag Monhan Nagar,Mosque,"4JQ8+JJQ Chhoti Masjid Jag Monhan Nagar, Sardhana, Uttar Pradesh 250342",,4JQ8+JJQ,Sardhana,250342,Uttar Pradesh,IN,https://www.google.com/maps/place/Chhoti+Masjid+Jag+Monhan+Nagar/data=!4m7!3m6!1s0x390c6b7a59615f75:0x83eb7159cee92bce!8m2!3d29.139092!4d77.6165942!16s%2Fg%2F11lfkxhx6y!19sChIJdV9hWXprDDkRzivpzllx64M?authuser=0&hl=en&rclk=1,"29.139091999999998,77.6165942"
Noor masjid Islamabad,Mosque,"4JR6+CF8 Noor masjid Islamabad, Sardhana, Uttar Pradesh 250342",,4JR6+CF8,Sardhana,250342,Uttar Pradesh,IN,https://www.google.com/maps/place/Noor+masjid+Islamabad/data=!4m7!3m6!1s0x390c6b6071e9919b:0x3555ac5619657a2c!8m2!3d29.1410261!4d77.6112071!16s%2Fg%2F11mb_k8m46!19sChIJm5HpcWBrDDkRLHplGVasVTU?authuser=0&hl=en&rclk=1,"29.141026099999998,77.6112071"
Masjid sarai musafiran,Mosque,"4JV7+89C Masjid sarai musafiran, Sardhana, Uttar Pradesh 250342",,4JV7+89C,Sardhana,250342,Uttar Pradesh,IN,https://www.google.com/maps/place/Masjid+sarai+musafiran/data=!4m7!3m6!1s0x390c6be228ba4ec1:0xba2c198e769c306b!8m2!3d29.1433138!4d77.6133998!16s%2Fg%2F11lfkx26h6!19sChIJwU66KOJrDDkRazCcdo4ZLLo?authuser=0&hl=en&rclk=1,"29.143313799999998,77.6133998"
