name,main_category,address,address_ward,address_street,address_city,address_postal_code,address_state,address_country_code,link,coordinates
hidayat masjid,Mosque,"7QCM+3FP hidayat masjid, Mumtaz Nagar Rd, Harsh Nagar, Amim Colony, Parbhani, Maharashtra 431401","Harsh Nagar, Amim Colony","7QCM+3FP, Mumtaz Nagar Rd",Parbhani,431401,Maharashtra,IN,https://www.google.com/maps/place/hidayat+masjid/data=!4m7!3m6!1s0x3bd019c85296cb35:0x9db16d4855897f3!8m2!3d19.2702055!4d76.7837115!16s%2Fg%2F11rgdp8c86!19sChIJNcuWUsgZ0DsR85dYhdQW2wk?authuser=0&hl=en&rclk=1,"19.2702055,76.7837115"
Mulla Masjid,Mosque,"7Q8C+C7W Mulla Masjid, Gandhi Park, Parbhani, Maharashtra 431401",Gandhi Park,7Q8C+C7W,Parbhani,431401,Maharashtra,IN,https://www.google.com/maps/place/Mulla+Masjid/data=!4m7!3m6!1s0x3bd019d0e4e9f725:0xe4c328b74809b67e!8m2!3d19.2661003!4d76.770691!16s%2Fg%2F11_rkmw4_!19sChIJJffp5NAZ0DsRfrYJSLcow-Q?authuser=0&hl=en&rclk=1,"19.266100299999998,76.770691"
Masjid -E- Khadrabad,Mosque,"7Q88+R9W Masjid -E- Khadrabad, near Iqbal Urdu High School, Khadrabad, New Mondha, Parbhani, Maharashtra 431401","Khadrabad, New Mondha","7Q88+R9W, near Iqbal Urdu High School",Parbhani,431401,Maharashtra,IN,https://www.google.com/maps/place/Masjid+-E-+Khadrabad/data=!4m7!3m6!1s0x3bd019da2fb58e55:0xa15d2ac97216ae54!8m2!3d19.2671232!4d76.7659482!16s%2Fg%2F11btx0xm25!19sChIJVY61L9oZ0DsRVK4WcskqXaE?authuser=0&hl=en&rclk=1,"19.2671232,76.7659482"
Masjid E Shahganj,Mosque,"7Q89+X9J Masjid E Shahganj, Gorakhshan Road, Kala Bawar, Parbhani","Khadrabad, New Mondha","7Q89+X9J, Gorakhshan Road, Kala Bawar",Parbhani,,Maharashtra,IN,https://www.google.com/maps/place/Masjid+E+Shahganj/data=!4m7!3m6!1s0x3bd019d0a9c080f7:0x94e71166629bfc29!8m2!3d19.2674683!4d76.7683815!16s%2Fg%2F11bt_jqzgl!19sChIJ94DAqdAZ0DsRKfybYmYR55Q?authuser=0&hl=en&rclk=1,"19.2674683,76.76838149999999"
Madina Masjid,Mosque,"7Q8G+HPR Madina Masjid, Vakil Colony, Parbhani, Maharashtra 431401",Vakil Colony,7Q8G+HPR,Parbhani,431401,Maharashtra,IN,https://www.google.com/maps/place/Madina+Masjid/data=!4m7!3m6!1s0x3bd019d3a64d2d8f:0xb57a2b7840df0f27!8m2!3d19.2664915!4d76.7767511!16s%2Fg%2F11bw5m8dr9!19sChIJjy1NptMZ0DsRJw_fQHgrerU?authuser=0&hl=en&rclk=1,"19.2664915,76.7767511"
Masjid E Khuraish,Mosque,"7Q9F+M2M Masjid E Khuraish, near Janta Market, Gandhi Park, Parbhani, Maharashtra 431401",Gandhi Park,"7Q9F+M2M, near Janta Market",Parbhani,,Maharashtra,IN,https://www.google.com/maps/place/Masjid+E+Khuraish/data=!4m7!3m6!1s0x3bd019d6c76de567:0x83b1dcb6db9726b9!8m2!3d19.2692007!4d76.7725347!16s%2Fg%2F11b7xvjm22!19sChIJZ-Vtx9YZ0DsRuSaX27bcsYM?authuser=0&hl=en&rclk=1,"19.2692007,76.7725347"
Masjid Maqdoom Pura,Mosque,"7Q9P+VJ6 Masjid Maqdoom Pura, Maqdoom Pura, Parbhani, Maharashtra 431401",Mumtaz Nagar,"7Q9P+VJ6, Maqdoom Pura",Parbhani,431401,Maharashtra,IN,https://www.google.com/maps/place/Masjid+Maqdoom+Pura/data=!4m7!3m6!1s0x3bd018294e8c94d1:0x26a8293635609522!8m2!3d19.2696602!4d76.7865186!16s%2Fg%2F11g8dhgjsn!19sChIJ0ZSMTikY0DsRIpVgNTYpqCY?authuser=0&hl=en&rclk=1,"19.2696602,76.7865186"
Ek Minar Masjid,Mosque,"7QCJ+R67 Ek Minar Masjid, Near Khandoba Bazar Dhar, Road, Parbhani, Maharashtra 431401",Dr.Zakir Hussain Nagar,"7QCJ+R67, Near Khandoba Bazar Dhar, Road",Parbhani,431401,Maharashtra,IN,https://www.google.com/maps/place/Ek+Minar+Masjid/data=!4m7!3m6!1s0x3bd0182ad76122cf:0x6a8dab35c8ed641f!8m2!3d19.2720251!4d76.7805457!16s%2Fg%2F11b7hhddkb!19sChIJzyJh1yoY0DsRH2TtyDWrjWo?authuser=0&hl=en&rclk=1,"19.2720251,76.78054569999999"
EK MINAR MASJID. Dargah Road,Mosque,"7P9X+RJG EK MINAR MASJID. Dargah Road, Kausadi Village, Kausadi, Parbhani, Maharashtra 431401",Kausadi Village,7P9X+RJG,"Kausadi, Parbhani",431401,Maharashtra,IN,https://www.google.com/maps/place/EK+MINAR+MASJID.+Dargah+Road/data=!4m7!3m6!1s0x3bd019e24c934a29:0x5e8ace43a5515083!8m2!3d19.2695553!4d76.7490738!16s%2Fg%2F11d_f1f3vr!19sChIJKUqTTOIZ0DsRg1BRpUPOil4?authuser=0&hl=en&rclk=1,"19.2695553,76.74907379999999"
Kazi Masjid,Mosque,"Kazi Masjid, Kazi Masjid Ahele-sunaat-wal-jamat, Kazi Bagh, Kausadi Village, Parbhani, Maharashtra 431401","Kazi Bagh, Kausadi Village",Kazi Masjid Ahele-sunaat-wal-jamat,Parbhani,431401,Maharashtra,IN,https://www.google.com/maps/place/Kazi+Masjid/data=!4m7!3m6!1s0x3bd01758ace628b9:0x49249222257c7d21!8m2!3d19.2730076!4d76.7508631!16s%2Fg%2F11bxg1bry3!19sChIJuSjmrFgX0DsRIX18JSKSJEk?authuser=0&hl=en&rclk=1,"19.2730076,76.75086309999999"
Mohammadi Masjid,Mosque,"7QGG+VHP Mohammadi Masjid, Amey Nagar, Parbhani, Maharashtra 431401",Amey Nagar,7QGG+VHP,Parbhani,431401,Maharashtra,IN,https://www.google.com/maps/place/Mohammadi+Masjid/data=!4m7!3m6!1s0x3bd0177e563ea799:0xbc35dadbd63bc3a!8m2!3d19.2772046!4d76.7764625!16s%2Fg%2F11bv1bf_3t!19sChIJmac-Vn4X0DsROrxjva1dwws?authuser=0&hl=en&rclk=1,"19.277204599999997,76.7764625"
Masjid Abu Huraira,Mosque,"7QH7+39F Masjid Abu Huraira, Sarfaraz Nagar Parbhani, Parbhani, Maharashtra 431401",Trimurti Nagar,"7QH7+39F, Sarfaraz Nagar Parbhani",Parbhani,431401,Maharashtra,IN,https://www.google.com/maps/place/Masjid+Abu+Huraira/data=!4m7!3m6!1s0x3bd01763c25de397:0x5ad018037ba5229d!8m2!3d19.2776812!4d76.7634326!16s%2Fg%2F11b5ysg3n4!19sChIJl-NdwmMX0DsRnSKlewMY0Fo?authuser=0&hl=en&rclk=1,"19.2776812,76.7634326"
Masjid-E-Nimra,Mosque,"7Q8H+Q36 Masjid-E-Nimra, Vakil Colony, Parbhani, Maharashtra 431401",Vakil Colony,7Q8H+Q36,Parbhani,431401,Maharashtra,IN,https://www.google.com/maps/place/Masjid-E-Nimra/data=!4m7!3m6!1s0x3bd019d30d8987db:0xb4ce0f026e4f1879!8m2!3d19.2669077!4d76.777645!16s%2Fg%2F11gdkpxl_1!19sChIJ24eJDdMZ0DsReRhPbgIPzrQ?authuser=0&hl=en&rclk=1,"19.2669077,76.77764499999999"
Gulzar Masjid,Mosque,"7QGM+Q4R Gulzar Masjid, Gulzar Colony, Parbhani, Maharashtra 431401",Gulzar Colony,7QGM+Q4R,Parbhani,,Maharashtra,IN,https://www.google.com/maps/place/Gulzar+Masjid/data=!4m7!3m6!1s0x3bd01780f7f4071f:0xd67beff219007c1f!8m2!3d19.2769843!4d76.7827714!16s%2Fg%2F11c5fyy579!19sChIJHwf094AX0DsRH3wAGfLve9Y?authuser=0&hl=en&rclk=1,"19.2769843,76.7827714"
Masjeed Arafat,Mosque,"Masjeed Arafat, Subhedar Nagar Rd, Azam Colony, Masoom Colony, Parbhani, Maharashtra 431401","Azam Colony, Masoom Colony",Subhedar Nagar Rd,Parbhani,431401,Maharashtra,IN,https://www.google.com/maps/place/Masjeed+Arafat/data=!4m7!3m6!1s0x3bd019e0d85b7c99:0xa8f048c38212a7cf!8m2!3d19.2678046!4d76.7539369!16s%2Fg%2F11cmsmlz08!19sChIJmXxb2OAZ0DsRz6cSgsNI8Kg?authuser=0&hl=en&rclk=1,"19.267804599999998,76.7539369"
Masjid-E-Saheb Jaan,Mosque,"7Q9G+3CF Masjid-E-Saheb Jaan, Gandhi Park, Parbhani, Maharashtra 431401",Gandhi Park,7Q9G+3CF,Parbhani,431401,Maharashtra,IN,https://www.google.com/maps/place/Masjid-E-Saheb+Jaan/data=!4m7!3m6!1s0x3bd019d3904a0b97:0xa2115d88ab8d9d33!8m2!3d19.2676775!4d76.776056!16s%2Fg%2F11dy_k2yl1!19sChIJlwtKkNMZ0DsRM52Nq4hdEaI?authuser=0&hl=en&rclk=1,"19.267677499999998,76.776056"
Khaja Colony Masjid.,Mosque,"7QG6+H8M Khaja Colony Masjid., Khaja Colony, Prabhavati Nagar, Parbhani, Maharashtra 431401","Khaja Colony, Prabhavati Nagar",7QG6+H8M,Parbhani,431401,Maharashtra,IN,https://www.google.com/maps/place/Khaja+Colony+Masjid./data=!4m7!3m6!1s0x3bd017610b8d961f:0x8bb5a32fc7e53545!8m2!3d19.2764508!4d76.7608094!16s%2Fg%2F11b5zf8m8l!19sChIJH5aNC2EX0DsRRTXlxy-jtYs?authuser=0&hl=en&rclk=1,"19.2764508,76.7608094"
Masjid E Mominan,Mosque,"7Q99+4X9 Masjid E Mominan, Momin Mohalla, Mominpura, Parbhani, Maharashtra 431401","Momin Mohalla, Mominpura",7Q99+4X9,Parbhani,431401,Maharashtra,IN,https://www.google.com/maps/place/Masjid+E+Mominan/data=!4m7!3m6!1s0x3bd019d0cb95a937:0x793b55d7ceec4c0d!8m2!3d19.2677948!4d76.77!16s%2Fg%2F11bv30h99x!19sChIJN6mVy9AZ0DsRDUzsztdVO3k?authuser=0&hl=en&rclk=1,"19.2677948,76.77"
jbuunisaa msj'id zybns msjd,Mosque,"7Q74+2VC jbuunisaa msj'id zybns msjd, Aziziya Nagar, Parbhani, Maharashtra 431402",Aziziya Nagar,7Q74+2VC,Parbhani,431402,Maharashtra,IN,https://www.google.com/maps/place/%E0%A4%9C%E0%A4%AC%E0%A5%82%E0%A4%A8%E0%A4%BF%E0%A4%B8%E0%A4%BE+%E0%A4%AE%E0%A4%B8%E0%A5%8D%E0%A4%9C%E0%A4%BC%E0%A4%BF%E0%A4%A6+%D8%B2%DB%8C%D8%A8%D9%86%D8%B3%D8%A7+%D9%85%D8%B3%D8%AC%D8%AF%E2%80%AD/data=!4m7!3m6!1s0x3bd019dd5dcc510d:0xb08b1a6405bec15d!8m2!3d19.2625735!4d76.7571556!16s%2Fg%2F11g6_d3y31!19sChIJDVHMXd0Z0DsRXcG-BWQai7A?authuser=0&hl=en&rclk=1,"19.2625735,76.75715559999999"
Gulab Masjid,Mosque,"7QG3+3VM Gulab Masjid, Inayat Nagar, Prabhavati Nagar, Parbhani, Maharashtra 431401","Inayat Nagar, Prabhavati Nagar",7QG3+3VM,Parbhani,431401,Maharashtra,IN,https://www.google.com/maps/place/Gulab+Masjid/data=!4m7!3m6!1s0x3bd0175fb1bfe03f:0x27805f74b83041bf!8m2!3d19.2752201!4d76.7546836!16s%2Fg%2F11b6gns6wd!19sChIJP-C_sV8X0DsRv0EwuHRfgCc?authuser=0&hl=en&rclk=1,"19.2752201,76.75468359999999"
Hazrat Bilaal R.A Masjid (Masjid e Bilal),Mosque,"7Q9F+MGQ Hazrat Bilaal R.A Masjid (Masjid e Bilal), Maulana Azad Rd, near Janta Matket, Gandhi Park, Parbhani, Maharashtra 4314011",Gandhi Park,"7Q9F+MGQ, Maulana Azad Rd, near Janta Matket",Parbhani,4314011,Maharashtra,IN,https://www.google.com/maps/place/Hazrat+Bilaal+R.A+Masjid+%28Masjid+e+Bilal%29/data=!4m7!3m6!1s0x3bd019d6a652cfe7:0x809726c16616c37d!8m2!3d19.2692121!4d76.7738647!16s%2Fg%2F11c601l2jr!19sChIJ589SptYZ0DsRfcMWZsEml4A?authuser=0&hl=en&rclk=1,"19.2692121,76.77386469999999"
Itlapur Masjid,Mosque,"Itlapur Masjid, New Mondha, Parbhani, Maharashtra 431401",New Mondha,,Parbhani,431401,Maharashtra,IN,https://www.google.com/maps/place/Itlapur+Masjid/data=!4m7!3m6!1s0x3bd019da614f51d7:0xdf009aaf418da09b!8m2!3d19.265252!4d76.76713!16s%2Fg%2F11g8dkc432!19sChIJ11FPYdoZ0DsRm6CNQa-aAN8?authuser=0&hl=en&rclk=1,"19.265252,76.76713"
Masjid Ameer Muaviyah Rz.,Mosque,"7Q8G+QWG Masjid Ameer Muaviyah Rz., Karegaon Rd, Iqbal Nagar, Vakil Colony, Parbhani, Maharashtra 431401","Iqbal Nagar, Vakil Colony","7Q8G+QWG, Karegaon Rd",Parbhani,431401,Maharashtra,IN,https://www.google.com/maps/place/Masjid+Ameer+Muaviyah+Rz./data=!4m7!3m6!1s0x3bd019d30c7ddffd:0xcae585887f73f0f1!8m2!3d19.2669457!4d76.7773157!16s%2Fg%2F11g9w5vp_9!19sChIJ_d99DNMZ0DsR8fBzf4iF5co?authuser=0&hl=en&rclk=1,"19.2669457,76.7773157"
Rahemani Masjid,Mosque,"7QGH+22M Rahemani Masjid, Rahamat nagar, Dr.Zakir Hussain Nagar, Parbhani, Maharashtra 431401","Rahamat nagar, Dr.Zakir Hussain Nagar",7QGH+22M,Parbhani,431401,Maharashtra,IN,https://www.google.com/maps/place/Rahemani+Masjid/data=!4m7!3m6!1s0x3bd0177e35a0b711:0x36d201e092cb10b1!8m2!3d19.275735!4d76.7768132!16s%2Fg%2F11bv1mzp2z!19sChIJEbegNX4X0DsRsRDLkuAB0jY?authuser=0&hl=en&rclk=1,"19.275734999999997,76.77681319999999"
Masjid-E-Ibraheem,Mosque,"7Q97+QMH Masjid-E-Ibraheem, Raj Nagar,Near Mahatma Phule School, Mohammad Ali Rd, Raj Mohalla, Quadrabad plot, Maharashtra 431401",Raj Mohalla,"7Q97+QMH, Raj Nagar,Near Mahatma Phule School, Mohammad Ali Rd","Quadrabad plot, Parbhani",431401,Maharashtra,IN,https://www.google.com/maps/place/Masjid-E-Ibraheem/data=!4m7!3m6!1s0x3bd019d9168af2d7:0xb042a80f715a7d28!8m2!3d19.2694488!4d76.7642433!16s%2Fg%2F11gcz3jch2!19sChIJ1_KKFtkZ0DsRKH1acQ-oQrA?authuser=0&hl=en&rclk=1,"19.2694488,76.76424329999999"
Masjid-e-Noorul Quran,Mosque,"Masjid-e-Noorul Quran, Madina Nagar Rd, Sarnath Colony, Parbhani, Maharashtra 431401",Sarnath Colony,Madina Nagar Rd,Parbhani,431401,Maharashtra,IN,https://www.google.com/maps/place/Masjid-e-Noorul+Quran/data=!4m7!3m6!1s0x3bd017802d5009f7:0xe98d572577aef0f9!8m2!3d19.2776201!4d76.780358!16s%2Fg%2F11bx55r98l!19sChIJ9wlQLYAX0DsR-fCudyVXjek?authuser=0&hl=en&rclk=1,"19.2776201,76.78035799999999"
Station Masjid,Mosque,"7Q5F+CV6 Station Masjid, Gandhi Park, Parbhani, Maharashtra 431401",Gandhi Park,7Q5F+CV6,Parbhani,431401,Maharashtra,IN,https://www.google.com/maps/place/Station+Masjid/data=!4m7!3m6!1s0x3bd019cc3cc0d0ab:0x2ede14ed57f3be9e!8m2!3d19.2585411!4d76.7746495!16s%2Fg%2F11gf9g24bj!19sChIJq9DAPMwZ0DsRnr7zV-0U3i4?authuser=0&hl=en&rclk=1,"19.2585411,76.7746495"
Khizra Masjid,Mosque,"7Q94+P38 Khizra Masjid, Masoom Colony, Parbhani, Maharashtra 431401",Masoom Colony,7Q94+P38,Parbhani,431401,Maharashtra,IN,https://www.google.com/maps/place/Khizra+Masjid/data=!4m7!3m6!1s0x3bd019e0f2b7f671:0x209f4dd2f9c92d07!8m2!3d19.2692915!4d76.7552033!16s%2Fg%2F11g9jhrnbl!19sChIJcfa38uAZ0DsRBy3J-dJNnyA?authuser=0&hl=en&rclk=1,"19.269291499999998,76.75520329999999"
Masjid-E-Police Headquarters,Mosque,"7QF9+5G8 Masjid-E-Police Headquarters, Nanalpeth, Ajintha Nagar, Mamta colony, Shastri Nagar, Parbhani, Maharashtra 431401","Nanalpeth, Ajintha Nagar, Mamta colony, Shastri Nagar",7QF9+5G8,Parbhani,431401,Maharashtra,IN,https://www.google.com/maps/place/Masjid-E-Police+Headquarters/data=!4m7!3m6!1s0x3bd019d7f0f8bbad:0x59638ff7f0c50933!8m2!3d19.2729137!4d76.7688148!16s%2Fg%2F11c70h64rl!19sChIJrbv48NcZ0DsRMwnF8PePY1k?authuser=0&hl=en&rclk=1,"19.2729137,76.7688148"
Hazrat Bilal RA Masjid,Mosque,"7QFP+2H7 Hazrat Bilal RA Masjid, Jawhar Colony, Mumtaz Nagar, Parbhani, Maharashtra 431401","Jawhar Colony, Mumtaz Nagar",7QFP+2H7,Parbhani,431401,Maharashtra,IN,https://www.google.com/maps/place/Hazrat+Bilal+RA+Masjid/data=!4m7!3m6!1s0x3bd018299c994433:0x3652900e5f9098e4!8m2!3d19.2725469!4d76.7864272!16s%2Fg%2F11b8t7zlf9!19sChIJM0SZnCkY0DsR5JiQXw6QUjY?authuser=0&hl=en&rclk=1,"19.2725469,76.78642719999999"
Aamena Masjid,Mosque,"7P8W+WM7 Aamena Masjid, Dargah Rd, Zamzam Colony, Sanjari Nagar, Parbhani, Maharashtra 431401","Zamzam Colony, Sanjari Nagar","7P8W+WM7, Dargah Rd",Parbhani,431401,Maharashtra,IN,https://www.google.com/maps/place/Aamena+Masjid/data=!4m7!3m6!1s0x3bd019e369d0505b:0x2d78c788a45b9d12!8m2!3d19.2672929!4d76.7466738!16s%2Fg%2F11dftph4xl!19sChIJW1DQaeMZ0DsREp1bpIjHeC0?authuser=0&hl=en&rclk=1,"19.267292899999998,76.7466738"
Masjid E Azam Colony Azam Masjid,Mosque,"7QC3+FC3 Masjid E Azam Colony Azam Masjid, Azam Colony, Masoom Colony, Parbhani, Maharashtra 431401","Azam Colony, Masoom Colony",7QC3+FC3,Parbhani,431401,Maharashtra,IN,https://www.google.com/maps/place/Masjid+E+Azam+Colony+Azam+Masjid/data=!4m7!3m6!1s0x3bd019e1b5695299:0xb4181523d860d714!8m2!3d19.2711458!4d76.753542!16s%2Fg%2F11fy95ngkd!19sChIJmVJpteEZ0DsRFNdg2CMVGLQ?authuser=0&hl=en&rclk=1,"19.2711458,76.753542"
Masjid Aqsa,Mosque,"7Q45+9V9 Masjid Aqsa, Indira Gandhi Nagar, Parbhani, Maharashtra 431402",Indira Gandhi Nagar,7Q45+9V9,Parbhani,431402,Maharashtra,IN,https://www.google.com/maps/place/Masjid+Aqsa/data=!4m7!3m6!1s0x3bd019c3d48fa689:0xaf0e6137f4c1445e!8m2!3d19.2559204!4d76.7597419!16s%2Fg%2F11f3ccr2xz!19sChIJiaaP1MMZ0DsRXkTB9DdhDq8?authuser=0&hl=en&rclk=1,"19.2559204,76.7597419"
Masjid-e-Quba,Mosque,"7Q84+J7R Masjid-e-Quba, Near, Subedar Nagar, Khadan, Parbhani, Maharashtra",Kausadi Village,"7Q84+J7R, Near, Subedar Nagar, Khadan",Parbhani,,Maharashtra,IN,https://www.google.com/maps/place/Masjid-e-Quba/data=!4m7!3m6!1s0x3bd019e74ea60a41:0xcc1ae901254dd550!8m2!3d19.2666103!4d76.7556424!16s%2Fg%2F11gcz3hnzw!19sChIJQQqmTucZ0DsRUNVNJQHpGsw?authuser=0&hl=en&rclk=1,"19.2666103,76.7556424"
Shams Masjid,Mosque,"7QFQ+98J Shams Masjid, Amim Colony, Parbhani, Maharashtra 431401",Amim Colony,7QFQ+98J,Parbhani,431401,Maharashtra,IN,https://www.google.com/maps/place/Shams+Masjid/data=!4m7!3m6!1s0x3bd01829b465ef4d:0xf7e10edf015726b7!8m2!3d19.2734644!4d76.7882501!16s%2Fg%2F11c6vzgpxj!19sChIJTe9ltCkY0DsRtyZXAd8O4fc?authuser=0&hl=en&rclk=1,"19.273464399999998,76.7882501"
umriya masjid,Mosque,"7Q43+W45 umriya masjid, Babar Colony, Indira Gandhi Nagar, Parbhani, Maharashtra 431402","Babar Colony, Indira Gandhi Nagar",7Q43+W45,Parbhani,431402,Maharashtra,IN,https://www.google.com/maps/place/umriya+masjid/data=!4m7!3m6!1s0x3bd019e910bf9ff5:0x2f52c002dc15f8dd!8m2!3d19.2572625!4d76.7528594!16s%2Fg%2F11c1v1jn_3!19sChIJ9Z-_EOkZ0DsR3fgV3ALAUi8?authuser=0&hl=en&rclk=1,"19.2572625,76.75285939999999"
Masjid E Ameer hamzaa,Mosque,"Masjid E Ameer hamzaa, Khaja garib navas colony, Dargah Rd, Kausadi Village, Parbhani, Maharashtra 431401",Kausadi Village,"Khaja garib navas colony, Dargah Rd",Parbhani,431401,Maharashtra,IN,https://www.google.com/maps/place/Masjid+E+Ameer+hamzaa/data=!4m7!3m6!1s0x3bd0195fedc36d7b:0x9609bae58c3d79e7!8m2!3d19.2709822!4d76.7490587!16s%2Fg%2F11q4m3lhbt!19sChIJe23D7V8Z0DsR53k9jOW6CZY?authuser=0&hl=en&rclk=1,"19.2709822,76.74905869999999"
Ishat Masjeed,Mosque,"7Q66+5QJ Ishat Masjeed, Bhim Nagar, Kranti Nagar, Parbhani, Maharashtra 431402","Bhim Nagar, Kranti Nagar",7Q66+5QJ,Parbhani,431402,Maharashtra,IN,https://www.google.com/maps/place/Ishat+Masjeed/data=!4m7!3m6!1s0x3bd019c35cf4738d:0x29416ecd92853912!8m2!3d19.2604511!4d76.7619051!16s%2Fg%2F11f48p39fg!19sChIJjXP0XMMZ0DsREjmFks1uQSk?authuser=0&hl=en&rclk=1,"19.260451099999997,76.76190509999999"
ROSHAN BAAGH MASJID BABAR COLONY,Mosque,"7Q53+WJH ROSHAN BAAGH MASJID BABAR COLONY, Babar Colony, Indira Gandhi Nagar, Parbhani, Maharashtra 431402","Babar Colony, Indira Gandhi Nagar",7Q53+WJH,Parbhani,431402,Maharashtra,IN,https://www.google.com/maps/place/ROSHAN+BAAGH+MASJID+BABAR+COLONY/data=!4m7!3m6!1s0x3bd019e8610fc0ef:0xbeebf2d2e63aa859!8m2!3d19.2598101!4d76.7540965!16s%2Fg%2F11c1xm9lfz!19sChIJ78APYegZ0DsRWag65tLy674?authuser=0&hl=en&rclk=1,"19.2598101,76.7540965"
Masjid-E-peer Musa qadri,Mosque,"Masjid-E-peer Musa qadri, Dargah Rd, Khaja garib navas colony, Kausadi Village, Parbhani, Maharashtra 431401","Khaja garib navas colony, Kausadi Village",Dargah Rd,Parbhani,431401,Maharashtra,IN,https://www.google.com/maps/place/Masjid-E-peer+Musa+qadri/data=!4m7!3m6!1s0x3bd01919a8be01a7:0x91daf74b94259bc2!8m2!3d19.2710449!4d76.7494731!16s%2Fg%2F11rvn7fv3r!19sChIJpwG-qBkZ0DsRwpsllEv32pE?authuser=0&hl=en&rclk=1,"19.2710449,76.7494731"
Masjid E Hazrat Aaysha,Mosque,"Masjid E Hazrat Aaysha, Haji Hamid colony Parwa road Haji Hamid colony, Maharashtra 431401",Kausadi Village,Haji Hamid colony Parwa road Haji Hamid colony,"Parbhani, Kaudgaon tarf singanapur",431401,Maharashtra,IN,https://www.google.com/maps/place/Masjid+E+Hazrat+Aaysha/data=!4m7!3m6!1s0x3bd01782c82b76d9:0x64fb2090050c682c!8m2!3d19.2724883!4d76.7442618!16s%2Fg%2F11fcs_58mz!19sChIJ2XYryIIX0DsRLGgMBZAg-2Q?authuser=0&hl=en&rclk=1,"19.2724883,76.74426179999999"
Bukhari Masjid,Mosque,"7Q48+GFM Bukhari Masjid, Sakla plot lohgaon rd Apna Nagar, Maharashtra 431401",Apana Nagar,"7Q48+GFM, Sakla plot lohgaon rd Apna Nagar",Parbhani,431401,Maharashtra,IN,https://www.google.com/maps/place/Bukhari+Masjid/data=!4m7!3m6!1s0x3bd01975448d0c71:0x6b73514ba5a8d8d6!8m2!3d19.2563439!4d76.7661762!16s%2Fg%2F11fl3ywm3z!19sChIJcQyNRHUZ0DsR1tiopUtRc2s?authuser=0&hl=en&rclk=1,"19.256343899999997,76.76617619999999"
Shahi Masjid,Mosque,"7Q8F+6RM Shahi Masjid, Railway Station Rd, Gandhi Park, Parbhani, Maharashtra 431401",Gandhi Park,"7Q8F+6RM, Railway Station Rd",Parbhani,431401,Maharashtra,IN,https://www.google.com/maps/place/Shahi+Masjid/data=!4m7!3m6!1s0x3bd019d3d48fffff:0xb9deddb3ab171741!8m2!3d19.2655815!4d76.7745507!16s%2Fg%2F11sscsgc74!19sChIJ__-P1NMZ0DsRQRcXq7Pd3rk?authuser=0&hl=en&rclk=1,"19.2655815,76.77455069999999"
Khadim Ahelesunat Masjid,Mosque,"7QFJ+8Q6 Khadim Ahelesunat Masjid, Dhar Rd, Dr.Zakir Hussain Nagar, Parbhani, Maharashtra 431401",Dr.Zakir Hussain Nagar,"7QFJ+8Q6, Dhar Rd",Parbhani,431401,Maharashtra,IN,https://www.google.com/maps/place/Khadim+Ahelesunat+Masjid/data=!4m7!3m6!1s0x3bd019594cddd867:0x50058ab1e698f740!8m2!3d19.2732953!4d76.7819009!16s%2Fg%2F11h6mrgr1s!19sChIJZ9jdTFkZ0DsRQPeY5rGKBVA?authuser=0&hl=en&rclk=1,"19.273295299999997,76.7819009"
Masjid E Aqsa Savera Colony. msjide aksaa sveraa koNlonii.,Mosque,"7QHQ+XCP Masjid E Aqsa Savera Colony. msjide aksaa sveraa koNlonii., Savera Colony, Dhar Rd, Parbhani, Maharashtra 431401",,"7QHQ+XCP, Savera Colony, Dhar Rd",Parbhani,431401,Maharashtra,IN,https://www.google.com/maps/place/Masjid+E+Aqsa+Savera+Colony.+%E0%A4%AE%E0%A4%B8%E0%A5%8D%E0%A4%9C%E0%A4%BF%E0%A4%A6%E0%A5%87+%E0%A4%85%E0%A4%95%E0%A5%8D%E0%A4%B8%E0%A4%BE+%E0%A4%B8%E0%A4%B5%E0%A5%87%E0%A4%B0%E0%A4%BE+%E0%A4%95%E0%A5%89%E0%A4%B2%E0%A5%8B%E0%A4%A8%E0%A5%80./data=!4m7!3m6!1s0x3bd017785c496e6b:0x484083d80c9ad460!8m2!3d19.2799595!4d76.7885663!16s%2Fg%2F11frp0k_v6!19sChIJa25JXHgX0DsRYNSaDNiDQEg?authuser=0&hl=en&rclk=1,"19.2799595,76.7885663"
Masjid E Gojri Gojri Bazar parbhani,Mosque,"7Q9C+C92 Masjid E Gojri Gojri Bazar parbhani, Shah Inayat Mohalla, Ajintha Nagar, Mamta colony, New Mondha, Parbhani, Maharashtra 431401","Shah Inayat Mohalla, Ajintha Nagar, Mamta colony, New Mondha",7Q9C+C92,Parbhani,431401,Maharashtra,IN,https://www.google.com/maps/place/Masjid+E+Gojri+Gojri+Bazar+parbhani/data=!4m7!3m6!1s0x3bd019d7295de869:0xad24845786657f3e!8m2!3d19.2685106!4d76.7708869!16s%2Fg%2F11g9k2gkm1!19sChIJaehdKdcZ0DsRPn9lhleEJK0?authuser=0&hl=en&rclk=1,"19.2685106,76.7708869"
Masjid e Idrisiya,Mosque,"7Q9F+99C Masjid e Idrisiya, Unnamed Road, Gandhi Park, Parbhani, Maharashtra 431401",Gandhi Park,"7Q9F+99C, Unnamed Road",Parbhani,431401,Maharashtra,IN,https://www.google.com/maps/place/Masjid+e+Idrisiya/data=!4m7!3m6!1s0x3bd019d6ad6de4bd:0xb4e4473880bcab64!8m2!3d19.2684375!4d76.7733955!16s%2Fg%2F11h9wfhtk5!19sChIJveRtrdYZ0DsRZKu8gDhH5LQ?authuser=0&hl=en&rclk=1,"19.268437499999997,76.77339549999999"
Madarsa Al-Tauheed,Mosque,"7QFM+XWW Madarsa Al-Tauheed, Dhar Rd, Amim Colony, Parbhani, Maharashtra 431401",Amim Colony,"7QFM+XWW, Dhar Rd",Parbhani,431401,Maharashtra,IN,https://www.google.com/maps/place/Madarsa+Al-Tauheed/data=!4m7!3m6!1s0x3bd0182a080fdd55:0x2dba6ccf12b05f6c!8m2!3d19.2749771!4d76.7848175!16s%2Fg%2F11b7fs8x8s!19sChIJVd0PCCoY0DsRbF-wEs9sui0?authuser=0&hl=en&rclk=1,"19.274977099999997,76.7848175"
Masjid E Taubah & Darul Uloom Azizya Parbhani,Mosque,"7PHX+4C7 Masjid E Taubah & Darul Uloom Azizya Parbhani, Prabhavati Nagar, Parbhani, Maharashtra 431401",Prabhavati Nagar,7PHX+4C7,Parbhani,431401,Maharashtra,IN,https://www.google.com/maps/place/Masjid+E+Taubah+%26+Darul+Uloom+Azizya+Parbhani/data=!4m7!3m6!1s0x3bd0176b3e3ac69f:0x35cdec54776abe32!8m2!3d19.2777919!4d76.7485349!16s%2Fg%2F11gxslrsv4!19sChIJn8Y6PmsX0DsRMr5qd1TszTU?authuser=0&hl=en&rclk=1,"19.2777919,76.7485349"
Masjid-E-Moosa Adam,Mosque,"Masjid-E-Moosa Adam, Near, Maulana Azad Rd, Gandhi Park, Parbhani, Maharashtra 431401",Gandhi Park,"Near, Maulana Azad Rd",Parbhani,431401,Maharashtra,IN,https://www.google.com/maps/place/Masjid-E-Moosa+Adam/data=!4m7!3m6!1s0x3bd019c2555acf51:0x6f334fca5a860ff4!8m2!3d19.2708607!4d76.7749363!16s%2Fg%2F11ffw5fzwd!19sChIJUc9aVcIZ0DsR9A-GWspPM28?authuser=0&hl=en&rclk=1,"19.2708607,76.7749363"
Masjid-E-Ajmeri,Mosque,"7Q94+9VX Masjid-E-Ajmeri, Ajmer Colony, Dargah Rd, Parbhani, Maharashtra 431401",Masoom Colony,"7Q94+9VX, Ajmer Colony, Dargah Rd",Parbhani,431401,Maharashtra,IN,https://www.google.com/maps/place/Masjid-E-Ajmeri/data=!4m7!3m6!1s0x3bd0193dc879fd83:0x827eb4d771f541df!8m2!3d19.2684977!4d76.7572381!16s%2Fg%2F11rn20w49g!19sChIJg_15yD0Z0DsR30H1cde0foI?authuser=0&hl=en&rclk=1,"19.268497699999998,76.7572381"
MASJID -E- ZAMZAM,Mosque,"7P9X+G2F MASJID -E- ZAMZAM, Kausadi Village, Parbhani, Maharashtra 431401",Kausadi Village,7P9X+G2F,Parbhani,431401,Maharashtra,IN,https://www.google.com/maps/place/MASJID+-E-+ZAMZAM/data=!4m7!3m6!1s0x3bd01986ea600293:0xc638e095a341a240!8m2!3d19.2688223!4d76.7475458!16s%2Fg%2F11hdjz3w4y!19sChIJkwJg6oYZ0DsRQKJBo5XgOMY?authuser=0&hl=en&rclk=1,"19.2688223,76.7475458"
Baradari Masjid,Mosque,"7Q6G+9MR Baradari Masjid, Gandhi Park, Parbhani, Maharashtra 431401",Gandhi Park,7Q6G+9MR,Parbhani,431401,Maharashtra,IN,https://www.google.com/maps/place/Baradari+Masjid/data=!4m7!3m6!1s0x3bd019cda114d9f7:0xee9213bec4d8e13f!8m2!3d19.2609943!4d76.7766377!16s%2Fg%2F11c60dx955!19sChIJ99kUoc0Z0DsRP-HYxL4Tku4?authuser=0&hl=en&rclk=1,"19.2609943,76.7766377"
Quba Masjid Barkat Nagar,Mosque,"7QJG+HV3 Quba Masjid Barkat Nagar, Barkat nagar, Maharashtra 431401",Sarnath Colony,"7QJG+HV3, Barkat nagar",Parbhani,431401,Maharashtra,IN,https://www.google.com/maps/place/Quba+Masjid+Barkat+Nagar/data=!4m7!3m6!1s0x3bd017a99bc53c01:0x923b09ffb92b98dc!8m2!3d19.2813912!4d76.7771628!16s%2Fg%2F11j8rlv9pn!19sChIJATzFm6kX0DsR3Jgruf8JO5I?authuser=0&hl=en&rclk=1,"19.281391199999998,76.7771628"
Gausiya Masjid Babar Colony,Mosque,"7Q42+5W Gausiya Masjid Babar Colony, Babar Colony, Indira Gandhi Nagar, Parbhani, Maharashtra 431402","Babar Colony, Indira Gandhi Nagar",7Q42+5W,Parbhani,,Maharashtra,IN,https://www.google.com/maps/place/Gausiya+Masjid+Babar+Colony/data=!4m7!3m6!1s0x3bd0196555b83b79:0xcd6024f7024f56cb!8m2!3d19.2554934!4d76.7522807!16s%2Fg%2F11rkf2st3r!19sChIJeTu4VWUZ0DsRy1ZPAvckYM0?authuser=0&hl=en&rclk=1,"19.2554934,76.7522807"
Masjid A Mohamddiya,Mosque,"7Q55+8C2 Masjid A Mohamddiya, Vikas Nagar, Tathagat Nagar, Parbhani, Maharashtra 431402","Vikas Nagar, Tathagat Nagar",7Q55+8C2,Parbhani,431402,Maharashtra,IN,https://www.google.com/maps/place/Masjid+A+Mohamddiya/data=!4m7!3m6!1s0x3bd019c25ee92cd9:0x4a31d54fba6f06dc!8m2!3d19.2582507!4d76.7585127!16s%2Fg%2F11f2_3vnkb!19sChIJ2SzpXsIZ0DsR3AZvuk_VMUo?authuser=0&hl=en&rclk=1,"19.258250699999998,76.7585127"
Syed Sadat (RH) Masjid,Mosque,"7Q44+M4F Syed Sadat (RH) Masjid, Babar Colony, Indira Gandhi Nagar, Parbhani, Maharashtra 431401","Babar Colony, Indira Gandhi Nagar",7Q44+M4F,Parbhani,431401,Maharashtra,IN,https://www.google.com/maps/place/Syed+Sadat+%28RH%29+Masjid/data=!4m7!3m6!1s0x3bd019e9b3a8a2ef:0x6ebe838c4eb48107!8m2!3d19.2566816!4d76.7553106!16s%2Fg%2F11c2pr_dc2!19sChIJ76Kos-kZ0DsRB4G0ToyDvm4?authuser=0&hl=en&rclk=1,"19.2566816,76.7553106"
Mohammadi Masjid,Mosque,"7Q4J+94W Mohammadi Masjid, shankar Nagar, Parbhani, Maharashtra 431401",shankar Nagar,7Q4J+94W,Parbhani,431401,Maharashtra,IN,https://www.google.com/maps/place/Mohammadi+Masjid/data=!4m7!3m6!1s0x3bd019aeccfc78a9:0x6532fcc4368cc943!8m2!3d19.2559884!4d76.7803205!16s%2Fg%2F11h7b35m9j!19sChIJqXj8zK4Z0DsRQ8mMNsT8MmU?authuser=0&hl=en&rclk=1,"19.2559884,76.7803205"
Makka masjid,Mosque,"7QG9+VJH Makka masjid, Vidya Nagar Rd, Vidya Nagar, Parbhani, Maharashtra 431401",Vidya Nagar,"7QG9+VJH, Vidya Nagar Rd",Parbhani,431401,Maharashtra,IN,https://www.google.com/maps/place/Makka+masjid/data=!4m7!3m6!1s0x3bd017f8ddddff69:0xbc0afb09aa18d3ee!8m2!3d19.2771976!4d76.7691187!16s%2Fg%2F11h3dy9nyt!19sChIJaf_d3fgX0DsR7tMYqgn7Crw?authuser=0&hl=en&rclk=1,"19.277197599999997,76.76911869999999"
Masjid Umar Bin Abdul Aziz,Mosque,"7QJJ+FPF Masjid Umar Bin Abdul Aziz, Sarnath Colony, Parbhani, Maharashtra 431401",Sarnath Colony,7QJJ+FPF,Parbhani,431401,Maharashtra,IN,https://www.google.com/maps/place/Masjid+Umar+Bin+Abdul+Aziz/data=!4m7!3m6!1s0x3bd01717744a9fa7:0xc2406f1d7b300a89!8m2!3d19.2811934!4d76.781795!16s%2Fg%2F11q8jt6615!19sChIJp59KdBcX0DsRiQowex1vQMI?authuser=0&hl=en&rclk=1,"19.2811934,76.781795"
Masjid-E-Abu Hanifa,Mosque,"7P9X+R2M Masjid-E-Abu Hanifa, Unnamed Road, Kausadi Village, Parbhani, Maharashtra 431401",Kausadi Village,"7P9X+R2M, Unnamed Road",Parbhani,431401,Maharashtra,IN,https://www.google.com/maps/place/Masjid-E-Abu+Hanifa/data=!4m7!3m6!1s0x3bd01953f323344d:0x5f8deb56df268d9a!8m2!3d19.2695944!4d76.7475493!16s%2Fg%2F11h1dj5n7k!19sChIJTTQj81MZ0DsRmo0m31brjV8?authuser=0&hl=en&rclk=1,"19.2695944,76.7475493"
ARFAT MASJID BABAR COLONY,Mosque,"7Q53+6V5 ARFAT MASJID BABAR COLONY, Babar Colony, Indira Gandhi Nagar, Parbhani, Maharashtra 431401","Babar Colony, Indira Gandhi Nagar",7Q53+6V5,Parbhani,431401,Maharashtra,IN,https://www.google.com/maps/place/ARFAT+MASJID+BABAR+COLONY/data=!4m7!3m6!1s0x3bd019e9b3a8a2ef:0xc7b8fe9ac1f79952!8m2!3d19.2580235!4d76.7547441!16s%2Fg%2F11cs5gq53s!19sChIJ76Kos-kZ0DsRUpn3wZr-uMc?authuser=0&hl=en&rclk=1,"19.2580235,76.7547441"
Masjid Al Safa,Mosque,"Masjid Al Safa, Parwa Gate, Zamzam Colony, Parbhani, Maharashtra 431401",Zamzam Colony,Parwa Gate,Parbhani,431401,Maharashtra,IN,https://www.google.com/maps/place/Masjid+Al+Safa/data=!4m7!3m6!1s0x3bd019fa6ce4405d:0x128a7eb4893e9f82!8m2!3d19.2688572!4d76.7442301!16s%2Fg%2F11fmh748s_!19sChIJXUDkbPoZ0DsRgp8-ibR-ihI?authuser=0&hl=en&rclk=1,"19.2688572,76.7442301"
Masjid A Hamja,Mosque,"7Q73+GGR Masjid A Hamja, Unnamed Road, Alibagh Nagar, Tathagat Nagar, Parbhani, Maharashtra 431402","Alibagh Nagar, Tathagat Nagar","7Q73+GGR, Unnamed Road",Parbhani,431402,Maharashtra,IN,https://www.google.com/maps/place/Masjid+A+Hamja/data=!4m7!3m6!1s0x3bd01919cf24fd7f:0x51855e40bed4f3eb!8m2!3d19.2638653!4d76.7537767!16s%2Fg%2F11ffvtm5xf!19sChIJf_0kzxkZ0DsR6_PUvkBehVE?authuser=0&hl=en&rclk=1,"19.2638653,76.7537767"
Fatema Masjid,School,"7Q92+4F5 Fatema Masjid, Unnamed Road, Kausadi Village, Parbhani, Maharashtra 431401",Kausadi Village,"7Q92+4F5, Unnamed Road",Parbhani,431401,Maharashtra,IN,https://www.google.com/maps/place/Fatema+Masjid/data=!4m7!3m6!1s0x3bd019e15e9cd257:0xdb4997681326e255!8m2!3d19.2677628!4d76.7512396!16s%2Fg%2F11c70j3_70!19sChIJV9KcXuEZ0DsRVeImE2iXSds?authuser=0&hl=en&rclk=1,"19.2677628,76.75123959999999"
Masjid e Muhammadi,Mosque,"Masjid e Muhammadi, sanjay gandhi nager, Masoom Colony, Parbhani, Maharashtra 431401",Masoom Colony,sanjay gandhi nager,Parbhani,431401,Maharashtra,IN,https://www.google.com/maps/place/Masjid+e+Muhammadi/data=!4m7!3m6!1s0x3bd019b6cdbf38b9:0xed43755bccbc33a0!8m2!3d19.2646149!4d76.7586486!16s%2Fg%2F11r62qmys4!19sChIJuTi_zbYZ0DsRoDO8zFt1Q-0?authuser=0&hl=en&rclk=1,"19.264614899999998,76.7586486"
Masjid e rahim nagar,Mosque,"Masjid e rahim nagar, Sanmitra Colony, Rahul Nagar, Parbhani, Maharashtra 431401","Sanmitra Colony, Rahul Nagar",,Parbhani,431401,Maharashtra,IN,https://www.google.com/maps/place/Masjid+e+rahim+nagar/data=!4m7!3m6!1s0x3bd019c7cf4f4fe3:0x60ed0cafc93b56cd!8m2!3d19.2650558!4d76.7836116!16s%2Fg%2F11ft8ggwgw!19sChIJ409Pz8cZ0DsRzVY7ya8M7WA?authuser=0&hl=en&rclk=1,"19.2650558,76.7836116"
Masjid E Mahtab Ali Shah (Purana Markaz),Mosque,"Masjid E Mahtab Ali Shah (Purana Markaz), Gandhi Park, Parbhani, Maharashtra 431401",Gandhi Park,,Parbhani,431401,Maharashtra,IN,https://www.google.com/maps/place/Masjid+E+Mahtab+Ali+Shah+%28Purana+Markaz%29/data=!4m7!3m6!1s0x3bd019674570142b:0x4653fd3b90589348!8m2!3d19.2710139!4d76.7717166!16s%2Fg%2F11fd1j7t25!19sChIJKxRwRWcZ0DsRSJNYkDv9U0Y?authuser=0&hl=en&rclk=1,"19.2710139,76.77171659999999"
Usmania masjid,Mosque,"7QCP+J3F Usmania masjid, Harsh Nagar, Mumtaz Nagar, Parbhani, Maharashtra 431401","Harsh Nagar, Mumtaz Nagar",7QCP+J3F,Parbhani,431401,Maharashtra,IN,https://www.google.com/maps/place/Usmania+masjid/data=!4m7!3m6!1s0x3bd019c586944569:0x2810b3fd607c8b2d!8m2!3d19.2715503!4d76.7851619!16s%2Fg%2F11l150_lpj!19sChIJaUWUhsUZ0DsRLYt8YP2zECg?authuser=0&hl=en&rclk=1,"19.271550299999998,76.78516189999999"
nizaamoddin masjid,Mosque,"7Q9J+VJ5 nizaamoddin masjid, Mumtaz Nagar, Parbhani, Maharashtra 431401",Mumtaz Nagar,7Q9J+VJ5,Parbhani,431401,Maharashtra,IN,https://www.google.com/maps/place/nizaamoddin+masjid/data=!4m7!3m6!1s0x3bd0182b68ab22cf:0xc7bb287908da9cb!8m2!3d19.2696485!4d76.781615!16s%2Fg%2F11hdc4ydrs!19sChIJzyKraCsY0DsRy6mNkIeyeww?authuser=0&hl=en&rclk=1,"19.2696485,76.781615"
Masjid-E-Zohra,Mosque,"7QGP+3G2 Masjid-E-Zohra, Amim Colony, Parbhani, Maharashtra 431401",Amim Colony,7QGP+3G2,Parbhani,431401,Maharashtra,IN,https://www.google.com/maps/place/Masjid-E-Zohra/data=!4m7!3m6!1s0x3bd0175c739e16dd:0x4cae51f69573cbac!8m2!3d19.2751266!4d76.7862746!16s%2Fg%2F11gxm8g8cz!19sChIJ3Raec1wX0DsRrMtzlfZRrkw?authuser=0&hl=en&rclk=1,"19.2751266,76.7862746"
Burhansaheb Dargah,Mosque,"7Q69+PJ4 Burhansaheb Dargah, New Mondha, Parbhani, Maharashtra 431401",New Mondha,7Q69+PJ4,Parbhani,431401,Maharashtra,IN,https://www.google.com/maps/place/Burhansaheb+Dargah/data=!4m7!3m6!1s0x3bd019cfe48dc08b:0xbe0771e10d08749d!8m2!3d19.2617516!4d76.7690781!16s%2Fg%2F124ycvdbk!19sChIJi8CN5M8Z0DsRnXQIDeFxB74?authuser=0&hl=en&rclk=1,"19.2617516,76.7690781"
Masjid Quba,Mosque,"7Q8H+VQP Masjid Quba, Vakil Colony, Parbhani, Maharashtra 431401",Vakil Colony,7Q8H+VQP,Parbhani,431401,Maharashtra,IN,https://www.google.com/maps/place/Masjid+Quba/data=!4m7!3m6!1s0x3bd0193b3e31991f:0x499b9a78f0692273!8m2!3d19.2672201!4d76.7794558!16s%2Fg%2F11nxb_mxtv!19sChIJH5kxPjsZ0DsRcyJp8Hiam0k?authuser=0&hl=en&rclk=1,"19.2672201,76.7794558"
Masjid jameatul huda,Mosque,"7Q6G+4WW Masjid jameatul huda, Parli - Tapowan Rd, Shivaji Nagar, Parbhani, Maharashtra 431401",Shivaji Nagar,"7Q6G+4WW, Parli - Tapowan Rd",Parbhani,431401,Maharashtra,IN,https://www.google.com/maps/place/Masjid+jameatul+huda/data=!4m7!3m6!1s0x3bd019f16581a4ed:0x9c6e9e67fae2bddc!8m2!3d19.2603623!4d76.7773253!16s%2Fg%2F11fjvvlclv!19sChIJ7aSBZfEZ0DsR3L3i-meebpw?authuser=0&hl=en&rclk=1,"19.2603623,76.7773253"
Khuba masjid,Mosque,"7QGJ+5RG Khuba masjid, Barkat nagar, Sarnath Colony, Parbhani, Maharashtra 431401","Barkat nagar, Sarnath Colony",7QGJ+5RG,Parbhani,431401,Maharashtra,IN,https://www.google.com/maps/place/Khuba+masjid/data=!4m7!3m6!1s0x3bd01765abab1b95:0x763c56f8a479ff94!8m2!3d19.2754286!4d76.7820888!16s%2Fg%2F11h7vlw6lf!19sChIJlRurq2UX0DsRlP95pPhWPHY?authuser=0&hl=en&rclk=1,"19.275428599999998,76.7820888"
Parbhani,Mosque,"7QCG+JV3 Parbhani, Dr. Zaker Husaain College Rd, Dr.Zakir Hussain Nagar, Parbhani, Maharashtra 431401",Dr.Zakir Hussain Nagar,"7QCG+JV3, Dr. Zaker Husaain College Rd",Parbhani,431401,Maharashtra,IN,https://www.google.com/maps/place/Parbhani/data=!4m7!3m6!1s0x3bd019c600867e8b:0xadf46bbb6d5f9dd0!8m2!3d19.2715177!4d76.7771771!16s%2Fg%2F11t8546vyd!19sChIJi36GAMYZ0DsR0J1fbbtr9K0?authuser=0&hl=en&rclk=1,"19.2715177,76.7771771"
Abdul raheem masjid ahle sunnat ul jamaat,Mosque,"7PGR+JPW Abdul raheem masjid ahle sunnat ul jamaat, Kaudgaon tarf singanapur, Parbhani, Maharashtra 431401",,7PGR+JPW,"Kaudgaon tarf singanapur, Parbhani",,Maharashtra,IN,https://www.google.com/maps/place/Abdul+raheem+masjid+ahle+sunnat+ul+jamaat/data=!4m7!3m6!1s0x3bd017b414d09e0d:0x3bdcc6d3ccfb2309!8m2!3d19.2766194!4d76.7418399!16s%2Fg%2F11rcd913k0!19sChIJDZ7QFLQX0DsRCSP7zNPG3Ds?authuser=0&hl=en&rclk=1,"19.276619399999998,76.7418399"
Masjid-e-abdul-wahab,Mosque,"7QHM+8RF Masjid-e-abdul-wahab, Unnamed Road, Sarnath Colony, Parbhani, Maharashtra 431401",Sarnath Colony,"7QHM+8RF, Unnamed Road",Parbhani,431401,Maharashtra,IN,https://www.google.com/maps/place/Masjid-e-abdul-wahab/data=!4m7!3m6!1s0x3bd017cc92acea09:0x6a1d9dc24c3b429!8m2!3d19.2783078!4d76.7845347!16s%2Fg%2F11h5lv9w8s!19sChIJCeqskswX0DsRKbTDJNzZoQY?authuser=0&hl=en&rclk=1,"19.2783078,76.7845347"
Masjid E Umar Farooq Razi Allah Tala,Mosque,"7Q8H+589 Masjid E Umar Farooq Razi Allah Tala, Vakil Colony, Parbhani, Maharashtra 431401",Vakil Colony,7Q8H+589,Parbhani,431401,Maharashtra,IN,https://www.google.com/maps/place/Masjid+E+Umar+Farooq+Razi+Allah+Tala/data=!4m7!3m6!1s0x3bd01973dd0fac5f:0x362dac59243376e9!8m2!3d19.2654025!4d76.7783476!16s%2Fg%2F11nxbtxhym!19sChIJX6wP3XMZ0DsR6XYzJFmsLTY?authuser=0&hl=en&rclk=1,"19.2654025,76.7783476"
Mohammadiya Masjid,Mosque,"7Q77+PHR Mohammadiya Masjid, New Mondha, Parbhani, Maharashtra 431401",New Mondha,7Q77+PHR,Parbhani,431401,Maharashtra,IN,https://www.google.com/maps/place/Mohammadiya+Masjid/data=!4m7!3m6!1s0x3bd019285ecb7b5b:0x83f8881757c2e7e5!8m2!3d19.264368!4d76.7638933!16s%2Fg%2F11fjx_6y94!19sChIJW3vLXigZ0DsR5efCVxeI-IM?authuser=0&hl=en&rclk=1,"19.264367999999997,76.76389329999999"
Baghban masjid,Mosque,"7Q9F+39H Baghban masjid, Komati Galli, Gandhi Park, Parbhani, Maharashtra 431401",Gandhi Park,"7Q9F+39H, Komati Galli",Parbhani,431401,Maharashtra,IN,https://www.google.com/maps/place/Baghban+masjid/data=!4m7!3m6!1s0x3bd019b5ca3322a5:0x6de0ac79f0da5751!8m2!3d19.2676901!4d76.7734926!16s%2Fg%2F11t9y45rb6!19sChIJpSIzyrUZ0DsRUVfa8Hms4G0?authuser=0&hl=en&rclk=1,"19.2676901,76.7734926"
Peth Mohallah Masjid,Mosque,"7QCC+F28 Peth Mohallah Masjid, Shastri Nagar, Parbhani, Maharashtra 431401",Shastri Nagar,7QCC+F28,Parbhani,431401,Maharashtra,IN,https://www.google.com/maps/place/Peth+Mohallah+Masjid/data=!4m7!3m6!1s0x3bd0196f44c53de5:0xa7a38a145496c7cf!8m2!3d19.2711572!4d76.7700727!16s%2Fg%2F11gn1_zmlw!19sChIJ5T3FRG8Z0DsRz8eWVBSKo6c?authuser=0&hl=en&rclk=1,"19.271157199999998,76.7700727"
nuur msjid noor masjid,Mosque,"7QM3+J75 nuur msjid noor masjid, TSF Parbhani, Parbhani, Maharashtra 431401",TSF Parbhani,7QM3+J75,Parbhani,431401,Maharashtra,IN,https://www.google.com/maps/place/%E0%A4%A8%E0%A5%82%E0%A4%B0+%E0%A4%AE%E0%A4%B8%E0%A5%8D%E0%A4%9C%E0%A4%BF%E0%A4%A6+noor+masjid/data=!4m7!3m6!1s0x3bd0177be2c40ab3:0xc6265f4d21361a74!8m2!3d19.2840083!4d76.7532373!16s%2Fg%2F11j7cfy5xp!19sChIJswrE4nsX0DsRdBo2IU1fJsY?authuser=0&hl=en&rclk=1,"19.2840083,76.7532373"
Fatema Masjid,Mosque,"7Q66+WRX Fatema Masjid, Masoom Colony, Parbhani, Maharashtra 431401",Masoom Colony,7Q66+WRX,Parbhani,431401,Maharashtra,IN,https://www.google.com/maps/place/Fatema+Masjid/data=!4m7!3m6!1s0x3bd019c4698b1059:0x950f3b6743f32329!8m2!3d19.2623626!4d76.7621066!16s%2Fg%2F11p028rlwp!19sChIJWRCLacQZ0DsRKSPzQ2c7D5U?authuser=0&hl=en&rclk=1,"19.2623626,76.7621066"
Masjid -E- abbu bakar siddikh msjid e abuu bkr siddiik,Mosque,"7QGQ+66P Masjid -E- abbu bakar siddikh msjid e abuu bkr siddiik, Amim Colony, Parbhani, Maharashtra 431401",Amim Colony,7QGQ+66P,Parbhani,431401,Maharashtra,IN,https://www.google.com/maps/place/Masjid+-E-+abbu+bakar+siddikh+%E0%A4%AE%E0%A4%B8%E0%A5%8D%E0%A4%9C%E0%A4%BF%E0%A4%A6+%E0%A4%8F+%E0%A4%85%E0%A4%AC%E0%A5%82+%E0%A4%AC%E0%A4%95%E0%A4%B0+%E0%A4%B8%E0%A4%BF%E0%A4%A6%E0%A5%8D%E0%A4%A6%E0%A5%80%E0%A4%95/data=!4m7!3m6!1s0x3bd01784bc4c182f:0xa17ddeae4f6a82d6!8m2!3d19.2755766!4d76.7880918!16s%2Fg%2F11j7vpcv6p!19sChIJLxhMvIQX0DsR1oJqT67efaE?authuser=0&hl=en&rclk=1,"19.2755766,76.78809179999999"
Masjid-e-qadriyah,Mosque,"7Q9H+CVG Masjid-e-qadriyah, Mumtaz Nagar Rd, Iqbal Nagar, Mumtaz Nagar, Parbhani, Maharashtra 431401","Iqbal Nagar, Mumtaz Nagar","7Q9H+CVG, Mumtaz Nagar Rd",Parbhani,431401,Maharashtra,IN,https://www.google.com/maps/place/Masjid-e-qadriyah/data=!4m7!3m6!1s0x3bd019b5c3492b03:0x34a843a1e473a033!8m2!3d19.2685642!4d76.7797046!16s%2Fg%2F11rvdc06ws!19sChIJAytJw7UZ0DsRM6Bz5KFDqDQ?authuser=0&hl=en&rclk=1,"19.2685642,76.7797046"
Khaja Bande Nawaz Masjid,Mosque,"7QHJ+WVG Khaja Bande Nawaz Masjid, Sarnath Colony, Parbhani, Maharashtra 431401",Sarnath Colony,7QHJ+WVG,Parbhani,431401,Maharashtra,IN,https://www.google.com/maps/place/Khaja+Bande+Nawaz+Masjid/data=!4m7!3m6!1s0x3bd017e70a22ac63:0x2d097f1ae76997ef!8m2!3d19.2798038!4d76.7821948!16s%2Fg%2F11nxbcynzh!19sChIJY6wiCucX0DsR75dp5xp_CS0?authuser=0&hl=en&rclk=1,"19.2798038,76.7821948"
"Masjid Inamul Hasan, Markaz Parbhani",Mosque,"7QFF+7RF Masjid Inamul Hasan, Markaz Parbhani, Umay nagar, Parbhani, Maharashtra 431401",Umay nagar,7QFF+7RF,Parbhani,,Maharashtra,IN,"https://www.google.com/maps/place/Masjid+Inamul+Hasan,+Markaz+Parbhani/data=!4m7!3m6!1s0x3bd01912b100e587:0xcffd0c34dd3568eb!8m2!3d19.2731751!4d76.774547!16s%2Fg%2F11kbwfgsq5!19sChIJh-UAsRIZ0DsR62g13TQM_c8?authuser=0&hl=en&rclk=1","19.2731751,76.774547"
Madarsa Masjid Al hasnain,Mosque,"7QFP+7V2 Madarsa Masjid Al hasnain, Amim Colony, Parbhani, Maharashtra 431401",Amim Colony,7QFP+7V2,Parbhani,431401,Maharashtra,IN,https://www.google.com/maps/place/Madarsa+Masjid+Al+hasnain/data=!4m7!3m6!1s0x3bd0199f37e09917:0xc4956a4e8629ca77!8m2!3d19.2731287!4d76.7871451!16s%2Fg%2F11lpry3sdv!19sChIJF5ngN58Z0DsRd8ophk5qlcQ?authuser=0&hl=en&rclk=1,"19.2731287,76.7871451"
Ali masjid,School,"7QHV+57 Ali masjid, Parbhani, Maharashtra 431401",,7QHV+57,Parbhani,,Maharashtra,IN,https://www.google.com/maps/place/Ali+masjid/data=!4m7!3m6!1s0x3bd017aae25557db:0x8491fffd13a9198e!8m2!3d19.2779817!4d76.793145!16s%2Fg%2F11kj3nzsnb!19sChIJ21dV4qoX0DsRjhmpE_3_kYQ?authuser=0&hl=en&rclk=1,"19.277981699999998,76.793145"
Masjid-e-bibi Amena,Mosque,"7P8V+7CH Masjid-e-bibi Amena, near Zamzam function hall, Zamzam Colony, Parbhani, Maharashtra 431401",Zamzam Colony,"7P8V+7CH, near Zamzam function hall",Parbhani,431401,Maharashtra,IN,https://www.google.com/maps/place/Masjid-e-bibi+Amena/data=!4m7!3m6!1s0x3bd019b187bec55b:0x50c40d974c3cd039!8m2!3d19.2656889!4d76.7436154!16s%2Fg%2F11rgzzb02v!19sChIJW8W-h7EZ0DsROdA8TJcNxFA?authuser=0&hl=en&rclk=1,"19.2656889,76.7436154"
Ansar Masjid,Mosque,"7P9X+4H Ansar Masjid, Kausadi Village, Parbhani, Maharashtra 431401",Kausadi Village,7P9X+4H,Parbhani,,Maharashtra,IN,https://www.google.com/maps/place/Ansar+Masjid/data=!4m7!3m6!1s0x3bd0198318b8176f:0x37a7865a05649ca4!8m2!3d19.2677667!4d76.7488766!16s%2Fg%2F11v0pxjgf7!19sChIJbxe4GIMZ0DsRpJxkBVqGpzc?authuser=0&hl=en&rclk=1,"19.2677667,76.7488766"
Masjid Noor-Ul-Quran,Mosque,"7QGH+GP4 Masjid Noor-Ul-Quran, Unnamed Road, Sarnath Colony, Parbhani, Maharashtra 431401",Sarnath Colony,"7QGH+GP4, Unnamed Road",Parbhani,431401,Maharashtra,IN,https://www.google.com/maps/place/Masjid+Noor-Ul-Quran/data=!4m7!3m6!1s0x3bd0176ee9195697:0xb6746deac6466dab!8m2!3d19.2762543!4d76.7793136!16s%2Fg%2F11vds8l0vh!19sChIJl1YZ6W4X0DsRq21GxuptdLY?authuser=0&hl=en&rclk=1,"19.276254299999998,76.7793136"
Bilal masjid,Mosque,"7Q7C+2MP Bilal masjid, New Mondha, Parbhani, Maharashtra 431401",New Mondha,7Q7C+2MP,Parbhani,431401,Maharashtra,IN,https://www.google.com/maps/place/Bilal+masjid/data=!4m7!3m6!1s0x3bd0191887b7449f:0xba7f07ea420082d4!8m2!3d19.2625594!4d76.7717749!16s%2Fg%2F11rtsn7gdb!19sChIJn0S3hxgZ0DsR1IIAQuoHf7o?authuser=0&hl=en&rclk=1,"19.2625594,76.7717749"
Bagwan masjid,Mosque,"7QCC+WP8 Bagwan masjid, Amey Nagar, Parbhani, Maharashtra 431401",Amey Nagar,7QCC+WP8,Parbhani,431401,Maharashtra,IN,https://www.google.com/maps/place/Bagwan+masjid/data=!4m7!3m6!1s0x3bd01903dba55d09:0xfe6751f927c53c46!8m2!3d19.2722924!4d76.7718181!16s%2Fg%2F11jrpsv6ww!19sChIJCV2l2wMZ0DsRRjzFJ_lRZ_4?authuser=0&hl=en&rclk=1,"19.272292399999998,76.77181809999999"
QADEEM MASJID,Mosque,"7Q8F+95V QADEEM MASJID, Gandhi Park, Parbhani, Maharashtra 431401",Gandhi Park,7Q8F+95V,Parbhani,431401,Maharashtra,IN,https://www.google.com/maps/place/QADEEM+MASJID/data=!4m7!3m6!1s0x3bd019d3831fdfe1:0xc1cac967404b3983!8m2!3d19.2659858!4d76.7729145!16s%2Fg%2F11snvn6p0j!19sChIJ4d8fg9MZ0DsRgzlLQGfJysE?authuser=0&hl=en&rclk=1,"19.2659858,76.7729145"
Masjid-e- Ayesha,Mosque,"7QHH+JQ5 Masjid-e- Ayesha, Madina Nagar Rd, Ayesha Colony, Parbhani, Maharashtra 431401",Ayesha Colony,"7QHH+JQ5, Madina Nagar Rd",Parbhani,431401,Maharashtra,IN,https://www.google.com/maps/place/Masjid-e-+Ayesha/data=!4m7!3m6!1s0x3bd017cbae0ae017:0x2e488f484dba529e!8m2!3d19.2790202!4d76.7794928!16s%2Fg%2F11v00dy9_0!19sChIJF-AKrssX0DsRnlK6TUiPSC4?authuser=0&hl=en&rclk=1,"19.279020199999998,76.7794928"
Mohammadi masjid,Mosque,"7QC6+284 Mohammadi masjid, Rahat Colony, Deonar Municipal Colony, Masoom Colony, Parbhani, Maharashtra 431401","Rahat Colony, Deonar Municipal Colony, Masoom Colony",7QC6+284,Parbhani,,Maharashtra,IN,https://www.google.com/maps/place/Mohammadi+masjid/data=!4m7!3m6!1s0x3bd01962ece1cc8f:0x6de997e86c3b9092!8m2!3d19.2700112!4d76.7608282!16s%2Fg%2F11g0gdkx_f!19sChIJj8zh7GIZ0DsRkpA7bOiX6W0?authuser=0&hl=en&rclk=1,"19.2700112,76.76082819999999"
Makka masjid,Mosque,"7Q67+GPR Makka masjid, Parbhani Flyover, Masoom Colony, Parbhani, Maharashtra 431401",Masoom Colony,"7Q67+GPR, Parbhani Flyover",Parbhani,431401,Maharashtra,IN,https://www.google.com/maps/place/Makka+masjid/data=!4m7!3m6!1s0x3bd019f250c85be5:0x5607c576026ea898!8m2!3d19.2613602!4d76.7642773!16s%2Fg%2F11fph2xym0!19sChIJ5VvIUPIZ0DsRmKhuAnbFB1Y?authuser=0&hl=en&rclk=1,"19.2613602,76.7642773"
Masjid,Mosque,"7Q64+736 Masjid, Babar Colony, Tathagat Nagar, Parbhani, Maharashtra 431402","Babar Colony, Tathagat Nagar",7Q64+736,Parbhani,431402,Maharashtra,IN,https://www.google.com/maps/place/Masjid/data=!4m7!3m6!1s0x3bd01920bc6e8d13:0x77a8668e681c552f!8m2!3d19.2606683!4d76.7551498!16s%2Fg%2F11jyj9b8l2!19sChIJE41uvCAZ0DsRL1UcaI5mqHc?authuser=0&hl=en&rclk=1,"19.2606683,76.7551498"
Khudaa masjid,Mosque,"7QGG+VH6 Khudaa masjid, Amey Nagar, Parbhani, Maharashtra 431401",Amey Nagar,7QGG+VH6,Parbhani,431401,Maharashtra,IN,https://www.google.com/maps/place/Khudaa+masjid/data=!4m7!3m6!1s0x3bd01722376e7c77:0xe0e62a148e24422b!8m2!3d19.2771673!4d76.7763944!16s%2Fg%2F11fpfcv1s7!19sChIJd3xuNyIX0DsRK0IkjhQq5uA?authuser=0&hl=en&rclk=1,"19.2771673,76.7763944"
Khuba Masjid,Mosque,"7Q79+9VP Khuba Masjid, Barkat Nagar, New Mondha, Parbhani, Maharashtra 431401","Barkat Nagar, New Mondha",7Q79+9VP,Parbhani,,Maharashtra,IN,https://www.google.com/maps/place/Khuba+Masjid/data=!4m7!3m6!1s0x3bd019152eca4f43:0x802ced4af5bf204e!8m2!3d19.2634532!4d76.7697164!16s%2Fg%2F11j09zn4v0!19sChIJQ0_KLhUZ0DsRTiC_9UrtLIA?authuser=0&hl=en&rclk=1,"19.2634532,76.7697164"
Hazrat umar masjid c,Mosque,"Hazrat umar masjid c, Saba calony, Nath Nagar, Parbhani, Maharashtra 431401",Nath Nagar,Saba calony,Parbhani,431401,Maharashtra,IN,https://www.google.com/maps/place/Hazrat+umar+masjid+c/data=!4m7!3m6!1s0x3bd017c663ac0dfb:0x2d728945d5b58110!8m2!3d19.2758866!4d76.7895714!16s%2Fg%2F11k43dm5py!19sChIJ-w2sY8YX0DsREIG11UWJci0?authuser=0&hl=en&rclk=1,"19.2758866,76.7895714"
Hudco masjid,Mosque,"7QCQ+QQX Hudco masjid, Unnamed Road, Ajintha Nagar, Amim Colony, Parbhani, Maharashtra 431401","Ajintha Nagar, Amim Colony","7QCQ+QQX, Unnamed Road",Parbhani,431401,Maharashtra,IN,https://www.google.com/maps/place/Hudco+masjid/data=!4m7!3m6!1s0x3bd01937c03836d5:0xd2fe12a8c26bfe5a!8m2!3d19.2719943!4d76.7894809!16s%2Fg%2F11j51btf4n!19sChIJ1TY4wDcZ0DsRWv5rwqgS_tI?authuser=0&hl=en&rclk=1,"19.2719943,76.7894809"
Masjid e anwaare mustafa,Mosque,"7Q84+749 Masjid e anwaare mustafa, Unnamed Road, Masoom Colony, Parbhani, Maharashtra 431401",Masoom Colony,"7Q84+749, Unnamed Road",Parbhani,431401,Maharashtra,IN,https://www.google.com/maps/place/Masjid+e+anwaare+mustafa/data=!4m7!3m6!1s0x3bd01988a6911127:0x5d8cd34d5cb54a56!8m2!3d19.2656504!4d76.7553743!16s%2Fg%2F11lh6706pj!19sChIJJxGRpogZ0DsRVkq1XE3TjF0?authuser=0&hl=en&rclk=1,"19.2656504,76.7553743"
Masjid Hazrat Abubakar Siddiqui,Mosque,"7Q9H+CVG Masjid Hazrat Abubakar Siddiqui, Iqbal Nagar, Vakil Colony, Parbhani, Maharashtra 431401","Iqbal Nagar, Vakil Colony",7Q9H+CVG,Parbhani,431401,Maharashtra,IN,https://www.google.com/maps/place/Masjid+Hazrat+Abubakar+Siddiqui/data=!4m7!3m6!1s0x3bd0190d1bd0faa3:0x14ce79b50fa3ad41!8m2!3d19.2685544!4d76.7797066!16s%2Fg%2F11v0bytwbw!19sChIJo_rQGw0Z0DsRQa2jD7V5zhQ?authuser=0&hl=en&rclk=1,"19.2685544,76.7797066"
Masjide Gausiya,Mosque,"7Q9C+CQ7 Masjide Gausiya, Komati Galli, Gandhi Park, Parbhani, Maharashtra 431401",Gandhi Park,"7Q9C+CQ7, Komati Galli",Parbhani,431401,Maharashtra,IN,https://www.google.com/maps/place/Masjide+Gausiya/data=!4m7!3m6!1s0x3bd019c17afd9567:0xc9e5d7a58bb6781b!8m2!3d19.268543!4d76.7719175!16s%2Fg%2F11s67f2y9c!19sChIJZ5X9esEZ0DsRG3i2i6XX5ck?authuser=0&hl=en&rclk=1,"19.268542999999998,76.7719175"
Masjid e Aqsa,Mosque,"7QJH+896 Masjid e Aqsa, Unnamed Road, ayesha colony, Maharashtra 431401",Sarnath Colony,"7QJH+896, Unnamed Road, ayesha colony",Parbhani,431401,Maharashtra,IN,https://www.google.com/maps/place/Masjid+e+Aqsa/data=!4m7!3m6!1s0x3bd017fad5e1e459:0x8b5d83644f87151b!8m2!3d19.2807836!4d76.7783926!16s%2Fg%2F11r3vqm9hz!19sChIJWeTh1foX0DsRGxWHT2SDXYs?authuser=0&hl=en&rclk=1,"19.2807836,76.77839259999999"
Masjide Fatema,Mosque,"7Q95+WXX Masjide Fatema, Rahat Colony, Masoom Colony, Parbhani, Maharashtra 431401","Rahat Colony, Masoom Colony",7Q95+WXX,Parbhani,431401,Maharashtra,IN,https://www.google.com/maps/place/Masjide+Fatema/data=!4m7!3m6!1s0x3bd01937fbb86f9b:0xb20f220d8328f21c!8m2!3d19.2698719!4d76.7599827!16s%2Fg%2F11t3114cr8!19sChIJm2-4-zcZ0DsRHPIogw0iD7I?authuser=0&hl=en&rclk=1,"19.2698719,76.7599827"
Tamimdari masjid,Mosque,"7QFG+RPM Tamimdari masjid, Rhemat Nagar, Dr.Zakir Hussain Nagar, Parbhani, Maharashtra 431401","Rhemat Nagar, Dr.Zakir Hussain Nagar",7QFG+RPM,Parbhani,431401,Maharashtra,IN,https://www.google.com/maps/place/Tamimdari+masjid/data=!4m7!3m6!1s0x3bd01756cfb86613:0xa94763f8322beb64!8m2!3d19.2745886!4d76.7767924!16s%2Fg%2F11kjn0t9bc!19sChIJE2a4z1YX0DsRZOsrMvhjR6k?authuser=0&hl=en&rclk=1,"19.274588599999998,76.77679239999999"
Aamena Masajid,Mosque,"7QHG+RXP Aamena Masajid, Meraj Nagar, Sarnath Colony, Parbhani, Maharashtra 431401","Meraj Nagar, Sarnath Colony",7QHG+RXP,Parbhani,431401,Maharashtra,IN,https://www.google.com/maps/place/Aamena+Masajid/data=!4m7!3m6!1s0x3bd017f73ff95a31:0xcae8a9fcd59351c1!8m2!3d19.2795756!4d76.777468!16s%2Fg%2F11h4gmt06w!19sChIJMVr5P_cX0DsRwVGT1fyp6Mo?authuser=0&hl=en&rclk=1,"19.279575599999998,76.777468"
Masjid Jahrul Islam,Place of worship,"7P9W+2J6 Masjid Jahrul Islam, Arfat Colony, Kaudgaon tarf singanapur, Parbhani, Maharashtra 431402",Arfat Colony,7P9W+2J6,"Kaudgaon tarf singanapur, Parbhani",431402,Maharashtra,IN,https://www.google.com/maps/place/Masjid+Jahrul+Islam/data=!4m7!3m6!1s0x3bd019b210d2c121:0x926fc41a0cb79f4d!8m2!3d19.2675701!4d76.7464622!16s%2Fg%2F11v0c0d2yd!19sChIJIcHSELIZ0DsRTZ-3DBrEb5I?authuser=0&hl=en&rclk=1,"19.2675701,76.7464622"
Masjid-E-Rahematul Uloom (Choti Masjid),Mosque,"7Q97+C5P Masjid-E-Rahematul Uloom (Choti Masjid), New Mondha, Parbhani, Maharashtra 431401",New Mondha,7Q97+C5P,Parbhani,431401,Maharashtra,IN,https://www.google.com/maps/place/Masjid-E-Rahematul+Uloom+%28Choti+Masjid%29/data=!4m7!3m6!1s0x3bd01980a5f23317:0x51770f536cdd559b!8m2!3d19.2684234!4d76.7633498!16s%2Fg%2F11pkbyqmmf!19sChIJFzPypYAZ0DsRm1XdbFMPd1E?authuser=0&hl=en&rclk=1,"19.2684234,76.7633498"
