name,main_category,address,address_ward,address_street,address_city,address_postal_code,address_state,address_country_code,link,coordinates
Jama Masjid,Mosque,"Jama Masjid, Old Delhi, Delhi, 110006","Jama Masjid, Old Delhi",,Delhi,110006,Delhi,IN,https://www.google.com/maps/place/Jama+Masjid/data=!4m7!3m6!1s0x390cfd18df89b215:0xdd57369e29bf9d96!8m2!3d28.6506792!4d77.2334421!16zL20vMDR5emo1!19sChIJFbKJ3xj9DDkRlp2_KZ42V90?authuser=0&hl=en&rclk=1,"28.6506792,77.23344209999999"
Bamarrah Masjid,Mosque,"Bamarrah, Bamarrah Masjid, Chelyama, Bamarra, West Bengal 723146",,Bamarrah,"Chelyama, Bamarra",723146,West Bengal,IN,https://www.google.com/maps/place/Bamarrah+Masjid/data=!4m7!3m6!1s0x39f6934fad7de33d:0x7cf438a4aac8c42!8m2!3d23.6163162!4d86.5726696!16s%2Fg%2F11gcq0h9_6!19sChIJPeN9rU-T9jkRQoysSopDzwc?authuser=0&hl=en&rclk=1,"23.6163162,86.5726696"
Raza Jama Masjid,Mosque,"PV3F+J96 Raza Jama Masjid, Bamandiah Village, Neamatpur, West Bengal 713360",,"PV3F+J96, Bamandiah Village","Neamatpur, Bamandiah Village",713360,West Bengal,IN,https://www.google.com/maps/place/Raza+Jama+Masjid/data=!4m7!3m6!1s0x39f6e0433da11209:0xb45fac59fbc59011!8m2!3d23.7040456!4d86.8733902!16s%2Fg%2F11hbc0qr4g!19sChIJCRKhPUPg9jkREZDF-1msX7Q?authuser=0&hl=en&rclk=1,"23.7040456,86.8733902"
Jama Masjid Baliapur,Mosque,"PGCG+87C Jama Masjid Baliapur, Baliapur, Jharkhand 828201",,PGCG+87C,Baliapur,828201,Jharkhand,IN,https://www.google.com/maps/place/Jama+Masjid+Baliapur/data=!4m7!3m6!1s0x39f6958970153e5b:0xea8eb0b7d5aeac5!8m2!3d23.7208046!4d86.5256316!16s%2Fg%2F11hbkkcshk!19sChIJWz4VcImV9jkRxepafQvrqA4?authuser=0&hl=en&rclk=1,"23.720804599999997,86.5256316"
Bhelatard Masjid,Mosque,"Bhelatard Masjid, Santaldih Bhelatard, West Bengal 723146",,Santaldih Bhelatard,Asurbandh,723146,West Bengal,IN,https://www.google.com/maps/place/Bhelatard+Masjid/data=!4m7!3m6!1s0x39f6905ba1d584f7:0xc2b8234408646827!8m2!3d23.5712679!4d86.4453002!16s%2Fg%2F11dxl8hlc9!19sChIJ94TVoVuQ9jkRJ2hkCEQjuMI?authuser=0&hl=en&rclk=1,"23.5712679,86.44530019999999"
New Masjid Banda,Mosque,"New Masjid Banda, Shanrmara, Jharkhand 828206",,,Shanrmara,828206,Jharkhand,IN,https://www.google.com/maps/place/New+Masjid+Banda/data=!4m7!3m6!1s0x39f6e738f03e2a99:0x7b39212a4d678d3c!8m2!3d23.696155!4d86.757071!16s%2Fg%2F11fmdwxlr4!19sChIJmSo-8Djn9jkRPI1nTSohOXs?authuser=0&hl=en&rclk=1,"23.696154999999997,86.757071"
Madina Masjid (Gorabari),Mosque,"JRV2+5XV Madina Masjid (Gorabari), Heddi, West Bengal 713324",,JRV2+5XV,Heddi,713324,West Bengal,IN,https://www.google.com/maps/place/Madina+Masjid+%28Gorabari%29/data=!4m7!3m6!1s0x39f6e6a2722add2f:0xc4279d04041e6fee!8m2!3d23.6429911!4d86.8024195!16s%2Fg%2F11g9q9553c!19sChIJL90qcqLm9jkR7m8eBASdJ8Q?authuser=0&hl=en&rclk=1,"23.6429911,86.8024195"
Masjid-e-Belal Elakend,Mosque,"QJ49+4WP Masjid-e-Belal Elakend, Elakend, Jharkhand 828201",,QJ49+4WP,Elakend,828201,Jharkhand,IN,https://www.google.com/maps/place/Masjid-e-Belal+Elakend/data=!4m7!3m6!1s0x39f6c1deed8f60cb:0x57bc77cb01301ad2!8m2!3d23.7553371!4d86.6198246!16s%2Fg%2F11gmst35_6!19sChIJy2CP7d7B9jkR0howAct3vFc?authuser=0&hl=en&rclk=1,"23.7553371,86.6198246"
Bamanbad Belal Masjid,Mosque,"GGPM+56F Bamanbad Belal Masjid, Bamanbad, West Bengal 723155",,GGPM+56F,Bamanbad,,West Bengal,IN,https://www.google.com/maps/place/Bamanbad+Belal+Masjid/data=!4m7!3m6!1s0x39f6939ece0aef0d:0xe8c9514d78515b49!8m2!3d23.5354265!4d86.533034!16s%2Fg%2F11f62sqmd6!19sChIJDe8Kzp6T9jkRSVtReE1Ryeg?authuser=0&hl=en&rclk=1,"23.5354265,86.533034"
ZAKARIA MASJID,Mosque,"JR6R+9C8 ZAKARIA MASJID, Rd, Murulia, West Bengal 713143",,"JR6R+9C8, Rd",Murulia,713143,West Bengal,IN,https://www.google.com/maps/place/ZAKARIA+MASJID/data=!4m7!3m6!1s0x39f6e3a26496a497:0xa2a3f3d054ba8532!8m2!3d23.6109198!4d86.841081!16s%2Fg%2F11lj_j4q70!19sChIJl6SWZKLj9jkRMoW6VNDzo6I?authuser=0&hl=en&rclk=1,"23.610919799999998,86.841081"
Kukur tanga jama masjid,Mosque,"HCJV+CX9 Kukur tanga jama masjid, Asurbandh, West Bengal 723145",,HCJV+CX9,Asurbandh,723145,West Bengal,IN,https://www.google.com/maps/place/Kukur+tanga+jama+masjid/data=!4m7!3m6!1s0x39f691845307a755:0x8d59b6dae797f252!8m2!3d23.5810373!4d86.444972!16s%2Fg%2F11j4yxkq65!19sChIJVacHU4SR9jkRUvKX59q2WY0?authuser=0&hl=en&rclk=1,"23.5810373,86.44497199999999"
Jama masjid ubchuria,Mosque,"RPH2+4X9 Jama masjid ubchuria, Ubchuria, Jharkhand 828205",,RPH2+4X9,Ubchuria,828205,Jharkhand,IN,https://www.google.com/maps/place/Jama+masjid+ubchuria/data=!4m7!3m6!1s0x39f6c48095827027:0x5a4cccda293e19f8!8m2!3d23.8277979!4d86.7024879!16s%2Fg%2F11d_7x21md!19sChIJJ3CClYDE9jkR-Bk-KdrMTFo?authuser=0&hl=en&rclk=1,"23.8277979,86.7024879"
Masjid E Belal,Mosque,"HG45+CWG Masjid E Belal, Rahardi, West Bengal 723155",,HG45+CWG,Rahardi,723155,West Bengal,IN,https://www.google.com/maps/place/Masjid+E+Belal/data=!4m7!3m6!1s0x39f692178a974221:0x66cb1c3b667b74ec!8m2!3d23.5560691!4d86.5098211!16s%2Fg%2F11fxczxwdg!19sChIJIUKXiheS9jkR7HR7Zjscy2Y?authuser=0&hl=en&rclk=1,"23.5560691,86.5098211"
Dudhia Jama Masjid,Mosque,"PH38+2GP Dudhia Jama Masjid, Dudhiya, Jharkhand 828201",,PH38+2GP,Dudhiya,828201,Jharkhand,IN,https://www.google.com/maps/place/Dudhia+Jama+Masjid/data=!4m7!3m6!1s0x39f695adca0a0df5:0xb99d4c9165d0a6a!8m2!3d23.7025792!4d86.5663379!16s%2Fg%2F11fnrng0w1!19sChIJ9Q0Kyq2V9jkRagpdFsnUmQs?authuser=0&hl=en&rclk=1,"23.7025792,86.5663379"
Moti Masjid,Mosque,"MQ97+Q5J Moti Masjid, Keliyasota, West Bengal 713324",,MQ97+Q5J,Keliyasota,713324,West Bengal,IN,https://www.google.com/maps/place/Moti+Masjid/data=!4m7!3m6!1s0x39f6e78afca593f3:0xd727270429c47188!8m2!3d23.669451!4d86.7628949!16s%2Fg%2F11lrwv_dd4!19sChIJ85Ol_Irn9jkRiHHEKQQnJ9c?authuser=0&hl=en&rclk=1,"23.669451,86.76289489999999"
Kultora Purani Masjid (khwltwrr prny msjd),Mosque,"PVC9+4J9 Kultora Purani Masjid (khwltwrr prny msjd), Neamatpur, West Bengal 713359",,PVC9+4J9,Neamatpur,713359,West Bengal,IN,https://www.google.com/maps/place/Kultora+Purani+Masjid+%28%DA%A9%D9%88%D9%84%D8%AA%D9%88%DA%91%D8%A7+%D9%BE%D8%B1%D8%A7%D9%86%DB%8C+%D9%85%D8%B3%D8%AC%D8%AF%29%E2%80%AD/data=!4m7!3m6!1s0x39f6e1ad02206e8f:0x2743c5d2fee09382!8m2!3d23.720278!4d86.8691111!16s%2Fg%2F11hf3h337c!19sChIJj24gAq3h9jkRgpPg_tLFQyc?authuser=0&hl=en&rclk=1,"23.720278,86.8691111"
Ajmeri masjid (aajmerii msjid),Mosque,"MM64+44F Ajmeri masjid (aajmerii msjid), Lakhyabad, West Bengal 723142",,MM64+44F,Lakhyabad,723142,West Bengal,IN,https://www.google.com/maps/place/Ajmeri+masjid+%28%E0%A6%86%E0%A6%9C%E0%A6%AE%E0%A7%87%E0%A6%B0%E0%A7%80+%E0%A6%AE%E0%A6%B8%E0%A6%9C%E0%A6%BF%E0%A6%A6%29/data=!4m7!3m6!1s0x39f6ebb10a8fd993:0xff6701bfe4b7134b!8m2!3d23.6603196!4d86.6552934!16s%2Fg%2F11r9f9wp49!19sChIJk9mPCrHr9jkRSxO35L8BZ_8?authuser=0&hl=en&rclk=1,"23.660319599999998,86.65529339999999"
Lachhmanpur teigia masjid.,Mosque,"HPRJ+PWJ Lachhmanpur teigia masjid., Unnamed Road, Lachhmanpur, West Bengal 723142",,"HPRJ+PWJ, Unnamed Road",Lachhmanpur,723142,West Bengal,IN,https://www.google.com/maps/place/Lachhmanpur+teigia+masjid./data=!4m7!3m6!1s0x39f6ef5dded0e557:0x279fb15cad52618d!8m2!3d23.5918371!4d86.7322651!16s%2Fg%2F11qfw7qf7s!19sChIJV-XQ3l3v9jkRjWFSrVyxnyc?authuser=0&hl=en&rclk=1,"23.5918371,86.73226509999999"
Eidgaah wali masjid,Mosque,"Eidgaah wali masjid, Madarsa Mohalla, Neamatpur, West Bengal 713359",,Madarsa Mohalla,Neamatpur,713359,West Bengal,IN,https://www.google.com/maps/place/Eidgaah+wali+masjid/data=!4m7!3m6!1s0x39f6e17598598435:0xda289a9a853c9837!8m2!3d23.7141351!4d86.8835239!16s%2Fg%2F11sd6932kf!19sChIJNYRZmHXh9jkRN5g8hZqaKNo?authuser=0&hl=en&rclk=1,"23.7141351,86.8835239"
Belkura Masjid Umar,Mosque,"HCMV+9GG Belkura Masjid Umar, Belkura, West Bengal 723145",,HCMV+9GG,Belkura,723145,West Bengal,IN,https://www.google.com/maps/place/Belkura+Masjid+Umar/data=!4m7!3m6!1s0x39f69130a053f7f3:0xef6a259cf60f3440!8m2!3d23.5834663!4d86.4438685!16s%2Fg%2F11vd151nn2!19sChIJ8_dToDCR9jkRQDQP9pwlau8?authuser=0&hl=en&rclk=1,"23.583466299999998,86.4438685"
