name,main_category,address,address_ward,address_street,address_city,address_postal_code,address_state,address_country_code,link,coordinates
Madina Masjid,Mosque,"Madina Masjid, Bus Stand, Old, Kamareddy, Telangana 503111",,"Bus Stand, Old",Kamareddy,503111,Telangana,IN,https://www.google.com/maps/place/Madina+Masjid/data=!4m7!3m6!1s0x3bcc49a059c6755d:0x1da75070d4a922e1!8m2!3d18.3262908!4d78.3366394!16s%2Fg%2F119vqwy2f!19sChIJXXXGWaBJzDsR4SKp1HBQpx0?authuser=0&hl=en&rclk=1,"18.3262908,78.3366394"
Jama Masjid,Mosque,"88CR+295 Jama Masjid, Islampura Rd, Lachapet, Kamareddy, Telangana 503111",Lachapet,"88CR+295, Islampura Rd",Kamareddy,503111,Telangana,IN,https://www.google.com/maps/place/Jama+Masjid/data=!4m7!3m6!1s0x3bcc490851a2e135:0x731cbda0a52fc1d6!8m2!3d18.3200169!4d78.3409806!16s%2Fg%2F1vpfg_vl!19sChIJNeGiUQhJzDsR1sEvpaC9HHM?authuser=0&hl=en&rclk=1,"18.3200169,78.3409806"
Masjid -E- Noor,Mosque,"88PX+89V Masjid -E- Noor, Indra Nagar colony, Kamareddy, Telangana 503111",Indra Nagar colony,88PX+89V,Kamareddy,503111,Telangana,IN,https://www.google.com/maps/place/Masjid+-E-+Noor/data=!4m7!3m6!1s0x3bcc497227642939:0xbfdb185bcded1bac!8m2!3d18.3358575!4d78.3484155!16s%2Fg%2F11b7qblvlt!19sChIJOSlkJ3JJzDsRrBvtzVsY278?authuser=0&hl=en&rclk=1,"18.3358575,78.3484155"
"Masjid E Furqan, AhleHadees KMR",Mosque,"887M+WW7 Masjid E Furqan, AhleHadees KMR, Kamareddy, Telangana 503111",,887M+WW7,Kamareddy,503111,Telangana,IN,"https://www.google.com/maps/place/Masjid+E+Furqan,+AhleHadees+KMR/data=!4m7!3m6!1s0x3bcc49a8e42aa64f:0x9939cddc472d40b6!8m2!3d18.3147773!4d78.3347948!16s%2Fg%2F11c61_2kbq!19sChIJT6Yq5KhJzDsRtkAtR9zNOZk?authuser=0&hl=en&rclk=1","18.3147773,78.3347948"
Mecca Masjid,Mosque,"88JQ+29C Mecca Masjid, Macca Masjid Rd, Kamareddy, Telangana 503111",,"88JQ+29C, Macca Masjid Rd",Kamareddy,503111,Telangana,IN,https://www.google.com/maps/place/Mecca+Masjid/data=!4m7!3m6!1s0x3bcc499fff4f43c5:0x35d6eaaf7f6cb8d2!8m2!3d18.3300586!4d78.3384031!16s%2Fg%2F11bwl3htdb!19sChIJxUNP_59JzDsR0rhsf6_q1jU?authuser=0&hl=en&rclk=1,"18.330058599999997,78.3384031"
Masjid-E-Reyan,Mosque,"88JJ+2VC Masjid-E-Reyan, Ashok Nagar, Kamareddy, Telangana 503111",Ashok Nagar,88JJ+2VC,Kamareddy,503111,Telangana,IN,https://www.google.com/maps/place/Masjid-E-Reyan/data=!4m7!3m6!1s0x3bcc4998b85f64a7:0xc05ae3045a278a39!8m2!3d18.3300534!4d78.3321279!16s%2Fg%2F11c548dq9n!19sChIJp2RfuJhJzDsROYonWgTjWsA?authuser=0&hl=en&rclk=1,"18.3300534,78.3321279"
Beedi Workers Colony Masjid,Mosque,"89R2+885 Beedi Workers Colony Masjid, Beedi Workers Colony, Adloor, Kamareddy, Adloor, Telangana 503111","Beedi Workers Colony, Adloor",89R2+885,"Kamareddy, Adloor",503111,Telangana,IN,https://www.google.com/maps/place/Beedi+Workers+Colony+Masjid/data=!4m7!3m6!1s0x3bcc496fefe645ef:0x6dbd7eb81ca8ac65!8m2!3d18.3407674!4d78.3508736!16s%2Fg%2F11gdqmnc_s!19sChIJ70Xm729JzDsRZayoHLh-vW0?authuser=0&hl=en&rclk=1,"18.3407674,78.3508736"
Farooq Masjid,Mosque,"88HP+8V7 Farooq Masjid, Kamareddy, Telangana 503111",,88HP+8V7,Kamareddy,503111,Telangana,IN,https://www.google.com/maps/place/Farooq+Masjid/data=!4m7!3m6!1s0x3bcc49a01a181baf:0xb6ab7eea0db8a63b!8m2!3d18.3282991!4d78.3371769!16s%2Fg%2F11cp5jxcj4!19sChIJrxsYGqBJzDsRO6a4Dep-q7Y?authuser=0&hl=en&rclk=1,"18.3282991,78.3371769"
Masjid E Arfath,Mosque,"889W+C42 Masjid E Arfath, Islampura Rd, Lachapet, Kamareddy, Telangana 503111",Lachapet,"889W+C42, Islampura Rd",Kamareddy,503111,Telangana,IN,https://www.google.com/maps/place/Masjid+E+Arfath/data=!4m7!3m6!1s0x3bcc490f5ad096b7:0x6babe4496b7667d2!8m2!3d18.3185146!4d78.3452573!16s%2Fg%2F119t7xhvv!19sChIJt5bQWg9JzDsR0md2a0nkq2s?authuser=0&hl=en&rclk=1,"18.3185146,78.3452573"
Masjid-E-Mahmood Ashraf,Mosque,"88MQ+W66 Masjid-E-Mahmood Ashraf, Kamareddy, Telangana 503111",,88MQ+W66,Kamareddy,503111,Telangana,IN,https://www.google.com/maps/place/Masjid-E-Mahmood+Ashraf/data=!4m7!3m6!1s0x3bcc499e07d8570b:0xab7b5f4aedcf8351!8m2!3d18.3347757!4d78.338004!16s%2Fg%2F11c5b32vw_!19sChIJC1fYB55JzDsRUYPP7Upfe6s?authuser=0&hl=en&rclk=1,"18.334775699999998,78.338004"
Masjid E Maryam,Mosque,"889X+Q27 Masjid E Maryam, Rd Number 1, Sailani Baba Colony, Lachapet, Kamareddy, Telangana 503111","Sailani Baba Colony, Lachapet","889X+Q27, Rd Number 1",Kamareddy,503111,Telangana,IN,https://www.google.com/maps/place/Masjid+E+Maryam/data=!4m7!3m6!1s0x3bcc490fa1df7f15:0x67aea1953bf34703!8m2!3d18.3194234!4d78.3475428!16s%2Fg%2F11cn2zl169!19sChIJFX_foQ9JzDsRA0fzO5Whrmc?authuser=0&hl=en&rclk=1,"18.319423399999998,78.3475428"
Masjid E Munawar,Mosque,"889R+CQF Masjid E Munawar, Islampura Rd, Lachapet, Kamareddy, Telangana 503111",Lachapet,"889R+CQF, Islampura Rd",Kamareddy,503111,Telangana,IN,https://www.google.com/maps/place/Masjid+E+Munawar/data=!4m7!3m6!1s0x3bcc49088ed4b7b9:0xc34f68da3fe32b9e!8m2!3d18.3185503!4d78.3419099!16s%2Fg%2F119x3lg7_!19sChIJubfUjghJzDsRnivjP9poT8M?authuser=0&hl=en&rclk=1,"18.3185503,78.34190989999999"
Masjid E Rahmat E Ilahi,Mosque,"Masjid E Rahmat E Ilahi, 1, Kamareddy - Ramareddy Road Gandhi Nagar, Kamareddy - Ramareddy Road, Gandhi Nagar, Kamareddy, Telangana 503111",Gandhi Nagar,"1, Kamareddy - Ramareddy Road Gandhi Nagar, Kamareddy - Ramareddy Road",Kamareddy,503111,Telangana,IN,https://www.google.com/maps/place/Masjid+E+Rahmat+E+Ilahi/data=!4m7!3m6!1s0x3bcc490cafd25639:0x1ed6a5c5b186046c!8m2!3d18.3290676!4d78.345146!16s%2Fg%2F11g8chgjm6!19sChIJOVbSrwxJzDsRbASGscWl1h4?authuser=0&hl=en&rclk=1,"18.3290676,78.345146"
Masjid - E- Mahboob - E- Saalaheen,Mosque,"88MW+V75 Masjid - E- Mahboob - E- Saalaheen, Kamareddy - Ramareddy Road, Indiranagar, Kamareddy, Telangana 503111",Indiranagar,"88MW+V75, Kamareddy - Ramareddy Road",Kamareddy,503111,Telangana,IN,https://www.google.com/maps/place/Masjid+-+E-+Mahboob+-+E-+Saalaheen/data=!4m7!3m6!1s0x3bcc4973e7d46e8d:0x9808d5bd38fa6e49!8m2!3d18.334649!4d78.345724!16s%2Fg%2F11b7q_kvq7!19sChIJjW7U53NJzDsRSW76OL3VCJg?authuser=0&hl=en&rclk=1,"18.334649,78.34572399999999"
Masjid E Quba,Mosque,"888Q+FW4 Masjid E Quba, Islampura Rd, R B Nagar, Lachapet, Kamareddy, Telangana 503111","R B Nagar, Lachapet","888Q+FW4, Islampura Rd",Kamareddy,503111,Telangana,IN,https://www.google.com/maps/place/Masjid+E+Quba/data=!4m7!3m6!1s0x3bcc4907eb68e1df:0xfcbfee197f839724!8m2!3d18.3161392!4d78.3398292!16s%2Fg%2F11fxb94wl_!19sChIJ3-Fo6wdJzDsRJJeDfxnuv_w?authuser=0&hl=en&rclk=1,"18.3161392,78.3398292"
Masjid-E-Omer Farooq,Mosque,"Masjid-E-Omer Farooq, Rajiv Gandhi Park, SH 11, R B Nagar, Kamareddy, Telangana 503111",R B Nagar,"Rajiv Gandhi Park, SH 11",Kamareddy,503111,Telangana,IN,https://www.google.com/maps/place/Masjid-E-Omer+Farooq/data=!4m7!3m6!1s0x3bcc490d8baaaaab:0xf5d0445d059d459d!8m2!3d18.3255961!4d78.3499097!16s%2Fg%2F11fxymct6g!19sChIJq6qqiw1JzDsRnUWdBV1E0PU?authuser=0&hl=en&rclk=1,"18.3255961,78.3499097"
Masjid E Meraj,Mosque,"889Q+982 Masjid E Meraj, Islampura Rd, R B Nagar, Lachapet, Kamareddy, Telangana 503111","R B Nagar, Lachapet","889Q+982, Islampura Rd",Kamareddy,503111,Telangana,IN,https://www.google.com/maps/place/Masjid+E+Meraj/data=!4m7!3m6!1s0x3bcc49a7f11582db:0x1230f558836bd9f4!8m2!3d18.3183873!4d78.3382595!16s%2Fg%2F119ws_byq!19sChIJ24IV8adJzDsR9Nlrg1j1MBI?authuser=0&hl=en&rclk=1,"18.318387299999998,78.33825949999999"
Waheedia Masjid Ahlesunnat,Mosque,"888P+4HJ Waheedia Masjid Ahlesunnat, Vikas Nagar Colony, Kamareddy, Telangana 503111",Vikas Nagar Colony,888P+4HJ,Kamareddy,503111,Telangana,IN,https://www.google.com/maps/place/Waheedia+Masjid+Ahlesunnat/data=!4m7!3m6!1s0x3bcc49a85a51d1df:0x97d8385c3963ac64!8m2!3d18.3153387!4d78.3363997!16s%2Fg%2F11c47pjcwn!19sChIJ39FRWqhJzDsRZKxjOVw42Jc?authuser=0&hl=en&rclk=1,"18.315338699999998,78.3363997"
Jama Masjid,Mosque,"Jama Masjid, Vivekananda Colony, Ashok Nagar, Kamareddy, Telangana 503111","Vivekananda Colony, Ashok Nagar",,Kamareddy,503111,Telangana,IN,https://www.google.com/maps/place/Jama+Masjid/data=!4m7!3m6!1s0x3bcc49a14717ff61:0xa773480f93a78ee3!8m2!3d18.3239953!4d78.3343051!16s%2Fg%2F11bt_jb048!19sChIJYf8XR6FJzDsR446nkw9Ic6c?authuser=0&hl=en&rclk=1,"18.3239953,78.3343051"
Masjid e Gadi,Mosque,"Masjid e Gadi, Lachapet, Kamareddy, Telangana 503111",Lachapet,,Kamareddy,,Telangana,IN,https://www.google.com/maps/place/Masjid+e+Gadi/data=!4m7!3m6!1s0x3bcc4909bc57df5d:0x56a6d08ef0c8d9e5!8m2!3d18.3217025!4d78.3406627!16s%2Fg%2F1hhhq4gm4!19sChIJXd9XvAlJzDsR5dnI8I7QplY?authuser=0&hl=en&rclk=1,"18.3217025,78.3406627"
