name,main_category,address,address_ward,address_street,address_city,address_postal_code,address_state,address_country_code,link,coordinates
Jama Masjid,Mosque,"MGGQ+F5Q Jama Masjid, Jama Masjid Rd, Mahalaxmiwada, Adilabad, Telangana 504001",Mahalaxmiwada,"MGGQ+F5Q, Jama Masjid Rd",Adilabad,504001,Telangana,IN,https://www.google.com/maps/place/Jama+Masjid/data=!4m7!3m6!1s0x3bd25c75f87e8a01:0x25a95ee1fbab37d0!8m2!3d19.6762137!4d78.5379985!16s%2Fg%2F1tlqnfwv!19sChIJAYp--HVc0jsR0Der--FeqSU?authuser=0&hl=en&rclk=1,"19.676213699999998,78.5379985"
Gulzaar Masjid,Mosque,"MGCR+66Q Gulzaar Masjid, Bokkalguda St, Brahmanwadi, Adilabad, Telangana 504001",Brahmanwadi,"MGCR+66Q, Bokkalguda St",Adilabad,504001,Telangana,IN,https://www.google.com/maps/place/Gulzaar+Masjid/data=!4m7!3m6!1s0x3bd25c7477d00337:0x3dc61fe7489f62b1!8m2!3d19.6704596!4d78.5395986!16s%2Fg%2F1tcz6sjz!19sChIJNwPQd3Rc0jsRsWKfSOcfxj0?authuser=0&hl=en&rclk=1,"19.670459599999997,78.53959859999999"
Masjid e Noor Khursheed Nagar,Mosque,"Masjid e Noor Khursheed Nagar, khursheed Nagar, Adilabad, Telangana 504001",khursheed Nagar,,Adilabad,,Telangana,IN,https://www.google.com/maps/place/Masjid+e+Noor+Khursheed+Nagar/data=!4m7!3m6!1s0x3bd25b7f77891187:0xd64d9d2522c68201!8m2!3d19.6780656!4d78.5199255!16s%2Fg%2F1pp2x6dd1!19sChIJhxGJd39b0jsRAYLGIiWdTdY?authuser=0&hl=en&rclk=1,"19.6780656,78.5199255"
MADEENA MASJID ECHODA,Mosque,"CFG3+256 MADEENA MASJID ECHODA, Ichoda, Telangana 504307",,CFG3+256,Ichoda,504307,Telangana,IN,https://www.google.com/maps/place/MADEENA+MASJID+ECHODA/data=!4m7!3m6!1s0x3bd26f98044820f1:0xb0592db733389086!8m2!3d19.42503!4d78.4529037!16s%2Fg%2F11c3tqr4t1!19sChIJ8SBIBJhv0jsRhpA4M7ctWbA?authuser=0&hl=en&rclk=1,"19.42503,78.4529037"
Sailani Baba Darga,Mosque,"9C7M+498 Sailani Baba Darga, Ghandari, Telangana 504307",,9C7M+498,Ghandari,504307,Telangana,IN,https://www.google.com/maps/place/Sailani+Baba+Darga/data=!4m7!3m6!1s0x3bd2704a4462bce5:0xaa2af9617addbce!8m2!3d19.362789!4d78.4334491!16s%2Fg%2F11c6tv5p6p!19sChIJ5bxiREpw0jsRztutF5avogo?authuser=0&hl=en&rclk=1,"19.362789,78.43344909999999"
Eidgah,Mosque,"JF73+FR Eidgah, Devpur, Telangana 504001",,JF73+FR,Devpur,,Telangana,IN,https://www.google.com/maps/place/Eidgah/data=!4m7!3m6!1s0x3bd243f012ca812f:0x1e400f615285656f!8m2!3d19.6136687!4d78.4545208!16s%2Fg%2F11pkbw1ydp!19sChIJL4HKEvBD0jsRb2WFUmEPQB4?authuser=0&hl=en&rclk=1,"19.613668699999998,78.4545208"
Jama Masjid Bazar Hathnoor,Mosque,"F952+7MR Jama Masjid Bazar Hathnoor, Bazarhatnoor, Telangana 504304",,F952+7MR,Bazarhatnoor,504304,Telangana,IN,https://www.google.com/maps/place/Jama+Masjid+Bazar+Hathnoor/data=!4m7!3m6!1s0x3bd26c68c7cf939b:0xc6ede85c8413c632!8m2!3d19.4582258!4d78.3516474!16s%2Fg%2F11gdqfb5kj!19sChIJm5PPx2hs0jsRMsYThFzo7cY?authuser=0&hl=en&rclk=1,"19.458225799999997,78.35164739999999"
JAMA masjid Devapur,Mosque,"JF65+PVQ JAMA masjid Devapur, Unnamed Road, Devpur, Telangana 504308",,"JF65+PVQ, Unnamed Road",Devpur,504308,Telangana,IN,https://www.google.com/maps/place/JAMA+masjid+Devapur/data=!4m7!3m6!1s0x3bd24302f69b407f:0x99ca94e9fc151aa!8m2!3d19.6118457!4d78.4597213!16s%2Fg%2F11j2c2qfql!19sChIJf0Cb9gJD0jsRqlHBn06pnAk?authuser=0&hl=en&rclk=1,"19.6118457,78.4597213"
Masjid -e- Dawathul Haq,Mosque,"CFH2+G89 Masjid -e- Dawathul Haq, Ichoda Main Rd, Ichoda, Telangana 504307",,"CFH2+G89, Ichoda Main Rd",Ichoda,504307,Telangana,IN,https://www.google.com/maps/place/Masjid+-e-+Dawathul+Haq/data=!4m7!3m6!1s0x3bd26fa240811f53:0x84ebb182ea5a35e4!8m2!3d19.4287993!4d78.4508528!16s%2Fg%2F11b75hw8dx!19sChIJUx-BQKJv0jsR5DVa6oKx64Q?authuser=0&hl=en&rclk=1,"19.428799299999998,78.45085279999999"
Makka Masjid,Mosque,"CFG3+QPG Makka Masjid, Ichoda, Telangana 504307",,CFG3+QPG,Ichoda,504307,Telangana,IN,https://www.google.com/maps/place/Makka+Masjid/data=!4m7!3m6!1s0x3bd26f985b7ba91f:0xff30f7087fea8336!8m2!3d19.4269309!4d78.4543422!16s%2Fg%2F11fxx3q066!19sChIJH6l7W5hv0jsRNoPqfwj3MP8?authuser=0&hl=en&rclk=1,"19.4269309,78.4543422"
JAMIA MASJID SWARNA,Mosque,"66W7+547 JAMIA MASJID SWARNA, Swarna, Ponkur, Telangana 504323",,66W7+547,"Swarna, Ponkur",504323,Telangana,IN,https://www.google.com/maps/place/JAMIA+MASJID+SWARNA/data=!4m7!3m6!1s0x3bd20b6c6efd2209:0x46d6150156f25bd5!8m2!3d19.2454192!4d78.2127894!16s%2Fg%2F11f5t_lvnx!19sChIJCSL9bmwL0jsR1VvyVgEV1kY?authuser=0&hl=en&rclk=1,"19.2454192,78.21278939999999"
JAMMA-E-MASJID,Mosque,"7CX4+86J JAMMA-E-MASJID, Neradigonda 2, Telangana 504323",,7CX4+86J,Neradigonda 2,504323,Telangana,IN,https://www.google.com/maps/place/JAMMA-E-MASJID/data=!4m7!3m6!1s0x3bd2714a1f9ceb83:0xaeacfbdd07ea5319!8m2!3d19.2983415!4d78.4055211!16s%2Fg%2F11c2nkk_c_!19sChIJg-ucH0px0jsRGVPqB937rK4?authuser=0&hl=en&rclk=1,"19.2983415,78.4055211"
EIDGAH JAMA MASJID SWARNA,Mosque,"EIDGAH JAMA MASJID SWARNA, Sarangapur Mandal, Ponkur, Telangana 504323",,Sarangapur Mandal,Ponkur,504323,Telangana,IN,https://www.google.com/maps/place/EIDGAH+JAMA+MASJID+SWARNA/data=!4m7!3m6!1s0x3bd20bc4554a1a21:0x8dd0f4fa4f16d3e4!8m2!3d19.2482263!4d78.2163682!16s%2Fg%2F11fy_5_fhk!19sChIJIRpKVcQL0jsR5NMWT_r00I0?authuser=0&hl=en&rclk=1,"19.2482263,78.21636819999999"
Masjid E Umar Farooq,Mosque,"CFG3+GFW Masjid E Umar Farooq, Ichoda, Telangana 504307",,CFG3+GFW,Ichoda,504307,Telangana,IN,https://www.google.com/maps/place/Masjid+E+Umar+Farooq/data=!4m7!3m6!1s0x3bd26f986a32f5f1:0xa79367774c71be95!8m2!3d19.4263502!4d78.4537135!16s%2Fg%2F11f03zm31b!19sChIJ8fUyaphv0jsRlb5xTHdnk6c?authuser=0&hl=en&rclk=1,"19.426350199999998,78.45371349999999"
Jama masjid,Mosque,"CFH3+8WC Jama masjid, Ichoda, Telangana 504307",,CFH3+8WC,Ichoda,504307,Telangana,IN,https://www.google.com/maps/place/Jama+masjid/data=!4m7!3m6!1s0x3bd26fcb3b2536e3:0x24b38adada85879e!8m2!3d19.4283175!4d78.454781!16s%2Fg%2F11ppybzh_0!19sChIJ4zYlO8tv0jsRnoeF2tqKsyQ?authuser=0&hl=en&rclk=1,"19.4283175,78.454781"
Masjid Talamadugu,Mosque,"J9RR+JXQ Masjid Talamadugu, Beside Kosai-Umri Road, Gandhi Chowk Talamadugu, Talamadugu, Telangana 504312",,"J9RR+JXQ, Beside Kosai-Umri Road, Gandhi Chowk Talamadugu",Talamadugu,504312,Telangana,IN,https://www.google.com/maps/place/Masjid+Talamadugu/data=!4m7!3m6!1s0x3bd243dda122044d:0x297cde2c0be87a46!8m2!3d19.6415875!4d78.3924899!16s%2Fg%2F11b6wd4j7z!19sChIJTQQiod1D0jsRRnroCyzefCk?authuser=0&hl=en&rclk=1,"19.6415875,78.3924899"
masjid maryam,Mosque,"8C23+XWH masjid maryam, Neradigonda 2, Telangana 504323",,8C23+XWH,Neradigonda 2,504323,Telangana,IN,https://www.google.com/maps/place/masjid+maryam/data=!4m7!3m6!1s0x3bd27148448e1f3b:0x3791c6c4bb7c37e7!8m2!3d19.3024304!4d78.404857!16s%2Fg%2F11c5rmjfg4!19sChIJOx-OREhx0jsR5zd8u8TGkTc?authuser=0&hl=en&rclk=1,"19.3024304,78.40485699999999"
Mahimba Drgah,Mosque,"C3C9+5CM Mahimba Drgah, SH-230, Ritha, Maharashtra 431803",,"C3C9+5CM, SH-230",Ritha,,Maharashtra,IN,https://www.google.com/maps/place/Mahimba+Drgah/data=!4m7!3m6!1s0x3bd21b0316765077:0xefe33c5c199d737d!8m2!3d19.420463!4d78.0685409!16s%2Fg%2F11rfqp99rk!19sChIJd1B2FgMb0jsRfXOdGVw84-8?authuser=0&hl=en&rclk=1,"19.420462999999998,78.0685409"
JAMA MASJID,Mosque,"9829+4GF JAMA MASJID, Boath Buzurg, Telangana 504304",,9829+4GF,Boath Buzurg,504304,Telangana,IN,https://www.google.com/maps/place/JAMA+MASJID/data=!4m7!3m6!1s0x3bd272e975f77229:0x9b59ab055d5647d2!8m2!3d19.3503023!4d78.3188004!16s%2Fg%2F11fy9g9qym!19sChIJKXL3dely0jsR0kdWXQWrWZs?authuser=0&hl=en&rclk=1,"19.3503023,78.3188004"
Masjid e Abubakar Siddiqe Rz (Ahle Hadees),Mosque,"66W7+CXQ Masjid e Abubakar Siddiqe Rz (Ahle Hadees), Swarna, Ponkur, Telangana 504323",,66W7+CXQ,"Swarna, Ponkur",504323,Telangana,IN,https://www.google.com/maps/place/Masjid+e+Abubakar+Siddiqe+Rz+%28Ahle+Hadees%29/data=!4m7!3m6!1s0x3bd20b47175f92cd:0xcb2bb92ffbba3442!8m2!3d19.2460903!4d78.2149797!16s%2Fg%2F11s0xl6zg7!19sChIJzZJfF0cL0jsRQjS6-y-5K8s?authuser=0&hl=en&rclk=1,"19.2460903,78.2149797"
Jama Masjid Pardi B,Mosque,"6XVR+PJM Jama Masjid Pardi B, Pardi busirg Mandal kubeer District nirmal, Pardi Buzurg, Telangana 504103",,"6XVR+PJM, Pardi busirg Mandal kubeer District nirmal",Pardi Buzurg,504103,Telangana,IN,https://www.google.com/maps/place/Jama+Masjid+Pardi+B/data=!4m7!3m6!1s0x3bd201e0084b5091:0x17b1e1fad65c2105!8m2!3d19.2443343!4d77.9915575!16s%2Fg%2F11jcjmtwwt!19sChIJkVBLCOAB0jsRBSFc1vrhsRc?authuser=0&hl=en&rclk=1,"19.2443343,77.9915575"
Jama masjid,Mosque,"MC8G+7J9 Jama masjid, Unnamed Road, Umadam, Telangana 504001",,"MC8G+7J9, Unnamed Road",Umadam,504001,Telangana,IN,https://www.google.com/maps/place/Jama+masjid/data=!4m7!3m6!1s0x3bd2438922bc7361:0x90f6ce9e5e66ddca!8m2!3d19.6656543!4d78.426601!16s%2Fg%2F11qsvy6d57!19sChIJYXO8IolD0jsRyt1mXp7O9pA?authuser=0&hl=en&rclk=1,"19.6656543,78.42660099999999"
Jama masjid,Mosque,"Jama masjid, Mahendher fertiliser, Ola, Telangana 504109",,Mahendher fertiliser,Ola,504109,Telangana,IN,https://www.google.com/maps/place/Jama+masjid/data=!4m7!3m6!1s0x3bd207e78142f0d5:0xfe16d5ecc5fee1da!8m2!3d19.1802439!4d78.0713271!16s%2Fg%2F11fv3lytz1!19sChIJ1fBCgecH0jsR2uH-xezVFv4?authuser=0&hl=en&rclk=1,"19.1802439,78.07132709999999"
Jama MaSjid,Mosque,"69HV+CH5 Jama MaSjid, Bondemregod, Telangana 504323",,69HV+CH5,Bondemregod,504323,Telangana,IN,https://www.google.com/maps/place/Jama+MaSjid/data=!4m7!3m6!1s0x3bd2767193830f55:0xb6bc8cfd60a42707!8m2!3d19.2285041!4d78.393985!16s%2Fg%2F11gf071m2m!19sChIJVQ-Dk3F20jsRByekYP2MvLY?authuser=0&hl=en&rclk=1,"19.2285041,78.393985"
Jama Masjid Pardi B,Mosque,"6XCW+6F9 Jama Masjid Pardi B, Pardi Buzurg, Telangana 504103",,6XCW+6F9,Pardi Buzurg,,Telangana,IN,https://www.google.com/maps/place/Jama+Masjid+Pardi+B/data=!4m7!3m6!1s0x3bd20148945ee801:0xd11637936393bbec!8m2!3d19.2205263!4d77.9962228!16s%2Fg%2F11fthgbfmp!19sChIJAehelEgB0jsR7LuTY5M3FtE?authuser=0&hl=en&rclk=1,"19.2205263,77.9962228"
Masjid Waddadi,Mosque,"MFQ2+97H Masjid Waddadi, Waddadi, Telangana 504312",,MFQ2+97H,Waddadi,504312,Telangana,IN,https://www.google.com/maps/place/Masjid+Waddadi/data=!4m7!3m6!1s0x3bd24570a42893d9:0xa7a2fcdf69505a5c!8m2!3d19.6884309!4d78.4507428!16s%2Fg%2F11fk0ptcc4!19sChIJ2ZMopHBF0jsRXFpQad_8oqc?authuser=0&hl=en&rclk=1,"19.6884309,78.4507428"
Masjid,Mosque,"99C5+Q23 Masjid, Unnamed Road, Kouta, Telangana 504304",,"99C5+Q23, Unnamed Road",Kouta,504304,Telangana,IN,https://www.google.com/maps/place/Masjid/data=!4m7!3m6!1s0x3bd273b7fe3f089d:0x6f89811a9f3116dc!8m2!3d19.3718832!4d78.3575559!16s%2Fg%2F11rclc79ch!19sChIJnQg__rdz0jsR3BYxnxqBiW8?authuser=0&hl=en&rclk=1,"19.3718832,78.3575559"
Jama masjid,Mosque,"9C9X+FR5 Jama masjid, Mukhra-B, Telangana 504307",,9C9X+FR5,Mukhra-B,504307,Telangana,IN,https://www.google.com/maps/place/Jama+masjid/data=!4m7!3m6!1s0x3bd271baede69955:0x5d9ae47fedd0e556!8m2!3d19.3686472!4d78.4496168!16s%2Fg%2F11qb3ykyy3!19sChIJVZnm7bpx0jsRVuXQ7X_kml0?authuser=0&hl=en&rclk=1,"19.368647199999998,78.4496168"
Home,Religious destination,"9829+7JQ Home, Boath Buzurg, Telangana 504304",,9829+7JQ,Boath Buzurg,504304,Telangana,IN,https://www.google.com/maps/place/Home/data=!4m7!3m6!1s0x3bd2738770ded4a9:0x530d75df28414420!8m2!3d19.3507076!4d78.3191043!16s%2Fg%2F11t1b99gty!19sChIJqdTecIdz0jsRIERBKN91DVM?authuser=0&hl=en&rclk=1,"19.3507076,78.31910429999999"
Eidgah,Mosque,"8C44+42J Eidgah, Neradigonda 2, Telangana 504323",,8C44+42J,Neradigonda 2,,Telangana,IN,https://www.google.com/maps/place/Eidgah/data=!4m7!3m6!1s0x3bd2711f57b8bb4f:0x6f2bb5fd75de974c!8m2!3d19.3053472!4d78.4050139!16s%2Fg%2F11jnpjl672!19sChIJT7u4Vx9x0jsRTJfedf21K28?authuser=0&hl=en&rclk=1,"19.3053472,78.4050139"
Masjid-e-ubaidullah,Mosque,"6763+MPH Masjid-e-ubaidullah, Sarangpur, Telangana 504110",,6763+MPH,Sarangpur,,Telangana,IN,https://www.google.com/maps/place/Masjid-e-ubaidullah/data=!4m7!3m6!1s0x3bd20b252120dd91:0x7c73203f3c9c251a!8m2!3d19.2116901!4d78.2543469!16s%2Fg%2F11t9pbrlmq!19sChIJkd0gISUL0jsRGiWcPD8gc3w?authuser=0&hl=en&rclk=1,"19.2116901,78.2543469"
MASJIDE MUSTAFA,Mosque,"7W6R+5RH MASJIDE MUSTAFA, Kubeer, Telangana 504103",,7W6R+5RH,Kubeer,504103,Telangana,IN,https://www.google.com/maps/place/MASJIDE+MUSTAFA/data=!4m7!3m6!1s0x3bd201ed686f678f:0x7633282881e75a49!8m2!3d19.2604289!4d77.942096!16s%2Fg%2F11ftvbkbd3!19sChIJj2dvaO0B0jsRSVrngSgoM3Y?authuser=0&hl=en&rclk=1,"19.2604289,77.94209599999999"
MASJID-E-MUNEER,Mosque,"PFWC+945 MASJID-E-MUNEER, Unnamed Road, Pippalkhoti, Telangana 504312",,"PFWC+945, Unnamed Road",Pippalkhoti,504312,Telangana,IN,https://www.google.com/maps/place/MASJID-E-MUNEER/data=!4m7!3m6!1s0x3bd2450b9ff3cfbd:0x97b7ef8dfe5f1003!8m2!3d19.7458914!4d78.4703567!16s%2Fg%2F11ndxwjpl6!19sChIJvc_znwtF0jsRAxBf_o3vt5c?authuser=0&hl=en&rclk=1,"19.745891399999998,78.4703567"
Jamamasjid,Mosque,"7W6V+HF4 Jamamasjid, Main Road, Kubeer, Telangana 504103",,"7W6V+HF4, Main Road",Kubeer,504103,Telangana,IN,https://www.google.com/maps/place/Jamamasjid/data=!4m7!3m6!1s0x3bd201f63f663507:0xcf27423fc86287f2!8m2!3d19.2613867!4d77.943711!16s%2Fg%2F11hd6y_1v0!19sChIJBzVmP_YB0jsR8odiyD9CJ88?authuser=0&hl=en&rclk=1,"19.2613867,77.943711"
Mosjid,Mosque,"57VH+C32 Mosjid, Jam, Telangana 504110",,57VH+C32,Jam,504110,Telangana,IN,https://www.google.com/maps/place/Mosjid/data=!4m7!3m6!1s0x3bd20aa71fb74d15:0xcc40be7cde396639!8m2!3d19.1935185!4d78.2776496!16s%2Fg%2F1261h6240!19sChIJFU23H6cK0jsROWY53ny-QMw?authuser=0&hl=en&rclk=1,"19.1935185,78.27764959999999"
MASJID,Mosque,"88VH+QXG MASJID, Boath Buzurg, Telangana 504304",,88VH+QXG,Boath Buzurg,504304,Telangana,IN,https://www.google.com/maps/place/MASJID/data=!4m7!3m6!1s0x3bd273a5ccb6c791:0xf37853e1363ccaa0!8m2!3d19.344726!4d78.330825!16s%2Fg%2F11snwzzbc5!19sChIJkce2zKVz0jsRoMo8NuFTePM?authuser=0&hl=en&rclk=1,"19.344725999999998,78.33082499999999"
Gulzar masjid,Mosque,"88W7+PVX Gulzar masjid, beside Gulzaar Masjid, Boath Buzurg, Telangana 504304",,"88W7+PVX, beside Gulzaar Masjid",Boath Buzurg,504304,Telangana,IN,https://www.google.com/maps/place/Gulzar+masjid/data=!4m7!3m6!1s0x3bd27302c48930b5:0xd6f8a49697d95467!8m2!3d19.3468045!4d78.3147885!16s%2Fg%2F11s8y5s4b7!19sChIJtTCJxAJz0jsRZ1TZl5ak-NY?authuser=0&hl=en&rclk=1,"19.346804499999998,78.31478849999999"
Masjid e Umar,Mosque,"88W9+PMV Masjid e Umar, Boath Buzurg, Telangana 504304",,88W9+PMV,Boath Buzurg,504304,Telangana,IN,https://www.google.com/maps/place/Masjid+e+Umar/data=!4m7!3m6!1s0x3bd273af0b80cd5d:0x4344839cf7d24f12!8m2!3d19.3467375!4d78.319247!16s%2Fg%2F11t7b7gxtw!19sChIJXc2AC69z0jsREk_S95yDREM?authuser=0&hl=en&rclk=1,"19.3467375,78.31924699999999"
Eid Gah and muslim burial ground,Mosque,"F942+CJP Eid Gah and muslim burial ground, Bazarhatnoor Rd, Bazarhatnoor, Telangana 504304",,"F942+CJP, Bazarhatnoor Rd",Bazarhatnoor,504304,Telangana,IN,https://www.google.com/maps/place/Eid+Gah+and+muslim+burial+ground/data=!4m7!3m6!1s0x3bd26c68f55bd4df:0x37802d22bc216b99!8m2!3d19.4560996!4d78.3515659!16s%2Fg%2F11cmv2275y!19sChIJ39Rb9Whs0jsRmWshvCItgDc?authuser=0&hl=en&rclk=1,"19.456099599999998,78.3515659"
JAMA MASJID SONALA,Mosque,"C898+5MG JAMA MASJID SONALA, Sonala, Telangana 504304",,C898+5MG,Sonala,504304,Telangana,IN,https://www.google.com/maps/place/JAMA+MASJID+SONALA/data=!4m7!3m6!1s0x3bd26d23b3215fe7:0x2ecf57cb2074d1c0!8m2!3d19.4179334!4d78.3166892!16s%2Fg%2F11p1048s3j!19sChIJ518hsyNt0jsRwNF0IMtXzy4?authuser=0&hl=en&rclk=1,"19.4179334,78.3166892"
Masjid e Aqsa,Mosque,"9CPV+55W Masjid e Aqsa, Islamnagar, Telangana 504307",,9CPV+55W,Islamnagar,504307,Telangana,IN,https://www.google.com/maps/place/Masjid+e+Aqsa/data=!4m7!3m6!1s0x3bd271c95b560a13:0xeac4c3253af1fd04!8m2!3d19.3854802!4d78.4429394!16s%2Fg%2F11vdh6g0fk!19sChIJEwpWW8lx0jsRBP3xOiXDxOo?authuser=0&hl=en&rclk=1,"19.3854802,78.4429394"
JAMA MASJID KOKASMANNUR,Mosque,"9CVG+R3P JAMA MASJID KOKASMANNUR, Kokasmannur, Telangana 504307",,9CVG+R3P,Kokasmannur,504307,Telangana,IN,https://www.google.com/maps/place/JAMA+MASJID+KOKASMANNUR/data=!4m7!3m6!1s0x3bd26f0bf72abcd9:0x2e252e9b84fb3fef!8m2!3d19.3945997!4d78.4251886!16s%2Fg%2F11gtc4ft5k!19sChIJ2bwq9wtv0jsR7z_7hJsuJS4?authuser=0&hl=en&rclk=1,"19.3945997,78.4251886"
MASJIDE ZAHED,Mosque,"7W6W+6C8 MASJIDE ZAHED, Unnamed Road, Kubeer, Telangana 504103",,"7W6W+6C8, Unnamed Road",Kubeer,504103,Telangana,IN,https://www.google.com/maps/place/MASJIDE+ZAHED/data=!4m7!3m6!1s0x3bd201d240c1d4d9:0x9a09b54656d17b2f!8m2!3d19.2605386!4d77.9460674!16s%2Fg%2F11jfjjz3rr!19sChIJ2dTBQNIB0jsRL3vRVka1CZo?authuser=0&hl=en&rclk=1,"19.2605386,77.94606739999999"
hazrath khader basha Quadri chincholi,Mosque,"56VJ+C62 hazrath khader basha Quadri chincholi, Chincholi, Telangana 504110",,56VJ+C62,Chincholi,504110,Telangana,IN,https://www.google.com/maps/place/hazrath+khader+basha+Quadri+chincholi/data=!4m7!3m6!1s0x3bd20b0ec69493f7:0x2344091ad9340cd0!8m2!3d19.1935169!4d78.230526!16s%2Fg%2F11kp_0rjxd!19sChIJ95OUxg4L0jsR0Aw02RoJRCM?authuser=0&hl=en&rclk=1,"19.1935169,78.230526"
Madeena Masjid,Mosque,"PFW4+MM8 Madeena Masjid, Nipani, Telangana 504312",,PFW4+MM8,Nipani,504312,Telangana,IN,https://www.google.com/maps/place/Madeena+Masjid/data=!4m7!3m6!1s0x3bd24555eac2f72b:0x120ce6521c49e338!8m2!3d19.7466596!4d78.456695!16s%2Fg%2F11j3rmv0vx!19sChIJK_fC6lVF0jsROONJHFLmDBI?authuser=0&hl=en&rclk=1,"19.746659599999997,78.456695"
