name,main_category,address,address_ward,address_street,address_city,address_postal_code,address_state,address_country_code,link,coordinates
Masjid E Umar,Mosque,"Masjid E Umar, Chuli ki Bageechi Rd, Mahukalan, Gangapur, Rajasthan 322201",Mahukalan,Chuli ki Bageechi Rd,Gangapur,322201,Rajasthan,IN,https://www.google.com/maps/place/Masjid+E+Umar/data=!4m7!3m6!1s0x3971f6ac56d4550d:0xbf58ffb200ed12e1!8m2!3d26.4600719!4d76.7248563!16s%2Fg%2F1hm20qcd1!19sChIJDVXUVqz2cTkR4RLtALL_WL8?authuser=0&hl=en&rclk=1,"26.4600719,76.7248563"
Masjid ikhlas,Mosque,"Masjid ikhlas, Madarsa Salfiya, Dussehra Maidan Rd, Ward Number 28, Bharat Mill Colony, Gangapur, Rajasthan 322201","Ward Number 28, Bharat Mill Colony","Madarsa Salfiya, Dussehra Maidan Rd",Gangapur,322201,Rajasthan,IN,https://www.google.com/maps/place/Masjid+ikhlas/data=!4m7!3m6!1s0x3971f7d1455bf22f:0x8a45d986d5be1a29!8m2!3d26.4783906!4d76.7243844!16s%2Fg%2F11hmgr196c!19sChIJL_JbRdH3cTkRKRq-1YbZRYo?authuser=0&hl=en&rclk=1,"26.478390599999997,76.72438439999999"
masjid alzzid salempur,Sauna,"masjid alzzid salempur, salempur, Gangapur, Rajasthan 322202",Karamchari Colony,salempur,Gangapur,322202,Rajasthan,IN,https://www.google.com/maps/place/masjid+alzzid+salempur/data=!4m7!3m6!1s0x3971f7125042ff6b:0x75ea6c89c10f915f!8m2!3d26.4846537!4d76.7278803!16s%2Fg%2F11pclhf6tz!19sChIJa_9CUBL3cTkRX5EPwYls6nU?authuser=0&hl=en&rclk=1,"26.4846537,76.7278803"
"Masjid-e-Aqsa, Badi Udai",Mosque,"GPGH+9F4 Masjid-e-Aqsa, Badi Udai, Badi Udaye, Rajasthan 322201",,GPGH+9F4,Badi Udaye,322201,Rajasthan,IN,"https://www.google.com/maps/place/Masjid-e-Aqsa,+Badi+Udai/data=!4m7!3m6!1s0x3971f60b4fca8059:0x52a5d593ba2a8dc8!8m2!3d26.5258795!4d76.7287106!16s%2Fg%2F11f3cmjmqm!19sChIJWYDKTwv2cTkRyI0qupPVpVI?authuser=0&hl=en&rclk=1","26.5258795,76.7287106"
Rahmaniya mosque,Mosque,"FPJQ+GVW Rahmaniya mosque, Saloda Industrial Area Barh, Saloda Rural, Rajasthan 322201",Saloda Industrial Area,"FPJQ+GVW, Saloda Industrial Area Barh","Saloda Rural, Barh Saloda Rural",322201,Rajasthan,IN,https://www.google.com/maps/place/Rahmaniya+mosque/data=!4m7!3m6!1s0x3971f4221f436693:0x975a799b8bd5b94f!8m2!3d26.4813732!4d76.7397149!16s%2Fg%2F11c74djs4k!19sChIJk2ZDHyL0cTkRT7nVi5t5Wpc?authuser=0&hl=en&rclk=1,"26.4813732,76.7397149"
Madina Maszid Rajiv Colony,Mosque,"FPHC+WPR Madina Maszid Rajiv Colony, Rajivcolony, Gangapur, Rajasthan 322201",Mirzapur,"FPHC+WPR, Rajivcolony",Gangapur,322201,Rajasthan,IN,https://www.google.com/maps/place/Madina+Maszid+Rajiv+Colony/data=!4m7!3m6!1s0x3971f6978b5f733d:0x1311f80f52fa168b!8m2!3d26.4798623!4d76.7217593!16s%2Fg%2F11ddxzv5nb!19sChIJPXNfi5f2cTkRixb6Ug_4ERM?authuser=0&hl=en&rclk=1,"26.479862299999997,76.7217593"
auliyaa msjid,Mosque,"FP78+CXH auliyaa msjid, Laxmi Colony, Gangapur, Rajasthan 322202",Laxmi Colony,FP78+CXH,Gangapur,,Rajasthan,IN,https://www.google.com/maps/place/%E0%A4%94%E0%A4%B2%E0%A4%BF%E0%A4%AF%E0%A4%BE+%E0%A4%AE%E0%A4%B8%E0%A5%8D%E0%A4%9C%E0%A4%BF%E0%A4%A6/data=!4m7!3m6!1s0x3971f6b0d94f39d7:0x2da356aa2381be7e!8m2!3d26.4635546!4d76.7174834!16s%2Fg%2F11gdy7ch5f!19sChIJ1zlP2bD2cTkRfr6BI6pWoy0?authuser=0&hl=en&rclk=1,"26.4635546,76.71748339999999"
Teli Wali Masjid,Mosque,"FPFF+F7W Teli Wali Masjid, Chooli Gate, Gangapur, Rajasthan 322202",Chooli Gate,FPFF+F7W,Gangapur,322202,Rajasthan,IN,https://www.google.com/maps/place/Teli+Wali+Masjid/data=!4m7!3m6!1s0x3971f6a346aaaaab:0x63adcf51405465b7!8m2!3d26.4737318!4d76.7231954!16s%2Fg%2F11fy2xmmqm!19sChIJq6qqRqP2cTkRt2VUQFHPrWM?authuser=0&hl=en&rclk=1,"26.4737318,76.7231954"
Madina Masjid Aman Colony,Mosque,"FPC9+RXR Madina Masjid Aman Colony, Dayan Nagar, Gangapur, Rajasthan 322202",Dayan Nagar,FPC9+RXR,Gangapur,322202,Rajasthan,IN,https://www.google.com/maps/place/Madina+Masjid+Aman+Colony/data=!4m7!3m6!1s0x3971f7d35ffd7481:0xf6ee25b6c493c14c!8m2!3d26.4721195!4d76.7198776!16s%2Fg%2F11h2fngq6g!19sChIJgXT9X9P3cTkRTMGTxLYl7vY?authuser=0&hl=en&rclk=1,"26.472119499999998,76.71987759999999"
MASJID,Mosque,"FPM9+4H4 MASJID, Mirzapur, Gangapur, Rajasthan 322201",Mirzapur,FPM9+4H4,Gangapur,322201,Rajasthan,IN,https://www.google.com/maps/place/MASJID/data=!4m7!3m6!1s0x3971f696d93625db:0x44b2efc9105e81f2!8m2!3d26.482758!4d76.718953!16s%2Fg%2F11ggl0gpqg!19sChIJ2yU22Zb2cTkR8oFeEMnvskQ?authuser=0&hl=en&rclk=1,"26.482758,76.718953"
Madina Masjid,Mosque,"FPMH+V56 Madina Masjid, Chooli Gate, Gangapur, Rajasthan 322201",Chooli Gate,FPMH+V56,Gangapur,322201,Rajasthan,IN,https://www.google.com/maps/place/Madina+Masjid/data=!4m7!3m6!1s0x3971f69bffffffff:0x25cdd14e45cff1a9!8m2!3d26.4846537!4d76.7278803!16s%2Fg%2F11c1r6cb9w!19sChIJ_____5v2cTkRqfHPRU7RzSU?authuser=0&hl=en&rclk=1,"26.4846537,76.7278803"
Nabia Ka Baadh Masjid,Mosque,"FMVF+VRP Nabia Ka Baadh Masjid, Badkala, Rajasthan 322201",,FMVF+VRP,Badkala,322201,Rajasthan,IN,https://www.google.com/maps/place/Nabia+Ka+Baadh+Masjid/data=!4m7!3m6!1s0x3971f708664957a7:0x398f35de4261cc78!8m2!3d26.4947094!4d76.6745925!16s%2Fg%2F11gfj5pz9x!19sChIJp1dJZgj3cTkReMxhQt41jzk?authuser=0&hl=en&rclk=1,"26.494709399999998,76.6745925"
Mahidas balaji- Jai Sri Ram,Hindu temple,"FPJG+529 Mahidas balaji- Jai Sri Ram, Dusshera Maidan, near, Bharat Mill Colony, Gangapur, Rajasthan 322201",Bharat Mill Colony,"FPJG+529 Dusshera Maidan, near",Gangapur,322201,Rajasthan,IN,https://www.google.com/maps/place/Mahidas+balaji-+Jai+Sri+Ram/data=!4m7!3m6!1s0x3971f6985ecc1eb9:0xe03ec68245245a1d!8m2!3d26.4803454!4d76.7247971!16s%2Fg%2F11clp1wjp6!19sChIJuR7MXpj2cTkRHVokRYLGPuA?authuser=0&hl=en&rclk=1,"26.480345399999997,76.7247971"
Masjid-E-Maqqa,Mosque,"Masjid-E-Maqqa, Hindaun - Karauli Road Udai Mode, Chamanpura Colony, near Pradhan Bhawan, Gangapur, Rajasthan 322201",Saloda Industrial Area,"Hindaun - Karauli Road Udai Mode, Chamanpura Colony, near Pradhan Bhawan",Gangapur,322201,Rajasthan,IN,https://www.google.com/maps/place/Masjid-E-Maqqa/data=!4m7!3m6!1s0x3971f4211dfaa30f:0xa5d1a8b36c9af065!8m2!3d26.4836457!4d76.7365687!16s%2Fg%2F11c1pfwg_h!19sChIJD6P6HSH0cTkRZfCabLOo0aU?authuser=0&hl=en&rclk=1,"26.4836457,76.73656869999999"
Umar Masjid,Mosque,"FPQG+73M Umar Masjid, Usman Colony, Gangapur, Udai Kalan rural, Rajasthan 322201",Usman Colony,FPQG+73M,"Gangapur, Udai Kalan rural",322201,Rajasthan,IN,https://www.google.com/maps/place/Umar+Masjid/data=!4m7!3m6!1s0x3971f79769bc3fbb:0x63dec112849132a6!8m2!3d26.4882062!4d76.7251622!16s%2Fg%2F11g1dv79t5!19sChIJuz-8aZf3cTkRpjKRhBLB3mM?authuser=0&hl=en&rclk=1,"26.4882062,76.7251622"
Masjid Ayesha,Mosque,"FPMG+F9R Masjid Ayesha, Jiyapur, Gangapur, Rajasthan 322201",Jiyapur,FPMG+F9R,Gangapur,322201,Rajasthan,IN,https://www.google.com/maps/place/Masjid+Ayesha/data=!4m7!3m6!1s0x3971f6996f7fe623:0xd6e0a939ac3e8b7b!8m2!3d26.4837409!4d76.7259008!16s%2Fg%2F11g9r2tn2n!19sChIJI-Z_b5n2cTkRe4s-rDmp4NY?authuser=0&hl=en&rclk=1,"26.483740899999997,76.72590079999999"
alii.msjid,Mosque,"alii.msjid, kbristaan ke saamne vaalii glii, vaardd nNbr 7, loko koNlonii, Gangapur, Rajasthan 322201",loko koNlonii,"kbristaan ke saamne vaalii glii, vaardd nNbr 7",Gangapur,322201,Rajasthan,IN,https://www.google.com/maps/place/%E0%A4%85%E0%A4%B2%E0%A5%80.%E0%A4%AE%E0%A4%B8%E0%A5%8D%E0%A4%9C%E0%A4%BF%E0%A4%A6/data=!4m7!3m6!1s0x3971f7c9181ea525:0xb2a2361b2640b2e7!8m2!3d26.4608286!4d76.7146747!16s%2Fg%2F11hgj10phw!19sChIJJaUeGMn3cTkR57JAJhs2orI?authuser=0&hl=en&rclk=1,"26.4608286,76.7146747"
Choti Masjid,Mosque,"GPGJ+G6Q Choti Masjid, Badi Udaye, Rajasthan 322201",,GPGJ+G6Q,Badi Udaye,322201,Rajasthan,IN,https://www.google.com/maps/place/Choti+Masjid/data=!4m7!3m6!1s0x3971f60b279fdf3d:0xc9747876ceb14896!8m2!3d26.5263299!4d76.7306166!16s%2Fg%2F11cs6l47dl!19sChIJPd-fJwv2cTkRlkixznZ4dMk?authuser=0&hl=en&rclk=1,"26.5263299,76.73061659999999"
Abubakr Masjid,Mosque,"FPMF+7C3 Abubakr Masjid, Momin Nagar, Dashahra Maidan, Gangapur, Rajasthan 322201","Momin Nagar, Dashahra Maidan",FPMF+7C3,Gangapur,322201,Rajasthan,IN,https://www.google.com/maps/place/Abubakr+Masjid/data=!4m7!3m6!1s0x3971f709ad9ef39f:0x6b4ea4ba4c7e43fc!8m2!3d26.4831465!4d76.7235559!16s%2Fg%2F11ght9h2km!19sChIJn_OerQn3cTkR_EN-TLqkTms?authuser=0&hl=en&rclk=1,"26.4831465,76.7235559"
Jama Masjid,Mosque,"GM7M+GHR Jama Masjid, Sheetla Mata Rd, Aliganj, Rajasthan 322211",,"GM7M+GHR, Sheetla Mata Rd",Aliganj,,Rajasthan,IN,https://www.google.com/maps/place/Jama+Masjid/data=!4m7!3m6!1s0x3971f7009e6c5679:0x1238db5469a1b09a!8m2!3d26.5138612!4d76.6838918!16s%2Fg%2F11fg529m9h!19sChIJeVZsngD3cTkRmrChaVTbOBI?authuser=0&hl=en&rclk=1,"26.513861199999997,76.6838918"
Loko masjid,Mosque,"FP68+MQX Loko masjid, Karauli Rd, Railway Colony, Gangapur, Rajasthan 322201",Railway Colony,"FP68+MQX, Karauli Rd",Gangapur,322201,Rajasthan,IN,https://www.google.com/maps/place/Loko+masjid/data=!4m7!3m6!1s0x3971f705f0e65dd5:0x8e36eeb286c970e1!8m2!3d26.4617417!4d76.7169933!16s%2Fg%2F11jn2lkn75!19sChIJ1V3m8AX3cTkR4XDJhrLuNo4?authuser=0&hl=en&rclk=1,"26.461741699999997,76.7169933"
Masjid Imam E Azam,Mosque,"FPMG+HP2 Masjid Imam E Azam, Shaheen colony, Jiyapur, Gangapur, Rajasthan 322201","Shaheen colony, Jiyapur",FPMG+HP2,Gangapur,,Rajasthan,IN,https://www.google.com/maps/place/Masjid+Imam+E+Azam/data=!4m7!3m6!1s0x3971f7d8d1bce8a7:0x2fb0d783f4c419d6!8m2!3d26.4838937!4d76.7267752!16s%2Fg%2F11g20fnkfx!19sChIJp-i80dj3cTkR1hnE9IPXsC8?authuser=0&hl=en&rclk=1,"26.4838937,76.72677519999999"
Idgah masjid,Mosque,"GP9G+782 Idgah masjid, Udai Kalan rural, Rajasthan 322201",,GP9G+782,Udai Kalan rural,,Rajasthan,IN,https://www.google.com/maps/place/Idgah+masjid/data=!4m7!3m6!1s0x3971f7b806a92bfb:0x60591f3a7e1e!8m2!3d26.5181417!4d76.725779!16s%2Fg%2F11hssw96mb!19sChIJ-yupBrj3cTkRHn46H1lgAAA?authuser=0&hl=en&rclk=1,"26.518141699999997,76.725779"
Masjid-E-Mustufa,Mosque,"FP5F+RH3 Masjid-E-Mustufa, Chuli ki Bageechi Rd, Mahukalan, Gangapur, Rajasthan 322202",Mahukalan,"FP5F+RH3, Chuli ki Bageechi Rd",Gangapur,322202,Rajasthan,IN,https://www.google.com/maps/place/Masjid-E-Mustufa/data=!4m7!3m6!1s0x3971f71e0f6e25cf:0xb922734af631d5dc!8m2!3d26.4595236!4d76.7239223!16s%2Fg%2F11lbb28rm9!19sChIJzyVuDx73cTkR3NUx9kpzIrk?authuser=0&hl=en&rclk=1,"26.459523599999997,76.7239223"
Zainab Masjid Aman Colony,Mosque,"FPF8+5VX Zainab Masjid Aman Colony, Dayan Nagar, Gangapur, Rajasthan 322202",Dayan Nagar,FPF8+5VX,Gangapur,322202,Rajasthan,IN,https://www.google.com/maps/place/Zainab+Masjid+Aman+Colony/data=!4m7!3m6!1s0x3971f75299a4c085:0xfa60ba509c678b49!8m2!3d26.4729777!4d76.7172384!16s%2Fg%2F11fmfym7n_!19sChIJhcCkmVL3cTkRSYtnnFC6YPo?authuser=0&hl=en&rclk=1,"26.472977699999998,76.7172384"
Jama Masjid (GGC),Mosque,"FPGG+RF8 Jama Masjid (GGC), NH 11B, Dayan Nagar, Gangapur, Rajasthan 322201",Dayan Nagar,"FPGG+RF8, NH 11B",Gangapur,322201,Rajasthan,IN,https://www.google.com/maps/place/Jama+Masjid+%28GGC%29/data=!4m7!3m6!1s0x3971f6a241100001:0x597cf073a1ac49db!8m2!3d26.4770335!4d76.7262118!16s%2Fg%2F11sscs3mnc!19sChIJAQAQQaL2cTkR20msoXPwfFk?authuser=0&hl=en&rclk=1,"26.477033499999997,76.7262118"
Moti Masjid,Mosque,"FPHF+8X8 Moti Masjid, Murti Mohalla, Bharat Mill Colony, Gangapur, Rajasthan 322201","Murti Mohalla, Bharat Mill Colony",FPHF+8X8,Gangapur,322201,Rajasthan,IN,https://www.google.com/maps/place/Moti+Masjid/data=!4m7!3m6!1s0x3971f747b0f2f3ef:0x6bd979f6dbde9711!8m2!3d26.4782993!4d76.7249531!16s%2Fg%2F11fhqr0wp4!19sChIJ7_PysEf3cTkREZfe2_Z52Ws?authuser=0&hl=en&rclk=1,"26.4782993,76.7249531"
Masjid Hurmat,Mosque,"FPJ6+MRJ Masjid Hurmat, village, Mahanandpur, reg, Gangapur, Rajasthan 322201",Mahanandpur,"FPJ6+MRJ, village","reg, Gangapur",,Rajasthan,IN,https://www.google.com/maps/place/Masjid+Hurmat/data=!4m7!3m6!1s0x3971f78a662c7217:0xc9e78d68a7fd8c95!8m2!3d26.4817109!4d76.7120063!16s%2Fg%2F11gh_zr6_j!19sChIJF3IsZor3cTkRlYz9p2iN58k?authuser=0&hl=en&rclk=1,"26.4817109,76.7120063"
Mohammadi Masjid,Mosque,"Mohammadi Masjid, Dashera Ground, Jiyapur, Amargarh, Gangapur, Rajasthan 322201",Jiyapur,Dashera Ground,"Amargarh, Gangapur",322201,Rajasthan,IN,https://www.google.com/maps/place/Mohammadi+Masjid/data=!4m7!3m6!1s0x3971f7c9ef5c5081:0xbf5dedf9b9d63521!8m2!3d26.4810515!4d76.7255753!16s%2Fg%2F11ft09x9ft!19sChIJgVBc78n3cTkRITXWufntXb8?authuser=0&hl=en&rclk=1,"26.4810515,76.7255753"
Maszid Saloda,Mosque,"Maszid Saloda, Adarsh Nagar, Gangapur, Saloda Rural, Rajasthan 322201",Adarsh Nagar,,"Gangapur, Saloda Rural",322201,Rajasthan,IN,https://www.google.com/maps/place/Maszid+Saloda/data=!4m7!3m6!1s0x3971f5f8a6590487:0x42c51083b45f4132!8m2!3d26.4881594!4d76.7399402!16s%2Fg%2F11tn_47qbh!19sChIJhwRZpvj1cTkRMkFftIMQxUI?authuser=0&hl=en&rclk=1,"26.488159399999997,76.73994019999999"
Madni masjid,Mosque,"GP6G+4RC Madni masjid, Ggc to nadoti road . Gangapur citycity, Udai Kalan rural",,"GP6G+4RC, Ggc to nadoti road . Gangapur citycity",Udai Kalan rural,,Rajasthan,IN,https://www.google.com/maps/place/Madni+masjid/data=!4m7!3m6!1s0x3971f71d549fccf7:0x9bd1378ba088ef0d!8m2!3d26.5103078!4d76.7270273!16s%2Fg%2F11np4s3rbf!19sChIJ98yfVB33cTkRDe-IoIs30Zs?authuser=0&hl=en&rclk=1,"26.5103078,76.7270273"
Masjid-e-istiyaq,Mosque,"GPCG+4XR Masjid-e-istiyaq, Udai Kalan rural, Rajasthan 322201",,GPCG+4XR,Udai Kalan rural,,Rajasthan,IN,https://www.google.com/maps/place/Masjid-e-istiyaq/data=!4m7!3m6!1s0x3971f7ba9fd1426d:0xcc69ea4f0a0f0ed6!8m2!3d26.520353!4d76.7273998!16s%2Fg%2F11q22g4mx9!19sChIJbULRn7r3cTkR1g4PCk_qacw?authuser=0&hl=en&rclk=1,"26.520353,76.7273998"
rhmaaniyaa msjid usmaan koNlonii,Pharmacy,"rhmaaniyaa msjid usmaan koNlonii, Jiyapur, Gangapur, Rajasthan 322201",Jiyapur,,Gangapur,322201,Rajasthan,IN,https://www.google.com/maps/place/%E0%A4%B0%E0%A4%B9%E0%A4%AE%E0%A4%BE%E0%A4%A8%E0%A4%BF%E0%A4%AF%E0%A4%BE+%E0%A4%AE%E0%A4%B8%E0%A5%8D%E0%A4%9C%E0%A4%BF%E0%A4%A6+%E0%A4%89%E0%A4%B8%E0%A5%8D%E0%A4%AE%E0%A4%BE%E0%A4%A8+%E0%A4%95%E0%A5%89%E0%A4%B2%E0%A5%8B%E0%A4%A8%E0%A5%80/data=!4m7!3m6!1s0x3971f77d7002880b:0x432b705a318668a6!8m2!3d26.4854879!4d76.7254587!16s%2Fg%2F11fb0qzp0_!19sChIJC4gCcH33cTkRpmiGMVpwK0M?authuser=0&hl=en&rclk=1,"26.4854879,76.72545869999999"
Nam Mr masjid,Mosque,"Nam Mr masjid, 182, Sindhi Colony Rd, Mahavir Nagar, Gangapur, Rajasthan 322201",Mahavir Nagar,"182, Sindhi Colony Rd",Gangapur,322201,Rajasthan,IN,https://www.google.com/maps/place/Nam+Mr+masjid/data=!4m7!3m6!1s0x3971f76c23cc29cb:0xba46a4044a5eb2e!8m2!3d26.4707879!4d76.727955!16s%2Fg%2F11nm_jb0s_!19sChIJyynMI2z3cTkRLuulREBqpAs?authuser=0&hl=en&rclk=1,"26.470787899999998,76.727955"
Nurani Masjid,Mosque,"Nurani Masjid, Adarsh Nagar, Gangapur, Udai Kalan rural, Rajasthan 322201",Adarsh Nagar,,"Gangapur, Udai Kalan rural",322201,Rajasthan,IN,https://www.google.com/maps/place/Nurani+Masjid/data=!4m7!3m6!1s0x3971f599ee326fa7:0xc2334380c4eb849e!8m2!3d26.5014796!4d76.737445!16s%2Fg%2F11j43dypr0!19sChIJp28y7pn1cTkRnoTrxIBDM8I?authuser=0&hl=en&rclk=1,"26.5014796,76.737445"
"Aamin tailor,chuli gate teliyo ki masjid ke pas",Tailor,"FPCF+XHC Aamin tailor,chuli gate teliyo ki masjid ke pas, Government Hospital Rd, Mahavir Nagar, Gangapur, Rajasthan 322202",Mahavir Nagar,"FPCF+XHC, Government Hospital Rd",Gangapur,322202,Rajasthan,IN,"https://www.google.com/maps/place/Aamin+tailor,chuli+gate+teliyo+ki+masjid+ke+pas/data=!4m7!3m6!1s0x3971f7882d747f2d:0x37a704b1404899ea!8m2!3d26.4724254!4d76.7239008!16s%2Fg%2F11fkchhlmb!19sChIJLX90LYj3cTkR6plIQLEEpzc?authuser=0&hl=en&rclk=1","26.4724254,76.7239008"
Hamza rolling shutter gangapur city jama masjid,Home builder,"Hamza rolling shutter gangapur city jama masjid, Jama masjid, Bharat Mill Colony, Gangapur, Rajasthan 322201",Bharat Mill Colony,Jama masjid,Gangapur,,Rajasthan,IN,https://www.google.com/maps/place/Hamza+rolling+shutter+gangapur+city+jama+masjid/data=!4m7!3m6!1s0x3971f77bfcbf91dd:0xea9c24df0243dc01!8m2!3d26.4774724!4d76.7261545!16s%2Fg%2F11rqv1khm7!19sChIJ3ZG__Hv3cTkRAdxDAt8knOo?authuser=0&hl=en&rclk=1,"26.4774724,76.72615449999999"
"Naamner Masjid, naamner msjid",Mosque,"Ward no. 27, Naamner Masjid, naamner msjid, Station Rd, udai mode, Saloda Industrial Area, Gangapur, Rajasthan 322201","udai mode, Saloda Industrial Area","Ward no. 27, Station Rd",Gangapur,322201,Rajasthan,IN,"https://www.google.com/maps/place/Naamner+Masjid,+%E0%A4%A8%E0%A4%BE%E0%A4%AE%E0%A4%A8%E0%A5%87%E0%A4%B0+%E0%A4%AE%E0%A4%B8%E0%A5%8D%E0%A4%9C%E0%A4%BF%E0%A4%A6/data=!4m7!3m6!1s0x3971f5cd1ed08b1f:0x1ba44dcabde446e7!8m2!3d26.4833211!4d76.7340094!16s%2Fg%2F11t2sxk97t!19sChIJH4vQHs31cTkR50bkvcpNpBs?authuser=0&hl=en&rclk=1","26.483321099999998,76.73400939999999"
Jakariya masjid,Mosque,"FPJ9+JGF Jakariya masjid, Sheetla Mata Rd, Mirzapur, Gangapur, Rajasthan 322201",Mirzapur,"FPJ9+JGF, Sheetla Mata Rd",Gangapur,,Rajasthan,IN,https://www.google.com/maps/place/Jakariya+masjid/data=!4m7!3m6!1s0x3971f710e9a2431b:0xdbf0672cc5b7d686!8m2!3d26.4815607!4d76.7187925!16s%2Fg%2F11rq8wh384!19sChIJG0Oi6RD3cTkRhta3xSxn8Ns?authuser=0&hl=en&rclk=1,"26.4815607,76.71879249999999"
Mohammadi Masjid Aliganj,Mosque,"Mohammadi Masjid Aliganj, Sheetla Mata Rd, Gangapur, Brahmabad Rural, Rajasthan 322201",,Sheetla Mata Rd,"Gangapur, Brahmabad Rural",322201,Rajasthan,IN,https://www.google.com/maps/place/Mohammadi+Masjid+Aliganj/data=!4m7!3m6!1s0x3971f717677ebe9f:0xa0f1c88939d93d42!8m2!3d26.4918475!4d76.7108696!16s%2Fg%2F11rfnzqg0d!19sChIJn75-Zxf3cTkRQj3ZOYnI8aA?authuser=0&hl=en&rclk=1,"26.4918475,76.7108696"
Aamna masjid,Mosque,"GP3P+X98 Aamna masjid, Adarsh Nagar, Udai Kalan rural, Rajasthan 322201",Adarsh Nagar,GP3P+X98,Udai Kalan rural,322201,Rajasthan,IN,https://www.google.com/maps/place/Aamna+masjid/data=!4m7!3m6!1s0x3971f5ff5a4c52ff:0x39923bcb4cc79744!8m2!3d26.5050469!4d76.7359512!16s%2Fg%2F11twh5c6yr!19sChIJ_1JMWv_1cTkRRJfHTMs7kjk?authuser=0&hl=en&rclk=1,"26.5050469,76.7359512"
Masque of teli,Mosque,"FPFF+36F Masque of teli, Mahavir Nagar, Gangapur, Rajasthan 322202",Mahavir Nagar,FPFF+36F,Gangapur,322202,Rajasthan,IN,https://www.google.com/maps/place/Masque+of+teli/data=!4m7!3m6!1s0x3971f7c52a7ed969:0x60d7bbf6199f2a60!8m2!3d26.4726863!4d76.7230521!16s%2Fg%2F11sk4qxb16!19sChIJadl-KsX3cTkRYCqfGfa712A?authuser=0&hl=en&rclk=1,"26.4726863,76.72305209999999"
USMAN GANI MASAJID,Mosque,"USMAN GANI MASAJID, Aashu pathan B2, Mirzapur, Gangapur, Rajasthan 322201",Mirzapur,Aashu pathan B2,Gangapur,322201,Rajasthan,IN,https://www.google.com/maps/place/USMAN+GANI+MASAJID/data=!4m7!3m6!1s0x3971f750418f8465:0x2b2b820bf3c1f08!8m2!3d26.4816216!4d76.7226555!16s%2Fg%2F11sgmzb3j9!19sChIJZYSPQVD3cTkRCB88vyC4sgI?authuser=0&hl=en&rclk=1,"26.4816216,76.7226555"
Madarsa Qasmiya kasimul uloom,Mosque,"FPPG+3FG Madarsa Qasmiya kasimul uloom, Unnamed Road, Jiyapur, Gangapur, Rajasthan 322201",Jiyapur,"FPPG+3FG, Unnamed Road",Gangapur,322201,Rajasthan,IN,https://www.google.com/maps/place/Madarsa+Qasmiya+kasimul+uloom/data=!4m7!3m6!1s0x3971f77834e564e9:0x59eb61ee2a8710da!8m2!3d26.4851892!4d76.7262062!16s%2Fg%2F11ncjdvxp4!19sChIJ6WTlNHj3cTkR2hCHKu5h61k?authuser=0&hl=en&rclk=1,"26.485189199999997,76.7262062"
Masjid a Abubakar,Mosque,"GPHM+8HG Masjid a Abubakar, Badi Udaye, Rajasthan 322201",,GPHM+8HG,Badi Udaye,322201,Rajasthan,IN,https://www.google.com/maps/place/Masjid+a+Abubakar/data=!4m7!3m6!1s0x3971f5dd236d9ccd:0x422bac742dda1cb5!8m2!3d26.5283164!4d76.7339662!16s%2Fg%2F11pv2_41kc!19sChIJzZxtI931cTkRtRzaLXSsK0I?authuser=0&hl=en&rclk=1,"26.528316399999998,76.7339662"
"Madni masjid, udai kalan",Mosque,"GPCH+J9R Madni masjid, udai kalan, Udai Kalan rural, Rajasthan 322201",,GPCH+J9R,Udai Kalan rural,322201,Rajasthan,IN,"https://www.google.com/maps/place/Madni+masjid,+udai+kalan/data=!4m7!3m6!1s0x3971f7d4de1f14fb:0xfeb9221bb0bc00ad!8m2!3d26.5216022!4d76.7283835!16s%2Fg%2F11lh3vsqq0!19sChIJ-xQf3tT3cTkRrQC8sBsiuf4?authuser=0&hl=en&rclk=1","26.5216022,76.72838349999999"
Makka masjid,Mosque,"FPC9+4MQ Makka masjid, Mahavir Nagar, Gangapur, Rajasthan 322202",Mahavir Nagar,FPC9+4MQ,Gangapur,322202,Rajasthan,IN,https://www.google.com/maps/place/Makka+masjid/data=!4m7!3m6!1s0x3971f75b63ed38a9:0xb1cc26968c028583!8m2!3d26.4703461!4d76.7192298!16s%2Fg%2F11pvz3wkpm!19sChIJqTjtY1v3cTkRg4UCjJYmzLE?authuser=0&hl=en&rclk=1,"26.4703461,76.7192298"
Fatima Masjid,Mosque,"GP3M+H8F Fatima Masjid, Unnamed Road, Adarsh Nagar, Udai Kalan rural, Rajasthan 322201",Adarsh Nagar,"GP3M+H8F, Unnamed Road",Udai Kalan rural,322201,Rajasthan,IN,https://www.google.com/maps/place/Fatima+Masjid/data=!4m7!3m6!1s0x3971f70d2f6829cb:0x4fe50424c949dce8!8m2!3d26.5039447!4d76.7332834!16s%2Fg%2F11hzhw87qx!19sChIJyyloLw33cTkR6NxJySQE5U8?authuser=0&hl=en&rclk=1,"26.503944699999998,76.73328339999999"
Masjid Usman E Ghani,Mosque,"FPJF+H5P Masjid Usman E Ghani, Mirzapur, Gangapur, Rajasthan 322201",Mirzapur,FPJF+H5P,Gangapur,322201,Rajasthan,IN,https://www.google.com/maps/place/Masjid+Usman+E+Ghani/data=!4m7!3m6!1s0x3971f74821c14fa1:0x6700c67315c4df43!8m2!3d26.4814695!4d76.7229675!16s%2Fg%2F11rjz8bgr9!19sChIJoU_BIUj3cTkRQ9_EFXPGAGc?authuser=0&hl=en&rclk=1,"26.4814695,76.7229675"
Saad maszid,Mosque,"FPM9+8VH Saad maszid, Mirzapur, Gangapur, Rajasthan 322201",Mirzapur,FPM9+8VH,Gangapur,322201,Rajasthan,IN,https://www.google.com/maps/place/Saad+maszid/data=!4m7!3m6!1s0x3971f7d0c73ce3df:0xa9f680416c0db65d!8m2!3d26.4833215!4d76.719721!16s%2Fg%2F11tdjlvylq!19sChIJ3-M8x9D3cTkRXbYNbEGA9qk?authuser=0&hl=en&rclk=1,"26.4833215,76.71972099999999"
Madina masjid,Mosque,"29X7+WV4 Madina masjid, Truck Union Rd, behind BSNL colony, madina colony, Dayan Nagar, Gangapur, Rajasthan 322001","madina colony, Dayan Nagar","29X7+WV4, Truck Union Rd, behind BSNL colony",Gangapur,322001,Rajasthan,IN,https://www.google.com/maps/place/Madina+masjid/data=!4m7!3m6!1s0x3971f7f6c0c536b7:0xdd5ce37e76e28004!8m2!3d26.4772274!4d76.7228267!16s%2Fg%2F11t649sc83!19sChIJtzbFwPb3cTkRBIDidn7jXN0?authuser=0&hl=en&rclk=1,"26.4772274,76.7228267"
Noorani Masjid,Mosque,"FPMM+8JC Noorani Masjid, udai mode, Saloda Industrial Area, Gangapur, Rajasthan 322201","udai mode, Saloda Industrial Area",FPMM+8JC,Gangapur,,Rajasthan,IN,https://www.google.com/maps/place/Noorani+Masjid/data=!4m7!3m6!1s0x3971f5588d113011:0x37e5693871d8880e!8m2!3d26.4833211!4d76.7340094!16s%2Fg%2F11fn42cywk!19sChIJETARjVj1cTkRDojYcThp5Tc?authuser=0&hl=en&rclk=1,"26.483321099999998,76.73400939999999"
Madena.Masjed.786.,Mosque,"FPFF+F7W Madena.Masjed.786., Chooli Gate, Gangapur, Rajasthan 322202",Chooli Gate,FPFF+F7W,Gangapur,322202,Rajasthan,IN,https://www.google.com/maps/place/Madena.Masjed.786./data=!4m7!3m6!1s0x3971f6a346aaaaab:0xf3d6957be98c9a9!8m2!3d26.4737318!4d76.7231954!16s%2Fg%2F11gg9d7zlv!19sChIJq6qqRqP2cTkRqcmYvldpPQ8?authuser=0&hl=en&rclk=1,"26.4737318,76.7231954"
Moti mazdid,Mosque,"FPMM+8JC Moti mazdid, udai mode, Saloda Industrial Area, Gangapur, Rajasthan 322201","udai mode, Saloda Industrial Area",FPMM+8JC,Gangapur,,Rajasthan,IN,https://www.google.com/maps/place/Moti+mazdid/data=!4m7!3m6!1s0x3971f527a7d294ff:0x72aa7335d96673bb!8m2!3d26.4833211!4d76.7340094!16s%2Fg%2F11tmhqq6pv!19sChIJ_5TSpyf1cTkRu3Nm2TVzqnI?authuser=0&hl=en&rclk=1,"26.483321099999998,76.73400939999999"
Madina masjid chuli,Housing society,"Madina masjid chuli, 627/7, Dayan Nagar, Gangapur, Rajasthan 322001",Dayan Nagar,627/7,Gangapur,322001,Rajasthan,IN,https://www.google.com/maps/place/Madina+masjid+chuli/data=!4m7!3m6!1s0x3971f77b73872bcb:0x9e8623a8c72e9342!8m2!3d26.4722324!4d76.7195941!16s%2Fg%2F11l5f0m4mr!19sChIJyyuHc3v3cTkRQpMux6gjhp4?authuser=0&hl=en&rclk=1,"26.4722324,76.7195941"
Madina Eidgah,Mosque,"FPH7+3HX Madina Eidgah, Mahanandpur, Gangapur, Rajasthan 322201",Mahanandpur,FPH7+3HX,Gangapur,322201,Rajasthan,IN,https://www.google.com/maps/place/Madina+Eidgah/data=!4m7!3m6!1s0x3971f69586555555:0x7b9d7e9ca5b26c37!8m2!3d26.4777369!4d76.7139908!16s%2Fg%2F11kj3f544h!19sChIJVVVVhpX2cTkRN2yypZx-nXs?authuser=0&hl=en&rclk=1,"26.4777369,76.71399079999999"
Maszid,Mosque,"FP8J+FVH Maszid, New basti, Mahukalan, Gangapur, Rajasthan 322202","New basti, Mahukalan",FP8J+FVH,Gangapur,322202,Rajasthan,IN,https://www.google.com/maps/place/Maszid/data=!4m7!3m6!1s0x3971f7cec9f89835:0x1bcf2f4926f31c4c!8m2!3d26.4661821!4d76.7322375!16s%2Fg%2F11rncw0_b0!19sChIJNZj4yc73cTkRTBzzJkkvzxs?authuser=0&hl=en&rclk=1,"26.466182099999997,76.7322375"
New basti mahukalan,Mosque,"FP8J+FVH New basti mahukalan, Mahukalan, Gangapur, Rajasthan 322202",Mahukalan,FP8J+FVH,Gangapur,322202,Rajasthan,IN,https://www.google.com/maps/place/New+basti+mahukalan/data=!4m7!3m6!1s0x3971f711b2764405:0x55a6a4f50e8b41e5!8m2!3d26.4661821!4d76.7322375!16s%2Fg%2F11smtnl95q!19sChIJBUR2shH3cTkR5UGLDvWkplU?authuser=0&hl=en&rclk=1,"26.466182099999997,76.7322375"
BADI MASJID,Mosque,"GPGJ+G6Q BADI MASJID, Sikandra - Gangapur City Rd, Badi Udaye, Rajasthan 322201",,"GPGJ+G6Q, Sikandra - Gangapur City Rd",Badi Udaye,322201,Rajasthan,IN,https://www.google.com/maps/place/BADI+MASJID/data=!4m7!3m6!1s0x3971f60b27778b27:0x19fa00385fd57468!8m2!3d26.5263297!4d76.7306166!16s%2Fg%2F11c48n3q9x!19sChIJJ4t3Jwv2cTkRaHTVXzgA-hk?authuser=0&hl=en&rclk=1,"26.526329699999998,76.73061659999999"
Masjid Jamia Tul ilmi Wal Huda,School,"FPQG+MCX Masjid Jamia Tul ilmi Wal Huda, usman kaloni, Jiyapur, Gangapur, Udai Kalan rural, Rajasthan 322201",Jiyapur,FPQG+MCX usman kaloni,"Gangapur, Udai Kalan rural",,Rajasthan,IN,https://www.google.com/maps/place/Masjid+Jamia+Tul+ilmi+Wal+Huda/data=!4m7!3m6!1s0x3971f7fbb1eaf1dd:0xba3f312ec476e2da!8m2!3d26.4892412!4d76.7261106!16s%2Fg%2F11fjscr6wj!19sChIJ3fHqsfv3cTkR2uJ2xC4xP7o?authuser=0&hl=en&rclk=1,"26.4892412,76.7261106"
Altaf khan,Place of worship,"Altaf khan, Madina masjid, Nasiya Colony, Mahavir Nagar, Gangapur, Rajasthan 322202","Nasiya Colony, Mahavir Nagar",Madina masjid,Gangapur,,Rajasthan,IN,https://www.google.com/maps/place/Altaf+khan/data=!4m7!3m6!1s0x3971f7171070538f:0x1a917735f7f11e6e!8m2!3d26.4698464!4d76.7226727!16s%2Fg%2F11ny3hmpkp!19sChIJj1NwEBf3cTkRbh7x9zV3kRo?authuser=0&hl=en&rclk=1,"26.469846399999998,76.72267269999999"
Noorani Masjid Sohil Hgar,School,"GP2Q+H59 Noorani Masjid Sohil Hgar, Kaji Colony, Gangapur, Udai Kalan rural, Rajasthan 322201",Kaji Colony,GP2Q+H59,"Gangapur, Udai Kalan rural",,Rajasthan,IN,https://www.google.com/maps/place/Noorani+Masjid+Sohil+Hgar/data=!4m7!3m6!1s0x3971f5c348951fa9:0x2f7230814bca0b5a!8m2!3d26.5014179!4d76.737973!16s%2Fg%2F11gy3dchm_!19sChIJqR-VSMP1cTkRWgvKS4Ewci8?authuser=0&hl=en&rclk=1,"26.5014179,76.737973"
Takiya wali masjid,Museum,"FPGG+W9W Takiya wali masjid, Tahsil ke samne, Dayan Nagar, Gangapur, Rajasthan 322201",Dayan Nagar,FPGG+W9W Tahsil ke samne,Gangapur,,Rajasthan,IN,https://www.google.com/maps/place/Takiya+wali+masjid/data=!4m7!3m6!1s0x3971f7aecc124899:0x26524b4824ac4875!8m2!3d26.4773654!4d76.725941!16s%2Fg%2F11h_k7t_dd!19sChIJmUgSzK73cTkRdUisJEhLUiY?authuser=0&hl=en&rclk=1,"26.4773654,76.72594099999999"
