name,main_category,address,address_ward,address_street,address_city,address_postal_code,address_state,address_country_code,link,coordinates
Madina Masjid Ainoli,Mosque,"Madina Masjid Ainoli, Ainoli, Chincholi, Ainoli, Karnataka 585307",Ainoli,,"Chincholi, Ainoli",585307,Karnataka,IN,https://www.google.com/maps/place/Madina+Masjid+Ainoli/data=!4m7!3m6!1s0x3bc930e3f3048ce1:0x2ff43e25b9bbd54b!8m2!3d17.4986363!4d77.4403073!16s%2Fg%2F11f_xd_7sc!19sChIJ4YwE8-MwyTsRS9W7uSU-9C8?authuser=0&hl=en&rclk=1,"17.498636299999998,77.4403073"
Taj masjid,Mosque,"FR3G+RMQ Taj masjid, Tajpur, Uttar Pradesh 203001",,FR3G+RMQ,Tajpur,203001,Uttar Pradesh,IN,https://www.google.com/maps/place/Taj+masjid/data=!4m7!3m6!1s0x390ca39c5e10b213:0x8b3749c11061ef6c!8m2!3d28.4545849!4d77.8267218!16s%2Fg%2F11v3h3487c!19sChIJE7IQXpyjDDkRbO9hEMFJN4s?authuser=0&hl=en&rclk=1,"28.4545849,77.8267218"
Dargah,Mosque,"8CPV+WPP Dargah, Taluk, Bhantanahalli, Chincholi, Karnataka 585320",,"8CPV+WPP, Taluk","Bhantanahalli, Chincholi",585320,Karnataka,IN,https://www.google.com/maps/place/Dargah/data=!4m7!3m6!1s0x3bc93d8bc44c16e5:0x1a65afa872ab72fc!8m2!3d17.3373125!4d77.4443125!16s%2Fg%2F11qb3dg2cy!19sChIJ5RZMxIs9yTsR_HKrcqivZRo?authuser=0&hl=en&rclk=1,"17.3373125,77.4443125"
B h Patel stor,Mosque,"5RFX+PQX B h Patel stor, Squatters Colony Rd, Malad, Chinchowali Colony, Malad East, Mumbai, Maharashtra 400097","Malad, Chinchowali Colony, Malad East","5RFX+PQX, Squatters Colony Rd",Mumbai,400097,Maharashtra,IN,https://www.google.com/maps/place/B+h+Patel+stor/data=!4m7!3m6!1s0x3be7b655627f0a0d:0xef60713bf6fce178!8m2!3d19.1743597!4d72.8494946!16s%2Fg%2F11ck7vl9ff!19sChIJDQp_YlW25zsReOH89jtxYO8?authuser=0&hl=en&rclk=1,"19.1743597,72.8494946"
Dibiya wali Masjid,Mosque,"G54H+M78 Dibiya wali Masjid, Mehrauli-Gurgaon Road, M G Road, Dr Ambedkar Colony, Chhatarpur, New Delhi, Delhi 110030","Dr Ambedkar Colony, Chhatarpur","G54H+M78, Mehrauli-Gurgaon Road, M G Road",New Delhi,110030,Delhi,IN,https://www.google.com/maps/place/Dibiya+wali+Masjid/data=!4m7!3m6!1s0x390d1e16e71c9d4d:0x176d7f6163772932!8m2!3d28.5091206!4d77.1796709!16s%2Fg%2F119w0d7q4!19sChIJTZ0c5xYeDTkRMil3Y2F_bRc?authuser=0&hl=en&rclk=1,"28.5091206,77.17967089999999"
Mehboo e Elahi Masjid msjd mHbwbi lhy,Mosque,"Mehboo e Elahi Masjid msjd mHbwbi lhy, 337A, Gali Number 12, Block G, Talimabad, Sangam Vihar, New Delhi, Delhi 110080","Block G, Talimabad, Sangam Vihar","337A, Gali Number 12",New Delhi,110080,Delhi,IN,https://www.google.com/maps/place/Mehboo+e+Elahi+Masjid+%D9%85%D8%B3%D8%AC%D8%AF+%D9%85%D8%AD%D8%A8%D9%88%D8%A8%D9%90+%D8%A7%D9%84%D9%B0%DB%81%DB%8C%E2%80%AD/data=!4m7!3m6!1s0x390ce1117bd6badd:0xebb2a755e5d86cc5!8m2!3d28.5059839!4d77.2552619!16s%2Fg%2F11hcx9jlc5!19sChIJ3brWexHhDDkRxWzY5VWnsus?authuser=0&hl=en&rclk=1,"28.5059839,77.2552619"
Choti Masjid,Mosque,"F5XM+4RC Choti Masjid, Block A1, Chhatarpur, New Delhi, Delhi 110074","Block A1, Chhatarpur",F5XM+4RC,New Delhi,110074,Delhi,IN,https://www.google.com/maps/place/Choti+Masjid/data=!4m7!3m6!1s0x390d1e24e90c21c9:0x9b4414e9cdae46f3!8m2!3d28.4978061!4d77.1845173!16s%2Fg%2F12lk80ng8!19sChIJySEM6SQeDTkR80auzekURJs?authuser=0&hl=en&rclk=1,"28.4978061,77.1845173"
Masjid-e Hassan,Mosque,"7HGF+652 Masjid-e Hassan, Chincholi - Tandur Road, Goutapur, Telangana 501141",,"7HGF+652, Chincholi - Tandur Road",Goutapur,501141,Telangana,IN,https://www.google.com/maps/place/Masjid-e+Hassan/data=!4m7!3m6!1s0x3bc96b5252608801:0x192cc80ea59c911d!8m2!3d17.2755205!4d77.572897!16s%2Fg%2F11h23n_y6l!19sChIJAYhgUlJryTsRHZGcpQ7ILBk?authuser=0&hl=en&rclk=1,"17.2755205,77.572897"
Chhoti Masjid,Mosque,"Chhoti Masjid, Tikri Khera, Haryana 121004",,,Tikri Khera,121004,Haryana,IN,https://www.google.com/maps/place/Chhoti+Masjid/data=!4m7!3m6!1s0x390cd8bd400ae0df:0xcc986c3f61a61fd6!8m2!3d28.3165752!4d77.2203966!16s%2Fg%2F11dzpnht9w!19sChIJ3-AKQL3YDDkR1h-mYT9smMw?authuser=0&hl=en&rclk=1,"28.3165752,77.2203966"
Madina Masjid Chandapur,Mosque,"CCVP+H2M Madina Masjid Chandapur, madina colony Chandapur, Chincholi, Karnataka",,"CCVP+H2M, madina colony Chandapur","Chincholi, Chandapur",,Karnataka,IN,https://www.google.com/maps/place/Madina+Masjid+Chandapur/data=!4m7!3m6!1s0x3bc9318e1bb3b3db:0x3bd701dc437be7f3!8m2!3d17.4439638!4d77.4350588!16s%2Fg%2F11gy9yzbty!19sChIJ27OzG44xyTsR8-d7Q9wB1zs?authuser=0&hl=en&rclk=1,"17.4439638,77.4350588"
"Shaikh Basti Masjid, Bhigwan",Mosque,"8Q82+F8X Shaikh Basti Masjid, Bhigwan, Swami Chincholi, Maharashtra 413130",,8Q82+F8X,Swami Chincholi,413130,Maharashtra,IN,"https://www.google.com/maps/place/Shaikh+Basti+Masjid,+Bhigwan/data=!4m7!3m6!1s0x3bc370ee05d2ef93:0x6a76ba30935bcfcd!8m2!3d18.316229!4d74.7508599!16s%2Fg%2F11fz9jbgh1!19sChIJk-_SBe5wwzsRzc9bkzC6dmo?authuser=0&hl=en&rclk=1","18.316229,74.7508599"
Jamia Masjid,Mosque,"93QP+C6C Jamia Masjid, Chincholi H, Karnataka 585312",,93QP+C6C,Chincholi H,,Karnataka,IN,https://www.google.com/maps/place/Jamia+Masjid/data=!4m7!3m6!1s0x3bc8db7815cbb925:0x6dc58936727b77fe!8m2!3d17.3885687!4d77.0855036!16s%2Fg%2F11gxmh7mkr!19sChIJJbnLFXjbyDsR_nd7cjaJxW0?authuser=0&hl=en&rclk=1,"17.3885687,77.0855036"
Sunni Jamah Masjid Antora,Mosque,"637X+QXC Sunni Jamah Masjid Antora, Antora Shivra, Chincholi, Maharashtra 442202",,637X+QXC,"Antora Shivra, Chincholi",442202,Maharashtra,IN,https://www.google.com/maps/place/Sunni+Jamah+Masjid+Antora/data=!4m7!3m6!1s0x3bd42566bb4fc2ad:0x6e459d96d9ad2e57!8m2!3d21.2144353!4d78.0998934!16s%2Fg%2F11hzjxl8p_!19sChIJrcJPu2Yl1DsRVy6t2ZadRW4?authuser=0&hl=en&rclk=1,"21.214435299999998,78.0998934"
Jama Masjid E Yaseen,Mosque,"48XM+F6C Jama Masjid E Yaseen, Hanuman Temple Road, Chincholi Buzurg, Telangana 504106",,"48XM+F6C, Hanuman Temple Road",Chincholi Buzurg,504106,Telangana,IN,https://www.google.com/maps/place/Jama+Masjid+E+Yaseen/data=!4m7!3m6!1s0x3bcd8afe0a8621e5:0x8fe4dfebe2fa5c5e!8m2!3d19.148678!4d78.3330188!16s%2Fg%2F11f2wfb5z6!19sChIJ5SGGCv6KzTsRXlz64uvf5I8?authuser=0&hl=en&rclk=1,"19.148678,78.33301879999999"
Masjid,Mosque,"H77Q+868 Masjid, Okhla Village, Okhla, New Delhi, Delhi 110025","Okhla Village, Okhla",H77Q+868,New Delhi,110025,Delhi,IN,https://www.google.com/maps/place/Masjid/data=!4m7!3m6!1s0x390ce47512f7aa2b:0x544337a9b9e5d7a2!8m2!3d28.5632814!4d77.2880932!16s%2Fg%2F11gbtpj5td!19sChIJK6r3EnXkDDkRotfluak3Q1Q?authuser=0&hl=en&rclk=1,"28.563281399999997,77.28809319999999"
Dargah Masjid,Mosque,"5RHW+MQC Dargah Masjid, Malad, Chincholi Phatak, Malad West, Mumbai, Maharashtra 400064","Malad, Chincholi Phatak, Malad West",5RHW+MQC,Mumbai,400064,Maharashtra,IN,https://www.google.com/maps/place/Dargah+Masjid/data=!4m7!3m6!1s0x3be7b707e16a011d:0x945cc9a635ef5ccc!8m2!3d19.1791952!4d72.8469057!16s%2Fg%2F11j8wrvy2x!19sChIJHQFq4Qe35zsRzFzvNabJXJQ?authuser=0&hl=en&rclk=1,"19.1791952,72.8469057"
Jamiya Masjid,Mosque,"GC2Q+GM9 Jamiya Masjid, Ainoli, Karnataka 585307",,GC2Q+GM9,Ainoli,585307,Karnataka,IN,https://www.google.com/maps/place/Jamiya+Masjid/data=!4m7!3m6!1s0x3bc930e251b1e3c7:0x6de0e1934f403c63!8m2!3d17.5012962!4d77.4392266!16s%2Fg%2F11f1vpbx6l!19sChIJx-OxUeIwyTsRYzxAT5Ph4G0?authuser=0&hl=en&rclk=1,"17.5012962,77.4392266"
Jamma Masjid Chincholi,Mosque,"49Q9+83R Jamma Masjid Chincholi, NH 361, Chincholi Kajale, Maharashtra 413520",,"49Q9+83R, NH 361",Chincholi Kajale,413520,Maharashtra,IN,https://www.google.com/maps/place/Jamma+Masjid+Chincholi/data=!4m7!3m6!1s0x3bc5874c257fcbbd:0x2298a43f6013c0f5!8m2!3d18.1383615!4d76.3676389!16s%2Fg%2F11gxmqqvyv!19sChIJvct_JUyHxTsR9cATYD-kmCI?authuser=0&hl=en&rclk=1,"18.1383615,76.3676389"
huda masjid,Mosque,"FC59+5VM huda masjid, Chincholi, Karnataka 585307",,FC59+5VM,Chincholi,585307,Karnataka,IN,https://www.google.com/maps/place/huda+masjid/data=!4m7!3m6!1s0x3bc9307f3c7d3e11:0x598eb39331d6de35!8m2!3d17.4579571!4d77.4196739!16s%2Fg%2F11cssn834b!19sChIJET59PH8wyTsRNd7WMZOzjlk?authuser=0&hl=en&rclk=1,"17.457957099999998,77.41967389999999"
Jama masjid,Mosque,"9858+JFF Jama masjid, Unnamed Road, Chincholi M, Maharashtra 413220",,"9858+JFF, Unnamed Road",Chincholi M,413220,Maharashtra,IN,https://www.google.com/maps/place/Jama+masjid/data=!4m7!3m6!1s0x3bc61bb22751b01f:0xf90609a4cc73e6bf!8m2!3d17.3590698!4d76.3161722!16s%2Fg%2F11sqvbt9j_!19sChIJH7BRJ7IbxjsRv-ZzzKQJBvk?authuser=0&hl=en&rclk=1,"17.3590698,76.3161722"
Jama Masjid,Mosque,"4GFW+VP6 Jama Masjid, Unnamed Road, Chincholi Tapse, Maharashtra 413516",,"4GFW+VP6, Unnamed Road",Chincholi Tapse,413516,Maharashtra,IN,https://www.google.com/maps/place/Jama+Masjid/data=!4m7!3m6!1s0x3bcf637ac4611c35:0x21145d60684654fc!8m2!3d18.1246702!4d76.5467614!16s%2Fg%2F11q26529pf!19sChIJNRxhxHpjzzsR_FRGaGBdFCE?authuser=0&hl=en&rclk=1,"18.1246702,76.5467614"
Mahbubiya Masjid,Mosque,"F2JC+8F5 Mahbubiya Masjid, M. Chincholi, Maharashtra 431209",,F2JC+8F5,M. Chincholi,431209,Maharashtra,IN,https://www.google.com/maps/place/Mahbubiya+Masjid/data=!4m7!3m6!1s0x3bdaeb93e780fd97:0x42f219e7aac6a652!8m2!3d19.4807549!4d76.0212322!16s%2Fg%2F11c2y448sb!19sChIJl_2A55Pr2jsRUqbGqucZ8kI?authuser=0&hl=en&rclk=1,"19.4807549,76.0212322"
Madina Masjid Markhanda,Mosque,"8PFC+PQ9 Madina Masjid Markhanda, Deurwada - Brahmanwada Rd, Chincholi Bk., Maharashtra 444810",,"8PFC+PQ9, Deurwada - Brahmanwada Rd",Chincholi Bk.,444810,Maharashtra,IN,https://www.google.com/maps/place/Madina+Masjid+Markhanda/data=!4m7!3m6!1s0x3bd68915b46952c9:0x2fd60abc186b4c39!8m2!3d21.3242773!4d77.7219894!16s%2Fg%2F11shj113bb!19sChIJyVJptBWJ1jsROUxrGLwK1i8?authuser=0&hl=en&rclk=1,"21.3242773,77.7219894"
Jumma Masjid,Mosque,"F928+28M Jumma Masjid, Ring Rd, Chincholi B, Maharashtra 413511",,"F928+28M, Ring Rd",Chincholi B,413511,Maharashtra,IN,https://www.google.com/maps/place/Jumma+Masjid/data=!4m7!3m6!1s0x3bc57da0af748773:0xb88742cf1293507f!8m2!3d18.4500874!4d76.3657985!16s%2Fg%2F11hyd3pc5s!19sChIJc4d0r6B9xTsRf1CTEs9Ch7g?authuser=0&hl=en&rclk=1,"18.450087399999997,76.3657985"
MASJID E Jabbar,Mosque,"FC2C+JXC MASJID E Jabbar, Karnataka 585307",,FC2C+JXC,,585307,Karnataka,IN,https://www.google.com/maps/place/MASJID+E+Jabbar/data=!4m7!3m6!1s0x3bc93b43f72ad75f:0x801499b47755e15a!8m2!3d17.4515707!4d77.422403!16s%2Fg%2F11n0dg9qmm!19sChIJX9cq90M7yTsRWuFVd7SZFIA?authuser=0&hl=en&rclk=1,"17.451570699999998,77.422403"
Jama Masjid,Mosque,"99P9+GQC Jama Masjid, Chincholi, Maharashtra 431147",,99P9+GQC,Chincholi,431147,Maharashtra,IN,https://www.google.com/maps/place/Jama+Masjid/data=!4m7!3m6!1s0x3bdbde6df13b1325:0xfd4238e4791bbb79!8m2!3d20.3863028!4d75.3693775!16s%2Fg%2F11f53mm80m!19sChIJJRM78W3e2zsRebsbeeQ4Qv0?authuser=0&hl=en&rclk=1,"20.3863028,75.3693775"
Masjid (msjid) Jhantli,Mosque,"J329+XF6 Masjid (msjid) Jhantli, Chhajoo Khera, Rajasthan 321024",,J329+XF6,Chhajoo Khera,321024,Rajasthan,IN,https://www.google.com/maps/place/Masjid+%28%E0%A4%AE%E0%A4%B8%E0%A5%8D%E0%A4%9C%E0%A4%BF%E0%A4%A6%29+Jhantli/data=!4m7!3m6!1s0x3972e7b5b4493125:0xd004474e189d964b!8m2!3d27.6024044!4d77.0686285!16s%2Fg%2F11k5hxstl3!19sChIJJTFJtLXncjkRS5adGE5HBNA?authuser=0&hl=en&rclk=1,"27.602404399999998,77.0686285"
Jamia masjid,Museum,"Jamia masjid, Chincholi, Khatak Chincholi, Karnataka 585328",,Chincholi,Khatak Chincholi,585328,Karnataka,IN,https://www.google.com/maps/place/Jamia+masjid/data=!4m7!3m6!1s0x3bced947225d6a39:0xac502e64e2f352e4!8m2!3d17.8993238!4d77.205492!16s%2Fg%2F11gm86vcxl!19sChIJOWpdIkfZzjsR5FLz4mQuUKw?authuser=0&hl=en&rclk=1,"17.899323799999998,77.20549199999999"
Jama Masjid,Mosque,"RGJ5+48H Jama Masjid, Chincholi Bhuyar, Maharashtra",,"RGJ5+48H, Jama Masjid",Chincholi Bhuyar,,Maharashtra,IN,https://www.google.com/maps/place/Jama+Masjid/data=!4m7!3m6!1s0x3bcf591955555555:0xea0fbfc8326aa34f!8m2!3d17.8303027!4d76.5083562!16s%2Fg%2F11f0_cmfxp!19sChIJVVVVVRlZzzsRT6NqMsi_D-o?authuser=0&hl=en&rclk=1,"17.8303027,76.5083562"
"khudaa numaa huseen drgaa, ciNcoolli ( KHUDA NUMA HUSSAINI DARGAH, CHINCHOLI)",Mosque,"khudaa numaa huseen drgaa, ciNcoolli ( KHUDA NUMA HUSSAINI DARGAH, CHINCHOLI), Badi dargah, Mogha, Chincholi, Karnataka 585307",Mogha,Badi dargah,Chincholi,,Karnataka,IN,"https://www.google.com/maps/place/%E0%B2%96%E0%B3%81%E0%B2%A6%E0%B2%BE+%E0%B2%A8%E0%B3%81%E0%B2%AE%E0%B2%BE+%E0%B2%B9%E0%B3%81%E0%B2%B8%E0%B3%87%E0%B2%A8%E0%B3%8D+%E0%B2%A6%E0%B2%B0%E0%B3%8D%E0%B2%97%E0%B2%BE,+%E0%B2%9A%E0%B2%BF%E0%B2%82%E0%B2%9A%E0%B3%8B%E0%B2%B3%E0%B2%BF+%28+KHUDA+NUMA+HUSSAINI+DARGAH,+CHINCHOLI%29/data=!4m7!3m6!1s0x3bc931b15fca50fb:0x9d01fd67aa886c0e!8m2!3d17.4684236!4d77.4201738!16s%2Fg%2F11q26vq9kh!19sChIJ-1DKX7ExyTsRDmyIqmf9AZ0?authuser=0&hl=en&rclk=1","17.468423599999998,77.4201738"
MASJID E BILAL,Mosque,"CCCJ+VW9 MASJID E BILAL, Polakapally, Karnataka 585305",,CCCJ+VW9,Polakapally,585305,Karnataka,IN,https://www.google.com/maps/place/MASJID+E+BILAL/data=!4m7!3m6!1s0x3bc93b15967fb845:0x5ad73c12a6063cfe!8m2!3d17.4221707!4d77.4323622!16s%2Fg%2F11h5662p3b!19sChIJRbh_lhU7yTsR_jwGphI811o?authuser=0&hl=en&rclk=1,"17.4221707,77.4323622"
Al Hamid Jama Masjid,Pharmacy,"CWVP+XQW Al Hamid Jama Masjid, Chincholi, Maharashtra 413008",,CWVP+XQW,Chincholi,,Maharashtra,IN,https://www.google.com/maps/place/Al+Hamid+Jama+Masjid/data=!4m7!3m6!1s0x3bc6715e2b6282f3:0xa7357f6f7b11412a!8m2!3d17.4449909!4d75.9369611!16s%2Fg%2F11gslyx40z!19sChIJ84JiK15xxjsRKkERe29_Nac?authuser=0&hl=en&rclk=1,"17.4449909,75.93696109999999"
"Shri Vishwakarma Temple, Chincholi (Kashid)",Hindu temple,"4VJ6+97J Shri Vishwakarma Temple, Chincholi (Kashid), Chincholi, Maharashtra 410509",,4VJ6+97J,Chincholi,410509,Maharashtra,IN,"https://www.google.com/maps/place/Shri+Vishwakarma+Temple,+Chincholi+%28Kashid%29/data=!4m7!3m6!1s0x3bdd3f2d557b77dd:0xe6b83573e865f31!8m2!3d19.130957!4d73.860652!16s%2Fg%2F11fb0t54_w!19sChIJ3Xd7VS0_3TsRMV-GPleDaw4?authuser=0&hl=en&rclk=1","19.130957,73.860652"
Mosque,Mosque,"F5WM+8X7 Mosque, Rajpur Khurd Village, Chhatarpur, New Delhi, Delhi 110074","Rajpur Khurd Village, Chhatarpur",F5WM+8X7,New Delhi,110074,Delhi,IN,https://www.google.com/maps/place/Mosque/data=!4m7!3m6!1s0x390d1fc4fdfb9307:0xe4e5c8d1b6e763b5!8m2!3d28.4957943!4d77.1849127!16s%2Fg%2F11s4t7kwt7!19sChIJB5P7_cQfDTkRtWPnttHI5eQ?authuser=0&hl=en&rclk=1,"28.4957943,77.1849127"
Nurani masjid,Mosque,"8PMH+QHJ Nurani masjid, Chincholi Bk., Gaurkheda, Maharashtra 444720",,8PMH+QHJ,"Chincholi Bk., Gaurkheda",444720,Maharashtra,IN,https://www.google.com/maps/place/Nurani+masjid/data=!4m7!3m6!1s0x3bd689886e371fff:0xf4324c3363b32dcc!8m2!3d21.3344722!4d77.7288964!16s%2Fg%2F11r_g303gc!19sChIJ_x83boiJ1jsRzC2zYzNMMvQ?authuser=0&hl=en&rclk=1,"21.3344722,77.7288964"
Jama Masjid,Mosque,"QWC5+8J2 Jama Masjid, Chincholi Ramjan, Maharashtra 414401",,QWC5+8J2,Chincholi Ramjan,414401,Maharashtra,IN,https://www.google.com/maps/place/Jama+Masjid/data=!4m7!3m6!1s0x3bc357e59534f501:0x85a2611b4b449c7d!8m2!3d18.7707578!4d74.9090289!16s%2Fg%2F11qrzp7dvl!19sChIJAfU0leVXwzsRfZxESxthooU?authuser=0&hl=en&rclk=1,"18.7707578,74.9090289"
mohrm masjid,Mosque,"H32V+PW2 mohrm masjid, Halchincholi, Maharashtra 413228",,H32V+PW2,Halchincholi,413228,Maharashtra,IN,https://www.google.com/maps/place/%E0%A4%AE%E0%A5%8B%E0%A4%B9%E0%A4%B0%E0%A4%AE+masjid/data=!4m7!3m6!1s0x3bc60b107353f887:0x22db3e069afee152!8m2!3d17.5513328!4d76.0949306!16s%2Fg%2F11tnhg38wq!19sChIJh_hTcxALxjsRUuH-mgY-2yI?authuser=0&hl=en&rclk=1,"17.5513328,76.0949306"
Chhoti Wali Masjid,Mosque,"Chhoti Wali Masjid, F343, Chatri Wala Kuan, Lado Sarai, New Delhi, Delhi 110030","Chatri Wala Kuan, Lado Sarai",F343,New Delhi,110030,Delhi,IN,https://www.google.com/maps/place/Chhoti+Wali+Masjid/data=!4m7!3m6!1s0x390d1f8593b03f93:0x977868c6b3773a2d!8m2!3d28.5240275!4d77.1905348!16s%2Fg%2F11gxmv00y3!19sChIJkz-wk4UfDTkRLTp3s8ZoeJc?authuser=0&hl=en&rclk=1,"28.5240275,77.1905348"
Gulshan-e-Sufiya Masjid,Mosque,"VWX6+QHX Gulshan-e-Sufiya Masjid, Chincholi Rd, Chincholi, Maharashtra 422102",,"VWX6+QHX, Chincholi Rd",Chincholi,422102,Maharashtra,IN,https://www.google.com/maps/place/Gulshan-e-Sufiya+Masjid/data=!4m7!3m6!1s0x3bddbfd3977d0c51:0xe6fb325a44493fa3!8m2!3d19.8994888!4d73.9114938!16s%2Fg%2F11l2bzwjpt!19sChIJUQx9l9O_3TsRoz9JRFoy--Y?authuser=0&hl=en&rclk=1,"19.8994888,73.9114938"
Chhoti Masjid,Mosque,"Q72P+8WH Chhoti Masjid, Loni Dehat, Uttar Pradesh 201102",Loni Dehat,Q72P+8WH,,201102,Uttar Pradesh,IN,https://www.google.com/maps/place/Chhoti+Masjid/data=!4m7!3m6!1s0x390cf9929b34a875:0xca73b276a7900c9a!8m2!3d28.7508114!4d77.2873615!16s%2Fg%2F11q99jpw26!19sChIJdag0m5L5DDkRmgyQp3ayc8o?authuser=0&hl=en&rclk=1,"28.7508114,77.2873615"
Madina Masjid Kaloni wali Ladhiyapur,Mosque,"76WG+352 Madina Masjid Kaloni wali Ladhiyapur, Auli, Haryana 121004",,76WG+352,Auli,121004,Haryana,IN,https://www.google.com/maps/place/Madina+Masjid+Kaloni+wali+Ladhiyapur/data=!4m7!3m6!1s0x390cd911efad443f:0x2323d5b7abf2b54f!8m2!3d28.2951464!4d77.2253888!16s%2Fg%2F11spm6sdwd!19sChIJP0St7xHZDDkRT7Xyq7fVIyM?authuser=0&hl=en&rclk=1,"28.2951464,77.22538879999999"
"Jamia Masjid,Syed Chincholi",Mosque,"Jamia Masjid,Syed Chincholi, road, Syed Chincholi, Karnataka 585104",,road,Syed Chincholi,585104,Karnataka,IN,"https://www.google.com/maps/place/Jamia+Masjid,Syed+Chincholi/data=!4m7!3m6!1s0x3bc8b9c66e3c3f7f:0xff5c96d673d801ef!8m2!3d17.4078658!4d76.7988805!16s%2Fg%2F11n2tcbr8r!19sChIJfz88bsa5yDsR7wHYc9aWXP8?authuser=0&hl=en&rclk=1","17.4078658,76.7988805"
Masjid E Aksa,Mosque,"C9QH+W2X Masjid E Aksa, Yeli, Rd, Chincholi Ballalnath, Maharashtra 413511",,"C9QH+W2X, Yeli, Rd",Chincholi Ballalnath,413511,Maharashtra,IN,https://www.google.com/maps/place/Masjid+E+Aksa/data=!4m7!3m6!1s0x3bc57db9e4d4aad5:0xb1f49c4eeba32de!8m2!3d18.4398604!4d76.3776126!16s%2Fg%2F11s0jlwd8t!19sChIJ1arU5Ll9xTsR3jK67sRJHws?authuser=0&hl=en&rclk=1,"18.4398604,76.37761259999999"
Masjid,Mosque,"QR44+3P4 Masjid, Unnamed Road, Chincholikati, Maharashtra 413255",,"QR44+3P4, Unnamed Road",Chincholikati,413255,Maharashtra,IN,https://www.google.com/maps/place/Masjid/data=!4m7!3m6!1s0x3bc5cd186644cc4b:0xcf63ed14a5c6b5f7!8m2!3d17.7551478!4d75.8068177!16s%2Fg%2F11pg688fcg!19sChIJS8xEZhjNxTsR97XGpRTtY88?authuser=0&hl=en&rclk=1,"17.7551478,75.8068177"
Madina Masjid Khatak Chincholi,Place of worship,"V6W3+6MH Madina Masjid Khatak Chincholi, Khatak Chincholi, Karnataka 585328",,V6W3+6MH,Khatak Chincholi,585328,Karnataka,IN,https://www.google.com/maps/place/Madina+Masjid+Khatak+Chincholi/data=!4m7!3m6!1s0x3bced924c3e843c1:0xb38d7f4e17669cd3!8m2!3d17.895566!4d77.204244!16s%2Fg%2F11fp943nj3!19sChIJwUPowyTZzjsR05xmF05_jbM?authuser=0&hl=en&rclk=1,"17.895566,77.204244"
Mdina Masjid,Mosque,"C9QG+HQF Mdina Masjid, Chimmaidlai, Karnataka 585307",,C9QG+HQF,Chimmaidlai,,Karnataka,IN,https://www.google.com/maps/place/Mdina+Masjid/data=!4m7!3m6!1s0x3bc9258a73da2aef:0x391b9b5bc9e5c2f6!8m2!3d17.438928!4d77.3769256!16s%2Fg%2F11rk228jrv!19sChIJ7yrac4olyTsR9sLlyVubGzk?authuser=0&hl=en&rclk=1,"17.438928,77.37692559999999"
Masgid Malad Station west,Mosque,"Masgid Malad Station west, 49/19, Shop No1, Ismail Baug, Anand Road, Near Malad Shopping Center, Malad, Vijaykar Wadi Industrial, Vijaykar Wadi, Malad West, Mumbai, Maharashtra 400064","Malad, Vijaykar Wadi Industrial, Vijaykar Wadi, Malad West","49/19, Shop No1, Ismail Baug, Anand Road, Near Malad Shopping Center",Mumbai,400064,Maharashtra,IN,https://www.google.com/maps/place/Masgid+Malad+Station+west/data=!4m7!3m6!1s0x3be7b7cb5766a133:0xb4adcfd00232d7df!8m2!3d19.1852778!4d72.8479882!16s%2Fg%2F11fsmjt560!19sChIJM6FmV8u35zsR39cyAtDPrbQ?authuser=0&hl=en&rclk=1,"19.185277799999998,72.8479882"
JAMA MASJID,Mosque,"J324+P2J JAMA MASJID, Chinoholi, Maharashtra 413228",,J324+P2J,Chinoholi,413228,Maharashtra,IN,https://www.google.com/maps/place/JAMA+MASJID/data=!4m7!3m6!1s0x3bc5df02f692efcb:0x9bd5950c29f607bb!8m2!3d17.6018336!4d76.0550253!16s%2Fg%2F11rp9nvjx4!19sChIJy--S9gLfxTsRuwf2KQyV1Zs?authuser=0&hl=en&rclk=1,"17.6018336,76.0550253"
Sufiya Masjid,Mosque,"8FWC+7WP Sufiya Masjid, Chincholirao Wadi, Maharashtra 413531",,8FWC+7WP,Chincholirao Wadi,413531,Maharashtra,IN,https://www.google.com/maps/place/Sufiya+Masjid/data=!4m7!3m6!1s0x3bcf81bfe048571f:0x964a3143c47e1686!8m2!3d18.3457141!4d76.4723311!16s%2Fg%2F11h4gq8ksd!19sChIJH1dI4L-BzzsRhhZ-xEMxSpY?authuser=0&hl=en&rclk=1,"18.3457141,76.47233109999999"
Jamia Masjid,Mosque,"FJCR+M9H Jamia Masjid, Purga Village, Ladchincholi, Karnataka 585311",Purga Village,FJCR+M9H,Ladchincholi,585311,Karnataka,IN,https://www.google.com/maps/place/Jamia+Masjid/data=!4m7!3m6!1s0x3bc8af4f1186a005:0x3dd03424fa6014cd!8m2!3d17.4716824!4d76.6409743!16s%2Fg%2F11flbrdczc!19sChIJBaCGEU-vyDsRzRRg-iQ00D0?authuser=0&hl=en&rclk=1,"17.4716824,76.6409743"
