name,main_category,address,address_ward,address_street,address_city,address_postal_code,address_state,address_country_code,link,coordinates
Jama Masjid,Mosque,"Jama Masjid, Old Delhi, Delhi, 110006","Jama Masjid, Old Delhi",,Delhi,110006,Delhi,IN,https://www.google.com/maps/place/Jama+Masjid/data=!4m7!3m6!1s0x390cfd18df89b215:0xdd57369e29bf9d96!8m2!3d28.6506792!4d77.2334421!16zL20vMDR5emo1!19sChIJFbKJ3xj9DDkRlp2_KZ42V90?authuser=0&hl=en&rclk=1,"28.6506792,77.23344209999999"
Madina Masjid mdynh msjd,Mosque,"Madina Masjid mdynh msjd, Mandir, Masjid Wali Gali, Nithari, Nithari Village, Sector 31, Noida, Uttar Pradesh 201301","Nithari, Nithari Village, Sector 31","Mandir, Masjid Wali Gali",Noida,201301,Uttar Pradesh,IN,https://www.google.com/maps/place/Madina+Masjid+%D9%85%D8%AF%DB%8C%D9%86%DB%81+%D9%85%D8%B3%D8%AC%D8%AF%E2%80%AD/data=!4m7!3m6!1s0x390ce5baef7b30a1:0x52759aa50f772677!8m2!3d28.5764906!4d77.3462343!16s%2Fg%2F1ptw_nrr_!19sChIJoTB777rlDDkRdyZ3D6WadVI?authuser=0&hl=en&rclk=1,"28.5764906,77.34623429999999"
Masjid Shahab,Mosque,"H78P+VWV Masjid Shahab, Jamia, Batla House, Jamia Nagar, Okhla, New Delhi, Delhi 110025","Jamia, Batla House, Jamia Nagar, Okhla",H78P+VWV,New Delhi,110025,Delhi,IN,https://www.google.com/maps/place/Masjid+Shahab/data=!4m7!3m6!1s0x390ce4760f556f8d:0xc0285f5f2f62012c!8m2!3d28.5672496!4d77.2873032!16s%2Fg%2F1hhm006pz!19sChIJjW9VD3bkDDkRLAFiL19fKMA?authuser=0&hl=en&rclk=1,"28.5672496,77.2873032"
Jama Masjid (Shaheen Bagh),Mosque,"Jama Masjid (Shaheen Bagh), 12, Kalindi Kunj Rd, Block B, Jamia Nagar, Jasola, New Delhi, Delhi 110025","Block B, Jamia Nagar, Jasola","12, Kalindi Kunj Rd",New Delhi,110025,Delhi,IN,https://www.google.com/maps/place/Jama+Masjid+%28Shaheen+Bagh%29/data=!4m7!3m6!1s0x390ce41a3d9d581b:0xc7b0e62465b11de9!8m2!3d28.5496905!4d77.3028252!16s%2Fg%2F11g7p2t2hd!19sChIJG1idPRrkDDkR6R2xZSTmsMc?authuser=0&hl=en&rclk=1,"28.549690499999997,77.3028252"
Sabz Masjid,Mosque,"Sabz Masjid, 3571, Lalkuan Bazar Rd, Bazar Sirkiwalan, Lal Kuan Bazar, Chandni Chowk, Delhi, 110006","Bazar Sirkiwalan, Lal Kuan Bazar, Chandni Chowk","3571, Lalkuan Bazar Rd",Delhi,110006,Delhi,IN,https://www.google.com/maps/place/Sabz+Masjid/data=!4m7!3m6!1s0x390cfd16a94877a7:0x7b35bb653cd42e20!8m2!3d28.652163!4d77.223599!16s%2Fm%2F04q247t!19sChIJp3dIqRb9DDkRIC7UPGW7NXs?authuser=0&hl=en&rclk=1,"28.652162999999998,77.223599"
Masjid Umar,Mosque,"Masjid Umar, H Block, Abul Fazal Enclave, Jamia Nagar, Okhla, New Delhi, Delhi 110025","Abul Fazal Enclave, Jamia Nagar, Okhla",H Block,New Delhi,110025,Delhi,IN,https://www.google.com/maps/place/Masjid+Umar/data=!4m7!3m6!1s0x390ce40e52efde7f:0x5e0487c814d4c357!8m2!3d28.5535005!4d77.2956955!16s%2Fg%2F11b6snzn79!19sChIJf97vUg7kDDkRV8PUFMiHBF4?authuser=0&hl=en&rclk=1,"28.5535005,77.2956955"
Masjid and Madarsa,Mosque,"H78P+G28 Masjid and Madarsa, Jamia, Batla House, Jamia Nagar, Okhla, New Delhi, Delhi 110025","Jamia, Batla House, Jamia Nagar, Okhla",H78P+G28,New Delhi,110025,Delhi,IN,https://www.google.com/maps/place/Masjid+and+Madarsa/data=!4m7!3m6!1s0x390ce38a18a5d97f:0xdcfc61f3d0f88168!8m2!3d28.5662905!4d77.2850829!16s%2Fg%2F1hg4wfd46!19sChIJf9mlGIrjDDkRaIH40PNh_Nw?authuser=0&hl=en&rclk=1,"28.566290499999997,77.28508289999999"
Noorani Masjid,Mosque,"Noorani Masjid, A-27D, A Block, Sector 16, Noida, Uttar Pradesh 201301","A Block, Sector 16",A-27D,Noida,201301,Uttar Pradesh,IN,https://www.google.com/maps/place/Noorani+Masjid/data=!4m7!3m6!1s0x390ce45cf8cffc77:0x90d071db697bf979!8m2!3d28.5777983!4d77.3127416!16s%2Fg%2F11byyq5613!19sChIJd_zP-FzkDDkRefl7adtx0JA?authuser=0&hl=en&rclk=1,"28.577798299999998,77.3127416"
Jama Masjid Sita Puri jm` msjd syt pwry,Mosque,"Jama Masjid Sita Puri jm` msjd syt pwry, Block C, Sitapuri Part 1, Janakpuri, New Delhi, Delhi, 110046","Block C, Sitapuri Part 1, Janakpuri",,"New Delhi, Delhi",110046,Delhi,IN,https://www.google.com/maps/place/Jama+Masjid+Sita+Puri+%D8%AC%D8%A7%D9%85%D8%B9+%D9%85%D8%B3%D8%AC%D8%AF+%D8%B3%DB%8C%D8%AA%D8%A7+%D9%BE%D9%88%D8%B1%DB%8C%E2%80%AD/data=!4m7!3m6!1s0x390d04b5a6724e95:0x3f9fe7759d00bc15!8m2!3d28.6135769!4d77.081544!16s%2Fg%2F11g6jt7ncl!19sChIJlU5yprUEDTkRFbwAnXXnnz8?authuser=0&hl=en&rclk=1,"28.613576899999998,77.081544"
Masjid Hayat Madarsa Sahabia,Mosque,"F7XW+9R3 Masjid Hayat Madarsa Sahabia, Mehrauli - Badarpur Rd, Mittal Colony, Block RZ H, Pul Pehlad Pur, New Delhi, Faridabad, Delhi 110044","Mittal Colony, Block RZ H, Pul Pehlad Pur","F7XW+9R3, Mehrauli - Badarpur Rd","New Delhi, Faridabad",110044,Delhi,IN,https://www.google.com/maps/place/Masjid+Hayat+Madarsa+Sahabia/data=!4m7!3m6!1s0x390ce6d74f08cf85:0xcf35c38ec0e866ca!8m2!3d28.4983917!4d77.2970623!16s%2Fg%2F12hkbl23n!19sChIJhc8IT9fmDDkRymbowI7DNc8?authuser=0&hl=en&rclk=1,"28.4983917,77.2970623"
Masjid Umar,Mosque,"Masjid Umar, Noida-Greater Noida Expy, Raipur Khadar, Sector 126, near Akansha Stationary Store, Noida, Uttar Pradesh 201313","Raipur Khadar, Sector 126","Noida-Greater Noida Expy, Raipur Khadar, Sector 126, near Akansha Stationary Store",Noida,201313,Uttar Pradesh,IN,https://www.google.com/maps/place/Masjid+Umar/data=!4m7!3m6!1s0x390ce678bd924cf9:0x4ecd946c6faa6ec6!8m2!3d28.5423387!4d77.3395738!16s%2Fg%2F11bxk9qkr9!19sChIJ-UySvXjmDDkRxm6qb2yUzU4?authuser=0&hl=en&rclk=1,"28.5423387,77.3395738"
Masjid,Mosque,"JC7Q+GGJ Masjid, Ghaziabad, Uttar Pradesh 201009",,JC7Q+GGJ,Ghaziabad,,Uttar Pradesh,IN,https://www.google.com/maps/place/Masjid/data=!4m7!3m6!1s0x390cee444b66a28b:0x5f246c4f99522d9!8m2!3d28.6138471!4d77.4387528!16s%2Fg%2F11d_b_dyp8!19sChIJi6JmS0TuDDkR2SKV-cRG8gU?authuser=0&hl=en&rclk=1,"28.613847099999997,77.4387528"
Noori Masjid,Mosque,"Noori Masjid, M-20/96, Block B, Dabri Extension East, Dabri, New Delhi, Delhi, 110046","Block B, Dabri Extension East, Dabri",M-20/96,"New Delhi, Delhi",110046,Delhi,IN,https://www.google.com/maps/place/Noori+Masjid/data=!4m7!3m6!1s0x390d1b4e00048bc3:0xe0fa34299d2b42d8!8m2!3d28.6055137!4d77.0908015!16s%2Fg%2F11c5xczp9s!19sChIJw4sEAE4bDTkR2EIrnSk0-uA?authuser=0&hl=en&rclk=1,"28.6055137,77.0908015"
Ilahi Masjid,Mosque,"J8HW+HR5 Ilahi Masjid, Makanpur Colony, Sector 62A, Noida, Uttar Pradesh 201010","Makanpur Colony, Sector 62A",J8HW+HR5,Noida,201010,Uttar Pradesh,IN,https://www.google.com/maps/place/Ilahi+Masjid/data=!4m7!3m6!1s0x390ce53170e3bd5d:0xfbf82c09cfa6d3aa!8m2!3d28.6288947!4d77.3471098!16s%2Fg%2F11d_7y8d1z!19sChIJXb3jcDHlDDkRqtOmzwks-Ps?authuser=0&hl=en&rclk=1,"28.6288947,77.3471098"
JAMA Masjid Pathan Mohalla,Mosque,"7MHR+P8C JAMA Masjid Pathan Mohalla, Soro, Odisha 756045",,7MHR+P8C,Soro,756045,Odisha,IN,https://www.google.com/maps/place/JAMA+Masjid+Pathan+Mohalla/data=!4m7!3m6!1s0x3a1c6e463236d681:0x20f44f756150bf21!8m2!3d21.2793208!4d86.6907804!16s%2Fg%2F11ckvllvkv!19sChIJgdY2MkZuHDoRIb9QYXVP9CA?authuser=0&hl=en&rclk=1,"21.2793208,86.6907804"
Jama Masjid (Batla House),Mosque,"H, Jama Masjid (Batla House), 334, 7, Street Number 6, Batla House, Okhla, New Delhi, Delhi 110025","Jamia, Batla House, Jamia Nagar, Okhla","H, 334, 7, Street Number 6",New Delhi,110025,Delhi,IN,https://www.google.com/maps/place/Jama+Masjid+%28Batla+House%29/data=!4m7!3m6!1s0x390ce3207d46fe8f:0xe6bf4d1a3f6d4108!8m2!3d28.5661636!4d77.2851632!16s%2Fg%2F11llyqcllh!19sChIJj_5GfSDjDDkRCEFtPxpNv-Y?authuser=0&hl=en&rclk=1,"28.5661636,77.2851632"
Gaosieya Jama Masjid,Mosque,"Gaosieya Jama Masjid, 9, Block C, Madhu Vihar, Delhi, 110059","Block C, Block D, Madhu Vihar",9,Delhi,110059,Delhi,IN,https://www.google.com/maps/place/Gaosieya+Jama+Masjid/data=!4m7!3m6!1s0x390d1b2e6b01c6f9:0x4a2448fa4f9cbcb!8m2!3d28.6018899!4d77.0663549!16s%2Fg%2F11f15j2zfy!19sChIJ-cYBay4bDTkRy8v5pI9EogQ?authuser=0&hl=en&rclk=1,"28.6018899,77.0663549"
Alivardipur Masjid,Mosque,"GCPQ+55R Alivardipur Masjid, Kulesara, Noida, Greater Noida, Uttar Pradesh 201306",Kulesara,GCPQ+55R,"Noida, Greater Noida",201306,Uttar Pradesh,IN,https://www.google.com/maps/place/Alivardipur+Masjid/data=!4m7!3m6!1s0x390ce93b63454b07:0x55a00fd129bd3d7!8m2!3d28.5354898!4d77.4378761!16s%2Fg%2F11f15dmk8s!19sChIJB0tFYzvpDDkR19ObEv0AWgU?authuser=0&hl=en&rclk=1,"28.535489799999997,77.4378761"
Masjid Dhobiyan,Mosque,"Masjid Dhobiyan, 3280, Delhi Gate Bazar, Kucha Alam, Old Dariya Ganj, New Delhi, Delhi 110002","Chatta lal Miya, Chandni Mahal, Old Delhi","3280, Delhi Gate Bazar, Kucha Alam, Old Dariya Ganj","New Delhi, Delhi",110002,Delhi,IN,https://www.google.com/maps/place/Masjid+Dhobiyan/data=!4m7!3m6!1s0x390cfd273340d127:0x7d6d2edf4a35f8d9!8m2!3d28.6425263!4d77.2386389!16s%2Fg%2F11cs5s2vzb!19sChIJJ9FAMyf9DDkR2fg1St8ubX0?authuser=0&hl=en&rclk=1,"28.6425263,77.2386389"
Jama Masjid - jm` msjd Sdr bzr,Mosque,"H4WC+5PW Jama Masjid - jm` msjd Sdr bzr, Sadar Bazaar, Delhi Cantonment, New Delhi, Delhi 110010","Sadar Bazaar, Delhi Cantonment",H4WC+5PW,New Delhi,110010,Delhi,IN,https://www.google.com/maps/place/Jama+Masjid+-+%D8%AC%D8%A7%D9%85%D8%B9+%D9%85%D8%B3%D8%AC%D8%AF+%D8%B5%D8%AF%D8%B1+%D8%A8%D8%A7%D8%B2%D8%A7%D8%B1%E2%80%AD/data=!4m7!3m6!1s0x390d1d4bd3683751:0x327e46a4679ef84b!8m2!3d28.5954841!4d77.1218315!16s%2Fg%2F11ghpzn7cd!19sChIJUTdo00sdDTkRS_ieZ6RGfjI?authuser=0&hl=en&rclk=1,"28.5954841,77.1218315"
Nurani Masjid,Mosque,"G87P+9FG Nurani Masjid, Shamshul Marg, Jaitpur Extension Part II, Khadda Colony, Badarpur, New Delhi, Delhi 110044","Jaitpur Extension Part II, Khadda Colony, Badarpur","G87P+9FG, Shamshul Marg",New Delhi,110044,Delhi,IN,https://www.google.com/maps/place/Nurani+Masjid/data=!4m7!3m6!1s0x390ce65930824353:0xc2da84d501d29ac9!8m2!3d28.5134438!4d77.3362129!16s%2Fg%2F11bv1cg3ng!19sChIJU0OCMFnmDDkRyZrSAdWE2sI?authuser=0&hl=en&rclk=1,"28.513443799999997,77.33621289999999"
Mosque,Mosque,"M747+V64 Mosque, Pushta Rd, Multani Mohalla, Gandhi Nagar, Shahdara, New Delhi, Delhi, 110031","Multani Mohalla, Gandhi Nagar, Shahdara","M747+V64, Pushta Rd","New Delhi, Delhi",110031,Delhi,IN,https://www.google.com/maps/place/Mosque/data=!4m7!3m6!1s0x390cfcecc3c3a38d:0x1e72f8e84718020c!8m2!3d28.6571357!4d77.2630907!16s%2Fg%2F1jkvzp3j_!19sChIJjaPDw-z8DDkRDAIYR-j4ch4?authuser=0&hl=en&rclk=1,"28.657135699999998,77.26309069999999"
Jama Masjid,Mosque,"7MGQ+878 Jama Masjid, Kaji Mohalla, Soro, Odisha 756045",Kaji Mohalla,7MGQ+878,Soro,,Odisha,IN,https://www.google.com/maps/place/Jama+Masjid/data=!4m7!3m6!1s0x3a1c6e38823c1a71:0x962ed3fdc6c0a875!8m2!3d21.2757989!4d86.6881887!16s%2Fg%2F11c2pk638q!19sChIJcRo8gjhuHDoRdajAxv3TLpY?authuser=0&hl=en&rclk=1,"21.275798899999998,86.6881887"
Masjid & Dargah Sabri,Mosque,"Masjid & Dargah Sabri, 5051 Masjid dargah sabri, Netaji Subhash Marg, near khalsa girls school, Daryaganj, New Delhi, Delhi 110002",Daryaganj,"5051 Masjid dargah sabri, Netaji Subhash Marg, near khalsa girls school","New Delhi, Delhi",110002,Delhi,IN,https://www.google.com/maps/place/Masjid+%26+Dargah+Sabri/data=!4m7!3m6!1s0x390cfcdf8988bac1:0x44d5f1f4e4bb33b1!8m2!3d28.6467942!4d77.2405412!16s%2Fg%2F11d_8rr1kj!19sChIJwbqIid_8DDkRsTO75PTx1UQ?authuser=0&hl=en&rclk=1,"28.6467942,77.2405412"
Jama Masjid,Mosque,"Jama Masjid, F-132, Kalindi Kunj Rd, Abul Fazal Enclave Part 1, Part 1 Abul Fazal Enclave, Block C, Jamia Nagar, Okhla, New Delhi, Delhi 110025","Abul Fazal Enclave Part 1, Part 1 Abul Fazal Enclave, Block C, Jamia Nagar, Okhla","F-132, Kalindi Kunj Rd",New Delhi,110025,Delhi,IN,https://www.google.com/maps/place/Jama+Masjid/data=!4m7!3m6!1s0x390ce474fc283e6d:0xbf47a3d3e25a4cad!8m2!3d28.560132!4d77.294788!16s%2Fg%2F12hkzr6p1!19sChIJbT4o_HTkDDkRrUxa4tOjR78?authuser=0&hl=en&rclk=1,"28.560132,77.294788"
bengali masjid,Mosque,"H764+VVX bengali masjid, Captain Gaur Marg, B Block, Sri Niwaspuri, New Delhi, Delhi 110065","B Block, Sri Niwaspuri","H764+VVX, Captain Gaur Marg",New Delhi,110065,Delhi,IN,https://www.google.com/maps/place/bengali+masjid/data=!4m7!3m6!1s0x390ce3b939444715:0x2a65d4354b4231cf!8m2!3d28.5622322!4d77.257234!16s%2Fg%2F11f24v_2cr!19sChIJFUdEObnjDDkRzzFCSzXUZSo?authuser=0&hl=en&rclk=1,"28.5622322,77.257234"
Mosque,Mosque,"HCW7+XVV Mosque, Ambedkar City, Noida, Uttar Pradesh",Ambedkar City,HCW7+XVV,Noida,,Uttar Pradesh,IN,https://www.google.com/maps/place/Mosque/data=!4m7!3m6!1s0x390cefa838c87725:0x3069da86101995cf!8m2!3d28.5974756!4d77.4146565!16s%2Fg%2F11f3jlykfr!19sChIJJXfIOKjvDDkRz5UZEIbaaTA?authuser=0&hl=en&rclk=1,"28.5974756,77.41465649999999"
Ata E Rasool Masjid,Mosque,"P744+V55 Ata E Rasool Masjid, Shriram Colony, Block A, Rajiv Nagar, Sonia Vihar, Delhi, 110094","Shriram Colony, Block A, Rajiv Nagar, Sonia Vihar",P744+V55,Delhi,110094,Delhi,IN,https://www.google.com/maps/place/Ata+E+Rasool+Masjid/data=!4m7!3m6!1s0x390cfc3b2d10341f:0xd365e06455e65096!8m2!3d28.7071349!4d77.2554772!16s%2Fg%2F11dxrw2d2x!19sChIJHzQQLTv8DDkRllDmVWTgZdM?authuser=0&hl=en&rclk=1,"28.7071349,77.2554772"
Masjid-e-Anjum,Mosque,"Masjid-e-Anjum, Indira Gandhi Camp Part 2, New Friends Colony, New Delhi, Delhi 110065","Block A, Taimoor Nagar, New Friends Colony","Indira Gandhi Camp Part 2, New Friends Colony",New Delhi,110065,Delhi,IN,https://www.google.com/maps/place/Masjid-e-Anjum/data=!4m7!3m6!1s0x390ce39a2cbe5dad:0x263099a5cc320902!8m2!3d28.573773!4d77.2696933!16s%2Fg%2F11ckkxbn_t!19sChIJrV2-LJrjDDkRAgkyzKWZMCY?authuser=0&hl=en&rclk=1,"28.573773,77.2696933"
Masjid Badi msjd,Mosque,"Masjid Badi msjd, 893,, Chittli Qabar Bazar Rd, Jama Masjid, Chandni Chowk, New Delhi, Delhi 110006","Bazar Chitli Qabar, Kucha Chelan, Jama Masjid, Chandni Chowk","893,, Chittli Qabar Bazar Rd","New Delhi, Delhi",110006,Delhi,IN,https://www.google.com/maps/place/Masjid+Badi+%D9%85%D8%B3%D8%AC%D8%AF%E2%80%AD/data=!4m7!3m6!1s0x390cfd219cfec1f3:0x93ccacb281d71709!8m2!3d28.645321!4d77.2357133!16s%2Fg%2F12m98gjn5!19sChIJ88H-nCH9DDkRCRfXgbKszJM?authuser=0&hl=en&rclk=1,"28.645321,77.2357133"
gosiiyaa msjid,Mosque,"gosiiyaa msjid, 02, New Delhi Main Rd, D Block, Madanpur Khadar, New Delhi, Delhi 110076, New Delhi Main Rd, D Block, Madanpur Khadar, New Delhi, Delhi 110076","D Block, Madanpur Khadar","02, New Delhi Main Rd, D Block, Madanpur Khadar, New Delhi, Delhi 110076, New Delhi Main Rd",New Delhi,110076,Delhi,IN,https://www.google.com/maps/place/%E0%A4%97%E0%A5%8B%E0%A4%B8%E0%A5%80%E0%A4%AF%E0%A4%BE+%E0%A4%AE%E0%A4%B8%E0%A5%8D%E0%A4%9C%E0%A4%BF%E0%A4%A6/data=!4m7!3m6!1s0x390ce69a677df04b:0x404fbe46be663e7f!8m2!3d28.5310436!4d77.317571!16s%2Fg%2F11g6rfnfc8!19sChIJS_B9Z5rmDDkRfz5mvka-T0A?authuser=0&hl=en&rclk=1,"28.5310436,77.317571"
jama masjid,Mosque,"VF7R+F4W jama masjid, Suhana, Uttar Pradesh 201204",,VF7R+F4W,Suhana,201204,Uttar Pradesh,IN,https://www.google.com/maps/place/jama+masjid/data=!4m7!3m6!1s0x390c5f3c53552991:0x9bab1942d67641ad!8m2!3d28.863737!4d77.490342!16s%2Fg%2F11f10g02zy!19sChIJkSlVUzxfDDkRrUF21kIZq5s?authuser=0&hl=en&rclk=1,"28.863737,77.490342"
Masjid,Mosque,"H769+P87 Masjid, Block A, Friends Colony East, New Friends Colony, New Delhi, Delhi 110025","Block A, Friends Colony East, New Friends Colony",H769+P87,New Delhi,110025,Delhi,IN,https://www.google.com/maps/place/Masjid/data=!4m7!3m6!1s0x390ce3a3874c1a6d:0x3777b5148e43553a!8m2!3d28.5617917!4d77.2683072!16s%2Fg%2F11grc87l61!19sChIJbRpMh6PjDDkROlVDjhS1dzc?authuser=0&hl=en&rclk=1,"28.561791699999997,77.2683072"
JAMA MASJID UMAR BIN KHATTAB,Mosque,"G8W3+XWV JAMA MASJID UMAR BIN KHATTAB, Kalindi Kunj Rd, Block H, Jamia Nagar, Okhla, New Delhi, Delhi 110025","Block H, Jamia Nagar, Okhla","G8W3+XWV, Kalindi Kunj Rd",New Delhi,110025,Delhi,IN,https://www.google.com/maps/place/JAMA+MASJID+UMAR+BIN+KHATTAB/data=!4m7!3m6!1s0x390ce51eb7ea0bfd:0xe968824c610cc265!8m2!3d28.5474867!4d77.3047909!16s%2Fg%2F11h7p6jtqd!19sChIJ_Qvqtx7lDDkRZcIMYUyCaOk?authuser=0&hl=en&rclk=1,"28.5474867,77.3047909"
Masjid Saifiyan,Mosque,"Masjid Saifiyan, Street Number 3, Block H, Block B, Shaheed Nagar, Ghaziabad, Uttar Pradesh 201005","Block H, Block B, Shaheed Nagar",Street Number 3,Ghaziabad,201005,Uttar Pradesh,IN,https://www.google.com/maps/place/Masjid+Saifiyan/data=!4m7!3m6!1s0x390cfb94f35c7b03:0xb4ee999e78196334!8m2!3d28.6844147!4d77.3375239!16s%2Fg%2F11g03_76zz!19sChIJA3tc85T7DDkRNGMZeJ6Z7rQ?authuser=0&hl=en&rclk=1,"28.684414699999998,77.3375239"
Shahabate Rasool Masjid,Mosque,"Q78F+QJG Shahabate Rasool Masjid, Loni, Azad Vihar, Khora Colony, Sector 62A, Noida, Uttar Pradesh","Azad Vihar, Khora Colony, Sector 62A","Q78F+QJG, Loni","Noida, Ghaziabad",,Uttar Pradesh,IN,https://www.google.com/maps/place/Shahabate+Rasool+Masjid/data=!4m7!3m6!1s0x390cff27f74f9b03:0xd609160ed60edb1c!8m2!3d28.7669479!4d77.2740907!16s%2Fg%2F11f1jwz7lz!19sChIJA5tP9yf_DDkRHNsO1g4WCdY?authuser=0&hl=en&rclk=1,"28.766947899999998,77.2740907"
SORO KALLRO KI MASJID,Mosque,"SORO KALLRO KI MASJID, Dhibba pada, Amar Sagar Pol, Jaisalmer, Rajasthan 345001","Dhibba pada, Amar Sagar Pol",,Jaisalmer,345001,Rajasthan,IN,https://www.google.com/maps/place/SORO+KALLRO+KI+MASJID/data=!4m7!3m6!1s0x3947bc2575aeb2ed:0x59d679ebda245965!8m2!3d26.9109779!4d70.9161921!16s%2Fg%2F1pyqt_7lg!19sChIJ7bKudSW8RzkRZVkk2ut51lk?authuser=0&hl=en&rclk=1,"26.9109779,70.9161921"
Badi Jama Masjid,Mosque,"JCCP+798 Badi Jama Masjid, Sai Garden Rd, Shahberi, Ghaziabad, Uttar Pradesh 201009",Shahberi,"JCCP+798, Sai Garden Rd",Ghaziabad,201009,Uttar Pradesh,IN,https://www.google.com/maps/place/Badi+Jama+Masjid/data=!4m7!3m6!1s0x390cef9c56c86301:0xc65647a07153afce!8m2!3d28.620657!4d77.4359538!16s%2Fg%2F11hyw22c0_!19sChIJAWPIVpzvDDkRzq9TcaBHVsY?authuser=0&hl=en&rclk=1,"28.620656999999998,77.4359538"
Ghaziuddin's Mosque,Mosque,"J6WC+27Q Ghaziuddin's Mosque, Desh Bandhu Gupta Rd, Ajmeri Gate, New Delhi, Delhi, 110006",Ajmeri Gate,"J6WC+27Q, Desh Bandhu Gupta Rd","New Delhi, Delhi",110006,Delhi,IN,https://www.google.com/maps/place/Ghaziuddin%27s+Mosque/data=!4m7!3m6!1s0x390cfd3e4a23a085:0xc3158b353abd92f2!8m2!3d28.6450762!4d77.2207416!16s%2Fg%2F12hmk812x!19sChIJhaAjSj79DDkR8pK9OjWLFcM?authuser=0&hl=en&rclk=1,"28.6450762,77.2207416"
SHAHI JAMA MASJID jm` msjd shhy,Mosque,"SHAHI JAMA MASJID jm` msjd shhy, 22, foot road, Shram Vihar, Pocket N, Madanpur Khadar, New Delhi, Delhi 110025","Shram Vihar, Pocket N, Madanpur Khadar","22, foot road",New Delhi,110025,Delhi,IN,https://www.google.com/maps/place/SHAHI+JAMA+MASJID+%D8%AC%D8%A7%D9%85%D8%B9+%D9%85%D8%B3%D8%AC%D8%AF+%D8%B4%D8%A7%DA%BE%DB%8C%E2%80%AD/data=!4m7!3m6!1s0x390ce5a36ba3a95d:0x7cb7c1435cda3fd2!8m2!3d28.5405938!4d77.3038368!16s%2Fg%2F11n733rllr!19sChIJXamja6PlDDkR0j_aXEPBt3w?authuser=0&hl=en&rclk=1,"28.5405938,77.3038368"
khwy'yN wly msjd Kuein Wali Masjid,Mosque,"khwy'yN wly msjd Kuein Wali Masjid, 3017, Ram Bazar Marg, Mori Gate, Delhi, 110006","Ganda Nala Bazar, South Indian Madrasi Colony, Mori Gate","3017, Ram Bazar Marg",Delhi,110006,Delhi,IN,https://www.google.com/maps/place/%DA%A9%D9%88%D8%A6%DB%8C%DA%BA+%D9%88%D8%A7%D9%84%DB%8C+%D9%85%D8%B3%D8%AC%D8%AF+Kuein+Wali+Masjid%E2%80%AD/data=!4m7!3m6!1s0x390cfd0eb6b8bd09:0x18933362fd3b39e4!8m2!3d28.663729!4d77.224411!16s%2Fg%2F12hqtrvvz!19sChIJCb24tg79DDkR5Dk7_WIzkxg?authuser=0&hl=en&rclk=1,"28.663729,77.224411"
Masjid Sanauji,Mosque,"Masjid Sanauji, Shop No. 1630, Lal Kuan, Lalkuan Bazar Rd, Baradari, Chandni Chowk, New Delhi, Delhi 110006","Bazar Sirkiwalan, Baradari, Chandni Chowk","Shop No. 1630, Lal Kuan, Lalkuan Bazar Rd","New Delhi, Delhi",110006,Delhi,IN,https://www.google.com/maps/place/Masjid+Sanauji/data=!4m7!3m6!1s0x390cfd13fe3ea72d:0x27ea23bc5f650202!8m2!3d28.6529317!4d77.2232485!16s%2Fg%2F12hplq4pp!19sChIJLac-_hP9DDkRAgJlX7wj6ic?authuser=0&hl=en&rclk=1,"28.6529317,77.2232485"
Madarsa Rashidiya Masjid,Mosque,"J6MR+85P Madarsa Rashidiya Masjid, Bahadur Shah Zafar Marg, Maulana Azad Medical College Campus, Balmiki Basti, Vikram Nagar, New Delhi, Delhi, 110002","Maulana Azad Medical College Campus, Balmiki Basti, Vikram Nagar","J6MR+85P, Bahadur Shah Zafar Marg","New Delhi, Delhi",110002,Delhi,IN,https://www.google.com/maps/place/Madarsa+Rashidiya+Masjid/data=!4m7!3m6!1s0x390cfdeb4ab5bc19:0x53a0d804e40e1e9e!8m2!3d28.6333351!4d77.2404638!16s%2Fg%2F11sq1jxmjs!19sChIJGby1Suv9DDkRnh4O5ATYoFM?authuser=0&hl=en&rclk=1,"28.6333351,77.2404638"
Masjid Hussainiya,Mosque,"J6XM+GHP Masjid Hussainiya, Matia Mahal Rd, Kalan Mehal, Old Delhi, Delhi, 110006","Kalan Mehal, Old Delhi","J6XM+GHP, Matia Mahal Rd",Delhi,110006,Delhi,IN,https://www.google.com/maps/place/Masjid+Hussainiya/data=!4m7!3m6!1s0x390cfd18ba6b0bd5:0xced4d691b8d1a3fb!8m2!3d28.6488459!4d77.2339534!16s%2Fg%2F11gc9g4rkv!19sChIJ1Qtruhj9DDkR-6PRuJHW1M4?authuser=0&hl=en&rclk=1,"28.648845899999998,77.23395339999999"
Ghosiyan Masjid,Mosque,"J6XF+928 Ghosiyan Masjid, Garstin Baston Rd, Gali Sakko Wali, Shah Ganj, Old Delhi, New Delhi, Delhi, 110006","Gali Sakko Wali, Shah Ganj, Old Delhi","J6XF+928, Garstin Baston Rd","New Delhi, Delhi",110006,Delhi,IN,https://www.google.com/maps/place/Ghosiyan+Masjid/data=!4m7!3m6!1s0x390cfd19cb4fdef5:0x5a233f6c05fd37ea!8m2!3d28.6484192!4d77.2225897!16s%2Fg%2F11g6bkbkd_!19sChIJ9d5Pyxn9DDkR6jf9BWw_I1o?authuser=0&hl=en&rclk=1,"28.6484192,77.2225897"
Masjid,Mosque,"H77Q+868 Masjid, Okhla Village, Okhla, New Delhi, Delhi 110025","Okhla Village, Okhla",H77Q+868,New Delhi,110025,Delhi,IN,https://www.google.com/maps/place/Masjid/data=!4m7!3m6!1s0x390ce47512f7aa2b:0x544337a9b9e5d7a2!8m2!3d28.5632814!4d77.2880932!16s%2Fg%2F11gbtpj5td!19sChIJK6r3EnXkDDkRotfluak3Q1Q?authuser=0&hl=en&rclk=1,"28.563281399999997,77.28809319999999"
Masjid Aashikan-E-Rasool,Mosque,"Masjid Aashikan-E-Rasool, B168A, Block B, Baljit Nagar, Patel Nagar, New Delhi, Delhi, 110008","Block B, Baljit Nagar, Patel Nagar",B168A,"New Delhi, Delhi",110008,Delhi,IN,https://www.google.com/maps/place/Masjid+Aashikan-E-Rasool/data=!4m7!3m6!1s0x390d03568277eb99:0x27959f1a230ab399!8m2!3d28.6610366!4d77.1631945!16s%2Fg%2F11qz5hv88s!19sChIJmet3glYDDTkRmbMKIxqflSc?authuser=0&hl=en&rclk=1,"28.6610366,77.1631945"
Madrasa Masjid,Mosque,"JCG8+F6R Madrasa Masjid, Rani Laxmibai Nagar, Yusufpur, Nai Basti Dundahera, Ghaziabad, Uttar Pradesh 201009","Rani Laxmibai Nagar, Yusufpur, Nai Basti Dundahera",JCG8+F6R,Ghaziabad,201009,Uttar Pradesh,IN,https://www.google.com/maps/place/Madrasa+Masjid/data=!4m7!3m6!1s0x390cef27aea7eab5:0x312195d94fd69f48!8m2!3d28.626247!4d77.4155123!16s%2Fg%2F11rk2391cd!19sChIJteqnrifvDDkRSJ_WT9mVITE?authuser=0&hl=en&rclk=1,"28.626247,77.4155123"
Mr.SAHEEM MALIK,Mosque,"Mr.SAHEEM MALIK, Gali no. 3 - Tirpal Factory Mustafabad, near Ayisha masjid, 25 Futa Rd, near by Aisha Masjid, chowk, Delhi 110094","Shakti Vihar, Old Mustafabad, chowk","Gali no. 3 - Tirpal Factory Mustafabad, near Ayisha masjid, 25 Futa Rd, near by Aisha Masjid",Delhi,110094,Delhi,IN,https://www.google.com/maps/place/Mr.SAHEEM+MALIK/data=!4m7!3m6!1s0x390cfd9a44cd4997:0xffdc8860c53e3f2b!8m2!3d28.7159667!4d77.272238!16s%2Fg%2F11h3cwgc8y!19sChIJl0nNRJr9DDkRKz8-xWCI3P8?authuser=0&hl=en&rclk=1,"28.7159667,77.272238"
Masjid,Mosque,"Q7JJ+7WC Masjid, Pavi Sadakpur, Uttar Pradesh 201102",,Q7JJ+7WC,Pavi Sadakpur,201102,Uttar Pradesh,IN,https://www.google.com/maps/place/Masjid/data=!4m7!3m6!1s0x390cff3247b3c4d7:0xf1b7407f946dd8cc!8m2!3d28.7806806!4d77.2822504!16s%2Fg%2F11ggz8tfhy!19sChIJ18SzRzL_DDkRzNhtlH9At_E?authuser=0&hl=en&rclk=1,"28.7806806,77.2822504"
Masjid,Mosque,"Q6MJ+5H5 Masjid, Badarpur, Madanpur Khadar, New Delhi, 110084",Madanpur Khadar,"Q6MJ+5H5, Badarpur","New Delhi, Delhi",110084,Delhi,IN,https://www.google.com/maps/place/Masjid/data=!4m7!3m6!1s0x390cffb780460377:0x9fe224e9c653e965!8m2!3d28.7828891!4d77.2314704!16s%2Fg%2F11qn790lvq!19sChIJdwNGgLf_DDkRZelTxukk4p8?authuser=0&hl=en&rclk=1,"28.7828891,77.23147039999999"
Juma Masjid,Mosque,"GMJ3+348 Juma Masjid, Cholas Rd, Mohalla Abbas Nagar, Chholas, Uttar Pradesh 203207",Mohalla Abbas Nagar,"GMJ3+348, Cholas Rd",Chholas,203207,Uttar Pradesh,IN,https://www.google.com/maps/place/Juma+Masjid/data=!4m7!3m6!1s0x390c942a6e349581:0xfd6322c2aa576325!8m2!3d28.5301599!4d77.6528246!16s%2Fg%2F11c52lz9x6!19sChIJgZU0biqUDDkRJWNXqsIiY_0?authuser=0&hl=en&rclk=1,"28.530159899999997,77.6528246"
Ahmadiyya Muslim Mosque,Mosque,"Ahmadiyya Muslim Mosque, Nachhipur Ganja Rd, Parmohalla, Soro, Odisha 756045",,Nachhipur Ganja Rd,"Parmohalla, Soro",756045,Odisha,IN,https://www.google.com/maps/place/Ahmadiyya+Muslim+Mosque/data=!4m7!3m6!1s0x3a1c6fa34b9ab32b:0x4cb8475fafa15a0b!8m2!3d21.2819376!4d86.6907172!16s%2Fg%2F11gxrvnh5q!19sChIJK7OaS6NvHDoRC1qhr19HuEw?authuser=0&hl=en&rclk=1,"21.2819376,86.6907172"
Masjid,Mosque,"Masjid, 42C, Central Auto Market, Block B, Sector 16, Noida, Uttar Pradesh 201301","Central Auto Market, Block B, Sector 16",42C,Noida,201301,Uttar Pradesh,IN,https://www.google.com/maps/place/Masjid/data=!4m7!3m6!1s0x390ce45b6e8b8d05:0x1c6debc04866e60!8m2!3d28.577362!4d77.31624!16s%2Fg%2F11c6rj0f0y!19sChIJBY2LblvkDDkRYG6GBLzexgE?authuser=0&hl=en&rclk=1,"28.577361999999997,77.31624"
HADHRAT UMAR MASJID ALMAROOF CHOTI MASJID,Mosque,"HADHRAT UMAR MASJID ALMAROOF CHOTI MASJID, Chotti Masjid, Street number 9, Mulla Colony, Gharoli Extension, Gharoli, Delhi, 110096","Mulla Colony, Gharoli Extension, Gharoli","Chotti Masjid, Street number 9",Delhi,110096,Delhi,IN,https://www.google.com/maps/place/HADHRAT+UMAR+MASJID+ALMAROOF+CHOTI+MASJID/data=!4m7!3m6!1s0x390ce5c6cf830b2f:0x6bb8084dadf0d513!8m2!3d28.6213398!4d77.3314246!16s%2Fg%2F11sy4vfb7s!19sChIJLwuDz8blDDkRE9XwrU0IuGs?authuser=0&hl=en&rclk=1,"28.621339799999998,77.33142459999999"
Old Mugal Masjid,Mosque,"J6X9+P3V Old Mugal Masjid, Qutab Rd, Ram Nagar Market, Aram Nagar, Paharganj, New Delhi, Delhi, 110055","Ram Nagar Market, Aram Nagar, Paharganj","J6X9+P3V, Qutab Rd","New Delhi, Delhi",110055,Delhi,IN,https://www.google.com/maps/place/Old+Mugal+Masjid/data=!4m7!3m6!1s0x390cfd152b1b0125:0x49e032c4a3927074!8m2!3d28.6493546!4d77.2176682!16s%2Fg%2F11ggw008kv!19sChIJJQEbKxX9DDkRdHCSo8Qy4Ek?authuser=0&hl=en&rclk=1,"28.6493546,77.21766819999999"
Jamia Masjid Shalipora,Mosque,"P432+JXG Jamia Masjid Shalipora, Pocket 25, Sector 3G, Rohini, Delhi, 110085","Pocket 25, Sector 3G, Rohini",P432+JXG,Delhi,,Delhi,IN,https://www.google.com/maps/place/Jamia+Masjid+Shalipora/data=!4m7!3m6!1s0x390d01e748dee987:0xa3e53c52f8c3508a!8m2!3d28.7040585!4d77.1024588!16s%2Fg%2F11gj4hx_w9!19sChIJh-neSOcBDTkRilDD-FI85aM?authuser=0&hl=en&rclk=1,"28.7040585,77.1024588"
Masjid,Mosque,"Masjid, 2508, Fasil Rd, Gali Sakko Wali, Shah Ganj, Chandni Chowk, New Delhi, Delhi, 110006","Gali Sakko Wali, Shah Ganj, Chandni Chowk","2508, Fasil Rd","New Delhi, Delhi",110006,Delhi,IN,https://www.google.com/maps/place/Masjid/data=!4m7!3m6!1s0x390cfd15c9a8a4b1:0xf975aada141da03e!8m2!3d28.6491552!4d77.2220471!16s%2Fg%2F1hm4gjxkd!19sChIJsaSoyRX9DDkRPqAdFNqqdfk?authuser=0&hl=en&rclk=1,"28.6491552,77.2220471"
Masjid,Mosque,"P9HF+33Q Masjid, Farukh Nagar, Uttar Pradesh 201003",,P9HF+33Q,Farukh Nagar,201003,Uttar Pradesh,IN,https://www.google.com/maps/place/Masjid/data=!4m7!3m6!1s0x390cfa018875b495:0xeea7b0caec7e470d!8m2!3d28.7277145!4d77.3727433!16s%2Fg%2F11f0krqvls!19sChIJlbR1iAH6DDkRDUd-7Mqwp-4?authuser=0&hl=en&rclk=1,"28.727714499999998,77.3727433"
Dosras Masjid dosrs msjid,Mosque,"G9RW+C6Q Dosras Masjid dosrs msjid, Devseras, Uttar Pradesh 281502",,G9RW+C6Q,Devseras,,Uttar Pradesh,IN,https://www.google.com/maps/place/Dosras+Masjid+%E0%A4%A6%E0%A5%8B%E0%A4%B8%E0%A4%B0%E0%A4%B8+%E0%A4%AE%E0%A4%B8%E0%A5%8D%E0%A4%9C%E0%A4%BF%E0%A4%A6/data=!4m7!3m6!1s0x397311c3de1003fb:0x64a49915ef9147e!8m2!3d27.5410844!4d77.3956004!16s%2Fg%2F11t6ml9lc1!19sChIJ-wMQ3sMRczkRfhT5XpFJSgY?authuser=0&hl=en&rclk=1,"27.5410844,77.39560039999999"
Masjid musalla,Mosque,"Masjid musalla, A-89, A Block, Sector 10, Noida, Uttar Pradesh 201301","A Block, Sector 10",A-89,Noida,201301,Uttar Pradesh,IN,https://www.google.com/maps/place/Masjid+musalla/data=!4m7!3m6!1s0x390ce5901959d42b:0x7fb1c9f04066b8b5!8m2!3d28.5883346!4d77.3290123!16s%2Fg%2F11kbpj87y4!19sChIJK9RZGZDlDDkRtbhmQPDJsX8?authuser=0&hl=en&rclk=1,"28.5883346,77.3290123"
Masjid,Mosque,"9M74+66G Masjid, Hirnoti, Uttar Pradesh 203203",,9M74+66G,Hirnoti,203203,Uttar Pradesh,IN,https://www.google.com/maps/place/Masjid/data=!4m7!3m6!1s0x390cbbdfa6584727:0x4a1e67c0bd32dfaf!8m2!3d28.36306!4d77.6555641!16s%2Fg%2F11dzwm3m09!19sChIJJ0dYpt-7DDkRr98yvcBnHko?authuser=0&hl=en&rclk=1,"28.363059999999997,77.65556409999999"
Madina Maszid,Mosque,"P432+JXG Madina Maszid, Pocket 25, Sector 3G, Rohini, Delhi, 110085","Pocket 25, Sector 3G, Rohini",P432+JXG,Delhi,110085,Delhi,IN,https://www.google.com/maps/place/Madina+Maszid/data=!4m7!3m6!1s0x390d018613fc13e1:0xb7a57d9d5623c997!8m2!3d28.7040585!4d77.1024588!16s%2Fg%2F11f6dnn289!19sChIJ4RP8E4YBDTkRl8kjVp19pbc?authuser=0&hl=en&rclk=1,"28.7040585,77.1024588"
Sannaut masjid,Mosque,"9XHR+Q4V Sannaut masjid, Sannaut, Uttar Pradesh 203150",,9XHR+Q4V,Sannaut,203150,Uttar Pradesh,IN,https://www.google.com/maps/place/Sannaut+masjid/data=!4m7!3m6!1s0x390b590a5d0b0e25:0xeaff554327474052!8m2!3d28.3794979!4d77.9903021!16s%2Fg%2F11h7cp0j52!19sChIJJQ4LXQpZCzkRUkBHJ0NV_-o?authuser=0&hl=en&rclk=1,"28.379497899999997,77.9903021"
Jama masjid,Mosque,"Jama masjid, Jama Masjid, Abul Fazal Enclave Part 1, Part 1 Abul Fazal Enclave, Block I, Jamia Nagar, Chandni Chowk, New Delhi, Delhi 110025","Abul Fazal Enclave Part 1, Part 1 Abul Fazal Enclave, Block I, Jamia Nagar, Chandni Chowk",Jama Masjid,New Delhi,,Delhi,IN,https://www.google.com/maps/place/Jama+masjid/data=!4m7!3m6!1s0x390ce542b18bb9c1:0xcacf2517b90d6255!8m2!3d28.5545167!4d77.2972904!16s%2Fg%2F11kqc0mn0x!19sChIJwbmLsULlDDkRVWINuRclz8o?authuser=0&hl=en&rclk=1,"28.554516699999997,77.2972904"
Masjid,Mosque,"Masjid, Gali No 19, Gali Number 1, Mustafabad Extn, New Mustafabad, Delhi, 110094","E2 Block, Mustafabad Extn, New Mustafabad","Gali No 19, Gali Number 1",Delhi,110094,Delhi,IN,https://www.google.com/maps/place/Masjid/data=!4m7!3m6!1s0x390cfc1b020b0e91:0xb48a3c3233e41cbd!8m2!3d28.711773!4d77.272563!16s%2Fg%2F12hpqnhjr!19sChIJkQ4LAhv8DDkRvRzkMzI8irQ?authuser=0&hl=en&rclk=1,"28.711772999999997,77.27256299999999"
Jama masjid,Mosque,"2C54+53V Jama masjid, Barsia, Uttar Pradesh 250606",,2C54+53V,Barsia,250606,Uttar Pradesh,IN,https://www.google.com/maps/place/Jama+masjid/data=!4m7!3m6!1s0x390c45c0557f5d3b:0x30c40df500a78ac8!8m2!3d29.0079809!4d77.4051837!16s%2Fg%2F11j6sgrzft!19sChIJO11_VcBFDDkRyIqnAPUNxDA?authuser=0&hl=en&rclk=1,"29.0079809,77.4051837"
Sujra Masjid,Mosque,"278C+WC5 Sujra Masjid, Sujra, Gyasri Urf Gadhi, Uttar Pradesh 250601",,278C+WC5,"Sujra, Gyasri Urf Gadhi",250601,Uttar Pradesh,IN,https://www.google.com/maps/place/Sujra+Masjid/data=!4m7!3m6!1s0x390c4dabf36bef97:0x90c691dfc4125a14!8m2!3d29.0172531!4d77.271115!16s%2Fg%2F11gy2rm8n4!19sChIJl-9r86tNDDkRFFoSxN-RxpA?authuser=0&hl=en&rclk=1,"29.017253099999998,77.271115"
JAMA MASJID jm` msjd,Mosque,"JAMA MASJID jm` msjd, JAMIA TUL ABRAR, AL ISLAMIA, Madanpur Khadar Phase 3, Madanpur Khadar, New Delhi, Delhi 110076","Madanpur Khadar Phase 3, Madanpur Khadar","JAMIA TUL ABRAR, AL ISLAMIA",New Delhi,110076,Delhi,IN,https://www.google.com/maps/place/JAMA+MASJID+%D8%AC%D8%A7%D9%85%D8%B9+%D9%85%D8%B3%D8%AC%D8%AF%E2%80%AD/data=!4m7!3m6!1s0x390ce7a4c5ffc659:0x83d8ecc557f86b97!8m2!3d28.5270399!4d77.3257331!16s%2Fg%2F11krrd17t2!19sChIJWcb_xaTnDDkRl2v4V8Xs2IM?authuser=0&hl=en&rclk=1,"28.5270399,77.3257331"
Shahi Masjid,Mosque,"P9GF+7JF Shahi Masjid, Ghaziabad, Farukh Nagar, Uttar Pradesh 201003",,P9GF+7JF,"Ghaziabad, Farukh Nagar",201003,Uttar Pradesh,IN,https://www.google.com/maps/place/Shahi+Masjid/data=!4m7!3m6!1s0x390cfbe3c127d11d:0xaeb51f9089fe1035!8m2!3d28.7256936!4d77.3740438!16s%2Fg%2F11h845v6bn!19sChIJHdEnweP7DDkRNRD-iZAfta4?authuser=0&hl=en&rclk=1,"28.7256936,77.3740438"
Masjid,Mosque,"Masjid, I116, DSIIDC Industrial Area, Sector 5, Bawana, New Delhi, Delhi, 110039","DSIIDC Industrial Area, Sector 5, Bawana",I116,"New Delhi, Delhi",110039,Delhi,IN,https://www.google.com/maps/place/Masjid/data=!4m7!3m6!1s0x390da9cb278fea55:0x351e1b7ec09414c4!8m2!3d28.8011996!4d77.0752247!16s%2Fg%2F11vd9vydsd!19sChIJVeqPJ8upDTkRxBSUwH4bHjU?authuser=0&hl=en&rclk=1,"28.8011996,77.07522469999999"
Jerrari Bali masjid saheedi masjid,Mosque,"FPFP+92X Jerrari Bali masjid saheedi masjid, Janaita, Uttar Pradesh 244412",,FPFP+92X,Janaita,,Uttar Pradesh,IN,https://www.google.com/maps/place/Jerrari+Bali+masjid+saheedi+masjid/data=!4m7!3m6!1s0x390ad94048b91f85:0x2266891b6d2c20ad!8m2!3d28.4718865!4d78.7346786!16s%2Fg%2F11t7p4zkvv!19sChIJhR-5SEDZCjkRrSAsbRuJZiI?authuser=0&hl=en&rclk=1,"28.4718865,78.7346786"
