name,main_category,address,address_ward,address_street,address_city,address_postal_code,address_state,address_country_code,link,coordinates
Shia Isna Ashri Masjid,Religious organization,"F2QW+P8Q Shia Isna Ashri Masjid, ashutosh petrolpump, Bedeswer, Jamnagar, Gujarat 361002",Bedeswer,"F2QW+P8Q, ashutosh petrolpump",Jamnagar,361002,Gujarat,IN,https://www.google.com/maps/place/Shia+Isna+Ashri+Masjid/data=!4m7!3m6!1s0x39573ff93f630e9b:0x94db06ed5070c707!8m2!3d22.489337!4d70.0458662!16s%2Fg%2F11f0_ftjfr!19sChIJmw5jP_k_VzkRB8dwUO0G25Q?authuser=0&hl=en&rclk=1,"22.489337,70.04586619999999"
Masjid~e~Tajushshariah,Place of worship,"Masjid~e~Tajushshariah, Unnamed Road, Bedeswer, Jamnagar, Gujarat 361009",Bedeswer,Unnamed Road,Jamnagar,361009,Gujarat,IN,https://www.google.com/maps/place/Masjid~e~Tajushshariah/data=!4m7!3m6!1s0x39573f27b4f48c7b:0x3451907b3355f0da!8m2!3d22.5015826!4d70.045705!16s%2Fg%2F11nyc615n7!19sChIJe4z0tCc_VzkR2vBVM3uQUTQ?authuser=0&hl=en&rclk=1,"22.5015826,70.045705"
Saifee Masjid,Mosque,"Saifee Masjid, Kishan Park Society, Jamnagar, Gujarat 361001",Kishan Park Society,,Jamnagar,361001,Gujarat,IN,https://www.google.com/maps/place/Saifee+Masjid/data=!4m7!3m6!1s0x39576af1ffd2ce1b:0x286f3f9c12a77458!8m2!3d22.4614053!4d70.0788586!16s%2Fg%2F1td4sp3c!19sChIJG87S__FqVzkRWHSnEpw_byg?authuser=0&hl=en&rclk=1,"22.4614053,70.0788586"
Madina Masjid,Mosque,"F29W+9G6 Madina Masjid, Kamdar Colony, Jamnagar, Gujarat 361006",Kamdar Colony,F29W+9G6,Jamnagar,361006,Gujarat,IN,https://www.google.com/maps/place/Madina+Masjid/data=!4m7!3m6!1s0x3957154db1409d07:0xd3d43ac207af3c54!8m2!3d22.468423!4d70.0462785!16s%2Fg%2F11b6dpf3s_!19sChIJB51AsU0VVzkRVDyvB8I61NM?authuser=0&hl=en&rclk=1,"22.468422999999998,70.0462785"
Jama Masjid,Mosque,"G22R+4JR Jama Masjid, Juma Masjid Rd, Bedi, Bedeswer, Jamnagar, Gujarat 361009","Bedi, Bedeswer","G22R+4JR, Juma Masjid Rd",Jamnagar,361009,Gujarat,IN,https://www.google.com/maps/place/Jama+Masjid/data=!4m7!3m6!1s0x39573ff3b5ba79d1:0x3cdef03362ac0014!8m2!3d22.5003736!4d70.0415064!16s%2Fg%2F11bxfwdm7c!19sChIJ0Xm6tfM_VzkRFACsYjPw3jw?authuser=0&hl=en&rclk=1,"22.5003736,70.0415064"
Jodiya Bhunga Jumma Masjid,Mosque,"G22P+V2H Jodiya Bhunga Jumma Masjid, Bedeswer, Jamnagar, Gujarat 361009",Bedeswer,G22P+V2H,Jamnagar,361009,Gujarat,IN,https://www.google.com/maps/place/Jodiya+Bhunga+Jumma+Masjid/data=!4m7!3m6!1s0x39573fece1408d21:0xdd0df99393b79b9d!8m2!3d22.5021984!4d70.0351022!16s%2Fg%2F11gd_jd3kz!19sChIJIY1A4ew_VzkRnZu3k5P5Dd0?authuser=0&hl=en&rclk=1,"22.502198399999997,70.0351022"
Masjid-E-Raza,Mosque,"F336+FMR Masjid-E-Raza, Raza Nagar, Jamnagar, Gujarat 361005",Raza Nagar,F336+FMR,Jamnagar,361005,Gujarat,IN,https://www.google.com/maps/place/Masjid-E-Raza/data=!4m7!3m6!1s0x39576bd96eada9d3:0x20e9045429fe9e5c!8m2!3d22.4537252!4d70.0616447!16s%2Fg%2F11g0w0s80r!19sChIJ06mtbtlrVzkRXJ7-KVQE6SA?authuser=0&hl=en&rclk=1,"22.453725199999997,70.0616447"
Daimond bit's orchestra,Mosque,"Daimond bit's orchestra, Ranjit road Khadibhandar, Ranjit Rd, khadibhandar, Jamnagar, Gujarat 361001",khadibhandar,"Ranjit road Khadibhandar, Ranjit Rd",Jamnagar,361001,Gujarat,IN,https://www.google.com/maps/place/Daimond+bit%27s+orchestra/data=!4m7!3m6!1s0x39576bff5162bf07:0xfccce2576bae37d2!8m2!3d22.4691096!4d70.0743803!16s%2Fg%2F11h6qhwclh!19sChIJB79iUf9rVzkR0jeua1fizPw?authuser=0&hl=en&rclk=1,"22.4691096,70.0743803"
NOOR MASJID,Mosque,"F37J+PG4 NOOR MASJID, Kadiawad, Jamnagar, Gujarat 361001",Kadiawad,F37J+PG4,Jamnagar,361001,Gujarat,IN,https://www.google.com/maps/place/NOOR+MASJID/data=!4m7!3m6!1s0x39576a934b38d515:0x39ae547dcf776ef6!8m2!3d22.4642534!4d70.0813423!16s%2Fg%2F1264ljgwd!19sChIJFdU4S5NqVzkR9m53z31Urjk?authuser=0&hl=en&rclk=1,"22.4642534,70.0813423"
Haji Pir Dargah,Mosque,"Haji Pir Dargah, Haji Pir, Chowk, Khoja Gate, Jamnagar, Gujarat 361005",Kishan Park Society,"Haji Pir, Chowk, Khoja Gate",Jamnagar,361005,Gujarat,IN,https://www.google.com/maps/place/Haji+Pir+Dargah/data=!4m7!3m6!1s0x39576aea172e7661:0x20325d19513d798a!8m2!3d22.4586487!4d70.075287!16s%2Fg%2F11gglpcksv!19sChIJYXYuF-pqVzkRink9URldMiA?authuser=0&hl=en&rclk=1,"22.458648699999998,70.075287"
Masjide Abu Hanifa (abu hniiphaa msjid )Dharanagar -2,Mosque,"F2MV+PHR Masjide Abu Hanifa (abu hniiphaa msjid )Dharanagar -2, Jawahar Nagar, Jamnagar, Gujarat 361008",Jawahar Nagar,F2MV+PHR,Jamnagar,361008,Gujarat,IN,https://www.google.com/maps/place/Masjide+Abu+Hanifa+%28%E0%AA%85%E0%AA%AC%E0%AB%81+%E0%AA%B9%E0%AA%A8%E0%AB%80%E0%AA%AB%E0%AA%BE+%E0%AA%AE%E0%AA%B8%E0%AB%8D%E0%AA%9C%E0%AA%BF%E0%AA%A6+%29Dharanagar+-2/data=!4m7!3m6!1s0x39573ffdd09ecc11:0x4b156cbb59a3e876!8m2!3d22.4843717!4d70.0438784!16s%2Fg%2F11c1szm7n3!19sChIJEcye0P0_VzkRduijWbtsFUs?authuser=0&hl=en&rclk=1,"22.4843717,70.0438784"
Zulekha Masjid msjd,Mosque,"F37P+27R Zulekha Masjid msjd, Maharja Society, Jamnagar, Gujarat 361110",Maharja Society,F37P+27R,Jamnagar,361110,Gujarat,IN,https://www.google.com/maps/place/Zulekha+Masjid+%D9%85%D8%B3%D8%AC%D8%AF%E2%80%AD/data=!4m7!3m6!1s0x39576aed7b52668b:0xe4d164641595a7e4!8m2!3d22.4626058!4d70.0856267!16s%2Fg%2F11bx2lr9rf!19sChIJi2ZSe-1qVzkR5KeVFWRk0eQ?authuser=0&hl=en&rclk=1,"22.4626058,70.08562669999999"
Fatmabai Masjid,Mosque,"F36H+8H5 Fatmabai Masjid, Mullamedi Rd, Kishan Park Society, Jamnagar, Gujarat 361001",Kishan Park Society,"F36H+8H5, Mullamedi Rd",Jamnagar,361001,Gujarat,IN,https://www.google.com/maps/place/Fatmabai+Masjid/data=!4m7!3m6!1s0x39576aeb9c1b417f:0x2eba30210659a5b1!8m2!3d22.4607511!4d70.0789976!16s%2Fg%2F1tdrvqfm!19sChIJf0EbnOtqVzkRsaVZBiEwui4?authuser=0&hl=en&rclk=1,"22.4607511,70.0789976"
Nathibai masjid,Mosque,"Nathibai masjid, near, patni wad, Kalawad Rd, Gate, Jamnagar, Gujarat 361001",Gate,"near, patni wad, Kalawad Rd",Jamnagar,361001,Gujarat,IN,https://www.google.com/maps/place/Nathibai+masjid/data=!4m7!3m6!1s0x39576a92db889427:0xef76a8c40f498a47!8m2!3d22.4637432!4d70.0823276!16s%2Fg%2F1263d_m4r!19sChIJJ5SI25JqVzkRR4pJD8Sodu8?authuser=0&hl=en&rclk=1,"22.4637432,70.0823276"
Jumma Masjid,Mosque,"F37H+9FX Jumma Masjid, road, Chandi Bazar, Kadiawad, Jamnagar, Gujarat 361001","Chandi Bazar, Kadiawad","F37H+9FX, road",Jamnagar,361001,Gujarat,IN,https://www.google.com/maps/place/Jumma+Masjid/data=!4m7!3m6!1s0x39576aeb49854da9:0x2fed6280fd3a7fe9!8m2!3d22.4634758!4d70.0787408!16s%2Fg%2F11d_b4cjm6!19sChIJqU2FSetqVzkR6X86_YBi7S8?authuser=0&hl=en&rclk=1,"22.463475799999998,70.07874079999999"
Vagher Sunni Muslim Hussaini Masjid,Mosque,"Matam, Vagher Sunni Muslim Hussaini Masjid, Vagher Vado, Kadiawad, Jamnagar, Gujarat 361001",Kadiawad,"Matam, Vagher Vado",Jamnagar,,Gujarat,IN,https://www.google.com/maps/place/Vagher+Sunni+Muslim+Hussaini+Masjid/data=!4m7!3m6!1s0x39576a939154db47:0xac9ea2091c08ec84!8m2!3d22.4680966!4d70.0811987!16s%2Fg%2F11c1wwtn5z!19sChIJR9tUkZNqVzkRhOwIHAminqw?authuser=0&hl=en&rclk=1,"22.4680966,70.0811987"
Dhanbai Masjid,Mosque,"F37M+78C Dhanbai Masjid, Kadiawad, Jamnagar, Gujarat 361001",Kadiawad,F37M+78C,Jamnagar,361001,Gujarat,IN,https://www.google.com/maps/place/Dhanbai+Masjid/data=!4m7!3m6!1s0x39576aed21a2321d:0x53afabb7c88220f2!8m2!3d22.463192!4d70.0832566!16s%2Fg%2F11cs3ngpcr!19sChIJHTKiIe1qVzkR8iCCyLerr1M?authuser=0&hl=en&rclk=1,"22.463192,70.0832566"
madina masjid,Mosque,"F33F+VF9 madina masjid, Kishan Park Society, Jamnagar, Gujarat 361005",Kishan Park Society,F33F+VF9,Jamnagar,361005,Gujarat,IN,https://www.google.com/maps/place/madina+masjid/data=!4m7!3m6!1s0x39576b66191b1c8d:0x6c9d71583f92061!8m2!3d22.4546602!4d70.0737378!16s%2Fg%2F11ff3z6h8g!19sChIJjRwbGWZrVzkRYSD5gxXXyQY?authuser=0&hl=en&rclk=1,"22.4546602,70.0737378"
navivas masjid,Mosque,"F39F+CRP navivas masjid, Panchasar, Pancheshwar Tower, Jamnagar, Gujarat 361001","Panchasar, Pancheshwar Tower",F39F+CRP,Jamnagar,361001,Gujarat,IN,https://www.google.com/maps/place/navivas+masjid/data=!4m7!3m6!1s0x39576a95fbe9d1a9:0xf2dfcb7bd39dbd44!8m2!3d22.4685995!4d70.0745643!16s%2Fg%2F11fx8gl9g4!19sChIJqdHp-5VqVzkRRL2d03vL3_I?authuser=0&hl=en&rclk=1,"22.4685995,70.07456429999999"
Khatri Masjid msjd,Mosque,"F36J+VW5 Khatri Masjid msjd, Kalavad Gate Road, near Mutton Market, Jamnagar, Gujarat 361001",Kadiawad,"F36J+VW5, Kalavad Gate Road, near Mutton Market",Jamnagar,361001,Gujarat,IN,https://www.google.com/maps/place/Khatri+Masjid+%D9%85%D8%B3%D8%AC%D8%AF%E2%80%AD/data=!4m7!3m6!1s0x39576aecfaba3305:0xab648233aee0bdcd!8m2!3d22.4621459!4d70.0823487!16s%2Fg%2F12qh8zfzh!19sChIJBTO6-uxqVzkRzb3grjOCZKs?authuser=0&hl=en&rclk=1,"22.4621459,70.0823487"
Masjid e Hashim,Mosque,"F37P+G46 Masjid e Hashim, Maharja Society, Jamnagar, Gujarat 361110",Maharja Society,F37P+G46,Jamnagar,361110,Gujarat,IN,https://www.google.com/maps/place/Masjid+e+Hashim/data=!4m7!3m6!1s0x39576aed44d1545d:0x3f23fbea807dbf60!8m2!3d22.4637977!4d70.085272!16s%2Fg%2F11f0854m_r!19sChIJXVTRRO1qVzkRYL99gOr7Iz8?authuser=0&hl=en&rclk=1,"22.4637977,70.085272"
Masjid E Roshan,Mosque,"F3V3+9P7 Masjid E Roshan, Jamnagar, Gujarat 361008",,F3V3+9P7,Jamnagar,361008,Gujarat,IN,https://www.google.com/maps/place/Masjid+E+Roshan/data=!4m7!3m6!1s0x39574006476b0469:0xc94f801bfc60584f!8m2!3d22.4934136!4d70.0542915!16s%2Fg%2F1tzgh0h4!19sChIJaQRrRwZAVzkRT1hg_BuAT8k?authuser=0&hl=en&rclk=1,"22.4934136,70.05429149999999"
Anware Madina Msjid,Mosque,"F3J9+WM2 Anware Madina Msjid, Rameshwar Nagar, Jamnagar, Navagam, Gujarat 361008",Rameshwar Nagar,F3J9+WM2,"Jamnagar, Navagam",361008,Gujarat,IN,https://www.google.com/maps/place/Anware+Madina+Msjid/data=!4m7!3m6!1s0x39576aa12681608f:0xa9bcb7fe21cae0d3!8m2!3d22.4822602!4d70.0691304!16s%2Fg%2F11c30w4pd5!19sChIJj2CBJqFqVzkR0-DKIf63vKk?authuser=0&hl=en&rclk=1,"22.4822602,70.06913039999999"
Makka Masjid,Mosque,"F32R+WC7 Makka Masjid, Jamnagar, Gujarat 361110",,F32R+WC7,Jamnagar,361110,Gujarat,IN,https://www.google.com/maps/place/Makka+Masjid/data=!4m7!3m6!1s0x39576afa3c7eb8a5:0x577187d96da57c8b!8m2!3d22.4522816!4d70.0910454!16s%2Fg%2F11fxz74zfp!19sChIJpbh-PPpqVzkRi3ylbdmHcVc?authuser=0&hl=en&rclk=1,"22.4522816,70.0910454"
Rabiya Masjid,Mosque,"F37R+67X Rabiya Masjid, Noori Park, Hapa Road, Jamnagar, Gujarat 361001",Kaushal Nagar,"F37R+67X, Noori Park, Hapa Road",Jamnagar,361001,Gujarat,IN,https://www.google.com/maps/place/Rabiya+Masjid/data=!4m7!3m6!1s0x39576af3725228fb:0xffa7cac52e3aad52!8m2!3d22.4631148!4d70.0907296!16s%2Fg%2F11bx432b4p!19sChIJ-yhScvNqVzkRUq06LsXKp_8?authuser=0&hl=en&rclk=1,"22.4631148,70.0907296"
Makki Masjid,Mosque,"F34F+QVX Makki Masjid, Kishan Park Society, Jamnagar, Gujarat 361005",Kishan Park Society,F34F+QVX,Jamnagar,361005,Gujarat,IN,https://www.google.com/maps/place/Makki+Masjid/data=!4m7!3m6!1s0x39576ae9fb293c57:0x6a56a3e406feb479!8m2!3d22.4569793!4d70.0747377!16s%2Fg%2F11df7q5s2w!19sChIJVzwp--lqVzkRebT-BuSjVmo?authuser=0&hl=en&rclk=1,"22.4569793,70.0747377"
Burhani Masjid,Mosque,"Burhani Masjid, burhani masjid, burdhan chowk, bavafali, Jamnagar, Gujarat 361001",bavafali,"burhani masjid, burdhan chowk",Jamnagar,361001,Gujarat,IN,https://www.google.com/maps/place/Burhani+Masjid/data=!4m7!3m6!1s0x39576aeb15ba6799:0x24d843715fb798df!8m2!3d22.4622724!4d70.0783512!16s%2Fg%2F11df0x8301!19sChIJmWe6FetqVzkR35i3X3FD2CQ?authuser=0&hl=en&rclk=1,"22.4622724,70.0783512"
Vahevariya Masjid,Mosque,"F35H+G77 Vahevariya Masjid, Vahevariya Madressa Road, Jamnagar, Gujarat 361001",Kishan Park Society,"F35H+G77, Vahevariya Madressa Road",Jamnagar,361001,Gujarat,IN,https://www.google.com/maps/place/Vahevariya+Masjid/data=!4m7!3m6!1s0x39576aebdb521211:0xed7f6817d5f602c0!8m2!3d22.4587978!4d70.0781822!16s%2Fg%2F1pp2tjxmk!19sChIJERJS2-tqVzkRwAL21Rdof-0?authuser=0&hl=en&rclk=1,"22.4587978,70.0781822"
Eid Masjid More Than 200 Year's Old,Mosque,"F3CJ+RX9 Eid Masjid More Than 200 Year's Old, Vagher Vado, near Shubhash Bridge, Jamnagar, Gujarat 361001",Kadiawad,"F3CJ+RX9, Vagher Vado, near Shubhash Bridge",Jamnagar,361001,Gujarat,IN,https://www.google.com/maps/place/Eid+Masjid+More+Than+200+Year%27s+Old/data=!4m7!3m6!1s0x39576a910fabe773:0x9508990c349347fc!8m2!3d22.4720372!4d70.0824875!16s%2Fg%2F11f3n2lhtn!19sChIJc-erD5FqVzkR_EeTNAyZCJU?authuser=0&hl=en&rclk=1,"22.4720372,70.0824875"
Mohammedi Masjid,Mosque,"F36P+GXV Mohammedi Masjid, Outside Kalawad Gate, makvana society, Jamnagar, Gujarat",Maharja Society,"F36P+GXV, Outside Kalawad Gate, makvana society",Jamnagar,,Gujarat,IN,https://www.google.com/maps/place/Mohammedi+Masjid/data=!4m7!3m6!1s0x39576af2686b8a71:0xcfe390dcaa36b239!8m2!3d22.4613559!4d70.0874197!16s%2Fg%2F1w6_m6kj!19sChIJcYpraPJqVzkRObI2qtyQ488?authuser=0&hl=en&rclk=1,"22.461355899999997,70.0874197"
Vehevaria Madresa,Mosque,"F35H+HC2 Vehevaria Madresa, Kishan Park Society, Jamnagar, Gujarat 361001",Kishan Park Society,F35H+HC2,Jamnagar,361001,Gujarat,IN,https://www.google.com/maps/place/Vehevaria+Madresa/data=!4m7!3m6!1s0x39576aebdd47cb69:0xfe1143205b109858!8m2!3d22.4588888!4d70.078505!16s%2Fg%2F1tplnq5j!19sChIJactH3etqVzkRWJgQWyBDEf4?authuser=0&hl=en&rclk=1,"22.4588888,70.07850499999999"
Noori Navi Masjid,Mosque,"F36J+P8P Noori Navi Masjid, Kishan Park Society, Jamnagar, Gujarat 361001",Kishan Park Society,F36J+P8P,Jamnagar,361001,Gujarat,IN,https://www.google.com/maps/place/Noori+Navi+Masjid/data=!4m7!3m6!1s0x39576aecf5402db3:0x78304bdce14859ae!8m2!3d22.4618454!4d70.0808282!16s%2Fg%2F11c6wnnsll!19sChIJsy1A9exqVzkRrllI4dxLMHg?authuser=0&hl=en&rclk=1,"22.461845399999998,70.0808282"
Gousiya Masjid,Mosque,"F3GW+W8C Gousiya Masjid, Gulabnagar, Jamnagar, Gujarat 361007",Gulabnagar,F3GW+W8C,Jamnagar,361007,Gujarat,IN,https://www.google.com/maps/place/Gousiya+Masjid/data=!4m7!3m6!1s0x39576a88779b3555:0xf39254bb3a727658!8m2!3d22.4773068!4d70.0957628!16s%2Fg%2F11c1qxznlf!19sChIJVTWbd4hqVzkRWHZyOrtUkvM?authuser=0&hl=en&rclk=1,"22.477306799999997,70.0957628"
Akbar Shah Masjid,Mosque,"F36J+564 Akbar Shah Masjid, Motapir chauk, near Rangoonwala Hospital, Jamnagar, Gujarat 361001",Kishan Park Society,"F36J+564, Motapir chauk, near Rangoonwala Hospital",Jamnagar,361001,Gujarat,IN,https://www.google.com/maps/place/Akbar+Shah+Masjid/data=!4m7!3m6!1s0x39576aec70e18e0f:0x12bc74a792bffb54!8m2!3d22.4603758!4d70.0805721!16s%2Fg%2F11fy4l_1wj!19sChIJD47hcOxqVzkRVPu_kqd0vBI?authuser=0&hl=en&rclk=1,"22.460375799999998,70.0805721"
Jambudi Masjid,Mosque,"F35H+P6Q Jambudi Masjid, ghanchi waad, Ghanchiwad, Kalol, Jamnagar, Gujarat 361001",Ghanchiwad,"F35H+P6Q, ghanchi waad","Kalol, Jamnagar",,Gujarat,IN,https://www.google.com/maps/place/Jambudi+Masjid/data=!4m7!3m6!1s0x39576aebc71d08af:0xb5d643d6b51194d5!8m2!3d22.4593475!4d70.0780964!16s%2Fg%2F11f3pjgqz2!19sChIJrwgdx-tqVzkR1ZQRtdZD1rU?authuser=0&hl=en&rclk=1,"22.4593475,70.07809639999999"
Siddiq E Akbar Masjid,Mosque,"F35G+579 Siddiq E Akbar Masjid, Kishan Park Society, Jamnagar, Gujarat 361001",Kishan Park Society,F35G+579,Jamnagar,361001,Gujarat,IN,https://www.google.com/maps/place/Siddiq+E+Akbar+Masjid/data=!4m7!3m6!1s0x39576aea2046efa5:0x5935c15d8e4d544c!8m2!3d22.4579142!4d70.0757393!16s%2Fg%2F11cmswx9h1!19sChIJpe9GIOpqVzkRTFRNjl3BNVk?authuser=0&hl=en&rclk=1,"22.457914199999998,70.0757393"
Vaal Bai Masjid,Mosque,"Vaal Bai Masjid, Jamnagar Rd, behind Grain Market, Nagnath Gate, Jamnagar, Gujarat 361001",Nagnath Gate,"Jamnagar Rd, behind Grain Market",Jamnagar,361001,Gujarat,IN,https://www.google.com/maps/place/Vaal+Bai+Masjid/data=!4m7!3m6!1s0x39576a942396309f:0x9d5ee5aa8f81ccf0!8m2!3d22.469047!4d70.0782909!16s%2Fg%2F11dxjmxfnx!19sChIJnzCWI5RqVzkR8MyBj6rlXp0?authuser=0&hl=en&rclk=1,"22.469047,70.0782909"
Garib Nagar Masjid,Mosque,"F2WQ+8MM Garib Nagar Masjid, Bedi, Bedeswer, Jamnagar, Gujarat 361002","Bedi, Bedeswer",F2WQ+8MM,Jamnagar,361002,Gujarat,IN,https://www.google.com/maps/place/Garib+Nagar+Masjid/data=!4m7!3m6!1s0x39573fc7a48f2a0d:0x1678a81945c1d0bf!8m2!3d22.495827!4d70.039177!16s%2Fg%2F11gvr86vk_!19sChIJDSqPpMc_VzkRv9DBRRmoeBY?authuser=0&hl=en&rclk=1,"22.495827,70.039177"
Khatki Masjid,Mosque,"F38J+8GG Khatki Masjid, Kadiawad, Jamnagar, Gujarat 361001",Kadiawad,F38J+8GG,Jamnagar,361001,Gujarat,IN,https://www.google.com/maps/place/Khatki+Masjid/data=!4m7!3m6!1s0x39576a936a4cc89d:0x774bd925846932b6!8m2!3d22.4658076!4d70.0813258!16s%2Fg%2F1tgckprf!19sChIJnchMapNqVzkRtjJphCXZS3c?authuser=0&hl=en&rclk=1,"22.465807599999998,70.0813258"
Kansumra Eidgah Masjid,Mosque,"C2FH+FR7 Kansumra Eidgah Masjid, Kansumara, Jamnagar, Gujarat 361001",,"C2FH+FR7, Kansumara",Jamnagar,361001,Gujarat,IN,https://www.google.com/maps/place/Kansumra+Eidgah+Masjid/data=!4m7!3m6!1s0x395714dcd5ec33f7:0x6cafd657f2e7022c!8m2!3d22.4236548!4d70.029532!16s%2Fg%2F11b7lnj9mh!19sChIJ9zPs1dwUVzkRLALn8lfWr2w?authuser=0&hl=en&rclk=1,"22.423654799999998,70.029532"
Jamnagar Eidgah,Mosque,"F357+6GF Jamnagar Eidgah, Bassav Nagar, Jamnagar, Gujarat 361005",Bassav Nagar,F357+6GF,Jamnagar,361005,Gujarat,IN,https://www.google.com/maps/place/Jamnagar+Eidgah/data=!4m7!3m6!1s0x39576ac640b10ffb:0x7d5df85da0f78cbc!8m2!3d22.4580712!4d70.0637814!16s%2Fg%2F11g8v1qyzm!19sChIJ-w-xQMZqVzkRvIz3oF34XX0?authuser=0&hl=en&rclk=1,"22.4580712,70.0637814"
jumma masjid hapa,Mosque,"jumma masjid hapa, Hapa Industrial Area, Jamnagar, Gujarat 361120",Hapa Industrial Area,,Jamnagar,361120,Gujarat,IN,https://www.google.com/maps/place/jumma+masjid+hapa/data=!4m7!3m6!1s0x39576a6b05845923:0x1195fb5104504e96!8m2!3d22.4726401!4d70.1190121!16s%2Fg%2F11gbxc11vt!19sChIJI1mEBWtqVzkRlk5QBFH7lRE?authuser=0&hl=en&rclk=1,"22.4726401,70.11901209999999"
Kamagar Masjid,Mosque,"Kamagar Masjid, Kishan Park Society, Jamnagar, Gujarat 361001",Kishan Park Society,,Jamnagar,,Gujarat,IN,https://www.google.com/maps/place/Kamagar+Masjid/data=!4m7!3m6!1s0x39576aec9da17283:0x4443739b840dbe7c!8m2!3d22.4621193!4d70.0801939!16s%2Fg%2F1tncr95_!19sChIJg3KhnexqVzkRfL4NhJtzQ0Q?authuser=0&hl=en&rclk=1,"22.462119299999998,70.0801939"
Ratanbai Mosque,Mosque,"Ratanbai Mosque, Circle, Ratanbai Masjid, Jamnagar, Gujarat 361001","Chandi Bazar, Panchasar, Kadiawad","Circle, Ratanbai Masjid",Jamnagar,361001,Gujarat,IN,https://www.google.com/maps/place/Ratanbai+Mosque/data=!4m7!3m6!1s0x39576b5d0623a3cd:0x9440f5d92440c86a!8m2!3d22.4664559!4d70.0775652!16s%2Fg%2F11rcs6y0bz!19sChIJzaMjBl1rVzkRashAJNn1QJQ?authuser=0&hl=en&rclk=1,"22.4664559,70.0775652"
Aamena masjid,Mosque,"C3XC+73M Aamena masjid, Nilkanth Nagar, Nandanvan Society, Jamnagar, Gujarat 361005","Nilkanth Nagar, Nandanvan Society",C3XC+73M,Jamnagar,361005,Gujarat,IN,https://www.google.com/maps/place/Aamena+masjid/data=!4m7!3m6!1s0x39576adc596fd947:0xd004c50a0f37ccef!8m2!3d22.448222!4d70.0701768!16s%2Fg%2F11f__6qcpq!19sChIJR9lvWdxqVzkR78w3DwrFBNA?authuser=0&hl=en&rclk=1,"22.448221999999998,70.0701768"
Masjide Mohamandi,Mosque,"G24H+PQF Masjide Mohamandi, Bedeswer, Jamnagar, Gujarat 361009",Bedeswer,G24H+PQF,Jamnagar,361009,Gujarat,IN,https://www.google.com/maps/place/Masjide+Mohamandi/data=!4m7!3m6!1s0x39573fb8343ad391:0xa0ba1c5c6d74eb4f!8m2!3d22.5068241!4d70.0294176!16s%2Fg%2F11fj7x4dqr!19sChIJkdM6NLg_VzkRT-t0bVwcuqA?authuser=0&hl=en&rclk=1,"22.5068241,70.0294176"
KHATKI WAD,Historical landmark,"F38M+F42 KHATKI WAD, Nagina Masjid Rd, Kadiawad, Jamnagar, Gujarat 361001",Kadiawad,"F38M+F42, Nagina Masjid Rd",Jamnagar,361001,Gujarat,IN,https://www.google.com/maps/place/KHATKI+WAD/data=!4m7!3m6!1s0x39576bce45ead693:0xc631f3f7587994b5!8m2!3d22.4661465!4d70.0827554!16s%2Fg%2F11pwqb_wgy!19sChIJk9bqRc5rVzkRtZR5WPfzMcY?authuser=0&hl=en&rclk=1,"22.4661465,70.0827554"
Goval Ni Masjid,Mosque,"F38F+426 Goval Ni Masjid, Rajgorfali-2, Pancheshwar Tower, Jamnagar, Gujarat 361001","Rajgorfali-2, Pancheshwar Tower",F38F+426,Jamnagar,361001,Gujarat,IN,https://www.google.com/maps/place/Goval+Ni+Masjid/data=!4m7!3m6!1s0x39576a95774cbd95:0xa2449a134459b284!8m2!3d22.4652757!4d70.072525!16s%2Fg%2F1q64pdpc_!19sChIJlb1Md5VqVzkRhLJZRBOaRKI?authuser=0&hl=en&rclk=1,"22.4652757,70.072525"
Hajiyani ratanbai masjid,Mosque,"F34M+8H4 Hajiyani ratanbai masjid, Unnamed Road, Jamnagar, Gujarat 361110",,"F34M+8H4, Unnamed Road",Jamnagar,361110,Gujarat,IN,https://www.google.com/maps/place/Hajiyani+ratanbai+masjid/data=!4m7!3m6!1s0x39576bf8cef88d11:0xb93af8e9c2992ce0!8m2!3d22.4557691!4d70.0839491!16s%2Fg%2F11h8vk58b1!19sChIJEY34zvhrVzkR4CyZwun4Ork?authuser=0&hl=en&rclk=1,"22.455769099999998,70.0839491"
"Taheri Masjid, NizaamFali",Mosque,"F35H+R3Q Taheri Masjid, NizaamFali, Kishan Park Society, Jamnagar, Gujarat 361001",Kishan Park Society,F35H+R3Q,Jamnagar,361001,Gujarat,IN,"https://www.google.com/maps/place/Taheri+Masjid,+NizaamFali/data=!4m7!3m6!1s0x39576aebb7ec5b63:0xb3e75d9aa4c9b9d9!8m2!3d22.459582!4d70.0777291!16s%2Fg%2F11g6j902jb!19sChIJY1vst-tqVzkR2bnJpJpd57M?authuser=0&hl=en&rclk=1","22.459581999999997,70.0777291"
Zakavi masjid,Mosque,"F3GM+874 Zakavi masjid, Nageshwar, Zakavi Mohalla, Nageshwar Colony, Jamnagar, Gujarat 361008","Nageshwar, Zakavi Mohalla, Nageshwar Colony",F3GM+874,Jamnagar,361008,Gujarat,IN,https://www.google.com/maps/place/Zakavi+masjid/data=!4m7!3m6!1s0x39576a907fa2bb03:0x49e9fd8eceb7d788!8m2!3d22.4757581!4d70.0832067!16s%2Fg%2F11dx8_vz_s!19sChIJA7uif5BqVzkRiNe3zo796Uk?authuser=0&hl=en&rclk=1,"22.4757581,70.08320669999999"
Madina Masjid,Mosque,"F36H+WWG Madina Masjid, Kishan Park Society, Jamnagar, Gujarat 361001",Kishan Park Society,F36H+WWG,Jamnagar,361001,Gujarat,IN,https://www.google.com/maps/place/Madina+Masjid/data=!4m7!3m6!1s0x39576aeb616cac59:0x9f52289bd47db7ce!8m2!3d22.4623223!4d70.0798324!16s%2Fg%2F11c6_6s9q5!19sChIJWaxsYetqVzkRzrd91JsoUp8?authuser=0&hl=en&rclk=1,"22.4623223,70.0798324"
KSI Jamat Jamnagar,Mosque,"F35G+HFR KSI Jamat Jamnagar, KSI Masjid, Sabji market, Khoja Naka Rd, Jamnagar, Gujarat 361005",Kishan Park Society,"F35G+HFR, KSI Masjid, Sabji market, Khoja Naka Rd",Jamnagar,361005,Gujarat,IN,https://www.google.com/maps/place/KSI+Jamat+Jamnagar/data=!4m7!3m6!1s0x39576b7ebcf11977:0xb883b2a5cbb1a47a!8m2!3d22.4589871!4d70.0761287!16s%2Fg%2F11g0gb3zn3!19sChIJdxnxvH5rVzkReqSxy6Wyg7g?authuser=0&hl=en&rclk=1,"22.458987099999998,70.0761287"
Masjide Hussaini,Mosque,"F3W2+5F8 Masjide Hussaini, Bedeswer, Jamnagar, Gujarat 361009",Bedeswer,F3W2+5F8,Jamnagar,361009,Gujarat,IN,https://www.google.com/maps/place/Masjide+Hussaini/data=!4m7!3m6!1s0x39574008105a45cf:0x638820229fd3e079!8m2!3d22.4954135!4d70.0511898!16s%2Fg%2F11f33p2t3b!19sChIJz0VaEAhAVzkReeDTnyIgiGM?authuser=0&hl=en&rclk=1,"22.495413499999998,70.0511898"
NAGINA MASJID,Mosque,"F38M+X27 NAGINA MASJID, Suyani fali, Bhoivada Rd, Jamnagar, Gujarat 361001",Kadiawad,"F38M+X27, Suyani fali, Bhoivada Rd",Jamnagar,361001,Gujarat,IN,https://www.google.com/maps/place/NAGINA+MASJID/data=!4m7!3m6!1s0x39576a93a972dee3:0x4875fcd0602198f!8m2!3d22.4674168!4d70.0825497!16s%2Fg%2F11clv7z_5f!19sChIJ495yqZNqVzkRjxkCBs1fhwQ?authuser=0&hl=en&rclk=1,"22.4674168,70.0825497"
Masjid e Mariam,Mosque,"Masjid e Mariam, Maharja Society, Jamnagar, Gujarat 361110",Maharja Society,,Jamnagar,361110,Gujarat,IN,https://www.google.com/maps/place/Masjid+e+Mariam/data=!4m7!3m6!1s0x39576bb80446a825:0xc09a3b4a494d1d2!8m2!3d22.4599281!4d70.0903367!16s%2Fg%2F11fq08dhd0!19sChIJJahGBLhrVzkR0tGUpLSjCQw?authuser=0&hl=en&rclk=1,"22.4599281,70.0903367"
Sunni Seta Masjid,Mosque,"F36F+37X Sunni Seta Masjid, Unnamed Road, Kishan Park Society, Jamnagar, Gujarat 361001",Kishan Park Society,"F36F+37X, Unnamed Road",Jamnagar,361001,Gujarat,IN,https://www.google.com/maps/place/Sunni+Seta+Masjid/data=!4m7!3m6!1s0x39576ac1cd246181:0x74b8d20cbf2e8838!8m2!3d22.460238!4d70.0732328!16s%2Fg%2F11f2grqwn9!19sChIJgWEkzcFqVzkROIguvwzSuHQ?authuser=0&hl=en&rclk=1,"22.460238,70.0732328"
Masjide subahani (msjid subhaanii),Mosque,"F2JQ+RQF Masjide subahani (msjid subhaanii), Unnamed Road, Mayur Nagar, Jamnagar, Gujarat 361002",Mayur Nagar,"F2JQ+RQF, Unnamed Road",Jamnagar,361002,Gujarat,IN,https://www.google.com/maps/place/Masjide+subahani+%28%E0%AA%AE%E0%AA%B8%E0%AB%8D%E0%AA%9C%E0%AA%BF%E0%AA%A6+%E0%AA%B8%E0%AB%81%E0%AA%AC%E0%AA%B9%E0%AA%BE%E0%AA%A8%E0%AB%80%29/data=!4m7!3m6!1s0x39573f0c7329a7eb:0xfd155111044d1aba!8m2!3d22.4820652!4d70.0394156!16s%2Fg%2F11hz1hf6tg!19sChIJ66cpcww_VzkRuhpNBBFRFf0?authuser=0&hl=en&rclk=1,"22.482065199999997,70.0394156"
Teen batti Masjid (Tabliki Jamat),Mosque,"F3CC+P74 Teen batti Masjid (Tabliki Jamat), Maheswari Nagar, Kadiawad, Jamnagar, Gujarat 361001","Maheswari Nagar, Kadiawad",F3CC+P74,Jamnagar,361001,Gujarat,IN,https://www.google.com/maps/place/Teen+batti+Masjid+%28Tabliki+Jamat%29/data=!4m7!3m6!1s0x39576b66b4f3bd4f:0x862879cb70e46caf!8m2!3d22.4717553!4d70.070717!16s%2Fg%2F11fhr71cm3!19sChIJT73ztGZrVzkRr2zkcMt5KIY?authuser=0&hl=en&rclk=1,"22.471755299999998,70.070717"
Hajarat Habibsha Dargah,Mosque,"F3R5+FCQ Hajarat Habibsha Dargah, Rd Number 3, Momai Nagar, Patel Colony, Jamnagar, Gujarat 361008","Momai Nagar, Patel Colony","F3R5+FCQ, Rd Number 3",Jamnagar,361008,Gujarat,IN,https://www.google.com/maps/place/Hajarat+Habibsha+Dargah/data=!4m7!3m6!1s0x39574004678c86ab:0x749c09c527495131!8m2!3d22.491204!4d70.0586048!16s%2Fg%2F11cs3qptsw!19sChIJq4aMZwRAVzkRMVFJJ8UJnHQ?authuser=0&hl=en&rclk=1,"22.491204,70.0586048"
HASHMI MADRESA,Place of worship,"HASHMI MADRESA, Society, Maharja Society, Makvana, Jamnagar, Gujarat 361110",Maharja Society,Society,"Makvana, Jamnagar",361110,Gujarat,IN,https://www.google.com/maps/place/HASHMI+MADRESA/data=!4m7!3m6!1s0x39576bd98638e41b:0x79f8daf3c51c2c5d!8m2!3d22.4615588!4d70.0891987!16s%2Fg%2F11ghffgx4h!19sChIJG-Q4htlrVzkRXSwcxfPa-Hk?authuser=0&hl=en&rclk=1,"22.4615588,70.0891987"
Masjid Ahmed I Raza,Mosque,"F34Q+9W9 Masjid Ahmed I Raza, Unnamed Road, Maharja Society, Jamnagar, Gujarat 361110",Maharja Society,"F34Q+9W9, Unnamed Road",Jamnagar,361110,Gujarat,IN,https://www.google.com/maps/place/Masjid+Ahmed+I+Raza/data=!4m7!3m6!1s0x39576b0736fb0a63:0xa051a76e03d8450f!8m2!3d22.4559065!4d70.089857!16s%2Fg%2F11my82qxxq!19sChIJYwr7NgdrVzkRD0XYA26nUaA?authuser=0&hl=en&rclk=1,"22.455906499999998,70.089857"
Arifmiya Masjid,Mosque,"F37C+QXG Arifmiya Masjid, Jalani Jar, Kadiawad, Jamnagar, Gujarat 361001","Jalani Jar, Kadiawad",F37C+QXG,Jamnagar,361001,Gujarat,IN,https://www.google.com/maps/place/Arifmiya+Masjid/data=!4m7!3m6!1s0x39576abfb8d791fd:0x585157feeacd02a1!8m2!3d22.4644251!4d70.0724636!16s%2Fg%2F11b_03q6tl!19sChIJ_ZHXuL9qVzkRoQLN6v5XUVg?authuser=0&hl=en&rclk=1,"22.4644251,70.07246359999999"
MASJID E GAUSIYA,Mosque,"F34F+GW6 MASJID E GAUSIYA, Kishan Park Society, Jamnagar, Gujarat 361005",Kishan Park Society,F34F+GW6,Jamnagar,361005,Gujarat,IN,https://www.google.com/maps/place/MASJID+E+GAUSIYA/data=!4m7!3m6!1s0x39576ae9e78e09af:0xab18a382894b8a24!8m2!3d22.4562806!4d70.0747594!16s%2Fg%2F11g7044n2d!19sChIJrwmO5-lqVzkRJIpLiYKjGKs?authuser=0&hl=en&rclk=1,"22.4562806,70.07475939999999"
Madarsa mohammadiyah Masjid,Mosque,"F35G+9Q6 Madarsa mohammadiyah Masjid, Kishan Park Society, Jamnagar, Gujarat 361001",Kishan Park Society,F35G+9Q6,Jamnagar,361001,Gujarat,IN,https://www.google.com/maps/place/Madarsa+mohammadiyah+Masjid/data=!4m7!3m6!1s0x39576bbd12da0793:0x2492407eaa7cf64!8m2!3d22.4584232!4d70.0769035!16s%2Fg%2F11h9bbqm1d!19sChIJkwfaEr1rVzkRZM-n6gckSQI?authuser=0&hl=en&rclk=1,"22.4584232,70.0769035"
Jumma Masjid Secondary School,School,"Jumma Masjid Secondary School, Chandi Bazar Rd, Jalani Jar, Kadiawad, Jamnagar, Gujarat 361001","Jalani Jar, Kadiawad",Chandi Bazar Rd,Jamnagar,361001,Gujarat,IN,https://www.google.com/maps/place/Jumma+Masjid+Secondary+School/data=!4m7!3m6!1s0x39576ab96aa69ee3:0xa7dd20ff44173eef!8m2!3d22.4632976!4d70.0776622!16s%2Fg%2F1tplj3gx!19sChIJ456marlqVzkR7z4XRP8g3ac?authuser=0&hl=en&rclk=1,"22.4632976,70.07766219999999"
Gulabsha shelani pir jodiya Bhunga,Mosque,"G23M+256 Gulabsha shelani pir jodiya Bhunga, Bedi Port Rd, Bedi, Bedeswer, Jamnagar, Gujarat 361009","Bedi, Bedeswer","G23M+256, Bedi Port Rd",Jamnagar,361009,Gujarat,IN,https://www.google.com/maps/place/Gulabsha+shelani+pir+jodiya+Bhunga/data=!4m7!3m6!1s0x39573feca4094853:0x6d6983c75823aad2!8m2!3d22.5025311!4d70.0328981!16s%2Fg%2F11gfbcmnth!19sChIJU0gJpOw_VzkR0qojWMeDaW0?authuser=0&hl=en&rclk=1,"22.5025311,70.0328981"
Bukhari Shah Wali Dargah Sharif,Mosque,"F3CC+C9P Bukhari Shah Wali Dargah Sharif, Tin Batti Circle, near Shree Ram Dairy Ice Cream, Jamnagar, Gujarat 361001",Patrakar Colony,"F3CC+C9P, Tin Batti Circle, near Shree Ram Dairy Ice Cream",Jamnagar,361001,Gujarat,IN,https://www.google.com/maps/place/Bukhari+Shah+Wali+Dargah+Sharif/data=!4m7!3m6!1s0x39576abc54801959:0x57a97735913dfea7!8m2!3d22.471091!4d70.0709459!16s%2Fg%2F11gg6bwwqx!19sChIJWRmAVLxqVzkRp_49kTV3qVc?authuser=0&hl=en&rclk=1,"22.471090999999998,70.0709459"
shekh pir masjid,Mosque,"F38J+6VV shekh pir masjid, Kadiawad, Jamnagar, Gujarat 361001",Kadiawad,F38J+6VV,Jamnagar,361001,Gujarat,IN,https://www.google.com/maps/place/shekh+pir+masjid/data=!4m7!3m6!1s0x39576a933d0f3477:0x6ebde57696c0f677!8m2!3d22.4656118!4d70.0821573!16s%2Fg%2F1261784xw!19sChIJdzQPPZNqVzkRd_bAlnblvW4?authuser=0&hl=en&rclk=1,"22.465611799999998,70.08215729999999"
Bedi Kabrastan,Mosque,"F2WV+H9R Bedi Kabrastan, Bedi Port Rd, Bedi, Bedeswer, Jamnagar, Gujarat 361009","Bedi, Bedeswer","F2WV+H9R, Bedi Port Rd",Jamnagar,361009,Gujarat,IN,https://www.google.com/maps/place/Bedi+Kabrastan/data=!4m7!3m6!1s0x39573f2a041f5713:0x8d1fa5102b83c8aa!8m2!3d22.4964933!4d70.0433867!16s%2Fg%2F11ftlzrf05!19sChIJE1cfBCo_VzkRqsiDKxClH40?authuser=0&hl=en&rclk=1,"22.496493299999997,70.0433867"
Noor -E- Mohammedi Kasai Masjid,Mosque,"F36J+V8P Noor -E- Mohammedi Kasai Masjid, Kishan Park Society, Jamnagar, Gujarat 361001",Kishan Park Society,F36J+V8P,Jamnagar,361001,Gujarat,IN,https://www.google.com/maps/place/Noor+-E-+Mohammedi+Kasai+Masjid/data=!4m7!3m6!1s0x39576b04dcc51ce1:0xf7f52c75be91b4f2!8m2!3d22.462203!4d70.0808265!16s%2Fg%2F11fmf1gt75!19sChIJ4RzF3ARrVzkR8rSRvnUs9fc?authuser=0&hl=en&rclk=1,"22.462203,70.0808265"
Eid Masjid,Mosque,"F2WW+59H Eid Masjid, Bedi, Bedeswer, Jamnagar, Gujarat 361009","Bedi, Bedeswer",F2WW+59H,Jamnagar,361009,Gujarat,IN,https://www.google.com/maps/place/Eid+Masjid/data=!4m7!3m6!1s0x39573ff71464b90f:0xbb3f0886d2b507b1!8m2!3d22.4954472!4d70.0459743!16s%2Fg%2F11b6d_rybr!19sChIJD7lkFPc_VzkRsQe10oYIP7s?authuser=0&hl=en&rclk=1,"22.495447199999997,70.0459743"
Ibrahimya madrsa and Masjide,Mosque,"F33G+PJ5 Ibrahimya madrsa and Masjide, Kishan Park Society, Jamnagar, Gujarat 361005",Kishan Park Society,F33G+PJ5,Jamnagar,361005,Gujarat,IN,https://www.google.com/maps/place/Ibrahimya+madrsa+and+Masjide/data=!4m7!3m6!1s0x39576b8d1172b6bb:0x98c3f3b9eae14e7e!8m2!3d22.4542606!4d70.0766249!16s%2Fg%2F11rrzt4zfj!19sChIJu7ZyEY1rVzkRfk7h6rnzw5g?authuser=0&hl=en&rclk=1,"22.454260599999998,70.0766249"
Kamilsha Bilalsha Dada Masjid,Shrine,"F37J+C26 Kamilsha Bilalsha Dada Masjid, Lindi bazar maniyar street, Jamnagar, 361001",Kishan Park Society,"F37J+C26, Lindi bazar maniyar street",Jamnagar,361001,Gujarat,IN,https://www.google.com/maps/place/Kamilsha+Bilalsha+Dada+Masjid/data=!4m7!3m6!1s0x39576aeb57cc905f:0x3b967e641b63e48!8m2!3d22.4635287!4d70.0800263!16s%2Fg%2F11ckvp79_k!19sChIJX5DMV-tqVzkRSD62QeZnuQM?authuser=0&hl=en&rclk=1,"22.463528699999998,70.0800263"
Dholiya Pir Dargah,Mosque,"F3HM+35X Dholiya Pir Dargah, Unnamed Road, Nageshwar, Nageshwar Colony, Jamnagar, Gujarat 361008","Nageshwar, Nageshwar Colony","F3HM+35X, Unnamed Road",Jamnagar,361008,Gujarat,IN,https://www.google.com/maps/place/Dholiya+Pir+Dargah/data=!4m7!3m6!1s0x39576b2f7fee1585:0xfe23dd1273cbe2e4!8m2!3d22.4777455!4d70.0829949!16s%2Fg%2F11f7ptxtyg!19sChIJhRXufy9rVzkR5OLLcxLdI_4?authuser=0&hl=en&rclk=1,"22.477745499999997,70.0829949"
Ya Hazarat Shah Musafir Vali Dargah Sharif,Mosque,"F3CF+454 Ya Hazarat Shah Musafir Vali Dargah Sharif, Bedi Gate, near Super Market, Jamnagar, Gujarat 361001","Maheswari Nagar, Kadiawad","F3CF+454, Bedi Gate, near Super Market",Jamnagar,361001,Gujarat,IN,https://www.google.com/maps/place/Ya+Hazarat+Shah+Musafir+Vali+Dargah+Sharif/data=!4m7!3m6!1s0x39576abdeb5d9f29:0x3664f5a33fdba38e!8m2!3d22.4702573!4d70.0729389!16s%2Fg%2F11ggrlb6mp!19sChIJKZ9d671qVzkRjqPbP6P1ZDY?authuser=0&hl=en&rclk=1,"22.4702573,70.0729389"
Galeriya Masjid,Mosque,"F36H+RCH Galeriya Masjid, Mullamedi Rd, Kishan Park Society, Jamnagar, Gujarat 361001",Kishan Park Society,"F36H+RCH, Mullamedi Rd",Jamnagar,361001,Gujarat,IN,https://www.google.com/maps/place/Galeriya+Masjid/data=!4m7!3m6!1s0x39576aeb6caa99f5:0x95a5caa2f643c623!8m2!3d22.4620744!4d70.078605!16s%2Fg%2F11dxhg9zhc!19sChIJ9ZmqbOtqVzkRI8ZD9qLKpZU?authuser=0&hl=en&rclk=1,"22.4620744,70.078605"
Sati Masjid,Mosque,"F36J+99P Sati Masjid, Kishan Park Society, Jamnagar, Gujarat 361001",Kishan Park Society,F36J+99P,Jamnagar,361001,Gujarat,IN,https://www.google.com/maps/place/Sati+Masjid/data=!4m7!3m6!1s0x39576aec63613b5d:0x47d821568ac64891!8m2!3d22.4609683!4d70.0809385!16s%2Fg%2F11g9vqn57g!19sChIJXTthY-xqVzkRkUjGilYh2Ec?authuser=0&hl=en&rclk=1,"22.460968299999998,70.0809385"
Mohammedi Baug Masjid,Mosque,"F3CC+FHC Mohammedi Baug Masjid, Maheswari Nagar, Kadiawad, Jamnagar, Gujarat 361001","Maheswari Nagar, Kadiawad",F3CC+FHC,Jamnagar,361001,Gujarat,IN,https://www.google.com/maps/place/Mohammedi+Baug+Masjid/data=!4m7!3m6!1s0x39576b05d9faa2e5:0x399c548192a7d427!8m2!3d22.4711929!4d70.0713942!16s%2Fg%2F11f9xn4_2h!19sChIJ5aL62QVrVzkRJ9SnkoFUnDk?authuser=0&hl=en&rclk=1,"22.4711929,70.0713942"
AL HUSHENI MASJID TITAFALI,Mosque,"F35H+VVV AL HUSHENI MASJID TITAFALI, Al Husheni masjid, titafali, Kishan Park Society, Jamnagar, Gujarat 361001",Kishan Park Society,"F35H+VVV, Al Husheni masjid, titafali",Jamnagar,361001,Gujarat,IN,https://www.google.com/maps/place/AL+HUSHENI+MASJID+TITAFALI/data=!4m7!3m6!1s0x39576b2e165a5b2b:0xba7a1aed20264e3a!8m2!3d22.4597445!4d70.0796719!16s%2Fg%2F11h6qcvh1j!19sChIJK1taFi5rVzkROk4mIO0aero?authuser=0&hl=en&rclk=1,"22.4597445,70.0796719"
melddiimaaN nu mNdiir,Hindu temple,"F2WQ+5C6 melddiimaaN nu mNdiir, Bedeswer, Jamnagar, Gujarat 361002",Bedeswer,F2WQ+5C6,Jamnagar,361002,Gujarat,IN,https://www.google.com/maps/place/%E0%AA%AE%E0%AB%87%E0%AA%B2%E0%AA%A1%E0%AB%80%E0%AA%AE%E0%AA%BE%E0%AA%82+%E0%AA%A8%E0%AB%81+%E0%AA%AE%E0%AA%82%E0%AA%A6%E0%AB%80%E0%AA%B0/data=!4m7!3m6!1s0x39573f65512a600f:0x34640d50347868b0!8m2!3d22.4954035!4d70.0385519!16s%2Fg%2F11pv63yy2h!19sChIJD2AqUWU_VzkRsGh4NFANZDQ?authuser=0&hl=en&rclk=1,"22.4954035,70.0385519"
Gulame Huseni Kamety,Mosque,"G22V+7J3 Gulame Huseni Kamety, Bedeswer, Jamnagar, Gujarat 361009",Bedeswer,G22V+7J3,Jamnagar,361009,Gujarat,IN,https://www.google.com/maps/place/Gulame+Huseni+Kamety/data=!4m7!3m6!1s0x39573fe44c683739:0x62fe24717221aacd!8m2!3d22.5006384!4d70.0440437!16s%2Fg%2F11kgzcj_zn!19sChIJOTdoTOQ_VzkRzaohcnEk_mI?authuser=0&hl=en&rclk=1,"22.5006384,70.0440437"
Aambli Pir Dargah,Mosque,"F36J+GHP Aambli Pir Dargah, Unnamed Road, Kishan Park Society, Jamnagar, Gujarat 361001",Kishan Park Society,"F36J+GHP, Unnamed Road",Jamnagar,361001,Gujarat,IN,https://www.google.com/maps/place/Aambli+Pir+Dargah/data=!4m7!3m6!1s0x39576b7e815fd48d:0xbd6daa6e43ac564!8m2!3d22.4613484!4d70.0814683!16s%2Fg%2F11fjz8xv0k!19sChIJjdRfgX5rVzkRZMU65Kba1gs?authuser=0&hl=en&rclk=1,"22.4613484,70.0814683"
Maniyar Masjid,Mosque,"F37H+QRP Maniyar Masjid, Darbargadh, Kadiawad, Jamnagar, Gujarat 361001","Darbargadh, Kadiawad",F37H+QRP,Jamnagar,361001,Gujarat,IN,https://www.google.com/maps/place/Maniyar+Masjid/data=!4m7!3m6!1s0x39576ba6fc0eda73:0xc1c1b3a8d8b16633!8m2!3d22.4644506!4d70.0795787!16s%2Fg%2F11fsvh7qwt!19sChIJc9oO_KZrVzkRM2ax2KizwcE?authuser=0&hl=en&rclk=1,"22.4644506,70.0795787"
Ayesha Masjid,Mosque,"F35P+HCW Ayesha Masjid, Maharja Society, Jamnagar, Gujarat 361110",Maharja Society,F35P+HCW,Jamnagar,361110,Gujarat,IN,https://www.google.com/maps/place/Ayesha+Masjid/data=!4m7!3m6!1s0x39576af1ffd00001:0x87714a4349733524!8m2!3d22.4589806!4d70.0860871!16s%2Fg%2F11txmzcyl8!19sChIJAQDQ__FqVzkRJDVzSUNKcYc?authuser=0&hl=en&rclk=1,"22.4589806,70.0860871"
Zainee Masjid,Mosque,"F3FM+X82 Zainee Masjid, Nageshwar, Zakavi Mohalla, Nageshwar Colony, Jamnagar, Gujarat 361008","Nageshwar, Zakavi Mohalla, Nageshwar Colony",F3FM+X82,Jamnagar,361008,Gujarat,IN,https://www.google.com/maps/place/Zainee+Masjid/data=!4m7!3m6!1s0x39576a9063d22f3f:0xfbb1afacc5ff400b!8m2!3d22.4748828!4d70.0832675!16s%2Fg%2F11c1vlk1cj!19sChIJPy_SY5BqVzkRC0D_xayvsfs?authuser=0&hl=en&rclk=1,"22.4748828,70.08326749999999"
Rehmani Masjid,Mosque,"C3W9+47W Rehmani Masjid, Banglawadi, Titodiwadi, Khoja Gate, Gujarat 361005","Nandanvan Park, Nandanvan Society","C3W9+47W, Banglawadi, Titodiwadi, Khoja Gate",Jamnagar,361005,Gujarat,IN,https://www.google.com/maps/place/Rehmani+Masjid/data=!4m7!3m6!1s0x39576b3af7fd81fd:0x22d7eeb9b76ce1fc!8m2!3d22.445371!4d70.0682157!16s%2Fg%2F11qqsj__6f!19sChIJ_YH99zprVzkR_OFst7nu1yI?authuser=0&hl=en&rclk=1,"22.445370999999998,70.0682157"
Mohammedi Masjid Vachlifali,Mosque,"F37J+2M3 Mohammedi Masjid Vachlifali, Panchatdi Rd, Near Ajwa Diary, Kadiawad, Jamnagar, Gujarat 361001",Kadiawad,"F37J+2M3, Panchatdi Rd, Near Ajwa Diary",Jamnagar,,Gujarat,IN,https://www.google.com/maps/place/Mohammedi+Masjid+Vachlifali/data=!4m7!3m6!1s0x39576ba6d9a03a5d:0xe9af434bc32d4b27!8m2!3d22.4625033!4d70.0816844!16s%2Fg%2F11g4f265hg!19sChIJXTqg2aZrVzkRJ0stw0tDr-k?authuser=0&hl=en&rclk=1,"22.462503299999998,70.0816844"
Tayyabi Masjid,Mosque,"Tayyabi Masjid, 501, Gujarat State Highway 26, Aman Society, Gujarat State Highway 26, Aman Society, Maharja Society, Jamnagar, Gujarat 361110","Aman Society, Maharja Society","501, Gujarat State Highway 26, Aman Society, Gujarat State Highway 26",Jamnagar,361110,Gujarat,IN,https://www.google.com/maps/place/Tayyabi+Masjid/data=!4m7!3m6!1s0x39576aeccf8d6675:0x43e3c433f1d668c6!8m2!3d22.4636505!4d70.0822189!16s%2Fg%2F11dzss81z2!19sChIJdWaNz-xqVzkRxmjW8TPE40M?authuser=0&hl=en&rclk=1,"22.4636505,70.0822189"
Sunni Muslim wagher kabrastaan,Mosque,"F3HJ+XJ8 Sunni Muslim wagher kabrastaan, Nageshwar, Nageshwar Colony, Jamnagar, Gujarat 361008","Nageshwar, Nageshwar Colony",F3HJ+XJ8,Jamnagar,361008,Gujarat,IN,https://www.google.com/maps/place/Sunni+Muslim+wagher+kabrastaan/data=!4m7!3m6!1s0x39576b0c7a7d2295:0x7ad57901a9f106d!8m2!3d22.4799178!4d70.0815749!16s%2Fg%2F11fnw0cl2q!19sChIJlSJ9egxrVzkRbRCfGpBXrQc?authuser=0&hl=en&rclk=1,"22.4799178,70.08157489999999"
Syedna Noor Mohammad Bhoriyu,Mosque,"F38M+F42 Syedna Noor Mohammad Bhoriyu, Nagina Masjid Rd, Kadiawad, Jamnagar, Gujarat 361001",Kadiawad,"F38M+F42, Nagina Masjid Rd",Jamnagar,361001,Gujarat,IN,https://www.google.com/maps/place/Syedna+Noor+Mohammad+Bhoriyu/data=!4m7!3m6!1s0x39576be217f17379:0x4601f099cddc830a!8m2!3d22.4660411!4d70.082944!16s%2Fg%2F11sb090rqb!19sChIJeXPxF-JrVzkRCoPczZnwAUY?authuser=0&hl=en&rclk=1,"22.466041099999998,70.082944"
Umat Ali shah dargah,Mosque,"G22R+CPX Umat Ali shah dargah, Bedi, Bedeswer, Jamnagar, Gujarat 361009","Bedi, Bedeswer",G22R+CPX,Jamnagar,361009,Gujarat,IN,https://www.google.com/maps/place/Umat+Ali+shah+dargah/data=!4m7!3m6!1s0x39573f4f1edec1a3:0xec88e7f36dbee455!8m2!3d22.5011099!4d70.0418701!16s%2Fg%2F11szb_pw9d!19sChIJo8HeHk8_VzkRVeS-bfPniOw?authuser=0&hl=en&rclk=1,"22.5011099,70.0418701"
Rehmani Masjid,Mosque,"F3C5+73Q Rehmani Masjid, Banglawadi, Titodiwadi, Khoja Gate, Jamnagar, Gujarat","Valkeshwari, Park Colony","F3C5+73Q, Banglawadi, Titodiwadi, Khoja Gate",Jamnagar,,Gujarat,IN,https://www.google.com/maps/place/Rehmani+Masjid/data=!4m7!3m6!1s0x39576b1074ef8259:0x6ab0361a5cd7bd0!8m2!3d22.4707019!4d70.05773!16s%2Fg%2F11n171ssnk!19sChIJWYLvdBBrVzkR0HvNpWEDqwY?authuser=0&hl=en&rclk=1,"22.470701899999998,70.05772999999999"
Moti masjid mwtty msjd,Mosque,"Moti masjid mwtty msjd, 7/759, Dwarkesh Puri Rd, Kishan Park Society, Jamnagar, Gujarat 361001",Kishan Park Society,"7/759, Dwarkesh Puri Rd",Jamnagar,361001,Gujarat,IN,https://www.google.com/maps/place/Moti+masjid+%D9%85%D9%88%D9%B9%DB%8C+%D9%85%D8%B3%D8%AC%D8%AF%E2%80%AD/data=!4m7!3m6!1s0x39576bec72eb86bd:0xfe61679b59634177!8m2!3d22.4602043!4d70.0787779!16s%2Fg%2F11sg_6c0wf!19sChIJvYbrcuxrVzkRd0FjWZtnYf4?authuser=0&hl=en&rclk=1,"22.460204299999997,70.07877789999999"
Masjid e ishaq msjd sHq,Mosque,"Masjid e ishaq msjd sHq, 85801, Dwarkesh Puri Rd, Kishan Park Society, Jamnagar, Gujarat 361001",Kishan Park Society,"85801, Dwarkesh Puri Rd",Jamnagar,361001,Gujarat,IN,https://www.google.com/maps/place/Masjid+e+ishaq+%D9%85%D8%B3%D8%AC%D8%AF+%D8%A7%D8%B3%D8%AD%D8%A7%D9%82%E2%80%AD/data=!4m7!3m6!1s0x39576b83f84da213:0x91692f946373533b!8m2!3d22.4588318!4d70.0766648!16s%2Fg%2F11sg_607l3!19sChIJE6JN-INrVzkRO1NzY5QvaZE?authuser=0&hl=en&rclk=1,"22.4588318,70.0766648"
Hazrat Khwaja Garib Nawaz Masjid,Mosque,"Hazrat Khwaja Garib Nawaz Masjid, Behid Digjam Mil, Anand Colony, Patel Colony, Jamnagar, Gujarat 361008","Anand Colony, Patel Colony",Behid Digjam Mil,Jamnagar,,Gujarat,IN,https://www.google.com/maps/place/Hazrat+Khwaja+Garib+Nawaz+Masjid/data=!4m7!3m6!1s0x39574140b51bb56d:0x471d7f385099deba!8m2!3d22.4864764!4d70.0633491!16s%2Fg%2F11t4l1xx2g!19sChIJbbUbtUBBVzkRut6ZUDh_HUc?authuser=0&hl=en&rclk=1,"22.486476399999997,70.0633491"
Maniyar masjid mnyyr msjd,Mosque,"Maniyar masjid mnyyr msjd, 120, Kalavad Gate Rd, Khoja Gate, Gujarat 361001",Kishan Park Society,"120, Kalavad Gate Rd, Khoja Gate",Jamnagar,361001,Gujarat,IN,https://www.google.com/maps/place/Maniyar+masjid+%D9%85%D9%86%DB%8C%DB%8C%D8%A7%D8%B1+%D9%85%D8%B3%D8%AC%D8%AF%E2%80%AD/data=!4m7!3m6!1s0x39576b70018aa6bd:0x44d695315ec78fe3!8m2!3d22.4635331!4d70.0799628!16s%2Fg%2F11rkf4tbf1!19sChIJvaaKAXBrVzkR44_HXjGV1kQ?authuser=0&hl=en&rclk=1,"22.4635331,70.07996279999999"
Khalifa masjid khlyfh msjd,Mosque,"Khalifa masjid khlyfh msjd, 7/833, Dwarkesh Puri Rd, Kishan Park Society, Jamnagar, Gujarat 361001",Kishan Park Society,"7/833, Dwarkesh Puri Rd",Jamnagar,361001,Gujarat,IN,https://www.google.com/maps/place/Khalifa+masjid+%D8%AE%D9%84%DB%8C%D9%81%DB%81+%D9%85%D8%B3%D8%AC%D8%AF%E2%80%AD/data=!4m7!3m6!1s0x39576b756cbfba29:0xa7d8466488f70d89!8m2!3d22.4598902!4d70.0780997!16s%2Fg%2F11rkf47n98!19sChIJKbq_bHVrVzkRiQ33iGRG2Kc?authuser=0&hl=en&rclk=1,"22.4598902,70.0780997"
Husami Masjid,Mosque,"F38J+4HM Husami Masjid, Kadiawad, Jamnagar, Gujarat 361001",Kadiawad,F38J+4HM,Jamnagar,361001,Gujarat,IN,https://www.google.com/maps/place/Husami+Masjid/data=!4m7!3m6!1s0x39576a9340c55555:0xbca93b7615b5c66b!8m2!3d22.4653344!4d70.0814354!16s%2Fg%2F11kj3f55k_!19sChIJVVXFQJNqVzkRa8a1FXY7qbw?authuser=0&hl=en&rclk=1,"22.4653344,70.0814354"
Vajir Masjid,Mosque,"F38H+X7W Vajir Masjid, Gujarat State Highway 26, Kadiawad, Jamnagar, Gujarat 361001",Kadiawad,"F38H+X7W, Gujarat State Highway 26",Jamnagar,361001,Gujarat,IN,https://www.google.com/maps/place/Vajir+Masjid/data=!4m7!3m6!1s0x39576a9444995555:0x14959d96892f3c32!8m2!3d22.4674818!4d70.0782023!16s%2Fg%2F11txmzcs1b!19sChIJVVWZRJRqVzkRMjwviZadlRQ?authuser=0&hl=en&rclk=1,"22.467481799999998,70.0782023"
Khoja Shia isna ashri masjid,Religious destination,"Khoja Shia isna ashri masjid, KSI Masjid Jamnagar, sabji market KSI Masjid, Fish market, Khoja Naka Rd, Jamnagar Jamnagar Gujarat 361001, Khoja Naka Rd, Kishan Park Society, Jamnagar, Gujarat 361005",Kishan Park Society,"KSI Masjid Jamnagar, sabji market KSI Masjid, Fish market, Khoja Naka Rd, Jamnagar Jamnagar Gujarat 361001, Khoja Naka Rd",Jamnagar,361005,Gujarat,IN,https://www.google.com/maps/place/Khoja+Shia+isna+ashri+masjid/data=!4m7!3m6!1s0x39576bf67dd1536d:0x61e37bd4ec72c495!8m2!3d22.4590098!4d70.0761509!16s%2Fg%2F11k7xkj5qq!19sChIJbVPRffZrVzkRlcRy7NR742E?authuser=0&hl=en&rclk=1,"22.4590098,70.0761509"
SAHI SARKAR,Mosque,"F37M+R23 SAHI SARKAR, patni wad, Kadiawad, Jamnagar, Gujarat 361001",Kadiawad,"F37M+R23, patni wad",Jamnagar,361001,Gujarat,IN,https://www.google.com/maps/place/SAHI+SARKAR/data=!4m7!3m6!1s0x39576b8cd15148f7:0x9ba90bf0b5d72563!8m2!3d22.4645149!4d70.082558!16s%2Fg%2F11sgrb5df1!19sChIJ90hR0YxrVzkRYyXXtfALqZs?authuser=0&hl=en&rclk=1,"22.464514899999998,70.08255799999999"
Hansbai msajid,Mosque,"F38F+MM7 Hansbai msajid, near a to z collection, Pancheshwar Tower, Jamnagar, Gujarat 361001",Pancheshwar Tower,"F38F+MM7, near a to z collection",Jamnagar,361001,Gujarat,IN,https://www.google.com/maps/place/Hansbai+msajid/data=!4m7!3m6!1s0x39576b1c662abcd5:0xbe8797466dc66d5f!8m2!3d22.4666537!4d70.0741817!16s%2Fg%2F11q43yt6ww!19sChIJ1bwqZhxrVzkRX23GbUaXh74?authuser=0&hl=en&rclk=1,"22.4666537,70.0741817"
Masjid,Mosque,"F29F+RX7 Masjid, Govardhanpur, Jamnagar, Gujarat 361003",Govardhanpur,F29F+RX7,Jamnagar,361003,Gujarat,IN,https://www.google.com/maps/place/Masjid/data=!4m7!3m6!1s0x39571567c1955555:0x74c7038f7493e95e!8m2!3d22.4695363!4d70.0249135!16s%2Fg%2F11txmzn5mx!19sChIJVVWVwWcVVzkRXumTdI8Dx3Q?authuser=0&hl=en&rclk=1,"22.469536299999998,70.0249135"
Near madina masjid,Association or organization,"Near madina masjid, Bardhan Chowk, Chandi Bazar, Kishan Park Society, Jamnagar, Gujarat 361001","Chandi Bazar, Kishan Park Society",Bardhan Chowk,Jamnagar,361001,Gujarat,IN,https://www.google.com/maps/place/Near+madina+masjid/data=!4m7!3m6!1s0x39576bec62863301:0xa1fcc16d31d0dc1c!8m2!3d22.4617401!4d70.0795885!16s%2Fg%2F11sx36y2fg!19sChIJATOGYuxrVzkRHNzQMW3B_KE?authuser=0&hl=en&rclk=1,"22.4617401,70.0795885"
Bedi samsat sunni muslim jamat khana,Mosque,"F2WW+R7R Bedi samsat sunni muslim jamat khana, Noori Raza Chowk Rd, Bedi, Bedeswer, Jamnagar, Gujarat 361009","Bedi, Bedeswer","F2WW+R7R, Noori Raza Chowk Rd",Jamnagar,361009,Gujarat,IN,https://www.google.com/maps/place/Bedi+samsat+sunni+muslim+jamat+khana/data=!4m7!3m6!1s0x39573fa723f4737b:0x1cb19e8fee930ee0!8m2!3d22.496581!4d70.045525!16s%2Fg%2F11t6g1v5f8!19sChIJe3P0I6c_VzkR4A6T7o-esRw?authuser=0&hl=en&rclk=1,"22.496581,70.045525"
Imam E Aazam Chowk,Mosque,"G23W+65W Imam E Aazam Chowk, Eid Masjid Rd, Bedi, Bedeswer, Jamnagar, Gujarat 361009","Bedi, Bedeswer","G23W+65W, Eid Masjid Rd",Jamnagar,361009,Gujarat,IN,https://www.google.com/maps/place/Imam+E+Aazam+Chowk/data=!4m7!3m6!1s0x39573fed25d9d599:0xb449bb3ef418fd25!8m2!3d22.503112!4d70.045468!16s%2Fg%2F11pv9_vhjg!19sChIJmdXZJe0_VzkRJf0Y9D67SbQ?authuser=0&hl=en&rclk=1,"22.503111999999998,70.045468"
Hedre karar chok,Mosque,"G23W+FQ3 Hedre karar chok, Bedeswer, Jamnagar, Gujarat 361009",Bedeswer,G23W+FQ3,Jamnagar,361009,Gujarat,IN,https://www.google.com/maps/place/Hedre+karar+chok/data=!4m7!3m6!1s0x39573f266a96aa7d:0x3ade00ba7bcb7b4b!8m2!3d22.503646!4d70.0469314!16s%2Fg%2F11tg2sr246!19sChIJfaqWaiY_VzkRS3vLe7oA3jo?authuser=0&hl=en&rclk=1,"22.503646,70.04693139999999"
Shia Khoja Ashna Ashri Imambara,Mosque,"Shia Khoja Ashna Ashri Imambara, 7/887, Dwarkesh Puri Rd, Khoja Gate, Gujarat 361001",Kishan Park Society,"7/887, Dwarkesh Puri Rd, Khoja Gate",Jamnagar,361001,Gujarat,IN,https://www.google.com/maps/place/Shia+Khoja+Ashna+Ashri+Imambara/data=!4m7!3m6!1s0x39576b45068a35e5:0x440fde6b29b15749!8m2!3d22.4599947!4d70.0776609!16s%2Fg%2F11qg1l2rjs!19sChIJ5TWKBkVrVzkRSVexKWveD0Q?authuser=0&hl=en&rclk=1,"22.4599947,70.0776609"
Madrasa a aala hajrat,Mosque,"C3XC+73V Madrasa a aala hajrat, Nilkanth Nagar, Nandanvan Society, Jamnagar, Gujarat 361005","Nilkanth Nagar, Nandanvan Society",C3XC+73V,Jamnagar,361005,Gujarat,IN,https://www.google.com/maps/place/Madrasa+a+aala+hajrat/data=!4m7!3m6!1s0x39576b7e0c43da3b:0x6cab4cefa93a66e7!8m2!3d22.4482363!4d70.0701638!16s%2Fg%2F11mb51zhn1!19sChIJO9pDDH5rVzkR52Y6qe9Mq2w?authuser=0&hl=en&rclk=1,"22.448236299999998,70.0701638"
Eid masjid road Nr karim jam gate,Ice cream shop,"F2XV+7GH Eid masjid road Nr karim jam gate, Bedi, Bedeswer, Jamnagar, Gujarat 361009","Bedi, Bedeswer",F2XV+7GH,Jamnagar,361009,Gujarat,IN,https://www.google.com/maps/place/Eid+masjid+road+Nr+karim+jam+gate/data=!4m7!3m6!1s0x39573f5be801289d:0xce9950af99f64b62!8m2!3d22.4980772!4d70.0438334!16s%2Fg%2F11vbdrhz95!19sChIJnSgB6Fs_VzkRYkv2ma9Qmc4?authuser=0&hl=en&rclk=1,"22.498077199999997,70.0438334"
Bording ibadat gah bwrddyng `bdt gh,Mosque,"F35G+F9R Bording ibadat gah bwrddyng `bdt gh, Khoja Naku Road, Kishan Park Society, Jamnagar, Gujarat 361005",Kishan Park Society,"F35G+F9R, Khoja Naku Road",Jamnagar,361005,Gujarat,IN,https://www.google.com/maps/place/Bording+ibadat+gah+%D8%A8%D9%88%D8%B1%DA%88%DB%8C%D9%86%DA%AF+%D8%B9%D8%A8%D8%A7%D8%AF%D8%AA+%DA%AF%D8%A7%DB%81%E2%80%AD/data=!4m7!3m6!1s0x39576b6d8c2cb3ad:0x2ec82d5b0472c3b1!8m2!3d22.4587341!4d70.0758798!16s%2Fg%2F11sg_66kdt!19sChIJrbMsjG1rVzkRscNyBFstyC4?authuser=0&hl=en&rclk=1,"22.458734099999997,70.0758798"
Mosque,Mosque,"F2RC+737 Mosque, Dhinchda, Jamnagar, Gujarat 361009",,F2RC+737,"Dhinchda, Jamnagar",,Gujarat,IN,https://www.google.com/maps/place/Mosque/data=!4m7!3m6!1s0x39573f83c2c5b543:0xb39a5d0637bb89cd!8m2!3d22.4906709!4d70.0201761!16s%2Fg%2F11jfcwhypk!19sChIJQ7XFwoM_VzkRzYm7NwZdmrM?authuser=0&hl=en&rclk=1,"22.490670899999998,70.0201761"
Zaherpeer Dargah,Mosque,"Zaherpeer Dargah, 2, Bedi Rd, opp. New Masjid, Bedi, Bedeswer, Jamnagar, Gujarat 361009","Bedi, Bedeswer","2, Bedi Rd, opp. New Masjid",Jamnagar,361009,Gujarat,IN,https://www.google.com/maps/place/Zaherpeer+Dargah/data=!4m7!3m6!1s0x39573ff75c7bffff:0x3354f4de0b775eed!8m2!3d22.4943341!4d70.0454992!16s%2Fg%2F11txmzcy2z!19sChIJ__97XPc_VzkR7V53C970VDM?authuser=0&hl=en&rclk=1,"22.4943341,70.0454992"
Goshiya Masjid,Mosque,"Goshiya Masjid, masjid, near kansumra, Kansumara, Jamnagar, Gujarat 361001",Kansumara,"masjid, near kansumra",Jamnagar,361001,Gujarat,IN,https://www.google.com/maps/place/Goshiya+Masjid/data=!4m7!3m6!1s0x395715e29ba4da03:0xd8b3bb5c7bac2eda!8m2!3d22.4268831!4d70.0315546!16s%2Fg%2F11khzpk_9z!19sChIJA9qkm-IVVzkR2i6se1y7s9g?authuser=0&hl=en&rclk=1,"22.426883099999998,70.03155459999999"
Masjid e Gausiya,Mosque,"C2GJ+VMG Masjid e Gausiya, masjidnear, Kansumara, KansumaraJamnagar, Jamnagar, Gujarat 361001","masjidnear, Kansumara",C2GJ+VMG,"KansumaraJamnagar, Jamnagar",361001,Gujarat,IN,https://www.google.com/maps/place/Masjid+e+Gausiya/data=!4m7!3m6!1s0x395715a869e5eb1f:0x761c90b5db6e0e61!8m2!3d22.4271961!4d70.0317081!16s%2Fg%2F11ss58ptz5!19sChIJH-vlaagVVzkRYQ5u27WQHHY?authuser=0&hl=en&rclk=1,"22.4271961,70.0317081"
