name,main_category,address,address_ward,address_street,address_city,address_postal_code,address_state,address_country_code,link,coordinates
JMD mobile Behror,Cell phone accessory store,"JMD mobile Behror, New Bus stand, near nagar palika, Garh Mohalla, Behror, Rajasthan 301701",Garh Mohalla,"New Bus stand, near nagar palika",Behror,301701,Rajasthan,IN,https://www.google.com/maps/place/JMD+mobile+Behror/data=!4m7!3m6!1s0x396d535925d30939:0x727899129b8e14a0!8m2!3d27.8912541!4d76.2917843!16s%2Fg%2F11ss4y9j73!19sChIJOQnTJVlTbTkRoBSOmxKZeHI?authuser=0&hl=en&rclk=1,"27.891254099999998,76.2917843"
Anaj Mandi Masjid,Mosque,"HJ8F+G42 Anaj Mandi Masjid, Mungshka, Jyoti Nagar, Alwar, Rajasthan 301001","Mungshka, Jyoti Nagar",HJ8F+G42,Alwar,301001,Rajasthan,IN,https://www.google.com/maps/place/Anaj+Mandi+Masjid/data=!4m7!3m6!1s0x397299edf4420c05:0x1fe40370944e3e83!8m2!3d27.5662577!4d76.6227705!16s%2Fg%2F1pyqfkcn4!19sChIJBQxC9O2ZcjkRgz5OlHAD5B8?authuser=0&hl=en&rclk=1,"27.566257699999998,76.6227705"
Ranjeet Nagar Masjid,Mosque,"HJJM+8CH Ranjeet Nagar Masjid, Ranjeet Nagar, Daudpur, Alwar, Rajasthan 301001","Ranjeet Nagar, Daudpur",HJJM+8CH,Alwar,301001,Rajasthan,IN,https://www.google.com/maps/place/Ranjeet+Nagar+Masjid/data=!4m7!3m6!1s0x397299ddb251c155:0x3e3bdb6db0459449!8m2!3d27.5808012!4d76.6336073!16s%2Fg%2F1pyqfm7v0!19sChIJVcFRst2ZcjkRSZRFsG3bOz4?authuser=0&hl=en&rclk=1,"27.5808012,76.6336073"
Kala Kua Mosque,Mosque,"GJX3+P5M Kala Kua Mosque, Moti Doongri, Alwar, Rajasthan 301001",Moti Doongri,GJX3+P5M,Alwar,301001,Rajasthan,IN,https://www.google.com/maps/place/Kala+Kua+Mosque/data=!4m7!3m6!1s0x39729a290822e6d1:0xde5b0656df6979!8m2!3d27.5493408!4d76.6029205!16s%2Fg%2F1pyqlfvz1!19sChIJ0eYiCCmacjkReWnfVgZb3gA?authuser=0&hl=en&rclk=1,"27.5493408,76.6029205"
Samola Masjid,Mosque,"GJQJ+36P Samola Masjid, Samola, Alwar, Rajasthan 301001",Samola,GJQJ+36P,Alwar,301001,Rajasthan,IN,https://www.google.com/maps/place/Samola+Masjid/data=!4m7!3m6!1s0x39729a0de30597d7:0xc657f6cfcce4c02d!8m2!3d27.537722!4d76.630591!16s%2Fg%2F1pyqv62_7!19sChIJ15cF4w2acjkRLcDkzM_2V8Y?authuser=0&hl=en&rclk=1,"27.537722,76.630591"
Jama masjid,Mosque,"XFW2+MJM Jama masjid, Shahjahanpur, Rajasthan 301706",,XFW2+MJM,Shahjahanpur,301706,Rajasthan,IN,https://www.google.com/maps/place/Jama+masjid/data=!4m7!3m6!1s0x396d5522f205b151:0xae30a54b8be6c484!8m2!3d27.9967224!4d76.4515618!16s%2Fg%2F11vk_v1vn9!19sChIJUbEF8iJVbTkRhMTmi0ulMK4?authuser=0&hl=en&rclk=1,"27.9967224,76.4515618"
"Masjid,Jhenjhpuri",Mosque,"H5FW+448 Masjid,Jhenjhpuri, Jhenjhpuri, Rajasthan 321024",,H5FW+448,Jhenjhpuri,,Rajasthan,IN,"https://www.google.com/maps/place/Masjid,Jhenjhpuri/data=!4m7!3m6!1s0x39731d05892c74c5:0x40df05996a7ffc00!8m2!3d27.572796!4d77.1953316!16s%2Fg%2F11h1z4c46d!19sChIJxXQsiQUdczkRAPx_apkF30A?authuser=0&hl=en&rclk=1","27.572796,77.1953316"
"Jama Masjid,ghati bass",Mosque,"PH59+C5X Jama Masjid,ghati bass, Chandauli, Rajasthan 301001",,PH59+C5X,Chandauli,301001,Rajasthan,IN,"https://www.google.com/maps/place/Jama+Masjid,ghati+bass/data=!4m7!3m6!1s0x3972a3c1b92e1761:0xdc46c5fbe08cb983!8m2!3d27.7086123!4d76.5679955!16s%2Fg%2F11gbl3bf2s!19sChIJYRcuucGjcjkRg7mM4PvFRtw?authuser=0&hl=en&rclk=1","27.7086123,76.5679955"
Sadiya Masjid,Mosque,"Sadiya Masjid, Narnaul - Behror - Alwar Rd Sakti Nagar Alwar RJ 301001 Republic of",Sakti Nagar,Narnaul - Behror - Alwar Rd Sakti Nagar Alwar RJ 301001 Republic of,Alwar,,Rajasthan,IN,https://www.google.com/maps/place/Sadiya+Masjid/data=!4m7!3m6!1s0x39729756e31097db:0x2f2d9bb1f0a732b7!8m2!3d27.5650852!4d76.6450063!16s%2Fg%2F11bw48_9n5!19sChIJ25cQ41aXcjkRtzKn8LGbLS8?authuser=0&hl=en&rclk=1,"27.5650852,76.64500629999999"
Bilal Masjid,Mosque,"Bilal Masjid, Ronpur Road Shital ka bass, Barodameo, Rajasthan 301021",,Ronpur Road Shital ka bass,"Barodameo, Sahajpur",301021,Rajasthan,IN,https://www.google.com/maps/place/Bilal+Masjid/data=!4m7!3m6!1s0x3972eda76d604671:0xa9fd2ac5ea1cfe7d!8m2!3d27.4865744!4d76.8315515!16s%2Fg%2F11g0hkq6w7!19sChIJcUZgbaftcjkRff4c6sUq_ak?authuser=0&hl=en&rclk=1,"27.4865744,76.8315515"
Jumma Masjid Bahadurpur,Mosque,"MP7P+W57 Jumma Masjid Bahadurpur, Bahadurgarh, Bahadurpur Patti M, Rajasthan 301028",,MP7P+W57,"Bahadurgarh, Bahadurpur Patti M",301028,Rajasthan,IN,https://www.google.com/maps/place/Jumma+Masjid+Bahadurpur/data=!4m7!3m6!1s0x3972be0715eff619:0x5ae5693450749745!8m2!3d27.6647939!4d76.7354372!16s%2Fg%2F11g7zb22t9!19sChIJGfbvFQe-cjkRRZd0UDRp5Vo?authuser=0&hl=en&rclk=1,"27.6647939,76.73543719999999"
Masjid Kholabas,Mosque,"PR63+9H7 Masjid Kholabas, Neekach, Ramgarh, Boojaka, Rajasthan 301025",Neekach,PR63+9H7,"Ramgarh, Boojaka",,Rajasthan,IN,https://www.google.com/maps/place/Masjid+Kholabas/data=!4m7!3m6!1s0x3972bfb16862e399:0x55ed6791c3d7605c!8m2!3d27.7109044!4d76.8039343!16s%2Fg%2F11ghnb_82k!19sChIJmeNiaLG_cjkRXGDXw5Fn7VU?authuser=0&hl=en&rclk=1,"27.7109044,76.8039343"
thokedaar baas msjid thokedar bas masjid,Mosque,"MVX5+QMV thokedaar baas msjid thokedar bas masjid, Mubarikpur, Rajasthan 301025",,MVX5+QMV,Mubarikpur,,Rajasthan,IN,https://www.google.com/maps/place/%E0%A4%A5%E0%A5%8B%E0%A4%95%E0%A5%87%E0%A4%A6%E0%A4%BE%E0%A4%B0+%E0%A4%AC%E0%A4%BE%E0%A4%B8+%E0%A4%AE%E0%A4%B8%E0%A5%8D%E0%A4%9C%E0%A4%BF%E0%A4%A6+thokedar+bas+masjid/data=!4m7!3m6!1s0x3972c1844578b493:0xbce9842ebbcc7faf!8m2!3d27.6994949!4d76.8591774!16s%2Fg%2F11qqlyfy33!19sChIJk7R4RYTBcjkRr3_Muy6E6bw?authuser=0&hl=en&rclk=1,"27.699494899999998,76.8591774"
Goharwali Masjid,Mosque,"RRV8+WWP Goharwali Masjid, Chawandi Kalan, Rajasthan 301405",,RRV8+WWP,Chawandi Kalan,301405,Rajasthan,IN,https://www.google.com/maps/place/Goharwali+Masjid/data=!4m7!3m6!1s0x3972b8039d8738cd:0xa46ea57e767d3482!8m2!3d27.8448331!4d76.8173199!16s%2Fg%2F11cjk2sx_n!19sChIJzTiHnQO4cjkRgjR9dn6lbqQ?authuser=0&hl=en&rclk=1,"27.8448331,76.8173199"
Jama Masjid Mosampur,Mosque,"R8Q8+X7R Jama Masjid Mosampur, Mosampur at Kankara, Rajasthan 301701",,R8Q8+X7R,Mosampur at Kankara,301701,Rajasthan,IN,https://www.google.com/maps/place/Jama+Masjid+Mosampur/data=!4m7!3m6!1s0x396d51a1d57e867d:0x93a3d6eb2c61537d!8m2!3d27.8399953!4d76.3156351!16s%2Fg%2F11fpvblpzz!19sChIJfYZ-1aFRbTkRfVNhLOvWo5M?authuser=0&hl=en&rclk=1,"27.8399953,76.3156351"
Mosque,Mosque,"PHJ5+FQR Mosque, Jindoli, Rajasthan 301402",,PHJ5+FQR,Jindoli,301402,Rajasthan,IN,https://www.google.com/maps/place/Mosque/data=!4m7!3m6!1s0x3972a3f816933f5d:0x88758223f98094f4!8m2!3d27.7312416!4d76.5593849!16s%2Fg%2F11g8nyn7xg!19sChIJXT-TFvijcjkR9JSA-SOCdYg?authuser=0&hl=en&rclk=1,"27.731241599999997,76.5593849"
Jumma Masjid Narka,Mosque,"Jumma Masjid Narka, Nadka, Rajasthan 301026",,,Nadka,301026,Rajasthan,IN,https://www.google.com/maps/place/Jumma+Masjid+Narka/data=!4m7!3m6!1s0x39729356a4df1cdd:0x6e2457272817b85e!8m2!3d27.5450625!4d76.7676875!16s%2Fg%2F11fmqb1wls!19sChIJ3RzfpFaTcjkRXrgXKCdXJG4?authuser=0&hl=en&rclk=1,"27.5450625,76.7676875"
Masjid (Mosque),Mosque,"Masjid (Mosque), Kafanwara, Soorajgarh, Rajasthan 321607",,,"Kafanwara, Soorajgarh",321607,Rajasthan,IN,https://www.google.com/maps/place/Masjid+%28Mosque%29/data=!4m7!3m6!1s0x3972f4842f396c8b:0x712149e9e73a0558!8m2!3d27.3853663!4d76.86583!16s%2Fg%2F11ddyk56n4!19sChIJi2w5L4T0cjkRWAU65-lJIXE?authuser=0&hl=en&rclk=1,"27.385366299999998,76.86583"
Jheetredi masjid,Mosque,"C2XH+7Q3 Jheetredi masjid, Jheetredi, Semla Khurd, Rajasthan 321205",,C2XH+7Q3,"Jheetredi, Semla Khurd",321205,Rajasthan,IN,https://www.google.com/maps/place/Jheetredi+masjid/data=!4m7!3m6!1s0x3972fba9358c85bd:0x28fbfccf66b9580b!8m2!3d27.4481294!4d77.0294264!16s%2Fg%2F11lsw7cgcc!19sChIJvYWMNan7cjkRC1i5Zs_8-yg?authuser=0&hl=en&rclk=1,"27.4481294,77.02942639999999"
Masjid,Mosque,"V9V9+WC7 Masjid, Unnamed Road, Bardod, Rajasthan 301020",,"V9V9+WC7, Unnamed Road",Bardod,301020,Rajasthan,IN,https://www.google.com/maps/place/Masjid/data=!4m7!3m6!1s0x396d57fc2ce73005:0xa85c87f4d1db1de8!8m2!3d27.894795!4d76.3685447!16s%2Fg%2F11n04kmnbj!19sChIJBTDnLPxXbTkR6B3b0fSHXKg?authuser=0&hl=en&rclk=1,"27.894795,76.3685447"
Masjid Roja Ka Bass,Mosque,"PH2F+FP7 Masjid Roja Ka Bass, Naglasedoo, Rajasthan 301001",,PH2F+FP7,Naglasedoo,,Rajasthan,IN,https://www.google.com/maps/place/Masjid+Roja+Ka+Bass/data=!4m7!3m6!1s0x3972a3fded41cf1f:0xdd6759efe0c5c1ed!8m2!3d27.7011502!4d76.5742829!16s%2Fg%2F11f9xkf0kl!19sChIJH89B7f2jcjkR7cHF4O9ZZ90?authuser=0&hl=en&rclk=1,"27.701150199999997,76.5742829"
Masjid ahemad wali,Mosque,"RVMF+X7P Masjid ahemad wali, Jairoli, Rajasthan 301405",,RVMF+X7P,Jairoli,,Rajasthan,IN,https://www.google.com/maps/place/Masjid+ahemad+wali/data=!4m7!3m6!1s0x3972c749695f6801:0xabff14546217effc!8m2!3d27.8349607!4d76.8732128!16s%2Fg%2F11mbq4r8lx!19sChIJAWhfaUnHcjkR_O8XYlQU_6s?authuser=0&hl=en&rclk=1,"27.8349607,76.87321279999999"
Shahi Jama Masjid,Mosque,"QM8V+PWJ Shahi Jama Masjid, Ismailpur, Ismalpur, Rajasthan 301404",,QM8V+PWJ,"Ismailpur, Ismalpur",301404,Rajasthan,IN,https://www.google.com/maps/place/Shahi+Jama+Masjid/data=!4m7!3m6!1s0x3972bb9849dbdd77:0x990061b81dd5fc63!8m2!3d27.7668465!4d76.694759!16s%2Fg%2F11hbnsptz3!19sChIJd93bSZi7cjkRY_zVHbhhAJk?authuser=0&hl=en&rclk=1,"27.7668465,76.69475899999999"
Mosque,Mosque,"JXXW+C38 Mosque, Jotri Peepal, Rajasthan 321204",,JXXW+C38,Jotri Peepal,321204,Rajasthan,IN,https://www.google.com/maps/place/Mosque/data=!4m7!3m6!1s0x3972e9c48300d1f5:0x29ec5252158071ac!8m2!3d27.6485392!4d76.995203!16s%2Fg%2F11n019br3n!19sChIJ9dEAg8TpcjkRrHGAFVJS7Ck?authuser=0&hl=en&rclk=1,"27.6485392,76.995203"
New masjid,Mosque,"MR8C+X6Q New masjid, Newada, Rajasthan 301025",,MR8C+X6Q,Newada,301025,Rajasthan,IN,https://www.google.com/maps/place/New+masjid/data=!4m7!3m6!1s0x3972bf6b80465331:0xc0af2eb843c6df94!8m2!3d27.6674553!4d76.8206063!16s%2Fg%2F11h40_dlvw!19sChIJMVNGgGu_cjkRlN_GQ7gur8A?authuser=0&hl=en&rclk=1,"27.6674553,76.8206063"
Bhayari Masjid,Mosque,"GR6V+FHF Bhayari Masjid, Barodameo, Naya Bas, Rajasthan 301021",,GR6V+FHF,"Barodameo, Naya Bas",,Rajasthan,IN,https://www.google.com/maps/place/Bhayari+Masjid/data=!4m7!3m6!1s0x3972ed6cd574427b:0x241e61e5e7ee57dc!8m2!3d27.5111814!4d76.8439106!16s%2Fg%2F11grtyq412!19sChIJe0J01WztcjkR3Ffu5-VhHiQ?authuser=0&hl=en&rclk=1,"27.511181399999998,76.8439106"
Bhurubass Masjid,Mosque,"H37G+WR5 Bhurubass Masjid, Seekri Chak No. 2, Rajasthan 321024",,H37G+WR5,Seekri Chak No. 2,321024,Rajasthan,IN,https://www.google.com/maps/place/Bhurubass+Masjid/data=!4m7!3m6!1s0x3972e55671e0b6e7:0x7e54a9b7a39a6906!8m2!3d27.5647675!4d77.07712!16s%2Fg%2F11g2xc8j67!19sChIJ57bgcVblcjkRBmmao7epVH4?authuser=0&hl=en&rclk=1,"27.5647675,77.07712"
Jama Masjid,Mosque,"9JRC+MC2 Jama Masjid, Mala Khera, Malakhera, Rajasthan 301406",,9JRC+MC2,Mala Khera,301406,Rajasthan,IN,https://www.google.com/maps/place/Jama+Masjid/data=!4m7!3m6!1s0x397285eadf8e70b1:0x637924d3f8a7e5ec!8m2!3d27.3916261!4d76.6210177!16s%2Fg%2F11fxyj7t01!19sChIJsXCO3-qFcjkR7OWn-NMkeWM?authuser=0&hl=en&rclk=1,"27.3916261,76.6210177"
Chhoti Masjid,Mosque,"Q769+M2M Chhoti Masjid, Rasoolpur, Rajasthan 321023",,Q769+M2M,Rasoolpur,321023,Rajasthan,IN,https://www.google.com/maps/place/Chhoti+Masjid/data=!4m7!3m6!1s0x39732146a44df397:0x3d15c6c9261a9298!8m2!3d27.7617036!4d77.2675337!16s%2Fg%2F11gsbdfv51!19sChIJl_NNpEYhczkRmJIaJsnGFT0?authuser=0&hl=en&rclk=1,"27.761703599999997,77.2675337"
raipur masjid,Mosque,"PXR6+H26 raipur masjid, Dhanko Ka Mohalla, Jaipur, Narda, Rajasthan 332718",Dhanko Ka Mohalla,PXR6+H26,"Jaipur, Narda",,Rajasthan,IN,https://www.google.com/maps/place/raipur+masjid/data=!4m7!3m6!1s0x396d3a6825e7bd65:0x778ddaed6ecba666!8m2!3d27.7414232!4d75.9600272!16s%2Fg%2F11hbk5kn4k!19sChIJZb3nJWg6bTkRZqbLbu3ajXc?authuser=0&hl=en&rclk=1,"27.7414232,75.9600272"
Kolila Masjid,Mosque,"W9QG+6V7 Kolila Masjid, Bichpuri, Kolila Joga, Rajasthan 301020",,W9QG+6V7,"Bichpuri, Kolila Joga",301020,Rajasthan,IN,https://www.google.com/maps/place/Kolila+Masjid/data=!4m7!3m6!1s0x396d55d94d39d409:0x9c9cf52a3e2d3c1a!8m2!3d27.9379991!4d76.3771614!16s%2Fg%2F11s4fdxzxb!19sChIJCdQ5TdlVbTkRGjwtPir1nJw?authuser=0&hl=en&rclk=1,"27.9379991,76.37716139999999"
msjid,Mosque,"Q4X2+6FQ msjid, Banethi, Rajasthan 303105",,Q4X2+6FQ,Banethi,303105,Rajasthan,IN,https://www.google.com/maps/place/%E0%A4%AE%E0%A4%B8%E0%A5%8D%E0%A4%9C%E0%A4%BF%E0%A4%A6/data=!4m7!3m6!1s0x396d4816f3cf756f:0xf19e3a8f43efa445!8m2!3d27.7980929!4d76.1012452!16s%2Fg%2F11g9vmp4zv!19sChIJb3XP8xZIbTkRRaTvQ486nvE?authuser=0&hl=en&rclk=1,"27.7980929,76.1012452"
masjid,Mosque,"RR69+742 masjid, Barhera, Rajasthan 301405",,RR69+742,Barhera,301405,Rajasthan,IN,https://www.google.com/maps/place/masjid/data=!4m7!3m6!1s0x3972b87b99406a4b:0xe4abe9abc9628ff9!8m2!3d27.8106437!4d76.8177655!16s%2Fg%2F11c2r0q6fk!19sChIJS2pAmXu4cjkR-Y9iyavpq-Q?authuser=0&hl=en&rclk=1,"27.8106437,76.8177655"
Badi Masjid Nangal,Mosque,"RM59+MFP Badi Masjid Nangal, Nangal Mouzia, Rajasthan 301404",,RM59+MFP,Nangal Mouzia,301404,Rajasthan,IN,https://www.google.com/maps/place/Badi+Masjid+Nangal/data=!4m7!3m6!1s0x3972bbac68f492c5:0x416f03fee832b4a0!8m2!3d27.8092182!4d76.6686972!16s%2Fg%2F11nx14k8l_!19sChIJxZL0aKy7cjkRoLQy6P4Db0E?authuser=0&hl=en&rclk=1,"27.8092182,76.6686972"
Marketwali Masjid,Mosque,"VR29+5W5 Marketwali Masjid, Unnamed Rd,, Rajasthan 301405",,"VR29+5W5, Unnamed Rd,",Chawandi Kalan,301405,Rajasthan,IN,https://www.google.com/maps/place/Marketwali+Masjid/data=!4m7!3m6!1s0x3972b7f8ac2421c7:0xe469a15b128fc85c!8m2!3d27.8503847!4d76.8198606!16s%2Fg%2F11cjk59jw7!19sChIJxyEkrPi3cjkRXMiPEluhaeQ?authuser=0&hl=en&rclk=1,"27.8503847,76.8198606"
Juma Masjid,Mosque,"PR2C+H9H Juma Masjid, near mubarikpur, Kishangarh Road, neekach, Rajasthan",,"PR2C+H9H, near mubarikpur, Kishangarh Road",neekach,,Rajasthan,IN,https://www.google.com/maps/place/Juma+Masjid/data=!4m7!3m6!1s0x3972bf586a3311d3:0x6c8a35d1814cdbe4!8m2!3d27.7014476!4d76.8209948!16s%2Fg%2F11g4fq730z!19sChIJ0xEzali_cjkR5NtMgdE1imw?authuser=0&hl=en&rclk=1,"27.701447599999998,76.8209948"
Jumma masjid,Mosque,"GQ3H+PJW Jumma masjid, RJ SH 14, Nagli Megha, Rajasthan 301021",,"GQ3H+PJW, RJ SH 14",Nagli Megha,301021,Rajasthan,IN,https://www.google.com/maps/place/Jumma+masjid/data=!4m7!3m6!1s0x397293296917e10f:0x45b44fce5969c96d!8m2!3d27.5043707!4d76.7790776!16s%2Fg%2F11hzc_qwzp!19sChIJD-EXaSmTcjkRbclpWc5PtEU?authuser=0&hl=en&rclk=1,"27.5043707,76.7790776"
Masjid Chhangalki,Mosque,"FV97+CMF Masjid Chhangalki, Alwar, Rajasthan 301021",,FV97+CMF,Alwar,,Rajasthan,IN,https://www.google.com/maps/place/Masjid+Chhangalki/data=!4m7!3m6!1s0x3972f338b8f50f73:0x88cf1a9969080a51!8m2!3d27.4685512!4d76.8641626!16s%2Fg%2F11fd7745vn!19sChIJcw_1uDjzcjkRUQoIaZkaz4g?authuser=0&hl=en&rclk=1,"27.4685512,76.8641626"
Masjid Dhamukar,Mosque,"RR58+MWM Masjid Dhamukar, Unnamed Road, Barhera, Rajasthan 301405",,"RR58+MWM, Unnamed Road",Barhera,301405,Rajasthan,IN,https://www.google.com/maps/place/Masjid+Dhamukar/data=!4m7!3m6!1s0x3972b9dd4a176d6d:0x23ff306454bb53a0!8m2!3d27.8092204!4d76.8172996!16s%2Fg%2F11j1skpmbw!19sChIJbW0XSt25cjkRoFO7VGQw_yM?authuser=0&hl=en&rclk=1,"27.809220399999997,76.8172996"
Masjid Kirwari,Mosque,"Masjid Kirwari, Siwana, Rajasthan 301404",,,Siwana,301404,Rajasthan,IN,https://www.google.com/maps/place/Masjid+Kirwari/data=!4m7!3m6!1s0x3972b167d1fce9dd:0x6de032f6b7a2d7f5!8m2!3d27.8384375!4d76.6498125!16s%2Fg%2F11q96j92fh!19sChIJ3en80WexcjkR9deit_Yy4G0?authuser=0&hl=en&rclk=1,"27.838437499999998,76.6498125"
Masjid Raybaka,Mosque,"JM6G+PQ8 Masjid Raybaka, Alwar, Rajasthan 301028",,JM6G+PQ8,Alwar,,Rajasthan,IN,https://www.google.com/maps/place/Masjid+Raybaka/data=!4m7!3m6!1s0x39729708d18bcb4d:0xdc884bdc2789e021!8m2!3d27.6117949!4d76.676955!16s%2Fg%2F11gtb2kvy5!19sChIJTcuL0QiXcjkRIeCJJ9xLiNw?authuser=0&hl=en&rclk=1,"27.6117949,76.67695499999999"
MASJID KHARETIYA BAS,Mosque,"JPM3+V35 MASJID KHARETIYA BAS, Peelwa, Rajasthan 301028",,JPM3+V35,Peelwa,301028,Rajasthan,IN,https://www.google.com/maps/place/MASJID+KHARETIYA+BAS/data=!4m7!3m6!1s0x397297241dca9fd5:0x20d38601131c3103!8m2!3d27.6346492!4d76.7027191!16s%2Fg%2F11gn26sml4!19sChIJ1Z_KHSSXcjkRAzEcEwGG0yA?authuser=0&hl=en&rclk=1,"27.6346492,76.7027191"
Masjid Butiyana,Mosque,"FRGP+7W7 Masjid Butiyana, Seetal, Rajasthan 301021",,FRGP+7W7,Seetal,301021,Rajasthan,IN,https://www.google.com/maps/place/Masjid+Butiyana/data=!4m7!3m6!1s0x3972f3856303290f:0xb549f17872a47eab!8m2!3d27.4756714!4d76.8372916!16s%2Fg%2F11gw2jz9rf!19sChIJDykDY4XzcjkRq36kcnjxSbU?authuser=0&hl=en&rclk=1,"27.4756714,76.8372916"
Masjid,Mosque,"VQM8+3HM Masjid, Alwar - Bhiwadi Rd, Bagthala, Rajasthan 301405",,"VQM8+3HM, Alwar - Bhiwadi Rd",Bagthala,301405,Rajasthan,IN,https://www.google.com/maps/place/Masjid/data=!4m7!3m6!1s0x3972b794f0492aaf:0xafa2b7b1dcadbbd9!8m2!3d27.8827023!4d76.7664274!16s%2Fg%2F11h0bzj5kf!19sChIJrypJ8JS3cjkR2but3LG3oq8?authuser=0&hl=en&rclk=1,"27.8827023,76.7664274"
"Masjid ,Behra Majra",Mosque,"XR68+JHM Masjid ,Behra Majra, Majra Peepli, Tijara, Rajasthan 301411",,"XR68+JHM, Majra Peepli",Tijara,301411,Rajasthan,IN,"https://www.google.com/maps/place/Masjid+,Behra+Majra/data=!4m7!3m6!1s0x3972b5bd2a0b3aeb:0x6ea530584b298f2d!8m2!3d27.9615805!4d76.8164136!16s%2Fg%2F11ff1xqymm!19sChIJ6zoLKr21cjkRLY8pS1gwpW4?authuser=0&hl=en&rclk=1","27.9615805,76.81641359999999"
msjid gaaNvdd'ii,Mosque,"PR4M+7JM msjid gaaNvdd'ii, Ganwari Rd, Gaonri, Rajasthan 332705",,"PR4M+7JM, Ganwari Rd",Gaonri,332705,Rajasthan,IN,https://www.google.com/maps/place/%E0%A4%AE%E0%A4%B8%E0%A5%8D%E0%A4%9C%E0%A4%BF%E0%A4%A6+%E0%A4%97%E0%A4%BE%E0%A4%82%E0%A4%B5%E0%A4%A1%E0%A4%BC%E0%A5%80/data=!4m7!3m6!1s0x396d254d505db9e3:0x243c7938f4e1ce32!8m2!3d27.7057245!4d75.8340586!16s%2Fg%2F11fkky_y6y!19sChIJ47ldUE0lbTkRMs7h9Dh5PCQ?authuser=0&hl=en&rclk=1,"27.7057245,75.83405859999999"
Jama maszid,Mosque,"FJ38+26G Jama maszid, mega highway Road, Mahwa Khurd, Rajasthan 301001",,"FJ38+26G, mega highway Road",Mahwa Khurd,301001,Rajasthan,IN,https://www.google.com/maps/place/Jama+maszid/data=!4m7!3m6!1s0x397285cdea59e4ff:0xdf324ddf0574b0dd!8m2!3d27.4525527!4d76.615566!16s%2Fg%2F11jcmf1824!19sChIJ_-RZ6s2FcjkR3bB0Bd9NMt8?authuser=0&hl=en&rclk=1,"27.4525527,76.615566"
Chidwai masjid,Mosque,"GVVQ+XC3 Chidwai masjid, RJ SH 45, Chidwai, Rajasthan 301021",,"GVVQ+XC3, RJ SH 45",Chidwai,301021,Rajasthan,IN,https://www.google.com/maps/place/Chidwai+masjid/data=!4m7!3m6!1s0x3972edf13ae883db:0x4f6b324ab39eba56!8m2!3d27.5448937!4d76.8885503!16s%2Fg%2F11mvrssy89!19sChIJ24PoOvHtcjkRVrqes0oya08?authuser=0&hl=en&rclk=1,"27.5448937,76.88855029999999"
Masjid pathroda,Mosque,"CPMW+J9P Masjid pathroda, Pathroda, Rajasthan 301021",,CPMW+J9P,Pathroda,301021,Rajasthan,IN,https://www.google.com/maps/place/Masjid+pathroda/data=!4m7!3m6!1s0x39728d9afe0e3f87:0xdd41c3b52e78f6c8!8m2!3d27.4340943!4d76.7459527!16s%2Fg%2F11jq35hc3s!19sChIJhz8O_pqNcjkRyPZ4LrXDQd0?authuser=0&hl=en&rclk=1,"27.434094299999998,76.74595269999999"
mosque,Mosque,"JMQH+9G3 mosque, Chirkhana, Rajasthan 301028",,JMQH+9G3,Chirkhana,,Rajasthan,IN,https://www.google.com/maps/place/mosque/data=!4m7!3m6!1s0x397297f6070555c5:0x5659a48a4e3ae3a2!8m2!3d27.6383953!4d76.6788032!16s%2Fg%2F11gmy1gr4p!19sChIJxVUFB_aXcjkRouM6ToqkWVY?authuser=0&hl=en&rclk=1,"27.6383953,76.67880319999999"
Badi masjid,Mosque,"QQMW+X9W Badi masjid, Nangal Mohammadpur, Rajasthan 301405",,QQMW+X9W,Nangal Mohammadpur,,Rajasthan,IN,https://www.google.com/maps/place/Badi+masjid/data=!4m7!3m6!1s0x3972b9803a5a2977:0x2e0d252b8449137!8m2!3d27.7849783!4d76.7959567!16s%2Fg%2F11rcxbbg0q!19sChIJdylaOoC5cjkRN5FEuFLS4AI?authuser=0&hl=en&rclk=1,"27.7849783,76.79595669999999"
Mahond Masjid,Mosque,"VP6M+25G Mahond Masjid, Nagaliya, Rajasthan 301405",,VP6M+25G,Nagaliya,301405,Rajasthan,IN,https://www.google.com/maps/place/Mahond+Masjid/data=!4m7!3m6!1s0x3972b15c8545c399:0x5da255ab4632c6b7!8m2!3d27.8600744!4d76.7329383!16s%2Fg%2F11ny1yfpnb!19sChIJmcNFhVyxcjkRt8YyRqtVol0?authuser=0&hl=en&rclk=1,"27.8600744,76.7329383"
Masjid,Mosque,"VM8F+RV Masjid, Sadhooka, Rajasthan 301405",,VM8F+RV,Sadhooka,301405,Rajasthan,IN,https://www.google.com/maps/place/Masjid/data=!4m7!3m6!1s0x3972b13ef3fd8b5b:0xc44d1b768da7f636!8m2!3d27.8658164!4d76.6743534!16s%2Fg%2F11sq1xv13x!19sChIJW4v98z6xcjkRNvanjXYbTcQ?authuser=0&hl=en&rclk=1,"27.8658164,76.6743534"
Rahma masjid,Mosque,"VQ2Q+4XC Rahma masjid, Langarwas, Rajasthan 301405",,VQ2Q+4XC,Langarwas,301405,Rajasthan,IN,https://www.google.com/maps/place/Rahma+masjid/data=!4m7!3m6!1s0x3972b7c2751d8ca1:0xe9b6bee261e22bcf!8m2!3d27.8503008!4d76.7898862!16s%2Fg%2F11jb2c5fv2!19sChIJoYwddcK3cjkRzyviYeK-tuk?authuser=0&hl=en&rclk=1,"27.8503008,76.7898862"
Masjid-e-Eid-Gah,Mosque,"JWGM+6HH Masjid-e-Eid-Gah, Unnamed Road, Sherpur, Rajasthan 301026",,"JWGM+6HH, Unnamed Road",Sherpur,301026,Rajasthan,IN,https://www.google.com/maps/place/Masjid-e-Eid-Gah/data=!4m7!3m6!1s0x3972e975f27569ab:0xf5255fe4c8d560f!8m2!3d27.6255552!4d76.9339761!16s%2Fg%2F11rsqnlf2_!19sChIJq2l18nXpcjkRD1aNTP5VUg8?authuser=0&hl=en&rclk=1,"27.625555199999997,76.9339761"
Jumma Masjid,Mosque,"RPFQ+383 Jumma Masjid, Old Housing Board, Kishangarh, Rajasthan 301405",Old Housing Board,RPFQ+383,Kishangarh,301405,Rajasthan,IN,https://www.google.com/maps/place/Jumma+Masjid/data=!4m7!3m6!1s0x3972b9402cd16643:0x246bb50a532f374e!8m2!3d27.8226447!4d76.7383054!16s%2Fg%2F11fmssnd99!19sChIJQ2bRLEC5cjkRTjcvUwq1ayQ?authuser=0&hl=en&rclk=1,"27.822644699999998,76.7383054"
Masjid (msj'id),Mosque,"P2WQ+J79 Masjid (msj'id), Gadshora, Rajasthan 321204",,P2WQ+J79,Gadshora,321204,Rajasthan,IN,https://www.google.com/maps/place/Masjid+%28%E0%A4%AE%E0%A4%B8%E0%A5%8D%E0%A4%9C%E0%A4%BC%E0%A4%BF%E0%A4%A6%29/data=!4m7!3m6!1s0x3972dd0029fde54f:0x94c924f7f1942d4d!8m2!3d27.746532!4d77.0382464!16s%2Fg%2F11nz_ydvbq!19sChIJT-X9KQDdcjkRTS2U8fckyZQ?authuser=0&hl=en&rclk=1,"27.746532,77.03824639999999"
"Masjid, Khohra",Mosque,"H5F4+4MP Masjid, Khohra, Khohra, Rajasthan 321024",,H5F4+4MP,Khohra,321024,Rajasthan,IN,"https://www.google.com/maps/place/Masjid,+Khohra/data=!4m7!3m6!1s0x3972e326998c66e7:0x829618fdb10040bd!8m2!3d27.5728394!4d77.1566924!16s%2Fg%2F11n0l3fn_w!19sChIJ52aMmSbjcjkRvUAAsf0YloI?authuser=0&hl=en&rclk=1","27.5728394,77.1566924"
Masjid Dhanota,Mosque,"JW8W+W8V Masjid Dhanota, Dhanota, Khushpuri, Rajasthan 321024",,JW8W+W8V,"Dhanota, Khushpuri",,Rajasthan,IN,https://www.google.com/maps/place/Masjid+Dhanota/data=!4m7!3m6!1s0x3972e99aec08c51f:0xcbd59e5eacaa7744!8m2!3d27.6173629!4d76.9457988!16s%2Fg%2F11lkgqxvdb!19sChIJH8UI7JrpcjkRRHeqrF6e1cs?authuser=0&hl=en&rclk=1,"27.6173629,76.94579879999999"
Behror,Internet service provider,"Behror, 73, Kankardopa, Industrial Area, Behror, Rajasthan 301701","Kankardopa, Industrial Area",73,Behror,301701,Rajasthan,IN,https://www.google.com/maps/place/Behror/data=!4m7!3m6!1s0x396d53d0c6a1b54b:0xf0abe124e9bf2e1d!8m2!3d27.905448!4d76.319178!16s%2Fg%2F11q39wjvcx!19sChIJS7WhxtBTbTkRHS6_6SThq_A?authuser=0&hl=en&rclk=1,"27.905448,76.319178"
Masjid,Mosque,"CR3G+QR Masjid, Sahadka, Rajasthan 301021",,CR3G+QR,Sahadka,,Rajasthan,IN,https://www.google.com/maps/place/Masjid/data=!4m7!3m6!1s0x3972f3f0efb4d57d:0x13e17523876f6e13!8m2!3d27.404402!4d76.8270701!16s%2Fg%2F11smhzqxgr!19sChIJfdW07_DzcjkRE25vhyN14RM?authuser=0&hl=en&rclk=1,"27.404401999999997,76.8270701"
"Sheffulah Masjid - Mohammad Bas, Gaon Tehatra",Mosque,"QMWG+2RQ Sheffulah Masjid - Mohammad Bas, Gaon Tehatra, Dadarhera, Rajasthan 301404",,QMWG+2RQ,Dadarhera,301404,Rajasthan,IN,"https://www.google.com/maps/place/Sheffulah+Masjid+-+Mohammad+Bas,+Gaon+Tehatra/data=!4m7!3m6!1s0x3972bafca3364abb:0x90d5bc2cc0d5e5e8!8m2!3d27.7950935!4d76.6771031!16s%2Fg%2F11c6cy5k5b!19sChIJu0o2o_y6cjkR6OXVwCy81ZA?authuser=0&hl=en&rclk=1","27.7950935,76.6771031"
msjid,Mosque,"JM3X+24F msjid, Bhoowaka, Rajasthan 301028",,JM3X+24F,Bhoowaka,301028,Rajasthan,IN,https://www.google.com/maps/place/%E0%A4%AE%E0%A4%B8%E0%A5%8D%E0%A4%9C%E0%A4%BF%E0%A4%A6/data=!4m7!3m6!1s0x397297d54de82749:0x7138a770b6ebf34b!8m2!3d27.6025532!4d76.6978033!16s%2Fg%2F11jtzd7rlh!19sChIJSSfoTdWXcjkRS_PrtnCnOHE?authuser=0&hl=en&rclk=1,"27.6025532,76.69780329999999"
Idgah Masjid,Mosque,"RRW7+H3M Idgah Masjid, Mandwapur, Rajasthan 301405",,RRW7+H3M,Mandwapur,301405,Rajasthan,IN,https://www.google.com/maps/place/Idgah+Masjid/data=!4m7!3m6!1s0x3972b81d1e654cfd:0xf48d87955bfd4329!8m2!3d27.8464731!4d76.812673!16s%2Fg%2F11cjk4rj60!19sChIJ_UxlHh24cjkRKUP9W5WHjfQ?authuser=0&hl=en&rclk=1,"27.846473099999997,76.81267299999999"
masjid,Mosque,"FWG3+628 masjid, RJ SH 14, Tajipur, Rajasthan 301021",,"FWG3+628, RJ SH 14",Tajipur,301021,Rajasthan,IN,https://www.google.com/maps/place/masjid/data=!4m7!3m6!1s0x3972f386750312bd:0x5f610fb5af0bce6a!8m2!3d27.4755495!4d76.902587!16s%2Fg%2F11jtsn_500!19sChIJvRIDdYbzcjkRas4Lr7UPYV8?authuser=0&hl=en&rclk=1,"27.4755495,76.902587"
Masjid bass tilwar,Mosque,"HWR8+429 Masjid bass tilwar, Unnamed Road, Rajasthan 301026",,"HWR8+429, Unnamed Road",Mansheerpur,301026,Rajasthan,IN,https://www.google.com/maps/place/Masjid+bass+tilwar/data=!4m7!3m6!1s0x3972ebbadd4f37fb:0xdc9e4a7300396d31!8m2!3d27.590281!4d76.9151226!16s%2Fg%2F11nfqwygk_!19sChIJ-zdP3brrcjkRMW05AHNKntw?authuser=0&hl=en&rclk=1,"27.590280999999997,76.91512259999999"
Masjid,Mosque,"FH79+VMG Masjid, Dholi Ghati, Alapur, Rajasthan 301001",Dholi Ghati,FH79+VMG,Alapur,301001,Rajasthan,IN,https://www.google.com/maps/place/Masjid/data=!4m7!3m6!1s0x39729be73c54fb99:0xeacf0a4e705f5836!8m2!3d27.4646848!4d76.5692015!16s%2Fg%2F11rscd8x2m!19sChIJmftUPOebcjkRNlhfcE4Kz-o?authuser=0&hl=en&rclk=1,"27.464684799999997,76.56920149999999"
New masjid,Mosque,"HPP8+MRC New masjid, Unnamed Road, Mandu Ka Bas, Rajasthan 301028",,"HPP8+MRC, Unnamed Road",Mandu Ka Bas,301028,Rajasthan,IN,https://www.google.com/maps/place/New+masjid/data=!4m7!3m6!1s0x39729723be2b46fd:0x76b49698a88ba2ea!8m2!3d27.5866758!4d76.7170122!16s%2Fg%2F11q2nq177m!19sChIJ_UYrviOXcjkR6qKLqJiWtHY?authuser=0&hl=en&rclk=1,"27.5866758,76.7170122"
Masjid,Mosque,"FH6P+C2 Masjid, Nangal Ratawat, Rajasthan 301001",,FH6P+C2,Nangal Ratawat,,Rajasthan,IN,https://www.google.com/maps/place/Masjid/data=!4m7!3m6!1s0x39729b89c90e227b:0x9a65eddbb6fdf6e9!8m2!3d27.4611247!4d76.5850037!16s%2Fg%2F11ptwkyh2n!19sChIJeyIOyYmbcjkR6fb9ttvtZZo?authuser=0&hl=en&rclk=1,"27.4611247,76.5850037"
Abubkr Masjid Bhadaka,Mosque,"J3VJ+RPG Abubkr Masjid Bhadaka, Bhadaka, Rajasthan 321204",,J3VJ+RPG,Bhadaka,321204,Rajasthan,IN,https://www.google.com/maps/place/Abubkr+Masjid+Bhadaka/data=!4m7!3m6!1s0x3972e7520df3529d:0xd61e413405636a48!8m2!3d27.6445733!4d77.0818409!16s%2Fg%2F11rhs4d2vk!19sChIJnVLzDVLncjkRSGpjBTRBHtY?authuser=0&hl=en&rclk=1,"27.644573299999998,77.0818409"
Mosque,Mosque,"FH85+887 Mosque, sahori bass, Sahori",,"FH85+887, sahori bass",Sahori,,Rajasthan,IN,https://www.google.com/maps/place/Mosque/data=!4m7!3m6!1s0x39729b024cbdcc95:0xfcbd12e6a3bbcfb!8m2!3d27.4657809!4d76.5582934!16s%2Fg%2F11jnk7hxg5!19sChIJlcy9TAKbcjkR-7w7ai7Ryw8?authuser=0&hl=en&rclk=1,"27.4657809,76.5582934"
msjid pthroddaa,Mosque,"CPJV+53P msjid pthroddaa, Pathroda, Rajasthan 301021",,CPJV+53P,Pathroda,301021,Rajasthan,IN,https://www.google.com/maps/place/%E0%A4%AE%E0%A4%B8%E0%A5%8D%E0%A4%9C%E0%A4%BF%E0%A4%A6+%E0%A4%AA%E0%A4%A5%E0%A4%B0%E0%A5%8B%E0%A4%A1%E0%A4%BE/data=!4m7!3m6!1s0x39728d46704b6ddb:0xa478ed26b202f57b!8m2!3d27.4304623!4d76.7427183!16s%2Fg%2F11k72lzb3d!19sChIJ221LcEaNcjkRe_UCsibteKQ?authuser=0&hl=en&rclk=1,"27.4304623,76.74271829999999"
Behror,Condominium complex,"V7PH+GMM Behror, Nagar Palika Parshad,Mohalla, Jaitpura, Behror, Rajasthan","Gugdia, Jaitpura","V7PH+GMM, Nagar Palika Parshad,Mohalla",Behror,,Rajasthan,IN,https://www.google.com/maps/place/Behror/data=!4m7!3m6!1s0x396d51cb291e8ef3:0xf34c3c3c225c15be!8m2!3d27.8863291!4d76.2791583!16s%2Fg%2F11t7k28typ!19sChIJ844eKctRbTkRvhVcIjw8TPM?authuser=0&hl=en&rclk=1,"27.886329099999998,76.27915829999999"
behror,Warehouse,"behror, Behror Rd, Jharoda, Behror, Rajasthan 301701",Jharoda,Behror Rd,Behror,301701,Rajasthan,IN,https://www.google.com/maps/place/behror/data=!4m7!3m6!1s0x396d533c2a9be957:0xde801360822ec7e0!8m2!3d27.8997283!4d76.2771253!16s%2Fg%2F11kk1x09fg!19sChIJV-mbKjxTbTkR4McugmATgN4?authuser=0&hl=en&rclk=1,"27.8997283,76.2771253"
Don Nagar,Housing society,"W7F9+57 Don Nagar, Nareda Kalan, Rajasthan 301701",,W7F9+57,Nareda Kalan,,Rajasthan,IN,https://www.google.com/maps/place/Don+Nagar/data=!4m7!3m6!1s0x396d4d0e499f16d3:0xfef84d805d039ac9!8m2!3d27.9229!4d76.268196!16s%2Fg%2F11t7kz8t00!19sChIJ0xafSQ5NbTkRyZoDXYBN-P4?authuser=0&hl=en&rclk=1,"27.9229,76.268196"
mdrsaa msjid,Mosque,"J33R+Q8H mdrsaa msjid, Pragpura, Rajasthan 303107",,J33R+Q8H,Pragpura,303107,Rajasthan,IN,https://www.google.com/maps/place/%E0%A4%AE%E0%A4%A6%E0%A4%B0%E0%A4%B8%E0%A4%BE+%E0%A4%AE%E0%A4%B8%E0%A5%8D%E0%A4%9C%E0%A4%BF%E0%A4%A6/data=!4m7!3m6!1s0x396d41230b4ab2f5:0xefa58cf6781c3e27!8m2!3d27.6044461!4d76.090855!16s%2Fg%2F11rkfdqxj_!19sChIJ9bJKCyNBbTkRJz4cePaMpe8?authuser=0&hl=en&rclk=1,"27.604446099999997,76.09085499999999"
Maqka Masjid,Mosque,"HXMQ+C8F Maqka Masjid, Phootaki, Rajasthan 321024",,HXMQ+C8F,Phootaki,321024,Rajasthan,IN,https://www.google.com/maps/place/Maqka+Masjid/data=!4m7!3m6!1s0x3972ef30e6bb1021:0x92da9da212337da4!8m2!3d27.5835667!4d76.9882817!16s%2Fg%2F11rp2p577n!19sChIJIRC75jDvcjkRpH0zEqKd2pI?authuser=0&hl=en&rclk=1,"27.5835667,76.9882817"
Sesada Mandir,Hindu temple,"Sesada Mandir, Ward no 25, sesada Mohalla, Patel Nagar, Behror, Rajasthan 301701",Patel Nagar,"Ward no 25, sesada Mohalla",Behror,301701,Rajasthan,IN,https://www.google.com/maps/place/Sesada+Mandir/data=!4m7!3m6!1s0x396d53614868d007:0x6b82e3fa0fe49b1e!8m2!3d27.8998945!4d76.2868862!16s%2Fg%2F11h1z1w991!19sChIJB9BoSGFTbTkRHpvkD_rjgms?authuser=0&hl=en&rclk=1,"27.8998945,76.2868862"
Mosque,Mosque,"MHWF+4JG Mosque, Narnaul - Behror - Alwar Rd, Naglasedoo, Rajasthan 301001",,"MHWF+4JG, Narnaul - Behror - Alwar Rd",Naglasedoo,301001,Rajasthan,IN,https://www.google.com/maps/place/Mosque/data=!4m7!3m6!1s0x3972a3d59394e02b:0xc490f4b7b10c65e9!8m2!3d27.6953038!4d76.5740848!16s%2Fg%2F11rfc8v16y!19sChIJK-CUk9WjcjkR6WUMsbf0kMQ?authuser=0&hl=en&rclk=1,"27.695303799999998,76.5740848"
Masjid Hasampur gaon,Mosque,"Q26C+9W4 Masjid Hasampur gaon, Chakkola Ki Nangal, Rajasthan 332718",,Q26C+9W4,Chakkola Ki Nangal,332718,Rajasthan,IN,https://www.google.com/maps/place/Masjid+Hasampur+gaon/data=!4m7!3m6!1s0x396d3968c692ba85:0x5029e04b55166bf1!8m2!3d27.7608967!4d76.0223299!16s%2Fg%2F11tmsmlvd2!19sChIJhbqSxmg5bTkR8WsWVUvgKVA?authuser=0&hl=en&rclk=1,"27.7608967,76.0223299"
Masjid,Mosque,"M483+XH Masjid, Ajeetpura Kalan, Rajasthan 303108",,M483+XH,Ajeetpura Kalan,303108,Rajasthan,IN,https://www.google.com/maps/place/Masjid/data=!4m7!3m6!1s0x396d41851756049d:0x839ef516a639be21!8m2!3d27.6676765!4d76.1047001!16s%2Fg%2F11l70knwls!19sChIJnQRWF4VBbTkRIb45phb1noM?authuser=0&hl=en&rclk=1,"27.6676765,76.1047001"
Lalit's house,Mosque,"W9MJ+X22 Lalit's house, Kolila Joga, Rajasthan 301020",,W9MJ+X22,Kolila Joga,,Rajasthan,IN,https://www.google.com/maps/place/Lalit%27s+house/data=!4m7!3m6!1s0x396d55d4450bb5bf:0x3ac7169af3107599!8m2!3d27.9348817!4d76.38003!16s%2Fg%2F11sbdwq2h8!19sChIJv7ULRdRVbTkRmXUQ85oWxzo?authuser=0&hl=en&rclk=1,"27.9348817,76.38002999999999"
Sahi jumma masjid bhakeda,Mosque,"GHHP+MP9 Sahi jumma masjid bhakeda, Rundh Bhakhera, Alwar, Rajasthan 301001",,GHHP+MP9,"Rundh Bhakhera, Alwar",301001,Rajasthan,IN,https://www.google.com/maps/place/Sahi+jumma+masjid+bhakeda/data=!4m7!3m6!1s0x39729bfa01743dd7:0x81f558718325c22c!8m2!3d27.5291648!4d76.5868708!16s%2Fg%2F11mprv2qfk!19sChIJ1z10AfqbcjkRLMIlg3FY9YE?authuser=0&hl=en&rclk=1,"27.5291648,76.5868708"
Masji,Mosque,"MJRP+9GP Masji, Unnamed Road, Basai Jagta, Rajasthan 301001",,"MJRP+9GP, Unnamed Road",Basai Jagta,301001,Rajasthan,IN,https://www.google.com/maps/place/Masji/data=!4m7!3m6!1s0x3972a33e026d773d:0x24ad4cc55c6a9215!8m2!3d27.690975!4d76.636313!16s%2Fg%2F11p13cl5nr!19sChIJPXdtAj6jcjkRFZJqXMVMrSQ?authuser=0&hl=en&rclk=1,"27.690974999999998,76.636313"
New masjid,Mosque,"JMV8+723 New masjid, Chirkhana, Rajasthan 301028",,JMV8+723,Chirkhana,301028,Rajasthan,IN,https://www.google.com/maps/place/New+masjid/data=!4m7!3m6!1s0x39729726e44cdb2d:0x93617f1df0ced8de!8m2!3d27.6431513!4d76.6650713!16s%2Fg%2F11pv0d4v6d!19sChIJLdtM5CaXcjkR3tjO8B1_YZM?authuser=0&hl=en&rclk=1,"27.6431513,76.6650713"
Masjid,Mosque,"VQ25+44P Masjid, Mancha, Rajasthan 301405",,VQ25+44P,Mancha,301405,Rajasthan,IN,https://www.google.com/maps/place/Masjid/data=!4m7!3m6!1s0x3972b7262c81d753:0xd9394ce1a1d5c74a!8m2!3d27.8505599!4d76.7578238!16s%2Fg%2F11txxwqhsw!19sChIJU9eBLCa3cjkRSsfVoeFMOdk?authuser=0&hl=en&rclk=1,"27.8505599,76.7578238"
Masjid (Mosque),Mosque,"RJGJ+V9G Masjid (Mosque), Gura, Rajasthan 333053",,RJGJ+V9G,Gura,333053,Rajasthan,IN,https://www.google.com/maps/place/Masjid+%28Mosque%29/data=!4m7!3m6!1s0x396cd5282538166f:0x8c26a50982692611!8m2!3d27.827183!4d75.6309641!16s%2Fg%2F11s_vnxqcw!19sChIJbxY4JSjVbDkRESZpggmlJow?authuser=0&hl=en&rclk=1,"27.827182999999998,75.6309641"
Nurani.masjid.muindya.khara,Mosque,"JPW2+M9R Nurani.masjid.muindya.khara, Mundiya Khera, Rajasthan 301028",,JPW2+M9R,Mundiya Khera,301028,Rajasthan,IN,https://www.google.com/maps/place/Nurani.masjid.muindya.khara/data=!4m7!3m6!1s0x397297e5ee3b095f:0xfcbe3a5ad988341b!8m2!3d27.6467317!4d76.7008973!16s%2Fg%2F11ry964v5w!19sChIJXwk77uWXcjkRGzSI2Vo6vvw?authuser=0&hl=en&rclk=1,"27.6467317,76.7008973"
JAMMA MASJID,Mosque,"RP7G+X4Q JAMMA MASJID, Sefraguwar, Sephara Gunwar, Rajasthan 332716",,RP7G+X4Q,"Sefraguwar, Sephara Gunwar",332716,Rajasthan,IN,https://www.google.com/maps/place/JAMMA+MASJID/data=!4m7!3m6!1s0x396d29d0d8928911:0x977e6e4f4f36d1b7!8m2!3d27.8148706!4d75.7255335!16s%2Fg%2F11srwcsr_t!19sChIJEYmS2NApbTkRt9E2T09ufpc?authuser=0&hl=en&rclk=1,"27.8148706,75.7255335"
Juma masjid khoida,Mosque,"PRR7+P84 Juma masjid khoida, Chor Basai, Rajasthan 301025",,PRR7+P84,Chor Basai,,Rajasthan,IN,https://www.google.com/maps/place/Juma+masjid+khoida/data=!4m7!3m6!1s0x3972bf0e376a0def:0xf09dc25c8533daf3!8m2!3d27.7417617!4d76.8133172!16s%2Fg%2F11mc07wct0!19sChIJ7w1qNw6_cjkR89ozhVzCnfA?authuser=0&hl=en&rclk=1,"27.741761699999998,76.8133172"
Masjid e roja,Mosque,"FHX7+9V8 Masjid e roja, Village roja ka bas, post, Chandauli, Rajasthan",,"FHX7+9V8, Village roja ka bas, post","Chandauli, Umrain",,Rajasthan,IN,https://www.google.com/maps/place/Masjid+e+roja/data=!4m7!3m6!1s0x39729bb165698df3:0x95f6237b494e8bcf!8m2!3d27.4984023!4d76.5646889!16s%2Fg%2F11q1c_3550!19sChIJ841pZbGbcjkRz4tOSXsj9pU?authuser=0&hl=en&rclk=1,"27.4984023,76.5646889"
PURANI MEWAT MASJID BJHEDI,Mosque,"F2F3+P7C PURANI MEWAT MASJID BJHEDI, Mundpuri Khurd, Rajasthan 301604",,F2F3+P7C,Mundpuri Khurd,301604,Rajasthan,IN,https://www.google.com/maps/place/PURANI+MEWAT+MASJID+BJHEDI/data=!4m7!3m6!1s0x3972f1b0ca9ca125:0x50c6a1345764840a!8m2!3d27.4743121!4d77.0031317!16s%2Fg%2F11s462_qhx!19sChIJJaGcyrDxcjkRCoRkVzShxlA?authuser=0&hl=en&rclk=1,"27.4743121,77.0031317"
Masjid,Mosque,"Masjid, 63C, Main Road, Peesoo, Bhadaka, Rajasthan 321204",Peesoo,"63C, Main Road",Bhadaka,321204,Rajasthan,IN,https://www.google.com/maps/place/Masjid/data=!4m7!3m6!1s0x3972e70374d4c929:0xb43326bf954ffba4!8m2!3d27.6519941!4d77.0865101!16s%2Fg%2F11qt2r5_y7!19sChIJKcnUdAPncjkRpPtPlb8mM7Q?authuser=0&hl=en&rclk=1,"27.6519941,77.0865101"
Masjid,Mosque,"XV8J+V6C Masjid, Tyonda, Rajasthan 333503",,XV8J+V6C,Tyonda,333503,Rajasthan,IN,https://www.google.com/maps/place/Masjid/data=!4m7!3m6!1s0x3912d3455cde7e59:0xb86dec86e9094c8e!8m2!3d27.9671827!4d75.8805188!16s%2Fg%2F11n0dc5d_h!19sChIJWX7eXEXTEjkRjkwJ6Ybsbbg?authuser=0&hl=en&rclk=1,"27.9671827,75.88051879999999"
Jumma masjid single's jatiyana julfed badshah,Mosque,"JJH6+8X6 Jumma masjid single's jatiyana julfed badshah, Jatiyana, Rajasthan 301001",,JJH6+8X6,Jatiyana,301001,Rajasthan,IN,https://www.google.com/maps/place/Jumma+masjid+single%27s+jatiyana+julfed+badshah/data=!4m7!3m6!1s0x3972997299cd099f:0x5a3b5fc98b1398e2!8m2!3d27.6283125!4d76.6124375!16s%2Fg%2F11pzbrj8rs!19sChIJnwnNmXKZcjkR4pgTi8lfO1o?authuser=0&hl=en&rclk=1,"27.6283125,76.6124375"
iilaahii msjid,Mosque,"JMV8+36P iilaahii msjid, Chirkhana, Rajasthan 301028",,JMV8+36P,Chirkhana,301028,Rajasthan,IN,https://www.google.com/maps/place/%E0%A4%88%E0%A4%B2%E0%A4%BE%E0%A4%B9%E0%A5%80+%E0%A4%AE%E0%A4%B8%E0%A5%8D%E0%A4%9C%E0%A4%BF%E0%A4%A6/data=!4m7!3m6!1s0x39729756ced5e57f:0xa62e1813430b2718!8m2!3d27.6426978!4d76.6655796!16s%2Fg%2F11t286bk3t!19sChIJf-XVzlaXcjkRGCcLQxMYLqY?authuser=0&hl=en&rclk=1,"27.642697799999997,76.6655796"
Masjid,Mosque,"VM6H+253 Masjid, Nangli Mewan, Rajasthan 301405",,VM6H+253,Nangli Mewan,301405,Rajasthan,IN,https://www.google.com/maps/place/Masjid/data=!4m7!3m6!1s0x3972b15bbdeeb353:0x3f5d54a4ec81f006!8m2!3d27.8600044!4d76.6779156!16s%2Fg%2F11rxjtqxf8!19sChIJU7PuvVuxcjkRBvCB7KRUXT8?authuser=0&hl=en&rclk=1,"27.860004399999998,76.67791559999999"
Behror,,"Behror, Rajasthan 301701",,,Behror,,Rajasthan,IN,https://www.google.com/maps/place/Behror/data=!4m7!3m6!1s0x396d51fe6036d50d:0x77f8a6c32f08476b!8m2!3d27.8946773!4d76.2820297!16zL20vMGYwZDZq!19sChIJDdU2YP5RbTkRa0cIL8Om-Hc?authuser=0&hl=en&rclk=1,"27.894677299999998,76.2820297"
Bahror,,"Bahror, Rajasthan",,,,,Rajasthan,IN,https://www.google.com/maps/place/Bahror/data=!4m7!3m6!1s0x396d52130f5aa091:0x22e190ac1ebc16bb!8m2!3d27.8946248!4d76.281988!16s%2Fg%2F11rq2cjjx_!19sChIJkaBaDxNSbTkRuxa8HqyQ4SI?authuser=0&hl=en&rclk=1,"27.8946248,76.281988"
Peere Nurani Masjid Mosampur,,"R8R8+26H Peere Nurani Masjid Mosampur, Mosampur at Kankara, Rajasthan 301701",,R8R8+26H,Mosampur at Kankara,301701,Rajasthan,IN,https://www.google.com/maps/place/Peere+Nurani+Masjid+Mosampur/data=!4m7!3m6!1s0x396d515b3fbbff73:0xfe33f41f84b4770c!8m2!3d27.8400566!4d76.3156085!16s%2Fg%2F11pwjcv7j7!19sChIJc_-7P1tRbTkRDHe0hB_0M_4?authuser=0&hl=en&rclk=1,"27.8400566,76.3156085"
Jay kirana store,Store,"Jay kirana store, Kankardopa, Industrial Area, Behror, Rajasthan 301701","Kankardopa, Industrial Area",,Behror,301701,Rajasthan,IN,https://www.google.com/maps/place/Jay+kirana+store/data=!4m7!3m6!1s0x396d5360c70f1887:0x318de6030961d654!8m2!3d27.9053593!4d76.3072734!16s%2Fg%2F11smr8wczv!19sChIJhxgPx2BTbTkRVNZhCQPmjTE?authuser=0&hl=en&rclk=1,"27.905359299999997,76.3072734"
Chhavi Mega Mart,Food products supplier,"Chhavi Mega Mart, near by DAV School, Jaitpura Mahalla, Behror, Rajasthan 301701",Jaitpura Mahalla,near by DAV School,Behror,301701,Rajasthan,IN,https://www.google.com/maps/place/Chhavi+Mega+Mart/data=!4m7!3m6!1s0x396d531ac3204ea7:0xc82cfafc1613f1a9!8m2!3d27.8946773!4d76.2820297!16s%2Fg%2F11kj4y84r2!19sChIJp04gwxpTbTkRqfETFvz6LMg?authuser=0&hl=en&rclk=1,"27.894677299999998,76.2820297"
