name,main_category,address,address_ward,address_street,address_city,address_postal_code,address_state,address_country_code,link,coordinates
Sultan Mosque,Mosque,"3 Muscat St, Sultan Mosque, Singapore 198833",Kampong Glam,3 Muscat St,Singapore,198833,,SG,https://www.google.com/maps/place/Sultan+Mosque/data=!4m7!3m6!1s0x31da19b0d96aac6f:0xfca1ad52b1fa5313!8m2!3d1.3022854!4d103.8589636!16zL20vMDU5N3N2!19sChIJb6xq2bAZ2jERE1P6sVKtofw?authuser=0&hl=en&rclk=1,"1.3022854,103.8589636"
Masjid Al-Falah,Mosque,"22 Bideford Rd, #01-01 Masjid Al-Falah, Singapore 229923",Central Area,"22 Bideford Rd, #01-01",Singapore,229923,,SG,https://www.google.com/maps/place/Masjid+Al-Falah/data=!4m7!3m6!1s0x31da1993d7d314bb:0x58506ef0f0487b4f!8m2!3d1.3035271!4d103.836921!16s%2Fm%2F02x53rg!19sChIJuxTT15MZ2jERT3tI8PBuUFg?authuser=0&hl=en&rclk=1,"1.3035271,103.83692099999999"
Masjid Abdul Gafoor,Mosque,"41 Dunlop St, Masjid Abdul Gafoor, Singapore 209369",Central Area,41 Dunlop St,Singapore,209369,,SG,https://www.google.com/maps/place/Masjid+Abdul+Gafoor/data=!4m7!3m6!1s0x31da19b9a1024091:0xeda3abefb724fcc3!8m2!3d1.3043801!4d103.8536882!16s%2Fm%2F025y618!19sChIJkUACobkZ2jERw_wkt--ro-0?authuser=0&hl=en&rclk=1,"1.3043801,103.8536882"
Masjid Al-Muttaqin,Mosque,"5140 Ang Mo Kio Ave 6, Masjid Al-Muttaqin, Singapore 569844",Ang Mo Kio,5140 Ang Mo Kio Ave 6,Singapore,569844,,SG,https://www.google.com/maps/place/Masjid+Al-Muttaqin/data=!4m7!3m6!1s0x31da16e76db6ccf1:0xc622537398b413b!8m2!3d1.370394!4d103.8459948!16s%2Fm%2F02x2s9h!19sChIJ8cy2becW2jERO0GLOTclYgw?authuser=0&hl=en&rclk=1,"1.370394,103.8459948"
Hajjah Fatimah Mosque,Mosque,"4001 Beach Rd, Hajjah Fatimah Mosque, Singapore 199584",Kampong Glam,4001 Beach Rd,Singapore,199584,,SG,https://www.google.com/maps/place/Hajjah+Fatimah+Mosque/data=!4m7!3m6!1s0x31da19b3f7665e23:0x5afb5c8b63707a23!8m2!3d1.3029317!4d103.8629148!16zL20vMDVxNzlx!19sChIJI15m97MZ2jERI3pwY4tc-1o?authuser=0&hl=en&rclk=1,"1.3029317,103.8629148"
Jamae (Chulia) Mosque,Mosque,"218 South Bridge Rd, Jamae (Chulia) Mosque, Singapore 058767",Chinatown,218 South Bridge Rd,Singapore,058767,,SG,https://www.google.com/maps/place/Jamae+%28Chulia%29+Mosque/data=!4m7!3m6!1s0x31da190cb7d50e55:0x8cdf83d8da382226!8m2!3d1.2832261!4d103.8454284!16zL20vMDYya2h4!19sChIJVQ7VtwwZ2jERJiI42tiD34w?authuser=0&hl=en&rclk=1,"1.2832261,103.84542839999999"
Masjid Al-Istighfar,Mosque,"2 Pasir Ris Walk, Masjid Al-Istighfar, Singapore 518239",Pasir Ris,2 Pasir Ris Walk,Singapore,518239,,SG,https://www.google.com/maps/place/Masjid+Al-Istighfar/data=!4m7!3m6!1s0x31da3c525a25d8ef:0x9fac650ff194354b!8m2!3d1.37113!4d103.9640334!16s%2Fm%2F02x53y9!19sChIJ79glWlI82jERSzWU8Q9lrJ8?authuser=0&hl=en&rclk=1,"1.37113,103.96403339999999"
Masjid Darul Ghufran,Mosque,"503 Tampines Ave 5, Masjid Darul Ghufran, Singapore 529651",Tampines,503 Tampines Ave 5,Singapore,529651,,SG,https://www.google.com/maps/place/Masjid+Darul+Ghufran/data=!4m7!3m6!1s0x31da3d0d0d15ceeb:0xec1df4b574e3de37!8m2!3d1.3553898!4d103.9398574!16s%2Fm%2F02pznwz!19sChIJ684VDQ092jERN97jdLX0Hew?authuser=0&hl=en&rclk=1,"1.3553898,103.9398574"
Masjid Al-Ansar,Mosque,"155 Bedok North Ave 1, Masjid Al-Ansar, Singapore 469751",Bedok,155 Bedok North Ave 1,Singapore,469751,,SG,https://www.google.com/maps/place/Masjid+Al-Ansar/data=!4m7!3m6!1s0x31da3d4d5060b3d9:0xdec328fe55f9e821!8m2!3d1.3269721!4d103.9263872!16s%2Fm%2F02x2t84!19sChIJ2bNgUE092jERIej5Vf4ow94?authuser=0&hl=en&rclk=1,"1.3269720999999999,103.9263872"
Masjid Al-Mawaddah,Mosque,"151 Compassvale Bow, Masjid Al-Mawaddah, Singapore 544997",Sengkang,151 Compassvale Bow,Singapore,544997,,SG,https://www.google.com/maps/place/Masjid+Al-Mawaddah/data=!4m7!3m6!1s0x31da10d38f8a1c8f:0x1e898e8f4d9b01!8m2!3d1.3836191!4d103.8904374!16s%2Fm%2F02z6vrc!19sChIJjxyKj9MQ2jERAZtNj46JHgA?authuser=0&hl=en&rclk=1,"1.3836191,103.8904374"
Masjid Omar Kampong Melaka,Mosque,"10 Keng Cheow St, Masjid Omar Kampong Melaka, Singapore 059607",Central Area,10 Keng Cheow St,Singapore,059607,,SG,https://www.google.com/maps/place/Masjid+Omar+Kampong+Melaka/data=!4m7!3m6!1s0x31da19753636219f:0x2e2cb7ee8f495192!8m2!3d1.2878575!4d103.8441934!16zL20vMGNoNjly!19sChIJnyE2NnUZ2jERklFJj-63LC4?authuser=0&hl=en&rclk=1,"1.2878574999999999,103.8441934"
Masjid Al-Abrar,Mosque,"192 Telok Ayer St, Masjid Al-Abrar, Singapore 068635",Chinatown,192 Telok Ayer St,Singapore,068635,,SG,https://www.google.com/maps/place/Masjid+Al-Abrar/data=!4m7!3m6!1s0x31da190d70dc9051:0x1ac0a38d7f23ec89!8m2!3d1.280363!4d103.8472233!16zL20vMDlubnJw!19sChIJUZDccA0Z2jERiewjf42jwBo?authuser=0&hl=en&rclk=1,"1.280363,103.8472233"
Masjid Al-Khair,Mosque,"1 Teck Whye Cres, Masjid Al-Khair, Singapore 688847",Choa Chu Kang,1 Teck Whye Cres,Singapore,688847,,SG,https://www.google.com/maps/place/Masjid+Al-Khair/data=!4m7!3m6!1s0x31da11c03abdd449:0x20da0692944d714d!8m2!3d1.382654!4d103.7499536!16s%2Fm%2F02x541s!19sChIJSdS9OsAR2jERTXFNlJIG2iA?authuser=0&hl=en&rclk=1,"1.3826539999999998,103.7499536"
Masjid Al-Iman,Mosque,"10 Bukit Panjang Ring Rd, Masjid Al-Iman, Singapore 679943",Bukit Panjang,10 Bukit Panjang Ring Rd,Singapore,679943,,SG,https://www.google.com/maps/place/Masjid+Al-Iman/data=!4m7!3m6!1s0x31da11a7213776ff:0x3aecc72bb4f2950d!8m2!3d1.3780857!4d103.7725655!16s%2Fm%2F02x53vx!19sChIJ_3Y3IacR2jERDZXytCvH7Do?authuser=0&hl=en&rclk=1,"1.3780857,103.7725655"
Masjid Malabar,Mosque,"471 Victoria St, Masjid Malabar, Singapore 198370",Kampong Glam,471 Victoria St,Singapore,198370,,SG,https://www.google.com/maps/place/Masjid+Malabar/data=!4m7!3m6!1s0x31da19b6fbd5459b:0xf3ad655a2f10647a!8m2!3d1.3050625!4d103.8598963!16zL20vMGIxbWYw!19sChIJm0XV-7YZ2jERemQQL1plrfM?authuser=0&hl=en&rclk=1,"1.3050625,103.85989629999999"
Masjid An-Nahdhah,Mosque,"9A Bishan Street 14, Masjid An-Nahdhah, Singapore 579786",Bishan,9A Bishan Street 14,Singapore,579786,,SG,https://www.google.com/maps/place/Masjid+An-Nahdhah/data=!4m7!3m6!1s0x31da1710b7d66331:0xb9d97f073d8378c5!8m2!3d1.3533566!4d103.8513459!16s%2Fm%2F02x2rdm!19sChIJMWPWtxAX2jERxXiDPQd_2bk?authuser=0&hl=en&rclk=1,"1.3533566,103.8513459"
Masjid Ahmad Ibrahim msjd,Mosque,"15 Jln. Ulu Seletar, Masjid Ahmad Ibrahim msjd, Singapore 769227",Yishun,15 Jln. Ulu Seletar,Singapore,769227,,SG,https://www.google.com/maps/place/Masjid+Ahmad+Ibrahim+%D9%85%D8%B3%D8%AC%D8%AF%E2%80%AD/data=!4m7!3m6!1s0x31da13f8b4493185:0xe9cc7dd2a7e15721!8m2!3d1.4066094!4d103.8204487!16s%2Fm%2F02x2s_j!19sChIJhTFJtPgT2jERIVfhp9J9zOk?authuser=0&hl=en&rclk=1,"1.4066094,103.8204487"
Masjid Al Abdul Razak,Mosque,"30 Jln Ismail, Masjid Al Abdul Razak, Singapore 419285",Bedok,30 Jln Ismail,Singapore,419285,,SG,https://www.google.com/maps/place/Masjid+Al+Abdul+Razak/data=!4m7!3m6!1s0x31da1803c851170d:0x88f6735d95627eff!8m2!3d1.323364!4d103.907285!16s%2Fm%2F02x2swd!19sChIJDRdRyAMY2jER_35ilV1z9og?authuser=0&hl=en&rclk=1,"1.323364,103.907285"
Masjid Abdul Hamid Kampung Pasiran,Mosque,"10 Gentle Rd, Masjid Abdul Hamid Kampung Pasiran, Singapore 309194",Novena,10 Gentle Rd,Singapore,309194,,SG,https://www.google.com/maps/place/Masjid+Abdul+Hamid+Kampung+Pasiran/data=!4m7!3m6!1s0x31da19e6f1252fbf:0xcdd03236b93f7cc!8m2!3d1.3199931!4d103.8410234!16s%2Fm%2F02x2sr8!19sChIJvy8l8eYZ2jERzPeTayMD3Qw?authuser=0&hl=en&rclk=1,"1.3199931,103.8410234"
Sallim Mattar Mosque msjd,Mosque,"1 Mattar Rd, Sallim Mattar Mosque msjd, Masjid Sallim Matter, Singapore 387725",Geylang,"1 Mattar Rd, Masjid Sallim Matter",Singapore,387725,,SG,https://www.google.com/maps/place/Sallim+Mattar+Mosque+%D9%85%D8%B3%D8%AC%D8%AF%E2%80%AD/data=!4m7!3m6!1s0x31da18278d7948f9:0xc78aa71629b1ea6f!8m2!3d1.32572!4d103.8812294!16s%2Fm%2F027tml8!19sChIJ-Uh5jScY2jERb-qxKRanisc?authuser=0&hl=en&rclk=1,"1.32572,103.8812294"
