name,main_category,address,address_ward,address_street,address_city,address_postal_code,address_state,address_country_code,link,coordinates
Kumaran Nagar Mosque,Mosque,"MX5V+J67 Kumaran Nagar Mosque, Kumaran nagar, Pollachi, Tamil Nadu 642001",K.V.R.Layout,"MX5V+J67, Kumaran nagar",Pollachi,642001,Tamil Nadu,IN,https://www.google.com/maps/place/Kumaran+Nagar+Mosque/data=!4m7!3m6!1s0x3ba839cb7e1996c3:0xaf97db611e990047!8m2!3d10.659033!4d76.9930374!16s%2Fg%2F12jbt0dwl!19sChIJw5YZfss5qDsRRwCZHmHbl68?authuser=0&hl=en&rclk=1,"10.659032999999999,76.99303739999999"
Masjid E Shafia,Mosque,"Masjid E Shafia, 82/6, SH 78, Periyapodhu, Suleeswaranpatti, Tamil Nadu 642001",Periyapodhu,"82/6, SH 78",Suleeswaranpatti,642001,Tamil Nadu,IN,https://www.google.com/maps/place/Masjid+E+Shafia/data=!4m7!3m6!1s0x3ba839d7ada5a11d:0x56eaded77b06e2bd!8m2!3d10.653592!4d77.0080615!16s%2Fg%2F11csqz3yxl!19sChIJHaGlrdc5qDsRveIGe9fe6lY?authuser=0&hl=en&rclk=1,"10.653592,77.0080615"
Market Road Masjid cntai viiti msjit,Mosque,"Market Road Masjid cntai viiti msjit, Railway Junction, Meenkarai Rd, Periyapodhu, Pollachi, Tamil Nadu 642001",Periyapodhu,"Railway Junction, Meenkarai Rd",Pollachi,642001,Tamil Nadu,IN,https://www.google.com/maps/place/Market+Road+Masjid+%E0%AE%9A%E0%AE%A8%E0%AF%8D%E0%AE%A4%E0%AF%88+%E0%AE%B5%E0%AF%80%E0%AE%A4%E0%AE%BF+%E0%AE%AE%E0%AE%B8%E0%AF%8D%E0%AE%9C%E0%AE%BF%E0%AE%A4%E0%AF%8D/data=!4m7!3m6!1s0x3ba839d1a32f6053:0xb537c97a44f2bd22!8m2!3d10.6546771!4d77.001071!16s%2Fg%2F126153tk4!19sChIJU2Avo9E5qDsRIr3yRHrJN7U?authuser=0&hl=en&rclk=1,"10.654677099999999,77.001071"
Raulah Mosque,Mosque,"M276+PF7 Raulah Mosque, Mahalingapuram, Tamil Nadu 642002",,M276+PF7,Mahalingapuram,642002,Tamil Nadu,IN,https://www.google.com/maps/place/Raulah+Mosque/data=!4m7!3m6!1s0x3ba83780655b18f5:0xd9d22d1da01c0302!8m2!3d10.6642989!4d77.0111631!16s%2Fg%2F11cmsx9r1x!19sChIJ9RhbZYA3qDsRAgMcoB0t0tk?authuser=0&hl=en&rclk=1,"10.6642989,77.01116309999999"
Tntj Mosque Pollachi,Mosque,"Tntj Mosque Pollachi, 124, tiruniilknnttr viiti, Periyapodhu, Pollachi, Tamil Nadu 642001",Periyapodhu,"124, tiruniilknnttr viiti",Pollachi,642001,Tamil Nadu,IN,https://www.google.com/maps/place/Tntj+Mosque+Pollachi/data=!4m7!3m6!1s0x3ba839d727322607:0x276fc969c3122e42!8m2!3d10.653537!4d77.0056616!16s%2Fg%2F11gclzc2fs!19sChIJByYyJ9c5qDsRQi4Sw2nJbyc?authuser=0&hl=en&rclk=1,"10.653537,77.0056616"
Masjidhe Rahmaniyya -(Sunnath Jamaath Masjid) msjite rhmaannniyaa,Mosque,"J2V4+Q2R Masjidhe Rahmaniyya -(Sunnath Jamaath Masjid) msjite rhmaannniyaa, Alagappa Colony, Pollachi, Tamil Nadu 642006",Alagappa Colony,J2V4+Q2R,Pollachi,642006,Tamil Nadu,IN,https://www.google.com/maps/place/Masjidhe+Rahmaniyya+-%28Sunnath+Jamaath+Masjid%29+%E0%AE%AE%E0%AE%B8%E0%AF%8D%E0%AE%9C%E0%AE%BF%E0%AE%A4%E0%AF%86+%E0%AE%B0%E0%AE%B9%E0%AF%8D%E0%AE%AE%E0%AE%BE%E0%AE%A9%E0%AE%BF%E0%AE%AF%E0%AE%BE/data=!4m7!3m6!1s0x3ba839dea42fda9f:0x49f67f4f72d563d1!8m2!3d10.6444968!4d77.0050286!16s%2Fg%2F11gbffvl8q!19sChIJn9ovpN45qDsR0WPVck9_9kk?authuser=0&hl=en&rclk=1,"10.644496799999999,77.0050286"
tntj Mosque S L PATTY,Mosque,"J2V3+956 tntj Mosque S L PATTY, Unnamed Road, Alagappa Colony, Pollachi, Tamil Nadu 642006",Alagappa Colony,"J2V3+956, Unnamed Road",Pollachi,642006,Tamil Nadu,IN,https://www.google.com/maps/place/tntj+Mosque+S+L+PATTY/data=!4m7!3m6!1s0x3ba839dc4649debb:0xb09e668b63957b56!8m2!3d10.6434081!4d77.0028997!16s%2Fg%2F11f30kc_dq!19sChIJu95JRtw5qDsRVnuVY4tmnrA?authuser=0&hl=en&rclk=1,"10.6434081,77.0028997"
Juma Masjid,Mosque,"Juma Masjid, 174, Bazaar St, Palaghat, Pollachi, Tamil Nadu 642001",Palaghat,"174, Bazaar St",Pollachi,642001,Tamil Nadu,IN,https://www.google.com/maps/place/Juma+Masjid/data=!4m7!3m6!1s0x3ba839d204d68b51:0xa1d125bd3addfe52!8m2!3d10.6587908!4d77.0081661!16s%2Fg%2F11h451gyc7!19sChIJUYvWBNI5qDsRUv7dOr0l0aE?authuser=0&hl=en&rclk=1,"10.6587908,77.0081661"
Masjid,Mosque,"MX2R+XPW Masjid, Kannappan Nagar, Pollachi, Tamil Nadu 642006",Kannappan Nagar,MX2R+XPW,Pollachi,642006,Tamil Nadu,IN,https://www.google.com/maps/place/Masjid/data=!4m7!3m6!1s0x3ba839f5125fda2d:0x380372a9d4679919!8m2!3d10.6524998!4d76.9918267!16s%2Fg%2F11h3kzhj1l!19sChIJLdpfEvU5qDsRGZln1KlyAzg?authuser=0&hl=en&rclk=1,"10.6524998,76.99182669999999"
MASJID-E-MOHAMMED SAL SUNNATH VAL JAMAATH,Mosque,"J2R3+7R6 MASJID-E-MOHAMMED SAL SUNNATH VAL JAMAATH, Alagappa Colony, Pollachi, Tamil Nadu 642006",Alagappa Colony,J2R3+7R6,Pollachi,642006,Tamil Nadu,IN,https://www.google.com/maps/place/MASJID-E-MOHAMMED+SAL+SUNNATH+VAL+JAMAATH/data=!4m7!3m6!1s0x3ba8396915767737:0x65342d07b686a45e!8m2!3d10.6406505!4d77.0045169!16s%2Fg%2F11fmmmt815!19sChIJN3d2FWk5qDsRXqSGtgctNGU?authuser=0&hl=en&rclk=1,"10.6406505,77.0045169"
Masjid un Noor,Mosque,"sinivasapuram, Masjid un Noor, pallivasal buliding, Narikkalpathy, Zamin Uthukuli, Akilandapuram, Pollachi, Tamil Nadu 642004","Narikkalpathy, Zamin Uthukuli, Akilandapuram","sinivasapuram, pallivasal buliding",Pollachi,642004,Tamil Nadu,IN,https://www.google.com/maps/place/Masjid+un+Noor/data=!4m7!3m6!1s0x3ba839f02176101f:0x68d1f3809f2f864b!8m2!3d10.6500326!4d76.9849303!16s%2Fg%2F11p0_knkbj!19sChIJHxB2IfA5qDsRS4Yvn4Dz0Wg?authuser=0&hl=en&rclk=1,"10.6500326,76.9849303"
Nagoor Mohaidheen mosque,Mosque,"M263+9X7 Nagoor Mohaidheen mosque, Palaghat, Pollachi, Tamil Nadu 642001",Palaghat,M263+9X7,Pollachi,,Tamil Nadu,IN,https://www.google.com/maps/place/Nagoor+Mohaidheen+mosque/data=!4m7!3m6!1s0x3ba8397b7b83dcbb:0x1451fe3acd764ec0!8m2!3d10.66091!4d77.0049157!16s%2Fg%2F11sprtnlvt!19sChIJu9yDe3s5qDsRwE52zTr-URQ?authuser=0&hl=en&rclk=1,"10.66091,77.0049157"
mosque tntj pollachi,Mosque,"mosque tntj pollachi, 6/2, street, Krishnaswamy Nagar, Palaghat, Pollachi, Tamil Nadu 642001",Palaghat,"6/2, street, Krishnaswamy Nagar",Pollachi,642001,Tamil Nadu,IN,https://www.google.com/maps/place/mosque+tntj+pollachi/data=!4m7!3m6!1s0x3ba839ef5f1bece1:0x1ecf1990cce489fe!8m2!3d10.6612411!4d77.005585!16s%2Fg%2F11p5j7g1z8!19sChIJ4ewbX-85qDsR_onkzJAZzx4?authuser=0&hl=en&rclk=1,"10.6612411,77.005585"
Tntj masjid (kovai therku),Mosque,"M234+C7M Tntj masjid (kovai therku), Periyapodhu, Pollachi, Tamil Nadu 642001",Periyapodhu,M234+C7M,Pollachi,642001,Tamil Nadu,IN,https://www.google.com/maps/place/Tntj+masjid+%28kovai+therku%29/data=!4m7!3m6!1s0x3ba839c256a49d01:0xd9019feb016327fe!8m2!3d10.653488!4d77.005651!16s%2Fg%2F11l2bqzg8g!19sChIJAZ2kVsI5qDsR_idjAeufAdk?authuser=0&hl=en&rclk=1,"10.653488,77.005651"
pollllaacci ssaahinnn paak,Mosque,"MX3R+GXC pollllaacci ssaahinnn paak, Kannappan Nagar, Pollachi, Tamil Nadu 642006",Kannappan Nagar,MX3R+GXC,Pollachi,642006,Tamil Nadu,IN,https://www.google.com/maps/place/%E0%AE%AA%E0%AF%8A%E0%AE%B3%E0%AF%8D%E0%AE%B3%E0%AE%BE%E0%AE%9A%E0%AF%8D%E0%AE%9A%E0%AE%BF+%E0%AE%B7%E0%AE%BE%E0%AE%B9%E0%AE%BF%E0%AE%A9%E0%AF%8D+%E0%AE%AA%E0%AE%BE%E0%AE%95%E0%AF%8D/data=!4m7!3m6!1s0x3ba8397199db1629:0x9c1ac087a238eb68!8m2!3d10.6538233!4d76.9923875!16s%2Fg%2F11j31tcrln!19sChIJKRbbmXE5qDsRaOs4oofAGpw?authuser=0&hl=en&rclk=1,"10.653823299999999,76.99238749999999"
Masjid,Mosque,"Masjid, 36, Municipal Office Rd, ATSC Theater, South side, Pollachi, Tamil Nadu 642001","ATSC Theater, South side","36, Municipal Office Rd",Pollachi,642001,Tamil Nadu,IN,https://www.google.com/maps/place/Masjid/data=!4m7!3m6!1s0x3ba83947a658c613:0x7b74e1080a842311!8m2!3d10.6607702!4d77.0028619!16s%2Fg%2F11s41bwnjt!19sChIJE8ZYpkc5qDsRESOECgjhdHs?authuser=0&hl=en&rclk=1,"10.6607702,77.0028619"
MASJITH for TNTJ,Mosque,"MASJITH for TNTJ, 6/2, street, Krishnaswamy Nagar, Palaghat, Pollachi, Tamil Nadu 642001",Palaghat,"6/2, street, Krishnaswamy Nagar",Pollachi,642001,Tamil Nadu,IN,https://www.google.com/maps/place/MASJITH+for+TNTJ/data=!4m7!3m6!1s0x3ba839cd36ec5af1:0xfd73d829f0591d16!8m2!3d10.6612349!4d77.00569!16s%2Fg%2F11p5j65lqm!19sChIJ8VrsNs05qDsRFh1Z8CnYc_0?authuser=0&hl=en&rclk=1,"10.6612349,77.00569"
Thakni Jamia Masjid,Mosque,"Thakni Jamia Masjid, 135, Vinayagar Kovil, Pollachi, Tamil Nadu 642001",Vinayagar Kovil,135,Pollachi,642001,Tamil Nadu,IN,https://www.google.com/maps/place/Thakni+Jamia+Masjid/data=!4m7!3m6!1s0x3ba8399e3db03f65:0x1915b5ff4ebe3db5!8m2!3d10.6591138!4d77.0074139!16s%2Fg%2F11r61r4vmj!19sChIJZT-wPZ45qDsRtT2-Tv-1FRk?authuser=0&hl=en&rclk=1,"10.6591138,77.0074139"
Main Mosque,Mosque,"M255+G6P Main Mosque, Palakkad - Pollachi Rd, Vinayagar Kovil, Pollachi, Tamil Nadu 642001",Vinayagar Kovil,"M255+G6P, Palakkad - Pollachi Rd",Pollachi,642001,Tamil Nadu,IN,https://www.google.com/maps/place/Main+Mosque/data=!4m7!3m6!1s0x3ba839d5af055555:0x392e0fa28b20d227!8m2!3d10.6588333!4d77.0080904!16s%2Fg%2F11tgg7f0t9!19sChIJVVUFr9U5qDsRJ9Igi6IPLjk?authuser=0&hl=en&rclk=1,"10.6588333,77.0080904"
Darul Ullom Arabi Madrasa & Masjid taarul uluum,Mosque,"M246+PHW Darul Ullom Arabi Madrasa & Masjid taarul uluum, Pattiyakaundanoor, Ramapattinam, BK Kovail Street, Pollachi, Tamil Nadu 642005",BK Kovail Street,"M246+PHW, Pattiyakaundanoor, Ramapattinam",Pollachi,642005,Tamil Nadu,IN,https://www.google.com/maps/place/Darul+Ullom+Arabi+Madrasa+%26+Masjid+%E0%AE%A4%E0%AE%BE%E0%AE%B0%E0%AF%81%E0%AE%B2%E0%AF%8D+%E0%AE%89%E0%AE%B2%E0%AF%82%E0%AE%AE%E0%AF%8D/data=!4m7!3m6!1s0x3ba8377e0bdbc7fb:0xd854eb8c31fdfbe3!8m2!3d10.65687!4d77.011443!16s%2Fg%2F11gf26j0hs!19sChIJ-8fbC343qDsR4_v9MYzrVNg?authuser=0&hl=en&rclk=1,"10.65687,77.011443"
