name,main_category,address,address_ward,address_street,address_city,address_postal_code,address_state,address_country_code,link,coordinates
Jamia Millia Islamia Central Mosque - jm` msjdi jm`h mlyh slmyh,Mosque,"Jamia Millia Islamia Central Mosque - jm` msjdi jm`h mlyh slmyh, Maulana Mohammad Ali Jauhar Marg, Jamia Millia Islamia, Jamia Nagar, Okhla, New Delhi, Delhi 110025","Jamia Millia Islamia, Jamia Nagar, Okhla",Maulana Mohammad Ali Jauhar Marg,New Delhi,110025,Delhi,IN,https://www.google.com/maps/place/Jamia+Millia+Islamia+Central+Mosque+-+%D8%AC%D8%A7%D9%85%D8%B9+%D9%85%D8%B3%D8%AC%D8%AF%D9%90+%D8%AC%D8%A7%D9%85%D8%B9%DB%81+%D9%85%D9%84%DB%8C%DB%81+%D8%A7%D8%B3%D9%84%D8%A7%D9%85%DB%8C%DB%81%E2%80%AD/data=!4m7!3m6!1s0x390ce38b112f4ff9:0xb882674201afdc30!8m2!3d28.5625429!4d77.2826111!16s%2Fg%2F1hhjtj1db!19sChIJ-U8vEYvjDDkRMNyvAUJngrg?authuser=0&hl=en&rclk=1,"28.5625429,77.2826111"
Jama Masjid Kahkashan jm` msjd,Mosque,"Jama Masjid Kahkashan jm` msjd, Block D, Shop No. E-1, Okhla Vihar Main Rd, Jamia Nagar, Okhla, New Delhi, Delhi 110025","Okhla Vihar, Okhla Vihar, Block D, Jamia Nagar, Okhla","Block D, Shop No. E-1, Okhla Vihar Main Rd",New Delhi,110025,Delhi,IN,https://www.google.com/maps/place/Jama+Masjid+Kahkashan+%D8%AC%D8%A7%D9%85%D8%B9+%D9%85%D8%B3%D8%AC%D8%AF%E2%80%AD/data=!4m7!3m6!1s0x390ce40964ba23d5:0x1bbbdd0080b3ca03!8m2!3d28.5551863!4d77.2898845!16s%2Fg%2F1pp2tynbb!19sChIJ1SO6ZAnkDDkRA8qzgADduxs?authuser=0&hl=en&rclk=1,"28.5551863,77.2898845"
Jama Masjid Abu Bakr Siddique Ahle Hadees,Mosque,"H78M+M32 Jama Masjid Abu Bakr Siddique Ahle Hadees, Zakir Nagar Main Rd, Mehboob Nagar, Jogabai Extension, Jamia Nagar, Okhla, New Delhi, Delhi 110025","Mehboob Nagar, Jogabai Extension, Jamia Nagar, Okhla","H78M+M32, Zakir Nagar Main Rd",New Delhi,110025,Delhi,IN,https://www.google.com/maps/place/Jama+Masjid+Abu+Bakr+Siddique+Ahle+Hadees/data=!4m7!3m6!1s0x390ce38962496867:0x3deed9e1febe9bfc!8m2!3d28.5666295!4d77.2826439!16s%2Fg%2F124srs5b7!19sChIJZ2hJYonjDDkR_Ju-_uHZ7j0?authuser=0&hl=en&rclk=1,"28.566629499999998,77.2826439"
Islah Masjid,Mosque,"H79M+M6V Islah Masjid, Sir Syed Lane, Block G, Jogabai Extension, Jamia Nagar, Okhla, Delhi 110025","Jogabai Extension, Jamia Nagar, Okhla","H79M+M6V, Sir Syed Lane, Block G",New Delhi,110025,Delhi,IN,https://www.google.com/maps/place/Islah+Masjid/data=!4m7!3m6!1s0x390ce3890763905d:0x405299a9a2d4dccb!8m2!3d28.569244!4d77.28306!16s%2Fg%2F1tqcjldp!19sChIJXZBjB4njDDkRy9zUoqmZUkA?authuser=0&hl=en&rclk=1,"28.569243999999998,77.28305999999999"
Al Taqwa Masjid,Mosque,"Al Taqwa Masjid, 42A, Jogabai Extension, Okhla, New Delhi, Delhi 110025","Jogabai Extension, Okhla",42A,New Delhi,110025,Delhi,IN,https://www.google.com/maps/place/Al+Taqwa+Masjid/data=!4m7!3m6!1s0x390ce3886898c141:0x9ba952352c057021!8m2!3d28.5711037!4d77.2843441!16s%2Fg%2F11b6j7lmqh!19sChIJQcGYaIjjDDkRIXAFLDVSqZs?authuser=0&hl=en&rclk=1,"28.5711037,77.2843441"
Masjid Babul ilm,Mosque,"Masjid Babul ilm, C 38/A, 1st Lane Johri Farm, Okhla Vihar, Noor Nagar Extension, Jamia Nagar, Okhla, New Delhi, Delhi 110025","Okhla Vihar, Noor Nagar Extension, Jamia Nagar, Okhla","C 38/A, 1st Lane Johri Farm",New Delhi,110025,Delhi,IN,https://www.google.com/maps/place/Masjid+Babul+ilm/data=!4m7!3m6!1s0x390ce40a39bfcf93:0xa9c385dc208c6d38!8m2!3d28.5567415!4d77.2885524!16s%2Fg%2F1pp2tybvr!19sChIJk8-_OQrkDDkROG2MINyFw6k?authuser=0&hl=en&rclk=1,"28.556741499999998,77.2885524"
Qadri Masjid,Mosque,"Qadri Masjid, Block B, Okhla, New Delhi, Delhi 110025","Block B, Okhla",,New Delhi,110025,Delhi,IN,https://www.google.com/maps/place/Qadri+Masjid/data=!4m7!3m6!1s0x390ce36de0bec701:0xcc7c32259ff900bf!8m2!3d28.5701385!4d77.2832833!16s%2Fg%2F11gmj38wz1!19sChIJAce-4G3jDDkRvwD5nyUyfMw?authuser=0&hl=en&rclk=1,"28.5701385,77.2832833"
"Moti Masjid,(Zakir Nagar)",Mosque,"H7CJ+68C Moti Masjid,(Zakir Nagar), Street Number 22, Jogabai Extension, Zakir Nagar, Okhla, New Delhi, Delhi 110025","Jogabai Extension, Zakir Nagar, Okhla","H7CJ+68C, Street Number 22",New Delhi,110025,Delhi,IN,"https://www.google.com/maps/place/Moti+Masjid,%28Zakir+Nagar%29/data=!4m7!3m6!1s0x390ce38f353f002d:0xcf47f401cf347829!8m2!3d28.5705609!4d77.2807799!16s%2Fg%2F1264gqdlr!19sChIJLQA_NY_jDDkRKXg0zwH0R88?authuser=0&hl=en&rclk=1","28.5705609,77.2807799"
Noor Masjid,Mosque,"H73X+CHG Noor Masjid, Kalindi Kunj Rd, Abul Fazal Enclave Part 1, Block J, Jamia Nagar, Okhla, New Delhi, Delhi 110025","Abul Fazal Enclave Part 1, Block J, Jamia Nagar, Okhla","H73X+CHG, Kalindi Kunj Rd",New Delhi,110025,Delhi,IN,https://www.google.com/maps/place/Noor+Masjid/data=!4m7!3m6!1s0x390ce4103435d885:0x70062933e057a0e8!8m2!3d28.5535535!4d77.2989652!16s%2Fg%2F11btvb5bqr!19sChIJhdg1NBDkDDkR6KBX4DMpBnA?authuser=0&hl=en&rclk=1,"28.5535535,77.2989652"
Masjid Abu Bakr,Mosque,"H78H+5JH Masjid Abu Bakr, Zakir Nagar, Okhla, New Delhi, Delhi 110025","Zakir Nagar, Okhla",H78H+5JH,New Delhi,110025,Delhi,IN,https://www.google.com/maps/place/Masjid+Abu+Bakr/data=!4m7!3m6!1s0x390ce38f1d28095f:0xa4ca1135e803cbd7!8m2!3d28.5654308!4d77.2790984!16s%2Fg%2F11bwqmc4wb!19sChIJXwkoHY_jDDkR18sD6DURyqQ?authuser=0&hl=en&rclk=1,"28.565430799999998,77.2790984"
Qadri Masjid,Mosque,"Qadri Masjid, Abul Fazal Enclave Part 1, Part 1 Abul Fazal Enclave, Block K, Jamia Nagar, Jasola, New Delhi, Delhi 110025","Part 1 Abul Fazal Enclave, Block K, Jamia Nagar, Jasola",Abul Fazal Enclave Part 1,New Delhi,110025,Delhi,IN,https://www.google.com/maps/place/Qadri+Masjid/data=!4m7!3m6!1s0x390ce40fe0570add:0x99de0a46888db8c8!8m2!3d28.552211!4d77.2979359!16s%2Fg%2F1q5hrj9ft!19sChIJ3QpX4A_kDDkRyLiNiEYK3pk?authuser=0&hl=en&rclk=1,"28.552211,77.2979359"
Mustafa Masjid.,Mosque,"Mustafa Masjid., 15/5, Block S, Jogabai Extension, Okhla, New Delhi, Delhi 110025","Block S, Jogabai Extension, Okhla",15/5,New Delhi,110025,Delhi,IN,https://www.google.com/maps/place/Mustafa+Masjid./data=!4m7!3m6!1s0x390ce477f5b50bef:0x57f907ed9493508b!8m2!3d28.5725194!4d77.2876617!16s%2Fg%2F11cs26h4zl!19sChIJ7wu19XfkDDkRi1CTlO0H-Vc?authuser=0&hl=en&rclk=1,"28.572519399999997,77.2876617"
Jama Masjid Sanjay Colony,Mosque,"Jama Masjid Sanjay Colony, A-118, Sanjay Colony II, Pocket A, Sanjay Colony, Okhla Phase II, Okhla Industrial Estate, New Delhi, Delhi 110020","Sanjay Colony II, Pocket A, Sanjay Colony, Okhla Phase II, Okhla Industrial Estate",A-118,New Delhi,110020,Delhi,IN,https://www.google.com/maps/place/Jama+Masjid+Sanjay+Colony/data=!4m7!3m6!1s0x390ce3e33dd9b56b:0x506aac2de8cce5ea!8m2!3d28.5408078!4d77.2735475!16s%2Fg%2F11dymq0rfq!19sChIJa7XZPePjDDkR6uXM6C2salA?authuser=0&hl=en&rclk=1,"28.5408078,77.27354749999999"
Madina Masjid,Mosque,"F359+52J Madina Masjid, adtara okha, Okha",Gandhi Nagari,"F359+52J, adtara okha",Okha,,Gujarat,IN,https://www.google.com/maps/place/Madina+Masjid/data=!4m7!3m6!1s0x3956a49733cae2b7:0xe999a2467ceac09c!8m2!3d22.4579643!4d69.0675109!16s%2Fg%2F11bxftn4fz!19sChIJt-LKM5ekVjkRnMDqfEaimek?authuser=0&hl=en&rclk=1,"22.4579643,69.0675109"
Eidgah,Mosque,"F33C+57H Eidgah, Dalda Bunder, Okha, Gujarat 361350",Dalda Bunder,F33C+57H,Okha,361350,Gujarat,IN,https://www.google.com/maps/place/Eidgah/data=!4m7!3m6!1s0x3956a498fb2b40a9:0xfd4f78b8a18bd668!8m2!3d22.4529369!4d69.0707408!16s%2Fg%2F11f31fpqd4!19sChIJqUAr-5ikVjkRaNaLobh4T_0?authuser=0&hl=en&rclk=1,"22.452936899999997,69.0707408"
Jama Masjid,Mosque,"Jama Masjid, Port Colony, Okha, Gujarat 361350",Port Colony,,Okha,361350,Gujarat,IN,https://www.google.com/maps/place/Jama+Masjid/data=!4m7!3m6!1s0x3956a533fe8417f3:0x7e0faa8a2dbd04d!8m2!3d22.4739048!4d69.0776814!16s%2Fg%2F11h1lsh55c!19sChIJ8xeE_jOlVjkRTdDboqj64Ac?authuser=0&hl=en&rclk=1,"22.4739048,69.0776814"
vsiilaa husenii cok,Mosque,"vsiilaa husenii cok, Gandhinagar bhunga 8347024986, Salim, Gandhi Nagari, Okha, Gujarat 361350",Gandhi Nagari,"Gandhinagar bhunga 8347024986, Salim",Okha,361350,Gujarat,IN,https://www.google.com/maps/place/%E0%AA%B5%E0%AA%B8%E0%AB%80%E0%AA%B2%E0%AA%BE+%E0%AA%B9%E0%AB%81%E0%AA%B8%E0%AB%87%E0%AA%A8%E0%AB%80+%E0%AA%9A%E0%AB%8B%E0%AA%95/data=!4m7!3m6!1s0x3956a5f26e367a73:0x61ba46f7927daad9!8m2!3d22.4651717!4d69.0705101!16s%2Fg%2F11h2dhy219!19sChIJc3o2bvKlVjkR2ap9kvdGumE?authuser=0&hl=en&rclk=1,"22.4651717,69.07051009999999"
Mumtaz Masjid,Mosque,"H79Q+MFC Mumtaz Masjid, Batla House, Jamia Nagar, Okhla, New Delhi, Delhi 110025","Batla House, Jamia Nagar, Okhla",H79Q+MFC,New Delhi,,Delhi,IN,https://www.google.com/maps/place/Mumtaz+Masjid/data=!4m7!3m6!1s0x390ce51ea4a1764d:0x7975b3d87786376a!8m2!3d28.5691957!4d77.2886424!16s%2Fg%2F11k3j1s_k9!19sChIJTXahpB7lDDkRajeGd9izdXk?authuser=0&hl=en&rclk=1,"28.569195699999998,77.2886424"
Jilani masjid,Mosque,"F38C+W68 Jilani masjid, Unnamed Road, Gandhi Nagari, Okha, Gujarat 361350",Gandhi Nagari,"F38C+W68, Unnamed Road",Okha,361350,Gujarat,IN,https://www.google.com/maps/place/Jilani+masjid/data=!4m7!3m6!1s0x3956a52eb1469f95:0xb77cbe217a74237!8m2!3d22.4672903!4d69.0705765!16s%2Fg%2F11lgrv_tz_!19sChIJlZ9GsS6lVjkRN0KnF-LLdws?authuser=0&hl=en&rclk=1,"22.4672903,69.0705765"
Noor Masjid,Mosque,"H74P+FV8 Noor Masjid, Jamia Nagar Extension, Noor Nagar Extension, Noor Nagar, Okhla, New Delhi, Delhi 110025","Jamia Nagar Extension, Noor Nagar Extension, Noor Nagar, Okhla",H74P+FV8,New Delhi,110025,Delhi,IN,https://www.google.com/maps/place/Noor+Masjid/data=!4m7!3m6!1s0x390ce5040b4a7b85:0x2184b4fd8a8ff99b!8m2!3d28.556154!4d77.2871877!16s%2Fg%2F11kpyv1bgh!19sChIJhXtKCwTlDDkRm_mPiv20hCE?authuser=0&hl=en&rclk=1,"28.556154,77.28718769999999"
