name,main_category,address,address_ward,address_street,address_city,address_postal_code,address_state,address_country_code,link,coordinates
Kunjali Marakkar Mosque,Mosque,"HH8X+466 Kunjali Marakkar Mosque, Iringal, Kerala 673521",,HH8X+466,Iringal,673521,Kerala,IN,https://www.google.com/maps/place/Kunjali+Marakkar+Mosque/data=!4m7!3m6!1s0x3ba685ca0f6b3a05:0xcc2581d8d30812bc!8m2!3d11.5652822!4d75.5980071!16s%2Fg%2F11bwh5v5qf!19sChIJBTprD8qFpjsRvBII09iBJcw?authuser=0&hl=en&rclk=1,"11.565282199999999,75.59800709999999"
Ayanikkad Badriya Juma Masjid,Mosque,"GJP7+5RX Ayanikkad Badriya Juma Masjid, Iringal, Kerala 673522",,GJP7+5RX,Iringal,673522,Kerala,IN,https://www.google.com/maps/place/Ayanikkad+Badriya+Juma+Masjid/data=!4m7!3m6!1s0x3ba685fb67182bcf:0x3a6cefe61e12667e!8m2!3d11.5354862!4d75.614606!16s%2Fg%2F11cs2gttmb!19sChIJzysYZ_uFpjsRfmYSHubvbDo?authuser=0&hl=en&rclk=1,"11.5354862,75.614606"
Chekkunthaya Masjid,Mosque,"HJ35+W58 Chekkunthaya Masjid, Iringal, Kerala 673522",,HJ35+W58,Iringal,673522,Kerala,IN,https://www.google.com/maps/place/Chekkunthaya+Masjid/data=!4m7!3m6!1s0x3ba685c4bc5077f5:0x5c894803caef3545!8m2!3d11.5547996!4d75.6079417!16s%2Fg%2F11c6f180f8!19sChIJ9XdQvMSFpjsRRTXvygNIiVw?authuser=0&hl=en&rclk=1,"11.554799599999999,75.6079417"
Salafi Masjid,Mosque,"HJ56+M84 Salafi Masjid, Iringal, Kerala 673522",,HJ56+M84,Iringal,673522,Kerala,IN,https://www.google.com/maps/place/Salafi+Masjid/data=!4m7!3m6!1s0x3ba685daa615827b:0x37e56e615c588a80!8m2!3d11.559145!4d75.6108237!16s%2Fg%2F11g8cxvjsw!19sChIJe4IVptqFpjsRgIpYXGFu5Tc?authuser=0&hl=en&rclk=1,"11.559145,75.6108237"
Ilahiyya Juma Masjid,Mosque,"HJ33+Q88 Ilahiyya Juma Masjid, Kottakkal, Iringal, Kerala 673521",Kottakkal,HJ33+Q88,Iringal,673521,Kerala,IN,https://www.google.com/maps/place/Ilahiyya+Juma+Masjid/data=!4m7!3m6!1s0x3ba685c6a78ea00b:0x124576386cb005dc!8m2!3d11.5544236!4d75.603331!16s%2Fg%2F11cs24yhwb!19sChIJC6COp8aFpjsR3AWwbDh2RRI?authuser=0&hl=en&rclk=1,"11.5544236,75.603331"
Muhyudheen Juma Masjid,Mosque,"HJ66+R2X Muhyudheen Juma Masjid, Iringal, Kerala 673522",,HJ66+R2X,Iringal,673522,Kerala,IN,https://www.google.com/maps/place/Muhyudheen+Juma+Masjid/data=!4m7!3m6!1s0x3ba685d03394556b:0x7334d41a03d03c74!8m2!3d11.5621096!4d75.6101188!16s%2Fg%2F11c0y63jzp!19sChIJa1WUM9CFpjsRdDzQAxrUNHM?authuser=0&hl=en&rclk=1,"11.5621096,75.6101188"
Masjid Jalal Kottakkal Iringal,Mosque,"HJ52+C62 Masjid Jalal Kottakkal Iringal, Iringal, Kerala 673521",,HJ52+C62,Iringal,673521,Kerala,IN,https://www.google.com/maps/place/Masjid+Jalal+Kottakkal+Iringal/data=!4m7!3m6!1s0x3ba685c62d084a53:0x2cc1e5d80b369e0f!8m2!3d11.5585232!4d75.6005066!16s%2Fg%2F11bw61pbvj!19sChIJU0oILcaFpjsRD542C9jlwSw?authuser=0&hl=en&rclk=1,"11.5585232,75.6005066"
Rifayya Masjid Kajiramulla Paramb,Mosque,"GJF7+WHV Rifayya Masjid Kajiramulla Paramb, Kozhikode, Kerala 673522",,GJF7+WHV,Kozhikode,673522,Kerala,IN,https://www.google.com/maps/place/Rifayya+Masjid+Kajiramulla+Paramb/data=!4m7!3m6!1s0x3ba68f566c6ba65d:0xc217da48800f59e5!8m2!3d11.5248593!4d75.6139247!16s%2Fg%2F11fx9kkd7b!19sChIJXaZrbFaPpjsR5VkPgEjaF8I?authuser=0&hl=en&rclk=1,"11.5248593,75.6139247"
Meenathkara masjid,Mosque,"GJQJ+P5F Meenathkara masjid, palayadnada po iringal via, 673521",,"GJQJ+P5F, palayadnada po iringal via",,673521,Kerala,IN,https://www.google.com/maps/place/Meenathkara+masjid/data=!4m7!3m6!1s0x3ba687f982851d35:0x3af42e8cbf9e25f7!8m2!3d11.5393122!4d75.6304343!16s%2Fg%2F11tf7vvf75!19sChIJNR2FgvmHpjsR9yWev4wu9Do?authuser=0&hl=en&rclk=1,"11.5393122,75.63043429999999"
Angadi Masjid iringal kottakkal,Mosque,"HH6X+G3P Angadi Masjid iringal kottakkal, Iringal, Kerala 673521",,HH6X+G3P,Iringal,673521,Kerala,IN,https://www.google.com/maps/place/Angadi+Masjid+iringal+kottakkal/data=!4m7!3m6!1s0x3ba685c82bcd76e1:0x18097031b06db9f4!8m2!3d11.561338!4d75.5977123!16s%2Fg%2F11bw613b1d!19sChIJ4XbNK8iFpjsR9LltsDFwCRg?authuser=0&hl=en&rclk=1,"11.561338,75.5977123"
Salafi Masjid,Mosque,"HH6X+79M Salafi Masjid, Kottakkal, Iringal, Kerala 673521",Kottakkal,HH6X+79M,Iringal,673521,Kerala,IN,https://www.google.com/maps/place/Salafi+Masjid/data=!4m7!3m6!1s0x3ba685c83b671415:0xdd305b60bb9a31ec!8m2!3d11.560722!4d75.5984224!16s%2Fg%2F11hbgbj0hh!19sChIJFRRnO8iFpjsR7DGau2BbMN0?authuser=0&hl=en&rclk=1,"11.560722,75.59842239999999"
Moorad Srambi,Mosque,"HJ66+R4G Moorad Srambi, Iringal, Kerala 673522",,HJ66+R4G,Iringal,673522,Kerala,IN,https://www.google.com/maps/place/Moorad+Srambi/data=!4m7!3m6!1s0x3ba685d034140aad:0x1d1ea76c602a26ac!8m2!3d11.5620537!4d75.6103292!16s%2Fg%2F11f0wlsc90!19sChIJrQoUNNCFpjsRrCYqYGynHh0?authuser=0&hl=en&rclk=1,"11.5620537,75.6103292"
Rolex oil mill Masjid,Mosque,"GJW2+XV Rolex oil mill Masjid, Iringal, Kerala 673522",,GJW2+XV,Iringal,673522,Kerala,IN,https://www.google.com/maps/place/Rolex+oil+mill+Masjid/data=!4m7!3m6!1s0x3ba685130149b41d:0x94d1694dfec24d9f!8m2!3d11.548593!4d75.601673!16s%2Fg%2F11rn76mwh3!19sChIJHbRJAROFpjsRn03C_k1p0ZQ?authuser=0&hl=en&rclk=1,"11.548593,75.60167299999999"
Ilahiyya Juma Masjid,Mosque,"Ilahiyya Juma Masjid, Palayad, Maniyur, Kerala 673523",Palayad,,Maniyur,,Kerala,IN,https://www.google.com/maps/place/Ilahiyya+Juma+Masjid/data=!4m7!3m6!1s0x3ba68674275cef69:0x14773001577dcbda!8m2!3d11.5547076!4d75.624733!16s%2Fg%2F1tdqm2db!19sChIJae9cJ3SGpjsR2st9VwEwdxQ?authuser=0&hl=en&rclk=1,"11.554707599999999,75.62473299999999"
Iringal Masjid Hilal,Mosque,"HJ33+F89 Iringal Masjid Hilal, Kottakkal, Iringal, Kerala 673521",Kottakkal,HJ33+F89,Iringal,673521,Kerala,IN,https://www.google.com/maps/place/Iringal+Masjid+Hilal/data=!4m7!3m6!1s0x3ba685c6aaaaaaab:0xccbc1d80f3570282!8m2!3d11.5536675!4d75.6033497!16s%2Fg%2F11c1lhyxw0!19sChIJq6qqqsaFpjsRggJX84AdvMw?authuser=0&hl=en&rclk=1,"11.5536675,75.6033497"
Masjid,Mosque,"HJ52+84C Masjid, Iringal, Kerala 673521",,HJ52+84C,Iringal,673521,Kerala,IN,https://www.google.com/maps/place/Masjid/data=!4m7!3m6!1s0x3ba685c7cd79ef81:0xf97ef0998c499aa8!8m2!3d11.5583198!4d75.600277!16s%2Fg%2F11dxq27hb2!19sChIJge95zceFpjsRqJpJjJnwfvk?authuser=0&hl=en&rclk=1,"11.5583198,75.60027699999999"
Kottakkal juma masjid,Mosque,"HH8X+384 Kottakkal juma masjid, Iringal Railway Station Rd, Kottakkal, Iringal, Kerala 673521",Kottakkal,"HH8X+384, Iringal Railway Station Rd",Iringal,673521,Kerala,IN,https://www.google.com/maps/place/Kottakkal+juma+masjid/data=!4m7!3m6!1s0x3ba6852062c212b3:0xdfa052f866c361d0!8m2!3d11.5651396!4d75.5983339!16s%2Fg%2F11rmsbnnmr!19sChIJsxLCYiCFpjsR0GHDZvhSoN8?authuser=0&hl=en&rclk=1,"11.5651396,75.5983339"
Darwish Juma Masjid & Sharaful islam Madrassa,Mosque,"Darwish Juma Masjid & Sharaful islam Madrassa, Kuttiyil Pedika, Iringal, Kerala 673522",,Kuttiyil Pedika,Iringal,673522,Kerala,IN,https://www.google.com/maps/place/Darwish+Juma+Masjid+%26+Sharaful+islam+Madrassa/data=!4m7!3m6!1s0x3ba6858f2ebb2431:0x89c072b0b566fd88!8m2!3d11.5279375!4d75.6180821!16s%2Fg%2F11h8btlsxd!19sChIJMSS7Lo-FpjsRiP1mtbBywIk?authuser=0&hl=en&rclk=1,"11.5279375,75.6180821"
New Badriyya Jumma Masjid,Mosque,"GJH6+JH9 New Badriyya Jumma Masjid, Unnamed Road, Iringal, Kerala 673522",,"GJH6+JH9, Unnamed Road",Iringal,673522,Kerala,IN,https://www.google.com/maps/place/New+Badriyya+Jumma+Masjid/data=!4m7!3m6!1s0x3ba685a689a50f3b:0xa071c2505256f75a!8m2!3d11.5290298!4d75.6114825!16s%2Fg%2F11fl3ymvc4!19sChIJOw-liaaFpjsRWvdWUlDCcaA?authuser=0&hl=en&rclk=1,"11.5290298,75.6114825"
sunni msjid kurrunynyi mukk,Mosque,"GM33+CH8 sunni msjid kurrunynyi mukk, Purakkad, Iringal, Kerala 673522",,GM33+CH8,"Purakkad, Iringal",673522,Kerala,IN,https://www.google.com/maps/place/%E0%B4%B8%E0%B5%81%E0%B4%A8%E0%B5%8D%E0%B4%A8%E0%B4%BF+%E0%B4%AE%E0%B4%B8%E0%B5%8D%E0%B4%9C%E0%B4%BF%E0%B4%A6%E0%B5%8D+%E0%B4%95%E0%B5%81%E0%B4%B1%E0%B5%81%E0%B4%9E%E0%B5%8D%E0%B4%9E%E0%B4%BF+%E0%B4%AE%E0%B5%81%E0%B4%95%E0%B5%8D%E0%B4%95%E0%B5%8D/data=!4m7!3m6!1s0x3ba6858a3af93fad:0x15cc97d3091cbbfe!8m2!3d11.5320945!4d75.6149893!16s%2Fg%2F11q8y53x90!19sChIJrT_5OoqFpjsR_rscCdOXzBU?authuser=0&hl=en&rclk=1,"11.5320945,75.61498929999999"
