name,main_category,address,address_ward,address_street,address_city,address_postal_code,address_state,address_country_code,link,coordinates
Jama Masjid,Mosque,"Jama Masjid, Old Delhi, Delhi, 110006","Jama Masjid, Old Delhi",,Delhi,110006,Delhi,IN,https://www.google.com/maps/place/Jama+Masjid/data=!4m7!3m6!1s0x390cfd18df89b215:0xdd57369e29bf9d96!8m2!3d28.6506792!4d77.2334421!16zL20vMDR5emo1!19sChIJFbKJ3xj9DDkRlp2_KZ42V90?authuser=0&hl=en&rclk=1,"28.6506792,77.23344209999999"
Badi Masjid (brry msjd),Mosque,"2144, Badi Masjid (brry msjd), Turkman Gate, Asaf Ali Rd, Phatak Teliyan, Katra Chobey Lal, Chandni Chowk, Delhi, 110002","Phatak Teliyan, Katra Chobey Lal, Chandni Chowk","2144, Turkman Gate, Asaf Ali Rd",Delhi,110002,Delhi,IN,https://www.google.com/maps/place/Badi+Masjid+%28%D8%A8%DA%91%DB%8C+%D9%85%D8%B3%D8%AC%D8%AF%29%E2%80%AD/data=!4m7!3m6!1s0x390cfd239073b37f:0x43a13d14f694fc55!8m2!3d28.642746!4d77.2323859!16s%2Fg%2F1pw3wybbx!19sChIJf7NzkCP9DDkRVfyU9hQ9oUM?authuser=0&hl=en&rclk=1,"28.642746,77.2323859"
JAMA MASJID ALVIYA | MADARSA ISLAMIA GHOUSIA jm` msjd `lwyh w mdrsh slmyh Gwthyh,Mosque,"JAMA MASJID ALVIYA | MADARSA ISLAMIA GHOUSIA jm` msjd `lwyh w mdrsh slmyh Gwthyh, F1/ 342, Mangal Bazaar Rd, Block C, Block F 3, Sangam Vihar, New Delhi, Delhi 110080","Block C, Block F 3, Sangam Vihar","F1/ 342, Mangal Bazaar Rd",New Delhi,110080,Delhi,IN,https://www.google.com/maps/place/JAMA+MASJID+ALVIYA+%7C+MADARSA+ISLAMIA+GHOUSIA+%D8%AC%D8%A7%D9%85%D8%B9+%D9%85%D8%B3%D8%AC%D8%AF+%D8%B9%D9%84%D9%88%DB%8C%D9%87+%D9%88+%D9%85%D8%AF%D8%B1%D8%B3%D9%87+%D8%A7%D8%B3%D9%84%D8%A7%D9%85%DB%8C%D9%87+%D8%BA%D9%88%D8%AB%DB%8C%D9%87%E2%80%AD/data=!4m7!3m6!1s0x390ce1063326b34f:0x469b1d9ae981bd83!8m2!3d28.498731!4d77.2434485!16s%2Fg%2F11fxz8k9_1!19sChIJT7MmMwbhDDkRg72B6Zodm0Y?authuser=0&hl=en&rclk=1,"28.498731,77.2434485"
Khalilullah Masjid,Mosque,"Khalilullah Masjid, KHALILULLAH masjid, I 80/A, Batla House, Jamia Nagar, Okhla, New Delhi, Delhi 110025","Batla House, Jamia Nagar, Okhla","KHALILULLAH masjid, I 80/A",New Delhi,110025,Delhi,IN,https://www.google.com/maps/place/Khalilullah+Masjid/data=!4m7!3m6!1s0x390ce475d1de5d13:0xe00156a6e547ab99!8m2!3d28.566411!4d77.2889085!16s%2Fg%2F1tj1kwt5!19sChIJE13e0XXkDDkRmatH5aZWAeA?authuser=0&hl=en&rclk=1,"28.566411,77.28890849999999"
Kabuli Bagh Masjid,Mosque,"9XWR+G4R Kabuli Bagh Masjid, 9909, Gali Number 2, Ramnagar, Bajaj Nagar, Manmohan Nagar, Panipat, Panipat Taraf Makhdum Zadgan, Haryana 132103","Ramnagar, Bajaj Nagar, Manmohan Nagar","9XWR+G4R, 9909, Gali Number 2","Panipat, Panipat Taraf Makhdum Zadgan",132103,Haryana,IN,https://www.google.com/maps/place/Kabuli+Bagh+Masjid/data=!4m7!3m6!1s0x390dda6989ab3ca9:0x5eb82fc3f2594555!8m2!3d29.3958972!4d76.9890751!16s%2Fg%2F11bwwlsdmr!19sChIJqTyriWnaDTkRVUVZ8sMvuF4?authuser=0&hl=en&rclk=1,"29.3958972,76.9890751"
Masjid Shahab,Mosque,"H78P+VWV Masjid Shahab, Jamia, Batla House, Jamia Nagar, Okhla, New Delhi, Delhi 110025","Jamia, Batla House, Jamia Nagar, Okhla",H78P+VWV,New Delhi,110025,Delhi,IN,https://www.google.com/maps/place/Masjid+Shahab/data=!4m7!3m6!1s0x390ce4760f556f8d:0xc0285f5f2f62012c!8m2!3d28.5672496!4d77.2873032!16s%2Fg%2F1hhm006pz!19sChIJjW9VD3bkDDkRLAFiL19fKMA?authuser=0&hl=en&rclk=1,"28.5672496,77.2873032"
Sabz Masjid,Mosque,"Sabz Masjid, 3571, Lalkuan Bazar Rd, Bazar Sirkiwalan, Lal Kuan Bazar, Chandni Chowk, Delhi, 110006","Bazar Sirkiwalan, Lal Kuan Bazar, Chandni Chowk","3571, Lalkuan Bazar Rd",Delhi,110006,Delhi,IN,https://www.google.com/maps/place/Sabz+Masjid/data=!4m7!3m6!1s0x390cfd16a94877a7:0x7b35bb653cd42e20!8m2!3d28.652163!4d77.223599!16s%2Fm%2F04q247t!19sChIJp3dIqRb9DDkRIC7UPGW7NXs?authuser=0&hl=en&rclk=1,"28.652162999999998,77.223599"
"Jama Masjid, Khadda Colony jm` msjd",Mosque,"Jama Masjid, Khadda Colony jm` msjd, D-202, near by Jama Masjid Gali, Jaitpur Extension Part II, Khadda Colony, Badarpur, New Delhi, Delhi 110044","Jaitpur Extension Part II, Khadda Colony, Badarpur","D-202, near by Jama Masjid Gali",New Delhi,110044,Delhi,IN,"https://www.google.com/maps/place/Jama+Masjid,+Khadda+Colony+%D8%AC%D8%A7%D9%85%D8%B9+%D9%85%D8%B3%D8%AC%D8%AF%E2%80%AD/data=!4m7!3m6!1s0x390ce65a1cc2d345:0x508d72d241ba7c2f!8m2!3d28.5094725!4d77.3384064!16s%2Fg%2F11b_23cdbd!19sChIJRdPCHFrmDDkRL3y6QdJyjVA?authuser=0&hl=en&rclk=1","28.509472499999998,77.3384064"
Chand Masjid,Mosque,"Chand Masjid, E-2, Gali No. 2, Nehru Vihar, Old Mustafabad, New Mustafabad, New Delhi, Delhi, 110094","Nehru Vihar, Old Mustafabad, New Mustafabad","E-2, Gali No. 2","New Delhi, Delhi",110094,Delhi,IN,https://www.google.com/maps/place/Chand+Masjid/data=!4m7!3m6!1s0x390cfc19cd939201:0x5fba93c8c441398e!8m2!3d28.7124118!4d77.2708219!16s%2Fg%2F1pp2vk4kc!19sChIJAZKTzRn8DDkRjjlBxMiTul8?authuser=0&hl=en&rclk=1,"28.712411799999998,77.2708219"
Akbari Masjid,Mosque,"Akbari Masjid, 863-864,Gali Number 9, E2 Block, Old Mustafabad, Mustafabad Extn, New Mustafabad, Delhi, 110094","E2 Block, Mustafabad Extn, New Mustafabad","863-864,Gali Number 9, E2 Block, Old Mustafabad",Delhi,110094,Delhi,IN,https://www.google.com/maps/place/Akbari+Masjid/data=!4m7!3m6!1s0x390cfc1ab0f7c9a1:0xa5da8abc95b4944!8m2!3d28.7100208!4d77.274257!16s%2Fg%2F11c3v6zrw7!19sChIJocn3sBr8DDkRRElbyauoXQo?authuser=0&hl=en&rclk=1,"28.7100208,77.27425699999999"
Umar Masjid,Mosque,"P769+C92 Umar Masjid, Block D-1, Nehru Vihar, Old Mustafabad, New Mustafabad, Delhi, 110094","Block D-1, Nehru Vihar, Old Mustafabad, New Mustafabad",P769+C92,Delhi,110094,Delhi,IN,https://www.google.com/maps/place/Umar+Masjid/data=!4m7!3m6!1s0x390cfc199c82cddd:0x92c5611414e8a141!8m2!3d28.711011!4d77.268396!16s%2Fg%2F12lkfxpld!19sChIJ3c2CnBn8DDkRQaHoFBRhxZI?authuser=0&hl=en&rclk=1,"28.711011,77.268396"
Jannati Masjid,Mosque,"Jannati Masjid, Gali No.18,Maan Singh Nagar, Old Mustafabad, New Mustafabad, Delhi, 110094","Mansingh Nagar, Old Mustafabad, New Mustafabad","Gali No.18,Maan Singh Nagar",Delhi,110094,Delhi,IN,https://www.google.com/maps/place/Jannati+Masjid/data=!4m7!3m6!1s0x390cfc04dab2904d:0xf9f8d25ed97684f2!8m2!3d28.7112961!4d77.2767655!16s%2Fg%2F12lkffcg4!19sChIJTZCy2gT8DDkR8oR22V7S-Pk?authuser=0&hl=en&rclk=1,"28.7112961,77.2767655"
Madina Masjid,Mosque,"G784+M3C Madina Masjid, Street Number 36, Tughlakabad Extension, Tughlakabad, New Delhi, Delhi 110019","Tughlakabad Extension, Tughlakabad","G784+M3C, Street Number 36",New Delhi,110019,Delhi,IN,https://www.google.com/maps/place/Madina+Masjid/data=!4m7!3m6!1s0x390ce16c33cbc385:0xa6dad3cbfba9fd96!8m2!3d28.5166996!4d77.2551533!16s%2Fg%2F1tct_tc7!19sChIJhcPLM2zhDDkRlv2p-8vT2qY?authuser=0&hl=en&rclk=1,"28.5166996,77.2551533"
Ahle Sunnat wal jamaat RazaeMuhammadi Masjid,Mosque,"J6X8+JC2 Ahle Sunnat wal jamaat RazaeMuhammadi Masjid, Aram Nagar, Paharganj, New Delhi, Delhi 110055","Aram Nagar, Paharganj",J6X8+JC2,New Delhi,110055,Delhi,IN,https://www.google.com/maps/place/Ahle+Sunnat+wal+jamaat+RazaeMuhammadi+Masjid/data=!4m7!3m6!1s0x390cfd6b1c55570b:0xb6cbdaabca9cc6b2!8m2!3d28.6490022!4d77.2160178!16s%2Fg%2F11g6mj_5x9!19sChIJC1dVHGv9DDkRssacyqvay7Y?authuser=0&hl=en&rclk=1,"28.649002199999998,77.2160178"
Masjid Takia Wali,Mosque,"M634+XQF Masjid Takia Wali, Idgah Rd, Sarai Khalil, Sadar Bazaar, New Delhi, Delhi, 110006","Sarai Khalil, Sadar Bazaar","M634+XQF, Idgah Rd","New Delhi, Delhi",110006,Delhi,IN,https://www.google.com/maps/place/Masjid+Takia+Wali/data=!4m7!3m6!1s0x390cfd6f971e1e1b:0xe74631f43b7267ac!8m2!3d28.6549496!4d77.2069151!16s%2Fg%2F11bw3y5xhf!19sChIJGx4el2_9DDkRrGdyO_QxRuc?authuser=0&hl=en&rclk=1,"28.6549496,77.2069151"
MASJID AMROOD WALI,Mosque,"MASJID AMROOD WALI, Bulbuli khana, near kala masjid, Turkman Gate, Old Delhi, New Delhi, Delhi, 110006","Turkman Gate, Old Delhi","Bulbuli khana, near kala masjid","New Delhi, Delhi",110006,Delhi,IN,https://www.google.com/maps/place/MASJID+AMROOD+WALI/data=!4m7!3m6!1s0x390cfd22f0eb7eef:0xc91420f046ba3b88!8m2!3d28.6410797!4d77.2337194!16s%2Fg%2F11d_x09zhj!19sChIJ737r8CL9DDkRiDu6RvAgFMk?authuser=0&hl=en&rclk=1,"28.6410797,77.2337194"
Jami Masjid msjd,Mosque,"J6PW+36R Jami Masjid msjd, Balmiki Basti, Vikram Nagar, Delhi, 110002","Balmiki Basti, Vikram Nagar",J6PW+36R,Delhi,110002,Delhi,IN,https://www.google.com/maps/place/Jami+Masjid+%D9%85%D8%B3%D8%AC%D8%AF%E2%80%AD/data=!4m7!3m6!1s0x390cfcd72563b811:0x692c53e911b89fcf!8m2!3d28.6352493!4d77.2455302!16s%2Fg%2F11b5pj92t0!19sChIJEbhjJdf8DDkRz5-4EelTLGk?authuser=0&hl=en&rclk=1,"28.635249299999998,77.24553019999999"
Masjid Jamun Wali,Mosque,"Masjid Jamun Wali, Jamun Street, Kalan Mahal Rd, Kalan Mahal, Daryaganj, Delhi, 110002","Kalan Mahal, Daryaganj","Jamun Street, Kalan Mahal Rd",Delhi,110002,Delhi,IN,https://www.google.com/maps/place/Masjid+Jamun+Wali/data=!4m7!3m6!1s0x390cfd21e86c6d67:0xebc83db6fbea62a8!8m2!3d28.6473277!4d77.2360868!16s%2Fg%2F11g6qh_snj!19sChIJZ21s6CH9DDkRqGLq-7Y9yOs?authuser=0&hl=en&rclk=1,"28.647327699999998,77.2360868"
Masjid Dhobiyan,Mosque,"Masjid Dhobiyan, 3280, Delhi Gate Bazar, Kucha Alam, Old Dariya Ganj, New Delhi, Delhi 110002","Chatta lal Miya, Chandni Mahal, Old Delhi","3280, Delhi Gate Bazar, Kucha Alam, Old Dariya Ganj","New Delhi, Delhi",110002,Delhi,IN,https://www.google.com/maps/place/Masjid+Dhobiyan/data=!4m7!3m6!1s0x390cfd273340d127:0x7d6d2edf4a35f8d9!8m2!3d28.6425263!4d77.2386389!16s%2Fg%2F11cs5s2vzb!19sChIJJ9FAMyf9DDkR2fg1St8ubX0?authuser=0&hl=en&rclk=1,"28.6425263,77.2386389"
Masjid & Madarsa Riyazul Uloom (Ahle Hadees),Mosque,"J6XP+P3P Masjid & Madarsa Riyazul Uloom (Ahle Hadees), Urdu Bazar Rd, Jama Masjid, Chandni Chowk, New Delhi, Delhi, 110006","Jama Masjid, Chandni Chowk","J6XP+P3P, Urdu Bazar Rd","New Delhi, Delhi",110006,Delhi,IN,https://www.google.com/maps/place/Masjid+%26+Madarsa+Riyazul+Uloom+%28Ahle+Hadees%29/data=!4m7!3m6!1s0x390cfd18b61963d1:0x46947ab807553eee!8m2!3d28.6493294!4d77.2352044!16s%2Fg%2F1hf8mls9b!19sChIJ0WMZthj9DDkR7j5VB7h6lEY?authuser=0&hl=en&rclk=1,"28.6493294,77.2352044"
Mughal Shia jama Masjid,Mosque,"C47V+MX4 Mughal Shia jama Masjid, Ahaar Rd, Sankhani, Uttar Pradesh 203394",,"C47V+MX4, Ahaar Rd",Sankhani,203394,Uttar Pradesh,IN,https://www.google.com/maps/place/Mughal+Shia+jama+Masjid/data=!4m7!3m6!1s0x390b44920a3e0b81:0x7495f4d776251c5c!8m2!3d28.414126!4d78.1449633!16s%2Fg%2F12q4wbpy4!19sChIJgQs-CpJECzkRXBwldtf0lXQ?authuser=0&hl=en&rclk=1,"28.414126,78.1449633"
Jama Masjid Gate Number 1,Mosque,"J6XM+XW9 Jama Masjid Gate Number 1, Urdu Bazar Rd, Meena Bazaar, Jama Masjid, Chandni Chowk, New Delhi, Delhi, 110006","Meena Bazaar, Jama Masjid, Chandni Chowk","J6XM+XW9, Urdu Bazar Rd","New Delhi, Delhi",110006,Delhi,IN,https://www.google.com/maps/place/Jama+Masjid+Gate+Number+1/data=!4m7!3m6!1s0x390cfdb4c9715319:0x6ce59b2dd83221f9!8m2!3d28.6499148!4d77.2348516!16s%2Fg%2F11v5bbt7zx!19sChIJGVNxybT9DDkR-SEy2C2b5Ww?authuser=0&hl=en&rclk=1,"28.649914799999998,77.2348516"
Jama Masjid,Mosque,"Jama Masjid, F-132, Kalindi Kunj Rd, Abul Fazal Enclave Part 1, Part 1 Abul Fazal Enclave, Block C, Jamia Nagar, Okhla, New Delhi, Delhi 110025","Abul Fazal Enclave Part 1, Part 1 Abul Fazal Enclave, Block C, Jamia Nagar, Okhla","F-132, Kalindi Kunj Rd",New Delhi,110025,Delhi,IN,https://www.google.com/maps/place/Jama+Masjid/data=!4m7!3m6!1s0x390ce474fc283e6d:0xbf47a3d3e25a4cad!8m2!3d28.560132!4d77.294788!16s%2Fg%2F12hkzr6p1!19sChIJbT4o_HTkDDkRrUxa4tOjR78?authuser=0&hl=en&rclk=1,"28.560132,77.294788"
IMAM AHMAD RAZA JAMA MASJID,Mosque,"IMAM AHMAD RAZA JAMA MASJID, B 665, Pocket 4, B Block, JJ Colony, Uttam Nagar, New Delhi, Delhi, 110059","Pocket 4, B Block, JJ Colony, Uttam Nagar",B 665,"New Delhi, Delhi",110059,Delhi,IN,https://www.google.com/maps/place/IMAM+AHMAD+RAZA+JAMA+MASJID/data=!4m7!3m6!1s0x390d052171654883:0xcbc2bc8f49e66da2!8m2!3d28.6253214!4d77.0630461!16s%2Fg%2F11n5gz54q_!19sChIJg0hlcSEFDTkRom3mSY-8wss?authuser=0&hl=en&rclk=1,"28.625321399999997,77.0630461"
JAMA MASJID,Mosque,"FC6C+CWJ JAMA MASJID, Butrara, Uttar Pradesh 251305",,FC6C+CWJ,Butrara,251305,Uttar Pradesh,IN,https://www.google.com/maps/place/JAMA+MASJID/data=!4m7!3m6!1s0x390c25d35b064f8d:0x3d05790b86cd5fa0!8m2!3d29.4610901!4d77.4222721!16s%2Fg%2F11dxf1pb65!19sChIJjU8GW9MlDDkRoF_Nhgt5BT0?authuser=0&hl=en&rclk=1,"29.4610901,77.4222721"
Masjid Badi msjd,Mosque,"Masjid Badi msjd, 893,, Chittli Qabar Bazar Rd, Jama Masjid, Chandni Chowk, New Delhi, Delhi 110006","Bazar Chitli Qabar, Kucha Chelan, Jama Masjid, Chandni Chowk","893,, Chittli Qabar Bazar Rd","New Delhi, Delhi",110006,Delhi,IN,https://www.google.com/maps/place/Masjid+Badi+%D9%85%D8%B3%D8%AC%D8%AF%E2%80%AD/data=!4m7!3m6!1s0x390cfd219cfec1f3:0x93ccacb281d71709!8m2!3d28.645321!4d77.2357133!16s%2Fg%2F12m98gjn5!19sChIJ88H-nCH9DDkRCRfXgbKszJM?authuser=0&hl=en&rclk=1,"28.645321,77.2357133"
Jama Masjid,Mosque,"JQH3+236 Jama Masjid, Salepur Kotla, Uttar Pradesh 245101",,JQH3+236,Salepur Kotla,245101,Uttar Pradesh,IN,https://www.google.com/maps/place/Jama+Masjid/data=!4m7!3m6!1s0x390c9a8761b056ed:0x6a6a16000fafbbe7!8m2!3d28.6275404!4d77.752642!16s%2Fg%2F11c5zf5bvl!19sChIJ7VawYYeaDDkR57uvDwAWamo?authuser=0&hl=en&rclk=1,"28.627540399999997,77.752642"
jama masjid,Mosque,"X9H2+992 jama masjid, Gouspur, Uttar Pradesh 250606",,X9H2+992,Gouspur,,Uttar Pradesh,IN,https://www.google.com/maps/place/jama+masjid/data=!4m7!3m6!1s0x390c51df6e7f37e3:0xe449679dbb556a4a!8m2!3d28.9783936!4d77.3508979!16s%2Fg%2F11gr0vhvp2!19sChIJ4zd_bt9RDDkRSmpVu51nSeQ?authuser=0&hl=en&rclk=1,"28.9783936,77.35089789999999"
jama masjid,Mosque,"VF7R+F4W jama masjid, Suhana, Uttar Pradesh 201204",,VF7R+F4W,Suhana,201204,Uttar Pradesh,IN,https://www.google.com/maps/place/jama+masjid/data=!4m7!3m6!1s0x390c5f3c53552991:0x9bab1942d67641ad!8m2!3d28.863737!4d77.490342!16s%2Fg%2F11f10g02zy!19sChIJkSlVUzxfDDkRrUF21kIZq5s?authuser=0&hl=en&rclk=1,"28.863737,77.490342"
JAMA MASJID MARKAJI BADI MASJID,Mosque,"374C+4GX JAMA MASJID MARKAJI BADI MASJID, Idrispur, Uttar Pradesh 250611",,374C+4GX,Idrispur,250611,Uttar Pradesh,IN,https://www.google.com/maps/place/JAMA+MASJID+MARKAJI+BADI+MASJID/data=!4m7!3m6!1s0x390c4d3748f9e9e9:0x3c87f7b4205b82d2!8m2!3d29.0553699!4d77.2713749!16s%2Fg%2F11h002_88f!19sChIJ6en5SDdNDDkR0oJbILT3hzw?authuser=0&hl=en&rclk=1,"29.0553699,77.2713749"
Masjid Takye Wali,Mosque,"6HX6+R2W Masjid Takye Wali, Husainabad Bhambara, Uttar Pradesh 251309",,6HX6+R2W,Husainabad Bhambara,251309,Uttar Pradesh,IN,https://www.google.com/maps/place/Masjid+Takye+Wali/data=!4m7!3m6!1s0x390c3fd516becaa1:0x80739089be288c59!8m2!3d29.2496078!4d77.5600779!16s%2Fg%2F11hblrbvrm!19sChIJocq-FtU_DDkRWYwovomQc4A?authuser=0&hl=en&rclk=1,"29.2496078,77.5600779"
"Jama Masjid, Jarauda",Mosque,"Jama Masjid, Jarauda, Jarauda, Uttar Pradesh 250104",,,Jarauda,250104,Uttar Pradesh,IN,"https://www.google.com/maps/place/Jama+Masjid,+Jarauda/data=!4m7!3m6!1s0x390b81e8ce113011:0x60da2e107e30880d!8m2!3d28.8931722!4d78.0019923!16s%2Fg%2F11bvt4g168!19sChIJETARzuiBCzkRDYgwfhAu2mA?authuser=0&hl=en&rclk=1","28.8931722,78.0019923"
Subhaniya Masjid,Mosque,"Subhaniya Masjid, F-3, Gali Number 4, Block C, Devli, Sangam Vihar, New Delhi, Delhi 110080, Gali Number 4, Block C, Devli, Sangam Vihar, New Delhi, Delhi 110080","Block C, Devli, Sangam Vihar","F-3, Gali Number 4, Block C, Devli, Sangam Vihar, New Delhi, Delhi 110080, Gali Number 4",New Delhi,110080,Delhi,IN,https://www.google.com/maps/place/Subhaniya+Masjid/data=!4m7!3m6!1s0x390ce107cf98c8e9:0x7387f695087ffa88!8m2!3d28.4986983!4d77.2427538!16s%2Fg%2F11g8wd8z83!19sChIJ6ciYzwfhDDkRiPp_CJX2h3M?authuser=0&hl=en&rclk=1,"28.498698299999997,77.2427538"
Jama Masjid,Mosque,"Jama Masjid, Khadana Rd, Khadana, Uttar Pradesh 203394",,Khadana Rd,Khadana,203394,Uttar Pradesh,IN,https://www.google.com/maps/place/Jama+Masjid/data=!4m7!3m6!1s0x390b437eb3cd242f:0xf53b01b46a0cd047!8m2!3d28.4384886!4d78.1516096!16s%2Fg%2F11dzwr3xd0!19sChIJLyTNs35DCzkRR9AMarQBO_U?authuser=0&hl=en&rclk=1,"28.4384886,78.1516096"
Masjid Houz Wali,Mosque,"Masjid Houz Wali, 5572, Nai Sarak, Katra Rathi, Chandni Chowk, New Delhi, Delhi 110006","New Krishna Cloth Market, Katra Rathi, Chandni Chowk","5572, Nai Sarak","New Delhi, Delhi",110006,Delhi,IN,https://www.google.com/maps/place/Masjid+Houz+Wali/data=!4m7!3m6!1s0x390cfd10f44421cd:0x2a88c9d7e2afe492!8m2!3d28.6553308!4d77.2272676!16s%2Fg%2F12hrqxsg4!19sChIJzSFE9BD9DDkRkuSv4tfJiCo?authuser=0&hl=en&rclk=1,"28.655330799999998,77.22726759999999"
Masjid Hussainiya,Mosque,"J6XM+GHP Masjid Hussainiya, Matia Mahal Rd, Kalan Mehal, Old Delhi, Delhi, 110006","Kalan Mehal, Old Delhi","J6XM+GHP, Matia Mahal Rd",Delhi,110006,Delhi,IN,https://www.google.com/maps/place/Masjid+Hussainiya/data=!4m7!3m6!1s0x390cfd18ba6b0bd5:0xced4d691b8d1a3fb!8m2!3d28.6488459!4d77.2339534!16s%2Fg%2F11gc9g4rkv!19sChIJ1Qtruhj9DDkR-6PRuJHW1M4?authuser=0&hl=en&rclk=1,"28.648845899999998,77.23395339999999"
Chhoti Masjid (Ahle Hadees),Mosque,"Chhoti Masjid (Ahle Hadees), 1350, Ballimaran Rd, Baradari, Chandni Chowk, New Delhi, Delhi, 110006","Baradari, Chandni Chowk","1350, Ballimaran Rd","New Delhi, Delhi",110006,Delhi,IN,https://www.google.com/maps/place/Chhoti+Masjid+%28Ahle+Hadees%29/data=!4m7!3m6!1s0x390cfd1114163021:0xfe55fec1a30e884f!8m2!3d28.6544687!4d77.2250088!16s%2Fg%2F11g03hfjlc!19sChIJITAWFBH9DDkRT4gOo8H-Vf4?authuser=0&hl=en&rclk=1,"28.6544687,77.2250088"
Anar Masjid,Mosque,"Anar Masjid, Gali No. 2, Babu Nagar, Block B, Old Mustafabad, New Mustafabad, Delhi, 110094","Babu Nagar, Block B, Old Mustafabad, New Mustafabad",Gali No. 2,Delhi,110094,Delhi,IN,https://www.google.com/maps/place/Anar+Masjid/data=!4m7!3m6!1s0x390cfd5c51dc794b:0xd45eae89f942f6a0!8m2!3d28.7155634!4d77.2750067!16s%2Fg%2F11t4bf1bf0!19sChIJS3ncUVz9DDkRoPZC-YmuXtQ?authuser=0&hl=en&rclk=1,"28.715563399999997,77.27500669999999"
Baghwali Masjid msjd bG wly,Mosque,"Baghwali Masjid msjd bG wly, 785, Nicholson Rd, Kashmere Gate, New Delhi, Delhi 110006","Ganda Nala Bazar, Kashmere Gate","785, Nicholson Rd","New Delhi, Delhi",110006,Delhi,IN,https://www.google.com/maps/place/Baghwali+Masjid+%D9%85%D8%B3%D8%AC%D8%AF+%D8%A8%D8%A7%D8%BA+%D9%88%D8%A7%D9%84%DB%8C%E2%80%AD/data=!4m7!3m6!1s0x390cfd092767785b:0xd4966cf4d21cbda8!8m2!3d28.6653187!4d77.2261277!16s%2Fg%2F12llwbr4n!19sChIJW3hnJwn9DDkRqL0c0vRsltQ?authuser=0&hl=en&rclk=1,"28.6653187,77.22612769999999"
Jama Masjid,Mosque,"C474+R44 Jama Masjid, Nurullapur Khagu, Uttar Pradesh 246701",,C474+R44,Nurullapur Khagu,246701,Uttar Pradesh,IN,https://www.google.com/maps/place/Jama+Masjid/data=!4m7!3m6!1s0x390bf021f4b79603:0x848a7263042ad48c!8m2!3d29.4145219!4d78.1053393!16s%2Fg%2F11f0kw_x06!19sChIJA5a39CHwCzkRjNQqBGNyioQ?authuser=0&hl=en&rclk=1,"29.4145219,78.1053393"
Jama Masjid,Mosque,"VV64+V6V Jama Masjid, Jasora, Uttar Pradesh 245206",,VV64+V6V,Jasora,,Uttar Pradesh,IN,https://www.google.com/maps/place/Jama+Masjid/data=!4m7!3m6!1s0x390c8153d13ad329:0xcb4cb38180700d18!8m2!3d28.8622427!4d77.8555532!16s%2Fg%2F11gxn9r521!19sChIJKdM60VOBDDkRGA1wgIGzTMs?authuser=0&hl=en&rclk=1,"28.8622427,77.8555532"
Mr.SAHEEM MALIK,Mosque,"Mr.SAHEEM MALIK, Gali no. 3 - Tirpal Factory Mustafabad, near Ayisha masjid, 25 Futa Rd, near by Aisha Masjid, chowk, Delhi 110094","Shakti Vihar, Old Mustafabad, chowk","Gali no. 3 - Tirpal Factory Mustafabad, near Ayisha masjid, 25 Futa Rd, near by Aisha Masjid",Delhi,110094,Delhi,IN,https://www.google.com/maps/place/Mr.SAHEEM+MALIK/data=!4m7!3m6!1s0x390cfd9a44cd4997:0xffdc8860c53e3f2b!8m2!3d28.7159667!4d77.272238!16s%2Fg%2F11h3cwgc8y!19sChIJl0nNRJr9DDkRKz8-xWCI3P8?authuser=0&hl=en&rclk=1,"28.7159667,77.272238"
Ijaba Masjid,Mosque,"Ijaba Masjid, 1489/16, Block D, Chand Vihar, New Mustafabad, Delhi, 110094","Block D, Chand Vihar, New Mustafabad",1489/16,Delhi,110094,Delhi,IN,https://www.google.com/maps/place/Ijaba+Masjid/data=!4m7!3m6!1s0x390cfd4112cff819:0x124578cf76e8540b!8m2!3d28.7086594!4d77.2713446!16s%2Fg%2F11j08711wr!19sChIJGfjPEkH9DDkRC1Tods94RRI?authuser=0&hl=en&rclk=1,"28.7086594,77.27134459999999"
Jama Masjid,Mosque,"Jama Masjid, 786,, Pooth Khas, Uttar Pradesh",,"786,",Pooth Khas,,Uttar Pradesh,IN,https://www.google.com/maps/place/Jama+Masjid/data=!4m7!3m6!1s0x390c680cb147d60b:0x22742c06328fdacd!8m2!3d29.0314853!4d77.58442!16s%2Fg%2F11b826fgzc!19sChIJC9ZHsQxoDDkRzdqPMgYsdCI?authuser=0&hl=en&rclk=1,"29.0314853,77.58442"
Jama Madjid,Mosque,"Jama Madjid, khuwaja park Illaichipur, Trans Delhi Signature City, Ghaziabad, Uttar Pradesh 201102",Trans Delhi Signature City,khuwaja park Illaichipur,Ghaziabad,201102,Uttar Pradesh,IN,https://www.google.com/maps/place/Jama+Madjid/data=!4m7!3m6!1s0x390cffd519959253:0x75d57b5584aaf66f!8m2!3d28.764901!4d77.256208!16s%2Fg%2F11g2_3w7fd!19sChIJU5KVGdX_DDkRb_aqhFV71XU?authuser=0&hl=en&rclk=1,"28.764901,77.256208"
Jama Masjid,Mosque,"F7V7+C3W Jama Masjid, Sarai Imma, Uttar Pradesh 246731",,F7V7+C3W,Sarai Imma,,Uttar Pradesh,IN,https://www.google.com/maps/place/Jama+Masjid/data=!4m7!3m6!1s0x390be763ab835cc5:0x6731733ff47629d5!8m2!3d29.4936101!4d78.262697!16s%2Fg%2F11h40xtrfq!19sChIJxVyDq2PnCzkR1Sl29D9zMWc?authuser=0&hl=en&rclk=1,"29.493610099999998,78.262697"
Jama Masjid Husainabad,Mosque,"F923+2CJ Jama Masjid Husainabad, Najibabad Rd, Husainabad, Uttar Pradesh 246762",,"F923+2CJ, Najibabad Rd",Husainabad,,Uttar Pradesh,IN,https://www.google.com/maps/place/Jama+Masjid+Husainabad/data=!4m7!3m6!1s0x390bc3aa926d561d:0xeb4545552b136ce4!8m2!3d29.4500778!4d78.3535291!16s%2Fg%2F11j9dfd26p!19sChIJHVZtkqrDCzkR5GwTK1VFRes?authuser=0&hl=en&rclk=1,"29.4500778,78.3535291"
Jama masjid naushaba Begum,Mosque,"Q756+RR Jama masjid naushaba Begum, Ghaziabad, Uttar Pradesh 201102",,Q756+RR,Ghaziabad,,Uttar Pradesh,IN,https://www.google.com/maps/place/Jama+masjid+naushaba+Begum/data=!4m7!3m6!1s0x390cff331d640cd3:0x9ee9e76b5c31dd4e!8m2!3d28.7595831!4d77.2620706!16s%2Fg%2F11ty71flnn!19sChIJ0wxkHTP_DDkRTt0xXGvn6Z4?authuser=0&hl=en&rclk=1,"28.7595831,77.2620706"
Jama masjid jaamaa msjid,Mosque,"Q482+XV3 Jama masjid jaamaa msjid, Uttar Pradesh 245205",,Q482+XV3,,245205,Uttar Pradesh,IN,https://www.google.com/maps/place/Jama+masjid+%E0%A4%9C%E0%A4%BE%E0%A4%AE%E0%A4%BE+%E0%A4%AE%E0%A4%B8%E0%A5%8D%E0%A4%9C%E0%A4%BF%E0%A4%A6/data=!4m7!3m6!1s0x390b7b094fbe2523:0x93fcc9b0617d84dc!8m2!3d28.7673839!4d78.1021844!16s%2Fg%2F11qnrrrssc!19sChIJIyW-Twl7CzkR3IR9YbDJ_JM?authuser=0&hl=en&rclk=1,"28.7673839,78.1021844"
Zainabia Masjid Karbala,Mosque,"HMG3+RQ6 Zainabia Masjid Karbala, Uttar Pradesh 203207",,HMG3+RQ6,,203207,Uttar Pradesh,IN,https://www.google.com/maps/place/Zainabia+Masjid+Karbala/data=!4m7!3m6!1s0x390c9155ed947c11:0xe02d1fb1580dfdc2!8m2!3d28.5770428!4d77.6543971!16s%2Fg%2F11gbzchw6_!19sChIJEXyU7VWRDDkRwv0NWLEfLeA?authuser=0&hl=en&rclk=1,"28.577042799999997,77.6543971"
Jannatul firdau masjid (Deswaliyan mosque)),Mosque,"Jannatul firdau masjid (Deswaliyan mosque)), Mahalka, Uttar Pradesh 250222",,,Mahalka,250222,Uttar Pradesh,IN,https://www.google.com/maps/place/Jannatul+firdau+masjid+%28Deswaliyan+mosque%29%29/data=!4m7!3m6!1s0x390c735cb53dcc75:0x7becf41f16b561db!8m2!3d29.1527887!4d77.7803222!16s%2Fg%2F11f6384c1f!19sChIJdcw9tVxzDDkR22G1Fh_07Hs?authuser=0&hl=en&rclk=1,"29.1527887,77.7803222"
Juma Masjid,Mosque,"GMJ3+348 Juma Masjid, Cholas Rd, Mohalla Abbas Nagar, Chholas, Uttar Pradesh 203207",Mohalla Abbas Nagar,"GMJ3+348, Cholas Rd",Chholas,203207,Uttar Pradesh,IN,https://www.google.com/maps/place/Juma+Masjid/data=!4m7!3m6!1s0x390c942a6e349581:0xfd6322c2aa576325!8m2!3d28.5301599!4d77.6528246!16s%2Fg%2F11c52lz9x6!19sChIJgZU0biqUDDkRJWNXqsIiY_0?authuser=0&hl=en&rclk=1,"28.530159899999997,77.6528246"
Ameer Hamzah Mosque,Mosque,"86FM+972 Ameer Hamzah Mosque, Uttar Pradesh 247775",,86FM+972,,,Uttar Pradesh,IN,https://www.google.com/maps/place/Ameer+Hamzah+Mosque/data=!4m7!3m6!1s0x390c32f0996a4a55:0x396860d36159f6f7!8m2!3d29.3233769!4d77.2331309!16s%2Fg%2F11hbbt9l4w!19sChIJVUpqmfAyDDkR9_ZZYdNgaDk?authuser=0&hl=en&rclk=1,"29.3233769,77.23313089999999"
Jama Masjid,Mosque,"FRWJ+VRQ Jama Masjid, Atmadsarai, Uttar Pradesh 203408",,FRWJ+VRQ,Atmadsarai,,Uttar Pradesh,IN,https://www.google.com/maps/place/Jama+Masjid/data=!4m7!3m6!1s0x390c99adabd12df7:0x36eb4693029df4e4!8m2!3d28.4972237!4d77.8320953!16s%2Fg%2F11pwyrhdn1!19sChIJ9y3Rq62ZDDkR5PSdApNG6zY?authuser=0&hl=en&rclk=1,"28.4972237,77.83209529999999"
Masjid haji mohd jaan patna wali,Mosque,"M654+JX6 Masjid haji mohd jaan patna wali, Ahata Kidara, Sadar Bazaar, New Delhi, Delhi, 110006","Ahata Kidara, Sadar Bazaar",M654+JX6,"New Delhi, Delhi",110006,Delhi,IN,https://www.google.com/maps/place/Masjid+haji+mohd+jaan+patna+wali/data=!4m7!3m6!1s0x390cfd66d89606d1:0x493ed1c5176e034!8m2!3d28.6590458!4d77.2073922!16s%2Fg%2F11tcczv521!19sChIJ0QaW2Gb9DDkRNOB2URztkwQ?authuser=0&hl=en&rclk=1,"28.659045799999998,77.2073922"
Masjid,Mosque,"Masjid, 242, Masjid Jheel Pio, Near ITO metro GateNo.3, Bahadur Shah Zafar Marg, Balmiki Basti, Vikram Nagar, Delhi, 110002","Bahadur Shah Zafar Marg, Balmiki Basti, Vikram Nagar","242, Masjid Jheel Pio, Near ITO metro GateNo.3, Bahadur Shah Zafar Marg",Delhi,110002,Delhi,IN,https://www.google.com/maps/place/Masjid/data=!4m7!3m6!1s0x390cfd441769149d:0xa1929f1b4f5921d6!8m2!3d28.6298914!4d77.2415098!16s%2Fg%2F11s2n38r9b!19sChIJnRRpF0T9DDkR1iFZTxufkqE?authuser=0&hl=en&rclk=1,"28.629891399999998,77.2415098"
Masjid,Mosque,"Masjid, 2508, Fasil Rd, Gali Sakko Wali, Shah Ganj, Chandni Chowk, New Delhi, Delhi, 110006","Gali Sakko Wali, Shah Ganj, Chandni Chowk","2508, Fasil Rd","New Delhi, Delhi",110006,Delhi,IN,https://www.google.com/maps/place/Masjid/data=!4m7!3m6!1s0x390cfd15c9a8a4b1:0xf975aada141da03e!8m2!3d28.6491552!4d77.2220471!16s%2Fg%2F1hm4gjxkd!19sChIJsaSoyRX9DDkRPqAdFNqqdfk?authuser=0&hl=en&rclk=1,"28.6491552,77.2220471"
Jama Masjid,Mosque,"28R7+CVX Jama Masjid, Jahangarh Urf Doja, Uttar Pradesh 250611",,28R7+CVX,Jahangarh Urf Doja,250611,Uttar Pradesh,IN,https://www.google.com/maps/place/Jama+Masjid/data=!4m7!3m6!1s0x390c4e5ec931ec93:0x3f8dfd483e8f116e!8m2!3d29.0411014!4d77.3147231!16s%2Fg%2F11dfr7fxv2!19sChIJk-wxyV5ODDkRbhGPPkj9jT8?authuser=0&hl=en&rclk=1,"29.0411014,77.3147231"
Masjid msjid ddy wly msjd,Mosque,"CV3V+3CR Masjid msjid ddy wly msjd, Jauli, Uttar Pradesh 251316",,CV3V+3CR,Jauli,,Uttar Pradesh,IN,https://www.google.com/maps/place/Masjid+%E0%A4%AE%E0%A4%B8%E0%A5%8D%E0%A4%9C%E0%A4%BF%E0%A4%A6+%D8%A7%DA%88%DB%92+%D9%88%D8%A7%D9%84%DB%8C+%D9%85%D8%B3%D8%AC%D8%AF%E2%80%AD/data=!4m7!3m6!1s0x390c09621d0b3c41:0x8ee8cb655c152fbf!8m2!3d29.4027391!4d77.8935137!16s%2Fg%2F11n956xzwr!19sChIJQTwLHWIJDDkRvy8VXGXL6I4?authuser=0&hl=en&rclk=1,"29.402739099999998,77.8935137"
"Jama Masjid,Badi Masjid",Mosque,"RCCC+RXJ Jama Masjid,Badi Masjid, Salarpur Khalsa, Uttar Pradesh 244222",,RCCC+RXJ,Salarpur Khalsa,244222,Uttar Pradesh,IN,"https://www.google.com/maps/place/Jama+Masjid,Badi+Masjid/data=!4m7!3m6!1s0x390b0f4ead0880ff:0xeb60eb1537e15cc3!8m2!3d28.8219343!4d78.4223219!16s%2Fg%2F11rsqyp955!19sChIJ_4AIrU4PCzkRw1zhNxXrYOs?authuser=0&hl=en&rclk=1","28.8219343,78.4223219"
Madeena Masjid,Mosque,"Madeena Masjid, Mohalla Madeena Masjid, Mohalla Abbas Nagar, Chholas, Uttar Pradesh 203207",Mohalla Abbas Nagar,Mohalla Madeena Masjid,Chholas,203207,Uttar Pradesh,IN,https://www.google.com/maps/place/Madeena+Masjid/data=!4m7!3m6!1s0x390c942a2d011385:0x2f139d48a65976d3!8m2!3d28.5299814!4d77.6528966!16s%2Fg%2F11cr_9lkkc!19sChIJhRMBLSqUDDkR03ZZpkidEy8?authuser=0&hl=en&rclk=1,"28.529981399999997,77.65289659999999"
Husainabad Mosque,Mosque,"VWF3+PMF Husainabad Mosque, Husainabad, Lucknow, Uttar Pradesh 226003",Husainabad,VWF3+PMF,Lucknow,226003,Uttar Pradesh,IN,https://www.google.com/maps/place/Husainabad+Mosque/data=!4m7!3m6!1s0x399bfdfb358dead3:0xc3c66010a6355988!8m2!3d26.8743212!4d80.9041733!16s%2Fg%2F11h6rqwpqp!19sChIJ0-qNNfv9mzkRiFk1phBgxsM?authuser=0&hl=en&rclk=1,"26.874321199999997,80.9041733"
Masjid,Mosque,"Masjid, Generator section LNH, Maulana Azad Medical College Campus, LNJP Colony, New Delhi, Delhi, 110002","Maulana Azad Medical College Campus, LNJP Colony",Generator section LNH,"New Delhi, Delhi",110002,Delhi,IN,https://www.google.com/maps/place/Masjid/data=!4m7!3m6!1s0x390cfda80d3a142f:0x7e63ba6e21dc1e97!8m2!3d28.6378466!4d77.2379581!16s%2Fg%2F11ss881009!19sChIJLxQ6Daj9DDkRlx7cIW66Y34?authuser=0&hl=en&rclk=1,"28.6378466,77.2379581"
Jama Masjid,Mosque,"XQHQ+M77 Jama Masjid, Nahtora, Mirzapur Kareemuddin, Uttar Pradesh 244402",,XQHQ+M77,"Nahtora, Mirzapur Kareemuddin",,Uttar Pradesh,IN,https://www.google.com/maps/place/Jama+Masjid/data=!4m7!3m6!1s0x390a564c317f1c07:0xd370346a08460ac9!8m2!3d28.9791622!4d78.7881826!16s%2Fg%2F11hbr9l80n!19sChIJBxx_MUxWCjkRyQpGCGo0cNM?authuser=0&hl=en&rclk=1,"28.979162199999998,78.7881826"
Adde wali maszid,Mosque,"7GQP+5WV Adde wali maszid, Unnamed Road, Rasulpur Dabheri, Uttar Pradesh 251318",,"7GQP+5WV, Unnamed Road",Rasulpur Dabheri,251318,Uttar Pradesh,IN,https://www.google.com/maps/place/Adde+wali+maszid/data=!4m7!3m6!1s0x390c3f2f5f21db55:0x6459166417d9ecf6!8m2!3d29.287976!4d77.537288!16s%2Fg%2F11l96h037t!19sChIJVdshXy8_DDkR9uzZF2QWWWQ?authuser=0&hl=en&rclk=1,"29.287975999999997,77.53728799999999"
Badi masjid,Mosque,"J6VM+GF4 Badi masjid, Unnamed Road, Bazar Chitli Qabar, Hauz Suiwalan, Old Delhi, Delhi, 110006","Bazar Chitli Qabar, Hauz Suiwalan, Old Delhi","J6VM+GF4, Unnamed Road",Delhi,110006,Delhi,IN,https://www.google.com/maps/place/Badi+masjid/data=!4m7!3m6!1s0x390cfd5cb477432d:0x1e4d3ba7a9b468!8m2!3d28.6437557!4d77.233705!16s%2Fg%2F11l3xyqqc8!19sChIJLUN3tFz9DDkRaLSppztNHgA?authuser=0&hl=en&rclk=1,"28.6437557,77.233705"
Madni jama masjid,Mosque,"Madni jama masjid, Mandawali Saidu, Ahamadpur Mohiuddin, Uttar Pradesh 246701",,,"Mandawali Saidu, Ahamadpur Mohiuddin",,Uttar Pradesh,IN,https://www.google.com/maps/place/Madni+jama+masjid/data=!4m7!3m6!1s0x390bef582246cf0b:0x881bd718f0ab295d!8m2!3d29.4259228!4d78.1318876!16s%2Fg%2F11k41n0d9n!19sChIJC89GIljvCzkRXSmr8BjXG4g?authuser=0&hl=en&rclk=1,"29.4259228,78.1318876"
Masjid,Mosque,"Masjid, Gali No 19, Gali Number 1, Mustafabad Extn, New Mustafabad, Delhi, 110094","E2 Block, Mustafabad Extn, New Mustafabad","Gali No 19, Gali Number 1",Delhi,110094,Delhi,IN,https://www.google.com/maps/place/Masjid/data=!4m7!3m6!1s0x390cfc1b020b0e91:0xb48a3c3233e41cbd!8m2!3d28.711773!4d77.272563!16s%2Fg%2F12hpqnhjr!19sChIJkQ4LAhv8DDkRvRzkMzI8irQ?authuser=0&hl=en&rclk=1,"28.711772999999997,77.27256299999999"
Jama masjid (jmaa msjid plddaa),Mosque,"4X59+HPF Jama masjid (jmaa msjid plddaa), Palra, Uttar Pradesh 250404",,4X59+HPF,Palra,,Uttar Pradesh,IN,https://www.google.com/maps/place/Jama+masjid+%28%E0%A4%9C%E0%A4%AE%E0%A4%BE+%E0%A4%AE%E0%A4%B8%E0%A5%8D%E0%A4%9C%E0%A4%BF%E0%A4%A6+%E0%A4%AA%E0%A4%B2%E0%A4%A1%E0%A4%BE%29/data=!4m7!3m6!1s0x390b89b2974f43db:0x6846545163b3fddd!8m2!3d29.1089436!4d77.9693112!16s%2Fg%2F11s_wxfpx0!19sChIJ20NPl7KJCzkR3f2zY1FURmg?authuser=0&hl=en&rclk=1,"29.1089436,77.96931119999999"
Chand Masjid,Mosque,"8G5V+H5 Chand Masjid, Kaserwa, Uttar Pradesh 251318",,8G5V+H5,Kaserwa,,Uttar Pradesh,IN,https://www.google.com/maps/place/Chand+Masjid/data=!4m7!3m6!1s0x390c3da9604152b7:0x22b746a334e9a235!8m2!3d29.308903!4d77.5429501!16s%2Fg%2F11rdcxrtkt!19sChIJt1JBYKk9DDkRNaLpNKNGtyI?authuser=0&hl=en&rclk=1,"29.308902999999997,77.5429501"
Masjid,Mosque,"Masjid, 8/2, Budh Bazar, Block L 1, Devli, Sangam Vihar, New Delhi, Delhi 110062","Budh Bazar, Block L 1, Devli, Sangam Vihar",8/2,New Delhi,110062,Delhi,IN,https://www.google.com/maps/place/Masjid/data=!4m7!3m6!1s0x390ce1dde82b3bc3:0x4d3537cacd38aec4!8m2!3d28.4940769!4d77.2261653!16s%2Fg%2F11rk33_10p!19sChIJwzsr6N3hDDkRxK44zco3NU0?authuser=0&hl=en&rclk=1,"28.4940769,77.22616529999999"
Zama masjid,Mosque,"6Q25+284 Zama masjid, Sahbajpur Kalan, Uttar Pradesh 244602",,6Q25+284,Sahbajpur Kalan,244602,Uttar Pradesh,IN,https://www.google.com/maps/place/Zama+masjid/data=!4m7!3m6!1s0x390a4ff02ed99b41:0xfa4aff869ec67e1f!8m2!3d29.2000376!4d78.7583813!16s%2Fg%2F11t0bfg113!19sChIJQZvZLvBPCjkRH37Gnob_Svo?authuser=0&hl=en&rclk=1,"29.200037599999998,78.7583813"
Jamma Masjid imaam Hussain,Mosque,"G798+MJ4 Jamma Masjid imaam Hussain, Tughlaqabad Village, Tughlakabad, New Delhi, Delhi 110044","Tughlaqabad Village, Tughlakabad",G798+MJ4,New Delhi,110044,Delhi,IN,https://www.google.com/maps/place/Jamma+Masjid+imaam+Hussain/data=!4m7!3m6!1s0x390ce1f81854c9ad:0x7c67fe288ad20d8d!8m2!3d28.5191253!4d77.2665657!16s%2Fg%2F11s0x0929z!19sChIJrclUGPjhDDkRjQ3Siij-Z3w?authuser=0&hl=en&rclk=1,"28.5191253,77.2665657"
Abbas thekedar home,Abbey,"Abbas thekedar home, Shuaib Rajput, Jumma masjid, Shaheen dealer, Uttar Pradesh 251309",,"Shuaib Rajput, Jumma masjid, Shaheen dealer",Husainabad Bhambara,251309,Uttar Pradesh,IN,https://www.google.com/maps/place/Abbas+thekedar+home/data=!4m7!3m6!1s0x390c3faedd49dbf9:0xe5f0f3b3f21fb1c5!8m2!3d29.2465915!4d77.55923!16s%2Fg%2F11tsdxd7y0!19sChIJ-dtJ3a4_DDkRxbEf8rPz8OU?authuser=0&hl=en&rclk=1,"29.246591499999997,77.55923"
Masjid sayyadna abubakar zulaho wale,Mosque,"G8X5+C2 Masjid sayyadna abubakar zulaho wale, Garhi Pukhta, Uttar Pradesh 247778",,G8X5+C2,Garhi Pukhta,,Uttar Pradesh,IN,https://www.google.com/maps/place/Masjid+sayyadna+abubakar+zulaho+wale/data=!4m7!3m6!1s0x390e8336643e4241:0xc0a28ecaa4988790!8m2!3d29.5485512!4d77.3074978!16s%2Fg%2F11pd2kcsjd!19sChIJQUI-ZDaDDjkRkIeYpMqOosA?authuser=0&hl=en&rclk=1,"29.5485512,77.3074978"
Masjid-e-Mehdi Husainabad,Mosque,"VWF4+JC6 Masjid-e-Mehdi Husainabad, Husainabad, Kurthi Jafarpur, Lucknow, Uttar Pradesh 275305",Husainabad,VWF4+JC6,"Kurthi Jafarpur, Lucknow",275305,Uttar Pradesh,IN,https://www.google.com/maps/place/Masjid-e-Mehdi+Husainabad/data=!4m7!3m6!1s0x399bfd27e5561c5f:0x21d4aa9795a80c41!8m2!3d26.874039!4d80.9060211!16s%2Fg%2F11mv_0x20p!19sChIJXxxW5Sf9mzkRQQyolZeq1CE?authuser=0&hl=en&rclk=1,"26.874039,80.90602109999999"
