name,main_category,address,address_ward,address_street,address_city,address_postal_code,address_state,address_country_code,link,coordinates
Jamia Masjid Markaz (jm`h msjd mrkhz),Mosque,"Jamia Masjid Markaz (jm`h msjd mrkhz), Saraf Bazar Rd, Hanuman Gardi, Gadag-Betageri, Gadag-Betigeri, Karnataka 582101",Hanuman Gardi,Saraf Bazar Rd,"Gadag-Betageri, Gadag-Betigeri",582101,Karnataka,IN,https://www.google.com/maps/place/Jamia+Masjid+Markaz+%28%D8%AC%D9%85%D8%B9%DB%81+%D9%85%D8%B3%D8%AC%D8%AF+%D9%85%D8%B1%DA%A9%D8%B2%29%E2%80%AD/data=!4m7!3m6!1s0x3bb8f9674c4283b1:0xd8ec90fc986b92ea!8m2!3d15.4269397!4d75.6268932!16s%2Fg%2F11b7gsnl56!19sChIJsYNCTGf5uDsR6pJrmPyQ7Ng?authuser=0&hl=en&rclk=1,"15.4269397,75.6268932"
Zakir Hussain Masjid dhkhr Hsyn msjd,Mosque,"CJC9+5WM Zakir Hussain Masjid dhkhr Hsyn msjd, Ganesh Colony, Zakir Hussain Colony, Hudco Colony, Gadag-Betageri, Gadag-Betigeri, Karnataka 582103","Ganesh Colony, Zakir Hussain Colony, Hudco Colony",CJC9+5WM,"Gadag-Betageri, Gadag-Betigeri",582103,Karnataka,IN,https://www.google.com/maps/place/Zakir+Hussain+Masjid+%D8%B0%D8%A7%DA%A9%D8%B1+%D8%AD%D8%B3%DB%8C%D9%86+%D9%85%D8%B3%D8%AC%D8%AF%E2%80%AD/data=!4m7!3m6!1s0x3bb8fbe1f5f5a865:0x75b4449ac4abfa43!8m2!3d15.4204699!4d75.6197987!16s%2Fg%2F11gd39yl6d!19sChIJZaj19eH7uDsRQ_qrxJpEtHU?authuser=0&hl=en&rclk=1,"15.420469899999999,75.61979869999999"
Masjid Gadag,Mosque,"9MR4+F4V Masjid Gadag, Gadag-Betageri, Adavi Sompur, Karnataka 582103",,9MR4+F4V,"Gadag-Betageri, Adavi Sompur",582103,Karnataka,IN,https://www.google.com/maps/place/Masjid+Gadag/data=!4m7!3m6!1s0x3bb8fec52e726351:0xbd9132697048f1f8!8m2!3d15.3912418!4d75.6553114!16s%2Fg%2F11gbzbbdsz!19sChIJUWNyLsX-uDsR-PFIcGkykb0?authuser=0&hl=en&rclk=1,"15.3912418,75.6553114"
Masjid e Tawheed. Ahle Hadees,Mosque,"CJJJ+PH2 Masjid e Tawheed. Ahle Hadees, Mahendrakar Circle, javal galli, Station Rd, Gadag-Betageri, Karnataka 582101",Ganga Pur,"CJJJ+PH2, Mahendrakar Circle, javal galli, Station Rd","Gadag-Betageri, Gadag-Betigeri",582101,Karnataka,IN,https://www.google.com/maps/place/Masjid+e+Tawheed.+Ahle+Hadees/data=!4m7!3m6!1s0x3bb8f96609b6adf1:0xb7f92685bfd8bfc6!8m2!3d15.4317536!4d75.6313981!16s%2Fg%2F12cnvfz4f!19sChIJ8a22CWb5uDsRxr_Yv4Um-bc?authuser=0&hl=en&rclk=1,"15.431753599999999,75.6313981"
Hazrat Bilal Masjid,Mosque,"CJPG+FX3 Hazrat Bilal Masjid, HOBAL ROAD, Gadag-Betageri, Karnataka 582101",Gangapurpet,"CJPG+FX3, HOBAL ROAD","Gadag-Betageri, Gadag-Betigeri",582101,Karnataka,IN,https://www.google.com/maps/place/Hazrat+Bilal+Masjid/data=!4m7!3m6!1s0x3bb8f964bcd47187:0xc145fd0ac7ca56ae!8m2!3d15.4361327!4d75.6274236!16s%2Fg%2F12hp6_4jq!19sChIJh3HUvGT5uDsRrlbKxwr9RcE?authuser=0&hl=en&rclk=1,"15.4361327,75.6274236"
Madani Masjid,Mosque,"CJFG+5W4 Madani Masjid, Tanga Koot, Gadag-Betigeri, Karnataka 582103",Tanga Koot,CJFG+5W4,Gadag-Betigeri,582103,Karnataka,IN,https://www.google.com/maps/place/Madani+Masjid/data=!4m7!3m6!1s0x3bb8f95c328bace7:0xf32194eb7218330a!8m2!3d15.4228924!4d75.6273391!16s%2Fg%2F11df0gyv2g!19sChIJ56yLMlz5uDsRCjMYcuuUIfM?authuser=0&hl=en&rclk=1,"15.422892399999999,75.6273391"
Masjid -E- Taj & Hira Islamic center msjdi tj,Mosque,"CJF8+H45 Masjid -E- Taj & Hira Islamic center msjdi tj, Vijay Nagara, Gadag-Betageri, Gadag-Betigeri, Karnataka 582101",Vijay Nagara,CJF8+H45,"Gadag-Betageri, Gadag-Betigeri",582101,Karnataka,IN,https://www.google.com/maps/place/Masjid+-E-+Taj+%26+Hira+Islamic+center+%D9%85%D8%B3%D8%AC%D8%AF%D9%90+%D8%AA%D8%A7%D8%AC%E2%80%AD/data=!4m7!3m6!1s0x3bb8fbe0b67e7959:0x89acb9341729963c!8m2!3d15.4238768!4d75.6153744!16s%2Fg%2F11gfj46x1g!19sChIJWXl-tuD7uDsRPJYpFzS5rIk?authuser=0&hl=en&rclk=1,"15.423876799999999,75.6153744"
Masjid E Hasan,Mosque,"CMR2+75Q Masjid E Hasan, Sharanabasaveshwar Nagar, Gadag-Betageri, Gadag-Betigeri, Karnataka 582102",Sharanabasaveshwar Nagar,CMR2+75Q,"Gadag-Betageri, Gadag-Betigeri",582102,Karnataka,IN,https://www.google.com/maps/place/Masjid+E+Hasan/data=!4m7!3m6!1s0x3bb8f90e713dcb61:0x237856178ef3765a!8m2!3d15.4407191!4d75.6504925!16s%2Fg%2F11c6ll0778!19sChIJYcs9cQ75uDsRWnbzjhdWeCM?authuser=0&hl=en&rclk=1,"15.440719099999999,75.6504925"
Javal masjid,Mosque,"CJMJ+7HX Javal masjid, DC Mill Rd, Gangapurpet, Gadag-Betageri, Gadag-Betigeri, Karnataka 582101",Gangapurpet,"CJMJ+7HX, DC Mill Rd","Gadag-Betageri, Gadag-Betigeri",582101,Karnataka,IN,https://www.google.com/maps/place/Javal+masjid/data=!4m7!3m6!1s0x3bb8f965eca62949:0xc302693d7a6a7a0c!8m2!3d15.4332286!4d75.6314892!16s%2Fg%2F11csqwzrw1!19sChIJSSmm7GX5uDsRDHpqej1pAsM?authuser=0&hl=en&rclk=1,"15.4332286,75.63148919999999"
"Masjid E Ayesha Ashraya, Gadag",Place of worship,"CJVH+G34 Masjid E Ayesha Ashraya, Gadag, S M Krishna Nagar Ashray Colony, Kalasapur, Gadag-Betageri, Karnataka",Krishna Nagar,"CJVH+G34, S M Krishna Nagar Ashray Colony, Kalasapur","Gadag-Betageri, Gadag-Betigeri",,Karnataka,IN,"https://www.google.com/maps/place/Masjid+E+Ayesha+Ashraya,+Gadag/data=!4m7!3m6!1s0x3bb8f96eab1061a5:0x3a61c3d6199b44d7!8m2!3d15.4437682!4d75.6277018!16s%2Fg%2F11bv2lvlnl!19sChIJpWEQq275uDsR10SbGdbDYTo?authuser=0&hl=en&rclk=1","15.4437682,75.6277018"
Madina masjid,Mosque,"CJHR+C52 Madina masjid, APMC Rd, Panchal Nagar, Kalasapur, Gadag-Betageri, Gadag-Betigeri, Karnataka 582101","Panchal Nagar, Kalasapur","CJHR+C52, APMC Rd","Gadag-Betageri, Gadag-Betigeri",582101,Karnataka,IN,https://www.google.com/maps/place/Madina+masjid/data=!4m7!3m6!1s0x3bb8f924bace930f:0x3483ade33ae7c33f!8m2!3d15.4285126!4d75.6403817!16s%2Fg%2F11h6r17x88!19sChIJD5POuiT5uDsRP8PnOuOtgzQ?authuser=0&hl=en&rclk=1,"15.4285126,75.64038169999999"
Juma Masjid Settalment Gandhi Nagar Betageri Gadag jm`h msjd,Mosque,"CJRQ+3FH Juma Masjid Settalment Gandhi Nagar Betageri Gadag jm`h msjd, Gandhinagar, Hirehandilog, Gadag-Betageri, Gadag-Betigeri, Karnataka 582101","Gandhinagar, Hirehandilog",CJRQ+3FH,"Gadag-Betageri, Gadag-Betigeri",582101,Karnataka,IN,https://www.google.com/maps/place/Juma+Masjid+Settalment+Gandhi+Nagar+Betageri+Gadag+%D8%AC%D9%85%D8%B9%DB%81+%D9%85%D8%B3%D8%AC%D8%AF%E2%80%AD/data=!4m7!3m6!1s0x3bb8f9722596a88b:0x4dd0cde1a3f6ce55!8m2!3d15.440179!4d75.6387438!16s%2Fg%2F11hbw2flhv!19sChIJi6iWJXL5uDsRVc72o-HN0E0?authuser=0&hl=en&rclk=1,"15.440178999999999,75.6387438"
Jamath Masjid,Mosque,"CJHH+P73 Jamath Masjid, Albur Galli, Gadag-Betageri, Karnataka",Ganga Pur,"CJHH+P73, Albur Galli","Gadag-Betageri, Gadag-Betigeri",,Karnataka,IN,https://www.google.com/maps/place/Jamath+Masjid/data=!4m7!3m6!1s0x3bb8f966e741335b:0x304d2e740bd59921!8m2!3d15.4292593!4d75.6281582!16s%2Fg%2F11c7wc44ht!19sChIJWzNB52b5uDsRIZnVC3QuTTA?authuser=0&hl=en&rclk=1,"15.4292593,75.6281582"
Masjid E Talha,Mosque,"CJWM+GG3 Masjid E Talha, Krishna Nagar, Gadag-Betigeri, Karnataka 582101",Krishna Nagar,CJWM+GG3,Gadag-Betigeri,582101,Karnataka,IN,https://www.google.com/maps/place/Masjid+E+Talha/data=!4m7!3m6!1s0x3bb8f97775148049:0x101e5ee2929d2d88!8m2!3d15.446254!4d75.6337884!16s%2Fg%2F11g6_246sz!19sChIJSYAUdXf5uDsRiC2dkuJeHhA?authuser=0&hl=en&rclk=1,"15.446254,75.6337884"
MAKKAH MASJID mkhh msjd,Mosque,"CJPV+68V MAKKAH MASJID mkhh msjd, Near Aman English Medium Primary School, Vidya Nagar, Kalasapur, Gadag-Betigeri, Karnataka 582101","Vidya Nagar, Kalasapur","CJPV+68V, Near Aman English Medium Primary School",Gadag-Betigeri,582101,Karnataka,IN,https://www.google.com/maps/place/MAKKAH+MASJID+%D9%85%DA%A9%DB%81+%D9%85%D8%B3%D8%AC%D8%AF%E2%80%AD/data=!4m7!3m6!1s0x3bb8f96d278f09f3:0x6e385ee17286ed1e!8m2!3d15.4356075!4d75.6433114!16s%2Fg%2F11dylx7g06!19sChIJ8wmPJ235uDsRHu2GcuFeOG4?authuser=0&hl=en&rclk=1,"15.4356075,75.6433114"
Fharuqia Masjid frwqyh msjd,Mosque,"CJXX+64X Fharuqia Masjid frwqyh msjd, Manjunath Nagar, Gadag-Betigeri, Karnataka 582102",Manjunath Nagar,CJXX+64X,Gadag-Betigeri,582102,Karnataka,IN,https://www.google.com/maps/place/Fharuqia+Masjid+%D9%81%D8%A7%D8%B1%D9%88%D9%82%DB%8C%DB%81+%D9%85%D8%B3%D8%AC%D8%AF%E2%80%AD/data=!4m7!3m6!1s0x3bb8f90a450c142f:0xdc20b366af7a6507!8m2!3d15.4481017!4d75.647875!16s%2Fg%2F11dfqwgsrw!19sChIJLxQMRQr5uDsRB2V6r2azINw?authuser=0&hl=en&rclk=1,"15.448101699999999,75.647875"
Munawwar Masjid,Swimming lake,"FM29+975 Munawwar Masjid, Ashray Colony, Gadag-Betageri, Gadag-Betigeri, Karnataka 582102",Ashray Colony,FM29+975,"Gadag-Betageri, Gadag-Betigeri",582102,Karnataka,IN,https://www.google.com/maps/place/Munawwar+Masjid/data=!4m7!3m6!1s0x3bb8f8fff04c2255:0x128dfbce28221c80!8m2!3d15.4508788!4d75.6682444!16s%2Fg%2F11f27v4cjd!19sChIJVSJM8P_4uDsRgBwiKM77jRI?authuser=0&hl=en&rclk=1,"15.4508788,75.66824439999999"
Azam Masjid,Mosque,"CJRW+R8V Azam Masjid, pulikeshi road, Pala, Gandhi Peth, Betageri, Gadag-Betigeri, Karnataka 582102","Pala, Gandhi Peth","CJRW+R8V, pulikeshi road","Betageri, Gadag-Betigeri",582102,Karnataka,IN,https://www.google.com/maps/place/Azam+Masjid/data=!4m7!3m6!1s0x3bb8f9b9d53ef515:0x87151529536f0c42!8m2!3d15.4421103!4d75.6458043!16s%2Fg%2F11fhtycnkc!19sChIJFfU-1bn5uDsRQgxvUykVFYc?authuser=0&hl=en&rclk=1,"15.4421103,75.6458043"
"Madina masjid, Hazrat sayyed suleman badshah gareeb shyawali Dargah",Mosque,"CJRX+QCP Madina masjid, Hazrat sayyed suleman badshah gareeb shyawali Dargah, Sharanabasaveshwar Nagar, Gadag-Betigeri, Karnataka 582102",Sharanabasaveshwar Nagar,CJRX+QCP,Gadag-Betigeri,582102,Karnataka,IN,"https://www.google.com/maps/place/Madina+masjid,+Hazrat+sayyed+suleman+badshah+gareeb+shyawali+Dargah/data=!4m7!3m6!1s0x3bb8f93f58dc6e09:0x4cf4ef2b81986bf9!8m2!3d15.4419707!4d75.6485785!16s%2Fg%2F11gjhh1z01!19sChIJCW7cWD_5uDsR-WuYgSvv9Ew?authuser=0&hl=en&rclk=1","15.441970699999999,75.6485785"
Mubarak Masjid mbrkh msjd,Mosque,"CMW5+J2W Mubarak Masjid mbrkh msjd, Sharanabasaveshwar Nagar, Gadag-Betageri, Gadag-Betigeri, Karnataka 582102",Sharanabasaveshwar Nagar,CMW5+J2W,"Gadag-Betageri, Gadag-Betigeri",582102,Karnataka,IN,https://www.google.com/maps/place/Mubarak+Masjid+%D9%85%D8%A8%D8%A7%D8%B1%DA%A9+%D9%85%D8%B3%D8%AC%D8%AF%E2%80%AD/data=!4m7!3m6!1s0x3bb8f9c7e6db5c39:0x41c6fecffd8169d9!8m2!3d15.4466216!4d75.6575646!16s%2Fg%2F11h245lzdk!19sChIJOVzb5sf5uDsR2WmB_c_-xkE?authuser=0&hl=en&rclk=1,"15.446621599999999,75.6575646"
Qaiyaum Masjid,Mosque,"CJC4+PRX Qaiyaum Masjid, National Highway 63, Gadag-Betageri, Gadag-Betigeri, Karnataka 582103",,"CJC4+PRX, National Highway 63","Gadag-Betageri, Gadag-Betigeri",582103,Karnataka,IN,https://www.google.com/maps/place/Qaiyaum+Masjid/data=!4m7!3m6!1s0x3bb8fbe8584f5a27:0x3712f3a47d25c9ee!8m2!3d15.4218703!4d75.6071042!16s%2Fg%2F1hhvtbm2g!19sChIJJ1pPWOj7uDsR7sklfaTzEjc?authuser=0&hl=en&rclk=1,"15.4218703,75.6071042"
Masjid e qassim,Mosque,"CMM5+2RW Masjid e qassim, Vidya Nagar, Kalasapur, Gadag-Betageri, Gadag-Betigeri, Karnataka 582102","Vidya Nagar, Kalasapur",CMM5+2RW,"Gadag-Betageri, Gadag-Betigeri",582102,Karnataka,IN,https://www.google.com/maps/place/Masjid+e+qassim/data=!4m7!3m6!1s0x3bb8f982e5f66c11:0x26e32fd8a1c85eb7!8m2!3d15.4326104!4d75.6595893!16s%2Fg%2F11h4dgjknx!19sChIJEWz25YL5uDsRt17Iodgv4yY?authuser=0&hl=en&rclk=1,"15.4326104,75.6595893"
Noorani Masjid,Mosque,"CJJG+F2W Noorani Masjid, Unnamed Road, Hanuman Gardi, Gadag-Betageri, Gadag-Betigeri, Karnataka 582101",Hanuman Gardi,"CJJG+F2W, Unnamed Road","Gadag-Betageri, Gadag-Betigeri",582101,Karnataka,IN,https://www.google.com/maps/place/Noorani+Masjid/data=!4m7!3m6!1s0x3bb8f9806571db8b:0x7c916c31df06f6a1!8m2!3d15.4312283!4d75.6250937!16s%2Fg%2F11fj85cb8n!19sChIJi9txZYD5uDsRofYG3zFskXw?authuser=0&hl=en&rclk=1,"15.431228299999999,75.6250937"
Masjid E Iqbal msjdi qbl,Mosque,"CJJJ+F76 Masjid E Iqbal msjdi qbl, Javal galli, Gadag-Betageri, Karnataka 582101",Ganga Pur,"CJJJ+F76, Javal galli","Gadag-Betageri, Gadag-Betigeri",582101,Karnataka,IN,https://www.google.com/maps/place/Masjid+E+Iqbal+%D9%85%D8%B3%D8%AC%D8%AF%D9%90+%D8%A7%D9%82%D8%A8%D8%A7%D9%84%E2%80%AD/data=!4m7!3m6!1s0x3bb8f966721d35d7:0x86fe3829606ff6a7!8m2!3d15.4311632!4d75.6306315!16s%2Fg%2F11fx8by_1m!19sChIJ1zUdcmb5uDsRp_ZvYCk4_oY?authuser=0&hl=en&rclk=1,"15.431163199999999,75.63063149999999"
Eidga - e -hussaini,Mosque,"CJPV+79V Eidga - e -hussaini, Vidya Nagar, Kalasapur, Gadag-Betigeri, Karnataka 582101","Vidya Nagar, Kalasapur",CJPV+79V,Gadag-Betigeri,582101,Karnataka,IN,https://www.google.com/maps/place/Eidga+-+e+-hussaini/data=!4m7!3m6!1s0x3bb8f96d28893e37:0x2e9e40bcbd0c722b!8m2!3d15.4357492!4d75.6434186!16s%2Fg%2F11f401v80h!19sChIJNz6JKG35uDsRK3IMvbxAni4?authuser=0&hl=en&rclk=1,"15.4357492,75.64341859999999"
Diwanji Jamat Masjid,Community center,"CJHH+M7P Diwanji Jamat Masjid, Ganga Pur, Gadag-Betigeri, Karnataka 582101",Ganga Pur,CJHH+M7P,Gadag-Betigeri,582101,Karnataka,IN,https://www.google.com/maps/place/Diwanji+Jamat+Masjid/data=!4m7!3m6!1s0x3bb8f966e7314255:0x860e62ae8218d142!8m2!3d15.4292208!4d75.6282014!16s%2Fg%2F11c5s3yd3q!19sChIJVUIx52b5uDsRQtEYgq5iDoY?authuser=0&hl=en&rclk=1,"15.4292208,75.6282014"
Jamat Masjid msjd,Mosque,"CJWV+RF4 Jamat Masjid msjd, Pala Badami Rd, Manjunath Nagar, Gadag-Betageri, Gadag-Betigeri, Karnataka 582102",Manjunath Nagar,"CJWV+RF4, Pala Badami Rd","Gadag-Betageri, Gadag-Betigeri",582102,Karnataka,IN,https://www.google.com/maps/place/Jamat+Masjid+%D9%85%D8%B3%D8%AC%D8%AF%E2%80%AD/data=!4m7!3m6!1s0x3bb8f974d6261555:0xf4ec28afe74b4583!8m2!3d15.447006!4d75.6436882!16s%2Fg%2F11g8wphbhz!19sChIJVRUm1nT5uDsRg0VL568o7PQ?authuser=0&hl=en&rclk=1,"15.447006,75.6436882"
Munovvar masjid betageri,Mosque,"FM29+886 Munovvar masjid betageri, Ashray Colony, Gadag-Betageri, Gadag-Betigeri, Karnataka 582102",Ashray Colony,FM29+886,"Gadag-Betageri, Gadag-Betigeri",582102,Karnataka,IN,https://www.google.com/maps/place/Munovvar+masjid+betageri/data=!4m7!3m6!1s0x3bb8f96ef1f5da19:0xf12bab8d6bcc7f44!8m2!3d15.4507792!4d75.6682649!16s%2Fg%2F11fkf07r4q!19sChIJGdr18W75uDsRRH_Ma42rK_E?authuser=0&hl=en&rclk=1,"15.4507792,75.6682649"
Masjid E Tajul Wara,Mosque,"CJH7+2HC Masjid E Tajul Wara, Vijay Nagara, Gadag-Betigeri, Karnataka 582101",Vijay Nagara,CJH7+2HC,Gadag-Betigeri,582101,Karnataka,IN,https://www.google.com/maps/place/Masjid+E+Tajul+Wara/data=!4m7!3m6!1s0x3bb8fbb66aaf6207:0xfc39efe68cb3ed97!8m2!3d15.4281326!4d75.6130516!16s%2Fg%2F11rw7fjs05!19sChIJB2Kvarb7uDsRl-2zjObvOfw?authuser=0&hl=en&rclk=1,"15.4281326,75.61305159999999"
Nayi Jamaat Masjid,Mosque,"CJRV+X35 Nayi Jamaat Masjid, Hirehandilog, Gadag-Betageri, Gadag-Betigeri, Karnataka 582102",Hirehandilog,CJRV+X35,"Gadag-Betageri, Gadag-Betigeri",582102,Karnataka,IN,https://www.google.com/maps/place/Nayi+Jamaat+Masjid/data=!4m7!3m6!1s0x3bb8f9733e3fffff:0x488ebf47273c1dc3!8m2!3d15.4423855!4d75.6427205!16s%2Fg%2F11sscsgww2!19sChIJ__8_PnP5uDsRwx08J0e_jkg?authuser=0&hl=en&rclk=1,"15.442385499999999,75.6427205"
MASJID E ZUBAIR msjdi zbyr,Mosque,"CJ6C+M59 MASJID E ZUBAIR msjdi zbyr, Bellary - Hubli Rd, Hudco Colony, Gadag-Betageri, Gadag-Betigeri, Karnataka 582103",Hudco Colony,"CJ6C+M59, Bellary - Hubli Rd","Gadag-Betageri, Gadag-Betigeri",582103,Karnataka,IN,https://www.google.com/maps/place/MASJID+E+ZUBAIR+%D9%85%D8%B3%D8%AC%D8%AF%D9%90+%D8%B2%D8%A8%D9%8A%D8%B1%E2%80%AD/data=!4m7!3m6!1s0x3bb8fb4c2beec6e5:0xc48826cc87d97ac5!8m2!3d15.4116725!4d75.6204988!16s%2Fg%2F11j2zhlkc6!19sChIJ5cbuK0z7uDsRxXrZh8wmiMQ?authuser=0&hl=en&rclk=1,"15.4116725,75.6204988"
Masjid Quba,Mosque,"CJVM+684 Masjid Quba, Unnamed Road, Krishna Nagar, Gadag-Betageri, Gadag-Betigeri, Karnataka 582101",Krishna Nagar,"CJVM+684, Unnamed Road","Gadag-Betageri, Gadag-Betigeri",582101,Karnataka,IN,https://www.google.com/maps/place/Masjid+Quba/data=!4m7!3m6!1s0x3bb8f94dbc30230d:0x6947cecb295bb8b3!8m2!3d15.4430113!4d75.6333426!16s%2Fg%2F11h10tvswh!19sChIJDSMwvE35uDsRs7hbKcvOR2k?authuser=0&hl=en&rclk=1,"15.443011299999998,75.63334259999999"
masjid e Jamath,Place of worship,"CJHH+GCQ masjid e Jamath, diwanji galli, Javali Bazar, Tanga Koot, Gadag-Betageri, Gadag-Betigeri, Karnataka 582101","Javali Bazar, Tanga Koot","CJHH+GCQ, diwanji galli","Gadag-Betageri, Gadag-Betigeri",582101,Karnataka,IN,https://www.google.com/maps/place/masjid+e+Jamath/data=!4m7!3m6!1s0x3bb8f9671da16199:0xe579ec685f4825fa!8m2!3d15.4288282!4d75.6286094!16s%2Fg%2F11bvt4bltd!19sChIJmWGhHWf5uDsR-iVIX2jseeU?authuser=0&hl=en&rclk=1,"15.4288282,75.6286094"
Masjid E Imam E Azam,Mosque,"CJGG+Q73 Masjid E Imam E Azam, Dakhani Galli, Gujjar Basti Rd, Gadag-Betageri, Karnataka",Hanuman Gardi,"CJGG+Q73, Dakhani Galli, Gujjar Basti Rd","Gadag-Betageri, Gadag-Betigeri",,Karnataka,IN,https://www.google.com/maps/place/Masjid+E+Imam+E+Azam/data=!4m7!3m6!1s0x3bb8f925038dbc95:0x7c662f400bdb9d9a!8m2!3d15.426892!4d75.625683!16s%2Fg%2F11fnsx938l!19sChIJlbyNAyX5uDsRmp3bC0AvZnw?authuser=0&hl=en&rclk=1,"15.426891999999999,75.625683"
Masjid E Quba (Sunni Masjid),Mosque,"9JWG+P2F Masjid E Quba (Sunni Masjid), KSRTC Colony, Gadag-Betageri, Pandurangapur, Karnataka 582103",KSRTC Colony,9JWG+P2F,"Gadag-Betageri, Pandurangapur",582103,Karnataka,IN,https://www.google.com/maps/place/Masjid+E+Quba+%28Sunni+Masjid%29/data=!4m7!3m6!1s0x3bb8ff76e34520b7:0x8257173d0bfb57e7!8m2!3d15.3968021!4d75.6250428!16s%2Fg%2F11mc6v6wg1!19sChIJtyBF43b_uDsR51f7Cz0XV4I?authuser=0&hl=en&rclk=1,"15.396802099999999,75.6250428"
Dargah Sharif,Mosque,"CJPV+87M Dargah Sharif, Vidya Nagar, Kalasapur, Gadag-Betageri, Gadag-Betigeri, Karnataka 582101","Vidya Nagar, Kalasapur",CJPV+87M,"Gadag-Betageri, Gadag-Betigeri",582101,Karnataka,IN,https://www.google.com/maps/place/Dargah+Sharif/data=!4m7!3m6!1s0x3bb8f96d2659c785:0xe7112f186f83bfa5!8m2!3d15.4358324!4d75.6431855!16s%2Fg%2F11f3_wlzd3!19sChIJhcdZJm35uDsRpb-DbxgvEec?authuser=0&hl=en&rclk=1,"15.435832399999999,75.6431855"
Makka masjid,Mosque,"CH7M+C7X Makka masjid, Gadag-Betageri, Asundi, Karnataka 582103",,CH7M+C7X,"Gadag-Betageri, Asundi",582103,Karnataka,IN,https://www.google.com/maps/place/Makka+masjid/data=!4m7!3m6!1s0x3bb8fb576e51c6c9:0x7669c355866b6c6f!8m2!3d15.4142235!4d75.5841756!16s%2Fg%2F11rw6myxwx!19sChIJycZRblf7uDsRb2xrhlXDaXY?authuser=0&hl=en&rclk=1,"15.414223499999999,75.5841756"
Rahamat Masjid,Mosque,"CJMF+XGG Rahamat Masjid, Rahmat Nagar, Gadag-Betageri, Gadag-Betigeri, Karnataka 582101",Rahmat Nagar,CJMF+XGG,"Gadag-Betageri, Gadag-Betigeri",582101,Karnataka,IN,https://www.google.com/maps/place/Rahamat+Masjid/data=!4m7!3m6!1s0x3bb8f9cdfd55f2c3:0xf9003bb2beb76e82!8m2!3d15.434941!4d75.6238131!16s%2Fg%2F11h6nvtkhv!19sChIJw_JV_c35uDsRgm63vrI7APk?authuser=0&hl=en&rclk=1,"15.434940999999998,75.62381309999999"
Jamiya Masjid,Mosque,"CJQW+947 Jamiya Masjid, Kurttipet, Sharanabasaveshwar Nagar, Betageri, Gadag-Betigeri, Karnataka 582102","Kurttipet, Sharanabasaveshwar Nagar",CJQW+947,"Betageri, Gadag-Betigeri",582102,Karnataka,IN,https://www.google.com/maps/place/Jamiya+Masjid/data=!4m7!3m6!1s0x3bb8f912a0faaaab:0x6b7a9ef9e6181f28!8m2!3d15.4384021!4d75.6453116!16s%2Fg%2F11txmz16p9!19sChIJq6r6oBL5uDsRKB8Y5vmeems?authuser=0&hl=en&rclk=1,"15.4384021,75.6453116"
Masjid Akbariya,Mosque,"CJ9F+66G Masjid Akbariya, Hudco Colony, Gadag-Betageri, Gadag-Betigeri, Karnataka 582103",Hudco Colony,CJ9F+66G,"Gadag-Betageri, Gadag-Betigeri",582103,Karnataka,IN,https://www.google.com/maps/place/Masjid+Akbariya/data=!4m7!3m6!1s0x3bb8f958e5955555:0x3a98bf49334d6bc!8m2!3d15.4180522!4d75.6230819!16s%2Fg%2F11sscs3ds9!19sChIJVVWV5Vj5uDsRvNY0k_SLqQM?authuser=0&hl=en&rclk=1,"15.4180522,75.6230819"
Dhadelshah masjid,Mosque,"CJWW+7P9 Dhadelshah masjid, Unnamed Road, Pala, Manjunath Nagar, Gadag-Betigeri, Karnataka 582102","Pala, Manjunath Nagar","CJWW+7P9, Unnamed Road",Gadag-Betigeri,582102,Karnataka,IN,https://www.google.com/maps/place/Dhadelshah+masjid/data=!4m7!3m6!1s0x3bb8f90b7504d4e9:0x7eb2b370a898db31!8m2!3d15.4456726!4d75.646844!16s%2Fg%2F11hc_7wj_b!19sChIJ6dQEdQv5uDsRMduYqHCzsn4?authuser=0&hl=en&rclk=1,"15.4456726,75.646844"
Masjid e hamza,Mosque,"CJXR+XX2 Masjid e hamza, Chikkoppa, Gadag-Betageri, Gadag-Betigeri, Karnataka 582102",Chikkoppa,CJXR+XX2,"Gadag-Betageri, Gadag-Betigeri",,Karnataka,IN,https://www.google.com/maps/place/Masjid+e+hamza/data=!4m7!3m6!1s0x3bb8f9d492d466ab:0x79f51f079b86ae80!8m2!3d15.4498954!4d75.6423892!16s%2Fg%2F11sq36h_gv!19sChIJq2bUktT5uDsRgK6Gmwcf9Xk?authuser=0&hl=en&rclk=1,"15.449895399999999,75.6423892"
TAJULWARA MASJID GADAG,Mosque,"CJC9+M42 TAJULWARA MASJID GADAG, Udaya Nagar, Zakir Hussain Colony, Gangimadi Nagar, Gadag-Betageri, Gadag-Betigeri, Karnataka 582103","Udaya Nagar, Zakir Hussain Colony, Gangimadi Nagar",CJC9+M42,"Gadag-Betageri, Gadag-Betigeri",582103,Karnataka,IN,https://www.google.com/maps/place/TAJULWARA+MASJID+GADAG/data=!4m7!3m6!1s0x3bb8fb8afdbd8329:0x218a783c51ed1c30!8m2!3d15.4216282!4d75.6177635!16s%2Fg%2F11rgfq9psq!19sChIJKYO9_Yr7uDsRMBztUTx4iiE?authuser=0&hl=en&rclk=1,"15.421628199999999,75.6177635"
msjid - ee- haaruun ( Masjid-e-Haroon),Mosque,"CJP8+GW6 msjid - ee- haaruun ( Masjid-e-Haroon), Pragati Nagar, Gadag-Betageri, Gadag-Betigeri, Karnataka 582101",Pragati Nagar,CJP8+GW6,"Gadag-Betageri, Gadag-Betigeri",582101,Karnataka,IN,https://www.google.com/maps/place/%E0%B2%AE%E0%B2%B8%E0%B3%8D%E0%B2%9C%E0%B2%BF%E0%B2%A6%E0%B3%8D+-+%E0%B2%8F-+%E0%B2%B9%E0%B2%BE%E0%B2%B0%E0%B3%82%E0%B2%A8%E0%B3%8D+%28+Masjid-e-Haroon%29/data=!4m7!3m6!1s0x3bb8fb0a713af073:0x72d0df9ec5575fbb!8m2!3d15.4369879!4d75.6179169!16s%2Fg%2F11syt9hfzb!19sChIJc_A6cQr7uDsRu19XxZ7f0HI?authuser=0&hl=en&rclk=1,"15.4369879,75.6179169"
Masjid Jantul Firdous,Mosque,"CJ9H+4R Masjid Jantul Firdous, Sidha Maheshwar Nagar, Gadag-Betageri, Gadag-Betigeri, Karnataka 582103",Sidha Maheshwar Nagar,CJ9H+4R,"Gadag-Betageri, Gadag-Betigeri",582103,Karnataka,IN,https://www.google.com/maps/place/Masjid+Jantul+Firdous/data=!4m7!3m6!1s0x3bb8f9ffca4fd96d:0x6db4572596da5b9f!8m2!3d15.4178125!4d75.6295625!16s%2Fg%2F11kjm326x8!19sChIJbdlPyv_5uDsRn1valiVXtG0?authuser=0&hl=en&rclk=1,"15.4178125,75.62956249999999"
Aqsa Masjid,Mosque,"Yeligar Plot Shop No 15, Aqsa Masjid, Janta Colony, Gadag-Betigeri, Karnataka 582101",Janta Colony,Yeligar Plot Shop No 15,Gadag-Betigeri,582101,Karnataka,IN,https://www.google.com/maps/place/Aqsa+Masjid/data=!4m7!3m6!1s0x3bb8f9da520b41f5:0xca8fb77548f0c7a0!8m2!3d15.4294423!4d75.622374!16s%2Fg%2F11tggq9m_4!19sChIJ9UELUtr5uDsRoMfwSHW3j8o?authuser=0&hl=en&rclk=1,"15.4294423,75.622374"
Noor Masjid,Mosque,"CJG8+88Q Noor Masjid, Vijay Nagara, Gadag-Betageri, Gadag-Betigeri, Karnataka 582101",Vijay Nagara,CJG8+88Q,"Gadag-Betageri, Gadag-Betigeri",582101,Karnataka,IN,https://www.google.com/maps/place/Noor+Masjid/data=!4m7!3m6!1s0x3bb8fbde1a9aaaab:0x1f4ad4b70468d0a2!8m2!3d15.4258379!4d75.6158531!16s%2Fg%2F11sscs5m58!19sChIJq6qaGt77uDsRotBoBLfUSh8?authuser=0&hl=en&rclk=1,"15.4258379,75.6158531"
Masjid msjd,Mosque,"CJ8Q+VG5 Masjid msjd, Panchal Nagar, Puttaraj Nagar, Gadag-Betageri, Gadag-Betigeri, Karnataka 582101","Panchal Nagar, Puttaraj Nagar",CJ8Q+VG5,"Gadag-Betageri, Gadag-Betigeri",582101,Karnataka,IN,https://www.google.com/maps/place/Masjid+%D9%85%D8%B3%D8%AC%D8%AF%E2%80%AD/data=!4m7!3m6!1s0x3bb8f9af52392f79:0x6e7c5e37e5f567fd!8m2!3d15.4171316!4d75.6388438!16s%2Fg%2F11h2h76y7h!19sChIJeS85Uq_5uDsR_Wf15TdefG4?authuser=0&hl=en&rclk=1,"15.4171316,75.6388438"
MAKTUM MASJID ARABIC MADARSA,Mosque,"CJGF+J99 MAKTUM MASJID ARABIC MADARSA, Unnamed Road, Janta Colony, Gadag-Betageri, Gadag-Betigeri, Karnataka 582101",Janta Colony,"CJGF+J99, Unnamed Road","Gadag-Betageri, Gadag-Betigeri",582101,Karnataka,IN,https://www.google.com/maps/place/MAKTUM+MASJID+ARABIC+MADARSA/data=!4m7!3m6!1s0x3bb8f9a634a55949:0x7b8e3d995d483d3f!8m2!3d15.4265416!4d75.6234757!16s%2Fg%2F11rcnwj1cp!19sChIJSVmlNKb5uDsRPz1IXZk9jns?authuser=0&hl=en&rclk=1,"15.4265416,75.6234757"
Hazrat Sayyad Palaksha Wali Dargah,Mosque,"CJJP+H5Q Hazrat Sayyad Palaksha Wali Dargah, Tanga Koot, Gadag-Betageri, Gadag-Betigeri, Karnataka 582101",Tanga Koot,CJJP+H5Q,"Gadag-Betageri, Gadag-Betigeri",,Karnataka,IN,https://www.google.com/maps/place/Hazrat+Sayyad+Palaksha+Wali+Dargah/data=!4m7!3m6!1s0x3bb8f9f4c0bf6bcb:0xe231143a1f3bfe6e!8m2!3d15.4314548!4d75.6354943!16s%2Fg%2F11sd2_cfr8!19sChIJy2u_wPT5uDsRbv47HzoUMeI?authuser=0&hl=en&rclk=1,"15.4314548,75.63549429999999"
Taj Nagar Masque,Mosque,"CJG7+7W3 Taj Nagar Masque, Taj Nagara, Gangimadi Ring Road, Gadag-Betageri, Karnataka 582101",Vijay Nagara,"CJG7+7W3, Taj Nagara, Gangimadi Ring Road","Gadag-Betageri, Gadag-Betigeri",582101,Karnataka,IN,https://www.google.com/maps/place/Taj+Nagar+Masque/data=!4m7!3m6!1s0x3bb8fb9930635be3:0x2c4e7dfc4ac62f53!8m2!3d15.4256414!4d75.6147977!16s%2Fg%2F11sgzjpqc9!19sChIJ41tjMJn7uDsRUy_GSvx9Tiw?authuser=0&hl=en&rclk=1,"15.4256414,75.6147977"
Masjid-e-Raza,School,"CMG3+65M Masjid-e-Raza, Panchakshari Nagar, Gadag-Betageri, Gadag-Betigeri, Karnataka 582102",Panchakshari Nagar,CMG3+65M,"Gadag-Betageri, Gadag-Betigeri",582102,Karnataka,IN,https://www.google.com/maps/place/Masjid-e-Raza/data=!4m7!3m6!1s0x3bb8f93337e01505:0xd42ef691cdcf8f98!8m2!3d15.4255981!4d75.6529361!16s%2Fg%2F11jfl5m_xf!19sChIJBRXgNzP5uDsRmI_PzZH2LtQ?authuser=0&hl=en&rclk=1,"15.425598099999998,75.65293609999999"
Maaldar masjid,Mosque,"CJRW+JRG Maaldar masjid, Sharanabasaveshwar Nagar, Betageri, Gadag-Betigeri, Karnataka 582102",Sharanabasaveshwar Nagar,CJRW+JRG,"Betageri, Gadag-Betigeri",,Karnataka,IN,https://www.google.com/maps/place/Maaldar+masjid/data=!4m7!3m6!1s0x3bb8f9b4b5120b55:0x7cf326d100d30fb8!8m2!3d15.4415682!4d75.6470654!16s%2Fg%2F11rqcl29tz!19sChIJVQsStbT5uDsRuA_TANEm83w?authuser=0&hl=en&rclk=1,"15.441568199999999,75.6470654"
Bismillah Masjid,Mosque,"Bismillah Masjid, bus station, Old, Gadag-Betageri",Tanga Koot,"bus station, Old","Gadag-Betageri, Gadag-Betigeri",,Karnataka,IN,https://www.google.com/maps/place/Bismillah+Masjid/data=!4m7!3m6!1s0x3bb8f9cf520227fb:0xbbd60cb4a0d00e6f!8m2!3d15.4280723!4d75.6324837!16s%2Fg%2F11sqq55169!19sChIJ-ycCUs_5uDsRbw7QoLQM1rs?authuser=0&hl=en&rclk=1,"15.4280723,75.6324837"
Masjid E Muddassir,Mosque,"CJH7+QC6 Masjid E Muddassir, Gadag-Betageri, Gadag-Betigeri, Karnataka 582101",,CJH7+QC6,"Gadag-Betageri, Gadag-Betigeri",,Karnataka,IN,https://www.google.com/maps/place/Masjid+E+Muddassir/data=!4m7!3m6!1s0x3bb8fb0342306285:0xc5c544d74a8ba2a0!8m2!3d15.4294138!4d75.6135058!16s%2Fg%2F11p5f_975s!19sChIJhWIwQgP7uDsRoKKLStdExcU?authuser=0&hl=en&rclk=1,"15.429413799999999,75.6135058"
Badar masjid,Mosque,"CMV4+9F5 Badar masjid, Sharanabasaveshwar Nagar, Gadag-Betigeri, Karnataka 582102",Sharanabasaveshwar Nagar,CMV4+9F5,Gadag-Betigeri,582102,Karnataka,IN,https://www.google.com/maps/place/Badar+masjid/data=!4m7!3m6!1s0x3bb8f96a4532a247:0x3566ded257ee126f!8m2!3d15.4433959!4d75.6562359!16s%2Fg%2F11trf4rgf7!19sChIJR6IyRWr5uDsRbxLuV9LeZjU?authuser=0&hl=en&rclk=1,"15.443395899999999,75.6562359"
Maktum Masjid Gadag mkhtwm msjd gdg,Mosque,"CJJQ+X6J Maktum Masjid Gadag mkhtwm msjd gdg, vakkalgeri,oni, Vidya Nagar, Kalasapur, Gadag-Betageri, Gadag-Betigeri, Karnataka 582101","Vidya Nagar, Kalasapur","CJJQ+X6J, vakkalgeri,oni","Gadag-Betageri, Gadag-Betigeri",,Karnataka,IN,https://www.google.com/maps/place/Maktum+Masjid+Gadag+%D9%85%DA%A9%D8%AA%D9%88%D9%85+%D9%85%D8%B3%D8%AC%D8%AF+%DA%AF%D8%AF%DA%AF%E2%80%AD/data=!4m7!3m6!1s0x3bb8f9786aa47641:0x7f8f824f3eec7b0e!8m2!3d15.4324651!4d75.6380187!16s%2Fg%2F11fhvdcyj8!19sChIJQXakanj5uDsRDnvsPk-Cj38?authuser=0&hl=en&rclk=1,"15.4324651,75.6380187"
Imam Hussain Masjid,Mosque,"CJQW+3P4 Imam Hussain Masjid, Kurttipet, Sharanabasaveshwar Nagar, Gadag-Betigeri, Gadag-Betageri, Karnataka 582102","Kurttipet, Sharanabasaveshwar Nagar",CJQW+3P4,"Gadag-Betigeri, Gadag-Betageri",,Karnataka,IN,https://www.google.com/maps/place/Imam+Hussain+Masjid/data=!4m7!3m6!1s0x3bb8f94ef4a1a7e7:0x4b7142a4d2645413!8m2!3d15.4376386!4d75.6468314!16s%2Fg%2F11t56kn99j!19sChIJ56eh9E75uDsRE1Rk0qRCcUs?authuser=0&hl=en&rclk=1,"15.4376386,75.6468314"
ILAHI MASJID,Mosque,"CMC2+75P ILAHI MASJID, Panchakshari Nagar, Gadag-Betageri, Gadag-Betigeri, Karnataka 582102",Panchakshari Nagar,CMC2+75P,"Gadag-Betageri, Gadag-Betigeri",582102,Karnataka,IN,https://www.google.com/maps/place/ILAHI+MASJID/data=!4m7!3m6!1s0x3bb8f984a17cc331:0x45ee379f25e806ad!8m2!3d15.420719!4d75.6504594!16s%2Fg%2F11t7t24sw5!19sChIJMcN8oYT5uDsRrQboJZ837kU?authuser=0&hl=en&rclk=1,"15.420719,75.6504594"
Ansaar masjid,Mosque,"FJ3W+MV9 Ansaar masjid, Chikkoppa, Gadag-Betageri, Gadag-Betigeri, Karnataka 582102",Chikkoppa,FJ3W+MV9,"Gadag-Betageri, Gadag-Betigeri",,Karnataka,IN,https://www.google.com/maps/place/Ansaar+masjid/data=!4m7!3m6!1s0x3bb8f9d3c0bcd8c1:0xae30ac612df832e3!8m2!3d15.4541689!4d75.6472369!16s%2Fg%2F11rql3b5vv!19sChIJwdi8wNP5uDsR4zL4LWGsMK4?authuser=0&hl=en&rclk=1,"15.454168899999999,75.6472369"
Masjid e qasim,Mosque,"CMP6+C88 Masjid e qasim, Hamalara Colony, Gadag-Betigeri, Karnataka 582102",Hamalara Colony,CMP6+C88,Gadag-Betigeri,582102,Karnataka,IN,https://www.google.com/maps/place/Masjid+e+qasim/data=!4m7!3m6!1s0x3bb8f909e4d07e79:0x45a24f5a17d53f53!8m2!3d15.4360399!4d75.6608273!16s%2Fg%2F11q4gsh5gc!19sChIJeX7Q5An5uDsRUz_VF1pPokU?authuser=0&hl=en&rclk=1,"15.436039899999999,75.6608273"
Abu Huraira Masjid,Mosque,"CJP7+V49 Abu Huraira Masjid, Gangimadi Ashraya Colony, Gangimadi Nagar, Gadag-Betageri, Gadag-Betigeri, Karnataka 582101","Gangimadi Ashraya Colony, Gangimadi Nagar",CJP7+V49,"Gadag-Betageri, Gadag-Betigeri",582101,Karnataka,IN,https://www.google.com/maps/place/Abu+Huraira+Masjid/data=!4m7!3m6!1s0x3bb8fbd0901aaaab:0xa37129b3e6d42da3!8m2!3d15.4371614!4d75.6128524!16s%2Fg%2F11sscs0yns!19sChIJq6oakND7uDsRoy3U5rMpcaM?authuser=0&hl=en&rclk=1,"15.437161399999999,75.6128524"
Mohajarin Masjid,Mosque,"CJM6+FV4 Mohajarin Masjid, Gangimadi Ashraya Colony, Gangimadi Nagar, Gadag-Betageri, Gadag-Betigeri, Karnataka 582101","Gangimadi Ashraya Colony, Gangimadi Nagar",CJM6+FV4,"Gadag-Betageri, Gadag-Betigeri",582101,Karnataka,IN,https://www.google.com/maps/place/Mohajarin+Masjid/data=!4m7!3m6!1s0x3bb8fbda55055555:0xd0f88c162cdddbf8!8m2!3d15.4336364!4d75.6122159!16s%2Fg%2F11kj3f7tgz!19sChIJVVUFVdr7uDsR-NvdLBaM-NA?authuser=0&hl=en&rclk=1,"15.4336364,75.6122159"
Masjid,Mosque,"CJFW+PQX Masjid, Unnamed Road, Panchakshari Nagar, Gadag-Betageri, Gadag-Betigeri, Karnataka 582102",Panchakshari Nagar,"CJFW+PQX, Unnamed Road","Gadag-Betageri, Gadag-Betigeri",582102,Karnataka,IN,https://www.google.com/maps/place/Masjid/data=!4m7!3m6!1s0x3bb8f98de80b5ed7:0x49c6578738b0a747!8m2!3d15.4243555!4d75.6469934!16s%2Fg%2F11ftjtsrwx!19sChIJ114L6I35uDsRR6ewOIdXxkk?authuser=0&hl=en&rclk=1,"15.424355499999999,75.6469934"
Huda Masjid,Mosque,"CMP4+595 Huda Masjid, Vidya Nagar, Kalasapur, Gadag-Betageri, Gadag-Betigeri, Karnataka 582102","Vidya Nagar, Kalasapur",CMP4+595,"Gadag-Betageri, Gadag-Betigeri",582102,Karnataka,IN,https://www.google.com/maps/place/Huda+Masjid/data=!4m7!3m6!1s0x3bb8f91a76955555:0xcd0323282b40b6a8!8m2!3d15.4353963!4d75.6559933!16s%2Fg%2F11tgg7jrlx!19sChIJVVWVdhr5uDsRqLZAKygjA80?authuser=0&hl=en&rclk=1,"15.435396299999999,75.65599329999999"
Masjid Umar Ibne Khattab,Mosque,"CJFF+768 Masjid Umar Ibne Khattab, Sarvodaya Society, Gadag-Betigeri, Karnataka 582103",Sarvodaya Society,CJFF+768,Gadag-Betigeri,582103,Karnataka,IN,https://www.google.com/maps/place/Masjid+Umar+Ibne+Khattab/data=!4m7!3m6!1s0x3bb8f99423631fa9:0xbb812ef971ecff90!8m2!3d15.4231893!4d75.6230029!16s%2Fg%2F11jzs4c45x!19sChIJqR9jI5T5uDsRkP_scfkugbs?authuser=0&hl=en&rclk=1,"15.423189299999999,75.6230029"
Al-Falah Masjid,Mosque,"CMG3+8XQ Al-Falah Masjid, Rajeev Gandhi Nagar, Panchakshari Nagar, Gadag-Betageri, Gadag-Betigeri, Karnataka 582102","Rajeev Gandhi Nagar, Panchakshari Nagar",CMG3+8XQ,"Gadag-Betageri, Gadag-Betigeri",582102,Karnataka,IN,https://www.google.com/maps/place/Al-Falah+Masjid/data=!4m7!3m6!1s0x3bb8f93d3a715555:0x61fc4ccaeb058d32!8m2!3d15.4258388!4d75.6549706!16s%2Fg%2F11txmz34pl!19sChIJVVVxOj35uDsRMo0F68pM_GE?authuser=0&hl=en&rclk=1,"15.4258388,75.6549706"
Masjid Imamhussain,Mosque,"Masjid Imamhussain, Imam Hussain colony Colony, 1st Cross Rd, Hudco Colony, Gadag-Betigeri, Karnataka 582101",Hudco Colony,"Imam Hussain colony Colony, 1st Cross Rd",Gadag-Betigeri,582101,Karnataka,IN,https://www.google.com/maps/place/Masjid+Imamhussain/data=!4m7!3m6!1s0x3bb8fbbabe433e25:0x2adc5ec59bfb41c1!8m2!3d15.409208!4d75.620482!16s%2Fg%2F11v3z28v5m!19sChIJJT5Dvrr7uDsRwUH7m8Ve3Co?authuser=0&hl=en&rclk=1,"15.409208,75.620482"
ZindeShah Wali MasjiMasjid,Mosque,"CJQR+WF5 ZindeShah Wali MasjiMasjid, Hirehandilog, Gadag-Betigeri, Karnataka 582101",Hirehandilog,CJQR+WF5,Gadag-Betigeri,582101,Karnataka,IN,https://www.google.com/maps/place/ZindeShah+Wali+MasjiMasjid/data=!4m7!3m6!1s0x3bb8f9dd085a4ae9:0x9e178ff8aa6dcdea!8m2!3d15.4397667!4d75.6412353!16s%2Fg%2F11ks03c04d!19sChIJ6UpaCN35uDsR6s1tqviPF54?authuser=0&hl=en&rclk=1,"15.4397667,75.64123529999999"
Mohammadiya masjid KSRTC COLONY,Mosque,"9JWF+RGJ Mohammadiya masjid KSRTC COLONY, KSRTC Colony, Gadag-Betageri, Pandurangapur, Karnataka 582103",KSRTC Colony,9JWF+RGJ,"Gadag-Betageri, Pandurangapur",582103,Karnataka,IN,https://www.google.com/maps/place/Mohammadiya+masjid+KSRTC+COLONY/data=!4m7!3m6!1s0x3bb8ffe752e0a4bb:0x515ac55f9ef713fd!8m2!3d15.3970956!4d75.6237553!16s%2Fg%2F11rsg5vkt9!19sChIJu6TgUuf_uDsR_RP3nl_FWlE?authuser=0&hl=en&rclk=1,"15.3970956,75.6237553"
Noorani masjid,Mosque,"CJQP+6CV Noorani masjid, Gandhinagar, Hirehandilog, Kushtagi, Gadag-Betigeri, Karnataka 582101","Gandhinagar, Hirehandilog",CJQP+6CV,"Kushtagi, Gadag-Betigeri",,Karnataka,IN,https://www.google.com/maps/place/Noorani+masjid/data=!4m7!3m6!1s0x3bb8f9e0ef531bf7:0xd23c543a40353c2e!8m2!3d15.4381198!4d75.6360512!16s%2Fg%2F11fjygyhyr!19sChIJ9xtT7-D5uDsRLjw1QDpUPNI?authuser=0&hl=en&rclk=1,"15.438119799999999,75.6360512"
Idgah,Mosque,"CJ9H+8J4 Idgah, National Highway 63, Sidha Maheshwar Nagar, Gadag-Betageri, Gadag-Betigeri, Karnataka 582103",Sidha Maheshwar Nagar,"CJ9H+8J4, National Highway 63","Gadag-Betageri, Gadag-Betigeri",582103,Karnataka,IN,https://www.google.com/maps/place/Idgah/data=!4m7!3m6!1s0x3bb8f95ba5c00001:0xf5af61931a492a6a!8m2!3d15.4182678!4d75.6290829!16s%2Fg%2F11tgg7q6jq!19sChIJAQDApVv5uDsRaipJGpNhr_U?authuser=0&hl=en&rclk=1,"15.418267799999999,75.6290829"
Kousar Masjid,Mosque,"CJ87+2XC Kousar Masjid, Binkadkatti, Gadag-Betigeri, Karnataka 582103",,CJ87+2XC,"Binkadkatti, Gadag-Betigeri",582103,Karnataka,IN,https://www.google.com/maps/place/Kousar+Masjid/data=!4m7!3m6!1s0x3bb8fbfc1ff8d151:0xb78ff2fd17af26b9!8m2!3d15.4150517!4d75.6149034!16s%2Fg%2F11q3tg1wmj!19sChIJUdH4H_z7uDsRuSavF_3yj7c?authuser=0&hl=en&rclk=1,"15.4150517,75.6149034"
Masjidul Qayyum,Mosque,"CJJQ+X6J Masjidul Qayyum, Vidya Nagar, Kalasapur, Gadag-Betageri, Gadag-Betigeri, Karnataka 582101","Vidya Nagar, Kalasapur",CJJQ+X6J,"Gadag-Betageri, Gadag-Betigeri",582101,Karnataka,IN,https://www.google.com/maps/place/Masjidul+Qayyum/data=!4m7!3m6!1s0x3bb8f96eab1061a5:0xcb805bc1b218abe2!8m2!3d15.4324651!4d75.6380187!16s%2Fg%2F11g8bw0pf2!19sChIJpWEQq275uDsR4qsYssFbgMs?authuser=0&hl=en&rclk=1,"15.4324651,75.6380187"
Shahi Idgah,Mosque,"CJFC+5X8 Shahi Idgah, National Highway 63, Near Mulgund Naka, Sarvodaya Society, Gadag-Betageri, Gadag-Betigeri, Karnataka 582103",Sarvodaya Society,"CJFC+5X8, National Highway 63, Near Mulgund Naka","Gadag-Betageri, Gadag-Betigeri",582103,Karnataka,IN,https://www.google.com/maps/place/Shahi+Idgah/data=!4m7!3m6!1s0x3bb8f95fa1aaaaab:0xba3013c2bd35d704!8m2!3d15.4229223!4d75.6224454!16s%2Fg%2F11txmzn33n!19sChIJq6qqoV_5uDsRBNc1vcITMLo?authuser=0&hl=en&rclk=1,"15.4229223,75.62244539999999"
Ziya mention (Iqbal Belgaum),Mosque,"CJ3C+383 Ziya mention (Iqbal Belgaum), Hudco Colony, Gadag-Betageri, Gadag-Betigeri, Karnataka 582103",Hudco Colony,CJ3C+383,"Gadag-Betageri, Gadag-Betigeri",,Karnataka,IN,https://www.google.com/maps/place/Ziya+mention+%28Iqbal+Belgaum%29/data=!4m7!3m6!1s0x3bb8ff1698492d71:0x1c8baa30a51e895e!8m2!3d15.4026326!4d75.6208088!16s%2Fg%2F11v18dd9fh!19sChIJcS1JmBb_uDsRXokepTCqixw?authuser=0&hl=en&rclk=1,"15.402632599999999,75.62080879999999"
Jiya Iqbal Belgaum,Mosque,"CMJ5+R65 Jiya Iqbal Belgaum, Hatalgeri Rd, Vidya Nagar, Kalasapur, Gadag-Betageri, Gadag-Betigeri, Karnataka 582102","Vidya Nagar, Kalasapur","CMJ5+R65, Hatalgeri Rd","Gadag-Betageri, Gadag-Betigeri",582102,Karnataka,IN,https://www.google.com/maps/place/Jiya+Iqbal+Belgaum/data=!4m7!3m6!1s0x3bb8f9f3b28c90bd:0xa54d01384ccf4225!8m2!3d15.4320193!4d75.6581758!16s%2Fg%2F11v18ccm2s!19sChIJvZCMsvP5uDsRJULPTDgBTaU?authuser=0&hl=en&rclk=1,"15.432019299999999,75.6581758"
masjid e aaisha,School,"CJWP+P28 masjid e aaisha, Krishna Nagar, Gadag-Betigeri, Karnataka 582101",Krishna Nagar,CJWP+P28,Gadag-Betigeri,582101,Karnataka,IN,https://www.google.com/maps/place/masjid+e+aaisha/data=!4m7!3m6!1s0x3bb8f9c7f98dbd9b:0xe0a7950f097fbb46!8m2!3d15.4467857!4d75.6350728!16s%2Fg%2F11t6_qqsch!19sChIJm72N-cf5uDsRRrt_CQ-Vp-A?authuser=0&hl=en&rclk=1,"15.4467857,75.6350728"
Abu bakr Sadiq masjid,Indian Muslim restaurant,"FJ2X+3M8 Abu bakr Sadiq masjid, Manjunath Nagar, Gadag-Betigeri, Karnataka 582102",Manjunath Nagar,FJ2X+3M8,Gadag-Betigeri,582102,Karnataka,IN,https://www.google.com/maps/place/Abu+bakr+Sadiq+masjid/data=!4m7!3m6!1s0x3bb8f96f081ed0d3:0xc1bb3226aef7db69!8m2!3d15.4501534!4d75.6491957!16s%2Fg%2F11kq2dyvfs!19sChIJ09AeCG_5uDsRadv3riYyu8E?authuser=0&hl=en&rclk=1,"15.4501534,75.64919569999999"
Jamia masjid opposite,Coffee shop,"CJGG+QQC Jamia masjid opposite, Old Saraff Bazar, Tanga Koot, Gadag-Betageri, Gadag-Betigeri, Karnataka 582101","Old Saraff Bazar, Tanga Koot",CJGG+QQC,"Gadag-Betageri, Gadag-Betigeri",582101,Karnataka,IN,https://www.google.com/maps/place/Jamia+masjid+opposite/data=!4m7!3m6!1s0x3bb8f9e0a8c2767d:0x24bb9f849d13adc5!8m2!3d15.4269358!4d75.6269039!16s%2Fg%2F11s974w94d!19sChIJfXbCqOD5uDsRxa0TnYSfuyQ?authuser=0&hl=en&rclk=1,"15.426935799999999,75.6269039"
