name,main_category,address,address_ward,address_street,address_city,address_postal_code,address_state,address_country_code,link,coordinates
Thazhepalam Mosque,Mosque,"WW79+JGV Thazhepalam Mosque, Tirur-Thrikandiyoor Rd, Thazhepalam, Tirur, Kerala 676101",Thazhepalam,"WW79+JGV, Tirur-Thrikandiyoor Rd",Tirur,676101,Kerala,IN,https://www.google.com/maps/place/Thazhepalam+Mosque/data=!4m7!3m6!1s0x3ba7b1f24a8f2c47:0x4fa3749b5050946e!8m2!3d10.9141055!4d75.918797!16s%2Fg%2F11bzz01kjs!19sChIJRyyPSvKxpzsRbpRQUJt0o08?authuser=0&hl=en&rclk=1,"10.9141055,75.918797"
Vaniyannur Juma Masjid,Mosque,"WWGX+CRM Vaniyannur Juma Masjid, Tirur, Kerala 676103",,WWGX+CRM,Tirur,676103,Kerala,IN,https://www.google.com/maps/place/Vaniyannur+Juma+Masjid/data=!4m7!3m6!1s0x3ba7b3d5a8b08e93:0x1bb2ce2ff9a91674!8m2!3d10.9260754!4d75.9495485!16s%2Fg%2F1th2278g!19sChIJk46wqNWzpzsRdBap-S_Oshs?authuser=0&hl=en&rclk=1,"10.9260754,75.94954849999999"
Pariyapuram Juma Masjid,Mosque,"VWR4+8J3 Pariyapuram Juma Masjid, BP Angadi Mangattiri Vettom Rd, Tirur, Kerala 676105",,"VWR4+8J3, BP Angadi Mangattiri Vettom Rd",Tirur,676105,Kerala,IN,https://www.google.com/maps/place/Pariyapuram+Juma+Masjid/data=!4m7!3m6!1s0x3ba7b1da3b05e775:0x8735e4f94f2d848b!8m2!3d10.8907681!4d75.9065601!16s%2Fg%2F124ycrfql!19sChIJdecFO9qxpzsRi4QtT_nkNYc?authuser=0&hl=en&rclk=1,"10.890768099999999,75.9065601"
Korangath Juma Masjid,Mosque,"WW7G+8CX Korangath Juma Masjid, Muthoor, Tirur, Kerala 676101",Muthoor,WW7G+8CX,Tirur,676101,Kerala,IN,https://www.google.com/maps/place/Korangath+Juma+Masjid/data=!4m7!3m6!1s0x3ba7b18da05c4f61:0x7492c1ef3a84f5da!8m2!3d10.9133621!4d75.926106!16s%2Fg%2F11cjg6p0gl!19sChIJYU9coI2xpzsR2vWEOu_BknQ?authuser=0&hl=en&rclk=1,"10.913362099999999,75.92610599999999"
Pathampad Juma Masjid,Mosque,"WWP2+2W8 Pathampad Juma Masjid, Thanur Kalad - Moochickel Rd, Pothampad, Tirur, Kerala 676109",Pothampad,"WWP2+2W8, Thanur Kalad - Moochickel Rd",Tirur,676109,Kerala,IN,https://www.google.com/maps/place/Pathampad+Juma+Masjid/data=!4m7!3m6!1s0x3ba7b208512b1109:0xe4bf4bcc117229c7!8m2!3d10.9350373!4d75.9023362!16s%2Fg%2F1hm59kgxd!19sChIJCRErUQiypzsRxylyEcxLv-Q?authuser=0&hl=en&rclk=1,"10.9350373,75.9023362"
Tirur Town Juma Masjid,Mosque,"WW8F+346 Tirur Town Juma Masjid, Chembra, Tirur, Kerala 676101",Chembra,WW8F+346,Tirur,676101,Kerala,IN,https://www.google.com/maps/place/Tirur+Town+Juma+Masjid/data=!4m7!3m6!1s0x3ba7b1f332051d2f:0xa09f1fe13c207d01!8m2!3d10.9151642!4d75.9227693!16s%2Fg%2F1tgp8q5w!19sChIJLx0FMvOxpzsRAX0gPOEfn6A?authuser=0&hl=en&rclk=1,"10.9151642,75.9227693"
Kanjira Kutti Masjid,Mosque,"VVRV+7GV Kanjira Kutti Masjid, Tippu Sulthan Rd, Paravanna, Tirur, Kerala 676105",Paravanna,"VVRV+7GV, Tippu Sulthan Rd",Tirur,676105,Kerala,IN,https://www.google.com/maps/place/Kanjira+Kutti+Masjid/data=!4m7!3m6!1s0x3ba7ae25d418969f:0xb2bd35ad8dc4583f!8m2!3d10.8907384!4d75.8937827!16s%2Fg%2F1pv1smck1!19sChIJn5YY1CWupzsRP1jEja01vbI?authuser=0&hl=en&rclk=1,"10.8907384,75.8937827"
MASJID AL HIKMA - Wisdom Salafi Masjid,Mosque,"MASJID AL HIKMA - Wisdom Salafi Masjid, Thazhepalam, Tirur, Kerala 676101",Thazhepalam,,Tirur,676101,Kerala,IN,https://www.google.com/maps/place/MASJID+AL+HIKMA+-+Wisdom+Salafi+Masjid/data=!4m7!3m6!1s0x3ba7b1f4072da86b:0x7ff51b3bd735909!8m2!3d10.9166294!4d75.9172737!16s%2Fg%2F11b7cn6s3w!19sChIJa6gtB_SxpzsRCVlzvbNR_wc?authuser=0&hl=en&rclk=1,"10.9166294,75.9172737"
Peruvazhiyambalam Masjid,Mosque,"WWH5+MQ6 Peruvazhiyambalam Masjid, Tirur, Kerala 676109",,WWH5+MQ6,Tirur,,Kerala,IN,https://www.google.com/maps/place/Peruvazhiyambalam+Masjid/data=!4m7!3m6!1s0x3ba7b204eca2fb41:0x38de9982414f6094!8m2!3d10.9291538!4d75.9094059!16s%2Fg%2F11gxs9pj3y!19sChIJQfui7ASypzsRlGBPQYKZ3jg?authuser=0&hl=en&rclk=1,"10.9291538,75.9094059"
Chembra Juma Masjid,Mosque,"WW8H+XHR Chembra Juma Masjid, Tirur, Kerala 676101",,WW8H+XHR,Tirur,676101,Kerala,IN,https://www.google.com/maps/place/Chembra+Juma+Masjid/data=!4m7!3m6!1s0x3ba7b216990b47df:0x550f802a9c53a7c2!8m2!3d10.9174813!4d75.9289046!16s%2Fg%2F11c0rnhrxv!19sChIJ30cLmRaypzsRwqdTnCqAD1U?authuser=0&hl=en&rclk=1,"10.9174813,75.9289046"
Areekkad Juma Masjid,Mosque,"WWWJ+37X Areekkad Juma Masjid, Tirur, Kerala 676103",,WWWJ+37X,Tirur,676103,Kerala,IN,https://www.google.com/maps/place/Areekkad+Juma+Masjid/data=!4m7!3m6!1s0x3ba7b24762027b8d:0x5dd2c2405fd02499!8m2!3d10.9452331!4d75.9307425!16s%2Fg%2F1v44cdck!19sChIJjXsCYkeypzsRmSTQX0DC0l0?authuser=0&hl=en&rclk=1,"10.9452331,75.9307425"
"Masjidul Huda, Pachattiri",Mosque,"WW42+HHH Masjidul Huda, Pachattiri, Tirur, Kerala 676105",,WW42+HHH,Tirur,676105,Kerala,IN,"https://www.google.com/maps/place/Masjidul+Huda,+Pachattiri/data=!4m7!3m6!1s0x3ba7b1e23fa70a33:0xcdbf3133447d9ee0!8m2!3d10.906444!4d75.901494!16s%2Fg%2F1pv0wy_zf!19sChIJMwqnP-KxpzsR4J59RDMxv80?authuser=0&hl=en&rclk=1","10.906443999999999,75.901494"
Korangath Valiya Juma Masjid,Mosque,"WVMR+8C5 Korangath Valiya Juma Masjid, Tirur, Kerala 676109",,WVMR+8C5,Tirur,676109,Kerala,IN,https://www.google.com/maps/place/Korangath+Valiya+Juma+Masjid/data=!4m7!3m6!1s0x3ba7adf0621bde7b:0x6566a28f3d86041a!8m2!3d10.9332673!4d75.8910963!16s%2Fg%2F12hs17ytg!19sChIJe94bYvCtpzsRGgSGPY-iZmU?authuser=0&hl=en&rclk=1,"10.933267299999999,75.8910963"
Kattachira Juma Masjid,Mosque,"VWWQ+3WC Kattachira Juma Masjid, Talakkad, Kerala 676102",,VWWQ+3WC,Talakkad,676102,Kerala,IN,https://www.google.com/maps/place/Kattachira+Juma+Masjid/data=!4m7!3m6!1s0x3ba7b1a4100950e3:0xcd3b93901aff9fc7!8m2!3d10.8951986!4d75.9397715!16s%2Fg%2F11dz0cy6p5!19sChIJ41AJEKSxpzsRx5__GpCTO80?authuser=0&hl=en&rclk=1,"10.895198599999999,75.93977149999999"
VALLIKKANHIRAM JUMA MASJID,Mosque,"WW82+8F VALLIKKANHIRAM JUMA MASJID, MES, Unniyal Rd, Tirur, Kerala 676109",,"WW82+8F MES, Unniyal Rd",Tirur,676109,Kerala,IN,https://www.google.com/maps/place/VALLIKKANHIRAM+JUMA+MASJID/data=!4m7!3m6!1s0x3ba7b1ecff374211:0x25e7db772507a941!8m2!3d10.9175546!4d75.9015524!16s%2Fg%2F11fx7lbs86!19sChIJEUI3_-yxpzsRQakHJXfb5yU?authuser=0&hl=en&rclk=1,"10.917554599999999,75.9015524"
Thiruthummal Masjid,Mosque,"WX74+857 Thiruthummal Masjid, Tirur, Kerala 676103",,WX74+857,Tirur,676103,Kerala,IN,https://www.google.com/maps/place/Thiruthummal+Masjid/data=!4m7!3m6!1s0x3ba7b17a82186fd1:0xa70da2937e3a9539!8m2!3d10.9132926!4d75.955423!16s%2Fg%2F11dyx7kbdq!19sChIJ0W8YgnqxpzsROZU6fpOiDac?authuser=0&hl=en&rclk=1,"10.9132926,75.955423"
Kottekad Ju'ma masjid,Mosque,"WW24+39F Kottekad Ju'ma masjid, Pachattiri, Kerala 676105",,WW24+39F,Pachattiri,676105,Kerala,IN,https://www.google.com/maps/place/Kottekad+Ju%27ma+masjid/data=!4m7!3m6!1s0x3ba7b1e74d8244af:0xe44955ede28d34d2!8m2!3d10.9001917!4d75.905914!16s%2Fg%2F11bysjsxcc!19sChIJr0SCTeexpzsR0jSN4u1VSeQ?authuser=0&hl=en&rclk=1,"10.900191699999999,75.905914"
Parekulam Masjid(salafi Masjid),Mosque,"WWFJ+M76 Parekulam Masjid(salafi Masjid), Tirur-Iringavoor Rd, Payyanangadi, Tirur, Kerala 676101",Payyanangadi,"WWFJ+M76, Tirur-Iringavoor Rd",Tirur,676101,Kerala,IN,https://www.google.com/maps/place/Parekulam+Masjid%28salafi+Masjid%29/data=!4m7!3m6!1s0x3ba7b2276bc88887:0xdc2c831aed681c4!8m2!3d10.9241705!4d75.9306511!16s%2Fg%2F1tdzpkm2!19sChIJh4jIayeypzsRxIHWrjHIwg0?authuser=0&hl=en&rclk=1,"10.924170499999999,75.93065109999999"
Thalakkadathur Salafi Mosque,Mosque,"WWPP+GG8 Thalakkadathur Salafi Mosque, SH 71, Parapputhadam, Thalakkadathur, Tirur, Kerala 676103","Parapputhadam, Thalakkadathur","WWPP+GG8, SH 71",Tirur,676103,Kerala,IN,https://www.google.com/maps/place/Thalakkadathur+Salafi+Mosque/data=!4m7!3m6!1s0x3ba7b23042e4baeb:0x5ddb2e2646bbae51!8m2!3d10.9362781!4d75.9363413!16s%2Fg%2F1vd74bkw!19sChIJ67rkQjCypzsRUa67RiYu210?authuser=0&hl=en&rclk=1,"10.9362781,75.9363413"
"Vallikanjiram Masjid, Sharhussudoor Campus",Mosque,"WV8X+H8H Vallikanjiram Masjid, Sharhussudoor Campus, Tirur, Kerala 676109",,WV8X+H8H,Tirur,676109,Kerala,IN,"https://www.google.com/maps/place/Vallikanjiram+Masjid,+Sharhussudoor+Campus/data=!4m7!3m6!1s0x3ba7ae018cbbdb0b:0x78ac8421525ffd05!8m2!3d10.9164439!4d75.8983515!16s%2Fg%2F11dz3rv2c2!19sChIJC9u7jAGupzsRBf1fUiGErHg?authuser=0&hl=en&rclk=1","10.916443899999999,75.89835149999999"
Masjid Bilal Thekkekalam,Mosque,"WWM7+QP2 Masjid Bilal Thekkekalam, Tirur, Kerala 676107",,WWM7+QP2,Tirur,676107,Kerala,IN,https://www.google.com/maps/place/Masjid+Bilal+Thekkekalam/data=!4m7!3m6!1s0x3ba7b2106189fe1b:0xbc3b88a8919f3421!8m2!3d10.9343879!4d75.9142697!16s%2Fg%2F11dxdx0smy!19sChIJG_6JYRCypzsRITSfkaiIO7w?authuser=0&hl=en&rclk=1,"10.934387899999999,75.91426969999999"
Alinchuvad Juma Masjid,Mosque,"WWW2+236 Alinchuvad Juma Masjid, Tirur, Kerala 676307",,WWW2+236,Tirur,676307,Kerala,IN,https://www.google.com/maps/place/Alinchuvad+Juma+Masjid/data=!4m7!3m6!1s0x3ba7b2755e18fd59:0xc86b8b842e6b08e!8m2!3d10.9450376!4d75.9001509!16s%2Fg%2F11f39s9hvn!19sChIJWf0YXnWypzsRjrDmQri4hgw?authuser=0&hl=en&rclk=1,"10.9450376,75.9001509"
Paravanna Juma Masjid,Mosque,"Paravanna Juma Masjid, juma masjid, Paravanna, Tirur, Kerala 676502",Paravanna,juma masjid,Tirur,676502,Kerala,IN,https://www.google.com/maps/place/Paravanna+Juma+Masjid/data=!4m7!3m6!1s0x3ba7ae19086598fb:0xaa9dc4cbe2dccb3d!8m2!3d10.9026987!4d75.8912963!16s%2Fg%2F1td6dxn_!19sChIJ-5hlCBmupzsRPcvc4svEnao?authuser=0&hl=en&rclk=1,"10.9026987,75.8912963"
Kott Salafi Masjid,Mosque,"Kott Salafi Masjid, Payyanangadi, Tirur, Kerala 676101",Payyanangadi,,Tirur,676101,Kerala,IN,https://www.google.com/maps/place/Kott+Salafi+Masjid/data=!4m7!3m6!1s0x3ba7b227dad05785:0xb785330b1a2c3051!8m2!3d10.9251569!4d75.9340222!16s%2Fg%2F11f55pqwhl!19sChIJhVfQ2ieypzsRUTAsGgszhbc?authuser=0&hl=en&rclk=1,"10.9251569,75.9340222"
Chembra Manathott Masjid,Mosque,"WWQG+RP4 Chembra Manathott Masjid, Tirur, Kerala 676107",,WWQG+RP4,Tirur,,Kerala,IN,https://www.google.com/maps/place/Chembra+Manathott+Masjid/data=!4m7!3m6!1s0x3ba7b23e9d14e3eb:0x2bed1e9937f2012d!8m2!3d10.9395195!4d75.9268302!16s%2Fg%2F11hbgjcljb!19sChIJ6-MUnT6ypzsRLQHyN5ke7Ss?authuser=0&hl=en&rclk=1,"10.9395195,75.9268302"
Ettirikadav Juma Masjid,Mosque,"WW56+5W6 Ettirikadav Juma Masjid, Tirur, Kerala 676101",,WW56+5W6,Tirur,676101,Kerala,IN,https://www.google.com/maps/place/Ettirikadav+Juma+Masjid/data=!4m7!3m6!1s0x3ba7b1ef7066d1d3:0x678c51da9f74b1fd!8m2!3d10.9079053!4d75.9122775!16s%2Fg%2F11dxd4j5z5!19sChIJ09FmcO-xpzsR_bF0n9pRjGc?authuser=0&hl=en&rclk=1,"10.9079053,75.9122775"
Chembra Sunni Masjid cempr sunni msjid,Mosque,"WWPC+R9F Chembra Sunni Masjid cempr sunni msjid, Tirur, Kerala 676107",,WWPC+R9F,Tirur,,Kerala,IN,https://www.google.com/maps/place/Chembra+Sunni+Masjid+%E0%B4%9A%E0%B5%86%E0%B4%AE%E0%B5%8D%E0%B4%AA%E0%B5%8D%E0%B4%B0+%E0%B4%B8%E0%B5%81%E0%B4%A8%E0%B5%8D%E0%B4%A8%E0%B4%BF+%E0%B4%AE%E0%B4%B8%E0%B5%8D%E0%B4%9C%E0%B4%BF%E0%B4%A6%E0%B5%8D/data=!4m7!3m6!1s0x3ba7b3f859d16b3b:0x95893e30711918ac!8m2!3d10.9370704!4d75.9209286!16s%2Fg%2F11grpw9c6w!19sChIJO2vRWfizpzsRrBgZcTA-iZU?authuser=0&hl=en&rclk=1,"10.9370704,75.9209286"
Sunni Masjid Rahmath Nagar,Mosque,"WWGW+RH6 Sunni Masjid Rahmath Nagar, Cholappuram, Tirur, Kerala 676103",Cholappuram,WWGW+RH6,Tirur,676103,Kerala,IN,https://www.google.com/maps/place/Sunni+Masjid+Rahmath+Nagar/data=!4m7!3m6!1s0x3ba7b3d4d3254d69:0xbc67b5a9ad7849a0!8m2!3d10.9270434!4d75.9463758!16s%2Fg%2F11c1v8rhj5!19sChIJaU0l09SzpzsRoEl4ram1Z7w?authuser=0&hl=en&rclk=1,"10.927043399999999,75.9463758"
North Annara Masjid,Mosque,"North Annara Masjid, Tirur, Kerala 676101",,,Tirur,676101,Kerala,IN,https://www.google.com/maps/place/North+Annara+Masjid/data=!4m7!3m6!1s0x3ba7b1facf659dc3:0xae9275ec60f9ddba!8m2!3d10.9147386!4d75.9096343!16s%2Fg%2F11c5wlnbv8!19sChIJw51lz_qxpzsRut35YOx1kq4?authuser=0&hl=en&rclk=1,"10.9147386,75.9096343"
Noorul Islam Masjid & Madrasa,Mosque,"WW4J+4XG Noorul Islam Masjid & Madrasa, Tirur, Kerala 676101",,WW4J+4XG,Tirur,,Kerala,IN,https://www.google.com/maps/place/Noorul+Islam+Masjid+%26+Madrasa/data=!4m7!3m6!1s0x3ba7b1fa1854be15:0xefd2f5ad403a760a!8m2!3d10.9053197!4d75.9324438!16s%2Fg%2F11h1q8_dn8!19sChIJFb5UGPqxpzsRCnY6QK310u8?authuser=0&hl=en&rclk=1,"10.9053197,75.9324438"
"Masjiduthouheed,murivazhikkal msjid t+hiid, prrvnnnn murrivlllikk salafi masjid",Mosque,"Masjiduthouheed,murivazhikkal msjid t+hiid, prrvnnnn murrivlllikk salafi masjid, Tirur - Thrikandiyoor Rd, Paravanna, Tirur, Kerala 676502",Paravanna,Tirur - Thrikandiyoor Rd,Tirur,676502,Kerala,IN,"https://www.google.com/maps/place/Masjiduthouheed,murivazhikkal+%E0%B4%AE%E0%B4%B8%E0%B5%8D%E0%B4%9C%E0%B4%BF%E0%B4%A6%E0%B5%8D+%E0%B4%A4%E0%B5%97%E0%B4%B9%E0%B5%80%E0%B4%A6%E0%B5%8D,+%E0%B4%AA%E0%B4%B1%E0%B4%B5%E0%B4%A3%E0%B5%8D%E0%B4%A3+%E0%B4%AE%E0%B5%81%E0%B4%B1%E0%B4%BF%E0%B4%B5%E0%B4%B4%E0%B4%BF%E0%B4%95%E0%B5%8D%E0%B4%95%E0%B5%BD+salafi+masjid/data=!4m7!3m6!1s0x3ba7af5b1b4b8869:0xaabf437fefa29d30!8m2!3d10.905078!4d75.8979223!16s%2Fg%2F11p43z6bdc!19sChIJaYhLG1uvpzsRMJ2i739Dv6o?authuser=0&hl=en&rclk=1","10.905078,75.89792229999999"
Thalaparamb Juma Masjid,Mosque,"WWWM+HV3 Thalaparamb Juma Masjid, Tirur, Kerala 676106",,WWWM+HV3,Tirur,676106,Kerala,IN,https://www.google.com/maps/place/Thalaparamb+Juma+Masjid/data=!4m7!3m6!1s0x3ba7b247e18c8ac1:0x7e1d8d4d49cc90ff!8m2!3d10.9463984!4d75.9346746!16s%2Fg%2F1tcvs8px!19sChIJwYqM4UeypzsR_5DMSU2NHX4?authuser=0&hl=en&rclk=1,"10.9463984,75.9346746"
Masjidul Rahmania,Mosque,"WW9F+FMC Masjidul Rahmania, Tirur, Kerala 676101",,WW9F+FMC,Tirur,676101,Kerala,IN,https://www.google.com/maps/place/Masjidul+Rahmania/data=!4m7!3m6!1s0x3ba7b18b46e4968d:0x355ac5d8778a5f0a!8m2!3d10.9186937!4d75.9241322!16s%2Fg%2F119x16l63!19sChIJjZbkRouxpzsRCl-Kd9jFWjU?authuser=0&hl=en&rclk=1,"10.9186937,75.9241322"
Sunni juma masjid mangad,Mosque,"Sunni juma masjid mangad, Niramaruthur, Tirur, Kerala 676109",Niramaruthur,,Tirur,676109,Kerala,IN,https://www.google.com/maps/place/Sunni+juma+masjid+mangad/data=!4m7!3m6!1s0x3ba7b3ae8c7319cf:0xdb238b44a887ae1c!8m2!3d10.9256022!4d75.9034836!16s%2Fg%2F11ppwbmxy0!19sChIJzxlzjK6zpzsRHK6HqESLI9s?authuser=0&hl=en&rclk=1,"10.9256022,75.9034836"
Kanthalloor Masjid,Mosque,"WWJX+4H2 Kanthalloor Masjid, Tirur, Kerala 676103",,WWJX+4H2,Tirur,676103,Kerala,IN,https://www.google.com/maps/place/Kanthalloor+Masjid/data=!4m7!3m6!1s0x3ba7b3d4810b7f5d:0x72cce1b5173c4f2b!8m2!3d10.9302624!4d75.948895!16s%2Fg%2F11c45t5yfy!19sChIJXX8LgdSzpzsRK088F7XhzHI?authuser=0&hl=en&rclk=1,"10.9302624,75.948895"
Noor Masjid,Mosque,"WWJ3+56P Noor Masjid, Tirur, Kerala 676109",,WWJ3+56P,Tirur,676109,Kerala,IN,https://www.google.com/maps/place/Noor+Masjid/data=!4m7!3m6!1s0x3ba7b206f8d44197:0xfd1e4110410120da!8m2!3d10.9304659!4d75.9030655!16s%2Fg%2F11f1zlb1kg!19sChIJl0HU-AaypzsR2iABQRBBHv0?authuser=0&hl=en&rclk=1,"10.9304659,75.9030655"
Cholakathazham Masjid,Mosque,"Cholakathazham Masjid, Kott Thangal's Road, 676 101, Tirur, Kerala",,"Kott Thangal's Road, 676 101",Tirur,,Kerala,IN,https://www.google.com/maps/place/Cholakathazham+Masjid/data=!4m7!3m6!1s0x3ba7b187905eb9a7:0xca5b54fcfa35c608!8m2!3d10.9228291!4d75.9366182!16s%2Fg%2F11gbxc2l34!19sChIJp7lekIexpzsRCMY1-vxUW8o?authuser=0&hl=en&rclk=1,"10.9228291,75.9366182"
Areekkad AP Masjid,Mosque,"WWWJ+HX4 Areekkad AP Masjid, Tirur, Kerala 676106",,WWWJ+HX4,Tirur,676106,Kerala,IN,https://www.google.com/maps/place/Areekkad+AP+Masjid/data=!4m7!3m6!1s0x3ba7b24799cbec0b:0x7d29d3c7a36574be!8m2!3d10.9463892!4d75.9324615!16s%2Fg%2F11fxf7gz1q!19sChIJC-zLmUeypzsRvnRlo8fTKX0?authuser=0&hl=en&rclk=1,"10.946389199999999,75.9324615"
Masjidussalam Pullur,Mosque,"WX32+VHM Masjidussalam Pullur, Edamarath Parambu Rd, Talakkad, Kerala 676103",,"WX32+VHM, Edamarath Parambu Rd",Talakkad,676103,Kerala,IN,https://www.google.com/maps/place/Masjidussalam+Pullur/data=!4m7!3m6!1s0x3ba7b174738b68d3:0xd08ff4cd7611549f!8m2!3d10.9047004!4d75.9514146!16s%2Fg%2F1pt_qp_f_!19sChIJ02iLc3SxpzsRn1QRds30j9A?authuser=0&hl=en&rclk=1,"10.9047004,75.95141459999999"
Mylamkulam masjid,Mosque,"WXJ3+322 Mylamkulam masjid, Tirur, Kerala 676103",,WXJ3+322,Tirur,676103,Kerala,IN,https://www.google.com/maps/place/Mylamkulam+masjid/data=!4m7!3m6!1s0x3ba7b3d150d0df11:0x3831aca85cfda9ee!8m2!3d10.9301456!4d75.9525274!16s%2Fg%2F11bx5q090l!19sChIJEd_QUNGzpzsR7qn9XKisMTg?authuser=0&hl=en&rclk=1,"10.9301456,75.9525274"
Thekkummuri Juma Masjid,Mosque,"VWXG+2R8 Thekkummuri Juma Masjid, Tirur, Kerala 676105",,VWXG+2R8,Tirur,,Kerala,IN,https://www.google.com/maps/place/Thekkummuri+Juma+Masjid/data=!4m7!3m6!1s0x3ba7b1c385445483:0x70b475013a4fe09c!8m2!3d10.8975287!4d75.9270657!16s%2Fg%2F11g0g651pr!19sChIJg1REhcOxpzsRnOBPOgF1tHA?authuser=0&hl=en&rclk=1,"10.897528699999999,75.9270657"
Masjid Goodshed Road,Mosque,"WW9C+QV2 Masjid Goodshed Road, Goods Shed Rd, Tirur, Kerala 676101",,"WW9C+QV2, Goods Shed Rd",Tirur,676101,Kerala,IN,https://www.google.com/maps/place/Masjid+Goodshed+Road/data=!4m7!3m6!1s0x3ba7b1f4db0eb05d:0x28f3e988e82cae8b!8m2!3d10.9193797!4d75.9221256!16s%2Fg%2F11c1s3kpq9!19sChIJXbAO2_SxpzsRi64s6Ijp8yg?authuser=0&hl=en&rclk=1,"10.9193797,75.9221256"
Masjid,Mosque,"WWV9+HHH Masjid, Tanalur, Kerala 676307",,WWV9+HHH,Tanalur,676307,Kerala,IN,https://www.google.com/maps/place/Masjid/data=!4m7!3m6!1s0x3ba7b214c89e6d5d:0x6272d71759e41155!8m2!3d10.9439477!4d75.9189851!16s%2Fg%2F11c1n4g0q3!19sChIJXW2eyBSypzsRVRHkWRfXcmI?authuser=0&hl=en&rclk=1,"10.943947699999999,75.9189851"
Masjid . Mangal,Mosque,"WWVH+4JF Masjid . Mangal, Tirur, Kerala 676106",,WWVH+4JF,Tirur,676106,Kerala,IN,https://www.google.com/maps/place/Masjid+.+Mangal/data=!4m7!3m6!1s0x3ba7b238d33dbdcb:0xc2873491be85b8a2!8m2!3d10.9428008!4d75.9290618!16s%2Fg%2F11gbl3ss4g!19sChIJy7090ziypzsRoriFvpE0h8I?authuser=0&hl=en&rclk=1,"10.942800799999999,75.9290618"
Palathingal Mosque,Mosque,"WW8W+H8M Palathingal Mosque, Tirur, Kerala 676103",,WW8W+H8M,Tirur,676103,Kerala,IN,https://www.google.com/maps/place/Palathingal+Mosque/data=!4m7!3m6!1s0x3ba7b18271739b5d:0x43551ad4c41b770!8m2!3d10.9164728!4d75.9458055!16s%2Fg%2F11bx4539s7!19sChIJXZtzcYKxpzsRcLdBTK1RNQQ?authuser=0&hl=en&rclk=1,"10.9164728,75.94580549999999"
Badariya Masjid,Mosque,"VWVM+968 Badariya Masjid, Kattachira Rd, Talakkad, Kerala 676102",,"VWVM+968, Kattachira Rd",Talakkad,676102,Kerala,IN,https://www.google.com/maps/place/Badariya+Masjid/data=!4m7!3m6!1s0x3ba7b1a4debf2471:0x574e58450359b6a0!8m2!3d10.8934053!4d75.9330764!16s%2Fg%2F11gb3p7k01!19sChIJcSS_3qSxpzsRoLZZA0VYTlc?authuser=0&hl=en&rclk=1,"10.8934053,75.93307639999999"
Shaduli hall masjid,Mosque,"WWFV+3R8 Shaduli hall masjid, Iringavoor Road, Cholappuram, Vaniyannur, Tirur, Kerala 676103","Cholappuram, Vaniyannur","WWFV+3R8, Iringavoor Road",Tirur,676103,Kerala,IN,https://www.google.com/maps/place/Shaduli+hall+masjid/data=!4m7!3m6!1s0x3ba7b104138c20bb:0x9650f20a553cf473!8m2!3d10.9226738!4d75.944579!16s%2Fg%2F11h7ktk6mz!19sChIJuyCMEwSxpzsRc_Q8VQryUJY?authuser=0&hl=en&rclk=1,"10.9226738,75.94457899999999"
Masjid Al Arif,Mosque,"WWJG+5MP Masjid Al Arif, Myladikunnu Road, Illathapadam, Tirur, Kerala 676107",Illathapadam,"WWJG+5MP, Myladikunnu Road",Tirur,676107,Kerala,IN,https://www.google.com/maps/place/Masjid+Al+Arif/data=!4m7!3m6!1s0x3ba7b3fa328124f1:0x123825bde01ce122!8m2!3d10.9304746!4d75.9267063!16s%2Fg%2F11j8hlxll6!19sChIJ8SSBMvqzpzsRIuEc4L0lOBI?authuser=0&hl=en&rclk=1,"10.9304746,75.92670629999999"
Masjid,Mosque,"WW9C+88F Masjid, Chembra, Tirur, Kerala 676101",Chembra,WW9C+88F,Tirur,676101,Kerala,IN,https://www.google.com/maps/place/Masjid/data=!4m7!3m6!1s0x3ba7b188f67f9093:0x239084191a1fc5a3!8m2!3d10.9183117!4d75.9207986!16s%2Fg%2F11h2fn2l62!19sChIJk5B_9oixpzsRo8UfGhmEkCM?authuser=0&hl=en&rclk=1,"10.9183117,75.9207986"
Badar sunni Masjid,Mosque,"WWM9+X44 Badar sunni Masjid, Kunnath Paramb Rd, Chembra, Tirur, Kerala 676101",Chembra,"WWM9+X44, Kunnath Paramb Rd",Tirur,676101,Kerala,IN,https://www.google.com/maps/place/Badar+sunni+Masjid/data=!4m7!3m6!1s0x3ba7b217487294cf:0x11b442a14d9d1265!8m2!3d10.9348958!4d75.917839!16s%2Fg%2F11hbg8825t!19sChIJz5RySBeypzsRZRKdTaFCtBE?authuser=0&hl=en&rclk=1,"10.9348958,75.917839"
Haji Bazar Masjid,Mosque,"WWFR+7CG Haji Bazar Masjid, Tirur, Kerala 676103",,WWFR+7CG,Tirur,676103,Kerala,IN,https://www.google.com/maps/place/Haji+Bazar+Masjid/data=!4m7!3m6!1s0x3ba7b180af1f8329:0x9c328ee90a94434d!8m2!3d10.923185!4d75.9410748!16s%2Fg%2F11cs0sm1qn!19sChIJKYMfr4CxpzsRTUOUCumOMpw?authuser=0&hl=en&rclk=1,"10.923185,75.9410748"
Masjidu Taqwa,Mosque,"WWR6+963 Masjidu Taqwa, Tirur -Thayyala Rd, Meenadathur, Tirur, Kerala 676107",Meenadathur,"WWR6+963, Tirur -Thayyala Rd",Tirur,676107,Kerala,IN,https://www.google.com/maps/place/Masjidu+Taqwa/data=!4m7!3m6!1s0x3ba7b20d9b6c04a5:0x88cf608c613e2b97!8m2!3d10.9408821!4d75.9105466!16s%2Fg%2F11g8x32c0k!19sChIJpQRsmw2ypzsRlys-YYxgz4g?authuser=0&hl=en&rclk=1,"10.9408821,75.9105466"
Dharusalam Juma masjid,Mosque,"Dharusalam Juma masjid, Tirur, Kerala 676502",,,Tirur,,Kerala,IN,https://www.google.com/maps/place/Dharusalam+Juma+masjid/data=!4m7!3m6!1s0x3ba7ae08758812d7:0x3ab903bc0ec48d0c!8m2!3d10.9195694!4d75.8887656!16s%2Fg%2F11c75m50ph!19sChIJ1xKIdQiupzsRDI3EDrwDuTo?authuser=0&hl=en&rclk=1,"10.9195694,75.8887656"
Muthur Masjid,Mosque,"WW7H+PRG Muthur Masjid, ITC Junction, Bus Stop, Tirur-Tuvvakkad-Puthanathani Rd, Muthoor, Tirur, Kerala 676101",Muthoor,"WW7H+PRG ITC Junction, Bus Stop, Tirur-Tuvvakkad-Puthanathani Rd",Tirur,676101,Kerala,IN,https://www.google.com/maps/place/Muthur+Masjid/data=!4m7!3m6!1s0x3ba7b1902a37d681:0xc7086ab08e411f5b!8m2!3d10.9120581!4d75.9320701!16s%2Fg%2F11ggs86j2n!19sChIJgdY3KpCxpzsRWx9BjrBqCMc?authuser=0&hl=en&rclk=1,"10.9120581,75.93207009999999"
Rahmaniya Masjid,Mosque,"WW9P+HCM Rahmaniya Masjid, Tirur, Kerala 676101",,WW9P+HCM,Tirur,676101,Kerala,IN,https://www.google.com/maps/place/Rahmaniya+Masjid/data=!4m7!3m6!1s0x3ba7b18614ea5d7b:0x7a93fd7989af5d47!8m2!3d10.9189503!4d75.9360555!16s%2Fg%2F11ckg0t126!19sChIJe13qFIaxpzsRR12viXn9k3o?authuser=0&hl=en&rclk=1,"10.918950299999999,75.9360555"
MES Mosque,Mosque,"WW78+W88 MES Mosque, beside MES Central School, Tirur, Kerala 676101",,"WW78+W88, beside MES Central School",Tirur,,Kerala,IN,https://www.google.com/maps/place/MES+Mosque/data=!4m7!3m6!1s0x3ba7b1f10d517b51:0x5f32e32f87e0179c!8m2!3d10.9147751!4d75.9158143!16s%2Fg%2F11f3nm9n6b!19sChIJUXtRDfGxpzsRnBfghy_jMl8?authuser=0&hl=en&rclk=1,"10.9147751,75.9158143"
Thangal's Masjid,Mosque,"WW5X+R44 Thangal's Masjid, north, PULLUR, Talakkad, Kerala 676103",PULLUR,"WW5X+R44, north",Talakkad,676103,Kerala,IN,https://www.google.com/maps/place/Thangal%27s+Masjid/data=!4m7!3m6!1s0x3ba7b1326a7d99bd:0x6e807e5832546a3f!8m2!3d10.9095012!4d75.9478343!16s%2Fg%2F11ghsb42pj!19sChIJvZl9ajKxpzsRP2pUMlh-gG4?authuser=0&hl=en&rclk=1,"10.9095012,75.9478343"
Mankulam Masjid,Mosque,"WWMV+8GX Mankulam Masjid, Cholappuram, Tirur, Kerala 676103",Cholappuram,WWMV+8GX,Tirur,676103,Kerala,IN,https://www.google.com/maps/place/Mankulam+Masjid/data=!4m7!3m6!1s0x3ba7b22d73492e91:0xe0df1a4e9737e0aa!8m2!3d10.9333624!4d75.9438535!16s%2Fg%2F11c1wxyyrh!19sChIJkS5Jcy2ypzsRquA3l04a3-A?authuser=0&hl=en&rclk=1,"10.9333624,75.9438535"
Nechikattil Juma Masjid,Mosque,"WV9V+FRW Nechikattil Juma Masjid, Tirur, Kerala 676502",,WV9V+FRW,Tirur,676502,Kerala,IN,https://www.google.com/maps/place/Nechikattil+Juma+Masjid/data=!4m7!3m6!1s0x3ba7ae00d64a472f:0xe9d2d1c7ba8b58d9!8m2!3d10.9187273!4d75.8945873!16s%2Fg%2F11c6s3n1r0!19sChIJL0dK1gCupzsR2ViLusfR0uk?authuser=0&hl=en&rclk=1,"10.918727299999999,75.8945873"
Parappuram Masjid,Mosque,"WWCR+3Q6 Parappuram Masjid, Tirur, Kerala 676103",,WWCR+3Q6,Tirur,676103,Kerala,IN,https://www.google.com/maps/place/Parappuram+Masjid/data=!4m7!3m6!1s0x3ba7b1813d4aa8d5:0x76b658aff15984ea!8m2!3d10.9201501!4d75.94188!16s%2Fg%2F11gbxfq8n2!19sChIJ1ahKPYGxpzsR6oRZ8a9YtnY?authuser=0&hl=en&rclk=1,"10.920150099999999,75.94188"
Mosque,Mosque,"Mosque, Ezhur, Koothu Parambu Road, Tirur, Kerala 676101",,"Ezhur, Koothu Parambu Road",Tirur,676101,Kerala,IN,https://www.google.com/maps/place/Mosque/data=!4m7!3m6!1s0x3ba7b1991dd4bc57:0xccf5e237cf18326!8m2!3d10.9043688!4d75.9386449!16s%2Fg%2F1vxdwqry!19sChIJV7zUHZmxpzsRJoPxfCNezww?authuser=0&hl=en&rclk=1,"10.9043688,75.9386449"
Masjid Al Falah,Mosque,"WV5P+2HP Masjid Al Falah, Paravanna, Tirur, Kerala 676502",Paravanna,WV5P+2HP,Tirur,676502,Kerala,IN,https://www.google.com/maps/place/Masjid+Al+Falah/data=!4m7!3m6!1s0x3ba7afa7c2b70255:0xcd04e25261457bea!8m2!3d10.9075806!4d75.8864458!16s%2Fg%2F11gwfgmk9b!19sChIJVQK3wqevpzsR6ntFYVLiBM0?authuser=0&hl=en&rclk=1,"10.9075806,75.88644579999999"
Umarul Farooq Masjid,Mosque,"Umarul Farooq Masjid, ITC Junction, Bus Stop, Tirur-Tuvvakkad-Puthanathani Rd, Muthoor, Tirur, Kerala 676101",Muthoor,"ITC Junction, Bus Stop, Tirur-Tuvvakkad-Puthanathani Rd",Tirur,676101,Kerala,IN,https://www.google.com/maps/place/Umarul+Farooq+Masjid/data=!4m7!3m6!1s0x3ba7b1902a39b741:0xe2e5143d37154157!8m2!3d10.9120576!4d75.9320701!16s%2Fg%2F11f54r_vj2!19sChIJQbc5KpCxpzsRV0EVNz0U5eI?authuser=0&hl=en&rclk=1,"10.912057599999999,75.93207009999999"
Panampalam Mosque,Mosque,"WWFQ+XF8 Panampalam Mosque, Tirur, Kerala 676103",,WWFQ+XF8,Tirur,676103,Kerala,IN,https://www.google.com/maps/place/Panampalam+Mosque/data=!4m7!3m6!1s0x3ba7b229bf4a791f:0x88851fe1eaf1179f!8m2!3d10.9249208!4d75.9386892!16s%2Fg%2F11c1qb_8m_!19sChIJH3lKvymypzsRnxfx6uEfhYg?authuser=0&hl=en&rclk=1,"10.924920799999999,75.9386892"
Salafi Masjid,Mosque,"WWFR+7M5 Salafi Masjid, Cholappuram, Parapputhadam, Meeshapadi, Tirur, Kerala 676103","Cholappuram, Parapputhadam, Meeshapadi",WWFR+7M5,Tirur,676103,Kerala,IN,https://www.google.com/maps/place/Salafi+Masjid/data=!4m7!3m6!1s0x3ba7b180a1620fc3:0x93a0aa7653ed7be6!8m2!3d10.9231343!4d75.9417221!16s%2Fg%2F11fxz2wzy6!19sChIJww9ioYCxpzsR5nvtU3aqoJM?authuser=0&hl=en&rclk=1,"10.9231343,75.94172209999999"
Chembra Mahall Jumua Masjid cempr mhll vliy jumuatt plllli,Mosque,"WWQ9+HM4 Chembra Mahall Jumua Masjid cempr mhll vliy jumuatt plllli, Tirur -Thayyala Rd, Tirur, Kerala 676107",,"WWQ9+HM4, Tirur -Thayyala Rd",Tirur,676107,Kerala,IN,https://www.google.com/maps/place/Chembra+Mahall+Jumua+Masjid+%E0%B4%9A%E0%B5%86%E0%B4%AE%E0%B5%8D%E0%B4%AA%E0%B5%8D%E0%B4%B0+%E0%B4%AE%E0%B4%B9%E0%B4%B2%E0%B5%8D%E0%B4%B2%E0%B5%8D+%E0%B4%B5%E0%B4%B2%E0%B4%BF%E0%B4%AF+%E0%B4%9C%E0%B5%81%E0%B4%AE%E0%B5%81%E0%B4%85%E0%B4%A4%E0%B5%8D%E0%B4%A4%E0%B5%8D+%E0%B4%AA%E0%B4%B3%E0%B5%8D%E0%B4%B3%E0%B4%BF/data=!4m7!3m6!1s0x3ba7b338157bad11:0x671f05985652c2e7!8m2!3d10.9388783!4d75.919206!16s%2Fg%2F11h_vcrvzc!19sChIJEa17FTizpzsR58JSVpgFH2c?authuser=0&hl=en&rclk=1,"10.938878299999999,75.919206"
Masjid al Noor,Mosque,"Masjid al Noor, SH 71, Near AM Motors, Kottkkal, Road, Payyanangadi, Tirur, Kerala 676107",Payyanangadi,"SH 71, Near AM Motors, Kottkkal, Road",Tirur,676107,Kerala,IN,https://www.google.com/maps/place/Masjid+al+Noor/data=!4m7!3m6!1s0x3ba7b3d3e89520b5:0xbc74ee722369f462!8m2!3d10.9272348!4d75.9313313!16s%2Fg%2F11h_bh7jxj!19sChIJtSCV6NOzpzsRYvRpI3LudLw?authuser=0&hl=en&rclk=1,"10.927234799999999,75.9313313"
KundanathuKadvu Masjid,Mosque,"WWHF+VRF KundanathuKadvu Masjid, near kundanath kadavu bridge, Illathapadam, Tirur, Kerala 676101",Illathapadam,"WWHF+VRF, near kundanath kadavu bridge",Tirur,676101,Kerala,IN,https://www.google.com/maps/place/KundanathuKadvu+Masjid/data=!4m7!3m6!1s0x3ba7b21878ec262b:0x1bc7a31286c8a995!8m2!3d10.929676!4d75.9245494!16s%2Fg%2F11f_0gnxnw!19sChIJKybseBiypzsRlanIhhKjxxs?authuser=0&hl=en&rclk=1,"10.929675999999999,75.9245494"
Swalah Masjid Shanthinagar,Mosque,"WV5W+F7V Swalah Masjid Shanthinagar, Paravanna, Tirur, Kerala 676502",Paravanna,WV5W+F7V,Tirur,676502,Kerala,IN,https://www.google.com/maps/place/Swalah+Masjid+Shanthinagar/data=!4m7!3m6!1s0x3ba7ae1ceb9d393b:0xc9955e0980e1030c!8m2!3d10.9087481!4d75.8956838!16s%2Fg%2F11dym_6cg_!19sChIJOzmd6xyupzsRDAPhgAlelck?authuser=0&hl=en&rclk=1,"10.9087481,75.8956838"
Bavuthangadi Ameena masjid,Mosque,"VWJ5+CX4 Bavuthangadi Ameena masjid, Tirur, Kerala 676105",,VWJ5+CX4,Tirur,,Kerala,IN,https://www.google.com/maps/place/Bavuthangadi+Ameena+masjid/data=!4m7!3m6!1s0x3ba7b11a326b3a91:0x669ccf6534889602!8m2!3d10.881011!4d75.9099433!16s%2Fg%2F11h1kc4v_0!19sChIJkTprMhqxpzsRApaINGXPnGY?authuser=0&hl=en&rclk=1,"10.881010999999999,75.9099433"
Thevar Kadappuram Juma Masjid,Mosque,"WV9M+FR6 Thevar Kadappuram Juma Masjid, Unniyal, Tirur, Kerala 676502",Unniyal,WV9M+FR6,Tirur,676502,Kerala,IN,https://www.google.com/maps/place/Thevar+Kadappuram+Juma+Masjid/data=!4m7!3m6!1s0x3ba7ae09a5a0c003:0xa3c60e7b6ca82a06!8m2!3d10.9186743!4d75.8845126!16s%2Fg%2F11gffp5077!19sChIJA8CgpQmupzsRBiqobHsOxqM?authuser=0&hl=en&rclk=1,"10.9186743,75.8845126"
Salafi Masjid,Mosque,"WV5R+PR4 Salafi Masjid, Paravanna, Tirur, Kerala 676502",Paravanna,WV5R+PR4,Tirur,676502,Kerala,IN,https://www.google.com/maps/place/Salafi+Masjid/data=!4m7!3m6!1s0x3ba7ae04eb4c7177:0x6194db9fb94bd345!8m2!3d10.9092542!4d75.8920654!16s%2Fg%2F11c7v_rr0v!19sChIJd3FM6wSupzsRRdNLuZ_blGE?authuser=0&hl=en&rclk=1,"10.9092542,75.89206539999999"
Hidayath Juma Masjid,Mosque,"WVRX+FWW Hidayath Juma Masjid, Tirur, Kerala 676307",,WVRX+FWW,Tirur,676307,Kerala,IN,https://www.google.com/maps/place/Hidayath+Juma+Masjid/data=!4m7!3m6!1s0x3ba7adf56294f8f7:0xf73a6ab99fd54a0e!8m2!3d10.9412399!4d75.8998431!16s%2Fg%2F11bw67mrpj!19sChIJ9_iUYvWtpzsRDkrVn7lqOvc?authuser=0&hl=en&rclk=1,"10.9412399,75.8998431"
Masjid Thahreer,Mosque,"WV8V+W89 Masjid Thahreer, Tirur, Kerala 676502",,WV8V+W89,Tirur,,Kerala,IN,https://www.google.com/maps/place/Masjid+Thahreer/data=!4m7!3m6!1s0x3ba7afa45af45ec1:0x4f4b027c65ef87b1!8m2!3d10.9172794!4d75.8933445!16s%2Fg%2F11flgdk5_f!19sChIJwV70WqSvpzsRsYfvZXwCS08?authuser=0&hl=en&rclk=1,"10.9172794,75.8933445"
Masjid - Cheru Moochikkal,Mosque,"WWM5+266 Masjid - Cheru Moochikkal, Tirur, Kerala 676109",,WWM5+266,Tirur,,Kerala,IN,https://www.google.com/maps/place/Masjid+-+Cheru+Moochikkal/data=!4m7!3m6!1s0x3ba7b3b2ea36e6c7:0x4e42df857dc867dc!8m2!3d10.9325455!4d75.9080067!16s%2Fg%2F11gjtxcmk7!19sChIJx-Y26rKzpzsR3GfIfYXfQk4?authuser=0&hl=en&rclk=1,"10.9325455,75.9080067"
Masjid Rafeeqiyya Khaleeliyya Nooriyya,Mosque,"Masjid Rafeeqiyya Khaleeliyya Nooriyya, Masjidul Arif Road, Illathapadam, Tirur, Kerala 676107",Illathapadam,Masjidul Arif Road,Tirur,676107,Kerala,IN,https://www.google.com/maps/place/Masjid+Rafeeqiyya+Khaleeliyya+Nooriyya/data=!4m7!3m6!1s0x3ba7b38b5ad9d0c7:0xfed8752495963d38!8m2!3d10.9304715!4d75.9284634!16s%2Fg%2F11fl2yvb06!19sChIJx9DZWouzpzsROD2WlSR12P4?authuser=0&hl=en&rclk=1,"10.9304715,75.9284634"
Masjidul Manar,Mosque,"WV2R+JP5 Masjidul Manar, Tippu Sulthan Rd, Paravanna, Tirur, Kerala 676502",Paravanna,"WV2R+JP5, Tippu Sulthan Rd",Tirur,676502,Kerala,IN,https://www.google.com/maps/place/Masjidul+Manar/data=!4m7!3m6!1s0x3ba7ae18fb2de13f:0x65bbd12adbc7144b!8m2!3d10.901503!4d75.8918595!16s%2Fg%2F1ptx8lflt!19sChIJP-Et-xiupzsRSxTH2yrRu2U?authuser=0&hl=en&rclk=1,"10.901503,75.8918595"
Masjid Schoolpadi,Mosque,"WWCV+QM9 Masjid Schoolpadi, Cholappuram, Tirur, Kerala 676103",Cholappuram,WWCV+QM9,Tirur,676103,Kerala,IN,https://www.google.com/maps/place/Masjid+Schoolpadi/data=!4m7!3m6!1s0x3ba7b1804494d8a1:0x5581e409bde08c95!8m2!3d10.9219021!4d75.9442488!16s%2Fg%2F11c1v1ytf3!19sChIJodiURICxpzsRlYzgvQnkgVU?authuser=0&hl=en&rclk=1,"10.921902099999999,75.9442488"
Irshadul Swibiyan Masjid,Mosque,"WWMF+GM8 Irshadul Swibiyan Masjid, Tirur, Kerala 676107",,WWMF+GM8,Tirur,,Kerala,IN,https://www.google.com/maps/place/Irshadul+Swibiyan+Masjid/data=!4m7!3m6!1s0x3ba7b23d4b54b725:0x6b185521deeda1f2!8m2!3d10.933795!4d75.9242046!16s%2Fg%2F11h9zhn4yb!19sChIJJbdUSz2ypzsR8qHt3iFVGGs?authuser=0&hl=en&rclk=1,"10.933795,75.9242046"
Mattathur Tower Masjid,Mosque,"WW6M+5VV Mattathur Tower Masjid, Pottachola Avenue, Muthoor, Tirur, Kerala 676101",Muthoor,"WW6M+5VV, Pottachola Avenue",Tirur,676101,Kerala,IN,https://www.google.com/maps/place/Mattathur+Tower+Masjid/data=!4m7!3m6!1s0x3ba7b1991dd48dab:0x2e39d210edb5674!8m2!3d10.910492!4d75.9346569!16s%2Fg%2F1vrq823m!19sChIJq43UHZmxpzsRdFbbDiGd4wI?authuser=0&hl=en&rclk=1,"10.910492,75.9346569"
Juma Masjid,Mosque,"WWGJ+F5H Juma Masjid, Payyanangadi, Tirur, Kerala 676107",Payyanangadi,WWGJ+F5H,Tirur,676107,Kerala,IN,https://www.google.com/maps/place/Juma+Masjid/data=!4m7!3m6!1s0x3ba7b226e72e374f:0xdcb5c533e8ee79!8m2!3d10.9261949!4d75.9304968!16s%2Fg%2F11cs3zm927!19sChIJTzcu5yaypzsRee7oM8W13AA?authuser=0&hl=en&rclk=1,"10.926194899999999,75.9304968"
Illathappadam masjid,Mosque,"WWGG+G6H Illathappadam masjid, Tanaloor Road, Illathapadam, Tirur, Kerala 676107",Illathapadam,"WWGG+G6H, Tanaloor Road",Tirur,676107,Kerala,IN,https://www.google.com/maps/place/Illathappadam+masjid/data=!4m7!3m6!1s0x3ba7b364c0a91a53:0xca0bd229c94345c8!8m2!3d10.9263021!4d75.9255989!16s%2Fg%2F11h2fn4tl_!19sChIJUxqpwGSzpzsRyEVDySnSC8o?authuser=0&hl=en&rclk=1,"10.9263021,75.9255989"
Kanjirakund Sunni Juma masjid,Mosque,"WWHF+VRF Kanjirakund Sunni Juma masjid, Kott, Illathapadam, Tirur, Kerala 676107","Kott, Illathapadam",WWHF+VRF,Tirur,676107,Kerala,IN,https://www.google.com/maps/place/Kanjirakund+Sunni+Juma+masjid/data=!4m7!3m6!1s0x3ba7b3ad7e5d21dd:0xc90fd6a819849358!8m2!3d10.929676!4d75.9245494!16s%2Fg%2F11hdqj_rxd!19sChIJ3SFdfq2zpzsRWJOEGajWD8k?authuser=0&hl=en&rclk=1,"10.929675999999999,75.9245494"
Muhiyuddeen Masjid,Mosque,"WWR6+FPH Muhiyuddeen Masjid, Meenadathur Gate Rd, Meenadathur, Tirur, Kerala 676107",Meenadathur,"WWR6+FPH, Meenadathur Gate Rd",Tirur,676107,Kerala,IN,https://www.google.com/maps/place/Muhiyuddeen+Masjid/data=!4m7!3m6!1s0x3ba7b20dad233d61:0x654b88b0993f99a8!8m2!3d10.9411844!4d75.9118443!16s%2Fg%2F11f4pjh3dx!19sChIJYT0jrQ2ypzsRqJk_mbCIS2U?authuser=0&hl=en&rclk=1,"10.9411844,75.9118443"
Azheekkal Masjid,Mosque,"VVQR+F59 Azheekkal Masjid, Kuttyamu Memmorial Rd, Paravanna, Tirur, Kerala 676105",Paravanna,"VVQR+F59, Kuttyamu Memmorial Rd",Tirur,676105,Kerala,IN,https://www.google.com/maps/place/Azheekkal+Masjid/data=!4m7!3m6!1s0x3ba7ae257b20dddf:0x806c2c40a96ba2fe!8m2!3d10.8886606!4d75.8904831!16s%2Fg%2F1pty72ps9!19sChIJ390geyWupzsR_qJrqUAsbIA?authuser=0&hl=en&rclk=1,"10.8886606,75.8904831"
Thayyil Masjid,Mosque,"WWF5+225 Thayyil Masjid, Vallikanjiram Mangad Rd, Tirur, Kerala 676109",,"WWF5+225, Vallikanjiram Mangad Rd",Tirur,676109,Kerala,IN,https://www.google.com/maps/place/Thayyil+Masjid/data=!4m7!3m6!1s0x3ba7b3ce19a89c15:0x8746ff0614914796!8m2!3d10.9225164!4d75.9076132!16s%2Fg%2F11jj6hvn4y!19sChIJFZyoGc6zpzsRlkeRFAb_Roc?authuser=0&hl=en&rclk=1,"10.9225164,75.9076132"
Masjid ul Badhar,Mosque,"VWVC+726 Masjid ul Badhar, Mangattiri Pookaitha Pullooni Rd, Mangattiri, Tirur, Kerala 676105",Mangattiri,"VWVC+726, Mangattiri Pookaitha Pullooni Rd",Tirur,676105,Kerala,IN,https://www.google.com/maps/place/Masjid+ul+Badhar/data=!4m7!3m6!1s0x3ba7b13de21801b5:0x90edf28b4499a2!8m2!3d10.8927514!4d75.9202782!16s%2Fg%2F11kk3vw2p1!19sChIJtQEY4j2xpzsRoplEi_LtkAA?authuser=0&hl=en&rclk=1,"10.8927514,75.9202782"
Faruk jumma masjid,Mosque,"WV6W+HRC Faruk jumma masjid, Vallikanjiram Rd, Niramaruthur, Tirur, Kerala 676109",Niramaruthur,"WV6W+HRC, Vallikanjiram Rd",Tirur,676109,Kerala,IN,https://www.google.com/maps/place/Faruk+jumma+masjid/data=!4m7!3m6!1s0x3ba7af1b4ac2ccfd:0x560eaf73f35b6834!8m2!3d10.9114346!4d75.8970312!16s%2Fg%2F11v42trrqc!19sChIJ_czCShuvpzsRNGhb83OvDlY?authuser=0&hl=en&rclk=1,"10.9114346,75.8970312"
Masjid,Mosque,"VWWR+R9M Masjid, Talakkad, Kerala 676102",,VWWR+R9M,Talakkad,,Kerala,IN,https://www.google.com/maps/place/Masjid/data=!4m7!3m6!1s0x3ba7b1a15c1072f5:0x33323527e26749ad!8m2!3d10.8970857!4d75.9409285!16s%2Fg%2F11hb3q81gq!19sChIJ9XIQXKGxpzsRrUln4ic1MjM?authuser=0&hl=en&rclk=1,"10.8970857,75.9409285"
Pulikkapparambu Masjid,Mosque,"WW6Q+2HW Pulikkapparambu Masjid, Bappu Road, Tirur, Kerala 676101",,"WW6Q+2HW, Bappu Road",Tirur,676101,Kerala,IN,https://www.google.com/maps/place/Pulikkapparambu+Masjid/data=!4m7!3m6!1s0x3ba7b19b654ab9d5:0xa171df1f07d6f300!8m2!3d10.9101026!4d75.9389675!16s%2Fg%2F11rmvz7ptc!19sChIJ1blKZZuxpzsRAPPWBx_fcaE?authuser=0&hl=en&rclk=1,"10.9101026,75.93896749999999"
Salafi Masjid.,Mosque,"WV6Q+J36 Salafi Masjid., Paravanna, Tirur, Kerala 676502",Paravanna,WV6Q+J36,Tirur,676502,Kerala,IN,https://www.google.com/maps/place/Salafi+Masjid./data=!4m7!3m6!1s0x3ba7ae0f8db04f71:0xca86abded3dff6de!8m2!3d10.9115288!4d75.8876401!16s%2Fg%2F11gfxlqqym!19sChIJcU-wjQ-upzsR3vbf096rhso?authuser=0&hl=en&rclk=1,"10.9115288,75.8876401"
Kanmanam kallupalam sunni juma masjid,Mosque,"WW5Q+CJC Kanmanam kallupalam sunni juma masjid, Parakkal Rd, Tirur, Kerala 676101",,"WW5Q+CJC, Parakkal Rd",Tirur,676101,Kerala,IN,https://www.google.com/maps/place/Kanmanam+kallupalam+sunni+juma+masjid/data=!4m7!3m6!1s0x3ba7b17a176fb3ed:0xacc731256765d87f!8m2!3d10.9085687!4d75.939014!16s%2Fg%2F11h4gpvy89!19sChIJ7bNvF3qxpzsRf9hlZyUxx6w?authuser=0&hl=en&rclk=1,"10.9085687,75.939014"
Kaithakkulam Sunni masjid ,Mosque,"WWR9+FXC Kaithakkulam Sunni masjid , Tirur, Kerala 676107",,WWR9+FXC,Tirur,676107,Kerala,IN,https://www.google.com/maps/place/Kaithakkulam+Sunni+masjid+%F0%9F%95%8C/data=!4m7!3m6!1s0x3ba7b3a8f7ee67cb:0xcbf638dfc83c50a6!8m2!3d10.9413967!4d75.9199448!16s%2Fg%2F11v3lmv4h7!19sChIJy2fu96izpzsRplA8yN849ss?authuser=0&hl=en&rclk=1,"10.9413967,75.9199448"
Ladies prayer hall,Mosque,"WW79+JFW Ladies prayer hall, Thazhepalam, Tirur, Kerala 676101",Thazhepalam,WW79+JFW,Tirur,676101,Kerala,IN,https://www.google.com/maps/place/Ladies+prayer+hall/data=!4m7!3m6!1s0x3ba7b1e31b0ccdcb:0xa980fa750149be23!8m2!3d10.9141012!4d75.9187095!16s%2Fg%2F11fklmfzfn!19sChIJy80MG-OxpzsRI75JAXX6gKk?authuser=0&hl=en&rclk=1,"10.9141012,75.91870949999999"
Rahmaniya masjid,Mosque,"WWR8+W54 Rahmaniya masjid, Tirur, Kerala 676107",,WWR8+W54,Tirur,676107,Kerala,IN,https://www.google.com/maps/place/Rahmaniya+masjid/data=!4m7!3m6!1s0x3ba7b313e44707d7:0xb3e5d396beb7628b!8m2!3d10.9422712!4d75.9154593!16s%2Fg%2F11rg8vb5lp!19sChIJ1wdH5BOzpzsRi2K3vpbT5bM?authuser=0&hl=en&rclk=1,"10.942271199999999,75.9154593"
Masjid,Mosque,"WW6R+JQ4 Masjid, Ezhur Rd, Tirur, Kerala 676101",,"WW6R+JQ4, Ezhur Rd",Tirur,676101,Kerala,IN,https://www.google.com/maps/place/Masjid/data=!4m7!3m6!1s0x3ba7b1a0efa7361b:0x3ade258de3fa8c19!8m2!3d10.9115021!4d75.9419659!16s%2Fg%2F11gj771gh9!19sChIJGzan76CxpzsRGYz6440l3jo?authuser=0&hl=en&rclk=1,"10.9115021,75.9419659"
Masjid Rahma Vennoottum Kadavu,Mosque,"Masjid Rahma Vennoottum Kadavu, vennoottum kadavu, Chembra, Tirur, Kerala 676107",Chembra,vennoottum kadavu,Tirur,676107,Kerala,IN,https://www.google.com/maps/place/Masjid+Rahma+Vennoottum+Kadavu/data=!4m7!3m6!1s0x3ba7b33dc93f15a9:0x9efe8102e387c3e2!8m2!3d10.9322735!4d75.916431!16s%2Fg%2F11fmpgq4zz!19sChIJqRU_yT2zpzsR4sOH4wKB_p4?authuser=0&hl=en&rclk=1,"10.932273499999999,75.916431"
Parakkal Salafi Masjid,Mosque,"WW5Q+CJC Parakkal Salafi Masjid, Parakkal Rd, Tirur, Kerala 676101",,"WW5Q+CJC, Parakkal Rd",Tirur,676101,Kerala,IN,https://www.google.com/maps/place/Parakkal+Salafi+Masjid/data=!4m7!3m6!1s0x3ba7b1ae6ceccd15:0x9ccbdbe743d20f90!8m2!3d10.9085687!4d75.939014!16s%2Fg%2F11tf_t_g6g!19sChIJFc3sbK6xpzsRkA_SQ-fby5w?authuser=0&hl=en&rclk=1,"10.9085687,75.939014"
masjid,Mosque,"WWG2+28G masjid, Niramaruthur, Tirur, Kerala 676109",Niramaruthur,WWG2+28G,Tirur,676109,Kerala,IN,https://www.google.com/maps/place/masjid/data=!4m7!3m6!1s0x3ba7b3c893d6a353:0x99b4f3360ee2aca7!8m2!3d10.925075!4d75.9008362!16s%2Fg%2F11jyfgbk40!19sChIJU6PWk8izpzsRp6ziDjbztJk?authuser=0&hl=en&rclk=1,"10.925075,75.9008362"
