name,main_category,address,address_ward,address_street,address_city,address_postal_code,address_state,address_country_code,link,coordinates
Masjid Mujeeb Bagh,Mosque,"H74R+R4J Masjid Mujeeb Bagh, Mujeeb Bagh, Jamia Nagar, Okhla, New Delhi, Delhi 110025","Mujeeb Bagh, Jamia Nagar, Okhla",H74R+R4J,New Delhi,110025,Delhi,IN,https://www.google.com/maps/place/Masjid+Mujeeb+Bagh/data=!4m7!3m6!1s0x390ce40bc79e1ce9:0x18ab01f5fdcf10b3!8m2!3d28.5570856!4d77.2902574!16s%2Fg%2F11hbvrlrnj!19sChIJ6RyexwvkDDkRsxDP_fUBqxg?authuser=0&hl=en&rclk=1,"28.557085599999997,77.2902574"
Jama Masjid (Shaheen Bagh),Mosque,"Jama Masjid (Shaheen Bagh), 12, Kalindi Kunj Rd, Block B, Jamia Nagar, Jasola, New Delhi, Delhi 110025","Block B, Jamia Nagar, Jasola","12, Kalindi Kunj Rd",New Delhi,110025,Delhi,IN,https://www.google.com/maps/place/Jama+Masjid+%28Shaheen+Bagh%29/data=!4m7!3m6!1s0x390ce41a3d9d581b:0xc7b0e62465b11de9!8m2!3d28.5496905!4d77.3028252!16s%2Fg%2F11g7p2t2hd!19sChIJG1idPRrkDDkR6R2xZSTmsMc?authuser=0&hl=en&rclk=1,"28.549690499999997,77.3028252"
Masjid Hayat Madarsa Sahabia,Mosque,"F7XW+9R3 Masjid Hayat Madarsa Sahabia, Mehrauli - Badarpur Rd, Mittal Colony, Block RZ H, Pul Pehlad Pur, New Delhi, Faridabad, Delhi 110044","Mittal Colony, Block RZ H, Pul Pehlad Pur","F7XW+9R3, Mehrauli - Badarpur Rd","New Delhi, Faridabad",110044,Delhi,IN,https://www.google.com/maps/place/Masjid+Hayat+Madarsa+Sahabia/data=!4m7!3m6!1s0x390ce6d74f08cf85:0xcf35c38ec0e866ca!8m2!3d28.4983917!4d77.2970623!16s%2Fg%2F12hkbl23n!19sChIJhc8IT9fmDDkRymbowI7DNc8?authuser=0&hl=en&rclk=1,"28.4983917,77.2970623"
Masjid Umar,Mosque,"Masjid Umar, Noida-Greater Noida Expy, Raipur Khadar, Sector 126, near Akansha Stationary Store, Noida, Uttar Pradesh 201313","Raipur Khadar, Sector 126","Noida-Greater Noida Expy, Raipur Khadar, Sector 126, near Akansha Stationary Store",Noida,201313,Uttar Pradesh,IN,https://www.google.com/maps/place/Masjid+Umar/data=!4m7!3m6!1s0x390ce678bd924cf9:0x4ecd946c6faa6ec6!8m2!3d28.5423387!4d77.3395738!16s%2Fg%2F11bxk9qkr9!19sChIJ-UySvXjmDDkRxm6qb2yUzU4?authuser=0&hl=en&rclk=1,"28.5423387,77.3395738"
Razaa Jama Maszid,Mosque,"J25G+FCX Razaa Jama Maszid, Block A, Bharat Vihar, Kakrola, Delhi, 110078","Block A, Bharat Vihar, Kakrola",J25G+FCX,Delhi,110078,Delhi,IN,https://www.google.com/maps/place/Razaa+Jama+Maszid/data=!4m7!3m6!1s0x390d054c425f6e01:0x613dccf8819f2c00!8m2!3d28.6087288!4d77.0261155!16s%2Fg%2F11c57m3802!19sChIJAW5fQkwFDTkRACyfgfjMPWE?authuser=0&hl=en&rclk=1,"28.608728799999998,77.0261155"
MASJID,Mosque,"MASJID, Wz 173a/1 new ranjeet nagar, Guru Nanak Nagar, Shadipur, Delhi 110008","Guru Nanak Nagar, Shadipur",Wz 173a/1 new ranjeet nagar,New Delhi,110008,Delhi,IN,https://www.google.com/maps/place/MASJID/data=!4m7!3m6!1s0x390d0327bb6f6129:0xe8342be2eca63326!8m2!3d28.6456917!4d77.1597324!16s%2Fg%2F11h5lkhmc2!19sChIJKWFvuycDDTkRJjOm7OIrNOg?authuser=0&hl=en&rclk=1,"28.6456917,77.1597324"
Masjid e Aqsa msjdi qSy,Mosque,"G9X2+R38 Masjid e Aqsa msjdi qSy, Sadarpur, Sector-45, Noida, Uttar Pradesh 201303","Sadarpur, Sector-45",G9X2+R38,Noida,201303,Uttar Pradesh,IN,https://www.google.com/maps/place/Masjid+e+Aqsa+%D9%85%D8%B3%D8%AC%D8%AF%D9%90+%D8%A7%D9%82%D8%B5%D9%B0%DB%8C%E2%80%AD/data=!4m7!3m6!1s0x390ce5deaf29b341:0x3cccf01e014599a2!8m2!3d28.549526!4d77.3501959!16s%2Fg%2F11c55w0s_h!19sChIJQbMpr97lDDkRoplFAR7wzDw?authuser=0&hl=en&rclk=1,"28.549526,77.3501959"
Azad & Arsh Restaurant,Chicken restaurant,"23H5+297 Azad & Arsh Restaurant, Rampur Road, near Jama Masjid, Suar, Uttar Pradesh 244924",,"23H5+297, Rampur Road, near Jama Masjid",Suar,244924,Uttar Pradesh,IN,https://www.google.com/maps/place/Azad+%26+Arsh+Restaurant/data=!4m7!3m6!1s0x390a60fb515dbaa1:0xba8208805b73e061!8m2!3d29.0275416!4d79.0584328!16s%2Fg%2F11bz_yd04g!19sChIJobpdUftgCjkRYeBzW4AIgro?authuser=0&hl=en&rclk=1,"29.0275416,79.05843279999999"
Suar gow Jame Masjid and Eidgah,Mosque,"QQ8M+M3Q Suar gow Jame Masjid and Eidgah, Dhaka - Sylhet Hwy, Bangladesh",,"QQ8M+M3Q, Dhaka - Sylhet Hwy",,,,BD,https://www.google.com/maps/place/Suar+gow+Jame+Masjid+and+Eidgah/data=!4m7!3m6!1s0x375106ef7b453baf:0x37aad023a9341419!8m2!3d24.7667075!4d91.782748!16s%2Fg%2F11b6wkz2sw!19sChIJrztFe-8GUTcRGRQ0qSPQqjc?authuser=0&hl=en&rclk=1,"24.7667075,91.782748"
Aqsaa Masjid,Mosque,"J9HX+HRP Aqsaa Masjid, Chotpur Colony, Chhajarsi Colony, Noida, Uttar Pradesh 201307","Chotpur Colony, Chhajarsi Colony",J9HX+HRP,Noida,201307,Uttar Pradesh,IN,https://www.google.com/maps/place/Aqsaa+Masjid/data=!4m7!3m6!1s0x390cefe8762c7c45:0xdd6533c8d58cfa3b!8m2!3d28.6289611!4d77.3995647!16s%2Fg%2F11f3yvw0vv!19sChIJRXwsdujvDDkRO_qM1cgzZd0?authuser=0&hl=en&rclk=1,"28.628961099999998,77.3995647"
MADINA MASJID,Mosque,"M5X6+558 MADINA MASJID, Block A, Wazirpur Industrial Area, Ashok Vihar, Delhi, 110052","Block A, Wazirpur Industrial Area, Ashok Vihar",M5X6+558,Delhi,110052,Delhi,IN,https://www.google.com/maps/place/MADINA+MASJID/data=!4m7!3m6!1s0x390d023aab0ed955:0x822db20eda2dd64c!8m2!3d28.697902!4d77.1604397!16s%2Fg%2F11f2b01ft3!19sChIJVdkOqzoCDTkRTNYt2g6yLYI?authuser=0&hl=en&rclk=1,"28.697902,77.1604397"
Munshiganj Masjid,Mosque,"56QX+GRR Munshiganj Masjid, Pratapgarh - Raebareli Rd, Munshiganj, Garhi Mutwalli, Uttar Pradesh 229405",,"56QX+GRR, Pratapgarh - Raebareli Rd","Munshiganj, Garhi Mutwalli",229405,Uttar Pradesh,IN,https://www.google.com/maps/place/Munshiganj+Masjid/data=!4m7!3m6!1s0x399ba18e54379dad:0xefdde2b1748619df!8m2!3d26.1888728!4d81.2495034!16s%2Fg%2F11rvdczgs7!19sChIJrZ03VI6hmzkR3xmGdLHi3e8?authuser=0&hl=en&rclk=1,"26.1888728,81.2495034"
IMAM AHMAD RAZA JAMA MASJID,Mosque,"IMAM AHMAD RAZA JAMA MASJID, B 665, Pocket 4, B Block, JJ Colony, Uttam Nagar, New Delhi, Delhi, 110059","Pocket 4, B Block, JJ Colony, Uttam Nagar",B 665,"New Delhi, Delhi",110059,Delhi,IN,https://www.google.com/maps/place/IMAM+AHMAD+RAZA+JAMA+MASJID/data=!4m7!3m6!1s0x390d052171654883:0xcbc2bc8f49e66da2!8m2!3d28.6253214!4d77.0630461!16s%2Fg%2F11n5gz54q_!19sChIJg0hlcSEFDTkRom3mSY-8wss?authuser=0&hl=en&rclk=1,"28.625321399999997,77.0630461"
Masjid Badi msjd,Mosque,"Masjid Badi msjd, 893,, Chittli Qabar Bazar Rd, Jama Masjid, Chandni Chowk, New Delhi, Delhi 110006","Bazar Chitli Qabar, Kucha Chelan, Jama Masjid, Chandni Chowk","893,, Chittli Qabar Bazar Rd","New Delhi, Delhi",110006,Delhi,IN,https://www.google.com/maps/place/Masjid+Badi+%D9%85%D8%B3%D8%AC%D8%AF%E2%80%AD/data=!4m7!3m6!1s0x390cfd219cfec1f3:0x93ccacb281d71709!8m2!3d28.645321!4d77.2357133!16s%2Fg%2F12m98gjn5!19sChIJ88H-nCH9DDkRCRfXgbKszJM?authuser=0&hl=en&rclk=1,"28.645321,77.2357133"
Masjid,Mosque,"Masjid, Chandan Nagar, Uttar Pradesh 243601",,,Chandan Nagar,,Uttar Pradesh,IN,https://www.google.com/maps/place/Masjid/data=!4m7!3m6!1s0x39754f77d499cd0b:0xfa585f2b837e3350!8m2!3d28.0699891!4d79.1545415!16s%2Fg%2F124t466g6!19sChIJC82Z1HdPdTkRUDN-gytfWPo?authuser=0&hl=en&rclk=1,"28.069989099999997,79.1545415"
gosiiyaa msjid,Mosque,"gosiiyaa msjid, 02, New Delhi Main Rd, D Block, Madanpur Khadar, New Delhi, Delhi 110076, New Delhi Main Rd, D Block, Madanpur Khadar, New Delhi, Delhi 110076","D Block, Madanpur Khadar","02, New Delhi Main Rd, D Block, Madanpur Khadar, New Delhi, Delhi 110076, New Delhi Main Rd",New Delhi,110076,Delhi,IN,https://www.google.com/maps/place/%E0%A4%97%E0%A5%8B%E0%A4%B8%E0%A5%80%E0%A4%AF%E0%A4%BE+%E0%A4%AE%E0%A4%B8%E0%A5%8D%E0%A4%9C%E0%A4%BF%E0%A4%A6/data=!4m7!3m6!1s0x390ce69a677df04b:0x404fbe46be663e7f!8m2!3d28.5310436!4d77.317571!16s%2Fg%2F11g6rfnfc8!19sChIJS_B9Z5rmDDkRfz5mvka-T0A?authuser=0&hl=en&rclk=1,"28.5310436,77.317571"
Bada Shiv Mandir,Hindu temple,"23H2+9QR Bada Shiv Mandir, Suar, Uttar Pradesh 244924",,23H2+9QR,Suar,244924,Uttar Pradesh,IN,https://www.google.com/maps/place/Bada+Shiv+Mandir/data=!4m7!3m6!1s0x390a6122f1c49861:0xee4b2d16ca5d8044!8m2!3d29.0284838!4d79.0519025!16s%2Fg%2F11gvwnzljl!19sChIJYZjE8SJhCjkRRIBdyhYtS-4?authuser=0&hl=en&rclk=1,"29.0284838,79.0519025"
Baba Bhuman Shaa Ji Maharaj,Gurudwara,"34MR+C58 Baba Bhuman Shaa Ji Maharaj, Bazpur Road, Fazilpur, Suar, Fazalpur, Uttar Pradesh 244924",Fazilpur,"34MR+C58, Bazpur Road","Suar, Fazalpur",244924,Uttar Pradesh,IN,https://www.google.com/maps/place/Baba+Bhuman+Shaa+Ji+Maharaj/data=!4m7!3m6!1s0x390a646eff2df967:0x4bf826c6f1dd2dd5!8m2!3d29.0835483!4d79.1404378!16s%2Fg%2F11g68w830y!19sChIJZ_kt_25kCjkR1S3d8cYm-Es?authuser=0&hl=en&rclk=1,"29.0835483,79.1404378"
Eidgah,Mosque,"23H5+9MP Eidgah, MDR 49W, Suar, Uttar Pradesh 244924",,"23H5+9MP, MDR 49W",Suar,244924,Uttar Pradesh,IN,https://www.google.com/maps/place/Eidgah/data=!4m7!3m6!1s0x390a6142c6e9081f:0x16b6b552d6ffde8e!8m2!3d29.0284739!4d79.0592006!16s%2Fg%2F11ghxxtt7f!19sChIJHwjpxkJhCjkRjt7_1lK1thY?authuser=0&hl=en&rclk=1,"29.028473899999998,79.0592006"
Alam Kirana store Sabji Mandi Swar,Shopping mall,"23H3+7VJ Alam Kirana store Sabji Mandi Swar, jama Masjid Road, Suar, Uttar Pradesh 244924",,"23H3+7VJ, jama Masjid Road",Suar,244924,Uttar Pradesh,IN,https://www.google.com/maps/place/Alam+Kirana+store+Sabji+Mandi+Swar/data=!4m7!3m6!1s0x390a61a4fc0dd51b:0x363c2a2a2613d318!8m2!3d29.0282228!4d79.0546461!16s%2Fg%2F11h67n0qjq!19sChIJG9UN_KRhCjkRGNMTJioqPDY?authuser=0&hl=en&rclk=1,"29.028222799999998,79.0546461"
Aqsha Masjid,Mosque,"6X6Q+4W2 Aqsha Masjid, Raheri, Haryana 122103",,6X6Q+4W2,Raheri,122103,Haryana,IN,https://www.google.com/maps/place/Aqsha+Masjid/data=!4m7!3m6!1s0x390d303fc96dc523:0x7de38ec6173f5970!8m2!3d28.2102553!4d76.9897513!16s%2Fg%2F11gfdspw5h!19sChIJI8VtyT8wDTkRcFk_F8aO430?authuser=0&hl=en&rclk=1,"28.2102553,76.9897513"
Shiv Mandir (Jalaf Nagla),Hindu temple,"23J2+W35 Shiv Mandir (Jalaf Nagla), Mukrampur, Suar, Uttar Pradesh 244924",Mukrampur,23J2+W35,Suar,244924,Uttar Pradesh,IN,https://www.google.com/maps/place/Shiv+Mandir+%28Jalaf+Nagla%29/data=!4m7!3m6!1s0x390a616bd98b088d:0xa86a9be260e18952!8m2!3d29.0322634!4d79.0502223!16s%2Fg%2F11gxflm9m1!19sChIJjQiL2WthCjkRUonhYOKbaqg?authuser=0&hl=en&rclk=1,"29.032263399999998,79.0502223"
Masjid Iqbal Rasheed,Mosque,"Masjid Iqbal Rasheed, Parsauna, Uttar Pradesh 243638",,,Parsauna,,Uttar Pradesh,IN,https://www.google.com/maps/place/Masjid+Iqbal+Rasheed/data=!4m7!3m6!1s0x39752916826a189d:0x24f09e59aa9ff22a!8m2!3d28.0839739!4d78.7216491!16s%2Fg%2F1hm5856qv!19sChIJnRhqghYpdTkRKvKfqlme8CQ?authuser=0&hl=en&rclk=1,"28.0839739,78.7216491"
Munawra masjid,Mosque,"M7P4+6M2 Munawra masjid, Masjid Road, Third Pushta, Usmanpur, Nayagaon Village, Shahdara, Delhi, 110053","Third Pushta, Nayagaon, Nayagaon Village, Shahdara","M7P4+6M2, Masjid Road, Third Pushta, Usmanpur",Delhi,110053,Delhi,IN,https://www.google.com/maps/place/Munawra+masjid/data=!4m7!3m6!1s0x390cfd030e33f563:0x5dc12b36744f9a85!8m2!3d28.6855176!4d77.2566372!16s%2Fg%2F11hzwz2ypj!19sChIJY_UzDgP9DDkRhZpPdDYrwV0?authuser=0&hl=en&rclk=1,"28.685517599999997,77.2566372"
SHAHI JAMA MASJID jm` msjd shhy,Mosque,"SHAHI JAMA MASJID jm` msjd shhy, 22, foot road, Shram Vihar, Pocket N, Madanpur Khadar, New Delhi, Delhi 110025","Shram Vihar, Pocket N, Madanpur Khadar","22, foot road",New Delhi,110025,Delhi,IN,https://www.google.com/maps/place/SHAHI+JAMA+MASJID+%D8%AC%D8%A7%D9%85%D8%B9+%D9%85%D8%B3%D8%AC%D8%AF+%D8%B4%D8%A7%DA%BE%DB%8C%E2%80%AD/data=!4m7!3m6!1s0x390ce5a36ba3a95d:0x7cb7c1435cda3fd2!8m2!3d28.5405938!4d77.3038368!16s%2Fg%2F11n733rllr!19sChIJXamja6PlDDkR0j_aXEPBt3w?authuser=0&hl=en&rclk=1,"28.5405938,77.3038368"
Masjid Sanauji,Mosque,"Masjid Sanauji, Shop No. 1630, Lal Kuan, Lalkuan Bazar Rd, Baradari, Chandni Chowk, New Delhi, Delhi 110006","Bazar Sirkiwalan, Baradari, Chandni Chowk","Shop No. 1630, Lal Kuan, Lalkuan Bazar Rd","New Delhi, Delhi",110006,Delhi,IN,https://www.google.com/maps/place/Masjid+Sanauji/data=!4m7!3m6!1s0x390cfd13fe3ea72d:0x27ea23bc5f650202!8m2!3d28.6529317!4d77.2232485!16s%2Fg%2F12hplq4pp!19sChIJLac-_hP9DDkRAgJlX7wj6ic?authuser=0&hl=en&rclk=1,"28.6529317,77.2232485"
Masjid,Mosque,"Masjid, C-78/6, Ghazipur Dairy Farm, Ghazipur, New Delhi, Delhi, 110091","Ghazipur Dairy Farm, Ghazipur",C-78/6,"New Delhi, Delhi",110091,Delhi,IN,https://www.google.com/maps/place/Masjid/data=!4m7!3m6!1s0x390ce59d2385649b:0xb67be5c3e3ed3d8!8m2!3d28.621932!4d77.3237081!16s%2Fg%2F11r6dvzgp5!19sChIJm2SFI53lDDkR2NM-Ply-Zws?authuser=0&hl=en&rclk=1,"28.621931999999997,77.32370809999999"
Masjid Hussainiya,Mosque,"J6XM+GHP Masjid Hussainiya, Matia Mahal Rd, Kalan Mehal, Old Delhi, Delhi, 110006","Kalan Mehal, Old Delhi","J6XM+GHP, Matia Mahal Rd",Delhi,110006,Delhi,IN,https://www.google.com/maps/place/Masjid+Hussainiya/data=!4m7!3m6!1s0x390cfd18ba6b0bd5:0xced4d691b8d1a3fb!8m2!3d28.6488459!4d77.2339534!16s%2Fg%2F11gc9g4rkv!19sChIJ1Qtruhj9DDkR-6PRuJHW1M4?authuser=0&hl=en&rclk=1,"28.648845899999998,77.23395339999999"
Baghwali Masjid msjd bG wly,Mosque,"Baghwali Masjid msjd bG wly, 785, Nicholson Rd, Kashmere Gate, New Delhi, Delhi 110006","Ganda Nala Bazar, Kashmere Gate","785, Nicholson Rd","New Delhi, Delhi",110006,Delhi,IN,https://www.google.com/maps/place/Baghwali+Masjid+%D9%85%D8%B3%D8%AC%D8%AF+%D8%A8%D8%A7%D8%BA+%D9%88%D8%A7%D9%84%DB%8C%E2%80%AD/data=!4m7!3m6!1s0x390cfd092767785b:0xd4966cf4d21cbda8!8m2!3d28.6653187!4d77.2261277!16s%2Fg%2F12llwbr4n!19sChIJW3hnJwn9DDkRqL0c0vRsltQ?authuser=0&hl=en&rclk=1,"28.6653187,77.22612769999999"
Masjid E Suhawa,Mosque,"G327+68G Masjid E Suhawa, Suhawa, Uttar Pradesh 244926",,G327+68G,Suhawa,244926,Uttar Pradesh,IN,https://www.google.com/maps/place/Masjid+E+Suhawa/data=!4m7!3m6!1s0x390ab8d7c6aaaaab:0x6fdfb785b8c3b82e!8m2!3d28.5005507!4d79.0633326!16s%2Fg%2F11hctjj092!19sChIJq6qqxte4CjkRLrjDuIW3328?authuser=0&hl=en&rclk=1,"28.500550699999998,79.0633326"
Masjid,Mosque,"H77Q+868 Masjid, Okhla Village, Okhla, New Delhi, Delhi 110025","Okhla Village, Okhla",H77Q+868,New Delhi,110025,Delhi,IN,https://www.google.com/maps/place/Masjid/data=!4m7!3m6!1s0x390ce47512f7aa2b:0x544337a9b9e5d7a2!8m2!3d28.5632814!4d77.2880932!16s%2Fg%2F11gbtpj5td!19sChIJK6r3EnXkDDkRotfluak3Q1Q?authuser=0&hl=en&rclk=1,"28.563281399999997,77.28809319999999"
Ishaq Masjid,Mosque,"Ishaq Masjid, Ishaq Masjid Wali Gali, Block C, Sarai Kale Khan, New Delhi, Delhi 110013","Block C, Sarai Kale Khan",Ishaq Masjid Wali Gali,New Delhi,110013,Delhi,IN,https://www.google.com/maps/place/Ishaq+Masjid/data=!4m7!3m6!1s0x390ce376f8a80f59:0x43d242dbd3376818!8m2!3d28.5849571!4d77.2565889!16s%2Fg%2F11q2tx_6x1!19sChIJWQ-o-HbjDDkRGGg309tC0kM?authuser=0&hl=en&rclk=1,"28.5849571,77.2565889"
Noori Masjid,Mosque,"G5VH+CHQ Noori Masjid, Sujatpur, Uttar Pradesh 243504",,G5VH+CHQ,Sujatpur,243504,Uttar Pradesh,IN,https://www.google.com/maps/place/Noori+Masjid/data=!4m7!3m6!1s0x390abcc06c8d7359:0x753cacb61b01dd09!8m2!3d28.5435767!4d79.178975!16s%2Fg%2F11f3579h8k!19sChIJWXONbMC8CjkRCd0BG7asPHU?authuser=0&hl=en&rclk=1,"28.5435767,79.178975"
Noori masjid,Musalla,"Noori masjid, Sentakhera, Uttar Pradesh 244925",,,Sentakhera,244925,Uttar Pradesh,IN,https://www.google.com/maps/place/Noori+masjid/data=!4m7!3m6!1s0x390a5fd5030766c7:0xea4af5a412e33c72!8m2!3d28.9660771!4d78.9581535!16s%2Fg%2F11fss32h3f!19sChIJx2YHA9VfCjkRcjzjEqT1Suo?authuser=0&hl=en&rclk=1,"28.9660771,78.9581535"
Mr.SAHEEM MALIK,Mosque,"Mr.SAHEEM MALIK, Gali no. 3 - Tirpal Factory Mustafabad, near Ayisha masjid, 25 Futa Rd, near by Aisha Masjid, chowk, Delhi 110094","Shakti Vihar, Old Mustafabad, chowk","Gali no. 3 - Tirpal Factory Mustafabad, near Ayisha masjid, 25 Futa Rd, near by Aisha Masjid",Delhi,110094,Delhi,IN,https://www.google.com/maps/place/Mr.SAHEEM+MALIK/data=!4m7!3m6!1s0x390cfd9a44cd4997:0xffdc8860c53e3f2b!8m2!3d28.7159667!4d77.272238!16s%2Fg%2F11h3cwgc8y!19sChIJl0nNRJr9DDkRKz8-xWCI3P8?authuser=0&hl=en&rclk=1,"28.7159667,77.272238"
Masjid,Mosque,"Q7JJ+7WC Masjid, Pavi Sadakpur, Uttar Pradesh 201102",,Q7JJ+7WC,Pavi Sadakpur,201102,Uttar Pradesh,IN,https://www.google.com/maps/place/Masjid/data=!4m7!3m6!1s0x390cff3247b3c4d7:0xf1b7407f946dd8cc!8m2!3d28.7806806!4d77.2822504!16s%2Fg%2F11ggz8tfhy!19sChIJ18SzRzL_DDkRzNhtlH9At_E?authuser=0&hl=en&rclk=1,"28.7806806,77.2822504"
Masjid,Mosque,"Q6MJ+5H5 Masjid, Badarpur, Madanpur Khadar, New Delhi, 110084",Madanpur Khadar,"Q6MJ+5H5, Badarpur","New Delhi, Delhi",110084,Delhi,IN,https://www.google.com/maps/place/Masjid/data=!4m7!3m6!1s0x390cffb780460377:0x9fe224e9c653e965!8m2!3d28.7828891!4d77.2314704!16s%2Fg%2F11qn790lvq!19sChIJdwNGgLf_DDkRZelTxukk4p8?authuser=0&hl=en&rclk=1,"28.7828891,77.23147039999999"
Masjid Tariq Ul Saqib,Mosque,"H72X+XVH Masjid Tariq Ul Saqib, Abul Fazal Enclave Part 2, Jamia Nagar, Okhla, New Delhi, Delhi 110025","Abul Fazal Enclave Part 2, Jamia Nagar, Okhla",H72X+XVH,New Delhi,110025,Delhi,IN,https://www.google.com/maps/place/Masjid+Tariq+Ul+Saqib/data=!4m7!3m6!1s0x390ce5f89a22443d:0x7f1f8010c76175ea!8m2!3d28.5524415!4d77.2997285!16s%2Fg%2F11pdr6sc4g!19sChIJPUQimvjlDDkR6nVhxxCAH38?authuser=0&hl=en&rclk=1,"28.5524415,77.2997285"
phaaruuk'ii msjid,Mosque,"phaaruuk'ii msjid, P1 / 488, Block P, Sultanpuri, New Delhi, Delhi, 110086","Block P, Sultanpuri",P1 / 488,"New Delhi, Delhi",110086,Delhi,IN,https://www.google.com/maps/place/%E0%A4%AB%E0%A4%BE%E0%A4%B0%E0%A5%82%E0%A4%95%E0%A4%BC%E0%A5%80+%E0%A4%AE%E0%A4%B8%E0%A5%8D%E0%A4%9C%E0%A4%BF%E0%A4%A6/data=!4m7!3m6!1s0x390d056907c05221:0x5718087f433958ef!8m2!3d28.7017328!4d77.0848303!16s%2Fg%2F11ryrwj27v!19sChIJIVLAB2kFDTkR71g5Q38IGFc?authuser=0&hl=en&rclk=1,"28.7017328,77.0848303"
Noori Masjid,Mosque,"VV6G+QF3 Noori Masjid, Saktu Nagla, Uttar Pradesh 244104",,VV6G+QF3,Saktu Nagla,244104,Uttar Pradesh,IN,https://www.google.com/maps/place/Noori+Masjid/data=!4m7!3m6!1s0x390af1599ca28b69:0xb96de6bbc86802b1!8m2!3d28.8618903!4d78.8761785!16s%2Fg%2F11p3h513ml!19sChIJaYuinFnxCjkRsQJoyLvmbbk?authuser=0&hl=en&rclk=1,"28.8618903,78.8761785"
Jamia Masjid Sugar Mills Colony,Mosque,"XXJ3+78M Jamia Masjid Sugar Mills Colony, Sugar Mill's Colony Layyah, Punjab, Pakistan",Sugar Mill's Colony,XXJ3+78M,Layyah,,"Layyah, Punjab",PK,https://www.google.com/maps/place/Jamia+Masjid+Sugar+Mills+Colony/data=!4m7!3m6!1s0x3925a6f540468061:0x188b5425a327e9ae!8m2!3d30.9807233!4d70.9533062!16s%2Fg%2F11f08kvck2!19sChIJYYBGQPWmJTkRruknoyVUixg?authuser=0&hl=en&rclk=1,"30.980723299999998,70.9533062"
Masjid,Mosque,"Masjid, 42C, Central Auto Market, Block B, Sector 16, Noida, Uttar Pradesh 201301","Central Auto Market, Block B, Sector 16",42C,Noida,201301,Uttar Pradesh,IN,https://www.google.com/maps/place/Masjid/data=!4m7!3m6!1s0x390ce45b6e8b8d05:0x1c6debc04866e60!8m2!3d28.577362!4d77.31624!16s%2Fg%2F11c6rj0f0y!19sChIJBY2LblvkDDkRYG6GBLzexgE?authuser=0&hl=en&rclk=1,"28.577361999999997,77.31624"
msjid,Mosque,"msjid, 249, Swami Amardev Marg, Bara Bazar, Maharam Mohalla, Shahdara, Delhi, 110032","Bara Bazar, Maharam Mohalla, Shahdara","249, Swami Amardev Marg",Delhi,110032,Delhi,IN,https://www.google.com/maps/place/%E0%A4%AE%E0%A4%B8%E0%A5%8D%E0%A4%9C%E0%A4%BF%E0%A4%A6/data=!4m7!3m6!1s0x390cfb490b84c709:0x30ecad58f89bafaa!8m2!3d28.6687399!4d77.2917355!16s%2Fg%2F11n03hfp8k!19sChIJCceEC0n7DDkRqq-b-Fit7DA?authuser=0&hl=en&rclk=1,"28.6687399,77.2917355"
HADHRAT UMAR MASJID ALMAROOF CHOTI MASJID,Mosque,"HADHRAT UMAR MASJID ALMAROOF CHOTI MASJID, Chotti Masjid, Street number 9, Mulla Colony, Gharoli Extension, Gharoli, Delhi, 110096","Mulla Colony, Gharoli Extension, Gharoli","Chotti Masjid, Street number 9",Delhi,110096,Delhi,IN,https://www.google.com/maps/place/HADHRAT+UMAR+MASJID+ALMAROOF+CHOTI+MASJID/data=!4m7!3m6!1s0x390ce5c6cf830b2f:0x6bb8084dadf0d513!8m2!3d28.6213398!4d77.3314246!16s%2Fg%2F11sy4vfb7s!19sChIJLwuDz8blDDkRE9XwrU0IuGs?authuser=0&hl=en&rclk=1,"28.621339799999998,77.33142459999999"
Masjid,Mosque,"Masjid, 2508, Fasil Rd, Gali Sakko Wali, Shah Ganj, Chandni Chowk, New Delhi, Delhi, 110006","Gali Sakko Wali, Shah Ganj, Chandni Chowk","2508, Fasil Rd","New Delhi, Delhi",110006,Delhi,IN,https://www.google.com/maps/place/Masjid/data=!4m7!3m6!1s0x390cfd15c9a8a4b1:0xf975aada141da03e!8m2!3d28.6491552!4d77.2220471!16s%2Fg%2F1hm4gjxkd!19sChIJsaSoyRX9DDkRPqAdFNqqdfk?authuser=0&hl=en&rclk=1,"28.6491552,77.2220471"
Masjid,Mosque,"Masjid, 191/1, JJ Colony, New Krishna Park, Vikaspuri, New Delhi, Delhi, 110018","JJ Colony, New Krishna Park, Vikaspuri",191/1,"New Delhi, Delhi",110018,Delhi,IN,https://www.google.com/maps/place/Masjid/data=!4m7!3m6!1s0x390d0523e13f6ebf:0xcf430f5986189794!8m2!3d28.6318645!4d77.0776203!16s%2Fg%2F11kq3krq6c!19sChIJv24_4SMFDTkRlJcYhlkPQ88?authuser=0&hl=en&rclk=1,"28.6318645,77.07762029999999"
Masjid,Mosque,"P9HF+33Q Masjid, Farukh Nagar, Uttar Pradesh 201003",,P9HF+33Q,Farukh Nagar,201003,Uttar Pradesh,IN,https://www.google.com/maps/place/Masjid/data=!4m7!3m6!1s0x390cfa018875b495:0xeea7b0caec7e470d!8m2!3d28.7277145!4d77.3727433!16s%2Fg%2F11f0krqvls!19sChIJlbR1iAH6DDkRDUd-7Mqwp-4?authuser=0&hl=en&rclk=1,"28.727714499999998,77.3727433"
Masjid Haji Fakhruddin,Mosque,"M675+W9G Masjid Haji Fakhruddin, Nawabganj, Tis Hazari, New Delhi, Delhi, 110006","Nawabganj, Tis Hazari",M675+W9G,"New Delhi, Delhi",110006,Delhi,IN,https://www.google.com/maps/place/Masjid+Haji+Fakhruddin/data=!4m7!3m6!1s0x390cfd3828bdce11:0x33cd8ff3b7a4fedb!8m2!3d28.6648087!4d77.20846!16s%2Fg%2F11fmz5xjh3!19sChIJEc69KDj9DDkR2_6kt_OPzTM?authuser=0&hl=en&rclk=1,"28.6648087,77.20846"
Madina Masjid,Mosque,"QP56+F2G Madina Masjid, Lalpur Gangwari, Uttar Pradesh 244102",,QP56+F2G,Lalpur Gangwari,,Uttar Pradesh,IN,https://www.google.com/maps/place/Madina+Masjid/data=!4m7!3m6!1s0x390afd32d461df2b:0x7fb78b45e3cb8752!8m2!3d28.7586955!4d78.7100703!16s%2Fg%2F11gy2mb725!19sChIJK99h1DL9CjkRUofL40WLt38?authuser=0&hl=en&rclk=1,"28.758695499999998,78.7100703"
Hassan Kirana Shop,General store,"Hassan Kirana Shop, Mohalla Chak Suar, near by Gosiya Masjid, Rampur, Uttar Pradesh 244924",,"Mohalla Chak Suar, near by Gosiya Masjid","Rampur, Suar",244924,Uttar Pradesh,IN,https://www.google.com/maps/place/Hassan+Kirana+Shop/data=!4m7!3m6!1s0x390a61e1a8201fc1:0x21221716305c6168!8m2!3d29.0253562!4d79.0547004!16s%2Fg%2F11tncz0h06!19sChIJwR8gqOFhCjkRaGFcMBYXIiE?authuser=0&hl=en&rclk=1,"29.025356199999997,79.0547004"
Masjid Saguwa Wali (Choti Masjid),Mosque,"Masjid Saguwa Wali (Choti Masjid), 1614, Old Dariya Ganj, Daryaganj, New Delhi, Delhi, 110002","Old Dariya Ganj, Daryaganj",1614,"New Delhi, Delhi",110002,Delhi,IN,https://www.google.com/maps/place/Masjid+Saguwa+Wali+%28Choti+Masjid%29/data=!4m7!3m6!1s0x390cfde70c37cfe3:0xcd9ebd43305f88c8!8m2!3d28.6470267!4d77.2382029!16s%2Fg%2F11f7qykm_q!19sChIJ4883DOf9DDkRyIhfMEO9ns0?authuser=0&hl=en&rclk=1,"28.647026699999998,77.23820289999999"
Masjid,Mosque,"Masjid, Molarband, Badarpur, New Delhi, Delhi 110044","Molarband, Badarpur",,New Delhi,110044,Delhi,IN,https://www.google.com/maps/place/Masjid/data=!4m7!3m6!1s0x390ce75604c9317b:0x95388f2bb1f0f9b2!8m2!3d28.5063324!4d77.3130947!16s%2Fg%2F11rkpbdy5r!19sChIJezHJBFbnDDkRsvnwsSuPOJU?authuser=0&hl=en&rclk=1,"28.506332399999998,77.3130947"
Masjid,Mosque,"M65J+GV7 Masjid, Chhippy Wada, Chandni Chowk, Delhi, 110006","Chhippy Wada, Chandni Chowk",M65J+GV7,Delhi,110006,Delhi,IN,https://www.google.com/maps/place/Masjid/data=!4m7!3m6!1s0x390cfd04823e663b:0x88920d6fe0b74a65!8m2!3d28.6587916!4d77.2321828!16s%2Fg%2F11n0gg69p2!19sChIJO2Y-ggT9DDkRZUq34G8Nkog?authuser=0&hl=en&rclk=1,"28.658791599999997,77.23218279999999"
Madina Maszid,Mosque,"P432+JXG Madina Maszid, Pocket 25, Sector 3G, Rohini, Delhi, 110085","Pocket 25, Sector 3G, Rohini",P432+JXG,Delhi,110085,Delhi,IN,https://www.google.com/maps/place/Madina+Maszid/data=!4m7!3m6!1s0x390d018613fc13e1:0xb7a57d9d5623c997!8m2!3d28.7040585!4d77.1024588!16s%2Fg%2F11f6dnn289!19sChIJ4RP8E4YBDTkRl8kjVp19pbc?authuser=0&hl=en&rclk=1,"28.7040585,77.1024588"
Goshiya Moshque,Mosque,"23G5+W96 Goshiya Moshque, Suar, Uttar Pradesh 244924",,23G5+W96,Suar,244924,Uttar Pradesh,IN,https://www.google.com/maps/place/Goshiya+Moshque/data=!4m7!3m6!1s0x390a61194201c1a3:0xa97a61ee96b736b5!8m2!3d29.0272956!4d79.058386!16s%2Fg%2F11h91ng9pb!19sChIJo8EBQhlhCjkRtTa3lu5heqk?authuser=0&hl=en&rclk=1,"29.0272956,79.058386"
Madina Masjid,Religious destination,"23G2+9W3 Madina Masjid, mohalla khas, Suar, Uttar Pradesh 244924",mohalla khas,23G2+9W3,Suar,244924,Uttar Pradesh,IN,https://www.google.com/maps/place/Madina+Masjid/data=!4m7!3m6!1s0x390a61376dcc049f:0xcff448cf38371bf2!8m2!3d29.0258763!4d79.0522979!16s%2Fg%2F11qgy4143z!19sChIJnwTMbTdhCjkR8hs3OM9I9M8?authuser=0&hl=en&rclk=1,"29.0258763,79.0522979"
Sannaut masjid,Mosque,"9XHR+Q4V Sannaut masjid, Sannaut, Uttar Pradesh 203150",,9XHR+Q4V,Sannaut,203150,Uttar Pradesh,IN,https://www.google.com/maps/place/Sannaut+masjid/data=!4m7!3m6!1s0x390b590a5d0b0e25:0xeaff554327474052!8m2!3d28.3794979!4d77.9903021!16s%2Fg%2F11h7cp0j52!19sChIJJQ4LXQpZCzkRUkBHJ0NV_-o?authuser=0&hl=en&rclk=1,"28.379497899999997,77.9903021"
Masjid,Mosque,"RX4J+M39 Masjid, Rajoli, Sulela, Haryana 122104",,RX4J+M39,"Rajoli, Sulela",122104,Haryana,IN,https://www.google.com/maps/place/Masjid/data=!4m7!3m6!1s0x3972c534275ef4ab:0xdc27d3a7ace97738!8m2!3d27.8066544!4d76.9802205!16s%2Fg%2F11j3xmhg73!19sChIJq_ReJzTFcjkROHfprKfTJ9w?authuser=0&hl=en&rclk=1,"27.8066544,76.9802205"
Noori masjid,Musalla,"23V2+RV7 Noori masjid, Alinagar Jagir, harpura, Suar, Uttar Pradesh",harpura,"23V2+RV7, Alinagar Jagir","Suar, Alinagar Jagir",,Uttar Pradesh,IN,https://www.google.com/maps/place/Noori+masjid/data=!4m7!3m6!1s0x390a611a5753f03f:0xe98fd2ab698ac12b!8m2!3d29.0445305!4d79.0521649!16s%2Fg%2F11t9cfw682!19sChIJP_BTVxphCjkRK8GKaavSj-k?authuser=0&hl=en&rclk=1,"29.044530499999997,79.0521649"
jaamaa msjid raaypur,Mosque,"jaamaa msjid raaypur, suwer Road, Raipur, Uttar Pradesh 244924",,suwer Road,Raipur,244924,Uttar Pradesh,IN,https://www.google.com/maps/place/%E0%A4%9C%E0%A4%BE%E0%A4%AE%E0%A4%BE+%E0%A4%AE%E0%A4%B8%E0%A5%8D%E0%A4%9C%E0%A4%BF%E0%A4%A6+%E0%A4%B0%E0%A4%BE%E0%A4%AF%E0%A4%AA%E0%A5%81%E0%A4%B0/data=!4m7!3m6!1s0x390a636d30d7ec3b:0xc8b1ea336d238966!8m2!3d29.0275814!4d79.1327623!16s%2Fg%2F11g10hbwvc!19sChIJO-zXMG1jCjkRZokjbTPqscg?authuser=0&hl=en&rclk=1,"29.0275814,79.1327623"
Jama masjid khempur (badi masjid khempur),Place of worship,"W3Q2+FQP Jama masjid khempur (badi masjid khempur), Khempur, Uttar Pradesh 244924",,W3Q2+FQP,Khempur,244924,Uttar Pradesh,IN,https://www.google.com/maps/place/Jama+masjid+khempur+%28badi+masjid+khempur%29/data=!4m7!3m6!1s0x390a8bfb89da37f5:0xdcba672b32c383e6!8m2!3d28.9387203!4d79.0519528!16s%2Fg%2F11ll7f8ly7!19sChIJ9TfaifuLCjkR5oPDMitnutw?authuser=0&hl=en&rclk=1,"28.9387203,79.0519528"
Masjid Shatoot Wali,Mosque,"M67H+G5Q Masjid Shatoot Wali, Chhota Bazar, Mori Gate, New Delhi, Delhi, 110006","Chhota Bazar, Mori Gate",M67H+G5Q,"New Delhi, Delhi",110006,Delhi,IN,https://www.google.com/maps/place/Masjid+Shatoot+Wali/data=!4m7!3m6!1s0x390cfdd8114d08fd:0x326042596014276a!8m2!3d28.663827!4d77.2279973!16s%2Fg%2F11g4h_zjtj!19sChIJ_QhNEdj9DDkRaicUYFlCYDI?authuser=0&hl=en&rclk=1,"28.663826999999998,77.2279973"
Masjid,Mosque,"Masjid, Gali No 19, Gali Number 1, Mustafabad Extn, New Mustafabad, Delhi, 110094","E2 Block, Mustafabad Extn, New Mustafabad","Gali No 19, Gali Number 1",Delhi,110094,Delhi,IN,https://www.google.com/maps/place/Masjid/data=!4m7!3m6!1s0x390cfc1b020b0e91:0xb48a3c3233e41cbd!8m2!3d28.711773!4d77.272563!16s%2Fg%2F12hpqnhjr!19sChIJkQ4LAhv8DDkRvRzkMzI8irQ?authuser=0&hl=en&rclk=1,"28.711772999999997,77.27256299999999"
Aeasha.masjid,Mosque,"6W93+XQC Aeasha.masjid, Unnamed Road, Khori Khurd, Sunari, Haryana 122015",,"6W93+XQC, Unnamed Road","Khori Khurd, Sunari",122015,Haryana,IN,https://www.google.com/maps/place/Aeasha.masjid/data=!4m7!3m6!1s0x390d372dc616cebd:0x3b2ab937d684caaa!8m2!3d28.2199458!4d76.9044022!16s%2Fg%2F11r3cm3yv3!19sChIJvc4Wxi03DTkRqsqE1je5Kjs?authuser=0&hl=en&rclk=1,"28.219945799999998,76.90440219999999"
Masjid-e-Aqsa,Mosque,"5W6V+HGM Masjid-e-Aqsa, Nanuka, Haryana 122015",,5W6V+HGM,Nanuka,122015,Haryana,IN,https://www.google.com/maps/place/Masjid-e-Aqsa/data=!4m7!3m6!1s0x390d31e65512ccc9:0x9bb45c3973141159!8m2!3d28.1614439!4d76.9438944!16s%2Fg%2F11sw59r2kj!19sChIJycwSVeYxDTkRWREUczlctJs?authuser=0&hl=en&rclk=1,"28.1614439,76.94389439999999"
Masjid suffa,Mosque,"759C+M4X Masjid suffa, Satlaka, Haryana 122102",,759C+M4X,Satlaka,122102,Haryana,IN,https://www.google.com/maps/place/Masjid+suffa/data=!4m7!3m6!1s0x390d27e6578a0d3d:0x7d853a600d0bcd3f!8m2!3d28.2692479!4d77.1703641!16s%2Fg%2F11h58drzvh!19sChIJPQ2KV-YnDTkRP80LDWA6hX0?authuser=0&hl=en&rclk=1,"28.2692479,77.1703641"
masjid chidda pradhan,Mosque,"J579+GGH masjid chidda pradhan, milak, nau khareed, suar, Uttar Pradesh 244924",,"J579+GGH, milak, nau khareed","suar, Milak",244924,Uttar Pradesh,IN,https://www.google.com/maps/place/masjid+chidda+pradhan/data=!4m7!3m6!1s0x390a974a90b24a99:0xdc163cd8bba87909!8m2!3d28.6138199!4d79.1688541!16s%2Fg%2F11hz782dv4!19sChIJmUqykEqXCjkRCXmou9g8Ftw?authuser=0&hl=en&rclk=1,"28.6138199,79.16885409999999"
Jumma masjid urf shokat masjid,Mosque,"MGX2+69 Jumma masjid urf shokat masjid, Gonjni, Uttar Pradesh 244304",,MGX2+69,Gonjni,244304,Uttar Pradesh,IN,https://www.google.com/maps/place/Jumma+masjid+urf+shokat+masjid/data=!4m7!3m6!1s0x390b1be1ba940c1b:0xba57f663b5aa632f!8m2!3d28.6987995!4d78.5015724!16s%2Fg%2F11jyw2lv9k!19sChIJGwyUuuEbCzkRL2OqtWP2V7o?authuser=0&hl=en&rclk=1,"28.6987995,78.5015724"
Masjid e Sahebuzzamaan,Mosque,"PHRM+3RH Masjid e Sahebuzzamaan, Buknala, Uttar Pradesh 244102",,PHRM+3RH,Buknala,,Uttar Pradesh,IN,https://www.google.com/maps/place/Masjid+e+Sahebuzzamaan/data=!4m7!3m6!1s0x390b1d4c0c1cb5e3:0xab5bece7bf766928!8m2!3d28.7401936!4d78.5846234!16s%2Fg%2F11gnp2w193!19sChIJ47UcDEwdCzkRKGl2v-fsW6s?authuser=0&hl=en&rclk=1,"28.740193599999998,78.5846234"
Aayesha Masjid,Mosque,"2W3G+9Q8 Aayesha Masjid, Kasiya Kunda, Uttar Pradesh 244925",,2W3G+9Q8,Kasiya Kunda,,Uttar Pradesh,IN,https://www.google.com/maps/place/Aayesha+Masjid/data=!4m7!3m6!1s0x390a59e411dd68af:0xecd1bc4fbf616a1c!8m2!3d29.0034186!4d78.9269516!16s%2Fg%2F11j5kkck3c!19sChIJr2jdEeRZCjkRHGphv0-80ew?authuser=0&hl=en&rclk=1,"29.0034186,78.9269516"
Chaman masjid cmn msjid,Mosque,"QJMG+9G5 Chaman masjid cmn msjid, Ratupur, Uttar Pradesh 244102",,QJMG+9G5,Ratupur,244102,Uttar Pradesh,IN,https://www.google.com/maps/place/Chaman+masjid+%E0%A4%9A%E0%A4%AE%E0%A4%A8+%E0%A4%AE%E0%A4%B8%E0%A5%8D%E0%A4%9C%E0%A4%BF%E0%A4%A6/data=!4m7!3m6!1s0x390b032cad61a66f:0xdc5eea1d4a58f836!8m2!3d28.7833769!4d78.626374!16s%2Fg%2F11t51yg8n4!19sChIJb6ZhrSwDCzkRNvhYSh3qXtw?authuser=0&hl=en&rclk=1,"28.7833769,78.626374"
Masjid,Mosque,"GF2V+V6G Masjid, Alampur, Uttar Pradesh 246762",,GF2V+V6G,Alampur,246762,Uttar Pradesh,IN,https://www.google.com/maps/place/Masjid/data=!4m7!3m6!1s0x390bd143cf01b967:0xb88efbf8b7631f67!8m2!3d29.5020327!4d78.4922129!16s%2Fg%2F11v4jbxvqt!19sChIJZ7kBz0PRCzkRZx9jt_j7jrg?authuser=0&hl=en&rclk=1,"29.502032699999997,78.4922129"
Eidgah,Mosque,"4329+VF4 Eidgah, Maswasi, Uttar Pradesh 244924",,4329+VF4,Maswasi,244924,Uttar Pradesh,IN,https://www.google.com/maps/place/Eidgah/data=!4m7!3m6!1s0x390a67d257b3d613:0xb4ee022a322bb205!8m2!3d29.102134!4d79.0686974!16s%2Fg%2F11k9d8r98k!19sChIJE9azV9JnCjkRBbIrMioC7rQ?authuser=0&hl=en&rclk=1,"29.102134,79.06869739999999"
Masjid Hazrat Abubakar sidiq,Mosque,"JWJG+2M7 Masjid Hazrat Abubakar sidiq, Adigan Dewsar, 192233",,JWJG+2M7,Adigan Dewsar,,,IN,https://www.google.com/maps/place/Masjid+Hazrat+Abubakar+sidiq/data=!4m7!3m6!1s0x38e1ff0312967bc3:0x91ae3c27602b9493!8m2!3d33.6300432!4d74.9266646!16s%2Fg%2F11s9x_32tb!19sChIJw3uWEgP_4TgRk5QrYCc8rpE?authuser=0&hl=en&rclk=1,"33.630043199999996,74.9266646"
Sakir Kirana Store,General store,"Sakir Kirana Store, Near By Noori Masjid Mohanbat Nagar Suar, Road, Suar, Uttar Pradesh 244924",,"Near By Noori Masjid Mohanbat Nagar Suar, Road","Suar, Mohabbatnagar Suar",244924,Uttar Pradesh,IN,https://www.google.com/maps/place/Sakir+Kirana+Store/data=!4m7!3m6!1s0x390a6192352395e3:0x9ed5dafadf9e8fa0!8m2!3d29.0353215!4d79.0671095!16s%2Fg%2F11kj566jnm!19sChIJ45UjNZJhCjkRoI-e3_ra1Z4?authuser=0&hl=en&rclk=1,"29.0353215,79.0671095"
IMRAN PRESS SUAR,Print shop,"IMRAN PRESS SUAR, Bus Stand, Bazpur Road, near Masjid, Suar, Uttar Pradesh 244924",,"Bus Stand, Bazpur Road, near Masjid",Suar,244924,Uttar Pradesh,IN,https://www.google.com/maps/place/IMRAN+PRESS+SUAR/data=!4m7!3m6!1s0x390a61efe678cab9:0xb87f53cfafd81270!8m2!3d29.0247048!4d79.0561072!16s%2Fg%2F11h05v_tsf!19sChIJucp45u9hCjkRcBLYr89Tf7g?authuser=0&hl=en&rclk=1,"29.0247048,79.0561072"
Sahara Hospital,Hospital,"23F4+379 Sahara Hospital, Distt, near Naqase Masjid, Mohalla Chak, Suar, Uttar Pradesh 244924",Mohalla Chak,"23F4+379, Distt, near Naqase Masjid",Suar,,Uttar Pradesh,IN,https://www.google.com/maps/place/Sahara+Hospital/data=!4m7!3m6!1s0x390a619248e4a109:0x3db60f01e19a4105!8m2!3d29.0226518!4d79.05572!16s%2Fg%2F11j4w5lqf8!19sChIJCaHkSJJhCjkRBUGa4QEPtj0?authuser=0&hl=en&rclk=1,"29.0226518,79.05572"
Masjid,Mosque,"3G5M+6R Masjid, Chetia, Uttar Pradesh 271312",,3G5M+6R,Chetia,,Uttar Pradesh,IN,https://www.google.com/maps/place/Masjid/data=!4m7!3m6!1s0x39974b0c7188302d:0x10f6e8ae2944a7b6!8m2!3d27.0580661!4d82.5345198!16s%2Fg%2F11sw48gjcz!19sChIJLTCIcQxLlzkRtqdEKa7o9hA?authuser=0&hl=en&rclk=1,"27.058066099999998,82.5345198"
Masjid,Mosque,"H83H+29J Masjid, Sector 94, Noida, Uttar Pradesh 201303",Sector 94,H83H+29J,Noida,201303,Uttar Pradesh,IN,https://www.google.com/maps/place/Masjid/data=!4m7!3m6!1s0x390ce5523d4d368d:0xcf5974716566d4a3!8m2!3d28.5525905!4d77.3283803!16s%2Fg%2F11l6bhrqhb!19sChIJjTZNPVLlDDkRo9RmZXF0Wc8?authuser=0&hl=en&rclk=1,"28.552590499999997,77.32838029999999"
Masjid,Mosque,"Masjid, 94L, Adarsh Mohalla, Block P, Mayur Vihar, Delhi, 110091","Adarsh Mohalla, Block P, Mayur Vihar",94L,Delhi,110091,Delhi,IN,https://www.google.com/maps/place/Masjid/data=!4m7!3m6!1s0x390ce594aaf9a4ed:0x7705b6bd1214d779!8m2!3d28.6097585!4d77.2915521!16s%2Fg%2F11vdfgxvzr!19sChIJ7aT5qpTlDDkRedcUEr22BXc?authuser=0&hl=en&rclk=1,"28.609758499999998,77.29155209999999"
Ajhari masjid,Mosque,"Ajhari masjid, Payal colony, near, Chhat Ghat Rd, Yusufpur, Chhajarsi Colony, Noida, Yusufpur Chak Saberi, Uttar Pradesh 63","Yusufpur, Chhajarsi Colony","Payal colony, near, Chhat Ghat Rd","Noida, Yusufpur Chak Saberi",63,Uttar Pradesh,IN,https://www.google.com/maps/place/Ajhari+masjid/data=!4m7!3m6!1s0x390cef328699663f:0x95f0390f2ff1716f!8m2!3d28.6207817!4d77.4069492!16s%2Fg%2F11jzr256t3!19sChIJP2aZhjLvDDkRb3HxLw858JU?authuser=0&hl=en&rclk=1,"28.6207817,77.4069492"
Masjid,Mosque,"Shop No: 5035, Masjid, Netaji Subhash Marg, Daryaganj, New Delhi, Delhi, 110002",Daryaganj,"Shop No: 5035, Netaji Subhash Marg","New Delhi, Delhi",110002,Delhi,IN,https://www.google.com/maps/place/Masjid/data=!4m7!3m6!1s0x390cfdf175041b95:0x8ef57a2bc9f92c1c!8m2!3d28.6480954!4d77.2403964!16s%2Fg%2F11s664lvxh!19sChIJlRsEdfH9DDkRHCz5ySt69Y4?authuser=0&hl=en&rclk=1,"28.6480954,77.2403964"
Madina masjid,Mosque,"Ward number 3, Madina masjid, Chandni Chowk, sarul, Delhi, 110006",Chandni Chowk,Ward number 3,"sarul, Delhi",110006,Delhi,IN,https://www.google.com/maps/place/Madina+masjid/data=!4m7!3m6!1s0x390cfd765db7001b:0xc7c08a181a8d81db!8m2!3d28.6610779!4d77.2345881!16s%2Fg%2F11ry5dxrrg!19sChIJGwC3XXb9DDkR24GNGhiKwMc?authuser=0&hl=en&rclk=1,"28.6610779,77.2345881"
Ayesha Masjid,Mosque,"P24P+88C Ayesha Masjid, Mubarakpur Dabas, Delhi, 110081",Mubarakpur Dabas,P24P+88C,Delhi,110081,Delhi,IN,https://www.google.com/maps/place/Ayesha+Masjid/data=!4m7!3m6!1s0x390d07354cde6e7d:0x6bae5d379188b5da!8m2!3d28.7058081!4d77.035771!16s%2Fg%2F11jyvhq_yv!19sChIJfW7eTDUHDTkR2rWIkTddrms?authuser=0&hl=en&rclk=1,"28.7058081,77.035771"
Masjid,Mosque,"Masjid, 20, Masjid Rd, Pervesh Nagar, Mubarakpur Dabas, New Delhi, Delhi, 110081","Pervesh Nagar, Mubarakpur Dabas","20, Masjid Rd","New Delhi, Delhi",110081,Delhi,IN,https://www.google.com/maps/place/Masjid/data=!4m7!3m6!1s0x390d075632dea237:0xe707b406c4cff64!8m2!3d28.7098866!4d77.0310854!16s%2Fg%2F11kq2cq2_1!19sChIJN6LeMlYHDTkRZP9MbEB7cA4?authuser=0&hl=en&rclk=1,"28.709886599999997,77.0310854"
Masjid,Mosque,"J2WM+MXF Masjid, Sunni Masjid Rd, Deep Enclave, Hastsal, Delhi, 110059","Deep Enclave, Hastsal","J2WM+MXF, Sunni Masjid Rd",Delhi,110059,Delhi,IN,https://www.google.com/maps/place/Masjid/data=!4m7!3m6!1s0x390d05267bb46283:0xaef6f06f366d7113!8m2!3d28.6466834!4d77.0349292!16s%2Fg%2F11vl8tpxw1!19sChIJg2K0eyYFDTkRE3FtNm_w9q4?authuser=0&hl=en&rclk=1,"28.646683399999997,77.0349292"
Masjid,Mosque,"Masjid, I116, DSIIDC Industrial Area, Sector 5, Bawana, New Delhi, Delhi, 110039","DSIIDC Industrial Area, Sector 5, Bawana",I116,"New Delhi, Delhi",110039,Delhi,IN,https://www.google.com/maps/place/Masjid/data=!4m7!3m6!1s0x390da9cb278fea55:0x351e1b7ec09414c4!8m2!3d28.8011996!4d77.0752247!16s%2Fg%2F11vd9vydsd!19sChIJVeqPJ8upDTkRxBSUwH4bHjU?authuser=0&hl=en&rclk=1,"28.8011996,77.07522469999999"
Masjid,Mosque,"98PM+Q26 Masjid, Ishaqpur, Uttar Pradesh 243727",,98PM+Q26,Ishaqpur,243727,Uttar Pradesh,IN,https://www.google.com/maps/place/Masjid/data=!4m7!3m6!1s0x390b39492871701d:0x54138cc39c7d8ded!8m2!3d28.3869054!4d78.3325281!16s%2Fg%2F11khz6l8_x!19sChIJHXBxKEk5CzkR7Y19nMOME1Q?authuser=0&hl=en&rclk=1,"28.3869054,78.33252809999999"
Masjid,Mosque,"W4X5+C3X Masjid, Bazidpur, Haryana 122508",,W4X5+C3X,Bazidpur,,Haryana,IN,https://www.google.com/maps/place/Masjid/data=!4m7!3m6!1s0x3972d78636d1a3c5:0xee4f8d1680829d38!8m2!3d27.9486005!4d77.1077437!16s%2Fg%2F11k02z3y7b!19sChIJxaPRNobXcjkROJ2CgBaNT-4?authuser=0&hl=en&rclk=1,"27.948600499999998,77.1077437"
Moti masjid,Education center,"23G7+8F8 Moti masjid, Suar, Uttar Pradesh 244924",,23G7+8F8,Suar,244924,Uttar Pradesh,IN,https://www.google.com/maps/place/Moti+masjid/data=!4m7!3m6!1s0x390a6133846085e3:0x83c384eff69adc0a!8m2!3d29.0257961!4d79.063695!16s%2Fg%2F11ssqcb33_!19sChIJ44VghDNhCjkRCtya9u-Ew4M?authuser=0&hl=en&rclk=1,"29.025796099999997,79.063695"
Masjid e Mustafa aglaga,Apartment complex,"23F6+RP4 Masjid e Mustafa aglaga, Suar, Uttar Pradesh 244924",,23F6+RP4,Suar,244924,Uttar Pradesh,IN,https://www.google.com/maps/place/Masjid+e+Mustafa+aglaga/data=!4m7!3m6!1s0x390a61740b462e19:0x75c24af554a265a5!8m2!3d29.0245013!4d79.0618149!16s%2Fg%2F11vkc9rc8p!19sChIJGS5GC3RhCjkRpWWiVPVKwnU?authuser=0&hl=en&rclk=1,"29.024501299999997,79.0618149"
Masjid,Mosque,"Masjid, babibul uloom, Madarsa, Khulawali",,"babibul uloom, Madarsa",Khulawali,,Uttar Pradesh,IN,https://www.google.com/maps/place/Masjid/data=!4m7!3m6!1s0x3974c52a8304caad:0x1bb18e31063a95f3!8m2!3d27.9184094!4d78.4419101!16s%2Fg%2F11q40fx55r!19sChIJrcoEgyrFdDkR85U6BjGOsRs?authuser=0&hl=en&rclk=1,"27.918409399999998,78.4419101"
DammamMadeenaasjid,Religious destination,"X3Q6+47W DammamMadeenaasjid, Rustamnagar Road, Chappara, Suar, Uttar Pradesh 244924",,"X3Q6+47W, Rustamnagar Road, Chappara","Suar, Rustam Nagar Chhaparra",244924,Uttar Pradesh,IN,https://www.google.com/maps/place/DammamMadeenaasjid/data=!4m7!3m6!1s0x390a61e74819ca49:0x27dd52c1b490efa5!8m2!3d28.9878502!4d79.0607135!16s%2Fg%2F11rcn46mwv!19sChIJScoZSOdhCjkRpe-QtMFS3Sc?authuser=0&hl=en&rclk=1,"28.9878502,79.06071349999999"
Masjid,Mosque,"FC27+Q98 Masjid, Latoori, Uttar Pradesh 243202",,FC27+Q98,Latoori,243202,Uttar Pradesh,IN,https://www.google.com/maps/place/Masjid/data=!4m7!3m6!1s0x39a009fcc188c41f:0x6f8f624ff96bdb39!8m2!3d28.4517457!4d79.4135966!16s%2Fg%2F11v0wnnghz!19sChIJH8SIwfwJoDkROdtr-U9ij28?authuser=0&hl=en&rclk=1,"28.4517457,79.41359659999999"
Jama masjid,Apartment building,"WXJ9+FX2 Jama masjid, Sahria Jawahar, Uttar Pradesh 244925",,WXJ9+FX2,Sahria Jawahar,244925,Uttar Pradesh,IN,https://www.google.com/maps/place/Jama+masjid/data=!4m7!3m6!1s0x390af5b013a121c1:0x6e165b2ca94d9576!8m2!3d28.9311454!4d78.9699002!16s%2Fg%2F11kq3cq7hy!19sChIJwSGhE7D1CjkRdpVNqSxbFm4?authuser=0&hl=en&rclk=1,"28.9311454,78.9699002"
Markaz Masjid Reusa,Mosque,"J5QW+XR Markaz Masjid Reusa, Sawkhera, Uttar Pradesh 261205",,J5QW+XR,Sawkhera,,Uttar Pradesh,IN,https://www.google.com/maps/place/Markaz+Masjid+Reusa/data=!4m7!3m6!1s0x39991fcaa917ddb3:0xd5d88664dd0733d5!8m2!3d27.639979!4d81.1971198!16s%2Fg%2F11shlft1b8!19sChIJs90XqcofmTkR1TMH3WSG2NU?authuser=0&hl=en&rclk=1,"27.639979,81.1971198"
Sonakpur,,"Sonakpur, Uttar Pradesh 244924",,,Sonakpur,,Uttar Pradesh,IN,https://www.google.com/maps/place/Sonakpur/data=!4m7!3m6!1s0x390a8a99ac8991e7:0xcbe0cb126c879c0a!8m2!3d28.9601413!4d79.0390799!16s%2Fg%2F12hszwg9p!19sChIJ55GJrJmKCjkRCpyHbBLL4Ms?authuser=0&hl=en&rclk=1,"28.9601413,79.03907989999999"
Primary school and masjid,Primary school,"X488+5QM Primary school and masjid, Bizda, Suar, Rajpura Suar, Uttar Pradesh 244924",Bizda,X488+5QM,"Suar, Rajpura Suar",244924,Uttar Pradesh,IN,https://www.google.com/maps/place/Primary+school+and+masjid/data=!4m7!3m6!1s0x390a895dec988f9d:0x3984824a7c4037e2!8m2!3d28.9654587!4d79.1169138!16s%2Fg%2F11n0zb1wsj!19sChIJnY-Y7F2JCjkR4jdAfEqChDk?authuser=0&hl=en&rclk=1,"28.9654587,79.11691379999999"
Masjid,Mosque,"7WXH+V37 Masjid, Naurangabad, Nauranga Bad, Uttar Pradesh 262905",,7WXH+V37,"Naurangabad, Nauranga Bad",,Uttar Pradesh,IN,https://www.google.com/maps/place/Masjid/data=!4m7!3m6!1s0x3998a9a959bf21e3:0xa9bb50d7a78036c2!8m2!3d28.2996593!4d80.9276872!16s%2Fg%2F11v19gfwvy!19sChIJ4yG_WampmDkRwjaAp9dQu6k?authuser=0&hl=en&rclk=1,"28.2996593,80.9276872"
Azim Nagar,,"Azim Nagar, Uttar Pradesh 244924",,,Azim Nagar,,Uttar Pradesh,IN,https://www.google.com/maps/place/Azim+Nagar/data=!4m7!3m6!1s0x390a8a85c788e099:0xba8bb2c9751b225b!8m2!3d28.955782!4d79.0560311!16s%2Fg%2F12hqyn1fj!19sChIJmeCIx4WKCjkRWyIbdcmyi7o?authuser=0&hl=en&rclk=1,"28.955782,79.0560311"
Masjid Usmab,Mosque,"Q4M5+6P7 Masjid Usmab, Degwar maldyana",,"Q4M5+6P7, Degwar maldyana",,,,IN,https://www.google.com/maps/place/Masjid+Usmab/data=!4m7!3m6!1s0x38e0379b0df64a9b:0x8e4106cde14ff588!8m2!3d33.7830361!4d74.1092861!16s%2Fg%2F11s_xvf6_c!19sChIJm0r2DZs34DgRiPVP4c0GQY4?authuser=0&hl=en&rclk=1,"33.7830361,74.10928609999999"
Masjid,Mosque,"4QCG+J2 Masjid, Dera, Uttar Pradesh 212106",,4QCG+J2,Dera,,Uttar Pradesh,IN,https://www.google.com/maps/place/Masjid/data=!4m7!3m6!1s0x39853d982acbfacf:0x39ae148a284ad5b5!8m2!3d25.1215748!4d81.7750238!16s%2Fg%2F11kqfph83h!19sChIJz_rLKpg9hTkRtdVKKIoUrjk?authuser=0&hl=en&rclk=1,"25.121574799999998,81.7750238"
Qureshi General Store,General store,"Qureshi General Store, Mohalla Rasoolpur Suar, near by Do Masjid, Rampur, Uttar Pradesh 244924",,"Mohalla Rasoolpur Suar, near by Do Masjid","Rampur, Suar",244924,Uttar Pradesh,IN,https://www.google.com/maps/place/Qureshi+General+Store/data=!4m7!3m6!1s0x390a61d5f0db4875:0x5cafe46bbd90308e!8m2!3d29.0267506!4d79.0612192!16s%2Fg%2F11k4svz24v!19sChIJdUjb8NVhCjkRjjCQvWvkr1w?authuser=0&hl=en&rclk=1,"29.0267506,79.0612192"
Milak Asad Khan,,"Milak Asad Khan, Uttar Pradesh 244924",,,Milak Asad Khan,,Uttar Pradesh,IN,https://www.google.com/maps/place/Milak+Asad+Khan/data=!4m7!3m6!1s0x390a61d2904279bb:0x670f00a283d5f4f8!8m2!3d28.9810241!4d79.0659179!16s%2Fg%2F12hl39_vt!19sChIJu3lCkNJhCjkR-PTVg6IAD2c?authuser=0&hl=en&rclk=1,"28.9810241,79.0659179"
Aglaga,,"Aglaga, Uttar Pradesh 244924",,,Aglaga,,Uttar Pradesh,IN,https://www.google.com/maps/place/Aglaga/data=!4m7!3m6!1s0x390a61aa3a70f0bf:0xd5a97485b4d666bc!8m2!3d29.0141898!4d79.0673302!16s%2Fg%2F12hsbqmpn!19sChIJv_BwOqphCjkRvGbWtIV0qdU?authuser=0&hl=en&rclk=1,"29.014189799999997,79.0673302"
Hamirpur,,"Hamirpur, Uttar Pradesh 244924",,,Hamirpur,,Uttar Pradesh,IN,https://www.google.com/maps/place/Hamirpur/data=!4m7!3m6!1s0x390a6242f8c5971d:0xb902205f691b20dd!8m2!3d29.0044912!4d79.1421533!16s%2Fg%2F12hrw55g5!19sChIJHZfF-EJiCjkR3SAbaV8gArk?authuser=0&hl=en&rclk=1,"29.0044912,79.14215329999999"
Imran Kirana Store,Dairy store,"Imran Kirana Store, Rampur Road, near Jama Masjid, Suar, Uttar Pradesh 244924",,"Rampur Road, near Jama Masjid",Suar,244924,Uttar Pradesh,IN,https://www.google.com/maps/place/Imran+Kirana+Store/data=!4m7!3m6!1s0x390a6155c9f82859:0x28aaa753afdf1f21!8m2!3d29.0234199!4d79.0555992!16s%2Fg%2F11l32byqdz!19sChIJWSj4yVVhCjkRIR_fr1Onqig?authuser=0&hl=en&rclk=1,"29.0234199,79.0555992"
Zoya Communication Delhi Wale,Cell phone store,"Zoya Communication Delhi Wale, Swar Adde Wali Masjid, Uttar Pradesh 244924",,Swar Adde Wali Masjid,Suar,244924,Uttar Pradesh,IN,https://www.google.com/maps/place/Zoya+Communication+Delhi+Wale/data=!4m7!3m6!1s0x390a61d97b686c55:0x3cf8068484aac474!8m2!3d29.0280357!4d79.0585707!16s%2Fg%2F11t2cg1y8r!19sChIJVWxoe9lhCjkRdMSqhIQG-Dw?authuser=0&hl=en&rclk=1,"29.0280357,79.05857069999999"
M A Khawaja Medical Store,Doctor,"M A Khawaja Medical Store, Mohalla Chak Suar, near by Noori Masjid, Rampur, Uttar Pradesh 244924",,"Mohalla Chak Suar, near by Noori Masjid","Rampur, Suar",244924,Uttar Pradesh,IN,https://www.google.com/maps/place/M+A+Khawaja+Medical+Store/data=!4m7!3m6!1s0x390a6179405cd4dd:0x7398e74e9638798e!8m2!3d29.0303212!4d79.0516171!16s%2Fg%2F11tg6sy13h!19sChIJ3dRcQHlhCjkRjnk4lk7nmHM?authuser=0&hl=en&rclk=1,"29.0303212,79.0516171"
Ali Kirana Shop,General store,"Ali Kirana Shop, Mohalla Chak Suar Wad No 8, near by Matru Kha Ki Masjid, Chak, Uttar Pradesh 244924",,"Mohalla Chak Suar Wad No 8, near by Matru Kha Ki Masjid","Chak, Suar",244924,Uttar Pradesh,IN,https://www.google.com/maps/place/Ali+Kirana+Shop/data=!4m7!3m6!1s0x390a617f383c2047:0xde987844943f7ae6!8m2!3d29.0246589!4d79.0541609!16s%2Fg%2F11tx7srs2z!19sChIJRyA8OH9hCjkR5no_lER4mN4?authuser=0&hl=en&rclk=1,"29.0246589,79.0541609"
Madarsa Arabiya Ziyaululoom,School,"W2MF+32P Madarsa Arabiya Ziyaululoom, Chandpur, Suar, Uttar Pradesh 244924",,"W2MF+32P, Chandpur","Suar, Pasiapura",244924,Uttar Pradesh,IN,https://www.google.com/maps/place/Madarsa+Arabiya+Ziyaululoom/data=!4m7!3m6!1s0x390a8b76ba9b0459:0x1685aa625eb1573d!8m2!3d28.93272!4d79.022578!16s%2Fg%2F11h38fzhmg!19sChIJWQSbunaLCjkRPVexXmKqhRY?authuser=0&hl=en&rclk=1,"28.93272,79.022578"
ARIF ELECTRONICS,Electronics repair shop,"ARIF ELECTRONICS, Swar, near Jamq Masjid, Uttar Pradesh 244924",,"Swar, near Jamq Masjid",Suar,244924,Uttar Pradesh,IN,https://www.google.com/maps/place/ARIF+ELECTRONICS/data=!4m7!3m6!1s0x390a610384c65379:0x7acf1262340a32c5!8m2!3d29.0278869!4d79.0546859!16s%2Fg%2F11t256b7yz!19sChIJeVPGhANhCjkRxTIKNGISz3o?authuser=0&hl=en&rclk=1,"29.0278869,79.0546859"
