name,main_category,address,address_ward,address_street,address_city,address_postal_code,address_state,address_country_code,link,coordinates
lohrajot masjid,Mosque,"4X9M+GFC lohrajot masjid, Katra - Gonda Rd, Uttar Pradesh 271003",,"4X9M+GFC, Katra - Gonda Rd",,271003,Uttar Pradesh,IN,https://www.google.com/maps/place/lohrajot+masjid/data=!4m7!3m6!1s0x3999f1c51b4510d1:0xfbc550f25ba27b05!8m2!3d27.1188086!4d81.983649!16s%2Fg%2F11b769fx91!19sChIJ0RBFG8XxmTkRBXuiW_JQxfs?authuser=0&hl=en&rclk=1,"27.118808599999998,81.983649"
Raza Masjid Khairabag,Mosque,"Raza Masjid Khairabag, khairabag Raza Masjid, Semra Damman, Gonda, Uttar Pradesh 271002",Semra Damman,khairabag Raza Masjid,Gonda,271002,Uttar Pradesh,IN,https://www.google.com/maps/place/Raza+Masjid+Khairabag/data=!4m7!3m6!1s0x3999ef1cc77d5a5f:0xb7ced0fdf0cdd9d5!8m2!3d27.1626501!4d81.9704653!16s%2Fg%2F11g0tp1f52!19sChIJX1p9xxzvmTkR1dnN8P3Qzrc?authuser=0&hl=en&rclk=1,"27.1626501,81.9704653"
Masjid Ansariyan (Umer faroq),Mosque,"Masjid Ansariyan (Umer faroq), Khaira, Gonda, Uttar Pradesh 271001",Khaira,,Gonda,271001,Uttar Pradesh,IN,https://www.google.com/maps/place/Masjid+Ansariyan+%28Umer+faroq%29/data=!4m7!3m6!1s0x3999ef8a72d5324d:0x60e4fdc80be900ba!8m2!3d27.1350205!4d81.9695518!16s%2Fg%2F11g__s8kzx!19sChIJTTLVcorvmTkRugDpC8j95GA?authuser=0&hl=en&rclk=1,"27.1350205,81.96955179999999"
Furqania Masjid,Mosque,"4XG6+6V2 Furqania Masjid, Jhanjhari Block, Gonda, Uttar Pradesh 271003",Jhanjhari Block,4XG6+6V2,Gonda,271003,Uttar Pradesh,IN,https://www.google.com/maps/place/Furqania+Masjid/data=!4m7!3m6!1s0x3999f1fb7d91aeb3:0x345201077359955c!8m2!3d27.1255004!4d81.9621317!16s%2Fg%2F11f37d7qx9!19sChIJs66RffvxmTkRXJVZcwcBUjQ?authuser=0&hl=en&rclk=1,"27.1255004,81.9621317"
Maniharan Markaz Masjid,Mosque,"4XH8+X9G Maniharan Markaz Masjid, Malviya Nagar, Jhanjhari Block, Gonda, Uttar Pradesh 271001","Malviya Nagar, Jhanjhari Block",4XH8+X9G,Gonda,271001,Uttar Pradesh,IN,https://www.google.com/maps/place/Maniharan+Markaz+Masjid/data=!4m7!3m6!1s0x3999f1e2e961445f:0xa6fc4f82ca0a9fb2!8m2!3d27.1299417!4d81.965968!16s%2Fg%2F1pzvzb7s_!19sChIJX0Rh6eLxmTkRsp8KyoJP_KY?authuser=0&hl=en&rclk=1,"27.1299417,81.96596799999999"
Chawani Masjid,Mosque,"4XFC+XQ7 Chawani Masjid, Jhanjhari Block, Gonda, Uttar Pradesh 271123",Jhanjhari Block,4XFC+XQ7,Gonda,271123,Uttar Pradesh,IN,https://www.google.com/maps/place/Chawani+Masjid/data=!4m7!3m6!1s0x3999f1e6dcfe2e29:0x423de938c866219b!8m2!3d27.1249164!4d81.971909!16s%2Fg%2F11ddx428d4!19sChIJKS7-3ObxmTkRmyFmyDjpPUI?authuser=0&hl=en&rclk=1,"27.1249164,81.971909"
Juma Masjid Mewatiyan,Mosque,"4XF7+VGF Juma Masjid Mewatiyan, Mewatiyan, near Furkaniya madarsa, Uttar Pradesh 271001",Jhanjhari Block,"4XF7+VGF, Mewatiyan, near Furkaniya madarsa",Gonda,271001,Uttar Pradesh,IN,https://www.google.com/maps/place/Juma+Masjid+Mewatiyan/data=!4m7!3m6!1s0x3999f1fb4f3fdf4d:0x9808030ed38d8d77!8m2!3d27.124695!4d81.9637946!16s%2Fg%2F1pzw39ffz!19sChIJTd8_T_vxmTkRd42N0w4DCJg?authuser=0&hl=en&rclk=1,"27.124695,81.9637946"
Ek Minarah Masjid Naseem Bagh,Mosque,"4XG2+VPP Ek Minarah Masjid Naseem Bagh, Gaytree Puram Colony, Jhanjhari Block, Gonda, Uttar Pradesh 271003","Gaytree Puram Colony, Jhanjhari Block",4XG2+VPP,Gonda,271003,Uttar Pradesh,IN,https://www.google.com/maps/place/Ek+Minarah+Masjid+Naseem+Bagh/data=!4m7!3m6!1s0x3999f2019892a153:0x40968289bfc8e94f!8m2!3d27.1272234!4d81.9518418!16s%2Fg%2F11bw7cvq2j!19sChIJU6GSmAHymTkRT-nIv4mClkA?authuser=0&hl=en&rclk=1,"27.1272234,81.9518418"
Rahmaniya Masjid sahab ganj,Mosque,"5X2C+H2X Rahmaniya Masjid sahab ganj, Maharaniganj, Veer Pur, Gonda, Uttar Pradesh 271002","Maharaniganj, Veer Pur",5X2C+H2X,Gonda,271002,Uttar Pradesh,IN,https://www.google.com/maps/place/Rahmaniya+Masjid+sahab+ganj/data=!4m7!3m6!1s0x3999ee13f5ace37f:0xc91a33f17eaa598a!8m2!3d27.151485!4d81.9701089!16s%2Fg%2F11hbppx1bw!19sChIJf-Os9RPumTkRilmqfvEzGsk?authuser=0&hl=en&rclk=1,"27.151484999999997,81.9701089"
Jigar Masjid,Mosque,"4XFF+3R5 Jigar Masjid, Jhanjhari Block, Gonda, Uttar Pradesh 271123",Jhanjhari Block,4XFF+3R5,Gonda,271123,Uttar Pradesh,IN,https://www.google.com/maps/place/Jigar+Masjid/data=!4m7!3m6!1s0x3999f1e79aaecbf3:0x9a60be7151eb53dc!8m2!3d27.1226283!4d81.9746173!16s%2Fg%2F11c52_p0fb!19sChIJ88uumufxmTkR3FPrUXG-YJo?authuser=0&hl=en&rclk=1,"27.1226283,81.97461729999999"
Khujur Wali Masjid Mewatiyan,Mosque,"4XF7+VWQ Khujur Wali Masjid Mewatiyan, Mewatiyan, Gonda, Uttar Pradesh 271001",Mewatiyan,4XF7+VWQ,Gonda,271001,Uttar Pradesh,IN,https://www.google.com/maps/place/Khujur+Wali+Masjid+Mewatiyan/data=!4m7!3m6!1s0x3999f1e4b6cf6887:0x93f83b5ab5c6a4bb!8m2!3d27.124712!4d81.9648732!16s%2Fg%2F1pzwqptg2!19sChIJh2jPtuTxmTkRu6TGtVo7-JM?authuser=0&hl=en&rclk=1,"27.124712,81.9648732"
Chistipur Masjid,Mosque,"32JJ+2MQ Chistipur Masjid, chistipur, Faizabad Rd, Gonda",,"32JJ+2MQ, chistipur, Faizabad Rd","Gonda, Khorsha",,Uttar Pradesh,IN,https://www.google.com/maps/place/Chistipur+Masjid/data=!4m7!3m6!1s0x3999f085a648dfd7:0xac3ae34344c2c4c0!8m2!3d27.0800894!4d82.0317209!16s%2Fg%2F11f4m9t2mk!19sChIJ199IpoXwmTkRwMTCREPjOqw?authuser=0&hl=en&rclk=1,"27.0800894,82.0317209"
Madarsa Sadrul Uloom,Mosque,"5X5C+FRG Madarsa Sadrul Uloom, Relwe masjid, Bargaon, Semra Damman, Gonda, Uttar Pradesh 271002","Bargaon, Semra Damman",5X5C+FRG Relwe masjid,Gonda,271002,Uttar Pradesh,IN,https://www.google.com/maps/place/Madarsa+Sadrul+Uloom/data=!4m7!3m6!1s0x3999ee6ba94aa5af:0x9e277c2844d42bc9!8m2!3d27.1586797!4d81.9720817!16s%2Fg%2F11g6mxrm_9!19sChIJr6VKqWvumTkRySvURCh8J54?authuser=0&hl=en&rclk=1,"27.1586797,81.97208169999999"
Masjid Kareem Shah,Mosque,"4XG6+384 Masjid Kareem Shah, New Colony, Mewatiyan, Gonda, Uttar Pradesh 271001","New Colony, Mewatiyan",4XG6+384,Gonda,271001,Uttar Pradesh,IN,https://www.google.com/maps/place/Masjid+Kareem+Shah/data=!4m7!3m6!1s0x3999f1fb8f3306f5:0x621d467575574fb6!8m2!3d27.1251265!4d81.9608184!16s%2Fg%2F1pzxbbbl5!19sChIJ9QYzj_vxmTkRtk9XdXVGHWI?authuser=0&hl=en&rclk=1,"27.1251265,81.9608184"
Old takiya Masjid,Mosque,"Old takiya Masjid, 271002, Station Rd, Ghosiyana, Barabanki, Uttar Pradesh 225001","Ghosiyana, Khaira","271002, Station Rd","Barabanki, Gonda",225001,Uttar Pradesh,IN,https://www.google.com/maps/place/Old+takiya+Masjid/data=!4m7!3m6!1s0x3999ee11317197d7:0x2c82314f0d8d35c9!8m2!3d27.1480643!4d81.9698765!16s%2Fg%2F11fzsqjvlk!19sChIJ15dxMRHumTkRyTWNDU8xgiw?authuser=0&hl=en&rclk=1,"27.148064299999998,81.9698765"
Masjid e Mohammadi,Mosque,"4XMC+FPR Masjid e Mohammadi, Gonda - Utraula Rd, Raja Mohalla, Khaira, Gonda, Uttar Pradesh 271001","Raja Mohalla, Khaira","4XMC+FPR, Gonda - Utraula Rd",Gonda,271001,Uttar Pradesh,IN,https://www.google.com/maps/place/Masjid+e+Mohammadi/data=!4m7!3m6!1s0x3999ee1e4679cccf:0x7ea2e4ad5269ce5b!8m2!3d27.1337398!4d81.9717584!16s%2Fg%2F11f3_wv639!19sChIJz8x5Rh7umTkRW85pUq3kon4?authuser=0&hl=en&rclk=1,"27.133739799999997,81.9717584"
Masjid-e-Shams,Mosque,"Masjid-e-Shams, Jhanjhari Block, Gonda, Uttar Pradesh 271003",Jhanjhari Block,,Gonda,271003,Uttar Pradesh,IN,https://www.google.com/maps/place/Masjid-e-Shams/data=!4m7!3m6!1s0x3999f1f92883069d:0x8be0ccf6b575b274!8m2!3d27.1244434!4d81.9564851!16s%2Fg%2F11c5wn4jwy!19sChIJnQaDKPnxmTkRdLJ1tfbM4Is?authuser=0&hl=en&rclk=1,"27.1244434,81.9564851"
Masjid Nidaye-ya-rasool Allah,Mosque,"4X8H+CWP Masjid Nidaye-ya-rasool Allah, Faizabad Rd, Gonda, Uttar Pradesh 271123",,"4X8H+CWP, Faizabad Rd",Gonda,,Uttar Pradesh,IN,https://www.google.com/maps/place/Masjid+Nidaye-ya-rasool+Allah/data=!4m7!3m6!1s0x3999f1a28c560c23:0x3c90bbbc56c16092!8m2!3d27.1160806!4d81.9798134!16s%2Fg%2F11f6k5qmbt!19sChIJIwxWjKLxmTkRkmDBVry7kDw?authuser=0&hl=en&rclk=1,"27.1160806,81.9798134"
Salarpurwa Masjid,Mosque,"4X7W+RWW Salarpurwa Masjid, Ummed Jot, Amdad Para, Uttar Pradesh 271123",,4X7W+RWW,"Ummed Jot, Amdad Para",271123,Uttar Pradesh,IN,https://www.google.com/maps/place/Salarpurwa+Masjid/data=!4m7!3m6!1s0x3999f034b452ad3b:0x7c4a35dd732bab44!8m2!3d27.1146167!4d81.9973216!16s%2Fg%2F11gd_pw6xj!19sChIJO61StDTwmTkRRKsrc901Snw?authuser=0&hl=en&rclk=1,"27.1146167,81.99732159999999"
Masjid-e-Raza,Mosque,"4XXC+GQM Masjid-e-Raza, Maharaniganj, Khaira, Gonda, Uttar Pradesh 271002","Maharaniganj, Khaira",4XXC+GQM,Gonda,,Uttar Pradesh,IN,https://www.google.com/maps/place/Masjid-e-Raza/data=!4m7!3m6!1s0x3999ef76de20129d:0x1dbbccd05f60e00e!8m2!3d27.1488369!4d81.9719149!16s%2Fg%2F11h27y86_4!19sChIJnRIg3nbvmTkRDuBgX9DMux0?authuser=0&hl=en&rclk=1,"27.1488369,81.9719149"
Mosque,Mosque,"4WGQ+RJG Mosque, Housing Colony, Gonda, Uttar Pradesh 271001",Housing Colony,4WGQ+RJG,Gonda,271001,Uttar Pradesh,IN,https://www.google.com/maps/place/Mosque/data=!4m7!3m6!1s0x3999f20908111041:0xb056492cfbdf2b90!8m2!3d27.1270673!4d81.939068!16s%2Fg%2F1hm2f6s04!19sChIJQRARCAnymTkRkCvf-yxJVrA?authuser=0&hl=en&rclk=1,"27.1270673,81.93906799999999"
"Ghosiyana Maszid, Keshavpur Pahadva",Mosque,"4WRP+WC3 Ghosiyana Maszid, Keshavpur Pahadva, Keswapur Pahrwa, Uttar Pradesh 271003",,4WRP+WC3,Keswapur Pahrwa,,Uttar Pradesh,IN,"https://www.google.com/maps/place/Ghosiyana+Maszid,+Keshavpur+Pahadva/data=!4m7!3m6!1s0x3999ededf2184f0b:0xeae5d0348a4cdc11!8m2!3d27.1422608!4d81.9360328!16s%2Fg%2F11hcnbczsp!19sChIJC08Y8u3tmTkREdxMijTQ5eo?authuser=0&hl=en&rclk=1","27.1422608,81.93603279999999"
FAIZAN E MADINA GONDA,Mosque,"4XQ8+5H4 FAIZAN E MADINA GONDA, Bharatpuri, Gonda, Uttar Pradesh 271001",Bharatpuri,4XQ8+5H4,Gonda,271001,Uttar Pradesh,IN,https://www.google.com/maps/place/FAIZAN+E+MADINA+GONDA/data=!4m7!3m6!1s0x3999ef10a0a9f785:0x7f6649f2049cd735!8m2!3d27.1378929!4d81.9664611!16s%2Fg%2F11h04nbkc7!19sChIJhfepoBDvmTkRNdecBPJJZn8?authuser=0&hl=en&rclk=1,"27.137892899999997,81.96646109999999"
Bilal Masjid Malyana,Mosque,"4XJ9+G88 Bilal Masjid Malyana, Raja Mohalla, Khaira, Gonda, Uttar Pradesh 271003","Raja Mohalla, Khaira",4XJ9+G88,Gonda,271003,Uttar Pradesh,IN,https://www.google.com/maps/place/Bilal+Masjid+Malyana/data=!4m7!3m6!1s0x3999f1e2730f1777:0xaa5b9d10014d274f!8m2!3d27.1312861!4d81.9683222!16s%2Fg%2F11f3xjjvpr!19sChIJdxcPc-LxmTkRTydNARCdW6o?authuser=0&hl=en&rclk=1,"27.1312861,81.9683222"
Sunni Meenaiya Masjid,Mosque,"4XPC+XRQ Sunni Meenaiya Masjid, Bharatpuri, Gonda, Uttar Pradesh 271001",Bharatpuri,4XPC+XRQ,Gonda,271001,Uttar Pradesh,IN,https://www.google.com/maps/place/Sunni+Meenaiya+Masjid/data=!4m7!3m6!1s0x3999ef258c561479:0xa69fb9816b66b7f8!8m2!3d27.1374588!4d81.9720938!16s%2Fg%2F11gr2ff26f!19sChIJeRRWjCXvmTkR-Ldma4G5n6Y?authuser=0&hl=en&rclk=1,"27.137458799999997,81.9720938"
Noori Masjid,Mosque,"4X82+65J Noori Masjid, Chavani Sarkar, Uttar Pradesh 271001",,4X82+65J,Chavani Sarkar,271001,Uttar Pradesh,IN,https://www.google.com/maps/place/Noori+Masjid/data=!4m7!3m6!1s0x3999f3d8e84b90b1:0x2037b1fdb02ce6c7!8m2!3d27.1155929!4d81.9503823!16s%2Fg%2F11gxt1v9vy!19sChIJsZBL6NjzmTkRx-YssP2xNyA?authuser=0&hl=en&rclk=1,"27.1155929,81.9503823"
Jama Masjid Kachehri Gonda City,Mosque,"4WGQ+RMJ Jama Masjid Kachehri Gonda City, Housing Colony, Gonda, Uttar Pradesh 271003",Housing Colony,4WGQ+RMJ,Gonda,271003,Uttar Pradesh,IN,https://www.google.com/maps/place/Jama+Masjid+Kachehri+Gonda+City/data=!4m7!3m6!1s0x3999f366c275c7cd:0xb8aa3f7bad3ceb4a!8m2!3d27.1270891!4d81.9391502!16s%2Fg%2F11h56mzz9y!19sChIJzcd1wmbzmTkRSus8rXs_qrg?authuser=0&hl=en&rclk=1,"27.1270891,81.9391502"
Tumandaar Masjid,Mosque,"4XH8+PQG Tumandaar Masjid, Katra - Gonda Rd, Jhanjhari Block, Gonda, Uttar Pradesh 271001",Jhanjhari Block,"4XH8+PQG, Katra - Gonda Rd",Gonda,271001,Uttar Pradesh,IN,https://www.google.com/maps/place/Tumandaar+Masjid/data=!4m7!3m6!1s0x3999f1e2f901bf11:0xe23670e86f82650!8m2!3d27.1293112!4d81.9669633!16s%2Fg%2F1pzwxvf1g!19sChIJEb8B-eLxmTkRUCb4hg5nIw4?authuser=0&hl=en&rclk=1,"27.1293112,81.9669633"
Anwar-e-Mahmoodia Masjid,Mosque,"4XC6+Q9F Anwar-e-Mahmoodia Masjid, New Colony, Mewatiyan, Gonda, Uttar Pradesh 271001","New Colony, Mewatiyan",4XC6+Q9F,Gonda,271001,Uttar Pradesh,IN,https://www.google.com/maps/place/Anwar-e-Mahmoodia+Masjid/data=!4m7!3m6!1s0x3999f1fa4fda3b2d:0xab3937620cc139c9!8m2!3d27.1219493!4d81.9609076!16s%2Fg%2F1pzq601nk!19sChIJLTvaT_rxmTkRyTnBDGI3Oas?authuser=0&hl=en&rclk=1,"27.121949299999997,81.9609076"
Karbala & Sunni Kabrastan,Mosque,"4XPF+P37 Karbala & Sunni Kabrastan, Bharatpuri, Gonda, Uttar Pradesh 271001",Bharatpuri,4XPF+P37,Gonda,271001,Uttar Pradesh,IN,https://www.google.com/maps/place/Karbala+%26+Sunni+Kabrastan/data=!4m7!3m6!1s0x3999ef2e08d5ea09:0x6d4df192bf4c62fb!8m2!3d27.1367797!4d81.9726594!16s%2Fg%2F11flgfzgkg!19sChIJCerVCC7vmTkR-2JMv5LxTW0?authuser=0&hl=en&rclk=1,"27.136779699999998,81.9726594"
MASJID,Mosque,"MASJID, Unnamed Road, Khaira, Gonda, Uttar Pradesh 271003",Khaira,Unnamed Road,Gonda,271003,Uttar Pradesh,IN,https://www.google.com/maps/place/MASJID/data=!4m7!3m6!1s0x3999efd10ec1cb11:0xa6de16f5a200a572!8m2!3d27.1333997!4d81.9676742!16s%2Fg%2F11hz_39w8q!19sChIJEcvBDtHvmTkRcqUAovUW3qY?authuser=0&hl=en&rclk=1,"27.1333997,81.96767419999999"
Masjid-e-Hazrat Umar Farooq R.A.,Mosque,"4X9J+679 Masjid-e-Hazrat Umar Farooq R.A., Muslim, Society Colony, Gonda, Uttar Pradesh 271123",Society Colony,"4X9J+679, Muslim",Gonda,271123,Uttar Pradesh,IN,https://www.google.com/maps/place/Masjid-e-Hazrat+Umar+Farooq+R.A./data=!4m7!3m6!1s0x3999f1c37fb4d6e1:0xf23069863a3aa910!8m2!3d27.1180468!4d81.9807449!16s%2Fg%2F11f_4s77l5!19sChIJ4da0f8PxmTkREKk6OoZpMPI?authuser=0&hl=en&rclk=1,"27.1180468,81.98074489999999"
msjid mliipurvaa dhnauNlii utraulaa rodd gonnddaa,Mosque,"42X3+V5G msjid mliipurvaa dhnauNlii utraulaa rodd gonnddaa, Sekhapur, Uttar Pradesh 271002",,42X3+V5G,Sekhapur,,Uttar Pradesh,IN,https://www.google.com/maps/place/%E0%A4%AE%E0%A4%B8%E0%A5%8D%E0%A4%9C%E0%A4%BF%E0%A4%A6+%E0%A4%AE%E0%A4%B2%E0%A5%80%E0%A4%AA%E0%A5%81%E0%A4%B0%E0%A4%B5%E0%A4%BE+%E0%A4%A7%E0%A4%A8%E0%A5%8C%E0%A4%82%E0%A4%B2%E0%A5%80+%E0%A4%89%E0%A4%A4%E0%A4%B0%E0%A5%8C%E0%A4%B2%E0%A4%BE+%E0%A4%B0%E0%A5%8B%E0%A4%A1+%E0%A4%97%E0%A5%8B%E0%A4%A3%E0%A5%8D%E0%A4%A1%E0%A4%BE/data=!4m7!3m6!1s0x3999efce98d3a539:0x4dac0c8bb942d090!8m2!3d27.1496771!4d82.0029643!16s%2Fg%2F11gf19hnhx!19sChIJOaXTmM7vmTkRkNBCuYsMrE0?authuser=0&hl=en&rclk=1,"27.149677099999998,82.0029643"
Raza Masjid,Mosque,"4XF4+JXV Raza Masjid, Shams Nagar, Jhanjhari Block, Gonda, Uttar Pradesh 271003","Shams Nagar, Jhanjhari Block",4XF4+JXV,Gonda,271003,Uttar Pradesh,IN,https://www.google.com/maps/place/Raza+Masjid/data=!4m7!3m6!1s0x3999f10cf6093f25:0xa40262de55f0d1e4!8m2!3d27.1241006!4d81.95742!16s%2Fg%2F11gj71lpyt!19sChIJJT8J9gzxmTkR5NHwVd5iAqQ?authuser=0&hl=en&rclk=1,"27.1241006,81.95742"
Shams Masjid,Mosque,"4XC7+897 Shams Masjid, K G Road, Mewatiyan, Gonda, Uttar Pradesh 271001","Aman Colony, Mewatiyan","4XC7+897, K G Road",Gonda,271001,Uttar Pradesh,IN,https://www.google.com/maps/place/Shams+Masjid/data=!4m7!3m6!1s0x3999f1fabb913201:0xc1d4499c2b5144b!8m2!3d27.1207832!4d81.9634184!16s%2Fg%2F1pzxm5tlm!19sChIJATKRu_rxmTkRSxS1wplEHQw?authuser=0&hl=en&rclk=1,"27.120783199999998,81.9634184"
Noori Masjid Kakrhawa Gonda Nagar Palika Parishad U.p,Mosque,"4X8V+454 Noori Masjid Kakrhawa Gonda Nagar Palika Parishad U.p, Amdad Para, Uttar Pradesh 271123",,4X8V+454,Amdad Para,271123,Uttar Pradesh,IN,https://www.google.com/maps/place/Noori+Masjid+Kakrhawa+Gonda+Nagar+Palika+Parishad+U.p/data=!4m7!3m6!1s0x3999f19acd5ff1bd:0x7521338e9b7c5b85!8m2!3d27.1152612!4d81.9929404!16s%2Fg%2F11rtx7cfql!19sChIJvfFfzZrxmTkRhVt8m44zIXU?authuser=0&hl=en&rclk=1,"27.1152612,81.9929404"
Hakim G Masjid,Mosque,"4XG9+F8H Hakim G Masjid, Jhanjhari Block, Gonda, Uttar Pradesh 271003",Jhanjhari Block,4XG9+F8H,Gonda,271003,Uttar Pradesh,IN,https://www.google.com/maps/place/Hakim+G+Masjid/data=!4m7!3m6!1s0x3999f16e69124bc3:0x56d27fefd96acd12!8m2!3d27.1261775!4d81.9683583!16s%2Fg%2F11glfk757j!19sChIJw0sSaW7xmTkREs1q2e9_0lY?authuser=0&hl=en&rclk=1,"27.126177499999997,81.96835829999999"
Gausiya Masjid Durjanpur,Mosque,"4XQ2+Q8W Gausiya Masjid Durjanpur, Road, Azad Nagar, Durjan Pur Pandey, Gonda, Uttar Pradesh 271123",Azad Nagar,"4XQ2+Q8W, Road","Durjan Pur Pandey, Gonda",271123,Uttar Pradesh,IN,https://www.google.com/maps/place/Gausiya+Masjid+Durjanpur/data=!4m7!3m6!1s0x3999f6982e5df161:0x623cd7a67e76371c!8m2!3d27.1394944!4d81.9508427!16s%2Fg%2F11fy7hcgc8!19sChIJYfFdLpj2mTkRHDd2fqbXPGI?authuser=0&hl=en&rclk=1,"27.1394944,81.9508427"
msjd blly msjid bilaalii,Mosque,"msjd blly msjid bilaalii, paaNdde baajaar, pulis caukii, Gonda, Uttar Pradesh 271003",pulis caukii,paaNdde baajaar,Gonda,,Uttar Pradesh,IN,https://www.google.com/maps/place/%D9%85%D8%B3%D8%AC%D8%AF+%D8%A8%D9%84%D8%A7%D9%84%DB%8C+%E0%A4%AE%E0%A4%B8%E0%A5%8D%E0%A4%9C%E0%A4%BF%E0%A4%A6+%E0%A4%AC%E0%A4%BF%E0%A4%B2%E0%A4%BE%E0%A4%B2%E0%A5%80%E2%80%AD/data=!4m7!3m6!1s0x3999f1b22b8fcd41:0x538f66e8e8de3c7d!8m2!3d27.1275831!4d81.9675173!16s%2Fg%2F11g0ttd206!19sChIJQc2PK7LxmTkRfTze6Ohmj1M?authuser=0&hl=en&rclk=1,"27.1275831,81.9675173"
Masjid,Mosque,"4XFG+VX6 Masjid, Jhanjhari Block, Gonda, Uttar Pradesh 271123",Jhanjhari Block,4XFG+VX6,Gonda,271123,Uttar Pradesh,IN,https://www.google.com/maps/place/Masjid/data=!4m7!3m6!1s0x3999f1a251291641:0xe8ce5ff8591c2108!8m2!3d27.1246618!4d81.9774016!16s%2Fg%2F11hdykl9x4!19sChIJQRYpUaLxmTkRCCEcWfhfzug?authuser=0&hl=en&rclk=1,"27.1246618,81.9774016"
Masjid,Mosque,"4XG9+7V8 Masjid, Katra - Gonda Rd, Jhanjhari Block, Gonda, Uttar Pradesh 271003",Jhanjhari Block,"4XG9+7V8, Katra - Gonda Rd",Gonda,271003,Uttar Pradesh,IN,https://www.google.com/maps/place/Masjid/data=!4m7!3m6!1s0x3999f13ec579c53d:0x9f17b7ab1da275f4!8m2!3d27.1256556!4d81.9697024!16s%2Fg%2F11hdtb5r2w!19sChIJPcV5xT7xmTkR9HWiHau3F58?authuser=0&hl=en&rclk=1,"27.125655599999998,81.9697024"
Masjid Nadwatiddawatissalfiyah Ahle Hadees,Mosque,"4XC6+QQG Masjid Nadwatiddawatissalfiyah Ahle Hadees, kathaghat road, Makka Colony, Jhanjhari Block, Gird Gonda, Gonda, Uttar Pradesh 271001","Makka Colony, Jhanjhari Block","4XC6+QQG, kathaghat road","Gird Gonda, Gonda",271001,Uttar Pradesh,IN,https://www.google.com/maps/place/Masjid+Nadwatiddawatissalfiyah+Ahle+Hadees/data=!4m7!3m6!1s0x3999f1faf09c424d:0xe1b92f84437a1526!8m2!3d27.1219304!4d81.9619509!16s%2Fg%2F11gfndr3wf!19sChIJTUKc8PrxmTkRJhV6Q4QvueE?authuser=0&hl=en&rclk=1,"27.1219304,81.96195089999999"
Makhdum Ikram Meena Masjid,Mosque,"Makhdum Ikram Meena Masjid, Utraula Rd, Malviya Nagar, Jhanjhari Block, Gonda, Uttar Pradesh 271001","Malviya Nagar, Jhanjhari Block",Utraula Rd,Gonda,271001,Uttar Pradesh,IN,https://www.google.com/maps/place/Makhdum+Ikram+Meena+Masjid/data=!4m7!3m6!1s0x3999f137cabf1dc5:0x284dc30afd7c325e!8m2!3d27.1314294!4d81.9672621!16s%2Fg%2F11rqyvg19b!19sChIJxR2_yjfxmTkRXjJ8_QrDTSg?authuser=0&hl=en&rclk=1,"27.1314294,81.9672621"
Darul Uloom Jamia Amiru Uloom Minaiya City Gonda,Mosque,"4XQC+4WJ Darul Uloom Jamia Amiru Uloom Minaiya City Gonda, Bharatpuri, Gonda, Uttar Pradesh 271001",Bharatpuri,4XQC+4WJ,Gonda,271001,Uttar Pradesh,IN,https://www.google.com/maps/place/Darul+Uloom+Jamia+Amiru+Uloom+Minaiya+City+Gonda/data=!4m7!3m6!1s0x3999ef8a066e509f:0x840cdf46eaba610d!8m2!3d27.1378493!4d81.9722614!16s%2Fg%2F11n18vhgrc!19sChIJn1BuBorvmTkRDWG66kbfDIQ?authuser=0&hl=en&rclk=1,"27.1378493,81.9722614"
Raza masjid sunni,Regional council,"4XXC+GQ2 Raza masjid sunni, Maharaniganj, Khaira, Gonda, Uttar Pradesh 271002","Maharaniganj, Khaira",4XXC+GQ2,Gonda,271002,Uttar Pradesh,IN,https://www.google.com/maps/place/Raza+masjid+sunni/data=!4m7!3m6!1s0x3999ef56c4b1ba41:0x1872225a5dbe97e1!8m2!3d27.1487636!4d81.9718882!16s%2Fg%2F11h1rk3773!19sChIJQbqxxFbvmTkR4Ze-XVoichg?authuser=0&hl=en&rclk=1,"27.1487636,81.9718882"
Masjid,Mosque,"5X2M+F7G Masjid, Gonda, Uttar Pradesh 271002",,5X2M+F7G,Gonda,271002,Uttar Pradesh,IN,https://www.google.com/maps/place/Masjid/data=!4m7!3m6!1s0x3999efdb16c733f9:0x47f65518bc46e658!8m2!3d27.1511998!4d81.9832152!16s%2Fg%2F11q23h7kk5!19sChIJ-TPHFtvvmTkRWOZGvBhV9kc?authuser=0&hl=en&rclk=1,"27.151199799999997,81.98321519999999"
Masjid,Mosque,"4XM9+CX6 Masjid, Khaira, Gonda, Uttar Pradesh 271001",Khaira,4XM9+CX6,Gonda,271001,Uttar Pradesh,IN,https://www.google.com/maps/place/Masjid/data=!4m7!3m6!1s0x3999ef20a02ed1e1:0xdcfba85e20adf32e!8m2!3d27.133531!4d81.9698903!16s%2Fg%2F11h_3zqcfz!19sChIJ4dEuoCDvmTkRLvOtIF6o-9w?authuser=0&hl=en&rclk=1,"27.133530999999998,81.9698903"
Jama Masjid Khawaja Gharib Nawaz,Mosque,"4XHC+5VJ Jama Masjid Khawaja Gharib Nawaz, Subhash Nagar, Jhanjhari Block, Gonda, Uttar Pradesh 271003","Subhash Nagar, Jhanjhari Block",4XHC+5VJ,Gonda,271003,Uttar Pradesh,IN,https://www.google.com/maps/place/Jama+Masjid+Khawaja+Gharib+Nawaz/data=!4m7!3m6!1s0x3999f12cd2467a33:0x1bc8a858be27ecd9!8m2!3d27.1279574!4d81.9721279!16s%2Fg%2F11h7dcxsb8!19sChIJM3pG0izxmTkR2ewnvlioyBs?authuser=0&hl=en&rclk=1,"27.1279574,81.97212789999999"
SHAHI EIDGAH GONDA,Mosque,"4XM7+WMR SHAHI EIDGAH GONDA, Bharatpuri, Gonda, Uttar Pradesh 271001",Bharatpuri,4XM7+WMR,Gonda,271001,Uttar Pradesh,IN,https://www.google.com/maps/place/SHAHI+EIDGAH+GONDA/data=!4m7!3m6!1s0x3999ef880e1d1e6f:0x81d4f21f881959d!8m2!3d27.1348612!4d81.9641444!16s%2Fg%2F11fn4jm7n5!19sChIJbx4dDojvmTkRnZWB-CFPHQg?authuser=0&hl=en&rclk=1,"27.1348612,81.9641444"
Jalali Masjid,Mosque,"4XH8+3H6 Jalali Masjid, Ragadganj Road Near Machchli Mandi, 271001","Subhash Nagar, Jhanjhari Block","4XH8+3H6, Ragadganj Road Near Machchli Mandi",Gonda,271001,Uttar Pradesh,IN,https://www.google.com/maps/place/Jalali+Masjid/data=!4m7!3m6!1s0x3999f1963eaad1ad:0xd0e927756a354bc!8m2!3d27.1276589!4d81.9663759!16s%2Fg%2F11hz6tsb_f!19sChIJrdGqPpbxmTkRvFSjVneSDg0?authuser=0&hl=en&rclk=1,"27.1276589,81.9663759"
Masjid Al Jamiatul Islamia,Mosque,"4XC6+QQG Masjid Al Jamiatul Islamia, Makka Colony, Mewatiyan, Gonda, Uttar Pradesh 271001","Makka Colony, Mewatiyan",4XC6+QQG,Gonda,271001,Uttar Pradesh,IN,https://www.google.com/maps/place/Masjid+Al+Jamiatul+Islamia/data=!4m7!3m6!1s0x3999f1faf0a49d47:0x2ab87d051e7bf478!8m2!3d27.1219473!4d81.9619569!16s%2Fg%2F1pzxtsyd3!19sChIJR52k8PrxmTkRePR7HgV9uCo?authuser=0&hl=en&rclk=1,"27.1219473,81.96195689999999"
Masjid Usmaan Gani,Mosque,"4XMG+9MX Masjid Usmaan Gani, Indira Nagar Colony Rd, Khaira, Gonda, Uttar Pradesh 271003",Khaira,"4XMG+9MX, Indira Nagar Colony Rd",Gonda,271003,Uttar Pradesh,IN,https://www.google.com/maps/place/Masjid+Usmaan+Gani/data=!4m7!3m6!1s0x3999efd6a78b8981:0xc132033d6315952f!8m2!3d27.1334828!4d81.9767367!16s%2Fg%2F11h8rrd_t6!19sChIJgYmLp9bvmTkRL5UVYz0DMsE?authuser=0&hl=en&rclk=1,"27.1334828,81.97673669999999"
Masjid-e-Umar Faruq R.A.,Mosque,"4X9M+GFC Masjid-e-Umar Faruq R.A., Gonda, Uttar Pradesh 271123",,4X9M+GFC,Gonda,271123,Uttar Pradesh,IN,https://www.google.com/maps/place/Masjid-e-Umar+Faruq+R.A./data=!4m7!3m6!1s0x3999f1c51b51b71f:0x539a6341ccc12b0f!8m2!3d27.1188092!4d81.9836486!16s%2Fg%2F11csbp88_4!19sChIJH7dRG8XxmTkRDyvBzEFjmlM?authuser=0&hl=en&rclk=1,"27.118809199999998,81.9836486"
Sunni jama Masjid Bichle Purwa Near Gonda City',Mosque,"3XQF+2PJ Sunni jama Masjid Bichle Purwa Near Gonda City', Banghusra, Uttar Pradesh 271123",,3XQF+2PJ,Banghusra,271123,Uttar Pradesh,IN,https://www.google.com/maps/place/Sunni+jama+Masjid+Bichle+Purwa+Near+Gonda+City%27/data=!4m7!3m6!1s0x3999f165ae66ba51:0xbba6c050e1474bf9!8m2!3d27.0875893!4d81.9742768!16s%2Fg%2F11p0yf1r4v!19sChIJUbpmrmXxmTkR-UtH4VDAprs?authuser=0&hl=en&rclk=1,"27.087589299999998,81.9742768"
SUNNI BARELVI JAMA MASJID,Mosque,"4X5C+5GC SUNNI BARELVI JAMA MASJID, Unnamed Road, Pure Shiva Bakhtawar, Uttar Pradesh 271123",,"4X5C+5GC, Unnamed Road",Pure Shiva Bakhtawar,271123,Uttar Pradesh,IN,https://www.google.com/maps/place/SUNNI+BARELVI+JAMA+MASJID/data=!4m7!3m6!1s0x3999f194675df751:0x905ec9cb55864520!8m2!3d27.1079377!4d81.971256!16s%2Fg%2F11h_fv4d3w!19sChIJUfddZ5TxmTkRIEWGVcvJXpA?authuser=0&hl=en&rclk=1,"27.107937699999997,81.971256"
Masjid,Mosque,"4XM7+9P7 Masjid, Unnamed Road, Khaira, Gonda, Uttar Pradesh 271001",Khaira,"4XM7+9P7, Unnamed Road",Gonda,271001,Uttar Pradesh,IN,https://www.google.com/maps/place/Masjid/data=!4m7!3m6!1s0x3999ef3e0a7a1e7d:0x827dba7fd9e32ff!8m2!3d27.1334112!4d81.9643107!16s%2Fg%2F11hdtbh4z_!19sChIJfR56Cj7vmTkR_zKe_afbJwg?authuser=0&hl=en&rclk=1,"27.133411199999998,81.9643107"
Qabristan Masjid,Mosque,"4XC3+VPQ Qabristan Masjid, Shams Nagar, Jhanjhari Block, Gonda, Uttar Pradesh 271003","Shams Nagar, Jhanjhari Block",4XC3+VPQ,Gonda,271003,Uttar Pradesh,IN,https://www.google.com/maps/place/Qabristan+Masjid/data=!4m7!3m6!1s0x3999f18bfe176b51:0x1e65761dee6703db!8m2!3d27.1222058!4d81.9543466!16s%2Fg%2F11gj_rmtxc!19sChIJUWsX_ovxmTkR2wNn7h12ZR4?authuser=0&hl=en&rclk=1,"27.1222058,81.9543466"
Hazrat Bilal Masjid,Mosque,"4XM9+FXP Hazrat Bilal Masjid, Raja Mohalla, Khaira, Gonda, Uttar Pradesh 271003","Raja Mohalla, Khaira",4XM9+FXP,Gonda,271003,Uttar Pradesh,IN,https://www.google.com/maps/place/Hazrat+Bil%C4%81l+Masjid/data=!4m7!3m6!1s0x3999efd313a005b9:0xcf140fc58398ec2b!8m2!3d27.1337082!4d81.9699461!16s%2Fg%2F11kx4tkzp7!19sChIJuQWgE9PvmTkRK-yYg8UPFM8?authuser=0&hl=en&rclk=1,"27.133708199999997,81.9699461"
Masjid usman ghani,Mosque,"4XG5+9Q6 Masjid usman ghani, Jhanjhari Block, Gonda, Uttar Pradesh 271003",Jhanjhari Block,4XG5+9Q6,Gonda,271003,Uttar Pradesh,IN,https://www.google.com/maps/place/Masjid+usman+ghani/data=!4m7!3m6!1s0x3999f1970638c6b7:0x8a7346d4d70bf235!8m2!3d27.1259036!4d81.9593754!16s%2Fg%2F11scgdsfz8!19sChIJt8Y4BpfxmTkRNfIL19RGc4o?authuser=0&hl=en&rclk=1,"27.125903599999997,81.9593754"
Sunni Barelvi Jama Masjid,Mosque,"4XH8+X9G Sunni Barelvi Jama Masjid, Malviya Nagar, Jhanjhari Block, Gonda, Uttar Pradesh 271001","Malviya Nagar, Jhanjhari Block",4XH8+X9G,Gonda,271001,Uttar Pradesh,IN,https://www.google.com/maps/place/Sunni+Barelvi+Jama+Masjid/data=!4m7!3m6!1s0x3999f1a6ab6ecfef:0xc99a2c4799a9be81!8m2!3d27.1299417!4d81.965968!16s%2Fg%2F11j7bp5g_r!19sChIJ789uq6bxmTkRgb6pmUcsmsk?authuser=0&hl=en&rclk=1,"27.1299417,81.96596799999999"
Husaini Minaiy Masjid husainii miinaaii msjid,Mosque,"4XFC+WRV Husaini Minaiy Masjid husainii miinaaii msjid, Jhanjhari Block, Gonda, Uttar Pradesh 271123",Jhanjhari Block,4XFC+WRV,Gonda,,Uttar Pradesh,IN,https://www.google.com/maps/place/Husaini+Minaiy+Masjid+%E0%A4%B9%E0%A5%81%E0%A4%B8%E0%A5%88%E0%A4%A8%E0%A5%80+%E0%A4%AE%E0%A5%80%E0%A4%A8%E0%A4%BE%E0%A4%88+%E0%A4%AE%E0%A4%B8%E0%A5%8D%E0%A4%9C%E0%A4%BF%E0%A4%A6/data=!4m7!3m6!1s0x3999f1fdff0cf519:0x4491c73bda611379!8m2!3d27.1248619!4d81.9720552!16s%2Fg%2F11v6vljj76!19sChIJGfUM__3xmTkReRNh2jvHkUQ?authuser=0&hl=en&rclk=1,"27.1248619,81.9720552"
Sunhari MASJID,Place of worship,"Sunhari MASJID, Jhanjhari Block, Janki Nagar, Gonda, Uttar Pradesh 271003",Jhanjhari Block,,"Janki Nagar, Gonda",,Uttar Pradesh,IN,https://www.google.com/maps/place/Sunhari+MASJID/data=!4m7!3m6!1s0x3999ee02fecf316b:0x48e492885bff29e!8m2!3d27.1339913!4d81.9618968!16s%2Fg%2F11f39ylsxf!19sChIJazHP_gLumTkRnvK_hShJjgQ?authuser=0&hl=en&rclk=1,"27.133991299999998,81.96189679999999"
Masjid sikandar faizul Islam,Mosque,"4X9G+FCP Masjid sikandar faizul Islam, Jhanjhari Block, Gonda, Uttar Pradesh 271123",Jhanjhari Block,4X9G+FCP,Gonda,271123,Uttar Pradesh,IN,https://www.google.com/maps/place/Masjid+sikandar+faizul+Islam/data=!4m7!3m6!1s0x3999f1d37c12cd0b:0xcada91e08e988328!8m2!3d27.1187159!4d81.9760929!16s%2Fg%2F11px9vhj6g!19sChIJC80SfNPxmTkRKIOYjuCR2so?authuser=0&hl=en&rclk=1,"27.118715899999998,81.9760929"
Maszid Anwar Shah (Takiya),Mosque,"Maszid Anwar Shah (Takiya), Guddu Mal Chauraha, Patel Nagar, Gonda, Uttar Pradesh",Patel Nagar,Guddu Mal Chauraha,Gonda,,Uttar Pradesh,IN,https://www.google.com/maps/place/Maszid+Anwar+Shah+%28Takiya%29/data=!4m7!3m6!1s0x3999efe0b6dfaddd:0xbd585337bb35edeb!8m2!3d27.1339913!4d81.9618967!16s%2Fg%2F11f9_pfgpp!19sChIJ3a3ftuDvmTkR6-01uzdTWL0?authuser=0&hl=en&rclk=1,"27.133991299999998,81.9618967"
SUNNI Barelvi Masjid 12,Mosque,"4W8R+V57 SUNNI Barelvi Masjid 12, Gonda, Uttar Pradesh 271003",,4W8R+V57,Gonda,271003,Uttar Pradesh,IN,https://www.google.com/maps/place/SUNNI+Barelvi+Masjid+12/data=!4m7!3m6!1s0x3999f352e06397d9:0x2054ec54b1d49cc9!8m2!3d27.1171592!4d81.9404315!16s%2Fg%2F11rr59x5j9!19sChIJ2Zdj4FLzmTkRyZzUsVTsVCA?authuser=0&hl=en&rclk=1,"27.1171592,81.9404315"
Masjid,Mosque,"4XH2+VC9 Masjid, Jhanjhari Block, Gonda, Uttar Pradesh 271003",Jhanjhari Block,4XH2+VC9,Gonda,271003,Uttar Pradesh,IN,https://www.google.com/maps/place/Masjid/data=!4m7!3m6!1s0x3999f382c302e723:0x92ec9c86df98ec2b!8m2!3d27.130319!4d81.9516512!16s%2Fg%2F11rylchcdq!19sChIJI-cCw4LzmTkRK-yY34ac7JI?authuser=0&hl=en&rclk=1,"27.130319,81.9516512"
Sunni Barelvi Madina Jama Masjid Imambara Mohalla Sehar Gonda,Mosque,"4XG9+WGP Sunni Barelvi Madina Jama Masjid Imambara Mohalla Sehar Gonda, Jhanjhari Block, Gonda, Uttar Pradesh 271003",Jhanjhari Block,4XG9+WGP,Gonda,271003,Uttar Pradesh,IN,https://www.google.com/maps/place/Sunni+Barelvi+Madina+Jama+Masjid+Imambara+Mohalla+Sehar+Gonda/data=!4m7!3m6!1s0x3999f1a261ed0125:0x1cc70c2346429381!8m2!3d27.1273498!4d81.9688212!16s%2Fg%2F11s55t5f54!19sChIJJQHtYaLxmTkRgZNCRiMMxxw?authuser=0&hl=en&rclk=1,"27.127349799999998,81.9688212"
Masjid,Mosque,"4XJ9+4C6 Masjid, Unnamed Road, Malviya Nagar, Jhanjhari Block, Gonda, Uttar Pradesh 271001","Malviya Nagar, Jhanjhari Block","4XJ9+4C6, Unnamed Road",Gonda,271001,Uttar Pradesh,IN,https://www.google.com/maps/place/Masjid/data=!4m7!3m6!1s0x3999f15f4ea1098d:0x85fc5bd5207932ed!8m2!3d27.1302929!4d81.9685257!16s%2Fg%2F11h_2lfrhg!19sChIJjQmhTl_xmTkR7TJ5INVb_IU?authuser=0&hl=en&rclk=1,"27.130292899999997,81.9685257"
Yusuf nagar Gausiya masjid,Mosque,"Yusuf nagar Gausiya masjid, Baba Mathiya Tirth Shettar, Shri Parshuram Chauraha Road, Gonda 271001, Jhanjhari Block, Gonda, Uttar Pradesh 271123",Jhanjhari Block,"Baba Mathiya Tirth Shettar, Shri Parshuram Chauraha Road, Gonda 271001",Gonda,271123,Uttar Pradesh,IN,https://www.google.com/maps/place/Yusuf+nagar+Gausiya+masjid/data=!4m7!3m6!1s0x3999f130c2d3aa7b:0xc699d4d7c3de5e10!8m2!3d27.1245214!4d81.9769432!16s%2Fg%2F11tfdb8f3x!19sChIJe6rTwjDxmTkREF7ew9fUmcY?authuser=0&hl=en&rclk=1,"27.1245214,81.9769432"
Madarsa Nasirul Uloom ( Masjid & Madarsa ),Mosque,"Madarsa Nasirul Uloom ( Masjid & Madarsa ), 29, Bargaon, Veer Pur, Gonda, Uttar Pradesh 271002","Bargaon, Veer Pur",29,Gonda,271002,Uttar Pradesh,IN,https://www.google.com/maps/place/Madarsa+Nasirul+Uloom+%28+Masjid+%26+Madarsa+%29/data=!4m7!3m6!1s0x3999ef36e7cfefbf:0xd146168e408f00c!8m2!3d27.1512314!4d81.9688505!16s%2Fg%2F11q3622zyk!19sChIJv-_P5zbvmTkRDPAI5GhhFA0?authuser=0&hl=en&rclk=1,"27.1512314,81.9688505"
Imam Bara (Sunni),Religious destination,"4XGC+9G4 Imam Bara (Sunni), Faizabad Rd, Jhanjhari Block, Gonda, Uttar Pradesh 271123",Jhanjhari Block,"4XGC+9G4, Faizabad Rd",Gonda,271123,Uttar Pradesh,IN,https://www.google.com/maps/place/Imam+Bara+%28Sunni%29/data=!4m7!3m6!1s0x3999f1876f131fbd:0x7a4c3c8e1007850d!8m2!3d27.1258758!4d81.9713294!16s%2Fg%2F11s5v0mrg6!19sChIJvR8Tb4fxmTkRDYUHEI48THo?authuser=0&hl=en&rclk=1,"27.1258758,81.9713294"
Noorani Masjid Godawa Ghat,Mosque,"3XJ5+CRF Noorani Masjid Godawa Ghat, Belsar Rd, Godawa Ghat, Uttar Pradesh 271001",,"3XJ5+CRF, Belsar Rd",Godawa Ghat,271001,Uttar Pradesh,IN,https://www.google.com/maps/place/Noorani+Masjid+Godawa+Ghat/data=!4m7!3m6!1s0x3999f1a90c0f4f1d:0x55cf45fdacea1de3!8m2!3d27.0810643!4d81.9595488!16s%2Fg%2F11mfwl082r!19sChIJHU8PDKnxmTkR4x3qrP1Fz1U?authuser=0&hl=en&rclk=1,"27.081064299999998,81.9595488"
Qadari masjid,Market,"Qadari masjid, bhgautii purvaa, Jhanjhari Block, Gonda, Uttar Pradesh 271003",Jhanjhari Block,bhgautii purvaa,Gonda,,Uttar Pradesh,IN,https://www.google.com/maps/place/Qadari+masjid/data=!4m7!3m6!1s0x3999ef374e4b482f:0xbfbb275477912a38!8m2!3d27.1339874!4d81.9618979!16s%2Fg%2F11sx2020pf!19sChIJL0hLTjfvmTkROCqRd1Qnu78?authuser=0&hl=en&rclk=1,"27.1339874,81.9618979"
Sunni masjid Amrikee,Lodging,"Bandoriyaa, Sunni masjid Amrikee, daulat pur gerant, Jhanjhari Block, Gonda, Uttar Pradesh 271003",Jhanjhari Block,"Bandoriyaa, daulat pur gerant",Gonda,,Uttar Pradesh,IN,https://www.google.com/maps/place/Sunni+masjid+Amrikee/data=!4m7!3m6!1s0x3999eff168a2c2cb:0x1ba248e6a8e31053!8m2!3d27.1339913!4d81.9618968!16s%2Fg%2F11j1z1pp6r!19sChIJy8KiaPHvmTkRUxDjqOZIohs?authuser=0&hl=en&rclk=1,"27.133991299999998,81.96189679999999"
Maniharan Masjid,Supermarket,"Maniharan Masjid, bazar, chowk, Gonda, Uttar Pradesh","Malviya Nagar, Jhanjhari Block","bazar, chowk",Gonda,,Uttar Pradesh,IN,https://www.google.com/maps/place/Maniharan+Masjid/data=!4m7!3m6!1s0x3999f13e0d700b4d:0x14173c345129ba72!8m2!3d27.1299376!4d81.9654744!16s%2Fg%2F11hzlqc7mg!19sChIJTQtwDT7xmTkRcropUTQ8FxQ?authuser=0&hl=en&rclk=1,"27.129937599999998,81.96547439999999"
