name,main_category,address,address_ward,address_street,address_city,address_postal_code,address_state,address_country_code,link,coordinates
Aalmgeer Masjid (Wakad Pune),Mosque,"HQR6+4C9 Aalmgeer Masjid (Wakad Pune), Hinjawadi Flyover, Wakad, Pune, Pimpri-Chinchwad, Maharashtra 411057",Wakad,"HQR6+4C9, Hinjawadi Flyover","Pune, Pimpri-Chinchwad",411057,Maharashtra,IN,https://www.google.com/maps/place/Aalmgeer+Masjid+%28Wakad+Pune%29/data=!4m7!3m6!1s0x3bc2b9429e95351d:0x21a3b035196d3854!8m2!3d18.5902778!4d73.7611111!16s%2Fg%2F1hc23nj7q!19sChIJHTWVnkK5wjsRVDhtGTWwoyE?authuser=0&hl=en&rclk=1,"18.5902778,73.7611111"
Ghousia Jama Masjid,Mosque,"JQ54+765 Ghousia Jama Masjid, Kala Khadak, Tathawade, Pimpri-Chinchwad, Maharashtra 411033","Kala Khadak, Tathawade",JQ54+765,Pimpri-Chinchwad,411033,Maharashtra,IN,https://www.google.com/maps/place/Ghousia+Jama+Masjid/data=!4m7!3m6!1s0x3bc2b9797d434555:0x843e3c216664b7b5!8m2!3d18.6081281!4d73.7556205!16s%2Fg%2F11c3183cvh!19sChIJVUVDfXm5wjsRtbdkZiE8PoQ?authuser=0&hl=en&rclk=1,"18.6081281,73.75562049999999"
Masjid e Umar,Mosque,"JRM3+474 Masjid e Umar, Pimpri-Chikhali Rd, Opp Gharondha hotel, Morewadi, Pimpri Colony, Pune, Pimpri-Chinchwad, Maharashtra 411018","Morewadi, Pimpri Colony","JRM3+474, Pimpri-Chikhali Rd, Opp Gharondha hotel","Pune, Pimpri-Chinchwad",411018,Maharashtra,IN,https://www.google.com/maps/place/Masjid+e+Umar/data=!4m7!3m6!1s0x3bc2b84ee43ad5cd:0xa1c74fb367f6e4ad!8m2!3d18.6327519!4d73.8032181!16s%2Fg%2F1tf7w4wx!19sChIJzdU65E64wjsRreT2Z7NPx6E?authuser=0&hl=en&rclk=1,"18.6327519,73.8032181"
Makka Masjid (Deobandi Tableegi Jamaat),Mosque,"JQ4H+76M Makka Masjid (Deobandi Tableegi Jamaat), Hanuman Nagar, Sambhaji Nagar, Thergaon, Pimpri-Chinchwad, Maharashtra 411017","Hanuman Nagar, Sambhaji Nagar, Thergaon",JQ4H+76M,Pimpri-Chinchwad,411017,Maharashtra,IN,https://www.google.com/maps/place/Makka+Masjid+%28Deobandi+Tableegi+Jamaat%29/data=!4m7!3m6!1s0x3bc2b90e6f202ab3:0x4f9d77befaf43698!8m2!3d18.6057123!4d73.7780509!16s%2Fg%2F1s04brshv!19sChIJsyogbw65wjsRmDb0-r53nU8?authuser=0&hl=en&rclk=1,"18.6057123,73.7780509"
Jama Masjid,Mosque,"JQ7R+JWC Jama Masjid, Nadhe Nagar, Kokane Nagar, Nandadeep Colony, Kalewadi, Pimpri-Chinchwad, Maharashtra 411017","Nadhe Nagar, Kokane Nagar, Nandadeep Colony, Kalewadi",JQ7R+JWC,Pimpri-Chinchwad,411017,Maharashtra,IN,https://www.google.com/maps/place/Jama+Masjid/data=!4m7!3m6!1s0x3bc2b90056e01089:0xc3ec7e7ccbc395ed!8m2!3d18.614071!4d73.7922619!16s%2Fg%2F11cn0_00h1!19sChIJiRDgVgC5wjsR7ZXDy3x-7MM?authuser=0&hl=en&rclk=1,"18.614071,73.7922619"
Noor-E-Elahi Masjid,Mosque,"Noor-E-Elahi Masjid, Sector No. 30 Nigdi Pimpri-Chinchwad, Pune, Maharashtra 411035","Bharatmata Housing Society, Sector No. 30, Nigdi",Sector No. 30 Nigdi Pimpri-Chinchwad,"Pune, Pimpri-Chinchwad",411035,Maharashtra,IN,https://www.google.com/maps/place/Noor-E-Elahi+Masjid/data=!4m7!3m6!1s0x3bc2b9e94bf32603:0x9381ffd74504c60!8m2!3d18.6439168!4d73.7657425!16s%2Fg%2F1q67pz_ms!19sChIJAybzS-m5wjsRYExQdP0fOAk?authuser=0&hl=en&rclk=1,"18.6439168,73.7657425"
Noorani Jama Masjid Nigdi,Mosque,"MQ6F+X9V Noorani Jama Masjid Nigdi, Service Rd, Sector No. 24, Pradhikaran, Nigdi, Pimpri-Chinchwad, Maharashtra 411044","Sector No. 24, Pradhikaran, Nigdi","MQ6F+X9V, Service Rd",Pimpri-Chinchwad,411044,Maharashtra,IN,https://www.google.com/maps/place/Noorani+Jama+Masjid+Nigdi/data=!4m7!3m6!1s0x3bc2b7604643cdcf:0x6dc9ff88a253f64e!8m2!3d18.6624929!4d73.7734079!16s%2Fg%2F1yf4rdy40!19sChIJz81DRmC3wjsRTvZTooj_yW0?authuser=0&hl=en&rclk=1,"18.6624929,73.7734079"
Shaikh Basti Masjid,Mosque,"HQV8+GFM Shaikh Basti Masjid, Shankar Kalat Nagar, Wakad, Pimpri-Chinchwad, Maharashtra 411057","Shankar Kalat Nagar, Wakad",HQV8+GFM,Pimpri-Chinchwad,411057,Maharashtra,IN,https://www.google.com/maps/place/Shaikh+Basti+Masjid/data=!4m7!3m6!1s0x3bc2b96a2c493e95:0x453ff0dee1ee85aa!8m2!3d18.5938492!4d73.7661606!16s%2Fg%2F11b7h9gz2n!19sChIJlT5JLGq5wjsRqoXu4d7wP0U?authuser=0&hl=en&rclk=1,"18.593849199999998,73.76616059999999"
Jama Masjid Jamate Latifiya,Mosque,"Jama Masjid Jamate Latifiya, B/184/F/3, Matoshree Ramabai Ambedkar Marg, Milind Nagar, Pimpri Colony, Pimpri-Chinchwad, Maharashtra 411017","Shastri Nagar, Pimpri Colony","B/184/F/3, Matoshree Ramabai Ambedkar Marg, Milind Nagar, Pimpri Colony",Pimpri-Chinchwad,411017,Maharashtra,IN,https://www.google.com/maps/place/Jama+Masjid+Jamate+Latifiya/data=!4m7!3m6!1s0x3bc2b854527bc15d:0xb6932f102a8760e!8m2!3d18.6200064!4d73.7985007!16s%2Fg%2F11c32736s1!19sChIJXcF7UlS4wjsRDnaoAvEyaQs?authuser=0&hl=en&rclk=1,"18.620006399999998,73.79850069999999"
TawakAllah Jama Masjid,Mosque,"JRJF+3J6 TawakAllah Jama Masjid, Main Road, Pimpri-Bhosari Road, Nehru Nagar, Pune, Maharashtra 411018","Nehru Nagar, Pimpri Colony","JRJF+3J6, Main Road, Pimpri-Bhosari Road, Nehru Nagar","Pune, Pimpri-Chinchwad",411018,Maharashtra,IN,https://www.google.com/maps/place/TawakAllah+Jama+Masjid/data=!4m7!3m6!1s0x3bc2b86606ecc341:0xb5faabae799d9e1!8m2!3d18.6301549!4d73.8240111!16s%2Fg%2F1pp2wwtvw!19sChIJQcPsBma4wjsR4dmZ57qqXws?authuser=0&hl=en&rclk=1,"18.6301549,73.82401109999999"
Usmania Masjid,Mosque,"MR97+FW8 Usmania Masjid, Chikali Rd, Pawar Vasti, Pawar Industrial Area, Chikhali, Pimpri-Chinchwad, Maharashtra 411014","Pawar Vasti, Pawar Industrial Area, Chikhali","MR97+FW8, Chikali Rd",Pimpri-Chinchwad,411014,Maharashtra,IN,https://www.google.com/maps/place/Usmania+Masjid/data=!4m7!3m6!1s0x3bc2b78b9bbb85bb:0x92a7e8a629c2cc11!8m2!3d18.6686501!4d73.8148162!16s%2Fg%2F1pp2w_sfb!19sChIJu4W7m4u3wjsREczCKabop5I?authuser=0&hl=en&rclk=1,"18.6686501,73.8148162"
Masjid-e-Abubakr Siddiq,Mosque,"MRM9+4PQ Masjid-e-Abubakr Siddiq, Jadhav Wadi, Chikhali, Pimpri-Chinchwad, Maharashtra 411062","Jadhav Wadi, Chikhali",MRM9+4PQ,Pimpri-Chinchwad,411062,Maharashtra,IN,https://www.google.com/maps/place/Masjid-e-Abubakr+Siddiq/data=!4m7!3m6!1s0x3bc2b7eb5b33f9a1:0xde272cfa972907ea!8m2!3d18.682831!4d73.8193673!16s%2Fg%2F11bv3mqcf9!19sChIJofkzW-u3wjsR6gcpl_osJ94?authuser=0&hl=en&rclk=1,"18.682831,73.8193673"
Masjid-E-Aqsa,Mosque,"MQ2G+8XX Masjid-E-Aqsa, Shri Mhalsakant Vidyalaya Rd, Akurdi Gaothan, Dattawadi, Akurdi, Pimpri-Chinchwad, Maharashtra 411035","Akurdi Gaothan, Dattawadi, Akurdi","MQ2G+8XX, Shri Mhalsakant Vidyalaya Rd",Pimpri-Chinchwad,411035,Maharashtra,IN,https://www.google.com/maps/place/Masjid-E-Aqsa/data=!4m7!3m6!1s0x3bc2b9db5ef2c9d3:0xab73ee07623a3493!8m2!3d18.6508527!4d73.7774768!16s%2Fg%2F11bc7ss8vy!19sChIJ08nyXtu5wjsRkzQ6Ygfuc6s?authuser=0&hl=en&rclk=1,"18.650852699999998,73.7774768"
Madina Masjid ,Mosque,"JVC2+M7G Madina Masjid , Pune - Nashik Hwy, Bhosari Gaonthan, Bhosari, Pimpri-Chinchwad, Maharashtra 411039","Bhosari Gaonthan, Bhosari","JVC2+M7G, Pune - Nashik Hwy",Pimpri-Chinchwad,411039,Maharashtra,IN,https://www.google.com/maps/place/Madina+Masjid+%F0%9F%95%8C/data=!4m7!3m6!1s0x3bc2c7827e2bc669:0xce7012d698c73c28!8m2!3d18.621694!4d73.8507141!16s%2Fg%2F1pp2tz6jc!19sChIJacYrfoLHwjsRKDzHmNYScM4?authuser=0&hl=en&rclk=1,"18.621693999999998,73.85071409999999"
Madina Masjid,Mosque,"Madina Masjid, 170, Sant Dyaneshwar Nagar, Near St. Joseph Church, Vivek Nagar, Akurdi, Pimpri-Chinchwad, Maharashtra 411035","Shubhashri Residency, Vivek Nagar, Akurdi","170, Sant Dyaneshwar Nagar, Near St. Joseph Church",Pimpri-Chinchwad,411035,Maharashtra,IN,https://www.google.com/maps/place/Madina+Masjid/data=!4m7!3m6!1s0x3bc2b9c544d71e69:0x59fa366ba5b0f8b6!8m2!3d18.6491423!4d73.7823158!16s%2Fg%2F1pp2x7p3n!19sChIJaR7XRMW5wjsRtviwpWs2-lk?authuser=0&hl=en&rclk=1,"18.649142299999998,73.78231579999999"
Jamia Ghousia Masjid,Mosque,"Jamia Ghousia Masjid, Kunal Plaza, Railway Station, Old Mumbai - Pune Hwy, Chinchwad, Pimpri-Chinchwad, Maharashtra 411019",Chinchwad,"Kunal Plaza, Railway Station, Old Mumbai - Pune Hwy",Pimpri-Chinchwad,411019,Maharashtra,IN,https://www.google.com/maps/place/Jamia+Ghousia+Masjid/data=!4m7!3m6!1s0x3bc2b9ca9b28dd91:0xebad477cbfe84537!8m2!3d18.6398457!4d73.7928526!16s%2Fg%2F1pp2vjlff!19sChIJkd0om8q5wjsRN0Xov3xHres?authuser=0&hl=en&rclk=1,"18.6398457,73.7928526"
"Jama Masjid,Kasarwadi.",Mosque,"JR4G+73Q Jama Masjid,Kasarwadi., Old Mumbai - Pune Hwy, Landge Colony, Laxman Krupa Housing Society, Kasarwadi, Pimpri-Chinchwad, Maharashtra 411034","Landge Colony, Laxman Krupa Housing Society, Kasarwadi","JR4G+73Q, Old Mumbai - Pune Hwy",Pimpri-Chinchwad,411034,Maharashtra,IN,"https://www.google.com/maps/place/Jama+Masjid,Kasarwadi./data=!4m7!3m6!1s0x3bc2b8917effdfbf:0xddd303dbd5309afe!8m2!3d18.6057135!4d73.8252366!16s%2Fg%2F11clthpfxw!19sChIJv9__fpG4wjsR_pow1dsD090?authuser=0&hl=en&rclk=1","18.6057135,73.8252366"
Kharadwadi Markaz,Mosque,"Kharadwadi Markaz, 03/01/0727, Kharalwadi, Pimpri Colony, Pimpri-Chinchwad, Maharashtra 411018","Kharalwadi, Pimpri Colony",03/01/0727,Pimpri-Chinchwad,411018,Maharashtra,IN,https://www.google.com/maps/place/Kharadwadi+Markaz/data=!4m7!3m6!1s0x3bc2b85b04bf5b57:0xd13d7a34f89d963b!8m2!3d18.6272187!4d73.8100142!16s%2Fg%2F11cn1805nz!19sChIJV1u_BFu4wjsRO5ad-DR6PdE?authuser=0&hl=en&rclk=1,"18.6272187,73.8100142"
Noorani Masjid,Mosque,"Noorani Masjid, Gabi bhai chawl noor mohlle Sr. No. 102, Nehru Nagar, Nehru Nagar Bhosari Rd, Pimpri Colony, Pimpri-Chinchwad, Maharashtra 411018","Mukesh Nagar, Pimpri Colony","Gabi bhai chawl noor mohlle Sr. No. 102, Nehru Nagar, Nehru Nagar Bhosari Rd",Pimpri-Chinchwad,411018,Maharashtra,IN,https://www.google.com/maps/place/Noorani+Masjid/data=!4m7!3m6!1s0x3bc2b8663b0d2d47:0x2a158692d48c2a4a!8m2!3d18.6280076!4d73.8219765!16s%2Fg%2F1pp2x5_yc!19sChIJRy0NO2a4wjsRSiqM1JKGFSo?authuser=0&hl=en&rclk=1,"18.6280076,73.82197649999999"
Sunni Madina Masjid,Mosque,"Sunni Madina Masjid, Puna, 15, Chikali Rd, Kudalwadi, Chikhali, Pimpri-Chinchwad, Maharashtra 411062","Kudalwadi, Chikhali","Puna, 15, Chikali Rd",Pimpri-Chinchwad,411062,Maharashtra,IN,https://www.google.com/maps/place/Sunni+Madina+Masjid/data=!4m7!3m6!1s0x3bc2b7ed4abae9ad:0xa6a3e8923a8d74c5!8m2!3d18.67761!4d73.8186852!16s%2Fg%2F11ckqs9nr8!19sChIJrem6Su23wjsRxXSNOpLoo6Y?authuser=0&hl=en&rclk=1,"18.677609999999998,73.81868519999999"
Minara Masjid,Mosque,"Minara Masjid, Dakshata Nagar, Rupeenagar, Talwade, Pimpri-Chinchwad, Maharashtra 411062","Dakshata Nagar, Rupeenagar, Talwade",Minara Masjid,Pimpri-Chinchwad,411062,Maharashtra,IN,https://www.google.com/maps/place/Minara+Masjid/data=!4m7!3m6!1s0x3bc2b76f9a7fb24f:0xecba9bed85e2f43a!8m2!3d18.673884!4d73.7808695!16s%2Fg%2F11csq61cwk!19sChIJT7J_mm-3wjsROvTihe2buuw?authuser=0&hl=en&rclk=1,"18.673883999999997,73.7808695"
Sunni Raza Jamma Masjid,Mosque,"MRG8+5P2 Sunni Raza Jamma Masjid, Kudalwadi, Chikhali, Pimpri-Chinchwad, Maharashtra 411062","Kudalwadi, Chikhali",MRG8+5P2,Pimpri-Chinchwad,411062,Maharashtra,IN,https://www.google.com/maps/place/Sunni+Raza+Jamma+Masjid/data=!4m7!3m6!1s0x3bc2b78d687bad4d:0x8e825622eef42b57!8m2!3d18.6753877!4d73.8167605!16s%2Fg%2F11_y0xgx3!19sChIJTa17aI23wjsRVyv07iJWgo4?authuser=0&hl=en&rclk=1,"18.675387699999998,73.8167605"
Masjid Ravet (Ahle Sunnat Wal jamat),Mosque,"JPRV+XWF Masjid Ravet (Ahle Sunnat Wal jamat), Ravet, Pimpri-Chinchwad, Maharashtra 412101",Ravet,JPRV+XWF,Pimpri-Chinchwad,412101,Maharashtra,IN,https://www.google.com/maps/place/Masjid+Ravet+%28Ahle+Sunnat+Wal+jamat%29/data=!4m7!3m6!1s0x3bc2ba1dcaaadb19:0xaf7fd354b42051c9!8m2!3d18.6424326!4d73.7447973!16s%2Fg%2F11c6cfhhxy!19sChIJGduqyh26wjsRyVEgtFTTf68?authuser=0&hl=en&rclk=1,"18.6424326,73.7447973"
Masjid-e-Hazrat Ali RA.,Mosque,"MRJH+R7C Masjid-e-Hazrat Ali RA., Jadhav Wadi, Chikhali, Pimpri-Chinchwad, Maharashtra 411062","Jadhav Wadi, Chikhali",MRJH+R7C,Pimpri-Chinchwad,411062,Maharashtra,IN,https://www.google.com/maps/place/Masjid-e-Hazrat+Ali+RA./data=!4m7!3m6!1s0x3bc2b7ef3a5ececb:0xd4b1999a64f7af20!8m2!3d18.6820719!4d73.8281377!16s%2Fg%2F11d_xlyw35!19sChIJy85eOu-3wjsRIK_3ZJqZsdQ?authuser=0&hl=en&rclk=1,"18.6820719,73.8281377"
P R HYDRAULICS,Mosque,"P R HYDRAULICS, near Jama Masjid, Raje Shivaji Nagar, Kudalwadi Industrial Area, Chikhali, Pimpri-Chinchwad, Maharashtra 412114","Raje Shivaji Nagar, Kudalwadi Industrial Area, Chikhali",near Jama Masjid,Pimpri-Chinchwad,412114,Maharashtra,IN,https://www.google.com/maps/place/P+R+HYDRAULICS/data=!4m7!3m6!1s0x3bc2b78a7a0c752f:0x2bd966522457686b!8m2!3d18.6663999!4d73.8161694!16s%2Fg%2F1q5ccgmf0!19sChIJL3UMeoq3wjsRa2hXJFJm2Ss?authuser=0&hl=en&rclk=1,"18.6663999,73.81616939999999"
Ishate Deen Madraasa Arabiya Madina Masjid,Mosque,"Ishate Deen Madraasa Arabiya Madina Masjid, 82/2/1/5, 82/2/1/5, Jawalkar Nagar, Prabhat Nagar, Pimple Gurav, Pimpri-Chinchwad, Maharashtra 411027","Prabhat Nagar, Pimple Gurav","82/2/1/5, 82/2/1/5, Jawalkar Nagar",Pimpri-Chinchwad,411027,Maharashtra,IN,https://www.google.com/maps/place/Ishate+Deen+Madraasa+Arabiya+Madina+Masjid/data=!4m7!3m6!1s0x3bc2b8ead93569c1:0x40d2536fde629702!8m2!3d18.5981365!4d73.8172836!16s%2Fg%2F11dd_q409j!19sChIJwWk12eq4wjsRApdi3m9T0kA?authuser=0&hl=en&rclk=1,"18.5981365,73.8172836"
"Masjid E Imran, Vallabh Nagar",Mosque,"Masjid E Imran, Vallabh Nagar, 08/11/820, Sant Tukaram Nagar, Pimpri Colony, Pimpri-Chinchwad, Maharashtra 411018","Sant Tukaram Nagar, Pimpri Colony",08/11/820,Pimpri-Chinchwad,411018,Maharashtra,IN,"https://www.google.com/maps/place/Masjid+E+Imran,+Vallabh+Nagar/data=!4m7!3m6!1s0x3bc2b860462b8709:0xeced8716c3f2ba9a!8m2!3d18.6204821!4d73.820531!16s%2Fg%2F11c1wpfjb2!19sChIJCYcrRmC4wjsRmrrywxaH7ew?authuser=0&hl=en&rclk=1","18.6204821,73.820531"
Masjid e Ansar,Mosque,"JQ78+5Q5 Masjid e Ansar, near, Aditya Birla Hospital Marg, Thergaon, Pimpri-Chinchwad, Maharashtra 411033","Mangal Nagar, Thergaon","JQ78+5Q5, near, Aditya Birla Hospital Marg",Pimpri-Chinchwad,411033,Maharashtra,IN,https://www.google.com/maps/place/Masjid+e+Ansar/data=!4m7!3m6!1s0x3bc2b975951d5ec9:0x7c637e79f0acba30!8m2!3d18.6128915!4d73.766983!16s%2Fg%2F1q6jb2yz2!19sChIJyV4dlXW5wjsRMLqs8Hl-Y3w?authuser=0&hl=en&rclk=1,"18.6128915,73.766983"
FatimaNagar Masjid,Mosque,"MV43+665 FatimaNagar Masjid, Jadhav Sadan Rd, Gandharv Nagari, Khandesh Nagar, Tapkir Nagar, Moshi, Pimpri-Chinchwad, Maharashtra 412105","Gandharv Nagari, Khandesh Nagar, Tapkir Nagar, Moshi","MV43+665, Jadhav Sadan Rd",Pimpri-Chinchwad,412105,Maharashtra,IN,https://www.google.com/maps/place/FatimaNagar+Masjid/data=!4m7!3m6!1s0x3bc2c7f01adebed7:0xc654aa10bca1bbdc!8m2!3d18.6555101!4d73.8530959!16s%2Fg%2F11b7ccyk90!19sChIJ177eGvDHwjsR3LuhvBCqVMY?authuser=0&hl=en&rclk=1,"18.6555101,73.8530959"
Masjid e Hazrat Huzefa,Mosque,"JQ69+Q9C Masjid e Hazrat Huzefa, Gujar Nagar, Sai Colony, Thergaon, Pimpri-Chinchwad, Maharashtra 411033","Gujar Nagar, Sai Colony, Thergaon",JQ69+Q9C,Pimpri-Chinchwad,411033,Maharashtra,IN,https://www.google.com/maps/place/Masjid+e+Hazrat+Huzefa/data=!4m7!3m6!1s0x3bc2b9750850c551:0x521e13d1991e1d2d!8m2!3d18.6119429!4d73.7683902!16s%2Fg%2F11bxf44b0b!19sChIJUcVQCHW5wjsRLR0emdETHlI?authuser=0&hl=en&rclk=1,"18.6119429,73.7683902"
Alamgir Shahi Masjid Trust,Mosque,"JQHJ+46W Alamgir Shahi Masjid Trust, Gandhi Peth, Prabhat Colony, Chinchwad Gaon, Chinchwad, Pimpri-Chinchwad, Maharashtra 411033","Gandhi Peth, Prabhat Colony, Chinchwad Gaon, Chinchwad",JQHJ+46W,Pimpri-Chinchwad,411033,Maharashtra,IN,https://www.google.com/maps/place/Alamgir+Shahi+Masjid+Trust/data=!4m7!3m6!1s0x3bc2b9badc71344d:0x22b4901fd487602f!8m2!3d18.6278709!4d73.7805876!16s%2Fg%2F1yfdqxz61!19sChIJTTRx3Lq5wjsRL2CH1B-QtCI?authuser=0&hl=en&rclk=1,"18.627870899999998,73.78058759999999"
Masjid e ishaatul uloom,Mosque,"JRC2+G36 Masjid e ishaatul uloom, Pimpri-Chinchwad Link Rd, Shastri Nagar, Pimpri Colony, Pimpri-Chinchwad, Maharashtra 411017","Shastri Nagar, Pimpri Colony","JRC2+G36, Pimpri-Chinchwad Link Rd",Pimpri-Chinchwad,411017,Maharashtra,IN,https://www.google.com/maps/place/Masjid+e+ishaatul+uloom/data=!4m7!3m6!1s0x3bc2b854228cc065:0xbb5772c57bb8dae8!8m2!3d18.6212977!4d73.8001536!16s%2Fg%2F11g8p8nccl!19sChIJZcCMIlS4wjsR6Nq4e8VyV7s?authuser=0&hl=en&rclk=1,"18.6212977,73.8001536"
Juma Masjid,Mosque,"JRCW+33X Juma Masjid, Philips Rd, Vikas Colony, Landewadi, Bhosari, Pimpri-Chinchwad, Maharashtra 411039","Vikas Colony, Landewadi, Bhosari","JRCW+33X, Philips Rd",Pimpri-Chinchwad,411039,Maharashtra,IN,https://www.google.com/maps/place/Juma+Masjid/data=!4m7!3m6!1s0x3bc2c77f776eab15:0x17c27882235a85c0!8m2!3d18.6202428!4d73.84523!16s%2Fg%2F1x5f8thf!19sChIJFatud3_HwjsRwIVaI4J4whc?authuser=0&hl=en&rclk=1,"18.6202428,73.84523"
Jamia Mujahid-e-millat(sunni Masjid),Mosque,"Jamia Mujahid-e-millat(sunni Masjid), 179/12/19, Shri Mhalsakant Vidyalaya Rd, Sector 19, Ganga Nagar, Akurdi, Pimpri-Chinchwad, Maharashtra 411035","Sector 19, Ganga Nagar, Akurdi","179/12/19, Shri Mhalsakant Vidyalaya Rd",Pimpri-Chinchwad,411035,Maharashtra,IN,https://www.google.com/maps/place/Jamia+Mujahid-e-millat%28sunni+Masjid%29/data=!4m7!3m6!1s0x3bc2b9cffafd391b:0x69b87feb02f7c21c!8m2!3d18.6496678!4d73.7837513!16s%2Fg%2F11byyqpp37!19sChIJGzn9-s-5wjsRHML3Aut_uGk?authuser=0&hl=en&rclk=1,"18.6496678,73.78375129999999"
Masjid E Amena,Mosque,"HVQ7+M32 Masjid E Amena, Ganesh Nagar, Bopkhel, Pimpri-Chinchwad, Pune, Maharashtra 411015","Ganesh Nagar, Bopkhel",HVQ7+M32,"Pimpri-Chinchwad, Pune",411015,Maharashtra,IN,https://www.google.com/maps/place/Masjid+E+Amena/data=!4m7!3m6!1s0x3bc2c747cb9e6045:0x9ea6a10ac34d00a5!8m2!3d18.5891327!4d73.8626558!16s%2Fg%2F1pp2vml9h!19sChIJRWCey0fHwjsRpQBNwwqhpp4?authuser=0&hl=en&rclk=1,"18.5891327,73.8626558"
Masjid e Abu Huraira,Mosque,"Masjid e Abu Huraira, 712, Kudalwadi, Chikhali, Pimpri-Chinchwad, Maharashtra 411062","Kudalwadi, Chikhali",712,Pimpri-Chinchwad,411062,Maharashtra,IN,https://www.google.com/maps/place/Masjid+e+Abu+Huraira/data=!4m7!3m6!1s0x3bc2b7931491885b:0x30644e3f0ea4973d!8m2!3d18.679355!4d73.8164758!16s%2Fg%2F11g6rbrjcg!19sChIJW4iRFJO3wjsRPZekDj9OZDA?authuser=0&hl=en&rclk=1,"18.679354999999997,73.81647579999999"
Madarsa maszid kanzul imaan,Mosque,"MQJM+HX2 Madarsa maszid kanzul imaan, Rupeenagar, Sahyog Nagar, Pimpri-Chinchwad, Maharashtra 411062","Rupeenagar, Sahyog Nagar",MQJM+HX2,Pimpri-Chinchwad,411062,Maharashtra,IN,https://www.google.com/maps/place/Madarsa+maszid+kanzul+imaan/data=!4m7!3m6!1s0x3bc2b7725c9ae525:0x7635f6687b9d6b1a!8m2!3d18.681395!4d73.7848896!16s%2Fg%2F11f0wjg2_s!19sChIJJeWaXHK3wjsRGmude2j2NXY?authuser=0&hl=en&rclk=1,"18.681395,73.7848896"
Mohammadi Masjid Ahle Hadees,Mosque,"JRPG+5VG Mohammadi Masjid Ahle Hadees, Telco Bhosari Rd, Ganesh Nagar, Bhosari, Pimpri-Chinchwad, Maharashtra 411026","Ganesh Nagar, Bhosari","JRPG+5VG, Telco Bhosari Rd",Pimpri-Chinchwad,411026,Maharashtra,IN,https://www.google.com/maps/place/Mohammadi+Masjid+Ahle+Hadees/data=!4m7!3m6!1s0x3bc2b86e8a80c39d:0xaccccdda4e9e8feb!8m2!3d18.6354464!4d73.827196!16s%2Fg%2F1pp2x5fn3!19sChIJncOAim64wjsR64-eTtrNzKw?authuser=0&hl=en&rclk=1,"18.6354464,73.827196"
"Masjid,Indrayani Nagar",Mosque,"JRJQ+XCV Masjid,Indrayani Nagar, Anandrao Lande Rd, MIDC, Bhosari, Pimpri-Chinchwad, Maharashtra 411026","MIDC, Bhosari","JRJQ+XCV, Anandrao Lande Rd",Pimpri-Chinchwad,411026,Maharashtra,IN,"https://www.google.com/maps/place/Masjid,Indrayani+Nagar/data=!4m7!3m6!1s0x3bc2b8777bcc1c3d:0xf662dd3351e8cf23!8m2!3d18.6324803!4d73.8385406!16s%2Fg%2F11c536qjv8!19sChIJPRzMe3e4wjsRI8_oUTPdYvY?authuser=0&hl=en&rclk=1","18.632480299999997,73.8385406"
Sunni Masjid,Mosque,"Sunni Masjid, Sarita Kunj, Behind 411027, Shastri Nagar, Kasarwadi, Pimpri-Chinchwad, Maharashtra 411034","Shastri Nagar, Kasarwadi","Sarita Kunj, Behind 411027",Pimpri-Chinchwad,411034,Maharashtra,IN,https://www.google.com/maps/place/Sunni+Masjid/data=!4m7!3m6!1s0x3bc2b8940d6f78d1:0x13367ca551834768!8m2!3d18.6014776!4d73.822768!16s%2Fg%2F11cltb349j!19sChIJ0XhvDZS4wjsRaEeDUaV8NhM?authuser=0&hl=en&rclk=1,"18.6014776,73.822768"
Masjid_E_Aayesha R.A.(Vidya Nagar),Mosque,"MQ3W+5QC Masjid_E_Aayesha R.A.(Vidya Nagar), Vidya Nagar, MIDC, Chinchwad, Pimpri-Chinchwad, Maharashtra 411019","Vidya Nagar, MIDC, Chinchwad",MQ3W+5QC,Pimpri-Chinchwad,411019,Maharashtra,IN,https://www.google.com/maps/place/Masjid_E_Aayesha+R.A.%28Vidya+Nagar%29/data=!4m7!3m6!1s0x3bc2b82d0ceaec6b:0xb84fdd762ee1777f!8m2!3d18.6529452!4d73.7968919!16s%2Fg%2F1yfdpblnb!19sChIJa-zqDC24wjsRf3fhLnbdT7g?authuser=0&hl=en&rclk=1,"18.652945199999998,73.79689189999999"
Tayyab Masjid,Mosque,"Tayyab Masjid, Unnamed Road, Jai Bhim Nagar, Dapodi, Pimpri-Chinchwad, Maharashtra 411012","Jai Bhim Nagar, Dapodi",Unnamed Road,Pimpri-Chinchwad,411012,Maharashtra,IN,https://www.google.com/maps/place/Tayyab+Masjid/data=!4m7!3m6!1s0x3bc2b9cc75f4ca3f:0x19ad4a38ebd3d42f!8m2!3d18.5766774!4d73.8335372!16s%2Fg%2F11fcv9lt0q!19sChIJP8r0dcy5wjsRL9TT6zhKrRk?authuser=0&hl=en&rclk=1,"18.576677399999998,73.8335372"
Juma Masjid,Mosque,"JRCG+7R7 Juma Masjid, MIDC, Bhosari, Pimpri-Chinchwad, Maharashtra 411026","MIDC, Bhosari",JRCG+7R7,Pimpri-Chinchwad,411026,Maharashtra,IN,https://www.google.com/maps/place/Juma+Masjid/data=!4m7!3m6!1s0x3bc2b86261adc25d:0x2be74e3aeaaa1cb3!8m2!3d18.6206663!4d73.8270589!16s%2Fg%2F1vm78xhx!19sChIJXcKtYWK4wjsRsxyq6jpO5ys?authuser=0&hl=en&rclk=1,"18.6206663,73.8270589"
Mosque,Mosque,"JQWX+V4W Mosque, Mohan Nagar, MIDC, Chinchwad, Pimpri-Chinchwad, Maharashtra 411019","Mohan Nagar, MIDC, Chinchwad",JQWX+V4W,Pimpri-Chinchwad,411019,Maharashtra,IN,https://www.google.com/maps/place/Mosque/data=!4m7!3m6!1s0x3bc2b8330a79ba9d:0x8b46ec9b4291301b!8m2!3d18.6472452!4d73.7978372!16s%2Fg%2F1yg4fd3td!19sChIJnbp5CjO4wjsRGzCRQpvsRos?authuser=0&hl=en&rclk=1,"18.6472452,73.7978372"
Noor Mohalla Masjid,Mosque,"Noor Mohalla Masjid, PL-30, Mukesh Nagar, Pimpri Colony, Pimpri-Chinchwad, Maharashtra 411018","Mukesh Nagar, Pimpri Colony",PL-30,Pimpri-Chinchwad,411018,Maharashtra,IN,https://www.google.com/maps/place/Noor+Mohalla+Masjid/data=!4m7!3m6!1s0x3bc2b86650b442c9:0x398aa3af4543d4ec!8m2!3d18.6279958!4d73.8219814!16s%2Fg%2F11ckr5wq63!19sChIJyUK0UGa4wjsR7NRDRa-jijk?authuser=0&hl=en&rclk=1,"18.6279958,73.8219814"
Masjid Bhosari,Mosque,"JVC2+RMW Masjid Bhosari, Adarsh Nagar, Bhosari, Pimpri-Chinchwad, Maharashtra 411039","Adarsh Nagar, Bhosari",JVC2+RMW,Pimpri-Chinchwad,411039,Maharashtra,IN,https://www.google.com/maps/place/Masjid+Bhosari/data=!4m7!3m6!1s0x3bc2c7829bb152f5:0xc64266ee05c8124e!8m2!3d18.622102!4d73.851715!16s%2Fg%2F11gfdzn88r!19sChIJ9VKxm4LHwjsRThLIBe5mQsY?authuser=0&hl=en&rclk=1,"18.622101999999998,73.851715"
Masjid-E-Aqsa (Vikas Nagar),Mosque,"Masjid-E-Aqsa (Vikas Nagar), Sr.No.43. Vikas Nagar Aqsa Masjid Kiwale, Kiwale, Pune, Maharashtra 412101","Pragati B Colony, Kiwale",Sr.No.43. Vikas Nagar Aqsa Masjid Kiwale,"Pune, Dehu Road",412101,Maharashtra,IN,https://www.google.com/maps/place/Masjid-E-Aqsa+%28Vikas+Nagar%29/data=!4m7!3m6!1s0x3bc2b0ba8bdc43c7:0x181153e21b1e02ac!8m2!3d18.6716508!4d73.7349601!16s%2Fg%2F11f08sfsgk!19sChIJx0Pci7qwwjsRrAIeG-JTERg?authuser=0&hl=en&rclk=1,"18.6716508,73.7349601"
Masjid e Bilal,Mosque,"JR3F+974 Masjid e Bilal, Shastri Nagar, Kasarwadi, Pimpri-Chinchwad, Maharashtra 411034","Shastri Nagar, Kasarwadi",JR3F+974,Pimpri-Chinchwad,411034,Maharashtra,IN,https://www.google.com/maps/place/Masjid+e+Bilal/data=!4m7!3m6!1s0x3bc2b893c22ee02d:0x2096a85717d2d253!8m2!3d18.6033879!4d73.8231887!16s%2Fg%2F11f10g31ph!19sChIJLeAuwpO4wjsRU9LSF1eoliA?authuser=0&hl=en&rclk=1,"18.603387899999998,73.8231887"
Masjid-E-Umar,Mosque,"MRJW+VMF Masjid-E-Umar, Tupe Vasti, Moshi, Pimpri-Chinchwad, Maharashtra 412105","Tupe Vasti, Moshi",MRJW+VMF,Pimpri-Chinchwad,412105,Maharashtra,IN,https://www.google.com/maps/place/Masjid-E-Umar/data=!4m7!3m6!1s0x3bc2c9617924615b:0x5da50e610ada7532!8m2!3d18.6821882!4d73.8466778!16s%2Fg%2F11ghn819gl!19sChIJW2EkeWHJwjsRMnXaCmEOpV0?authuser=0&hl=en&rclk=1,"18.6821882,73.8466778"
Madrasa Talimul Islam,Mosque,"JQWR+3X5 Madrasa Talimul Islam, Dharamveer Smabhaji Marg, Kalbhor Nagar, MIDC, Chinchwad, Pimpri-Chinchwad, Maharashtra 411019","Kalbhor Nagar, MIDC, Chinchwad","JQWR+3X5, Dharamveer Smabhaji Marg",Pimpri-Chinchwad,411019,Maharashtra,IN,https://www.google.com/maps/place/Madrasa+Talimul+Islam/data=!4m7!3m6!1s0x3bc2b9cc82cc474d:0x1e1e3af65d08c302!8m2!3d18.6451483!4d73.7924932!16s%2Fg%2F11b61rw37l!19sChIJTUfMgsy5wjsRAsMIXfY6Hh4?authuser=0&hl=en&rclk=1,"18.6451483,73.7924932"
Masjid-E-Zainab,Mosque,"JQX5+PFV Masjid-E-Zainab, Ramabai Nagar, Shinde Vasti, Ravet, Pimpri-Chinchwad, Maharashtra 411044","Ramabai Nagar, Shinde Vasti, Ravet",JQX5+PFV,Pimpri-Chinchwad,411044,Maharashtra,IN,https://www.google.com/maps/place/Masjid-E-Zainab/data=!4m7!3m6!1s0x3bc2b903b298509d:0x53c9c1ed491b0778!8m2!3d18.6493631!4d73.7586801!16s%2Fg%2F11gj74zdt5!19sChIJnVCYsgO5wjsReAcbSe3ByVM?authuser=0&hl=en&rclk=1,"18.6493631,73.75868009999999"
Shahi Jama Masjid,Mosque,"MRM8+VM3 Shahi Jama Masjid, Chikhali, Pimpri-Chinchwad, Moi, Maharashtra 411062",Chikhali,MRM8+VM3,"Pimpri-Chinchwad, Moi",411062,Maharashtra,IN,https://www.google.com/maps/place/Shahi+Jama+Masjid/data=!4m7!3m6!1s0x3bc2b794e1c363e3:0x24abde8b8aea33e3!8m2!3d18.6846303!4d73.81668!16s%2Fg%2F11gfjbjj8b!19sChIJ42PD4ZS3wjsR4zPqioveqyQ?authuser=0&hl=en&rclk=1,"18.6846303,73.81667999999999"
Jama Masjid (Masjid-e-Ahle Hadees),Mosque,"MR77+WWM Jama Masjid (Masjid-e-Ahle Hadees), Raje Shivaji Nagar, Kudalwadi Industrial Area, Chikhali, Pimpri-Chinchwad, Maharashtra 411019","Raje Shivaji Nagar, Kudalwadi Industrial Area, Chikhali",MR77+WWM,Pimpri-Chinchwad,411019,Maharashtra,IN,https://www.google.com/maps/place/Jama+Masjid+%28Masjid-e-Ahle+Hadees%29/data=!4m7!3m6!1s0x3bc2b7a3685dada7:0x5c63cc50d6eea2e3!8m2!3d18.6648355!4d73.814806!16s%2Fg%2F11frqycfp2!19sChIJp61daKO3wjsR46Lu1lDMY1w?authuser=0&hl=en&rclk=1,"18.6648355,73.81480599999999"
Masjid Hazrat Ibrahim (AS),Mosque,"JR2F+FCP Masjid Hazrat Ibrahim (AS), near urdu Dr.Allahma Iqbal School, Keshav Nagar, Shastri Nagar, Kasarwadi, Pimpri-Chinchwad, Maharashtra 411034","Keshav Nagar, Shastri Nagar, Kasarwadi","JR2F+FCP, near urdu Dr.Allahma Iqbal School",Pimpri-Chinchwad,411034,Maharashtra,IN,https://www.google.com/maps/place/Masjid+Hazrat+Ibrahim+%28AS%29/data=!4m7!3m6!1s0x3bc2b94ffb64ddc3:0xf4f9f870628dde98!8m2!3d18.6012011!4d73.8235776!16s%2Fg%2F11fk8fjnz7!19sChIJw91k-0-5wjsRmN6NYnD4-fQ?authuser=0&hl=en&rclk=1,"18.6012011,73.8235776"
Mulani Masjid ahle sunnat wal jamat,Mosque,"MW35+PPF Mulani Masjid ahle sunnat wal jamat, Gandhi Chowk, Haveli, Charholi Budruk, Pimpri-Chinchwad, Maharashtra 412105","Wagholi, Charholi Budruk","MW35+PPF, Gandhi Chowk, Haveli",Pimpri-Chinchwad,412105,Maharashtra,IN,https://www.google.com/maps/place/Mulani+Masjid+ahle+sunnat+wal+jamat/data=!4m7!3m6!1s0x3bc2c63e8bb9adf7:0x773902adb3f9f0a6!8m2!3d18.6543088!4d73.9092883!16s%2Fg%2F1pp2wwrjx!19sChIJ9625iz7GwjsRpvD5s60COXc?authuser=0&hl=en&rclk=1,"18.6543088,73.9092883"
Husaini Arabi Madrasa / Masjid,Mosque,"Husaini Arabi Madrasa / Masjid, 3/11/1076, Vrundavan Colony, Sathe Colony, Akurdi, Pimpri-Chinchwad, Maharashtra 411033","Vrundavan Colony, Sathe Colony, Akurdi",3/11/1076,Pimpri-Chinchwad,411033,Maharashtra,IN,https://www.google.com/maps/place/Husaini+Arabi+Madrasa+%2F+Masjid/data=!4m7!3m6!1s0x3bc2b90f93f7bac1:0x6304183aea41c08b!8m2!3d18.6361438!4d73.7745723!16s%2Fg%2F11h7kt0g10!19sChIJwbr3kw-5wjsRi8BB6joYBGM?authuser=0&hl=en&rclk=1,"18.6361438,73.7745723"
Masjid-e-Ibrahim (Mosque),Mosque,"Masjid-e-Ibrahim (Mosque), A-3, Pimple Gurav Rd, Keshav Nagar, Jawakar Nagar, Pimple Gurav, Pimpri-Chinchwad, Maharashtra 411027","Keshav Nagar, Jawakar Nagar, Pimple Gurav","A-3, Pimple Gurav Rd",Pimpri-Chinchwad,411027,Maharashtra,IN,https://www.google.com/maps/place/Masjid-e-Ibrahim+%28Mosque%29/data=!4m7!3m6!1s0x3bc2b894055ba6d1:0xc1f85741d0fab64a!8m2!3d18.601174!4d73.8235606!16s%2Fg%2F11c0xfr9fp!19sChIJ0aZbBZS4wjsRSrb60EFX-ME?authuser=0&hl=en&rclk=1,"18.601174,73.8235606"
Muhammadiya Masjid {Madrasa} Shitala Nagar,Mosque,"Muhammadiya Masjid {Madrasa} Shitala Nagar, 412101, Shitala Nagar, Dehu Road, Maharashtra","Shitala Nagar, Mamurdi",412101,Dehu Road,,Maharashtra,IN,https://www.google.com/maps/place/Muhammadiya+Masjid+%7BMadrasa%7D+Shitala+Nagar/data=!4m7!3m6!1s0x3bc2b09509f6dbd9:0x9bf112163d4873e2!8m2!3d18.6765051!4d73.7223905!16s%2Fg%2F11g6915d37!19sChIJ2dv2CZWwwjsR4nNIPRYS8Zs?authuser=0&hl=en&rclk=1,"18.6765051,73.7223905"
Masjid e Hazrat Abubakar siddique (rz),Mosque,"MV43+665 Masjid e Hazrat Abubakar siddique (rz), Gandharv Nagari, Khandesh Nagar, Fatima nagar, Moshi, Pimpri-Chinchwad, Maharashtra 412105","Gandharv Nagari, Khandesh Nagar, Fatima nagar, Moshi",MV43+665,Pimpri-Chinchwad,412105,Maharashtra,IN,https://www.google.com/maps/place/Masjid+e+Hazrat+Abubakar+siddique+%28rz%29/data=!4m7!3m6!1s0x3bc2c7c3a0111df9:0x4b35fddc364819fc!8m2!3d18.6555108!4d73.8531!16s%2Fg%2F11h70g_l08!19sChIJ-R0RoMPHwjsR_BlINtz9NUs?authuser=0&hl=en&rclk=1,"18.6555108,73.8531"
Madarsa Chistiya Faize Husain,Mosque,"MQ9J+QP3 Madarsa Chistiya Faize Husain, Milind Nagar, Nigdi, Pimpri-Chinchwad, Maharashtra 411044","Milind Nagar, Nigdi",MQ9J+QP3,Pimpri-Chinchwad,411044,Maharashtra,IN,https://www.google.com/maps/place/Madarsa+Chistiya+Faize+Husain/data=!4m7!3m6!1s0x3bc2b764c2dee3b7:0xa8b3f1bd5c34f0cb!8m2!3d18.669381!4d73.7817869!16s%2Fg%2F11c2dr4r12!19sChIJt-PewmS3wjsRy_A0XL3xs6g?authuser=0&hl=en&rclk=1,"18.669380999999998,73.7817869"
Masjid E Bilal (Dalvinagar),Mosque,"Masjid E Bilal (Dalvinagar), PL-38, Dalvinagar, Chinchwad, Pimpri-Chinchwad, Maharashtra 411033","Dalvinagar, Chinchwad",PL-38,Pimpri-Chinchwad,411033,Maharashtra,IN,https://www.google.com/maps/place/Masjid+E+Bilal+%28Dalvinagar%29/data=!4m7!3m6!1s0x3bc2b9c8bd18c08d:0x7283a74c59af1f70!8m2!3d18.6432306!4d73.7836135!16s%2Fg%2F11c5gzm_3r!19sChIJjcAYvci5wjsRcB-vWUyng3I?authuser=0&hl=en&rclk=1,"18.6432306,73.7836135"
Jama Masjid Phugewadi,Mosque,"HRPJ+GFG Jama Masjid Phugewadi, Sanjay Nagar, Phugewadi, Dapodi, Pimpri-Chinchwad, Maharashtra 411012","Sanjay Nagar, Phugewadi, Dapodi",HRPJ+GFG,Pimpri-Chinchwad,411012,Maharashtra,IN,https://www.google.com/maps/place/Jama+Masjid+Phugewadi/data=!4m7!3m6!1s0x3bc2b99f5490eeb1:0x4b4f6268dbc43d4!8m2!3d18.5863085!4d73.8311881!16s%2Fg%2F11gn26t_44!19sChIJse6QVJ-5wjsR1EO8jSb2tAQ?authuser=0&hl=en&rclk=1,"18.586308499999998,73.83118809999999"
Anjuman Gulshane Madina Madarsa Masjid,Mosque,"JV7G+H4V Anjuman Gulshane Madina Madarsa Masjid, Runwal Park, Vijay Nagar, Dighi, Pimpri-Chinchwad, Maharashtra 411015","Runwal Park, Vijay Nagar, Dighi",JV7G+H4V,Pimpri-Chinchwad,411015,Maharashtra,IN,https://www.google.com/maps/place/Anjuman+Gulshane+Madina+Madarsa+Masjid/data=!4m7!3m6!1s0x3bc2c70fbbea499f:0x4901a6e3383f0341!8m2!3d18.6139973!4d73.8752882!16s%2Fg%2F11hc_8lxvl!19sChIJn0nquw_HwjsRQQM_OOOmAUk?authuser=0&hl=en&rclk=1,"18.613997299999998,73.8752882"
Dapodi Kabrastan Masjid (Al-Hamza),Mosque,"HRMG+4GG Dapodi Kabrastan Masjid (Al-Hamza), Ganesh Nagar, Dapodi, Pimpri-Chinchwad, Maharashtra 411012","Ganesh Nagar, Dapodi",HRMG+4GG,Pimpri-Chinchwad,411012,Maharashtra,IN,https://www.google.com/maps/place/Dapodi+Kabrastan+Masjid+%28Al-Hamza%29/data=!4m7!3m6!1s0x3bc2b9cebb300c25:0x67c3d800235ba724!8m2!3d18.5828194!4d73.8263215!16s%2Fg%2F11hzx3c1dq!19sChIJJQwwu865wjsRJKdbIwDYw2c?authuser=0&hl=en&rclk=1,"18.582819399999998,73.82632149999999"
Faizan E Chisht Jama Masjid.,Mosque,"Faizan E Chisht Jama Masjid., Vitthal Nagar, Nehru Nagar, Pimpri Colony, Pimpri-Chinchwad, Maharashtra 411018","Vitthal Nagar, Nehru Nagar, Pimpri Colony",,Pimpri-Chinchwad,411018,Maharashtra,IN,https://www.google.com/maps/place/Faizan+E+Chisht+Jama+Masjid./data=!4m7!3m6!1s0x3bc2b953dd2da1c9:0x525f3adb89ee184f!8m2!3d18.6329891!4d73.8225405!16s%2Fg%2F12hks114q!19sChIJyaEt3VO5wjsRTxjuids6X1I?authuser=0&hl=en&rclk=1,"18.6329891,73.8225405"
Masjid -E- Abu Bakr (R.A),Mosque,"Masjid -E- Abu Bakr (R.A), 18/1, lane-7, Choudhary Park, Colony Number 8, Vijay Nagar, Dighi, Pimpri-Chinchwad, Maharashtra 411015","Choudhary Park, Colony Number 8, Vijay Nagar, Dighi","18/1, lane-7",Pimpri-Chinchwad,411015,Maharashtra,IN,https://www.google.com/maps/place/Masjid+-E-+Abu+Bakr+%28R.A%29/data=!4m7!3m6!1s0x3bc2c7a27228d7d3:0xfed566fa13134861!8m2!3d18.6153212!4d73.87759!16s%2Fg%2F11qb3vrzdh!19sChIJ09cocqLHwjsRYUgTE_pm1f4?authuser=0&hl=en&rclk=1,"18.6153212,73.87759"
Masjid,Mosque,"JRWH+652 Masjid, Khande Wasti, Pimpri Chinchwad New Twp Development Authority, MIDC, Bhosari, Pimpri-Chinchwad, Maharashtra 411026","Khande Wasti, Pimpri Chinchwad New Township Development Authority, MIDC, Bhosari",JRWH+652,Pimpri-Chinchwad,411026,Maharashtra,IN,https://www.google.com/maps/place/Masjid/data=!4m7!3m6!1s0x3bc2b938f78460eb:0x8bf28a4ad3e2f330!8m2!3d18.6455037!4d73.8278835!16s%2Fg%2F11gr371_nx!19sChIJ62CE9zi5wjsRMPPi00qK8os?authuser=0&hl=en&rclk=1,"18.6455037,73.8278835"
Madarsa Noorul Islam Masjid,Mosque,"MQ9J+9F6 Madarsa Noorul Islam Masjid, Raj Nagar, Nigdi, Pimpri-Chinchwad, Maharashtra 411044","Raj Nagar, Nigdi",MQ9J+9F6,Pimpri-Chinchwad,411044,Maharashtra,IN,https://www.google.com/maps/place/Madarsa+Noorul+Islam+Masjid/data=!4m7!3m6!1s0x3bc2b77753bde54b:0xb7689e5b1e2e6c8f!8m2!3d18.6684065!4d73.7811515!16s%2Fg%2F11fl98l5gj!19sChIJS-W9U3e3wjsRj2wuHlueaLc?authuser=0&hl=en&rclk=1,"18.6684065,73.78115149999999"
Kabrastan Mosque,Mosque,"MQ9F+7WR Kabrastan Mosque, Roopi Nagar Rd, Lokshahir Annabhau Sathe Nagar, Nigdi, Pimpri-Chinchwad, Maharashtra 411044","Lokshahir Annabhau Sathe Nagar, Nigdi","MQ9F+7WR, Roopi Nagar Rd",Pimpri-Chinchwad,411044,Maharashtra,IN,https://www.google.com/maps/place/Kabrastan+Mosque/data=!4m7!3m6!1s0x3bc2b766e6fbfcd1:0xe7f1ebc2f788c01e!8m2!3d18.6682466!4d73.7747685!16s%2Fg%2F11bw82m0v0!19sChIJ0fz75ma3wjsRHsCI98Lr8ec?authuser=0&hl=en&rclk=1,"18.6682466,73.7747685"
Masjid e FURQAN,Mosque,"JRCF+WCX Masjid e FURQAN, Phule Nagar, Pimpri Colony, Pimpri-Chinchwad, Maharashtra 411026","Phule Nagar, Pimpri Colony",JRCF+WCX,Pimpri-Chinchwad,411026,Maharashtra,IN,https://www.google.com/maps/place/Masjid+e+FURQAN/data=!4m7!3m6!1s0x3bc2b8617a02b28f:0x547b775d1b2fa287!8m2!3d18.6223678!4d73.8235977!16s%2Fg%2F11f57sxtxz!19sChIJj7ICemG4wjsRh6IvG113e1Q?authuser=0&hl=en&rclk=1,"18.6223678,73.8235977"
Madrsa-E-Jamiya masjid,Mosque,"Madrsa-E-Jamiya masjid, PL - 3, 11/277, Sayli Complex Rd, Laxminagar, Walhekarwadi, Sector No. 32, Nigdi, Pimpri-Chinchwad, Maharashtra 411033","Laxminagar, Walhekarwadi, Sector No. 32, Nigdi","PL - 3, 11/277, Sayli Complex Rd",Pimpri-Chinchwad,411033,Maharashtra,IN,https://www.google.com/maps/place/Madrsa-E-Jamiya+masjid/data=!4m7!3m6!1s0x3bc2b97bd6577acf:0xb46d23889d344e97!8m2!3d18.6361379!4d73.7625929!16s%2Fg%2F11h01xr62z!19sChIJz3pX1nu5wjsRl040nYgjbbQ?authuser=0&hl=en&rclk=1,"18.636137899999998,73.7625929"
Kabrastan Masjid,Mosque,"Kabrastan Masjid, P173, River Rd, Ambedkar Colony, Pimpri Colony, Pimpri-Chinchwad, Maharashtra 411017","Ambedkar Colony, Pimpri Colony","P173, River Rd",Pimpri-Chinchwad,411017,Maharashtra,IN,https://www.google.com/maps/place/Kabrastan+Masjid/data=!4m7!3m6!1s0x3bc2b945a98e071f:0x99000952820fbe8b!8m2!3d18.626714!4d73.7949202!16s%2Fg%2F11gxvpz9sl!19sChIJHweOqUW5wjsRi74PglIJAJk?authuser=0&hl=en&rclk=1,"18.626714,73.79492019999999"
Quba Masjid,Mosque,"Quba Masjid, Z-6B, Pragati Housing Society, Nigdi, Pimpri-Chinchwad, Maharashtra 411044","Pragati Housing Society, Nigdi",Z-6B,Pimpri-Chinchwad,411044,Maharashtra,IN,https://www.google.com/maps/place/Quba+Masjid/data=!4m7!3m6!1s0x3bc2b7009f633319:0xff0bcd5b3144840a!8m2!3d18.6719455!4d73.7780634!16s%2Fg%2F11h51j51nb!19sChIJGTNjnwC3wjsRCoREMVvNC_8?authuser=0&hl=en&rclk=1,"18.6719455,73.7780634"
Madina Masjid - Gandhi Nagar,Mosque,"Madina Masjid - Gandhi Nagar, Remeshwar Complex, Nehru Nagar Bhosari Rd, Gandhi Nagar, Kharalwadi, Pimpri Colony, Pimpri-Chinchwad, Maharashtra 411018","Gandhi Nagar, Kharalwadi, Pimpri Colony","Remeshwar Complex, Nehru Nagar Bhosari Rd",Pimpri-Chinchwad,411018,Maharashtra,IN,https://www.google.com/maps/place/Madina+Masjid+-+Gandhi+Nagar/data=!4m7!3m6!1s0x3bc2b9bb50a3d6ff:0x5d7fd7a7363b9bdb!8m2!3d18.6291621!4d73.8096235!16s%2Fg%2F11frlc3lk0!19sChIJ_9ajULu5wjsR25s7NqfXf10?authuser=0&hl=en&rclk=1,"18.6291621,73.8096235"
Masjid,Place of worship,"Masjid, 91/2, Pimple Gurav Rd, Kashid Park, Prabhat Nagar, Pimple Gurav, Pimpri-Chinchwad, Maharashtra 411061","Kashid Park, Prabhat Nagar, Pimple Gurav","91/2, Pimple Gurav Rd",Pimpri-Chinchwad,411061,Maharashtra,IN,https://www.google.com/maps/place/Masjid/data=!4m7!3m6!1s0x3bc2b894e6e4cdaf:0x784fce319919e04e!8m2!3d18.599141!4d73.8200656!16s%2Fg%2F11dd_qfn_7!19sChIJr83k5pS4wjsRTuAZmTHOT3g?authuser=0&hl=en&rclk=1,"18.599141,73.82006559999999"
Juma Masjid,Mosque,"Juma Masjid, 126/A, Mahatma Phule Marg, Mohan Nagar, MIDC, Chinchwad, Pimpri-Chinchwad, Maharashtra 411019","Mohan Nagar, MIDC, Chinchwad","126/A, Mahatma Phule Marg",Pimpri-Chinchwad,411019,Maharashtra,IN,https://www.google.com/maps/place/Juma+Masjid/data=!4m7!3m6!1s0x3bc2b83392610cc9:0x5d46e00a9b22f56e!8m2!3d18.6471491!4d73.797515!16s%2Fg%2F11b8jczf4z!19sChIJyQxhkjO4wjsRbvUimwrgRl0?authuser=0&hl=en&rclk=1,"18.6471491,73.79751499999999"
Hamidia Masjid,Mosque,"Hamidia Masjid, 220, MIDC, Bhosari, Pimpri-Chinchwad, Maharashtra 411026","MIDC, Bhosari",220,Pimpri-Chinchwad,411026,Maharashtra,IN,https://www.google.com/maps/place/Hamidia+Masjid/data=!4m7!3m6!1s0x3bc2b871bb1a1a2f:0x6e58fa55c5bd5f60!8m2!3d18.634899!4d73.8326931!16s%2Fg%2F11b7yqs1ls!19sChIJLxoau3G4wjsRYF-9xVX6WG4?authuser=0&hl=en&rclk=1,"18.634899,73.8326931"
Noorani Masjid Nigdi Chowk,Mosque,"Noorani Masjid Nigdi Chowk, Pride Residency, Old Mumbai - Pune Hwy, Sector No. 24, Pradhikaran, Nigdi, Pimpri-Chinchwad, Maharashtra 411044","Sector No. 24, Pradhikaran, Nigdi","Pride Residency, Old Mumbai - Pune Hwy",Pimpri-Chinchwad,411044,Maharashtra,IN,https://www.google.com/maps/place/Noorani+Masjid+Nigdi+Chowk/data=!4m7!3m6!1s0x3bc2b99530efb5d9:0x7828f2413d997cfe!8m2!3d18.659479!4d73.776772!16s%2Fg%2F11rjw35y76!19sChIJ2bXvMJW5wjsR_nyZPUHyKHg?authuser=0&hl=en&rclk=1,"18.659478999999997,73.776772"
Maulana Yunus Masjid,Mosque,"Maulana Yunus Masjid, Colony Number 6 Bolhai Mala, Jadhav Wadi, Chikhali, Pune, Maharashtra 412105","Shram Safaly Cooperate Society, Jadhav Wadi, Chikhali",Colony Number 6 Bolhai Mala,"Pune, Pimpri-Chinchwad",412105,Maharashtra,IN,https://www.google.com/maps/place/Maulana+Yunus+Masjid/data=!4m7!3m6!1s0x3bc2b7488ed634f7:0xb1d6bbc127dd1bbf!8m2!3d18.6696402!4d73.8290249!16s%2Fg%2F11p4zdlrw6!19sChIJ9zTWjki3wjsRvxvdJ8G71rE?authuser=0&hl=en&rclk=1,"18.6696402,73.8290249"
Madrasa Darul Huda,Mosque,"Madrasa Darul Huda, Vaastu Udyog Colony, Ajmera Housing Society, Pimpri Colony, Pimpri-Chinchwad, Maharashtra 411018","Vaastu Udyog Colony, Ajmera Housing Society, Pimpri Colony",,Pimpri-Chinchwad,411018,Maharashtra,IN,https://www.google.com/maps/place/Madrasa+Darul+Huda/data=!4m7!3m6!1s0x3bc2b9060ee20465:0x7c15297a757552d6!8m2!3d18.6331675!4d73.8152088!16s%2Fg%2F11j1tdrlrf!19sChIJZQTiDga5wjsR1lJ1dXopFXw?authuser=0&hl=en&rclk=1,"18.6331675,73.8152088"
Ameena masjid,Mosque,"MQGP+74X Ameena masjid, Ganesh Nagar, Sahyog Nagar, Pimpri-Chinchwad, Maharashtra 411062","Ganesh Nagar, Sahyog Nagar",MQGP+74X,Pimpri-Chinchwad,411062,Maharashtra,IN,https://www.google.com/maps/place/Ameena+masjid/data=!4m7!3m6!1s0x3bc2b75c1b83f49b:0x8654d9ee34ce44b5!8m2!3d18.6757734!4d73.7853311!16s%2Fg%2F11rchk84by!19sChIJm_SDG1y3wjsRtUTONO7ZVIY?authuser=0&hl=en&rclk=1,"18.6757734,73.7853311"
Makka Masjid Rajiv Gandhi Nagar (Pimple Gurav),Mosque,"HRR8+37P Makka Masjid Rajiv Gandhi Nagar (Pimple Gurav), Rajiv Gandhi Nagar, Pimple Gurav, Pimpri-Chinchwad, Maharashtra 411061","Rajiv Gandhi Nagar, Pimple Gurav",HRR8+37P,Pimpri-Chinchwad,411061,Maharashtra,IN,https://www.google.com/maps/place/Makka+Masjid+Rajiv+Gandhi+Nagar+%28Pimple+Gurav%29/data=!4m7!3m6!1s0x3bc2b95b6ce538e5:0x8c803d0de4355875!8m2!3d18.590219!4d73.8156924!16s%2Fg%2F11trv53881!19sChIJ5TjlbFu5wjsRdVg15A09gIw?authuser=0&hl=en&rclk=1,"18.590218999999998,73.8156924"
Anjuman Gulshan-e-Raza masjid,Mosque,"JQFR+838 Anjuman Gulshan-e-Raza masjid, Pavana Nagar Lane Number 2, Pavana Nagar, Kalewadi, Pimpri-Chinchwad, Maharashtra 411017","Pavana Nagar, Kalewadi","JQFR+838, Pavana Nagar Lane Number 2",Pimpri-Chinchwad,411017,Maharashtra,IN,https://www.google.com/maps/place/Anjuman+Gulshan-e-Raza+masjid/data=!4m7!3m6!1s0x3bc2b901b9fe5a1d:0x973d60bb53122f7d!8m2!3d18.6232954!4d73.7901904!16s%2Fg%2F11rtrs95ym!19sChIJHVr-uQG5wjsRfS8SU7tgPZc?authuser=0&hl=en&rclk=1,"18.6232954,73.7901904"
Kohinoor Masjid Transport Nagar,Mosque,"MQ79+J9R Kohinoor Masjid Transport Nagar, Block B6, Sidhivinayak Nagari, Transport Nagar, Nigdi, Pimpri-Chinchwad, Maharashtra 411044","Block B6, Sidhivinayak Nagari, Transport Nagar, Nigdi",MQ79+J9R,Pimpri-Chinchwad,411044,Maharashtra,IN,https://www.google.com/maps/place/Kohinoor+Masjid+Transport+Nagar/data=!4m7!3m6!1s0x3bc2b752003a6347:0x14fb383e6f583976!8m2!3d18.664111!4d73.768395!16s%2Fg%2F11h2p69wv1!19sChIJR2M6AFK3wjsRdjlYbz44-xQ?authuser=0&hl=en&rclk=1,"18.664111,73.768395"
Muhammadiya Masjid Moshi Gaon,Mosque,"MVH2+5J4 Muhammadiya Masjid Moshi Gaon, Unnamed Road, Moshi Gaon, Moshi, Pimpri-Chinchwad, Maharashtra 412105","Moshi Gaon, Moshi","MVH2+5J4, Unnamed Road",Pimpri-Chinchwad,412105,Maharashtra,IN,https://www.google.com/maps/place/Muhammadiya+Masjid+Moshi+Gaon/data=!4m7!3m6!1s0x3bc2c9c764f8360f:0x9d9adc4773a14b54!8m2!3d18.6778845!4d73.8515912!16s%2Fg%2F11h5vlwt_w!19sChIJDzb4ZMfJwjsRVEuhc0fcmp0?authuser=0&hl=en&rclk=1,"18.677884499999998,73.8515912"
Masjid E Raza,Place of worship,"JVC8+PRR Masjid E Raza, raja colony, Adarsh Nagar, Dighi, Pune, Pimpri-Chinchwad, Maharashtra 411015","raja colony, Adarsh Nagar, Dighi",JVC8+PRR,"Pune, Pimpri-Chinchwad",411015,Maharashtra,IN,https://www.google.com/maps/place/Masjid+E+Raza/data=!4m7!3m6!1s0x3bc2c70a96767713:0xfa35345d95159430!8m2!3d18.6218543!4d73.8670154!16s%2Fg%2F11ggbqtj12!19sChIJE3d2lgrHwjsRMJQVlV00Nfo?authuser=0&hl=en&rclk=1,"18.6218543,73.8670154"
Jamat e Subhaniyaan Masjid (Ahle Sunnat Wal Jamaat Masjid),Mosque,"JQ8R+X4P Jamat e Subhaniyaan Masjid (Ahle Sunnat Wal Jamaat Masjid), Vijay Nagar, Kalewadi, Pimpri-Chinchwad, Maharashtra 411017","Vijay Nagar, Kalewadi",JQ8R+X4P,Pimpri-Chinchwad,411017,Maharashtra,IN,https://www.google.com/maps/place/Jamat+e+Subhaniyaan+Masjid+%28Ahle+Sunnat+Wal+Jamaat+Masjid%29/data=!4m7!3m6!1s0x3bc2b9aa151c878b:0x61bb1fdb81c5bd64!8m2!3d18.6174507!4d73.7903149!16s%2Fg%2F11f57vkw4c!19sChIJi4ccFaq5wjsRZL3Fgdsfu2E?authuser=0&hl=en&rclk=1,"18.6174507,73.7903149"
Anjuman Saiful Islam Masjid,Mosque,"JVC2+VMM Anjuman Saiful Islam Masjid, Adarsh Nagar, Bhosari, Pimpri-Chinchwad, Maharashtra 411039","Adarsh Nagar, Bhosari",JVC2+VMM,Pimpri-Chinchwad,411039,Maharashtra,IN,https://www.google.com/maps/place/Anjuman+Saiful+Islam+Masjid/data=!4m7!3m6!1s0x3bc2c7829a4b4485:0x11d18b0b9dd0cd7d!8m2!3d18.6222173!4d73.8516695!16s%2Fg%2F11gfdz0895!19sChIJhURLmoLHwjsRfc3QnQuL0RE?authuser=0&hl=en&rclk=1,"18.6222173,73.8516695"
Friend's Association,Mosque,"Friend's Association, U-sector ,building No.1, ground floor., Ajmera Main Rd, Masulkar Colony, Ajmera Housing Society, Pimpri Colony, Pimpri-Chinchwad, Maharashtra 411018","Gharkul Housing Society, Masulkar Colony, Ajmera Housing Society, Pimpri Colony","U-sector ,building No.1, ground floor., Ajmera Main Rd",Pimpri-Chinchwad,411018,Maharashtra,IN,https://www.google.com/maps/place/Friend%27s+Association/data=!4m7!3m6!1s0x3bc2b845b0ea2cc5:0xe534d02c1f0e1f7d!8m2!3d18.633227!4d73.8089358!16s%2Fg%2F1q67s1svt!19sChIJxSzqsEW4wjsRfR8OHyzQNOU?authuser=0&hl=en&rclk=1,"18.633226999999998,73.8089358"
Arshiya Masjid,Mosque,"JRM9+P8R Arshiya Masjid, Sukhwani, Udhyamnagar, Pimpri Colony, Pimpri-Chinchwad, Maharashtra 411018","Sukhwani, Udhyamnagar, Pimpri Colony",JRM9+P8R,Pimpri-Chinchwad,411018,Maharashtra,IN,https://www.google.com/maps/place/Arshiya+Masjid/data=!4m7!3m6!1s0x3bc2b98e68cecf37:0x6968fbd9278be6ce!8m2!3d18.6343585!4d73.8182582!16s%2Fg%2F11mvhrvcbs!19sChIJN8_OaI65wjsRzuaLJ9n7aGk?authuser=0&hl=en&rclk=1,"18.634358499999998,73.8182582"
Masjid-E-Salmaan,Mosque,"JVJ3+2PM Masjid-E-Salmaan, Mahadev Nagar, Dhawade Wasti, Sadgurunagar, Bhosari, Pimpri-Chinchwad, Maharashtra 411039","Mahadev Nagar, Dhawade Wasti, Sadgurunagar, Bhosari",JVJ3+2PM,Pimpri-Chinchwad,411039,Maharashtra,IN,https://www.google.com/maps/place/Masjid-E-Salmaan/data=!4m7!3m6!1s0x3bc2c7d094195199:0x27b62f78f91816fe!8m2!3d18.6300857!4d73.854294!16s%2Fg%2F11srkytr40!19sChIJmVEZlNDHwjsR_hYY-Xgvtic?authuser=0&hl=en&rclk=1,"18.6300857,73.854294"
Abu Hurairah Masjid,Mosque,"Abu Hurairah Masjid, sr. no. 121/1+2 swapnanagari colony rajwadenagar, Kalewadi, Pimpri-Chinchwad, Maharashtra 411017",Kalewadi,sr. no. 121/1+2 swapnanagari colony rajwadenagar,Pimpri-Chinchwad,411017,Maharashtra,IN,https://www.google.com/maps/place/Abu+Hurairah+Masjid/data=!4m7!3m6!1s0x3bc2b9d3479d0e67:0xd5ae1e97cfae0b5a!8m2!3d18.6141611!4d73.7964374!16s%2Fg%2F11fsq6_9m2!19sChIJZw6dR9O5wjsRWguuz5certU?authuser=0&hl=en&rclk=1,"18.6141611,73.7964374"
Masjid Noor e Mohammadi,Mosque,"JQPX+99J Masjid Noor e Mohammadi, Anna Sahib Nagar, Chinchwad, Pimpri-Chinchwad, Maharashtra 411019","Anna Sahib Nagar, Chinchwad",JQPX+99J,Pimpri-Chinchwad,411019,Maharashtra,IN,https://www.google.com/maps/place/Masjid+Noor+e+Mohammadi/data=!4m7!3m6!1s0x3bc2b9d83aeb392f:0xd84aa09e0c7b283c!8m2!3d18.6359524!4d73.7983793!16s%2Fg%2F11j0tws3hx!19sChIJLznrOti5wjsRPCh7DJ6gStg?authuser=0&hl=en&rclk=1,"18.6359524,73.7983793"
NIGAHE KARAM MASJID,Mosque,"JRMJ+9RH NIGAHE KARAM MASJID, Balaji Nagar, MIDC, Bhosari, Pimpri-Chinchwad, Maharashtra 411026","Balaji Nagar, MIDC, Bhosari",JRMJ+9RH,Pimpri-Chinchwad,411026,Maharashtra,IN,https://www.google.com/maps/place/NIGAHE+KARAM+MASJID/data=!4m7!3m6!1s0x3bc2b9d238f4ab9d:0x24478df71e4a99e3!8m2!3d18.6333798!4d73.8321512!16s%2Fg%2F11pvlp0b70!19sChIJnav0ONK5wjsR45lKHveNRyQ?authuser=0&hl=en&rclk=1,"18.6333798,73.8321512"
Fatima masjid,Mosque,"Fatima masjid, ANKUSH ANAND HOUSING SOCIETY-1, Lokshahir Annabhau Sathe Nagar, Talwade, Pimpri-Chinchwad, Maharashtra 411044","Lokshahir Annabhau Sathe Nagar, Talwade",ANKUSH ANAND HOUSING SOCIETY-1,Pimpri-Chinchwad,411044,Maharashtra,IN,https://www.google.com/maps/place/Fatima+masjid/data=!4m7!3m6!1s0x3bc2b78302128d37:0xbf0ad30e7fdcbd22!8m2!3d18.6678649!4d73.7781464!16s%2Fg%2F11rsq4sn5_!19sChIJN40SAoO3wjsRIr3cfw7TCr8?authuser=0&hl=en&rclk=1,"18.667864899999998,73.7781464"
TAWAKKALLAH MASJID ENTRANCE,Mosque,"JRJF+2QC TAWAKKALLAH MASJID ENTRANCE, MIDC, Bhosari, Pimpri-Chinchwad, Maharashtra 411026","MIDC, Bhosari",JRJF+2QC,Pimpri-Chinchwad,411026,Maharashtra,IN,https://www.google.com/maps/place/TAWAKKALLAH+MASJID+ENTRANCE/data=!4m7!3m6!1s0x3bc2b936b89d9e15:0xb8a1614ebc5de9ff!8m2!3d18.6300527!4d73.82438!16s%2Fg%2F11g2_mf982!19sChIJFZ6duDa5wjsR_-ldvE5hobg?authuser=0&hl=en&rclk=1,"18.6300527,73.82437999999999"
"Madras Islahul Muslim, Jama Masjid",Place of worship,"MRG8+CJM Madras Islahul Muslim, Jama Masjid, Kudalwadi, Chikhali, Vitthal Nagar, Pimpri-Chinchwad, Maharashtra 411062","Kudalwadi, Chikhali",MRG8+CJM,"Vitthal Nagar, Pimpri-Chinchwad",411062,Maharashtra,IN,"https://www.google.com/maps/place/Madras+Islahul+Muslim,+Jama+Masjid/data=!4m7!3m6!1s0x3bc2b725e9a2716b:0x9c87186aec6964dc!8m2!3d18.6760951!4d73.8165375!16s%2Fg%2F11fj5kp3cp!19sChIJa3Gi6SW3wjsR3GRp7GoYh5w?authuser=0&hl=en&rclk=1","18.676095099999998,73.8165375"
Qureshi Masjid,Mosque,"JRG2+38M Qureshi Masjid, MIDC, Pimpri Colony, Pimpri-Chinchwad, Maharashtra 411019","MIDC, Pimpri Colony",JRG2+38M,Pimpri-Chinchwad,411019,Maharashtra,IN,https://www.google.com/maps/place/Qureshi+Masjid/data=!4m7!3m6!1s0x3bc2b92210d6d085:0x1e48f514d469e161!8m2!3d18.6252201!4d73.8007971!16s%2Fg%2F11n12g8hck!19sChIJhdDWECK5wjsRYeFp1BT1SB4?authuser=0&hl=en&rclk=1,"18.6252201,73.8007971"
Noorani Masjid,Mosque,"JRMC+3R3 Noorani Masjid, Nehru Nagar, Pimpri Colony, Pune, Pimpri-Chinchwad, Maharashtra 411018","Nehru Nagar, Pimpri Colony",JRMC+3R3,"Pune, Pimpri-Chinchwad",411018,Maharashtra,IN,https://www.google.com/maps/place/Noorani+Masjid/data=!4m7!3m6!1s0x3bc2b92a0e43c415:0x7f59f904b72c5965!8m2!3d18.6326424!4d73.8220467!16s%2Fg%2F11gmgdqwjq!19sChIJFcRDDiq5wjsRZVkstwT5WX8?authuser=0&hl=en&rclk=1,"18.632642399999998,73.8220467"
Eidgah pimpri chichwad,Mosque,"Eidgah pimpri chichwad, JPRW+X53, Ravet Village Rd, Nigdi, Gaothan, Ravet, Pimpri-Chinchwad, Maharashtra 412101","Gaothan, Ravet","JPRW+X53, Ravet Village Rd, Nigdi",Pimpri-Chinchwad,412101,Maharashtra,IN,https://www.google.com/maps/place/Eidgah+pimpri+chichwad/data=!4m7!3m6!1s0x3bc2bb3d60d453ab:0xb775e36ad6ecbddc!8m2!3d18.6418738!4d73.7456527!16s%2Fg%2F11sc975f7f!19sChIJq1PUYD27wjsR3L3s1mrjdbc?authuser=0&hl=en&rclk=1,"18.6418738,73.7456527"
Masjid-E-Ammar (Dawa Bazaar),Mosque,"JQQV+Q85 Masjid-E-Ammar (Dawa Bazaar), Chinchwad, Pimpri-Chinchwad, Maharashtra 411019",Chinchwad,JQQV+Q85,Pimpri-Chinchwad,411019,Maharashtra,IN,https://www.google.com/maps/place/Masjid-E-Ammar+%28Dawa+Bazaar%29/data=!4m7!3m6!1s0x3bc2b99fe4a135a9:0x630ce38ea43f043b!8m2!3d18.6392909!4d73.7932985!16s%2Fg%2F11l1n2dwnj!19sChIJqTWh5J-5wjsROwQ_pI7jDGM?authuser=0&hl=en&rclk=1,"18.6392909,73.79329849999999"
Masjid va madrasa noore gulshan e madina,Mosque,"Masjid va madrasa noore gulshan e madina, Rupee Housing Society, Sector No. 22, Sahyog Nagar, Pimpri-Chinchwad, Maharashtra 411062","Rupee Housing Society, Sector No. 22, Sahyog Nagar",,Pimpri-Chinchwad,411062,Maharashtra,IN,https://www.google.com/maps/place/Masjid+va+madrasa+noore+gulshan+e+madina/data=!4m7!3m6!1s0x3bc2b7ee6f87ad71:0x9101e96700b9bc92!8m2!3d18.6753248!4d73.7805057!16s%2Fg%2F11fcm1t42k!19sChIJca2Hb-63wjsRkry5AGfpAZE?authuser=0&hl=en&rclk=1,"18.6753248,73.78050569999999"
Masjid-E-Muhmmadiya S.A.,Mosque,"Masjid-E-Muhmmadiya S.A., 08/10/0552, Yayati Housing Society, Sant Tukaram Nagar, Pimpri Colony, Pimpri-Chinchwad, Maharashtra 411018","Yayati Housing Society, Sant Tukaram Nagar, Pimpri Colony",08/10/0552,Pimpri-Chinchwad,411018,Maharashtra,IN,https://www.google.com/maps/place/Masjid-E-Muhmmadiya+S.A./data=!4m7!3m6!1s0x3bc2b97db6cab1cf:0xac15f407b7ff8a71!8m2!3d18.6244901!4d73.8193854!16s%2Fg%2F11tt6h7kxl!19sChIJz7HKtn25wjsRcYr_twf0Faw?authuser=0&hl=en&rclk=1,"18.6244901,73.8193854"
Masjid_E_Ammar R.A.,Mosque,"JVP3+X8J Masjid_E_Ammar R.A., Sadgurunagar, Bhosari, Pimpri-Chinchwad, Maharashtra 411039","Sadgurunagar, Bhosari",JVP3+X8J,Pimpri-Chinchwad,411039,Maharashtra,IN,https://www.google.com/maps/place/Masjid_E_Ammar+R.A./data=!4m7!3m6!1s0x3bc2c7b1b3cad1d5:0x890ae351827ea8fe!8m2!3d18.637469!4d73.8533459!16s%2Fg%2F11t7l9qw_l!19sChIJ1dHKs7HHwjsR_qh-glHjCok?authuser=0&hl=en&rclk=1,"18.637469,73.8533459"
Chishtiya masjid,Mosque,"Chishtiya masjid, 5 C, Kudalwadi, Chikhali, Pimpri-Chinchwad, Maharashtra 411062","Kudalwadi, Chikhali",5 C,Pimpri-Chinchwad,411062,Maharashtra,IN,https://www.google.com/maps/place/Chishtiya+masjid/data=!4m7!3m6!1s0x3bc2b78ac4f80665:0xaf28b22e3e684e98!8m2!3d18.6783634!4d73.815892!16s%2Fg%2F11q3v7jjsh!19sChIJZQb4xIq3wjsRmE5oPi6yKK8?authuser=0&hl=en&rclk=1,"18.6783634,73.81589199999999"
Masjid-e-Umar farooq,Mosque,"Masjid-e-Umar farooq, Jai Bhim Nagar, Dapodi, Pimpri-Chinchwad, Maharashtra 411012","Jai Bhim Nagar, Dapodi",,Pimpri-Chinchwad,411012,Maharashtra,IN,https://www.google.com/maps/place/Masjid-e-Umar+farooq/data=!4m7!3m6!1s0x3bc2b9a1017a8c97:0x22de1ae718258965!8m2!3d18.5784033!4d73.8341556!16s%2Fg%2F11k3s9mgxm!19sChIJl4x6AaG5wjsRZYklGOca3iI?authuser=0&hl=en&rclk=1,"18.578403299999998,73.8341556"
Madrasa Darul Falah,Mosque,"JRH6+MHC Madrasa Darul Falah, Nehru Nagar Rd, Kharalwadi, Pimpri Colony, Pimpri-Chinchwad, Maharashtra 411018","Kharalwadi, Pimpri Colony","JRH6+MHC, Nehru Nagar Rd",Pimpri-Chinchwad,411018,Maharashtra,IN,https://www.google.com/maps/place/Madrasa+Darul+Falah/data=!4m7!3m6!1s0x3bc2b95b38eae943:0xa26dd5eb91cfc6b!8m2!3d18.629192!4d73.8113851!16s%2Fg%2F11pzhj84s8!19sChIJQ-nqOFu5wjsRa_wcuV7dJgo?authuser=0&hl=en&rclk=1,"18.629192,73.8113851"
Cme  masjid,Mosque,"HRMX+58W Cme  masjid, CME Rd, Phugewadi, Dapodi, Pune, Pimpri-Chinchwad, Maharashtra 411031","Phugewadi, Dapodi","HRMX+58W, CME Rd","Pune, Pimpri-Chinchwad",,Maharashtra,IN,https://www.google.com/maps/place/Cme+%F0%9F%95%8C+masjid/data=!4m7!3m6!1s0x3bc2c7df6d3b4141:0x6413bf65eff48ff7!8m2!3d18.5829968!4d73.8483425!16s%2Fg%2F11v0p8ms6q!19sChIJQUE7bd_HwjsR94_072W_E2Q?authuser=0&hl=en&rclk=1,"18.5829968,73.8483425"
Patrewali masjid nigadi,Mosque,"Patrewali masjid nigadi, 63, Sector No. 24, Pradhikaran, Nigdi, Pimpri-Chinchwad, Maharashtra 411044","Sector No. 24, Pradhikaran, Nigdi",63,Pimpri-Chinchwad,411044,Maharashtra,IN,https://www.google.com/maps/place/Patrewali+masjid+nigadi/data=!4m7!3m6!1s0x3bc2b7afc569a1a3:0xe807e5441e193aed!8m2!3d18.6623414!4d73.7733868!16s%2Fg%2F11krrz3n54!19sChIJo6Fpxa-3wjsR7ToZHkTlB-g?authuser=0&hl=en&rclk=1,"18.6623414,73.7733868"
Masjid talimul quran,Mosque,"Masjid talimul quran, 08/11/820, Sant Tukaram Nagar, Pimpri Colony, Pimpri-Chinchwad, Maharashtra 411018","Sant Tukaram Nagar, Pimpri Colony",08/11/820,Pimpri-Chinchwad,411018,Maharashtra,IN,https://www.google.com/maps/place/Masjid+talimul+quran/data=!4m7!3m6!1s0x3bc2b9fd4d17fab7:0xd4b4d30b72b0c023!8m2!3d18.6203306!4d73.8206468!16s%2Fg%2F11fsjc4sj1!19sChIJt_oXTf25wjsRI8CwcgvTtNQ?authuser=0&hl=en&rclk=1,"18.6203306,73.82064679999999"
Dargah masjid,Mosque,"JRCW+3X3 Dargah masjid, opposite to new bhaji mandai, Gavhanevasti, Bhosari, Pimpri-Chinchwad, Maharashtra 411039","Gavhanevasti, Bhosari","JRCW+3X3, opposite to new bhaji mandai",Pimpri-Chinchwad,411039,Maharashtra,IN,https://www.google.com/maps/place/Dargah+masjid/data=!4m7!3m6!1s0x3bc2c784cffdc7e3:0x956760c829516f2b!8m2!3d18.6201316!4d73.8474211!16s%2Fg%2F11q9_tq1ff!19sChIJ48f9z4THwjsRK29RKchgZ5U?authuser=0&hl=en&rclk=1,"18.6201316,73.84742109999999"
Kasarwadi Masjid,,"Kasarwadi Masjid, 4, Pimpri-Chinchwad, Pune, Maharashtra","Kharalwadi, Pimpri Colony",4,"Pimpri-Chinchwad, Pune",,Maharashtra,IN,https://www.google.com/maps/place/Kasarwadi+Masjid/data=!4m7!3m6!1s0x3bc2b8915d3fdaf3:0x479abbbdf773d907!8m2!3d18.6303338!4d73.8110968!16s%2Fg%2F11l6643nsk!19sChIJ89o_XZG4wjsRB9lz9727mkc?authuser=0&hl=en&rclk=1,"18.6303338,73.8110968"
Bhosri Masjid,Religious destination,"JRPJ+3WC Bhosri Masjid, Unnamed Road, Balaji Nagar, MIDC, Bhosari, Pimpri-Chinchwad, Maharashtra 411026","Balaji Nagar, MIDC, Bhosari","JRPJ+3WC, Unnamed Road",Pimpri-Chinchwad,411026,Maharashtra,IN,https://www.google.com/maps/place/Bhosri+Masjid/data=!4m7!3m6!1s0x3bc2b96e773c4f91:0x251010b8d44a5c09!8m2!3d18.6351927!4d73.8322659!16s%2Fg%2F11h57glvdw!19sChIJkU88d265wjsRCVxK1LgQECU?authuser=0&hl=en&rclk=1,"18.635192699999998,73.8322659"
Masjid,Mosque,"MQJP+C5P Masjid, Rupeenagar, Sahyog Nagar, Pimpri-Chinchwad, Maharashtra 412114","Rupeenagar, Sahyog Nagar",MQJP+C5P,Pimpri-Chinchwad,412114,Maharashtra,IN,https://www.google.com/maps/place/Masjid/data=!4m7!3m6!1s0x3bc2b769fb7db4cb:0xbe48dc1271300196!8m2!3d18.6810953!4d73.7854675!16s%2Fg%2F11v3xb5ny0!19sChIJy7R9-2m3wjsRlgEwcRLcSL4?authuser=0&hl=en&rclk=1,"18.6810953,73.7854675"
madarsa e garib nawaz,Mosque,"JRP3+8P5 madarsa e garib nawaz, Lal Topi Nagar, Morewadi, Pimpri Colony, Pune, Pimpri-Chinchwad, Maharashtra 411018","Lal Topi Nagar, Morewadi, Pimpri Colony",JRP3+8P5,"Pune, Pimpri-Chinchwad",411018,Maharashtra,IN,https://www.google.com/maps/place/madarsa+e+garib+nawaz/data=!4m7!3m6!1s0x3bc2b9b5079800ad:0x1447847af671b7ac!8m2!3d18.6357719!4d73.8043452!16s%2Fg%2F11nn9y6x9q!19sChIJrQCYB7W5wjsRrLdx9nqERxQ?authuser=0&hl=en&rclk=1,"18.635771899999998,73.8043452"
Fatima Masjid,Mosque,"Fatima Masjid, Chand Tara Chowk, Anjuman Housing Society, Pragati Housing Society, Talwade, Pimpri-Chinchwad, Maharashtra 411044","Anjuman Housing Society, Pragati Housing Society, Talwade",Chand Tara Chowk,Pimpri-Chinchwad,411044,Maharashtra,IN,https://www.google.com/maps/place/Fatima+Masjid/data=!4m7!3m6!1s0x3bc2b7b27f384607:0xc591fd5939be312f!8m2!3d18.6695402!4d73.7770142!16s%2Fg%2F11v19tj6vm!19sChIJB0Y4f7K3wjsRLzG-OVn9kcU?authuser=0&hl=en&rclk=1,"18.6695402,73.7770142"
Masjid Abdul razzaq,Mosque,"Masjid Abdul razzaq, B-1, Lokshahir Annabhau Sathe Nagar, Nigdi, Pimpri-Chinchwad, Maharashtra 411044","Lokshahir Annabhau Sathe Nagar, Nigdi",B-1,Pimpri-Chinchwad,411044,Maharashtra,IN,https://www.google.com/maps/place/Masjid+Abdul+razzaq/data=!4m7!3m6!1s0x3bc2b73aec5d3601:0x7ccaf860afa793c4!8m2!3d18.6675897!4d73.7762311!16s%2Fg%2F11pzw7rn25!19sChIJATZd7Dq3wjsRxJOnr2D4ynw?authuser=0&hl=en&rclk=1,"18.6675897,73.77623109999999"
Masjid,Mosque,"MPGP+G2F Masjid, Mountbatan Camp, Dehu Road, Maharashtra 412101",Mountbatan Camp,MPGP+G2F,Dehu Road,412101,Maharashtra,IN,https://www.google.com/maps/place/Masjid/data=!4m7!3m6!1s0x3bc2b15f8f2dfc3d:0xfb2200924f4e2361!8m2!3d18.6763096!4d73.7350317!16s%2Fg%2F11p9p8vv2w!19sChIJPfwtj1-xwjsRYSNOT5IAIvs?authuser=0&hl=en&rclk=1,"18.6763096,73.7350317"
