name,main_category,address,address_ward,address_street,address_city,address_postal_code,address_state,address_country_code,link,coordinates
Masjid e Khadim,Mosque,"974W+GHR Masjid e Khadim, Asifabad, Telangana 504293",,974W+GHR,Asifabad,504293,Telangana,IN,https://www.google.com/maps/place/Masjid+e+Khadim/data=!4m7!3m6!1s0x3bd2ac0487a9f291:0x6fbe7074c3de740b!8m2!3d19.3563518!4d79.2964018!16s%2Fg%2F11cjj61r0q!19sChIJkfKphwSs0jsRC3Tew3Rwvm8?authuser=0&hl=en&rclk=1,"19.3563518,79.2964018"
Masjid-e-Huda,Mosque,"Masjid-e-Huda, opp. Bus Stand, Asifabad, Telangana 504293",,opp. Bus Stand,Asifabad,,Telangana,IN,https://www.google.com/maps/place/Masjid-e-Huda/data=!4m7!3m6!1s0x3bd2ac1c5f823685:0x442868b52a3ced5e!8m2!3d19.3620003!4d79.2942735!16s%2Fg%2F11bw7cz2mz!19sChIJhTaCXxys0jsRXu08KrVoKEQ?authuser=0&hl=en&rclk=1,"19.3620003,79.2942735"
Jama Masjid,Mosque,"Jama Masjid, Bazarwadi,, Asifabad, Telangana 504293",,"Bazarwadi,",Asifabad,504293,Telangana,IN,https://www.google.com/maps/place/Jama+Masjid/data=!4m7!3m6!1s0x3bd2aea773cd3d43:0xc60c04b9f21fcf83!8m2!3d19.3622125!4d79.289124!16s%2Fg%2F11bw77yf0r!19sChIJQz3Nc6eu0jsRg88f8rkEDMY?authuser=0&hl=en&rclk=1,"19.3622125,79.289124"
Jama Masjid,Mosque,"9WF4+RQQ Jama Masjid, Jainoor, Telangana 504313",,9WF4+RQQ,Jainoor,504313,Telangana,IN,https://www.google.com/maps/place/Jama+Masjid/data=!4m7!3m6!1s0x3bd29a35900ac135:0x7391ef599ce08a2c!8m2!3d19.3745916!4d78.9069837!16s%2Fg%2F11f34m3m7b!19sChIJNcEKkDWa0jsRLIrgnFnvkXM?authuser=0&hl=en&rclk=1,"19.3745916,78.9069837"
Masjid e Sahaba & Madarsa Tahfiz ul Quraan,Mosque,"Masjid e Sahaba & Madarsa Tahfiz ul Quraan, NAWAZISH NAGAR, Asifabad, Telangana 504293",,NAWAZISH NAGAR,Asifabad,504293,Telangana,IN,https://www.google.com/maps/place/Masjid+e+Sahaba+%26+Madarsa+Tahfiz+ul+Quraan/data=!4m7!3m6!1s0x3bd2aea7c6631baf:0x62b87d4b00422aba!8m2!3d19.3598125!4d79.2883125!16s%2Fg%2F113dzbrlr!19sChIJrxtjxqeu0jsRuipCAEt9uGI?authuser=0&hl=en&rclk=1,"19.3598125,79.28831249999999"
JAMA MASJID SULTANGUDA,Mosque,"C2RR+XGF JAMA MASJID SULTANGUDA, Sultanguda, Kerimeri, Adilabad, Telangana 504313",Sultanguda,C2RR+XGF,"Kerimeri, Adilabad",,Telangana,IN,https://www.google.com/maps/place/JAMA+MASJID+SULTANGUDA/data=!4m7!3m6!1s0x3bd2bd475cdd2b39:0x2b52fccf2d27bcc0!8m2!3d19.4424339!4d79.0413029!16s%2Fg%2F11d_5drtt9!19sChIJOSvdXEe90jsRwLwnLc_8Uis?authuser=0&hl=en&rclk=1,"19.442433899999997,79.04130289999999"
Masjid e Noor,Mosque,"976M+99C Masjid e Noor, Asifabad, Telangana 504293",,976M+99C,Asifabad,504293,Telangana,IN,https://www.google.com/maps/place/Masjid+e+Noor/data=!4m7!3m6!1s0x3bd2aea5cbc568eb:0x5aed9b5568109c20!8m2!3d19.3609381!4d79.283388!16s%2Fg%2F11cjj4r8cv!19sChIJ62jFy6Wu0jsRIJwQaFWb7Vo?authuser=0&hl=en&rclk=1,"19.3609381,79.283388"
Masjid e Bilala,Mosque,"Masjid e Bilala, Adilabad-Asifabad Rd, Jainoor, Telangana 504313",,Adilabad-Asifabad Rd,Jainoor,504313,Telangana,IN,https://www.google.com/maps/place/Masjid+e+Bilala/data=!4m7!3m6!1s0x3bd29bb7204a9e0f:0x706dab2553f72b79!8m2!3d19.3750134!4d78.9120455!16s%2Fg%2F11f6qq3rwz!19sChIJD55KILeb0jsReSv3UyWrbXA?authuser=0&hl=en&rclk=1,"19.3750134,78.91204549999999"
Masjid e Yaseen,Mosque,"Masjid e Yaseen, opp. Jail, Jankapur, Asifabad, Telangana 504293",Jankapur,opp. Jail,Asifabad,504293,Telangana,IN,https://www.google.com/maps/place/Masjid+e+Yaseen/data=!4m7!3m6!1s0x3bd2ae9ef5cade0b:0xa80f60e413fdcad2!8m2!3d19.374471!4d79.2873049!16s%2Fg%2F11cjpfh3jq!19sChIJC97K9Z6u0jsR0sr9E-RgD6g?authuser=0&hl=en&rclk=1,"19.374471,79.2873049"
Wankidi Asifabad,Mosque,"F8JC+8JX Wankidi Asifabad, Shivakesnagar, Wankidi (Kalan), Telangana 504295",Shivakesnagar,F8JC+8JX,Wankidi (Kalan),504295,Telangana,IN,https://www.google.com/maps/place/Wankidi+Asifabad/data=!4m7!3m6!1s0x3bd2b3c315900b4b:0x458e3ebaa1a65d9!8m2!3d19.4810568!4d79.3216502!16s%2Fg%2F11sssc97q2!19sChIJSwuQFcOz0jsR2WUaquvjWAQ?authuser=0&hl=en&rclk=1,"19.481056799999998,79.3216502"
Masjid e umar,Mosque,"9W95+WC9 Masjid e umar, Jainoor, Telangana 504313",,9W95+WC9,Jainoor,504313,Telangana,IN,https://www.google.com/maps/place/Masjid+e+umar/data=!4m7!3m6!1s0x3bd29b093593e477:0xe65cd53a2848ead0!8m2!3d19.3700184!4d78.9089038!16s%2Fg%2F11t27x9_rj!19sChIJd-STNQmb0jsR0OpIKDrVXOY?authuser=0&hl=en&rclk=1,"19.3700184,78.90890379999999"
Masjid e Rahmania.,Mosque,"C4PQ+J2F Masjid e Rahmania., Surdhapur, Telangana 504293",,C4PQ+J2F,Surdhapur,504293,Telangana,IN,https://www.google.com/maps/place/Masjid+e+Rahmania./data=!4m7!3m6!1s0x3bd2bb9aeef31f5d:0x8ab4045f2e1b1acf!8m2!3d19.4365628!4d79.1375524!16s%2Fg%2F11h171bwhp!19sChIJXR_z7pq70jsRzxobLl8EtIo?authuser=0&hl=en&rclk=1,"19.4365628,79.13755239999999"
Qadim Masjid Kerameri,Mosque,"C3R2+M3C Qadim Masjid Kerameri, qadim masjid Road, Kerimeri, Telangana 504313",,"C3R2+M3C, qadim masjid Road",Kerimeri,504313,Telangana,IN,https://www.google.com/maps/place/Qadim+Masjid+Kerameri/data=!4m7!3m6!1s0x3bd2bdbf2e5be2bf:0xc5f8fbe81b6fc015!8m2!3d19.4416853!4d79.0501381!16s%2Fg%2F11j79mdq_6!19sChIJv-JbLr-90jsRFcBvG-j7-MU?authuser=0&hl=en&rclk=1,"19.4416853,79.0501381"
Masjid-e-Khadijah,Mosque,"974R+XWR Masjid-e-Khadijah, Asifabad, Telangana 504293",,974R+XWR,Asifabad,504293,Telangana,IN,https://www.google.com/maps/place/Masjid-e-Khadijah/data=!4m7!3m6!1s0x3bd2ad43aa7c3d41:0xceb45b62869910bb!8m2!3d19.3574779!4d79.2922524!16s%2Fg%2F11sshd34_9!19sChIJQT18qkOt0jsRuxCZhmJbtM4?authuser=0&hl=en&rclk=1,"19.3574779,79.2922524"
Pangdi masjid,Mosque,"9263+5W Pangdi masjid, Seetagondi, Telangana 504313",,9263+5W,Seetagondi,,Telangana,IN,https://www.google.com/maps/place/Pangdi+masjid/data=!4m7!3m6!1s0x3bd299407103a9bf:0xc33d1edde125fb60!8m2!3d19.3603172!4d79.0060313!16s%2Fg%2F11s57ytdlj!19sChIJv6kDcUCZ0jsRYPsl4d0ePcM?authuser=0&hl=en&rclk=1,"19.3603172,79.00603129999999"
Masjid-E-Bilal,Mosque,"87J6+9HP Masjid-E-Bilal, Thumpalle, Babapur, Telangana 504294",,87J6+9HP,"Thumpalle, Babapur",,Telangana,IN,https://www.google.com/maps/place/Masjid-E-Bilal/data=!4m7!3m6!1s0x3bd2a948559e9c4b:0xf625909021a2406d!8m2!3d19.3309518!4d79.2614523!16s%2Fg%2F11kjk9fcwg!19sChIJS5yeVUip0jsRbUCiIZCQJfY?authuser=0&hl=en&rclk=1,"19.330951799999998,79.2614523"
Abbubakar masjid,Mosque,"9WG5+JJV Abbubakar masjid, Jainoor, Telangana 504313",,9WG5+JJV,Jainoor,504313,Telangana,IN,https://www.google.com/maps/place/Abbubakar+masjid/data=!4m7!3m6!1s0x3bd29bab25333f2b:0x3b3f437925c3c48c!8m2!3d19.3766247!4d78.909049!16s%2Fg%2F11rs2wxm5k!19sChIJKz8zJaub0jsRjMTDJXlDPzs?authuser=0&hl=en&rclk=1,"19.3766247,78.909049"
Jama masjid,Mosque,"9XX2+F85 Jama masjid, Unnamed Road, Daboli, Telangana 504313",,"9XX2+F85, Unnamed Road",Daboli,504313,Telangana,IN,https://www.google.com/maps/place/Jama+masjid/data=!4m7!3m6!1s0x3bd29962bbeafef3:0x74b0832244550441!8m2!3d19.3986432!4d78.9508508!16s%2Fg%2F11h4v7zns2!19sChIJ8_7qu2KZ0jsRQQRVRCKDsHQ?authuser=0&hl=en&rclk=1,"19.3986432,78.9508508"
BILALA MASJID,Mosque,"9WF5+HJJ BILALA MASJID, Jainoor, Telangana 504313",,9WF5+HJJ,Jainoor,504313,Telangana,IN,https://www.google.com/maps/place/BILALA+MASJID/data=!4m7!3m6!1s0x3bd29b2e07edb8d3:0xa2580038ac3fd778!8m2!3d19.3739522!4d78.9090191!16s%2Fg%2F11f77_fyxp!19sChIJ07jtBy6b0jsReNc_rDgAWKI?authuser=0&hl=en&rclk=1,"19.373952199999998,78.9090191"
Madeena Masjid,Mosque,"89F9+473 Madeena Masjid, SH1, Khairgaon, Telangana 504292",,"89F9+473, SH1",Khairgaon,,Telangana,IN,https://www.google.com/maps/place/Madeena+Masjid/data=!4m7!3m6!1s0x3bd2ab55de777551:0xd86d0f49d393c93f!8m2!3d19.3227714!4d79.3681607!16s%2Fg%2F11gwm9j8f5!19sChIJUXV33lWr0jsRP8mT00kPbdg?authuser=0&hl=en&rclk=1,"19.3227714,79.36816069999999"
