name,main_category,address,address_ward,address_street,address_city,address_postal_code,address_state,address_country_code,link,coordinates
Gulzaar Masjid,Mosque,"MGCR+66Q Gulzaar Masjid, Bokkalguda St, Brahmanwadi, Adilabad, Telangana 504001",Brahmanwadi,"MGCR+66Q, Bokkalguda St",Adilabad,504001,Telangana,IN,https://www.google.com/maps/place/Gulzaar+Masjid/data=!4m7!3m6!1s0x3bd25c7477d00337:0x3dc61fe7489f62b1!8m2!3d19.6704596!4d78.5395986!16s%2Fg%2F1tcz6sjz!19sChIJNwPQd3Rc0jsRsWKfSOcfxj0?authuser=0&hl=en&rclk=1,"19.670459599999997,78.53959859999999"
Jama Masjid,Mosque,"9WF4+RQQ Jama Masjid, Jainoor, Telangana 504313",,9WF4+RQQ,Jainoor,504313,Telangana,IN,https://www.google.com/maps/place/Jama+Masjid/data=!4m7!3m6!1s0x3bd29a35900ac135:0x7391ef599ce08a2c!8m2!3d19.3745916!4d78.9069837!16s%2Fg%2F11f34m3m7b!19sChIJNcEKkDWa0jsRLIrgnFnvkXM?authuser=0&hl=en&rclk=1,"19.3745916,78.9069837"
Masjid E Firdous,Mosque,"Masjid E Firdous, Utukur, Lakshettipet, Telangana 504215",,,"Utukur, Lakshettipet",,Telangana,IN,https://www.google.com/maps/place/Masjid+E+Firdous/data=!4m7!3m6!1s0x3bcd480ee90e2c3f:0xfcd8f71cabc7c5c8!8m2!3d18.8884431!4d79.2072006!16s%2Fg%2F1td5721r!19sChIJPywO6Q5IzTsRyMXHqxz32Pw?authuser=0&hl=en&rclk=1,"18.8884431,79.2072006"
Madeena Masjid,Mosque,"V6P3+8XJ Madeena Masjid, Unnamed Road, Lakshettipet, Utukur, Telangana 504215",,"V6P3+8XJ, Unnamed Road","Lakshettipet, Utukur",504215,Telangana,IN,https://www.google.com/maps/place/Madeena+Masjid/data=!4m7!3m6!1s0x3bcd4808b8069611:0xa08757891f8dc24f!8m2!3d18.8858394!4d79.2049032!16s%2Fg%2F11h9rd_j48!19sChIJEZYGuAhIzTsRT8KNH4lXh6A?authuser=0&hl=en&rclk=1,"18.8858394,79.20490319999999"
Jaame Masjid,Mosque,"22MM+M88 Jaame Masjid, Donthapur, Telangana 505425",,22MM+M88,Donthapur,505425,Telangana,IN,https://www.google.com/maps/place/Jaame+Masjid/data=!4m7!3m6!1s0x3bcd42bb0af194e7:0x637d967f2a20d1f7!8m2!3d19.0341733!4d79.0333137!16s%2Fg%2F11bx1hgl96!19sChIJ55TxCrtCzTsR99EgKn-WfWM?authuser=0&hl=en&rclk=1,"19.0341733,79.0333137"
Jama Masjid,Mosque,"4XCX+W6R Jama Masjid, Jannaram, Telangana 504205",,4XCX+W6R,Jannaram,504205,Telangana,IN,https://www.google.com/maps/place/Jama+Masjid/data=!4m7!3m6!1s0x3bcd67409343a49f:0xacb4e0cdbc72e535!8m2!3d19.1223711!4d78.9980289!16s%2Fg%2F11bwkyz4lp!19sChIJn6RDk0BnzTsRNeVyvM3gtKw?authuser=0&hl=en&rclk=1,"19.1223711,78.9980289"
Masjid E Aqsa,Mosque,"V6M3+CQ7 Masjid E Aqsa, Godavari Rd, Luxettipet, Utukur, Telangana 504215",,"V6M3+CQ7, Godavari Rd","Luxettipet, Utukur",504215,Telangana,IN,https://www.google.com/maps/place/Masjid+E+Aqsa/data=!4m7!3m6!1s0x3bcd4806170503ff:0x41898622cf17800e!8m2!3d18.8835328!4d79.204429!16s%2Fg%2F11dx9f8k5s!19sChIJ_wMFFwZIzTsRDoAXzyKGiUE?authuser=0&hl=en&rclk=1,"18.883532799999998,79.20442899999999"
Masjid e Bilala,Mosque,"Masjid e Bilala, Adilabad-Asifabad Rd, Jainoor, Telangana 504313",,Adilabad-Asifabad Rd,Jainoor,504313,Telangana,IN,https://www.google.com/maps/place/Masjid+e+Bilala/data=!4m7!3m6!1s0x3bd29bb7204a9e0f:0x706dab2553f72b79!8m2!3d19.3750134!4d78.9120455!16s%2Fg%2F11f6qq3rwz!19sChIJD55KILeb0jsReSv3UyWrbXA?authuser=0&hl=en&rclk=1,"19.3750134,78.91204549999999"
Mosque,Mosque,"X52G+R6F Mosque, Mutyampet, Telangana 504206",,X52G+R6F,Mutyampet,504206,Telangana,IN,https://www.google.com/maps/place/Mosque/data=!4m7!3m6!1s0x3bcd466d6eedd661:0x2921ef9d1613e136!8m2!3d18.9520508!4d79.1755405!16s%2Fg%2F11ddxvk81c!19sChIJYdbtbm1GzTsRNuETFp3vISk?authuser=0&hl=en&rclk=1,"18.9520508,79.1755405"
EidGah Donthapur,Mosque,"22HH+393 EidGah Donthapur, Telangana 505454",,22HH+393,,505454,Telangana,IN,https://www.google.com/maps/place/EidGah+Donthapur/data=!4m7!3m6!1s0x3bcd42a2d1c7d42b:0xca626dc30ee13ca9!8m2!3d19.027628!4d79.0284177!16s%2Fg%2F11g9vmb82t!19sChIJK9TH0aJCzTsRqTzhDsNtYso?authuser=0&hl=en&rclk=1,"19.027628,79.02841769999999"
Masjid,Mosque,"Masjid, Masjid Area, Allipur, Telangana 505460",Masjid Area,,Allipur,505460,Telangana,IN,https://www.google.com/maps/place/Masjid/data=!4m7!3m6!1s0x3bcd6d2e36a3f90b:0x2b14f3eb5563439d!8m2!3d18.861378!4d78.8733175!16s%2Fg%2F1pp2tx0rj!19sChIJC_mjNi5tzTsRnUNjVevzFCs?authuser=0&hl=en&rclk=1,"18.861378,78.8733175"
Masjid-E-Mohammadiya,Mosque,"Masjid-E-Mohammadiya, 1, Nirmal - Mancherial Rd, Jannaram, Telangana 504205",,"1, Nirmal - Mancherial Rd",Jannaram,504205,Telangana,IN,https://www.google.com/maps/place/Masjid-E-Mohammadiya/data=!4m7!3m6!1s0x3bcd673fccaa4f81:0xf85ddfa7fa77cdbb!8m2!3d19.1192404!4d78.9938765!16s%2Fg%2F11byvwzk4r!19sChIJgU-qzD9nzTsRu813-qffXfg?authuser=0&hl=en&rclk=1,"19.1192404,78.9938765"
Makka Masjid Theegala Dhrmaram,Mosque,"225M+7F7 Makka Masjid Theegala Dhrmaram, Theegala Dharmaram, Telangana 505454",,225M+7F7,Theegala Dharmaram,505454,Telangana,IN,https://www.google.com/maps/place/Makka+Masjid+Theegala+Dhrmaram/data=!4m7!3m6!1s0x3bcd428926ec2039:0x43d64dd5a8bc946b!8m2!3d19.0081507!4d79.0336722!16s%2Fg%2F11f0wpv39c!19sChIJOSDsJolCzTsRa5S8qNVN1kM?authuser=0&hl=en&rclk=1,"19.008150699999998,79.0336722"
Katkapur Mosque (kttkaapuur msiidu),Mosque,"XVVG+5RF Katkapur Mosque (kttkaapuur msiidu), near pond ( ceruvu dggr, Katkapur, Telangana 505460",,"XVVG+5RF, near pond ( ceruvu dggr",Katkapur,505460,Telangana,IN,https://www.google.com/maps/place/Katkapur+Mosque+%28%E0%B0%95%E0%B0%9F%E0%B1%8D%E0%B0%95%E0%B0%BE%E0%B0%AA%E0%B1%82%E0%B0%B0%E0%B1%8D+%E0%B0%AE%E0%B0%B8%E0%B1%80%E0%B0%A6%E0%B1%81%29/data=!4m7!3m6!1s0x3bcd6fb4c94e53ab:0xa93ccc3c7b6ec293!8m2!3d18.9894705!4d78.8750372!16s%2Fg%2F11fhr7tfd0!19sChIJq1NOybRvzTsRk8JuezzMPKk?authuser=0&hl=en&rclk=1,"18.9894705,78.8750372"
Veerapur Mosque ( Masjid ),Mosque,"Veerapur Mosque ( Masjid ), Veerapur, Telangana 505460",,,Veerapur,,Telangana,IN,https://www.google.com/maps/place/Veerapur+Mosque+%28+Masjid+%29/data=!4m7!3m6!1s0x3bcd6d9200071201:0x301f751968b31cdf!8m2!3d18.9160391!4d78.8495851!16s%2Fg%2F1pp2twn2b!19sChIJARIHAJJtzTsR3xyzaBl1HzA?authuser=0&hl=en&rclk=1,"18.9160391,78.8495851"
Masjid-e-Mahmoodunnisa,Mosque,"3435+9WM Masjid-e-Mahmoodunnisa, Thallapet, Tallapet, Telangana 504206",,3435+9WM,"Thallapet, Tallapet",504206,Telangana,IN,https://www.google.com/maps/place/Masjid-e-Mahmoodunnisa/data=!4m7!3m6!1s0x3bcd453f06c5e385:0x8bfd0695f73e7367!8m2!3d19.0534615!4d79.1098047!16s%2Fg%2F11ghs2kky5!19sChIJhePFBj9FzTsRZ3M-95UG_Ys?authuser=0&hl=en&rclk=1,"19.053461499999997,79.1098047"
Masjid E Ayesha,Mosque,"V6H2+8JM Masjid E Ayesha, Luxettipet, Telangana 504215",,V6H2+8JM,Luxettipet,504215,Telangana,IN,https://www.google.com/maps/place/Masjid+E+Ayesha/data=!4m7!3m6!1s0x3bcd49d98161d923:0x59d66f4dcf609572!8m2!3d18.8783282!4d79.2015539!16s%2Fg%2F11q24cd0db!19sChIJI9lhgdlJzTsRcpVgz01v1lk?authuser=0&hl=en&rclk=1,"18.8783282,79.2015539"
Mosque,Mosque,"Mosque, Devapur, Telangana 504218",,,Devapur,,Telangana,IN,https://www.google.com/maps/place/Mosque/data=!4m7!3m6!1s0x3bcd4d17c2ad90f3:0xab9c721020869a11!8m2!3d19.0355273!4d79.3571019!16s%2Fg%2F1tfzqcm7!19sChIJ85CtwhdNzTsREZqGIBBynKs?authuser=0&hl=en&rclk=1,"19.0355273,79.35710189999999"
MASJID E MOHAMMADIA Lachakkapet,Mosque,"VW86+GPF MASJID E MOHAMMADIA Lachakkapet, Lachakkapet, Telangana 505529",,VW86+GPF,Lachakkapet,505529,Telangana,IN,https://www.google.com/maps/place/MASJID+E+MOHAMMADIA+Lachakkapet/data=!4m7!3m6!1s0x3bcd6d3f383d71ab:0x4c34ef7d93c9c2db!8m2!3d18.866323!4d78.9118033!16s%2Fg%2F11stj50ww5!19sChIJq3E9OD9tzTsR28LJk33vNEw?authuser=0&hl=en&rclk=1,"18.866322999999998,78.9118033"
Masjide Wahida Unisa,Mosque,"V3V4+QGR Masjide Wahida Unisa, Velgonda, Telangana 505454",,V3V4+QGR,Velgonda,505454,Telangana,IN,https://www.google.com/maps/place/Masjide+Wahida+Unisa/data=!4m7!3m6!1s0x3bcd405b9ee52317:0x8fb1c9f68cb284a!8m2!3d18.8944821!4d79.0562564!16s%2Fg%2F11f15dx9xq!19sChIJFyPlnltAzTsRSijLaJ8c-wg?authuser=0&hl=en&rclk=1,"18.894482099999998,79.0562564"
Masjid E Safia Sulaiman,Mosque,"X32W+V9F Masjid E Safia Sulaiman, Unnamed Road, Mamidiwada, Rotte Venkamma Illu, Dharmapuri, Telangana 505425","Mamidiwada, Rotte Venkamma Illu","X32W+V9F, Unnamed Road",Dharmapuri,505425,Telangana,IN,https://www.google.com/maps/place/Masjid+E+Safia+Sulaiman/data=!4m7!3m6!1s0x3bcd419c1140ecef:0x5738f10bd92bf8d1!8m2!3d18.9521875!4d79.0959375!16s%2Fg%2F11rcrh6mgm!19sChIJ7-xAEZxBzTsR0fgr2QvxOFc?authuser=0&hl=en&rclk=1,"18.9521875,79.09593749999999"
Masjid-e-Abdullah,Mosque,"3XR2+J23 Masjid-e-Abdullah, Jannaram - Kalamadugu Rd, Kalmadagu, Telangana 504205",,"3XR2+J23, Jannaram - Kalamadugu Rd",Kalmadagu,504205,Telangana,IN,https://www.google.com/maps/place/Masjid-e-Abdullah/data=!4m7!3m6!1s0x3bcd6660227f8177:0xe67839b827ba0ea4!8m2!3d19.0915155!4d78.9500358!16s%2Fg%2F11hbc1vfry!19sChIJd4F_ImBmzTsRpA66J7g5eOY?authuser=0&hl=en&rclk=1,"19.0915155,78.9500358"
Masjid,Mosque,"V6MR+V66 Masjid, Ankathipally, Telangana 504215",,V6MR+V66,Ankathipally,504215,Telangana,IN,https://www.google.com/maps/place/Masjid/data=!4m7!3m6!1s0x3bcd49bdc216284d:0x350592a99ce08e14!8m2!3d18.8846738!4d79.2405227!16s%2Fg%2F11h2hhxpqs!19sChIJTSgWwr1JzTsRFI7gnKmSBTU?authuser=0&hl=en&rclk=1,"18.884673799999998,79.2405227"
Peerila Masjid,Mosque,"W3XW+8M8 Peerila Masjid, Dharmapuri, Telangana 505425",,W3XW+8M8,Dharmapuri,505425,Telangana,IN,https://www.google.com/maps/place/Peerila+Masjid/data=!4m7!3m6!1s0x3bcd41453495526d:0xd1b992ce8abbbd59!8m2!3d18.9482959!4d79.0967184!16s%2Fg%2F124t1g8cl!19sChIJbVKVNEVBzTsRWb27is6SudE?authuser=0&hl=en&rclk=1,"18.948295899999998,79.0967184"
Jama Mosque Devapur,Mosque,"29R3+5CH Jama Mosque Devapur, Devapur, Telangana 504218",,29R3+5CH,Devapur,504218,Telangana,IN,https://www.google.com/maps/place/Jama+Mosque+Devapur/data=!4m7!3m6!1s0x3bcd4d143d51615b:0xd161b4f792ad7f92!8m2!3d19.0404421!4d79.3536248!16s%2Fg%2F11hbvtzyrz!19sChIJW2FRPRRNzTsRkn-tkve0YdE?authuser=0&hl=en&rclk=1,"19.0404421,79.35362479999999"
Masjid E Imam E Azam,Mosque,"2X2W+9H6 Masjid E Imam E Azam, Narsimlapalli, Telangana 505454",,2X2W+9H6,Narsimlapalli,505454,Telangana,IN,https://www.google.com/maps/place/Masjid+E+Imam+E+Azam/data=!4m7!3m6!1s0x3bcd6995d28d15b7:0xa8b1ff9dca1baa19!8m2!3d19.0009086!4d78.9963954!16s%2Fg%2F11j8hxt2lz!19sChIJtxWN0pVpzTsRGaobyp3_sag?authuser=0&hl=en&rclk=1,"19.0009086,78.9963954"
JAMA MASJID DEPAIGUDA JAINATH,Mosque,"QJ7X+WX3 JAMA MASJID DEPAIGUDA JAINATH, Deepaiguda, Telangana 504309",,QJ7X+WX3,Deepaiguda,504309,Telangana,IN,https://www.google.com/maps/place/JAMA+MASJID+DEPAIGUDA+JAINATH/data=!4m7!3m6!1s0x3bd2580f5d37a7c1:0xaf0ffc45bfdc1279!8m2!3d19.7647648!4d78.6499297!16s%2Fg%2F11f_w0tkbl!19sChIJwac3XQ9Y0jsReRLcv0X8D68?authuser=0&hl=en&rclk=1,"19.7647648,78.6499297"
Choti Masjid,Mosque,"Choti Masjid, 1, Nirmal - Mancherial Rd, Jannaram, Telangana 504205",,"1, Nirmal - Mancherial Rd",Jannaram,504205,Telangana,IN,https://www.google.com/maps/place/Choti+Masjid/data=!4m7!3m6!1s0x3bcd673e34ac2f77:0xc32f71faf30d7a5f!8m2!3d19.1184965!4d78.9931769!16s%2Fg%2F11bw5mbvt0!19sChIJdy-sND5nzTsRX3oN8_pxL8M?authuser=0&hl=en&rclk=1,"19.1184965,78.9931769"
Khankha e mohammadi luxettipet,Mosque,"V6G2+MFW Khankha e mohammadi luxettipet, Unnamed Road, Luxettipet, Telangana 504215",,"V6G2+MFW, Unnamed Road",Luxettipet,504215,Telangana,IN,https://www.google.com/maps/place/Khankha+e+mohammadi+luxettipet/data=!4m7!3m6!1s0x3bcd494724f49b4d:0x987539901e1b05d2!8m2!3d18.8767471!4d79.2012099!16s%2Fg%2F11nt4bv2g0!19sChIJTZv0JEdJzTsR0gUbHpA5dZg?authuser=0&hl=en&rclk=1,"18.8767471,79.2012099"
"Mosque , arepalle",Mosque,"327F+R6Q Mosque , arepalle, Arepally Rd, Donthapur, Arpapalle, Telangana 505425",,"327F+R6Q, Arepally Rd","Donthapur, Arpapalle",505425,Telangana,IN,"https://www.google.com/maps/place/Mosque+,+arepalle/data=!4m7!3m6!1s0x3bcd5d8dd8a2592b:0x800db10c518ef6fa!8m2!3d19.0645903!4d79.0231206!16s%2Fg%2F11qg18z79k!19sChIJK1mi2I1dzTsR-vaOUQyxDYA?authuser=0&hl=en&rclk=1","19.0645903,79.0231206"
Masjid e umar,Mosque,"9W95+WC9 Masjid e umar, Jainoor, Telangana 504313",,9W95+WC9,Jainoor,504313,Telangana,IN,https://www.google.com/maps/place/Masjid+e+umar/data=!4m7!3m6!1s0x3bd29b093593e477:0xe65cd53a2848ead0!8m2!3d19.3700184!4d78.9089038!16s%2Fg%2F11t27x9_rj!19sChIJd-STNQmb0jsR0OpIKDrVXOY?authuser=0&hl=en&rclk=1,"19.3700184,78.90890379999999"
Masjid E Fatima Yousuf,Mosque,"3WG8+XMP Masjid E Fatima Yousuf, Revojipet New, Revojipet (Old), Telangana 504202",,3WG8+XMP,"Revojipet New, Revojipet (Old)",504202,Telangana,IN,https://www.google.com/maps/place/Masjid+E+Fatima+Yousuf/data=!4m7!3m6!1s0x3bcd6551fa8de007:0x1f6da9a6fdded8d8!8m2!3d19.0776595!4d78.9174451!16s%2Fg%2F11rmz_sv6c!19sChIJB-CN-lFlzTsR2Nje_aapbR8?authuser=0&hl=en&rclk=1,"19.0776595,78.9174451"
Masjid,Mosque,"V7J4+GG5 Masjid, Telangana 504215",,V7J4+GG5,,504215,Telangana,IN,https://www.google.com/maps/place/Masjid/data=!4m7!3m6!1s0x3bcd4949a9bf89a1:0xfedf2abfb93c1c36!8m2!3d18.8812544!4d79.2563521!16s%2Fg%2F11rw9wcgw5!19sChIJoYm_qUlJzTsRNhw8ub8q3_4?authuser=0&hl=en&rclk=1,"18.8812544,79.2563521"
Pangdi masjid,Mosque,"9263+5W Pangdi masjid, Seetagondi, Telangana 504313",,9263+5W,Seetagondi,,Telangana,IN,https://www.google.com/maps/place/Pangdi+masjid/data=!4m7!3m6!1s0x3bd299407103a9bf:0xc33d1edde125fb60!8m2!3d19.3603172!4d79.0060313!16s%2Fg%2F11s57ytdlj!19sChIJv6kDcUCZ0jsRYPsl4d0ePcM?authuser=0&hl=en&rclk=1,"19.3603172,79.00603129999999"
Eidgah Lachakkapet,Mosque,"VW65+QJR Eidgah Lachakkapet, Laxmipur, Telangana 505529",,VW65+QJR,Laxmipur,505529,Telangana,IN,https://www.google.com/maps/place/Eidgah+Lachakkapet/data=!4m7!3m6!1s0x3bcd6db11fa7a651:0x69cd98fc5e610e56!8m2!3d18.8619863!4d78.9090067!16s%2Fg%2F11h75zck1r!19sChIJUaanH7FtzTsRVg5hXvyYzWk?authuser=0&hl=en&rclk=1,"18.861986299999998,78.90900669999999"
* ASHURKHANA BARAH IMAM *MOHARRAM,Mosque,"726X+QCJ * ASHURKHANA BARAH IMAM *MOHARRAM, Yellapatar, Telangana 504313",,726X+QCJ,Yellapatar,504313,Telangana,IN,https://www.google.com/maps/place/*+ASHURKHANA+BARAH+IMAM+*MOHARRAM/data=!4m7!3m6!1s0x3bd2a1d7a05cb05b:0x2ad6f2e9cbb8bf9c!8m2!3d19.261955!4d79.0485027!16s%2Fg%2F11pzs9dl31!19sChIJW7BcoNeh0jsRnL-4y-ny1io?authuser=0&hl=en&rclk=1,"19.261955,79.0485027"
Masjid-E-Noor,Mosque,"Masjid-E-Noor, #101 ,Rechapally, Jagtial, Telangana",,"#101 ,Rechapally","Jagtial, Rechapalli",,Telangana,IN,https://www.google.com/maps/place/Masjid-E-Noor/data=!4m7!3m6!1s0x3bcd6be8cd809ef9:0x28c4237f1d69a774!8m2!3d18.9316153!4d78.9304784!16s%2Fg%2F11j8hhpjmy!19sChIJ-Z6AzehrzTsRdKdpHX8jxCg?authuser=0&hl=en&rclk=1,"18.9316153,78.9304784"
Masjid gullapet,Museum,"VX65+VJC Masjid gullapet, Hanuman St, Gullapeta, Telangana 505454",,"VX65+VJC, Hanuman St",Gullapeta,505454,Telangana,IN,https://www.google.com/maps/place/Masjid+gullapet/data=!4m7!3m6!1s0x3bcd6b68198baaad:0xe46de9d58e121c67!8m2!3d18.8621776!4d78.9590296!16s%2Fg%2F11ht6ttrql!19sChIJraqLGWhrzTsRZxwSjtXpbeQ?authuser=0&hl=en&rclk=1,"18.8621776,78.9590296"
MAJED MBD,Mosque,"33QC+436 MAJED MBD, Malyal1, Telangana 504205",,33QC+436,Malyal1,504205,Telangana,IN,https://www.google.com/maps/place/MAJED+MBD/data=!4m7!3m6!1s0x3bcd5dc7d8043ab9:0xd0a3a374a7512c1b!8m2!3d19.087524!4d79.070119!16s%2Fg%2F11t4_mj0wl!19sChIJuToE2MddzTsRGyxRp3Sjo9A?authuser=0&hl=en&rclk=1,"19.087524,79.07011899999999"
Mosque Mahammadabad,Mosque,"33QC+229 Mosque Mahammadabad, jannaram mahammadabad, 504205",,"33QC+229, jannaram mahammadabad",,504205,Telangana,IN,https://www.google.com/maps/place/Mosque+Mahammadabad/data=!4m7!3m6!1s0x3bcd5d75c529e10b:0x76390774d02a9d68!8m2!3d19.0875411!4d79.0700938!16s%2Fg%2F11t6ky02_j!19sChIJC-EpxXVdzTsRaJ0q0HQHOXY?authuser=0&hl=en&rclk=1,"19.0875411,79.0700938"
Badi masjid,Mosque,"V6M4+6G6 Badi masjid, Luxettipet, Utukur, Telangana 504215",,V6M4+6G6,"Luxettipet, Utukur",504215,Telangana,IN,https://www.google.com/maps/place/Badi+masjid/data=!4m7!3m6!1s0x3bcd4983c8455595:0x967acd0ca59d0e65!8m2!3d18.8830416!4d79.2062597!16s%2Fg%2F11vf2g1rj5!19sChIJlVVFyINJzTsRZQ6dpQzNepY?authuser=0&hl=en&rclk=1,"18.8830416,79.20625969999999"
Jama masjid luxettipet,Mosque,"W656+7GJ Jama masjid luxettipet, Luxettipet, Utukur, Telangana 504215",,W656+7GJ,"Luxettipet, Utukur",504215,Telangana,IN,https://www.google.com/maps/place/Jama+masjid+luxettipet/data=!4m7!3m6!1s0x3bcd495e1c762f25:0xa0cfa07634d3bb03!8m2!3d18.9082189!4d79.2112769!16s%2Fg%2F11vf2fh6z5!19sChIJJS92HF5JzTsRA7vTNHagz6A?authuser=0&hl=en&rclk=1,"18.908218899999998,79.2112769"
MASJID E COURT AREA LUXETTIPET,Mosque,"V6Q3+JGJ MASJID E COURT AREA LUXETTIPET, Utukur, Telangana 504215",,V6Q3+JGJ,Utukur,504215,Telangana,IN,https://www.google.com/maps/place/MASJID+E+COURT+AREA+LUXETTIPET/data=!4m7!3m6!1s0x3bcd49085fcf7d37:0xb9935c9de9f0090d!8m2!3d18.8890885!4d79.2037506!16s%2Fg%2F11nn43__y4!19sChIJN33PXwhJzTsRDQnw6Z1ck7k?authuser=0&hl=en&rclk=1,"18.8890885,79.20375059999999"
Eid Gah,Mosque,"V6R3+844 Eid Gah, Lakshettipet, Utukur, Telangana 504215",,V6R3+844,"Lakshettipet, Utukur",504215,Telangana,IN,https://www.google.com/maps/place/Eid+Gah/data=!4m7!3m6!1s0x3bcd49633e4aa623:0xc8ba704d0873bb4a!8m2!3d18.8907702!4d79.202828!16s%2Fg%2F11q_1t7gt0!19sChIJI6ZKPmNJzTsRSrtzCE1wusg?authuser=0&hl=en&rclk=1,"18.8907702,79.202828"
Masjid e Saleh,Mosque,"X5W3+5FW Masjid e Saleh, bolishetty rajanna mro office, Dantepally, Telangana 504206",,"X5W3+5FW, bolishetty rajanna mro office",Dantepally,504206,Telangana,IN,https://www.google.com/maps/place/Masjid+e+Saleh/data=!4m7!3m6!1s0x3bcd45dc06307c6d:0xb5279caa5d165fe6!8m2!3d18.9954959!4d79.1537098!16s%2Fg%2F11n258mlmb!19sChIJbXwwBtxFzTsR5l8WXaqcJ7U?authuser=0&hl=en&rclk=1,"18.995495899999998,79.1537098"
HAZRAT ALI BABA KARBALA DEVUNIGUDA,Mosque,"5X2G+64G HAZRAT ALI BABA KARBALA DEVUNIGUDA, Devuniguda, Kamanpalle, Telangana 504205",,5X2G+64G,"Devuniguda, Kamanpalle",504205,Telangana,IN,https://www.google.com/maps/place/HAZRAT+ALI+BABA+KARBALA+DEVUNIGUDA/data=!4m7!3m6!1s0x3bcd61dd37a84fc3:0x4c9c24dbaaf795de!8m2!3d19.1505631!4d78.9753296!16s%2Fg%2F11qt448pc7!19sChIJw0-oN91hzTsR3pX3qtsknEw?authuser=0&hl=en&rclk=1,"19.1505631,78.9753296"
Madeena majhid,Mosque,"X3MQ+P34 Madeena majhid, Unnamed Road, Rajaram, Telangana 505425",,"X3MQ+P34, Unnamed Road",Rajaram,505425,Telangana,IN,https://www.google.com/maps/place/Madeena+majhid/data=!4m7!3m6!1s0x3bcd4361bfcc1b0f:0xfe0d7c8a129ec417!8m2!3d18.9842711!4d79.0876911!16s%2Fg%2F11rb3r6v9n!19sChIJDxvMv2FDzTsRF8SeEop8Df4?authuser=0&hl=en&rclk=1,"18.9842711,79.0876911"
Jama masjid kawal,Mosque,"5X97+M8M Jama masjid kawal, Kawal, Telangana 504205",,5X97+M8M,Kawal,504205,Telangana,IN,https://www.google.com/maps/place/Jama+masjid+kawal/data=!4m7!3m6!1s0x3bcd61db9faed409:0xc8e57351b72be292!8m2!3d19.1707652!4d78.9627696!16s%2Fg%2F11tgfrbxkx!19sChIJCdSun9thzTsRkuIrt1Fz5cg?authuser=0&hl=en&rclk=1,"19.170765199999998,78.9627696"
Community Hall,Mosque,"2WW5+6JR Community Hall, Godserial, Telangana 504202",,2WW5+6JR,Godserial,,Telangana,IN,https://www.google.com/maps/place/Community+Hall/data=!4m7!3m6!1s0x3bcd6533481136a9:0x70724a69a268e136!8m2!3d19.0456115!4d78.9090214!16s%2Fg%2F11swmqtzks!19sChIJqTYRSDNlzTsRNuFoomlKcnA?authuser=0&hl=en&rclk=1,"19.0456115,78.9090214"
BILALA MASJID,Mosque,"9WF5+HJJ BILALA MASJID, Jainoor, Telangana 504313",,9WF5+HJJ,Jainoor,504313,Telangana,IN,https://www.google.com/maps/place/BILALA+MASJID/data=!4m7!3m6!1s0x3bd29b2e07edb8d3:0xa2580038ac3fd778!8m2!3d19.3739522!4d78.9090191!16s%2Fg%2F11f77_fyxp!19sChIJ07jtBy6b0jsReNc_rDgAWKI?authuser=0&hl=en&rclk=1,"19.373952199999998,78.9090191"
Jamma Masjid,Mosque,"7345+QGQ Jamma Masjid, Yellapatar, Telangana 504313",,7345+QGQ,Yellapatar,,Telangana,IN,https://www.google.com/maps/place/Jamma+Masjid/data=!4m7!3m6!1s0x3bd2a1118f7720e5:0xd3a650aa42284af1!8m2!3d19.2569583!4d79.058856!16s%2Fg%2F11thhfc6wm!19sChIJ5SB3jxGh0jsR8UooQqpQptM?authuser=0&hl=en&rclk=1,"19.2569583,79.05885599999999"
Masjid-E-Ibrahimia,Mosque,"W3XR+6G5 Masjid-E-Ibrahimia, Dharmapuri Camp, Dharmapuri, Telangana 505425",Dharmapuri Camp,W3XR+6G5,Dharmapuri,505425,Telangana,IN,https://www.google.com/maps/place/Masjid-E-Ibrahimia/data=!4m7!3m6!1s0x3bcd417b204cbc55:0xfcf4ceb2cce74a88!8m2!3d18.9479993!4d79.091359!16s%2Fg%2F11rqh_2269!19sChIJVbxMIHtBzTsRiErnzLLO9Pw?authuser=0&hl=en&rclk=1,"18.9479993,79.091359"
theegala dhrmaram eidgah,Mosque,"224Q+GM9 theegala dhrmaram eidgah, Theegala Dharmaram, Telangana 505454",,224Q+GM9,Theegala Dharmaram,,Telangana,IN,https://www.google.com/maps/place/theegala+dhrmaram+eidgah/data=!4m7!3m6!1s0x3bcd4368ad4018c5:0x790c17ab17e3aaa6!8m2!3d19.0062932!4d79.0392394!16s%2Fg%2F11j92b1npv!19sChIJxRhArWhDzTsRpqrjF6sXDHk?authuser=0&hl=en&rclk=1,"19.006293199999998,79.0392394"
Masjid-E-Noor,Mosque,"WWPH+HVQ Masjid-E-Noor, Rechapalli, Telangana 505454",,WWPH+HVQ,Rechapalli,505454,Telangana,IN,https://www.google.com/maps/place/Masjid-E-Noor/data=!4m7!3m6!1s0x3bcd6b7331514d5f:0xff45f99cdcb0ecc8!8m2!3d18.9364588!4d78.9297201!16s%2Fg%2F11fvgfnlsd!19sChIJX01RMXNrzTsRyOyw3Jz5Rf8?authuser=0&hl=en&rclk=1,"18.9364588,78.9297201"
Abbubakar masjid,Mosque,"9WG5+JJV Abbubakar masjid, Jainoor, Telangana 504313",,9WG5+JJV,Jainoor,504313,Telangana,IN,https://www.google.com/maps/place/Abbubakar+masjid/data=!4m7!3m6!1s0x3bd29bab25333f2b:0x3b3f437925c3c48c!8m2!3d19.3766247!4d78.909049!16s%2Fg%2F11rs2wxm5k!19sChIJKz8zJaub0jsRjMTDJXlDPzs?authuser=0&hl=en&rclk=1,"19.3766247,78.909049"
Arpapalli Masjid,Mosque,"VXG6+G6J Arpapalli Masjid, Arpapalli, Telangana 505454",,VXG6+G6J,Arpapalli,505454,Telangana,IN,https://www.google.com/maps/place/Arpapalli+Masjid/data=!4m7!3m6!1s0x3bcd6b1e5bd2ca9f:0xf70c13b1b76ce353!8m2!3d18.8763476!4d78.9605286!16s%2Fg%2F11ptzvdrt1!19sChIJn8rSWx5rzTsRU-Nst7ETDPc?authuser=0&hl=en&rclk=1,"18.8763476,78.9605286"
Madina Masjid,Mosque,"W3XW+XWP Madina Masjid, Rotte Venkamma Illu, Dharmapuri, Telangana 505425",Rotte Venkamma Illu,W3XW+XWP,Dharmapuri,505425,Telangana,IN,https://www.google.com/maps/place/Madina+Masjid/data=!4m7!3m6!1s0x3bcd415a95e6aaab:0x91c9672ecbd81a34!8m2!3d18.9499598!4d79.097315!16s%2Fg%2F11txmzj9x5!19sChIJq6rmlVpBzTsRNBrYyy5nyZE?authuser=0&hl=en&rclk=1,"18.9499598,79.097315"
Jama masjid,Mosque,"9XX2+F85 Jama masjid, Unnamed Road, Daboli, Telangana 504313",,"9XX2+F85, Unnamed Road",Daboli,504313,Telangana,IN,https://www.google.com/maps/place/Jama+masjid/data=!4m7!3m6!1s0x3bd29962bbeafef3:0x74b0832244550441!8m2!3d19.3986432!4d78.9508508!16s%2Fg%2F11h4v7zns2!19sChIJ8_7qu2KZ0jsRQQRVRCKDsHQ?authuser=0&hl=en&rclk=1,"19.3986432,78.9508508"
Jama Masjid,Mosque,"V6G3+54W Jama Masjid, Luxettipet, Telangana 504215",,V6G3+54W,Luxettipet,,Telangana,IN,https://www.google.com/maps/place/Jama+Masjid/data=!4m7!3m6!1s0x3bcd4970ae68eff7:0x61bbf5e4054c084d!8m2!3d18.8754757!4d79.2028155!16s%2Fg%2F11sdxmbcv_!19sChIJ9-9ornBJzTsRTQhMBeT1u2E?authuser=0&hl=en&rclk=1,"18.8754757,79.2028155"
