name,main_category,address,address_ward,address_street,address_city,address_postal_code,address_state,address_country_code,link,coordinates
Kesar Bai Masjid,Mosque,"Kesar Bai Masjid, 466, Navapara Rd, Nawa Para, Bhavnagar, Gujarat 364001",Nawa Para,"466, Navapara Rd",Bhavnagar,364001,Gujarat,IN,https://www.google.com/maps/place/Kesar+Bai+Masjid/data=!4m7!3m6!1s0x395f5a87373fa4fd:0x48238fffa0adc389!8m2!3d21.7733066!4d72.1481849!16s%2Fg%2F1hm6c885r!19sChIJ_aQ_N4daXzkRicOtoP-PI0g?authuser=0&hl=en&rclk=1,"21.773306599999998,72.14818489999999"
Khoja Shia Masjid,Mosque,"Q4HV+C9W Khoja Shia Masjid, Ambachowk, Bhavnagar, Gujarat 364001",Ambachowk,Q4HV+C9W,Bhavnagar,364001,Gujarat,IN,https://www.google.com/maps/place/Khoja+Shia+Masjid/data=!4m7!3m6!1s0x395f5a8241684917:0x1d092d60a4dae352!8m2!3d21.7786164!4d72.1434503!16s%2Fg%2F1pp2vjt27!19sChIJF0loQYJaXzkRUuPapGAtCR0?authuser=0&hl=en&rclk=1,"21.7786164,72.1434503"
Masjid E Abu Ayyub Ansari (KAGDIWAD MARKAZ),Mosque,"Masjid E Abu Ayyub Ansari (KAGDIWAD MARKAZ), Jogiwaad, Krishna Nagar, Bhavnagar, Gujarat 364001","Jogiwaad, Krishna Nagar",,Bhavnagar,364001,Gujarat,IN,https://www.google.com/maps/place/Masjid+E+Abu+Ayyub+Ansari+%28KAGDIWAD+MARKAZ%29/data=!4m7!3m6!1s0x395f5a85c86a852b:0xca979b1dcabad957!8m2!3d21.779021!4d72.1511292!16s%2Fg%2F11c5wm6jgt!19sChIJK4VqyIVaXzkRV9m6yh2bl8o?authuser=0&hl=en&rclk=1,"21.779021,72.1511292"
Madeena Masjid,Mosque,"Q4CX+PGF Madeena Masjid, Navapara Rd, Nawa Para, Bhavnagar, Gujarat 364001",Nawa Para,"Q4CX+PGF, Navapara Rd",Bhavnagar,364001,Gujarat,IN,https://www.google.com/maps/place/Madeena+Masjid/data=!4m7!3m6!1s0x395f5a7df59bd647:0x2eade6d1f9f04d2c!8m2!3d21.7718161!4d72.1487994!16s%2Fg%2F1pyqm4krg!19sChIJR9ab9X1aXzkRLE3w-dHmrS4?authuser=0&hl=en&rclk=1,"21.7718161,72.1487994"
Juma Masjid,Mosque,"Juma Masjid, Khojavad Rd, Khargate, Darbargadh, Bhavnagar, Gujarat 364001","Khargate, Darbargadh",Khojavad Rd,Bhavnagar,364001,Gujarat,IN,https://www.google.com/maps/place/Juma+Masjid/data=!4m7!3m6!1s0x395f5a8247303467:0x3737987ec06df993!8m2!3d21.7788324!4d72.1440954!16s%2Fg%2F1pyqh9jfr!19sChIJZzQwR4JaXzkRk_ltwH6YNzc?authuser=0&hl=en&rclk=1,"21.7788324,72.1440954"
Saifee Masjid,Mosque,"Saifee Masjid, 1495, Diwanpara Rd, Momin Wad, Bhavnagar, Gujarat 364001",Momin Wad,"1495, Diwanpara Rd",Bhavnagar,364001,Gujarat,IN,https://www.google.com/maps/place/Saifee+Masjid/data=!4m7!3m6!1s0x395f5a868f107eb7:0xb9f7a01b0f92348!8m2!3d21.7767!4d72.15!16s%2Fg%2F1pyqt8_08!19sChIJt34Qj4ZaXzkRSCP5sAF6nws?authuser=0&hl=en&rclk=1,"21.776699999999998,72.14999999999999"
Masjid e Faris Ahmed Dar,Mosque,"Q4FX+R3V Masjid e Faris Ahmed Dar, Nawa Para, Bhavnagar, Gujarat 364001",Nawa Para,Q4FX+R3V,Bhavnagar,364001,Gujarat,IN,https://www.google.com/maps/place/Masjid+e+Faris+Ahmed+Dar/data=!4m7!3m6!1s0x395f5a86d4e46413:0x41376f9957551312!8m2!3d21.7746233!4d72.1476626!16s%2Fg%2F11c7szy5j4!19sChIJE2Tk1IZaXzkREhNVV5lvN0E?authuser=0&hl=en&rclk=1,"21.7746233,72.14766259999999"
Imamvada Masjid,Mosque,"Q4GQ+G4V Imamvada Masjid, Alka Cinema Rd, Vadva, Bhavnagar, Gujarat 364001",Vadva,"Q4GQ+G4V, Alka Cinema Rd",Bhavnagar,364001,Gujarat,IN,https://www.google.com/maps/place/Imamvada+Masjid/data=!4m7!3m6!1s0x395f507932f51a5f:0xc346136748bfd9cc!8m2!3d21.7763709!4d72.1378103!16s%2Fg%2F11cmsl2ymh!19sChIJXxr1MnlQXzkRzNm_SGcTRsM?authuser=0&hl=en&rclk=1,"21.7763709,72.1378103"
Masjid-E-Noori,Mosque,"Q487+JJ5 Masjid-E-Noori, Bhavnagar Para, Bhavnagar, Gujarat 364004",Bhavnagar Para,Q487+JJ5,Bhavnagar,364004,Gujarat,IN,https://www.google.com/maps/place/Masjid-E-Noori/data=!4m7!3m6!1s0x395f50f597bb44b5:0x20e8bcc9dd4c748e!8m2!3d21.7665064!4d72.1140955!16s%2Fg%2F11f0wh4zfl!19sChIJtUS7l_VQXzkRjnRM3cm86CA?authuser=0&hl=en&rclk=1,"21.766506399999997,72.11409549999999"
Masjid e Bilal,Mosque,"Q5G3+GJG Masjid e Bilal, Manekwadi, Krishna Nagar, Bhavnagar, Gujarat 364001","Manekwadi, Krishna Nagar",Q5G3+GJG,Bhavnagar,364001,Gujarat,IN,https://www.google.com/maps/place/Masjid+e+Bilal/data=!4m7!3m6!1s0x395f5a8899b0f371:0x2c842c5989ae08ba!8m2!3d21.7763186!4d72.1540674!16s%2Fg%2F11c2q39dt1!19sChIJcfOwmYhaXzkRugiuiVkshCw?authuser=0&hl=en&rclk=1,"21.7763186,72.1540674"
Masjid yusuf,Mosque,"Masjid yusuf, 3 364001, 76/A-3, Bordi Gate, Bhavnagar, Gujarat 364001","Bordi Gate, Krishna Nagar","3 364001, 76/A-3, Bordi Gate",Bhavnagar,364001,Gujarat,IN,https://www.google.com/maps/place/Masjid+yusuf/data=!4m7!3m6!1s0x395f5a896d4dcbe9:0x81bc87811ed5aab3!8m2!3d21.7764531!4d72.1579131!16s%2Fg%2F11b7k1xw3c!19sChIJ6ctNbYlaXzkRs6rVHoGHvIE?authuser=0&hl=en&rclk=1,"21.776453099999998,72.1579131"
kaziwad masjid,Mosque,"Q4JX+5JH kaziwad masjid, Diwanpara, Vora Bazar, Bhavnagar, Gujarat 364001","Diwanpara, Vora Bazar",Q4JX+5JH,Bhavnagar,364001,Gujarat,IN,https://www.google.com/maps/place/kaziwad+masjid/data=!4m7!3m6!1s0x395f5b2f137f8823:0x32f3caf0c8b6f615!8m2!3d21.7804324!4d72.1491026!16s%2Fg%2F11h6t_mwn0!19sChIJI4h_Ey9bXzkRFfa2yPDK8zI?authuser=0&hl=en&rclk=1,"21.7804324,72.14910259999999"
NAGINA MASJID,Mosque,"Q4JW+66V NAGINA MASJID, Khargate, Darbargadh, Bhavnagar, Gujarat 364001","Khargate, Darbargadh",Q4JW+66V,Bhavnagar,364001,Gujarat,IN,https://www.google.com/maps/place/NAGINA+MASJID/data=!4m7!3m6!1s0x395f5a830e303207:0xa3476d22f19dc8ff!8m2!3d21.7806052!4d72.1455367!16s%2Fg%2F11c72mcmtr!19sChIJBzIwDoNaXzkR_8id8SJtR6M?authuser=0&hl=en&rclk=1,"21.7806052,72.1455367"
Masjid E Khawaja Garib Nawaz,Mosque,"Q5H3+68G Masjid E Khawaja Garib Nawaz, Krishna Nagar, Bhavnagar, Gujarat 364001",Krishna Nagar,Q5H3+68G,Bhavnagar,364001,Gujarat,IN,https://www.google.com/maps/place/Masjid+E+Khawaja+Garib+Nawaz/data=!4m7!3m6!1s0x395f5a85ffbab975:0x378aeb8b9314455b!8m2!3d21.7780532!4d72.1533265!16s%2Fg%2F11c2kc717z!19sChIJdbm6_4VaXzkRW0UUk4vrijc?authuser=0&hl=en&rclk=1,"21.7780532,72.15332649999999"
Ibhrahim Masjid,Mosque,"Q5H4+MGH Ibhrahim Masjid, Krishna Nagar, Bhavnagar, Gujarat 364005",Krishna Nagar,Q5H4+MGH,Bhavnagar,364005,Gujarat,IN,https://www.google.com/maps/place/Ibhrahim+Masjid/data=!4m7!3m6!1s0x395f5a8f2779598d:0x5fcb88fd838c8c20!8m2!3d21.7791772!4d72.1563589!16s%2Fg%2F11c1x31kf0!19sChIJjVl5J49aXzkRIIyMg_2Iy18?authuser=0&hl=en&rclk=1,"21.7791772,72.1563589"
Masjid E Khadija,Mosque,"Q5G5+756 Masjid E Khadija, Shishuvihaar, Krishna Nagar, Bhavnagar, Gujarat 364001","Shishuvihaar, Krishna Nagar",Q5G5+756,Bhavnagar,364001,Gujarat,IN,https://www.google.com/maps/place/Masjid+E+Khadija/data=!4m7!3m6!1s0x395f5a890ace8fff:0xc3c778a836754358!8m2!3d21.775671!4d72.1578772!16s%2Fg%2F11c2kdbcgw!19sChIJ_4_OColaXzkRWEN1Nqh4x8M?authuser=0&hl=en&rclk=1,"21.775671,72.1578772"
Goshiya Masjid,Mosque,"Q4GQ+G98 Goshiya Masjid, Sutarwad, Panwadi, Bhavnagar, Gujarat 364001","Sutarwad, Panwadi",Q4GQ+G98,Bhavnagar,364001,Gujarat,IN,https://www.google.com/maps/place/Goshiya+Masjid/data=!4m7!3m6!1s0x395f50792b299975:0x25a07ee87664291e!8m2!3d21.7762987!4d72.1384567!16s%2Fg%2F1hc1_k90b!19sChIJdZkpK3lQXzkRHilkduh-oCU?authuser=0&hl=en&rclk=1,"21.776298699999998,72.13845669999999"
MASJID E TAQWA,Mosque,"Q4PQ+2PM MASJID E TAQWA, Bhavnagar, Gujarat 364006",,Q4PQ+2PM,Bhavnagar,364006,Gujarat,IN,https://www.google.com/maps/place/MASJID+E+TAQWA/data=!4m7!3m6!1s0x395f507652af4945:0x334d2e83d14d3b94!8m2!3d21.7850868!4d72.1392879!16s%2Fg%2F11cs694n6y!19sChIJRUmvUnZQXzkRlDtN0YMuTTM?authuser=0&hl=en&rclk=1,"21.7850868,72.1392879"
Akwada Masjid,Mosque,"P5RH+C6X Akwada Masjid, GJ SH 37, HadaNagar, Bhavnagar, Gujarat 364002",HadaNagar,"P5RH+C6X, GJ SH 37",Bhavnagar,364002,Gujarat,IN,https://www.google.com/maps/place/Akwada+Masjid/data=!4m7!3m6!1s0x395f5a301a7ed065:0x770315f0580ade6!8m2!3d21.7411!4d72.1781!16s%2Fg%2F1pyqrb9j2!19sChIJZdB-GjBaXzkR5q2ABV8xcAc?authuser=0&hl=en&rclk=1,"21.7411,72.1781"
Kabrastaan Masjid,Mosque,"Q572+PWH Kabrastaan Masjid, Nawapara Rd, Pragati Nagar, Sardar Nagar, Bhavnagar, Gujarat 364002","Pragati Nagar, Sardar Nagar","Q572+PWH, Nawapara Rd",Bhavnagar,364002,Gujarat,IN,https://www.google.com/maps/place/Kabrastaan+Masjid/data=!4m7!3m6!1s0x395f5a7b3c979fe9:0x72648204142a9264!8m2!3d21.7643153!4d72.1523475!16s%2Fg%2F11byp65s53!19sChIJ6Z-XPHtaXzkRZJIqFASCZHI?authuser=0&hl=en&rclk=1,"21.7643153,72.15234749999999"
Qadri Masjid,Mosque,"Q4JP+29F Qadri Masjid, Bhagatalav, Kumbharwada, Bhavnagar, Gujarat 364006","Bhagatalav, Kumbharwada",Q4JP+29F,Bhavnagar,364006,Gujarat,IN,https://www.google.com/maps/place/Qadri+Masjid/data=!4m7!3m6!1s0x395f5079892d0841:0x64ca35890d7d4f20!8m2!3d21.7800716!4d72.1359358!16s%2Fg%2F11c2k2kfp9!19sChIJQQgtiXlQXzkRIE99DYk1ymQ?authuser=0&hl=en&rclk=1,"21.7800716,72.1359358"
Halima Masjid,Mosque,"Q4GF+X3C Halima Masjid, Kumbharwada, Bhavnagar, Gujarat 364001",Kumbharwada,Q4GF+X3C,Bhavnagar,364001,Gujarat,IN,https://www.google.com/maps/place/Halima+Masjid/data=!4m7!3m6!1s0x395f506661e01437:0x604fd03b0c523568!8m2!3d21.7774356!4d72.1226446!16s%2Fg%2F11gcykg2p3!19sChIJNxTgYWZQXzkRaDVSDDvQT2A?authuser=0&hl=en&rclk=1,"21.7774356,72.1226446"
Mominwad Masjid,Mosque,"Q5H2+7GP Mominwad Masjid, Momin Wad, Bhavnagar, Gujarat 364001",Momin Wad,Q5H2+7GP,Bhavnagar,364001,Gujarat,IN,https://www.google.com/maps/place/Mominwad+Masjid/data=!4m7!3m6!1s0x395f5a85da5da6dd:0x9261d42596f37030!8m2!3d21.7782079!4d72.1513394!16s%2Fg%2F11c38jgtq8!19sChIJ3aZd2oVaXzkRMHDzliXUYZI?authuser=0&hl=en&rclk=1,"21.778207899999998,72.1513394"
Khadija Masjid,Mosque,"Q4GF+97X Khadija Masjid, Kumbharwada, Bhavnagar, Gujarat 364001",Kumbharwada,Q4GF+97X,Bhavnagar,364001,Gujarat,IN,https://www.google.com/maps/place/Khadija+Masjid/data=!4m7!3m6!1s0x395f5066a2843a99:0x8abba81d0a988aa!8m2!3d21.7759905!4d72.1232381!16s%2Fg%2F11f2l80czp!19sChIJmTqEomZQXzkRqoip0IG6qwg?authuser=0&hl=en&rclk=1,"21.7759905,72.1232381"
Mohammadi Masjid,Mosque,"Q48C+7V2 Mohammadi Masjid, Gadhechi Vadala, Bhavnagar, Gujarat 364001",Gadhechi Vadala,Q48C+7V2,Bhavnagar,364001,Gujarat,IN,https://www.google.com/maps/place/Mohammadi+Masjid/data=!4m7!3m6!1s0x395f508bb456c4d5:0xc4aecc9164ca6f88!8m2!3d21.765633!4d72.1221432!16s%2Fg%2F11f2vb10x8!19sChIJ1cRWtItQXzkRiG_KZJHMrsQ?authuser=0&hl=en&rclk=1,"21.765632999999998,72.1221432"
Masjid-E-Siddiqiya,Mosque,"Q5H3+M3H Masjid-E-Siddiqiya, Jogiwaad, Krishna Nagar, Bhavnagar, Gujarat 364001","Jogiwaad, Krishna Nagar",Q5H3+M3H,Bhavnagar,364001,Gujarat,IN,https://www.google.com/maps/place/Masjid-E-Siddiqiya/data=!4m7!3m6!1s0x395f5a85ed7ab40f:0x7d2e2433af59a565!8m2!3d21.7791912!4d72.1527461!16s%2Fg%2F11csr_n36v!19sChIJD7R67YVaXzkRZaVZrzMkLn0?authuser=0&hl=en&rclk=1,"21.7791912,72.1527461"
Noori Masjid,Mosque,"Noori Masjid, 1608/6, Ghogha Rd, Sindhi Society, Ghogha Road, Sindhi Society, Bhavnagar, Gujarat 364001",Sardar Nagar,"1608/6, Ghogha Rd, Sindhi Society, Ghogha Road, Sindhi Society",Bhavnagar,364001,Gujarat,IN,https://www.google.com/maps/place/Noori+Masjid/data=!4m7!3m6!1s0x395f5a6eba6e12bd:0xa4512d342d07fcd2!8m2!3d21.7560969!4d72.1590343!16s%2Fg%2F11csq8rnqq!19sChIJvRJuum5aXzkR0vwHLTQtUaQ?authuser=0&hl=en&rclk=1,"21.7560969,72.1590343"
Masjid E Maula Ali,Mosque,"Q4PR+J35 Masjid E Maula Ali, Bhavnagar, Gujarat 364006",,Q4PR+J35,Bhavnagar,364006,Gujarat,IN,https://www.google.com/maps/place/Masjid+E+Maula+Ali/data=!4m7!3m6!1s0x395f50763fdd99fb:0x92c988002eae52ef!8m2!3d21.7865044!4d72.1402293!16s%2Fg%2F11c2lr5tjk!19sChIJ-5ndP3ZQXzkR71KuLgCIyZI?authuser=0&hl=en&rclk=1,"21.7865044,72.1402293"
Masjid E Anas,Mosque,"Q4HP+34C Masjid E Anas, Shelarshah Rd, Madhia, Vadva, Bhavnagar, Gujarat 364001","Madhia, Vadva","Q4HP+34C, Shelarshah Rd",Bhavnagar,364001,Gujarat,IN,https://www.google.com/maps/place/Masjid+E+Anas/data=!4m7!3m6!1s0x395f5105c1da30c3:0x3c316f176f2ab5d6!8m2!3d21.7776867!4d72.1352716!16s%2Fg%2F11h0_pgbj4!19sChIJwzDawQVRXzkR1rUqbxdvMTw?authuser=0&hl=en&rclk=1,"21.7776867,72.1352716"
Gorifadiya Masjid,Mosque,"Gorifadiya Masjid, 2892 ,Vora Bazar, gori faliya, Haluriya Chowk, Bhavnagar, Gujarat 364001","gori faliya, Haluriya Chowk","2892 ,Vora Bazar",Bhavnagar,364001,Gujarat,IN,https://www.google.com/maps/place/Gorifadiya+Masjid/data=!4m7!3m6!1s0x395f5a8698e1c525:0x3240cea3d3e0687!8m2!3d21.777!4d72.1491999!16s%2Fg%2F1pyqrb9j7!19sChIJJcXhmIZaXzkRhwY-PeoMJAM?authuser=0&hl=en&rclk=1,"21.776999999999997,72.1491999"
Hanfiya Masjid,Mosque,"Q4GR+WC5 Hanfiya Masjid, Vadva, Bhavnagar, Gujarat 364001",Vadva,Q4GR+WC5,Bhavnagar,364001,Gujarat,IN,https://www.google.com/maps/place/Hanfiya+Masjid/data=!4m7!3m6!1s0x395f5078af64097f:0x1f9e317096274fc2!8m2!3d21.7772636!4d72.141123!16s%2Fg%2F11f125gns5!19sChIJfwlkr3hQXzkRwk8nlnAxnh8?authuser=0&hl=en&rclk=1,"21.777263599999998,72.141123"
Masjid e Siraj ur Rahim,Mosque,"Q5H2+FCJ Masjid e Siraj ur Rahim, Raanika, Bhavnagar, Gujarat 364001",Raanika,Q5H2+FCJ,Bhavnagar,364001,Gujarat,IN,https://www.google.com/maps/place/Masjid+e+Siraj+ur+Rahim/data=!4m7!3m6!1s0x395f5a85cecf8e35:0xfc078ef757e50874!8m2!3d21.7787!4d72.151!16s%2Fg%2F1pyql6fk2!19sChIJNY7PzoVaXzkRdAjlV_eOB_w?authuser=0&hl=en&rclk=1,"21.7787,72.151"
Masjid E Imam Ahmad Raza,Mosque,"Q5H2+8HP Masjid E Imam Ahmad Raza, Limbdiwali Rd, Jogiwaad, Momin Wad, Bhavnagar, Gujarat 364001","Jogiwaad, Momin Wad","Q5H2+8HP, Limbdiwali Rd",Bhavnagar,364001,Gujarat,IN,https://www.google.com/maps/place/Masjid+E+Imam+Ahmad+Raza/data=!4m7!3m6!1s0x395f5a85db2294d9:0x1045f32465bad694!8m2!3d21.7783499!4d72.1514641!16s%2Fg%2F11csq7wbj1!19sChIJ2ZQi24VaXzkRlNa6ZSTzRRA?authuser=0&hl=en&rclk=1,"21.7783499,72.1514641"
Masjid E Muhammadi,Mosque,"Q4MH+52M Masjid E Muhammadi, Kumbharwada, Bhavnagar, Gujarat 364006",Kumbharwada,Q4MH+52M,Bhavnagar,364006,Gujarat,IN,https://www.google.com/maps/place/Masjid+E+Muhammadi/data=!4m7!3m6!1s0x395f506fbaaad867:0xc4f6e4709e02c0e2!8m2!3d21.7829678!4d72.12755!16s%2Fg%2F11c5s934b8!19sChIJZ9iqum9QXzkR4sACnnDk9sQ?authuser=0&hl=en&rclk=1,"21.782967799999998,72.12755"
masjid e havva,Mosque,"masjid e havva, NEAR, Shishu Vihar Cir, RAZA NAGAR, Maft Nagar, Krishna Nagar, Bhavnagar, Gujarat 364005","RAZA NAGAR, Maft Nagar, Krishna Nagar","NEAR, Shishu Vihar Cir",Bhavnagar,364005,Gujarat,IN,https://www.google.com/maps/place/masjid+e+havva/data=!4m7!3m6!1s0x395f5a8ee9d3b32d:0xd8569506c7752d0d!8m2!3d21.7797957!4d72.1575185!16s%2Fg%2F11c59v_3qz!19sChIJLbPT6Y5aXzkRDS11xwaVVtg?authuser=0&hl=en&rclk=1,"21.779795699999998,72.1575185"
Masjid-e Abubkkar,Mosque,"Q4GF+JXC Masjid-e Abubkkar, Kumbharwada, nari road Gujarat housing board, Bhavnagar, Gujarat 364006",Kumbharwada,"Q4GF+JXC, Kumbharwada, nari road Gujarat housing board",Bhavnagar,364006,Gujarat,IN,https://www.google.com/maps/place/Masjid-e+Abubkkar/data=!4m7!3m6!1s0x395f514b866c3551:0x141b825150c8c50e!8m2!3d21.7765697!4d72.1248839!16s%2Fg%2F11ghpzlksh!19sChIJUTVshktRXzkRDsXIUFGCGxQ?authuser=0&hl=en&rclk=1,"21.7765697,72.1248839"
Rehnuma E Millat Masjid,Mosque,"Rehnuma E Millat Masjid, gujrat housing board,block no:-l/53, V T Nagar Rd, New Kumbharvada, Mahuva, Bhavnagar, Gujarat 364290",New Kumbharvada,"gujrat housing board,block no:-l/53, V T Nagar Rd","Mahuva, Bhavnagar",364290,Gujarat,IN,https://www.google.com/maps/place/Rehnuma+E+Millat+Masjid/data=!4m7!3m6!1s0x395f5066e4bcc56d:0x8b1d185d516d0b0!8m2!3d21.7764507!4d72.1213738!16s%2Fg%2F11g6rlvd32!19sChIJbcW85GZQXzkRsNAW1YXRsQg?authuser=0&hl=en&rclk=1,"21.776450699999998,72.1213738"
Masjid E Hava msjid e hvaa,Mosque,"Q5H4+WXW Masjid E Hava msjid e hvaa, Shishu Vihar Cir, Maft Nagar, Krishna Nagar, Bhavnagar, Gujarat 364005","Maft Nagar, Krishna Nagar","Q5H4+WXW, Shishu Vihar Cir",Bhavnagar,364005,Gujarat,IN,https://www.google.com/maps/place/Masjid+E+Hava+%E0%AA%AE%E0%AA%B8%E0%AB%8D%E0%AA%9C%E0%AA%BF%E0%AA%A6+%E0%AA%8F+%E0%AA%B9%E0%AA%B5%E0%AA%BE/data=!4m7!3m6!1s0x395f5b4664b9fa71:0xf8651e569db1db9f!8m2!3d21.7798521!4d72.1574381!16s%2Fg%2F11ff218_7h!19sChIJcfq5ZEZbXzkRn9uxnVYeZfg?authuser=0&hl=en&rclk=1,"21.7798521,72.1574381"
Masjid E Ronak E Islam,Mosque,"Masjid E Ronak E Islam, Navi Millni Chali, 5, Alka Cinema Rd, Kumbharwada, Bhavnagar, Gujarat 364006",Kumbharwada,"Navi Millni Chali, 5, Alka Cinema Rd",Bhavnagar,364006,Gujarat,IN,https://www.google.com/maps/place/Masjid+E+Ronak+E+Islam/data=!4m7!3m6!1s0x395f507b9b814429:0xa8a6f3bc60ff68cb!8m2!3d21.7765869!4d72.1331239!16s%2Fg%2F11bw51s0f1!19sChIJKUSBm3tQXzkRy2j_YLzzpqg?authuser=0&hl=en&rclk=1,"21.776586899999998,72.1331239"
Masjid Ahmed Nur,Mosque,"Q4HR+HQ5 Masjid Ahmed Nur, Sanghediya Bazar, Vadva, Bhavnagar, Gujarat 364001","Sanghediya Bazar, Vadva",Q4HR+HQ5,Bhavnagar,364001,Gujarat,IN,https://www.google.com/maps/place/Masjid+Ahmed+Nur/data=!4m7!3m6!1s0x395f5a827a1ee11d:0x7c5edf6d63d714d5!8m2!3d21.7789!4d72.142!16s%2Fg%2F1pyqhvryd!19sChIJHeEeeoJaXzkR1RTXY23fXnw?authuser=0&hl=en&rclk=1,"21.7789,72.142"
Ibaadat Gah Masjid,Mosque,"Ibaadat Gah Masjid, 774, Lakadiya Bazar, Kachiyavad, Vadva, Bhavnagar, Gujarat 364001","Kachiyavad, Vadva","774, Lakadiya Bazar",Bhavnagar,364001,Gujarat,IN,https://www.google.com/maps/place/Ibaadat+Gah+Masjid/data=!4m7!3m6!1s0x395f50789a7401bf:0xa88d29bb01178e6a!8m2!3d21.7782951!4d72.1401247!16s%2Fg%2F11h0qxgyx!19sChIJvwF0mnhQXzkRao4XAbspjag?authuser=0&hl=en&rclk=1,"21.778295099999998,72.1401247"
AYSHA WALIYA MASJID,Mosque,"Q5J3+H3Q AYSHA WALIYA MASJID, Raanika, Bhavnagar, Gujarat 364001",Raanika,Q5J3+H3Q,Bhavnagar,364001,Gujarat,IN,https://www.google.com/maps/place/AYSHA+WALIYA+MASJID/data=!4m7!3m6!1s0x395f5b585a6ebd91:0x13011a46831db10d!8m2!3d21.7814501!4d72.1527202!16s%2Fg%2F11gvzcxj9s!19sChIJkb1uWlhbXzkRDbEdg0YaARM?authuser=0&hl=en&rclk=1,"21.7814501,72.15272019999999"
AL - ILAHI MASJID PEDAK,Mosque,"Q45J+J99 AL - ILAHI MASJID PEDAK, PEDAK, Bhavnagar - Rajkot Rd, near ITI COLLEGE, Vidhyanagar, Gujarat",Vidhyanagar,"Q45J+J99, PEDAK, Bhavnagar - Rajkot Rd, near ITI COLLEGE",Bhavnagar,,Gujarat,IN,https://www.google.com/maps/place/AL+-+ILAHI+MASJID+PEDAK/data=!4m7!3m6!1s0x395f510d6312ace3:0x6cfc01107787117c!8m2!3d21.759043!4d72.1309964!16s%2Fg%2F11h3vb7_k5!19sChIJ46wSYw1RXzkRfBGHdxAB_Gw?authuser=0&hl=en&rclk=1,"21.759043,72.1309964"
PINJARA WAD MASJID,Mosque,"Q5H2+R6G PINJARA WAD MASJID, PINJARA WAD, Raanika, Bhavnagar, Gujarat 364003",Raanika,"Q5H2+R6G, PINJARA WAD",Bhavnagar,,Gujarat,IN,https://www.google.com/maps/place/PINJARA+WAD+MASJID/data=!4m7!3m6!1s0x395f5a85b32266bb:0x856b920120e883f2!8m2!3d21.7795634!4d72.1505868!16s%2Fg%2F11c1_vssy2!19sChIJu2Yis4VaXzkR8oPoIAGSa4U?authuser=0&hl=en&rclk=1,"21.7795634,72.1505868"
GHANCHIWAD MASJID,Mosque,"Q4FX+R3V GHANCHIWAD MASJID, Nawa Para, Bhavnagar, Gujarat 364001",Nawa Para,Q4FX+R3V,Bhavnagar,364001,Gujarat,IN,https://www.google.com/maps/place/GHANCHIWAD+MASJID/data=!4m7!3m6!1s0x395f5b0139eefb1f:0xa679e225d237f58a!8m2!3d21.7746102!4d72.1476584!16s%2Fg%2F11rd2jw7sz!19sChIJH_vuOQFbXzkRivU30iXieaY?authuser=0&hl=en&rclk=1,"21.774610199999998,72.1476584"
Masjid E Ayesha waliya,Mosque,"Masjid E Ayesha waliya, Raanika, Bhavnagar, Gujarat 364005",Raanika,,Bhavnagar,364005,Gujarat,IN,https://www.google.com/maps/place/Masjid+E+Ayesha+waliya/data=!4m7!3m6!1s0x395f5b5f2e8301e9:0xc93baf8d1189ea45!8m2!3d21.7801355!4d72.153408!16s%2Fg%2F11gvzjd9yf!19sChIJ6QGDLl9bXzkRReqJEY2vO8k?authuser=0&hl=en&rclk=1,"21.7801355,72.153408"
msjiid -e- umme abdullaah,Mosque,"msjiid -e- umme abdullaah, Bhagatalav, Kumbharwada, Bhavnagar, Gujarat 364006","Bhagatalav, Kumbharwada",,Bhavnagar,364006,Gujarat,IN,https://www.google.com/maps/place/%E0%AA%AE%E0%AA%B8%E0%AB%8D%E0%AA%9C%E0%AB%80%E0%AA%A6+-%E0%AA%8F-+%E0%AA%89%E0%AA%AE%E0%AB%8D%E0%AA%AE%E0%AB%87+%E0%AA%85%E0%AA%AC%E0%AB%8D%E0%AA%A6%E0%AB%81%E0%AA%B2%E0%AB%8D%E0%AA%B2%E0%AA%BE%E0%AA%B9/data=!4m7!3m6!1s0x395f51053177b5a3:0x531a01f7c4adae52!8m2!3d21.7813629!4d72.1355108!16s%2Fg%2F11jmtw36zf!19sChIJo7V3MQVRXzkRUq6txPcBGlM?authuser=0&hl=en&rclk=1,"21.781362899999998,72.13551079999999"
Darul Ifta Wal Irshad Mosque,Mosque,"Darul Ifta Wal Irshad Mosque, 2382, Manekwadi, Krishna Nagar, Bhavnagar, Gujarat 364001","Manekwadi, Krishna Nagar",2382,Bhavnagar,364001,Gujarat,IN,https://www.google.com/maps/place/Darul+Ifta+Wal+Irshad+Mosque/data=!4m7!3m6!1s0x395f5a88981fd6c3:0xe8c9e7799c76ca87!8m2!3d21.7765!4d72.1542!16s%2Fg%2F1pyqm8p_9!19sChIJw9YfmIhaXzkRh8p2nHnnyeg?authuser=0&hl=en&rclk=1,"21.7765,72.1542"
CHAND MASJID,Mosque,"CHAND MASJID, Dhobi society, Bortalav Rd, Rajapara, Bhavnagar, Gujarat 364003",Rajapara,"Dhobi society, Bortalav Rd",Bhavnagar,364003,Gujarat,IN,https://www.google.com/maps/place/CHAND+MASJID/data=!4m7!3m6!1s0x395f512357d8bd31:0xdeeb89016c78ad13!8m2!3d21.7564081!4d72.1211486!16s%2Fg%2F11k7t7nmwc!19sChIJMb3YVyNRXzkRE614bAGJ694?authuser=0&hl=en&rclk=1,"21.756408099999998,72.1211486"
MASJID E UMAR FARUK,Mosque,"Q32P+MQ5 MASJID E UMAR FARUK, Chitra Gujarat Industrial Development Corporation, Bhavnagar, Gujarat 364004",Chitra Gujarat Industrial Development Corporation,Q32P+MQ5,Bhavnagar,364004,Gujarat,IN,https://www.google.com/maps/place/MASJID+E+UMAR+FARUK/data=!4m7!3m6!1s0x395f51f896aedc59:0xd49ff56d98ae2303!8m2!3d21.7516343!4d72.086985!16s%2Fg%2F11rhqy02p9!19sChIJWdyulvhRXzkRAyOumG31n9Q?authuser=0&hl=en&rclk=1,"21.7516343,72.086985"
NOOR E MOHAMMADI MASJID,Mosque,"PLOT NO. 46, NOOR E MOHAMMADI MASJID, SNEHMILAN SOCIETY, Bhavnagar Para, Bhavnagar, Gujarat 364003",Bhavnagar Para,"PLOT NO. 46, SNEHMILAN SOCIETY",Bhavnagar,364003,Gujarat,IN,https://www.google.com/maps/place/NOOR+E+MOHAMMADI+MASJID/data=!4m7!3m6!1s0x395f519c0382a7fd:0xdc140a01de8c9505!8m2!3d21.7661505!4d72.1134877!16s%2Fg%2F11kpsmxh31!19sChIJ_aeCA5xRXzkRBZWM3gEKFNw?authuser=0&hl=en&rclk=1,"21.7661505,72.1134877"
MASJID E HUSSENI,Mosque,"MASJID E HUSSENI, F-27,, F-27, Kumbharwada, Bhavnagar, Gujarat 364006",Kumbharwada,"F-27,, F-27, Kumbharwada",Bhavnagar,364006,Gujarat,IN,https://www.google.com/maps/place/MASJID+E+HUSSENI/data=!4m7!3m6!1s0x395f5065595775a1:0xee5d7b8e747c1d47!8m2!3d21.7806449!4d72.128724!16s%2Fg%2F11c2nthm9g!19sChIJoXVXWWVQXzkRRx18dI57Xe4?authuser=0&hl=en&rclk=1,"21.7806449,72.12872399999999"
Masjid E Huda,Mosque,"Q5H3+R4F Masjid E Huda, Raanika, Bhavnagar, Gujarat 364005",Raanika,Q5H3+R4F,Bhavnagar,364005,Gujarat,IN,https://www.google.com/maps/place/Masjid+E+Huda/data=!4m7!3m6!1s0x395f5b0562e39853:0x4501bb0446d543d2!8m2!3d21.779688!4d72.1527381!16s%2Fg%2F11txlfcn_5!19sChIJU5jjYgVbXzkR0kPVRgS7AUU?authuser=0&hl=en&rclk=1,"21.779688,72.1527381"
noor e Muhammadi masjid,Mosque,"Q4FM+9WC noor e Muhammadi masjid, Nirmal Nagar, Bhavnagar, Gujarat 364001",Nirmal Nagar,Q4FM+9WC,Bhavnagar,364001,Gujarat,IN,https://www.google.com/maps/place/noor+e+Muhammadi+masjid/data=!4m7!3m6!1s0x395f51134b77414b:0x660c2e5792408712!8m2!3d21.7734291!4d72.1347567!16s%2Fg%2F11fl103xls!19sChIJS0F3SxNRXzkREodAklcuDGY?authuser=0&hl=en&rclk=1,"21.773429099999998,72.1347567"
Masjid e Hasni Husain,Mosque,"Masjid e Hasni Husain, Dhobi Society, Rajapara, Bhavnagar, Gujarat 364002",Rajapara,Dhobi Society,Bhavnagar,,Gujarat,IN,https://www.google.com/maps/place/Masjid+e+Hasni+Husain/data=!4m7!3m6!1s0x395f51c7bba352a9:0x19a3e05d601b5d27!8m2!3d21.7572947!4d72.1218164!16s%2Fg%2F11j7kc4wb2!19sChIJqVKju8dRXzkRJ10bYF3goxk?authuser=0&hl=en&rclk=1,"21.7572947,72.1218164"
Memon Masjid,Mosque,"Memon Masjid, 2443, Kanbiwad, Bhavnagar, Gujarat 364003",Kanbiwad,2443,Bhavnagar,364003,Gujarat,IN,https://www.google.com/maps/place/Memon+Masjid/data=!4m7!3m6!1s0x395f5a84dab0b9eb:0xf8028fa31f6621e5!8m2!3d21.7824932!4d72.1497988!16s%2Fg%2F1pyqtqhm4!19sChIJ67mw2oRaXzkR5SFmH6OPAvg?authuser=0&hl=en&rclk=1,"21.782493199999998,72.1497988"
NAJMI MASJID,Mosque,"Q4GX+JWC NAJMI MASJID, Baharni vohrawaad, Haluriya chowk, Momin Wad, Bhavnagar, Gujarat 364001",Momin Wad,"Q4GX+JWC, Baharni vohrawaad, Haluriya chowk",Bhavnagar,364001,Gujarat,IN,https://www.google.com/maps/place/NAJMI+MASJID/data=!4m7!3m6!1s0x395f5baaf0bfd627:0x36a63c7f8a215774!8m2!3d21.7765556!4d72.1497689!16s%2Fg%2F11shf3m6jb!19sChIJJ9a_8KpbXzkRdFchin88pjY?authuser=0&hl=en&rclk=1,"21.7765556,72.1497689"
Haji Ali Masjid,Mosque,"Haji Ali Masjid, 2190, Railway Station Rd, Lati Bazar, Lokhand Bazar, Darbargadh, Bhavnagar, Gujarat 364001","Lati Bazar, Lokhand Bazar, Darbargadh","2190, Railway Station Rd",Bhavnagar,364001,Gujarat,IN,https://www.google.com/maps/place/Haji+Ali+Masjid/data=!4m7!3m6!1s0x395f5a82c3103bf9:0x84d276b990e2269b!8m2!3d21.7819!4d72.1429!16s%2Fg%2F1pyqwm55f!19sChIJ-TsQw4JaXzkRmybikLl20oQ?authuser=0&hl=en&rclk=1,"21.7819,72.1429"
Ebadat Masjid,Mosque,"Ebadat Masjid, 2793, Vadva, Bhavnagar, Gujarat 364001",Vadva,2793,Bhavnagar,364001,Gujarat,IN,https://www.google.com/maps/place/Ebadat+Masjid/data=!4m7!3m6!1s0x395f507925c862ab:0x3b50e65eda2ba1cc!8m2!3d21.7771!4d72.1382!16s%2Fg%2F1pyqhcc34!19sChIJq2LIJXlQXzkRzKEr2l7mUDs?authuser=0&hl=en&rclk=1,"21.7771,72.1382"
Fatima Masjid phaatimaa msjid,Mosque,"Q4GR+G7W Fatima Masjid phaatimaa msjid, Vadva, Bhavnagar, Gujarat 364001",Vadva,Q4GR+G7W,Bhavnagar,364001,Gujarat,IN,https://www.google.com/maps/place/Fatima+Masjid+%E0%AA%AB%E0%AA%BE%E0%AA%A4%E0%AA%BF%E0%AA%AE%E0%AA%BE+%E0%AA%AE%E0%AA%B8%E0%AB%8D%E0%AA%9C%E0%AA%BF%E0%AA%A6/data=!4m7!3m6!1s0x395f514f04dfbbe9:0x9409831d174f31b0!8m2!3d21.776371!4d72.1407119!16s%2Fg%2F11k4s58kr0!19sChIJ6bvfBE9RXzkRsDFPFx2DCZQ?authuser=0&hl=en&rclk=1,"21.776370999999997,72.1407119"
RAZA-E-MUSTUFA-MASJID,Shrine,"Q4GH+RVQ RAZA-E-MUSTUFA-MASJID, Kumbharwada, Bhavnagar, Gujarat 364001",Kumbharwada,Q4GH+RVQ,Bhavnagar,364001,Gujarat,IN,https://www.google.com/maps/place/RAZA-E-MUSTUFA-MASJID/data=!4m7!3m6!1s0x395f5064cb575f1d:0xbaf8f8ce125b4bb2!8m2!3d21.7770814!4d72.1297197!16s%2Fg%2F11gclm3wdh!19sChIJHV9Xy2RQXzkRsktbEs74-Lo?authuser=0&hl=en&rclk=1,"21.7770814,72.1297197"
Masjid E Rahman,Mosque,"Q4CX+WRG Masjid E Rahman, Opp Mahila Police Station, Nawa Para, Bhavnagar, Gujarat 364001",Nawa Para,"Q4CX+WRG, Opp Mahila Police Station",Bhavnagar,364001,Gujarat,IN,https://www.google.com/maps/place/Masjid+E+Rahman/data=!4m7!3m6!1s0x395f5b32c3eb153f:0xff3f087e5fc4bd55!8m2!3d21.7723005!4d72.1495783!16s%2Fg%2F11pgxhms2c!19sChIJPxXrwzJbXzkRVb3EX34IP_8?authuser=0&hl=en&rclk=1,"21.7723005,72.1495783"
Fatima Masjid,Mosque,"Q5H6+V45 Fatima Masjid, Anand Vihar Rd, Prabudas Talav, Krishna Nagar, Bhavnagar, Gujarat 364005","Prabudas Talav, Krishna Nagar","Q5H6+V45, Anand Vihar Rd",Bhavnagar,364005,Gujarat,IN,https://www.google.com/maps/place/Fatima+Masjid/data=!4m7!3m6!1s0x395f5bf367936c8d:0xc1b6f5778d603e1b!8m2!3d21.7796391!4d72.1603624!16s%2Fg%2F11s4bms71b!19sChIJjWyTZ_NbXzkRGz5gjXf1tsE?authuser=0&hl=en&rclk=1,"21.7796391,72.1603624"
Haji Salim Masjid,Mosque,"Q4HX+QFC Haji Salim Masjid, Diwanpara, Vora Bazar, Bhavnagar, Gujarat 364001","Diwanpara, Vora Bazar",Q4HX+QFC,Bhavnagar,364001,Gujarat,IN,https://www.google.com/maps/place/Haji+Salim+Masjid/data=!4m7!3m6!1s0x395f5b3e53f08d4b:0xf22663bcf65ba674!8m2!3d21.7794382!4d72.1486467!16s%2Fg%2F11kj6t1yfl!19sChIJS43wUz5bXzkRdKZb9rxjJvI?authuser=0&hl=en&rclk=1,"21.779438199999998,72.1486467"
Khulfa e rashideen masjid,Mosque,"Q4HQ+5V3 Khulfa e rashideen masjid, Kachiyavad, Vadva, Bhavnagar, Gujarat 364001","Kachiyavad, Vadva",Q4HQ+5V3,Bhavnagar,364001,Gujarat,IN,https://www.google.com/maps/place/Khulfa+e+rashideen+masjid/data=!4m7!3m6!1s0x395f511fe5cedbf3:0xad5af2d288975409!8m2!3d21.7778934!4d72.1396764!16s%2Fg%2F11tdl4qtn3!19sChIJ89vO5R9RXzkRCVSXiNLyWq0?authuser=0&hl=en&rclk=1,"21.7778934,72.1396764"
Makkah Masjid,Mosque,"Q5H2+VQJ Makkah Masjid, Raanika, Bhavnagar, Gujarat 364003",Raanika,Q5H2+VQJ,Bhavnagar,364003,Gujarat,IN,https://www.google.com/maps/place/Makkah+Masjid/data=!4m7!3m6!1s0x395f5bb6c96e0df5:0xf21c129b4cc51345!8m2!3d21.7797176!4d72.1518936!16s%2Fg%2F11rq9p5z6g!19sChIJ9Q1uybZbXzkRRRPFTJsSHPI?authuser=0&hl=en&rclk=1,"21.779717599999998,72.1518936"
Madani Masjid,Mosque,"Q32Q+886 Madani Masjid, NH 8E, Chitra, Bhavnagar, Gujarat 364004",Chitra,"Q32Q+886, NH 8E",Bhavnagar,364004,Gujarat,IN,https://www.google.com/maps/place/Madani+Masjid/data=!4m7!3m6!1s0x395f51067658a77d:0x5be206c280df67e8!8m2!3d21.7507959!4d72.0882791!16s%2Fg%2F11m_9thbjj!19sChIJfadYdgZRXzkR6GffgMIG4ls?authuser=0&hl=en&rclk=1,"21.7507959,72.0882791"
Masjid e munavvara,Mosque,"P5V4+RX3 Masjid e munavvara, Bharatnagar, Bhavnagar, Tarsimiya Part, Gujarat 364002",Bharatnagar,P5V4+RX3,"Bhavnagar, Tarsimiya Part",364002,Gujarat,IN,https://www.google.com/maps/place/Masjid+e+munavvara/data=!4m7!3m6!1s0x395f5b1d7fcd1d1d:0x843977c57087da5a!8m2!3d21.7446233!4d72.1574327!16s%2Fg%2F11krs5_m89!19sChIJHR3Nfx1bXzkRWtqHcMV3OYQ?authuser=0&hl=en&rclk=1,"21.7446233,72.1574327"
Al Madina Masjid,Mosque,"P5V5+Q6F Al Madina Masjid, Bharatnagar, Bhavnagar, Gujarat 364002",Bharatnagar,P5V5+Q6F,Bhavnagar,,Gujarat,IN,https://www.google.com/maps/place/Al+Madina+Masjid/data=!4m7!3m6!1s0x395f5b3bd2f3f363:0xdcfeedbc4ebc57b4!8m2!3d21.7444463!4d72.1580326!16s%2Fg%2F11l5xvs69t!19sChIJY_Pz0jtbXzkRtFe8Trzt_tw?authuser=0&hl=en&rclk=1,"21.7444463,72.1580326"
Hazrat Roshan Zameer Abdullah Peer,Mosque,"Q4FX+MHG Hazrat Roshan Zameer Abdullah Peer, Navapara Rd, opp. Government Tech.High School, Chowk, Bhavnagar, Gujarat 364001",Chowk,"Q4FX+MHG, Navapara Rd, opp. Government Tech.High School",Bhavnagar,364001,Gujarat,IN,https://www.google.com/maps/place/Hazrat+Roshan+Zameer+Abdullah+Peer/data=!4m7!3m6!1s0x395f5a87220169bd:0xea7431bb6827666e!8m2!3d21.7741919!4d72.1489511!16s%2Fg%2F11gnrlg7zt!19sChIJvWkBIodaXzkRbmYnaLsxdOo?authuser=0&hl=en&rclk=1,"21.774191899999998,72.14895109999999"
MASJID - E - KHAIR,Mosque,"Q4JQ+P2V MASJID - E - KHAIR, Bhagatalav, Kumbharwada, Bhavnagar, Gujarat 364006","Bhagatalav, Kumbharwada",Q4JQ+P2V,Bhavnagar,364006,Gujarat,IN,https://www.google.com/maps/place/MASJID+-+E+-+KHAIR/data=!4m7!3m6!1s0x395f5138c6ef9f45:0xa027b7e563e94d82!8m2!3d21.781859!4d72.1375488!16s%2Fg%2F11sbrms2k1!19sChIJRZ_vxjhRXzkRgk3pY-W3J6A?authuser=0&hl=en&rclk=1,"21.781859,72.13754879999999"
Masjid e fatima,Mosque,"Q5F7+JJX Masjid e fatima, Anand Nagar Rd, Aadodiyaawas, Krishna Nagar, Bhavnagar, Gujarat 364001","Aadodiyaawas, Krishna Nagar","Q5F7+JJX, Anand Nagar Rd",Bhavnagar,364001,Gujarat,IN,https://www.google.com/maps/place/Masjid+e+fatima/data=!4m7!3m6!1s0x395f5bee6567e45d:0x6eb25b863b3f98db!8m2!3d21.7741032!4d72.1641229!16s%2Fg%2F11kb98dsg5!19sChIJXeRnZe5bXzkR25g_O4Zbsm4?authuser=0&hl=en&rclk=1,"21.7741032,72.1641229"
Nurani masjid,Mosque,"Q4HM+FP2 Nurani masjid, Moti Talav Rd, Bhagatalav, Madhia, Kumbharwada, Bhavnagar, Gujarat 364006","Bhagatalav, Madhia, Kumbharwada","Q4HM+FP2, Moti Talav Rd",Bhavnagar,364006,Gujarat,IN,https://www.google.com/maps/place/Nurani+masjid/data=!4m7!3m6!1s0x395f51bef09b46df:0x26f4e6f5ac175d05!8m2!3d21.7786345!4d72.1342793!16s%2Fg%2F11tg5bdf6p!19sChIJ30ab8L5RXzkRBV0XrPXm9CY?authuser=0&hl=en&rclk=1,"21.7786345,72.1342793"
Masjid E Bilal,Mosque,"P3XM+353 Masjid E Bilal, Khodiyar Nagar, Fulsar, Bhavnagar, Gujarat 364004","Khodiyar Nagar, Fulsar",P3XM+353,Bhavnagar,364004,Gujarat,IN,https://www.google.com/maps/place/Masjid+E+Bilal/data=!4m7!3m6!1s0x395f512374f00a23:0x9292f414713402bf!8m2!3d21.7473001!4d72.0827613!16s%2Fg%2F11s5zgfbj0!19sChIJIwrwdCNRXzkRvwI0cRT0kpI?authuser=0&hl=en&rclk=1,"21.7473001,72.0827613"
Masjide kuba,Mosque,"Q555+QPQ Masjide kuba, Mokdhaji Cir, Ambawadi, Krishna Nagar, Bhavnagar, Gujarat 364001","Ambawadi, Krishna Nagar","Q555+QPQ, Mokdhaji Cir",Bhavnagar,364001,Gujarat,IN,https://www.google.com/maps/place/Masjide+kuba/data=!4m7!3m6!1s0x395f5b5f05413e13:0xa63e7df4ec169f3e!8m2!3d21.7594743!4d72.159351!16s%2Fg%2F11ft8k4qdg!19sChIJEz5BBV9bXzkRPp8W7PR9PqY?authuser=0&hl=en&rclk=1,"21.759474299999997,72.159351"
Dana Pith Masjid,Mosque,"Q4JV+528 Dana Pith Masjid, Darbargadh, Bhavnagar, Gujarat 364001",Darbargadh,Q4JV+528,Bhavnagar,364001,Gujarat,IN,https://www.google.com/maps/place/Dana+Pith+Masjid/data=!4m7!3m6!1s0x395f5b85f1e758ed:0x9d15539f313bd30f!8m2!3d21.7804131!4d72.1425805!16s%2Fg%2F11vbqss6qx!19sChIJ7Vjn8YVbXzkRD9M7MZ9TFZ0?authuser=0&hl=en&rclk=1,"21.7804131,72.1425805"
NAGINA MASJID,Mosque,"Q572+QQM NAGINA MASJID, Pragati Nagar, Sardar Nagar, Bhavnagar, Gujarat 364002","Pragati Nagar, Sardar Nagar",Q572+QQM,Bhavnagar,,Gujarat,IN,https://www.google.com/maps/place/NAGINA+MASJID/data=!4m7!3m6!1s0x395f5b6a7b68c0cf:0x73e95bd68d6ce764!8m2!3d21.7644725!4d72.1519304!16s%2Fg%2F11q41w36ct!19sChIJz8Boe2pbXzkRZOdsjdZb6XM?authuser=0&hl=en&rclk=1,"21.7644725,72.1519304"
MUBARAK SAHEB TOMB,Mosque,"MUBARAK SAHEB TOMB, 1486, Pragati Nagar, Sardar Nagar, Bhavnagar, Gujarat 364001","Pragati Nagar, Sardar Nagar",1486,Bhavnagar,364001,Gujarat,IN,https://www.google.com/maps/place/MUBARAK+SAHEB+TOMB/data=!4m7!3m6!1s0x395f5b1d46e072e7:0xa1fae56dfe0d60ce!8m2!3d21.7636433!4d72.1531508!16s%2Fg%2F11smfxtg_t!19sChIJ53LgRh1bXzkRzmAN_m3l-qE?authuser=0&hl=en&rclk=1,"21.7636433,72.15315079999999"
"Tabela Camp, opp. Idgah Masjid",Housing society,"Q4CW+FX6 Tabela Camp, opp. Idgah Masjid, Nawapara Rd, Navapara, Bhavnagar, Gujarat 364001",Navapara,"Q4CW+FX6, Nawapara Rd",Bhavnagar,364001,Gujarat,IN,"https://www.google.com/maps/place/Tabela+Camp,+opp.+Idgah+Masjid/data=!4m7!3m6!1s0x395f5b37ba0224b5:0x88145d1d22ada666!8m2!3d21.7711666!4d72.1473881!16s%2Fg%2F11nnqbz9n3!19sChIJtSQCujdbXzkRZqatIh1dFIg?authuser=0&hl=en&rclk=1","21.771166599999997,72.1473881"
