name,main_category,address,address_ward,address_street,address_city,address_postal_code,address_state,address_country_code,link,coordinates
K B Road Jame Masjid,Mosque,"64M2+7VH K B Road Jame Masjid, North Lakhimpur, Assam 787001",,64M2+7VH,North Lakhimpur,787001,Assam,IN,https://www.google.com/maps/place/K+B+Road+Jame+Masjid/data=!4m7!3m6!1s0x3741365d0e6a4d65:0xa4f7a2cb8ee11fe3!8m2!3d27.2331936!4d94.1022271!16s%2Fg%2F11f15cd25p!19sChIJZU1qDl02QTcR4x_hjsui96Q?authuser=0&hl=en&rclk=1,"27.2331936,94.1022271"
Bantow Masjid,Mosque,"63GQ+7MV Bantow Masjid, NH 15, Bantow Bangali, Assam 787031",,"63GQ+7MV, NH 15",Bantow Bangali,787031,Assam,IN,https://www.google.com/maps/place/Bantow+Masjid/data=!4m7!3m6!1s0x374136134334bbff:0x7a1d353e67281c21!8m2!3d27.2250722!4d94.0888613!16s%2Fg%2F11c4lzhmym!19sChIJ_7s0QxM2QTcRIRwoZz41HXo?authuser=0&hl=en&rclk=1,"27.2250722,94.08886129999999"
C D Road Jamme Maszid,Mosque,"64Q6+RJF C D Road Jamme Maszid, North Lakhimpur, Assam 787001",,64Q6+RJF,North Lakhimpur,787001,Assam,IN,https://www.google.com/maps/place/C+D+Road+Jamme+Maszid/data=!4m7!3m6!1s0x374136f6344f5291:0x9aa99c494a06cabf!8m2!3d27.2395619!4d94.1115386!16s%2Fg%2F1yfjcv90p!19sChIJkVJPNPY2QTcRv8oGSkmcqZo?authuser=0&hl=en&rclk=1,"27.239561899999998,94.11153859999999"
Nakari Jama Masjid,Mosque,"7423+J2G Nakari Jama Masjid, Lakhimpur, Assam 787051",,7423+J2G,Lakhimpur,787051,Assam,IN,https://www.google.com/maps/place/Nakari+Jama+Masjid/data=!4m7!3m6!1s0x37413652545c1bb3:0xb02d3e7a67936400!8m2!3d27.2515533!4d94.1025922!16s%2Fg%2F11f10f4dgy!19sChIJsxtcVFI2QTcRAGSTZ3o-LbA?authuser=0&hl=en&rclk=1,"27.251553299999998,94.10259219999999"
CHOWK BAZAR JAME MASJID,Mosque,"63JX+HV5 CHOWK BAZAR JAME MASJID, National Highway 52, North Lakhimpur, Assam 787031",,"63JX+HV5, National Highway 52",North Lakhimpur,787031,Assam,IN,https://www.google.com/maps/place/CHOWK+BAZAR+JAME+MASJID/data=!4m7!3m6!1s0x3741366802724ff5:0xc39053bcb65ee071!8m2!3d27.2313803!4d94.0997428!16s%2Fg%2F1hm5x9fq1!19sChIJ9U9yAmg2QTcRceBetrxTkMM?authuser=0&hl=en&rclk=1,"27.231380299999998,94.0997428"
Bantow Balijan Masjid,Mosque,"63CQ+62H Bantow Balijan Masjid, North Lakhimpur, Bantow Bangali, Assam",,"63CQ+62H, North Lakhimpur",Bantow Bangali,,Assam,IN,https://www.google.com/maps/place/Bantow+Balijan+Masjid/data=!4m7!3m6!1s0x374137ccc7a44c73:0x3f40617239baca92!8m2!3d27.2205722!4d94.0876241!16s%2Fg%2F11g2r43r9t!19sChIJc0ykx8w3QTcRksq6OXJhQD8?authuser=0&hl=en&rclk=1,"27.2205722,94.0876241"
Chapori Gaon Jamme Masjid,Mosque,"63HX+276 Chapori Gaon Jamme Masjid, Chapori Gaon, North Lakhimpur, Bantow Bangali, Assam 787031",Chapori Gaon,63HX+276,"North Lakhimpur, Bantow Bangali",,Assam,IN,https://www.google.com/maps/place/Chapori+Gaon+Jamme+Masjid/data=!4m7!3m6!1s0x37413668e5cb5c7f:0x817a9eafb850a44e!8m2!3d27.2275276!4d94.0981428!16s%2Fg%2F11g72fs359!19sChIJf1zL5Wg2QTcRTqRQuK-eeoE?authuser=0&hl=en&rclk=1,"27.2275276,94.09814279999999"
D.K.Road Jame Masjid,Mosque,"Ward No, D.K.Road Jame Masjid, 7, NLP Yard Rd, Chetia Gaon, North Lakhimpur, Assam 787001",Chetia Gaon,"Ward No, 7, NLP Yard Rd",North Lakhimpur,787001,Assam,IN,https://www.google.com/maps/place/D.K.Road+Jame+Masjid/data=!4m7!3m6!1s0x3741365f462b6897:0xde8c80f7842fa96e!8m2!3d27.2361891!4d94.1093175!16s%2Fg%2F1263x7lbk!19sChIJl2grRl82QTcRbqkvhPeAjN4?authuser=0&hl=en&rclk=1,"27.236189099999997,94.10931749999999"
East Chandmari Mosque,Mosque,"63FW+J83 East Chandmari Mosque, Bantow Bangali, Assam 787031",,63FW+J83,Bantow Bangali,787031,Assam,IN,https://www.google.com/maps/place/East+Chandmari+Mosque/data=!4m7!3m6!1s0x3741366e979035df:0xbd6d91a9a63f74ea!8m2!3d27.2240021!4d94.0958079!16s%2Fg%2F11g68y78v7!19sChIJ3zWQl242QTcR6nQ_pqmRbb0?authuser=0&hl=en&rclk=1,"27.2240021,94.0958079"
Town Bor Masjid,Mosque,"64Q3+7G3 Town Bor Masjid, North Lakhimpur, Assam 787001",,64Q3+7G3,North Lakhimpur,787001,Assam,IN,https://www.google.com/maps/place/Town+Bor+Masjid/data=!4m7!3m6!1s0x3741365b93cce357:0xb2afa0be5b2889dd!8m2!3d27.2381433!4d94.1037882!16s%2Fg%2F11g897m3sl!19sChIJV-PMk1s2QTcR3YkoW76gr7I?authuser=0&hl=en&rclk=1,"27.238143299999997,94.1037882"
Sapori gaon pothar mosque,Mosque,"63FX+JWF Sapori gaon pothar mosque, Bantow Bangali, Assam 787031",,63FX+JWF,Bantow Bangali,787031,Assam,IN,https://www.google.com/maps/place/Sapori+gaon+pothar+mosque/data=!4m7!3m6!1s0x374137bdb1e6eb49:0x10adcce9c49a7200!8m2!3d27.224055!4d94.0998029!16s%2Fg%2F11j7hkz920!19sChIJSevmsb03QTcRAHKaxOnMrRA?authuser=0&hl=en&rclk=1,"27.224055,94.0998029"
"Eidgah, Bor Masjid",Mosque,"64Q3+8CH Eidgah, Bor Masjid, North Lakhimpur, Assam 787001",,64Q3+8CH,North Lakhimpur,787001,Assam,IN,"https://www.google.com/maps/place/Eidgah,+Bor+Masjid/data=!4m7!3m6!1s0x3741365bbd6604fd:0xe91af0d3eacb69da!8m2!3d27.2383025!4d94.1036122!16s%2Fg%2F11f126rfr9!19sChIJ_QRmvVs2QTcR2mnL6tPwGuk?authuser=0&hl=en&rclk=1","27.2383025,94.1036122"
town bantow markaz majid,Mosque,"63FP+3F8 town bantow markaz majid, Bantow Bangali, Assam 787031",,63FP+3F8,Bantow Bangali,787031,Assam,IN,https://www.google.com/maps/place/town+bantow+markaz+majid/data=!4m7!3m6!1s0x374137859233168f:0xd4833bb12d7ae628!8m2!3d27.2226691!4d94.0862143!16s%2Fg%2F11j7vf_y7q!19sChIJjxYzkoU3QTcRKOZ6LbE7g9Q?authuser=0&hl=en&rclk=1,"27.222669099999997,94.0862143"
Norh Lakhimpur Central Jame Masjid,Mosque,"64M3+WG8 Norh Lakhimpur Central Jame Masjid, North Lakhimpur, Assam 787001",,64M3+WG8,North Lakhimpur,,Assam,IN,https://www.google.com/maps/place/Norh+Lakhimpur+Central+Jame+Masjid/data=!4m7!3m6!1s0x3741373ed5892b8d:0x78fc0ddccf46dbb4!8m2!3d27.2347831!4d94.1038129!16s%2Fg%2F11px4mv0cy!19sChIJjSuJ1T43QTcRtNtGz9wN_Hg?authuser=0&hl=en&rclk=1,"27.234783099999998,94.1038129"
Habib Nagar Mosjid,Mosque,"63FR+HJR Habib Nagar Mosjid, Bantow Bangali, Assam 787031",,63FR+HJR,Bantow Bangali,787031,Assam,IN,https://www.google.com/maps/place/Habib+Nagar+Mosjid/data=!4m7!3m6!1s0x3741370f5d2a8477:0x58df51defbd7bbd2!8m2!3d27.2239841!4d94.0915122!16s%2Fg%2F11j90l4hbt!19sChIJd4QqXQ83QTcR0rvX-95R31g?authuser=0&hl=en&rclk=1,"27.2239841,94.0915122"
"North Lakhimpur Deeni Alia Madrasha, Khutakatia",Mosque,"6442+52H North Lakhimpur Deeni Alia Madrasha, Khutakatia, Khutakatia, Sunari, Assam 787052",,6442+52H,"Khutakatia, Sunari",,Assam,IN,"https://www.google.com/maps/place/North+Lakhimpur+Deeni+Alia+Madrasha,+Khutakatia/data=!4m7!3m6!1s0x374135d7dbe21a0d:0xe78d1c7472710966!8m2!3d27.2054494!4d94.1001045!16s%2Fg%2F11smgk5m2m!19sChIJDRri29c1QTcRZglxcnQcjec?authuser=0&hl=en&rclk=1","27.2054494,94.1001045"
Ashmod nagor jama masjid,Mosque,"638W+V86 Ashmod nagor jama masjid, Bantow Bangali, Assam 787031",,638W+V86,Bantow Bangali,787031,Assam,IN,https://www.google.com/maps/place/Ashmod+nagor+jama+masjid/data=!4m7!3m6!1s0x3741377d0384f7f5:0x531cf71bf2f54075!8m2!3d27.2171501!4d94.0957541!16s%2Fg%2F11jh36wxv6!19sChIJ9feEA303QTcRdUD18hv3HFM?authuser=0&hl=en&rclk=1,"27.217150099999998,94.0957541"
North lakhim central Jame masjid,Mosque,"64P4+756 North lakhim central Jame masjid, DK Road, North Lakhimpur, Assam 787001",,"64P4+756, DK Road",North Lakhimpur,787001,Assam,IN,https://www.google.com/maps/place/North+lakhim+central+Jame+masjid/data=!4m7!3m6!1s0x37413762163912e9:0x83bf078907e74097!8m2!3d27.2360229!4d94.1051849!16s%2Fg%2F11l5td7htz!19sChIJ6RI5FmI3QTcRl0DnB4kHv4M?authuser=0&hl=en&rclk=1,"27.2360229,94.1051849"
Babul,Mosque,"64G4+54H Babul, North Lakhimpur, Assam 787031",,64G4+54H,North Lakhimpur,,Assam,IN,https://www.google.com/maps/place/Babul/data=!4m7!3m6!1s0x374137860e00e2d9:0x5214c72821be55ef!8m2!3d27.2254384!4d94.105357!16s%2Fg%2F11p0zthbpl!19sChIJ2eIADoY3QTcR71W-ISjHFFI?authuser=0&hl=en&rclk=1,"27.225438399999998,94.105357"
"Rangajan ,serabhati",Mosque,"64G4+44G Rangajan ,serabhati, North Lakhimpur, Assam 787031",,64G4+44G,North Lakhimpur,,Assam,IN,"https://www.google.com/maps/place/Rangajan+,serabhati/data=!4m7!3m6!1s0x374137811460db8d:0xc2c81ffe8968f611!8m2!3d27.2253189!4d94.1053307!16s%2Fg%2F11s_vzjsl1!19sChIJjdtgFIE3QTcREfZoif4fyMI?authuser=0&hl=en&rclk=1","27.225318899999998,94.1053307"
