name,main_category,address,address_ward,address_street,address_city,address_postal_code,address_state,address_country_code,link,coordinates
Arya Nagar Nanhi Jama Masjid,Mosque,"P7QR+67M Arya Nagar Nanhi Jama Masjid, Roop Nagar, Ghaziabad, Uttar Pradesh 201102",Roop Nagar,P7QR+67M,Ghaziabad,201102,Uttar Pradesh,IN,https://www.google.com/maps/place/Arya+Nagar+Nanhi+Jama+Masjid/data=!4m7!3m6!1s0x390cf94c6b13da65:0x6f95aec2026272ba!8m2!3d28.7380899!4d77.2906765!16s%2Fg%2F11c6z10mg1!19sChIJZdoTa0z5DDkRunJiAsKulW8?authuser=0&hl=en&rclk=1,"28.7380899,77.2906765"
Ismaeel Masjid,Mosque,"Q7FG+QFP Ismaeel Masjid, Punit enclave, ismaeel Masjid road Pooja colony 2, pavi sadakpur Tronica city, Ismail Masjid Rd, Loni, Ghaziabad, Uttar Pradesh 201102",Loni,"Q7FG+QFP, Punit enclave, ismaeel Masjid road Pooja colony 2, pavi sadakpur Tronica city, Ismail Masjid Rd","Ghaziabad, Pavi Sadakpur",201102,Uttar Pradesh,IN,https://www.google.com/maps/place/Ismaeel+Masjid/data=!4m7!3m6!1s0x390cff2f12b06d3d:0x85bfc991382034a5!8m2!3d28.7745444!4d77.2762045!16s%2Fg%2F11hcd6v869!19sChIJPW2wEi__DDkRpTQgOJHJv4U?authuser=0&hl=en&rclk=1,"28.7745444,77.27620449999999"
ANSAR MASJID,Mosque,"ANSAR MASJID, NEAR ANSAL WATER TANK POOJA COLONY 2, PAVI SADAKPUR TRONICA CITY, Loni, Ghaziabad, Uttar Pradesh 201102",Loni,"NEAR ANSAL WATER TANK POOJA COLONY 2, PAVI SADAKPUR TRONICA CITY","Ghaziabad, Pavi Sadakpur",201102,Uttar Pradesh,IN,https://www.google.com/maps/place/ANSAR+MASJID/data=!4m7!3m6!1s0x390cff0ad58b817d:0x7880e0f86534ecc3!8m2!3d28.7751996!4d77.2727751!16s%2Fg%2F11jm_9w4lz!19sChIJfYGL1Qr_DDkRw-w0ZfjggHg?authuser=0&hl=en&rclk=1,"28.775199599999997,77.27277509999999"
ROSHAN MASJID.,Mosque,"ROSHAN MASJID., Punit enclave, pooja colony Pavi sadakpur, tronica city, Loni, Ghaziabad, Uttar Pradesh 201102",Loni,"Punit enclave, pooja colony Pavi sadakpur, tronica city","Ghaziabad, Pavi Sadakpur",201102,Uttar Pradesh,IN,https://www.google.com/maps/place/ROSHAN+MASJID./data=!4m7!3m6!1s0x390cff4bf8aca811:0x27356c03630a542!8m2!3d28.775097!4d77.2787268!16s%2Fg%2F11jmg0l07s!19sChIJEais-Ev_DDkRQqUwNsBWcwI?authuser=0&hl=en&rclk=1,"28.775097,77.2787268"
Madina Masjid,Mosque,"Q74P+V3P Madina Masjid, Loni Dehat, Uttar Pradesh 201102",Loni Dehat,Q74P+V3P,,201102,Uttar Pradesh,IN,https://www.google.com/maps/place/Madina+Masjid/data=!4m7!3m6!1s0x390cfed2b84ca0cd:0xb72c7907d395dc12!8m2!3d28.7572153!4d77.2851954!16s%2Fg%2F11c2lxydvc!19sChIJzaBMuNL-DDkREtyV0wd5LLc?authuser=0&hl=en&rclk=1,"28.7572153,77.28519539999999"
Madina Masjid,Mosque,"P7JV+26F Madina Masjid, Nala Rd, Laxmi Garden, Raj Nagar, Loni, Ghaziabad, Uttar Pradesh 201102","Laxmi Garden, Raj Nagar, Loni","P7JV+26F, Nala Rd",Ghaziabad,201102,Uttar Pradesh,IN,https://www.google.com/maps/place/Madina+Masjid/data=!4m7!3m6!1s0x390cf9516fbb214f:0x5542270911cecb78!8m2!3d28.7300632!4d77.2930482!16s%2Fg%2F11g6xr0dq9!19sChIJTyG7b1H5DDkReMvOEQknQlU?authuser=0&hl=en&rclk=1,"28.7300632,77.2930482"
Bismillah Masjid Loni,Mosque,"Bismillah Masjid Loni, Unnamed Rd Loni Dehat gaajiyaabaad Uttar Pradesh 201102 Republic of, 201102","Islam Nagar, Loni Dehat",Unnamed Rd Loni Dehat gaajiyaabaad Uttar Pradesh 201102 Republic of,,201102,Uttar Pradesh,IN,https://www.google.com/maps/place/Bismillah+Masjid+Loni/data=!4m7!3m6!1s0x390cf9371663649f:0xb45b6c0c7fea42ff!8m2!3d28.749665!4d77.2961301!16s%2Fg%2F11bw7d03x7!19sChIJn2RjFjf5DDkR_0LqfwxsW7Q?authuser=0&hl=en&rclk=1,"28.749665,77.2961301"
Chand Masjid,Mosque,"Chand Masjid, Mustafabad, Loni, Ghaziabad, Uttar Pradesh 201102","Islam Nagar, Loni",Mustafabad,Ghaziabad,201102,Uttar Pradesh,IN,https://www.google.com/maps/place/Chand+Masjid/data=!4m7!3m6!1s0x390cf939df84d1df:0x5c02afae8dd3652c!8m2!3d28.7488846!4d77.2944373!16s%2Fg%2F11c1tj80p4!19sChIJ39GE3zn5DDkRLGXTja6vAlw?authuser=0&hl=en&rclk=1,"28.7488846,77.2944373"
Shail Madical Store,Pharmacy,"Shail Madical Store, Alfala Masjid, near by CFN School Khushal Park, Loni, Ghaziabad, Uttar Pradesh 201102",Loni,"Alfala Masjid, near by CFN School Khushal Park",Ghaziabad,201102,Uttar Pradesh,IN,https://www.google.com/maps/place/Shail+Madical+Store/data=!4m7!3m6!1s0x390cff8389caf239:0xf0679073f4851219!8m2!3d28.7635635!4d77.2732622!16s%2Fg%2F11g0mhs6vq!19sChIJOfLKiYP_DDkRGRKF9HOQZ_A?authuser=0&hl=en&rclk=1,"28.7635635,77.27326219999999"
Shoks Store,Childrens Store,"Shoks Store, Mustafabad, near Sunhari Masjid, Loni, Uttar Pradesh 201102","Islam Nagar, Loni","Mustafabad, near Sunhari Masjid",,201102,Uttar Pradesh,IN,https://www.google.com/maps/place/Shoks+Store/data=!4m7!3m6!1s0x390cf936fdbf7b97:0x48b5130dc49db72d!8m2!3d28.7484621!4d77.2962085!16s%2Fg%2F11bwcbl66f!19sChIJl3u__Tb5DDkRLbedxA0TtUg?authuser=0&hl=en&rclk=1,"28.748462099999998,77.29620849999999"
Badi or sabri Masjid,Mosque,"Badi or sabri Masjid, 30 Feet Rd, opposite kanchan park, Ikram Nagar, Loni Dehat, Ghaziabad, Uttar Pradesh 201102","Ikram Nagar, Loni Dehat","30 Feet Rd, opposite kanchan park",Ghaziabad,201102,Uttar Pradesh,IN,https://www.google.com/maps/place/Badi+or+sabri+Masjid/data=!4m7!3m6!1s0x390cf9379569e633:0xb86aa5d18210008!8m2!3d28.747368!4d77.2967946!16s%2Fg%2F11c5b2flj0!19sChIJM-ZplTf5DDkRCAAhGF2qhgs?authuser=0&hl=en&rclk=1,"28.747367999999998,77.2967946"
Sitara Masjid (Mosque),Mosque,"P8X2+W22 Sitara Masjid (Mosque), Sitara Masjid Rd, Loni Dehat, Uttar Pradesh 201102",Loni Dehat,"P8X2+W22, Sitara Masjid Rd",,201102,Uttar Pradesh,IN,https://www.google.com/maps/place/Sitara+Masjid+%28Mosque%29/data=!4m7!3m6!1s0x390cf95fc088a183:0xa4dbca2b2ee96805!8m2!3d28.7497719!4d77.3000193!16s%2Fg%2F11f66r8v1k!19sChIJg6GIwF_5DDkRBWjpLivK26Q?authuser=0&hl=en&rclk=1,"28.7497719,77.3000193"
Sakina Masjid,Mosque,"Sakina Masjid, 25, Futa Rd, Khushhal park, Loni, Ghaziabad, Uttar Pradesh 201102","Khushhal park, Loni","25, Futa Rd",Ghaziabad,201102,Uttar Pradesh,IN,https://www.google.com/maps/place/Sakina+Masjid/data=!4m7!3m6!1s0x390cfed87d95d5f3:0x8efe851694283ab2!8m2!3d28.765692!4d77.2721873!16s%2Fg%2F11c1rfnld1!19sChIJ89WVfdj-DDkRsjoolBaF_o4?authuser=0&hl=en&rclk=1,"28.765691999999998,77.2721873"
Bilal Masjid,Mosque,"Q76Q+J24 Bilal Masjid, Ashok Vihar, Loni Dehat, Uttar Pradesh 201102","Ashok Vihar, Loni Dehat",Q76Q+J24,,201102,Uttar Pradesh,IN,https://www.google.com/maps/place/Bilal+Masjid/data=!4m7!3m6!1s0x390cf92ca3e4af7b:0xad8b6544e32d48b8!8m2!3d28.7615189!4d77.2875695!16s%2Fg%2F11dfh322gb!19sChIJe6_koyz5DDkRuEgt40Rli60?authuser=0&hl=en&rclk=1,"28.7615189,77.2875695"
Fazl E Kareem Masjid,Mosque,"P7RR+XMW Fazl E Kareem Masjid, 100 Feet Rd, Prem Nagar, Loni, Ghaziabad, Uttar Pradesh 201102","Prem Nagar, Loni","P7RR+XMW, 100 Feet Rd",Ghaziabad,201102,Uttar Pradesh,IN,https://www.google.com/maps/place/Fazl+E+Kareem+Masjid/data=!4m7!3m6!1s0x390cf94a2c4b00c7:0x883487ad207772b6!8m2!3d28.7424945!4d77.2917054!16s%2Fg%2F11cnb8jw1h!19sChIJxwBLLEr5DDkRtnJ3IK2HNIg?authuser=0&hl=en&rclk=1,"28.7424945,77.2917054"
Rabbani Masjid,Mosque,"Rabbani Masjid, Ward Number 40, Arya Nagar, Loni, Ghaziabad, Uttar Pradesh 201102","Ward Number 40, Arya Nagar, Loni",,Ghaziabad,201102,Uttar Pradesh,IN,https://www.google.com/maps/place/Rabbani+Masjid/data=!4m7!3m6!1s0x390cf94bbedd373f:0xa3c8836d68a1e311!8m2!3d28.7411249!4d77.2904525!16s%2Fg%2F11c1plxbjj!19sChIJPzfdvkv5DDkREeOhaG2DyKM?authuser=0&hl=en&rclk=1,"28.7411249,77.2904525"
Aljamatul Gosia Masjid or Madarsa Prem Nagar Loni Ghaziabad,Mosque,"P7VR+43V Aljamatul Gosia Masjid or Madarsa Prem Nagar Loni Ghaziabad, Raj Nagar, Loni, Ghaziabad, Uttar Pradesh 201102","Raj Nagar, Loni",P7VR+43V,Ghaziabad,201102,Uttar Pradesh,IN,https://www.google.com/maps/place/Aljamatul+Gosia+Masjid+or+Madarsa+Prem+Nagar+Loni+Ghaziabad/data=!4m7!3m6!1s0x390cf94a455ce729:0x244895f2737cf41!8m2!3d28.7428711!4d77.2901597!16s%2Fg%2F11c1pkw2dq!19sChIJKedcRUr5DDkRQc83J1-JRAI?authuser=0&hl=en&rclk=1,"28.7428711,77.29015969999999"
akbari masjid,Mosque,"Q75P+P3V akbari masjid, Unnamed Road, Ashok Vihar, Loni Dehat, Uttar Pradesh 201102","Ashok Vihar, Loni Dehat","Q75P+P3V, Unnamed Road",,201102,Uttar Pradesh,IN,https://www.google.com/maps/place/akbari+masjid/data=!4m7!3m6!1s0x390cfed322f394b5:0x5907dbaf1daa74d2!8m2!3d28.759373!4d77.2851581!16s%2Fg%2F11hd9k7bxj!19sChIJtZTzItP-DDkR0nSqHa_bB1k?authuser=0&hl=en&rclk=1,"28.759373,77.28515809999999"
"Mohammadi Masjid (Balram Nagar, Loni)",Mosque,"Mohammadi Masjid (Balram Nagar, Loni), Vijay Vihar, Mohammadi Masjid Gali, Balram Nagar, Loni, Ghaziabad, Uttar Pradesh 201102","Balram Nagar, Loni","Vijay Vihar, Mohammadi Masjid Gali",Ghaziabad,201102,Uttar Pradesh,IN,"https://www.google.com/maps/place/Mohammadi+Masjid+%28Balram+Nagar,+Loni%29/data=!4m7!3m6!1s0x390cfeb4c5555555:0xda99900a908352f!8m2!3d28.7443436!4d77.2840853!16s%2Fg%2F11hbnvrxyb!19sChIJVVVVxbT-DDkRLzUIqQCZqQ0?authuser=0&hl=en&rclk=1","28.744343599999997,77.2840853"
Jama Masjid D block Laxmi Garden,Mosque,"P7HV+83W Jama Masjid D block Laxmi Garden, Raj Nagar, Loni, Ghaziabad, Uttar Pradesh 201102","Raj Nagar, Loni",P7HV+83W,Ghaziabad,201102,Uttar Pradesh,IN,https://www.google.com/maps/place/Jama+Masjid+D+block+Laxmi+Garden/data=!4m7!3m6!1s0x390cf9d8e7d1e3ed:0x2aa1a138ca1e4bd5!8m2!3d28.7283693!4d77.2926965!16s%2Fg%2F11gy0rtw47!19sChIJ7ePR59j5DDkR1UseyjihoSo?authuser=0&hl=en&rclk=1,"28.728369299999997,77.29269649999999"
Masjid Char Minar,Mosque,"Q77R+738 Masjid Char Minar, Ashok Vihar, Loni, Ghaziabad, Uttar Pradesh 201102","Ashok Vihar, Loni",Q77R+738,Ghaziabad,201102,Uttar Pradesh,IN,https://www.google.com/maps/place/Masjid+Char+Minar/data=!4m7!3m6!1s0x390cf9fb61591c65:0x3c38b2486f4fe8a8!8m2!3d28.7631685!4d77.2902151!16s%2Fg%2F11g23192mx!19sChIJZRxZYfv5DDkRqOhPb0iyODw?authuser=0&hl=en&rclk=1,"28.7631685,77.2902151"
Umar Faruq Masjid,Mosque,"Umar Faruq Masjid, gali no.4 khurana enclave, Pooja Colony, Loni, Ghaziabad, Uttar Pradesh 201102","Pooja Colony, Loni",gali no.4 khurana enclave,"Ghaziabad, Pavi Sadakpur",201102,Uttar Pradesh,IN,https://www.google.com/maps/place/Umar+Faruq+Masjid/data=!4m7!3m6!1s0x390cff294a1296f3:0xe67fcdbcd6fd2078!8m2!3d28.7722716!4d77.2793638!16s%2Fg%2F11c5bj_4y1!19sChIJ85YSSin_DDkReCD91rzNf-Y?authuser=0&hl=en&rclk=1,"28.7722716,77.2793638"
Raza Masjid,Mosque,"Q74Q+W96 Raza Masjid, 20 Feet Rd, Loni Dehat, Uttar Pradesh 201102",Loni Dehat,"Q74Q+W96, 20 Feet Rd",,201102,Uttar Pradesh,IN,https://www.google.com/maps/place/Raza+Masjid/data=!4m7!3m6!1s0x390cf92d6c25c4bf:0xc8bd777d3d82e0be!8m2!3d28.7572841!4d77.288397!16s%2Fg%2F11d_7yy348!19sChIJv8QlbC35DDkRvuCCPX13vcg?authuser=0&hl=en&rclk=1,"28.7572841,77.288397"
QADRI MASJID,Mosque,"QADRI MASJID, Qadri Masjid, Khushhal Park, Loni, Ghaziabad, Uttar Pradesh 201102","Khushhal Park, Loni",Qadri Masjid,Ghaziabad,201102,Uttar Pradesh,IN,https://www.google.com/maps/place/QADRI+MASJID/data=!4m7!3m6!1s0x390cfed86a421a35:0xfbed7604ffe9ea3!8m2!3d28.764914!4d77.2732959!16s%2Fg%2F11df7z6ppz!19sChIJNRpCatj-DDkRo57-T2DXvg8?authuser=0&hl=en&rclk=1,"28.764913999999997,77.2732959"
Fatima Masjid Kanchanpark Loni,Mosque,"P7WX+VRG Fatima Masjid Kanchanpark Loni, Loni Ghaziabad Rd, Loni, Ghaziabad, Uttar Pradesh 201102",Loni,"P7WX+VRG, Loni Ghaziabad Rd",Ghaziabad,201102,Uttar Pradesh,IN,https://www.google.com/maps/place/Fatima+Masjid+Kanchanpark+Loni/data=!4m7!3m6!1s0x390cf947f1b4ac77:0x6de6702bcafd3c0b!8m2!3d28.7471954!4d77.2995841!16s%2Fg%2F11c60m2h0b!19sChIJd6y08Uf5DDkRCzz9yitw5m0?authuser=0&hl=en&rclk=1,"28.7471954,77.29958409999999"
Madina Masjid,Mosque,"Madina Masjid, Kanchan Park, gully, 402/d 30, Foota Road, Loni, 5, Chaar Khamba Rd, Loni Dehat, Ghaziabad, Uttar Pradesh 201102",Loni Dehat,"Kanchan Park, gully, 402/d 30, Foota Road, Loni, 5, Chaar Khamba Rd",Ghaziabad,201102,Uttar Pradesh,IN,https://www.google.com/maps/place/Madina+Masjid/data=!4m7!3m6!1s0x390cf93815daaffd:0x74369c0fa4d519bb!8m2!3d28.7475609!4d77.2989584!16s%2Fg%2F11c6slnyd8!19sChIJ_a_aFTj5DDkRuxnVpA-cNnQ?authuser=0&hl=en&rclk=1,"28.7475609,77.29895839999999"
madina masjid,Mosque,"P7HX+55C madina masjid, Vikas Kunj, Laxmi Garden, Raj Nagar, Loni, Ghaziabad, Uttar Pradesh 201102","Laxmi Garden, Raj Nagar, Loni","P7HX+55C, Vikas Kunj",Ghaziabad,201102,Uttar Pradesh,IN,https://www.google.com/maps/place/madina+masjid/data=!4m7!3m6!1s0x390cf95756f18a95:0x248890052bdf77cb!8m2!3d28.7279292!4d77.2978857!16s%2Fg%2F11fy4ht300!19sChIJlYrxVlf5DDkRy3ffKwWQiCQ?authuser=0&hl=en&rclk=1,"28.7279292,77.2978857"
Aaminah Masjid Ahle Hadees,Mosque,"Q76C+J6Q Aaminah Masjid Ahle Hadees, D-Block murmura colony khush haal park, Loni, Ghaziabad, Uttar Pradesh 201102",Loni,"Q76C+J6Q, D-Block murmura colony khush haal park",Ghaziabad,201102,Uttar Pradesh,IN,https://www.google.com/maps/place/Aaminah+Masjid+Ahle+Hadees/data=!4m7!3m6!1s0x390cff467abf762d:0x60ca9cb63bdb0fdd!8m2!3d28.7615835!4d77.2706233!16s%2Fg%2F11gmw_5zk7!19sChIJLXa_ekb_DDkR3Q_bO7acymA?authuser=0&hl=en&rclk=1,"28.7615835,77.2706233"
CHAAND MASJID,Mosque,"P7MW+2QJ CHAAND MASJID, Laxmi Garden, Raj Nagar, Loni, Ghaziabad, Uttar Pradesh 201102","Laxmi Garden, Raj Nagar, Loni",P7MW+2QJ,Ghaziabad,201102,Uttar Pradesh,IN,https://www.google.com/maps/place/CHAAND+MASJID/data=!4m7!3m6!1s0x390cf9506b61540d:0xd361aa3e42f5b935!8m2!3d28.7325888!4d77.2968797!16s%2Fg%2F11j0yzn14w!19sChIJDVRha1D5DDkRNbn1Qj6qYdM?authuser=0&hl=en&rclk=1,"28.7325888,77.29687969999999"
Mo. Baeg Masjid,Mosque,"Q74V+4RG Mo. Baeg Masjid, Loni Dehat, Uttar Pradesh 201102",Loni Dehat,Q74V+4RG,,201102,Uttar Pradesh,IN,https://www.google.com/maps/place/Mo.+Baeg+Masjid/data=!4m7!3m6!1s0x390cf931b6496e69:0xb782c5b3a31e5193!8m2!3d28.7553042!4d77.2945935!16s%2Fg%2F11f03tj0jd!19sChIJaW5JtjH5DDkRk1Eeo7PFgrc?authuser=0&hl=en&rclk=1,"28.755304199999998,77.29459349999999"
Bajar wali Masjid,Mosque,"Q72Q+474 Bajar wali Masjid, Loni, Ghaziabad, Uttar Pradesh 201102",Loni,Q72Q+474,Ghaziabad,201102,Uttar Pradesh,IN,https://www.google.com/maps/place/Bajar+wali+Masjid/data=!4m7!3m6!1s0x390cf9126bf89169:0x3adcee033f3ee7ab!8m2!3d28.7502518!4d77.2882075!16s%2Fg%2F11rvb53qg0!19sChIJaZH4axL5DDkRq-c-PwPu3Do?authuser=0&hl=en&rclk=1,"28.750251799999997,77.2882075"
Sunheri Masjid,Mosque,"P7VJ+452 Sunheri Masjid, Nasbandi Colony, Ghaziabad, Uttar Pradesh 201102",Nasbandi Colony,P7VJ+452,Ghaziabad,201102,Uttar Pradesh,IN,https://www.google.com/maps/place/Sunheri+Masjid/data=!4m7!3m6!1s0x390cffba7f7b719d:0x48c26b37b075ad5d!8m2!3d28.7427706!4d77.280396!16s%2Fg%2F11fj5c1rqy!19sChIJnXF7f7r_DDkRXa11sDdrwkg?authuser=0&hl=en&rclk=1,"28.7427706,77.280396"
Jannati Masjid,Mosque,"Ward No. 54, Jannati Masjid, Kanchan Park, 20 Futa Rd, Loni Dehat, Uttar Pradesh 201102",Loni Dehat,"Ward No. 54, Kanchan Park, 20 Futa Rd",,201102,Uttar Pradesh,IN,https://www.google.com/maps/place/Jannati+Masjid/data=!4m7!3m6!1s0x390cf938098f0aef:0xc91cda0554972664!8m2!3d28.7459445!4d77.2989634!16s%2Fg%2F11c606xcpq!19sChIJ7wqPCTj5DDkRZCaXVAXaHMk?authuser=0&hl=en&rclk=1,"28.7459445,77.29896339999999"
Sunehri Masjid,Mosque,"Q72M+QRR Sunehri Masjid, Ghaziabad, Uttar Pradesh 201102",,Q72M+QRR,Ghaziabad,,Uttar Pradesh,IN,https://www.google.com/maps/place/Sunehri+Masjid/data=!4m7!3m6!1s0x390cfeccee88935b:0x175965a78c348598!8m2!3d28.7519936!4d77.2845282!16s%2Fg%2F11ggls1whv!19sChIJW5OI7sz-DDkRmIU0jKdlWRc?authuser=0&hl=en&rclk=1,"28.7519936,77.2845282"
Abzain,Mosque,"Abzain, Mohammadi masjid, Loni, Ghaziabad, Uttar Pradesh 201102",Loni,Mohammadi masjid,Ghaziabad,201102,Uttar Pradesh,IN,https://www.google.com/maps/place/Abzain/data=!4m7!3m6!1s0x390cf9359368ed6f:0x524fb5952b9c2211!8m2!3d28.746026!4d77.2907071!16s%2Fg%2F11d_c5mf0_!19sChIJb-1okzX5DDkRESKcK5W1T1I?authuser=0&hl=en&rclk=1,"28.746025999999997,77.29070709999999"
Muhammadia Masjid,Mosque,"Q77P+C9C Muhammadia Masjid, Loni Dehat, Uttar Pradesh 201102",Loni Dehat,Q77P+C9C,,201102,Uttar Pradesh,IN,https://www.google.com/maps/place/Muhammadia+Masjid/data=!4m7!3m6!1s0x390cfed4ced2c6ef:0xc2f6d8bc89442563!8m2!3d28.7635516!4d77.2859059!16s%2Fg%2F11fx950tlb!19sChIJ78bSztT-DDkRYyVEibzY9sI?authuser=0&hl=en&rclk=1,"28.7635516,77.2859059"
Masjid,Mosque,"Q72P+WRP Masjid, Rashid Gate, Loni, Uttar Pradesh 201102",Loni Dehat,"Q72P+WRP, Rashid Gate, Loni",,201102,Uttar Pradesh,IN,https://www.google.com/maps/place/Masjid/data=!4m7!3m6!1s0x390cf93330fa7a29:0x1857c179c0599740!8m2!3d28.752333!4d77.28707!16s%2Fg%2F12hlxv17s!19sChIJKXr6MDP5DDkRQJdZwHnBVxg?authuser=0&hl=en&rclk=1,"28.752333,77.28707"
Auliya Masjid,Mosque,"Q77Q+22P Auliya Masjid, Ashok Vihar, Loni Dehat, Uttar Pradesh 201102","Ashok Vihar, Loni Dehat",Q77Q+22P,,201102,Uttar Pradesh,IN,https://www.google.com/maps/place/Auliya+Masjid/data=!4m7!3m6!1s0x390cf92b5cb14125:0xdc27bd6ad76f99eb!8m2!3d28.7625881!4d77.2875752!16s%2Fg%2F11d_w84fy_!19sChIJJUGxXCv5DDkR65lv12q9J9w?authuser=0&hl=en&rclk=1,"28.7625881,77.28757519999999"
Thane vali masjid,Mosque,"Q72R+22V Thane vali masjid, Loni Dehat, Uttar Pradesh 201102",Loni Dehat,Q72R+22V,,201102,Uttar Pradesh,IN,https://www.google.com/maps/place/Thane+vali+masjid/data=!4m7!3m6!1s0x390cf9347ab99c59:0x89238a1b791272f9!8m2!3d28.7501149!4d77.2900397!16s%2Fg%2F11gb3znvw2!19sChIJWZy5ejT5DDkR-XISeRuKI4k?authuser=0&hl=en&rclk=1,"28.7501149,77.2900397"
Masjid e Usman e Ghani Ahle Hadees,Mosque,"Q77Q+J4V Masjid e Usman e Ghani Ahle Hadees, Garhi Jassi, Loni Dehat, Uttar Pradesh 201102","Garhi Jassi, Loni Dehat",Q77Q+J4V,,201102,Uttar Pradesh,IN,https://www.google.com/maps/place/Masjid+e+Usman+e+Ghani+Ahle+Hadees/data=!4m7!3m6!1s0x390cf9cf2741bd7d:0xcbe62442ac69ab27!8m2!3d28.7641241!4d77.2877867!16s%2Fg%2F11m9_4mqkf!19sChIJfb1BJ8_5DDkRJ6tprEIk5ss?authuser=0&hl=en&rclk=1,"28.7641241,77.2877867"
Madina Masjid,Mosque,"Q767+3R8 Madina Masjid, Rajdhani Enclave, Rampark Loni, Ghaziabad, Uttar Pradesh 201102",Rampark Loni,"Q767+3R8, Rajdhani Enclave",Ghaziabad,,Uttar Pradesh,IN,https://www.google.com/maps/place/Madina+Masjid/data=!4m7!3m6!1s0x390cfede0c1fb349:0x86fa6effac8e45b0!8m2!3d28.7601516!4d77.2645886!16s%2Fg%2F11hd6wmb4c!19sChIJSbMfDN7-DDkRsEWOrP9u-oY?authuser=0&hl=en&rclk=1,"28.7601516,77.2645886"
allah wali masjid,Mosque,"P7XR+45F allah wali masjid, Loni Dehat, Ghaziabad, Uttar Pradesh 201102",Loni Dehat,P7XR+45F,Ghaziabad,201102,Uttar Pradesh,IN,https://www.google.com/maps/place/allah+wali+masjid/data=!4m7!3m6!1s0x390cf935b357f1db:0xe952e9a412e060e2!8m2!3d28.7478066!4d77.2904341!16s%2Fg%2F11gbwzvffz!19sChIJ2_FXszX5DDkR4mDgEqTpUuk?authuser=0&hl=en&rclk=1,"28.747806599999997,77.2904341"
Loni tole mohala nor masjid,Home theater store,"P7XV+R8X Loni tole mohala nor masjid, Toli mohalla West, Mustafabad, Uttar Pradesh 201102",Mustafabad,"P7XV+R8X, Toli mohalla West",,201102,Uttar Pradesh,IN,https://www.google.com/maps/place/Loni+tole+mohala+nor+masjid/data=!4m7!3m6!1s0x390cf9f4a8d4b269:0x5f7ade2495952f82!8m2!3d28.7496225!4d77.2933489!16s%2Fg%2F11fkr5lz65!19sChIJabLUqPT5DDkRgi-VlSTeel8?authuser=0&hl=en&rclk=1,"28.749622499999997,77.2933489"
Chand Masjid,Mosque,"Q77M+2XF Chand Masjid, 30 Foota Rd, Ashok Vihar, Loni Dehat, Uttar Pradesh 201102","Ashok Vihar, Loni Dehat","Q77M+2XF, 30 Foota Rd",,201102,Uttar Pradesh,IN,https://www.google.com/maps/place/Chand+Masjid/data=!4m7!3m6!1s0x390cff6edd6ee9f9:0xc81b92f08ef6941b!8m2!3d28.7625525!4d77.2849191!16s%2Fg%2F11g2z8h8xf!19sChIJ-elu3W7_DDkRG5T2jvCSG8g?authuser=0&hl=en&rclk=1,"28.762552499999998,77.2849191"
ABDUL SALAM MASJID,Mosque,"P7FX+P4M ABDUL SALAM MASJID, Soniya Nagar, Raj Nagar, Loni, Ghaziabad, Uttar Pradesh 201102","Soniya Nagar, Raj Nagar, Loni",P7FX+P4M,Ghaziabad,201102,Uttar Pradesh,IN,https://www.google.com/maps/place/ABDUL+SALAM+MASJID/data=!4m7!3m6!1s0x390cf957f2f85e43:0xcfdc6b0208bfa863!8m2!3d28.7243278!4d77.297796!16s%2Fg%2F11gfd3dzbm!19sChIJQ1748lf5DDkRY6i_CAJr3M8?authuser=0&hl=en&rclk=1,"28.724327799999998,77.29779599999999"
Khajoor wali masjid. Malik house,Mosque,"Q74R+C2W Khajoor wali masjid. Malik house, Loni Dehat, Uttar Pradesh 201102",Loni Dehat,Q74R+C2W,,201102,Uttar Pradesh,IN,https://www.google.com/maps/place/Khajoor+wali+masjid.+Malik+house/data=!4m7!3m6!1s0x390cf9dddafc3f67:0x6793ede6d0831ef3!8m2!3d28.7561215!4d77.2900681!16s%2Fg%2F11h28q6pqx!19sChIJZz_82t35DDkR8x6D0Obtk2c?authuser=0&hl=en&rclk=1,"28.7561215,77.2900681"
Abubakar Masjid,Mosque,"P7QG+J6J Abubakar Masjid, Alvi Nagar, Loni, Ghaziabad, Uttar Pradesh 201102","Alvi Nagar, Loni",P7QG+J6J,Ghaziabad,201102,Uttar Pradesh,IN,https://www.google.com/maps/place/Abubakar+Masjid/data=!4m7!3m6!1s0x390cff232e023207:0x1449051698e36554!8m2!3d28.7390797!4d77.2755015!16s%2Fg%2F11hzpn4xrw!19sChIJBzICLiP_DDkRVGXjmBYFSRQ?authuser=0&hl=en&rclk=1,"28.739079699999998,77.27550149999999"
Sikandari Jama Masjid,Mosque,"Sikandari Jama Masjid, 201102, Param Hans Vihar, Laxmi Garden, Raj Nagar, Loni, Ghaziabad, Uttar Pradesh 201102","Param Hans Vihar, Laxmi Garden, Raj Nagar, Loni",201102,Ghaziabad,201102,Uttar Pradesh,IN,https://www.google.com/maps/place/Sikandari+Jama+Masjid/data=!4m7!3m6!1s0x390cf94ff1f3ae53:0x59b50a2e5d18b7f9!8m2!3d28.7323944!4d77.2936695!16s%2Fg%2F11gb3n1z75!19sChIJU67z8U_5DDkR-bcYXS4KtVk?authuser=0&hl=en&rclk=1,"28.7323944,77.2936695"
"Ek minara Masjid Ahle Hadees Sarla vihar ,Loni",Mosque,"P7V5+7QP Ek minara Masjid Ahle Hadees Sarla vihar ,Loni, Sarla Vihar Vijay Vihar, Near, Sabhapur, New Delhi","Near, Sabhapur","P7V5+7QP, Sarla Vihar Vijay Vihar","New Delhi, Ghaziabad",,Uttar Pradesh,IN,"https://www.google.com/maps/place/Ek+minara+Masjid+Ahle+Hadees+Sarla+vihar+,Loni/data=!4m7!3m6!1s0x390cff56ac4b4645:0xebbccdcd4b6c8d77!8m2!3d28.7432053!4d77.2594559!16s%2Fg%2F11gr60pntt!19sChIJRUZLrFb_DDkRd41sS83NvOs?authuser=0&hl=en&rclk=1","28.7432053,77.25945589999999"
Madina Masjid,Mosque,"P7VG+6MG Madina Masjid, Alvi Nagar, Nasbandi Colony, Loni, Ghaziabad, Uttar Pradesh 201102","Alvi Nagar, Nasbandi Colony",P7VG+6MG,"Loni, Ghaziabad",201102,Uttar Pradesh,IN,https://www.google.com/maps/place/Madina+Masjid/data=!4m7!3m6!1s0x390cff813984b043:0x605780cefd5baf40!8m2!3d28.7430586!4d77.2766894!16s%2Fg%2F11fm49zqgg!19sChIJQ7CEOYH_DDkRQK9b_c6AV2A?authuser=0&hl=en&rclk=1,"28.743058599999998,77.2766894"
Noorani masjid,Mosque,"Noorani masjid, Laxmi Garden, Raj Nagar, Loni, Ghaziabad, Uttar Pradesh 201102","Laxmi Garden, Raj Nagar, Loni",,Ghaziabad,201102,Uttar Pradesh,IN,https://www.google.com/maps/place/Noorani+masjid/data=!4m7!3m6!1s0x390cf946b38fc6b7:0xc4e72fab484f3d63!8m2!3d28.730557!4d77.2934777!16s%2Fg%2F11h128fvl6!19sChIJt8aPs0b5DDkRYz1PSKsv58Q?authuser=0&hl=en&rclk=1,"28.730556999999997,77.2934777"
Bismillah Masjid,Mosque,"Q75P+HX2 Bismillah Masjid, Loni Dehat, Uttar Pradesh 201102",Loni Dehat,Q75P+HX2,,201102,Uttar Pradesh,IN,https://www.google.com/maps/place/Bismillah+Masjid/data=!4m7!3m6!1s0x390cf988af063d97:0xa3388622e274cd24!8m2!3d28.7588935!4d77.2874036!16s%2Fg%2F11pqzvchfd!19sChIJlz0Gr4j5DDkRJM104iKGOKM?authuser=0&hl=en&rclk=1,"28.7588935,77.28740359999999"
Noor Masjid,Mosque,"Noor Masjid, Ashok Vihar, Loni Dehat, Uttar Pradesh 201102","Ashok Vihar, Loni Dehat",,,201102,Uttar Pradesh,IN,https://www.google.com/maps/place/Noor+Masjid/data=!4m7!3m6!1s0x390cf914cf66ccd7:0x312ec1fdc1404d15!8m2!3d28.7579025!4d77.2891902!16s%2Fg%2F11szdfb9d0!19sChIJ18xmzxT5DDkRFU1Awf3BLjE?authuser=0&hl=en&rclk=1,"28.7579025,77.2891902"
Gausulvara Masjid,Mosque,"Gausulvara Masjid, D-604, Vikas Kunj, Sangam Vihar, Raj Nagar, Loni, Ghaziabad, Uttar Pradesh 201102","Sangam Vihar, Raj Nagar, Loni","D-604, Vikas Kunj",Ghaziabad,201102,Uttar Pradesh,IN,https://www.google.com/maps/place/Gausulvara+Masjid/data=!4m7!3m6!1s0x390cf957575f43c3:0x2e86953218b4ec14!8m2!3d28.7276726!4d77.2977567!16s%2Fg%2F11gbk2zr3g!19sChIJw0NfV1f5DDkRFOy0GDKVhi4?authuser=0&hl=en&rclk=1,"28.7276726,77.2977567"
Masjid al Aqsa jamatul ahle hadees,Mosque,"Masjid al Aqsa jamatul ahle hadees, C1 ST SUDHIR ENCLAVE, Rampark Loni, Loni","Rampark Loni, Loni",C1 ST SUDHIR ENCLAVE,Ghaziabad,,Uttar Pradesh,IN,https://www.google.com/maps/place/Masjid+al+Aqsa+jamatul+ahle+hadees/data=!4m7!3m6!1s0x390cffcedfd1ce69:0x3c7a4b9dd40c5731!8m2!3d28.7647126!4d77.2681728!16s%2Fg%2F11hz8n4pzr!19sChIJac7R387_DDkRMVcM1J1Lejw?authuser=0&hl=en&rclk=1,"28.7647126,77.2681728"
Nurani masjid,Mosque,"Q8C4+GR5 Nurani masjid, Loni Dehat, Fatiyabad Nithora, Uttar Pradesh 201102",Loni Dehat,Q8C4+GR5,Fatiyabad Nithora,201102,Uttar Pradesh,IN,https://www.google.com/maps/place/Nurani+masjid/data=!4m7!3m6!1s0x390cf9dc1ef666d7:0xe25fb1797566c5de!8m2!3d28.7712513!4d77.307112!16s%2Fg%2F11rcdnz22m!19sChIJ12b2Htz5DDkR3sVmdXmxX-I?authuser=0&hl=en&rclk=1,"28.7712513,77.307112"
Noorani Masjid,Mosque,"P7VV+GG7 Noorani Masjid, Roop Nagar, Ghaziabad, Uttar Pradesh 201102",Roop Nagar,P7VV+GG7,Ghaziabad,201102,Uttar Pradesh,IN,https://www.google.com/maps/place/Noorani+Masjid/data=!4m7!3m6!1s0x390cf9dcbd306c79:0xa98562dc1791a991!8m2!3d28.7437847!4d77.2937989!16s%2Fg%2F11fq80z4kz!19sChIJeWwwvdz5DDkRkamRF9xihak?authuser=0&hl=en&rclk=1,"28.7437847,77.2937989"
Husain Masjid,Mosque,"Husain Masjid, KHNO. 783 CHAND MASJID ROAD MUSTAFABAD, Ikram Nagar, Loni, Uttar Pradesh","Ikram Nagar, Loni",KHNO. 783 CHAND MASJID ROAD MUSTAFABAD,,,Uttar Pradesh,IN,https://www.google.com/maps/place/Husain+Masjid/data=!4m7!3m6!1s0x390cf99d761eabcd:0x7f21e63ef64b4ce1!8m2!3d28.7530586!4d77.2984915!16s%2Fg%2F11lm2tlyyc!19sChIJzasedp35DDkR4UxL9j7mIX8?authuser=0&hl=en&rclk=1,"28.7530586,77.2984915"
Makka Masjid,Mosque,"Q78M+4V8 Makka Masjid, Ashok Vihar, Loni, Ghaziabad, Uttar Pradesh 201102","Ashok Vihar, Loni",Q78M+4V8,Ghaziabad,201102,Uttar Pradesh,IN,https://www.google.com/maps/place/Makka+Masjid/data=!4m7!3m6!1s0x390cff96adfbe6d7:0x50b53e803959a458!8m2!3d28.76528!4d77.2846955!16s%2Fg%2F11h880nzqg!19sChIJ1-b7rZb_DDkRWKRZOYA-tVA?authuser=0&hl=en&rclk=1,"28.765279999999997,77.2846955"
Gulzari masjid,Mosque,"P7RX+HX7 Gulzari masjid, Unnamed Road, Loni, Ghaziabad, Uttar Pradesh 201102",Loni,"P7RX+HX7, Unnamed Road",Ghaziabad,201102,Uttar Pradesh,IN,https://www.google.com/maps/place/Gulzari+masjid/data=!4m7!3m6!1s0x390cf93df2753d9f:0xa37df712052a36ff!8m2!3d28.7414135!4d77.2999268!16s%2Fg%2F11hdt68_bk!19sChIJnz118j35DDkR_zYqBRL3faM?authuser=0&hl=en&rclk=1,"28.7414135,77.2999268"
Noor Masjid,Mosque,"P7XV+R5P Noor Masjid, Toli mohalla West, Mustafabad, Uttar Pradesh 201102",Mustafabad,"P7XV+R5P, Toli mohalla West",,201102,Uttar Pradesh,IN,https://www.google.com/maps/place/Noor+Masjid/data=!4m7!3m6!1s0x390cf9215dc535d5:0xa4faa763d41a9455!8m2!3d28.7495874!4d77.2929513!16s%2Fg%2F11h3fsrz9d!19sChIJ1TXFXSH5DDkRVZQa1GOn-qQ?authuser=0&hl=en&rclk=1,"28.7495874,77.2929513"
RIYAZUL JANNAHA MASJID,Mosque,"Q76V+QG7 RIYAZUL JANNAHA MASJID, Loni Dehat, Uttar Pradesh 201102",Loni Dehat,Q76V+QG7,,201102,Uttar Pradesh,IN,https://www.google.com/maps/place/RIYAZUL+JANNAHA+MASJID/data=!4m7!3m6!1s0x390cf968cc5321af:0x1885b3b9bdb94bb8!8m2!3d28.761925!4d77.2937949!16s%2Fg%2F11hyk3bd6t!19sChIJryFTzGj5DDkRuEu5vbmzhRg?authuser=0&hl=en&rclk=1,"28.761924999999998,77.2937949"
Munawwar masjid,Mosque,"Q72V+PP2 Munawwar masjid, Unnamed Road, Loni Dehat, Uttar Pradesh 201102",Loni Dehat,"Q72V+PP2, Unnamed Road",,201102,Uttar Pradesh,IN,https://www.google.com/maps/place/Munawwar+masjid/data=!4m7!3m6!1s0x390cf9f78bcf2e87:0xfa3e67e59f0b90bd!8m2!3d28.7517608!4d77.2942599!16s%2Fg%2F11nfqcw5k8!19sChIJhy7Pi_f5DDkRvZALn-VnPvo?authuser=0&hl=en&rclk=1,"28.7517608,77.2942599"
Muhammadi masjid,Mosque,"Muhammadi masjid, Shiv vatika, Sangam Vihar, Raj Nagar, Behta Hajipur, Ghaziabad, Uttar Pradesh 201102","Sangam Vihar, Raj Nagar, Behta Hajipur",Shiv vatika,Ghaziabad,201102,Uttar Pradesh,IN,https://www.google.com/maps/place/Muhammadi+masjid/data=!4m7!3m6!1s0x390cf9f2fa78f123:0x35f339ec504fecaa!8m2!3d28.72658!4d77.3021791!16s%2Fg%2F11r9nq8p12!19sChIJI_F4-vL5DDkRquxPUOw58zU?authuser=0&hl=en&rclk=1,"28.72658,77.3021791"
Rasheediya Masjid,Mosque,"Q76W+J7G Rasheediya Masjid, Loni Dehat, Uttar Pradesh 201102",Loni Dehat,Q76W+J7G,,201102,Uttar Pradesh,IN,https://www.google.com/maps/place/Rasheediya+Masjid/data=!4m7!3m6!1s0x390cf977c9c09b4d:0x6b69c09e0fbc6f3c!8m2!3d28.761574!4d77.2956928!16s%2Fg%2F11qp903qbz!19sChIJTZvAyXf5DDkRPG-8D57AaWs?authuser=0&hl=en&rclk=1,"28.761574,77.2956928"
Ibrahim Masjid,Mosque,"Q762+6PM Ibrahim Masjid, khwaja park, Ph 2, Loni, Ghaziabad, Uttar Pradesh 201102",Loni,"Q762+6PM, khwaja park, Ph 2",Ghaziabad,201102,Uttar Pradesh,IN,https://www.google.com/maps/place/Ibrahim+Masjid/data=!4m7!3m6!1s0x390cff0a53acb65d:0x4c73e221253ac313!8m2!3d28.7605852!4d77.2518048!16s%2Fg%2F11flbsjjty!19sChIJXbasUwr_DDkRE8M6JSHic0w?authuser=0&hl=en&rclk=1,"28.760585199999998,77.2518048"
Fatima masjid,Mosque,"Q728+494 Fatima masjid, Uttam vihar, Loni, Ghaziabad, Uttar Pradesh 201102","Uttam vihar, Loni",Q728+494,Ghaziabad,201102,Uttar Pradesh,IN,https://www.google.com/maps/place/Fatima+masjid/data=!4m7!3m6!1s0x390cffbc2c70bf7d:0x2bd51afb345ecbb3!8m2!3d28.7502578!4d77.2659559!16s%2Fg%2F11h7d6w0g8!19sChIJfb9wLLz_DDkRs8teNPsa1Ss?authuser=0&hl=en&rclk=1,"28.7502578,77.2659559"
NOORANI MUSTAFA SUNNI JAMA MASJID,Mosque,"NOORANI MUSTAFA SUNNI JAMA MASJID, ward no.47 block no.4 ashok vihar loni Dehat, Ghaziabad, Uttar Pradesh 201102",Loni Dehat,ward no.47 block no.4 ashok vihar loni Dehat,Ghaziabad,201102,Uttar Pradesh,IN,https://www.google.com/maps/place/NOORANI+MUSTAFA+SUNNI+JAMA+MASJID/data=!4m7!3m6!1s0x390cff7d1ab58abf:0x2f802dd791b65916!8m2!3d28.7588355!4d77.2859301!16s%2Fg%2F11fkkzpwp9!19sChIJv4q1Gn3_DDkRFlm2kdctgC8?authuser=0&hl=en&rclk=1,"28.7588355,77.2859301"
Mohammadi Masjid,Mosque,"Q7CM+9JV Mohammadi Masjid, Nishant colony pavi, Loni, Ghaziabad, Uttar Pradesh 201102",Loni,"Q7CM+9JV, Nishant colony pavi","Ghaziabad, Pavi Sadakpur",201102,Uttar Pradesh,IN,https://www.google.com/maps/place/Mohammadi+Masjid/data=!4m7!3m6!1s0x390cffce9414d03b:0x3adf39451385a2a0!8m2!3d28.7709915!4d77.2840536!16s%2Fg%2F11h22x32hg!19sChIJO9AUlM7_DDkRoKKFE0U53zo?authuser=0&hl=en&rclk=1,"28.770991499999997,77.2840536"
Madina masjid,Mosque,"Madina masjid, Aman Garden, phase 1, Loni Dehat, Uttar Pradesh 201102","phase 1, Loni Dehat",Aman Garden,,201102,Uttar Pradesh,IN,https://www.google.com/maps/place/Madina+masjid/data=!4m7!3m6!1s0x390cf9879e79553f:0x175f8ea9665694be!8m2!3d28.7606159!4d77.2966222!16s%2Fg%2F11q8s26c5l!19sChIJP1V5nof5DDkRvpRWZqmOXxc?authuser=0&hl=en&rclk=1,"28.760615899999998,77.2966222"
MASJID LATEEF,Mosque,"Q75Q+X4R MASJID LATEEF, Loni Dehat, Uttar Pradesh 201102",Loni Dehat,Q75Q+X4R,,201102,Uttar Pradesh,IN,https://www.google.com/maps/place/MASJID+LATEEF/data=!4m7!3m6!1s0x390cf9e990cf0617:0xdd30689c572c744b!8m2!3d28.7602006!4d77.2873153!16s%2Fg%2F11q9ywtw1f!19sChIJFwbPkOn5DDkRS3QsV5xoMN0?authuser=0&hl=en&rclk=1,"28.760200599999997,77.2873153"
"Ayesha masjid , madarsa islamiya arabia talimul Quraan",Mosque,"Q759+H39 Ayesha masjid , madarsa islamiya arabia talimul Quraan, Q759+H39 City enclave kasim vihar, Loni, Ghaziabad, Uttar Pradesh 201102",Loni,"Q759+H39, Q759+H39 City enclave kasim vihar",Ghaziabad,201102,Uttar Pradesh,IN,"https://www.google.com/maps/place/Ayesha+masjid+,+madarsa+islamiya+arabia+talimul+Quraan/data=!4m7!3m6!1s0x390cff4a1c66c9bd:0x826762c4985cfff!8m2!3d28.7589314!4d77.2677005!16s%2Fg%2F11sx4lb62h!19sChIJvclmHEr_DDkR_8-FSSx2Jgg?authuser=0&hl=en&rclk=1","28.758931399999998,77.26770049999999"
Bilal masjid bilaal msjid,Mosque,"Q7C8+GQH Bilal masjid bilaal msjid, Loni, Ghaziabad, Uttar Pradesh 201102",Loni,Q7C8+GQH,Ghaziabad,201102,Uttar Pradesh,IN,https://www.google.com/maps/place/Bilal+masjid+%E0%A4%AC%E0%A4%BF%E0%A4%B2%E0%A4%BE%E0%A4%B2+%E0%A4%AE%E0%A4%B8%E0%A5%8D%E0%A4%9C%E0%A4%BF%E0%A4%A6/data=!4m7!3m6!1s0x390cffd0ad8f3a6b:0x7c11a298e0372b73!8m2!3d28.7713217!4d77.2669922!16s%2Fg%2F11q2w10r3s!19sChIJazqPrdD_DDkRcys34JiiEXw?authuser=0&hl=en&rclk=1,"28.771321699999998,77.26699219999999"
AQSA  MASJID,Mosque,"Q78G+XVM AQSA  MASJID, Loni, Ghaziabad, Uttar Pradesh 201102",Loni,Q78G+XVM,Ghaziabad,,Uttar Pradesh,IN,https://www.google.com/maps/place/AQSA+%F0%9F%87%A8%F0%9F%87%A8%F0%9F%95%8C+MASJID/data=!4m7!3m6!1s0x390cff5446c67d7f:0x4da4116fca72b58a!8m2!3d28.7674644!4d77.2771707!16s%2Fg%2F11kc8fwvp9!19sChIJf33GRlT_DDkRirVyym8RpE0?authuser=0&hl=en&rclk=1,"28.767464399999998,77.2771707"
Jama masjid,Mosque,"Q862+552 Jama masjid, Loni Dehat, Uttar Pradesh 201102",Loni Dehat,Q862+552,,201102,Uttar Pradesh,IN,https://www.google.com/maps/place/Jama+masjid/data=!4m7!3m6!1s0x390cf97f722d9929:0x46f90a830297209d!8m2!3d28.7601301!4d77.3009195!16s%2Fg%2F11rf0r2s79!19sChIJKZktcn_5DDkRnSCXAoMK-UY?authuser=0&hl=en&rclk=1,"28.760130099999998,77.30091949999999"
Faruqia masjid rashid nagar loni Ghaziabad,Mosque,"P7VR+QXP Faruqia masjid rashid nagar loni Ghaziabad, Roop Nagar, Ghaziabad, Uttar Pradesh 201102",Roop Nagar,P7VR+QXP,Ghaziabad,201102,Uttar Pradesh,IN,https://www.google.com/maps/place/Faruqia+masjid+rashid+nagar+loni+Ghaziabad/data=!4m7!3m6!1s0x390cf9e6e46a1d0d:0x5de5363e6d0d37f8!8m2!3d28.7445619!4d77.2921389!16s%2Fg%2F11sd4lgmrb!19sChIJDR1q5Ob5DDkR-DcNbT425V0?authuser=0&hl=en&rclk=1,"28.744561899999997,77.2921389"
Rahmat Masjid,Mosque,"Rahmat Masjid, Ikram Nagar, Loni Dehat, Loni, Uttar Pradesh 201102","Ikram Nagar, Loni Dehat",,Loni,201102,Uttar Pradesh,IN,https://www.google.com/maps/place/Rahmat+Masjid/data=!4m7!3m6!1s0x390cf90eded84f25:0xe10c129aeb8c58d5!8m2!3d28.7484152!4d77.2925224!16s%2Fg%2F11n0zmt7ds!19sChIJJU_Y3g75DDkR1ViM65oSDOE?authuser=0&hl=en&rclk=1,"28.7484152,77.2925224"
Noori masjid,Mosque,"Noori masjid, Pooja Colony, Loni, Pavi Sadakpur, Uttar Pradesh 201102","Pooja Colony, Loni",,Pavi Sadakpur,201102,Uttar Pradesh,IN,https://www.google.com/maps/place/Noori+masjid/data=!4m7!3m6!1s0x390cff5f28e0d557:0xc5ab5d90f01444da!8m2!3d28.7682222!4d77.2756252!16s%2Fg%2F11q4gpf3l7!19sChIJV9XgKF__DDkR2kQU8JBdq8U?authuser=0&hl=en&rclk=1,"28.7682222,77.2756252"
Makki Masjid,Mosque,"Makki Masjid, Kanchan Park, gully, 5, Chaar Khamba Rd, Loni Dehat, Ghaziabad, Uttar Pradesh 201102",Loni Dehat,"Kanchan Park, gully, 5, Chaar Khamba Rd",Ghaziabad,201102,Uttar Pradesh,IN,https://www.google.com/maps/place/Makki+Masjid/data=!4m7!3m6!1s0x390cf92f7e0c5cb1:0xf776fb40ca45c0a7!8m2!3d28.7472252!4d77.2980968!16s%2Fg%2F11q9_81dyh!19sChIJsVwMfi_5DDkRp8BFykD7dvc?authuser=0&hl=en&rclk=1,"28.7472252,77.2980968"
Ek Minara Masjid,School,"P7XM+69Q Ek Minara Masjid, Street Number 11, Giri Market, Loni, Ghaziabad, Uttar Pradesh 201102","Giri Market, Loni","P7XM+69Q, Street Number 11",Ghaziabad,201102,Uttar Pradesh,IN,https://www.google.com/maps/place/Ek+Minara+Masjid/data=!4m7!3m6!1s0x390cffee15d2cae5:0x6d600152be0f94da!8m2!3d28.7480891!4d77.2834824!16s%2Fg%2F11f66c0lk0!19sChIJ5crSFe7_DDkR2pQPvlIBYG0?authuser=0&hl=en&rclk=1,"28.748089099999998,77.2834824"
Jannatun Nisha masjid,Mosque,"2, Jannatun Nisha masjid, Gali no.5, 100, futa road, near Neelam factory, Laxmi Garden, Loni, Ghaziabad, Uttar Pradesh 201102","Laxmi Garden, Raj Nagar, Loni","2, Gali no.5, 100, futa road, near Neelam factory",Ghaziabad,201102,Uttar Pradesh,IN,https://www.google.com/maps/place/Jannatun+Nisha+masjid/data=!4m7!3m6!1s0x390cf9ed42f1e16f:0xb6fb9c3d1e1888b6!8m2!3d28.7355572!4d77.2903807!16s%2Fg%2F11s227v02g!19sChIJb-HxQu35DDkRtogYHj2c-7Y?authuser=0&hl=en&rclk=1,"28.7355572,77.2903807"
Makki Masjid Gali No 2 aur 3,Mosque,"P7HR+92R Makki Masjid Gali No 2 aur 3, Laxmi Garden, Raj Nagar, Loni, Ghaziabad, Uttar Pradesh 201102","Laxmi Garden, Raj Nagar, Loni",P7HR+92R,Ghaziabad,201102,Uttar Pradesh,IN,https://www.google.com/maps/place/Makki+Masjid+Gali+No+2+aur+3/data=!4m7!3m6!1s0x390cf96d3f598423:0x2e0e15946b9dd069!8m2!3d28.7284842!4d77.2900033!16s%2Fg%2F11sc1qytgn!19sChIJI4RZP235DDkRadCda5QVDi4?authuser=0&hl=en&rclk=1,"28.7284842,77.2900033"
Qureshian Masjid,Mosque,"Q73Q+2H4 Qureshian Masjid, Gali Number 1, Loni Dehat, Uttar Pradesh 201102",Loni Dehat,"Q73Q+2H4, Gali Number 1",,201102,Uttar Pradesh,IN,https://www.google.com/maps/place/Qureshian+Masjid/data=!4m7!3m6!1s0x390cf9d82e5f0c3b:0x539af06219ba6aeb!8m2!3d28.7525076!4d77.2889607!16s%2Fg%2F11rfp3hn45!19sChIJOwxfLtj5DDkR62q6GWLwmlM?authuser=0&hl=en&rclk=1,"28.752507599999998,77.28896069999999"
Bilal masjid,Mosque,"Q7C8+43P Bilal masjid, Loni, Haqiqatpur Urf Khudawas, Ghaziabad, Uttar Pradesh 201102",Loni,Q7C8+43P,"Haqiqatpur Urf Khudawas, Ghaziabad",201102,Uttar Pradesh,IN,https://www.google.com/maps/place/Bilal+masjid/data=!4m7!3m6!1s0x390cff5c799695fd:0x233affbe25ea1602!8m2!3d28.7703465!4d77.2652083!16s%2Fg%2F11rgny_qc7!19sChIJ_ZWWeVz_DDkRAhbqJb7_OiM?authuser=0&hl=en&rclk=1,"28.7703465,77.2652083"
Rasheeda masjid,Mosque,"Rasheeda masjid, Loni, Pavi Sadakpur, Uttar Pradesh 201102",Loni,,Pavi Sadakpur,201102,Uttar Pradesh,IN,https://www.google.com/maps/place/Rasheeda+masjid/data=!4m7!3m6!1s0x390cff2af8b4bdff:0x91681999e586d989!8m2!3d28.7728475!4d77.2760771!16s%2Fg%2F11jh94p42d!19sChIJ_720-Cr_DDkRidmG5ZkZaJE?authuser=0&hl=en&rclk=1,"28.772847499999997,77.2760771"
Loni,Mosque,"P7JX+WHJ Loni, Sangam Vihar, Raj Nagar, Loni, Ghaziabad, Uttar Pradesh 201102","Sangam Vihar, Raj Nagar, Loni",P7JX+WHJ,Ghaziabad,201102,Uttar Pradesh,IN,https://www.google.com/maps/place/Loni/data=!4m7!3m6!1s0x390cf92fe5f9bee9:0x5c2ef1df68f1b9fe!8m2!3d28.7323342!4d77.2988769!16s%2Fg%2F11rv5fdtgq!19sChIJ6b755S_5DDkR_rnxaN_xLlw?authuser=0&hl=en&rclk=1,"28.7323342,77.2988769"
Baraye tamir mahmudiya masjid,Mosque,"Q77M+5R8 Baraye tamir mahmudiya masjid, Ahmad nagar, Ashok Vihar, fhase 2, Loni, Ghaziabad, Uttar Pradesh 201102","Ashok Vihar, fhase 2, Loni","Q77M+5R8, Ahmad nagar",Ghaziabad,201102,Uttar Pradesh,IN,https://www.google.com/maps/place/Baraye+tamir+mahmudiya+masjid/data=!4m7!3m6!1s0x390cff9145f154bf:0xdd13c785ce3577d!8m2!3d28.7629208!4d77.2845865!16s%2Fg%2F11p56fs9rq!19sChIJv1TxRZH_DDkRfVfjXHg80Q0?authuser=0&hl=en&rclk=1,"28.7629208,77.2845865"
Abbubakar masjid,Mosque,"Q832+365 Abbubakar masjid, Abbubakar Masjid Rd, Loni Dehat, Ghaziabad, Uttar Pradesh 201102",Loni Dehat,"Q832+365, Abbubakar Masjid Rd",Ghaziabad,201102,Uttar Pradesh,IN,https://www.google.com/maps/place/Abbubakar+masjid/data=!4m7!3m6!1s0x390cf9aeef5b516d:0xc2ea0e01a0dcc9d1!8m2!3d28.7526391!4d77.3005995!16s%2Fg%2F11h07wtynk!19sChIJbVFb7675DDkR0cncoAEO6sI?authuser=0&hl=en&rclk=1,"28.7526391,77.30059949999999"
Alwar Nagar madina masjid Loni Ghaziabad,Home help,"P7VG+6MG Alwar Nagar madina masjid Loni Ghaziabad, Alvi Nagar, Nasbandi Colony, Loni, Ghaziabad, Uttar Pradesh 201102","Alvi Nagar, Nasbandi Colony",P7VG+6MG,"Loni, Ghaziabad",201102,Uttar Pradesh,IN,https://www.google.com/maps/place/Alwar+Nagar+madina+masjid+Loni+Ghaziabad/data=!4m7!3m6!1s0x390cff23f10f8fc7:0xd94371380b51d66b!8m2!3d28.743077!4d77.276651!16s%2Fg%2F11rtvjh4g5!19sChIJx48P8SP_DDkRa9ZRCzhxQ9k?authuser=0&hl=en&rclk=1,"28.743077,77.276651"
Kutub masjid,Mosque,"P8Q4+J3R Kutub masjid, Street Number 2, Loni, Ghaziabad, Uttar Pradesh 201102",Loni,"P8Q4+J3R, Street Number 2",Ghaziabad,201102,Uttar Pradesh,IN,https://www.google.com/maps/place/Kutub+masjid/data=!4m7!3m6!1s0x390cf9c80f66d1a7:0x23b0f8b7928d2a0f!8m2!3d28.7391035!4d77.305148!16s%2Fg%2F11ll3tn10m!19sChIJp9FmD8j5DDkRDyqNkrf4sCM?authuser=0&hl=en&rclk=1,"28.7391035,77.305148"
Klaa Masjid,Mosque,"Q72Q+C6M Klaa Masjid, Loni, Ghaziabad, Uttar Pradesh 201102",Loni,Q72Q+C6M,Ghaziabad,201102,Uttar Pradesh,IN,https://www.google.com/maps/place/Klaa+Masjid/data=!4m7!3m6!1s0x390cf924369e8c47:0xb5cfca80167feecb!8m2!3d28.7510875!4d77.2880329!16s%2Fg%2F11rw901ty2!19sChIJR4yeNiT5DDkRy-5_FoDKz7U?authuser=0&hl=en&rclk=1,"28.751087499999997,77.28803289999999"
Julla wali masjid gauri patti,Mosque,"Q72R+V3J Julla wali masjid gauri patti, Loni Dehat, Uttar Pradesh 201102",Loni Dehat,Q72R+V3J,,201102,Uttar Pradesh,IN,https://www.google.com/maps/place/Julla+wali+masjid+gauri+patti/data=!4m7!3m6!1s0x390cf955fdad368f:0x71869699ee0742fa!8m2!3d28.7522008!4d77.2901296!16s%2Fg%2F11rs05cskz!19sChIJjzat_VX5DDkR-kIH7pmWhnE?authuser=0&hl=en&rclk=1,"28.752200799999997,77.2901296"
Maqsudiya Masjid,Mosque,"Maqsudiya Masjid, Malik city, Phase 2, Loni, Ghaziabad, Uttar Pradesh 201102","Phase 2, Loni",Malik city,Ghaziabad,201102,Uttar Pradesh,IN,https://www.google.com/maps/place/Maqsudiya+Masjid/data=!4m7!3m6!1s0x390cf917128a0c35:0xf88dbf31c8b7a655!8m2!3d28.7627182!4d77.2996921!16s%2Fg%2F11lhv019z5!19sChIJNQyKEhf5DDkRVaa3yDG_jfg?authuser=0&hl=en&rclk=1,"28.7627182,77.2996921"
Noorani Masjid,Mosque,"Q72P+QMX Noorani Masjid, Unnamed Road, Loni Dehat, Uttar Pradesh 201102",Loni Dehat,"Q72P+QMX, Unnamed Road",,201102,Uttar Pradesh,IN,https://www.google.com/maps/place/Noorani+Masjid/data=!4m7!3m6!1s0x390cf997983ca995:0x5e7463185fc2f65f!8m2!3d28.751986!4d77.286747!16s%2Fg%2F11nn0zkr1h!19sChIJlak8mJf5DDkRX_bCXxhjdF4?authuser=0&hl=en&rclk=1,"28.751986,77.28674699999999"
Tauheed Masjid,Mosque,"Q72R+QPW Tauheed Masjid, Gauri Patti, Loni Dehat, Ghaziabad, Uttar Pradesh 201102",Loni Dehat,"Q72R+QPW Tauheed Masjid, Gauri Patti",Ghaziabad,201102,Uttar Pradesh,IN,https://www.google.com/maps/place/Tauheed+Masjid/data=!4m7!3m6!1s0x390cf95a97d0e6e9:0xa341f49d18e0e92f!8m2!3d28.7519862!4d77.2918161!16s%2Fg%2F11pt_9ckxl!19sChIJ6ebQl1r5DDkRL-ngGJ30QaM?authuser=0&hl=en&rclk=1,"28.751986199999997,77.29181609999999"
Hamza Mosque,Mosque,"P7WV+XQ3 Hamza Mosque, Ikram Nagar, Loni Dehat, Uttar Pradesh 201102","Ikram Nagar, Loni Dehat",P7WV+XQ3,,,Uttar Pradesh,IN,https://www.google.com/maps/place/Hamza+Mosque/data=!4m7!3m6!1s0x390cf929fa30d2ad:0xcffe259e0edf2fd1!8m2!3d28.7473833!4d77.2944188!16s%2Fg%2F11h87j8hzq!19sChIJrdIw-in5DDkR0S_fDp4l_s8?authuser=0&hl=en&rclk=1,"28.7473833,77.2944188"
Madina Masjid,Mosque,"P7XV+936 Madina Masjid, Mustafabad, Uttar Pradesh 201102",Mustafabad,P7XV+936,,201102,Uttar Pradesh,IN,https://www.google.com/maps/place/Madina+Masjid/data=!4m7!3m6!1s0x390cf935141eb22d:0x5aca56fced335388!8m2!3d28.7484049!4d77.2926478!16s%2Fg%2F11n10c8s3_!19sChIJLbIeFDX5DDkRiFMz7fxWylo?authuser=0&hl=en&rclk=1,"28.748404899999997,77.2926478"
20 FUTA AYESHA MASJID,Mosque,"20 FUTA AYESHA MASJID, 699, 20 Futa Rd, Saraswati Vihar, Loni, Ghaziabad, Uttar Pradesh 201102","Saraswati Vihar, Loni","699, 20 Futa Rd",Ghaziabad,201102,Uttar Pradesh,IN,https://www.google.com/maps/place/20+FUTA+AYESHA+MASJID/data=!4m7!3m6!1s0x390cf946850b5025:0x21d91188de92e10c!8m2!3d28.7409192!4d77.301409!16s%2Fg%2F11f3jdjhbf!19sChIJJVALhUb5DDkRDOGS3ogR2SE?authuser=0&hl=en&rclk=1,"28.7409192,77.30140899999999"
Ayesha Masjid,Mosque,"Q78J+96M Ayesha Masjid, Rameshwar Park, Indrapuri, Uttar Pradesh 201102","Rameshwar Park, Indrapuri",Q78J+96M,,201102,Uttar Pradesh,IN,https://www.google.com/maps/place/Ayesha+Masjid/data=!4m7!3m6!1s0x390cff1ffca29b35:0x854041736c571c6c!8m2!3d28.7659517!4d77.2805567!16s%2Fg%2F11j00m6bxw!19sChIJNZui_B__DDkRbBxXbHNBQIU?authuser=0&hl=en&rclk=1,"28.7659517,77.28055669999999"
Aoliya Raza masjid ahle sunnat Wal jamat,Mosque,"Q72X+CCC Aoliya Raza masjid ahle sunnat Wal jamat, Chand Masjid Rd, Loni Dehat, Uttar Pradesh 201102",Loni Dehat,"Q72X+CCC, Chand Masjid Rd",,201102,Uttar Pradesh,IN,https://www.google.com/maps/place/Aoliya+Raza+masjid+ahle+sunnat+Wal+jamat/data=!4m7!3m6!1s0x390cf92a067289f5:0x2c5c4e9340235344!8m2!3d28.7510694!4d77.2985188!16s%2Fg%2F11mw0hkrt5!19sChIJ9YlyBir5DDkRRFMjQJNOXCw?authuser=0&hl=en&rclk=1,"28.7510694,77.2985188"
Rehmani masjid,Mosque,"P7W7+Q5Q Rehmani masjid, New Sarla Vihar, Loni, Ghaziabad, Uttar Pradesh 201102","New Sarla Vihar, Loni",P7W7+Q5Q,Ghaziabad,201102,Uttar Pradesh,IN,https://www.google.com/maps/place/Rehmani+masjid/data=!4m7!3m6!1s0x390cffc07809719d:0x6cff55e59dd1db39!8m2!3d28.74696!4d77.2629999!16s%2Fg%2F11t805tvb8!19sChIJnXEJeMD_DDkROdvRneVV_2w?authuser=0&hl=en&rclk=1,"28.746959999999998,77.2629999"
Mosque Madina,Mosque,"Mosque Madina, 292/3, Loni Ghaziabad Rd, Shanti Vihar, Tila Shahbazpur, Behta Hajipur, Ghaziabad, Uttar Pradesh 201102","Shanti Vihar, Tila Shahbazpur, Behta Hajipur","292/3, Loni Ghaziabad Rd",Ghaziabad,201102,Uttar Pradesh,IN,https://www.google.com/maps/place/Mosque+Madina/data=!4m7!3m6!1s0x390cf959c1f10879:0xa8d37c3b2303ecac!8m2!3d28.7294167!4d77.3064803!16s%2Fg%2F11rxsm3svs!19sChIJeQjxwVn5DDkRrOwDIzt806g?authuser=0&hl=en&rclk=1,"28.729416699999998,77.30648029999999"
Chhoti Masjid,Mosque,"Q72P+8WH Chhoti Masjid, Loni Dehat, Uttar Pradesh 201102",Loni Dehat,Q72P+8WH,,201102,Uttar Pradesh,IN,https://www.google.com/maps/place/Chhoti+Masjid/data=!4m7!3m6!1s0x390cf9929b34a875:0xca73b276a7900c9a!8m2!3d28.7508114!4d77.2873615!16s%2Fg%2F11q99jpw26!19sChIJdag0m5L5DDkRmgyQp3ayc8o?authuser=0&hl=en&rclk=1,"28.7508114,77.2873615"
Noorani Mustafa masjid,Mosque,"Q77P+6Q9 Noorani Mustafa masjid, 30 Foota Rd, Ashok Vihar, jain colony, Loni, Ghaziabad, Uttar Pradesh 201102","Ashok Vihar, jain colony, Loni","Q77P+6Q9, 30 Foota Rd",Ghaziabad,201102,Uttar Pradesh,IN,https://www.google.com/maps/place/Noorani+Mustafa+masjid/data=!4m7!3m6!1s0x390cf940a06c5f6f:0x3d1b7ae7691ab85!8m2!3d28.7630413!4d77.2869995!16s%2Fg%2F11p6yf4c9p!19sChIJb19soED5DDkRhauRdq630QM?authuser=0&hl=en&rclk=1,"28.763041299999998,77.2869995"
Sitara masjid,Mosque,"Sitara masjid, D block sudhir enclave Rampark haqiqatpur, khudabas, Loni, Ghaziabad",Loni,"D block sudhir enclave Rampark haqiqatpur, khudabas",Ghaziabad,,Uttar Pradesh,IN,https://www.google.com/maps/place/Sitara+masjid/data=!4m7!3m6!1s0x390cff7db38ae8f3:0xc6216fa3b9f8b247!8m2!3d28.7721971!4d77.265503!16s%2Fg%2F11sclb5zb3!19sChIJ8-iKs33_DDkRR7L4uaNvIcY?authuser=0&hl=en&rclk=1,"28.7721971,77.265503"
20 FUTA AYESHA MASJID,Mosque,"20 FUTA AYESHA MASJID, 6, Loni Ghaziabad Rd, Geetanjali Vihar, Loni, Ghaziabad, Uttar Pradesh 201102","Geetanjali Vihar, Loni","6, Loni Ghaziabad Rd",Ghaziabad,201102,Uttar Pradesh,IN,https://www.google.com/maps/place/20+FUTA+AYESHA+MASJID/data=!4m7!3m6!1s0x390cf941743b75af:0x8a1a5b81e8250bb9!8m2!3d28.7418943!4d77.3063532!16s%2Fg%2F11hbbps501!19sChIJr3U7dEH5DDkRuQsl6IFbGoo?authuser=0&hl=en&rclk=1,"28.7418943,77.30635319999999"
Wahidiya masjid,Mosque,"Wahidiya masjid, Wahidiya chowk, 50 Feet Rd, naseeb vihar, Loni, Ghaziabad, Uttar Pradesh 201102","naseeb vihar, Loni","Wahidiya chowk, 50 Feet Rd",Ghaziabad,201102,Uttar Pradesh,IN,https://www.google.com/maps/place/Wahidiya+masjid/data=!4m7!3m6!1s0x390cff45ec21677f:0x36055060240ccdfd!8m2!3d28.7654984!4d77.2672907!16s%2Fg%2F11vds9wy_b!19sChIJf2ch7EX_DDkR_c0MJGBQBTY?authuser=0&hl=en&rclk=1,"28.7654984,77.26729069999999"
Maqqi masjid,Mosque,"Maqqi masjid, khushal park, Chand Market, Main Road, Loni, Ghaziabad, Uttar Pradesh 201102",Loni,"khushal park, Chand Market, Main Road",Ghaziabad,201102,Uttar Pradesh,IN,https://www.google.com/maps/place/Maqqi+masjid/data=!4m7!3m6!1s0x390cff5e0ec94889:0x5f11a2cfa7f2d1f6!8m2!3d28.7591698!4d77.2711527!16s%2Fg%2F11q57z_dlr!19sChIJiUjJDl7_DDkR9tHyp8-iEV8?authuser=0&hl=en&rclk=1,"28.7591698,77.2711527"
Fatima Masjid,Mosque,"Q79J+VX5 Fatima Masjid, Loni Dehat, Pavi Sadakpur, Uttar Pradesh 201102",Loni Dehat,Q79J+VX5,Pavi Sadakpur,201102,Uttar Pradesh,IN,https://www.google.com/maps/place/Fatima+Masjid/data=!4m7!3m6!1s0x390cff05f48d3dbf:0xe9bdeffe9d89483d!8m2!3d28.7694265!4d77.2827311!16s%2Fg%2F11s8zdslb2!19sChIJvz2N9AX_DDkRPUiJnf7vvek?authuser=0&hl=en&rclk=1,"28.769426499999998,77.28273109999999"
Rja Masjid(mosque),School,"Q72X+98C Rja Masjid(mosque), Unnamed Road, Loni Dehat, Uttar Pradesh 201102",Loni Dehat,"Q72X+98C, Unnamed Road",,201102,Uttar Pradesh,IN,https://www.google.com/maps/place/Rja+Masjid%28mosque%29/data=!4m7!3m6!1s0x390cf93d9e2added:0xe3e24ebd8d4f1c0e!8m2!3d28.750943!4d77.2982506!16s%2Fg%2F11g1kt693q!19sChIJ7d0qnj35DDkRDhxPjb1O4uM?authuser=0&hl=en&rclk=1,"28.750943,77.2982506"
Dr.Ahmed clinic,Mosque,"P7XX+V66 Dr.Ahmed clinic, Chand Masjid Rd, Loni Dehat, Uttar Pradesh 201102",Loni Dehat,"P7XX+V66, Chand Masjid Rd",,201102,Uttar Pradesh,IN,https://www.google.com/maps/place/Dr.Ahmed+clinic/data=!4m7!3m6!1s0x390cf975ea90ff95:0x7727995d91835fb2!8m2!3d28.7496652!4d77.2980228!16s%2Fg%2F11p678nxt1!19sChIJlf-Q6nX5DDkRsl-DkV2ZJ3c?authuser=0&hl=en&rclk=1,"28.7496652,77.2980228"
