name,main_category,address,address_ward,address_street,address_city,address_postal_code,address_state,address_country_code,link,coordinates
Gulzaar Masjid,Mosque,"MGCR+66Q Gulzaar Masjid, Bokkalguda St, Brahmanwadi, Adilabad, Telangana 504001",Brahmanwadi,"MGCR+66Q, Bokkalguda St",Adilabad,504001,Telangana,IN,https://www.google.com/maps/place/Gulzaar+Masjid/data=!4m7!3m6!1s0x3bd25c7477d00337:0x3dc61fe7489f62b1!8m2!3d19.6704596!4d78.5395986!16s%2Fg%2F1tcz6sjz!19sChIJNwPQd3Rc0jsRsWKfSOcfxj0?authuser=0&hl=en&rclk=1,"19.670459599999997,78.53959859999999"
Masjid-E-Taneem,Mosque,"MG8P+GJ2 Masjid-E-Taneem, Shanti Nagar, Adilabad, Telangana 504001",Shanti Nagar,MG8P+GJ2,Adilabad,504001,Telangana,IN,https://www.google.com/maps/place/Masjid-E-Taneem/data=!4m7!3m6!1s0x3bd25c7196951817:0xe1695f659d337d7!8m2!3d19.6662707!4d78.5365283!16s%2Fg%2F11c52zx1f3!19sChIJFxiVlnFc0jsR1zfTWfaVFg4?authuser=0&hl=en&rclk=1,"19.6662707,78.5365283"
Masjid Panjesha,Mosque,"Masjid Panjesha, masjid, panjesha marg, Bhainsa, Telangana 504103",,"masjid, panjesha marg",Bhainsa,,Telangana,IN,https://www.google.com/maps/place/Masjid+Panjesha/data=!4m7!3m6!1s0x3bcdfe45594b318b:0xa9a4527a0d3bdd4e!8m2!3d19.1114013!4d77.9614446!16s%2Fg%2F11xfvxc4m!19sChIJizFLWUX-zTsRTt07DXpSpKk?authuser=0&hl=en&rclk=1,"19.1114013,77.9614446"
Masjid e Noor Khursheed Nagar,Mosque,"Masjid e Noor Khursheed Nagar, khursheed Nagar, Adilabad, Telangana 504001",khursheed Nagar,,Adilabad,,Telangana,IN,https://www.google.com/maps/place/Masjid+e+Noor+Khursheed+Nagar/data=!4m7!3m6!1s0x3bd25b7f77891187:0xd64d9d2522c68201!8m2!3d19.6780656!4d78.5199255!16s%2Fg%2F1pp2x6dd1!19sChIJhxGJd39b0jsRAYLGIiWdTdY?authuser=0&hl=en&rclk=1,"19.6780656,78.5199255"
Mohammadia Masjid,Mosque,"MGFH+M8P Mohammadia Masjid, NH 44, Vidya Nagar, Adilabad, Telangana 504001",Vidya Nagar,"MGFH+M8P, NH 44",Adilabad,504001,Telangana,IN,https://www.google.com/maps/place/Mohammadia+Masjid/data=!4m7!3m6!1s0x3bd25c7892a2eb3b:0x89c3b0daf8ff360!8m2!3d19.6742243!4d78.5283275!16s%2Fg%2F1tjz1t_5!19sChIJO-uiknhc0jsRYPOPrw07nAg?authuser=0&hl=en&rclk=1,"19.6742243,78.5283275"
Masjid_E_Quba,Mosque,"Masjid_E_Quba, 2-5-216, beside Masjid E Quba Khila, Mohalla Badh, Adilabad, Telangana 504001",Mohalla Badh,"2-5-216, beside Masjid E Quba Khila",Adilabad,504001,Telangana,IN,https://www.google.com/maps/place/Masjid_E_Quba/data=!4m7!3m6!1s0x3bd25bedeaaaaaab:0xe29f9a411d92289b!8m2!3d19.6793188!4d78.5406475!16s%2Fg%2F11bwkvtnj8!19sChIJq6qq6u1b0jsRmyiSHUGan-I?authuser=0&hl=en&rclk=1,"19.6793188,78.54064749999999"
Masjid-e-Meraj,Mosque,"Masjid-e-Meraj, Police lane, Sanjay Nagar, Adilabad, Bhattisavargaon, Telangana 504001",Sanjay Nagar,Police lane,"Adilabad, Bhattisavargaon",504001,Telangana,IN,https://www.google.com/maps/place/Masjid-e-Meraj/data=!4m7!3m6!1s0x3bd25c80a40634d7:0x99b706696d47a613!8m2!3d19.6674917!4d78.5163997!16s%2Fg%2F1tr7b846!19sChIJ1zQGpIBc0jsRE6ZHbWkGt5k?authuser=0&hl=en&rclk=1,"19.6674917,78.5163997"
Masjid E Abubaker,Mosque,"MG8V+54F Masjid E Abubaker, Shanti Nagar, Adilabad, Telangana 504001",Shanti Nagar,MG8V+54F,Adilabad,504001,Telangana,IN,https://www.google.com/maps/place/Masjid+E+Abubaker/data=!4m7!3m6!1s0x3bd25c72afd994d1:0x55e84f035f33b282!8m2!3d19.6654385!4d78.542794!16s%2Fg%2F11c1wsmygw!19sChIJ0ZTZr3Jc0jsRgrIzXwNP6FU?authuser=0&hl=en&rclk=1,"19.6654385,78.542794"
Jama Masjid,Mosque,"9WF4+RQQ Jama Masjid, Jainoor, Telangana 504313",,9WF4+RQQ,Jainoor,504313,Telangana,IN,https://www.google.com/maps/place/Jama+Masjid/data=!4m7!3m6!1s0x3bd29a35900ac135:0x7391ef599ce08a2c!8m2!3d19.3745916!4d78.9069837!16s%2Fg%2F11f34m3m7b!19sChIJNcEKkDWa0jsRLIrgnFnvkXM?authuser=0&hl=en&rclk=1,"19.3745916,78.9069837"
Madina Masjid mdynh msjd,Mosque,"MGCJ+GX8 Madina Masjid mdynh msjd, Netaji Chowk Rd, Ponnar, Bhuktapur, Telangana 504001",Ponnar,"MGCJ+GX8, Netaji Chowk Rd",Bhuktapur,504001,Telangana,IN,https://www.google.com/maps/place/Madina+Masjid+%D9%85%D8%AF%DB%8C%D9%86%DB%81+%D9%85%D8%B3%D8%AC%D8%AF%E2%80%AD/data=!4m7!3m6!1s0x3bd25c7742dd0b05:0xf2fb259a889bfa78!8m2!3d19.6712846!4d78.5324561!16s%2Fg%2F11fzzxxq7l!19sChIJBQvdQndc0jsRePqbiJol-_I?authuser=0&hl=en&rclk=1,"19.6712846,78.53245609999999"
Fathima Masjid,Mosque,"MGFF+676 Fathima Masjid, Sanjay Nagar, Adilabad, Telangana 504001",Sanjay Nagar,MGFF+676,Adilabad,504001,Telangana,IN,https://www.google.com/maps/place/Fathima+Masjid/data=!4m7!3m6!1s0x3bd25c7fa619132f:0x3fc5279c8cd8c162!8m2!3d19.6730467!4d78.5231404!16s%2Fg%2F11g65c9p2q!19sChIJLxMZpn9c0jsRYsHYjJwnxT8?authuser=0&hl=en&rclk=1,"19.6730467,78.5231404"
MASJID-E-Bilal,Mosque,"MGHQ+H25 MASJID-E-Bilal, Adilabad - Nagpur Rd, Panjesha, Adilabad, Telangana 504001",Panjesha,"MGHQ+H25, Adilabad - Nagpur Rd",Adilabad,504001,Telangana,IN,https://www.google.com/maps/place/MASJID-E-Bilal/data=!4m7!3m6!1s0x3bd25b89846e6659:0x31ee36077b20474f!8m2!3d19.6788851!4d78.5375982!16s%2Fg%2F11gclzc6pn!19sChIJWWZuhIlb0jsRT0cgewc27jE?authuser=0&hl=en&rclk=1,"19.6788851,78.53759819999999"
JAMA MASJID SULTANGUDA,Mosque,"C2RR+XGF JAMA MASJID SULTANGUDA, Sultanguda, Kerimeri, Adilabad, Telangana 504313",Sultanguda,C2RR+XGF,"Kerimeri, Adilabad",,Telangana,IN,https://www.google.com/maps/place/JAMA+MASJID+SULTANGUDA/data=!4m7!3m6!1s0x3bd2bd475cdd2b39:0x2b52fccf2d27bcc0!8m2!3d19.4424339!4d79.0413029!16s%2Fg%2F11d_5drtt9!19sChIJOSvdXEe90jsRwLwnLc_8Uis?authuser=0&hl=en&rclk=1,"19.442433899999997,79.04130289999999"
MADEENA MASJID ECHODA,Mosque,"CFG3+256 MADEENA MASJID ECHODA, Ichoda, Telangana 504307",,CFG3+256,Ichoda,504307,Telangana,IN,https://www.google.com/maps/place/MADEENA+MASJID+ECHODA/data=!4m7!3m6!1s0x3bd26f98044820f1:0xb0592db733389086!8m2!3d19.42503!4d78.4529037!16s%2Fg%2F11c3tqr4t1!19sChIJ8SBIBJhv0jsRhpA4M7ctWbA?authuser=0&hl=en&rclk=1,"19.42503,78.4529037"
Jama E Masjid,Mosque,"JXF4+3C9 Jama E Masjid, Pudur, Telangana 505501",,JXF4+3C9,Pudur,505501,Telangana,IN,https://www.google.com/maps/place/Jama+E+Masjid/data=!4m7!3m6!1s0x3bcd190a11418efd:0xe34e9c87a84f255e!8m2!3d18.6226702!4d78.9561147!16s%2Fg%2F11g9h0x0_h!19sChIJ_Y5BEQoZzTsRXiVPqIecTuM?authuser=0&hl=en&rclk=1,"18.622670199999998,78.9561147"
Masjid-e-Mohammadia,Mosque,"3V66+WV3 Masjid-e-Mohammadia, Ponnal, Telangana 502277",,3V66+WV3,Ponnal,502277,Telangana,IN,https://www.google.com/maps/place/Masjid-e-Mohammadia/data=!4m7!3m6!1s0x3bcc92f4a1acebc3:0xe8ab0a3c98ad5a6c!8m2!3d18.0622664!4d78.8621794!16s%2Fg%2F11c52ls6lx!19sChIJw-usofSSzDsRbFqtmDwKq-g?authuser=0&hl=en&rclk=1,"18.0622664,78.8621794"
Masjid,Mosque,"HFPR+4Q8 Masjid, Adilabad, Telangana 504308",,HFPR+4Q8,Adilabad,504308,Telangana,IN,https://www.google.com/maps/place/Masjid/data=!4m7!3m6!1s0x3bd25d5bfe1eb429:0x753a217332ff9baa!8m2!3d19.5852914!4d78.4919588!16s%2Fg%2F11dxq2d28t!19sChIJKbQe_ltd0jsRqpv_MnMhOnU?authuser=0&hl=en&rclk=1,"19.5852914,78.49195879999999"
Madarsa al Arabiya Bait ul Uloom & Masjid e Rahmania,Mosque,"8FWM+597 Madarsa al Arabiya Bait ul Uloom & Masjid e Rahmania, MG Rd, Kagaznagar, Telangana 504296",,"8FWM+597, MG Rd",Kagaznagar,504296,Telangana,IN,https://www.google.com/maps/place/Madarsa+al+Arabiya+Bait+ul+Uloom+%26+Masjid+e+Rahmania/data=!4m7!3m6!1s0x3a2d56ba940d6e41:0xa09cb1cd9452c8a6!8m2!3d19.345412!4d79.4834169!16s%2Fg%2F11bw5xmyn4!19sChIJQW4NlLpWLToRpshSlM2xnKA?authuser=0&hl=en&rclk=1,"19.345412,79.4834169"
Masjid Badar,Mosque,"MG8C+44M Masjid Badar, Rickshaw Colony, Adilabad, Telangana 504001",Rickshaw Colony,MG8C+44M,Adilabad,504001,Telangana,IN,https://www.google.com/maps/place/Masjid+Badar/data=!4m7!3m6!1s0x3bd25c878e7870c1:0x8e24c92e23dce198!8m2!3d19.6653455!4d78.5202985!16s%2Fg%2F11bbrlytdq!19sChIJwXB4jodc0jsRmOHcIy7JJI4?authuser=0&hl=en&rclk=1,"19.6653455,78.5202985"
Masjid e Noor,Mosque,"976M+99C Masjid e Noor, Asifabad, Telangana 504293",,976M+99C,Asifabad,504293,Telangana,IN,https://www.google.com/maps/place/Masjid+e+Noor/data=!4m7!3m6!1s0x3bd2aea5cbc568eb:0x5aed9b5568109c20!8m2!3d19.3609381!4d79.283388!16s%2Fg%2F11cjj4r8cv!19sChIJ62jFy6Wu0jsRIJwQaFWb7Vo?authuser=0&hl=en&rclk=1,"19.3609381,79.283388"
Osman Masjid,Mosque,"4X47+RJX Osman Masjid, Asad Baba Nagar, Bhainsa, Telangana 504103",Asad Baba Nagar,4X47+RJX,Bhainsa,504103,Telangana,IN,https://www.google.com/maps/place/Osman+Masjid/data=!4m7!3m6!1s0x3bcdfe5b6bc0025d:0x854fb770d38fd2a3!8m2!3d19.107103!4d77.9641068!16s%2Fg%2F11cn6jvztk!19sChIJXQLAa1v-zTsRo9KP03C3T4U?authuser=0&hl=en&rclk=1,"19.107103,77.9641068"
masjid e noor,Mosque,"MG4Q+H92 masjid e noor, Sri Rama Colony, Adilabad, Telangana 504001",Sri Rama Colony,MG4Q+H92,Adilabad,504001,Telangana,IN,https://www.google.com/maps/place/masjid+e+noor/data=!4m7!3m6!1s0x3bd25c6bd009a42f:0x83777eaad70e454d!8m2!3d19.6563983!4d78.5384053!16s%2Fg%2F11c5t1smfj!19sChIJL6QJ0Gtc0jsRTUUO16p-d4M?authuser=0&hl=en&rclk=1,"19.6563983,78.5384053"
Masjid e Bilala,Mosque,"Masjid e Bilala, Adilabad-Asifabad Rd, Jainoor, Telangana 504313",,Adilabad-Asifabad Rd,Jainoor,504313,Telangana,IN,https://www.google.com/maps/place/Masjid+e+Bilala/data=!4m7!3m6!1s0x3bd29bb7204a9e0f:0x706dab2553f72b79!8m2!3d19.3750134!4d78.9120455!16s%2Fg%2F11f6qq3rwz!19sChIJD55KILeb0jsReSv3UyWrbXA?authuser=0&hl=en&rclk=1,"19.3750134,78.91204549999999"
Jama Masjid,Mosque,"GJ2X+6JW Jama Masjid, Keslaguda, Telangana 504346",,GJ2X+6JW,Keslaguda,504346,Telangana,IN,https://www.google.com/maps/place/Jama+Masjid/data=!4m7!3m6!1s0x3bd261f970258be5:0x54b1787a0dcfac1b!8m2!3d19.5006085!4d78.6490645!16s%2Fg%2F11b6c8wzlm!19sChIJ5YslcPlh0jsRG6zPDXp4sVQ?authuser=0&hl=en&rclk=1,"19.5006085,78.6490645"
Masjid-e-hanfia,Mosque,"MGPM+2C4 Masjid-e-hanfia, Kranti Nagar, Gandhi Nagar, Adilabad, Telangana 504001","Kranti Nagar, Gandhi Nagar",MGPM+2C4,Adilabad,504001,Telangana,IN,https://www.google.com/maps/place/Masjid-e-hanfia/data=!4m7!3m6!1s0x3bd25b8fa218f2e1:0x18f2829bdf51eaf4!8m2!3d19.6850231!4d78.5335857!16s%2Fg%2F11dd_qtmkm!19sChIJ4fIYoo9b0jsR9OpR35uC8hg?authuser=0&hl=en&rclk=1,"19.6850231,78.5335857"
Mosque CKDR,Mosque,"R32W+GGP Mosque CKDR, Chilvakodur, Telangana 505532",,R32W+GGP,Chilvakodur,505532,Telangana,IN,https://www.google.com/maps/place/Mosque+CKDR/data=!4m7!3m6!1s0x3bcd3f73b2e10561:0xb05753a7af11049e!8m2!3d18.8013409!4d79.0963389!16s%2Fg%2F11gm8p209y!19sChIJYQXhsnM_zTsRngQRr6dTV7A?authuser=0&hl=en&rclk=1,"18.8013409,79.09633889999999"
Masjid-E- Rahimaniya,Mosque,"MGRR+5G5 Masjid-E- Rahimaniya, Tirupally, Adilabad, Telangana 504001",Tirupally,MGRR+5G5,Adilabad,504001,Telangana,IN,https://www.google.com/maps/place/Masjid-E-+Rahimaniya/data=!4m7!3m6!1s0x3bd25ba3e27d5519:0x3ff2f3403e845bff!8m2!3d19.6903884!4d78.5413572!16s%2Fg%2F11gmblynz2!19sChIJGVV94qNb0jsR_1uEPkDz8j8?authuser=0&hl=en&rclk=1,"19.6903884,78.5413572"
Jama Masjid Gundaram ahle hadees,Mosque,"Jama Masjid Gundaram ahle hadees, Siddipet dist, Gundaram, Telangana 505528",,Siddipet dist,Gundaram,505528,Telangana,IN,https://www.google.com/maps/place/Jama+Masjid+Gundaram+ahle+hadees/data=!4m7!3m6!1s0x3bcce9b18fa10925:0x2ef35f5d42be5ab0!8m2!3d18.2445375!4d78.9873906!16s%2Fg%2F11h9xn1y42!19sChIJJQmhj7HpzDsRsFq-Ql1f8y4?authuser=0&hl=en&rclk=1,"18.2445375,78.9873906"
Jama Masjid,Mosque,"Jama Masjid, Bus Station, Old, Utnur, Telangana 504311",Sevadas Nagar,"Bus Station, Old",Utnur,504311,Telangana,IN,https://www.google.com/maps/place/Jama+Masjid/data=!4m7!3m6!1s0x3bd285b42543f7db:0xfbc9083caa3eda41!8m2!3d19.3679744!4d78.7738921!16s%2Fg%2F11c2p12cr7!19sChIJ2_dDJbSF0jsRQdo-qjwIyfs?authuser=0&hl=en&rclk=1,"19.367974399999998,78.7738921"
Masjid E Namrah,Mosque,"MGGM+7CV Masjid E Namrah, Ambedkar Chowk, Bhuktapur, Telangana 504001",,"MGGM+7CV, Ambedkar Chowk",Bhuktapur,,Telangana,IN,https://www.google.com/maps/place/Masjid+E+Namrah/data=!4m7!3m6!1s0x3bd25b8829cd21e7:0xb871a2b68c3b292c!8m2!3d19.6757458!4d78.5335363!16s%2Fg%2F11b6v0h3n3!19sChIJ5yHNKYhb0jsRLCk7jLaicbg?authuser=0&hl=en&rclk=1,"19.675745799999998,78.5335363"
Masjid -e- Dawathul Haq,Mosque,"CFH2+G89 Masjid -e- Dawathul Haq, Ichoda Main Rd, Ichoda, Telangana 504307",,"CFH2+G89, Ichoda Main Rd",Ichoda,504307,Telangana,IN,https://www.google.com/maps/place/Masjid+-e-+Dawathul+Haq/data=!4m7!3m6!1s0x3bd26fa240811f53:0x84ebb182ea5a35e4!8m2!3d19.4287993!4d78.4508528!16s%2Fg%2F11b75hw8dx!19sChIJUx-BQKJv0jsR5DVa6oKx64Q?authuser=0&hl=en&rclk=1,"19.428799299999998,78.45085279999999"
Masjid e Jamia Kausar Baswapur,Mosque,"4323+VRP Masjid e Jamia Kausar Baswapur, Baswapur, Basawapuram, Telangana 505473",,4323+VRP,"Baswapur, Basawapuram",,Telangana,IN,https://www.google.com/maps/place/Masjid+e+Jamia+Kausar+Baswapur/data=!4m7!3m6!1s0x3bccbf807622a879:0x308e2f77090849f4!8m2!3d18.1022108!4d79.0545677!16s%2Fg%2F11q8w2xcr2!19sChIJeagidoC_zDsR9EkICXcvjjA?authuser=0&hl=en&rclk=1,"18.102210799999998,79.05456769999999"
Masjid-E-Alamgir( Badi Masjid Established In 1108 Hijri ),Mosque,"C2FV+HQ7 Masjid-E-Alamgir( Badi Masjid Established In 1108 Hijri ), Elgandal, Telangana 505401",,C2FV+HQ7,Elgandal,505401,Telangana,IN,https://www.google.com/maps/place/Masjid-E-Alamgir%28+Badi+Masjid+Established+In+1108+Hijri+%29/data=!4m7!3m6!1s0x3bccde383fffffff:0xc90589e03d0637f9!8m2!3d18.4239146!4d79.0444083!16s%2Fg%2F11f15n60yc!19sChIJ____PzjezDsR-TcGPeCJBck?authuser=0&hl=en&rclk=1,"18.4239146,79.0444083"
MASJID E ARFA,Mosque,"FV69+7J9 MASJID E ARFA, Thippapuram, Vemulawada, Telangana 505302",,FV69+7J9,"Thippapuram, Vemulawada",505302,Telangana,IN,https://www.google.com/maps/place/MASJID+E+ARFA/data=!4m7!3m6!1s0x3bcce2917e587699:0x882177aec67d11c!8m2!3d18.4606637!4d78.8691028!16s%2Fg%2F11g8wht5y7!19sChIJmXZYfpHizDsRHNFn7HoXggg?authuser=0&hl=en&rclk=1,"18.460663699999998,78.8691028"
Masjid-E-Noor,Mosque,"9Q8G+JJX Masjid-E-Noor, Mominpura, Sevadas Nagar, Utnur, Telangana 504311","Mominpura, Sevadas Nagar",9Q8G+JJX,Utnur,,Telangana,IN,https://www.google.com/maps/place/Masjid-E-Noor/data=!4m7!3m6!1s0x3bd285b3f2afb185:0x2ec78038b9f918ae!8m2!3d19.3675545!4d78.7769558!16s%2Fg%2F1pp2tk8bd!19sChIJhbGv8rOF0jsRrhj5uTiAxy4?authuser=0&hl=en&rclk=1,"19.3675545,78.7769558"
Umar Masjid,Mosque,"MG2H+9J7 Umar Masjid, Pittalwada, Khoja Colony, Adilabad, Telangana 504001","Pittalwada, Khoja Colony",MG2H+9J7,Adilabad,504001,Telangana,IN,https://www.google.com/maps/place/Umar+Masjid/data=!4m7!3m6!1s0x3bd25c5d9e45a7ff:0xd9937a4c4bfe8c53!8m2!3d19.6509166!4d78.5290486!16s%2Fg%2F11fx95lqmp!19sChIJ_6dFnl1c0jsRU4z-S0x6k9k?authuser=0&hl=en&rclk=1,"19.6509166,78.5290486"
MASJID-E-NOORAIN,Mosque,"VCFQ+9FV MASJID-E-NOORAIN, Reddy Colony, Mancherial, Telangana 504208",Reddy Colony,VCFQ+9FV,Mancherial,504208,Telangana,IN,https://www.google.com/maps/place/MASJID-E-NOORAIN/data=!4m7!3m6!1s0x3a32cb27edba3829:0x47d4434a72563692!8m2!3d18.8734981!4d79.4386736!16s%2Fg%2F11ghnfl4km!19sChIJKTi67SfLMjoRkjZWckpD1Ec?authuser=0&hl=en&rclk=1,"18.8734981,79.4386736"
jm` msjd ndr wyly. (Jama Masjid indervelly ),Mosque,"FMVF+HC2 jm` msjd ndr wyly. (Jama Masjid indervelly ), Indervelly, Telangana 504346",,FMVF+HC2,Indervelly,504346,Telangana,IN,https://www.google.com/maps/place/%D8%AC%D8%A7%D9%85%D8%B9+%D9%85%D8%B3%D8%AC%D8%AF+%D8%A7%D9%86%D8%AF%D8%B1+%D9%88%DB%8C%D9%84%DB%8C%DB%94+%28Jama+Masjid+indervelly+%29%E2%80%AD/data=!4m7!3m6!1s0x3bd289e8469486f1:0xf56a332b39f02da9!8m2!3d19.4938815!4d78.6735064!16s%2Fg%2F11h21prn9w!19sChIJ8YaURuiJ0jsRqS3wOSszavU?authuser=0&hl=en&rclk=1,"19.4938815,78.6735064"
Masjid E IBrahimiya,Mosque,"Masjid E IBrahimiya, Shanti Nagar, Adilabad, Telangana 504001",Shanti Nagar,,Adilabad,504001,Telangana,IN,https://www.google.com/maps/place/Masjid+E+IBrahimiya/data=!4m7!3m6!1s0x3bd25d44b0027dc7:0x5b9c582e308fceb0!8m2!3d19.6688451!4d78.5432386!16s%2Fg%2F11flbsbk92!19sChIJx30CsERd0jsRsM6PMC5YnFs?authuser=0&hl=en&rclk=1,"19.6688451,78.5432386"
MASJID - E - WASIL,Mosque,"9Q7C+W9C MASJID - E - WASIL, Utnur, Telangana 504311",,9Q7C+W9C,Utnur,504311,Telangana,IN,https://www.google.com/maps/place/MASJID+-+E+-+WASIL/data=!4m7!3m6!1s0x3bd285b568212b3b:0xd48a9da29da1160e!8m2!3d19.3648093!4d78.7708923!16s%2Fg%2F11g6q_z_ty!19sChIJOyshaLWF0jsRDhahnaKditQ?authuser=0&hl=en&rclk=1,"19.364809299999997,78.7708923"
Masjid e Noorani,Mosque,"MGMQ+P66 Masjid e Noorani, Mahalaxmiwada, Adilabad, Telangana 504001",Mahalaxmiwada,MGMQ+P66,Adilabad,504001,Telangana,IN,https://www.google.com/maps/place/Masjid+e+Noorani/data=!4m7!3m6!1s0x3bd25b71656d7da1:0x9db65c4943296ea6!8m2!3d19.6842802!4d78.5380187!16s%2Fg%2F11gphd3bdg!19sChIJoX1tZXFb0jsRpm4pQ0lctp0?authuser=0&hl=en&rclk=1,"19.6842802,78.5380187"
Eid-Gah Adilabad,Mosque,"MGFH+76M Eid-Gah Adilabad, Vidya Nagar, Adilabad, Telangana 504001",Vidya Nagar,MGFH+76M,Adilabad,504001,Telangana,IN,https://www.google.com/maps/place/Eid-Gah+Adilabad/data=!4m7!3m6!1s0x3bd25dc51f70cbab:0xb53df29e2fcc553b!8m2!3d19.6732088!4d78.5280509!16s%2Fg%2F11rd28b2_c!19sChIJq8twH8Vd0jsRO1XML57yPbU?authuser=0&hl=en&rclk=1,"19.673208799999998,78.5280509"
Jamia Masjid Nangnoor,Mosque,"326Q+W4W Jamia Masjid Nangnoor, Nanganoor, Telangana 502280",,326Q+W4W,Nanganoor,502280,Telangana,IN,https://www.google.com/maps/place/Jamia+Masjid+Nangnoor/data=!4m7!3m6!1s0x3bccbfda1b1ba1cb:0xe920813f8233a421!8m2!3d18.0623576!4d79.0378342!16s%2Fg%2F11f8b287rz!19sChIJy6EbG9q_zDsRIaQzgj-BIOk?authuser=0&hl=en&rclk=1,"18.0623576,79.03783419999999"
MASJID-E-HYDAR,Mosque,"MV5W+RWQ MASJID-E-HYDAR, Dhabbutimmayapalle, Telangana 505501",,MV5W+RWQ,Dhabbutimmayapalle,505501,Telangana,IN,https://www.google.com/maps/place/MASJID-E-HYDAR/data=!4m7!3m6!1s0x3bcd1b7e3fb5171f:0x64f6493293384ebf!8m2!3d18.6595994!4d78.8973441!16s%2Fg%2F11f782v9jt!19sChIJHxe1P34bzTsRv044kzJJ9mQ?authuser=0&hl=en&rclk=1,"18.659599399999998,78.8973441"
Masjid Mohammadia,Mosque,"9QCG+VR7 Masjid Mohammadia, Utnoor Rd, Utnur, Telangana 504311",,"9QCG+VR7, Utnoor Rd",Utnur,504311,Telangana,IN,https://www.google.com/maps/place/Masjid+Mohammadia/data=!4m7!3m6!1s0x3bd285b0dc0d26a7:0xf6fa3333ae2948b7!8m2!3d19.3721507!4d78.7770528!16s%2Fg%2F11c2p105cs!19sChIJpyYN3LCF0jsRt0gprjMz-vY?authuser=0&hl=en&rclk=1,"19.3721507,78.77705279999999"
Masjid-E-Zohra,Mosque,"Masjid-E-Zohra, Masjid-E- Zohra, Ambedkar Nagar, Khanapur, Telangana 504001",Ambedkar Nagar,Masjid-E- Zohra,Khanapur,504001,Telangana,IN,https://www.google.com/maps/place/Masjid-E-Zohra/data=!4m7!3m6!1s0x3bd25dbaced23b33:0xe16af2c30b24656!8m2!3d19.6729258!4d78.5447961!16s%2Fg%2F11j000cqb1!19sChIJMzvSzrpd0jsRVkayMCyvFg4?authuser=0&hl=en&rclk=1,"19.672925799999998,78.5447961"
Mosque,Mosque,"Mosque, Devapur, Telangana 504218",,,Devapur,,Telangana,IN,https://www.google.com/maps/place/Mosque/data=!4m7!3m6!1s0x3bcd4d17c2ad90f3:0xab9c721020869a11!8m2!3d19.0355273!4d79.3571019!16s%2Fg%2F1tfzqcm7!19sChIJ85CtwhdNzTsREZqGIBBynKs?authuser=0&hl=en&rclk=1,"19.0355273,79.35710189999999"
Masjid-e- Amina,Mosque,"MGFR+G3G Masjid-e- Amina, Brahmanwadi, Adilabad, Telangana 504001",Brahmanwadi,MGFR+G3G,Adilabad,504001,Telangana,IN,https://www.google.com/maps/place/Masjid-e-+Amina/data=!4m7!3m6!1s0x3bd25ddc88f570b9:0x22cb1f0c107c4bc6!8m2!3d19.6738162!4d78.5401916!16s%2Fg%2F11k7xv923r!19sChIJuXD1iNxd0jsRxkt8EAwfyyI?authuser=0&hl=en&rclk=1,"19.673816199999997,78.5401916"
Masjid,Mosque,"X2CC+HV5 Masjid, Cherial Mandal, Akunoor, 506223",,"X2CC+HV5, Cherial Mandal",Akunoor,506223,Telangana,IN,https://www.google.com/maps/place/Masjid/data=!4m7!3m6!1s0x3bccbd7f77b35435:0x7c5b8dba74a27c47!8m2!3d17.9713949!4d79.0222368!16s%2Fg%2F12qgtpd93!19sChIJNVSzd3-9zDsRR3yidLqNW3w?authuser=0&hl=en&rclk=1,"17.9713949,79.0222368"
MASJID-E-AQSA,Mosque,"9QCM+6FG MASJID-E-AQSA, Utnur, Telangana 504311",,9QCM+6FG,Utnur,504311,Telangana,IN,https://www.google.com/maps/place/MASJID-E-AQSA/data=!4m7!3m6!1s0x3bd285ae68120e2d:0x511a2112271c67ab!8m2!3d19.3705709!4d78.7836997!16s%2Fg%2F11d_8_t86t!19sChIJLQ4SaK6F0jsRq2ccJxIhGlE?authuser=0&hl=en&rclk=1,"19.3705709,78.7836997"
Madina Masjid,Mosque,"WFH8+MCG Madina Masjid, A-Zone, Ramakrishnapur, Telangana 504301",,"WFH8+MCG, A-Zone",Ramakrishnapur,504301,Telangana,IN,https://www.google.com/maps/place/Madina+Masjid/data=!4m7!3m6!1s0x3a32b5d418c84c13:0xbc21949cc38e6a2!8m2!3d18.9291986!4d79.4660747!16s%2Fg%2F11c1s_28b6!19sChIJE0zIGNS1MjoRouY4zEkZwgs?authuser=0&hl=en&rclk=1,"18.9291986,79.4660747"
MASJID E IBRAHIMIA,Mosque,"MASJID E IBRAHIMIA, 2-5-275/1, tirpally, Adilabad, Telangana 504001",tirpally,2-5-275/1,Adilabad,504001,Telangana,IN,https://www.google.com/maps/place/MASJID+E+IBRAHIMIA/data=!4m7!3m6!1s0x3bd25b8b6628a527:0x550e60c0cd80575a!8m2!3d19.6814941!4d78.5416637!16s%2Fg%2F11f15jwjc0!19sChIJJ6UoZotb0jsRWleAzcBgDlU?authuser=0&hl=en&rclk=1,"19.6814941,78.5416637"
Madina Masjid,Mosque,"FRXW+J8M Madina Masjid, Narnoor, Telangana 504311",,FRXW+J8M,Narnoor,504311,Telangana,IN,https://www.google.com/maps/place/Madina+Masjid/data=!4m7!3m6!1s0x3bd291fb09c29f61:0x3a9088300dabf574!8m2!3d19.4990794!4d78.8457857!16s%2Fg%2F11fy93lty3!19sChIJYZ_CCfuR0jsRdPWrDTCIkDo?authuser=0&hl=en&rclk=1,"19.4990794,78.8457857"
Dharur Masjid,Mosque,"QW66+W84 Dharur Masjid, Dharur, Telangana 505455",,QW66+W84,Dharur,505455,Telangana,IN,https://www.google.com/maps/place/Dharur+Masjid/data=!4m7!3m6!1s0x3bcd13e1e5f92ff9:0xb82c685881bc10f5!8m2!3d18.7622632!4d78.9108145!16s%2Fg%2F11df0xt2lp!19sChIJ-S_55eETzTsR9RC8gVhoLLg?authuser=0&hl=en&rclk=1,"18.7622632,78.9108145"
MOSQUE,Mosque,"FW74+MMH MOSQUE, Unnamed Road, Patnapur, Telangana 504311",,"FW74+MMH, Unnamed Road",Patnapur,504311,Telangana,IN,https://www.google.com/maps/place/MOSQUE/data=!4m7!3m6!1s0x3bd29171978b6b7d:0xf6c2e30fdc4b6e09!8m2!3d19.464189!4d78.906724!16s%2Fg%2F11n_v2540n!19sChIJfWuLl3GR0jsRCW5L3A_jwvY?authuser=0&hl=en&rclk=1,"19.464188999999998,78.906724"
JAMA MASJID Patnapur,Mosque,"FV7X+CXQ JAMA MASJID Patnapur, Karimguda patnapur, distt, asifabad, Telangana",,"FV7X+CXQ, Karimguda patnapur, distt","asifabad, Nagolkonda",,Telangana,IN,https://www.google.com/maps/place/JAMA+MASJID+Patnapur/data=!4m7!3m6!1s0x3bd291e86e1a7d69:0x9834c04e32b8b593!8m2!3d19.4635955!4d78.8999868!16s%2Fg%2F11s42vdj81!19sChIJaX0abuiR0jsRk7W4Mk7ANJg?authuser=0&hl=en&rclk=1,"19.4635955,78.8999868"
Masjid,Mosque,"5W2W+2Q9 Masjid, Utkoor - Mogdumpur Rd, Ibrahimnagar, Ibrahimpur, Telangana 502267",,"5W2W+2Q9, Utkoor - Mogdumpur Rd","Ibrahimnagar, Ibrahimpur",502267,Telangana,IN,https://www.google.com/maps/place/Masjid/data=!4m7!3m6!1s0x3bcceb586d911e3b:0xcb5874a83ec5b326!8m2!3d18.1500385!4d78.9469875!16s%2Fg%2F11pqsd3g5y!19sChIJOx6RbVjrzDsRJrPFPqh0WMs?authuser=0&hl=en&rclk=1,"18.1500385,78.94698749999999"
Masjid- e fazil begum : msjd fDyl bygm,Mosque,"X3CR+628 Masjid- e fazil begum : msjd fDyl bygm, M + OG, Bairanpalle, Telangana 506367",,X3CR+628,"M + OG, Bairanpalle",506367,Telangana,IN,https://www.google.com/maps/place/Masjid-+e+fazil+begum+:+%D9%85%D8%B3%D8%AC%D8%AF+%D9%81%D8%A7%D8%B6%DB%8C%D9%84+%D8%A8%DB%8C%DA%AF%D9%85%E2%80%AD/data=!4m7!3m6!1s0x3bccbdf5348650bd:0x3ef9874c24970e1a!8m2!3d17.9699238!4d79.0900696!16s%2Fg%2F11txpglcnr!19sChIJvVCGNPW9zDsRGg6XJEyH-T4?authuser=0&hl=en&rclk=1,"17.9699238,79.09006959999999"
Madeena mosque,Mosque,"Madeena mosque, Sri Laxmi nilayam plot no 644, Tarakarama Nagar, Telangana 505327",,Sri Laxmi nilayam plot no 644,Tarakarama Nagar,505327,Telangana,IN,https://www.google.com/maps/place/Madeena+mosque/data=!4m7!3m6!1s0x3bcd113032bc7823:0xc9d8d7d5e71466f8!8m2!3d18.7482603!4d78.9181962!16s%2Fg%2F11lg0ny0c8!19sChIJI3i8MjARzTsR-GYU59XX2Mk?authuser=0&hl=en&rclk=1,"18.7482603,78.9181962"
Shadulla Dargah,Mosque,"Shadulla Dargah, Ibrahimpur, Telangana 502267",,,Ibrahimpur,502267,Telangana,IN,https://www.google.com/maps/place/Shadulla+Dargah/data=!4m7!3m6!1s0x3bccebcf7cb35b2b:0x7702842e8da2684!8m2!3d18.1462784!4d78.9544611!16s%2Fg%2F11tghpv5l7!19sChIJK1uzfM_rzDsRhCba6EIocAc?authuser=0&hl=en&rclk=1,"18.1462784,78.9544611"
Masjid E Ibrahim,Mosque,"Masjid E Ibrahim, Sri Renuka Ellamma Temple, Indiramma Colony, Narsapur, Telangana 502276",Indiramma Colony,Sri Renuka Ellamma Temple,Narsapur,502276,Telangana,IN,https://www.google.com/maps/place/Masjid+E+Ibrahim/data=!4m7!3m6!1s0x3bcced9e24765b31:0xf9ef95f347e2a92a!8m2!3d18.1241248!4d78.8589023!16s%2Fg%2F11n0j7h7r4!19sChIJMVt2JJ7tzDsRKqniR_OV7_k?authuser=0&hl=en&rclk=1,"18.1241248,78.8589023"
Masjid-e-umarfarooq,Mosque,"9QCH+PGP Masjid-e-umarfarooq, Rahmathpura, Utnur, Telangana 504311",Rahmathpura,9QCH+PGP,Utnur,,Telangana,IN,https://www.google.com/maps/place/Masjid-e-umarfarooq/data=!4m7!3m6!1s0x3bd2857a91093a6b:0x26c68fcbfbdadda6!8m2!3d19.3718367!4d78.7788405!16s%2Fg%2F11g1bbd1gd!19sChIJazoJkXqF0jsRpt3a-8uPxiY?authuser=0&hl=en&rclk=1,"19.3718367,78.7788405"
Masjid-E-Kausar,Mosque,"MG8Q+6M8 Masjid-E-Kausar, Shanti Nagar, Adilabad, Telangana 504001",Shanti Nagar,MG8Q+6M8,Adilabad,504001,Telangana,IN,https://www.google.com/maps/place/Masjid-E-Kausar/data=!4m7!3m6!1s0x3bd25c726cbfffff:0xdcc8a30755b4260c!8m2!3d19.6655322!4d78.5391992!16s%2Fg%2F11txmzh9h_!19sChIJ__-_bHJc0jsRDCa0VQejyNw?authuser=0&hl=en&rclk=1,"19.665532199999998,78.5391992"
DARGAH HAZRATH SYED SADIQ PUNJABI R.A.,Mosque,"9QFH+82V DARGAH HAZRATH SYED SADIQ PUNJABI R.A., Utnoor Rd, Utnur, Telangana 504311",,"9QFH+82V, Utnoor Rd",Utnur,,Telangana,IN,https://www.google.com/maps/place/DARGAH+HAZRATH+SYED+SADIQ+PUNJABI+R.A./data=!4m7!3m6!1s0x3bd285e8982a5b59:0xa6f27cae7e3b2eb8!8m2!3d19.37336!4d78.7775539!16s%2Fg%2F11q3lkmfrb!19sChIJWVsqmOiF0jsRuC47fq588qY?authuser=0&hl=en&rclk=1,"19.373359999999998,78.7775539"
"Mosque msiidu ,raaNpuur",Mosque,"PVQ8+8GP Mosque msiidu ,raaNpuur, Rampur, Telangana 505452",,PVQ8+8GP,Rampur,505452,Telangana,IN,"https://www.google.com/maps/place/Mosque+%E0%B0%AE%E0%B0%B8%E0%B1%80%E0%B0%A6%E0%B1%81+,%E0%B0%B0%E0%B0%BE%E0%B0%82%E0%B0%AA%E0%B1%82%E0%B0%B0%E0%B1%8D/data=!4m7!3m6!1s0x3bcd1195d4c5b1ed:0xd2f74a2554e0252c!8m2!3d18.738333!4d78.8663381!16s%2Fg%2F11gfnw2s6_!19sChIJ7bHF1JURzTsRLCXgVCVK99I?authuser=0&hl=en&rclk=1","18.738333,78.8663381"
Masjid,Mosque,"CQ24+936 Masjid, X-Road, Nagapur, Telangana 504311",X-Road,CQ24+936,Nagapur,504311,Telangana,IN,https://www.google.com/maps/place/Masjid/data=!4m7!3m6!1s0x3bd28542302b9163:0x87197ab60c077a2c!8m2!3d19.4009106!4d78.7551464!16s%2Fg%2F11qnl8lv7j!19sChIJY5ErMEKF0jsRLHoHDLZ6GYc?authuser=0&hl=en&rclk=1,"19.4009106,78.7551464"
MASJID- E- HUDA,Mosque,"V994+7H7 MASJID- E- HUDA, Gudipet, Telangana 504209",,V994+7H7,Gudipet,504209,Telangana,IN,https://www.google.com/maps/place/MASJID-+E-+HUDA/data=!4m7!3m6!1s0x3bcd35851ef1ea0d:0x28b2fd586b6d1379!8m2!3d18.8681534!4d79.3564285!16s%2Fg%2F11kjjp9bk1!19sChIJDerxHoU1zTsReRNta1j9sig?authuser=0&hl=en&rclk=1,"18.8681534,79.35642849999999"
Jama masjid,Mosque,"CQ8W+HQ Jama masjid, Hasnapur, Telangana 504311",,CQ8W+HQ,Hasnapur,504311,Telangana,IN,https://www.google.com/maps/place/Jama+masjid/data=!4m7!3m6!1s0x3bd28f3b13450bef:0x6a2f533252729bc0!8m2!3d19.4159327!4d78.7972924!16s%2Fg%2F11t2sb2b39!19sChIJ7wtFEzuP0jsRwJtyUjJTL2o?authuser=0&hl=en&rclk=1,"19.4159327,78.7972924"
Balvanthapoor kashinagar masjid,Mosque,"MX62+4M8 Balvanthapoor kashinagar masjid, Sarvapur, Telangana 505452",,MX62+4M8,Sarvapur,,Telangana,IN,https://www.google.com/maps/place/Balvanthapoor+kashinagar+masjid/data=!4m7!3m6!1s0x3bcd197e0843e04b:0x2c66ba6533e170e2!8m2!3d18.6602902!4d78.9517012!16s%2Fg%2F11jwl2zcmr!19sChIJS-BDCH4ZzTsR4nDhM2W6Ziw?authuser=0&hl=en&rclk=1,"18.6602902,78.9517012"
mdrs sautul khuraan v sunnh,Mosque,"R2WR+5C mdrs sautul khuraan v sunnh, Yeshwanthraopet, Telangana 505454",,R2WR+5C,Yeshwanthraopet,,Telangana,IN,https://www.google.com/maps/place/%E0%B0%AE%E0%B0%A6%E0%B1%8D%E0%B0%B0%E0%B0%B8+%E0%B0%B8%E0%B1%8C%E0%B0%A4%E0%B1%81%E0%B0%B2%E0%B1%8D+%E0%B0%96%E0%B1%81%E0%B0%B0%E0%B0%BE%E0%B0%A8%E0%B1%8D+%E0%B0%B5+%E0%B0%B8%E0%B1%81%E0%B0%A8%E0%B1%8D%E0%B0%A8%E0%B0%B9%E0%B1%8D/data=!4m7!3m6!1s0x3bcd3f97f7f128d5:0x601fa02afc2aa2c1!8m2!3d18.845426!4d79.0411076!16s%2Fg%2F11rkf1fwdg!19sChIJ1Sjx95c_zTsRwaIq_CqgH2A?authuser=0&hl=en&rclk=1,"18.845426,79.04110759999999"
"Masjid E Osman,Mothe",Mosque,"QXQ2+MVH Masjid E Osman,Mothe, Mothe Rural, Telangana 505327",,QXQ2+MVH,Mothe Rural,,Telangana,IN,"https://www.google.com/maps/place/Masjid+E+Osman,Mothe/data=!4m7!3m6!1s0x3bcd14403cb918f5:0x3a0a2af828a13c5a!8m2!3d18.7891964!4d78.9522301!16s%2Fg%2F11hbnsx2w8!19sChIJ9Ri5PEAUzTsRWjyhKPgqCjo?authuser=0&hl=en&rclk=1","18.789196399999998,78.9522301"
MASJID E MUBARAK,Mosque,"P2J9+CQ9 MASJID E MUBARAK, Suddapally, Telangana 505452",,P2J9+CQ9,Suddapally,505452,Telangana,IN,https://www.google.com/maps/place/MASJID+E+MUBARAK/data=!4m7!3m6!1s0x3bcd3d76e7bdd319:0xae325de6eab0e215!8m2!3d18.7310498!4d79.0194722!16s%2Fg%2F11vdnvrgd0!19sChIJGdO953Y9zTsRFeKw6uZdMq4?authuser=0&hl=en&rclk=1,"18.731049799999997,79.0194722"
Jama masjid Gundi,Mosque,"J3FR+V7W Jama masjid Gundi, Gundi, Telangana 505531",,J3FR+V7W,Gundi,505531,Telangana,IN,https://www.google.com/maps/place/Jama+masjid+Gundi/data=!4m7!3m6!1s0x3bcd235274c4bfb3:0x96220474cb694285!8m2!3d18.6247452!4d79.0906923!16s%2Fg%2F11khy150x3!19sChIJs7_EdFIjzTsRhUJpy3QEIpY?authuser=0&hl=en&rclk=1,"18.6247452,79.0906923"
Masjid,Mosque,"4WJR+HR2 Masjid, Gone Pally, Telangana 502267",,4WJR+HR2,Gone Pally,502267,Telangana,IN,https://www.google.com/maps/place/Masjid/data=!4m7!3m6!1s0x3bcceb3a11e1cd01:0xa222ce2ef6d559c!8m2!3d18.1313972!4d78.942012!16s%2Fg%2F11h8bhw8hm!19sChIJAc3hETrrzDsRnFVt7-IsIgo?authuser=0&hl=en&rclk=1,"18.1313972,78.94201199999999"
Masjid Gulshan e quadria,Mosque,"C2JR+7X5 Masjid Gulshan e quadria, Elgandal, Telangana 505401",,C2JR+7X5,Elgandal,505401,Telangana,IN,https://www.google.com/maps/place/Masjid+Gulshan+e+quadria/data=!4m7!3m6!1s0x3bccdf2ad95af1b3:0x8ce8d03b81fce530!8m2!3d18.4306449!4d79.0424932!16s%2Fg%2F11j5s7kr0f!19sChIJs_Fa2SrfzDsRMOX8gTvQ6Iw?authuser=0&hl=en&rclk=1,"18.4306449,79.0424932"
Madina Masjid,Mosque,"9Q7H+P3C Madina Masjid, Mominpura, Utnur, Telangana 504311",Mominpura,9Q7H+P3C,Utnur,504311,Telangana,IN,https://www.google.com/maps/place/Madina+Masjid/data=!4m7!3m6!1s0x3bd285b33e155555:0x13e010187828103f!8m2!3d19.3643116!4d78.777638!16s%2Fg%2F11txmzdqbx!19sChIJVVUVPrOF0jsRPxAoeBgQ4BM?authuser=0&hl=en&rclk=1,"19.3643116,78.777638"
Baba,Mosque,"WFM6+5VH Baba, Shivaji Nagar, Kakatiya Colony, Ramakrishnapur, Telangana 504301","Shivaji Nagar, Kakatiya Colony",WFM6+5VH,Ramakrishnapur,504301,Telangana,IN,https://www.google.com/maps/place/Baba/data=!4m7!3m6!1s0x3a32b59edd9539e7:0x40d259f8646a776f!8m2!3d18.9344956!4d79.4618487!16s%2Fg%2F11snlmgpb_!19sChIJ5zmV3Z61MjoRb3dqZPhZ0kA?authuser=0&hl=en&rclk=1,"18.934495599999998,79.46184869999999"
Masjid-e-Umar Faruq,Mosque,"Masjid-e-Umar Faruq, 5-990, near Bhim Nagar, Indervelly, Telangana 504346",,"5-990, near Bhim Nagar",Indervelly,504346,Telangana,IN,https://www.google.com/maps/place/Masjid-e-Umar+Faruq/data=!4m7!3m6!1s0x3bd28977e7eaf70d:0x8258704df043e015!8m2!3d19.4936269!4d78.6706737!16s%2Fg%2F11st_xzdb0!19sChIJDffq53eJ0jsRFeBD8E1wWII?authuser=0&hl=en&rclk=1,"19.4936269,78.6706737"
Badi masjid,Mosque,"V6M4+6G6 Badi masjid, Luxettipet, Utukur, Telangana 504215",,V6M4+6G6,"Luxettipet, Utukur",504215,Telangana,IN,https://www.google.com/maps/place/Badi+masjid/data=!4m7!3m6!1s0x3bcd4983c8455595:0x967acd0ca59d0e65!8m2!3d18.8830416!4d79.2062597!16s%2Fg%2F11vf2g1rj5!19sChIJlVVFyINJzTsRZQ6dpQzNepY?authuser=0&hl=en&rclk=1,"18.8830416,79.20625969999999"
Late Shakkar baap bhai's House,Mosque,"9Q8G+XPH Late Shakkar baap bhai's House, Utnur, Telangana 504311",,9Q8G+XPH,Utnur,,Telangana,IN,https://www.google.com/maps/place/Late+Shakkar+baap+bhai%27s+House/data=!4m7!3m6!1s0x3bd28599f6383c27:0x19c105667d80cd2a!8m2!3d19.367426!4d78.7768553!16s%2Fg%2F11t7x70mz7!19sChIJJzw49pmF0jsRKs2AfWYFwRk?authuser=0&hl=en&rclk=1,"19.367426,78.7768553"
Jama-masjid,Mosque,"8RG9+858 Jama-masjid, danthanpalli, Utnur, Danthanpalle, Telangana 504311",,"8RG9+858, danthanpalli","Utnur, Danthanpalle",504311,Telangana,IN,https://www.google.com/maps/place/Jama-masjid/data=!4m7!3m6!1s0x3bd2854382fca6b1:0x7f6af6c9c5f66375!8m2!3d19.3257758!4d78.8177888!16s%2Fg%2F11t_m6qb3v!19sChIJsab8gkOF0jsRdWP2xcn2an8?authuser=0&hl=en&rclk=1,"19.3257758,78.8177888"
Abbubakar masjid,Mosque,"9WG5+JJV Abbubakar masjid, Jainoor, Telangana 504313",,9WG5+JJV,Jainoor,504313,Telangana,IN,https://www.google.com/maps/place/Abbubakar+masjid/data=!4m7!3m6!1s0x3bd29bab25333f2b:0x3b3f437925c3c48c!8m2!3d19.3766247!4d78.909049!16s%2Fg%2F11rs2wxm5k!19sChIJKz8zJaub0jsRjMTDJXlDPzs?authuser=0&hl=en&rclk=1,"19.3766247,78.909049"
BILALA MASJID,Mosque,"9WF5+HJJ BILALA MASJID, Jainoor, Telangana 504313",,9WF5+HJJ,Jainoor,504313,Telangana,IN,https://www.google.com/maps/place/BILALA+MASJID/data=!4m7!3m6!1s0x3bd29b2e07edb8d3:0xa2580038ac3fd778!8m2!3d19.3739522!4d78.9090191!16s%2Fg%2F11f77_fyxp!19sChIJ07jtBy6b0jsReNc_rDgAWKI?authuser=0&hl=en&rclk=1,"19.373952199999998,78.9090191"
"Ashur khana, piiriil msjid",Mosque,"6XVJ+XPP Ashur khana, piiriil msjid, Gundaram, Telangana 505528",,6XVJ+XPP,Gundaram,505528,Telangana,IN,"https://www.google.com/maps/place/Ashur+khana,+%E0%B0%AA%E0%B1%80%E0%B0%B0%E0%B1%80%E0%B0%B2+%E0%B0%AE%E0%B0%B8%E0%B1%8D%E0%B0%9C%E0%B0%BF%E0%B0%A6%E0%B1%8D/data=!4m7!3m6!1s0x3bcce9efcbb0d12d:0x45550f69fdc8dc1b!8m2!3d18.2450878!4d78.981762!16s%2Fg%2F11t8b382sc!19sChIJLdGwy-_pzDsRG9zI_WkPVUU?authuser=0&hl=en&rclk=1","18.2450878,78.981762"
Masjid E Gohar,Mosque,"PPFC+P83 Masjid E Gohar, Sirsanna, Telangana 504309",,PPFC+P83,Sirsanna,504309,Telangana,IN,https://www.google.com/maps/place/Masjid+E+Gohar/data=!4m7!3m6!1s0x3bd2f7eb0dbb98bb:0x482b941a64ade016!8m2!3d19.7242612!4d78.7207925!16s%2Fg%2F11tg51brq2!19sChIJu5i7Dev30jsRFuCtZBqUK0g?authuser=0&hl=en&rclk=1,"19.7242612,78.7207925"
Masjide abubakar,Mosque,"J4X9+59R Masjide abubakar, Kurmapally, Telangana 505531",,J4X9+59R,Kurmapally,505531,Telangana,IN,https://www.google.com/maps/place/Masjide+abubakar/data=!4m7!3m6!1s0x3bcd2501f4fc8e0b:0x8def395ca7fdfdd3!8m2!3d18.6479898!4d79.1184021!16s%2Fg%2F11rqcgrkhv!19sChIJC4789AElzTsR0_39p1w5740?authuser=0&hl=en&rclk=1,"18.647989799999998,79.1184021"
Ansar masjid,Mosque,"9F5J+7W4 Ansar masjid, Kagaznagar, Telangana 504296",,9F5J+7W4,Kagaznagar,504296,Telangana,IN,https://www.google.com/maps/place/Ansar+masjid/data=!4m7!3m6!1s0x3a2d57b977fdbe6d:0x6960a1717e731215!8m2!3d19.3581456!4d79.4823339!16s%2Fg%2F11rsc1y_tg!19sChIJbb79d7lXLToRFRJzfnGhYGk?authuser=0&hl=en&rclk=1,"19.3581456,79.4823339"
ismaartt istrii lkssmnn,Mosque,"MV39+W8M ismaartt istrii lkssmnn, Thirmalapur, Telangana 505501",,MV39+W8M,Thirmalapur,505501,Telangana,IN,https://www.google.com/maps/place/%E0%B0%87%E0%B0%B8%E0%B1%8D%E0%B0%AE%E0%B0%BE%E0%B0%B0%E0%B1%8D%E0%B0%9F%E0%B1%8D+%E0%B0%87%E0%B0%B8%E0%B1%8D%E0%B0%A4%E0%B1%8D%E0%B0%B0%E0%B1%80+%E0%B0%B2%E0%B0%95%E0%B1%8D%E0%B0%B7%E0%B1%8D%E0%B0%AE%E0%B0%A3%E0%B1%8D/data=!4m7!3m6!1s0x3bcd1b798990ceed:0xa0250f1b573362f6!8m2!3d18.6553032!4d78.868276!16s%2Fg%2F11sfhq4ssw!19sChIJ7c6QiXkbzTsR9mIzVxsPJaA?authuser=0&hl=en&rclk=1,"18.6553032,78.868276"
Jama masjid,Mosque,"9XX2+F85 Jama masjid, Unnamed Road, Daboli, Telangana 504313",,"9XX2+F85, Unnamed Road",Daboli,504313,Telangana,IN,https://www.google.com/maps/place/Jama+masjid/data=!4m7!3m6!1s0x3bd29962bbeafef3:0x74b0832244550441!8m2!3d19.3986432!4d78.9508508!16s%2Fg%2F11h4v7zns2!19sChIJ8_7qu2KZ0jsRQQRVRCKDsHQ?authuser=0&hl=en&rclk=1,"19.3986432,78.9508508"
Muslim community,Mosque,"MQ9H+VPJ Muslim community, Govindaram, Telangana 505452",,MQ9H+VPJ,Govindaram,,Telangana,IN,https://www.google.com/maps/place/Muslim+community/data=!4m7!3m6!1s0x3bcd0fc75aa59e51:0x701e968bd52a4728!8m2!3d18.6697149!4d78.7792654!16s%2Fg%2F11n0dcxhc4!19sChIJUZ6lWscPzTsRKEcq1YuWHnA?authuser=0&hl=en&rclk=1,"18.6697149,78.7792654"
Jama-masjid,Mosque,"8RC9+GMX Jama-masjid, Danthanpalle, Telangana 504311",,8RC9+GMX,Danthanpalle,504311,Telangana,IN,https://www.google.com/maps/place/Jama-masjid/data=!4m7!3m6!1s0x3bd285b1acb03325:0xe09602827bfd9960!8m2!3d19.3213959!4d78.8191368!16s%2Fg%2F11t_k688fm!19sChIJJTOwrLGF0jsRYJn9e4ICluA?authuser=0&hl=en&rclk=1,"19.3213959,78.8191368"
masjid e mahboob unnisa,Mosque,"masjid e mahboob unnisa, charwadan Opposite:, Government Girls High school and Jr College, near Vidyanikethan High School, Azam Pura, Siddipet, Telangana 502103",Azam Pura,"charwadan Opposite:, Government Girls High school and Jr College, near Vidyanikethan High School",Siddipet,502103,Telangana,IN,https://www.google.com/maps/place/masjid+e+mahboob+unnisa/data=!4m7!3m6!1s0x3bcceda03f27bc1b:0xaaef2113b810d0b!8m2!3d18.1072369!4d78.8471118!16s%2Fg%2F11frqnt23j!19sChIJG7wnP6DtzDsRCw2BOxHyrgo?authuser=0&hl=en&rclk=1,"18.1072369,78.8471118"
aatmkuur,Mosque,"4269+XPC aatmkuur, Palepally, Baddipadaga, Telangana 502375",Palepally,4269+XPC,Baddipadaga,,Telangana,IN,https://www.google.com/maps/place/%E0%B0%86%E0%B0%A4%E0%B1%8D%E0%B0%AE%E0%B0%95%E0%B1%82%E0%B0%B0%E0%B1%8D/data=!4m7!3m6!1s0x3bccbf3fb08b75df:0x78a8564b2c6808f0!8m2!3d18.112439!4d79.0192665!16s%2Fg%2F11t5b0xp2n!19sChIJ33WLsD-_zDsR8AhoLEtWqHg?authuser=0&hl=en&rclk=1,"18.112439,79.0192665"
Jama Masjid Devapur,Mosque,"JVJX+CW3 Jama Masjid Devapur, Angadi Bazar Rd, Mothkur, Kodimial, Telangana 508277",,"JVJX+CW3, Angadi Bazar Rd","Mothkur, Kodimial",508277,Telangana,IN,https://www.google.com/maps/place/Jama+Masjid+Devapur/data=!4m7!3m6!1s0x3bcd1a4f4600ab31:0x4adf6a70f897cc17!8m2!3d18.6310152!4d78.8997975!16s%2Fg%2F11f40n3k3l!19sChIJMasARk8azTsRF8yX-HBq30o?authuser=0&hl=en&rclk=1,"18.6310152,78.89979749999999"
Masjid,Mosque,"PQPJ+6RC Masjid, Bheemaram, Telangana 505453",,PQPJ+6RC,Bheemaram,505453,Telangana,IN,https://www.google.com/maps/place/Masjid/data=!4m7!3m6!1s0x3bcd0fa768fc42e5:0xa147875cfd229121!8m2!3d18.7355523!4d78.7820249!16s%2Fg%2F11h565nr86!19sChIJ5UL8aKcPzTsRIZEi_VyHR6E?authuser=0&hl=en&rclk=1,"18.7355523,78.7820249"
