name,main_category,address,address_ward,address_street,address_city,address_postal_code,address_state,address_country_code,link,coordinates
Shahi Jama Masjid,Mosque,"Shahi Jama Masjid, Quilaghat, Lal Bagh, Darbhanga, Bihar 846004","Quilaghat, Lal Bagh",,Darbhanga,846004,Bihar,IN,https://www.google.com/maps/place/Shahi+Jama+Masjid/data=!4m7!3m6!1s0x39edb84aeda7b1a7:0x385c2abb6d3817f1!8m2!3d26.1468146!4d85.8912638!16s%2Fg%2F1tgnvmxg!19sChIJp7Gn7Uq47TkR8Rc4bbsqXDg?authuser=0&hl=en&rclk=1,"26.1468146,85.89126379999999"
Shahi Masjid Ratnopatti Dargah,Mosque,"Shahi Masjid Ratnopatti Dargah, Ratnopatti Dargah ward9 pincode 846006, Shubhankarpur, Darbhanga, Bihar 846006",Shubhankarpur,Ratnopatti Dargah ward9 pincode 846006,"Darbhanga, Chataria",846006,Bihar,IN,https://www.google.com/maps/place/Shahi+Masjid+Ratnopatti+Dargah/data=!4m7!3m6!1s0x39edb9c96140a91d:0x8a477228243e15ce!8m2!3d26.1521707!4d85.8838729!16s%2Fg%2F1vvdsmjm!19sChIJHalAYcm57TkRzhU-JChyR4o?authuser=0&hl=en&rclk=1,"26.1521707,85.8838729"
Jama Masjid,Mosque,"Jama Masjid, Badi Bhalni,, Darbhanga, Bihar 846005",,"Badi Bhalni,","Darbhanga, Bhalni",846005,Bihar,IN,https://www.google.com/maps/place/Jama+Masjid/data=!4m7!3m6!1s0x39edb76c1dfe4449:0xa1c9eeec8cdf3d3e!8m2!3d26.1892959!4d85.8751622!16s%2Fg%2F11cly5_lh6!19sChIJSUT-HWy37TkRPj3fjOzuyaE?authuser=0&hl=en&rclk=1,"26.189295899999998,85.87516219999999"
pili masjid | pyly msjd,Mosque,"pili masjid | pyly msjd, NH57 East-West Expressway Ruhelagunj kadirabad, Darbhanga, Bihar 846005",Sundarpur,NH57 East-West Expressway Ruhelagunj kadirabad,"Darbhanga, Bela Dullah",846005,Bihar,IN,https://www.google.com/maps/place/pili+masjid+%7C+%D9%BE%DB%8C%D9%84%DB%8C+%D9%85%D8%B3%D8%AC%D8%AF%E2%80%AD/data=!4m7!3m6!1s0x39edb9d518930fbd:0xba08b77ee1fbcb7c!8m2!3d26.169483!4d85.8882057!16s%2Fg%2F11r9wx5y3!19sChIJvQ-TGNW57TkRfMv74X63CLo?authuser=0&hl=en&rclk=1,"26.169483,85.8882057"
Jama Masjid jm` msjd,Mosque,"5V3R+MHR Jama Masjid jm` msjd, Shivaji Nagar, Gullowara, Darbhanga, Bihar 846004","Shivaji Nagar, Gullowara",5V3R+MHR,Darbhanga,846004,Bihar,IN,https://www.google.com/maps/place/Jama+Masjid+%D8%AC%D8%A7%D9%85%D8%B9+%D9%85%D8%B3%D8%AC%D8%AF%E2%80%AD/data=!4m7!3m6!1s0x39edb8349cd5bde1:0x487b38beb89f915c!8m2!3d26.1542332!4d85.8913905!16s%2Fg%2F1tdh28nn!19sChIJ4b3VnDS47TkRXJGfuL44e0g?authuser=0&hl=en&rclk=1,"26.1542332,85.8913905"
Jama Masjid Meershikar tola jm` msjd,Mosque,"4VXW+HPW Jama Masjid Meershikar tola jm` msjd, Meershikar Tola, Darbhanga, Bihar 846004",Mirzapur,"4VXW+HPW, Meershikar Tola",Darbhanga,846004,Bihar,IN,https://www.google.com/maps/place/Jama+Masjid+Meershikar+tola+%D8%AC%D8%A7%D9%85%D8%B9+%D9%85%D8%B3%D8%AC%D8%AF%E2%80%AD/data=!4m7!3m6!1s0x39edb8362ea554eb:0xf3a86dcc8fa85974!8m2!3d26.1489827!4d85.8968226!16s%2Fg%2F11dxdxzr_r!19sChIJ61SlLja47TkRdFmoj8xtqPM?authuser=0&hl=en&rclk=1,"26.148982699999998,85.8968226"
Jama Masjid Shivdhara jm` msjd shywdhr,Mosque,"5VHH+4G9 Jama Masjid Shivdhara jm` msjd shywdhr, shivdhara, Alaf ganj, Bazaar Samiti Rd, Sundarpur, Darbhanga, Bihar 846004",Sundarpur,"5VHH+4G9, shivdhara, Alaf ganj, Bazaar Samiti Rd",Darbhanga,846004,Bihar,IN,https://www.google.com/maps/place/Jama+Masjid+Shivdhara+%D8%AC%D8%A7%D9%85%D8%B9+%D9%85%D8%B3%D8%AC%D8%AF+%D8%B4%DB%8C%D9%88%D8%AF%DA%BE%D8%A7%D8%B1%D8%A7%E2%80%AD/data=!4m7!3m6!1s0x39edb764a9ac8007:0xfc41ad9d461f2996!8m2!3d26.1777969!4d85.8788442!16s%2Fg%2F126299n7_!19sChIJB4CsqWS37TkRlikfRp2tQfw?authuser=0&hl=en&rclk=1,"26.1777969,85.8788442"
Shahi Masjid shhy msjd,Mosque,"4VCW+3J8 Shahi Masjid shhy msjd, near Shiv Traders, Bakarganj, Laheriasarai, Darbhanga, Bihar 846001","Bakarganj, Laheriasarai","4VCW+3J8, near Shiv Traders",Darbhanga,846001,Bihar,IN,https://www.google.com/maps/place/Shahi+Masjid+%D8%B4%D8%A7%DB%81%DB%8C+%D9%85%D8%B3%D8%AC%D8%AF%E2%80%AD/data=!4m7!3m6!1s0x39edb8f96ee54daf:0xa7e359315d2a60e6!8m2!3d26.1201707!4d85.8965679!16s%2Fg%2F1v2gc4rb!19sChIJr03lbvm47TkR5mAqXTFZ46c?authuser=0&hl=en&rclk=1,"26.1201707,85.8965679"
Bazidpur Masjid,Mosque,"4VXQ+546 Bazidpur Masjid, Gullowara, Darbhanga, Bihar 846006",Gullowara,4VXQ+546,Darbhanga,846006,Bihar,IN,https://www.google.com/maps/place/Bazidpur+Masjid/data=!4m7!3m6!1s0x39edb9b564b47f27:0xf0b4182a2fe4b0a3!8m2!3d26.147913!4d85.8877609!16s%2Fg%2F11cs23kncm!19sChIJJ3-0ZLW57TkRo7DkLyoYtPA?authuser=0&hl=en&rclk=1,"26.147913,85.88776089999999"
Bahadurganj Masjid bhdr gnj msjd,Mosque,"Bahadurganj Masjid bhdr gnj msjd, Bahadurganj, Mahrajganj Road, Laheriasarai, Darbhanga, Bihar 846003",Laheriasarai,"Bahadurganj, Mahrajganj Road",Darbhanga,846003,Bihar,IN,https://www.google.com/maps/place/Bahadurganj+Masjid+%D8%A8%DB%81%D8%A7%D8%AF%D8%B1+%DA%AF%D9%86%D8%AC+%D9%85%D8%B3%D8%AC%D8%AF%E2%80%AD/data=!4m7!3m6!1s0x39edb855abf88da1:0xaf9460c34bf722d!8m2!3d26.1275879!4d85.8924443!16s%2Fg%2F1yfp0hr7j!19sChIJoY34q1W47TkRLXK_NAxG-Qo?authuser=0&hl=en&rclk=1,"26.127587899999998,85.8924443"
Madina Masjid Dildarganj,Mosque,"4VGR+X8V Madina Masjid Dildarganj, Dildarganj, Laheriasarai, Darbhanga, Bihar 846001","Mahraj Ganj, Laheriasarai","4VGR+X8V, Dildarganj",Darbhanga,846001,Bihar,IN,https://www.google.com/maps/place/Madina+Masjid+Dildarganj/data=!4m7!3m6!1s0x39edb85521ce69f1:0xf8b1be526794823c!8m2!3d26.127489!4d85.8908096!16s%2Fg%2F12hkt3tfx!19sChIJ8WnOIVW47TkRPIKUZ1K-sfg?authuser=0&hl=en&rclk=1,"26.127488999999997,85.8908096"
Maharaj Gunj Bilal masjid mhrj gnj bll msjd,Mosque,"4VGR+69R Maharaj Gunj Bilal masjid mhrj gnj bll msjd, Laheriasarai, Darbhanga, Bihar 846002",Laheriasarai,4VGR+69R,Darbhanga,846002,Bihar,IN,https://www.google.com/maps/place/Maharaj+Gunj+Bilal+masjid+%D9%85%DB%81%D8%A7%D8%B1%D8%A7%D8%AC+%DA%AF%D9%86%D8%AC+%D8%A8%D9%84%D8%A7%D9%84+%D9%85%D8%B3%D8%AC%D8%AF%E2%80%AD/data=!4m7!3m6!1s0x39edb8556de052b5:0xbc2e4effde165e06!8m2!3d26.1256043!4d85.8908792!16s%2Fg%2F1pp2wyhvk!19sChIJtVLgbVW47TkRBl4W3v9OLrw?authuser=0&hl=en&rclk=1,"26.1256043,85.8908792"
Nurani Masjid,Mosque,"4WV5+9C2 Nurani Masjid, Donar, Darbhanga, Bihar 846003",Donar,4WV5+9C2,Darbhanga,846003,Bihar,IN,https://www.google.com/maps/place/Nurani+Masjid/data=!4m7!3m6!1s0x39edb8418d0ad9cf:0xe2eb7f1c436513c1!8m2!3d26.1433809!4d85.9085027!16s%2Fg%2F11c2r1x312!19sChIJz9kKjUG47TkRwRNlQxx_6-I?authuser=0&hl=en&rclk=1,"26.1433809,85.9085027"
msjid chottii kaaziipuraa,Mosque,"4VMV+MF3 msjid chottii kaaziipuraa, Laheriasarai, Darbhanga, Bihar 846003",Laheriasarai,4VMV+MF3,Darbhanga,846003,Bihar,IN,https://www.google.com/maps/place/%E0%A4%AE%E0%A4%B8%E0%A5%8D%E0%A4%9C%E0%A4%BF%E0%A4%A6+%E0%A4%9B%E0%A5%8B%E0%A4%9F%E0%A5%80+%E0%A4%95%E0%A4%BE%E0%A5%9B%E0%A5%80%E0%A4%AA%E0%A5%81%E0%A4%B0%E0%A4%BE/data=!4m7!3m6!1s0x39edb85233f7bb39:0x34fd0dd12ff43492!8m2!3d26.1341484!4d85.893663!16s%2Fg%2F1hc0z30yx!19sChIJObv3M1K47TkRkjT0L9EN_TQ?authuser=0&hl=en&rclk=1,"26.134148399999997,85.89366299999999"
Jama Masjid,Mosque,"4V5X+JH6 Jama Masjid, Khajsarai New Colony Road, Khaja Sarai, Kabipur, Laheriasarai, Darbhanga, Barheta, Bihar 846001","Khaja Sarai, Kabipur, Laheriasarai","4V5X+JH6, Khajsarai New Colony Road","Darbhanga, Barheta",846001,Bihar,IN,https://www.google.com/maps/place/Jama+Masjid/data=!4m7!3m6!1s0x39edb8e5930b3705:0xbc79f21079d8ffaf!8m2!3d26.1090315!4d85.8989027!16s%2Fg%2F11clztvp3q!19sChIJBTcLk-W47TkRr__YeRDyebw?authuser=0&hl=en&rclk=1,"26.1090315,85.8989027"
Bhairopatti Masjid,Mosque,"4WQ9+P96 Bhairopatti Masjid, Rasoolpur, Dilabarpur, Darbhanga, Dilabarpur, Bihar 846009","Rasoolpur, Dilabarpur",4WQ9+P96,"Darbhanga, Dilabarpur",846009,Bihar,IN,https://www.google.com/maps/place/Bhairopatti+Masjid/data=!4m7!3m6!1s0x39edb86fa4ca7301:0xc622b479f38abb83!8m2!3d26.1392949!4d85.9183985!16s%2Fg%2F11c5zz30_w!19sChIJAXPKpG-47TkRg7uK83m0IsY?authuser=0&hl=en&rclk=1,"26.1392949,85.9183985"
Hazrat Amirus Salam MASJID Gangwara,Mosque,"5W98+XRC Hazrat Amirus Salam MASJID Gangwara, Gangwara, Darbhanga, Padri, Bihar 846007",Gangwara,5W98+XRC,"Darbhanga, Padri",846007,Bihar,IN,https://www.google.com/maps/place/Hazrat+Amirus+Salam+MASJID+Gangwara/data=!4m7!3m6!1s0x39edb9582853d8dd:0x3c17ddca837808cf!8m2!3d26.1699471!4d85.9170184!16s%2Fg%2F11qnlqvqv2!19sChIJ3dhTKFi57TkRzwh4g8rdFzw?authuser=0&hl=en&rclk=1,"26.169947099999998,85.91701839999999"
Urdu Bazar Masjid,Mosque,"Urdu Bazar Masjid, Neem Chowk, Urdu Bazaar Road, Quilaghat, Rahamganj, Darbhanga, Bihar 846004","Quilaghat, Rahamganj","Neem Chowk, Urdu Bazaar Road",Darbhanga,846004,Bihar,IN,https://www.google.com/maps/place/Urdu+Bazar+Masjid/data=!4m7!3m6!1s0x39edb84bf252fe61:0x6595af9b0d3f5f21!8m2!3d26.1432192!4d85.8935929!16s%2Fg%2F11dxcg937f!19sChIJYf5S8ku47TkRIV8_DZuvlWU?authuser=0&hl=en&rclk=1,"26.143219199999997,85.8935929"
Masjid Milki Chak,Mosque,"4WPH+9PP Masjid Milki Chak, Milki Chak, Darbhanga, Bihar 846009",Pokharsama,"4WPH+9PP, Milki Chak","Darbhanga, Balbhadarpur",846009,Bihar,IN,https://www.google.com/maps/place/Masjid+Milki+Chak/data=!4m7!3m6!1s0x39edb8786a4a93a7:0x6215ddbcafc870f9!8m2!3d26.1359692!4d85.9293301!16s%2Fg%2F11d_9fv5wm!19sChIJp5NKani47TkR-XDIr7zdFWI?authuser=0&hl=en&rclk=1,"26.135969199999998,85.9293301"
Mulla Halim Masjid,Mosque,"4VRR+CRC Mulla Halim Masjid, Rahamganj, Darbhanga, Bihar 846004",Rahamganj,4VRR+CRC,Darbhanga,846004,Bihar,IN,https://www.google.com/maps/place/Mulla+Halim+Masjid/data=!4m7!3m6!1s0x39edb84cf5025c1d:0xc381ec085b2320f2!8m2!3d26.1410558!4d85.8920103!16s%2Fg%2F11cn9_rhsj!19sChIJHVwC9Uy47TkR8iAjWwjsgcM?authuser=0&hl=en&rclk=1,"26.1410558,85.8920103"
Mahdauli Jama Masjid,Mosque,"4VWM+PRJ Mahdauli Jama Masjid, Mahdouli, Mahdauli, Gullowara, Chataria, Bihar 846006","Mahdauli, Gullowara","4VWM+PRJ, Mahdouli",Chataria,846006,Bihar,IN,https://www.google.com/maps/place/Mahdauli+Jama+Masjid/data=!4m7!3m6!1s0x39edb9b5e06bbc13:0xba3e927cf0319bab!8m2!3d26.1468423!4d85.8845049!16s%2Fg%2F11c6rj1k5p!19sChIJE7xr4LW57TkRq5sx8HySPro?authuser=0&hl=en&rclk=1,"26.1468423,85.8845049"
Noor Masjid,Mosque,"4VQR+8QF Noor Masjid, Near Millat College, Noorul Hasan Lane, Rahamganj, Darbhanga, Bihar 846003","Noorul Hasan Lane, Rahamganj","4VQR+8QF, Near Millat College",Darbhanga,846003,Bihar,IN,https://www.google.com/maps/place/Noor+Masjid/data=!4m7!3m6!1s0x39edb84d0b757a53:0xd946fd84771a0318!8m2!3d26.1383126!4d85.8919065!16s%2Fg%2F1yj2mg68c!19sChIJU3p1C0247TkRGAMad4T9Rtk?authuser=0&hl=en&rclk=1,"26.1383126,85.89190649999999"
Bari Masjid,Mosque,"5W9C+2W8 Bari Masjid, Darbhanga - Sakri Road, Gangwara, Sara Mohanpur, Darbhanga, Bihar 846007",Gangwara,"5W9C+2W8, Darbhanga - Sakri Road, Gangwara, Sara Mohanpur","Darbhanga, Padri",846007,Bihar,IN,https://www.google.com/maps/place/Bari+Masjid/data=!4m7!3m6!1s0x39edb8037bbbb6b1:0xefe6fabb2f4c374!8m2!3d26.167531!4d85.9223345!16s%2Fg%2F11d_8snp9b!19sChIJsba7ewO47TkRdMP0sqtv_g4?authuser=0&hl=en&rclk=1,"26.167531,85.92233449999999"
MASJID (I.T.I) msjd,Mosque,"4VWP+FC2 MASJID (I.T.I) msjd, Mahdauli, Gullowara, Darbhanga, Chataria, Bihar 846006","Mahdauli, Gullowara",4VWP+FC2,"Darbhanga, Chataria",846006,Bihar,IN,https://www.google.com/maps/place/MASJID+%28I.T.I%29+%D9%85%D8%B3%D8%AC%D8%AF%E2%80%AD/data=!4m7!3m6!1s0x39edb9b5ba417b81:0x45f6bd1003dddbb3!8m2!3d26.1461455!4d85.8860303!16s%2Fg%2F11cst1bvl_!19sChIJgXtBurW57TkRs9vdAxC99kU?authuser=0&hl=en&rclk=1,"26.1461455,85.8860303"
Purani Munsafi Masjid qdym mnSfy msjd,Mosque,"Purani Munsafi Masjid qdym mnSfy msjd, purani munsifi, Quilaghat, purani munsifi, Darbhanga, Bihar 846003","Quilaghat, purani munsifi",purani munsifi,Darbhanga,846003,Bihar,IN,https://www.google.com/maps/place/Purani+Munsafi+Masjid+%D9%82%D8%AF%DB%8C%D9%85+%D9%85%D9%86%D8%B5%D9%81%DB%8C+%D9%85%D8%B3%D8%AC%D8%AF%E2%80%AD/data=!4m7!3m6!1s0x39edb84eaedca68b:0x68114deaf11b75e7!8m2!3d26.1421595!4d85.8950498!16s%2Fg%2F11hc_fldnq!19sChIJi6bcrk647TkR53Ub8epNEWg?authuser=0&hl=en&rclk=1,"26.142159499999998,85.8950498"
BELAL MASJID,Mosque,"4VVR+473 BELAL MASJID, ABDULLAH GANJ MASUM Shakti nagar, Bihar 846001",Rahamganj,"4VVR+473, ABDULLAH GANJ MASUM Shakti nagar",Darbhanga,846001,Bihar,IN,https://www.google.com/maps/place/BELAL+MASJID/data=!4m7!3m6!1s0x39edb853a51573cb:0xbd290adddc62b014!8m2!3d26.1427505!4d85.8906573!16s%2Fg%2F11c54c16vb!19sChIJy3MVpVO47TkRFLBi3N0KKb0?authuser=0&hl=en&rclk=1,"26.1427505,85.8906573"
Jama Masjid Karkauli,Mosque,"5VW8+9H9 Jama Masjid Karkauli, Darbhanga - Kamtaul Hwy, Siso, Bihar 846005",,"5VW8+9H9, Darbhanga - Kamtaul Hwy",Siso,846005,Bihar,IN,https://www.google.com/maps/place/Jama+Masjid+Karkauli/data=!4m7!3m6!1s0x39edb73f9d2e38ff:0x5eba86364b35c553!8m2!3d26.1959161!4d85.8664735!16s%2Fg%2F11c75y_14l!19sChIJ_zgunT-37TkRU8U1SzaGul4?authuser=0&hl=en&rclk=1,"26.195916099999998,85.8664735"
Alinagar JamaMasjid,Mosque,"5VHQ+QMW Alinagar JamaMasjid, Abdul Aziz Rd, Bela Mod Bypass Rd, Sundarpur, Darbhanga, Bihar 846004","Alinagar, Sundarpur","5VHQ+QMW, Abdul Aziz Rd, Bela Mod Bypass Rd","Darbhanga, Bela Dullah",846004,Bihar,IN,https://www.google.com/maps/place/Alinagar+JamaMasjid/data=!4m7!3m6!1s0x39edb7789f158f8b:0x5e6ed8e6955e4e89!8m2!3d26.1794866!4d85.8892149!16s%2Fg%2F11c1wrhzqj!19sChIJi48Vn3i37TkRiU5elebYbl4?authuser=0&hl=en&rclk=1,"26.179486599999997,85.8892149"
Bibi Zahida Masjid by by zhdh msjd,Mosque,"Bibi Zahida Masjid by by zhdh msjd, Khan Chowk, Banker's Colony, Donar, Darbhanga, Bihar 846003","Banker's Colony, Donar",Khan Chowk,Darbhanga,,Bihar,IN,https://www.google.com/maps/place/Bibi+Zahida+Masjid+%D8%A8%DB%8C+%D8%A8%DB%8C+%D8%B2%D8%A7%DB%81%D8%AF%DB%81+%D9%85%D8%B3%D8%AC%D8%AF%E2%80%AD/data=!4m7!3m6!1s0x39edb84e8b13fdfd:0x349263ad07b46f52!8m2!3d26.140012!4d85.895782!16s%2Fg%2F11c20c89q0!19sChIJ_f0Ti0647TkRUm-0B61jkjQ?authuser=0&hl=en&rclk=1,"26.140012,85.895782"
Masjid Bibi Welayat Sahiba,Mosque,"4VQW+45W Masjid Bibi Welayat Sahiba, Banker's Colony, Faizullah Khan, Darbhanga, Bihar 846003","Banker's Colony, Faizullah Khan",4VQW+45W,Darbhanga,846003,Bihar,IN,https://www.google.com/maps/place/Masjid+Bibi+Welayat+Sahiba/data=!4m7!3m6!1s0x39edb84e1187fd2b:0x16808714ed127589!8m2!3d26.137866!4d85.8954612!16s%2Fg%2F11c6zzq43v!19sChIJK_2HEU647TkRiXUS7RSHgBY?authuser=0&hl=en&rclk=1,"26.137866,85.8954612"
Bauli jama masjid,Mosque,"4VQX+X84 Bauli jama masjid, SH 50, Banker's Colony, Donar, Darbhanga, Bihar 846003","Banker's Colony, Donar","4VQX+X84, SH 50",Darbhanga,846003,Bihar,IN,https://www.google.com/maps/place/Bauli+jama+masjid/data=!4m7!3m6!1s0x39edb84f0a63717b:0x94f1344ad1babdf7!8m2!3d26.1398871!4d85.8983207!16s%2Fg%2F11c2r4_7p7!19sChIJe3FjCk-47TkR97260Uo08ZQ?authuser=0&hl=en&rclk=1,"26.1398871,85.8983207"
Shahi Masjid shhy msjd,Mosque,"Shahi Masjid shhy msjd, Mufti Mohalla, Mirzapur, Lal Pokhad, Darbhanga, Bihar 846004","Mirzapur, Lal Pokhad",Mufti Mohalla,Darbhanga,846004,Bihar,IN,https://www.google.com/maps/place/Shahi+Masjid+%D8%B4%D8%A7%DB%81%DB%8C+%D9%85%D8%B3%D8%AC%D8%AF%E2%80%AD/data=!4m7!3m6!1s0x39edb849919a7ec7:0x8cb7a312fc30479c!8m2!3d26.1467378!4d85.8953835!16s%2Fg%2F11c5bjkbgc!19sChIJx36akUm47TkRnEcw_BKjt4w?authuser=0&hl=en&rclk=1,"26.1467378,85.8953835"
Madni Masjid,Mosque,"4VPR+GVG Madni Masjid, Fazilat Colony, Bibi Pakar, Darbhanga, Bihar 846004",Karamganj,"4VPR+GVG, Fazilat Colony, Bibi Pakar",Darbhanga,846004,Bihar,IN,https://www.google.com/maps/place/Madni+Masjid/data=!4m7!3m6!1s0x39edb84ccb5d3f7f:0x4decba38ae65a2f2!8m2!3d26.1363036!4d85.8922122!16s%2Fg%2F11csqzsw7s!19sChIJfz9dy0y47TkR8qJlrji67E0?authuser=0&hl=en&rclk=1,"26.136303599999998,85.8922122"
Badi Masjid Dumduma brry msjd,Mosque,"4VHV+R2G Badi Masjid Dumduma brry msjd, Dumduma Road, Laheriasarai, Darbhanga, Bihar 846003",Laheriasarai,"4VHV+R2G, Dumduma Road",Darbhanga,846003,Bihar,IN,https://www.google.com/maps/place/Badi+Masjid+Dumduma+%D8%A8%DA%91%DB%8C+%D9%85%D8%B3%D8%AC%D8%AF%E2%80%AD/data=!4m7!3m6!1s0x39edb85464a1b3c3:0xe53cb08e27bf330e!8m2!3d26.129571!4d85.8925807!16s%2Fg%2F11ckw29d0k!19sChIJw7OhZFS47TkRDjO_J46wPOU?authuser=0&hl=en&rclk=1,"26.129571,85.8925807"
"Jama Masjid Jamalpura,Chakrahmat,Nayatola",Mosque,"Jama Masjid Jamalpura,Chakrahmat,Nayatola, 4VQP+2G2, Jamalpura, Bhigo, Mirza Hayat Baig, Darbhanga, Bihar 846004",Rahamganj,"4VQP+2G2, Jamalpura, Bhigo, Mirza Hayat Baig",Darbhanga,846004,Bihar,IN,"https://www.google.com/maps/place/Jama+Masjid+Jamalpura,Chakrahmat,Nayatola/data=!4m7!3m6!1s0x39edb9b26f55204f:0x66892df7d8e3c6ad!8m2!3d26.1376694!4d85.88659!16s%2Fg%2F11gdw24wny!19sChIJTyBVb7K57TkRrcbj2PctiWY?authuser=0&hl=en&rclk=1","26.1376694,85.88659"
Shahsupan Dal Colony Masjid,Mosque,"4VVV+RXF Shahsupan Dal Colony Masjid, shahsupan, Quilaghat, Rahamganj, Darbhanga, Bihar 846004","Quilaghat, Rahamganj","4VVV+RXF, shahsupan",Darbhanga,846004,Bihar,IN,https://www.google.com/maps/place/Shahsupan+Dal+Colony+Masjid/data=!4m7!3m6!1s0x39edb84963df8017:0xa801941c6ab9587c!8m2!3d26.1445585!4d85.8949313!16s%2Fg%2F11csrfrqpn!19sChIJF4DfY0m47TkRfFi5ahyUAag?authuser=0&hl=en&rclk=1,"26.1445585,85.8949313"
Makka Masjid mkhWh msjd,Mosque,"4VPR+C7G Makka Masjid mkhWh msjd, chhoti, Zobair Alam Colony, Qazipura, Darbhanga, Bihar 846003","Zobair Alam Colony, Qazipura","4VPR+C7G, chhoti",Darbhanga,,Bihar,IN,https://www.google.com/maps/place/Makka+Masjid+%D9%85%DA%A9%D9%91%DB%81+%D9%85%D8%B3%D8%AC%D8%AF%E2%80%AD/data=!4m7!3m6!1s0x39edb852a257cf31:0xb4b351bf5311b833!8m2!3d26.1360534!4d85.8907156!16s%2Fg%2F11c6w0b23j!19sChIJMc9XolK47TkRM7gRU79Rs7Q?authuser=0&hl=en&rclk=1,"26.136053399999998,85.8907156"
"Masjid Umar, Bibipakar",Mosque,"4VPV+CQ6 Masjid Umar, Bibipakar, Karamganj-Rahamganj Link Rd, Laheriasarai, Darbhanga, Bihar 846003",Laheriasarai,"4VPV+CQ6, Karamganj-Rahamganj Link Rd",Darbhanga,846003,Bihar,IN,"https://www.google.com/maps/place/Masjid+Umar,+Bibipakar/data=!4m7!3m6!1s0x39edb8521cb6b2b7:0xd44a4d413f824475!8m2!3d26.1360299!4d85.8944013!16s%2Fg%2F1hc1rrnrb!19sChIJt7K2HFK47TkRdUSCP0FNStQ?authuser=0&hl=en&rclk=1","26.1360299,85.8944013"
Ekmighat Masjid,Mosque,"4VCG+9V4 Ekmighat Masjid, Ekmighat, Laheriasarai, Darbhanga, Bihar 846003",Laheriasarai,"4VCG+9V4, Ekmighat","Darbhanga, Rampur Ramdeo urf Chand Dih",846003,Bihar,IN,https://www.google.com/maps/place/Ekmighat+Masjid/data=!4m7!3m6!1s0x39edb9f60c59239b:0x8aa2ed1e92bfe9e2!8m2!3d26.1208868!4d85.8772092!16s%2Fg%2F11jh7drlzn!19sChIJmyNZDPa57TkR4um_kh7tooo?authuser=0&hl=en&rclk=1,"26.120886799999997,85.8772092"
Choti Masjid,Mosque,"5VQG+HM3 Choti Masjid, Badi Bhalni Rd, Badi Bhalni, Darbhanga, Bhalni, Bihar 846005",Badi Bhalni,"5VQG+HM3, Badi Bhalni Rd","Darbhanga, Bhalni",846005,Bihar,IN,https://www.google.com/maps/place/Choti+Masjid/data=!4m7!3m6!1s0x39edb76e8741bce1:0x5f8ae61df9909a2d!8m2!3d26.1888973!4d85.8766867!16s%2Fg%2F11gb3jmt78!19sChIJ4bxBh2637TkRLZqQ-R3mil8?authuser=0&hl=en&rclk=1,"26.188897299999997,85.8766867"
Jama Masjid jm` msjd,Mosque,"4VRX+P3M Jama Masjid jm` msjd, Maulaganj, Banker's Colony, Donar, Darbhanga, Bihar 846004","Maulaganj, Banker's Colony, Donar",4VRX+P3M,Darbhanga,846004,Bihar,IN,https://www.google.com/maps/place/Jama+Masjid+%D8%AC%D8%A7%D9%85%D8%B9+%D9%85%D8%B3%D8%AC%D8%AF%E2%80%AD/data=!4m7!3m6!1s0x39edb9de26b384a3:0xce4037a4a1af35d9!8m2!3d26.1418288!4d85.8976763!16s%2Fg%2F11f654cbcq!19sChIJo4SzJt657TkR2TWvoaQ3QM4?authuser=0&hl=en&rclk=1,"26.1418288,85.8976763"
Khan Sahab Ki Deohri Masjid,Mosque,"Khan Sahab Ki Deohri Masjid, Banker's Colony, Khan Chowk, Darbhanga, Bihar 846003","Banker's Colony, Khan Chowk",,Darbhanga,846003,Bihar,IN,https://www.google.com/maps/place/Khan+Sahab+Ki+Deohri+Masjid/data=!4m7!3m6!1s0x39edb9e98f54529f:0x7c5366262593b2dc!8m2!3d26.13928!4d85.8945355!16s%2Fg%2F11g4lghs7z!19sChIJn1JUj-m57TkR3LKTJSZmU3w?authuser=0&hl=en&rclk=1,"26.13928,85.89453549999999"
Purani Masjid,Mosque,"4WQ7+V5P Purani Masjid, Rasoolpur, Donar, Darbhanga, Bihar 846003","Rasoolpur, Donar",4WQ7+V5P,Darbhanga,846003,Bihar,IN,https://www.google.com/maps/place/Purani+Masjid/data=!4m7!3m6!1s0x39edb868fbcf906b:0x1c5af5911ae82e99!8m2!3d26.1397099!4d85.9129394!16s%2Fg%2F11f4ks7_1f!19sChIJa5DP-2i47TkRmS7oGpH1Whw?authuser=0&hl=en&rclk=1,"26.1397099,85.9129394"
Khanqah Chowk Masjid,Mosque,"Khanqah Chowk Masjid, Khankah Chowk, SH 50, Mirzapur, Darbhanga, Bihar 846004",Mirzapur,"Khankah Chowk, SH 50",Darbhanga,846004,Bihar,IN,https://www.google.com/maps/place/Khanqah+Chowk+Masjid/data=!4m7!3m6!1s0x39edb943a8ac63b1:0xee8949ffb6450d2!8m2!3d26.1477807!4d85.8978925!16s%2Fg%2F11gl643qwj!19sChIJsWOsqEO57TkR0lBk-5-U6A4?authuser=0&hl=en&rclk=1,"26.1477807,85.8978925"
Masjid Taqwa,Mosque,"5VGM+J8Q Masjid Taqwa, Alafganj, Bisanpur, Teachers Colony, Aajam Nagar, Darbhanga, Bihar 846001","Teachers Colony, Aajam Nagar","5VGM+J8Q, Alafganj, Bisanpur","Darbhanga, Bela Dullah",846001,Bihar,IN,https://www.google.com/maps/place/Masjid+Taqwa/data=!4m7!3m6!1s0x39edb77c147052cb:0x66629f799bc03cb!8m2!3d26.1765784!4d85.8833492!16s%2Fg%2F11hd5f2105!19sChIJy1JwFHy37TkRywO8mfcpZgY?authuser=0&hl=en&rclk=1,"26.1765784,85.8833492"
Noor i Ilahi Mashjid,Mosque,"4VRW+F24 Noor i Ilahi Mashjid, mohallah faizullah khan drabhanga, Bihar 846004",Rahamganj,"4VRW+F24, mohallah faizullah khan drabhanga",Darbhanga,846004,Bihar,IN,https://www.google.com/maps/place/Noor+i+Ilahi+Mashjid/data=!4m7!3m6!1s0x39edb84e98e8b2fd:0xe3116fc9fa738bd!8m2!3d26.1411341!4d85.8950829!16s%2Fg%2F11d_7h9rq2!19sChIJ_bLomE647TkRvTinn_wWMQ4?authuser=0&hl=en&rclk=1,"26.1411341,85.89508289999999"
Jama Masjid jm` msjd,Mosque,"4WP6+WGJ Jama Masjid jm` msjd, Rasoolpur, Donar, Darbhanga, Bihar 846003","Rasoolpur, Donar",4WP6+WGJ,Darbhanga,846003,Bihar,IN,https://www.google.com/maps/place/Jama+Masjid+%D8%AC%D8%A7%D9%85%D8%B9+%D9%85%D8%B3%D8%AC%D8%AF%E2%80%AD/data=!4m7!3m6!1s0x39edb868755cb573:0xf3ace688b2205042!8m2!3d26.1373299!4d85.9112657!16s%2Fg%2F11f1zlr3bg!19sChIJc7VcdWi47TkRQlAgsojmrPM?authuser=0&hl=en&rclk=1,"26.137329899999997,85.9112657"
Masjid Bela,Mosque,"5VCV+XVW Masjid Bela, Sundarpur, Darbhanga, Bihar 846005",Sundarpur,5VCV+XVW,Darbhanga,846005,Bihar,IN,https://www.google.com/maps/place/Masjid+Bela/data=!4m7!3m6!1s0x39edb780ab535e61:0xab58a792de368da9!8m2!3d26.1724761!4d85.8947034!16s%2Fg%2F11c1r63k4l!19sChIJYV5Tq4C37TkRqY023pKnWKs?authuser=0&hl=en&rclk=1,"26.172476099999997,85.8947034"
Jama Masjid jm` msjd,Mosque,"4VMX+7CR Jama Masjid jm` msjd, DMCH Campus, Laheriasarai, Darbhanga, Bihar 846003","DMCH Campus, Laheriasarai",4VMX+7CR,Darbhanga,846003,Bihar,IN,https://www.google.com/maps/place/Jama+Masjid+%D8%AC%D8%A7%D9%85%D8%B9+%D9%85%D8%B3%D8%AC%D8%AF%E2%80%AD/data=!4m7!3m6!1s0x39edb8508d5d1a4f:0xd0e5f418f25f2b3e!8m2!3d26.1332291!4d85.8985208!16s%2Fg%2F11gfb4z_gk!19sChIJTxpdjVC47TkRPitf8hj05dA?authuser=0&hl=en&rclk=1,"26.133229099999998,85.8985208"
Kathalbari Masjid khtthlwry msjd,Mosque,"5W62+4PF Kathalbari Masjid khtthlwry msjd, Darbhanga Raj Road, Kathalbari, Darbhanga, Bihar 846008",Kathalbari,"5W62+4PF, Darbhanga Raj Road",Darbhanga,846008,Bihar,IN,https://www.google.com/maps/place/Kathalbari+Masjid+%DA%A9%D9%B9%DA%BE%D9%84%D9%88%D8%A7%D8%B1%DB%8C+%D9%85%D8%B3%D8%AC%D8%AF%E2%80%AD/data=!4m7!3m6!1s0x39edb83ad25a00c9:0xc90f2573241fdc95!8m2!3d26.1603197!4d85.9017941!16s%2Fg%2F11g7njvmtg!19sChIJyQBa0jq47TkRldwfJHMlD8k?authuser=0&hl=en&rclk=1,"26.1603197,85.90179409999999"
Abdullahganj purani Masjid,Mosque,"4VMR+7Q3 Abdullahganj purani Masjid, Karamganj, Darbhanga, Bihar 846003",Karamganj,4VMR+7Q3,Darbhanga,846003,Bihar,IN,https://www.google.com/maps/place/Abdullahganj+purani+Masjid/data=!4m7!3m6!1s0x39edb853fa341b9d:0x25aa197842590ce!8m2!3d26.1313415!4d85.8941823!16s%2Fg%2F11ck8b1lw5!19sChIJnRs0-lO47TkRzpAlhJehWgI?authuser=0&hl=en&rclk=1,"26.131341499999998,85.8941823"
Masjid msjd,Mosque,"4VXV+4H7 Masjid msjd, Mufti Mohallah Rd, Mirzapur, Darbhanga, Bihar 846004",Mirzapur,"4VXV+4H7, Mufti Mohallah Rd",Darbhanga,846004,Bihar,IN,https://www.google.com/maps/place/Masjid+%D9%85%D8%B3%D8%AC%D8%AF%E2%80%AD/data=!4m7!3m6!1s0x39edb84a1020fbf1:0xd6f620758906224c!8m2!3d26.1477801!4d85.8939245!16s%2Fg%2F11c6zxtshp!19sChIJ8fsgEEq47TkRTCIGiXUg9tY?authuser=0&hl=en&rclk=1,"26.1477801,85.8939245"
Barheta Masjid,Mosque,"Barheta Masjid, Masjid, GN Ganj Rd, Chitragupta Nagar, Laheriasarai, Darbhanga, Barheta, Bihar 846001","Chitragupta Nagar, Laheriasarai","Masjid, GN Ganj Rd","Darbhanga, Barheta",846001,Bihar,IN,https://www.google.com/maps/place/Barheta+Masjid/data=!4m7!3m6!1s0x39edb91c6c1e08db:0x7d8996ee50cbb97a!8m2!3d26.1089662!4d85.8854146!16s%2Fg%2F11fylyc217!19sChIJ2wgebBy57TkRernLUO6WiX0?authuser=0&hl=en&rclk=1,"26.108966199999998,85.88541459999999"
Ayesha Masjid `y'shh msjd,Mosque,"5VCW+QPJ Ayesha Masjid `y'shh msjd, Bela Mod Bypass Rd, Sundarpur, Darbhanga, Bihar 846005",Sundarpur,"5VCW+QPJ, Bela Mod Bypass Rd",Darbhanga,846005,Bihar,IN,https://www.google.com/maps/place/Ayesha+Masjid+%D8%B9%D8%A7%D8%A6%D8%B4%DB%81+%D9%85%D8%B3%D8%AC%D8%AF%E2%80%AD/data=!4m7!3m6!1s0x39edb787c05556f7:0x83f7107fae78d799!8m2!3d26.1719719!4d85.8967798!16s%2Fg%2F11f307_35r!19sChIJ91ZVwIe37TkRmdd4rn8Q94M?authuser=0&hl=en&rclk=1,"26.1719719,85.89677979999999"
khadija masjid,Mosque,"4VVQ+3XW khadija masjid, Rahamganj, Tarauni, Bihar 846004",Rahamganj,4VVQ+3XW,Tarauni,,Bihar,IN,https://www.google.com/maps/place/khadija+masjid/data=!4m7!3m6!1s0x39edb84b56ec99b5:0xf85c1c4d634c9337!8m2!3d26.1427437!4d85.8899445!16s%2Fg%2F11gfnfrdc0!19sChIJtZnsVku47TkRN5NMY00cXPg?authuser=0&hl=en&rclk=1,"26.1427437,85.8899445"
Jama Masjid Chirmara,Mosque,"6W4V+7QQ Jama Masjid Chirmara, Chirmara, Darbhanga, Basdeopur, Bihar 846007",,"6W4V+7QQ, Chirmara","Darbhanga, Basdeopur",846007,Bihar,IN,https://www.google.com/maps/place/Jama+Masjid+Chirmara/data=!4m7!3m6!1s0x39edc83bca711309:0x846ea8add125097c!8m2!3d26.2057195!4d85.9444762!16s%2Fg%2F11hb2h3y3w!19sChIJCRNxyjvI7TkRfAkl0a2oboQ?authuser=0&hl=en&rclk=1,"26.205719499999997,85.9444762"
Sarai Badi Masjid,Mosque,"Sarai Badi Masjid, Sarai Sattar Khan, Ansari Rd, Laheriasarai, Darbhanga, Bihar 846003",Laheriasarai,"Sarai Sattar Khan, Ansari Rd",Darbhanga,846003,Bihar,IN,https://www.google.com/maps/place/Sarai+Badi+Masjid/data=!4m7!3m6!1s0x39edb9ab5861af9d:0xda6d0666c2fd7472!8m2!3d26.1242759!4d85.891774!16s%2Fg%2F11h6sll9jn!19sChIJna9hWKu57TkRcnT9wmYGbdo?authuser=0&hl=en&rclk=1,"26.124275899999997,85.891774"
Sara Mohanpur Choti Masjid (Ancient Mosque),Mosque,"5W8F+XC4 Sara Mohanpur Choti Masjid (Ancient Mosque), Gangwara, Sara Mohanpur, Padri, Bihar 846009",Gangwara,5W8F+XC4,"Sara Mohanpur, Padri",,Bihar,IN,https://www.google.com/maps/place/Sara+Mohanpur+Choti+Masjid+%28Ancient+Mosque%29/data=!4m7!3m6!1s0x39edb99cf2589d39:0xdc37fd351fb91242!8m2!3d26.1673962!4d85.9235737!16s%2Fg%2F11jp8m1g7r!19sChIJOZ1Y8py57TkRQhK5HzX9N9w?authuser=0&hl=en&rclk=1,"26.1673962,85.92357369999999"
Zubaida Masjid,Mosque,"4WQ7+FGX Zubaida Masjid, Allalpati, Rasoolpur, Donar, Darbhanga, Bihar 846003","Rasoolpur, Donar","4WQ7+FGX, Allalpati",Darbhanga,846003,Bihar,IN,https://www.google.com/maps/place/Zubaida+Masjid/data=!4m7!3m6!1s0x39edb9385a7dfddd:0xa395425d11cb7075!8m2!3d26.1387301!4d85.9138551!16s%2Fg%2F11h57mrkgr!19sChIJ3f19Wji57TkRdXDLEV1ClaM?authuser=0&hl=en&rclk=1,"26.1387301,85.91385509999999"
Mir Ghyas Masjid,Mosque,"4VPR+V44 Mir Ghyas Masjid, Rahamganj, Darbhanga, Bihar 846003",Rahamganj,4VPR+V44,Darbhanga,846003,Bihar,IN,https://www.google.com/maps/place/Mir+Ghyas+Masjid/data=!4m7!3m6!1s0x39edb84d5a57a935:0xc766548a75ac972c!8m2!3d26.1371409!4d85.89032!16s%2Fg%2F11g8wh2plp!19sChIJNalXWk247TkRLJesdYpUZsc?authuser=0&hl=en&rclk=1,"26.1371409,85.89032"
Bibi Maghdumunnisan Mosque(Town Thana Masjid),Mosque,"4VXR+GCV Bibi Maghdumunnisan Mosque(Town Thana Masjid), Gullowara, Darbhanga, Bihar 846004",Gullowara,4VXR+GCV,Darbhanga,846004,Bihar,IN,https://www.google.com/maps/place/Bibi+Maghdumunnisan+Mosque%28Town+Thana+Masjid%29/data=!4m7!3m6!1s0x39edb83560d7b2ef:0x6362552a484eed7!8m2!3d26.148854!4d85.8910435!16s%2Fg%2F11f2dsj7qr!19sChIJ77LXYDW47TkR1-6EpFIlNgY?authuser=0&hl=en&rclk=1,"26.148854,85.8910435"
Masjid-e-Takwa-Katrahiya msjd tqwy,Mosque,"4WX6+P9X Masjid-e-Takwa-Katrahiya msjd tqwy, Katrahiya, Donar, Darbhanga, Bihar 846009",Donar,"4WX6+P9X, Katrahiya",Darbhanga,846009,Bihar,IN,https://www.google.com/maps/place/Masjid-e-Takwa-Katrahiya+%D9%85%D8%B3%D8%AC%D8%AF+%D8%AA%D9%82%D9%88%DB%8C%D9%B0%E2%80%AD/data=!4m7!3m6!1s0x39edb95e9d7330e3:0xd42d8d3a5ce9e877!8m2!3d26.1493678!4d85.9109727!16s%2Fg%2F11ff1_q4jz!19sChIJ4zBznV657TkRd-jpXDqNLdQ?authuser=0&hl=en&rclk=1,"26.1493678,85.9109727"
Mohammadi masjid,Mosque,"5V3P+X4V Mohammadi masjid, Shubhankarpur, Darbhanga, Chataria, Bihar 846006",Shubhankarpur,5V3P+X4V,"Darbhanga, Chataria",846006,Bihar,IN,https://www.google.com/maps/place/Mohammadi+masjid/data=!4m7!3m6!1s0x39edb9353e9bc69b:0x4be4018988c5bd20!8m2!3d26.1549957!4d85.8852901!16s%2Fg%2F11rvft7gw7!19sChIJm8abPjW57TkRIL3FiIkB5Es?authuser=0&hl=en&rclk=1,"26.154995699999997,85.88529009999999"
Bhairopatti Masjid,Mosque,"4WRH+VM7 Bhairopatti Masjid, Bhairopatti, Darbhanga, Bajid Pur, Bihar 846003",Bhairopatti,4WRH+VM7,"Darbhanga, Bajid Pur",846003,Bihar,IN,https://www.google.com/maps/place/Bhairopatti+Masjid/data=!4m7!3m6!1s0x39edb87615555555:0xb11cf4e2c4afdf39!8m2!3d26.1421602!4d85.929177!16s%2Fg%2F11f4l1ttgx!19sChIJVVVVFXa47TkROd-vxOL0HLE?authuser=0&hl=en&rclk=1,"26.1421602,85.929177"
Sarhadi Masjid,Mosque,"4VHR+HG9 Sarhadi Masjid, Karamganj, Darbhanga, Bihar 846003",Karamganj,4VHR+HG9,Darbhanga,846003,Bihar,IN,https://www.google.com/maps/place/Sarhadi+Masjid/data=!4m7!3m6!1s0x39edb92ba36bec5b:0x3f64b05405a5e88b!8m2!3d26.12892!4d85.8913631!16s%2Fg%2F11jg3jnk9n!19sChIJW-xroyu57TkRi-ilBVSwZD8?authuser=0&hl=en&rclk=1,"26.128919999999997,85.89136309999999"
Masjid belal,Mosque,"Masjid belal, 8, GM Road, near PNB Circle Office, Rajkumarganj, Kathalbari, Darbhanga, Bihar 846004","Rajkumarganj, Kathalbari","8, GM Road, near PNB Circle Office",Darbhanga,846004,Bihar,IN,https://www.google.com/maps/place/Masjid+belal/data=!4m7!3m6!1s0x39edb999fe0c1fa9:0xc3639024adc1f85a!8m2!3d26.157101!4d85.901475!16s%2Fg%2F11rdxrg4_d!19sChIJqR8M_pm57TkRWvjBrSSQY8M?authuser=0&hl=en&rclk=1,"26.157100999999997,85.90147499999999"
Masjid (Moulviganj) msjd,Mosque,"5V9P+QRF Masjid (Moulviganj) msjd, moulviganj, Kadirabad, Bihar",Mansaar Colony,"5V9P+QRF, moulviganj","Kadirabad, Darbhanga",,Bihar,IN,https://www.google.com/maps/place/Masjid+%28Moulviganj%29+%D9%85%D8%B3%D8%AC%D8%AF%E2%80%AD/data=!4m7!3m6!1s0x39edb9d50760b26d:0xa3fe7766e977ea55!8m2!3d26.169449!4d85.8870363!16s%2Fg%2F11fxccdfsb!19sChIJbbJgB9W57TkRVep36WZ3_qM?authuser=0&hl=en&rclk=1,"26.169449,85.88703629999999"
Masjid Aayesha,Mosque,"4VGQ+9R5 Masjid Aayesha, Chakzohra, Laheriasarai, Darbhanga, Bihar 846001",Baquar Gunj,"4VGQ+9R5, Chakzohra, Laheriasarai","Darbhanga, Yakubpur",846001,Bihar,IN,https://www.google.com/maps/place/Masjid+Aayesha/data=!4m7!3m6!1s0x39edb9aab3142e19:0x1aa9ad63cc7df3d7!8m2!3d26.125877!4d85.8896082!16s%2Fg%2F11hd6ykzhn!19sChIJGS4Us6q57TkR1_N9zGOtqRo?authuser=0&hl=en&rclk=1,"26.125877,85.8896082"
Pili Masjid pyly msjd,Mosque,"5V9P+QRX Pili Masjid pyly msjd, WIT road, Mansaar Colony, Kadirabad, Bihar 846008",Mansaar Colony,"5V9P+QRX, WIT road",Kadirabad,846008,Bihar,IN,https://www.google.com/maps/place/Pili+Masjid+%D9%BE%DB%8C%D9%84%DB%8C+%D9%85%D8%B3%D8%AC%D8%AF%E2%80%AD/data=!4m7!3m6!1s0x39edb82b8079bde7:0xa36e567341904271!8m2!3d26.1661929!4d85.8922736!16s%2Fg%2F11c5m_bsx5!19sChIJ5715gCu47TkRcUKQQXNWbqM?authuser=0&hl=en&rclk=1,"26.1661929,85.8922736"
Jama masjid dumduma,Mosque,"4VJR+3W8 Jama masjid dumduma, Unnamed Road, Karamganj, Darbhanga, Bihar 846003",Karamganj,"4VJR+3W8, Unnamed Road",Darbhanga,846003,Bihar,IN,https://www.google.com/maps/place/Jama+masjid+dumduma/data=!4m7!3m6!1s0x39edb918ca6f6955:0xd62907cf192b8bdf!8m2!3d26.1301542!4d85.8923176!16s%2Fg%2F11p0j173mm!19sChIJVWlvyhi57TkR34srGc8HKdY?authuser=0&hl=en&rclk=1,"26.1301542,85.8923176"
Bismillah masjid bsm llh msjd,Mosque,"4VFR+XPG Bismillah masjid bsm llh msjd, Laheriasarai, Darbhanga, Bihar 846003",Laheriasarai,4VFR+XPG,Darbhanga,846003,Bihar,IN,https://www.google.com/maps/place/Bismillah+masjid+%D8%A8%D8%B3%D9%85+%D8%A7%D9%84%D9%84%DB%81+%D9%85%D8%B3%D8%AC%D8%AF%E2%80%AD/data=!4m7!3m6!1s0x39edb9932c37f467:0x79bf7caabacc96cb!8m2!3d26.1249434!4d85.8918255!16s%2Fg%2F11kgcnr9yx!19sChIJZ_Q3LJO57TkRy5bMuqp8v3k?authuser=0&hl=en&rclk=1,"26.1249434,85.8918255"
NOOR MASJID SHIVDHARA (AHLEHADEES) nwr msjd hl Hdyth,Mosque,"5VHJ+C46 NOOR MASJID SHIVDHARA (AHLEHADEES) nwr msjd hl Hdyth, Sundarpur, Darbhanga, Bihar 846005",Sundarpur,5VHJ+C46,Darbhanga,846005,Bihar,IN,https://www.google.com/maps/place/NOOR+MASJID+SHIVDHARA+%28AHLEHADEES%29+%D9%86%D9%88%D8%B1+%D9%85%D8%B3%D8%AC%D8%AF+%D8%A7%DB%81%D9%84+%D8%AD%D8%AF%DB%8C%D8%AB%E2%80%AD/data=!4m7!3m6!1s0x39edb7cb634865c5:0x74f0737606a98727!8m2!3d26.178539!4d85.880259!16s%2Fg%2F11fmybk0kt!19sChIJxWVIY8u37TkRJ4epBnZz8HQ?authuser=0&hl=en&rclk=1,"26.178538999999997,85.880259"
Khadijah Masjid,Mosque,"4VGP+VH5 Khadijah Masjid, Ashiyana Colony Rd, Yakubpur, Laheriasarai, Darbhanga, Bihar 846003",Laheriasarai,"4VGP+VH5, Ashiyana Colony Rd, Yakubpur","Darbhanga, Yakubpur",846003,Bihar,IN,https://www.google.com/maps/place/Khadijah+Masjid/data=!4m7!3m6!1s0x39edb9b6ea2e4441:0xff4192f97c2fdb60!8m2!3d26.1271401!4d85.8864955!16s%2Fg%2F11qg66wzmg!19sChIJQUQu6ra57TkRYNsvfPmSQf8?authuser=0&hl=en&rclk=1,"26.1271401,85.8864955"
Masjid Hyat,Mosque,"4VVR+6CX Masjid Hyat, Rahamganj, Darbhanga, Bihar 846004",Rahamganj,4VVR+6CX,Darbhanga,846004,Bihar,IN,https://www.google.com/maps/place/Masjid+Hyat/data=!4m7!3m6!1s0x39edb84b6662116b:0xf7e46c35c85133a6!8m2!3d26.1431145!4d85.8910969!16s%2Fg%2F11f57dwsj0!19sChIJaxFiZku47TkRpjNRyDVs5Pc?authuser=0&hl=en&rclk=1,"26.1431145,85.8910969"
Chakzohra Masjid (Chakzohra),Mosque,"Chakzohra Masjid (Chakzohra), Masjid Chakzohra, Laheriasarai, Darbhanga, Bihar 846001",Laheriasarai,Masjid Chakzohra,"Darbhanga, Yakubpur",846001,Bihar,IN,https://www.google.com/maps/place/Chakzohra+Masjid+%28Chakzohra%29/data=!4m7!3m6!1s0x39edb9830c9cb0af:0x6f13b5dfa217d394!8m2!3d26.1271204!4d85.8897569!16s%2Fg%2F11hyjlglw3!19sChIJr7CcDIO57TkRlNMXot-1E28?authuser=0&hl=en&rclk=1,"26.1271204,85.8897569"
Bari masjid benta,Mosque,"4W92+63X Bari masjid benta, Benta, Laheriasarai, Darbhanga, Bihar 846001","Benta, Laheriasarai",4W92+63X,Darbhanga,846001,Bihar,IN,https://www.google.com/maps/place/Bari+masjid+benta/data=!4m7!3m6!1s0x39edb922380316ab:0xdcfacde4274ded37!8m2!3d26.1181098!4d85.9002279!16s%2Fg%2F11tsmzcc5w!19sChIJqxYDOCK57TkRN-1NJ-TN-tw?authuser=0&hl=en&rclk=1,"26.1181098,85.90022789999999"
Masjid Molvi Sarfuddin Mohalla msjd mwlwy shrf ldyn mHlh,Mosque,"Masjid Molvi Sarfuddin Mohalla msjd mwlwy shrf ldyn mHlh, Molvi sarfuddin mohlla, Shivaji Nagar, Gullowara, Darbhanga, Bihar 846004","Shivaji Nagar, Gullowara",Molvi sarfuddin mohlla,Darbhanga,846004,Bihar,IN,https://www.google.com/maps/place/Masjid+Molvi+Sarfuddin+Mohalla+%D9%85%D8%B3%D8%AC%D8%AF+%D9%85%D9%88%D9%84%D9%88%DB%8C+%D8%B4%D8%B1%D9%81+%D8%A7%D9%84%D8%AF%DB%8C%D9%86+%D9%85%D8%AD%D9%84%DB%81%E2%80%AD/data=!4m7!3m6!1s0x39edb9cafa872df1:0x9dc08174bba9ba0f!8m2!3d26.1521472!4d85.8890161!16s%2Fg%2F11f101nrsj!19sChIJ8S2H-sq57TkRD7qpu3SBwJ0?authuser=0&hl=en&rclk=1,"26.152147199999998,85.88901609999999"
Kadirabad Lal Masjid,Mosque,"Kadirabad Lal Masjid, Mansaar Colony, Kadirabad, Bihar 846006",Mansaar Colony,,Kadirabad,846006,Bihar,IN,https://www.google.com/maps/place/Kadirabad+Lal+Masjid/data=!4m7!3m6!1s0x39edb96742b41817:0x2690f7190630e2a0!8m2!3d26.1677358!4d85.890567!16s%2Fg%2F11hdpsvkxq!19sChIJFxi0Qme57TkRoOIwBhn3kCY?authuser=0&hl=en&rclk=1,"26.1677358,85.89056699999999"
"AL-QUBA JAMA MASJID, ALLALPATTI, DARBHANGA",Mosque,"4WP4+XXF AL-QUBA JAMA MASJID, ALLALPATTI, DARBHANGA, Allalpatti, Laheriasarai, Darbhanga, Bihar 846003","Allalpatti, Laheriasarai",4WP4+XXF,Darbhanga,846003,Bihar,IN,"https://www.google.com/maps/place/AL-QUBA+JAMA+MASJID,+ALLALPATTI,+DARBHANGA/data=!4m7!3m6!1s0x39edb9cc51507787:0xc85d14374b2b1849!8m2!3d26.1374439!4d85.9074137!16s%2Fg%2F11rm_xsxs5!19sChIJh3dQUcy57TkRSRgrSzcUXcg?authuser=0&hl=en&rclk=1","26.137443899999997,85.90741369999999"
Masjid,Mosque,"Masjid, Bhalni, Darbhanga, Bhalni, Bihar 846005",,Bhalni,"Darbhanga, Bhalni",846005,Bihar,IN,https://www.google.com/maps/place/Masjid/data=!4m7!3m6!1s0x39edb72dd6b061ff:0x131d9efbea874e0c!8m2!3d26.1934826!4d85.8760259!16s%2Fg%2F11p55z_nbk!19sChIJ_2Gw1i237TkRDE6H6vueHRM?authuser=0&hl=en&rclk=1,"26.1934826,85.8760259"
Aayesha Mosque,Mosque,"4VMP+WQR Aayesha Mosque, Darbhanga, Bihar 846003",,4VMP+WQR,Darbhanga,,Bihar,IN,https://www.google.com/maps/place/Aayesha+Mosque/data=!4m7!3m6!1s0x39edb965b7aafc29:0xe88b4ded8a737a3c!8m2!3d26.1348528!4d85.8868854!16s%2Fg%2F11hffw1xgg!19sChIJKfyqt2W57TkRPHpziu1Ni-g?authuser=0&hl=en&rclk=1,"26.134852799999997,85.8868854"
Jaityari Auliya Masjid jytyry wly msjd,Mosque,"5V2W+VXF Jaityari Auliya Masjid jytyry wly msjd, Mirzapur Road, Mirzapur, Darbhanga, Bihar 846004",Mirzapur,"5V2W+VXF, Mirzapur Road",Darbhanga,,Bihar,IN,https://www.google.com/maps/place/Jaityari+Auliya+Masjid+%D8%AC%DB%8C%D8%AA%DB%8C%D8%A7%D8%B1%DB%8C+%D8%A7%D9%88%D9%84%DB%8C%D8%A7%D8%A1+%D9%85%D8%B3%D8%AC%D8%AF%E2%80%AD/data=!4m7!3m6!1s0x39edb9dfa78e798b:0xb2a8b5d8d0405a1!8m2!3d26.1521824!4d85.897422!16s%2Fg%2F11fj8j9gzn!19sChIJi3mOp9-57TkRoQUEjV2LKgs?authuser=0&hl=en&rclk=1,"26.152182399999997,85.89742199999999"
MASJID E YASIN,Mosque,"MASJID E YASIN, SHIVDHARA CHOWK WARD NO. 6, Bihar 846004",Sundarpur,SHIVDHARA CHOWK WARD NO. 6,Darbhanga,846004,Bihar,IN,https://www.google.com/maps/place/MASJID+E+YASIN/data=!4m7!3m6!1s0x39edb7a4c1735187:0x868164ea54c4774b!8m2!3d26.176278!4d85.8795298!16s%2Fg%2F11qzvchgql!19sChIJh1FzwaS37TkRS3fEVOpkgYY?authuser=0&hl=en&rclk=1,"26.176278,85.8795298"
Sher Mohammad Masjid,Mosque,"4VRR+W72 Sher Mohammad Masjid, Rahamganj, Darbhanga, Bihar 846004",Rahamganj,4VRR+W72,Darbhanga,846004,Bihar,IN,https://www.google.com/maps/place/Sher+Mohammad+Masjid/data=!4m7!3m6!1s0x39edb95008bd11a9:0x3ed2a1d4ff4a695c!8m2!3d26.1422519!4d85.8906358!16s%2Fg%2F11ptv5pp8x!19sChIJqRG9CFC57TkRXGlK_9Sh0j4?authuser=0&hl=en&rclk=1,"26.142251899999998,85.8906358"
Bakar ganj momin tola masjid bqr gnj msjd,Mosque,"4VCV+MX9 Bakar ganj momin tola masjid bqr gnj msjd, Bakarganj, Laheriasarai, Darbhanga, Bihar 846003","Bakarganj, Laheriasarai",4VCV+MX9,Darbhanga,846003,Bihar,IN,https://www.google.com/maps/place/Bakar+ganj+momin+tola+masjid+%D8%A8%D8%A7%D9%82%D8%B1+%DA%AF%D9%86%D8%AC+%D9%85%D8%B3%D8%AC%D8%AF%E2%80%AD/data=!4m7!3m6!1s0x39edb966039bdbe3:0x5931a903d103b1fa!8m2!3d26.1216567!4d85.8949889!16s%2Fg%2F11g0ll7shj!19sChIJ49ubA2a57TkR-rED0QOpMVk?authuser=0&hl=en&rclk=1,"26.1216567,85.8949889"
Belal masjid abdullah ganj,Mosque,"4VMV+45 Belal masjid abdullah ganj, Karamganj, Darbhanga, Bihar 846003",Karamganj,4VMV+45,Darbhanga,846003,Bihar,IN,https://www.google.com/maps/place/Belal+masjid+abdullah+ganj/data=!4m7!3m6!1s0x39edb9ee7aebafe3:0xdbfb9abfdb09c10!8m2!3d26.1329541!4d85.8926794!16s%2Fg%2F11v0r5_9z6!19sChIJ46_reu657TkREJyw_au5vw0?authuser=0&hl=en&rclk=1,"26.1329541,85.89267939999999"
Abhanda Masjid,Mosque,"4VCQ+XX6 Abhanda Masjid, New Abhanda, Laheriasarai, Darbhanga, Bihar 846003","New Abhanda, Laheriasarai",4VCQ+XX6,Darbhanga,846003,Bihar,IN,https://www.google.com/maps/place/Abhanda+Masjid/data=!4m7!3m6!1s0x39edb9eff033baa9:0xc2ad1778ae3b2dd5!8m2!3d26.122401!4d85.8898846!16s%2Fg%2F11l27szfy8!19sChIJqboz8O-57TkR1S07rngXrcI?authuser=0&hl=en&rclk=1,"26.122401,85.8898846"
"Benta,Choti Masjid bnt chhwtty msjd",Mosque,"4WF4+GFF Benta,Choti Masjid bnt chhwtty msjd, Benta, Laheriasarai, Darbhanga, Bihar 846003","Benta, Laheriasarai",4WF4+GFF,Darbhanga,846003,Bihar,IN,"https://www.google.com/maps/place/Benta,Choti+Masjid+%D8%A8%D9%86%D8%AA%D8%A7+%DA%86%DA%BE%D9%88%D9%B9%DB%8C+%D9%85%D8%B3%D8%AC%D8%AF%E2%80%AD/data=!4m7!3m6!1s0x39edb9ed5cd9f9c7:0xee73d912a60c5f86!8m2!3d26.1238168!4d85.9061744!16s%2Fg%2F11m_dck7sz!19sChIJx_nZXO257TkRhl8MphLZc-4?authuser=0&hl=en&rclk=1","26.1238168,85.9061744"
Firdous Masjid,Mosque,"4VFP+QFH Firdous Masjid, Yakubpur, Laheriasarai, Darbhanga, Bihar 846001",Laheriasarai,"4VFP+QFH, Yakubpur","Darbhanga, Yakubpur",846001,Bihar,IN,https://www.google.com/maps/place/Firdous+Masjid/data=!4m7!3m6!1s0x39edb94bbc9e7e9f:0x4397154442d058f8!8m2!3d26.1244279!4d85.8862384!16s%2Fg%2F11h081q533!19sChIJn36evEu57TkR-FjQQkQVl0M?authuser=0&hl=en&rclk=1,"26.1244279,85.8862384"
yousufganj masjid,Mosque,"4VMW+R3J yousufganj masjid, yousufganj, Darbhanga, Bihar 846003",Karamganj,"4VMW+R3J, yousufganj",Darbhanga,846003,Bihar,IN,https://www.google.com/maps/place/yousufganj+masjid/data=!4m7!3m6!1s0x39edb96e4371c391:0xf76ef25f7bb42598!8m2!3d26.1345939!4d85.8951408!16s%2Fg%2F11s5jyrr45!19sChIJkcNxQ2657TkRmCW0e1_ybvc?authuser=0&hl=en&rclk=1,"26.1345939,85.8951408"
Kazipura Masjid,Mosque,"4VJV+W25 Kazipura Masjid, Kazi, Kazi Pura, Laheriasarai, Pura, Darbhanga, Bihar 846001","Kazi Pura, Laheriasarai",4VJV+W25 Kazi,"Pura, Darbhanga",846001,Bihar,IN,https://www.google.com/maps/place/Kazipura+Masjid/data=!4m7!3m6!1s0x39edb99dc8e6efc1:0x9bbbbe1d33809f1b!8m2!3d26.1323119!4d85.8926464!16s%2Fg%2F11vdhfxsms!19sChIJwe_myJ257TkRG5-AMx2-u5s?authuser=0&hl=en&rclk=1,"26.132311899999998,85.89264639999999"
SUNNI MADINA MASJID,Mosque,"5W67+CQP SUNNI MADINA MASJID, CHHAPKI PARRI, Lakshmisagar, Darbhanga, Bihar 846009",Lakshmisagar,"5W67+CQP, CHHAPKI PARRI",Darbhanga,846009,Bihar,IN,https://www.google.com/maps/place/SUNNI+MADINA+MASJID/data=!4m7!3m6!1s0x39edb90be224ac0f:0x4b7d9ccd8260a46!8m2!3d26.1610929!4d85.9144602!16s%2Fg%2F11vldnbqzy!19sChIJD6wk4gu57TkRRgom2MzZtwQ?authuser=0&hl=en&rclk=1,"26.1610929,85.9144602"
"betaa, cauk , bdd'ii msjid",Mosque,"4WH3+H4R betaa, cauk , bdd'ii msjid, Bangali Tola, Laheriasarai, Darbhanga, Bihar 846003","Bangali Tola, Laheriasarai",4WH3+H4R,Darbhanga,846003,Bihar,IN,"https://www.google.com/maps/place/%E0%A4%AC%E0%A5%87%E0%A4%A4%E0%A4%BE,+%E0%A4%9A%E0%A5%8C%E0%A4%95+,+%E0%A4%AC%E0%A4%A1%E0%A4%BC%E0%A5%80+%E0%A4%AE%E0%A4%B8%E0%A5%8D%E0%A4%9C%E0%A4%BF%E0%A4%A6/data=!4m7!3m6!1s0x39edb968ab1182d1:0xec461acf2dc2e4ff!8m2!3d26.1289854!4d85.9027573!16s%2Fg%2F11kj81tnjz!19sChIJ0YIRq2i57TkR_-TCLc8aRuw?authuser=0&hl=en&rclk=1","26.128985399999998,85.90275729999999"
Shafi High School Masjid,Mosque,"4WJ4+846 Shafi High School Masjid, Allalpatti, Laheriasarai, Darbhanga, Bihar 846003","Allalpatti, Laheriasarai",4WJ4+846,Darbhanga,846003,Bihar,IN,https://www.google.com/maps/place/Shafi+High+School+Masjid/data=!4m7!3m6!1s0x39edb987aaec8b5b:0xbbaa0166408eb216!8m2!3d26.1307886!4d85.905277!16s%2Fg%2F11h5rtszkp!19sChIJW4vsqoe57TkRFrKOQGYBqrs?authuser=0&hl=en&rclk=1,"26.1307886,85.905277"
Lalbagh Choti Masjid,Mosque,"5V3V+2P6 Lalbagh Choti Masjid, Mirzapur, Lal Bagh, Darbhanga, Bihar 846004","Mirzapur, Lal Bagh",5V3V+2P6,Darbhanga,846004,Bihar,IN,https://www.google.com/maps/place/Lalbagh+Choti+Masjid/data=!4m7!3m6!1s0x39edb9bb51371b65:0xf841a674a7854fdf!8m2!3d26.1525392!4d85.8942508!16s%2Fg%2F11sbqtmdg6!19sChIJZRs3Ubu57TkR30-Fp3SmQfg?authuser=0&hl=en&rclk=1,"26.1525392,85.8942508"
Mosque Bhagwandas Mohalla,Mosque,"Mosque Bhagwandas Mohalla, Moh. Bhagwan Das, JP Chowk, Mirzapur, Lal Bagh, Darbhanga, Bihar 846004","JP Chowk, Mirzapur, Lal Bagh",Moh. Bhagwan Das,Darbhanga,846004,Bihar,IN,https://www.google.com/maps/place/Mosque+Bhagwandas+Mohalla/data=!4m7!3m6!1s0x39edb98e9554b261:0x308a181d4bba2869!8m2!3d26.1489361!4d85.8952584!16s%2Fg%2F11pzt6t080!19sChIJYbJUlY657TkRaSi6Sx0YijA?authuser=0&hl=en&rclk=1,"26.1489361,85.8952584"
Jama Masjid (Bhagwan Dass Road) jm` msjd,Mosque,"4VXV+JXH Jama Masjid (Bhagwan Dass Road) jm` msjd, Bhagwan Dass Road, near J.P. Chowk, near Nagar Nigam, Mirzapur, Darbhanga, Bihar 846004",Mirzapur,"4VXV+JXH, Bhagwan Dass Road, near J.P. Chowk, near Nagar Nigam",Darbhanga,846004,Bihar,IN,https://www.google.com/maps/place/Jama+Masjid+%28Bhagwan+Dass+Road%29+%D8%AC%D8%A7%D9%85%D8%B9+%D9%85%D8%B3%D8%AC%D8%AF%E2%80%AD/data=!4m7!3m6!1s0x39edb915f8a3d749:0xa6249b077c950fec!8m2!3d26.1490706!4d85.8949812!16s%2Fg%2F11fwjr8xqp!19sChIJSdej-BW57TkR7A-VfAebJKY?authuser=0&hl=en&rclk=1,"26.149070599999998,85.89498119999999"
Naya Tola Masjid,Mosque,"Naya Tola Masjid, Bhalni, Darbhanga, Bhalni, Bihar 846005",,Bhalni,"Darbhanga, Bhalni",846005,Bihar,IN,https://www.google.com/maps/place/Naya+Tola+Masjid/data=!4m7!3m6!1s0x39edb78f68752a5f:0x7e5ea417981cc7b9!8m2!3d26.1939248!4d85.8740285!16s%2Fg%2F11tmw63ghy!19sChIJXyp1aI-37TkRucccmBekXn4?authuser=0&hl=en&rclk=1,"26.193924799999998,85.8740285"
Bilal Masjid Nagardih,Mosque,"Bilal Masjid Nagardih, Housing Board Colony, Laheriasarai, Nagar Diha, Barheta, Bihar 846001","Housing Board Colony, Laheriasarai",,"Nagar Diha, Barheta",,Bihar,IN,https://www.google.com/maps/place/Bilal+Masjid+Nagardih/data=!4m7!3m6!1s0x39edb8e4c06f5c9d:0x7b423bd20e06570e!8m2!3d26.1118679!4d85.8960039!16s%2Fg%2F11f3t_vrc1!19sChIJnVxvwOS47TkRDlcGDtI7Qns?authuser=0&hl=en&rclk=1,"26.1118679,85.8960039"
Jama masjid Trauni,Mosque,"4VRM+PMP Jama masjid Trauni, Gullowara, Musapur, Ganipur, Bihar 846006",Gullowara,4VRM+PMP,"Musapur, Ganipur",846006,Bihar,IN,https://www.google.com/maps/place/Jama+masjid+Trauni/data=!4m7!3m6!1s0x39edb93b4f0ebbf9:0xc6e7e314cd78bc5b!8m2!3d26.1418424!4d85.8841909!16s%2Fg%2F11rghsrns_!19sChIJ-bsOTzu57TkRW7x4zRTj58Y?authuser=0&hl=en&rclk=1,"26.141842399999998,85.8841909"
Jama Masjid Imdadia,Mosque,"4VHW+M3P Jama Masjid Imdadia, Ismailganj Rd, near light house cinema hall, Karamganj, Darbhanga, Bihar 846003",Karamganj,"4VHW+M3P, Ismailganj Rd, near light house cinema hall",Darbhanga,846003,Bihar,IN,https://www.google.com/maps/place/Jama+Masjid+Imdadia/data=!4m7!3m6!1s0x39edb9d142a9c44f:0x54da4795295b6fe5!8m2!3d26.129218!4d85.8952083!16s%2Fg%2F11v48nz6_n!19sChIJT8SpQtG57TkR5W9bKZVH2lQ?authuser=0&hl=en&rclk=1,"26.129217999999998,85.8952083"
Mosque,Mosque,"Mosque, Infront of Jama Maszid Silicon Market, Kabipur, Laheriasarai, Darbhanga, Barheta, Bihar 846001","Kabipur, Laheriasarai",Infront of Jama Maszid Silicon Market,"Darbhanga, Barheta",846001,Bihar,IN,https://www.google.com/maps/place/Mosque/data=!4m7!3m6!1s0x39edb9284b18ccad:0xc328a677ab91cd70!8m2!3d26.1091545!4d85.8990183!16s%2Fg%2F11kpy02b_g!19sChIJrcwYSyi57TkRcM2Rq3emKMM?authuser=0&hl=en&rclk=1,"26.1091545,85.8990183"
Masjid,Mosque,"4VCX+V42 Masjid, GN Ganj Rd, Mogalpura, Laheriasarai, Darbhanga, Bihar 846001","Mogalpura, Laheriasarai","4VCX+V42, GN Ganj Rd",Darbhanga,846001,Bihar,IN,https://www.google.com/maps/place/Masjid/data=!4m7!3m6!1s0x39edb8f852cc0001:0x7b0451b2d560f2b!8m2!3d26.1221271!4d85.8977655!16s%2Fg%2F11sscs6bwr!19sChIJAQDMUvi47TkRKw9WLRtFsAc?authuser=0&hl=en&rclk=1,"26.1221271,85.89776549999999"
Jama Masjid Rahamganj,Mosque,"4VPX+RH2 Jama Masjid Rahamganj, Banker's Colony, Rahamganj, Darbhanga, Bihar 846004","Banker's Colony, Rahamganj",4VPX+RH2,Darbhanga,846004,Bihar,IN,https://www.google.com/maps/place/Jama+Masjid+Rahamganj/data=!4m7!3m6!1s0x39edb9a68085b043:0xa513e52b45998acb!8m2!3d26.1370199!4d85.8989318!16s%2Fg%2F11kq4z0sg4!19sChIJQ7CFgKa57TkRy4qZRSvlE6U?authuser=0&hl=en&rclk=1,"26.1370199,85.8989318"
SHAHI MASJID-KABRISTAN lalpokhar west shhy msjd,Mosque,"4VXV+4H3 SHAHI MASJID-KABRISTAN lalpokhar west shhy msjd, Mufti Mohallah Rd, Mirzapur, Darbhanga, Bihar 846004",Mirzapur,"4VXV+4H3, Mufti Mohallah Rd",Darbhanga,846004,Bihar,IN,https://www.google.com/maps/place/SHAHI+MASJID-KABRISTAN+lalpokhar+west+%D8%B4%D8%A7%DB%81%DB%8C+%D9%85%D8%B3%D8%AC%D8%AF%E2%80%AD/data=!4m7!3m6!1s0x39edb9277b686275:0xe771c48d6d02d806!8m2!3d26.1477641!4d85.8939354!16s%2Fg%2F11kmtbkrk3!19sChIJdWJoeye57TkRBtgCbY3Ecec?authuser=0&hl=en&rclk=1,"26.1477641,85.89393539999999"
Masjid Abdur Rahman Ar-Ravih,Mosque,"4VGV+HF9 Masjid Abdur Rahman Ar-Ravih, Mogalpura, Laheriasarai, Darbhanga, Bihar 846003","Mogalpura, Laheriasarai",4VGV+HF9,Darbhanga,846003,Bihar,IN,https://www.google.com/maps/place/Masjid+Abdur+Rahman+Ar-Ravih/data=!4m7!3m6!1s0x39edb855e9e5a4c3:0x1da526073363b279!8m2!3d26.1264142!4d85.8937301!16s%2Fg%2F11gfdycq23!19sChIJw6Tl6VW47TkRebJjMwcmpR0?authuser=0&hl=en&rclk=1,"26.1264142,85.8937301"
Macca masjid,Mosque,"4V6F+C5M Macca masjid, Shahpur, Laheriasarai, Ojhaul, Darbhanga, Bihar",Laheriasarai,"4V6F+C5M, Shahpur","Ojhaul, Darbhanga",,Bihar,IN,https://www.google.com/maps/place/Macca+masjid/data=!4m7!3m6!1s0x39edb911bfdad60b:0x3783debc3e8f0545!8m2!3d26.1110759!4d85.8729305!16s%2Fg%2F11vkhzr9rn!19sChIJC9bavxG57TkRRQWPPrzegzc?authuser=0&hl=en&rclk=1,"26.1110759,85.8729305"
Noori Masjid Simra,Mosque,"Noori Masjid Simra, Village Simra Darbhanga Bihar Pin-846005, Darbhanga, Bihar 846005",Gahumi,Village Simra Darbhanga Bihar Pin-846005,"Darbhanga, Semra",846005,Bihar,IN,https://www.google.com/maps/place/Noori+Masjid+Simra/data=!4m7!3m6!1s0x39edb92778e8d2c5:0x961c030e64c78d85!8m2!3d26.1715925!4d85.8787162!16s%2Fg%2F11l28b01cm!19sChIJxdLoeCe57TkRhY3HZA4DHJY?authuser=0&hl=en&rclk=1,"26.1715925,85.8787162"
Deurimasjid,Mosque,"4VQW+Q52 Deurimasjid, Mohammad Colony Rd, Banker's Colony, Donar, Darbhanga, Bihar 846003","Banker's Colony, Donar","4VQW+Q52, Mohammad Colony Rd",Darbhanga,846003,Bihar,IN,https://www.google.com/maps/place/Deurimasjid/data=!4m7!3m6!1s0x39edb962e207e7c7:0x2257faf8ceb7503c!8m2!3d26.1393752!4d85.8954008!16s%2Fg%2F11sysds2bx!19sChIJx-cH4mK57TkRPFC3zvj6VyI?authuser=0&hl=en&rclk=1,"26.1393752,85.89540079999999"
JAMA MASJID CHILHA DILAWARPUR,Mosque,"4WR8+H54 JAMA MASJID CHILHA DILAWARPUR, Rasoolpur, Dilabarpur, Bihar 846003",Rasoolpur,4WR8+H54,Dilabarpur,,Bihar,IN,https://www.google.com/maps/place/JAMA+MASJID+CHILHA+DILAWARPUR/data=!4m7!3m6!1s0x39edb95a45b2939f:0x602fb750077924a3!8m2!3d26.1413759!4d85.9154654!16s%2Fg%2F11s9vxzx0t!19sChIJn5OyRVq57TkRoyR5B1C3L2A?authuser=0&hl=en&rclk=1,"26.1413759,85.9154654"
Masjid Kheraj pur,Mosque,"4V3R+F6 Masjid Kheraj pur, Kheraj Pur Village, Darbhanga, Barheta, Bihar 846001",Kheraj Pur Village,4V3R+F6,"Darbhanga, Barheta",846001,Bihar,IN,https://www.google.com/maps/place/Masjid+Kheraj+pur/data=!4m7!3m6!1s0x39edb930ee1d07e5:0xb63de5c881ae3bc1!8m2!3d26.1048374!4d85.8901738!16s%2Fg%2F11kj4_tshr!19sChIJ5Qcd7jC57TkRwTuugcjlPbY?authuser=0&hl=en&rclk=1,"26.104837399999997,85.8901738"
Bheluchak Masjid,Mosque,"4WW7+JPV Bheluchak Masjid, Donar, Darbhanga, Bihar 846009",Donar,4WW7+JPV,Darbhanga,,Bihar,IN,https://www.google.com/maps/place/Bheluchak+Masjid/data=!4m7!3m6!1s0x39edb9269e7c0485:0xf60a04c133a243a7!8m2!3d26.146609!4d85.914293!16s%2Fg%2F11vj7qwc4w!19sChIJhQR8nia57TkRp0OiM8EECvY?authuser=0&hl=en&rclk=1,"26.146608999999998,85.914293"
New Noorani Masjid,Mosque,"4VRP+GR2 New Noorani Masjid, Rahamganj, Darbhanga, Tarauni, Bihar 846003",Rahamganj,4VRP+GR2,"Darbhanga, Tarauni",846003,Bihar,IN,https://www.google.com/maps/place/New+Noorani+Masjid/data=!4m7!3m6!1s0x39edb9eb27742061:0xb40da93c878637cf!8m2!3d26.141253!4d85.8870995!16s%2Fg%2F11kjg2tss1!19sChIJYSB0J-u57TkRzzeGhzypDbQ?authuser=0&hl=en&rclk=1,"26.141253,85.88709949999999"
Mogalpura Masjid,Housing society,"4VHX+Q9X Mogalpura Masjid, Mogalpura, Laheriasarai, Darbhanga, Bihar 846003","Mogalpura, Laheriasarai",4VHX+Q9X,Darbhanga,846003,Bihar,IN,https://www.google.com/maps/place/Mogalpura+Masjid/data=!4m7!3m6!1s0x39edb9a20c86695f:0x48b7e53dff5771e5!8m2!3d26.129484!4d85.8984761!16s%2Fg%2F11tcw2_f38!19sChIJX2mGDKK57TkR5XFX_z3lt0g?authuser=0&hl=en&rclk=1,"26.129483999999998,85.8984761"
Masjid,Mosque,"5VPH+525 Masjid, Sundarpur, Chak Jamal, Bihar 846005",Sundarpur,5VPH+525,Chak Jamal,846005,Bihar,IN,https://www.google.com/maps/place/Masjid/data=!4m7!3m6!1s0x39edb7b3b618f3c7:0x88e208fbb54397b3!8m2!3d26.1853796!4d85.8776201!16s%2Fg%2F11sm041jpc!19sChIJx_MYtrO37TkRs5dDtfsI4og?authuser=0&hl=en&rclk=1,"26.185379599999997,85.8776201"
