name,main_category,address,address_ward,address_street,address_city,address_postal_code,address_state,address_country_code,link,coordinates
Jamia Arabia Khadimul Islam Madarsa,Mosque,"PQ7J+VC4 Jamia Arabia Khadimul Islam Madarsa, SH 18, Avas Vikas Colony, Hapur, Uttar Pradesh 245101",Avas Vikas Colony,"PQ7J+VC4, SH 18",Hapur,245101,Uttar Pradesh,IN,https://www.google.com/maps/place/Jamia+Arabia+Khadimul+Islam+Madarsa/data=!4m7!3m6!1s0x390c8505bf969543:0x91011b33a93428e0!8m2!3d28.7146268!4d77.7810842!16s%2Fg%2F1tf46j8v!19sChIJQ5WWvwWFDDkR4Cg0qTMbAZE?authuser=0&hl=en&rclk=1,"28.714626799999998,77.7810842"
MA GRAPHICS,Print shop,"MA GRAPHICS, Purana Bazar, Madarsa Sadat, near Markaz Masjid, Hapur, Uttar Pradesh 245101","Peer Bhaauddin, Mata Mohalla","Purana Bazar, Madarsa Sadat, near Markaz Masjid",Hapur,245101,Uttar Pradesh,IN,https://www.google.com/maps/place/MA+GRAPHICS/data=!4m7!3m6!1s0x390c85a83b4d7a35:0x210efb846204e0ad!8m2!3d28.7228358!4d77.7812181!16s%2Fg%2F11cm0m0rkg!19sChIJNXpNO6iFDDkRreAEYoT7DiE?authuser=0&hl=en&rclk=1,"28.7228358,77.78121809999999"
Jama Masjid Qazi Wara,Mosque,"PQFJ+MH7 Jama Masjid Qazi Wara, SH 18, Nai Abadi Khai Bazar, Trivanti Ganj, Hapur, Uttar Pradesh 245101","Nai Abadi Khai Bazar, Trivanti Ganj","PQFJ+MH7, SH 18",Hapur,245101,Uttar Pradesh,IN,https://www.google.com/maps/place/Jama+Masjid+Qazi+Wara/data=!4m7!3m6!1s0x390c85a85b15d693:0xcbc9c2cfc9093854!8m2!3d28.7241582!4d77.7814355!16s%2Fg%2F1tdm2334!19sChIJk9YVW6iFDDkRVDgJyc_Cycs?authuser=0&hl=en&rclk=1,"28.724158199999998,77.7814355"
Eid Gah,Mosque,"PQCC+4F3 Eid Gah, Majeedpura, Rafiq Nagar, Hapur, Uttar Pradesh 245101","Majeedpura, Rafiq Nagar",PQCC+4F3,Hapur,245101,Uttar Pradesh,IN,https://www.google.com/maps/place/Eid+Gah/data=!4m7!3m6!1s0x390c850a1280be47:0xc6012572a55ab2e8!8m2!3d28.7202571!4d77.7711777!16s%2Fg%2F1tjz1rcv!19sChIJR76AEgqFDDkR6LJapXIlAcY?authuser=0&hl=en&rclk=1,"28.720257099999998,77.7711777"
Aqsa masjid ( kotla sadat),Mosque,"PQFQ+879 Aqsa masjid ( kotla sadat), Foolgadiapur, Hapur, Uttar Pradesh 245101",Foolgadiapur,PQFQ+879,Hapur,245101,Uttar Pradesh,IN,https://www.google.com/maps/place/Aqsa+masjid+%28+kotla+sadat%29/data=!4m7!3m6!1s0x390c85aa887abbd3:0xb450adbd7c8f1423!8m2!3d28.7232994!4d77.7882351!16s%2Fg%2F11g8vpn5s2!19sChIJ07t6iKqFDDkRIxSPfL2tULQ?authuser=0&hl=en&rclk=1,"28.7232994,77.7882351"
Ek Minar Masjid,Mosque,"Ek Minar Masjid, 1484, Kotla Mewatiyn Purani Chungi, Hapur, Uttar Pradesh 245101",Kotla Mewatiyn Purani Chungi,1484,Hapur,245101,Uttar Pradesh,IN,https://www.google.com/maps/place/Ek+Minar+Masjid/data=!4m7!3m6!1s0x390c8507c3fe58bb:0x406f9df9bbc1522c!8m2!3d28.7200518!4d77.7805987!16s%2Fg%2F11cmr0m0nd!19sChIJu1j-wweFDDkRLFLBu_mdb0A?authuser=0&hl=en&rclk=1,"28.7200518,77.7805987"
Hazrat Bilal Masjid,Mosque,"Hazrat Bilal Masjid, Rafiq Nagar, Hapur, Uttar Pradesh 245101",Rafiq Nagar,Hazrat Bilal Masjid,Hapur,245101,Uttar Pradesh,IN,https://www.google.com/maps/place/Hazrat+Bilal+Masjid/data=!4m7!3m6!1s0x390c85a167e139c1:0x3c29c7367b6a8e9d!8m2!3d28.7261151!4d77.7723124!16s%2Fg%2F11g8chdb5k!19sChIJwTnhZ6GFDDkRnY5qezbHKTw?authuser=0&hl=en&rclk=1,"28.726115099999998,77.77231239999999"
Hamza masjid(garh gate),Mosque,"PQGP+3H8 Hamza masjid(garh gate), Meenakshi Road, Garh Gate Police Choki, Sikandarpur, Hapur, Uttar Pradesh 245101",Sikandarpur,"PQGP+3H8, Meenakshi Road, Garh Gate Police Choki",Hapur,245101,Uttar Pradesh,IN,https://www.google.com/maps/place/Hamza+masjid%28garh+gate%29/data=!4m7!3m6!1s0x390c85aa34c3c6eb:0x296e2a735888a347!8m2!3d28.725159!4d77.7864463!16s%2Fg%2F11g8vmg5rd!19sChIJ68bDNKqFDDkRR6OIWHMqbik?authuser=0&hl=en&rclk=1,"28.725158999999998,77.7864463"
Saraye Wali Masjid,Mosque,"PQHG+XM7 Saraye Wali Masjid, Tahsil, Hapur, Uttar Pradesh","Lothi Gate Nagar, Trivanti Ganj","PQHG+XM7, Tahsil",Hapur,,Uttar Pradesh,IN,https://www.google.com/maps/place/Saraye+Wali+Masjid/data=!4m7!3m6!1s0x390c85a4552a60ef:0x46cb91645f83095d!8m2!3d28.7299061!4d77.7766646!16s%2Fg%2F11dd_0089w!19sChIJ72AqVaSFDDkRXQmDX2SRy0Y?authuser=0&hl=en&rclk=1,"28.729906099999997,77.77666459999999"
Masjid Abu Bakr,Mosque,"Masjid Abu Bakr, 245101, Peer Bhaauddin, Mata Mohalla, Hapur, Uttar Pradesh 245101","Peer Bhaauddin, Mata Mohalla",245101,Hapur,245101,Uttar Pradesh,IN,https://www.google.com/maps/place/Masjid+Abu+Bakr/data=!4m7!3m6!1s0x390c85a63aa26911:0xfb8a6c89a6880a20!8m2!3d28.72527!4d77.778755!16s%2Fg%2F11c67wf4bl!19sChIJEWmiOqaFDDkRIAqIpolsivs?authuser=0&hl=en&rclk=1,"28.72527,77.77875499999999"
Noorani Masjid,Mosque,"Noorani Masjid, Moti Masjid, Avas Vikas Colony, Hapur, Uttar Pradesh 245101",Avas Vikas Colony,Moti Masjid,Hapur,245101,Uttar Pradesh,IN,https://www.google.com/maps/place/Noorani+Masjid/data=!4m7!3m6!1s0x390c8506cf34866f:0xf2401e04df0e3415!8m2!3d28.7182873!4d77.7846658!16s%2Fg%2F11fx7pbf8_!19sChIJb4Y0zwaFDDkRFTQO3wQeQPI?authuser=0&hl=en&rclk=1,"28.7182873,77.7846658"
Muaviya Saifi Mosque,Mosque,"PQFF+R2W Muaviya Saifi Mosque, Rafiq Nagar, Hapur, Uttar Pradesh 245101",Rafiq Nagar,PQFF+R2W,Hapur,245101,Uttar Pradesh,IN,https://www.google.com/maps/place/Muaviya+Saifi+Mosque/data=!4m7!3m6!1s0x390c85a12323e0ff:0x6f3ad996f85bacf2!8m2!3d28.7246139!4d77.7725879!16s%2Fg%2F11dynwykt1!19sChIJ_-AjI6GFDDkR8qxb-JbZOm8?authuser=0&hl=en&rclk=1,"28.724613899999998,77.77258789999999"
Bismillah Masjid,Mosque,"street no 1, PQFG+5HX Bismillah Masjid, Majeedpura, Rafiq Nagar, Hapur, Uttar Pradesh 245101","Majeedpura, Rafiq Nagar","street no 1, PQFG+5HX",Hapur,245101,Uttar Pradesh,IN,https://www.google.com/maps/place/Bismillah+Masjid/data=!4m7!3m6!1s0x390c85a7767995f7:0x7a15352fb70eda5c!8m2!3d28.7225187!4d77.7765358!16s%2Fg%2F11bwp2zmb4!19sChIJ95V5dqeFDDkRXNoOty81FXo?authuser=0&hl=en&rclk=1,"28.7225187,77.77653579999999"
Sitara Masjid,Mosque,"Sitara Masjid, Street No.3, Trilokpuram,, Hapur, Uttar Pradesh 245101","Trilok Puram, Rafiq Nagar","Street No.3, Trilokpuram,",Hapur,245101,Uttar Pradesh,IN,https://www.google.com/maps/place/Sitara+Masjid/data=!4m7!3m6!1s0x390c85a6e35ce911:0x65ab478a8896306d!8m2!3d28.7249691!4d77.7760789!16s%2Fg%2F11cm0nqdlq!19sChIJEelc46aFDDkRbTCWiIpHq2U?authuser=0&hl=en&rclk=1,"28.7249691,77.7760789"
Nageena Masjid,Mosque,"PQ9M+XJC Nageena Masjid, Niwazipura, Bhanda Patti, Hapur, Uttar Pradesh 245101",Bhanda Patti,"PQ9M+XJC, Niwazipura",Hapur,245101,Uttar Pradesh,IN,https://www.google.com/maps/place/Nageena+Masjid/data=!4m7!3m6!1s0x390c85072321a97b:0x8c1ad494ca64f526!8m2!3d28.7199343!4d77.7840202!16s%2Fg%2F11g8wd2scg!19sChIJe6khIweFDDkRJvVkypTUGow?authuser=0&hl=en&rclk=1,"28.7199343,77.7840202"
Mohammadiya Masjid,Mosque,"Mohammadiya Masjid, 245101, Akash Vikas Colony, Rafiq Nagar, Hapur, Uttar Pradesh 245101","Akash Vikas Colony, Rafiq Nagar",245101,Hapur,245101,Uttar Pradesh,IN,https://www.google.com/maps/place/Mohammadiya+Masjid/data=!4m7!3m6!1s0x390c8508646eb243:0xb828873f4ff70a33!8m2!3d28.7192067!4d77.7785696!16s%2Fg%2F11c5bjrzpm!19sChIJQ7JuZAiFDDkRMwr3Tz-HKLg?authuser=0&hl=en&rclk=1,"28.719206699999997,77.7785696"
Jama Masjid Hapur,Mosque,"PQCM+WM3 Jama Masjid Hapur, Sikandarpur, Hapur, Uttar Pradesh 245101",Sikandarpur,PQCM+WM3,Hapur,245101,Uttar Pradesh,IN,https://www.google.com/maps/place/Jama+Masjid+Hapur/data=!4m7!3m6!1s0x390c85a9947d00eb:0xa6d000f1e5b9742d!8m2!3d28.7222699!4d77.78417!16s%2Fg%2F11gfm9483n!19sChIJ6wB9lKmFDDkRLXS55fEA0KY?authuser=0&hl=en&rclk=1,"28.722269899999997,77.78417"
Firdaus Masjid MajeedPura,Mosque,"PQCG+87H Firdaus Masjid MajeedPura, Eidgah Road, Rafiq Nagar, Hapur, Uttar Pradesh 245101",Rafiq Nagar,"PQCG+87H, Eidgah Road",Hapur,245101,Uttar Pradesh,IN,https://www.google.com/maps/place/Firdaus+Masjid+MajeedPura/data=!4m7!3m6!1s0x390c8509dba87a73:0xd12edadab65a9e02!8m2!3d28.7208178!4d77.775737!16s%2Fg%2F11cjj1hhl4!19sChIJc3qo2wmFDDkRAp5attraLtE?authuser=0&hl=en&rclk=1,"28.7208178,77.77573699999999"
Zeenat Masjid( Chenapuri),Mosque,"PQFQ+XG6 Zeenat Masjid( Chenapuri), Cheenapuri,L.N.P.S Road, Morepura, Foolgadiapur, Hapur, Uttar Pradesh 245101","Morepura, Foolgadiapur","PQFQ+XG6, Cheenapuri,L.N.P.S Road",Hapur,245101,Uttar Pradesh,IN,https://www.google.com/maps/place/Zeenat+Masjid%28+Chenapuri%29/data=!4m7!3m6!1s0x390c85aae4b78e0b:0x713cc87dc1cf74b6!8m2!3d28.7249066!4d77.7887805!16s%2Fg%2F11g02rddt1!19sChIJC4635KqFDDkRtnTPwX3IPHE?authuser=0&hl=en&rclk=1,"28.724906599999997,77.7887805"
Usman-e-Ghani Masjid,Mosque,"Usman-e-Ghani Masjid, WATER TANK ROAD, Kotla Mewatiyn Purani Chungi, Hapur, Uttar Pradesh 245101",Kotla Mewatiyn Purani Chungi,WATER TANK ROAD,Hapur,245101,Uttar Pradesh,IN,https://www.google.com/maps/place/Usman-e-Ghani+Masjid/data=!4m7!3m6!1s0x390c8507a6f93153:0x8a8452ee9166da2!8m2!3d28.7200183!4d77.7821946!16s%2Fg%2F1w2ys7kj!19sChIJUzH5pgeFDDkRom0W6S5FqAg?authuser=0&hl=en&rclk=1,"28.7200183,77.7821946"
Jaman Wali Masjid,Mosque,"Jaman Wali Masjid, 245101, Peer Bhaauddin, Mata Mohalla, Hapur, Uttar Pradesh 245101","Peer Bhaauddin, Mata Mohalla",245101,Hapur,245101,Uttar Pradesh,IN,https://www.google.com/maps/place/Jaman+Wali+Masjid/data=!4m7!3m6!1s0x390c85a7d6aaaaab:0xe96fd84866e57f39!8m2!3d28.724391!4d77.7805052!16s%2Fg%2F11c30szss8!19sChIJq6qq1qeFDDkROX_lZkjYb-k?authuser=0&hl=en&rclk=1,"28.724390999999997,77.7805052"
Chaman Masjid - Jumma 01:15pm,Mosque,"PQCH+MJ9 Chaman Masjid - Jumma 01:15pm, Hapur,, Kotla Mewatiyn Purani Chungi, Hapur, Uttar Pradesh 245101",Kotla Mewatiyn Purani Chungi,"PQCH+MJ9, Hapur,",Hapur,245101,Uttar Pradesh,IN,https://www.google.com/maps/place/Chaman+Masjid+-+Jumma+01:15pm/data=!4m7!3m6!1s0x390c8508020fcbe9:0x6b003527f1981dad!8m2!3d28.7216555!4d77.7791248!16s%2Fg%2F11c1rst845!19sChIJ6csPAgiFDDkRrR2Y8Sc1AGs?authuser=0&hl=en&rclk=1,"28.721655499999997,77.77912479999999"
Nabi kareem masjid,Religious destination,"PQGM+9VJ Nabi kareem masjid, Sikandarpur, Hapur, Uttar Pradesh 245101",Sikandarpur,PQGM+9VJ,Hapur,245101,Uttar Pradesh,IN,https://www.google.com/maps/place/Nabi+kareem+masjid/data=!4m7!3m6!1s0x390c857d3bf4b9d9:0x401733970f55a854!8m2!3d28.7259629!4d77.7846277!16s%2Fg%2F11g0gppjkb!19sChIJ2bn0O32FDDkRVKhVD5czF0A?authuser=0&hl=en&rclk=1,"28.7259629,77.7846277"
Hira Masjid,Mosque,"Hira Masjid, 245101, Kanoongoyan Masjid Rd, Hapur, Uttar Pradesh 245206",Sikandarpur,"245101, Kanoongoyan Masjid Rd",Hapur,245206,Uttar Pradesh,IN,https://www.google.com/maps/place/Hira+Masjid/data=!4m7!3m6!1s0x390c85a9c3ffbee5:0x9403f83e376eb63c!8m2!3d28.7231626!4d77.7834764!16s%2Fg%2F11gb3ys812!19sChIJ5b7_w6mFDDkRPLZuNz74A5Q?authuser=0&hl=en&rclk=1,"28.7231626,77.7834764"
Nafees Masjid,Mosque,"PQ8M+XQJ Nafees Masjid, Bhanda Patti, Hapur, Uttar Pradesh 245101",Bhanda Patti,PQ8M+XQJ,Hapur,245101,Uttar Pradesh,IN,https://www.google.com/maps/place/Nafees+Masjid/data=!4m7!3m6!1s0x390c8506badf0437:0x75e14200b5f80359!8m2!3d28.7174513!4d77.7843786!16s%2Fg%2F11g8ty4vxz!19sChIJNwTfugaFDDkRWQP4tQBC4XU?authuser=0&hl=en&rclk=1,"28.7174513,77.7843786"
Mandi Masjid,Mosque,"Mandi Masjid, Rafiq Nagar, Hapur, Uttar Pradesh 245101",Rafiq Nagar,,Hapur,245101,Uttar Pradesh,IN,https://www.google.com/maps/place/Mandi+Masjid/data=!4m7!3m6!1s0x390c85092209461b:0xf071f0cbc3aa4c60!8m2!3d28.7170331!4d77.7761916!16s%2Fg%2F11fylz740l!19sChIJG0YJIgmFDDkRYEyqw8vwcfA?authuser=0&hl=en&rclk=1,"28.7170331,77.77619159999999"
"Mustufa Maszid, Hapur",Mosque,"PQ9H+58W Mustufa Maszid, Hapur, Karimpura, Hapur, Uttar Pradesh 245101",Karimpura,PQ9H+58W,Hapur,245101,Uttar Pradesh,IN,"https://www.google.com/maps/place/Mustufa+Maszid,+Hapur/data=!4m7!3m6!1s0x390c85ac553a1a99:0xa8c520beb63ec045!8m2!3d28.7179925!4d77.7783295!16s%2Fg%2F11g0w3mjqc!19sChIJmRo6VayFDDkRRcA-tr4gxag?authuser=0&hl=en&rclk=1","28.717992499999998,77.7783295"
Aadil Masjid,Mosque,"Aadil Masjid, aashyana Qloni, Hapur Rd, Samiah Garden City, Hapur, Uttar Pradesh 245101",Samiah Garden City,"aashyana Qloni, Hapur Rd",Hapur,245101,Uttar Pradesh,IN,https://www.google.com/maps/place/Aadil+Masjid/data=!4m7!3m6!1s0x390c851b14ba4aa3:0x6360ed4f98da3116!8m2!3d28.7089078!4d77.7837718!16s%2Fg%2F11fy1gtvm9!19sChIJo0q6FBuFDDkRFjHamE_tYGM?authuser=0&hl=en&rclk=1,"28.7089078,77.7837718"
Bilal masjid bilaal msjid,Mosque,"28/2, Bilal masjid bilaal msjid, 28/2, Garh Rd, Phool garhi, Ganga Nagar Colony, Hapur, Uttar Pradesh 245101","Phool garhi, Ganga Nagar Colony","28/2, 28/2, Garh Rd",Hapur,245101,Uttar Pradesh,IN,https://www.google.com/maps/place/Bilal+masjid+%E0%A4%AC%E0%A4%BF%E0%A4%B2%E0%A4%BE%E0%A4%B2+%E0%A4%AE%E0%A4%B8%E0%A5%8D%E0%A4%9C%E0%A4%BF%E0%A4%A6/data=!4m7!3m6!1s0x390c858fade3cd0b:0xa62bb7914888933f!8m2!3d28.720935!4d77.7911636!16s%2Fg%2F11rb5fgx90!19sChIJC83jrY-FDDkRP5OISJG3K6Y?authuser=0&hl=en&rclk=1,"28.720934999999997,77.79116359999999"
Gulzare Ibrahim Masjid,Mosque,"PQFG+7C6 Gulzare Ibrahim Masjid, Majeedpura, Rafiq Nagar, Hapur, Uttar Pradesh 245101","Majeedpura, Rafiq Nagar",PQFG+7C6,Hapur,245101,Uttar Pradesh,IN,https://www.google.com/maps/place/Gulzare+Ibrahim+Masjid%F0%9F%98%98/data=!4m7!3m6!1s0x390c85a70dfd6967:0x60c8906e5fdd1cfb!8m2!3d28.7231701!4d77.7760071!16s%2Fg%2F11cmfb0w5b!19sChIJZ2n9DaeFDDkR-xzdX26QyGA?authuser=0&hl=en&rclk=1,"28.723170099999997,77.7760071"
Zubeda Masjid jubedaa msjid,Mosque,"PQFC+W55 Zubeda Masjid jubedaa msjid, Unnamed Road, Rafiq Nagar, Hapur, Uttar Pradesh 245101",Rafiq Nagar,"PQFC+W55, Unnamed Road",Hapur,245101,Uttar Pradesh,IN,https://www.google.com/maps/place/Zubeda+Masjid+%E0%A4%9C%E0%A5%81%E0%A4%AC%E0%A5%87%E0%A4%A6%E0%A4%BE+%E0%A4%AE%E0%A4%B8%E0%A5%8D%E0%A4%9C%E0%A4%BF%E0%A4%A6/data=!4m7!3m6!1s0x390c851ce798b405:0x131c40c780202abf!8m2!3d28.7247662!4d77.7704823!16s%2Fg%2F11h2d67glv!19sChIJBbSY5xyFDDkRvyoggMdAHBM?authuser=0&hl=en&rclk=1,"28.724766199999998,77.7704823"
Jannat Masjid,Mosque,"PQFJ+33C Jannat Masjid, dehli gate near firoza building, Uttar Pradesh 245101",Kotla Mewatiyn Purani Chungi,"PQFJ+33C, dehli gate near firoza building",Hapur,245101,Uttar Pradesh,IN,https://www.google.com/maps/place/Jannat+Masjid/data=!4m7!3m6!1s0x390c859895793411:0x489ea42d26b0f7f1!8m2!3d28.7226942!4d77.780138!16s%2Fg%2F11g1xxcmk8!19sChIJETR5lZiFDDkR8fewJi2knkg?authuser=0&hl=en&rclk=1,"28.7226942,77.780138"
Kaziyan Masjid,Mosque,"PQFP+83P Kaziyan Masjid, Sikandarpur, Hapur, Uttar Pradesh 245101",Sikandarpur,PQFP+83P,Hapur,245101,Uttar Pradesh,IN,https://www.google.com/maps/place/Kaziyan+Masjid/data=!4m7!3m6!1s0x390c851be4a29573:0x6e3eefa0af756e46!8m2!3d28.7233275!4d77.7851914!16s%2Fg%2F11g1_6vj7k!19sChIJc5Wi5BuFDDkRRm51r6DvPm4?authuser=0&hl=en&rclk=1,"28.7233275,77.7851914"
Ayesha Masjid,Mosque,"PQFC+FQ2 Ayesha Masjid, Majeedpura, Rafiq Nagar, Hapur, Uttar Pradesh 245101","Majeedpura, Rafiq Nagar",PQFC+FQ2,Hapur,245101,Uttar Pradesh,IN,https://www.google.com/maps/place/Ayesha+Masjid/data=!4m7!3m6!1s0x390c8523ae05eb63:0x64262f80f0ab1ec9!8m2!3d28.7236341!4d77.7718891!16s%2Fg%2F11vf32kvhn!19sChIJY-sFriOFDDkRyR6r8IAvJmQ?authuser=0&hl=en&rclk=1,"28.723634099999998,77.7718891"
Mugisha Inaam Mosque,Mosque,"PQCH+C38 Mugisha Inaam Mosque, Eidgah Road, Rafiq Nagar, Hapur, Uttar Pradesh 245101",Rafiq Nagar,"PQCH+C38, Eidgah Road",Hapur,245101,Uttar Pradesh,IN,https://www.google.com/maps/place/Mugisha+Inaam+Mosque/data=!4m7!3m6!1s0x390c85a7ba57d63f:0x43341eeda059368c!8m2!3d28.7210313!4d77.7776974!16s%2Fg%2F11gr1pdfw5!19sChIJP9ZXuqeFDDkRjDZZoO0eNEM?authuser=0&hl=en&rclk=1,"28.7210313,77.7776974"
Sarai Chand Khan Masjid,Mosque,"PQJG+7FM Sarai Chand Khan Masjid, Hapur Rd, Ganga Nagar Colony, Hapur, Uttar Pradesh 245101",Ganga Nagar Colony,"PQJG+7FM, Hapur Rd",Hapur,245101,Uttar Pradesh,IN,https://www.google.com/maps/place/Sarai+Chand+Khan+Masjid/data=!4m7!3m6!1s0x390c8519796083d3:0x1d186f90a74e8a29!8m2!3d28.7307117!4d77.7761701!16s%2Fg%2F11q1tqnrv9!19sChIJ04NgeRmFDDkRKYpOp5BvGB0?authuser=0&hl=en&rclk=1,"28.730711699999997,77.7761701"
SALMAN MASJID,Mosque,"PQF9+CWW SALMAN MASJID, Rafiq Nagar, Hapur, Uttar Pradesh 245101",Rafiq Nagar,PQF9+CWW,Hapur,245101,Uttar Pradesh,IN,https://www.google.com/maps/place/SALMAN+MASJID/data=!4m7!3m6!1s0x390c85bb8507fe33:0x476f286e18475047!8m2!3d28.7236236!4d77.7698236!16s%2Fg%2F11h5szz1d9!19sChIJM_4HhbuFDDkRR1BHGG4ob0c?authuser=0&hl=en&rclk=1,"28.7236236,77.7698236"
Muhammadi Masjid Ehel E Hadees,Mosque,"Muhammadi Masjid Ehel E Hadees, Guili, Garh Rd, Hapur, Uttar Pradesh 245101",,"Guili, Garh Rd",Hapur,245101,Uttar Pradesh,IN,https://www.google.com/maps/place/Muhammadi+Masjid+Ehel+E+Hadees/data=!4m7!3m6!1s0x390c85fc573ce839:0xc30473475820417!8m2!3d28.7283347!4d77.8024123!16s%2Fg%2F11lgp573f6!19sChIJOeg8V_yFDDkRFwSCdTRHMAw?authuser=0&hl=en&rclk=1,"28.728334699999998,77.8024123"
Masjid RiyazulJannah,Mosque,"Masjid RiyazulJannah, Moti Masjid, Avas Vikas Colony, Hapur, Uttar Pradesh 245101",Avas Vikas Colony,Moti Masjid,Hapur,245101,Uttar Pradesh,IN,https://www.google.com/maps/place/Masjid+RiyazulJannah/data=!4m7!3m6!1s0x390c8506ea0be257:0xce398f146c8d73a1!8m2!3d28.718107!4d77.7837533!16s%2Fg%2F11fx7nl34q!19sChIJV-IL6gaFDDkRoXONbBSPOc4?authuser=0&hl=en&rclk=1,"28.718107,77.7837533"
Madina Masjid,Mosque,"PQFH+2HR Madina Masjid, Bulandshare Rd, charuch street, Hapur, Uttar Pradesh 245101",charuch street,"PQFH+2HR, Bulandshare Rd",Hapur,245101,Uttar Pradesh,IN,https://www.google.com/maps/place/Madina+Masjid/data=!4m7!3m6!1s0x390c85a7e59311af:0xce707c3e1413462f!8m2!3d28.722611!4d77.7788774!16s%2Fg%2F11gdkrvr5k!19sChIJrxGT5aeFDDkRL0YTFD58cM4?authuser=0&hl=en&rclk=1,"28.722610999999997,77.7788774"
Sahvlayat Masjid,Mosque,"Sahvlayat Masjid, Unnamed Road, Bhanda Patti, Hapur, Uttar Pradesh 245101",Bhanda Patti,Unnamed Road,Hapur,245101,Uttar Pradesh,IN,https://www.google.com/maps/place/Sahvlayat+Masjid/data=!4m7!3m6!1s0x390c85cf0e44890f:0x9c6be6ecb68223b4!8m2!3d28.7217759!4d77.7826109!16s%2Fg%2F11f6xzx1m_!19sChIJD4lEDs-FDDkRtCOCtuzma5w?authuser=0&hl=en&rclk=1,"28.721775899999997,77.7826109"
REHMET MASJID,Mosque,"PQC9+Q4X REHMET MASJID, Ram Garhi, Hapur, Uttar Pradesh 245101",Ram Garhi,PQC9+Q4X,Hapur,245101,Uttar Pradesh,IN,https://www.google.com/maps/place/REHMET+MASJID/data=!4m7!3m6!1s0x390c850b39317b55:0xf5cdc800bbcd7dfc!8m2!3d28.7219913!4d77.767864!16s%2Fg%2F11fjs4b_tt!19sChIJVXsxOQuFDDkR_H3NuwDIzfU?authuser=0&hl=en&rclk=1,"28.7219913,77.767864"
Masjid tafseerul quraan tatarpur,Mosque,"Masjid tafseerul quraan tatarpur, Masjid wala muhalla, Tatarpur, Uttar Pradesh 245101",,Masjid wala muhalla,Tatarpur,245101,Uttar Pradesh,IN,https://www.google.com/maps/place/Masjid+tafseerul+quraan+tatarpur/data=!4m7!3m6!1s0x390c8509ce6ea7b1:0xa8965de17084be60!8m2!3d28.716987!4d77.8240051!16s%2Fg%2F11j_xd3g6k!19sChIJsaduzgmFDDkRYL6EcOFdlqg?authuser=0&hl=en&rclk=1,"28.716987,77.8240051"
Masjid Takiya Kareem Pura,Mosque,"PQ9H+CRM Masjid Takiya Kareem Pura, Akash Vikas Colony, Rafiq Nagar, Hapur, Uttar Pradesh 245101","Akash Vikas Colony, Rafiq Nagar",PQ9H+CRM,Hapur,245101,Uttar Pradesh,IN,https://www.google.com/maps/place/Masjid+Takiya+Kareem+Pura/data=!4m7!3m6!1s0x390c85a55126b66d:0x7bd395489b197131!8m2!3d28.7185905!4d77.7795535!16s%2Fg%2F11jldxzypy!19sChIJbbYmUaWFDDkRMXEZm0iV03s?authuser=0&hl=en&rclk=1,"28.718590499999998,77.77955349999999"
Hamza Masjid,Mosque,"PQ9M+98F Hamza Masjid, Avas Vikas Colony Road, Kotla Mewatiyn Purani Chungi, Hapur, Uttar Pradesh 245101",Kotla Mewatiyn Purani Chungi,"PQ9M+98F, Avas Vikas Colony Road",Hapur,245101,Uttar Pradesh,IN,https://www.google.com/maps/place/Hamza+Masjid/data=!4m7!3m6!1s0x390c85a426d9df27:0xb2597be9e3f817d!8m2!3d28.7184398!4d77.7833055!16s%2Fg%2F11fj7ft5sc!19sChIJJ9_ZJqSFDDkRfYE_nr6XJQs?authuser=0&hl=en&rclk=1,"28.7184398,77.7833055"
StationWali Masjid,Mosque,"PQQJ+H5G StationWali Masjid, Shri Nagar, Hapur, Uttar Pradesh 245101",Shri Nagar,PQQJ+H5G,Hapur,245101,Uttar Pradesh,IN,https://www.google.com/maps/place/StationWali+Masjid/data=!4m7!3m6!1s0x390c85c207357401:0xb4f2ff4daaaa1b7e!8m2!3d28.7389287!4d77.7804673!16s%2Fg%2F11gxscc669!19sChIJAXQ1B8KFDDkRfhuqqk3_8rQ?authuser=0&hl=en&rclk=1,"28.7389287,77.7804673"
Ganj wali Masjid,Mosque,"PQHJ+447 Ganj wali Masjid, NCR Region, Nagar Palika, Nagar Palika Market, Trivanti Ganj, Hapur, Uttar Pradesh 245101",Trivanti Ganj,"PQHJ+447 NCR Region, Nagar Palika, Nagar Palika Market",Hapur,245101,Uttar Pradesh,IN,https://www.google.com/maps/place/Ganj+wali+Masjid/data=!4m7!3m6!1s0x390c85331540b6e5:0x557430c17e6a5bb4!8m2!3d28.7278198!4d77.7804076!16s%2Fg%2F11sdzmf0vj!19sChIJ5bZAFTOFDDkRtFtqfsEwdFU?authuser=0&hl=en&rclk=1,"28.7278198,77.78040759999999"
Madarsa Faizul Quran,Mosque,"PQCQ+RHV Madarsa Faizul Quran, Mehtab Garhi, Hapur, Uttar Pradesh 245101",Mehtab Garhi,PQCQ+RHV,Hapur,245101,Uttar Pradesh,IN,https://www.google.com/maps/place/Madarsa+Faizul+Quran/data=!4m7!3m6!1s0x390c858630e25eeb:0xc32a959961b09caa!8m2!3d28.7221059!4d77.7889173!16s%2Fg%2F11pd_m5_8r!19sChIJ617iMIaFDDkRqpywYZmVKsM?authuser=0&hl=en&rclk=1,"28.7221059,77.7889173"
Domo waali masjid Asoura (Bilal Masjid)hapur uttar pradesh,Place of worship,"Domo waali masjid Asoura (Bilal Masjid)hapur uttar pradesh, Domo waali masjid, Asaura, Uttar Pradesh 245101",,Domo waali masjid,Asaura,,Uttar Pradesh,IN,https://www.google.com/maps/place/Domo+waali+masjid+Asoura+%28Bilal+Masjid%29hapur+uttar+pradesh/data=!4m7!3m6!1s0x390c85ee699bd4d9:0x23314989bbcfb43f!8m2!3d28.7571144!4d77.7754807!16s%2Fg%2F11gsm8hjwm!19sChIJ2dSbae6FDDkRP7TPu4lJMSM?authuser=0&hl=en&rclk=1,"28.7571144,77.7754807"
Madnii Masjid,Mosque,"PQFF+9M8 Madnii Masjid, Rafiq Nagar, Hapur, Uttar Pradesh 245101",Rafiq Nagar,PQFF+9M8,Hapur,245101,Uttar Pradesh,IN,https://www.google.com/maps/place/Madnii+Masjid/data=!4m7!3m6!1s0x390c85f1d90b3535:0x69f1105955ef37a0!8m2!3d28.7234073!4d77.7742139!16s%2Fg%2F11mx6mr8dw!19sChIJNTUL2fGFDDkRoDfvVVkQ8Wk?authuser=0&hl=en&rclk=1,"28.723407299999998,77.77421389999999"
Rahmat masjid,Mosque,"PQFR+856 Rahmat masjid, Foolgadiapur, Hapur, Uttar Pradesh 245101",Foolgadiapur,PQFR+856,Hapur,245101,Uttar Pradesh,IN,https://www.google.com/maps/place/Rahmat+masjid/data=!4m7!3m6!1s0x390c85b254b8af31:0x9054c021c4e1fe50!8m2!3d28.7232935!4d77.7903767!16s%2Fg%2F11rrk7p9b2!19sChIJMa-4VLKFDDkRUP7hxCHAVJA?authuser=0&hl=en&rclk=1,"28.723293499999997,77.7903767"
Makka Masjid,Mosque,"PQ7J+585 Makka Masjid, Hapur - Bulandshaher Rd, Samiah Garden City, Hapur, Uttar Pradesh 245101",Samiah Garden City,"PQ7J+585, Hapur - Bulandshaher Rd",Hapur,,Uttar Pradesh,IN,https://www.google.com/maps/place/Makka+Masjid/data=!4m7!3m6!1s0x390c8510c9fd235d:0x47846e59343b3a0d!8m2!3d28.7128782!4d77.7808532!16s%2Fg%2F11gy3jv85s!19sChIJXSP9yRCFDDkRDTo7NFluhEc?authuser=0&hl=en&rclk=1,"28.7128782,77.7808532"
Agenti Masjid,Mosque,"PQHG+HJX Agenti Masjid, NH334, Lothi Gate Nagar, Trivanti Ganj, Hapur, Uttar Pradesh 245101","Lothi Gate Nagar, Trivanti Ganj","PQHG+HJX, NH334",Hapur,245101,Uttar Pradesh,IN,https://www.google.com/maps/place/Agenti+Masjid/data=!4m7!3m6!1s0x390c858549e37dcd:0xdb9e480820f68a81!8m2!3d28.7289894!4d77.7766196!16s%2Fg%2F11h7rgkyfc!19sChIJzX3jSYWFDDkRgYr2IAhInts?authuser=0&hl=en&rclk=1,"28.7289894,77.77661959999999"
Quba Masjid,Mosque,"PQCG+VR4 Quba Masjid, Rafiq Nagar, Hapur, Uttar Pradesh 245101",Rafiq Nagar,PQCG+VR4,Hapur,245101,Uttar Pradesh,IN,https://www.google.com/maps/place/Quba+Masjid/data=!4m7!3m6!1s0x390c85a78485c1ff:0x6af4f9294d20d94a!8m2!3d28.7221406!4d77.7770874!16s%2Fg%2F11cmr0pvyr!19sChIJ_8GFhKeFDDkRStkgTSn59Go?authuser=0&hl=en&rclk=1,"28.7221406,77.7770874"
Masjid Ansariyan,Mosque,"PQHJ+963 Masjid Ansariyan, Kaserath Bazar, Lothi Gate Nagar, Trivanti Ganj, Hapur, Uttar Pradesh 245101","Lothi Gate Nagar, Trivanti Ganj","PQHJ+963, Kaserath Bazar",Hapur,,Uttar Pradesh,IN,https://www.google.com/maps/place/Masjid+Ansariyan/data=!4m7!3m6!1s0x390c85502014c769:0xa35272e6f1c807f3!8m2!3d28.7283895!4d77.7805361!16s%2Fg%2F11g0h2_ld7!19sChIJaccUIFCFDDkR8wfI8eZyUqM?authuser=0&hl=en&rclk=1,"28.7283895,77.78053609999999"
masjid noor bafan,Mosque,"PQHJ+659 masjid noor bafan, Kaserath Bazar, Trivanti Ganj, Hapur, Uttar Pradesh 245101",Trivanti Ganj,"PQHJ+659, Kaserath Bazar",Hapur,,Uttar Pradesh,IN,https://www.google.com/maps/place/masjid+noor+bafan/data=!4m7!3m6!1s0x390c85ab642f3ec9:0x925d30dced80900e!8m2!3d28.7280344!4d77.7804929!16s%2Fg%2F11f61xj67t!19sChIJyT4vZKuFDDkRDpCA7dwwXZI?authuser=0&hl=en&rclk=1,"28.7280344,77.7804929"
Nabi Kareem Masjid,Mosque,"PQ9G+7GG Nabi Kareem Masjid, Nabi Karim, Hapur, Uttar Pradesh 245101",Nabi Karim,PQ9G+7GG,Hapur,245101,Uttar Pradesh,IN,https://www.google.com/maps/place/Nabi+Kareem+Masjid/data=!4m7!3m6!1s0x390c856211d03575:0x652182a4bd6888db!8m2!3d28.7181951!4d77.7763368!16s%2Fg%2F11g2wwz8cr!19sChIJdTXQEWKFDDkR24hovaSCIWU?authuser=0&hl=en&rclk=1,"28.7181951,77.7763368"
Zainab masjid,Religious institution,"Zainab masjid, kabristan, Bajar Rd, near Eidgah Road, Majeedpura, Rafiq Nagar, Hapur, Uttar Pradesh 245101","Majeedpura, Rafiq Nagar","kabristan, Bajar Rd, near Eidgah Road",Hapur,245101,Uttar Pradesh,IN,https://www.google.com/maps/place/Zainab+masjid/data=!4m7!3m6!1s0x390c85d31d7b453f:0xedf7718ece2bcddb!8m2!3d28.7208119!4d77.7727261!16s%2Fg%2F11szb9yqsp!19sChIJP0V7HdOFDDkR280rzo5x9-0?authuser=0&hl=en&rclk=1,"28.720811899999998,77.7727261"
Hazrat Usman Ghani Masjid,Religious destination,"PQCF+QRJ Hazrat Usman Ghani Masjid, Majeedpura, Rafiq Nagar, Hapur, Uttar Pradesh 245101","Majeedpura, Rafiq Nagar",PQCF+QRJ,Hapur,245101,Uttar Pradesh,IN,https://www.google.com/maps/place/Hazrat+Usman+Ghani+Masjid/data=!4m7!3m6!1s0x390c8537ea4245a1:0x712926b1329e3f3f!8m2!3d28.7219719!4d77.7745285!16s%2Fg%2F11f61gnypk!19sChIJoUVC6jeFDDkRPz-eMrEmKXE?authuser=0&hl=en&rclk=1,"28.7219719,77.7745285"
"Rashidiya, Hapur Station Masjid",Mosque,"PQRJ+MP6 Rashidiya, Hapur Station Masjid, Unnamed Road, Gandhi Vihar, Ravi Nagar, Hapur, Uttar Pradesh 245101","Gandhi Vihar, Ravi Nagar","PQRJ+MP6, Unnamed Road",Hapur,245101,Uttar Pradesh,IN,"https://www.google.com/maps/place/Rashidiya,+Hapur+Station+Masjid/data=!4m7!3m6!1s0x390c85f40a14f2f5:0x22678818ca6d9151!8m2!3d28.7416564!4d77.7817752!16s%2Fg%2F11hzj0wvx8!19sChIJ9fIUCvSFDDkRUZFtyhiIZyI?authuser=0&hl=en&rclk=1","28.7416564,77.7817752"
Salma Masjid,Mosque,"PQFF+FVR Salma Masjid, Rafiq Nagar, Hapur, Uttar Pradesh 245101",Rafiq Nagar,PQFF+FVR,Hapur,245101,Uttar Pradesh,IN,https://www.google.com/maps/place/Salma+Masjid/data=!4m7!3m6!1s0x390c85493edbdfcf:0x5025f64ce3b7f2cf!8m2!3d28.7237453!4d77.7746364!16s%2Fg%2F11r3w8c912!19sChIJz9_bPkmFDDkRz_K340z2JVA?authuser=0&hl=en&rclk=1,"28.723745299999997,77.77463639999999"
Amir Humza Masjid,Mosque,"PQCF+W77 Amir Humza Masjid, Majeedpura, Rafiq Nagar, Hapur, Uttar Pradesh 245101","Majeedpura, Rafiq Nagar",PQCF+W77,Hapur,245101,Uttar Pradesh,IN,https://www.google.com/maps/place/Amir+Humza+Masjid/data=!4m7!3m6!1s0x390c85fa5e39ff89:0x8ade372c5f191e87!8m2!3d28.7222847!4d77.7731796!16s%2Fg%2F11hms0ndmt!19sChIJif85XvqFDDkRhx4ZXyw33oo?authuser=0&hl=en&rclk=1,"28.7222847,77.77317959999999"
Fatma masjid,Mosque,"Fatma masjid, 350/13, Majeedpura, Girdhari Nagar, Hapur, Uttar Pradesh 245101","Majeedpura, Girdhari Nagar",350/13,Hapur,245101,Uttar Pradesh,IN,https://www.google.com/maps/place/Fatma+masjid/data=!4m7!3m6!1s0x390c85691db20b39:0xa6b8e4c82efee58d!8m2!3d28.7224768!4d77.771171!16s%2Fg%2F11tt0xm31t!19sChIJOQuyHWmFDDkRjeX-LsjkuKY?authuser=0&hl=en&rclk=1,"28.7224768,77.771171"
Sarifya masjid,Mosque,"PQCR+966 Sarifya masjid, Mehtab Garhi, Hapur, Uttar Pradesh 245101",Mehtab Garhi,PQCR+966,Hapur,245101,Uttar Pradesh,IN,https://www.google.com/maps/place/Sarifya+masjid/data=!4m7!3m6!1s0x390c856a46ab66d9:0xfa6e5e43ebb6c4f4!8m2!3d28.720908!4d77.7905294!16s%2Fg%2F11rbdr4n2z!19sChIJ2WarRmqFDDkR9MS260Nebvo?authuser=0&hl=en&rclk=1,"28.720907999999998,77.7905294"
Maszid e madarsa,Mosque,"Maszid e madarsa, 5, Hapur Rd, Arjun Nagar, Hapur, Jasrup Nagar, Uttar Pradesh 245101",Arjun Nagar,"5, Hapur Rd","Hapur, Jasrup Nagar",245101,Uttar Pradesh,IN,https://www.google.com/maps/place/Maszid+e+madarsa/data=!4m7!3m6!1s0x390c85a6db5c1f41:0xf7ab7821712d4b0!8m2!3d28.7283064!4d77.7627945!16s%2Fg%2F11j2zs94c6!19sChIJQR9c26aFDDkRsNQSF4K3eg8?authuser=0&hl=en&rclk=1,"28.728306399999997,77.7627945"
Moti Masjid,Mosque,"PQGM+RG7 Moti Masjid, Maheshwari Ganj, Gandhi Ganj, Hapur, Uttar Pradesh 245101","Maheshwari Ganj, Gandhi Ganj",PQGM+RG7,Hapur,245101,Uttar Pradesh,IN,https://www.google.com/maps/place/Moti+Masjid/data=!4m7!3m6!1s0x390c85a93873ffff:0x86d0977ceea381a7!8m2!3d28.7270329!4d77.783805!16s%2Fg%2F11kj3f3zm3!19sChIJ__9zOKmFDDkRp4Gj7nyX0IY?authuser=0&hl=en&rclk=1,"28.727032899999998,77.783805"
Noori masjid,Mosque,"House no 42, Noori masjid, Sir Syed Housing Society, Hapur - Bulandshaher Rd, Samiah Garden City, Hapur, Uttar Pradesh 245101",Samiah Garden City,"House no 42, Sir Syed Housing Society, Hapur - Bulandshaher Rd",Hapur,245101,Uttar Pradesh,IN,https://www.google.com/maps/place/Noori+masjid/data=!4m7!3m6!1s0x390c85074173d339:0x30c3351dd94813f7!8m2!3d28.7104348!4d77.7825369!16s%2Fg%2F11k4w4bf69!19sChIJOdNzQQeFDDkR9xNI2R01wzA?authuser=0&hl=en&rclk=1,"28.710434799999998,77.7825369"
Masjid Farooqui Takiya wali,Mosque,"PQFH+F4G Masjid Farooqui Takiya wali, Rafiq Nagar, Hapur, Uttar Pradesh 245101",Rafiq Nagar,PQFH+F4G,Hapur,,Uttar Pradesh,IN,https://www.google.com/maps/place/Masjid+Farooqui+Takiya+wali/data=!4m7!3m6!1s0x390c85774c5d143b:0x107c8bd1147de4c5!8m2!3d28.7236918!4d77.7778312!16s%2Fg%2F11rzgxhv35!19sChIJOxRdTHeFDDkRxeR9FNGLfBA?authuser=0&hl=en&rclk=1,"28.723691799999997,77.7778312"
Umar masjid,Mosque,"PQ8J+VRW Umar masjid, Unnamed Road, Bhanda Patti, Hapur, Uttar Pradesh 245101",Bhanda Patti,"PQ8J+VRW, Unnamed Road",Hapur,245101,Uttar Pradesh,IN,https://www.google.com/maps/place/Umar+masjid/data=!4m7!3m6!1s0x390c8550020bfc9d:0x5229fe77ee13d743!8m2!3d28.7172345!4d77.7820774!16s%2Fg%2F11qmr9wm3p!19sChIJnfwLAlCFDDkRQ9cT7nf-KVI?authuser=0&hl=en&rclk=1,"28.7172345,77.78207739999999"
Masjid,Mosque,"QQ59+96R Masjid, Hapur, Uttar Pradesh 245101",,QQ59+96R,Hapur,,Uttar Pradesh,IN,https://www.google.com/maps/place/Masjid/data=!4m7!3m6!1s0x390c85bd3f777691:0x5844585992846ed9!8m2!3d28.7584957!4d77.7680042!16s%2Fg%2F11qn9lllvt!19sChIJkXZ3P72FDDkR2W6EkllYRFg?authuser=0&hl=en&rclk=1,"28.758495699999997,77.7680042"
Shahr imaam qari asim,Mosque,"Shahr imaam qari asim, 12/26, 12/26, Sikandarpur, Hapur, Uttar Pradesh 245101",Sikandarpur,"12/26, 12/26",Hapur,245101,Uttar Pradesh,IN,https://www.google.com/maps/place/Shahr+imaam+qari+asim/data=!4m7!3m6!1s0x390c859dbe5305c3:0xa20eb7e12766152e!8m2!3d28.7229275!4d77.7845469!16s%2Fg%2F11js55lq91!19sChIJwwVTvp2FDDkRLhVmJ-G3DqI?authuser=0&hl=en&rclk=1,"28.722927499999997,77.7845469"
Masjid bazar wali,Place of worship,"PQJG+69J Masjid bazar wali, Purana bazar, Uttar Pradesh 245101",Ganga Nagar Colony,"PQJG+69J, Purana bazar",Hapur,245101,Uttar Pradesh,IN,https://www.google.com/maps/place/Masjid+bazar+wali/data=!4m7!3m6!1s0x390c8547fd092297:0xeeb836054db2b625!8m2!3d28.7305798!4d77.7758825!16s%2Fg%2F11fp3vbk9s!19sChIJlyIJ_UeFDDkRJbayTQU2uO4?authuser=0&hl=en&rclk=1,"28.730579799999997,77.7758825"
Kabristan Muslim Panjabiyan,Mosque,"PQFC+2X2 Kabristan Muslim Panjabiyan, near bilal masjid, Majeedpura, Rafiq Nagar, Hapur, Uttar Pradesh 245101","Majeedpura, Rafiq Nagar","PQFC+2X2, near bilal masjid",Hapur,245101,Uttar Pradesh,IN,https://www.google.com/maps/place/Kabristan+Muslim+Panjabiyan/data=!4m7!3m6!1s0x390c85f6761f58a5:0xf71368f5497099a5!8m2!3d28.7225154!4d77.772386!16s%2Fg%2F11flk8twzz!19sChIJpVgfdvaFDDkRpZlwSfVoE_c?authuser=0&hl=en&rclk=1,"28.7225154,77.772386"
Rafiq nagar,Mosque,"PQJG+69J Rafiq nagar, Ganga Nagar Colony, Hapur, Uttar Pradesh 245101",Ganga Nagar Colony,PQJG+69J,Hapur,,Uttar Pradesh,IN,https://www.google.com/maps/place/Rafiq+nagar/data=!4m7!3m6!1s0x390c8575ceda902b:0x3ccff3891bcc8950!8m2!3d28.7305798!4d77.7758825!16s%2Fg%2F11s2rpldw_!19sChIJK5DaznWFDDkRUInMG4nzzzw?authuser=0&hl=en&rclk=1,"28.730579799999997,77.7758825"
"chhwtty msjd, pttnh, hpwrr CHOTI MASJID, PATNA, HAPUR",Mosque,"PRMC+9RC chhwtty msjd, pttnh, hpwrr CHOTI MASJID, PATNA, HAPUR, Patna, Uttar Pradesh 245201",,PRMC+9RC,Patna,245201,Uttar Pradesh,IN,"https://www.google.com/maps/place/%DA%86%DA%BE%D9%88%D9%B9%DB%8C+%D9%85%D8%B3%D8%AC%D8%AF%D8%8C+%D9%BE%D9%B9%D9%86%DB%81%D8%8C+%DB%81%D8%A7%D9%BE%D9%88%DA%91+CHOTI+MASJID,+PATNA,+HAPUR%E2%80%AD/data=!4m7!3m6!1s0x390c858d10cc5109:0xaf4de2b024b03cb5!8m2!3d28.733148!4d77.8229873!16s%2Fg%2F11rm9tw7rz!19sChIJCVHMEI2FDDkRtTywJLDiTa8?authuser=0&hl=en&rclk=1","28.733148,77.8229873"
"brry msjd, pttnh, hpwrr MASJID",Mosque,"PRMC+9RC brry msjd, pttnh, hpwrr MASJID, Patna, Uttar Pradesh 245201",,PRMC+9RC,Patna,245201,Uttar Pradesh,IN,https://www.google.com/maps/place/%D8%A8%DA%91%DB%8C+%D9%85%D8%B3%D8%AC%D8%AF%D8%8C+%D9%BE%D9%B9%D9%86%DB%81%D8%8C+%DB%81%D8%A7%D9%BE%D9%88%DA%91+MASJID%E2%80%AD/data=!4m7!3m6!1s0x390c85647ca60395:0xbb1a89bd407a46f1!8m2!3d28.7334728!4d77.8220817!16s%2Fg%2F11rj_5l8xt!19sChIJlQOmfGSFDDkR8UZ6QL2JGrs?authuser=0&hl=en&rclk=1,"28.733472799999998,77.8220817"
