name,main_category,address,address_ward,address_street,address_city,address_postal_code,address_state,address_country_code,link,coordinates
Kottakuppam Jamiya Masjid,Mosque,"XR6P+RX2 Kottakuppam Jamiya Masjid, Old Madras St, Kottakuppam, Tamil Nadu 605104",Kottakuppam,"XR6P+RX2, Old Madras St",,605104,Tamil Nadu,IN,https://www.google.com/maps/place/Kottakuppam+Jamiya+Masjid/data=!4m7!3m6!1s0x3a5363e43a6e9175:0xb4d86d0f6e06bd11!8m2!3d11.9620042!4d79.8373751!16s%2Fg%2F1w15xw6d!19sChIJdZFuOuRjUzoREb0Gbg9t2LQ?authuser=0&hl=en&rclk=1,"11.962004199999999,79.8373751"
Jamia Masjid Shadi Mahal,Religious destination,"Jamia Masjid Shadi Mahal, Thaikkal Street, Kottakuppam, Tamil Nadu 605104",Kottakuppam,Thaikkal Street,,605104,Tamil Nadu,IN,https://www.google.com/maps/place/Jamia+Masjid+Shadi+Mahal/data=!4m7!3m6!1s0x3a5363e5c88d9b2d:0xd0cf04ec47344427!8m2!3d11.9623432!4d79.8386734!16s%2Fg%2F1pty73m05!19sChIJLZuNyOVjUzoRJ0Q0R-wEz9A?authuser=0&hl=en&rclk=1,"11.9623432,79.83867339999999"
TNTJ Gandhinagar Markas,Mosque,"TNTJ Gandhinagar Markas, 148, Vazhudavoor Rd, Subbiahnagar, Gandhi Nagar, Puducherry, 605009","Subbiahnagar, Gandhi Nagar","148, Vazhudavoor Rd",Puducherry,605009,Puducherry,IN,https://www.google.com/maps/place/TNTJ+Gandhinagar+Markas/data=!4m7!3m6!1s0x3a5361ac9adea6d1:0x32bca8bbf6d80728!8m2!3d11.94213!4d79.7998595!16s%2Fg%2F11np5w98kz!19sChIJ0abemqxhUzoRKAfY9ruovDI?authuser=0&hl=en&rclk=1,"11.942129999999999,79.7998595"
Masjid Al Noor,Place of worship,"Masjid Al Noor, Sarammal Nagar,2 Abdul Wahid Street, 22, East Coast Rd, Kollapuram, Puducherry 609608","Ozhandai Keerapalaiyam, Mudaliarpet","Sarammal Nagar,2 Abdul Wahid Street, 22, East Coast Rd","Kollapuram, Puducherry",609608,Puducherry,IN,https://www.google.com/maps/place/Masjid+Al+Noor/data=!4m7!3m6!1s0x3a53619820e9cc6b:0x96d1d52a5a8fdad6!8m2!3d11.9207404!4d79.8089209!16s%2Fg%2F11sb0mppds!19sChIJa8zpIJhhUzoR1tqPWirV0ZY?authuser=0&hl=en&rclk=1,"11.9207404,79.80892089999999"
Muhammadiya Pallivasal Mosque,Mosque,"Muhammadiya Pallivasal Mosque, Sulthanpet, Puducherry 605110",Sulthanpet,,,,Puducherry,IN,https://www.google.com/maps/place/Muhammadiya+Pallivasal+Mosque/data=!4m7!3m6!1s0x3a536067a319e725:0x962b5f0a109d5b69!8m2!3d11.9210632!4d79.7607998!16s%2Fg%2F11b7lnmzp5!19sChIJJecZo2dgUzoRaVudEApfK5Y?authuser=0&hl=en&rclk=1,"11.921063199999999,79.7607998"
JUMMA MASJID MOHAMMED BHURA MOSQUE,Mosque,"JUMMA MASJID MOHAMMED BHURA MOSQUE, 196 Chinna Subburaya Pillai Street Opp. to Thamizh Thendral Thiru Vi Ka Govt. High School, Puducherry, 605001",MG Road Area,196 Chinna Subburaya Pillai Street Opp. to Thamizh Thendral Thiru Vi Ka Govt. High School,Puducherry,605001,Puducherry,IN,https://www.google.com/maps/place/JUMMA+MASJID+MOHAMMED+BHURA+MOSQUE/data=!4m7!3m6!1s0x3a536181d4076893:0xbc58d8ab4379b14f!8m2!3d11.9324398!4d79.8251403!16s%2Fg%2F11clwdn7rt!19sChIJk2gH1IFhUzoRT7F5Q6vYWLw?authuser=0&hl=en&rclk=1,"11.9324398,79.8251403"
jannathul firdhouse mosque ariyankuppam,Mosque,"VRX3+36Q jannathul firdhouse mosque ariyankuppam, East Coast Rd, Ariyankuppam, Puducherry 605007",,"VRX3+36Q, East Coast Rd",Ariyankuppam,605007,Puducherry,IN,https://www.google.com/maps/place/jannathul+firdhouse+mosque+ariyankuppam/data=!4m7!3m6!1s0x3a5361dec8cee8db:0xdf0ce56e00fef8a9!8m2!3d11.8977244!4d79.8031104!16s%2Fg%2F11b70h1z40!19sChIJ2-jOyN5hUzoRqfj-AG7lDN8?authuser=0&hl=en&rclk=1,"11.8977244,79.8031104"
MUVAHIDHIYA MASJID (Jama'ath -e- Ahle Hadees),Mosque,"MUVAHIDHIYA MASJID (Jama'ath -e- Ahle Hadees), 144, H.M.Kassim Salai, MG Road Area, Puducherry, 605001",MG Road Area,"144, H.M.Kassim Salai",Puducherry,605001,Puducherry,IN,https://www.google.com/maps/place/MUVAHIDHIYA+MASJID+%28Jama%27ath+-e-+Ahle+Hadees%29/data=!4m7!3m6!1s0x3a536229f3196e49:0xf9a4541f37585d41!8m2!3d11.9264363!4d79.8309939!16s%2Fg%2F1txy0rq5!19sChIJSW4Z8yliUzoRQV1YNx9UpPk?authuser=0&hl=en&rclk=1,"11.926436299999999,79.8309939"
MeeraPalli,Mosque,"WRHH+5VF MeeraPalli, Yanam Vengadasalam Pillai St, MG Road Area, Puducherry, 605001",MG Road Area,"WRHH+5VF, Yanam Vengadasalam Pillai St",Puducherry,605001,Puducherry,IN,https://www.google.com/maps/place/MeeraPalli/data=!4m7!3m6!1s0x3a53622a081d5929:0xab2e830b04f12627!8m2!3d11.9279412!4d79.8296582!16s%2Fg%2F1tftzznv!19sChIJKVkdCCpiUzoRJybxBAuDLqs?authuser=0&hl=en&rclk=1,"11.9279412,79.8296582"
Puducherry Mosque,Mosque,"WRPH+PCJ Puducherry Mosque, Ambalathadayar Madam St, Heritage Town, Puducherry, 605001",Heritage Town,"WRPH+PCJ, Ambalathadayar Madam St",Puducherry,605001,Puducherry,IN,https://www.google.com/maps/place/Puducherry+Mosque/data=!4m7!3m6!1s0x3a53617e15feb1cd:0xb34d5c7bc1c234d8!8m2!3d11.9368444!4d79.8285181!16s%2Fg%2F1w45413f!19sChIJzbH-FX5hUzoR2DTCwXtcTbM?authuser=0&hl=en&rclk=1,"11.9368444,79.8285181"
Masjid Busthaniya palli vasal,Mosque,"Masjid Busthaniya palli vasal, Mahatma Gandhi Rd, opposite Police Station, Solai Nagar, Kottakuppam, Puducherry, Tamil Nadu 605104","Solai Nagar, Kottakuppam","Mahatma Gandhi Rd, opposite Police Station",Puducherry,605104,Tamil Nadu,IN,https://www.google.com/maps/place/Masjid+Busthaniya+palli+vasal/data=!4m7!3m6!1s0x3a5363e0e5ced657:0x53dffe296555beda!8m2!3d11.9575!4d79.8333909!16s%2Fg%2F1tfbg4nc!19sChIJV9bO5eBjUzoR2r5VZSn-31M?authuser=0&hl=en&rclk=1,"11.9575,79.8333909"
Masjid and Madarasa,Mosque,"Masjid and Madarasa, 13, Kamaraj Salai, Opposite Muruga Theatre, Thattanchavady, Puducherry, 605009",Thattanchavady,"13, Kamaraj Salai, Opposite Muruga Theatre",Puducherry,605009,Puducherry,IN,https://www.google.com/maps/place/Masjid+and+Madarasa/data=!4m7!3m6!1s0x3a53610d4bf3703b:0x1a978173115bc320!8m2!3d11.9418958!4d79.8070106!16s%2Fg%2F1vnrp0v9!19sChIJO3DzSw1hUzoRIMNbEXOBlxo?authuser=0&hl=en&rclk=1,"11.9418958,79.8070106"
Sultaniyya Masjid,Mosque,"WRM6+596 Sultaniyya Masjid, Kuyavarpalayam, Puducherry, 605005",Kuyavarpalayam,WRM6+596,Puducherry,605005,Puducherry,IN,https://www.google.com/maps/place/Sultaniyya+Masjid/data=!4m7!3m6!1s0x3a53617590e5e9c9:0x837fc6f266821e6a!8m2!3d11.9329!4d79.8109!16s%2Fg%2F1pyqr_vfm!19sChIJyenlkHVhUzoRah6CZvLGf4M?authuser=0&hl=en&rclk=1,"11.9329,79.81089999999999"
KuthbaPalli,Mosque,"WRGH+PQR KuthbaPalli, Mullah St, MG Road Area, Puducherry, 605001",MG Road Area,"WRGH+PQR, Mullah St",Puducherry,605001,Puducherry,IN,https://www.google.com/maps/place/KuthbaPalli/data=!4m7!3m6!1s0x3a5361875502520b:0x869bffd9d1c2810e!8m2!3d11.9268572!4d79.8293837!16s%2Fg%2F1tmk6y72!19sChIJC1ICVYdhUzoRDoHC0dn_m4Y?authuser=0&hl=en&rclk=1,"11.926857199999999,79.8293837"
EAhmed Masjid,Mosque,"XQ4W+QM7 EAhmed Masjid, Jipmer Campus, Puducherry, 605101",Jipmer Campus,XQ4W+QM7,Puducherry,605101,Puducherry,IN,https://www.google.com/maps/place/EAhmed+Masjid/data=!4m7!3m6!1s0x3a53613cd7976c09:0xca6edf0ffb349ca!8m2!3d11.9569177!4d79.7966804!16s%2Fg%2F11g873tsy2!19sChIJCWyX1zxhUzoRykmz__Dtpgw?authuser=0&hl=en&rclk=1,"11.9569177,79.7966804"
Jumma Mosque,Mosque,"2VQ8+6Q3 Jumma Mosque, East Coast Rd, Kalapet, Puducherry, Kalapet, Puducherry 605014",Kalapet,"2VQ8+6Q3, East Coast Rd","Puducherry, Kalapet",605014,Puducherry,IN,https://www.google.com/maps/place/Jumma+Mosque/data=!4m7!3m6!1s0x3a5365a5b24aa8a3:0x9efa95f69022b3bc!8m2!3d12.0380175!4d79.8669228!16s%2Fg%2F11bc745h4j!19sChIJo6hKsqVlUzoRvLMikPaV-p4?authuser=0&hl=en&rclk=1,"12.038017499999999,79.8669228"
Masjid Ibrahim,Mosque,"2VQ8+6Q6 Masjid Ibrahim, Periya Kalapet Rd, opp. Indian Oil, Periyakalapet, Puducherry, Kalapet, Puducherry 605014",Periyakalapet,"2VQ8+6Q6, Periya Kalapet Rd, opp. Indian Oil","Puducherry, Kalapet",605014,Puducherry,IN,https://www.google.com/maps/place/Masjid+Ibrahim/data=!4m7!3m6!1s0x3a5365a5b2426121:0xc558451621fee810!8m2!3d12.038031!4d79.8668759!16s%2Fg%2F11bc73pxl5!19sChIJIWFCsqVlUzoREOj-IRZFWMU?authuser=0&hl=en&rclk=1,"12.038031,79.8668759"
TNTJ Masjid,Mosque,"XR6R+72G TNTJ Masjid, Morsar Street, Viluppuram District, Kottakuppam, Tamil Nadu 605104",Kottakuppam,"XR6R+72G, Morsar Street, Viluppuram District",,605104,Tamil Nadu,IN,https://www.google.com/maps/place/TNTJ+Masjid/data=!4m7!3m6!1s0x3a5363e60f0c648b:0x2bebbcb7042833d8!8m2!3d11.9606844!4d79.8400784!16s%2Fg%2F11bwqfrsxr!19sChIJi2QMD-ZjUzoR2DMoBLe86ys?authuser=0&hl=en&rclk=1,"11.9606844,79.8400784"
Mosque,Mosque,"XRFR+G76 Mosque, SH 49, Kottamedu, Kottakuppam, Puducherry, Tamil Nadu 605104","Kottamedu, Kottakuppam","XRFR+G76, SH 49",Puducherry,605104,Tamil Nadu,IN,https://www.google.com/maps/place/Mosque/data=!4m7!3m6!1s0x3a5363f9e0ebe731:0xbdd2aa72380e0a0b!8m2!3d11.973778!4d79.840633!16s%2Fg%2F11b7v93pkq!19sChIJMefr4PljUzoRCwoOOHKq0r0?authuser=0&hl=en&rclk=1,"11.973778,79.840633"
MASJID-E-RAWLATHUL JANNAH FOUNDATION,Mosque,"MASJID-E-RAWLATHUL JANNAH FOUNDATION, No.11&12, Mosque Street, East Coast Rd, Abhishekapakkam, Thavalakuppam, Puducherry 605007",,"No.11&12, Mosque Street, East Coast Rd","Abhishekapakkam, Thavalakuppam",605007,Puducherry,IN,https://www.google.com/maps/place/MASJID-E-RAWLATHUL+JANNAH+FOUNDATION/data=!4m7!3m6!1s0x3a549e4afe593e85:0x402d17bc2d2050be!8m2!3d11.8608805!4d79.7874087!16s%2Fg%2F11cr_5f571!19sChIJhT5Z_kqeVDoRvlAgLbwXLUA?authuser=0&hl=en&rclk=1,"11.860880499999999,79.7874087"
Odiampet Masjid Pondicherry,Mosque,"WQ4M+H25 Odiampet Masjid Pondicherry, Villianur Main Rd, Odiyampattu, Kombakkam, Puducherry 605110",,"WQ4M+H25, Villianur Main Rd","Odiyampattu, Kombakkam",605110,Puducherry,IN,https://www.google.com/maps/place/Odiampet+Masjid+Pondicherry/data=!4m7!3m6!1s0x3a5360350ec8ecbd:0x116e154bee1efd20!8m2!3d11.9063854!4d79.7826048!16s%2Fg%2F11g9jxmlm0!19sChIJvezIDjVgUzoRIP0e7ksVbhE?authuser=0&hl=en&rclk=1,"11.9063854,79.7826048"
Makkah Masjid,Mosque,"XR5P+7PC Makkah Masjid, Sodhanaikuppam, Puducherry, Tamil Nadu 605104",Sodhanaikuppam,XR5P+7PC,Puducherry,605104,Tamil Nadu,IN,https://www.google.com/maps/place/Makkah+Masjid/data=!4m7!3m6!1s0x3a5363e6df35c0f1:0x693337ac248c515f!8m2!3d11.9581923!4d79.8367788!16s%2Fg%2F11cp74pdnt!19sChIJ8cA13-ZjUzoRX1GMJKw3M2k?authuser=0&hl=en&rclk=1,"11.9581923,79.83677879999999"
Jamiyath Nagar- Masjid,Mosque,"XR8M+PRR Jamiyath Nagar- Masjid, SH 49, Kottakuppam, Tamil Nadu 605104",Kottakuppam,"XR8M+PRR, SH 49",,605104,Tamil Nadu,IN,https://www.google.com/maps/place/Jamiyath+Nagar-+Masjid/data=!4m7!3m6!1s0x3a5363fcb26e4c71:0xb3b6cf1cd55dcb54!8m2!3d11.9668524!4d79.8345257!16s%2Fg%2F11cn6k7s3l!19sChIJcUxusvxjUzoRVMtd1RzPtrM?authuser=0&hl=en&rclk=1,"11.966852399999999,79.8345257"
Masjid A Mohommad,Mosque,"Masjid A Mohommad, Bus Stand, Opp, Palli Vaasal St, Orleanpet, Puducherry, 605005",Orleanpet,"Bus Stand, Opp, Palli Vaasal St",Puducherry,605005,Puducherry,IN,https://www.google.com/maps/place/Masjid+A+Mohommad/data=!4m7!3m6!1s0x1106ae5e313be79d:0xfeddecca0dc7413b!8m2!3d11.9315524!4d79.8148259!16s%2Fg%2F11b7ft_g5b!19sChIJnec7MV6uBhERO0HHDcrs3f4?authuser=0&hl=en&rclk=1,"11.9315524,79.8148259"
Masjid,Mosque,"WRFF+29W Masjid, Davidpet, Puducherry, 605001",Davidpet,WRFF+29W,Puducherry,605001,Puducherry,IN,https://www.google.com/maps/place/Masjid/data=!4m7!3m6!1s0x3a536185dd6829d7:0x5fa2270c0cd9b9dd!8m2!3d11.9226094!4d79.8234587!16s%2Fg%2F11c7t8bnd_!19sChIJ1ylo3YVhUzoR3bnZDAwnol8?authuser=0&hl=en&rclk=1,"11.922609399999999,79.8234587"
"Masjid Al-Mubarak, Barakath Nagar",Mosque,"XR6M+WF8 Masjid Al-Mubarak, Barakath Nagar, 10th cross, Barakath Nagar, Solai Nagar, Kottakuppam, Puducherry, Tamil Nadu 605104","Barakath Nagar, Solai Nagar, Kottakuppam","XR6M+WF8, 10th cross",Puducherry,605104,Tamil Nadu,IN,"https://www.google.com/maps/place/Masjid+Al-Mubarak,+Barakath+Nagar/data=!4m7!3m6!1s0x3a5363e3c04574b3:0x4d0a9bdf4b57e2ee!8m2!3d11.9622877!4d79.833713!16s%2Fg%2F11cmdwr1b3!19sChIJs3RFwONjUzoR7uJXS9-bCk0?authuser=0&hl=en&rclk=1","11.9622877,79.833713"
Masjid Al Hameediya,Mosque,"Masjid Al Hameediya, 91, 3rd Cross St, Thatchnamoorthy Nagar, Mothilal Nagar, Marie Oulgaret, Puducherry, 605009","Thatchnamoorthy Nagar, Mothilal Nagar, Marie Oulgaret","91, 3rd Cross St",Puducherry,605009,Puducherry,IN,https://www.google.com/maps/place/Masjid+Al+Hameediya/data=!4m7!3m6!1s0x3a5361068cc47929:0xd85827b6f55ce949!8m2!3d11.9355879!4d79.7927807!16s%2Fg%2F11dfqx53wd!19sChIJKXnEjAZhUzoRSelc9bYnWNg?authuser=0&hl=en&rclk=1,"11.9355879,79.7927807"
TNTJ Masjid -2,Mosque,"TNTJ Masjid -2, TamilNadu Thowheed Jamath, 2nd Cross Rd, Barakath Nagar, Solai Nagar, Kottakuppam, Tamil Nadu 605104","Barakath Nagar, Solai Nagar, Kottakuppam","TamilNadu Thowheed Jamath, 2nd Cross Rd",,605104,Tamil Nadu,IN,https://www.google.com/maps/place/TNTJ+Masjid+-2/data=!4m7!3m6!1s0x3a5363e3f818dcad:0x6d4441452e27bd98!8m2!3d11.9615392!4d79.8351162!16s%2Fg%2F11cnkqczlq!19sChIJrdwY-ONjUzoRmL0nLkVBRG0?authuser=0&hl=en&rclk=1,"11.961539199999999,79.8351162"
Sulthanpet Thoweed Jamath Pallivasal,Mosque,"WQF6+JJ7 Sulthanpet Thoweed Jamath Pallivasal, Marie Oulgaret, Puducherry, 605110",Marie Oulgaret,WQF6+JJ7,Puducherry,605110,Puducherry,IN,https://www.google.com/maps/place/Sulthanpet+Thoweed+Jamath+Pallivasal/data=!4m7!3m6!1s0x3a5360675d231539:0x2ae88f63232ea38c!8m2!3d11.9240283!4d79.7615502!16s%2Fg%2F1tfg1hxd!19sChIJORUjXWdgUzoRjKMuI2OP6Co?authuser=0&hl=en&rclk=1,"11.9240283,79.7615502"
Masjidul Aabidheen Jumma MOSQUE,Mosque,"RQCJ+3CJ Masjidul Aabidheen Jumma MOSQUE, Kirumampakkam, Puducherry 607402",,RQCJ+3CJ,Kirumampakkam,607402,Puducherry,IN,https://www.google.com/maps/place/Masjidul+Aabidheen+Jumma+MOSQUE/data=!4m7!3m6!1s0x3a549fb6a774570b:0x90fdb0d85d775ef0!8m2!3d11.8202023!4d79.7810257!16s%2Fg%2F11h55d3jp5!19sChIJC1d0p7afVDoR8F53Xdiw_ZA?authuser=0&hl=en&rclk=1,"11.8202023,79.7810257"
Masjid-e-Islamia,Mosque,"WRPH+MCX Masjid-e-Islamia, Pai Kadai Sandhu St, Heritage Town, Puducherry, 605001",Heritage Town,"WRPH+MCX, Pai Kadai Sandhu St",Puducherry,605001,Puducherry,IN,https://www.google.com/maps/place/Masjid-e-Islamia/data=!4m7!3m6!1s0x3a5361947b231d9f:0x84374a8f02c6d2ba!8m2!3d11.936743!4d79.8286108!16s%2Fg%2F11fl40v3b8!19sChIJnx0je5RhUzoRutLGAo9KN4Q?authuser=0&hl=en&rclk=1,"11.936743,79.82861079999999"
Masjid-e-Rahmaniya,Mosque,"XRFR+G6Q Masjid-e-Rahmaniya, Pallivasal St, Kottamedu, Indira nagar, Kottakuppam, Tamil Nadu 605104","Kottamedu, Indira nagar, Kottakuppam","XRFR+G6Q, Pallivasal St",,605104,Tamil Nadu,IN,https://www.google.com/maps/place/Masjid-e-Rahmaniya/data=!4m7!3m6!1s0x3a536366bbb49f4d:0xa58316b7b0854cb9!8m2!3d11.9738297!4d79.8406084!16s%2Fg%2F11h03dk6wg!19sChIJTZ-0u2ZjUzoRuUyFsLcWg6U?authuser=0&hl=en&rclk=1,"11.9738297,79.8406084"
Muslim Masjid,Mosque,"WQFW+V37 Muslim Masjid, 3rd Cross St, Deva Nagar, Puducherry, 605010",Deva Nagar,"WQFW+V37, 3rd Cross St",Puducherry,605010,Puducherry,IN,https://www.google.com/maps/place/Muslim+Masjid/data=!4m7!3m6!1s0x3a53612c50c73bb5:0xf37b143cd6b7ada!8m2!3d11.9246721!4d79.7951656!16s%2Fg%2F11g0gxf284!19sChIJtTvHUCxhUzoR2nprzUOxNw8?authuser=0&hl=en&rclk=1,"11.924672099999999,79.79516559999999"
Masjid Muttaqeen,Mosque,"Masjid Muttaqeen, 57, Balaji Nagar Main Rd, Annamalai Nagar, Puducherry, 605013",Annamalai Nagar,"57, Balaji Nagar Main Rd",Puducherry,605013,Puducherry,IN,https://www.google.com/maps/place/Masjid+Muttaqeen/data=!4m7!3m6!1s0x3a53617ab021a0e1:0xbe1a9c0ea779f222!8m2!3d11.9430015!4d79.81918!16s%2Fg%2F11gglsx0h2!19sChIJ4aAhsHphUzoRIvJ5pw6cGr4?authuser=0&hl=en&rclk=1,"11.9430015,79.81918"
Mohammadia Mosque,Mosque,"WQ55+J2M Mohammadia Mosque, Villianur, Puducherry 605110",,WQ55+J2M,Villianur,605110,Puducherry,IN,https://www.google.com/maps/place/Mohammadia+Mosque/data=!4m7!3m6!1s0x3a53606b68865bef:0x6be59bd22797c459!8m2!3d11.9090864!4d79.7575376!16s%2Fg%2F11c454522z!19sChIJ71uGaGtgUzoRWcSXJ9Kb5Ws?authuser=0&hl=en&rclk=1,"11.9090864,79.75753759999999"
Muhammadiya Masjid,Mosque,"WRJ7+JVH Muhammadiya Masjid, Sengunthar St, Sengeniamman Nagar, Orleanpet, Puducherry, 605005","Sengeniamman Nagar, Orleanpet","WRJ7+JVH, Sengunthar St",Puducherry,605005,Puducherry,IN,https://www.google.com/maps/place/Muhammadiya+Masjid/data=!4m7!3m6!1s0x3a53619d8e3f46c3:0x12c14a9d85122d4f!8m2!3d11.9315707!4d79.8147437!16s%2Fg%2F11d_9ckwj1!19sChIJw0Y_jp1hUzoRTy0ShZ1KwRI?authuser=0&hl=en&rclk=1,"11.9315707,79.8147437"
Masjidhur Rahman-Sunnath Wal Jamath Pallivaasal,Mosque,"WQF7+VR5 Masjidhur Rahman-Sunnath Wal Jamath Pallivaasal, 2nd Cross St, Sulthanpet, Jakir Hussain Nagar, Sulthanpet, Villianur, Puducherry 605110","Sulthanpet, Jakir Hussain Nagar, Sulthanpet","WQF7+VR5, 2nd Cross St",Villianur,605110,Puducherry,IN,https://www.google.com/maps/place/Masjidhur+Rahman-Sunnath+Wal+Jamath+Pallivaasal/data=!4m7!3m6!1s0x3a5361193f60fe2b:0xae2ed94f8a0cc3b2!8m2!3d11.9246401!4d79.7646217!16s%2Fg%2F11gr28llv0!19sChIJK_5gPxlhUzoRssMMik_ZLq4?authuser=0&hl=en&rclk=1,"11.9246401,79.76462169999999"
Mowlah Sahib Dargah,Mosque,"WRGH+MQ3 Mowlah Sahib Dargah, Mullah St, MG Road Area, Puducherry, 605001",MG Road Area,"WRGH+MQ3, Mullah St",Puducherry,605001,Puducherry,IN,https://www.google.com/maps/place/Mowlah+Sahib+Dargah/data=!4m7!3m6!1s0x3a53622a00dada75:0x357ce9c90bdcbe7e!8m2!3d11.9266467!4d79.8294222!16s%2Fg%2F11c45k61q4!19sChIJddraACpiUzoRfr7cC8npfDU?authuser=0&hl=en&rclk=1,"11.9266467,79.8294222"
"Salman Masjid, Bajar Street",Mosque,"XR7Q+VG5 Salman Masjid, Bajar Street, Bajar Street Mosque, Kottakuppam, Tamil Nadu 605104",Kottakuppam,"XR7Q+VG5, Bajar Street Mosque",,605104,Tamil Nadu,IN,"https://www.google.com/maps/place/Salman+Masjid,+Bajar+Street/data=!4m7!3m6!1s0x3a5363e50fe73737:0x91084b8dad817a3d!8m2!3d11.9646404!4d79.8388588!16s%2Fg%2F1pp2vfg_k!19sChIJNzfnD-VjUzoRPXqBrY1LCJE?authuser=0&hl=en&rclk=1","11.964640399999999,79.8388588"
masjid e maqmoor,Mosque,"XR5R+93C masjid e maqmoor, rahmath nagar, Kottakuppam, Puducherry, Tamil Nadu 605104","rahmath nagar, Kottakuppam",XR5R+93C,Puducherry,605104,Tamil Nadu,IN,https://www.google.com/maps/place/masjid+e+maqmoor/data=!4m7!3m6!1s0x3a5363707c0d5181:0x81aa1843e06a2477!8m2!3d11.9584278!4d79.8401434!16s%2Fg%2F11ff58t66z!19sChIJgVENfHBjUzoRdyRq4EMYqoE?authuser=0&hl=en&rclk=1,"11.958427799999999,79.8401434"
Masjid Rahmania,Mosque,"XR5P+RQ9 Masjid Rahmania, Old Madras St, Kottakuppam, Vanur, Tamil Nadu 605104",Kottakuppam,"XR5P+RQ9, Old Madras St",Vanur,,Tamil Nadu,IN,https://www.google.com/maps/place/Masjid+Rahmania/data=!4m7!3m6!1s0x3a53630699d5beeb:0x69e74f890dc1500f!8m2!3d11.9595347!4d79.8369868!16s%2Fg%2F11fhr7rp8c!19sChIJ677VmQZjUzoRD1DBDYlP52k?authuser=0&hl=en&rclk=1,"11.959534699999999,79.83698679999999"
Masjid,Mosque,"VQC2+H5R Masjid, Korkadu, Puducherry 605007",,VQC2+H5R,Korkadu,605007,Puducherry,IN,https://www.google.com/maps/place/Masjid/data=!4m7!3m6!1s0x3a549ff03a8cb00f:0x5fcbd5e559b9ad1f!8m2!3d11.8714981!4d79.7503992!16s%2Fg%2F11dz_m7_yk!19sChIJD7CMOvCfVDoRH625WeXVy18?authuser=0&hl=en&rclk=1,"11.8714981,79.75039919999999"
Masjid and Madrsa,Mosque,"WRM6+7J5 Masjid and Madrsa, Nellitope, Puducherry, 605005",Nellitope,WRM6+7J5,Puducherry,605005,Puducherry,IN,https://www.google.com/maps/place/Masjid+and+Madrsa/data=!4m7!3m6!1s0x3a53619df8f8d82b:0x7902c3f3cbd6307!8m2!3d11.9331415!4d79.8116016!16s%2Fg%2F11gh46ppyh!19sChIJK9j4-J1hUzoRB2O9PD8skAc?authuser=0&hl=en&rclk=1,"11.9331415,79.8116016"
Masjide Salamath,Mosque,"WQGM+MXH Masjide Salamath, JJ nagar, Marie Oulgaret, Puducherry 605010","JJ nagar, Marie Oulgaret",WQGM+MXH,,605010,Puducherry,IN,https://www.google.com/maps/place/Masjide+Salamath/data=!4m7!3m6!1s0x3a536179cbfd25ef:0x47930e710e225b4a!8m2!3d11.926677!4d79.7849778!16s%2Fg%2F11f75y_20f!19sChIJ7yX9y3lhUzoRSlsiDnEOk0c?authuser=0&hl=en&rclk=1,"11.926677,79.7849778"
Masjid Numan Ibnu Sabith,Mosque,"XR4Q+25J Masjid Numan Ibnu Sabith, Thazhai St, Solai Nagar, Muthialpet, Puducherry, 605104","Solai Nagar, Muthialpet","XR4Q+25J, Thazhai St",Puducherry,605104,Puducherry,IN,https://www.google.com/maps/place/Masjid+Numan+Ibnu+Sabith/data=!4m7!3m6!1s0x3a5363c18b3b8d4f:0xcccb43f71e2afd79!8m2!3d11.9550964!4d79.8378797!16s%2Fg%2F11fm59v77n!19sChIJT407i8FjUzoRef0qHvdDy8w?authuser=0&hl=en&rclk=1,"11.955096399999999,79.8378797"
AL MASJITHUTH TAQWA VAL MADRASA..al msjitut tkvaa vl mtrsaa.,Mosque,"AL MASJITHUTH TAQWA VAL MADRASA..al msjitut tkvaa vl mtrsaa., Kareem St, Samarasam nagar, Kottakuppam, Tamil Nadu 605104","Samarasam nagar, Kottakuppam",Kareem St,,605104,Tamil Nadu,IN,https://www.google.com/maps/place/AL+MASJITHUTH+TAQWA+VAL+MADRASA..%E0%AE%85%E0%AE%B2%E0%AF%8D+%E0%AE%AE%E0%AE%B8%E0%AF%8D%E0%AE%9C%E0%AE%BF%E0%AE%A4%E0%AF%81%E0%AE%A4%E0%AF%8D+%E0%AE%A4%E0%AE%95%E0%AF%8D%E0%AE%B5%E0%AE%BE+%E0%AE%B5%E0%AE%B2%E0%AF%8D+%E0%AE%AE%E0%AE%A4%E0%AF%8D%E0%AE%B0%E0%AE%B8%E0%AE%BE./data=!4m7!3m6!1s0x3a53616e1c519c71:0x56c9406fb3187106!8m2!3d11.9657946!4d79.8294409!16s%2Fg%2F11mw77gdbj!19sChIJcZxRHG5hUzoRBnEYs29AyVY?authuser=0&hl=en&rclk=1,"11.965794599999999,79.8294409"
Mohammadia Mosque,Mosque,"Mohammadia Mosque, 66, Mullah St, MG Road Area, Puducherry, 605001",MG Road Area,"66, Mullah St",Puducherry,605001,Puducherry,IN,https://www.google.com/maps/place/Mohammadia+Mosque/data=!4m7!3m6!1s0x3a53618757071251:0x411019edfe751c62!8m2!3d11.9265345!4d79.8293135!16s%2Fg%2F11c2pdjdty!19sChIJURIHV4dhUzoRYhx1_u0ZEEE?authuser=0&hl=en&rclk=1,"11.926534499999999,79.8293135"
Pallivasal,Mosque,"WRJ7+GVR Pallivasal, Palli Vaasal, Palli Vaasal St, Puducherry",Orleanpet,"WRJ7+GVR, Palli Vaasal, Palli Vaasal St",Puducherry,,Puducherry,IN,https://www.google.com/maps/place/Pallivasal/data=!4m7!3m6!1s0x1106ae5e30584525:0xfe534d629ac63eb7!8m2!3d11.9313666!4d79.8146466!16s%2Fg%2F11b7dxqvb6!19sChIJJUVYMF6uBhERtz7GmmJNU_4?authuser=0&hl=en&rclk=1,"11.931366599999999,79.8146466"
Masjid Manfabul Huda,Mosque,"XR8M+PRR Masjid Manfabul Huda, Jameyath Nagar,Kottakuppam,, Kottakuppam, Tamil Nadu 605104",Kottakuppam,"XR8M+PRR, Jameyath Nagar,Kottakuppam,",,605104,Tamil Nadu,IN,https://www.google.com/maps/place/Masjid+Manfabul+Huda/data=!4m7!3m6!1s0x3a5363fcb2691dc7:0x5974674ec620976b!8m2!3d11.9668511!4d79.8345036!16s%2Fg%2F11cn9v2bdw!19sChIJxx1psvxjUzoRa5cgxk5ndFk?authuser=0&hl=en&rclk=1,"11.9668511,79.83450359999999"
Masjid musjidul huda,Mosque,"WRF5+59P Masjid musjidul huda, Ozhandai Keerapalaiyam, Mudaliarpet, Puducherry, 605004","Ozhandai Keerapalaiyam, Mudaliarpet",WRF5+59P,Puducherry,605004,Puducherry,IN,https://www.google.com/maps/place/Masjid+musjidul+huda/data=!4m7!3m6!1s0x3a536198671c2f7d:0xb49113676eed69ee!8m2!3d11.9229574!4d79.8084513!16s%2Fg%2F11b7hm1d39!19sChIJfS8cZ5hhUzoR7mntbmcTkbQ?authuser=0&hl=en&rclk=1,"11.9229574,79.8084513"
Ahmadiya Mosquee,Mosque,"WRGJ+W72 Ahmadiya Mosquee, Chandha Sahib St, MG Road Area, Puducherry, 605001",MG Road Area,"WRGJ+W72, Chandha Sahib St",Puducherry,605001,Puducherry,IN,https://www.google.com/maps/place/Ahmadiya+Mosqu%C3%A9e/data=!4m7!3m6!1s0x3a53622a1c2c4ee3:0xb6dea7b2fbf1f6f0!8m2!3d11.9272665!4d79.8306409!16s%2Fg%2F11bxc5w8py!19sChIJ404sHCpiUzoR8Pbx-7Kn3rY?authuser=0&hl=en&rclk=1,"11.9272665,79.83064089999999"
Masjid kamaliya,Mosque,"Masjid kamaliya, 71, RK Puram, Vanarapet, Vandrapet, Puducherry, 605001","RK Nagar, Vanarapet",71,"Vandrapet, Puducherry",605001,Puducherry,IN,https://www.google.com/maps/place/Masjid+kamaliya/data=!4m7!3m6!1s0x3a53612795f5a62d:0xb491935616aa2048!8m2!3d11.9238378!4d79.8211042!16s%2Fg%2F11ns5dcl_n!19sChIJLab1lSdhUzoRSCCqFlaTkbQ?authuser=0&hl=en&rclk=1,"11.9238378,79.8211042"
Jannathul Bhakki,Mosque,"WQRP+QJX Jannathul Bhakki, opp. to Hospital, Pipdic Industrial Estate, Mettupalayam, Marie Oulgaret, Puducherry, Vazhudavur, Puducherry 605009","Pipdic Industrial Estate, Mettupalayam, Marie Oulgaret","WQRP+QJX, opp. to Hospital","Puducherry, Vazhudavur",605009,Puducherry,IN,https://www.google.com/maps/place/Jannathul+Bhakki/data=!4m7!3m6!1s0x3a536102cc0100c1:0xa435ec966ea98be1!8m2!3d11.9419995!4d79.786606!16s%2Fg%2F11b7kksy58!19sChIJwQABzAJhUzoR4YupbpbsNaQ?authuser=0&hl=en&rclk=1,"11.9419995,79.78660599999999"
Mosque Masjid,Mosque,"Mosque Masjid, 93 Sanjay Gandhi Road, 26, Thennansalai Rd, Puducherry, 605013","Sanjay Gandhi Nagar, Pudupalaiyam","93 Sanjay Gandhi Road, 26, Thennansalai Rd",Puducherry,605013,Puducherry,IN,https://www.google.com/maps/place/Mosque+Masjid/data=!4m7!3m6!1s0x3a5361d9641e80fb:0x1f5307d9194e6a8c!8m2!3d11.9352051!4d79.8172718!16s%2Fg%2F11q2v_6nv9!19sChIJ-4AeZNlhUzoRjGpOGdkHUx8?authuser=0&hl=en&rclk=1,"11.9352051,79.8172718"
Jamia masjid,Mosque,"Jamia masjid, 71, Cazy St, MG Road Area, Puducherry, 605001",MG Road Area,"71, Cazy St",Puducherry,605001,Puducherry,IN,https://www.google.com/maps/place/Jamia+masjid/data=!4m7!3m6!1s0x3a53630fe00e9e37:0xbcaa973bea7474d3!8m2!3d11.9267376!4d79.829727!16s%2Fg%2F11q3mbjcth!19sChIJN54O4A9jUzoR03R06juXqrw?authuser=0&hl=en&rclk=1,"11.9267376,79.82972699999999"
Masjid-e-Ahmed,Mosque,"WRR5+J8P Masjid-e-Ahmed, Sathya Nagar East, Puducherry, 605009",Sathya Nagar East,WRR5+J8P,Puducherry,,Puducherry,IN,https://www.google.com/maps/place/Masjid-e-Ahmed/data=!4m7!3m6!1s0x3a5361703c71fd8f:0xd2a4408cbfb98ef0!8m2!3d11.9415915!4d79.8083133!16s%2Fg%2F11h87_3ncc!19sChIJj_1xPHBhUzoR8I65v4xApNI?authuser=0&hl=en&rclk=1,"11.9415915,79.8083133"
Masjide Muhammadiya,Mosque,"Masjide Muhammadiya, 181, 5th Cross St, Velrampet, Erikarai, Puducherry, 605004",Velrampet,"181, 5th Cross St","Erikarai, Puducherry",605004,Puducherry,IN,https://www.google.com/maps/place/Masjide+Muhammadiya/data=!4m7!3m6!1s0x3a5361def99df1bd:0xef90a5abb9114a2f!8m2!3d11.9117672!4d79.8020522!16s%2Fg%2F11jycn_7wl!19sChIJvfGd-d5hUzoRL0oRuaulkO8?authuser=0&hl=en&rclk=1,"11.9117672,79.80205219999999"
mosque,Mosque,"WQRP+RJ5 mosque, near Veterinary Hospital, Muthirapalayam, Pipdic Industrial Estate, Mettupalayam, Marie Oulgaret, Vazhudavur, Puducherry 605009","Muthirapalayam, Pipdic Industrial Estate, Mettupalayam, Marie Oulgaret","WQRP+RJ5, near Veterinary Hospital",Vazhudavur,605009,Puducherry,IN,https://www.google.com/maps/place/mosque/data=!4m7!3m6!1s0x3a536102cc009ad7:0xbb1e6a5c04a8db4!8m2!3d11.942!4d79.7866!16s%2Fg%2F1hjgjzcj7!19sChIJ15oAzAJhUzoRtI1KwKXmsQs?authuser=0&hl=en&rclk=1,"11.942,79.78659999999999"
Masjidur rahman val madarasa,Mosque,"Masjidur rahman val madarasa, 17, Thulasingam St, Annai Indira Nagar, Ariyankuppam, Puducherry 605007",Annai Indira Nagar,"17, Thulasingam St",Ariyankuppam,605007,Puducherry,IN,https://www.google.com/maps/place/Masjidur+rahman+val+madarasa/data=!4m7!3m6!1s0x3a5361e2353bbb99:0x1cb56ec1f006568!8m2!3d11.8897871!4d79.814152!16s%2Fg%2F11b8vd7w6x!19sChIJmbs7NeJhUzoRaGUAH-xWywE?authuser=0&hl=en&rclk=1,"11.8897871,79.81415199999999"
Al masjidul falah,Mosque,"Al masjidul falah, Dava NAGAR 3rd cross reddiarpalayam, Marie Oulgaret, Puducherry, 605010",Marie Oulgaret,Dava NAGAR 3rd cross reddiarpalayam,Puducherry,605010,Puducherry,IN,https://www.google.com/maps/place/Al+masjidul+falah/data=!4m7!3m6!1s0x3a5361ea8fd99e07:0x1ed9f27900709972!8m2!3d11.9266808!4d79.7976705!16s%2Fg%2F11llnnxkk9!19sChIJB57Zj-phUzoRcplwAHny2R4?authuser=0&hl=en&rclk=1,"11.9266808,79.7976705"
Thowheed jamath markas,Mosque,"WRR2+V38 Thowheed jamath markas, Subbiahnagar, Gandhi Nagar, Puducherry, 605009","Subbiahnagar, Gandhi Nagar",WRR2+V38,Puducherry,605009,Puducherry,IN,https://www.google.com/maps/place/Thowheed+jamath+markas/data=!4m7!3m6!1s0x3a5361d0e3bc659f:0xf44d0ab47ee74e28!8m2!3d11.9421632!4d79.8002022!16s%2Fg%2F11nxnptqg7!19sChIJn2W849BhUzoRKE7nfrQKTfQ?authuser=0&hl=en&rclk=1,"11.9421632,79.8002022"
Dawoodi Bohra Markaz,Mosque,"XR53+QPW Dawoodi Bohra Markaz, Gurusithananda Samy Nagar, Navarkulam, Puducherry, Tamil Nadu 605008","Gurusithananda Samy Nagar, Navarkulam",XR53+QPW,Puducherry,605008,Tamil Nadu,IN,https://www.google.com/maps/place/Dawoodi+Bohra+Markaz/data=!4m7!3m6!1s0x3a5361d175ecdf9b:0x87b3d9f86b59a39c!8m2!3d11.9594814!4d79.8043408!16s%2Fg%2F11p4___g2n!19sChIJm9_sddFhUzoRnKNZa_jZs4c?authuser=0&hl=en&rclk=1,"11.9594814,79.80434079999999"
Masjith muhamathiya,Mosque,"WRJ7+GVR Masjith muhamathiya, Palli Vaasal St, Orleanpet, Puducherry, 605005",Orleanpet,"WRJ7+GVR, Palli Vaasal St",Puducherry,605005,Puducherry,IN,https://www.google.com/maps/place/Masjith+muhamathiya/data=!4m7!3m6!1s0x3a5361640c5aa98d:0xc1e687579e14403!8m2!3d11.9313592!4d79.8146486!16s%2Fg%2F11kqg69c_p!19sChIJjalaDGRhUzoRA0TheXVoHgw?authuser=0&hl=en&rclk=1,"11.9313592,79.8146486"
TNTJ BUSSY BRANCH,Mosque,"WRGH+8QW TNTJ BUSSY BRANCH, Milad St, MG Road Area, Puducherry, 605001",MG Road Area,"WRGH+8QW, Milad St",Puducherry,605001,Puducherry,IN,https://www.google.com/maps/place/TNTJ+BUSSY+BRANCH/data=!4m7!3m6!1s0x3a53614291029bf5:0xb71c8f496421a3cd!8m2!3d11.9258565!4d79.8294589!16s%2Fg%2F11hdchfg43!19sChIJ9ZsCkUJhUzoRzaMhZEmPHLc?authuser=0&hl=en&rclk=1,"11.9258565,79.82945889999999"
TNTJ Vanarapet Markaz,Mosque,"WRGC+72Q TNTJ Vanarapet Markaz, Vanarapet, Puducherry, 605004",Vanarapet,"WRGC+72Q, Vanarapet",Puducherry,605004,Puducherry,IN,https://www.google.com/maps/place/TNTJ+Vanarapet+Markaz/data=!4m7!3m6!1s0x3a5361fbf8738b07:0x5118dee9fba1f07f!8m2!3d11.9257112!4d79.8200942!16s%2Fg%2F11rr6pyvsx!19sChIJB4tz-PthUzoRf_Ch--neGFE?authuser=0&hl=en&rclk=1,"11.9257112,79.8200942"
Pallivasal,Mosque,"Pallivasal, 1, Matha Koil St, Nellithope, Nellitope, Puducherry, 605005","Nellithope, Nellitope","1, Matha Koil St",Puducherry,605005,Puducherry,IN,https://www.google.com/maps/place/Pallivasal/data=!4m7!3m6!1s0x3a5361a03abcc7c9:0x3f0a9aa9796f67cd!8m2!3d11.9322838!4d79.811193!16s%2Fg%2F11nclyxp16!19sChIJyce8OqBhUzoRzWdveamaCj8?authuser=0&hl=en&rclk=1,"11.932283799999999,79.811193"
Masjid Annur,Mosque,"XQ6R+CR7 Masjid Annur, Thiru Nagar, opposite Kamaraj Nagar, Gorimedu, Tamil Nadu 605006","Kamaraj Nagar, Gorimedu, Priyadarshini Nagar","XQ6R+CR7, Thiru Nagar, opposite Kamaraj Nagar",,605006,Tamil Nadu,IN,https://www.google.com/maps/place/Masjid+Annur/data=!4m7!3m6!1s0x3a53615b2057e855:0xffc0285827c6b059!8m2!3d11.9610294!4d79.7920426!16s%2Fg%2F11j1z0lp3n!19sChIJVehXIFthUzoRWbDGJ1gowP8?authuser=0&hl=en&rclk=1,"11.9610294,79.7920426"
My home,Mosque,"My home, No:43b, Chandha Sahib St, near muvahidya masjid and old law college, MG Road Area, Puducherry, 605001",MG Road Area,"No:43b, Chandha Sahib St, near muvahidya masjid and old law college",Puducherry,605001,Puducherry,IN,https://www.google.com/maps/place/My+home/data=!4m7!3m6!1s0x3a5363adc9b83179:0xeff834ece455297c!8m2!3d11.9267851!4d79.8303121!16s%2Fg%2F11nnsh5sq_!19sChIJeTG4ya1jUzoRfClV5Ow0-O8?authuser=0&hl=en&rclk=1,"11.9267851,79.8303121"
Al masjidul falah,Mosque,"Al masjidul falah, 3rd cross, 1st Main Rd, Reddiarpalayam, Puducherry, 605010",Reddiarpalayam,"3rd cross, 1st Main Rd",Puducherry,605010,Puducherry,IN,https://www.google.com/maps/place/Al+masjidul+falah/data=!4m7!3m6!1s0x3a53616656141239:0x7378b65565a21c82!8m2!3d11.9245588!4d79.7950224!16s%2Fg%2F11n0rb2tkq!19sChIJORIUVmZhUzoRghyiZVW2eHM?authuser=0&hl=en&rclk=1,"11.9245588,79.7950224"
Masjid Thaqwa Markaz (TNTJ),Association or organization,"Masjid Thaqwa Markaz (TNTJ), 13, Ramaraja St, MG Road Area, Puducherry, 605001",MG Road Area,"13, Ramaraja St",Puducherry,605001,Puducherry,IN,https://www.google.com/maps/place/Masjid+Thaqwa+Markaz+%28TNTJ%29/data=!4m7!3m6!1s0x3a53615bf15d1637:0xfc8743cfde2411ed!8m2!3d11.9257535!4d79.8278031!16s%2Fg%2F11smj9mly1!19sChIJNxZd8VthUzoR7REk3s9Dh_w?authuser=0&hl=en&rclk=1,"11.925753499999999,79.8278031"
EID PRAYER GROUND,Mosque,"XR8P+2MW EID PRAYER GROUND, Mahatma Gandhi Rd, Solai Nagar, Kottakuppam, Tamil Nadu 605104","Solai Nagar, Kottakuppam","XR8P+2MW, Mahatma Gandhi Rd",,605104,Tamil Nadu,IN,https://www.google.com/maps/place/EID+PRAYER+GROUND/data=!4m7!3m6!1s0x3a5363e4eab94d3f:0xb11d83715a455056!8m2!3d11.9651211!4d79.836717!16s%2Fg%2F1pp2vfh3_!19sChIJP0256uRjUzoRVlBFWnGDHbE?authuser=0&hl=en&rclk=1,"11.9651211,79.836717"
Masjide jannathul Islamiya,Mosque,"WQ65+6C4 Masjide jannathul Islamiya, Puthu Nagar, 3rd plot, Kanuvapet, Villianur, Puducherry 605110","Puthu Nagar, 3rd plot, Kanuvapet",WQ65+6C4,Villianur,,Puducherry,IN,https://www.google.com/maps/place/Masjide+jannathul+Islamiya/data=!4m7!3m6!1s0x3a5361065cc7cc8f:0xb31e22613483fcc9!8m2!3d11.9105011!4d79.7585712!16s%2Fg%2F11sk4m16xg!19sChIJj8zHXAZhUzoRyfyDNGEiHrM?authuser=0&hl=en&rclk=1,"11.9105011,79.75857119999999"
Jamia Masjid Cemetery,Cemetery,"XR6P+XRP Jamia Masjid Cemetery, Muthialpet, Puducherry, Tamil Nadu 605104",Muthialpet,XR6P+XRP,Puducherry,605104,Tamil Nadu,IN,https://www.google.com/maps/place/Jamia+Masjid+Cemetery/data=!4m7!3m6!1s0x3a53639fdc85bf39:0xacc36a2d14590d36!8m2!3d11.9624656!4d79.8370922!16s%2Fg%2F11jcczwff_!19sChIJOb-F3J9jUzoRNg1ZFC1qw6w?authuser=0&hl=en&rclk=1,"11.9624656,79.8370922"
