name,main_category,address,address_ward,address_street,address_city,address_postal_code,address_state,address_country_code,link,coordinates
Jama Masjid,Mosque,"Jama Masjid, Old Delhi, Delhi, 110006","Jama Masjid, Old Delhi",,Delhi,110006,Delhi,IN,https://www.google.com/maps/place/Jama+Masjid/data=!4m7!3m6!1s0x390cfd18df89b215:0xdd57369e29bf9d96!8m2!3d28.6506792!4d77.2334421!16zL20vMDR5emo1!19sChIJFbKJ3xj9DDkRlp2_KZ42V90?authuser=0&hl=en&rclk=1,"28.6506792,77.23344209999999"
Naini Bai ka Mandir,Hindu temple,"Naini Bai ka Mandir, Rasik Bihari Temple, Udai Mandir, Sri Ganganagar, Jodhpur, Rajasthan 342001","Udai Mandir, Sri Ganganagar",Rasik Bihari Temple,Jodhpur,342001,Rajasthan,IN,https://www.google.com/maps/place/Naini+Bai+ka+Mandir/data=!4m7!3m6!1s0x39418dac202fc701:0x5e8d3d238f17bd5c!8m2!3d26.2941175!4d73.0331256!16s%2Fg%2F124t07fg3!19sChIJAccvIKyNQTkRXL0XjyM9jV4?authuser=0&hl=en&rclk=1,"26.2941175,73.03312559999999"
Masjid Nabi (msjd nby) Johri farm,Mosque,"Masjid Nabi (msjd nby) Johri farm, C7, 1st Lane Johri Farm, Noor Nagar Extension, Noor Nagar, Okhla, New Delhi, Delhi 110025","Noor Nagar Extension, Noor Nagar, Okhla","C7, 1st Lane Johri Farm",New Delhi,110025,Delhi,IN,https://www.google.com/maps/place/Masjid+Nabi+%28%D9%85%D8%B3%D8%AC%D8%AF+%D9%86%D8%A8%DB%8C%29+Johri+farm%E2%80%AD/data=!4m7!3m6!1s0x390ce5082fe1ad5f:0x5775343e83da2a45!8m2!3d28.555116!4d77.2871876!16s%2Fg%2F11mvgvl28g!19sChIJX63hLwjlDDkRRSragz40dVc?authuser=0&hl=en&rclk=1,"28.555115999999998,77.2871876"
Begumpur Mosque,Mosque,"Begumpur Mosque, Malviya Nagar, Sri Aurobindo Ln, near Mata Mandir, Begumpur, New Delhi, Delhi 110017",Begumpur,"Malviya Nagar, Sri Aurobindo Ln, near Mata Mandir",New Delhi,110017,Delhi,IN,https://www.google.com/maps/place/Begumpur+Mosque/data=!4m7!3m6!1s0x390ce21a355f3501:0x807a43d3836590e!8m2!3d28.5392125!4d77.206839!16s%2Fg%2F1hhzgrz2c!19sChIJATVfNRriDDkRDlk2OD2kBwg?authuser=0&hl=en&rclk=1,"28.539212499999998,77.206839"
Moti Masjid,Mosque,"M64V+P7J Moti Masjid, Lal Qila, Old Delhi, New Delhi, Delhi, 110006","Lal Qila, Old Delhi",M64V+P7J,"New Delhi, Delhi",110006,Delhi,IN,https://www.google.com/maps/place/Moti+Masjid/data=!4m7!3m6!1s0x390cfce252446dcd:0xdd83160d9aa6cbf1!8m2!3d28.6568443!4d77.2431421!16zL20vMDZ2cV92!19sChIJzW1EUuL8DDkR8cummg0Wg90?authuser=0&hl=en&rclk=1,"28.6568443,77.2431421"
Shahi Jama Masjid,Mosque,"Shahi Jama Masjid, sabji mandi, Chatta Bazar, Chowk Bazar, Mathura, Uttar Pradesh 281001",Chowk Bazar,"sabji mandi, Chatta Bazar",Mathura,281001,Uttar Pradesh,IN,https://www.google.com/maps/place/Shahi+Jama+Masjid/data=!4m7!3m6!1s0x3973710c533be3e3:0x178280cdaf91949f!8m2!3d27.5063027!4d77.6798177!16s%2Fm%2F0gkxdbh!19sChIJ4-M7UwxxczkRn5SRr82Aghc?authuser=0&hl=en&rclk=1,"27.5063027,77.6798177"
Hari Masjid - hry msjd,Mosque,"Hari Masjid - hry msjd, S5, Rajguru Marg, Chuna Mandi, Paharganj, New Delhi, Delhi 110055","Bazar Sangatrashan, Chuna Mandi, Paharganj","S5, Rajguru Marg",New Delhi,110055,Delhi,IN,https://www.google.com/maps/place/Hari+Masjid+-+%DB%81%D8%B1%DB%8C+%D9%85%D8%B3%D8%AC%D8%AF%E2%80%AD/data=!4m7!3m6!1s0x390cfd420fb3ca0d:0xb47391289f663fde!8m2!3d28.6451083!4d77.2107922!16s%2Fg%2F12ml2wx8n!19sChIJDcqzD0L9DDkR3j9mnyiRc7Q?authuser=0&hl=en&rclk=1,"28.6451083,77.2107922"
Masjid Al Habib,Mosque,"G8V2+8HW Masjid Al Habib, Chalis Fata Road, Shahin Bagh, Part 1 Abul Fazal Enclave, Jamia Nagar, New Delhi, Delhi 110025","Part 1 Abul Fazal Enclave, Shaheen Bagh, Jamia Nagar, Okhla","G8V2+8HW, Chalis Fata Road, Shahin Bagh",New Delhi,110025,Delhi,IN,https://www.google.com/maps/place/Masjid+Al+Habib/data=!4m7!3m6!1s0x390ce41ae803c7ad:0x45d1aa30982adca9!8m2!3d28.543354!4d77.3014573!16s%2Fg%2F12hkklprz!19sChIJrccD6BrkDDkRqdwqmDCq0UU?authuser=0&hl=en&rclk=1,"28.543353999999997,77.3014573"
Badi Masjid,Mosque,"P32Q+4M8 Badi Masjid, Unnamed Road, Block Y, Mangolpur Khurd, Mangolpuri, Delhi, 110083","Block Y, Mangolpur Khurd, Mangolpuri","P32Q+4M8, Unnamed Road",Delhi,110083,Delhi,IN,https://www.google.com/maps/place/Badi+Masjid/data=!4m7!3m6!1s0x390d041d38b0777d:0xf2ef86afcc1e862e!8m2!3d28.701363!4d77.089946!16s%2Fg%2F12hv862rn!19sChIJfXewOB0EDTkRLoYezK-G7_I?authuser=0&hl=en&rclk=1,"28.701362999999997,77.089946"
Noor Masjid,Mosque,"H73X+CHG Noor Masjid, Kalindi Kunj Rd, Abul Fazal Enclave Part 1, Block J, Jamia Nagar, Okhla, New Delhi, Delhi 110025","Abul Fazal Enclave Part 1, Block J, Jamia Nagar, Okhla","H73X+CHG, Kalindi Kunj Rd",New Delhi,110025,Delhi,IN,https://www.google.com/maps/place/Noor+Masjid/data=!4m7!3m6!1s0x390ce4103435d885:0x70062933e057a0e8!8m2!3d28.5535535!4d77.2989652!16s%2Fg%2F11btvb5bqr!19sChIJhdg1NBDkDDkR6KBX4DMpBnA?authuser=0&hl=en&rclk=1,"28.5535535,77.2989652"
Masjid Gejha,Mosque,"Masjid Gejha, Masjid, Gejha, Sector 93, Noida, Uttar Pradesh 201304","Gejha, Sector 93",Masjid,Noida,201304,Uttar Pradesh,IN,https://www.google.com/maps/place/Masjid+Gejha/data=!4m7!3m6!1s0x390ce89f6928d40d:0x7bdcb893bd8c4e49!8m2!3d28.5240911!4d77.3822085!16s%2Fg%2F11c2nt4mg4!19sChIJDdQoaZ_oDDkRSU6MvZO43Hs?authuser=0&hl=en&rclk=1,"28.5240911,77.38220849999999"
Jama Masjid Sangam Vihar jm` msjd,Mosque,"P6G8+7RW Jama Masjid Sangam Vihar jm` msjd, Sangam Vihar, Wazirabad, Delhi, 110084","Sangam Vihar, Wazirabad",P6G8+7RW,Delhi,110084,Delhi,IN,https://www.google.com/maps/place/Jama+Masjid+Sangam+Vihar+%D8%AC%D8%A7%D9%85%D8%B9+%D9%85%D8%B3%D8%AC%D8%AF%E2%80%AD/data=!4m7!3m6!1s0x390cfe0d4e3dd3dd:0xaa2718df247acef4!8m2!3d28.7257423!4d77.2170632!16s%2Fg%2F11g8skxzv6!19sChIJ3dM9Tg3-DDkR9M56JN8YJ6o?authuser=0&hl=en&rclk=1,"28.7257423,77.2170632"
Masjid Umar Zakir Nagar,Mosque,"H78H+GG6 Masjid Umar Zakir Nagar, Street Number 17, Jogabai Extension, Zakir Nagar, Okhla, New Delhi, Delhi 110025","Jogabai Extension, Zakir Nagar, Okhla","H78H+GG6, Street Number 17",New Delhi,110025,Delhi,IN,https://www.google.com/maps/place/Masjid+Umar+Zakir+Nagar/data=!4m7!3m6!1s0x390ce38e9ec96e19:0x70b17779fb782983!8m2!3d28.5662853!4d77.2787581!16s%2Fg%2F1q6j8w8yn!19sChIJGW7Jno7jDDkRgyl4-3l3sXA?authuser=0&hl=en&rclk=1,"28.566285299999997,77.27875809999999"
Eros Masjid,Mosque,"First Floor, Eros Masjid, Eros International Tower, Block G 6, Nehru Place, New Delhi, Delhi 110048","Block G 6, Nehru Place","First Floor, Eros International Tower",New Delhi,110048,Delhi,IN,https://www.google.com/maps/place/Eros+Masjid/data=!4m7!3m6!1s0x390ce3cf8773d169:0x178e9df5127cab65!8m2!3d28.548713!4d77.251941!16s%2Fg%2F11dxkfsf0q!19sChIJadFzh8_jDDkRZat8EvWdjhc?authuser=0&hl=en&rclk=1,"28.548713,77.251941"
Badi(jama) Masjid,Mosque,"J4P4+2V4 Badi(jama) Masjid, Gali No. 4, Manak Vihar, Tihar Village, New Delhi, Delhi, 110018","Manak Vihar, Tihar Village","J4P4+2V4, Gali No. 4","New Delhi, Delhi",110018,Delhi,IN,https://www.google.com/maps/place/Badi%28jama%29+Masjid/data=!4m7!3m6!1s0x390d035e10a9d55f:0x40599e23ef175c9a!8m2!3d28.635023!4d77.1071989!16s%2Fg%2F11c1n313xp!19sChIJX9WpEF4DDTkRmlwX7yOeWUA?authuser=0&hl=en&rclk=1,"28.635023,77.1071989"
Jama Masjid jm` msjd,Mosque,"J855+M79 Jama Masjid jm` msjd, Block 15, Part 2, Trilokpuri, New Delhi, Delhi, 110091","Block 15, Part 2, Trilokpuri",J855+M79,"New Delhi, Delhi",110091,Delhi,IN,https://www.google.com/maps/place/Jama+Masjid+%D8%AC%D8%A7%D9%85%D8%B9+%D9%85%D8%B3%D8%AC%D8%AF%E2%80%AD/data=!4m7!3m6!1s0x390ce4bfe1b12b91:0xfecd74e7cb8ce1c7!8m2!3d28.6091721!4d77.3082433!16s%2Fg%2F11g8djm1rv!19sChIJkSux4b_kDDkRx-GMy-d0zf4?authuser=0&hl=en&rclk=1,"28.6091721,77.3082433"
Shahi Masjid msjd,Mosque,"Shahi Masjid msjd, Near Domestic Airport Terminal 1, behind Airport Hotel, Mehram Nagar West, Mehram Nagar, New Delhi, Delhi 110010","Mehram Nagar West, Mehram Nagar","Near Domestic Airport Terminal 1, behind Airport Hotel",New Delhi,110010,Delhi,IN,https://www.google.com/maps/place/Shahi+Masjid+%D9%85%D8%B3%D8%AC%D8%AF%E2%80%AD/data=!4m7!3m6!1s0x390d1d769fa65a03:0xb5a95b8a59532e13!8m2!3d28.5654538!4d77.1235127!16s%2Fg%2F11ghn_x_bm!19sChIJA1qmn3YdDTkREy5TWYpbqbU?authuser=0&hl=en&rclk=1,"28.5654538,77.12351269999999"
kalan masjid msjd khlN,Mosque,"kalan masjid msjd khlN, T-374, main gate Kalan Masjid, Nizamuddin, Nizammudin West Slum, Nizamuddin West, New Delhi, Delhi 110013","Nizamuddin, Nizammudin West Slum, Nizamuddin West","T-374, main gate Kalan Masjid",New Delhi,110013,Delhi,IN,https://www.google.com/maps/place/kalan+masjid+%D9%85%D8%B3%D8%AC%D8%AF+%DA%A9%D9%84%D8%A7%DA%BA%E2%80%AD/data=!4m7!3m6!1s0x390ce302c17cfd1d:0xa7357c0f9959ac96!8m2!3d28.5900079!4d77.2436272!16s%2Fg%2F11b69mlvw8!19sChIJHf18wQLjDDkRlqxZmQ98Nac?authuser=0&hl=en&rclk=1,"28.5900079,77.24362719999999"
Masjid-E-Quba,Mosque,"Masjid-E-Quba, cement godown, DB 36, Africa Ave, behind leela palace hotel, Netaji Nagar, New Delhi, Delhi 110023",Netaji Nagar,"cement godown, DB 36, Africa Ave, behind leela palace hotel",New Delhi,110023,Delhi,IN,https://www.google.com/maps/place/Masjid-E-Quba/data=!4m7!3m6!1s0x390d1d3a4ee7eeb1:0x4e590ca2efe346f2!8m2!3d28.5807286!4d77.1896991!16s%2Fg%2F11gkbhkspf!19sChIJse7nTjodDTkR8kbj76IMWU4?authuser=0&hl=en&rclk=1,"28.580728599999997,77.1896991"
Bilal Masjid msjd bll,Mosque,"G65V+78X Bilal Masjid msjd bll, Ekta Marg, Block D, Sangam Vihar, New Delhi, Delhi 110080","Block D, Sangam Vihar","G65V+78X, Ekta Marg",New Delhi,110080,Delhi,IN,https://www.google.com/maps/place/Bilal+Masjid+%D9%85%D8%B3%D8%AC%D8%AF+%D8%A8%D9%84%D8%A7%D9%84%E2%80%AD/data=!4m7!3m6!1s0x390ce10afff9b5a3:0xa56d48e1c58f0d29!8m2!3d28.5082298!4d77.2433546!16s%2Fg%2F11f3m968nj!19sChIJo7X5_wrhDDkRKQ2PxeFIbaU?authuser=0&hl=en&rclk=1,"28.5082298,77.2433546"
Masjid Devband,Mosque,"G66Q+44V Masjid Devband, Tigri Colony, Tigri, Sangam Vihar, New Delhi, Delhi 110062","Tigri Colony, Tigri, Sangam Vihar",G66Q+44V,New Delhi,110062,Delhi,IN,https://www.google.com/maps/place/Masjid+Devband/data=!4m7!3m6!1s0x390ce1a02ba173f3:0x74659f41cc7c1b39!8m2!3d28.5103517!4d77.2377863!16s%2Fg%2F11b808708z!19sChIJ83OhK6DhDDkRORt8zEGfZXQ?authuser=0&hl=en&rclk=1,"28.510351699999998,77.2377863"
Asharfia Masjid,Mosque,"P7PW+F3F Asharfia Masjid, Roop Nagar, Ghaziabad, Uttar Pradesh 201102",Roop Nagar,P7PW+F3F,Ghaziabad,201102,Uttar Pradesh,IN,https://www.google.com/maps/place/Asharfia+Masjid/data=!4m7!3m6!1s0x390cf94fad5822d3:0xa5d91783215ddfeb!8m2!3d28.7361955!4d77.2951872!16s%2Fg%2F11dxqzzqbf!19sChIJ0yJYrU_5DDkR699dIYMX2aU?authuser=0&hl=en&rclk=1,"28.736195499999997,77.2951872"
Jama masjid merta city,Mosque,"J2WM+W8X Jama masjid merta city, Sikhwalo Ka Mohala, Merta, Rajasthan 341510",Sikhwalo Ka Mohala,J2WM+W8X,Merta,341510,Rajasthan,IN,https://www.google.com/maps/place/Jama+masjid+merta+city/data=!4m7!3m6!1s0x396a49900aaa8ce5:0xf52d8264703922b6!8m2!3d26.6473715!4d74.033366!16s%2Fg%2F11t4wprvws!19sChIJ5YyqCpBJajkRtiI5cGSCLfU?authuser=0&hl=en&rclk=1,"26.6473715,74.033366"
MADINA MASJID,Mosque,"M5X6+558 MADINA MASJID, Block A, Wazirpur Industrial Area, Ashok Vihar, Delhi, 110052","Block A, Wazirpur Industrial Area, Ashok Vihar",M5X6+558,Delhi,110052,Delhi,IN,https://www.google.com/maps/place/MADINA+MASJID/data=!4m7!3m6!1s0x390d023aab0ed955:0x822db20eda2dd64c!8m2!3d28.697902!4d77.1604397!16s%2Fg%2F11f2b01ft3!19sChIJVdkOqzoCDTkRTNYt2g6yLYI?authuser=0&hl=en&rclk=1,"28.697902,77.1604397"
kuba Masjid,Mosque,"5QF9+95J kuba Masjid, Sahwa Rd, Nohar, Chak Rajasar, Rajasthan 335523",,"5QF9+95J, Sahwa Rd","Nohar, Chak Rajasar",335523,Rajasthan,IN,https://www.google.com/maps/place/kuba+Masjid/data=!4m7!3m6!1s0x39141b4543b7cc47:0xf6c6d0b736bcf0c!8m2!3d29.1734636!4d74.7678819!16s%2Fg%2F11c5xt0js0!19sChIJR8y3Q0UbFDkRDM9rcwttbA8?authuser=0&hl=en&rclk=1,"29.173463599999998,74.76788189999999"
O-block Masjid Mosque,Mosque,"O-block Masjid Mosque, bus stand, Harsh Vihar, O Block Rd, near, Sunder Nagri, Delhi 110093","near, Block N, Sunder Nagri, Dilshad Garden","bus stand, Harsh Vihar, O Block Rd",Delhi,110093,Delhi,IN,https://www.google.com/maps/place/O-block+Masjid+Mosque/data=!4m7!3m6!1s0x390cfb49550b8dcd:0x3985a2b21616d950!8m2!3d28.6972241!4d77.3223517!16s%2Fg%2F11g231dqkv!19sChIJzY0LVUn7DDkRUNkWFrKihTk?authuser=0&hl=en&rclk=1,"28.6972241,77.3223517"
Markaz Masjid,Mosque,"QCWP+W52 Markaz Masjid, Kosi Kalan, Uttar Pradesh 281403",,QCWP+W52,Kosi Kalan,281403,Uttar Pradesh,IN,https://www.google.com/maps/place/Markaz+Masjid/data=!4m7!3m6!1s0x39733c6618d33121:0xb69b9dc8dc20e19!8m2!3d27.7972576!4d77.4353866!16s%2Fg%2F12lv2v32j!19sChIJITHTGGY8czkRGQ7Cjdy5aQs?authuser=0&hl=en&rclk=1,"27.7972576,77.4353866"
Shahjahani Moddi Masjid,Mosque,"2PJ9+9PF Shahjahani Moddi Masjid, Gunawati, Makrana, Rajasthan 341505",Gunawati,2PJ9+9PF,Makrana,341505,Rajasthan,IN,https://www.google.com/maps/place/Shahjahani+Moddi+Masjid/data=!4m7!3m6!1s0x396b9c4dac4dde95:0x363e8d921b2b27a8!8m2!3d27.030942!4d74.7193107!16s%2Fg%2F11d_ylvwrg!19sChIJld5NrE2cazkRqCcrG5KNPjY?authuser=0&hl=en&rclk=1,"27.030942,74.7193107"
Jama Masjid (Untra ),Mosque,"HQMF+65Q Jama Masjid (Untra ), v30, Oontra, Rajasthan 305802",,HQMF+65Q,"v30, Oontra",305802,Rajasthan,IN,https://www.google.com/maps/place/Jama+Masjid+%28Untra+%29/data=!4m7!3m6!1s0x396bee2cf472ac55:0x490c1bc6992053db!8m2!3d26.5830847!4d74.7729706!16s%2Fg%2F11f24wclvr!19sChIJVaxy9CzuazkR21MgmcYbDEk?authuser=0&hl=en&rclk=1,"26.5830847,74.7729706"
Chapra Masjid,Mosque,"2PQF+PWG Chapra Masjid, Do Masjid Station Rd, Sadar Bazar, Makrana, Rajasthan 341505",Sadar Bazar,"2PQF+PWG, Do Masjid Station Rd",Makrana,341505,Rajasthan,IN,https://www.google.com/maps/place/Chapra+Masjid/data=!4m7!3m6!1s0x396b9dadcabe04a1:0xe6b5b1595170a9db!8m2!3d27.0393147!4d74.7248381!16s%2Fg%2F11f386dxgt!19sChIJoQS-yq2dazkR26lwUVmxteY?authuser=0&hl=en&rclk=1,"27.0393147,74.7248381"
Masjid Mohammadi,Mosque,"XP74+4M6 Masjid Mohammadi, Pillokhari Rd, Shyam Nagar, Tarapuri, Meerut, Uttar Pradesh 250002","Shyam Nagar, Tarapuri","XP74+4M6, Pillokhari Rd",Meerut,250002,Uttar Pradesh,IN,https://www.google.com/maps/place/Masjid+Mohammadi/data=!4m7!3m6!1s0x390c648c3e38233f:0x7fb4da5c8ced1990!8m2!3d28.9627989!4d77.7066411!16s%2Fg%2F1wl4nz_8!19sChIJPyM4PoxkDDkRkBntjFzatH8?authuser=0&hl=en&rclk=1,"28.9627989,77.7066411"
Hathai Masjid,Mosque,"2PRH+8G5 Hathai Masjid, Hathai Mohalla, Makrana, Rajasthan 341505",Hathai Mohalla,2PRH+8G5,Makrana,341505,Rajasthan,IN,https://www.google.com/maps/place/Hathai+Masjid/data=!4m7!3m6!1s0x396b9dabe4008873:0x6dd2e46d2a1662df!8m2!3d27.0407717!4d74.7288554!16s%2Fg%2F11h9xlq8m6!19sChIJc4gA5KudazkR32IWKm3k0m0?authuser=0&hl=en&rclk=1,"27.0407717,74.7288554"
NOORI MOSQUE KUCHERA,Mosque,"NOORI MOSQUE KUCHERA, National Highway 89, Kuchera, Rajasthan 341024",,National Highway 89,Kuchera,341024,Rajasthan,IN,https://www.google.com/maps/place/NOORI+MOSQUE+KUCHERA/data=!4m7!3m6!1s0x396a589a47def74f:0xca0dc2f411567826!8m2!3d26.9856001!4d73.9670249!16s%2Fg%2F11b6mk_fz6!19sChIJT_feR5pYajkRJnhWEfTCDco?authuser=0&hl=en&rclk=1,"26.9856001,73.9670249"
MASJID RAHMANIYA,Mosque,"7FGQ+RM3 MASJID RAHMANIYA, Station Rd, Khunkhuna, Rajasthan 341318",,"7FGQ+RM3, Station Rd",Khunkhuna,341318,Rajasthan,IN,https://www.google.com/maps/place/MASJID+RAHMANIYA/data=!4m7!3m6!1s0x396b11850fa3fc65:0x3cf285c16795f177!8m2!3d27.2770139!4d74.4891595!16s%2Fg%2F11c6m3myvq!19sChIJZfyjD4URazkRd_GVZ8GF8jw?authuser=0&hl=en&rclk=1,"27.2770139,74.4891595"
Madina Masjid mdynh msjd,Mosque,"43M7+VW9 Madina Masjid mdynh msjd, Phardod, Rajasthan 341030",,43M7+VW9,Phardod,341030,Rajasthan,IN,https://www.google.com/maps/place/Madina+Masjid+%D9%85%D8%AF%DB%8C%D9%86%DB%81+%D9%85%D8%B3%D8%AC%D8%AF%E2%80%AD/data=!4m7!3m6!1s0x396afa5a841b2573:0x7f9b9847049d9bba!8m2!3d27.1346559!4d74.0648454!16s%2Fg%2F11bztdpltm!19sChIJcyUbhFr6ajkRupudBEeYm38?authuser=0&hl=en&rclk=1,"27.1346559,74.0648454"
Faizan e Jamal e Mustafa Masjid maslak e ALA HAZRAT,Mosque,"HRVW+CFV Faizan e Jamal e Mustafa Masjid maslak e ALA HAZRAT, Madanganj, Kishangarh, Rajasthan 305802",Madanganj,HRVW+CFV,Kishangarh,305802,Rajasthan,IN,https://www.google.com/maps/place/Faizan+e+Jamal+e+Mustafa+Masjid+maslak+e+ALA+HAZRAT/data=!4m7!3m6!1s0x396bf17d9fadaa43:0x70721fd86888f0d7!8m2!3d26.593609!4d74.8461852!16s%2Fg%2F11jy100prc!19sChIJQ6qtn33xazkR1_CIaNgfcnA?authuser=0&hl=en&rclk=1,"26.593608999999997,74.8461852"
Masjid Al Hilal,Mosque,"XMMX+24R Masjid Al Hilal, Purwa Faiyaz Ali, Jali Kothi, Meerut, Uttar Pradesh 250002",Jali Kothi,XMMX+24R Purwa Faiyaz Ali,Meerut,,Uttar Pradesh,IN,https://www.google.com/maps/place/Masjid+Al+Hilal/data=!4m7!3m6!1s0x390c64566c00f2d9:0x36d779f4058b874e!8m2!3d28.9826134!4d77.6977543!16s%2Fg%2F11hbgh6615!19sChIJ2fIAbFZkDDkRToeLBfR51zY?authuser=0&hl=en&rclk=1,"28.982613399999998,77.6977543"
Bhood Wali Masjid,Mosque,"Bhood Wali Masjid, Mohallah Bhoot, Railway Station, near Ghaziabad, Bhur Bharat Nagar, Railway Colony, Madhopura, Ghaziabad, Uttar Pradesh 201009","Bhur Bharat Nagar, Railway Colony, Madhopura","Mohallah Bhoot, Railway Station, near Ghaziabad",Ghaziabad,,Uttar Pradesh,IN,https://www.google.com/maps/place/Bhood+Wali+Masjid/data=!4m7!3m6!1s0x390cf1bb9b3ca6bb:0xd9b96fc6994e1571!8m2!3d28.6519488!4d77.426708!16s%2Fg%2F11h2qsgt20!19sChIJu6Y8m7vxDDkRcRVOmcZvudk?authuser=0&hl=en&rclk=1,"28.6519488,77.42670799999999"
Muhammadi Masjid,Mosque,"6P6P+FXW Muhammadi Masjid, Luharpura, Nagaur, Rajasthan 341001",Luharpura,6P6P+FXW,Nagaur,341001,Rajasthan,IN,https://www.google.com/maps/place/Muhammadi+Masjid/data=!4m7!3m6!1s0x396a91659f822b07:0x81e336f72c64c7ef!8m2!3d27.2112295!4d73.7374647!16s%2Fg%2F11c5scdnn7!19sChIJByuCn2WRajkR78dkLPc244E?authuser=0&hl=en&rclk=1,"27.211229499999998,73.73746469999999"
Masjid,Mosque,"44QG+RVG Masjid, Tarnau, Rajasthan 341030",,44QG+RVG,Tarnau,341030,Rajasthan,IN,https://www.google.com/maps/place/Masjid/data=!4m7!3m6!1s0x396afc79d51f5815:0x8b2b24b0910eb188!8m2!3d27.1395593!4d74.1271963!16s%2Fg%2F11f_d7w1b5!19sChIJFVgf1Xn8ajkRiLEOkbAkK4s?authuser=0&hl=en&rclk=1,"27.1395593,74.1271963"
Jamaa masjid,Mosque,"Jamaa masjid, harsur 343415, Rajasthan State Highway 59, Harsore, Rajasthan 341515",,"harsur 343415, Rajasthan State Highway 59",Harsore,341515,Rajasthan,IN,https://www.google.com/maps/place/Jamaa+masjid/data=!4m7!3m6!1s0x396bb91fb6fb03fb:0x54e20b1f6214964a!8m2!3d26.7331035!4d74.4735849!16s%2Fg%2F11c604ngnp!19sChIJ-wP7th-5azkRSpYUYh8L4lQ?authuser=0&hl=en&rclk=1,"26.7331035,74.47358489999999"
Aamna Masjid,Mosque,"2PRR+F8H Aamna Masjid, Street Number 5, Aamna Colony, Makrana, Rajasthan 341505",Aamna Colony,"2PRR+F8H, Street Number 5",Makrana,341505,Rajasthan,IN,https://www.google.com/maps/place/Aamna+Masjid/data=!4m7!3m6!1s0x396b9d01575ea90f:0x2d83e78e16085361!8m2!3d27.0411996!4d74.7408633!16s%2Fg%2F11g9jd4z7y!19sChIJD6leVwGdazkRYVMIFo7ngy0?authuser=0&hl=en&rclk=1,"27.0411996,74.7408633"
jama masjid,Mosque,"P34W+2HR jama masjid, Basni Sumer, Rajasthan 341510",,P34W+2HR,Basni Sumer,341510,Rajasthan,IN,https://www.google.com/maps/place/jama+masjid/data=!4m7!3m6!1s0x396a4970f30e5b4f:0xfee36523b37206a4!8m2!3d26.7051021!4d74.0963847!16s%2Fg%2F11j3s8g2xy!19sChIJT1sO83BJajkRpAZysyNl4_4?authuser=0&hl=en&rclk=1,"26.705102099999998,74.0963847"
jaamaa msjid ahle hdiis,Mosque,"6P3Q+JWC jaamaa msjid ahle hdiis, Unnamed Road, Bhandariyon Ki Gali, Nagaur, Rajasthan 341001",Bhandariyon Ki Gali,"6P3Q+JWC, Unnamed Road",Nagaur,341001,Rajasthan,IN,https://www.google.com/maps/place/%E0%A4%9C%E0%A4%BE%E0%A4%AE%E0%A4%BE+%E0%A4%AE%E0%A4%B8%E0%A5%8D%E0%A4%9C%E0%A4%BF%E0%A4%A6+%E0%A4%85%E0%A4%B9%E0%A4%B2%E0%A5%87+%E0%A4%B9%E0%A4%A6%E0%A5%80%E0%A4%B8/data=!4m7!3m6!1s0x396a91dc64d1ebd7:0x58187dc45cff931!8m2!3d27.204068!4d73.739762!16s%2Fg%2F11fl98mly5!19sChIJ1-vRZNyRajkRMfnPRdyHgQU?authuser=0&hl=en&rclk=1,"27.204068,73.739762"
Masjid Thanu,Mosque,"FJ45+CVW Masjid Thanu, Girdharipura, Rajasthan 341303",,FJ45+CVW,Girdharipura,341303,Rajasthan,IN,https://www.google.com/maps/place/Masjid+Thanu/data=!4m7!3m6!1s0x396b40136966efe9:0x6611e5daab2c8faa!8m2!3d27.4561213!4d74.6096959!16s%2Fg%2F11hbnsbdj4!19sChIJ6e9maRNAazkRqo8sq9rlEWY?authuser=0&hl=en&rclk=1,"27.4561213,74.60969589999999"
masjid maidand kurd,Mosque,"R286+CP3 masjid maidand kurd, Rajasthan 341001",,R286+CP3,,341001,Rajasthan,IN,https://www.google.com/maps/place/masjid+maidand+kurd/data=!4m7!3m6!1s0x396a454b50787ef3:0x9ebd1964a86cfedc!8m2!3d26.8160128!4d74.011799!16s%2Fg%2F11c17kw__3!19sChIJ8354UEtFajkR3P5sqGQZvZ4?authuser=0&hl=en&rclk=1,"26.8160128,74.011799"
Juma Masjid,Mosque,"Juma Masjid, Bhai Parmanand Colony, Mukherjee Nagar, Delhi, 110033","Bhai Parmanand Colony, Mukherjee Nagar",,Delhi,110033,Delhi,IN,https://www.google.com/maps/place/Juma+Masjid/data=!4m7!3m6!1s0x390cff93a3e72911:0x1a03bcbf4303a170!8m2!3d28.7144375!4d77.2069375!16s%2Fg%2F11p5kql_73!19sChIJESnno5P_DDkRcKEDQ7-8Axo?authuser=0&hl=en&rclk=1,"28.7144375,77.2069375"
Bilal Masjid msjd bll,Mosque,"Bilal Masjid msjd bll, B-62, Gali Number 6, Block B, Wazirpur Industrial Area, Ashok Vihar, Delhi, 110052","Block B, Wazirpur Industrial Area, Ashok Vihar","B-62, Gali Number 6",Delhi,110052,Delhi,IN,https://www.google.com/maps/place/Bilal+Masjid+%D9%85%D8%B3%D8%AC%D8%AF+%D8%A8%D9%84%D8%A7%D9%84%E2%80%AD/data=!4m7!3m6!1s0x390d032d552f76f5:0xa61956cc4729840b!8m2!3d28.7017849!4d77.1747847!16s%2Fg%2F11fq76zcc9!19sChIJ9XYvVS0DDTkRC4QpR8xWGaY?authuser=0&hl=en&rclk=1,"28.7017849,77.1747847"
Masjid Mohammadi,Mosque,"GMMQ+V69 Masjid Mohammadi, Kayad, Rajasthan 305023",,GMMQ+V69,Kayad,305023,Rajasthan,IN,https://www.google.com/maps/place/Masjid+Mohammadi/data=!4m7!3m6!1s0x396bef52dcb59cd3:0xd4f62cd63ca317c1!8m2!3d26.5346565!4d74.6881215!16s%2Fg%2F11dxrvwpkm!19sChIJ05y13FLvazkRwRejPNYs9tQ?authuser=0&hl=en&rclk=1,"26.5346565,74.6881215"
Masjid gandhi nagar,Mosque,"Masjid gandhi nagar, 6785A, Kailash Nagar, Gyan Nagar, Seelampur, Shahdara, New Delhi, Delhi, 110031","Kailash Nagar, Gyan Nagar, Seelampur, Shahdara",6785A,"New Delhi, Delhi",110031,Delhi,IN,https://www.google.com/maps/place/Masjid+gandhi+nagar/data=!4m7!3m6!1s0x390cfd352df8a669:0x97ffa44e28ef95ba!8m2!3d28.6638173!4d77.264023!16s%2Fg%2F11pqvsjxyr!19sChIJaab4LTX9DDkRupXvKE6k_5c?authuser=0&hl=en&rclk=1,"28.663817299999998,77.264023"
Mohalla Chimpa jama Masjid,Mosque,"XXPF+526 Mohalla Chimpa jama Masjid, Kuchera, Rajasthan 341024",,XXPF+526,Kuchera,341024,Rajasthan,IN,https://www.google.com/maps/place/Mohalla+Chimpa+jama+Masjid/data=!4m7!3m6!1s0x396a5885408c4985:0x8a75338106c2941e!8m2!3d26.9854127!4d73.9725016!16s%2Fg%2F11ckqzr4x7!19sChIJhUmMQIVYajkRHpTCBoEzdYo?authuser=0&hl=en&rclk=1,"26.985412699999998,73.9725016"
Thanwala Jama masjid,Mosque,"HF49+XGF Thanwala Jama masjid, Thanwala, Thaola, Rajasthan 305026",,HF49+XGF,Thanwala,305026,Rajasthan,IN,https://www.google.com/maps/place/Thanwala+Jama+masjid/data=!4m7!3m6!1s0x396bc5b2f7513c65:0xe755ed15fa5670db!8m2!3d26.5574279!4d74.4687894!16s%2Fg%2F11rtx9v1s6!19sChIJZTxR97LFazkR23BW-hXtVec?authuser=0&hl=en&rclk=1,"26.5574279,74.46878939999999"
Mithi Mosque,Mosque,"6P4M+8VM Mithi Mosque, Teliwara, Ghosiwara, Nagaur, Rajasthan 341001","Teliwara, Ghosiwara",6P4M+8VM,Nagaur,341001,Rajasthan,IN,https://www.google.com/maps/place/Mithi+Mosque/data=!4m7!3m6!1s0x396a9170686c911d:0x2f29884795cc725!8m2!3d27.2058302!4d73.7346631!16s%2Fg%2F11g6mdsq64!19sChIJHZFsaHCRajkRJcdceYSY8gI?authuser=0&hl=en&rclk=1,"27.205830199999998,73.73466309999999"
Nakasbanda Masjid,Mosque,"6P6P+3FX Nakasbanda Masjid, Luharpura, Nagaur, Rajasthan 341001",Luharpura,6P6P+3FX,Nagaur,341001,Rajasthan,IN,https://www.google.com/maps/place/Nakasbanda+Masjid/data=!4m7!3m6!1s0x396a91657cd6cf19:0x4516736892c4ac0a!8m2!3d27.2102292!4d73.7362221!16s%2Fg%2F11c5t0m9ld!19sChIJGc_WfGWRajkRCqzEkmhzFkU?authuser=0&hl=en&rclk=1,"27.210229199999997,73.73622209999999"
Masjid Bhola Shah Sahab,Mosque,"Masjid Bhola Shah Sahab, Near, Mangrol Bypass, Sadar Bazar, Baran, Rajasthan 325205",Sadar Bazar,"Near, Mangrol Bypass",Baran,325205,Rajasthan,IN,https://www.google.com/maps/place/Masjid+Bhola+Shah+Sahab/data=!4m7!3m6!1s0x3970010fc7f5278b:0xf4a0c15e4cafc83a!8m2!3d25.103289!4d76.5127983!16s%2Fg%2F11f5bxl3nz!19sChIJiyf1xw8BcDkROsivTF7BoPQ?authuser=0&hl=en&rclk=1,"25.103289,76.5127983"
Madina Masjid Toshina,Mosque,"5GMJ+4W7 Madina Masjid Toshina, Unnamed Road, Toshina, Rajasthan 341319",,"5GMJ+4W7, Unnamed Road",Toshina,341319,Rajasthan,IN,https://www.google.com/maps/place/Madina+Masjid+Toshina/data=!4m7!3m6!1s0x396b0c4502eea87b:0xe58f312e5d24d71e!8m2!3d27.182798!4d74.5322959!16s%2Fg%2F11c2k91yb8!19sChIJe6juAkUMazkRHtckXS4xj-U?authuser=0&hl=en&rclk=1,"27.182798,74.5322959"
Noorani Masjid P A N C H W A,Mosque,"6W7J+MW5 Noorani Masjid P A N C H W A, Kuchaman - Sikar - Didwana Rd, Panchwa, Rajasthan 341508",,"6W7J+MW5, Kuchaman - Sikar - Didwana Rd",Panchwa,341508,Rajasthan,IN,https://www.google.com/maps/place/Noorani+Masjid+P+A+N+C+H+W+A/data=!4m7!3m6!1s0x396b7d4af99a8619:0xd0aaf9a71817e636!8m2!3d27.2141455!4d74.9323743!16s%2Fg%2F11f678gmpk!19sChIJGYaa-Up9azkRNuYXGKf5qtA?authuser=0&hl=en&rclk=1,"27.214145499999997,74.93237429999999"
Abrar Masjid,Mosque,"HQQC+3QP Abrar Masjid, Oontra, Rajasthan 305802",,HQQC+3QP,Oontra,,Rajasthan,IN,https://www.google.com/maps/place/Abrar+Masjid/data=!4m7!3m6!1s0x396bef70a6d0fbcf:0x78b5b5be0c9fcd27!8m2!3d26.5877119!4d74.771953!16s%2Fg%2F11gmxlz8dx!19sChIJz_vQpnDvazkRJ82fDL61tXg?authuser=0&hl=en&rclk=1,"26.5877119,74.771953"
Chhimpa Masjid,Mosque,"Chhimpa Masjid, chhimpo, Mohalla Vyapariyan, Kuchera, Rajasthan 341024","chhimpo, Mohalla Vyapariyan",,Kuchera,341024,Rajasthan,IN,https://www.google.com/maps/place/Chhimpa+Masjid/data=!4m7!3m6!1s0x396a58853dfdbecb:0xca74e47b8aba1cdf!8m2!3d26.9839157!4d73.9713221!16s%2Fg%2F11bv30mhsz!19sChIJy779PYVYajkR3xy6invkdMo?authuser=0&hl=en&rclk=1,"26.983915699999997,73.9713221"
Masjid,Mosque,"Q3JP+JRF Masjid, Main Bazar Rd, Ren, Rajasthan 341514",,"Q3JP+JRF, Main Bazar Rd",Ren,341514,Rajasthan,IN,https://www.google.com/maps/place/Masjid/data=!4m7!3m6!1s0x396a4fbb3cf36f37:0xa4786aaa85e5e7a5!8m2!3d26.781553!4d74.0870394!16s%2Fg%2F11hdj39ydl!19sChIJN2_zPLtPajkRpeflhapqeKQ?authuser=0&hl=en&rclk=1,"26.781553,74.0870394"
Shahi Jama Masjid Dayra Mehadvia,Mosque,"Shahi Jama Masjid Dayra Mehadvia, Pathano ka mohalla, Dayra Rural, Rajasthan 332709",,Pathano ka mohalla,Dayra Rural,332709,Rajasthan,IN,https://www.google.com/maps/place/Shahi+Jama+Masjid+Dayra+Mehadvia/data=!4m7!3m6!1s0x396cc3fd9e65b1e3:0x9cfd014e366b6412!8m2!3d27.6117824!4d75.5137546!16s%2Fg%2F11h_7xr3b1!19sChIJ47Flnv3DbDkREmRrNk4B_Zw?authuser=0&hl=en&rclk=1,"27.6117824,75.5137546"
Qadimi Masjid Kuchera,Mosque,"XXQC+4P2 Qadimi Masjid Kuchera, MDR37B, Kuchera, Rajasthan 341024",,"XXQC+4P2, MDR37B",Kuchera,341024,Rajasthan,IN,https://www.google.com/maps/place/Qadimi+Masjid+Kuchera/data=!4m7!3m6!1s0x396a594eafb38dfd:0xae6785e9f39cc8e9!8m2!3d26.9877661!4d73.971762!16s%2Fg%2F11h1rn_53l!19sChIJ_Y2zr05ZajkR6cic8-mFZ64?authuser=0&hl=en&rclk=1,"26.987766099999998,73.971762"
Khatiyon Ki Masjid,Mosque,"J2WH+CV4 Khatiyon Ki Masjid, Khatiyon Ka Mohalla, Merta, Rajasthan 341510",Khatiyon Ka Mohalla,J2WH+CV4,Merta,341510,Rajasthan,IN,https://www.google.com/maps/place/Khatiyon+Ki+Masjid/data=!4m7!3m6!1s0x396a478cf2d4434d:0x922d042018d154c6!8m2!3d26.6460195!4d74.0296892!16s%2Fg%2F11f9wnq57t!19sChIJTUPU8oxHajkRxlTRGCAELZI?authuser=0&hl=en&rclk=1,"26.646019499999998,74.02968919999999"
Masjid Ek Minaar,Mosque,"M22M+25J Masjid Ek Minaar, Nanha Bazar Road, Merta, Rajasthan 341510",,"M22M+25J, Nanha Bazar Road",Merta,341510,Rajasthan,IN,https://www.google.com/maps/place/Masjid+Ek+Minaar/data=!4m7!3m6!1s0x396a4914ef23e35f:0xe82c000e70084d16!8m2!3d26.6500765!4d74.0328867!16s%2Fg%2F11gk8v1gcl!19sChIJX-Mj7xRJajkRFk0IcA4ALOg?authuser=0&hl=en&rclk=1,"26.650076499999997,74.03288669999999"
Sunni Do Masjid,Mosque,"2PQF+JWM Sunni Do Masjid, Do Masjid Station Rd, Sadar Bazar, Makrana, Rajasthan 341505",Sadar Bazar,"2PQF+JWM, Do Masjid Station Rd",Makrana,341505,Rajasthan,IN,https://www.google.com/maps/place/Sunni+Do+Masjid/data=!4m7!3m6!1s0x396b9dadb520dc8d:0xdb2fd7bd3e4ddc2f!8m2!3d27.0390763!4d74.7248096!16s%2Fg%2F11hb36d_hp!19sChIJjdwgta2dazkRL9xNPr3XL9s?authuser=0&hl=en&rclk=1,"27.039076299999998,74.7248096"
Masjid Sunni,Mosque,"PFMF+6CX Masjid Sunni, Harsore, Rajasthan 341515",,PFMF+6CX,Harsore,341515,Rajasthan,IN,https://www.google.com/maps/place/Masjid+Sunni/data=!4m7!3m6!1s0x396bb91fb6e34d15:0x4211fae13fe08efa!8m2!3d26.733101!4d74.473608!16s%2Fg%2F11ddx64vbq!19sChIJFU3jth-5azkR-o7gP-H6EUI?authuser=0&hl=en&rclk=1,"26.733100999999998,74.473608"
Mosque,Mosque,"Mosque, Near peeh Nagaur Rajasthan Ajam533, Rajasthan 341515",,Near peeh Nagaur Rajasthan Ajam533,,341515,Rajasthan,IN,https://www.google.com/maps/place/Mosque/data=!4m7!3m6!1s0x396bc1f54fdfb2b3:0xa99426b5f5ca5346!8m2!3d26.6474656!4d74.5223404!16s%2Fg%2F11p02qj3s5!19sChIJs7LfT_XBazkRRlPK9bUmlKk?authuser=0&hl=en&rclk=1,"26.6474656,74.52234039999999"
zama masjid,Mosque,"75RR+R3J zama masjid, Danta, Rajasthan 332702",,75RR+R3J,Danta,332702,Rajasthan,IN,https://www.google.com/maps/place/zama+masjid/data=!4m7!3m6!1s0x396c8fb7fc853ebd:0x395bbf8db0d20c9c!8m2!3d27.2920812!4d75.1901457!16s%2Fg%2F11c5_w9d11!19sChIJvT6F_LePbDkRnAzSsI2_Wzk?authuser=0&hl=en&rclk=1,"27.2920812,75.1901457"
mdiinaa msjid,Mosque,"XXHC+484 mdiinaa msjid, Madina masjid bhatipura kuchera distic, Kuchera, Rajasthan",,"XXHC+484, Madina masjid bhatipura kuchera distic",Kuchera,,Rajasthan,IN,https://www.google.com/maps/place/%E0%A4%AE%E0%A4%A6%E0%A5%80%E0%A4%A8%E0%A4%BE+%E0%A4%AE%E0%A4%B8%E0%A5%8D%E0%A4%9C%E0%A4%BF%E0%A4%A6/data=!4m7!3m6!1s0x396a59f6175732d7:0x684e2cd9d4a8c3b!8m2!3d26.9777686!4d73.9708308!16s%2Fg%2F11nyq0hmx8!19sChIJ1zJXF_ZZajkRO4xKnc3ihAY?authuser=0&hl=en&rclk=1,"26.977768599999997,73.9708308"
jaamaa msjid thaaNvlaa naagaur raajsthaan,Mosque,"HF59+2H3 jaamaa msjid thaaNvlaa naagaur raajsthaan, Thanwala, Thaola, Rajasthan 305026",,HF59+2H3,Thanwala,305026,Rajasthan,IN,https://www.google.com/maps/place/%E0%A4%9C%E0%A4%BE%E0%A4%AE%E0%A4%BE+%E0%A4%AE%E0%A4%B8%E0%A5%8D%E0%A4%9C%E0%A4%BF%E0%A4%A6+%E0%A4%A5%E0%A4%BE%E0%A4%82%E0%A4%B5%E0%A4%B2%E0%A4%BE+%E0%A4%A8%E0%A4%BE%E0%A4%97%E0%A5%8C%E0%A4%B0+%E0%A4%B0%E0%A4%BE%E0%A4%9C%E0%A4%B8%E0%A5%8D%E0%A4%A5%E0%A4%BE%E0%A4%A8/data=!4m7!3m6!1s0x396bc50fe6a22905:0x9705f93e3ebd16ff!8m2!3d26.5575213!4d74.4689196!16s%2Fg%2F11sx039n_3!19sChIJBSmi5g_FazkR_xa9Pj75BZc?authuser=0&hl=en&rclk=1,"26.557521299999998,74.46891959999999"
Madarsa,Mosque,"FJ5P+6C Madarsa, Thanu, Rajasthan 341303",,FJ5P+6C,Thanu,,Rajasthan,IN,https://www.google.com/maps/place/Madarsa/data=!4m7!3m6!1s0x396b417a78ce436f:0xd53d6d29f5791374!8m2!3d27.4580735!4d74.6359973!16s%2Fg%2F11vhfbfpt3!19sChIJb0POeHpBazkRdBN59SltPdU?authuser=0&hl=en&rclk=1,"27.458073499999998,74.6359973"
msjid e mriym islaam puraa,Mosque,"msjid e mriym islaam puraa, islampura ki dhani, Babayacha, Rajasthan 305811",,islampura ki dhani,Babayacha,305811,Rajasthan,IN,https://www.google.com/maps/place/%E0%A4%AE%E0%A4%B8%E0%A5%8D%E0%A4%9C%E0%A4%BF%E0%A4%A6+%E0%A4%8F+%E0%A4%AE%E0%A4%B0%E0%A4%BF%E0%A4%AF%E0%A4%AE+%E0%A4%87%E0%A4%B8%E0%A5%8D%E0%A4%B2%E0%A4%BE%E0%A4%AE+%E0%A4%AA%E0%A5%81%E0%A4%B0%E0%A4%BE/data=!4m7!3m6!1s0x396bed1666e9a565:0x41402fd95453854e!8m2!3d26.6940625!4d74.7475625!16s%2Fg%2F11p4ngnj5w!19sChIJZaXpZhbtazkRToVTVNkvQEE?authuser=0&hl=en&rclk=1,"26.694062499999998,74.7475625"
Than Behali Jame Masjid,Mosque,"R963+38V Than Behali Jame Masjid, Police Station Road Behali, Than Behali, Assam 784166",,"R963+38V, Police Station Road Behali","Than Behali, Kamar Pukhuri",784166,Assam,IN,https://www.google.com/maps/place/Than+Behali+Jame+Masjid/data=!4m7!3m6!1s0x37446b4cf4dd3671:0x7748206955c0da2d!8m2!3d26.8102443!4d93.3533109!16s%2Fg%2F11q7n255r_!19sChIJcTbd9ExrRDcRLdrAVWkgSHc?authuser=0&hl=en&rclk=1,"26.810244299999997,93.3533109"
