name,main_category,address,address_ward,address_street,address_city,address_postal_code,address_state,address_country_code,link,coordinates
Masjid E Jamaat Ul Muslimeen..Janpeeril,Mosque,"XJ7H+QPG Masjid E Jamaat Ul Muslimeen..Janpeeril, Adarsh Nagar, Puppalagutta, Warangal, Telangana 506330","Adarsh Nagar, Puppalagutta",XJ7H+QPG,Warangal,506330,Telangana,IN,https://www.google.com/maps/place/Masjid+E+Jamaat+Ul+Muslimeen..Janpeeril/data=!4m7!3m6!1s0x3a334507267bda7d:0xbf9502853ca28657!8m2!3d17.9644465!4d79.629317!16s%2Fg%2F11srb4sb55!19sChIJfdp7JgdFMzoRV4aiPIUClb8?authuser=0&hl=en&rclk=1,"17.964446499999998,79.629317"
Masjid E Kalan Aiwan E Shahi,Mosque,"XGVR+MQ8 Masjid E Kalan Aiwan E Shahi, Hyderabad - Warangal Hwy, Subedari, Hanamkonda, Telangana 506001",Subedari,"XGVR+MQ8, Hyderabad - Warangal Hwy",Hanamkonda,506001,Telangana,IN,https://www.google.com/maps/place/Masjid+E+Kalan+Aiwan+E+Shahi/data=!4m7!3m6!1s0x3a334f993f680611:0xc61e425c1c8b2974!8m2!3d17.9941667!4d79.5419444!16s%2Fg%2F1vfn51q5!19sChIJEQZoP5lPMzoRdCmLHFxCHsY?authuser=0&hl=en&rclk=1,"17.9941667,79.54194439999999"
Masjid-e-Zikra ( Mehrunnisa ),Mosque,"Masjid-e-Zikra ( Mehrunnisa ), 11-23-1088, LB Nagar Rd, LB Nagar, Warangal, Telangana 506002",LB Nagar,"11-23-1088, LB Nagar Rd",Warangal,506002,Telangana,IN,https://www.google.com/maps/place/Masjid-e-Zikra+%28+Mehrunnisa+%29/data=!4m7!3m6!1s0x3a3344e1f9f9ed25:0xdd1e69022f496e79!8m2!3d17.9867755!4d79.6060009!16s%2Fg%2F1hhvlq1nc!19sChIJJe35-eFEMzoReW5JLwJpHt0?authuser=0&hl=en&rclk=1,"17.9867755,79.6060009"
Jama Masjid Madrasi,Mosque,"Jama Masjid Madrasi, 32, Jayaprakash Narayan Road, Girmajipet, Warangal, Telangana 506002",Girmajipet,"32, Jayaprakash Narayan Road",Warangal,506002,Telangana,IN,https://www.google.com/maps/place/Jama+Masjid+Madrasi/data=!4m7!3m6!1s0x3a33451ea6dacd1d:0xd667333f4bcccc50!8m2!3d17.9865878!4d79.6006733!16s%2Fg%2F1ptyk6skf!19sChIJHc3aph5FMzoRUMzMSz8zZ9Y?authuser=0&hl=en&rclk=1,"17.9865878,79.6006733"
Janpak Shaheed Masjid & Dargah,Mosque,"Janpak Shaheed Masjid & Dargah, janpak, Gorrekunta Village, Warangal, Telangana 506002",Gorrekunta Village,janpak,Warangal,506002,Telangana,IN,https://www.google.com/maps/place/Janpak+Shaheed+Masjid+%26+Dargah/data=!4m7!3m6!1s0x3a3344b68677135f:0xfbe1ff6f7403fcd!8m2!3d17.9658148!4d79.6303777!16s%2Fg%2F11cs3y7rsz!19sChIJXxN3hrZEMzoRzT9A9_Yfvg8?authuser=0&hl=en&rclk=1,"17.9658148,79.6303777"
Jama Masjid Ahle Hadees,Mosque,"Shop Number- 14-6, Jama Masjid Ahle Hadees, 111, Narsampet Rd, Pochamma Maidan, Girmajipet, Warangal, Telangana 506002","Pochamma Maidan, Girmajipet","Shop Number- 14-6, 111, Narsampet Rd",Warangal,506002,Telangana,IN,https://www.google.com/maps/place/Jama+Masjid+Ahle+Hadees/data=!4m7!3m6!1s0x3a33451e83f8a399:0xef133eaa2a2654fa!8m2!3d17.9865291!4d79.6021026!16s%2Fg%2F1ptwt26gg!19sChIJmaP4gx5FMzoR-lQmKqo-E-8?authuser=0&hl=en&rclk=1,"17.9865291,79.6021026"
Zam Zam Masjid,Mosque,"XJM2+6FC Zam Zam Masjid, Charbowli, Girmajipet, Warangal, Telangana 506002","Charbowli, Girmajipet",XJM2+6FC,Warangal,506002,Telangana,IN,https://www.google.com/maps/place/Zam+Zam+Masjid/data=!4m7!3m6!1s0x3a33451f17eeaa07:0xd5e4a20d1fdf1db9!8m2!3d17.9830739!4d79.6011467!16s%2Fg%2F1pp2tw7kn!19sChIJB6ruFx9FMzoRuR3fHw2i5NU?authuser=0&hl=en&rclk=1,"17.9830739,79.6011467"
Afzaliya Jama Masjid,Mosque,"XJQ6+7PC Afzaliya Jama Masjid, Kashibugga Road, Shanthi Nagar, Kashibugga, Shanthi Nagar, Warangal, Telangana 506002","Shanthi Nagar, Kashibugga, Shanthi Nagar","XJQ6+7PC, Kashibugga Road",Warangal,506002,Telangana,IN,https://www.google.com/maps/place/Afzaliya+Jama+Masjid/data=!4m7!3m6!1s0x3a3344e41098c8d3:0x847e4e7e12d45347!8m2!3d17.9881906!4d79.6117755!16s%2Fg%2F11bw1zqkbj!19sChIJ08iYEOREMzoRR1PUEn5OfoQ?authuser=0&hl=en&rclk=1,"17.9881906,79.6117755"
Sayeedia Masjid,Mosque,"Sayeedia Masjid, Krishna Nagar, LB Nagar, Warangal, Telangana 506002","Krishna Nagar, LB Nagar",,Warangal,506002,Telangana,IN,https://www.google.com/maps/place/Sayeedia+Masjid/data=!4m7!3m6!1s0x3a33451dae8222ff:0xe4e5a1188692107e!8m2!3d17.9893354!4d79.6028372!16s%2Fg%2F11cl_5f8_6!19sChIJ_yKCrh1FMzoRfhCShhih5eQ?authuser=0&hl=en&rclk=1,"17.989335399999998,79.6028372"
Masjid-e-Badar,Mosque,"2H5H+538 Masjid-e-Badar, New Raipura, Raipura, Hanamkonda, Telangana 506011","New Raipura, Raipura",2H5H+538,Hanamkonda,506011,Telangana,IN,https://www.google.com/maps/place/Masjid-e-Badar/data=!4m7!3m6!1s0x3a33459ea46f8e79:0xe9b1025d3de23cac!8m2!3d18.0079082!4d79.5776888!16s%2Fg%2F12hy_jhlf!19sChIJeY5vpJ5FMzoRrDziPV0Csek?authuser=0&hl=en&rclk=1,"18.0079082,79.57768879999999"
Ziya Masjid / S A A. Aviary,Mosque,"XJR5+G79 Ziya Masjid / S A A. Aviary, Doctor Colony Road, Doctors Colony, Warangal, Telangana 506002",Doctors Colony,"XJR5+G79, Doctor Colony Road",Warangal,506002,Telangana,IN,https://www.google.com/maps/place/Ziya+Masjid+%2F+S+A+A.+Aviary/data=!4m7!3m6!1s0x3a3344e31e147529:0xafe3b4db68f1d124!8m2!3d17.9912999!4d79.6082452!16s%2Fg%2F11hdb1nr7_!19sChIJKXUUHuNEMzoRJNHxaNu0468?authuser=0&hl=en&rclk=1,"17.991299899999998,79.6082452"
Masjid-E-Momineen,Mosque,"Masjid-E-Momineen, H.No. 11-23-584, Momin Pura, LB Nagar, Warangal, Telangana 506002","Momin Pura, LB Nagar",H.No. 11-23-584,Warangal,506002,Telangana,IN,https://www.google.com/maps/place/Masjid-E-Momineen/data=!4m7!3m6!1s0x3a3344e1d23ec845:0xa1f11edbe02633a9!8m2!3d17.9844611!4d79.6058831!16s%2Fg%2F1ptxglcyp!19sChIJRcg-0uFEMzoRqTMm4Nse8aE?authuser=0&hl=en&rclk=1,"17.9844611,79.6058831"
Masjid - e - Quba,Mosque,"Masjid - e - Quba, 11-28-340/E, 11-30-245, 80 Feet Rd, Auto Nagar, Kothawada, Warangal, Telangana 506002","Auto Nagar, Kothawada","11-28-340/E, 11-30-245, 80 Feet Rd",Warangal,506002,Telangana,IN,https://www.google.com/maps/place/Masjid+-+e+-+Quba/data=!4m7!3m6!1s0x3a334505d9b0527f:0x22fc8d6ea5203a34!8m2!3d17.9981084!4d79.5961146!16s%2Fg%2F11c50qf81g!19sChIJf1Kw2QVFMzoRNDogpW6N_CI?authuser=0&hl=en&rclk=1,"17.9981084,79.59611459999999"
Masjid-E-Qhadriya,Mosque,"Masjid-E-Qhadriya, H.No. 11-23-907, Near Swarna Palace, Pochamma Maidan, Islampura, LB Nagar, Warangal, Telangana 506002","Pochamma Maidan, Islampura, LB Nagar","H.No. 11-23-907, Near Swarna Palace",Warangal,506002,Telangana,IN,https://www.google.com/maps/place/Masjid-E-Qhadriya/data=!4m7!3m6!1s0x3a33451e0c3d1075:0xb6ec8d6e536539f8!8m2!3d17.9865393!4d79.6041836!16s%2Fg%2F1pv5y2kkz!19sChIJdRA9DB5FMzoR-DllU26N7LY?authuser=0&hl=en&rclk=1,"17.9865393,79.6041836"
Kauser Masjid,Mosque,"Kauser Masjid, 9-6-49, Jayaprakash Narayan Road, Mandi Bazar, Sherpura, Warangal, Telangana 506002","Mandi Bazar, Sherpura","9-6-49, Jayaprakash Narayan Road",Warangal,506002,Telangana,IN,https://www.google.com/maps/place/Kauser+Masjid/data=!4m7!3m6!1s0x3a334519499e976f:0x79eb925c450fb831!8m2!3d17.9851535!4d79.5991471!16s%2Fg%2F1ptwppkvt!19sChIJb5eeSRlFMzoRMbgPRVyS63k?authuser=0&hl=en&rclk=1,"17.9851535,79.5991471"
Kareemiya Masjid,Mosque,"XJM3+7MW Kareemiya Masjid, Narsampet Rd, Girmajipet, Warangal, Telangana 506002",Girmajipet,"XJM3+7MW, Narsampet Rd",Warangal,506002,Telangana,IN,https://www.google.com/maps/place/Kareemiya+Masjid/data=!4m7!3m6!1s0x3a33451fc6728ec9:0xc5644c659839d847!8m2!3d17.9832462!4d79.6041951!16s%2Fg%2F11_r5x5nh!19sChIJyY5yxh9FMzoRR9g5mGVMZMU?authuser=0&hl=en&rclk=1,"17.9832462,79.6041951"
Madina Masjid,Mosque,"2H3J+63H Madina Masjid, Raganna Darwaja, Kakatiya Colony, Hanamkonda, Telangana 506011","Raganna Darwaja, Kakatiya Colony",2H3J+63H,Hanamkonda,506011,Telangana,IN,https://www.google.com/maps/place/Madina+Masjid/data=!4m7!3m6!1s0x3a3345757ef0c5f3:0x4275c7998692257e!8m2!3d18.0030632!4d79.5802365!16s%2Fg%2F12vr_9r_m!19sChIJ88XwfnVFMzoRfiWShpnHdUI?authuser=0&hl=en&rclk=1,"18.0030632,79.5802365"
Masjid-E-Osmaniya,Mosque,"XHGW+WH8 Masjid-E-Osmaniya, Rabindranath Tagore Rd, Beside Intezar Gunj Police Station, Old Chowrasia, Old Beet Bazaar, Warangal, Telangana 506002","Old Chowrasia, Old Beet Bazaar","XHGW+WH8, Rabindranath Tagore Rd, Beside Intezar Gunj Police Station",Warangal,506002,Telangana,IN,https://www.google.com/maps/place/Masjid-E-Osmaniya/data=!4m7!3m6!1s0x3a33452304342289:0xfc47d2c72d35a0e!8m2!3d17.9772804!4d79.5964404!16s%2Fg%2F1ptykcnwg!19sChIJiSI0BCNFMzoRDlrTcix9xA8?authuser=0&hl=en&rclk=1,"17.977280399999998,79.59644039999999"
MASJID-E-CHOWK,Mosque,"2H3C+X6J MASJID-E-CHOWK, Vijaya Theater Road, Chowrastha, Gandhi Nagar, Kakaji Nagar Colony, Hanamkonda, Telangana 506001","Chowrastha, Gandhi Nagar, Kakaji Nagar Colony","2H3C+X6J, Vijaya Theater Road",Hanamkonda,506001,Telangana,IN,https://www.google.com/maps/place/MASJID-E-CHOWK/data=!4m7!3m6!1s0x3a334582dc9fbf05:0xee94bba83edf1ee!8m2!3d18.0049531!4d79.5705068!16s%2Fg%2F119wmwlls!19sChIJBb-f3IJFMzoR7vHtg7pL6Q4?authuser=0&hl=en&rclk=1,"18.004953099999998,79.57050679999999"
Jamia Ajmeri Masjid,Mosque,"Jamia Ajmeri Masjid, Mathwada, Warangal, Telangana 506002",Mathwada,,Warangal,,Telangana,IN,https://www.google.com/maps/place/Jamia+Ajmeri+Masjid/data=!4m7!3m6!1s0x3a335b32fee5f5cd:0xb3bb474efd52fc18!8m2!3d17.9558383!4d79.6190933!16s%2Fg%2F1hc1t7wr5!19sChIJzfXl_jJbMzoRGPxS_U5Hu7M?authuser=0&hl=en&rclk=1,"17.9558383,79.6190933"
Nomania Masjid,Mosque,"2H4F+3MC Nomania Masjid, Warangal-Hyderabad Road, New Raipura, Hanamkonda, Telangana 506001","Raganna Darwaja, New Raipura, Raipura","2H4F+3MC, Warangal-Hyderabad Road",Hanamkonda,506001,Telangana,IN,https://www.google.com/maps/place/Nomania+Masjid/data=!4m7!3m6!1s0x3a33459d07e26a33:0x3ab0e18923f542f6!8m2!3d18.0051786!4d79.5741534!16s%2Fg%2F1pp2ty4fm!19sChIJM2riB51FMzoR9kL1I4nhsDo?authuser=0&hl=en&rclk=1,"18.0051786,79.5741534"
Masjid-E-Qadeeriya,Mosque,"WHXX+XJW Masjid-E-Qadeeriya, Khammam - Warangal Hwy, Shambunipet, Warangal, Telangana 506005",Shambunipet,"WHXX+XJW, Khammam - Warangal Hwy",Warangal,506005,Telangana,IN,https://www.google.com/maps/place/Masjid-E-Qadeeriya/data=!4m7!3m6!1s0x3a335ad136edaa4f:0x725f1dd7f65bafa!8m2!3d17.949991!4d79.5990792!16s%2Fg%2F1pp2tw4_q!19sChIJT6rtNtFaMzoR-rplf93xJQc?authuser=0&hl=en&rclk=1,"17.949991,79.59907919999999"
Masjid-E-AL-Nasar,Mosque,"WHHQ+C5W Masjid-E-AL-Nasar, PensionPura, Laxmipuram, Warangal, Telangana 506005","PensionPura, Laxmipuram",WHHQ+C5W,Warangal,506005,Telangana,IN,https://www.google.com/maps/place/Masjid-E-AL-Nasar/data=!4m7!3m6!1s0x3a335aebe43c7fdf:0x7dabc69db14d1c12!8m2!3d17.928608!4d79.5879514!16s%2Fg%2F1pp2tw6yd!19sChIJ33885OtaMzoREhxNsZ3Gq30?authuser=0&hl=en&rclk=1,"17.928608,79.5879514"
Masjid - Keerthi Nagar Colony,Mosque,"XJGJ+CP6 Masjid - Keerthi Nagar Colony, Keerthi Nagar Colony, Gorrekunta Village, Warangal, Telangana 506002","Keerthi Nagar Colony, Gorrekunta Village",XJGJ+CP6,Warangal,506002,Telangana,IN,https://www.google.com/maps/place/Masjid+-+Keerthi+Nagar+Colony/data=!4m7!3m6!1s0x3a3344b939d62d29:0x44ef4bc2747728f8!8m2!3d17.9760482!4d79.6317554!16s%2Fg%2F1q5bmnhmx!19sChIJKS3WOblEMzoR-Ch3dMJL70Q?authuser=0&hl=en&rclk=1,"17.976048199999997,79.6317554"
Masjid -E- Hazrath Haji Sahab,Mosque,"Masjid -E- Hazrath Haji Sahab, H.No. 12-3-42, Papayyapet Chaman, Sherpura, Warangal, Telangana 506002",Sherpura,"H.No. 12-3-42, Papayyapet Chaman",Warangal,506002,Telangana,IN,https://www.google.com/maps/place/Masjid+-E-+Hazrath+Haji+Sahab/data=!4m7!3m6!1s0x3a3345184e74d5fb:0xafce9b4c5634bdda!8m2!3d17.983264!4d79.5960719!16s%2Fg%2F1ptw0r__r!19sChIJ-9V0ThhFMzoR2r00Vkybzq8?authuser=0&hl=en&rclk=1,"17.983264,79.5960719"
Masjid e Mohammadia,Mosque,"XHWR+732 Masjid e Mohammadia, Khammam - Warangal Hwy, Rangampet, Warangal, Telangana 506007",Rangampet,"XHWR+732, Khammam - Warangal Hwy",Warangal,506007,Telangana,IN,https://www.google.com/maps/place/Masjid+e+Mohammadia/data=!4m7!3m6!1s0x3a33450eed6e970d:0xceae4f3414546f9!8m2!3d17.9956447!4d79.5901292!16s%2Fg%2F1tgcq8yd!19sChIJDZdu7Q5FMzoR-UZFQfPk6gw?authuser=0&hl=en&rclk=1,"17.9956447,79.59012919999999"
Madeena Mosque,Mosque,"XHQV+4GX Madeena Mosque, MG Rd, Mattewada, Phatak Mohalla, Sherpura, Warangal, Telangana 506002","Mattewada, Phatak Mohalla, Sherpura","XHQV+4GX, MG Rd",Warangal,506002,Telangana,IN,https://www.google.com/maps/place/Madeena+Mosque/data=!4m7!3m6!1s0x3a334510a1cd9955:0x92ca75dee7d5104c!8m2!3d17.9878621!4d79.5938665!16s%2Fg%2F1pv6085cw!19sChIJVZnNoRBFMzoRTBDV5951ypI?authuser=0&hl=en&rclk=1,"17.987862099999997,79.59386649999999"
Osman Masjid,Mosque,"Osman Masjid, Tilak Road, LB Nagar, Warangal, Telangana 506002",LB Nagar,Tilak Road,Warangal,506002,Telangana,IN,https://www.google.com/maps/place/Osman+Masjid/data=!4m7!3m6!1s0x3a3344e17ee02297:0x49d584be75ed3f59!8m2!3d17.9868742!4d79.6084733!16s%2Fg%2F1ptw79p03!19sChIJlyLgfuFEMzoRWT_tdb6E1Uk?authuser=0&hl=en&rclk=1,"17.9868742,79.6084733"
Jama Masjid Khasimdula,Mosque,"XHMW+R4H Jama Masjid Khasimdula, Sherpura, Warangal, Telangana 506002",Sherpura,XHMW+R4H,Warangal,506002,Telangana,IN,https://www.google.com/maps/place/Jama+Masjid+Khasimdula/data=!4m7!3m6!1s0x3a334519c8fff41f:0x5e7c18136a79b3ba!8m2!3d17.9845632!4d79.5953732!16s%2Fg%2F1tdrvr7q!19sChIJH_T_yBlFMzoRurN5ahMYfF4?authuser=0&hl=en&rclk=1,"17.9845632,79.5953732"
Masjid-E-Sughra,Mosque,"WHFJ+M47 Masjid-E-Sughra, Pensionpur,, Allipur, Telangana",,"WHFJ+M47, Pensionpur,","Allipur, Warangal",,Telangana,IN,https://www.google.com/maps/place/Masjid-E-Sughra/data=!4m7!3m6!1s0x3a335a92fe6d051d:0x985d6d109134687e!8m2!3d17.9241696!4d79.5803083!16s%2Fg%2F11clyyds7n!19sChIJHQVt_pJaMzoRfmg0kRBtXZg?authuser=0&hl=en&rclk=1,"17.9241696,79.5803083"
Masjid e Quwwatul Islam,Mosque,"XJC4+F4Q Masjid e Quwwatul Islam, Unnamed Road, Shiva Nagar, Warangal, Telangana 506002",Shiva Nagar,"XJC4+F4Q, Unnamed Road",Warangal,506002,Telangana,IN,https://www.google.com/maps/place/Masjid+e+Quwwatul+Islam/data=!4m7!3m6!1s0x3a3344d875e49af3:0x30138ab097e4aaba!8m2!3d17.9712233!4d79.605349!16s%2Fg%2F11hctgq7gk!19sChIJ85rkddhEMzoRuqrkl7CKEzA?authuser=0&hl=en&rclk=1,"17.9712233,79.60534899999999"
Masjid-Al-Wahed,Mosque,"2J23+Q57 Masjid-Al-Wahed, Doctor Colony Road, Powers Colony, Warangal, Telangana 506006",Powers Colony,"2J23+Q57, Doctor Colony Road",Warangal,506006,Telangana,IN,https://www.google.com/maps/place/Masjid-Al-Wahed/data=!4m7!3m6!1s0x3a33450053da5761:0xed17f542da21a563!8m2!3d18.0019169!4d79.6029304!16s%2Fg%2F11cls5z9q0!19sChIJYVfaUwBFMzoRY6Uh2kL1F-0?authuser=0&hl=en&rclk=1,"18.001916899999998,79.60293039999999"
Masjid e Abubakar (sra),Mosque,"XJ99+9Q3 Masjid e Abubakar (sra), Ghareeb Nawaz St, Puppalagutta, Warangal, Telangana 506002",Puppalagutta,"XJ99+9Q3, Ghareeb Nawaz St",Warangal,506002,Telangana,IN,https://www.google.com/maps/place/Masjid+e+Abubakar+%28sra%29/data=!4m7!3m6!1s0x3a3344cf098d9aef:0xf95beba36c6f041!8m2!3d17.9683952!4d79.61943!16s%2Fg%2F11b8_lhl8s!19sChIJ75qNCc9EMzoRQfDGNrq-lQ8?authuser=0&hl=en&rclk=1,"17.9683952,79.61943"
Masjid-e-Fatima,Mosque,"Masjid-e-Fatima, H.No. 23-6-175/2, Rahmat Nagar, Hunter Rd, Shyampet, Hanamkonda, Telangana 506001","Rahmat Nagar, Shyampet","H.No. 23-6-175/2, Rahmat Nagar, Hunter Rd",Hanamkonda,506001,Telangana,IN,https://www.google.com/maps/place/Masjid-e-Fatima/data=!4m7!3m6!1s0x3a33456c18c0e591:0x492eeb66080a7c14!8m2!3d17.9869307!4d79.5776345!16s%2Fg%2F1pzwnl42c!19sChIJkeXAGGxFMzoRFHwKCGbrLkk?authuser=0&hl=en&rclk=1,"17.9869307,79.5776345"
Masjid-E-Aalamgeer,Mosque,"XHW9+9QQ Masjid-E-Aalamgeer, Padmakshi Gutta Road, Meerpet, Hanamkonda, Telangana 506001",Meerpet,"XHW9+9QQ, Padmakshi Gutta Road",Hanamkonda,506001,Telangana,IN,https://www.google.com/maps/place/Masjid-E-Aalamgeer/data=!4m7!3m6!1s0x3a33457a3a9d55d3:0x3b859c8140a9e56c!8m2!3d17.9959697!4d79.5694758!16s%2Fg%2F11b5qh5h58!19sChIJ01WdOnpFMzoRbOWpQIGchTs?authuser=0&hl=en&rclk=1,"17.9959697,79.56947579999999"
Maulali Masjid,Mosque,"Maulali Masjid, 168,, 12-3-168, Yellamma Bazar Rd, Ramannapet, Warangal, Telangana 506002",Ramannapet,"168,, 12-3-168, Yellamma Bazar Rd",Warangal,506002,Telangana,IN,https://www.google.com/maps/place/Maulali+Masjid/data=!4m7!3m6!1s0x3a334519a140b80d:0x41d529a0d5455d67!8m2!3d17.9848387!4d79.5965943!16s%2Fg%2F11ckvpkzbb!19sChIJDbhAoRlFMzoRZ11F1aAp1UE?authuser=0&hl=en&rclk=1,"17.9848387,79.59659429999999"
Dargah and Masjid Hazrat Zinda Bikan Darwesh Rahmathulla Alay,Mosque,"XH3Q+C2C Dargah and Masjid Hazrat Zinda Bikan Darwesh Rahmathulla Alay, Urus Bodrai, Warangal, Telangana 506002",Urus Bodrai,XH3Q+C2C,Warangal,506002,Telangana,IN,https://www.google.com/maps/place/Dargah+and+Masjid+Hazrat+Zinda+Bikan+Darwesh+Rahmathulla+Alay/data=!4m7!3m6!1s0x3a335acb9c794ddb:0xb0fbf945bbe0d64a!8m2!3d17.9535729!4d79.5875191!16s%2Fg%2F124yc70sy!19sChIJ2015nMtaMzoRStbgu0X5-7A?authuser=0&hl=en&rclk=1,"17.953572899999998,79.5875191"
Masjid E Moizkauser..Janpeeril,Mosque,"XJ4P+384 Masjid E Moizkauser..Janpeeril, Unnamed Road, Telangana 506330",,"XJ4P+384, Unnamed Road",Warangal,506330,Telangana,IN,https://www.google.com/maps/place/Masjid+E+Moizkauser..Janpeeril/data=!4m7!3m6!1s0x3a335b4c49f56e93:0x1013f9ae25ac6d22!8m2!3d17.955135!4d79.63582!16s%2Fg%2F11g7z6nl_1!19sChIJk271SUxbMzoRIm2sJa75ExA?authuser=0&hl=en&rclk=1,"17.955135,79.63582"
Masjid Heresha,Mosque,"2H29+W4Q Masjid Heresha, New Bus Stand Rd, Laxmipuram, Kakaji Nagar Colony, Hanamkonda, Telangana 506001","Laxmipuram, Kakaji Nagar Colony","2H29+W4Q, New Bus Stand Rd",Hanamkonda,506001,Telangana,IN,https://www.google.com/maps/place/Masjid+Heresha/data=!4m7!3m6!1s0x3a3345789c4796b5:0x8f7531d83d2b89b6!8m2!3d18.0023298!4d79.5678548!16s%2Fg%2F1td167yz!19sChIJtZZHnHhFMzoRtokrPdgxdY8?authuser=0&hl=en&rclk=1,"18.0023298,79.56785479999999"
Hidayath Ali Shah Mosque,Mosque,"XHMW+WJ9 Hidayath Ali Shah Mosque, Moula - Ali Street, Yellamma Bazar, Sherpura, Warangal, Telangana 506002","Yellamma Bazar, Sherpura","XHMW+WJ9, Moula - Ali Street",Warangal,506002,Telangana,IN,https://www.google.com/maps/place/Hidayath+Ali+Shah+Mosque/data=!4m7!3m6!1s0x3a334519a4063785:0x148627914c5d41bc!8m2!3d17.9847876!4d79.5966011!16s%2Fg%2F1hc16ngzb!19sChIJhTcGpBlFMzoRvEFdTJEnhhQ?authuser=0&hl=en&rclk=1,"17.9847876,79.5966011"
Jame Masjid (Mohammed Ali),Mosque,"Jame Masjid (Mohammed Ali), 51, New Bus Stand Rd, Machili Bazar, Brahmanawada, Hanamkonda, Telangana 506011","Machili Bazar, Brahmanawada","51, New Bus Stand Rd",Hanamkonda,506011,Telangana,IN,https://www.google.com/maps/place/Jame+Masjid+%28Mohammed+Ali%29/data=!4m7!3m6!1s0x3a3345764ed7dfc9:0xa64d1b035533bc8!8m2!3d18.0011156!4d79.5749177!16s%2Fg%2F1ptyn_b4w!19sChIJyd_XTnZFMzoRyDtTNbDRZAo?authuser=0&hl=en&rclk=1,"18.0011156,79.5749177"
Masjid-e-Mohammadia,Mosque,"WH5V+2R8 Masjid-e-Mohammadia, Mamnoor, Warangal, Telangana 506166",Mamnoor,WH5V+2R8,Warangal,506166,Telangana,IN,https://www.google.com/maps/place/Masjid-e-Mohammadia/data=!4m7!3m6!1s0x3a335a57827d3577:0xd3f5c048b09a4e7a!8m2!3d17.9075283!4d79.5945753!16s%2Fg%2F11c2j1vwh8!19sChIJdzV9gldaMzoRek6asEjA9dM?authuser=0&hl=en&rclk=1,"17.9075283,79.5945753"
Jama Masjid,Mosque,"WHWV+2Q4 Jama Masjid, Adarsha Colony, Rangashaipet, Warangal, Telangana 506005","Adarsha Colony, Rangashaipet",WHWV+2Q4,Warangal,506005,Telangana,IN,https://www.google.com/maps/place/Jama+Masjid/data=!4m7!3m6!1s0x3a335adaae8fe25d:0xf2ea42f3b802ca01!8m2!3d17.9450095!4d79.5944529!16s%2Fg%2F1ptwn5bv6!19sChIJXeKPrtpaMzoRAcoCuPNC6vI?authuser=0&hl=en&rclk=1,"17.945009499999998,79.5944529"
Masjid E Panjethen,Mosque,"XHPW+4VP Masjid E Panjethen, Sherpura, Warangal, Telangana 506002",Sherpura,XHPW+4VP,Warangal,506002,Telangana,IN,https://www.google.com/maps/place/Masjid+E+Panjethen/data=!4m7!3m6!1s0x3a3345197487542b:0x5a91baf4660c8ac1!8m2!3d17.9853471!4d79.5971908!16s%2Fg%2F11c6w0yn93!19sChIJK1SHdBlFMzoRwYoMZvS6kVo?authuser=0&hl=en&rclk=1,"17.9853471,79.59719079999999"
Jama Masjid Mahmoodi-O-Khankha-E-Sabriya,Mosque,"WJV3+WM6 Jama Masjid Mahmoodi-O-Khankha-E-Sabriya, Shambunipet, Warangal, Telangana 506005",Shambunipet,WJV3+WM6,Warangal,506005,Telangana,IN,https://www.google.com/maps/place/Jama+Masjid+Mahmoodi-O-Khankha-E-Sabriya/data=!4m7!3m6!1s0x3a335b87a9fb883d:0xa15b48fa1ba26718!8m2!3d17.9454462!4d79.6038271!16s%2Fg%2F11sq1f25kk!19sChIJPYj7qYdbMzoRGGeiG_pIW6E?authuser=0&hl=en&rclk=1,"17.9454462,79.60382709999999"
Mohammadia Masjid,Mosque,"XJPH+WJQ Mohammadia Masjid, Enumamula, Warangal, Telangana 506002",Enumamula,XJPH+WJQ,Warangal,506002,Telangana,IN,https://www.google.com/maps/place/Mohammadia+Masjid/data=!4m7!3m6!1s0x3a334494bdf32413:0x39ed68fc4f470107!8m2!3d17.9873373!4d79.6291249!16s%2Fg%2F11c0zwl_r4!19sChIJEyTzvZREMzoRBwFHT_xo7Tk?authuser=0&hl=en&rclk=1,"17.9873373,79.6291249"
Masjid E- Nayab Sahab,Mosque,"XHFW+6P5 Masjid E- Nayab Sahab, Railway Gate, Ashalapally Road, Shanthi Nagar, Warangal, Telangana 506002",Shanthi Nagar,"XHFW+6P5, Railway Gate, Ashalapally Road",Warangal,506002,Telangana,IN,https://www.google.com/maps/place/Masjid+E-+Nayab+Sahab/data=!4m7!3m6!1s0x3a33452458a74f95:0xda6a8d15447afa4c!8m2!3d17.9730099!4d79.5968554!16s%2Fg%2F1ptx_vfy8!19sChIJlU-nWCRFMzoRTPp6RBWNato?authuser=0&hl=en&rclk=1,"17.973009899999997,79.5968554"
Jafariya Masjid,Mosque,"XHMW+HV8 Jafariya Masjid, Sherpura, Warangal, Telangana 506002",Sherpura,XHMW+HV8,Warangal,506002,Telangana,IN,https://www.google.com/maps/place/Jafariya+Masjid/data=!4m7!3m6!1s0x3a334519a40075d1:0x22b9d00319e88a80!8m2!3d17.9839044!4d79.597209!16s%2Fg%2F119w6_16y!19sChIJ0XUApBlFMzoRgIroGQPQuSI?authuser=0&hl=en&rclk=1,"17.9839044,79.59720899999999"
Masjid Al Noor,Mosque,"XHXM+X8W Masjid Al Noor, Mulugu Road, near Lotus Hospital, Tadkamalla Village, Warangal, Telangana 506007",Tadkamalla Village,"XHXM+X8W, Mulugu Road, near Lotus Hospital",Warangal,506007,Telangana,IN,https://www.google.com/maps/place/Masjid+Al+Noor/data=!4m7!3m6!1s0x3a33450b2f1dc92b:0x3b22e2bd4260b7c4!8m2!3d17.9999951!4d79.5833398!16s%2Fg%2F1pp2ty4rs!19sChIJK8kdLwtFMzoRxLdgQr3iIjs?authuser=0&hl=en&rclk=1,"17.9999951,79.58333979999999"
Sarware Konain(SAW) Masjid,Mosque,"XJGF+HWM Sarware Konain(SAW) Masjid, Garib Nagar, Shiv Nagar, Warangal, Telangana 506013","Garib Nagar, Shiv Nagar",XJGF+HWM,Warangal,506013,Telangana,IN,https://www.google.com/maps/place/Sarware+Konain%28SAW%29+Masjid/data=!4m7!3m6!1s0x3a3344c12adb12eb:0x6305fdeae8748921!8m2!3d17.9764711!4d79.6248052!16s%2Fg%2F11cpg6c9dt!19sChIJ6xLbKsFEMzoRIYl06Or9BWM?authuser=0&hl=en&rclk=1,"17.976471099999998,79.6248052"
Masjid-e-Sageeria Masoom,Mosque,"H.No. 7-7-150, Masjid-e-Sageeria Masoom, Hyderabad - Warangal Hwy, Ujli Base Dargah, Raganna Darwaja, Brahmanawada, Hanamkonda, Telangana 506011","Ujli Base Dargah, Raganna Darwaja, Brahmanawada","H.No. 7-7-150, Hyderabad - Warangal Hwy",Hanamkonda,506011,Telangana,IN,https://www.google.com/maps/place/Masjid-e-Sageeria+Masoom/data=!4m7!3m6!1s0x3a33459df90cac4b:0xa358840fd7e0cb10!8m2!3d18.0033728!4d79.5767019!16s%2Fg%2F11b5qg_5f5!19sChIJS6wM-Z1FMzoREMvg1w-EWKM?authuser=0&hl=en&rclk=1,"18.003372799999998,79.5767019"
Masjid-e-Mahboob Khan,Mosque,"XJ44+CQW Masjid-e-Mahboob Khan, Fort Rd, Mathwada, Warangal, Telangana 506002",Mathwada,"XJ44+CQW, Fort Rd",Warangal,506002,Telangana,IN,https://www.google.com/maps/place/Masjid-e-Mahboob+Khan/data=!4m7!3m6!1s0x3a335b2aeb8d8149:0xb5de7df790d360a9!8m2!3d17.9561177!4d79.6069453!16s%2Fg%2F1pp2tx0d8!19sChIJSYGN6ypbMzoRqWDTkPd93rU?authuser=0&hl=en&rclk=1,"17.9561177,79.60694529999999"
Masjid-e-Noor,Mosque,"2J9F+658 Masjid-e-Noor, Warangal, Telangana 506002",,2J9F+658,Warangal,506002,Telangana,IN,https://www.google.com/maps/place/Masjid-e-Noor/data=!4m7!3m6!1s0x3a3344434566ef7b:0xe7c221269f657f76!8m2!3d18.0180456!4d79.6229403!16s%2Fg%2F11cls7ksc2!19sChIJe-9mRUNEMzoRdn9lnyYhwuc?authuser=0&hl=en&rclk=1,"18.0180456,79.6229403"
Masjid ul muslimeen ahle hadees janpeer warangal,Mosque,"XJ7H+QPG Masjid ul muslimeen ahle hadees janpeer warangal, jamaat ul muslimeen, Adarsh Nagar, Puppalagutta, Warangal, Telangana 506330","Adarsh Nagar, Puppalagutta",XJ7H+QPG jamaat ul muslimeen,Warangal,506330,Telangana,IN,https://www.google.com/maps/place/Masjid+ul+muslimeen+ahle+hadees+janpeer+warangal/data=!4m7!3m6!1s0x3a33459f620d988d:0x389be766357e8353!8m2!3d17.9644375!4d79.6293281!16s%2Fg%2F11v1bl9gdz!19sChIJjZgNYp9FMzoRU4N-NWbnmzg?authuser=0&hl=en&rclk=1,"17.9644375,79.6293281"
Jama Masjid & Madarsa Kanzul Iman,Mosque,"WJJ2+XJ6 Jama Masjid & Madarsa Kanzul Iman, Warangal, Telangana 506005",,WJJ2+XJ6,Warangal,506005,Telangana,IN,https://www.google.com/maps/place/Jama+Masjid+%26+Madarsa+Kanzul+Iman/data=!4m7!3m6!1s0x3a335ae0ec22cf49:0x688e720dda5cb47b!8m2!3d17.9324035!4d79.6015216!16s%2Fg%2F11c604jwcf!19sChIJSc8i7OBaMzoRe7Rc2g1yjmg?authuser=0&hl=en&rclk=1,"17.9324035,79.6015216"
Masjid E Astana-e- Murtuza a.s.,Mosque,"Masjid E Astana-e- Murtuza a.s., 6-5-114, Machili Bazar, Raganna Darwaja, Brahmanawada, Hanamkonda, Telangana 506011","Machili Bazar, Raganna Darwaja, Brahmanawada",6-5-114,Hanamkonda,,Telangana,IN,https://www.google.com/maps/place/Masjid+E+Astana-e-+Murtuza+a.s./data=!4m7!3m6!1s0x3a33457318b17653:0x3b1b06c3907ea99d!8m2!3d18.0024663!4d79.5734512!16s%2Fg%2F11h1zdc7y1!19sChIJU3axGHNFMzoRnal-kMMGGzs?authuser=0&hl=en&rclk=1,"18.0024663,79.5734512"
Masjid-e-Anwar,Mosque,"2H2X+VCC Masjid-e-Anwar, Powers Colony, KLN Reddy Colony Rd, Gautami Nagar, Doctors Colony, Hanamkonda, Telangana 506006","Gautami Nagar, Doctors Colony","2H2X+VCC, Powers Colony, KLN Reddy Colony Rd","Hanamkonda, Warangal",506006,Telangana,IN,https://www.google.com/maps/place/Masjid-e-Anwar/data=!4m7!3m6!1s0x3a334512a476b3fb:0xa8b3d018f2271fc9!8m2!3d18.0021813!4d79.5985138!16s%2Fg%2F11h3bs9gp_!19sChIJ-7N2pBJFMzoRyR8n8hjQs6g?authuser=0&hl=en&rclk=1,"18.0021813,79.59851379999999"
Masjid-E-Nawaz,Mosque,"Masjid-E-Nawaz, Shahnoorpura, Urus Jagir, Warangal, Telangana 506005",Urus Jagir,Shahnoorpura,Warangal,506005,Telangana,IN,https://www.google.com/maps/place/Masjid-E-Nawaz/data=!4m7!3m6!1s0x3a335b83db3370c7:0x9bf456f70532a8a!8m2!3d17.9523389!4d79.5957904!16s%2Fg%2F11h1j7xqvw!19sChIJx3Az24NbMzoRiipTcG9Fvwk?authuser=0&hl=en&rclk=1,"17.9523389,79.5957904"
Masjid-E-Shohdae-Ikram ROSHAN SHAHEED,Mosque,"XJ42+FFC Masjid-E-Shohdae-Ikram ROSHAN SHAHEED, Khammam - Warangal Hwy, Shambunipet, Warangal, Telangana 506002",Shambunipet,"XJ42+FFC, Khammam - Warangal Hwy",Warangal,506002,Telangana,IN,https://www.google.com/maps/place/Masjid-E-Shohdae-Ikram+ROSHAN+SHAHEED/data=!4m7!3m6!1s0x3a335ad495588553:0x83a991556183ab8b!8m2!3d17.9561829!4d79.6011416!16s%2Fg%2F1pp2tw4zf!19sChIJU4VYldRaMzoRi6uDYVWRqYM?authuser=0&hl=en&rclk=1,"17.956182899999998,79.60114159999999"
Masjid E Azizia,Mosque,"XJ8F+J4W Masjid E Azizia, Puppalagutta, Warangal, Telangana 506002",Puppalagutta,XJ8F+J4W,Warangal,506002,Telangana,IN,https://www.google.com/maps/place/Masjid+E+Azizia/data=!4m7!3m6!1s0x3a3344c9307e7163:0x97687e323402ac8d!8m2!3d17.9666149!4d79.6228186!16s%2Fg%2F11c3tyxmg7!19sChIJY3F-MMlEMzoRjawCNDJ-aJc?authuser=0&hl=en&rclk=1,"17.9666149,79.6228186"
Am Nasar Masjid-E-Mamoor,Mosque,"XJC7+XGM Am Nasar Masjid-E-Mamoor, Warangal Rd, Dayanand Colony, Warangal, Telangana 506002",Dayanand Colony,"XJC7+XGM, Warangal Rd",Warangal,506002,Telangana,IN,https://www.google.com/maps/place/Am+Nasar+Masjid-E-Mamoor/data=!4m7!3m6!1s0x3a3345ed7902a043:0xb3416582a75b259!8m2!3d17.9724688!4d79.6138048!16s%2Fg%2F11g4bnhkxc!19sChIJQ6ACee1FMzoRWbJ1KlgWNAs?authuser=0&hl=en&rclk=1,"17.972468799999998,79.6138048"
Masjid Al Kausar,Mosque,"WHFP+CGG Masjid Al Kausar, SH 8, Warangal, Telangana 506166",,"WHFP+CGG, SH 8",Warangal,506166,Telangana,IN,https://www.google.com/maps/place/Masjid+Al+Kausar/data=!4m7!3m6!1s0x3a335aeda4b355e3:0x636baa183af11932!8m2!3d17.9235654!4d79.5863289!16s%2Fg%2F11bv_dj463!19sChIJ41WzpO1aMzoRMhnxOhiqa2M?authuser=0&hl=en&rclk=1,"17.923565399999998,79.5863289"
Masjid e Quba,Mosque,"2J27+M9X Masjid e Quba, Unnamed Road, Deshaipet, Warangal, Telangana 506006",Deshaipet,"2J27+M9X, Unnamed Road",Warangal,506006,Telangana,IN,https://www.google.com/maps/place/Masjid+e+Quba/data=!4m7!3m6!1s0x3a334558700a56a9:0x6098d887b71e6652!8m2!3d18.001746!4d79.6134862!16s%2Fg%2F11gxrjvzjw!19sChIJqVYKcFhFMzoRUmYet4fYmGA?authuser=0&hl=en&rclk=1,"18.001746,79.6134862"
Masjid-E-Mahmoodia,Mosque,"Masjid-E-Mahmoodia, 506006, Sundaraiah Nagar, Enumamula, Warangal, Telangana 506013","Sundaraiah Nagar, Enumamula",506006,Warangal,506013,Telangana,IN,https://www.google.com/maps/place/Masjid-E-Mahmoodia/data=!4m7!3m6!1s0x3a3344ee5706536b:0x5baabad0fcc69793!8m2!3d17.9889458!4d79.6260234!16s%2Fg%2F11csc8x6h1!19sChIJa1MGV-5EMzoRk5fG_NC6qls?authuser=0&hl=en&rclk=1,"17.9889458,79.6260234"
Masjid,Place of worship,"Masjid, Manohar metal industry, Kakaji Nagar Colony, Warangal, Telangana 506013",Kakaji Nagar Colony,Manohar metal industry,Warangal,506013,Telangana,IN,https://www.google.com/maps/place/Masjid/data=!4m7!3m6!1s0x3a3344c8da7c4181:0xc846aeffea19eaa3!8m2!3d17.9684581!4d79.6228904!16s%2Fg%2F11gbqffnjn!19sChIJgUF82shEMzoRo-oZ6v-uRsg?authuser=0&hl=en&rclk=1,"17.9684581,79.6228904"
Makkah Masjid,Mosque,"XHQR+RGM Makkah Masjid, Tadkamalla Village, Warangal, Telangana 506007",Tadkamalla Village,XHQR+RGM,Warangal,506007,Telangana,IN,https://www.google.com/maps/place/Makkah+Masjid/data=!4m7!3m6!1s0x3a33453e5d4b4539:0x412bda384c59f7ee!8m2!3d17.9895899!4d79.591302!16s%2Fg%2F11f7796snj!19sChIJOUVLXT5FMzoR7vdZTDjaK0E?authuser=0&hl=en&rclk=1,"17.9895899,79.591302"
Masjid-e-omar-farooqui,Mosque,"XJC6+5FP Masjid-e-omar-farooqui, Puppalagutta, Warangal, Telangana 506002",Puppalagutta,XJC6+5FP,Warangal,506002,Telangana,IN,https://www.google.com/maps/place/Masjid-e-omar-farooqui/data=!4m7!3m6!1s0x3a33450cdf14c429:0xcc9994dced05e9c7!8m2!3d17.970464!4d79.6112023!16s%2Fg%2F11h76lrqty!19sChIJKcQU3wxFMzoRx-kF7dyUmcw?authuser=0&hl=en&rclk=1,"17.970464,79.6112023"
Masjid-e-Syeediya,Mosque,"WJW4+M8Q Masjid-e-Syeediya, Shambunipet, Warangal, Telangana 506002",Shambunipet,WJW4+M8Q,Warangal,506002,Telangana,IN,https://www.google.com/maps/place/Masjid-e-Syeediya/data=!4m7!3m6!1s0x3a335b309d5e7e29:0x7a41db1c366a0f0b!8m2!3d17.9467016!4d79.6058658!16s%2Fg%2F11k68pl6d5!19sChIJKX5enTBbMzoRCw9qNhzbQXo?authuser=0&hl=en&rclk=1,"17.9467016,79.60586579999999"
Makkah Masjid,Mosque,"XJV4+69W Makkah Masjid, Ganesh Nagar, Doctors Colony, Warangal, Telangana 506002",Doctors Colony,"XJV4+69W, Ganesh Nagar",Warangal,506002,Telangana,IN,https://www.google.com/maps/place/Makkah+Masjid/data=!4m7!3m6!1s0x3a3345a5893b91a9:0xd7540cbccc3bdc68!8m2!3d17.993101!4d79.6059446!16s%2Fg%2F11s3wghh_t!19sChIJqZE7iaVFMzoRaNw7zLwMVNc?authuser=0&hl=en&rclk=1,"17.993101,79.6059446"
Masjid E Multania,Religious destination,"XJQ8+P29 Masjid E Multania, Kashibugga, LB Nagar, Warangal, Telangana 506002","Kashibugga, LB Nagar",XJQ8+P29,Warangal,506002,Telangana,IN,https://www.google.com/maps/place/Masjid+E+Multania/data=!4m7!3m6!1s0x3a33457de1933f3d:0x3d9f6560b6b1040a!8m2!3d17.9892838!4d79.6151032!16s%2Fg%2F11h5s3xmrb!19sChIJPT-T4X1FMzoRCgSxtmBlnz0?authuser=0&hl=en&rclk=1,"17.9892838,79.6151032"
Fathima Masjid,Mosque,"WJR4+4GM Fathima Masjid, Unnamed Road, Warangal, Telangana 506005",,"WJR4+4GM, Unnamed Road",Warangal,506005,Telangana,IN,https://www.google.com/maps/place/Fathima+Masjid/data=!4m7!3m6!1s0x3a335b6940d91c45:0x3e98b3f3392320a9!8m2!3d17.9403273!4d79.6062949!16s%2Fg%2F11jdjk3tdx!19sChIJRRzZQGlbMzoRqSAjOfOzmD4?authuser=0&hl=en&rclk=1,"17.9403273,79.6062949"
Masjid-e-Ahmedi Shahjahan,Mosque,"WJW3+P6 Masjid-e-Ahmedi Shahjahan, Shambunipet, Warangal, Telangana 506005",Shambunipet,WJW3+P6,Warangal,,Telangana,IN,https://www.google.com/maps/place/Masjid-e-Ahmedi+Shahjahan/data=!4m7!3m6!1s0x3a335b9efeaa966b:0xc8bae4784a7e72c0!8m2!3d17.9467437!4d79.603084!16s%2Fg%2F11rf73dtc2!19sChIJa5aq_p5bMzoRwHJ-Snjkusg?authuser=0&hl=en&rclk=1,"17.9467437,79.603084"
Masjid-e-Mohammadia,Mosque,"Masjid-e-Mohammadia, Kila Warangal, Mathwada, Warangal, Telangana 506002","Kila Warangal, Mathwada",,Warangal,,Telangana,IN,https://www.google.com/maps/place/Masjid-e-Mohammadia/data=!4m7!3m6!1s0x3a335b2d0bfda1b3:0x614b1d3dfcd26f0e!8m2!3d17.9556403!4d79.6146989!16s%2Fg%2F1pp2twjyw!19sChIJs6H9Cy1bMzoRDm_S_D0dS2E?authuser=0&hl=en&rclk=1,"17.9556403,79.6146989"
Eid Gaah,Mosque,"XJ62+243 Eid Gaah, Ekashila Nagar, Warangal, Telangana 506002",Ekashila Nagar,XJ62+243,Warangal,506002,Telangana,IN,https://www.google.com/maps/place/Eid+Gaah/data=!4m7!3m6!1s0x3a33452b7a3fffff:0x5de8f0cd78a9710f!8m2!3d17.9600004!4d79.6002859!16s%2Fg%2F11sscs73sn!19sChIJ__8_eitFMzoRD3GpeM3w6F0?authuser=0&hl=en&rclk=1,"17.9600004,79.6002859"
Syed Mohammed Hussaini Masjid,Mosque,"Syed Mohammed Hussaini Masjid, 13-7-92, Yellamma Bazar Rd, Sherpura, Warangal, Telangana 506002",Sherpura,"13-7-92, Yellamma Bazar Rd",Warangal,506002,Telangana,IN,https://www.google.com/maps/place/Syed+Mohammed+Hussaini+Masjid/data=!4m7!3m6!1s0x3a3345184e06068f:0x34526f7cfd6a4a18!8m2!3d17.9832564!4d79.5961189!16s%2Fg%2F1tvt8s4t!19sChIJjwYGThhFMzoRGEpq_XxvUjQ?authuser=0&hl=en&rclk=1,"17.9832564,79.5961189"
Makka Masjid sr nagar,Mosque,"XJMC+282 Makka Masjid sr nagar, Sathenapalli, Warangal, Telangana 506002",Sathenapalli,XJMC+282,Warangal,506002,Telangana,IN,https://www.google.com/maps/place/Makka+Masjid+sr+nagar/data=!4m7!3m6!1s0x3a3345d70dc01d4f:0x9e541edd24841e19!8m2!3d17.9825175!4d79.620755!16s%2Fg%2F11s3vssdy5!19sChIJTx3ADddFMzoRGR6EJN0eVJ4?authuser=0&hl=en&rclk=1,"17.9825175,79.620755"
Masjid Jamaat,Mosque,"XJ6J+WWW Masjid Jamaat, Adarsh Nagar, puppala gutta, janpak, Warangal, Telangana 506330","Adarsh Nagar, puppala gutta, janpak",XJ6J+WWW,Warangal,,Telangana,IN,https://www.google.com/maps/place/Masjid+Jamaat/data=!4m7!3m6!1s0x3a3345c5551304c3:0xc9bed00d9121b389!8m2!3d17.9623585!4d79.6323298!16s%2Fg%2F11h2j6nxpg!19sChIJwwQTVcVFMzoRibMhkQ3Qvsk?authuser=0&hl=en&rclk=1,"17.9623585,79.6323298"
msjd HDrt jn pkh shhyd,Mosque,"XJ8J+84Q msjd HDrt jn pkh shhyd, Gorrekunta Village, Warangal, Telangana 506013",Gorrekunta Village,XJ8J+84Q,Warangal,506013,Telangana,IN,https://www.google.com/maps/place/%D9%85%D8%B3%D8%AC%D8%AF+%D8%AD%D8%B6%D8%B1%D8%AA+%D8%AC%D8%A7%D9%86+%D9%BE%D8%A7%DA%A9+%D8%B4%DB%81%DB%8C%D8%AF%D8%92%E2%80%AD/data=!4m7!3m6!1s0x3a334532d401709d:0x67d677ed0a833741!8m2!3d17.9658371!4d79.6303573!16s%2Fg%2F11l3q1lt0f!19sChIJnXAB1DJFMzoRQTeDCu131mc?authuser=0&hl=en&rclk=1,"17.965837099999998,79.6303573"
Eidgah Matwada,Mosque,"XHQR+3GX Eidgah Matwada, Ramannapet, Warangal, Telangana 506002",Ramannapet,XHQR+3GX,Warangal,506002,Telangana,IN,https://www.google.com/maps/place/Eidgah+Matwada/data=!4m7!3m6!1s0x3a334522f5e3ceb5:0x3e369ab28ad74338!8m2!3d17.9877392!4d79.5913603!16s%2Fg%2F11f7cf7jwd!19sChIJtc7j9SJFMzoROEPXirKaNj4?authuser=0&hl=en&rclk=1,"17.9877392,79.59136029999999"
Makkah Masjid S.R.Nagar Warangal,Mosque,"XJM8+JGF Makkah Masjid S.R.Nagar Warangal, Vivekananda Colony, Kashibugga, LB Nagar, Warangal, Telangana 506002","Vivekananda Colony, Kashibugga, LB Nagar",XJM8+JGF,Warangal,506002,Telangana,IN,https://www.google.com/maps/place/Makkah+Masjid+S.R.Nagar+Warangal/data=!4m7!3m6!1s0x3a33454a5afa0609:0xd4a92f1ff5ccd878!8m2!3d17.9840562!4d79.6163261!16s%2Fg%2F11s3wgh_7w!19sChIJCQb6WkpFMzoReNjM9R8vqdQ?authuser=0&hl=en&rclk=1,"17.984056199999998,79.6163261"
Masjid-E-Mohammadia,Mosque,"WJW2+WCP Masjid-E-Mohammadia, Shambunipet, Warangal, Telangana 506005",Shambunipet,WJW2+WCP,Warangal,506005,Telangana,IN,https://www.google.com/maps/place/Masjid-E-Mohammadia/data=!4m7!3m6!1s0x3a335baffda9b7d3:0x567fefc58a6092c3!8m2!3d17.9473323!4d79.6010758!16s%2Fg%2F11rfqzwb_l!19sChIJ07ep_a9bMzoRw5JgisXvf1Y?authuser=0&hl=en&rclk=1,"17.9473323,79.60107579999999"
MASJID -E-BIBIFATHIMA,Mosque,"XHWQ+854 MASJID -E-BIBIFATHIMA, Rangampet, Tadkamalla Village, Warangal, Telangana 506007","Rangampet, Tadkamalla Village",XHWQ+854,Warangal,506007,Telangana,IN,https://www.google.com/maps/place/MASJID+-E-BIBIFATHIMA/data=!4m7!3m6!1s0x3a3345c986df31d1:0x20c6e2518cb1bb5d!8m2!3d17.9958246!4d79.587779!16s%2Fg%2F11k9swk8c3!19sChIJ0THfhslFMzoRXbuxjFHixiA?authuser=0&hl=en&rclk=1,"17.9958246,79.587779"
Masjid-E-Ghous-A-Raheema,Mosque,"XJPF+Q69 Masjid-E-Ghous-A-Raheema, Unnamed Road, Sundaraiah Nagar, Balaji Nagar, Warangal, Telangana 506013","Sundaraiah Nagar, Balaji Nagar","XJPF+Q69, Unnamed Road",Warangal,506013,Telangana,IN,https://www.google.com/maps/place/Masjid-E-Ghous-A-Raheema/data=!4m7!3m6!1s0x3a33457314363511:0xb65449ec44dcbdca!8m2!3d17.9869214!4d79.623116!16s%2Fg%2F11j5gyfqcs!19sChIJETU2FHNFMzoRyr3cROxJVLY?authuser=0&hl=en&rclk=1,"17.9869214,79.623116"
MASJID E FATIMA,Mosque,"2J34+9W5 MASJID E FATIMA, Laxmi Mega Twp, Deshaipet, Warangal, Telangana 506006","Laxmi Mega Township, Deshaipet",2J34+9W5,Warangal,506006,Telangana,IN,https://www.google.com/maps/place/MASJID+E+FATIMA/data=!4m7!3m6!1s0x3a3345bd221a4561:0xbebf0ccd4b3d4df4!8m2!3d18.0033945!4d79.6073705!16s%2Fg%2F11nxfyf5t3!19sChIJYUUaIr1FMzoR9E09S80Mv74?authuser=0&hl=en&rclk=1,"18.0033945,79.6073705"
Pattar Masjid,Mosque,"XH4W+QC Pattar Masjid, Nagendra Nagar, Kareemabad, Warangal, Telangana 506005","Nagendra Nagar, Kareemabad",XH4W+QC,Warangal,,Telangana,IN,https://www.google.com/maps/place/Pattar+Masjid/data=!4m7!3m6!1s0x3a335bcae89d0223:0xd1c20ebbfc22dc75!8m2!3d17.9569062!4d79.5960066!16s%2Fg%2F11t7czgxhg!19sChIJIwKd6MpbMzoRddwi_LsOwtE?authuser=0&hl=en&rclk=1,"17.9569062,79.5960066"
Puppalagutta,Mosque,"Puppalagutta, Gandhi statue, Puppalagutta, Warangal, Telangana 506002",Puppalagutta,Gandhi statue,Warangal,506002,Telangana,IN,https://www.google.com/maps/place/Puppalagutta/data=!4m7!3m6!1s0x3a334510d30f6c75:0xf1ac0e1ba1bf5205!8m2!3d17.9682853!4d79.6121719!16s%2Fg%2F11h76kzp7l!19sChIJdWwP0xBFMzoRBVK_oRsOrPE?authuser=0&hl=en&rclk=1,"17.968285299999998,79.61217189999999"
Mandi bazar,Mosque,"XH9V+HJ8 Mandi bazar, Vada, Warangal, Telangana 506002",Vada,XH9V+HJ8,Warangal,,Telangana,IN,https://www.google.com/maps/place/Mandi+bazar/data=!4m7!3m6!1s0x3a3345781af6fad9:0x664a73529b30d183!8m2!3d17.9689047!4d79.5940824!16s%2Fg%2F11ry28bzsm!19sChIJ2fr2GnhFMzoRg9Ewm1JzSmY?authuser=0&hl=en&rclk=1,"17.9689047,79.59408239999999"
Masjid E Safiya,Mosque,"XJR8+MQW Masjid E Safiya, Balaji Nagar, Warangal, Telangana 506006",Balaji Nagar,XJR8+MQW,Warangal,506006,Telangana,IN,https://www.google.com/maps/place/Masjid+E+Safiya/data=!4m7!3m6!1s0x3a3345f447426b0f:0x32817f3147d6935d!8m2!3d17.9917366!4d79.6169443!16s%2Fg%2F11sx77h702!19sChIJD2tCR_RFMzoRXZPWRzF_gTI?authuser=0&hl=en&rclk=1,"17.9917366,79.6169443"
Station masjid,Mosque,"XJF3+PCX Station masjid, Girmajipet, Warangal, Telangana 506002",Girmajipet,XJF3+PCX,Warangal,,Telangana,IN,https://www.google.com/maps/place/Station+masjid/data=!4m7!3m6!1s0x3a33456b6199bd8b:0x135ea9adfb84418d!8m2!3d17.9743603!4d79.6036186!16s%2Fg%2F11y1yc2whh!19sChIJi72ZYWtFMzoRjUGE-62pXhM?authuser=0&hl=en&rclk=1,"17.9743603,79.60361859999999"
Makkah Masjid,Mosque,"XJ98+75Q Makkah Masjid, Puppalagutta, Warangal, Telangana 506002",Puppalagutta,XJ98+75Q,Warangal,506002,Telangana,IN,https://www.google.com/maps/place/Makkah+Masjid/data=!4m7!3m6!1s0x3a334581f06c720b:0xa7067df60a0e84b0!8m2!3d17.9682085!4d79.6154935!16s%2Fg%2F11jzhjyzfh!19sChIJC3Js8IFFMzoRsIQOCvZ9Bqc?authuser=0&hl=en&rclk=1,"17.9682085,79.6154935"
Masjid e Mashooqiya,Mosque,"XH5V+FH3 Masjid e Mashooqiya, Kareemabad, Warangal, Telangana 506002",Kareemabad,XH5V+FH3,Warangal,,Telangana,IN,https://www.google.com/maps/place/Masjid+e+Mashooqiya/data=!4m7!3m6!1s0x3a33455981f72915:0xefffbe6ec7720321!8m2!3d17.9586276!4d79.5939352!16s%2Fg%2F11s90pkz42!19sChIJFSn3gVlFMzoRIQNyx26-_-8?authuser=0&hl=en&rclk=1,"17.9586276,79.59393519999999"
JAFFRI MASJID-E,Mosque,"XJGJ+CPJ JAFFRI MASJID-E, Keerthi Nagar Colony, Keerthi Colony, Warangal, Telangana 506013","Keerthi Nagar Colony, Keerthi Colony",XJGJ+CPJ,Warangal,506013,Telangana,IN,https://www.google.com/maps/place/JAFFRI+MASJID-E/data=!4m7!3m6!1s0x3a3345fc6ee60f7f:0x42498854bc785aa!8m2!3d17.9760767!4d79.631752!16s%2Fg%2F11ppz23c7n!19sChIJfw_mbvxFMzoRqoXHS4WYJAQ?authuser=0&hl=en&rclk=1,"17.9760767,79.63175199999999"
Masjid e almadina,Mosque,"XHGX+Q87 Masjid e almadina, Mangalavaripeta,narsampet, Warangal",Girmajipet,"XHGX+Q87, Mangalavaripeta,narsampet",Warangal,,Telangana,IN,https://www.google.com/maps/place/Masjid+e+almadina/data=!4m7!3m6!1s0x3a3345821a784dc9:0x9acf6d5ff1fe7506!8m2!3d17.9769016!4d79.5983046!16s%2Fg%2F11s0s7n4qb!19sChIJyU14GoJFMzoRBnX-8V9tz5o?authuser=0&hl=en&rclk=1,"17.976901599999998,79.59830459999999"
Syed Aejaz,Mosque,"XJM2+278 Syed Aejaz, Girmajipet, Warangal, Telangana 506002",Girmajipet,XJM2+278,Warangal,506002,Telangana,IN,https://www.google.com/maps/place/Syed+Aejaz/data=!4m7!3m6!1s0x3a3345860d40db39:0x6946b0214a069b1b!8m2!3d17.9820341!4d79.6011232!16s%2Fg%2F11pvwtsqx8!19sChIJOdtADYZFMzoRG5sGSiGwRmk?authuser=0&hl=en&rclk=1,"17.9820341,79.60112319999999"
Tazoshariya jama masjid,Mosque,"XH5V+XH2 Tazoshariya jama masjid, Kareemabad, purva, Warangal, Telangana 271851",Kareemabad,XH5V+XH2,"purva, Warangal",271851,Telangana,IN,https://www.google.com/maps/place/Tazoshariya+jama+masjid/data=!4m7!3m6!1s0x3a33450ebdb0691d:0xb5c2019701edf4bf!8m2!3d17.9598782!4d79.5939002!16s%2Fg%2F11t_v0_b1q!19sChIJHWmwvQ5FMzoRv_TtAZcBwrU?authuser=0&hl=en&rclk=1,"17.9598782,79.5939002"
MASJID-E-MEHRUNNISA,Place of worship,"MASJID-E-MEHRUNNISA, 359, Hyderabad - Warangal Hwy, Alankar, Brahmanawada, Hanamkonda, Telangana 506011","Alankar, Brahmanawada","359, Hyderabad - Warangal Hwy",Hanamkonda,506011,Telangana,IN,https://www.google.com/maps/place/MASJID-E-MEHRUNNISA/data=!4m7!3m6!1s0x3a33452a41b74ba5:0xefcd83ec0284b068!8m2!3d18.0025579!4d79.5797765!16s%2Fg%2F11nz0l72sg!19sChIJpUu3QSpFMzoRaLCEAuyDze8?authuser=0&hl=en&rclk=1,"18.0025579,79.5797765"
Masjid e Gadi,Mosque,"Masjid e Gadi, 6-5 31, Machili Bazar Rd, Machili Bazar, Brahmanawada, Hanamkonda, Telangana 506011","Machili Bazar, Brahmanawada","6-5 31, Machili Bazar Rd",Hanamkonda,506011,Telangana,IN,https://www.google.com/maps/place/Masjid+e+Gadi/data=!4m7!3m6!1s0x3a33458e931644d5:0x32e165732e9fd85!8m2!3d18.0021028!4d79.5740055!16s%2Fg%2F11rgb77zx3!19sChIJ1UQWk45FMzoRhf3pMlcWLgM?authuser=0&hl=en&rclk=1,"18.0021028,79.5740055"
