name,main_category,address,address_ward,address_street,address_city,address_postal_code,address_state,address_country_code,link,coordinates
Darul Uloom Masjid (JAMA MASJID ZAKARIYA),Mosque,"Darul Uloom Masjid (JAMA MASJID ZAKARIYA), dist, near block, Bahadurganj, Bihar",,"dist, near block",Bahadurganj,,Bihar,IN,https://www.google.com/maps/place/Darul+Uloom+Masjid+%28JAMA+MASJID+ZAKARIYA%29/data=!4m7!3m6!1s0x39e5732026a0b155:0x9e9afc5fb6a4c403!8m2!3d26.2632696!4d87.8354259!16s%2Fg%2F11csswdwj0!19sChIJVbGgJiBz5TkRA8Sktl_8mp4?authuser=0&hl=en&rclk=1,"26.263269599999997,87.83542589999999"
Masjid-e-Khabab Bin Arth,Mosque,"9CQ3+9CC Masjid-e-Khabab Bin Arth, Near Owaisi Play Ground, Resham Bagh, Golconda Fort, Hyderabad, Telangana 500008","Resham Bagh, Golconda Fort","9CQ3+9CC, Near Owaisi Play Ground",Hyderabad,500008,Telangana,IN,https://www.google.com/maps/place/Masjid-e-Khabab+Bin+Arth/data=!4m7!3m6!1s0x3bcb969279b44791:0x65e6d93afce9339d!8m2!3d17.3884369!4d78.403522!16s%2Fg%2F11byxg31yv!19sChIJkUe0eZKWyzsRnTPp_DrZ5mU?authuser=0&hl=en&rclk=1,"17.3884369,78.403522"
Jama Masjid Raushanuddaulah Eidgah & Graveyard,Place of worship,"8F8X+FP2 Jama Masjid Raushanuddaulah Eidgah & Graveyard, Village, R.R. Dist., near Salzee Garden Function Hall, Balapur, Telangana 500058","Janpriya Nagar, Kanchan Bagh","8F8X+FP2, Village, R.R. Dist., near Salzee Garden Function Hall","Balapur, Hyderabad",500058,Telangana,IN,https://www.google.com/maps/place/Jama+Masjid+Raushanuddaulah+Eidgah+%26+Graveyard/data=!4m7!3m6!1s0x3bcba2959635a9c1:0xbdebdfb932c0d7ae!8m2!3d17.3161335!4d78.4992508!16s%2Fg%2F11clsd5lz8!19sChIJwak1lpWiyzsRrtfAMrnf670?authuser=0&hl=en&rclk=1,"17.3161335,78.4992508"
Masjid-e-Gada Baig,Mosque,"8CW4+Q99 Masjid-e-Gada Baig, Sukender Reddy Colony, Janachaitanya colony, Hyderabad, Telangana 500030","Sukender Reddy Colony, Janachaitanya colony",8CW4+Q99,Hyderabad,500030,Telangana,IN,https://www.google.com/maps/place/Masjid-e-Gada+Baig/data=!4m7!3m6!1s0x3bcb961611e7ec07:0x5821b17e35f2d3fc!8m2!3d17.3469114!4d78.405996!16s%2Fg%2F11ddxndj7y!19sChIJB-znERaWyzsR_NPyNX6xIVg?authuser=0&hl=en&rclk=1,"17.3469114,78.405996"
Jama Masjid Ganj-e-Shahidan (Badi Masjid),Mosque,"5-588, Jama Masjid Ganj-e-Shahidan (Badi Masjid), A/2, Tappachabutra Rd, Tappachabutra, Syed Ali Guda, Hyderabad, Telangana 500264","Tappachabutra, Syed Ali Guda","5-588, A/2, Tappachabutra Rd",Hyderabad,500264,Telangana,IN,https://www.google.com/maps/place/Jama+Masjid+Ganj-e-Shahidan+%28Badi+Masjid%29/data=!4m7!3m6!1s0x3bcb97a0a9e3ee9b:0xb64152f77c1fd996!8m2!3d17.3791871!4d78.4475012!16s%2Fm%2F0n49mvd!19sChIJm-7jqaCXyzsRltkffPdSQbY?authuser=0&hl=en&rclk=1,"17.3791871,78.44750119999999"
Bagh-e-Jahanara Jama Masjid,Mosque,"9F7V+XH5 Bagh-e-Jahanara Jama Masjid, Shah Colony, Bagh-e-Jahan Ara, Dabeerpura, Hyderabad, Telangana 500023","Shah Colony, Bagh-e-Jahan Ara, Dabeerpura",9F7V+XH5,Hyderabad,500023,Telangana,IN,https://www.google.com/maps/place/Bagh-e-Jahanara+Jama+Masjid/data=!4m7!3m6!1s0x3bcb983eb6aadd27:0x78bcc92c5e63ab88!8m2!3d17.3643416!4d78.4933861!16s%2Fg%2F1tdncq4w!19sChIJJ92qtj6YyzsRiKtjXizJvHg?authuser=0&hl=en&rclk=1,"17.3643416,78.4933861"
Masjid E Khurshid Jahi,Mosque,"8GV3+GVR Masjid E Khurshid Jahi, khalandar nagar, Santosh Nagar Main Rd, Owaisi Nagar, Hasnabad, Santosh Nagar, Hyderabad, Telangana 500059","Owaisi Nagar, Hasnabad, Santosh Nagar","8GV3+GVR, khalandar nagar, Santosh Nagar Main Rd",Hyderabad,500059,Telangana,IN,https://www.google.com/maps/place/Masjid+E+Khurshid+Jahi/data=!4m7!3m6!1s0x3bcb9871717fb011:0xa108a56af556a9f!8m2!3d17.344097!4d78.5046637!16s%2Fg%2F1tg66k4z!19sChIJEbB_cXGYyzsRn2pVr1aKEAo?authuser=0&hl=en&rclk=1,"17.344096999999998,78.5046637"
Masjid E Bahadur Shareef Madani,Mosque,"9GQ4+FJF Masjid E Bahadur Shareef Madani, Golnaka, Amberpet, Hyderabad, Telangana 500013","Golnaka, Amberpet",9GQ4+FJF,Hyderabad,500013,Telangana,IN,https://www.google.com/maps/place/Masjid+E+Bahadur+Shareef+Madani/data=!4m7!3m6!1s0x3bcb99b22a443f6f:0xfb51976d652d74e4!8m2!3d17.388694!4d78.5065546!16s%2Fg%2F1hm1xrf2r!19sChIJbz9EKrKZyzsR5HQtZW2XUfs?authuser=0&hl=en&rclk=1,"17.388694,78.5065546"
Jama Masjid E Paigah,Mosque,"CF4G+749 Jama Masjid E Paigah, New MLA Quarters, Adarsh Nagar, Hyderabad, Telangana 500063","New MLA Quarters, Adarsh Nagar",CF4G+749,Hyderabad,500063,Telangana,IN,https://www.google.com/maps/place/Jama+Masjid+E+Paigah/data=!4m7!3m6!1s0x3bcb99e020f8b655:0x675334febeb7b2d!8m2!3d17.4056574!4d78.4753635!16s%2Fg%2F11gfm0kmp0!19sChIJVbb4IOCZyzsRLXvr608zdQY?authuser=0&hl=en&rclk=1,"17.4056574,78.4753635"
Masjid-e-Gulshan Bagh,Mosque,"Masjid-e-Gulshan Bagh, 7-1-645/A Sundar Nagar, Sanath Nagar, Hyderabad, Telangana 500038","Surender Nagar, Sundar Nagar, Sanath Nagar",7-1-645/A Sundar Nagar,Hyderabad,500038,Telangana,IN,https://www.google.com/maps/place/Masjid-e-Gulshan+Bagh/data=!4m7!3m6!1s0x3bcb90e7182ab38f:0x439a5f693e670f2!8m2!3d17.4506161!4d78.4370023!16s%2Fg%2F1hm4m7zvl!19sChIJj7MqGOeQyzsR8nDmk_alOQQ?authuser=0&hl=en&rclk=1,"17.450616099999998,78.4370023"
Masjid e Hassa (Ahle Sunnat Wal Jamaat),Mosque,"Masjid e Hassa (Ahle Sunnat Wal Jamaat), 18-1-350/a/107/a, Fatima Nagar, Gulshan-e-Iqbal Colony, Hyderabad, Telangana 500005","Fatima Nagar, Gulshan-e-Iqbal Colony",18-1-350/a/107/a,Hyderabad,500005,Telangana,IN,https://www.google.com/maps/place/Masjid+e+Hassa+%28Ahle+Sunnat+Wal+Jamaat%29/data=!4m7!3m6!1s0x3bcba3adae967759:0x8c05ba7f91125c0b!8m2!3d17.3322897!4d78.487638!16s%2Fg%2F11fl4b1nsp!19sChIJWXeWrq2jyzsRC1wSkX-6BYw?authuser=0&hl=en&rclk=1,"17.3322897,78.48763799999999"
Masjid-E-Salahuddin Sahab,Mosque,"Masjid-E-Salahuddin Sahab, Moghalpura, Hyderabad, Telangana 500002",Moghalpura,,Hyderabad,,Telangana,IN,https://www.google.com/maps/place/Masjid-E-Salahuddin+Sahab/data=!4m7!3m6!1s0x3bcb981ff6464adb:0xfd3dec7a8401d961!8m2!3d17.357412!4d78.4761379!16s%2Fg%2F1tm__pdj!19sChIJ20pG9h-YyzsRYdkBhHrsPf0?authuser=0&hl=en&rclk=1,"17.357412,78.4761379"
Masjid-e-Lutfullah,Mosque,"Masjid-e-Lutfullah, Road, n0-4, Dhatu Nagar, Hyderabad, Telangana 500058","Sri Datta Nagar, Dhatu Nagar, Kanchan Bagh","Road, n0-4",Hyderabad,500058,Telangana,IN,https://www.google.com/maps/place/Masjid-e-Lutfullah/data=!4m7!3m6!1s0x3bcba284328b06bd:0xe1e8e8084269500a!8m2!3d17.3279041!4d78.5141866!16s%2Fg%2F11c1vjbrhh!19sChIJvQaLMoSiyzsRClBpQgjo6OE?authuser=0&hl=en&rclk=1,"17.327904099999998,78.5141866"
Masjid E Babu Salam,Mosque,"Masjid E Babu Salam, water tank, 23-1-954, Goharbulshan Lane, Charminar, Moghalpura, Hyderabad, Telangana 500002","Charminar, Moghalpura","water tank, 23-1-954, Goharbulshan Lane",Hyderabad,500002,Telangana,IN,https://www.google.com/maps/place/Masjid+E+Babu+Salam/data=!4m7!3m6!1s0x3bcb981f86c174ff:0x2bc40581c6dcb9b8!8m2!3d17.3573695!4d78.4775954!16s%2Fg%2F11c3tx3b84!19sChIJ_3TBhh-YyzsRuLncxoEFxCs?authuser=0&hl=en&rclk=1,"17.3573695,78.4775954"
Jama-e-Masjid Mohammadia,Mosque,"Jama-e-Masjid Mohammadia, 40-121, Sanjay Gandhi Nagar, Chenna Reddy Nagar, Hyderabad, Telangana 500037","Sanjay Gandhi Nagar, Chenna Reddy Nagar",40-121,Hyderabad,500037,Telangana,IN,https://www.google.com/maps/place/Jama-e-Masjid+Mohammadia/data=!4m7!3m6!1s0x3bcb90359aef203d:0xa295cf0982b71887!8m2!3d17.4956457!4d78.4331496!16s%2Fg%2F11c532wvvk!19sChIJPSDvmjWQyzsRhxi3ggnPlaI?authuser=0&hl=en&rclk=1,"17.4956457,78.4331496"
Masjid al Falah,Mosque,"9C28+6CV Masjid al Falah, Happy Homes Colony, Venkateswara Hills, Janachaitanya colony, Hyderabad, Upperpally, Telangana 500030","Happy Homes Colony, Venkateswara Hills, Janachaitanya colony",9C28+6CV,"Hyderabad, Upperpally",500030,Telangana,IN,https://www.google.com/maps/place/Masjid+al+Falah/data=!4m7!3m6!1s0x3bcb9771a8169439:0x8f103258079ea9d9!8m2!3d17.3506147!4d78.4160565!16s%2Fg%2F11r9v_xgw3!19sChIJOZQWqHGXyzsR2ameB1gyEI8?authuser=0&hl=en&rclk=1,"17.350614699999998,78.4160565"
Masjid-e-Sham Shuz Zoha,Mosque,"8F66+2VV Masjid-e-Sham Shuz Zoha, Jahangirabad, Chandrayangutta, Hyderabad, Telangana 500005","Jahangirabad, Chandrayangutta",8F66+2VV,Hyderabad,500005,Telangana,IN,https://www.google.com/maps/place/Masjid-e-Sham+Shuz+Zoha/data=!4m7!3m6!1s0x3bcbbd387591b0f9:0x85cadf69c7370eb!8m2!3d17.3101091!4d78.4621586!16s%2Fg%2F11dfgwgpd2!19sChIJ-bCRdTi9yzsR63BznPatXAg?authuser=0&hl=en&rclk=1,"17.3101091,78.4621586"
Jama Masjid-E-Salahuddin Khan,Mosque,"9F4G+XF6 Jama Masjid-E-Salahuddin Khan, Rajpal Nagar, Moghalpura, Hyderabad, Telangana 500002","Rajpal Nagar, Moghalpura",9F4G+XF6,Hyderabad,500002,Telangana,IN,https://www.google.com/maps/place/Jama+Masjid-E-Salahuddin+Khan/data=!4m7!3m6!1s0x3bcb981ff645ef55:0x320ffc54d8e1c0fe!8m2!3d17.3574201!4d78.476131!16s%2Fg%2F1ptz4p1gm!19sChIJVe9F9h-YyzsR_sDh2FT8DzI?authuser=0&hl=en&rclk=1,"17.3574201,78.476131"
Masjid-e-Rohella,Mosque,"Masjid-e-Rohella, 20-4-631, Mahboob Chowk, Khilwat, Hyderabad, Telangana 500064","Mahboob Chowk, Khilwat",20-4-631,Hyderabad,500064,Telangana,IN,https://www.google.com/maps/place/Masjid-e-Rohella/data=!4m7!3m6!1s0x3bcb978c90fa2343:0xa0b59c20e128043e!8m2!3d17.359079!4d78.4686607!16s%2Fg%2F11cs696rpg!19sChIJQyP6kIyXyzsRPgQo4SCctaA?authuser=0&hl=en&rclk=1,"17.359078999999998,78.4686607"
"Jama Masjid Qutubuddin Guda, Ahle Sunnatul Jamaat",Mosque,"966Q+JCG Jama Masjid Qutubuddin Guda, Ahle Sunnatul Jamaat, qutubuddin guda, Moinabad, Telangana 501504",,966Q+JCG qutubuddin guda,Moinabad,501504,Telangana,IN,"https://www.google.com/maps/place/Jama+Masjid+Qutubuddin+Guda,+Ahle+Sunnatul+Jamaat/data=!4m7!3m6!1s0x3bcbeb9f456bd9fb:0x79f5c4f4d24a9f38!8m2!3d17.3615625!4d78.2385625!16s%2Fg%2F11gnsrc9_2!19sChIJ-9lrRZ_ryzsROJ9K0vTE9Xk?authuser=0&hl=en&rclk=1","17.361562499999998,78.2385625"
Masjid-e-Fasih Jung - msjdi fSyH jng,Mosque,"Masjid-e-Fasih Jung - msjdi fSyH jng, 5-2-1008, NH 65, Herza Estate, Risala Abdullah Colony, Jam Bagh, Hyderabad, Telangana 500012","Herza Estate, Risala Abdullah Colony, Jam Bagh","5-2-1008, NH 65",Hyderabad,500012,Telangana,IN,https://www.google.com/maps/place/Masjid-e-Fasih+Jung+-+%D9%85%D8%B3%D8%AC%D8%AF%D9%90+%D9%81%D8%B5%DB%8C%D8%AD+%D8%AC%D9%86%DA%AF%E2%80%AD/data=!4m7!3m6!1s0x3bcb977fe015babf:0x50c6485da229fdde!8m2!3d17.3818566!4d78.4749026!16s%2Fg%2F11cp5r2l7k!19sChIJv7oV4H-XyzsR3v0pol1IxlA?authuser=0&hl=en&rclk=1,"17.3818566,78.4749026"
Masjid-e-Masoodiya,Mosque,"Masjid-e-Masoodiya, Hussaini Tekri, Mahmood Nagar Rd, Ali Nagar, Kishan Bagh, Hyderabad, Telangana 500264","Ali Nagar, Kishan Bagh","Hussaini Tekri, Mahmood Nagar Rd",Hyderabad,500264,Telangana,IN,https://www.google.com/maps/place/Masjid-e-Masoodiya/data=!4m7!3m6!1s0x3bcb97c7edb27689:0x17cad2006908d698!8m2!3d17.354571!4d78.4422836!16s%2Fg%2F1tdxcr1r!19sChIJiXay7ceXyzsRmNYIaQDSyhc?authuser=0&hl=en&rclk=1,"17.354571,78.4422836"
Masjid-e-Shehzadi Begum,Mosque,"Masjid-e-Shehzadi Begum, 19-2-24/1/3, New Shamsheer Gunj Rd, Ali Bagh, Model Town Colony, Tekdi Colony, Nawab Saheb Kunta, Hyderabad, Telangana 500053","Ali Bagh, Model Town Colony, Tekdi Colony, Nawab Saheb Kunta","19-2-24/1/3, New Shamsheer Gunj Rd",Hyderabad,500053,Telangana,IN,https://www.google.com/maps/place/Masjid-e-Shehzadi+Begum/data=!4m7!3m6!1s0x3bcb97e59ce2816d:0xf3bfd7610c7a351f!8m2!3d17.3441934!4d78.4606896!16s%2Fg%2F1xgrldbs!19sChIJbYHinOWXyzsRHzV6DGHXv_M?authuser=0&hl=en&rclk=1,"17.344193399999998,78.4606896"
Badam Masjid,Mosque,"Badam Masjid, 18-6-595, Lal Darwaza Rd, Maqdoompura, Lal Darwaza South, Lal Darwaza, Hyderabad, Telangana 500053","Maqdoompura, Lal Darwaza South, Lal Darwaza","18-6-595, Lal Darwaza Rd",Hyderabad,500053,Telangana,IN,https://www.google.com/maps/place/Badam+Masjid/data=!4m7!3m6!1s0x3bcb9802ca9224f5:0x14bfb257d8b7fcae!8m2!3d17.3458102!4d78.4766818!16s%2Fg%2F11bbydz2bg!19sChIJ9SSSygKYyzsRrvy32FeyvxQ?authuser=0&hl=en&rclk=1,"17.3458102,78.4766818"
Masjid Bagh Burq Jung,Mosque,"Masjid Bagh Burq Jung, 12-2-416/36, Gudi Malkapur Rd, Sarada Nagar Colony, Murad Nagar, Hyderabad, Telangana 500028","Sarada Nagar Colony, Murad Nagar","12-2-416/36, Gudi Malkapur Rd",Hyderabad,500028,Telangana,IN,https://www.google.com/maps/place/Masjid+Bagh+Burq+Jung/data=!4m7!3m6!1s0x3bcb9706409fe7c5:0xba7855f501da3508!8m2!3d17.382804!4d78.4396657!16s%2Fg%2F1tjjmt_3!19sChIJxeefQAaXyzsRCDXaAfVVeLo?authuser=0&hl=en&rclk=1,"17.382804,78.43966569999999"
Masjid-e-Khudanumai,Mosque,"Masjid-e-Khudanumai, 13-7-1080/3, Ziaguda, Hyderabad, Telangana 500006",Ziaguda,13-7-1080/3,Hyderabad,500006,Telangana,IN,https://www.google.com/maps/place/Masjid-e-Khudanumai/data=!4m7!3m6!1s0x3bcb97a333578541:0x570d160f6bf1a79c!8m2!3d17.3676194!4d78.4485617!16s%2Fg%2F11g8wj512b!19sChIJQYVXM6OXyzsRnKfxaw8WDVc?authuser=0&hl=en&rclk=1,"17.3676194,78.4485617"
Masjid-e-Sharfuddin,Mosque,"Masjid-e-Sharfuddin, 14-20-561/3, Masjid-e-Sharfuddin Rd, Rajiv Gandhi Nagar, Borabanda, Hyderabad, Telangana 500018","Rajiv Gandhi Nagar, Borabanda","14-20-561/3, Masjid-e-Sharfuddin Rd",Hyderabad,500018,Telangana,IN,https://www.google.com/maps/place/Masjid-e-Sharfuddin/data=!4m7!3m6!1s0x3bcb910ddcfc907b:0xf4a25410cbe606bd!8m2!3d17.460212!4d78.4120369!16s%2Fg%2F11bx8pr570!19sChIJe5D83A2RyzsRvQbmyxBUovQ?authuser=0&hl=en&rclk=1,"17.460212,78.41203689999999"
Masjid Bahadurganj,Mosque,"2234+WC5 Masjid Bahadurganj, Ujhani, Uttar Pradesh 243639",,2234+WC5,Ujhani,243639,Uttar Pradesh,IN,https://www.google.com/maps/place/Masjid+Bahadurganj/data=!4m7!3m6!1s0x3975386493247a71:0xcd1230e44239359b!8m2!3d28.004756!4d79.0061126!16s%2Fg%2F11c56xyg1d!19sChIJcXokk2Q4dTkRmzU5QuQwEs0?authuser=0&hl=en&rclk=1,"28.004756,79.0061126"
AL-HAJ SHAHNAZ BEGUM MACCA MASJID,Mosque,"8F3M+334 AL-HAJ SHAHNAZ BEGUM MACCA MASJID, Sadat Nagar, Chandrayangutta, Hyderabad, Telangana 500005","Sadat Nagar, Chandrayangutta",8F3M+334,Hyderabad,500005,Telangana,IN,https://www.google.com/maps/place/AL-HAJ+SHAHNAZ+BEGUM+MACCA+MASJID/data=!4m7!3m6!1s0x3bcba2cef61c6dfb:0xa02714090fb93e5e!8m2!3d17.30263!4d78.4827132!16s%2Fg%2F11d_265z9q!19sChIJ-20c9s6iyzsRXj65DwkUJ6A?authuser=0&hl=en&rclk=1,"17.30263,78.48271319999999"
Masjid-e-Bardaan,Mosque,"Masjid-e-Bardaan, Mustafa Hills, Chandrayangutta, Hyderabad, Telangana 500005","Mustafa Hills, Chandrayangutta",,Hyderabad,500005,Telangana,IN,https://www.google.com/maps/place/Masjid-e-Bardaan/data=!4m7!3m6!1s0x3bcbbd2e3a26eb5f:0xeefd8665ec5f8b3!8m2!3d17.2977441!4d78.4674976!16s%2Fg%2F11fx6xjh51!19sChIJX-smOi69yzsRs_jFXmbY7w4?authuser=0&hl=en&rclk=1,"17.2977441,78.4674976"
"MASJID E MAHMOODAH, msjd mHmwdh",Mosque,"7FW6+4G8 MASJID E MAHMOODAH, msjd mHmwdh, WADI-E-MUSTAFA,JALLEPALLI, Hyderabad, Telangana 500005","Mustafa Hills, Chandrayangutta","7FW6+4G8, WADI-E-MUSTAFA,JALLEPALLI",Hyderabad,500005,Telangana,IN,"https://www.google.com/maps/place/MASJID+E+MAHMOODAH,+%D9%85%D8%B3%D8%AC%D8%AF+%D9%85%D8%AD%D9%85%D9%88%D8%AF%DB%81%E2%80%AD/data=!4m7!3m6!1s0x3bcbbd9ad0580423:0x434d6151f2a279ee!8m2!3d17.2952957!4d78.4613336!16s%2Fg%2F11g1_hp577!19sChIJIwRY0Jq9yzsR7nmi8lFhTUM?authuser=0&hl=en&rclk=1","17.2952957,78.4613336"
Jamia Masjid Mandi Mir Alam,Mosque,"9F8H+469 Jamia Masjid Mandi Mir Alam, Mir Alam Mandi Rd, Mir Alam Mandi, Pathar Gatti, Hyderabad, Telangana 500002","Mir Alam Mandi, Pathar Gatti","9F8H+469, Mir Alam Mandi Rd",Hyderabad,500002,Telangana,IN,https://www.google.com/maps/place/Jamia+Masjid+Mandi+Mir+Alam/data=!4m7!3m6!1s0x3bcb9826e21e12f3:0xd46f664e13072b01!8m2!3d17.3652774!4d78.4781034!16s%2Fg%2F1hd_l0hrv!19sChIJ8xIe4iaYyzsRASsHE05mb9Q?authuser=0&hl=en&rclk=1,"17.3652774,78.4781034"
MASJID E SALIHA,Mosque,"69HV+HX5 MASJID E SALIHA, Unnamed Road, Golkonda Khurd, Hyderabad, Telangana 501218",,"69HV+HX5, Unnamed Road","Golkonda Khurd, Hyderabad",501218,Telangana,IN,https://www.google.com/maps/place/MASJID+E+SALIHA/data=!4m7!3m6!1s0x3bcbbbfa721619bf:0xd517fe51918cdb0d!8m2!3d17.2288871!4d78.3949839!16s%2Fg%2F11c2r12f_6!19sChIJvxkWcvq7yzsRDduMkVH-F9U?authuser=0&hl=en&rclk=1,"17.228887099999998,78.3949839"
Masjid-E-Zamrud,Mosque,"9F3F+G47 Masjid-E-Zamrud, Asha Talkies Rd, Zohra Colony, Shalibanda, Hyderabad, Telangana 500053","Zohra Colony, Shalibanda","9F3F+G47, Asha Talkies Rd",Hyderabad,500053,Telangana,IN,https://www.google.com/maps/place/Masjid-E-Zamrud/data=!4m7!3m6!1s0x3bcb97f5ae1567a1:0x1d6d54b80a44a0ce!8m2!3d17.3537889!4d78.4727947!16s%2Fg%2F1q2wddd3d!19sChIJoWcVrvWXyzsRzqBECrhUbR0?authuser=0&hl=en&rclk=1,"17.353788899999998,78.4727947"
Masjid-e-Hajeraturaab,Mosque,"9C9X+5GC Masjid-e-Hajeraturaab, Rajan Colony, Tad Bun, Hyderabad, Telangana 500064","Rajan Colony, Tad Bun",9C9X+5GC,Hyderabad,500064,Telangana,IN,https://www.google.com/maps/place/Masjid-e-Hajeraturaab/data=!4m7!3m6!1s0x3bcb97e7c45a6c5f:0x22dc61b5bc91ceaf!8m2!3d17.3679423!4d78.4487663!16s%2Fg%2F11f00d0l08!19sChIJX2xaxOeXyzsRr86RvLVh3CI?authuser=0&hl=en&rclk=1,"17.3679423,78.4487663"
Masjid-e-Khalifa Noor ul Hasnath,Mosque,"Masjid-e-Khalifa Noor ul Hasnath, 19-3-9/1, Farook Nagar, Vattepally, Hyderabad, Telangana 500053","Farook Nagar, Vattepally",19-3-9/1,Hyderabad,500053,Telangana,IN,https://www.google.com/maps/place/Masjid-e-Khalifa+Noor+ul+Hasnath/data=!4m7!3m6!1s0x3bcbbd5bcd2dde0d:0xe90b79353433d1c6!8m2!3d17.3265558!4d78.4609435!16s%2Fg%2F11cssyhg9d!19sChIJDd4tzVu9yzsRxtEzNDV5C-k?authuser=0&hl=en&rclk=1,"17.326555799999998,78.4609435"
Masjid-e-azharuddin azhar,Mosque,"7FXF+793 Masjid-e-azharuddin azhar, Mohammed Nagar, Chandrayangutta, Hyderabad, Telangana 500005","Mohammed Nagar, Chandrayangutta",7FXF+793,Hyderabad,500005,Telangana,IN,https://www.google.com/maps/place/Masjid-e-azharuddin+azhar/data=!4m7!3m6!1s0x3bcbbdfdeb28d8d7:0xfc3052ea4b8244a0!8m2!3d17.2981465!4d78.4734215!16s%2Fg%2F11h1953khb!19sChIJ19go6_29yzsRoESCS-pSMPw?authuser=0&hl=en&rclk=1,"17.298146499999998,78.4734215"
Masjid E Noor,Mosque,"Masjid E Noor, 3-43, 3-43, Manchal, Telangana 501508",,"3-43, 3-43, Manchal",Manchal,501508,Telangana,IN,https://www.google.com/maps/place/Masjid+E+Noor/data=!4m7!3m6!1s0x3bcb0620881d2c7b:0x4bf843300bba90db!8m2!3d17.1612231!4d78.7221027!16s%2Fg%2F11c3109ks7!19sChIJeywdiCAGyzsR25C6CzBD-Es?authuser=0&hl=en&rclk=1,"17.1612231,78.7221027"
Jamia Masjid Jamshedpur,Mosque,"JQC5+5VH Jamia Masjid Jamshedpur, Jamshedapur, Telangana 501202",,JQC5+5VH,Jamshedapur,,Telangana,IN,https://www.google.com/maps/place/Jamia+Masjid+Jamshedpur/data=!4m7!3m6!1s0x3bc9538c66ee213d:0x4097849572d264d2!8m2!3d17.6204348!4d77.7597397!16s%2Fg%2F11h338f8f1!19sChIJPSHuZoxTyTsR0mTScpWEl0A?authuser=0&hl=en&rclk=1,"17.620434799999998,77.7597397"
Bahadurganj Jama Masjid,Mosque,"7R6F+GQ8 Bahadurganj Jama Masjid, Chapwaal Basti, Bahadurganj, Bihar 855101",Chapwaal Basti,7R6F+GQ8,Bahadurganj,855101,Bihar,IN,https://www.google.com/maps/place/Bahadurganj+Jama+Masjid/data=!4m7!3m6!1s0x39e572fd5f8542c5:0xf656bda45f7dc5cb!8m2!3d26.2612806!4d87.8244489!16s%2Fg%2F11gcqx2d99!19sChIJxUKFX_1y5TkRy8V9X6S9VvY?authuser=0&hl=en&rclk=1,"26.2612806,87.8244489"
Masjid Al Harmain,Mosque,"Masjid Al Harmain, Challenger International School Village, Surangal Rd, beside Moinabad, Moinabad, Telangana 500054",,"Challenger International School Village, Surangal Rd, beside Moinabad",Moinabad,500054,Telangana,IN,https://www.google.com/maps/place/Masjid+Al+Harmain/data=!4m7!3m6!1s0x3bcbeaa094dc9eed:0x90038c5d2b00f100!8m2!3d17.3238899!4d78.2744218!16s%2Fg%2F11c30rhx34!19sChIJ7Z7clKDqyzsRAPEAK12MA5A?authuser=0&hl=en&rclk=1,"17.323889899999998,78.2744218"
Masjid-e-Shahamat Jung,Mosque,"Masjid-e-Shahamat Jung, Moosa Bowli, Golla Galli, Ghansi Bazaar, Hyderabad, Telangana 500264","Moosa Bowli, Golla Galli, Ghansi Bazaar",,Hyderabad,,Telangana,IN,https://www.google.com/maps/place/Masjid-e-Shahamat+Jung/data=!4m7!3m6!1s0x3bcb978e87d35159:0x632d5f7eb0776a48!8m2!3d17.3635163!4d78.4668562!16s%2Fg%2F1ygvswgwf!19sChIJWVHTh46XyzsRSGp3sH5fLWM?authuser=0&hl=en&rclk=1,"17.3635163,78.4668562"
Masjid E Ilahi,Mosque,"8CVF+85W Masjid E Ilahi, Wadi-E-Mahmood, Chintalmet, Hyderabad, Telangana 500030","Wadi-E-Mahmood, Chintalmet",8CVF+85W,Hyderabad,500030,Telangana,IN,https://www.google.com/maps/place/Masjid+E+Ilahi/data=!4m7!3m6!1s0x3bcb979ffdc12917:0x150407717256b2e2!8m2!3d17.3433563!4d78.4229376!16s%2Fg%2F11jcm6g30x!19sChIJFynB_Z-XyzsR4rJWcnEHBBU?authuser=0&hl=en&rclk=1,"17.3433563,78.4229376"
Masjid e shah chanda hussaini,Mosque,"779V+8RQ Masjid e shah chanda hussaini, Kotwaldoddi, Telangana 509217",,779V+8RQ,Kotwaldoddi,509217,Telangana,IN,https://www.google.com/maps/place/Masjid+e+shah+chanda+hussaini/data=!4m7!3m6!1s0x3bcbbf03b2c97ebd:0x1b3551a69d0195bb!8m2!3d17.2683263!4d78.2945974!16s%2Fg%2F11h7r8hl_m!19sChIJvX7JsgO_yzsRu5UBnaZRNRs?authuser=0&hl=en&rclk=1,"17.2683263,78.2945974"
Masjid E Khaled Bin Wali,Mosque,"MQ47+PRW Masjid E Khaled Bin Wali, Lingampally, Telangana 502321",,MQ47+PRW,Lingampally,,Telangana,IN,https://www.google.com/maps/place/Masjid+E+Khaled+Bin+Wali/data=!4m7!3m6!1s0x3bc9530325eb078f:0x378babc6fe364ef0!8m2!3d17.6568618!4d77.7645738!16s%2Fg%2F11f5_6j1rd!19sChIJjwfrJQNTyTsR8E42_sarizc?authuser=0&hl=en&rclk=1,"17.656861799999998,77.7645738"
Masjid E Maqbarah,Mosque,"Masjid E Maqbarah, 15-9-219, Maharani Jhansi Rd, Maharaj Gunj, Jam Bagh, Hyderabad, Telangana 500012","Maharaj Gunj, Jam Bagh","15-9-219, Maharani Jhansi Rd",Hyderabad,500012,Telangana,IN,https://www.google.com/maps/place/Masjid+E+Maqbarah/data=!4m7!3m6!1s0x3bcb982bb292e81b:0x916b2c7be3ae4563!8m2!3d17.377238!4d78.4781631!16s%2Fg%2F11f3n360f_!19sChIJG-iSsiuYyzsRY0Wu43ssa5E?authuser=0&hl=en&rclk=1,"17.377238,78.4781631"
Masjid-E-Tahera,Mosque,"8FGG+XRM Masjid-E-Tahera, Gazia-E-Millat Colony, Falaknuma, Hyderabad, Telangana 500053","Gazia-E-Millat Colony, Falaknuma",8FGG+XRM,Hyderabad,500053,Telangana,IN,https://www.google.com/maps/place/Masjid-E-Tahera/data=!4m7!3m6!1s0x3bcba2ac91414f7d:0x1767943cbfeada38!8m2!3d17.327459!4d78.4770398!16s%2Fg%2F11g9vnzhwd!19sChIJfU9BkayiyzsRONrqvzyUZxc?authuser=0&hl=en&rclk=1,"17.327458999999998,78.4770398"
Jama Masjidh,Mosque,"HF32+QXC Jama Masjidh, Hussainnagar, Telangana 503165",,HF32+QXC,Hussainnagar,,Telangana,IN,https://www.google.com/maps/place/Jama+Masjidh/data=!4m7!3m6!1s0x3bcdb1d59cfd7c2f:0x7b5a898c057f6253!8m2!3d18.5544333!4d78.4524019!16s%2Fg%2F11ghp_zvtd!19sChIJL3z9nNWxzTsRU2J_BYyJWns?authuser=0&hl=en&rclk=1,"18.5544333,78.4524019"
Masjid Fatimah Ghulam Hussain,Mosque,"8FV2+FV2 Masjid Fatimah Ghulam Hussain, Rajan Colony, Tad Bun, Hyderabad, Telangana 500064","Rajan Colony, Tad Bun",8FV2+FV2,Hyderabad,500064,Telangana,IN,https://www.google.com/maps/place/Masjid+Fatimah+Ghulam+Hussain/data=!4m7!3m6!1s0x3bcb97dd59858717:0xce0e844f430fa51e!8m2!3d17.3436336!4d78.4521353!16s%2Fg%2F1tdp_l9q!19sChIJF4eFWd2XyzsRHqUPQ0-EDs4?authuser=0&hl=en&rclk=1,"17.3436336,78.4521353"
Masjid E Mazharallah,Mosque,"7FMF+94H Masjid E Mazharallah, Baba Nagar, Venkatapuram, Hyderabad, Telangana 500005","Baba Nagar, Venkatapuram",7FMF+94H,Hyderabad,500005,Telangana,IN,https://www.google.com/maps/place/Masjid+E+Mazharallah/data=!4m7!3m6!1s0x3bcbbcd4f3cfb717:0x38caac3fc014b0e4!8m2!3d17.283433!4d78.47285!16s%2Fg%2F11gdsz4qfv!19sChIJF7fP89S8yzsR5LAUwD-syjg?authuser=0&hl=en&rclk=1,"17.283433,78.47285"
Masjid-e-Shah Quli Bahadur,Mosque,"9CJR+3GP Masjid-e-Shah Quli Bahadur, Markandeya Nagar, Talla Gadda, Syed Ali Guda, Hyderabad, Telangana 500028","Markandeya Nagar, Talla Gadda, Syed Ali Guda",9CJR+3GP,Hyderabad,500028,Telangana,IN,https://www.google.com/maps/place/Masjid-e-Shah+Quli+Bahadur/data=!4m7!3m6!1s0x3bcb97f30e84f73d:0x55d03d1e0c08a044!8m2!3d17.3802185!4d78.4413233!16s%2Fg%2F11h6rsgr02!19sChIJPfeEDvOXyzsRRKAIDB490FU?authuser=0&hl=en&rclk=1,"17.380218499999998,78.4413233"
Masjid,Mosque,"Masjid, 20-4-231, Mahboob Chowk, Khilwat, Hyderabad, Telangana 500002","Mahboob Chowk, Khilwat",20-4-231,Hyderabad,500002,Telangana,IN,https://www.google.com/maps/place/Masjid/data=!4m7!3m6!1s0x3bcb978b12aee9fb:0xb37b7f5c91f4b4e0!8m2!3d17.3593732!4d78.4709548!16s%2Fg%2F11d_77hb7d!19sChIJ--muEouXyzsR4LT0kVx_e7M?authuser=0&hl=en&rclk=1,"17.3593732,78.4709548"
Masjid E Ahmed Zubaide,Mosque,"7FRG+P84 Masjid E Ahmed Zubaide, Mohsin Colony, Quba Colony, Venkatapuram, Hyderabad, Telangana 500005","Mohsin Colony, Quba Colony, Venkatapuram",7FRG+P84,Hyderabad,500005,Telangana,IN,https://www.google.com/maps/place/Masjid+E+Ahmed+Zubaide/data=!4m7!3m6!1s0x3bcba2d4c89678e9:0x2b161b6b450001c5!8m2!3d17.2917622!4d78.4758387!16s%2Fg%2F11c6v4rj1w!19sChIJ6XiWyNSiyzsRxQEARWsbFis?authuser=0&hl=en&rclk=1,"17.2917622,78.4758387"
Masjid Murtuzaguda,Mosque,"Masjid Murtuzaguda, 17.308907161145257, 78",,"17.308907161145257, 78",Murthuzaguda,,Telangana,IN,https://www.google.com/maps/place/Masjid+Murtuzaguda/data=!4m7!3m6!1s0x3bcbc00fced1bd57:0xb6138163ad7404e2!8m2!3d17.3089072!4d78.2828232!16s%2Fg%2F11f3wcvb_j!19sChIJV73Rzg_AyzsR4gR0rWOBE7Y?authuser=0&hl=en&rclk=1,"17.3089072,78.2828232"
Masjid,Place of worship,"75GH+JFH Masjid, Kandwada, Telangana 501503",,75GH+JFH,Kandwada,501503,Telangana,IN,https://www.google.com/maps/place/Masjid/data=!4m7!3m6!1s0x3bcbc249fbb029bf:0x34d8cbe162436acf!8m2!3d17.2765671!4d78.1787443!16s%2Fg%2F11f1272x3s!19sChIJvymw-0nCyzsRz2pDYuHL2DQ?authuser=0&hl=en&rclk=1,"17.276567099999998,78.17874429999999"
Masjid-e-Saleha Begum,Mosque,"9F6H+94M Masjid-e-Saleha Begum, Charminar (Old City), Chowk Mohammed Khan, Kotla Alijah, Moghalpura, Hyderabad, Telangana 500002","Charminar (Old City), Chowk Mohammed Khan, Kotla Alijah, Moghalpura",9F6H+94M,Hyderabad,500002,Telangana,IN,https://www.google.com/maps/place/Masjid-e-Saleha+Begum/data=!4m7!3m6!1s0x3bcb9820fc3a997b:0x21fa7016d165092b!8m2!3d17.3609619!4d78.4778121!16s%2Fg%2F1yh4g8pt3!19sChIJe5k6_CCYyzsRKwll0RZw-iE?authuser=0&hl=en&rclk=1,"17.3609619,78.4778121"
Masjid Jand bi sahiba,Mosque,"Masjid Jand bi sahiba, 15, Safdar Nagar, Borabanda, Hyderabad, Telangana 500018","Safdar Nagar, Borabanda",15,Hyderabad,500018,Telangana,IN,https://www.google.com/maps/place/Masjid+Jand+bi+sahiba/data=!4m7!3m6!1s0x3bcb91dd1fe90479:0x823d9581e53a3fed!8m2!3d17.4635867!4d78.4061391!16s%2Fg%2F11htkj1s2t!19sChIJeQTpH92RyzsR7T865YGVPYI?authuser=0&hl=en&rclk=1,"17.4635867,78.40613909999999"
Masjid Daaee Murtuza,Mosque,"Masjid Daaee Murtuza, 23-2-367, Sultan Shahi Rd, Moghalpura, Hyderabad, Telangana 500002",Moghalpura,"23-2-367, Sultan Shahi Rd",Hyderabad,500002,Telangana,IN,https://www.google.com/maps/place/Masjid+Daaee+Murtuza/data=!4m7!3m6!1s0x3bcb981f1290a881:0xc31b8c131f00081c!8m2!3d17.356126!4d78.4787489!16s%2Fg%2F11d_78nyr2!19sChIJgaiQEh-YyzsRHAgAHxOMG8M?authuser=0&hl=en&rclk=1,"17.356126,78.4787489"
Masjid,Mosque,"FC33+6J8 Masjid, NRR Puram, Borabanda, Hyderabad, Telangana 500018","NRR Puram, Borabanda",FC33+6J8,Hyderabad,500018,Telangana,IN,https://www.google.com/maps/place/Masjid/data=!4m7!3m6!1s0x3bcb919af6d64f49:0x52b2a80bcca39887!8m2!3d17.4530286!4d78.4040798!16s%2Fg%2F11jgx6nvz5!19sChIJSU_W9pqRyzsRh5ijzAuoslI?authuser=0&hl=en&rclk=1,"17.4530286,78.40407979999999"
"Masjid Omer E Farooq, Daira Qabrastan",Mosque,"9F6M+2G3 Masjid Omer E Farooq, Daira Qabrastan, Rangeela Shah Mohalla, Yakhutpura, Hyderabad, Telangana 500002","Rangeela Shah Mohalla, Yakhutpura",9F6M+2G3,Hyderabad,500002,Telangana,IN,"https://www.google.com/maps/place/Masjid+Omer+E+Farooq,+Daira+Qabrastan/data=!4m7!3m6!1s0x3bcb99df6b9d1437:0x70ee66cef83af929!8m2!3d17.3600247!4d78.4838122!16s%2Fg%2F11r4lzx77m!19sChIJNxSda9-ZyzsRKfk6-M5m7nA?authuser=0&hl=en&rclk=1","17.3600247,78.4838122"
Jama Masjid Kolenguda,Mosque,"4H3R+8CV Jama Masjid Kolenguda, Konalagudem, Telangana 501506",,4H3R+8CV,Konalagudem,501506,Telangana,IN,https://www.google.com/maps/place/Jama+Masjid+Kolenguda/data=!4m7!3m6!1s0x3bcba91f236f13db:0xa7511554d8c08be2!8m2!3d17.1033609!4d78.5910422!16s%2Fg%2F11hctjt0jy!19sChIJ2xNvIx-pyzsR4ovA2FQVUac?authuser=0&hl=en&rclk=1,"17.1033609,78.59104219999999"
Masjid-e-Shahmat Jung,Mosque,"Masjid-e-Shahmat Jung, 21-4-817, Hussaini Alam Rd, Gulab Singh Bowli, Puranapool, Hyderabad, Telangana 500264","Gulab Singh Bowli, Puranapool","21-4-817, Hussaini Alam Rd",Hyderabad,500264,Telangana,IN,https://www.google.com/maps/place/Masjid-e-Shahmat+Jung/data=!4m7!3m6!1s0x3bcb9790e31094f1:0x373563961ca8b71b!8m2!3d17.3654563!4d78.460198!16s%2Fg%2F11c6cy87_b!19sChIJ8ZQQ45CXyzsRG7eoHJZjNTc?authuser=0&hl=en&rclk=1,"17.365456299999998,78.46019799999999"
MASJID E MUTAHARA,Mosque,"9F3F+WPV MASJID E MUTAHARA, Hari Bowli Rd, Moghalpura, Hyderabad, Telangana 500002",Moghalpura,"9F3F+WPV, Hari Bowli Rd",Hyderabad,500002,Telangana,IN,https://www.google.com/maps/place/MASJID+E+MUTAHARA/data=!4m7!3m6!1s0x3bcb97f576bd85f9:0x7cea0a49c0a94490!8m2!3d17.3548523!4d78.4743056!16s%2Fg%2F11c5b23mxz!19sChIJ-YW9dvWXyzsRkESpwEkK6nw?authuser=0&hl=en&rclk=1,"17.354852299999997,78.4743056"
MASJID,Mosque,"8FC2+7MQ MASJID, Moghals Colony, Weaker Section Colony, Falaknuma, Hyderabad, Telangana 500005","Moghals Colony, Weaker Section Colony, Falaknuma",8FC2+7MQ,Hyderabad,500005,Telangana,IN,https://www.google.com/maps/place/MASJID/data=!4m7!3m6!1s0x3bcbbd18f831e78b:0x41bb3a433c1a0b06!8m2!3d17.3207064!4d78.4517495!16s%2Fg%2F11qg_zgpms!19sChIJi-cx-Bi9yzsRBgsaPEM6u0E?authuser=0&hl=en&rclk=1,"17.3207064,78.45174949999999"
MASJID E RAUZA-TUL-KHAZRA,Mosque,"MASJID E RAUZA-TUL-KHAZRA, Masjid Raozatul Khazra, Shop No. 3 & 4, near R.K Hotel, Mohammed Nagar, Hyderabad, Telangana 500005","Mohammed Nagar, Chandrayangutta","Masjid Raozatul Khazra, Shop No. 3 & 4, near R.K Hotel",Hyderabad,500005,Telangana,IN,https://www.google.com/maps/place/MASJID+E+RAUZA-TUL-KHAZRA/data=!4m7!3m6!1s0x3bcbbd1d240f6a93:0x854cb48b91178e90!8m2!3d17.2984705!4d78.4691358!16s%2Fg%2F11q98373q9!19sChIJk2oPJB29yzsRkI4XkYu0TIU?authuser=0&hl=en&rclk=1,"17.2984705,78.46913579999999"
Masjid bahadurganj,Mosque,"7R7R+593 Masjid bahadurganj, bahadurganj, Kinjar, road, near Devi Sthan, Chikasi, Bihar",,"7R7R+593, bahadurganj, Kinjar, road, near Devi Sthan","Chikasi, Bahadurganj",,Bihar,IN,https://www.google.com/maps/place/Masjid+bahadurganj/data=!4m7!3m6!1s0x398d49aede9e3387:0x18bb93e7ef528b5b!8m2!3d25.2628955!4d84.8409357!16s%2Fg%2F11hw9xm2zd!19sChIJhzOe3q5JjTkRW4tS7-eTuxg?authuser=0&hl=en&rclk=1,"25.2628955,84.8409357"
Masjid-e-Baraqjung,Mosque,"9F87+XG4 Masjid-e-Baraqjung, Charmahal Petla Burz, Ghansi Bazaar, Hyderabad, Telangana 500264","Charmahal Petla Burz, Ghansi Bazaar",9F87+XG4,Hyderabad,500264,Telangana,IN,https://www.google.com/maps/place/Masjid-e-Baraqjung/data=!4m7!3m6!1s0x3bcb971a27affb77:0x3652fbb1d8a56aca!8m2!3d17.3673804!4d78.4638127!16s%2Fg%2F11kjnjvm4d!19sChIJd_uvJxqXyzsRymql2LH7UjY?authuser=0&hl=en&rclk=1,"17.3673804,78.46381269999999"
Abdullah salem bazuhier Masjid,Mosque,"9FWJ+M77 Abdullah salem bazuhier Masjid, Shergate, Old MLA Quarters, King Koti, Arsapally, Nizamabad, Hyderabad, Telangana","Shergate, Old MLA Quarters, King Koti, Arsapally",9FWJ+M77,"Nizamabad, Hyderabad",,Telangana,IN,https://www.google.com/maps/place/Abdullah+salem+bazuhier+Masjid/data=!4m7!3m6!1s0x3bcb9937945530a5:0x4724a371c78e8ef7!8m2!3d17.3966592!4d78.4806717!16s%2Fg%2F11twrmxtys!19sChIJpTBVlDeZyzsR946Ox3GjJEc?authuser=0&hl=en&rclk=1,"17.3966592,78.4806717"
Jama masjid e ghousiya,Mosque,"9F4V+249 Jama masjid e ghousiya, Rein Bazar, Yakutpura, Hyderabad, Telangana 500023","Rein Bazar, Yakutpura",9F4V+249,Hyderabad,500023,Telangana,IN,https://www.google.com/maps/place/Jama+masjid+e+ghousiya/data=!4m7!3m6!1s0x3bcb990d6c92fa5d:0x2ab880e11a0c0960!8m2!3d17.3550479!4d78.4928649!16s%2Fg%2F11rkn83__t!19sChIJXfqSbA2ZyzsRYAkMGuGAuCo?authuser=0&hl=en&rclk=1,"17.3550479,78.4928649"
Masjid E Fatehullah,Mosque,"9F6V+M89 Masjid E Fatehullah, Bagh-e-Jahan Ara, Dabeerpura, Hyderabad, Telangana 500023","Bagh-e-Jahan Ara, Dabeerpura",9F6V+M89,Hyderabad,500023,Telangana,IN,https://www.google.com/maps/place/Masjid+E+Fatehullah/data=!4m7!3m6!1s0x3bcb983e8bcfffff:0x6d89a7ca71f65d15!8m2!3d17.3616746!4d78.4933525!16s%2Fg%2F11kj3f7v05!19sChIJ___Piz6YyzsRFV32ccqniW0?authuser=0&hl=en&rclk=1,"17.3616746,78.4933525"
Masjid e hajera,Mosque,"Masjid e hajera, 19-2-131/D, Tadban, Rajan Colony, Tad Bun, Hyderabad, Telangana 500064","Tadban, Rajan Colony, Tad Bun",19-2-131/D,Hyderabad,500064,Telangana,IN,https://www.google.com/maps/place/Masjid+e+hajera/data=!4m7!3m6!1s0x3bcb97b22c95bf11:0x74e22d35b60a5a46!8m2!3d17.3436941!4d78.4543961!16s%2Fg%2F11t646zmdh!19sChIJEb-VLLKXyzsRRloKtjUt4nQ?authuser=0&hl=en&rclk=1,"17.3436941,78.4543961"
Masjid e shohda,Mosque,"H No. 17, Masjid e shohda, 1-310/2/A/1, Owaisi Nagar, Hasnabad, Santosh Nagar, Hyderabad, Telangana 500059","Owaisi Nagar, Hasnabad, Santosh Nagar","H No. 17, 1-310/2/A/1",Hyderabad,500059,Telangana,IN,https://www.google.com/maps/place/Masjid+e+shohda/data=!4m7!3m6!1s0x3bcb9934ae970f0d:0x22da0fc411094f45!8m2!3d17.3427675!4d78.5041308!16s%2Fg%2F11qb08xk9x!19sChIJDQ-XrjSZyzsRRU8JEcQP2iI?authuser=0&hl=en&rclk=1,"17.3427675,78.5041308"
Masjid Road,Mosque,"FC36+C86 Masjid Road, Mohammedia Masjid Rd, Site 2, Swaraj Nagar, Borabanda, Hyderabad, Telangana 500018","Site 2, Swaraj Nagar, Borabanda","FC36+C86, Mohammedia Masjid Rd",Hyderabad,500018,Telangana,IN,https://www.google.com/maps/place/Masjid+Road/data=!4m7!3m6!1s0x3bcb9108524e2453:0x5d9bc5285739761e!8m2!3d17.4535334!4d78.4107681!16s%2Fg%2F11hdss3c39!19sChIJUyROUgiRyzsRHnY5VyjFm10?authuser=0&hl=en&rclk=1,"17.453533399999998,78.4107681"
Masjid Road,Mosque,"8F64+3VQ Masjid Road, Vyasa Puri, Chandrayangutta, Hyderabad, Telangana 500005","Vyasa Puri, Chandrayangutta","8F64+3VQ, Masjid Road",Hyderabad,500005,Telangana,IN,https://www.google.com/maps/place/Masjid+Road/data=!4m7!3m6!1s0x3bcbbd7e34149c99:0xf81eb7fd9eb5030!8m2!3d17.3102145!4d78.4572486!16s%2Fg%2F11r25bxvrk!19sChIJmZwUNH69yzsRMFDr2X_rgQ8?authuser=0&hl=en&rclk=1,"17.3102145,78.4572486"
Masjid E Shaka,Mosque,"9CCX+V6X Masjid E Shaka, Subji Mandi, Tuljaram Nagar, Hyderabad, Telangana 500006","Subji Mandi, Tuljaram Nagar",9CCX+V6X,Hyderabad,500006,Telangana,IN,https://www.google.com/maps/place/Masjid+E+Shaka/data=!4m7!3m6!1s0x3bcb97a3ea1722d9:0x948d486e66ca46a6!8m2!3d17.3722295!4d78.4481241!16s%2Fg%2F11b5yjg7tv!19sChIJ2SIX6qOXyzsRpkbKZm5IjZQ?authuser=0&hl=en&rclk=1,"17.3722295,78.4481241"
Ghousia E Masjid,Mosque,"Ghousia E Masjid, 20-2-663, Fatema Colony, Hussaini Alam, Hyderabad, Telangana 500264","Fatema Colony, Hussaini Alam",20-2-663,Hyderabad,500264,Telangana,IN,https://www.google.com/maps/place/Ghousia+E+Masjid/data=!4m7!3m6!1s0x3bcb978df852e499:0xcac996c3a3d8dc9b!8m2!3d17.3629118!4d78.4650649!16s%2Fg%2F11dfh55z6f!19sChIJmeRS-I2XyzsRm9zYo8OWyco?authuser=0&hl=en&rclk=1,"17.3629118,78.4650649"
Masjid-a-zhora,Mosque,"7FV8+V2W Masjid-a-zhora, Mustafa Hills, Chandrayangutta, Hyderabad, Telangana 500005","Mustafa Hills, Chandrayangutta",7FV8+V2W,Hyderabad,500005,Telangana,IN,https://www.google.com/maps/place/Masjid-a-zhora/data=!4m7!3m6!1s0x3bcbbd50f4705e2f:0xb5934025b3964b0d!8m2!3d17.2947278!4d78.4650934!16s%2Fg%2F11pwslrs1h!19sChIJL15w9FC9yzsRDUuWsyVAk7U?authuser=0&hl=en&rclk=1,"17.2947278,78.4650934"
Masjid-E-Hussain,Mosque,"W2FR+5W5 Masjid-E-Hussain, Gurukunta, Darpalle, Telangana 509340",,W2FR+5W5,"Gurukunta, Darpalle",,Telangana,IN,https://www.google.com/maps/place/Masjid-E-Hussain/data=!4m7!3m6!1s0x3bca2d7ed121491f:0x7f1115ace3afdc8c!8m2!3d16.9215688!4d78.0427132!16s%2Fg%2F11kjl81ygj!19sChIJH0kh0X4tyjsRjNyv46wVEX8?authuser=0&hl=en&rclk=1,"16.9215688,78.0427132"
Jama Masjid Lokurthy,Mosque,"VGGF+9MH Jama Masjid Lokurthy, Lokurthy, Telangana 509407",,VGGF+9MH,Lokurthy,,Telangana,IN,https://www.google.com/maps/place/Jama+Masjid+Lokurthy/data=!4m7!3m6!1s0x3bc9a162fe433ddb:0x758e11e821a3c0c3!8m2!3d16.8759442!4d77.5242329!16s%2Fg%2F11rmsgjl56!19sChIJ2z1D_mKhyTsRw8CjIegRjnU?authuser=0&hl=en&rclk=1,"16.8759442,77.5242329"
Masjid Soudagara,Mosque,"9F97+X8F Masjid Soudagara, Jummerat Bazar, Jumeraat Bazaar, Chudi Bazaar, Hyderabad, Telangana 500012","Jummerat Bazar, Jumeraat Bazaar, Chudi Bazaar",9F97+X8F,Hyderabad,500012,Telangana,IN,https://www.google.com/maps/place/Masjid+Soudagara/data=!4m7!3m6!1s0x3bcb97da42eb0e25:0xe4601872beb7c971!8m2!3d17.3699429!4d78.4633017!16s%2Fg%2F11ty2bv9lm!19sChIJJQ7rQtqXyzsRccm3vnIYYOQ?authuser=0&hl=en&rclk=1,"17.369942899999998,78.4633017"
Masjid,Mosque,"8FXH+C4J Masjid, Lal Darwaza South, Lal Darwaza, Hyderabad, Telangana 500065","Lal Darwaza South, Lal Darwaza",8FXH+C4J,Hyderabad,500065,Telangana,IN,https://www.google.com/maps/place/Masjid/data=!4m7!3m6!1s0x3bcb99ed35263ee3:0x28dc142ad7691db0!8m2!3d17.3486792!4d78.4778148!16s%2Fg%2F11tmktn3l6!19sChIJ4z4mNe2ZyzsRsB1p1yoU3Cg?authuser=0&hl=en&rclk=1,"17.3486792,78.47781479999999"
Masjid-E-Zaheeda,Mosque,"Masjid-E-Zaheeda, E Block-18, TELANGANA STATE HOUSING BOARD LIMITED, Kurmalguda, Telangana 500005",,"E Block-18, TELANGANA STATE HOUSING BOARD LIMITED",Kurmalguda,500005,Telangana,IN,https://www.google.com/maps/place/Masjid-E-Zaheeda/data=!4m7!3m6!1s0x3bcba319ba2673a5:0xf200694fc47c675e!8m2!3d17.2711041!4d78.5049058!16s%2Fg%2F11rvb91pjp!19sChIJpXMmuhmjyzsRXmd8xE9pAPI?authuser=0&hl=en&rclk=1,"17.2711041,78.5049058"
Masjid e tauheed,Mosque,"Masjid e tauheed, BLOCK-29, TELANGANA STATE HOUSING BOARD LIMITED, B, Kurmalguda, Telangana 500005",B,"BLOCK-29, TELANGANA STATE HOUSING BOARD LIMITED",Kurmalguda,500005,Telangana,IN,https://www.google.com/maps/place/Masjid+e+tauheed/data=!4m7!3m6!1s0x3bcba31ce2124a95:0x981e333143a165b7!8m2!3d17.2737992!4d78.5064115!16s%2Fg%2F11sh72lnvc!19sChIJlUoS4hyjyzsRt2WhQzEzHpg?authuser=0&hl=en&rclk=1,"17.2737992,78.5064115"
Masjid e hussaini,Mosque,"7FJM+H6 Masjid e hussaini, Hyderabad, Telangana 500005",,7FJM+H6,Hyderabad,,Telangana,IN,https://www.google.com/maps/place/Masjid+e+hussaini/data=!4m7!3m6!1s0x3bcba3a824d3699b:0x50eb3bb13c52b68a!8m2!3d17.2814822!4d78.4830419!16s%2Fg%2F11pkjdkv16!19sChIJm2nTJKijyzsRirZSPLE761A?authuser=0&hl=en&rclk=1,"17.2814822,78.4830419"
Masjid e osman,Mosque,"8FG3+HV9 Masjid e osman, Akbar Colony, Mohammadi Colony, Farook Nagar, Vattepally, Hyderabad, Telangana 500053","Akbar Colony, Mohammadi Colony, Farook Nagar, Vattepally",8FG3+HV9,Hyderabad,,Telangana,IN,https://www.google.com/maps/place/Masjid+e+osman/data=!4m7!3m6!1s0x3bcbbd604722e861:0x5a6698f6e64db5fc!8m2!3d17.3264117!4d78.4547339!16s%2Fg%2F11kj00st7f!19sChIJYegiR2C9yzsR_LVN5vaYZlo?authuser=0&hl=en&rclk=1,"17.326411699999998,78.4547339"
Allah masjid,Mosque,"Allah masjid, Talab, Maqbool Nagar, Chandrayangutta, Balapur, Hyderabad, Telangana 500005","Maqbool Nagar, Chandrayangutta",Talab,"Balapur, Hyderabad",500005,Telangana,IN,https://www.google.com/maps/place/Allah+masjid/data=!4m7!3m6!1s0x3bcba3b2d20447a9:0x307974e11e7864ab!8m2!3d17.31843!4d78.4908413!16s%2Fg%2F11khtb7nh8!19sChIJqUcE0rKjyzsRq2R4HuF0eTA?authuser=0&hl=en&rclk=1,"17.31843,78.4908413"
Masjid bolach khan,Mosque,"FC33+Q8W Masjid bolach khan, Vayu Sakthi Nagar, Gayatri Nagar, Allapur, Borabanda, Hyderabad, Telangana 500018","Vayu Sakthi Nagar, Gayatri Nagar, Allapur, Borabanda",FC33+Q8W,Hyderabad,500018,Telangana,IN,https://www.google.com/maps/place/Masjid+bolach+khan/data=!4m7!3m6!1s0x3bcb914f3e7987c1:0x63eaf0f983b50cd0!8m2!3d17.4544992!4d78.4033332!16s%2Fg%2F11txgxylqq!19sChIJwYd5Pk-RyzsR0Ay1g_nw6mM?authuser=0&hl=en&rclk=1,"17.4544992,78.40333319999999"
AL- FATAHA Masjid,Mosque,"9CHC+78J AL- FATAHA Masjid, Langar Houz, Hyderabad, Telangana 500008",Langar Houz,9CHC+78J,Hyderabad,,Telangana,IN,https://www.google.com/maps/place/AL-+FATAHA+Masjid/data=!4m7!3m6!1s0x3bcb97c00363f98d:0xc6997bea4fa99c9b!8m2!3d17.3782003!4d78.4207594!16s%2Fg%2F11tx5yhw5f!19sChIJjfljA8CXyzsRm5ypT-p7mcY?authuser=0&hl=en&rclk=1,"17.3782003,78.4207594"
Masjed e hajera,Mosque,"Masjed e hajera, Patel Nagar, Yerrakunta, Awais colony, Hyderabad, Telangana 500005","Patel Nagar, Yerrakunta, Awais colony",,Hyderabad,500005,Telangana,IN,https://www.google.com/maps/place/Masjed+e+hajera/data=!4m7!3m6!1s0x3bcbbd38859934a1:0x86a8adec41141721!8m2!3d17.3089971!4d78.472998!16s%2Fg%2F11llpm0l17!19sChIJoTSZhTi9yzsRIRcUQeytqIY?authuser=0&hl=en&rclk=1,"17.3089971,78.47299799999999"
Masjid E- Fakhir Shah,Mosque,"9FC3+WW5 Masjid E- Fakhir Shah, Balaji Nagar, Rahimpura, Dattatreya Nagar, Hyderabad, Telangana 500006","Balaji Nagar, Rahimpura, Dattatreya Nagar",9FC3+WW5,Hyderabad,500006,Telangana,IN,https://www.google.com/maps/place/Masjid+E-+Fakhir+Shah/data=!4m7!3m6!1s0x3bcb9732b47e4c51:0xe3d81f8b2054726d!8m2!3d17.3722506!4d78.4548671!16s%2Fg%2F11h3_zh1wz!19sChIJUUx-tDKXyzsRbXJUIIsf2OM?authuser=0&hl=en&rclk=1,"17.3722506,78.4548671"
Masjid e rehamath,Mosque,"Masjid e rehamath, 18-13-132, Ghous Nagar Rd 7, Bandlaguda, Chandrayangutta, Hyderabad, Telangana 500005","Bandlaguda, Chandrayangutta","18-13-132, Ghous Nagar Rd 7",Hyderabad,500005,Telangana,IN,https://www.google.com/maps/place/Masjid+e+rehamath/data=!4m7!3m6!1s0x3bcbbd92b5c9623d:0x46dc26bf2ee1957b!8m2!3d17.3035793!4d78.4638871!16s%2Fg%2F11pc9m5lzr!19sChIJPWLJtZK9yzsRe5XhLr8m3EY?authuser=0&hl=en&rclk=1,"17.3035793,78.4638871"
Masjid,Mosque,"45F4+348 Masjid, Ananthawaram, Telangana 509217",,45F4+348,Ananthawaram,509217,Telangana,IN,https://www.google.com/maps/place/Masjid/data=!4m7!3m6!1s0x3bcbcff2dfc46ab1:0x7d035ad91d8af1c5!8m2!3d17.1226689!4d78.1553372!16s%2Fg%2F11p0m_k3ym!19sChIJsWrE3_LPyzsRxfGKHdlaA30?authuser=0&hl=en&rclk=1,"17.1226689,78.15533719999999"
Hulgera Masjid,Mosque,"VM6P+4JW Hulgera Masjid, Hulgera Masjid,Hulgera Village,Nyalkal Mandal, Sangareddy, Dist, Telangana",,"VM6P+4JW, Hulgera Masjid,Hulgera Village,Nyalkal Mandal, Sangareddy","Dist, Hulgera",,Telangana,IN,https://www.google.com/maps/place/Hulgera+Masjid/data=!4m7!3m6!1s0x3bcebb1babf7b08b:0xb11d5d9a4217cd9!8m2!3d17.8603644!4d77.6865826!16s%2Fg%2F11h8k4xy0n!19sChIJi7D3qxu7zjsR2XwhpNnVEQs?authuser=0&hl=en&rclk=1,"17.860364399999998,77.6865826"
MASJID,Mosque,"RX9J+X54 MASJID, Aksanpally, Telangana 502270",,RX9J+X54,Aksanpally,,Telangana,IN,https://www.google.com/maps/place/MASJID/data=!4m7!3m6!1s0x3bcc03929b2e10bd:0x614c5647265e6a49!8m2!3d17.8198836!4d77.9804635!16s%2Fg%2F11sw_3xqmb!19sChIJvRAum5IDzDsRSWpeJkdWTGE?authuser=0&hl=en&rclk=1,"17.8198836,77.9804635"
