name,main_category,address,address_ward,address_street,address_city,address_postal_code,address_state,address_country_code,link,coordinates
Shri Murudeshwar Shivana Temple,Hindu temple,"3FVQ+JX3 Shri Murudeshwar Shivana Temple, Murudeshwar Temple Hwy, Murdeshwar, Karnataka 581350",,"3FVQ+JX3, Murudeshwar Temple Hwy",Murdeshwar,581350,Karnataka,IN,https://www.google.com/maps/place/Shri+Murudeshwar+Shivana+Temple/data=!4m7!3m6!1s0x3bbc410efb2f7e51:0xc0548490c3c96ee4!8m2!3d14.0937123!4d74.4847687!16s%2Fg%2F11j7xxt08t!19sChIJUX4v-w5BvDsR5G7Jw5CEVMA?authuser=0&hl=en&rclk=1,"14.0937123,74.4847687"
Statue of Shiva - Murudeshwara,Hindu temple,"3FVM+CHG Statue of Shiva - Murudeshwara, Murdeshwar Temple Main Road Murudeshwar, Bhatkal, Karnataka 581350",,"3FVM+CHG, Murdeshwar Temple Main Road Murudeshwar","Bhatkal, Murdeshwar",581350,Karnataka,IN,https://www.google.com/maps/place/Statue+of+Shiva+-+Murudeshwara/data=!4m7!3m6!1s0x3bbc47fedf26dad1:0xeca4d0ffd95999e5!8m2!3d14.0935598!4d74.4839456!16s%2Fg%2F11spn54z1d!19sChIJ0dom3_5HvDsR5ZlZ2f_QpOw?authuser=0&hl=en&rclk=1,"14.0935598,74.4839456"
Milliya Masjid,Mosque,"2G2Q+JFX Milliya Masjid, Nawayath Colony, Bhatkal, Karnataka 581320",Nawayath Colony,2G2Q+JFX,Bhatkal,581320,Karnataka,IN,https://www.google.com/maps/place/Milliya+Masjid/data=!4m7!3m6!1s0x3bbc431b13881451:0xe64ea659861feabd!8m2!3d14.0016153!4d74.538725!16s%2Fg%2F1hm1s9twm!19sChIJURSIExtDvDsRveofhlmmTuY?authuser=0&hl=en&rclk=1,"14.0016153,74.538725"
Huda Masjid,Mosque,"XGXR+Q59 Huda Masjid, Azad Nagar, Soosgadi, Bhatkal, Karnataka 581320","Azad Nagar, Soosgadi",XGXR+Q59,Bhatkal,581320,Karnataka,IN,https://www.google.com/maps/place/Huda+Masjid/data=!4m7!3m6!1s0x3bbc431c758a2117:0x12380a7f94041c2e!8m2!3d13.9994156!4d74.5404761!16s%2Fg%2F11bxg2tzls!19sChIJFyGKdRxDvDsRLhwElH8KOBI?authuser=0&hl=en&rclk=1,"13.999415599999999,74.54047609999999"
Masjid E Hussain,Mosque,"4F4W+QW3 Masjid E Hussain, National Colony, Murdeshwar, Karnataka 581350",National Colony,4F4W+QW3,Murdeshwar,581350,Karnataka,IN,https://www.google.com/maps/place/Masjid+E+Hussain/data=!4m7!3m6!1s0x3bbc472b0e1b863d:0x241a85b08ab30e53!8m2!3d14.1059288!4d74.4972302!16s%2Fg%2F11gfgnthnr!19sChIJPYYbDitHvDsRUw6zirCFGiQ?authuser=0&hl=en&rclk=1,"14.1059288,74.49723019999999"
Jamia Masjid,Mosque,"4F2Q+FGV Jamia Masjid, Qazi Mohalla, Murdeshwar, Karnataka 581350",Qazi Mohalla,4F2Q+FGV,Murdeshwar,581350,Karnataka,IN,https://www.google.com/maps/place/Jamia+Masjid/data=!4m7!3m6!1s0x3bbc46d7e402d649:0x4836e7ebc1e005fe!8m2!3d14.1012308!4d74.4887879!16s%2Fg%2F11c1_c1pm_!19sChIJSdYC5NdGvDsR_gXgwevnNkg?authuser=0&hl=en&rclk=1,"14.1012308,74.48878789999999"
Masjid Imam Bukhari,Mosque,"XGXV+3Q4 Masjid Imam Bukhari, Devinagar, Bhatkal, Rangikatte, Karnataka 581320",Devinagar,XGXV+3Q4,"Bhatkal, Rangikatte",581320,Karnataka,IN,https://www.google.com/maps/place/Masjid+Imam+Bukhari/data=!4m7!3m6!1s0x3bbc431e714e1507:0xc6d7ea353604695d!8m2!3d13.997641!4d74.5444465!16s%2Fg%2F1hjgwplmg!19sChIJBxVOcR5DvDsRXWkENjXq18Y?authuser=0&hl=en&rclk=1,"13.997641,74.54444649999999"
Mohiddin Masjid,Mosque,"2G4M+C3J Mohiddin Masjid, Moosa Nagar, Bendekant, Bhatkal, Karnataka 581320","Moosa Nagar, Bendekant",2G4M+C3J,Bhatkal,581320,Karnataka,IN,https://www.google.com/maps/place/Mohiddin+Masjid/data=!4m7!3m6!1s0x3bbc430f0f30a563:0xaf131fd304f7812a!8m2!3d14.0060828!4d74.5326464!16s%2Fg%2F11cknjtqml!19sChIJY6UwDw9DvDsRKoH3BNMfE68?authuser=0&hl=en&rclk=1,"14.0060828,74.53264639999999"
msjd nwr Masjid E Noor,Mosque,"4F4W+44G msjd nwr Masjid E Noor, Murdeshwar, Karnataka 581350",,4F4W+44G,Murdeshwar,581350,Karnataka,IN,https://www.google.com/maps/place/%D9%85%D8%B3%D8%AC%D8%AF+%D9%86%D9%88%D8%B1+Masjid+E+Noor%E2%80%AD/data=!4m7!3m6!1s0x3bbc472bb6dd9b8f:0xbe5ea397d394eb9a!8m2!3d14.1053016!4d74.4953349!16s%2Fg%2F11g7308tpd!19sChIJj5vdtitHvDsRmuuU05ejXr4?authuser=0&hl=en&rclk=1,"14.105301599999999,74.4953349"
Masjid Khalid Bin Walid [Gol Masjid],Mosque,"2G2V+3W4 Masjid Khalid Bin Walid [Gol Masjid], HuruliSaal, Kargedde, Bhatkal, Rangikatte, Karnataka 581320",Kargedde,"2G2V+3W4, HuruliSaal","Bhatkal, Rangikatte",581320,Karnataka,IN,https://www.google.com/maps/place/Masjid+Khalid+Bin+Walid+%5BGol+Masjid%5D/data=!4m7!3m6!1s0x3bbc431da2b31c61:0x8cf839950ba06472!8m2!3d14.0001307!4d74.5448204!16s%2Fg%2F11bych7z7h!19sChIJYRyzoh1DvDsRcmSgC5U5-Iw?authuser=0&hl=en&rclk=1,"14.0001307,74.54482039999999"
Masjid Muniri,Mosque,"Masjid Muniri, 5th Cross, Haneef Abad, Heble, Bhatkal, Karnataka 581320","Madeena Colony, Jamia Abad, Heble","5th Cross, Haneef Abad",Bhatkal,581320,Karnataka,IN,https://www.google.com/maps/place/Masjid+Muniri/data=!4m7!3m6!1s0x3bbc430bc9ac3f8b:0xcc95d4fa24f8aa87!8m2!3d14.0105005!4d74.5274403!16s%2Fg%2F11fx95kckt!19sChIJiz-syQtDvDsRh6r4JPrUlcw?authuser=0&hl=en&rclk=1,"14.0105005,74.5274403"
Masjid-E-Touheed,Mosque,"XHV5+QJ3 Masjid-E-Touheed, Belalkanda, Bhatkal, Karnataka 581320",Belalkanda,XHV5+QJ3,Bhatkal,581320,Karnataka,IN,https://www.google.com/maps/place/Masjid-E-Touheed/data=!4m7!3m6!1s0x3bbc42e811475b67:0x12a00473924534cb!8m2!3d13.9943876!4d74.5590549!16s%2Fg%2F11f2wly7gq!19sChIJZ1tHEehCvDsRyzRFknMEoBI?authuser=0&hl=en&rclk=1,"13.9943876,74.55905489999999"
Masjid E Mohiddin,Mosque,"4G42+J82 Masjid E Mohiddin, Murdeshwar, Karnataka 581350",,4G42+J82,Murdeshwar,581350,Karnataka,IN,https://www.google.com/maps/place/Masjid+E+Mohiddin/data=!4m7!3m6!1s0x3bbc40d4c0642429:0xf9ea4410e2a0bbb5!8m2!3d14.106506!4d74.5007643!16s%2Fg%2F11g6bnn_ml!19sChIJKSRkwNRAvDsRtbug4hBE6vk?authuser=0&hl=en&rclk=1,"14.106506,74.5007643"
Masjid e Hamza,Mosque,"4F4V+M45 Masjid e Hamza, Murdeshwar, Karnataka 581350",,4F4V+M45,Murdeshwar,581350,Karnataka,IN,https://www.google.com/maps/place/Masjid+e+Hamza/data=!4m7!3m6!1s0x3bbc47295acd3b15:0x9fd113b6b025d533!8m2!3d14.1066335!4d74.4928626!16s%2Fg%2F11c6dc7cb9!19sChIJFTvNWilHvDsRM9UlsLYT0Z8?authuser=0&hl=en&rclk=1,"14.1066335,74.4928626"
Murudeshwara temple,Hindu temple,"3FVQ+JX3 Murudeshwara temple, Gangavati, Murdeshwar, Karnataka 581350",Gangavati,3FVQ+JX3,Murdeshwar,,Karnataka,IN,https://www.google.com/maps/place/Murudeshwara+temple/data=!4m7!3m6!1s0x3bbc474e78bb81df:0xa0af1faf04c174b8!8m2!3d14.094008!4d74.4899141!16s%2Fg%2F11l2f9ph77!19sChIJ34G7eE5HvDsRuHTBBK8fr6A?authuser=0&hl=en&rclk=1,"14.094007999999999,74.4899141"
Masjid Ikhwan,Mosque,"XHP4+RHV Masjid Ikhwan, Soosgadi, Bhatkal, Karnataka 581320",Soosgadi,XHP4+RHV,Bhatkal,581320,Karnataka,IN,https://www.google.com/maps/place/Masjid+Ikhwan/data=!4m7!3m6!1s0x3bbc42db67292d9d:0xa4af3508e8475ad3!8m2!3d13.9871013!4d74.5564206!16s%2Fg%2F1tc_cq34!19sChIJnS0pZ9tCvDsR01pH6Ag1r6Q?authuser=0&hl=en&rclk=1,"13.987101299999999,74.5564206"
Taqwa Masjid,Mosque,"XHR2+F8P Taqwa Masjid, Belalkanda, Bhatkal, Karnataka 581320",Belalkanda,XHR2+F8P,Bhatkal,581320,Karnataka,IN,https://www.google.com/maps/place/Taqwa+Masjid/data=!4m7!3m6!1s0x3bbc42de3cff65a5:0xc91ca9427046a928!8m2!3d13.991222!4d74.5508197!16s%2Fg%2F11dyzlltwk!19sChIJpWX_PN5CvDsRKKlGcEKpHMk?authuser=0&hl=en&rclk=1,"13.991221999999999,74.55081969999999"
Masjid Fathima - Master Colony,Mosque,"2G6F+J96 Masjid Fathima - Master Colony, Jamia Abad, Gandhi Nagar, Bhatkal, Karnataka 581320","Jamia Abad, Gandhi Nagar",2G6F+J96,Bhatkal,581320,Karnataka,IN,https://www.google.com/maps/place/Masjid+Fathima+-+Master+Colony/data=!4m7!3m6!1s0x3bbc430ade32ed13:0x9a6e138d513ebb08!8m2!3d14.011534!4d74.5233905!16s%2Fg%2F11c43ny4b8!19sChIJE-0y3gpDvDsRCLs-UY0Tbpo?authuser=0&hl=en&rclk=1,"14.011534,74.52339049999999"
Fathima Masjid,Mosque,"4F2R+9MX Fathima Masjid, Murdeshwar, Karnataka 581350",,4F2R+9MX,Murdeshwar,581350,Karnataka,IN,https://www.google.com/maps/place/Fathima+Masjid/data=!4m7!3m6!1s0x3bbc46d63b594967:0x35b47e191d58306e!8m2!3d14.1009778!4d74.4917417!16s%2Fg%2F11cscc5hnz!19sChIJZ0lZO9ZGvDsRbjBYHRl-tDU?authuser=0&hl=en&rclk=1,"14.100977799999999,74.49174169999999"
Masjid-E-Jamila,Mosque,"3FXQ+WPR Masjid-E-Jamila, Keri Rd, Qazi Mohalla, Murdeshwar, Karnataka 581350",Qazi Mohalla,"3FXQ+WPR, Keri Rd",Murdeshwar,581350,Karnataka,IN,https://www.google.com/maps/place/Masjid-E-Jamila/data=!4m7!3m6!1s0x3bbc4753fdb06d85:0x6d2b4c0a13626302!8m2!3d14.0998726!4d74.4892608!16s%2Fg%2F11j3tv826v!19sChIJhW2w_VNHvDsRAmNiEwpMK20?authuser=0&hl=en&rclk=1,"14.0998726,74.4892608"
Masjid-e-Abu Huraira,Mosque,"2G3F+4R8 Masjid-e-Abu Huraira, Moosa Nagar, Bendekant, Bhatkal, Karnataka 581320","Moosa Nagar, Bendekant",2G3F+4R8,Bhatkal,581320,Karnataka,IN,https://www.google.com/maps/place/Masjid-e-Abu+Huraira/data=!4m7!3m6!1s0x3bbc430d66c509a1:0x4e9a4b4d16c8487c!8m2!3d14.0027986!4d74.5245704!16s%2Fg%2F11b8tdvnp5!19sChIJoQnFZg1DvDsRfEjIFk1Lmk4?authuser=0&hl=en&rclk=1,"14.0027986,74.5245704"
Masjid-e-Firdous,Mosque,"2G5G+F8M Masjid-e-Firdous, Firdous Nagar, Moosa Nagar, Devinagar, Bhatkal, Karnataka 581320","Firdous Nagar, Moosa Nagar, Devinagar",2G5G+F8M,Bhatkal,581320,Karnataka,IN,https://www.google.com/maps/place/Masjid-e-Firdous/data=!4m7!3m6!1s0x3bbc430b780c739d:0x4791ae5c82af03b4!8m2!3d14.0087188!4d74.5257967!16s%2Fg%2F11cmhtkpny!19sChIJnXMMeAtDvDsRtAOvglyukUc?authuser=0&hl=en&rclk=1,"14.008718799999999,74.5257967"
Masjid E Banu,Mosque,"4F4X+M4V Masjid E Banu, Murdeshwar, Karnataka 581350",,4F4X+M4V,Murdeshwar,581350,Karnataka,IN,https://www.google.com/maps/place/Masjid+E+Banu/data=!4m7!3m6!1s0x3bbc472b699d5ef5:0x6dc9b9ed97a95103!8m2!3d14.1067294!4d74.4978047!16s%2Fg%2F11c5_0r0r8!19sChIJ9V6daStHvDsRA1Gpl-25yW0?authuser=0&hl=en&rclk=1,"14.106729399999999,74.4978047"
Masjid-e-Abdur Raheem,Mosque,"2G86+8JG Masjid-e-Abdur Raheem, Athar Mohalla, Hertar, Bhatkal, Karnataka 581320","Athar Mohalla, Hertar",2G86+8JG,Bhatkal,581320,Karnataka,IN,https://www.google.com/maps/place/Masjid-e-Abdur+Raheem/data=!4m7!3m6!1s0x3bbc437113a5c3f1:0xc7b4bd1dece5ee2f!8m2!3d14.0158169!4d74.511582!16s%2Fg%2F11f6jygc56!19sChIJ8cOlE3FDvDsRL-7l7B29tMc?authuser=0&hl=en&rclk=1,"14.015816899999999,74.51158199999999"
Masjid E Sayyadina Abubakar siddique,Mosque,"4F4V+MW3 Masjid E Sayyadina Abubakar siddique, Ammar Rd, Murdeshwar, Karnataka 581350",,"4F4V+MW3, Ammar Rd",Murdeshwar,581350,Karnataka,IN,https://www.google.com/maps/place/Masjid+E+Sayyadina+Abubakar+siddique/data=!4m7!3m6!1s0x3bbc4754616b687f:0xc6facd67ce3022ff!8m2!3d14.1066379!4d74.4948101!16s%2Fg%2F11r7641kf2!19sChIJf2hrYVRHvDsR_yIwzmfN-sY?authuser=0&hl=en&rclk=1,"14.106637899999999,74.4948101"
mohammadiya masjid,Mosque,"mohammadiya masjid, Nakhuda mohalla, Murdeshwar, Karnataka 581350",Nakhuda mohalla,,Murdeshwar,581350,Karnataka,IN,https://www.google.com/maps/place/mohammadiya+masjid/data=!4m7!3m6!1s0x3bbc47562fa26c1b:0x227f3723562d5b57!8m2!3d14.1023538!4d74.4885348!16s%2Fg%2F11flvvn_pd!19sChIJG2yiL1ZHvDsRV1stViM3fyI?authuser=0&hl=en&rclk=1,"14.1023538,74.4885348"
"Dargah Hazrat Abu Mohammed Maqdum Fakki Sukri, Murudeshwar",Place of worship,"4F2Q+M9J Dargah Hazrat Abu Mohammed Maqdum Fakki Sukri, Murudeshwar, Jamia Rd, Qazi Mohalla, Murdeshwar, Karnataka 581350",Qazi Mohalla,"4F2Q+M9J, Jamia Rd",Murdeshwar,581350,Karnataka,IN,"https://www.google.com/maps/place/Dargah+Hazrat+Abu+Mohammed+Maqdum+Fakki+Sukri,+Murudeshwar/data=!4m7!3m6!1s0x3bbc47c1c2bed675:0xabcb05c623e6d4b9!8m2!3d14.1017163!4d74.4883953!16s%2Fg%2F11hm_4sv10!19sChIJdda-wsFHvDsRudTmI8YFy6s?authuser=0&hl=en&rclk=1","14.1017163,74.4883953"
Masjid-E-Gousia,Mosque,"4F2R+X27 Masjid-E-Gousia, Murdeshwar, Karnataka 581350",,4F2R+X27,Murdeshwar,,Karnataka,IN,https://www.google.com/maps/place/Masjid-E-Gousia/data=!4m7!3m6!1s0x3bbc4718b3e7da4b:0xfb9864b426623456!8m2!3d14.1024063!4d74.4900375!16s%2Fg%2F11h42pf851!19sChIJS9rnsxhHvDsRVjRiJrRkmPs?authuser=0&hl=en&rclk=1,"14.1024063,74.4900375"
Masjid E Sayedna Abubakerl Sidique,Mosque,"3FVQ+JX3 Masjid E Sayedna Abubakerl Sidique, Gangavati, Murdeshwar, Karnataka 581350",Gangavati,3FVQ+JX3,Murdeshwar,,Karnataka,IN,https://www.google.com/maps/place/Masjid+E+Sayedna+Abubakerl+Sidique/data=!4m7!3m6!1s0x3bbc47c532424b35:0x65d078bbb1fda8dc!8m2!3d14.0940079!4d74.4899142!16s%2Fg%2F11r75y4g_l!19sChIJNUtCMsVHvDsR3Kj9sbt40GU?authuser=0&hl=en&rclk=1,"14.0940079,74.4899142"
Noor Masjid 2nd Croos,School,"4F4V+RVM Noor Masjid 2nd Croos, Murdeshwar, Karnataka 581350",,4F4V+RVM,Murdeshwar,581350,Karnataka,IN,https://www.google.com/maps/place/Noor+Masjid+2nd+Croos/data=!4m7!3m6!1s0x3bbc475bcd11d203:0x3c9a15c0158966e3!8m2!3d14.1070942!4d74.4946871!16s%2Fg%2F11t5xnc8ty!19sChIJA9IRzVtHvDsR42aJFcAVmjw?authuser=0&hl=en&rclk=1,"14.107094199999999,74.4946871"
Masjid-E-Gousia,Mosque,"Masjid-E-Gousia, 2, Murdeshwar, Karnataka 581350",Gangavati,2,Murdeshwar,581350,Karnataka,IN,https://www.google.com/maps/place/Masjid-E-Gousia/data=!4m7!3m6!1s0x3bbc471a5b4ca9cb:0xb5963336072fd806!8m2!3d14.0940057!4d74.4899061!16s%2Fg%2F11jn15_c5b!19sChIJy6lMWxpHvDsRBtgvBzYzlrU?authuser=0&hl=en&rclk=1,"14.094005699999999,74.4899061"
Gausiya,Mosque,"4F2Q+HX8 Gausiya, Hamza Rd, Qazi Mohalla, Murdeshwar, Karnataka 581350",Qazi Mohalla,"4F2Q+HX8, Hamza Rd",Murdeshwar,581350,Karnataka,IN,https://www.google.com/maps/place/Gausiya/data=!4m7!3m6!1s0x3bbc47e224708a5b:0xe178dca34dffdeae!8m2!3d14.1014108!4d74.4899548!16s%2Fg%2F11t36qvztk!19sChIJW4pwJOJHvDsRrt7_TaPceOE?authuser=0&hl=en&rclk=1,"14.1014108,74.48995479999999"
Prayer Hall,Mosque,"4F6P+W7J Prayer Hall, Murdeshwar, Karnataka 581350",,4F6P+W7J,Murdeshwar,,Karnataka,IN,https://www.google.com/maps/place/Prayer+Hall/data=!4m7!3m6!1s0x3bbc47e85800e6bd:0x145b51b0a3610201!8m2!3d14.1123261!4d74.4856421!16s%2Fg%2F11j7vcqtx8!19sChIJveYAWOhHvDsRAQJho7BRWxQ?authuser=0&hl=en&rclk=1,"14.112326099999999,74.48564209999999"
Umair masjid,Mosque,"2G6J+QF5 Umair masjid, Haneef Abad Rd, Narlesere, Bhatkal, Karnataka 581320",Narlesere,"2G6J+QF5, Haneef Abad Rd",Bhatkal,581320,Karnataka,IN,https://www.google.com/maps/place/Umair+masjid/data=!4m7!3m6!1s0x3bbc432847519573:0x30d9145fc625f8ce!8m2!3d14.0118935!4d74.5312355!16s%2Fg%2F11t761vlvf!19sChIJc5VRRyhDvDsRzvglxl8U2TA?authuser=0&hl=en&rclk=1,"14.0118935,74.5312355"
Zubair-bin-Awam Masjid Mohiddin 3rd cross (B-Block),Mosque,"2G3G+VRM Zubair-bin-Awam Masjid Mohiddin 3rd cross (B-Block), Madeena Colony, Jali, Jamia Abad, Gandhi Nagar, Bhatkal, Karnataka 581320","Madeena Colony, Jali, Jamia Abad, Gandhi Nagar",2G3G+VRM,Bhatkal,581320,Karnataka,IN,https://www.google.com/maps/place/Zubair-bin-Awam+Masjid+Mohiddin+3rd+cross+%28B-Block%29/data=!4m7!3m6!1s0x3bbc43d1cb351131:0x4f3b487a3499aebf!8m2!3d14.0047221!4d74.5270363!16s%2Fg%2F11rzjfk79g!19sChIJMRE1y9FDvDsRv66ZNHpIO08?authuser=0&hl=en&rclk=1,"14.004722099999999,74.52703629999999"
Historic Old Masjid,Museum,"4F2R+V7R Historic Old Masjid, Hamza Rd, Murdeshwar, Karnataka 581350",,"4F2R+V7R, Hamza Rd",Murdeshwar,581350,Karnataka,IN,https://www.google.com/maps/place/Historic+Old+Masjid/data=!4m7!3m6!1s0x3bbc4724da4e1fd5:0x776d807af026ac60!8m2!3d14.1022417!4d74.4906407!16s%2Fg%2F11j3tv8ht_!19sChIJ1R9O2iRHvDsRYKwm8HqAbXc?authuser=0&hl=en&rclk=1,"14.102241699999999,74.4906407"
