name,main_category,address,address_ward,address_street,address_city,address_postal_code,address_state,address_country_code,link,coordinates
Masjid Baitul Ghalib (Ahmadiyya Muslim Jama'at),Mosque,"Masjid Baitul Ghalib (Ahmadiyya Muslim Jama'at), Khadak Pura, Islam Pura, Osmanabad, Maharashtra 413501","Khadak Pura, Islam Pura",,Osmanabad,413501,Maharashtra,IN,https://www.google.com/maps/place/Masjid+Baitul+Ghalib+%28Ahmadiyya+Muslim+Jama%27at%29/data=!4m7!3m6!1s0x3bc5a3cae6291deb:0x811aa2c72f657505!8m2!3d18.1755732!4d76.0375477!16s%2Fg%2F11c2l4ps0m!19sChIJ6x0p5sqjxTsRBXVlL8eiGoE?authuser=0&hl=en&rclk=1,"18.1755732,76.03754769999999"
Makka Masjid mkh msjd,Mosque,"Makka Masjid mkh msjd, Khaja Nagar,, Solapur - Aurangabad Highway, Galli Number 19, Osmanabad, Maharashtra 413501",Khaja Nagar,"Khaja Nagar,, Solapur - Aurangabad Highway, Galli Number 19",Osmanabad,413501,Maharashtra,IN,https://www.google.com/maps/place/Makka+Masjid+%D9%85%D9%83%D9%87+%D9%85%D8%B3%D8%AC%D8%AF%E2%80%AD/data=!4m7!3m6!1s0x3bc5a24a4abe7f0d:0x21bc0f23390a3777!8m2!3d18.170966!4d76.0434994!16s%2Fg%2F11bx1bnd0n!19sChIJDX--SkqixTsRdzcKOSMPvCE?authuser=0&hl=en&rclk=1,"18.170966,76.0434994"
Faizane Madina Masjid - fyDni mdynh msjd `thmnabd,Mosque,"52CR+MRH Faizane Madina Masjid - fyDni mdynh msjd `thmnabd, Khaja Nagar, Osmanabad, Maharashtra 413501",Khaja Nagar,52CR+MRH,Osmanabad,413501,Maharashtra,IN,https://www.google.com/maps/place/Faizane+Madina+Masjid+-+%D9%81%DB%8C%D8%B6%D8%A7%D9%86%D9%90+%D9%85%D8%AF%DB%8C%D9%86%DB%81+%D9%85%D8%B3%D8%AC%D8%AF+%D8%B9%D8%AB%D9%85%D8%A7%D9%86%D8%A2%D8%A8%D8%A7%D8%AF%E2%80%AD/data=!4m7!3m6!1s0x3bc5a33b5a2f3cd7:0x4cdc6624320994e6!8m2!3d18.1719341!4d76.0423479!16s%2Fg%2F11sm755p26!19sChIJ1zwvWjujxTsR5pQJMiRm3Ew?authuser=0&hl=en&rclk=1,"18.171934099999998,76.0423479"
Mazaar Hazrat Sayyed Azeemuddin Sahib Quazi Advocate R.A. ( First Ahmadi Muslim in Osmanabad),Shrine,"Mazaar Hazrat Sayyed Azeemuddin Sahib Quazi Advocate R.A. ( First Ahmadi Muslim in Osmanabad), Pohner Rd, Osmanabad, Maharashtra 413501",,Pohner Rd,Osmanabad,413501,Maharashtra,IN,https://www.google.com/maps/place/Mazaar+Hazrat+Sayyed+Azeemuddin+Sahib+Quazi+Advocate+R.A.+%28+First+Ahmadi+Muslim+in+Osmanabad%29/data=!4m7!3m6!1s0x3bc5a36e597970c3:0xf07250d9cc25ec53!8m2!3d18.1476441!4d76.0404538!16s%2Fg%2F11qt404ws5!19sChIJw3B5WW6jxTsRU-wlzNlQcvA?authuser=0&hl=en&rclk=1,"18.1476441,76.0404538"
Dharashiva Caves,Historical landmark,"52W5+7W8 Dharashiva Caves, Osmanabad, Ghatangri, Maharashtra 413501",,52W5+7W8,"Osmanabad, Ghatangri",413501,Maharashtra,IN,https://www.google.com/maps/place/Dharashiva+Caves/data=!4m7!3m6!1s0x3bc5a15f4b82f5e9:0xf6070aa301e7f3dd!8m2!3d18.1956678!4d76.0098139!16s%2Fg%2F11b81jdt7x!19sChIJ6fWCS1-hxTsR3fPnAaMKB_Y?authuser=0&hl=en&rclk=1,"18.1956678,76.0098139"
Dargah Hazrat Khwaja Shamsuddin Gazi Rehmatullah Alaihi,Mosque,"52CQ+XWG Dargah Hazrat Khwaja Shamsuddin Gazi Rehmatullah Alaihi, Dargah Rd, Khaja Nagar, Osmanabad, Maharashtra 413501",Khaja Nagar,"52CQ+XWG, Dargah Rd",Osmanabad,413501,Maharashtra,IN,https://www.google.com/maps/place/Dargah+Hazrat+Khwaja+Shamsuddin+Gazi+Rehmatullah+Alaihi/data=!4m7!3m6!1s0x3bc5a24ab7a8f627:0x66983c8b6527d4b5!8m2!3d18.1724368!4d76.0398143!16s%2Fg%2F1tdnvbmj!19sChIJJ_aot0qixTsRtdQnZYs8mGY?authuser=0&hl=en&rclk=1,"18.1724368,76.0398143"
"Bus Stand Masjid - bs sttyndd msjd, `thmnabd",Mosque,"52QV+24H Bus Stand Masjid - bs sttyndd msjd, `thmnabd, Samarth Nagar, Lakshmi Nagar, Osmanabad, Maharashtra 413501","Samarth Nagar, Lakshmi Nagar",52QV+24H,Osmanabad,413501,Maharashtra,IN,https://www.google.com/maps/place/Bus+Stand+Masjid+-+%D8%A8%D8%B3+%D8%B3%D9%B9%DB%8C%D9%86%DA%88+%D9%85%D8%B3%D8%AC%D8%AF%D8%8C+%D8%B9%D8%AB%D9%85%D8%A7%D9%86%D8%A2%D8%A8%D8%A7%D8%AF%E2%80%AD/data=!4m7!3m6!1s0x3bc5a22dbaafa8e5:0x6f4f3f80e2ace8d4!8m2!3d18.187562!4d76.0428535!16s%2Fg%2F11bz_23tbk!19sChIJ5aivui2ixTsR1Ois4oA_T28?authuser=0&hl=en&rclk=1,"18.187562,76.04285349999999"
Ek Minar Masjid (safa Masjid) Osmanabad - y'kh mynr msjd (sf msjd) `thmnabd,Mosque,"625Q+9HP Ek Minar Masjid (safa Masjid) Osmanabad - y'kh mynr msjd (sf msjd) `thmnabd, Lane Number 2, Milli Colony, Rajiv Gandhi Nagar, Osmanabad, Maharashtra 413501","Milli Colony, Rajiv Gandhi Nagar","625Q+9HP, Lane Number 2",Osmanabad,413501,Maharashtra,IN,https://www.google.com/maps/place/Ek+Minar+Masjid+%28safa+Masjid%29+Osmanabad+-+%D8%A7%D8%A6%DA%A9+%D9%85%DB%8C%D9%86%D8%A7%D8%B1+%D9%85%D8%B3%D8%AC%D8%AF+%28%D8%B3%D9%81%D8%A7+%D9%85%D8%B3%D8%AC%D8%AF%29+%D8%B9%D8%AB%D9%85%D8%A7%D9%86%D8%A2%D8%A8%D8%A7%D8%AF%E2%80%AD/data=!4m7!3m6!1s0x3bc5a182ab22bba7:0xde54cd980cb29acd!8m2!3d18.2084649!4d76.0389492!16s%2Fg%2F11b72r4n3v!19sChIJp7siq4KhxTsRzZqyDJjNVN4?authuser=0&hl=en&rclk=1,"18.2084649,76.03894919999999"
Madina Masjid mdynh msjd,Mosque,"52CV+V9W Madina Masjid mdynh msjd, Khaja Nagar, Osmanabad, Maharashtra 413501",Khaja Nagar,52CV+V9W,Osmanabad,413501,Maharashtra,IN,https://www.google.com/maps/place/Madina+Masjid+%D9%85%D8%AF%DB%8C%D9%86%DB%81+%D9%85%D8%B3%D8%AC%D8%AF%E2%80%AD/data=!4m7!3m6!1s0x3bc5a24a3fa95e6b:0x7d630c35f1ea0215!8m2!3d18.1722291!4d76.0434516!16s%2Fg%2F1tf9wwgv!19sChIJa16pP0qixTsRFQLq8TUMY30?authuser=0&hl=en&rclk=1,"18.1722291,76.0434516"
MAHEDAVIA MASJID(mhdwyh msjd),Mosque,"6MPM+2P6 MAHEDAVIA MASJID(mhdwyh msjd), Bhim Nagar, Barshi, Maharashtra 413401",Bhim Nagar,6MPM+2P6,Barshi,413401,Maharashtra,IN,https://www.google.com/maps/place/MAHEDAVIA+MASJID%28%D9%85%DB%81%D8%AF%D9%88%DB%8C%DB%81+%D9%85%D8%B3%D8%AC%D8%AF%29%E2%80%AD/data=!4m7!3m6!1s0x3bc45513f17f82dd:0x4763922f10d34c2e!8m2!3d18.2350298!4d75.6842646!16s%2Fg%2F1pp2vfqsq!19sChIJ3YJ_8RNVxDsRLkzTEC-SY0c?authuser=0&hl=en&rclk=1,"18.2350298,75.68426459999999"
Mosque - msjd,Mosque,"622R+2P8 Mosque - msjd, National HIghway 211, Kusumtai Patil Nagar, Police Line, Osmanabad, Maharashtra 413501","Kusumtai Patil Nagar, Police Line","622R+2P8, National HIghway 211",Osmanabad,413501,Maharashtra,IN,https://www.google.com/maps/place/Mosque+-+%D9%85%D8%B3%D8%AC%D8%AF%E2%80%AD/data=!4m7!3m6!1s0x3bc5a181aba101e5:0x38dadf946bb13d58!8m2!3d18.2000363!4d76.0418325!16s%2Fg%2F1w4vhckm!19sChIJ5QGhq4GhxTsRWD2xa5Tf2jg?authuser=0&hl=en&rclk=1,"18.2000363,76.0418325"
"Maktab E Talimul Quran, Talim Chowk Osmanabad... Maulana Azar Sahab",Mosque,"52FR+MFG Maktab E Talimul Quran, Talim Chowk Osmanabad... Maulana Azar Sahab, Khadak Pura, Islam Pura, Osmanabad, Maharashtra 413501","Khadak Pura, Islam Pura",52FR+MFG,Osmanabad,413501,Maharashtra,IN,"https://www.google.com/maps/place/Maktab+E+Talimul+Quran,+Talim+Chowk+Osmanabad...+Maulana+Azar+Sahab/data=!4m7!3m6!1s0x3bc5a317b883925f:0xe03731d606ed5fcb!8m2!3d18.1741985!4d76.0412159!16s%2Fg%2F11k_yy3xsg!19sChIJX5KDuBejxTsRy1_tBtYxN-A?authuser=0&hl=en&rclk=1","18.1741985,76.0412159"
JAMA Masjid,Mosque,"JAMA Masjid, Kati Savargaon Rd, Kati, Maharashtra 413624",,Kati Savargaon Rd,Kati,413624,Maharashtra,IN,https://www.google.com/maps/place/JAMA+Masjid/data=!4m7!3m6!1s0x3bc5b770ab1a34fd:0x9860a7181f1584f4!8m2!3d17.9597004!4d75.8880272!16s%2Fg%2F11bymvwyr8!19sChIJ_TQaq3C3xTsR9IQVHxinYJg?authuser=0&hl=en&rclk=1,"17.9597004,75.8880272"
"Markaz Masjid Khadak Pura Osmanabad - mrkhz msjd, khhrrkh prh, `thmnabd",Mosque,"52HQ+9J4 Markaz Masjid Khadak Pura Osmanabad - mrkhz msjd, khhrrkh prh, `thmnabd, 52HQ+9J4 Markaz Masjid, Khadak Pura, Nehru Chowk, Osmanabad, Maharashtra 413501","Khadak Pura, Nehru Chowk","52HQ+9J4, 52HQ+9J4 Markaz Masjid",Osmanabad,413501,Maharashtra,IN,https://www.google.com/maps/place/Markaz+Masjid+Khadak+Pura+Osmanabad+-+%D9%85%D8%B1%DA%A9%D8%B2+%D9%85%D8%B3%D8%AC%D8%AF%D8%8C+%DA%A9%DA%BE%DA%91%DA%A9+%D9%BE%D8%B1%D9%87%D8%8C+%D8%B9%D8%AB%D9%85%D8%A7%D9%86%D8%A2%D8%A8%D8%A7%D8%AF%E2%80%AD/data=!4m7!3m6!1s0x3bc5a3cb4cfa948b:0xb07c62cbf7561d4b!8m2!3d18.1783962!4d76.0391366!16s%2Fg%2F11c1tj1f64!19sChIJi5T6TMujxTsRSx1W98tifLA?authuser=0&hl=en&rclk=1,"18.178396199999998,76.03913659999999"
Masjid-e-Faiz - msjdi fyD `thmnabd,Mosque,"52RP+4X9 Masjid-e-Faiz - msjdi fyD `thmnabd, Samta Colony, Osmanabad, Maharashtra 413501",Samta Colony,52RP+4X9,Osmanabad,413501,Maharashtra,IN,https://www.google.com/maps/place/Masjid-e-Faiz+-+%D9%85%D8%B3%D8%AC%D8%AF%D9%90+%D9%81%DB%8C%D8%B6+%D8%B9%D8%AB%D9%85%D8%A7%D9%86%D8%A2%D8%A8%D8%A7%D8%AF%E2%80%AD/data=!4m7!3m6!1s0x3bc5a3d366f502e5:0x17cd8321d8233cad!8m2!3d18.1902917!4d76.0374773!16s%2Fg%2F11g6yn5jdd!19sChIJ5QL1ZtOjxTsRrTwj2CGDzRc?authuser=0&hl=en&rclk=1,"18.1902917,76.03747729999999"
Vitthal Rukmini Mandir,Hindu temple,"52WV+8Q6 Vitthal Rukmini Mandir, Bank Colony, Sneh Nagar Society, Osmanabad, Maharashtra 413501","Bank Colony, Sneh Nagar Society",52WV+8Q6,Osmanabad,413501,Maharashtra,IN,https://www.google.com/maps/place/Vitthal+Rukmini+Mandir/data=!4m7!3m6!1s0x3bc5a22a190d069f:0xb70f8776e0c43ba6!8m2!3d18.1957875!4d76.0443906!16s%2Fg%2F11dfjbry09!19sChIJnwYNGSqixTsRpjvE4HaHD7c?authuser=0&hl=en&rclk=1,"18.195787499999998,76.0443906"
"Masjid e Bilial Osmanabad - msjdi bll, `thmnabd",Mosque,"623Q+WCP Masjid e Bilial Osmanabad - msjdi bll, `thmnabd, Galib Nagar, Osmanabad, Maharashtra 413501",Galib Nagar,623Q+WCP,Osmanabad,413501,Maharashtra,IN,https://www.google.com/maps/place/Masjid+e+Bilial+Osmanabad+-+%D9%85%D8%B3%D8%AC%D8%AF%D9%90+%D8%A8%D9%84%D8%A7%D9%84%D8%8C+%D8%B9%D8%AB%D9%85%D8%A7%D9%86%D8%A2%D8%A8%D8%A7%D8%AF%E2%80%AD/data=!4m7!3m6!1s0x3bc5a178850c9833:0x1cb4921b4b6090c4!8m2!3d18.2048322!4d76.0385626!16s%2Fg%2F11d_xk2rq8!19sChIJM5gMhXihxTsRxJBgSxuStBw?authuser=0&hl=en&rclk=1,"18.2048322,76.03856259999999"
EIDGAH MASJID,Mosque,"X8RF+6X8 EIDGAH MASJID, Lohara, Lohara Bk., Maharashtra 413608",,X8RF+6X8,"Lohara, Lohara Bk.",413608,Maharashtra,IN,https://www.google.com/maps/place/EIDGAH+MASJID/data=!4m7!3m6!1s0x3bc58c56c6172e2f:0xaaec9605580d24e2!8m2!3d17.99055!4d76.3249438!16s%2Fg%2F11ckr8w1p0!19sChIJLy4XxlaMxTsR4iQNWAWW7Ko?authuser=0&hl=en&rclk=1,"17.99055,76.3249438"
"Arab Masjid - `rb msjd, ys ar tty khlwny, `thmnabd",Mosque,"52MQ+4HX Arab Masjid - `rb msjd, ys ar tty khlwny, `thmnabd, Main Rd, S.R.T.Colony, Osmanabad, Maharashtra 413501",S.R.T.Colony,"52MQ+4HX, Main Rd",Osmanabad,413501,Maharashtra,IN,https://www.google.com/maps/place/Arab+Masjid+-+%D8%B9%D8%B1%D8%A8+%D9%85%D8%B3%D8%AC%D8%AF%D8%8C+%D8%A7%DB%8C%D8%B3+%D8%A2%D8%B1+%D9%B9%DB%8C+%DA%A9%D8%A7%D9%84%D9%88%D9%86%DB%8C%D8%8C+%D8%B9%D8%AB%D9%85%D8%A7%D9%86%D8%A2%D8%A8%D8%A7%D8%AF%E2%80%AD/data=!4m7!3m6!1s0x3bc5a3cd2da3a03f:0xb15235fb6162b17!8m2!3d18.182855!4d76.038976!16s%2Fg%2F11hcdv514v!19sChIJP6CjLc2jxTsRFysWtl8jFQs?authuser=0&hl=en&rclk=1,"18.182855,76.03897599999999"
Jama Masjid jm` msjd,Mosque,"52GR+J24 Jama Masjid jm` msjd, Dargah Rd, Khadak Pura, Islam Pura, Osmanabad, Maharashtra 413501","Khadak Pura, Islam Pura","52GR+J24, Dargah Rd",Osmanabad,413501,Maharashtra,IN,https://www.google.com/maps/place/Jama+Masjid+%D8%AC%D8%A7%D9%85%D8%B9+%D9%85%D8%B3%D8%AC%D8%AF%E2%80%AD/data=!4m7!3m6!1s0x3bc5a2352787766f:0x616e3308c1b62c9f!8m2!3d18.1765155!4d76.040064!16s%2Fg%2F11cs4m6wzz!19sChIJb3aHJzWixTsRnyy2wQgzbmE?authuser=0&hl=en&rclk=1,"18.1765155,76.040064"
"Masjid-e-Quba - msjdi qb, `thmnabd",Mosque,"529R+MVP Masjid-e-Quba - msjdi qb, `thmnabd, Khaja Nagar, Osmanabad, Maharashtra 413501",Khaja Nagar,529R+MVP,Osmanabad,413501,Maharashtra,IN,https://www.google.com/maps/place/Masjid-e-Quba+-+%D9%85%D8%B3%D8%AC%D8%AF%D9%90+%D9%82%D8%A8%D8%A7%D8%8C+%D8%B9%D8%AB%D9%85%D8%A7%D9%86%D8%A2%D8%A8%D8%A7%D8%AF%E2%80%AD/data=!4m7!3m6!1s0x3bc5a24a91e64f5f:0xbec48fdcc836f0ce!8m2!3d18.1692209!4d76.0422155!16s%2Fg%2F11bwkdqlyk!19sChIJX0_mkUqixTsRzvA2yNyPxL4?authuser=0&hl=en&rclk=1,"18.1692209,76.0422155"
nwrny msjd Noorani Masjid nuuraanii msjid,Mosque,"527X+PRG nwrny msjd Noorani Masjid nuuraanii msjid, Tuljapur naka,, Osmanabad Bypass Rd, Osmanabad, Maharashtra 413501",Shekapur,"527X+PRG, Tuljapur naka,, Osmanabad Bypass Rd",Osmanabad,413501,Maharashtra,IN,https://www.google.com/maps/place/%D9%86%D9%88%D8%B1%D8%A7%D9%86%DB%8C+%D9%85%D8%B3%D8%AC%D8%AF+Noorani+Masjid+%E0%A4%A8%E0%A5%82%E0%A4%B0%E0%A4%BE%E0%A4%A8%E0%A5%80+%E0%A4%AE%E0%A4%B8%E0%A5%8D%E0%A4%9C%E0%A4%BF%E0%A4%A6%E2%80%AD/data=!4m7!3m6!1s0x3bc5a24f943adfd7:0x631dcd2bcffd5533!8m2!3d18.1643194!4d76.0495894!16s%2Fg%2F11csryyyrh!19sChIJ1986lE-ixTsRM1X9zyvNHWM?authuser=0&hl=en&rclk=1,"18.1643194,76.0495894"
Jama Masjid,Mosque,"939V+64W Jama Masjid, Dhoki Town, Maharashtra 413508",,939V+64W,Dhoki Town,413508,Maharashtra,IN,https://www.google.com/maps/place/Jama+Masjid/data=!4m7!3m6!1s0x3bc574b6b87327d1:0xac5f7096370a6c28!8m2!3d18.3681149!4d76.0928177!16s%2Fg%2F11c1xh_d4p!19sChIJ0SdzuLZ0xTsRKGwKN5ZwX6w?authuser=0&hl=en&rclk=1,"18.3681149,76.0928177"
jaamaa msjid yeddshii,Mosque,"8XF8+G29 jaamaa msjid yeddshii, Yedashi, Maharashtra 413405",,8XF8+G29,Yedashi,413405,Maharashtra,IN,https://www.google.com/maps/place/%E0%A4%9C%E0%A4%BE%E0%A4%AE%E0%A4%BE+%E0%A4%AE%E0%A4%B8%E0%A5%8D%E0%A4%9C%E0%A4%BF%E0%A4%A6+%E0%A4%AF%E0%A5%87%E0%A4%A1%E0%A4%B6%E0%A5%80/data=!4m7!3m6!1s0x3bc509a3e849abd9:0x47a7798db607618!8m2!3d18.3237834!4d75.9651157!16s%2Fg%2F11hbgbz56m!19sChIJ2atJ6KMJxTsRGHZg25h3egQ?authuser=0&hl=en&rclk=1,"18.3237834,75.9651157"
"`ydgh `thmn abd- Eidgah, Osmanabad",Mosque,"529R+GXJ `ydgh `thmn abd- Eidgah, Osmanabad, Khaja Nagar, Osmanabad, Maharashtra 413501",Khaja Nagar,529R+GXJ,Osmanabad,413501,Maharashtra,IN,"https://www.google.com/maps/place/%D8%B9%DB%8C%D9%80%D9%80%D8%AF%DA%AF%D9%80%D8%A7%DB%81+%D8%B9%D8%AB%D9%85%D9%80%D9%80%D8%A7%D9%86+%D8%A2%D8%A8%D9%80%D8%A7%D8%AF-+Eidgah,+Osmanabad%E2%80%AD/data=!4m7!3m6!1s0x3bc5a24b8248388d:0x541ce579aa639d84!8m2!3d18.1688345!4d76.0423801!16s%2Fg%2F11fx7rndn_!19sChIJjThIgkuixTsRhJ1jqnnlHFQ?authuser=0&hl=en&rclk=1","18.1688345,76.0423801"
Dargah Masjid - drgh msjd,Mosque,"52CQ+VVM Dargah Masjid - drgh msjd, Khaja Nagar, Osmanabad, Maharashtra 413501",Khaja Nagar,52CQ+VVM,Osmanabad,413501,Maharashtra,IN,https://www.google.com/maps/place/Dargah+Masjid+-+%D8%AF%D8%B1%DA%AF%D8%A7%DB%81+%D9%85%D8%B3%D8%AC%D8%AF%E2%80%AD/data=!4m7!3m6!1s0x3bc5a24ab3c62cd3:0x14bac70b25287ab3!8m2!3d18.1722167!4d76.0396864!16s%2Fg%2F11c2j1qwvh!19sChIJ0yzGs0qixTsRs3ooJQvHuhQ?authuser=0&hl=en&rclk=1,"18.1722167,76.0396864"
Macca Masjid Yedshi,Mosque,"8X87+9Q6 Macca Masjid Yedshi, Yedashi, Maharashtra 413405",,8X87+9Q6,Yedashi,413405,Maharashtra,IN,https://www.google.com/maps/place/Macca+Masjid+Yedshi/data=!4m7!3m6!1s0x3bc509bc87f92df7:0x5536b312d3796194!8m2!3d18.3159009!4d75.9643896!16s%2Fg%2F11f085m3pj!19sChIJ9y35h7wJxTsRlGF50xKzNlU?authuser=0&hl=en&rclk=1,"18.3159009,75.96438959999999"
Masjid E Hussain Pura,Mosque,"529X+JGQ Masjid E Hussain Pura, Hussainpura, Osmanabad, Maharashtra 413501",Hussainpura,529X+JGQ,Osmanabad,413501,Maharashtra,IN,https://www.google.com/maps/place/Masjid+E+Hussain+Pura/data=!4m7!3m6!1s0x3bc5a31d9898c093:0x683aff986692fd7d!8m2!3d18.1690916!4d76.0488667!16s%2Fg%2F11ghrd7fdp!19sChIJk8CYmB2jxTsRff2SZpj_Omg?authuser=0&hl=en&rclk=1,"18.169091599999998,76.04886669999999"
"Ayan Masjid - yn msjd, `thmnabd",Mosque,"52HQ+36J Ayan Masjid - yn msjd, `thmnabd, malli galli, Khirni Mohalla, Osmanabad, Maharashtra 413501","Khadak Pura, Islam Pura","52HQ+36J, malli galli, Khirni Mohalla",Osmanabad,413501,Maharashtra,IN,https://www.google.com/maps/place/Ayan+Masjid+-+%D8%A7%DB%8C%D8%A7%D9%86+%D9%85%D8%B3%D8%AC%D8%AF%D8%8C+%D8%B9%D8%AB%D9%85%D8%A7%D9%86%D8%A2%D8%A8%D8%A7%D8%AF%E2%80%AD/data=!4m7!3m6!1s0x3bc5a3cb322f9e69:0x98d48fbfd2ef320c!8m2!3d18.1777058!4d76.0380108!16s%2Fg%2F11gfj60jqf!19sChIJaZ4vMsujxTsRDDLv0r-P1Jg?authuser=0&hl=en&rclk=1,"18.1777058,76.0380108"
"Masjid-E-Ibrahimi - msjdi brhymy, slTnpwrh, `thmnabd",Mosque,"623Q+9W4 Masjid-E-Ibrahimi - msjdi brhymy, slTnpwrh, `thmnabd, Sultanpura Rd, Galib Nagar, Osmanabad, Maharashtra 413501",Galib Nagar,"623Q+9W4, Sultanpura Rd",Osmanabad,413501,Maharashtra,IN,https://www.google.com/maps/place/Masjid-E-Ibrahimi+-+%D9%85%D8%B3%D8%AC%D8%AF%D9%90+%D8%A7%D8%A8%D8%B1%D8%A7%DB%81%DB%8C%D9%85%DB%8C%D8%8C+%D8%B3%D9%84%D8%B7%D8%A7%D9%86%D9%BE%D9%88%D8%B1%DB%81%D8%8C+%D8%B9%D8%AB%D9%85%D8%A7%D9%86%D8%A2%D8%A8%D8%A7%D8%AF%E2%80%AD/data=!4m7!3m6!1s0x3bc5a1820f931a4d:0x94797d7f0b118ce7!8m2!3d18.203378!4d76.0398179!16s%2Fg%2F11gfn6122z!19sChIJTRqTD4KhxTsR54wRC399eZQ?authuser=0&hl=en&rclk=1,"18.203378,76.0398179"
Jama Masjid,Mosque,"35W6+WGW Jama Masjid, Keshegaon, Maharashtra 413506",,35W6+WGW,Keshegaon,413506,Maharashtra,IN,https://www.google.com/maps/place/Jama+Masjid/data=!4m7!3m6!1s0x3bc5974476ae89cd:0x1110917aba8f8efb!8m2!3d18.0973641!4d76.1613199!16s%2Fg%2F11f28grfb8!19sChIJzYmudkSXxTsR-46PunqREBE?authuser=0&hl=en&rclk=1,"18.0973641,76.1613199"
"JAMA MASJID,BORKHEDA",Mosque,"56CM+MFW JAMA MASJID,BORKHEDA, Borgaon raje, Maharashtra 413580",,56CM+MFW,Borgaon raje,413580,Maharashtra,IN,"https://www.google.com/maps/place/JAMA+MASJID,BORKHEDA/data=!4m7!3m6!1s0x3bc59b048b474729:0x2b9b5d76209df87f!8m2!3d18.1717464!4d76.2336893!16s%2Fg%2F11f0wlgcdr!19sChIJKUdHiwSbxTsRf_idIHZdmys?authuser=0&hl=en&rclk=1","18.1717464,76.2336893"
Mohhamdiya Masjid-Madarsa,Mosque,"7FF3+GM6 Mohhamdiya Masjid-Madarsa, Paranda, Maharashtra 413502",,7FF3+GM6,Paranda,413502,Maharashtra,IN,https://www.google.com/maps/place/Mohhamdiya+Masjid-Madarsa/data=!4m7!3m6!1s0x3bc4f66bda0a95e1:0xbd34771de51fc9a1!8m2!3d18.2737989!4d75.4541321!16s%2Fg%2F11c54847zq!19sChIJ4ZUK2mv2xDsRockf5R13NL0?authuser=0&hl=en&rclk=1,"18.2737989,75.4541321"
Aqsa Mosque qSy msjd,Mosque,"52FV+R7Q Aqsa Mosque qSy msjd, Khaja Nagar, Osmanabad, Maharashtra 413501",Khaja Nagar,52FV+R7Q,Osmanabad,413501,Maharashtra,IN,https://www.google.com/maps/place/Aqsa+Mosque+%D8%A7%D9%82%D8%B5%DB%8C%D9%B0+%D9%85%D8%B3%D8%AC%D8%AF%E2%80%AD/data=!4m7!3m6!1s0x3bc5a235920906e5:0x18020549d009982e!8m2!3d18.1745911!4d76.0432384!16s%2Fg%2F11g8kc8xxp!19sChIJ5QYJkjWixTsRLpgJ0EkFAhg?authuser=0&hl=en&rclk=1,"18.1745911,76.04323839999999"
Masjid E Usmaniya,Mosque,"45M4+F4Q Masjid E Usmaniya, Gaundgaon, Maharashtra 413501",,45M4+F4Q,Gaundgaon,413501,Maharashtra,IN,https://www.google.com/maps/place/Masjid+E+Usmaniya/data=!4m7!3m6!1s0x3bc5997507481da5:0xcee20540a9276d4a!8m2!3d18.1337043!4d76.1553584!16s%2Fg%2F11fmd6vq6w!19sChIJpR1IB3WZxTsRSm0nqUAF4s4?authuser=0&hl=en&rclk=1,"18.133704299999998,76.1553584"
"Sadiqia Masjid - Sdyqyh msjd, `thmnabd",Mosque,"52FR+3GP Sadiqia Masjid - Sdyqyh msjd, `thmnabd, Khaja Nagar, Osmanabad, Maharashtra 413501",Khaja Nagar,52FR+3GP,Osmanabad,413501,Maharashtra,IN,https://www.google.com/maps/place/Sadiqia+Masjid+-+%D8%B5%D8%AF%DB%8C%D9%82%DB%8C%DB%81+%D9%85%D8%B3%D8%AC%D8%AF%D8%8C+%D8%B9%D8%AB%D9%85%D8%A7%D9%86%D8%A2%D8%A8%D8%A7%D8%AF%E2%80%AD/data=!4m7!3m6!1s0x3bc5a24c7a3c4dcf:0xf618d184963ba7c3!8m2!3d18.1727029!4d76.0413288!16s%2Fg%2F11cn7h_0l9!19sChIJz008ekyixTsRw6c7loTRGPY?authuser=0&hl=en&rclk=1,"18.1727029,76.0413288"
Masjid E Aasar Shareef,Mosque,"52GR+V29 Masjid E Aasar Shareef, Dargah Rd, Khadak Pura, Islam Pura, Osmanabad, Maharashtra 413501","Khadak Pura, Islam Pura","52GR+V29, Dargah Rd",Osmanabad,413501,Maharashtra,IN,https://www.google.com/maps/place/Masjid+E+Aasar+Shareef/data=!4m7!3m6!1s0x3bc5a234db20f3df:0xf3a16b4ddcbea70a!8m2!3d18.1771697!4d76.0401046!16s%2Fg%2F11c549bjky!19sChIJ3_Mg2zSixTsRCqe-3E1rofM?authuser=0&hl=en&rclk=1,"18.1771697,76.04010459999999"
Aayesha Masjid,Mosque,"52GP+VH6 Aayesha Masjid, Rasul pura, Osmanabad, Maharashtra 413501",Bhim Nagar,"52GP+VH6, Rasul pura",Osmanabad,413501,Maharashtra,IN,https://www.google.com/maps/place/Aayesha+Masjid/data=!4m7!3m6!1s0x3bc5a3cb09b5339b:0xa6a1acec1c56de05!8m2!3d18.1771554!4d76.0363877!16s%2Fg%2F11f159l72s!19sChIJmzO1CcujxTsRBd5WHOysoaY?authuser=0&hl=en&rclk=1,"18.1771554,76.03638769999999"
Pohner Masjid,Mosque,"4289+FC2 Pohner Masjid, Pohner, Maharashtra 413501",,4289+FC2,Pohner,413501,Maharashtra,IN,https://www.google.com/maps/place/Pohner+Masjid/data=!4m7!3m6!1s0x3bc5a334022e9f21:0x7fd3a0a82e53a519!8m2!3d18.1161435!4d76.0185243!16s%2Fg%2F11hfs62jj4!19sChIJIZ8uAjSjxTsRGaVTLqig038?authuser=0&hl=en&rclk=1,"18.1161435,76.0185243"
JAMA MASJID ASHIV,Mosque,"487X+RVW JAMA MASJID ASHIV, Ashiv, Maharashtra 413520",,487X+RVW,Ashiv,413520,Maharashtra,IN,https://www.google.com/maps/place/JAMA+MASJID+ASHIV/data=!4m7!3m6!1s0x3bc58f453adcc5fb:0x124423e34da9d75f!8m2!3d18.1146047!4d76.3497079!16s%2Fg%2F11f0kvh3cm!19sChIJ-8XcOkWPxTsRX9epTeMjRBI?authuser=0&hl=en&rclk=1,"18.114604699999997,76.3497079"
Mohhamadiya masjid,Mosque,"Mohhamadiya masjid, Dhoki Town, Maharashtra 413508",,,Dhoki Town,413508,Maharashtra,IN,https://www.google.com/maps/place/Mohhamadiya+masjid/data=!4m7!3m6!1s0x3bc5751fd1eeb6c9:0x7beb413a7d229832!8m2!3d18.3729848!4d76.1064547!16s%2Fg%2F11kr7px6s0!19sChIJybbu0R91xTsRMpgifTpB63s?authuser=0&hl=en&rclk=1,"18.372984799999998,76.1064547"
Iqra Masjid Dharashiv,Mosque,"43V7+52C Iqra Masjid Dharashiv, behind the tpct's college of engineering, Maharashtra 413501",,"43V7+52C, behind the tpct's college of engineering",,,Maharashtra,IN,https://www.google.com/maps/place/Iqra+Masjid+Dharashiv/data=!4m7!3m6!1s0x3bc5a3a1118af837:0xfd9357896246a6f0!8m2!3d18.1429467!4d76.0625254!16s%2Fg%2F11ffv3yh20!19sChIJN_iKEaGjxTsR8KZGYolXk_0?authuser=0&hl=en&rclk=1,"18.1429467,76.0625254"
Rahebar Masjid - rybr msjd `thmnabd,Mosque,"528V+MC8 Rahebar Masjid - rybr msjd `thmnabd, Khaja Nagar, Osmanabad, Maharashtra 413501",Khaja Nagar,528V+MC8,Osmanabad,413501,Maharashtra,IN,https://www.google.com/maps/place/Rahebar+Masjid+-+%D8%B1%DB%8C%D8%A8%D8%B1+%D9%85%D8%B3%D8%AC%D8%AF+%D8%B9%D8%AB%D9%85%D8%A7%D9%86%D8%A2%D8%A8%D8%A7%D8%AF%E2%80%AD/data=!4m7!3m6!1s0x3bc5a24c15514393:0x83df6af750a2cd1b!8m2!3d18.1666681!4d76.0435709!16s%2Fg%2F11csgttscg!19sChIJk0NRFUyixTsRG82iUPdq34M?authuser=0&hl=en&rclk=1,"18.1666681,76.04357089999999"
"Masjid o Madarsa Fahimunnisa Begum - msjdwN mdrsh fhmuns bygm, `thmnabd",Mosque,"53C2+GR5 Masjid o Madarsa Fahimunnisa Begum - msjdwN mdrsh fhmuns bygm, `thmnabd, Hussainpura, Osmanabad, Maharashtra 413501",Hussainpura,53C2+GR5,Osmanabad,413501,Maharashtra,IN,https://www.google.com/maps/place/Masjid+o+Madarsa+Fahimunnisa+Begum+-+%D9%85%D8%B3%D8%AC%D8%AF%D9%88%DA%BA+%D9%85%D8%AF%D8%B1%D8%B3%DB%81+%D9%81%D9%87%D9%85%D9%8F%D9%86%D8%B3%D8%A7+%D8%A8%DB%8C%DA%AF%D9%85%D8%8C+%D8%B9%D8%AB%D9%85%D8%A7%D9%86%D8%A2%D8%A8%D8%A7%D8%AF%E2%80%AD/data=!4m7!3m6!1s0x3bc5a188108e0e8d:0x31e86e5af1cec7f9!8m2!3d18.1712561!4d76.0521043!16s%2Fg%2F11h7f_mz6s!19sChIJjQ6OEIihxTsR-cfO8Vpu6DE?authuser=0&hl=en&rclk=1,"18.1712561,76.0521043"
"Masjid al Siraj Osmanabad - msjdi l srj, `thmnabd",Mosque,"624P+MR8 Masjid al Siraj Osmanabad - msjdi l srj, `thmnabd, Shahunagar Rd, Mahatma Gandhi Nagar, Galib Nagar, Osmanabad, Maharashtra 413501","Mahatma Gandhi Nagar, Galib Nagar","624P+MR8, Shahunagar Rd",Osmanabad,413501,Maharashtra,IN,https://www.google.com/maps/place/Masjid+al+Siraj+Osmanabad+-+%D9%85%D8%B3%D8%AC%D8%AF%D9%90+%D8%A7%D9%84+%D8%B3%D8%B1%D8%A7%D8%AC%D8%8C+%D8%B9%D8%AB%D9%85%D8%A7%D9%86%D8%A2%D8%A8%D8%A7%D8%AF%E2%80%AD/data=!4m7!3m6!1s0x3bc5a1055ecf09c3:0x2aceee6d4bccfb3b!8m2!3d18.2066567!4d76.0370771!16s%2Fg%2F11fnsxp7vs!19sChIJwwnPXgWhxTsRO_vMS23uzio?authuser=0&hl=en&rclk=1,"18.2066567,76.03707709999999"
"Abubakkar Siddik Masjid - msjdi bwbkhr Sdyq, ndr khlwny, `thmnabd",Mosque,"52HV+RF7 Abubakkar Siddik Masjid - msjdi bwbkhr Sdyq, ndr khlwny, `thmnabd, Indira Colony, Osmanabad, Maharashtra 413501",Indira Colony,52HV+RF7,Osmanabad,413501,Maharashtra,IN,https://www.google.com/maps/place/Abubakkar+Siddik+Masjid+-+%D9%85%D8%B3%D8%AC%D8%AF%D9%90+%D8%A7%D8%A8%D9%88%D8%A8%DA%A9%D8%B1+%D8%B5%D8%AF%DB%8C%D9%82%D8%8C+%D8%A7%D9%86%D8%AF%D8%B1%D8%A7+%DA%A9%D8%A7%D9%84%D9%88%D9%86%DB%8C%D8%8C+%D8%B9%D8%AB%D9%85%D8%A7%D9%86%D8%A2%D8%A8%D8%A7%D8%AF%E2%80%AD/data=!4m7!3m6!1s0x3bc5a341bc76f6e3:0x3288a9b41b2bdcd5!8m2!3d18.1795369!4d76.0436598!16s%2Fg%2F11h06x8n21!19sChIJ4_Z2vEGjxTsR1dwrG7SpiDI?authuser=0&hl=en&rclk=1,"18.1795369,76.0436598"
Mehdavia Masjid,Mosque,"Mehdavia Masjid, 17/4, 17/4, Dargah Rd, Khadak Pura, Islam Pura, Osmanabad, Maharashtra 413501","Khadak Pura, Islam Pura","17/4, 17/4, Dargah Rd",Osmanabad,413501,Maharashtra,IN,https://www.google.com/maps/place/Mehdavia+Masjid/data=!4m7!3m6!1s0x3bc5a234ddba9ae1:0x49d0e93d32fe9ee0!8m2!3d18.1770423!4d76.0405076!16s%2Fg%2F11g6bwn6_0!19sChIJ4Zq63TSixTsR4J7-Mj3p0Ek?authuser=0&hl=en&rclk=1,"18.1770423,76.0405076"
Ahmad Huseni Masjid,Mosque,"Ahmad Huseni Masjid, Shamspura, Khaja Nagar, Osmanabad, Maharashtra 413501",Khaja Nagar,Shamspura,Osmanabad,413501,Maharashtra,IN,https://www.google.com/maps/place/Ahmad+Huseni+Masjid/data=!4m7!3m6!1s0x3bc5a3b55fbbdef9:0xe6bd1ea70f8c27eb!8m2!3d18.1733351!4d76.0378167!16s%2Fg%2F11g9m2fn7t!19sChIJ-d67X7WjxTsR6yeMD6ceveY?authuser=0&hl=en&rclk=1,"18.1733351,76.0378167"
Umar Masjid `mr msjd,Mosque,"52FV+HV3 Umar Masjid `mr msjd, Umar Mohalla Rd, Umar Mohalla, Khaja Nagar, Osmanabad, Maharashtra 413501","Umar Mohalla, Khaja Nagar","52FV+HV3, Umar Mohalla Rd",Osmanabad,413501,Maharashtra,IN,https://www.google.com/maps/place/Umar+Masjid+%D8%B9%D9%85%D8%B1+%D9%85%D8%B3%D8%AC%D8%AF%E2%80%AD/data=!4m7!3m6!1s0x3bc5a3c5bc4f81e3:0x312a023127bbee16!8m2!3d18.173895!4d76.044658!16s%2Fg%2F11h6t9176y!19sChIJ44FPvMWjxTsRFu67JzECKjE?authuser=0&hl=en&rclk=1,"18.173894999999998,76.044658"
Masjid e Khanka,Mosque,"Masjid e Khanka, Shamspura, Khaja Nagar, Osmanabad, Maharashtra 413501",Khaja Nagar,Shamspura,Osmanabad,413501,Maharashtra,IN,https://www.google.com/maps/place/Masjid+e+Khanka/data=!4m7!3m6!1s0x3bc5a3b54c11218d:0x3f57502bf1ef8b8b!8m2!3d18.173149!4d76.0390132!16s%2Fg%2F11fy2qj_vz!19sChIJjSERTLWjxTsRi4vv8StQVz8?authuser=0&hl=en&rclk=1,"18.173149,76.0390132"
Jama mousque masjid,Mosque,"FRX7+MQ5 Jama mousque masjid, Indapur, Maharashtra 413503",,FRX7+MQ5,Indapur,,Maharashtra,IN,https://www.google.com/maps/place/Jama+mousque+masjid/data=!4m7!3m6!1s0x3bc51bc4a874e923:0x13391c9c41ab1c4e!8m2!3d18.4991342!4d75.8144813!16s%2Fg%2F11g03rcsl1!19sChIJI-l0qMQbxTsRThyrQZwcORM?authuser=0&hl=en&rclk=1,"18.4991342,75.8144813"
Jamia Masjid,Mosque,"45RV+3X2 Jamia Masjid, Bembli, Maharashtra 413506",,45RV+3X2,Bembli,413506,Maharashtra,IN,https://www.google.com/maps/place/Jamia+Masjid/data=!4m7!3m6!1s0x3bc59a3dc304e15f:0x3c0ebb9ea4194fab!8m2!3d18.1401423!4d76.1948811!16s%2Fg%2F11b8c50khj!19sChIJX-EEwz2axTsRq08ZpJ67Djw?authuser=0&hl=en&rclk=1,"18.1401423,76.1948811"
"Masjid e-Noor Hazrat Bilal Nagar - msjdi nwr, HDrt bll ngr",Mosque,"Masjid e-Noor Hazrat Bilal Nagar - msjdi nwr, HDrt bll ngr, Hajrat Bilal nager, Amrut Nagar, Osmanabad, Maharashtra 413501","Amrut Nagar, Rajiv Gandhi Nagar",Hajrat Bilal nager,Osmanabad,413501,Maharashtra,IN,https://www.google.com/maps/place/Masjid+e-Noor+Hazrat+Bilal+Nagar+-+%D9%85%D8%B3%D8%AC%D8%AF%D9%90+%D9%86%D9%88%D8%B1%D8%8C+%D8%AD%D8%B6%D8%B1%D8%AA+%D8%A8%D9%84%D8%A7%D9%84+%D9%86%DA%AF%D8%B1%E2%80%AD/data=!4m7!3m6!1s0x3bc5a179f173f103:0x3f5b4ae23c582cc0!8m2!3d18.2111408!4d76.0371621!16s%2Fg%2F11ql_15sxk!19sChIJA_Fz8XmhxTsRwCxYPOJKWz8?authuser=0&hl=en&rclk=1,"18.2111408,76.0371621"
Huzaifa Masjid,Mosque,"52CV+HPQ Huzaifa Masjid, Khaja Nagar, Osmanabad, Maharashtra 413501",Khaja Nagar,52CV+HPQ,Osmanabad,413501,Maharashtra,IN,https://www.google.com/maps/place/Huzaifa+Masjid/data=!4m7!3m6!1s0x3bc5a24a3163396d:0x1bb164a0b6f4dba9!8m2!3d18.1714629!4d76.044374!16s%2Fg%2F11bzs1fdw0!19sChIJbTljMUqixTsRqdv0tqBksRs?authuser=0&hl=en&rclk=1,"18.171462899999998,76.04437399999999"
Jama masjid dhutta,Mosque,"4767+XMX Jama masjid dhutta, Dhutta, Maharashtra 413506",,4767+XMX,Dhutta,413506,Maharashtra,IN,https://www.google.com/maps/place/Jama+masjid+dhutta/data=!4m7!3m6!1s0x3bc591c470e3fe9b:0xb97d1b902991051b!8m2!3d18.1124903!4d76.2642256!16s%2Fg%2F11h4mq31rc!19sChIJm_7jcMSRxTsRGwWRKZAbfbk?authuser=0&hl=en&rclk=1,"18.112490299999997,76.2642256"
"Masjid e Farashan - msjdi frshn, frs mHlWh, `thmnabd",Mosque,"52FR+W6R Masjid e Farashan - msjdi frshn, frs mHlWh, `thmnabd, faras gali, Osmanabad, Maharashtra 413501","Khadak Pura, Islam Pura","52FR+W6R, faras gali",Osmanabad,413501,Maharashtra,IN,https://www.google.com/maps/place/Masjid+e+Farashan+-+%D9%85%D8%B3%D8%AC%D8%AF%D9%90+%D9%81%D8%B1%D8%B4%D8%A7%D9%86%D8%8C+%D9%81%D8%A7%D8%B1%D8%B3+%D9%85%D8%AD%D9%84%D9%91%DB%81%D8%8C+%D8%B9%D8%AB%D9%85%D8%A7%D9%86%D8%A2%D8%A8%D8%A7%D8%AF%E2%80%AD/data=!4m7!3m6!1s0x3bc5a23541ba5365:0xfc6fe0f6d8cff0ec!8m2!3d18.174866!4d76.0405183!16s%2Fg%2F11g9nljrv_!19sChIJZVO6QTWixTsR7PDP2Pbgb_w?authuser=0&hl=en&rclk=1,"18.174865999999998,76.0405183"
Masjid e Gulab,Mosque,"5393+WJ7 Masjid e Gulab, Ganesh Nagar, Osmanabad, Maharashtra 413501",Ganesh Nagar,5393+WJ7,Osmanabad,413501,Maharashtra,IN,https://www.google.com/maps/place/Masjid+e+Gulab/data=!4m7!3m6!1s0x3bc5a34b114c6e4f:0xbd30d81f51928151!8m2!3d18.1697842!4d76.0540554!16s%2Fg%2F11v4htznhp!19sChIJT25MEUujxTsRUYGSUR_YML0?authuser=0&hl=en&rclk=1,"18.1697842,76.0540554"
Jama-Masjid-e-Mullayan,Mosque,"Jama-Masjid-e-Mullayan, Khadak Pura, Islam Pura, Osmanabad, Maharashtra 413501","Khadak Pura, Islam Pura",,Osmanabad,,Maharashtra,IN,https://www.google.com/maps/place/Jama-Masjid-e-Mullayan/data=!4m7!3m6!1s0x3bc5a23567dbad8b:0x84daff269219e2d6!8m2!3d18.1743869!4d76.0408629!16s%2Fg%2F1vn9mjsm!19sChIJi63bZzWixTsR1uIZkib_2oQ?authuser=0&hl=en&rclk=1,"18.1743869,76.0408629"
Yedsi Toll Farooqui Masjid,Mosque,"8X4R+7PH Yedsi Toll Farooqui Masjid, Osmanabad, Maharashtra 413501",,8X4R+7PH,Osmanabad,,Maharashtra,IN,https://www.google.com/maps/place/Yedsi+Toll+Farooqui+Masjid/data=!4m7!3m6!1s0x3bc50968ed9500dd:0x3c81832e2a3aae0f!8m2!3d18.3056866!4d75.9918694!16s%2Fg%2F11fs81268_!19sChIJ3QCV7WgJxTsRD646Ki6DgTw?authuser=0&hl=en&rclk=1,"18.305686599999998,75.9918694"
Jamma Masjid Begda,Mosque,"32W7+VVR Jamma Masjid Begda, Unnamed Road, Begada, Pohner, Maharashtra 413501",,"32W7+VVR, Unnamed Road","Begada, Pohner",413501,Maharashtra,IN,https://www.google.com/maps/place/Jamma+Masjid+Begda/data=!4m7!3m6!1s0x3bc5bd971a001c0b:0x17f21675eef81b72!8m2!3d18.0972455!4d76.014635!16s%2Fg%2F11jh205jrt!19sChIJCxwAGpe9xTsRchv47nUW8hc?authuser=0&hl=en&rclk=1,"18.0972455,76.014635"
Jama masjid Chikhurda,Mosque,"CCHC+GGQ Jama masjid Chikhurda, Chikhurda, Maharashtra 413511",,CCHC+GGQ,Chikhurda,413511,Maharashtra,IN,https://www.google.com/maps/place/Jama+masjid+Chikhurda/data=!4m7!3m6!1s0x3bc57d8a181c406d:0x22463411936c2d56!8m2!3d18.4288309!4d76.4213497!16s%2Fg%2F11rbc_htk2!19sChIJbUAcGIp9xTsRVi1skxE0RiI?authuser=0&hl=en&rclk=1,"18.428830899999998,76.4213497"
Jama Masjid,Mosque,"4GFW+VP6 Jama Masjid, Unnamed Road, Chincholi Tapse, Maharashtra 413516",,"4GFW+VP6, Unnamed Road",Chincholi Tapse,413516,Maharashtra,IN,https://www.google.com/maps/place/Jama+Masjid/data=!4m7!3m6!1s0x3bcf637ac4611c35:0x21145d60684654fc!8m2!3d18.1246702!4d76.5467614!16s%2Fg%2F11q26529pf!19sChIJNRxhxHpjzzsR_FRGaGBdFCE?authuser=0&hl=en&rclk=1,"18.1246702,76.5467614"
Jama masjid,Mosque,"4C9X+74R Jama masjid, Malkondji, Maharashtra 413520",,4C9X+74R,Malkondji,413520,Maharashtra,IN,https://www.google.com/maps/place/Jama+masjid/data=!4m7!3m6!1s0x3bc589e2d34de57d:0x22920dd64f657586!8m2!3d18.1182466!4d76.4477661!16s%2Fg%2F11hjzv9xhq!19sChIJfeVN0-KJxTsRhnVlT9YNkiI?authuser=0&hl=en&rclk=1,"18.1182466,76.4477661"
Markaz Masjid-a-Aayesha,Mosque,"VC4R+CQX Markaz Masjid-a-Aayesha, Mumbai Hwy, Yenegur, Maharashtra 413604",,"VC4R+CQX, Mumbai Hwy",Yenegur,413604,Maharashtra,IN,https://www.google.com/maps/place/Markaz+Masjid-a-Aayesha/data=!4m7!3m6!1s0x3bc5f51c26dae29d:0x533d33f83541104a!8m2!3d17.856123!4d76.441997!16s%2Fg%2F11fn0j4f46!19sChIJneLaJhz1xTsRShBBNfgzPVM?authuser=0&hl=en&rclk=1,"17.856123,76.441997"
Osmanabad - usmaanaabaad,,"626V+7W7 Osmanabad - usmaanaabaad, Mukteshwar colony, Old Upla Rd, behind Dnyaneshwar temple, Osmanabad, Maharashtra 413501","Mahatma Gandhi Nagar, Rajiv Gandhi Nagar","626V+7W7, Mukteshwar colony, Old Upla Rd, behind Dnyaneshwar temple",Osmanabad,413501,Maharashtra,IN,https://www.google.com/maps/place/Osmanabad+-+%E0%A4%89%E0%A4%B8%E0%A5%8D%E0%A4%AE%E0%A4%BE%E0%A4%A8%E0%A4%BE%E0%A4%AC%E0%A4%BE%E0%A4%A6/data=!4m7!3m6!1s0x3bc5a18e650f25c9:0x40a09914c7aa967f!8m2!3d18.2106526!4d76.0447914!16s%2Fg%2F11srhlxtm_!19sChIJySUPZY6hxTsRf5aqxxSZoEA?authuser=0&hl=en&rclk=1,"18.2106526,76.0447914"
Jama Masjid Mulayan,Mosque,"Jama Masjid Mulayan, Tamil Chowk, S.R.T.Colony, Osmanabad, Maharashtra 413501",S.R.T.Colony,Tamil Chowk,Osmanabad,,Maharashtra,IN,https://www.google.com/maps/place/Jama+Masjid+Mulayan/data=!4m7!3m6!1s0x3bc5a3513db91ee1:0x3f22e03a7e50d832!8m2!3d18.185332!4d76.0419642!16s%2Fg%2F11sbwwgvpx!19sChIJ4R65PVGjxTsRMthQfjrgIj8?authuser=0&hl=en&rclk=1,"18.185332,76.0419642"
Makka Masjid Higlajwadi,Mosque,"74V6+886 Makka Masjid Higlajwadi, Hinglajwadi, Maharashtra 413501",,74V6+886,Hinglajwadi,,Maharashtra,IN,https://www.google.com/maps/place/Makka+Masjid+Higlajwadi/data=!4m7!3m6!1s0x3bc59fee2f7e430b:0xf98e824a99b70a74!8m2!3d18.2932934!4d76.1107737!16s%2Fg%2F11n6xw59s3!19sChIJC0N-L-6fxTsRdAq3mUqCjvk?authuser=0&hl=en&rclk=1,"18.2932934,76.1107737"
Jindasha Madar Mosque,Mosque,"X8RH+F2M Jindasha Madar Mosque, Lohara, Lohara Bk., Maharashtra 413608",,X8RH+F2M,"Lohara, Lohara Bk.",413608,Maharashtra,IN,https://www.google.com/maps/place/Jindasha+Madar+Mosque/data=!4m7!3m6!1s0x3bc58c574a09e521:0xb1a1905173e4e4ac!8m2!3d17.9912175!4d76.3275488!16s%2Fg%2F11f00qnjw6!19sChIJIeUJSleMxTsRrOTkc1GQobE?authuser=0&hl=en&rclk=1,"17.991217499999998,76.3275488"
JAMA MASJID jaamaa msjid,Mosque,"VGRX+68V JAMA MASJID jaamaa msjid, Balsur, Maharashtra 413604",,VGRX+68V,Balsur,413604,Maharashtra,IN,https://www.google.com/maps/place/JAMA+MASJID+%E0%A4%9C%E0%A4%BE%E0%A4%AE%E0%A4%BE+%E0%A4%AE%E0%A4%B8%E0%A5%8D%E0%A4%9C%E0%A4%BF%E0%A4%A6/data=!4m7!3m6!1s0x3bcf5ff8bbc1127d:0xa73db15d40de35db!8m2!3d17.890613!4d76.548301!16s%2Fg%2F11p5lv43l3!19sChIJfRLBu_hfzzsR2zXeQF2xPac?authuser=0&hl=en&rclk=1,"17.890613,76.548301"
Masjid E Sadikiya,Mosque,"529V+23P Masjid E Sadikiya, Khaja Nagar, Osmanabad, Maharashtra 413501",Khaja Nagar,529V+23P,Osmanabad,413501,Maharashtra,IN,https://www.google.com/maps/place/Masjid+E+Sadikiya/data=!4m7!3m6!1s0x3bc5a24c7a1703e7:0x1978d9b071fc9d67!8m2!3d18.1675781!4d76.0426946!16s%2Fg%2F11cn7n9yq9!19sChIJ5wMXekyixTsRZ538cbDZeBk?authuser=0&hl=en&rclk=1,"18.1675781,76.04269459999999"
Masjid-E-Asharfiya,Mosque,"52GP+H3 Masjid-E-Asharfiya, Bhim Nagar, Osmanabad, Maharashtra 413501",Bhim Nagar,52GP+H3,Osmanabad,,Maharashtra,IN,https://www.google.com/maps/place/Masjid-E-Asharfiya/data=!4m7!3m6!1s0x3bc5a3ffa6067323:0x39f1bf63b3974bca!8m2!3d18.1763798!4d76.0352045!16s%2Fg%2F11p76nthbl!19sChIJI3MGpv-jxTsRykuXs2O_8Tk?authuser=0&hl=en&rclk=1,"18.1763798,76.03520449999999"
Masjid-e- Ansari,Mosque,"62GP+455 Masjid-e- Ansari, NH52, M.I.D.C., Shingoli, Osmanabad, Maharashtra 413501",M.I.D.C.,"62GP+455, NH52","Shingoli, Osmanabad",413501,Maharashtra,IN,https://www.google.com/maps/place/Masjid-e-+Ansari/data=!4m7!3m6!1s0x3bc5a1052adf2813:0x350ceb11d7d5e83c!8m2!3d18.2253982!4d76.0362452!16s%2Fg%2F11v9kmqb1l!19sChIJEyjfKgWhxTsRPOjV1xHrDDU?authuser=0&hl=en&rclk=1,"18.2253982,76.0362452"
Hashmaiy masjid,Mosque,"52CQ+M6Q Hashmaiy masjid, Anand Nagar, Osmanabad, Maharashtra 413501",Anand Nagar,52CQ+M6Q,Osmanabad,413501,Maharashtra,IN,https://www.google.com/maps/place/Hashmaiy+masjid%F0%9F%95%8C%F0%9F%95%8C%F0%9F%95%8C/data=!4m7!3m6!1s0x3bc5a3d231add02b:0x4d88446db2a126a5!8m2!3d18.171719!4d76.0381043!16s%2Fg%2F11y1dp53_f!19sChIJK9CtMdKjxTsRpSahsm1EiE0?authuser=0&hl=en&rclk=1,"18.171719,76.0381043"
Jama masjid varvanti osmanabad,Mosque,"52PR+4QP Jama masjid varvanti osmanabad, Varvanti, Osmanabad, Maharashtra 413501",Varvanti,52PR+4QP,Osmanabad,,Maharashtra,IN,https://www.google.com/maps/place/Jama+masjid+varvanti+osmanabad/data=!4m7!3m6!1s0x3bc5a355f6e7f471:0xae05183fd4352eaf!8m2!3d18.185332!4d76.0419642!16s%2Fg%2F11q572s7mf!19sChIJcfTn9lWjxTsRry411D8YBa4?authuser=0&hl=en&rclk=1,"18.185332,76.0419642"
JAMA MASJID,Mosque,"5X5Q+5XR JAMA MASJID, Ambehol, Maharashtra 413501",,5X5Q+5XR,Ambehol,413501,Maharashtra,IN,https://www.google.com/maps/place/JAMA+MASJID/data=!4m7!3m6!1s0x3bc5a5d109df5319:0x690cc3a106a23e57!8m2!3d18.1579872!4d75.9898819!16s%2Fg%2F11txdvd_fs!19sChIJGVPfCdGlxTsRVz6iBqHDDGk?authuser=0&hl=en&rclk=1,"18.1579872,75.9898819"
Masjid,Mosque,"7X5R+M8R Masjid, Kumalwadi, Maharashtra 413501",,7X5R+M8R,Kumalwadi,413501,Maharashtra,IN,https://www.google.com/maps/place/Masjid/data=!4m7!3m6!1s0x3bc5a79ed6f9d103:0xa513038179286649!8m2!3d18.2592376!4d75.9907736!16s%2Fg%2F11rr1zkzjh!19sChIJA9H51p6nxTsRSWYoeYEDE6U?authuser=0&hl=en&rclk=1,"18.2592376,75.9907736"
Masjid E Abrar,School,"52FV+FC9 Masjid E Abrar, Khaja Nagar, Osmanabad, Maharashtra 413501",Khaja Nagar,52FV+FC9,Osmanabad,413501,Maharashtra,IN,https://www.google.com/maps/place/Masjid+E+Abrar/data=!4m7!3m6!1s0x3bc5a3a71c7d4725:0x35e3c573f2d0ec84!8m2!3d18.173665!4d76.043594!16s%2Fg%2F11h7kt088l!19sChIJJUd9HKejxTsRhOzQ8nPF4zU?authuser=0&hl=en&rclk=1,"18.173665,76.043594"
Masjid,Religious destination,"7XHP+3RX Masjid, Kumalwadi, Maharashtra 413501",,7XHP+3RX,Kumalwadi,413501,Maharashtra,IN,https://www.google.com/maps/place/Masjid/data=!4m7!3m6!1s0x3bc5a7212cd5d491:0x79794d259c3ec9af!8m2!3d18.2777277!4d75.9870768!16s%2Fg%2F11k441s_lb!19sChIJkdTVLCGnxTsRr8k-nCVNeXk?authuser=0&hl=en&rclk=1,"18.2777277,75.9870768"
Jamah Masjid,Mosque,"459G+VRH Jamah Masjid, Keshegaon, Vitthalwadi, Maharashtra 413506",,459G+VRH,"Keshegaon, Vitthalwadi",,Maharashtra,IN,https://www.google.com/maps/place/Jamah+Masjid/data=!4m7!3m6!1s0x3bc599d54d844fc1:0xf638ef41fd99a328!8m2!3d18.1196811!4d76.1771064!16s%2Fg%2F11h4h2htcr!19sChIJwU-ETdWZxTsRKKOZ_UHvOPY?authuser=0&hl=en&rclk=1,"18.119681099999998,76.1771064"
Dharashiv dhaaraashiv 2.0,Housing society,"52PW+77G Dharashiv dhaaraashiv 2.0, MH SH 67, Lakshmi Nagar, Osmanabad, Maharashtra 413501",Lakshmi Nagar,"52PW+77G, MH SH 67",Osmanabad,413501,Maharashtra,IN,https://www.google.com/maps/place/Dharashiv+%E0%A4%A7%E0%A4%BE%E0%A4%B0%E0%A4%BE%E0%A4%B6%E0%A4%BF%E0%A4%B5+2.0/data=!4m7!3m6!1s0x3bc5a355699a7a65:0x73177d15ab73d9e5!8m2!3d18.185683!4d76.0457086!16s%2Fg%2F11kbqky8ry!19sChIJZXqaaVWjxTsR5dlzqxV9F3M?authuser=0&hl=en&rclk=1,"18.185683,76.0457086"
Makkah masjid,Mosque,"4W34+985 Makkah masjid, Upale, Maharashtra 413401",,4W34+985,Upale,,Maharashtra,IN,https://www.google.com/maps/place/Makkah+masjid/data=!4m7!3m6!1s0x3bc5a57da6e00743:0x8a5bb7b55329ed5f!8m2!3d18.1033843!4d75.9058566!16s%2Fg%2F11tdp0_mhk!19sChIJQwfgpn2lxTsRX-0pU7W3W4o?authuser=0&hl=en&rclk=1,"18.1033843,75.90585659999999"
Jama masjid,Mosque,"924F+4XR Jama masjid, Unnamed Road, Dudhagaon, Maharashtra 413404",,"924F+4XR, Unnamed Road",Dudhagaon,413404,Maharashtra,IN,https://www.google.com/maps/place/Jama+masjid/data=!4m7!3m6!1s0x3bc50b9f7f861911:0xd6ece3ab5733ac33!8m2!3d18.355372!4d76.0248775!16s%2Fg%2F11smm93w3s!19sChIJERmGf58LxTsRM6wzV6vj7NY?authuser=0&hl=en&rclk=1,"18.355372,76.0248775"
jaamaa msjid krjkheddaa caurstaa,Mosque,"3764+WCC jaamaa msjid krjkheddaa caurstaa, Karajkheda, Maharashtra 413608",,3764+WCC,Karajkheda,413608,Maharashtra,IN,https://www.google.com/maps/place/%E0%A4%9C%E0%A4%BE%E0%A4%AE%E0%A4%BE+%E0%A4%AE%E0%A4%B8%E0%A5%8D%E0%A4%9C%E0%A4%BF%E0%A4%A6+%E0%A4%95%E0%A4%B0%E0%A4%9C%E0%A4%96%E0%A5%87%E0%A4%A1%E0%A4%BE+%E0%A4%9A%E0%A5%8C%E0%A4%B0%E0%A4%B8%E0%A5%8D%E0%A4%A4%E0%A4%BE/data=!4m7!3m6!1s0x3bc5910e30258c5f:0xd5f653a72a2014aa!8m2!3d18.0620324!4d76.2569271!16s%2Fg%2F11rhc46kkn!19sChIJX4wlMA6RxTsRqhQgKqdT9tU?authuser=0&hl=en&rclk=1,"18.0620324,76.2569271"
Dharashiv,Housing development,"62CV+G32 Dharashiv, M.I.D.C., Osmanabad, Maharashtra 413501",M.I.D.C.,62CV+G32,Osmanabad,413501,Maharashtra,IN,https://www.google.com/maps/place/Dharashiv/data=!4m7!3m6!1s0x3bc5a105efa68cc1:0x7260611411b64ed8!8m2!3d18.221261!4d76.0426484!16s%2Fg%2F11ty4tfs6b!19sChIJwYym7wWhxTsR2E62ERRhYHI?authuser=0&hl=en&rclk=1,"18.221261,76.04264839999999"
Jama masjid wadaji,Mosque,"79G2+Q8F Jama masjid wadaji, Wadji, Maharashtra 413520",,79G2+Q8F,Wadji,413520,Maharashtra,IN,https://www.google.com/maps/place/Jama+masjid+wadaji/data=!4m7!3m6!1s0x3bc583828cbff3ab:0x64239f8e2f40c0ec!8m2!3d18.276094!4d76.3506655!16s%2Fg%2F11spvt94_8!19sChIJq_O_jIKDxTsR7MBAL46fI2Q?authuser=0&hl=en&rclk=1,"18.276094,76.35066549999999"
Jama masjid,Mosque,"FQ2V+QG6 Jama masjid, Nandgaon, Bori, Maharashtra 413525",,FQ2V+QG6,"Nandgaon, Bori",413525,Maharashtra,IN,https://www.google.com/maps/place/Jama+masjid/data=!4m7!3m6!1s0x3bc5032a129eae4d:0x3afb0247d2702b0a!8m2!3d18.4519125!4d75.7937656!16s%2Fg%2F11vj3cjlht!19sChIJTa6eEioDxTsRCitw0kcC-zo?authuser=0&hl=en&rclk=1,"18.4519125,75.7937656"
Jama Masjid,Mosque,"XHH8+X76 Jama Masjid, Osmanabad, Maharashtra 413606",,XHH8+X76,Osmanabad,,Maharashtra,IN,https://www.google.com/maps/place/Jama+Masjid/data=!4m7!3m6!1s0x3bcf674faf18ec55:0x6954561866a23346!8m2!3d17.9799047!4d76.5656438!16s%2Fg%2F11gpgcswl5!19sChIJVewYr09nzzsRRjOiZhhWVGk?authuser=0&hl=en&rclk=1,"17.9799047,76.56564379999999"
"Jama masjid,jaamaa msjid",Mosque,"M77R+X9M Jama masjid,jaamaa msjid, Borgaon, Maharashtra 413216",,M77R+X9M,Borgaon,413216,Maharashtra,IN,"https://www.google.com/maps/place/Jama+masjid,%E0%A4%9C%E0%A4%BE%E0%A4%AE%E0%A4%BE+%E0%A4%AE%E0%A4%B8%E0%A5%8D%E0%A4%9C%E0%A4%BF%E0%A4%A6/data=!4m7!3m6!1s0x3bc5fb0f9dac39f9:0x4f96cb5ea2dee943!8m2!3d17.6649507!4d76.2909139!16s%2Fg%2F11r_tx5c76!19sChIJ-TmsnQ_7xTsRQ-neol7Llk8?authuser=0&hl=en&rclk=1","17.6649507,76.29091389999999"
QURAISHI MASJID COMPLEX,Mosque,"52HR+42X QURAISHI MASJID COMPLEX, Khadak Pura, Islam Pura, Osmanabad, Maharashtra 413501","Khadak Pura, Islam Pura",52HR+42X,Osmanabad,413501,Maharashtra,IN,https://www.google.com/maps/place/QURAISHI+MASJID+COMPLEX/data=!4m7!3m6!1s0x3bc5a234c7098981:0x72e4734e4c278b07!8m2!3d18.1778581!4d76.0401046!16s%2Fg%2F11gg9ckqwl!19sChIJgYkJxzSixTsRB4snTE5z5HI?authuser=0&hl=en&rclk=1,"18.177858099999998,76.04010459999999"
Masjid-E-Loharan msjd lwhr n,Mosque,"52GR+5JP Masjid-E-Loharan msjd lwhr n, Mahajan Galli, Khadak Pura, Islam Pura, Osmanabad, Maharashtra 413501","Khadak Pura, Islam Pura","52GR+5JP, Mahajan Galli",Osmanabad,413501,Maharashtra,IN,https://www.google.com/maps/place/Masjid-E-Loharan+%D9%85%D8%B3%D8%AC%D8%AF+%D9%84%D9%88%DB%81%D8%A7%D8%B1+%D8%A7%D9%86%E2%80%AD/data=!4m7!3m6!1s0x3bc5a2350c36556d:0xb03896ad3181711d!8m2!3d18.1754645!4d76.0415815!16s%2Fg%2F11hb8l_qwt!19sChIJbVU2DDWixTsRHXGBMa2WOLA?authuser=0&hl=en&rclk=1,"18.1754645,76.04158149999999"
Hashmaiy masjid,Mosque,"52PR+4QP Hashmaiy masjid, S.R.T.Colony, Osmanabad, Maharashtra 413501",S.R.T.Colony,52PR+4QP,Osmanabad,413501,Maharashtra,IN,https://www.google.com/maps/place/Hashmaiy+masjid/data=!4m7!3m6!1s0x3bc5a3c10fc6fe9b:0x6eff0fbccf6cd4f7!8m2!3d18.185332!4d76.0419642!16s%2Fg%2F11v62bg1gf!19sChIJm_7GD8GjxTsR99Rsz7wP_24?authuser=0&hl=en&rclk=1,"18.185332,76.0419642"
Masjid Chouk,Mosque,"623Q+WCP Masjid Chouk, Galib Nagar, Osmanabad, Maharashtra 413501",Galib Nagar,623Q+WCP,Osmanabad,413501,Maharashtra,IN,https://www.google.com/maps/place/Masjid+Chouk/data=!4m7!3m6!1s0x3bc5a1938f73dd5d:0x834a67633edc7959!8m2!3d18.2048888!4d76.038483!16s%2Fg%2F11vbkym8jw!19sChIJXd1zj5OhxTsRWXncPmNnSoM?authuser=0&hl=en&rclk=1,"18.2048888,76.038483"
Malang Kaka Masjid Farshi Galli,Mosque,"52FR+X38 Malang Kaka Masjid Farshi Galli, Dargah Rd, Khadak Pura, Islam Pura, Osmanabad, Maharashtra 413501","Khadak Pura, Islam Pura","52FR+X38, Dargah Rd",Osmanabad,413501,Maharashtra,IN,https://www.google.com/maps/place/Malang+Kaka+Masjid+Farshi+Galli/data=!4m7!3m6!1s0x3bc5a30d33585179:0x466d0e6c70588e08!8m2!3d18.1749018!4d76.0402089!16s%2Fg%2F11rfd0dgjb!19sChIJeVFYMw2jxTsRCI5YcGwObUY?authuser=0&hl=en&rclk=1,"18.1749018,76.0402089"
Masjid-eidgha,Mosque,"53XJ+J6G Masjid-eidgha, Sanja, Maharashtra 413501",,53XJ+J6G,Sanja,413501,Maharashtra,IN,https://www.google.com/maps/place/Masjid-eidgha/data=!4m7!3m6!1s0x3bc5a3c8ea3fb0b1:0x40cb9d06ccc92d4b!8m2!3d18.1990747!4d76.0805673!16s%2Fg%2F11s56zyph7!19sChIJsbA_6sijxTsRSy3JzAady0A?authuser=0&hl=en&rclk=1,"18.1990747,76.0805673"
Fatima masjid,Mosque,"Fatima masjid, Ram Rahim Nagar, Sanja, Maharashtra 413501",,Ram Rahim Nagar,Sanja,,Maharashtra,IN,https://www.google.com/maps/place/Fatima+masjid/data=!4m7!3m6!1s0x3bc5a301d9e7d79f:0xc88b38dffb62591f!8m2!3d18.1986195!4d76.0811641!16s%2Fg%2F11k44xhxrl!19sChIJn9fn2QGjxTsRH1li-984i8g?authuser=0&hl=en&rclk=1,"18.1986195,76.0811641"
Jama masjid,Mosque,"53XG+XFX Jama masjid, Sanja Village Rd, Sanja, Maharashtra 413501",,"53XG+XFX, Sanja Village Rd",Sanja,413501,Maharashtra,IN,https://www.google.com/maps/place/Jama+masjid/data=!4m7!3m6!1s0x3bc5a3ceba728297:0xbe10f49bf8b5750b!8m2!3d18.1999936!4d76.0762466!16s%2Fg%2F11sd8dszy6!19sChIJl4Jyus6jxTsRC3W1-Jv0EL4?authuser=0&hl=en&rclk=1,"18.1999936,76.07624659999999"
Masjid-E-Anwar,Mosque,"5X5Q+5XV Masjid-E-Anwar, Ambehol, Maharashtra 413501",,5X5Q+5XV,Ambehol,413501,Maharashtra,IN,https://www.google.com/maps/place/Masjid-E-Anwar/data=!4m7!3m6!1s0x3bc5a53f88a84b27:0x8967e7f9bcf23e9c!8m2!3d18.1579929!4d75.9899211!16s%2Fg%2F11khz7qqb9!19sChIJJ0uoiD-lxTsRnD7yvPnnZ4k?authuser=0&hl=en&rclk=1,"18.1579929,75.9899211"
Masjid,Mosque,"7X7R+8WG Masjid, Kumalwadi, Maharashtra 413501",,7X7R+8WG,Kumalwadi,413501,Maharashtra,IN,https://www.google.com/maps/place/Masjid/data=!4m7!3m6!1s0x3bc5a7f7857066cb:0x5ecfa7753bdeddf1!8m2!3d18.2633075!4d75.9923415!16s%2Fg%2F11rv7ywng6!19sChIJy2ZwhfenxTsR8d3eO3Wnz14?authuser=0&hl=en&rclk=1,"18.2633075,75.9923415"
"Jama Masjid, Junoni",Mosque,"4XR7+98X Jama Masjid, Junoni, Junoni, Tambewadi, Maharashtra 413501",,4XR7+98X,"Junoni, Tambewadi",,Maharashtra,IN,"https://www.google.com/maps/place/Jama+Masjid,+Junoni/data=!4m7!3m6!1s0x3bc5a5adc6f7da79:0x182b8b39e57f4991!8m2!3d18.1409844!4d75.9633736!16s%2Fg%2F11k6s86kvm!19sChIJedr3xq2lxTsRkUl_5TmLKxg?authuser=0&hl=en&rclk=1","18.1409844,75.9633736"
Jama masjid,Mosque,"427V+6V6 Jama masjid, Warwanti, Maharashtra 413501",,427V+6V6,Warwanti,413501,Maharashtra,IN,https://www.google.com/maps/place/Jama+masjid/data=!4m7!3m6!1s0x3bc5a34ca01e2b25:0xc04c33845ebc2b7b!8m2!3d18.1130378!4d76.0446475!16s%2Fg%2F11sxvwqhbz!19sChIJJSseoEyjxTsReyu8XoQzTMA?authuser=0&hl=en&rclk=1,"18.1130378,76.0446475"
KUBRA MASJID,School,"528V+MCP KUBRA MASJID, rahbar chok, Old bus depu, Ekta Nagar, Maharashtra 413501",Anand Nagar,"528V+MCP, rahbar chok, Old bus depu, Ekta Nagar",Osmanabad,413501,Maharashtra,IN,https://www.google.com/maps/place/KUBRA+MASJID/data=!4m7!3m6!1s0x3bc5a3573629750f:0xf4bea28413ce7dcc!8m2!3d18.1667123!4d76.0435759!16s%2Fg%2F11hfb1txt2!19sChIJD3UpNlejxTsRzH3OE4SivvQ?authuser=0&hl=en&rclk=1,"18.1667123,76.0435759"
Masjid wagholi.,Mosque,"64W8+279 Masjid wagholi., At wagholi Tal Dist, Wagholi, Maharashtra 413501",,"64W8+279, At wagholi Tal Dist",Wagholi,413501,Maharashtra,IN,https://www.google.com/maps/place/Masjid+wagholi./data=!4m7!3m6!1s0x3bc59f3d53517c7d:0xa5866a05cd3d2f0b!8m2!3d18.2450412!4d76.1157205!16s%2Fg%2F11fl9gzg64!19sChIJfXxRUz2fxTsRCy89zQVqhqU?authuser=0&hl=en&rclk=1,"18.2450412,76.1157205"
Masjid,School,"625Q+QV7 Masjid, Milli Colony, Mahatma Gandhi Nagar, Rajiv Gandhi Nagar, Osmanabad, Maharashtra 413501","Mahatma Gandhi Nagar, Rajiv Gandhi Nagar","625Q+QV7, Milli Colony",Osmanabad,413501,Maharashtra,IN,https://www.google.com/maps/place/Masjid/data=!4m7!3m6!1s0x3bc5a1da10d79d13:0xf278d35a5e629de!8m2!3d18.20942!4d76.0396761!16s%2Fg%2F11gwmk739z!19sChIJE53XENqhxTsR3inmpTWNJw8?authuser=0&hl=en&rclk=1,"18.209419999999998,76.0396761"
Masjid,Mosque,"Masjid, Yedashi, Maharashtra 413405",,,Yedashi,413405,Maharashtra,IN,https://www.google.com/maps/place/Masjid/data=!4m7!3m6!1s0x3bc509a3e835be4b:0xa1c36735bb08d13d!8m2!3d18.3237437!4d75.965108!16s%2Fg%2F11hbgcf7gs!19sChIJS7416KMJxTsRPdEIuzVnw6E?authuser=0&hl=en&rclk=1,"18.323743699999998,75.965108"
MUHAMMADIYA EIDGHA MASJID,Mosque,"X2V7+W6W MUHAMMADIYA EIDGHA MASJID, Shiradhon, Maharashtra 413624",,X2V7+W6W,Shiradhon,,Maharashtra,IN,https://www.google.com/maps/place/MUHAMMADIYA+EIDGHA+MASJID/data=!4m7!3m6!1s0x3bc5bf532a14bcf9:0x822be1b3143f6387!8m2!3d17.9948574!4d76.0130784!16s%2Fg%2F11gtdy94rn!19sChIJ-bwUKlO_xTsRh2M_FLPhK4I?authuser=0&hl=en&rclk=1,"17.9948574,76.0130784"
Jama Masjid,Mosque,"9XV9+HMH Jama Masjid, Osmanabad, Maharashtra 413405",,9XV9+HMH,Osmanabad,413405,Maharashtra,IN,https://www.google.com/maps/place/Jama+Masjid/data=!4m7!3m6!1s0x3bc50ec757311db7:0xe2ff90a09436d470!8m2!3d18.3939336!4d75.9692449!16s%2Fg%2F11bz0cgn9w!19sChIJtx0xV8cOxTsRcNQ2lKCQ_-I?authuser=0&hl=en&rclk=1,"18.3939336,75.96924489999999"
Masjid,Mosque,"6J74+RQF Masjid, Upalai, Maharashtra 413401",,6J74+RQF,Upalai,413401,Maharashtra,IN,https://www.google.com/maps/place/Masjid/data=!4m7!3m6!1s0x3bc457158050a411:0x9318ce8368b42a2a!8m2!3d18.2145673!4d75.6069292!16s%2Fg%2F11hzcyml42!19sChIJEaRQgBVXxDsRKiq0aIPOGJM?authuser=0&hl=en&rclk=1,"18.2145673,75.6069292"
Eidgaah Masjid,Mosque,"QR44+3P4 Eidgaah Masjid, Unnamed Road, Chincholikati, Maharashtra 413255",,"QR44+3P4, Unnamed Road",Chincholikati,413255,Maharashtra,IN,https://www.google.com/maps/place/Eidgaah+Masjid/data=!4m7!3m6!1s0x3bc5cf4086dd9737:0x418c8ef8687804a!8m2!3d17.755139!4d75.8069254!16s%2Fg%2F11sv1zf8gr!19sChIJN5fdhkDPxTsRSoCHhu_IGAQ?authuser=0&hl=en&rclk=1,"17.755139,75.8069254"
Shri Sai Ganesh Kala Mandir,Hindu temple,"53R4+9CM Shri Sai Ganesh Kala Mandir, NH52, SHAMS Co-operative Society, Osmanabad, Maharashtra 413501",SHAMS Co-operative Society,"53R4+9CM, NH52",Osmanabad,413501,Maharashtra,IN,https://www.google.com/maps/place/Shri+Sai+Ganesh+Kala+Mandir/data=!4m7!3m6!1s0x3bc5a35e7baff605:0xfc34dfba958bfc6a!8m2!3d18.1909629!4d76.0560594!16s%2Fg%2F11fwjtl01h!19sChIJBfave16jxTsRavyLlbrfNPw?authuser=0&hl=en&rclk=1,"18.1909629,76.0560594"
Masjid,Mosque,"GXFC+6CX Masjid, Andora, Maharashtra 413507",,GXFC+6CX,Andora,413507,Maharashtra,IN,https://www.google.com/maps/place/Masjid/data=!4m7!3m6!1s0x3bc511f57fcb1dcb:0x84c9c00c55470c9e!8m2!3d18.5231091!4d75.9711188!16s%2Fg%2F11nynx_g2m!19sChIJyx3Lf_URxTsRngxHVQzAyYQ?authuser=0&hl=en&rclk=1,"18.5231091,75.9711188"
jaamaa msjid kddknaathvaaddii,Mosque,"CRC6+C33 jaamaa msjid kddknaathvaaddii, Kadaknathwadi, Maharashtra 413525",,CRC6+C33,Kadaknathwadi,413525,Maharashtra,IN,https://www.google.com/maps/place/%E0%A4%9C%E0%A4%BE%E0%A4%AE%E0%A4%BE+%E0%A4%AE%E0%A4%B8%E0%A5%8D%E0%A4%9C%E0%A4%BF%E0%A4%A6+%E0%A4%95%E0%A4%A1%E0%A4%95%E0%A4%A8%E0%A4%BE%E0%A4%A5%E0%A4%B5%E0%A4%BE%E0%A4%A1%E0%A5%80/data=!4m7!3m6!1s0x3bc5051271e31573:0xb23ae81611c19411!8m2!3d18.420858!4d75.8099911!16s%2Fg%2F11tdbg_tx2!19sChIJcxXjcRIFxTsREZTBERboOrI?authuser=0&hl=en&rclk=1,"18.420858,75.80999109999999"
Jama masjid Madina chowk,Mosque,"Jama masjid Madina chowk, Lohia Mangal Karyalay, Naldurg Road, Hangarga, Maharashtra 413602",,"Lohia Mangal Karyalay, Naldurg Road",Hangarga,413602,Maharashtra,IN,https://www.google.com/maps/place/Jama+masjid+Madina+chowk/data=!4m7!3m6!1s0x3bc5f1ecf59947d9:0xf20f5d006316d93f!8m2!3d17.7805683!4d76.3473606!16s%2Fg%2F11ty4trvwj!19sChIJ2UeZ9ezxxTsRP9kWYwBdD_I?authuser=0&hl=en&rclk=1,"17.7805683,76.3473606"
M,Mosque,"329V+QRF M, Kamtha, Maharashtra 413601",,329V+QRF,Kamtha,413601,Maharashtra,IN,https://www.google.com/maps/place/M/data=!4m7!3m6!1s0x3bc5bd2cf4710a3d:0xbda81f09b339f9a!8m2!3d18.0693965!4d76.0445788!16s%2Fg%2F11q400r5y2!19sChIJPQpx9Cy9xTsRmp8zm_CB2gs?authuser=0&hl=en&rclk=1,"18.0693965,76.0445788"
JAMA MASJID,Mosque,"884H+F7G JAMA MASJID, Unnamed Road, Bheta, Maharashtra 413531",,"884H+F7G, Unnamed Road",Bheta,413531,Maharashtra,IN,https://www.google.com/maps/place/JAMA+MASJID/data=!4m7!3m6!1s0x3bc58360756f82d7:0xa9e44d1fe69951f1!8m2!3d18.3061847!4d76.328212!16s%2Fg%2F11mwsk173r!19sChIJ14JvdWCDxTsR8VGZ5h9N5Kk?authuser=0&hl=en&rclk=1,"18.3061847,76.328212"
Masjid e sayydiya,Mosque,"FH86+G7F Masjid e sayydiya, Chumbli, Maharashtra 413504",,FH86+G7F,Chumbli,413504,Maharashtra,IN,https://www.google.com/maps/place/Masjid+e+sayydiya/data=!4m7!3m6!1s0x3bc4e52c4284daef:0xa7f9f202e5bea03b!8m2!3d18.4663202!4d75.5606809!16s%2Fg%2F11sz2t0gnb!19sChIJ79qEQizlxDsRO6C-5QLy-ac?authuser=0&hl=en&rclk=1,"18.4663202,75.5606809"
Jama masjid,Mosque,"Q8MM+8WF Jama masjid, Hangarga, Maharashtra 413602",,Q8MM+8WF,Hangarga,413602,Maharashtra,IN,https://www.google.com/maps/place/Jama+masjid/data=!4m7!3m6!1s0x3bc5f1d05afb2e0f:0x1dca9c186e99f265!8m2!3d17.7833104!4d76.3347838!16s%2Fg%2F11txtrh3zt!19sChIJDy77WtDxxTsRZfKZbhicyh0?authuser=0&hl=en&rclk=1,"17.783310399999998,76.3347838"
