name,main_category,address,address_ward,address_street,address_city,address_postal_code,address_state,address_country_code,link,coordinates
Ahmadiyya Masjid,Mosque,"36GV+3Q7 Ahmadiyya Masjid, Mallampally, Telangana 505466",,36GV+3Q7,Mallampally,505466,Telangana,IN,https://www.google.com/maps/place/Ahmadiyya+Masjid/data=!4m7!3m6!1s0x3bccb7d8348d39bd:0xc337ece17424c309!8m2!3d18.075151!4d79.2444227!16s%2Fg%2F11gxmvst9b!19sChIJvTmNNNi3zDsRCcMkdOHsN8M?authuser=0&hl=en&rclk=1,"18.075150999999998,79.2444227"
Jama Masjid,Mosque,"MGGQ+F5Q Jama Masjid, Jama Masjid Rd, Mahalaxmiwada, Adilabad, Telangana 504001",Mahalaxmiwada,"MGGQ+F5Q, Jama Masjid Rd",Adilabad,504001,Telangana,IN,https://www.google.com/maps/place/Jama+Masjid/data=!4m7!3m6!1s0x3bd25c75f87e8a01:0x25a95ee1fbab37d0!8m2!3d19.6762137!4d78.5379985!16s%2Fg%2F1tlqnfwv!19sChIJAYp--HVc0jsR0Der--FeqSU?authuser=0&hl=en&rclk=1,"19.676213699999998,78.5379985"
Gulzaar Masjid,Mosque,"MGCR+66Q Gulzaar Masjid, Bokkalguda St, Brahmanwadi, Adilabad, Telangana 504001",Brahmanwadi,"MGCR+66Q, Bokkalguda St",Adilabad,504001,Telangana,IN,https://www.google.com/maps/place/Gulzaar+Masjid/data=!4m7!3m6!1s0x3bd25c7477d00337:0x3dc61fe7489f62b1!8m2!3d19.6704596!4d78.5395986!16s%2Fg%2F1tcz6sjz!19sChIJNwPQd3Rc0jsRsWKfSOcfxj0?authuser=0&hl=en&rclk=1,"19.670459599999997,78.53959859999999"
Masjid-e-Batha,Mosque,"P2X6+X8V Masjid-e-Batha, Teachers Colony, PR Colony, Mahbubnagar, Telangana 509001","Teachers Colony, PR Colony",P2X6+X8V,Mahbubnagar,509001,Telangana,IN,https://www.google.com/maps/place/Masjid-e-Batha/data=!4m7!3m6!1s0x3bca28a82d7aaaeb:0x2ba10d972d966327!8m2!3d16.7499998!4d78.0108073!16s%2Fg%2F12nqgnc6w!19sChIJ66p6LagoyjsRJ2OWLZcNoSs?authuser=0&hl=en&rclk=1,"16.749999799999998,78.0108073"
Masjid Panjesha,Mosque,"Masjid Panjesha, masjid, panjesha marg, Bhainsa, Telangana 504103",,"masjid, panjesha marg",Bhainsa,,Telangana,IN,https://www.google.com/maps/place/Masjid+Panjesha/data=!4m7!3m6!1s0x3bcdfe45594b318b:0xa9a4527a0d3bdd4e!8m2!3d19.1114013!4d77.9614446!16s%2Fg%2F11xfvxc4m!19sChIJizFLWUX-zTsRTt07DXpSpKk?authuser=0&hl=en&rclk=1,"19.1114013,77.9614446"
Masjid e Noor Khursheed Nagar,Mosque,"Masjid e Noor Khursheed Nagar, khursheed Nagar, Adilabad, Telangana 504001",khursheed Nagar,,Adilabad,,Telangana,IN,https://www.google.com/maps/place/Masjid+e+Noor+Khursheed+Nagar/data=!4m7!3m6!1s0x3bd25b7f77891187:0xd64d9d2522c68201!8m2!3d19.6780656!4d78.5199255!16s%2Fg%2F1pp2x6dd1!19sChIJhxGJd39b0jsRAYLGIiWdTdY?authuser=0&hl=en&rclk=1,"19.6780656,78.5199255"
"Masjid-E-Hajera, Murshid Gadda.",Mosque,"Masjid-E-Hajera, Murshid Gadda., colony block 2, Murshid Gadda Rd, Kadharpura, Mohinpura, Siddipet, Telangana 502103","Kadharpura, Mohinpura","colony block 2, Murshid Gadda Rd",Siddipet,502103,Telangana,IN,"https://www.google.com/maps/place/Masjid-E-Hajera,+Murshid+Gadda./data=!4m7!3m6!1s0x3bcced55118d9eaf:0xc85b56e1d84bed4a!8m2!3d18.1041995!4d78.8400954!16s%2Fg%2F1vf99tp_!19sChIJr56NEVXtzDsRSu1L2OFWW8g?authuser=0&hl=en&rclk=1","18.1041995,78.8400954"
Masjid E Abubaker,Mosque,"MG8V+54F Masjid E Abubaker, Shanti Nagar, Adilabad, Telangana 504001",Shanti Nagar,MG8V+54F,Adilabad,504001,Telangana,IN,https://www.google.com/maps/place/Masjid+E+Abubaker/data=!4m7!3m6!1s0x3bd25c72afd994d1:0x55e84f035f33b282!8m2!3d19.6654385!4d78.542794!16s%2Fg%2F11c1wsmygw!19sChIJ0ZTZr3Jc0jsRgrIzXwNP6FU?authuser=0&hl=en&rclk=1,"19.6654385,78.542794"
Masjid E Arafath,Mosque,"MG9W+PJJ Masjid E Arafath, arfath nagar, Adilabad, Telangana 504001",arfath nagar,MG9W+PJJ,Adilabad,504001,Telangana,IN,https://www.google.com/maps/place/Masjid+E+Arafath/data=!4m7!3m6!1s0x3bd25c0c5e111929:0x778ec5e1e693b913!8m2!3d19.6693375!4d78.5465156!16s%2Fg%2F11dxl2lpw0!19sChIJKRkRXgxc0jsRE7mT5uHFjnc?authuser=0&hl=en&rclk=1,"19.669337499999997,78.54651559999999"
Madina Masjid mdynh msjd,Mosque,"MGCJ+GX8 Madina Masjid mdynh msjd, Netaji Chowk Rd, Ponnar, Bhuktapur, Telangana 504001",Ponnar,"MGCJ+GX8, Netaji Chowk Rd",Bhuktapur,504001,Telangana,IN,https://www.google.com/maps/place/Madina+Masjid+%D9%85%D8%AF%DB%8C%D9%86%DB%81+%D9%85%D8%B3%D8%AC%D8%AF%E2%80%AD/data=!4m7!3m6!1s0x3bd25c7742dd0b05:0xf2fb259a889bfa78!8m2!3d19.6712846!4d78.5324561!16s%2Fg%2F11fzzxxq7l!19sChIJBQvdQndc0jsRePqbiJol-_I?authuser=0&hl=en&rclk=1,"19.6712846,78.53245609999999"
Muhammadiya Masjid,Mosque,"MG29+X76 Muhammadiya Masjid, Ramnagar Colony, Adilabad, Telangana 504001",Ramnagar Colony,MG29+X76,Adilabad,504001,Telangana,IN,https://www.google.com/maps/place/Muhammadiya+Masjid/data=!4m7!3m6!1s0x3bd25c8ad95e1f51:0xc9001b8ca6d7fd64!8m2!3d19.6524043!4d78.5181462!16s%2Fg%2F11cn7qqr7d!19sChIJUR9e2Ypc0jsRZP3XpowbAMk?authuser=0&hl=en&rclk=1,"19.6524043,78.51814619999999"
Abubakr masjid,Mosque,"MG8R+J7F Abubakr masjid, Shanti Nagar, Adilabad, Telangana 504001",Shanti Nagar,MG8R+J7F,Adilabad,504001,Telangana,IN,https://www.google.com/maps/place/Abubakr+masjid/data=!4m7!3m6!1s0x3bd25c72f6f46bc9:0xcd16458f413f5d2e!8m2!3d19.6665675!4d78.5406681!16s%2Fg%2F11c607nzf4!19sChIJyWv09nJc0jsRLl0_QY9FFs0?authuser=0&hl=en&rclk=1,"19.6665675,78.54066809999999"
Masjid,Mosque,"Masjid, Husnabad, Telangana 505467",,,Husnabad,,Telangana,IN,https://www.google.com/maps/place/Masjid/data=!4m7!3m6!1s0x3bccc803929f6595:0xe69d5ee98b6a379!8m2!3d18.1282182!4d79.2071369!16s%2Fg%2F1ptyb9k72!19sChIJlWWfkgPIzDsReaO2mO7VaQ4?authuser=0&hl=en&rclk=1,"18.1282182,79.2071369"
Masjid E Hassan,Mosque,"MG8V+QPM Masjid E Hassan, Unnamed Road, Shanti Nagar, Adilabad, Telangana 504001",Shanti Nagar,"MG8V+QPM, Unnamed Road",Adilabad,504001,Telangana,IN,https://www.google.com/maps/place/Masjid+E+Hassan/data=!4m7!3m6!1s0x3bd25c0d29000079:0xa0cc092090b96993!8m2!3d19.6669651!4d78.5443022!16s%2Fg%2F11dfk_8lt4!19sChIJeQAAKQ1c0jsRk2m5kCAJzKA?authuser=0&hl=en&rclk=1,"19.6669651,78.54430219999999"
MADEENA MASJID ECHODA,Mosque,"CFG3+256 MADEENA MASJID ECHODA, Ichoda, Telangana 504307",,CFG3+256,Ichoda,504307,Telangana,IN,https://www.google.com/maps/place/MADEENA+MASJID+ECHODA/data=!4m7!3m6!1s0x3bd26f98044820f1:0xb0592db733389086!8m2!3d19.42503!4d78.4529037!16s%2Fg%2F11c3tqr4t1!19sChIJ8SBIBJhv0jsRhpA4M7ctWbA?authuser=0&hl=en&rclk=1,"19.42503,78.4529037"
Abdullah Masjid,Mosque,"M3FR+WQ3 Abdullah Masjid, NRI Colony, Arsapally, Nizamabad, Telangana 503001","NRI Colony, Arsapally",M3FR+WQ3,Nizamabad,503001,Telangana,IN,https://www.google.com/maps/place/Abdullah+Masjid/data=!4m7!3m6!1s0x3bcddb233be2efa7:0xc2aaa7b71845e8eb!8m2!3d18.6747696!4d78.0919267!16s%2Fg%2F11bwl3p7rm!19sChIJp-_iOyPbzTsR6-hFGLenqsI?authuser=0&hl=en&rclk=1,"18.674769599999998,78.0919267"
Masjid-e-Mohammadia,Mosque,"3V66+WV3 Masjid-e-Mohammadia, Ponnal, Telangana 502277",,3V66+WV3,Ponnal,502277,Telangana,IN,https://www.google.com/maps/place/Masjid-e-Mohammadia/data=!4m7!3m6!1s0x3bcc92f4a1acebc3:0xe8ab0a3c98ad5a6c!8m2!3d18.0622664!4d78.8621794!16s%2Fg%2F11c52ls6lx!19sChIJw-usofSSzDsRbFqtmDwKq-g?authuser=0&hl=en&rclk=1,"18.0622664,78.8621794"
MASJID E MAHEBOOB E SUBHANI ( Markaz e Ahle Sunnat ),Mosque,"MASJID E MAHEBOOB E SUBHANI ( Markaz e Ahle Sunnat ), Sanjay Nagar, Adilabad, Telangana 504001",Sanjay Nagar,,Adilabad,504001,Telangana,IN,https://www.google.com/maps/place/MASJID+E+MAHEBOOB+E+SUBHANI+%28+Markaz+e+Ahle+Sunnat+%29/data=!4m7!3m6!1s0x3bd25c7cd0000001:0xe56e990e56fe962c!8m2!3d19.6669356!4d78.5213162!16s%2Fg%2F11c2kk77hk!19sChIJAQAA0Hxc0jsRLJb-Vg6ZbuU?authuser=0&hl=en&rclk=1,"19.6669356,78.5213162"
Madarsa al Arabiya Bait ul Uloom & Masjid e Rahmania,Mosque,"8FWM+597 Madarsa al Arabiya Bait ul Uloom & Masjid e Rahmania, MG Rd, Kagaznagar, Telangana 504296",,"8FWM+597, MG Rd",Kagaznagar,504296,Telangana,IN,https://www.google.com/maps/place/Madarsa+al+Arabiya+Bait+ul+Uloom+%26+Masjid+e+Rahmania/data=!4m7!3m6!1s0x3a2d56ba940d6e41:0xa09cb1cd9452c8a6!8m2!3d19.345412!4d79.4834169!16s%2Fg%2F11bw5xmyn4!19sChIJQW4NlLpWLToRpshSlM2xnKA?authuser=0&hl=en&rclk=1,"19.345412,79.4834169"
Masjid Badar,Mosque,"MG8C+44M Masjid Badar, Rickshaw Colony, Adilabad, Telangana 504001",Rickshaw Colony,MG8C+44M,Adilabad,504001,Telangana,IN,https://www.google.com/maps/place/Masjid+Badar/data=!4m7!3m6!1s0x3bd25c878e7870c1:0x8e24c92e23dce198!8m2!3d19.6653455!4d78.5202985!16s%2Fg%2F11bbrlytdq!19sChIJwXB4jodc0jsRmOHcIy7JJI4?authuser=0&hl=en&rclk=1,"19.6653455,78.5202985"
Osman Masjid,Mosque,"4X47+RJX Osman Masjid, Asad Baba Nagar, Bhainsa, Telangana 504103",Asad Baba Nagar,4X47+RJX,Bhainsa,504103,Telangana,IN,https://www.google.com/maps/place/Osman+Masjid/data=!4m7!3m6!1s0x3bcdfe5b6bc0025d:0x854fb770d38fd2a3!8m2!3d19.107103!4d77.9641068!16s%2Fg%2F11cn6jvztk!19sChIJXQLAa1v-zTsRo9KP03C3T4U?authuser=0&hl=en&rclk=1,"19.107103,77.9641068"
Masjid_E-Bilaal,Mosque,"4R4V+MM6 Masjid_E-Bilaal, Azam Pura, Siddipet, Telangana 502103",Azam Pura,4R4V+MM6,Siddipet,502103,Telangana,IN,https://www.google.com/maps/place/Masjid_E-Bilaal/data=!4m7!3m6!1s0x3bcced538b304dcb:0x24ef0d110ee7b060!8m2!3d18.1066641!4d78.8441556!16s%2Fg%2F11fxcdb2p_!19sChIJy00wi1PtzDsRYLDnDhEN7yQ?authuser=0&hl=en&rclk=1,"18.1066641,78.8441556"
Masjid e Bilala,Mosque,"Masjid e Bilala, Adilabad-Asifabad Rd, Jainoor, Telangana 504313",,Adilabad-Asifabad Rd,Jainoor,504313,Telangana,IN,https://www.google.com/maps/place/Masjid+e+Bilala/data=!4m7!3m6!1s0x3bd29bb7204a9e0f:0x706dab2553f72b79!8m2!3d19.3750134!4d78.9120455!16s%2Fg%2F11f6qq3rwz!19sChIJD55KILeb0jsReSv3UyWrbXA?authuser=0&hl=en&rclk=1,"19.3750134,78.91204549999999"
Eidgah,Mosque,"JF73+FR Eidgah, Devpur, Telangana 504001",,JF73+FR,Devpur,,Telangana,IN,https://www.google.com/maps/place/Eidgah/data=!4m7!3m6!1s0x3bd243f012ca812f:0x1e400f615285656f!8m2!3d19.6136687!4d78.4545208!16s%2Fg%2F11pkbw1ydp!19sChIJL4HKEvBD0jsRb2WFUmEPQB4?authuser=0&hl=en&rclk=1,"19.613668699999998,78.4545208"
JAMA masjid Devapur,Mosque,"JF65+PVQ JAMA masjid Devapur, Unnamed Road, Devpur, Telangana 504308",,"JF65+PVQ, Unnamed Road",Devpur,504308,Telangana,IN,https://www.google.com/maps/place/JAMA+masjid+Devapur/data=!4m7!3m6!1s0x3bd24302f69b407f:0x99ca94e9fc151aa!8m2!3d19.6118457!4d78.4597213!16s%2Fg%2F11j2c2qfql!19sChIJf0Cb9gJD0jsRqlHBn06pnAk?authuser=0&hl=en&rclk=1,"19.6118457,78.4597213"
Masjid E Namrah,Mosque,"MGGM+7CV Masjid E Namrah, Ambedkar Chowk, Bhuktapur, Telangana 504001",,"MGGM+7CV, Ambedkar Chowk",Bhuktapur,,Telangana,IN,https://www.google.com/maps/place/Masjid+E+Namrah/data=!4m7!3m6!1s0x3bd25b8829cd21e7:0xb871a2b68c3b292c!8m2!3d19.6757458!4d78.5335363!16s%2Fg%2F11b6v0h3n3!19sChIJ5yHNKYhb0jsRLCk7jLaicbg?authuser=0&hl=en&rclk=1,"19.675745799999998,78.5335363"
Masjid -e- Dawathul Haq,Mosque,"CFH2+G89 Masjid -e- Dawathul Haq, Ichoda Main Rd, Ichoda, Telangana 504307",,"CFH2+G89, Ichoda Main Rd",Ichoda,504307,Telangana,IN,https://www.google.com/maps/place/Masjid+-e-+Dawathul+Haq/data=!4m7!3m6!1s0x3bd26fa240811f53:0x84ebb182ea5a35e4!8m2!3d19.4287993!4d78.4508528!16s%2Fg%2F11b75hw8dx!19sChIJUx-BQKJv0jsR5DVa6oKx64Q?authuser=0&hl=en&rclk=1,"19.428799299999998,78.45085279999999"
Makka Masjid,Mosque,"CFG3+QPG Makka Masjid, Ichoda, Telangana 504307",,CFG3+QPG,Ichoda,504307,Telangana,IN,https://www.google.com/maps/place/Makka+Masjid/data=!4m7!3m6!1s0x3bd26f985b7ba91f:0xff30f7087fea8336!8m2!3d19.4269309!4d78.4543422!16s%2Fg%2F11fxx3q066!19sChIJH6l7W5hv0jsRNoPqfwj3MP8?authuser=0&hl=en&rclk=1,"19.4269309,78.4543422"
Jama Masjid,Mosque,"Jama Masjid, Bus Station, Old, Utnur, Telangana 504311",Sevadas Nagar,"Bus Station, Old",Utnur,504311,Telangana,IN,https://www.google.com/maps/place/Jama+Masjid/data=!4m7!3m6!1s0x3bd285b42543f7db:0xfbc9083caa3eda41!8m2!3d19.3679744!4d78.7738921!16s%2Fg%2F11c2p12cr7!19sChIJ2_dDJbSF0jsRQdo-qjwIyfs?authuser=0&hl=en&rclk=1,"19.367974399999998,78.7738921"
Masjid e Jamia Kausar Baswapur,Mosque,"4323+VRP Masjid e Jamia Kausar Baswapur, Baswapur, Basawapuram, Telangana 505473",,4323+VRP,"Baswapur, Basawapuram",,Telangana,IN,https://www.google.com/maps/place/Masjid+e+Jamia+Kausar+Baswapur/data=!4m7!3m6!1s0x3bccbf807622a879:0x308e2f77090849f4!8m2!3d18.1022108!4d79.0545677!16s%2Fg%2F11q8w2xcr2!19sChIJeagidoC_zDsR9EkICXcvjjA?authuser=0&hl=en&rclk=1,"18.102210799999998,79.05456769999999"
JAMIA MASJID SWARNA,Mosque,"66W7+547 JAMIA MASJID SWARNA, Swarna, Ponkur, Telangana 504323",,66W7+547,"Swarna, Ponkur",504323,Telangana,IN,https://www.google.com/maps/place/JAMIA+MASJID+SWARNA/data=!4m7!3m6!1s0x3bd20b6c6efd2209:0x46d6150156f25bd5!8m2!3d19.2454192!4d78.2127894!16s%2Fg%2F11f5t_lvnx!19sChIJCSL9bmwL0jsR1VvyVgEV1kY?authuser=0&hl=en&rclk=1,"19.2454192,78.21278939999999"
Masjid E Umar Farooq,Mosque,"CFG3+GFW Masjid E Umar Farooq, Ichoda, Telangana 504307",,CFG3+GFW,Ichoda,504307,Telangana,IN,https://www.google.com/maps/place/Masjid+E+Umar+Farooq/data=!4m7!3m6!1s0x3bd26f986a32f5f1:0xa79367774c71be95!8m2!3d19.4263502!4d78.4537135!16s%2Fg%2F11f03zm31b!19sChIJ8fUyaphv0jsRlb5xTHdnk6c?authuser=0&hl=en&rclk=1,"19.426350199999998,78.45371349999999"
JAMMA-E-MASJID,Mosque,"7CX4+86J JAMMA-E-MASJID, Neradigonda 2, Telangana 504323",,7CX4+86J,Neradigonda 2,504323,Telangana,IN,https://www.google.com/maps/place/JAMMA-E-MASJID/data=!4m7!3m6!1s0x3bd2714a1f9ceb83:0xaeacfbdd07ea5319!8m2!3d19.2983415!4d78.4055211!16s%2Fg%2F11c2nkk_c_!19sChIJg-ucH0px0jsRGVPqB937rK4?authuser=0&hl=en&rclk=1,"19.2983415,78.4055211"
Masjid-E-Noor,Mosque,"9Q8G+JJX Masjid-E-Noor, Mominpura, Sevadas Nagar, Utnur, Telangana 504311","Mominpura, Sevadas Nagar",9Q8G+JJX,Utnur,,Telangana,IN,https://www.google.com/maps/place/Masjid-E-Noor/data=!4m7!3m6!1s0x3bd285b3f2afb185:0x2ec78038b9f918ae!8m2!3d19.3675545!4d78.7769558!16s%2Fg%2F1pp2tk8bd!19sChIJhbGv8rOF0jsRrhj5uTiAxy4?authuser=0&hl=en&rclk=1,"19.3675545,78.7769558"
EIDGAH JAMA MASJID SWARNA,Mosque,"EIDGAH JAMA MASJID SWARNA, Sarangapur Mandal, Ponkur, Telangana 504323",,Sarangapur Mandal,Ponkur,504323,Telangana,IN,https://www.google.com/maps/place/EIDGAH+JAMA+MASJID+SWARNA/data=!4m7!3m6!1s0x3bd20bc4554a1a21:0x8dd0f4fa4f16d3e4!8m2!3d19.2482263!4d78.2163682!16s%2Fg%2F11fy_5_fhk!19sChIJIRpKVcQL0jsR5NMWT_r00I0?authuser=0&hl=en&rclk=1,"19.2482263,78.21636819999999"
MOHAMMAD IS MASJID,Mosque,"GHF6+VQ6 MOHAMMAD IS MASJID, Tosham, Telangana 504308",,GHF6+VQ6,Tosham,504308,Telangana,IN,https://www.google.com/maps/place/MOHAMMAD+IS+MASJID/data=!4m7!3m6!1s0x3bd267780b316d2b:0x43def7ea72223fa!8m2!3d19.5246611!4d78.5618857!16s%2Fg%2F11fjyxlpk6!19sChIJK20xC3hn0jsR-iMip37vPQQ?authuser=0&hl=en&rclk=1,"19.5246611,78.56188569999999"
Jama masjid,Mosque,"CFH3+8WC Jama masjid, Ichoda, Telangana 504307",,CFH3+8WC,Ichoda,504307,Telangana,IN,https://www.google.com/maps/place/Jama+masjid/data=!4m7!3m6!1s0x3bd26fcb3b2536e3:0x24b38adada85879e!8m2!3d19.4283175!4d78.454781!16s%2Fg%2F11ppybzh_0!19sChIJ4zYlO8tv0jsRnoeF2tqKsyQ?authuser=0&hl=en&rclk=1,"19.4283175,78.454781"
New EIDGAH NIRMAL,Mosque,"48PM+98W New EIDGAH NIRMAL, Chincholi Buzurg, Telangana 504110",,48PM+98W,Chincholi Buzurg,,Telangana,IN,https://www.google.com/maps/place/New+EIDGAH+NIRMAL/data=!4m7!3m6!1s0x3bcd8bb04ad05d83:0x31334f9c1ae9f252!8m2!3d19.1359868!4d78.3333393!16s%2Fg%2F11p0z5x1bs!19sChIJg13QSrCLzTsRUvLpGpxPMzE?authuser=0&hl=en&rclk=1,"19.135986799999998,78.33333929999999"
Masjid,Mosque,"8X62+9RM Masjid, Ellantakunta, Telangana 505402",,8X62+9RM,Ellantakunta,505402,Telangana,IN,https://www.google.com/maps/place/Masjid/data=!4m7!3m6!1s0x3bcce63d8f9ebf1f:0xf54773ab00aa389d!8m2!3d18.3109525!4d78.9520356!16s%2Fg%2F11g005hy0x!19sChIJH7-ejz3mzDsRnTiqAKtzR_U?authuser=0&hl=en&rclk=1,"18.3109525,78.9520356"
Jama masjeed Kurnapally,Mosque,"JXQR+7H2 Jama masjeed Kurnapally, Kurnapalle, Telangana 503202",,JXQR+7H2,Kurnapalle,503202,Telangana,IN,https://www.google.com/maps/place/Jama+masjeed+Kurnapally/data=!4m7!3m6!1s0x3bcdd9bece878b3f:0x6e20dc828c62c1d7!8m2!3d18.6381495!4d77.9913989!16s%2Fg%2F11f0_9tw98!19sChIJP4uHzr7ZzTsR18FijILcIG4?authuser=0&hl=en&rclk=1,"18.6381495,77.9913989"
MASJID - E - WASIL,Mosque,"9Q7C+W9C MASJID - E - WASIL, Utnur, Telangana 504311",,9Q7C+W9C,Utnur,504311,Telangana,IN,https://www.google.com/maps/place/MASJID+-+E+-+WASIL/data=!4m7!3m6!1s0x3bd285b568212b3b:0xd48a9da29da1160e!8m2!3d19.3648093!4d78.7708923!16s%2Fg%2F11g6q_z_ty!19sChIJOyshaLWF0jsRDhahnaKditQ?authuser=0&hl=en&rclk=1,"19.364809299999997,78.7708923"
masjid maryam,Mosque,"8C23+XWH masjid maryam, Neradigonda 2, Telangana 504323",,8C23+XWH,Neradigonda 2,504323,Telangana,IN,https://www.google.com/maps/place/masjid+maryam/data=!4m7!3m6!1s0x3bd27148448e1f3b:0x3791c6c4bb7c37e7!8m2!3d19.3024304!4d78.404857!16s%2Fg%2F11c5rmjfg4!19sChIJOx-OREhx0jsR5zd8u8TGkTc?authuser=0&hl=en&rclk=1,"19.3024304,78.40485699999999"
Haamilathul Misk Masjid,Mosque,"36GW+H42 Haamilathul Misk Masjid, Mallampally, Telangana 505466",,36GW+H42,Mallampally,505466,Telangana,IN,https://www.google.com/maps/place/Haamilathul+Misk+Masjid/data=!4m7!3m6!1s0x3bccb6ffd84fbc47:0x72b8f5edf8a1ad20!8m2!3d18.076393!4d79.2452535!16s%2Fg%2F11c2y35dxc!19sChIJR7xP2P-2zDsRIK2h-O31uHI?authuser=0&hl=en&rclk=1,"18.076393,79.24525349999999"
Masjid,Mosque,"WW4Q+93C Masjid, Cherial Mandal, Kadavergu, Telangana 506223",,"WW4Q+93C, Cherial Mandal",Kadavergu,506223,Telangana,IN,https://www.google.com/maps/place/Masjid/data=!4m7!3m6!1s0x3bcc99f056360615:0x38eb805ec2781690!8m2!3d17.9059399!4d78.9376416!16s%2Fg%2F12qg7lm_c!19sChIJFQY2VvCZzDsRkBZ4wl6A6zg?authuser=0&hl=en&rclk=1,"17.9059399,78.93764159999999"
Masjid Mohammadia,Mosque,"9QCG+VR7 Masjid Mohammadia, Utnoor Rd, Utnur, Telangana 504311",,"9QCG+VR7, Utnoor Rd",Utnur,504311,Telangana,IN,https://www.google.com/maps/place/Masjid+Mohammadia/data=!4m7!3m6!1s0x3bd285b0dc0d26a7:0xf6fa3333ae2948b7!8m2!3d19.3721507!4d78.7770528!16s%2Fg%2F11c2p105cs!19sChIJpyYN3LCF0jsRt0gprjMz-vY?authuser=0&hl=en&rclk=1,"19.3721507,78.77705279999999"
Alamgir Masjid,Mosque,"85F6+65 Alamgir Masjid, Vachunur, Telangana 505481",,85F6+65,Vachunur,,Telangana,IN,https://www.google.com/maps/place/Alamgir+Masjid/data=!4m7!3m6!1s0x3bccdb2abe3cea35:0x1cffe9db2e3bed49!8m2!3d18.3230603!4d79.1603921!16s%2Fg%2F11rq9f7qg5!19sChIJNeo8virbzDsRSe07Ltvp_xw?authuser=0&hl=en&rclk=1,"18.323060299999998,79.1603921"
Masjid,Mosque,"X2CC+HV5 Masjid, Cherial Mandal, Akunoor, 506223",,"X2CC+HV5, Cherial Mandal",Akunoor,506223,Telangana,IN,https://www.google.com/maps/place/Masjid/data=!4m7!3m6!1s0x3bccbd7f77b35435:0x7c5b8dba74a27c47!8m2!3d17.9713949!4d79.0222368!16s%2Fg%2F12qgtpd93!19sChIJNVSzd3-9zDsRR3yidLqNW3w?authuser=0&hl=en&rclk=1,"17.9713949,79.0222368"
Masjid e Mohius Sunnah,Mosque,"23C2+RXW Masjid e Mohius Sunnah, Jalpally, Telangana 506367",,23C2+RXW,Jalpally,506367,Telangana,IN,https://www.google.com/maps/place/Masjid+e+Mohius+Sunnah/data=!4m7!3m6!1s0x3bccbe77ed6efc65:0xf3331a0bedb02470!8m2!3d18.0221248!4d79.0524435!16s%2Fg%2F11dxr11fx_!19sChIJZfxu7Xe-zDsRcCSw7QsaM_M?authuser=0&hl=en&rclk=1,"18.0221248,79.0524435"
Dargah ( Chilla ),Mosque,"MV2P+XFF Dargah ( Chilla ), Buswatarag Nagar, Bellal Tarafa (Bodhan Rural), Pandu Tarfa (Bodhan Urban), Telangana 503185",Buswatarag Nagar,MV2P+XFF,"Bellal Tarafa (Bodhan Rural), Pandu Tarfa (Bodhan Urban)",503185,Telangana,IN,https://www.google.com/maps/place/Dargah+%28+Chilla+%29/data=!4m7!3m6!1s0x3bce779b1b6d6919:0x2223fd218b48acef!8m2!3d18.6524499!4d77.8861832!16s%2Fg%2F11h1m8ysxw!19sChIJGWltG5t3zjsR76xIiyH9IyI?authuser=0&hl=en&rclk=1,"18.6524499,77.88618319999999"
MASJID E IBRAHIMIA,Mosque,"MASJID E IBRAHIMIA, 2-5-275/1, tirpally, Adilabad, Telangana 504001",tirpally,2-5-275/1,Adilabad,504001,Telangana,IN,https://www.google.com/maps/place/MASJID+E+IBRAHIMIA/data=!4m7!3m6!1s0x3bd25b8b6628a527:0x550e60c0cd80575a!8m2!3d19.6814941!4d78.5416637!16s%2Fg%2F11f15jwjc0!19sChIJJ6UoZotb0jsRWleAzcBgDlU?authuser=0&hl=en&rclk=1,"19.6814941,78.5416637"
JAMA MASJID,Mosque,"9829+4GF JAMA MASJID, Boath Buzurg, Telangana 504304",,9829+4GF,Boath Buzurg,504304,Telangana,IN,https://www.google.com/maps/place/JAMA+MASJID/data=!4m7!3m6!1s0x3bd272e975f77229:0x9b59ab055d5647d2!8m2!3d19.3503023!4d78.3188004!16s%2Fg%2F11fy9g9qym!19sChIJKXL3dely0jsR0kdWXQWrWZs?authuser=0&hl=en&rclk=1,"19.3503023,78.3188004"
Monammadia Masjid,Mosque,"FMX7+QP5 Monammadia Masjid, HEERAPUR, Indervelly, Heerapur, Telangana 504346",HEERAPUR,FMX7+QP5,"Indervelly, Heerapur",,Telangana,IN,https://www.google.com/maps/place/Monammadia+Masjid/data=!4m7!3m6!1s0x3bd28b5088306d5f:0x145d9a5d18c98ff!8m2!3d19.4993952!4d78.6643571!16s%2Fg%2F11gr5_09c8!19sChIJX20wiFCL0jsR_5iM0aXZRQE?authuser=0&hl=en&rclk=1,"19.4993952,78.66435709999999"
Jama MaSjid,Mosque,"69HV+CH5 Jama MaSjid, Bondemregod, Telangana 504323",,69HV+CH5,Bondemregod,504323,Telangana,IN,https://www.google.com/maps/place/Jama+MaSjid/data=!4m7!3m6!1s0x3bd2767193830f55:0xb6bc8cfd60a42707!8m2!3d19.2285041!4d78.393985!16s%2Fg%2F11gf071m2m!19sChIJVQ-Dk3F20jsRByekYP2MvLY?authuser=0&hl=en&rclk=1,"19.2285041,78.393985"
MASJID-E-AQSA,Mosque,"9QCM+6FG MASJID-E-AQSA, Utnur, Telangana 504311",,9QCM+6FG,Utnur,504311,Telangana,IN,https://www.google.com/maps/place/MASJID-E-AQSA/data=!4m7!3m6!1s0x3bd285ae68120e2d:0x511a2112271c67ab!8m2!3d19.3705709!4d78.7836997!16s%2Fg%2F11d_8_t86t!19sChIJLQ4SaK6F0jsRq2ccJxIhGlE?authuser=0&hl=en&rclk=1,"19.3705709,78.7836997"
Masjid e Abubakar Siddiqe Rz (Ahle Hadees),Mosque,"66W7+CXQ Masjid e Abubakar Siddiqe Rz (Ahle Hadees), Swarna, Ponkur, Telangana 504323",,66W7+CXQ,"Swarna, Ponkur",504323,Telangana,IN,https://www.google.com/maps/place/Masjid+e+Abubakar+Siddiqe+Rz+%28Ahle+Hadees%29/data=!4m7!3m6!1s0x3bd20b47175f92cd:0xcb2bb92ffbba3442!8m2!3d19.2460903!4d78.2149797!16s%2Fg%2F11s0xl6zg7!19sChIJzZJfF0cL0jsRQjS6-y-5K8s?authuser=0&hl=en&rclk=1,"19.2460903,78.2149797"
Masjid,Mosque,"575J+M85 Masjid, Rd, Boragaon, Boregaon, Telangana 504110",,"575J+M85, Rd","Boragaon, Boregaon",504110,Telangana,IN,https://www.google.com/maps/place/Masjid/data=!4m7!3m6!1s0x3bcdf5566038f497:0x4b6461d2e0d594e4!8m2!3d19.1591405!4d78.2808603!16s%2Fg%2F11r9h611j1!19sChIJl_Q4YFb1zTsR5JTV4NJhZEs?authuser=0&hl=en&rclk=1,"19.1591405,78.2808603"
Jama Masjid,Mosque,"FFMW+HFQ Jama Masjid, Mannur, Telangana 504308",,FFMW+HFQ,Mannur,,Telangana,IN,https://www.google.com/maps/place/Jama+Masjid/data=!4m7!3m6!1s0x3bd265e0439525af:0xbcf454f7611c69b0!8m2!3d19.4839707!4d78.4962288!16s%2Fg%2F11gfn_jq8n!19sChIJryWVQ-Bl0jsRsGkcYfdU9Lw?authuser=0&hl=en&rclk=1,"19.4839707,78.4962288"
Jama majid,Mosque,"8FWR+WX2 Jama majid, Keshavpatnam, Telangana 504307",,8FWR+WX2,Keshavpatnam,,Telangana,IN,https://www.google.com/maps/place/Jama+majid/data=!4m7!3m6!1s0x3bd27bc616f4a32b:0x73549259eda0cd01!8m2!3d19.3472728!4d78.4923811!16s%2Fg%2F11pw51w37y!19sChIJK6P0FsZ70jsRAc2g7VmSVHM?authuser=0&hl=en&rclk=1,"19.3472728,78.4923811"
Madhina Masjid,Mosque,"2QWH+PV5 Madhina Masjid, Bandarupalle, Telangana 502114",,2QWH+PV5,Bandarupalle,502114,Telangana,IN,https://www.google.com/maps/place/Madhina+Masjid/data=!4m7!3m6!1s0x3bcc8c5991ad8c31:0x7253bfb8dd9de6b3!8m2!3d18.0467685!4d78.779736!16s%2Fg%2F11h9whvkhn!19sChIJMYytkVmMzDsRs-ad3bi_U3I?authuser=0&hl=en&rclk=1,"18.0467685,78.779736"
Masjid,Mosque,"VXWX+MGG Masjid, Musthiyala, Telangana 506224",,VXWX+MGG,Musthiyala,506224,Telangana,IN,https://www.google.com/maps/place/Masjid/data=!4m7!3m6!1s0x3bcc993ab4c1943b:0xd7e41ea630a965c7!8m2!3d17.8966772!4d78.9988308!16s%2Fg%2F11lrhchcnd!19sChIJO5TBtDqZzDsRx2WpMKYe5Nc?authuser=0&hl=en&rclk=1,"17.8966772,78.9988308"
"Masjid, Rebarthy",Mosque,"W3PJ+XJR Masjid, Rebarthy, Rebarthi, Telangana 506367",,W3PJ+XJR,Rebarthi,506367,Telangana,IN,"https://www.google.com/maps/place/Masjid,+Rebarthy/data=!4m7!3m6!1s0x3bccbdf8c1a42cc3:0x9307a4a214416480!8m2!3d17.9374932!4d79.0815187!16s%2Fg%2F11gxjw65tt!19sChIJwyykwfi9zDsRgGRBFKKkB5M?authuser=0&hl=en&rclk=1","17.9374932,79.08151869999999"
Masjid E Abu Bakar,Mosque,"2JXP+GVV Masjid E Abu Bakar, Nirmal - Mancherial Rd, Khanapur, Thimmapur, Telangana 504203",,"2JXP+GVV, Nirmal - Mancherial Rd","Khanapur, Thimmapur",504203,Telangana,IN,https://www.google.com/maps/place/Masjid+E+Abu+Bakar/data=!4m7!3m6!1s0x3bcd838be7675037:0x1ecef2637bebf20c!8m2!3d19.0488678!4d78.6371746!16s%2Fg%2F11kyxhjk80!19sChIJN1Bn54uDzTsRDPLre2Pyzh4?authuser=0&hl=en&rclk=1,"19.0488678,78.6371746"
Masjid E Hamza Ramnagar Adilabad,Mosque,"MG4C+F8M Masjid E Hamza Ramnagar Adilabad, Ramnagar Colony, Adilabad, Telangana 504001",Ramnagar Colony,MG4C+F8M,Adilabad,504001,Telangana,IN,https://www.google.com/maps/place/Masjid+E+Hamza+Ramnagar+Adilabad/data=!4m7!3m6!1s0x3bd25d6d632224ef:0xc12bfcc836f7600c!8m2!3d19.6562608!4d78.5213636!16s%2Fg%2F11r_w2kkk1!19sChIJ7yQiY21d0jsRDGD3Nsj8K8E?authuser=0&hl=en&rclk=1,"19.6562608,78.5213636"
Mosque,Mosque,"Mosque, Kadam Project, Kannapur, Telangana 504202",,,"Kadam Project, Kannapur",,Telangana,IN,https://www.google.com/maps/place/Mosque/data=!4m7!3m6!1s0x3bcd7bbcda484eed:0xe286da12f76e31fe!8m2!3d19.1018044!4d78.7807716!16s%2Fg%2F1hm2txbq6!19sChIJ7U5I2rx7zTsR_jFu9xLahuI?authuser=0&hl=en&rclk=1,"19.1018044,78.7807716"
Masjid e umar,Mosque,"9W95+WC9 Masjid e umar, Jainoor, Telangana 504313",,9W95+WC9,Jainoor,504313,Telangana,IN,https://www.google.com/maps/place/Masjid+e+umar/data=!4m7!3m6!1s0x3bd29b093593e477:0xe65cd53a2848ead0!8m2!3d19.3700184!4d78.9089038!16s%2Fg%2F11t27x9_rj!19sChIJd-STNQmb0jsR0OpIKDrVXOY?authuser=0&hl=en&rclk=1,"19.3700184,78.90890379999999"
Mohammadia Masjid,Mosque,"GGG7+V2V Mohammadia Masjid, Gudihathinur, Telangana 504308",,GGG7+V2V,Gudihathinur,,Telangana,IN,https://www.google.com/maps/place/Mohammadia+Masjid/data=!4m7!3m6!1s0x3bd2672db3af8d75:0xa3d2136c5bb1609!8m2!3d19.5272339!4d78.5125611!16s%2Fg%2F11fljg89lb!19sChIJdY2vsy1n0jsRCRa7xTYhPQo?authuser=0&hl=en&rclk=1,"19.5272339,78.5125611"
JAMA MASJID TOSHAM,Mosque,"GHH7+PQH JAMA MASJID TOSHAM, Tosham, Telangana 504308",,GHH7+PQH,Tosham,504308,Telangana,IN,https://www.google.com/maps/place/JAMA+MASJID+TOSHAM/data=!4m7!3m6!1s0x3bd2679d129ca44d:0x37c41b1b017dded8!8m2!3d19.529309!4d78.5644921!16s%2Fg%2F11llhm5gzr!19sChIJTaScEp1n0jsR2N59ARsbxDc?authuser=0&hl=en&rclk=1,"19.529308999999998,78.5644921"
Masjid- e fazil begum : msjd fDyl bygm,Mosque,"X3CR+628 Masjid- e fazil begum : msjd fDyl bygm, M + OG, Bairanpalle, Telangana 506367",,X3CR+628,"M + OG, Bairanpalle",506367,Telangana,IN,https://www.google.com/maps/place/Masjid-+e+fazil+begum+:+%D9%85%D8%B3%D8%AC%D8%AF+%D9%81%D8%A7%D8%B6%DB%8C%D9%84+%D8%A8%DB%8C%DA%AF%D9%85%E2%80%AD/data=!4m7!3m6!1s0x3bccbdf5348650bd:0x3ef9874c24970e1a!8m2!3d17.9699238!4d79.0900696!16s%2Fg%2F11txpglcnr!19sChIJvVCGNPW9zDsRGg6XJEyH-T4?authuser=0&hl=en&rclk=1,"17.9699238,79.09006959999999"
Masjid,Mosque,"5W2W+2Q9 Masjid, Utkoor - Mogdumpur Rd, Ibrahimnagar, Ibrahimpur, Telangana 502267",,"5W2W+2Q9, Utkoor - Mogdumpur Rd","Ibrahimnagar, Ibrahimpur",502267,Telangana,IN,https://www.google.com/maps/place/Masjid/data=!4m7!3m6!1s0x3bcceb586d911e3b:0xcb5874a83ec5b326!8m2!3d18.1500385!4d78.9469875!16s%2Fg%2F11pqsd3g5y!19sChIJOx6RbVjrzDsRJrPFPqh0WMs?authuser=0&hl=en&rclk=1,"18.1500385,78.94698749999999"
Shadulla Dargah,Mosque,"Shadulla Dargah, Ibrahimpur, Telangana 502267",,,Ibrahimpur,502267,Telangana,IN,https://www.google.com/maps/place/Shadulla+Dargah/data=!4m7!3m6!1s0x3bccebcf7cb35b2b:0x7702842e8da2684!8m2!3d18.1462784!4d78.9544611!16s%2Fg%2F11tghpv5l7!19sChIJK1uzfM_rzDsRhCba6EIocAc?authuser=0&hl=en&rclk=1,"18.1462784,78.9544611"
Huseen nagar Masjid Aseef bhai,Mosque,"22QH+PJX Huseen nagar Masjid Aseef bhai, Medak, Telangana 502280",,22QH+PJX,Medak,502280,Telangana,IN,https://www.google.com/maps/place/Huseen+nagar+Masjid+Aseef+bhai/data=!4m7!3m6!1s0x3bccbfa3e8a90b3b:0x154e9021145792fd!8m2!3d18.0393628!4d79.0291157!16s%2Fg%2F11rtx1wsc9!19sChIJOwup6KO_zDsR_ZJXFCGQThU?authuser=0&hl=en&rclk=1,"18.0393628,79.02911569999999"
Mohammadiya Masjid,Mosque,"5W52+H92 Mohammadiya Masjid, Siddipet - Ellantakunta Rd, Chinna Kodur, Telangana 502276",,"5W52+H92, Siddipet - Ellantakunta Rd",Chinna Kodur,502276,Telangana,IN,https://www.google.com/maps/place/Mohammadiya+Masjid/data=!4m7!3m6!1s0x3bccec5c0604ec99:0x29ffc5663b3738!8m2!3d18.1588976!4d78.9008826!16s%2Fg%2F11dxdmm96h!19sChIJmewEBlzszDsRODc7ZsX_KQA?authuser=0&hl=en&rclk=1,"18.1588976,78.9008826"
Jama masjid,Mosque,"9C9X+FR5 Jama masjid, Mukhra-B, Telangana 504307",,9C9X+FR5,Mukhra-B,504307,Telangana,IN,https://www.google.com/maps/place/Jama+masjid/data=!4m7!3m6!1s0x3bd271baede69955:0x5d9ae47fedd0e556!8m2!3d19.3686472!4d78.4496168!16s%2Fg%2F11qb3ykyy3!19sChIJVZnm7bpx0jsRVuXQ7X_kml0?authuser=0&hl=en&rclk=1,"19.368647199999998,78.4496168"
Masjid-e-ubaidullah,Mosque,"6763+MPH Masjid-e-ubaidullah, Sarangpur, Telangana 504110",,6763+MPH,Sarangpur,,Telangana,IN,https://www.google.com/maps/place/Masjid-e-ubaidullah/data=!4m7!3m6!1s0x3bd20b252120dd91:0x7c73203f3c9c251a!8m2!3d19.2116901!4d78.2543469!16s%2Fg%2F11t9pbrlmq!19sChIJkd0gISUL0jsRGiWcPD8gc3w?authuser=0&hl=en&rclk=1,"19.2116901,78.2543469"
DARGAH HAZRATH SYED SADIQ PUNJABI R.A.,Mosque,"9QFH+82V DARGAH HAZRATH SYED SADIQ PUNJABI R.A., Utnoor Rd, Utnur, Telangana 504311",,"9QFH+82V, Utnoor Rd",Utnur,,Telangana,IN,https://www.google.com/maps/place/DARGAH+HAZRATH+SYED+SADIQ+PUNJABI+R.A./data=!4m7!3m6!1s0x3bd285e8982a5b59:0xa6f27cae7e3b2eb8!8m2!3d19.37336!4d78.7775539!16s%2Fg%2F11q3lkmfrb!19sChIJWVsqmOiF0jsRuC47fq588qY?authuser=0&hl=en&rclk=1,"19.373359999999998,78.7775539"
Masjid,Mosque,"CQ24+936 Masjid, X-Road, Nagapur, Telangana 504311",X-Road,CQ24+936,Nagapur,504311,Telangana,IN,https://www.google.com/maps/place/Masjid/data=!4m7!3m6!1s0x3bd28542302b9163:0x87197ab60c077a2c!8m2!3d19.4009106!4d78.7551464!16s%2Fg%2F11qnl8lv7j!19sChIJY5ErMEKF0jsRLHoHDLZ6GYc?authuser=0&hl=en&rclk=1,"19.4009106,78.7551464"
Masjid-e-umarfarooq,Mosque,"9QCH+PGP Masjid-e-umarfarooq, Rahmathpura, Utnur, Telangana 504311",Rahmathpura,9QCH+PGP,Utnur,,Telangana,IN,https://www.google.com/maps/place/Masjid-e-umarfarooq/data=!4m7!3m6!1s0x3bd2857a91093a6b:0x26c68fcbfbdadda6!8m2!3d19.3718367!4d78.7788405!16s%2Fg%2F11g1bbd1gd!19sChIJazoJkXqF0jsRpt3a-8uPxiY?authuser=0&hl=en&rclk=1,"19.3718367,78.7788405"
Masjid,Mosque,"99C5+Q23 Masjid, Unnamed Road, Kouta, Telangana 504304",,"99C5+Q23, Unnamed Road",Kouta,504304,Telangana,IN,https://www.google.com/maps/place/Masjid/data=!4m7!3m6!1s0x3bd273b7fe3f089d:0x6f89811a9f3116dc!8m2!3d19.3718832!4d78.3575559!16s%2Fg%2F11rclc79ch!19sChIJnQg__rdz0jsR3BYxnxqBiW8?authuser=0&hl=en&rclk=1,"19.3718832,78.3575559"
JAMA MASJID,Mosque,"GGJ7+3R2 JAMA MASJID, Bazar road, Gudihathinur, Telangana 504308",,"GGJ7+3R2, Bazar road",Gudihathinur,504308,Telangana,IN,https://www.google.com/maps/place/JAMA+MASJID/data=!4m7!3m6!1s0x3bd2679cecb7be7b:0x2adf95c1083f777b!8m2!3d19.5301375!4d78.5145156!16s%2Fg%2F11sq265ndj!19sChIJe7637Jxn0jsRe3c_CMGV3yo?authuser=0&hl=en&rclk=1,"19.5301375,78.5145156"
Jama masjied wadoor,Mosque,"79PG+442 Jama masjied wadoor, Wadoor, Waddur, Telangana 504323",,79PG+442,"Wadoor, Waddur",,Telangana,IN,https://www.google.com/maps/place/Jama+masjied+wadoor/data=!4m7!3m6!1s0x3bd275d4012401f3:0x4f0ecc0883bae13b!8m2!3d19.2852661!4d78.3752639!16s%2Fg%2F11rw78tvx_!19sChIJ8wEkAdR10jsRO-G6gwjMDk8?authuser=0&hl=en&rclk=1,"19.285266099999998,78.3752639"
Eidgah,Mosque,"8C44+42J Eidgah, Neradigonda 2, Telangana 504323",,8C44+42J,Neradigonda 2,,Telangana,IN,https://www.google.com/maps/place/Eidgah/data=!4m7!3m6!1s0x3bd2711f57b8bb4f:0x6f2bb5fd75de974c!8m2!3d19.3053472!4d78.4050139!16s%2Fg%2F11jnpjl672!19sChIJT7u4Vx9x0jsRTJfedf21K28?authuser=0&hl=en&rclk=1,"19.3053472,78.4050139"
Mosjid,Mosque,"57VH+C32 Mosjid, Jam, Telangana 504110",,57VH+C32,Jam,504110,Telangana,IN,https://www.google.com/maps/place/Mosjid/data=!4m7!3m6!1s0x3bd20aa71fb74d15:0xcc40be7cde396639!8m2!3d19.1935185!4d78.2776496!16s%2Fg%2F1261h6240!19sChIJFU23H6cK0jsROWY53ny-QMw?authuser=0&hl=en&rclk=1,"19.1935185,78.27764959999999"
Jumma-Masjid,Mosque,"82JQ+5HG Jumma-Masjid, Vadlur - Peechupalli, Vadlur, Telangana 505530",,"82JQ+5HG, Vadlur - Peechupalli",Vadlur,505530,Telangana,IN,https://www.google.com/maps/place/Jumma-Masjid/data=!4m7!3m6!1s0x3bccdd65527404db:0x6b268fb480abb202!8m2!3d18.3304257!4d79.0389622!16s%2Fg%2F11j2nk58yn!19sChIJ2wR0UmXdzDsRArKrgLSPJms?authuser=0&hl=en&rclk=1,"18.3304257,79.0389622"
Miladhun Nabi Flag,Mosque,"2QXJ+469 Miladhun Nabi Flag, Unnamed Road, Bandarupalle, Telangana 502114",,"2QXJ+469, Unnamed Road",Bandarupalle,502114,Telangana,IN,https://www.google.com/maps/place/Miladhun+Nabi+Flag/data=!4m7!3m6!1s0x3bcc8d76c282d095:0xd6ee89d4fd35ff21!8m2!3d18.0477788!4d78.7806131!16s%2Fg%2F11fn2zr4lq!19sChIJldCCwnaNzDsRIf81_dSJ7tY?authuser=0&hl=en&rclk=1,"18.0477788,78.7806131"
MASJID,Mosque,"88VH+QXG MASJID, Boath Buzurg, Telangana 504304",,88VH+QXG,Boath Buzurg,504304,Telangana,IN,https://www.google.com/maps/place/MASJID/data=!4m7!3m6!1s0x3bd273a5ccb6c791:0xf37853e1363ccaa0!8m2!3d19.344726!4d78.330825!16s%2Fg%2F11snwzzbc5!19sChIJkce2zKVz0jsRoMo8NuFTePM?authuser=0&hl=en&rclk=1,"19.344725999999998,78.33082499999999"
Masjid e Umar,Mosque,"88W9+PMV Masjid e Umar, Boath Buzurg, Telangana 504304",,88W9+PMV,Boath Buzurg,504304,Telangana,IN,https://www.google.com/maps/place/Masjid+e+Umar/data=!4m7!3m6!1s0x3bd273af0b80cd5d:0x4344839cf7d24f12!8m2!3d19.3467375!4d78.319247!16s%2Fg%2F11t7b7gxtw!19sChIJXc2AC69z0jsREk_S95yDREM?authuser=0&hl=en&rclk=1,"19.3467375,78.31924699999999"
Gulzar masjid,Mosque,"88W7+PVX Gulzar masjid, beside Gulzaar Masjid, Boath Buzurg, Telangana 504304",,"88W7+PVX, beside Gulzaar Masjid",Boath Buzurg,504304,Telangana,IN,https://www.google.com/maps/place/Gulzar+masjid/data=!4m7!3m6!1s0x3bd27302c48930b5:0xd6f8a49697d95467!8m2!3d19.3468045!4d78.3147885!16s%2Fg%2F11s8y5s4b7!19sChIJtTCJxAJz0jsRZ1TZl5ak-NY?authuser=0&hl=en&rclk=1,"19.346804499999998,78.31478849999999"
Masjid e Aqsa,Mosque,"9CPV+55W Masjid e Aqsa, Islamnagar, Telangana 504307",,9CPV+55W,Islamnagar,504307,Telangana,IN,https://www.google.com/maps/place/Masjid+e+Aqsa/data=!4m7!3m6!1s0x3bd271c95b560a13:0xeac4c3253af1fd04!8m2!3d19.3854802!4d78.4429394!16s%2Fg%2F11vdh6g0fk!19sChIJEwpWW8lx0jsRBP3xOiXDxOo?authuser=0&hl=en&rclk=1,"19.3854802,78.4429394"
Masjid Rajura,Mosque,"4HXQ+W63 Masjid Rajura, Rajura khanapoor, Nirmal, Telangana",,"4HXQ+W63, Rajura khanapoor","Nirmal, Rajura",,Telangana,IN,https://www.google.com/maps/place/Masjid+Rajura/data=!4m7!3m6!1s0x3bcd813978190703:0x445a0506188ff42f!8m2!3d19.1497513!4d78.5880551!16s%2Fg%2F11q941lptr!19sChIJAwcZeDmBzTsRL_SPGAYFWkQ?authuser=0&hl=en&rclk=1,"19.1497513,78.58805509999999"
Moulana feroz khan,Mosque,"MJ3G+CQ Moulana feroz khan, Khoja Colony, Ramai, Adilabad, Telangana 504001",Khoja Colony,MJ3G+CQ,"Ramai, Adilabad",,Telangana,IN,https://www.google.com/maps/place/Moulana+feroz+khan/data=!4m7!3m6!1s0x3bd25dd4b09ad475:0x3afbebe3f84f5e37!8m2!3d19.6435498!4d78.5406584!16s%2Fg%2F11jyld9kx6!19sChIJddSasNRd0jsRN15P-OPr-zo?authuser=0&hl=en&rclk=1,"19.6435498,78.5406584"
Masjid-e-Umar Faruq,Mosque,"Masjid-e-Umar Faruq, 5-990, near Bhim Nagar, Indervelly, Telangana 504346",,"5-990, near Bhim Nagar",Indervelly,504346,Telangana,IN,https://www.google.com/maps/place/Masjid-e-Umar+Faruq/data=!4m7!3m6!1s0x3bd28977e7eaf70d:0x8258704df043e015!8m2!3d19.4936269!4d78.6706737!16s%2Fg%2F11st_xzdb0!19sChIJDffq53eJ0jsRFeBD8E1wWII?authuser=0&hl=en&rclk=1,"19.4936269,78.6706737"
Madina Masjid,Mosque,"9Q7H+P3C Madina Masjid, Mominpura, Utnur, Telangana 504311",Mominpura,9Q7H+P3C,Utnur,504311,Telangana,IN,https://www.google.com/maps/place/Madina+Masjid/data=!4m7!3m6!1s0x3bd285b33e155555:0x13e010187828103f!8m2!3d19.3643116!4d78.777638!16s%2Fg%2F11txmzdqbx!19sChIJVVUVPrOF0jsRPxAoeBgQ4BM?authuser=0&hl=en&rclk=1,"19.3643116,78.777638"
MOHAMMADIA MASJID,Mosque,"FMVC+JFR MOHAMMADIA MASJID, Heerapur, Indervelly, Telangana",,"FMVC+JFR, Heerapur",Indervelly,,Telangana,IN,https://www.google.com/maps/place/MOHAMMADIA+MASJID/data=!4m7!3m6!1s0x3bd289c55f8ff47d:0x2d649ece3f38847e!8m2!3d19.494116!4d78.6711451!16s%2Fg%2F11fcnd7c7s!19sChIJffSPX8WJ0jsRfoQ4P86eZC0?authuser=0&hl=en&rclk=1,"19.494115999999998,78.67114509999999"
MASJID SHANTAPUR,Mosque,"FGFP+C5C MASJID SHANTAPUR, Gudihathnoor Mandal, Shantapur, Telangana 504308",,FGFP+C5C Gudihathnoor Mandal,Shantapur,504308,Telangana,IN,https://www.google.com/maps/place/MASJID+SHANTAPUR/data=!4m7!3m6!1s0x3bd2654db6a04cab:0xf7f3553ee06f6434!8m2!3d19.4739955!4d78.5351779!16s%2Fg%2F11tgc9r3cf!19sChIJq0ygtk1l0jsRNGRv4D5V8_c?authuser=0&hl=en&rclk=1,"19.473995499999997,78.5351779"
BILALA MASJID,Mosque,"9WF5+HJJ BILALA MASJID, Jainoor, Telangana 504313",,9WF5+HJJ,Jainoor,504313,Telangana,IN,https://www.google.com/maps/place/BILALA+MASJID/data=!4m7!3m6!1s0x3bd29b2e07edb8d3:0xa2580038ac3fd778!8m2!3d19.3739522!4d78.9090191!16s%2Fg%2F11f77_fyxp!19sChIJ07jtBy6b0jsReNc_rDgAWKI?authuser=0&hl=en&rclk=1,"19.373952199999998,78.9090191"
Jama e masjid,Mosque,"CHP6+V5V Jama e masjid, Sirikonda, Telangana 504307",,CHP6+V5V,Sirikonda,504307,Telangana,IN,https://www.google.com/maps/place/Jama+e+masjid/data=!4m7!3m6!1s0x3bd265a0c4b67e19:0xeef9904049bc52ba!8m2!3d19.4372379!4d78.5604069!16s%2Fg%2F11t6n00ddy!19sChIJGX62xKBl0jsRulK8SUCQ-e4?authuser=0&hl=en&rclk=1,"19.4372379,78.56040689999999"
Abbubakar masjid,Mosque,"9WG5+JJV Abbubakar masjid, Jainoor, Telangana 504313",,9WG5+JJV,Jainoor,504313,Telangana,IN,https://www.google.com/maps/place/Abbubakar+masjid/data=!4m7!3m6!1s0x3bd29bab25333f2b:0x3b3f437925c3c48c!8m2!3d19.3766247!4d78.909049!16s%2Fg%2F11rs2wxm5k!19sChIJKz8zJaub0jsRjMTDJXlDPzs?authuser=0&hl=en&rclk=1,"19.3766247,78.909049"
"JAM-E-MASJID,MANNUR",Mosque,"FFPW+29F JAM-E-MASJID,MANNUR, AH43, Mannur, Telangana 504308",,"FFPW+29F, AH43",Mannur,504308,Telangana,IN,"https://www.google.com/maps/place/JAM-E-MASJID,MANNUR/data=!4m7!3m6!1s0x3bd265bcb2478de3:0x3dc9202eefabe3bc!8m2!3d19.4850021!4d78.496046!16s%2Fg%2F11twqt17yj!19sChIJ441Hsrxl0jsRvOOr7y4gyT0?authuser=0&hl=en&rclk=1","19.4850021,78.49604599999999"
Boregaon masjid,Mosque,"575J+M85 Boregaon masjid, Rd, Boragaon, Boregaon, Telangana 504110",,"575J+M85, Rd","Boragaon, Boregaon",504110,Telangana,IN,https://www.google.com/maps/place/Boregaon+masjid/data=!4m7!3m6!1s0x3bcdf5a37f0f4a77:0xa7ed0f87592cc9dd!8m2!3d19.1591431!4d78.2808539!16s%2Fg%2F11nfw3wdvw!19sChIJd0oPf6P1zTsR3cksWYcP7ac?authuser=0&hl=en&rclk=1,"19.159143099999998,78.2808539"
Jama masjid,Mosque,"JH4C+4PC Jama masjid, Unnamed Road, Ankoli, Telangana 504001",,"JH4C+4PC, Unnamed Road",Ankoli,504001,Telangana,IN,https://www.google.com/maps/place/Jama+masjid/data=!4m7!3m6!1s0x3bd25fc7d4192163:0xfea41342f3369d98!8m2!3d19.6053134!4d78.5717622!16s%2Fg%2F11rxymlw57!19sChIJYyEZ1Mdf0jsRmJ0280ITpP4?authuser=0&hl=en&rclk=1,"19.6053134,78.5717622"
Eid Gah and muslim burial ground,Mosque,"F942+CJP Eid Gah and muslim burial ground, Bazarhatnoor Rd, Bazarhatnoor, Telangana 504304",,"F942+CJP, Bazarhatnoor Rd",Bazarhatnoor,504304,Telangana,IN,https://www.google.com/maps/place/Eid+Gah+and+muslim+burial+ground/data=!4m7!3m6!1s0x3bd26c68f55bd4df:0x37802d22bc216b99!8m2!3d19.4560996!4d78.3515659!16s%2Fg%2F11cmv2275y!19sChIJ39Rb9Whs0jsRmWshvCItgDc?authuser=0&hl=en&rclk=1,"19.456099599999998,78.3515659"
JAMA MASJID KOKASMANNUR,Mosque,"9CVG+R3P JAMA MASJID KOKASMANNUR, Kokasmannur, Telangana 504307",,9CVG+R3P,Kokasmannur,504307,Telangana,IN,https://www.google.com/maps/place/JAMA+MASJID+KOKASMANNUR/data=!4m7!3m6!1s0x3bd26f0bf72abcd9:0x2e252e9b84fb3fef!8m2!3d19.3945997!4d78.4251886!16s%2Fg%2F11gtc4ft5k!19sChIJ2bwq9wtv0jsR7z_7hJsuJS4?authuser=0&hl=en&rclk=1,"19.3945997,78.4251886"
Dongargao eidgha,Mosque,"GG95+FRR Dongargao eidgha, Dongargaon, Gudihathinur, Telangana 504308",,GG95+FRR,"Dongargaon, Gudihathinur",,Telangana,IN,https://www.google.com/maps/place/Dongargao+eidgha/data=!4m7!3m6!1s0x3bd2672897490ae7:0x77f77cd4973b7dd8!8m2!3d19.5187376!4d78.5095172!16s%2Fg%2F11k46qqdyg!19sChIJ5wpJlyhn0jsR2H07l9R893c?authuser=0&hl=en&rclk=1,"19.518737599999998,78.50951719999999"
Macca masjid,Mosque,"759H+VPF Macca masjid, Husnabad-Karimnagar Rd, Mulkanur, Telangana 505481",,"759H+VPF, Husnabad-Karimnagar Rd",Mulkanur,505481,Telangana,IN,https://www.google.com/maps/place/Macca+masjid/data=!4m7!3m6!1s0x3bccc575131be6d5:0xde993797f5229539!8m2!3d18.2696372!4d79.1793457!16s%2Fg%2F11try570dp!19sChIJ1eYbE3XFzDsROZUi9Zc3md4?authuser=0&hl=en&rclk=1,"18.2696372,79.1793457"
masjid e mahboob unnisa,Mosque,"masjid e mahboob unnisa, charwadan Opposite:, Government Girls High school and Jr College, near Vidyanikethan High School, Azam Pura, Siddipet, Telangana 502103",Azam Pura,"charwadan Opposite:, Government Girls High school and Jr College, near Vidyanikethan High School",Siddipet,502103,Telangana,IN,https://www.google.com/maps/place/masjid+e+mahboob+unnisa/data=!4m7!3m6!1s0x3bcceda03f27bc1b:0xaaef2113b810d0b!8m2!3d18.1072369!4d78.8471118!16s%2Fg%2F11frqnt23j!19sChIJG7wnP6DtzDsRCw2BOxHyrgo?authuser=0&hl=en&rclk=1,"18.1072369,78.8471118"
Ansar masjid,Mosque,"9F5J+7W4 Ansar masjid, Kagaznagar, Telangana 504296",,9F5J+7W4,Kagaznagar,504296,Telangana,IN,https://www.google.com/maps/place/Ansar+masjid/data=!4m7!3m6!1s0x3a2d57b977fdbe6d:0x6960a1717e731215!8m2!3d19.3581456!4d79.4823339!16s%2Fg%2F11rsc1y_tg!19sChIJbb79d7lXLToRFRJzfnGhYGk?authuser=0&hl=en&rclk=1,"19.3581456,79.4823339"
JAMA MASJID SONALA,Mosque,"C898+5MG JAMA MASJID SONALA, Sonala, Telangana 504304",,C898+5MG,Sonala,504304,Telangana,IN,https://www.google.com/maps/place/JAMA+MASJID+SONALA/data=!4m7!3m6!1s0x3bd26d23b3215fe7:0x2ecf57cb2074d1c0!8m2!3d19.4179334!4d78.3166892!16s%2Fg%2F11p1048s3j!19sChIJ518hsyNt0jsRwNF0IMtXzy4?authuser=0&hl=en&rclk=1,"19.4179334,78.3166892"
"Masjid,msiidu",Mosque,"X3RX+VFV Masjid,msiidu, Bekkal, Telangana 506367",,X3RX+VFV,Bekkal,506367,Telangana,IN,"https://www.google.com/maps/place/Masjid,%E0%B0%AE%E0%B0%B8%E0%B1%80%E0%B0%A6%E0%B1%81/data=!4m7!3m6!1s0x3bccbd54a6465d7b:0x20dc97c6a730e614!8m2!3d17.9922294!4d79.0986855!16s%2Fg%2F11gtyvq9wm!19sChIJe11GplS9zDsRFOYwp8aX3CA?authuser=0&hl=en&rclk=1","17.9922294,79.0986855"
Madina Masjid,Mosque,"5448+XPW Madina Masjid, Koheda, Telangana 505473",,5448+XPW,Koheda,505473,Telangana,IN,https://www.google.com/maps/place/Madina+Masjid/data=!4m7!3m6!1s0x3bccc7ac0bac0897:0xf1485097e441d818!8m2!3d18.1574823!4d79.1168249!16s%2Fg%2F11kpk83h2y!19sChIJlwisC6zHzDsRGNhB5JdQSPE?authuser=0&hl=en&rclk=1,"18.157482299999998,79.1168249"
Jamayat ahlihadees masjid,Mosque,"3VG2+7PP Jamayat ahlihadees masjid, Government Degree Womens College Rd, Telangana 502277",,"3VG2+7PP, Government Degree Womens College Rd",,502277,Telangana,IN,https://www.google.com/maps/place/Jamayat+ahlihadees+masjid/data=!4m7!3m6!1s0x3bcc93cca5e57b57:0x2bc6084ebefb21b0!8m2!3d18.0757124!4d78.8518422!16s%2Fg%2F11txpx349r!19sChIJV3vlpcyTzDsRsCH7vk4Ixis?authuser=0&hl=en&rclk=1,"18.0757124,78.8518422"
Dargah musthyalapally,Mosque,"VXWX+H6M Dargah musthyalapally, Musthiyala, Telangana 506224",,VXWX+H6M,Musthiyala,,Telangana,IN,https://www.google.com/maps/place/Dargah+musthyalapally/data=!4m7!3m6!1s0x3bcc99a14a78f8b3:0x89b05f58605ac4db!8m2!3d17.8964526!4d78.9980402!16s%2Fg%2F11vfbbchfz!19sChIJs_h4SqGZzDsR28RaYFhfsIk?authuser=0&hl=en&rclk=1,"17.8964526,78.99804019999999"
aatmkuur,Mosque,"4269+XPC aatmkuur, Palepally, Baddipadaga, Telangana 502375",Palepally,4269+XPC,Baddipadaga,,Telangana,IN,https://www.google.com/maps/place/%E0%B0%86%E0%B0%A4%E0%B1%8D%E0%B0%AE%E0%B0%95%E0%B1%82%E0%B0%B0%E0%B1%8D/data=!4m7!3m6!1s0x3bccbf3fb08b75df:0x78a8564b2c6808f0!8m2!3d18.112439!4d79.0192665!16s%2Fg%2F11t5b0xp2n!19sChIJ33WLsD-_zDsR8AhoLEtWqHg?authuser=0&hl=en&rclk=1,"18.112439,79.0192665"
Peerila mazid,Mosque,"4325+X3H Peerila mazid, Unnamed Road, Baswapur, Basawapuram, Telangana 505473",,"4325+X3H, Unnamed Road","Baswapur, Basawapuram",505473,Telangana,IN,https://www.google.com/maps/place/Peerila+mazid/data=!4m7!3m6!1s0x3bccbff0671735dd:0x2e22cb33b8db15c6!8m2!3d18.1024643!4d79.0577746!16s%2Fg%2F11k3xsw173!19sChIJ3TUXZ_C_zDsRxhXbuDPLIi4?authuser=0&hl=en&rclk=1,"18.102464299999998,79.0577746"
"Ashur khana, piiriil msjid",Mosque,"6XVJ+XPP Ashur khana, piiriil msjid, Gundaram, Telangana 505528",,6XVJ+XPP,Gundaram,505528,Telangana,IN,"https://www.google.com/maps/place/Ashur+khana,+%E0%B0%AA%E0%B1%80%E0%B0%B0%E0%B1%80%E0%B0%B2+%E0%B0%AE%E0%B0%B8%E0%B1%8D%E0%B0%9C%E0%B0%BF%E0%B0%A6%E0%B1%8D/data=!4m7!3m6!1s0x3bcce9efcbb0d12d:0x45550f69fdc8dc1b!8m2!3d18.2450878!4d78.981762!16s%2Fg%2F11t8b382sc!19sChIJLdGwy-_pzDsRG9zI_WkPVUU?authuser=0&hl=en&rclk=1","18.2450878,78.981762"
Hazarat Kalasha Masthan Vali Karimulla Sha Qadri Rahamutulla Alai,Mosque,"2QVG+7PQ Hazarat Kalasha Masthan Vali Karimulla Sha Qadri Rahamutulla Alai, Bandarupalle, Telangana 502277",,2QVG+7PQ,Bandarupalle,,Telangana,IN,https://www.google.com/maps/place/Hazarat+Kalasha+Masthan+Vali+Karimulla+Sha+Qadri+Rahamutulla+Alai/data=!4m7!3m6!1s0x3bcc8d2b59f0f857:0x721decebd95bf0e5!8m2!3d18.0432074!4d78.7768627!16s%2Fg%2F11hyp6cpyy!19sChIJV_jwWSuNzDsR5fBb2evsHXI?authuser=0&hl=en&rclk=1,"18.0432074,78.7768627"
MASJID E UMMEH FAHAD,Mosque,"W5VG+3CC MASJID E UMMEH FAHAD, Tarigoppula, Telangana 506224",,W5VG+3CC,Tarigoppula,506224,Telangana,IN,https://www.google.com/maps/place/MASJID+E+UMMEH+FAHAD/data=!4m7!3m6!1s0x3bccbb4186d56af3:0xac4eb4ec49102c3c!8m2!3d17.9426902!4d79.1760136!16s%2Fg%2F11j84wsql1!19sChIJ82rVhkG7zDsRPCwQSey0Tqw?authuser=0&hl=en&rclk=1,"17.942690199999998,79.17601359999999"
Kutagudan,Mosque,"4269+XPC Kutagudan, Palepally, Baddipadaga, Telangana 502375",Palepally,4269+XPC,Baddipadaga,,Telangana,IN,https://www.google.com/maps/place/Kutagudan/data=!4m7!3m6!1s0x3bccbf4d53ac114f:0xab958dce64b0bb1d!8m2!3d18.112439!4d79.0192665!16s%2Fg%2F11rqtt5s6y!19sChIJTxGsU02_zDsRHbuwZM6Nlas?authuser=0&hl=en&rclk=1,"18.112439,79.0192665"
