name,main_category,address,address_ward,address_street,address_city,address_postal_code,address_state,address_country_code,link,coordinates
Jama Masjid Sohrabpur,Mosque,"Jama Masjid Sohrabpur, Jafarabad, Uttar Pradesh 276403",,,Jafarabad,276403,Uttar Pradesh,IN,https://www.google.com/maps/place/Jama+Masjid+Sohrabpur/data=!4m7!3m6!1s0x399191b8a92ecf7f:0x60ac11e5fc92412!8m2!3d26.0155681!4d83.3999607!16s%2Fg%2F11fy_dff20!19sChIJf88uqbiRkTkREiTJXx7BCgY?authuser=0&hl=en&rclk=1,"26.0155681,83.3999607"
Jama masjid Naravni,Mosque,"Jama masjid Naravni, Narauni, Mau, Uttar Pradesh 276403",,Narauni,"Mau, Rasulpur",276403,Uttar Pradesh,IN,https://www.google.com/maps/place/Jama+masjid+Naravni/data=!4m7!3m6!1s0x39918feb6d68f58f:0xe50050f1325bbf68!8m2!3d26.0246232!4d83.4352411!16s%2Fg%2F11lh4whm0z!19sChIJj_VobeuPkTkRaL9bMvFQAOU?authuser=0&hl=en&rclk=1,"26.024623199999997,83.4352411"
Banglewali Masjid Nizamuddin Delhi,Mosque,"H6RV+Q92 Banglewali Masjid Nizamuddin Delhi, Nizamuddin, Nizamuddin West, New Delhi, Delhi 110013","Nizamuddin, Nizamuddin West",H6RV+Q92,New Delhi,110013,Delhi,IN,https://www.google.com/maps/place/Banglewali+Masjid+Nizamuddin+Delhi/data=!4m7!3m6!1s0x390ce3a6d502fcdd:0x815ff619eadff235!8m2!3d28.5918991!4d77.2433834!16s%2Fm%2F04ybd07!19sChIJ3fwC1abjDDkRNfLf6hn2X4E?authuser=0&hl=en&rclk=1,"28.5918991,77.2433834"
"Ahlehadees, Jama Masjid, Amilo",Mosque,"Ahlehadees, Jama Masjid, Amilo, Amilo, Mubarakpur, Uttar Pradesh 276404",,,"Amilo, Mubarakpur",276404,Uttar Pradesh,IN,"https://www.google.com/maps/place/Ahlehadees,+Jama+Masjid,+Amilo/data=!4m7!3m6!1s0x399199dd17a58dc7:0x26a04c2b268c71e1!8m2!3d26.0861602!4d83.3128178!16s%2Fg%2F11dxr_x3q2!19sChIJx42lF92ZkTkR4XGMJitMoCY?authuser=0&hl=en&rclk=1","26.0861602,83.31281779999999"
"Mustafa Masjid , Pakbara , Moradabad",Mosque,"RMC5+RQC Mustafa Masjid , Pakbara , Moradabad, NH 24, Bagadpur, Uttar Pradesh 244102",,"RMC5+RQC, NH 24",Bagadpur,244102,Uttar Pradesh,IN,"https://www.google.com/maps/place/Mustafa+Masjid+,+Pakbara+,+Moradabad/data=!4m7!3m6!1s0x390afdf4d4016813:0xdc9e88bcdb1c445a!8m2!3d28.8220624!4d78.6593971!16s%2Fg%2F12hp5rqwn!19sChIJE2gB1PT9CjkRWkQc27yIntw?authuser=0&hl=en&rclk=1","28.8220624,78.65939709999999"
"Jama Masjid ,Mohammadabad",Mosque,"29MH+FP7 Jama Masjid ,Mohammadabad, Muhammadabad Gohna, Uttar Pradesh 276403",,29MH+FP7,Muhammadabad Gohna,276403,Uttar Pradesh,IN,"https://www.google.com/maps/place/Jama+Masjid+,Mohammadabad/data=!4m7!3m6!1s0x399190556471357f:0xa9912d8f5029e23f!8m2!3d26.0336706!4d83.3793079!16s%2Fg%2F11b5s2br5x!19sChIJfzVxZFWQkTkRP-IpUI8tkak?authuser=0&hl=en&rclk=1","26.033670599999997,83.3793079"
Masjid Malikpura,Mosque,"Masjid Malikpura, Sahid Marg, Mohammadabad Ballia Marg, Mohammadabad, Daudpur, Uttar Pradesh 233227",,"Sahid Marg, Mohammadabad Ballia Marg","Mohammadabad, Daudpur",233227,Uttar Pradesh,IN,https://www.google.com/maps/place/Masjid+Malikpura/data=!4m7!3m6!1s0x399205ff72c3ab7d:0xe867dc11063d3b87!8m2!3d25.6281244!4d83.7611052!16s%2Fg%2F11d_84g1kr!19sChIJfavDcv8FkjkRhzs9BhHcZ-g?authuser=0&hl=en&rclk=1,"25.628124399999997,83.7611052"
Masjid,Mosque,"4PX8+244 Masjid, Walidpur, Uttar Pradesh 250221",,4PX8+244,Walidpur,250221,Uttar Pradesh,IN,https://www.google.com/maps/place/Masjid/data=!4m7!3m6!1s0x390c6dc6c22cfe5b:0x6c83e4cd8ecf6381!8m2!3d29.1475158!4d77.7153302!16s%2Fg%2F11c6z0t5hn!19sChIJW_4swsZtDDkRgWPPjs3kg2w?authuser=0&hl=en&rclk=1,"29.147515799999997,77.7153302"
Masjid Abubaker Siddique Lohia,Mosque,"Masjid Abubaker Siddique Lohia, Kauriya, Mubarakpur, Uttar Pradesh 276404",,,"Kauriya, Mubarakpur",276404,Uttar Pradesh,IN,https://www.google.com/maps/place/Masjid+Abubaker+Siddique+Lohia/data=!4m7!3m6!1s0x3991991a2a453337:0x16752ceb3e9805a6!8m2!3d26.0864083!4d83.3196988!16s%2Fg%2F11h3ftrnl9!19sChIJNzNFKhqZkTkRpgWYPussdRY?authuser=0&hl=en&rclk=1,"26.0864083,83.3196988"
Masjide Ali,Mosque,"29V6+73H Masjide Ali, Dhaurahara, Khairabad, Uttar Pradesh 276403",,29V6+73H,"Dhaurahara, Khairabad",276403,Uttar Pradesh,IN,https://www.google.com/maps/place/Masjide+Ali/data=!4m7!3m6!1s0x399190e87d8854b9:0x9f41604e154b3057!8m2!3d26.0431831!4d83.3602476!16s%2Fg%2F11g8bgg65n!19sChIJuVSIfeiQkTkRVzBLFU5gQZ8?authuser=0&hl=en&rclk=1,"26.0431831,83.3602476"
Jama Masjid Rasoolpur,Mosque,"38V6+9X9 Jama Masjid Rasoolpur, Pahi Jamin Patti, Uttar Pradesh 276404",,38V6+9X9,Pahi Jamin Patti,,Uttar Pradesh,IN,https://www.google.com/maps/place/Jama+Masjid+Rasoolpur/data=!4m7!3m6!1s0x3991999d2c976649:0x910acae9096de1d2!8m2!3d26.0934083!4d83.3124827!16s%2Fg%2F11f9wxf07b!19sChIJSWaXLJ2ZkTkR0uFtCenKCpE?authuser=0&hl=en&rclk=1,"26.0934083,83.31248269999999"
Jamia Mohammadia,Mosque,"XGCW+RF6 Jamia Mohammadia, Mau Bypass, Khedupura, Mau, Uttar Pradesh 275101",Khedupura,"XGCW+RF6, Mau Bypass",Mau,275101,Uttar Pradesh,IN,https://www.google.com/maps/place/Jamia+Mohammadia/data=!4m7!3m6!1s0x39918bcbb096782b:0x9d33255de32c7563!8m2!3d25.972239!4d83.5460848!16s%2Fg%2F1262lmhhw!19sChIJK3iWsMuLkTkRY3Us410lM50?authuser=0&hl=en&rclk=1,"25.972239,83.5460848"
Jama Masjid Baraeepur,Mosque,"29PP+H7H Jama Masjid Baraeepur, Mohammadabad, Muhammadabad Gohna, Uttar Pradesh",,"29PP+H7H, Mohammadabad",Muhammadabad Gohna,,Uttar Pradesh,IN,https://www.google.com/maps/place/Jama+Masjid+Baraeepur/data=!4m7!3m6!1s0x39919053c06809d1:0xc71b3addb3ee739f!8m2!3d26.0364439!4d83.3857294!16s%2Fg%2F11g9m9mxj6!19sChIJ0QlowFOQkTkRn3Pus906G8c?authuser=0&hl=en&rclk=1,"26.0364439,83.3857294"
Masjid Daudpur,Mosque,"JQG6+HPR Masjid Daudpur, Mohammadabad Ballia Marg, dist, Daudpur, Uttar Pradesh 233227",,"JQG6+HPR, Mohammadabad Ballia Marg, dist",Daudpur,233227,Uttar Pradesh,IN,https://www.google.com/maps/place/Masjid+Daudpur/data=!4m7!3m6!1s0x399205ff91edc603:0x602fd93e9179c8e5!8m2!3d25.6264797!4d83.7617545!16s%2Fg%2F11f1jwvjj_!19sChIJA8btkf8FkjkR5ch5kT7ZL2A?authuser=0&hl=en&rclk=1,"25.626479699999997,83.7617545"
Masjid Kaithan Nagla,Mosque,"8C3R+H7V Masjid Kaithan Nagla, Tajpur Road, Mohammadabad, Uttar Pradesh 209651",,"8C3R+H7V, Tajpur Road",Mohammadabad,209651,Uttar Pradesh,IN,https://www.google.com/maps/place/Masjid+Kaithan+Nagla/data=!4m7!3m6!1s0x399e2644f44923d1:0xd6f0884dc1e1be94!8m2!3d27.30399!4d79.4406619!16s%2Fg%2F11gfn4q7m7!19sChIJ0SNJ9EQmnjkRlL7hwU2I8NY?authuser=0&hl=en&rclk=1,"27.30399,79.4406619"
Masjid Umar Farooq,Mosque,"29R8+R99 Masjid Umar Farooq, Dhaurahara, Khairabad, Uttar Pradesh 276403",,29R8+R99,"Dhaurahara, Khairabad",276403,Uttar Pradesh,IN,https://www.google.com/maps/place/Masjid+Umar+Farooq/data=!4m7!3m6!1s0x399190e570b94917:0x81284a3fc5cc9cc1!8m2!3d26.0420301!4d83.3659744!16s%2Fg%2F11c1t51mj1!19sChIJF0m5cOWQkTkRwZzMxT9KKIE?authuser=0&hl=en&rclk=1,"26.042030099999998,83.3659744"
Jama Masjid,Mosque,"29R7+98J Jama Masjid, Dakhkhin Mohalla, Khairabad, Uttar Pradesh 276403",Dakhkhin Mohalla,29R7+98J,Khairabad,276403,Uttar Pradesh,IN,https://www.google.com/maps/place/Jama+Masjid/data=!4m7!3m6!1s0x399190e5dc1c4d79:0x7e7cde56a7c9d2be!8m2!3d26.0409665!4d83.3632557!16s%2Fg%2F11c5_fccxt!19sChIJeU0c3OWQkTkRvtLJp1befH4?authuser=0&hl=en&rclk=1,"26.0409665,83.3632557"
Masjid Abu Aiyub Ansari Road,Mosque,"29R7+3HP Masjid Abu Aiyub Ansari Road, Dhaurahara, Khairabad, Uttar Pradesh 276403",,29R7+3HP,"Dhaurahara, Khairabad",276403,Uttar Pradesh,IN,https://www.google.com/maps/place/Masjid+Abu+Aiyub+Ansari+Road/data=!4m7!3m6!1s0x399190e5c957e623:0x97ee83b8463bab86!8m2!3d26.0402053!4d83.36395!16s%2Fg%2F11bwh5rd8h!19sChIJI-ZXyeWQkTkRhqs7RriD7pc?authuser=0&hl=en&rclk=1,"26.0402053,83.36395"
Masjid E Dholana,Mosque,"3C5C+GX3 Masjid E Dholana, Mau, Uttar Pradesh 276405",,3C5C+GX3,Mau,,Uttar Pradesh,IN,https://www.google.com/maps/place/Masjid+E+Dholana/data=!4m7!3m6!1s0x39918f67b388f4f7:0xc6d447aa6fb9bc53!8m2!3d26.0587678!4d83.4224202!16s%2Fg%2F11gk6y_5_w!19sChIJ9_SIs2ePkTkRU7y5b6pH1MY?authuser=0&hl=en&rclk=1,"26.0587678,83.42242019999999"
Jama Masjid Mahamdabad,Mosque,"782Q+P46 Jama Masjid Mahamdabad, Mahamdabad, Uttar Pradesh 246726",,782Q+P46,Mahamdabad,246726,Uttar Pradesh,IN,https://www.google.com/maps/place/Jama+Masjid+Mahamdabad/data=!4m7!3m6!1s0x390bbfa06c644469:0xbfd8a1eec6c3cc67!8m2!3d29.2517875!4d78.3377599!16s%2Fg%2F11ddyyvdlv!19sChIJaURkbKC_CzkRZ8zDxu6h2L8?authuser=0&hl=en&rclk=1,"29.2517875,78.3377599"
Nayi Jama Masjid,Mosque,"393G+C4Q Nayi Jama Masjid, Muhalla, Bhira, Walidpur, Uttar Pradesh 276405",,"393G+C4Q, Muhalla","Bhira, Walidpur",276405,Uttar Pradesh,IN,https://www.google.com/maps/place/Nayi+Jama+Masjid/data=!4m7!3m6!1s0x399190f4c2757aff:0x785d7fcf2d7eb08b!8m2!3d26.0535875!4d83.3753594!16s%2Fg%2F11gfk1j200!19sChIJ_3p1wvSQkTkRi7B-Lc9_XXg?authuser=0&hl=en&rclk=1,"26.0535875,83.3753594"
Shahi Masjid Syedwara,Mosque,"29PG+MWP Shahi Masjid Syedwara, shahi masjid syedwara mohammadabad, Gohna, Uttar Pradesh",,"29PG+MWP, shahi masjid syedwara mohammadabad","Gohna, Muhammadabad Gohna",,Uttar Pradesh,IN,https://www.google.com/maps/place/Shahi+Masjid+Syedwara/data=!4m7!3m6!1s0x399190ff39f71397:0x42c205f778d94b65!8m2!3d26.0367167!4d83.3773423!16s%2Fg%2F11fx6379yt!19sChIJlxP3Of-QkTkRZUvZePcFwkI?authuser=0&hl=en&rclk=1,"26.0367167,83.3773423"
Jama Masjid Mohammadabad,Mosque,"Jama Masjid Mohammadabad, Jama Masjid Rd, Mohammadabad, Qasimabad, Uttar Pradesh 244235",,Jama Masjid Rd,"Mohammadabad, Qasimabad",244235,Uttar Pradesh,IN,https://www.google.com/maps/place/Jama+Masjid+Mohammadabad/data=!4m7!3m6!1s0x390b718447170ba9:0x34b285c61053ac0d!8m2!3d28.7703683!4d78.1657959!16s%2Fg%2F11fpsmzy6l!19sChIJqQsXR4RxCzkRDaxTEMaFsjQ?authuser=0&hl=en&rclk=1,"28.770368299999998,78.16579589999999"
Masjid Mohammadi,Mosque,"R28G+VV6 Masjid Mohammadi, Rahe Murtaza Rd, Kuncha Lala Miyan, Rampur, Uttar Pradesh 244901",Kuncha Lala Miyan,"R28G+VV6, Rahe Murtaza Rd",Rampur,244901,Uttar Pradesh,IN,https://www.google.com/maps/place/Masjid+Mohammadi/data=!4m7!3m6!1s0x390a8d31c8d5df09:0x9bbc79e2aa2956c5!8m2!3d28.8171623!4d79.0271459!16s%2Fg%2F11c5szxjbl!19sChIJCd_VyDGNCjkRxVYpquJ5vJs?authuser=0&hl=en&rclk=1,"28.8171623,79.0271459"
Masjid Haji Noor Mohammed,Mosque,"38P8+M4P Masjid Haji Noor Mohammed, Amilo, Mubarakpur, Uttar Pradesh 276404",,38P8+M4P,"Amilo, Mubarakpur",276404,Uttar Pradesh,IN,https://www.google.com/maps/place/Masjid+Haji+Noor+Mohammed/data=!4m7!3m6!1s0x3991998fe59f4e09:0x45a2a0c252170989!8m2!3d26.0867058!4d83.3153404!16s%2Fg%2F11g1ppg9f_!19sChIJCU6f5Y-ZkTkRiQkXUsKgokU?authuser=0&hl=en&rclk=1,"26.086705799999997,83.3153404"
Jama Masjid Karhan,Mosque,"X989+VJ3 Jama Masjid Karhan, Karhan, Uttar Pradesh 276402",,X989+VJ3,Karhan,276402,Uttar Pradesh,IN,https://www.google.com/maps/place/Jama+Masjid+Karhan/data=!4m7!3m6!1s0x399193cf4fa4c575:0xdc26eea36430f6d9!8m2!3d25.967134!4d83.3690499!16s%2Fg%2F11dfgvx6sn!19sChIJdcWkT8-TkTkR2fYwZKPuJtw?authuser=0&hl=en&rclk=1,"25.967133999999998,83.3690499"
Madina masjid,Mosque,"HGFG+GCH Madina masjid, Unnamed Road, Salarpur Kalan, Uttar Pradesh 244302",,"HGFG+GCH, Unnamed Road",Salarpur Kalan,244302,Uttar Pradesh,IN,https://www.google.com/maps/place/Madina+masjid/data=!4m7!3m6!1s0x390b19dec69486d3:0x3373b8a680342a49!8m2!3d28.5738068!4d78.5261167!16s%2Fg%2F11h7njzb2r!19sChIJ04aUxt4ZCzkRSSo0gKa4czM?authuser=0&hl=en&rclk=1,"28.5738068,78.5261167"
Jama Masjid,Mosque,"JQJ3+5HQ Jama Masjid, Mohammadabad, Kajipur Siraj, Uttar Pradesh 233227",,JQJ3+5HQ,"Mohammadabad, Kajipur Siraj",233227,Uttar Pradesh,IN,https://www.google.com/maps/place/Jama+Masjid/data=!4m7!3m6!1s0x399205fb7c6f941b:0xa73bab477ffa9863!8m2!3d25.6304656!4d83.7539881!16s%2Fg%2F1235440vx!19sChIJG5RvfPsFkjkRY5j6f0erO6c?authuser=0&hl=en&rclk=1,"25.630465599999997,83.7539881"
Bhulai Jama Masjid,Mosque,"29R7+W78 Bhulai Jama Masjid, athwaria tola, Khairabad, Uttar Pradesh 276403",Dakhkhin Mohalla,"29R7+W78, athwaria tola",Khairabad,276403,Uttar Pradesh,IN,https://www.google.com/maps/place/Bhulai+Jama+Masjid/data=!4m7!3m6!1s0x399190e5fc0cca07:0xe00e98e9e66731eb!8m2!3d26.0422844!4d83.3632185!16s%2Fg%2F11hbts1706!19sChIJB8oM_OWQkTkR6zFn5umYDuA?authuser=0&hl=en&rclk=1,"26.0422844,83.3632185"
Jama Masjid Mahrupur,Mosque,"29MM+XPP Jama Masjid Mahrupur, mahropur, Muhammadabad Gohna, Uttar Pradesh 276403",,29MM+XPP,"mahropur, Muhammadabad Gohna",276403,Uttar Pradesh,IN,https://www.google.com/maps/place/Jama+Masjid+Mahrupur/data=!4m7!3m6!1s0x39919054872a93a9:0x81d549a4f4054211!8m2!3d26.0349505!4d83.3843176!16s%2Fg%2F11f3vnlssb!19sChIJqZMqh1SQkTkREUIF9KRJ1YE?authuser=0&hl=en&rclk=1,"26.034950499999997,83.3843176"
Block Mosque msjd,Mosque,"JQC4+FR3 Block Mosque msjd, Mohammadabad, Uttar Pradesh 233227",,JQC4+FR3,Mohammadabad,233227,Uttar Pradesh,IN,https://www.google.com/maps/place/Block+Mosque+%D9%85%D8%B3%D8%AC%D8%AF%E2%80%AD/data=!4m7!3m6!1s0x39920606d4b9c2c5:0xafe913c543e56010!8m2!3d25.6211452!4d83.7570512!16s%2Fg%2F1hhgv1qs9!19sChIJxcK51AYGkjkREGDlQ8UT6a8?authuser=0&hl=en&rclk=1,"25.621145199999997,83.75705119999999"
Belal Msjid,Mosque,"29HH+64G Belal Msjid, Chudi Gali, Najopatti, Muhammadabad Gohna, Uttar Pradesh 276403",,"29HH+64G, Chudi Gali","Najopatti, Muhammadabad Gohna",276403,Uttar Pradesh,IN,https://www.google.com/maps/place/Belal+Msjid/data=!4m7!3m6!1s0x399191008d95d51b:0x401f70161d28db10!8m2!3d26.0280505!4d83.3778335!16s%2Fg%2F11gb3w2g36!19sChIJG9WVjQCRkTkRENsoHRZwH0A?authuser=0&hl=en&rclk=1,"26.0280505,83.3778335"
Azimabad Masjid,Mosque,"Azimabad Masjid, Mirzahadi Pura, Mau, Uttar Pradesh 275101",Mirzahadi Pura,,Mau,,Uttar Pradesh,IN,https://www.google.com/maps/place/Azimabad+Masjid/data=!4m7!3m6!1s0x39918bad7a3beab3:0x602816a7cb273122!8m2!3d25.9564074!4d83.5473673!16s%2Fg%2F12q4vsjd_!19sChIJs-o7eq2LkTkRIjEny6cWKGA?authuser=0&hl=en&rclk=1,"25.9564074,83.54736729999999"
Jama Masjid E Saleha Usmanabad Mohammadabad Gohna,Mosque,"29JQ+3QP Jama Masjid E Saleha Usmanabad Mohammadabad Gohna, SH 34, Muhammadabad Gohna, Muhammadabad, Uttar Pradesh 276403",,"29JQ+3QP, SH 34","Muhammadabad Gohna, Muhammadabad",276403,Uttar Pradesh,IN,https://www.google.com/maps/place/Jama+Masjid+E+Saleha+Usmanabad+Mohammadabad+Gohna/data=!4m7!3m6!1s0x399191059fb77507:0xeb74d0e85bc9f764!8m2!3d26.0302003!4d83.3894587!16s%2Fg%2F11hmplpf9b!19sChIJB3W3nwWRkTkRZPfJW-jQdOs?authuser=0&hl=en&rclk=1,"26.030200299999997,83.38945869999999"
Mohammadabad Ki Masjid,Mosque,"7CXV+HCW Mohammadabad Ki Masjid, Atkhambha, Koiri Tola, Bihar 841232",Atkhambha,7CXV+HCW,Koiri Tola,841232,Bihar,IN,https://www.google.com/maps/place/Mohammadabad+Ki+Masjid/data=!4m7!3m6!1s0x3992e2b21fce734d:0x69103ce15302313a!8m2!3d26.2989833!4d84.4435791!16s%2Fg%2F11f34m101p!19sChIJTXPOH7LikjkROjECU-E8EGk?authuser=0&hl=en&rclk=1,"26.2989833,84.4435791"
Jama Masjid Noori,Mosque,"8C4M+JJX Jama Masjid Noori, Mohammadabad, Uttar Pradesh 209651",,8C4M+JJX,Mohammadabad,209651,Uttar Pradesh,IN,https://www.google.com/maps/place/Jama+Masjid+Noori/data=!4m7!3m6!1s0x399e2648d4cd99d3:0x7b7a2708f841e943!8m2!3d27.306622!4d79.4341011!16s%2Fg%2F11bz_2zdg4!19sChIJ05nN1EgmnjkRQ-lB-Agnens?authuser=0&hl=en&rclk=1,"27.306621999999997,79.43410109999999"
Mohammadi Masjid,Mosque,"Mohammadi Masjid, Maqbara Rd, Hayat Nagar, Katghar, Moradabad, Uttar Pradesh 244001","Hayat Nagar, Katghar",Maqbara Rd,Moradabad,244001,Uttar Pradesh,IN,https://www.google.com/maps/place/Mohammadi+Masjid/data=!4m7!3m6!1s0x390afbb4a6608385:0xd8aded11f482c826!8m2!3d28.8282414!4d78.7920473!16s%2Fg%2F11ddxcwqxr!19sChIJhYNgprT7CjkRJsiC9BHtrdg?authuser=0&hl=en&rclk=1,"28.8282414,78.7920473"
"Colector Shaheb Ki Bag Wali Masjid, Sufiyan Bangla",Mosque,"29HG+RXR Colector Shaheb Ki Bag Wali Masjid, Sufiyan Bangla, Asthanrauja Makdoom, Muhammadabad Gohna, Uttar Pradesh 276403",,29HG+RXR,"Asthanrauja Makdoom, Muhammadabad Gohna",276403,Uttar Pradesh,IN,"https://www.google.com/maps/place/Colector+Shaheb+Ki+Bag+Wali+Masjid,+Sufiyan+Bangla/data=!4m7!3m6!1s0x399191003db68f63:0xafc093c0e77c79d5!8m2!3d26.0296125!4d83.3773788!16s%2Fg%2F11f3jv8vx7!19sChIJY4-2PQCRkTkR1Xl858CTwK8?authuser=0&hl=en&rclk=1","26.0296125,83.3773788"
MASJID MUSTAFABAD,Mosque,"4Q73+4GG MASJID MUSTAFABAD, Mustafabad, Zamalpur, Uttar Pradesh 221602",,4Q73+4GG,"Mustafabad, Zamalpur",221602,Uttar Pradesh,IN,https://www.google.com/maps/place/MASJID+MUSTAFABAD/data=!4m7!3m6!1s0x39922fe5d743628b:0xa1398ac011a8d8da!8m2!3d26.1128095!4d83.7538252!16s%2Fg%2F11h9xgwm8y!19sChIJi2JD1-UvkjkR2tioEcCKOaE?authuser=0&hl=en&rclk=1,"26.112809499999997,83.7538252"
Jama Masjid,Mosque,"29G9+2QQ Jama Masjid, Barahadpur, Uttar Pradesh 276403",,29G9+2QQ,Barahadpur,276403,Uttar Pradesh,IN,https://www.google.com/maps/place/Jama+Masjid/data=!4m7!3m6!1s0x39919104a1b68f01:0xc0e66616a1c623bd!8m2!3d26.0250987!4d83.3694852!16s%2Fg%2F11hbnh3951!19sChIJAY-2oQSRkTkRvSPGoRZm5sA?authuser=0&hl=en&rclk=1,"26.025098699999997,83.3694852"
Masjid,Mosque,"2C86+HP7 Masjid, Halimabad, Uttar Pradesh 276403",,2C86+HP7,Halimabad,276403,Uttar Pradesh,IN,https://www.google.com/maps/place/Masjid/data=!4m7!3m6!1s0x399191db452174cd:0x3a61d80bf4eae4c2!8m2!3d26.016415!4d83.4118111!16s%2Fg%2F11hcdz0ygd!19sChIJzXQhRduRkTkRwuTq9AvYYTo?authuser=0&hl=en&rclk=1,"26.016415,83.4118111"
Jama Masjid ghalibpur,Mosque,"2C96+WGM Jama Masjid ghalibpur, Galibpur Village, Chak Kuwardeh, Uttar Pradesh 276403",,2C96+WGM,"Galibpur Village, Chak Kuwardeh",276403,Uttar Pradesh,IN,https://www.google.com/maps/place/Jama+Masjid+ghalibpur/data=!4m7!3m6!1s0x399191011e31f38d:0x66da792b04044c01!8m2!3d26.019842!4d83.4113078!16s%2Fg%2F11j0rvx5s9!19sChIJjfMxHgGRkTkRAUwEBCt52mY?authuser=0&hl=en&rclk=1,"26.019842,83.4113078"
Madeena Masjid Mohammadabad,Mosque,"Q598+5P2 Madeena Masjid Mohammadabad, near prathama bank, mohammadabad, Qasimabad, Uttar Pradesh 244235",,"Q598+5P2, near prathama bank","mohammadabad, Qasimabad",244235,Uttar Pradesh,IN,https://www.google.com/maps/place/Madeena+Masjid+Mohammadabad/data=!4m7!3m6!1s0x390b71054c99d549:0x1da4b5ba8211992c!8m2!3d28.7678809!4d78.1667677!16s%2Fg%2F11f40074cn!19sChIJSdWZTAVxCzkRLJkRgrq1pB0?authuser=0&hl=en&rclk=1,"28.767880899999998,78.1667677"
Madina Mosque Muhammad abad Faisalabad,Mosque,"94W6+X2R Madina Mosque Muhammad abad Faisalabad, Unnamed Road, Muhammad Abad Muhammadabad, Faisalabad, Punjab, Pakistan",Muhammad Abad Muhammadabad,"94W6+X2R, Unnamed Road",Faisalabad,,"Faisalabad, Punjab",PK,https://www.google.com/maps/place/Madina+Mosque+Muhammad+abad+Faisalabad/data=!4m7!3m6!1s0x3922674de5a6bfeb:0x33ee8a4b9ec26717!8m2!3d31.3974934!4d73.1100309!16s%2Fg%2F11f9fg431c!19sChIJ67-m5U1nIjkRF2fCnkuK7jM?authuser=0&hl=en&rclk=1,"31.3974934,73.1100309"
MARKAZI EIDGAH MOHAMMADABAD GOHNA mrkhzy `ydgh mHmdabd gwhnh,Mosque,"29JR+88J MARKAZI EIDGAH MOHAMMADABAD GOHNA mrkhzy `ydgh mHmdabd gwhnh, SH 34, Muhammadabad Gohna, Muhammadabad, Uttar Pradesh 276403",,"29JR+88J, SH 34","Muhammadabad Gohna, Muhammadabad",276403,Uttar Pradesh,IN,https://www.google.com/maps/place/MARKAZI+EIDGAH+MOHAMMADABAD+GOHNA+%D9%85%D8%B1%DA%A9%D8%B2%DB%8C+%D8%B9%DB%8C%D8%AF%DA%AF%D8%A7%DB%81+%D9%85%D8%AD%D9%85%D8%AF%D8%A2%D8%A8%D8%A7%D8%AF+%DA%AF%D9%88%DA%BE%D9%86%DB%81%E2%80%AD/data=!4m7!3m6!1s0x3991917cdab1291f:0x492de9e5c958cb7b!8m2!3d26.0308276!4d83.3907751!16s%2Fg%2F11l39_k1zm!19sChIJHymx2nyRkTkRe8tYyeXpLUk?authuser=0&hl=en&rclk=1,"26.0308276,83.3907751"
Masjid,Mosque,"JGVV+WX Masjid, Rampur Urf Yarpur, Uttar Pradesh 244304",,JGVV+WX,Rampur Urf Yarpur,,Uttar Pradesh,IN,https://www.google.com/maps/place/Masjid/data=!4m7!3m6!1s0x390b1914cd83f9e9:0x1d353af22c65cbc3!8m2!3d28.6447875!4d78.5450032!16s%2Fg%2F11pvhrfs96!19sChIJ6fmDzRQZCzkRw8tlLPI6NR0?authuser=0&hl=en&rclk=1,"28.6447875,78.5450032"
"Jama Masjid, Dholaha",Mosque,"3C2J+3CF Jama Masjid, Dholaha, Dholaha, Dholana, Uttar Pradesh 276405",,3C2J+3CF,"Dholaha, Dholana",,Uttar Pradesh,IN,"https://www.google.com/maps/place/Jama+Masjid,+Dholaha/data=!4m7!3m6!1s0x39918fdb3fffffff:0x7b618e7fc35ab77e!8m2!3d26.0501926!4d83.4310509!16s%2Fg%2F11f53h1z2z!19sChIJ____P9uPkTkRfrdaw3-OYXs?authuser=0&hl=en&rclk=1","26.0501926,83.4310509"
Jama Masjid Rasulpur,Mosque,"29QP+29P Jama Masjid Rasulpur, Muhammadabad Gohna, Uttar Pradesh 276403",,29QP+29P,Muhammadabad Gohna,,Uttar Pradesh,IN,https://www.google.com/maps/place/Jama+Masjid+Rasulpur/data=!4m7!3m6!1s0x3991913fc353859b:0x56db85410bdde035!8m2!3d26.0375835!4d83.3859468!16s%2Fg%2F11jm43ydz6!19sChIJm4VTwz-RkTkRNeDdC0GF21Y?authuser=0&hl=en&rclk=1,"26.0375835,83.3859468"
Masjid Fatehabad msjid phtehbaag,Mosque,"JQC4+FR4 Masjid Fatehabad msjid phtehbaag, Sadar Rd, Mohammadabad, Uttar Pradesh 233227",,"JQC4+FR4, Sadar Rd",Mohammadabad,233227,Uttar Pradesh,IN,https://www.google.com/maps/place/Masjid+Fatehabad+%E0%A4%AE%E0%A4%B8%E0%A5%8D%E0%A4%9C%E0%A4%BF%E0%A4%A6+%E0%A4%AB%E0%A4%A4%E0%A5%87%E0%A4%B9%E0%A4%AC%E0%A4%BE%E0%A4%97/data=!4m7!3m6!1s0x3992075c13a9f613:0x1c730523a7d66875!8m2!3d25.6211422!4d83.7570653!16s%2Fg%2F11ql_2wfyq!19sChIJE_apE1wHkjkRdWjWpyMFcxw?authuser=0&hl=en&rclk=1,"25.621142199999998,83.7570653"
Jama Masjid Kadam Rasool,Mosque,"394C+4RM Jama Masjid Kadam Rasool, Bhira,, Walidpur, Uttar Pradesh",,"394C+4RM, Bhira,","Walidpur, Bhira",,Uttar Pradesh,IN,https://www.google.com/maps/place/Jama+Masjid+Kadam+Rasool/data=!4m7!3m6!1s0x3991908cc977c947:0xf33438f9c3b8610d!8m2!3d26.0553387!4d83.3720568!16s%2Fg%2F11c603g_g1!19sChIJR8l3yYyQkTkRDWG4w_k4NPM?authuser=0&hl=en&rclk=1,"26.0553387,83.3720568"
Jama Masjid Bandi Kalan,Mosque,"X9MW+QVP Jama Masjid Bandi Kalan, Tulasipur Kodhwa, Uttar Pradesh 276403",,X9MW+QVP,Tulasipur Kodhwa,276403,Uttar Pradesh,IN,https://www.google.com/maps/place/Jama+Masjid+Bandi+Kalan/data=!4m7!3m6!1s0x39919330dcff864f:0xca8191fc8d4e07e0!8m2!3d25.9844629!4d83.3972098!16s%2Fg%2F11n5bfbwv7!19sChIJT4b_3DCTkTkR4AdOjfyRgco?authuser=0&hl=en&rclk=1,"25.9844629,83.3972098"
Masjid Aslam Hamidpur,Mosque,"3FCF+CFW Masjid Aslam Hamidpur, Hamid Pur, Nadwasarai, Uttar Pradesh 276405",Hamid Pur,3FCF+CFW,Nadwasarai,276405,Uttar Pradesh,IN,https://www.google.com/maps/place/Masjid+Aslam+Hamidpur/data=!4m7!3m6!1s0x39918f7075308acd:0x2b0f1798514a3ff5!8m2!3d26.0711197!4d83.4736999!16s%2Fg%2F11ddxsh3y7!19sChIJzYowdXCPkTkR9T9KUZgXDys?authuser=0&hl=en&rclk=1,"26.0711197,83.4736999"
JAMA Masjid Bilal,Mosque,"396H+9J3 JAMA Masjid Bilal, Walidpur, Mandaha, Uttar Pradesh 276405",,396H+9J3,"Walidpur, Mandaha",276405,Uttar Pradesh,IN,https://www.google.com/maps/place/JAMA+Masjid+Bilal/data=!4m7!3m6!1s0x39919061ffa8ee29:0x111bb5755e641e28!8m2!3d26.0608981!4d83.3790538!16s%2Fg%2F11f3vmnlwz!19sChIJKe6o_2GQkTkRKB5kXnW1GxE?authuser=0&hl=en&rclk=1,"26.0608981,83.3790538"
msjid sohraabpur,Mosque,"298W+RPH msjid sohraabpur, Sohrabpur, Jafarabad, Uttar Pradesh 276403",,298W+RPH,"Sohrabpur, Jafarabad",276403,Uttar Pradesh,IN,https://www.google.com/maps/place/%E0%A4%AE%E0%A4%B8%E0%A5%8D%E0%A4%9C%E0%A4%BF%E0%A4%A6+%E0%A4%B8%E0%A5%8B%E0%A4%B9%E0%A4%B0%E0%A4%BE%E0%A4%AC%E0%A4%AA%E0%A5%81%E0%A4%B0/data=!4m7!3m6!1s0x3991910deeaf988b:0x59d8f42c9bea57a7!8m2!3d26.0164705!4d83.3976944!16s%2Fg%2F11spv44p19!19sChIJi5iv7g2RkTkRp1fqmyz02Fk?authuser=0&hl=en&rclk=1,"26.0164705,83.39769439999999"
Masjide Islam,Mosque,"Q597+8CV Masjide Islam, Mohammadabad, Kharagpur Ahatmali, Uttar Pradesh 244235",,Q597+8CV,"Mohammadabad, Kharagpur Ahatmali",244235,Uttar Pradesh,IN,https://www.google.com/maps/place/Masjide+Islam/data=!4m7!3m6!1s0x390b718b528f5b93:0x5a3dfcac9669871d!8m2!3d28.7683607!4d78.163552!16s%2Fg%2F11gw2_myx5!19sChIJk1uPUotxCzkRHYdplqz8PVo?authuser=0&hl=en&rclk=1,"28.7683607,78.163552"
Taqwa Jama Masjid,Mosque,"Taqwa Jama Masjid, Taqwa Jama masjid, Goncha, Azamgarh, Godda, Uttar Pradesh 276404",Goncha,Taqwa Jama masjid,"Azamgarh, Godda",,Uttar Pradesh,IN,https://www.google.com/maps/place/Taqwa+Jama+Masjid/data=!4m7!3m6!1s0x39919127cf3d3d17:0xdca775728b020713!8m2!3d26.0551593!4d83.3514336!16s%2Fg%2F11nsywpft2!19sChIJFz09zyeRkTkREwcCi3J1p9w?authuser=0&hl=en&rclk=1,"26.0551593,83.3514336"
Masjide Usman Gani,Mosque,"29R5+VHX Masjide Usman Gani, Khairabad, Uttar Pradesh 276403",,29R5+VHX,Khairabad,,Uttar Pradesh,IN,https://www.google.com/maps/place/Masjide+Usman+Gani/data=!4m7!3m6!1s0x39919178e9592ca1:0xa29a0680d6fb1db7!8m2!3d26.0422379!4d83.358984!16s%2Fg%2F11h5ph103s!19sChIJoSxZ6XiRkTkRtx371oAGmqI?authuser=0&hl=en&rclk=1,"26.0422379,83.35898399999999"
Jama Masjid Dakhkhin Mohalla,Mosque,"38CV+FF7 Jama Masjid Dakhkhin Mohalla, Ibrahimpur, Uttar Pradesh 276404",,38CV+FF7,Ibrahimpur,276404,Uttar Pradesh,IN,https://www.google.com/maps/place/Jama+Masjid+Dakhkhin+Mohalla/data=!4m7!3m6!1s0x3991910b18fddd87:0xfef110e03031c530!8m2!3d26.0711713!4d83.3436784!16s%2Fg%2F11k0s9vrwm!19sChIJh939GAuRkTkRMMUxMOAQ8f4?authuser=0&hl=en&rclk=1,"26.0711713,83.3436784"
Jama Masjid Urs Wali,Mosque,"395G+WPX Jama Masjid Urs Wali, Qazitola Rd, Walidpur, Mandaha, Uttar Pradesh 276405",,"395G+WPX, Qazitola Rd","Walidpur, Mandaha",,Uttar Pradesh,IN,https://www.google.com/maps/place/Jama+Masjid+Urs+Wali/data=!4m7!3m6!1s0x3991908a3a19b73f:0x16c103b26e1f66a3!8m2!3d26.0598581!4d83.3768629!16s%2Fg%2F11gfhfckct!19sChIJP7cZOoqQkTkRo2YfbrIDwRY?authuser=0&hl=en&rclk=1,"26.0598581,83.37686289999999"
Shia Jama Masjid,Mosque,"29R6+5RH Shia Jama Masjid, khairabad market, Khairabad, Uttar Pradesh",,"29R6+5RH, khairabad market",Khairabad,,Uttar Pradesh,IN,https://www.google.com/maps/place/Shia+Jama+Masjid/data=!4m7!3m6!1s0x399191e8d185697d:0x511df2bff5ccff92!8m2!3d26.0404434!4d83.362116!16s%2Fg%2F11g0hmgtkz!19sChIJfWmF0eiRkTkRkv_M9b_yHVE?authuser=0&hl=en&rclk=1,"26.040443399999997,83.362116"
Masjid Umar Farooque Newada Bazaar,Mosque,"Masjid Umar Farooque Newada Bazaar, Newada Bazaar, Mubarakpur, Uttar Pradesh 276404",,Newada Bazaar,Mubarakpur,276404,Uttar Pradesh,IN,https://www.google.com/maps/place/Masjid+Umar+Farooque+Newada+Bazaar/data=!4m7!3m6!1s0x399199e245921291:0xe164634ac06658bc!8m2!3d26.0895768!4d83.3075355!16s%2Fg%2F11fl7_kl8b!19sChIJkRKSReKZkTkRvFhmwEpjZOE?authuser=0&hl=en&rclk=1,"26.0895768,83.3075355"
Hussaini Masjid,Mosque,"38P8+R4X Hussaini Masjid, Amilo, Mubarakpur, Uttar Pradesh 276404",,38P8+R4X,"Amilo, Mubarakpur",,Uttar Pradesh,IN,https://www.google.com/maps/place/Hussaini+Masjid/data=!4m7!3m6!1s0x39919929716ff59f:0x6d13ab1efe600c34!8m2!3d26.087106!4d83.3153709!16s%2Fg%2F11f664q23j!19sChIJn_VvcSmZkTkRNAxg_h6rE20?authuser=0&hl=en&rclk=1,"26.087106,83.31537089999999"
Gousiya Jama Masjid,Mosque,"Gousiya Jama Masjid, Walidpur, Uttar Pradesh 276405",,,Walidpur,276405,Uttar Pradesh,IN,https://www.google.com/maps/place/Gousiya+Jama+Masjid/data=!4m7!3m6!1s0x399191a416021805:0xdd7bbb10594d4a38!8m2!3d26.0493125!4d83.4000625!16s%2Fg%2F11nft3v3b7!19sChIJBRgCFqSRkTkROEpNWRC7e90?authuser=0&hl=en&rclk=1,"26.0493125,83.40006249999999"
Masjid Imam Azam,Mosque,"396H+6XC Masjid Imam Azam, Bhitti Rd, Walidpur, Mandaha, Uttar Pradesh 276405",,"396H+6XC, Bhitti Rd","Walidpur, Mandaha",276405,Uttar Pradesh,IN,https://www.google.com/maps/place/Masjid+Imam+Azam/data=!4m7!3m6!1s0x3991915ba60af4c7:0x24bd966b5ef1b445!8m2!3d26.0605701!4d83.3798917!16s%2Fg%2F11gnswj7gv!19sChIJx_QKpluRkTkRRbTxXmuWvSQ?authuser=0&hl=en&rclk=1,"26.0605701,83.3798917"
Mosque msjd,Mosque,"37QW+9VX Mosque msjd, Puranibasti, Mubarakpur, Uttar Pradesh 276404",Puranibasti,37QW+9VX,Mubarakpur,276404,Uttar Pradesh,IN,https://www.google.com/maps/place/Mosque+%D9%85%D8%B3%D8%AC%D8%AF%E2%80%AD/data=!4m7!3m6!1s0x399199cdbee09fab:0xb59c0c71384ab3de!8m2!3d26.0884993!4d83.2972381!16s%2Fg%2F11dxq4d9fx!19sChIJq5_gvs2ZkTkR3rNKOHEMnLU?authuser=0&hl=en&rclk=1,"26.0884993,83.2972381"
Masjid Al-Ghazali,Mosque,"2C93+88W Masjid Al-Ghazali, Halimabad, Uttar Pradesh 276403",,2C93+88W,Halimabad,276403,Uttar Pradesh,IN,https://www.google.com/maps/place/Masjid+Al-Ghazali/data=!4m7!3m6!1s0x39919192bff21c39:0xfb1d458d266653e7!8m2!3d26.0183649!4d83.4033264!16s%2Fg%2F11g1lk68bn!19sChIJORzyv5KRkTkR51NmJo1FHfs?authuser=0&hl=en&rclk=1,"26.018364899999998,83.4033264"
Eidgah Muhammadabad Gohna,Mosque,"29QJ+3QJ Eidgah Muhammadabad Gohna, Mubarakpur Rd, Atrari, Muhammadabad Gohna, Uttar Pradesh 276403",,"29QJ+3QJ, Mubarakpur Rd","Atrari, Muhammadabad Gohna",276403,Uttar Pradesh,IN,https://www.google.com/maps/place/Eidgah+Muhammadabad+Gohna/data=!4m7!3m6!1s0x39919180241fb10d:0x5e39b44813c32eea!8m2!3d26.0377052!4d83.3818997!16s%2Fg%2F11mwybkhv8!19sChIJDbEfJICRkTkR6i7DE0i0OV4?authuser=0&hl=en&rclk=1,"26.037705199999998,83.38189969999999"
Noori Masjid Hayatnagar,Mosque,"29PM+JHH Noori Masjid Hayatnagar, Hayat Nagar, Muhammadabad Gohna, Uttar Pradesh 276403",Hayat Nagar,29PM+JHH,Muhammadabad Gohna,276403,Uttar Pradesh,IN,https://www.google.com/maps/place/Noori+Masjid+Hayatnagar/data=!4m7!3m6!1s0x39919125382c37e3:0xc7c5da4480f4f916!8m2!3d26.0365547!4d83.3839715!16s%2Fg%2F11mx3kr5gb!19sChIJ4zcsOCWRkTkRFvn0gETaxcc?authuser=0&hl=en&rclk=1,"26.0365547,83.3839715"
Muhammadi Masjid,Mosque,"397H+QC6 Muhammadi Masjid, Muhalla, Uttar, Muhalla Uttar, Walidpur, Mohinuddinpur, Uttar Pradesh 276405",Muhalla Uttar,"397H+QC6 Muhalla, Uttar","Walidpur, Mohinuddinpur",,Uttar Pradesh,IN,https://www.google.com/maps/place/Muhammadi+Masjid/data=!4m7!3m6!1s0x399190882e809f49:0xea37b395be45be47!8m2!3d26.0644141!4d83.3785169!16s%2Fg%2F11f5by8dkg!19sChIJSZ-ALoiQkTkRR75FvpWzN-o?authuser=0&hl=en&rclk=1,"26.0644141,83.3785169"
Masjid Bilal Khairabad Mau India,Mosque,"29R7+GRW Masjid Bilal Khairabad Mau India, pachchim Mohalla, chaurahara, Khairabad, Uttar Pradesh 276403",Dakhkhin Mohalla,"29R7+GRW, pachchim Mohalla, chaurahara",Khairabad,276403,Uttar Pradesh,IN,https://www.google.com/maps/place/Masjid+Bilal+Khairabad+Mau+India/data=!4m7!3m6!1s0x399191a16bb69ca3:0x7ca41d1b7ab8aa7e!8m2!3d26.0413719!4d83.3645758!16s%2Fg%2F11gtsw71hq!19sChIJo5y2a6GRkTkRfqq4ehsdpHw?authuser=0&hl=en&rclk=1,"26.041371899999998,83.3645758"
Masjid Noor Mohammad,Mosque,"29R6+J9 Masjid Noor Mohammad, west, Khairabad, Uttar Pradesh 276403",,"29R6+J9, west",Khairabad,276403,Uttar Pradesh,IN,https://www.google.com/maps/place/Masjid+Noor+Mohammad/data=!4m7!3m6!1s0x3991914b56031829:0x4e3d03ee1c986b9a!8m2!3d26.0416157!4d83.3607769!16s%2Fg%2F11krymxr96!19sChIJKRgDVkuRkTkRmmuYHO4DPU4?authuser=0&hl=en&rclk=1,"26.041615699999998,83.36077689999999"
MASJID IKRAM NAGAR (REWARIDIH),Mosque,"3FJ7+MJ9 MASJID IKRAM NAGAR (REWARIDIH), Nadwasarai - Muhammadabad Rd, Nadwasarai, Uttar Pradesh 276405",,"3FJ7+MJ9, Nadwasarai - Muhammadabad Rd",Nadwasarai,276405,Uttar Pradesh,IN,https://www.google.com/maps/place/MASJID+IKRAM+NAGAR+%28REWARIDIH%29/data=!4m7!3m6!1s0x39918f4faa74f691:0x6104329c739d758e!8m2!3d26.0816588!4d83.4641092!16s%2Fg%2F11lslyyk4t!19sChIJkfZ0qk-PkTkRjnWdc5wyBGE?authuser=0&hl=en&rclk=1,"26.0816588,83.4641092"
Madina Masjid,Mosque,"38CV+2CC Madina Masjid, Ibrahimpur, Uttar Pradesh 276404",,38CV+2CC,Ibrahimpur,276404,Uttar Pradesh,IN,https://www.google.com/maps/place/Madina+Masjid/data=!4m7!3m6!1s0x399191acae6f2449:0xa335de7387d09da0!8m2!3d26.0700583!4d83.3435135!16s%2Fg%2F11fnyf6yz0!19sChIJSSRvrqyRkTkRoJ3Qh3PeNaM?authuser=0&hl=en&rclk=1,"26.0700583,83.3435135"
IRAQI MASJID PAHIMOD,Mosque,"38J8+JXQ IRAQI MASJID PAHIMOD, Amilo, Mubarakpur, Uttar Pradesh 276404",,38J8+JXQ,"Amilo, Mubarakpur",276404,Uttar Pradesh,IN,https://www.google.com/maps/place/IRAQI+MASJID+PAHIMOD/data=!4m7!3m6!1s0x3991998c5a960fc3:0x1fa3f296e5ca0372!8m2!3d26.0815772!4d83.3174748!16s%2Fg%2F11mvrc6r7z!19sChIJww-WWoyZkTkRcgPK5Zbyox8?authuser=0&hl=en&rclk=1,"26.081577199999998,83.3174748"
Madarasa Masjid e abubakar Mahpur,Mosque,"Madarasa Masjid e abubakar Mahpur, Unnamed Road, Malav, Uttar Pradesh 276402",,Unnamed Road,Malav,276402,Uttar Pradesh,IN,https://www.google.com/maps/place/Madarasa+Masjid+e+abubakar+Mahpur/data=!4m7!3m6!1s0x3991930c3fbfb557:0xf15596058ba97b26!8m2!3d25.962146!4d83.3606072!16s%2Fg%2F11s01yj2rf!19sChIJV7W_PwyTkTkRJnupiwWWVfE?authuser=0&hl=en&rclk=1,"25.962145999999997,83.36060719999999"
Mohammadi Masjid,Mosque,"Q5F2+2R7 Mohammadi Masjid, Saryu Vihar Colony, Faizabad, Uttar Pradesh 224001",Saryu Vihar Colony,Q5F2+2R7,Faizabad,,Uttar Pradesh,IN,https://www.google.com/maps/place/Mohammadi+Masjid/data=!4m7!3m6!1s0x399a06219ebc8779:0xc7469f8dcc4f551a!8m2!3d26.7725303!4d82.1520508!16s%2Fg%2F11ggb2x149!19sChIJeYe8niEGmjkRGlVPzI2fRsc?authuser=0&hl=en&rclk=1,"26.7725303,82.1520508"
Jama Masjid Siddique Akbar,Mosque,"Jama Masjid Siddique Akbar, Walidpur, Mohinuddinpur, Uttar Pradesh 276124",,,"Walidpur, Mohinuddinpur",,Uttar Pradesh,IN,https://www.google.com/maps/place/Jama+Masjid+Siddique+Akbar/data=!4m7!3m6!1s0x39919088536f0013:0x3799f54c98be3ce0!8m2!3d26.0640489!4d83.3766543!16s%2Fg%2F11gfgwh51n!19sChIJEwBvU4iQkTkR4Dy-mEz1mTc?authuser=0&hl=en&rclk=1,"26.0640489,83.3766543"
Masjid,Mosque,"29PC+7C4 Masjid, Nadwasarai - Muhammadabad Rd, Muhammadabad Gohna, Uttar Pradesh 276403",,"29PC+7C4, Nadwasarai - Muhammadabad Rd",Muhammadabad Gohna,276403,Uttar Pradesh,IN,https://www.google.com/maps/place/Masjid/data=!4m7!3m6!1s0x399191fe8958c1d3:0xcbbc29b83617cf9d!8m2!3d26.0358288!4d83.3704393!16s%2Fg%2F11t000lhzf!19sChIJ08FYif6RkTkRnc8XNrgpvMs?authuser=0&hl=en&rclk=1,"26.035828799999997,83.3704393"
Jamay Masjid Allah Hu Wali,Mosque,"94X5+RF2 Jamay Masjid Allah Hu Wali, Unnamed Road, Muhammad Abad Muhammadabad, Faisalabad, Punjab, Pakistan",Muhammad Abad Muhammadabad,"94X5+RF2, Unnamed Road",Faisalabad,,"Faisalabad, Punjab",PK,https://www.google.com/maps/place/Jamay+Masjid+Allah+Hu+Wali/data=!4m7!3m6!1s0x392267a37d2d8d59:0xd19a927a6fe508e0!8m2!3d31.3995015!4d73.1086533!16s%2Fg%2F11fkbyfzpd!19sChIJWY0tfaNnIjkR4Ajlb3qSmtE?authuser=0&hl=en&rclk=1,"31.3995015,73.1086533"
Masjid,Mosque,"29JJ+RJ2 Masjid, Unnamed Road, Muhammadabad Gohna, Muhammadabad, Uttar Pradesh 276403",,"29JJ+RJ2, Unnamed Road","Muhammadabad Gohna, Muhammadabad",276403,Uttar Pradesh,IN,https://www.google.com/maps/place/Masjid/data=!4m7!3m6!1s0x399191a291c83fb7:0x6abf4aa25e2458cb!8m2!3d26.0320016!4d83.381528!16s%2Fg%2F11m2smq15n!19sChIJtz_IkaKRkTkRy1gkXqJKv2o?authuser=0&hl=en&rclk=1,"26.032001599999997,83.381528"
Jama Masjid,Mosque,"29HJ+7V3 Jama Masjid, Jamin Baramadpur, Uttar Pradesh 276403",,29HJ+7V3,Jamin Baramadpur,276403,Uttar Pradesh,IN,https://www.google.com/maps/place/Jama+Masjid/data=!4m7!3m6!1s0x399191ad6d37e04f:0xebf47d8b7a618a4d!8m2!3d26.0281318!4d83.382173!16s%2Fg%2F11mvx16qwp!19sChIJT-A3ba2RkTkRTYpheot99Os?authuser=0&hl=en&rclk=1,"26.0281318,83.382173"
JAMA MASJID BILAL,Mosque,"29PM+7G8 JAMA MASJID BILAL, Bypass Road, Faridabad, Muhammadabad Gohna, Uttar Pradesh 276403",,"29PM+7G8, Bypass Road, Faridabad",Muhammadabad Gohna,276403,Uttar Pradesh,IN,https://www.google.com/maps/place/JAMA+MASJID+BILAL/data=!4m7!3m6!1s0x399191777b21d849:0x534d14b847daca6f!8m2!3d26.0356749!4d83.3838301!16s%2Fg%2F11h0kv9qrw!19sChIJSdghe3eRkTkRb8raR7gUTVM?authuser=0&hl=en&rclk=1,"26.0356749,83.3838301"
Belal Masjid,Mosque,"29P8+P93 Belal Masjid, Dhaurahara, Uttar Pradesh 276403",,29P8+P93,Dhaurahara,276403,Uttar Pradesh,IN,https://www.google.com/maps/place/Belal+Masjid/data=!4m7!3m6!1s0x3991911c99f36d1d:0xfaf265113d6b9e58!8m2!3d26.0365951!4d83.3658122!16s%2Fg%2F11sy3tyjfq!19sChIJHW3zmRyRkTkRWJ5rPRFl8vo?authuser=0&hl=en&rclk=1,"26.0365951,83.3658122"
Mohmmadi masjid,Mosque,"38M6+RV2 Mohmmadi masjid, Ahmad ngar Amilo, Mubarakpur",,"38M6+RV2, Ahmad ngar Amilo",Mubarakpur,,Uttar Pradesh,IN,https://www.google.com/maps/place/Mohmmadi+masjid/data=!4m7!3m6!1s0x3991996f3e12b4ab:0x9a26ed530fe2a80a!8m2!3d26.0845036!4d83.3121281!16s%2Fg%2F11t9_jxbzk!19sChIJq7QSPm-ZkTkRCqjiD1PtJpo?authuser=0&hl=en&rclk=1,"26.084503599999998,83.3121281"
Jama masjid Belal,Mosque,"29V6+V52 Jama masjid Belal, Dhaurahara, Khairabad, Uttar Pradesh 276404",,29V6+V52,"Dhaurahara, Khairabad",,Uttar Pradesh,IN,https://www.google.com/maps/place/Jama+masjid+Belal/data=!4m7!3m6!1s0x39919188e5eddd45:0x1a1d3c3e2b818e00!8m2!3d26.0446287!4d83.3603774!16s%2Fg%2F11h5mcl07s!19sChIJRd3t5YiRkTkRAI6BKz48HRo?authuser=0&hl=en&rclk=1,"26.0446287,83.36037739999999"
Masjid hazrat bilal,Mosque,"29HG+4QJ Masjid hazrat bilal, Najopatti, Muhammadabad Gohna, Uttar Pradesh",,"29HG+4QJ, Najopatti",Muhammadabad Gohna,,Uttar Pradesh,IN,https://www.google.com/maps/place/Masjid+hazrat+bilal/data=!4m7!3m6!1s0x39919140f5a0d457:0xa8118ee6f57cc399!8m2!3d26.0278467!4d83.3768753!16s%2Fg%2F11rtv283cm!19sChIJV9Sg9UCRkTkRmcN89eaOEag?authuser=0&hl=en&rclk=1,"26.027846699999998,83.3768753"
Masjid zaid bin arkam,Mosque,"29V8+744 Masjid zaid bin arkam, Atrari, Khairabad",,"29V8+744, Atrari",Khairabad,,Uttar Pradesh,IN,https://www.google.com/maps/place/Masjid+zaid+bin+arkam/data=!4m7!3m6!1s0x39919141aebbb223:0xb0892358fd253a5c!8m2!3d26.0431389!4d83.3653251!16s%2Fg%2F11swv9465z!19sChIJI7K7rkGRkTkRXDol_VgjibA?authuser=0&hl=en&rclk=1,"26.0431389,83.36532509999999"
Madina Masjid,Mosque,"29FC+R8X Madina Masjid, Lagarpur, Barahadpur, Uttar Pradesh 276403",,29FC+R8X,"Lagarpur, Barahadpur",276403,Uttar Pradesh,IN,https://www.google.com/maps/place/Madina+Masjid/data=!4m7!3m6!1s0x399191f18981d6f5:0x1269fa72273da0a5!8m2!3d26.0246183!4d83.3708547!16s%2Fg%2F11j94z8c92!19sChIJ9daBifGRkTkRpaA9J3L6aRI?authuser=0&hl=en&rclk=1,"26.0246183,83.3708547"
Majeed Khan Masjid,Mosque,"MWQQ+4RR Majeed Khan Masjid, Unnamed Road, Nasrabad, Uttar Pradesh 233228",,"MWQQ+4RR, Unnamed Road",Nasrabad,233228,Uttar Pradesh,IN,https://www.google.com/maps/place/Majeed+Khan+Masjid/data=!4m7!3m6!1s0x399273f501196e01:0xde0a234e099bc45a!8m2!3d25.6878649!4d83.9395222!16s%2Fg%2F11rfm2v05f!19sChIJAW4ZAfVzkjkRWsSbCU4jCt4?authuser=0&hl=en&rclk=1,"25.687864899999997,83.9395222"
Masjid Abu Bakr,Mosque,"29R7+GRX Masjid Abu Bakr, Khairabad Muhalla Paschim, Khairabad, Uttar Pradesh 276403",Dakhkhin Mohalla,"29R7+GRX, Khairabad Muhalla Paschim",Khairabad,276403,Uttar Pradesh,IN,https://www.google.com/maps/place/Masjid+Abu+Bakr/data=!4m7!3m6!1s0x3991910fb9232e63:0x41337437d1de8f3!8m2!3d26.04136!4d83.3646182!16s%2Fg%2F11m_ys3xz2!19sChIJYy4juQ-RkTkR8-gdfUM3EwQ?authuser=0&hl=en&rclk=1,"26.041359999999997,83.3646182"
Chauni Masjid Bk,Mosque,"X9HW+WX Chauni Masjid Bk, Faridpukodhwa, Uttar Pradesh 276403",,X9HW+WX,Faridpukodhwa,,Uttar Pradesh,IN,https://www.google.com/maps/place/Chauni+Masjid+Bk/data=!4m7!3m6!1s0x399193caee234c4d:0x8734d637f8c896dd!8m2!3d25.9797616!4d83.3974213!16s%2Fg%2F11v0jd18xj!19sChIJTUwj7sqTkTkR3ZbI-DfWNIc?authuser=0&hl=en&rclk=1,"25.9797616,83.39742129999999"
AYESHA JAMA MASJID,Mosque,"38M4+25J AYESHA JAMA MASJID, Amilo, Mubarakpur, Uttar Pradesh 276404",,38M4+25J,"Amilo, Mubarakpur",276404,Uttar Pradesh,IN,https://www.google.com/maps/place/AYESHA+JAMA+MASJID/data=!4m7!3m6!1s0x399199709a5ca3d1:0xa2dd39965893b1d7!8m2!3d26.0823187!4d83.3056603!16s%2Fg%2F11txnyhxx3!19sChIJ0aNcmnCZkTkR17GTWJY53aI?authuser=0&hl=en&rclk=1,"26.0823187,83.3056603"
Masjid ahle hadeth,Mosque,"Masjid ahle hadeth, Mohammad a bad, Bandi Kala, Uttar Pradesh 276403",,Mohammad a bad,Bandi Kala,,Uttar Pradesh,IN,https://www.google.com/maps/place/Masjid+ahle+hadeth/data=!4m7!3m6!1s0x399193b490ffd44d:0x83e0d801faccc76b!8m2!3d25.9816142!4d83.4096486!16s%2Fg%2F11j1mdk1kn!19sChIJTdT_kLSTkTkRa8fM-gHY4IM?authuser=0&hl=en&rclk=1,"25.9816142,83.4096486"
Masjid,Mosque,"3C67+CGF Masjid, Nagahra, Uttar Pradesh 276405",,3C67+CGF,Nagahra,276405,Uttar Pradesh,IN,https://www.google.com/maps/place/Masjid/data=!4m7!3m6!1s0x399191196bfdbc0f:0x6f896e11b35420d2!8m2!3d26.0610712!4d83.4138102!16s%2Fg%2F11ng0zsjz7!19sChIJD7z9axmRkTkR0iBUsxFuiW8?authuser=0&hl=en&rclk=1,"26.061071199999997,83.4138102"
Masjid Uttar Mohalla,Mosque,"X9PX+3GR Masjid Uttar Mohalla, Tulasipur Kodhwa, Uttar Pradesh 276403",,X9PX+3GR,Tulasipur Kodhwa,276403,Uttar Pradesh,IN,https://www.google.com/maps/place/Masjid+Uttar+Mohalla/data=!4m7!3m6!1s0x39919355ff5113ab:0x7cd616fd9738aa25!8m2!3d25.9852307!4d83.3987587!16s%2Fg%2F11r4d77hh7!19sChIJqxNR_1WTkTkRJao4l_0W1nw?authuser=0&hl=en&rclk=1,"25.9852307,83.3987587"
Masjid Newada Baag,Mosque,"38P4+F3P Masjid Newada Baag, Amilo, Mubarakpur, Uttar Pradesh 276404",,38P4+F3P,"Amilo, Mubarakpur",276404,Uttar Pradesh,IN,https://www.google.com/maps/place/Masjid+Newada+Baag/data=!4m7!3m6!1s0x39919986a1d32afd:0x630e83bf526a53c9!8m2!3d26.0862024!4d83.3051929!16s%2Fg%2F11khs8ql00!19sChIJ_SrToYaZkTkRyVNqUr-DDmM?authuser=0&hl=en&rclk=1,"26.086202399999998,83.3051929"
Masjid/Mosque,Mosque,"RQ48+CRQ Masjid/Mosque, Moradabad - Chandausi Rd, Karula, Moradabad, Uttar Pradesh 244001",Karula,"RQ48+CRQ, Moradabad - Chandausi Rd",Moradabad,,Uttar Pradesh,IN,https://www.google.com/maps/place/Masjid%2FMosque/data=!4m7!3m6!1s0x390afb526cd37043:0xd7a483fcb6976603!8m2!3d28.8060795!4d78.7671212!16s%2Fg%2F11t_yzqfq8!19sChIJQ3DTbFL7CjkRA2aXtvyDpNc?authuser=0&hl=en&rclk=1,"28.8060795,78.76712119999999"
MASJID KOIRPURA,Mosque,"29PR+Q8M MASJID KOIRPURA, Muhammadabad Gohna, Uttar Pradesh 276403",,29PR+Q8M,Muhammadabad Gohna,,Uttar Pradesh,IN,https://www.google.com/maps/place/MASJID+KOIRPURA/data=!4m7!3m6!1s0x39919109241bd499:0x71d7eb84eecf1c45!8m2!3d26.0369536!4d83.3907857!16s%2Fg%2F11l23qd6q2!19sChIJmdQbJAmRkTkRRRzP7oTr13E?authuser=0&hl=en&rclk=1,"26.0369536,83.3907857"
Masjid Arqam .msjd rqm,Mosque,"29PJ+C3Q Masjid Arqam .msjd rqm, Atrari, Muhammadabad Gohna, Uttar Pradesh 276403",,29PJ+C3Q,"Atrari, Muhammadabad Gohna",,Uttar Pradesh,IN,https://www.google.com/maps/place/Masjid+Arqam+%DB%94%D9%85%D8%B3%D8%AC%D8%AF+%D8%A7%D8%B1%D9%82%D9%85%E2%80%AD/data=!4m7!3m6!1s0x399191dd345e97a5:0x122fd0a8c5f529a3!8m2!3d26.0360858!4d83.3802246!16s%2Fg%2F11j0t852py!19sChIJpZdeNN2RkTkRoyn1xajQLxI?authuser=0&hl=en&rclk=1,"26.0360858,83.38022459999999"
Alhuda masjid raridpur,Mosque,"29GH+2VX Alhuda masjid raridpur, Faridpur, Muhammadabad Gohna",,"29GH+2VX, Faridpur","Muhammadabad Gohna, Jamin Baramadpur",,Uttar Pradesh,IN,https://www.google.com/maps/place/Alhuda+masjid+raridpur/data=!4m7!3m6!1s0x3991913bdfc465d7:0x972f40fe99ac0e31!8m2!3d26.0251016!4d83.3797236!16s%2Fg%2F11j8mfd5v7!19sChIJ12XE3zuRkTkRMQ6smf5AL5c?authuser=0&hl=en&rclk=1,"26.0251016,83.37972359999999"
Masjid Bilal,Mosque,"29MP+C5Q Masjid Bilal, Unnamed Road, Muhammadabad Gohna, Uttar Pradesh 276403",,"29MP+C5Q, Unnamed Road","Muhammadabad Gohna, Muhammadabad",276403,Uttar Pradesh,IN,https://www.google.com/maps/place/Masjid+Bilal/data=!4m7!3m6!1s0x39919181ad8fe871:0xa7821b9eec1dc995!8m2!3d26.0335785!4d83.3854912!16s%2Fg%2F11p9y7h7cj!19sChIJceiPrYGRkTkRlckd7J4bgqc?authuser=0&hl=en&rclk=1,"26.033578499999997,83.38549119999999"
Masjid Fauzul-Nabi,Mosque,"29QP+27M Masjid Fauzul-Nabi, Unnamed Road, Muhammadabad Gohna, Uttar Pradesh 276403",,"29QP+27M, Unnamed Road",Muhammadabad Gohna,276403,Uttar Pradesh,IN,https://www.google.com/maps/place/Masjid+Fauzul-Nabi/data=!4m7!3m6!1s0x3991916812e4d23d:0x332662528e47eaf1!8m2!3d26.0375935!4d83.3856673!16s%2Fg%2F11mx3l497s!19sChIJPdLkEmiRkTkR8epHjlJiJjM?authuser=0&hl=en&rclk=1,"26.0375935,83.3856673"
Masjid Faizul-Rasool Ahlesunnat Wal Jamaat,Mosque,"29QP+927 Masjid Faizul-Rasool Ahlesunnat Wal Jamaat, Unnamed Road, Muhammadabad Gohna, Uttar Pradesh 276403",,"29QP+927, Unnamed Road",Muhammadabad Gohna,276403,Uttar Pradesh,IN,https://www.google.com/maps/place/Masjid+Faizul-Rasool+Ahlesunnat+Wal+Jamaat/data=!4m7!3m6!1s0x399191c4ce3ad62d:0xbe12ee2a47cae881!8m2!3d26.0384065!4d83.3850486!16s%2Fg%2F11pb710jd7!19sChIJLdY6zsSRkTkRgejKRyruEr4?authuser=0&hl=en&rclk=1,"26.038406499999997,83.38504859999999"
Masjid Chandandar,Mosque,"29PM+7JW Masjid Chandandar, Bypass Road, Faridabad, Muhammadabad Gohna, Uttar Pradesh 276403",,"29PM+7JW, Bypass Road, Faridabad",Muhammadabad Gohna,276403,Uttar Pradesh,IN,https://www.google.com/maps/place/Masjid+Chandandar/data=!4m7!3m6!1s0x3991916a1847bead:0xabbf150aeff7b693!8m2!3d26.0357415!4d83.3840642!16s%2Fg%2F11r9v_rg8n!19sChIJrb5HGGqRkTkRk7b37woVv6s?authuser=0&hl=en&rclk=1,"26.0357415,83.3840642"
Masjid Ghousia (msjd Gwthyh),Mosque,"29JQ+P2G Masjid Ghousia (msjd Gwthyh), Muhammadabad Gohna, Muhammadabad, Uttar Pradesh 276403",,29JQ+P2G,"Muhammadabad Gohna, Muhammadabad",276403,Uttar Pradesh,IN,https://www.google.com/maps/place/Masjid+Ghousia+%28%D9%85%D8%B3%D8%AC%D8%AF+%D8%BA%D9%88%D8%AB%DB%8C%DB%81%29%E2%80%AD/data=!4m7!3m6!1s0x399191c745c77cc5:0x81f7f89bb622a13a!8m2!3d26.0322897!4d83.3876536!16s%2Fg%2F11k39vdv3y!19sChIJxXzHRceRkTkROqEitpv494E?authuser=0&hl=en&rclk=1,"26.0322897,83.3876536"
Madni Jama Masjid,Mosque,"29P7+2F7 Madni Jama Masjid, Jamin Baniyapar, Muhammadabad Gohna, Uttar Pradesh 276403",,29P7+2F7,"Jamin Baniyapar, Muhammadabad Gohna",276403,Uttar Pradesh,IN,https://www.google.com/maps/place/Madni+Jama+Masjid/data=!4m7!3m6!1s0x3991917db31cc9d3:0x9ecf93cdf29f054a!8m2!3d26.0350455!4d83.3636751!16s%2Fg%2F11t766d5q2!19sChIJ08kcs32RkTkRSgWf8s2Tz54?authuser=0&hl=en&rclk=1,"26.0350455,83.3636751"
Masjid e Raza,Mosque,"JQC5+PF3 Masjid e Raza, Mohammadabad, Uttar Pradesh 233227",,JQC5+PF3,Mohammadabad,233227,Uttar Pradesh,IN,https://www.google.com/maps/place/Masjid+e+Raza/data=!4m7!3m6!1s0x399207547b036ccd:0xe16f9f7c1d674c0c!8m2!3d25.6217698!4d83.7586666!16s%2Fg%2F11p10n4cbt!19sChIJzWwDe1QHkjkRDExnHXyfb-E?authuser=0&hl=en&rclk=1,"25.6217698,83.7586666"
Masjid e Ibrahim,Place of worship,"Masjid e Ibrahim, W73P+8C New Atrari , Khyber Pakhtunkhwa",,"W73P+8C New Atrari , Khyber Pakhtunkhwa","Muhammadabad Gohna, Atrari",,Uttar Pradesh,IN,https://www.google.com/maps/place/Masjid+e+Ibrahim/data=!4m7!3m6!1s0x39919179f052cb07:0x96ef80e3c814a476!8m2!3d26.0360858!4d83.3802246!16s%2Fg%2F11s5vjnq9j!19sChIJB8tS8HmRkTkRdqQUyOOA75Y?authuser=0&hl=en&rclk=1,"26.0360858,83.38022459999999"
Masjid e Arqammsjd rqm,Mosque,"29V8+6P4 Masjid e Arqammsjd rqm, Atrari, Khairabad, Uttar Pradesh 276403",,29V8+6P4,"Atrari, Khairabad",,Uttar Pradesh,IN,https://www.google.com/maps/place/Masjid+e+Arqam%D9%85%D8%B3%D8%AC%D8%AF+%D8%A7%D8%B1%D9%82%D9%85%E2%80%AD/data=!4m7!3m6!1s0x39919173dc612067:0x44f45699f3c06d38!8m2!3d26.0430049!4d83.3668141!16s%2Fg%2F11j48c7zd2!19sChIJZyBh3HORkTkROG3A85lW9EQ?authuser=0&hl=en&rclk=1,"26.0430049,83.3668141"
New masjid (Ameere Hamza )Mahmoodpura Amilo Mubarakpur,Mosque,"38P8+GF6 New masjid (Ameere Hamza )Mahmoodpura Amilo Mubarakpur, Unnamed Road, Mubarakpur, Uttar Pradesh 276404",,"38P8+GF6, Unnamed Road",Mubarakpur,276404,Uttar Pradesh,IN,https://www.google.com/maps/place/New+masjid+%28Ameere+Hamza+%29Mahmoodpura+Amilo+Mubarakpur/data=!4m7!3m6!1s0x3991994a5f28c94f:0x1512b2225730f74a!8m2!3d26.0862937!4d83.3161437!16s%2Fg%2F11llzg7bzf!19sChIJT8koX0qZkTkRSvcwVyKyEhU?authuser=0&hl=en&rclk=1,"26.0862937,83.3161437"
Jama masjid (jaamaa msjid),Mosque,"PP7P+94F Jama masjid (jaamaa msjid), Husenabad, Mubarakpur T. Sepah, Uttar Pradesh 233301",,PP7P+94F,"Husenabad, Mubarakpur T. Sepah",,Uttar Pradesh,IN,https://www.google.com/maps/place/Jama+masjid+%28%E0%A4%9C%E0%A4%BE%E0%A4%AE%E0%A4%BE+%E0%A4%AE%E0%A4%B8%E0%A5%8D%E0%A4%9C%E0%A4%BF%E0%A4%A6%29/data=!4m7!3m6!1s0x3992052cbb184e07:0xe9ac1eece8d3b6ce!8m2!3d25.7134288!4d83.7352864!16s%2Fg%2F11r9c3_mw8!19sChIJB04YuywFkjkRzrbT6OwerOk?authuser=0&hl=en&rclk=1,"25.7134288,83.73528639999999"
Masjid Noor Mohammad,Mosque,"Masjid Noor Mohammad, Pachhim Baagh, Arjunpur, Khairabad, Uttar Pradesh 276403",Arjunpur,Pachhim Baagh,Khairabad,276403,Uttar Pradesh,IN,https://www.google.com/maps/place/Masjid+Noor+Mohammad/data=!4m7!3m6!1s0x399ed5863d360d0f:0xf9ecd9a5ce2596b7!8m2!3d27.5284275!4d80.7491563!16s%2Fg%2F11ks169gr_!19sChIJDw02PYbVnjkRt5YlzqXZ7Pk?authuser=0&hl=en&rclk=1,"27.5284275,80.7491563"
Masjid Salman Farsi,Mosque,"398F+3MV Masjid Salman Farsi, Jamalpur, Walidpur, Uttar Pradesh 276405",,398F+3MV,"Jamalpur, Walidpur",276405,Uttar Pradesh,IN,https://www.google.com/maps/place/Masjid+Salman+Farsi/data=!4m7!3m6!1s0x39919130db7cea63:0xafaffa180fb2ba32!8m2!3d26.0652373!4d83.3741815!16s%2Fg%2F11v9kmpbmq!19sChIJY-p82zCRkTkRMrqyDxj6r68?authuser=0&hl=en&rclk=1,"26.0652373,83.37418149999999"
Masjid -E- Usman Bin Affan msjdi`thmn bn `fn [rDy llh `nh],Mosque,"38CR+4HJ Masjid -E- Usman Bin Affan msjdi`thmn bn `fn [rDy llh `nh], Ibrahimpur, Uttar Pradesh 276404",,38CR+4HJ,Ibrahimpur,276404,Uttar Pradesh,IN,https://www.google.com/maps/place/Masjid+-E-+Usman+Bin+Affan+%D9%85%D8%B3%D8%AC%D8%AF%D9%90%D8%B9%D8%AB%D9%85%D8%A7%D9%86+%D8%A8%D9%86+%D8%B9%D9%81%D8%A7%D9%86+%5B%D8%B1%D8%B6%DB%8C+%D8%A7%D9%84%D9%84%DB%81+%D8%B9%D9%86%DB%81%5D%E2%80%AD/data=!4m7!3m6!1s0x399191c4fe2493bf:0xecc6433aafe08fc6!8m2!3d26.0703369!4d83.3413794!16s%2Fg%2F11kz499nt7!19sChIJv5Mk_sSRkTkRxo_grzpDxuw?authuser=0&hl=en&rclk=1,"26.070336899999997,83.3413794"
Umer Farooque masjid,Mosque,"4GGW+4RR Umer Farooque masjid, Bada Gaon, Ghosi, Uttar Pradesh 275304",Bada Gaon,4GGW+4RR,Ghosi,,Uttar Pradesh,IN,https://www.google.com/maps/place/Umer+Farooque+masjid/data=!4m7!3m6!1s0x3991872303915afb:0x16e125a0db61fb65!8m2!3d26.1253502!4d83.5470021!16s%2Fg%2F11frslt2dz!19sChIJ-1qRAyOHkTkRZfth26Al4RY?authuser=0&hl=en&rclk=1,"26.1253502,83.5470021"
BILAL MASJID,Mosque,"38M6+RV2 BILAL MASJID, Pahi Mod Road, Madarsa Nishwan Tausiful Oloom, Amilo, Mubarakpur, Uttar Pradesh",,"38M6+RV2, Pahi Mod Road, Madarsa Nishwan Tausiful Oloom, Amilo",Mubarakpur,,Uttar Pradesh,IN,https://www.google.com/maps/place/BILAL+MASJID/data=!4m7!3m6!1s0x39919971513d0cc3:0x8b9bfde2a7a3f894!8m2!3d26.0845036!4d83.3121281!16s%2Fg%2F11fkn549jq!19sChIJwww9UXGZkTkRlPijp-L9m4s?authuser=0&hl=en&rclk=1,"26.084503599999998,83.3121281"
Baag wali masjid,Mosque,"29HH+X44 Baag wali masjid, nazmeen collection (showroom, collector Sahab Ki Baag, apposite, Kabirabad, Muhammadabad Gohna, Uttar Pradesh Pradesh 276403",,"29HH+X44 nazmeen collection (showroom, collector Sahab Ki Baag, apposite","Kabirabad, Muhammadabad Gohna",Pradesh 276403,Uttar Pradesh,IN,https://www.google.com/maps/place/Baag+wali+masjid/data=!4m7!3m6!1s0x3991915ccf6dbbcf:0x770a9bc7d3898184!8m2!3d26.0296107!4d83.3773775!16s%2Fg%2F11l2qdl9zd!19sChIJz7ttz1yRkTkRhIGJ08ebCnc?authuser=0&hl=en&rclk=1,"26.0296107,83.3773775"
"New masjid (Ameere Hamza, rz)",Mosque,"New masjid (Ameere Hamza, rz), Mahmoodpuora Amilo, Mubarakpur, Uttar Pradesh 276404",,Mahmoodpuora Amilo,Mubarakpur,,Uttar Pradesh,IN,"https://www.google.com/maps/place/New+masjid+%28Ameere+Hamza,+rz%29/data=!4m7!3m6!1s0x3991998bfab566c1:0x2a77e5fbe1598c34!8m2!3d26.0809431!4d83.2987576!16s%2Fg%2F11llr91jgq!19sChIJwWa1-ouZkTkRNIxZ4fvldyo?authuser=0&hl=en&rclk=1","26.0809431,83.2987576"
