name,main_category,address,address_ward,address_street,address_city,address_postal_code,address_state,address_country_code,link,coordinates
Nilokheri,Train station,"Nilokheri, Ambedkar colony, Nilokheri, Tikhana Part, Haryana 132117",Ambedkar colony,,"Nilokheri, Tikhana Part",132117,Haryana,IN,https://www.google.com/maps/place/Nilokheri/data=!4m7!3m6!1s0x390e6983b7a4b051:0x7c2da3307feeb281!8m2!3d29.8318575!4d76.9250196!16s%2Fg%2F11hckrbdqc!19sChIJUbCkt4NpDjkRgbLufzCjLXw?authuser=0&hl=en&rclk=1,"29.831857499999998,76.9250196"
masjid Indri,Mosque,"masjid Indri, Main Market Rd, near police station, Khukhani, Indri, Haryana 132041",Khukhani,"Main Market Rd, near police station",Indri,,Haryana,IN,https://www.google.com/maps/place/masjid+Indri/data=!4m7!3m6!1s0x390e67e5523598e5:0x5e14d20836475424!8m2!3d29.8794214!4d77.0561991!16s%2Fg%2F11fhn11z2k!19sChIJ5Zg1UuVnDjkRJFRHNgjSFF4?authuser=0&hl=en&rclk=1,"29.8794214,77.0561991"
Deenu Jama Masjid Peer Bhukhara,Mosque,"WV58+CX6 Deenu Jama Masjid Peer Bhukhara, Abhimanyupur, Haryana 136038",,WV58+CX6,Abhimanyupur,136038,Haryana,IN,https://www.google.com/maps/place/Deenu+Jama+Masjid+Peer+Bhukhara/data=!4m7!3m6!1s0x390e4054115c459b:0x48efe12a6a4f2f2c!8m2!3d29.9085313!4d76.8673766!16s%2Fg%2F11g8cg6hsn!19sChIJm0VcEVRADjkRLC9Pairh70g?authuser=0&hl=en&rclk=1,"29.9085313,76.8673766"
Masjid,Mosque,"P2VC+377 Masjid, Taprana, Haryana 132001",,P2VC+377,Taprana,132001,Haryana,IN,https://www.google.com/maps/place/Masjid/data=!4m7!3m6!1s0x390e6565f2349fa1:0x891537004b575187!8m2!3d29.742753!4d77.020753!16s%2Fg%2F11mhxxj8vj!19sChIJoZ808mVlDjkRh1FXSwA3FYk?authuser=0&hl=en&rclk=1,"29.742752999999997,77.020753"
Shahi Jama Masjid Taraori Karnal Haryana,Mosque,"Shahi Jama Masjid Taraori Karnal Haryana, 2, Patel Nagar, Taraori, Haryana 132116",Patel Nagar,2,Taraori,132116,Haryana,IN,https://www.google.com/maps/place/Shahi+Jama+Masjid+Taraori+Karnal+Haryana/data=!4m7!3m6!1s0x390e695144f951cb:0xc2066cb9e2b31c34!8m2!3d29.8012992!4d76.9270696!16s%2Fg%2F11h7bv7wbj!19sChIJy1H5RFFpDjkRNByz4rlsBsI?authuser=0&hl=en&rclk=1,"29.8012992,76.9270696"
Siddiqui Masjid,Mosque,"R2VC+FXF Siddiqui Masjid, Karnal, Haryana 132041",,R2VC+FXF,Karnal,,Haryana,IN,https://www.google.com/maps/place/Siddiqui+Masjid/data=!4m7!3m6!1s0x390e6740b04ceeb9:0x69c9a64ed0ab7a34!8m2!3d29.8436832!4d77.0224363!16s%2Fg%2F11fj57r9__!19sChIJue5MsEBnDjkRNHqr0E6myWk?authuser=0&hl=en&rclk=1,"29.843683199999997,77.0224363"
Masjid Raitkhana,Mosque,"W2W5+24P Masjid Raitkhana, Raipur Roran - Bhadson - Ladwa Rd, Raitkhana, Haryana 132117",,"W2W5+24P, Raipur Roran - Bhadson - Ladwa Rd",Raitkhana,132117,Haryana,IN,https://www.google.com/maps/place/Masjid+Raitkhana/data=!4m7!3m6!1s0x390e43111842f849:0xbbf2d76c2b084907!8m2!3d29.9450916!4d77.0078432!16s%2Fg%2F11fl7bjbxh!19sChIJSfhCGBFDDjkRB0kIK2zX8rs?authuser=0&hl=en&rclk=1,"29.945091599999998,77.0078432"
Hazarat Ali Elahi Peer,Mosque,"WVXP+GXW Hazarat Ali Elahi Peer, Sector 30, Kalal Majra, Kurukshetra, Haryana 136131","Sector 30, Kalal Majra",WVXP+GXW,Kurukshetra,136131,Haryana,IN,https://www.google.com/maps/place/Hazarat+Ali+Elahi+Peer/data=!4m7!3m6!1s0x390e413a71ab0c77:0x2178b2ca336a41f5!8m2!3d29.9488558!4d76.8874656!16s%2Fg%2F1pyqkxn1h!19sChIJdwyrcTpBDjkR9UFqM8qyeCE?authuser=0&hl=en&rclk=1,"29.948855799999997,76.8874656"
masjid garhi sadhan,Mosque,"W25J+5XC masjid garhi sadhan, Garhi Sadhan, Haryana 132041",,W25J+5XC,Garhi Sadhan,132041,Haryana,IN,https://www.google.com/maps/place/masjid+garhi+sadhan/data=!4m7!3m6!1s0x390e5dea9c2d5757:0xb787af5e1eaba457!8m2!3d29.9079478!4d77.0324045!16s%2Fg%2F11g0w0bt07!19sChIJV1ctnOpdDjkRV6SrHl6vh7c?authuser=0&hl=en&rclk=1,"29.9079478,77.0324045"
Masjid e rehmaniya,Mosque,"RXVF+6P4 Masjid e rehmaniya, Sandhir, Haryana 132117",,RXVF+6P4,Sandhir,132117,Haryana,IN,https://www.google.com/maps/place/Masjid+e+rehmaniya/data=!4m7!3m6!1s0x390e69898e76cd41:0x60895170315c7688!8m2!3d29.8430114!4d76.9743204!16s%2Fg%2F11j3rf0wn1!19sChIJQc12jolpDjkRiHZcMXBRiWA?authuser=0&hl=en&rclk=1,"29.843011399999998,76.9743204"
MASJID,Taoist temple,"MASJID, VPO UCHANA, near CHD CITY, Karnal, Haryana 132001",Sector 45,"VPO UCHANA, near CHD CITY","Karnal, Uchana",132001,Haryana,IN,https://www.google.com/maps/place/MASJID/data=!4m7!3m6!1s0x390e6f8d41446495:0xafc4bfa31bd1af37!8m2!3d29.7386117!4d76.9712091!16s%2Fg%2F11pzs9fw0d!19sChIJlWREQY1vDjkRN6_RG6O_xK8?authuser=0&hl=en&rclk=1,"29.7386117,76.9712091"
BDPO Nilokheri,Regional government office,"RWQM+X9X BDPO Nilokheri, Old Press Colony, Nilokheri, Haryana 132117",Old Press Colony,RWQM+X9X,Nilokheri,132117,Haryana,IN,https://www.google.com/maps/place/BDPO+Nilokheri/data=!4m7!3m6!1s0x390e69908342b573:0xef1b4af54079d334!8m2!3d29.8399797!4d76.933491!16s%2Fg%2F11dyxbm97y!19sChIJc7VCg5BpDjkRNNN5QPVKG-8?authuser=0&hl=en&rclk=1,"29.839979699999997,76.933491"
Peer baba,Mosque,"QWXX+4XF Peer baba, Nilokheri, Taraori, Haryana 132116",,QWXX+4XF,"Nilokheri, Taraori",,Haryana,IN,https://www.google.com/maps/place/Peer+baba/data=!4m7!3m6!1s0x390e6947defca2a3:0x16e38b9b1d6aa546!8m2!3d29.7978005!4d76.9499226!16s%2Fg%2F11lt176zjg!19sChIJo6L83kdpDjkRRqVqHZuL4xY?authuser=0&hl=en&rclk=1,"29.797800499999997,76.9499226"
Future Masjid,Mosque,"R26X+6G6 Future Masjid, Bibipur Jattan, Kamalpur Roran, Haryana 132041",,R26X+6G6,"Bibipur Jattan, Kamalpur Roran",132041,Haryana,IN,https://www.google.com/maps/place/Future+Masjid/data=!4m7!3m6!1s0x390e672160487f71:0x2ebd7d7d05014dcf!8m2!3d29.8105278!4d77.0487767!16s%2Fg%2F11h5rdl6j5!19sChIJcX9IYCFnDjkRz00BBX19vS4?authuser=0&hl=en&rclk=1,"29.8105278,77.04877669999999"
Old Mosque,Mosque,"Old Mosque, Meera ghati chowk, Sector 14, Karnal, Haryana 132001",Sector 14,Meera ghati chowk,Karnal,,Haryana,IN,https://www.google.com/maps/place/Old+Mosque/data=!4m7!3m6!1s0x390e71068cd1b591:0x858fe52aec7d7fc6!8m2!3d29.6772395!4d76.9934984!16s%2Fg%2F11q2w1jt25!19sChIJkbXRjAZxDjkRxn997Crlj4U?authuser=0&hl=en&rclk=1,"29.6772395,76.9934984"
Old masjid,Mosque,"HPR6+H2X Old masjid, Jalmana, Haryana 132039",,HPR6+H2X,Jalmana,132039,Haryana,IN,https://www.google.com/maps/place/Old+masjid/data=!4m7!3m6!1s0x390e0f3967f9a635:0xc64313e8e9fea16b!8m2!3d29.5914862!4d76.7101194!16s%2Fg%2F11knp4367b!19sChIJNab5ZzkPDjkRa6H-6egTQ8Y?authuser=0&hl=en&rclk=1,"29.5914862,76.7101194"
Pradip,Mosque,"QWXM+X9H Pradip, Maya Ram Colony, Taraori, Haryana 132116",Maya Ram Colony,QWXM+X9H,Taraori,,Haryana,IN,https://www.google.com/maps/place/Pradip/data=!4m7!3m6!1s0x390e69715834c519:0x3a2a98392d072a8b!8m2!3d29.7999297!4d76.9334924!16s%2Fg%2F11t54t7lv8!19sChIJGcU0WHFpDjkRiyoHLTmYKjo?authuser=0&hl=en&rclk=1,"29.7999297,76.93349239999999"
Masjid Aiysha Churni karnal,Mosque,"Masjid Aiysha Churni karnal, Masjid Aiysha, Churni, Haryana 132001",,Masjid Aiysha,Churni,132001,Haryana,IN,https://www.google.com/maps/place/Masjid+Aiysha+Churni+karnal/data=!4m7!3m6!1s0x390e67dcb0e22bad:0x1720955e73db0ed1!8m2!3d29.8071867!4d77.0236463!16s%2Fg%2F11sj5dcjd7!19sChIJrSvisNxnDjkR0Q7bc16VIBc?authuser=0&hl=en&rclk=1,"29.8071867,77.0236463"
Fraud communication,Mosque,"V3H5+765 Fraud communication, naya bazar, near Dr. Naresh clinic, Khukhani, Indri Ruralpart, Haryana 132041","New Bazaar, Khukhani","V3H5+765, naya bazar, near Dr. Naresh clinic","Indri Ruralpart, Indri",132041,Haryana,IN,https://www.google.com/maps/place/Fraud+communication/data=!4m7!3m6!1s0x390e674fc36c9f61:0x6e8ab9db0ff6d35a!8m2!3d29.8781437!4d77.0581229!16s%2Fg%2F11rscwy_t6!19sChIJYZ9sw09nDjkRWtP2D9u5im4?authuser=0&hl=en&rclk=1,"29.8781437,77.0581229"
Nilokheri,,"Nilokheri, Haryana 132117",,,Nilokheri,,Haryana,IN,https://www.google.com/maps/place/Nilokheri/data=!4m7!3m6!1s0x390e6984d1762f97:0xf0f750071ee9d3db!8m2!3d29.8398938!4d76.9317422!16zL20vMGM4azh4!19sChIJly920YRpDjkR29PpHgdQ9_A?authuser=0&hl=en&rclk=1,"29.8398938,76.9317422"
Masjid wali ullahi Shahbaz Nadvi,School,"Q265+WWX Masjid wali ullahi Shahbaz Nadvi, Sangoha Main Rd, Sangohi, Darar, Haryana 132001",,"Q265+WWX, Sangoha Main Rd","Sangohi, Darar",132001,Haryana,IN,https://www.google.com/maps/place/Masjid+wali+ullahi+Shahbaz+Nadvi/data=!4m7!3m6!1s0x390e6fd13f44dfed:0x4591b770bbcb59a3!8m2!3d29.7623526!4d77.0098572!16s%2Fg%2F11h4dyt51k!19sChIJ7d9EP9FvDjkRo1nLu3C3kUU?authuser=0&hl=en&rclk=1,"29.7623526,77.0098572"
MASJID Villege SALARU,,"PXHP+HPW MASJID Villege SALARU, Karnal - Ladwa Rd, Alpha International City, Salaroo, Baldhi Part, Haryana 132001",Alpha International City,"PXHP+HPW, Karnal - Ladwa Rd","Salaroo, Baldhi Part",132001,Haryana,IN,https://www.google.com/maps/place/MASJID+Villege+SALARU/data=!4m7!3m6!1s0x390e6fd204d75c61:0xf73e73a6ca8c6480!8m2!3d29.7289942!4d76.9868374!16s%2Fg%2F11tmrf20cv!19sChIJYVzXBNJvDjkRgGSMyqZzPvc?authuser=0&hl=en&rclk=1,"29.7289942,76.9868374"
