name,main_category,address,address_ward,address_street,address_city,address_postal_code,address_state,address_country_code,link,coordinates
Station Chariali Masjid,Mosque,"XJQQ+PGV Station Chariali Masjid, Nazira Ali Rd, Sivasagar, Assam 785640",,"XJQQ+PGV, Nazira Ali Rd",Sivasagar,785640,Assam,IN,https://www.google.com/maps/place/Station+Chariali+Masjid/data=!4m7!3m6!1s0x3747314e7bbdacbf:0x8b0127d8c0046ef!8m2!3d26.9893512!4d94.6388092!16s%2Fg%2F1tlmlpnt!19sChIJv6y9e04xRzcR70YAjH0SsAg?authuser=0&hl=en&rclk=1,"26.989351199999998,94.6388092"
Ranghar Chariali Masjid,Mosque,"XJCC+7W7 Ranghar Chariali Masjid, Dicial Dhulia Gaon, Assam 785697",,XJCC+7W7,Dicial Dhulia Gaon,,Assam,IN,https://www.google.com/maps/place/Ranghar+Chariali+Masjid/data=!4m7!3m6!1s0x37473117a50edc87:0xe976c6dca4308c9!8m2!3d26.9706647!4d94.6223014!16s%2Fg%2F11f4z7jywq!19sChIJh9wOpRcxRzcRyQhDym1slw4?authuser=0&hl=en&rclk=1,"26.9706647,94.6223014"
Babupatty Markaz Masjid,Mosque,"XJPH+94G Babupatty Markaz Masjid, Sivasagar, Assam 785640",,XJPH+94G,Sivasagar,785640,Assam,IN,https://www.google.com/maps/place/Babupatty+Markaz+Masjid/data=!4m7!3m6!1s0x374731416217e6bf:0xa87fbd6c0c93a0e1!8m2!3d26.9859317!4d94.6278167!16s%2Fg%2F11c5813x1c!19sChIJv-YXYkExRzcR4aCTDGy9f6g?authuser=0&hl=en&rclk=1,"26.9859317,94.6278167"
Darbar Road Masjid,Mosque,"XJMF+P8J Darbar Road Masjid, Thana Road, Dikhow Mothari Rd, Sivasagar, Assam 785640",,"XJMF+P8J, Thana Road, Dikhow Mothari Rd","Sivasagar, Arjun Guri",785640,Assam,IN,https://www.google.com/maps/place/Darbar+Road+Masjid/data=!4m7!3m6!1s0x3747316a69628885:0x86a8e84e9cf17ed3!8m2!3d26.9843482!4d94.6232678!16s%2Fg%2F11ddx69_8h!19sChIJhYhiaWoxRzcR037xnE7oqIY?authuser=0&hl=en&rclk=1,"26.9843482,94.6232678"
Jengonikatia Jumma Masjid,Mosque,"XJVC+XHQ Jengonikatia Jumma Masjid, Jengonikatia, NH37, Sivasagar, Assam 785640",Jengonikatia,"XJVC+XHQ, Jengonikatia, NH37","Sivasagar, Pachi Pathar",785640,Assam,IN,https://www.google.com/maps/place/Jengonikatia+Jumma+Masjid/data=!4m7!3m6!1s0x3747316693691323:0xbca33086df666a07!8m2!3d26.9949551!4d94.6214793!16s%2Fg%2F1tf5c2xc!19sChIJIxNpk2YxRzcRB2pm34Ywo7w?authuser=0&hl=en&rclk=1,"26.9949551,94.62147929999999"
B.G. Road Jama Masjid,Mosque,"XJPV+Q49 B.G. Road Jama Masjid, BG Rd, Sivasagar, Assam 785640",,"XJPV+Q49, BG Rd",Sivasagar,785640,Assam,IN,https://www.google.com/maps/place/B.G.+Road+Jama+Masjid/data=!4m7!3m6!1s0x3747314c8cef7277:0x77c773b060c4809d!8m2!3d26.9869097!4d94.6428625!16s%2Fg%2F1tk6t87w!19sChIJd3LvjEwxRzcRnYDEYLBzx3c?authuser=0&hl=en&rclk=1,"26.9869097,94.64286249999999"
Dhai Ali Mosque,Mosque,"XJPC+XMQ Dhai Ali Mosque, Dhai Ali, Sivasagar, Bailung Pathar, Assam 785640",Dhai Ali,XJPC+XMQ,"Sivasagar, Bailung Pathar",785640,Assam,IN,https://www.google.com/maps/place/Dhai+Ali+Mosque/data=!4m7!3m6!1s0x3747316975a5742f:0xfe8eaf17862ffd6a!8m2!3d26.987473!4d94.6217206!16s%2Fg%2F11hbndhjgz!19sChIJL3SldWkxRzcRav0vhhevjv4?authuser=0&hl=en&rclk=1,"26.987472999999998,94.62172059999999"
Sadar Masjid(central mosque)Sdr msjd,Mosque,"XJPM+W5R Sadar Masjid(central mosque)Sdr msjd, Dolmukh Chariali, Sivasagar, Assam 785640",Dolmukh Chariali,XJPM+W5R,Sivasagar,785640,Assam,IN,https://www.google.com/maps/place/Sadar+Masjid%28central+mosque%29%D8%B5%D8%AF%D8%B1+%D9%85%D8%B3%D8%AC%D8%AF%E2%80%AD/data=!4m7!3m6!1s0x37473145b8656fc1:0x59045682eabf6075!8m2!3d26.9873743!4d94.6328883!16s%2Fg%2F1tfk2sw2!19sChIJwW9luEUxRzcRdWC_6oJWBFk?authuser=0&hl=en&rclk=1,"26.9873743,94.63288829999999"
Taxiali Masjid,Mosque,"XJV6+QG8 Taxiali Masjid, Taxi Ali, Jengonikatia, Sivasagar, Chaul Kora No.1, Assam 785640",Jengonikatia,"XJV6+QG8, Taxi Ali","Sivasagar, Chaul Kora No.1",785640,Assam,IN,https://www.google.com/maps/place/Taxiali+Masjid/data=!4m7!3m6!1s0x3747317a58fa2c13:0xbbbba7f56d962095!8m2!3d26.9944189!4d94.6113344!16s%2Fg%2F11h9y6dmn8!19sChIJEyz6WHoxRzcRlSCWbfWnu7s?authuser=0&hl=en&rclk=1,"26.9944189,94.61133439999999"
Jengonikatia 2no Jumma Masjid,Mosque,"2J4F+5JC Jengonikatia 2no Jumma Masjid, Dhai Ali, Kath Para, Assam 785640",,"2J4F+5JC, Dhai Ali",Kath Para,785640,Assam,IN,https://www.google.com/maps/place/Jengonikatia+2no+Jumma+Masjid/data=!4m7!3m6!1s0x3747338a799caa99:0xad9a8b24539cef86!8m2!3d27.0054454!4d94.6240003!16s%2Fg%2F11h1r060pd!19sChIJmaqceYozRzcRhu-cUySLmq0?authuser=0&hl=en&rclk=1,"27.0054454,94.62400029999999"
Hatikhuk Bor Masjid,Mosque,"XJHC+GFF Hatikhuk Bor Masjid, Hatikukh, Assam 785697",,XJHC+GFF,Hatikukh,,Assam,IN,https://www.google.com/maps/place/Hatikhuk+Bor+Masjid/data=!4m7!3m6!1s0x3747310339a6c66b:0xb39bfe3fbd682799!8m2!3d26.9788088!4d94.6211608!16s%2Fg%2F11g0t6xv92!19sChIJa8amOQMxRzcRmSdovT_-m7M?authuser=0&hl=en&rclk=1,"26.9788088,94.6211608"
Singhaduwar Masjid,Mosque,"bogidol, Singhaduwar Masjid, Singha Duwar Grant, Bura Gohain, Assam 785697",,bogidol,"Singha Duwar Grant, Bura Gohain",,Assam,IN,https://www.google.com/maps/place/Singhaduwar+Masjid/data=!4m7!3m6!1s0x3747379ab75e686d:0x59a2e66c5f12d6c7!8m2!3d26.9517132!4d94.6729228!16s%2Fg%2F11fhtzncnl!19sChIJbWhet5o3RzcRx9YSX2zmolk?authuser=0&hl=en&rclk=1,"26.9517132,94.6729228"
Baro Ghoria Mosque msjd,Mosque,"Baro Ghoria Mosque msjd, Sivasagar, Assam 785640",,,Sivasagar,785640,Assam,IN,https://www.google.com/maps/place/Baro+Ghoria+Mosque+%D9%85%D8%B3%D8%AC%D8%AF%E2%80%AD/data=!4m7!3m6!1s0x37473140e69fcb3d:0x843ef2d0fa72ae87!8m2!3d26.9826159!4d94.6279297!16s%2Fg%2F11g6rkzl7s!19sChIJPcuf5kAxRzcRh65y-tDyPoQ?authuser=0&hl=en&rclk=1,"26.9826159,94.6279297"
Kordoiguri Purana Jamm e Masjid,Mosque,"2MW4+MHC Kordoiguri Purana Jamm e Masjid, Kordoiguri konwamora, Sivasagar, Akhoi Phutia, Assam 785663",,2MW4+MHC Kordoiguri konwamora,"Sivasagar, Akhoi Phutia",,Assam,IN,https://www.google.com/maps/place/Kordoiguri+Purana+Jamm+e+Masjid/data=!4m7!3m6!1s0x3747346320bcea25:0xde9d420a4938ba6f!8m2!3d27.0466945!4d94.6564034!16s%2Fg%2F11fz0yt4h0!19sChIJJeq8IGM0RzcRb7o4SQpCnd4?authuser=0&hl=en&rclk=1,"27.046694499999997,94.6564034"
BepariPatty Markaz Maszid,Mosque,"XJMH+4J6 BepariPatty Markaz Maszid, Sivasagar, Assam 785640",,XJMH+4J6,Sivasagar,,Assam,IN,https://www.google.com/maps/place/BepariPatty+Markaz+Maszid/data=!4m7!3m6!1s0x37473140d71c5e6f:0xb99b1f2d278bdfbf!8m2!3d26.9827982!4d94.629008!16s%2Fg%2F11hbgtgw2r!19sChIJb14c10AxRzcRv9-LJy0fm7k?authuser=0&hl=en&rclk=1,"26.982798199999998,94.629008"
Na Masjid,Mosque,"XJMJ+653 Na Masjid, Sivasagar, Assam 785640",,XJMJ+653,Sivasagar,785640,Assam,IN,https://www.google.com/maps/place/Na+Masjid/data=!4m7!3m6!1s0x37473146d8a1ac6b:0x9bcf8d91460e7b19!8m2!3d26.9830163!4d94.6304356!16s%2Fg%2F11dxlb8jrf!19sChIJa6yh2EYxRzcRGXsORpGNz5s?authuser=0&hl=en&rclk=1,"26.9830163,94.6304356"
Khata Pathar Masjid,Mosque,"XJWW+VM9 Khata Pathar Masjid, Nowjan, Sivasagar, Assam 785640",,XJWW+VM9,"Nowjan, Sivasagar",,Assam,IN,https://www.google.com/maps/place/Khata+Pathar+Masjid/data=!4m7!3m6!1s0x37473731e63cfd63:0x3dc4147f09d946c1!8m2!3d26.997173!4d94.6467253!16s%2Fg%2F11j4y4y9fr!19sChIJY_085jE3RzcRwUbZCX8UxD0?authuser=0&hl=en&rclk=1,"26.997173,94.6467253"
Hatikhuk Masjid,Mosque,"Hatikhuk Masjid, Unnamed Road, Arjun Guri, Assam 785697",,Unnamed Road,"Arjun Guri, Hatikukh",785697,Assam,IN,https://www.google.com/maps/place/Hatikhuk+Masjid/data=!4m7!3m6!1s0x374731287fdaa9c3:0xfb76636f5c99ecee!8m2!3d26.973798!4d94.620382!16s%2Fg%2F11hdt52b3d!19sChIJw6nafygxRzcR7uyZXG9jdvs?authuser=0&hl=en&rclk=1,"26.973798,94.62038199999999"
Amguri Gaon Bor Masjid,Mosque,"XJ9M+4HC Amguri Gaon Bor Masjid, Duboroni Ali Rd, Dicial Dhulia Gaon, Assam 785697",,"XJ9M+4HC, Duboroni Ali Rd",Dicial Dhulia Gaon,785697,Assam,IN,https://www.google.com/maps/place/Amguri+Gaon+Bor+Masjid/data=!4m7!3m6!1s0x3747316bdd013fb3:0xb0db798e1197c6fe!8m2!3d26.9678095!4d94.6338775!16s%2Fg%2F11frdrnh4w!19sChIJsz8B3WsxRzcR_saXEY5527A?authuser=0&hl=en&rclk=1,"26.967809499999998,94.6338775"
Joisagar Jame Masjid,Mosque,"Joisagar Jame Masjid, Jayanagar bylaen, No. 1, Assam Trunk Rd, Jayanagar, Joysagar, Dicial Dhulia Gaon, Assam 785697","Jayanagar, Joysagar","Jayanagar bylaen, No. 1, Assam Trunk Rd","Dicial Dhulia Gaon, Rupahi Pathar",785697,Assam,IN,https://www.google.com/maps/place/Joisagar+Jame+Masjid/data=!4m7!3m6!1s0x374731612e2c7103:0xd761d76a64f62910!8m2!3d26.958249!4d94.6179153!16s%2Fg%2F11j2278vy0!19sChIJA3EsLmExRzcRECn2ZGrXYdc?authuser=0&hl=en&rclk=1,"26.958249,94.61791529999999"
Colony Masjid,Mosque,"XMJ3+HVR Colony Masjid, C Type St, ONGC Colony, Sivasagar, Assam 785640",ONGC Colony,"XMJ3+HVR, C Type St",Sivasagar,785640,Assam,IN,https://www.google.com/maps/place/Colony+Masjid/data=!4m7!3m6!1s0x37473772bed141c7:0x1e7f2384d3fe0b4e!8m2!3d26.9814856!4d94.6546556!16s%2Fg%2F11k9d7zlgg!19sChIJx0HRvnI3RzcRTgv-04Qjfx4?authuser=0&hl=en&rclk=1,"26.9814856,94.6546556"
Baputty Bora Road Baparipati Markaz Mosque,Mosque,"XJMR+2XW Baputty Bora Road Baparipati Markaz Mosque, Sivasagar, Assam 785640",,XJMR+2XW,Sivasagar,,Assam,IN,https://www.google.com/maps/place/Baputty+Bora+Road+Baparipati+Markaz+Mosque/data=!4m7!3m6!1s0x374731c255375a49:0x58a9fd8e966f85b5!8m2!3d26.9826075!4d94.6424515!16s%2Fg%2F11q7_2q52s!19sChIJSVo3VcIxRzcRtYVvlo79qVg?authuser=0&hl=en&rclk=1,"26.9826075,94.64245149999999"
Masjid,Mosque,"XMJ7+GR4 Masjid, NH702C, Hatimuria, Cherekapar, Assam 785697",,"XMJ7+GR4, NH702C","Hatimuria, Cherekapar",785697,Assam,IN,https://www.google.com/maps/place/Masjid/data=!4m7!3m6!1s0x374737bdece023dd:0xcd9780cb96eb644a!8m2!3d26.9812587!4d94.664573!16s%2Fg%2F11r27w76kw!19sChIJ3SPg7L03RzcRSmTrlsuAl80?authuser=0&hl=en&rclk=1,"26.981258699999998,94.66457299999999"
