name,main_category,address,address_ward,address_street,address_city,address_postal_code,address_state,address_country_code,link,coordinates
Markazi Masjid e Ahle Hadees Charminar Harapanahalli.,Mosque,"Markazi Masjid e Ahle Hadees Charminar Harapanahalli., Charminar Road, Pathan Street, Ward No. 4, Harapanahalli, Karnataka 583131",,"Charminar Road, Pathan Street, Ward No. 4",Harapanahalli,583131,Karnataka,IN,https://www.google.com/maps/place/Markazi+Masjid+e+Ahle+Hadees+Charminar+Harapanahalli./data=!4m7!3m6!1s0x3bb991fe47010f19:0x3ef33f47fc76056c!8m2!3d14.7884549!4d75.9889453!16s%2Fg%2F11b7lmvr0y!19sChIJGQ8BR_6RuTsRbAV2_Ec_8z4?authuser=0&hl=en&rclk=1,"14.7884549,75.9889453"
Jamiya Masjid (Markazi Alhe Sunnat ul jammat),Mosque,"Jamiya Masjid (Markazi Alhe Sunnat ul jammat), Harapanahalli, Karnataka 583131",,,Harapanahalli,583131,Karnataka,IN,https://www.google.com/maps/place/Jamiya+Masjid+%28Markazi+Alhe+Sunnat+ul+jammat%29/data=!4m7!3m6!1s0x3bb98e06aaaaaaab:0x8867419ad0808b6f!8m2!3d14.7898573!4d75.9888646!16s%2Fg%2F11bw66lksr!19sChIJq6qqqgaOuTsRb4uA0JpBZ4g?authuser=0&hl=en&rclk=1,"14.7898573,75.9888646"
Masjid-E-Rahamaniya (Ahle Hadees),Mosque,"RX3W+F8J Masjid-E-Rahamaniya (Ahle Hadees), Shimoga - Harihar - Hospet Rd, Davangere, Karnataka 583131",,"RX3W+F8J, Shimoga - Harihar - Hospet Rd",Davangere,583131,Karnataka,IN,https://www.google.com/maps/place/Masjid-E-Rahamaniya+%28Ahle+Hadees%29/data=!4m7!3m6!1s0x3bb9921c2d42a799:0x4892f17f6b33ba3b!8m2!3d14.8037034!4d75.9957673!16s%2Fg%2F11c3v0ggvc!19sChIJmadCLRySuTsRO7oza3_xkkg?authuser=0&hl=en&rclk=1,"14.8037034,75.9957673"
Masjid-E-Umar (Ahle Hadees),Mosque,"Masjid-E-Umar (Ahle Hadees), KOTTUR ROAD, State Highway 2, Harapanahalli, Karnataka 583131",,"KOTTUR ROAD, State Highway 2",Harapanahalli,583131,Karnataka,IN,https://www.google.com/maps/place/Masjid-E-Umar+%28Ahle+Hadees%29/data=!4m7!3m6!1s0x3bb98dffe3297321:0xdd148068a0051222!8m2!3d14.7863154!4d75.99296!16s%2Fg%2F11c1n1ws06!19sChIJIXMp4_-NuTsRIhIFoGiAFN0?authuser=0&hl=en&rclk=1,"14.7863154,75.99296"
Masjid-E-Mohammadeya (Ahle Hadees),Mosque,"QXQR+894 Masjid-E-Mohammadeya (Ahle Hadees), Harapanahalli, Karnataka 583131",,QXQR+894,Harapanahalli,583131,Karnataka,IN,https://www.google.com/maps/place/Masjid-E-Mohammadeya+%28Ahle+Hadees%29/data=!4m7!3m6!1s0x3bb991ffc0cab939:0x6eefd42040272e5!8m2!3d14.7882634!4d75.9909554!16s%2Fg%2F11c6qdz6hz!19sChIJObnKwP-RuTsR5XICBEL97gY?authuser=0&hl=en&rclk=1,"14.7882634,75.99095539999999"
Noorani Masjid (Ahle Sunnat),Mosque,"QXRP+9MV Noorani Masjid (Ahle Sunnat), Harapanahalli, Karnataka 583131",,QXRP+9MV,Harapanahalli,583131,Karnataka,IN,https://www.google.com/maps/place/Noorani+Masjid+%28Ahle+Sunnat%29/data=!4m7!3m6!1s0x3bb991fc1f70040b:0x75684fa35237fbaf!8m2!3d14.790998!4d75.9866673!16s%2Fg%2F11dxr3cryf!19sChIJCwRwH_yRuTsRr_s3UqNPaHU?authuser=0&hl=en&rclk=1,"14.790998,75.9866673"
Masjid-E-Ibraheem Qhalil (Ahle Hadees),Mosque,"Q2M2+4W9 Masjid-E-Ibraheem Qhalil (Ahle Hadees), Kothur Road, Harpanahalli, Viijayanagara (Dst, Karnataka 583131",,"Q2M2+4W9, Kothur Road, Harpanahalli, Viijayanagara (Dst",Harapanahalli,583131,Karnataka,IN,https://www.google.com/maps/place/Masjid-E-Ibraheem+Qhalil+%28Ahle+Hadees%29/data=!4m7!3m6!1s0x3bb98df99052bc37:0xe09c36a113e34022!8m2!3d14.7827848!4d76.0023732!16s%2Fg%2F11c0xwzvlv!19sChIJN7xSkPmNuTsRIkDjE6E2nOA?authuser=0&hl=en&rclk=1,"14.7827848,76.0023732"
Makkah Masjid (Ahle hadees),Mosque,"QXPM+CXW Makkah Masjid (Ahle hadees), Harapanahalli, Karnataka 583131",,QXPM+CXW,Harapanahalli,583131,Karnataka,IN,https://www.google.com/maps/place/Makkah+Masjid+%28Ahle+hadees%29/data=!4m7!3m6!1s0x3bb98e0270e22ffd:0xf3f2919fefaf35c1!8m2!3d14.7861196!4d75.9849388!16s%2Fg%2F11b7m98zf2!19sChIJ_S_icAKOuTsRwTWv75-R8vM?authuser=0&hl=en&rclk=1,"14.7861196,75.9849388"
Masjid-E-Isra (Ahle Hadees),Mosque,"QXJQ+QQV Masjid-E-Isra (Ahle Hadees), SH 150, Ambedkar Nagar, Harapanahalli, Karnataka 583131",Ambedkar Nagar,"QXJQ+QQV, SH 150",Harapanahalli,583131,Karnataka,IN,https://www.google.com/maps/place/Masjid-E-Isra+%28Ahle+Hadees%29/data=!4m7!3m6!1s0x3bb98e0125b8778f:0x1b1540a8a7a78121!8m2!3d14.781975!4d75.9894091!16s%2Fg%2F11bzq312lw!19sChIJj3e4JQGOuTsRIYGnp6hAFRs?authuser=0&hl=en&rclk=1,"14.781975,75.9894091"
Majid-E-Abubakr Sidiq (Ahle Hadees),Mosque,"QXJ8+6M8 Majid-E-Abubakr Sidiq (Ahle Hadees), Harapanahalli, Karnataka 583131",,QXJ8+6M8,Harapanahalli,583131,Karnataka,IN,https://www.google.com/maps/place/Majid-E-Abubakr+Sidiq+%28Ahle+Hadees%29/data=!4m7!3m6!1s0x3bb98e219d421b23:0x4cca726401960a6d!8m2!3d14.780549!4d75.9667078!16s%2Fg%2F11bztgxf37!19sChIJIxtCnSGOuTsRbQqWAWRyykw?authuser=0&hl=en&rclk=1,"14.780548999999999,75.9667078"
Ahle Hadees Idga Ground Harapanahalli.,Mosque,"RX2R+M3V Ahle Hadees Idga Ground Harapanahalli., Harapanahalli, Karnataka 583131",,RX2R+M3V,Harapanahalli,583131,Karnataka,IN,https://www.google.com/maps/place/Ahle+Hadees+Idga+Ground+Harapanahalli./data=!4m7!3m6!1s0x3bb991f6576f663d:0xa19619da4b5bdf16!8m2!3d14.801741!4d75.9901642!16s%2Fg%2F11byxfqb95!19sChIJPWZvV_aRuTsRFt9bS9oZlqE?authuser=0&hl=en&rclk=1,"14.801741,75.9901642"
Masjid E Azam,Mosque,"Masjid E Azam, 8th Ward, Ghazimohalla, Harapanahalli, Karnataka 583131","8th Ward, Ghazimohalla",,Harapanahalli,583131,Karnataka,IN,https://www.google.com/maps/place/Masjid+E+Azam/data=!4m7!3m6!1s0x3bb98e0771b52cdf:0x8a776d38ddb016d!8m2!3d14.7791148!4d75.9921058!16s%2Fg%2F11c6v3k6gk!19sChIJ3yy1cQeOuTsRbQHbjdN2pwg?authuser=0&hl=en&rclk=1,"14.779114799999999,75.99210579999999"
"EIDGAH (SUNNI) AHLE SUNNATH WAL JAMATH, HARAPANAHALLI",Mosque,"QXXJ+2VJ EIDGAH (SUNNI) AHLE SUNNATH WAL JAMATH, HARAPANAHALLI, HUVINA HADAGALI ROAD, SH47, near KEB OFFICE, Harapanahalli, Karnataka 583131",,"QXXJ+2VJ, HUVINA HADAGALI ROAD, SH47, near KEB OFFICE",Harapanahalli,583131,Karnataka,IN,"https://www.google.com/maps/place/EIDGAH+%28SUNNI%29+AHLE+SUNNATH+WAL+JAMATH,+HARAPANAHALLI/data=!4m7!3m6!1s0x3bb991faa6e764ef:0xaa35e213c8523c87!8m2!3d14.7975811!4d75.9821521!16s%2Fg%2F11c57q99hg!19sChIJ72TnpvqRuTsRhzxSyBPiNao?authuser=0&hl=en&rclk=1","14.797581099999999,75.9821521"
Raza Masjid Ahle Sunnath Wal Jamaa'ath,Mosque,"QXWX+C6J Raza Masjid Ahle Sunnath Wal Jamaa'ath, Harapanahalli, Karnataka 583131",,QXWX+C6J,Harapanahalli,583131,Karnataka,IN,https://www.google.com/maps/place/Raza+Masjid+Ahle+Sunnath+Wal+Jamaa%27ath/data=!4m7!3m6!1s0x3bb99379a4264f55:0x916ebb6d195a0db7!8m2!3d14.7970135!4d75.9971785!16s%2Fg%2F11l23v97b6!19sChIJVU8mpHmTuTsRtw1aGW27bpE?authuser=0&hl=en&rclk=1,"14.797013499999998,75.99717849999999"
Aisha alhail center,Mosque,"Q2M2+6XW Aisha alhail center, Harapanahalli, Karnataka 583131",,Q2M2+6XW,Harapanahalli,583131,Karnataka,IN,https://www.google.com/maps/place/Aisha+alhail+center/data=!4m7!3m6!1s0x3bb98d5b40955753:0xf8e5b4ccf88a2a73!8m2!3d14.783109!4d76.0025949!16s%2Fg%2F11s57bs8zj!19sChIJU1eVQFuNuTsRcyqK-My05fg?authuser=0&hl=en&rclk=1,"14.783109,76.00259489999999"
Masjid-E-Abdullah (Ahle Hadees),Mosque,"QXWX+56C Masjid-E-Abdullah (Ahle Hadees), Harapanahalli, Karnataka 583131",,QXWX+56C,Harapanahalli,583131,Karnataka,IN,https://www.google.com/maps/place/Masjid-E-Abdullah+%28Ahle+Hadees%29/data=!4m7!3m6!1s0x3bb99336ccbe189f:0x34d77413dd5657b!8m2!3d14.795443!4d75.9980123!16s%2Fg%2F11h_sg2t5y!19sChIJnxi-zDaTuTsRe2XVPUF3TQM?authuser=0&hl=en&rclk=1,"14.795442999999999,75.9980123"
Masjid E Quba,Mosque,"QXRP+2VX Masjid E Quba, Harapanahalli, Karnataka 583131",,QXRP+2VX,Harapanahalli,583131,Karnataka,IN,https://www.google.com/maps/place/Masjid+E+Quba/data=!4m7!3m6!1s0x3bb991fe830d4211:0xa4455a6156ee7ce!8m2!3d14.7901039!4d75.9872293!16s%2Fg%2F11hbg7y_0d!19sChIJEUINg_6RuTsRzuduFaZVRAo?authuser=0&hl=en&rclk=1,"14.7901039,75.9872293"
Madrasa Jamiatul,Mosque,"RX2V+RG3 Madrasa Jamiatul, SH 25, Harapanahalli, Karnataka 583131",,"RX2V+RG3, SH 25",Harapanahalli,583131,Karnataka,IN,https://www.google.com/maps/place/Madrasa+Jamiatul/data=!4m7!3m6!1s0x3bb99305d749c885:0xde2aad1aa6e76bda!8m2!3d14.802007!4d75.993799!16s%2Fg%2F11h1dc3qy3!19sChIJhchJ1wWTuTsR2mvnphqtKt4?authuser=0&hl=en&rclk=1,"14.802007,75.993799"
Masjid-e-Hamza,Mosque,"QXHW+J7V Masjid-e-Hamza, Harapanahalli, Karnataka 583131",,QXHW+J7V,Harapanahalli,,Karnataka,IN,https://www.google.com/maps/place/Masjid-e-Hamza/data=!4m7!3m6!1s0x3bb98d10802abc7b:0xfd210af892b502fd!8m2!3d14.7791047!4d75.9956738!16s%2Fg%2F11tj3rc7jh!19sChIJe7wqgBCNuTsR_QK1kvgKIf0?authuser=0&hl=en&rclk=1,"14.7791047,75.99567379999999"
Darga Masjid,Mosque,"QXMM+WJR Darga Masjid, Harapanahalli, Karnataka 583131",,QXMM+WJR,Harapanahalli,583131,Karnataka,IN,https://www.google.com/maps/place/Darga+Masjid/data=!4m7!3m6!1s0x3bb98e0261c9bf61:0x625bab6ae196673a!8m2!3d14.784857!4d75.9840139!16s%2Fg%2F11d_7sbsbm!19sChIJYb_JYQKOuTsROmeW4WqrW2I?authuser=0&hl=en&rclk=1,"14.784856999999999,75.9840139"
Mubarak Masjid Ahle Sunnat,Mosque,"QXMQ+FWH Mubarak Masjid Ahle Sunnat, 8th Ward, Ambedkar Nagar, Harapanahalli, Karnataka 583131","8th Ward, Ambedkar Nagar",QXMQ+FWH,Harapanahalli,583131,Karnataka,IN,https://www.google.com/maps/place/Mubarak+Masjid+Ahle+Sunnat/data=!4m7!3m6!1s0x3bb98e00cd1270c5:0xea9d7cdbbc080d76!8m2!3d14.7836917!4d75.9898687!16s%2Fg%2F11fx8blyzz!19sChIJxXASzQCOuTsRdg0IvNt8neo?authuser=0&hl=en&rclk=1,"14.783691699999999,75.9898687"
Masjid-E-Taqwa (Ahle Hadees),Mosque,"QXQW+MC3 Masjid-E-Taqwa (Ahle Hadees), Humbalgatte Road, Harapanahalli, Karnataka 583131",,"QXQW+MC3, Humbalgatte Road",Harapanahalli,,Karnataka,IN,https://www.google.com/maps/place/Masjid-E-Taqwa+%28Ahle+Hadees%29/data=!4m7!3m6!1s0x3bb99180ef1ffda5:0xe802b7cea3c5f213!8m2!3d14.7891251!4d75.996054!16s%2Fg%2F11txfl_2fj!19sChIJpf0f74CRuTsRE_LFo863Aug?authuser=0&hl=en&rclk=1,"14.7891251,75.996054"
Masjid-e-Zainab (Dawat-o-Tabligh),Mosque,"Masjid-e-Zainab (Dawat-o-Tabligh), Kotturu road, Harapanahalli, Karnataka 583131",,Kotturu road,Harapanahalli,583131,Karnataka,IN,https://www.google.com/maps/place/Masjid-e-Zainab+%28Dawat-o-Tabligh%29/data=!4m7!3m6!1s0x3bb98db2964ee7c5:0x28d1d31f4ea332cf!8m2!3d14.781281!4d76.0029057!16s%2Fg%2F11mq64t5pp!19sChIJxedOlrKNuTsRzzKjTh_T0Sg?authuser=0&hl=en&rclk=1,"14.781281,76.0029057"
Masjid-E-Aqsa (Ahle Hadees),Mosque,"QXJC+MF5 Masjid-E-Aqsa (Ahle Hadees), SH 25, Harapanahalli, Karnataka 583131",,"QXJC+MF5, SH 25",Harapanahalli,583131,Karnataka,IN,https://www.google.com/maps/place/Masjid-E-Aqsa+%28Ahle+Hadees%29/data=!4m7!3m6!1s0x3bb98febcf55c491:0x91f2c930a504b7dd!8m2!3d14.7816254!4d75.9712473!16s%2Fg%2F11mhfpd4c9!19sChIJkcRVz-uPuTsR3bcEpTDJ8pE?authuser=0&hl=en&rclk=1,"14.7816254,75.9712473"
Madina masjid gundinkere,Mosque,"Madina masjid gundinkere, Shree bharameshwara temple 9th ward koravara oni, Arsikere, rod, Ambedkar Nagar, Harapanahalli, Karnataka 583131",Ambedkar Nagar,"Shree bharameshwara temple 9th ward koravara oni, Arsikere, rod",Harapanahalli,583131,Karnataka,IN,https://www.google.com/maps/place/Madina+masjid+gundinkere/data=!4m7!3m6!1s0x3bb98f288b165a83:0x5bbd98dd2816a045!8m2!3d14.7818079!4d75.987437!16s%2Fg%2F11rsbkk4rg!19sChIJg1oWiyiPuTsRRaAWKN2YvVs?authuser=0&hl=en&rclk=1,"14.781807899999999,75.987437"
Munawwar masjid-takiya-muhalla,School,"QXJQ+GX4 Munawwar masjid-takiya-muhalla, Ambedkar Nagar, Harapanahalli, Karnataka 583131",Ambedkar Nagar,QXJQ+GX4,Harapanahalli,583131,Karnataka,IN,https://www.google.com/maps/place/Munawwar+masjid-takiya-muhalla/data=!4m7!3m6!1s0x3bb98e00d56abe0f:0xe0c303ef208b221e!8m2!3d14.7812638!4d75.9899483!16s%2Fg%2F11csrkpg0t!19sChIJD75q1QCOuTsRHiKLIO8Dw-A?authuser=0&hl=en&rclk=1,"14.7812638,75.9899483"
Sunni Jamiya masjid Bangera,Mosque,"QXQR+P92 Sunni Jamiya masjid Bangera, Ambedkar Nagar, Harapanahalli, Karnataka 583131",Ambedkar Nagar,QXQR+P92,Harapanahalli,583131,Karnataka,IN,https://www.google.com/maps/place/Sunni+Jamiya+masjid+Bangera/data=!4m7!3m6!1s0x3bb98f3a702f5f75:0xdb23e0d31d7fa104!8m2!3d14.7809865!4d75.9869609!16s%2Fg%2F11q4bvb3l2!19sChIJdV8vcDqPuTsRBKF_HdPgI9s?authuser=0&hl=en&rclk=1,"14.7809865,75.9869609"
Masjid E Bahaddur,School,"RX2V+R9P Masjid E Bahaddur, Harapanahalli, Karnataka 583131",,RX2V+R9P,Harapanahalli,583131,Karnataka,IN,https://www.google.com/maps/place/Masjid+E+Bahaddur/data=!4m7!3m6!1s0x3bb993ecd04109ed:0x9373b5426a327d76!8m2!3d14.8020891!4d75.9934472!16s%2Fg%2F11g0zhrm5h!19sChIJ7QlB0OyTuTsRdn0yakK1c5M?authuser=0&hl=en&rclk=1,"14.8020891,75.99344719999999"
Masjid-e-Khaleel,Mosque,"Masjid-e-Khaleel, Harihar, camp, Harapanahalli",camp,Harihar,Harapanahalli,,Karnataka,IN,https://www.google.com/maps/place/Masjid-e-Khaleel/data=!4m7!3m6!1s0x3bb98f798e1179c7:0x342c7179be13f5b4!8m2!3d14.7788084!4d75.9708798!16s%2Fg%2F11q4dg53w5!19sChIJx3kRjnmPuTsRtPUTvnlxLDQ?authuser=0&hl=en&rclk=1,"14.778808399999999,75.97087979999999"
Masjid-e-Ibrahim Dawat-o-Tabligh,Mosque,"QXJ8+5GW Masjid-e-Ibrahim Dawat-o-Tabligh, Harapanahalli, Karnataka 583131",,QXJ8+5GW,Harapanahalli,583131,Karnataka,IN,https://www.google.com/maps/place/Masjid-e-Ibrahim+Dawat-o-Tabligh/data=!4m7!3m6!1s0x3bb98f4d14329925:0x8e969548a501fe20!8m2!3d14.7804922!4d75.9663304!16s%2Fg%2F11jz87zf5m!19sChIJJZkyFE2PuTsRIP4BpUiVlo4?authuser=0&hl=en&rclk=1,"14.7804922,75.96633039999999"
