name,main_category,address,address_ward,address_street,address_city,address_postal_code,address_state,address_country_code,link,coordinates
Masjid E Shaikh Sahab Pet,Mosque,"Masjid E Shaikh Sahab Pet, Shaikh Sahab Pet, Teachers Colony, Besthawar Pet, Brahmapuri, Nirmal, Telangana 504106","Teachers Colony, Besthawar Pet, Brahmapuri",Shaikh Sahab Pet,Nirmal,504106,Telangana,IN,https://www.google.com/maps/place/Masjid+E+Shaikh+Sahab+Pet/data=!4m7!3m6!1s0x3bcd8b87fcfc70f9:0x89094e6bd421c225!8m2!3d19.1025254!4d78.3497556!16s%2Fg%2F1vc6bvmr!19sChIJ-XD8_IeLzTsRJcIh1GtOCYk?authuser=0&hl=en&rclk=1,"19.102525399999998,78.3497556"
Gulzar Masjid Nirmal,Mosque,"Gulzar Masjid Nirmal, Masjid-e-Gulzar, Post Office Rd, Balajiwada, Pinjari Gutta, Nirmal, Telangana 504106","Balajiwada, Pinjari Gutta","Masjid-e-Gulzar, Post Office Rd",Nirmal,504106,Telangana,IN,https://www.google.com/maps/place/Gulzar+Masjid+Nirmal/data=!4m7!3m6!1s0x3bcd8c78647f2d69:0x2baca699c5ac6b20!8m2!3d19.1007782!4d78.3476027!16s%2Fg%2F11cn93xd9y!19sChIJaS1_ZHiMzTsRIGusxZmmrCs?authuser=0&hl=en&rclk=1,"19.1007782,78.3476027"
Jama Masjid,Mosque,"482V+69G Jama Masjid, Gandhi Nagar Colony, Nirmal, Telangana 504106",Gandhi Nagar Colony,482V+69G,Nirmal,504106,Telangana,IN,https://www.google.com/maps/place/Jama+Masjid/data=!4m7!3m6!1s0x3bcd8c7f5b318beb:0xb8ae867a173de72b!8m2!3d19.1005579!4d78.343457!16s%2Fg%2F11dz19vt9b!19sChIJ64sxW3-MzTsRK-c9F3qGrrg?authuser=0&hl=en&rclk=1,"19.1005579,78.343457"
Masjid E Mahboobia,Mosque,"38RV+23Q Masjid E Mahboobia, Madina colony, Eidgoan, Nirmal, Telangana 504106",Eidgoan,"38RV+23Q, Madina colony",Nirmal,504106,Telangana,IN,https://www.google.com/maps/place/Masjid+E+Mahboobia/data=!4m7!3m6!1s0x3bcd8c7cc72f32ad:0xc87a1e0f04aa3a5d!8m2!3d19.0900799!4d78.3427318!16s%2Fg%2F11b6njqqlh!19sChIJrTIvx3yMzTsRXTqqBA8eesg?authuser=0&hl=en&rclk=1,"19.0900799,78.3427318"
"Masjid-e-Yahya, Gajulpet",Mosque,"485J+MRG Masjid-e-Yahya, Gajulpet, Gajulpet, Telangana 504106",,485J+MRG,Gajulpet,504106,Telangana,IN,"https://www.google.com/maps/place/Masjid-e-Yahya,+Gajulpet/data=!4m7!3m6!1s0x3bcd8b7bcb59113d:0x9c871539096c8956!8m2!3d19.1091943!4d78.3320753!16s%2Fg%2F11c716w5jr!19sChIJPRFZy3uLzTsRVolsCTkVh5w?authuser=0&hl=en&rclk=1","19.1091943,78.3320753"
Madina Masjid,Mosque,"Madina Masjid, Government Junior College, Bhainsa, Telangana 504103",,Government Junior College,Bhainsa,504103,Telangana,IN,https://www.google.com/maps/place/Madina+Masjid/data=!4m7!3m6!1s0x3bcdfe5aef2fd1e3:0x48c8397dc97ab0f6!8m2!3d19.1096769!4d77.9643594!16s%2Fg%2F11b7w99d4p!19sChIJ49Ev71r-zTsR9rB6yX05yEg?authuser=0&hl=en&rclk=1,"19.1096769,77.96435939999999"
Masjid E Chand Sultana,Mosque,"Masjid E Chand Sultana, 504106, Vidyanagar, Adharsha Nagar, Nirmal, Telangana 504106","Vidyanagar, Adharsha Nagar",504106,Nirmal,504106,Telangana,IN,https://www.google.com/maps/place/Masjid+E+Chand+Sultana/data=!4m7!3m6!1s0x3bcd8c644575ee19:0x37cd15e32a13fd32!8m2!3d19.0859119!4d78.3464606!16s%2Fg%2F11fzb16hxz!19sChIJGe51RWSMzTsRMv0TKuMVzTc?authuser=0&hl=en&rclk=1,"19.0859119,78.3464606"
Masjid Panjesha,Mosque,"Masjid Panjesha, masjid, panjesha marg, Bhainsa, Telangana 504103",,"masjid, panjesha marg",Bhainsa,,Telangana,IN,https://www.google.com/maps/place/Masjid+Panjesha/data=!4m7!3m6!1s0x3bcdfe45594b318b:0xa9a4527a0d3bdd4e!8m2!3d19.1114013!4d77.9614446!16s%2Fg%2F11xfvxc4m!19sChIJizFLWUX-zTsRTt07DXpSpKk?authuser=0&hl=en&rclk=1,"19.1114013,77.9614446"
Mohammadia Masjid,Mosque,"38JR+55J Mohammadia Masjid, Adharsha Nagar, Nirmal, Telangana 504106",Adharsha Nagar,38JR+55J,Nirmal,504106,Telangana,IN,https://www.google.com/maps/place/Mohammadia+Masjid/data=!4m7!3m6!1s0x3bcd8c604b0a54d3:0x67084e8473077f46!8m2!3d19.0804551!4d78.340404!16s%2Fg%2F11bzq338xz!19sChIJ01QKS2CMzTsRRn8Hc4ROCGc?authuser=0&hl=en&rclk=1,"19.0804551,78.34040399999999"
Masjid E Mastaniya,Mosque,"38MP+W6H Masjid E Mastaniya, Asra Colony, Adharsha Nagar, Nirmal, Telangana 504106","Asra Colony, Adharsha Nagar",38MP+W6H,Nirmal,504106,Telangana,IN,https://www.google.com/maps/place/Masjid+E+Mastaniya/data=!4m7!3m6!1s0x3bcd8c884b8cf3ad:0xc9b46d1316dfb1a6!8m2!3d19.0848125!4d78.3356094!16s%2Fg%2F11f126_006!19sChIJrfOMS4iMzTsRprHfFhNttMk?authuser=0&hl=en&rclk=1,"19.084812499999998,78.3356094"
Eid-Gah,Mosque,"4XC4+J65 Eid-Gah, Palsi Road, Telangana 504103",,"4XC4+J65, Palsi Road",,504103,Telangana,IN,https://www.google.com/maps/place/Eid-Gah/data=!4m7!3m6!1s0x3bcdfe4b41f2b35b:0x49272df21ed88662!8m2!3d19.1215231!4d77.9556209!16s%2Fg%2F11b7lhbkzd!19sChIJW7PyQUv-zTsRYobYHvItJ0k?authuser=0&hl=en&rclk=1,"19.121523099999997,77.9556209"
Jamal Masjid,Mosque,"39X2+35R Jamal Masjid, Jamal, Masjid Road, Moghalpura, Nirmal, Telangana 504106",Moghalpura,"39X2+35R, Jamal, Masjid Road, Moghalpura",Nirmal,504106,Telangana,IN,https://www.google.com/maps/place/Jamal+Masjid/data=!4m7!3m6!1s0x3bcd8c7763fa0aff:0x8c287693ade0608a!8m2!3d19.0977279!4d78.3503946!16s%2Fg%2F11f4m6dzth!19sChIJ_wr6Y3eMzTsRimDgrZN2KIw?authuser=0&hl=en&rclk=1,"19.0977279,78.3503946"
MASJID-E-MOMINAN,Mosque,"4X76+4V9 MASJID-E-MOMINAN, mominan Galli, Siddhartha Nagar, Bhainsa, Telangana 504103",Siddhartha Nagar,"4X76+4V9, mominan Galli",Bhainsa,504103,Telangana,IN,https://www.google.com/maps/place/MASJID-E-MOMINAN/data=!4m7!3m6!1s0x3bcdfe4fe1772615:0x1ea8449dd9031e42!8m2!3d19.1127883!4d77.9622459!16s%2Fg%2F11bymwdg7g!19sChIJFSZ34U_-zTsRQh4D2Z1EqB4?authuser=0&hl=en&rclk=1,"19.1127883,77.9622459"
Masjid-e- Iqbal Unnisa AHLE SUNNATUL JAMAT,Mosque,"38XP+FC7 Masjid-e- Iqbal Unnisa AHLE SUNNATUL JAMAT, Priyadarshini Nagar, Nirmal, Telangana 504106",Priyadarshini Nagar,38XP+FC7,Nirmal,504106,Telangana,IN,https://www.google.com/maps/place/Masjid-e-+Iqbal+Unnisa+AHLE+SUNNATUL+JAMAT/data=!4m7!3m6!1s0x3bcd8c804d6de91f:0x214df4f286e1b21b!8m2!3d19.0986635!4d78.336057!16s%2Fg%2F11bv38dnzs!19sChIJH-ltTYCMzTsRG7LhhvL0TSE?authuser=0&hl=en&rclk=1,"19.0986635,78.336057"
Kambalposh Masjid,Mosque,"483X+3J9 Kambalposh Masjid, near Islampura, Teachers Colony, Besthawar Pet, Brahmapuri, Nirmal, Telangana 504106","Teachers Colony, Besthawar Pet, Brahmapuri","483X+3J9, near Islampura",Nirmal,504106,Telangana,IN,https://www.google.com/maps/place/Kambalposh+Masjid/data=!4m7!3m6!1s0x3bcd8b87c21236b1:0xa29a076725ba96c7!8m2!3d19.1026649!4d78.3491077!16s%2Fg%2F1tfr8n87!19sChIJsTYSwoeLzTsRx5a6JWcHmqI?authuser=0&hl=en&rclk=1,"19.1026649,78.34910769999999"
Masjid e Taqwa Ahle Hadees,Mosque,"Masjid e Taqwa Ahle Hadees, masjid e taqwa ahle hadees nirmal, Chinthakunta Wada, Nirmal, Telangana 504106",Chinthakunta Wada,masjid e taqwa ahle hadees nirmal,Nirmal,504106,Telangana,IN,https://www.google.com/maps/place/Masjid+e+Taqwa+Ahle+Hadees/data=!4m7!3m6!1s0x3bcd8c7f22186eef:0x6626c5f9da825cae!8m2!3d19.0985389!4d78.3436692!16s%2Fg%2F11f3_s861n!19sChIJ724YIn-MzTsRrlyC2vnFJmY?authuser=0&hl=en&rclk=1,"19.098538899999998,78.3436692"
Masjid-e-Arfath,Mosque,"485P+MVR Masjid-e-Arfath, Gajulpet, Telangana 504106",,485P+MVR,Gajulpet,504106,Telangana,IN,https://www.google.com/maps/place/Masjid-e-Arfath/data=!4m7!3m6!1s0x3bcd8b78f38929b7:0xf1f6598f1f63e972!8m2!3d19.1092323!4d78.3371349!16s%2Fg%2F11g6xq1bxz!19sChIJtymJ83iLzTsRculjH49Z9vE?authuser=0&hl=en&rclk=1,"19.1092323,78.3371349"
Masjid e Khair Unnisa,Mosque,"38MV+W9G Masjid e Khair Unnisa, Eidgoam, Nirmal, Telangana 504106",Eidgoam,38MV+W9G,Nirmal,504106,Telangana,IN,https://www.google.com/maps/place/Masjid+e+Khair+Unnisa/data=!4m7!3m6!1s0x3bcd8c63ec272937:0x3c3ca7aa8f837a71!8m2!3d19.0848121!4d78.3434432!16s%2Fg%2F11bxf29qv6!19sChIJNykn7GOMzTsRcXqDj6qnPDw?authuser=0&hl=en&rclk=1,"19.0848121,78.3434432"
MASJID-E-QUBA,Mosque,"38RR+PH2 MASJID-E-QUBA, Sarad Mahel, AN Reddy Colony, Ibrahim Bagh, Nirmal, Telangana 504106","AN Reddy Colony, Ibrahim Bagh","38RR+PH2, Sarad Mahel",Nirmal,504106,Telangana,IN,https://www.google.com/maps/place/MASJID-E-QUBA/data=!4m7!3m6!1s0x3bcd8c7d02e4632f:0x2fdcde6ba3e79613!8m2!3d19.0917623!4d78.341401!16s%2Fg%2F11h9rsxsx8!19sChIJL2PkAn2MzTsRE5bno2ve3C8?authuser=0&hl=en&rclk=1,"19.0917623,78.34140099999999"
Budharpet Masjid,Mosque,"483V+F49 Budharpet Masjid, Pinjari Gutta, Nirmal, Telangana 504106",Pinjari Gutta,483V+F49,Nirmal,504106,Telangana,IN,https://www.google.com/maps/place/Budharpet+Masjid/data=!4m7!3m6!1s0x3bcd8b80c2fc5e99:0xbd732aff04f66e07!8m2!3d19.1036542!4d78.3428597!16s%2Fg%2F11dxchc4cr!19sChIJmV78woCLzTsRB272BP8qc70?authuser=0&hl=en&rclk=1,"19.103654199999998,78.34285969999999"
Saleem Masjid,Mosque,"38WV+VRM Saleem Masjid, Panjesha Gallay, Zohra Nagar Colony, Kasba, Nirmal, Telangana 504106","Zohra Nagar Colony, Kasba","38WV+VRM, Panjesha Gallay",Nirmal,504106,Telangana,IN,https://www.google.com/maps/place/Saleem+Masjid/data=!4m7!3m6!1s0x3bcd8d6819c1f8c7:0x61f36d2f219cd7ef!8m2!3d19.0972042!4d78.3445486!16s%2Fg%2F11f6gz16dy!19sChIJx_jBGWiNzTsR79ecIS9t82E?authuser=0&hl=en&rclk=1,"19.0972042,78.3445486"
MASJID - E - RIYAZUL HAQ,Mosque,"38WX+Q76 MASJID - E - RIYAZUL HAQ, Bagulwada, Nirmal, Telangana 504106",Bagulwada,38WX+Q76,Nirmal,504106,Telangana,IN,https://www.google.com/maps/place/MASJID+-+E+-+RIYAZUL+HAQ/data=!4m7!3m6!1s0x3bcd8c79971e96a1:0x16fef0fe66a6bb49!8m2!3d19.0969176!4d78.3481556!16s%2Fg%2F11ddxp28l8!19sChIJoZYel3mMzTsRSbumZv7w_hY?authuser=0&hl=en&rclk=1,"19.096917599999998,78.3481556"
Jama Masjid,Mosque,"4438+75M Jama Masjid, Unnamed Road, Chackpalli, Arli (Khurd), Telangana 504104",,"4438+75M, Unnamed Road","Chackpalli, Arli (Khurd)",504104,Telangana,IN,https://www.google.com/maps/place/Jama+Masjid/data=!4m7!3m6!1s0x3bcdf759442ad593:0x9d3101a5cbafb91e!8m2!3d19.1032189!4d78.1154349!16s%2Fg%2F11gdgxt0hd!19sChIJk9UqRFn3zTsRHrmvy6UBMZ0?authuser=0&hl=en&rclk=1,"19.103218899999998,78.1154349"
Masjid E Saad,Mosque,"Masjid E Saad, Bail Bazar Rd, Naidiwada, Nirmal, Gajulpet, Telangana 504106",Naidiwada,Bail Bazar Rd,"Nirmal, Gajulpet",504106,Telangana,IN,https://www.google.com/maps/place/Masjid+E+Saad/data=!4m7!3m6!1s0x3bcd8b82f6becb3b:0x42b1513e084204aa!8m2!3d19.110158!4d78.3405581!16s%2Fg%2F11d_25gpf0!19sChIJO8u-9oKLzTsRqgRCCD5RsUI?authuser=0&hl=en&rclk=1,"19.110158,78.3405581"
jama masjid,Mosque,"4556+99V jama masjid, Narsapur, Telangana 504104",,4556+99V,Narsapur,504104,Telangana,IN,https://www.google.com/maps/place/jama+masjid/data=!4m7!3m6!1s0x3bcdf6debe130ce1:0x496ea4eb093e0f95!8m2!3d19.1084754!4d78.1609358!16s%2Fg%2F11dymkzz5r!19sChIJ4QwTvt72zTsRlQ8-Ceukbkk?authuser=0&hl=en&rclk=1,"19.1084754,78.16093579999999"
Jama Masjid,Mosque,"3CP2+VC4 Jama Masjid, Ratnapurkandla, Telangana 504106",,3CP2+VC4,Ratnapurkandla,504106,Telangana,IN,https://www.google.com/maps/place/Jama+Masjid/data=!4m7!3m6!1s0x3bcd8f4bdaaf8ff7:0x7e6311228e965496!8m2!3d19.0871397!4d78.4010718!16s%2Fg%2F11gjs05kwn!19sChIJ94-v2kuPzTsRllSWjiIRY34?authuser=0&hl=en&rclk=1,"19.087139699999998,78.4010718"
Zulfaquar Masjid,Mosque,"Zulfaquar Masjid, Batti Galli, Bhainsa, Telangana 504103",,Batti Galli,Bhainsa,504103,Telangana,IN,https://www.google.com/maps/place/Zulfaquar+Masjid/data=!4m7!3m6!1s0x3bcdfe458e005063:0x3327cc952a5d40c3!8m2!3d19.1106687!4d77.9585257!16s%2Fg%2F11b7lgcncq!19sChIJY1AAjkX-zTsRw0BdKpXMJzM?authuser=0&hl=en&rclk=1,"19.110668699999998,77.9585257"
Burhaniya Masjid Pan Galli,Mosque,"38WW+P6V Burhaniya Masjid Pan Galli, Market Rd, Bagulwada, Nirmal, Telangana 504106",Bagulwada,"38WW+P6V, Market Rd",Nirmal,504106,Telangana,IN,https://www.google.com/maps/place/Burhaniya+Masjid+Pan+Galli/data=!4m7!3m6!1s0x3bcd8c794121c375:0xc5851a3786d85199!8m2!3d19.0968567!4d78.345553!16s%2Fg%2F11c5814380!19sChIJdcMhQXmMzTsRmVHYhjcahcU?authuser=0&hl=en&rclk=1,"19.0968567,78.345553"
MASJID=E=SAMAD,Mosque,"38HM+G5M MASJID=E=SAMAD, Hufaaz nagar, Nirmal, Telangana 504106",Hufaaz nagar,38HM+G5M,Nirmal,,Telangana,IN,https://www.google.com/maps/place/MASJID%3DE%3DSAMAD/data=!4m7!3m6!1s0x3bcd8c8c9e48e331:0xff3b8e9d1631c776!8m2!3d19.0788383!4d78.3329139!16s%2Fg%2F11f4_h6mlx!19sChIJMeNInoyMzTsRdscxFp2OO_8?authuser=0&hl=en&rclk=1,"19.078838299999997,78.3329139"
ISLAMIA MASJID,Mosque,"33P9+Q3G ISLAMIA MASJID, Unnamed Road, Pendapalle, Telangana 504109",,"33P9+Q3G, Unnamed Road",Pendapalle,504109,Telangana,IN,https://www.google.com/maps/place/ISLAMIA+MASJID/data=!4m7!3m6!1s0x3bcdf9a84cf030af:0x3505c992c42fe512!8m2!3d19.0869441!4d78.0677168!16s%2Fg%2F11h1lsvqdn!19sChIJrzDwTKj5zTsREuUvxJLJBTU?authuser=0&hl=en&rclk=1,"19.0869441,78.0677168"
EIDGAH JAMA MASJID SWARNA,Mosque,"EIDGAH JAMA MASJID SWARNA, Sarangapur Mandal, Ponkur, Telangana 504323",,Sarangapur Mandal,Ponkur,504323,Telangana,IN,https://www.google.com/maps/place/EIDGAH+JAMA+MASJID+SWARNA/data=!4m7!3m6!1s0x3bd20bc4554a1a21:0x8dd0f4fa4f16d3e4!8m2!3d19.2482263!4d78.2163682!16s%2Fg%2F11fy_5_fhk!19sChIJIRpKVcQL0jsR5NMWT_r00I0?authuser=0&hl=en&rclk=1,"19.2482263,78.21636819999999"
Jama Masjid E Yaseen,Mosque,"48XM+F6C Jama Masjid E Yaseen, Hanuman Temple Road, Chincholi Buzurg, Telangana 504106",,"48XM+F6C, Hanuman Temple Road",Chincholi Buzurg,504106,Telangana,IN,https://www.google.com/maps/place/Jama+Masjid+E+Yaseen/data=!4m7!3m6!1s0x3bcd8afe0a8621e5:0x8fe4dfebe2fa5c5e!8m2!3d19.148678!4d78.3330188!16s%2Fg%2F11f2wfb5z6!19sChIJ5SGGCv6KzTsRXlz64uvf5I8?authuser=0&hl=en&rclk=1,"19.148678,78.33301879999999"
Jama Masjid,Mosque,"36QG+MQ8 Jama Masjid, Dilawarpur, Telangana 504306",,36QG+MQ8,Dilawarpur,504306,Telangana,IN,https://www.google.com/maps/place/Jama+Masjid/data=!4m7!3m6!1s0x3bcdf38b6d895ff3:0xfb92232411ea544f!8m2!3d19.0891544!4d78.2269668!16s%2Fg%2F11g7cxjty8!19sChIJ81-JbYvzzTsRT1TqESQjkvs?authuser=0&hl=en&rclk=1,"19.089154399999998,78.2269668"
New Masjid,Mosque,"4536+837 New Masjid, Narsapur, Telangana 504104",,4536+837,Narsapur,504104,Telangana,IN,https://www.google.com/maps/place/New+Masjid/data=!4m7!3m6!1s0x3bcdf6d9badf7107:0x959db33fe812bc3a!8m2!3d19.1032998!4d78.1601806!16s%2Fg%2F11dyqr83fc!19sChIJB3Hfutn2zTsROrwS6D-znZU?authuser=0&hl=en&rclk=1,"19.1032998,78.16018059999999"
New EIDGAH NIRMAL,Mosque,"48PM+98W New EIDGAH NIRMAL, Chincholi Buzurg, Telangana 504110",,48PM+98W,Chincholi Buzurg,,Telangana,IN,https://www.google.com/maps/place/New+EIDGAH+NIRMAL/data=!4m7!3m6!1s0x3bcd8bb04ad05d83:0x31334f9c1ae9f252!8m2!3d19.1359868!4d78.3333393!16s%2Fg%2F11p0z5x1bs!19sChIJg13QSrCLzTsRUvLpGpxPMzE?authuser=0&hl=en&rclk=1,"19.135986799999998,78.33333929999999"
Macca Masjid,Mosque,"39G5+MMQ Macca Masjid, Shanthi Nagar Rd, Shanthinagar, Nirmal, Venkatapur Rural, Telangana 504105",Shanthinagar,"39G5+MMQ, Shanthi Nagar Rd","Nirmal, Venkatapur Rural",504105,Telangana,IN,https://www.google.com/maps/place/Macca+Masjid/data=!4m7!3m6!1s0x3bcd8db23dfdf8ed:0xe146a9cb766c453d!8m2!3d19.0767234!4d78.3592417!16s%2Fg%2F11h5lk1kll!19sChIJ7fj9PbKNzTsRPUVsdsupRuE?authuser=0&hl=en&rclk=1,"19.0767234,78.3592417"
"jama masjid,temburni",Mosque,"35FQ+GJ7 jama masjid,temburni, Temborni, Telangana 504306",,35FQ+GJ7,Temborni,504306,Telangana,IN,"https://www.google.com/maps/place/jama+masjid,temburni/data=!4m7!3m6!1s0x3bcdf143602b1c57:0x1b94be4d9345b7c4!8m2!3d19.0737876!4d78.1890329!16s%2Fg%2F11hc_7v5pb!19sChIJVxwrYEPxzTsRxLdFk02-lBs?authuser=0&hl=en&rclk=1","19.0737876,78.1890329"
Masjid-E-Imam Unnissa,Mosque,"4X88+73C Masjid-E-Imam Unnissa, Bhainsa, Telangana 504103",,4X88+73C,Bhainsa,504103,Telangana,IN,https://www.google.com/maps/place/Masjid-E-Imam+Unnissa/data=!4m7!3m6!1s0x3bcdff48f9d34921:0xbfa3a3b4df1b04b1!8m2!3d19.1156767!4d77.965154!16s%2Fg%2F11n60wjr3b!19sChIJIUnT-Uj_zTsRsQQb37Sjo78?authuser=0&hl=en&rclk=1,"19.115676699999998,77.965154"
JAAMA MASJID,Mosque,"V5HQ+CR2 JAAMA MASJID, Khudavandapur, Telangana 503212",,V5HQ+CR2,Khudavandapur,503212,Telangana,IN,https://www.google.com/maps/place/JAAMA+MASJID/data=!4m7!3m6!1s0x3bcde9686667a3f5:0xee541aaa8c8de747!8m2!3d18.8785188!4d78.1895025!16s%2Fg%2F11c5350yrl!19sChIJ9aNnZmjpzTsRR-eNjKoaVO4?authuser=0&hl=en&rclk=1,"18.8785188,78.1895025"
Zakariya Masjid,Mosque,"39W2+36R Zakariya Masjid, Unnamed Road, Nirmal, Telangana 504106",,"39W2+36R, Unnamed Road",Nirmal,504106,Telangana,IN,https://www.google.com/maps/place/Zakariya+Masjid/data=!4m7!3m6!1s0x3bcd8c70af3e69d3:0x5bd0199c0b37c400!8m2!3d19.0952397!4d78.3505245!16s%2Fg%2F11gg94g7gs!19sChIJ02k-r3CMzTsRAMQ3C5wZ0Fs?authuser=0&hl=en&rclk=1,"19.0952397,78.35052449999999"
masjid E Osmania,Mosque,"484V+CR6 masjid E Osmania, Kabutar Kaman, Pinjari Gutta, Nirmal, Telangana 504106",Pinjari Gutta,"484V+CR6, Kabutar Kaman",Nirmal,504106,Telangana,IN,https://www.google.com/maps/place/masjid+E+Osmania/data=!4m7!3m6!1s0x3bcd8b2fce0274ed:0xfcbe244bbc5ab10a!8m2!3d19.1060285!4d78.3445019!16s%2Fg%2F11fl94rxxh!19sChIJ7XQCzi-LzTsRCrFavEskvvw?authuser=0&hl=en&rclk=1,"19.1060285,78.3445019"
Masjid E Vengwapet,Mosque,"48F8+H86 Masjid E Vengwapet, near, Vengwapet, Telangana",,"48F8+H86, near",Vengwapet,,Telangana,IN,https://www.google.com/maps/place/Masjid+E+Vengwapet/data=!4m7!3m6!1s0x3bcd8b26abb67a47:0xdd960d9a37ed94a!8m2!3d19.1239169!4d78.3157713!16s%2Fg%2F11f7sygp4b!19sChIJR3q2qyaLzTsRStl-o9lg2Q0?authuser=0&hl=en&rclk=1,"19.123916899999998,78.3157713"
Masjid e Gulzar Ismaily,Mosque,"Masjid e Gulzar Ismaily, indiramma gruhalu, Telangana 504106",,indiramma gruhalu,,504106,Telangana,IN,https://www.google.com/maps/place/Masjid+e+Gulzar+Ismaily/data=!4m7!3m6!1s0x3bcd8b6f9a915c21:0xc1c5df9002bf1d41!8m2!3d19.1230496!4d78.3277848!16s%2Fg%2F11qqlz3ng3!19sChIJIVyRmm-LzTsRQR2_ApDfxcE?authuser=0&hl=en&rclk=1,"19.123049599999998,78.3277848"
msjd slym,Mosque,"38WV+RVR msjd slym, Market Rd, Zohra Nagar Colony, Moghalpura, Nirmal, Telangana 504106","Zohra Nagar Colony, Moghalpura","38WV+RVR, Market Rd",Nirmal,504106,Telangana,IN,https://www.google.com/maps/place/%D9%85%D8%B3%D8%AC%D8%AF+%D8%B3%D9%84%DB%8C%D9%85%E2%80%AD/data=!4m7!3m6!1s0x3bcd8d93a5254703:0x4da948bd804a0de8!8m2!3d19.0971183!4d78.3446414!16s%2Fg%2F11ft8n_qd4!19sChIJA0clpZONzTsR6A1KgL1IqU0?authuser=0&hl=en&rclk=1,"19.097118299999998,78.3446414"
masjid,Mosque,"masjid, Telangana 504106",,,,,Telangana,IN,https://www.google.com/maps/place/masjid/data=!4m7!3m6!1s0x3bcd8b75b8dbf64b:0xa8e676776b6b44e8!8m2!3d19.1200253!4d78.336862!16s%2Fg%2F124yjm8fs!19sChIJS_bbuHWLzTsR6ERra3d25qg?authuser=0&hl=en&rclk=1,"19.1200253,78.336862"
Masjid e Akbar Ahle Hadees Gajulpet Nirmal,Mosque,"486M+7VW Masjid e Akbar Ahle Hadees Gajulpet Nirmal, Gajulpet, Telangana 504106",,486M+7VW,Gajulpet,,Telangana,IN,https://www.google.com/maps/place/Masjid+e+Akbar+Ahle+Hadees+Gajulpet+Nirmal/data=!4m7!3m6!1s0x3bcd8b1c1132400d:0xeed8f83e6793b63c!8m2!3d19.11075!4d78.3346899!16s%2Fg%2F11sdvg_vpv!19sChIJDUAyERyLzTsRPLaTZz742O4?authuser=0&hl=en&rclk=1,"19.11075,78.3346899"
Jama masjid Ahle Hadees,Mosque,"35PW+8QR Jama masjid Ahle Hadees, Cherlapalle, Telangana 504306",,35PW+8QR,Cherlapalle,504306,Telangana,IN,https://www.google.com/maps/place/Jama+masjid+Ahle+Hadees/data=!4m7!3m6!1s0x3bcdf1ae0764e4b1:0x5349955489dd906f!8m2!3d19.0858704!4d78.196881!16s%2Fg%2F11kjckrnnj!19sChIJseRkB67xzTsRb5DdiVSVSVM?authuser=0&hl=en&rclk=1,"19.085870399999997,78.19688099999999"
MASJID E SARWARI,Mosque,"48FJ+PHV MASJID E SARWARI, Telangana 504106",,48FJ+PHV,,504106,Telangana,IN,https://www.google.com/maps/place/MASJID+E+SARWARI/data=!4m7!3m6!1s0x3bcd8b00651e8ffd:0xa8f7ee52c6590d!8m2!3d19.1243734!4d78.3314346!16s%2Fg%2F11ry25t2vy!19sChIJ_Y8eZQCLzTsRDVnGUu73qAA?authuser=0&hl=en&rclk=1,"19.1243734,78.3314346"
Masjid,Mosque,"575J+M85 Masjid, Rd, Boragaon, Boregaon, Telangana 504110",,"575J+M85, Rd","Boragaon, Boregaon",504110,Telangana,IN,https://www.google.com/maps/place/Masjid/data=!4m7!3m6!1s0x3bcdf5566038f497:0x4b6461d2e0d594e4!8m2!3d19.1591405!4d78.2808603!16s%2Fg%2F11r9h611j1!19sChIJl_Q4YFb1zTsR5JTV4NJhZEs?authuser=0&hl=en&rclk=1,"19.1591405,78.2808603"
Jama masjid,Mosque,"Jama masjid, Mahendher fertiliser, Ola, Telangana 504109",,Mahendher fertiliser,Ola,504109,Telangana,IN,https://www.google.com/maps/place/Jama+masjid/data=!4m7!3m6!1s0x3bd207e78142f0d5:0xfe16d5ecc5fee1da!8m2!3d19.1802439!4d78.0713271!16s%2Fg%2F11fv3lytz1!19sChIJ1fBCgecH0jsR2uH-xezVFv4?authuser=0&hl=en&rclk=1,"19.1802439,78.07132709999999"
MAKTAB ABU BAKKAR SIDDIQ AILAPUR masjid,Mosque,"R4XC+R93 MAKTAB ABU BAKKAR SIDDIQ AILAPUR masjid, Ailapur, Gunjali, Telangana 503212",,R4XC+R93,"Ailapur, Gunjali",,Telangana,IN,https://www.google.com/maps/place/MAKTAB+ABU+BAKKAR+SIDDIQ+AILAPUR+masjid/data=!4m7!3m6!1s0x3bcde9f36adbabc3:0x71fe00fb81b6ee5d!8m2!3d18.849512!4d78.12091!16s%2Fg%2F11tx1s7mnm!19sChIJw6vbavPpzTsRXe62gfsA_nE?authuser=0&hl=en&rclk=1,"18.849512,78.12091"
Masjid E Mohammedia,Mosque,"3F7C+F76 Masjid E Mohammedia, New Kanjar, Lakshman Chanda, Nirmal, Kotha Lingampalle (R.C), Telangana 504310","New Kanjar, Lakshman Chanda",3F7C+F76,"Nirmal, Kotha Lingampalle (R.C)",504310,Telangana,IN,https://www.google.com/maps/place/Masjid+E+Mohammedia/data=!4m7!3m6!1s0x3bcd8f014549f7a1:0x195f63566a908af2!8m2!3d19.0636637!4d78.4706476!16s%2Fg%2F11rdcq32xf!19sChIJofdJRQGPzTsR8oqQalZjXxk?authuser=0&hl=en&rclk=1,"19.0636637,78.47064759999999"
MASJID- E -SIDDIQ,Mosque,"39W3+9GR MASJID- E -SIDDIQ, Moghalpura, Nirmal, Telangana 504106",Moghalpura,39W3+9GR,Nirmal,504106,Telangana,IN,https://www.google.com/maps/place/MASJID-+E+-SIDDIQ/data=!4m7!3m6!1s0x3bcd8d77ced13693:0x2b1f9d1fdf452958!8m2!3d19.0959983!4d78.3537797!16s%2Fg%2F11g1gmhbgh!19sChIJkzbRzneNzTsRWClF3x-dHys?authuser=0&hl=en&rclk=1,"19.095998299999998,78.35377969999999"
Masjid,Place of worship,"483V+958 Masjid, Budhwarpet Rd, Pinjari Gutta, Nirmal, Telangana 504106",Pinjari Gutta,"483V+958, Budhwarpet Rd",Nirmal,504106,Telangana,IN,https://www.google.com/maps/place/Masjid/data=!4m7!3m6!1s0x3bcd8b68702e7e9f:0x35dd6a4ba8924719!8m2!3d19.1034044!4d78.3429492!16s%2Fg%2F11rc46yr5p!19sChIJn34ucGiLzTsRGUeSqEtq3TU?authuser=0&hl=en&rclk=1,"19.1034044,78.34294919999999"
Masjid bopparam,Mosque,"2CR5+8JC Masjid bopparam, Bapparam, Telangana 504105",,2CR5+8JC,Bapparam,504105,Telangana,IN,https://www.google.com/maps/place/Masjid+bopparam/data=!4m7!3m6!1s0x3bcd8e4188f2ae39:0xc07ac5e743d80df9!8m2!3d19.0408141!4d78.4090151!16s%2Fg%2F11f00qcn5d!19sChIJOa7yiEGOzTsR-Q3YQ-fFesA?authuser=0&hl=en&rclk=1,"19.0408141,78.40901509999999"
Masjid,Mosque,"2F97+CXG Masjid, Laxmanchanda, Telangana 504106",,2F97+CXG,Laxmanchanda,504106,Telangana,IN,https://www.google.com/maps/place/Masjid/data=!4m7!3m6!1s0x3bcd8ffcdea173c7:0x891e0343679ed189!8m2!3d19.0185733!4d78.4649569!16s%2Fg%2F11gcx_s45d!19sChIJx3Oh3vyPzTsRidGeZ0MDHok?authuser=0&hl=en&rclk=1,"19.0185733,78.46495689999999"
Jama masjid,Mosque,"3466+MQ3 Jama masjid, Manmad, Telangana 504104",,3466+MQ3,Manmad,,Telangana,IN,https://www.google.com/maps/place/Jama+masjid/data=!4m7!3m6!1s0x3bcdf111d21c7737:0x5999179013b362b5!8m2!3d19.0616441!4d78.111914!16s%2Fg%2F11rvjygjlq!19sChIJN3cc0hHxzTsRtWKzE5AXmVk?authuser=0&hl=en&rclk=1,"19.0616441,78.111914"
Jama Masjid Nikalpoor,Mosque,"W5Q8+3CH Jama Masjid Nikalpoor, Nizmabad, Nikalpur, Telangana 503212",,"W5Q8+3CH, Nizmabad",Nikalpur,503212,Telangana,IN,https://www.google.com/maps/place/Jama+Masjid+Nikalpoor/data=!4m7!3m6!1s0x3bcdeee53497f8e9:0x39d6ff72e8b22f94!8m2!3d18.9376999!4d78.1661121!16s%2Fg%2F11g6bm2xmm!19sChIJ6fiXNOXuzTsRlC-y6HL_1jk?authuser=0&hl=en&rclk=1,"18.9376999,78.16611209999999"
Masjid E Abu Bakar,Mosque,"2JXP+GVV Masjid E Abu Bakar, Nirmal - Mancherial Rd, Khanapur, Thimmapur, Telangana 504203",,"2JXP+GVV, Nirmal - Mancherial Rd","Khanapur, Thimmapur",504203,Telangana,IN,https://www.google.com/maps/place/Masjid+E+Abu+Bakar/data=!4m7!3m6!1s0x3bcd838be7675037:0x1ecef2637bebf20c!8m2!3d19.0488678!4d78.6371746!16s%2Fg%2F11kyxhjk80!19sChIJN1Bn54uDzTsRDPLre2Pyzh4?authuser=0&hl=en&rclk=1,"19.0488678,78.6371746"
Jama Masjid Gunjili,Mosque,"R3R9+W4G Jama Masjid Gunjili, Gunjili, Shiranpalle, Telangana 503246",,R3R9+W4G,"Gunjili, Shiranpalle",503246,Telangana,IN,https://www.google.com/maps/place/Jama+Masjid+Gunjili/data=!4m7!3m6!1s0x3bcde709864e9faf:0x2d5a36aff1984b59!8m2!3d18.842307!4d78.0678324!16s%2Fg%2F11h6nrxqcj!19sChIJr59OhgnnzTsRWUuY8a82Wi0?authuser=0&hl=en&rclk=1,"18.842306999999998,78.0678324"
Jama Masjid,Mosque,"4733+GPV Jama Masjid, Near the Nirmal Bhainsa main Road.Mdl: Dilawarpur. Dist:, Nirmal, Telangana 504306",,"4733+GPV, Near the Nirmal Bhainsa main Road.Mdl: Dilawarpur. Dist:","Nirmal, Lolam",504306,Telangana,IN,https://www.google.com/maps/place/Jama+Masjid/data=!4m7!3m6!1s0x3bcdfff87705fb39:0xd33edc6cec828713!8m2!3d19.1038707!4d78.2542839!16s%2Fg%2F11gtdzt517!19sChIJOfsFd_j_zTsRE4eC7GzcPtM?authuser=0&hl=en&rclk=1,"19.103870699999998,78.25428389999999"
"Masjid Mohammad Osman, Nirmal",Mosque,"486M+V9M Masjid Mohammad Osman, Nirmal, Gajulpet, Telangana 504106",,486M+V9M,Gajulpet,504106,Telangana,IN,"https://www.google.com/maps/place/Masjid+Mohammad+Osman,+Nirmal/data=!4m7!3m6!1s0x3bcd8b85fd08424d:0x8490656f1497e456!8m2!3d19.1122219!4d78.3334251!16s%2Fg%2F11l8tvx7lb!19sChIJTUII_YWLzTsRVuSXFG9lkIQ?authuser=0&hl=en&rclk=1","19.112221899999998,78.3334251"
Masjid e Dawood,Mosque,"485W+W49 Masjid e Dawood, Naidiwada, Nirmal, Telangana 504106",Naidiwada,485W+W49,Nirmal,504106,Telangana,IN,https://www.google.com/maps/place/Masjid+e+Dawood/data=!4m7!3m6!1s0x3bcd8b846475af3d:0x82ca3b48733cef62!8m2!3d19.1097927!4d78.3453625!16s%2Fg%2F11gbx8td_p!19sChIJPa91ZISLzTsRYu88c0g7yoI?authuser=0&hl=en&rclk=1,"19.1097927,78.3453625"
Masjid e zohra,Mosque,"38VR+WC6 Masjid e zohra, Maternity Hospital Rd, Eidgoan, Nirmal, Telangana 504106",Eidgoan,"38VR+WC6, Maternity Hospital Rd",Nirmal,504106,Telangana,IN,https://www.google.com/maps/place/Masjid+e+zohra/data=!4m7!3m6!1s0x3bcd8dad6ff99def:0xd1220326d03e7595!8m2!3d19.0947996!4d78.3410309!16s%2Fg%2F11mtd9pbxd!19sChIJ7535b62NzTsRlXU-0CYDItE?authuser=0&hl=en&rclk=1,"19.094799599999998,78.34103089999999"
MASJID E EIDGAON NIRMAL,Mosque,"38PV+W2C MASJID E EIDGAON NIRMAL, Unnamed Road, Natraj Nagar, Eidgoan, Nirmal, Telangana 504106","Natraj Nagar, Eidgoan","38PV+W2C, Unnamed Road",Nirmal,504106,Telangana,IN,https://www.google.com/maps/place/MASJID+E+EIDGAON+NIRMAL/data=!4m7!3m6!1s0x3bcd8c6358878827:0x9e6de3030bed805a!8m2!3d19.0873155!4d78.3425302!16s%2Fg%2F11hd07t83z!19sChIJJ4iHWGOMzTsRWoDtCwPjbZ4?authuser=0&hl=en&rclk=1,"19.0873155,78.3425302"
Imli band,Mosque,"39G3+P77 Imli band, Nirmal, Telangana 504105",,39G3+P77,Nirmal,,Telangana,IN,https://www.google.com/maps/place/Imli+band/data=!4m7!3m6!1s0x3bcd8d4ee2077133:0x67250b3aa8a34700!8m2!3d19.0767975!4d78.3531705!16s%2Fg%2F11kjgkv9wq!19sChIJM3EH4k6NzTsRAEejqDoLJWc?authuser=0&hl=en&rclk=1,"19.076797499999998,78.35317049999999"
KABUTAR KAMAN,Mosque,"484V+FQM KABUTAR KAMAN, Budhwarpet, Nirmal, Telangana 504106",Budhwarpet,"484V+FQM, KABUTAR KAMAN",Nirmal,504106,Telangana,IN,https://www.google.com/maps/place/KABUTAR+KAMAN/data=!4m7!3m6!1s0x3bcd8bd5708f26cb:0x792046c333cc67b!8m2!3d19.1062005!4d78.3444343!16s%2Fg%2F11sx05gtdm!19sChIJyyaPcNWLzTsRe8Y8M2wEkgc?authuser=0&hl=en&rclk=1,"19.1062005,78.3444343"
Masjid E Yahya Noor,Mosque,"48GH+8X7 Masjid E Yahya Noor, Nirmal, Telangana 504106",,48GH+8X7,Nirmal,,Telangana,IN,https://www.google.com/maps/place/Masjid+E+Yahya+Noor/data=!4m7!3m6!1s0x3bcd8bfffa3ea767:0x2953448db738086!8m2!3d19.1257808!4d78.3299118!16s%2Fg%2F11kjg_cd_k!19sChIJZ6c--v-LzTsRhoBz20g0lQI?authuser=0&hl=en&rclk=1,"19.125780799999998,78.32991179999999"
Thimmapur masjid,Mosque,"435F+Q9G Thimmapur masjid, Unnamed Road, Thimmapur, Telangana 504109",,"435F+Q9G, Unnamed Road",Thimmapur,504109,Telangana,IN,https://www.google.com/maps/place/Thimmapur+masjid/data=!4m7!3m6!1s0x3bcdf93c28513963:0x7dcfb1f3b4f8e7af!8m2!3d19.1094489!4d78.0734603!16s%2Fg%2F11qzbkts3t!19sChIJYzlRKDz5zTsRr-f4tPOxz30?authuser=0&hl=en&rclk=1,"19.1094489,78.0734603"
Jama Masjid,Mosque,"28M4+QP2 Jama Masjid, Siddankunta, Siddulkunta New, Telangana 504106",,28M4+QP2,"Siddankunta, Siddulkunta New",504106,Telangana,IN,https://www.google.com/maps/place/Jama+Masjid/data=!4m7!3m6!1s0x3bcd8d80a27b0ec1:0x6ca0621c3fc4dfba!8m2!3d19.0343797!4d78.3067755!16s%2Fg%2F11gj73nkhp!19sChIJwQ57ooCNzTsRut_EPxxioGw?authuser=0&hl=en&rclk=1,"19.0343797,78.3067755"
Wadoor baba dargah,Mosque,"38PQ+VR8 Wadoor baba dargah, NH 61, Eidgoam, Nirmal, Telangana 504106",Eidgoam,"38PQ+VR8, NH 61",Nirmal,504106,Telangana,IN,https://www.google.com/maps/place/Wadoor+baba+dargah/data=!4m7!3m6!1s0x3bcd8d8814bbbc03:0x8605111567a4de7d!8m2!3d19.0872029!4d78.3397263!16s%2Fg%2F11t0pvwm4d!19sChIJA7y7FIiNzTsRfd6kZxURBYY?authuser=0&hl=en&rclk=1,"19.087202899999998,78.3397263"
Jamia Masjid,Mosque,"2943+7Q5 Jamia Masjid, Madapur, Telangana 504105",,2943+7Q5,Madapur,504105,Telangana,IN,https://www.google.com/maps/place/Jamia+Masjid/data=!4m7!3m6!1s0x3bcd9347e1eead8f:0xf2478850e4585955!8m2!3d19.0056265!4d78.3544954!16s%2Fg%2F11gjhlm3w3!19sChIJj63u4UeTzTsRVVlY5FCIR_I?authuser=0&hl=en&rclk=1,"19.005626499999998,78.35449539999999"
Nagar masjid,Mosque,"2462+FF8 Nagar masjid, Nagar, Telangana 504104",,2462+FF8,Nagar,504104,Telangana,IN,https://www.google.com/maps/place/Nagar+masjid/data=!4m7!3m6!1s0x3bcdfb87f4e1ca07:0x97a41421f66a5818!8m2!3d19.010881!4d78.102116!16s%2Fg%2F11jt0w_z_l!19sChIJB8rh9If7zTsRGFhq9iEUpJc?authuser=0&hl=en&rclk=1,"19.010880999999998,78.102116"
Jamia Masjid,Mosque,"X8QP+XCM Jamia Masjid, Pakpatla, Telangana 504105",,X8QP+XCM,Pakpatla,504105,Telangana,IN,https://www.google.com/maps/place/Jamia+Masjid/data=!4m7!3m6!1s0x3bcd93fdbe33a335:0x8d4241faa54b72b7!8m2!3d18.9899607!4d78.3360374!16s%2Fg%2F11f6yvmh09!19sChIJNaMzvv2TzTsRt3JLpfpBQo0?authuser=0&hl=en&rclk=1,"18.989960699999997,78.3360374"
"pedd gutttt deevuddu, dhrmaarN",Mosque,"X3PH+PC pedd gutttt deevuddu, dhrmaarN, VIP ADDA, New Raipur (K), Telangana 504104",,X3PH+PC VIP ADDA,New Raipur (K),504104,Telangana,IN,"https://www.google.com/maps/place/%E0%B0%AA%E0%B1%86%E0%B0%A6%E0%B1%8D%E0%B0%A6+%E0%B0%97%E0%B1%81%E0%B0%9F%E0%B1%8D%E0%B0%9F+%E0%B0%A6%E0%B1%87%E0%B0%B5%E0%B1%81%E0%B0%A1%E0%B1%81,+%E0%B0%A7%E0%B0%B0%E0%B1%8D%E0%B0%AE%E0%B0%BE%E0%B0%B0%E0%B0%82/data=!4m7!3m6!1s0x3bcde5abeb56f289:0xb9041ab83c7f2d55!8m2!3d18.9880077!4d78.07903!16s%2Fg%2F11vj7tb2v9!19sChIJifJW66vlzTsRVS1_PLgaBLk?authuser=0&hl=en&rclk=1","18.9880077,78.07903"
JAMA MASJID DONIGAON,Mosque,"55FQ+XQ JAMA MASJID DONIGAON, Kamkati, Telangana 504306",,55FQ+XQ,Kamkati,,Telangana,IN,https://www.google.com/maps/place/JAMA+MASJID+DONIGAON/data=!4m7!3m6!1s0x3bcdf7f087ac0961:0x2f00dd62ed8835bd!8m2!3d19.174912!4d78.1893461!16s%2Fg%2F11rm__366k!19sChIJYQmsh_D3zTsRvTWI7WLdAC8?authuser=0&hl=en&rclk=1,"19.174912,78.1893461"
Jamiya Masjid,Mosque,"Jamiya Masjid, Panchagudi, Dharmara, Telangana 504104",,,"Panchagudi, Dharmara",504104,Telangana,IN,https://www.google.com/maps/place/Jamiya+Masjid/data=!4m7!3m6!1s0x3bcde5f57d5ce841:0x54a16d15ab8d2131!8m2!3d18.9698223!4d78.0838299!16s%2Fg%2F11g23bk4d8!19sChIJQehcffXlzTsRMSGNqxVtoVQ?authuser=0&hl=en&rclk=1,"18.9698223,78.0838299"
JAMA MASJID msjd jm` jaamaa msiidu,Mosque,"JAMA MASJID msjd jm` jaamaa msiidu, S No 2-6/2, near Gandhi Stachu, Mirdapally, Telangana 503224",,"S No 2-6/2, near Gandhi Stachu","Mirdapally, Alur",503224,Telangana,IN,https://www.google.com/maps/place/JAMA+MASJID+%D9%85%D8%B3%D8%AC%D8%AF+%D8%AC%D8%A7%D9%85%D8%B9+%E0%B0%9C%E0%B0%BE%E0%B0%AE%E0%B0%BE+%E0%B0%AE%E0%B0%B8%E0%B1%80%E0%B0%A6%E0%B1%81%E2%80%AD/data=!4m7!3m6!1s0x3bcdeb310647f853:0xb4e6f980b7b57769!8m2!3d18.828079!4d78.2311491!16s%2Fg%2F11khx0v3t9!19sChIJU_hHBjHrzTsRaXe1t4D55rQ?authuser=0&hl=en&rclk=1,"18.828079,78.2311491"
Jama masjid,Mosque,"Jama masjid, Tondakur, Shahpur, Telangana 503212",,,"Tondakur, Shahpur",503212,Telangana,IN,https://www.google.com/maps/place/Jama+masjid/data=!4m7!3m6!1s0x3bcde9b6689d0d6d:0xd82ac2d148723667!8m2!3d18.9007382!4d78.1827624!16s%2Fg%2F11ty4q1_7p!19sChIJbQ2daLbpzTsRZzZySNHCKtg?authuser=0&hl=en&rclk=1,"18.9007382,78.1827624"
EIDGHA,Mosque,"4437+34C EIDGHA, Arli (Khurd), Telangana 504109",,4437+34C,Arli (Khurd),504109,Telangana,IN,https://www.google.com/maps/place/EIDGHA/data=!4m7!3m6!1s0x3bcdf758c3ab01ed:0x767d10e30bd7d358!8m2!3d19.1026851!4d78.1127769!16s%2Fg%2F11f_zp24v9!19sChIJ7QGrw1j3zTsRWNPXC-MQfXY?authuser=0&hl=en&rclk=1,"19.1026851,78.1127769"
Eid Gah Pendpally,Mosque,"33V5+4J5 Eid Gah Pendpally, Pendapalle, Telangana 504109",,33V5+4J5,Pendapalle,,Telangana,IN,https://www.google.com/maps/place/Eid+Gah+Pendpally/data=!4m7!3m6!1s0x3bcdf96438d2ab65:0x81c7b0a7ae7719bd!8m2!3d19.0927654!4d78.0591246!16s%2Fg%2F11h4s0gw3_!19sChIJZavSOGT5zTsRvRl3rqewx4E?authuser=0&hl=en&rclk=1,"19.092765399999998,78.05912459999999"
Jama masjid manmad,Mosque,"3472+RW6 Jama masjid manmad, Manmad, Telangana 504104",,3472+RW6,Manmad,,Telangana,IN,https://www.google.com/maps/place/Jama+masjid+manmad/data=!4m7!3m6!1s0x3bcdfbf0cc314743:0x7260ab24ad71b5c9!8m2!3d19.0645456!4d78.1022656!16s%2Fg%2F11rvjykm2h!19sChIJQ0cxzPD7zTsRybVxrSSrYHI?authuser=0&hl=en&rclk=1,"19.0645456,78.1022656"
Masjid-e-Taweed,Mosque,"W49M+X9V Masjid-e-Taweed, Ummeda, Telangana 503212",,W49M+X9V,Ummeda,503212,Telangana,IN,https://www.google.com/maps/place/Masjid-e-Taweed/data=!4m7!3m6!1s0x3bcdef84711adc7f:0x8386494f394d9ae7!8m2!3d18.9199843!4d78.1334202!16s%2Fg%2F11f9zdrpmj!19sChIJf9wacYTvzTsR55pNOU9JhoM?authuser=0&hl=en&rclk=1,"18.9199843,78.1334202"
MASJID-E-BADAR-E-OSMAN,Mosque,"39G5+MMQ MASJID-E-BADAR-E-OSMAN, Shanthi Nagar Rd, Shanthinagar, Nirmal, Venkatapur Rural, Telangana 504105",Shanthinagar,"39G5+MMQ, Shanthi Nagar Rd","Nirmal, Venkatapur Rural",504105,Telangana,IN,https://www.google.com/maps/place/MASJID-E-BADAR-E-OSMAN/data=!4m7!3m6!1s0x3bcd8ddf2947d8cf:0xbd62b8ccb8ea1745!8m2!3d19.0767226!4d78.3592358!16s%2Fg%2F11s8wxfjxv!19sChIJz9hHKd-NzTsRRRfquMy4Yr0?authuser=0&hl=en&rclk=1,"19.0767226,78.3592358"
Masjid e Hameeda,Mosque,"482M+GG9 Masjid e Hameeda, BARKATHPURA ROAD, Street No. 1, opposite MASJID E HAMEEDA, Priyadarshini Nagar, Nirmal, Telangana 504106",Priyadarshini Nagar,"482M+GG9, BARKATHPURA ROAD, Street No. 1, opposite MASJID E HAMEEDA",Nirmal,504106,Telangana,IN,https://www.google.com/maps/place/Masjid+e+Hameeda/data=!4m7!3m6!1s0x3bcd8b49775a452f:0x5f7719d97ca6869b!8m2!3d19.1012795!4d78.3338439!16s%2Fg%2F11t508g8hy!19sChIJL0Vad0mLzTsRm4amfNkZd18?authuser=0&hl=en&rclk=1,"19.1012795,78.33384389999999"
Eid-Gah Nirmal,Mosque,"38PQ+7GQ Eid-Gah Nirmal, Adharsha Nagar, Nirmal, Telangana 504106",Adharsha Nagar,38PQ+7GQ,Nirmal,504106,Telangana,IN,https://www.google.com/maps/place/Eid-Gah+Nirmal/data=!4m7!3m6!1s0x3bcd8d90b7d8d435:0x3a2ad0646c5b8835!8m2!3d19.0857081!4d78.3388489!16s%2Fg%2F11ty5vs19m!19sChIJNdTYt5CNzTsRNYhbbGTQKjo?authuser=0&hl=en&rclk=1,"19.085708099999998,78.3388489"
Masjid E Anisa Rehman,Mosque,"38MM+H6W Masjid E Anisa Rehman, Adharsha Nagar, Nirmal, Telangana 504106",Adharsha Nagar,38MM+H6W,Nirmal,504106,Telangana,IN,https://www.google.com/maps/place/Masjid+E+Anisa+Rehman/data=!4m7!3m6!1s0x3bcd8d67f35dca5d:0xb622b1638f92c5fa!8m2!3d19.0839753!4d78.333078!16s%2Fg%2F11ty0pkpxq!19sChIJXcpd82eNzTsR-sWSj2OxIrY?authuser=0&hl=en&rclk=1,"19.0839753,78.333078"
Masjid E Sujath,Mosque,"38XR+3XQ Masjid E Sujath, Priyadarshini Nagar, Nirmal, Telangana 504106",Priyadarshini Nagar,38XR+3XQ,Nirmal,504106,Telangana,IN,https://www.google.com/maps/place/Masjid+E+Sujath/data=!4m7!3m6!1s0x3bcd8d0cdf8db947:0xb940a3d6fcfd8e89!8m2!3d19.097701!4d78.3424829!16s%2Fg%2F11ty07dz60!19sChIJR7mN3wyNzTsRiY79_NajQLk?authuser=0&hl=en&rclk=1,"19.097701,78.3424829"
Masjid e ek qana Ahle sunnat,Mosque,"38XW+734 Masjid e ek qana Ahle sunnat, Chinthakunta Wada, Nirmal, Telangana 504106",Chinthakunta Wada,38XW+734,Nirmal,504106,Telangana,IN,https://www.google.com/maps/place/Masjid+e+ek+qana+Ahle+sunnat/data=!4m7!3m6!1s0x3bcd8d48e5bd11d1:0x50a266eda6fe4bb8!8m2!3d19.0982132!4d78.3452555!16s%2Fg%2F11t5wcvk7p!19sChIJ0RG95UiNzTsRuEv-pu1molA?authuser=0&hl=en&rclk=1,"19.0982132,78.3452555"
Moti Masjid,Mosque,"38VX+Q23 Moti Masjid, Indira Nagar, Nirmal, Telangana 504106",Indira Nagar,38VX+Q23,Nirmal,504106,Telangana,IN,https://www.google.com/maps/place/Moti+Masjid/data=!4m7!3m6!1s0x3bcd8d81de0afe73:0xc3d36cad8b842584!8m2!3d19.094332!4d78.3485079!16s%2Fg%2F11tdc428l8!19sChIJc_4K3oGNzTsRhCWEi61s08M?authuser=0&hl=en&rclk=1,"19.094331999999998,78.3485079"
Syed Anwar Hussain villa (house),Mosque,"38WX+V72 Syed Anwar Hussain villa (house), Bagulwada, Nirmal, Telangana 504106",Bagulwada,38WX+V72,Nirmal,504106,Telangana,IN,https://www.google.com/maps/place/Syed+Anwar+Hussain+villa+%28house%29/data=!4m7!3m6!1s0x3bcd8d59b24e7ea7:0x761d2da4070c8e2e!8m2!3d19.0971408!4d78.3481407!16s%2Fg%2F11v3mghvfr!19sChIJp35OslmNzTsRLo4MB6QtHXY?authuser=0&hl=en&rclk=1,"19.0971408,78.3481407"
Muslim Grave Yard,Mosque,"48HP+C49 Muslim Grave Yard, Nirmal Rd, Telangana 504106",,"48HP+C49, Nirmal Rd",,504106,Telangana,IN,https://www.google.com/maps/place/Muslim+Grave+Yard/data=!4m7!3m6!1s0x3bcd8bd971e07cef:0x53003ac4c82628a3!8m2!3d19.1285475!4d78.3353687!16s%2Fg%2F11s0wn1j3y!19sChIJ73zgcdmLzTsRoygmyMQ6AFM?authuser=0&hl=en&rclk=1,"19.1285475,78.33536869999999"
Mosque,Mosque,"54G3+83C Mosque, Unnamed Road, Kuntala, Telangana 504109",,"54G3+83C, Unnamed Road",Kuntala,504109,Telangana,IN,https://www.google.com/maps/place/Mosque/data=!4m7!3m6!1s0x3bcdf9d025e5219f:0x95288131dbc628f8!8m2!3d19.1758173!4d78.1026331!16s%2Fg%2F11nn534w_k!19sChIJnyHlJdD5zTsR-CjG2zGBKJU?authuser=0&hl=en&rclk=1,"19.1758173,78.10263309999999"
Masjid,Mosque,"37QX+CWH Masjid, Chityal Koutla Rd, Chityal, Telangana 504306",,"37QX+CWH, Chityal Koutla Rd",Chityal,504306,Telangana,IN,https://www.google.com/maps/place/Masjid/data=!4m7!3m6!1s0x3bcd8d133b6eb16b:0xefb97d0ff8dfe02!8m2!3d19.0885683!4d78.2998646!16s%2Fg%2F11ngpmn7g8!19sChIJa7FuOxONzTsRAv6N_9CX-w4?authuser=0&hl=en&rclk=1,"19.0885683,78.29986459999999"
budhwarpet,Mosque,"483X+455 budhwarpet, Besthawar Pet, Brahmapuri, Nirmal, Telangana 504106","Besthawar Pet, Brahmapuri",483X+455,Nirmal,504106,Telangana,IN,https://www.google.com/maps/place/budhwarpet/data=!4m7!3m6!1s0x3bcd8bfb66f83783:0x717d61d1e9109098!8m2!3d19.1027657!4d78.3479759!16s%2Fg%2F11q4d6wx1y!19sChIJgzf4ZvuLzTsRmJAQ6dFhfXE?authuser=0&hl=en&rclk=1,"19.1027657,78.3479759"
smshaanvaattik,Mosque,"539X+CCJ smshaanvaattik, adilaabaadu, Telangana 504109",,539X+CCJ,adilaabaadu,504109,Telangana,IN,https://www.google.com/maps/place/%E0%B0%B8%E0%B1%8D%E0%B0%AE%E0%B0%B6%E0%B0%BE%E0%B0%A8%E0%B0%B5%E0%B0%BE%E0%B0%9F%E0%B0%BF%E0%B0%95/data=!4m7!3m6!1s0x3bcdf97b97a183ab:0xe00cb011d279594d!8m2!3d19.1682263!4d78.0990057!16s%2Fg%2F11v5bbbfvm!19sChIJq4Ohl3v5zTsRTVl50hGwDOA?authuser=0&hl=en&rclk=1,"19.1682263,78.09900569999999"
Chowk Masjid,Mosque,"484W+JHJ Chowk Masjid, Budhwarpet, Nirmal, Telangana 504106",Budhwarpet,484W+JHJ,Nirmal,504106,Telangana,IN,https://www.google.com/maps/place/Chowk+Masjid/data=!4m7!3m6!1s0x3bcd8b869a815555:0x72db1297ad447e04!8m2!3d19.1065965!4d78.3463755!16s%2Fg%2F11tgg7ngf0!19sChIJVVWBmoaLzTsRBH5ErZcS23I?authuser=0&hl=en&rclk=1,"19.1065965,78.3463755"
Masjid E Noor,Mosque,"39C3+79P Masjid E Noor, Venkatapur Rural, Telangana 504105",,39C3+79P,Venkatapur Rural,504105,Telangana,IN,https://www.google.com/maps/place/Masjid+E+Noor/data=!4m7!3m6!1s0x3bcd8ddcb5d9d5cf:0xd152c6f472fdfbfa!8m2!3d19.0707081!4d78.3534421!16s%2Fg%2F11hv9slfb2!19sChIJz9XZtdyNzTsR-vv9cvTGUtE?authuser=0&hl=en&rclk=1,"19.070708099999997,78.3534421"
Sofiya Mosque,Mosque,"38CX+3Q8 Sofiya Mosque, Hiderabad, Road, Nirmal, Telangana 504105",,"38CX+3Q8, Hiderabad, Road","Nirmal, Venkatapur Rural",504105,Telangana,IN,https://www.google.com/maps/place/Sofiya+Mosque/data=!4m7!3m6!1s0x3bcd8dc385d7e307:0xccf929d1913274a5!8m2!3d19.0701694!4d78.3494416!16s%2Fg%2F11f5q881pr!19sChIJB-PXhcONzTsRpXQykdEp-cw?authuser=0&hl=en&rclk=1,"19.070169399999997,78.34944159999999"
Jama Maszid Gadchanda,Mosque,"245G+97V Jama Maszid Gadchanda, Unnamed Road, Gadchanda, Telangana 504104",,"245G+97V, Unnamed Road",Gadchanda,504104,Telangana,IN,https://www.google.com/maps/place/Jama+Maszid+Gadchanda/data=!4m7!3m6!1s0x3bcdf11ee4eaa0b3:0x5074c88c16549bd7!8m2!3d19.0084902!4d78.1256743!16s%2Fg%2F11flc1zb5k!19sChIJs6Dq5B7xzTsR15tUFozIdFA?authuser=0&hl=en&rclk=1,"19.0084902,78.1256743"
Eidgah Maidan,Mosque,"39G3+P6C Eidgah Maidan, Nirmal, Telangana 504105",,39G3+P6C,Nirmal,,Telangana,IN,https://www.google.com/maps/place/Eidgah+Maidan/data=!4m7!3m6!1s0x3bcd8de5e110d739:0xb7d80a9010e9a235!8m2!3d19.0768086!4d78.3530287!16s%2Fg%2F11ssvf7y9z!19sChIJOdcQ4eWNzTsRNaLpEJAK2Lc?authuser=0&hl=en&rclk=1,"19.0768086,78.3530287"
Jama Masjid Limba,Mosque,"523V+7F2 Jama Masjid Limba, Limba Khurd, Telangana 504109",,523V+7F2,Limba Khurd,504109,Telangana,IN,https://www.google.com/maps/place/Jama+Masjid+Limba/data=!4m7!3m6!1s0x3bcdf91c30be5c01:0x41b0942c84df9744!8m2!3d19.1531407!4d78.0436445!16s%2Fg%2F11v9z80ywd!19sChIJAVy-MBz5zTsRRJffhCyUsEE?authuser=0&hl=en&rclk=1,"19.153140699999998,78.0436445"
Dulha masjid,Mosque,"4X76+QPR Dulha masjid, Bhainsa, Telangana 504103",,4X76+QPR,Bhainsa,504103,Telangana,IN,https://www.google.com/maps/place/Dulha+masjid/data=!4m7!3m6!1s0x3bcdff11036a7bc1:0x2af6a0e9a007d28e!8m2!3d19.1144859!4d77.9617514!16s%2Fg%2F11pzpf_hcw!19sChIJwXtqAxH_zTsRjtIHoOmg9io?authuser=0&hl=en&rclk=1,"19.1144859,77.9617514"
Masjid E Madeena,Mosque,"3XX8+XMW Masjid E Madeena, Vinayak Nagar, Bhainsa, Telangana 504103",Vinayak Nagar,3XX8+XMW,Bhainsa,504103,Telangana,IN,https://www.google.com/maps/place/Masjid+E+Madeena/data=!4m7!3m6!1s0x3bcdfe67609b6a17:0xd10b98fe9ebd9b74!8m2!3d19.1!4d77.9667!16s%2Fg%2F11b7tns2dg!19sChIJF2qbYGf-zTsRdJu9nv6YC9E?authuser=0&hl=en&rclk=1,"19.099999999999998,77.9667"
Jama Masjid,Mosque,"24MG+M6H Jama Masjid, Rajura, Telangana 504104",,24MG+M6H,Rajura,504104,Telangana,IN,https://www.google.com/maps/place/Jama+Masjid/data=!4m7!3m6!1s0x3bcdf16c0271a325:0x36c8259feb23b1f8!8m2!3d19.0341967!4d78.125624!16s%2Fg%2F11sh79cpjj!19sChIJJaNxAmzxzTsR-LEj658lyDY?authuser=0&hl=en&rclk=1,"19.0341967,78.125624"
Boregaon masjid,Mosque,"575J+M85 Boregaon masjid, Rd, Boragaon, Boregaon, Telangana 504110",,"575J+M85, Rd","Boragaon, Boregaon",504110,Telangana,IN,https://www.google.com/maps/place/Boregaon+masjid/data=!4m7!3m6!1s0x3bcdf5a37f0f4a77:0xa7ed0f87592cc9dd!8m2!3d19.1591431!4d78.2808539!16s%2Fg%2F11nfw3wdvw!19sChIJd0oPf6P1zTsR3cksWYcP7ac?authuser=0&hl=en&rclk=1,"19.159143099999998,78.2808539"
DARGAAH HAZRAT MEER SHAA RAHMATULAH,Mosque,"489C+M7Q DARGAAH HAZRAT MEER SHAA RAHMATULAH, Vengwapet, Telangana 504106",,489C+M7Q,Vengwapet,,Telangana,IN,https://www.google.com/maps/place/DARGAAH+HAZRAT+MEER+SHAA+RAHMATULAH/data=!4m7!3m6!1s0x3bcd8be72bd4ef79:0x3dd9bbdb24acd742!8m2!3d19.1192122!4d78.3207473!16s%2Fg%2F11spxhygyw!19sChIJee_UK-eLzTsRQtesJNu72T0?authuser=0&hl=en&rclk=1,"19.1192122,78.3207473"
Madeena masjid,Mosque,"52C6+V34 Madeena masjid, Chintalabori, Telangana 504103",,52C6+V34,Chintalabori,,Telangana,IN,https://www.google.com/maps/place/Madeena+masjid/data=!4m7!3m6!1s0x3bcdffe967e8faaf:0xe0043d36fece529!8m2!3d19.1722582!4d78.0101075!16s%2Fg%2F11lgkmzqrf!19sChIJr_roZ-n_zTsRKeXsb9NDAA4?authuser=0&hl=en&rclk=1,"19.172258199999998,78.01010749999999"
Masjid e noor banu,Mosque,"4298+7M3 Masjid e noor banu, Ekgaon, Telangana 504103",,4298+7M3,Ekgaon,504103,Telangana,IN,https://www.google.com/maps/place/Masjid+e+noor+banu/data=!4m7!3m6!1s0x3bcdff742aedeb0d:0x1cc2047094df4e93!8m2!3d19.1181434!4d78.0166847!16s%2Fg%2F11h6443h1y!19sChIJDevtKnT_zTsRk07flHAEwhw?authuser=0&hl=en&rclk=1,"19.118143399999997,78.0166847"
Majid e abubakar,Mosque,"4X68+H97 Majid e abubakar, New Abadi, Bhainsa, Telangana 504103",New Abadi,4X68+H97,Bhainsa,504103,Telangana,IN,https://www.google.com/maps/place/Majid+e+abubakar/data=!4m7!3m6!1s0x3bcdff58c1da7aab:0x219623bea3a45cb3!8m2!3d19.1113411!4d77.9659192!16s%2Fg%2F11sz2t10vn!19sChIJq3rawVj_zTsRs1yko74jliE?authuser=0&hl=en&rclk=1,"19.1113411,77.9659192"
Jama masijid,Mosque,"X4GH+G53 Jama masijid, Pipri, Telangana 504104",,X4GH+G53,Pipri,504104,Telangana,IN,https://www.google.com/maps/place/Jama+masijid/data=!4m7!3m6!1s0x3bcdefbf1ef8ccff:0x33ae37cb52dc7205!8m2!3d18.9762572!4d78.1279359!16s%2Fg%2F11rn4j23nd!19sChIJ_8z4Hr_vzTsRBXLcUss3rjM?authuser=0&hl=en&rclk=1,"18.9762572,78.1279359"
Gulzar Masjid,Mosque,"X8HG+VPJ Gulzar Masjid, Old Pochampad, Telangana 504105",,X8HG+VPJ,Old Pochampad,504105,Telangana,IN,https://www.google.com/maps/place/Gulzar+Masjid/data=!4m7!3m6!1s0x3bcd93d9a247858f:0x83eadf95473c0f39!8m2!3d18.9797089!4d78.3267702!16s%2Fg%2F11f6pqq_6r!19sChIJj4VHotmTzTsROQ88R5Xf6oM?authuser=0&hl=en&rclk=1,"18.9797089,78.3267702"
Raithufaram Jama masjid,Mosque,"R4RV+H45 Raithufaram Jama masjid, Ailapur, Gunjali, Telangana 503213",,R4RV+H45,"Ailapur, Gunjali",,Telangana,IN,https://www.google.com/maps/place/Raithufaram+Jama+masjid/data=!4m7!3m6!1s0x3bcde93d4b7e0f1d:0xe576038eba38fa5d!8m2!3d18.8413929!4d78.1428718!16s%2Fg%2F11kjhhhps4!19sChIJHQ9-Sz3pzTsRXfo4uo4DduU?authuser=0&hl=en&rclk=1,"18.8413929,78.1428718"
