name,main_category,address,address_ward,address_street,address_city,address_postal_code,address_state,address_country_code,link,coordinates
Jama Masjid Kapadwanj,Mosque,"Jama Masjid Kapadwanj, Holi Chakla, Kapadvanj, Gujarat 387620",Holi Chakla,,Kapadvanj,,Gujarat,IN,https://www.google.com/maps/place/Jama+Masjid+Kapadwanj/data=!4m7!3m6!1s0x395e72a0b1e5df9b:0x7a04c1374fb53bf0!8m2!3d23.0264992!4d73.0696043!16s%2Fg%2F1tf194ch!19sChIJm9_lsaByXjkR8Du1TzfBBHo?authuser=0&hl=en&rclk=1,"23.0264992,73.0696043"
Kadia Ni Masjid,Mosque,"23GC+95P Kadia Ni Masjid, SH 141, Holi Chakla, Kapadvanj, Gujarat 387620",Holi Chakla,"23GC+95P, SH 141",Kapadvanj,387620,Gujarat,IN,https://www.google.com/maps/place/Kadia+Ni+Masjid/data=!4m7!3m6!1s0x395e72a75671d2b5:0x8b407307ecd0ae5c!8m2!3d23.0259561!4d73.0704546!16s%2Fg%2F1ts3jm2l!19sChIJtdJxVqdyXjkRXK7Q7AdzQIs?authuser=0&hl=en&rclk=1,"23.0259561,73.07045459999999"
Madina Masjid,Mosque,"23F8+VG7 Madina Masjid, NH 59, Madhuvan Park Society, Kapadvanj, Gujarat 387620",Madhuvan Park Society,"23F8+VG7, NH 59",Kapadvanj,387620,Gujarat,IN,https://www.google.com/maps/place/Madina+Masjid/data=!4m7!3m6!1s0x395e6d5f9aaa1ca3:0x4cfd17fc1ec36315!8m2!3d23.0246635!4d73.0662964!16s%2Fg%2F12hmlbjvl!19sChIJoxyqml9tXjkRFWPDHvwX_Uw?authuser=0&hl=en&rclk=1,"23.0246635,73.0662964"
Burhani Masjid Kapadwanj,Mosque,"23FF+664 Burhani Masjid Kapadwanj, Moti, Voharwad, Kapadvanj, Gujarat 387620","Lambi Sheri, Voharwad, Dholi kui","23FF+664, Moti",Kapadvanj,387620,Gujarat,IN,https://www.google.com/maps/place/Burhani+Masjid+Kapadwanj/data=!4m7!3m6!1s0x395e6d59aa67e471:0x179169747d256d9b!8m2!3d23.0230161!4d73.0730815!16s%2Fg%2F11c31spc6j!19sChIJceRnqlltXjkRm20lfXRpkRc?authuser=0&hl=en&rclk=1,"23.0230161,73.0730815"
Ezzi Masjid Meena bazar Kapadwanj,Mosque,"23C9+G23 Ezzi Masjid Meena bazar Kapadwanj, Dholi kui, Kapadvanj, Gujarat 387620",Dholi kui,23C9+G23,Kapadvanj,387620,Gujarat,IN,https://www.google.com/maps/place/Ezzi+Masjid+Meena+bazar+Kapadwanj/data=!4m7!3m6!1s0x395e6d5ef33f3205:0x8f4dd04d970cacc6!8m2!3d23.0212564!4d73.067551!16s%2Fg%2F11c31wl2kg!19sChIJBTI_815tXjkRxqwMl03QTY8?authuser=0&hl=en&rclk=1,"23.0212564,73.067551"
Ghanchiwada Masjid,Mosque,"Ghanchiwada Masjid, Near Ghanchiwada, Mahammad Ali Chowk Road, Kuber Nagar Society, Kapadvanj, Gujarat 387620",Kuber Nagar Society,"Near Ghanchiwada, Mahammad Ali Chowk Road",Kapadvanj,387620,Gujarat,IN,https://www.google.com/maps/place/Ghanchiwada+Masjid/data=!4m7!3m6!1s0x395e72a0ca676c41:0x8d1f0167e67972fb!8m2!3d23.0200163!4d73.0700421!16s%2Fg%2F12hvmbk6b!19sChIJQWxnyqByXjkR-3J55mcBH40?authuser=0&hl=en&rclk=1,"23.020016299999998,73.0700421"
Husami Masjid (Shaikhpura ni Masjid) Kapadwanj,Mosque,"Husami Masjid (Shaikhpura ni Masjid) Kapadwanj, 387620, Lambi Sheri, Dholi kui, Kapadvanj, Gujarat 387620","Lambi Sheri, Dholi kui",387620,Kapadvanj,387620,Gujarat,IN,https://www.google.com/maps/place/Husami+Masjid+%28Shaikhpura+ni+Masjid%29+Kapadwanj/data=!4m7!3m6!1s0x395e6d59c5f73e97:0x597d1040cb39e148!8m2!3d23.0226936!4d73.074891!16s%2Fg%2F11c6db4y_l!19sChIJlz73xVltXjkRSOE5y0AQfVk?authuser=0&hl=en&rclk=1,"23.0226936,73.074891"
Aayesha Masjid,Mosque,"23G9+CHX Aayesha Masjid, Holi Chakla, Kapadvanj, Gujarat 387620",Holi Chakla,23G9+CHX,Kapadvanj,387620,Gujarat,IN,https://www.google.com/maps/place/Aayesha+Masjid/data=!4m7!3m6!1s0x395e72a0a4720923:0x2703305bc48b9ed!8m2!3d23.0261191!4d73.0689778!16s%2Fg%2F11dztsbg21!19sChIJIwlypKByXjkR7blIvAUzcAI?authuser=0&hl=en&rclk=1,"23.0261191,73.0689778"
Zainee Masjid Kapadwanj,Mosque,"Zainee Masjid Kapadwanj, 387620, Lambi Sheri, Dholi kui, Kapadvanj, Gujarat 387620","Lambi Sheri, Dholi kui",387620,Kapadvanj,387620,Gujarat,IN,https://www.google.com/maps/place/Zainee+Masjid+Kapadwanj/data=!4m7!3m6!1s0x395e6d58571a26e7:0x4a5dcfe21ad6e5ee!8m2!3d23.0238313!4d73.0732461!16s%2Fg%2F11g69zn3ys!19sChIJ5yYaV1htXjkR7uXWGuLPXUo?authuser=0&hl=en&rclk=1,"23.023831299999998,73.07324609999999"
Kasba Mosque,Mosque,"23GC+C5X Kasba Mosque, Kapad Bazaar, Holi Chakla, Kapadvanj, Gujarat 387620",Holi Chakla,"23GC+C5X, Kapad Bazaar",Kapadvanj,387620,Gujarat,IN,https://www.google.com/maps/place/Kasba+Mosque/data=!4m7!3m6!1s0x395e72a756cf04cf:0xf61d99e3b757f08d!8m2!3d23.0261141!4d73.0704895!16s%2Fg%2F11b73jpg_7!19sChIJzwTPVqdyXjkRjfBXt-OZHfY?authuser=0&hl=en&rclk=1,"23.026114099999997,73.0704895"
mosque Ali Masjid,Mosque,"239C+H35 mosque Ali Masjid, Kuber Nagar Society, Kapadvanj, Gujarat 387620",Kuber Nagar Society,239C+H35,Kapadvanj,387620,Gujarat,IN,https://www.google.com/maps/place/mosque+Ali+Masjid/data=!4m7!3m6!1s0x395e6d5bf433a449:0xa75e0fcad0a1eb29!8m2!3d23.018896!4d73.07024!16s%2Fg%2F124yh3fdv!19sChIJSaQz9FttXjkRKeuh0MoPXqc?authuser=0&hl=en&rclk=1,"23.018895999999998,73.07024"
Nagina Masjid,Mosque,"23G9+76G Nagina Masjid, Nagina Masjid, Near Royal, Nadi Darwaja Road, Kapadvanj, Gujarat 387620",Holi Chakla,"23G9+76G, Nagina Masjid, Near Royal, Nadi Darwaja Road",Kapadvanj,387620,Gujarat,IN,https://www.google.com/maps/place/Nagina+Masjid/data=!4m7!3m6!1s0x395e72a09e0cefe7:0x71cbc5940c2be6e0!8m2!3d23.0256767!4d73.0680845!16s%2Fg%2F11df9zgq0r!19sChIJ5-8MnqByXjkR4OYrDJTFy3E?authuser=0&hl=en&rclk=1,"23.025676699999998,73.0680845"
Makki Masjid,Mosque,"23HC+928 Makki Masjid, Holi Chakla, Kapadvanj, Gujarat 387620",Holi Chakla,23HC+928,Kapadvanj,387620,Gujarat,IN,https://www.google.com/maps/place/Makki+Masjid/data=!4m7!3m6!1s0x395e72a72b3fd21d:0xeae8396f1ad7d6d9!8m2!3d23.0284135!4d73.0700664!16s%2Fg%2F11csqsyqkh!19sChIJHdI_K6dyXjkR2dbXGm856Oo?authuser=0&hl=en&rclk=1,"23.0284135,73.0700664"
"Kasba Masjid,Antisar Get, Kapadvanj",Mosque,"Kasba Masjid,Antisar Get, Kapadvanj, Kasba masjid, Antisar get, Islampura, Dholi kui, Kapadvanj, Gujarat 387620","Islampura, Dholi kui","Kasba masjid, Antisar get",Kapadvanj,387620,Gujarat,IN,"https://www.google.com/maps/place/Kasba+Masjid,Antisar+Get,+Kapadvanj/data=!4m7!3m6!1s0x395e6d588721dcf7:0x3d342bb25595c415!8m2!3d23.0256516!4d73.0727856!16s%2Fg%2F11hbfk78zx!19sChIJ99whh1htXjkRFcSVVbIrND0?authuser=0&hl=en&rclk=1","23.0256516,73.0727856"
Islampura Masjid,Mosque,"23CF+R8P Islampura Masjid, Islampura, Masjid, Karkhaniawad, Moti Vhorwad, Kapadvanj, Gujarat 387620","Islampura, Masjid, Karkhaniawad, Moti Vhorwad",23CF+R8P,Kapadvanj,387620,Gujarat,IN,https://www.google.com/maps/place/Islampura+Masjid/data=!4m7!3m6!1s0x395e6d59a1662a01:0xb2d087984c95df1b!8m2!3d23.0220755!4d73.0733162!16s%2Fg%2F11gdp_0h1y!19sChIJASpmoVltXjkRG9-VTJiH0LI?authuser=0&hl=en&rclk=1,"23.0220755,73.0733162"
Masjid- E - Kubra,Mosque,"23G6+WVG Masjid- E - Kubra, Kapadvanj, Gujarat 387620",,23G6+WVG,Kapadvanj,387620,Gujarat,IN,https://www.google.com/maps/place/Masjid-+E+-+Kubra/data=!4m7!3m6!1s0x395e729fa45e071b:0xa6ca3dcc2cb89b57!8m2!3d23.0273032!4d73.0621996!16s%2Fg%2F11csqkqy9z!19sChIJGwdepJ9yXjkRV5u4LMw9yqY?authuser=0&hl=en&rclk=1,"23.0273032,73.0621996"
Kasba Mosque,Mosque,"23GC+5XC Kasba Mosque, Kasba St, Lambi Sheri, Vivekanand Wadi, Anand, Kapadvanj, Gujarat 388001","Lambi Sheri, Vivekanand Wadi","23GC+5XC, Kasba St","Anand, Kapadvanj",388001,Gujarat,IN,https://www.google.com/maps/place/Kasba+Mosque/data=!4m7!3m6!1s0x395e6d587d1a24b5:0xd98f66ba9130f74a!8m2!3d23.0254455!4d73.0723781!16s%2Fg%2F11f3vb2sc_!19sChIJtSQafVhtXjkRSvcwkbpmj9k?authuser=0&hl=en&rclk=1,"23.0254455,73.0723781"
Hazrat Kalu Sahid Bava Masjid,Mosque,"23C9+65P Hazrat Kalu Sahid Bava Masjid, Kuber Nagar Society, Kapadvanj, Gujarat 387620",Kuber Nagar Society,23C9+65P,Kapadvanj,387620,Gujarat,IN,https://www.google.com/maps/place/Hazrat+Kalu+Sahid+Bava+Masjid/data=!4m7!3m6!1s0x395e6dfb08c30269:0x5ed6f5be390657a2!8m2!3d23.0205985!4d73.067952!16s%2Fg%2F11n_xt433g!19sChIJaQLDCPttXjkRolcGOb711l4?authuser=0&hl=en&rclk=1,"23.0205985,73.06795199999999"
Bilal Masjid,Mosque,"23HC+H3C Bilal Masjid, Motipura, Kapadvanj, Gujarat 387620",Motipura,23HC+H3C,Kapadvanj,387620,Gujarat,IN,https://www.google.com/maps/place/Bilal+Masjid/data=!4m7!3m6!1s0x395e72a6d4590007:0x7e712c7aa0622e10!8m2!3d23.0289263!4d73.0701451!16s%2Fg%2F11f4r3m_6k!19sChIJBwBZ1KZyXjkREC5ioHoscX4?authuser=0&hl=en&rclk=1,"23.0289263,73.07014509999999"
Nani Masjid,Mosque,"Nani Masjid, Dholi kui, Kapadvanj, Gujarat 387620",Dholi kui,,Kapadvanj,,Gujarat,IN,https://www.google.com/maps/place/Nani+Masjid/data=!4m7!3m6!1s0x395e6d5f5f22a45f:0x495e7f10018a627f!8m2!3d23.0255167!4d73.0688453!16s%2Fg%2F1tdk8gj3!19sChIJX6QiX19tXjkRf2KKARB_Xkk?authuser=0&hl=en&rclk=1,"23.0255167,73.06884529999999"
Masjid E Yusuf msjiid e yausuph,Mosque,"Masjid E Yusuf msjiid e yausuph, Asfak Society, Kapadvanj, Gujarat 387620",Asfak Society,,Kapadvanj,387620,Gujarat,IN,https://www.google.com/maps/place/Masjid+E+Yusuf+%E0%AA%AE%E0%AA%B8%E0%AB%8D%E0%AA%9C%E0%AB%80%E0%AA%A6+%E0%AA%8F+%E0%AA%AF%E0%AB%81%E0%AA%B8%E0%AB%81%E0%AA%AB/data=!4m7!3m6!1s0x395e736ac9e7ba83:0xc547e9c09777e188!8m2!3d23.0306332!4d73.0671106!16s%2Fg%2F11rjv24yl7!19sChIJg7rnyWpzXjkRiOF3l8DpR8U?authuser=0&hl=en&rclk=1,"23.0306332,73.06711059999999"
Badshah bava,Mosque,"Badshah bava, Jama Masjid, Police Kacheri, Holi Chakla, Kapadvanj, Gujarat 387620",Holi Chakla,"Jama Masjid, Police Kacheri",Kapadvanj,387620,Gujarat,IN,https://www.google.com/maps/place/Badshah+bava/data=!4m7!3m6!1s0x395e73ece4ebc911:0xa4096b6993348462!8m2!3d23.0266148!4d73.0695017!16s%2Fg%2F11q1sb94yv!19sChIJEcnr5OxzXjkRYoQ0k2lrCaQ?authuser=0&hl=en&rclk=1,"23.026614799999997,73.0695017"
Masjid e Fatima,Mosque,"23C6+MMP Masjid e Fatima, Kapadvanj, Gujarat 387620",,23C6+MMP,Kapadvanj,387620,Gujarat,IN,https://www.google.com/maps/place/Masjid+e+Fatima/data=!4m7!3m6!1s0x395e6d7d5941607b:0xfb1bd96794406ec9!8m2!3d23.0216875!4d73.0616875!16s%2Fg%2F11t2rzrv1b!19sChIJe2BBWX1tXjkRyW5AlGfZG_s?authuser=0&hl=en&rclk=1,"23.0216875,73.06168749999999"
Nagina Masjid Sunni,Mosque,"23F8+28V Nagina Masjid Sunni, nadi darwaza, Kapadvanj, Gujarat 387620",nadi darwaza,23F8+28V,Kapadvanj,387620,Gujarat,IN,https://www.google.com/maps/place/Nagina+Masjid+Sunni/data=!4m7!3m6!1s0x395e6ddbd5c0648b:0x22c3f70286ee9f08!8m2!3d23.0226146!4d73.0658097!16s%2Fg%2F11fb0p5rh5!19sChIJi2TA1dttXjkRCJ_uhgL3wyI?authuser=0&hl=en&rclk=1,"23.0226146,73.0658097"
Jama Masjid Lal Mandva,Mosque,"23CC+222 Jama Masjid Lal Mandva, Kuber Nagar Society, Lal Mandva, Kapadvanj, Gujarat 387620",Kuber Nagar Society,23CC+222,"Lal Mandva, Kapadvanj",,Gujarat,IN,https://www.google.com/maps/place/Jama+Masjid+Lal+Mandva/data=!4m7!3m6!1s0x395e6dc869d16e47:0x209b8b67124a857a!8m2!3d23.0200216!4d73.0700089!16s%2Fg%2F11f7r49_p1!19sChIJR27RachtXjkReoVKEmeLmyA?authuser=0&hl=en&rclk=1,"23.0200216,73.07000889999999"
Sarkar lalsha bava,Mosque,"Sarkar lalsha bava, 1654, Holi Chakla, Kapadvanj, Gujarat 387620",Holi Chakla,1654,Kapadvanj,387620,Gujarat,IN,https://www.google.com/maps/place/Sarkar+lalsha+bava/data=!4m7!3m6!1s0x395e73e9d6605c05:0xcd8d4cea5152bb7a!8m2!3d23.0295475!4d73.0723641!16s%2Fg%2F11py6fccfh!19sChIJBVxg1ulzXjkRertSUepMjc0?authuser=0&hl=en&rclk=1,"23.0295475,73.0723641"
Aamli Masjid,Mosque,"23H8+PWG Aamli Masjid, Asfak Society, Kapadvanj, Gujarat 387620",Asfak Society,23H8+PWG,Kapadvanj,387620,Gujarat,IN,https://www.google.com/maps/place/Aamli+Masjid/data=!4m7!3m6!1s0x395e72a1090fffff:0x6fc2ecee08f7f421!8m2!3d23.0293208!4d73.0673214!16s%2Fg%2F11sscs4k53!19sChIJ__8PCaFyXjkRIfT3CO7swm8?authuser=0&hl=en&rclk=1,"23.0293208,73.0673214"
Masjid e Aqsha,Mosque,"23HF+HG4 Masjid e Aqsha, Holi Chakla, Kapadvanj, Gujarat 387620",Holi Chakla,23HF+HG4,Kapadvanj,387620,Gujarat,IN,https://www.google.com/maps/place/Masjid+e+Aqsha/data=!4m7!3m6!1s0x395e734f94999b13:0x784f93c8450926f9!8m2!3d23.0288837!4d73.0738147!16s%2Fg%2F11sc3j0rc2!19sChIJE5uZlE9zXjkR-SYJRciTT3g?authuser=0&hl=en&rclk=1,"23.028883699999998,73.0738147"
EID GAAH (Kapadvanj),Mosque,"23M6+GJV EID GAAH (Kapadvanj), Kapadvanj, Sultanpur Road, Sultanpur, Gujarat 387620",,"23M6+GJV, Kapadvanj, Sultanpur Road",Sultanpur,387620,Gujarat,IN,https://www.google.com/maps/place/EID+GAAH+%28Kapadvanj%29/data=!4m7!3m6!1s0x395e73203edcd651:0x6ae41e998a83e45b!8m2!3d23.0338665!4d73.0615493!16s%2Fg%2F11j030wzy3!19sChIJUdbcPiBzXjkRW-SDipke5Go?authuser=0&hl=en&rclk=1,"23.0338665,73.0615493"
