name,main_category,address,address_ward,address_street,address_city,address_postal_code,address_state,address_country_code,link,coordinates
Lal Masjid msjd ll,Mosque,"V3M3+GG5 Lal Masjid msjd ll, Kanwari Ganj Road (SH- 22A), Arya nagar, Hira Nagar, Jalalpur, Aligarh, Uttar Pradesh 202001","Arya nagar, Hira Nagar, Jalalpur","V3M3+GG5, Kanwari Ganj Road (SH- 22A)",Aligarh,202001,Uttar Pradesh,IN,https://www.google.com/maps/place/Lal+Masjid+%D9%85%D8%B3%D8%AC%D8%AF+%D9%84%D8%A7%D9%84%E2%80%AD/data=!4m7!3m6!1s0x3974a465585c9bb9:0x766fc326dfb8157a!8m2!3d27.8837731!4d78.0538561!16s%2Fg%2F1pyqhr0tk!19sChIJuZtcWGWkdDkRehW43ybDb3Y?authuser=0&hl=en&rclk=1,"27.8837731,78.05385609999999"
Jama Masjid,Mosque,"8P8R+425 Jama Masjid, Urdu Bazaar, Jalalpur, Uttar Pradesh 224149",Urdu Bazaar,8P8R+425,Jalalpur,,Uttar Pradesh,IN,https://www.google.com/maps/place/Jama+Masjid/data=!4m7!3m6!1s0x3990f9e47ff5a07b:0xb7b2749e091fbf80!8m2!3d26.3152606!4d82.7401145!16s%2Fg%2F11b6mh0n3g!19sChIJe6D1f-T5kDkRgL8fCZ50src?authuser=0&hl=en&rclk=1,"26.3152606,82.74011449999999"
Firdous Masjid,Mosque,"QFGV+6Q7 Firdous Masjid, Jalalpur Rd, opposite Taj Palace, Ward Number 3, Muradnagar, Uttar Pradesh 201206",Ward Number 3,"QFGV+6Q7, Jalalpur Rd, opposite Taj Palace",Muradnagar,201206,Uttar Pradesh,IN,https://www.google.com/maps/place/Firdous+Masjid/data=!4m7!3m6!1s0x390cf447e0550187:0x82c760f4afcb53a0!8m2!3d28.775532!4d77.4944305!16s%2Fg%2F11c1v33v7h!19sChIJhwFV4Ef0DDkRoFPLr_Rgx4I?authuser=0&hl=en&rclk=1,"28.775532,77.49443049999999"
Masjid msjd,Mosque,"MPH2+H95 Masjid msjd, Kamalpur, Uttar Pradesh 245101",,MPH2+H95,Kamalpur,,Uttar Pradesh,IN,https://www.google.com/maps/place/Masjid+%D9%85%D8%B3%D8%AC%D8%AF%E2%80%AD/data=!4m7!3m6!1s0x390c8fd295a51ab9:0xead818ffa4f8f955!8m2!3d28.6788848!4d77.7009763!16s%2Fg%2F11hcj1zm8s!19sChIJuRqlldKPDDkRVfn4pP8Y2Oo?authuser=0&hl=en&rclk=1,"28.6788848,77.7009763"
Jalalpur Masjid,Mosque,"VRFF+RWF Jalalpur Masjid, Jalalpur, Bihar 841415",,VRFF+RWF,Jalalpur,841415,Bihar,IN,https://www.google.com/maps/place/Jalalpur+Masjid/data=!4m7!3m6!1s0x3992b723fb7c36cd:0xf1348e4608d114de!8m2!3d25.8745512!4d84.8248111!16s%2Fg%2F11g10n5mfw!19sChIJzTZ8-yO3kjkR3hTRCEaONPE?authuser=0&hl=en&rclk=1,"25.8745512,84.82481109999999"
Jama Masjid Jalalpur 2,Mosque,"C4V6+WWP Jama Masjid Jalalpur 2, Panipat, Haryana 132103",,C4V6+WWP,Panipat,,Haryana,IN,https://www.google.com/maps/place/Jama+Masjid+Jalalpur+2/data=!4m7!3m6!1s0x390dd405a3ba09e5:0x406ac4265b0c1964!8m2!3d29.4448353!4d77.112335!16s%2Fg%2F11f31krl7x!19sChIJ5Qm6owXUDTkRZBkMWybEakA?authuser=0&hl=en&rclk=1,"29.444835299999998,77.112335"
Madina Masjid,Mosque,"Madina Masjid, 222, Jalalpur, Uttar Pradesh 224149",,222,Jalalpur,224149,Uttar Pradesh,IN,https://www.google.com/maps/place/Madina+Masjid/data=!4m7!3m6!1s0x3990f9e164d7b94d:0x6d669aed6138d490!8m2!3d26.3116664!4d82.7380783!16s%2Fg%2F11c555z2vx!19sChIJTbnXZOH5kDkRkNQ4Ye2aZm0?authuser=0&hl=en&rclk=1,"26.3116664,82.7380783"
Edgah Wali Masjid,Mosque,"V3M5+559 Edgah Wali Masjid, Kanwari Ganj Road (SH- 22A), Hira Nagar, Jalalpur, Aligarh, Uttar Pradesh 202001","Hira Nagar, Jalalpur","V3M5+559, Kanwari Ganj Road (SH- 22A)",Aligarh,202001,Uttar Pradesh,IN,https://www.google.com/maps/place/Edgah+Wali+Masjid/data=!4m7!3m6!1s0x3974a47b48bca4c9:0x54f93e0f0d86b0f0!8m2!3d27.8829158!4d78.0579693!16s%2Fg%2F1pyqqm4n2!19sChIJyaS8SHukdDkR8LCGDQ8--VQ?authuser=0&hl=en&rclk=1,"27.8829158,78.0579693"
Jamia Masjid Azizalpur,Mosque,"Jamia Masjid Azizalpur, house no.30, azizalpur main road post, Tajpur, Uttar Pradesh",,"house no.30, azizalpur main road post","Tajpur, Azizal Pur",,Uttar Pradesh,IN,https://www.google.com/maps/place/Jamia+Masjid+Azizalpur/data=!4m7!3m6!1s0x399e2314949896ef:0xd7feec0e145e1fda!8m2!3d27.2366124!4d79.5027307!16s%2Fg%2F11g196j897!19sChIJ75aYlBQjnjkR2h9eFA7s_tc?authuser=0&hl=en&rclk=1,"27.2366124,79.5027307"
Hasan Masjid msjd Hsn,Mosque,"V2JP+M8P Hasan Masjid msjd Hsn, Unnamed Road, Alahadadpur Nivry, Shah Jamal, Aligarh, Uttar Pradesh 202001","Alahadadpur Nivry, Shah Jamal","V2JP+M8P, Unnamed Road",Aligarh,202001,Uttar Pradesh,IN,https://www.google.com/maps/place/Hasan+Masjid+%D9%85%D8%B3%D8%AC%D8%AF+%D8%AD%D8%B3%D9%86%E2%80%AD/data=!4m7!3m6!1s0x3974a411e48b6b83:0xc70a0d93613a6e66!8m2!3d27.8817151!4d78.0358358!16s%2Fg%2F11f04mjyzn!19sChIJg2uL5BGkdDkRZm46YZMNCsc?authuser=0&hl=en&rclk=1,"27.881715099999997,78.0358358"
Subedar Masjid,Mosque,"V2JW+RC8 Subedar Masjid, Rorawar, Shah Jamal, Aligarh, Uttar Pradesh 202001","Rorawar, Shah Jamal",V2JW+RC8,Aligarh,202001,Uttar Pradesh,IN,https://www.google.com/maps/place/Subedar+Masjid/data=!4m7!3m6!1s0x3974a46d8be69dd5:0x7291188c5e546c2a!8m2!3d27.882609!4d78.0464016!16s%2Fg%2F1pyqhvq51!19sChIJ1Z3mi22kdDkRKmxUXowYkXI?authuser=0&hl=en&rclk=1,"27.882609,78.0464016"
Masjid Jalalpur Dhai,Mosque,"246X+F6R Masjid Jalalpur Dhai, SH 38, Jalalpur Dhai, Uttar Pradesh 229204",,"246X+F6R, SH 38",Jalalpur Dhai,229204,Uttar Pradesh,IN,https://www.google.com/maps/place/Masjid+Jalalpur+Dhai/data=!4m7!3m6!1s0x399b732698b4dca3:0xe83a65212856695d!8m2!3d26.0112256!4d81.1480282!16s%2Fg%2F11csrfqw82!19sChIJo9y0mCZzmzkRXWlWKCFlOug?authuser=0&hl=en&rclk=1,"26.0112256,81.1480282"
Ek Minar Masjid,Mosque,"V2JX+R9C Ek Minar Masjid, Hira Nagar, Jalalpur, Aligarh, Uttar Pradesh 202001","Hira Nagar, Jalalpur",V2JX+R9C,Aligarh,202001,Uttar Pradesh,IN,https://www.google.com/maps/place/Ek+Minar+Masjid/data=!4m7!3m6!1s0x3974a471feaff085:0x3fb52923d630dc2!8m2!3d27.8820699!4d78.0483986!16s%2Fg%2F1pyqp3mf_!19sChIJhfCv_nGkdDkRwg1jPZJS-wM?authuser=0&hl=en&rclk=1,"27.882069899999998,78.0483986"
Loharo Wali Masjid,Mosque,"482J+CJ7 Loharo Wali Masjid, Angadpur, Uttar Pradesh 250611",,482J+CJ7,Angadpur,250611,Uttar Pradesh,IN,https://www.google.com/maps/place/Loharo+Wali+Masjid/data=!4m7!3m6!1s0x390c49282b2247a3:0xef80c40c54c271ce!8m2!3d29.1010403!4d77.3315336!16s%2Fg%2F11c30vbnng!19sChIJo0ciKyhJDDkRznHCVAzEgO8?authuser=0&hl=en&rclk=1,"29.101040299999998,77.3315336"
Madina Masjid,Mosque,"V5XQ+V2G Madina Masjid, Alam Nagar, Uttar Pradesh 244225",,"V5XQ+V2G, Alam Nagar","Jalalpur Dhana, Kaseruwa",244225,Uttar Pradesh,IN,https://www.google.com/maps/place/Madina+Masjid/data=!4m7!3m6!1s0x390b9de042b5f3b1:0xb8f0c66bec1c7195!8m2!3d28.8996836!4d78.1875915!16s%2Fg%2F11sh7qt23q!19sChIJsfO1QuCdCzkRlXEc7GvG8Lg?authuser=0&hl=en&rclk=1,"28.8996836,78.1875915"
Jamiya Masjid,Mosque,"V2HQ+PV2 Jamiya Masjid, Jalalpur, Aligarh, Uttar Pradesh",Shah Jamal,"V2HQ+PV2, Jalalpur",Aligarh,,Uttar Pradesh,IN,https://www.google.com/maps/place/Jamiya+Masjid/data=!4m7!3m6!1s0x3974a41285c9f587:0x8db2f03880c6a099!8m2!3d27.879258!4d78.0396427!16s%2Fg%2F1pyqmgjgm!19sChIJh_XJhRKkdDkRmaDGgDjwso0?authuser=0&hl=en&rclk=1,"27.879258,78.0396427"
Hari Masjid msjd hr~,Mosque,"V3M3+G45 Hari Masjid msjd hr~, Kanwari Ganj Road (SH- 22A), Hira Nagar, Jalalpur, Aligarh, Uttar Pradesh 202001","Hira Nagar, Jalalpur","V3M3+G45, Kanwari Ganj Road (SH- 22A)",Aligarh,202001,Uttar Pradesh,IN,https://www.google.com/maps/place/Hari+Masjid+%D9%85%D8%B3%D8%AC%D8%AF+%D9%87%D8%B1%D9%89%E2%80%AD/data=!4m7!3m6!1s0x3974a46feef2ed23:0x979b46cbb6bbca25!8m2!3d27.883764!4d78.052851!16s%2Fg%2F1pyqmpxtf!19sChIJI-3y7m-kdDkRJcq7tstGm5c?authuser=0&hl=en&rclk=1,"27.883764,78.05285099999999"
msjd lshykh wly masjid al shekhwali,Mosque,"427J+XM3 msjd lshykh wly masjid al shekhwali, village, Ferozepur, Ferozepur Namak, Haryana 122103",,"427J+XM3, village","Ferozepur, Ferozepur Namak",,Haryana,IN,https://www.google.com/maps/place/%D9%85%D8%B3%D8%AC%D8%AF+%D8%A7%D9%84%D8%A7%D8%B4%DB%8C%D8%AE+%D9%88%D8%A7%D9%84%DB%8C+masjid+al+shekhwali%E2%80%AD/data=!4m7!3m6!1s0x390d2d964b08d9e9:0xbaf6a60ac18b0ca3!8m2!3d28.1148754!4d77.0316707!16s%2Fg%2F11hck0dwky!19sChIJ6dkIS5YtDTkRowyLwQqm9ro?authuser=0&hl=en&rclk=1,"28.1148754,77.03167069999999"
ritthorii msjid,Mosque,"ritthorii msjid, Greater Noida, Uttar Pradesh 201310",,,Greater Noida,201310,Uttar Pradesh,IN,https://www.google.com/maps/place/%E0%A4%B0%E0%A4%BF%E0%A4%A0%E0%A5%8B%E0%A4%B0%E0%A5%80+%E0%A4%AE%E0%A4%B8%E0%A5%8D%E0%A4%9C%E0%A4%BF%E0%A4%A6/data=!4m7!3m6!1s0x390cbfd7917ebb35:0xe92b872cd62e1686!8m2!3d28.4588688!4d77.6029828!16s%2Fg%2F11jqg4css7!19sChIJNbt-kde_DDkRhhYu1iyHK-k?authuser=0&hl=en&rclk=1,"28.458868799999998,77.60298279999999"
Jame Masjid Nasir Al-Dahmani,Mosque,"Jame Masjid Nasir Al-Dahmani, Jalalpur Ferozepur, Haryana 122108",,,Jalalpur Ferozepur,122108,Haryana,IN,https://www.google.com/maps/place/Jame+Masjid+Nasir+Al-Dahmani/data=!4m7!3m6!1s0x3972d03a94ce7b19:0xf2014fca68ac4a2e!8m2!3d27.9025787!4d77.0235757!16s%2Fg%2F11f50f06fc!19sChIJGXvOlDrQcjkRLkqsaMpPAfI?authuser=0&hl=en&rclk=1,"27.9025787,77.0235757"
Markaz Masjid,Mosque,"4J2X+J5F Markaz Masjid, Khirwa Jalalpur, Meerut, Uttar Pradesh 250341",,"4J2X+J5F, Khirwa Jalalpur","Meerut, Khirwa Jalalpur",250341,Uttar Pradesh,IN,https://www.google.com/maps/place/Markaz+Masjid/data=!4m7!3m6!1s0x390c694a281fe01d:0xd556d02b0b3f5f05!8m2!3d29.1015576!4d77.647926!16s%2Fg%2F11gbk2w1pr!19sChIJHeAfKEppDDkRBV8_CyvQVtU?authuser=0&hl=en&rclk=1,"29.1015576,77.647926"
Masjid e rasool e azam Khirwa Jalal pur,Mosque,"3JXW+JCF Masjid e rasool e azam Khirwa Jalal pur, Khirwa Jalalpur, Uttar Pradesh 250341",,3JXW+JCF,Khirwa Jalalpur,250341,Uttar Pradesh,IN,https://www.google.com/maps/place/Masjid+e+rasool+e+azam+Khirwa+Jalal+pur/data=!4m7!3m6!1s0x390c6936272ff087:0xadfa66f63d377574!8m2!3d29.0990594!4d77.6460527!16s%2Fg%2F11c1w0cz7l!19sChIJh_AvJzZpDDkRdHU3PfZm-q0?authuser=0&hl=en&rclk=1,"29.099059399999998,77.6460527"
chote masjid,Mosque,"WQ22+XJ8 chote masjid, Allipur, Uttar Pradesh 250002",,WQ22+XJ8,Allipur,250002,Uttar Pradesh,IN,https://www.google.com/maps/place/chote+masjid/data=!4m7!3m6!1s0x390c7d95db4c5ddd:0xe88732f8a3e90b8!8m2!3d28.902403!4d77.751589!16s%2Fg%2F11f6g2r_yf!19sChIJ3V1M25V9DDkRuJA-ii9ziA4?authuser=0&hl=en&rclk=1,"28.902403,77.751589"
Masjid Qureshiyan,Mosque,"C48H+MCR Masjid Qureshiyan, Jaleelpur, Sankhani, Uttar Pradesh 203394",,"C48H+MCR, Jaleelpur",Sankhani,203394,Uttar Pradesh,IN,https://www.google.com/maps/place/Masjid+Qureshiyan/data=!4m7!3m6!1s0x390b44bc7d75623d:0x9887c1b8fbb6920d!8m2!3d28.4167446!4d78.1285267!16s%2Fg%2F11f04p85f2!19sChIJPWJ1fbxECzkRDZK2-7jBh5g?authuser=0&hl=en&rclk=1,"28.416744599999998,78.1285267"
Masjid Neemtal,Mosque,"8P7R+R5W Masjid Neemtal, Jalalpur, Uttar Pradesh 224149",,8P7R+R5W,Jalalpur,224149,Uttar Pradesh,IN,https://www.google.com/maps/place/Masjid+Neemtal/data=!4m7!3m6!1s0x3990f9e470abfc57:0x9810aa895f9c1c03!8m2!3d26.3146038!4d82.7404661!16s%2Fg%2F11gf0_r2rl!19sChIJV_yrcOT5kDkRAxycX4mqEJg?authuser=0&hl=en&rclk=1,"26.3146038,82.74046609999999"
Banka Jalal Pur Masjid,Mosque,"PV9C+RF3 Banka Jalal Pur Masjid, Kulhipur, Uttar Pradesh 212507",,PV9C+RF3,Kulhipur,212507,Uttar Pradesh,IN,https://www.google.com/maps/place/Banka+Jalal+Pur+Masjid/data=!4m7!3m6!1s0x399ab8ab53defe39:0xcb84ee35de26d780!8m2!3d25.7195206!4d81.8711676!16s%2Fg%2F11c1n1dvkb!19sChIJOf7eU6u4mjkRgNcm3jXuhMs?authuser=0&hl=en&rclk=1,"25.7195206,81.87116759999999"
Jumma Masjid,Mosque,"G9CC+PH8 Jumma Masjid, Adampur, Uttar Pradesh 244255",,G9CC+PH8,Adampur,,Uttar Pradesh,IN,https://www.google.com/maps/place/Jumma+Masjid/data=!4m7!3m6!1s0x390b3e12c9fcb013:0xcea4bb12532e085a!8m2!3d28.5217761!4d78.3714562!16s%2Fg%2F11gds9vt09!19sChIJE7D8yRI-CzkRWgguUxK7pM4?authuser=0&hl=en&rclk=1,"28.5217761,78.3714562"
Masjid & Madarsa jamiul-uloom Al-islamiyya,Mosque,"GCP7+R59 Masjid & Madarsa jamiul-uloom Al-islamiyya, Near Madina Masjid, Sonta Rasulpur, Uttar Pradesh",,"GCP7+R59, Near Madina Masjid","Sonta Rasulpur, Gogwan Jalalpur",,Uttar Pradesh,IN,https://www.google.com/maps/place/Masjid+%26+Madarsa+jamiul-uloom+Al-islamiyya/data=!4m7!3m6!1s0x390c27fa58b1ce0b:0x8227ee6cf18aef45!8m2!3d29.5370341!4d77.4129939!16s%2Fg%2F11g4h_vj98!19sChIJC86xWPonDDkRRe-K8WzuJ4I?authuser=0&hl=en&rclk=1,"29.5370341,77.4129939"
mdiinaa msjid jlaalpur,Mosque,"44X7+QXM mdiinaa msjid jlaalpur, Jalalpur, Uttar Pradesh 203397",,44X7+QXM,Jalalpur,203397,Uttar Pradesh,IN,https://www.google.com/maps/place/%E0%A4%AE%E0%A4%A6%E0%A5%80%E0%A4%A8%E0%A4%BE+%E0%A4%AE%E0%A4%B8%E0%A5%8D%E0%A4%9C%E0%A4%BF%E0%A4%A6+%E0%A4%9C%E0%A4%B2%E0%A4%BE%E0%A4%B2%E0%A4%AA%E0%A5%81%E0%A4%B0/data=!4m7!3m6!1s0x3974b2abbef4d8dd:0xc933c90623b029ae!8m2!3d28.1494701!4d78.1149153!16s%2Fg%2F11hd07sqfn!19sChIJ3dj0vquydDkRrimwIwbJM8k?authuser=0&hl=en&rclk=1,"28.1494701,78.11491529999999"
Jannat Nisha Masjid,School center,"QFFR+9G6 Jannat Nisha Masjid, Muradnagar, Jalalpur Rd, Raghunathpur",,"QFFR+9G6, Muradnagar, Jalalpur Rd","Raghunathpur, Muradnagar",,Uttar Pradesh,IN,https://www.google.com/maps/place/Jannat+Nisha+Masjid/data=!4m7!3m6!1s0x390cf555b2b04071:0xb48e2246aa2b315a!8m2!3d28.7734099!4d77.4912608!16s%2Fg%2F11j4k538qx!19sChIJcUCwslX1DDkRWjErqkYijrQ?authuser=0&hl=en&rclk=1,"28.773409899999997,77.49126079999999"
Hashmati Badi Masjid Jalalpur Dhai,Mosque,"246X+47V Hashmati Badi Masjid Jalalpur Dhai, Jalalpur Dhai, Uttar Pradesh 229204",,246X+47V,Jalalpur Dhai,229204,Uttar Pradesh,IN,https://www.google.com/maps/place/Hashmati+Badi+Masjid+Jalalpur+Dhai/data=!4m7!3m6!1s0x399b7326c6d0de23:0x97fd6bf696664dc5!8m2!3d26.0103617!4d81.1481842!16s%2Fg%2F11dfjyrnhw!19sChIJI97QxiZzmzkRxU1mlvZr_Zc?authuser=0&hl=en&rclk=1,"26.010361699999997,81.1481842"
Haji Naseem Masjid,Mosque,"Haji Naseem Masjid, Vill No -232, Lotus Villa Rd, Sector -1, Jalpura, Greater Noida, Uttar Pradesh 201306","Sector -1, Jalpura","Vill No -232, Lotus Villa Rd",Greater Noida,201306,Uttar Pradesh,IN,https://www.google.com/maps/place/Haji+Naseem+Masjid/data=!4m7!3m6!1s0x390ceff9c3da8971:0x54fe7050446c2933!8m2!3d28.5532116!4d77.440224!16s%2Fg%2F11k9gmyvnz!19sChIJcYnaw_nvDDkRMylsRFBw_lQ?authuser=0&hl=en&rclk=1,"28.553211599999997,77.440224"
Masjid Ahle-Hadish Colony Jalalpur Ferozepur,Mosque,"Masjid Ahle-Hadish Colony Jalalpur Ferozepur, Masjid ahle hadish colony, Jalalpur Ferozepur, Haryana 122108",,Masjid ahle hadish colony,Jalalpur Ferozepur,122108,Haryana,IN,https://www.google.com/maps/place/Masjid+Ahle-Hadish+Colony+Jalalpur+Ferozepur/data=!4m7!3m6!1s0x3972d1d488b46d55:0x772088f214db625f!8m2!3d27.903111!4d77.0176801!16s%2Fg%2F11r40hwvql!19sChIJVW20iNTRcjkRX2LbFPKIIHc?authuser=0&hl=en&rclk=1,"27.903111,77.01768009999999"
JAMA MSJID MURADGAON URFROSHANGARH,Mosque,"W9VP+97W JAMA MSJID MURADGAON URFROSHANGARH, Muradgaon Urf Roshangarh, Uttar Pradesh 250615",,W9VP+97W,Muradgaon Urf Roshangarh,,Uttar Pradesh,IN,https://www.google.com/maps/place/JAMA+MSJID+MURADGAON+URFROSHANGARH/data=!4m7!3m6!1s0x390c5b20a8bffb31:0x9e89aa4897674b64!8m2!3d28.9434955!4d77.3856937!16s%2Fg%2F11n0pjcj_5!19sChIJMfu_qCBbDDkRZEtnl0iqiZ4?authuser=0&hl=en&rclk=1,"28.943495499999997,77.38569369999999"
NURANI MASJID nuuraanii msjid,Mosque,"GCQV+W68 NURANI MASJID nuuraanii msjid, Gogwan Jalalpur, Uttar Pradesh 251305",,GCQV+W68,Gogwan Jalalpur,,Uttar Pradesh,IN,https://www.google.com/maps/place/NURANI+MASJID+%E0%A4%A8%E0%A5%82%E0%A4%B0%E0%A4%BE%E0%A4%A8%E0%A5%80+%E0%A4%AE%E0%A4%B8%E0%A5%8D%E0%A4%9C%E0%A4%BF%E0%A4%A6/data=!4m7!3m6!1s0x390c2718467965c5:0x1fe3e38c14b1d597!8m2!3d29.5397957!4d77.4430649!16s%2Fg%2F11g1tc8958!19sChIJxWV5RhgnDDkRl9WxFIzj4x8?authuser=0&hl=en&rclk=1,"29.5397957,77.4430649"
Masjid,Mosque,"GCM6+2R8 Masjid, Sonta Rasulpur, Uttar Pradesh 247777",,GCM6+2R8,Sonta Rasulpur,247777,Uttar Pradesh,IN,https://www.google.com/maps/place/Masjid/data=!4m7!3m6!1s0x390c27a5eab02353:0xbf6949325b4405b4!8m2!3d29.532547!4d77.4120913!16s%2Fg%2F11fhqqttr7!19sChIJUyOw6qUnDDkRtAVEWzJJab8?authuser=0&hl=en&rclk=1,"29.532546999999997,77.4120913"
Jama Masjid Kheri Gujjar,Mosque,"5X7C+GPJ Jama Masjid Kheri Gujjar, Kheri Gujar, Haryana 131101",,5X7C+GPJ,Kheri Gujar,131101,Haryana,IN,https://www.google.com/maps/place/Jama+Masjid+Kheri+Gujjar/data=!4m7!3m6!1s0x390dc7f80e82e5c7:0xe080b8fa670dfa50!8m2!3d29.1638269!4d76.9717517!16s%2Fg%2F11fj2qv1sn!19sChIJx-WCDvjHDTkRUPoNZ_q4gOA?authuser=0&hl=en&rclk=1,"29.1638269,76.9717517"
Masjid Ahle Sunnat Wal Jamaat (Gumbad Wali)Hazrat Bilal Rz.masjid Mohalla Pachayan,Mosque,"8PMF+2JG Masjid Ahle Sunnat Wal Jamaat (Gumbad Wali)Hazrat Bilal Rz.masjid Mohalla Pachayan, Islamnagar, Uttar Pradesh 243723",,8PMF+2JG,Islamnagar,243723,Uttar Pradesh,IN,https://www.google.com/maps/place/Masjid+Ahle+Sunnat+Wal+Jamaat+%28Gumbad+Wali%29Hazrat+Bilal+Rz.masjid+Mohalla+Pachayan/data=!4m7!3m6!1s0x390ad6e7e2fe806d:0x2fca8195f0ce2db!8m2!3d28.3325686!4d78.7240828!16s%2Fg%2F11c7swqptv!19sChIJbYD-4ufWCjkR2-IMXxmo_AI?authuser=0&hl=en&rclk=1,"28.3325686,78.72408279999999"
chhoti Masjid( daroga ji wali),Mosque,"247W+8JX chhoti Masjid( daroga ji wali), Jalalpur Dhai, Uttar Pradesh 229204",,247W+8JX,Jalalpur Dhai,229204,Uttar Pradesh,IN,https://www.google.com/maps/place/chhoti+Masjid%28+daroga+ji+wali%29/data=!4m7!3m6!1s0x399b7339947c34bd:0x467cd664aa872a6d!8m2!3d26.0133728!4d81.1466195!16s%2Fg%2F11fcm5g2r9!19sChIJvTR8lDlzmzkRbSqHqmTWfEY?authuser=0&hl=en&rclk=1,"26.0133728,81.1466195"
Masjide Ali a.s,Mosque,"8P7W+5HG Masjide Ali a.s, Unnamed Road, Usmapur, Jalalpur, Uttar Pradesh 224149",Usmapur,"8P7W+5HG, Unnamed Road",Jalalpur,224149,Uttar Pradesh,IN,https://www.google.com/maps/place/Masjide+Ali+a.s/data=!4m7!3m6!1s0x3990f928cc8b6457:0x32c238f20dbcfb29!8m2!3d26.3129358!4d82.7464486!16s%2Fg%2F11gnps2cz5!19sChIJV2SLzCj5kDkRKfu8DfI4wjI?authuser=0&hl=en&rclk=1,"26.312935799999998,82.7464486"
Masjid,Mosque,"JGVV+WX Masjid, Rampur Urf Yarpur, Uttar Pradesh 244304",,JGVV+WX,Rampur Urf Yarpur,,Uttar Pradesh,IN,https://www.google.com/maps/place/Masjid/data=!4m7!3m6!1s0x390b1914cd83f9e9:0x1d353af22c65cbc3!8m2!3d28.6447875!4d78.5450032!16s%2Fg%2F11pvhrfs96!19sChIJ6fmDzRQZCzkRw8tlLPI6NR0?authuser=0&hl=en&rclk=1,"28.6447875,78.5450032"
Jalalpur Masjid,Mosque,"HX2X+8JQ Jalalpur Masjid, Unnamed Road, Alamshah, Sahanka, Rajasthan 321024",,"HX2X+8JQ, Unnamed Road","Alamshah, Sahanka",321024,Rajasthan,IN,https://www.google.com/maps/place/Jalalpur+Masjid/data=!4m7!3m6!1s0x3972efc81cb9cec3:0x74c3491621e6c8f4!8m2!3d27.5508348!4d76.9991006!16s%2Fg%2F11h_1wq021!19sChIJw865HMjvcjkR9MjmIRZJw3Q?authuser=0&hl=en&rclk=1,"27.5508348,76.99910059999999"
Masjid Hayya Alas-salah(ahele hadees),Mosque,"V2PW+23F Masjid Hayya Alas-salah(ahele hadees), Jalalpur, Aligarh, Uttar Pradesh 202001",Jalalpur,V2PW+23F,Aligarh,202001,Uttar Pradesh,IN,https://www.google.com/maps/place/Masjid+Hayya+Alas-salah%28ahele+hadees%29/data=!4m7!3m6!1s0x3974a46cffeea455:0x328bd5004f4d925a!8m2!3d27.8850635!4d78.04516!16s%2Fg%2F11fzf7bnvx!19sChIJVaTu_2ykdDkRWpJNTwDVizI?authuser=0&hl=en&rclk=1,"27.885063499999998,78.04516"
Shamsi Masjid,Mosque,"V3M2+C87 Shamsi Masjid, Hira Nagar, Jalalpur, Aligarh, Uttar Pradesh 202001","Hira Nagar, Jalalpur",V3M2+C87,Aligarh,202001,Uttar Pradesh,IN,https://www.google.com/maps/place/Shamsi+Masjid/data=!4m7!3m6!1s0x3974a5b394273bc5:0xcf63c16e89ec6ad0!8m2!3d27.8835433!4d78.050793!16s%2Fg%2F11fj5cgs1r!19sChIJxTsnlLOldDkR0GrsiW7BY88?authuser=0&hl=en&rclk=1,"27.8835433,78.050793"
UMAR MASJID,Mosque,"J47R+9M5 UMAR MASJID, Jalalpur Rd, Bugrasi, Uttar Pradesh 203403",,"J47R+9M5, Jalalpur Rd",Bugrasi,203403,Uttar Pradesh,IN,https://www.google.com/maps/place/UMAR+MASJID/data=!4m7!3m6!1s0x390b6924a3bb6ae7:0xf170ea47e904000f!8m2!3d28.6133945!4d78.1417452!16s%2Fg%2F11fnwxcdx8!19sChIJ52q7oyRpCzkRDwAE6UfqcPE?authuser=0&hl=en&rclk=1,"28.6133945,78.1417452"
Markaz masjid jalalpur,Mosque,"Markaz masjid jalalpur, Manman tal, paschim taraf, Jalalpur, Uttar Pradesh 224149",,"Manman tal, paschim taraf","Jalalpur, Mangoradila",224149,Uttar Pradesh,IN,https://www.google.com/maps/place/Markaz+masjid+jalalpur/data=!4m7!3m6!1s0x3990f959eaf1a22b:0xfa892c000a60e385!8m2!3d26.3249349!4d82.7594692!16s%2Fg%2F11fvnlb4f0!19sChIJK6Lx6ln5kDkRheNgCgAsifo?authuser=0&hl=en&rclk=1,"26.3249349,82.7594692"
Juma Masjid,Mosque,"GMJ3+348 Juma Masjid, Cholas Rd, Mohalla Abbas Nagar, Chholas, Uttar Pradesh 203207",Mohalla Abbas Nagar,"GMJ3+348, Cholas Rd",Chholas,203207,Uttar Pradesh,IN,https://www.google.com/maps/place/Juma+Masjid/data=!4m7!3m6!1s0x390c942a6e349581:0xfd6322c2aa576325!8m2!3d28.5301599!4d77.6528246!16s%2Fg%2F11c52lz9x6!19sChIJgZU0biqUDDkRJWNXqsIiY_0?authuser=0&hl=en&rclk=1,"28.530159899999997,77.6528246"
Masjid,Mosque,"8P8Q+RQG Masjid, Jalalpur, Uttar Pradesh 224149",,8P8Q+RQG,Jalalpur,224149,Uttar Pradesh,IN,https://www.google.com/maps/place/Masjid/data=!4m7!3m6!1s0x3990f99420ed2937:0x773c6304d1cd598d!8m2!3d26.3170576!4d82.7394455!16s%2Fg%2F11v16824tm!19sChIJNyntIJT5kDkRjVnN0QRjPHc?authuser=0&hl=en&rclk=1,"26.3170576,82.7394455"
Jannatul firdau masjid (Deswaliyan mosque)),Mosque,"Jannatul firdau masjid (Deswaliyan mosque)), Mahalka, Uttar Pradesh 250222",,,Mahalka,250222,Uttar Pradesh,IN,https://www.google.com/maps/place/Jannatul+firdau+masjid+%28Deswaliyan+mosque%29%29/data=!4m7!3m6!1s0x390c735cb53dcc75:0x7becf41f16b561db!8m2!3d29.1527887!4d77.7803222!16s%2Fg%2F11f6384c1f!19sChIJdcw9tVxzDDkR22G1Fh_07Hs?authuser=0&hl=en&rclk=1,"29.1527887,77.7803222"
Masjid Tauheed,Place of worship,"HC2Q+H9 Masjid Tauheed, Jalpura, Greater Noida, Uttar Pradesh 201306",Jalpura,HC2Q+H9,Greater Noida,,Uttar Pradesh,IN,https://www.google.com/maps/place/Masjid+Tauheed/data=!4m7!3m6!1s0x390ce9792083cd4d:0x289d6976967de556!8m2!3d28.551498!4d77.438438!16s%2Fg%2F11rq9hfhnm!19sChIJTc2DIHnpDDkRVuV9lnZpnSg?authuser=0&hl=en&rclk=1,"28.551498,77.43843799999999"
Madina Masjid,Mosque,"59M3+VPQ Madina Masjid, Jalalpur Deepa, Uttar Pradesh 246734",,59M3+VPQ,Jalalpur Deepa,246734,Uttar Pradesh,IN,https://www.google.com/maps/place/Madina+Masjid/data=!4m7!3m6!1s0x390bbdd1f0e6eefb:0x7c0054823440b07f!8m2!3d29.1848634!4d78.3547828!16s%2Fg%2F11r_lqwhm_!19sChIJ--7m8NG9CzkRf7BANIJUAHw?authuser=0&hl=en&rclk=1,"29.184863399999998,78.3547828"
Bilal Masjid Sinoura Jalalabad,Mosque,"RG4J+W49 Bilal Masjid Sinoura Jalalabad, Sinaura - Kanpura Road, Jalalpur Majra Sinora, Sinaura Jalalabad, Uttar Pradesh 244222",,"RG4J+W49, Sinaura - Kanpura Road","Jalalpur Majra Sinora, Sinaura Jalalabad",244222,Uttar Pradesh,IN,https://www.google.com/maps/place/Bilal+Masjid+Sinoura+Jalalabad/data=!4m7!3m6!1s0x390b05bc42ece795:0x4177ae885e89ede9!8m2!3d28.8072758!4d78.5303616!16s%2Fg%2F11jfcbz3_5!19sChIJlefsQrwFCzkR6e2JXoiud0E?authuser=0&hl=en&rclk=1,"28.8072758,78.53036159999999"
Madina Masjid,Mosque,"47GR+8P2 Madina Masjid, Asafpur Kharkhari, Mirapur, Uttar Pradesh 250611",,47GR+8P2,"Asafpur Kharkhari, Mirapur",,Uttar Pradesh,IN,https://www.google.com/maps/place/Madina+Masjid/data=!4m7!3m6!1s0x390c4998ec58e24d:0x3c833dbda186b2dd!8m2!3d29.1257623!4d77.2917537!16s%2Fg%2F11qnjhx8qy!19sChIJTeJY7JhJDDkR3bKGob09gzw?authuser=0&hl=en&rclk=1,"29.125762299999998,77.2917537"
New Madina Masjid,Mosque,"5M35+4F3 New Madina Masjid, Meerut, Kulanjan, Uttar Pradesh 250221",,5M35+4F3,"Meerut, Kulanjan",250221,Uttar Pradesh,IN,https://www.google.com/maps/place/New+Madina+Masjid/data=!4m7!3m6!1s0x390c6dbc61b36779:0x1027eb291c7222f2!8m2!3d29.1527554!4d77.6586799!16s%2Fg%2F11hf1_zwqp!19sChIJeWezYbxtDDkR8iJyHCnrJxA?authuser=0&hl=en&rclk=1,"29.1527554,77.6586799"
Juma Masjid,Mosque,"VR64+58G Juma Masjid, Jalalpur, Khandaut, Uttar Pradesh 210432",,VR64+58G,"Jalalpur, Khandaut",210432,Uttar Pradesh,IN,https://www.google.com/maps/place/Juma+Masjid/data=!4m7!3m6!1s0x399d1272c0000001:0x95193e835bbbe3cc!8m2!3d25.8604318!4d79.8058309!16s%2Fg%2F11c1q7vn_l!19sChIJAQAAwHISnTkRzOO7W4M-GZU?authuser=0&hl=en&rclk=1,"25.860431799999997,79.80583089999999"
nayi masjid,Mosque,"8MH4+MFP nayi masjid, kandipur ,katghar musa, Jalalpur, Uttar Pradesh",,"8MH4+MFP, kandipur ,katghar musa","Jalalpur, Kadipur",,Uttar Pradesh,IN,https://www.google.com/maps/place/nayi+masjid/data=!4m7!3m6!1s0x3990f1bd2def08a1:0xa550b8fe44e58bf1!8m2!3d26.3292147!4d82.65619!16s%2Fg%2F11jgn2hzk7!19sChIJoQjvLb3xkDkR8YvlRP64UKU?authuser=0&hl=en&rclk=1,"26.329214699999998,82.65619"
Masjid e Hidayat,Mosque,"8P8M+VFX Masjid e Hidayat, Jalalpur, Uttar Pradesh 224149",,8P8M+VFX,Jalalpur,224149,Uttar Pradesh,IN,https://www.google.com/maps/place/Masjid+e+Hidayat/data=!4m7!3m6!1s0x3990f7f881d51a89:0xc7339a72b6f47b5d!8m2!3d26.317807!4d82.7323911!16s%2Fg%2F11pcsylfgx!19sChIJiRrVgfj3kDkRXXv0tnKaM8c?authuser=0&hl=en&rclk=1,"26.317807,82.7323911"
Masjid-Al-Fiza,Mosque,"37X2+52C Masjid-Al-Fiza, Jalalpur Khalsa, Dhamaka, Haryana 121102",,37X2+52C,"Jalalpur Khalsa, Dhamaka",121102,Haryana,IN,https://www.google.com/maps/place/Masjid-Al-Fiza/data=!4m7!3m6!1s0x390cd55e09812165:0x2515baf3d79c76fc!8m2!3d28.0979485!4d77.25003!16s%2Fg%2F11tjxvsdyp!19sChIJZSGBCV7VDDkR_Hac1_O6FSU?authuser=0&hl=en&rclk=1,"28.097948499999998,77.25003"
Masjid Ismail Wali,Mosque,"V2XG+R98 Masjid Ismail Wali, Jalalpur Ferozepur, Haryana 122108",,V2XG+R98,Jalalpur Ferozepur,122108,Haryana,IN,https://www.google.com/maps/place/Masjid+Ismail+Wali/data=!4m7!3m6!1s0x3972d16ac0e6a4e1:0x9bdc8cd5619ccd64!8m2!3d27.8995285!4d77.0259599!16s%2Fg%2F11hf3br8qj!19sChIJ4aTmwGrRcjkRZM2cYdWM3Js?authuser=0&hl=en&rclk=1,"27.8995285,77.02595989999999"
Dabra wali Masjid,Mosque,"W22G+72M Dabra wali Masjid, Jalalpur Ferozepur, Haryana 122108",,W22G+72M,Jalalpur Ferozepur,122108,Haryana,IN,https://www.google.com/maps/place/Dabra+wali+Masjid/data=!4m7!3m6!1s0x3972d175486812b9:0x52db4b031e78813b!8m2!3d27.9007025!4d77.0250554!16s%2Fg%2F11fq2vgdbm!19sChIJuRJoSHXRcjkRO4F4HgNL21I?authuser=0&hl=en&rclk=1,"27.900702499999998,77.0250554"
Sunni Gosiya Masjid,Mosque,"36XX+2FQ Sunni Gosiya Masjid, Jalalpur Khalsa, Dhamaka, Haryana 121102",,36XX+2FQ,"Jalalpur Khalsa, Dhamaka",121102,Haryana,IN,https://www.google.com/maps/place/Sunni+Gosiya+Masjid/data=!4m7!3m6!1s0x390cd5b7624b19c3:0x8f8429b5d78a0832!8m2!3d28.0975897!4d77.2487441!16s%2Fg%2F11tjxvz5p5!19sChIJwxlLYrfVDDkRMgiK17UphI8?authuser=0&hl=en&rclk=1,"28.0975897,77.2487441"
Masjid Qureshi Nichla Mohalla,Mosque,"W22F+FXR Masjid Qureshi Nichla Mohalla, Jalalpur Ferozepur, Haryana 122108",,W22F+FXR,Jalalpur Ferozepur,122108,Haryana,IN,https://www.google.com/maps/place/Masjid+Qureshi+Nichla+Mohalla/data=!4m7!3m6!1s0x3972d1cc944ad4d1:0xb7313531a4070538!8m2!3d27.9012282!4d77.0248953!16s%2Fg%2F11pbhzyv00!19sChIJ0dRKlMzRcjkROAUHpDE1Mbc?authuser=0&hl=en&rclk=1,"27.9012282,77.0248953"
BISMILLAH MASJID AMAN COLONY SAHBISWA,Mosque,"BISMILLAH MASJID AMAN COLONY SAHBISWA, Jalalpur Rd, AMAN COLONY, Sahbiswa, Muradnagar, Uttar Pradesh 201206",AMAN COLONY,Jalalpur Rd,"Sahbiswa, Muradnagar",201206,Uttar Pradesh,IN,https://www.google.com/maps/place/BISMILLAH+MASJID+AMAN+COLONY+SAHBISWA/data=!4m7!3m6!1s0x390cf5e5758047cb:0xfa8ea52d3af03c!8m2!3d28.7717206!4d77.4946402!16s%2Fg%2F11l1n6xm4q!19sChIJy0eAdeX1DDkRPPA6LaWO-gA?authuser=0&hl=en&rclk=1,"28.7717206,77.49464019999999"
Masjid -E-Aqsa,Mosque,"36WX+QQ9 Masjid -E-Aqsa, Jalalpur Khalsa, Dhamaka, Haryana 121102",,36WX+QQ9,"Jalalpur Khalsa, Dhamaka",121102,Haryana,IN,https://www.google.com/maps/place/Masjid+-E-Aqsa/data=!4m7!3m6!1s0x390cd57b64650821:0x60c076b83cb7c91a!8m2!3d28.0969132!4d77.2494985!16s%2Fg%2F11sbqml48c!19sChIJIQhlZHvVDDkRGsm3PLh2wGA?authuser=0&hl=en&rclk=1,"28.0969132,77.2494985"
Ayesha Masjid kherli nuh,Mosque,"X2G4+P28 Ayesha Masjid kherli nuh, Jalalpur Nuh, Haryana 122108",,X2G4+P28,Jalalpur Nuh,122108,Haryana,IN,https://www.google.com/maps/place/Ayesha+Masjid+kherli+nuh/data=!4m7!3m6!1s0x3972cd8a4a7584fb:0x97437fb2fade6595!8m2!3d27.9767854!4d77.0050659!16s%2Fg%2F11s10bpgt4!19sChIJ-4R1SorNcjkRlWXe-rJ_Q5c?authuser=0&hl=en&rclk=1,"27.976785399999997,77.00506589999999"
Madeena Masjid Mehdood Nasho,Mosque,"59M3+VPQ Madeena Masjid Mehdood Nasho, Jalalpur Deepa, Uttar Pradesh 246734",,59M3+VPQ,Jalalpur Deepa,246734,Uttar Pradesh,IN,https://www.google.com/maps/place/Madeena+Masjid+Mehdood+Nasho/data=!4m7!3m6!1s0x390bbd9789c0e3c7:0x5ad37b1b4f837295!8m2!3d29.1844436!4d78.3547182!16s%2Fg%2F11rd10r0dr!19sChIJx-PAiZe9CzkRlXKDTxt701o?authuser=0&hl=en&rclk=1,"29.184443599999998,78.3547182"
Takiya wali masjid,Mosque,"J53J+3QJ Takiya wali masjid, Basi Road, Bugrasi, Basi Bangar, Uttar Pradesh 203403",,"J53J+3QJ, Basi Road","Bugrasi, Basi Bangar",203403,Uttar Pradesh,IN,https://www.google.com/maps/place/Takiya+wali+masjid/data=!4m7!3m6!1s0x390b69d24ed2668d:0x478cc41f23ecd8b1!8m2!3d28.602705!4d78.181889!16s%2Fg%2F11h1kdsrq5!19sChIJjWbSTtJpCzkRsdjsIx_EjEc?authuser=0&hl=en&rclk=1,"28.602705,78.181889"
Husaini masjid jalalpur,Mosque,"JG9P+82C Husaini masjid jalalpur, Naipura, Uttar Pradesh 224145",,JG9P+82C,Naipura,224145,Uttar Pradesh,IN,https://www.google.com/maps/place/Husaini+masjid+jalalpur/data=!4m7!3m6!1s0x3990bf53c93b6d2b:0xdc78803a3e3548db!8m2!3d26.6183069!4d82.5350281!16s%2Fg%2F11vb_h099w!19sChIJK207yVO_kDkR20g1PjqAeNw?authuser=0&hl=en&rclk=1,"26.6183069,82.53502809999999"
jama Masjid,Mosque,"283Q+WFC jama Masjid, Iqubal parmukh Road, Bilochpura, Uttar Pradesh 250606",,"283Q+WFC, Iqubal parmukh Road",Bilochpura,250606,Uttar Pradesh,IN,https://www.google.com/maps/place/jama+Masjid/data=!4m7!3m6!1s0x390c4fb095ac7e47:0x3b63408dd13f415!8m2!3d29.0048135!4d77.3386407!16s%2Fg%2F11fwgb5r0d!19sChIJR36slbBPDDkRFfQT3Qg0tgM?authuser=0&hl=en&rclk=1,"29.004813499999997,77.3386407"
Jafar Nagar Masjid,Mosque,"GCPW+CX Jafar Nagar Masjid, Kulesara, Greater Noida, Uttar Pradesh 201306",Kulesara,GCPW+CX,Greater Noida,,Uttar Pradesh,IN,https://www.google.com/maps/place/Jafar+Nagar+Masjid/data=!4m7!3m6!1s0x390ce9ad38dcdb91:0x2d6a8e92f67c00d1!8m2!3d28.5360757!4d77.4474791!16s%2Fg%2F11swrzhqlk!19sChIJkdvcOK3pDDkR0QB89pKOai0?authuser=0&hl=en&rclk=1,"28.536075699999998,77.4474791"
Masjid Jannat -ul-firdosh,Mosque,"XX4M+VXP Masjid Jannat -ul-firdosh, Amarsinghpur, Uttar Pradesh 250406",,XX4M+VXP,Amarsinghpur,250406,Uttar Pradesh,IN,https://www.google.com/maps/place/Masjid+Jannat+-ul-firdosh/data=!4m7!3m6!1s0x390b815787a8ca91:0xc20c2a2fc8c6f590!8m2!3d28.9572071!4d77.9849449!16s%2Fg%2F11qndkct88!19sChIJkcqoh1eBCzkRkPXGyC8qDMI?authuser=0&hl=en&rclk=1,"28.957207099999998,77.9849449"
Makki jama masjid bazidpur Jalalpur,Mosque,"8P8M+WG2 Makki jama masjid bazidpur Jalalpur, Jalalpur, Uttar Pradesh 224149",,8P8M+WG2,Jalalpur,224149,Uttar Pradesh,IN,https://www.google.com/maps/place/Makki+jama+masjid+bazidpur+Jalalpur/data=!4m7!3m6!1s0x3990f7032dd10b15:0xf2889b1f46ac305a!8m2!3d26.3172628!4d82.7337533!16s%2Fg%2F11q2kt68m4!19sChIJFQvRLQP3kDkRWjCsRh-biPI?authuser=0&hl=en&rclk=1,"26.317262799999998,82.73375329999999"
Jama Masjid Haidrabad Jalalpur Ambedkarnagar,Mosque,"8QCF+JHR Jama Masjid Haidrabad Jalalpur Ambedkarnagar, Haidrabad, Uttar Pradesh 224183",,8QCF+JHR,Haidrabad,224183,Uttar Pradesh,IN,https://www.google.com/maps/place/Jama+Masjid+Haidrabad+Jalalpur+Ambedkarnagar/data=!4m7!3m6!1s0x3990f938cc3fb589:0x1d4c60fa6c505df9!8m2!3d26.3216007!4d82.7738825!16s%2Fg%2F11ry7gnrlk!19sChIJibU_zDj5kDkR-V1QbPpgTB0?authuser=0&hl=en&rclk=1,"26.321600699999998,82.7738825"
Masjid A Fatima,Mosque,"37W4+22F Masjid A Fatima, Jalalpur Khalsa, Haryana 121102",,37W4+22F,Jalalpur Khalsa,121102,Haryana,IN,https://www.google.com/maps/place/Masjid+A+Fatima/data=!4m7!3m6!1s0x390cd5bfd7b3bc11:0x8c4e8043fb44d2dc!8m2!3d28.095072!4d77.2550463!16s%2Fg%2F11sbqmgvqp!19sChIJEbyz17_VDDkR3NJE-0OATow?authuser=0&hl=en&rclk=1,"28.095072,77.25504629999999"
Jama masjid jalalpur chhata Mathura Uttar Pradesh,Mosque,"PCCJ+4JC Jama masjid jalalpur chhata Mathura Uttar Pradesh, Jama masjid jalalpur, Damsinga, Chhata Rural",Damsinga,"PCCJ+4JC, Jama masjid jalalpur","Chhata Rural, Nagariya",,Uttar Pradesh,IN,https://www.google.com/maps/place/Jama+masjid+jalalpur+chhata+Mathura+Uttar+Pradesh/data=!4m7!3m6!1s0x397317a94194600b:0xea98755564c6d5a7!8m2!3d27.7203069!4d77.4315245!16s%2Fg%2F11t24npcrb!19sChIJC2CUQakXczkRp9XGZFV1mOo?authuser=0&hl=en&rclk=1,"27.720306899999997,77.4315245"
JAMA MASJID AHLE HADEES JALALPUR FEROZEPUR,Mosque,"W22F+6FW JAMA MASJID AHLE HADEES JALALPUR FEROZEPUR, Jalalpur Ferozepur, Haryana 122108",,W22F+6FW,Jalalpur Ferozepur,122108,Haryana,IN,https://www.google.com/maps/place/JAMA+MASJID+AHLE+HADEES+JALALPUR+FEROZEPUR/data=!4m7!3m6!1s0x3972d1126f2895a3:0x80c53e69638410d6!8m2!3d27.9005562!4d77.0238305!16s%2Fg%2F11p5rjpkj8!19sChIJo5UobxLRcjkR1hCEY2k-xYA?authuser=0&hl=en&rclk=1,"27.9005562,77.0238305"
Choti Purani Masjid Jalalpur,Mosque,"H222+4F6 Choti Purani Masjid Jalalpur, Sahanka, Rajasthan 321024",,H222+4F6,Sahanka,321024,Rajasthan,IN,https://www.google.com/maps/place/Choti+Purani+Masjid+Jalalpur/data=!4m7!3m6!1s0x3972ef1ec59ce573:0x26a5891157b44cfc!8m2!3d27.5502864!4d77.0011424!16s%2Fg%2F11rk6cshjb!19sChIJc-WcxR7vcjkR_Ey0VxGJpSY?authuser=0&hl=en&rclk=1,"27.550286399999997,77.00114239999999"
Madina Masjid mdyn msjd,Mosque,"WQF2+3X8 Madina Masjid mdyn msjd, Jalalpur, Uttar Pradesh 250002",,WQF2+3X8,Jalalpur,250002,Uttar Pradesh,IN,https://www.google.com/maps/place/Madina+Masjid+%D9%85%D8%AF%DB%8C%D9%86%D8%A7+%D9%85%D8%B3%D8%AC%D8%AF%E2%80%AD/data=!4m7!3m6!1s0x390c7da1b501ee07:0x4153cfe09c3980e3!8m2!3d28.9226528!4d77.7524664!16s%2Fg%2F11jsqn0jdt!19sChIJB-4BtaF9DDkR44A5nODPU0E?authuser=0&hl=en&rclk=1,"28.922652799999998,77.7524664"
Sunni Jama Masjid,Mosque,"4J2W+V87 Sunni Jama Masjid, Unnamed Road, Khirwa Jalalpur, Uttar Pradesh 250341",,"4J2W+V87, Unnamed Road",Khirwa Jalalpur,250341,Uttar Pradesh,IN,https://www.google.com/maps/place/Sunni+Jama+Masjid/data=!4m7!3m6!1s0x390c6955d7c1b911:0xc7c7d5a6625af3f3!8m2!3d29.1021636!4d77.6458029!16s%2Fg%2F11rch95hvc!19sChIJEbnB11VpDDkR8_NaYqbVx8c?authuser=0&hl=en&rclk=1,"29.102163599999997,77.64580289999999"
SHIA JAMA MASJID,Mosque,"4J2W+6XX SHIA JAMA MASJID, Khirwa Jalalpur, Uttar Pradesh 250341",,4J2W+6XX,Khirwa Jalalpur,250341,Uttar Pradesh,IN,https://www.google.com/maps/place/SHIA+JAMA+MASJID/data=!4m7!3m6!1s0x390c698f0d16cb7b:0x367eceb2c181dde9!8m2!3d29.1006092!4d77.6474973!16s%2Fg%2F11kdhl9q8f!19sChIJe8sWDY9pDDkR6d2BwbLOfjY?authuser=0&hl=en&rclk=1,"29.100609199999997,77.6474973"
Masjid ahle hadish,Mosque,"W254+68H Masjid ahle hadish, Jalalpur Ferozepur, Haryana 122108",,W254+68H,Jalalpur Ferozepur,,Haryana,IN,https://www.google.com/maps/place/Masjid+ahle+hadish/data=!4m7!3m6!1s0x3972cf9c2a22a63f:0x6ec54d6f07dcf71!8m2!3d27.9080583!4d77.0058621!16s%2Fg%2F11s3zlh71v!19sChIJP6YiKpzPcjkRcc998NZU7AY?authuser=0&hl=en&rclk=1,"27.9080583,77.0058621"
Char Minara Mosque,Mosque,"4J2W+C8J Char Minara Mosque, Khirwa Jalalpur, Uttar Pradesh 250341",,4J2W+C8J,Khirwa Jalalpur,250341,Uttar Pradesh,IN,https://www.google.com/maps/place/Char+Minara+Mosque/data=!4m7!3m6!1s0x390c69122913941d:0xf8e1aebc1d2f6814!8m2!3d29.1010895!4d77.6457741!16s%2Fg%2F11ffw77l1f!19sChIJHZQTKRJpDDkRFGgvHbyu4fg?authuser=0&hl=en&rclk=1,"29.101089499999997,77.6457741"
Washiri masjid,Mosque,"MRF9+8X2 Washiri masjid, Jalalpur, Jalalpur Khas, Uttar Pradesh 244413",,MRF9+8X2,"Jalalpur, Jalalpur Khas",244413,Uttar Pradesh,IN,https://www.google.com/maps/place/Washiri+masjid/data=!4m7!3m6!1s0x390ae76a0caeafb1:0x5177d9a7e63f2f0a!8m2!3d28.6732662!4d78.8198896!16s%2Fg%2F11s0jtmdk2!19sChIJsa-uDGrnCjkRCi8_5qfZd1E?authuser=0&hl=en&rclk=1,"28.673266199999997,78.8198896"
Eid Gaah Jalalpur Ferozepur,Mosque,"W23H+434 Eid Gaah Jalalpur Ferozepur, Jalalpur Ferozepur, Haryana 122108",,W23H+434,Jalalpur Ferozepur,122108,Haryana,IN,https://www.google.com/maps/place/Eid+Gaah+Jalalpur+Ferozepur/data=!4m7!3m6!1s0x3972d162267aa94f:0xd8e31127106918cb!8m2!3d27.9027695!4d77.0276966!16s%2Fg%2F11fprpk3n8!19sChIJT6l6JmLRcjkRyxhpECcR49g?authuser=0&hl=en&rclk=1,"27.902769499999998,77.0276966"
Jama masjid,Mosque,"36WX+PM5 Jama masjid, Jalalpur Khalsa, Dhamaka, Haryana 121102",,36WX+PM5,"Jalalpur Khalsa, Dhamaka",,Haryana,IN,https://www.google.com/maps/place/Jama+masjid/data=!4m7!3m6!1s0x390cd549f04039dd:0xb9c614aeaf7a82e1!8m2!3d28.0967569!4d77.249231!16s%2Fg%2F11s_tlbt3w!19sChIJ3TlA8EnVDDkR4YJ6r64Uxrk?authuser=0&hl=en&rclk=1,"28.0967569,77.249231"
Sabbir Masjid,Mosque,"HC3G+MCM Sabbir Masjid, Kakrala, Noida, Bisrakh Jalalpur, Uttar Pradesh 201305",Kakrala,HC3G+MCM,"Noida, Bisrakh Jalalpur",,Uttar Pradesh,IN,https://www.google.com/maps/place/Sabbir+Masjid/data=!4m7!3m6!1s0x390cef7f5535e645:0x5054644e52e7d96d!8m2!3d28.5542099!4d77.4260425!16s%2Fg%2F11l6rt1y2f!19sChIJReY1VX_vDDkRbdnnUk5kVFA?authuser=0&hl=en&rclk=1,"28.5542099,77.4260425"
Kabristaan jalalpur,Mosque,"44WF+HRW Kabristaan jalalpur, Unnamed Road, Narau, Uttar Pradesh 203397",,"44WF+HRW, Unnamed Road",Narau,203397,Uttar Pradesh,IN,https://www.google.com/maps/place/Kabristaan+jalalpur/data=!4m7!3m6!1s0x3974b346e4cd7303:0xc4c991cc7ff98df1!8m2!3d28.1464789!4d78.1245837!16s%2Fg%2F11qgyz0bzm!19sChIJA3PN5EazdDkR8Y35f8yRycQ?authuser=0&hl=en&rclk=1,"28.146478899999998,78.1245837"
Meraj Masjid,Mosque,"59P4+WF Meraj Masjid, Khajuri, Uttar Pradesh 246737",,59P4+WF,Khajuri,,Uttar Pradesh,IN,https://www.google.com/maps/place/Meraj+Masjid/data=!4m7!3m6!1s0x390bbff34377689f:0x695a8a6b7b33d435!8m2!3d29.1873168!4d78.3562844!16s%2Fg%2F11q57w8yv7!19sChIJn2h3Q_O_CzkRNdQze2uKWmk?authuser=0&hl=en&rclk=1,"29.187316799999998,78.35628439999999"
Paschim Masjid,Mosque,"HGFG+82M Paschim Masjid, Unnamed Road, Salarpur Kalan, Uttar Pradesh 244302",,"HGFG+82M, Unnamed Road",Salarpur Kalan,244302,Uttar Pradesh,IN,https://www.google.com/maps/place/Paschim+Masjid/data=!4m7!3m6!1s0x390b192b5825121b:0x95b25e6140936f74!8m2!3d28.5733285!4d78.5250609!16s%2Fg%2F11pcnzt90n!19sChIJGxIlWCsZCzkRdG-TQGFespU?authuser=0&hl=en&rclk=1,"28.5733285,78.5250609"
Masjid,Mosque,"8G3F+W88 Masjid, Khalelpur, Khalilpur, Uttar Pradesh 243751",,"8G3F+W88, Khalelpur","Khalilpur, Udranpur Azmatnagar",243751,Uttar Pradesh,IN,https://www.google.com/maps/place/Masjid/data=!4m7!3m6!1s0x390b2ef4ee18cdbf:0x27b506f8854495e1!8m2!3d28.3047954!4d78.5233316!16s%2Fg%2F11fy19dtn0!19sChIJv80Y7vQuCzkR4ZVEhfgGtSc?authuser=0&hl=en&rclk=1,"28.3047954,78.52333159999999"
Alafpur Masjid,Mosque,"W89P+CG Alafpur Masjid, Alampur, Uttar Pradesh 202129",,W89P+CG,Alampur,202129,Uttar Pradesh,IN,https://www.google.com/maps/place/Alafpur+Masjid/data=!4m7!3m6!1s0x3974c7c178cf7523:0x79e3230444c44f4d!8m2!3d27.9170524!4d78.3159014!16s%2Fg%2F11tj2z8sv0!19sChIJI3XPeMHHdDkRTU_ERAQj43k?authuser=0&hl=en&rclk=1,"27.9170524,78.3159014"
Qadiri Masjid,Mosque,"FJ78+2JC Qadiri Masjid, Jalalpur, Uttar Pradesh 227809",,FJ78+2JC,Jalalpur,227809,Uttar Pradesh,IN,https://www.google.com/maps/place/Qadiri+Masjid/data=!4m7!3m6!1s0x399a49f9913dffc7:0xc0170fc5a99b56d0!8m2!3d26.4625561!4d81.6165297!16s%2Fg%2F11l71xpk0g!19sChIJx_89kflJmjkR0FabqcUPF8A?authuser=0&hl=en&rclk=1,"26.4625561,81.6165297"
Jhal masjid,Mosque,"C83Q+4GH Jhal masjid, Jhal, Uttar Pradesh 247776",,C83Q+4GH,Jhal,247776,Uttar Pradesh,IN,https://www.google.com/maps/place/Jhal+masjid/data=!4m7!3m6!1s0x390c2f5899b5d683:0x1c1b95ee0ccbad48!8m2!3d29.4027595!4d77.3391487!16s%2Fg%2F11trp9262m!19sChIJg9a1mVgvDDkRSK3LDO6VGxw?authuser=0&hl=en&rclk=1,"29.4027595,77.3391487"
Masjid,Mosque,"2PVM+97X Masjid, Unnamed Road, Uttar Pradesh 202141",,"2PVM+97X, Unnamed Road",Balanpur,202141,Uttar Pradesh,IN,https://www.google.com/maps/place/Masjid/data=!4m7!3m6!1s0x39734d6bd7c21e3d:0x757b568035794144!8m2!3d28.0434922!4d77.7332453!16s%2Fg%2F11nnp819sb!19sChIJPR7C12tNczkRREF5NYBWe3U?authuser=0&hl=en&rclk=1,"28.0434922,77.7332453"
Juma Masjid Markaz_OL,Mosque,"8J3F+2M7 Juma Masjid Markaz_OL, Ol, Uttar Pradesh 281122",,8J3F+2M7,Ol,281122,Uttar Pradesh,IN,https://www.google.com/maps/place/Juma+Masjid+Markaz_OL/data=!4m7!3m6!1s0x39739fa84bf3d2a1:0xce40f0707c74b693!8m2!3d27.3025304!4d77.6241404!16s%2Fg%2F11sjjm2yyq!19sChIJodLzS6ifczkRk7Z0fHDwQM4?authuser=0&hl=en&rclk=1,"27.3025304,77.6241404"
Masjid,Mosque,"6899+MF Masjid, Gopalpur Khadana, Uttar Pradesh 250625",,6899+MF,Gopalpur Khadana,,Uttar Pradesh,IN,https://www.google.com/maps/place/Masjid/data=!4m7!3m6!1s0x390c3746e57608db:0x3b5687d2abb9cc1e!8m2!3d29.21923!4d77.318635!16s%2Fg%2F11t9vst9wq!19sChIJ2wh25UY3DDkRHsy5q9KHVjs?authuser=0&hl=en&rclk=1,"29.21923,77.318635"
jnntii jaamaa msjid,Mosque,"8P5Q+48W jnntii jaamaa msjid, Jalalpur, Uttar Pradesh 224149",,8P5Q+48W,Jalalpur,,Uttar Pradesh,IN,https://www.google.com/maps/place/%E0%A4%9C%E0%A4%A8%E0%A5%8D%E0%A4%A8%E0%A4%A4%E0%A5%80+%E0%A4%9C%E0%A4%BE%E0%A4%AE%E0%A4%BE+%E0%A4%AE%E0%A4%B8%E0%A5%8D%E0%A4%9C%E0%A4%BF%E0%A4%A6/data=!4m7!3m6!1s0x3990f97a64da1727:0x1a8a5884816470!8m2!3d26.3078618!4d82.7383335!16s%2Fg%2F11sqkdmpsh!19sChIJJxfaZHr5kDkRcGSBhFiKGgA?authuser=0&hl=en&rclk=1,"26.307861799999998,82.7383335"
Madarse Wali Moti Masjid,Mosque,"HMC2+8VW Madarse Wali Moti Masjid, Jarcha, Uttar Pradesh 203207",,HMC2+8VW,Jarcha,203207,Uttar Pradesh,IN,https://www.google.com/maps/place/Madarse+Wali+Moti+Masjid/data=!4m7!3m6!1s0x390c940015555555:0xa9b734f7510bd3d2!8m2!3d28.5708541!4d77.6521879!16s%2Fg%2F11fy_4ctqz!19sChIJVVVVFQCUDDkR0tMLUfc0t6k?authuser=0&hl=en&rclk=1,"28.5708541,77.6521879"
JAMA MASJID AKBARPUR,Mosque,"9MW5+XJ3 JAMA MASJID AKBARPUR, Akbarpur, Uttar Pradesh 244410",,9MW5+XJ3,Akbarpur,244410,Uttar Pradesh,IN,https://www.google.com/maps/place/JAMA+MASJID+AKBARPUR/data=!4m7!3m6!1s0x390ad97fa39c16f5:0xd15b4f6eb0ae3f87!8m2!3d28.398015!4d78.659201!16s%2Fg%2F11khzc53dt!19sChIJ9Raco3_ZCjkRhz-usG5PW9E?authuser=0&hl=en&rclk=1,"28.398014999999997,78.659201"
Bilal masjid,Shrine,"4P3R+XFG Bilal masjid, pisawa-jalalpur, Jalalpur, Uttar Pradesh 202155",,"4P3R+XFG, pisawa-jalalpur",Jalalpur,202155,Uttar Pradesh,IN,https://www.google.com/maps/place/Bilal+masjid/data=!4m7!3m6!1s0x39734d05668d5161:0x7b95705acedd65d3!8m2!3d28.1049376!4d77.7411951!16s%2Fg%2F11v5scn1dn!19sChIJYVGNZgVNczkR02XdzlpwlXs?authuser=0&hl=en&rclk=1,"28.1049376,77.7411951"
Markaz jama masjid beech wali,Mosque,"J4PW+59Q Markaz jama masjid beech wali, Jalalpur Rd, Jalalpur, Uttar Pradesh 203403",,"J4PW+59Q, Jalalpur Rd",Jalalpur,203403,Uttar Pradesh,IN,https://www.google.com/maps/place/Markaz+jama+masjid+beech+wali/data=!4m7!3m6!1s0x390b6fcb18f47bab:0xb34c4144f349523f!8m2!3d28.6355256!4d78.1460156!16s%2Fg%2F11s3vmhltp!19sChIJq3v0GMtvCzkRP1JJ80RBTLM?authuser=0&hl=en&rclk=1,"28.635525599999998,78.1460156"
Haseena masjid,Mosque,"GCQV+JCG Haseena masjid, Gogwan Jalalpur, Uttar Pradesh 251305",,GCQV+JCG,Gogwan Jalalpur,,Uttar Pradesh,IN,https://www.google.com/maps/place/Haseena+masjid/data=!4m7!3m6!1s0x390c272b46192e01:0x8034e81e6ad68735!8m2!3d29.539056!4d77.4435708!16s%2Fg%2F11rvc3hzbj!19sChIJAS4ZRisnDDkRNYfWah7oNIA?authuser=0&hl=en&rclk=1,"29.539056,77.4435708"
bulnd shaahii msjid Buland shahi masjid,Mosque,"bulnd shaahii msjid Buland shahi masjid, sherpur rodd jlaalpur Shearpur road, rodd Shearpur road, jalalpur, Sherpur, Uttar Pradesh 245403",jalalpur,"sherpur rodd jlaalpur Shearpur road, rodd Shearpur road","Sherpur, Jalalpur",245403,Uttar Pradesh,IN,https://www.google.com/maps/place/%E0%A4%AC%E0%A5%81%E0%A4%B2%E0%A4%A8%E0%A5%8D%E0%A4%A6+%E0%A4%B6%E0%A4%BE%E0%A4%B9%E0%A5%80+%E0%A4%AE%E0%A4%B8%E0%A5%8D%E0%A4%9C%E0%A4%BF%E0%A4%A6+Buland+shahi+masjid/data=!4m7!3m6!1s0x390b6fd5757561af:0xffffeef44cd85ec5!8m2!3d28.6369263!4d78.1471084!16s%2Fg%2F11smzklznl!19sChIJr2F1ddVvCzkRxV7YTPTu__8?authuser=0&hl=en&rclk=1,"28.6369263,78.1471084"
Chand Tara Masjid,Mosque,"V2MQ+7HF Chand Tara Masjid, Unnamed Road, Prem Vihar, Jalalpur, Aligarh, Uttar Pradesh 202001","Prem Vihar, Jalalpur","V2MQ+7HF, Unnamed Road",Aligarh,202001,Uttar Pradesh,IN,https://www.google.com/maps/place/Chand+Tara+Masjid/data=!4m7!3m6!1s0x3974a52902aee6f3:0x329de870d571038e!8m2!3d27.8831977!4d78.0389205!16s%2Fg%2F11h4kks79r!19sChIJ8-auAimldDkRjgNx1XDonTI?authuser=0&hl=en&rclk=1,"27.8831977,78.0389205"
CHAND MASJID,Mosque,"59P3+4Q7 CHAND MASJID, Mahdood Nashon, Jalalpur Deepa, Uttar Pradesh 246734",,59P3+4Q7,"Mahdood Nashon, Jalalpur Deepa",246734,Uttar Pradesh,IN,https://www.google.com/maps/place/%F0%9F%8C%99CHAND+MASJID%F0%9F%95%8C/data=!4m7!3m6!1s0x390bbd2570c90701:0x19c9196d72f868a9!8m2!3d29.1856069!4d78.3546786!16s%2Fg%2F11t_v1xm7g!19sChIJAQfJcCW9CzkRqWj4cm0ZyRk?authuser=0&hl=en&rclk=1,"29.1856069,78.3546786"
Masjid Sana (Choti Masjid Ahle Hadees),Mosque,"W22F+HMP Masjid Sana (Choti Masjid Ahle Hadees), near Molana Hakimuddin Sanabili House, Jalalpur Ferozepur, Haryana 122108",,"W22F+HMP, near Molana Hakimuddin Sanabili House",Jalalpur Ferozepur,122108,Haryana,IN,https://www.google.com/maps/place/Masjid+Sana+%28Choti+Masjid+Ahle+Hadees%29/data=!4m7!3m6!1s0x3972d1f6e5f8e6cf:0x9086a6bc0d0d81d4!8m2!3d27.9014705!4d77.0241886!16s%2Fg%2F11nxv3xky3!19sChIJz-b45fbRcjkR1IENDbymhpA?authuser=0&hl=en&rclk=1,"27.9014705,77.0241886"
Noorani Masjid patpura (Zain),Mosque,"CCM4+7WJ Noorani Masjid patpura (Zain), Jalalpur Bhunga, Uttar Pradesh 246762",,CCM4+7WJ,Jalalpur Bhunga,246762,Uttar Pradesh,IN,https://www.google.com/maps/place/Noorani+Masjid+patpura+%28Zain%29/data=!4m7!3m6!1s0x390bc5344d413499:0x735bbe8e474db558!8m2!3d29.4332428!4d78.4072627!16s%2Fg%2F11kr9nwj1w!19sChIJmTRBTTTFCzkRWLVNR46-W3M?authuser=0&hl=en&rclk=1,"29.4332428,78.40726269999999"
Teli Rathan Masjid,Mosque,"GCPQ+559 Teli Rathan Masjid, Gogwan Jalalpur, Uttar Pradesh 251305",,GCPQ+559,Gogwan Jalalpur,251305,Uttar Pradesh,IN,https://www.google.com/maps/place/Teli+Rathan+Masjid/data=!4m7!3m6!1s0x390c270a8176e439:0xc0eaf03ba7e4f6e6!8m2!3d29.5354073!4d77.4379867!16s%2Fg%2F11gy0s2s53!19sChIJOeR2gQonDDkR5vbkpzvw6sA?authuser=0&hl=en&rclk=1,"29.5354073,77.4379867"
Bilala masjid,Pagoda,"4Q55+5QG Bilala masjid, pisawa-jalalpur, Pisawa, Uttar Pradesh 202155",,"4Q55+5QG, pisawa-jalalpur",Pisawa,202155,Uttar Pradesh,IN,https://www.google.com/maps/place/Bilala+masjid/data=!4m7!3m6!1s0x39735395c7023093:0x1b8029442b653f7!8m2!3d28.1087766!4d77.7590111!16s%2Fg%2F11v3g8trv_!19sChIJkzACx5VTczkR91O2QpQCuAE?authuser=0&hl=en&rclk=1,"28.1087766,77.7590111"
Jalalpur Deepa,,"Jalalpur Deepa, Uttar Pradesh",,,Jalalpur Deepa,,Uttar Pradesh,IN,https://www.google.com/maps/place/Jalalpur+Deepa/data=!4m7!3m6!1s0x390bbc2716b3e6c5:0x82ec6b4c2e163aa4!8m2!3d29.18471!4d78.354355!16s%2Fg%2F12jsg2wcc!19sChIJxeazFie8CzkRpDoWLkxr7II?authuser=0&hl=en&rclk=1,"29.18471,78.354355"
Jalalpur masjid jlaalpur msjid,Mosque,"XGP9+PXJ Jalalpur masjid jlaalpur msjid, Alamganj, Khoonta, Uttar Pradesh 212635",,XGP9+PXJ,"Alamganj, Khoonta",212635,Uttar Pradesh,IN,https://www.google.com/maps/place/Jalalpur+masjid+%E0%A4%9C%E0%A4%B2%E0%A4%BE%E0%A4%B2%E0%A4%AA%E0%A5%81%E0%A4%B0+%E0%A4%AE%E0%A4%B8%E0%A5%8D%E0%A4%9C%E0%A4%BF%E0%A4%A6/data=!4m7!3m6!1s0x399c8df430eaab41:0x302356f36ae948f7!8m2!3d25.9868304!4d80.5198945!16s%2Fg%2F11kjg4hyht!19sChIJQavqMPSNnDkR90jpavNWIzA?authuser=0&hl=en&rclk=1,"25.9868304,80.51989449999999"
Jalalpur,,"Jalalpur, Uttar Pradesh 201206",,,Jalalpur,,Uttar Pradesh,IN,https://www.google.com/maps/place/Jalalpur/data=!4m7!3m6!1s0x390cf4395343982b:0x1ec221c542e3b143!8m2!3d28.7696937!4d77.4877634!16s%2Fg%2F1trxhnp_!19sChIJK5hDUzn0DDkRQ7HjQsUhwh4?authuser=0&hl=en&rclk=1,"28.769693699999998,77.48776339999999"
Jalalpur,,"Jalalpur, Uttar Pradesh 201206",,,Jalalpur,,Uttar Pradesh,IN,https://www.google.com/maps/place/Jalalpur/data=!4m7!3m6!1s0x390cf43b2df49751:0xf14be575a86a613b!8m2!3d28.7703324!4d77.4831032!16s%2Fg%2F12hnz5367!19sChIJUZf0LTv0DDkRO2FqqHXlS_E?authuser=0&hl=en&rclk=1,"28.770332399999997,77.4831032"
Choti Masjid Jafrabad Jalalpur,Mosque,"8P5R+XF9 Choti Masjid Jafrabad Jalalpur, Unnamed Road, Jafrabad, Jalalpur, Uttar Pradesh 224149",Jafrabad,"8P5R+XF9, Unnamed Road",Jalalpur,224149,Uttar Pradesh,IN,https://www.google.com/maps/place/Choti+Masjid+Jafrabad+Jalalpur/data=!4m7!3m6!1s0x3990f964c3692361:0x6321247d1cb0616d!8m2!3d26.3099068!4d82.7412494!16s%2Fg%2F11gy1mzghc!19sChIJYSNpw2T5kDkRbWGwHH0kIWM?authuser=0&hl=en&rclk=1,"26.3099068,82.7412494"
Masjid al aqsha,Mosque,"244X+J5H Masjid al aqsha, Bhimsika, Haryana 121103",,244X+J5H,Bhimsika,121103,Haryana,IN,https://www.google.com/maps/place/Masjid+al+aqsha/data=!4m7!3m6!1s0x3972d52e65dcf9fb:0xb9441507b423386!8m2!3d28.0065659!4d77.1479769!16s%2Fg%2F11s_rxvqjl!19sChIJ-_ncZS7VcjkRhjNCe1BBlAs?authuser=0&hl=en&rclk=1,"28.0065659,77.1479769"
Masjid,Mosque,"7CP7+27F Masjid, Jaula, Uttar Pradesh 251309",,7CP7+27F,Jaula,251309,Uttar Pradesh,IN,https://www.google.com/maps/place/Masjid/data=!4m7!3m6!1s0x390c3be6d194a2d3:0x93d30ac62f63e944!8m2!3d29.2851092!4d77.413193!16s%2Fg%2F11khrh19zc!19sChIJ06KU0eY7DDkRROljL8YK05M?authuser=0&hl=en&rclk=1,"29.285109199999997,77.41319299999999"
Masjid Jalalpur,Mosque,"5QX4+G4V Masjid Jalalpur, Unnamed Road, Jalalpur, Uttar Pradesh 231501",,"5QX4+G4V, Unnamed Road",Jalalpur,231501,Uttar Pradesh,IN,https://www.google.com/maps/place/Masjid+Jalalpur/data=!4m7!3m6!1s0x398fc9fa1ba115c5:0x5d3fb55a4eaf3a0f!8m2!3d25.1988514!4d82.7553123!16s%2Fg%2F11q8xbdmf8!19sChIJxRWhG_rJjzkRDzqvTlq1P10?authuser=0&hl=en&rclk=1,"25.1988514,82.7553123"
JAMA MASJID (Haidery Chowk) Mustafabad Jalalpur,Mosque,"7QW8+7WH JAMA MASJID (Haidery Chowk) Mustafabad Jalalpur, Nugpur, Uttar Pradesh 224149",,7QW8+7WH,Nugpur,224149,Uttar Pradesh,IN,https://www.google.com/maps/place/JAMA+MASJID+%28Haidery+Chowk%29+Mustafabad+Jalalpur/data=!4m7!3m6!1s0x3990f9ef92b75cc9:0x8ac98c81429c1b96!8m2!3d26.2957682!4d82.7677228!16s%2Fg%2F11s0s2wgxs!19sChIJyVy3ku_5kDkRlhucQoGMyYo?authuser=0&hl=en&rclk=1,"26.295768199999998,82.7677228"
