name,main_category,address,address_ward,address_street,address_city,address_postal_code,address_state,address_country_code,link,coordinates
Jama Masjid,Mosque,"Jama Masjid, Old Delhi, Delhi, 110006","Jama Masjid, Old Delhi",,Delhi,110006,Delhi,IN,https://www.google.com/maps/place/Jama+Masjid/data=!4m7!3m6!1s0x390cfd18df89b215:0xdd57369e29bf9d96!8m2!3d28.6506792!4d77.2334421!16zL20vMDR5emo1!19sChIJFbKJ3xj9DDkRlp2_KZ42V90?authuser=0&hl=en&rclk=1,"28.6506792,77.23344209999999"
Pari gift faridpur,Gift shop,"Pari gift faridpur, Pari gift & toys, Savitri market Sarafa bazar, Faridpur dist, Uttar Pradesh 243503",,"Pari gift & toys, Savitri market Sarafa bazar, Faridpur dist",Faridpur,243503,Uttar Pradesh,IN,https://www.google.com/maps/place/Pari+gift+faridpur/data=!4m7!3m6!1s0x399ff9c8d980786d:0xddb955bfe3ad0af1!8m2!3d28.207783!4d79.5374815!16s%2Fg%2F11r10hc_ht!19sChIJbXiA2cj5nzkR8Qqt479Vud0?authuser=0&hl=en&rclk=1,"28.207783,79.5374815"
Aman Studio,Video editing service,"Aman Studio, near Madarsa Qadriya Nooriya, Mohalla Mirdhan, near Masjid Mufti Azam Madarsa Qadriya Nooriya, Faridpur, Uttar Pradesh 243503",,"near Madarsa Qadriya Nooriya, Mohalla Mirdhan, near Masjid Mufti Azam Madarsa Qadriya Nooriya",Faridpur,243503,Uttar Pradesh,IN,https://www.google.com/maps/place/Aman+Studio/data=!4m7!3m6!1s0x399ff9dd42b6f0bb:0xcad02971e26473d0!8m2!3d28.2066001!4d79.5485806!16s%2Fg%2F11vldcbs2f!19sChIJu_C2Qt35nzkR0HNk4nEp0Mo?authuser=0&hl=en&rclk=1,"28.2066001,79.5485806"
Faridpur,Clothing store,"Faridpur, Moh Farrakhpur, Nana miya, Jatav Wali Gali, Faridpur, Uttar Pradesh 262201",,"Moh Farrakhpur, Nana miya, Jatav Wali Gali",Faridpur,262201,Uttar Pradesh,IN,https://www.google.com/maps/place/Faridpur/data=!4m7!3m6!1s0x399ff9e25b3c02e9:0xc9a327b576ecbe55!8m2!3d28.2091237!4d79.5377616!16s%2Fg%2F11h75y53hs!19sChIJ6QI8W-L5nzkRVb7sdrUno8k?authuser=0&hl=en&rclk=1,"28.2091237,79.5377616"
Masjid Hayat Madarsa Sahabia,Mosque,"F7XW+9R3 Masjid Hayat Madarsa Sahabia, Mehrauli - Badarpur Rd, Mittal Colony, Block RZ H, Pul Pehlad Pur, New Delhi, Faridabad, Delhi 110044","Mittal Colony, Block RZ H, Pul Pehlad Pur","F7XW+9R3, Mehrauli - Badarpur Rd","New Delhi, Faridabad",110044,Delhi,IN,https://www.google.com/maps/place/Masjid+Hayat+Madarsa+Sahabia/data=!4m7!3m6!1s0x390ce6d74f08cf85:0xcf35c38ec0e866ca!8m2!3d28.4983917!4d77.2970623!16s%2Fg%2F12hkbl23n!19sChIJhc8IT9fmDDkRymbowI7DNc8?authuser=0&hl=en&rclk=1,"28.4983917,77.2970623"
Masjid-e-Alahazrat,Mosque,"6G5Q+6VG Masjid-e-Alahazrat, Faridpur, Uttar Pradesh 243503",,6G5Q+6VG,Faridpur,243503,Uttar Pradesh,IN,https://www.google.com/maps/place/Masjid-e-Alahazrat/data=!4m7!3m6!1s0x399ff9c73aeb7bc5:0x237aaf75a217d794!8m2!3d28.2080693!4d79.5397138!16s%2Fg%2F11cn7n5r7s!19sChIJxXvrOsf5nzkRlNcXonWveiM?authuser=0&hl=en&rclk=1,"28.2080693,79.5397138"
Raza Sunni Jama masjid,Religious destination,"MGWF+H83 Raza Sunni Jama masjid, Richha, Uttar Pradesh 243201",,MGWF+H83,Richha,243201,Uttar Pradesh,IN,https://www.google.com/maps/place/Raza+Sunni+Jama+masjid/data=!4m7!3m6!1s0x39a07251d6e675fb:0x22b843a167c20945!8m2!3d28.6963895!4d79.5232931!16s%2Fg%2F11c4tnbd2m!19sChIJ-3Xm1lFyoDkRRQnCZ6FDuCI?authuser=0&hl=en&rclk=1,"28.6963895,79.52329309999999"
Saidupur Masjid,Mosque,"7FG8+3V3 Saidupur Masjid, Saidpur Laskariganj, Uttar Pradesh 243123",,7FG8+3V3,Saidpur Laskariganj,243123,Uttar Pradesh,IN,https://www.google.com/maps/place/Saidupur+Masjid/data=!4m7!3m6!1s0x39a001f9b671d1fb:0x1df89f1a0dfcfa64!8m2!3d28.2751475!4d79.4671831!16s%2Fg%2F11g81t6lhx!19sChIJ-9FxtvkBoDkRZPr8DRqf-B0?authuser=0&hl=en&rclk=1,"28.2751475,79.4671831"
Mohammadi Masjid,Mosque,"Mohammadi Masjid, block - c , gali no. 12 , shiv vihar part 2, Ismailpur Rd, Ekta Vihar, Basantpur, Faridabad, Delhi 121003","Ekta Vihar, Basantpur","block - c , gali no. 12 , shiv vihar part 2, Ismailpur Rd","Faridabad, New Delhi",121003,Delhi,IN,https://www.google.com/maps/place/Mohammadi+Masjid/data=!4m7!3m6!1s0x390ce65691d77451:0x37e5a2edf0d4bd81!8m2!3d28.5035617!4d77.3360423!16s%2Fg%2F12hmr57km!19sChIJUXTXkVbmDDkRgb3U8O2i5Tc?authuser=0&hl=en&rclk=1,"28.5035617,77.3360423"
SMART Point,Grocery store,"SMART Point, Smart Point Main Road Faridpur Dist B Bareilly 243503, Bareilly, Uttar Pradesh 243503",,Smart Point Main Road Faridpur Dist B Bareilly 243503,"Bareilly, Faridpur",243503,Uttar Pradesh,IN,https://www.google.com/maps/place/SMART+Point/data=!4m7!3m6!1s0x399ff9d4a6d1bb2d:0xcc4af7f96d1cd302!8m2!3d28.2134376!4d79.5361988!16s%2Fg%2F11thn4hx69!19sChIJLbvRptT5nzkRAtMcbfn3Ssw?authuser=0&hl=en&rclk=1,"28.2134376,79.5361988"
Jahangiri Gadi Wali Masjid,Mosque,"6G6R+3MR Jahangiri Gadi Wali Masjid, Faridpur, Uttar Pradesh 243503",,6G6R+3MR,Faridpur,243503,Uttar Pradesh,IN,https://www.google.com/maps/place/Jahangiri+Gadi+Wali+Masjid/data=!4m7!3m6!1s0x399ff9c6f623c975:0xe0a631ce5703737d!8m2!3d28.2102326!4d79.5416507!16s%2Fg%2F11d_8spfvg!19sChIJdckj9sb5nzkRfXMDV84xpuA?authuser=0&hl=en&rclk=1,"28.210232599999998,79.54165069999999"
RAZA MASJID,Mosque,"RAZA MASJID, 234, Pocket A, SGM Nagar, Sector 48, Faridabad, Haryana 121001","Pocket A, SGM Nagar, Sector 48",234,Faridabad,121001,Haryana,IN,https://www.google.com/maps/place/RAZA+MASJID/data=!4m7!3m6!1s0x390cdf8dff37516f:0x26599a86f9e09d98!8m2!3d28.3995558!4d77.2844248!16s%2Fg%2F11ghnd4b3h!19sChIJb1E3_43fDDkRmJ3g-YaaWSY?authuser=0&hl=en&rclk=1,"28.399555799999998,77.2844248"
Masjid Jama Faridpur,Mosque,"6G5Q+FCQ Masjid Jama Faridpur, Bukhara Faridpur Road, Sahukara, Faridpur, Uttar Pradesh 243503",Sahukara,"6G5Q+FCQ, Bukhara Faridpur Road",Faridpur,243503,Uttar Pradesh,IN,https://www.google.com/maps/place/Masjid+Jama+Faridpur/data=!4m7!3m6!1s0x399ff9c7687ccffb:0x629ed6ef307476a6!8m2!3d28.2087033!4d79.5386073!16s%2Fg%2F11cnb25v53!19sChIJ-898aMf5nzkRpnZ0MO_WnmI?authuser=0&hl=en&rclk=1,"28.2087033,79.5386073"
Munawwara masjid mokal pur farid pur,Mosque,"6HMM+5JF Munawwara masjid mokal pur farid pur, Faridpur, Uttar Pradesh 228171",,6HMM+5JF,Faridpur,228171,Uttar Pradesh,IN,https://www.google.com/maps/place/Munawwara+masjid+mokal+pur+farid+pur/data=!4m7!3m6!1s0x3990f578e13addf5:0x945eed99bc293aa6!8m2!3d26.2329493!4d82.5840563!16s%2Fg%2F11fm38h5mj!19sChIJ9d064Xj1kDkRpjopvJntXpQ?authuser=0&hl=en&rclk=1,"26.232949299999998,82.5840563"
T - Point,Historical landmark,"T - Point, Near Jahangiri Masjid (Gadi Wali) Mohalla Mirdhan Bank of Baroda Wali Gali, Faridpur, Uttar Pradesh 243503",,Near Jahangiri Masjid (Gadi Wali) Mohalla Mirdhan Bank of Baroda Wali Gali,Faridpur,243503,Uttar Pradesh,IN,https://www.google.com/maps/place/T+-+Point/data=!4m7!3m6!1s0x399ff93f5e3c65a5:0x456d5c82d21de5d!8m2!3d28.2100101!4d79.5418629!16s%2Fg%2F11t9wl7jk1!19sChIJpWU8Xj_5nzkRXd4hLcjVVgQ?authuser=0&hl=en&rclk=1,"28.210010099999998,79.5418629"
Masjid-e-khwaja Gareeb Nawaz,Mosque,"6G5V+968 Masjid-e-khwaja Gareeb Nawaz, Faridpur, Uttar Pradesh 243503",,6G5V+968,Faridpur,243503,Uttar Pradesh,IN,https://www.google.com/maps/place/Masjid-e-khwaja+Gareeb+Nawaz/data=!4m7!3m6!1s0x399ff9c6a43cb403:0x3eca590dd88b8867!8m2!3d28.2084114!4d79.5430876!16s%2Fg%2F11gh2vhwkr!19sChIJA7Q8pMb5nzkRZ4iL2A1Zyj4?authuser=0&hl=en&rclk=1,"28.2084114,79.54308759999999"
Behra Gausiya masjid,Mosque,"4GG6+MQP Behra Gausiya masjid, Behra, Uttar Pradesh 243503",,4GG6+MQP,Behra,243503,Uttar Pradesh,IN,https://www.google.com/maps/place/Behra+Gausiya+masjid/data=!4m7!3m6!1s0x399ffb8440941b53:0x8c395bffd8bf6db8!8m2!3d28.1267135!4d79.5119529!16s%2Fg%2F11h008y1fp!19sChIJUxuUQIT7nzkRuG2_2P9bOYw?authuser=0&hl=en&rclk=1,"28.126713499999997,79.5119529"
Jama masjid Fareedpur,Mosque,"R5GM+4XF Jama masjid Fareedpur, Fareedpur Road, Uttar Pradesh 202002",,"R5GM+4XF, Fareedpur Road",,202002,Uttar Pradesh,IN,https://www.google.com/maps/place/Jama+masjid+Fareedpur/data=!4m7!3m6!1s0x3974bd5eb0b3a13f:0x618f6a23415e1818!8m2!3d27.825321!4d78.1849179!16s%2Fg%2F11h94xw88t!19sChIJP6GzsF69dDkRGBheQSNqj2E?authuser=0&hl=en&rclk=1,"27.825321,78.1849179"
Masjid-e-Raza Sarae Kham Tiswa Faridpur,Mosque,"4HMX+WJ3 Masjid-e-Raza Sarae Kham Tiswa Faridpur, Tisua, Uttar Pradesh 243506",,4HMX+WJ3,Tisua,243506,Uttar Pradesh,IN,https://www.google.com/maps/place/Masjid-e-Raza+Sarae+Kham+Tiswa+Faridpur/data=!4m7!3m6!1s0x399ff0567219998d:0xa44f017ab2e94440!8m2!3d28.1347691!4d79.5990395!16s%2Fg%2F11fy97wjmn!19sChIJjZkZclbwnzkRQETpsnoBT6Q?authuser=0&hl=en&rclk=1,"28.1347691,79.5990395"
Jama Masjid Burawali,Mosque,"J77J+82G Jama Masjid Burawali, Burawali, Uttar Pradesh 244241",,J77J+82G,Burawali,244241,Uttar Pradesh,IN,https://www.google.com/maps/place/Jama+Masjid+Burawali/data=!4m7!3m6!1s0x390b6b77c735f737:0xbb776fef2280adce!8m2!3d28.6133018!4d78.2800824!16s%2Fg%2F11f5_gc5lw!19sChIJN_c1x3drCzkRzq2AIu9vd7s?authuser=0&hl=en&rclk=1,"28.6133018,78.2800824"
Aala Hazrat Masjid Patti Chhajjupur,Mosque,"Aala Hazrat Masjid Patti Chhajjupur, Patti Chajjupur, Uttar Pradesh 242042",,,Patti Chajjupur,242042,Uttar Pradesh,IN,https://www.google.com/maps/place/Aala+Hazrat+Masjid+Patti+Chhajjupur/data=!4m7!3m6!1s0x399f80f410000001:0x5a9c168fbc43f53d!8m2!3d28.2807984!4d80.0486522!16s%2Fg%2F11g8pdf3fd!19sChIJAQAAEPSAnzkRPfVDvI8WnFo?authuser=0&hl=en&rclk=1,"28.2807984,80.04865219999999"
Masjid Singhai Kalan,Mosque,"7HCJ+55R Masjid Singhai Kalan, Unnamed Road, Singhai Kala, Uttar Pradesh 243503",,"7HCJ+55R, Unnamed Road",Singhai Kala,243503,Uttar Pradesh,IN,https://www.google.com/maps/place/Masjid+Singhai+Kalan/data=!4m7!3m6!1s0x399ff7b9725eda77:0x58f3f1e821bde5d5!8m2!3d28.2704815!4d79.5803844!16s%2Fg%2F11h44_62nj!19sChIJd9pecrn3nzkR1eW9Iejx81g?authuser=0&hl=en&rclk=1,"28.2704815,79.5803844"
Lashkarigunj Masjid,Mosque,"7FH8+MRG Lashkarigunj Masjid, Saidpur Laskariganj, Uttar Pradesh 243123",,7FH8+MRG,Saidpur Laskariganj,243123,Uttar Pradesh,IN,https://www.google.com/maps/place/Lashkarigunj+Masjid/data=!4m7!3m6!1s0x39a001f70465a74b:0xb5918cc4b9e55f38!8m2!3d28.2791807!4d79.4670829!16s%2Fg%2F11gb3myj62!19sChIJS6dlBPcBoDkROF_lucSMkbU?authuser=0&hl=en&rclk=1,"28.279180699999998,79.4670829"
Badi Masjid Kassawan,Mosque,"6G5Q+J4R Badi Masjid Kassawan, Kassawan Mauhalla, near Saukara, Faridpur, Uttar Pradesh 243503",,"6G5Q+J4R, Kassawan Mauhalla, near Saukara",Faridpur,243503,Uttar Pradesh,IN,https://www.google.com/maps/place/Badi+Masjid+Kassawan/data=!4m7!3m6!1s0x399ff9b8ef6d95df:0x486c511e74e63a68!8m2!3d28.2091237!4d79.5377617!16s%2Fg%2F11cs4frc3q!19sChIJ35Vt77j5nzkRaDrmdB5RbEg?authuser=0&hl=en&rclk=1,"28.2091237,79.53776169999999"
Jama Masjid Afzalpur,Mosque,"VG63+3RR Jama Masjid Afzalpur, Chak Faridpur Afjalpur, Uttar Pradesh 244221",,VG63+3RR,Chak Faridpur Afjalpur,244221,Uttar Pradesh,IN,https://www.google.com/maps/place/Jama+Masjid+Afzalpur/data=!4m7!3m6!1s0x390b0643f12571bd:0x9fef47254f60c5fe!8m2!3d28.8602287!4d78.5045284!16s%2Fg%2F11gcfwqyc5!19sChIJvXEl8UMGCzkR_sVgTyVH758?authuser=0&hl=en&rclk=1,"28.8602287,78.5045284"
nuurii jaamaa msjid,Mosque,"FCFV+W58 nuurii jaamaa msjid, Abhaipur, Uttar Pradesh 243202",,FCFV+W58,Abhaipur,,Uttar Pradesh,IN,https://www.google.com/maps/place/%E0%A4%A8%E0%A5%82%E0%A4%B0%E0%A5%80+%E0%A4%9C%E0%A4%BE%E0%A4%AE%E0%A4%BE+%E0%A4%AE%E0%A4%B8%E0%A5%8D%E0%A4%9C%E0%A4%BF%E0%A4%A6/data=!4m7!3m6!1s0x39a009fcbbc3d77b:0x10a3c0ae1c64ea19!8m2!3d28.4747849!4d79.4429626!16s%2Fg%2F11h2ff6hbp!19sChIJe9fDu_wJoDkRGepkHK7AoxA?authuser=0&hl=en&rclk=1,"28.4747849,79.4429626"
JAMA MASJID MALHPUR,Mosque,"7HJG+JXQ JAMA MASJID MALHPUR, Malhpur, Jihi, Uttar Pradesh 243123",,7HJG+JXQ,"Malhpur, Jihi",,Uttar Pradesh,IN,https://www.google.com/maps/place/JAMA+MASJID+MALHPUR/data=!4m7!3m6!1s0x39a01d468c12611d:0x81e4d4dcad89d1a4!8m2!3d28.2815966!4d79.5774759!16s%2Fg%2F11mv4n3j6c!19sChIJHWESjEYdoDkRpNGJrdzU5IE?authuser=0&hl=en&rclk=1,"28.2815966,79.5774759"
Dhakni jama masjid ddhknii jaamaa msjid,Mosque,"6HRF+PV9 Dhakni jama masjid ddhknii jaamaa msjid, Dhakni Rajpuri, Gulabnagar, Uttar Pradesh 243503",,6HRF+PV9,"Dhakni Rajpuri, Gulabnagar",243503,Uttar Pradesh,IN,https://www.google.com/maps/place/Dhakni+jama+masjid+%E0%A4%A2%E0%A4%95%E0%A4%A8%E0%A5%80+%E0%A4%9C%E0%A4%BE%E0%A4%AE%E0%A4%BE+%E0%A4%AE%E0%A4%B8%E0%A5%8D%E0%A4%9C%E0%A4%BF%E0%A4%A6/data=!4m7!3m6!1s0x399ff79f6137c553:0xc30861c8f32724eb!8m2!3d28.2417891!4d79.5747314!16s%2Fg%2F11pq5kjnc7!19sChIJU8U3YZ_3nzkR6yQn88hhCMM?authuser=0&hl=en&rclk=1,"28.2417891,79.57473139999999"
Noori Masjid mohalla baksariya,Mosque,"Noori Masjid mohalla baksariya, 1, Sahukara Rd, Faridpur, Uttar Pradesh 243503",,"1, Sahukara Rd",Faridpur,243503,Uttar Pradesh,IN,https://www.google.com/maps/place/Noori+Masjid+mohalla+baksariya/data=!4m7!3m6!1s0x399ff963d3cd19b3:0xb3fcd3531064ddb0!8m2!3d28.2063556!4d79.5368897!16s%2Fg%2F11gycnvddq!19sChIJsxnN02P5nzkRsN1kEFPT_LM?authuser=0&hl=en&rclk=1,"28.2063556,79.5368897"
Raza Masjid,Mosque,"5HV2+8VQ Raza Masjid, Nawadiya Ashok, Uttar Pradesh 243503",,5HV2+8VQ,Nawadiya Ashok,243503,Uttar Pradesh,IN,https://www.google.com/maps/place/Raza+Masjid/data=!4m7!3m6!1s0x399ff93de6afda5f:0x96a87eb37420914b!8m2!3d28.1933263!4d79.5522366!16s%2Fg%2F11gsmllvjm!19sChIJX9qv5j35nzkRS5EgdLN-qJY?authuser=0&hl=en&rclk=1,"28.1933263,79.5522366"
Masjid,Religious destination,"44CX+J29 Masjid, Lahi Faridpur, Uttar Pradesh 243601",,44CX+J29,Lahi Faridpur,243601,Uttar Pradesh,IN,https://www.google.com/maps/place/Masjid/data=!4m7!3m6!1s0x39754f4babc3ad15:0x1dc8ecba626defd2!8m2!3d28.1215288!4d79.1476235!16s%2Fg%2F11f655ywwk!19sChIJFa3Dq0tPdTkR0u9tYrrsyB0?authuser=0&hl=en&rclk=1,"28.1215288,79.1476235"
MASJID YAQOOBIE,Mosque,"44RM+8PX MASJID YAQOOBIE, Dugraiyya Brahmpur, Uttar Pradesh 243601",,44RM+8PX,Dugraiyya Brahmpur,,Uttar Pradesh,IN,https://www.google.com/maps/place/MASJID+YAQOOBIE/data=!4m7!3m6!1s0x39754f3751c03ca9:0xd57b2d782336647d!8m2!3d28.140856!4d79.1343532!16s%2Fg%2F11ff22bt4c!19sChIJqTzAUTdPdTkRfWQ2I3gte9U?authuser=0&hl=en&rclk=1,"28.140856,79.13435319999999"
Masjid Mewasharfapur,Mosque,"6JCR+RG7 Masjid Mewasharfapur, Mewa Shafipur, Badra Kasampur, Uttar Pradesh 243503",,6JCR+RG7,"Mewa Shafipur, Badra Kasampur",243503,Uttar Pradesh,IN,https://www.google.com/maps/place/Masjid+Mewasharfapur/data=!4m7!3m6!1s0x399ff7867e1f3a99:0xf577274c7e555574!8m2!3d28.2220305!4d79.641294!16s%2Fg%2F11tf66q_cf!19sChIJmToffob3nzkRdFVVfkwnd_U?authuser=0&hl=en&rclk=1,"28.2220305,79.641294"
Hazrat Bilaal Masjid,Mosque,"9XJQ+748 Hazrat Bilaal Masjid, Laxmipur, Bisauli, Uttar Pradesh",,"9XJQ+748, Laxmipur","Bisauli, Bavepur",,Uttar Pradesh,IN,https://www.google.com/maps/place/Hazrat+Bilaal+Masjid/data=!4m7!3m6!1s0x390ac901079e7589:0xdc020d04f2d3d5de!8m2!3d28.3806507!4d78.9878241!16s%2Fg%2F11gy73t6rd!19sChIJiXWeBwHJCjkR3tXT8gQNAtw?authuser=0&hl=en&rclk=1,"28.3806507,78.9878241"
Jeelani enterprises,Aluminum window,"Jeelani enterprises, Mohalla uncha new basti near azhari masjid faridpur, pur, Bareilly, Uttar Pradesh 243503",pur,Mohalla uncha new basti near azhari masjid faridpur,"Bareilly, Faridpur",243503,Uttar Pradesh,IN,https://www.google.com/maps/place/Jeelani+enterprises/data=!4m7!3m6!1s0x399ff975d48d3901:0x3bfa4120a0328cdb!8m2!3d28.2179509!4d79.5398864!16s%2Fg%2F11sk5vlmhg!19sChIJATmN1HX5nzkR24wyoCBB-js?authuser=0&hl=en&rclk=1,"28.217950899999998,79.5398864"
Madeena Masjid,Mosque,"CC58+J52 Madeena Masjid, Faridapur Chaudhary, Bareilly, Uttar Pradesh 243122",Faridapur Chaudhary,CC58+J52,Bareilly,243122,Uttar Pradesh,IN,https://www.google.com/maps/place/Madeena+Masjid/data=!4m7!3m6!1s0x39a007af985ab2d7:0x794d204e78614851!8m2!3d28.4090015!4d79.4153958!16s%2Fg%2F1pyqh9kd1!19sChIJ17JamK8HoDkRUUhheE4gTXk?authuser=0&hl=en&rclk=1,"28.4090015,79.4153958"
Masjid,Mosque,"7PWC+3MC Masjid, Richhaula Sawal, Uttar Pradesh 262201",,7PWC+3MC,Richhaula Sawal,262201,Uttar Pradesh,IN,https://www.google.com/maps/place/Masjid/data=!4m7!3m6!1s0x39a01fe63de3994f:0xfaa851979d42e528!8m2!3d28.2951809!4d79.7216425!16s%2Fg%2F11g8w62kqv!19sChIJT5njPeYfoDkRKOVCnZdRqPo?authuser=0&hl=en&rclk=1,"28.2951809,79.7216425"
Hsyny msjd husainii msjid,Mosque,"Hsyny msjd husainii msjid, mohllaa islaamngr bhuure khaaN gottiyaa, Faridpur, Uttar Pradesh 243503",,mohllaa islaamngr bhuure khaaN gottiyaa,Faridpur,,Uttar Pradesh,IN,https://www.google.com/maps/place/%D8%AD%D8%B3%DB%8C%D9%86%DB%8C+%D9%85%D8%B3%D8%AC%D8%AF+%E0%A4%B9%E0%A5%81%E0%A4%B8%E0%A5%88%E0%A4%A8%E0%A5%80+%E0%A4%AE%E0%A4%B8%E0%A5%8D%E0%A4%9C%E0%A4%BF%E0%A4%A6%E2%80%AD/data=!4m7!3m6!1s0x399ff93707ad3ee1:0xd1a21adf234d56e5!8m2!3d28.2218866!4d79.5419158!16s%2Fg%2F11fmscmc0q!19sChIJ4T6tBzf5nzkR5VZNI98aotE?authuser=0&hl=en&rclk=1,"28.221886599999998,79.5419158"
Qadri Masjid Gadiya Lai Khera Fatehganj Purbi,Mosque,"3JCJ+RFG Qadri Masjid Gadiya Lai Khera Fatehganj Purbi, Lahi Khera, Uttar Pradesh 242303",,3JCJ+RFG,Lahi Khera,242303,Uttar Pradesh,IN,https://www.google.com/maps/place/Qadri+Masjid+Gadiya+Lai+Khera+Fatehganj+Purbi/data=!4m7!3m6!1s0x399fee14f0ac1a29:0xd0f87ba988e913f6!8m2!3d28.0720504!4d79.6311895!16s%2Fg%2F11fy9qhd1q!19sChIJKRqs8BTunzkR9hPpiKl7-NA?authuser=0&hl=en&rclk=1,"28.0720504,79.63118949999999"
Nurani Masjid Khalilpur,Mosque,"8G4F+WQ5 Nurani Masjid Khalilpur, gunoor shambel, Khalilpur, Uttar Pradesh 243751",,"8G4F+WQ5, gunoor shambel","Khalilpur, Udranpur Azmatnagar",243751,Uttar Pradesh,IN,https://www.google.com/maps/place/Nurani+Masjid+Khalilpur/data=!4m7!3m6!1s0x390b2ef458e16643:0xaacf969a6fce1c41!8m2!3d28.3072694!4d78.5244822!16s%2Fg%2F11f03zz0n4!19sChIJQ2bhWPQuCzkRQRzOb5qWz6o?authuser=0&hl=en&rclk=1,"28.3072694,78.5244822"
Gausiya Masjid Mohalla Uncha,Mosque,"Gausiya Masjid Mohalla Uncha, Mohalla Uncha, near Power House, Faridpur, Uttar Pradesh 243503",,"Mohalla Uncha, near Power House",Faridpur,243503,Uttar Pradesh,IN,https://www.google.com/maps/place/Gausiya+Masjid+Mohalla+Uncha/data=!4m7!3m6!1s0x399ff9b7e8b9374f:0x7bd7a02374b3a5d1!8m2!3d28.2138368!4d79.5371561!16s%2Fg%2F11c52z5b_t!19sChIJTze56Lf5nzkR0aWzdCOg13s?authuser=0&hl=en&rclk=1,"28.2138368,79.53715609999999"
Jama Masjid Vill.Noorpur Moradabad,Mosque,"QQJ7+C33 Jama Masjid Vill.Noorpur Moradabad, Vill.Noorpur Mohammedpur, Mohemmadpur Bastaur",,"QQJ7+C33, Vill.Noorpur Mohammedpur","Mohemmadpur Bastaur, Unchakani",,Uttar Pradesh,IN,https://www.google.com/maps/place/Jama+Masjid+Vill.Noorpur+Moradabad/data=!4m7!3m6!1s0x390afbc4e899f59f:0xe7f851488a837adb!8m2!3d28.7810059!4d78.7626699!16s%2Fg%2F11ptnjbkjn!19sChIJn_WZ6MT7CjkR23qDikhR-Oc?authuser=0&hl=en&rclk=1,"28.7810059,78.76266989999999"
Jumma masjid behra,Mosque,"4GH6+CCM Jumma masjid behra, Ramnagar Rd, Behra, Uttar Pradesh 243503",,"4GH6+CCM, Ramnagar Rd",Behra,243503,Uttar Pradesh,IN,https://www.google.com/maps/place/Jumma+masjid+behra/data=!4m7!3m6!1s0x399ffb62d35faf9b:0xd24a81e337d485bc!8m2!3d28.1285926!4d79.5110416!16s%2Fg%2F11h04p3v8h!19sChIJm69f02L7nzkRvIXUN-OBStI?authuser=0&hl=en&rclk=1,"28.128592599999998,79.5110416"
Noori Masjid,Mosque,"MQX9+VH6 Noori Masjid, Faridpur Singhara, Pandia, Uttar Pradesh 244413",,MQX9+VH6,"Faridpur Singhara, Pandia",,Uttar Pradesh,IN,https://www.google.com/maps/place/Noori+Masjid/data=!4m7!3m6!1s0x390ae5a44201ff31:0xf6b43fc77296590c!8m2!3d28.699663!4d78.7688944!16s%2Fg%2F11f8hr4fyq!19sChIJMf8BQqTlCjkRDFmWcsc_tPY?authuser=0&hl=en&rclk=1,"28.699662999999997,78.7688944"
Hussaini masjid,Mosque,"C93W+7PJ Hussaini masjid, Unnamed Road, Govindpur, Bareilly, Uttar Pradesh 243502",Govindpur,"C93W+7PJ, Unnamed Road",Bareilly,243502,Uttar Pradesh,IN,https://www.google.com/maps/place/Hussaini+masjid/data=!4m7!3m6!1s0x39a007a01d262143:0xca8b866ddeaf1309!8m2!3d28.4032169!4d79.3967808!16s%2Fg%2F11lfgm3_ll!19sChIJQyEmHaAHoDkRCROv3m2Gi8o?authuser=0&hl=en&rclk=1,"28.4032169,79.3967808"
MADINA BULAND JAMA MASJID TISUA,Mosque,"4JP2+765 MADINA BULAND JAMA MASJID TISUA, Tisua, Uttar Pradesh 243506",,4JP2+765,Tisua,243506,Uttar Pradesh,IN,https://www.google.com/maps/place/MADINA+BULAND+JAMA+MASJID+TISUA/data=!4m7!3m6!1s0x399ff055eedefe2f:0xe8b410301af1b090!8m2!3d28.1356442!4d79.6006028!16s%2Fg%2F11h9rp85zn!19sChIJL_7e7lXwnzkRkLDxGjAQtOg?authuser=0&hl=en&rclk=1,"28.135644199999998,79.60060279999999"
rD y mSTf msjd rjaa e mustphaa msjid,Mosque,"6GCQ+H77 rD y mSTf msjd rjaa e mustphaa msjid, islam nagar bhure khan gautia, Faridpur, Uttar Pradesh 243503",,"6GCQ+H77, islam nagar bhure khan gautia",Faridpur,243503,Uttar Pradesh,IN,https://www.google.com/maps/place/%D8%B1%D8%B6%D8%A7+%DB%92+%D9%85%D8%B5%D8%B7%D9%81%D8%A7+%D9%85%D8%B3%D8%AC%D8%AF+%E0%A4%B0%E0%A4%9C%E0%A4%BE+%E0%A4%8F+%E0%A4%AE%E0%A5%81%E0%A4%B8%E0%A5%8D%E0%A4%A4%E0%A4%AB%E0%A4%BE+%E0%A4%AE%E0%A4%B8%E0%A5%8D%E0%A4%9C%E0%A4%BF%E0%A4%A6%E2%80%AD/data=!4m7!3m6!1s0x399ff97ea4826f75:0x4d2d2f2f0e811a6c!8m2!3d28.2214059!4d79.5381846!16s%2Fg%2F11h_0pm2n9!19sChIJdW-CpH75nzkRbBqBDi8vLU0?authuser=0&hl=en&rclk=1,"28.221405899999997,79.5381846"
Badi masjid,Mosque,"3GWR+8MG Badi masjid, Aliyabad Mahdipur, Uttar Pradesh 203135",,3GWR+8MG,Aliyabad Mahdipur,203135,Uttar Pradesh,IN,https://www.google.com/maps/place/Badi+masjid/data=!4m7!3m6!1s0x397335e4bf9c7903:0xec6641a4de609c20!8m2!3d28.0958005!4d77.5416994!16s%2Fg%2F11qggb_k2m!19sChIJA3mcv-Q1czkRIJxg3qRBZuw?authuser=0&hl=en&rclk=1,"28.0958005,77.5416994"
Diler Khan Masjid,Mosque,"9C95+MMX Diler Khan Masjid, Gulab Nagar, Bareilly, Uttar Pradesh 243503",Gulab Nagar,9C95+MMX,Bareilly,243503,Uttar Pradesh,IN,https://www.google.com/maps/place/Diler+Khan+Masjid/data=!4m7!3m6!1s0x39a007072cf7b6bb:0x449f5a1489de0efc!8m2!3d28.3692282!4d79.4092424!16s%2Fg%2F11h7cvgxx5!19sChIJu7b3LAcHoDkR_A7eiRRan0Q?authuser=0&hl=en&rclk=1,"28.3692282,79.4092424"
raassttriiy svyNsevk sNgh phriidpur (RSS Faridpur),Non-profit organization,"6G4P+JRH raassttriiy svyNsevk sNgh phriidpur (RSS Faridpur), Sahukara Rd, Faridpur, Uttar Pradesh 243503",,"6G4P+JRH, Sahukara Rd",Faridpur,243503,Uttar Pradesh,IN,https://www.google.com/maps/place/%E0%A4%B0%E0%A4%BE%E0%A4%B7%E0%A5%8D%E0%A4%9F%E0%A5%8D%E0%A4%B0%E0%A5%80%E0%A4%AF+%E0%A4%B8%E0%A5%8D%E0%A4%B5%E0%A4%AF%E0%A4%82%E0%A4%B8%E0%A5%87%E0%A4%B5%E0%A4%95+%E0%A4%B8%E0%A4%82%E0%A4%98+%E0%A4%AB%E0%A4%B0%E0%A5%80%E0%A4%A6%E0%A4%AA%E0%A5%81%E0%A4%B0+%28RSS+Faridpur%29/data=!4m7!3m6!1s0x399ff9f8e09d38d7:0x1a15a0494bcc2697!8m2!3d28.2065579!4d79.5371197!16s%2Fg%2F11hyk3rbm3!19sChIJ1zid4Pj5nzkRlybMS0mgFRo?authuser=0&hl=en&rclk=1,"28.2065579,79.53711969999999"
Maszid,Mosque,"2P98+77Q Maszid, Alampur, Uttar Pradesh 242307",,2P98+77Q,Alampur,242307,Uttar Pradesh,IN,https://www.google.com/maps/place/Maszid/data=!4m7!3m6!1s0x399fed1184245541:0xe481f8aa28088a87!8m2!3d28.0182134!4d79.7157438!16s%2Fg%2F11t1bww52p!19sChIJQVUkhBHtnzkRh4oIKKr4geQ?authuser=0&hl=en&rclk=1,"28.0182134,79.7157438"
Azhari Masjid,Mosque,"8F9Q+F77 Azhari Masjid, Urla Jagir, Uttar Pradesh 243123",,8F9Q+F77,Urla Jagir,243123,Uttar Pradesh,IN,https://www.google.com/maps/place/Azhari+Masjid/data=!4m7!3m6!1s0x39a003cbe25bb4c7:0xfe4d0bac53cc78a3!8m2!3d28.3186625!4d79.4881691!16s%2Fg%2F11gbk4ylsz!19sChIJx7Rb4ssDoDkRo3jMU6wLTf4?authuser=0&hl=en&rclk=1,"28.3186625,79.4881691"
Madina Masjid,Mosque,"QX56+W48 Madina Masjid, Simbhaoli, Faridpur Simbhavali, Uttar Pradesh 245207",,QX56+W48,"Simbhaoli, Faridpur Simbhavali",,Uttar Pradesh,IN,https://www.google.com/maps/place/Madina+Masjid/data=!4m7!3m6!1s0x390b7d29b0363b29:0x53c832722be3cf10!8m2!3d28.7597992!4d77.960314!16s%2Fg%2F11gh_mfhq5!19sChIJKTs2sCl9CzkREM_jK3IyyFM?authuser=0&hl=en&rclk=1,"28.7597992,77.960314"
Masjid Gulshane Noori,Mosque,"Masjid Gulshane Noori, Naher Kothi, Faridpur, Uttar Pradesh 243503",,Naher Kothi,Faridpur,243503,Uttar Pradesh,IN,https://www.google.com/maps/place/Masjid+Gulshane+Noori/data=!4m7!3m6!1s0x399ff91cb23b4ff7:0xe98ea16f759ef8ea!8m2!3d28.2155625!4d79.5371875!16s%2Fg%2F11p9nxfhcl!19sChIJ9087shz5nzkR6viedW-hjuk?authuser=0&hl=en&rclk=1,"28.215562499999997,79.5371875"
Kadam vali mazar,Mosque,"6G5V+PG7 Kadam vali mazar, Faridpur, Uttar Pradesh 243503",,6G5V+PG7,Faridpur,243503,Uttar Pradesh,IN,https://www.google.com/maps/place/Kadam+vali+mazar/data=!4m7!3m6!1s0x399ff9d02c8d423b:0x902c9b28b3a8b03c!8m2!3d28.2092922!4d79.5438042!16s%2Fg%2F11lk9lx87k!19sChIJO0KNLND5nzkRPLCosyibLJA?authuser=0&hl=en&rclk=1,"28.2092922,79.5438042"
Noorani Masjid nuuraanii msjid nwrny msjd,Mosque,"QQF3+55V Noorani Masjid nuuraanii msjid nwrny msjd, Manjhaul Jabardastpur, Faridpur Hamir, Uttar Pradesh 244301",,QQF3+55V,"Manjhaul Jabardastpur, Faridpur Hamir",,Uttar Pradesh,IN,https://www.google.com/maps/place/Noorani+Masjid+%E0%A4%A8%E0%A5%82%E0%A4%B0%E0%A4%BE%E0%A4%A8%E0%A5%80+%E0%A4%AE%E0%A4%B8%E0%A5%8D%E0%A4%9C%E0%A4%BF%E0%A4%A6+%D9%86%D9%88%D8%B1%D8%A7%D9%86%DB%8C+%D9%85%D8%B3%D8%AC%D8%AF%E2%80%AD/data=!4m7!3m6!1s0x390afbd104c2baf3:0xe5b8f680a864a78d!8m2!3d28.7731235!4d78.7527769!16s%2Fg%2F11sgkxt0y1!19sChIJ87rCBNH7CjkRjadkqID2uOU?authuser=0&hl=en&rclk=1,"28.773123499999997,78.7527769"
Sadar Bazaar Masjid,Place of worship,"6G5Q+R9R Sadar Bazaar Masjid, old bhuta road faridpur Uttar Pradesh, Faridpur",,"6G5Q+R9R, old bhuta road faridpur Uttar Pradesh",Faridpur,,Uttar Pradesh,IN,https://www.google.com/maps/place/Sadar+Bazaar+Masjid/data=!4m7!3m6!1s0x399ff9c782cb0b63:0xac83c54e290f710b!8m2!3d28.2096029!4d79.538399!16s%2Fg%2F11b7qtpbc3!19sChIJYwvLgsf5nzkRC3EPKU7Fg6w?authuser=0&hl=en&rclk=1,"28.2096029,79.538399"
Bara Imambara,Mosque,"6G6Q+5FQ Bara Imambara, Old Bhuta Rd, Faridpur, Uttar Pradesh 243503",,"6G6Q+5FQ, Old Bhuta Rd",Faridpur,243503,Uttar Pradesh,IN,https://www.google.com/maps/place/Bara+Imambara/data=!4m7!3m6!1s0x399ff9a3a9a41875:0x3434bbfd38beeb8!8m2!3d28.2104594!4d79.5387354!16s%2Fg%2F11rfn37c4t!19sChIJdRikqaP5nzkRuO6L079LQwM?authuser=0&hl=en&rclk=1,"28.210459399999998,79.5387354"
Dargah Sharif Mira Sawan Bade Peer Baba (Bijnor),Mosque,"94C8+W2 Dargah Sharif Mira Sawan Bade Peer Baba (Bijnor), Bijnor, Faridpur Kazi, Uttar Pradesh 246701",,94C8+W2,"Bijnor, Faridpur Kazi",246701,Uttar Pradesh,IN,https://www.google.com/maps/place/Dargah+Sharif+Mira+Sawan+Bade+Peer+Baba+%28Bijnor%29/data=!4m7!3m6!1s0x390bef118039ad39:0xbf484abd5abc1524!8m2!3d29.3724131!4d78.1150373!16s%2Fg%2F11t9p8811q!19sChIJOa05gBHvCzkRJBW8Wr1KSL8?authuser=0&hl=en&rclk=1,"29.3724131,78.1150373"
Masjid,Mosque,"3M6J+JW6 Masjid, Bhawaniyapur, Uttar Pradesh 243638",,3M6J+JW6,Bhawaniyapur,243638,Uttar Pradesh,IN,https://www.google.com/maps/place/Masjid/data=!4m7!3m6!1s0x397529c05680b09d:0xd0168ddb49a332ec!8m2!3d28.061526!4d78.6822749!16s%2Fg%2F11gxs0mcm2!19sChIJnbCAVsApdTkR7DKjSduNFtA?authuser=0&hl=en&rclk=1,"28.061525999999997,78.6822749"
nuurii jaamaa msjid phaaj'ilpur,Mosque,"HH2C+52Q nuurii jaamaa msjid phaaj'ilpur, Bareilly, Fazilpur, Uttar Pradesh 243407",,HH2C+52Q,"Bareilly, Fazilpur",,Uttar Pradesh,IN,https://www.google.com/maps/place/%E0%A4%A8%E0%A5%82%E0%A4%B0%E0%A5%80+%E0%A4%9C%E0%A4%BE%E0%A4%AE%E0%A4%BE+%E0%A4%AE%E0%A4%B8%E0%A5%8D%E0%A4%9C%E0%A4%BF%E0%A4%A6+%E0%A4%AB%E0%A4%BE%E0%A4%9C%E0%A4%BC%E0%A4%BF%E0%A4%B2%E0%A4%AA%E0%A5%81%E0%A4%B0/data=!4m7!3m6!1s0x39a01316307c1875:0x1b68f511818d479b!8m2!3d28.5504713!4d79.5701153!16s%2Fg%2F11k19qfw4j!19sChIJdRh8MBYToDkRm0eNgRH1aBs?authuser=0&hl=en&rclk=1,"28.550471299999998,79.5701153"
Gousia Masjid Bahanpur,Mosque,"7G22+7XP Gousia Masjid Bahanpur, Bahanpur, Uttar Pradesh 243123",,7G22+7XP,Bahanpur,,Uttar Pradesh,IN,https://www.google.com/maps/place/Gousia+Masjid+Bahanpur/data=!4m7!3m6!1s0x399ff9dc0e9cb835:0x8aeed8c4c47eff94!8m2!3d28.250713!4d79.5024592!16s%2Fg%2F11qqwrkzhj!19sChIJNbicDtz5nzkRlP9-xMTY7oo?authuser=0&hl=en&rclk=1,"28.250712999999998,79.50245919999999"
Noori Masjid Gausganj Sarai,Mosque,"6GCG+84P Noori Masjid Gausganj Sarai, Gausganj Sarai, Uttar Pradesh 243503",,6GCG+84P,Gausganj Sarai,243503,Uttar Pradesh,IN,https://www.google.com/maps/place/Noori+Masjid+Gausganj+Sarai/data=!4m7!3m6!1s0x399ff985cda32b45:0xea50d43248ac5e61!8m2!3d28.2208485!4d79.5253182!16s%2Fg%2F11j8w9l97_!19sChIJRSujzYX5nzkRYV6sSDLUUOo?authuser=0&hl=en&rclk=1,"28.2208485,79.5253182"
Haji fida Ullah masjid,Mosque,"5HR2+M8R Haji fida Ullah masjid, Nawadiya Ashok, Uttar Pradesh 243503",,5HR2+M8R,Nawadiya Ashok,243503,Uttar Pradesh,IN,https://www.google.com/maps/place/Haji+fida+Ullah+masjid/data=!4m7!3m6!1s0x399ff975f12c8a51:0xdb2440ebceaf401f!8m2!3d28.1917394!4d79.5507513!16s%2Fg%2F11jnmjg7zy!19sChIJUYos8XX5nzkRH0CvzutAJNs?authuser=0&hl=en&rclk=1,"28.1917394,79.5507513"
Jama masjid,Mosque,"GJJC+3FX Jama masjid, Richhola Kifayatullah, Uttar Pradesh 262406",,GJJC+3FX,Richhola Kifayatullah,,Uttar Pradesh,IN,https://www.google.com/maps/place/Jama+masjid/data=!4m7!3m6!1s0x39a011688a2e51a5:0xe0a7f592a25fa90c!8m2!3d28.5302253!4d79.6212286!16s%2Fg%2F11s8nw5bfy!19sChIJpVEuimgRoDkRDKlfopL1p-A?authuser=0&hl=en&rclk=1,"28.530225299999998,79.6212286"
Makka masjid faridpur,Mosque,"G6WC+JW4 Makka masjid faridpur, Faridpur, Punjab 147202",,G6WC+JW4,Faridpur,,Punjab,IN,https://www.google.com/maps/place/Makka+masjid+faridpur/data=!4m7!3m6!1s0x39101789748b4db5:0x50460a5cfed2584!8m2!3d30.5465038!4d76.2223149!16s%2Fg%2F11t2fjcm_s!19sChIJtU2LdIkXEDkRhCXtz6VgBAU?authuser=0&hl=en&rclk=1,"30.5465038,76.2223149"
Sunni Masjid,Mosque,"Sunni Masjid, Gharampur, Faridpur, Dharupur, Uttar Pradesh 243503",Gharampur,,"Faridpur, Dharupur",243503,Uttar Pradesh,IN,https://www.google.com/maps/place/Sunni+Masjid/data=!4m7!3m6!1s0x399ff939bb4e9853:0xff9856e266a45c72!8m2!3d28.2099626!4d79.5084555!16s%2Fg%2F11jsp7ffk3!19sChIJU5hOuzn5nzkRclykZuJWmP8?authuser=0&hl=en&rclk=1,"28.209962599999997,79.5084555"
Masjid-e- babe hassan,Mosque,"6G4Q+RCV Masjid-e- babe hassan, Mohallah Sahukara Saray, Faridpur",Sahukara,"6G4Q+RCV, Mohallah Sahukara Saray",Faridpur,,Uttar Pradesh,IN,https://www.google.com/maps/place/Masjid-e-+babe+hassan/data=!4m7!3m6!1s0x399ff9d280fe5409:0xdadd498109058f65!8m2!3d28.2071128!4d79.5385586!16s%2Fg%2F11fpmwtzqp!19sChIJCVT-gNL5nzkRZY8FCYFJ3do?authuser=0&hl=en&rclk=1,"28.207112799999997,79.5385586"
lottn shaah baabaa,Mosque,"6G5V+G5V lottn shaah baabaa, Faridpur, Uttar Pradesh 243503",,6G5V+G5V,Faridpur,243503,Uttar Pradesh,IN,https://www.google.com/maps/place/%E0%A4%B2%E0%A5%8B%E0%A4%9F%E0%A4%A8+%E0%A4%B6%E0%A4%BE%E0%A4%B9+%E0%A4%AC%E0%A4%BE%E0%A4%AC%E0%A4%BE/data=!4m7!3m6!1s0x399ff9b0174e776d:0x12579c89f119516d!8m2!3d28.208864!4d79.54292!16s%2Fg%2F11rcct3rth!19sChIJbXdOF7D5nzkRbVEZ8YmcVxI?authuser=0&hl=en&rclk=1,"28.208864,79.54292"
Qadri masjid puliya wali,Mosque,"6G5R+M7G Qadri masjid puliya wali, Unnamed Road, Faridpur, Uttar Pradesh 243503",,"6G5R+M7G, Unnamed Road",Faridpur,243503,Uttar Pradesh,IN,https://www.google.com/maps/place/Qadri+masjid+puliya+wali/data=!4m7!3m6!1s0x399ff9f2b1600873:0xe102e842d493ebd8!8m2!3d28.2091751!4d79.5407045!16s%2Fg%2F11h_9vfgkh!19sChIJcwhgsfL5nzkR2OuT1ELoAuE?authuser=0&hl=en&rclk=1,"28.2091751,79.54070449999999"
Eid Gaah Lahi Faridpur,Mosque,"44CX+QR Eid Gaah Lahi Faridpur, Lahi Faridpur, Uttar Pradesh 243601",,44CX+QR,Lahi Faridpur,,Uttar Pradesh,IN,https://www.google.com/maps/place/Eid+Gaah+Lahi+Faridpur/data=!4m7!3m6!1s0x39754f59ce0014eb:0x33b9a0fb0d68b4e2!8m2!3d28.1219366!4d79.1494229!16s%2Fg%2F11sdz6m6m2!19sChIJ6xQAzllPdTkR4rRoDfuguTM?authuser=0&hl=en&rclk=1,"28.121936599999998,79.14942289999999"
EID Gaha Faridpur Main,Place of worship,"6G6P+JQ2 EID Gaha Faridpur Main, Faridpur, Uttar Pradesh 243503",,6G6P+JQ2,Faridpur,243503,Uttar Pradesh,IN,https://www.google.com/maps/place/EID+Gaha+Faridpur+Main/data=!4m7!3m6!1s0x399ff9b81398fecd:0x9c755a8f728477a!8m2!3d28.2115089!4d79.5368877!16s%2Fg%2F11b7qp1_p2!19sChIJzf6YE7j5nzkRekco96hVxwk?authuser=0&hl=en&rclk=1,"28.2115089,79.5368877"
Masjid Mufti Azam Madarsa Qadria Nooria,Mosque,"6G4X+M96 Masjid Mufti Azam Madarsa Qadria Nooria, Unnamed Road, Faridpur, Uttar Pradesh 243503",,"6G4X+M96, Unnamed Road",Faridpur,243503,Uttar Pradesh,IN,https://www.google.com/maps/place/Masjid+Mufti+Azam+Madarsa+Qadria+Nooria/data=!4m7!3m6!1s0x399ff94039821fbf:0xae0aba4085247580!8m2!3d28.2066622!4d79.5483786!16s%2Fg%2F11my1mskdm!19sChIJvx-COUD5nzkRgHUkhUC6Cq4?authuser=0&hl=en&rclk=1,"28.2066622,79.54837859999999"
Masjid,Mosque,"6899+MF Masjid, Gopalpur Khadana, Uttar Pradesh 250625",,6899+MF,Gopalpur Khadana,,Uttar Pradesh,IN,https://www.google.com/maps/place/Masjid/data=!4m7!3m6!1s0x390c3746e57608db:0x3b5687d2abb9cc1e!8m2!3d29.21923!4d77.318635!16s%2Fg%2F11t9vst9wq!19sChIJ2wh25UY3DDkRHsy5q9KHVjs?authuser=0&hl=en&rclk=1,"29.21923,77.318635"
Prachin Ram Janki Mandir,Hindu temple,"6G7Q+QQH Prachin Ram Janki Mandir, Faridpur, Uttar Pradesh 243503",,6G7Q+QQH,Faridpur,243503,Uttar Pradesh,IN,https://www.google.com/maps/place/Prachin+Ram+Janki+Mandir/data=!4m7!3m6!1s0x399ff96c0a9dfda5:0x4d6f4c6bbfc27355!8m2!3d28.2144406!4d79.5394861!16s%2Fg%2F11mvpj7qc5!19sChIJpf2dCmz5nzkRVXPCv2tMb00?authuser=0&hl=en&rclk=1,"28.2144406,79.53948609999999"
Masjid,Mosque,"8G3F+W88 Masjid, Khalelpur, Khalilpur, Uttar Pradesh 243751",,"8G3F+W88, Khalelpur","Khalilpur, Udranpur Azmatnagar",243751,Uttar Pradesh,IN,https://www.google.com/maps/place/Masjid/data=!4m7!3m6!1s0x390b2ef4ee18cdbf:0x27b506f8854495e1!8m2!3d28.3047954!4d78.5233316!16s%2Fg%2F11fy19dtn0!19sChIJv80Y7vQuCzkR4ZVEhfgGtSc?authuser=0&hl=en&rclk=1,"28.3047954,78.52333159999999"
Badi Masjid,Mosque,"XRCH+CHR Badi Masjid, Syal, Uttar Pradesh 250001",,XRCH+CHR,Syal,250001,Uttar Pradesh,IN,https://www.google.com/maps/place/Badi+Masjid/data=!4m7!3m6!1s0x390c7be44671546f:0xd93f9052018337e!8m2!3d28.9711229!4d77.8288971!16s%2Fg%2F11dfswl18x!19sChIJb1RxRuR7DDkRfjMYIAX5kw0?authuser=0&hl=en&rclk=1,"28.971122899999997,77.82889709999999"
Ansari Masjid,Mosque,"4PX5+XH2 Ansari Masjid, Khudaganj, Uttar Pradesh 242305",,4PX5+XH2,Khudaganj,242305,Uttar Pradesh,IN,https://www.google.com/maps/place/Ansari+Masjid/data=!4m7!3m6!1s0x399ff3db7fb422e9:0x1ddf92e4bb8197c2!8m2!3d28.1498875!4d79.7089001!16s%2Fg%2F11rxrrhgtt!19sChIJ6SK0f9vznzkRwpeBu-SS3x0?authuser=0&hl=en&rclk=1,"28.1498875,79.7089001"
Noori masjid,Mosque,"739Q+5JC Noori masjid, Unnamed Road, Daraw Nagar, Uttar Pradesh 243301",,"739Q+5JC, Unnamed Road",Daraw Nagar,243301,Uttar Pradesh,IN,https://www.google.com/maps/place/Noori+masjid/data=!4m7!3m6!1s0x390ab5fc4a5e98fd:0xa69e3cc4f83d35cd!8m2!3d28.267928!4d79.089007!16s%2Fg%2F11nwq6ghvg!19sChIJ_ZheSvy1CjkRzTU9-MQ8nqY?authuser=0&hl=en&rclk=1,"28.267927999999998,79.089007"
Chand Masjid,Mosque,"24VX+MFR Chand Masjid, Pelona, Aligarh, Uttar Pradesh 202126",Pelona,24VX+MFR,Aligarh,202126,Uttar Pradesh,IN,https://www.google.com/maps/place/Chand+Masjid/data=!4m7!3m6!1s0x3974b18552cc21cf:0xaabbec78f4bc658e!8m2!3d28.0442394!4d78.1486558!16s%2Fg%2F11t7l_m422!19sChIJzyHMUoWxdDkRjmW89Hjsu6o?authuser=0&hl=en&rclk=1,"28.0442394,78.1486558"
Amir Tea Stall,Tea store,"Amir Tea Stall, Jama Masjid Market, Main Road, Sahukara, Faridpur, Uttar Pradesh 243503",Sahukara,"Jama Masjid Market, Main Road",Faridpur,243503,Uttar Pradesh,IN,https://www.google.com/maps/place/Amir+Tea+Stall/data=!4m7!3m6!1s0x399ff961e432bfbb:0x7ba741fb4bd9ae03!8m2!3d28.2088502!4d79.5384258!16s%2Fg%2F11vl8v0kmw!19sChIJu78y5GH5nzkRA67ZS_tBp3s?authuser=0&hl=en&rclk=1,"28.208850199999997,79.5384258"
Noori Raza Masjid Mohalla Uncha,Mosque,"6G5Q+J4R Noori Raza Masjid Mohalla Uncha, Faridpur, Uttar Pradesh 243503",,6G5Q+J4R,Faridpur,243503,Uttar Pradesh,IN,https://www.google.com/maps/place/Noori+Raza+Masjid+Mohalla+Uncha/data=!4m7!3m6!1s0x399ff90807aad3d9:0x62979d5b3836c0c6!8m2!3d28.2119782!4d79.5385755!16s%2Fg%2F11mgz9krrg!19sChIJ2dOqBwj5nzkRxsA2OFudl2I?authuser=0&hl=en&rclk=1,"28.211978199999997,79.5385755"
Noori Masjid Mohalla Uncha Faridpur,Mosque,"6G5Q+J4R Noori Masjid Mohalla Uncha Faridpur, Mohalla Uncha, Faridpur, Uttar Pradesh 243503",,6G5Q+J4R Mohalla Uncha,Faridpur,243503,Uttar Pradesh,IN,https://www.google.com/maps/place/Noori+Masjid+Mohalla+Uncha+Faridpur/data=!4m7!3m6!1s0x399ff9447be6a7cd:0xd4987b385c4d89e4!8m2!3d28.2091237!4d79.5377617!16s%2Fg%2F11jwwr32zh!19sChIJzafme0T5nzkR5IlNXDh7mNQ?authuser=0&hl=en&rclk=1,"28.2091237,79.53776169999999"
Masjid Aalahazrat,Mosque,"Masjid Aalahazrat, Mohalla Uncha, Faridpur, Uttar Pradesh 243503",,Mohalla Uncha,Faridpur,243503,Uttar Pradesh,IN,https://www.google.com/maps/place/Masjid+Aalahazrat/data=!4m7!3m6!1s0x399ff95df39552bb:0xc253b07f94d2d970!8m2!3d28.2139608!4d79.5384524!16s%2Fg%2F11p3h_gqhb!19sChIJu1KV8135nzkRcNnSlH-wU8I?authuser=0&hl=en&rclk=1,"28.2139608,79.5384524"
Jama masjid,Mosque,"6G5Q+R7V Jama masjid, Main Rd, Faridpur, Uttar Pradesh 243201",,"6G5Q+R7V, Main Rd",Faridpur,243201,Uttar Pradesh,IN,https://www.google.com/maps/place/Jama+masjid/data=!4m7!3m6!1s0x399ff94f24a75027:0x10e5b7c26992df76!8m2!3d28.209611!4d79.538185!16s%2Fg%2F11hf32cvbk!19sChIJJ1CnJE_5nzkRdt-SacK35RA?authuser=0&hl=en&rclk=1,"28.209611,79.538185"
Gher Wali Masjid,Mosque,"Gher Wali Masjid, Mohalla Uncha, near Chaupal, Faridpur, Uttar Pradesh 243503",,"Mohalla Uncha, near Chaupal",Faridpur,243503,Uttar Pradesh,IN,https://www.google.com/maps/place/Gher+Wali+Masjid/data=!4m7!3m6!1s0x399ff9e1fdac9cab:0x88722f9b239c184f!8m2!3d28.2130608!4d79.5395898!16s%2Fg%2F11rt_qdw1k!19sChIJq5ys_eH5nzkRTxicI5svcog?authuser=0&hl=en&rclk=1,"28.213060799999997,79.5395898"
nuurii msjid mohllaa phrrkhpur phriidpur,Mosque,"6G6P+532 nuurii msjid mohllaa phrrkhpur phriidpur, Faridpur, Uttar Pradesh 243503",,6G6P+532,Faridpur,243503,Uttar Pradesh,IN,https://www.google.com/maps/place/%E0%A4%A8%E0%A5%82%E0%A4%B0%E0%A5%80+%E0%A4%AE%E0%A4%B8%E0%A5%8D%E0%A4%9C%E0%A4%BF%E0%A4%A6+%E0%A4%AE%E0%A5%8B%E0%A4%B9%E0%A4%B2%E0%A5%8D%E0%A4%B2%E0%A4%BE+%E0%A4%AB%E0%A4%B0%E0%A5%8D%E0%A4%B0%E0%A4%96%E0%A4%AA%E0%A5%81%E0%A4%B0+%E0%A4%AB%E0%A4%B0%E0%A5%80%E0%A4%A6%E0%A4%AA%E0%A5%81%E0%A4%B0/data=!4m7!3m6!1s0x399ff9996eee80db:0x5d2966f47c640cd1!8m2!3d28.2103758!4d79.535155!16s%2Fg%2F11thb_gv9s!19sChIJ24Dubpn5nzkR0QxkfPRmKV0?authuser=0&hl=en&rclk=1,"28.210375799999998,79.535155"
Jama Masjid,Mosque,"PMQG+X4M Jama Masjid, Faridpur, Baheri, Uttar Pradesh 243201",,PMQG+X4M,"Faridpur, Baheri",243201,Uttar Pradesh,IN,https://www.google.com/maps/place/Jama+Masjid/data=!4m7!3m6!1s0x39a06b9ac3798e4f:0xd5024af94d4b9261!8m2!3d28.7399696!4d79.6753054!16s%2Fg%2F11vj31h0r2!19sChIJT455w5proDkRYZJLTflKAtU?authuser=0&hl=en&rclk=1,"28.7399696,79.6753054"
Sunni masjid Gharampur,Mosque,"Sunni masjid Gharampur, Bukhara Faridpur Road, Dharupur, Uttar Pradesh 243503",,Bukhara Faridpur Road,Dharupur,243503,Uttar Pradesh,IN,https://www.google.com/maps/place/Sunni+masjid+Gharampur/data=!4m7!3m6!1s0x399ff986486014ff:0x1247fb3283ea25c0!8m2!3d28.2089265!4d79.5040315!16s%2Fg%2F11lrljrzw1!19sChIJ_xRgSIb5nzkRwCXqgzL7RxI?authuser=0&hl=en&rclk=1,"28.2089265,79.5040315"
Ashikale,Mosque,"6G5Q+J4R Ashikale, Faridpur, Uttar Pradesh 243503",,6G5Q+J4R,Faridpur,,Uttar Pradesh,IN,https://www.google.com/maps/place/Ashikale/data=!4m7!3m6!1s0x399ff9cb13674311:0x985f980aaaf18cf!8m2!3d28.2091237!4d79.5377617!16s%2Fg%2F11rd9cylny!19sChIJEUNnE8v5nzkRzxivqoD5hQk?authuser=0&hl=en&rclk=1,"28.2091237,79.53776169999999"
Ayesha Jama Masjid,Mosque,"87FX+XFH Ayesha Jama Masjid, Bilai, Uttar Pradesh 246726",,87FX+XFH,Bilai,246726,Uttar Pradesh,IN,https://www.google.com/maps/place/Ayesha+Jama+Masjid/data=!4m7!3m6!1s0x390bc15b581556eb:0x29d2d749019ceb03!8m2!3d29.3257744!4d78.2987242!16s%2Fg%2F11ptpm0nvh!19sChIJ61YVWFvBCzkRA-ucAUnX0ik?authuser=0&hl=en&rclk=1,"29.3257744,78.2987242"
jama masjid majhua ehtram,Place of worship,"jama masjid majhua ehtram, majhua hetram, Faridpur, Malahpur, Uttar Pradesh 243503",,majhua hetram,"Faridpur, Malahpur",243503,Uttar Pradesh,IN,https://www.google.com/maps/place/jama+masjid+majhua+ehtram/data=!4m7!3m6!1s0x399ff76368679657:0xa08ee863db7573b3!8m2!3d28.266351!4d79.5694023!16s%2Fg%2F11r2rphs_9!19sChIJV5ZnaGP3nzkRs3N122PojqA?authuser=0&hl=en&rclk=1,"28.266351,79.5694023"
Masjid Quba,Mosque,"65JV+W9G Masjid Quba, Sabdalpur Rehra, Mukarpur Gujar, Uttar Pradesh 246725",,65JV+W9G,"Sabdalpur Rehra, Mukarpur Gujar",246725,Uttar Pradesh,IN,https://www.google.com/maps/place/Masjid+Quba/data=!4m7!3m6!1s0x390b93943c5d4fab:0x7597e47ece196dd8!8m2!3d29.2323106!4d78.193453!16s%2Fg%2F11sqtywbx5!19sChIJq09dPJSTCzkR2G0Zzn7kl3U?authuser=0&hl=en&rclk=1,"29.232310599999998,78.19345299999999"
Noori Masjid,Mosque,"FMVC+RJW Noori Masjid, Mohammadpur Babai, Uttar Pradesh 244414",,FMVC+RJW,Mohammadpur Babai,244414,Uttar Pradesh,IN,https://www.google.com/maps/place/Noori+Masjid/data=!4m7!3m6!1s0x390adf599a604b2f:0x39a81cb773c3e07d!8m2!3d28.4945876!4d78.6716238!16s%2Fg%2F11ry5dw4kx!19sChIJL0tgmlnfCjkRfeDDc7ccqDk?authuser=0&hl=en&rclk=1,"28.4945876,78.67162379999999"
RAZA MASJID MALHPUR,Mosque,"7HJH+P34 RAZA MASJID MALHPUR, Unnamed Road, Jihi, Uttar Pradesh 243503",,"7HJH+P34, Unnamed Road",Jihi,243503,Uttar Pradesh,IN,https://www.google.com/maps/place/RAZA+MASJID+MALHPUR/data=!4m7!3m6!1s0x39a01deb2fd78e45:0xcdae9053d92abb3c!8m2!3d28.2817681!4d79.5776928!16s%2Fg%2F11lg2m9bf7!19sChIJRY7XL-sdoDkRPLsq2VOQrs0?authuser=0&hl=en&rclk=1,"28.281768099999997,79.5776928"
bdd'e piir saahb vaalaa kbristaan,Cemetery,"bdd'e piir saahb vaalaa kbristaan, Near Gausiya Masjid Mohalla Uncha, Faridpur, Uttar Pradesh 243503",,Near Gausiya Masjid Mohalla Uncha,Faridpur,243503,Uttar Pradesh,IN,https://www.google.com/maps/place/%E0%A4%AC%E0%A4%A1%E0%A4%BC%E0%A5%87+%E0%A4%AA%E0%A5%80%E0%A4%B0+%E0%A4%B8%E0%A4%BE%E0%A4%B9%E0%A4%AC+%E0%A4%B5%E0%A4%BE%E0%A4%B2%E0%A4%BE+%E0%A4%95%E0%A4%AC%E0%A5%8D%E0%A4%B0%E0%A4%BF%E0%A4%B8%E0%A5%8D%E0%A4%A4%E0%A4%BE%E0%A4%A8/data=!4m7!3m6!1s0x399ff9872f9c89f3:0x67ff0c17016781b2!8m2!3d28.2143125!4d79.5371875!16s%2Fg%2F11ss4_llkv!19sChIJ84mcL4f5nzkRsoFnARcM_2c?authuser=0&hl=en&rclk=1,"28.2143125,79.5371875"
Masjid Farrakhpur Majhaoua,Mosque,"6G78+375 Masjid Farrakhpur Majhaoua, Fatehpur Majhuawa, Uttar Pradesh 243503",,6G78+375,Fatehpur Majhuawa,243503,Uttar Pradesh,IN,https://www.google.com/maps/place/Masjid+Farrakhpur+Majhaoua/data=!4m7!3m6!1s0x399ff9002f92f39d:0xea01ccaabce42907!8m2!3d28.2126446!4d79.5157351!16s%2Fg%2F11kc2ds8fb!19sChIJnfOSLwD5nzkRBynkvKrMAeo?authuser=0&hl=en&rclk=1,"28.212644599999997,79.5157351"
MOHD Asif Ali Khan Masjid,Tailor,"MOHD Asif Ali Khan Masjid, Asif Ali, Bareilly, Faridpur, Uttar Pradesh 243503",Asif Ali,,"Bareilly, Faridpur",243503,Uttar Pradesh,IN,https://www.google.com/maps/place/MOHD+Asif+Ali+Khan+Masjid/data=!4m7!3m6!1s0x399ff9bbca252a57:0x720c322bc8717813!8m2!3d28.2059489!4d79.5278488!16s%2Fg%2F11tdbg40h7!19sChIJVyolyrv5nzkRE3hxyCsyDHI?authuser=0&hl=en&rclk=1,"28.2059489,79.5278488"
Haji ramjani masjid faridpur,Home builder,"6H3M+V4P Haji ramjani masjid faridpur, Faridpur, Kishorra, Uttar Pradesh 243503",,6H3M+V4P,"Faridpur, Kishorra",243503,Uttar Pradesh,IN,https://www.google.com/maps/place/Haji+ramjani+masjid+faridpur/data=!4m7!3m6!1s0x399ff71743295045:0x55cabbfb6fec6288!8m2!3d28.2047023!4d79.582819!16s%2Fg%2F11sccy914b!19sChIJRVApQxf3nzkRiGLsb_u7ylU?authuser=0&hl=en&rclk=1,"28.204702299999997,79.582819"
Mohammad Arif,Dairy store,"Mohammad Arif, 00, near Masjid Badi, Faridpur, Uttar Pradesh 243503",,"00, near Masjid Badi",Faridpur,243503,Uttar Pradesh,IN,https://www.google.com/maps/place/Mohammad+Arif/data=!4m7!3m6!1s0x399ff974ddc1c89f:0x89ff37d8eb565339!8m2!3d28.2105126!4d79.5311316!16s%2Fg%2F11vc2dtjh5!19sChIJn8jB3XT5nzkROVNW69g3_4k?authuser=0&hl=en&rclk=1,"28.210512599999998,79.5311316"
Darul Uloom Gausiya,Seminary,"6G5V+X75 Darul Uloom Gausiya, Faridpur, Uttar Pradesh 243503",,6G5V+X75,Faridpur,243503,Uttar Pradesh,IN,https://www.google.com/maps/place/Darul+Uloom+Gausiya/data=!4m7!3m6!1s0x399ff935ac18d3a3:0xb8d33525d4893005!8m2!3d28.2098824!4d79.5432425!16s%2Fg%2F11srk0m197!19sChIJo9MYrDX5nzkRBTCJ1CU107g?authuser=0&hl=en&rclk=1,"28.209882399999998,79.54324249999999"
Faridpur,,"Faridpur, Sector 78, Faridabad, Haryana","Faridpur, Sector 78",,Faridabad,,Haryana,IN,https://www.google.com/maps/place/Faridpur/data=!4m7!3m6!1s0x390cdcb4fe29d705:0xeca87f6f8eb04990!8m2!3d28.3815894!4d77.3769437!16s%2Fg%2F1tjkd58n!19sChIJBdcp_rTcDDkRkEmwjm9_qOw?authuser=0&hl=en&rclk=1,"28.3815894,77.3769437"
Sajid Electrician,Hardware store,"Sajid Electrician, 01, Farrakhpur Near Saklani Masjid, Uttar Pradesh 243503",,"01, Farrakhpur Near Saklani Masjid",Faridpur,243503,Uttar Pradesh,IN,https://www.google.com/maps/place/Sajid+Electrician/data=!4m7!3m6!1s0x399ff9b01be93ba7:0x753d1d1e0d0ec36d!8m2!3d28.2106473!4d79.5325988!16s%2Fg%2F11sshs1by5!19sChIJpzvpG7D5nzkRbcMODR4dPXU?authuser=0&hl=en&rclk=1,"28.210647299999998,79.5325988"
ANSARI MASJID TAHARPUR,Mosque,"PPQJ+M5G ANSARI MASJID TAHARPUR, Takhatpur Allah Urf Nankar, Uttar Pradesh 244301",,PPQJ+M5G,Takhatpur Allah Urf Nankar,244301,Uttar Pradesh,IN,https://www.google.com/maps/place/ANSARI+MASJID+TAHARPUR/data=!4m7!3m6!1s0x390ae312bea9bbbd:0x19feb795c6c4661a!8m2!3d28.739198!4d78.7304443!16s%2Fg%2F11fjn7m4zm!19sChIJvbupvhLjCjkRGmbExpW3_hk?authuser=0&hl=en&rclk=1,"28.739198,78.7304443"
Faridpur,,"Faridpur, Uttar Pradesh 244501",,,Faridpur,,Uttar Pradesh,IN,https://www.google.com/maps/place/Faridpur/data=!4m7!3m6!1s0x390ba430627a32db:0xb9c990b899da6b7f!8m2!3d29.0233418!4d78.4190573!16s%2Fg%2F11gz7hz60!19sChIJ2zJ6YjCkCzkRf2vambiQybk?authuser=0&hl=en&rclk=1,"29.023341799999997,78.41905729999999"
Markazi jama masjid Mufti Syed Afroz,Mosque,"QMQW+WJC Markazi jama masjid Mufti Syed Afroz, Ratanpur, Uttar Pradesh 244102",,QMQW+WJC,Ratanpur,,Uttar Pradesh,IN,https://www.google.com/maps/place/Markazi+jama+masjid+Mufti+Syed+Afroz/data=!4m7!3m6!1s0x390afda207a05551:0xf753b6419e5eb867!8m2!3d28.7898154!4d78.6965169!16s%2Fg%2F11s95ndpmb!19sChIJUVWgB6L9CjkRZ7henkG2U_c?authuser=0&hl=en&rclk=1,"28.7898154,78.69651689999999"
Faridpur,,"Faridpur, Uttar Pradesh 251315",,,Faridpur,,Uttar Pradesh,IN,https://www.google.com/maps/place/Faridpur/data=!4m7!3m6!1s0x390bf3b0085e5909:0xf860e3b2083399f1!8m2!3d29.3108786!4d78.0509282!16s%2Fg%2F12hk2hll0!19sChIJCVleCLDzCzkR8ZkzCLLjYPg?authuser=0&hl=en&rclk=1,"29.3108786,78.0509282"
Faridpur,,"Faridpur, Uttar Pradesh 251308",,,Faridpur,,Uttar Pradesh,IN,https://www.google.com/maps/place/Faridpur/data=!4m7!3m6!1s0x390bff74f6c2c415:0xcad566bede5e149a!8m2!3d29.5587706!4d77.948165!16s%2Fg%2F12hprl2t5!19sChIJFcTC9nT_CzkRmhRe3r5m1co?authuser=0&hl=en&rclk=1,"29.5587706,77.948165"
Residence Noori Brothers,Apartment building,"6G4P+3X5 Residence Noori Brothers, Faridpur, Uttar Pradesh 243503",,6G4P+3X5,Faridpur,243503,Uttar Pradesh,IN,https://www.google.com/maps/place/Residence+Noori+Brothers/data=!4m7!3m6!1s0x399ff9f54c10e75f:0xda4d27a25c66b5bb!8m2!3d28.2051438!4d79.5374791!16s%2Fg%2F11kjpdwsb7!19sChIJX-cQTPX5nzkRu7VmXKInTdo?authuser=0&hl=en&rclk=1,"28.2051438,79.5374791"
Masjid,Mosque,"28Q9+V92 Masjid, Sarai Pipria, Uttar Pradesh 243635",,28Q9+V92,Sarai Pipria,243635,Uttar Pradesh,IN,https://www.google.com/maps/place/Masjid/data=!4m7!3m6!1s0x3975590559654a83:0xcbfcd625ef0d2d5a!8m2!3d28.0396494!4d79.3183887!16s%2Fg%2F11rm_3g1b1!19sChIJg0plWQVZdTkRWi0N7yXW_Ms?authuser=0&hl=en&rclk=1,"28.0396494,79.3183887"
Faridpur,,"Faridpur, Uttar Pradesh 245207",,,Faridpur,,Uttar Pradesh,IN,https://www.google.com/maps/place/Faridpur/data=!4m7!3m6!1s0x390b7e7191493f65:0xfe31d232f7086a5f!8m2!3d28.7941513!4d77.9570893!16s%2Fg%2F12lsbm3wc!19sChIJZT9JkXF-CzkRX2oI9zLSMf4?authuser=0&hl=en&rclk=1,"28.7941513,77.95708929999999"
Naeem kirana store,Store,"Naeem kirana store, Noori masjid ke paas, near Tasabbar zari art, Faridpur, Uttar Pradesh 243503",,"Noori masjid ke paas, near Tasabbar zari art",Faridpur,243503,Uttar Pradesh,IN,https://www.google.com/maps/place/Naeem+kirana+store/data=!4m7!3m6!1s0x399ff9a812b57a23:0x806cabb13ab0ed9f!8m2!3d28.2204675!4d79.5396319!16s%2Fg%2F11l5q3dbgz!19sChIJI3q1Eqj5nzkRn-2wOrGrbIA?authuser=0&hl=en&rclk=1,"28.220467499999998,79.5396319"
Jafar Ali Shop,Dairy store,"Jafar Ali Shop, Village Gulab Nagar Near Masjid ,Faridpur Village Gulab Nagar, near Masjid, Faridpur, Uttar Pradesh 243503",,"Village Gulab Nagar Near Masjid ,Faridpur Village Gulab Nagar, near Masjid","Faridpur, Gulabnagar",243503,Uttar Pradesh,IN,https://www.google.com/maps/place/Jafar+Ali+Shop/data=!4m7!3m6!1s0x399ff7c6d19e991b:0xa141e4d500e8c77d!8m2!3d28.2479624!4d79.5713645!16s%2Fg%2F11stsf3yjf!19sChIJG5me0cb3nzkRfcfoANXkQaE?authuser=0&hl=en&rclk=1,"28.2479624,79.5713645"
Faridpur,,"Faridpur, Uttar Pradesh 203202",,,Faridpur,,Uttar Pradesh,IN,https://www.google.com/maps/place/Faridpur/data=!4m7!3m6!1s0x390cbdcc3b9343a5:0xee57374307df8ba7!8m2!3d28.4402725!4d77.6693608!16s%2Fg%2F1hjh51qgm!19sChIJpUOTO8y9DDkRp4vfB0M3V-4?authuser=0&hl=en&rclk=1,"28.4402725,77.66936079999999"
Tauseefkhan,Doctor,"Tauseefkhan, 8171217246 moh.mirdhan pathano wali masjid, Faridpur, Uttar Pradesh 243503",,8171217246 moh.mirdhan pathano wali masjid,Faridpur,243503,Uttar Pradesh,IN,https://www.google.com/maps/place/Tauseefkhan/data=!4m7!3m6!1s0x399ff9b2e6d88fd7:0x6b513240c394e38f!8m2!3d28.209758!4d79.5396417!16s%2Fg%2F11hyjp7z86!19sChIJ14_Y5rL5nzkRj-OUw0AyUWs?authuser=0&hl=en&rclk=1,"28.209757999999997,79.53964169999999"
Faridpur,,"Faridpur, Uttar Pradesh 244236",,,Faridpur,,Uttar Pradesh,IN,https://www.google.com/maps/place/Faridpur/data=!4m7!3m6!1s0x390b0bdec5482c09:0x86523f136e1520b8!8m2!3d28.8488842!4d78.381023!16s%2Fg%2F1tdf9h1l!19sChIJCSxIxd4LCzkRuCAVbhM_UoY?authuser=0&hl=en&rclk=1,"28.848884199999997,78.381023"
Mohd Rashid -JioMart Digital Partner,Electronics store,"Mohd Rashid -JioMart Digital Partner, Wali Masjid, near Pulia, Mohalla Mirdhan, Faridpur, Uttar Pradesh 243503",Mohalla Mirdhan,"Wali Masjid, near Pulia",Faridpur,243503,Uttar Pradesh,IN,https://www.google.com/maps/place/Mohd+Rashid+-JioMart+Digital+Partner/data=!4m7!3m6!1s0x399ff9c447150883:0xbc33045c82735392!8m2!3d28.207888!4d79.5400172!16s%2Fg%2F11sshfg4vy!19sChIJgwgVR8T5nzkRklNzglwEM7w?authuser=0&hl=en&rclk=1,"28.207887999999997,79.5400172"
Mdfaizan famhus mdfaizan,Housing complex,"Mdfaizan famhus mdfaizan, Noori badi masjid, Faridpur, Uttar Pradesh 243503",,Noori badi masjid,Faridpur,243503,Uttar Pradesh,IN,https://www.google.com/maps/place/Mdfaizan+famhus+mdfaizan/data=!4m7!3m6!1s0x399ff90af3725831:0xedcf3965a6edfd5e!8m2!3d28.2200216!4d79.5412862!16s%2Fg%2F11vjh6lx_v!19sChIJMVhy8wr5nzkRXv3tpmU5z-0?authuser=0&hl=en&rclk=1,"28.2200216,79.5412862"
Faridpur,,"Faridpur, Uttar Pradesh 243503",,,Faridpur,,Uttar Pradesh,IN,https://www.google.com/maps/place/Faridpur/data=!4m7!3m6!1s0x399ff9b6fd951483:0xccb7584ecd1515c4!8m2!3d28.2091237!4d79.5377617!16s%2Fm%2F026dbdn!19sChIJgxSV_bb5nzkRxBUVzU5Yt8w?authuser=0&hl=en&rclk=1,"28.2091237,79.53776169999999"
Faridpur,,"Faridpur, Haryana 132103",,,Faridpur,,Haryana,IN,https://www.google.com/maps/place/Faridpur/data=!4m7!3m6!1s0x390dd97a323fcb1b:0x915919148fcd951e!8m2!3d29.4298673!4d76.9556643!16s%2Fg%2F12hl50bj6!19sChIJG8s_MnrZDTkRHpXNjxQZWZE?authuser=0&hl=en&rclk=1,"29.429867299999998,76.9556643"
