name,main_category,address,address_ward,address_street,address_city,address_postal_code,address_state,address_country_code,link,coordinates
"Muhyidheen Juma Masjid,Erattupetta (muhiyuddhii jumaa msjid ,iiraarrrrupeetttt)",Mosque,"Muhyidheen Juma Masjid,Erattupetta (muhiyuddhii jumaa msjid ,iiraarrrrupeetttt), Aruvithura Crossway Rd, Aruvithura, Erattupetta, Kerala 686121",Aruvithura,Aruvithura Crossway Rd,Erattupetta,686121,Kerala,IN,"https://www.google.com/maps/place/Muhyidheen+Juma+Masjid,Erattupetta+%28%E0%B4%AE%E0%B5%81%E0%B4%B9%E0%B4%BF%E0%B4%AF%E0%B5%81%E0%B4%A6%E0%B5%8D%E0%B4%A7%E0%B5%80%E0%B5%BB+%E0%B4%9C%E0%B5%81%E0%B4%AE%E0%B4%BE+%E0%B4%AE%E0%B4%B8%E0%B5%8D%E0%B4%9C%E0%B4%BF%E0%B4%A6%E0%B5%8D+,%E0%B4%88%E0%B4%B0%E0%B4%BE%E0%B4%B1%E0%B5%8D%E0%B4%B1%E0%B5%81%E0%B4%AA%E0%B5%87%E0%B4%9F%E0%B5%8D%E0%B4%9F%29/data=!4m7!3m6!1s0x3b07cb003aa016ef:0x90fec568d81ab609!8m2!3d9.6858262!4d76.7790483!16s%2Fg%2F1thzm9xv!19sChIJ7xagOgDLBzsRCbYa2GjF_pA?authuser=0&hl=en&rclk=1","9.6858262,76.7790483"
Masjidhul Islam Salafi Juma masjidh,Mosque,"Masjidhul Islam Salafi Juma masjidh, 62, Kaduvamoozhy Road, Kaduvamuzhi, Erattupetta, Kerala 686579",Kaduvamuzhi,"62, Kaduvamoozhy Road",Erattupetta,686579,Kerala,IN,https://www.google.com/maps/place/Masjidhul+Islam+Salafi+Juma+masjidh/data=!4m7!3m6!1s0x3b07cbaea6fe488f:0x9c075dc765101f6a!8m2!3d9.6941649!4d76.7740243!16s%2Fg%2F11dz5c1tjz!19sChIJj0j-pq7LBzsRah8QZcddB5w?authuser=0&hl=en&rclk=1,"9.694164899999999,76.7740243"
Darussalam Masjid,Mosque,"PQ2P+Q2W Darussalam Masjid, Elappunkal, Erattupetta Muttom Rd, Erattupetta, Kerala 686121",,"PQ2P+Q2W, Elappunkal, Erattupetta Muttom Rd",Erattupetta,686121,Kerala,IN,https://www.google.com/maps/place/Darussalam+Masjid/data=!4m7!3m6!1s0x3b07ca4c2c57d863:0x23f694beb68172c6!8m2!3d9.701992!4d76.7850925!16s%2Fg%2F11bwnbl50c!19sChIJY9hXLEzKBzsRxnKBtr6U9iM?authuser=0&hl=en&rclk=1,"9.701991999999999,76.78509249999999"
Jabal Al Noor Juma Masjid Thevarupara,Mosque,"PQ2V+PG4 Jabal Al Noor Juma Masjid Thevarupara, Thevarupara Rd, Nadackal, Erattupetta, Kerala 686121",Nadackal,"PQ2V+PG4, Thevarupara Rd",Erattupetta,686121,Kerala,IN,https://www.google.com/maps/place/Jabal+Al+Noor+Juma+Masjid+Thevarupara/data=!4m7!3m6!1s0x3b07ca4521c019b9:0x405212d01b1ecb1a!8m2!3d9.7017585!4d76.7938133!16s%2Fg%2F11c3sqghnj!19sChIJuRnAIUXKBzsRGsseG9ASUkA?authuser=0&hl=en&rclk=1,"9.7017585,76.7938133"
Noorul Huda Masjid Erattupetta,Mosque,"MQJH+GJC Noorul Huda Masjid Erattupetta, SH 44, Thekkekara, Erattupetta, Kerala 686121",Thekkekara,"MQJH+GJC, SH 44",Erattupetta,686121,Kerala,IN,https://www.google.com/maps/place/Noorul+Huda+Masjid+Erattupetta/data=!4m7!3m6!1s0x3b07cb0212f92d93:0x2a201bce0a01bdd6!8m2!3d9.6813079!4d76.779011!16s%2Fg%2F1wf208c5!19sChIJky35EgLLBzsR1r0BCs4bICo?authuser=0&hl=en&rclk=1,"9.6813079,76.779011"
"Sahaba Juma Masjid, Erattupetta",Mosque,"MQJH+P8M Sahaba Juma Masjid, Erattupetta, Thekkekara, Erattupetta, Kerala 686121",Thekkekara,MQJH+P8M,Erattupetta,,Kerala,IN,"https://www.google.com/maps/place/Sahaba+Juma+Masjid,+Erattupetta/data=!4m7!3m6!1s0x3b07cb0219c84bb1:0xfc0cbfee1865e785!8m2!3d9.6818375!4d76.7782969!16s%2Fg%2F1ptwppwz4!19sChIJsUvIGQLLBzsRhedlGO6_DPw?authuser=0&hl=en&rclk=1","9.6818375,76.7782969"
Makkah Masjid,Mosque,"MQQJ+48M Makkah Masjid, Market Lane I, Nadackal, Erattupetta, Kerala 686121",Nadackal,"MQQJ+48M, Market Lane I",Erattupetta,686121,Kerala,IN,https://www.google.com/maps/place/Makkah+Masjid/data=!4m7!3m6!1s0x3b07cafff0d0487f:0x5d9f44683810045d!8m2!3d9.6878479!4d76.7808107!16s%2Fg%2F11c51x_8ch!19sChIJf0jQ8P_KBzsRXQQQOGhEn10?authuser=0&hl=en&rclk=1,"9.6878479,76.7808107"
Salafi mazjid,Mosque,"Salafi mazjid, Aruvithura Crossway Rd, Aruvithura, Erattupetta, Kerala 686121",Aruvithura,Aruvithura Crossway Rd,Erattupetta,686121,Kerala,IN,https://www.google.com/maps/place/Salafi+mazjid/data=!4m7!3m6!1s0x3b07cb9abbaa4f1b:0x272ed65b1336ace0!8m2!3d9.6852152!4d76.7789524!16s%2Fg%2F11q3tsqn5f!19sChIJG0-qu5rLBzsR4Kw2E1vWLic?authuser=0&hl=en&rclk=1,"9.6852152,76.7789524"
Masjidul Salam Salafi Masjid,Mosque,"MQPJ+WV7 Masjidul Salam Salafi Masjid, Nadackal, Erattupetta, Kerala 686121",Nadackal,MQPJ+WV7,Erattupetta,,Kerala,IN,https://www.google.com/maps/place/Masjidul+Salam+Salafi+Masjid/data=!4m7!3m6!1s0x3b07caff9a568147:0xa6fd8b15ee546088!8m2!3d9.6872844!4d76.7821839!16s%2Fg%2F11fy2jhfdf!19sChIJR4FWmv_KBzsRiGBU7hWL_aY?authuser=0&hl=en&rclk=1,"9.6872844,76.78218389999999"
Jalaliya Masjid,Mosque,"MQQX+V9F Jalaliya Masjid, Arafa Masjid Rd, Puthupparampil, Nadackal, Erattupetta, Kerala 686121","Puthupparampil, Nadackal","MQQX+V9F, Arafa Masjid Rd",Erattupetta,686121,Kerala,IN,https://www.google.com/maps/place/Jalaliya+Masjid/data=!4m7!3m6!1s0x3b07ca59bf829cbd:0x5ecfeeeb93663554!8m2!3d9.6896807!4d76.7984197!16s%2Fg%2F11csq0nb0k!19sChIJvZyCv1nKBzsRVDVmk-vuz14?authuser=0&hl=en&rclk=1,"9.6896807,76.7984197"
Erattupetta Khankah Nooriyya Arifiyya,Mosque,"MQVF+WV8 Erattupetta Khankah Nooriyya Arifiyya, Kaduvamuzhi, Erattupetta, Kerala 686121",Kaduvamuzhi,MQVF+WV8,Erattupetta,686121,Kerala,IN,https://www.google.com/maps/place/Erattupetta+Khankah+Nooriyya+Arifiyya/data=!4m7!3m6!1s0x3b07cbac1eb0241b:0xce6968e0b00c68eb!8m2!3d9.6947965!4d76.774691!16s%2Fg%2F11c0xj3gfz!19sChIJGySwHqzLBzsR62gMsOBoac4?authuser=0&hl=en&rclk=1,"9.694796499999999,76.77469099999999"
"MASJID NOOR, KADUVAMOOZHI",Mosque,"MASJID NOOR, KADUVAMOOZHI, Masjid Noor, SH32, Kaduvamuzhi, Erattupetta, Kerala 686121",Kaduvamuzhi,"Masjid Noor, SH32",Erattupetta,686121,Kerala,IN,"https://www.google.com/maps/place/MASJID+NOOR,+KADUVAMOOZHI/data=!4m7!3m6!1s0x3b07cbdff3f450e5:0xfd12fd398e19d397!8m2!3d9.6927725!4d76.7735749!16s%2Fg%2F11tjcckkwr!19sChIJ5VD089_LBzsRl9MZjjn9Ev0?authuser=0&hl=en&rclk=1","9.6927725,76.7735749"
Fathima masjid nadackal,Mosque,"MQQR+67W Fathima masjid nadackal, Poonjar Rd, Nadackal, Erattupetta, Kerala 686121",Nadackal,"MQQR+67W, Poonjar Rd",Erattupetta,686121,Kerala,IN,https://www.google.com/maps/place/Fathima+masjid+nadackal/data=!4m7!3m6!1s0x3b07cbe0e8750265:0xbb0efb6dcbc2c531!8m2!3d9.688269!4d76.791306!16s%2Fg%2F11s3bxkzhs!19sChIJZQJ16ODLBzsRMcXCy237Drs?authuser=0&hl=en&rclk=1,"9.688269,76.79130599999999"
PUTHAN PALLY JUMA MASJID,Mosque,"PUTHAN PALLY JUMA MASJID, Puthenpally Juma Masjid, SH32, Nadackal, Erattupetta, Kerala 686121",Nadackal,"Puthenpally Juma Masjid, SH32",Erattupetta,686121,Kerala,IN,https://www.google.com/maps/place/PUTHAN+PALLY+JUMA+MASJID/data=!4m7!3m6!1s0x3b07cbad0e875bd3:0xe842638e8cf73127!8m2!3d9.6848045!4d76.7818618!16s%2Fg%2F11sjcb3_jm!19sChIJ01uHDq3LBzsRJzH3jI5jQug?authuser=0&hl=en&rclk=1,"9.6848045,76.7818618"
Masjid hudha,Mosque,"Masjid hudha, SH14, Puthupparampil, Nadackal, Erattupetta, Kerala 686121","Puthupparampil, Nadackal",SH14,Erattupetta,686121,Kerala,IN,https://www.google.com/maps/place/Masjid+hudha/data=!4m7!3m6!1s0x3b07cb09fde05c0d:0xdbc22874a7be1d7d!8m2!3d9.6918311!4d76.7882392!16s%2Fg%2F11t5l8t1ys!19sChIJDVzg_QnLBzsRfR2-p3Qowts?authuser=0&hl=en&rclk=1,"9.6918311,76.78823919999999"
Najmul Hudha Masjid,Mosque,"MQXP+F6R Najmul Hudha Masjid, Erattupetta Muttom Rd, Kerala 686121",,"MQXP+F6R, Erattupetta Muttom Rd",,,Kerala,IN,https://www.google.com/maps/place/Najmul+Hudha+Masjid/data=!4m7!3m6!1s0x3b07cbccca2925d7:0x4913198f687c804a!8m2!3d9.6987386!4d76.785512!16s%2Fg%2F11gxrvv8wg!19sChIJ1yUpyszLBzsRSoB8aI8ZE0k?authuser=0&hl=en&rclk=1,"9.6987386,76.785512"
Mina Masjid,Mosque,"MQQR+525 Mina Masjid, Nadackal, Erattupetta, Kerala 686121",Nadackal,MQQR+525,Erattupetta,686121,Kerala,IN,https://www.google.com/maps/place/Mina+Masjid/data=!4m7!3m6!1s0x3b07cba91c968801:0xd0cf7e3d89c05c46!8m2!3d9.6878883!4d76.7901212!16s%2Fg%2F11tg8lbc0p!19sChIJAYiWHKnLBzsRRlzAiT1-z9A?authuser=0&hl=en&rclk=1,"9.6878883,76.7901212"
Mubarak masjid,Mosque,"MQQP+X7V Mubarak masjid, Nadackal, Erattupetta, Kerala 686121",Nadackal,MQQP+X7V,Erattupetta,686121,Kerala,IN,https://www.google.com/maps/place/Mubarak+masjid/data=!4m7!3m6!1s0x3b07cbda63fe5137:0x9fc9d911d212fd2e!8m2!3d9.6900281!4d76.7858672!16s%2Fg%2F11t_jp_1fb!19sChIJN1H-Y9rLBzsRLv0S0hHZyZ8?authuser=0&hl=en&rclk=1,"9.6900281,76.7858672"
Saeediyya Masjid,Mosque,"MQQH+V8X Saeediyya Masjid, Kaduvamuzhi, Erattupetta, Kerala 686121",Kaduvamuzhi,MQQH+V8X,Erattupetta,686121,Kerala,IN,https://www.google.com/maps/place/Saeediyya+Masjid/data=!4m7!3m6!1s0x3b07cbbe6c4e83f1:0x570328dfead22dd8!8m2!3d9.6897347!4d76.7783742!16s%2Fg%2F11f61vvggf!19sChIJ8YNObL7LBzsR2C3S6t8oA1c?authuser=0&hl=en&rclk=1,"9.689734699999999,76.7783742"
Al Aqusa Juma Masjid,Mosque,"MQXF+2FG Al Aqusa Juma Masjid, Kaduvamuzhi, Erattupetta, Kerala 686121",Kaduvamuzhi,MQXF+2FG,Erattupetta,686121,Kerala,IN,https://www.google.com/maps/place/Al+Aqusa+Juma+Masjid/data=!4m7!3m6!1s0x3b07cb6fe6b8f89b:0x9bb56d8f554f5583!8m2!3d9.6975537!4d76.7737162!16s%2Fg%2F11gj783lkw!19sChIJm_i45m_LBzsRg1VPVY9ttZs?authuser=0&hl=en&rclk=1,"9.6975537,76.7737162"
SAFA MASJID,Mosque,"MQQW+H3 SAFA MASJID, Safa Nagar, Keeriyathottam, Erattupetta, Kerala 686121","Safa Nagar, Keeriyathottam",MQQW+H3,Erattupetta,,Kerala,IN,https://www.google.com/maps/place/SAFA+MASJID/data=!4m7!3m6!1s0x3b07cb65e95a96b7:0x23b25bc109b8d062!8m2!3d9.6889435!4d76.7951903!16s%2Fg%2F11sk952pb8!19sChIJt5Za6WXLBzsRYtC4CcFbsiM?authuser=0&hl=en&rclk=1,"9.688943499999999,76.7951903"
Masjid Umar Bin Al Khattab,Mosque,"MQMJ+GG6 Masjid Umar Bin Al Khattab, Aruvithura, Erattupetta, Kerala 686121",Aruvithura,MQMJ+GG6,Erattupetta,686121,Kerala,IN,https://www.google.com/maps/place/Masjid+Umar+Bin+Al+Khattab/data=!4m7!3m6!1s0x3b07cb27eb53a657:0xe9542b77fc015f00!8m2!3d9.6837876!4d76.7812509!16s%2Fg%2F11twb_vpnq!19sChIJV6ZT6yfLBzsRAF8B_HcrVOk?authuser=0&hl=en&rclk=1,"9.683787599999999,76.7812509"
Fathima Masjid chirappara,Mosque,"MQGH+PCX Fathima Masjid chirappara, Thekkekara, Erattupetta, Kerala 686121",Thekkekara,MQGH+PCX,Erattupetta,686121,Kerala,IN,https://www.google.com/maps/place/Fathima+Masjid+chirappara/data=!4m7!3m6!1s0x3b07cb39aedd56d7:0xb2ac56a7843ecc38!8m2!3d9.6768672!4d76.7786144!16s%2Fg%2F11q1t29kc3!19sChIJ11bdrjnLBzsROMw-hKdWrLI?authuser=0&hl=en&rclk=1,"9.6768672,76.7786144"
Vattakkayam Shafi Masjid (Puthanpally),Mosque,"Vattakkayam Shafi Masjid (Puthanpally), Vattakkayam, Erattupetta, Kerala 686121",,Vattakkayam,Erattupetta,,Kerala,IN,https://www.google.com/maps/place/Vattakkayam+Shafi+Masjid+%28Puthanpally%29/data=!4m7!3m6!1s0x3b07cbcb11e4f7f7:0xabf033a71188c9ff!8m2!3d9.6897633!4d76.780914!16s%2Fg%2F11t6pv_9q2!19sChIJ9_fkEcvLBzsR_8mIEacz8Ks?authuser=0&hl=en&rclk=1,"9.6897633,76.780914"
Ejaba Juma Masjid,Religious institution,"MQVM+98X Ejaba Juma Masjid, Erattupetta, Kerala 686121",,MQVM+98X,Erattupetta,686121,Kerala,IN,https://www.google.com/maps/place/Ejaba+Juma+Masjid/data=!4m7!3m6!1s0x3b07cb9d8596dc1d:0x21ed27697b43b6ac!8m2!3d9.6934924!4d76.7833531!16s%2Fg%2F11rr580ygr!19sChIJHdyWhZ3LBzsRrLZDe2kn7SE?authuser=0&hl=en&rclk=1,"9.6934924,76.7833531"
Hijaba masjid erattupetta,Mosque,"MQVM+98X Hijaba masjid erattupetta, Nadackal, Erattupetta, Kerala 686121",Nadackal,MQVM+98X,Erattupetta,686121,Kerala,IN,https://www.google.com/maps/place/Hijaba+masjid+erattupetta/data=!4m7!3m6!1s0x3b07cb17fb3143b1:0xc1a177305b3a8e67!8m2!3d9.6934566!4d76.7833581!16s%2Fg%2F11sszrt_k7!19sChIJsUMx-xfLBzsRZ446WzB3ocE?authuser=0&hl=en&rclk=1,"9.6934566,76.7833581"
Madeena Masjid (Mukkadavu Palli),Mosque,"Madeena Masjid (Mukkadavu Palli), Mukkada Masjid, Erattupetta, Kerala 686121",,Mukkada Masjid,Erattupetta,686121,Kerala,IN,https://www.google.com/maps/place/Madeena+Masjid+%28Mukkadavu+Palli%29/data=!4m7!3m6!1s0x3b07cb559fb123b3:0x7fd879a5bdbc9a47!8m2!3d9.6881678!4d76.7774395!16s%2Fg%2F11pzt8_c_c!19sChIJsyOxn1XLBzsRR5q8vaV52H8?authuser=0&hl=en&rclk=1,"9.6881678,76.7774395"
Masjid Abubakar siddiq,Mosque,"MQPP+W39 Masjid Abubakar siddiq, Nadackal, Erattupetta, Kerala 686121",Nadackal,MQPP+W39,Erattupetta,686121,Kerala,IN,https://www.google.com/maps/place/Masjid+Abubakar+siddiq/data=!4m7!3m6!1s0x3b07cbde6b7a9889:0xe6b3efaee86a4fcc!8m2!3d9.6872855!4d76.7852252!16s%2Fg%2F11tjf5b884!19sChIJiZh6a97LBzsRzE9q6K7vs-Y?authuser=0&hl=en&rclk=1,"9.6872855,76.7852252"
"Masjid, Mattakkad",Mosque,"MQJP+RJQ Masjid, Mattakkad, Nadackal, Erattupetta, Kerala 686121",Nadackal,MQJP+RJQ,Erattupetta,686121,Kerala,IN,"https://www.google.com/maps/place/Masjid,+Mattakkad/data=!4m7!3m6!1s0x3b07cb8a8fd62511:0xaf3ebcb2d4c8fe50!8m2!3d9.682085!4d76.7865805!16s%2Fg%2F11jz7ljv0s!19sChIJESXWj4rLBzsRUP7I1LK8Pq8?authuser=0&hl=en&rclk=1","9.682084999999999,76.7865805"
KAUZAR MASJID,Mosque,"MQPQ+8P9 KAUZAR MASJID, Nadackal, Erattupetta, Kerala 686121",Nadackal,MQPQ+8P9,Erattupetta,686121,Kerala,IN,https://www.google.com/maps/place/KAUZAR+MASJID/data=!4m7!3m6!1s0x3b07cb7689b4487d:0x62e9c663079d2c25!8m2!3d9.685859!4d76.7893802!16s%2Fg%2F11ss8lsbyx!19sChIJfUi0iXbLBzsRJSydB2PG6WI?authuser=0&hl=en&rclk=1,"9.685858999999999,76.7893802"
Mina Masjid,Mosque,"MQQR+67W Mina Masjid, Poonjar Rd, Nadackal, Erattupetta, Kerala 686121",Nadackal,"MQQR+67W, Poonjar Rd",Erattupetta,686121,Kerala,IN,https://www.google.com/maps/place/Mina+Masjid/data=!4m7!3m6!1s0x3b07cb48f48720d5:0x61c7e100903a0bb9!8m2!3d9.6860451!4d76.7810465!16s%2Fg%2F11tsj7x16h!19sChIJ1SCH9EjLBzsRuQs6kADhx2E?authuser=0&hl=en&rclk=1,"9.6860451,76.7810465"
"Nadackal, near Aman masjid",Mosque,"MQVR+C6G Nadackal, near Aman masjid, Puthupparampil, Nadackal, Erattupetta, Kerala 686121","Puthupparampil, Nadackal",MQVR+C6G,Erattupetta,686121,Kerala,IN,"https://www.google.com/maps/place/Nadackal,+near+Aman+masjid/data=!4m7!3m6!1s0x3b07cb3dcd536e37:0x8519acd267693cd9!8m2!3d9.6935678!4d76.7905808!16s%2Fg%2F11l363drnb!19sChIJN25TzT3LBzsR2TxpZ9KsGYU?authuser=0&hl=en&rclk=1","9.6935678,76.7905808"
"JEELANI MASJID, THEKKEKKARA",Mosque,"MQGH+JGQ JEELANI MASJID, THEKKEKKARA, Thekkekara, Erattupetta, Kerala 686121",Thekkekara,MQGH+JGQ,Erattupetta,686121,Kerala,IN,"https://www.google.com/maps/place/JEELANI+MASJID,+THEKKEKKARA/data=!4m7!3m6!1s0x3b07cb52b52d5f41:0xf0e52cd359a32540!8m2!3d9.6765907!4d76.7788692!16s%2Fg%2F11sb59wdnv!19sChIJQV8ttVLLBzsRQCWjWdMs5fA?authuser=0&hl=en&rclk=1","9.6765907,76.7788692"
Amaan jama masjid nadackal,Mosque,"MQVQ+6WP Amaan jama masjid nadackal, Aman Mazjid building, Puthupparampil, Nadackal, Erattupetta, Kerala 686121","Puthupparampil, Nadackal",MQVQ+6WP Aman Mazjid building,Erattupetta,686121,Kerala,IN,https://www.google.com/maps/place/Amaan+jama+masjid+nadackal/data=!4m7!3m6!1s0x3b07cb0c9746aa27:0x33aa228b0781fc69!8m2!3d9.693086!4d76.7898598!16s%2Fg%2F11vc533xcx!19sChIJJ6pGlwzLBzsRafyBB4siqjM?authuser=0&hl=en&rclk=1,"9.693086,76.7898598"
MASJID 'UL KHUBA,Mosque,"MQXJ+X2Q MASJID 'UL KHUBA, Kaduvamuzhi, Erattupetta, Kerala 686121",Kaduvamuzhi,MQXJ+X2Q,Erattupetta,686121,Kerala,IN,https://www.google.com/maps/place/MASJID+%27UL+KHUBA/data=!4m7!3m6!1s0x3b07cbb564362d27:0x82457aed5bf02fbc!8m2!3d9.6999739!4d76.7801181!16s%2Fg%2F11j_01jk4n!19sChIJJy02ZLXLBzsRvC_wW-16RYI?authuser=0&hl=en&rclk=1,"9.6999739,76.7801181"
