name,main_category,address,address_ward,address_street,address_city,address_postal_code,address_state,address_country_code,link,coordinates
Fatehpuri Masjid,Mosque,"Fatehpuri Masjid, 39, Chandni Chowk Rd, Fatehpuri, Chandni Chowk, New Delhi, Delhi, 110006","Fatehpuri, Chandni Chowk","39, Chandni Chowk Rd","New Delhi, Delhi",110006,Delhi,IN,https://www.google.com/maps/place/Fatehpuri+Masjid/data=!4m7!3m6!1s0x390cfd12236c41c7:0x5f3e70ba058095f!8m2!3d28.6566489!4d77.2227706!16s%2Fm%2F0532f6p!19sChIJx0FsIxL9DDkRXwlYoAvn8wU?authuser=0&hl=en&rclk=1,"28.6566489,77.22277059999999"
Zubair Masjid Lodhi Ganj Fatehpur,Mosque,"WRGP+V6Q Zubair Masjid Lodhi Ganj Fatehpur, Kanpur - Allahabad Hwy, Fatehpur, Uttar Pradesh 212601",,"WRGP+V6Q, Kanpur - Allahabad Hwy",Fatehpur,212601,Uttar Pradesh,IN,https://www.google.com/maps/place/Zubair+Masjid+Lodhi+Ganj+Fatehpur/data=!4m7!3m6!1s0x399b62c630431e3f:0x3a58448f6f8d2c39!8m2!3d25.9272166!4d80.835608!16s%2Fg%2F11clwhltts!19sChIJPx5DMMZimzkROSyNb49EWDo?authuser=0&hl=en&rclk=1,"25.927216599999998,80.835608"
Jama Masjid,Mosque,"3MV6+WV9 Jama Masjid, Dadupura, Fatehpur Sikri, Uttar Pradesh 283110",Dadupura,3MV6+WV9,Fatehpur Sikri,283110,Uttar Pradesh,IN,https://www.google.com/maps/place/Jama+Masjid/data=!4m7!3m6!1s0x397393e300000001:0x1a1b51e3f812d6aa!8m2!3d27.0947793!4d77.6622318!16s%2Fm%2F04q3h0q!19sChIJAQAAAOOTczkRqtYS-ONRGxo?authuser=0&hl=en&rclk=1,"27.0947793,77.6622318"
Kacheri Masjid,Mosque,"WRH2+QPG Kacheri Masjid, North Civil Line, Civil Lines, Fatehpur, Uttar Pradesh 212601","North Civil Line, Civil Lines",WRH2+QPG,Fatehpur,212601,Uttar Pradesh,IN,https://www.google.com/maps/place/Kacheri+Masjid/data=!4m7!3m6!1s0x399c9d510784d743:0xeac7ba3e500b3e19!8m2!3d25.929425!4d80.8018285!16s%2Fg%2F11dymm7tll!19sChIJQ9eEB1GdnDkRGT4LUD66x-o?authuser=0&hl=en&rclk=1,"25.929425,80.8018285"
Masjid - Umar Bin Khattab ( Choti Masjid ),Mosque,"XXV2+QQG Masjid - Umar Bin Khattab ( Choti Masjid ), Ward Number 8, Fatehpur, Rajasthan 332301",Ward Number 8,XXV2+QQG,Fatehpur,332301,Rajasthan,IN,https://www.google.com/maps/place/Masjid+-+Umar+Bin+Khattab+%28+Choti+Masjid+%29/data=!4m7!3m6!1s0x3914a83c71a227e5:0x5fa009553280c38!8m2!3d27.9944489!4d74.951958!16s%2Fg%2F1yg93pxxk!19sChIJ5SeicTyoFDkROAwoU5UA-gU?authuser=0&hl=en&rclk=1,"27.9944489,74.95195799999999"
Masjid E Dalalan,Mosque,"WRJ8+47F Masjid E Dalalan, Lala Bazar,Station Road,Opp Churi Gali, Uttar Pradesh 212601",Lala Bazaar,"WRJ8+47F, Lala Bazar,Station Road,Opp Churi Gali",Fatehpur,212601,Uttar Pradesh,IN,https://www.google.com/maps/place/Masjid+E+Dalalan/data=!4m7!3m6!1s0x399b62a925c70bbf:0xdf451aaea7331b45!8m2!3d25.930322!4d80.8156563!16s%2Fg%2F11b6bq7hyn!19sChIJvwvHJalimzkRRRszp64aRd8?authuser=0&hl=en&rclk=1,"25.930322,80.8156563"
Jama Masjid,Mosque,"WRR3+4W9 Jama Masjid, Tambeshwar Puram, Fatehpur, Uttar Pradesh 212601",Tambeshwar Puram,WRR3+4W9,Fatehpur,212601,Uttar Pradesh,IN,https://www.google.com/maps/place/Jama+Masjid/data=!4m7!3m6!1s0x399c82ab7c78a49d:0xa81f0bdb2c37e6a0!8m2!3d25.9402841!4d80.8048638!16s%2Fg%2F11g65br1r6!19sChIJnaR4fKuCnDkRoOY3LNsLH6g?authuser=0&hl=en&rclk=1,"25.9402841,80.80486379999999"
Khambhapur Masjid,Mosque,"WQ6R+PRJ Khambhapur Masjid, Khammbhapur, Fatehpur, Uttar Pradesh 212601",Khammbhapur,WQ6R+PRJ,Fatehpur,212601,Uttar Pradesh,IN,https://www.google.com/maps/place/Khambhapur+Masjid/data=!4m7!3m6!1s0x399c9d6a40936751:0x161b0af68b69888f!8m2!3d25.9118436!4d80.7920106!16s%2Fg%2F11hbkfrdh4!19sChIJUWeTQGqdnDkRj4hpi_YKGxY?authuser=0&hl=en&rclk=1,"25.911843599999997,80.7920106"
jama masjid kotwali,Mosque,"WRH9+7QJ jama masjid kotwali, Fatehpur Thana Kothwali Rd, Peeranpur, Fatehpur, Uttar Pradesh 212601",Peeranpur,"WRH9+7QJ, Fatehpur Thana Kothwali Rd",Fatehpur,212601,Uttar Pradesh,IN,https://www.google.com/maps/place/jama+masjid+kotwali/data=!4m7!3m6!1s0x399b62af94502559:0xec3883b0efa623df!8m2!3d25.9282159!4d80.8193836!16s%2Fg%2F11dymwj5gp!19sChIJWSVQlK9imzkR3yOm77CDOOw?authuser=0&hl=en&rclk=1,"25.928215899999998,80.8193836"
Jama Masjid Fatehpur,Mosque,"4PJ3+V6F Jama Masjid Fatehpur, Fatahpur, Fatehpur Mandao, Uttar Pradesh 221603",Fatahpur,4PJ3+V6F,Fatehpur Mandao,221603,Uttar Pradesh,IN,https://www.google.com/maps/place/Jama+Masjid+Fatehpur/data=!4m7!3m6!1s0x39922f1971e8022f:0x8f05e40a051d550!8m2!3d26.1321844!4d83.7030577!16s%2Fg%2F11g7cvzxb_!19sChIJLwLocRkvkjkRUNVRoEBe8Ag?authuser=0&hl=en&rclk=1,"26.1321844,83.7030577"
Jama Masjid Fatehpur,Housing society,"56C6+MCM Jama Masjid Fatehpur, Tehsil Fateh Pur, Uttar Pradesh 225305",,56C6+MCM,Tehsil Fateh Pur,225305,Uttar Pradesh,IN,https://www.google.com/maps/place/Jama+Masjid+Fatehpur/data=!4m7!3m6!1s0x399969791b2f8503:0xe38a4078260a38aa!8m2!3d27.1717219!4d81.2110535!16s%2Fg%2F11cjp87pcq!19sChIJA4UvG3lpmTkRqjgKJnhAiuM?authuser=0&hl=en&rclk=1,"27.171721899999998,81.21105349999999"
Lallu Miyaan Kothi Masjid,Mosque,"WRG7+4JG Lallu Miyaan Kothi Masjid, Amarjai, Lala Bazaar, Fatehpur, Uttar Pradesh 212601","Amarjai, Lala Bazaar",WRG7+4JG,Fatehpur,212601,Uttar Pradesh,IN,https://www.google.com/maps/place/Lallu+Miyaan+Kothi+Masjid/data=!4m7!3m6!1s0x399b62a63f7537bf:0xdb00a18242e47086!8m2!3d25.9253154!4d80.8140691!16s%2Fg%2F11byyqjbky!19sChIJvzd1P6ZimzkRhnDkQoKhANs?authuser=0&hl=en&rclk=1,"25.9253154,80.8140691"
Masjid Mazhar Miya,Mosque,"WRMC+JPV Masjid Mazhar Miya, Unnamed Road, Maswani, Fatehpur, Uttar Pradesh 212601",Maswani,"WRMC+JPV, Unnamed Road",Fatehpur,212601,Uttar Pradesh,IN,https://www.google.com/maps/place/Masjid+Mazhar+Miya/data=!4m7!3m6!1s0x399b62b20e0c35b9:0x27182aa7bd9bb4d2!8m2!3d25.9341076!4d80.8217919!16s%2Fg%2F11f3xny_5w!19sChIJuTUMDrJimzkR0rSbvacqGCc?authuser=0&hl=en&rclk=1,"25.934107599999997,80.8217919"
Badi Masjid Fatehpur,Mosque,"56G6+3JQ Badi Masjid Fatehpur, satti bazar, Tehsil Fateh Pur",,"56G6+3JQ, satti bazar",Tehsil Fateh Pur,,Uttar Pradesh,IN,https://www.google.com/maps/place/Badi+Masjid+Fatehpur/data=!4m7!3m6!1s0x3999697ec1872199:0x5672ace7f8abe33c!8m2!3d27.1752071!4d81.2115956!16s%2Fg%2F11b7yrhy6k!19sChIJmSGHwX5pmTkRPOOr-OesclY?authuser=0&hl=en&rclk=1,"27.175207099999998,81.2115956"
Dada Miya Ki Masjid,Mosque,"WRH7+3V5 Dada Miya Ki Masjid, Lala Bazaar, Fatehpur, Uttar Pradesh 212601",Lala Bazaar,WRH7+3V5,Fatehpur,212601,Uttar Pradesh,IN,https://www.google.com/maps/place/Dada+Miya+Ki+Masjid/data=!4m7!3m6!1s0x399b62a8ca3a31c1:0x2b9ec9b96de6601d!8m2!3d25.9276316!4d80.8147193!16s%2Fg%2F11ddt47n64!19sChIJwTE6yqhimzkRHWDmbbnJnis?authuser=0&hl=en&rclk=1,"25.927631599999998,80.8147193"
Dargah Shaheed Baba,Religious destination,"Dargah Shaheed Baba, Maswani, Fatehpur, Uttar Pradesh 212601",Maswani,,Fatehpur,212601,Uttar Pradesh,IN,https://www.google.com/maps/place/Dargah+Shaheed+Baba/data=!4m7!3m6!1s0x399b63c6b2fdf46d:0x8a7dbe8b87d53bd9!8m2!3d25.9323033!4d80.8274638!16s%2Fg%2F11j003cqgs!19sChIJbfT9ssZjmzkR2TvVh4u-fYo?authuser=0&hl=en&rclk=1,"25.932303299999997,80.82746379999999"
Masjid Vajir Haji Fatehpur,Mosque,"XXR7+XQ4 Masjid Vajir Haji Fatehpur, Nawalgarh Rd, Khokar Colony, Pulia, Fatehpur, Rajasthan 332301","Khokar Colony, Pulia","XXR7+XQ4, Nawalgarh Rd",Fatehpur,332301,Rajasthan,IN,https://www.google.com/maps/place/Masjid+Vajir+Haji+Fatehpur/data=!4m7!3m6!1s0x391357da1e0d4b1d:0x993204c6f447a6b3!8m2!3d27.992395!4d74.9644638!16s%2Fg%2F11c30q9mqw!19sChIJHUsNHtpXEzkRs6ZH9MYEMpk?authuser=0&hl=en&rclk=1,"27.992395,74.96446379999999"
Mochiyana Masjid,Mosque,"WRG8+J58 Mochiyana Masjid, Amarjai, Lala Bazaar, Fatehpur, Uttar Pradesh 212601","Amarjai, Lala Bazaar",WRG8+J58,Fatehpur,212601,Uttar Pradesh,IN,https://www.google.com/maps/place/Mochiyana+Masjid/data=!4m7!3m6!1s0x399b62a6011c6d59:0xf91026612c85ef36!8m2!3d25.9265327!4d80.8154404!16s%2Fg%2F11cm0hnqv_!19sChIJWW0cAaZimzkRNu-FLGEmEPk?authuser=0&hl=en&rclk=1,"25.9265327,80.8154404"
Raza Masjid | Unchi Wali Masjid,Mosque,"Raza Masjid | Unchi Wali Masjid, Choti Bazaar, Lala Bazaar, Fatehpur, Uttar Pradesh 212601",Lala Bazaar,Choti Bazaar,Fatehpur,212601,Uttar Pradesh,IN,https://www.google.com/maps/place/Raza+Masjid+%7C+Unchi+Wali+Masjid/data=!4m7!3m6!1s0x399b630bce4e1f3f:0x3dd07490f8e76c1!8m2!3d25.9315875!4d80.8162656!16s%2Fg%2F11f6dvn68m!19sChIJPx9OzgtjmzkRwXaOD0kH3QM?authuser=0&hl=en&rclk=1,"25.9315875,80.8162656"
madina Masjid Kotla,Mosque,"X3HV+392 madina Masjid Kotla, Fatehpur, Kotla, Uttar Pradesh 212650",,X3HV+392,"Fatehpur, Kotla",,Uttar Pradesh,IN,https://www.google.com/maps/place/madina+Masjid+Kotla/data=!4m7!3m6!1s0x399b7215bf3ae457:0x5fdd4a22a495038e!8m2!3d25.9776387!4d81.0933913!16s%2Fg%2F11f4hvby58!19sChIJV-Q6vxVymzkRjgOVpCJK3V8?authuser=0&hl=en&rclk=1,"25.9776387,81.0933913"
Jama Masjid Fatehpur,Mosque,"QPCF+G38 Jama Masjid Fatehpur, Malakpur, Uttar Pradesh 244301",,QPCF+G38,Malakpur,244301,Uttar Pradesh,IN,https://www.google.com/maps/place/Jama+Masjid+Fatehpur/data=!4m7!3m6!1s0x390afcc7c9aac3d5:0xebee3dd845b101b5!8m2!3d28.7712797!4d78.7227044!16s%2Fg%2F11dyl_x0rf!19sChIJ1cOqycf8CjkRtQGxRdg97us?authuser=0&hl=en&rclk=1,"28.771279699999997,78.7227044"
Madarsa JAMIA TAJWEEDUL FURQAN'S MASJID,Mosque,"WRH4+FPQ Madarsa JAMIA TAJWEEDUL FURQAN'S MASJID, Murain Tola, Fatehpur, Uttar Pradesh 212601",Murain Tola,WRH4+FPQ,Fatehpur,212601,Uttar Pradesh,IN,https://www.google.com/maps/place/Madarsa+JAMIA+TAJWEEDUL+FURQAN%27S+MASJID/data=!4m7!3m6!1s0x399c9d570467e6f1:0xf68a7a0014036ec6!8m2!3d25.9287089!4d80.806848!16s%2Fg%2F11ggzg2xbd!19sChIJ8eZnBFednDkRxm4DFAB6ivY?authuser=0&hl=en&rclk=1,"25.9287089,80.806848"
Masjid Aqsa,Mosque,"WRH4+78M Masjid Aqsa, Civil Lines, Fatehpur, Uttar Pradesh 212601",Civil Lines,WRH4+78M,Fatehpur,212601,Uttar Pradesh,IN,https://www.google.com/maps/place/Masjid+Aqsa/data=!4m7!3m6!1s0x399c9d573d05056f:0xc3c979018c24a98b!8m2!3d25.9282019!4d80.8057899!16s%2Fg%2F1hm3nrdms!19sChIJbwUFPVednDkRi6kkjAF5ycM?authuser=0&hl=en&rclk=1,"25.928201899999998,80.8057899"
Siddiqui Mosque,Place of worship,"WRR2+XFW Siddiqui Mosque, Tambeshwar Puram, Fatehpur, Uttar Pradesh 212601",Tambeshwar Puram,WRR2+XFW,Fatehpur,212601,Uttar Pradesh,IN,https://www.google.com/maps/place/Siddiqui+Mosque/data=!4m7!3m6!1s0x399c82adcf104fbb:0x1f3a008c966331fc!8m2!3d25.942483!4d80.8012167!16s%2Fg%2F11clwcfxd6!19sChIJu08Qz62CnDkR_DFjlowAOh8?authuser=0&hl=en&rclk=1,"25.942483,80.8012167"
Mosque Of Sunni Ganj,Mosque,"WRW4+55V Mosque Of Sunni Ganj, Gopal Nagar, Fatehpur, Uttar Pradesh 212601",Gopal Nagar,WRW4+55V,Fatehpur,212601,Uttar Pradesh,IN,https://www.google.com/maps/place/Mosque+Of+Sunni+Ganj/data=!4m7!3m6!1s0x399c82a9397626d3:0x8a89124de3f6989a!8m2!3d25.94549!4d80.805423!16s%2Fg%2F11hcytmdgw!19sChIJ0yZ2OamCnDkRmpj2400SiYo?authuser=0&hl=en&rclk=1,"25.94549,80.80542299999999"
Jama Masjid Pathan mohalla,Mosque,"WRQ4+GC3 Jama Masjid Pathan mohalla, Abu Nagar, Fatehpur, Uttar Pradesh 212601",Abu Nagar,WRQ4+GC3,Fatehpur,212601,Uttar Pradesh,IN,https://www.google.com/maps/place/Jama+Masjid+Pathan+mohalla/data=!4m7!3m6!1s0x399c82ab30c18a5d:0x579ae396cf65646c!8m2!3d25.93877!4d80.8060469!16s%2Fg%2F11dxl966qs!19sChIJXYrBMKuCnDkRbGRlz5bjmlc?authuser=0&hl=en&rclk=1,"25.938769999999998,80.8060469"
Masjid -E- Raza,Mosque,"WRH6+VGH Masjid -E- Raza, Murain Tola, Fatehpur, Uttar Pradesh 212601",Murain Tola,WRH6+VGH,Fatehpur,212601,Uttar Pradesh,IN,https://www.google.com/maps/place/Masjid+-E-+Raza/data=!4m7!3m6!1s0x399b62a9ca43139d:0xbe10eaf8352d8259!8m2!3d25.9296966!4d80.8113438!16s%2Fg%2F11g6j83s44!19sChIJnRNDyqlimzkRWYItNfjqEL4?authuser=0&hl=en&rclk=1,"25.9296966,80.8113438"
Jama Masjid,Mosque,"WQFH+76C Jama Masjid, Sathigawan - Fatehpur Rd, Trilokipur, Uttar Pradesh 212601",,"WQFH+76C, Sathigawan - Fatehpur Rd",Trilokipur,,Uttar Pradesh,IN,https://www.google.com/maps/place/Jama+Masjid/data=!4m7!3m6!1s0x399c9d471f59c6a3:0x5331085104222445!8m2!3d25.9231826!4d80.7780159!16s%2Fg%2F11ghtcsc9_!19sChIJo8ZZH0ednDkRRSQiBFEIMVM?authuser=0&hl=en&rclk=1,"25.9231826,80.7780159"
Madina Masjid Bakandha,Mosque,"XQ5P+9PP Madina Masjid Bakandha, Mugal Road, Korai, Uttar Pradesh 212601",,"XQ5P+9PP, Mugal Road",Korai,212601,Uttar Pradesh,IN,https://www.google.com/maps/place/Madina+Masjid+Bakandha/data=!4m7!3m6!1s0x399c833ef886517b:0xe9de589bdc8aa450!8m2!3d25.9584646!4d80.7868308!16s%2Fg%2F11hz9ht0ww!19sChIJe1GG-D6DnDkRUKSK3JtY3uk?authuser=0&hl=en&rclk=1,"25.9584646,80.78683079999999"
Ek Minari Masjid,Mosque,"WRFF+H7P Ek Minari Masjid, Peeranpur, Fatehpur, Uttar Pradesh 212601",Peeranpur,WRFF+H7P,Fatehpur,212601,Uttar Pradesh,IN,https://www.google.com/maps/place/Ek+Minari+Masjid/data=!4m7!3m6!1s0x399b62bb1b59132f:0xd4fce4ebd2a63cae!8m2!3d25.9239576!4d80.8231883!16s%2Fg%2F11fxyhytsd!19sChIJLxNZG7timzkRrjym0uvk_NQ?authuser=0&hl=en&rclk=1,"25.923957599999998,80.8231883"
Shahi Masjid Jwalaganj,Mosque,"WRHF+248 Shahi Masjid Jwalaganj, Jwalaganj, Chauraha, Fatehpur, Uttar Pradesh 212601","Jwalaganj, Chauraha",WRHF+248,Fatehpur,212601,Uttar Pradesh,IN,https://www.google.com/maps/place/Shahi+Masjid+Jwalaganj/data=!4m7!3m6!1s0x399b62b074151811:0x96d7b4665711a41d!8m2!3d25.927531!4d80.822819!16s%2Fg%2F11f259zqmb!19sChIJERgVdLBimzkRHaQRV2a015Y?authuser=0&hl=en&rclk=1,"25.927531,80.822819"
Hafiz Haji Mohammad Inayatullah Shah r.a.,Mosque,"WRV3+J2Q Hafiz Haji Mohammad Inayatullah Shah r.a., Gopal Nagar, Fatehpur, Uttar Pradesh 212601",Gopal Nagar,WRV3+J2Q,Fatehpur,212601,Uttar Pradesh,IN,https://www.google.com/maps/place/Hafiz+Haji+Mohammad+Inayatullah+Shah+r.a./data=!4m7!3m6!1s0x399c839549f0d2a5:0xd7b99bf3b04b7b4c!8m2!3d25.9440977!4d80.8025948!16s%2Fg%2F11g4jmwzjt!19sChIJpdLwSZWDnDkRTHtLsPObudc?authuser=0&hl=en&rclk=1,"25.9440977,80.8025948"
Masjid-E-Ayesha,Mosque,"WRH7+9JH Masjid-E-Ayesha, SP Bunglow Rd, Mahajari, Lala Bazaar, Fatehpur, Uttar Pradesh 212601","Mahajari, Lala Bazaar","WRH7+9JH, SP Bunglow Rd",Fatehpur,212601,Uttar Pradesh,IN,https://www.google.com/maps/place/Masjid-E-Ayesha/data=!4m7!3m6!1s0x399b62a8ea7e42fd:0x468647272679f7e3!8m2!3d25.9284372!4d80.8141143!16s%2Fg%2F11bx6bl63t!19sChIJ_UJ-6qhimzkR4_d5JidHhkY?authuser=0&hl=en&rclk=1,"25.928437199999998,80.8141143"
Zeelani Masjid,Mosque,"Zeelani Masjid, Zilani Masjid Road, Peeranpur, Fatehpur, Uttar Pradesh 212601",Peeranpur,Zilani Masjid Road,Fatehpur,212601,Uttar Pradesh,IN,https://www.google.com/maps/place/Zeelani+Masjid/data=!4m7!3m6!1s0x399b639e4ec85b1d:0x7563220da8721eaa!8m2!3d25.9241192!4d80.8188405!16s%2Fg%2F11h6t9dlqt!19sChIJHVvITp5jmzkRqh5yqA0iY3U?authuser=0&hl=en&rclk=1,"25.9241192,80.8188405"
Bargah E Hussainia Fatehpur,Mosque,"WRP9+JQ5 Bargah E Hussainia Fatehpur, Bargah E Hussainia, Baqar Ganj, Vaqeer Ganj, Fatehpur, Uttar Pradesh 212601","Baqar Ganj, Vaqeer Ganj","WRP9+JQ5, Bargah E Hussainia",Fatehpur,212601,Uttar Pradesh,IN,https://www.google.com/maps/place/Bargah+E+Hussainia+Fatehpur/data=!4m7!3m6!1s0x399b62ad106889f9:0x766a46b31c0576f1!8m2!3d25.9365052!4d80.8194946!16s%2Fg%2F11cjkdk27w!19sChIJ-YloEK1imzkR8XYFHLNGanY?authuser=0&hl=en&rclk=1,"25.9365052,80.8194946"
Jama Masjid,Mosque,"VVHJ+9H5 Jama Masjid, Ekari, Uttar Pradesh 212645",,VVHJ+9H5,Ekari,212645,Uttar Pradesh,IN,https://www.google.com/maps/place/Jama+Masjid/data=!4m7!3m6!1s0x399b63b35c9214c5:0xc2fcd3a2b112b2a6!8m2!3d25.8783755!4d80.8814755!16s%2Fg%2F11fmqkhn9f!19sChIJxRSSXLNjmzkRprISsaLT_MI?authuser=0&hl=en&rclk=1,"25.878375499999997,80.8814755"
Nurani Sunni Masjid,Mosque,"XQGV+48R Nurani Sunni Masjid, Sangaon, Uttar Pradesh 212601",,XQGV+48R,Sangaon,212601,Uttar Pradesh,IN,https://www.google.com/maps/place/Nurani+Sunni+Masjid/data=!4m7!3m6!1s0x399c832cca2fe1e9:0xfc505bd7e06cc0b6!8m2!3d25.9753525!4d80.7932756!16s%2Fg%2F11h7dby9tk!19sChIJ6eEvyiyDnDkRtsBs4NdbUPw?authuser=0&hl=en&rclk=1,"25.9753525,80.7932756"
Jama Masjid Fatehpur,Mosque,"RGGV+Q9M Jama Masjid Fatehpur, Fatehpur, Bihar 854326",,RGGV+Q9M,Fatehpur,854326,Bihar,IN,https://www.google.com/maps/place/Jama+Masjid+Fatehpur/data=!4m7!3m6!1s0x39e557fec6bf3057:0x64bf606021f7aa4e!8m2!3d25.8269639!4d87.5434248!16s%2Fg%2F11f31pbmvd!19sChIJVzC_xv5X5TkRTqr3IWBgv2Q?authuser=0&hl=en&rclk=1,"25.8269639,87.5434248"
Masjid -E- Sabungira,Mosque,"WRJ8+PRV Masjid -E- Sabungira, Lathi Mohal, Fatehpur, Uttar Pradesh 212601",Lathi Mohal,WRJ8+PRV,Fatehpur,212601,Uttar Pradesh,IN,https://www.google.com/maps/place/Masjid+-E-+Sabungira/data=!4m7!3m6!1s0x399b62ae97d07383:0xd6135966fdb8b0e!8m2!3d25.9318697!4d80.8170538!16s%2Fg%2F11c6rhq0gk!19sChIJg3PQl65imzkRDovbb5Y1YQ0?authuser=0&hl=en&rclk=1,"25.9318697,80.8170538"
Masjid e shamali,Mosque,"WQHM+WCF Masjid e shamali, Fatehpur, Uttar Pradesh 212601",,WQHM+WCF,Fatehpur,,Uttar Pradesh,IN,https://www.google.com/maps/place/Masjid+e+shamali/data=!4m7!3m6!1s0x399c9d8a052455e3:0x53d39d6b3f617c86!8m2!3d25.9298076!4d80.7835407!16s%2Fg%2F11lh6dyjd_!19sChIJ41UkBYqdnDkRhnxhP2ud01M?authuser=0&hl=en&rclk=1,"25.9298076,80.7835407"
Imliyabag,Mosque,"WRM7+M6Q Imliyabag, Imliyabag kheldar, Uttar Pradesh 212601",Abu Nagar,"WRM7+M6Q, Imliyabag kheldar",Fatehpur,212601,Uttar Pradesh,IN,https://www.google.com/maps/place/Imliyabag/data=!4m7!3m6!1s0x399b63494940764b:0xdb53bc025e14a7ea!8m2!3d25.9342022!4d80.8130979!16s%2Fg%2F11rmx01f7r!19sChIJS3ZASUljmzkR6qcUXgK8U9s?authuser=0&hl=en&rclk=1,"25.934202199999998,80.8130979"
Noorani masjid,Mosque,"VRH8+H7Q Noorani masjid, Andauli, Uttar Pradesh 261001",,VRH8+H7Q,Andauli,261001,Uttar Pradesh,IN,https://www.google.com/maps/place/Noorani+masjid/data=!4m7!3m6!1s0x399b63c2e5fc1e9d:0xe50cc6c0a242e0fe!8m2!3d25.8789622!4d80.815732!16s%2Fg%2F11h5qpns06!19sChIJnR785cJjmzkR_uBCosDGDOU?authuser=0&hl=en&rclk=1,"25.8789622,80.815732"
Shahi Masjid Fatehpur,Religious destination,"WRM8+W7Q Shahi Masjid Fatehpur, Vaqeer Ganj, Fatehpur, Uttar Pradesh 212601",Vaqeer Ganj,WRM8+W7Q,Fatehpur,212601,Uttar Pradesh,IN,https://www.google.com/maps/place/Shahi+Masjid+Fatehpur/data=!4m7!3m6!1s0x399b62ac77f8f8ad:0x72ce0f8aec83a3e8!8m2!3d25.9348331!4d80.8157436!16s%2Fg%2F11dym9wpny!19sChIJrfj4d6ximzkR6KOD7IoPznI?authuser=0&hl=en&rclk=1,"25.9348331,80.81574359999999"
Factory Complex mosque,Mosque,"2P88+6V5 Factory Complex mosque, Fatehpur, Uttar Pradesh 212664",,2P88+6V5,Fatehpur,212664,Uttar Pradesh,IN,https://www.google.com/maps/place/Factory+Complex+mosque/data=!4m7!3m6!1s0x399c84061575d063:0xad3a4c229f23f136!8m2!3d26.0155135!4d80.7172226!16s%2Fg%2F11f2dp_zjv!19sChIJY9B1FQaEnDkRNvEjnyJMOq0?authuser=0&hl=en&rclk=1,"26.015513499999997,80.7172226"
Masjid (Choori Wali Gali),Mosque,"WRJ8+3WW Masjid (Choori Wali Gali), Choori Wali Gali, Lala Bazaar, Fatehpur, Uttar Pradesh 212601",Lala Bazaar,"WRJ8+3WW, Choori Wali Gali",Fatehpur,212601,Uttar Pradesh,IN,https://www.google.com/maps/place/Masjid+%28Choori+Wali+Gali%29/data=!4m7!3m6!1s0x399b63bcb98f0181:0x19d6151bc88627b0!8m2!3d25.9302406!4d80.8173361!16s%2Fg%2F11p67_tdld!19sChIJgQGPubxjmzkRsCeGyBsV1hk?authuser=0&hl=en&rclk=1,"25.930240599999998,80.81733609999999"
Peeli Masjid,School,"WRM8+84R Peeli Masjid, kheldar, GT Rd, Fatehpur, Uttar Pradesh 212601","Baqar Ganj, Lathi Mohal","WRM8+84R, kheldar, GT Rd",Fatehpur,212601,Uttar Pradesh,IN,https://www.google.com/maps/place/Peeli+Masjid/data=!4m7!3m6!1s0x399b62abf0aa497f:0x5cd74362f1d39b80!8m2!3d25.9333701!4d80.8152708!16s%2Fg%2F11fz9jv1rm!19sChIJf0mq8KtimzkRgJvT8WJD11w?authuser=0&hl=en&rclk=1,"25.933370099999998,80.8152708"
"Jama Masjid, Ahmadganj",Place of worship,"WRHC+CMV Jama Masjid, Ahmadganj, Ahmad Ganj, Maswani, Fatehpur, Uttar Pradesh 212601","Ahmad Ganj, Maswani",WRHC+CMV,Fatehpur,212601,Uttar Pradesh,IN,"https://www.google.com/maps/place/Jama+Masjid,+Ahmadganj/data=!4m7!3m6!1s0x399b62b019a1896d:0xf9a78576f95a17ff!8m2!3d25.9286039!4d80.8216792!16s%2Fg%2F11dzvh23qh!19sChIJbYmhGbBimzkR_xda-XaFp_k?authuser=0&hl=en&rclk=1","25.9286039,80.82167919999999"
Jama masjid,Mosque,"VRJ7+C9M Jama masjid, Fatehpur, Uttar Pradesh 212601",,VRJ7+C9M,Fatehpur,,Uttar Pradesh,IN,https://www.google.com/maps/place/Jama+masjid/data=!4m7!3m6!1s0x399b63bfb79f03b1:0xa1bf4e38b9ad8764!8m2!3d25.881077!4d80.8134365!16s%2Fg%2F11h3tg__tw!19sChIJsQOft79jmzkRZIetuThOv6E?authuser=0&hl=en&rclk=1,"25.881076999999998,80.8134365"
Fatehpur Masjid,Mosque,"R98W+M8C Fatehpur Masjid, Fatehpur,Gorakhpur,273013, Fertilizer Colony, Gorakhpur, Uttar Pradesh 273013",Fertilizer Colony,"R98W+M8C, Fatehpur,Gorakhpur,273013",Gorakhpur,273013,Uttar Pradesh,IN,https://www.google.com/maps/place/Fatehpur+Masjid/data=!4m7!3m6!1s0x399145f6aad7f27b:0x8d84db52fdaeb643!8m2!3d26.8176613!4d83.3963967!16s%2Fg%2F11p73zb802!19sChIJe_LXqvZFkTkRQ7au_VLbhI0?authuser=0&hl=en&rclk=1,"26.817661299999997,83.3963967"
Mirza ji ki masjid,Mosque,"WRJC+MH2 Mirza ji ki masjid, Maswani, Fatehpur, Uttar Pradesh 212601",Maswani,WRJC+MH2,Fatehpur,212601,Uttar Pradesh,IN,https://www.google.com/maps/place/Mirza+ji+ki+masjid/data=!4m7!3m6!1s0x399b637220646e9d:0x7f231f702d2fbb08!8m2!3d25.9316457!4d80.8213932!16s%2Fg%2F11j2dsvr41!19sChIJnW5kIHJjmzkRCLsvLXAfI38?authuser=0&hl=en&rclk=1,"25.931645699999997,80.8213932"
Lala ki masjid,Mosque,"WRM9+7PF Lala ki masjid, GT Rd, Baqar Ganj, Chowk, Fatehpur, Uttar Pradesh 212601","Baqar Ganj, Chowk","WRM9+7PF, GT Rd",Fatehpur,212601,Uttar Pradesh,IN,https://www.google.com/maps/place/Lala+ki+masjid/data=!4m7!3m6!1s0x399b639bb4681751:0x7f10719064160e4f!8m2!3d25.9331978!4d80.8193119!16s%2Fg%2F11rrv4pfkn!19sChIJURdotJtjmzkRTw4WZJBxEH8?authuser=0&hl=en&rclk=1,"25.9331978,80.8193119"
Masjid-E-Umar,Mosque,"WRG8+5R5 Masjid-E-Umar, Nara shah baba Road, Peeranpur, Fatehpur, Uttar Pradesh 212601",Peeranpur,"WRG8+5R5, Nara shah baba Road",Fatehpur,212601,Uttar Pradesh,IN,https://www.google.com/maps/place/Masjid-E-Umar/data=!4m7!3m6!1s0x399b63445cdb5649:0x7965b20b974d856b!8m2!3d25.9253868!4d80.8170982!16s%2Fg%2F11h2cl7922!19sChIJSVbbXERjmzkRa4VNlwuyZXk?authuser=0&hl=en&rclk=1,"25.9253868,80.81709819999999"
Masjid Madrasa-E-Islamia,Mosque,"WRM7+28X Masjid Madrasa-E-Islamia, Murain Tola, Fatehpur, Uttar Pradesh 212601",Murain Tola,WRM7+28X,Fatehpur,212601,Uttar Pradesh,IN,https://www.google.com/maps/place/Masjid+Madrasa-E-Islamia/data=!4m7!3m6!1s0x399b63f6d692d38d:0x6737a73908edcfdd!8m2!3d25.9326096!4d80.8133523!16s%2Fg%2F11q24fn_fg!19sChIJjdOS1vZjmzkR3c_tCDmnN2c?authuser=0&hl=en&rclk=1,"25.9326096,80.81335229999999"
Naurang Noori Masjid,Mosque,"WRR6+JCR Naurang Noori Masjid, Near eidgaah, Nai Basti, Abu Nagar, Fatehpur, Uttar Pradesh 212601","Nai Basti, Abu Nagar","WRR6+JCR, Near eidgaah",Fatehpur,212601,Uttar Pradesh,IN,https://www.google.com/maps/place/Naurang+Noori+Masjid/data=!4m7!3m6!1s0x399b7da2082cb0bd:0xe2782885c128c4f3!8m2!3d25.9416096!4d80.8110124!16s%2Fg%2F11ghfn6tdz!19sChIJvbAsCKJ9mzkR88QowYUoeOI?authuser=0&hl=en&rclk=1,"25.9416096,80.8110124"
Hari masjid Saeed garden,Mosque,"WRQ7+FP2 Hari masjid Saeed garden, Abu Nagar, Fatehpur, Uttar Pradesh 212601",Abu Nagar,WRQ7+FP2,Fatehpur,212601,Uttar Pradesh,IN,https://www.google.com/maps/place/Hari+masjid+Saeed+garden/data=!4m7!3m6!1s0x399b7d6a3e91595b:0x8179af53db557252!8m2!3d25.9386335!4d80.8142779!16s%2Fg%2F11fpl9gpfv!19sChIJW1mRPmp9mzkRUnJV21OveYE?authuser=0&hl=en&rclk=1,"25.938633499999998,80.8142779"
Madina masjid,Mosque,"XQQV+XPM Madina masjid, Supa, Uttar Pradesh 212601",,XQQV+XPM,Supa,212601,Uttar Pradesh,IN,https://www.google.com/maps/place/Madina+masjid/data=!4m7!3m6!1s0x399c8346698cd5cf:0xf48778ae1c57858f!8m2!3d25.9899661!4d80.7943029!16s%2Fg%2F11qr2fnggx!19sChIJz9WMaUaDnDkRj4VXHK54h_Q?authuser=0&hl=en&rclk=1,"25.9899661,80.79430289999999"
jama masjid fatehpur,Mosque,"4WG5+R6G jama masjid fatehpur, Fatehpur, Madhya Pradesh 464228",,4WG5+R6G,Fatehpur,464228,Madhya Pradesh,IN,https://www.google.com/maps/place/jama+masjid+fatehpur/data=!4m7!3m6!1s0x397bdf4855a3a91f:0x8c1e1ea5f9f9817!8m2!3d24.1270654!4d77.9080741!16s%2Fg%2F11gd_y33kb!19sChIJH6mjVUjfezkRF5ifX-rhwQg?authuser=0&hl=en&rclk=1,"24.1270654,77.9080741"
Masjid (Mucchu Wali Masjid),Mosque,"WRJ7+XW8 Masjid (Mucchu Wali Masjid), Maulana Zahoorul Islam Rd, Lala Bazaar, Fatehpur, Uttar Pradesh 212601",Lala Bazaar,"WRJ7+XW8, Maulana Zahoorul Islam Rd",Fatehpur,212601,Uttar Pradesh,IN,https://www.google.com/maps/place/Masjid+%28Mucchu+Wali+Masjid%29/data=!4m7!3m6!1s0x399b63334e030487:0x7340ede5069ff50f!8m2!3d25.9324176!4d80.8148352!16s%2Fg%2F11q24fqg9x!19sChIJhwQDTjNjmzkRD_WfBuXtQHM?authuser=0&hl=en&rclk=1,"25.932417599999997,80.81483519999999"
Masjid Garib Nawaz,Mosque,"WRP5+VXX Masjid Garib Nawaz, Imamganj, Nai Basti, Abu Nagar, Fatehpur, Uttar Pradesh 212601","Nai Basti, Abu Nagar","WRP5+VXX, Imamganj",Fatehpur,212601,Uttar Pradesh,IN,https://www.google.com/maps/place/Masjid+Garib+Nawaz/data=!4m7!3m6!1s0x399c9d77d4ef9293:0x2ea527bf031af9f7!8m2!3d25.9372252!4d80.8099745!16s%2Fg%2F11ssdqnj7s!19sChIJk5Lv1HednDkR9_kaA78npS4?authuser=0&hl=en&rclk=1,"25.9372252,80.8099745"
Ghulam jafar Sahab masjid,Place of worship,"Ghulam jafar Sahab masjid, Baqar Ganj, Bakarganj, Fatehpur, Uttar Pradesh 212601","Baqar Ganj, Bakarganj",,Fatehpur,212601,Uttar Pradesh,IN,https://www.google.com/maps/place/Ghulam+jafar+Sahab+masjid/data=!4m7!3m6!1s0x399b63552e07a0c5:0x2f04a55bdb15fba3!8m2!3d25.933818!4d80.8186861!16s%2Fg%2F11sb3v66nc!19sChIJxaAHLlVjmzkRo_sV21ulBC8?authuser=0&hl=en&rclk=1,"25.933818,80.8186861"
Mangre mau,Mosque,"WQCX+9VF Mangre mau, New masjid mangre mau, Fatehpur",Gautam Nagar,"WQCX+9VF, New masjid mangre mau",Fatehpur,,Uttar Pradesh,IN,https://www.google.com/maps/place/Mangre+mau/data=!4m7!3m6!1s0x399c9d8c2c437acd:0xdadae73fba04cdac!8m2!3d25.9209379!4d80.799685!16s%2Fg%2F11rv2wjrk1!19sChIJzXpDLIydnDkRrM0Euj_n2to?authuser=0&hl=en&rclk=1,"25.9209379,80.799685"
Masjid Near Railway Station Fatehpur,School,"WR74+QRV Masjid Near Railway Station Fatehpur, Harihar Ganj, Fatehpur, Uttar Pradesh 212601",Harihar Ganj,WR74+QRV,Fatehpur,212601,Uttar Pradesh,IN,https://www.google.com/maps/place/Masjid+Near+Railway+Station+Fatehpur/data=!4m7!3m6!1s0x399c9d26dd1b921b:0x922be477333c1e71!8m2!3d25.9144942!4d80.807032!16s%2Fg%2F11h_4rf2xg!19sChIJG5Ib3SadnDkRcR48M3fkK5I?authuser=0&hl=en&rclk=1,"25.9144942,80.80703199999999"
Jama masjid Fatehpur,Mosque,"5GR9+8HR Jama masjid Fatehpur, Fatehpur, Madhya Pradesh 470775",,5GR9+8HR,Fatehpur,470775,Madhya Pradesh,IN,https://www.google.com/maps/place/Jama+masjid+Fatehpur/data=!4m7!3m6!1s0x3982737bb91e4e73:0x922d02e35a0b1d9!8m2!3d24.1908631!4d79.5188797!16s%2Fg%2F11kpj94ss6!19sChIJc04euXtzgjkR2bGgNS7QIgk?authuser=0&hl=en&rclk=1,"24.190863099999998,79.5188797"
Qadri Masjid Fatehpur Gorakhpur Uttar Pradesh,Mosque,"Qadri Masjid Fatehpur Gorakhpur Uttar Pradesh, B R D, Medical College, Gautam Nagar, Fatehpur, Uttar Pradesh 273013",Gautam Nagar,"B R D, Medical College",Fatehpur,273013,Uttar Pradesh,IN,https://www.google.com/maps/place/Qadri+Masjid+Fatehpur+Gorakhpur+Uttar+Pradesh/data=!4m7!3m6!1s0x399c9d90c6f905bd:0xc77b8f99b3fbff8f!8m2!3d25.9209379!4d80.7996851!16s%2Fg%2F11v3hx8hyt!19sChIJvQX5xpCdnDkRj__7s5mPe8c?authuser=0&hl=en&rclk=1,"25.9209379,80.79968509999999"
Shahi masjid,Mosque,"WQCX+9VF Shahi masjid, Gautam Nagar, Fatehpur, Uttar Pradesh 212601",Gautam Nagar,WQCX+9VF,Fatehpur,,Uttar Pradesh,IN,https://www.google.com/maps/place/Shahi+masjid/data=!4m7!3m6!1s0x399c9d716f4f2b37:0x261703168fcdad4c!8m2!3d25.9209379!4d80.7996851!16s%2Fg%2F11vf9m0dxf!19sChIJNytPb3GdnDkRTK3NjxYDFyY?authuser=0&hl=en&rclk=1,"25.9209379,80.79968509999999"
Madina masjid,Mosque,"WRM7+4HG Madina masjid, Maulana Zahoorul Islam Rd, Mahajari, Lala Bazaar, Fatehpur, Uttar Pradesh 212601","Mahajari, Lala Bazaar","WRM7+4HG, Maulana Zahoorul Islam Rd",Fatehpur,212601,Uttar Pradesh,IN,https://www.google.com/maps/place/Madina+masjid/data=!4m7!3m6!1s0x399b6390249b10a7:0x67d268795d3592df!8m2!3d25.9328132!4d80.8139518!16s%2Fg%2F11pzsbj4x0!19sChIJpxCbJJBjmzkR35I1XXlo0mc?authuser=0&hl=en&rclk=1,"25.9328132,80.8139518"
Nayi Masjid Shadipur,Mosque,"WQCW+9QR Nayi Masjid Shadipur, Shadipur, Gautam Nagar, Fatehpur, Uttar Pradesh 212601","Shadipur, Gautam Nagar",WQCW+9QR,Fatehpur,212601,Uttar Pradesh,IN,https://www.google.com/maps/place/Nayi+Masjid+Shadipur/data=!4m7!3m6!1s0x399c9df25aafc685:0xd4f5c6df189ddfbc!8m2!3d25.9209619!4d80.7968969!16s%2Fg%2F11l1yfwv3j!19sChIJhcavWvKdnDkRvN-dGN_G9dQ?authuser=0&hl=en&rclk=1,"25.920961899999998,80.7968969"
Shahen masjid,Mosque,"Shahen masjid, Asti, Fatehpur, Uttar Pradesh 212601",,Asti,Fatehpur,,Uttar Pradesh,IN,https://www.google.com/maps/place/Shahen+masjid/data=!4m7!3m6!1s0x399c9d767070ae4f:0xc9f07af12d81fc15!8m2!3d25.9282364!4d80.7828611!16s%2Fg%2F11v0zx_bwp!19sChIJT65wcHadnDkRFfyBLfF68Mk?authuser=0&hl=en&rclk=1,"25.9282364,80.78286109999999"
Chakpalpara Jame Mosjid,Mosque,"WQCX+9VF Chakpalpara Jame Mosjid, Chakpalpara, Sathigawan - Fatehpur Rd",Gautam Nagar,"WQCX+9VF, Chakpalpara, Sathigawan - Fatehpur Rd",Fatehpur,,Uttar Pradesh,IN,https://www.google.com/maps/place/Chakpalpara+Jame+Mosjid/data=!4m7!3m6!1s0x399c9d37c77cddef:0x5e001ba3823629c3!8m2!3d25.9209379!4d80.799685!16s%2Fg%2F11s__rj40_!19sChIJ7918xzednDkRwyk2gqMbAF4?authuser=0&hl=en&rclk=1,"25.9209379,80.799685"
Masjid Sadeeq e Akbar Naka,Mosque,"WQCX+9VF Masjid Sadeeq e Akbar Naka, Gautam Nagar, rajouri, naka185131, Uttar Pradesh 212601",Gautam Nagar,WQCX+9VF,"rajouri, naka185131",,Uttar Pradesh,IN,https://www.google.com/maps/place/Masjid+Sadeeq+e+Akbar+Naka/data=!4m7!3m6!1s0x399c9df20e9ee78f:0x4ec653ab3fdf3aeb!8m2!3d25.9209379!4d80.799685!16s%2Fg%2F11tmnplk7z!19sChIJj-eeDvKdnDkR6zrfP6tTxk4?authuser=0&hl=en&rclk=1,"25.9209379,80.799685"
Khankahe Hazrat Abdul Shakur Shah R.A,Mosque,"Khankahe, Khankahe Hazrat Abdul Shakur Shah R.A, Hazrat Abdul Shakur, Shah Rehmatulla Allaiy, beside Dada Miya ki masjid, Lala Bazaar, Fatehpur, Uttar Pradesh 212601",Lala Bazaar,"Khankahe, Hazrat Abdul Shakur, Shah Rehmatulla Allaiy, beside Dada Miya ki masjid",Fatehpur,212601,Uttar Pradesh,IN,https://www.google.com/maps/place/Khankahe+Hazrat+Abdul+Shakur+Shah+R.A/data=!4m7!3m6!1s0x399b630b8deaefab:0x3fc9095673bee2e9!8m2!3d25.9276596!4d80.8147995!16s%2Fg%2F11vlw5ffw7!19sChIJq-_qjQtjmzkR6eK-c1YJyT8?authuser=0&hl=en&rclk=1,"25.9276596,80.81479949999999"
Daruloom-gausia rajviya madarsa mosque,Mosque,"Daruloom-gausia rajviya madarsa mosque, New tahsil, Asti, Fatehpur, Uttar Pradesh 212601",,"New tahsil, Asti","Fatehpur, Umarpur Asti",212601,Uttar Pradesh,IN,https://www.google.com/maps/place/Daruloom-gausia+rajviya+madarsa+mosque/data=!4m7!3m6!1s0x399c83c14171ca03:0x5471b0d3c1054c24!8m2!3d25.9410075!4d80.7841262!16s%2Fg%2F11kmzfn3w_!19sChIJA8pxQcGDnDkRJEwFwdOwcVQ?authuser=0&hl=en&rclk=1,"25.941007499999998,80.7841262"
Ali house,Apartment building,"WRM9+832 Ali house, Near jamia masjid fatehpur swat, Fatehpur","Baqar Ganj, Vaqeer Ganj","WRM9+832, Near jamia masjid fatehpur swat",Fatehpur,,Uttar Pradesh,IN,https://www.google.com/maps/place/Ali+house/data=!4m7!3m6!1s0x399b63de53494e03:0x206f64e02d22aeb2!8m2!3d25.9332725!4d80.8176539!16s%2Fg%2F11sby5gtxn!19sChIJA05JU95jmzkRsq4iLeBkbyA?authuser=0&hl=en&rclk=1,"25.933272499999998,80.8176539"
Fatehpuri Masjid,Bakery and Cake Shop,"WQCX+9VF Fatehpuri Masjid, Gautam Nagar, Fatehpur, Uttar Pradesh 212601",Gautam Nagar,WQCX+9VF,Fatehpur,,Uttar Pradesh,IN,https://www.google.com/maps/place/Fatehpuri+Masjid/data=!4m7!3m6!1s0x399c9df070881465:0x2ed4293555e63f83!8m2!3d25.9209379!4d80.799685!16s%2Fg%2F11s88_7w7g!19sChIJZRSIcPCdnDkRgz_mVTUp1C4?authuser=0&hl=en&rclk=1,"25.9209379,80.799685"
Purani masjid,Villa,"WQCX+223 Purani masjid, Shadipur Railway Crossing Rd, Shadipur, Gautam Nagar, Fatehpur, Uttar Pradesh 212601","Shadipur, Gautam Nagar","WQCX+223, Shadipur Railway Crossing Rd",Fatehpur,212601,Uttar Pradesh,IN,https://www.google.com/maps/place/Purani+masjid/data=!4m7!3m6!1s0x399c9d39e6c64ed1:0x5ad5cd5ce908983f!8m2!3d25.9200091!4d80.7975455!16s%2Fg%2F11s7vt4bh1!19sChIJ0U7G5jmdnDkRP5gI6VzN1Vo?authuser=0&hl=en&rclk=1,"25.920009099999998,80.7975455"
