name,main_category,address,address_ward,address_street,address_city,address_postal_code,address_state,address_country_code,link,coordinates
MASJID AI'SHAH R.A,Mosque,"MASJID AI'SHAH R.A, 1-3-186, Indira Market, Sriram Nagar, Kagaznagar, Telangana 504296","Indira Market, Sriram Nagar",1-3-186,Kagaznagar,504296,Telangana,IN,https://www.google.com/maps/place/MASJID+AI%27SHAH+R.A/data=!4m7!3m6!1s0x3a2d56bb01368ee3:0x21da7f9b2095a48e!8m2!3d19.3432186!4d79.4839366!16s%2Fg%2F11b6v0c92z!19sChIJ4442AbtWLToRjqSVIJt_2iE?authuser=0&hl=en&rclk=1,"19.3432186,79.48393659999999"
Al-Masjid Al-Salafiyya Umm Ul Momineen Aisha Siddiqa Raadhiallahu Anha,Mosque,"Al-Masjid Al-Salafiyya Umm Ul Momineen Aisha Siddiqa Raadhiallahu Anha, 1-3-186, Indira Market, Kagaznagar, Telangana 504296",Ward Number 3,"1-3-186, Indira Market",Kagaznagar,504296,Telangana,IN,https://www.google.com/maps/place/Al-Masjid+Al-Salafiyya+Umm+Ul+Momineen+Aisha+Siddiqa+Raadhiallahu+Anha/data=!4m7!3m6!1s0x3a2d57122ab10c9b:0x2366cf8f27649544!8m2!3d19.343273!4d79.483942!16s%2Fg%2F11px9yb4sd!19sChIJmwyxKhJXLToRRJVkJ4_PZiM?authuser=0&hl=en&rclk=1,"19.343273,79.483942"
Jama Masjid,Mosque,"MGGQ+F5Q Jama Masjid, Jama Masjid Rd, Mahalaxmiwada, Adilabad, Telangana 504001",Mahalaxmiwada,"MGGQ+F5Q, Jama Masjid Rd",Adilabad,504001,Telangana,IN,https://www.google.com/maps/place/Jama+Masjid/data=!4m7!3m6!1s0x3bd25c75f87e8a01:0x25a95ee1fbab37d0!8m2!3d19.6762137!4d78.5379985!16s%2Fg%2F1tlqnfwv!19sChIJAYp--HVc0jsR0Der--FeqSU?authuser=0&hl=en&rclk=1,"19.676213699999998,78.5379985"
Gulzaar Masjid,Mosque,"MGCR+66Q Gulzaar Masjid, Bokkalguda St, Brahmanwadi, Adilabad, Telangana 504001",Brahmanwadi,"MGCR+66Q, Bokkalguda St",Adilabad,504001,Telangana,IN,https://www.google.com/maps/place/Gulzaar+Masjid/data=!4m7!3m6!1s0x3bd25c7477d00337:0x3dc61fe7489f62b1!8m2!3d19.6704596!4d78.5395986!16s%2Fg%2F1tcz6sjz!19sChIJNwPQd3Rc0jsRsWKfSOcfxj0?authuser=0&hl=en&rclk=1,"19.670459599999997,78.53959859999999"
Masjid-e-Nafees,Mosque,"2V5Q+X9P Masjid-e-Nafees, 93, Karimnagar - Hyderabad Hwy, near Andhra Bank ATM, Rani Gunj, Duddeda, Telangana 502277",Rani Gunj,"2V5Q+X9P, 93, Karimnagar - Hyderabad Hwy, near Andhra Bank ATM",Duddeda,502277,Telangana,IN,https://www.google.com/maps/place/Masjid-e-Nafees/data=!4m7!3m6!1s0x3bcc917e0eaec28b:0xdb3805e167ddc7b4!8m2!3d18.0103401!4d78.8888311!16s%2Fg%2F1tfjp4qp!19sChIJi8KuDn6RzDsRtMfdZ-EFONs?authuser=0&hl=en&rclk=1,"18.0103401,78.88883109999999"
Masjid al-Kausar,Mosque,"8FQH+H37 Masjid al-Kausar, 1-14-71/1, Kausar Nagar, Sriram Nagar, Kagaznagar, Telangana 504296","Kausar Nagar, Sriram Nagar","8FQH+H37, 1-14-71/1",Kagaznagar,504296,Telangana,IN,https://www.google.com/maps/place/Masjid+al-Kausar/data=!4m7!3m6!1s0x3a2d56a47baa058d:0x1c8a9f1315d0247!8m2!3d19.3410318!4d79.4783643!16s%2Fg%2F1tj7cgkk!19sChIJjQWqe6RWLToRRwJdMfGpyAE?authuser=0&hl=en&rclk=1,"19.3410318,79.4783643"
Masjid Panjesha,Mosque,"Masjid Panjesha, masjid, panjesha marg, Bhainsa, Telangana 504103",,"masjid, panjesha marg",Bhainsa,,Telangana,IN,https://www.google.com/maps/place/Masjid+Panjesha/data=!4m7!3m6!1s0x3bcdfe45594b318b:0xa9a4527a0d3bdd4e!8m2!3d19.1114013!4d77.9614446!16s%2Fg%2F11xfvxc4m!19sChIJizFLWUX-zTsRTt07DXpSpKk?authuser=0&hl=en&rclk=1,"19.1114013,77.9614446"
Masjid e Noor Khursheed Nagar,Mosque,"Masjid e Noor Khursheed Nagar, khursheed Nagar, Adilabad, Telangana 504001",khursheed Nagar,,Adilabad,,Telangana,IN,https://www.google.com/maps/place/Masjid+e+Noor+Khursheed+Nagar/data=!4m7!3m6!1s0x3bd25b7f77891187:0xd64d9d2522c68201!8m2!3d19.6780656!4d78.5199255!16s%2Fg%2F1pp2x6dd1!19sChIJhxGJd39b0jsRAYLGIiWdTdY?authuser=0&hl=en&rclk=1,"19.6780656,78.5199255"
Masjid e raza,Mosque,"4R5V+HQG Masjid e raza, Nasarpura, Siddipet, Telangana 502103",Nasarpura,4R5V+HQG,Siddipet,502103,Telangana,IN,https://www.google.com/maps/place/Masjid+e+raza/data=!4m7!3m6!1s0x3bcced515497985f:0x8bc5690f29494e2c!8m2!3d18.1089309!4d78.8444577!16s%2Fg%2F11c6cg8k72!19sChIJX5iXVFHtzDsRLE5JKQ9pxYs?authuser=0&hl=en&rclk=1,"18.1089309,78.84445769999999"
Masjid E Arafath,Mosque,"MG9W+PJJ Masjid E Arafath, arfath nagar, Adilabad, Telangana 504001",arfath nagar,MG9W+PJJ,Adilabad,504001,Telangana,IN,https://www.google.com/maps/place/Masjid+E+Arafath/data=!4m7!3m6!1s0x3bd25c0c5e111929:0x778ec5e1e693b913!8m2!3d19.6693375!4d78.5465156!16s%2Fg%2F11dxl2lpw0!19sChIJKRkRXgxc0jsRE7mT5uHFjnc?authuser=0&hl=en&rclk=1,"19.669337499999997,78.54651559999999"
Masjid E Abubaker,Mosque,"MG8V+54F Masjid E Abubaker, Shanti Nagar, Adilabad, Telangana 504001",Shanti Nagar,MG8V+54F,Adilabad,504001,Telangana,IN,https://www.google.com/maps/place/Masjid+E+Abubaker/data=!4m7!3m6!1s0x3bd25c72afd994d1:0x55e84f035f33b282!8m2!3d19.6654385!4d78.542794!16s%2Fg%2F11c1wsmygw!19sChIJ0ZTZr3Jc0jsRgrIzXwNP6FU?authuser=0&hl=en&rclk=1,"19.6654385,78.542794"
Masjid-e-Namrah (Jamat-e-islami hind),Mosque,"Masjid-e-Namrah (Jamat-e-islami hind), Caltex Fly Over, Radagambhala Bhasti, Station Road Colony, Bellampalle, Telangana 504251","Radagambhala Bhasti, Station Road Colony",Caltex Fly Over,Bellampalle,504251,Telangana,IN,https://www.google.com/maps/place/Masjid-e-Namrah+%28Jamat-e-islami+hind%29/data=!4m7!3m6!1s0x3a32b1e88e7040b5:0xe7ba857867af821d!8m2!3d19.064002!4d79.4894995!16s%2Fg%2F11b6dd8kzr!19sChIJtUBwjuixMjoRHYKvZ3iFuuc?authuser=0&hl=en&rclk=1,"19.064002,79.4894995"
Muhammadiya Masjid,Mosque,"MG29+X76 Muhammadiya Masjid, Ramnagar Colony, Adilabad, Telangana 504001",Ramnagar Colony,MG29+X76,Adilabad,504001,Telangana,IN,https://www.google.com/maps/place/Muhammadiya+Masjid/data=!4m7!3m6!1s0x3bd25c8ad95e1f51:0xc9001b8ca6d7fd64!8m2!3d19.6524043!4d78.5181462!16s%2Fg%2F11cn7qqr7d!19sChIJUR9e2Ypc0jsRZP3XpowbAMk?authuser=0&hl=en&rclk=1,"19.6524043,78.51814619999999"
Abubakr masjid,Mosque,"MG8R+J7F Abubakr masjid, Shanti Nagar, Adilabad, Telangana 504001",Shanti Nagar,MG8R+J7F,Adilabad,504001,Telangana,IN,https://www.google.com/maps/place/Abubakr+masjid/data=!4m7!3m6!1s0x3bd25c72f6f46bc9:0xcd16458f413f5d2e!8m2!3d19.6665675!4d78.5406681!16s%2Fg%2F11c607nzf4!19sChIJyWv09nJc0jsRLl0_QY9FFs0?authuser=0&hl=en&rclk=1,"19.6665675,78.54066809999999"
Eidghah Congregation Prayer Palace,Mosque,"9F5G+9PP Eidghah Congregation Prayer Palace, Edgha colony, Kagaznagar, Telangana 504296",Edgha colony,9F5G+9PP,Kagaznagar,504296,Telangana,IN,https://www.google.com/maps/place/Eidghah+Congregation+Prayer+Palace/data=!4m7!3m6!1s0x3a2d51534e416e1d:0xb3e32641ae9869d0!8m2!3d19.3584639!4d79.4768223!16s%2Fg%2F11ckrc4_vw!19sChIJHW5BTlNRLToR0GmYrkEm47M?authuser=0&hl=en&rclk=1,"19.3584639,79.4768223"
Masjid,Mosque,"Masjid, Husnabad, Telangana 505467",,,Husnabad,,Telangana,IN,https://www.google.com/maps/place/Masjid/data=!4m7!3m6!1s0x3bccc803929f6595:0xe69d5ee98b6a379!8m2!3d18.1282182!4d79.2071369!16s%2Fg%2F1ptyb9k72!19sChIJlWWfkgPIzDsReaO2mO7VaQ4?authuser=0&hl=en&rclk=1,"18.1282182,79.2071369"
Masjid-e-Amera | msjd `myrh,Mosque,"8FVM+P2F Masjid-e-Amera | msjd `myrh, New Indira Market, Kagaznagar, Telangana",Ward Number 3,"8FVM+P2F, New Indira Market",Kagaznagar,,Telangana,IN,https://www.google.com/maps/place/Masjid-e-Amera+%7C+%D9%85%D8%B3%D8%AC%D8%AF+%D8%B9%D8%A7%D9%85%DB%8C%D8%B1%D8%A7%DB%81%E2%80%AD/data=!4m7!3m6!1s0x3a2d56badb25cd45:0x64c23d8b7bb9f786!8m2!3d19.3443152!4d79.4825415!16s%2Fg%2F11b6w96mkl!19sChIJRc0l27pWLToRhve5e4s9wmQ?authuser=0&hl=en&rclk=1,"19.3443152,79.4825415"
"Jama Masjid, Kagaznagar",Mosque,"8FXP+GH7 Jama Masjid, Kagaznagar, near Spm Gate, Kagaznagar, Telangana 504296",,"8FXP+GH7, near Spm Gate",Kagaznagar,504296,Telangana,IN,"https://www.google.com/maps/place/Jama+Masjid,+Kagaznagar/data=!4m7!3m6!1s0x3a2d56b0c5a924a5:0x1616f5cf3e128492!8m2!3d19.3488!4d79.4864136!16s%2Fg%2F11bw7_2vw3!19sChIJpSSpxbBWLToRkoQSPs_1FhY?authuser=0&hl=en&rclk=1","19.3488,79.48641359999999"
Masjid e Nasar,Mosque,"8FXH+2V4 Masjid e Nasar, Kagaznagar, Telangana 504296",,8FXH+2V4,Kagaznagar,504296,Telangana,IN,https://www.google.com/maps/place/Masjid+e+Nasar/data=!4m7!3m6!1s0x3a2d56af8e04a971:0x8eefd28da8ea9968!8m2!3d19.3475054!4d79.4797024!16s%2Fg%2F11bxf9z03y!19sChIJcakEjq9WLToRaJnqqI3S744?authuser=0&hl=en&rclk=1,"19.3475054,79.4797024"
Masjid-e-Qadeem,Mosque,"8FXM+3MX Masjid-e-Qadeem, Nizamuddin Colony, Kagaznagar, Telangana 504296",Nizamuddin Colony,8FXM+3MX,Kagaznagar,504296,Telangana,IN,https://www.google.com/maps/place/Masjid-e-Qadeem/data=!4m7!3m6!1s0x3a2d56b063da2fbd:0xe321e240d18cecbb!8m2!3d19.3477485!4d79.4842215!16s%2Fg%2F11bw65hd1l!19sChIJvS_aY7BWLToRu-yM0UDiIeM?authuser=0&hl=en&rclk=1,"19.347748499999998,79.48422149999999"
Masjid E Hassan,Mosque,"MG8V+QPM Masjid E Hassan, Unnamed Road, Shanti Nagar, Adilabad, Telangana 504001",Shanti Nagar,"MG8V+QPM, Unnamed Road",Adilabad,504001,Telangana,IN,https://www.google.com/maps/place/Masjid+E+Hassan/data=!4m7!3m6!1s0x3bd25c0d29000079:0xa0cc092090b96993!8m2!3d19.6669651!4d78.5443022!16s%2Fg%2F11dfk_8lt4!19sChIJeQAAKQ1c0jsRk2m5kCAJzKA?authuser=0&hl=en&rclk=1,"19.6669651,78.54430219999999"
Masjid-e-gouse-ul-wara,Mosque,"3FGP+WXC Masjid-e-gouse-ul-wara, Bellampalle, Kannal Rural, Telangana 504251",,3FGP+WXC,"Bellampalle, Kannal Rural",504251,Telangana,IN,https://www.google.com/maps/place/Masjid-e-gouse-ul-wara/data=!4m7!3m6!1s0x3a32ae1e07a8f3a1:0x30d5ea744ddf5099!8m2!3d19.0773045!4d79.4873999!16s%2Fg%2F11dfmg17l2!19sChIJofOoBx6uMjoRmVDfTXTq1TA?authuser=0&hl=en&rclk=1,"19.0773045,79.4873999"
Jaame Masjid,Mosque,"22MM+M88 Jaame Masjid, Donthapur, Telangana 505425",,22MM+M88,Donthapur,505425,Telangana,IN,https://www.google.com/maps/place/Jaame+Masjid/data=!4m7!3m6!1s0x3bcd42bb0af194e7:0x637d967f2a20d1f7!8m2!3d19.0341733!4d79.0333137!16s%2Fg%2F11bx1hgl96!19sChIJ55TxCrtCzTsR99EgKn-WfWM?authuser=0&hl=en&rclk=1,"19.0341733,79.0333137"
Masjid e Ansar,Mosque,"Masjid e Ansar, Colony, Sirsilk Rd, Kagaznagar, Telangana 504296",,"Colony, Sirsilk Rd",Kagaznagar,504296,Telangana,IN,https://www.google.com/maps/place/Masjid+e+Ansar/data=!4m7!3m6!1s0x3a2d56b520c4819d:0x41e365a54af75873!8m2!3d19.3575975!4d79.4901958!16s%2Fg%2F11bw83jqr_!19sChIJnYHEILVWLToRc1j3SqVl40E?authuser=0&hl=en&rclk=1,"19.3575975,79.4901958"
Masjid-e-Mohammadia,Mosque,"3V66+WV3 Masjid-e-Mohammadia, Ponnal, Telangana 502277",,3V66+WV3,Ponnal,502277,Telangana,IN,https://www.google.com/maps/place/Masjid-e-Mohammadia/data=!4m7!3m6!1s0x3bcc92f4a1acebc3:0xe8ab0a3c98ad5a6c!8m2!3d18.0622664!4d78.8621794!16s%2Fg%2F11c52ls6lx!19sChIJw-usofSSzDsRbFqtmDwKq-g?authuser=0&hl=en&rclk=1,"18.0622664,78.8621794"
MASJID E MAHEBOOB E SUBHANI ( Markaz e Ahle Sunnat ),Mosque,"MASJID E MAHEBOOB E SUBHANI ( Markaz e Ahle Sunnat ), Sanjay Nagar, Adilabad, Telangana 504001",Sanjay Nagar,,Adilabad,504001,Telangana,IN,https://www.google.com/maps/place/MASJID+E+MAHEBOOB+E+SUBHANI+%28+Markaz+e+Ahle+Sunnat+%29/data=!4m7!3m6!1s0x3bd25c7cd0000001:0xe56e990e56fe962c!8m2!3d19.6669356!4d78.5213162!16s%2Fg%2F11c2kk77hk!19sChIJAQAA0Hxc0jsRLJb-Vg6ZbuU?authuser=0&hl=en&rclk=1,"19.6669356,78.5213162"
Masjid e RASHEED,Mosque,"3VV6+96G Masjid e RASHEED, Kushal Nagar, Siddipet, Telangana 502103",Kushal Nagar,3VV6+96G,Siddipet,502103,Telangana,IN,https://www.google.com/maps/place/Masjid+e+RASHEED/data=!4m7!3m6!1s0x3bcc930778163877:0x75e64e0f019d19fd!8m2!3d18.0934267!4d78.860578!16s%2Fg%2F11h0zgf_nm!19sChIJdzgWeAeTzDsR_RmdAQ9O5nU?authuser=0&hl=en&rclk=1,"18.0934267,78.86057799999999"
Masjid-E-Zohra,Mosque,"4R6H+2J4 Masjid-E-Zohra, Prashanth Nagar, Siddipet, Telangana 502103",Prashanth Nagar,4R6H+2J4,Siddipet,502103,Telangana,IN,https://www.google.com/maps/place/Masjid-E-Zohra/data=!4m7!3m6!1s0x3bccf2ae4d782e19:0xe4f347bef8e1b70e!8m2!3d18.1100248!4d78.8290926!16s%2Fg%2F11c283vvyd!19sChIJGS54Ta7yzDsRDrfh-L5H8-Q?authuser=0&hl=en&rclk=1,"18.110024799999998,78.8290926"
Masjid e Bilala,Mosque,"Masjid e Bilala, Adilabad-Asifabad Rd, Jainoor, Telangana 504313",,Adilabad-Asifabad Rd,Jainoor,504313,Telangana,IN,https://www.google.com/maps/place/Masjid+e+Bilala/data=!4m7!3m6!1s0x3bd29bb7204a9e0f:0x706dab2553f72b79!8m2!3d19.3750134!4d78.9120455!16s%2Fg%2F11f6qq3rwz!19sChIJD55KILeb0jsReSv3UyWrbXA?authuser=0&hl=en&rclk=1,"19.3750134,78.91204549999999"
Masjid E Ilahi,Mosque,"4R3Q+M8F Masjid E Ilahi, Murshid gadda, Kadharpura, Mohinpura, Siddipet, Telangana 502103","Kadharpura, Mohinpura",4R3Q+M8F Murshid gadda,Siddipet,502103,Telangana,IN,https://www.google.com/maps/place/Masjid+E+Ilahi/data=!4m7!3m6!1s0x3bcced556290abc9:0x209b3993cab0c0d2!8m2!3d18.1039889!4d78.8383858!16s%2Fg%2F11c5zykgrs!19sChIJyauQYlXtzDsR0sCwypM5myA?authuser=0&hl=en&rclk=1,"18.1039889,78.8383858"
Jama Masjid,Mosque,"Jama Masjid, Bus Station, Old, Utnur, Telangana 504311",Sevadas Nagar,"Bus Station, Old",Utnur,504311,Telangana,IN,https://www.google.com/maps/place/Jama+Masjid/data=!4m7!3m6!1s0x3bd285b42543f7db:0xfbc9083caa3eda41!8m2!3d19.3679744!4d78.7738921!16s%2Fg%2F11c2p12cr7!19sChIJ2_dDJbSF0jsRQdo-qjwIyfs?authuser=0&hl=en&rclk=1,"19.367974399999998,78.7738921"
Masjid E Mujtab Sunnatul Jamat,Mosque,"9F5V+PFV Masjid E Mujtab Sunnatul Jamat, Kagaznagar, Telangana 504296",,9F5V+PFV,Kagaznagar,504296,Telangana,IN,https://www.google.com/maps/place/Masjid+E+Mujtab+Sunnatul+Jamat/data=!4m7!3m6!1s0x3a2d51354e04ccd1:0xc6571f4357c154c3!8m2!3d19.3593655!4d79.4936785!16s%2Fg%2F11f00j6kvz!19sChIJ0cwETjVRLToRw1TBV0MfV8Y?authuser=0&hl=en&rclk=1,"19.3593655,79.4936785"
Masjid-E-Mohammadiya,Mosque,"Masjid-E-Mohammadiya, 1, Nirmal - Mancherial Rd, Jannaram, Telangana 504205",,"1, Nirmal - Mancherial Rd",Jannaram,504205,Telangana,IN,https://www.google.com/maps/place/Masjid-E-Mohammadiya/data=!4m7!3m6!1s0x3bcd673fccaa4f81:0xf85ddfa7fa77cdbb!8m2!3d19.1192404!4d78.9938765!16s%2Fg%2F11byvwzk4r!19sChIJgU-qzD9nzTsRu813-qffXfg?authuser=0&hl=en&rclk=1,"19.1192404,78.9938765"
jama masjid,Mosque,"3P2J+4RC jama masjid, Yelagadapa, Telangana 504202",,3P2J+4RC,Yelagadapa,504202,Telangana,IN,https://www.google.com/maps/place/jama+masjid/data=!4m7!3m6!1s0x3bcd79ec3d5fa82f:0x5849790fa812b908!8m2!3d19.0503033!4d78.7320086!16s%2Fg%2F11g6_c9vpr!19sChIJL6hfPex5zTsRCLkSqA95SVg?authuser=0&hl=en&rclk=1,"19.0503033,78.7320086"
Masjid e Jamia Kausar Baswapur,Mosque,"4323+VRP Masjid e Jamia Kausar Baswapur, Baswapur, Basawapuram, Telangana 505473",,4323+VRP,"Baswapur, Basawapuram",,Telangana,IN,https://www.google.com/maps/place/Masjid+e+Jamia+Kausar+Baswapur/data=!4m7!3m6!1s0x3bccbf807622a879:0x308e2f77090849f4!8m2!3d18.1022108!4d79.0545677!16s%2Fg%2F11q8w2xcr2!19sChIJeagidoC_zDsR9EkICXcvjjA?authuser=0&hl=en&rclk=1,"18.102210799999998,79.05456769999999"
Masjid-E-Noor,Mosque,"9Q8G+JJX Masjid-E-Noor, Mominpura, Sevadas Nagar, Utnur, Telangana 504311","Mominpura, Sevadas Nagar",9Q8G+JJX,Utnur,,Telangana,IN,https://www.google.com/maps/place/Masjid-E-Noor/data=!4m7!3m6!1s0x3bd285b3f2afb185:0x2ec78038b9f918ae!8m2!3d19.3675545!4d78.7769558!16s%2Fg%2F1pp2tk8bd!19sChIJhbGv8rOF0jsRrhj5uTiAxy4?authuser=0&hl=en&rclk=1,"19.3675545,78.7769558"
jm` msjd ndr wyly. (Jama Masjid indervelly ),Mosque,"FMVF+HC2 jm` msjd ndr wyly. (Jama Masjid indervelly ), Indervelly, Telangana 504346",,FMVF+HC2,Indervelly,504346,Telangana,IN,https://www.google.com/maps/place/%D8%AC%D8%A7%D9%85%D8%B9+%D9%85%D8%B3%D8%AC%D8%AF+%D8%A7%D9%86%D8%AF%D8%B1+%D9%88%DB%8C%D9%84%DB%8C%DB%94+%28Jama+Masjid+indervelly+%29%E2%80%AD/data=!4m7!3m6!1s0x3bd289e8469486f1:0xf56a332b39f02da9!8m2!3d19.4938815!4d78.6735064!16s%2Fg%2F11h21prn9w!19sChIJ8YaURuiJ0jsRqS3wOSszavU?authuser=0&hl=en&rclk=1,"19.4938815,78.6735064"
Masjid-e-Aamina,Mosque,"8FRV+PV6 Masjid-e-Aamina, Bhatpalli Rd, Kagaznagar, Telangana 504296",,"8FRV+PV6, Bhatpalli Rd",Kagaznagar,504296,Telangana,IN,https://www.google.com/maps/place/Masjid-e-Aamina/data=!4m7!3m6!1s0x3a2d56c7315505f3:0x478330fdb4e0ec72!8m2!3d19.3417809!4d79.494654!16s%2Fg%2F11f51zzsj0!19sChIJ8wVVMcdWLToRcuzgtP0wg0c?authuser=0&hl=en&rclk=1,"19.3417809,79.494654"
Jama Masjid,Mosque,"FHJH+JC7 Jama Masjid, Unnamed Rd, Sirpur, Telangana 504299",,"FHJH+JC7, Unnamed Rd",Sirpur,504299,Telangana,IN,https://www.google.com/maps/place/Jama+Masjid/data=!4m7!3m6!1s0x3a2d456a0ada463b:0x65371e8e7dc896d7!8m2!3d19.4815483!4d79.5785535!16s%2Fg%2F11ckfssgxv!19sChIJO0baCmpFLToR15bIfY4eN2U?authuser=0&hl=en&rclk=1,"19.4815483,79.5785535"
Masjid E Ibrahim,Mosque,"4VC4+GWH Masjid E Ibrahim, Indiramma Colony, Siddipet, Narsapur, Telangana 502276",Indiramma Colony,4VC4+GWH,"Siddipet, Narsapur",502276,Telangana,IN,https://www.google.com/maps/place/Masjid+E+Ibrahim/data=!4m7!3m6!1s0x3bcced413aaaaaab:0xcbf9fb3155e94a80!8m2!3d18.1213232!4d78.8573722!16s%2Fg%2F11g8w900fd!19sChIJq6qqOkHtzDsRgErpVTH7-cs?authuser=0&hl=en&rclk=1,"18.1213232,78.8573722"
Jama Masjid,Mosque,"5F32+484 Jama Masjid, Tandur, Telangana 501141",,5F32+484,Tandur,501141,Telangana,IN,https://www.google.com/maps/place/Jama+Masjid/data=!4m7!3m6!1s0x3a32ac13a0cebcd7:0x2d0109d02673adad!8m2!3d19.1527617!4d79.4508136!16s%2Fg%2F11c4b2z2dm!19sChIJ17zOoBOsMjoRra1zJtAJAS0?authuser=0&hl=en&rclk=1,"19.1527617,79.45081359999999"
Masjid,Mosque,"3F8M+FFQ Masjid, Bellampalle, Kannal Rural, Telangana 504251",,3F8M+FFQ,"Bellampalle, Kannal Rural",504251,Telangana,IN,https://www.google.com/maps/place/Masjid/data=!4m7!3m6!1s0x3a32b1b5f0822333:0xf2f1d40734fe9993!8m2!3d19.0662171!4d79.48373!16s%2Fg%2F11gl2hm2p0!19sChIJMyOC8LWxMjoRk5n-NAfU8fI?authuser=0&hl=en&rclk=1,"19.0662171,79.48373"
Masjid,Mosque,"8X62+9RM Masjid, Ellantakunta, Telangana 505402",,8X62+9RM,Ellantakunta,505402,Telangana,IN,https://www.google.com/maps/place/Masjid/data=!4m7!3m6!1s0x3bcce63d8f9ebf1f:0xf54773ab00aa389d!8m2!3d18.3109525!4d78.9520356!16s%2Fg%2F11g005hy0x!19sChIJH7-ejz3mzDsRnTiqAKtzR_U?authuser=0&hl=en&rclk=1,"18.3109525,78.9520356"
MASJID - E - WASIL,Mosque,"9Q7C+W9C MASJID - E - WASIL, Utnur, Telangana 504311",,9Q7C+W9C,Utnur,504311,Telangana,IN,https://www.google.com/maps/place/MASJID+-+E+-+WASIL/data=!4m7!3m6!1s0x3bd285b568212b3b:0xd48a9da29da1160e!8m2!3d19.3648093!4d78.7708923!16s%2Fg%2F11g6q_z_ty!19sChIJOyshaLWF0jsRDhahnaKditQ?authuser=0&hl=en&rclk=1,"19.364809299999997,78.7708923"
Katkapur Mosque (kttkaapuur msiidu),Mosque,"XVVG+5RF Katkapur Mosque (kttkaapuur msiidu), near pond ( ceruvu dggr, Katkapur, Telangana 505460",,"XVVG+5RF, near pond ( ceruvu dggr",Katkapur,505460,Telangana,IN,https://www.google.com/maps/place/Katkapur+Mosque+%28%E0%B0%95%E0%B0%9F%E0%B1%8D%E0%B0%95%E0%B0%BE%E0%B0%AA%E0%B1%82%E0%B0%B0%E0%B1%8D+%E0%B0%AE%E0%B0%B8%E0%B1%80%E0%B0%A6%E0%B1%81%29/data=!4m7!3m6!1s0x3bcd6fb4c94e53ab:0xa93ccc3c7b6ec293!8m2!3d18.9894705!4d78.8750372!16s%2Fg%2F11fhr7tfd0!19sChIJq1NOybRvzTsRk8JuezzMPKk?authuser=0&hl=en&rclk=1,"18.9894705,78.8750372"
Masjid-E-Jama,Mosque,"3WVV+JW9 Masjid-E-Jama, Rajagopalpet, Telangana 502375",,3WVV+JW9,Rajagopalpet,502375,Telangana,IN,https://www.google.com/maps/place/Masjid-E-Jama/data=!4m7!3m6!1s0x3bcc94ba312e464b:0xebdd01a5bc6c371d!8m2!3d18.0940379!4d78.9448474!16s%2Fg%2F11dfw8680k!19sChIJS0YuMbqUzDsRHTdsvKUB3es?authuser=0&hl=en&rclk=1,"18.0940379,78.9448474"
piirilaa guNddN,Mosque,"6QFJ+Q6W piirilaa guNddN, Vodduguda, Telangana 504273",,6QFJ+Q6W,Vodduguda,,Telangana,IN,https://www.google.com/maps/place/%E0%B0%AA%E0%B1%80%E0%B0%B0%E0%B0%BF%E0%B0%B2%E0%B0%BE+%E0%B0%97%E0%B1%81%E0%B0%82%E0%B0%A1%E0%B0%82/data=!4m7!3m6!1s0x3a329f674ecce0d1:0xc1df29063f6e4ba7!8m2!3d19.2244872!4d79.7805906!16s%2Fg%2F11lh55bbmc!19sChIJ0eDMTmefMjoRp0tuPwYp38E?authuser=0&hl=en&rclk=1,"19.2244872,79.7805906"
Masjid-E-Zohra,Mosque,"Masjid-E-Zohra, Masjid-E- Zohra, Ambedkar Nagar, Khanapur, Telangana 504001",Ambedkar Nagar,Masjid-E- Zohra,Khanapur,504001,Telangana,IN,https://www.google.com/maps/place/Masjid-E-Zohra/data=!4m7!3m6!1s0x3bd25dbaced23b33:0xe16af2c30b24656!8m2!3d19.6729258!4d78.5447961!16s%2Fg%2F11j000cqb1!19sChIJMzvSzrpd0jsRVkayMCyvFg4?authuser=0&hl=en&rclk=1,"19.672925799999998,78.5447961"
Eidgah Ground,Mosque,"3F8M+MGM Eidgah Ground, Bellampalle, Kannal Rural, Telangana 504251",,3F8M+MGM,"Bellampalle, Kannal Rural",504251,Telangana,IN,https://www.google.com/maps/place/Eidgah+Ground/data=!4m7!3m6!1s0x3a32b1e50e17c94d:0xa00380d0516ca7f3!8m2!3d19.0667161!4d79.4838002!16s%2Fg%2F11d_87j8tv!19sChIJTckXDuWxMjoR86dsUdCAA6A?authuser=0&hl=en&rclk=1,"19.0667161,79.48380019999999"
Masjid-e-Nabawi,Mosque,"3M39+9HV Masjid-e-Nabawi, Dilawarpur Rd, Dilawarpur, Dilwarpur, Telangana 504203",,"3M39+9HV, Dilawarpur Rd","Dilawarpur, Dilwarpur",504203,Telangana,IN,https://www.google.com/maps/place/Masjid-e-Nabawi/data=!4m7!3m6!1s0x3bcd79c0659a9051:0xf6f7fe363db8997d!8m2!3d19.0534835!4d78.6689104!16s%2Fg%2F11jhygrlt6!19sChIJUZCaZcB5zTsRfZm4PTb-9_Y?authuser=0&hl=en&rclk=1,"19.0534835,78.6689104"
MASJID E IBRAHIMIA,Mosque,"MASJID E IBRAHIMIA, 2-5-275/1, tirpally, Adilabad, Telangana 504001",tirpally,2-5-275/1,Adilabad,504001,Telangana,IN,https://www.google.com/maps/place/MASJID+E+IBRAHIMIA/data=!4m7!3m6!1s0x3bd25b8b6628a527:0x550e60c0cd80575a!8m2!3d19.6814941!4d78.5416637!16s%2Fg%2F11f15jwjc0!19sChIJJ6UoZotb0jsRWleAzcBgDlU?authuser=0&hl=en&rclk=1,"19.6814941,78.5416637"
MASJID-E-AQSA,Mosque,"9QCM+6FG MASJID-E-AQSA, Utnur, Telangana 504311",,9QCM+6FG,Utnur,504311,Telangana,IN,https://www.google.com/maps/place/MASJID-E-AQSA/data=!4m7!3m6!1s0x3bd285ae68120e2d:0x511a2112271c67ab!8m2!3d19.3705709!4d78.7836997!16s%2Fg%2F11d_8_t86t!19sChIJLQ4SaK6F0jsRq2ccJxIhGlE?authuser=0&hl=en&rclk=1,"19.3705709,78.7836997"
Monammadia Masjid,Mosque,"FMX7+QP5 Monammadia Masjid, HEERAPUR, Indervelly, Heerapur, Telangana 504346",HEERAPUR,FMX7+QP5,"Indervelly, Heerapur",,Telangana,IN,https://www.google.com/maps/place/Monammadia+Masjid/data=!4m7!3m6!1s0x3bd28b5088306d5f:0x145d9a5d18c98ff!8m2!3d19.4993952!4d78.6643571!16s%2Fg%2F11gr5_09c8!19sChIJX20wiFCL0jsR_5iM0aXZRQE?authuser=0&hl=en&rclk=1,"19.4993952,78.66435709999999"
mosque,Mosque,"WQP8+PM6 mosque, Regunta, Telangana 505331",,WQP8+PM6,Regunta,,Telangana,IN,https://www.google.com/maps/place/mosque/data=!4m7!3m6!1s0x3bcd73e110000001:0xd250bf53bfc9418c!8m2!3d18.9367927!4d78.7666317!16s%2Fg%2F11gfm8l9dz!19sChIJAQAAEOFzzTsRjEHJv1O_UNI?authuser=0&hl=en&rclk=1,"18.936792699999998,78.76663169999999"
Masjid-e-Abdullah,Mosque,"3XR2+J23 Masjid-e-Abdullah, Jannaram - Kalamadugu Rd, Kalmadagu, Telangana 504205",,"3XR2+J23, Jannaram - Kalamadugu Rd",Kalmadagu,504205,Telangana,IN,https://www.google.com/maps/place/Masjid-e-Abdullah/data=!4m7!3m6!1s0x3bcd6660227f8177:0xe67839b827ba0ea4!8m2!3d19.0915155!4d78.9500358!16s%2Fg%2F11hbc1vfry!19sChIJd4F_ImBmzTsRpA66J7g5eOY?authuser=0&hl=en&rclk=1,"19.0915155,78.9500358"
Masid -E- Moina,Mosque,"9F4J+H62 Masid -E- Moina, Kagaznagar, Telangana 504296",,9F4J+H62,Kagaznagar,504296,Telangana,IN,https://www.google.com/maps/place/Masid+-E-+Moina/data=!4m7!3m6!1s0x3a2d56ad6bf3ffff:0x9dfe118ee35ddb93!8m2!3d19.3563926!4d79.4805173!16s%2Fg%2F11txmz3bz7!19sChIJ___za61WLToRk9td444R_p0?authuser=0&hl=en&rclk=1,"19.3563926,79.4805173"
"Masjid, Rebarthy",Mosque,"W3PJ+XJR Masjid, Rebarthy, Rebarthi, Telangana 506367",,W3PJ+XJR,Rebarthi,506367,Telangana,IN,"https://www.google.com/maps/place/Masjid,+Rebarthy/data=!4m7!3m6!1s0x3bccbdf8c1a42cc3:0x9307a4a214416480!8m2!3d17.9374932!4d79.0815187!16s%2Fg%2F11gxjw65tt!19sChIJwyykwfi9zDsRgGRBFKKkB5M?authuser=0&hl=en&rclk=1","17.9374932,79.08151869999999"
MASJID-E-MOHAMMADIA,Mosque,"7P47+Q94 MASJID-E-MOHAMMADIA, Dahegaon, Telangana 504273",,7P47+Q94,Dahegaon,504273,Telangana,IN,https://www.google.com/maps/place/MASJID-E-MOHAMMADIA/data=!4m7!3m6!1s0x3a32a06bc9f0aad9:0xc9ef99599038dddd!8m2!3d19.2568852!4d79.7134489!16s%2Fg%2F11d_78xldz!19sChIJ2arwyWugMjoR3d04kFmZ78k?authuser=0&hl=en&rclk=1,"19.2568852,79.7134489"
Masjid E Abu Bakar,Mosque,"2JXP+GVV Masjid E Abu Bakar, Nirmal - Mancherial Rd, Khanapur, Thimmapur, Telangana 504203",,"2JXP+GVV, Nirmal - Mancherial Rd","Khanapur, Thimmapur",504203,Telangana,IN,https://www.google.com/maps/place/Masjid+E+Abu+Bakar/data=!4m7!3m6!1s0x3bcd838be7675037:0x1ecef2637bebf20c!8m2!3d19.0488678!4d78.6371746!16s%2Fg%2F11kyxhjk80!19sChIJN1Bn54uDzTsRDPLre2Pyzh4?authuser=0&hl=en&rclk=1,"19.0488678,78.6371746"
Masjid E Arfath msjdi `rft arphaat msjid,Mosque,"Masjid E Arfath msjdi `rft arphaat msjid, Arfath Masjid, Arfath Colony, Khanapur, Thimmapur, Telangana 504203",Arfath Colony,Arfath Masjid,"Khanapur, Thimmapur",504203,Telangana,IN,https://www.google.com/maps/place/Masjid+E+Arfath+%D9%85%D8%B3%D8%AC%D8%AF%D9%90+%D8%B9%D8%B1%D9%81%D8%A7%D8%AA+%E0%B0%85%E0%B0%B0%E0%B1%8D%E0%B0%AB%E0%B0%BE%E0%B0%A4%E0%B1%8D+%E0%B0%AE%E0%B0%B8%E0%B1%8D%E0%B0%9C%E0%B0%BF%E0%B0%A6%E0%B1%8D%E2%80%AD/data=!4m7!3m6!1s0x3bcd83813c269355:0xc68706597a71d136!8m2!3d19.0405285!4d78.643919!16s%2Fg%2F11kyxfdbtt!19sChIJVZMmPIGDzTsRNtFxelkGh8Y?authuser=0&hl=en&rclk=1,"19.0405285,78.643919"
Masjid E Raheem Ahle Hadees,Mosque,"2JRW+7MF Masjid E Raheem Ahle Hadees, Momin pura, Khanapur, Telangana 504203",Momin pura,2JRW+7MF,Khanapur,504203,Telangana,IN,https://www.google.com/maps/place/Masjid+E+Raheem+Ahle+Hadees/data=!4m7!3m6!1s0x3bcd8397dce1adb5:0xb843a7220d3a9073!8m2!3d19.0406788!4d78.6466701!16s%2Fg%2F11fpfz4h7s!19sChIJta3h3JeDzTsRc5A6DSKnQ7g?authuser=0&hl=en&rclk=1,"19.0406788,78.6466701"
Masjid e umar,Mosque,"9W95+WC9 Masjid e umar, Jainoor, Telangana 504313",,9W95+WC9,Jainoor,504313,Telangana,IN,https://www.google.com/maps/place/Masjid+e+umar/data=!4m7!3m6!1s0x3bd29b093593e477:0xe65cd53a2848ead0!8m2!3d19.3700184!4d78.9089038!16s%2Fg%2F11t27x9_rj!19sChIJd-STNQmb0jsR0OpIKDrVXOY?authuser=0&hl=en&rclk=1,"19.3700184,78.90890379999999"
Choti Masjid,Mosque,"Choti Masjid, 1, Nirmal - Mancherial Rd, Jannaram, Telangana 504205",,"1, Nirmal - Mancherial Rd",Jannaram,504205,Telangana,IN,https://www.google.com/maps/place/Choti+Masjid/data=!4m7!3m6!1s0x3bcd673e34ac2f77:0xc32f71faf30d7a5f!8m2!3d19.1184965!4d78.9931769!16s%2Fg%2F11bw5mbvt0!19sChIJdy-sND5nzTsRX3oN8_pxL8M?authuser=0&hl=en&rclk=1,"19.1184965,78.9931769"
Masjid e Safia,Mosque,"8G9G+69 Masjid e Safia, Jagannathpur, Telangana 504273",,8G9G+69,Jagannathpur,,Telangana,IN,https://www.google.com/maps/place/Masjid+e+Safia/data=!4m7!3m6!1s0x3a2d57bf7f58f09b:0x5949498ed379833!8m2!3d19.3180122!4d79.5259171!16s%2Fg%2F11k3xl0wp2!19sChIJm_BYf79XLToRM5g37ZiUlAU?authuser=0&hl=en&rclk=1,"19.3180122,79.5259171"
Mosque,Mosque,"Mosque, Kadam Project, Kannapur, Telangana 504202",,,"Kadam Project, Kannapur",,Telangana,IN,https://www.google.com/maps/place/Mosque/data=!4m7!3m6!1s0x3bcd7bbcda484eed:0xe286da12f76e31fe!8m2!3d19.1018044!4d78.7807716!16s%2Fg%2F1hm2txbq6!19sChIJ7U5I2rx7zTsR_jFu9xLahuI?authuser=0&hl=en&rclk=1,"19.1018044,78.7807716"
Masjid,Mosque,"5W2W+2Q9 Masjid, Utkoor - Mogdumpur Rd, Ibrahimnagar, Ibrahimpur, Telangana 502267",,"5W2W+2Q9, Utkoor - Mogdumpur Rd","Ibrahimnagar, Ibrahimpur",502267,Telangana,IN,https://www.google.com/maps/place/Masjid/data=!4m7!3m6!1s0x3bcceb586d911e3b:0xcb5874a83ec5b326!8m2!3d18.1500385!4d78.9469875!16s%2Fg%2F11pqsd3g5y!19sChIJOx6RbVjrzDsRJrPFPqh0WMs?authuser=0&hl=en&rclk=1,"18.1500385,78.94698749999999"
Noori Masjid,Mosque,"3F8M+CFJ Noori Masjid, Bellampalle, Kannal Rural, Telangana 504251",,3F8M+CFJ,"Bellampalle, Kannal Rural",504251,Telangana,IN,https://www.google.com/maps/place/Noori+Masjid/data=!4m7!3m6!1s0x3a32b184aa02b33f:0x94aeef8bbc03886b!8m2!3d19.0660901!4d79.4836267!16s%2Fg%2F11tmz9bq51!19sChIJP7MCqoSxMjoRa4gDvIvvrpQ?authuser=0&hl=en&rclk=1,"19.0660901,79.4836267"
Eidgah old,Mosque,"Eidgah old, 2, Fathima Rd, Edgha colony, Kagaznagar, Telangana 504296",Edgha colony,"2, Fathima Rd",Kagaznagar,504296,Telangana,IN,https://www.google.com/maps/place/Eidgah+old/data=!4m7!3m6!1s0x3a2d51531faaaaab:0xd09f9ed6a2cdc210!8m2!3d19.3596388!4d79.4790725!16s%2Fg%2F11d_786csg!19sChIJq6qqH1NRLToREMLNotaen9A?authuser=0&hl=en&rclk=1,"19.3596388,79.4790725"
MADINA MASJID,Mosque,"3F6J+VX8 MADINA MASJID, Bellampalle, Kannal Rural, Telangana 504251",,3F6J+VX8,"Bellampalle, Kannal Rural",504251,Telangana,IN,https://www.google.com/maps/place/MADINA+MASJID/data=!4m7!3m6!1s0x3a32b1efce7442fd:0x32591dc6205d4f85!8m2!3d19.062165!4d79.482443!16s%2Fg%2F11g6mhtm8g!19sChIJ_UJ0zu-xMjoRhU9dIMYdWTI?authuser=0&hl=en&rclk=1,"19.062165,79.482443"
Masjid E Ibrahim,Mosque,"Masjid E Ibrahim, Sri Renuka Ellamma Temple, Indiramma Colony, Narsapur, Telangana 502276",Indiramma Colony,Sri Renuka Ellamma Temple,Narsapur,502276,Telangana,IN,https://www.google.com/maps/place/Masjid+E+Ibrahim/data=!4m7!3m6!1s0x3bcced9e24765b31:0xf9ef95f347e2a92a!8m2!3d18.1241248!4d78.8589023!16s%2Fg%2F11n0j7h7r4!19sChIJMVt2JJ7tzDsRKqniR_OV7_k?authuser=0&hl=en&rclk=1,"18.1241248,78.8589023"
mohammadiya masjid,Mosque,"2PXJ+CQ7 mohammadiya masjid, Yelagadapa, Telangana 504202",,2PXJ+CQ7,Yelagadapa,504202,Telangana,IN,https://www.google.com/maps/place/mohammadiya+masjid/data=!4m7!3m6!1s0x3bcd79eebda4377b:0xada75b3c1058bd41!8m2!3d19.0485421!4d78.7319151!16s%2Fg%2F11dxrwxb2j!19sChIJezekve55zTsRQb1YEDxbp60?authuser=0&hl=en&rclk=1,"19.0485421,78.7319151"
Shadulla Dargah,Mosque,"Shadulla Dargah, Ibrahimpur, Telangana 502267",,,Ibrahimpur,502267,Telangana,IN,https://www.google.com/maps/place/Shadulla+Dargah/data=!4m7!3m6!1s0x3bccebcf7cb35b2b:0x7702842e8da2684!8m2!3d18.1462784!4d78.9544611!16s%2Fg%2F11tghpv5l7!19sChIJK1uzfM_rzDsRhCba6EIocAc?authuser=0&hl=en&rclk=1,"18.1462784,78.9544611"
Masjid-e-Aqsa,Mosque,"Masjid-e-Aqsa, C, Babu Colony, Kagaznagar, Telangana 504296",Babu Colony,C,Kagaznagar,504296,Telangana,IN,https://www.google.com/maps/place/Masjid-e-Aqsa/data=!4m7!3m6!1s0x3a2d573ca2ab7e55:0xd6c91fd9a55532d!8m2!3d19.338031!4d79.4886317!16s%2Fg%2F11kxknz7mp!19sChIJVX6rojxXLToRLVNVmv2RbA0?authuser=0&hl=en&rclk=1,"19.338031,79.4886317"
JAME-MASJID,Mosque,"5QJ9+742 JAME-MASJID, Chinthapudi, Telangana 504219",,5QJ9+742,Chinthapudi,,Telangana,IN,https://www.google.com/maps/place/JAME-MASJID/data=!4m7!3m6!1s0x3a3299920b89af97:0x22b405c28af13679!8m2!3d19.1806469!4d79.7677588!16s%2Fg%2F11kz2wckvs!19sChIJl6-JC5KZMjoReTbxisIFtCI?authuser=0&hl=en&rclk=1,"19.1806469,79.7677588"
Jama Masjid,Mosque,"5C74+CR4 Jama Masjid, Madaram, Telangana 504220",,5C74+CR4,Madaram,,Telangana,IN,https://www.google.com/maps/place/Jama+Masjid/data=!4m7!3m6!1s0x3a32ad7ae62b7df5:0xcdd8f1d2f05ef0ac!8m2!3d19.1635215!4d79.4070814!16s%2Fg%2F11g4dq6kvw!19sChIJ9X0r5nqtMjoRrPBe8NLx2M0?authuser=0&hl=en&rclk=1,"19.163521499999998,79.4070814"
"Mosque , arepalle",Mosque,"327F+R6Q Mosque , arepalle, Arepally Rd, Donthapur, Arpapalle, Telangana 505425",,"327F+R6Q, Arepally Rd","Donthapur, Arpapalle",505425,Telangana,IN,"https://www.google.com/maps/place/Mosque+,+arepalle/data=!4m7!3m6!1s0x3bcd5d8dd8a2592b:0x800db10c518ef6fa!8m2!3d19.0645903!4d79.0231206!16s%2Fg%2F11qg18z79k!19sChIJK1mi2I1dzTsR-vaOUQyxDYA?authuser=0&hl=en&rclk=1","19.0645903,79.0231206"
Mosque,Mosque,"Mosque, Samudrala, Pedda Samudrala, Telangana 505467",,,"Samudrala, Pedda Samudrala",,Telangana,IN,https://www.google.com/maps/place/Mosque/data=!4m7!3m6!1s0x3bccb8a595851c45:0x6c978fc9281ab146!8m2!3d18.1107908!4d79.1223718!16s%2Fg%2F1pp2vc0sx!19sChIJRRyFlaW4zDsRRrEaKMmPl2w?authuser=0&hl=en&rclk=1,"18.1107908,79.1223718"
MASJID E MAGHFIRATH,Mosque,"2P84+648 MASJID E MAGHFIRATH, Ramrajupalli, Telangana 505331",,2P84+648,Ramrajupalli,,Telangana,IN,https://www.google.com/maps/place/MASJID+E+MAGHFIRATH/data=!4m7!3m6!1s0x3bcd7756ae1fb565:0xb332c29d5e6576f1!8m2!3d19.0155403!4d78.7053323!16s%2Fg%2F11ht6qybct!19sChIJZbUfrlZ3zTsR8XZlXp3CMrM?authuser=0&hl=en&rclk=1,"19.015540299999998,78.7053323"
Masjid E Fatima Yousuf,Mosque,"3WG8+XMP Masjid E Fatima Yousuf, Revojipet New, Revojipet (Old), Telangana 504202",,3WG8+XMP,"Revojipet New, Revojipet (Old)",504202,Telangana,IN,https://www.google.com/maps/place/Masjid+E+Fatima+Yousuf/data=!4m7!3m6!1s0x3bcd6551fa8de007:0x1f6da9a6fdded8d8!8m2!3d19.0776595!4d78.9174451!16s%2Fg%2F11rmz_sv6c!19sChIJB-CN-lFlzTsR2Nje_aapbR8?authuser=0&hl=en&rclk=1,"19.0776595,78.9174451"
masjid,Mosque,"masjid, Maddipadaga, Telangana 504202",,,Maddipadaga,504202,Telangana,IN,https://www.google.com/maps/place/masjid/data=!4m7!3m6!1s0x3bcd7a21c7cc2cbb:0xe9e11285f8ad7748!8m2!3d19.0577667!4d78.7512222!16s%2Fg%2F11fxxk97n4!19sChIJuyzMxyF6zTsRSHet-IUS4ek?authuser=0&hl=en&rclk=1,"19.0577667,78.7512222"
Masjid,Mosque,"CQ24+936 Masjid, X-Road, Nagapur, Telangana 504311",X-Road,CQ24+936,Nagapur,504311,Telangana,IN,https://www.google.com/maps/place/Masjid/data=!4m7!3m6!1s0x3bd28542302b9163:0x87197ab60c077a2c!8m2!3d19.4009106!4d78.7551464!16s%2Fg%2F11qnl8lv7j!19sChIJY5ErMEKF0jsRLHoHDLZ6GYc?authuser=0&hl=en&rclk=1,"19.4009106,78.7551464"
Masjid-e-umarfarooq,Mosque,"9QCH+PGP Masjid-e-umarfarooq, Rahmathpura, Utnur, Telangana 504311",Rahmathpura,9QCH+PGP,Utnur,,Telangana,IN,https://www.google.com/maps/place/Masjid-e-umarfarooq/data=!4m7!3m6!1s0x3bd2857a91093a6b:0x26c68fcbfbdadda6!8m2!3d19.3718367!4d78.7788405!16s%2Fg%2F11g1bbd1gd!19sChIJazoJkXqF0jsRpt3a-8uPxiY?authuser=0&hl=en&rclk=1,"19.3718367,78.7788405"
DARGAH HAZRATH SYED SADIQ PUNJABI R.A.,Mosque,"9QFH+82V DARGAH HAZRATH SYED SADIQ PUNJABI R.A., Utnoor Rd, Utnur, Telangana 504311",,"9QFH+82V, Utnoor Rd",Utnur,,Telangana,IN,https://www.google.com/maps/place/DARGAH+HAZRATH+SYED+SADIQ+PUNJABI+R.A./data=!4m7!3m6!1s0x3bd285e8982a5b59:0xa6f27cae7e3b2eb8!8m2!3d19.37336!4d78.7775539!16s%2Fg%2F11q3lkmfrb!19sChIJWVsqmOiF0jsRuC47fq588qY?authuser=0&hl=en&rclk=1,"19.373359999999998,78.7775539"
Jama masjid,Mosque,"CQ8W+HQ Jama masjid, Hasnapur, Telangana 504311",,CQ8W+HQ,Hasnapur,504311,Telangana,IN,https://www.google.com/maps/place/Jama+masjid/data=!4m7!3m6!1s0x3bd28f3b13450bef:0x6a2f533252729bc0!8m2!3d19.4159327!4d78.7972924!16s%2Fg%2F11t2sb2b39!19sChIJ7wtFEzuP0jsRwJtyUjJTL2o?authuser=0&hl=en&rclk=1,"19.4159327,78.7972924"
Jama Masjid Kaddam,Mosque,"4Q2J+H79 Jama Masjid Kaddam, Market Road, Kadam Project, Telangana 504202",,"4Q2J+H79, Market Road",Kadam Project,504202,Telangana,IN,https://www.google.com/maps/place/Jama+Masjid+Kaddam/data=!4m7!3m6!1s0x3bcd7b8a08ff16e3:0x7cb5de71052ef6fa!8m2!3d19.1014217!4d78.7807301!16s%2Fg%2F11fb0p26qc!19sChIJ4xb_CIp7zTsR-vYuBXHetXw?authuser=0&hl=en&rclk=1,"19.1014217,78.7807301"
Masjide e Shaheda,Mosque,"9F48+6GC Masjide e Shaheda, Boregaon, Telangana 504296",,9F48+6GC,Boregaon,504296,Telangana,IN,https://www.google.com/maps/place/Masjide+e+Shaheda/data=!4m7!3m6!1s0x3a2d55e976790463:0xf4321055665e109d!8m2!3d19.3555746!4d79.4662507!16s%2Fg%2F11j8pdg92n!19sChIJYwR5dulVLToRnRBeZlUQMvQ?authuser=0&hl=en&rclk=1,"19.3555746,79.4662507"
Mosque,Mosque,"9GV2+4MF Mosque, Vempally, Sirpur, Regulguda, Telangana 504296",Vempally,9GV2+4MF,"Sirpur, Regulguda",504296,Telangana,IN,https://www.google.com/maps/place/Mosque/data=!4m7!3m6!1s0x3a2d51d8ff13e49d:0x26e2fa88db4ae3c5!8m2!3d19.3924202!4d79.5013119!16s%2Fg%2F11sbfj5vqh!19sChIJneQT_9hRLToRxeNK24j64iY?authuser=0&hl=en&rclk=1,"19.3924202,79.50131189999999"
Khanapur Masjid,Mosque,"HHX5+RFF Khanapur Masjid, Khanapur, Maharashtra 431717",,HHX5+RFF,Khanapur,,Maharashtra,IN,https://www.google.com/maps/place/Khanapur+Masjid/data=!4m7!3m6!1s0x3bce43c4ee6ecec1:0xbd00122636ad7f30!8m2!3d18.5995693!4d77.5586563!16s%2Fg%2F11q1r5x86z!19sChIJwc5u7sRDzjsRMH-tNiYSAL0?authuser=0&hl=en&rclk=1,"18.5995693,77.5586563"
BAREGUDA,Mosque,"8FC9+VJR BAREGUDA, Bareguda, Vanjiri, Telangana 504296",,8FC9+VJR,"Bareguda, Vanjiri",504296,Telangana,IN,https://www.google.com/maps/place/BAREGUDA/data=!4m7!3m6!1s0x3a2d55d3e0a779ef:0xc051412f03290ed2!8m2!3d19.3228459!4d79.4690313!16s%2Fg%2F11t7m3r5s8!19sChIJ73mn4NNVLToR0g4pAy9BUcA?authuser=0&hl=en&rclk=1,"19.3228459,79.4690313"
Bellampally Dargah,Mosque,"3F8V+MXR Bellampally Dargah, Shanthi khani, Bellampalle, Telangana 504251",Shanthi khani,3F8V+MXR,Bellampalle,,Telangana,IN,https://www.google.com/maps/place/Bellampally+Dargah/data=!4m7!3m6!1s0x3a32b1a9fdc32deb:0xde3cac4af84b6038!8m2!3d19.0667304!4d79.4948779!16s%2Fg%2F11kjgd810k!19sChIJ6y3D_amxMjoROGBL-EqsPN4?authuser=0&hl=en&rclk=1,"19.0667304,79.49487789999999"
MASJID,Mosque,"2PW9+WP9 MASJID, Lingapur, Telangana 504202",,2PW9+WP9,Lingapur,504202,Telangana,IN,https://www.google.com/maps/place/MASJID/data=!4m7!3m6!1s0x3bcd79ab085b9819:0xd6538f30239f99c!8m2!3d19.0472775!4d78.7193685!16s%2Fg%2F11rkf1p6nc!19sChIJGZhbCKt5zTsRnPk5AvM4ZQ0?authuser=0&hl=en&rclk=1,"19.0472775,78.7193685"
Masjid-e-Umar Faruq,Mosque,"Masjid-e-Umar Faruq, 5-990, near Bhim Nagar, Indervelly, Telangana 504346",,"5-990, near Bhim Nagar",Indervelly,504346,Telangana,IN,https://www.google.com/maps/place/Masjid-e-Umar+Faruq/data=!4m7!3m6!1s0x3bd28977e7eaf70d:0x8258704df043e015!8m2!3d19.4936269!4d78.6706737!16s%2Fg%2F11st_xzdb0!19sChIJDffq53eJ0jsRFeBD8E1wWII?authuser=0&hl=en&rclk=1,"19.4936269,78.6706737"
Shaik ramzan house,Mosque,"2MR3+F9H Shaik ramzan house, Bellala Rd, Khanapur, Telangana 504203",,"2MR3+F9H, Bellala Rd",Khanapur,504203,Telangana,IN,https://www.google.com/maps/place/Shaik+ramzan+house/data=!4m7!3m6!1s0x3bcd836c26cfec25:0xc7af4e766b0fc008!8m2!3d19.0419906!4d78.6533768!16s%2Fg%2F11vc5_fghn!19sChIJJezPJmyDzTsRCMAPa3ZOr8c?authuser=0&hl=en&rclk=1,"19.0419906,78.65337679999999"
Madina Masjid,Mosque,"9Q7H+P3C Madina Masjid, Mominpura, Utnur, Telangana 504311",Mominpura,9Q7H+P3C,Utnur,504311,Telangana,IN,https://www.google.com/maps/place/Madina+Masjid/data=!4m7!3m6!1s0x3bd285b33e155555:0x13e010187828103f!8m2!3d19.3643116!4d78.777638!16s%2Fg%2F11txmzdqbx!19sChIJVVUVPrOF0jsRPxAoeBgQ4BM?authuser=0&hl=en&rclk=1,"19.3643116,78.777638"
MOHAMMADIA MASJID,Mosque,"FMVC+JFR MOHAMMADIA MASJID, Heerapur, Indervelly, Telangana",,"FMVC+JFR, Heerapur",Indervelly,,Telangana,IN,https://www.google.com/maps/place/MOHAMMADIA+MASJID/data=!4m7!3m6!1s0x3bd289c55f8ff47d:0x2d649ece3f38847e!8m2!3d19.494116!4d78.6711451!16s%2Fg%2F11fcnd7c7s!19sChIJffSPX8WJ0jsRfoQ4P86eZC0?authuser=0&hl=en&rclk=1,"19.494115999999998,78.67114509999999"
Maszid,Mosque,"WRQJ+FV9 Maszid, Bhoopathipur, Telangana 505460",,WRQJ+FV9,Bhoopathipur,505460,Telangana,IN,https://www.google.com/maps/place/Maszid/data=!4m7!3m6!1s0x3bcd739cf323adb7:0xd43dafd32a372a54!8m2!3d18.9386736!4d78.8322355!16s%2Fg%2F11q_c6cq6l!19sChIJt60j85xzzTsRVCo3KtOvPdQ?authuser=0&hl=en&rclk=1,"18.938673599999998,78.8322355"
Jama masjid kawal,Mosque,"5X97+M8M Jama masjid kawal, Kawal, Telangana 504205",,5X97+M8M,Kawal,504205,Telangana,IN,https://www.google.com/maps/place/Jama+masjid+kawal/data=!4m7!3m6!1s0x3bcd61db9faed409:0xc8e57351b72be292!8m2!3d19.1707652!4d78.9627696!16s%2Fg%2F11tgfrbxkx!19sChIJCdSun9thzTsRkuIrt1Fz5cg?authuser=0&hl=en&rclk=1,"19.170765199999998,78.9627696"
Masjid E Iqlaas,Mosque,"9F8P+632 Masjid E Iqlaas, Sirsilk Rd, beside Fire Station, Kagaznagar, Telangana 504296",,"9F8P+632, Sirsilk Rd, beside Fire Station",Kagaznagar,504296,Telangana,IN,https://www.google.com/maps/place/Masjid+E+Iqlaas/data=!4m7!3m6!1s0x3a2d51d0cddbd5e7:0xf2aef1fe202c2d0d!8m2!3d19.3655076!4d79.4851167!16s%2Fg%2F11vkplc0nw!19sChIJ59XbzdBRLToRDS0sIP7xrvI?authuser=0&hl=en&rclk=1,"19.3655076,79.48511669999999"
MASJID E SHAHEDA,Mosque,"8FWQ+HXH MASJID E SHAHEDA, NGO Colony, Kagaznagar, Telangana 504296",NGO Colony,8FWQ+HXH,Kagaznagar,,Telangana,IN,https://www.google.com/maps/place/MASJID+E+SHAHEDA/data=!4m7!3m6!1s0x3a2d57d62aed7ce5:0x893703f71d564abc!8m2!3d19.3464329!4d79.4899888!16s%2Fg%2F11fszvx_m4!19sChIJ5XztKtZXLToRvEpWHfcDN4k?authuser=0&hl=en&rclk=1,"19.3464329,79.48998879999999"
Mosque Mahammadabad,Mosque,"33QC+229 Mosque Mahammadabad, jannaram mahammadabad, 504205",,"33QC+229, jannaram mahammadabad",,504205,Telangana,IN,https://www.google.com/maps/place/Mosque+Mahammadabad/data=!4m7!3m6!1s0x3bcd5d75c529e10b:0x76390774d02a9d68!8m2!3d19.0875411!4d79.0700938!16s%2Fg%2F11t6ky02_j!19sChIJC-EpxXVdzTsRaJ0q0HQHOXY?authuser=0&hl=en&rclk=1,"19.0875411,79.0700938"
MASJID E SHAHEDA,Mosque,"9F5J+7W4 MASJID E SHAHEDA, NGO Colony, Kagaznagar, Telangana 504296",NGO Colony,9F5J+7W4,Kagaznagar,,Telangana,IN,https://www.google.com/maps/place/MASJID+E+SHAHEDA/data=!4m7!3m6!1s0x3a2d5703a7a9a817:0xf96caec15d8f9977!8m2!3d19.3581456!4d79.4823339!16s%2Fg%2F11j37gd00w!19sChIJF6ippwNXLToRd5mPXcGubPk?authuser=0&hl=en&rclk=1,"19.3581456,79.4823339"
Masjid E Qausar,Mosque,"8FRH+77Q Masjid E Qausar, Kausar Nagar, Sriram Nagar, Kagaznagar, Telangana 504296","Kausar Nagar, Sriram Nagar",8FRH+77Q,Kagaznagar,504296,Telangana,IN,https://www.google.com/maps/place/Masjid+E+Qausar/data=!4m7!3m6!1s0x3a2d575e13a03731:0xd0ee5cb55f5430a2!8m2!3d19.3407871!4d79.4783173!16s%2Fg%2F11rysdj5c8!19sChIJMTegE15XLToRojBUX7Vc7tA?authuser=0&hl=en&rclk=1,"19.3407871,79.4783173"
Masjid-msjiid,Mosque,"6QHJ+J76 Masjid-msjiid, Main Road, Vodduguda, Telangana 504273",,"6QHJ+J76, Main Road",Vodduguda,504273,Telangana,IN,https://www.google.com/maps/place/Masjid-%E0%B0%AE%E0%B0%B8%E0%B1%8D%E0%B0%9C%E0%B1%80%E0%B0%A6%E0%B1%8D/data=!4m7!3m6!1s0x3a329f07c9d7497f:0x4cdefb0f611c426e!8m2!3d19.2290489!4d79.7806522!16s%2Fg%2F11qp8wwlng!19sChIJf0nXyQefMjoRbkIcYQ_73kw?authuser=0&hl=en&rclk=1,"19.2290489,79.78065219999999"
Ansar masjid,Mosque,"9F5J+7W4 Ansar masjid, Kagaznagar, Telangana 504296",,9F5J+7W4,Kagaznagar,504296,Telangana,IN,https://www.google.com/maps/place/Ansar+masjid/data=!4m7!3m6!1s0x3a2d57b977fdbe6d:0x6960a1717e731215!8m2!3d19.3581456!4d79.4823339!16s%2Fg%2F11rsc1y_tg!19sChIJbb79d7lXLToRFRJzfnGhYGk?authuser=0&hl=en&rclk=1,"19.3581456,79.4823339"
masjid e mahboob unnisa,Mosque,"masjid e mahboob unnisa, charwadan Opposite:, Government Girls High school and Jr College, near Vidyanikethan High School, Azam Pura, Siddipet, Telangana 502103",Azam Pura,"charwadan Opposite:, Government Girls High school and Jr College, near Vidyanikethan High School",Siddipet,502103,Telangana,IN,https://www.google.com/maps/place/masjid+e+mahboob+unnisa/data=!4m7!3m6!1s0x3bcceda03f27bc1b:0xaaef2113b810d0b!8m2!3d18.1072369!4d78.8471118!16s%2Fg%2F11frqnt23j!19sChIJG7wnP6DtzDsRCw2BOxHyrgo?authuser=0&hl=en&rclk=1,"18.1072369,78.8471118"
Edgha colony,Mosque,"9F5J+7W4 Edgha colony, Kagaznagar, Telangana 504296",,9F5J+7W4,Kagaznagar,504296,Telangana,IN,https://www.google.com/maps/place/Edgha+colony/data=!4m7!3m6!1s0x3a2d578aaf27caff:0xcf4e93d61033b242!8m2!3d19.3581456!4d79.4823339!16s%2Fg%2F11jzw8f342!19sChIJ_8onr4pXLToRQrIzENaTTs8?authuser=0&hl=en&rclk=1,"19.3581456,79.4823339"
Masjid-E-Noor,Mosque,"WWPH+HVQ Masjid-E-Noor, Rechapalli, Telangana 505454",,WWPH+HVQ,Rechapalli,505454,Telangana,IN,https://www.google.com/maps/place/Masjid-E-Noor/data=!4m7!3m6!1s0x3bcd6b7331514d5f:0xff45f99cdcb0ecc8!8m2!3d18.9364588!4d78.9297201!16s%2Fg%2F11fvgfnlsd!19sChIJX01RMXNrzTsRyOyw3Jz5Rf8?authuser=0&hl=en&rclk=1,"18.9364588,78.9297201"
Masjid-e-Gousiya,Mosque,"7Q8C+WC7 Masjid-e-Gousiya, Yellur, Telangana 504299",,7Q8C+WC7,Yellur,504299,Telangana,IN,https://www.google.com/maps/place/Masjid-e-Gousiya/data=!4m7!3m6!1s0x3a329fbad2bf57b1:0x74961c218879e2d7!8m2!3d19.2672758!4d79.7710368!16s%2Fg%2F11j4cjxzm5!19sChIJsVe_0rqfMjoR1-J5iCEclnQ?authuser=0&hl=en&rclk=1,"19.2672758,79.77103679999999"
MASJID E MONIYA,Mosque,"9F5J+7W4 MASJID E MONIYA, Kagaznagar, Telangana 504296",,9F5J+7W4,Kagaznagar,504296,Telangana,IN,https://www.google.com/maps/place/MASJID+E+MONIYA/data=!4m7!3m6!1s0x3a2d57da2d7f2b1d:0x8d9e255b8d876c7d!8m2!3d19.3581456!4d79.4823339!16s%2Fg%2F11kj02mzft!19sChIJHSt_LdpXLToRfWyHjVslno0?authuser=0&hl=en&rclk=1,"19.3581456,79.4823339"
Madeena,Mosque,"896F+9VG Madeena, Khairgaon, Telangana 504292",,896F+9VG,Khairgaon,504292,Telangana,IN,https://www.google.com/maps/place/Madeena/data=!4m7!3m6!1s0x3bd2ab76fe62e4f9:0x655e67e2cda8427f!8m2!3d19.3109257!4d79.3747141!16s%2Fg%2F11txsk5xt9!19sChIJ-eRi_nar0jsRf0KozeJnXmU?authuser=0&hl=en&rclk=1,"19.3109257,79.37471409999999"
Masjid e Quresh,Mosque,"8FVP+746 Masjid e Quresh, Sanjeeviah Colony, Kagaznagar, Telangana 504296",Sanjeeviah Colony,8FVP+746,Kagaznagar,504296,Telangana,IN,https://www.google.com/maps/place/Masjid+e+Quresh/data=!4m7!3m6!1s0x3a2d56bbb043c6a9:0x97198713a0689373!8m2!3d19.3431704!4d79.4852652!16s%2Fg%2F11bw65zvhz!19sChIJqcZDsLtWLToRc5NooBOHGZc?authuser=0&hl=en&rclk=1,"19.343170399999998,79.4852652"
MAJED MBD,Mosque,"33QC+436 MAJED MBD, Malyal1, Telangana 504205",,33QC+436,Malyal1,504205,Telangana,IN,https://www.google.com/maps/place/MAJED+MBD/data=!4m7!3m6!1s0x3bcd5dc7d8043ab9:0xd0a3a374a7512c1b!8m2!3d19.087524!4d79.070119!16s%2Fg%2F11t4_mj0wl!19sChIJuToE2MddzTsRGyxRp3Sjo9A?authuser=0&hl=en&rclk=1,"19.087524,79.07011899999999"
Masjid,Mosque,"76P9+F8H Masjid, Parlapalle, Telangana 505481",,76P9+F8H,Parlapalle,,Telangana,IN,https://www.google.com/maps/place/Masjid/data=!4m7!3m6!1s0x3bcccf6e2ff98c55:0x79b008638b2b4f4!8m2!3d18.286189!4d79.2183517!16s%2Fg%2F11krghmng2!19sChIJVYz5L27PzDsR9LSyOIYAmwc?authuser=0&hl=en&rclk=1,"18.286189,79.2183517"
Choti masjid,Mosque,"5C2X+8M Choti masjid, Tandur, Telangana 504272",,5C2X+8M,Tandur,,Telangana,IN,https://www.google.com/maps/place/Choti+masjid/data=!4m7!3m6!1s0x3a32adad042446a3:0xd142992232766ce7!8m2!3d19.1507869!4d79.4491885!16s%2Fg%2F11sq8hn0w4!19sChIJo0YkBK2tMjoR52x2MiKZQtE?authuser=0&hl=en&rclk=1,"19.1507869,79.44918849999999"
Jamayat ahlihadees masjid,Mosque,"3VG2+7PP Jamayat ahlihadees masjid, Government Degree Womens College Rd, Telangana 502277",,"3VG2+7PP, Government Degree Womens College Rd",,502277,Telangana,IN,https://www.google.com/maps/place/Jamayat+ahlihadees+masjid/data=!4m7!3m6!1s0x3bcc93cca5e57b57:0x2bc6084ebefb21b0!8m2!3d18.0757124!4d78.8518422!16s%2Fg%2F11txpx349r!19sChIJV3vlpcyTzDsRsCH7vk4Ixis?authuser=0&hl=en&rclk=1,"18.0757124,78.8518422"
Eid Gah,Mosque,"3WRR+XH5 Eid Gah, Rajagopalpet, Telangana 502375",,3WRR+XH5,Rajagopalpet,502375,Telangana,IN,https://www.google.com/maps/place/Eid+Gah/data=!4m7!3m6!1s0x3bcc94bb3d99d8cd:0x892b1d7de1d36ee4!8m2!3d18.092387!4d78.9414792!16s%2Fg%2F11gc8t657_!19sChIJzdiZPbuUzDsR5G7T4X0dK4k?authuser=0&hl=en&rclk=1,"18.092387,78.9414792"
"Ashur khana, piiriil msjid",Mosque,"6XVJ+XPP Ashur khana, piiriil msjid, Gundaram, Telangana 505528",,6XVJ+XPP,Gundaram,505528,Telangana,IN,"https://www.google.com/maps/place/Ashur+khana,+%E0%B0%AA%E0%B1%80%E0%B0%B0%E0%B1%80%E0%B0%B2+%E0%B0%AE%E0%B0%B8%E0%B1%8D%E0%B0%9C%E0%B0%BF%E0%B0%A6%E0%B1%8D/data=!4m7!3m6!1s0x3bcce9efcbb0d12d:0x45550f69fdc8dc1b!8m2!3d18.2450878!4d78.981762!16s%2Fg%2F11t8b382sc!19sChIJLdGwy-_pzDsRG9zI_WkPVUU?authuser=0&hl=en&rclk=1","18.2450878,78.981762"
Kutagudan,Mosque,"4269+XPC Kutagudan, Palepally, Baddipadaga, Telangana 502375",Palepally,4269+XPC,Baddipadaga,,Telangana,IN,https://www.google.com/maps/place/Kutagudan/data=!4m7!3m6!1s0x3bccbf4d53ac114f:0xab958dce64b0bb1d!8m2!3d18.112439!4d79.0192665!16s%2Fg%2F11rqtt5s6y!19sChIJTxGsU02_zDsRHbuwZM6Nlas?authuser=0&hl=en&rclk=1,"18.112439,79.0192665"
Mootapally Masjid,Mosque,"WRW3+85V Mootapally Masjid, Mootapalle, Telangana 505460",,WRW3+85V,Mootapalle,505460,Telangana,IN,https://www.google.com/maps/place/Mootapally+Masjid/data=!4m7!3m6!1s0x3bcd71db465b554b:0xddbad2d7da006c8b!8m2!3d18.9458573!4d78.8029347!16s%2Fg%2F11hz77v8xp!19sChIJS1VbRttxzTsRi2wA2tfSut0?authuser=0&hl=en&rclk=1,"18.9458573,78.8029347"
