name,main_category,address,address_ward,address_street,address_city,address_postal_code,address_state,address_country_code,link,coordinates
Madina Masjid,Mosque,"Madina Masjid, Government Junior College, Bhainsa, Telangana 504103",,Government Junior College,Bhainsa,504103,Telangana,IN,https://www.google.com/maps/place/Madina+Masjid/data=!4m7!3m6!1s0x3bcdfe5aef2fd1e3:0x48c8397dc97ab0f6!8m2!3d19.1096769!4d77.9643594!16s%2Fg%2F11b7w99d4p!19sChIJ49Ev71r-zTsR9rB6yX05yEg?authuser=0&hl=en&rclk=1,"19.1096769,77.96435939999999"
Masjid Panjesha,Mosque,"Masjid Panjesha, masjid, panjesha marg, Bhainsa, Telangana 504103",,"masjid, panjesha marg",Bhainsa,,Telangana,IN,https://www.google.com/maps/place/Masjid+Panjesha/data=!4m7!3m6!1s0x3bcdfe45594b318b:0xa9a4527a0d3bdd4e!8m2!3d19.1114013!4d77.9614446!16s%2Fg%2F11xfvxc4m!19sChIJizFLWUX-zTsRTt07DXpSpKk?authuser=0&hl=en&rclk=1,"19.1114013,77.9614446"
Eid-Gah,Mosque,"4XC4+J65 Eid-Gah, Palsi Road, Telangana 504103",,"4XC4+J65, Palsi Road",,504103,Telangana,IN,https://www.google.com/maps/place/Eid-Gah/data=!4m7!3m6!1s0x3bcdfe4b41f2b35b:0x49272df21ed88662!8m2!3d19.1215231!4d77.9556209!16s%2Fg%2F11b7lhbkzd!19sChIJW7PyQUv-zTsRYobYHvItJ0k?authuser=0&hl=en&rclk=1,"19.121523099999997,77.9556209"
Masjid-e-Umar Farooq,Mosque,"4X79+M2F Masjid-e-Umar Farooq, Umar Farooq St, Abadi, Bhainsa, Telangana 504103",Abadi,"4X79+M2F, Umar Farooq St",Bhainsa,504103,Telangana,IN,https://www.google.com/maps/place/Masjid-e-Umar+Farooq/data=!4m7!3m6!1s0x3bcdfe50d026f4b3:0x9d2df10fc48b7b47!8m2!3d19.1141962!4d77.9675498!16s%2Fg%2F11c1s1_b43!19sChIJs_Qm0FD-zTsRR3uLxA_xLZ0?authuser=0&hl=en&rclk=1,"19.1141962,77.9675498"
MASJID-E-MOMINAN,Mosque,"4X76+4V9 MASJID-E-MOMINAN, mominan Galli, Siddhartha Nagar, Bhainsa, Telangana 504103",Siddhartha Nagar,"4X76+4V9, mominan Galli",Bhainsa,504103,Telangana,IN,https://www.google.com/maps/place/MASJID-E-MOMINAN/data=!4m7!3m6!1s0x3bcdfe4fe1772615:0x1ea8449dd9031e42!8m2!3d19.1127883!4d77.9622459!16s%2Fg%2F11bymwdg7g!19sChIJFSZ34U_-zTsRQh4D2Z1EqB4?authuser=0&hl=en&rclk=1,"19.1127883,77.9622459"
Jama Masjid,Mosque,"4X76+PG6 Jama Masjid, Bhainsa, Telangana 504103",,4X76+PG6,Bhainsa,504103,Telangana,IN,https://www.google.com/maps/place/Jama+Masjid/data=!4m7!3m6!1s0x3bcdfe4fcb6d4d3b:0x5b221d8cd9bf7450!8m2!3d19.1142804!4d77.961278!16s%2Fg%2F11by_ln6gj!19sChIJO01ty0_-zTsRUHS_2YwdIls?authuser=0&hl=en&rclk=1,"19.1142804,77.961278"
Masjid E Tauheed Bhainsa,Mosque,"Masjid E Tauheed Bhainsa, Government Junior College, near jr, Bhainsa, Telangana 504103",,"Government Junior College, near jr",Bhainsa,504103,Telangana,IN,https://www.google.com/maps/place/Masjid+E+Tauheed+Bhainsa/data=!4m7!3m6!1s0x3bcdfe5abe12d209:0xcb0d4c3a60c43c0e!8m2!3d19.1106262!4d77.9637239!16s%2Fg%2F11g8nzxgs0!19sChIJCdISvlr-zTsRDjzEYDpMDcs?authuser=0&hl=en&rclk=1,"19.1106262,77.96372389999999"
masjid Abbu Bakar,Place of worship,"4X68+JHW masjid Abbu Bakar, Bhainsa, Telangana 504103",,4X68+JHW,Bhainsa,504103,Telangana,IN,https://www.google.com/maps/place/masjid+Abbu+Bakar/data=!4m7!3m6!1s0x3bcdfe5a7461957f:0x7d00f2f5551ffdde!8m2!3d19.1116031!4d77.9664603!16s%2Fg%2F11c1v367gg!19sChIJf5VhdFr-zTsR3v0fVfXyAH0?authuser=0&hl=en&rclk=1,"19.1116031,77.9664603"
Osman Masjid,Mosque,"4X47+RJX Osman Masjid, Asad Baba Nagar, Bhainsa, Telangana 504103",Asad Baba Nagar,4X47+RJX,Bhainsa,504103,Telangana,IN,https://www.google.com/maps/place/Osman+Masjid/data=!4m7!3m6!1s0x3bcdfe5b6bc0025d:0x854fb770d38fd2a3!8m2!3d19.107103!4d77.9641068!16s%2Fg%2F11cn6jvztk!19sChIJXQLAa1v-zTsRo9KP03C3T4U?authuser=0&hl=en&rclk=1,"19.107103,77.9641068"
EK MINAR MASJID,Mosque,"4X58+8P8 EK MINAR MASJID, Asad Baba Nagar, Bhainsa, Telangana 504103",Asad Baba Nagar,4X58+8P8,Bhainsa,504103,Telangana,IN,https://www.google.com/maps/place/EK+MINAR+MASJID/data=!4m7!3m6!1s0x3bcdfe5bc8742e03:0x9e4aca298cc82934!8m2!3d19.1082968!4d77.9668355!16s%2Fg%2F11c1wjq5wm!19sChIJAy50yFv-zTsRNCnIjCnKSp4?authuser=0&hl=en&rclk=1,"19.108296799999998,77.9668355"
Jama Masjid,Mosque,"4438+75M Jama Masjid, Unnamed Road, Chackpalli, Arli (Khurd), Telangana 504104",,"4438+75M, Unnamed Road","Chackpalli, Arli (Khurd)",504104,Telangana,IN,https://www.google.com/maps/place/Jama+Masjid/data=!4m7!3m6!1s0x3bcdf759442ad593:0x9d3101a5cbafb91e!8m2!3d19.1032189!4d78.1154349!16s%2Fg%2F11gdgxt0hd!19sChIJk9UqRFn3zTsRHrmvy6UBMZ0?authuser=0&hl=en&rclk=1,"19.103218899999998,78.1154349"
Zulfaquar Masjid,Mosque,"Zulfaquar Masjid, Batti Galli, Bhainsa, Telangana 504103",,Batti Galli,Bhainsa,504103,Telangana,IN,https://www.google.com/maps/place/Zulfaquar+Masjid/data=!4m7!3m6!1s0x3bcdfe458e005063:0x3327cc952a5d40c3!8m2!3d19.1106687!4d77.9585257!16s%2Fg%2F11b7lgcncq!19sChIJY1AAjkX-zTsRw0BdKpXMJzM?authuser=0&hl=en&rclk=1,"19.110668699999998,77.9585257"
Jaama Masjid (Mosque),Mosque,"VXM3+WC6 Jaama Masjid (Mosque), Basar, Telangana 504101",,VXM3+WC6,Basar,,Telangana,IN,https://www.google.com/maps/place/Jaama+Masjid+%28Mosque%29/data=!4m7!3m6!1s0x3bcde1fdd318d0b1:0xdbc2475fe58f185!8m2!3d18.8847972!4d77.9535133!16s%2Fg%2F11ghfsvdpd!19sChIJsdAY0_3hzTsRhfFY_nUkvA0?authuser=0&hl=en&rclk=1,"18.884797199999998,77.9535133"
Kaali Masjid,Mosque,"4X86+8VM Kaali Masjid, Bhainsa, Telangana 504103",,4X86+8VM,Bhainsa,504103,Telangana,IN,https://www.google.com/maps/place/Kaali+Masjid/data=!4m7!3m6!1s0x3bcdff01ee4823b7:0x7c003f504db3c40c!8m2!3d19.1158403!4d77.9621864!16s%2Fg%2F11f6mcqf45!19sChIJtyNI7gH_zTsRDMSzTVA_AHw?authuser=0&hl=en&rclk=1,"19.1158403,77.9621864"
Madinah Masjid (mdynh msjd),Mosque,"CVGG+H5V Madinah Masjid (mdynh msjd), Bazar Chauk Rd, Himayatnagar, Maharashtra 431802",,"CVGG+H5V, Bazar Chauk Rd",Himayatnagar,431802,Maharashtra,IN,https://www.google.com/maps/place/Madinah+Masjid+%28%D9%85%D8%AF%DB%8C%D9%86%DB%81+%D9%85%D8%B3%D8%AC%D8%AF%29%E2%80%AD/data=!4m7!3m6!1s0x3bd1f68c168013ed:0x89d1f3ee21b7dd2c!8m2!3d19.4264971!4d77.8754327!16s%2Fg%2F11b8twts1c!19sChIJ7ROAFoz20TsRLN23Ie7z0Yk?authuser=0&hl=en&rclk=1,"19.4264971,77.87543269999999"
Masjid-E-Bilal,Religious destination,"Ward no 8, Masjid-E-Bilal, Baraimam galliy, Bhainsa, Telangana 504103",,"Ward no 8, Baraimam galliy",Bhainsa,,Telangana,IN,https://www.google.com/maps/place/Masjid-E-Bilal/data=!4m7!3m6!1s0x3bcdff7d9ed1862d:0xc152153d2799454f!8m2!3d19.1132198!4d77.963905!16s%2Fg%2F11j018hd_k!19sChIJLYbRnn3_zTsRT0WZJz0VUsE?authuser=0&hl=en&rclk=1,"19.1132198,77.963905"
ISLAMIA MASJID,Mosque,"33P9+Q3G ISLAMIA MASJID, Unnamed Road, Pendapalle, Telangana 504109",,"33P9+Q3G, Unnamed Road",Pendapalle,504109,Telangana,IN,https://www.google.com/maps/place/ISLAMIA+MASJID/data=!4m7!3m6!1s0x3bcdf9a84cf030af:0x3505c992c42fe512!8m2!3d19.0869441!4d78.0677168!16s%2Fg%2F11h1lsvqdn!19sChIJrzDwTKj5zTsREuUvxJLJBTU?authuser=0&hl=en&rclk=1,"19.0869441,78.0677168"
Masjid-E-Imam Unnissa,Mosque,"4X88+73C Masjid-E-Imam Unnissa, Bhainsa, Telangana 504103",,4X88+73C,Bhainsa,504103,Telangana,IN,https://www.google.com/maps/place/Masjid-E-Imam+Unnissa/data=!4m7!3m6!1s0x3bcdff48f9d34921:0xbfa3a3b4df1b04b1!8m2!3d19.1156767!4d77.965154!16s%2Fg%2F11n60wjr3b!19sChIJIUnT-Uj_zTsRsQQb37Sjo78?authuser=0&hl=en&rclk=1,"19.115676699999998,77.965154"
IDARA ANFA-UL-MADARIS,Mosque,"IDARA ANFA-UL-MADARIS, Umar Farooq Abadi, Bhainsa, Telangana 504103",,Umar Farooq Abadi,Bhainsa,504103,Telangana,IN,https://www.google.com/maps/place/IDARA+ANFA-UL-MADARIS/data=!4m7!3m6!1s0x3bcdff684c744727:0xdd4c8e59a5a31e73!8m2!3d19.1142023!4d77.9690341!16s%2Fg%2F11j2ccx398!19sChIJJ0d0TGj_zTsRcx6jpVmOTN0?authuser=0&hl=en&rclk=1,"19.1142023,77.9690341"
Macca Masjid - Nandigaon,Mosque,"VX4V+H84 Macca Masjid - Nandigaon, Nandigaon, Telangana 503245",,VX4V+H84,Nandigaon,503245,Telangana,IN,https://www.google.com/maps/place/Macca+Masjid+-+Nandigaon/data=!4m7!3m6!1s0x3bcde119d638785b:0xdf451e0f3385337b!8m2!3d18.8563765!4d77.9933382!16s%2Fg%2F11c0xyx9wk!19sChIJW3g41hnhzTsRezOFMw8eRd8?authuser=0&hl=en&rclk=1,"18.8563765,77.9933382"
Masjid E Al-Mujib (msjd lmujiyb),Mosque,"CVFH+39P Masjid E Al-Mujib (msjd lmujiyb), Bhokar - Kinwat Rd, Himayatnagar, Maharashtra 431802",,"CVFH+39P, Bhokar - Kinwat Rd",Himayatnagar,431802,Maharashtra,IN,https://www.google.com/maps/place/Masjid+E+Al-Mujib+%28%D9%85%D8%B3%D8%AC%D8%AF+%D8%A7%D9%84%D9%85%D9%8F%D8%AC%D9%90%DB%8C%D8%A8%29%E2%80%AD/data=!4m7!3m6!1s0x3bd1f68b342d2023:0x4596307441cd1795!8m2!3d19.4227026!4d77.8784564!16s%2Fg%2F11cknpj9tb!19sChIJIyAtNIv20TsRlRfNQXQwlkU?authuser=0&hl=en&rclk=1,"19.422702599999997,77.87845639999999"
Madina Masjid,Mosque,"XWPC+CGC Madina Masjid, Mudhole St, Mudhole, Telangana 504102",,"XWPC+CGC, Mudhole St",Mudhole,504102,Telangana,IN,https://www.google.com/maps/place/Madina+Masjid/data=!4m7!3m6!1s0x3bce07fc0d5ab6d9:0xef39beed9a49c2b0!8m2!3d18.9860691!4d77.9212626!16s%2Fg%2F11fyzflsc6!19sChIJ2bZaDfwHzjsRsMJJmu2-Oe8?authuser=0&hl=en&rclk=1,"18.986069099999998,77.92126259999999"
Deen E Muhammad Dargah,Mosque,"4X87+PMF Deen E Muhammad Dargah, Bhainsa, Telangana 504103",,4X87+PMF,Bhainsa,504103,Telangana,IN,https://www.google.com/maps/place/Deen+E+Muhammad+Dargah/data=!4m7!3m6!1s0x3bcdff0bce791d5b:0x5d1dfe69be5f14ea!8m2!3d19.1168214!4d77.9641861!16s%2Fg%2F11fq8r95lt!19sChIJWx15zgv_zTsR6hRfvmn-HV0?authuser=0&hl=en&rclk=1,"19.1168214,77.96418609999999"
"Masjid e maulana ,maulana nagar",Mosque,"72F2+24 Masjid e maulana ,maulana nagar, Brahmeswar, Telangana 504103",,72F2+24,Brahmeswar,,Telangana,IN,"https://www.google.com/maps/place/Masjid+e+maulana+,maulana+nagar/data=!4m7!3m6!1s0x3bd203a724388b9d:0x21f1cb8ff5f02f1d!8m2!3d19.2725064!4d78.000345!16s%2Fg%2F11pvfzpyn7!19sChIJnYs4JKcD0jsRHS_w9Y_L8SE?authuser=0&hl=en&rclk=1","19.272506399999997,78.000345"
Madhar Khan Masjid,Mosque,"4X23+8HV Madhar Khan Masjid, National Highway 222, Khan Auto Nagar, Bhainsa, Telangana 504103",Khan Auto Nagar,"4X23+8HV, National Highway 222",Bhainsa,504103,Telangana,IN,https://www.google.com/maps/place/Madhar+Khan+Masjid/data=!4m7!3m6!1s0x3bcdfe41b557545b:0xd92f6034489efa34!8m2!3d19.1008595!4d77.9539175!16s%2Fg%2F11b7c49jxk!19sChIJW1RXtUH-zTsRNPqeSDRgL9k?authuser=0&hl=en&rclk=1,"19.1008595,77.9539175"
Makka masjid,Mosque,"4X49+5GM Makka masjid, Owaisi nagar, Bhainsa, Telangana 504103",Owaisi nagar,4X49+5GM,Bhainsa,504103,Telangana,IN,https://www.google.com/maps/place/Makka+masjid/data=!4m7!3m6!1s0x3bcdff0eae709cdd:0x6854d10775edfe3!8m2!3d19.1054591!4d77.9688006!16s%2Fg%2F11j7cswkz7!19sChIJ3Zxwrg7_zTsR499edxBNhQY?authuser=0&hl=en&rclk=1,"19.105459099999997,77.9688006"
MOHAMMADIYA MASJID,Mosque,"XVR7+2R5 MOHAMMADIYA MASJID, Nandgam, Telangana 504102",,XVR7+2R5,Nandgam,504102,Telangana,IN,https://www.google.com/maps/place/MOHAMMADIYA+MASJID/data=!4m7!3m6!1s0x3bce07528ded7757:0x80b1e2eefa1c65c1!8m2!3d18.9900182!4d77.8646149!16s%2Fg%2F11tcm00p9l!19sChIJV3ftjVIHzjsRwWUc-u7isYA?authuser=0&hl=en&rclk=1,"18.990018199999998,77.86461489999999"
Mahimba Drgah,Mosque,"C3C9+5CM Mahimba Drgah, SH-230, Ritha, Maharashtra 431803",,"C3C9+5CM, SH-230",Ritha,,Maharashtra,IN,https://www.google.com/maps/place/Mahimba+Drgah/data=!4m7!3m6!1s0x3bd21b0316765077:0xefe33c5c199d737d!8m2!3d19.420463!4d78.0685409!16s%2Fg%2F11rfqp99rk!19sChIJd1B2FgMb0jsRfXOdGVw84-8?authuser=0&hl=en&rclk=1,"19.420462999999998,78.0685409"
Jama Masjid Pardi B,Mosque,"6XVR+PJM Jama Masjid Pardi B, Pardi busirg Mandal kubeer District nirmal, Pardi Buzurg, Telangana 504103",,"6XVR+PJM, Pardi busirg Mandal kubeer District nirmal",Pardi Buzurg,504103,Telangana,IN,https://www.google.com/maps/place/Jama+Masjid+Pardi+B/data=!4m7!3m6!1s0x3bd201e0084b5091:0x17b1e1fad65c2105!8m2!3d19.2443343!4d77.9915575!16s%2Fg%2F11jcjmtwwt!19sChIJkVBLCOAB0jsRBSFc1vrhsRc?authuser=0&hl=en&rclk=1,"19.2443343,77.9915575"
Jama masjid,Mosque,"Jama masjid, Mahendher fertiliser, Ola, Telangana 504109",,Mahendher fertiliser,Ola,504109,Telangana,IN,https://www.google.com/maps/place/Jama+masjid/data=!4m7!3m6!1s0x3bd207e78142f0d5:0xfe16d5ecc5fee1da!8m2!3d19.1802439!4d78.0713271!16s%2Fg%2F11fv3lytz1!19sChIJ1fBCgecH0jsR2uH-xezVFv4?authuser=0&hl=en&rclk=1,"19.1802439,78.07132709999999"
Masjid,Mosque,"575J+M85 Masjid, Rd, Boragaon, Boregaon, Telangana 504110",,"575J+M85, Rd","Boragaon, Boregaon",504110,Telangana,IN,https://www.google.com/maps/place/Masjid/data=!4m7!3m6!1s0x3bcdf5566038f497:0x4b6461d2e0d594e4!8m2!3d19.1591405!4d78.2808603!16s%2Fg%2F11r9h611j1!19sChIJl_Q4YFb1zTsR5JTV4NJhZEs?authuser=0&hl=en&rclk=1,"19.1591405,78.2808603"
Jama Masjid,Place of worship,"3W6R+V78 Jama Masjid, Dahegaon, Telangana 504102",,3W6R+V78,Dahegaon,504102,Telangana,IN,https://www.google.com/maps/place/Jama+Masjid/data=!4m7!3m6!1s0x3bcdfdefea2d5cf5:0x8b06b880e886f9f3!8m2!3d19.062155!4d77.9407105!16s%2Fg%2F11btxhlp73!19sChIJ9Vwt6u_9zTsR8_mG6IC4Bos?authuser=0&hl=en&rclk=1,"19.062155,77.9407105"
Masijd,Mosque,"37RJ+GWX Masijd, Sirgapur, Telangana 504306",,37RJ+GWX,Sirgapur,504306,Telangana,IN,https://www.google.com/maps/place/Masijd/data=!4m7!3m6!1s0x3bcdf33758e9a9e3:0xdf1a41fcd63d0884!8m2!3d19.0913546!4d78.2823573!16s%2Fg%2F11ssjwr2t4!19sChIJ46npWDfzzTsRhAg91vxBGt8?authuser=0&hl=en&rclk=1,"19.0913546,78.2823573"
Dargah masjid,Mosque,"4X86+MR9 Dargah masjid, Old Bazar Rd, Bhainsa, Telangana 504103",,"4X86+MR9, Old Bazar Rd",Bhainsa,504103,Telangana,IN,https://www.google.com/maps/place/Dargah+masjid/data=!4m7!3m6!1s0x3bcdff763fbf880f:0x512b48d84c4231e0!8m2!3d19.1167346!4d77.962365!16s%2Fg%2F11sz2st0k3!19sChIJD4i_P3b_zTsR4DFCTNhIK1E?authuser=0&hl=en&rclk=1,"19.1167346,77.96236499999999"
Owaisi masjid,Mosque,"4X3C+PVW Owaisi masjid, Rd number 2, Bhainsa, Telangana 504103",,"4X3C+PVW, Rd number 2",Bhainsa,504103,Telangana,IN,https://www.google.com/maps/place/Owaisi+masjid/data=!4m7!3m6!1s0x3bcdffb38f817769:0x3746a83dd7b84291!8m2!3d19.1044739!4d77.9714137!16s%2Fg%2F11s5627lk5!19sChIJaXeBj7P_zTsRkUK41z2oRjc?authuser=0&hl=en&rclk=1,"19.1044739,77.9714137"
Masjid e Ilaqa e Mashaiq,Mosque,"4X86+MR9 Masjid e Ilaqa e Mashaiq, Old Bazar Rd, Bhainsa, Telangana 504103",,"4X86+MR9, Old Bazar Rd",Bhainsa,504103,Telangana,IN,https://www.google.com/maps/place/Masjid+e+Ilaqa+e+Mashaiq/data=!4m7!3m6!1s0x3bcdffbb718107df:0x308312419b8ea3ee!8m2!3d19.11667!4d77.9621098!16s%2Fg%2F11np7rc810!19sChIJ3weBcbv_zTsR7qOOm0ESgzA?authuser=0&hl=en&rclk=1,"19.11667,77.9621098"
Aqsa Masjid,Mosque,"4X4G+44V Aqsa Masjid, Bhainsa, Telangana 504103",,4X4G+44V,Bhainsa,504103,Telangana,IN,https://www.google.com/maps/place/Aqsa+Masjid/data=!4m7!3m6!1s0x3bcdffefc08d1e65:0x78398d3d727b1cd0!8m2!3d19.1053514!4d77.9752969!16s%2Fg%2F11jf0jv14x!19sChIJZR6NwO__zTsR0Bx7cj2NOXg?authuser=0&hl=en&rclk=1,"19.1053514,77.9752969"
Masjid-e-Ibrahim,Mosque,"4X3F+MGW Masjid-e-Ibrahim, Owasi Nagar, Bhainsa, Telangana 504103",Owasi Nagar,4X3F+MGW,Bhainsa,504103,Telangana,IN,https://www.google.com/maps/place/Masjid-e-Ibrahim/data=!4m7!3m6!1s0x3bcdff2e3ed8c869:0x9a1ebb33c7592548!8m2!3d19.1042258!4d77.9738428!16s%2Fg%2F11jpgpwxgp!19sChIJacjYPi7_zTsRSCVZxzO7Hpo?authuser=0&hl=en&rclk=1,"19.1042258,77.9738428"
Jama Masjid Pardi B,Mosque,"6XCW+6F9 Jama Masjid Pardi B, Pardi Buzurg, Telangana 504103",,6XCW+6F9,Pardi Buzurg,,Telangana,IN,https://www.google.com/maps/place/Jama+Masjid+Pardi+B/data=!4m7!3m6!1s0x3bd20148945ee801:0xd11637936393bbec!8m2!3d19.2205263!4d77.9962228!16s%2Fg%2F11fthgbfmp!19sChIJAehelEgB0jsR7LuTY5M3FtE?authuser=0&hl=en&rclk=1,"19.2205263,77.9962228"
Masjid-e-mohammed ali khan,Mosque,"4X66+HJX Masjid-e-mohammed ali khan, Bhainsa, Telangana 504103",,4X66+HJX,Bhainsa,504103,Telangana,IN,https://www.google.com/maps/place/Masjid-e-mohammed+ali+khan/data=!4m7!3m6!1s0x3bcdff51973f1793:0x47b905b99f17ef30!8m2!3d19.1115918!4d77.9615985!16s%2Fg%2F11pzpc_hb7!19sChIJkxc_l1H_zTsRMO8Xn7kFuUc?authuser=0&hl=en&rclk=1,"19.1115918,77.9615985"
Masjid Mahboobia,Mosque,"4X47+736 Masjid Mahboobia, Bhainsa, Telangana 504103",,4X47+736,Bhainsa,504103,Telangana,IN,https://www.google.com/maps/place/Masjid+Mahboobia/data=!4m7!3m6!1s0x3bcdffa54730d159:0x3070551ca0bf95d2!8m2!3d19.1056685!4d77.9626302!16s%2Fg%2F11n001s619!19sChIJWdEwR6X_zTsR0pW_oBxVcDA?authuser=0&hl=en&rclk=1,"19.1056685,77.96263019999999"
Masjid e WALI,Mosque,"4X49+MWR Masjid e WALI, Rd Number 1, Bhainsa, Telangana 504103",,"4X49+MWR, Rd Number 1",Bhainsa,504103,Telangana,IN,https://www.google.com/maps/place/Masjid+e+WALI/data=!4m7!3m6!1s0x3bcdffe159c3e0c5:0x924cdf0a90587653!8m2!3d19.1067472!4d77.9697721!16s%2Fg%2F11lrryyhw2!19sChIJxeDDWeH_zTsRU3ZYkArfTJI?authuser=0&hl=en&rclk=1,"19.106747199999997,77.9697721"
Dargah masjid,Mosque,"4X85+RH4 Dargah masjid, Kisan Gally, Bhainsa, Telangana 504103",,"4X85+RH4, Kisan Gally",Bhainsa,504103,Telangana,IN,https://www.google.com/maps/place/Dargah+masjid/data=!4m7!3m6!1s0x3bcdff8149341c71:0x4ab8fbf5c4f17c84!8m2!3d19.1170017!4d77.9589653!16s%2Fg%2F11n8wky035!19sChIJcRw0SYH_zTsRhHzxxPX7uEo?authuser=0&hl=en&rclk=1,"19.1170017,77.9589653"
Quadanshah ali,Mosque,"4X5F+FPC Quadanshah ali, Bhainsa, Telangana 504103",,4X5F+FPC,Bhainsa,504103,Telangana,IN,https://www.google.com/maps/place/Quadanshah+ali/data=!4m7!3m6!1s0x3bcdff7a411bd27f:0xf18f2bb4d86febfc!8m2!3d19.1086944!4d77.9742549!16s%2Fg%2F11l6yhsc3v!19sChIJf9IbQXr_zTsR_Otv2LQrj_E?authuser=0&hl=en&rclk=1,"19.108694399999997,77.97425489999999"
Jama Masjid (Dhagaon),Mosque,"2V3M+H5J Jama Masjid (Dhagaon), Dhagaon, Telangana 504102",,2V3M+H5J,Dhagaon,504102,Telangana,IN,https://www.google.com/maps/place/Jama+Masjid+%28Dhagaon%29/data=!4m7!3m6!1s0x3bce0727bed48a03:0xca3f528a32d322e2!8m2!3d19.0039639!4d77.8828794!16s%2Fg%2F11trgx4wrs!19sChIJA4rUvicHzjsR4iLTMopSP8o?authuser=0&hl=en&rclk=1,"19.0039639,77.8828794"
dawal malik dargah(Dhagaon),Mosque,"2V3M+965 dawal malik dargah(Dhagaon), Dhagaon, Telangana 504102",,2V3M+965,Dhagaon,504102,Telangana,IN,https://www.google.com/maps/place/dawal+malik+dargah%28Dhagaon%29/data=!4m7!3m6!1s0x3bce0784a4b48061:0xdbf15b4f084afd8f!8m2!3d19.0031897!4d77.8832948!16s%2Fg%2F11kjm3syc4!19sChIJYYC0pIQHzjsRj_1KCE9b8ds?authuser=0&hl=en&rclk=1,"19.0031897,77.8832948"
MASJIDE MUSTAFA,Mosque,"7W6R+5RH MASJIDE MUSTAFA, Kubeer, Telangana 504103",,7W6R+5RH,Kubeer,504103,Telangana,IN,https://www.google.com/maps/place/MASJIDE+MUSTAFA/data=!4m7!3m6!1s0x3bd201ed686f678f:0x7633282881e75a49!8m2!3d19.2604289!4d77.942096!16s%2Fg%2F11ftvbkbd3!19sChIJj2dvaO0B0jsRSVrngSgoM3Y?authuser=0&hl=en&rclk=1,"19.2604289,77.94209599999999"
Jamamasjid,Mosque,"7W6V+HF4 Jamamasjid, Main Road, Kubeer, Telangana 504103",,"7W6V+HF4, Main Road",Kubeer,504103,Telangana,IN,https://www.google.com/maps/place/Jamamasjid/data=!4m7!3m6!1s0x3bd201f63f663507:0xcf27423fc86287f2!8m2!3d19.2613867!4d77.943711!16s%2Fg%2F11hd6y_1v0!19sChIJBzVmP_YB0jsR8odiyD9CJ88?authuser=0&hl=en&rclk=1,"19.2613867,77.943711"
DARGA-E-HAZRATH AMRUH SAAB,Mosque,"4VJR+5R2 DARGA-E-HAZRATH AMRUH SAAB, Bamni, Telangana 504103",,4VJR+5R2,Bamni,504103,Telangana,IN,https://www.google.com/maps/place/DARGA-E-HAZRATH+AMRUH+SAAB/data=!4m7!3m6!1s0x3bce01ff76cf16eb:0x3ce087629589b43!8m2!3d19.1303904!4d77.8920271!16s%2Fg%2F11pcwyxd64!19sChIJ6xbPdv8BzjsRQ5tYKXYIzgM?authuser=0&hl=en&rclk=1,"19.1303904,77.89202709999999"
Jama masjid,Mosque,"Jama masjid, Tondakur, Shahpur, Telangana 503212",,,"Tondakur, Shahpur",503212,Telangana,IN,https://www.google.com/maps/place/Jama+masjid/data=!4m7!3m6!1s0x3bcde9b6689d0d6d:0xd82ac2d148723667!8m2!3d18.9007382!4d78.1827624!16s%2Fg%2F11ty4q1_7p!19sChIJbQ2daLbpzTsRZzZySNHCKtg?authuser=0&hl=en&rclk=1,"18.9007382,78.1827624"
JAMA MASJID DONIGAON,Mosque,"55FQ+XQ JAMA MASJID DONIGAON, Kamkati, Telangana 504306",,55FQ+XQ,Kamkati,,Telangana,IN,https://www.google.com/maps/place/JAMA+MASJID+DONIGAON/data=!4m7!3m6!1s0x3bcdf7f087ac0961:0x2f00dd62ed8835bd!8m2!3d19.174912!4d78.1893461!16s%2Fg%2F11rm__366k!19sChIJYQmsh_D3zTsRvTWI7WLdAC8?authuser=0&hl=en&rclk=1,"19.174912,78.1893461"
Masjid-e-Taweed,Mosque,"W49M+X9V Masjid-e-Taweed, Ummeda, Telangana 503212",,W49M+X9V,Ummeda,503212,Telangana,IN,https://www.google.com/maps/place/Masjid-e-Taweed/data=!4m7!3m6!1s0x3bcdef84711adc7f:0x8386494f394d9ae7!8m2!3d18.9199843!4d78.1334202!16s%2Fg%2F11f9zdrpmj!19sChIJf9wacYTvzTsR55pNOU9JhoM?authuser=0&hl=en&rclk=1,"18.9199843,78.1334202"
Jama masjid ashta,Mosque,"W2M3+V9P Jama masjid ashta, Ashta, Telangana 504101",,W2M3+V9P,Ashta,504101,Telangana,IN,https://www.google.com/maps/place/Jama+masjid+ashta/data=!4m7!3m6!1s0x3bcde35a9ce42b59:0xffe320028c1cbff8!8m2!3d18.9347189!4d78.0034513!16s%2Fg%2F11pz2s9spl!19sChIJWSvknFrjzTsR-L8cjAIg4_8?authuser=0&hl=en&rclk=1,"18.9347189,78.0034513"
Thimmapur masjid,Mosque,"435F+Q9G Thimmapur masjid, Unnamed Road, Thimmapur, Telangana 504109",,"435F+Q9G, Unnamed Road",Thimmapur,504109,Telangana,IN,https://www.google.com/maps/place/Thimmapur+masjid/data=!4m7!3m6!1s0x3bcdf93c28513963:0x7dcfb1f3b4f8e7af!8m2!3d19.1094489!4d78.0734603!16s%2Fg%2F11qzbkts3t!19sChIJYzlRKDz5zTsRr-f4tPOxz30?authuser=0&hl=en&rclk=1,"19.1094489,78.0734603"
Jamiya Masjid,Mosque,"Jamiya Masjid, Panchagudi, Dharmara, Telangana 504104",,,"Panchagudi, Dharmara",504104,Telangana,IN,https://www.google.com/maps/place/Jamiya+Masjid/data=!4m7!3m6!1s0x3bcde5f57d5ce841:0x54a16d15ab8d2131!8m2!3d18.9698223!4d78.0838299!16s%2Fg%2F11g23bk4d8!19sChIJQehcffXlzTsRMSGNqxVtoVQ?authuser=0&hl=en&rclk=1,"18.9698223,78.0838299"
Masjid-e-ubaidullah,Mosque,"6763+MPH Masjid-e-ubaidullah, Sarangpur, Telangana 504110",,6763+MPH,Sarangpur,,Telangana,IN,https://www.google.com/maps/place/Masjid-e-ubaidullah/data=!4m7!3m6!1s0x3bd20b252120dd91:0x7c73203f3c9c251a!8m2!3d19.2116901!4d78.2543469!16s%2Fg%2F11t9pbrlmq!19sChIJkd0gISUL0jsRGiWcPD8gc3w?authuser=0&hl=en&rclk=1,"19.2116901,78.2543469"
JAMA MASJID,Mosque,"433W+VC6 JAMA MASJID, Unnamed Road, Kallur, Telangana 504109",,"433W+VC6, Unnamed Road",Kallur,504109,Telangana,IN,https://www.google.com/maps/place/JAMA+MASJID/data=!4m7!3m6!1s0x3bcdf93e953482f7:0xc3dff5e66af38f82!8m2!3d19.1046594!4d78.0960113!16s%2Fg%2F11gwhk1782!19sChIJ94I0lT75zTsRgo_zaub138M?authuser=0&hl=en&rclk=1,"19.1046594,78.0960113"
Maqbara masjid,Mosque,"4X86+WF7 Maqbara masjid, Bhainsa, Telangana 504103",,4X86+WF7,Bhainsa,504103,Telangana,IN,https://www.google.com/maps/place/Maqbara+masjid/data=!4m7!3m6!1s0x3bcdff260e3b794f:0x8b0a022e971e6e24!8m2!3d19.117272!4d77.9611583!16s%2Fg%2F11sq9gjl68!19sChIJT3k7Dib_zTsRJG4ely4CCos?authuser=0&hl=en&rclk=1,"19.117272,77.9611583"
Masjid e mohammadiya,Mosque,"4X78+7FX Masjid e mohammadiya, Bhainsa, Telangana 504103",,4X78+7FX,Bhainsa,504103,Telangana,IN,https://www.google.com/maps/place/Masjid+e+mohammadiya/data=!4m7!3m6!1s0x3bcdffafe5575e1f:0xadcb9e0d27ec98a!8m2!3d19.1131596!4d77.9653526!16s%2Fg%2F11qbh1lndc!19sChIJH15X5a__zTsRisl-0uC53Ao?authuser=0&hl=en&rclk=1,"19.1131596,77.9653526"
Majid e abubakar,Mosque,"4X68+H97 Majid e abubakar, New Abadi, Bhainsa, Telangana 504103",New Abadi,4X68+H97,Bhainsa,504103,Telangana,IN,https://www.google.com/maps/place/Majid+e+abubakar/data=!4m7!3m6!1s0x3bcdff58c1da7aab:0x219623bea3a45cb3!8m2!3d19.1113411!4d77.9659192!16s%2Fg%2F11sz2t10vn!19sChIJq3rawVj_zTsRs1yko74jliE?authuser=0&hl=en&rclk=1,"19.1113411,77.9659192"
Haji Sahab Masjid,Mosque,"4X76+WR5 Haji Sahab Masjid, Bhainsa, Telangana 504103",,4X76+WR5,Bhainsa,504103,Telangana,IN,https://www.google.com/maps/place/Haji+Sahab+Masjid/data=!4m7!3m6!1s0x3bcdffd89e630f21:0x6958ac2f4082e62d!8m2!3d19.114766!4d77.9621118!16s%2Fg%2F11r0wdt94j!19sChIJIQ9jntj_zTsRLeaCQC-sWGk?authuser=0&hl=en&rclk=1,"19.114766,77.9621118"
Masjid E Madeena,Mosque,"3XX8+XMW Masjid E Madeena, Vinayak Nagar, Bhainsa, Telangana 504103",Vinayak Nagar,3XX8+XMW,Bhainsa,504103,Telangana,IN,https://www.google.com/maps/place/Masjid+E+Madeena/data=!4m7!3m6!1s0x3bcdfe67609b6a17:0xd10b98fe9ebd9b74!8m2!3d19.1!4d77.9667!16s%2Fg%2F11b7tns2dg!19sChIJF2qbYGf-zTsRdJu9nv6YC9E?authuser=0&hl=en&rclk=1,"19.099999999999998,77.9667"
Sarkari masjid,Mosque,"4X76+7FF Sarkari masjid, Bhainsa, Telangana 504103",,4X76+7FF,Bhainsa,504103,Telangana,IN,https://www.google.com/maps/place/Sarkari+masjid/data=!4m7!3m6!1s0x3bcdff1e48424da9:0xe5975291b8aab459!8m2!3d19.1131196!4d77.9611631!16s%2Fg%2F11sq9fy4l6!19sChIJqU1CSB7_zTsRWbSquJFSl-U?authuser=0&hl=en&rclk=1,"19.113119599999997,77.9611631"
Jama masjid (Kotalgaom),Mosque,"42X5+48M Jama masjid (Kotalgaom), Kotalgaom, Bhainsa, Kotalgaon, Telangana 504109",Kotalgaom,42X5+48M,"Bhainsa, Kotalgaon",,Telangana,IN,https://www.google.com/maps/place/Jama+masjid+%28Kotalgaom%29/data=!4m7!3m6!1s0x3bcdff620818b4cb:0x849464b5944d2dae!8m2!3d19.1478345!4d78.0082907!16s%2Fg%2F11tnw1x59k!19sChIJy7QYCGL_zTsRri1NlLVklIQ?authuser=0&hl=en&rclk=1,"19.1478345,78.0082907"
Masjid e Fatima,Mosque,"4X5G+9P4 Masjid e Fatima, Bhainsa, Telangana 504103",,4X5G+9P4,Bhainsa,504103,Telangana,IN,https://www.google.com/maps/place/Masjid+e+Fatima/data=!4m7!3m6!1s0x3bcdffb3b5a3debf:0x2063de0cbf29b1de!8m2!3d19.1083892!4d77.9768327!16s%2Fg%2F11l29xysl3!19sChIJv96jtbP_zTsR3rEpvwzeYyA?authuser=0&hl=en&rclk=1,"19.108389199999998,77.9768327"
Momino mosque,Mosque,"4X38+64M Momino mosque, New Abadi, Bhainsa, Telangana 504103",New Abadi,4X38+64M,Bhainsa,504103,Telangana,IN,https://www.google.com/maps/place/Momino+mosque/data=!4m7!3m6!1s0x3bcdfffea979f1ef:0x5d2c7b949536d054!8m2!3d19.1030811!4d77.9652985!16s%2Fg%2F11kqn0r70h!19sChIJ7_F5qf7_zTsRVNA2lZR7LF0?authuser=0&hl=en&rclk=1,"19.1030811,77.9652985"
Dulha masjid,Mosque,"4X76+QPR Dulha masjid, Bhainsa, Telangana 504103",,4X76+QPR,Bhainsa,504103,Telangana,IN,https://www.google.com/maps/place/Dulha+masjid/data=!4m7!3m6!1s0x3bcdff11036a7bc1:0x2af6a0e9a007d28e!8m2!3d19.1144859!4d77.9617514!16s%2Fg%2F11pzpf_hcw!19sChIJwXtqAxH_zTsRjtIHoOmg9io?authuser=0&hl=en&rclk=1,"19.1144859,77.9617514"
Masjid e noor banu,Mosque,"4298+7M3 Masjid e noor banu, Ekgaon, Telangana 504103",,4298+7M3,Ekgaon,504103,Telangana,IN,https://www.google.com/maps/place/Masjid+e+noor+banu/data=!4m7!3m6!1s0x3bcdff742aedeb0d:0x1cc2047094df4e93!8m2!3d19.1181434!4d78.0166847!16s%2Fg%2F11h6443h1y!19sChIJDevtKnT_zTsRk07flHAEwhw?authuser=0&hl=en&rclk=1,"19.118143399999997,78.0166847"
Masjid e Gausheya,Mosque,"4VRH+QWR Masjid e Gausheya, Bamni, Telangana 504103",,4VRH+QWR,Bamni,504103,Telangana,IN,https://www.google.com/maps/place/Masjid+e+Gausheya/data=!4m7!3m6!1s0x3bce01ed15c57fa9:0x41081cab448ddcaa!8m2!3d19.1419818!4d77.8797538!16s%2Fg%2F11rf9xpdcx!19sChIJqX_FFe0BzjsRqtyNRKscCEE?authuser=0&hl=en&rclk=1,"19.1419818,77.8797538"
Madeena masjid,Mosque,"52C6+V34 Madeena masjid, Chintalabori, Telangana 504103",,52C6+V34,Chintalabori,,Telangana,IN,https://www.google.com/maps/place/Madeena+masjid/data=!4m7!3m6!1s0x3bcdffe967e8faaf:0xe0043d36fece529!8m2!3d19.1722582!4d78.0101075!16s%2Fg%2F11lgkmzqrf!19sChIJr_roZ-n_zTsRKeXsb9NDAA4?authuser=0&hl=en&rclk=1,"19.172258199999998,78.01010749999999"
smshaanvaattik,Mosque,"539X+CCJ smshaanvaattik, adilaabaadu, Telangana 504109",,539X+CCJ,adilaabaadu,504109,Telangana,IN,https://www.google.com/maps/place/%E0%B0%B8%E0%B1%8D%E0%B0%AE%E0%B0%B6%E0%B0%BE%E0%B0%A8%E0%B0%B5%E0%B0%BE%E0%B0%9F%E0%B0%BF%E0%B0%95/data=!4m7!3m6!1s0x3bcdf97b97a183ab:0xe00cb011d279594d!8m2!3d19.1682263!4d78.0990057!16s%2Fg%2F11v5bbbfvm!19sChIJq4Ohl3v5zTsRTVl50hGwDOA?authuser=0&hl=en&rclk=1,"19.1682263,78.09900569999999"
Jamiya masjeed,Mosque,"2V6P+24P Jamiya masjeed, Dhagaon, Telangana 504102",,2V6P+24P,Dhagaon,504102,Telangana,IN,https://www.google.com/maps/place/Jamiya+masjeed/data=!4m7!3m6!1s0x3bce0737cb5af415:0x208e894c4f477351!8m2!3d19.0100923!4d77.8853172!16s%2Fg%2F11q3__dgl3!19sChIJFfRayzcHzjsRUXNHT0yJjiA?authuser=0&hl=en&rclk=1,"19.0100923,77.8853172"
MASJIDE ZAHED,Mosque,"7W6W+6C8 MASJIDE ZAHED, Unnamed Road, Kubeer, Telangana 504103",,"7W6W+6C8, Unnamed Road",Kubeer,504103,Telangana,IN,https://www.google.com/maps/place/MASJIDE+ZAHED/data=!4m7!3m6!1s0x3bd201d240c1d4d9:0x9a09b54656d17b2f!8m2!3d19.2605386!4d77.9460674!16s%2Fg%2F11jfjjz3rr!19sChIJ2dTBQNIB0jsRL3vRVka1CZo?authuser=0&hl=en&rclk=1,"19.2605386,77.94606739999999"
Jama masjid Mohammadia godapur,Mosque,"6V2P+QWW Jama masjid Mohammadia godapur, Godapur, Telangana 504103",,6V2P+QWW,Godapur,504103,Telangana,IN,https://www.google.com/maps/place/Jama+masjid+Mohammadia+godapur/data=!4m7!3m6!1s0x3bd1ff67c74f1d71:0x6fbccdef3e8d57!8m2!3d19.2027752!4d77.8869778!16s%2Fg%2F11rn96vg7f!19sChIJcR1Px2f_0TsRV40-7828bwA?authuser=0&hl=en&rclk=1,"19.202775199999998,77.8869778"
Boregaon masjid,Mosque,"575J+M85 Boregaon masjid, Rd, Boragaon, Boregaon, Telangana 504110",,"575J+M85, Rd","Boragaon, Boregaon",504110,Telangana,IN,https://www.google.com/maps/place/Boregaon+masjid/data=!4m7!3m6!1s0x3bcdf5a37f0f4a77:0xa7ed0f87592cc9dd!8m2!3d19.1591431!4d78.2808539!16s%2Fg%2F11nfw3wdvw!19sChIJd0oPf6P1zTsR3cksWYcP7ac?authuser=0&hl=en&rclk=1,"19.159143099999998,78.2808539"
Jama Masjid Limba,Mosque,"523V+7F2 Jama Masjid Limba, Limba Khurd, Telangana 504109",,523V+7F2,Limba Khurd,504109,Telangana,IN,https://www.google.com/maps/place/Jama+Masjid+Limba/data=!4m7!3m6!1s0x3bcdf91c30be5c01:0x41b0942c84df9744!8m2!3d19.1531407!4d78.0436445!16s%2Fg%2F11v9z80ywd!19sChIJAVy-MBz5zTsRRJffhCyUsEE?authuser=0&hl=en&rclk=1,"19.153140699999998,78.0436445"
Jama Masjid,Association or organization,"4XR4+6G Jama Masjid, Mirzapur, Siddur, Telangana 504103",,4XR4+6G,"Mirzapur, Siddur",504103,Telangana,IN,https://www.google.com/maps/place/Jama+Masjid/data=!4m7!3m6!1s0x3bcdff170abc4c7d:0x7f87ae410c8c72e!8m2!3d19.1389125!4d77.9577969!16s%2Fg%2F11vcm2zgyv!19sChIJfUy8Chf_zTsRLsfIEOR6-Ac?authuser=0&hl=en&rclk=1,"19.1389125,77.95779689999999"
Masjid e rahmat wayi lingi sanwli,Mosque,"5VHV+7M Masjid e rahmat wayi lingi sanwli, Sanwali, Telangana 504103",,5VHV+7M,Sanwali,,Telangana,IN,https://www.google.com/maps/place/Masjid+e+rahmat+wayi+lingi+sanwli/data=!4m7!3m6!1s0x3bd1ff51b4c00ebd:0x99ad3e5f1ac806ec!8m2!3d19.1781415!4d77.8941574!16s%2Fg%2F11rp5ck9mf!19sChIJvQ7AtFH_0TsR7AbIGl8-rZk?authuser=0&hl=en&rclk=1,"19.1781415,77.8941574"
Mosque,Mosque,"54G3+83C Mosque, Unnamed Road, Kuntala, Telangana 504109",,"54G3+83C, Unnamed Road",Kuntala,504109,Telangana,IN,https://www.google.com/maps/place/Mosque/data=!4m7!3m6!1s0x3bcdf9d025e5219f:0x95288131dbc628f8!8m2!3d19.1758173!4d78.1026331!16s%2Fg%2F11nn534w_k!19sChIJnyHlJdD5zTsR-CjG2zGBKJU?authuser=0&hl=en&rclk=1,"19.1758173,78.10263309999999"
Jamamasjid,Mosque,"2X6W+RJ9 Jamamasjid, Edbid, Telangana 504102",,2X6W+RJ9,Edbid,504102,Telangana,IN,https://www.google.com/maps/place/Jamamasjid/data=!4m7!3m6!1s0x3bcdfd9419127871:0xbb4ac3774c96936d!8m2!3d19.0120371!4d77.9966174!16s%2Fg%2F11rchyqlgj!19sChIJcXgSGZT9zTsRbZOWTHfDSrs?authuser=0&hl=en&rclk=1,"19.0120371,77.99661739999999"
Masjid,Mosque,"23HP+VRV Masjid, Lokeshwaram, Telangana 504104",,23HP+VRV,Lokeshwaram,,Telangana,IN,https://www.google.com/maps/place/Masjid/data=!4m7!3m6!1s0x3bcdfb3d97c6beb1:0xffec44d109005d16!8m2!3d19.029744!4d78.0870508!16s%2Fg%2F11sy1hj3tx!19sChIJsb7Glz37zTsRFl0ACdFE7P8?authuser=0&hl=en&rclk=1,"19.029744,78.0870508"
Masjid,Mosque,"VW8Q+JJP Masjid, Basar, Telangana 504101",,VW8Q+JJP,Basar,,Telangana,IN,https://www.google.com/maps/place/Masjid/data=!4m7!3m6!1s0x3bcde10cc7f5aca5:0x9964a345088a20b6!8m2!3d18.8665932!4d77.9390706!16s%2Fg%2F11rvgjzrxx!19sChIJpaz1xwzhzTsRtiCKCEWjZJk?authuser=0&hl=en&rclk=1,"18.8665932,77.9390706"
Jama Masjid,Mosque,"24MG+M6H Jama Masjid, Rajura, Telangana 504104",,24MG+M6H,Rajura,504104,Telangana,IN,https://www.google.com/maps/place/Jama+Masjid/data=!4m7!3m6!1s0x3bcdf16c0271a325:0x36c8259feb23b1f8!8m2!3d19.0341967!4d78.125624!16s%2Fg%2F11sh79cpjj!19sChIJJaNxAmzxzTsR-LEj658lyDY?authuser=0&hl=en&rclk=1,"19.0341967,78.125624"
Jama masijid,Mosque,"X4GH+G53 Jama masijid, Pipri, Telangana 504104",,X4GH+G53,Pipri,504104,Telangana,IN,https://www.google.com/maps/place/Jama+masijid/data=!4m7!3m6!1s0x3bcdefbf1ef8ccff:0x33ae37cb52dc7205!8m2!3d18.9762572!4d78.1279359!16s%2Fg%2F11rn4j23nd!19sChIJ_8z4Hr_vzTsRBXLcUss3rjM?authuser=0&hl=en&rclk=1,"18.9762572,78.1279359"
Jama Maszid Gadchanda,Mosque,"245G+97V Jama Maszid Gadchanda, Unnamed Road, Gadchanda, Telangana 504104",,"245G+97V, Unnamed Road",Gadchanda,504104,Telangana,IN,https://www.google.com/maps/place/Jama+Maszid+Gadchanda/data=!4m7!3m6!1s0x3bcdf11ee4eaa0b3:0x5074c88c16549bd7!8m2!3d19.0084902!4d78.1256743!16s%2Fg%2F11flc1zb5k!19sChIJs6Dq5B7xzTsR15tUFozIdFA?authuser=0&hl=en&rclk=1,"19.0084902,78.1256743"
