name,main_category,address,address_ward,address_street,address_city,address_postal_code,address_state,address_country_code,link,coordinates
Nori masjid msjd Rampur Bujurg,Mosque,"Nori masjid msjd Rampur Bujurg, Maharajganj, Lakhima Tharua, Uttar Pradesh 273303",,,"Maharajganj, Lakhima Tharua",273303,Uttar Pradesh,IN,https://www.google.com/maps/place/Nori+masjid+%D9%85%D8%B3%D8%AC%D8%AF+Rampur+Bujurg%E2%80%AD/data=!4m7!3m6!1s0x3996a9a49589c35f:0x29166ace5c23f0e7!8m2!3d27.1758756!4d83.5443366!16s%2Fg%2F11fk86s313!19sChIJX8OJlaSpljkR5_AjXM5qFik?authuser=0&hl=en&rclk=1,"27.175875599999998,83.5443366"
Jama Masjid,Mosque,"5H66+F9V Jama Masjid, Gabarua, Maharajganj, Uttar Pradesh 273303",Gabarua,5H66+F9V,Maharajganj,273303,Uttar Pradesh,IN,https://www.google.com/maps/place/Jama+Masjid/data=!4m7!3m6!1s0x3996a9b202af896b:0x6860720e9b4b333a!8m2!3d27.1612496!4d83.5609334!16s%2Fg%2F11fx7mvn1v!19sChIJa4mvArKpljkROjNLmw5yYGg?authuser=0&hl=en&rclk=1,"27.161249599999998,83.5609334"
Noori Jama Masjid,Mosque,"4HX7+V5W Noori Jama Masjid, Bismil Nagar, Maharajganj, Uttar Pradesh 273303",Bismil Nagar,4HX7+V5W,Maharajganj,273303,Uttar Pradesh,IN,https://www.google.com/maps/place/Noori+Jama+Masjid/data=!4m7!3m6!1s0x3996a9bb7f8f4da5:0x4843da392d1f4bcd!8m2!3d27.1497348!4d83.562953!16s%2Fg%2F11c5xmgqgc!19sChIJpU2Pf7upljkRzUsfLTnaQ0g?authuser=0&hl=en&rclk=1,"27.149734799999997,83.562953"
Madeena Masjid,Mosque,"5H47+8FX Madeena Masjid, Chowk Rd, Azad Nagar, Bismil Nagar, Maharajganj, Uttar Pradesh 273303","Azad Nagar, Bismil Nagar","5H47+8FX, Chowk Rd",Maharajganj,273303,Uttar Pradesh,IN,https://www.google.com/maps/place/Madeena+Masjid/data=!4m7!3m6!1s0x3996a9b09c9fef21:0x1976ac3d7cc9ef35!8m2!3d27.1558549!4d83.5637273!16s%2Fg%2F11dxbd5rw8!19sChIJIe-fnLCpljkRNe_JfD2sdhk?authuser=0&hl=en&rclk=1,"27.155854899999998,83.5637273"
Al Aqsa Masjid,Mosque,"4HW4+5GM Al Aqsa Masjid, Unnamed Road, Shastri Nagar, Maharajganj, Uttar Pradesh 273303",Shastri Nagar,"4HW4+5GM, Unnamed Road",Maharajganj,273303,Uttar Pradesh,IN,https://www.google.com/maps/place/Al+Aqsa+Masjid/data=!4m7!3m6!1s0x3996a918851a0aa3:0x1f96573e7cf75e15!8m2!3d27.1454722!4d83.5563124!16s%2Fg%2F11ghtr_m3q!19sChIJowoahRipljkRFV73fD5Xlh8?authuser=0&hl=en&rclk=1,"27.1454722,83.5563124"
Eidgaah Gabarua,Mosque,"Eidgaah Gabarua, gabaduan eidgaah, Azad Nagar, Gabarua, Maharajganj, Uttar Pradesh 273303","Azad Nagar, Gabarua",gabaduan eidgaah,Maharajganj,273303,Uttar Pradesh,IN,https://www.google.com/maps/place/Eidgaah+Gabarua/data=!4m7!3m6!1s0x3996a9b0653629a9:0x33967a52664bed1a!8m2!3d27.1558281!4d83.5623604!16s%2Fg%2F11cjj1m811!19sChIJqSk2ZbCpljkRGu1LZlJ6ljM?authuser=0&hl=en&rclk=1,"27.155828099999997,83.5623604"
Nooran Tola mosque,Mosque,"2HC8+8F3 Nooran Tola mosque, Maharajganj, Uttar Pradesh 273302",,2HC8+8F3,Maharajganj,,Uttar Pradesh,IN,https://www.google.com/maps/place/Nooran+Tola+mosque/data=!4m7!3m6!1s0x3991552c6db20a3b:0xb77efa3b8d53b168!8m2!3d27.0207516!4d83.5661698!16s%2Fg%2F11gw2kjfqn!19sChIJOwqybSxVkTkRaLFTjTv6frc?authuser=0&hl=en&rclk=1,"27.0207516,83.5661698"
msjid raampurvaa,Mosque,"4HCM+J3G msjid raampurvaa, raampurvaa cauraahaa, Maharajganj, Siswa Babu, Uttar Pradesh 273303",,4HCM+J3G raampurvaa cauraahaa,"Maharajganj, Siswa Babu",273303,Uttar Pradesh,IN,https://www.google.com/maps/place/%E0%A4%AE%E0%A4%B8%E0%A5%8D%E0%A4%9C%E0%A4%BF%E0%A4%A6+%E0%A4%B0%E0%A4%BE%E0%A4%AE%E0%A4%AA%E0%A5%81%E0%A4%B0%E0%A4%B5%E0%A4%BE/data=!4m7!3m6!1s0x3996a9f80c6bd317:0x60c7f30d017865af!8m2!3d27.1215625!4d83.5826875!16s%2Fg%2F11gc1sl6y_!19sChIJF9NrDPipljkRr2V4AQ3zx2A?authuser=0&hl=en&rclk=1,"27.1215625,83.58268749999999"
MASJID-E-MUHAMMADIA,Mosque,"MASJID-E-MUHAMMADIA, Chaupariya, Maharajganj, Mahuawa, Uttar Pradesh 273303",Chaupariya,,"Maharajganj, Mahuawa",273303,Uttar Pradesh,IN,https://www.google.com/maps/place/MASJID-E-MUHAMMADIA/data=!4m7!3m6!1s0x3996a90fddf26d63:0x43cca23771de1add!8m2!3d27.1423024!4d83.5371338!16s%2Fg%2F11hz_t3pp_!19sChIJY23y3Q-pljkR3RrecTeizEM?authuser=0&hl=en&rclk=1,"27.1423024,83.53713379999999"
Quba Masjid,Mosque,"5H65+6HW Quba Masjid, Unnamed Road, Gabarua, Maharajganj, Uttar Pradesh 273303",Gabarua,"5H65+6HW, Unnamed Road",Maharajganj,273303,Uttar Pradesh,IN,https://www.google.com/maps/place/Quba+Masjid/data=!4m7!3m6!1s0x3996a921a0c8898f:0xc3c5f9430ee6f809!8m2!3d27.1606141!4d83.5589657!16s%2Fg%2F11f9wwpngy!19sChIJj4nIoCGpljkRCfjmDkP5xcM?authuser=0&hl=en&rclk=1,"27.1606141,83.5589657"
Sunni Soharwardi Jama Masjid,Mosque,"Sunni Soharwardi Jama Masjid, Front of ssb camp, Chiurahan, Rampur Rd, Uttar Pradesh 273303",,"Front of ssb camp, Chiurahan, Rampur Rd","Chauparia, Maharajganj",273303,Uttar Pradesh,IN,https://www.google.com/maps/place/Sunni+Soharwardi+Jama+Masjid/data=!4m7!3m6!1s0x3996a9d38552e627:0x6f678a63897b5e4c!8m2!3d27.1585442!4d83.5535135!16s%2Fg%2F11q2xx1kgh!19sChIJJ-ZShdOpljkRTF57iWOKZ28?authuser=0&hl=en&rclk=1,"27.158544199999998,83.5535135"
Mohammadi masjid,Mosque,"5H22+V32 Mohammadi masjid, Chiuraha Khas, Maharajganj, Uttar Pradesh 273303",,"5H22+V32, Chiuraha Khas","Maharajganj, Chauparia",273303,Uttar Pradesh,IN,https://www.google.com/maps/place/Mohammadi+masjid/data=!4m7!3m6!1s0x3996a9fca2a586b1:0x58f1b1af38f710c8!8m2!3d27.1521357!4d83.5501276!16s%2Fg%2F11q3nxpfxg!19sChIJsYalovypljkRyBD3OK-x8Vg?authuser=0&hl=en&rclk=1,"27.1521357,83.5501276"
mosque,Mosque,"5H26+FW3 mosque, Ward No 11, Maupakar, Maharajganj, Uttar Pradesh 273303","Ward No 11, Maupakar",5H26+FW3,Maharajganj,273303,Uttar Pradesh,IN,https://www.google.com/maps/place/mosque/data=!4m7!3m6!1s0x3996a9bb0d5e2bf5:0x38aab5e3c466ae61!8m2!3d27.1511293!4d83.5623007!16s%2Fg%2F11c7ssb20y!19sChIJ9SteDbupljkRYa5mxOO1qjg?authuser=0&hl=en&rclk=1,"27.151129299999997,83.5623007"
Makki masjid mkhy msjd,Mosque,"4HX5+WV9 Makki masjid mkhy msjd, Unnamed Road, Bismil Nagar, Maharajganj, Uttar Pradesh 273303",Bismil Nagar,"4HX5+WV9, Unnamed Road",Maharajganj,273303,Uttar Pradesh,IN,https://www.google.com/maps/place/Makki+masjid+%D9%85%DA%A9%DB%8C+%D9%85%D8%B3%D8%AC%D8%AF%E2%80%AD/data=!4m7!3m6!1s0x3996a9da95d215b5:0xe3f03f7bcd2475ca!8m2!3d27.1497791!4d83.5597497!16s%2Fg%2F11rxrzbpt1!19sChIJtRXSldqpljkRynUkzXs_8OM?authuser=0&hl=en&rclk=1,"27.1497791,83.5597497"
Masjid E Rahmaniya,Mosque,"Masjid E Rahmaniya, Patel Nagar ward number 13, Maharajganj, Uttar Pradesh",,Patel Nagar ward number 13,"Maharajganj, Chauparia",,Uttar Pradesh,IN,https://www.google.com/maps/place/Masjid+E+Rahmaniya/data=!4m7!3m6!1s0x3996a934ea0c9f19:0xf766f05ab9c0f66!8m2!3d27.1513186!4d83.549257!16s%2Fg%2F11h713ycsf!19sChIJGZ8M6jSpljkRZg-cqwVvdg8?authuser=0&hl=en&rclk=1,"27.1513186,83.549257"
Azizi Masjid,Mosque,"5H65+2W4 Azizi Masjid, Gabarua, Maharajganj, Uttar Pradesh 273303",Gabarua,5H65+2W4,Maharajganj,273303,Uttar Pradesh,IN,https://www.google.com/maps/place/Azizi+Masjid/data=!4m7!3m6!1s0x3996a9b734e61b5b:0x8008477330245fa5!8m2!3d27.1600148!4d83.559837!16s%2Fg%2F11j5s5w1k9!19sChIJWxvmNLepljkRpV8kMHNHCIA?authuser=0&hl=en&rclk=1,"27.1600148,83.559837"
Masjid,Mosque,"Masjid, Pant Nagar Ward No 18 Amrutiya Bazar, Nagar Palika Parishad, Anarutia, Maharajganj, Uttar Pradesh 273303",Anarutia,"Pant Nagar Ward No 18 Amrutiya Bazar, Nagar Palika Parishad",Maharajganj,273303,Uttar Pradesh,IN,https://www.google.com/maps/place/Masjid/data=!4m7!3m6!1s0x3996a99ad6cebddd:0xb8632c590b2ed258!8m2!3d27.1457297!4d83.5666824!16s%2Fg%2F11rss7sn26!19sChIJ3b3O1pqpljkRWNIuC1ksY7g?authuser=0&hl=en&rclk=1,"27.1457297,83.56668239999999"
Gausul wara Masjid,Mosque,"4HV6+RWJ Gausul wara Masjid, Lohia Nagar, Bismil Nagar, Maharajganj, Uttar Pradesh 273303","Lohia Nagar, Bismil Nagar",4HV6+RWJ,Maharajganj,,Uttar Pradesh,IN,https://www.google.com/maps/place/Gausul+wara+Masjid/data=!4m7!3m6!1s0x3996a9bd6fadd2c5:0xe09bf575a2fd7a3!8m2!3d27.1445835!4d83.5622505!16s%2Fg%2F11hd1qn0yl!19sChIJxdKtb72pljkRo9cvWle_CQ4?authuser=0&hl=en&rclk=1,"27.1445835,83.56225049999999"
Badi Masjid,Mosque,"4HV6+XV5 Badi Masjid, Veer Bahadur Nagar, Bismil Nagar, Maharajganj, Uttar Pradesh 273303","Veer Bahadur Nagar, Bismil Nagar",4HV6+XV5,Maharajganj,273303,Uttar Pradesh,IN,https://www.google.com/maps/place/Badi+Masjid/data=!4m7!3m6!1s0x3996a99817e0095b:0x1bcbc00505824bbf!8m2!3d27.1448902!4d83.562232!16s%2Fg%2F11fqcw9fft!19sChIJWwngF5ipljkRv0uCBQXAyxs?authuser=0&hl=en&rclk=1,"27.1448902,83.562232"
Masjid surhurwa,Mosque,"4G6G+6GW Masjid surhurwa, Maharajganj, Netasurhurawa, Uttar Pradesh 273303",,4G6G+6GW,"Maharajganj, Netasurhurawa",273303,Uttar Pradesh,IN,https://www.google.com/maps/place/Masjid+surhurwa/data=!4m7!3m6!1s0x3996ab485e26d4f9:0x1ad7af59d99848f2!8m2!3d27.1106495!4d83.52627!16s%2Fg%2F11sb5bzg2b!19sChIJ-dQmXkirljkR8kiY2Vmv1xo?authuser=0&hl=en&rclk=1,"27.110649499999997,83.52627"
