name,main_category,address,address_ward,address_street,address_city,address_postal_code,address_state,address_country_code,link,coordinates
Shahi Mosque,Mosque,"MM83+GHP Shahi Mosque, Depalpur, Okara, Punjab, Pakistan",,MM83+GHP,Depalpur,,"Okara, Punjab",PK,https://www.google.com/maps/place/Shahi+Mosque/data=!4m7!3m6!1s0x39181caca90617bf:0xbb3ee31379a95a29!8m2!3d30.6663323!4d73.6539659!16s%2Fg%2F1tf9r6by!19sChIJvxcGqawcGDkRKVqpeRPjPrs?authuser=0&hl=en&rclk=1,"30.666332299999997,73.6539659"
Madni Masjid (Tablighi Markaz),Mosque,"MMF9+MPW Madni Masjid (Tablighi Markaz), Depalpur, Okara, Punjab, Pakistan",,MMF9+MPW,Depalpur,,"Okara, Punjab",PK,https://www.google.com/maps/place/Madni+Masjid+%28Tablighi+Markaz%29/data=!4m7!3m6!1s0x39181b16a4fe27cf:0x39a60c8d02c031d4!8m2!3d30.6742476!4d73.6693148!16s%2Fg%2F11gy3j5msw!19sChIJzyf-pBYbGDkR1DHAAo0Mpjk?authuser=0&hl=en&rclk=1,"30.674247599999998,73.6693148"
JAMIA MASJID RAZAQIA DEPALPUR,Mosque,"MMC2+9Q5 JAMIA MASJID RAZAQIA DEPALPUR, Depalpur, Okara, Punjab, Pakistan",,MMC2+9Q5,Depalpur,,"Okara, Punjab",PK,https://www.google.com/maps/place/JAMIA+MASJID+RAZAQIA+DEPALPUR/data=!4m7!3m6!1s0x3918035fc93e58a9:0xc7d167ae8a0be10!8m2!3d30.6708935!4d73.6519893!16s%2Fg%2F11p17fjrrc!19sChIJqVg-yV8DGDkREL6g6HoWfQw?authuser=0&hl=en&rclk=1,"30.6708935,73.6519893"
Shrine of Sain Abdul Razaq andJamia Masjid Oliya,Mosque,"MJCW+4QW Shrine of Sain Abdul Razaq andJamia Masjid Oliya, Ghala Mandi Rd, Ghalla Mandi, Depalpur, Okara, Punjab 56180, Pakistan",Ghalla Mandi,"MJCW+4QW, Ghala Mandi Rd",Depalpur,56180,"Okara, Punjab",PK,https://www.google.com/maps/place/Shrine+of+Sain+Abdul+Razaq+andJamia+Masjid+Oliya/data=!4m7!3m6!1s0x3918035611c4ea8d:0x74e8d88629a8bd4!8m2!3d30.6703717!4d73.6469463!16s%2Fg%2F11xmvvy8k!19sChIJjerEEVYDGDkR1IuaYoiNTgc?authuser=0&hl=en&rclk=1,"30.670371699999997,73.6469463"
JAMA MASJID,Mosque,"VG2V+W4M JAMA MASJID, Depalpur, Madhya Pradesh 453115",,VG2V+W4M,Depalpur,453115,Madhya Pradesh,IN,https://www.google.com/maps/place/JAMA+MASJID/data=!4m7!3m6!1s0x3963ae33d71c2e53:0xd56a8860ea8d506d!8m2!3d22.8523259!4d75.5427861!16s%2Fg%2F11g70jw1z7!19sChIJUy4c1zOuYzkRbVCN6mCIatU?authuser=0&hl=en&rclk=1,"22.8523259,75.5427861"
Jamia Masjid 48/D depalpur,Mosque,"Jamia Masjid 48/D depalpur, 48d village, Okara, Punjab, Pakistan",,48d village,Mehmood Village,,"Okara, Punjab",PK,https://www.google.com/maps/place/Jamia+Masjid+48%2FD+depalpur/data=!4m7!3m6!1s0x39180136e00c8b67:0x29bd9fca5c5c83c6!8m2!3d30.6480394!4d73.5314654!16s%2Fg%2F11c7t2kqzq!19sChIJZ4sM4DYBGDkRxoNcXMqfvSk?authuser=0&hl=en&rclk=1,"30.6480394,73.5314654"
Mubarkia Masjid,Mosque,"MM75+W53 Mubarkia Masjid, wkhrrh rwdd, Depalpur, Okara, Punjab, Pakistan",,"MM75+W53, wkhrrh rwdd",Depalpur,,"Okara, Punjab",PK,https://www.google.com/maps/place/Mubarkia+Masjid/data=!4m7!3m6!1s0x39181cac49dde731:0x4caa81e537e5dbd2!8m2!3d30.6647614!4d73.6579359!16s%2Fg%2F11b7hhz__w!19sChIJMefdSawcGDkR0tvlN-WBqkw?authuser=0&hl=en&rclk=1,"30.6647614,73.6579359"
Makki Masjid,Mosque,"MMG2+JJ6 Makki Masjid, Depalpur, Okara, Punjab, Pakistan",,MMG2+JJ6,Depalpur,,"Okara, Punjab",PK,https://www.google.com/maps/place/Makki+Masjid/data=!4m7!3m6!1s0x391804ab6fb41541:0xb249b025e661ade3!8m2!3d30.6765319!4d73.6515233!16s%2Fg%2F1tftjlq_!19sChIJQRW0b6sEGDkR461h5iWwSbI?authuser=0&hl=en&rclk=1,"30.676531899999997,73.6515233"
Grand Masjid Sabir Colony Depalpur Chowk Okara,Mosque,"Grand Masjid Sabir Colony Depalpur Chowk Okara, Jamiya Masjid Sabriya, Sabir Colony Okara, Punjab, Pakistan",Sabir Colony,Jamiya Masjid Sabriya,Okara,,"Okara, Punjab",PK,https://www.google.com/maps/place/Grand+Masjid+Sabir+Colony+Depalpur+Chowk+Okara/data=!4m7!3m6!1s0x3922a7eb0e0032cf:0x1b17e30ac489e6d3!8m2!3d30.8057334!4d73.4613666!16s%2Fg%2F11gv_35ssy!19sChIJzzIADuunIjkR0-aJxArjFxs?authuser=0&hl=en&rclk=1,"30.805733399999998,73.46136659999999"
Jamia Masjid Ratakhana,Mosque,"PM43+G4J Jamia Masjid Ratakhana, Ratta khanna Rd, Depalpur, Okara, Punjab, Pakistan",,"PM43+G4J, Ratta khanna Rd",Depalpur,,"Okara, Punjab",PK,https://www.google.com/maps/place/Jamia+Masjid+Ratakhana/data=!4m7!3m6!1s0x391804d2a8b39dd1:0xb5ee46d53c0800d0!8m2!3d30.7059631!4d73.6529499!16s%2Fg%2F11c5_xljxx!19sChIJ0Z2zqNIEGDkR0AAIPNVG7rU?authuser=0&hl=en&rclk=1,"30.705963099999998,73.6529499"
Mohammedi Masjid,Mosque,"VG3R+2CF Mohammedi Masjid, Depalpur, Madhya Pradesh 453115",,VG3R+2CF,Depalpur,453115,Madhya Pradesh,IN,https://www.google.com/maps/place/Mohammedi+Masjid/data=!4m7!3m6!1s0x3963ae32233fc82f:0xf7574b5d4291b0fe!8m2!3d22.8525588!4d75.541035!16s%2Fg%2F11dxq5ltnt!19sChIJL8g_IzKuYzkR_rCRQl1LV_c?authuser=0&hl=en&rclk=1,"22.8525588,75.541035"
Jamia Masjid Shergarh,Mosque,"RPJQ+CH4 Jamia Masjid Shergarh, Renala Khurd-Shergarh Rd Shergarh, Depalpur, Okara, Punjab 56140, Pakistan",,"RPJQ+CH4, Renala Khurd-Shergarh Rd Shergarh",Depalpur,56140,"Okara, Punjab",PK,https://www.google.com/maps/place/Jamia+Masjid+Shergarh/data=!4m7!3m6!1s0x39181131b2eb67e3:0xaffc079100115be5!8m2!3d30.8310068!4d73.7389483!16s%2Fg%2F11_dsrnlr!19sChIJ42frsjERGDkR5VsRAJEH_K8?authuser=0&hl=en&rclk=1,"30.831006799999997,73.73894829999999"
Noori Masjid,Mosque,"MMC4+76C Noori Masjid, Depalpur, Okara, Punjab, Pakistan",,MMC4+76C,Depalpur,,"Okara, Punjab",PK,https://www.google.com/maps/place/Noori+Masjid/data=!4m7!3m6!1s0x39181caaec1c0c6b:0x5c1b96ba6db5170a!8m2!3d30.6706817!4d73.6555248!16s%2Fg%2F1tdl92xp!19sChIJawwc7KocGDkRChe1bbqWG1w?authuser=0&hl=en&rclk=1,"30.6706817,73.6555248"
nurani masjid depalpur,Mosque,"RGWQ+HQJ nurani masjid depalpur, Depalpur, Madhya Pradesh 453115",,RGWQ+HQJ,Depalpur,453115,Madhya Pradesh,IN,https://www.google.com/maps/place/nurani+masjid+depalpur/data=!4m7!3m6!1s0x3963ae30020da5f3:0x224d484001c002d5!8m2!3d22.8464653!4d75.5393767!16s%2Fg%2F11d_88xhk7!19sChIJ86UNAjCuYzkR1QLAAUBITSI?authuser=0&hl=en&rclk=1,"22.8464653,75.53937669999999"
48 Wali Chaman-e-Madina Masjid,Mosque,"48 Wali Chaman-e-Madina Masjid, 48/d, Depalpur Rd, Depalpur, Okara, Punjab, Pakistan",,"48/d, Depalpur Rd",Depalpur,,"Okara, Punjab",PK,https://www.google.com/maps/place/48+Wali+Chaman-e-Madina+Masjid/data=!4m7!3m6!1s0x3918013a6b14768f:0x329ee3287619331c!8m2!3d30.6436663!4d73.5283765!16s%2Fg%2F11fyxfq25l!19sChIJj3YUazoBGDkRHDMZdijjnjI?authuser=0&hl=en&rclk=1,"30.6436663,73.5283765"
Madina Mosque,Mosque,"Madina Mosque, Sakhi Saidan Colony, 1 Depalpur - Pakpattan Rd, Depalpur, Okara, Punjab 56180, Pakistan",,"Sakhi Saidan Colony, 1 Depalpur - Pakpattan Rd",Depalpur,56180,"Okara, Punjab",PK,https://www.google.com/maps/place/Madina+Mosque/data=!4m7!3m6!1s0x391804ab8cd84ab9:0xe928fc0eb6ad7828!8m2!3d30.6767555!4d73.6493307!16s%2Fg%2F11c0y64_rd!19sChIJuUrYjKsEGDkRKHittg78KOk?authuser=0&hl=en&rclk=1,"30.6767555,73.6493307"
Madni Masjid,Mosque,"QFVM+8GV Madni Masjid, Dipalpur-Okara Rd, Okara, Punjab 56300, Pakistan",,"QFVM+8GV, Dipalpur-Okara Rd",Okara,56300,"Okara, Punjab",PK,https://www.google.com/maps/place/Madni+Masjid/data=!4m7!3m6!1s0x391809c8c4cde8a5:0x7cacbb212520af27!8m2!3d30.7933694!4d73.4838085!16s%2Fg%2F12mkz5ncr!19sChIJpejNxMgJGDkRJ68gJSG7rHw?authuser=0&hl=en&rclk=1,"30.7933694,73.4838085"
Makki Masjid,Mosque,"X7MH+P4M Makki Masjid, Depalpur Rd, Khudian Khas, Kasur, Punjab, Pakistan",,"X7MH+P4M, Depalpur Rd",Khudian Khas,,"Kasur, Punjab",PK,https://www.google.com/maps/place/Makki+Masjid/data=!4m7!3m6!1s0x3919ca4fc1752fbb:0x41143536703c537f!8m2!3d30.9843468!4d74.2778081!16s%2Fg%2F1hm2f1wmg!19sChIJuy91wU_KGTkRf1M8cDY1FEE?authuser=0&hl=en&rclk=1,"30.984346799999997,74.2778081"
Al-Muzammil Stars Academy,Science academy,"MJ8X+W8X Al-Muzammil Stars Academy, Ghala Mandi Rd, Depalpur, Okara, Punjab, Pakistan",,"MJ8X+W8X, Ghala Mandi Rd",Depalpur,,"Okara, Punjab",PK,https://www.google.com/maps/place/Al-Muzammil+Stars+Academy/data=!4m7!3m6!1s0x3918035428d9b457:0xb83b01668c393a5d!8m2!3d30.6673594!4d73.6483627!16s%2Fg%2F11cktgfy_t!19sChIJV7TZKFQDGDkRXTo5jGYBO7g?authuser=0&hl=en&rclk=1,"30.6673594,73.64836269999999"
Masjid E Bilal,Mosque,"MM4R+233 Masjid E Bilal, Depalpur, Okara, Punjab, Pakistan",,MM4R+233,Depalpur,,"Okara, Punjab",PK,https://www.google.com/maps/place/Masjid+E+Bilal/data=!4m7!3m6!1s0x39181d0c9aa57753:0x4e2a9297c648ffac!8m2!3d30.6550117!4d73.6901661!16s%2Fg%2F11gz9yb801!19sChIJU3elmgwdGDkRrP9IxpeSKk4?authuser=0&hl=en&rclk=1,"30.6550117,73.6901661"
Jamia Masjid Taj Colony,Mosque,"MJ9W+5W5 Jamia Masjid Taj Colony, Taj Colony, Depalpur, Okara, Punjab, Pakistan",Taj Colony,MJ9W+5W5,Depalpur,,"Okara, Punjab",PK,https://www.google.com/maps/place/Jamia+Masjid+Taj+Colony/data=!4m7!3m6!1s0x39180355b032e8fd:0x33f86e2826d79fdc!8m2!3d30.6678939!4d73.647355!16s%2Fg%2F11h7ks14nh!19sChIJ_egysFUDGDkR3J_XJihu-DM?authuser=0&hl=en&rclk=1,"30.6678939,73.64735499999999"
Jamia Masjid Zaib Un Nisa,Mosque,"MJFV+PRF Jamia Masjid Zaib Un Nisa, Hamid Shah Colony Al-Waheed CNG road, Depalpur, Okara, Punjab, Pakistan",,"MJFV+PRF, Hamid Shah Colony Al-Waheed CNG road",Depalpur,,"Okara, Punjab",PK,https://www.google.com/maps/place/Jamia+Masjid+Zaib+Un+Nisa/data=!4m7!3m6!1s0x391805e9a3d8f473:0x3b25f5eca88931c8!8m2!3d30.6743115!4d73.6445352!16s%2Fg%2F11ff5j9ff_!19sChIJc_TYo-kFGDkRyDGJqOz1JTs?authuser=0&hl=en&rclk=1,"30.674311499999998,73.64453519999999"
Masjid Umar bin Khattab,Mosque,"MM93+34P Masjid Umar bin Khattab, Depalpur, Okara, Punjab, Pakistan",,MM93+34P,Depalpur,,"Okara, Punjab",PK,https://www.google.com/maps/place/Masjid+Umar+bin+Khattab/data=!4m7!3m6!1s0x39180354b9c82c03:0xff5265d4dc7fe75!8m2!3d30.6677054!4d73.652827!16s%2Fg%2F11c1xsgg50!19sChIJAyzIuVQDGDkRdf7HTV0m9Q8?authuser=0&hl=en&rclk=1,"30.6677054,73.652827"
Masjid Ibrahim,Mosque,"MMF9+W22 Masjid Ibrahim, By Pass, Depalpur, Okara, Punjab, Pakistan",,"MMF9+W22, By Pass",Depalpur,,"Okara, Punjab",PK,https://www.google.com/maps/place/Masjid+Ibrahim/data=!4m7!3m6!1s0x39181bb3d8121f27:0x398844a7370f85f6!8m2!3d30.6747656!4d73.6675243!16s%2Fg%2F11h0rbnzzk!19sChIJJx8S2LMbGDkR9oUPN6dEiDk?authuser=0&hl=en&rclk=1,"30.674765599999997,73.6675243"
Masjid e Ayesha Saddiqua,Mosque,"JMW3+5GQ Masjid e Ayesha Saddiqua, Depalpur, Okara, Punjab, Pakistan",,JMW3+5GQ,Depalpur,,"Okara, Punjab",PK,https://www.google.com/maps/place/Masjid+e+Ayesha+Saddiqua/data=!4m7!3m6!1s0x39181d5563c9fa2b:0x7065c94b900cb055!8m2!3d30.6454689!4d73.6538636!16s%2Fg%2F11gjt9shzq!19sChIJK_rJY1UdGDkRVbAMkEvJZXA?authuser=0&hl=en&rclk=1,"30.645468899999997,73.6538636"
Siddiqia Masjid,Mosque,"MM85+G89 Siddiqia Masjid, Depalpur, Okara, Punjab, Pakistan",,MM85+G89,Depalpur,,"Okara, Punjab",PK,https://www.google.com/maps/place/Siddiqia+Masjid/data=!4m7!3m6!1s0x39181cac13d0e6cb:0x37dc6b48910abec9!8m2!3d30.6662755!4d73.658374!16s%2Fg%2F11df060vnv!19sChIJy-bQE6wcGDkRyb4KkUhr3Dc?authuser=0&hl=en&rclk=1,"30.666275499999998,73.658374"
Dargah Hazrat Dada Miya Sarkar,Religious destination,"VG4R+CRC Dargah Hazrat Dada Miya Sarkar, Imam Chowk, Arihant Vihar Colony, Depalpur, Madhya Pradesh 453115",Arihant Vihar Colony,"VG4R+CRC, Imam Chowk",Depalpur,453115,Madhya Pradesh,IN,https://www.google.com/maps/place/Dargah+Hazrat+Dada+Miya+Sarkar/data=!4m7!3m6!1s0x3963af7de891a905:0xd1841da076157972!8m2!3d22.8560635!4d75.5420223!16s%2Fg%2F11r7bhb0ny!19sChIJBamR6H2vYzkRcnkVdqAdhNE?authuser=0&hl=en&rclk=1,"22.856063499999998,75.5420223"
Jamia Masjid Noori,Mosque,"P366+M6F Jamia Masjid Noori, Bheela Gulab Singh, Tehsil, Dipalpur, Okara, Punjab, Pakistan",,"P366+M6F, Bheela Gulab Singh, Tehsil",Depalpur,,"Okara, Punjab",PK,https://www.google.com/maps/place/Jamia+Masjid+Noori/data=!4m7!3m6!1s0x391828c5ec13f9b7:0xd55a53438a49c168!8m2!3d30.7116896!4d74.06056!16s%2Fg%2F11g8bbg8t4!19sChIJt_kT7MUoGDkRaMFJikNTWtU?authuser=0&hl=en&rclk=1,"30.7116896,74.06056"
sjdyh mm brgh,Mosque,"MM92+MQ7 sjdyh mm brgh, Depalpur, Okara, Punjab, Pakistan",,MM92+MQ7,Depalpur,,"Okara, Punjab",PK,https://www.google.com/maps/place/%D8%B3%D8%AC%D8%A7%D8%AF%DB%8C%DB%81+%D8%A7%D9%85%D8%A7%D9%85+%D8%A8%D8%A7%D8%B1%DA%AF%D8%A7%DB%81%E2%80%AD/data=!4m7!3m6!1s0x39180333e3d2bd25:0xbfcb9e738da0216e!8m2!3d30.669173!4d73.6519147!16s%2Fg%2F11hdx7t9tg!19sChIJJb3S4zMDGDkRbiGgjXOey78?authuser=0&hl=en&rclk=1,"30.669172999999997,73.65191469999999"
Jamia Masjid 55/BD,Mosque,"MF22+454 Jamia Masjid 55/BD, Pipli Pahar - Depalpur Rd, Chak 55/BD, Okara, Punjab, Pakistan",,"MF22+454, Pipli Pahar - Depalpur Rd",Chak 55/BD,,"Okara, Punjab",PK,https://www.google.com/maps/place/Jamia+Masjid+55%2FBD/data=!4m7!3m6!1s0x3922a996cee5bd53:0xd78ce6c110980b16!8m2!3d30.6502747!4d73.4504598!16s%2Fg%2F11fnd0z4x8!19sChIJU73lzpapIjkRFguYEMHmjNc?authuser=0&hl=en&rclk=1,"30.650274699999997,73.45045979999999"
Jameya Masjid Anwar E Muhammadi,Mosque,"MM72+7QC Jameya Masjid Anwar E Muhammadi, Depalpur, Okara, Punjab, Pakistan",,MM72+7QC,Depalpur,,"Okara, Punjab",PK,https://www.google.com/maps/place/Jameya+Masjid+Anwar+E+Muhammadi/data=!4m7!3m6!1s0x39180352e6ee977f:0xc07a85af7bed914a!8m2!3d30.6631827!4d73.6518928!16s%2Fg%2F11d_7y9nnl!19sChIJf5fu5lIDGDkRSpHte6-FesA?authuser=0&hl=en&rclk=1,"30.6631827,73.6518928"
Jamia Masjid Abu-al Qasim Diaram,Mosque,"MH7W+98C Jamia Masjid Abu-al Qasim Diaram, Pipli Pahar - Depalpur Rd, Okara, Punjab, Pakistan",,"MH7W+98C, Pipli Pahar - Depalpur Rd",,,"Okara, Punjab",PK,https://www.google.com/maps/place/Jamia+Masjid+Abu-al+Qasim+Diaram/data=!4m7!3m6!1s0x391803ebde49e5c9:0x720cae37972a8716!8m2!3d30.6638146!4d73.5950209!16s%2Fg%2F11t4x51jl1!19sChIJyeVJ3usDGDkRFocqlzeuDHI?authuser=0&hl=en&rclk=1,"30.6638146,73.5950209"
Mandi Masjid,Mosque,"MMR9+H82 Mandi Masjid, Dipalpur Okara Rd, Dipalpur, Okara, Punjab, Pakistan",,"MMR9+H82, Dipalpur Okara Rd",Depalpur,,"Okara, Punjab",PK,https://www.google.com/maps/place/Mandi+Masjid/data=!4m7!3m6!1s0x39181b8057fe18b1:0x7cef6ca242207015!8m2!3d30.6913836!4d73.6682627!16s%2Fg%2F11gy9xwxs1!19sChIJsRj-V4AbGDkRFXAgQqJs73w?authuser=0&hl=en&rclk=1,"30.691383599999998,73.6682627"
Masjid anwar ul madina,Mosque,"MMF4+4W2 Masjid anwar ul madina, Dipalpur Bypass Rd, Depalpur, Okara, Punjab, Pakistan",,"MMF4+4W2, Dipalpur Bypass Rd",Depalpur,,"Okara, Punjab",PK,https://www.google.com/maps/place/Masjid+anwar+ul+madina/data=!4m7!3m6!1s0x39181bde668e1c71:0x862798bca83cda4d!8m2!3d30.6727568!4d73.6572743!16s%2Fg%2F11rqcww4v3!19sChIJcRyOZt4bGDkRTdo8qLyYJ4Y?authuser=0&hl=en&rclk=1,"30.6727568,73.6572743"
Jamia Masjid Faridia,Mosque,"MMG4+C3X Jamia Masjid Faridia, Ratta khanna Rd, Depalpur, Okara, Punjab, Pakistan",,"MMG4+C3X, Ratta khanna Rd",Depalpur,,"Okara, Punjab",PK,https://www.google.com/maps/place/Jamia+Masjid+Faridia/data=!4m7!3m6!1s0x39181b05c3e3157d:0x967103c338d47a27!8m2!3d30.6761161!4d73.6552188!16s%2Fg%2F11jtdh79fs!19sChIJfRXjwwUbGDkRJ3rUOMMDcZY?authuser=0&hl=en&rclk=1,"30.676116099999998,73.6552188"
masjid chohdry akram,Mosque,"PPF9+54Q masjid chohdry akram, Depalpur, Okara, Punjab, Pakistan",,PPF9+54Q,Depalpur,,"Okara, Punjab",PK,https://www.google.com/maps/place/masjid+chohdry+akram/data=!4m7!3m6!1s0x39181b879a466603:0xcca994d47b37fbee!8m2!3d30.7229641!4d73.7178738!16s%2Fg%2F11g4hv38vt!19sChIJA2ZGmocbGDkR7vs3e9SUqcw?authuser=0&hl=en&rclk=1,"30.7229641,73.71787379999999"
IDGAH Depalpur,Mosque,"RGXP+4G3 IDGAH Depalpur, Depalpur, Madhya Pradesh 453115",,RGXP+4G3,Depalpur,453115,Madhya Pradesh,IN,https://www.google.com/maps/place/IDGAH+Depalpur/data=!4m7!3m6!1s0x3963af7613ca9d71:0x7418d813edd49ead!8m2!3d22.8489539!4d75.5362777!16s%2Fg%2F11t1j_bxrl!19sChIJcZ3KE3avYzkRrZ7U7RPYGHQ?authuser=0&hl=en&rclk=1,"22.848953899999998,75.5362777"
Masjid Zubair,Mosque,"HHWM+3FC Masjid Zubair, Depalpur, Okara, Punjab, Pakistan",,HHWM+3FC,Depalpur,,"Okara, Punjab",PK,https://www.google.com/maps/place/Masjid+Zubair/data=!4m7!3m6!1s0x391803870650fedd:0x214b9927ef49c6c3!8m2!3d30.5951807!4d73.5836479!16s%2Fg%2F11gn1vsc1d!19sChIJ3f5QBocDGDkRw8ZJ7yeZSyE?authuser=0&hl=en&rclk=1,"30.5951807,73.5836479"
husainii cauk,Park,"VG3R+9XJ husainii cauk, Depalpur, Madhya Pradesh 453115",,VG3R+9XJ,Depalpur,453115,Madhya Pradesh,IN,https://www.google.com/maps/place/%E0%A4%B9%E0%A5%81%E0%A4%B8%E0%A5%88%E0%A4%A8%E0%A5%80+%E0%A4%9A%E0%A5%8C%E0%A4%95/data=!4m7!3m6!1s0x3963afabbfccbd31:0x8436357324b153b4!8m2!3d22.8534601!4d75.5423804!16s%2Fg%2F11q8w7w6md!19sChIJMb3Mv6uvYzkRtFOxJHM1NoQ?authuser=0&hl=en&rclk=1,"22.8534601,75.5423804"
Masjid e Madina,Mosque,"MM3Q+6GJ Masjid e Madina, Dipalpur Basirpur Road, Depalpur, Okara, Punjab, Pakistan",,"MM3Q+6GJ, Dipalpur Basirpur Road",Depalpur,,"Okara, Punjab",PK,https://www.google.com/maps/place/Masjid+e+Madina/data=!4m7!3m6!1s0x39181d6277934c23:0xd966263ba864b82e!8m2!3d30.6530844!4d73.6887747!16s%2Fg%2F11q28s1l70!19sChIJI0yTd2IdGDkRLrhkqDsmZtk?authuser=0&hl=en&rclk=1,"30.653084399999997,73.6887747"
Masjid Chak Sarja Depalpur,Mosque,"JGMM+XP4 Masjid Chak Sarja Depalpur, Mehmood Village, Okara, Punjab, Pakistan",,JGMM+XP4,Mehmood Village,,"Okara, Punjab",PK,https://www.google.com/maps/place/Masjid+Chak+Sarja+Depalpur/data=!4m7!3m6!1s0x3918013fe7661ea7:0x22f55fb05533fcf6!8m2!3d30.6348764!4d73.5343357!16s%2Fg%2F11dyzck0lg!19sChIJpx5m5z8BGDkR9vwzVbBf9SI?authuser=0&hl=en&rclk=1,"30.6348764,73.5343357"
Jamia Masjid M. Amin Diaram,Mosque,"MH7X+RGC Jamia Masjid M. Amin Diaram, shyrgrrh rwdd, Depalpur, Okara, Punjab, Pakistan",,"MH7X+RGC, shyrgrrh rwdd",Depalpur,,"Okara, Punjab",PK,https://www.google.com/maps/place/Jamia+Masjid+M.+Amin+Diaram/data=!4m7!3m6!1s0x3918030fe686acc1:0x667ae606f2e32cca!8m2!3d30.6645714!4d73.5987586!16s%2Fg%2F11m7rmxmj_!19sChIJwayG5g8DGDkRyizj8gbmemY?authuser=0&hl=en&rclk=1,"30.6645714,73.5987586"
Jamia masjid siddique mahanta wala,Mosque,"HJR9+2MJ Jamia masjid siddique mahanta wala, Depalpur, Okara, Punjab, Pakistan",,HJR9+2MJ,Depalpur,,"Okara, Punjab",PK,https://www.google.com/maps/place/Jamia+masjid+siddique+mahanta+wala/data=!4m7!3m6!1s0x39180399543ebfad:0xfcc4719938f89d79!8m2!3d30.59008!4d73.6191306!16s%2Fg%2F11j0yhdkv9!19sChIJrb8-VJkDGDkReZ34OJlxxPw?authuser=0&hl=en&rclk=1,"30.59008,73.61913059999999"
jm` msjd wly,Mosque,"MJCW+5Q4 jm` msjd wly, Depalpur, Okara, Punjab, Pakistan",,MJCW+5Q4,Depalpur,,"Okara, Punjab",PK,https://www.google.com/maps/place/%D8%AC%D8%A7%D9%85%D8%B9+%D9%85%D8%B3%D8%AC%D8%AF+%D8%A7%D9%88%D9%84%DB%8C%D8%A7%D8%A1%E2%80%AD/data=!4m7!3m6!1s0x391803fc984b9f3f:0x6b5dec40f5a5c9a1!8m2!3d30.6702136!4d73.6467808!16s%2Fg%2F11s_x1frn7!19sChIJP59LmPwDGDkRocml9UDsXWs?authuser=0&hl=en&rclk=1,"30.6702136,73.6467808"
jm` msjd rHmt hlHdyth (fkhr shh khlwny) dyplpwr Dl` wkhrrh pkhstn,Mosque,"MMF5+WMV jm` msjd rHmt hlHdyth (fkhr shh khlwny) dyplpwr Dl` wkhrrh pkhstn, Depalpur, Okara, Punjab, Pakistan",,MMF5+WMV,Depalpur,,"Okara, Punjab",PK,https://www.google.com/maps/place/%D8%AC%D8%A7%D9%85%D8%B9+%D9%85%D8%B3%D8%AC%D8%AF+%D8%B1%D8%AD%D9%85%D8%AA+%D8%A7%DB%81%D9%84%D8%AD%D8%AF%DB%8C%D8%AB+%28%D9%81%D8%A7%D8%AE%D8%B1+%D8%B4%D8%A7%DB%81+%DA%A9%D8%A7%D9%84%D9%88%D9%86%DB%8C%29+%D8%AF%DB%8C%D9%BE%D8%A7%D9%84%D9%BE%D9%88%D8%B1+%D8%B6%D9%84%D8%B9+%D8%A7%D9%88%DA%A9%D8%A7%DA%91%DB%81+%D9%BE%D8%A7%DA%A9%D8%B3%D8%AA%D8%A7%D9%86%E2%80%AD/data=!4m7!3m6!1s0x39181b52dfaef377:0xffc205accf4d30fb!8m2!3d30.6748508!4d73.6591771!16s%2Fg%2F11qndl0pvc!19sChIJd_Ou31IbGDkR-zBNz6wFwv8?authuser=0&hl=en&rclk=1,"30.674850799999998,73.6591771"
Jaam-e-Masjid Tahiria,Mosque,"JH3V+FJW Jaam-e-Masjid Tahiria, Depalpur, Okara, Punjab, Pakistan",,JH3V+FJW,Depalpur,,"Okara, Punjab",PK,https://www.google.com/maps/place/Jaam-e-Masjid+Tahiria/data=!4m7!3m6!1s0x391803f53c23b497:0xdfbfc6104b33d5e9!8m2!3d30.6037314!4d73.5940828!16s%2Fg%2F11rfpzsx9s!19sChIJl7QjPPUDGDkR6dUzSxDGv98?authuser=0&hl=en&rclk=1,"30.603731399999997,73.5940828"
Jamia Masjid Muhammad Rasool Ul Allah,Place of worship,"MM74+7JG Jamia Masjid Muhammad Rasool Ul Allah, Depalpur, Okara, Punjab, Pakistan",,MM74+7JG,Depalpur,,"Okara, Punjab",PK,https://www.google.com/maps/place/Jamia+Masjid+Muhammad+Rasool+Ul+Allah/data=!4m7!3m6!1s0x39181dcec339e537:0x6d0aafd9a968fc5e!8m2!3d30.6631979!4d73.6565846!16s%2Fg%2F11j85yq3v6!19sChIJN-U5w84dGDkRXvxoqdmvCm0?authuser=0&hl=en&rclk=1,"30.6631979,73.6565846"
Jaama Masjid Billod,Mosque,"MG8C+3W8 Jaama Masjid Billod, Village Billod, Tahseel, Depalpur, Madhya Pradesh",,"MG8C+3W8, Village Billod, Tahseel","Depalpur, Ghatabillod",,Madhya Pradesh,IN,https://www.google.com/maps/place/Jaama+Masjid+Billod/data=!4m7!3m6!1s0x39624d1d64ed5ae3:0xcedc46c768912306!8m2!3d22.665174!4d75.5223207!16s%2Fg%2F11rb3xnhmq!19sChIJ41rtZB1NYjkRBiORaMdG3M4?authuser=0&hl=en&rclk=1,"22.665174,75.5223207"
Masjid Kot Wali Muhammad Watto msjd khwtt wly mHmd wttw,Mosque,"JGJG+H6R Masjid Kot Wali Muhammad Watto msjd khwtt wly mHmd wttw, Chipli Pur, Bhagwanpura Okara, Okara, Punjab, Pakistan",,JGJG+H6R Chipli Pur,Bhagwanpura Okara,,"Okara, Punjab",PK,https://www.google.com/maps/place/Masjid+Kot+Wali+Muhammad+Watto+%D9%85%D8%B3%D8%AC%D8%AF+%DA%A9%D9%88%D9%B9+%D9%88%D9%84%DB%8C+%D9%85%D8%AD%D9%85%D8%AF+%D9%88%D9%B9%D9%88%E2%80%AD/data=!4m7!3m6!1s0x3918012dca6ce185:0x48d461bda730fa8f!8m2!3d30.6314757!4d73.5255212!16s%2Fg%2F11tfw40hf_!19sChIJheFsyi0BGDkRj_owp71h1Eg?authuser=0&hl=en&rclk=1,"30.6314757,73.5255212"
Jamia masjid maaz bin jabal madrasa,Mosque,"MM46+M74 Jamia masjid maaz bin jabal madrasa, Wasawewala Road, Officers Colony, Depalpur, Okara, Punjab, Pakistan",Officers Colony,"MM46+M74, Wasawewala Road",Depalpur,,"Okara, Punjab",PK,https://www.google.com/maps/place/Jamia+masjid+maaz+bin+jabal+madrasa/data=!4m7!3m6!1s0x39181d63f55ecedb:0xd26b1909aad69f63!8m2!3d30.6566345!4d73.6607159!16s%2Fg%2F11j1hgt74p!19sChIJ285e9WMdGDkRY5_WqgkZa9I?authuser=0&hl=en&rclk=1,"30.6566345,73.6607159"
Masjid THQ Depalpur,Mosque,"Masjid THQ Depalpur, District Hospital Depalpur, Depalpur, Okara, Punjab, Pakistan",,District Hospital Depalpur,Depalpur,,"Okara, Punjab",PK,https://www.google.com/maps/place/Masjid+THQ+Depalpur/data=!4m7!3m6!1s0x39181b6759baffc7:0x60360daeca5be9a!8m2!3d30.6737743!4d73.6657732!16s%2Fg%2F11ljtyj8rs!19sChIJx_-6WWcbGDkRmr6l7NpgAwY?authuser=0&hl=en&rclk=1,"30.673774299999998,73.66577319999999"
Syed Kanjuddin Sarkar Dargah,Mosque,"VG3V+G4C Syed Kanjuddin Sarkar Dargah, Depalpur, Madhya Pradesh 453115",,VG3V+G4C,Depalpur,453115,Madhya Pradesh,IN,https://www.google.com/maps/place/Syed+Kanjuddin+Sarkar+Dargah/data=!4m7!3m6!1s0x3963afa31c1a9c55:0x65ffdcf7cbfeacbf!8m2!3d22.8538073!4d75.5427601!16s%2Fg%2F11pv6y0ccr!19sChIJVZwaHKOvYzkRv6z-y_fc_2U?authuser=0&hl=en&rclk=1,"22.8538073,75.5427601"
msjd,Mosque,"MM93+PQ msjd, Depalpur, Okara, Punjab, Pakistan",,MM93+PQ,Depalpur,,"Okara, Punjab",PK,https://www.google.com/maps/place/%D9%85%D8%B3%D8%AC%D8%AF%E2%80%AD/data=!4m7!3m6!1s0x39181dd41d28b7ab:0x8e34cd9002b1a316!8m2!3d30.6693516!4d73.6544169!16s%2Fg%2F11rq39mcz6!19sChIJq7coHdQdGDkRFqOxApDNNI4?authuser=0&hl=en&rclk=1,"30.6693516,73.6544169"
husainii imaam baargaah,Religious destination,"VG2V+W4M husainii imaam baargaah, Near jama Masjid banediya, Depalpur, Madhya Pradesh 453115",,"VG2V+W4M, Near jama Masjid banediya",Depalpur,453115,Madhya Pradesh,IN,https://www.google.com/maps/place/%E0%A4%B9%E0%A5%81%E0%A4%B8%E0%A5%88%E0%A4%A8%E0%A5%80+%E0%A4%87%E0%A4%AE%E0%A4%BE%E0%A4%AE+%E0%A4%AC%E0%A4%BE%E0%A4%B0%E0%A4%97%E0%A4%BE%E0%A4%B9/data=!4m7!3m6!1s0x3963af0c2cc31007:0xfbae56eb65fc940a!8m2!3d22.8521474!4d75.5427819!16s%2Fg%2F11kk5c0523!19sChIJBxDDLAyvYzkRCpT8ZetWrvs?authuser=0&hl=en&rclk=1,"22.8521474,75.5427819"
Syed Akalshah Baba Dargah,Religious destination,"VG2V+XF7 Syed Akalshah Baba Dargah, Depalpur, Madhya Pradesh 453115",,VG2V+XF7,Depalpur,453115,Madhya Pradesh,IN,https://www.google.com/maps/place/Syed+Akalshah+Baba+Dargah/data=!4m7!3m6!1s0x3963ae33de210a4d:0xd6d221b6c873093c!8m2!3d22.8524201!4d75.5436662!16s%2Fg%2F11hbby0lv5!19sChIJTQoh3jOuYzkRPAlzyLYh0tY?authuser=0&hl=en&rclk=1,"22.8524201,75.54366619999999"
Masjid-e-ghafooraa,Mosque,"MJFV+5V5 Masjid-e-ghafooraa, Exchange Road, Depalpur, Okara, Punjab, Pakistan",,"MJFV+5V5, Exchange Road",Depalpur,,"Okara, Punjab",PK,https://www.google.com/maps/place/Masjid-e-ghafooraa/data=!4m7!3m6!1s0x3918050be7735e07:0xb25ae8770109365e!8m2!3d30.6728771!4d73.6447292!16s%2Fg%2F11h7cq6_c8!19sChIJB15z5wsFGDkRXjYJAXfoWrI?authuser=0&hl=en&rclk=1,"30.672877099999997,73.6447292"
Ghosia Masjid (Dawateislami),Mosque,"Ghosia Masjid (Dawateislami), Ghosia Masjid (Dawateislami, Pipli Pahar - Dipalpur Rd, Depalpur, Okara, Punjab, Pakistan",,"Ghosia Masjid (Dawateislami, Pipli Pahar - Dipalpur Rd",Depalpur,,"Okara, Punjab",PK,https://www.google.com/maps/place/Ghosia+Masjid+%28Dawateislami%29/data=!4m7!3m6!1s0x391803481fd1c663:0xdd738bf4a4c70748!8m2!3d30.6682832!4d73.6360172!16s%2Fg%2F11hz6pxhgt!19sChIJY8bRH0gDGDkRSAfHpPSLc90?authuser=0&hl=en&rclk=1,"30.668283199999998,73.6360172"
Jamia Masjid Bahadur Ali,Mosque,"MJFV+VMP Jamia Masjid Bahadur Ali, Depalpur, Okara, Punjab, Pakistan",,MJFV+VMP,Depalpur,,"Okara, Punjab",PK,https://www.google.com/maps/place/Jamia+Masjid+Bahadur+Ali/data=!4m7!3m6!1s0x3918056190828225:0xb38a918f5a078113!8m2!3d30.6747087!4d73.6442009!16s%2Fg%2F11p5t8xvyq!19sChIJJYKCkGEFGDkRE4EHWo-RirM?authuser=0&hl=en&rclk=1,"30.6747087,73.6442009"
Masjid Boor Wali,Mosque,"MM94+2CW Masjid Boor Wali, Depalpur, Okara, Punjab, Pakistan",,MM94+2CW,Depalpur,,"Okara, Punjab",PK,https://www.google.com/maps/place/Masjid+Boor+Wali/data=!4m7!3m6!1s0x39181d3e70ba76d9:0xe1975b24f8e6771b!8m2!3d30.66762!4d73.6560677!16s%2Fg%2F11tfsldy6y!19sChIJ2Xa6cD4dGDkRG3fm-CRbl-E?authuser=0&hl=en&rclk=1,"30.66762,73.6560677"
Masjid Kot Ali Akbar (Odanwali),Mosque,"HHW4+2MV Masjid Kot Ali Akbar (Odanwali), Odanwali, Depalpur, Okara, Punjab, Pakistan",,"HHW4+2MV, Odanwali",Depalpur,,"Okara, Punjab",PK,https://www.google.com/maps/place/Masjid+Kot+Ali+Akbar+%28Odanwali%29/data=!4m7!3m6!1s0x3918018afe5970e1:0x834fe1df2c759b23!8m2!3d30.5951049!4d73.5566807!16s%2Fg%2F11df3phdy1!19sChIJ4XBZ_ooBGDkRI5t1LN_hT4M?authuser=0&hl=en&rclk=1,"30.5951049,73.5566807"
Masjid Abu Bakr Sadeeq,Mosque,"MM93+P3R Masjid Abu Bakr Sadeeq, Depalpur, Okara, Punjab, Pakistan",,MM93+P3R,Depalpur,,"Okara, Punjab",PK,https://www.google.com/maps/place/Masjid+Abu+Bakr+Sadeeq/data=!4m7!3m6!1s0x39180335838f0461:0xa3b659e97807c1a1!8m2!3d30.6693699!4d73.652643!16s%2Fg%2F11s624r6s4!19sChIJYQSPgzUDGDkRocEHeOlZtqM?authuser=0&hl=en&rclk=1,"30.6693699,73.652643"
Masjid Riazul Jannah Depalpur,Private university,"MJ6Q+93R Masjid Riazul Jannah Depalpur, Depalpur, Okara, Punjab, Pakistan",,MJ6Q+93R,Depalpur,,"Okara, Punjab",PK,https://www.google.com/maps/place/Masjid+Riazul+Jannah+Depalpur/data=!4m7!3m6!1s0x3918031f50ab39e3:0xf9efb9336a9b8a9f!8m2!3d30.6609992!4d73.637654!16s%2Fg%2F11gl4k13g4!19sChIJ4zmrUB8DGDkRn4qbajO57_k?authuser=0&hl=en&rclk=1,"30.6609992,73.637654"
Jamia Masjid Faizan-e-Mehboobia,Mosque,"Jamia Masjid Faizan-e-Mehboobia, Madina-Tul-Mehboob, Dipalpur-Okara Road, Chak 38-D Depalpur, Okara, Punjab 56180, Pakistan",Chak 38-D,"Madina-Tul-Mehboob, Dipalpur-Okara Road",Depalpur,56180,"Okara, Punjab",PK,https://www.google.com/maps/place/Jamia+Masjid+Faizan-e-Mehboobia/data=!4m7!3m6!1s0x39180506ff1503bf:0xb7ab416e5cef00c9!8m2!3d30.719519!4d73.6097318!16s%2Fg%2F11xdltd1q!19sChIJvwMV_wYFGDkRyQDvXG5Bq7c?authuser=0&hl=en&rclk=1,"30.719519,73.60973179999999"
Jamia Masjid ashra mubashra,Mosque,"MMH3+RJR Jamia Masjid ashra mubashra, Khalil Abad Colony St, Depalpur, Okara, Punjab, Pakistan",,"MMH3+RJR, Khalil Abad Colony St",Depalpur,,"Okara, Punjab",PK,https://www.google.com/maps/place/Jamia+Masjid+ashra+mubashra/data=!4m7!3m6!1s0x39181b7be6f4c9d9:0x2431ce56b2a94cff!8m2!3d30.6796092!4d73.6540094!16s%2Fg%2F11nh8nxgfg!19sChIJ2cn05nsbGDkR_0ypslbOMSQ?authuser=0&hl=en&rclk=1,"30.679609199999998,73.65400939999999"
Masijd Jama tul Muslimeen,Mosque,"MMG9+7C3 Masijd Jama tul Muslimeen, Kasor Rd, Depalpur, Okara, Punjab, Pakistan",,"MMG9+7C3, Kasor Rd",Depalpur,,"Okara, Punjab",PK,https://www.google.com/maps/place/Masijd+Jama+tul+Muslimeen/data=!4m7!3m6!1s0x39181b49388df037:0x48ef92381a93940f!8m2!3d30.6756319!4d73.6685563!16s%2Fg%2F11h_tvp5z7!19sChIJN_CNOEkbGDkRD5STGjiS70g?authuser=0&hl=en&rclk=1,"30.6756319,73.66855629999999"
Jamia Masjid Pipli Mehtab Rai,Mosque,"CJRV+GFF Jamia Masjid Pipli Mehtab Rai, Depalpur - Pakpattan Rd, Pipli Mahtab Rai, Okara, Punjab, Pakistan",,"CJRV+GFF, Depalpur - Pakpattan Rd",Pipli Mahtab Rai,,"Okara, Punjab",PK,https://www.google.com/maps/place/Jamia+Masjid+Pipli+Mehtab+Rai/data=!4m7!3m6!1s0x3917fb5284caaaa5:0x24c9d838d6930c1c!8m2!3d30.4413044!4d73.6436795!16s%2Fg%2F11h9pd2c9p!19sChIJparKhFL7FzkRHAyT1jjYySQ?authuser=0&hl=en&rclk=1,"30.4413044,73.64367949999999"
Mudarsa Tahfeezul Quran Jamia Masjid Mahmoodiya,Mosque,"Mudarsa Tahfeezul Quran Jamia Masjid Mahmoodiya, Pipli Pahar, Depalpur Rd, Okara, Punjab, Pakistan",,"Pipli Pahar, Depalpur Rd",Okara,,"Okara, Punjab",PK,https://www.google.com/maps/place/Mudarsa+Tahfeezul+Quran+Jamia+Masjid+Mahmoodiya/data=!4m7!3m6!1s0x391803aec00087f3:0x226261061ff64aea!8m2!3d30.6689752!4d73.6433276!16s%2Fg%2F11s5p64cmb!19sChIJ84cAwK4DGDkR6kr2HwZhYiI?authuser=0&hl=en&rclk=1,"30.6689752,73.64332759999999"
Masjid Officer Colony,Mosque,"MM44+QCP Masjid Officer Colony, Wasawewala Road, Officers Colony, Depalpur, Okara, Punjab, Pakistan",Officers Colony,"MM44+QCP, Wasawewala Road",Depalpur,,"Okara, Punjab",PK,https://www.google.com/maps/place/Masjid+Officer+Colony/data=!4m7!3m6!1s0x39181d15e56af74b:0x2f5c0afd5f6ebac7!8m2!3d30.6569745!4d73.6560834!16s%2Fg%2F11np324pgp!19sChIJS_dq5RUdGDkRx7puX_0KXC8?authuser=0&hl=en&rclk=1,"30.656974499999997,73.6560834"
Jamia Masjid Hanzla,Mosque,"MH7W+98C Jamia Masjid Hanzla, Pipli Pahar - Depalpur Rd, Okara, Punjab, Pakistan",,"MH7W+98C, Pipli Pahar - Depalpur Rd",,,"Okara, Punjab",PK,https://www.google.com/maps/place/Jamia+Masjid+Hanzla/data=!4m7!3m6!1s0x3918034a6b78f8c7:0x5662ac713b183bd9!8m2!3d30.6634299!4d73.5957723!16s%2Fg%2F11jp0v8ccb!19sChIJx_h4a0oDGDkR2TsYO3GsYlY?authuser=0&hl=en&rclk=1,"30.663429899999997,73.5957723"
Jamia Gosia Qadaria,Mosque,"P356+G2F Jamia Gosia Qadaria, Bheela Gulab Singh Tehsil, Dipalpur, Okara, Punjab, Pakistan",,"P356+G2F, Bheela Gulab Singh Tehsil",Depalpur,,"Okara, Punjab",PK,https://www.google.com/maps/place/Jamia+Gosia+Qadaria/data=!4m7!3m6!1s0x391828c42490a115:0xeac3ddd8a13a83f9!8m2!3d30.7088009!4d74.0600343!16s%2Fg%2F11g8btz6ps!19sChIJFaGQJMQoGDkR-YM6odjdw-o?authuser=0&hl=en&rclk=1,"30.7088009,74.0600343"
msjd khtm lnbyyn Masjid Khatam Nabiyeen,Mosque,"4C6C+X2J msjd khtm lnbyyn Masjid Khatam Nabiyeen, Depalpur Bypass Rd, Kasur, Punjab, Pakistan",,"4C6C+X2J, Depalpur Bypass Rd",Kasur,,"Kasur, Punjab",PK,https://www.google.com/maps/place/%D9%85%D8%B3%D8%AC%D8%AF+%D8%AE%D8%A7%D8%AA%D9%85+%D8%A7%D9%84%D9%86%D8%A8%DB%8C%DB%8C%D9%86+Masjid+Khatam+Nabiyeen%E2%80%AD/data=!4m7!3m6!1s0x3919b94cafd169f5:0x3f17ac91c65f42a9!8m2!3d31.1124592!4d74.4200151!16s%2Fg%2F11k3f19h89!19sChIJ9WnRr0y5GTkRqUJfxpGsFz8?authuser=0&hl=en&rclk=1,"31.1124592,74.4200151"
Jamia Masjid (Ahl e Sunnat) Delianwali,Mosque,"HGWM+3GX Jamia Masjid (Ahl e Sunnat) Delianwali, delianwali Tehsil, Pakistan, Depalpur, Okara, Punjab, Pakistan",,"HGWM+3GX, delianwali Tehsil, Pakistan",Depalpur,,"Okara, Punjab",PK,https://www.google.com/maps/place/Jamia+Masjid+%28Ahl+e+Sunnat%29+Delianwali/data=!4m7!3m6!1s0x391801bdd88fdb97:0x72fe09ea658896c5!8m2!3d30.5952392!4d73.5338735!16s%2Fg%2F11df1tgg5l!19sChIJl9uP2L0BGDkRxZaIZeoJ_nI?authuser=0&hl=en&rclk=1,"30.595239199999998,73.5338735"
msjd Masjid,Mosque,"9987+8W8 msjd Masjid, Depalpur Rd, Pakpattan, Pakpattan, Punjab, Pakistan",,"9987+8W8, Depalpur Rd",Pakpattan,,"Pakpattan, Punjab",PK,https://www.google.com/maps/place/%D9%85%D8%B3%D8%AC%D8%AF+Masjid%E2%80%AD/data=!4m7!3m6!1s0x393d5bd2f374975f:0x327b6d946bd23840!8m2!3d30.3657909!4d73.364826!16s%2Fg%2F11j0tdsmwp!19sChIJX5d089JbPTkRQDjSa5RtezI?authuser=0&hl=en&rclk=1,"30.3657909,73.364826"
jamia masjid,Hospital,"MJGX+Q3X jamia masjid, T H Q Hospital, Depalpur, Okara, Punjab, Pakistan",,"MJGX+Q3X, T H Q Hospital",Depalpur,,"Okara, Punjab",PK,https://www.google.com/maps/place/jamia+masjid/data=!4m7!3m6!1s0x391805f1345fa4eb:0x48f0ddaa56b71b29!8m2!3d30.6769981!4d73.6477342!16s%2Fg%2F11gwl2d0jn!19sChIJ66RfNPEFGDkRKRu3Vqrd8Eg?authuser=0&hl=en&rclk=1,"30.6769981,73.6477342"
Masjid Hussain bin Ali,Mosque,"4CHP+WRJ Masjid Hussain bin Ali, Bhatti hospital new byepass, Depalpur Bypass Rd, Kasur, Punjab, Pakistan",,"4CHP+WRJ, Bhatti hospital new byepass, Depalpur Bypass Rd",Kasur,,"Kasur, Punjab",PK,https://www.google.com/maps/place/Masjid+Hussain+bin+Ali/data=!4m7!3m6!1s0x3919bb99505bdba5:0x85bec76ca1e7d36c!8m2!3d31.1298487!4d74.4370114!16s%2Fg%2F11jgjdbsdv!19sChIJpdtbUJm7GTkRbNPnoWzHvoU?authuser=0&hl=en&rclk=1,"31.1298487,74.4370114"
Shree ram mandir,Hindu temple,"VG2V+X27 Shree ram mandir, Depalpur, Madhya Pradesh 453115",,VG2V+X27,Depalpur,453115,Madhya Pradesh,IN,https://www.google.com/maps/place/Shree+ram+mandir/data=!4m7!3m6!1s0x3963afcd5f297cef:0xae73047807fe7c0!8m2!3d22.8524059!4d75.5425333!16s%2Fg%2F11rmv3x9q9!19sChIJ73wpX82vYzkRwOd_gEcw5wo?authuser=0&hl=en&rclk=1,"22.852405899999997,75.5425333"
"raajendr coklett,golii evN biskitt ejeNsii",Shopping mall,"VG2V+WRM raajendr coklett,golii evN biskitt ejeNsii, Depalpur, Madhya Pradesh 453115",,VG2V+WRM,Depalpur,453115,Madhya Pradesh,IN,"https://www.google.com/maps/place/%E0%A4%B0%E0%A4%BE%E0%A4%9C%E0%A5%87%E0%A4%A8%E0%A5%8D%E0%A4%A6%E0%A5%8D%E0%A4%B0+%E0%A4%9A%E0%A5%8B%E0%A4%95%E0%A4%B2%E0%A5%87%E0%A4%9F,%E0%A4%97%E0%A5%8B%E0%A4%B2%E0%A5%80+%E0%A4%8F%E0%A4%B5%E0%A4%82+%E0%A4%AC%E0%A4%BF%E0%A4%B8%E0%A5%8D%E0%A4%95%E0%A4%BF%E0%A4%9F+%E0%A4%8F%E0%A4%9C%E0%A5%87%E0%A4%82%E0%A4%B8%E0%A5%80/data=!4m7!3m6!1s0x3963af63a1f58177:0xf314175b28e5f92c!8m2!3d22.852326!4d75.544559!16s%2Fg%2F11pkdv_l4m!19sChIJd4H1oWOvYzkRLPnlKFsXFPM?authuser=0&hl=en&rclk=1","22.852325999999998,75.54455899999999"
junaa baaj'aar,Market,"VG2R+XPR junaa baaj'aar, Depalpur, Madhya Pradesh 453115",,VG2R+XPR,Depalpur,453115,Madhya Pradesh,IN,https://www.google.com/maps/place/%E0%A4%9C%E0%A5%81%E0%A4%A8%E0%A4%BE+%E0%A4%AC%E0%A4%BE%E0%A4%9C%E0%A4%BC%E0%A4%BE%E0%A4%B0/data=!4m7!3m6!1s0x3963af7b04360053:0xbdb6d1dd3bd5c594!8m2!3d22.8524912!4d75.5417659!16s%2Fg%2F11rsg7zmr4!19sChIJUwA2BHuvYzkRlMXVO93Rtr0?authuser=0&hl=en&rclk=1,"22.8524912,75.5417659"
Masjid,Mosque,"PM42+XXH Masjid, Depalpur, Okara, Punjab, Pakistan",,PM42+XXH,Depalpur,,"Okara, Punjab",PK,https://www.google.com/maps/place/Masjid/data=!4m7!3m6!1s0x391805752a21ec21:0xa80b3a58a9532373!8m2!3d30.7074384!4d73.6524966!16s%2Fg%2F11lgym_h7z!19sChIJIewhKnUFGDkRcyNTqVg6C6g?authuser=0&hl=en&rclk=1,"30.707438399999997,73.65249659999999"
Masjid ul Bashir Kot Bhattian Okara Rd Depalpur,Mosque,"MJQR+998 Masjid ul Bashir Kot Bhattian Okara Rd Depalpur, Depalpur, Okara, Punjab, Pakistan",,MJQR+998,Depalpur,,"Okara, Punjab",PK,https://www.google.com/maps/place/Masjid+ul+Bashir+Kot+Bhattian+Okara+Rd+Depalpur/data=!4m7!3m6!1s0x391805a40bfcc395:0x3c5c71da25a04283!8m2!3d30.6884034!4d73.6409375!16s%2Fg%2F11l5dcyt2l!19sChIJlcP8C6QFGDkRg0KgJdpxXDw?authuser=0&hl=en&rclk=1,"30.6884034,73.64093749999999"
Bilal masjid,Mosque,"MM94+5V3 Bilal masjid, Depalpur, Okara, Punjab, Pakistan",,MM94+5V3,Depalpur,,"Okara, Punjab",PK,https://www.google.com/maps/place/Bilal+masjid/data=!4m7!3m6!1s0x39181d9102bf1379:0x8530df23ca7a327a!8m2!3d30.6678765!4d73.6571579!16s%2Fg%2F11rxpf95fh!19sChIJeRO_ApEdGDkRejJ6yiPfMIU?authuser=0&hl=en&rclk=1,"30.6678765,73.6571579"
"Masjid Chak Odanwali Kacha Pakka ,Depalpur",Mosque,"HHR5+78C Masjid Chak Odanwali Kacha Pakka ,Depalpur, Toheed Pur, Okara, Punjab, Pakistan",,HHR5+78C,Toheed Pur,,"Okara, Punjab",PK,"https://www.google.com/maps/place/Masjid+Chak+Odanwali+Kacha+Pakka+,Depalpur/data=!4m7!3m6!1s0x391801f56e1aff01:0xcd7a57b78a1aff6c!8m2!3d30.5906838!4d73.5582677!16s%2Fg%2F11dd_ttkxv!19sChIJAf8abvUBGDkRbP8airdXes0?authuser=0&hl=en&rclk=1","30.590683799999997,73.5582677"
Jamie masjid,Mosque,"MJQQ+MQV Jamie masjid, Kot bhattian, Okara Rd, Depalpur, Okara, Punjab, Pakistan",,"MJQQ+MQV, Kot bhattian, Okara Rd",Depalpur,,"Okara, Punjab",PK,https://www.google.com/maps/place/Jamie+masjid/data=!4m7!3m6!1s0x3918050d22264d4f:0x1412fe6e8b6b3505!8m2!3d30.6892357!4d73.6394237!16s%2Fg%2F11hfg1dlql!19sChIJT00mIg0FGDkRBTVri27-EhQ?authuser=0&hl=en&rclk=1,"30.689235699999998,73.6394237"
Jamia masjid suleman khel,Mosque,"Jamia masjid suleman khel, 36/2L, Okara Road, Depalpur, Okara, Punjab, Pakistan",,"36/2L, Okara Road",Depalpur,,"Okara, Punjab",PK,https://www.google.com/maps/place/Jamia+masjid+suleman+khel/data=!4m7!3m6!1s0x3922a9311b0927eb:0x906f86c8a4866783!8m2!3d30.670194!4d73.4518925!16s%2Fg%2F11rmdtf5yk!19sChIJ6ycJGzGpIjkRg2eGpMiGb5A?authuser=0&hl=en&rclk=1,"30.670194,73.4518925"
Masjid msjd,Mosque,"HHF8+R88 Masjid msjd, Depalpur Rd, Okara, Punjab, Pakistan",,"HHF8+R88, Depalpur Rd",,,"Okara, Punjab",PK,https://www.google.com/maps/place/Masjid+%D9%85%D8%B3%D8%AC%D8%AF%E2%80%AD/data=!4m7!3m6!1s0x39180309534ace2d:0xc46315cd3dd30719!8m2!3d30.5745445!4d73.5658286!16s%2Fg%2F11n5d6l7nl!19sChIJLc5KUwkDGDkRGQfTPc0VY8Q?authuser=0&hl=en&rclk=1,"30.5745445,73.5658286"
msjd,Mosque,"MJ2H+43 msjd, Depalpur, Okara, Punjab, Pakistan",,MJ2H+43,Depalpur,,"Okara, Punjab",PK,https://www.google.com/maps/place/%D9%85%D8%B3%D8%AC%D8%AF%E2%80%AD/data=!4m7!3m6!1s0x3918039c176ebea5:0xebed55535aa85c48!8m2!3d30.6502843!4d73.6276227!16s%2Fg%2F11sppc1sv5!19sChIJpb5uF5wDGDkRSFyoWlNV7es?authuser=0&hl=en&rclk=1,"30.6502843,73.6276227"
Masjid Gulzar E Madina,Mosque,"MMG5+9RM Masjid Gulzar E Madina, Depalpur, Okara, Punjab, Pakistan",,MMG5+9RM,Depalpur,,"Okara, Punjab",PK,https://www.google.com/maps/place/Masjid+Gulzar+E+Madina/data=!4m7!3m6!1s0x39181b53f04416d9:0x697941546099df48!8m2!3d30.6759667!4d73.6595577!16s%2Fg%2F11swgm7hrc!19sChIJ2RZE8FMbGDkRSN-ZYFRBeWk?authuser=0&hl=en&rclk=1,"30.6759667,73.6595577"
Jamia Masjid Siddiqia,Mosque,"MM93+527 Jamia Masjid Siddiqia, Mohallah Gurdial Depalpur, Okara, Punjab, Pakistan",Mohallah Gurdial,MM93+527,Depalpur,,"Okara, Punjab",PK,https://www.google.com/maps/place/Jamia+Masjid+Siddiqia/data=!4m7!3m6!1s0x391803555e84a6c7:0xc4190a937ab21453!8m2!3d30.6679225!4d73.6525521!16s%2Fg%2F11ll577lvn!19sChIJx6aEXlUDGDkRUxSyepMKGcQ?authuser=0&hl=en&rclk=1,"30.6679225,73.6525521"
Jamia Masjid Rabania,Mosque,"JM64+GCC Jamia Masjid Rabania, Depalpur, Okara, Punjab, Pakistan",,JM64+GCC,Depalpur,,"Okara, Punjab",PK,https://www.google.com/maps/place/Jamia+Masjid+Rabania/data=!4m7!3m6!1s0x39181d8ac89df1b1:0x7bed00e544210d6e!8m2!3d30.6113192!4d73.6560241!16s%2Fg%2F11fs_j85kt!19sChIJsfGdyIodGDkRbg0hROUA7Xs?authuser=0&hl=en&rclk=1,"30.611319199999997,73.6560241"
Jamyan Musjid Norani,Mosque,"Jamyan Musjid Norani, Tooranwala khu, Depalpur, Okara, Punjab, Pakistan",,Tooranwala khu,Depalpur,,"Okara, Punjab",PK,https://www.google.com/maps/place/Jamyan+Musjid+Norani/data=!4m7!3m6!1s0x39181bc2a56590af:0x6e30065a3dd1cc9!8m2!3d30.7294209!4d73.6789378!16s%2Fg%2F11s5fs5j4l!19sChIJr5BlpcIbGDkRyRzdo2UA4wY?authuser=0&hl=en&rclk=1,"30.729420899999997,73.6789378"
Jamia Masjid Sadaqat Yousaf Ahl e Hadees,Mosque,"MMH9+G9R Jamia Masjid Sadaqat Yousaf Ahl e Hadees, Okara Road, Depalpur, Okara, Punjab, Pakistan",,"MMH9+G9R, Okara Road",Depalpur,,"Okara, Punjab",PK,https://www.google.com/maps/place/Jamia+Masjid+Sadaqat+Yousaf+Ahl+e+Hadees/data=!4m7!3m6!1s0x39181b1306f3524b:0x1dc5ab572b0122d4!8m2!3d30.6788642!4d73.668381!16s%2Fg%2F11kgqnxtz0!19sChIJS1LzBhMbGDkR1CIBK1erxR0?authuser=0&hl=en&rclk=1,"30.6788642,73.668381"
Jamia Masjid Elahya Ahl e Hadith,Mosque,"Jamia Masjid Elahya Ahl e Hadith, Qila Tara Singh, Depalpur, Okara, Punjab, Pakistan",,Qila Tara Singh,Depalpur,,"Okara, Punjab",PK,https://www.google.com/maps/place/Jamia+Masjid+Elahya+Ahl+e+Hadith/data=!4m7!3m6!1s0x391805c664bcee51:0xe686ad234b8ec92e!8m2!3d30.6750315!4d73.6227802!16s%2Fg%2F11px5cd3pw!19sChIJUe68ZMYFGDkRLsmOSyOthuY?authuser=0&hl=en&rclk=1,"30.6750315,73.6227802"
Jamia Masjid Koat bhattian,Mosque,"MJQR+J28 Jamia Masjid Koat bhattian, Okara Rd, Dipalpur, Okara, Punjab, Pakistan",,"MJQR+J28, Okara Rd",Depalpur,,"Okara, Punjab",PK,https://www.google.com/maps/place/Jamia+Masjid+Koat+bhattian/data=!4m7!3m6!1s0x39180593653eaee7:0x346735e0bf03f1c4!8m2!3d30.6890265!4d73.6400898!16s%2Fg%2F11ftvvbc7d!19sChIJ564-ZZMFGDkRxPEDv-A1ZzQ?authuser=0&hl=en&rclk=1,"30.689026499999997,73.6400898"
Jamia Masjid Nathu Shah,Mosque,"Jamia Masjid Nathu Shah, Nathu shah, Depalpur, Okara, Punjab, Pakistan",,Nathu shah,Depalpur,,"Okara, Punjab",PK,https://www.google.com/maps/place/Jamia+Masjid+Nathu+Shah/data=!4m7!3m6!1s0x3918033b85dc0dd3:0xac89b034b7329b80!8m2!3d30.6366367!4d73.5874316!16s%2Fg%2F11kj4ls5pt!19sChIJ0w3chTsDGDkRgJsytzSwiaw?authuser=0&hl=en&rclk=1,"30.6366367,73.5874316"
"Jamia Masjid Faridia, 38/D Kalan",Mosque,"MJGX+Q3X Jamia Masjid Faridia, 38/D Kalan, Chak 38, Depalpur, Okara, Punjab 54180, Pakistan",,"MJGX+Q3X, Chak 38",Depalpur,54180,"Okara, Punjab",PK,"https://www.google.com/maps/place/Jamia+Masjid+Faridia,+38%2FD+Kalan/data=!4m7!3m6!1s0x39180504a4108da5:0x5461e1c18ace2f59!8m2!3d30.6769981!4d73.6477342!16s%2Fg%2F11qrkvj6tx!19sChIJpY0QpAQFGDkRWS_OisHhYVQ?authuser=0&hl=en&rclk=1","30.6769981,73.6477342"
Masjid Ghulam Sughra,Mosque,"PM8Q+XH2 Masjid Ghulam Sughra, Depalpur, Okara, Punjab, Pakistan",,PM8Q+XH2,Depalpur,,"Okara, Punjab",PK,https://www.google.com/maps/place/Masjid+Ghulam+Sughra/data=!4m7!3m6!1s0x39181b98522019eb:0xef54c15e7fb55ab6!8m2!3d30.7173912!4d73.6888976!16s%2Fg%2F11q1gd52x6!19sChIJ6xkgUpgbGDkRtlq1f17BVO8?authuser=0&hl=en&rclk=1,"30.717391199999998,73.68889759999999"
Jamya e ghosya masjid,Mosque,"MF52+JM3 Jamya e ghosya masjid, Pipli Pahar - Depalpur Rd, Okara, Punjab, Pakistan",,"MF52+JM3, Pipli Pahar - Depalpur Rd",,,"Okara, Punjab",PK,https://www.google.com/maps/place/Jamya+e+ghosya+masjid/data=!4m7!3m6!1s0x3922a9cfac195933:0x8033fed84497ed00!8m2!3d30.6590017!4d73.4516669!16s%2Fg%2F11fqy6p5l1!19sChIJM1kZrM-pIjkRAO2XRNj-M4A?authuser=0&hl=en&rclk=1,"30.659001699999997,73.45166689999999"
Jamia masjid rait pur,School,"HHCF+3X5 Jamia masjid rait pur, Depalpur, Okara, Punjab, Pakistan",,HHCF+3X5,Depalpur,,"Okara, Punjab",PK,https://www.google.com/maps/place/Jamia+masjid+rait+pur/data=!4m7!3m6!1s0x3917f971e28561db:0xa3ceca0040217260!8m2!3d30.5701444!4d73.5749949!16s%2Fg%2F11l3q_g81b!19sChIJ22GF4nH5FzkRYHIhQADKzqM?authuser=0&hl=en&rclk=1,"30.5701444,73.5749949"
msjd,Mosque,"msjd, Old Basirpur Rd, near Masjid Sadiqia, Depalpur, Okara, Punjab, Pakistan",,"Old Basirpur Rd, near Masjid Sadiqia",Depalpur,,"Okara, Punjab",PK,https://www.google.com/maps/place/%D9%85%D8%B3%D8%AC%D8%AF%E2%80%AD/data=!4m7!3m6!1s0x39181d6ebf952b2b:0x6f2e3b2d0029eb9f!8m2!3d30.6658152!4d73.6584686!16s%2Fg%2F11spqf8w2k!19sChIJKyuVv24dGDkRn-spAC07Lm8?authuser=0&hl=en&rclk=1,"30.665815199999997,73.65846859999999"
HANFIA GHAUSIA MASJID,Mosque,"MJ8V+3V3 HANFIA GHAUSIA MASJID, Depalpur, Okara, Punjab, Pakistan",,MJ8V+3V3,Depalpur,,"Okara, Punjab",PK,https://www.google.com/maps/place/HANFIA+GHAUSIA+MASJID/data=!4m7!3m6!1s0x3918035851dff169:0xf7414bd4a06d8a60!8m2!3d30.6651314!4d73.6446822!16s%2Fg%2F11l67t0hcc!19sChIJafHfUVgDGDkRYIptoNRLQfc?authuser=0&hl=en&rclk=1,"30.6651314,73.64468219999999"
Jamia Masjid Rabbani,Mosque,"MMC4+RH9 Jamia Masjid Rabbani, Dipalpur-Hujra Shah Muqeem Rd, Saddar, Depalpur, Okara, Punjab 56180, Pakistan",Saddar,"MMC4+RH9, Dipalpur-Hujra Shah Muqeem Rd",Depalpur,56180,"Okara, Punjab",PK,https://www.google.com/maps/place/Jamia+Masjid+Rabbani/data=!4m7!3m6!1s0x39181caa7d87c009:0xe302ee19a79e71b3!8m2!3d30.6720455!4d73.6564724!16s%2Fg%2F11x9xjgdk!19sChIJCcCHfaocGDkRs3GepxnuAuM?authuser=0&hl=en&rclk=1,"30.6720455,73.6564724"
Nimra Masjid Islampura Depalpur,Elementary school,"PMG2+63V Nimra Masjid Islampura Depalpur, Ratta khanna Rd, Okara, Punjab, Pakistan",,"PMG2+63V, Ratta khanna Rd",,,"Okara, Punjab",PK,https://www.google.com/maps/place/Nimra+Masjid+Islampura+Depalpur/data=!4m7!3m6!1s0x391805916d0b9dc3:0x781f66e2aa1df705!8m2!3d30.7256059!4d73.6501762!16s%2Fg%2F11hzstn2bm!19sChIJw50LbZEFGDkRBfcdquJmH3g?authuser=0&hl=en&rclk=1,"30.725605899999998,73.65017619999999"
msjd,Mosque,"X7G8+GG7 msjd, Depalpur Rd, Khudian Khas, Kasur, Punjab, Pakistan",,"X7G8+GG7, Depalpur Rd",Khudian Khas,,"Kasur, Punjab",PK,https://www.google.com/maps/place/%D9%85%D8%B3%D8%AC%D8%AF%E2%80%AD/data=!4m7!3m6!1s0x3919cbdfb93b600f:0x227a3909e7f803f!8m2!3d30.9762862!4d74.2663091!16s%2Fg%2F11pbvks8zs!19sChIJD2A7ud_LGTkRP4B_npCjJwI?authuser=0&hl=en&rclk=1,"30.976286199999997,74.2663091"
Jamia Masjid Syedna Hussain,Mosque,"HR35+53V Jamia Masjid Syedna Hussain, Haveli Lakha-Basirpur Rd Bunga Salah, Basirpur, Depalpur, Okara, Punjab 56010, Pakistan",,"HR35+53V, Haveli Lakha-Basirpur Rd Bunga Salah, Basirpur",Depalpur,56010,"Okara, Punjab",PK,https://www.google.com/maps/place/Jamia+Masjid+Syedna+Hussain/data=!4m7!3m6!1s0x3917f4e346b98b23:0xfd040b220479127!8m2!3d30.5529992!4d73.8076829!16s%2Fg%2F11xl66zn8!19sChIJI4u5RuP0FzkRJ5FHILJA0A8?authuser=0&hl=en&rclk=1,"30.5529992,73.8076829"
Haq Bahu Ata Chakki,Mosque,"Haq Bahu Ata Chakki, Jamia Masjid Faridia, Depalpur, Okara, Punjab, Pakistan",,Jamia Masjid Faridia,Depalpur,,"Okara, Punjab",PK,https://www.google.com/maps/place/Haq+Bahu+Ata+Chakki/data=!4m7!3m6!1s0x39181b2985e8755d:0x8f36250c7f66e70e!8m2!3d30.675614!4d73.6550134!16s%2Fg%2F11syz34b6s!19sChIJXXXohSkbGDkRDudmfwwlNo8?authuser=0&hl=en&rclk=1,"30.675614,73.6550134"
Jamia Masjid Faridya,Mosque,"W46P+5W2 Jamia Masjid Faridya, Bus Stop Talwandi, Depalpur Rd, Kasur, Pakistan",,"W46P+5W2, Bus Stop Talwandi, Depalpur Rd",Kasur,,"Kasur, Punjab",PK,https://www.google.com/maps/place/Jamia+Masjid+Faridya/data=!4m7!3m6!1s0x39183370c76c4dc3:0x1d250ca88a077c33!8m2!3d30.9103971!4d74.1372657!16s%2Fg%2F11fq5236w2!19sChIJw01sx3AzGDkRM3wHiqgMJR0?authuser=0&hl=en&rclk=1,"30.910397099999997,74.1372657"
Jamia Masjid Faizan-e-Rasool,Mosque,"W448+CV3 Jamia Masjid Faizan-e-Rasool, Atari Karam Singh Road, Depalpur Rd, Pakhoki, Kasur, Pakistan",,"W448+CV3, Atari Karam Singh Road, Depalpur Rd",Pakhoki,,"Kasur, Punjab",PK,https://www.google.com/maps/place/Jamia+Masjid+Faizan-e-Rasool/data=!4m7!3m6!1s0x39183112b4c78d45:0xb86fdb1accd64d51!8m2!3d30.9060154!4d74.1171591!16s%2Fg%2F11jyz9gkjw!19sChIJRY3HtBIxGDkRUU3WzBrbb7g?authuser=0&hl=en&rclk=1,"30.906015399999998,74.1171591"
"Jamia Masjid Faridia, 38/D Kalan",School,"PJ7J+49W Jamia Masjid Faridia, 38/D Kalan, Chak 38, D Kalan Depalpur, Okara, Punjab, Pakistan",D Kalan,"PJ7J+49W, Chak 38",Depalpur,,"Okara, Punjab",PK,"https://www.google.com/maps/place/Jamia+Masjid+Faridia,+38%2FD+Kalan/data=!4m7!3m6!1s0x3918050be205fd29:0xa3e4b1d52ac27fd2!8m2!3d30.7128583!4d73.6309641!16s%2Fg%2F11lrykmz5_!19sChIJKf0F4gsFGDkR0n_CKtWx5KM?authuser=0&hl=en&rclk=1","30.712858299999997,73.6309641"
JAMIA MASJID MUHAMMADI AHLE HADEES salowal,Mosque,"PP7Q+QFH JAMIA MASJID MUHAMMADI AHLE HADEES salowal, Salowal, Okara, Punjab, Pakistan",,PP7Q+QFH,Salowal,,"Okara, Punjab",PK,https://www.google.com/maps/place/JAMIA+MASJID+MUHAMMADI+AHLE+HADEES+salowal/data=!4m7!3m6!1s0x39181baea72ca1b3:0x338932243319f2e8!8m2!3d30.7143924!4d73.7386595!16s%2Fg%2F11k39gdk0m!19sChIJs6Esp64bGDkR6PIZMyQyiTM?authuser=0&hl=en&rclk=1,"30.714392399999998,73.7386595"
Jamia Masjid,Mosque,"GGQX+WVR Jamia Masjid, Okara, Punjab, Pakistan",,GGQX+WVR,,,"Okara, Punjab",PK,https://www.google.com/maps/place/Jamia+Masjid/data=!4m7!3m6!1s0x3917ff88baaff229:0xd4d85b1b2d16ccf1!8m2!3d30.5398637!4d73.5496527!16s%2Fg%2F11h63jns81!19sChIJKfKvuoj_FzkR8cwWLRtb2NQ?authuser=0&hl=en&rclk=1,"30.539863699999998,73.5496527"
Masjid Muhammadi,Mosque,"MMF3+MX8 Masjid Muhammadi, Ratta khanna Rd, Depalpur, Okara, Punjab, Pakistan",,"MMF3+MX8, Ratta khanna Rd",Depalpur,,"Okara, Punjab",PK,https://www.google.com/maps/place/Masjid+Muhammadi/data=!4m7!3m6!1s0x39181b9eba6722b1:0xb0dce4cd2e07d9f0!8m2!3d30.6741792!4d73.6542211!16s%2Fg%2F11l7802q_d!19sChIJsSJnup4bGDkR8NkHLs3k3LA?authuser=0&hl=en&rclk=1,"30.674179199999998,73.6542211"
