name,main_category,address,address_ward,address_street,address_city,address_postal_code,address_state,address_country_code,link,coordinates
Cheraman Juma Masjid,Mosque,"Cheraman Juma Masjid, Kodungallur - Shornur Rd, Arakulam, Kodungallur, Kerala 680664",Arakulam,Kodungallur - Shornur Rd,Kodungallur,680664,Kerala,IN,https://www.google.com/maps/place/Cheraman+Juma+Masjid/data=!4m7!3m6!1s0x3b081b952911081d:0x9cae30bd9b07947f!8m2!3d10.2129033!4d76.2020459!16zL20vMGcyMDdn!19sChIJHQgRKZUbCDsRf5QHm70wrpw?authuser=0&hl=en&rclk=1,"10.212903299999999,76.2020459"
Masjid (Niskara Palli),Mosque,"66H2+25H Masjid (Niskara Palli), Star Nagar, Uzhuvathu Kadavu, Kodungallur, Kerala 680664","Star Nagar, Uzhuvathu Kadavu",66H2+25H,Kodungallur,680664,Kerala,IN,https://www.google.com/maps/place/Masjid+%28Niskara+Palli%29/data=!4m7!3m6!1s0x3b081bf4bb7e9c2f:0xf69bc941ba46089c!8m2!3d10.2275627!4d76.200486!16s%2Fg%2F11c742z9bj!19sChIJL5x-u_QbCDsRnAhGukHJm_Y?authuser=0&hl=en&rclk=1,"10.2275627,76.200486"
TOWN SUNNI MASJID,Mosque,"TOWN SUNNI MASJID, behind Kalyan Jewellers, Kodungallur, Kerala 680664","Star Nagar, Kodungallur","TOWN SUNNI MASJID, behind Kalyan Jewellers",Kodungallur,680664,Kerala,IN,https://www.google.com/maps/place/TOWN+SUNNI+MASJID/data=!4m7!3m6!1s0x3b081bf5f4fa309d:0x7d8ca27f4f77d784!8m2!3d10.231851!4d76.1970609!16s%2Fg%2F11f00j92_2!19sChIJnTD69PUbCDsRhNd3T3-ijH0?authuser=0&hl=en&rclk=1,"10.231850999999999,76.1970609"
Kothaparambu Juma Masjid,Mosque,"65VQ+PVC Kothaparambu Juma Masjid, NH 66, Kothaparambu, Kodungallur, Kerala 680668",Kothaparambu,"65VQ+PVC, NH 66",Kodungallur,680668,Kerala,IN,https://www.google.com/maps/place/Kothaparambu+Juma+Masjid/data=!4m7!3m6!1s0x3b081c1a9eb7aaf3:0x344b02f57de31d00!8m2!3d10.2443212!4d76.1896381!16s%2Fg%2F1hlh747bl!19sChIJ86q3nhocCDsRAB3jffUCSzQ?authuser=0&hl=en&rclk=1,"10.2443212,76.1896381"
Ubazar Jumua Masjid - Mosque,Mosque,"65HC+6X5 Ubazar Jumua Masjid - Mosque, Kodungallur Eriyad Rd, Ubazar, Kodungallur, Eriyad, Kerala 680666",Ubazar,"65HC+6X5, Kodungallur Eriyad Rd","Kodungallur, Eriyad",680666,Kerala,IN,https://www.google.com/maps/place/Ubazar+Jumua+Masjid+-+Mosque/data=!4m7!3m6!1s0x3b081953b6aa79ab:0xbd3314313943ab2c!8m2!3d10.2280192!4d76.172487!16s%2Fg%2F1ptx5ff37!19sChIJq3mqtlMZCDsRLKtDOTEUM70?authuser=0&hl=en&rclk=1,"10.2280192,76.17248699999999"
Town Juma Masjid,Mosque,"65MV+3J5 Town Juma Masjid, Kodungallur, Kerala 680668",Kodungallur,65MV+3J5,Kodungallur,680668,Kerala,IN,https://www.google.com/maps/place/Town+Juma+Masjid/data=!4m7!3m6!1s0x3b081c09dcc16aed:0xc5f0d30dbcd7425b!8m2!3d10.2326286!4d76.1941025!16s%2Fg%2F124yp4r6x!19sChIJ7WrB3AkcCDsRW0LXvA3T8MU?authuser=0&hl=en&rclk=1,"10.2326286,76.1941025"
Athani Town Masjid,Mosque,"658J+JJH Athani Town Masjid, Padakulam PayBazaar Rd, Padakulam, Kodungallur, Kerala 680666",Padakulam,"658J+JJH, Padakulam PayBazaar Rd",Kodungallur,680666,Kerala,IN,https://www.google.com/maps/place/Athani+Town+Masjid/data=!4m7!3m6!1s0x3b081be3ca36897d:0x47541100732dc04e!8m2!3d10.2165648!4d76.1816187!16s%2Fg%2F11crvwfs8y!19sChIJfYk2yuMbCDsRTsAtcwARVEc?authuser=0&hl=en&rclk=1,"10.216564799999999,76.1816187"
Edamukk Salafi Masjid,Mosque,"653P+M94 Edamukk Salafi Masjid, Kodungallur, Kerala 680666",,653P+M94,Kodungallur,680666,Kerala,IN,https://www.google.com/maps/place/Edamukk+Salafi+Masjid/data=!4m7!3m6!1s0x3b081bdb8a19d1e3:0x9cd2fb69655ce056!8m2!3d10.2041436!4d76.1859389!16s%2Fg%2F11d_2hm0zc!19sChIJ49EZitsbCDsRVuBcZWn70pw?authuser=0&hl=en&rclk=1,"10.2041436,76.1859389"
Edamukku Juma Masjid,Place of worship,"Edamukku Juma Masjid, 10deg11'46. 76deg11'21., 9, 0 E, Roosevelt, Utah",,"10deg11'46. 76deg11'21., 9, 0 E","Roosevelt, Kodungallur",,Utah,IN,https://www.google.com/maps/place/Edamukku+Juma+Masjid/data=!4m7!3m6!1s0x3b081bd032685c9b:0xf1f6bb96545fe41d!8m2!3d10.196369!4d76.18916!16s%2Fg%2F11cjj1m70h!19sChIJm1xoMtAbCDsRHeRfVJa79vE?authuser=0&hl=en&rclk=1,"10.196368999999999,76.18916"
Kottapuram Town Masjid,Mosque,"56X3+MP7 Kottapuram Town Masjid, Kottapuram, Kodungallur, Kerala 680667",Kottapuram,56X3+MP7,Kodungallur,680667,Kerala,IN,https://www.google.com/maps/place/Kottapuram+Town+Masjid/data=!4m7!3m6!1s0x3b081bb783c9862b:0xa1209720ba8deca8!8m2!3d10.1991577!4d76.2042841!16s%2Fg%2F11g6j9kwjb!19sChIJK4bJg7cbCDsRqOyNuiCXIKE?authuser=0&hl=en&rclk=1,"10.199157699999999,76.2042841"
Kadukkachuvadu Masjid,Mosque,"654V+58G Kadukkachuvadu Masjid, Kadukkachuvad Rd, Keetholi, Kodungallur, Kerala 680666",Keetholi,"654V+58G, Kadukkachuvad Rd",Kodungallur,680666,Kerala,IN,https://www.google.com/maps/place/Kadukkachuvadu+Masjid/data=!4m7!3m6!1s0x3b081bc39bbcf0a7:0x7b2b1467fa1e4f70!8m2!3d10.2054486!4d76.193332!16s%2Fg%2F11c5g_5_d7!19sChIJp_C8m8MbCDsRcE8e-mcUK3s?authuser=0&hl=en&rclk=1,"10.2054486,76.193332"
Samadhani Jumua Masjid,Mosque,"65GH+896 Samadhani Jumua Masjid, Madavana,Abdullah road, Kodungallur, Kerala",,"65GH+896, Madavana,Abdullah road","Kodungallur, Eriyad",,Kerala,IN,https://www.google.com/maps/place/Samadhani+Jumua+Masjid/data=!4m7!3m6!1s0x3b081bfdff5b605b:0x2708eaf0af8aeb36!8m2!3d10.2257823!4d76.1783786!16s%2Fg%2F11gc6jwj6v!19sChIJW2Bb__0bCDsRNuuKr_DqCCc?authuser=0&hl=en&rclk=1,"10.225782299999999,76.1783786"
Ahmadiya masjid,Mosque,"652Q+79R Ahmadiya masjid, Kandamkulam, Kodungallur, Kerala",,"652Q+79R, Kandamkulam",Kodungallur,,Kerala,IN,https://www.google.com/maps/place/Ahmadiya+masjid/data=!4m7!3m6!1s0x3b081bdae86863a7:0xaccbf453e8606a5a!8m2!3d10.2007287!4d76.1883918!16s%2Fg%2F11df7jn51t!19sChIJp2No6NobCDsRWmpg6FP0y6w?authuser=0&hl=en&rclk=1,"10.200728699999999,76.18839179999999"
Teekay Memorial MIT Masjid,Mosque,"Teekay Memorial MIT Masjid, South Parambikulam Teekay Memorial Masjid, Methala, Kerala 680669",,South Parambikulam Teekay Memorial Masjid,"Methala, Kodungallur",680669,Kerala,IN,https://www.google.com/maps/place/Teekay+Memorial+MIT+Masjid/data=!4m7!3m6!1s0x3b081b7c8d0a2841:0x850ef5a30d3d01d!8m2!3d10.2107252!4d76.1844854!16s%2Fg%2F11gzs6vpx5!19sChIJQSgKjXwbCDsRHdDTMFrvUAg?authuser=0&hl=en&rclk=1,"10.210725199999999,76.1844854"
Anjappalam Mosque,Mosque,"Anjappalam Mosque, P.O, Anjappalam-Azhikode Road,Methala, Kodungallur",Anchapalam,"P.O, Anjappalam-Azhikode Road,Methala",Kodungallur,,Kerala,IN,https://www.google.com/maps/place/Anjappalam+Mosque/data=!4m7!3m6!1s0x3b081b0d8dc28b4b:0xddc2c89210b4c207!8m2!3d10.2121346!4d76.1924916!16s%2Fg%2F11fmwqj9k_!19sChIJS4vCjQ0bCDsRB8K0EJLIwt0?authuser=0&hl=en&rclk=1,"10.212134599999999,76.1924916"
"Thaqwa Juma Masjid, Uzhuvathukadavu",Mosque,"66P2+94C Thaqwa Juma Masjid, Uzhuvathukadavu, Chanda Nagar, Kodungallur, Kerala 680668",Chanda Nagar,66P2+94C,Kodungallur,680668,Kerala,IN,"https://www.google.com/maps/place/Thaqwa+Juma+Masjid,+Uzhuvathukadavu/data=!4m7!3m6!1s0x3b081c0b3dd672d1:0x5cb28352a3ff4e21!8m2!3d10.2359488!4d76.2002646!16s%2Fg%2F11f319bnc_!19sChIJ0XLWPQscCDsRIU7_o1KDslw?authuser=0&hl=en&rclk=1","10.2359488,76.2002646"
Kunnamkulam Mosque,Mosque,"652P+MWC Kunnamkulam Mosque, Kodungallur, Kerala 680666",,652P+MWC,Kodungallur,680666,Kerala,IN,https://www.google.com/maps/place/Kunnamkulam+Mosque/data=!4m7!3m6!1s0x3b081bdb01ae89a1:0x4b4c0bb605c9365d!8m2!3d10.2016783!4d76.1872757!16s%2Fg%2F11c5j4s9cq!19sChIJoYmuAdsbCDsRXTbJBbYLTEs?authuser=0&hl=en&rclk=1,"10.2016783,76.1872757"
Kodungallur Islahi Masjid,Mosque,"65JW+872 Kodungallur Islahi Masjid, Near Private Bus Stand, Kodungallur, Kerala 680668",Kodungallur,"65JW+872, Near Private Bus Stand",Kodungallur,680668,Kerala,IN,https://www.google.com/maps/place/Kodungallur+Islahi+Masjid/data=!4m7!3m6!1s0x3b081bf60ae55555:0x8a4b8b41d41f25d3!8m2!3d10.2307523!4d76.1956259!16s%2Fg%2F11tgg7k2xf!19sChIJVVXlCvYbCDsR0yUf1EGLS4o?authuser=0&hl=en&rclk=1,"10.230752299999999,76.1956259"
khill msjid & mdrs,Mosque,"6652+R5Q khill msjid & mdrs, Keetholi, Kodungallur, Kerala 680664",Keetholi,6652+R5Q,Kodungallur,680664,Kerala,IN,https://www.google.com/maps/place/%E0%B4%96%E0%B4%BF%E0%B4%B3%E0%B5%8D%E0%B5%BC+%E0%B4%AE%E0%B4%B8%E0%B5%8D%E0%B4%9C%E0%B4%BF%E0%B4%A6%E0%B5%8D+%26+%E0%B4%AE%E0%B4%A6%E0%B5%8D%E0%B4%B0%E0%B4%B8/data=!4m7!3m6!1s0x3b081bc010acff63:0xdfdda15cf0b36ef8!8m2!3d10.2095964!4d76.2004819!16s%2Fg%2F11h9w4wb6h!19sChIJY_-sEMAbCDsR-G6z8Fyh3d8?authuser=0&hl=en&rclk=1,"10.209596399999999,76.2004819"
Masjidul Ithihad,Mosque,"6642+QX6 Masjidul Ithihad, Kottapuram, Kodungallur, Kerala 680669",Kottapuram,6642+QX6,Kodungallur,680669,Kerala,IN,https://www.google.com/maps/place/Masjidul+Ithihad/data=!4m7!3m6!1s0x3b081b865d9bf627:0x9da19dc029088646!8m2!3d10.2069147!4d76.2024034!16s%2Fg%2F11g22z5ny5!19sChIJJ_abXYYbCDsRRoYIKcCdoZ0?authuser=0&hl=en&rclk=1,"10.206914699999999,76.2024034"
Khuvathul Islam madras a & masjid,Mosque,"Khuvathul Islam madras a & masjid, Khuvathul Islam, madras a and masjid, Kothaparambu, Kodungallur, Kerala 680663",Kothaparambu,"Khuvathul Islam, madras a and masjid",Kodungallur,680663,Kerala,IN,https://www.google.com/maps/place/Khuvathul+Islam+madras+a+%26+masjid/data=!4m7!3m6!1s0x3b081dcffa96cffd:0x3dedf54731913447!8m2!3d10.2517599!4d76.1948761!16s%2Fg%2F11q87znsc6!19sChIJ_c-W-s8dCDsRRzSRMUf17T0?authuser=0&hl=en&rclk=1,"10.2517599,76.1948761"
Noor yakeen masjid,Mosque,"66H2+8WJ Noor yakeen masjid, Star Nagar, Uzhuvathu Kadavu, Kodungallur, Kerala 680664","Star Nagar, Uzhuvathu Kadavu",66H2+8WJ,Kodungallur,680664,Kerala,IN,https://www.google.com/maps/place/Noor+yakeen+masjid/data=!4m7!3m6!1s0x3b081b4c03a8cecd:0xe3d467685634fcb5!8m2!3d10.2283332!4d76.2022739!16s%2Fg%2F11s2rljr_4!19sChIJzc6oA0wbCDsRtfw0Vmhn1OM?authuser=0&hl=en&rclk=1,"10.2283332,76.2022739"
