name,main_category,address,address_ward,address_street,address_city,address_postal_code,address_state,address_country_code,link,coordinates
Marble Masjid Mimbar,Stone carving,"Marble Masjid Mimbar, Gali, Street Number 5, Garib Nawaaz Colony, Makrana, Rajasthan 341505",Garib Nawaaz Colony,"Gali, Street Number 5",Makrana,341505,Rajasthan,IN,https://www.google.com/maps/place/Marble+Masjid+Mimbar/data=!4m7!3m6!1s0x396b9d1ca19ff005:0x42ffccb5887d67b!8m2!3d27.0419528!4d74.744322!16s%2Fg%2F11k_xfqq5v!19sChIJBfCfoRydazkRe9aHWMv8LwQ?authuser=0&hl=en&rclk=1,"27.041952799999997,74.744322"
Laganshah Masjid,Mosque,"2PVM+Q7F Laganshah Masjid, Makrana Rd, Makrana, Rajasthan 341505",,"2PVM+Q7F, Makrana Rd",Makrana,341505,Rajasthan,IN,https://www.google.com/maps/place/Laganshah+Masjid/data=!4m7!3m6!1s0x396b9d0780a41e37:0x8db9a4b0723bfb2c!8m2!3d27.0444329!4d74.7331799!16s%2Fg%2F11c28djy5m!19sChIJNx6kgAedazkRLPs7crCkuY0?authuser=0&hl=en&rclk=1,"27.0444329,74.7331799"
Gulzarpura Masjid Makrana,Mosque,"2PVF+WVW Gulzarpura Masjid Makrana, Iqbalpura, gulzarpura, Mathabhar, Makrana, Rajasthan 341505","Iqbalpura, gulzarpura, Mathabhar",2PVF+WVW,Makrana,341505,Rajasthan,IN,https://www.google.com/maps/place/Gulzarpura+Masjid+Makrana/data=!4m7!3m6!1s0x396b9daf07941409:0x51822e211b51d4a5!8m2!3d27.0448709!4d74.7247137!16s%2Fg%2F11btwk4wpp!19sChIJCRSUB6-dazkRpdRRGyEuglE?authuser=0&hl=en&rclk=1,"27.0448709,74.7247137"
MADINA MASJID,Mosque,"2PPP+CHC MADINA MASJID, hayat marble, Makrana, Rajasthan","Ganesh Colony, Deawali Colony","2PPP+CHC, hayat marble",Makrana,,Rajasthan,IN,https://www.google.com/maps/place/MADINA+MASJID/data=!4m7!3m6!1s0x396b9cffd5c607b5:0xb055742e4424b9f3!8m2!3d27.0360704!4d74.7363797!16s%2Fg%2F11c4bbc270!19sChIJtQfG1f-cazkR87kkRC50VbA?authuser=0&hl=en&rclk=1,"27.0360704,74.7363797"
Chaman pura masjid,Mosque,"2PQQ+R5X Chaman pura masjid, Makrana, Rajasthan 341505",,2PQQ+R5X,Makrana,341505,Rajasthan,IN,https://www.google.com/maps/place/Chaman+pura+masjid/data=!4m7!3m6!1s0x396b9d010c9d9c69:0x52fc94c57a86b8d4!8m2!3d27.0396241!4d74.7379715!16s%2Fg%2F11csr23fw_!19sChIJaZydDAGdazkR1LiGesWU_FI?authuser=0&hl=en&rclk=1,"27.039624099999997,74.7379715"
Khawaja Najam Masjid,Mosque,"2PPJ+RHJ Khawaja Najam Masjid, Imam Chowk Rd, Imam Chowk, Goda Bas, Makrana, Rajasthan 341505","Imam Chowk, Goda Bas","2PPJ+RHJ, Imam Chowk Rd",Makrana,341505,Rajasthan,IN,https://www.google.com/maps/place/Khawaja+Najam+Masjid/data=!4m7!3m6!1s0x396b9daadd61bbbb:0x101028e0b5479633!8m2!3d27.0370896!4d74.7313841!16s%2Fg%2F11g027ls5h!19sChIJu7th3aqdazkRM5ZHteAoEBA?authuser=0&hl=en&rclk=1,"27.037089599999998,74.7313841"
I A and brothers,Marble contractor,"I A and brothers, jama, Masjid Rd, Makrana, Rajasthan 341505",Gunawati,"jama, Masjid Rd",Makrana,341505,Rajasthan,IN,https://www.google.com/maps/place/I+A+and+brothers/data=!4m7!3m6!1s0x396b9dae73357801:0xa08b5a53d35273f!8m2!3d27.028558!4d74.714621!16s%2Fg%2F11b7r6fydp!19sChIJAXg1c66dazkRPyc1PaW1CAo?authuser=0&hl=en&rclk=1,"27.028558,74.714621"
Qadri Masjid,Mosque,"3P2F+C7C Qadri Masjid, Makrana, Rajasthan 341505",,3P2F+C7C,Makrana,341505,Rajasthan,IN,https://www.google.com/maps/place/Qadri+Masjid/data=!4m7!3m6!1s0x396b9da4bc7c1ef3:0xaa2a0ee9dc7f8e01!8m2!3d27.0510556!4d74.7231378!16s%2Fg%2F11g69zvz7y!19sChIJ8x58vKSdazkRAY5_3OkOKqo?authuser=0&hl=en&rclk=1,"27.051055599999998,74.7231378"
Masjid Aaisha,Mosque,"2PRM+CQ5 Masjid Aaisha, Gouri, Pestom Sagar Rd Number 2, PC Colony, Pestom Sagar Colony, Asha Nagar, Mumbai, Maharashtra 400089","PC Colony, Pestom Sagar Colony, Asha Nagar","2PRM+CQ5, Gouri, Pestom Sagar Rd Number 2","Mumbai, Makrana",400089,Maharashtra,IN,https://www.google.com/maps/place/Masjid+Aaisha/data=!4m7!3m6!1s0x396b9d00a5568d67:0xdcdb4d19d7ce7d3b!8m2!3d27.0410118!4d74.7344808!16s%2Fg%2F11dxdyvs72!19sChIJZ41WpQCdazkRO33O1xlN29w?authuser=0&hl=en&rclk=1,"27.0410118,74.7344808"
gose azam masjid,Mosque,"2PVJ+V7Q gose azam masjid, Nadi Rd, Mathabhar, Makrana, Rajasthan 341505",Mathabhar,"2PVJ+V7Q, Nadi Rd",Makrana,341505,Rajasthan,IN,https://www.google.com/maps/place/gose+azam+masjid/data=!4m7!3m6!1s0x396b9da8f8f70e0f:0xfa7ad889d0e70a9a!8m2!3d27.0447203!4d74.730746!16s%2Fg%2F11g6mlc00z!19sChIJDw73-KidazkRmgrn0InYevo?authuser=0&hl=en&rclk=1,"27.044720299999998,74.730746"
Garib Nawaj Masjid,Mosque,"2PVV+4J4 Garib Nawaj Masjid, Makrana, Rajasthan 341505",,2PVV+4J4,Makrana,341505,Rajasthan,IN,https://www.google.com/maps/place/Garib+Nawaj+Masjid/data=!4m7!3m6!1s0x396b9d035f91f983:0x86d7b94f9e1b6201!8m2!3d27.0427576!4d74.7440638!16s%2Fg%2F11b7dvf_9d!19sChIJg_mRXwOdazkRAWIbnk-514Y?authuser=0&hl=en&rclk=1,"27.042757599999998,74.74406379999999"
Aqsa Masjid,Mosque,"2PXH+HG8 Aqsa Masjid, Jamiya Rd, Mathabhar, Makrana, Rajasthan 341505",Mathabhar,"2PXH+HG8, Jamiya Rd",Makrana,341505,Rajasthan,IN,https://www.google.com/maps/place/Aqsa+Masjid/data=!4m7!3m6!1s0x396b9da8ac6f7f69:0x6bb143ae1ae9c080!8m2!3d27.0489036!4d74.7288326!16s%2Fg%2F11c6ddxlq7!19sChIJaX9vrKidazkRgMDpGq5DsWs?authuser=0&hl=en&rclk=1,"27.0489036,74.72883259999999"
Teeba Masjid,Mosque,"2PRG+8FQ Teeba Masjid, Sadar Bazar, Makrana, Rajasthan 341505",Sadar Bazar,2PRG+8FQ,Makrana,341505,Rajasthan,IN,https://www.google.com/maps/place/Teeba+Masjid/data=!4m7!3m6!1s0x396b9dac20788297:0xe7bcd38bc4564613!8m2!3d27.0408347!4d74.7262402!16s%2Fg%2F11gds52r_2!19sChIJl4J4IKydazkRE0ZWxIvTvOc?authuser=0&hl=en&rclk=1,"27.040834699999998,74.72624019999999"
Shahjhani Masjid,Mosque,"Shahjhani Masjid, Sadar Bazar, Makrana, Rajasthan 341505",Sadar Bazar,,Makrana,,Rajasthan,IN,https://www.google.com/maps/place/Shahjhani+Masjid/data=!4m7!3m6!1s0x396b9dacfae9a4b3:0x12305f7095aee84a!8m2!3d27.0406101!4d74.7274133!16s%2Fg%2F1vxz803v!19sChIJs6Tp-qydazkRSuiulXBfMBI?authuser=0&hl=en&rclk=1,"27.0406101,74.7274133"
Chapra Masjid,Mosque,"2PQF+PWG Chapra Masjid, Do Masjid Station Rd, Sadar Bazar, Makrana, Rajasthan 341505",Sadar Bazar,"2PQF+PWG, Do Masjid Station Rd",Makrana,341505,Rajasthan,IN,https://www.google.com/maps/place/Chapra+Masjid/data=!4m7!3m6!1s0x396b9dadcabe04a1:0xe6b5b1595170a9db!8m2!3d27.0393147!4d74.7248381!16s%2Fg%2F11f386dxgt!19sChIJoQS-yq2dazkR26lwUVmxteY?authuser=0&hl=en&rclk=1,"27.0393147,74.7248381"
Islampura Sunni Barelvi Masjid,Mosque,"2PHV+V2X Islampura Sunni Barelvi Masjid, Deawali Colony, Makrana, Rajasthan 341505",Deawali Colony,2PHV+V2X,Makrana,341505,Rajasthan,IN,https://www.google.com/maps/place/Islampura+Sunni+Barelvi+Masjid/data=!4m7!3m6!1s0x396b9df278cc64dd:0x3937e238d43d6b77!8m2!3d27.0297467!4d74.7426219!16s%2Fg%2F11h0t4dfkh!19sChIJ3WTMePKdazkRd2s91DjiNzk?authuser=0&hl=en&rclk=1,"27.0297467,74.7426219"
Mohammediya Masjid,Mosque,"Mohammediya Masjid, Gunawati Rd, Ratanpura, Makrana, Rajasthan 341505",Ratanpura,Gunawati Rd,Makrana,341505,Rajasthan,IN,https://www.google.com/maps/place/Mohammediya+Masjid/data=!4m7!3m6!1s0x396b9dad6172d395:0x68f39a93e01c53c3!8m2!3d27.0375254!4d74.7209973!16s%2Fg%2F11b7c8yc05!19sChIJldNyYa2dazkRw1Mc4JOa82g?authuser=0&hl=en&rclk=1,"27.0375254,74.7209973"
Madarsa Noor-ul-Uloom and Bilal Masjid,Mosque,"2PPW+RMW Madarsa Noor-ul-Uloom and Bilal Masjid, Adarsh Nagar, Makrana, Rajasthan 341505",Adarsh Nagar,2PPW+RMW,Makrana,341505,Rajasthan,IN,https://www.google.com/maps/place/Madarsa+Noor-ul-Uloom+and+Bilal+Masjid/data=!4m7!3m6!1s0x396b9ce2a195dc0b:0xaf97aadaa308dac0!8m2!3d27.0371225!4d74.7466973!16s%2Fg%2F11dylvz838!19sChIJC9yVoeKcazkRwNoIo9qql68?authuser=0&hl=en&rclk=1,"27.0371225,74.7466973"
Gorabass Masjid,Mosque,"2PQH+FPW Gorabass Masjid, Charbhuja Rd, Adarsh Nagar, Makrana, Rajasthan 341505",Adarsh Nagar,"2PQH+FPW, Charbhuja Rd",Makrana,341505,Rajasthan,IN,https://www.google.com/maps/place/Gorabass+Masjid/data=!4m7!3m6!1s0x396b9daba211c0b7:0x208024432146cf00!8m2!3d27.0387376!4d74.7293231!16s%2Fg%2F12hm62_rm!19sChIJt8ARoqudazkRAM9GIUMkgCA?authuser=0&hl=en&rclk=1,"27.038737599999997,74.7293231"
Dolakuwa Masjid,Mosque,"2PPC+CHR Dolakuwa Masjid, Dola Kuwa Rd, Ratanpura, Makrana, Rajasthan 341505",Ratanpura,"2PPC+CHR, Dola Kuwa Rd",Makrana,341505,Rajasthan,IN,https://www.google.com/maps/place/Dolakuwa+Masjid/data=!4m7!3m6!1s0x396b9dad3c8cfd37:0xdc3de238f08c5498!8m2!3d27.0361023!4d74.7213942!16s%2Fg%2F11g6979wcj!19sChIJN_2MPK2dazkRmFSM8DjiPdw?authuser=0&hl=en&rclk=1,"27.0361023,74.72139419999999"
Hathai Masjid,Mosque,"2PRH+8G5 Hathai Masjid, Hathai Mohalla, Makrana, Rajasthan 341505",Hathai Mohalla,2PRH+8G5,Makrana,341505,Rajasthan,IN,https://www.google.com/maps/place/Hathai+Masjid/data=!4m7!3m6!1s0x396b9dabe4008873:0x6dd2e46d2a1662df!8m2!3d27.0407717!4d74.7288554!16s%2Fg%2F11h9xlq8m6!19sChIJc4gA5KudazkR32IWKm3k0m0?authuser=0&hl=en&rclk=1,"27.0407717,74.7288554"
Masjid Ahle Hadees,Mosque,"2MCG+Q3V Masjid Ahle Hadees, Mohalla-Teliyan, Borawar-Bidiyad Rd, Borawar, Makrana, Rajasthan 341502",Borawar,"2MCG+Q3V, Mohalla-Teliyan, Borawar-Bidiyad Rd",Makrana,341502,Rajasthan,IN,https://www.google.com/maps/place/Masjid+Ahle+Hadees/data=!4m7!3m6!1s0x396b9e8f61e31db9:0x683804c51498fd8e!8m2!3d27.0219988!4d74.675165!16s%2Fg%2F11c6cbknjn!19sChIJuR3jYY-eazkRjv2YFMUEOGg?authuser=0&hl=en&rclk=1,"27.0219988,74.67516499999999"
Madina Masjid,Mosque,"2MCH+RQ8 Madina Masjid, Borawar, Makrana, Rajasthan 341502",Borawar,2MCH+RQ8,Makrana,341502,Rajasthan,IN,https://www.google.com/maps/place/Madina+Masjid/data=!4m7!3m6!1s0x396b9e8442ab3b0f:0x9f5f99196d5ec3d4!8m2!3d27.0220286!4d74.6794591!16s%2Fg%2F11d_0f5ctt!19sChIJDzurQoSeazkR1MNebRmZX58?authuser=0&hl=en&rclk=1,"27.0220286,74.6794591"
Paharkua Masjid,Mosque,"2P22+X4H Paharkua Masjid, Parbatsar - Bidiyad Rd, Gunawati, Makrana, Rajasthan 341505",Gunawati,"2P22+X4H, Parbatsar - Bidiyad Rd",Makrana,341505,Rajasthan,IN,https://www.google.com/maps/place/Paharkua+Masjid/data=!4m7!3m6!1s0x396b9c10c14df653:0xb9f688083e07b832!8m2!3d27.0024379!4d74.700372!16s%2Fg%2F11hb2qk5qd!19sChIJU_ZNwRCcazkRMrgHPgiI9rk?authuser=0&hl=en&rclk=1,"27.0024379,74.700372"
Jama Masjid,Mosque,"2MCF+8M7 Jama Masjid, Borawar, Makrana, Rajasthan 341542",Borawar,2MCF+8M7,Makrana,341542,Rajasthan,IN,https://www.google.com/maps/place/Jama+Masjid/data=!4m7!3m6!1s0x396b9e8f7615c8f1:0xcad974a8bd71a914!8m2!3d27.0207917!4d74.6741858!16s%2Fg%2F11fzltm_fl!19sChIJ8cgVdo-eazkRFKlxvah02co?authuser=0&hl=en&rclk=1,"27.0207917,74.6741858"
Noorani Masjid,Mosque,"2PHP+R2H Noorani Masjid, Ganesh Colony, Deawali Colony, Makrana, Rajasthan 341505","Ganesh Colony, Deawali Colony",2PHP+R2H,Makrana,341505,Rajasthan,IN,https://www.google.com/maps/place/Noorani+Masjid/data=!4m7!3m6!1s0x396b9cf8b80fd7fb:0x8a047857732cb53e!8m2!3d27.0295659!4d74.7351244!16s%2Fg%2F11d_8lcph1!19sChIJ-9cPuPicazkRPrUsc1d4BIo?authuser=0&hl=en&rclk=1,"27.029565899999998,74.7351244"
Masjid Al Fatima,Mosque,"2PHV+G48 Masjid Al Fatima, Deshwali Colony, Deswali Colony, Makrana, Rajasthan 341505","Deshwali Colony, Deswali Colony",2PHV+G48,Makrana,341505,Rajasthan,IN,https://www.google.com/maps/place/Masjid+Al+Fatima/data=!4m7!3m6!1s0x396b9d3f33ff60bd:0xdbe3baa844aa2b94!8m2!3d27.0287777!4d74.7428349!16s%2Fg%2F11f6d7ywvj!19sChIJvWD_Mz-dazkRlCuqRKi649s?authuser=0&hl=en&rclk=1,"27.0287777,74.74283489999999"
"Ahle hadees Jama Masjid, Makrana",Mosque,"2PRH+HJG Ahle hadees Jama Masjid, Makrana, Dargah - Guwar Bazar Rd, Hathai Mohalla, Adarsh Nagar, Makrana, Rajasthan 341505","Hathai Mohalla, Adarsh Nagar","2PRH+HJG, Dargah - Guwar Bazar Rd",Makrana,341505,Rajasthan,IN,"https://www.google.com/maps/place/Ahle+hadees+Jama+Masjid,+Makrana/data=!4m7!3m6!1s0x396b9da95c1ce54f:0x123e836df7d91744!8m2!3d27.0414288!4d74.7290838!16s%2Fg%2F11fkf62v00!19sChIJT-UcXKmdazkRRBfZ922DPhI?authuser=0&hl=en&rclk=1","27.0414288,74.7290838"
Aamna Masjid,Mosque,"2PRR+F8H Aamna Masjid, Street Number 5, Aamna Colony, Makrana, Rajasthan 341505",Aamna Colony,"2PRR+F8H, Street Number 5",Makrana,341505,Rajasthan,IN,https://www.google.com/maps/place/Aamna+Masjid/data=!4m7!3m6!1s0x396b9d01575ea90f:0x2d83e78e16085361!8m2!3d27.0411996!4d74.7408633!16s%2Fg%2F11g9jd4z7y!19sChIJD6leVwGdazkRYVMIFo7ngy0?authuser=0&hl=en&rclk=1,"27.0411996,74.7408633"
Sunni Jama Masjid - Makrana,Mosque,"Sunni Jama Masjid - Makrana, Sunni jama masjid, Makrana, Rajasthan 341505",,Sunni jama masjid,Makrana,341505,Rajasthan,IN,https://www.google.com/maps/place/Sunni+Jama+Masjid+-+Makrana/data=!4m7!3m6!1s0x396b9d0a2d725071:0xd86fe1005becc63d!8m2!3d27.0409115!4d74.7233931!16s%2Fg%2F11ffw427_c!19sChIJcVByLQqdazkRPcbsWwDhb9g?authuser=0&hl=en&rclk=1,"27.0409115,74.7233931"
Peer ki Dargah Masjid,Mosque,"Ward No 22, Peer ki Dargah Masjid, Ward No 22, Mohalla Peer Ki Darghah, Makrana, Rajasthan 341505","Ward No 22, Mohalla Peer Ki Darghah",Ward No 22,Makrana,341505,Rajasthan,IN,https://www.google.com/maps/place/Peer+ki+Dargah+Masjid/data=!4m7!3m6!1s0x396b9d3a44c20f27:0xaf42aa1b0fde2c9b!8m2!3d27.0421847!4d74.7292331!16s%2Fg%2F11ptz9vt3z!19sChIJJw_CRDqdazkRmyzeDxuqQq8?authuser=0&hl=en&rclk=1,"27.0421847,74.7292331"
Makkah masjid Adrash Nagar Makrana,Mosque,"2PQV+5PG Makkah masjid Adrash Nagar Makrana, Adarsh Nagar, Makrana, Rajasthan 341505",Adarsh Nagar,2PQV+5PG,Makrana,341505,Rajasthan,IN,https://www.google.com/maps/place/Makkah+masjid+Adrash+Nagar+Makrana/data=!4m7!3m6!1s0x396b9db37ed6ac53:0x824f2736a9dfa5c4!8m2!3d27.0379482!4d74.7443287!16s%2Fg%2F11fkdy4krl!19sChIJU6zWfrOdazkRxKXfqTYnT4I?authuser=0&hl=en&rclk=1,"27.0379482,74.7443287"
Kadiriya Masjid,Mosque,"Kadiriya Masjid, 1, Rajasthan State Highway 2B, Borawar, Makrana, Rajasthan 341502",Borawar,"1, Rajasthan State Highway 2B, Borawar",Makrana,341502,Rajasthan,IN,https://www.google.com/maps/place/Kadiriya+Masjid/data=!4m7!3m6!1s0x396b9e83d5942c85:0xec220210ce6b7610!8m2!3d27.0244139!4d74.6845724!16s%2Fg%2F11dyqrkhtc!19sChIJhSyU1YOeazkREHZrzhACIuw?authuser=0&hl=en&rclk=1,"27.0244139,74.6845724"
Masjid Faizan e Hasnain Dawat e islami,Mosque,"2PXR+JPP Masjid Faizan e Hasnain Dawat e islami, Unnamed Road, Makrana, Rajasthan 341505",,"2PXR+JPP, Unnamed Road",Makrana,341505,Rajasthan,IN,https://www.google.com/maps/place/Masjid+Faizan+e+Hasnain+Dawat+e+islami/data=!4m7!3m6!1s0x396b9dd74aa729a3:0x85854d8a11bb6fd5!8m2!3d27.0490848!4d74.7418138!16s%2Fg%2F11h0b6cmz_!19sChIJoymnStedazkR1W-7EYpNhYU?authuser=0&hl=en&rclk=1,"27.0490848,74.7418138"
"Hafasa Masjid Ahle Hadees, Makrana",Mosque,"2PPF+RGP Hafasa Masjid Ahle Hadees, Makrana, Station Rd, Ratanpura, Makrana, Rajasthan 341505",Ratanpura,"2PPF+RGP, Station Rd",Makrana,341505,Rajasthan,IN,"https://www.google.com/maps/place/Hafasa+Masjid+Ahle+Hadees,+Makrana/data=!4m7!3m6!1s0x396b9dad0e0c49f9:0xb414aed859604bb6!8m2!3d27.0370758!4d74.7238215!16s%2Fg%2F11c31qm20m!19sChIJ-UkMDq2dazkRtktgWdiuFLQ?authuser=0&hl=en&rclk=1","27.0370758,74.7238215"
Aqsa Masjid,Mosque,"2MCG+V2F Aqsa Masjid, Borawar, Makrana, Rajasthan 341502",Borawar,2MCG+V2F,Makrana,341502,Rajasthan,IN,https://www.google.com/maps/place/Aqsa+Masjid/data=!4m7!3m6!1s0x396b9e8f606dd755:0xa4bfafd6434be946!8m2!3d27.0221997!4d74.6750602!16s%2Fg%2F11d_9fl85w!19sChIJVddtYI-eazkRRulLQ9avv6Q?authuser=0&hl=en&rclk=1,"27.022199699999998,74.67506019999999"
Musafirkhana Masjid,Mosque,"2PQF+2X3 Musafirkhana Masjid, Charbhuja Colony, Makrana, Rajasthan 341505",Charbhuja Colony,2PQF+2X3,Makrana,341505,Rajasthan,IN,https://www.google.com/maps/place/Musafirkhana+Masjid/data=!4m7!3m6!1s0x396b9dad01e6e847:0xf6e9206b275835fe!8m2!3d27.0375226!4d74.7249237!16s%2Fg%2F11c31qdfc2!19sChIJR-jmAa2dazkR_jVYJ2sg6fY?authuser=0&hl=en&rclk=1,"27.0375226,74.72492369999999"
Masjid Ata e Rasool,Mosque,"Masjid Ata e Rasool, Gareeb Nawaz Colony Gali no.3 Joosari, road, Makrana",Garib Nawaaz Colony,"Gareeb Nawaz Colony Gali no.3 Joosari, road",Makrana,,Rajasthan,IN,https://www.google.com/maps/place/Masjid+Ata+e+Rasool/data=!4m7!3m6!1s0x396b9df7175efce3:0x43bb559729459b30!8m2!3d27.0400206!4d74.7417538!16s%2Fg%2F11sxwn5g8s!19sChIJ4_xeF_edazkRMJtFKZdVu0M?authuser=0&hl=en&rclk=1,"27.0400206,74.7417538"
Imam AaLi MaKaM Masjid Imam chowk Goda Bass,Mosque,"Imam AaLi MaKaM Masjid Imam chowk Goda Bass, Makrana, Rajasthan 341505",,,Makrana,341505,Rajasthan,IN,https://www.google.com/maps/place/Imam+AaLi+MaKaM+Masjid+Imam+chowk+Goda+Bass/data=!4m7!3m6!1s0x396b9d507bbd940f:0x87a4e8a6e22ab032!8m2!3d27.0366658!4d74.7315443!16s%2Fg%2F11gxt28x9_!19sChIJD5S9e1CdazkRMrAq4qbopIc?authuser=0&hl=en&rclk=1,"27.036665799999998,74.7315443"
masjid BiBi Aamina,Mosque,"2PGV+F75 masjid BiBi Aamina, near manat marble, Deshwali Colony, Deawali Colony, Makrana, Rajasthan 341505","Deshwali Colony, Deawali Colony","2PGV+F75, near manat marble",Makrana,,Rajasthan,IN,https://www.google.com/maps/place/masjid+BiBi+Aamina/data=!4m7!3m6!1s0x396b9d7e69a29e47:0x143b8b71bd93271f!8m2!3d27.0261495!4d74.7432317!16s%2Fg%2F11h4ycpdbf!19sChIJR56iaX6dazkRHyeTvXGLOxQ?authuser=0&hl=en&rclk=1,"27.0261495,74.7432317"
Teliyan Masjid Ahle Hadees,Mosque,"2PQH+XMG Teliyan Masjid Ahle Hadees, Charbhuja Rd, Sadar Bazar, Makrana, Rajasthan 341505",Sadar Bazar,"2PQH+XMG, Charbhuja Rd",Makrana,341505,Rajasthan,IN,https://www.google.com/maps/place/Teliyan+Masjid+Ahle+Hadees/data=!4m7!3m6!1s0x396b9d5c036c50d7:0x77bc459de2dc2c2c!8m2!3d27.0399359!4d74.7291956!16s%2Fg%2F11ptzdl7c5!19sChIJ11BsA1ydazkRLCzc4p1FvHc?authuser=0&hl=en&rclk=1,"27.0399359,74.7291956"
rehmaniya masjid,Mosque,"2PPQ+M7J rehmaniya masjid, Dirdhani, Makrana, Rajasthan 341505",,2PPQ+M7J,"Dirdhani, Makrana",341505,Rajasthan,IN,https://www.google.com/maps/place/rehmaniya+masjid/data=!4m7!3m6!1s0x396b9d01e6d85171:0xa7ca7de6394aac90!8m2!3d27.0367184!4d74.7381254!16s%2Fg%2F11g7_jjr77!19sChIJcVHY5gGdazkRkKxKOeZ9yqc?authuser=0&hl=en&rclk=1,"27.036718399999998,74.7381254"
Hasmudin Baba Ki Dargah,Mosque,"2PRF+82V Hasmudin Baba Ki Dargah, Makrana, Rajasthan 341505",,2PRF+82V,Makrana,341505,Rajasthan,IN,https://www.google.com/maps/place/Hasmudin+Baba+Ki+Dargah/data=!4m7!3m6!1s0x396b9dae05cb1cc9:0x9d53ec5aa7cc8fe2!8m2!3d27.040864!4d74.7225589!16s%2Fg%2F11c6mglk6x!19sChIJyRzLBa6dazkR4o_Mp1rsU50?authuser=0&hl=en&rclk=1,"27.040864,74.7225589"
Raja Mobile Janral Store,Advertising agency,"Raja Mobile Janral Store, Road, Modi Masjid Rd, Muslim Basti, Gunawati, Makrana, Rajasthan 341505","Muslim Basti, Gunawati","Road, Modi Masjid Rd",Makrana,341505,Rajasthan,IN,https://www.google.com/maps/place/Raja+Mobile+Janral+Store/data=!4m7!3m6!1s0x396b9c4dd32c44db:0x53ad043b036356ed!8m2!3d27.0293096!4d74.7185419!16s%2Fg%2F11c2njg4ms!19sChIJ20Qs002cazkR7VZjAzsErVM?authuser=0&hl=en&rclk=1,"27.029309599999998,74.71854189999999"
Janatool Firdosh Masjid,Mosque,"2PHM+RHW Janatool Firdosh Masjid, Naya Nagar, Lohar Pura, Makrana, Rajasthan 341505","Naya Nagar, Lohar Pura",2PHM+RHW,Makrana,341505,Rajasthan,IN,https://www.google.com/maps/place/Janatool+Firdosh+Masjid/data=!4m7!3m6!1s0x396b9cf8a8d6a3f1:0x358f0b1d1e62f1ae!8m2!3d27.0296048!4d74.7339584!16s%2Fg%2F11hcjv4pwy!19sChIJ8aPWqPicazkRrvFiHh0LjzU?authuser=0&hl=en&rclk=1,"27.029604799999998,74.73395839999999"
EidGah,Religious destination,"EidGah, Near, Kabristan Rd, Makrana, Rajasthan 341505",,"Near, Kabristan Rd",Makrana,341505,Rajasthan,IN,https://www.google.com/maps/place/EidGah/data=!4m7!3m6!1s0x396b9db11462d18b:0x4780fdb89962df73!8m2!3d27.0415389!4d74.7179307!16s%2Fg%2F11f2w6k209!19sChIJi9FiFLGdazkRc99imbj9gEc?authuser=0&hl=en&rclk=1,"27.0415389,74.7179307"
Makka Masjid,Mosque,"2M9C+C8G Makka Masjid, Borawar, Makrana, Rajasthan 341542",Borawar,2M9C+C8G,Makrana,341542,Rajasthan,IN,https://www.google.com/maps/place/Makka+Masjid/data=!4m7!3m6!1s0x396b9f280e8de4b5:0xfb7c03d160f228c6!8m2!3d27.0185709!4d74.670819!16s%2Fg%2F11ls2l_gw1!19sChIJteSNDiifazkRxijyYNEDfPs?authuser=0&hl=en&rclk=1,"27.0185709,74.670819"
Sunni Do Masjid,Mosque,"2PQF+JWM Sunni Do Masjid, Do Masjid Station Rd, Sadar Bazar, Makrana, Rajasthan 341505",Sadar Bazar,"2PQF+JWM, Do Masjid Station Rd",Makrana,341505,Rajasthan,IN,https://www.google.com/maps/place/Sunni+Do+Masjid/data=!4m7!3m6!1s0x396b9dadb520dc8d:0xdb2fd7bd3e4ddc2f!8m2!3d27.0390763!4d74.7248096!16s%2Fg%2F11hb36d_hp!19sChIJjdwgta2dazkRL9xNPr3XL9s?authuser=0&hl=en&rclk=1,"27.039076299999998,74.7248096"
Aqsa Masjid(akshaa msjid),Mosque,"2PGQ+7R8 Aqsa Masjid(akshaa msjid), Gahlot Colony, Noor Pura, Makrana, Rajasthan 341505","Gahlot Colony, Noor Pura",2PGQ+7R8,Makrana,,Rajasthan,IN,https://www.google.com/maps/place/Aqsa+Masjid%28%E0%A4%85%E0%A4%95%E0%A5%8D%E0%A4%B6%E0%A4%BE+%E0%A4%AE%E0%A4%B8%E0%A5%8D%E0%A4%9C%E0%A4%BF%E0%A4%A6%29/data=!4m7!3m6!1s0x396b9d4f0cf7da6d:0x811345185faf6cec!8m2!3d27.0256717!4d74.7395748!16s%2Fg%2F11m_zhd1rb!19sChIJbdr3DE-dazkR7GyvXxhFE4E?authuser=0&hl=en&rclk=1,"27.0256717,74.7395748"
Garib Nawaz Masjid Makrana,Mosque,"Garib Nawaz Masjid Makrana, Amana colony gali, no.4, Palada Rd, Makrana",,"Amana colony gali, no.4, Palada Rd",Makrana,,Rajasthan,IN,https://www.google.com/maps/place/Garib+Nawaz+Masjid+Makrana/data=!4m7!3m6!1s0x396b9d16a42e9ae1:0xea4d46e0a8377f64!8m2!3d27.0404668!4d74.74023!16s%2Fg%2F11s22ydbg8!19sChIJ4ZoupBadazkRZH83qOBGTeo?authuser=0&hl=en&rclk=1,"27.040466799999997,74.74023"
Qalandari Masjid,Mosque,"2PQF+JWF Qalandari Masjid, Do Masjid Station Rd, Sadar Bazar, Makrana, Rajasthan 341505",Sadar Bazar,"2PQF+JWF, Do Masjid Station Rd",Makrana,341505,Rajasthan,IN,https://www.google.com/maps/place/Qalandari+Masjid/data=!4m7!3m6!1s0x396b9dadb52088cd:0x50cf59a76e67bb0e!8m2!3d27.0390702!4d74.7248096!16s%2Fg%2F11gdyw5sw8!19sChIJzYggta2dazkRDrtnbqdZz1A?authuser=0&hl=en&rclk=1,"27.039070199999998,74.7248096"
MAKKA MASJID,Mosque,"2MFM+PRC MAKKA MASJID, Borawar, Makrana, Rajasthan 341502",Borawar,2MFM+PRC,Makrana,341502,Rajasthan,IN,https://www.google.com/maps/place/MAKKA+MASJID/data=!4m7!3m6!1s0x396b9f761e4b0c9f:0xa20cab81b12c66f!8m2!3d27.0243198!4d74.6845263!16s%2Fg%2F11j0b4kc2b!19sChIJnwxLHnafazkRb8YSG7jKIAo?authuser=0&hl=en&rclk=1,"27.024319799999997,74.6845263"
Dola Kuwa Masjid,Mosque,"2PPF+CH9 Dola Kuwa Masjid, Dolakuwa Masjid Rd, Ratanpura, Makrana, Rajasthan 341505",Ratanpura,"2PPF+CH9, Dolakuwa Masjid Rd",Makrana,341505,Rajasthan,IN,https://www.google.com/maps/place/Dola+Kuwa+Masjid/data=!4m7!3m6!1s0x396b9d66f4a19183:0x439a864d510d5c96!8m2!3d27.0360338!4d74.7239898!16s%2Fg%2F11q7yg2vbb!19sChIJg5Gh9GadazkRllwNUU2GmkM?authuser=0&hl=en&rclk=1,"27.0360338,74.7239898"
Karbla chowk jama masjid road makrana,Mosque,"2PRC+JXX Karbla chowk jama masjid road makrana, Karbla, chowk, Iqbalpura, Makrana, Rajasthan 341505",Iqbalpura,"2PRC+JXX Karbla, chowk",Makrana,341505,Rajasthan,IN,https://www.google.com/maps/place/Karbla+chowk+jama+masjid+road+makrana/data=!4m7!3m6!1s0x396b9d054fc20bc3:0xd8c5a5a9e1dd283a!8m2!3d27.0416168!4d74.7224962!16s%2Fg%2F11svq9xwb0!19sChIJwwvCTwWdazkROijd4amlxdg?authuser=0&hl=en&rclk=1,"27.0416168,74.7224962"
Masjid-E-Abu Hanifa R.H.,Mosque,"2PVH+X46 Masjid-E-Abu Hanifa R.H., Mathabhar, Makrana, Rajasthan 341505",Mathabhar,2PVH+X46,Makrana,341505,Rajasthan,IN,https://www.google.com/maps/place/Masjid-E-Abu+Hanifa+R.H./data=!4m7!3m6!1s0x396b9da857645795:0x9303ff990b9f13b4!8m2!3d27.0449139!4d74.7277573!16s%2Fg%2F11j0sdtv9g!19sChIJlVdkV6idazkRtBOfC5n_A5M?authuser=0&hl=en&rclk=1,"27.044913899999997,74.7277573"
Hajart Hasamudin babad dargah and mosque,Mosque,"2PRF+63R Hajart Hasamudin babad dargah and mosque, Kabristan Rd, Adarsh Nagar, Makrana, Rajasthan 341505",Adarsh Nagar,"2PRF+63R, Kabristan Rd",Makrana,341505,Rajasthan,IN,https://www.google.com/maps/place/Hajart+Hasamudin+babad+dargah+and+mosque/data=!4m7!3m6!1s0x396b9db66e861db1:0xf279a26822330b43!8m2!3d27.0406124!4d74.7226498!16s%2Fg%2F11j2fd6cwf!19sChIJsR2GbradazkRQwszImiiefI?authuser=0&hl=en&rclk=1,"27.0406124,74.7226498"
Sunni jamia hanfiya,Mosque,"2PRG+8FH Sunni jamia hanfiya, Sadar Bazar, Makrana, Rajasthan 341505",Sadar Bazar,2PRG+8FH,Makrana,341505,Rajasthan,IN,https://www.google.com/maps/place/Sunni+jamia+hanfiya/data=!4m7!3m6!1s0x396b9db921732e79:0xd9f04f258777f022!8m2!3d27.0408043!4d74.7262473!16s%2Fg%2F11j8skmj52!19sChIJeS5zIbmdazkRIvB3hyVP8Nk?authuser=0&hl=en&rclk=1,"27.040804299999998,74.7262473"
Anjuman Sunni Usmaniya Masjid,Mosque,"2PMR+FVV Anjuman Sunni Usmaniya Masjid, Manglana Rd, Makrana, Rajasthan 341505",,"2PMR+FVV, Manglana Rd",Makrana,341505,Rajasthan,IN,https://www.google.com/maps/place/Anjuman+Sunni+Usmaniya+Masjid/data=!4m7!3m6!1s0x396b9dbc69a6500d:0x97b94180557c04dd!8m2!3d27.0337272!4d74.7421722!16s%2Fg%2F11j0bkmch_!19sChIJDVCmabydazkR3QR8VYBBuZc?authuser=0&hl=en&rclk=1,"27.033727199999998,74.7421722"
Minara masjid,Ice cream shop,"2PQM+6M4 Minara masjid, Makrana, Rajasthan 341505",,2PQM+6M4,Makrana,341505,Rajasthan,IN,https://www.google.com/maps/place/Minara+masjid/data=!4m7!3m6!1s0x396b9d5e65dac931:0x1859ece6621d4077!8m2!3d27.0380234!4d74.7341902!16s%2Fg%2F11sd_3tcvk!19sChIJMcnaZV6dazkRd0AdYubsWRg?authuser=0&hl=en&rclk=1,"27.0380234,74.7341902"
SUNNI GHAZALI MASJID MAKRANA,Mosque,"2PFR+4M SUNNI GHAZALI MASJID MAKRANA, Om Colony, Makrana, Rajasthan 341505",Om Colony,2PFR+4M,Makrana,341505,Rajasthan,IN,https://www.google.com/maps/place/SUNNI+GHAZALI+MASJID+MAKRANA/data=!4m7!3m6!1s0x396b9d47dd85b151:0x24fa99a8476cadc5!8m2!3d27.0228588!4d74.7417437!16s%2Fg%2F11trgc1l72!19sChIJUbGF3UedazkRxa1sR6iZ-iQ?authuser=0&hl=en&rclk=1,"27.022858799999998,74.7417437"
Sunni noorani masjid Iqbal pura makrana,Mosque,"2PWC+HWR Sunni noorani masjid Iqbal pura makrana, Madarsa Noorani Rd, Iqbalpura, Mathabhar, Makrana, Rajasthan 341505","Iqbalpura, Mathabhar","2PWC+HWR, Madarsa Noorani Rd",Makrana,341505,Rajasthan,IN,https://www.google.com/maps/place/Sunni+noorani+masjid+Iqbal+pura+makrana/data=!4m7!3m6!1s0x396b9d17f47af749:0x32bfb3f623e39eb0!8m2!3d27.0464762!4d74.7222853!16s%2Fg%2F11sv7vkyp0!19sChIJSfd69BedazkRsJ7jI_azvzI?authuser=0&hl=en&rclk=1,"27.046476199999997,74.7222853"
rehmaniya masjid,Mosque,"2PH7+CRH rehmaniya masjid, Gunawati, Makrana, Rajasthan 341505",Gunawati,2PH7+CRH,Makrana,341505,Rajasthan,IN,https://www.google.com/maps/place/rehmaniya+masjid/data=!4m7!3m6!1s0x396b9c4bdd90b8c1:0x46768bb6cd686db!8m2!3d27.0285581!4d74.714621!16s%2Fg%2F11c7vzjb60!19sChIJwbiQ3UucazkR24bWbLtoZwQ?authuser=0&hl=en&rclk=1,"27.028558099999998,74.714621"
WARD NO 39 SADAR BAZAR MAKRANA,Mosque,"2PRG+CQX WARD NO 39 SADAR BAZAR MAKRANA, Sadar Bazar, Makrana, Rajasthan 341505",Sadar Bazar,2PRG+CQX,Makrana,341505,Rajasthan,IN,https://www.google.com/maps/place/WARD+NO+39+SADAR+BAZAR+MAKRANA/data=!4m7!3m6!1s0x396b9d101b416013:0xba7939843195a11e!8m2!3d27.0411459!4d74.7268561!16s%2Fg%2F11swq3w5ss!19sChIJE2BBGxCdazkRHqGVMYQ5ebo?authuser=0&hl=en&rclk=1,"27.0411459,74.72685609999999"
IMAM AHMED RAZA MASJID,Mosque,"2PGV+H8X IMAM AHMED RAZA MASJID, Deshwali Colony, Deawali Colony, Makrana, Rajasthan 341505","Deshwali Colony, Deawali Colony",2PGV+H8X,Makrana,341505,Rajasthan,IN,https://www.google.com/maps/place/IMAM+AHMED+RAZA+MASJID/data=!4m7!3m6!1s0x396b9d9d5060a3f7:0x24e3091033985f1b!8m2!3d27.0265806!4d74.7433102!16s%2Fg%2F11s0jfk_ww!19sChIJ96NgUJ2dazkRG1-YMxAJ4yQ?authuser=0&hl=en&rclk=1,"27.0265806,74.7433102"
Modee masjid makrana,Housing society,"2PJ9+5X6 Modee masjid makrana, Modi Masjid Rd, Gunawati, Makrana, Rajasthan 341505",Gunawati,"2PJ9+5X6, Modi Masjid Rd",Makrana,341505,Rajasthan,IN,https://www.google.com/maps/place/Modee+masjid+makrana/data=!4m7!3m6!1s0x396b9d10fd63b217:0xb9a3cbc8f00944f3!8m2!3d27.03002!4d74.7200233!16s%2Fg%2F11s3d4y8_q!19sChIJF7Jj_RCdazkR80QJ8MjLo7k?authuser=0&hl=en&rclk=1,"27.03002,74.7200233"
jamia road makrana,Mosque,"3P2H+6JQ jamia road makrana, jamia Rd, Adarsh Nagar, Makrana, Rajasthan 341505",Adarsh Nagar,"3P2H+6JQ, jamia Rd",Makrana,341505,Rajasthan,IN,https://www.google.com/maps/place/jamia+road+makrana/data=!4m7!3m6!1s0x396b9d00f7e15729:0xda4d928cf115b816!8m2!3d27.0505947!4d74.7291036!16s%2Fg%2F11h_6qpk_j!19sChIJKVfh9wCdazkRFrgV8YySTdo?authuser=0&hl=en&rclk=1,"27.050594699999998,74.7291036"
Akhtar raza,Mosque,"2PPP+X6Q Akhtar raza, Bai pass Road, Makrana, Rajasthan 341505",,"2PPP+X6Q, Bai pass Road",Makrana,341505,Rajasthan,IN,https://www.google.com/maps/place/Akhtar+raza/data=!4m7!3m6!1s0x396b9dfeacc6f059:0xdd5f8fe9285b4984!8m2!3d27.0374722!4d74.7356162!16s%2Fg%2F11hyx_93zr!19sChIJWfDGrP6dazkRhElbKOmPX90?authuser=0&hl=en&rclk=1,"27.0374722,74.7356162"
