name,main_category,address,address_ward,address_street,address_city,address_postal_code,address_state,address_country_code,link,coordinates
Kashipur Boro Masjid,Mosque,"Kashipur Boro Masjid, R812, Narayanganj, Bangladesh",Kashipur,R812,Narayanganj,,,BD,https://www.google.com/maps/place/Kashipur+Boro+Masjid/data=!4m7!3m6!1s0x3755b04b5ec4b0b1:0x19276c9c16e2d9cc!8m2!3d23.6018006!4d90.4867975!16s%2Fg%2F11h08tygp!19sChIJsbDEXkuwVTcRzNniFpxsJxk?authuser=0&hl=en&rclk=1,"23.6018006,90.4867975"
Hatkhola Kashipur Masjid/haattkholaa kaashipur msjid,Mosque,"Hatkhola Kashipur Masjid/haattkholaa kaashipur msjid, 59 Narayanganj - Munshiganj Hwy, Narayanganj, Bangladesh",Kashipur,59 Narayanganj - Munshiganj Hwy,Narayanganj,,,BD,https://www.google.com/maps/place/Hatkhola+Kashipur+Masjid%2F%E0%A6%B9%E0%A6%BE%E0%A6%9F%E0%A6%96%E0%A7%8B%E0%A6%B2%E0%A6%BE+%E0%A6%95%E0%A6%BE%E0%A6%B6%E0%A6%BF%E0%A6%AA%E0%A7%81%E0%A6%B0+%E0%A6%AE%E0%A6%B8%E0%A6%9C%E0%A6%BF%E0%A6%A6/data=!4m7!3m6!1s0x3755b1b47a7bb6f7:0xae5887c4c4f2bd51!8m2!3d23.6013128!4d90.490919!16s%2Fg%2F11c328pk4r!19sChIJ97Z7erSxVTcRUb3yxMSHWK4?authuser=0&hl=en&rclk=1,"23.6013128,90.49091899999999"
Masjid e Taj,Mosque,"Masjid e Taj, 1, SH 49, Proffessor Colony, Srikrishnapuri, Samastipur, Bihar 848101","Proffessor Colony, Srikrishnapuri","1, SH 49",Samastipur,848101,Bihar,IN,https://www.google.com/maps/place/Masjid+e+Taj/data=!4m7!3m6!1s0x39ed90a3bae78347:0x736c34dcc752c973!8m2!3d25.865694!4d85.7736305!16s%2Fg%2F11g8v16nf7!19sChIJR4PnuqOQ7TkRc8lSx9w0bHM?authuser=0&hl=en&rclk=1,"25.865693999999998,85.7736305"
Kashipur Hat Jame Mosque,Mosque,"2656+256 Kashipur Hat Jame Mosque, Pabna, Bangladesh",,2656+256,Pabna,,,BD,https://www.google.com/maps/place/Kashipur+Hat+Jame+Mosque/data=!4m7!3m6!1s0x39fe9b070f9f3e67:0xcdc36f2f6951539f!8m2!3d24.0075488!4d89.2103925!16s%2Fg%2F11h9qf2nx1!19sChIJZz6fDweb_jkRn1NRaS9vw80?authuser=0&hl=en&rclk=1,"24.0075488,89.2103925"
Kashipur Masjid msjd,Mosque,"Kashipur Masjid msjd, Bolpur, Bolpur P, West Bengal 731204",,,"Bolpur, Bolpur P",731204,West Bengal,IN,https://www.google.com/maps/place/Kashipur+Masjid+%D9%85%D8%B3%D8%AC%D8%AF%E2%80%AD/data=!4m7!3m6!1s0x39f9db5a04bbd5b9:0x48da40197ed06357!8m2!3d23.6450829!4d87.6871214!16s%2Fg%2F11gfd6ynd7!19sChIJudW7BFrb-TkRV2PQfhlA2kg?authuser=0&hl=en&rclk=1,"23.6450829,87.6871214"
Kashipur Masjid,Mosque,"Ward no 32, Kashipur Masjid, Infront of Chand Commerce classes, Masjid Road, Veer Kunwar Singh Colony, Kashipur, Samastipur, Bihar 848101","Veer Kunwar Singh Colony, Kashipur","Ward no 32, Infront of Chand Commerce classes, Masjid Road",Samastipur,848101,Bihar,IN,https://www.google.com/maps/place/Kashipur+Masjid/data=!4m7!3m6!1s0x39ed90a2aa1ba2f7:0xb6438a76aea42525!8m2!3d25.8619811!4d85.7765917!16s%2Fg%2F11f11k3xyx!19sChIJ96IbqqKQ7TkRJSWkrnaKQ7Y?authuser=0&hl=en&rclk=1,"25.861981099999998,85.7765917"
Kashipur Shahi Mosque,Mosque,"JF4M+8F5 Kashipur Shahi Mosque, Narayanganj - Munshiganj Hwy, Narayanganj, Bangladesh",Kashipur,"JF4M+8F5, Narayanganj - Munshiganj Hwy",Narayanganj,,,BD,https://www.google.com/maps/place/Kashipur+Shahi+Mosque/data=!4m7!3m6!1s0x3755b04ddaf9a39b:0x6457250bbb7d0e39!8m2!3d23.6057635!4d90.4837445!16s%2Fg%2F11c4633hsq!19sChIJm6P52k2wVTcROQ59uwslV2Q?authuser=0&hl=en&rclk=1,"23.6057635,90.4837445"
Kashipur Bazar Jame Masjid,Mosque,"2582+WF9 Kashipur Bazar Jame Masjid, kashipur high school Rd, Barogaon, Bangladesh",,"2582+WF9, kashipur high school Rd",Barogaon,,,BD,https://www.google.com/maps/place/Kashipur+Bazar+Jame+Masjid/data=!4m7!3m6!1s0x37549f411a486505:0x7c0e9e79edef86dd!8m2!3d23.0172831!4d91.1512194!16s%2Fg%2F11dxf0vpt9!19sChIJBWVIGkGfVDcR3Ybv7XmeDnw?authuser=0&hl=en&rclk=1,"23.0172831,91.1512194"
CHAK KASHIPUR JAMA MASJID,Mosque,"C5F7+WF9 CHAK KASHIPUR JAMA MASJID, Birlapur, Chak Kashipur, Raypur, West Bengal 743318",Birlapur,C5F7+WF9,"Chak Kashipur, Raypur",743318,West Bengal,IN,https://www.google.com/maps/place/CHAK+KASHIPUR+JAMA+MASJID/data=!4m7!3m6!1s0x3a0287f95326bce7:0xd60570b5c1e0edb0!8m2!3d22.4247919!4d88.1637309!16s%2Fg%2F11c1thk22q!19sChIJ57wmU_mHAjoRsO3gwbVwBdY?authuser=0&hl=en&rclk=1,"22.4247919,88.16373089999999"
Metoait Jame Masjid,Mosque,"HH2V+MFV Metoait Jame Masjid, Metoait, Kashipur, Uttar Kasipur, West Bengal 700135",Metoait,HH2V+MFV,"Kashipur, Uttar Kasipur",700135,West Bengal,IN,https://www.google.com/maps/place/Metoait+Jame+Masjid/data=!4m7!3m6!1s0x3a02091d0e7f023f:0x99d33aef9d8244f7!8m2!3d22.5517464!4d88.5936571!16s%2Fg%2F11ggrbyp5t!19sChIJPwJ_Dh0JAjoR90SCne8605k?authuser=0&hl=en&rclk=1,"22.5517464,88.5936571"
Rudrapur Tunighata Jame Masjid,Mosque,"RM7V+98P Rudrapur Tunighata Jame Masjid, Kashipur Bazar, Rudrapur, West Bengal 743271",Kashipur Bazar,RM7V+98P,Rudrapur,743271,West Bengal,IN,https://www.google.com/maps/place/Rudrapur+Tunighata+Jame+Masjid/data=!4m7!3m6!1s0x39f8b1e717121c6b:0x30472560be15e411!8m2!3d22.8134734!4d88.6933429!16s%2Fg%2F11ddwydzjj!19sChIJaxwSF-ex-DkREeQVvmAlRzA?authuser=0&hl=en&rclk=1,"22.8134734,88.69334289999999"
Kashipur Bazar Jame Masjid,Mosque,"Kashipur Bazar Jame Masjid, Kashipur Bazar, Homna, Bangladesh",,Kashipur Bazar,Homna,,,BD,https://www.google.com/maps/place/Kashipur+Bazar+Jame+Masjid/data=!4m7!3m6!1s0x375443e0aad08b9d:0xdb38fa71e2fc43e!8m2!3d23.6598848!4d90.8483418!16s%2Fg%2F11f383xq5h!19sChIJnYvQquBDVDcRPsQvHqePsw0?authuser=0&hl=en&rclk=1,"23.6598848,90.8483418"
Pithapukuria jame Masjid,Mosque,"HH34+79J Pithapukuria jame Masjid, Pithapukur, kashipur, Kolkata, West Bengal 700135",Pithapukur,HH34+79J,"kashipur, Kolkata",700135,West Bengal,IN,https://www.google.com/maps/place/Pithapukuria+jame+Masjid/data=!4m7!3m6!1s0x3a020bd811b34bc3:0xc868de9ec4f0eaa4!8m2!3d22.5532091!4d88.5558916!16s%2Fg%2F11c1w0mn4r!19sChIJw0uzEdgLAjoRpOrwxJ7eaMg?authuser=0&hl=en&rclk=1,"22.5532091,88.5558916"
Kashipur Jame Masjid,Mosque,"HH5W+6QP Kashipur Jame Masjid, Uttar Kasipur, West Bengal 700135",,HH5W+6QP,Uttar Kasipur,700135,West Bengal,IN,https://www.google.com/maps/place/Kashipur+Jame+Masjid/data=!4m7!3m6!1s0x3a0208fdba873d73:0x4a446dbf90b206f1!8m2!3d22.5580845!4d88.5969623!16s%2Fg%2F11g68wv4db!19sChIJcz2Huv0IAjoR8QaykL9tREo?authuser=0&hl=en&rclk=1,"22.5580845,88.5969623"
Kashipur Masjid,Mosque,"2F7W+GXJ Kashipur Masjid, Bangladesh",,2F7W+GXJ,,,,BD,https://www.google.com/maps/place/Kashipur+Masjid/data=!4m7!3m6!1s0x37536a946edbc9d3:0x93137c91a088585e!8m2!3d23.0138478!4d91.4973781!16s%2Fg%2F11b6hy3yg3!19sChIJ08nbbpRqUzcRXliIoJF8E5M?authuser=0&hl=en&rclk=1,"23.0138478,91.49737809999999"
Joypur Jame Masjid,Mosque,"GHGQ+W85 Joypur Jame Masjid, Jaypur, Kashipur, West Bengal",,"GHGQ+W85, Jaypur","Kashipur, Nimkuria",,West Bengal,IN,https://www.google.com/maps/place/Joypur+Jame+Masjid/data=!4m7!3m6!1s0x3a02092efd86123d:0xadac50f30f37c985!8m2!3d22.5272738!4d88.5883507!16s%2Fg%2F11f53v3_t3!19sChIJPRKG_S4JAjoRhck3D_NQrK0?authuser=0&hl=en&rclk=1,"22.5272738,88.58835069999999"
KASIPUR ADI JAME MASJID,Mosque,"HH5V+XWV KASIPUR ADI JAME MASJID, Uttar Kasipur, West Bengal 700135",,HH5V+XWV,Uttar Kasipur,700135,West Bengal,IN,https://www.google.com/maps/place/KASIPUR+ADI+JAME+MASJID/data=!4m7!3m6!1s0x3a02090202459433:0x9204131f11d11dce!8m2!3d22.5599824!4d88.5948053!16s%2Fg%2F11dyz4y39d!19sChIJM5RFAgIJAjoRzh3RER8TBJI?authuser=0&hl=en&rclk=1,"22.5599824,88.59480529999999"
Kashipur Jame Mosjid,Mosque,"43V8+5GC Kashipur Jame Mosjid, Monohorganj, Bangladesh",,43V8+5GC,Monohorganj,,,BD,https://www.google.com/maps/place/Kashipur+Jame+Mosjid/data=!4m7!3m6!1s0x37549a87afa7a7c5:0x207b2c8c0f60bcee!8m2!3d23.1429318!4d91.0662528!16s%2Fg%2F11cs4y6_bn!19sChIJxaenr4eaVDcR7rxgD4wseyA?authuser=0&hl=en&rclk=1,"23.1429318,91.0662528"
Bhumru Jame Masjid,Mosque,"GJQ7+85C Bhumru Jame Masjid, Bankachua Bhumru, Bhangar Raghunathpur, Kashipur, West Bengal 743502",,"GJQ7+85C, Bankachua Bhumru","Bhangar Raghunathpur, Kashipur",743502,West Bengal,IN,https://www.google.com/maps/place/Bhumru+Jame+Masjid/data=!4m7!3m6!1s0x3a0209fa5d503991:0x2c1374cd57a0f81e!8m2!3d22.5383086!4d88.6128933!16s%2Fg%2F11fmvjp12s!19sChIJkTlQXfoJAjoRHvigV810Eyw?authuser=0&hl=en&rclk=1,"22.5383086,88.6128933"
Uria Para Jame Masjid,Mosque,"HHQ6+PPR Uria Para Jame Masjid, Uria Para, Kashipur, Gazipur, West Bengal 700135",Uria Para,HHQ6+PPR,"Kashipur, Gazipur",700135,West Bengal,IN,https://www.google.com/maps/place/Uria+Para+Jame+Masjid/data=!4m7!3m6!1s0x3a02098cac73ca1d:0xab967c05c0a186e9!8m2!3d22.5893512!4d88.5617731!16s%2Fg%2F11f53vp97_!19sChIJHcpzrIwJAjoR6YahwAV8lqs?authuser=0&hl=en&rclk=1,"22.5893512,88.5617731"
"Kashipur,Jumaa Masjid",Mosque,"5X9V+X48 Kashipur,Jumaa Masjid, kashipur, Kulamani, Singhia Kulamani, Goaltoli, Bihar 855107",,"5X9V+X48, kashipur, Kulamani","Singhia Kulamani, Goaltoli",855107,Bihar,IN,"https://www.google.com/maps/place/Kashipur,Jumaa+Masjid/data=!4m7!3m6!1s0x39e51060053f0b71:0x21a6c5f0cdd4b0d6!8m2!3d26.1699248!4d87.9928145!16s%2Fg%2F11f124ls_7!19sChIJcQs_BWAQ5TkR1rDUzfDFpiE?authuser=0&hl=en&rclk=1","26.1699248,87.9928145"
Kashipur Baitul Falah Jame Mosjid,Mosque,"JF3M+HVM Kashipur Baitul Falah Jame Mosjid, R812, Narayanganj, Bangladesh",Kashipur,"JF3M+HVM, R812",Narayanganj,,,BD,https://www.google.com/maps/place/Kashipur+Baitul+Falah+Jame+Mosjid/data=!4m7!3m6!1s0x3755b1c20baaac33:0xd07148e226e4478c!8m2!3d23.6039547!4d90.4846716!16s%2Fg%2F11gk0bjxlx!19sChIJM6yqC8KxVTcRjEfkJuJIcdA?authuser=0&hl=en&rclk=1,"23.6039547,90.4846716"
Jama Masjid,Mosque,"3R26+6MP Jama Masjid, Masoompur, Uttar Pradesh 244401",,3R26+6MP,Masoompur,244401,Uttar Pradesh,IN,https://www.google.com/maps/place/Jama+Masjid/data=!4m7!3m6!1s0x390a5113dfe0e329:0x3f32d0b50429bbef!8m2!3d29.0505948!4d78.8116918!16s%2Fg%2F11h24px56g!19sChIJKePg3xNRCjkR77spBLXQMj8?authuser=0&hl=en&rclk=1,"29.0505948,78.81169179999999"
Kolan Kashipur Para Masjid,Mosque,"68WH+PQG Kolan Kashipur Para Masjid, Kolan Radhakantapur, West Bengal 742123",,68WH+PQG,Kolan Radhakantapur,742123,West Bengal,IN,https://www.google.com/maps/place/Kolan+Kashipur+Para+Masjid/data=!4m7!3m6!1s0x39fbda0ebaf34913:0xddf5c4487dc2fd94!8m2!3d24.2468204!4d88.3294607!16s%2Fg%2F11f24v_ly0!19sChIJE0nzug7a-zkRlP3CfUjE9d0?authuser=0&hl=en&rclk=1,"24.246820399999997,88.3294607"
Kashipur Masjid,Mosque,"MW8C+JW6 Kashipur Masjid, Ramchandrapur Rd, Kashipur, Bangladesh",,"MW8C+JW6, Ramchandrapur Rd",Kashipur,,,BD,https://www.google.com/maps/place/Kashipur+Masjid/data=!4m7!3m6!1s0x37546a1e379e198b:0x85adde01822b934d!8m2!3d23.6665374!4d90.9222561!16s%2Fg%2F1tgcq6zm!19sChIJixmeNx5qVDcRTZMrggHerYU?authuser=0&hl=en&rclk=1,"23.6665374,90.9222561"
Kantadanga Jame Masjid,Mosque,"GJV4+52P Kantadanga Jame Masjid, Kashipur, Kantadanga, West Bengal 700135",,"GJV4+52P, Kashipur","Kantadanga, Bankachua",700135,West Bengal,IN,https://www.google.com/maps/place/Kantadanga+Jame+Masjid/data=!4m7!3m6!1s0x3a0208e8076c8941:0x9963b8038296c943!8m2!3d22.5429722!4d88.6050857!16s%2Fg%2F11dx95tvvg!19sChIJQYlsB-gIAjoRQ8mWggO4Y5k?authuser=0&hl=en&rclk=1,"22.542972199999998,88.60508569999999"
Purbo Kashipur Jame Masjid,Mosque,"87H9+V53 Purbo Kashipur Jame Masjid, Bangladesh",,87H9+V53,,,,BD,https://www.google.com/maps/place/Purbo+Kashipur+Jame+Masjid/data=!4m7!3m6!1s0x37537f1fd62e1e31:0x6428242613fca7fb!8m2!3d23.3296476!4d91.2679081!16s%2Fg%2F11bw67ylst!19sChIJMR4u1h9_UzcR-6f8EyYkKGQ?authuser=0&hl=en&rclk=1,"23.329647599999998,91.2679081"
Kashipur Murshidtolla Sultani Jama Masjid,Mosque,"HH6W+Q7P Kashipur Murshidtolla Sultani Jama Masjid, Uttar Kasipur, West Bengal 700135",,HH6W+Q7P,Uttar Kasipur,700135,West Bengal,IN,https://www.google.com/maps/place/Kashipur+Murshidtolla+Sultani+Jama+Masjid/data=!4m7!3m6!1s0x3a0208fe2360c3b5:0x69c906f860bc2873!8m2!3d22.5619737!4d88.5956969!16s%2Fg%2F11f24vpvch!19sChIJtcNgI_4IAjoRcyi8YPgGyWk?authuser=0&hl=en&rclk=1,"22.5619737,88.5956969"
Chand Masjid,Mosque,"XRPW+JXJ Chand Masjid, Dist, Kashipur Rd, Jahidpur Sikampur Mustahkam, Uttar Pradesh 244402",,"XRPW+JXJ, Dist, Kashipur Rd","Jahidpur Sikampur Mustahkam, Jahidpur",244402,Uttar Pradesh,IN,https://www.google.com/maps/place/Chand+Masjid/data=!4m7!3m6!1s0x390a58257018fe1f:0x56a2e73335a15f73!8m2!3d28.9865877!4d78.8473825!16s%2Fg%2F11fxvllffq!19sChIJH_4YcCVYCjkRc1-hNTPnolY?authuser=0&hl=en&rclk=1,"28.986587699999998,78.8473825"
Kashipur Khan para Jame masjid,Mosque,"HH7P+QQQ Kashipur Khan para Jame masjid, Uttar Kasipur, West Bengal 700135",,HH7P+QQQ,Uttar Kasipur,700135,West Bengal,IN,https://www.google.com/maps/place/Kashipur+Khan+para+Jame+masjid/data=!4m7!3m6!1s0x3a020907be0fec65:0xb7681ca8fad6da88!8m2!3d22.5644722!4d88.5869928!16s%2Fg%2F11hblj1yh7!19sChIJZewPvgcJAjoRiNrW-qgcaLc?authuser=0&hl=en&rclk=1,"22.564472199999997,88.58699279999999"
Kashipur Jame Mosjid,Mosque,"MGXW+W7H Kashipur Jame Mosjid, Kashipur, Bangladesh",,"MGXW+W7H, Kashipur",Bandar,,,BD,https://www.google.com/maps/place/Kashipur+Jame+Mosjid/data=!4m7!3m6!1s0x3755b55ffb76b8a5:0x6bd1390c240dc914!8m2!3d23.6998073!4d90.5457192!16s%2Fg%2F11h6v8qczk!19sChIJpbh2-1-1VTcRFMkNJAw50Ws?authuser=0&hl=en&rclk=1,"23.6998073,90.5457192"
Purbo Kashipur Kendriyo Jame Masjid,Mosque,"JRXF+GXW Purbo Kashipur Kendriyo Jame Masjid, Bangladesh",,JRXF+GXW,,,,BD,https://www.google.com/maps/place/Purbo+Kashipur+Kendriyo+Jame+Masjid/data=!4m7!3m6!1s0x375444094e0a5281:0x63f36aec8806f797!8m2!3d23.6488614!4d90.8249449!16s%2Fg%2F11c70br4hd!19sChIJgVIKTglEVDcRl_cGiOxq82M?authuser=0&hl=en&rclk=1,"23.648861399999998,90.82494489999999"
South kashipur Jame Mosjid,Mosque,"2565+R2W South kashipur Jame Mosjid, B296, Barogaon, Bangladesh",,"2565+R2W, B296",Barogaon,,,BD,https://www.google.com/maps/place/South+kashipur+Jame+Mosjid/data=!4m7!3m6!1s0x37549f57579c2cf5:0x486b1aad923d8753!8m2!3d23.0121162!4d91.1575905!16s%2Fg%2F11fmz9fq0r!19sChIJ9SycV1efVDcRU4c9kq0aa0g?authuser=0&hl=en&rclk=1,"23.012116199999998,91.1575905"
ftehpuurii msjid,Mosque,"XRRW+P87 ftehpuurii msjid, Jahidpur, Sikampur, Kashipur Rd, Moradabad, Uttar Pradesh 244402",,"XRRW+P87, Jahidpur, Sikampur, Kashipur Rd","Moradabad, Jahidpur",244402,Uttar Pradesh,IN,https://www.google.com/maps/place/%E0%A5%9E%E0%A4%A4%E0%A5%87%E0%A4%B9%E0%A4%AA%E0%A5%82%E0%A4%B0%E0%A5%80+%E0%A4%AE%E0%A4%B8%E0%A5%8D%E0%A4%9C%E0%A4%BF%E0%A4%A6/data=!4m7!3m6!1s0x390a582e93bb40cf:0x29d1597c2109663c!8m2!3d28.9917759!4d78.8458119!16s%2Fg%2F11gf97zt9m!19sChIJz0C7ky5YCjkRPGYJIXxZ0Sk?authuser=0&hl=en&rclk=1,"28.9917759,78.8458119"
Noori Masjid Kashipur,Mosque,"3F34+68F Noori Masjid Kashipur, Kashipur, Uttar Pradesh 228161",,3F34+68F,Kashipur,228161,Uttar Pradesh,IN,https://www.google.com/maps/place/Noori+Masjid+Kashipur/data=!4m7!3m6!1s0x399065eb0e84225f:0x32e886e0f1beb846!8m2!3d26.0530503!4d82.455789!16s%2Fg%2F11crznjdl5!19sChIJXyKEDutlkDkRRri-8eCG6DI?authuser=0&hl=en&rclk=1,"26.0530503,82.455789"
AL AKSA JAME MASJID aal-aaksaa jaame msjid,Mosque,"P8CQ+6XR AL AKSA JAME MASJID aal-aaksaa jaame msjid, haji sarak, esakathi, Barishal, Bangladesh",Kashipur,"P8CQ+6XR, haji sarak, esakathi",Barishal,,,BD,https://www.google.com/maps/place/AL+AKSA+JAME+MASJID+%E0%A6%86%E0%A6%B2-%E0%A6%86%E0%A6%95%E0%A6%B8%E0%A6%BE+%E0%A6%9C%E0%A6%BE%E0%A6%AE%E0%A7%87+%E0%A6%AE%E0%A6%B8%E0%A6%9C%E0%A6%BF%E0%A6%A6/data=!4m7!3m6!1s0x37553797d6c180b5:0x6c8c86aff527deb6!8m2!3d22.7206058!4d90.3399003!16s%2Fg%2F11h57xp8sl!19sChIJtYDB1pc3VTcRtt4n9a-GjGw?authuser=0&hl=en&rclk=1,"22.720605799999998,90.3399003"
Kashipur Dakkhin Para Mandir...Sosthi Tola,Hindu temple,"V845+2FV Kashipur Dakkhin Para Mandir...Sosthi Tola, Kashipur, West Bengal 742174",,V845+2FV,Kashipur,,West Bengal,IN,https://www.google.com/maps/place/Kashipur+Dakkhin+Para+Mandir...Sosthi+Tola/data=!4m7!3m6!1s0x39f971f40815c4a1:0xf8d13803439f6588!8m2!3d23.8551136!4d88.3086741!16s%2Fg%2F11gfgs4m1g!19sChIJocQVCPRx-TkRiGWfQwM40fg?authuser=0&hl=en&rclk=1,"23.8551136,88.30867409999999"
Maszid e Bilal,Mosque,"V343+3Q4 Maszid e Bilal, Unnamed Road, Kashipur, Uttar Pradesh 244927",,"V343+3Q4, Unnamed Road",Kashipur,244927,Uttar Pradesh,IN,https://www.google.com/maps/place/Maszid+e+Bilal/data=!4m7!3m6!1s0x390a8dc44995af23:0xbbe0d8519abaa9ec!8m2!3d28.8551471!4d79.0544566!16s%2Fg%2F11h7cdzr9n!19sChIJI6-VScSNCjkR7Km6mlHY4Ls?authuser=0&hl=en&rclk=1,"28.8551471,79.0544566"
Kashipur Masjid,Mosque,"6RHV+4V3 Kashipur Masjid, Kashipur, West Bengal",,6RHV+4V3,Kashipur,,West Bengal,IN,https://www.google.com/maps/place/Kashipur+Masjid/data=!4m7!3m6!1s0x39ff2dbef41f9073:0xf51d2164df62f3c2!8m2!3d23.2277651!4d88.8446686!16s%2Fg%2F11j906dzy0!19sChIJc5Af9L4t_zkRwvNi32QhHfU?authuser=0&hl=en&rclk=1,"23.2277651,88.84466859999999"
KASHIPUR- MASJID E NAMIRA (kaashipur maasji-i-naamiraa),Mosque,"6FGW+85V KASHIPUR- MASJID E NAMIRA (kaashipur maasji-i-naamiraa), Kashipur Road, Kamaria, West Bengal 743337",,"6FGW+85V, Kashipur Road",Kamaria,743337,West Bengal,IN,https://www.google.com/maps/place/KASHIPUR-+MASJID+E+NAMIRA+%28%E0%A6%95%E0%A6%BE%E0%A6%B6%E0%A6%BF%E0%A6%AA%E0%A7%81%E0%A6%B0+%E0%A6%AE%E0%A6%BE%E0%A6%B8%E0%A6%9C%E0%A6%BF-%E0%A6%87-%E0%A6%A8%E0%A6%BE%E0%A6%AE%E0%A6%BF%E0%A6%B0%E0%A6%BE%29/data=!4m7!3m6!1s0x3a023f56871130eb:0x944490eb418b30f6!8m2!3d22.225853!4d88.4954207!16s%2Fg%2F11qnjsdpkn!19sChIJ6zARh1Y_AjoR9jCLQeuQRJQ?authuser=0&hl=en&rclk=1,"22.225853,88.4954207"
Masjid e Bilal (RH),Mosque,"Masjid e Bilal (RH), krishnamati, Kashipur, West Bengal, India,South 24 Parganas,pin, 743502",,"krishnamati, Kashipur, West Bengal, India,South 24 Parganas,pin",Bamunia,743502,West Bengal,IN,https://www.google.com/maps/place/Masjid+e+Bilal+%28RH%29/data=!4m7!3m6!1s0x3a020be4510726e1:0xa40b540547516420!8m2!3d22.5396922!4d88.5534273!16s%2Fg%2F11fhv4yzlv!19sChIJ4SYHUeQLAjoRIGRRRwVUC6Q?authuser=0&hl=en&rclk=1,"22.539692199999998,88.5534273"
Kashipur Home,Place of worship,"5XX9+P4F Kashipur Home, Kashipur, Uttarakhand 244713",,5XX9+P4F,Kashipur,244713,Uttarakhand,IN,https://www.google.com/maps/place/Kashipur+Home/data=!4m7!3m6!1s0x390a4380438137d9:0x42abf5139c93a7c1!8m2!3d29.1993057!4d78.9678045!16s%2Fg%2F11tryd6mpk!19sChIJ2TeBQ4BDCjkRwaeTnBP1q0I?authuser=0&hl=en&rclk=1,"29.1993057,78.9678045"
Masjid,Mosque,"CMJC+W46 Masjid, Kashipur, West Bengal 723121",,CMJC+W46,Kashipur,723121,West Bengal,IN,https://www.google.com/maps/place/Masjid/data=!4m7!3m6!1s0x39f6f74280443a3f:0x9e80e3c830744cbe!8m2!3d23.4322839!4d86.6702515!16s%2Fg%2F11g0h1gb_c!19sChIJPzpEgEL39jkRvkx0MMjjgJ4?authuser=0&hl=en&rclk=1,"23.432283899999998,86.67025149999999"
Uttar Para Masjid,Mosque,"V73W+7PC Uttar Para Masjid, Kashipur, West Bengal 742163",,V73W+7PC,Kashipur,,West Bengal,IN,https://www.google.com/maps/place/Uttar+Para+Masjid/data=!4m7!3m6!1s0x39f97188e6832a3f:0xd9ae1fc357434f10!8m2!3d23.8531767!4d88.2967766!16s%2Fg%2F11hcdjnmr6!19sChIJPyqD5ohx-TkREE9DV8Mfrtk?authuser=0&hl=en&rclk=1,"23.8531767,88.2967766"
gaaNaaitt jaame msjid,Mosque,"HG5V+5XX gaaNaaitt jaame msjid, gaaNaaitt jaame msjid  / vill-Gangait, p.o-Pithapukur, p.s-Kashipur,dist, Pitha Pukuria",Bantala,"HG5V+5XX, gaaNaaitt jaame msjid  / vill-Gangait, p.o-Pithapukur, p.s-Kashipur,dist",Pitha Pukuria,,West Bengal,IN,https://www.google.com/maps/place/%E0%A6%97%E0%A6%BE%E0%A6%82%E0%A6%86%E0%A6%87%E0%A6%9F+%E0%A6%9C%E0%A6%BE%E0%A6%AE%E0%A7%87+%E0%A6%AE%E0%A6%B8%E0%A6%9C%E0%A6%BF%E0%A6%A6/data=!4m7!3m6!1s0x3a020b1d64bcbb93:0xe6d9db73c4e2c7d4!8m2!3d22.5579793!4d88.5449871!16s%2Fg%2F11k03r_z5n!19sChIJk7u8ZB0LAjoR1MfixHPb2eY?authuser=0&hl=en&rclk=1,"22.5579793,88.5449871"
Shiv Mandir,Hindu temple,"6W4X+CPP Shiv Mandir, Unnamed Road, Kashipur, Uttarakhand 244713",,"6W4X+CPP, Unnamed Road",Kashipur,244713,Uttarakhand,IN,https://www.google.com/maps/place/Shiv+Mandir/data=!4m7!3m6!1s0x390a439473b9adcd:0x3847937d508dba28!8m2!3d29.2060946!4d78.9493352!16s%2Fg%2F11f9zxmkjn!19sChIJza25c5RDCjkRKLqNUH2TRzg?authuser=0&hl=en&rclk=1,"29.2060946,78.9493352"
Eid gaah,Mosque,"RVGC+3WX Eid gaah, Dalpatpur, Kashipur Rd, Uttar Pradesh",,"RVGC+3WX, Dalpatpur, Kashipur Rd",Yaqutpur Chaparra,,Uttar Pradesh,IN,https://www.google.com/maps/place/Eid+gaah/data=!4m7!3m6!1s0x390af143dbb52a67:0x26c0291ded2575d9!8m2!3d28.8252491!4d78.8723724!16s%2Fg%2F11h2mcys9l!19sChIJZyq120PxCjkR2XUl7R0pwCY?authuser=0&hl=en&rclk=1,"28.825249099999997,78.8723724"
Kashipur bazar jame masjid,Mosque,"4667+5M4 Kashipur bazar jame masjid, Unnamed Road, Bangladesh",,"4667+5M4, Unnamed Road",,,,BD,https://www.google.com/maps/place/Kashipur+bazar+jame+masjid/data=!4m7!3m6!1s0x3753638eee38f54d:0x7295baf102370a6!8m2!3d23.1103977!4d91.2141925!16s%2Fg%2F11frpggyxg!19sChIJTfU47o5jUzcRpnAjEK9bKQc?authuser=0&hl=en&rclk=1,"23.1103977,91.2141925"
Gulshne Madina Masjid ( pshcim vaalii),Mosque,"Gulshne Madina Masjid ( pshcim vaalii), Moradabad - Kashipur Rd, Hamirpur, Godhi, Uttar Pradesh 244001",,Moradabad - Kashipur Rd,"Hamirpur, Godhi",244001,Uttar Pradesh,IN,https://www.google.com/maps/place/Gulshne+Madina+Masjid+%28+%E0%A4%AA%E0%A4%B6%E0%A5%8D%E0%A4%9A%E0%A4%BF%E0%A4%AE+%E0%A4%B5%E0%A4%BE%E0%A4%B2%E0%A5%80%29/data=!4m7!3m6!1s0x390af90b12989d2d:0xd2791f750816a060!8m2!3d28.884945!4d78.8372452!16s%2Fg%2F11r6bwslpy!19sChIJLZ2YEgv5CjkRYKAWCHUfedI?authuser=0&hl=en&rclk=1,"28.884945,78.8372452"
Kashipur High School Para Jame MASJZID,Mosque,"V865+24X Kashipur High School Para Jame MASJZID, Murshidabad, West Bengal 742174",,V865+24X,Murshidabad,,West Bengal,IN,https://www.google.com/maps/place/Kashipur+High+School+Para+Jame+MASJZID/data=!4m7!3m6!1s0x39f9713d006e0c65:0x885f2181d44b9d48!8m2!3d23.8601015!4d88.3078708!16s%2Fg%2F11hdn_11mf!19sChIJZQxuAD1x-TkRSJ1L1IEhX4g?authuser=0&hl=en&rclk=1,"23.8601015,88.30787079999999"
Kashipur Jamamasjid,Mosque,"587H+XP3 Kashipur Jamamasjid, Kasipur, West Bengal 712146",,587H+XP3,Kasipur,,West Bengal,IN,https://www.google.com/maps/place/Kashipur+Jamamasjid/data=!4m7!3m6!1s0x39f8ef251dbdf50b:0xe718102207e2d0d5!8m2!3d23.1648796!4d88.3292978!16s%2Fg%2F11f8jwfjmj!19sChIJC_W9HSXv-DkR1dDiByIQGOc?authuser=0&hl=en&rclk=1,"23.1648796,88.32929779999999"
Kashipur(Purbo Para) bhangura bangladesh,Mosque,"692M+776 Kashipur(Purbo Para) bhangura bangladesh, Bhangura, Bangladesh",,692M+776,Bhangura,,,BD,https://www.google.com/maps/place/Kashipur%28Purbo+Para%29+bhangura+bangladesh/data=!4m7!3m6!1s0x39fc2b4c9dae5683:0xee8b887cabb196f9!8m2!3d24.2006565!4d89.3831364!16s%2Fg%2F11fqvygkm7!19sChIJg1aunUwr_DkR-Zaxq3yIi-4?authuser=0&hl=en&rclk=1,"24.200656499999997,89.3831364"
kaashiipur khaanaay'e khodaa jummaa msjid,Mosque,"C5HF+C4P kaashiipur khaanaay'e khodaa jummaa msjid, Hasnecha, Chak Kashipur, Raypur, West Bengal 743318",Hasnecha,C5HF+C4P,"Chak Kashipur, Raypur",,West Bengal,IN,https://www.google.com/maps/place/%E0%A6%95%E0%A6%BE%E0%A6%B6%E0%A7%80%E0%A6%AA%E0%A7%81%E0%A6%B0+%E0%A6%96%E0%A6%BE%E0%A6%A8%E0%A6%BE%E0%A6%AF%E0%A6%BC%E0%A7%87+%E0%A6%96%E0%A7%8B%E0%A6%A6%E0%A6%BE+%E0%A6%9C%E0%A7%81%E0%A6%AE%E0%A7%8D%E0%A6%AE%E0%A6%BE+%E0%A6%AE%E0%A6%B8%E0%A6%9C%E0%A6%BF%E0%A6%A6/data=!4m7!3m6!1s0x3a027df7084137b1:0xb0d0645614eb5c94!8m2!3d22.4285984!4d88.1728128!16s%2Fg%2F11r5vrdhdw!19sChIJsTdBCPd9AjoRlFzrFFZk0LA?authuser=0&hl=en&rclk=1,"22.4285984,88.1728128"
Kashipur Jame masjid,Mosque,"44XJ+R73 Kashipur Jame masjid, Khariberia, West Bengal 721635",,44XJ+R73,Khariberia,721635,West Bengal,IN,https://www.google.com/maps/place/Kashipur+Jame+masjid/data=!4m7!3m6!1s0x3a02f501a3b17ebd:0xfccfbe0cef419f54!8m2!3d22.1495116!4d88.130669!16s%2Fg%2F11hn8bbdzt!19sChIJvX6xowH1AjoRVJ9B7wy-z_w?authuser=0&hl=en&rclk=1,"22.1495116,88.130669"
Maszid e Ali,Mosque,"V333+MXQ Maszid e Ali, Unnamed Road, Kashipur, Uttar Pradesh 244927",,"V333+MXQ, Unnamed Road",Kashipur,244927,Uttar Pradesh,IN,https://www.google.com/maps/place/Maszid+e+Ali/data=!4m7!3m6!1s0x390a8d6280a7a6a9:0x39870f655af31b2b!8m2!3d28.8542199!4d79.0549826!16s%2Fg%2F11fl8rj19k!19sChIJqaangGKNCjkRKxvzWmUPhzk?authuser=0&hl=en&rclk=1,"28.8542199,79.0549826"
sugra masjid,Religious destination,"3236+687 sugra masjid, Kashipur Darhiyal Road, Darhiyal, Dariyal Musthkam, Uttar Pradesh 244925",,"3236+687, Kashipur Darhiyal Road","Darhiyal, Dariyal Musthkam",244925,Uttar Pradesh,IN,https://www.google.com/maps/place/sugra+masjid/data=!4m7!3m6!1s0x390a5f3c6caade7b:0x43111deb0c96aac7!8m2!3d29.0530492!4d79.0108002!16s%2Fg%2F11vbw0tjs0!19sChIJe96qbDxfCjkRx6qWDOsdEUM?authuser=0&hl=en&rclk=1,"29.0530492,79.01080019999999"
iidgaah kaashiipur,Mosque,"V354+PF4 iidgaah kaashiipur, Kashipur, Uttar Pradesh 244927",,V354+PF4,Kashipur,244927,Uttar Pradesh,IN,https://www.google.com/maps/place/%E0%A4%88%E0%A4%A6%E0%A4%97%E0%A4%BE%E0%A4%B9+%E0%A4%95%E0%A4%BE%E0%A4%B6%E0%A5%80%E0%A4%AA%E0%A5%81%E0%A4%B0/data=!4m7!3m6!1s0x390a8d0151b43bbf:0xef4b384082a64720!8m2!3d28.8588105!4d79.0566622!16s%2Fg%2F11p01lb_lh!19sChIJvzu0UQGNCjkRIEemgkA4S-8?authuser=0&hl=en&rclk=1,"28.858810499999997,79.05666219999999"
Kashipur Jame Masjid,Mosque,"V6PW+5GG Kashipur Jame Masjid, Kashipur, Bangladesh",,V6PW+5GG,Kashipur,,,BD,https://www.google.com/maps/place/Kashipur+Jame+Masjid/data=!4m7!3m6!1s0x3755e9145bd3ffff:0x4ba4288cab189413!8m2!3d23.8854419!4d90.2463284!16s%2Fg%2F11txmz8lkh!19sChIJ___TWxTpVTcRE5QYq4wopEs?authuser=0&hl=en&rclk=1,"23.8854419,90.2463284"
kaashipur siddikiiy'aa taalimul koraan maadraasaa,Mosque,"kaashipur siddikiiy'aa taalimul koraan maadraasaa, Kashipur Rd, Kashipur, West Bengal 743270",,Kashipur Rd,Kashipur,743270,West Bengal,IN,https://www.google.com/maps/place/%E0%A6%95%E0%A6%BE%E0%A6%B6%E0%A6%BF%E0%A6%AA%E0%A7%81%E0%A6%B0+%E0%A6%B8%E0%A6%BF%E0%A6%A6%E0%A7%8D%E0%A6%A6%E0%A6%BF%E0%A6%95%E0%A7%80%E0%A6%AF%E0%A6%BC%E0%A6%BE+%E0%A6%A4%E0%A6%BE%E0%A6%B2%E0%A6%BF%E0%A6%AE%E0%A7%81%E0%A6%B2+%E0%A6%95%E0%A7%8B%E0%A6%B0%E0%A6%BE%E0%A6%A8+%E0%A6%AE%E0%A6%BE%E0%A6%A6%E0%A7%8D%E0%A6%B0%E0%A6%BE%E0%A6%B8%E0%A6%BE/data=!4m7!3m6!1s0x39ff2da6fe5c0543:0x51dfa1f0a538a617!8m2!3d23.2277627!4d88.8446151!16s%2Fg%2F11q3rwnh_s!19sChIJQwVc_qYt_zkRF6Y4pfCh31E?authuser=0&hl=en&rclk=1,"23.2277627,88.8446151"
Kashipur paschim para Nure Madina jame masjid,Mosque,"Kashipur paschim para Nure Madina jame masjid, Kashipur Government Primary School, Bangladesh",,Kashipur Government Primary School,,,,BD,https://www.google.com/maps/place/Kashipur+paschim+para+Nure+Madina+jame+masjid/data=!4m7!3m6!1s0x375443ec104c7d49:0xcdc11a8ba7dc2728!8m2!3d23.6595231!4d90.8512198!16s%2Fg%2F11pyktz0hq!19sChIJSX1MEOxDVDcRKCfcp4sawc0?authuser=0&hl=en&rclk=1,"23.659523099999998,90.8512198"
Kashipur,Mosque,"V22G+5GM Kashipur, Bangladesh",,V22G+5GM,,,,BD,https://www.google.com/maps/place/Kashipur/data=!4m7!3m6!1s0x3754bb2b9cc45da7:0x19e1e8b5f85495f0!8m2!3d22.8504587!4d91.026303!16s%2Fg%2F11khhhmw2k!19sChIJp13EnCu7VDcR8JVU-LXo4Rk?authuser=0&hl=en&rclk=1,"22.850458699999997,91.026303"
Kumra Darus salam Jame masjid,Mosque,"RP58+JJ7 Kumra Darus salam Jame masjid, Kumra,Kumra, Kashipur, Habra, West Bengal 743271",Kashipur,"RP58+JJ7, Kumra,Kumra","Habra, Kumra",743271,West Bengal,IN,https://www.google.com/maps/place/Kumra+Darus+salam+Jame+masjid/data=!4m7!3m6!1s0x39f8b36edddecbf7:0xcfb37fbc3ca23bcc!8m2!3d22.8090322!4d88.7165529!16s%2Fg%2F11jz87s906!19sChIJ98ve3W6z-DkRzDuiPLx_s88?authuser=0&hl=en&rclk=1,"22.809032199999997,88.7165529"
Kashipur bari Jame Masjid,Mosque,"5W8W+48F Kashipur bari Jame Masjid, Sanghai, Bangladesh",,5W8W+48F,Sanghai,,,BD,https://www.google.com/maps/place/Kashipur+bari+Jame+Masjid/data=!4m7!3m6!1s0x3754937b55dbaa69:0x8133d18de8ef734f!8m2!3d23.1653168!4d90.9458096!16s%2Fg%2F11h97kqcjt!19sChIJaarbVXuTVDcRT3Pv6I3RM4E?authuser=0&hl=en&rclk=1,"23.1653168,90.94580959999999"
Jama masjid Kashipur anga,Housing society,"V344+GHV Jama masjid Kashipur anga, Kashipur, Uttar Pradesh 244927",,V344+GHV,Kashipur,,Uttar Pradesh,IN,https://www.google.com/maps/place/Jama+masjid+Kashipur+anga/data=!4m7!3m6!1s0x390a8d89278028d7:0x90432d6f91e3aabf!8m2!3d28.8563712!4d79.0564176!16s%2Fg%2F11l6rjtc24!19sChIJ1yiAJ4mNCjkRv6rjkW8tQ5A?authuser=0&hl=en&rclk=1,"28.856371199999998,79.0564176"
Kashipur/roorkee,Mosque,"8Q7G+X5 Kashipur/roorkee, Umarpur, Uttarakhand 244717",,8Q7G+X5,Umarpur,,Uttarakhand,IN,https://www.google.com/maps/place/Kashipur%2Froorkee/data=!4m7!3m6!1s0x390a376e9085659b:0x35373ad308a8d5c!8m2!3d29.3149875!4d78.7754221!16s%2Fg%2F11t77kkf0w!19sChIJm2WFkG43CjkRXI2KMK1zUwM?authuser=0&hl=en&rclk=1,"29.314987499999997,78.7754221"
Chand masjid,Mosque,"6X63+MHV Chand masjid, Kashipur, Uttarakhand 244713",,6X63+MHV,Kashipur,244713,Uttarakhand,IN,https://www.google.com/maps/place/Chand+masjid/data=!4m7!3m6!1s0x390a43032bf40a09:0xe1c03ab309e4a8de!8m2!3d29.2117491!4d78.9539307!16s%2Fg%2F11vlft2f7r!19sChIJCQr0KwNDCjkR3qjkCbM6wOE?authuser=0&hl=en&rclk=1,"29.2117491,78.9539307"
masjid e Umar,Mosque,"V343+WGC masjid e Umar, Kashipur, Uttar Pradesh 244927",,V343+WGC,Kashipur,,Uttar Pradesh,IN,https://www.google.com/maps/place/masjid+e+Umar/data=!4m7!3m6!1s0x390a8dc0dad06999:0xdd7b350c8ab11295!8m2!3d28.8573089!4d79.0537685!16s%2Fg%2F11fn03dycw!19sChIJmWnQ2sCNCjkRlRKxigw1e90?authuser=0&hl=en&rclk=1,"28.8573089,79.05376849999999"
Eidgah Kashipur,Mosque,"V325+J3 Eidgah Kashipur, Kashipur, Uttar Pradesh 244927",,V325+J3,Kashipur,,Uttar Pradesh,IN,https://www.google.com/maps/place/Eidgah+Kashipur/data=!4m7!3m6!1s0x390a8d37140a1c79:0x19acf3d8138cdb5!8m2!3d28.851572!4d79.0576511!16s%2Fg%2F11t9lpmhm1!19sChIJeRwKFDeNCjkRtc04gT3PmgE?authuser=0&hl=en&rclk=1,"28.851571999999997,79.0576511"
Mosque,Housing complex,"V335+FF Mosque, Kashipur, Uttar Pradesh 244927",,V335+FF,Kashipur,,Uttar Pradesh,IN,https://www.google.com/maps/place/Mosque/data=!4m7!3m6!1s0x390a8d1a636cc4fd:0x764d1d8b55726bb9!8m2!3d28.8536417!4d79.0587105!16s%2Fg%2F11t825hhf3!19sChIJ_cRsYxqNCjkRuWtyVYsdTXY?authuser=0&hl=en&rclk=1,"28.853641699999997,79.05871049999999"
Hasan Masjid veerpur than,Mosque,"RVMH+X85 Hasan Masjid veerpur than, Kashipur Rd, Veerpur, Jaitpur, Uttar Pradesh 244902",,"RVMH+X85, Kashipur Rd","Veerpur, Jaitpur",244902,Uttar Pradesh,IN,https://www.google.com/maps/place/Hasan+Masjid+veerpur+than/data=!4m7!3m6!1s0x390af744a6ff7a05:0x1fc48d2a153c6219!8m2!3d28.8860412!4d78.8409667!16s%2Fg%2F11tp4jdnhr!19sChIJBXr_pkT3CjkRGWI8FSqNxB8?authuser=0&hl=en&rclk=1,"28.886041199999998,78.8409667"
"Jumaa masjid, kashipur.ward, no,13",Mosque,"Jumaa masjid, kashipur.ward, no,13, Kasipur, Bihar 733208",,,Kasipur,,Bihar,IN,"https://www.google.com/maps/place/Jumaa+masjid,+kashipur.ward,+no,13/data=!4m7!3m6!1s0x39e511ba04f12249:0x2e100bf17bea64a3!8m2!3d26.1651529!4d87.989596!16s%2Fg%2F11ny4rsw_v!19sChIJSSLxBLoR5TkRo2Tqe_ELEC4?authuser=0&hl=en&rclk=1","26.1651529,87.98959599999999"
Kashipur Jame Mosque,Mosque,"HH8V+9FH Kashipur Jame Mosque, Uttar Kasipur, West Bengal 700135",,HH8V+9FH,Uttar Kasipur,700135,West Bengal,IN,https://www.google.com/maps/place/Kashipur+Jame+Mosque/data=!4m7!3m6!1s0x3a0209d589daec5f:0x1c9092759fa3ce15!8m2!3d22.565941!4d88.5937389!16s%2Fg%2F11sxwqs6hj!19sChIJX-zaidUJAjoRFc6jn3WSkBw?authuser=0&hl=en&rclk=1,"22.565941,88.59373889999999"
Paschim Kashipur Mandal Para Jummah Masjid,Mosque,"V823+M99 Paschim Kashipur Mandal Para Jummah Masjid, Kashipur, West Bengal 742174",,V823+M99,Kashipur,,West Bengal,IN,https://www.google.com/maps/place/Paschim+Kashipur+Mandal+Para+Jummah+Masjid/data=!4m7!3m6!1s0x39f971472505f6d9:0x649bf03bacacfd28!8m2!3d23.8516561!4d88.3034691!16s%2Fg%2F11g_zq5rbn!19sChIJ2fYFJUdx-TkRKP2srDvwm2Q?authuser=0&hl=en&rclk=1,"23.8516561,88.3034691"
Kashipur Eidgha,Mosque,"MM2P+9H Kashipur Eidgha, Bandhgora P, West Bengal 731204",,MM2P+9H,Bandhgora P,,West Bengal,IN,https://www.google.com/maps/place/Kashipur+Eidgha/data=!4m7!3m6!1s0x39f9dddadd92c53d:0xbf94a673260c3a3c!8m2!3d23.6509836!4d87.6864204!16s%2Fg%2F11t_h0cnfm!19sChIJPcWS3drd-TkRPDoMJnOmlL8?authuser=0&hl=en&rclk=1,"23.6509836,87.6864204"
Kashipur Bagapara mosjid,Mosque,"Kashipur Bagapara mosjid, SELECT CITY, Kashipur, West Bengal 742189",,SELECT CITY,Kashipur,742189,West Bengal,IN,https://www.google.com/maps/place/Kashipur+Bagapara+mosjid/data=!4m7!3m6!1s0x39f971d5d30dcf1b:0xffdc7bfe7c6d7cfb!8m2!3d23.8518114!4d88.3063635!16s%2Fg%2F11mnm7476b!19sChIJG88N09Vx-TkR-3xtfP573P8?authuser=0&hl=en&rclk=1,"23.8518114,88.30636349999999"
kaashipur mdhypaarraa jaame msjid (Kashipur Madhyapara Jame Masjid),Mosque,"MV53+6CJ kaashipur mdhypaarraa jaame msjid (Kashipur Madhyapara Jame Masjid), Bangladesh",,MV53+6CJ,,,,BD,https://www.google.com/maps/place/%E0%A6%95%E0%A6%BE%E0%A6%B6%E0%A6%BF%E0%A6%AA%E0%A7%81%E0%A6%B0+%E0%A6%AE%E0%A6%A7%E0%A7%8D%E0%A6%AF%E0%A6%AA%E0%A6%BE%E0%A7%9C%E0%A6%BE+%E0%A6%9C%E0%A6%BE%E0%A6%AE%E0%A7%87+%E0%A6%AE%E0%A6%B8%E0%A6%9C%E0%A6%BF%E0%A6%A6+%28Kashipur+Madhyapara+Jame+Masjid%29/data=!4m7!3m6!1s0x3754434afd3a748d:0x2c4ebed5ad2f6669!8m2!3d23.6580869!4d90.8535103!16s%2Fg%2F11nyc4n7t2!19sChIJjXQ6_UpDVDcRaWYvrdW-Tiw?authuser=0&hl=en&rclk=1,"23.6580869,90.8535103"
Kashipur Purbo Para Jame Masjid,Mosque,"MV43+VRV Kashipur Purbo Para Jame Masjid, Bangladesh",,MV43+VRV,,,,BD,https://www.google.com/maps/place/Kashipur+Purbo+Para+Jame+Masjid/data=!4m7!3m6!1s0x37544393baf3d193:0x5ec379a8a9f0f589!8m2!3d23.6572326!4d90.8545598!16s%2Fg%2F11hz5sc8f2!19sChIJk9HzupNDVDcRifXwqah5w14?authuser=0&hl=en&rclk=1,"23.6572326,90.85455979999999"
Kashipur Nure Madina Jame Maszid,Mosque,"Kashipur Nure Madina Jame Maszid, Alim Uddin Awliya, Mazar Rd, Dhaka, Bangladesh",Mirpur,"Alim Uddin Awliya, Mazar Rd",Dhaka,,,BD,https://www.google.com/maps/place/Kashipur+Nure+Madina+Jame+Maszid/data=!4m7!3m6!1s0x3755c1fb81bf0d8d:0xe0a54a2a23500e39!8m2!3d23.791591!4d90.3483589!16s%2Fg%2F11sn7mc19s!19sChIJjQ2_gfvBVTcROQ5QIypKpeA?authuser=0&hl=en&rclk=1,"23.791591,90.3483589"
Jama masjid,Mosque,"4W29+VCP Jama masjid, Ratanganj, govindapur, Kashipur, 261208",govindapur,"4W29+VCP, Ratanganj","Kashipur, Naraenpur",261208,Bihar,IN,https://www.google.com/maps/place/Jama+masjid/data=!4m7!3m6!1s0x39f04d5a2fb32c4b:0xdb78a7984ba89111!8m2!3d25.1022098!4d86.9185854!16s%2Fg%2F11rq7syf93!19sChIJSyyzL1pN8DkREZGoS5ineNs?authuser=0&hl=en&rclk=1,"25.102209799999997,86.9185854"
Kola - Kashipur Khalpara Jame Masjid,Mosque,"H3CJ+HMJ Kola - Kashipur Khalpara Jame Masjid, Holidhani, Bangladesh",,H3CJ+HMJ,Holidhani,,,BD,https://www.google.com/maps/place/Kola+-+Kashipur+Khalpara+Jame+Masjid/data=!4m7!3m6!1s0x39fec31d629219df:0xd95721d5169fa8eb!8m2!3d23.5714541!4d89.0816395!16s%2Fg%2F11scfjv9ky!19sChIJ3xmSYh3D_jkR66ifFtUhV9k?authuser=0&hl=en&rclk=1,"23.5714541,89.0816395"
Kashipur Purano Boro Zama Masjid,Mosque,"48CJ+H5 Kashipur Purano Boro Zama Masjid, Kashipur K, West Bengal 743336",,48CJ+H5,Kashipur K,743336,West Bengal,IN,https://www.google.com/maps/place/Kashipur+Purano+Boro+Zama+Masjid/data=!4m7!3m6!1s0x3a0245d0b8becbd5:0xd5d7b7cdb42d95b4!8m2!3d22.1209245!4d88.329424!16s%2Fg%2F11l1xtg52q!19sChIJ1cu-uNBFAjoRtJUttM2319U?authuser=0&hl=en&rclk=1,"22.120924499999997,88.329424"
Kashipur purono masjid,Mosque,"JMXP+5G5 Kashipur purono masjid, Bolpur P, West Bengal 731204",,JMXP+5G5,Bolpur P,731204,West Bengal,IN,https://www.google.com/maps/place/Kashipur+purono+masjid/data=!4m7!3m6!1s0x39f9db006fb093ad:0x7da1de63977dd109!8m2!3d23.6477576!4d87.6863784!16s%2Fg%2F11vjxn21lb!19sChIJrZOwbwDb-TkRCdF9l2PeoX0?authuser=0&hl=en&rclk=1,"23.6477576,87.6863784"
