name,main_category,address,address_ward,address_street,address_city,address_postal_code,address_state,address_country_code,link,coordinates
Sarkhej Roza,Mosque,"Sarkhej Roza, Post Jeevraj Park, Sarkhej Makarba Rd, Makarba, Ahmedabad, Gujarat 380051",Makarba,"Post Jeevraj Park, Sarkhej Makarba Rd",Ahmedabad,380051,Gujarat,IN,https://www.google.com/maps/place/Sarkhej+Roza/data=!4m7!3m6!1s0x395e9ac423877453:0xa67a7d255699b792!8m2!3d22.9935963!4d72.5056227!16s%2Fm%2F0gg5dqk!19sChIJU3SHI8SaXjkRkreZViV9eqY?authuser=0&hl=en&rclk=1,"22.9935963,72.5056227"
Jami Masjid Sarkhej,Mosque,"XGV3+8V9 Jami Masjid Sarkhej, Post Jeevraj Park, Makarba, Ahmedabad, Gujarat 380051",Makarba,"XGV3+8V9, Post Jeevraj Park",Ahmedabad,380051,Gujarat,IN,https://www.google.com/maps/place/Jami+Masjid+Sarkhej/data=!4m7!3m6!1s0x395e9ac445c0c531:0xa9dca1278079b30c!8m2!3d22.9932817!4d72.5047462!16s%2Fg%2F12hrks9bn!19sChIJMcXARcSaXjkRDLN5gCeh3Kk?authuser=0&hl=en&rclk=1,"22.9932817,72.5047462"
Kanzul Iman Masjid Dawateislami,Mosque,"Kanzul Iman Masjid Dawateislami, Survey No: 91, TP-85. B/H Manpasand Parlour, Opp:Amber Tower, Sarkhej Road, Jawaharlal Nehru Rd, TP 85, Ahmedabad, Gujarat 380055",TP 85,"Survey No: 91, TP-85. B/H Manpasand Parlour, Opp:Amber Tower, Sarkhej Road, Jawaharlal Nehru Rd","Ahmedabad, Sarkhej-Okaf",380055,Gujarat,IN,https://www.google.com/maps/place/Kanzul+Iman+Masjid+Dawateislami/data=!4m7!3m6!1s0x395e9ac83a3f16eb:0xa1d471cf1914be53!8m2!3d22.9875958!4d72.5107386!16s%2Fg%2F1pp2vf48_!19sChIJ6xY_OsiaXjkRU74UGc9x1KE?authuser=0&hl=en&rclk=1,"22.987595799999998,72.5107386"
Masjid-e-Hussain,Mosque,"XGM4+XX4 Masjid-e-Hussain, Aleeza Park Rd, Sarkhej, Ahmedabad, Sarkhej-Okaf, Gujarat 380055",Sarkhej,"XGM4+XX4, Aleeza Park Rd","Ahmedabad, Sarkhej-Okaf",380055,Gujarat,IN,https://www.google.com/maps/place/Masjid-e-Hussain/data=!4m7!3m6!1s0x395e9b80f03580a7:0xa94f7ff69ff79221!8m2!3d22.9848974!4d72.5074502!16s%2Fg%2F11fl3ywg0k!19sChIJp4A18ICbXjkRIZL3n_Z_T6k?authuser=0&hl=en&rclk=1,"22.984897399999998,72.5074502"
Hajra Masjid hjrh msjd,Mosque,"XGR7+3V4 Hajra Masjid hjrh msjd, Al Asbab Society, Makarba, Ahmedabad, Gujarat 380051","Al Asbab Society, Makarba",XGR7+3V4,Ahmedabad,380051,Gujarat,IN,https://www.google.com/maps/place/Hajra+Masjid+%DB%81%D8%A7%D8%AC%D8%B1%DB%81+%D9%85%D8%B3%D8%AC%D8%AF%E2%80%AD/data=!4m7!3m6!1s0x395e9acbd45bce3b:0x485d359da799e2bf!8m2!3d22.9901492!4d72.5147073!16s%2Fg%2F11clwlpwch!19sChIJO85b1MuaXjkRv-KZp501XUg?authuser=0&hl=en&rclk=1,"22.990149199999998,72.5147073"
Masjid -e-saiyda sakina,Mosque,"Masjid -e-saiyda sakina, opp. Akira 44, TP 85, Sarkhej-Okaf, Gujarat 380055",TP 85,opp. Akira 44,Sarkhej-Okaf,380055,Gujarat,IN,https://www.google.com/maps/place/Masjid+-e-saiyda+sakina/data=!4m7!3m6!1s0x395e9ab836e6e919:0xe2549a3937876a59!8m2!3d22.9837935!4d72.5074308!16s%2Fg%2F11g8cy2gm8!19sChIJGenmNriaXjkRWWqHNzmaVOI?authuser=0&hl=en&rclk=1,"22.983793499999997,72.5074308"
Masjid-E-Khizra msjid e khiijhraa,Mosque,"XGM6+7XM Masjid-E-Khizra msjid e khiijhraa, Bage Masira-2, Fatehwadi, Arshad Park, Juhapura, Sarkhej-Okaf, Ahmedabad, Gujarat 380055","Bage Masira-2, Fatehwadi, Arshad Park, Juhapura",XGM6+7XM,"Sarkhej-Okaf, Ahmedabad",380055,Gujarat,IN,https://www.google.com/maps/place/Masjid-E-Khizra+%E0%AA%AE%E0%AA%B8%E0%AB%8D%E0%AA%9C%E0%AA%BF%E0%AA%A6+%E0%AA%8F+%E0%AA%96%E0%AB%80%E0%AA%9D%E0%AA%B0%E0%AA%BE/data=!4m7!3m6!1s0x395e9ab6f03f8b8b:0x79269561000d63b9!8m2!3d22.9832079!4d72.5124241!16s%2Fg%2F12llhwzhg!19sChIJi4s_8LaaXjkRuWMNAGGVJnk?authuser=0&hl=en&rclk=1,"22.9832079,72.51242409999999"
Masjid e saiyda sakina,Mosque,"Masjid e saiyda sakina, Masjid-E-Saiyda Sakina, Sarkhej, Ahmedabad, Sarkhej-Okaf, Gujarat 380055",Sarkhej,Masjid-E-Saiyda Sakina,"Ahmedabad, Sarkhej-Okaf",380055,Gujarat,IN,https://www.google.com/maps/place/Masjid+e+saiyda+sakina/data=!4m7!3m6!1s0x395e9ab83658e1a3:0xbe26a0973446e881!8m2!3d22.9837392!4d72.5073459!16s%2Fg%2F11bwncll9k!19sChIJo-FYNriaXjkRgehGNJegJr4?authuser=0&hl=en&rclk=1,"22.9837392,72.50734589999999"
MASJID E PIR KHAMOSH,Mosque,"MASJID E PIR KHAMOSH, Sarkhej Dhal , Makarba Rd,, Sarkhej, Ahmedabad, Gujarat 380051",Makarba,"Sarkhej Dhal , Makarba Rd,, Sarkhej",Ahmedabad,380051,Gujarat,IN,https://www.google.com/maps/place/MASJID+E+PIR+KHAMOSH/data=!4m7!3m6!1s0x395e9ac6dda8ba17:0x1a8ee290dc230d56!8m2!3d22.989051!4d72.504275!16s%2Fg%2F1hm659jp3!19sChIJF7qo3caaXjkRVg0j3JDijho?authuser=0&hl=en&rclk=1,"22.989051,72.50427499999999"
Masjid-E-Abubakr,Mosque,"Masjid-E-Abubakr, A8 TO 14, Makarba, Ahmedabad, Gujarat 380051",Makarba,A8 TO 14,Ahmedabad,380051,Gujarat,IN,https://www.google.com/maps/place/Masjid-E-Abubakr/data=!4m7!3m6!1s0x395e9ac1ecf8a455:0x9ca73894a9ded24d!8m2!3d22.9901573!4d72.4985258!16s%2Fg%2F11cn5p9ybx!19sChIJVaT47MGaXjkRTdLeqZQ4p5w?authuser=0&hl=en&rclk=1,"22.9901573,72.4985258"
Masjid E Abdul Razzak,Mosque,"Masjid E Abdul Razzak, Sur No. 189-190, Plot No.8 19 Paik,, Sur No. 189-190, Plot No.8 19 Paik, Nr Al-Sayra Park, Nr Bagban Flat, 100 Feet Rd, Fatehwadi, Ahmedabad, Gujarat 380055","Fatehwadi, Arshad Park, Juhapura","Sur No. 189-190, Plot No.8 19 Paik,, Sur No. 189-190, Plot No.8 19 Paik, Nr Al-Sayra Park, Nr Bagban Flat, 100 Feet Rd",Ahmedabad,380055,Gujarat,IN,https://www.google.com/maps/place/Masjid+E+Abdul+Razzak/data=!4m7!3m6!1s0x395e9ab6ac2332eb:0x253c6b3a786819f4!8m2!3d22.9814745!4d72.5140534!16s%2Fg%2F11ckv4rbzd!19sChIJ6zIjrLaaXjkR9BloeDprPCU?authuser=0&hl=en&rclk=1,"22.981474499999997,72.5140534"
Hayat Ibadatkhana Masjid,Mosque,"Hayat Ibadatkhana Masjid, TP85 12 Meter Rd, TP 85, near Gulshan-E-Maher English Secondary School, Juhapura, Ahmedabad, Gujarat 380055",Juhapura,"TP85 12 Meter Rd, TP 85, near Gulshan-E-Maher English Secondary School","Ahmedabad, Sarkhej-Okaf",380055,Gujarat,IN,https://www.google.com/maps/place/Hayat+Ibadatkhana+Masjid/data=!4m7!3m6!1s0x395e9ab8222e70b3:0x7ad23d918a5b6658!8m2!3d22.9846254!4d72.5083103!16s%2Fg%2F11cffs3cg!19sChIJs3AuIriaXjkRWGZbipE90no?authuser=0&hl=en&rclk=1,"22.9846254,72.50831029999999"
Masjid-e-Zainab,Mosque,"Masjid-e-Zainab, Luxuria Residency 1 Wing-C, LUXURIA RESIDENCY-2, TP 85, Ahmedabad, Sarkhej-Okaf, Gujarat 380055",TP 85,"Luxuria Residency 1 Wing-C, LUXURIA RESIDENCY-2","Ahmedabad, Sarkhej-Okaf",380055,Gujarat,IN,https://www.google.com/maps/place/Masjid-e-Zainab/data=!4m7!3m6!1s0x395e9aba096176af:0x5f2e88e2e7cfbdd9!8m2!3d22.9790394!4d72.5082633!16s%2Fg%2F11fxx4x9cz!19sChIJr3ZhCbqaXjkR2b3P5-KILl8?authuser=0&hl=en&rclk=1,"22.979039399999998,72.5082633"
Islahi Masjid islaahii msjid,Mosque,"XGQ3+GR4 Islahi Masjid islaahii msjid, Sarkhej-Makarba Road, Sarkhej Makarba Rd, Sarkhej, Ahmedabad, Gujarat 380051",Sarkhej,"XGQ3+GR4, Sarkhej-Makarba Road, Sarkhej Makarba Rd",Ahmedabad,380051,Gujarat,IN,https://www.google.com/maps/place/Islahi+Masjid+%E0%AA%87%E0%AA%B8%E0%AB%8D%E0%AA%B2%E0%AA%BE%E0%AA%B9%E0%AB%80+%E0%AA%AE%E0%AA%B8%E0%AB%8D%E0%AA%9C%E0%AA%BF%E0%AA%A6/data=!4m7!3m6!1s0x395e9ac6e21f5cbd:0x6b68ed754147a522!8m2!3d22.9887544!4d72.50457!16s%2Fg%2F1hm3ylxwq!19sChIJvVwf4saaXjkRIqVHQXXtaGs?authuser=0&hl=en&rclk=1,"22.988754399999998,72.50457"
Sipai Vas Masjid,Mosque,"XGM3+FV5 Sipai Vas Masjid, Sarkhej Gaon Rd, Sarkhej, Ahmedabad, Sarkhej-Okaf, Gujarat 380055",Sarkhej,"XGM3+FV5, Sarkhej Gaon Rd","Ahmedabad, Sarkhej-Okaf",380055,Gujarat,IN,https://www.google.com/maps/place/Sipai+Vas+Masjid/data=!4m7!3m6!1s0x395e9ab8e59acb43:0xe76d7b25cc1ccc2a!8m2!3d22.9836382!4d72.5047295!16s%2Fg%2F11c2nnp7q_!19sChIJQ8ua5biaXjkRKswczCV7bec?authuser=0&hl=en&rclk=1,"22.983638199999998,72.5047295"
Masjid E Aabeda msjid e aabedaa,Mosque,"XGF4+672 Masjid E Aabeda msjid e aabedaa, Navi Fatehvadi Village, Sarkhej, Ahmedabad, Sarkhej-Okaf, Gujarat 380055","Navi Fatehvadi Village, Sarkhej",XGF4+672,"Ahmedabad, Sarkhej-Okaf",380055,Gujarat,IN,https://www.google.com/maps/place/Masjid+E+Aabeda+%E0%AA%AE%E0%AA%B8%E0%AB%8D%E0%AA%9C%E0%AA%BF%E0%AA%A6+%E0%AA%8F+%E0%AA%86%E0%AA%AC%E0%AB%87%E0%AA%A6%E0%AA%BE/data=!4m7!3m6!1s0x395e9aa4dfe2df17:0x4b8520762418c3d8!8m2!3d22.9730008!4d72.5056421!16s%2Fg%2F11c6cfxwdt!19sChIJF9_i36SaXjkR2MMYJHYghUs?authuser=0&hl=en&rclk=1,"22.973000799999998,72.5056421"
Sarkhej Shahi Masjid,Mosque,"XGJ2+5PM Sarkhej Shahi Masjid, Sarkhej Gham, Sarkhej Village Rd, Sarkhej, Sarkhej-Okaf, Gujarat 380055",Sarkhej,"XGJ2+5PM, Sarkhej Gham, Sarkhej Village Rd",Sarkhej-Okaf,380055,Gujarat,IN,https://www.google.com/maps/place/Sarkhej+Shahi+Masjid/data=!4m7!3m6!1s0x395e9abea534e173:0xdbc77fb48bf350c0!8m2!3d22.9804731!4d72.5017966!16s%2Fg%2F11cjp6_0t0!19sChIJc-E0pb6aXjkRwFDzi7R_x9s?authuser=0&hl=en&rclk=1,"22.980473099999998,72.50179659999999"
Maryam Masjid,Mosque,"Maryam Masjid, 38/1, SH17, Sarkhej, Ahmedabad, Sarkhej-Okaf, Gujarat 380055",Sarkhej,"38/1, SH17","Ahmedabad, Sarkhej-Okaf",380055,Gujarat,IN,https://www.google.com/maps/place/Maryam+Masjid/data=!4m7!3m6!1s0x395e9b11c0591145:0x6c6068d66cbd079b!8m2!3d22.9867732!4d72.497942!16s%2Fg%2F11sh72n_jk!19sChIJRRFZwBGbXjkRmwe9bNZoYGw?authuser=0&hl=en&rclk=1,"22.9867732,72.497942"
Mohammadi Masjid,Mosque,"XGG4+GJ4 Mohammadi Masjid, Sarkhej, Ahmedabad, Sarkhej-Okaf, Gujarat 380055",Sarkhej,XGG4+GJ4,"Ahmedabad, Sarkhej-Okaf",380055,Gujarat,IN,https://www.google.com/maps/place/Mohammadi+Masjid/data=!4m7!3m6!1s0x395e9abae8db74a3:0x716a89b5bf8f7e20!8m2!3d22.9762653!4d72.5065859!16s%2Fg%2F11dxnyhlrt!19sChIJo3Tb6LqaXjkRIH6Pv7WJanE?authuser=0&hl=en&rclk=1,"22.976265299999998,72.50658589999999"
Akhalaki Masjid,Mosque,"XFHR+787 Akhalaki Masjid, Sarkhej-Bavla Rd, Sarkhej, Ahmedabad, Sarkhej-Okaf, Gujarat 382210",Sarkhej,"XFHR+787, Sarkhej-Bavla Rd","Ahmedabad, Sarkhej-Okaf",,Gujarat,IN,https://www.google.com/maps/place/Akhalaki+Masjid/data=!4m7!3m6!1s0x395e9b4cec11377b:0x3138883d48698743!8m2!3d22.9781585!4d72.4908124!16s%2Fg%2F11f5v164zh!19sChIJezcR7EybXjkRQ4dpSD2IODE?authuser=0&hl=en&rclk=1,"22.9781585,72.4908124"
Noman Park Masjid E Zaineb,Mosque,"Noman Park Masjid E Zaineb, Navi Fatehvadi Village, Sarkhej, Ahmedabad, Sarkhej-Okaf, Gujarat 380055","Navi Fatehvadi Village, Sarkhej",,"Ahmedabad, Sarkhej-Okaf",380055,Gujarat,IN,https://www.google.com/maps/place/Noman+Park+Masjid+E+Zaineb/data=!4m7!3m6!1s0x395e9aafe320cabd:0x7bd1b66300fcfdef!8m2!3d22.9754124!4d72.5103407!16s%2Fg%2F11g9nl1tz_!19sChIJvcog46-aXjkR7_38AGO20Xs?authuser=0&hl=en&rclk=1,"22.9754124,72.5103407"
Fatima Masjid,Mosque,"Fatima Masjid, Sur. No.-84 Paki,Shop No.-13 Ambar Tower Lane, Sarkhej Rd, opp. Savan Party Plot, Makarba, Ahmedabad, Gujarat 380055",Makarba,"Sur. No.-84 Paki,Shop No.-13 Ambar Tower Lane, Sarkhej Rd, opp. Savan Party Plot",Ahmedabad,380055,Gujarat,IN,https://www.google.com/maps/place/Fatima+Masjid/data=!4m7!3m6!1s0x395e9bbf285b5573:0x458b9368197419f!8m2!3d22.9891751!4d72.5097307!16s%2Fg%2F11fqsypzwv!19sChIJc1VbKL-bXjkRn0GXgTa5WAQ?authuser=0&hl=en&rclk=1,"22.9891751,72.50973069999999"
"Mohammadi Masjid, Sona Duplex, Sarkhej Canal Road",Mosque,"XGG6+5M4 Mohammadi Masjid, Sona Duplex, Sarkhej Canal Road, Chaloda, Sarkhej-Okaf, Gujarat 380055",,XGG6+5M4,"Chaloda, Sarkhej-Okaf",380055,Gujarat,IN,"https://www.google.com/maps/place/Mohammadi+Masjid,+Sona+Duplex,+Sarkhej+Canal+Road/data=!4m7!3m6!1s0x395e9ab1d4a21cbd:0xa745f779c92f4f7a!8m2!3d22.9753979!4d72.5116992!16s%2Fg%2F11f3wly744!19sChIJvRyi1LGaXjkRek8vyXn3Rac?authuser=0&hl=en&rclk=1","22.975397899999997,72.5116992"
Masjid E Hazrat Abubakar Siddiqe,Mosque,"jambuwala, Masjid E Hazrat Abubakar Siddiqe, delo, Sarkhej - Ahmedabad Main Rd, Sarkhej, Sarkhej-Okaf, Gujarat 380055",Sarkhej,"jambuwala, delo, Sarkhej - Ahmedabad Main Rd",Sarkhej-Okaf,380055,Gujarat,IN,https://www.google.com/maps/place/Masjid+E+Hazrat+Abubakar+Siddiqe/data=!4m7!3m6!1s0x395e9ab8b02d1189:0x90ab3af264c0c9e1!8m2!3d22.9849125!4d72.5032969!16s%2Fg%2F11hbgb7d2d!19sChIJiREtsLiaXjkR4cnAZPI6q5A?authuser=0&hl=en&rclk=1,"22.9849125,72.5032969"
Hussaini Masjid (Sunni) husainii msjid,Mosque,"Hussaini Masjid (Sunni) husainii msjid, nr. Samir Residency, behind Hotel Royal, Sarkhej, Ahmedabad, Gujarat 382210",Sarkhej,"nr. Samir Residency, behind Hotel Royal",Ahmedabad,382210,Gujarat,IN,https://www.google.com/maps/place/Hussaini+Masjid+%28Sunni%29+%E0%AA%B9%E0%AB%81%E0%AA%B8%E0%AB%88%E0%AA%A8%E0%AB%80+%E0%AA%AE%E0%AA%B8%E0%AB%8D%E0%AA%9C%E0%AA%BF%E0%AA%A6/data=!4m7!3m6!1s0x395e9b39644ff2eb:0x288eabb29a323ece!8m2!3d22.9888999!4d72.5058841!16s%2Fg%2F11n0x41qll!19sChIJ6_JPZDmbXjkRzj4ymrKrjig?authuser=0&hl=en&rclk=1,"22.9888999,72.5058841"
Masjid E AbuBakr msjiid e abubkr,Mosque,"XGF5+3Q2 Masjid E AbuBakr msjiid e abubkr, Sarkhej-Okaf, Gujarat 380055",,XGF5+3Q2,Sarkhej-Okaf,,Gujarat,IN,https://www.google.com/maps/place/Masjid+E+AbuBakr+%E0%AA%AE%E0%AA%B8%E0%AB%8D%E0%AA%9C%E0%AB%80%E0%AA%A6+%E0%AA%8F+%E0%AA%85%E0%AA%AC%E0%AB%81%E0%AA%AC%E0%AA%95%E0%AB%8D%E0%AA%B0/data=!4m7!3m6!1s0x395e9b0caa9d4795:0x41c18ec4b3f48d53!8m2!3d22.9726486!4d72.5093902!16s%2Fg%2F11rssk2gy1!19sChIJlUedqgybXjkRU430s8SOwUE?authuser=0&hl=en&rclk=1,"22.9726486,72.5093902"
Masjid-E-Ummul Qura msjide ummul kurraa,Mosque,"Masjid-E-Ummul Qura msjide ummul kurraa, Near Farhan Duplex, Haji Suleiman Park, Fatehwadi, Sarkhej-Okaf, Gujarat 380055","Bage Masira-2, Fatehwadi, Arshad Park, Juhapura","Near Farhan Duplex, Haji Suleiman Park","Sarkhej-Okaf, Ahmedabad",380055,Gujarat,IN,https://www.google.com/maps/place/Masjid-E-Ummul+Qura+%E0%AA%AE%E0%AA%B8%E0%AB%8D%E0%AA%9C%E0%AA%BF%E0%AA%A6%E0%AB%87+%E0%AA%89%E0%AA%AE%E0%AB%8D%E0%AA%AE%E0%AB%81%E0%AA%B2+%E0%AA%95%E0%AB%81%E0%AA%B0%E0%AA%B0%E0%AA%BE/data=!4m7!3m6!1s0x395e9ab68f924151:0x5c0b3b12136b35ce!8m2!3d22.983424!4d72.5137846!16s%2Fg%2F11dyr9q7ws!19sChIJUUGSj7aaXjkRzjVrExI7C1w?authuser=0&hl=en&rclk=1,"22.983424,72.5137846"
Jamia Ibn Abbas Masjid,Mosque,"XGQ3+9HR Jamia Ibn Abbas Masjid, Sarkhej Makarba Rd, Makarba, Ahmedabad, Gujarat 380051",Makarba,"XGQ3+9HR, Sarkhej Makarba Rd",Ahmedabad,380051,Gujarat,IN,https://www.google.com/maps/place/Jamia+Ibn+Abbas+Masjid/data=!4m7!3m6!1s0x395e9ac720daf489:0x4c173abff3075c49!8m2!3d22.9884826!4d72.503897!16s%2Fg%2F11b8tfxznh!19sChIJifTaIMeaXjkRSVwH8786F0w?authuser=0&hl=en&rclk=1,"22.988482599999998,72.503897"
Masjid E Hajra,Mosque,"XGR4+MR6 Masjid E Hajra, Sarkhej Makarba Rd, Makarba, Ahmedabad, Gujarat 380051",Makarba,"XGR4+MR6, Sarkhej Makarba Rd",Ahmedabad,380051,Gujarat,IN,https://www.google.com/maps/place/Masjid+E+Hajra/data=!4m7!3m6!1s0x395e9ac674f95b7b:0x2fa5e9866f57a3cd!8m2!3d22.9916528!4d72.507008!16s%2Fg%2F11f320hc6w!19sChIJe1v5dMaaXjkRzaNXb4bppS8?authuser=0&hl=en&rclk=1,"22.9916528,72.507008"
Masjid Bayatulmukarram,Mosque,"XGP6+V7C Masjid Bayatulmukarram, TP 85, Ahmedabad, Sarkhej-Okaf, Gujarat 380055",TP 85,XGP6+V7C,"Ahmedabad, Sarkhej-Okaf",380055,Gujarat,IN,https://www.google.com/maps/place/Masjid+Bayatulmukarram/data=!4m7!3m6!1s0x395e9ac83b33a095:0xfffaf44e1eea47a!8m2!3d22.9871949!4d72.5106373!16s%2Fg%2F11g9m902br!19sChIJlaAzO8iaXjkReqTu4USv_w8?authuser=0&hl=en&rclk=1,"22.9871949,72.5106373"
Ash-shafi Masjid,Mosque,"Ash-shafi Masjid, A/7, Makarba, Ahmedabad, Gujarat 380051",Makarba,A/7,Ahmedabad,380051,Gujarat,IN,https://www.google.com/maps/place/Ash-shafi+Masjid/data=!4m7!3m6!1s0x395e9ac17c9f2c85:0x63ee95dcc8f5207b!8m2!3d22.9907742!4d72.5004254!16s%2Fg%2F11b5qx30hz!19sChIJhSyffMGaXjkReyD1yNyV7mM?authuser=0&hl=en&rclk=1,"22.9907742,72.5004254"
Abu Baker (R.A) Mosque,Mosque,"XGP6+WFR Abu Baker (R.A) Mosque, TP 85 Road, Sarkhej, Ahmedabad, Sarkhej-Okaf, Gujarat 380055",Sarkhej,"XGP6+WFR, TP 85 Road","Ahmedabad, Sarkhej-Okaf",380055,Gujarat,IN,https://www.google.com/maps/place/Abu+Baker+%28R.A%29+Mosque/data=!4m7!3m6!1s0x395e9ba16ded9eeb:0x7b9ba7352b02027f!8m2!3d22.9873615!4d72.5111265!16s%2Fg%2F11f8clcqrs!19sChIJ657tbaGbXjkRfwICKzWnm3s?authuser=0&hl=en&rclk=1,"22.9873615,72.5111265"
Masjid e Taybah msjid e tyabaah,Mosque,"XGQ2+944 Masjid e Taybah msjid e tyabaah, Tavvvakal society, near Jagruti school, Sarkhej, 382210",Sarkhej,"XGQ2+944, Tavvvakal society, near Jagruti school",Ahmedabad,382210,Gujarat,IN,https://www.google.com/maps/place/Masjid+e+Taybah+%E0%AA%AE%E0%AA%B8%E0%AB%8D%E0%AA%9C%E0%AA%BF%E0%AA%A6+%E0%AA%8F+%E0%AA%A4%E0%AA%AF%E0%AA%AC%E0%AA%BE%E0%AA%B9/data=!4m7!3m6!1s0x395e9ac102ff7d49:0xa069a961a81b553d!8m2!3d22.988399!4d72.500335!16s%2Fg%2F11f4ppz080!19sChIJSX3_AsGaXjkRPVUbqGGpaaA?authuser=0&hl=en&rclk=1,"22.988398999999998,72.50033499999999"
Masjid E Fatima tuz zahra,Mosque,"XGP3+J83 Masjid E Fatima tuz zahra, Sarkhej, Ahmedabad, Sarkhej-Okaf, Gujarat 380055",Sarkhej,XGP3+J83,"Ahmedabad, Sarkhej-Okaf",380055,Gujarat,IN,https://www.google.com/maps/place/Masjid+E+Fatima+tuz+zahra/data=!4m7!3m6!1s0x395e9bd5ac79be33:0xe6a82c261a0c8499!8m2!3d22.9865183!4d72.5033069!16s%2Fg%2F11fkdqqms6!19sChIJM755rNWbXjkRmYQMGiYsqOY?authuser=0&hl=en&rclk=1,"22.9865183,72.5033069"
Zubeda masjid,Mosque,"Zubeda masjid, near, Safwan park-1, opp. ahad sports club, Navi Fatehvadi Village, Sarkhej, Ahmedabad, Gujarat 380055","Navi Fatehvadi Village, Sarkhej","near, Safwan park-1, opp. ahad sports club","Ahmedabad, Sarkhej-Okaf",380055,Gujarat,IN,https://www.google.com/maps/place/Zubeda+masjid/data=!4m7!3m6!1s0x395e9b8753a7d5db:0xb00d88a2f12caa90!8m2!3d22.9751979!4d72.505795!16s%2Fg%2F11kv_k4pd2!19sChIJ29WnU4ebXjkRkKos8aKIDbA?authuser=0&hl=en&rclk=1,"22.975197899999998,72.50579499999999"
Masjid E Hashni,Mosque,"XGG4+4V2 Masjid E Hashni, Navi Fatehvadi Village, Sarkhej, Ahmedabad, Sarkhej-Okaf, Gujarat 380055","Navi Fatehvadi Village, Sarkhej",XGG4+4V2,"Ahmedabad, Sarkhej-Okaf",380055,Gujarat,IN,https://www.google.com/maps/place/Masjid+E+Hashni/data=!4m7!3m6!1s0x395e9ba3ad8e512b:0xb8e1ee21f2fd8323!8m2!3d22.9752525!4d72.5071297!16s%2Fg%2F11h1m2hn0x!19sChIJK1GOraObXjkRI4P98iHu4bg?authuser=0&hl=en&rclk=1,"22.9752525,72.5071297"
Muhammadi Masjid,Mosque,"Muhammadi Masjid, 16, 16, Ahmedabad, Gujarat 380055",Sarkhej,"16, 16","Ahmedabad, Sarkhej-Okaf",380055,Gujarat,IN,https://www.google.com/maps/place/Muhammadi+Masjid/data=!4m7!3m6!1s0x395e9ab88e1dc407:0x62a864c4f96fa883!8m2!3d22.9848283!4d72.5049623!16s%2Fg%2F11btvlh0t6!19sChIJB8QdjriaXjkRg6hv-cRkqGI?authuser=0&hl=en&rclk=1,"22.9848283,72.5049623"
Ajwad Masjid,Mosque,"XGJ5+4G2 Ajwad Masjid, TP 85, Ahmedabad, Sarkhej-Okaf, Gujarat 380055",TP 85,XGJ5+4G2,"Ahmedabad, Sarkhej-Okaf",380055,Gujarat,IN,https://www.google.com/maps/place/Ajwad+Masjid/data=!4m7!3m6!1s0x395e9ab0aa357871:0x537281f0c3dc4b24!8m2!3d22.9802671!4d72.5087537!16s%2Fg%2F11hcxb6982!19sChIJcXg1qrCaXjkRJEvcw_CBclM?authuser=0&hl=en&rclk=1,"22.9802671,72.5087537"
Ghanchi Panch Masjid,Mosque,"Ghanchi Panch Masjid, 7, Sarkhej Gaon Rd, Sarkhej, Ahmedabad, Sarkhej-Okaf, Gujarat 382210",Sarkhej,"7, Sarkhej Gaon Rd","Ahmedabad, Sarkhej-Okaf",382210,Gujarat,IN,https://www.google.com/maps/place/Ghanchi+Panch+Masjid/data=!4m7!3m6!1s0x395e9ab92b189ef7:0xdfec4ac5ae6f846b!8m2!3d22.9822363!4d72.5030945!16s%2Fg%2F11c2nncqwb!19sChIJ954YK7maXjkRa4RvrsVK7N8?authuser=0&hl=en&rclk=1,"22.9822363,72.5030945"
Rabiya Masjid,Mosque,"Rabiya Masjid, Patr 2, Tahura Residency, Navi Fatehvadi Village, Sarkhej, Ahmedabad, Sarkhej-Okaf, Gujarat 380055","Navi Fatehvadi Village, Sarkhej","Patr 2, Tahura Residency","Ahmedabad, Sarkhej-Okaf",380055,Gujarat,IN,https://www.google.com/maps/place/Rabiya+Masjid/data=!4m7!3m6!1s0x395e9b43a7565029:0x4e9b0e63af57dd8a!8m2!3d22.9725582!4d72.506665!16s%2Fg%2F11snllf94n!19sChIJKVBWp0ObXjkRit1Xr2MOm04?authuser=0&hl=en&rclk=1,"22.972558199999998,72.506665"
Masjid E Tajdar E Khatme Nabuwat,Mosque,"XGC5+3X8 Masjid E Tajdar E Khatme Nabuwat, Sarkhej-Okaf, Gujarat 380055",,XGC5+3X8,Sarkhej-Okaf,,Gujarat,IN,https://www.google.com/maps/place/Masjid+E+Tajdar+E+Khatme+Nabuwat/data=!4m7!3m6!1s0x395e9b5c61fc13b5:0xe4a1e9318797667f!8m2!3d22.9701712!4d72.5099464!16s%2Fg%2F11spdg3y0y!19sChIJtRP8YVybXjkRf2aXhzHpoeQ?authuser=0&hl=en&rclk=1,"22.9701712,72.50994639999999"
Masjid,Mosque,"XFPR+JXJ Masjid, Sarkhej, Ahmedabad, Sarkhej-Okaf, Gujarat 382210",Sarkhej,XFPR+JXJ,"Ahmedabad, Sarkhej-Okaf",382210,Gujarat,IN,https://www.google.com/maps/place/Masjid/data=!4m7!3m6!1s0x395e9b17d1025a7f:0x3b8ad657984f7ca9!8m2!3d22.986543!4d72.4921489!16s%2Fg%2F11stb2t8bs!19sChIJf1oC0RebXjkRqXxPmFfWijs?authuser=0&hl=en&rclk=1,"22.986542999999998,72.4921489"
Mosque masjid maajeed,Mosque,"Mosque masjid maajeed, 38/1, SH17, Sarkhej, Ahmedabad, Sarkhej-Okaf, Gujarat 380055",Sarkhej,"38/1, SH17","Ahmedabad, Sarkhej-Okaf",380055,Gujarat,IN,https://www.google.com/maps/place/Mosque+masjid+maajeed/data=!4m7!3m6!1s0x395e9b13aff8e5db:0x72aaa14ae9a46b99!8m2!3d22.9867754!4d72.4982266!16s%2Fg%2F11st_btc09!19sChIJ2-X4rxObXjkRmWuk6UqhqnI?authuser=0&hl=en&rclk=1,"22.9867754,72.4982266"
Masjid-E- Ismail,Mosque,"XGP4+F59 Masjid-E- Ismail, Sarkhej, Ahmedabad, Sarkhej-Okaf, Gujarat 380055",Sarkhej,XGP4+F59,"Ahmedabad, Sarkhej-Okaf",,Gujarat,IN,https://www.google.com/maps/place/Masjid-E-+Ismail/data=!4m7!3m6!1s0x395e9b9fdbad14b1:0x67bd6453874f38bc!8m2!3d22.9861507!4d72.5054986!16s%2Fg%2F11y1wqkqm0!19sChIJsRSt25-bXjkRvDhPh1NkvWc?authuser=0&hl=en&rclk=1,"22.9861507,72.5054986"
Masjid e Alfalaah Daare Arqam,Mosque,"XGG4+3XC Masjid e Alfalaah Daare Arqam, Navi Fatehvadi Village, Sarkhej, Ahmedabad, Sarkhej-Okaf, Gujarat 380055","Navi Fatehvadi Village, Sarkhej",XGG4+3XC,"Ahmedabad, Sarkhej-Okaf",380055,Gujarat,IN,https://www.google.com/maps/place/Masjid+e+Alfalaah+Daare+Arqam/data=!4m7!3m6!1s0x395e9bf58ba22621:0xde4f7364255e4718!8m2!3d22.9750764!4d72.507304!16s%2Fg%2F11k9df_428!19sChIJISaii_WbXjkRGEdeJWRzT94?authuser=0&hl=en&rclk=1,"22.9750764,72.50730399999999"
gullii vaalaa chiipaa msjiid,Mosque,"1, gullii vaalaa chiipaa msjiid, Opposite zainab residency, near bage masira, Sarkhej, Ahmedabad, Gujarat 380055",Sarkhej,"1, Opposite zainab residency, near bage masira","Ahmedabad, Sarkhej-Okaf",380055,Gujarat,IN,https://www.google.com/maps/place/%E0%AA%97%E0%AB%81%E0%AA%B2%E0%AB%8D%E0%AA%B2%E0%AB%80+%E0%AA%B5%E0%AA%BE%E0%AA%B2%E0%AA%BE+%E0%AA%9B%E0%AB%80%E0%AA%AA%E0%AA%BE+%E0%AA%AE%E0%AA%B8%E0%AB%8D%E0%AA%9C%E0%AB%80%E0%AA%A6/data=!4m7!3m6!1s0x395e9bb98a270ff1:0x8514ec02c8c7bb81!8m2!3d22.9869832!4d72.5067607!16s%2Fg%2F11rn0pd45v!19sChIJ8Q8nirmbXjkRgbvHyALsFIU?authuser=0&hl=en&rclk=1,"22.986983199999997,72.5067607"
"Masjid E Umar, Chand Park",Mosque,"XG85+HGP Masjid E Umar, Chand Park, Sarkhej-Okaf, Gujarat 380055",,XG85+HGP,Sarkhej-Okaf,380055,Gujarat,IN,"https://www.google.com/maps/place/Masjid+E+Umar,+Chand+Park/data=!4m7!3m6!1s0x395e9bdcd4445757:0x52a94b0b0f549249!8m2!3d22.967063!4d72.508694!16s%2Fg%2F11tn4d5mmb!19sChIJV1dE1NybXjkRSZJUDwtLqVI?authuser=0&hl=en&rclk=1","22.967063,72.50869399999999"
Aata-e-Khawaja Masjid,Mosque,"XG95+7V7 Aata-e-Khawaja Masjid, Unnamed Road, Ahmedabad, Sarkhej-Okaf, Gujarat 380055",,"XG95+7V7, Unnamed Road","Ahmedabad, Sarkhej-Okaf",380055,Gujarat,IN,https://www.google.com/maps/place/Aata-e-Khawaja+Masjid/data=!4m7!3m6!1s0x395e9bada6f4f81d:0xf72a9b8a4847a44!8m2!3d22.9681543!4d72.5096667!16s%2Fg%2F11rfn7qv74!19sChIJHfj0pq2bXjkRRHqEpLipcg8?authuser=0&hl=en&rclk=1,"22.9681543,72.5096667"
Masjid e Ali Ibadat khana,Mosque,"XG95+8JP Masjid e Ali Ibadat khana, Ahmedabad, Sarkhej-Okaf, Gujarat 380055",,XG95+8JP,"Ahmedabad, Sarkhej-Okaf",380055,Gujarat,IN,https://www.google.com/maps/place/Masjid+e+Ali+Ibadat+khana/data=!4m7!3m6!1s0x395e9b38922d1bbd:0x2bddff00f059294f!8m2!3d22.9683267!4d72.5090825!16s%2Fg%2F11sqf4v2xk!19sChIJvRstkjibXjkRTylZ8AD_3Ss?authuser=0&hl=en&rclk=1,"22.9683267,72.50908249999999"
Rehan Chhipa,Mosque,"XFHX+45G Rehan Chhipa, Sarkhej, Ahmedabad, Sarkhej-Okaf, Gujarat 382210",Sarkhej,XFHX+45G,"Ahmedabad, Sarkhej-Okaf",382210,Gujarat,IN,https://www.google.com/maps/place/Rehan+Chhipa/data=!4m7!3m6!1s0x395e9bbd74904add:0x94f3beba87bd1630!8m2!3d22.9778146!4d72.4979419!16s%2Fg%2F11qbs44jy3!19sChIJ3UqQdL2bXjkRMBa9h7q-85Q?authuser=0&hl=en&rclk=1,"22.9778146,72.4979419"
Masjid,,"XFPX+M5W Masjid, Sarkhej - Gandhinagar Hwy, Sarkhej, Ahmedabad, Sarkhej-Okaf, Gujarat 382210",Sarkhej,"XFPX+M5W, Sarkhej - Gandhinagar Hwy","Ahmedabad, Sarkhej-Okaf",382210,Gujarat,IN,https://www.google.com/maps/place/Masjid/data=!4m7!3m6!1s0x395e9bff6a526af1:0xeaccfbff406880c3!8m2!3d22.9867307!4d72.4979666!16s%2Fg%2F11pf2kvpxp!19sChIJ8WpSav-bXjkRw4BoQP_7zOo?authuser=0&hl=en&rclk=1,"22.9867307,72.4979666"
