name,main_category,address,address_ward,address_street,address_city,address_postal_code,address_state,address_country_code,link,coordinates
Jama Masjid,Mosque,"4496+Q5P Jama Masjid, Gaffar Belim, Mangrol, Gujarat 362225",Gaffar Belim,4496+Q5P,Mangrol,362225,Gujarat,IN,https://www.google.com/maps/place/Jama+Masjid/data=!4m7!3m6!1s0x3bfd4162d7b65ce9:0xbdef9eb4af79fa!8m2!3d21.1194655!4d70.1104455!16s%2Fg%2F1tg6t586!19sChIJ6Vy212JB_TsR-nmvtJ7vvQA?authuser=0&hl=en&rclk=1,"21.1194655,70.1104455"
Melava (Minara) Masjid,Mosque,"Melava (Minara) Masjid, Near, Gulzar Chowk, Gaffar Belim, Mangrol, Gujarat 362225",Gaffar Belim,"Near, Gulzar Chowk",Mangrol,362225,Gujarat,IN,https://www.google.com/maps/place/Melava+%28Minara%29+Masjid/data=!4m7!3m6!1s0x3bfd416383d1ad25:0x6a0e3822de5f0b86!8m2!3d21.1193819!4d70.1127146!16s%2Fg%2F11bt_hcc0l!19sChIJJa3Rg2NB_TsRhgtf3iI4Dmo?authuser=0&hl=en&rclk=1,"21.1193819,70.1127146"
Saiyed Ruknuddin Masjid. Saiyed Wada,Mosque,"44C7+V6G Saiyed Ruknuddin Masjid. Saiyed Wada, Gaffar Belim, Mangrol, Gujarat 362225",Gaffar Belim,44C7+V6G,Mangrol,362225,Gujarat,IN,https://www.google.com/maps/place/Saiyed+Ruknuddin+Masjid.+Saiyed+Wada/data=!4m7!3m6!1s0x3bfd41627e9d38c5:0xf85ce6582bf779a6!8m2!3d21.122187!4d70.113071!16s%2Fg%2F11crzxd2sl!19sChIJxTidfmJB_TsRpnn3K1jmXPg?authuser=0&hl=en&rclk=1,"21.122187,70.11307099999999"
Mangrol Bara Masjid,Mosque,"34JM+H69 Mangrol Bara Masjid, Mangrol Bara, Gujarat 362225",,34JM+H69,Mangrol Bara,362225,Gujarat,IN,https://www.google.com/maps/place/Mangrol+Bara+Masjid/data=!4m7!3m6!1s0x3bfd4127daf485f9:0xbb9b1d0c2b206d34!8m2!3d21.0814021!4d70.1330944!16s%2Fg%2F11fzb17d57!19sChIJ-YX02idB_TsRNG0gKwwdm7s?authuser=0&hl=en&rclk=1,"21.0814021,70.13309439999999"
MARKAZ MASJID,Mosque,"4496+4QR MARKAZ MASJID, Champa Faliya, Pirmusa Road, Mangrol, Gujarat 362225",Gaffar Belim,"4496+4QR, Champa Faliya, Pirmusa Road",Mangrol,362225,Gujarat,IN,https://www.google.com/maps/place/MARKAZ+MASJID/data=!4m7!3m6!1s0x3bfd41636c45ec6d:0xdd80653902d5d818!8m2!3d21.1178695!4d70.1118872!16s%2Fg%2F11dzdxx9lp!19sChIJbexFbGNB_TsRGNjVAjllgN0?authuser=0&hl=en&rclk=1,"21.117869499999998,70.1118872"
Jalaram Mandir,Hindu temple,"448F+JF7 Jalaram Mandir, Ganesh Society, Mangrol, Gujarat 362225",Ganesh Society,448F+JF7,Mangrol,362225,Gujarat,IN,https://www.google.com/maps/place/Jalaram+Mandir/data=!4m7!3m6!1s0x3bfd415db8d8fc23:0xe3b68dcd79b543a9!8m2!3d21.1165324!4d70.1236859!16s%2Fg%2F11csb07l9p!19sChIJI_zYuF1B_TsRqUO1ec2NtuM?authuser=0&hl=en&rclk=1,"21.1165324,70.1236859"
Jama Masjid Mangrol,Mosque,"8GJ6+RGQ Jama Masjid Mangrol, Mangrol, Rajasthan 325215",,8GJ6+RGQ,Mangrol,325215,Rajasthan,IN,https://www.google.com/maps/place/Jama+Masjid+Mangrol/data=!4m7!3m6!1s0x39701e8575a3d56f:0xd7f0723595e2971f!8m2!3d25.3320778!4d76.5113446!16s%2Fg%2F11dyn_smdt!19sChIJb9WjdYUecDkRH5filTVy8Nc?authuser=0&hl=en&rclk=1,"25.3320778,76.5113446"
Masjide Hidayat Jetkham,Mosque,"44CX+8HW Masjide Hidayat Jetkham, Junagadh, Gujarat 362225",,44CX+8HW,Junagadh,362225,Gujarat,IN,https://www.google.com/maps/place/Masjide+Hidayat+Jetkham/data=!4m7!3m6!1s0x3bfd46ac7956c47f:0x63fae87ac7e45304!8m2!3d21.1208577!4d70.1489607!16s%2Fg%2F11g9q74j66!19sChIJf8RWeaxG_TsRBFPkx3ro-mM?authuser=0&hl=en&rclk=1,"21.1208577,70.1489607"
Rawli Masjid (Bibi Masjid),Mosque,"44C7+PQ9 Rawli Masjid (Bibi Masjid), Gaffar Belim, Mangrol, Gujarat 362225",Gaffar Belim,44C7+PQ9,Mangrol,362225,Gujarat,IN,https://www.google.com/maps/place/Rawli+Masjid+%28Bibi+Masjid%29/data=!4m7!3m6!1s0x3bfd416212fafa2f:0xe37f5d2afd07edf3!8m2!3d21.1217962!4d70.1144856!16s%2Fg%2F1tmpcdmz!19sChIJL_r6EmJB_TsR8-0H_Spdf-M?authuser=0&hl=en&rclk=1,"21.1217962,70.1144856"
Masjid e Tayba,Mosque,"44G4+CX8 Masjid e Tayba, Nagda area, Mangrol, Gujarat 362225",Shakti Nagar,"44G4+CX8, Nagda area",Mangrol,362225,Gujarat,IN,https://www.google.com/maps/place/Masjid+e+Tayba/data=!4m7!3m6!1s0x3bfd43d71876e521:0xa85525d2ebe516f4!8m2!3d21.1260408!4d70.1074549!16s%2Fg%2F11g6njyzxl!19sChIJIeV2GNdD_TsR9Bbl69IlVag?authuser=0&hl=en&rclk=1,"21.1260408,70.1074549"
Hazrat Qadri pir Dargah,Mosque,"34MM+J36 Hazrat Qadri pir Dargah, Mangrol Bara, Gujarat 362225",,34MM+J36,Mangrol Bara,362225,Gujarat,IN,https://www.google.com/maps/place/Hazrat+Qadri+pir+Dargah/data=!4m7!3m6!1s0x3bfd4131d3603bb1:0xbb7735ca6f421853!8m2!3d21.0840302!4d70.1326314!16s%2Fg%2F11sh71nyd7!19sChIJsTtg0zFB_TsRUxhCb8o1d7s?authuser=0&hl=en&rclk=1,"21.084030199999997,70.1326314"
Masjid Abubakar Shiddiq,Mosque,"44CF+GWH Masjid Abubakar Shiddiq, Unnamed Road, Fishrish Colony, Mangrol, Gujarat 362225",Fishrish Colony,"44CF+GWH, Unnamed Road",Mangrol,362225,Gujarat,IN,https://www.google.com/maps/place/Masjid+Abubakar+Shiddiq/data=!4m7!3m6!1s0x3bfd415fa782287f:0x2fdb5f0c287dce2e!8m2!3d21.1213106!4d70.124864!16s%2Fg%2F11f24vb29s!19sChIJfyiCp19B_TsRLs59KAxf2y8?authuser=0&hl=en&rclk=1,"21.121310599999997,70.124864"
Apsara Mataji Mandir,Hindu temple,"448F+CJH Apsara Mataji Mandir, Ganesh Society, Mangrol, Gujarat 362225",Ganesh Society,448F+CJH,Mangrol,362225,Gujarat,IN,https://www.google.com/maps/place/Apsara+Mataji+Mandir/data=!4m7!3m6!1s0x3bfd415dafc0f853:0xdc9a5a6144342ce8!8m2!3d21.1160633!4d70.1241142!16s%2Fg%2F1tmckpzk!19sChIJU_jAr11B_TsR6Cw0RGFamtw?authuser=0&hl=en&rclk=1,"21.1160633,70.1241142"
Masjid,Mosque,"44CC+24P Masjid, Ganesh Society, Mangrol, Gujarat 362225",Ganesh Society,44CC+24P,Mangrol,362225,Gujarat,IN,https://www.google.com/maps/place/Masjid/data=!4m7!3m6!1s0x3bfd41c5354d1f9b:0x32fcbd13ce725113!8m2!3d21.1200929!4d70.1203195!16s%2Fg%2F11fltqns34!19sChIJmx9NNcVB_TsRE1FyzhO9_DI?authuser=0&hl=en&rclk=1,"21.1200929,70.1203195"
Nagina Masjid Mangrol,Mosque,"WQVG+62J Nagina Masjid Mangrol, Mangrol, Gujarat 392215",,WQVG+62J,Mangrol,392215,Gujarat,IN,https://www.google.com/maps/place/Nagina+Masjid+Mangrol/data=!4m7!3m6!1s0x395f9c5ca8957e31:0x57870d9e3d06011e!8m2!3d21.9430878!4d72.7750093!16s%2Fg%2F11c2l7m919!19sChIJMX6VqFycXzkRHgEGPZ4Nh1c?authuser=0&hl=en&rclk=1,"21.9430878,72.7750093"
Ayesha Masjid,Mosque,"4498+VCV Ayesha Masjid, Noorani Rd, Gaffar Belim, Mangrol, Gujarat 362225",Gaffar Belim,"4498+VCV, Noorani Rd",Mangrol,362225,Gujarat,IN,https://www.google.com/maps/place/Ayesha+Masjid/data=!4m7!3m6!1s0x3bfd41617e90fcf5:0x88897b1461894036!8m2!3d21.1197484!4d70.1160577!16s%2Fg%2F11hbpwys98!19sChIJ9fyQfmFB_TsRNkCJYRR7iYg?authuser=0&hl=en&rclk=1,"21.1197484,70.1160577"
Masjid e Kausar Ahmed Khan,Mosque,"44HM+XC3 Masjid e Kausar Ahmed Khan, GJ SH 98, Gujarat 362225",,"44HM+XC3, GJ SH 98",,362225,Gujarat,IN,https://www.google.com/maps/place/Masjid+e+Kausar+Ahmed+Khan/data=!4m7!3m6!1s0x3bfd433863c55c71:0x258bda048fcfad1d!8m2!3d21.1298795!4d70.1335576!16s%2Fg%2F11gn2592wd!19sChIJcVzFYzhD_TsRHa3PjwTaiyU?authuser=0&hl=en&rclk=1,"21.129879499999998,70.1335576"
"MOOSA MASJID, MANGROL",Mosque,"448F+4WV MOOSA MASJID, MANGROL, Unnamed Road, Ganesh Society, Mangrol, Gujarat 362225",Ganesh Society,"448F+4WV, Unnamed Road",Mangrol,362225,Gujarat,IN,"https://www.google.com/maps/place/MOOSA+MASJID,+MANGROL/data=!4m7!3m6!1s0x3bfd412778d6c169:0x9facb6d44b631e11!8m2!3d21.1153702!4d70.1248093!16s%2Fg%2F11jvfk9lcp!19sChIJacHWeCdB_TsRER5jS9S2rJ8?authuser=0&hl=en&rclk=1","21.115370199999997,70.1248093"
Fulwadi Masjid,Mosque,"44F6+36W Fulwadi Masjid, Gaffar Belim, Mangrol, Gujarat 362225",Gaffar Belim,44F6+36W,Mangrol,362225,Gujarat,IN,https://www.google.com/maps/place/Fulwadi+Masjid/data=!4m7!3m6!1s0x3bfd43e7153ce195:0x9ec4446d4c1eda8!8m2!3d21.1227298!4d70.1105672!16s%2Fg%2F11fmlfhb9h!19sChIJleE8FedD_TsRqO3B1EZE7Ak?authuser=0&hl=en&rclk=1,"21.1227298,70.11056719999999"
Hasu Jamadar Masjid,Mosque,"44C6+5GQ Hasu Jamadar Masjid, Gaffar Belim, Mangrol, Gujarat 362225",Gaffar Belim,44C6+5GQ,Mangrol,362225,Gujarat,IN,https://www.google.com/maps/place/Hasu+Jamadar+Masjid/data=!4m7!3m6!1s0x3bfd4162e9e060f1:0xaf14cf36ef1b7fdf!8m2!3d21.1204633!4d70.1113565!16s%2Fg%2F11c6f9p8mq!19sChIJ8WDg6WJB_TsR338b7zbPFK8?authuser=0&hl=en&rclk=1,"21.120463299999997,70.1113565"
Masjid E Reeyaz Ul Jannah,Mosque,"44CQ+Q5H Masjid E Reeyaz Ul Jannah, Jetkhambh Road, Mangrol, Gujarat 362225",,"44CQ+Q5H, Jetkhambh Road",Mangrol,,Gujarat,IN,https://www.google.com/maps/place/Masjid+E+Reeyaz+Ul+Jannah/data=!4m7!3m6!1s0x3bfd4156ed6cef69:0x2705e737d22bda99!8m2!3d21.1219337!4d70.1379914!16s%2Fg%2F11ggsvvmn1!19sChIJae9s7VZB_TsRmdor0jfnBSc?authuser=0&hl=en&rclk=1,"21.1219337,70.13799139999999"
Dargah Hazrat Haji Siddeq baba R.A.,Place of worship,"44H9+HQQ Dargah Hazrat Haji Siddeq baba R.A., Fishrish Colony, Mangrol, Gujarat 362225",Fishrish Colony,44H9+HQQ,Mangrol,362225,Gujarat,IN,https://www.google.com/maps/place/Dargah+Hazrat+Haji+Siddeq+baba+R.A./data=!4m7!3m6!1s0x3bfd43de7814d10f:0x12050e5391660cf5!8m2!3d21.1289587!4d70.1194864!16s%2Fg%2F11c32kvfjc!19sChIJD9EUeN5D_TsR9QxmkVMOBRI?authuser=0&hl=en&rclk=1,"21.1289587,70.1194864"
USMAN MASJID,Mosque,"4486+QGP USMAN MASJID, Bulakhi Society, Mangrol, Gujarat 362225",Bulakhi Society,4486+QGP,Mangrol,362225,Gujarat,IN,https://www.google.com/maps/place/USMAN+MASJID/data=!4m7!3m6!1s0x3bfd41635e01a045:0xa5c605df5fe90b3c!8m2!3d21.1169656!4d70.1113346!16s%2Fg%2F11fy1dcryk!19sChIJRaABXmNB_TsRPAvpX98FxqU?authuser=0&hl=en&rclk=1,"21.1169656,70.11133459999999"
Muhammadi Masjid,Mosque,"X8J3+97H Muhammadi Masjid, Sidokar, Gujarat 362255",,X8J3+97H,Sidokar,362255,Gujarat,IN,https://www.google.com/maps/place/Muhammadi+Masjid/data=!4m7!3m6!1s0x3bfd36c377b97bb5:0xdb9de5bc33ce380f!8m2!3d20.9809325!4d70.3032192!16s%2Fg%2F11c5b19znd!19sChIJtXu5d8M2_TsRDzjOM7zlnds?authuser=0&hl=en&rclk=1,"20.980932499999998,70.3032192"
Mangrol,Mosque,"44H5+CQR Mangrol, Shakti Nagar, Mangrol, Gujarat 362225",Shakti Nagar,44H5+CQR,Mangrol,362225,Gujarat,IN,https://www.google.com/maps/place/Mangrol/data=!4m7!3m6!1s0x3bfd43fe03c6e7f5:0xe1f8b3e40f178c5f!8m2!3d21.1284902!4d70.1091926!16s%2Fg%2F11qbr7hzh0!19sChIJ9efGA_5D_TsRX4wXD-Sz-OE?authuser=0&hl=en&rclk=1,"21.128490199999998,70.1091926"
Masjide AQSA,Mosque,"Masjide AQSA, Masjide Aqsa, Bulakhi Society, Mangrol, Gujarat 362225",Bulakhi Society,Masjide Aqsa,Mangrol,362225,Gujarat,IN,https://www.google.com/maps/place/Masjide+AQSA/data=!4m7!3m6!1s0x3bfd43d7cfe9f689:0x8f4b1a67a2910141!8m2!3d21.1226244!4d70.1074859!16s%2Fg%2F11dxj0570d!19sChIJifbpz9dD_TsRQQGRomcaS48?authuser=0&hl=en&rclk=1,"21.1226244,70.1074859"
Masjid-E-Taiba,Mosque,"449G+Q8C Masjid-E-Taiba, Mangrol Bypass Rd, Housing Colony, Fishrish Colony, Mangrol, Gujarat 362225","Housing Colony, Fishrish Colony","449G+Q8C, Mangrol Bypass Rd",Mangrol,362225,Gujarat,IN,https://www.google.com/maps/place/Masjid-E-Taiba/data=!4m7!3m6!1s0x3bfd41884b2327ad:0xdd27b41422ef67ad!8m2!3d21.1194351!4d70.1257616!16s%2Fg%2F11ghpswnyn!19sChIJrScjS4hB_TsRrWfvIhS0J90?authuser=0&hl=en&rclk=1,"21.1194351,70.12576159999999"
Masjid e noori,Mosque,"44G5+M8R Masjid e noori, Unnamed Road, Shakti Nagar, Mangrol, Gujarat 362225",Shakti Nagar,"44G5+M8R, Unnamed Road",Mangrol,362225,Gujarat,IN,https://www.google.com/maps/place/Masjid+e+noori/data=!4m7!3m6!1s0x3bfd434ca2ad990d:0x446f8dfbda01f077!8m2!3d21.1267404!4d70.1082773!16s%2Fg%2F11j0zsmxds!19sChIJDZmtokxD_TsRd_AB2vuNb0Q?authuser=0&hl=en&rclk=1,"21.1267404,70.1082773"
Masjide Karimi,Mosque,"44C7+632 Masjide Karimi, Gaffar Belim, Mangrol, Gujarat 362225",Gaffar Belim,44C7+632,Mangrol,362225,Gujarat,IN,https://www.google.com/maps/place/Masjide+Karimi/data=!4m7!3m6!1s0x3bfd417cc7e1e397:0x7658baf8c33b3825!8m2!3d21.1205193!4d70.1126503!16s%2Fg%2F11f9zgt239!19sChIJl-Phx3xB_TsRJTg7w_i6WHY?authuser=0&hl=en&rclk=1,"21.120519299999998,70.1126503"
Jumma Masjid,Mosque,"632H+RVF Jumma Masjid, Nandarkhi, Gujarat 362240",,632H+RVF,Nandarkhi,362240,Gujarat,IN,https://www.google.com/maps/place/Jumma+Masjid/data=!4m7!3m6!1s0x3bfd42c931655001:0x1e0943d73e2dd627!8m2!3d21.2020584!4d70.0796705!16s%2Fg%2F11dxbw49ht!19sChIJAVBlMclC_TsRJ9YtPtdDCR4?authuser=0&hl=en&rclk=1,"21.2020584,70.07967049999999"
Hazrat Ratra Pir Dargah Shareef,Mosque,"52RX+9JQ Hazrat Ratra Pir Dargah Shareef, Mangrol Road, Fishrish Colony, Mangrol, Gujarat 362225",Fishrish Colony,"52RX+9JQ, Mangrol Road",Mangrol,362225,Gujarat,IN,https://www.google.com/maps/place/Hazrat+Ratra+Pir+Dargah+Shareef/data=!4m7!3m6!1s0x3bfd681d99fe0c79:0xc404f062ded44189!8m2!3d21.1909567!4d70.0491079!16s%2Fg%2F11gbxgv09b!19sChIJeQz-mR1o_TsRiUHU3mLwBMQ?authuser=0&hl=en&rclk=1,"21.190956699999997,70.0491079"
Miya Sahab Durwesh Masjid,Mosque,"4496+VG8 Miya Sahab Durwesh Masjid, Gaffar Belim, Mangrol, Gujarat 362225",Gaffar Belim,4496+VG8,Mangrol,362225,Gujarat,IN,https://www.google.com/maps/place/Miya+Sahab+Durwesh+Masjid/data=!4m7!3m6!1s0x3bfd417e209abbd9:0x3bb52c5544e5c912!8m2!3d21.119652!4d70.1113337!16s%2Fg%2F11fcq97cch!19sChIJ2buaIH5B_TsREsnlRFUstTs?authuser=0&hl=en&rclk=1,"21.119652,70.1113337"
Ismail Masjid,Mosque,"44PJ+PQ2 Ismail Masjid, Junagadh, Gujarat 362225",,44PJ+PQ2,Junagadh,362225,Gujarat,IN,https://www.google.com/maps/place/Ismail+Masjid/data=!4m7!3m6!1s0x3bfd43ef8c442685:0xc48aeeee9fd2b1e0!8m2!3d21.1367649!4d70.1318912!16s%2Fg%2F11g8lp8fx4!19sChIJhSZEjO9D_TsR4LHSn-7uisQ?authuser=0&hl=en&rclk=1,"21.1367649,70.1318912"
Madersa marifatul ulum,Mosque,"45C4+FV2 Madersa marifatul ulum, Jetkham Rd, Mangrol, Gujarat 362225",,"45C4+FV2, Jetkham Rd",Mangrol,362225,Gujarat,IN,https://www.google.com/maps/place/Madersa+marifatul+ulum/data=!4m7!3m6!1s0x3bfd47705b2a3c6b:0xf64886ebddaddcfb!8m2!3d21.1211414!4d70.1571418!16s%2Fg%2F11rqgz4ymr!19sChIJazwqW3BH_TsR-9yt3euGSPY?authuser=0&hl=en&rclk=1,"21.1211414,70.15714179999999"
Masjid e Noor msjiide nur,Mosque,"44H3+344 Masjid e Noor msjiide nur, Shakti Nagar, Mangrol, Gujarat 362225",Shakti Nagar,44H3+344,Mangrol,362225,Gujarat,IN,https://www.google.com/maps/place/Masjid+e+Noor+%E0%AA%AE%E0%AA%B8%E0%AB%8D%E0%AA%9C%E0%AB%80%E0%AA%A6%E0%AB%87+%E0%AA%A8%E0%AB%81%E0%AA%B0/data=!4m7!3m6!1s0x3bfd4376164bcd07:0x8594968ebc29822d!8m2!3d21.1276256!4d70.1028176!16s%2Fg%2F11pq72bt2s!19sChIJB81LFnZD_TsRLYIpvI6WlIU?authuser=0&hl=en&rclk=1,"21.1276256,70.1028176"
EID GAAH MANGROL,Mosque,"4463+8MW EID GAAH MANGROL, Mangrol Society, Mangrol, Gujarat 362226",Mangrol Society,4463+8MW,Mangrol,362226,Gujarat,IN,https://www.google.com/maps/place/EID+GAAH+MANGROL/data=!4m7!3m6!1s0x3bfd417a1ca28c73:0x800d90cffd825bcc!8m2!3d21.1108545!4d70.1041998!16s%2Fg%2F11c6w0j8kh!19sChIJc4yiHHpB_TsRzFuC_c-QDYA?authuser=0&hl=en&rclk=1,"21.1108545,70.1041998"
Ancient Masjid & Dargah,Mosque,"44CM+VW8 Ancient Masjid & Dargah, Jetkhambh Road, near Chachwani Ven, Mangrol, Gujarat",,"44CM+VW8, Jetkhambh Road, near Chachwani Ven",Mangrol,,Gujarat,IN,https://www.google.com/maps/place/Ancient+Masjid+%26+Dargah/data=!4m7!3m6!1s0x3bfd4157742cd275:0x4e721a43f898641c!8m2!3d21.1221509!4d70.1348214!16s%2Fg%2F11f08z60zx!19sChIJddIsdFdB_TsRHGSY-EMack4?authuser=0&hl=en&rclk=1,"21.122150899999998,70.13482139999999"
Masjid e mahmood,Mosque,"44QV+H8 Masjid e mahmood, Mangrol, Gujarat 362225",,44QV+H8,Mangrol,,Gujarat,IN,https://www.google.com/maps/place/Masjid+e+mahmood/data=!4m7!3m6!1s0x3bfd433a2574ef75:0xe86abb3ea506d550!8m2!3d21.1389048!4d70.1433594!16s%2Fg%2F11swxh_379!19sChIJde90JTpD_TsRUNUGpT67aug?authuser=0&hl=en&rclk=1,"21.1389048,70.1433594"
Mohmmadi masjid Datar Manzil,Mosque,"44RG+H2C Mohmmadi masjid Datar Manzil, GJ SH 97, Gujarat 362225",,"44RG+H2C, GJ SH 97",,362225,Gujarat,IN,https://www.google.com/maps/place/Mohmmadi+masjid+Datar+Manzil/data=!4m7!3m6!1s0x3bfd43b098cb16b1:0x7bf756f438292f77!8m2!3d21.1414337!4d70.1250237!16s%2Fg%2F11fk8dzprl!19sChIJsRbLmLBD_TsRdy8pOPRW93s?authuser=0&hl=en&rclk=1,"21.1414337,70.1250237"
Khwaja Garib Navaz Madresa & Masjid,Mosque,"53XQ+66C Khwaja Garib Navaz Madresa & Masjid, Chandvana, Nandarkhi - Talodra Rd, Nandarkhi, Gujarat 362240",,"53XQ+66C, Chandvana, Nandarkhi - Talodra Rd",Nandarkhi,362240,Gujarat,IN,https://www.google.com/maps/place/Khwaja+Garib+Navaz+Madresa+%26+Masjid/data=!4m7!3m6!1s0x3bfd430fd2a1ee03:0x9eaa81b98e1151!8m2!3d21.1980648!4d70.0880254!16s%2Fg%2F11fsqm2x1n!19sChIJA-6h0g9D_TsRURGOuYGqngA?authuser=0&hl=en&rclk=1,"21.198064799999997,70.08802539999999"
Jama masjid shil,Religious organization,"52QW+7PX Jama masjid shil, Shil, Gujarat 362240",,52QW+7PX,Shil,362240,Gujarat,IN,https://www.google.com/maps/place/Jama+masjid+shil/data=!4m7!3m6!1s0x3bfd694d38efe913:0x8faf4506d2f2c3f4!8m2!3d21.1882357!4d70.04685!16s%2Fg%2F11j7f9v17m!19sChIJE-nvOE1p_TsR9MPy0gZFr48?authuser=0&hl=en&rclk=1,"21.1882357,70.04684999999999"
LALBAUG SIM SHALA MANGROL,School,"446F+27X LALBAUG SIM SHALA MANGROL, Ganesh Society, Mangrol, Gujarat 362225",Ganesh Society,446F+27X,Mangrol,362225,Gujarat,IN,https://www.google.com/maps/place/LALBAUG+SIM+SHALA+MANGROL/data=!4m7!3m6!1s0x3bfd41428d3392df:0x2eaad9cdf932f9c0!8m2!3d21.1101027!4d70.1232293!16s%2Fg%2F11f5hlvg6q!19sChIJ35IzjUJB_TsRwPky-c3Zqi4?authuser=0&hl=en&rclk=1,"21.1101027,70.12322929999999"
Masjid e Taqwa,Mosque,"449W+7MW Masjid e Taqwa, Near Jetkhambh School Mangrol Jetkhambh, Mangrol, Gujarat 362225",,"449W+7MW, Near Jetkhambh School Mangrol Jetkhambh",Mangrol,362225,Gujarat,IN,https://www.google.com/maps/place/Masjid+e+Taqwa/data=!4m7!3m6!1s0x3bfd4782247d0565:0x66dab51135a19e56!8m2!3d21.1182381!4d70.1467046!16s%2Fg%2F11qpq6t1y2!19sChIJZQV9JIJH_TsRVp6hNRG12mY?authuser=0&hl=en&rclk=1,"21.1182381,70.14670459999999"
Masjid e Baitul Mukarram,Mosque,"44GF+9GW Masjid e Baitul Mukarram, Fishrish Colony, Mangrol, Gujarat 362225",Fishrish Colony,44GF+9GW,Mangrol,362225,Gujarat,IN,https://www.google.com/maps/place/Masjid+e+Baitul+Mukarram/data=!4m7!3m6!1s0x3bfd436087681cd1:0xdb5a17440ea56186!8m2!3d21.1259931!4d70.1238268!16s%2Fg%2F11nnvh32y7!19sChIJ0Rxoh2BD_TsRhmGlDkQXWts?authuser=0&hl=en&rclk=1,"21.1259931,70.1238268"
Madina Masjid,Mosque,"Madina Masjid, mcchii bjaar, paase, Mangrol, Gujarat 362225",paase,mcchii bjaar,Mangrol,362225,Gujarat,IN,https://www.google.com/maps/place/Madina+Masjid/data=!4m7!3m6!1s0x3bfd41e8fd103bab:0x9d1a1befcc7ed24c!8m2!3d21.1209856!4d70.1098501!16s%2Fg%2F11lrgzv26k!19sChIJqzsQ_ehB_TsRTNJ-zO8bGp0?authuser=0&hl=en&rclk=1,"21.120985599999997,70.1098501"
sulemani masjid,School,"4488+V8C sulemani masjid, Unnamed Road, Ganesh Society, Mangrol, Gujarat 362225",Ganesh Society,"4488+V8C, Unnamed Road",Mangrol,362225,Gujarat,IN,https://www.google.com/maps/place/sulemani+masjid/data=!4m7!3m6!1s0x3bfd41bc82cf94cf:0xaad30fcc1cfb9e5d!8m2!3d21.1146982!4d70.1187705!16s%2Fg%2F11gsln0wzj!19sChIJz5TPgrxB_TsRXZ77HMwP06o?authuser=0&hl=en&rclk=1,"21.1146982,70.1187705"
Sahaba Masjid,School,"446F+87M Sahaba Masjid, Lal Bag, Mangrol, Gujarat 362225",Lal Bag,446F+87M,Mangrol,,Gujarat,IN,https://www.google.com/maps/place/Sahaba+Masjid/data=!4m7!3m6!1s0x3bfd4121c8111199:0x5ab3bbe98da7876a!8m2!3d21.1108369!4d70.1231868!16s%2Fg%2F11fkvyhbrd!19sChIJmRERyCFB_TsRaoenjem7s1o?authuser=0&hl=en&rclk=1,"21.1108369,70.1231868"
Ghanchi Jamaatkhana (NEW),Community center,"Ghanchi Jamaatkhana (NEW), Shapurzapa Rd, Ganesh Society, Mangrol, Gujarat 362225",Ganesh Society,Shapurzapa Rd,Mangrol,362225,Gujarat,IN,https://www.google.com/maps/place/Ghanchi+Jamaatkhana+%28NEW%29/data=!4m7!3m6!1s0x3bfd41d562ecabbb:0x9625c2d790d32512!8m2!3d21.1181574!4d70.11651!16s%2Fg%2F11r3mr8f12!19sChIJu6vsYtVB_TsREiXTkNfCJZY?authuser=0&hl=en&rclk=1,"21.118157399999998,70.11650999999999"
Masjid vadi Dargah,Mosque,"35R3+W3V Masjid vadi Dargah, Sheriyaj, Gujarat 362235",,35R3+W3V,Sheriyaj,362235,Gujarat,IN,https://www.google.com/maps/place/Masjid+vadi+Dargah/data=!4m7!3m6!1s0x3bfd476063fd9c97:0x3e8c3a4102627391!8m2!3d21.0923581!4d70.1526695!16s%2Fg%2F11rmww9d32!19sChIJl5z9Y2BH_TsRkXNiAkE6jD4?authuser=0&hl=en&rclk=1,"21.0923581,70.1526695"
JANTA PAN,Tobacco shop,"4497+X3V JANTA PAN, Gulzar Chowk, near MINARA MASJID, Gaffar Belim, Mangrol, Gujarat 362225",Gaffar Belim,"4497+X3V, Gulzar Chowk, near MINARA MASJID",Mangrol,362225,Gujarat,IN,https://www.google.com/maps/place/JANTA+PAN/data=!4m7!3m6!1s0x3bfd414378b13ed5:0x4334f7a0bcec0861!8m2!3d21.1199773!4d70.1126694!16s%2Fg%2F11gk8trwhh!19sChIJ1T6xeENB_TsRYQjsvKD3NEM?authuser=0&hl=en&rclk=1,"21.1199773,70.1126694"
Sunni Hanfi Masjid,Mosque,"6343+62F Sunni Hanfi Masjid, Shil - Zariyavada Rd, Zariyavada, Gujarat 362240",,"6343+62F, Shil - Zariyavada Rd",Zariyavada,362240,Gujarat,IN,https://www.google.com/maps/place/Sunni+Hanfi+Masjid/data=!4m7!3m6!1s0x3bfd43741faaa5af:0xdbc74434eb651aba!8m2!3d21.2055614!4d70.0525511!16s%2Fg%2F11h5vfwn03!19sChIJr6WqH3RD_TsRuhpl6zREx9s?authuser=0&hl=en&rclk=1,"21.2055614,70.0525511"
FAMILY MART Rs99,Gift shop,"FAMILY MART Rs99, Ravdi masjid, kapad bazarDarbar gadh, shop name :family mart, Mangrol, Gujarat 362225",Gaffar Belim,"Ravdi masjid, kapad bazarDarbar gadh, shop name :family mart",Mangrol,362225,Gujarat,IN,https://www.google.com/maps/place/FAMILY+MART+%E2%82%B999/data=!4m7!3m6!1s0x3bfd4192fae297d9:0x5645f16f0dea605!8m2!3d21.1221584!4d70.1142069!16s%2Fg%2F11t1lg9xq5!19sChIJ2Zfi-pJB_TsRBabe8BZfZAU?authuser=0&hl=en&rclk=1,"21.1221584,70.1142069"
Masjid e Abrar msjiide abraar,Mosque,"44C4+GRV Masjid e Abrar msjiide abraar, Unnamed Road, Bulakhi Society, Mangrol, Gujarat 362225",Bulakhi Society,"44C4+GRV, Unnamed Road",Mangrol,362225,Gujarat,IN,https://www.google.com/maps/place/Masjid+e+Abrar+%E0%AA%AE%E0%AA%B8%E0%AB%8D%E0%AA%9C%E0%AB%80%E0%AA%A6%E0%AB%87+%E0%AA%85%E0%AA%AC%E0%AA%B0%E0%AA%BE%E0%AA%B0/data=!4m7!3m6!1s0x3bfd415c70bed05b:0xddf79b0d317df729!8m2!3d21.1213641!4d70.1070418!16s%2Fg%2F11mv5dsb8f!19sChIJW9C-cFxB_TsRKfd9MQ2b990?authuser=0&hl=en&rclk=1,"21.121364099999997,70.10704179999999"
Jail Masjid,Mosque,"44F9+3VX Jail Masjid, Noorani Rd, Gaffar Belim, Mangrol, Gujarat 362225",Gaffar Belim,"44F9+3VX, Noorani Rd",Mangrol,362225,Gujarat,IN,https://www.google.com/maps/place/Jail+Masjid/data=!4m7!3m6!1s0x3bfd414782a5c2ad:0x94add26e8b5627ba!8m2!3d21.1227267!4d70.1197203!16s%2Fg%2F11qwqssccj!19sChIJrcKlgkdB_TsRuidWi27SrZQ?authuser=0&hl=en&rclk=1,"21.122726699999998,70.1197203"
Masjid-E-Daruttohid,Mosque,"4469+798 Masjid-E-Daruttohid, Ganesh Society, Mangrol, Gujarat 362225",Ganesh Society,4469+798,Mangrol,,Gujarat,IN,https://www.google.com/maps/place/Masjid-E-Daruttohid/data=!4m7!3m6!1s0x3bfd413e0620056d:0xc6ec754b7bf08957!8m2!3d21.1106637!4d70.1184393!16s%2Fg%2F11jz07v92r!19sChIJbQUgBj5B_TsRV4nwe0t17MY?authuser=0&hl=en&rclk=1,"21.1106637,70.11843929999999"
Maryam Sara Masjid,Mosque,"44G9+85X Maryam Sara Masjid, Tower Rd, Gaffar Belim, Mangrol, Gujarat 362225",Gaffar Belim,"44G9+85X, Tower Rd",Mangrol,362225,Gujarat,IN,https://www.google.com/maps/place/Maryam+Sara+Masjid/data=!4m7!3m6!1s0x3bfd43b465f3ab13:0x3e3a39ffaf66517d!8m2!3d21.1258676!4d70.1179974!16s%2Fg%2F11qqj3xjwq!19sChIJE6vzZbRD_TsRfVFmr_85Oj4?authuser=0&hl=en&rclk=1,"21.1258676,70.1179974"
MASJID E QUBA,Mosque,"44CG+XFX MASJID E QUBA, Fishrish Colony, Mangrol, Gujarat 362225",Fishrish Colony,44CG+XFX,Mangrol,362225,Gujarat,IN,https://www.google.com/maps/place/MASJID+E+QUBA/data=!4m7!3m6!1s0x3bfd417c76cdcc13:0xbdf02fbff4dbeed9!8m2!3d21.1224762!4d70.1262437!16s%2Fg%2F11fm49mnr7!19sChIJE8zNdnxB_TsR2e7b9L8v8L0?authuser=0&hl=en&rclk=1,"21.122476199999998,70.1262437"
"Makkah Masjid, Mithivav, Near Khanqah, Mangrol",Mosque,"4477+QR4 Makkah Masjid, Mithivav, Near Khanqah, Mangrol, Mithivav, Mangrol, Gujarat 362225",Mithivav,"4477+QR4, Mithivav",Mangrol,,Gujarat,IN,"https://www.google.com/maps/place/Makkah+Masjid,+Mithivav,+Near+Khanqah,+Mangrol/data=!4m7!3m6!1s0x3bfd41dab6e66351:0xf1cac1aab59c3cac!8m2!3d21.1143779!4d70.1145821!16s%2Fg%2F11rclbdbhx!19sChIJUWPmttpB_TsRrDyctarByvE?authuser=0&hl=en&rclk=1","21.114377899999997,70.11458209999999"
Masjid e ishaq,Mosque,"44WF+XR9 Masjid e ishaq, Keshod - Mangrol Rd, Fishrish Colony, Mangrol, Gujarat 362225",Fishrish Colony,"44WF+XR9, Keshod - Mangrol Rd",Mangrol,362225,Gujarat,IN,https://www.google.com/maps/place/Masjid+e+ishaq/data=!4m7!3m6!1s0x3bfd43dd91dfd5ad:0xc70ec537619a04f2!8m2!3d21.1474017!4d70.1246124!16s%2Fg%2F11nxs2d7j0!19sChIJrdXfkd1D_TsR8gSaYTfFDsc?authuser=0&hl=en&rclk=1,"21.1474017,70.1246124"
Masjide hasnen,Mosque,"444M+R9R Masjide hasnen, Unnamed Road, Ganesh Society, Mangrol, Gujarat 362225",Ganesh Society,"444M+R9R, Unnamed Road",Mangrol,362225,Gujarat,IN,https://www.google.com/maps/place/Masjide+hasnen/data=!4m7!3m6!1s0x3bfd419604c76435:0x1264209aff67fc9c!8m2!3d21.1071087!4d70.1333842!16s%2Fg%2F11nn1gd5_p!19sChIJNWTHBJZB_TsRnPxn_5ogZBI?authuser=0&hl=en&rclk=1,"21.107108699999998,70.1333842"
Masjide-E-Bilal,Mosque,"35X9+RGC Masjide-E-Bilal, Husenabad, Gujarat 362225",,35X9+RGC,Husenabad,362225,Gujarat,IN,https://www.google.com/maps/place/Masjide-E-Bilal/data=!4m7!3m6!1s0x3bfd4792b3471799:0x2228612a73d43a77!8m2!3d21.099569!4d70.1687584!16s%2Fg%2F11j8n1s34h!19sChIJmRdHs5JH_TsRdzrUcyphKCI?authuser=0&hl=en&rclk=1,"21.099569,70.1687584"
A.j. bakery & A.j. house,Bakery and Cake Shop,"A.j. bakery & A.j. house, white complex, near new bus stand, Shardagram Rd, opp. Masjid, Ganesh Society, Mangrol, Gujarat 362225",Ganesh Society,"white complex, near new bus stand, Shardagram Rd, opp. Masjid",Mangrol,362225,Gujarat,IN,https://www.google.com/maps/place/A.j.+bakery+%26+A.j.+house/data=!4m7!3m6!1s0x3bfd41cc7abb5f7f:0x3bed968552df2724!8m2!3d21.1200445!4d70.1208147!16s%2Fg%2F11hyqjn0zl!19sChIJf1-7esxB_TsRJCffUoWW7Ts?authuser=0&hl=en&rclk=1,"21.1200445,70.1208147"
Masjid-E-Rabiya,Mosque,"4489+929 Masjid-E-Rabiya, nr. SHIFA HOSPITAL, Ganesh Society, Mangrol, Gujarat 362225",Ganesh Society,"4489+929, nr. SHIFA HOSPITAL",Mangrol,,Gujarat,IN,https://www.google.com/maps/place/Masjid-E-Rabiya/data=!4m7!3m6!1s0x3bfd418bb9878b1d:0x705425e6c8af4b48!8m2!3d21.1159169!4d70.1176211!16s%2Fg%2F11smn7t__p!19sChIJHYuHuYtB_TsRSEuvyOYlVHA?authuser=0&hl=en&rclk=1,"21.1159169,70.1176211"
Masjide Ilaahi Mangrol msjide ilaahii maaNgroll,Mosque,"Masjide Ilaahi Mangrol msjide ilaahii maaNgroll, Road, Bekhijadi, Porbandar - Veraval Hwy, Mangrol, Gujarat 362225",,"Road, Bekhijadi, Porbandar - Veraval Hwy",Mangrol,362225,Gujarat,IN,https://www.google.com/maps/place/Masjide+Ilaahi+Mangrol+%E0%AA%AE%E0%AA%B8%E0%AB%8D%E0%AA%9C%E0%AA%BF%E0%AA%A6%E0%AB%87+%E0%AA%87%E0%AA%B2%E0%AA%BE%E0%AA%B9%E0%AB%80+%E0%AA%AE%E0%AA%BE%E0%AA%82%E0%AA%97%E0%AA%B0%E0%AB%8B%E0%AA%B3/data=!4m7!3m6!1s0x3bfd47053d50cdc5:0xf45257cff225b351!8m2!3d21.1125317!4d70.1516898!16s%2Fg%2F11hwfyfx07!19sChIJxc1QPQVH_TsRUbMl8s9XUvQ?authuser=0&hl=en&rclk=1,"21.112531699999998,70.1516898"
Masjid E Falah,Mosque,"447C+VF4 Masjid E Falah, Paradise Park Society, Ganesh Society, Mangrol, Gujarat 362225",Ganesh Society,447C+VF4 Paradise Park Society,Mangrol,362225,Gujarat,IN,https://www.google.com/maps/place/Masjid+E+Falah/data=!4m7!3m6!1s0x3bfd41280be2dfc3:0xd1e4c22b918f7775!8m2!3d21.1144599!4d70.1213366!16s%2Fg%2F11tx7364gz!19sChIJw9_iCyhB_TsRdXePkSvC5NE?authuser=0&hl=en&rclk=1,"21.1144599,70.12133659999999"
Masjid e taqva,Mosque,"44FF+G2F Masjid e taqva, Fishrish Colony, Mangrol, Gujarat 362225",Fishrish Colony,44FF+G2F,Mangrol,362225,Gujarat,IN,https://www.google.com/maps/place/Masjid+e+taqva/data=!4m7!3m6!1s0x3bfd43a29f903bcf:0x35bbbfc0c962c08b!8m2!3d21.1237489!4d70.1225079!16s%2Fg%2F11tk317s_d!19sChIJzzuQn6JD_TsRi8BiycC_uzU?authuser=0&hl=en&rclk=1,"21.1237489,70.1225079"
Masjid E Hanafiyyah,Mosque,"44M8+776 Masjid E Hanafiyyah, Mangrol Bypass Rd, Santoshi Nagar, Gayatri Nagar Society, Mangrol, Gujarat 362225","Santoshi Nagar, Gayatri Nagar Society","44M8+776, Mangrol Bypass Rd",Mangrol,362225,Gujarat,IN,https://www.google.com/maps/place/Masjid+E+Hanafiyyah/data=!4m7!3m6!1s0x3bfd437e441551d1:0x69d906d19ab7408b!8m2!3d21.1331728!4d70.1156299!16s%2Fg%2F11kr6p5q6v!19sChIJ0VEVRH5D_TsRi0C3mtEG2Wk?authuser=0&hl=en&rclk=1,"21.1331728,70.1156299"
Masjid e jame al imaan,Mosque,"44J5+82R Masjid e jame al imaan, Shakti Nagar, Mangrol, Gujarat 362225",Shakti Nagar,44J5+82R,Mangrol,362225,Gujarat,IN,https://www.google.com/maps/place/Masjid+e+jame+al+imaan/data=!4m7!3m6!1s0x3bfd43cb18b346f7:0xeb744963b04e3305!8m2!3d21.130865!4d70.1075226!16s%2Fg%2F11t_tq3d0t!19sChIJ90azGMtD_TsRBTNOsGNJdOs?authuser=0&hl=en&rclk=1,"21.130865,70.1075226"
Mariyamshada Masjid,Mosque,"4488+V8C Mariyamshada Masjid, Amin Marg, near Mamlatdar office, Ganesh Society, Mangrol, Gujarat 362225",Ganesh Society,"4488+V8C, Amin Marg, near Mamlatdar office",Mangrol,,Gujarat,IN,https://www.google.com/maps/place/Mariyamshada+Masjid/data=!4m7!3m6!1s0x3bfd4187eb640ad3:0x42d410a9215b274c!8m2!3d21.1171963!4d70.1157609!16s%2Fg%2F11j8sw1c59!19sChIJ0wpk64dB_TsRTCdbIakQ1EI?authuser=0&hl=en&rclk=1,"21.1171963,70.1157609"
Masjid e ali bin abi talib,Mosque,"446P+CW Masjid e ali bin abi talib, Fishrish Colony, Mangrol, Gujarat 362225",Fishrish Colony,446P+CW,Mangrol,,Gujarat,IN,https://www.google.com/maps/place/Masjid+e+ali+bin+abi+talib/data=!4m7!3m6!1s0x3bfd4147b44fd80d:0xc5b9d22061b73f0a!8m2!3d21.111015!4d70.1373051!16s%2Fg%2F11t2rqjcnc!19sChIJDdhPtEdB_TsRCj-3YSDSucU?authuser=0&hl=en&rclk=1,"21.111015,70.13730509999999"
Sahba masjid,Mosque,"444J+M8 Sahba masjid, Ganesh Society, Mangrol, Gujarat 362225",Ganesh Society,444J+M8,Mangrol,362225,Gujarat,IN,https://www.google.com/maps/place/Sahba+masjid/data=!4m7!3m6!1s0x3bfd41fb106a7061:0x166f532be64653e0!8m2!3d21.1067!4d70.1308028!16s%2Fg%2F11sy6w_hnf!19sChIJYXBqEPtB_TsR4FNG5itTbxY?authuser=0&hl=en&rclk=1,"21.1067,70.1308028"
Masjid-e- Khulfae Rashidin,Mosque,"447C+7GR Masjid-e- Khulfae Rashidin, Shifa hospital road, Lalbaug Chokadi, Ganesh Society, Mangrol, Gujarat 362225","Lalbaug Chokadi, Ganesh Society","447C+7GR, Shifa hospital road",Mangrol,,Gujarat,IN,https://www.google.com/maps/place/Masjid-e-+Khulfae+Rashidin/data=!4m7!3m6!1s0x3bfd41bacea3926d:0x21fe2863902f036a!8m2!3d21.1132326!4d70.1212612!16s%2Fg%2F11tdmg7g4y!19sChIJbZKjzrpB_TsRagMvkGMo_iE?authuser=0&hl=en&rclk=1,"21.1132326,70.12126119999999"
Masjide kasim,Mosque,"447F+4RR Masjide kasim, Bangla Vadi Road, Behind Apsara Mandir, opp. Madrasa Abbas, Ganesh Society, Mangrol, Gujarat 362225",Ganesh Society,"447F+4RR, Bangla Vadi Road, Behind Apsara Mandir, opp. Madrasa Abbas",Mangrol,362225,Gujarat,IN,https://www.google.com/maps/place/Masjide+kasim/data=!4m7!3m6!1s0x3bfd41c13b23c1cf:0x2cb0020d468651!8m2!3d21.1128608!4d70.1245026!16s%2Fg%2F11qh91h97f!19sChIJz8EjO8FB_TsRUYZGDQKwLAA?authuser=0&hl=en&rclk=1,"21.1128608,70.1245026"
Haji siddiqui masjid,Mosque,"44H9+76G Haji siddiqui masjid, Fishrish Colony, Mangrol, Gujarat 362225",Fishrish Colony,44H9+76G,Mangrol,362225,Gujarat,IN,https://www.google.com/maps/place/Haji+siddiqui+masjid/data=!4m7!3m6!1s0x3bfd43e617a86053:0x4b23f4516f7039a7!8m2!3d21.1281753!4d70.1180699!16s%2Fg%2F11qmbbj6by!19sChIJU2CoF-ZD_TsRpzlwb1H0I0s?authuser=0&hl=en&rclk=1,"21.1281753,70.1180699"
Masjid e Ashrae mubassara,Mosque,"44JC+6J2 Masjid e Ashrae mubassara, NH51, Fishrish Colony, Mangrol, Gujarat 362225",Fishrish Colony,"44JC+6J2, NH51",Mangrol,362225,Gujarat,IN,https://www.google.com/maps/place/Masjid+e+Ashrae+mubassara/data=!4m7!3m6!1s0x3bfd43a01332457d:0xcf841863038ab5c1!8m2!3d21.1305233!4d70.1215117!16s%2Fg%2F11q2y189pp!19sChIJfUUyE6BD_TsRwbWKA2MYhM8?authuser=0&hl=en&rclk=1,"21.1305233,70.1215117"
Madrasa Masjid,Mosque,"Madrasa Masjid, Darul Hijaz Yatama, Porbandar Hwy, Shakti Nagar, Mangrol, Gujarat 362225",Shakti Nagar,"Darul Hijaz Yatama, Porbandar Hwy",Mangrol,362225,Gujarat,IN,https://www.google.com/maps/place/Madrasa+Masjid/data=!4m7!3m6!1s0x3bfd43ff6cbe3fe5:0x161080515d7d7fe9!8m2!3d21.1341451!4d70.1093844!16s%2Fg%2F11r3wcs903!19sChIJ5T--bP9D_TsR6X99XVGAEBY?authuser=0&hl=en&rclk=1,"21.134145099999998,70.1093844"
Masjid e Sulaiman Abu Bakar,Mosque,"5399+CFH Masjid e Sulaiman Abu Bakar, Unnamed Road, Loej, Gujarat 362226",,"5399+CFH, Unnamed Road",Loej,362226,Gujarat,IN,https://www.google.com/maps/place/Masjid+e+Sulaiman+Abu+Bakar/data=!4m7!3m6!1s0x3bfd433e0233d681:0x5df4d37ac2305314!8m2!3d21.1685697!4d70.0687372!16s%2Fg%2F11r25bvzwc!19sChIJgdYzAj5D_TsRFFMwwnrT9F0?authuser=0&hl=en&rclk=1,"21.1685697,70.0687372"
Mangrol,Tourist attraction,"44F8+2P8 Mangrol, Gaffar Belim, Mangrol, Gujarat 362225",Gaffar Belim,44F8+2P8,Mangrol,,Gujarat,IN,https://www.google.com/maps/place/Mangrol/data=!4m7!3m6!1s0x3bfd41220ead588b:0x876f1ed73bf9f316!8m2!3d21.1225405!4d70.1168209!16s%2Fg%2F11v6xrbmy3!19sChIJi1itDiJB_TsRFvP5O9ceb4c?authuser=0&hl=en&rclk=1,"21.1225405,70.1168209"
VHORA M.UMERBHAI,Alternative medicine practitioner,"4496+RGX VHORA M.UMERBHAI, MANGROL, near juma masjid",Gaffar Belim,"4496+RGX, MANGROL, near juma masjid",Mangrol,,Gujarat,IN,https://www.google.com/maps/place/VHORA+M.UMERBHAI/data=!4m7!3m6!1s0x3bfd4162e0445e3b:0x7ec26345031dd394!8m2!3d21.1196146!4d70.1113722!16s%2Fg%2F11cm0hqk6v!19sChIJO15E4GJB_TsRlNMdA0Vjwn4?authuser=0&hl=en&rclk=1,"21.1196146,70.11137219999999"
SAMRAT ELECTRIC,Electronics store,"SAMRAT ELECTRIC, MUHAMMADI COMPLEX, near MASTANA MASJID, Gaffar Belim, Mangrol, Gujarat 362225",Gaffar Belim,"MUHAMMADI COMPLEX, near MASTANA MASJID",Mangrol,362225,Gujarat,IN,https://www.google.com/maps/place/SAMRAT+ELECTRIC/data=!4m7!3m6!1s0x3bfd4118cce2f3b5:0x25acd86ff5dceda!8m2!3d21.1217506!4d70.1170548!16s%2Fg%2F11smwkztwf!19sChIJtfPizBhB_TsR2s5d_4bNWgI?authuser=0&hl=en&rclk=1,"21.1217506,70.11705479999999"
Masjid-e-rizwan,Mosque,"4495+V2X Masjid-e-rizwan, Bulakhi Society, Mangrol, Gujarat 362225",Bulakhi Society,4495+V2X,Mangrol,362225,Gujarat,IN,https://www.google.com/maps/place/Masjid-e-rizwan/data=!4m7!3m6!1s0x3bfd41749a6317cf:0x37010ca94efde28!8m2!3d21.1197372!4d70.1076245!16s%2Fg%2F11fk42x_dc!19sChIJzxdjmnRB_TsRKN7vlMoQcAM?authuser=0&hl=en&rclk=1,"21.1197372,70.1076245"
Ibrahim masjid,Mosque,"4488+W66 Ibrahim masjid, Bandar road, Ganesh Society, Mangrol, Gujarat 362225",Ganesh Society,"4488+W66, Bandar road",Mangrol,,Gujarat,IN,https://www.google.com/maps/place/Ibrahim+masjid/data=!4m7!3m6!1s0x3bfd417d20595d49:0x3892a9b36b4b542b!8m2!3d21.1172898!4d70.1155226!16s%2Fg%2F11vj73ljx9!19sChIJSV1ZIH1B_TsRK1RLa7Opkjg?authuser=0&hl=en&rclk=1,"21.117289799999998,70.11552259999999"
Masjid -e-aisha,Mosque,"44CG+XP2 Masjid -e-aisha, Jetkham Rd, Fishrish Colony, Mangrol, Gujarat 362225",Fishrish Colony,"44CG+XP2, Jetkham Rd",Mangrol,362225,Gujarat,IN,https://www.google.com/maps/place/Masjid+-e-aisha/data=!4m7!3m6!1s0x3bfd415cf207059d:0x947213b9802a4586!8m2!3d21.1223864!4d70.1267719!16s%2Fg%2F11h0b9t6cf!19sChIJnQUH8lxB_TsRhkUqgLkTcpQ?authuser=0&hl=en&rclk=1,"21.1223864,70.1267719"
Anvar Masjid,Mosque,"4468+RVH Anvar Masjid, Ganesh Society, Mangrol, Gujarat 362225",Ganesh Society,4468+RVH,Mangrol,,Gujarat,IN,https://www.google.com/maps/place/Anvar+Masjid/data=!4m7!3m6!1s0x3bfd41d069948955:0xc1eefd4493832179!8m2!3d21.1120525!4d70.1172208!16s%2Fg%2F11s9z5021r!19sChIJVYmUadBB_TsReSGDk0T97sE?authuser=0&hl=en&rclk=1,"21.1120525,70.1172208"
Masjid Jamia Kashiful Uloom,Mosque,"447M+83H Masjid Jamia Kashiful Uloom, Ganesh Society, Mangrol, Gujarat 362225",Ganesh Society,447M+83H,Mangrol,362225,Gujarat,IN,https://www.google.com/maps/place/Masjid+Jamia+Kashiful+Uloom/data=!4m7!3m6!1s0x3bfd41c1f869a745:0x66d2363dd0061c36!8m2!3d21.113545!4d70.1327595!16s%2Fg%2F11s5ghrjzl!19sChIJRadp-MFB_TsRNhwG0D020mY?authuser=0&hl=en&rclk=1,"21.113545,70.13275949999999"
IKHLAS MASJID,Mosque,"4485+8JP IKHLAS MASJID, Bulakhi Society, Mangrol, Gujarat 362225",Bulakhi Society,4485+8JP,Mangrol,362225,Gujarat,IN,https://www.google.com/maps/place/IKHLAS+MASJID/data=!4m7!3m6!1s0x3bfd411dc66bdb05:0x752a1d7ff19ecfcf!8m2!3d21.1158412!4d70.1090666!16s%2Fg%2F11hdskhfsv!19sChIJBdtrxh1B_TsRz8-e8X8dKnU?authuser=0&hl=en&rclk=1,"21.1158412,70.10906659999999"
Shaikh Bada Miyan Sahab Vaali Masjid,Mosque,"44F8+673 Shaikh Bada Miyan Sahab Vaali Masjid, Gaffar Belim, Mangrol, Gujarat 362225",Gaffar Belim,44F8+673,Mangrol,362225,Gujarat,IN,https://www.google.com/maps/place/Shaikh+Bada+Miyan+Sahab+Vaali+Masjid/data=!4m7!3m6!1s0x3bfd43312633da35:0x5650e19e967d8bd9!8m2!3d21.1230109!4d70.1156609!16s%2Fg%2F11p9yv4xr2!19sChIJNdozJjFD_TsR2Yt9lp7hUFY?authuser=0&hl=en&rclk=1,"21.1230109,70.1156609"
Masjid,Mosque,"43PV+4XM Masjid, Maktupur, Mangrol, Gujarat 362225",Maktupur,43PV+4XM,Mangrol,362225,Gujarat,IN,https://www.google.com/maps/place/Masjid/data=!4m7!3m6!1s0x3bfd4336811cebf5:0xf40f0019ef61db42!8m2!3d21.1353348!4d70.0949335!16s%2Fg%2F11thhp79nx!19sChIJ9escgTZD_TsRQtth7xkAD_Q?authuser=0&hl=en&rclk=1,"21.1353348,70.0949335"
Juni jail masjid limda chowl,Mosque,"PIPRICHORA PASE, Juni jail masjid limda chowl, MASJID SAME, LIMDA CHOWK, Gaffar Belim, Mangrol, Gujarat 362225",Gaffar Belim,"PIPRICHORA PASE, MASJID SAME, LIMDA CHOWK",Mangrol,362225,Gujarat,IN,https://www.google.com/maps/place/Juni+jail+masjid+limda+chowl/data=!4m7!3m6!1s0x3bfd414b74776c57:0xd615c7bf8c1513d5!8m2!3d21.1222675!4d70.1166089!16s%2Fg%2F11kt8rgq20!19sChIJV2x3dEtB_TsR1RMVjL_HFdY?authuser=0&hl=en&rclk=1,"21.1222675,70.1166089"
Jubeda masjid,Mosque,"44P4+M8X Jubeda masjid, Shakti Nagar, Mangrol, Gujarat 362225",Shakti Nagar,44P4+M8X,Mangrol,362225,Gujarat,IN,https://www.google.com/maps/place/Jubeda+masjid/data=!4m7!3m6!1s0x3bfd4312f20b0f2d:0x1a8e1be050388214!8m2!3d21.1367413!4d70.1058589!16s%2Fg%2F11kpk7ymkg!19sChIJLQ8L8hJD_TsRFII4UOAbjho?authuser=0&hl=en&rclk=1,"21.1367413,70.1058589"
Sufiyan Bera,Mosque,"Sufiyan Bera, Masjid-e-hasnainn, Ganesh Society, Mangrol, Gujarat 362225",Ganesh Society,Masjid-e-hasnainn,Mangrol,362225,Gujarat,IN,https://www.google.com/maps/place/Sufiyan+Bera/data=!4m7!3m6!1s0x3bfd4122dbf6ad9d:0xd0e972c60fd932e4!8m2!3d21.1113037!4d70.1268576!16s%2Fg%2F11rb_w712s!19sChIJna322yJB_TsR5DLZD8Zy6dA?authuser=0&hl=en&rclk=1,"21.1113037,70.1268576"
Masjid,Mosque,"46GF+HRW Masjid, Masjid,Noora bhai vaadi, Mangrol, Gujarat 362245",,"46GF+HRW, Masjid,Noora bhai vaadi",Mangrol,362245,Gujarat,IN,https://www.google.com/maps/place/Masjid/data=!4m7!3m6!1s0x3bfd475337d18165:0x2f73d9b860dbeccb!8m2!3d21.1264831!4d70.2245854!16s%2Fg%2F11qq3yn1b9!19sChIJZYHRN1NH_TsRy-zbYLjZcy8?authuser=0&hl=en&rclk=1,"21.126483099999998,70.2245854"
yasin ghameriya,Nursing home,"yasin ghameriya, near melava masjid, Gaffar Belim, Mangrol, Gujarat 362225",Gaffar Belim,near melava masjid,Mangrol,362225,Gujarat,IN,https://www.google.com/maps/place/yasin+ghameriya/data=!4m7!3m6!1s0x3bfd41230a08e437:0x1344e915ba0231ba!8m2!3d21.1193744!4d70.1130084!16s%2Fg%2F11q3m7ykqp!19sChIJN-QICiNB_TsRujECuhXpRBM?authuser=0&hl=en&rclk=1,"21.119374399999998,70.1130084"
Mosque,Mosque,"46GF+JR4 Mosque, masjid,noora bhai vadi, Seriyakhan Rd, Mangrol, Gujarat 362245",,"46GF+JR4, masjid,noora bhai vadi, Seriyakhan Rd",Mangrol,362245,Gujarat,IN,https://www.google.com/maps/place/Mosque/data=!4m7!3m6!1s0x3bfd471ee9dd9df7:0x49c9a348f747640f!8m2!3d21.1265023!4d70.2245832!16s%2Fg%2F11qq3xjhbk!19sChIJ953d6R5H_TsRD2RH90ijyUk?authuser=0&hl=en&rclk=1,"21.1265023,70.2245832"
Charadva Sati Mata Temple,Hindu temple,"44C7+8C3 Charadva Sati Mata Temple, Gaffar Belim, Mangrol, Gujarat 362225",Gaffar Belim,44C7+8C3,Mangrol,,Gujarat,IN,https://www.google.com/maps/place/Charadva+Sati+Mata+Temple/data=!4m7!3m6!1s0x3bfd41f4a8735dc9:0x2bc2c0d3ac183a65!8m2!3d21.1207642!4d70.1135602!16s%2Fg%2F11sz161nmz!19sChIJyV1zqPRB_TsRZToYrNPAwis?authuser=0&hl=en&rclk=1,"21.1207642,70.1135602"
MADARSAH TAHFIZUL QURAN MANGROL,School,"LUHARWADA, MADARSAH TAHFIZUL QURAN MANGROL, MINARA MASJID, Gulzar Chowk, Gaffar Belim, Mangrol, Gujarat 362225",Gaffar Belim,"LUHARWADA, MINARA MASJID, Gulzar Chowk",Mangrol,362225,Gujarat,IN,https://www.google.com/maps/place/MADARSAH+TAHFIZUL+QURAN+MANGROL/data=!4m7!3m6!1s0x3bfd41aef1b70ffb:0x6c416741abbbeb7!8m2!3d21.1193471!4d70.1126935!16s%2Fg%2F11kh9fk5x3!19sChIJ-w-38a5B_TsRt767GnQWxAY?authuser=0&hl=en&rclk=1,"21.1193471,70.11269349999999"
M.S. MOBILE,Mobile phone repair shop,"SHOP NO. 3, M.S. MOBILE, Lalpura Rd, near LALPURA MASJID, Gaffar Belim, Mangrol, Gujarat 362225",Gaffar Belim,"SHOP NO. 3, Lalpura Rd, near LALPURA MASJID",Mangrol,362225,Gujarat,IN,https://www.google.com/maps/place/M.S.+MOBILE/data=!4m7!3m6!1s0x3bfd4197604cbf8b:0x67dab91bd39f1a24!8m2!3d21.1218957!4d70.1107231!16s%2Fg%2F11svys5h89!19sChIJi79MYJdB_TsRJBqf0xu52mc?authuser=0&hl=en&rclk=1,"21.1218957,70.1107231"
JAMIAH TALIMUDDIN WELFARE AND CHARITABLE WAQF,Charity,"SHOP NO. 1, JAMIAH TALIMUDDIN WELFARE AND CHARITABLE WAQF, TAIBA MASJID COMPLEX, Porbandar - Veraval Hwy, near TAIBA MASJID, Housing Colony, Fishrish Colony, Mangrol, Gujarat 362225","Housing Colony, Fishrish Colony","SHOP NO. 1, TAIBA MASJID COMPLEX, Porbandar - Veraval Hwy, near TAIBA MASJID",Mangrol,362225,Gujarat,IN,https://www.google.com/maps/place/JAMIAH+TALIMUDDIN+WELFARE+AND+CHARITABLE+WAQF/data=!4m7!3m6!1s0x3bfd4114e1ad4889:0xf7fad3a2d1b0c952!8m2!3d21.1196023!4d70.1255416!16s%2Fg%2F11kh_rsgf1!19sChIJiUit4RRB_TsRUsmw0aLT-vc?authuser=0&hl=en&rclk=1,"21.1196023,70.12554159999999"
ABDULKARIM ABDULKADAR TAI,General store,"ABDULKARIM ABDULKADAR TAI, 01, Chara Bazar Rd, opp. JUMMA MASJID, Gaffar Belim, Mangrol, Gujarat 362225",Gaffar Belim,"01, Chara Bazar Rd, opp. JUMMA MASJID",Mangrol,362225,Gujarat,IN,https://www.google.com/maps/place/ABDULKARIM+ABDULKADAR+TAI/data=!4m7!3m6!1s0x3bfd411b610c466d:0x36be38fa9d424c7a!8m2!3d21.1198685!4d70.1110969!16s%2Fg%2F11l34zwhfw!19sChIJbUYMYRtB_TsRekxCnfo4vjY?authuser=0&hl=en&rclk=1,"21.1198685,70.11109689999999"
SALIM GARIBA,Store,"SHOP NO. 03, SALIM GARIBA, JUMMA MASJID ROAD, BANDAR ZAPA, Mangrol, Gujarat 362225",BANDAR ZAPA,"SHOP NO. 03, JUMMA MASJID ROAD",Mangrol,362225,Gujarat,IN,https://www.google.com/maps/place/SALIM+GARIBA/data=!4m7!3m6!1s0x3bfd41fa1bb789d9:0x226e00ccb65051b!8m2!3d21.1172357!4d70.1120505!16s%2Fg%2F11kq229bbn!19sChIJ2Ym3G_pB_TsRGwVlywzgJgI?authuser=0&hl=en&rclk=1,"21.1172357,70.1120505"
BUMADIYA ABUBAKAR MOHAMADBHAI,Pharmacy,"01, BUMADIYA ABUBAKAR MOHAMADBHAI, HAJI YUSUF COMPLEX, BANDAR ROAD, opp. IBRAHIM MASJID, Gaffar Belim, Mangrol, Gujarat 362225",Gaffar Belim,"01, HAJI YUSUF COMPLEX, BANDAR ROAD, opp. IBRAHIM MASJID",Mangrol,362225,Gujarat,IN,https://www.google.com/maps/place/BUMADIYA+ABUBAKAR+MOHAMADBHAI/data=!4m7!3m6!1s0x3bfd41b8d0a19871:0xa406a91a3959f1f3!8m2!3d21.117388!4d70.1153012!16s%2Fg%2F11vf7kn8gj!19sChIJcZih0LhB_TsR8_FZORqpBqQ?authuser=0&hl=en&rclk=1,"21.117388,70.11530119999999"
RIZWAN ART,Art gallery,"RIZWAN ART, BANDAR ROAD, near IBRAHIM MASJID, Gaffar Belim, Mangrol, Gujarat 362225",Gaffar Belim,"BANDAR ROAD, near IBRAHIM MASJID",Mangrol,362225,Gujarat,IN,https://www.google.com/maps/place/RIZWAN+ART/data=!4m7!3m6!1s0x3bfd415568d7364f:0xbcd6de0463ce609b!8m2!3d21.1173864!4d70.115184!16s%2Fg%2F11p60x202y!19sChIJTzbXaFVB_TsRm2DOYwTe1rw?authuser=0&hl=en&rclk=1,"21.117386399999997,70.115184"
SHAMA COLD POINT,Juice shop,"SHOP NO. 2, SHAMA COLD POINT, Gulzar Chowk, near MINARA MASJID, Gaffar Belim, Mangrol, Gujarat 362225",Gaffar Belim,"SHOP NO. 2, Gulzar Chowk, near MINARA MASJID",Mangrol,362225,Gujarat,IN,https://www.google.com/maps/place/SHAMA+COLD+POINT/data=!4m7!3m6!1s0x3bfd411e45992c35:0x43695dd6a3f16d12!8m2!3d21.1197543!4d70.112819!16s%2Fg%2F11sty65186!19sChIJNSyZRR5B_TsREm3xo9ZdaUM?authuser=0&hl=en&rclk=1,"21.1197543,70.112819"
Padaya house,Apartment building,"Padaya house, Fishrish Colony, Mangrol, Gujarat 362225",Fishrish Colony,Padaya house,Mangrol,362225,Gujarat,IN,https://www.google.com/maps/place/Padaya+house/data=!4m7!3m6!1s0x3bfd414fd6da602f:0xc8f2964468b57920!8m2!3d21.1194725!4d70.1206309!16s%2Fg%2F11t2c0rx28!19sChIJL2Da1k9B_TsRIHm1aESW8sg?authuser=0&hl=en&rclk=1,"21.1194725,70.1206309"
HAFIZ CLOTH,Clothing store,"HAFIZ CLOTH, near MINARA MASJID, LUHAR WADA, Gaffar Belim, Mangrol, Gujarat 362225","LUHAR WADA, Gaffar Belim",near MINARA MASJID,Mangrol,362225,Gujarat,IN,https://www.google.com/maps/place/HAFIZ+CLOTH/data=!4m7!3m6!1s0x3bfd41ad5bddd5b1:0x5970743c0c8cde04!8m2!3d21.119177!4d70.1129742!16s%2Fg%2F11t9_s409j!19sChIJsdXdW61B_TsRBN6MDDx0cFk?authuser=0&hl=en&rclk=1,"21.119177,70.1129742"
Majidkhan Sardarkhan Pathan -JioMart Digital Partner,Electronics store,"shop no, Majidkhan Sardarkhan Pathan -JioMart Digital Partner, near Fulvadi Masjid, Mangrol Society, Junagadh, Mangrol, Gujarat 362225",Mangrol Society,"shop no, near Fulvadi Masjid","Junagadh, Mangrol",362225,Gujarat,IN,https://www.google.com/maps/place/Majidkhan+Sardarkhan+Pathan+-JioMart+Digital+Partner/data=!4m7!3m6!1s0x3bfd419bb70237f9:0x5085739c3b7a2a62!8m2!3d21.1067891!4d70.1033806!16s%2Fg%2F11txrnzl0j!19sChIJ-TcCt5tB_TsRYip6O5xzhVA?authuser=0&hl=en&rclk=1,"21.1067891,70.1033806"
K.K. TOYS MANGROL,Game store,"04, K.K. TOYS MANGROL, GANDHI CHOWK, near SULTANMIYA MASJID, Gaffar Belim, Mangrol, Gujarat 362225",Gaffar Belim,"04, GANDHI CHOWK, near SULTANMIYA MASJID",Mangrol,362225,Gujarat,IN,https://www.google.com/maps/place/K.K.+TOYS+MANGROL/data=!4m7!3m6!1s0x3bfd418cfd646ad7:0x3e05fd603d1c7415!8m2!3d21.1214462!4d70.1127008!16s%2Fg%2F11ks4878q_!19sChIJ12pk_YxB_TsRFXQcPWD9BT4?authuser=0&hl=en&rclk=1,"21.121446199999998,70.1127008"
MASOOM ATTAR,Perfume store,"MASOOM ATTAR, Gulzar Chowk, near MINARA MASJID, Gaffar Belim, Mangrol, Gujarat 362225",Gaffar Belim,"Gulzar Chowk, near MINARA MASJID",Mangrol,362225,Gujarat,IN,https://www.google.com/maps/place/MASOOM+ATTAR/data=!4m7!3m6!1s0x3bfd4103c9ab107f:0x820065c6b3e0b384!8m2!3d21.1195521!4d70.1126554!16s%2Fg%2F11t9y1qmxh!19sChIJfxCryQNB_TsRhLPgs8ZlAII?authuser=0&hl=en&rclk=1,"21.1195521,70.1126554"
Daksh Mobile Zone,Cell phone store,"Daksh Mobile Zone, Jail Rd, opp. Jail Masjid, Gaffar Belim, Mangrol, Gujarat 362225",Gaffar Belim,"Jail Rd, opp. Jail Masjid",Mangrol,362225,Gujarat,IN,https://www.google.com/maps/place/Daksh+Mobile+Zone/data=!4m7!3m6!1s0x3bfd41e963874cd7:0x97bcdab1287e7ec2!8m2!3d21.1225591!4d70.11928!16s%2Fg%2F11rk84d2xl!19sChIJ10yHY-lB_TsRwn5-KLHavJc?authuser=0&hl=en&rclk=1,"21.1225591,70.11928"
Mangrol,,"Mangrol, Gujarat",,,,,Gujarat,IN,https://www.google.com/maps/place/Mangrol/data=!4m7!3m6!1s0x3bfd5d1acc89b4df:0x1218a73bf75c71ca!8m2!3d21.1225116!4d70.1168447!16s%2Fg%2F11pz1b7l4j!19sChIJ37SJzBpd_TsRynFc9zunGBI?authuser=0&hl=en&rclk=1,"21.1225116,70.1168447"
AJWA GENERAL MART,General store,"AJWA GENERAL MART, MASJID AND SHAMA PATHSHALA, 01, Lalpura Rd, opp. LALPURA, Gaffar Belim, Mangrol, Gujarat 362225",Gaffar Belim,"MASJID AND SHAMA PATHSHALA, 01, Lalpura Rd, opp. LALPURA",Mangrol,362225,Gujarat,IN,https://www.google.com/maps/place/AJWA+GENERAL+MART/data=!4m7!3m6!1s0x3bfd415522130f1b:0x8d69109f06b201d1!8m2!3d21.1215132!4d70.1117035!16s%2Fg%2F11l5lc732s!19sChIJGw8TIlVB_TsR0QGyBp8QaY0?authuser=0&hl=en&rclk=1,"21.1215132,70.11170349999999"
