name,main_category,address,address_ward,address_street,address_city,address_postal_code,address_state,address_country_code,link,coordinates
Jumma Masjid - Anand,Mosque,"Jumma Masjid - Anand, Juna Dadar, near Railway Station, Anand, Gujarat 388001","Ganesh Chokdi, Sardar Ganj","Juna Dadar, near Railway Station",Anand,388001,Gujarat,IN,https://www.google.com/maps/place/Jumma+Masjid+-+Anand/data=!4m7!3m6!1s0x395e4e999ac4e039:0xadb8219ad5c9ef70!8m2!3d22.5617733!4d72.9649866!16s%2Fg%2F1pyqflslt!19sChIJOeDEmplOXjkRcO_J1ZohuK0?authuser=0&hl=en&rclk=1,"22.5617733,72.9649866"
Meena Masjid,Mosque,"Meena Masjid, Meena Park Society, Bhalej Rd, nr. Evergreen Bakery, opp. Ismail Nagar, Memon Colony, Ismaile Nagar, Gamdi, Anand, Gujarat 388001","Memon Colony, Ismaile Nagar, Gamdi","Meena Park Society, Bhalej Rd, nr. Evergreen Bakery, opp. Ismail Nagar",Anand,388001,Gujarat,IN,https://www.google.com/maps/place/Meena+Masjid/data=!4m7!3m6!1s0x395e4e9440ddb4b7:0xf61dcfba4ebd35d0!8m2!3d22.5716451!4d72.9655373!16s%2Fg%2F11rr_5qf5!19sChIJt7TdQJROXjkR0DW9TrrPHfY?authuser=0&hl=en&rclk=1,"22.571645099999998,72.9655373"
Masjid e Inam,Mosque,"HX85+J9X Masjid e Inam, 100 Feet Rd, Green Park Society, Nanikhodiyar, Anand, Gujarat 388001","Green Park Society, Nanikhodiyar","HX85+J9X, 100 Feet Rd",Anand,388001,Gujarat,IN,https://www.google.com/maps/place/Masjid+e+Inam/data=!4m7!3m6!1s0x395e4e91d318f757:0x6183e6765f74afde!8m2!3d22.5666108!4d72.9584808!16s%2Fg%2F1thmjd4n!19sChIJV_cY05FOXjkR3q90X3bmg2E?authuser=0&hl=en&rclk=1,"22.5666108,72.9584808"
Nutan Nagar Masjid,Mosque,"Nutan Nagar Masjid, NutanNagar Society, B/h, Railway Station Rd, Gamdi, Anand, Gujarat 388001",Gamdi,"NutanNagar Society, B/h, Railway Station Rd",Anand,388001,Gujarat,IN,https://www.google.com/maps/place/Nutan+Nagar+Masjid/data=!4m7!3m6!1s0x395e4e9748594fa7:0xce3f85a7180ed69c!8m2!3d22.5654382!4d72.9643933!16s%2Fg%2F11cffh46v!19sChIJp09ZSJdOXjkRnNYOGKeFP84?authuser=0&hl=en&rclk=1,"22.5654382,72.9643933"
Masjid E Abdullah,Mosque,"HXMC+8HP Masjid E Abdullah, GJ SH 60, Near Express Way, Ismaile Nagar, Gamdi, Anand, Gujarat 388001","Ismaile Nagar, Gamdi","HXMC+8HP, GJ SH 60, Near Express Way",Anand,388001,Gujarat,IN,https://www.google.com/maps/place/Masjid+E+Abdullah/data=!4m7!3m6!1s0x395e4ec23c19ea29:0xd17d3093360f332c!8m2!3d22.5833348!4d72.9714435!16s%2Fg%2F1q5bl3v2k!19sChIJKeoZPMJOXjkRLDMPNpMwfdE?authuser=0&hl=en&rclk=1,"22.5833348,72.97144349999999"
Shama Hostel & Ibadatgah,Mosque,"HW6C+8XG Shama Hostel & Ibadatgah, Anand Vidgyanagar Rd, Mota Bazaar, Vallabh Vidyanagar, Anand, Gujarat 388120","Mota Bazaar, Vallabh Vidyanagar","HW6C+8XG, Anand Vidgyanagar Rd",Anand,388120,Gujarat,IN,https://www.google.com/maps/place/Shama+Hostel+%26+Ibadatgah/data=!4m7!3m6!1s0x395e4e6d4b32f5f3:0xcc2b3ed750badd85!8m2!3d22.560807!4d72.9224443!16s%2Fg%2F11gdm67zs6!19sChIJ8_UyS21OXjkRhd26UNc-K8w?authuser=0&hl=en&rclk=1,"22.560807,72.9224443"
Bakrol Jumma Masjid,Mosque,"Bakrol Jumma Masjid, Bakrol, Gujarat 388315",,,Bakrol,388315,Gujarat,IN,https://www.google.com/maps/place/Bakrol+Jumma+Masjid/data=!4m7!3m6!1s0x395e4e1a071b3c37:0x8a63672573a4395f!8m2!3d22.5635323!4d72.910601!16s%2Fg%2F12612v7ww!19sChIJNzwbBxpOXjkRXzmkcyVnY4o?authuser=0&hl=en&rclk=1,"22.5635323,72.910601"
Darul Uloom Masjid & Madrasa,Mosque,"Darul Uloom Masjid & Madrasa, Mota Madresa, Bhalej Rd, opp. Faiz hospital, Ismaile Nagar, Gamdi, Anand, Gujarat 388001","Ismaile Nagar, Gamdi","Mota Madresa, Bhalej Rd, opp. Faiz hospital",Anand,388001,Gujarat,IN,https://www.google.com/maps/place/Darul+Uloom+Masjid+%26+Madrasa/data=!4m7!3m6!1s0x395e4e950ebd9dcb:0x8d659c877a576156!8m2!3d22.5736247!4d72.9677064!16s%2Fg%2F1tjcmvr2!19sChIJy529DpVOXjkRVmFXeoecZY0?authuser=0&hl=en&rclk=1,"22.5736247,72.9677064"
Sunni Raza Masjid,Mosque,"Sunni Raza Masjid, Nanikhodiyar, Anand, Gujarat 388001",Nanikhodiyar,,Anand,388001,Gujarat,IN,https://www.google.com/maps/place/Sunni+Raza+Masjid/data=!4m7!3m6!1s0x395e4e8e3c983bd1:0x4fcd11397d77a650!8m2!3d22.5673652!4d72.9570293!16s%2Fg%2F11xzwmd1j!19sChIJ0TuYPI5OXjkRUKZ3fTkRzU8?authuser=0&hl=en&rclk=1,"22.567365199999998,72.9570293"
Zakariya Masjid - Anand,Mosque,"Zakariya Masjid - Anand, Polson Dairy Rd, Ganesh Chokdi, Sardar Ganj, Anand, Gujarat 388001","Ganesh Chokdi, Sardar Ganj",Polson Dairy Rd,Anand,388001,Gujarat,IN,https://www.google.com/maps/place/Zakariya+Masjid+-+Anand/data=!4m7!3m6!1s0x395e4e9a1cc74c3b:0xd46d3c158d4ea80a!8m2!3d22.5634171!4d72.9636168!16s%2Fg%2F1v44cc55!19sChIJO0zHHJpOXjkRCqhOjRU8bdQ?authuser=0&hl=en&rclk=1,"22.5634171,72.9636168"
Masjid e juber,Mosque,"HXF4+CFJ Masjid e juber, salatiya road, near Marium park",Nanikhodiyar,"HXF4+CFJ, salatiya road, near Marium park",Anand,,Gujarat,IN,https://www.google.com/maps/place/Masjid+e+juber/data=!4m7!3m6!1s0x395e4e8d3eee1e21:0x88e481b66dbf8646!8m2!3d22.5735973!4d72.9561392!16s%2Fg%2F11c0pzm6wy!19sChIJIR7uPo1OXjkRRoa_bbaB5Ig?authuser=0&hl=en&rclk=1,"22.5735973,72.9561392"
Masjid E Shaikhul Islam,Mosque,"GXHH+268 Masjid E Shaikhul Islam, Dharti nagar, A A Vohra Basera Society, Hadgood, Anand, Gujarat 388370","Dharti nagar, A A Vohra Basera Society, Hadgood",GXHH+268,Anand,388370,Gujarat,IN,https://www.google.com/maps/place/Masjid+E+Shaikhul+Islam/data=!4m7!3m6!1s0x395e4c6c51bc4227:0x6dc102fa6368fd79!8m2!3d22.5275312!4d72.9780822!16s%2Fg%2F11df7p01xr!19sChIJJ0K8UWxMXjkRef1oY_oCwW0?authuser=0&hl=en&rclk=1,"22.5275312,72.9780822"
Nagina Masjid Gamdi Road Anand,Mosque,"Nagina Masjid Gamdi Road Anand, Bhavna Colony, Gamdi, Anand, Gujarat 388001","Bhavna Colony, Gamdi",,Anand,388001,Gujarat,IN,https://www.google.com/maps/place/Nagina+Masjid+Gamdi+Road+Anand/data=!4m7!3m6!1s0x395e4ea2190cc563:0x89170e89bb5d24da!8m2!3d22.5595751!4d72.9707807!16s%2Fg%2F11g8wpnthb!19sChIJY8UMGaJOXjkR2iRdu4kOF4k?authuser=0&hl=en&rclk=1,"22.5595751,72.97078069999999"
Jumma Masjid,Mosque,"FWG9+Q7R Jumma Masjid, Nahapa, Gujarat 388560",,FWG9+Q7R,Nahapa,388560,Gujarat,IN,https://www.google.com/maps/place/Jumma+Masjid/data=!4m7!3m6!1s0x395e4d41c1faf78b:0x1b1ef450a7b6b8cf!8m2!3d22.4769868!4d72.9181286!16s%2Fg%2F113k3hy0l!19sChIJi_f6wUFNXjkRz7i2p1D0Hhs?authuser=0&hl=en&rclk=1,"22.4769868,72.9181286"
Masjid e Sahaba,Mosque,"HX93+4W5 Masjid e Sahaba, Sahaba road Anand, Anand",Nanikhodiyar,"HX93+4W5, Sahaba road Anand",Anand,,Gujarat,IN,https://www.google.com/maps/place/Masjid+e+Sahaba/data=!4m7!3m6!1s0x395e4e8e8a100e0b:0xd62a0c4c53e309fc!8m2!3d22.5677627!4d72.9548645!16s%2Fg%2F11b7hg7v_p!19sChIJCw4Qio5OXjkR_AnjU0wMKtY?authuser=0&hl=en&rclk=1,"22.5677627,72.9548645"
Khoja Jamat Khana,Mosque,"HX93+QVQ Khoja Jamat Khana, Zydus Hospital Road, near Noori Masjid, Nanikhodiyar, Anand, Gujarat 388001",Nanikhodiyar,"HX93+QVQ, Zydus Hospital Road, near Noori Masjid",Anand,388001,Gujarat,IN,https://www.google.com/maps/place/Khoja+Jamat+Khana/data=!4m7!3m6!1s0x395e4e8c2d7200b3:0xa251ceaf6f636338!8m2!3d22.5694674!4d72.9547246!16s%2Fg%2F1hhgnwdhw!19sChIJswByLYxOXjkROGNjb6_OUaI?authuser=0&hl=en&rclk=1,"22.5694674,72.95472459999999"
Masjid E Fatima,Mosque,"HX84+C79 Masjid E Fatima, 100 Feet Rd, Nanikhodiyar, Bengaluru, Anand, Gujarat 388001",Nanikhodiyar,"HX84+C79, 100 Feet Rd","Bengaluru, Anand",388001,Gujarat,IN,https://www.google.com/maps/place/Masjid+E+Fatima/data=!4m7!3m6!1s0x395e4e8e499a2065:0xc3beccdb7c467bd!8m2!3d22.5660404!4d72.9557198!16s%2Fg%2F11c52vgfxq!19sChIJZSCaSY5OXjkRvWfEt83sOww?authuser=0&hl=en&rclk=1,"22.5660404,72.9557198"
Sarvriya Masjid,Mosque,"HX94+4QM Sarvriya Masjid, Nanikhodiyar, Anand, Gujarat 388001",Nanikhodiyar,HX94+4QM,Anand,388001,Gujarat,IN,https://www.google.com/maps/place/Sarvriya+Masjid/data=!4m7!3m6!1s0x395e4e8e16545791:0x27d5f0df4739f3aa!8m2!3d22.5678408!4d72.9569328!16s%2Fg%2F1hf00p5jt!19sChIJkVdUFo5OXjkRqvM5R9_w1Sc?authuser=0&hl=en&rclk=1,"22.5678408,72.95693279999999"
Sunni Hussaini Masjid,Mosque,"HX87+GG4 Sunni Hussaini Masjid, Gamdi, Anand, Gujarat 388001",Gamdi,HX87+GG4,Anand,388001,Gujarat,IN,https://www.google.com/maps/place/Sunni+Hussaini+Masjid/data=!4m7!3m6!1s0x395e4e972d381405:0xf71dc360cf2420f9!8m2!3d22.5662564!4d72.9638433!16s%2Fg%2F1tdz7tfr!19sChIJBRQ4LZdOXjkR-SAkz2DDHfc?authuser=0&hl=en&rclk=1,"22.5662564,72.9638433"
Masjid E Noor E Muhammadi - Anand,Mosque,"HX76+H54 Masjid E Noor E Muhammadi - Anand, 100 Feet Rd, Yogi Swami Society, Ganesh Chokdi, Nanikhodiyar, Anand, Gujarat 388001","Yogi Swami Society, Ganesh Chokdi, Nanikhodiyar","HX76+H54, 100 Feet Rd",Anand,388001,Gujarat,IN,https://www.google.com/maps/place/Masjid+E+Noor+E+Muhammadi+-+Anand/data=!4m7!3m6!1s0x395e4e9075059061:0xa4b5eb923d9c6243!8m2!3d22.5638994!4d72.9604386!16s%2Fg%2F1hdz_snb3!19sChIJYZAFdZBOXjkRQ2KcPZLrtaQ?authuser=0&hl=en&rclk=1,"22.5638994,72.9604386"
Masjid E Mahmud,Mosque,"Masjid E Mahmud, Shukun Tenament, Bhalej Rd, Sagar Society, Ismaile Nagar, Gamdi, Anand, Gujarat 388001","Sagar Society, Ismaile Nagar, Gamdi","Shukun Tenament, Bhalej Rd",Anand,388001,Gujarat,IN,https://www.google.com/maps/place/Masjid+E+Mahmud/data=!4m7!3m6!1s0x395e4e94f3d8680f:0xbbcab0684a7d16e5!8m2!3d22.5734438!4d72.9655876!16s%2Fg%2F11c88pf9ck!19sChIJD2jY85ROXjkR5RZ9Smiwyrs?authuser=0&hl=en&rclk=1,"22.5734438,72.96558759999999"
Farooki masjid,Mosque,"HXC8+9R9 Farooki masjid, Gamdi, Anand, Gujarat 388001",Gamdi,HXC8+9R9,Anand,388001,Gujarat,IN,https://www.google.com/maps/place/Farooki+masjid/data=!4m7!3m6!1s0x395e4e95d1f86879:0x2170f64593d6f650!8m2!3d22.5709058!4d72.9670997!16s%2Fg%2F11bw67qwkr!19sChIJeWj40ZVOXjkRUPbWk0X2cCE?authuser=0&hl=en&rclk=1,"22.5709058,72.96709969999999"
Naya Watan Masjid - Anand,Mosque,"HX76+Q94 Naya Watan Masjid - Anand, Bhalej Rd, near Over Bridge, Khatkiwad, Sardar Ganj, Anand, Gujarat 388001","Khatkiwad, Sardar Ganj","HX76+Q94, Bhalej Rd, near Over Bridge",Anand,388001,Gujarat,IN,https://www.google.com/maps/place/Naya+Watan+Masjid+-+Anand/data=!4m7!3m6!1s0x395e4e9087f35c89:0x9eb6e8d0c8811f72!8m2!3d22.5643852!4d72.9609393!16s%2Fg%2F1tmpcb6x!19sChIJiVzzh5BOXjkRch-ByNDotp4?authuser=0&hl=en&rclk=1,"22.5643852,72.96093929999999"
Sunni Makki Masjid,Mosque,"Sunni Makki Masjid, Shiba Park, Nr Rahima Nagar-3, Anand, Gujarat","Ismaile Nagar, Gamdi","Shiba Park, Nr Rahima Nagar-3",Anand,,Gujarat,IN,https://www.google.com/maps/place/Sunni+Makki+Masjid/data=!4m7!3m6!1s0x395e4e94b987eb65:0x8c80487e02609f3e!8m2!3d22.5748759!4d72.9649778!16s%2Fg%2F11ggr5j1n3!19sChIJZeuHuZROXjkRPp9gAn5IgIw?authuser=0&hl=en&rclk=1,"22.5748759,72.9649778"
Masjid E Al Aqsha,Mosque,"JW6C+V59 Masjid E Al Aqsha, Vahora Society, Kanjari, Gujarat 387325",Vahora Society,JW6C+V59,Kanjari,387325,Gujarat,IN,https://www.google.com/maps/place/Masjid+E+Al+Aqsha/data=!4m7!3m6!1s0x395e4fc0c44b9d83:0x208fb5799b6bb3b3!8m2!3d22.6121647!4d72.9204963!16s%2Fg%2F11c55vyz9n!19sChIJg51LxMBPXjkRs7Nrm3m1jyA?authuser=0&hl=en&rclk=1,"22.612164699999997,72.9204963"
Nadiadi Masjid,Mosque,"HX76+JWP Nadiadi Masjid, Khatkiwad, Chandralok Society, Ganesh Chokdi, Sardar Ganj, Anand, Gujarat 388001","Khatkiwad, Chandralok Society, Ganesh Chokdi, Sardar Ganj",HX76+JWP,Anand,388001,Gujarat,IN,https://www.google.com/maps/place/Nadiadi+Masjid/data=!4m7!3m6!1s0x395e4e90a0292793:0xf716cc7cc6e8032d!8m2!3d22.5640781!4d72.9623163!16s%2Fg%2F11g6qtysmz!19sChIJkycpoJBOXjkRLQPoxnzMFvc?authuser=0&hl=en&rclk=1,"22.5640781,72.9623163"
Madina Masjid,Mosque,"Madina Masjid, Napa tadpad coloni 388560 Ananad, Gujarat",,Napa tadpad coloni 388560 Ananad,"Nahapa, Napa Talpad",,Gujarat,IN,https://www.google.com/maps/place/Madina+Masjid/data=!4m7!3m6!1s0x395e4d660c367e29:0x8a6804e65de3fb85!8m2!3d22.4826617!4d72.9094319!16s%2Fg%2F11c6vj94ds!19sChIJKX42DGZNXjkRhfvjXeYEaIo?authuser=0&hl=en&rclk=1,"22.482661699999998,72.9094319"
Sunni Madina Masjid,Mosque,"Sunni Madina Masjid, Bakrol Part gujraat 388315 Republic",,Bakrol Part gujraat 388315 Republic,,,Gujarat,IN,https://www.google.com/maps/place/Sunni+Madina+Masjid/data=!4m7!3m6!1s0x395e4e215c4fd4b3:0xd6bd14c978a06a92!8m2!3d22.5734976!4d72.9043511!16s%2Fg%2F11bw46w00s!19sChIJs9RPXCFOXjkRkmqgeMkUvdY?authuser=0&hl=en&rclk=1,"22.5734976,72.9043511"
Masjid E Talha Rd,Mosque,"HXC4+25C Masjid E Talha Rd, Nanikhodiyar, Anand, Gujarat 388001",Nanikhodiyar,HXC4+25C,Anand,388001,Gujarat,IN,https://www.google.com/maps/place/Masjid+E+Talha+Rd/data=!4m7!3m6!1s0x395e4e8dc9342925:0xe7bad36189369fef!8m2!3d22.5700525!4d72.9553898!16s%2Fg%2F11c20b_6yb!19sChIJJSk0yY1OXjkR7582iWHTuuc?authuser=0&hl=en&rclk=1,"22.5700525,72.95538979999999"
Huseni Masjid,Mosque,"FWF7+X8P Huseni Masjid, Ananad gujara, Napa Talpad, Gujarat 388560",,"FWF7+X8P, Ananad gujara","Napa Talpad, Nahapa",388560,Gujarat,IN,https://www.google.com/maps/place/Huseni+Masjid/data=!4m7!3m6!1s0x395e4d42fe25df09:0xb2143f37f6a3ef2!8m2!3d22.4749721!4d72.9133362!16s%2Fg%2F11c6vwb43q!19sChIJCd8l_kJNXjkR8j5qf_NDIQs?authuser=0&hl=en&rclk=1,"22.4749721,72.9133362"
Masjid E Mustafa Raza (Ahle Sunnat wal Jamaat) Maslak e Ala Hazrat,Mosque,"Masjid E Mustafa Raza (Ahle Sunnat wal Jamaat) Maslak e Ala Hazrat, Unnamed Road, Anand, Gujarat 388001",,Unnamed Road,Anand,388001,Gujarat,IN,https://www.google.com/maps/place/Masjid+E+Mustafa+Raza+%28Ahle+Sunnat+wal+Jamaat%29+Maslak+e+Ala+Hazrat/data=!4m7!3m6!1s0x395e4f7de3985e91:0x76dd3144837d4106!8m2!3d22.5746875!4d72.9609375!16s%2Fg%2F11hnxthxhq!19sChIJkV6Y431PXjkRBkF9g0Qx3XY?authuser=0&hl=en&rclk=1,"22.5746875,72.9609375"
Masjid E Ammar,Mosque,"Masjid E Ammar, fahil park, road, Royal City, Ismaile Nagar, Gamdi, Anand, Gujarat 388001","Royal City, Ismaile Nagar, Gamdi","fahil park, road",Anand,,Gujarat,IN,https://www.google.com/maps/place/Masjid+E+Ammar/data=!4m7!3m6!1s0x395e4e95586d48d9:0x38ad682caef6c928!8m2!3d22.5754511!4d72.9696678!16s%2Fg%2F11b6sssyrh!19sChIJ2UhtWJVOXjkRKMn2rixorTg?authuser=0&hl=en&rclk=1,"22.5754511,72.9696678"
JAMA MASJID JOL,Mosque,"HVHM+375 JAMA MASJID JOL, GJ SH 139, Jol, Gujarat 388315",,"HVHM+375, GJ SH 139",Jol,388315,Gujarat,IN,https://www.google.com/maps/place/JAMA+MASJID+JOL/data=!4m7!3m6!1s0x395e51c5d88eaa0f:0x9566fc87d57fbbc5!8m2!3d22.5776397!4d72.8832355!16s%2Fg%2F11g6nsx0wd!19sChIJD6qO2MVRXjkRxbt_1Yf8ZpU?authuser=0&hl=en&rclk=1,"22.5776397,72.8832355"
Vahora Society Masjid - Anand,Mosque,"Vahora Society Masjid - Anand, Vahora society, Under over bridge, near Panchvati Society, Anand, Gujarat 388001","Panchvati Spciety, Nanikhodiyar","Vahora society, Under over bridge, near Panchvati Society",Anand,388001,Gujarat,IN,https://www.google.com/maps/place/Vahora+Society+Masjid+-+Anand/data=!4m7!3m6!1s0x395e4e9069d78da9:0x9d465ea6ab4dcfb0!8m2!3d22.5650362!4d72.9600256!16s%2Fg%2F11g8tz7sy2!19sChIJqY3XaZBOXjkRsM9Nq6ZeRp0?authuser=0&hl=en&rclk=1,"22.565036199999998,72.9600256"
Sunni Madina Masjid,Mosque,"HX86+R5Q Sunni Madina Masjid, NEAR PRASHANT SOCIETY, OPP WATER TANK, Gujarat 388001",Nanikhodiyar,"HX86+R5Q, NEAR PRASHANT SOCIETY, OPP WATER TANK",Anand,388001,Gujarat,IN,https://www.google.com/maps/place/Sunni+Madina+Masjid/data=!4m7!3m6!1s0x395e4e91a9309875:0x9793f3543b825ad2!8m2!3d22.5670977!4d72.9604948!16s%2Fg%2F11r9x5bd4!19sChIJdZgwqZFOXjkR0lqCO1Tzk5c?authuser=0&hl=en&rclk=1,"22.567097699999998,72.96049479999999"
Masjid e Ibrahim,Mosque,"HX94+6C Masjid e Ibrahim, Ayesha Park Society, Salatia Rd, Nanikhodiyar, Anand, Gujarat 388001",Nanikhodiyar,"HX94+6C Ayesha Park Society, Salatia Rd",Anand,388001,Gujarat,IN,https://www.google.com/maps/place/Masjid+e+Ibrahim/data=!4m7!3m6!1s0x395e4e8e700648e1:0xa8005e2f6fda613c!8m2!3d22.5682892!4d72.9559067!16s%2Fg%2F1ptxcplm0!19sChIJ4UgGcI5OXjkRPGHaby9eAKg?authuser=0&hl=en&rclk=1,"22.5682892,72.9559067"
Masjid E Madni,Mosque,"HXC7+92H Masjid E Madni, Ismaile Nagar, Gamdi, Anand, Gujarat 388001","Ismaile Nagar, Gamdi",HXC7+92H,Anand,388001,Gujarat,IN,https://www.google.com/maps/place/Masjid+E+Madni/data=!4m7!3m6!1s0x395e4e93eb916d89:0x2f159429cb3e347a!8m2!3d22.5709312!4d72.9625943!16s%2Fg%2F11hbl66n63!19sChIJiW2R65NOXjkRejQ-yymUFS8?authuser=0&hl=en&rclk=1,"22.5709312,72.96259429999999"
Sunni Mobin Masjid,Mosque,"HX77+M47 Sunni Mobin Masjid, Polson Dairy Rd, Ganesh Chokdi, Sardar Ganj, Anand, Gujarat 388001","Ganesh Chokdi, Sardar Ganj","HX77+M47, Polson Dairy Rd",Anand,388001,Gujarat,IN,https://www.google.com/maps/place/Sunni+Mobin+Masjid/data=!4m7!3m6!1s0x395e4e90a701548f:0x306febfe61c72e65!8m2!3d22.5641634!4d72.9628102!16s%2Fg%2F11_tcl309!19sChIJj1QBp5BOXjkRZS7HYf7rbzA?authuser=0&hl=en&rclk=1,"22.564163399999998,72.96281019999999"
Sandesar Masjid,Mosque,"GV8G+W89 Sandesar Masjid, Sandesar, Gujarat 388130",,GV8G+W89,Sandesar,388130,Gujarat,IN,https://www.google.com/maps/place/Sandesar+Masjid/data=!4m7!3m6!1s0x395e526a863c936f:0xb62fd7d8397eb197!8m2!3d22.5172777!4d72.8758634!16s%2Fg%2F11dxfs9r5k!19sChIJb5M8hmpSXjkRl7F-OdjXL7Y?authuser=0&hl=en&rclk=1,"22.517277699999998,72.8758634"
Dudha Dhari Dargah & Masjid,Shrine,"GXW4+HRF Dudha Dhari Dargah & Masjid, NH228, Vivekanand Wadi, Anand, Gujarat 388001",Vivekanand Wadi,"GXW4+HRF, NH228",Anand,388001,Gujarat,IN,https://www.google.com/maps/place/Dudha+Dhari+Dargah+%26+Masjid/data=!4m7!3m6!1s0x395e4c28adab22a3:0x548ac6c73cbdf0c7!8m2!3d22.5464394!4d72.9570615!16s%2Fg%2F1hf1c2xzs!19sChIJoyKrrShMXjkRx_C9PMfGilQ?authuser=0&hl=en&rclk=1,"22.5464394,72.9570615"
Masjid E Abubakar,Mosque,"HXC8+XX6 Masjid E Abubakar, Zakat naka, Bhalej Rd, Anand, Gujarat 388001","Ismaile Nagar, Gamdi","HXC8+XX6, Zakat naka, Bhalej Rd",Anand,388001,Gujarat,IN,https://www.google.com/maps/place/Masjid+E+Abubakar/data=!4m7!3m6!1s0x395e4e95a5562037:0x5f2b7e40197ce628!8m2!3d22.5724129!4d72.9674001!16s%2Fg%2F11dftr3lmw!19sChIJNyBWpZVOXjkRKOZ8GUB-K18?authuser=0&hl=en&rclk=1,"22.5724129,72.96740009999999"
Sunni Garib Nawaz Masjid,Mosque,"HX78+M2Q Sunni Garib Nawaz Masjid, Gamdi, Anand, Gujarat 388001",Gamdi,HX78+M2Q,Anand,388001,Gujarat,IN,https://www.google.com/maps/place/Sunni+Garib+Nawaz+Masjid/data=!4m7!3m6!1s0x395e4e99e0262357:0xcf767f7b4cfa8384!8m2!3d22.5642196!4d72.9651135!16s%2Fg%2F1hd_v4r_y!19sChIJVyMm4JlOXjkRhIP6THt_ds8?authuser=0&hl=en&rclk=1,"22.564219599999998,72.9651135"
Masjide- E- Bilal GIDC,Mosque,"GWHG+45C Masjide- E- Bilal GIDC, Unnamed Road, New Vallabh Vidyanagar, GIDC, Vitthal Udyognagar INA, Anand, Gujarat 388121","New Vallabh Vidyanagar, GIDC","GWHG+45C, Unnamed Road","Vitthal Udyognagar INA, Anand",388121,Gujarat,IN,https://www.google.com/maps/place/Masjide-+E-+Bilal+GIDC/data=!4m7!3m6!1s0x395e4d90d947e281:0x869f2793e4b677de!8m2!3d22.527813!4d72.9253876!16s%2Fg%2F11gzs5kmy_!19sChIJgeJH2ZBNXjkR3ne25JMnn4Y?authuser=0&hl=en&rclk=1,"22.527813,72.9253876"
Sunni Raza Masjid G.I.D.C,Mosque,"GWPC+382 Sunni Raza Masjid G.I.D.C, Vithal Udyognagar, GIDC, Anand, Gujarat 388121","Vithal Udyognagar, GIDC",GWPC+382,Anand,388121,Gujarat,IN,https://www.google.com/maps/place/Sunni+Raza+Masjid+G.I.D.C/data=!4m7!3m6!1s0x395e4de86ba70d37:0x21f21b4a66e3ba64!8m2!3d22.5351329!4d72.9207659!16s%2Fg%2F12qfnp_y5!19sChIJNw2na-hNXjkRZLrjZkob8iE?authuser=0&hl=en&rclk=1,"22.5351329,72.92076589999999"
Sunni Masjid E Kanzul Iman,Mosque,"Sunni Masjid E Kanzul Iman, Aksha park, nr. Hotel plesant, Khwaja Nagar, Ismaile Nagar, Gamdi, Anand, Gujarat 388001","Khwaja Nagar, Ismaile Nagar, Gamdi","Aksha park, nr. Hotel plesant",Anand,388001,Gujarat,IN,https://www.google.com/maps/place/Sunni+Masjid+E+Kanzul+Iman/data=!4m7!3m6!1s0x395e4ebf8398d7af:0x197d1780b2bd3b98!8m2!3d22.5760439!4d72.9723231!16s%2Fg%2F11cjkq71p3!19sChIJr9eYg79OXjkRmDu9soAXfRk?authuser=0&hl=en&rclk=1,"22.5760439,72.9723231"
Masjid E Ayesha (R.A),Mosque,"GXFH+J34 Masjid E Ayesha (R.A), Hadgood, Anand, Gujarat 388110",Hadgood,GXFH+J34,Anand,388110,Gujarat,IN,https://www.google.com/maps/place/Masjid+E+Ayesha+%28R.A%29/data=!4m7!3m6!1s0x395e4dd95af12a2f:0xa616cb2858dce396!8m2!3d22.5241239!4d72.9776443!16s%2Fg%2F11vd_6drcn!19sChIJLyrxWtlNXjkRluPcWCjLFqY?authuser=0&hl=en&rclk=1,"22.5241239,72.9776443"
Masjid e Tayiba,Mosque,"HXC5+25P Masjid e Tayiba, Nanikhodiyar, Anand, Gujarat 388001",Nanikhodiyar,HXC5+25P,Anand,388001,Gujarat,IN,https://www.google.com/maps/place/Masjid+e+Tayiba/data=!4m7!3m6!1s0x395e4e920afed46d:0x2567ce9db90e99a2!8m2!3d22.5700941!4d72.9579637!16s%2Fg%2F11d_8cc1cv!19sChIJbdT-CpJOXjkRopkOuZ3OZyU?authuser=0&hl=en&rclk=1,"22.5700941,72.9579637"
Sunni Qaadrya Masjid,Mosque,"HXFC+4PM Sunni Qaadrya Masjid, Royal City Rd, Ismaile Nagar, Gamdi, Anand, Gujarat 388001","Ismaile Nagar, Gamdi","HXFC+4PM, Royal City Rd",Anand,388001,Gujarat,IN,https://www.google.com/maps/place/Sunni+Qaadrya+Masjid/data=!4m7!3m6!1s0x395e4ebe45693ca3:0x2bc1ee2f9822c368!8m2!3d22.5728339!4d72.9717815!16s%2Fg%2F1hg4vtkx3!19sChIJozxpRb5OXjkRaMMimC_uwSs?authuser=0&hl=en&rclk=1,"22.5728339,72.97178149999999"
Masjid E Hasnain,Mosque,"Masjid E Hasnain, al fazal society, Khwaja Nagar, Ismaile Nagar, Gamdi, Anand, Gujarat 388001","Khwaja Nagar, Ismaile Nagar, Gamdi",al fazal society,Anand,388001,Gujarat,IN,https://www.google.com/maps/place/Masjid+E+Hasnain/data=!4m7!3m6!1s0x395e4ec01400f513:0x40ca4917f172bed6!8m2!3d22.5774811!4d72.9707971!16s%2Fg%2F11b6sz1qkc!19sChIJE_UAFMBOXjkR1r5y8RdJykA?authuser=0&hl=en&rclk=1,"22.5774811,72.9707971"
DarusSalam IbadatGah - Anand,Mosque,"DarusSalam IbadatGah - Anand, Capetown Apartment, 100 Feet Rd, Yogi Swami Society, Nanikhodiyar, Anand, Gujarat 388001","Yogi Swami Society, Nanikhodiyar","Capetown Apartment, 100 Feet Rd",Anand,388001,Gujarat,IN,https://www.google.com/maps/place/DarusSalam+IbadatGah+-+Anand/data=!4m7!3m6!1s0x395e4f19bc5bf815:0xc268cdd54eba5de0!8m2!3d22.5640377!4d72.9573834!16s%2Fg%2F11fdy0g4r_!19sChIJFfhbvBlPXjkR4F26TtXNaMI?authuser=0&hl=en&rclk=1,"22.5640377,72.9573834"
Masjid E Ali(RD),Mosque,"Masjid E Ali(RD), PSYCHIATRIST DR.PALA ISMAIL (M.D.), Gamdi, Anand, Gujarat 390020",Gamdi,PSYCHIATRIST DR.PALA ISMAIL (M.D.),Anand,390020,Gujarat,IN,https://www.google.com/maps/place/Masjid+E+Ali%28RD%29/data=!4m7!3m6!1s0x395e4e95e911edd3:0xee363c14c654c4f7!8m2!3d22.5713321!4d72.9684368!16s%2Fg%2F11b6sw1kh2!19sChIJ0-0R6ZVOXjkR98RUxhQ8Nu4?authuser=0&hl=en&rclk=1,"22.5713321,72.96843679999999"
masjid aaysha,Mosque,"HV2M+JQJ masjid aaysha, Valasan, Gujarat 388325",,HV2M+JQJ,Valasan,388325,Gujarat,IN,https://www.google.com/maps/place/masjid+aaysha/data=!4m7!3m6!1s0x395e51f0e38ca403:0x513eff4c3a20fa2a!8m2!3d22.5515779!4d72.8843841!16s%2Fg%2F11fy_ncc8k!19sChIJA6SM4_BRXjkRKvogOkz_PlE?authuser=0&hl=en&rclk=1,"22.551577899999998,72.88438409999999"
SUNNI JAAMA MASJID RAVLI,Mosque,"HVJ5+592 SUNNI JAAMA MASJID RAVLI, Indira nagri road, Ravli, Gujarat 388325",,"HVJ5+592, Indira nagri road",Ravli,388325,Gujarat,IN,https://www.google.com/maps/place/SUNNI+JA%E2%80%8DAMA+MASJID+RAVLI/data=!4m7!3m6!1s0x395e5136859765f3:0x81a1b6055fa987b8!8m2!3d22.5803806!4d72.8583961!16s%2Fg%2F11hzsnbxvm!19sChIJ82WXhTZRXjkRuIepXwW2oYE?authuser=0&hl=en&rclk=1,"22.580380599999998,72.8583961"
Masjid -E- Bilal,Mosque,"HXC3+GHX Masjid -E- Bilal, Nanikhodiyar, Anand, Gujarat 388001",Nanikhodiyar,HXC3+GHX,Anand,388001,Gujarat,IN,https://www.google.com/maps/place/Masjid+-E-+Bilal/data=!4m7!3m6!1s0x395e4e8c5983759d:0xeee55a4cadbc4661!8m2!3d22.5713578!4d72.9539818!16s%2Fg%2F11f12r4rtv!19sChIJnXWDWYxOXjkRYUa8rUxa5e4?authuser=0&hl=en&rclk=1,"22.571357799999998,72.9539818"
Masjid E Usman,Mosque,"HXG8+2QF Masjid E Usman, Rahmat Nagar, Ismaile Nagar, Gamdi, Anand, Gujarat 388001","Rahmat Nagar, Ismaile Nagar, Gamdi",HXG8+2QF,Anand,388001,Gujarat,IN,https://www.google.com/maps/place/Masjid+E+Usman/data=!4m7!3m6!1s0x395e4e9526fecc4f:0xd29d5c8baa55f2c6!8m2!3d22.5750568!4d72.9669321!16s%2Fg%2F1ths_vs8!19sChIJT8z-JpVOXjkRxvJVqotcndI?authuser=0&hl=en&rclk=1,"22.5750568,72.9669321"
Masjid E Chistiya (Ahle Sunnat Wal Jama'at),Mosque,"HXC4+Q52 Masjid E Chistiya (Ahle Sunnat Wal Jama'at), Salatia Rd, Nanikhodiyar, Anand, Gujarat 388001",Nanikhodiyar,"HXC4+Q52, Salatia Rd",Anand,388001,Gujarat,IN,https://www.google.com/maps/place/Masjid+E+Chistiya+%28Ahle+Sunnat+Wal+Jama%27at%29/data=!4m7!3m6!1s0x395e4faa328c2b83:0x6e74950218bb685!8m2!3d22.5719478!4d72.9555551!16s%2Fg%2F11trf6lfjv!19sChIJgyuMMqpPXjkRhbaLIVBJ5wY?authuser=0&hl=en&rclk=1,"22.5719478,72.9555551"
Masjid -E - Umar,Mosque,"HXC7+QRR Masjid -E - Umar, Memon Colony, Ismaile Nagar, Gamdi, Anand, Gujarat 388001","Memon Colony, Ismaile Nagar, Gamdi",HXC7+QRR,Anand,388001,Gujarat,IN,https://www.google.com/maps/place/Masjid+-E+-+Umar/data=!4m7!3m6!1s0x395e4e946fdf22ad:0x4bca2a2e8e1b12b!8m2!3d22.5719977!4d72.9645197!16s%2Fg%2F11fz_4klpl!19sChIJrSLfb5ROXjkRK7Hh6KKivAQ?authuser=0&hl=en&rclk=1,"22.5719977,72.9645197"
Masjid-e-khajina,Mosque,"HX84+9C5 Masjid-e-khajina, Nanikhodiyar, Anand, Gujarat 388001",Nanikhodiyar,HX84+9C5,Anand,388001,Gujarat,IN,https://www.google.com/maps/place/Masjid-e-khajina/data=!4m7!3m6!1s0x395e4e8fb46a7733:0x71cccae26aaf3593!8m2!3d22.5658868!4d72.956113!16s%2Fg%2F11g6nqxbdp!19sChIJM3dqtI9OXjkRkzWvauLKzHE?authuser=0&hl=en&rclk=1,"22.565886799999998,72.956113"
Sarvari Masjid,Mosque,"FWJP+MQ7 Sarvari Masjid, Nahpa vanto Bomniya, Napa Vanto",,"FWJP+MQ7, Nahpa vanto Bomniya",Napa Vanto,,Gujarat,IN,https://www.google.com/maps/place/Sarvari+Masjid/data=!4m7!3m6!1s0x395e4deaf789a9c7:0xb205f7075ff1d01e!8m2!3d22.4816508!4d72.9369181!16s%2Fg%2F11fldpzhtp!19sChIJx6mJ9-pNXjkRHtDxXwf3BbI?authuser=0&hl=en&rclk=1,"22.4816508,72.9369181"
Madni Masjid,Mosque,"G36F+6RW Madni Masjid, Anand, Gujarat 388365",,G36F+6RW,Anand,,Gujarat,IN,https://www.google.com/maps/place/Madni+Masjid/data=!4m7!3m6!1s0x395e4bfe8e3e45c9:0xb379c381011d834f!8m2!3d22.5106026!4d73.0745688!16s%2Fg%2F11h2ghnr54!19sChIJyUU-jv5LXjkRT4MdAYHDebM?authuser=0&hl=en&rclk=1,"22.5106026,73.0745688"
Masjid e Aal E Rasool,Mosque,"FWG6+CMG Masjid e Aal E Rasool, Nahapa Ananad, Napa Talpad, Gujarat 388560",,"FWG6+CMG, Nahapa Ananad","Napa Talpad, Nahapa",388560,Gujarat,IN,https://www.google.com/maps/place/Masjid+e+Aal+E+Rasool/data=!4m7!3m6!1s0x395e4d42c0d07e55:0xf9869ebaa09f1799!8m2!3d22.4760728!4d72.9116997!16s%2Fg%2F11g6v4dfrh!19sChIJVX7QwEJNXjkRmRefoLqehvk?authuser=0&hl=en&rclk=1,"22.4760728,72.9116997"
Sunni Masjid- E -Gausiyah,Mosque,"HX96+CWH Sunni Masjid- E -Gausiyah, Bismillah Society, Ismaile Nagar, Gamdi, Anand, Gujarat 388001","Bismillah Society, Ismaile Nagar, Gamdi",HX96+CWH,Anand,388001,Gujarat,IN,https://www.google.com/maps/place/Sunni+Masjid-+E+-Gausiyah/data=!4m7!3m6!1s0x395e4e9141e8ce43:0xaf165a538378b2c!8m2!3d22.5685541!4d72.9623508!16s%2Fg%2F1hdzd9grs!19sChIJQ87oQZFOXjkRLIs3OKVl8Qo?authuser=0&hl=en&rclk=1,"22.5685541,72.9623508"
Madina Masjid,Mosque,"GXFW+M38 Madina Masjid, Gopalpura, Anand, Gujarat 388370",Gopalpura,GXFW+M38,Anand,388370,Gujarat,IN,https://www.google.com/maps/place/Madina+Masjid/data=!4m7!3m6!1s0x395e4b35435ae2b5:0x73337a1e42cbce06!8m2!3d22.5241661!4d72.9952164!16s%2Fg%2F11h0h1hmw5!19sChIJteJaQzVLXjkRBs7LQh56M3M?authuser=0&hl=en&rclk=1,"22.5241661,72.99521639999999"
"Jamali Hall, Anand",Mosque,"HX87+7HG Jamali Hall, Anand, opposite Nutan Nagar Masjid, Gamdi, Anand, Gujarat 388001",Gamdi,"HX87+7HG, opposite Nutan Nagar Masjid",Anand,388001,Gujarat,IN,"https://www.google.com/maps/place/Jamali+Hall,+Anand/data=!4m7!3m6!1s0x395e4f768e11b0e3:0xdfa9383dc88d4f86!8m2!3d22.5656983!4d72.9639454!16s%2Fg%2F11g4g61ktz!19sChIJ47ARjnZPXjkRhk-NyD04qd8?authuser=0&hl=en&rclk=1","22.565698299999998,72.9639454"
Kadariya masjid,Mosque,"HXFC+4PF Kadariya masjid, Ismaile Nagar, Gamdi, Anand, Gujarat 388001","Ismaile Nagar, Gamdi",HXFC+4PF,Anand,388001,Gujarat,IN,https://www.google.com/maps/place/Kadariya+masjid/data=!4m7!3m6!1s0x395e4ffaba3ff977:0xf1113c62a5798120!8m2!3d22.572816!4d72.9717939!16s%2Fg%2F11h1h_7by9!19sChIJd_k_uvpPXjkRIIF5pWI8EfE?authuser=0&hl=en&rclk=1,"22.572816,72.9717939"
Masjid e Muhammad S.A.,Religious destination,"HXCC+V2P Masjid e Muhammad S.A., Bhalej Rd, Hena Society, Ismaile Nagar, Gamdi, Anand, Gujarat 388001","Hena Society, Ismaile Nagar, Gamdi","HXCC+V2P, Bhalej Rd",Anand,388001,Gujarat,IN,https://www.google.com/maps/place/Masjid+e+Muhammad+S.A./data=!4m7!3m6!1s0x395e4f225fa7630b:0x3989355a1c85df90!8m2!3d22.5722014!4d72.970088!16s%2Fg%2F11h764y4lp!19sChIJC2OnXyJPXjkRkN-FHFo1iTk?authuser=0&hl=en&rclk=1,"22.572201399999997,72.97008799999999"
Masjid e Raiyan,Mosque,"Masjid e Raiyan, Unnamed Road, Nanikhodiyar, Anand, Gujarat 388001",Nanikhodiyar,Unnamed Road,Anand,388001,Gujarat,IN,https://www.google.com/maps/place/Masjid+e+Raiyan/data=!4m7!3m6!1s0x395e4f13a6cd8b9b:0x32c51a370983e4cb!8m2!3d22.5712562!4d72.9530003!16s%2Fg%2F11hz64f6r5!19sChIJm4vNphNPXjkRy-SDCTcaxTI?authuser=0&hl=en&rclk=1,"22.5712562,72.9530003"
Sunni niyaz masjid,Mosque,"HX98+H94 Sunni niyaz masjid, Gamdi, Anand, Gujarat 388001",Gamdi,HX98+H94,Anand,388001,Gujarat,IN,https://www.google.com/maps/place/Sunni+niyaz+masjid/data=!4m7!3m6!1s0x395e4f449dcb382f:0x7c55ca6f6c383c2!8m2!3d22.5688928!4d72.9659574!16s%2Fg%2F11h70h__5x!19sChIJLzjLnURPXjkRwoPD9qZcxQc?authuser=0&hl=en&rclk=1,"22.5688928,72.9659574"
Masjid E Fatima - High-Way | msjide phaatimaa - haaive,Mosque,"HXH9+QF6 Masjid E Fatima - High-Way | msjide phaatimaa - haaive, NH64, Ismaile Nagar, Gamdi, Anand, Gujarat 388001","Ismaile Nagar, Gamdi","HXH9+QF6, NH64",Anand,388001,Gujarat,IN,https://www.google.com/maps/place/Masjid+E+Fatima+-+High-Way+%7C+%E0%AA%AE%E0%AA%B8%E0%AB%8D%E0%AA%9C%E0%AA%BF%E0%AA%A6%E0%AB%87+%E0%AA%AB%E0%AA%BE%E0%AA%A4%E0%AA%BF%E0%AA%AE%E0%AA%BE+-+%E0%AA%B9%E0%AA%BE%E0%AA%87%E0%AA%B5%E0%AB%87/data=!4m7!3m6!1s0x395e4f2168c9ba7b:0xcf4cf67efc39a8ba!8m2!3d22.5794197!4d72.968647!16s%2Fg%2F11g_rtv8sm!19sChIJe7rJaCFPXjkRuqg5_H72TM8?authuser=0&hl=en&rclk=1,"22.5794197,72.96864699999999"
MADRASA E GULSHANE BAGHDAD,Mosque,"GXFH+R9Q MADRASA E GULSHANE BAGHDAD, Main Rd, Hadgood, Anand, Gujarat 388110",Hadgood,"GXFH+R9Q, Main Rd",Anand,388110,Gujarat,IN,https://www.google.com/maps/place/MADRASA+E+GULSHANE+BAGHDAD/data=!4m7!3m6!1s0x395e4c6e87e4612b:0x468d36120823ec6b!8m2!3d22.5245963!4d72.9784763!16s%2Fg%2F11f04675p9!19sChIJK2Hkh25MXjkRa-wjCBI2jUY?authuser=0&hl=en&rclk=1,"22.5245963,72.9784763"
jumma masjid,Mosque,"GWV3+QP5 jumma masjid, Ramdev Pir Khodiyar Vadi Rd, Karamsad, Anand, Gujarat 388325",Karamsad,"GWV3+QP5, Ramdev Pir Khodiyar Vadi Rd",Anand,388325,Gujarat,IN,https://www.google.com/maps/place/jumma+masjid/data=!4m7!3m6!1s0x395e4dfc511730db:0xde35caa73365314a!8m2!3d22.5443774!4d72.9043474!16s%2Fg%2F11fhwvhn5z!19sChIJ2zAXUfxNXjkRSjFlM6fKNd4?authuser=0&hl=en&rclk=1,"22.5443774,72.90434739999999"
Pakiza masjid - Anand,Mosque,"HX98+C4V Pakiza masjid - Anand, Pakiza Society, Near Bhalej Over Bridge, Sagar Society, Gamdi, Anand, Gujarat 388001","Sagar Society, Gamdi","HX98+C4V, Pakiza Society, Near Bhalej Over Bridge",Anand,388001,Gujarat,IN,https://www.google.com/maps/place/Pakiza+masjid+-+Anand/data=!4m7!3m6!1s0x395e4f59f74f4169:0xa8b36820acc96466!8m2!3d22.5686101!4d72.9653003!16s%2Fg%2F11sx21x95n!19sChIJaUFP91lPXjkRZmTJrCBos6g?authuser=0&hl=en&rclk=1,"22.568610099999997,72.9653003"
NURANI MASJID,Mosque,"GXHP+HPQ NURANI MASJID, Hadgood, Jahangirpura, Anand, Gujarat 388370",Hadgood,GXHP+HPQ,"Jahangirpura, Anand",388370,Gujarat,IN,https://www.google.com/maps/place/NURANI+MASJID/data=!4m7!3m6!1s0x395e4c738259a3db:0x1e7a950b08ab3530!8m2!3d22.5289576!4d72.9868552!16s%2Fg%2F11b6vqftc1!19sChIJ26NZgnNMXjkRMDWrCAuVeh4?authuser=0&hl=en&rclk=1,"22.5289576,72.9868552"
"Sunni Madrasa Asrafia, Anand",Mosque,"Sunni Madrasa Asrafia, Anand, Meena park, Bhalej Rd, Memon Colony, Ismaile Nagar, Gamdi, Anand, Gujarat 388001","Memon Colony, Ismaile Nagar, Gamdi","Meena park, Bhalej Rd",Anand,388001,Gujarat,IN,"https://www.google.com/maps/place/Sunni+Madrasa+Asrafia,+Anand/data=!4m7!3m6!1s0x395e4fb1c2c208a9:0x6d758bc3817eacc4!8m2!3d22.5716371!4d72.9649284!16s%2Fg%2F11fd7m4v30!19sChIJqQjCwrFPXjkRxKx-gcOLdW0?authuser=0&hl=en&rclk=1","22.5716371,72.96492839999999"
MASJID -E- Swalehin,Mosque,"HXFC+79W MASJID -E- Swalehin, Ismaile Nagar, Gamdi, Anand, Gujarat 388001","Ismaile Nagar, Gamdi",HXFC+79W,Anand,388001,Gujarat,IN,https://www.google.com/maps/place/MASJID+-E-+Swalehin/data=!4m7!3m6!1s0x395e4f12f32d30c1:0x8eedec46dbfdeda5!8m2!3d22.5732429!4d72.9709597!16s%2Fg%2F11sgcxc8q7!19sChIJwTAt8xJPXjkRpe3920bs7Y4?authuser=0&hl=en&rclk=1,"22.5732429,72.9709597"
Noorani Masjid - Anand,Mosque,"HX76+JQW Noorani Masjid - Anand, Khatkiwad Rd, near Railway Fatak, Ganesh Chokdi, Sardar Ganj, Anand, Gujarat 388001","Ganesh Chokdi, Sardar Ganj","HX76+JQW, Khatkiwad Rd, near Railway Fatak",Anand,388001,Gujarat,IN,https://www.google.com/maps/place/Noorani+Masjid+-+Anand/data=!4m7!3m6!1s0x395e4f1438b9c64b:0x8f4f63b9b07724a7!8m2!3d22.5641018!4d72.9619624!16s%2Fg%2F11qp267sr8!19sChIJS8a5OBRPXjkRpyR3sLljT48?authuser=0&hl=en&rclk=1,"22.5641018,72.96196239999999"
Masjid E Rizwan,Mosque,"HXCC+6MW Masjid E Rizwan, Unnamed Road, Ismaile Nagar, Gamdi, Anand, Gujarat 388001","Ismaile Nagar, Gamdi","HXCC+6MW, Unnamed Road",Anand,388001,Gujarat,IN,https://www.google.com/maps/place/Masjid+E+Rizwan/data=!4m7!3m6!1s0x395e4f10607b9a89:0xfbf0d4be8799520d!8m2!3d22.5706066!4d72.9716888!16s%2Fg%2F11h55n8n7n!19sChIJiZp7YBBPXjkRDVKZh77U8Ps?authuser=0&hl=en&rclk=1,"22.570606599999998,72.9716888"
Masjid e jubeda,Mosque,"HXG6+R3C Masjid e jubeda, Anand, Gujarat 388001",,HXG6+R3C,Anand,388001,Gujarat,IN,https://www.google.com/maps/place/Masjid+e+jubeda/data=!4m7!3m6!1s0x395e4f334dc47e57:0x377bfb021d2ac7f2!8m2!3d22.5770663!4d72.9601255!16s%2Fg%2F11s0wl6dtl!19sChIJV37ETTNPXjkR8scqHQL7ezc?authuser=0&hl=en&rclk=1,"22.5770663,72.9601255"
Masjid e kuba,Mosque,"Masjid e kuba, Aman township, Ismaile Nagar, Gamdi, Anand, Gujarat 388001","Ismaile Nagar, Gamdi",Aman township,Anand,388001,Gujarat,IN,https://www.google.com/maps/place/Masjid+e+kuba/data=!4m7!3m6!1s0x395e4f7ff5a14b61:0xfb22368914d0dc7d!8m2!3d22.5793018!4d72.9733759!16s%2Fg%2F11v42pwxzn!19sChIJYUuh9X9PXjkRfdzQFIk2Ivs?authuser=0&hl=en&rclk=1,"22.5793018,72.9733759"
Masjid e rabiya,Mosque,"HXH8+6QQ Masjid e rabiya, Ismaile Nagar, Gamdi, Anand, Gujarat 388001","Ismaile Nagar, Gamdi",HXH8+6QQ,Anand,388001,Gujarat,IN,https://www.google.com/maps/place/Masjid+e+rabiya/data=!4m7!3m6!1s0x395e4f6474242cb7:0x96ded0efb11f4a44!8m2!3d22.5780848!4d72.9669736!16s%2Fg%2F11pd1hqs_l!19sChIJtywkdGRPXjkRREofse_Q3pY?authuser=0&hl=en&rclk=1,"22.5780848,72.9669736"
Masjid - E - Mriyam,Mosque,"HXC7+F5G Masjid - E - Mriyam, Ismaile Nagar, Gamdi, Anand, Gujarat 388001","Ismaile Nagar, Gamdi",HXC7+F5G,Anand,388001,Gujarat,IN,https://www.google.com/maps/place/Masjid+-+E+-+Mriyam/data=!4m7!3m6!1s0x395e4e93ed4bf175:0x65990b102a05e711!8m2!3d22.5711959!4d72.9629634!16s%2Fg%2F11gckc9chz!19sChIJdfFL7ZNOXjkREecFKhALmWU?authuser=0&hl=en&rclk=1,"22.5711959,72.96296339999999"
Masjeede Yunus,Mosque,"HXG8+M53 Masjeede Yunus, near Parivar party plot, Ismaile Nagar, Gamdi, Anand, Gujarat 388001","Ismaile Nagar, Gamdi","HXG8+M53, near Parivar party plot",Anand,388001,Gujarat,IN,https://www.google.com/maps/place/Masjeede+Yunus/data=!4m7!3m6!1s0x395e4f1cb09984e1:0x212c1d203a177a1c!8m2!3d22.5766391!4d72.9654098!16s%2Fg%2F11qgkxzqd8!19sChIJ4YSZsBxPXjkRHHoXOiAdLCE?authuser=0&hl=en&rclk=1,"22.576639099999998,72.9654098"
Masjid zainab park,Mosque,"HXG6+4J5 Masjid zainab park, Unnamed Road, Gujarat 388001",,"HXG6+4J5, Unnamed Road",,388001,Gujarat,IN,https://www.google.com/maps/place/Masjid+zainab+park/data=!4m7!3m6!1s0x395e4f9d63795ce3:0xf0084f202a391e61!8m2!3d22.5752504!4d72.9616069!16s%2Fg%2F11jdl_7dmp!19sChIJ41x5Y51PXjkRYR45KiBPCPA?authuser=0&hl=en&rclk=1,"22.575250399999998,72.96160689999999"
Pir Mahemud shah Bukhari Bhadiyad,Mosque,"HW85+3C3 Pir Mahemud shah Bukhari Bhadiyad, Bakrol Rd, Bakrol, Gujarat 388315",,"HW85+3C3, Bakrol Rd",Bakrol,388315,Gujarat,IN,https://www.google.com/maps/place/Pir+Mahemud+shah+Bukhari+Bhadiyad/data=!4m7!3m6!1s0x395e4f5113a13fab:0x52e9e3702616b822!8m2!3d22.565134!4d72.908544!16s%2Fg%2F11hzkfdxqj!19sChIJqz-hE1FPXjkRIrgWJnDj6VI?authuser=0&hl=en&rclk=1,"22.565134,72.90854399999999"
Masjid E Imam Ahmad Raza,Mosque,"Masjid E Imam Ahmad Raza, Near, Raza Nagar Society, Khwaja Nagar Society, Hadgood, Anand, Gujarat 388370","Khwaja Nagar Society, Hadgood","Near, Raza Nagar Society",Anand,388370,Gujarat,IN,https://www.google.com/maps/place/Masjid+E+Imam+Ahmad+Raza/data=!4m7!3m6!1s0x395e4dc26c63e6d3:0x6d20bbf31da5487d!8m2!3d22.5267652!4d72.982749!16s%2Fg%2F11fsl1g8t1!19sChIJ0-ZjbMJNXjkRfUilHfO7IG0?authuser=0&hl=en&rclk=1,"22.5267652,72.982749"
Masjid Complex,Mosque,"GX26+934 Masjid Complex, Navli, Gujarat 388355",,GX26+934,Navli,388355,Gujarat,IN,https://www.google.com/maps/place/Masjid+Complex/data=!4m7!3m6!1s0x395e4cf725818331:0xf7ea4e0c5bf94601!8m2!3d22.5008988!4d72.9602076!16s%2Fg%2F11dxlc9y1m!19sChIJMYOBJfdMXjkRAUb5WwxO6vc?authuser=0&hl=en&rclk=1,"22.500898799999998,72.96020759999999"
Masjid E yusuf,Mosque,"B/H T, Masjid E yusuf, Aman park, B. hospital, Bhalej Rd, Ismaile Nagar, Gamdi, Anand, Gujarat 388001","Ismaile Nagar, Gamdi","B/H T, Aman park, B. hospital, Bhalej Rd",Anand,388001,Gujarat,IN,https://www.google.com/maps/place/Masjid+E+yusuf/data=!4m7!3m6!1s0x395e4f98a3ee2ceb:0x82bdc6a7a64d073e!8m2!3d22.5755432!4d72.9651487!16s%2Fg%2F11nmj58sdz!19sChIJ6yzuo5hPXjkRPgdNpqfGvYI?authuser=0&hl=en&rclk=1,"22.5755432,72.9651487"
MASJID E KHULAFA E RASHIDIN,Mosque,"HXF3+CVC MASJID E KHULAFA E RASHIDIN, Unnamed Road, Nanikhodiyar, Anand, Gujarat 388001",Nanikhodiyar,"HXF3+CVC, Unnamed Road",Anand,388001,Gujarat,IN,https://www.google.com/maps/place/MASJID+E+KHULAFA+E+RASHIDIN/data=!4m7!3m6!1s0x395e4f6c62ac7c81:0xff4cd5fe00a5dd7a!8m2!3d22.5735736!4d72.9546501!16s%2Fg%2F11mxng5ykg!19sChIJgXysYmxPXjkRet2lAP7VTP8?authuser=0&hl=en&rclk=1,"22.5735736,72.9546501"
Masjid abu hanifa,Mosque,"Masjid abu hanifa, Charotar millat eng, Med. High school, Bhalej Rd, Ismaile Nagar, Gamdi, Anand, Gujarat 388001","Ismaile Nagar, Gamdi","Charotar millat eng, Med. High school, Bhalej Rd",Anand,388001,Gujarat,IN,https://www.google.com/maps/place/Masjid+abu+hanifa/data=!4m7!3m6!1s0x395e4f02a9028f83:0x2d0bbaf1047167c5!8m2!3d22.5675596!4d72.9627777!16s%2Fg%2F11fq8p14g4!19sChIJg48CqQJPXjkRxWdxBPG6Cy0?authuser=0&hl=en&rclk=1,"22.5675596,72.9627777"
Masjid-e-Sakina,Mosque,"HXCF+7QJ Masjid-e-Sakina, Ismaile Nagar, Gamdi, Anand, Gujarat 388001","Ismaile Nagar, Gamdi",HXCF+7QJ,Anand,388001,Gujarat,IN,https://www.google.com/maps/place/Masjid-e-Sakina/data=!4m7!3m6!1s0x395e4f72f66253d5:0xa3c1471956d63db1!8m2!3d22.5701956!4d72.9741727!16s%2Fg%2F11s55vslh0!19sChIJ1VNi9nJPXjkRsT3WVhlHwaM?authuser=0&hl=en&rclk=1,"22.570195599999998,72.9741727"
Masjid e huda,Mosque,"HXM8+P3V Masjid e huda, Anand, Gujarat 388320",,HXM8+P3V,Anand,,Gujarat,IN,https://www.google.com/maps/place/Masjid+e+huda/data=!4m7!3m6!1s0x395e4fe84a18cb3d:0xb5cf881334636dea!8m2!3d22.584371!4d72.9651843!16s%2Fg%2F11sd8pd9kk!19sChIJPcsYSuhPXjkR6m1jNBOIz7U?authuser=0&hl=en&rclk=1,"22.584370999999997,72.96518429999999"
Anand masjid,Mosque,"HXFC+455 Anand masjid, Ismaile Nagar, Gamdi, Anand, Gujarat 388001","Ismaile Nagar, Gamdi",HXFC+455,Anand,388001,Gujarat,IN,https://www.google.com/maps/place/Anand+masjid/data=!4m7!3m6!1s0x395e4f0e9888ca4b:0xc8192cc247c352bd!8m2!3d22.5727503!4d72.9704729!16s%2Fg%2F11rhdvcdcv!19sChIJS8qImA5PXjkRvVLDR8IsGcg?authuser=0&hl=en&rclk=1,"22.5727503,72.97047289999999"
Aqsa Masjid,Mosque,"HX96+7P5 Aqsa Masjid, Bismillah Society, Ismaile Nagar, Gamdi, Anand, Gujarat 390016","Bismillah Society, Ismaile Nagar, Gamdi",HX96+7P5,Anand,390016,Gujarat,IN,https://www.google.com/maps/place/Aqsa+Masjid/data=!4m7!3m6!1s0x395e4e9113424211:0xb430e6c434569c3d!8m2!3d22.5681259!4d72.9618657!16s%2Fg%2F11f1szrwdp!19sChIJEUJCE5FOXjkRPZxWNMTmMLQ?authuser=0&hl=en&rclk=1,"22.5681259,72.96186569999999"
Masjid salman,Mosque,"HXCC+H6H Masjid salman, Hena Society, Ismaile Nagar, Gamdi, Anand, Gujarat 388001","Hena Society, Ismaile Nagar, Gamdi",HXCC+H6H,Anand,388001,Gujarat,IN,https://www.google.com/maps/place/Masjid+salman/data=!4m7!3m6!1s0x395e4f0d6a13f62b:0x2f3baef531c1534d!8m2!3d22.571429!4d72.9706023!16s%2Fg%2F11h1m515yw!19sChIJK_YTag1PXjkRTVPBMfWuOy8?authuser=0&hl=en&rclk=1,"22.571429,72.9706023"
Masjid,Mosque,"GWGJ+R79 Masjid, Unnamed Road, Mogri, Anand, Gujarat 388345",Mogri,"GWGJ+R79, Unnamed Road",Anand,388345,Gujarat,IN,https://www.google.com/maps/place/Masjid/data=!4m7!3m6!1s0x395e4db2d1b0838b:0x8cb8025c75da9d77!8m2!3d22.5270406!4d72.9307261!16s%2Fg%2F11gzrfllzy!19sChIJi4Ow0bJNXjkRd53adVwCuIw?authuser=0&hl=en&rclk=1,"22.5270406,72.9307261"
Masjide A.Rahman(Rilif Mosque),Mosque,"HXH8+73R Masjide A.Rahman(Rilif Mosque), Ismaile Nagar, Gamdi, Anand, Gujarat 388001","Ismaile Nagar, Gamdi",HXH8+73R,Anand,388001,Gujarat,IN,https://www.google.com/maps/place/Masjide+A.Rahman%28Rilif+Mosque%29/data=!4m7!3m6!1s0x395e4fdd2f4fedf7:0x825aa3561c45f812!8m2!3d22.578234!4d72.9651487!16s%2Fg%2F11ppy_gfh9!19sChIJ9-1PL91PXjkREvhFHFajWoI?authuser=0&hl=en&rclk=1,"22.578234,72.9651487"
K.S.I Masjid,Mosque,"K.S.I Masjid, Bage noor society, Opp Sara Garden, B/H Halani heights, Salatia Rd, Nanikhodiyar, Anand, Gujarat 388001",Nanikhodiyar,"Bage noor society, Opp Sara Garden, B/H Halani heights, Salatia Rd",Anand,388001,Gujarat,IN,https://www.google.com/maps/place/K.S.I+Masjid/data=!4m7!3m6!1s0x395e4f47c6e93581:0x98b95012827ffbe3!8m2!3d22.5696241!4d72.9521874!16s%2Fg%2F11q4f58wj5!19sChIJgTXpxkdPXjkR4_t_ghJQuZg?authuser=0&hl=en&rclk=1,"22.5696241,72.9521874"
Madni Masjid Gamdi,Mosque,"HX8G+XF2 Madni Masjid Gamdi, Gamdi Road, OPP.gamdi talav, Gamdi, Anand, Gujarat 388001","Bhavna Colony, Gamdi","HX8G+XF2, Gamdi Road, OPP.gamdi talav",Anand,388001,Gujarat,IN,https://www.google.com/maps/place/Madni+Masjid+Gamdi/data=!4m7!3m6!1s0x395e4f1b0a6a49cb:0x2416e5eecdc93df9!8m2!3d22.5673832!4d72.9761552!16s%2Fg%2F11h5mfgp0p!19sChIJy0lqChtPXjkR-T3Jze7lFiQ?authuser=0&hl=en&rclk=1,"22.5673832,72.9761552"
Masjid e abdurrahman,Mosque,"Masjid e abdurrahman, Reelif tounship, Bhalej Rd, Ismaile Nagar, Gamdi, Anand, Gujarat 388001","Ismaile Nagar, Gamdi","Reelif tounship, Bhalej Rd",Anand,,Gujarat,IN,https://www.google.com/maps/place/Masjid+e+abdurrahman/data=!4m7!3m6!1s0x395e4f29a1ed6809:0x4cbdc3442a32e6bc!8m2!3d22.5782663!4d72.9651445!16s%2Fg%2F11slt99h13!19sChIJCWjtoSlPXjkRvOYyKkTDvUw?authuser=0&hl=en&rclk=1,"22.5782663,72.9651445"
Masjid-e-Adam,Mosque,"HXC3+RW Masjid-e-Adam, Nanikhodiyar, Anand, Gujarat 388001",Nanikhodiyar,HXC3+RW,Anand,388001,Gujarat,IN,https://www.google.com/maps/place/Masjid-e-Adam/data=!4m7!3m6!1s0x395e4f1018f8fd69:0x906f37f1e7213b52!8m2!3d22.5720935!4d72.9547158!16s%2Fg%2F11smc0w3gs!19sChIJaf34GBBPXjkRUjsh5_E3b5A?authuser=0&hl=en&rclk=1,"22.572093499999998,72.9547158"
Masjid in VansKhiliya,Mosque,"Masjid in VansKhiliya, Vans Khiliya, Gujarat 388355",,,Vans Khiliya,388355,Gujarat,IN,https://www.google.com/maps/place/Masjid+in+VansKhiliya/data=!4m7!3m6!1s0x395e4d34f29daa9b:0x12df31f10139d852!8m2!3d22.5010894!4d72.9336601!16s%2Fg%2F11rk2hkngq!19sChIJm6qd8jRNXjkRUtg5AfEx3xI?authuser=0&hl=en&rclk=1,"22.501089399999998,72.9336601"
Qawwali masjid,Mosque,"HW7H+RG5 Qawwali masjid, Purushottam Nagar, Kawali, Anand, Gujarat 388120",Purushottam Nagar,HW7H+RG5,"Kawali, Anand",,Gujarat,IN,https://www.google.com/maps/place/Qawwali+masjid/data=!4m7!3m6!1s0x395e4f0d6fb3fdc7:0x76af9a675d65ed1e!8m2!3d22.5645175!4d72.928871!16s%2Fg%2F11sf65rb4n!19sChIJx_2zbw1PXjkRHu1lXWear3Y?authuser=0&hl=en&rclk=1,"22.564517499999997,72.928871"
Masjid e baytul Mukarram,Mosque,"HXF8+XCC Masjid e baytul Mukarram, Ismaile Nagar, Gamdi, Anand, Gujarat 388001","Ismaile Nagar, Gamdi",HXF8+XCC,Anand,,Gujarat,IN,https://www.google.com/maps/place/Masjid+e+baytul+Mukarram/data=!4m7!3m6!1s0x395e4f6653754377:0x169cd14386f25db4!8m2!3d22.5749469!4d72.9660005!16s%2Fg%2F11rj4mfg6v!19sChIJd0N1U2ZPXjkRtF3yhkPRnBY?authuser=0&hl=en&rclk=1,"22.5749469,72.96600049999999"
"Masjid-E -AHMAD, GRAVEYARD (NEW KABARISTAN)",Mosque,"HXC7+VC5 Masjid-E -AHMAD, GRAVEYARD (NEW KABARISTAN), GJ SH 60, Memon Colony, Ismaile Nagar, Gamdi, Anand, Gujarat 388001","Memon Colony, Ismaile Nagar, Gamdi","HXC7+VC5, GJ SH 60",Anand,388001,Gujarat,IN,"https://www.google.com/maps/place/Masjid-E+-AHMAD,+GRAVEYARD+%28NEW+KABARISTAN%29/data=!4m7!3m6!1s0x395e4f35b9a4d381:0xa8c9f095091ae0bf!8m2!3d22.572133!4d72.9636051!16s%2Fg%2F11tfd9rknh!19sChIJgdOkuTVPXjkRv-AaCZXwyag?authuser=0&hl=en&rclk=1","22.572132999999997,72.9636051"
Bakrol eidgaj,Mosque,"HW76+C27 Bakrol eidgaj, near of supreme hotel, baril gam, Bakrol, Gujarat 388315",baril gam,"HW76+C27, near of supreme hotel",Bakrol,,Gujarat,IN,https://www.google.com/maps/place/Bakrol+eidgaj/data=!4m7!3m6!1s0x395e4f867ab6b8fb:0x1b0e45df0f3d277b!8m2!3d22.5635251!4d72.910052!16s%2Fg%2F11s184y_wz!19sChIJ-7i2eoZPXjkReyc9D99FDhs?authuser=0&hl=en&rclk=1,"22.5635251,72.910052"
Jumma masjid,Mosque,"HX34+789 Jumma masjid, Choksi Bazar, Anand, Gujarat 388001",Choksi Bazar,HX34+789,Anand,388001,Gujarat,IN,https://www.google.com/maps/place/Jumma+masjid/data=!4m7!3m6!1s0x395e4ff3001848d3:0x7f9f05de41c906ab!8m2!3d22.5531402!4d72.9558489!16s%2Fg%2F11shcyv5m4!19sChIJ00gYAPNPXjkRqwbJQd4Fn38?authuser=0&hl=en&rclk=1,"22.553140199999998,72.95584889999999"
Masjid E Daruttaqwa,Mosque,"HXFC+VGM Masjid E Daruttaqwa, Royal City, Chandralok Society, Ismaile Nagar, Gamdi, Anand, Gujarat 388001","Royal City, Chandralok Society, Ismaile Nagar, Gamdi",HXFC+VGM,Anand,388001,Gujarat,IN,https://www.google.com/maps/place/Masjid+E+Daruttaqwa/data=!4m7!3m6!1s0x395e4f3b90741913:0x98b8f8b82e701bac!8m2!3d22.574709!4d72.9712844!16s%2Fg%2F11fjy6pb5n!19sChIJExl0kDtPXjkRrBtwLrj4uJg?authuser=0&hl=en&rclk=1,"22.574709,72.9712844"
Masjid Noorul Islam,Mosque,"HX96+X93 Masjid Noorul Islam, Ismaile Nagar, Gamdi, Anand, Gujarat 388001","Ismaile Nagar, Gamdi",HX96+X93,Anand,,Gujarat,IN,https://www.google.com/maps/place/Masjid+Noorul+Islam/data=!4m7!3m6!1s0x395e4f2f4bb8da85:0xf35d142b6c0e470c!8m2!3d22.5698797!4d72.9609152!16s%2Fg%2F11v0mpz8qx!19sChIJhdq4Sy9PXjkRDEcObCsUXfM?authuser=0&hl=en&rclk=1,"22.569879699999998,72.9609152"
Masjid E Ahmad,Mosque,"Masjid E Ahmad, Hajrat Umar park, Bhalej Rd, opp. jakat Naka, Ismaile Nagar, Gamdi, Anand, Gujarat 388001","Ismaile Nagar, Gamdi","Hajrat Umar park, Bhalej Rd, opp. jakat Naka",Anand,,Gujarat,IN,https://www.google.com/maps/place/Masjid+E+Ahmad/data=!4m7!3m6!1s0x395e4ff53d9cbc0b:0xfe27bb3e0bc20dbd!8m2!3d22.5723943!4d72.9628925!16s%2Fg%2F11t5wyb2w1!19sChIJC7ycPfVPXjkRvQ3CCz67J_4?authuser=0&hl=en&rclk=1,"22.5723943,72.9628925"
Masjid e ahmad,Mosque,"HXC4+6FX Masjid e ahmad, Salatia Rd, Nanikhodiyar, Anand, Gujarat 388001",Nanikhodiyar,"HXC4+6FX, Salatia Rd",Anand,388001,Gujarat,IN,https://www.google.com/maps/place/Masjid+e+ahmad/data=!4m7!3m6!1s0x395e4ff0df963855:0xef637c01c7d3a088!8m2!3d22.5706082!4d72.9562272!16s%2Fg%2F11q9l07n5x!19sChIJVTiW3_BPXjkRiKDTxwF8Y-8?authuser=0&hl=en&rclk=1,"22.5706082,72.9562272"
Masjid e Ashr e mubassarh,Mosque,"Masjid e Ashr e mubassarh, Green Villa, Royal City Rd, Ismaile Nagar, Gamdi, Anand, Gujarat 388001","Ismaile Nagar, Gamdi","Green Villa, Royal City Rd",Anand,388001,Gujarat,IN,https://www.google.com/maps/place/Masjid+e+Ashr+e+mubassarh/data=!4m7!3m6!1s0x395e4fb292a45a0f:0x9d0bc32d91c89ff7!8m2!3d22.5719027!4d72.9710945!16s%2Fg%2F11h3ldwd8f!19sChIJD1qkkrJPXjkR95_IkS3DC50?authuser=0&hl=en&rclk=1,"22.5719027,72.97109449999999"
Masjid e Noor,Mosque,"HXJ9+V74 Masjid e Noor, Ismaile Nagar, Gamdi, Anand, Gujarat 388320","Ismaile Nagar, Gamdi",HXJ9+V74,Anand,,Gujarat,IN,https://www.google.com/maps/place/Masjid+e+Noor/data=!4m7!3m6!1s0x395e4f4497ec93f1:0x4e32eef5d1d08127!8m2!3d22.582144!4d72.9682128!16s%2Fg%2F11sd8nskrp!19sChIJ8ZPsl0RPXjkRJ4HQ0fXuMk4?authuser=0&hl=en&rclk=1,"22.582144,72.9682128"
Aamena Masjid,Mosque,"HX87+7HG Aamena Masjid, opposite Nutan Nagar Masjid, Gamdi, Anand, Gujarat 388001",Gamdi,"HX87+7HG, opposite Nutan Nagar Masjid",Anand,388001,Gujarat,IN,https://www.google.com/maps/place/Aamena+Masjid/data=!4m7!3m6!1s0x395e4f2d7433bdb5:0x20c5743163ad34c7!8m2!3d22.5657074!4d72.9639343!16s%2Fg%2F11t7ff0qwg!19sChIJtb0zdC1PXjkRxzStYzF0xSA?authuser=0&hl=en&rclk=1,"22.565707399999997,72.96393429999999"
Masjid E Yaseen,Mosque,"HXPF+RVR Masjid E Yaseen, Bhalej Rd, near Anand marriage hall, behind Bullet Train Bridge, Anand, Chikhodra, Gujarat 388320",,"HXPF+RVR, Bhalej Rd, near Anand marriage hall, behind Bullet Train Bridge","Anand, Chikhodra",388320,Gujarat,IN,https://www.google.com/maps/place/Masjid+E+Yaseen/data=!4m7!3m6!1s0x395e4fac6e38a319:0xa3db56accf5c6ed!8m2!3d22.5871856!4d72.9747328!16s%2Fg%2F11kqcfrfg9!19sChIJGaM4bqxPXjkR7cb1zGq1PQo?authuser=0&hl=en&rclk=1,"22.587185599999998,72.9747328"
Faize Abrar Masjid,Mosque,"HXG7+3JC Faize Abrar Masjid, Ismaile Nagar, Gamdi, Anand, Gujarat 388001","Ismaile Nagar, Gamdi",HXG7+3JC,Anand,388001,Gujarat,IN,https://www.google.com/maps/place/Faize+Abrar+Masjid/data=!4m7!3m6!1s0x395e4f9dadac4d39:0x936d300b4323529c!8m2!3d22.575178!4d72.9640281!16s%2Fg%2F11frm4sxlm!19sChIJOU2srZ1PXjkRnFIjQwswbZM?authuser=0&hl=en&rclk=1,"22.575177999999998,72.9640281"
Masjid E Ayesha R.A. - Anand,Mosque,"Masjid E Ayesha R.A. - Anand, Dhagat Faliyu, opp. Old Bus Stand, near Railway Station, Ganesh Chokdi, Sardar Ganj, Anand, Gujarat 388001","Ganesh Chokdi, Sardar Ganj","Dhagat Faliyu, opp. Old Bus Stand, near Railway Station",Anand,388001,Gujarat,IN,https://www.google.com/maps/place/Masjid+E+Ayesha+R.A.+-+Anand/data=!4m7!3m6!1s0x395e4f834f3bb219:0x30b1c9baa2ba7378!8m2!3d22.5593301!4d72.9658448!16s%2Fg%2F11k46wp2cq!19sChIJGbI7T4NPXjkReHO6orrJsTA?authuser=0&hl=en&rclk=1,"22.5593301,72.9658448"
Masjid E Faizane avliya,Mosque,"HXH7+HJX Masjid E Faizane avliya, Rilif tawon ship, kaliyan park, Anand, Gujarat",,"HXH7+HJX, Rilif tawon ship, kaliyan park",Anand,,Gujarat,IN,https://www.google.com/maps/place/Masjid+E+Faizane+avliya/data=!4m7!3m6!1s0x395e4fff3203a9cd:0x8e307d7dc6ac84f3!8m2!3d22.5789838!4d72.9641067!16s%2Fg%2F11rqyzrbkg!19sChIJzakDMv9PXjkR84Ssxn19MI4?authuser=0&hl=en&rclk=1,"22.5789838,72.9641067"
Masjid E Asma,Mosque,"GXFG+267 Masjid E Asma, Baluwala, Hadgood, Anand, Gujarat 388110","Baluwala, Hadgood",GXFG+267,Anand,388110,Gujarat,IN,https://www.google.com/maps/place/Masjid+E+Asma/data=!4m7!3m6!1s0x395e4d9d068fa967:0x109aceb07699e831!8m2!3d22.5225846!4d72.9755515!16s%2Fg%2F11l2vgfmhz!19sChIJZ6mPBp1NXjkRMeiZdrDOmhA?authuser=0&hl=en&rclk=1,"22.5225846,72.9755515"
Masjid e Hidaya,Mosque,"J2RH+C9R Masjid e Hidaya, Anand, Gujarat 388205",,J2RH+C9R,Anand,,Gujarat,IN,https://www.google.com/maps/place/Masjid+e+Hidaya/data=!4m7!3m6!1s0x395e496b7a2be2e5:0x3549879fb8b57aa0!8m2!3d22.6411212!4d73.0283768!16s%2Fg%2F11qp4nw40l!19sChIJ5eIremtJXjkRoHq1uJ-HSTU?authuser=0&hl=en&rclk=1,"22.6411212,73.0283768"
Masjid E Sahaba (R.A) Hadgud,Mosque,"GXGH+MJ7 Masjid E Sahaba (R.A) Hadgud, A A Vohra Basera Society, Hadgood, Anand, Jahangirpura, Gujarat 388370","A A Vohra Basera Society, Hadgood",GXGH+MJ7,"Anand, Jahangirpura",388370,Gujarat,IN,https://www.google.com/maps/place/Masjid+E+Sahaba+%28R.A%29+Hadgud/data=!4m7!3m6!1s0x395e4de9556bdcad:0x2c9fa06e57a29550!8m2!3d22.526692!4d72.9791045!16s%2Fg%2F11vd_6h_rb!19sChIJrdxrVelNXjkRUJWiV26gnyw?authuser=0&hl=en&rclk=1,"22.526692,72.97910449999999"
