name,main_category,address,address_ward,address_street,address_city,address_postal_code,address_state,address_country_code,link,coordinates
Moti Masjid Shadi Khana,Mosque,"GJH6+XM6 Moti Masjid Shadi Khana, KT Rd, Chittinagar, Mahantipuram, Vijayawada, Andhra Pradesh 520001","Chittinagar, Mahantipuram","GJH6+XM6, KT Rd",Vijayawada,520001,Andhra Pradesh,IN,https://www.google.com/maps/place/Moti+Masjid+Shadi+Khana/data=!4m7!3m6!1s0x3a35efea1a7d2761:0x9434aec5c9ec99ac!8m2!3d16.5299011!4d80.6116321!16s%2Fg%2F11_pq6x_z!19sChIJYSd9GurvNToRrJnsycWuNJQ?authuser=0&hl=en&rclk=1,"16.5299011,80.6116321"
Masjid-E-Bilal msjd bll,Mosque,"GJ7H+QMG Masjid-E-Bilal msjd bll, Museum Rd, Masjid Street , Eluru Road, Near 1st Cross, Arundalpet, Governor Peta, Vijayawada, Andhra Pradesh 520002","Arundalpet, Governor Peta","GJ7H+QMG, Museum Rd, Masjid Street , Eluru Road, Near 1st Cross",Vijayawada,520002,Andhra Pradesh,IN,https://www.google.com/maps/place/Masjid-E-Bilal+%D9%85%D8%B3%D8%AC%D8%AF+%D8%A8%D9%84%D8%A7%D9%84%E2%80%AD/data=!4m7!3m6!1s0x3a35effe45f5be2f:0xacee6a7bd59c3009!8m2!3d16.5144314!4d80.6291975!16s%2Fg%2F124ymg7hv!19sChIJL771Rf7vNToRCTCc1Xtq7qw?authuser=0&hl=en&rclk=1,"16.5144314,80.62919749999999"
Masjid-E-Lababin (Tablighi Jamat),Mosque,"GJ2R+GH3 Masjid-E-Lababin (Tablighi Jamat), Mosque St, Labbipet, Vijayawada, Andhra Pradesh 520010",Labbipet,"GJ2R+GH3, Mosque St",Vijayawada,520010,Andhra Pradesh,IN,https://www.google.com/maps/place/Masjid-E-Lababin+%28Tablighi+Jamat%29/data=!4m7!3m6!1s0x3a35faa57f1a1939:0x1853c376e81cc24a!8m2!3d16.5012553!4d80.6414161!16s%2Fg%2F11b7gbt36s!19sChIJORkaf6X6NToRSsIc6HbDUxg?authuser=0&hl=en&rclk=1,"16.5012553,80.6414161"
Markazi Jame Masjid Ahle Hadees,Mosque,"Markazi Jame Masjid Ahle Hadees, 9-63-64, Hameed St, Islampet, Vijayawada, Andhra Pradesh 520001",Islampet,"9-63-64, Hameed St",Vijayawada,520001,Andhra Pradesh,IN,https://www.google.com/maps/place/Markazi+Jame+Masjid+Ahle+Hadees/data=!4m7!3m6!1s0x3a35efe658df02e3:0xc1d447d104dfe3b7!8m2!3d16.5206823!4d80.614296!16s%2Fg%2F1tm0rkzx!19sChIJ4wLfWObvNToRt-PfBNFH1ME?authuser=0&hl=en&rclk=1,"16.5206823,80.614296"
Jamia Masjid Farooqia Ahle-Hadees jm`h msjd frwqyh hl Hdyth,Mosque,"Jamia Masjid Farooqia Ahle-Hadees jm`h msjd frwqyh hl Hdyth, M.G. Road, Raghu Garden Road,, Farooq Nagar, Vijayawada Rd, Vijayawada, Andhra Pradesh 520007",Ayyappa Nagar,"M.G. Road, Raghu Garden Road,, Farooq Nagar, Vijayawada Rd",Vijayawada,520007,Andhra Pradesh,IN,https://www.google.com/maps/place/Jamia+Masjid+Farooqia+Ahle-Hadees+%D8%AC%D8%A7%D9%85%D8%B9%DB%81+%D9%85%D8%B3%D8%AC%D8%AF+%D9%81%D8%A7%D8%B1%D9%88%D9%82%DB%8C%DB%81+%D8%A7%DB%81%D9%84+%D8%AD%D8%AF%DB%8C%D8%AB%E2%80%AD/data=!4m7!3m6!1s0x3a35fb1e65267269:0x5094e9de02544819!8m2!3d16.4864702!4d80.6792729!16s%2Fg%2F1tjpny0b!19sChIJaXImZR77NToRGUhUAt7plFA?authuser=0&hl=en&rclk=1,"16.4864702,80.6792729"
Masjid-E-Mohammadia,Mosque,"FMVG+25H Masjid-E-Mohammadia, Sanath Nagar 3rd Line, Tulasi Nagar, Vijayawada, Andhra Pradesh 520007",Tulasi Nagar,"FMVG+25H, Sanath Nagar 3rd Line",Vijayawada,520007,Andhra Pradesh,IN,https://www.google.com/maps/place/Masjid-E-Mohammadia/data=!4m7!3m6!1s0x3a35fadfc0feaf79:0x36edf61636a09a2c!8m2!3d16.492569!4d80.675499!16s%2Fg%2F12hpjrbd0!19sChIJea_-wN_6NToRLJqgNhb27TY?authuser=0&hl=en&rclk=1,"16.492569,80.675499"
Masjid -E- Kausar,Mosque,"Masjid -E- Kausar, Guru Nanak Colony, Vijayawada, Andhra Pradesh 520007",Guru Nanak Colony,,Vijayawada,520007,Andhra Pradesh,IN,https://www.google.com/maps/place/Masjid+-E-+Kausar/data=!4m7!3m6!1s0x3a35fad0ce7541a3:0x77a35930041f6ce5!8m2!3d16.5051286!4d80.6705371!16s%2Fg%2F1tcycwwt!19sChIJo0F1ztD6NToR5WwfBDBZo3c?authuser=0&hl=en&rclk=1,"16.5051286,80.67053709999999"
Masjid-E-Hydari,Mosque,"Masjid-E-Hydari, Masjid-E-Hydari center, Tadigadapa Donka Rd, Yanamalakuduru, Ramalingeswara Nagar, Vijayawada, Andhra Pradesh 520007","Yanamalakuduru, Ramalingeswara Nagar","Masjid-E-Hydari center, Tadigadapa Donka Rd",Vijayawada,520007,Andhra Pradesh,IN,https://www.google.com/maps/place/Masjid-E-Hydari/data=!4m7!3m6!1s0x3a35fafb2ca1f67d:0x7ca03110ff511f75!8m2!3d16.4795673!4d80.6730636!16s%2Fg%2F11dx9c16y0!19sChIJffahLPv6NToRdR9R_xAxoHw?authuser=0&hl=en&rclk=1,"16.4795673,80.67306359999999"
Masjid-E-Jannatul Firdous,Mosque,"Masjid-E-Jannatul Firdous, 27-8-1, Sivalayam St, Near Challapalli Banglow, Near Hotel Swarna Palace, Sivalayam St, Near Challapalli Banglow, Near Hotel Swarna Palace, Governor Peta, Vijayawada, Andhra Pradesh 520002","Near Challapalli Banglow, Near Hotel Swarna Palace, Governor Peta","27-8-1, Sivalayam St, Near Challapalli Banglow, Near Hotel Swarna Palace, Sivalayam St",Vijayawada,520002,Andhra Pradesh,IN,https://www.google.com/maps/place/Masjid-E-Jannatul+Firdous/data=!4m7!3m6!1s0x3a35f0029e565c19:0x2e4828cc2290e235!8m2!3d16.5120794!4d80.6231803!16s%2Fg%2F11g7_cmq2x!19sChIJGVxWngLwNToRNeKQIswoSC4?authuser=0&hl=en&rclk=1,"16.512079399999998,80.6231803"
Meenar Masjid (AHLESUNNATWALJAMAT),Mosque,"11-6, GJ97+7QW Meenar Masjid (AHLESUNNATWALJAMAT), BRP Road, 63/64, Meenar Masjid St, Islampet, Vijayawada, Andhra Pradesh 520001",Islampet,"11-6, GJ97+7QW, BRP Road, 63/64, Meenar Masjid St",Vijayawada,520001,Andhra Pradesh,IN,https://www.google.com/maps/place/Meenar+Masjid+%28AHLESUNNATWALJAMAT%29/data=!4m7!3m6!1s0x3a35efe6b7c0e639:0x67870db1324eff5d!8m2!3d16.5183961!4d80.6147321!16s%2Fg%2F11xs8361w!19sChIJOebAt-bvNToRXf9OMrENh2c?authuser=0&hl=en&rclk=1,"16.5183961,80.6147321"
Jamia Masjid (AHLESUNNATWALJAMAT)(Madrasa),Mosque,"GJ76+2R6 Jamia Masjid (AHLESUNNATWALJAMAT)(Madrasa), Canal Road, Jumma Masjid Road, 1 Town, Kaleswara Rao Market, Tarapet, Vijayawada, Andhra Pradesh 520001","1 Town, Kaleswara Rao Market, Tarapet","GJ76+2R6, Canal Road, Jumma Masjid Road",Vijayawada,520001,Andhra Pradesh,IN,https://www.google.com/maps/place/Jamia+Masjid+%28AHLESUNNATWALJAMAT%29%28Madrasa%29/data=!4m7!3m6!1s0x3a35efe03d25ca27:0x307a50b99c99349a!8m2!3d16.5125339!4d80.6120236!16s%2Fg%2F1q62cywct!19sChIJJ8olPeDvNToRmjSZnLlQejA?authuser=0&hl=en&rclk=1,"16.512533899999998,80.6120236"
Masjid-E-Mahroon,Mosque,"GJ7J+WGQ Masjid-E-Mahroon, Rehaman St, Eluru Rd, Arundalpet, Governor Peta, Vijayawada, Andhra Pradesh 520002","Opposite Shriram Chits, Arundalpet, Governor Peta","GJ7J+WGQ, Rehaman St, Eluru Rd",Vijayawada,520002,Andhra Pradesh,IN,https://www.google.com/maps/place/Masjid-E-Mahroon/data=!4m7!3m6!1s0x3a35efff981be60d:0xc7650949fda5e8ff!8m2!3d16.5148339!4d80.6313667!16s%2Fg%2F1q62jkfz_!19sChIJDeYbmP_vNToR_-il_UkJZcc?authuser=0&hl=en&rclk=1,"16.5148339,80.6313667"
Masjid-E-Umar msjd `mr,Mosque,"Masjid-E-Umar msjd `mr, 520010, 32-22-8/2, CSI School Rd Mogalrajapuram, CSI School Rd, Mogalrajapuram, Christurajupuram, Vijayawada, Andhra Pradesh 520010","Mogalrajapuram, Christurajupuram","520010, 32-22-8/2, CSI School Rd Mogalrajapuram, CSI School Rd",Vijayawada,520010,Andhra Pradesh,IN,https://www.google.com/maps/place/Masjid-E-Umar+%D9%85%D8%B3%D8%AC%D8%AF+%D8%B9%D9%85%D8%B1%E2%80%AD/data=!4m7!3m6!1s0x3a35fab40aa57f15:0x2405900757b079f9!8m2!3d16.5090046!4d80.6493903!16s%2Fg%2F11g6_csqfm!19sChIJFX-lCrT6NToR-XmwVweQBSQ?authuser=0&hl=en&rclk=1,"16.5090046,80.6493903"
Madina Masjid mdynh msjd,Mosque,"40-1-140, Madina Masjid mdynh msjd, 1, MG Rd, Chandra Mouli Puram, Mohiddin Estate, Labbipet, Vijayawada, Andhra Pradesh 520010","Chandra Mouli Puram, Mohiddin Estate, Labbipet","40-1-140, 1, MG Rd",Vijayawada,520010,Andhra Pradesh,IN,https://www.google.com/maps/place/Madina+Masjid+%D9%85%D8%AF%DB%8C%D9%86%DB%81+%D9%85%D8%B3%D8%AC%D8%AF%E2%80%AD/data=!4m7!3m6!1s0x3a35faba256422bb:0x16e39cb7da03e705!8m2!3d16.4993824!4d80.6489467!16s%2Fg%2F11cs3g63gv!19sChIJuyJkJbr6NToRBecD2rec4xY?authuser=0&hl=en&rclk=1,"16.4993824,80.6489467"
Masjid-E-Madina (Sunni),Mosque,"GJ2Q+W92 Masjid-E-Madina (Sunni), Punammathota, Labbipet, Vijayawada, Andhra Pradesh 520010","Punammathota, Labbipet",GJ2Q+W92,Vijayawada,520010,Andhra Pradesh,IN,https://www.google.com/maps/place/Masjid-E-Madina+%28Sunni%29/data=!4m7!3m6!1s0x3a35faaf4c8af54d:0xc05f59b0864a0309!8m2!3d16.502267!4d80.6383771!16s%2Fg%2F1hm4sxn08!19sChIJTfWKTK_6NToRCQNKhrBZX8A?authuser=0&hl=en&rclk=1,"16.502267,80.6383771"
Sunni Shafi Masjid (Kerala Masjid),Mosque,"GJ99+W74 Sunni Shafi Masjid (Kerala Masjid), Station Rd, Nehru Road, Kothapet, Vinchipeta, Vijayawada, Andhra Pradesh 520001","Kothapet, Vinchipeta","GJ99+W74, Station Rd, Nehru Road",Vijayawada,520001,Andhra Pradesh,IN,https://www.google.com/maps/place/Sunni+Shafi+Masjid+%28Kerala+Masjid%29/data=!4m7!3m6!1s0x3a35efe45b4479b1:0x3542bc124f6f6e58!8m2!3d16.5197668!4d80.6181939!16s%2Fg%2F1q62dlq38!19sChIJsXlEW-TvNToRWG5vTxK8QjU?authuser=0&hl=en&rclk=1,"16.5197668,80.6181939"
Masjid-E-SALAR (AHLESUNNATWALJAMAT),Mosque,"FMW3+HMQ Masjid-E-SALAR (AHLESUNNATWALJAMAT), Nara Chandra Babu Naidu Colony Rd, Patamatalanka, Benz Circle, Vijayawada, Andhra Pradesh 520010","Patamatalanka, Benz Circle","FMW3+HMQ, Nara Chandra Babu Naidu Colony Rd",Vijayawada,520010,Andhra Pradesh,IN,https://www.google.com/maps/place/Masjid-E-SALAR+%28AHLESUNNATWALJAMAT%29/data=!4m7!3m6!1s0x3a35fab8adee3f97:0xa7c340b48dde46b4!8m2!3d16.4964556!4d80.6542431!16s%2Fg%2F11ggvsgn_f!19sChIJlz_urbj6NToRtEbejbRAw6c?authuser=0&hl=en&rclk=1,"16.4964556,80.6542431"
Star Masjid,Mosque,"GM2F+G66 Star Masjid, Auto Nagar, Vijayawada, Andhra Pradesh 520007",Auto Nagar,GM2F+G66,Vijayawada,520007,Andhra Pradesh,IN,https://www.google.com/maps/place/Star+Masjid/data=!4m7!3m6!1s0x3a35fb5395fb8dbd:0x53bd0317eaf28b12!8m2!3d16.5012756!4d80.6730087!16s%2Fg%2F11g1956s0v!19sChIJvY37lVP7NToREovy6hcDvVM?authuser=0&hl=en&rclk=1,"16.5012756,80.6730087"
Masjid-E-Akbar Ali,Mosque,"GJH9+9H4 Masjid-E-Akbar Ali, Vinchipeta, Vijayawada, Andhra Pradesh 520001",Vinchipeta,GJH9+9H4,Vijayawada,520001,Andhra Pradesh,IN,https://www.google.com/maps/place/Masjid-E-Akbar+Ali/data=!4m7!3m6!1s0x3a35efee8a1eb9e3:0x8f162f020d713aa5!8m2!3d16.5283997!4d80.6189531!16s%2Fg%2F11c45t5wcq!19sChIJ47keiu7vNToRpTpxDQIvFo8?authuser=0&hl=en&rclk=1,"16.528399699999998,80.6189531"
Markaz masjid,Mosque,"GJ2R+FG6 Markaz masjid, Mosque St, Labbipet, Vijayawada, Andhra Pradesh 520010",Labbipet,"GJ2R+FG6, Mosque St",Vijayawada,520010,Andhra Pradesh,IN,https://www.google.com/maps/place/Markaz+masjid/data=!4m7!3m6!1s0x3a35fb096bd66e5b:0x3b3d6b79147f0102!8m2!3d16.5011573!4d80.6412644!16s%2Fg%2F11jyyzf31x!19sChIJW27Wawn7NToRAgF_FHlrPTs?authuser=0&hl=en&rclk=1,"16.5011573,80.6412644"
