name,main_category,address,address_ward,address_street,address_city,address_postal_code,address_state,address_country_code,link,coordinates
Ishaat e Islam Masjid - sh`t  slm msjd,Mosque,"Ishaat e Islam Masjid - sh`t  slm msjd, Ishat E Islam, Hari Kothi Rd, Abul Fazal Enclave Part 1, Abul Fazal Enclave, Jamia Nagar, Okhla, New Delhi, Delhi 110025","Abul Fazal Enclave Part 1, Abul Fazal Enclave, Jamia Nagar, Okhla","Ishat E Islam, Hari Kothi Rd",New Delhi,110025,Delhi,IN,https://www.google.com/maps/place/Ishaat+e+Islam+Masjid+-+%D8%A7%D8%B4%D8%A7%D8%B9%D8%AA+%D8%A1+%D8%A7%D8%B3%D9%84%D8%A7%D9%85+%D9%85%D8%B3%D8%AC%D8%AF%E2%80%AD/data=!4m7!3m6!1s0x390ce40c2ff9b231:0x608aa5b5af203426!8m2!3d28.5567717!4d77.2942062!16s%2Fg%2F1tvt8qxd!19sChIJMbL5LwzkDDkRJjQgr7WlimA?authuser=0&hl=en&rclk=1,"28.5567717,77.29420619999999"
Nida e Islam Masjid msjd ndyslm,Mosque,"M52J+653 Nida e Islam Masjid msjd ndyslm, Mata Rameshwari Nehru Nagar, Karol Bagh, New Delhi, Delhi, 110005","Mata Rameshwari Nehru Nagar, Karol Bagh",M52J+653,"New Delhi, Delhi",110005,Delhi,IN,https://www.google.com/maps/place/Nida+e+Islam+Masjid+%D9%85%D8%B3%D8%AC%D8%AF+%D9%86%D8%AF%D8%A7%DB%92%D8%A7%D8%B3%D9%84%D8%A7%D9%85%E2%80%AD/data=!4m7!3m6!1s0x390d0290fb01337b:0x3c71bdacc6c274e4!8m2!3d28.6505077!4d77.1804169!16s%2Fg%2F11b69qs7w5!19sChIJezMB-5ACDTkR5HTCxqy9cTw?authuser=0&hl=en&rclk=1,"28.6505077,77.1804169"
Masjid Umar,Mosque,"Masjid Umar, H Block, Abul Fazal Enclave, Jamia Nagar, Okhla, New Delhi, Delhi 110025","Abul Fazal Enclave, Jamia Nagar, Okhla",H Block,New Delhi,110025,Delhi,IN,https://www.google.com/maps/place/Masjid+Umar/data=!4m7!3m6!1s0x390ce40e52efde7f:0x5e0487c814d4c357!8m2!3d28.5535005!4d77.2956955!16s%2Fg%2F11b6snzn79!19sChIJf97vUg7kDDkRV8PUFMiHBF4?authuser=0&hl=en&rclk=1,"28.5535005,77.2956955"
"Ibn Qaiyem Masjid ""SaLaf_AhLuLHadeeth""",Mosque,"Ibn Qaiyem Masjid ""SaLaf_AhLuLHadeeth"", D-41, Maulana Azad Rd, Shaheen Bagh, Jasola Vihar, New Delhi, Delhi 110020","Shaheen Bagh, Jasola Vihar","D-41, Maulana Azad Rd",New Delhi,110020,Delhi,IN,https://www.google.com/maps/place/Ibn+Qaiyem+Masjid+%22SaLaf_AhLuLHadeeth%22/data=!4m7!3m6!1s0x390ce41b187ad489:0xe6af2821a75ca812!8m2!3d28.5477876!4d77.2994573!16s%2Fg%2F11bttbrp19!19sChIJidR6GBvkDDkREqhcpyEor-Y?authuser=0&hl=en&rclk=1,"28.5477876,77.2994573"
ehle islam masjid,Mosque,"M424+RPW ehle islam masjid, Road No. 28, Block F, Tagore Garden, Tagore Garden Extension, Delhi, 110027","Block F, Tagore Garden, Tagore Garden Extension","M424+RPW, Road No. 28",Delhi,110027,Delhi,IN,https://www.google.com/maps/place/ehle+islam+masjid/data=!4m7!3m6!1s0x390d037c17da8ec7:0x293fd9ad00fa4988!8m2!3d28.6521245!4d77.1068316!16s%2Fg%2F1260w63bx!19sChIJx47aF3wDDTkRiEn6AK3ZPyk?authuser=0&hl=en&rclk=1,"28.6521245,77.10683159999999"
Masjid Umar ibn Khattab Ahle Hadees,Mosque,"G8X3+2R4 Masjid Umar ibn Khattab Ahle Hadees, Kalindi Kunj Rd, Shaheen Bagh, Jamia Nagar, Okhla, New Delhi, Delhi 110025","Shaheen Bagh, Jamia Nagar, Okhla","G8X3+2R4, Kalindi Kunj Rd",New Delhi,110025,Delhi,IN,https://www.google.com/maps/place/Masjid+Umar+ibn+Khattab+Ahle+Hadees/data=!4m7!3m6!1s0x390ce4196e33e035:0x7187e898e383e521!8m2!3d28.5475049!4d77.3045864!16s%2Fg%2F11ddwvd6j7!19sChIJNeAzbhnkDDkRIeWD45joh3E?authuser=0&hl=en&rclk=1,"28.5475049,77.30458639999999"
bilal masjid.,Mosque,"P24V+6FG bilal masjid., Durga Mandir Rd, Phase 2, Inder Enclave, Rohini, New Delhi, Delhi, 110086","Phase 2, Inder Enclave, Rohini","P24V+6FG, Durga Mandir Rd","New Delhi, Delhi",110086,Delhi,IN,https://www.google.com/maps/place/bilal+masjid./data=!4m7!3m6!1s0x390d06709583ec61:0x52f266630d1af0ed!8m2!3d28.7055626!4d77.0437043!16s%2Fg%2F11g6r27xpk!19sChIJYeyDlXAGDTkR7fAaDWNm8lI?authuser=0&hl=en&rclk=1,"28.7055626,77.0437043"
Yasin Masjid (mosque),Mosque,"Yasin Masjid (mosque), Yasin Masjid Rd, Shahberi, Ghaziabad, Uttar Pradesh 200009",Shahberi,Yasin Masjid Rd,Ghaziabad,200009,Uttar Pradesh,IN,https://www.google.com/maps/place/Yasin+Masjid+%28mosque%29/data=!4m7!3m6!1s0x390cee475fbdff2b:0x2293584767d7296c!8m2!3d28.6213951!4d77.4401908!16s%2Fg%2F11clsjm2jg!19sChIJK_-9X0fuDDkRbCnXZ0dYkyI?authuser=0&hl=en&rclk=1,"28.621395099999997,77.4401908"
"Aayesh Masjid, Hindon Vihar",Mosque,"MCG5+PHJ Aayesh Masjid, Hindon Vihar, Sewa Nagar, Ghaziabad, Uttar Pradesh 201003",Sewa Nagar,MCG5+PHJ,Ghaziabad,201003,Uttar Pradesh,IN,"https://www.google.com/maps/place/Aayesh+Masjid,+Hindon+Vihar/data=!4m7!3m6!1s0x390cf05b3bd68a15:0x22f202200129a1d!8m2!3d28.6768385!4d77.4088851!16s%2Fg%2F11c1mkydpz!19sChIJFYrWO1vwDDkRHZoSACIgLwI?authuser=0&hl=en&rclk=1","28.6768385,77.40888509999999"
Bismillah Masjid Loni,Mosque,"Bismillah Masjid Loni, Unnamed Rd Loni Dehat gaajiyaabaad Uttar Pradesh 201102 Republic of, 201102","Islam Nagar, Loni Dehat",Unnamed Rd Loni Dehat gaajiyaabaad Uttar Pradesh 201102 Republic of,,201102,Uttar Pradesh,IN,https://www.google.com/maps/place/Bismillah+Masjid+Loni/data=!4m7!3m6!1s0x390cf9371663649f:0xb45b6c0c7fea42ff!8m2!3d28.749665!4d77.2961301!16s%2Fg%2F11bw7d03x7!19sChIJn2RjFjf5DDkR_0LqfwxsW7Q?authuser=0&hl=en&rclk=1,"28.749665,77.2961301"
Eidgah Masjid,Mosque,"MC89+6G9 Eidgah Masjid, Eidgah Rd, Islam Nagar, Madhopura, Ghaziabad, Uttar Pradesh 201009","Islam Nagar, Madhopura","MC89+6G9, Eidgah Rd",Ghaziabad,201009,Uttar Pradesh,IN,https://www.google.com/maps/place/Eidgah+Masjid/data=!4m7!3m6!1s0x390cf04a00d76277:0xb87c336c0b799e29!8m2!3d28.6655466!4d77.4188723!16s%2Fg%2F11bzrj_lq5!19sChIJd2LXAErwDDkRKZ55C2wzfLg?authuser=0&hl=en&rclk=1,"28.6655466,77.41887229999999"
Ahle Sunnat wal jamaat RazaeMuhammadi Masjid,Mosque,"J6X8+JC2 Ahle Sunnat wal jamaat RazaeMuhammadi Masjid, Aram Nagar, Paharganj, New Delhi, Delhi 110055","Aram Nagar, Paharganj",J6X8+JC2,New Delhi,110055,Delhi,IN,https://www.google.com/maps/place/Ahle+Sunnat+wal+jamaat+RazaeMuhammadi+Masjid/data=!4m7!3m6!1s0x390cfd6b1c55570b:0xb6cbdaabca9cc6b2!8m2!3d28.6490022!4d77.2160178!16s%2Fg%2F11g6mj_5x9!19sChIJC1dVHGv9DDkRssacyqvay7Y?authuser=0&hl=en&rclk=1,"28.649002199999998,77.2160178"
Puliya Wali Masjid,Mosque,"J6R9+Q48 Puliya Wali Masjid, Main Bazar Rd, Ratan Lal Market, Aram Bagh, Paharganj, New Delhi, Delhi, 110055","Ratan Lal Market, Aram Bagh, Paharganj","J6R9+Q48, Main Bazar Rd","New Delhi, Delhi",110055,Delhi,IN,https://www.google.com/maps/place/Puliya+Wali+Masjid/data=!4m7!3m6!1s0x390cfd3f5dcc4137:0x1ed0072a0c155076!8m2!3d28.6419015!4d77.2178423!16s%2Fg%2F12q4q_hw8!19sChIJN0HMXT_9DDkRdlAVDCoH0B4?authuser=0&hl=en&rclk=1,"28.6419015,77.2178423"
Masjid Alahazrat,Mosque,"R342+CX5 Masjid Alahazrat, b block, JJ Colony, JJ Cluster Colony, Bawana, Delhi, 110039","JJ Colony, JJ Cluster Colony, Bawana","R342+CX5, b block",Delhi,110039,Delhi,IN,https://www.google.com/maps/place/Masjid+Alahazrat/data=!4m7!3m6!1s0x390da833b9909e53:0x7267e7ff8986237f!8m2!3d28.8060016!4d77.0524872!16s%2Fg%2F11bc7f9t38!19sChIJU56QuTOoDTkRfyOGif_nZ3I?authuser=0&hl=en&rclk=1,"28.8060016,77.0524872"
Chand Masjid,Mosque,"Chand Masjid, Mustafabad, Loni, Ghaziabad, Uttar Pradesh 201102","Islam Nagar, Loni",Mustafabad,Ghaziabad,201102,Uttar Pradesh,IN,https://www.google.com/maps/place/Chand+Masjid/data=!4m7!3m6!1s0x390cf939df84d1df:0x5c02afae8dd3652c!8m2!3d28.7488846!4d77.2944373!16s%2Fg%2F11c1tj80p4!19sChIJ39GE3zn5DDkRLGXTja6vAlw?authuser=0&hl=en&rclk=1,"28.7488846,77.2944373"
Masjid Majeedia Motilal nehru marg- msjdi mjdyh,Mosque,"Masjid Majeedia Motilal nehru marg- msjdi mjdyh, Unnamed Road, Dr APJ Abdul Kalam Rd, South Block, Aurangzeb Road, New Delhi, Delhi 110001","South Block, Aurangzeb Road","Unnamed Road, Dr APJ Abdul Kalam Rd",New Delhi,110001,Delhi,IN,https://www.google.com/maps/place/Masjid+Majeedia+Motilal+nehru+marg-+%D9%85%D8%B3%D8%AC%D8%AF%D9%90+%D9%85%D8%AC%D8%AF%DB%8C%DB%81%E2%80%AD/data=!4m7!3m6!1s0x390ce2c111445fc5:0x1156210e810cd168!8m2!3d28.6046984!4d77.2215032!16s%2Fg%2F11f1lpdw85!19sChIJxV9EEcHiDDkRaNEMgQ4hVhE?authuser=0&hl=en&rclk=1,"28.6046984,77.2215032"
Noor-e-ilahi Masjid,Mosque,"Noor-e-ilahi Masjid, 43, Meerut Rd, Hindan Vihar, Sewa Nagar, Ghaziabad, Uttar Pradesh 201001","Hindan Vihar, Sewa Nagar","43, Meerut Rd",Ghaziabad,201001,Uttar Pradesh,IN,https://www.google.com/maps/place/Noor-e-ilahi+Masjid/data=!4m7!3m6!1s0x390cf04535cb9eef:0x72d06596231d8d84!8m2!3d28.675848!4d77.4112173!16s%2Fg%2F11dymd3kqg!19sChIJ757LNUXwDDkRhI0dI5Zl0HI?authuser=0&hl=en&rclk=1,"28.675848,77.41121729999999"
MASJID,Mosque,"MASJID, Wz 173a/1 new ranjeet nagar, Guru Nanak Nagar, Shadipur, Delhi 110008","Guru Nanak Nagar, Shadipur",Wz 173a/1 new ranjeet nagar,New Delhi,110008,Delhi,IN,https://www.google.com/maps/place/MASJID/data=!4m7!3m6!1s0x390d0327bb6f6129:0xe8342be2eca63326!8m2!3d28.6456917!4d77.1597324!16s%2Fg%2F11h5lkhmc2!19sChIJKWFvuycDDTkRJjOm7OIrNOg?authuser=0&hl=en&rclk=1,"28.6456917,77.1597324"
Shoks Store,Childrens Store,"Shoks Store, Mustafabad, near Sunhari Masjid, Loni, Uttar Pradesh 201102","Islam Nagar, Loni","Mustafabad, near Sunhari Masjid",,201102,Uttar Pradesh,IN,https://www.google.com/maps/place/Shoks+Store/data=!4m7!3m6!1s0x390cf936fdbf7b97:0x48b5130dc49db72d!8m2!3d28.7484621!4d77.2962085!16s%2Fg%2F11bwcbl66f!19sChIJl3u__Tb5DDkRLbedxA0TtUg?authuser=0&hl=en&rclk=1,"28.748462099999998,77.29620849999999"
Noorani Masjid,Mosque,"MC28+2GV Noorani Masjid, 033, Ghaziabad - Vijayanagar, Sector 12, Mirzapur, Pratap Vihar, Ghaziabad, Uttar Pradesh 201009","Sector 12, Mirzapur, Pratap Vihar","MC28+2GV, 033, Ghaziabad - Vijayanagar",Ghaziabad,201009,Uttar Pradesh,IN,https://www.google.com/maps/place/Noorani+Masjid/data=!4m7!3m6!1s0x390cf02f61499dbf:0x956272bbf9be3091!8m2!3d28.6493494!4d77.4131518!16s%2Fg%2F11g72wpk53!19sChIJv51JYS_wDDkRkTC--btyYpU?authuser=0&hl=en&rclk=1,"28.6493494,77.4131518"
Mecca Masjid,Mosque,"PJ5W+MFV Mecca Masjid, mohalla saddikpura, Pilkhuwa, Uttar Pradesh 245304",Gandhi Colony,"PJ5W+MFV, mohalla saddikpura",Pilkhuwa,245304,Uttar Pradesh,IN,https://www.google.com/maps/place/Mecca+Masjid/data=!4m7!3m6!1s0x390c8dd33405fc63:0x61a549ea7d969cf6!8m2!3d28.7092372!4d77.6461824!16s%2Fg%2F11g6bt67xc!19sChIJY_wFNNONDDkR9pyWfepJpWE?authuser=0&hl=en&rclk=1,"28.7092372,77.6461824"
Gausiya Masjid,Mosque,"Gausiya Masjid, 122, Gali No. 10, New Seelampur, Jafrabad, Shahdara, Delhi, 110053","New Seelampur, Jafrabad, Shahdara","122, Gali No. 10",Delhi,110053,Delhi,IN,https://www.google.com/maps/place/Gausiya+Masjid/data=!4m7!3m6!1s0x390cfc63ceb84969:0x52a9b75ed1d9025e!8m2!3d28.6775577!4d77.2702337!16s%2Fg%2F11c74cy737!19sChIJaUm4zmP8DDkRXgLZ0V63qVI?authuser=0&hl=en&rclk=1,"28.677557699999998,77.27023369999999"
Markash Wali Masjid,Mosque,"QFHX+RGH Markash Wali Masjid, Kachi Saray, MuradNagar Main Rd, Malik Nagar, Muradnagar, Uttar Pradesh 201206",Malik Nagar,"QFHX+RGH Kachi Saray, MuradNagar Main Rd",Muradnagar,201206,Uttar Pradesh,IN,https://www.google.com/maps/place/Markash+Wali+Masjid/data=!4m7!3m6!1s0x390cf4492d2c8903:0xdcae500c8a54d110!8m2!3d28.7795707!4d77.4988695!16s%2Fg%2F1ptwk1jmw!19sChIJA4ksLUn0DDkRENFUigxQrtw?authuser=0&hl=en&rclk=1,"28.779570699999997,77.4988695"
Masjid Shaan E Ilahi,Mosque,"J835+M2W Masjid Shaan E Ilahi, Block 20, Part 2, Trilokpuri, Delhi, 110091","Block 20, Part 2, Trilokpuri",J835+M2W,Delhi,110091,Delhi,IN,https://www.google.com/maps/place/Masjid+Shaan+E+Ilahi/data=!4m7!3m6!1s0x390ce49491158b1b:0xc8cb89432adbf7ad!8m2!3d28.6042297!4d77.3075818!16s%2Fg%2F11cn5n3hlt!19sChIJG4sVkZTkDDkRrffbKkOJy8g?authuser=0&hl=en&rclk=1,"28.604229699999998,77.3075818"
Ayesha Masjid msjd `y'shh,Mosque,"J7XJ+63J Ayesha Masjid msjd `y'shh, Rashid Market Extn, Street Number 4, Krishna Nagar, New Delhi, Delhi 110051","Rashid Market, Krishna Nagar","J7XJ+63J, Rashid Market Extn, Street Number 4","New Delhi, Delhi",110051,Delhi,IN,https://www.google.com/maps/place/Ayesha+Masjid+%D9%85%D8%B3%D8%AC%D8%AF+%D8%B9%D8%A7%DB%8C%D9%94%D8%B4%D9%87%E2%80%AD/data=!4m7!3m6!1s0x390cfca3dd1badd1:0xb71cda67aa945c25!8m2!3d28.6480857!4d77.2801444!16s%2Fg%2F11gd7_p0m7!19sChIJ0a0b3aP8DDkRJVyUqmfaHLc?authuser=0&hl=en&rclk=1,"28.6480857,77.2801444"
Madina Masjid,Mosque,"P76C+XRR Madina Masjid, Mustafabad Extn, New Mustafabad, Delhi, 110094","Mustafabad Extn, New Mustafabad",P76C+XRR,Delhi,110094,Delhi,IN,https://www.google.com/maps/place/Madina+Masjid/data=!4m7!3m6!1s0x390cfc1ba78e57eb:0x36e88cc0986088d6!8m2!3d28.7124927!4d77.2720251!16s%2Fg%2F11gbkvy5wt!19sChIJ61eOpxv8DDkR1ohgmMCM6DY?authuser=0&hl=en&rclk=1,"28.7124927,77.2720251"
Fakhrul Masjid msjd,Mosque,"Fakhrul Masjid msjd, 1268, Bara Bazar Rd, Chabi Ganj, Kashmere Gate, New Delhi, Delhi, 110006","Chabi Ganj, Kashmere Gate","1268, Bara Bazar Rd","New Delhi, Delhi",110006,Delhi,IN,https://www.google.com/maps/place/Fakhrul+Masjid+%D9%85%D8%B3%D8%AC%D8%AF%E2%80%AD/data=!4m7!3m6!1s0x390cfd060683b301:0xc9d92074bb420992!8m2!3d28.665012!4d77.2295583!16s%2Fg%2F11cmytc3k3!19sChIJAbODBgb9DDkRkglCu3Qg2ck?authuser=0&hl=en&rclk=1,"28.665011999999997,77.2295583"
Jama Masjid,Mosque,"Jama Masjid, Islam Nagar Village, Madhopura, Ghaziabad, Uttar Pradesh 201001","Islam Nagar Village, Madhopura",,Ghaziabad,201001,Uttar Pradesh,IN,https://www.google.com/maps/place/Jama+Masjid/data=!4m7!3m6!1s0x390cf049da3771a7:0xf309bef2621db0d0!8m2!3d28.6655983!4d77.4165445!16s%2Fg%2F11g8_q4kw8!19sChIJp3E32knwDDkR0LAdYvK-CfM?authuser=0&hl=en&rclk=1,"28.6655983,77.4165445"
Huda Masjid Noorganj,Mosque,"QFGW+JWQ Huda Masjid Noorganj, Ward Number 3, Muradnagar, Uttar Pradesh 201206",Ward Number 3,QFGW+JWQ,Muradnagar,201206,Uttar Pradesh,IN,https://www.google.com/maps/place/Huda+Masjid+Noorganj/data=!4m7!3m6!1s0x390cf448986cafa9:0x94d257718467ecd4!8m2!3d28.7765979!4d77.4973698!16s%2Fg%2F11c72yc40y!19sChIJqa9smEj0DDkR1OxnhHFX0pQ?authuser=0&hl=en&rclk=1,"28.7765979,77.4973698"
Imam Bargah,Mosque,"Imam Bargah, 2399, Islam Nagar, Madhopura, Ghaziabad, Uttar Pradesh 201009","Islam Nagar, Madhopura",2399,Ghaziabad,201009,Uttar Pradesh,IN,https://www.google.com/maps/place/Imam+Bargah/data=!4m7!3m6!1s0x390cf0484cccbb8f:0xbec515b93083a976!8m2!3d28.6662166!4d77.4171754!16s%2Fg%2F11bztgr9hw!19sChIJj7vMTEjwDDkRdqmDMLkVxb4?authuser=0&hl=en&rclk=1,"28.6662166,77.41717539999999"
Masjid-e-Anjum,Mosque,"Masjid-e-Anjum, Indira Gandhi Camp Part 2, New Friends Colony, New Delhi, Delhi 110065","Block A, Taimoor Nagar, New Friends Colony","Indira Gandhi Camp Part 2, New Friends Colony",New Delhi,110065,Delhi,IN,https://www.google.com/maps/place/Masjid-e-Anjum/data=!4m7!3m6!1s0x390ce39a2cbe5dad:0x263099a5cc320902!8m2!3d28.573773!4d77.2696933!16s%2Fg%2F11ckkxbn_t!19sChIJrV2-LJrjDDkRAgkyzKWZMCY?authuser=0&hl=en&rclk=1,"28.573773,77.2696933"
Makki Masjid,Mosque,"Makki Masjid, street no 1,Islam Nagar, Madhopura, Ghaziabad, Uttar Pradesh 201001","Islam Nagar, Madhopura","street no 1,Islam Nagar, Madhopura",Ghaziabad,201001,Uttar Pradesh,IN,https://www.google.com/maps/place/Makki+Masjid/data=!4m7!3m6!1s0x390cf037d2a8adeb:0x29b5af6f2c2088ae!8m2!3d28.6643834!4d77.4156466!16s%2Fg%2F11fxb8hkxn!19sChIJ662o0jfwDDkRroggLG-vtSk?authuser=0&hl=en&rclk=1,"28.6643834,77.4156466"
Masjid Badi msjd,Mosque,"Masjid Badi msjd, 893,, Chittli Qabar Bazar Rd, Jama Masjid, Chandni Chowk, New Delhi, Delhi 110006","Bazar Chitli Qabar, Kucha Chelan, Jama Masjid, Chandni Chowk","893,, Chittli Qabar Bazar Rd","New Delhi, Delhi",110006,Delhi,IN,https://www.google.com/maps/place/Masjid+Badi+%D9%85%D8%B3%D8%AC%D8%AF%E2%80%AD/data=!4m7!3m6!1s0x390cfd219cfec1f3:0x93ccacb281d71709!8m2!3d28.645321!4d77.2357133!16s%2Fg%2F12m98gjn5!19sChIJ88H-nCH9DDkRCRfXgbKszJM?authuser=0&hl=en&rclk=1,"28.645321,77.2357133"
Madarse wali Masjid,Mosque,"MC79+44C Madarse wali Masjid, Kaila Bhatta Village, Madhopura, Ghaziabad, Uttar Pradesh 201009","Kaila Bhatta Village, Madhopura",MC79+44C,Ghaziabad,201009,Uttar Pradesh,IN,https://www.google.com/maps/place/Madarse+wali+Masjid/data=!4m7!3m6!1s0x390cf03603ffffff:0x87700c4682609ffc!8m2!3d28.6628075!4d77.4177725!16s%2Fg%2F11b7hf9l3t!19sChIJ____AzbwDDkR_J9ggkYMcIc?authuser=0&hl=en&rclk=1,"28.6628075,77.4177725"
Hazrat Niyaz Ahmed Dargah,Mosque,"MC78+F24 Hazrat Niyaz Ahmed Dargah, gali no., Moti Masjid Rd, Block I, Madhopura, Ghaziabad, Uttar Pradesh 201009","Block I, Madhopura","MC78+F24, gali no., Moti Masjid Rd",Ghaziabad,201009,Uttar Pradesh,IN,https://www.google.com/maps/place/Hazrat+Niyaz+Ahmed+Dargah/data=!4m7!3m6!1s0x390cf037c819f1ef:0x9dfdd44c2b0750fe!8m2!3d28.6636356!4d77.4150895!16s%2Fg%2F11fxdyfssj!19sChIJ7_EZyDfwDDkR_lAHK0zU_Z0?authuser=0&hl=en&rclk=1,"28.6636356,77.4150895"
Masjid Haji Langa (Ancient mosque),Mosque,"Masjid Haji Langa (Ancient mosque), 2, Sector 3, Rama Krishna Puram, New Delhi, Delhi 110022","Sector 3, Rama Krishna Puram",2,New Delhi,110022,Delhi,IN,https://www.google.com/maps/place/Masjid+Haji+Langa+%28Ancient+mosque%29/data=!4m7!3m6!1s0x390d1d65fea19805:0x6779099e139b8d77!8m2!3d28.5538311!4d77.179919!16s%2Fg%2F11p64lp493!19sChIJBZih_mUdDTkRd42bE54JeWc?authuser=0&hl=en&rclk=1,"28.5538311,77.179919"
Masjid,Mosque,"H769+P87 Masjid, Block A, Friends Colony East, New Friends Colony, New Delhi, Delhi 110025","Block A, Friends Colony East, New Friends Colony",H769+P87,New Delhi,110025,Delhi,IN,https://www.google.com/maps/place/Masjid/data=!4m7!3m6!1s0x390ce3a3874c1a6d:0x3777b5148e43553a!8m2!3d28.5617917!4d77.2683072!16s%2Fg%2F11grc87l61!19sChIJbRpMh6PjDDkROlVDjhS1dzc?authuser=0&hl=en&rclk=1,"28.561791699999997,77.2683072"
Noorani Masjid,Mosque,"MCPJ+MP9 Noorani Masjid, Meerut Rd, Baba Nagar, Krishna Nagar, Harbans Nagar, Ghukna, Ghaziabad, Uttar Pradesh 201003","Baba Nagar, Krishna Nagar, Harbans Nagar, Ghukna","MCPJ+MP9, Meerut Rd",Ghaziabad,201003,Uttar Pradesh,IN,https://www.google.com/maps/place/Noorani+Masjid/data=!4m7!3m6!1s0x390cf1cb54144f79:0x28a9388983f0073!8m2!3d28.6866714!4d77.4318595!16s%2Fg%2F11h7j8vnbg!19sChIJeU8UVMvxDDkRcwA_mIiTigI?authuser=0&hl=en&rclk=1,"28.686671399999998,77.4318595"
Noor Masjid,Mosque,"Noor Masjid, Islam Nagar, Khatauli, Khatauli Rural, Uttar Pradesh 251201",Islam Nagar,,"Khatauli, Khatauli Rural",251201,Uttar Pradesh,IN,https://www.google.com/maps/place/Noor+Masjid/data=!4m7!3m6!1s0x390c1263de122b69:0x2773ba4d756c975d!8m2!3d29.2712649!4d77.7283419!16s%2Fg%2F11cm40rn56!19sChIJaSsS3mMSDDkRXZdsdU26cyc?authuser=0&hl=en&rclk=1,"29.2712649,77.72834189999999"
Bilal Mosque,Mosque,"7PHW+84G Bilal Mosque, Khatauli - Miranpur Rd, bhoor, Tilak Nagar, Khatauli, Uttar Pradesh 251201","bhoor, Tilak Nagar","7PHW+84G, Khatauli - Miranpur Rd",Khatauli,251201,Uttar Pradesh,IN,https://www.google.com/maps/place/Bilal+Mosque/data=!4m7!3m6!1s0x390c0d87f5544875:0xacfda54c6b6c9d16!8m2!3d29.2787064!4d77.7451969!16s%2Fg%2F11fy2p_n7s!19sChIJdUhU9YcNDDkRFp1sa0yl_aw?authuser=0&hl=en&rclk=1,"29.278706399999997,77.7451969"
mdiinaa msjid Mohammed Mufte Asad,Mosque,"mdiinaa msjid Mohammed Mufte Asad, malik chok, Madina Masjid, Gali Number 10, Muradnagar, Uttar Pradesh 201206",,"malik chok, Madina Masjid, Gali Number 10",Muradnagar,201206,Uttar Pradesh,IN,https://www.google.com/maps/place/%E0%A4%AE%E0%A4%A6%E0%A5%80%E0%A4%A8%E0%A4%BE+%E0%A4%AE%E0%A4%B8%E0%A5%8D%E0%A4%9C%E0%A4%BF%E0%A4%A6+Mohammed+Mufte+Asad/data=!4m7!3m6!1s0x390cf45be80c5399:0xee71bf877590839c!8m2!3d28.7727455!4d77.5096138!16s%2Fg%2F11gdywy_sq!19sChIJmVMM6Fv0DDkRnIOQdYe_ce4?authuser=0&hl=en&rclk=1,"28.7727455,77.5096138"
Ek Minara Masjid,Mosque,"7PFH+GCH Ek Minara Masjid, Budhana-Khatauli Rd, Islam Nagar, Khatauli Rural, Uttar Pradesh 251201",Islam Nagar,"7PFH+GCH, Budhana-Khatauli Rd",Khatauli Rural,251201,Uttar Pradesh,IN,https://www.google.com/maps/place/Ek+Minara+Masjid/data=!4m7!3m6!1s0x390c12641bb55c0f:0xb1f92d24fc5aee54!8m2!3d29.2738122!4d77.728596!16s%2Fg%2F11cjj7tq_0!19sChIJD1y1G2QSDDkRVO5a_CQt-bE?authuser=0&hl=en&rclk=1,"29.2738122,77.728596"
Minara Masjid,Mosque,"Q78H+MC7 Minara Masjid, Ghaziabad, Uttar Pradesh 201102",,Q78H+MC7,Ghaziabad,,Uttar Pradesh,IN,https://www.google.com/maps/place/Minara+Masjid/data=!4m7!3m6!1s0x390cfed628f5c28f:0x6c63711d6c363dd6!8m2!3d28.7666689!4d77.2785548!16s%2Fg%2F11hbc20ck7!19sChIJj8L1KNb-DDkR1j02bB1xY2w?authuser=0&hl=en&rclk=1,"28.7666689,77.2785548"
Ramzania Masjid,Mosque,"M7G8+H3W Ramzania Masjid, Phase 1, Block J, Shahdara, Delhi, 110053","Phase 1, Block J, Shahdara",M7G8+H3W,Delhi,110053,Delhi,IN,https://www.google.com/maps/place/Ramzania+Masjid/data=!4m7!3m6!1s0x390cfc605f1fc6dd:0x8e4ff1e8c957f8c9!8m2!3d28.6764861!4d77.2652025!16s%2Fg%2F11dxrtb5q8!19sChIJ3cYfX2D8DDkRyfhXyejxT44?authuser=0&hl=en&rclk=1,"28.676486099999998,77.2652025"
Ayubi Masjid QidwaiNagar Meerut,Mosque,"XP68+R3V Ayubi Masjid QidwaiNagar Meerut, Kidwai Nagar, Umar Nagar, Meerut, Uttar Pradesh 250002","Kidwai Nagar, Umar Nagar",XP68+R3V,Meerut,250002,Uttar Pradesh,IN,https://www.google.com/maps/place/Ayubi+Masjid+QidwaiNagar+Meerut/data=!4m7!3m6!1s0x390c649160b0c01d:0x991ee43ae3e43cf0!8m2!3d28.9621075!4d77.7151766!16s%2Fg%2F1pyqjm6tv!19sChIJHcCwYJFkDDkR8Dzk4zrkHpk?authuser=0&hl=en&rclk=1,"28.9621075,77.71517659999999"
FIDAI MASJID,Mosque,"FIDAI MASJID, Chungi no.3, Ravli Rd, Muradnagar, Uttar Pradesh 201206",,"Chungi no.3, Ravli Rd","Muradnagar, Sarna Murad Nagar",201206,Uttar Pradesh,IN,https://www.google.com/maps/place/FIDAI+MASJID/data=!4m7!3m6!1s0x390cf44b7b98a061:0x3631bc18c57b9987!8m2!3d28.7852482!4d77.4984541!16s%2Fg%2F11hd1vq5t2!19sChIJYaCYe0v0DDkRh5l7xRi8MTY?authuser=0&hl=en&rclk=1,"28.785248199999998,77.4984541"
JAMA MASJID UMAR BIN KHATTAB,Mosque,"G8W3+XWV JAMA MASJID UMAR BIN KHATTAB, Kalindi Kunj Rd, Block H, Jamia Nagar, Okhla, New Delhi, Delhi 110025","Block H, Jamia Nagar, Okhla","G8W3+XWV, Kalindi Kunj Rd",New Delhi,110025,Delhi,IN,https://www.google.com/maps/place/JAMA+MASJID+UMAR+BIN+KHATTAB/data=!4m7!3m6!1s0x390ce51eb7ea0bfd:0xe968824c610cc265!8m2!3d28.5474867!4d77.3047909!16s%2Fg%2F11h7p6jtqd!19sChIJ_Qvqtx7lDDkRZcIMYUyCaOk?authuser=0&hl=en&rclk=1,"28.5474867,77.3047909"
SITARA MASJID,Mosque,"QGJ2+7CF SITARA MASJID, Sitara Masjid Rd, Malik Nagar, Muradnagar, Uttar Pradesh 201206",Malik Nagar,"QGJ2+7CF, Sitara Masjid Rd",Muradnagar,201206,Uttar Pradesh,IN,https://www.google.com/maps/place/SITARA+MASJID/data=!4m7!3m6!1s0x390cf44e8d5d922f:0x23667817887c6640!8m2!3d28.780699!4d77.5010552!16s%2Fg%2F11ggw0mkm8!19sChIJL5JdjU70DDkRQGZ8iBd4ZiM?authuser=0&hl=en&rclk=1,"28.780699,77.5010552"
"Madarasa Islamia Hifzul Quraan, Masjid Ilahi Khan",Mosque,"H6VR+W7X Madarasa Islamia Hifzul Quraan, Masjid Ilahi Khan, Opp. Obroi Hotel, Hazrat, Nizamuddin, Nizamuddin West, New Delhi, Delhi 110003","Nizamuddin, Delhi Golf Club, Nizamuddin West","H6VR+W7X, Opp. Obroi Hotel, Hazrat",New Delhi,110003,Delhi,IN,"https://www.google.com/maps/place/Madarasa+Islamia+Hifzul+Quraan,+Masjid+Ilahi+Khan/data=!4m7!3m6!1s0x390ce31d89003cf5:0x68b870a283781947!8m2!3d28.5948573!4d77.2407332!16s%2Fg%2F11cn6cxwr8!19sChIJ9TwAiR3jDDkRRxl4g6JwuGg?authuser=0&hl=en&rclk=1","28.594857299999997,77.2407332"
Jahtari Wali Masjid,Mosque,"Jahtari Wali Masjid, 5077, Main Bazar Rd, Bharat Nagar, Main Bazar, Aram Bagh, Paharganj, New Delhi, Delhi 110055","Bharat Nagar, Main Bazar, Aram Bagh, Paharganj","5077, Main Bazar Rd",New Delhi,110055,Delhi,IN,https://www.google.com/maps/place/Jahtari+Wali+Masjid/data=!4m7!3m6!1s0x390cfd815a030b8b:0xe18350aa13859d7a!8m2!3d28.6406795!4d77.2115511!16s%2Fg%2F11gjxtbc0j!19sChIJiwsDWoH9DDkRep2FE6pQg-E?authuser=0&hl=en&rclk=1,"28.640679499999997,77.2115511"
Islamia masjid,Mosque,"RX8C+V48 Islamia masjid, Bhagwanpur, Uttar Pradesh 245207",,RX8C+V48,Bhagwanpur,245207,Uttar Pradesh,IN,https://www.google.com/maps/place/Islamia+masjid/data=!4m7!3m6!1s0x390b7fe9154a3665:0xeea1cce5a932e8c6!8m2!3d28.8171546!4d77.9703282!16s%2Fg%2F11l32b7qs5!19sChIJZTZKFel_CzkRxugyqeXMoe4?authuser=0&hl=en&rclk=1,"28.8171546,77.9703282"
NOOR ALLAH MASJID,Mosque,"P77C+RGR NOOR ALLAH MASJID, Unnamed Road, Block G, Old Mustafabad, New Mustafabad, Delhi, 110094","Block G, Old Mustafabad, New Mustafabad","P77C+RGR, Unnamed Road",Delhi,110094,Delhi,IN,https://www.google.com/maps/place/NOOR+ALLAH+MASJID/data=!4m7!3m6!1s0x390cfd59871598df:0xa77ee6704e1cd13b!8m2!3d28.7146034!4d77.2712638!16s%2Fg%2F11hdk5fbth!19sChIJ35gVh1n9DDkRO9EcTnDmfqc?authuser=0&hl=en&rclk=1,"28.714603399999998,77.2712638"
Masjid Maniharan,Mosque,"QFJX+RQ6 Masjid Maniharan, Malik Nagar, Muradnagar, Uttar Pradesh 201206",Malik Nagar,QFJX+RQ6,Muradnagar,201206,Uttar Pradesh,IN,https://www.google.com/maps/place/Masjid+Maniharan/data=!4m7!3m6!1s0x390cf44c02540001:0xc34ed530206e4367!8m2!3d28.7820472!4d77.4993906!16s%2Fg%2F11g6qdv7nm!19sChIJAQBUAkz0DDkRZ0NuIDDVTsM?authuser=0&hl=en&rclk=1,"28.782047199999997,77.4993906"
Munawra masjid,Mosque,"M7P4+6M2 Munawra masjid, Masjid Road, Third Pushta, Usmanpur, Nayagaon Village, Shahdara, Delhi, 110053","Third Pushta, Nayagaon, Nayagaon Village, Shahdara","M7P4+6M2, Masjid Road, Third Pushta, Usmanpur",Delhi,110053,Delhi,IN,https://www.google.com/maps/place/Munawra+masjid/data=!4m7!3m6!1s0x390cfd030e33f563:0x5dc12b36744f9a85!8m2!3d28.6855176!4d77.2566372!16s%2Fg%2F11hzwz2ypj!19sChIJY_UzDgP9DDkRhZpPdDYrwV0?authuser=0&hl=en&rclk=1,"28.685517599999997,77.2566372"
Masjid Sanauji,Mosque,"Masjid Sanauji, Shop No. 1630, Lal Kuan, Lalkuan Bazar Rd, Baradari, Chandni Chowk, New Delhi, Delhi 110006","Bazar Sirkiwalan, Baradari, Chandni Chowk","Shop No. 1630, Lal Kuan, Lalkuan Bazar Rd","New Delhi, Delhi",110006,Delhi,IN,https://www.google.com/maps/place/Masjid+Sanauji/data=!4m7!3m6!1s0x390cfd13fe3ea72d:0x27ea23bc5f650202!8m2!3d28.6529317!4d77.2232485!16s%2Fg%2F12hplq4pp!19sChIJLac-_hP9DDkRAgJlX7wj6ic?authuser=0&hl=en&rclk=1,"28.6529317,77.2232485"
Masjid,Mosque,"P26W+G9R Masjid, Sharma Enclave, Phase II, Rohini, New Delhi, Delhi, 110086","Sharma Enclave, Phase II, Rohini",P26W+G9R,"New Delhi, Delhi",110086,Delhi,IN,https://www.google.com/maps/place/Masjid/data=!4m7!3m6!1s0x390d0665424343cf:0xe967304e46362a9e!8m2!3d28.7113688!4d77.045882!16s%2Fg%2F11gfgxlbhp!19sChIJz0NDQmUGDTkRnio2Rk4wZ-k?authuser=0&hl=en&rclk=1,"28.7113688,77.04588199999999"
Jamia Masjid (Jamia Mazhariya Khalila Madarsa),Mosque,"MC87+897 Jamia Masjid (Jamia Mazhariya Khalila Madarsa), Islam Nagar, Madhopura, Ghaziabad, Uttar Pradesh 201009","Islam Nagar, Madhopura",MC87+897,Ghaziabad,201009,Uttar Pradesh,IN,https://www.google.com/maps/place/Jamia+Masjid+%28Jamia+Mazhariya+Khalila+Madarsa%29/data=!4m7!3m6!1s0x390cf0480e4c2a2f:0x1822670e8968be52!8m2!3d28.6657875!4d77.4134147!16s%2Fg%2F11g9dl8h05!19sChIJLypMDkjwDDkRUr5oiQ5nIhg?authuser=0&hl=en&rclk=1,"28.6657875,77.41341469999999"
Baghwali Masjid msjd bG wly,Mosque,"Baghwali Masjid msjd bG wly, 785, Nicholson Rd, Kashmere Gate, New Delhi, Delhi 110006","Ganda Nala Bazar, Kashmere Gate","785, Nicholson Rd","New Delhi, Delhi",110006,Delhi,IN,https://www.google.com/maps/place/Baghwali+Masjid+%D9%85%D8%B3%D8%AC%D8%AF+%D8%A8%D8%A7%D8%BA+%D9%88%D8%A7%D9%84%DB%8C%E2%80%AD/data=!4m7!3m6!1s0x390cfd092767785b:0xd4966cf4d21cbda8!8m2!3d28.6653187!4d77.2261277!16s%2Fg%2F12llwbr4n!19sChIJW3hnJwn9DDkRqL0c0vRsltQ?authuser=0&hl=en&rclk=1,"28.6653187,77.22612769999999"
Masjid Shokatul Islam,Mosque,"Masjid Shokatul Islam, Islam Nagar, Khatauli, Khatauli Rural, Uttar Pradesh 251201",Islam Nagar,,"Khatauli, Khatauli Rural",251201,Uttar Pradesh,IN,https://www.google.com/maps/place/Masjid+Shokatul+Islam/data=!4m7!3m6!1s0x390c126115555555:0xad13fe73f0c1a920!8m2!3d29.2707381!4d77.7264226!16s%2Fg%2F11g01s8w81!19sChIJVVVVFWESDDkRIKnB8HP-E60?authuser=0&hl=en&rclk=1,"29.2707381,77.72642259999999"
Madina Masjid,Mosque,"Madina Masjid, Islam Nagar, Khatauli, Khatauli Rural, Uttar Pradesh 251201",Islam Nagar,,"Khatauli, Khatauli Rural",251201,Uttar Pradesh,IN,https://www.google.com/maps/place/Madina+Masjid/data=!4m7!3m6!1s0x390c126479ef1d0f:0x3ec6048654d41619!8m2!3d29.2732577!4d77.7304189!16s%2Fg%2F11cn2v964n!19sChIJDx3veWQSDDkRGRbUVIYExj4?authuser=0&hl=en&rclk=1,"29.2732577,77.73041889999999"
Chand Masjid,Mosque,"Q77M+2XF Chand Masjid, 30 Foota Rd, Ashok Vihar, Loni Dehat, Uttar Pradesh 201102","Ashok Vihar, Loni Dehat","Q77M+2XF, 30 Foota Rd",,201102,Uttar Pradesh,IN,https://www.google.com/maps/place/Chand+Masjid/data=!4m7!3m6!1s0x390cff6edd6ee9f9:0xc81b92f08ef6941b!8m2!3d28.7625525!4d77.2849191!16s%2Fg%2F11g2z8h8xf!19sChIJ-elu3W7_DDkRG5T2jvCSG8g?authuser=0&hl=en&rclk=1,"28.762552499999998,77.2849191"
Masjid,Mosque,"M9GV+PR9 Masjid, GT Rd, Arthala, Mohan Nagar, Ghaziabad, Uttar Pradesh 201007","Arthala, Mohan Nagar","M9GV+PR9, GT Rd",Ghaziabad,201007,Uttar Pradesh,IN,https://www.google.com/maps/place/Masjid/data=!4m7!3m6!1s0x390cf065cf56eeaf:0xc0557cefe1045701!8m2!3d28.676795!4d77.3945942!16s%2Fg%2F11b6tbcnt9!19sChIJr-5Wz2XwDDkRAVcE4e98VcA?authuser=0&hl=en&rclk=1,"28.676795,77.3945942"
meena Mosque,Mosque,"meena Mosque, Ghaziabad, Mirzapur, Pratap Vihar, Ghaziabad, Uttar Pradesh 201009","Mirzapur, Pratap Vihar",Ghaziabad,Ghaziabad,201009,Uttar Pradesh,IN,https://www.google.com/maps/place/meena+Mosque/data=!4m7!3m6!1s0x390cf02c35404d8d:0x1f784133baff7edf!8m2!3d28.6510576!4d77.4199137!16s%2Fg%2F11gbz2rj46!19sChIJjU1ANSzwDDkR337_ujNBeB8?authuser=0&hl=en&rclk=1,"28.651057599999998,77.4199137"
Masjid Aashikan-E-Rasool,Mosque,"Masjid Aashikan-E-Rasool, B168A, Block B, Baljit Nagar, Patel Nagar, New Delhi, Delhi, 110008","Block B, Baljit Nagar, Patel Nagar",B168A,"New Delhi, Delhi",110008,Delhi,IN,https://www.google.com/maps/place/Masjid+Aashikan-E-Rasool/data=!4m7!3m6!1s0x390d03568277eb99:0x27959f1a230ab399!8m2!3d28.6610366!4d77.1631945!16s%2Fg%2F11qz5hv88s!19sChIJmet3glYDDTkRmbMKIxqflSc?authuser=0&hl=en&rclk=1,"28.6610366,77.1631945"
Ishaq Masjid,Mosque,"Ishaq Masjid, Ishaq Masjid Wali Gali, Block C, Sarai Kale Khan, New Delhi, Delhi 110013","Block C, Sarai Kale Khan",Ishaq Masjid Wali Gali,New Delhi,110013,Delhi,IN,https://www.google.com/maps/place/Ishaq+Masjid/data=!4m7!3m6!1s0x390ce376f8a80f59:0x43d242dbd3376818!8m2!3d28.5849571!4d77.2565889!16s%2Fg%2F11q2tx_6x1!19sChIJWQ-o-HbjDDkRGGg309tC0kM?authuser=0&hl=en&rclk=1,"28.5849571,77.2565889"
Masjid,Mosque,"H77Q+868 Masjid, Okhla Village, Okhla, New Delhi, Delhi 110025","Okhla Village, Okhla",H77Q+868,New Delhi,110025,Delhi,IN,https://www.google.com/maps/place/Masjid/data=!4m7!3m6!1s0x390ce47512f7aa2b:0x544337a9b9e5d7a2!8m2!3d28.5632814!4d77.2880932!16s%2Fg%2F11gbtpj5td!19sChIJK6r3EnXkDDkRotfluak3Q1Q?authuser=0&hl=en&rclk=1,"28.563281399999997,77.28809319999999"
Masjid Noorul Islam(chotti masjid),Mosque,"G8GH+84X Masjid Noorul Islam(chotti masjid), Madanpur Khadar Phase 3, Madanpur Khadar, New Delhi, Delhi 110076","Madanpur Khadar Phase 3, Madanpur Khadar",G8GH+84X,New Delhi,110076,Delhi,IN,https://www.google.com/maps/place/Masjid+Noorul+Islam%28chotti+masjid%29/data=!4m7!3m6!1s0x390ce71a1a382a2f:0xf70170af0a005edc!8m2!3d28.5258612!4d77.3278717!16s%2Fg%2F11gmyh4_c2!19sChIJLyo4GhrnDDkR3F4ACq9wAfc?authuser=0&hl=en&rclk=1,"28.525861199999998,77.3278717"
Ijaba Masjid,Mosque,"Ijaba Masjid, 1489/16, Block D, Chand Vihar, New Mustafabad, Delhi, 110094","Block D, Chand Vihar, New Mustafabad",1489/16,Delhi,110094,Delhi,IN,https://www.google.com/maps/place/Ijaba+Masjid/data=!4m7!3m6!1s0x390cfd4112cff819:0x124578cf76e8540b!8m2!3d28.7086594!4d77.2713446!16s%2Fg%2F11j08711wr!19sChIJGfjPEkH9DDkRC1Tods94RRI?authuser=0&hl=en&rclk=1,"28.7086594,77.27134459999999"
Madani jama masjid,Mosque,"Madani jama masjid, 135, Islam Nagar, Madhopura, Ghaziabad, Uttar Pradesh 201009","Islam Nagar, Madhopura",135,Ghaziabad,201009,Uttar Pradesh,IN,https://www.google.com/maps/place/Madani+jama+masjid/data=!4m7!3m6!1s0x390cf1fc6a169c95:0xea815e548786d7f6!8m2!3d28.6666144!4d77.4144296!16s%2Fg%2F11km_fzd8k!19sChIJlZwWavzxDDkR9teGh1Regeo?authuser=0&hl=en&rclk=1,"28.6666144,77.41442959999999"
Mr.SAHEEM MALIK,Mosque,"Mr.SAHEEM MALIK, Gali no. 3 - Tirpal Factory Mustafabad, near Ayisha masjid, 25 Futa Rd, near by Aisha Masjid, chowk, Delhi 110094","Shakti Vihar, Old Mustafabad, chowk","Gali no. 3 - Tirpal Factory Mustafabad, near Ayisha masjid, 25 Futa Rd, near by Aisha Masjid",Delhi,110094,Delhi,IN,https://www.google.com/maps/place/Mr.SAHEEM+MALIK/data=!4m7!3m6!1s0x390cfd9a44cd4997:0xffdc8860c53e3f2b!8m2!3d28.7159667!4d77.272238!16s%2Fg%2F11h3cwgc8y!19sChIJl0nNRJr9DDkRKz8-xWCI3P8?authuser=0&hl=en&rclk=1,"28.7159667,77.272238"
Masjid,Mosque,"Q6MJ+5H5 Masjid, Badarpur, Madanpur Khadar, New Delhi, 110084",Madanpur Khadar,"Q6MJ+5H5, Badarpur","New Delhi, Delhi",110084,Delhi,IN,https://www.google.com/maps/place/Masjid/data=!4m7!3m6!1s0x390cffb780460377:0x9fe224e9c653e965!8m2!3d28.7828891!4d77.2314704!16s%2Fg%2F11qn790lvq!19sChIJdwNGgLf_DDkRZelTxukk4p8?authuser=0&hl=en&rclk=1,"28.7828891,77.23147039999999"
Masjid,Mosque,"Q7JJ+7WC Masjid, Pavi Sadakpur, Uttar Pradesh 201102",,Q7JJ+7WC,Pavi Sadakpur,201102,Uttar Pradesh,IN,https://www.google.com/maps/place/Masjid/data=!4m7!3m6!1s0x390cff3247b3c4d7:0xf1b7407f946dd8cc!8m2!3d28.7806806!4d77.2822504!16s%2Fg%2F11ggz8tfhy!19sChIJ18SzRzL_DDkRzNhtlH9At_E?authuser=0&hl=en&rclk=1,"28.7806806,77.2822504"
Masjid Abuzar,Mosque,"Masjid Abuzar, MDR 22W, Shivpuri, Khatauli, Uttar Pradesh 251201",Islam Nagar,"MDR 22W, Shivpuri","Khatauli, Khatauli Rural",251201,Uttar Pradesh,IN,https://www.google.com/maps/place/Masjid+Abuzar/data=!4m7!3m6!1s0x390c13250820cf71:0x16f47fa3d6f9a482!8m2!3d29.2718963!4d77.7252712!16s%2Fg%2F11h3_lk_q0!19sChIJcc8gCCUTDDkRgqT51qN_9BY?authuser=0&hl=en&rclk=1,"29.271896299999998,77.7252712"
Umar Masjid,Mosque,"MC66+XHX Umar Masjid, Kaila Khera, Kailash Nagar, Madhopura, Ghaziabad, Uttar Pradesh 201009","Kaila Khera, Kailash Nagar, Madhopura",MC66+XHX,Ghaziabad,201009,Uttar Pradesh,IN,https://www.google.com/maps/place/Umar+Masjid/data=!4m7!3m6!1s0x390cf184ccff4639:0x7a2ae52be73cf891!8m2!3d28.6624755!4d77.4114852!16s%2Fg%2F11jv23r55p!19sChIJOUb_zITxDDkRkfg85yvlKno?authuser=0&hl=en&rclk=1,"28.6624755,77.4114852"
Bazar Wali Masjid,Mosque,"MC79+W5X Bazar Wali Masjid, near bagdad biryani, Kaila Bhatta Village, Madhopura, Ghaziabad, Uttar Pradesh 201009","Kaila Bhatta Village, Madhopura","MC79+W5X, near bagdad biryani",Ghaziabad,201009,Uttar Pradesh,IN,https://www.google.com/maps/place/Bazar+Wali+Masjid/data=!4m7!3m6!1s0x390cf1f5b15a76ff:0xc972ce948f63e9dc!8m2!3d28.6648534!4d77.4179796!16s%2Fg%2F11h_79cf0l!19sChIJ_3ZasfXxDDkR3Oljj5TOcsk?authuser=0&hl=en&rclk=1,"28.6648534,77.4179796"
NAMRA MASJID,Mosque,"QFJW+HPF NAMRA MASJID, muhalla teliyan, Malik Nagar, Muradnagar, Uttar Pradesh 201206",Malik Nagar,"QFJW+HPF, muhalla teliyan",Muradnagar,201206,Uttar Pradesh,IN,https://www.google.com/maps/place/NAMRA+MASJID/data=!4m7!3m6!1s0x390cf51cbe0ee045:0xda8b42c1c55564d1!8m2!3d28.7814307!4d77.4968109!16s%2Fg%2F11g0sy1yv4!19sChIJReAOvhz1DDkR0WRVxcFCi9o?authuser=0&hl=en&rclk=1,"28.781430699999998,77.4968109"
Faatima Masjid Greater Khatauli,Mosque,"7P9F+MWH Faatima Masjid Greater Khatauli, Unnamed Road, Islam Nagar, Khatauli Rural, Uttar Pradesh 251201",Islam Nagar,"7P9F+MWH, Unnamed Road",Khatauli Rural,251201,Uttar Pradesh,IN,https://www.google.com/maps/place/Faatima+Masjid+Greater+Khatauli/data=!4m7!3m6!1s0x390c13ea5b274213:0xcea768185edb389!8m2!3d29.2691934!4d77.7248439!16s%2Fg%2F11fn4hj2gh!19sChIJE0InW-oTDDkRibPthYF26gw?authuser=0&hl=en&rclk=1,"29.2691934,77.7248439"
Aqsa Masjid,Mosque,"7PFG+3R7 Aqsa Masjid, Islam Nagar, Khatauli, Khatauli Rural, Uttar Pradesh 251201",Islam Nagar,7PFG+3R7,"Khatauli, Khatauli Rural",251201,Uttar Pradesh,IN,https://www.google.com/maps/place/Aqsa+Masjid/data=!4m7!3m6!1s0x390c1266b34bfed7:0xc780f4424d9be2a1!8m2!3d29.2726626!4d77.7270343!16s%2Fg%2F11cm40qqrm!19sChIJ1_5Ls2YSDDkRoeKbTUL0gMc?authuser=0&hl=en&rclk=1,"29.2726626,77.7270343"
Madrsa imdadul uloom and masjid,Mosque,"Madrsa imdadul uloom and masjid, B-25, Main Rd, East Laxmi Market, Block B, New Brij Puri, Krishna Nagar, New Delhi, Delhi, 110051","East Laxmi Market, Block B, New Brij Puri, Krishna Nagar","B-25, Main Rd","New Delhi, Delhi",110051,Delhi,IN,https://www.google.com/maps/place/Madrsa+imdadul+uloom+and+masjid/data=!4m7!3m6!1s0x390cfda04739d0e9:0xeb893cdafc532844!8m2!3d28.6436744!4d77.2825759!16s%2Fg%2F11mw5vzf9q!19sChIJ6dA5R6D9DDkRRChT_No8ies?authuser=0&hl=en&rclk=1,"28.6436744,77.2825759"
Old Mugal Masjid,Mosque,"J6X9+P3V Old Mugal Masjid, Qutab Rd, Ram Nagar Market, Aram Nagar, Paharganj, New Delhi, Delhi, 110055","Ram Nagar Market, Aram Nagar, Paharganj","J6X9+P3V, Qutab Rd","New Delhi, Delhi",110055,Delhi,IN,https://www.google.com/maps/place/Old+Mugal+Masjid/data=!4m7!3m6!1s0x390cfd152b1b0125:0x49e032c4a3927074!8m2!3d28.6493546!4d77.2176682!16s%2Fg%2F11ggw008kv!19sChIJJQEbKxX9DDkRdHCSo8Qy4Ek?authuser=0&hl=en&rclk=1,"28.6493546,77.21766819999999"
iilhaami msjid,Mosque,"3rd B, iilhaami msjid, 216, Mansa Mandir Road No. 30, near Khan Builder, Block Y, Kirari Suleman Nagar Village, Sultanpuri, New Delhi, Delhi, 110086","Block Y, Kirari Suleman Nagar Village, Sultanpuri","3rd B, 216, Mansa Mandir Road No. 30, near Khan Builder","New Delhi, Delhi",110086,Delhi,IN,https://www.google.com/maps/place/%E0%A4%88%E0%A4%B2%E0%A4%B9%E0%A4%BE%E0%A4%AE%E0%A4%BF+%E0%A4%AE%E0%A4%B8%E0%A5%8D%E0%A4%9C%E0%A4%BF%E0%A4%A6/data=!4m7!3m6!1s0x390d050883950109:0x5a59585660de2d19!8m2!3d28.6979831!4d77.0513459!16s%2Fg%2F11rn7c569l!19sChIJCQGVgwgFDTkRGS3eYFZYWVo?authuser=0&hl=en&rclk=1,"28.6979831,77.0513459"
Masjid,Mosque,"Masjid, 2508, Fasil Rd, Gali Sakko Wali, Shah Ganj, Chandni Chowk, New Delhi, Delhi, 110006","Gali Sakko Wali, Shah Ganj, Chandni Chowk","2508, Fasil Rd","New Delhi, Delhi",110006,Delhi,IN,https://www.google.com/maps/place/Masjid/data=!4m7!3m6!1s0x390cfd15c9a8a4b1:0xf975aada141da03e!8m2!3d28.6491552!4d77.2220471!16s%2Fg%2F1hm4gjxkd!19sChIJsaSoyRX9DDkRPqAdFNqqdfk?authuser=0&hl=en&rclk=1,"28.6491552,77.2220471"
AbuBakr masjid Ahle Hadees,Mosque,"AbuBakr masjid Ahle Hadees, G-395, Block B, Old Mustafabad, New Mustafabad, New Delhi, Delhi, 110053","Block B, Old Mustafabad, New Mustafabad",G-395,"New Delhi, Delhi",110053,Delhi,IN,https://www.google.com/maps/place/AbuBakr+masjid+Ahle+Hadees/data=!4m7!3m6!1s0x390cfd722267a05d:0x32d00ac5a268d7e2!8m2!3d28.7140512!4d77.2717494!16s%2Fg%2F11rl99pg0l!19sChIJXaBnInL9DDkR4tdoosUK0DI?authuser=0&hl=en&rclk=1,"28.7140512,77.27174939999999"
Madeena Masjid,Mosque,"Madeena Masjid, Mohalla Madeena Masjid, Mohalla Abbas Nagar, Chholas, Uttar Pradesh 203207",Mohalla Abbas Nagar,Mohalla Madeena Masjid,Chholas,203207,Uttar Pradesh,IN,https://www.google.com/maps/place/Madeena+Masjid/data=!4m7!3m6!1s0x390c942a2d011385:0x2f139d48a65976d3!8m2!3d28.5299814!4d77.6528966!16s%2Fg%2F11cr_9lkkc!19sChIJhRMBLSqUDDkR03ZZpkidEy8?authuser=0&hl=en&rclk=1,"28.529981399999997,77.65289659999999"
Eidgah Masjid,Mosque,"MC89+4P3 Eidgah Masjid, Gali No. 1, near Meena masjid, Islam Nagar, Madhopura, Ghaziabad, Uttar Pradesh 201009","Islam Nagar, Madhopura","MC89+4P3, Gali No. 1, near Meena masjid",Ghaziabad,,Uttar Pradesh,IN,https://www.google.com/maps/place/Eidgah+Masjid/data=!4m7!3m6!1s0x390cf120a22cee4f:0x658a3d7cfb08da96!8m2!3d28.665259!4d77.4192871!16s%2Fg%2F11td5pdnql!19sChIJT-4soiDxDDkRltoI-3w9imU?authuser=0&hl=en&rclk=1,"28.665259,77.41928709999999"
Masjid,Mosque,"MC89+GGH Masjid, Moti Masjid Rd, Islam Nagar Village, Madhopura, Ghaziabad, Uttar Pradesh 201001","Islam Nagar Village, Madhopura","MC89+GGH, Moti Masjid Rd",Ghaziabad,201001,Uttar Pradesh,IN,https://www.google.com/maps/place/Masjid/data=!4m7!3m6!1s0x390cf04a1c6528db:0x4cbf953ba053d1a3!8m2!3d28.666313!4d77.41887!16s%2Fg%2F1ptw4ynjj!19sChIJ2yhlHErwDDkRo9FToDuVv0w?authuser=0&hl=en&rclk=1,"28.666313,77.41887"
Masjid,Mosque,"Masjid, Generator section LNH, Maulana Azad Medical College Campus, LNJP Colony, New Delhi, Delhi, 110002","Maulana Azad Medical College Campus, LNJP Colony",Generator section LNH,"New Delhi, Delhi",110002,Delhi,IN,https://www.google.com/maps/place/Masjid/data=!4m7!3m6!1s0x390cfda80d3a142f:0x7e63ba6e21dc1e97!8m2!3d28.6378466!4d77.2379581!16s%2Fg%2F11ss881009!19sChIJLxQ6Daj9DDkRlx7cIW66Y34?authuser=0&hl=en&rclk=1,"28.6378466,77.2379581"
Sunehri Masjid (snhry msjd),Mosque,"P7XW+F2R Sunehri Masjid (snhry msjd), Sunehri Maszid Rd, Islam Nagar, Mustafabad, Loni Dehat, Ghaziabad, Uttar Pradesh 201102","Islam Nagar, Mustafabad","P7XW+F2R, Sunehri Maszid Rd","Loni Dehat, Ghaziabad",201102,Uttar Pradesh,IN,https://www.google.com/maps/place/Sunehri+Masjid+%28%D8%B3%D9%86%DB%81%D8%B1%DB%8C+%D9%85%D8%B3%D8%AC%D8%AF%29%E2%80%AD/data=!4m7!3m6!1s0x390cf9bafe0a8a4b:0x76b266bdd6ba1ae5!8m2!3d28.7486993!4d77.2950032!16s%2Fg%2F11vjjjrn9z!19sChIJS4oK_rr5DDkR5Rq61r1msnY?authuser=0&hl=en&rclk=1,"28.7486993,77.2950032"
Kuba Masjid Pathano Wali,Mosque,"QFHW+JG4 Kuba Masjid Pathano Wali, moholla PATAHANAN, Muradnagar, Uttar Pradesh 201206",moholla PATAHANAN,QFHW+JG4,Muradnagar,201206,Uttar Pradesh,IN,https://www.google.com/maps/place/Kuba+Masjid+Pathano+Wali/data=!4m7!3m6!1s0x390cf5c247352a3b:0xe9197228251482ff!8m2!3d28.7790093!4d77.4963405!16s%2Fg%2F11f6cyfmbg!19sChIJOyo1R8L1DDkR_4IUJShyGek?authuser=0&hl=en&rclk=1,"28.7790093,77.4963405"
Aaysha Masjid,Mosque,"P7CX+QMG Aaysha Masjid, Behta Hajipur, Ghaziabad, Uttar Pradesh 201102",Behta Hajipur,P7CX+QMG,Ghaziabad,201102,Uttar Pradesh,IN,https://www.google.com/maps/place/Aaysha+Masjid/data=!4m7!3m6!1s0x390cfbf022f89051:0xb013b8564338f97b!8m2!3d28.7219416!4d77.2992103!16s%2Fg%2F11mqtwgw0n!19sChIJUZD4IvD7DDkRe_k4Q1a4E7A?authuser=0&hl=en&rclk=1,"28.721941599999997,77.2992103"
Jinno Wali Masjid Malyana,Mosque,"XM87+7RC Jinno Wali Masjid Malyana, badi masjid Holi chowk road, Malyana, Meerut, Uttar Pradesh 250002",Malyana,"XM87+7RC, badi masjid Holi chowk road",Meerut,250002,Uttar Pradesh,IN,https://www.google.com/maps/place/Jinno+Wali+Masjid+Malyana/data=!4m7!3m6!1s0x390c65b27902c17d:0x245b403053f02e8f!8m2!3d28.9656804!4d77.6645274!16s%2Fg%2F11h1dkdg9b!19sChIJfcECebJlDDkRjy7wUzBAWyQ?authuser=0&hl=en&rclk=1,"28.9656804,77.6645274"
Nizamia Masjid,Mosque,"MC79+RV9 Nizamia Masjid, Kaila Bhatta Village, Madhopura, Ghaziabad, Uttar Pradesh 201009","Kaila Bhatta Village, Madhopura",MC79+RV9,Ghaziabad,201009,Uttar Pradesh,IN,https://www.google.com/maps/place/Nizamia+Masjid/data=!4m7!3m6!1s0x390cf15d5b6a7ab5:0x69565ff60059a1c1!8m2!3d28.6645307!4d77.4197467!16s%2Fg%2F11j5d2_406!19sChIJtXpqW13xDDkRwaFZAPZfVmk?authuser=0&hl=en&rclk=1,"28.6645307,77.41974669999999"
Gali no 2 masjid,Mosque,"Gali no 2 masjid, Street Number 4, Pappu Colony, Bhopura, Shalimar Garden, Ghaziabad, Uttar Pradesh 201005","Pappu Colony, Bhopura, Shalimar Garden",Street Number 4,Ghaziabad,201005,Uttar Pradesh,IN,https://www.google.com/maps/place/Gali+no+2+masjid/data=!4m7!3m6!1s0x390cfb86cefe8523:0xba5520de533d9fb6!8m2!3d28.6905265!4d77.3328924!16s%2Fg%2F11ngjfpxr2!19sChIJI4X-zob7DDkRtp89U94gVbo?authuser=0&hl=en&rclk=1,"28.690526499999997,77.33289239999999"
Masjid,Mosque,"Masjid, Gali No 19, Gali Number 1, Mustafabad Extn, New Mustafabad, Delhi, 110094","E2 Block, Mustafabad Extn, New Mustafabad","Gali No 19, Gali Number 1",Delhi,110094,Delhi,IN,https://www.google.com/maps/place/Masjid/data=!4m7!3m6!1s0x390cfc1b020b0e91:0xb48a3c3233e41cbd!8m2!3d28.711773!4d77.272563!16s%2Fg%2F12hpqnhjr!19sChIJkQ4LAhv8DDkRvRzkMzI8irQ?authuser=0&hl=en&rclk=1,"28.711772999999997,77.27256299999999"
Masjid,Mosque,"289, Masjid, Indra Market, Muradnagar, Uttar Pradesh 201206",,"289, Indra Market",Muradnagar,201206,Uttar Pradesh,IN,https://www.google.com/maps/place/Masjid/data=!4m7!3m6!1s0x390cf51147d007eb:0x30f23314874815d6!8m2!3d28.7713207!4d77.5067395!16s%2Fg%2F11q_ng8w37!19sChIJ6wfQRxH1DDkR1hVIhxQz8jA?authuser=0&hl=en&rclk=1,"28.7713207,77.5067395"
Mecca Masjid [mkkaa msjid],Mosque,"945R+QVV Mecca Masjid [mkkaa msjid], Mohalla:, Islam Nagar, Bijnor, Uttar Pradesh 246701",Mohalla:,945R+QVV,"Islam Nagar, Bijnor",246701,Uttar Pradesh,IN,https://www.google.com/maps/place/Mecca+Masjid+%5B%E0%A4%AE%E0%A4%95%E0%A5%8D%E0%A4%95%E0%A4%BE+%E0%A4%AE%E0%A4%B8%E0%A5%8D%E0%A4%9C%E0%A4%BF%E0%A4%A6%5D/data=!4m7!3m6!1s0x390bef824fcdca53:0xcd6a14f7718bf272!8m2!3d29.3594828!4d78.1421679!16s%2Fg%2F11vkqqdl9w!19sChIJU8rNT4LvCzkRcvKLcfcUas0?authuser=0&hl=en&rclk=1,"29.3594828,78.14216789999999"
Aksha masjid,Mosque,"365C+67P Aksha masjid, Village,bahtaula, post, Basta, Uttar Pradesh 246736",,"365C+67P, Village,bahtaula, post","Basta, Halupura",246736,Uttar Pradesh,IN,https://www.google.com/maps/place/Aksha+masjid/data=!4m7!3m6!1s0x390b99a716c217ed:0xd0ec5e00b0f2ce7b!8m2!3d29.0580796!4d78.2206908!16s%2Fg%2F11r6bqqtl8!19sChIJ7RfCFqeZCzkRe87ysABe7NA?authuser=0&hl=en&rclk=1,"29.0580796,78.2206908"
Musalla Masjid,Mosque,"Musalla Masjid, A84, Gali Number 19, Block B, Bharat Vihar, Madhu Vihar, New Delhi, Delhi, 110059","Block B, Bharat Vihar, Madhu Vihar","A84, Gali Number 19","New Delhi, Delhi",110059,Delhi,IN,https://www.google.com/maps/place/Musalla+Masjid/data=!4m7!3m6!1s0x390d1b5228eab2b5:0x4c225624c80dfd40!8m2!3d28.6062216!4d77.0614438!16s%2Fg%2F11t6nng3_f!19sChIJtbLqKFIbDTkRQP0NyCRWIkw?authuser=0&hl=en&rclk=1,"28.606221599999998,77.06144379999999"
Quan Wali Masjid,Mosque,"Quan Wali Masjid, 589, Dayalpur, Block B, New Mustafabad, New Delhi, Delhi, 110090","Dayalpur, Block B, New Mustafabad",589,"New Delhi, Delhi",110090,Delhi,IN,https://www.google.com/maps/place/Quan+Wali+Masjid/data=!4m7!3m6!1s0x390cfd87aba84b93:0x9969f0778f46964b!8m2!3d28.7150291!4d77.2735857!16s%2Fg%2F11tmk_70nl!19sChIJk0uoq4f9DDkRS5ZGj3fwaZk?authuser=0&hl=en&rclk=1,"28.7150291,77.2735857"
Masjid,Mosque,"M794+RG5 Masjid, Block A, Shastri Park, Shahdara, Delhi, 110053","Block A, Shastri Park, Shahdara",M794+RG5,Delhi,,Delhi,IN,https://www.google.com/maps/place/Masjid/data=!4m7!3m6!1s0x390cfd74b6378221:0x2da5c9212f831088!8m2!3d28.6695164!4d77.2563643!16s%2Fg%2F11tb42z9g0!19sChIJIYI3tnT9DDkRiBCDLyHJpS0?authuser=0&hl=en&rclk=1,"28.6695164,77.2563643"
MASJID BURNA QURESH NAGAR,Mosque,"MASJID BURNA QURESH NAGAR, Masjid, Gali Barna, Quresh Nagar, Naulakha, Sarai Khalil, Sadar Bazaar, Delhi, 110006","Quresh Nagar, Naulakha, Sarai Khalil, Sadar Bazaar","Masjid, Gali Barna",Delhi,110006,Delhi,IN,https://www.google.com/maps/place/MASJID+BURNA+QURESH+NAGAR/data=!4m7!3m6!1s0x390cfd3d778af761:0x1c8c55265cb97e56!8m2!3d28.6558265!4d77.2088988!16s%2Fg%2F11jz6fqf68!19sChIJYfeKdz39DDkRVn65XCZVjBw?authuser=0&hl=en&rclk=1,"28.6558265,77.2088988"
Islamnagar Makki Masjid,Mosque,"96Q6+XV5 Islamnagar Makki Masjid, Jahanpur, Kairana, Uttar Pradesh 247774",Jahanpur,96Q6+XV5,Kairana,247774,Uttar Pradesh,IN,https://www.google.com/maps/place/Islamnagar+Makki+Masjid/data=!4m7!3m6!1s0x390c2deb2c86fc65:0xaccdf1a061716b6!8m2!3d29.3899085!4d77.2122339!16s%2Fg%2F11sk5rdpg_!19sChIJZfyGLOstDDkRthYXBhrfzAo?authuser=0&hl=en&rclk=1,"29.389908499999997,77.2122339"
Bazar Wali Masjid Kaila Bhatta,Mosque,"MC7F+JHF Bazar Wali Masjid Kaila Bhatta, New Basti, Delhi Gate, Nai Basti, Naya Ganj, Ghaziabad, Uttar Pradesh 201001","New Basti, Delhi Gate, Nai Basti, Naya Ganj",MC7F+JHF,Ghaziabad,,Uttar Pradesh,IN,https://www.google.com/maps/place/Bazar+Wali+Masjid+Kaila+Bhatta/data=!4m7!3m6!1s0x390cf120d1d912c1:0x5e545b91bb3257e9!8m2!3d28.6640655!4d77.4239278!16s%2Fg%2F11sf6f_w4f!19sChIJwRLZ0SDxDDkR6Vcyu5FbVF4?authuser=0&hl=en&rclk=1,"28.6640655,77.4239278"
HAJI JAMEEL BAGHWALIA,Wholesaler,"HAJI JAMEEL BAGHWALIA, Gali No. 1, near MEENA MASJID, Islam Nagar, Naya Ganj, Ghaziabad, Uttar Pradesh 201001","Islam Nagar, Naya Ganj","Gali No. 1, near MEENA MASJID",Ghaziabad,201001,Uttar Pradesh,IN,https://www.google.com/maps/place/HAJI+JAMEEL+BAGHWALIA/data=!4m7!3m6!1s0x390cf1f994e63c3b:0xbe8bbd66ca628218!8m2!3d28.6645112!4d77.4178219!16s%2Fg%2F11tfqb8bzd!19sChIJOzzmlPnxDDkRGIJiyma9i74?authuser=0&hl=en&rclk=1,"28.6645112,77.41782189999999"
Afzal Masjid,Mosque,"Afzal Masjid, New islam nagar water tank ke samne wali gali no. 35 fatahullapur road, Uttar Pradesh",Shyam Nagar,New islam nagar water tank ke samne wali gali no. 35 fatahullapur road,Meerut,,Uttar Pradesh,IN,https://www.google.com/maps/place/Afzal+Masjid/data=!4m7!3m6!1s0x390c653499eb975f:0xf1f965b474a2dab8!8m2!3d28.9463281!4d77.7159209!16s%2Fg%2F11q8swd47s!19sChIJX5frmTRlDDkRuNqidLRl-fE?authuser=0&hl=en&rclk=1,"28.9463281,77.7159209"
Masjid Aksa.... Ashraf Choudhary,Mosque,"M9HX+Q5G Masjid Aksa.... Ashraf Choudhary, WEST -NORTH NEELMANI COLONY, Neelmani Colony, Loni Industrial Area, Ghaziabad, Uttar Pradesh 201007","WEST -NORTH NEELMANI COLONY, Neelmani Colony, Loni Industrial Area",M9HX+Q5G,Ghaziabad,201007,Uttar Pradesh,IN,https://www.google.com/maps/place/Masjid+Aksa....+Ashraf+Choudhary/data=!4m7!3m6!1s0x390cf1794be0827b:0xb8db3cffb8132a5e!8m2!3d28.6794375!4d77.3979645!16s%2Fg%2F11h76gm4yd!19sChIJe4LgS3nxDDkRXioTuP8827g?authuser=0&hl=en&rclk=1,"28.6794375,77.3979645"
Masjid,Mosque,"Masjid, 20, Masjid Rd, Pervesh Nagar, Mubarakpur Dabas, New Delhi, Delhi, 110081","Pervesh Nagar, Mubarakpur Dabas","20, Masjid Rd","New Delhi, Delhi",110081,Delhi,IN,https://www.google.com/maps/place/Masjid/data=!4m7!3m6!1s0x390d075632dea237:0xe707b406c4cff64!8m2!3d28.7098866!4d77.0310854!16s%2Fg%2F11kq2cq2_1!19sChIJN6LeMlYHDTkRZP9MbEB7cA4?authuser=0&hl=en&rclk=1,"28.709886599999997,77.0310854"
Jamete islami Markaz Masjid,Mosque,"H73W+G6F Jamete islami Markaz Masjid, Abul Fazal Enclave Part 2, Jamia Nagar, Okhla, New Delhi, Delhi 110025","Abul Fazal Enclave Part 2, Jamia Nagar, Okhla",H73W+G6F,New Delhi,110025,Delhi,IN,https://www.google.com/maps/place/Jamete+islami+Markaz+Masjid/data=!4m7!3m6!1s0x390ce584b6f10bd5:0xdadc52adbd2e5235!8m2!3d28.5538228!4d77.2955576!16s%2Fg%2F11t061tn1_!19sChIJ1QvxtoTlDDkRNVIuva1S3No?authuser=0&hl=en&rclk=1,"28.5538228,77.2955576"
Islam Nagar,,"Islam Nagar, Madhopura, Ghaziabad, Uttar Pradesh 201009","Islam Nagar, Madhopura",,Ghaziabad,,Uttar Pradesh,IN,https://www.google.com/maps/place/Islam+Nagar/data=!4m7!3m6!1s0x390cf0364477c0f5:0xa86e1d006658a7e2!8m2!3d28.6642987!4d77.4149715!16s%2Fg%2F1v6l5wqz!19sChIJ9cB3RDbwDDkR4qdYZgAdbqg?authuser=0&hl=en&rclk=1,"28.6642987,77.4149715"
BABEY HARAM MASJID,Mosque,"QGF5+56X BABEY HARAM MASJID, GHAZIABAD, Malik Nagar, Muradnagar, Uttar Pradesh 201206",Malik Nagar,"QGF5+56X, GHAZIABAD",Muradnagar,201206,Uttar Pradesh,IN,https://www.google.com/maps/place/BABEY+HARAM+MASJID/data=!4m7!3m6!1s0x390cf45ba35c5691:0xeea46fd3afb40cfc!8m2!3d28.7729985!4d77.5081174!16s%2Fg%2F11h9z04dxh!19sChIJkVZco1v0DDkR_Ay0r9NvpO4?authuser=0&hl=en&rclk=1,"28.7729985,77.5081174"
Masjid,Mosque,"Shop No: 5035, Masjid, Netaji Subhash Marg, Daryaganj, New Delhi, Delhi, 110002",Daryaganj,"Shop No: 5035, Netaji Subhash Marg","New Delhi, Delhi",110002,Delhi,IN,https://www.google.com/maps/place/Masjid/data=!4m7!3m6!1s0x390cfdf175041b95:0x8ef57a2bc9f92c1c!8m2!3d28.6480954!4d77.2403964!16s%2Fg%2F11s664lvxh!19sChIJlRsEdfH9DDkRHCz5ySt69Y4?authuser=0&hl=en&rclk=1,"28.6480954,77.2403964"
Masjid,Mosque,"Masjid, L385, Block L, JJ Colony No 3, Nangloi, New Delhi, Delhi, 110041","Block L, JJ Colony No 3, Nangloi",L385,"New Delhi, Delhi",110041,Delhi,IN,https://www.google.com/maps/place/Masjid/data=!4m7!3m6!1s0x390d0530462f99ad:0xf47aa8290ce093fa!8m2!3d28.6842352!4d77.0742041!16s%2Fg%2F11smtj7p27!19sChIJrZkvRjAFDTkR-pPgDCmoevQ?authuser=0&hl=en&rclk=1,"28.6842352,77.0742041"
Masjid,Mosque,"7PCC+QXH Masjid, Budhana-Khatauli Rd, Shivpuri, Khatauli, Khatauli Rural, Uttar Pradesh 251201",Shivpuri,"7PCC+QXH, Budhana-Khatauli Rd","Khatauli, Khatauli Rural",251201,Uttar Pradesh,IN,https://www.google.com/maps/place/Masjid/data=!4m7!3m6!1s0x390c137fd1e13025:0xc1189012395db145!8m2!3d29.271935!4d77.7224891!16s%2Fg%2F11mwyq_bgv!19sChIJJTDh0X8TDDkRRbFdORKQGME?authuser=0&hl=en&rclk=1,"29.271935,77.72248909999999"
