name,main_category,address,address_ward,address_street,address_city,address_postal_code,address_state,address_country_code,link,coordinates
Madina Masjid,Mosque,"Madina Masjid, Government Junior College, Bhainsa, Telangana 504103",,Government Junior College,Bhainsa,504103,Telangana,IN,https://www.google.com/maps/place/Madina+Masjid/data=!4m7!3m6!1s0x3bcdfe5aef2fd1e3:0x48c8397dc97ab0f6!8m2!3d19.1096769!4d77.9643594!16s%2Fg%2F11b7w99d4p!19sChIJ49Ev71r-zTsR9rB6yX05yEg?authuser=0&hl=en&rclk=1,"19.1096769,77.96435939999999"
Masjid Panjesha,Mosque,"Masjid Panjesha, masjid, panjesha marg, Bhainsa, Telangana 504103",,"masjid, panjesha marg",Bhainsa,,Telangana,IN,https://www.google.com/maps/place/Masjid+Panjesha/data=!4m7!3m6!1s0x3bcdfe45594b318b:0xa9a4527a0d3bdd4e!8m2!3d19.1114013!4d77.9614446!16s%2Fg%2F11xfvxc4m!19sChIJizFLWUX-zTsRTt07DXpSpKk?authuser=0&hl=en&rclk=1,"19.1114013,77.9614446"
Masjid_E_Quba,Mosque,"Masjid_E_Quba, 2-5-216, beside Masjid E Quba Khila, Mohalla Badh, Adilabad, Telangana 504001",Mohalla Badh,"2-5-216, beside Masjid E Quba Khila",Adilabad,504001,Telangana,IN,https://www.google.com/maps/place/Masjid_E_Quba/data=!4m7!3m6!1s0x3bd25bedeaaaaaab:0xe29f9a411d92289b!8m2!3d19.6793188!4d78.5406475!16s%2Fg%2F11bwkvtnj8!19sChIJq6qq6u1b0jsRmyiSHUGan-I?authuser=0&hl=en&rclk=1,"19.6793188,78.54064749999999"
Eid-Gah,Mosque,"4XC4+J65 Eid-Gah, Palsi Road, Telangana 504103",,"4XC4+J65, Palsi Road",,504103,Telangana,IN,https://www.google.com/maps/place/Eid-Gah/data=!4m7!3m6!1s0x3bcdfe4b41f2b35b:0x49272df21ed88662!8m2!3d19.1215231!4d77.9556209!16s%2Fg%2F11b7lhbkzd!19sChIJW7PyQUv-zTsRYobYHvItJ0k?authuser=0&hl=en&rclk=1,"19.121523099999997,77.9556209"
Masjid-e-Umar Farooq,Mosque,"4X79+M2F Masjid-e-Umar Farooq, Umar Farooq St, Abadi, Bhainsa, Telangana 504103",Abadi,"4X79+M2F, Umar Farooq St",Bhainsa,504103,Telangana,IN,https://www.google.com/maps/place/Masjid-e-Umar+Farooq/data=!4m7!3m6!1s0x3bcdfe50d026f4b3:0x9d2df10fc48b7b47!8m2!3d19.1141962!4d77.9675498!16s%2Fg%2F11c1s1_b43!19sChIJs_Qm0FD-zTsRR3uLxA_xLZ0?authuser=0&hl=en&rclk=1,"19.1141962,77.9675498"
MASJID-E-MOMINAN,Mosque,"4X76+4V9 MASJID-E-MOMINAN, mominan Galli, Siddhartha Nagar, Bhainsa, Telangana 504103",Siddhartha Nagar,"4X76+4V9, mominan Galli",Bhainsa,504103,Telangana,IN,https://www.google.com/maps/place/MASJID-E-MOMINAN/data=!4m7!3m6!1s0x3bcdfe4fe1772615:0x1ea8449dd9031e42!8m2!3d19.1127883!4d77.9622459!16s%2Fg%2F11bymwdg7g!19sChIJFSZ34U_-zTsRQh4D2Z1EqB4?authuser=0&hl=en&rclk=1,"19.1127883,77.9622459"
Jama Masjid,Mosque,"4X76+PG6 Jama Masjid, Bhainsa, Telangana 504103",,4X76+PG6,Bhainsa,504103,Telangana,IN,https://www.google.com/maps/place/Jama+Masjid/data=!4m7!3m6!1s0x3bcdfe4fcb6d4d3b:0x5b221d8cd9bf7450!8m2!3d19.1142804!4d77.961278!16s%2Fg%2F11by_ln6gj!19sChIJO01ty0_-zTsRUHS_2YwdIls?authuser=0&hl=en&rclk=1,"19.1142804,77.961278"
Masjid E Tauheed Bhainsa,Mosque,"Masjid E Tauheed Bhainsa, Government Junior College, near jr, Bhainsa, Telangana 504103",,"Government Junior College, near jr",Bhainsa,504103,Telangana,IN,https://www.google.com/maps/place/Masjid+E+Tauheed+Bhainsa/data=!4m7!3m6!1s0x3bcdfe5abe12d209:0xcb0d4c3a60c43c0e!8m2!3d19.1106262!4d77.9637239!16s%2Fg%2F11g8nzxgs0!19sChIJCdISvlr-zTsRDjzEYDpMDcs?authuser=0&hl=en&rclk=1,"19.1106262,77.96372389999999"
masjid Abbu Bakar,Place of worship,"4X68+JHW masjid Abbu Bakar, Bhainsa, Telangana 504103",,4X68+JHW,Bhainsa,504103,Telangana,IN,https://www.google.com/maps/place/masjid+Abbu+Bakar/data=!4m7!3m6!1s0x3bcdfe5a7461957f:0x7d00f2f5551ffdde!8m2!3d19.1116031!4d77.9664603!16s%2Fg%2F11c1v367gg!19sChIJf5VhdFr-zTsR3v0fVfXyAH0?authuser=0&hl=en&rclk=1,"19.1116031,77.9664603"
Masjid E IbadurRahman Ahle Hadees,Mosque,"XWG6+27P Masjid E IbadurRahman Ahle Hadees, Mudhole, Telangana 504102",,XWG6+27P,Mudhole,504102,Telangana,IN,https://www.google.com/maps/place/Masjid+E+IbadurRahman+Ahle+Hadees/data=!4m7!3m6!1s0x3bce080be6d32c33:0x252823fccc2f49dc!8m2!3d18.975097!4d77.9106939!16s%2Fg%2F11g7zv4hq8!19sChIJMyzT5gsIzjsR3EkvzPwjKCU?authuser=0&hl=en&rclk=1,"18.975096999999998,77.9106939"
Osman Masjid,Mosque,"4X47+RJX Osman Masjid, Asad Baba Nagar, Bhainsa, Telangana 504103",Asad Baba Nagar,4X47+RJX,Bhainsa,504103,Telangana,IN,https://www.google.com/maps/place/Osman+Masjid/data=!4m7!3m6!1s0x3bcdfe5b6bc0025d:0x854fb770d38fd2a3!8m2!3d19.107103!4d77.9641068!16s%2Fg%2F11cn6jvztk!19sChIJXQLAa1v-zTsRo9KP03C3T4U?authuser=0&hl=en&rclk=1,"19.107103,77.9641068"
EK MINAR MASJID,Mosque,"4X58+8P8 EK MINAR MASJID, Asad Baba Nagar, Bhainsa, Telangana 504103",Asad Baba Nagar,4X58+8P8,Bhainsa,504103,Telangana,IN,https://www.google.com/maps/place/EK+MINAR+MASJID/data=!4m7!3m6!1s0x3bcdfe5bc8742e03:0x9e4aca298cc82934!8m2!3d19.1082968!4d77.9668355!16s%2Fg%2F11c1wjq5wm!19sChIJAy50yFv-zTsRNCnIjCnKSp4?authuser=0&hl=en&rclk=1,"19.108296799999998,77.9668355"
Zulfaquar Masjid,Mosque,"Zulfaquar Masjid, Batti Galli, Bhainsa, Telangana 504103",,Batti Galli,Bhainsa,504103,Telangana,IN,https://www.google.com/maps/place/Zulfaquar+Masjid/data=!4m7!3m6!1s0x3bcdfe458e005063:0x3327cc952a5d40c3!8m2!3d19.1106687!4d77.9585257!16s%2Fg%2F11b7lgcncq!19sChIJY1AAjkX-zTsRw0BdKpXMJzM?authuser=0&hl=en&rclk=1,"19.110668699999998,77.9585257"
Kaali Masjid,Mosque,"4X86+8VM Kaali Masjid, Bhainsa, Telangana 504103",,4X86+8VM,Bhainsa,504103,Telangana,IN,https://www.google.com/maps/place/Kaali+Masjid/data=!4m7!3m6!1s0x3bcdff01ee4823b7:0x7c003f504db3c40c!8m2!3d19.1158403!4d77.9621864!16s%2Fg%2F11f6mcqf45!19sChIJtyNI7gH_zTsRDMSzTVA_AHw?authuser=0&hl=en&rclk=1,"19.1158403,77.9621864"
Jama Masjid Balapur,Mosque,"VVQ7+G42 Jama Masjid Balapur, Unnamed Road, Balapur Dharmabad, Maharashtra 431809",,"VVQ7+G42, Unnamed Road",Balapur Dharmabad,431809,Maharashtra,IN,https://www.google.com/maps/place/Jama+Masjid+Balapur/data=!4m7!3m6!1s0x3bce09612b4f64b3:0xa43c832f950ffd33!8m2!3d18.8887613!4d77.8627531!16s%2Fg%2F11gbxb0tkx!19sChIJs2RPK2EJzjsRM_0PlS-DPKQ?authuser=0&hl=en&rclk=1,"18.8887613,77.86275309999999"
Mehbobiya Masjid,Mosque,"VRWX+4RW Mehbobiya Masjid, Unnamed Road, Dharmabad, Maharashtra 431809",,"VRWX+4RW, Unnamed Road",Dharmabad,431809,Maharashtra,IN,https://www.google.com/maps/place/Mehbobiya+Masjid/data=!4m7!3m6!1s0x3bce09456ac5ab6f:0x36b472ee20305144!8m2!3d18.8953653!4d77.8495855!16s%2Fg%2F11g6zhfr0d!19sChIJb6vFakUJzjsRRFEwIO5ytDY?authuser=0&hl=en&rclk=1,"18.895365299999998,77.8495855"
Makkah Masjid,Mosque,"XWG6+PX2 Makkah Masjid, Mudhole, Telangana 504102",,XWG6+PX2,Mudhole,504102,Telangana,IN,https://www.google.com/maps/place/Makkah+Masjid/data=!4m7!3m6!1s0x3bce0809755c9b3f:0x48d5663eeadd5675!8m2!3d18.976772!4d77.9123917!16s%2Fg%2F11c1xm9fpd!19sChIJP5tcdQkIzjsRdVbd6j5m1Ug?authuser=0&hl=en&rclk=1,"18.976772,77.9123917"
Jama Masjid,Mosque,"XWG6+C48 Jama Masjid, Mudhole, Telangana 504102",,XWG6+C48,Mudhole,504102,Telangana,IN,https://www.google.com/maps/place/Jama+Masjid/data=!4m7!3m6!1s0x3bce080bcfe00875:0x521c3c0cceda907b!8m2!3d18.976033!4d77.910315!16s%2Fg%2F11cs6hpvpt!19sChIJdQjgzwsIzjsRe5Dazgw8HFI?authuser=0&hl=en&rclk=1,"18.976032999999997,77.910315"
Masjid-E-Bilal,Religious destination,"Ward no 8, Masjid-E-Bilal, Baraimam galliy, Bhainsa, Telangana 504103",,"Ward no 8, Baraimam galliy",Bhainsa,,Telangana,IN,https://www.google.com/maps/place/Masjid-E-Bilal/data=!4m7!3m6!1s0x3bcdff7d9ed1862d:0xc152153d2799454f!8m2!3d19.1132198!4d77.963905!16s%2Fg%2F11j018hd_k!19sChIJLYbRnn3_zTsRT0WZJz0VUsE?authuser=0&hl=en&rclk=1,"19.1132198,77.963905"
ISLAMIA MASJID,Mosque,"33P9+Q3G ISLAMIA MASJID, Unnamed Road, Pendapalle, Telangana 504109",,"33P9+Q3G, Unnamed Road",Pendapalle,504109,Telangana,IN,https://www.google.com/maps/place/ISLAMIA+MASJID/data=!4m7!3m6!1s0x3bcdf9a84cf030af:0x3505c992c42fe512!8m2!3d19.0869441!4d78.0677168!16s%2Fg%2F11h1lsvqdn!19sChIJrzDwTKj5zTsREuUvxJLJBTU?authuser=0&hl=en&rclk=1,"19.0869441,78.0677168"
EIDGAH MUDHOLE,Mosque,"XWJ9+GF6 EIDGAH MUDHOLE, Mudhole, Telangana 504102",,XWJ9+GF6,Mudhole,504102,Telangana,IN,https://www.google.com/maps/place/EIDGAH+MUDHOLE/data=!4m7!3m6!1s0x3bce07fd6c3d37c5:0xd851295bd8707bd0!8m2!3d18.9812863!4d77.9186262!16s%2Fg%2F11gck4xmd2!19sChIJxTc9bP0HzjsR0Htw2FspUdg?authuser=0&hl=en&rclk=1,"18.9812863,77.91862619999999"
Madina Masjid,Mosque,"XWPC+CGC Madina Masjid, Mudhole St, Mudhole, Telangana 504102",,"XWPC+CGC, Mudhole St",Mudhole,504102,Telangana,IN,https://www.google.com/maps/place/Madina+Masjid/data=!4m7!3m6!1s0x3bce07fc0d5ab6d9:0xef39beed9a49c2b0!8m2!3d18.9860691!4d77.9212626!16s%2Fg%2F11fyzflsc6!19sChIJ2bZaDfwHzjsRsMJJmu2-Oe8?authuser=0&hl=en&rclk=1,"18.986069099999998,77.92126259999999"
Masjid-E-Imam Unnissa,Mosque,"4X88+73C Masjid-E-Imam Unnissa, Bhainsa, Telangana 504103",,4X88+73C,Bhainsa,504103,Telangana,IN,https://www.google.com/maps/place/Masjid-E-Imam+Unnissa/data=!4m7!3m6!1s0x3bcdff48f9d34921:0xbfa3a3b4df1b04b1!8m2!3d19.1156767!4d77.965154!16s%2Fg%2F11n60wjr3b!19sChIJIUnT-Uj_zTsRsQQb37Sjo78?authuser=0&hl=en&rclk=1,"19.115676699999998,77.965154"
Puspoor Jama Masjid,Mosque,"22XJ+P6Q Puspoor Jama Masjid, Puspur, Telangana 504102",,22XJ+P6Q,Puspur,504102,Telangana,IN,https://www.google.com/maps/place/Puspoor+Jama+Masjid/data=!4m7!3m6!1s0x3bcdfb8e2e750bc9:0x687fc9f12d518e7d!8m2!3d19.0493459!4d78.0306125!16s%2Fg%2F11hbnncv9l!19sChIJyQt1Lo77zTsRfY5RLfHJf2g?authuser=0&hl=en&rclk=1,"19.0493459,78.03061249999999"
IDARA ANFA-UL-MADARIS,Mosque,"IDARA ANFA-UL-MADARIS, Umar Farooq Abadi, Bhainsa, Telangana 504103",,Umar Farooq Abadi,Bhainsa,504103,Telangana,IN,https://www.google.com/maps/place/IDARA+ANFA-UL-MADARIS/data=!4m7!3m6!1s0x3bcdff684c744727:0xdd4c8e59a5a31e73!8m2!3d19.1142023!4d77.9690341!16s%2Fg%2F11j2ccx398!19sChIJJ0d0TGj_zTsRcx6jpVmOTN0?authuser=0&hl=en&rclk=1,"19.1142023,77.9690341"
Masjid e Raza,Mosque,"XWF6+J4R Masjid e Raza, Mudhole, Telangana 504102",,XWF6+J4R,Mudhole,504102,Telangana,IN,https://www.google.com/maps/place/Masjid+e+Raza/data=!4m7!3m6!1s0x3bce080bf0b3996b:0x6a28aa7b8634486e!8m2!3d18.9741249!4d77.9102554!16s%2Fg%2F11gbk4v73l!19sChIJa5mz8AsIzjsRbkg0hnuqKGo?authuser=0&hl=en&rclk=1,"18.9741249,77.9102554"
Deen E Muhammad Dargah,Mosque,"4X87+PMF Deen E Muhammad Dargah, Bhainsa, Telangana 504103",,4X87+PMF,Bhainsa,504103,Telangana,IN,https://www.google.com/maps/place/Deen+E+Muhammad+Dargah/data=!4m7!3m6!1s0x3bcdff0bce791d5b:0x5d1dfe69be5f14ea!8m2!3d19.1168214!4d77.9641861!16s%2Fg%2F11fq8r95lt!19sChIJWx15zgv_zTsR6hRfvmn-HV0?authuser=0&hl=en&rclk=1,"19.1168214,77.96418609999999"
Masjid -e- Bilal,Mosque,"VRRR+WQQ Masjid -e- Bilal, Dharmabad, Maharashtra 431809",,VRRR+WQQ,Dharmabad,431809,Maharashtra,IN,https://www.google.com/maps/place/Masjid+-e-+Bilal/data=!4m7!3m6!1s0x3bce09521b8c2309:0xcc8cbdc30dbc6427!8m2!3d18.8923325!4d77.8419851!16s%2Fg%2F11c481zd1v!19sChIJCSOMG1IJzjsRJ2S8DcO9jMw?authuser=0&hl=en&rclk=1,"18.8923325,77.8419851"
Madhar Khan Masjid,Mosque,"4X23+8HV Madhar Khan Masjid, National Highway 222, Khan Auto Nagar, Bhainsa, Telangana 504103",Khan Auto Nagar,"4X23+8HV, National Highway 222",Bhainsa,504103,Telangana,IN,https://www.google.com/maps/place/Madhar+Khan+Masjid/data=!4m7!3m6!1s0x3bcdfe41b557545b:0xd92f6034489efa34!8m2!3d19.1008595!4d77.9539175!16s%2Fg%2F11b7c49jxk!19sChIJW1RXtUH-zTsRNPqeSDRgL9k?authuser=0&hl=en&rclk=1,"19.1008595,77.9539175"
MOHAMMADIYA MASJID,Mosque,"XVR7+2R5 MOHAMMADIYA MASJID, Nandgam, Telangana 504102",,XVR7+2R5,Nandgam,504102,Telangana,IN,https://www.google.com/maps/place/MOHAMMADIYA+MASJID/data=!4m7!3m6!1s0x3bce07528ded7757:0x80b1e2eefa1c65c1!8m2!3d18.9900182!4d77.8646149!16s%2Fg%2F11tcm00p9l!19sChIJV3ftjVIHzjsRwWUc-u7isYA?authuser=0&hl=en&rclk=1,"18.990018199999998,77.86461489999999"
Makka masjid,Mosque,"4X49+5GM Makka masjid, Owaisi nagar, Bhainsa, Telangana 504103",Owaisi nagar,4X49+5GM,Bhainsa,504103,Telangana,IN,https://www.google.com/maps/place/Makka+masjid/data=!4m7!3m6!1s0x3bcdff0eae709cdd:0x6854d10775edfe3!8m2!3d19.1054591!4d77.9688006!16s%2Fg%2F11j7cswkz7!19sChIJ3Zxwrg7_zTsR499edxBNhQY?authuser=0&hl=en&rclk=1,"19.105459099999997,77.9688006"
Jama masjid Taroda,Mosque,"Jama masjid Taroda, Bus Stop, Tharoda, Taroda, Telangana 504102",,"Bus Stop, Tharoda",Taroda,504102,Telangana,IN,https://www.google.com/maps/place/Jama+masjid+Taroda/data=!4m7!3m6!1s0x3bcdfd8c41ffa3d9:0x6422385f670ace37!8m2!3d19.0130289!4d77.933492!16s%2Fg%2F11h585lwwn!19sChIJ2aP_QYz9zTsRN84KZ184ImQ?authuser=0&hl=en&rclk=1,"19.0130289,77.933492"
Muslim Qabristan Nandgam,Mosque,"XVR7+5J9 Muslim Qabristan Nandgam, Nandgam, Telangana 504102",,XVR7+5J9,Nandgam,,Telangana,IN,https://www.google.com/maps/place/Muslim+Qabristan+Nandgam/data=!4m7!3m6!1s0x3bce07ab91b1e49f:0x666a58e51e7530ef!8m2!3d18.9904156!4d77.8640952!16s%2Fg%2F11tmfljntd!19sChIJn-SxkasHzjsR7zB1HuVYamY?authuser=0&hl=en&rclk=1,"18.9904156,77.8640952"
Masjid,Mosque,"V4J3+G35 Masjid, Talveda, Telangana 503212",,V4J3+G35,Talveda,503212,Telangana,IN,https://www.google.com/maps/place/Masjid/data=!4m7!3m6!1s0x3bcde61bd6f5a8df:0x2075fc2b5df30b25!8m2!3d18.8812633!4d78.1027307!16s%2Fg%2F11d_bkbh7z!19sChIJ36j11hvmzTsRJQvzXSv8dSA?authuser=0&hl=en&rclk=1,"18.8812633,78.1027307"
Eidgah,Mosque,"VXQ2+7MV Eidgah, Unnamed Road, Basar, Telangana 504101",,"VXQ2+7MV, Unnamed Road",Basar,504101,Telangana,IN,https://www.google.com/maps/place/Eidgah/data=!4m7!3m6!1s0x3bcde164e3bf8225:0x2cf329b4e243115a!8m2!3d18.888246!4d77.951684!16s%2Fg%2F11jn2m4mzj!19sChIJJYK_42ThzTsRWhFD4rQp8yw?authuser=0&hl=en&rclk=1,"18.888246,77.951684"
Masjid e Ansar,Mosque,"XWH8+35H Masjid e Ansar, Mudhole, Telangana 504102",,XWH8+35H,Mudhole,504102,Telangana,IN,https://www.google.com/maps/place/Masjid+e+Ansar/data=!4m7!3m6!1s0x3bce0808663e36b7:0x507a7de2ed269433!8m2!3d18.9776815!4d77.9154895!16s%2Fg%2F11fyzflcvx!19sChIJtzY-ZggIzjsRM5Qm7eJ9elA?authuser=0&hl=en&rclk=1,"18.9776815,77.91548949999999"
Jama Masjid,Place of worship,"3W6R+V78 Jama Masjid, Dahegaon, Telangana 504102",,3W6R+V78,Dahegaon,504102,Telangana,IN,https://www.google.com/maps/place/Jama+Masjid/data=!4m7!3m6!1s0x3bcdfdefea2d5cf5:0x8b06b880e886f9f3!8m2!3d19.062155!4d77.9407105!16s%2Fg%2F11btxhlp73!19sChIJ9Vwt6u_9zTsR8_mG6IC4Bos?authuser=0&hl=en&rclk=1,"19.062155,77.9407105"
BADA PAHAD DARGAH,Mosque,"2WM6+PPG BADA PAHAD DARGAH, Machkal, Ramtek, Telangana 504102",,2WM6+PPG,"Machkal, Ramtek",,Telangana,IN,https://www.google.com/maps/place/BADA+PAHAD+DARGAH/data=!4m7!3m6!1s0x3bce074c2139200b:0x84e068ff1f558712!8m2!3d19.0343064!4d77.9118191!16s%2Fg%2F11pz0mmz2n!19sChIJCyA5IUwHzjsREodVH_9o4IQ?authuser=0&hl=en&rclk=1,"19.0343064,77.9118191"
Abdula mosque,Mosque,"VRXV+96X Abdula mosque, Dharmabad, Maharashtra 431809",,VRXV+96X,Dharmabad,431809,Maharashtra,IN,https://www.google.com/maps/place/Abdula+mosque/data=!4m7!3m6!1s0x3bce099a3232c25d:0xe9ed8c5631fa0463!8m2!3d18.8985373!4d77.8428997!16s%2Fg%2F11vdm0pv73!19sChIJXcIyMpoJzjsRYwT6MVaM7ek?authuser=0&hl=en&rclk=1,"18.898537299999997,77.84289969999999"
Jama masjid,Mosque,"Jama masjid, Mahendher fertiliser, Ola, Telangana 504109",,Mahendher fertiliser,Ola,504109,Telangana,IN,https://www.google.com/maps/place/Jama+masjid/data=!4m7!3m6!1s0x3bd207e78142f0d5:0xfe16d5ecc5fee1da!8m2!3d19.1802439!4d78.0713271!16s%2Fg%2F11fv3lytz1!19sChIJ1fBCgecH0jsR2uH-xezVFv4?authuser=0&hl=en&rclk=1,"19.1802439,78.07132709999999"
Masjid-e-umare-farooq,Mosque,"VWCV+XWR Masjid-e-umare-farooq, Basar, Telangana 504101",,VWCV+XWR,Basar,,Telangana,IN,https://www.google.com/maps/place/Masjid-e-umare-farooq/data=!4m7!3m6!1s0x3bcde155a4892165:0xf683d03d0a4ee96e!8m2!3d18.872485!4d77.9447636!16s%2Fg%2F11pwxm21cv!19sChIJZSGJpFXhzTsRbulOCj3Qg_Y?authuser=0&hl=en&rclk=1,"18.872484999999998,77.9447636"
Masjid-e-amina. msjd mynh,Mosque,"WPVR+97F Masjid-e-amina. msjd mynh, Karkheli, Maharashtra 431808",,WPVR+97F,Karkheli,431808,Maharashtra,IN,https://www.google.com/maps/place/Masjid-e-amina.+%D9%85%D8%B3%D8%AC%D8%AF+%D8%A7%D9%85%DB%8C%D9%86%DB%81%E2%80%AD/data=!4m7!3m6!1s0x3bce1192d0aa5f01:0x825404f8dc0b7017!8m2!3d18.9434276!4d77.7406589!16s%2Fg%2F11rg7sjlld!19sChIJAV-q0JIRzjsRF3AL3PgEVII?authuser=0&hl=en&rclk=1,"18.9434276,77.7406589"
Masjid e Mubeen,Mosque,"XWF5+7JW Masjid e Mubeen, Mudhole, Telangana 504102",,XWF5+7JW,Mudhole,504102,Telangana,IN,https://www.google.com/maps/place/Masjid+e+Mubeen/data=!4m7!3m6!1s0x3bce080c712766a7:0x4da094a3ac35a2d9!8m2!3d18.9732415!4d77.9090696!16s%2Fg%2F11f0_gjyz0!19sChIJp2YncQwIzjsR2aI1rKOUoE0?authuser=0&hl=en&rclk=1,"18.9732415,77.9090696"
Masjid-e-Ibrahim,Mosque,"4X3F+MGW Masjid-e-Ibrahim, Owasi Nagar, Bhainsa, Telangana 504103",Owasi Nagar,4X3F+MGW,Bhainsa,504103,Telangana,IN,https://www.google.com/maps/place/Masjid-e-Ibrahim/data=!4m7!3m6!1s0x3bcdff2e3ed8c869:0x9a1ebb33c7592548!8m2!3d19.1042258!4d77.9738428!16s%2Fg%2F11jpgpwxgp!19sChIJacjYPi7_zTsRSCVZxzO7Hpo?authuser=0&hl=en&rclk=1,"19.1042258,77.9738428"
Owaisi masjid,Mosque,"4X3C+PVW Owaisi masjid, Rd number 2, Bhainsa, Telangana 504103",,"4X3C+PVW, Rd number 2",Bhainsa,504103,Telangana,IN,https://www.google.com/maps/place/Owaisi+masjid/data=!4m7!3m6!1s0x3bcdffb38f817769:0x3746a83dd7b84291!8m2!3d19.1044739!4d77.9714137!16s%2Fg%2F11s5627lk5!19sChIJaXeBj7P_zTsRkUK41z2oRjc?authuser=0&hl=en&rclk=1,"19.1044739,77.9714137"
Darul Uloom Faiz ul Quran,Mosque,"XWRC+9P3 Darul Uloom Faiz ul Quran, Adilabad, Telangana 504102",,XWRC+9P3,Adilabad,,Telangana,IN,https://www.google.com/maps/place/Darul+Uloom+Faiz+ul+Quran/data=!4m7!3m6!1s0x3bce0764d16d9c37:0x9f8a0bf244810834!8m2!3d18.9908992!4d77.9218055!16s%2Fg%2F11g1fv10bs!19sChIJN5xt0WQHzjsRNAiBRPILip8?authuser=0&hl=en&rclk=1,"18.990899199999998,77.92180549999999"
Masjid e Ilaqa e Mashaiq,Mosque,"4X86+MR9 Masjid e Ilaqa e Mashaiq, Old Bazar Rd, Bhainsa, Telangana 504103",,"4X86+MR9, Old Bazar Rd",Bhainsa,504103,Telangana,IN,https://www.google.com/maps/place/Masjid+e+Ilaqa+e+Mashaiq/data=!4m7!3m6!1s0x3bcdffbb718107df:0x308312419b8ea3ee!8m2!3d19.11667!4d77.9621098!16s%2Fg%2F11np7rc810!19sChIJ3weBcbv_zTsR7qOOm0ESgzA?authuser=0&hl=en&rclk=1,"19.11667,77.9621098"
Dargah Ahmed Pasha Quadri,Mosque,"XWF5+8JF Dargah Ahmed Pasha Quadri, Mudhole, Telangana 504102",,XWF5+8JF,Mudhole,504102,Telangana,IN,https://www.google.com/maps/place/Dargah+Ahmed+Pasha+Quadri/data=!4m7!3m6!1s0x3bce080c77299c19:0x9f92a587190f7f8e!8m2!3d18.973309!4d77.9090555!16s%2Fg%2F11fy_2cstl!19sChIJGZwpdwwIzjsRjn8PGYelkp8?authuser=0&hl=en&rclk=1,"18.973309,77.9090555"
Aqsa Masjid,Mosque,"4X4G+44V Aqsa Masjid, Bhainsa, Telangana 504103",,4X4G+44V,Bhainsa,504103,Telangana,IN,https://www.google.com/maps/place/Aqsa+Masjid/data=!4m7!3m6!1s0x3bcdffefc08d1e65:0x78398d3d727b1cd0!8m2!3d19.1053514!4d77.9752969!16s%2Fg%2F11jf0jv14x!19sChIJZR6NwO__zTsR0Bx7cj2NOXg?authuser=0&hl=en&rclk=1,"19.1053514,77.9752969"
Dargah masjid,Mosque,"4X86+MR9 Dargah masjid, Old Bazar Rd, Bhainsa, Telangana 504103",,"4X86+MR9, Old Bazar Rd",Bhainsa,504103,Telangana,IN,https://www.google.com/maps/place/Dargah+masjid/data=!4m7!3m6!1s0x3bcdff763fbf880f:0x512b48d84c4231e0!8m2!3d19.1167346!4d77.962365!16s%2Fg%2F11sz2st0k3!19sChIJD4i_P3b_zTsR4DFCTNhIK1E?authuser=0&hl=en&rclk=1,"19.1167346,77.96236499999999"
Masjid kothwal,Mosque,"VXP3+V4Q Masjid kothwal, Unnamed Road, Basar, Telangana 504101",,"VXP3+V4Q, Unnamed Road",Basar,504101,Telangana,IN,https://www.google.com/maps/place/Masjid+kothwal/data=!4m7!3m6!1s0x3bcde16442d9a5c5:0x6573bdfe9c430a9c!8m2!3d18.8872129!4d77.9528679!16s%2Fg%2F11kky5c5x4!19sChIJxaXZQmThzTsRnApDnP69c2U?authuser=0&hl=en&rclk=1,"18.887212899999998,77.9528679"
Wattoli Darga ,Mosque,"X3H6+4X6 Wattoli Darga , Wastapur, Telangana 504101",,X3H6+4X6,Wastapur,504101,Telangana,IN,https://www.google.com/maps/place/Wattoli+Darga+%F0%9F%95%8B/data=!4m7!3m6!1s0x3bcde5434ff9fddb:0x570612386c856213!8m2!3d18.977918!4d78.061883!16s%2Fg%2F11vb_7nnp1!19sChIJ2_35T0PlzTsRE2KFbDgSBlc?authuser=0&hl=en&rclk=1,"18.977918,78.061883"
JAME MASJID msiid Nagepoor,Mosque,"RX2W+G8Q JAME MASJID msiid Nagepoor, Basara Rd, near zphs, Nagepur, Telangana 503245",,"RX2W+G8Q, Basara Rd, near zphs",Nagepur,,Telangana,IN,https://www.google.com/maps/place/JAME+MASJID+%E0%B0%AE%E0%B0%B8%E0%B1%80%E0%B0%A6%E0%B1%8D+Nagepoor/data=!4m7!3m6!1s0x3bcde1757e333251:0x3f5941690a1096c8!8m2!3d18.8013323!4d77.9958577!16s%2Fg%2F11h3kbhg6b!19sChIJUTIzfnXhzTsRyJYQCmlBWT8?authuser=0&hl=en&rclk=1,"18.8013323,77.9958577"
msjid Masjid. msjd,Mosque,"XP4V+9X7 msjid Masjid. msjd, Unnamed Road, Karkheli, Maharashtra 431808",,"XP4V+9X7, Unnamed Road",Karkheli,431808,Maharashtra,IN,https://www.google.com/maps/place/%E0%A4%AE%E0%A4%B8%E0%A5%8D%E0%A4%9C%E0%A4%BF%E0%A4%A6+Masjid.+%D9%85%D8%B3%D8%AC%D8%AF%E2%80%AD/data=!4m7!3m6!1s0x3bce1126308120f5:0xa0e2b903ce8aaec5!8m2!3d18.9559238!4d77.7449283!16s%2Fg%2F11fkvy07w_!19sChIJ9SCBMCYRzjsRxa6KzgO54qA?authuser=0&hl=en&rclk=1,"18.9559238,77.7449283"
Masjid -e-umar Farooq,Mosque,"4X8C+X5Q Masjid -e-umar Farooq, Adilabad, Telangana 504001",,4X8C+X5Q,Adilabad,504001,Telangana,IN,https://www.google.com/maps/place/Masjid+-e-umar+Farooq/data=!4m7!3m6!1s0x3bcdfe5685ab8253:0xb3bfd2124501d21e!8m2!3d19.1174673!4d77.9704947!16s%2Fg%2F11c2k7blql!19sChIJU4KrhVb-zTsRHtIBRRLSv7M?authuser=0&hl=en&rclk=1,"19.117467299999998,77.9704947"
Masjid e Ehtesabi,Mosque,"XWF6+X43 Masjid e Ehtesabi, Mudhole, Telangana 504102",,XWF6+X43,Mudhole,504102,Telangana,IN,https://www.google.com/maps/place/Masjid+e+Ehtesabi/data=!4m7!3m6!1s0x3bce080bef54c367:0x4a93e5c981198351!8m2!3d18.9748753!4d77.9102991!16s%2Fg%2F11fyzfn1m_!19sChIJZ8NU7wsIzjsRUYMZgcnlk0o?authuser=0&hl=en&rclk=1,"18.9748753,77.9102991"
Jama Masjid (Dhagaon),Mosque,"2V3M+H5J Jama Masjid (Dhagaon), Dhagaon, Telangana 504102",,2V3M+H5J,Dhagaon,504102,Telangana,IN,https://www.google.com/maps/place/Jama+Masjid+%28Dhagaon%29/data=!4m7!3m6!1s0x3bce0727bed48a03:0xca3f528a32d322e2!8m2!3d19.0039639!4d77.8828794!16s%2Fg%2F11trgx4wrs!19sChIJA4rUvicHzjsR4iLTMopSP8o?authuser=0&hl=en&rclk=1,"19.0039639,77.8828794"
dawal malik dargah(Dhagaon),Mosque,"2V3M+965 dawal malik dargah(Dhagaon), Dhagaon, Telangana 504102",,2V3M+965,Dhagaon,504102,Telangana,IN,https://www.google.com/maps/place/dawal+malik+dargah%28Dhagaon%29/data=!4m7!3m6!1s0x3bce0784a4b48061:0xdbf15b4f084afd8f!8m2!3d19.0031897!4d77.8832948!16s%2Fg%2F11kjm3syc4!19sChIJYYC0pIQHzjsRj_1KCE9b8ds?authuser=0&hl=en&rclk=1,"19.0031897,77.8832948"
Madarse Mohammadia Talim Ul Quran Wo Deniyat,Mosque,"XWG7+PGX Madarse Mohammadia Talim Ul Quran Wo Deniyat, Mudhole, Telangana 504102",,XWG7+PGX,Mudhole,504102,Telangana,IN,https://www.google.com/maps/place/Madarse+Mohammadia+Talim+Ul+Quran+Wo+Deniyat/data=!4m7!3m6!1s0x3bce080855555555:0xa685082d5b291ae3!8m2!3d18.9768748!4d77.9138661!16s%2Fg%2F11fy_395k9!19sChIJVVVVVQgIzjsR4xopWy0IhaY?authuser=0&hl=en&rclk=1,"18.976874799999997,77.91386609999999"
Masjid-e-mohammed ali khan,Mosque,"4X66+HJX Masjid-e-mohammed ali khan, Bhainsa, Telangana 504103",,4X66+HJX,Bhainsa,504103,Telangana,IN,https://www.google.com/maps/place/Masjid-e-mohammed+ali+khan/data=!4m7!3m6!1s0x3bcdff51973f1793:0x47b905b99f17ef30!8m2!3d19.1115918!4d77.9615985!16s%2Fg%2F11pzpc_hb7!19sChIJkxc_l1H_zTsRMO8Xn7kFuUc?authuser=0&hl=en&rclk=1,"19.1115918,77.9615985"
Jaama masjid,Mosque,"Jaama masjid, Sirala, Telangana 504102",,,Sirala,504102,Telangana,IN,https://www.google.com/maps/place/Jaama+masjid/data=!4m7!3m6!1s0x3bce012e97e91a7f:0x17cde4e89501898d!8m2!3d19.0732537!4d77.8971662!16s%2Fg%2F11rq8ffprn!19sChIJfxrply4BzjsRjYkBlejkzRc?authuser=0&hl=en&rclk=1,"19.0732537,77.8971662"
Masjid Mahboobia,Mosque,"4X47+736 Masjid Mahboobia, Bhainsa, Telangana 504103",,4X47+736,Bhainsa,504103,Telangana,IN,https://www.google.com/maps/place/Masjid+Mahboobia/data=!4m7!3m6!1s0x3bcdffa54730d159:0x3070551ca0bf95d2!8m2!3d19.1056685!4d77.9626302!16s%2Fg%2F11n001s619!19sChIJWdEwR6X_zTsR0pW_oBxVcDA?authuser=0&hl=en&rclk=1,"19.1056685,77.96263019999999"
Masjid e WALI,Mosque,"4X49+MWR Masjid e WALI, Rd Number 1, Bhainsa, Telangana 504103",,"4X49+MWR, Rd Number 1",Bhainsa,504103,Telangana,IN,https://www.google.com/maps/place/Masjid+e+WALI/data=!4m7!3m6!1s0x3bcdffe159c3e0c5:0x924cdf0a90587653!8m2!3d19.1067472!4d77.9697721!16s%2Fg%2F11lrryyhw2!19sChIJxeDDWeH_zTsRU3ZYkArfTJI?authuser=0&hl=en&rclk=1,"19.106747199999997,77.9697721"
Dastagir Saheb Burj,Mosque,"2X6X+X44 Dastagir Saheb Burj, Edbid, Telangana 504102",,2X6X+X44,Edbid,504102,Telangana,IN,https://www.google.com/maps/place/Dastagir+Saheb+Burj/data=!4m7!3m6!1s0x3bcdfdd991c2255f:0xc03dc50b054bc67f!8m2!3d19.0131884!4d77.9979526!16s%2Fg%2F11pz0j6z29!19sChIJXyXCkdn9zTsRf8ZLBQvFPcA?authuser=0&hl=en&rclk=1,"19.0131884,77.99795259999999"
Thimmapur masjid,Mosque,"435F+Q9G Thimmapur masjid, Unnamed Road, Thimmapur, Telangana 504109",,"435F+Q9G, Unnamed Road",Thimmapur,504109,Telangana,IN,https://www.google.com/maps/place/Thimmapur+masjid/data=!4m7!3m6!1s0x3bcdf93c28513963:0x7dcfb1f3b4f8e7af!8m2!3d19.1094489!4d78.0734603!16s%2Fg%2F11qzbkts3t!19sChIJYzlRKDz5zTsRr-f4tPOxz30?authuser=0&hl=en&rclk=1,"19.1094489,78.0734603"
Quadanshah ali,Mosque,"4X5F+FPC Quadanshah ali, Bhainsa, Telangana 504103",,4X5F+FPC,Bhainsa,504103,Telangana,IN,https://www.google.com/maps/place/Quadanshah+ali/data=!4m7!3m6!1s0x3bcdff7a411bd27f:0xf18f2bb4d86febfc!8m2!3d19.1086944!4d77.9742549!16s%2Fg%2F11l6yhsc3v!19sChIJf9IbQXr_zTsR_Otv2LQrj_E?authuser=0&hl=en&rclk=1,"19.108694399999997,77.97425489999999"
Eid gah. `ydgh,Mosque,"VW8W+4HH Eid gah. `ydgh, Panchayat Raj Rd, Telangana 504101",,"VW8W+4HH, Panchayat Raj Rd",,504101,Telangana,IN,https://www.google.com/maps/place/Eid+gah.+%D8%B9%DB%8C%D8%AF%DA%AF%D8%A7%DB%81%E2%80%AD/data=!4m7!3m6!1s0x3bcde137ecf0b249:0xa475a0ae08688f92!8m2!3d18.865304!4d77.9464759!16s%2Fg%2F11h9k5wz7t!19sChIJSbLw7DfhzTsRko9oCK6gdaQ?authuser=0&hl=en&rclk=1,"18.865304,77.9464759"
JAMA MASJID,Mosque,"433W+VC6 JAMA MASJID, Unnamed Road, Kallur, Telangana 504109",,"433W+VC6, Unnamed Road",Kallur,504109,Telangana,IN,https://www.google.com/maps/place/JAMA+MASJID/data=!4m7!3m6!1s0x3bcdf93e953482f7:0xc3dff5e66af38f82!8m2!3d19.1046594!4d78.0960113!16s%2Fg%2F11gwhk1782!19sChIJ94I0lT75zTsRgo_zaub138M?authuser=0&hl=en&rclk=1,"19.1046594,78.0960113"
Dargah masjid,Mosque,"4X85+RH4 Dargah masjid, Kisan Gally, Bhainsa, Telangana 504103",,"4X85+RH4, Kisan Gally",Bhainsa,504103,Telangana,IN,https://www.google.com/maps/place/Dargah+masjid/data=!4m7!3m6!1s0x3bcdff8149341c71:0x4ab8fbf5c4f17c84!8m2!3d19.1170017!4d77.9589653!16s%2Fg%2F11n8wky035!19sChIJcRw0SYH_zTsRhHzxxPX7uEo?authuser=0&hl=en&rclk=1,"19.1170017,77.9589653"
DARGA-E-HAZRATH AMRUH SAAB,Mosque,"4VJR+5R2 DARGA-E-HAZRATH AMRUH SAAB, Bamni, Telangana 504103",,4VJR+5R2,Bamni,504103,Telangana,IN,https://www.google.com/maps/place/DARGA-E-HAZRATH+AMRUH+SAAB/data=!4m7!3m6!1s0x3bce01ff76cf16eb:0x3ce087629589b43!8m2!3d19.1303904!4d77.8920271!16s%2Fg%2F11pcwyxd64!19sChIJ6xbPdv8BzjsRQ5tYKXYIzgM?authuser=0&hl=en&rclk=1,"19.1303904,77.89202709999999"
Nagar masjid,Mosque,"2462+FF8 Nagar masjid, Nagar, Telangana 504104",,2462+FF8,Nagar,504104,Telangana,IN,https://www.google.com/maps/place/Nagar+masjid/data=!4m7!3m6!1s0x3bcdfb87f4e1ca07:0x97a41421f66a5818!8m2!3d19.010881!4d78.102116!16s%2Fg%2F11jt0w_z_l!19sChIJB8rh9If7zTsRGFhq9iEUpJc?authuser=0&hl=en&rclk=1,"19.010880999999998,78.102116"
Jama masjid ashta,Mosque,"W2M3+V9P Jama masjid ashta, Ashta, Telangana 504101",,W2M3+V9P,Ashta,504101,Telangana,IN,https://www.google.com/maps/place/Jama+masjid+ashta/data=!4m7!3m6!1s0x3bcde35a9ce42b59:0xffe320028c1cbff8!8m2!3d18.9347189!4d78.0034513!16s%2Fg%2F11pz2s9spl!19sChIJWSvknFrjzTsR-L8cjAIg4_8?authuser=0&hl=en&rclk=1,"18.9347189,78.0034513"
Jama masjid,Mosque,"W329+52F Jama masjid, Naleshwar, Binola, Telangana 503246",,W329+52F,"Naleshwar, Binola",503246,Telangana,IN,https://www.google.com/maps/place/Jama+masjid/data=!4m7!3m6!1s0x3bcde56006a65bb5:0xa91c0bd3bb2daf87!8m2!3d18.9004336!4d78.067533!16s%2Fg%2F11rhp_r4kr!19sChIJtVumBmDlzTsRh68tu9MLHKk?authuser=0&hl=en&rclk=1,"18.9004336,78.067533"
"pedd gutttt deevuddu, dhrmaarN",Mosque,"X3PH+PC pedd gutttt deevuddu, dhrmaarN, VIP ADDA, New Raipur (K), Telangana 504104",,X3PH+PC VIP ADDA,New Raipur (K),504104,Telangana,IN,"https://www.google.com/maps/place/%E0%B0%AA%E0%B1%86%E0%B0%A6%E0%B1%8D%E0%B0%A6+%E0%B0%97%E0%B1%81%E0%B0%9F%E0%B1%8D%E0%B0%9F+%E0%B0%A6%E0%B1%87%E0%B0%B5%E0%B1%81%E0%B0%A1%E0%B1%81,+%E0%B0%A7%E0%B0%B0%E0%B1%8D%E0%B0%AE%E0%B0%BE%E0%B0%B0%E0%B0%82/data=!4m7!3m6!1s0x3bcde5abeb56f289:0xb9041ab83c7f2d55!8m2!3d18.9880077!4d78.07903!16s%2Fg%2F11vj7tb2v9!19sChIJifJW66vlzTsRVS1_PLgaBLk?authuser=0&hl=en&rclk=1","18.9880077,78.07903"
Eid Gah Pendpally,Mosque,"33V5+4J5 Eid Gah Pendpally, Pendapalle, Telangana 504109",,33V5+4J5,Pendapalle,,Telangana,IN,https://www.google.com/maps/place/Eid+Gah+Pendpally/data=!4m7!3m6!1s0x3bcdf96438d2ab65:0x81c7b0a7ae7719bd!8m2!3d19.0927654!4d78.0591246!16s%2Fg%2F11h4s0gw3_!19sChIJZavSOGT5zTsRvRl3rqewx4E?authuser=0&hl=en&rclk=1,"19.092765399999998,78.05912459999999"
Jamamasjid,Mosque,"7W6V+HF4 Jamamasjid, Main Road, Kubeer, Telangana 504103",,"7W6V+HF4, Main Road",Kubeer,504103,Telangana,IN,https://www.google.com/maps/place/Jamamasjid/data=!4m7!3m6!1s0x3bd201f63f663507:0xcf27423fc86287f2!8m2!3d19.2613867!4d77.943711!16s%2Fg%2F11hd6y_1v0!19sChIJBzVmP_YB0jsR8odiyD9CJ88?authuser=0&hl=en&rclk=1,"19.2613867,77.943711"
Jamiya Masjid,Mosque,"Jamiya Masjid, Panchagudi, Dharmara, Telangana 504104",,,"Panchagudi, Dharmara",504104,Telangana,IN,https://www.google.com/maps/place/Jamiya+Masjid/data=!4m7!3m6!1s0x3bcde5f57d5ce841:0x54a16d15ab8d2131!8m2!3d18.9698223!4d78.0838299!16s%2Fg%2F11g23bk4d8!19sChIJQehcffXlzTsRMSGNqxVtoVQ?authuser=0&hl=en&rclk=1,"18.9698223,78.0838299"
Masjid e noor banu,Mosque,"4298+7M3 Masjid e noor banu, Ekgaon, Telangana 504103",,4298+7M3,Ekgaon,504103,Telangana,IN,https://www.google.com/maps/place/Masjid+e+noor+banu/data=!4m7!3m6!1s0x3bcdff742aedeb0d:0x1cc2047094df4e93!8m2!3d19.1181434!4d78.0166847!16s%2Fg%2F11h6443h1y!19sChIJDevtKnT_zTsRk07flHAEwhw?authuser=0&hl=en&rclk=1,"19.118143399999997,78.0166847"
Ajaz uddin mpp mudhole,Mosque,"XWG6+X2V Ajaz uddin mpp mudhole, Mudhole, Telangana 504102",,XWG6+X2V,Mudhole,504102,Telangana,IN,https://www.google.com/maps/place/Ajaz+uddin+mpp+mudhole/data=!4m7!3m6!1s0x3bce092b3bed0477:0x9883546bb0eb0297!8m2!3d18.9774875!4d77.9100469!16s%2Fg%2F11l2byjt14!19sChIJdwTtOysJzjsRlwLrsGtUg5g?authuser=0&hl=en&rclk=1,"18.9774875,77.9100469"
masjid-e-Ameena. Taroda,Mosque,"2W6P+HMC masjid-e-Ameena. Taroda, Taroda, Telangana 504102",,2W6P+HMC,Taroda,504102,Telangana,IN,https://www.google.com/maps/place/masjid-e-Ameena.+Taroda/data=!4m7!3m6!1s0x3bcdfd8ced879fc7:0xa8c8d0a46a879700!8m2!3d19.0114475!4d77.9366469!16s%2Fg%2F11nx3xpp3n!19sChIJx5-H7Yz9zTsRAJeHaqTQyKg?authuser=0&hl=en&rclk=1,"19.0114475,77.9366469"
Masjid E Madeena,Mosque,"3XX8+XMW Masjid E Madeena, Vinayak Nagar, Bhainsa, Telangana 504103",Vinayak Nagar,3XX8+XMW,Bhainsa,504103,Telangana,IN,https://www.google.com/maps/place/Masjid+E+Madeena/data=!4m7!3m6!1s0x3bcdfe67609b6a17:0xd10b98fe9ebd9b74!8m2!3d19.1!4d77.9667!16s%2Fg%2F11b7tns2dg!19sChIJF2qbYGf-zTsRdJu9nv6YC9E?authuser=0&hl=en&rclk=1,"19.099999999999998,77.9667"
Chowk masjid,Mosque,"XWF6+P52 Chowk masjid, Mudhole, Telangana 504102",,XWF6+P52,Mudhole,504102,Telangana,IN,https://www.google.com/maps/place/Chowk+masjid/data=!4m7!3m6!1s0x3bce096f7564b777:0x6713987bed345f0f!8m2!3d18.9741684!4d77.9104478!16s%2Fg%2F11vcm56l_7!19sChIJd7dkdW8JzjsRD1807XuYE2c?authuser=0&hl=en&rclk=1,"18.9741684,77.9104478"
Jamiya masjeed,Mosque,"2V6P+24P Jamiya masjeed, Dhagaon, Telangana 504102",,2V6P+24P,Dhagaon,504102,Telangana,IN,https://www.google.com/maps/place/Jamiya+masjeed/data=!4m7!3m6!1s0x3bce0737cb5af415:0x208e894c4f477351!8m2!3d19.0100923!4d77.8853172!16s%2Fg%2F11q3__dgl3!19sChIJFfRayzcHzjsRUXNHT0yJjiA?authuser=0&hl=en&rclk=1,"19.0100923,77.8853172"
Dulha masjid,Mosque,"4X76+QPR Dulha masjid, Bhainsa, Telangana 504103",,4X76+QPR,Bhainsa,504103,Telangana,IN,https://www.google.com/maps/place/Dulha+masjid/data=!4m7!3m6!1s0x3bcdff11036a7bc1:0x2af6a0e9a007d28e!8m2!3d19.1144859!4d77.9617514!16s%2Fg%2F11pzpf_hcw!19sChIJwXtqAxH_zTsRjtIHoOmg9io?authuser=0&hl=en&rclk=1,"19.1144859,77.9617514"
Jamamasjid,Mosque,"2X6W+RJ9 Jamamasjid, Edbid, Telangana 504102",,2X6W+RJ9,Edbid,504102,Telangana,IN,https://www.google.com/maps/place/Jamamasjid/data=!4m7!3m6!1s0x3bcdfd9419127871:0xbb4ac3774c96936d!8m2!3d19.0120371!4d77.9966174!16s%2Fg%2F11rchyqlgj!19sChIJcXgSGZT9zTsRbZOWTHfDSrs?authuser=0&hl=en&rclk=1,"19.0120371,77.99661739999999"
Majid e abubakar,Mosque,"4X68+H97 Majid e abubakar, New Abadi, Bhainsa, Telangana 504103",New Abadi,4X68+H97,Bhainsa,504103,Telangana,IN,https://www.google.com/maps/place/Majid+e+abubakar/data=!4m7!3m6!1s0x3bcdff58c1da7aab:0x219623bea3a45cb3!8m2!3d19.1113411!4d77.9659192!16s%2Fg%2F11sz2t10vn!19sChIJq3rawVj_zTsRs1yko74jliE?authuser=0&hl=en&rclk=1,"19.1113411,77.9659192"
Maqbara masjid,Mosque,"4X86+WF7 Maqbara masjid, Bhainsa, Telangana 504103",,4X86+WF7,Bhainsa,504103,Telangana,IN,https://www.google.com/maps/place/Maqbara+masjid/data=!4m7!3m6!1s0x3bcdff260e3b794f:0x8b0a022e971e6e24!8m2!3d19.117272!4d77.9611583!16s%2Fg%2F11sq9gjl68!19sChIJT3k7Dib_zTsRJG4ely4CCos?authuser=0&hl=en&rclk=1,"19.117272,77.9611583"
Jama masjid (Kotalgaom),Mosque,"42X5+48M Jama masjid (Kotalgaom), Kotalgaom, Bhainsa, Kotalgaon, Telangana 504109",Kotalgaom,42X5+48M,"Bhainsa, Kotalgaon",,Telangana,IN,https://www.google.com/maps/place/Jama+masjid+%28Kotalgaom%29/data=!4m7!3m6!1s0x3bcdff620818b4cb:0x849464b5944d2dae!8m2!3d19.1478345!4d78.0082907!16s%2Fg%2F11tnw1x59k!19sChIJy7QYCGL_zTsRri1NlLVklIQ?authuser=0&hl=en&rclk=1,"19.1478345,78.0082907"
Momino mosque,Mosque,"4X38+64M Momino mosque, New Abadi, Bhainsa, Telangana 504103",New Abadi,4X38+64M,Bhainsa,504103,Telangana,IN,https://www.google.com/maps/place/Momino+mosque/data=!4m7!3m6!1s0x3bcdfffea979f1ef:0x5d2c7b949536d054!8m2!3d19.1030811!4d77.9652985!16s%2Fg%2F11kqn0r70h!19sChIJ7_F5qf7_zTsRVNA2lZR7LF0?authuser=0&hl=en&rclk=1,"19.1030811,77.9652985"
Haji Sahab Masjid,Mosque,"4X76+WR5 Haji Sahab Masjid, Bhainsa, Telangana 504103",,4X76+WR5,Bhainsa,504103,Telangana,IN,https://www.google.com/maps/place/Haji+Sahab+Masjid/data=!4m7!3m6!1s0x3bcdffd89e630f21:0x6958ac2f4082e62d!8m2!3d19.114766!4d77.9621118!16s%2Fg%2F11r0wdt94j!19sChIJIQ9jntj_zTsRLeaCQC-sWGk?authuser=0&hl=en&rclk=1,"19.114766,77.9621118"
Qureshi's dayra,Mosque,"XW74+RV Qureshi's dayra, Mudhole, Telangana 504102",,XW74+RV,Mudhole,,Telangana,IN,https://www.google.com/maps/place/Qureshi%27s+dayra/data=!4m7!3m6!1s0x3bce09a66983ce9b:0x9269f425b8a9c771!8m2!3d18.9645492!4d77.9071758!16s%2Fg%2F11kphpbb44!19sChIJm86DaaYJzjsRccepuCX0aZI?authuser=0&hl=en&rclk=1,"18.9645492,77.90717579999999"
Masjid e Gausheya,Mosque,"4VRH+QWR Masjid e Gausheya, Bamni, Telangana 504103",,4VRH+QWR,Bamni,504103,Telangana,IN,https://www.google.com/maps/place/Masjid+e+Gausheya/data=!4m7!3m6!1s0x3bce01ed15c57fa9:0x41081cab448ddcaa!8m2!3d19.1419818!4d77.8797538!16s%2Fg%2F11rf9xpdcx!19sChIJqX_FFe0BzjsRqtyNRKscCEE?authuser=0&hl=en&rclk=1,"19.1419818,77.8797538"
Jama masjid,Mosque,"XR2M+XH9 Jama masjid, JewlaBuzurg, Jawala, Telangana 504102",,XR2M+XH9,"JewlaBuzurg, Jawala",504102,Telangana,IN,https://www.google.com/maps/place/Jama+masjid/data=!4m7!3m6!1s0x3bce0fa40d8bb217:0xcbc4166bd40c1b17!8m2!3d18.9523864!4d77.834005!16s%2Fg%2F11s58b6fbg!19sChIJF7KLDaQPzjsRFxsM1GsWxMs?authuser=0&hl=en&rclk=1,"18.952386399999998,77.83400499999999"
Masjid e mohammadiya,Mosque,"4X78+7FX Masjid e mohammadiya, Bhainsa, Telangana 504103",,4X78+7FX,Bhainsa,504103,Telangana,IN,https://www.google.com/maps/place/Masjid+e+mohammadiya/data=!4m7!3m6!1s0x3bcdffafe5575e1f:0xadcb9e0d27ec98a!8m2!3d19.1131596!4d77.9653526!16s%2Fg%2F11qbh1lndc!19sChIJH15X5a__zTsRisl-0uC53Ao?authuser=0&hl=en&rclk=1,"19.1131596,77.9653526"
Sarkari masjid,Mosque,"4X76+7FF Sarkari masjid, Bhainsa, Telangana 504103",,4X76+7FF,Bhainsa,504103,Telangana,IN,https://www.google.com/maps/place/Sarkari+masjid/data=!4m7!3m6!1s0x3bcdff1e48424da9:0xe5975291b8aab459!8m2!3d19.1131196!4d77.9611631!16s%2Fg%2F11sq9fy4l6!19sChIJqU1CSB7_zTsRWbSquJFSl-U?authuser=0&hl=en&rclk=1,"19.113119599999997,77.9611631"
Masjid e Fatima,Mosque,"4X5G+9P4 Masjid e Fatima, Bhainsa, Telangana 504103",,4X5G+9P4,Bhainsa,504103,Telangana,IN,https://www.google.com/maps/place/Masjid+e+Fatima/data=!4m7!3m6!1s0x3bcdffb3b5a3debf:0x2063de0cbf29b1de!8m2!3d19.1083892!4d77.9768327!16s%2Fg%2F11l29xysl3!19sChIJv96jtbP_zTsR3rEpvwzeYyA?authuser=0&hl=en&rclk=1,"19.108389199999998,77.9768327"
JAMA MASJID,Mosque,"JAMA MASJID, Machkal, Telangana 504102",,,Machkal,,Telangana,IN,https://www.google.com/maps/place/JAMA+MASJID/data=!4m7!3m6!1s0x3bce073eb765a829:0x30cc2f98dd04e9a1!8m2!3d19.0397058!4d77.9159634!16s%2Fg%2F11pz0fyctc!19sChIJKahltz4HzjsRoekE3ZgvzDA?authuser=0&hl=en&rclk=1,"19.0397058,77.9159634"
smshaanvaattik,Mosque,"539X+CCJ smshaanvaattik, adilaabaadu, Telangana 504109",,539X+CCJ,adilaabaadu,504109,Telangana,IN,https://www.google.com/maps/place/%E0%B0%B8%E0%B1%8D%E0%B0%AE%E0%B0%B6%E0%B0%BE%E0%B0%A8%E0%B0%B5%E0%B0%BE%E0%B0%9F%E0%B0%BF%E0%B0%95/data=!4m7!3m6!1s0x3bcdf97b97a183ab:0xe00cb011d279594d!8m2!3d19.1682263!4d78.0990057!16s%2Fg%2F11v5bbbfvm!19sChIJq4Ohl3v5zTsRTVl50hGwDOA?authuser=0&hl=en&rclk=1,"19.1682263,78.09900569999999"
Jama masjid Mohammadia godapur,Mosque,"6V2P+QWW Jama masjid Mohammadia godapur, Godapur, Telangana 504103",,6V2P+QWW,Godapur,504103,Telangana,IN,https://www.google.com/maps/place/Jama+masjid+Mohammadia+godapur/data=!4m7!3m6!1s0x3bd1ff67c74f1d71:0x6fbccdef3e8d57!8m2!3d19.2027752!4d77.8869778!16s%2Fg%2F11rn96vg7f!19sChIJcR1Px2f_0TsRV40-7828bwA?authuser=0&hl=en&rclk=1,"19.202775199999998,77.8869778"
Jama Masjid Limba,Mosque,"523V+7F2 Jama Masjid Limba, Limba Khurd, Telangana 504109",,523V+7F2,Limba Khurd,504109,Telangana,IN,https://www.google.com/maps/place/Jama+Masjid+Limba/data=!4m7!3m6!1s0x3bcdf91c30be5c01:0x41b0942c84df9744!8m2!3d19.1531407!4d78.0436445!16s%2Fg%2F11v9z80ywd!19sChIJAVy-MBz5zTsRRJffhCyUsEE?authuser=0&hl=en&rclk=1,"19.153140699999998,78.0436445"
Madeena masjid,Mosque,"52C6+V34 Madeena masjid, Chintalabori, Telangana 504103",,52C6+V34,Chintalabori,,Telangana,IN,https://www.google.com/maps/place/Madeena+masjid/data=!4m7!3m6!1s0x3bcdffe967e8faaf:0xe0043d36fece529!8m2!3d19.1722582!4d78.0101075!16s%2Fg%2F11lgkmzqrf!19sChIJr_roZ-n_zTsRKeXsb9NDAA4?authuser=0&hl=en&rclk=1,"19.172258199999998,78.01010749999999"
Mosque,Mosque,"54G3+83C Mosque, Unnamed Road, Kuntala, Telangana 504109",,"54G3+83C, Unnamed Road",Kuntala,504109,Telangana,IN,https://www.google.com/maps/place/Mosque/data=!4m7!3m6!1s0x3bcdf9d025e5219f:0x95288131dbc628f8!8m2!3d19.1758173!4d78.1026331!16s%2Fg%2F11nn534w_k!19sChIJnyHlJdD5zTsR-CjG2zGBKJU?authuser=0&hl=en&rclk=1,"19.1758173,78.10263309999999"
Jama Masjid,Association or organization,"4XR4+6G Jama Masjid, Mirzapur, Siddur, Telangana 504103",,4XR4+6G,"Mirzapur, Siddur",504103,Telangana,IN,https://www.google.com/maps/place/Jama+Masjid/data=!4m7!3m6!1s0x3bcdff170abc4c7d:0x7f87ae410c8c72e!8m2!3d19.1389125!4d77.9577969!16s%2Fg%2F11vcm2zgyv!19sChIJfUy8Chf_zTsRLsfIEOR6-Ac?authuser=0&hl=en&rclk=1,"19.1389125,77.95779689999999"
Jama masjid,Religious destination,"2WHX+8J5 Jama masjid, Unnamed Road, Mudgal, Telangana 504102",,"2WHX+8J5, Unnamed Road",Mudgal,504102,Telangana,IN,https://www.google.com/maps/place/Jama+masjid/data=!4m7!3m6!1s0x3bcdfdadd8816f9b:0xeec65d13756df0ec!8m2!3d19.0282676!4d77.9491179!16s%2Fg%2F11js4nngbp!19sChIJm2-B2K39zTsR7PBtdRNdxu4?authuser=0&hl=en&rclk=1,"19.0282676,77.94911789999999"
Mosque,Mosque,"V23P+64R Mosque, Binola, Abbapur B, Telangana 503246",,V23P+64R,"Binola, Abbapur B",503246,Telangana,IN,https://www.google.com/maps/place/Mosque/data=!4m7!3m6!1s0x3bcde6d95e2f713f:0x4911a7c1ec28e174!8m2!3d18.8531021!4d78.0352664!16s%2Fg%2F11g9nhhhng!19sChIJP3EvXtnmzTsRdOEo7MGnEUk?authuser=0&hl=en&rclk=1,"18.853102099999997,78.0352664"
Masjid e rahmat wayi lingi sanwli,Mosque,"5VHV+7M Masjid e rahmat wayi lingi sanwli, Sanwali, Telangana 504103",,5VHV+7M,Sanwali,,Telangana,IN,https://www.google.com/maps/place/Masjid+e+rahmat+wayi+lingi+sanwli/data=!4m7!3m6!1s0x3bd1ff51b4c00ebd:0x99ad3e5f1ac806ec!8m2!3d19.1781415!4d77.8941574!16s%2Fg%2F11rp5ck9mf!19sChIJvQ7AtFH_0TsR7AbIGl8-rZk?authuser=0&hl=en&rclk=1,"19.1781415,77.8941574"
Masjid,Mosque,"23HP+VRV Masjid, Lokeshwaram, Telangana 504104",,23HP+VRV,Lokeshwaram,,Telangana,IN,https://www.google.com/maps/place/Masjid/data=!4m7!3m6!1s0x3bcdfb3d97c6beb1:0xffec44d109005d16!8m2!3d19.029744!4d78.0870508!16s%2Fg%2F11sy1hj3tx!19sChIJsb7Glz37zTsRFl0ACdFE7P8?authuser=0&hl=en&rclk=1,"19.029744,78.0870508"
Eidgah,Mosque,"VVV3+W3G Eidgah, Dharmabad, Maharashtra 431809",,VVV3+W3G,Dharmabad,431809,Maharashtra,IN,https://www.google.com/maps/place/Eidgah/data=!4m7!3m6!1s0x3bce0944b9955555:0x2c7f6deecd9cffea!8m2!3d18.8948082!4d77.8527185!16s%2Fg%2F11sscs8plg!19sChIJVVWVuUQJzjsR6v-cze5tfyw?authuser=0&hl=en&rclk=1,"18.8948082,77.8527185"
EIDGAH DHRAMABAD,Mosque,"VRVV+R48 EIDGAH DHRAMABAD, Unnamed Road, Dharmabad, Maharashtra 431809",,"VRVV+R48, Unnamed Road",Dharmabad,431809,Maharashtra,IN,https://www.google.com/maps/place/EIDGAH+DHRAMABAD/data=!4m7!3m6!1s0x3bce092dd865ad23:0x43491ca1bbc7ba99!8m2!3d18.8945295!4d77.8428327!16s%2Fg%2F11p5csnn80!19sChIJI61l2C0JzjsRmbrHu6EcSUM?authuser=0&hl=en&rclk=1,"18.8945295,77.8428327"
Masjid,Mosque,"VW8Q+JJP Masjid, Basar, Telangana 504101",,VW8Q+JJP,Basar,,Telangana,IN,https://www.google.com/maps/place/Masjid/data=!4m7!3m6!1s0x3bcde10cc7f5aca5:0x9964a345088a20b6!8m2!3d18.8665932!4d77.9390706!16s%2Fg%2F11rvgjzrxx!19sChIJpaz1xwzhzTsRtiCKCEWjZJk?authuser=0&hl=en&rclk=1,"18.8665932,77.9390706"
msjid abdullaa dhrmaabaad,Mosque,"VRXV+96X msjid abdullaa dhrmaabaad, Dharmabad, Maharashtra 431809",,VRXV+96X,Dharmabad,431809,Maharashtra,IN,https://www.google.com/maps/place/%E0%A4%AE%E0%A4%B8%E0%A5%8D%E0%A4%9C%E0%A4%BF%E0%A4%A6+%E0%A4%85%E0%A4%AC%E0%A4%A6%E0%A5%81%E0%A4%B2%E0%A5%8D%E0%A4%B2%E0%A4%BE+%E0%A4%A7%E0%A4%B0%E0%A4%AE%E0%A4%BE%E0%A4%AC%E0%A4%BE%E0%A4%A6/data=!4m7!3m6!1s0x3bce0967bce8ba71:0x5190a887bf5c3eed!8m2!3d18.8985374!4d77.8428997!16s%2Fg%2F11v0qg1xjx!19sChIJcbrovGcJzjsR7T5cv4eokFE?authuser=0&hl=en&rclk=1,"18.8985374,77.84289969999999"
Jama Masjid Kumsara,Place of worship,"3X4J+HF4 Jama Masjid Kumsara, Kumsari, Telangana 504102",,3X4J+HF4,Kumsari,504102,Telangana,IN,https://www.google.com/maps/place/Jama+Masjid+Kumsara/data=!4m7!3m6!1s0x3bcdfdf4c8eb8289:0xb93d9f7ee6f71881!8m2!3d19.0563878!4d77.9812025!16s%2Fg%2F11rfc9rrc6!19sChIJiYLryPT9zTsRgRj35n6fPbk?authuser=0&hl=en&rclk=1,"19.0563878,77.9812025"
Makkah masjid Binola,Mosque,"V3Q5+XQQ Makkah masjid Binola, Binola, Telangana 503246",,V3Q5+XQQ,Binola,503246,Telangana,IN,https://www.google.com/maps/place/Makkah+masjid+Binola/data=!4m7!3m6!1s0x3bcde736e5d409a3:0x654b084de71f1403!8m2!3d18.8899684!4d78.0594874!16s%2Fg%2F11t7c6nbsr!19sChIJownU5TbnzTsRAxQf500IS2U?authuser=0&hl=en&rclk=1,"18.8899684,78.0594874"
Shadulla Husain chilla,Mosque,"VRQV+6W9 Shadulla Husain chilla, Ratnali Rd, Shanker Gunj, Dharmabad, Maharashtra 431809",Shanker Gunj,"VRQV+6W9, Ratnali Rd",Dharmabad,431809,Maharashtra,IN,https://www.google.com/maps/place/Shadulla+Husain+chilla/data=!4m7!3m6!1s0x3bce09836eb28fc7:0xcf04da1252de8024!8m2!3d18.88805!4d77.844847!16s%2Fg%2F11s2rcbrdz!19sChIJx4-yboMJzjsRJIDeUhLaBM8?authuser=0&hl=en&rclk=1,"18.88805,77.844847"
