name,main_category,address,address_ward,address_street,address_city,address_postal_code,address_state,address_country_code,link,coordinates
Gulzaar Masjid,Mosque,"MGCR+66Q Gulzaar Masjid, Bokkalguda St, Brahmanwadi, Adilabad, Telangana 504001",Brahmanwadi,"MGCR+66Q, Bokkalguda St",Adilabad,504001,Telangana,IN,https://www.google.com/maps/place/Gulzaar+Masjid/data=!4m7!3m6!1s0x3bd25c7477d00337:0x3dc61fe7489f62b1!8m2!3d19.6704596!4d78.5395986!16s%2Fg%2F1tcz6sjz!19sChIJNwPQd3Rc0jsRsWKfSOcfxj0?authuser=0&hl=en&rclk=1,"19.670459599999997,78.53959859999999"
Masjid-E-Taneem,Mosque,"MG8P+GJ2 Masjid-E-Taneem, Shanti Nagar, Adilabad, Telangana 504001",Shanti Nagar,MG8P+GJ2,Adilabad,504001,Telangana,IN,https://www.google.com/maps/place/Masjid-E-Taneem/data=!4m7!3m6!1s0x3bd25c7196951817:0xe1695f659d337d7!8m2!3d19.6662707!4d78.5365283!16s%2Fg%2F11c52zx1f3!19sChIJFxiVlnFc0jsR1zfTWfaVFg4?authuser=0&hl=en&rclk=1,"19.6662707,78.5365283"
Madina Masjid,Mosque,"Madina Masjid, Government Junior College, Bhainsa, Telangana 504103",,Government Junior College,Bhainsa,504103,Telangana,IN,https://www.google.com/maps/place/Madina+Masjid/data=!4m7!3m6!1s0x3bcdfe5aef2fd1e3:0x48c8397dc97ab0f6!8m2!3d19.1096769!4d77.9643594!16s%2Fg%2F11b7w99d4p!19sChIJ49Ev71r-zTsR9rB6yX05yEg?authuser=0&hl=en&rclk=1,"19.1096769,77.96435939999999"
Masjid Panjesha,Mosque,"Masjid Panjesha, masjid, panjesha marg, Bhainsa, Telangana 504103",,"masjid, panjesha marg",Bhainsa,,Telangana,IN,https://www.google.com/maps/place/Masjid+Panjesha/data=!4m7!3m6!1s0x3bcdfe45594b318b:0xa9a4527a0d3bdd4e!8m2!3d19.1114013!4d77.9614446!16s%2Fg%2F11xfvxc4m!19sChIJizFLWUX-zTsRTt07DXpSpKk?authuser=0&hl=en&rclk=1,"19.1114013,77.9614446"
Mohammadia Masjid,Mosque,"MGFH+M8P Mohammadia Masjid, NH 44, Vidya Nagar, Adilabad, Telangana 504001",Vidya Nagar,"MGFH+M8P, NH 44",Adilabad,504001,Telangana,IN,https://www.google.com/maps/place/Mohammadia+Masjid/data=!4m7!3m6!1s0x3bd25c7892a2eb3b:0x89c3b0daf8ff360!8m2!3d19.6742243!4d78.5283275!16s%2Fg%2F1tjz1t_5!19sChIJO-uiknhc0jsRYPOPrw07nAg?authuser=0&hl=en&rclk=1,"19.6742243,78.5283275"
Jama Masjid,Mosque,"VRRX+3Q4 Jama Masjid, Railway Station Rd, Dharmabad, Maharashtra 431809",,"VRRX+3Q4, Railway Station Rd",Dharmabad,431809,Maharashtra,IN,https://www.google.com/maps/place/Jama+Masjid/data=!4m7!3m6!1s0x3bce095a6985d181:0x9376586762334371!8m2!3d18.8901443!4d77.8494451!16s%2Fg%2F1hhkhyjk2!19sChIJgdGFaVoJzjsRcUMzYmdYdpM?authuser=0&hl=en&rclk=1,"18.8901443,77.8494451"
Masjid_E_Quba,Mosque,"Masjid_E_Quba, 2-5-216, beside Masjid E Quba Khila, Mohalla Badh, Adilabad, Telangana 504001",Mohalla Badh,"2-5-216, beside Masjid E Quba Khila",Adilabad,504001,Telangana,IN,https://www.google.com/maps/place/Masjid_E_Quba/data=!4m7!3m6!1s0x3bd25bedeaaaaaab:0xe29f9a411d92289b!8m2!3d19.6793188!4d78.5406475!16s%2Fg%2F11bwkvtnj8!19sChIJq6qq6u1b0jsRmyiSHUGan-I?authuser=0&hl=en&rclk=1,"19.6793188,78.54064749999999"
Masjid-e-Meraj,Mosque,"Masjid-e-Meraj, Police lane, Sanjay Nagar, Adilabad, Bhattisavargaon, Telangana 504001",Sanjay Nagar,Police lane,"Adilabad, Bhattisavargaon",504001,Telangana,IN,https://www.google.com/maps/place/Masjid-e-Meraj/data=!4m7!3m6!1s0x3bd25c80a40634d7:0x99b706696d47a613!8m2!3d19.6674917!4d78.5163997!16s%2Fg%2F1tr7b846!19sChIJ1zQGpIBc0jsRE6ZHbWkGt5k?authuser=0&hl=en&rclk=1,"19.6674917,78.5163997"
Masjid E Abubaker,Mosque,"MG8V+54F Masjid E Abubaker, Shanti Nagar, Adilabad, Telangana 504001",Shanti Nagar,MG8V+54F,Adilabad,504001,Telangana,IN,https://www.google.com/maps/place/Masjid+E+Abubaker/data=!4m7!3m6!1s0x3bd25c72afd994d1:0x55e84f035f33b282!8m2!3d19.6654385!4d78.542794!16s%2Fg%2F11c1wsmygw!19sChIJ0ZTZr3Jc0jsRgrIzXwNP6FU?authuser=0&hl=en&rclk=1,"19.6654385,78.542794"
Eid-Gah,Mosque,"4XC4+J65 Eid-Gah, Palsi Road, Telangana 504103",,"4XC4+J65, Palsi Road",,504103,Telangana,IN,https://www.google.com/maps/place/Eid-Gah/data=!4m7!3m6!1s0x3bcdfe4b41f2b35b:0x49272df21ed88662!8m2!3d19.1215231!4d77.9556209!16s%2Fg%2F11b7lhbkzd!19sChIJW7PyQUv-zTsRYobYHvItJ0k?authuser=0&hl=en&rclk=1,"19.121523099999997,77.9556209"
Masjid-e-Umar Farooq,Mosque,"4X79+M2F Masjid-e-Umar Farooq, Umar Farooq St, Abadi, Bhainsa, Telangana 504103",Abadi,"4X79+M2F, Umar Farooq St",Bhainsa,504103,Telangana,IN,https://www.google.com/maps/place/Masjid-e-Umar+Farooq/data=!4m7!3m6!1s0x3bcdfe50d026f4b3:0x9d2df10fc48b7b47!8m2!3d19.1141962!4d77.9675498!16s%2Fg%2F11c1s1_b43!19sChIJs_Qm0FD-zTsRR3uLxA_xLZ0?authuser=0&hl=en&rclk=1,"19.1141962,77.9675498"
Madina Masjid mdynh msjd,Mosque,"MGCJ+GX8 Madina Masjid mdynh msjd, Netaji Chowk Rd, Ponnar, Bhuktapur, Telangana 504001",Ponnar,"MGCJ+GX8, Netaji Chowk Rd",Bhuktapur,504001,Telangana,IN,https://www.google.com/maps/place/Madina+Masjid+%D9%85%D8%AF%DB%8C%D9%86%DB%81+%D9%85%D8%B3%D8%AC%D8%AF%E2%80%AD/data=!4m7!3m6!1s0x3bd25c7742dd0b05:0xf2fb259a889bfa78!8m2!3d19.6712846!4d78.5324561!16s%2Fg%2F11fzzxxq7l!19sChIJBQvdQndc0jsRePqbiJol-_I?authuser=0&hl=en&rclk=1,"19.6712846,78.53245609999999"
Muhammadiya Masjid,Mosque,"MG29+X76 Muhammadiya Masjid, Ramnagar Colony, Adilabad, Telangana 504001",Ramnagar Colony,MG29+X76,Adilabad,504001,Telangana,IN,https://www.google.com/maps/place/Muhammadiya+Masjid/data=!4m7!3m6!1s0x3bd25c8ad95e1f51:0xc9001b8ca6d7fd64!8m2!3d19.6524043!4d78.5181462!16s%2Fg%2F11cn7qqr7d!19sChIJUR9e2Ypc0jsRZP3XpowbAMk?authuser=0&hl=en&rclk=1,"19.6524043,78.51814619999999"
MASJID-E-MOMINAN,Mosque,"4X76+4V9 MASJID-E-MOMINAN, mominan Galli, Siddhartha Nagar, Bhainsa, Telangana 504103",Siddhartha Nagar,"4X76+4V9, mominan Galli",Bhainsa,504103,Telangana,IN,https://www.google.com/maps/place/MASJID-E-MOMINAN/data=!4m7!3m6!1s0x3bcdfe4fe1772615:0x1ea8449dd9031e42!8m2!3d19.1127883!4d77.9622459!16s%2Fg%2F11bymwdg7g!19sChIJFSZ34U_-zTsRQh4D2Z1EqB4?authuser=0&hl=en&rclk=1,"19.1127883,77.9622459"
Abubakr masjid,Mosque,"MG8R+J7F Abubakr masjid, Shanti Nagar, Adilabad, Telangana 504001",Shanti Nagar,MG8R+J7F,Adilabad,504001,Telangana,IN,https://www.google.com/maps/place/Abubakr+masjid/data=!4m7!3m6!1s0x3bd25c72f6f46bc9:0xcd16458f413f5d2e!8m2!3d19.6665675!4d78.5406681!16s%2Fg%2F11c607nzf4!19sChIJyWv09nJc0jsRLl0_QY9FFs0?authuser=0&hl=en&rclk=1,"19.6665675,78.54066809999999"
Jama Masjid Yamcha,Mosque,"VX58+7CH Jama Masjid Yamcha, Yamcha, Mittapur, Telangana 503245",,VX58+7CH,"Yamcha, Mittapur",503245,Telangana,IN,https://www.google.com/maps/place/Jama+Masjid+Yamcha/data=!4m7!3m6!1s0x3bcde1a5c1d9f90b:0x34db0c2cbc7dd913!8m2!3d18.8581768!4d77.9660989!16s%2Fg%2F11c6ffz46t!19sChIJC_nZwaXhzTsRE9l9vCwM2zQ?authuser=0&hl=en&rclk=1,"18.8581768,77.96609889999999"
Masjid E Hassan,Mosque,"MG8V+QPM Masjid E Hassan, Unnamed Road, Shanti Nagar, Adilabad, Telangana 504001",Shanti Nagar,"MG8V+QPM, Unnamed Road",Adilabad,504001,Telangana,IN,https://www.google.com/maps/place/Masjid+E+Hassan/data=!4m7!3m6!1s0x3bd25c0d29000079:0xa0cc092090b96993!8m2!3d19.6669651!4d78.5443022!16s%2Fg%2F11dfk_8lt4!19sChIJeQAAKQ1c0jsRk2m5kCAJzKA?authuser=0&hl=en&rclk=1,"19.6669651,78.54430219999999"
Jama Masjid,Mosque,"4X76+PG6 Jama Masjid, Bhainsa, Telangana 504103",,4X76+PG6,Bhainsa,504103,Telangana,IN,https://www.google.com/maps/place/Jama+Masjid/data=!4m7!3m6!1s0x3bcdfe4fcb6d4d3b:0x5b221d8cd9bf7450!8m2!3d19.1142804!4d77.961278!16s%2Fg%2F11by_ln6gj!19sChIJO01ty0_-zTsRUHS_2YwdIls?authuser=0&hl=en&rclk=1,"19.1142804,77.961278"
Masjid Abdul Rasheed,Mosque,"RV6Q+3W3 Masjid Abdul Rasheed, Kandakurthi, Telangana 503235",,RV6Q+3W3,Kandakurthi,503235,Telangana,IN,https://www.google.com/maps/place/Masjid+Abdul+Rasheed/data=!4m7!3m6!1s0x3bce0adc6a597ea7:0xdedf1b9de6309363!8m2!3d18.8101262!4d77.8898032!16s%2Fg%2F11c2r7qzmf!19sChIJp35ZatwKzjsRY5Mw5p0b394?authuser=0&hl=en&rclk=1,"18.8101262,77.8898032"
MASJID E MAHEBOOB E SUBHANI ( Markaz e Ahle Sunnat ),Mosque,"MASJID E MAHEBOOB E SUBHANI ( Markaz e Ahle Sunnat ), Sanjay Nagar, Adilabad, Telangana 504001",Sanjay Nagar,,Adilabad,504001,Telangana,IN,https://www.google.com/maps/place/MASJID+E+MAHEBOOB+E+SUBHANI+%28+Markaz+e+Ahle+Sunnat+%29/data=!4m7!3m6!1s0x3bd25c7cd0000001:0xe56e990e56fe962c!8m2!3d19.6669356!4d78.5213162!16s%2Fg%2F11c2kk77hk!19sChIJAQAA0Hxc0jsRLJb-Vg6ZbuU?authuser=0&hl=en&rclk=1,"19.6669356,78.5213162"
Masjid,Mosque,"HFPR+4Q8 Masjid, Adilabad, Telangana 504308",,HFPR+4Q8,Adilabad,504308,Telangana,IN,https://www.google.com/maps/place/Masjid/data=!4m7!3m6!1s0x3bd25d5bfe1eb429:0x753a217332ff9baa!8m2!3d19.5852914!4d78.4919588!16s%2Fg%2F11dxq2d28t!19sChIJKbQe_ltd0jsRqpv_MnMhOnU?authuser=0&hl=en&rclk=1,"19.5852914,78.49195879999999"
"Masjid E Ibrahim, Barktpura",Mosque,"V5G2+6GW Masjid E Ibrahim, Barktpura, Nandipet, Telangana 503212",,V5G2+6GW,Nandipet,503212,Telangana,IN,"https://www.google.com/maps/place/Masjid+E+Ibrahim,+Barktpura/data=!4m7!3m6!1s0x3bcde8e0d7a7ca29:0x90e848f7ab731261!8m2!3d18.8756018!4d78.1513263!16s%2Fg%2F11c3117pqk!19sChIJKcqn1-DozTsRYRJzq_dI6JA?authuser=0&hl=en&rclk=1","18.8756018,78.1513263"
Masjid E Tauheed Bhainsa,Mosque,"Masjid E Tauheed Bhainsa, Government Junior College, near jr, Bhainsa, Telangana 504103",,"Government Junior College, near jr",Bhainsa,504103,Telangana,IN,https://www.google.com/maps/place/Masjid+E+Tauheed+Bhainsa/data=!4m7!3m6!1s0x3bcdfe5abe12d209:0xcb0d4c3a60c43c0e!8m2!3d19.1106262!4d77.9637239!16s%2Fg%2F11g8nzxgs0!19sChIJCdISvlr-zTsRDjzEYDpMDcs?authuser=0&hl=en&rclk=1,"19.1106262,77.96372389999999"
Osman Masjid,Mosque,"4X47+RJX Osman Masjid, Asad Baba Nagar, Bhainsa, Telangana 504103",Asad Baba Nagar,4X47+RJX,Bhainsa,504103,Telangana,IN,https://www.google.com/maps/place/Osman+Masjid/data=!4m7!3m6!1s0x3bcdfe5b6bc0025d:0x854fb770d38fd2a3!8m2!3d19.107103!4d77.9641068!16s%2Fg%2F11cn6jvztk!19sChIJXQLAa1v-zTsRo9KP03C3T4U?authuser=0&hl=en&rclk=1,"19.107103,77.9641068"
Zulfaquar Masjid,Mosque,"Zulfaquar Masjid, Batti Galli, Bhainsa, Telangana 504103",,Batti Galli,Bhainsa,504103,Telangana,IN,https://www.google.com/maps/place/Zulfaquar+Masjid/data=!4m7!3m6!1s0x3bcdfe458e005063:0x3327cc952a5d40c3!8m2!3d19.1106687!4d77.9585257!16s%2Fg%2F11b7lgcncq!19sChIJY1AAjkX-zTsRw0BdKpXMJzM?authuser=0&hl=en&rclk=1,"19.110668699999998,77.9585257"
JAMA MASJID POTHANGAL,Mosque,"R2CX+8MH JAMA MASJID POTHANGAL, Pothangal, Telangana 503246",,R2CX+8MH,Pothangal,503246,Telangana,IN,https://www.google.com/maps/place/JAMA+MASJID+POTHANGAL/data=!4m7!3m6!1s0x3bcde76c6b758535:0x7621dc1128fdb510!8m2!3d18.8208019!4d78.0492206!16s%2Fg%2F11d_txd_3l!19sChIJNYV1a2znzTsRELX9KBHcIXY?authuser=0&hl=en&rclk=1,"18.8208019,78.0492206"
Eidgah Boregaon,Mosque,"QWCG+FQH Eidgah Boregaon, Boregaon, Telangana 503235",,QWCG+FQH,Boregaon,503235,Telangana,IN,https://www.google.com/maps/place/Eidgah+Boregaon/data=!4m7!3m6!1s0x3bce755fe8e5932b:0x4f3c766d057b617b!8m2!3d18.7711963!4d77.9269836!16s%2Fg%2F11gfkbz1y5!19sChIJK5Pl6F91zjsRe2F7BW12PE8?authuser=0&hl=en&rclk=1,"18.7711963,77.9269836"
Jama Masjid Balapur,Mosque,"VVQ7+G42 Jama Masjid Balapur, Unnamed Road, Balapur Dharmabad, Maharashtra 431809",,"VVQ7+G42, Unnamed Road",Balapur Dharmabad,431809,Maharashtra,IN,https://www.google.com/maps/place/Jama+Masjid+Balapur/data=!4m7!3m6!1s0x3bce09612b4f64b3:0xa43c832f950ffd33!8m2!3d18.8887613!4d77.8627531!16s%2Fg%2F11gbxb0tkx!19sChIJs2RPK2EJzjsRM_0PlS-DPKQ?authuser=0&hl=en&rclk=1,"18.8887613,77.86275309999999"
Kaali Masjid,Mosque,"4X86+8VM Kaali Masjid, Bhainsa, Telangana 504103",,4X86+8VM,Bhainsa,504103,Telangana,IN,https://www.google.com/maps/place/Kaali+Masjid/data=!4m7!3m6!1s0x3bcdff01ee4823b7:0x7c003f504db3c40c!8m2!3d19.1158403!4d77.9621864!16s%2Fg%2F11f6mcqf45!19sChIJtyNI7gH_zTsRDMSzTVA_AHw?authuser=0&hl=en&rclk=1,"19.1158403,77.9621864"
Mehbobiya Masjid,Mosque,"VRWX+4RW Mehbobiya Masjid, Unnamed Road, Dharmabad, Maharashtra 431809",,"VRWX+4RW, Unnamed Road",Dharmabad,431809,Maharashtra,IN,https://www.google.com/maps/place/Mehbobiya+Masjid/data=!4m7!3m6!1s0x3bce09456ac5ab6f:0x36b472ee20305144!8m2!3d18.8953653!4d77.8495855!16s%2Fg%2F11g6zhfr0d!19sChIJb6vFakUJzjsRRFEwIO5ytDY?authuser=0&hl=en&rclk=1,"18.895365299999998,77.8495855"
MADINA MASJID,Place of worship,"VVQ3+7FV MADINA MASJID, Dharmabad Rd, Dharmabad, Maharashtra 431809",,"VVQ3+7FV, Dharmabad Rd",Dharmabad,431809,Maharashtra,IN,https://www.google.com/maps/place/MADINA+MASJID/data=!4m7!3m6!1s0x3bce095bfe295b5b:0xdae54f20c45d2af6!8m2!3d18.8882258!4d77.8536762!16s%2Fg%2F11bxf0xzf0!19sChIJW1sp_lsJzjsR9ipdxCBP5do?authuser=0&hl=en&rclk=1,"18.8882258,77.8536762"
Jama Masjid Ratnale,Mosque,"VRPP+9Q8 Jama Masjid Ratnale, Ratnale, Dharmabad, Maharashtra 431809",,VRPP+9Q8,"Ratnale, Dharmabad",431809,Maharashtra,IN,https://www.google.com/maps/place/Jama+Masjid+Ratnale/data=!4m7!3m6!1s0x3bce0954b4677af7:0x2e4c719a06daa534!8m2!3d18.8859186!4d77.8369382!16s%2Fg%2F11c32j_2q1!19sChIJ93pntFQJzjsRNKXaBppxTC4?authuser=0&hl=en&rclk=1,"18.8859186,77.83693819999999"
Umar Masjid,Mosque,"MG2H+9J7 Umar Masjid, Pittalwada, Khoja Colony, Adilabad, Telangana 504001","Pittalwada, Khoja Colony",MG2H+9J7,Adilabad,504001,Telangana,IN,https://www.google.com/maps/place/Umar+Masjid/data=!4m7!3m6!1s0x3bd25c5d9e45a7ff:0xd9937a4c4bfe8c53!8m2!3d19.6509166!4d78.5290486!16s%2Fg%2F11fx95lqmp!19sChIJ_6dFnl1c0jsRU4z-S0x6k9k?authuser=0&hl=en&rclk=1,"19.6509166,78.5290486"
Jama Masjid,Mosque,"XWG6+C48 Jama Masjid, Mudhole, Telangana 504102",,XWG6+C48,Mudhole,504102,Telangana,IN,https://www.google.com/maps/place/Jama+Masjid/data=!4m7!3m6!1s0x3bce080bcfe00875:0x521c3c0cceda907b!8m2!3d18.976033!4d77.910315!16s%2Fg%2F11cs6hpvpt!19sChIJdQjgzwsIzjsRe5Dazgw8HFI?authuser=0&hl=en&rclk=1,"18.976032999999997,77.910315"
"Old Masjid,Khudavandpoor",Mosque,"V5HP+PF8 Old Masjid,Khudavandpoor, Telangana 503212",,V5HP+PF8,,503212,Telangana,IN,"https://www.google.com/maps/place/Old+Masjid,Khudavandpoor/data=!4m7!3m6!1s0x3bcde969eaf5c695:0x61a5cf299e500802!8m2!3d18.8792964!4d78.1862171!16s%2Fg%2F11cs47y8xw!19sChIJlcb16mnpzTsRAghQninPpWE?authuser=0&hl=en&rclk=1","18.879296399999998,78.1862171"
ISLAMIA MASJID,Mosque,"33P9+Q3G ISLAMIA MASJID, Unnamed Road, Pendapalle, Telangana 504109",,"33P9+Q3G, Unnamed Road",Pendapalle,504109,Telangana,IN,https://www.google.com/maps/place/ISLAMIA+MASJID/data=!4m7!3m6!1s0x3bcdf9a84cf030af:0x3505c992c42fe512!8m2!3d19.0869441!4d78.0677168!16s%2Fg%2F11h1lsvqdn!19sChIJrzDwTKj5zTsREuUvxJLJBTU?authuser=0&hl=en&rclk=1,"19.0869441,78.0677168"
Masjid-E-Bilal,Religious destination,"Ward no 8, Masjid-E-Bilal, Baraimam galliy, Bhainsa, Telangana 504103",,"Ward no 8, Baraimam galliy",Bhainsa,,Telangana,IN,https://www.google.com/maps/place/Masjid-E-Bilal/data=!4m7!3m6!1s0x3bcdff7d9ed1862d:0xc152153d2799454f!8m2!3d19.1132198!4d77.963905!16s%2Fg%2F11j018hd_k!19sChIJLYbRnn3_zTsRT0WZJz0VUsE?authuser=0&hl=en&rclk=1,"19.1132198,77.963905"
Madina Masjid,Mosque,"XWPC+CGC Madina Masjid, Mudhole St, Mudhole, Telangana 504102",,"XWPC+CGC, Mudhole St",Mudhole,504102,Telangana,IN,https://www.google.com/maps/place/Madina+Masjid/data=!4m7!3m6!1s0x3bce07fc0d5ab6d9:0xef39beed9a49c2b0!8m2!3d18.9860691!4d77.9212626!16s%2Fg%2F11fyzflsc6!19sChIJ2bZaDfwHzjsRsMJJmu2-Oe8?authuser=0&hl=en&rclk=1,"18.986069099999998,77.92126259999999"
Masjid-E-Imam Unnissa,Mosque,"4X88+73C Masjid-E-Imam Unnissa, Bhainsa, Telangana 504103",,4X88+73C,Bhainsa,504103,Telangana,IN,https://www.google.com/maps/place/Masjid-E-Imam+Unnissa/data=!4m7!3m6!1s0x3bcdff48f9d34921:0xbfa3a3b4df1b04b1!8m2!3d19.1156767!4d77.965154!16s%2Fg%2F11n60wjr3b!19sChIJIUnT-Uj_zTsRsQQb37Sjo78?authuser=0&hl=en&rclk=1,"19.115676699999998,77.965154"
JAAMA MASJID,Mosque,"V5HQ+CR2 JAAMA MASJID, Khudavandapur, Telangana 503212",,V5HQ+CR2,Khudavandapur,503212,Telangana,IN,https://www.google.com/maps/place/JAAMA+MASJID/data=!4m7!3m6!1s0x3bcde9686667a3f5:0xee541aaa8c8de747!8m2!3d18.8785188!4d78.1895025!16s%2Fg%2F11c5350yrl!19sChIJ9aNnZmjpzTsRR-eNjKoaVO4?authuser=0&hl=en&rclk=1,"18.8785188,78.1895025"
Masjid e Raza,Mosque,"XWF6+J4R Masjid e Raza, Mudhole, Telangana 504102",,XWF6+J4R,Mudhole,504102,Telangana,IN,https://www.google.com/maps/place/Masjid+e+Raza/data=!4m7!3m6!1s0x3bce080bf0b3996b:0x6a28aa7b8634486e!8m2!3d18.9741249!4d77.9102554!16s%2Fg%2F11gbk4v73l!19sChIJa5mz8AsIzjsRbkg0hnuqKGo?authuser=0&hl=en&rclk=1,"18.9741249,77.9102554"
Masjid e Noorani,Mosque,"MGMQ+P66 Masjid e Noorani, Mahalaxmiwada, Adilabad, Telangana 504001",Mahalaxmiwada,MGMQ+P66,Adilabad,504001,Telangana,IN,https://www.google.com/maps/place/Masjid+e+Noorani/data=!4m7!3m6!1s0x3bd25b71656d7da1:0x9db65c4943296ea6!8m2!3d19.6842802!4d78.5380187!16s%2Fg%2F11gphd3bdg!19sChIJoX1tZXFb0jsRpm4pQ0lctp0?authuser=0&hl=en&rclk=1,"19.6842802,78.5380187"
Masjid -e- Bilal,Mosque,"VRRR+WQQ Masjid -e- Bilal, Dharmabad, Maharashtra 431809",,VRRR+WQQ,Dharmabad,431809,Maharashtra,IN,https://www.google.com/maps/place/Masjid+-e-+Bilal/data=!4m7!3m6!1s0x3bce09521b8c2309:0xcc8cbdc30dbc6427!8m2!3d18.8923325!4d77.8419851!16s%2Fg%2F11c481zd1v!19sChIJCSOMG1IJzjsRJ2S8DcO9jMw?authuser=0&hl=en&rclk=1,"18.8923325,77.8419851"
Makkah masjid,Mosque,"VRQR+M4V Makkah masjid, Moula Ali nagar, Rukmininagar, Dharmabad, Maharashtra 431809",Rukmininagar,"VRQR+M4V, Moula Ali nagar",Dharmabad,431809,Maharashtra,IN,https://www.google.com/maps/place/Makkah+masjid/data=!4m7!3m6!1s0x3bce09d433e118e7:0x4abd6616c35c0036!8m2!3d18.8892455!4d77.840302!16s%2Fg%2F11h84qcdzy!19sChIJ5xjhM9QJzjsRNgBcwxZmvUo?authuser=0&hl=en&rclk=1,"18.889245499999998,77.840302"
Eidgah,Mosque,"VXQ2+7MV Eidgah, Unnamed Road, Basar, Telangana 504101",,"VXQ2+7MV, Unnamed Road",Basar,504101,Telangana,IN,https://www.google.com/maps/place/Eidgah/data=!4m7!3m6!1s0x3bcde164e3bf8225:0x2cf329b4e243115a!8m2!3d18.888246!4d77.951684!16s%2Fg%2F11jn2m4mzj!19sChIJJYK_42ThzTsRWhFD4rQp8yw?authuser=0&hl=en&rclk=1,"18.888246,77.951684"
MOHAMMADIYA MASJID,Mosque,"XVR7+2R5 MOHAMMADIYA MASJID, Nandgam, Telangana 504102",,XVR7+2R5,Nandgam,504102,Telangana,IN,https://www.google.com/maps/place/MOHAMMADIYA+MASJID/data=!4m7!3m6!1s0x3bce07528ded7757:0x80b1e2eefa1c65c1!8m2!3d18.9900182!4d77.8646149!16s%2Fg%2F11tcm00p9l!19sChIJV3ftjVIHzjsRwWUc-u7isYA?authuser=0&hl=en&rclk=1,"18.990018199999998,77.86461489999999"
Madhar Khan Masjid,Mosque,"4X23+8HV Madhar Khan Masjid, National Highway 222, Khan Auto Nagar, Bhainsa, Telangana 504103",Khan Auto Nagar,"4X23+8HV, National Highway 222",Bhainsa,504103,Telangana,IN,https://www.google.com/maps/place/Madhar+Khan+Masjid/data=!4m7!3m6!1s0x3bcdfe41b557545b:0xd92f6034489efa34!8m2!3d19.1008595!4d77.9539175!16s%2Fg%2F11b7c49jxk!19sChIJW1RXtUH-zTsRNPqeSDRgL9k?authuser=0&hl=en&rclk=1,"19.1008595,77.9539175"
Masjid,Mosque,"V4J3+G35 Masjid, Talveda, Telangana 503212",,V4J3+G35,Talveda,503212,Telangana,IN,https://www.google.com/maps/place/Masjid/data=!4m7!3m6!1s0x3bcde61bd6f5a8df:0x2075fc2b5df30b25!8m2!3d18.8812633!4d78.1027307!16s%2Fg%2F11d_bkbh7z!19sChIJ36j11hvmzTsRJQvzXSv8dSA?authuser=0&hl=en&rclk=1,"18.8812633,78.1027307"
Muslim Qabristan Nandgam,Mosque,"XVR7+5J9 Muslim Qabristan Nandgam, Nandgam, Telangana 504102",,XVR7+5J9,Nandgam,,Telangana,IN,https://www.google.com/maps/place/Muslim+Qabristan+Nandgam/data=!4m7!3m6!1s0x3bce07ab91b1e49f:0x666a58e51e7530ef!8m2!3d18.9904156!4d77.8640952!16s%2Fg%2F11tmfljntd!19sChIJn-SxkasHzjsR7zB1HuVYamY?authuser=0&hl=en&rclk=1,"18.9904156,77.8640952"
Makka masjid,Mosque,"4X49+5GM Makka masjid, Owaisi nagar, Bhainsa, Telangana 504103",Owaisi nagar,4X49+5GM,Bhainsa,504103,Telangana,IN,https://www.google.com/maps/place/Makka+masjid/data=!4m7!3m6!1s0x3bcdff0eae709cdd:0x6854d10775edfe3!8m2!3d19.1054591!4d77.9688006!16s%2Fg%2F11j7cswkz7!19sChIJ3Zxwrg7_zTsR499edxBNhQY?authuser=0&hl=en&rclk=1,"19.105459099999997,77.9688006"
Mohammadiya Masjid New Aabadi,Mosque,"QWG4+6RV Mohammadiya Masjid New Aabadi, Neela, Telangana 503235",,QWG4+6RV,Neela,503235,Telangana,IN,https://www.google.com/maps/place/Mohammadiya+Masjid+New+Aabadi/data=!4m7!3m6!1s0x3bce750e0efc2edd:0x215d3e2404062d39!8m2!3d18.7756045!4d77.9070523!16s%2Fg%2F11h7cvn4fc!19sChIJ3S78Dg51zjsROS0GBCQ-XSE?authuser=0&hl=en&rclk=1,"18.7756045,77.90705229999999"
Masjid-e-Siddique,Mosque,"MG78+GG3 Masjid-e-Siddique, Unnamed Road, Subhash Nagar, Adilabad, Telangana 504001",Subhash Nagar,"MG78+GG3, Unnamed Road",Adilabad,504001,Telangana,IN,https://www.google.com/maps/place/Masjid-e-Siddique/data=!4m7!3m6!1s0x3bd25ddfdb658e8d:0x40be051be107f7ff!8m2!3d19.66377!4d78.516291!16s%2Fg%2F11h6mnz8kz!19sChIJjY5l299d0jsR__cH4RsFvkA?authuser=0&hl=en&rclk=1,"19.66377,78.516291"
Abdula mosque,Mosque,"VRXV+96X Abdula mosque, Dharmabad, Maharashtra 431809",,VRXV+96X,Dharmabad,431809,Maharashtra,IN,https://www.google.com/maps/place/Abdula+mosque/data=!4m7!3m6!1s0x3bce099a3232c25d:0xe9ed8c5631fa0463!8m2!3d18.8985373!4d77.8428997!16s%2Fg%2F11vdm0pv73!19sChIJXcIyMpoJzjsRYwT6MVaM7ek?authuser=0&hl=en&rclk=1,"18.898537299999997,77.84289969999999"
Masjid,Mosque,"575J+M85 Masjid, Rd, Boragaon, Boregaon, Telangana 504110",,"575J+M85, Rd","Boragaon, Boregaon",504110,Telangana,IN,https://www.google.com/maps/place/Masjid/data=!4m7!3m6!1s0x3bcdf5566038f497:0x4b6461d2e0d594e4!8m2!3d19.1591405!4d78.2808603!16s%2Fg%2F11r9h611j1!19sChIJl_Q4YFb1zTsR5JTV4NJhZEs?authuser=0&hl=en&rclk=1,"19.1591405,78.2808603"
MAKTAB ABU BAKKAR SIDDIQ AILAPUR masjid,Mosque,"R4XC+R93 MAKTAB ABU BAKKAR SIDDIQ AILAPUR masjid, Ailapur, Gunjali, Telangana 503212",,R4XC+R93,"Ailapur, Gunjali",,Telangana,IN,https://www.google.com/maps/place/MAKTAB+ABU+BAKKAR+SIDDIQ+AILAPUR+masjid/data=!4m7!3m6!1s0x3bcde9f36adbabc3:0x71fe00fb81b6ee5d!8m2!3d18.849512!4d78.12091!16s%2Fg%2F11tx1s7mnm!19sChIJw6vbavPpzTsRXe62gfsA_nE?authuser=0&hl=en&rclk=1,"18.849512,78.12091"
Masijd,Mosque,"37RJ+GWX Masijd, Sirgapur, Telangana 504306",,37RJ+GWX,Sirgapur,504306,Telangana,IN,https://www.google.com/maps/place/Masijd/data=!4m7!3m6!1s0x3bcdf33758e9a9e3:0xdf1a41fcd63d0884!8m2!3d19.0913546!4d78.2823573!16s%2Fg%2F11ssjwr2t4!19sChIJ46npWDfzzTsRhAg91vxBGt8?authuser=0&hl=en&rclk=1,"19.0913546,78.2823573"
Jama masjid,Mosque,"X3CH+HHH Jama masjid, Unnamed Road, Dharmara, Telangana 504104",,"X3CH+HHH, Unnamed Road",Dharmara,504104,Telangana,IN,https://www.google.com/maps/place/Jama+masjid/data=!4m7!3m6!1s0x3bcde506ad45489d:0xd1d7c1c541293b7c!8m2!3d18.9714412!4d78.0789727!16s%2Fg%2F11r6xq5r2z!19sChIJnUhFrQblzTsRfDspQcXB19E?authuser=0&hl=en&rclk=1,"18.971441199999997,78.0789727"
Jama Masjid Nikalpoor,Mosque,"W5Q8+3CH Jama Masjid Nikalpoor, Nizmabad, Nikalpur, Telangana 503212",,"W5Q8+3CH, Nizmabad",Nikalpur,503212,Telangana,IN,https://www.google.com/maps/place/Jama+Masjid+Nikalpoor/data=!4m7!3m6!1s0x3bcdeee53497f8e9:0x39d6ff72e8b22f94!8m2!3d18.9376999!4d78.1661121!16s%2Fg%2F11g6bm2xmm!19sChIJ6fiXNOXuzTsRlC-y6HL_1jk?authuser=0&hl=en&rclk=1,"18.9376999,78.16611209999999"
Masjid-e-Ibrahim,Mosque,"4X3F+MGW Masjid-e-Ibrahim, Owasi Nagar, Bhainsa, Telangana 504103",Owasi Nagar,4X3F+MGW,Bhainsa,504103,Telangana,IN,https://www.google.com/maps/place/Masjid-e-Ibrahim/data=!4m7!3m6!1s0x3bcdff2e3ed8c869:0x9a1ebb33c7592548!8m2!3d19.1042258!4d77.9738428!16s%2Fg%2F11jpgpwxgp!19sChIJacjYPi7_zTsRSCVZxzO7Hpo?authuser=0&hl=en&rclk=1,"19.1042258,77.9738428"
JAME MASJID msiid Nagepoor,Mosque,"RX2W+G8Q JAME MASJID msiid Nagepoor, Basara Rd, near zphs, Nagepur, Telangana 503245",,"RX2W+G8Q, Basara Rd, near zphs",Nagepur,,Telangana,IN,https://www.google.com/maps/place/JAME+MASJID+%E0%B0%AE%E0%B0%B8%E0%B1%80%E0%B0%A6%E0%B1%8D+Nagepoor/data=!4m7!3m6!1s0x3bcde1757e333251:0x3f5941690a1096c8!8m2!3d18.8013323!4d77.9958577!16s%2Fg%2F11h3kbhg6b!19sChIJUTIzfnXhzTsRyJYQCmlBWT8?authuser=0&hl=en&rclk=1,"18.8013323,77.9958577"
Owaisi masjid,Mosque,"4X3C+PVW Owaisi masjid, Rd number 2, Bhainsa, Telangana 504103",,"4X3C+PVW, Rd number 2",Bhainsa,504103,Telangana,IN,https://www.google.com/maps/place/Owaisi+masjid/data=!4m7!3m6!1s0x3bcdffb38f817769:0x3746a83dd7b84291!8m2!3d19.1044739!4d77.9714137!16s%2Fg%2F11s5627lk5!19sChIJaXeBj7P_zTsRkUK41z2oRjc?authuser=0&hl=en&rclk=1,"19.1044739,77.9714137"
Zahoor Masjid,Mosque,"VVQ2+MP8 Zahoor Masjid, Dharmabad, Maharashtra 431809",,VVQ2+MP8,Dharmabad,431809,Maharashtra,IN,https://www.google.com/maps/place/Zahoor+Masjid/data=!4m7!3m6!1s0x3bce095bc5ddef05:0xdb0aa629d867afcd!8m2!3d18.8891546!4d77.8518288!16s%2Fg%2F11f4ptkzlt!19sChIJBe_dxVsJzjsRza9n2CmmCts?authuser=0&hl=en&rclk=1,"18.889154599999998,77.85182879999999"
Aqsa Masjid,Mosque,"4X4G+44V Aqsa Masjid, Bhainsa, Telangana 504103",,4X4G+44V,Bhainsa,504103,Telangana,IN,https://www.google.com/maps/place/Aqsa+Masjid/data=!4m7!3m6!1s0x3bcdffefc08d1e65:0x78398d3d727b1cd0!8m2!3d19.1053514!4d77.9752969!16s%2Fg%2F11jf0jv14x!19sChIJZR6NwO__zTsR0Bx7cj2NOXg?authuser=0&hl=en&rclk=1,"19.1053514,77.9752969"
Darul Uloom Faiz ul Quran,Mosque,"XWRC+9P3 Darul Uloom Faiz ul Quran, Adilabad, Telangana 504102",,XWRC+9P3,Adilabad,,Telangana,IN,https://www.google.com/maps/place/Darul+Uloom+Faiz+ul+Quran/data=!4m7!3m6!1s0x3bce0764d16d9c37:0x9f8a0bf244810834!8m2!3d18.9908992!4d77.9218055!16s%2Fg%2F11g1fv10bs!19sChIJN5xt0WQHzjsRNAiBRPILip8?authuser=0&hl=en&rclk=1,"18.990899199999998,77.92180549999999"
Dargah masjid,Mosque,"4X86+MR9 Dargah masjid, Old Bazar Rd, Bhainsa, Telangana 504103",,"4X86+MR9, Old Bazar Rd",Bhainsa,504103,Telangana,IN,https://www.google.com/maps/place/Dargah+masjid/data=!4m7!3m6!1s0x3bcdff763fbf880f:0x512b48d84c4231e0!8m2!3d19.1167346!4d77.962365!16s%2Fg%2F11sz2st0k3!19sChIJD4i_P3b_zTsR4DFCTNhIK1E?authuser=0&hl=en&rclk=1,"19.1167346,77.96236499999999"
Jama masjid,Mosque,"W329+52F Jama masjid, Naleshwar, Binola, Telangana 503246",,W329+52F,"Naleshwar, Binola",503246,Telangana,IN,https://www.google.com/maps/place/Jama+masjid/data=!4m7!3m6!1s0x3bcde56006a65bb5:0xa91c0bd3bb2daf87!8m2!3d18.9004336!4d78.067533!16s%2Fg%2F11rhp_r4kr!19sChIJtVumBmDlzTsRh68tu9MLHKk?authuser=0&hl=en&rclk=1,"18.9004336,78.067533"
Dastagir Saheb Burj,Mosque,"2X6X+X44 Dastagir Saheb Burj, Edbid, Telangana 504102",,2X6X+X44,Edbid,504102,Telangana,IN,https://www.google.com/maps/place/Dastagir+Saheb+Burj/data=!4m7!3m6!1s0x3bcdfdd991c2255f:0xc03dc50b054bc67f!8m2!3d19.0131884!4d77.9979526!16s%2Fg%2F11pz0j6z29!19sChIJXyXCkdn9zTsRf8ZLBQvFPcA?authuser=0&hl=en&rclk=1,"19.0131884,77.99795259999999"
Jama Masjid (Dhagaon),Mosque,"2V3M+H5J Jama Masjid (Dhagaon), Dhagaon, Telangana 504102",,2V3M+H5J,Dhagaon,504102,Telangana,IN,https://www.google.com/maps/place/Jama+Masjid+%28Dhagaon%29/data=!4m7!3m6!1s0x3bce0727bed48a03:0xca3f528a32d322e2!8m2!3d19.0039639!4d77.8828794!16s%2Fg%2F11trgx4wrs!19sChIJA4rUvicHzjsR4iLTMopSP8o?authuser=0&hl=en&rclk=1,"19.0039639,77.8828794"
Masjid-e-Taweed,Mosque,"W49M+X9V Masjid-e-Taweed, Ummeda, Telangana 503212",,W49M+X9V,Ummeda,503212,Telangana,IN,https://www.google.com/maps/place/Masjid-e-Taweed/data=!4m7!3m6!1s0x3bcdef84711adc7f:0x8386494f394d9ae7!8m2!3d18.9199843!4d78.1334202!16s%2Fg%2F11f9zdrpmj!19sChIJf9wacYTvzTsR55pNOU9JhoM?authuser=0&hl=en&rclk=1,"18.9199843,78.1334202"
Madarse Mohammadia Talim Ul Quran Wo Deniyat,Mosque,"XWG7+PGX Madarse Mohammadia Talim Ul Quran Wo Deniyat, Mudhole, Telangana 504102",,XWG7+PGX,Mudhole,504102,Telangana,IN,https://www.google.com/maps/place/Madarse+Mohammadia+Talim+Ul+Quran+Wo+Deniyat/data=!4m7!3m6!1s0x3bce080855555555:0xa685082d5b291ae3!8m2!3d18.9768748!4d77.9138661!16s%2Fg%2F11fy_395k9!19sChIJVVVVVQgIzjsR4xopWy0IhaY?authuser=0&hl=en&rclk=1,"18.976874799999997,77.91386609999999"
dawal malik dargah(Dhagaon),Mosque,"2V3M+965 dawal malik dargah(Dhagaon), Dhagaon, Telangana 504102",,2V3M+965,Dhagaon,504102,Telangana,IN,https://www.google.com/maps/place/dawal+malik+dargah%28Dhagaon%29/data=!4m7!3m6!1s0x3bce0784a4b48061:0xdbf15b4f084afd8f!8m2!3d19.0031897!4d77.8832948!16s%2Fg%2F11kjm3syc4!19sChIJYYC0pIQHzjsRj_1KCE9b8ds?authuser=0&hl=en&rclk=1,"19.0031897,77.8832948"
majid.. msiid fakrabad,Mosque,"RX7G+RHP majid.. msiid fakrabad, road, Tadbiloli, Faridabad, Telangana 503245",,"RX7G+RHP, road","Tadbiloli, Faridabad",,Telangana,IN,https://www.google.com/maps/place/majid..+%E0%B0%AE%E0%B0%B8%E0%B1%80%E0%B0%A6%E0%B1%8D+fakrabad/data=!4m7!3m6!1s0x3bcde11746f2b013:0x69ae451e3fabce90!8m2!3d18.8145868!4d77.9764415!16s%2Fg%2F11h3ld0tjt!19sChIJE7DyRhfhzTsRkM6rPx5Frmk?authuser=0&hl=en&rclk=1,"18.8145868,77.97644149999999"
Idgah Shareef Balapur,Mosque,"VVV4+JXC Idgah Shareef Balapur, Dharmabad, Maharashtra 431809",,VVV4+JXC,Dharmabad,,Maharashtra,IN,https://www.google.com/maps/place/Idgah+Shareef+Balapur/data=!4m7!3m6!1s0x3bce0947ff035315:0x603381617ca52918!8m2!3d18.8940586!4d77.8573791!16s%2Fg%2F11ghs46dbf!19sChIJFVMD_0cJzjsRGCmlfGGBM2A?authuser=0&hl=en&rclk=1,"18.894058599999997,77.8573791"
Jama masjid,Mosque,"Jama masjid, Tondakur, Shahpur, Telangana 503212",,,"Tondakur, Shahpur",503212,Telangana,IN,https://www.google.com/maps/place/Jama+masjid/data=!4m7!3m6!1s0x3bcde9b6689d0d6d:0xd82ac2d148723667!8m2!3d18.9007382!4d78.1827624!16s%2Fg%2F11ty4q1_7p!19sChIJbQ2daLbpzTsRZzZySNHCKtg?authuser=0&hl=en&rclk=1,"18.9007382,78.1827624"
Nagar masjid,Mosque,"2462+FF8 Nagar masjid, Nagar, Telangana 504104",,2462+FF8,Nagar,504104,Telangana,IN,https://www.google.com/maps/place/Nagar+masjid/data=!4m7!3m6!1s0x3bcdfb87f4e1ca07:0x97a41421f66a5818!8m2!3d19.010881!4d78.102116!16s%2Fg%2F11jt0w_z_l!19sChIJB8rh9If7zTsRGFhq9iEUpJc?authuser=0&hl=en&rclk=1,"19.010880999999998,78.102116"
Masjid Mahboobia,Mosque,"4X47+736 Masjid Mahboobia, Bhainsa, Telangana 504103",,4X47+736,Bhainsa,504103,Telangana,IN,https://www.google.com/maps/place/Masjid+Mahboobia/data=!4m7!3m6!1s0x3bcdffa54730d159:0x3070551ca0bf95d2!8m2!3d19.1056685!4d77.9626302!16s%2Fg%2F11n001s619!19sChIJWdEwR6X_zTsR0pW_oBxVcDA?authuser=0&hl=en&rclk=1,"19.1056685,77.96263019999999"
JAMA MASJID,Mosque,"433W+VC6 JAMA MASJID, Unnamed Road, Kallur, Telangana 504109",,"433W+VC6, Unnamed Road",Kallur,504109,Telangana,IN,https://www.google.com/maps/place/JAMA+MASJID/data=!4m7!3m6!1s0x3bcdf93e953482f7:0xc3dff5e66af38f82!8m2!3d19.1046594!4d78.0960113!16s%2Fg%2F11gwhk1782!19sChIJ94I0lT75zTsRgo_zaub138M?authuser=0&hl=en&rclk=1,"19.1046594,78.0960113"
Thimmapur masjid,Mosque,"435F+Q9G Thimmapur masjid, Unnamed Road, Thimmapur, Telangana 504109",,"435F+Q9G, Unnamed Road",Thimmapur,504109,Telangana,IN,https://www.google.com/maps/place/Thimmapur+masjid/data=!4m7!3m6!1s0x3bcdf93c28513963:0x7dcfb1f3b4f8e7af!8m2!3d19.1094489!4d78.0734603!16s%2Fg%2F11qzbkts3t!19sChIJYzlRKDz5zTsRr-f4tPOxz30?authuser=0&hl=en&rclk=1,"19.1094489,78.0734603"
Masjid-e-mohammed ali khan,Mosque,"4X66+HJX Masjid-e-mohammed ali khan, Bhainsa, Telangana 504103",,4X66+HJX,Bhainsa,504103,Telangana,IN,https://www.google.com/maps/place/Masjid-e-mohammed+ali+khan/data=!4m7!3m6!1s0x3bcdff51973f1793:0x47b905b99f17ef30!8m2!3d19.1115918!4d77.9615985!16s%2Fg%2F11pzpc_hb7!19sChIJkxc_l1H_zTsRMO8Xn7kFuUc?authuser=0&hl=en&rclk=1,"19.1115918,77.9615985"
Masjid e WALI,Mosque,"4X49+MWR Masjid e WALI, Rd Number 1, Bhainsa, Telangana 504103",,"4X49+MWR, Rd Number 1",Bhainsa,504103,Telangana,IN,https://www.google.com/maps/place/Masjid+e+WALI/data=!4m7!3m6!1s0x3bcdffe159c3e0c5:0x924cdf0a90587653!8m2!3d19.1067472!4d77.9697721!16s%2Fg%2F11lrryyhw2!19sChIJxeDDWeH_zTsRU3ZYkArfTJI?authuser=0&hl=en&rclk=1,"19.106747199999997,77.9697721"
MASJID MOUZA BINTE ALI,Mosque,"V4MR+2FP MASJID MOUZA BINTE ALI, Nandipet, Chimrajpalle, Telangana 503212",,V4MR+2FP,"Nandipet, Chimrajpalle",503212,Telangana,IN,https://www.google.com/maps/place/MASJID+MOUZA+BINTE+ALI/data=!4m7!3m6!1s0x3bcde9345837717f:0xf004e2e49254f5!8m2!3d18.882581!4d78.1412174!16s%2Fg%2F11rv1xz98r!19sChIJf3E3WDTpzTsR9VSS5OIE8AA?authuser=0&hl=en&rclk=1,"18.882581,78.1412174"
Jama Masjid,Mosque,"4733+GPV Jama Masjid, Near the Nirmal Bhainsa main Road.Mdl: Dilawarpur. Dist:, Nirmal, Telangana 504306",,"4733+GPV, Near the Nirmal Bhainsa main Road.Mdl: Dilawarpur. Dist:","Nirmal, Lolam",504306,Telangana,IN,https://www.google.com/maps/place/Jama+Masjid/data=!4m7!3m6!1s0x3bcdfff87705fb39:0xd33edc6cec828713!8m2!3d19.1038707!4d78.2542839!16s%2Fg%2F11gtdzt517!19sChIJOfsFd_j_zTsRE4eC7GzcPtM?authuser=0&hl=en&rclk=1,"19.103870699999998,78.25428389999999"
Dubba Masjid Nandipet,Mosque,"V4GV+QGF Dubba Masjid Nandipet, Noothpalli, Telangana 503212",,V4GV+QGF,Noothpalli,503212,Telangana,IN,https://www.google.com/maps/place/Dubba+Masjid+Nandipet/data=!4m7!3m6!1s0x3bcde98d96886be9:0x3478282a5d76648b!8m2!3d18.8769333!4d78.1437879!16s%2Fg%2F11h57m9nzq!19sChIJ6WuIlo3pzTsRi2R2XSooeDQ?authuser=0&hl=en&rclk=1,"18.876933299999997,78.14378789999999"
Jama masjid manmad,Mosque,"3472+RW6 Jama masjid manmad, Manmad, Telangana 504104",,3472+RW6,Manmad,,Telangana,IN,https://www.google.com/maps/place/Jama+masjid+manmad/data=!4m7!3m6!1s0x3bcdfbf0cc314743:0x7260ab24ad71b5c9!8m2!3d19.0645456!4d78.1022656!16s%2Fg%2F11rvjykm2h!19sChIJQ0cxzPD7zTsRybVxrSSrYHI?authuser=0&hl=en&rclk=1,"19.0645456,78.1022656"
Aamena masjid,Mosque,"JGX6+87J Aamena masjid, Dasnapur, Adilabad, Bhattisavargaon, Telangana 504001",Dasnapur,JGX6+87J,"Adilabad, Bhattisavargaon",504001,Telangana,IN,https://www.google.com/maps/place/Aamena+masjid/data=!4m7!3m6!1s0x3bd25d2e87707821:0x7a8dc8944d703c82!8m2!3d19.6483397!4d78.5106279!16s%2Fg%2F11tgg9_s_q!19sChIJIXhwhy5d0jsRgjxwTZTIjXo?authuser=0&hl=en&rclk=1,"19.648339699999998,78.5106279"
masjid,Mosque,"MGFX+R5C masjid, Ambedkar Nagar, Adilabad, Telangana 504001",Ambedkar Nagar,MGFX+R5C,Adilabad,504001,Telangana,IN,https://www.google.com/maps/place/masjid/data=!4m7!3m6!1s0x3bd25dea5bc85cff:0xa139fac0fe5bfbe8!8m2!3d19.6750538!4d78.549016!16s%2Fg%2F11tg1ql3mw!19sChIJ_1zIW-pd0jsR6Ptb_sD6OaE?authuser=0&hl=en&rclk=1,"19.6750538,78.549016"
Masjide Mera,Mosque,"Masjide Mera, Police line, Old Housing Board Colony, Ravindra Nagar Colony, Adilabad, Telangana 504001","Old Housing Board Colony, Ravindra Nagar Colony",Police line,Adilabad,,Telangana,IN,https://www.google.com/maps/place/Masjide+Mera/data=!4m7!3m6!1s0x3bd25d4f276d7737:0xfba7d6c285a2493a!8m2!3d19.6640624!4d78.5320107!16s%2Fg%2F11jt228q6b!19sChIJN3dtJ09d0jsROkmihcLWp_s?authuser=0&hl=en&rclk=1,"19.6640624,78.5320107"
Chowk masjid,Mosque,"XWF6+P52 Chowk masjid, Mudhole, Telangana 504102",,XWF6+P52,Mudhole,504102,Telangana,IN,https://www.google.com/maps/place/Chowk+masjid/data=!4m7!3m6!1s0x3bce096f7564b777:0x6713987bed345f0f!8m2!3d18.9741684!4d77.9104478!16s%2Fg%2F11vcm56l_7!19sChIJd7dkdW8JzjsRD1807XuYE2c?authuser=0&hl=en&rclk=1,"18.9741684,77.9104478"
Jamamasjid,Mosque,"2X6W+RJ9 Jamamasjid, Edbid, Telangana 504102",,2X6W+RJ9,Edbid,504102,Telangana,IN,https://www.google.com/maps/place/Jamamasjid/data=!4m7!3m6!1s0x3bcdfd9419127871:0xbb4ac3774c96936d!8m2!3d19.0120371!4d77.9966174!16s%2Fg%2F11rchyqlgj!19sChIJcXgSGZT9zTsRbZOWTHfDSrs?authuser=0&hl=en&rclk=1,"19.0120371,77.99661739999999"
Masjid e noor banu,Mosque,"4298+7M3 Masjid e noor banu, Ekgaon, Telangana 504103",,4298+7M3,Ekgaon,504103,Telangana,IN,https://www.google.com/maps/place/Masjid+e+noor+banu/data=!4m7!3m6!1s0x3bcdff742aedeb0d:0x1cc2047094df4e93!8m2!3d19.1181434!4d78.0166847!16s%2Fg%2F11h6443h1y!19sChIJDevtKnT_zTsRk07flHAEwhw?authuser=0&hl=en&rclk=1,"19.118143399999997,78.0166847"
Mosque,Mosque,"V23P+64R Mosque, Binola, Abbapur B, Telangana 503246",,V23P+64R,"Binola, Abbapur B",503246,Telangana,IN,https://www.google.com/maps/place/Mosque/data=!4m7!3m6!1s0x3bcde6d95e2f713f:0x4911a7c1ec28e174!8m2!3d18.8531021!4d78.0352664!16s%2Fg%2F11g9nhhhng!19sChIJP3EvXtnmzTsRdOEo7MGnEUk?authuser=0&hl=en&rclk=1,"18.853102099999997,78.0352664"
masjid-e-Ameena. Taroda,Mosque,"2W6P+HMC masjid-e-Ameena. Taroda, Taroda, Telangana 504102",,2W6P+HMC,Taroda,504102,Telangana,IN,https://www.google.com/maps/place/masjid-e-Ameena.+Taroda/data=!4m7!3m6!1s0x3bcdfd8ced879fc7:0xa8c8d0a46a879700!8m2!3d19.0114475!4d77.9366469!16s%2Fg%2F11nx3xpp3n!19sChIJx5-H7Yz9zTsRAJeHaqTQyKg?authuser=0&hl=en&rclk=1,"19.0114475,77.9366469"
Qureshi's dayra,Mosque,"XW74+RV Qureshi's dayra, Mudhole, Telangana 504102",,XW74+RV,Mudhole,,Telangana,IN,https://www.google.com/maps/place/Qureshi%27s+dayra/data=!4m7!3m6!1s0x3bce09a66983ce9b:0x9269f425b8a9c771!8m2!3d18.9645492!4d77.9071758!16s%2Fg%2F11kphpbb44!19sChIJm86DaaYJzjsRccepuCX0aZI?authuser=0&hl=en&rclk=1,"18.9645492,77.90717579999999"
Masjid E Madeena,Mosque,"3XX8+XMW Masjid E Madeena, Vinayak Nagar, Bhainsa, Telangana 504103",Vinayak Nagar,3XX8+XMW,Bhainsa,504103,Telangana,IN,https://www.google.com/maps/place/Masjid+E+Madeena/data=!4m7!3m6!1s0x3bcdfe67609b6a17:0xd10b98fe9ebd9b74!8m2!3d19.1!4d77.9667!16s%2Fg%2F11b7tns2dg!19sChIJF2qbYGf-zTsRdJu9nv6YC9E?authuser=0&hl=en&rclk=1,"19.099999999999998,77.9667"
msjid abdullaa dhrmaabaad,Mosque,"VRXV+96X msjid abdullaa dhrmaabaad, Dharmabad, Maharashtra 431809",,VRXV+96X,Dharmabad,431809,Maharashtra,IN,https://www.google.com/maps/place/%E0%A4%AE%E0%A4%B8%E0%A5%8D%E0%A4%9C%E0%A4%BF%E0%A4%A6+%E0%A4%85%E0%A4%AC%E0%A4%A6%E0%A5%81%E0%A4%B2%E0%A5%8D%E0%A4%B2%E0%A4%BE+%E0%A4%A7%E0%A4%B0%E0%A4%AE%E0%A4%BE%E0%A4%AC%E0%A4%BE%E0%A4%A6/data=!4m7!3m6!1s0x3bce0967bce8ba71:0x5190a887bf5c3eed!8m2!3d18.8985374!4d77.8428997!16s%2Fg%2F11v0qg1xjx!19sChIJcbrovGcJzjsR7T5cv4eokFE?authuser=0&hl=en&rclk=1,"18.8985374,77.84289969999999"
Maqbara masjid,Mosque,"4X86+WF7 Maqbara masjid, Bhainsa, Telangana 504103",,4X86+WF7,Bhainsa,504103,Telangana,IN,https://www.google.com/maps/place/Maqbara+masjid/data=!4m7!3m6!1s0x3bcdff260e3b794f:0x8b0a022e971e6e24!8m2!3d19.117272!4d77.9611583!16s%2Fg%2F11sq9gjl68!19sChIJT3k7Dib_zTsRJG4ely4CCos?authuser=0&hl=en&rclk=1,"19.117272,77.9611583"
Majid e abubakar,Mosque,"4X68+H97 Majid e abubakar, New Abadi, Bhainsa, Telangana 504103",New Abadi,4X68+H97,Bhainsa,504103,Telangana,IN,https://www.google.com/maps/place/Majid+e+abubakar/data=!4m7!3m6!1s0x3bcdff58c1da7aab:0x219623bea3a45cb3!8m2!3d19.1113411!4d77.9659192!16s%2Fg%2F11sz2t10vn!19sChIJq3rawVj_zTsRs1yko74jliE?authuser=0&hl=en&rclk=1,"19.1113411,77.9659192"
Dulha masjid,Mosque,"4X76+QPR Dulha masjid, Bhainsa, Telangana 504103",,4X76+QPR,Bhainsa,504103,Telangana,IN,https://www.google.com/maps/place/Dulha+masjid/data=!4m7!3m6!1s0x3bcdff11036a7bc1:0x2af6a0e9a007d28e!8m2!3d19.1144859!4d77.9617514!16s%2Fg%2F11pzpf_hcw!19sChIJwXtqAxH_zTsRjtIHoOmg9io?authuser=0&hl=en&rclk=1,"19.1144859,77.9617514"
Makkah masjid Binola,Mosque,"V3Q5+XQQ Makkah masjid Binola, Binola, Telangana 503246",,V3Q5+XQQ,Binola,503246,Telangana,IN,https://www.google.com/maps/place/Makkah+masjid+Binola/data=!4m7!3m6!1s0x3bcde736e5d409a3:0x654b084de71f1403!8m2!3d18.8899684!4d78.0594874!16s%2Fg%2F11t7c6nbsr!19sChIJownU5TbnzTsRAxQf500IS2U?authuser=0&hl=en&rclk=1,"18.8899684,78.0594874"
Mohamadiya Masjid,Mosque,"VRWR+6RC Mohamadiya Masjid, Dharmabad, Maharashtra 431809",,VRWR+6RC,Dharmabad,431809,Maharashtra,IN,https://www.google.com/maps/place/Mohamadiya+Masjid/data=!4m7!3m6!1s0x3bce09ec053a7609:0x1ae38fdaf89eee7e!8m2!3d18.8955728!4d77.8420012!16s%2Fg%2F11g0hb37dm!19sChIJCXY6BewJzjsRfu6e-NqP4xo?authuser=0&hl=en&rclk=1,"18.8955728,77.8420012"
Masjid,Mosque,"23HP+VRV Masjid, Lokeshwaram, Telangana 504104",,23HP+VRV,Lokeshwaram,,Telangana,IN,https://www.google.com/maps/place/Masjid/data=!4m7!3m6!1s0x3bcdfb3d97c6beb1:0xffec44d109005d16!8m2!3d19.029744!4d78.0870508!16s%2Fg%2F11sy1hj3tx!19sChIJsb7Glz37zTsRFl0ACdFE7P8?authuser=0&hl=en&rclk=1,"19.029744,78.0870508"
Jama masjid,Mosque,"XR2M+XH9 Jama masjid, JewlaBuzurg, Jawala, Telangana 504102",,XR2M+XH9,"JewlaBuzurg, Jawala",504102,Telangana,IN,https://www.google.com/maps/place/Jama+masjid/data=!4m7!3m6!1s0x3bce0fa40d8bb217:0xcbc4166bd40c1b17!8m2!3d18.9523864!4d77.834005!16s%2Fg%2F11s58b6fbg!19sChIJF7KLDaQPzjsRFxsM1GsWxMs?authuser=0&hl=en&rclk=1,"18.952386399999998,77.83400499999999"
Momino mosque,Mosque,"4X38+64M Momino mosque, New Abadi, Bhainsa, Telangana 504103",New Abadi,4X38+64M,Bhainsa,504103,Telangana,IN,https://www.google.com/maps/place/Momino+mosque/data=!4m7!3m6!1s0x3bcdfffea979f1ef:0x5d2c7b949536d054!8m2!3d19.1030811!4d77.9652985!16s%2Fg%2F11kqn0r70h!19sChIJ7_F5qf7_zTsRVNA2lZR7LF0?authuser=0&hl=en&rclk=1,"19.1030811,77.9652985"
Jama masjid (Kotalgaom),Mosque,"42X5+48M Jama masjid (Kotalgaom), Kotalgaom, Bhainsa, Kotalgaon, Telangana 504109",Kotalgaom,42X5+48M,"Bhainsa, Kotalgaon",,Telangana,IN,https://www.google.com/maps/place/Jama+masjid+%28Kotalgaom%29/data=!4m7!3m6!1s0x3bcdff620818b4cb:0x849464b5944d2dae!8m2!3d19.1478345!4d78.0082907!16s%2Fg%2F11tnw1x59k!19sChIJy7QYCGL_zTsRri1NlLVklIQ?authuser=0&hl=en&rclk=1,"19.1478345,78.0082907"
Sarkari masjid,Mosque,"4X76+7FF Sarkari masjid, Bhainsa, Telangana 504103",,4X76+7FF,Bhainsa,504103,Telangana,IN,https://www.google.com/maps/place/Sarkari+masjid/data=!4m7!3m6!1s0x3bcdff1e48424da9:0xe5975291b8aab459!8m2!3d19.1131196!4d77.9611631!16s%2Fg%2F11sq9fy4l6!19sChIJqU1CSB7_zTsRWbSquJFSl-U?authuser=0&hl=en&rclk=1,"19.113119599999997,77.9611631"
Shadulla Husain chilla,Mosque,"VRQV+6W9 Shadulla Husain chilla, Ratnali Rd, Shanker Gunj, Dharmabad, Maharashtra 431809",Shanker Gunj,"VRQV+6W9, Ratnali Rd",Dharmabad,431809,Maharashtra,IN,https://www.google.com/maps/place/Shadulla+Husain+chilla/data=!4m7!3m6!1s0x3bce09836eb28fc7:0xcf04da1252de8024!8m2!3d18.88805!4d77.844847!16s%2Fg%2F11s2rcbrdz!19sChIJx4-yboMJzjsRJIDeUhLaBM8?authuser=0&hl=en&rclk=1,"18.88805,77.844847"
Eidgah,Mosque,"VVV3+W3G Eidgah, Dharmabad, Maharashtra 431809",,VVV3+W3G,Dharmabad,431809,Maharashtra,IN,https://www.google.com/maps/place/Eidgah/data=!4m7!3m6!1s0x3bce0944b9955555:0x2c7f6deecd9cffea!8m2!3d18.8948082!4d77.8527185!16s%2Fg%2F11sscs8plg!19sChIJVVWVuUQJzjsR6v-cze5tfyw?authuser=0&hl=en&rclk=1,"18.8948082,77.8527185"
EIDGAH DHRAMABAD,Mosque,"VRVV+R48 EIDGAH DHRAMABAD, Unnamed Road, Dharmabad, Maharashtra 431809",,"VRVV+R48, Unnamed Road",Dharmabad,431809,Maharashtra,IN,https://www.google.com/maps/place/EIDGAH+DHRAMABAD/data=!4m7!3m6!1s0x3bce092dd865ad23:0x43491ca1bbc7ba99!8m2!3d18.8945295!4d77.8428327!16s%2Fg%2F11p5csnn80!19sChIJI61l2C0JzjsRmbrHu6EcSUM?authuser=0&hl=en&rclk=1,"18.8945295,77.8428327"
Masjid e Fatima,Mosque,"4X5G+9P4 Masjid e Fatima, Bhainsa, Telangana 504103",,4X5G+9P4,Bhainsa,504103,Telangana,IN,https://www.google.com/maps/place/Masjid+e+Fatima/data=!4m7!3m6!1s0x3bcdffb3b5a3debf:0x2063de0cbf29b1de!8m2!3d19.1083892!4d77.9768327!16s%2Fg%2F11l29xysl3!19sChIJv96jtbP_zTsR3rEpvwzeYyA?authuser=0&hl=en&rclk=1,"19.108389199999998,77.9768327"
Haji Sahab Masjid,Mosque,"4X76+WR5 Haji Sahab Masjid, Bhainsa, Telangana 504103",,4X76+WR5,Bhainsa,504103,Telangana,IN,https://www.google.com/maps/place/Haji+Sahab+Masjid/data=!4m7!3m6!1s0x3bcdffd89e630f21:0x6958ac2f4082e62d!8m2!3d19.114766!4d77.9621118!16s%2Fg%2F11r0wdt94j!19sChIJIQ9jntj_zTsRLeaCQC-sWGk?authuser=0&hl=en&rclk=1,"19.114766,77.9621118"
Jamiya masjeed,Mosque,"2V6P+24P Jamiya masjeed, Dhagaon, Telangana 504102",,2V6P+24P,Dhagaon,504102,Telangana,IN,https://www.google.com/maps/place/Jamiya+masjeed/data=!4m7!3m6!1s0x3bce0737cb5af415:0x208e894c4f477351!8m2!3d19.0100923!4d77.8853172!16s%2Fg%2F11q3__dgl3!19sChIJFfRayzcHzjsRUXNHT0yJjiA?authuser=0&hl=en&rclk=1,"19.0100923,77.8853172"
Al huda Masjid,Mosque,"W5WM+7FJ Al huda Masjid, Unnamed Road, Donkeshwar, Telangana 503212",,"W5WM+7FJ, Unnamed Road",Donkeshwar,503212,Telangana,IN,https://www.google.com/maps/place/Al+huda+Masjid/data=!4m7!3m6!1s0x3bcdefb08c81d71b:0x382eeec8305a5790!8m2!3d18.945716!4d78.183656!16s%2Fg%2F11hz9llh_n!19sChIJG9eBjLDvzTsRkFdaMMjuLjg?authuser=0&hl=en&rclk=1,"18.945716,78.183656"
Masjid e mohammadiya,Mosque,"4X78+7FX Masjid e mohammadiya, Bhainsa, Telangana 504103",,4X78+7FX,Bhainsa,504103,Telangana,IN,https://www.google.com/maps/place/Masjid+e+mohammadiya/data=!4m7!3m6!1s0x3bcdffafe5575e1f:0xadcb9e0d27ec98a!8m2!3d19.1131596!4d77.9653526!16s%2Fg%2F11qbh1lndc!19sChIJH15X5a__zTsRisl-0uC53Ao?authuser=0&hl=en&rclk=1,"19.1131596,77.9653526"
smshaanvaattik,Mosque,"539X+CCJ smshaanvaattik, adilaabaadu, Telangana 504109",,539X+CCJ,adilaabaadu,504109,Telangana,IN,https://www.google.com/maps/place/%E0%B0%B8%E0%B1%8D%E0%B0%AE%E0%B0%B6%E0%B0%BE%E0%B0%A8%E0%B0%B5%E0%B0%BE%E0%B0%9F%E0%B0%BF%E0%B0%95/data=!4m7!3m6!1s0x3bcdf97b97a183ab:0xe00cb011d279594d!8m2!3d19.1682263!4d78.0990057!16s%2Fg%2F11v5bbbfvm!19sChIJq4Ohl3v5zTsRTVl50hGwDOA?authuser=0&hl=en&rclk=1,"19.1682263,78.09900569999999"
Mosque,Mosque,"54G3+83C Mosque, Unnamed Road, Kuntala, Telangana 504109",,"54G3+83C, Unnamed Road",Kuntala,504109,Telangana,IN,https://www.google.com/maps/place/Mosque/data=!4m7!3m6!1s0x3bcdf9d025e5219f:0x95288131dbc628f8!8m2!3d19.1758173!4d78.1026331!16s%2Fg%2F11nn534w_k!19sChIJnyHlJdD5zTsR-CjG2zGBKJU?authuser=0&hl=en&rclk=1,"19.1758173,78.10263309999999"
Jama masjid,Mosque,"VV25+258 Jama masjid, Sirajkhed, Maharashtra 431809",,VV25+258,Sirajkhed,,Maharashtra,IN,https://www.google.com/maps/place/Jama+masjid/data=!4m7!3m6!1s0x3bce0bfbf12c3b79:0xd2352fe482afe362!8m2!3d18.8500273!4d77.857959!16s%2Fg%2F11rcs3rvz9!19sChIJeTss8fsLzjsRYuOvguQvNdI?authuser=0&hl=en&rclk=1,"18.8500273,77.857959"
Jama Masjid,Mosque,"24MG+M6H Jama Masjid, Rajura, Telangana 504104",,24MG+M6H,Rajura,504104,Telangana,IN,https://www.google.com/maps/place/Jama+Masjid/data=!4m7!3m6!1s0x3bcdf16c0271a325:0x36c8259feb23b1f8!8m2!3d19.0341967!4d78.125624!16s%2Fg%2F11sh79cpjj!19sChIJJaNxAmzxzTsR-LEj658lyDY?authuser=0&hl=en&rclk=1,"19.0341967,78.125624"
MASJID E RIZWAN,Mosque,"VVV3+V59 MASJID E RIZWAN, Dharmabad, Maharashtra 431809",,VVV3+V59,Dharmabad,431809,Maharashtra,IN,https://www.google.com/maps/place/MASJID+E+RIZWAN/data=!4m7!3m6!1s0x3bce090d4adc453d:0xfce40afdc7cf9103!8m2!3d18.8946593!4d77.8529781!16s%2Fg%2F11nn1zd0x1!19sChIJPUXcSg0JzjsRA5HPx_0K5Pw?authuser=0&hl=en&rclk=1,"18.8946593,77.8529781"
Jama Masjid Limba,Mosque,"523V+7F2 Jama Masjid Limba, Limba Khurd, Telangana 504109",,523V+7F2,Limba Khurd,504109,Telangana,IN,https://www.google.com/maps/place/Jama+Masjid+Limba/data=!4m7!3m6!1s0x3bcdf91c30be5c01:0x41b0942c84df9744!8m2!3d19.1531407!4d78.0436445!16s%2Fg%2F11v9z80ywd!19sChIJAVy-MBz5zTsRRJffhCyUsEE?authuser=0&hl=en&rclk=1,"19.153140699999998,78.0436445"
Masjid e Gausheya,Mosque,"4VRH+QWR Masjid e Gausheya, Bamni, Telangana 504103",,4VRH+QWR,Bamni,504103,Telangana,IN,https://www.google.com/maps/place/Masjid+e+Gausheya/data=!4m7!3m6!1s0x3bce01ed15c57fa9:0x41081cab448ddcaa!8m2!3d19.1419818!4d77.8797538!16s%2Fg%2F11rf9xpdcx!19sChIJqX_FFe0BzjsRqtyNRKscCEE?authuser=0&hl=en&rclk=1,"19.1419818,77.8797538"
