name,main_category,address,address_ward,address_street,address_city,address_postal_code,address_state,address_country_code,link,coordinates
KAHAR PARA JUMMA MASJID,Mosque,"KAHAR PARA JUMMA MASJID, Kahar para ,manikchak Kahar para jumma masjid, Lalgola, West Bengal 742148",,"Kahar para ,manikchak Kahar para jumma masjid","Lalgola, Krishnapur",742148,West Bengal,IN,https://www.google.com/maps/place/KAHAR+PARA+JUMMA+MASJID/data=!4m7!3m6!1s0x39fbcf1d9d556607:0x620685f874588727!8m2!3d24.4088291!4d88.2625027!16s%2Fg%2F11sw_41kpv!19sChIJB2ZVnR3P-zkRJ4dYdPiFBmI?authuser=0&hl=en&rclk=1,"24.4088291,88.2625027"
Dakshin Latiber Para Jumma Mosque,Mosque,"C75F+78R Dakshin Latiber Para Jumma Mosque, Kaimegha, West Bengal 742148",,C75F+78R,Kaimegha,742148,West Bengal,IN,https://www.google.com/maps/place/Dakshin+Latiber+Para+Jumma+Mosque/data=!4m7!3m6!1s0x39fbcfd16aaaa831:0xfd817c956ce3d671!8m2!3d24.408246!4d88.27326!16s%2Fg%2F11f6dtxbwy!19sChIJMaiqatHP-zkRcdbjbJV8gf0?authuser=0&hl=en&rclk=1,"24.408246,88.27326"
Hossainabad New Jumma Masjid,Mosque,"C728+JGG Hossainabad New Jumma Masjid, Karttikpur, West Bengal 742148",,C728+JGG,Karttikpur,742148,West Bengal,IN,https://www.google.com/maps/place/Hossainabad+New+Jumma+Masjid/data=!4m7!3m6!1s0x39fbcec74d2740db:0x98bc1bdfbb122edc!8m2!3d24.4015733!4d88.2663369!16s%2Fg%2F11c5_c87cb!19sChIJ20AnTcfO-zkR3C4Su98bvJg?authuser=0&hl=en&rclk=1,"24.4015733,88.2663369"
Ramnagar Middle Jumma Masjid,Mosque,"C6QQ+2G8 Ramnagar Middle Jumma Masjid, Ramnagar jumma Masjid, near Ramnagar Bijlee Songho Club, Lalgola, West Bengal 742148",,"C6QQ+2G8 Ramnagar jumma Masjid, near Ramnagar Bijlee Songho Club",Lalgola,742148,West Bengal,IN,https://www.google.com/maps/place/Ramnagar+Middle+Jumma+Masjid/data=!4m7!3m6!1s0x39fbcbe7041c7383:0x319c2b12dfa162ea!8m2!3d24.440248!4d88.2391382!16s%2Fg%2F11cnm21wxj!19sChIJg3McBOfL-zkR6mKh3xIrnDE?authuser=0&hl=en&rclk=1,"24.440248,88.2391382"
Uttar Latiber Para Jumma Masjid,Mosque,"Uttar Latiber Para Jumma Masjid, Main Road, Latiber Para, Lalgola, West Bengal 742164",,"Main Road, Latiber Para","Lalgola, Bansgara",742164,West Bengal,IN,https://www.google.com/maps/place/Uttar+Latiber+Para+Jumma+Masjid/data=!4m7!3m6!1s0x39fbced09334f32d:0xa505aeb7d44f5ca3!8m2!3d24.4090691!4d88.2785392!16s%2Fg%2F11c6cd7lkz!19sChIJLfM0k9DO-zkRo1xP1LeuBaU?authuser=0&hl=en&rclk=1,"24.4090691,88.2785392"
Lalgola Aratpatti Jame Masjid,Mosque,"C7C4+V76 Lalgola Aratpatti Jame Masjid, Lalgola Station Rd, Lalgola, Krishnapur, West Bengal 742148",Lalgola,"C7C4+V76, Lalgola Station Rd",Krishnapur,742148,West Bengal,IN,https://www.google.com/maps/place/Lalgola+Aratpatti+Jame+Masjid/data=!4m7!3m6!1s0x39fbc952809c0993:0x7a7cb5cddb34734f!8m2!3d24.4221633!4d88.2556468!16s%2Fg%2F11cr_74m0_!19sChIJkwmcgFLJ-zkRT3M02821fHo?authuser=0&hl=en&rclk=1,"24.422163299999998,88.2556468"
New Naldahari Jumma Masjid,Mosque,"C796+JCG New Naldahari Jumma Masjid, Lalgola, West Bengal 742148",,C796+JCG,Lalgola,742148,West Bengal,IN,https://www.google.com/maps/place/New+Naldahari+Jumma+Masjid/data=!4m7!3m6!1s0x39fbceb4ac701ce7:0x679608a958221b05!8m2!3d24.4190526!4d88.2610744!16s%2Fg%2F11bxjm5bdg!19sChIJ5xxwrLTO-zkRBRsiWKkIlmc?authuser=0&hl=en&rclk=1,"24.4190526,88.2610744"
Chamapara Jumma Masjid,Mosque,"C7G4+89F Chamapara Jumma Masjid, Chamapara, Lalgola, West Bengal 742148",Chamapara,C7G4+89F,Lalgola,742148,West Bengal,IN,https://www.google.com/maps/place/Chamapara+Jumma+Masjid/data=!4m7!3m6!1s0x39fbc94e032e03d3:0xc3111b057d2fffbf!8m2!3d24.4258142!4d88.2559108!16s%2Fg%2F11f40jy5g7!19sChIJ0wMuA07J-zkRv_8vfQUbEcM?authuser=0&hl=en&rclk=1,"24.425814199999998,88.2559108"
Mallikpur Jumma Masjid,Mosque,"C68W+RPP Mallikpur Jumma Masjid, Unnamed Road, Lalgola, West Bengal 742148",,"C68W+RPP, Unnamed Road",Lalgola,742148,West Bengal,IN,https://www.google.com/maps/place/Mallikpur+Jumma+Masjid/data=!4m7!3m6!1s0x39fbceaa90f65a6b:0x7dfbee6a506a3465!8m2!3d24.417096!4d88.2468229!16s%2Fg%2F11f5djhmz4!19sChIJa1r2kKrO-zkRZTRqUGru-30?authuser=0&hl=en&rclk=1,"24.417095999999997,88.2468229"
New Naldahari Mosque,Mosque,"C787+6H5 New Naldahari Mosque, Bansgara, West Bengal 742148",,C787+6H5,Bansgara,742148,West Bengal,IN,https://www.google.com/maps/place/New+Naldahari+Mosque/data=!4m7!3m6!1s0x39fbceb5bb159df5:0x5be764d19094538c!8m2!3d24.4155121!4d88.2639741!16s%2Fg%2F11b8_nt629!19sChIJ9Z0Vu7XO-zkRjFOUkNFk51s?authuser=0&hl=en&rclk=1,"24.415512099999997,88.2639741"
Namujhowbona Masjid,Mosque,"97R9+WJ2 Namujhowbona Masjid, Namujhowbona, Lalgola, West Bengal",,"97R9+WJ2, Namujhowbona","Lalgola, Radhakantapur",,West Bengal,IN,https://www.google.com/maps/place/Namujhowbona+Masjid/data=!4m7!3m6!1s0x39fbceebb69f6bd1:0xdd2ec113fb092b7f!8m2!3d24.3922526!4d88.2690091!16s%2Fg%2F11g68_p0nh!19sChIJ0WuftuvO-zkRfysJ-xPBLt0?authuser=0&hl=en&rclk=1,"24.3922526,88.26900909999999"
Chataidubi Jaame Mosque,Mosque,"Chataidubi Jaame Mosque, Chataidubi Rd, Lalgola, Bansgara, West Bengal 742148",,Chataidubi Rd,"Lalgola, Bansgara",742148,West Bengal,IN,https://www.google.com/maps/place/Chataidubi+Jaame+Mosque/data=!4m7!3m6!1s0x39fbcec97b0e9949:0xc061c92b9f7e6113!8m2!3d24.4129577!4d88.2684862!16s%2Fg%2F11c2pb5k1z!19sChIJSZkOe8nO-zkRE2F-nyvJYcA?authuser=0&hl=en&rclk=1,"24.4129577,88.2684862"
Ekdaliya Masjid ekddaaliy'aa msjid,Mosque,"Ekdaliya Masjid ekddaaliy'aa msjid, 11, SH 11A, Lalgola, Bhabanipur, West Bengal 742148",,"11, SH 11A","Lalgola, Bhabanipur",742148,West Bengal,IN,https://www.google.com/maps/place/Ekdaliya+Masjid+%E0%A6%8F%E0%A6%95%E0%A6%A1%E0%A6%BE%E0%A6%B2%E0%A6%BF%E0%A6%AF%E0%A6%BC%E0%A6%BE+%E0%A6%AE%E0%A6%B8%E0%A6%9C%E0%A6%BF%E0%A6%A6/data=!4m7!3m6!1s0x39fbce8d70516257:0xa0f89bcbf3202bbb!8m2!3d24.3827649!4d88.2636334!16s%2Fg%2F11f0krmmxj!19sChIJV2JRcI3O-zkRuysg88ub-KA?authuser=0&hl=en&rclk=1,"24.382764899999998,88.26363339999999"
Natungram Jama Masjid,Mosque,"Natungram Jama Masjid, 201, Natungram Rd, Lalgola, Natun Gram, West Bengal 742148",,"201, Natungram Rd","Lalgola, Natun Gram",742148,West Bengal,IN,https://www.google.com/maps/place/Natungram+Jama+Masjid/data=!4m7!3m6!1s0x39fbcecb9837ce89:0xf4227e4ee0f03d7e!8m2!3d24.4156963!4d88.2693511!16s%2Fg%2F11c704kl7c!19sChIJic43mMvO-zkRfj3w4E5-IvQ?authuser=0&hl=en&rclk=1,"24.4156963,88.2693511"
(Rahmatullah)Lalgola Mosque,Mosque,"C7C4+PXM (Rahmatullah)Lalgola Mosque, P.O-, P.S-,, Lalgola, West Bengal 742148",Lalgola,"C7C4+PXM, P.O-, P.S-,",Lalgola,742148,West Bengal,IN,https://www.google.com/maps/place/%28Rahmatullah%29Lalgola+Mosque/data=!4m7!3m6!1s0x39fbc94d0eb2a8af:0xab5c25d857102728!8m2!3d24.4218324!4d88.2574124!16s%2Fg%2F11bvt4vcfn!19sChIJr6iyDk3J-zkRKCcQV9glXKs?authuser=0&hl=en&rclk=1,"24.4218324,88.25741239999999"
mllikpur dkssinnpaadd'aa msjid,Mosque,"C68X+C8P mllikpur dkssinnpaadd'aa msjid, Village:- Mallipur Post :, Krishnapur, West Bengal 742148",,"C68X+C8P, Village:- Mallipur Post :","Krishnapur, Lalgola",742148,West Bengal,IN,https://www.google.com/maps/place/%E0%A6%AE%E0%A6%B2%E0%A7%8D%E0%A6%B2%E0%A6%BF%E0%A6%95%E0%A6%AA%E0%A7%81%E0%A6%B0+%E0%A6%A6%E0%A6%95%E0%A7%8D%E0%A6%B7%E0%A6%BF%E0%A6%A3%E0%A6%AA%E0%A6%BE%E0%A6%A1%E0%A6%BC%E0%A6%BE+%E0%A6%AE%E0%A6%B8%E0%A6%9C%E0%A6%BF%E0%A6%A6/data=!4m7!3m6!1s0x39fbceaa55e910c3:0x3330c2cfdbce5b47!8m2!3d24.416091!4d88.2483191!16s%2Fg%2F11hckfqlqq!19sChIJwxDpVarO-zkRR1vO28_CMDM?authuser=0&hl=en&rclk=1,"24.416090999999998,88.24831909999999"
gaabtlaa jummaa msjid Gabtala Jumma Masjid,Mosque,"C7F6+C74 gaabtlaa jummaa msjid Gabtala Jumma Masjid, Gabtala, Lalgola, West Bengal 742148",Gabtala,C7F6+C74,Lalgola,742148,West Bengal,IN,https://www.google.com/maps/place/%E0%A6%97%E0%A6%BE%E0%A6%AC%E0%A6%A4%E0%A6%B2%E0%A6%BE+%E0%A6%9C%E0%A7%81%E0%A6%AE%E0%A7%8D%E0%A6%AE%E0%A6%BE+%E0%A6%AE%E0%A6%B8%E0%A6%9C%E0%A6%BF%E0%A6%A6+Gabtala+Jumma+Masjid/data=!4m7!3m6!1s0x39fbc97794ea919f:0x55270ae4af477bba!8m2!3d24.4235118!4d88.2606997!16s%2Fg%2F11f6dm8fhw!19sChIJn5HqlHfJ-zkRuntHr-QKJ1U?authuser=0&hl=en&rclk=1,"24.4235118,88.26069969999999"
mosque,Mosque,"C7F5+MC7 mosque, Lalgola Bazar Rd, Lalgola, West Bengal 742148",Lalgola,"C7F5+MC7, Lalgola Bazar Rd",Lalgola,742148,West Bengal,IN,https://www.google.com/maps/place/mosque/data=!4m7!3m6!1s0x39fbc94c33e9df59:0x2b6c7b3f7c01812d!8m2!3d24.4241681!4d88.2585386!16s%2Fg%2F11d_x3t7v3!19sChIJWd_pM0zJ-zkRLYEBfD97bCs?authuser=0&hl=en&rclk=1,"24.4241681,88.2585386"
Naldahari Old Jame Masjid,Mosque,"C7C7+273 Naldahari Old Jame Masjid, Naldahari Rd, Naldahari, Lalgola, West Bengal 742148",Naldahari,"C7C7+273, Naldahari Rd",Lalgola,742148,West Bengal,IN,https://www.google.com/maps/place/Naldahari+Old+Jame+Masjid/data=!4m7!3m6!1s0x39fbc94ad7fce35f:0xaa3661cfcf055d51!8m2!3d24.4200068!4d88.2631624!16s%2Fg%2F1pv043zwf!19sChIJX-P810rJ-zkRUV0Fz89hNqo?authuser=0&hl=en&rclk=1,"24.4200068,88.2631624"
Ramnager Jame Masqui,Mosque,"C6QV+WQF Ramnager Jame Masqui, Lalgola, West Bengal 742148",,C6QV+WQF,Lalgola,742148,West Bengal,IN,https://www.google.com/maps/place/Ramnager+Jame+Masqui/data=!4m7!3m6!1s0x39fbcb6e16a05f7b:0xc177a16c3cd9c4!8m2!3d24.4398171!4d88.2444354!16s%2Fg%2F11gxn0gr4z!19sChIJe1-gFm7L-zkRxNk8bKF3wQA?authuser=0&hl=en&rclk=1,"24.4398171,88.2444354"
Kalikapur Jumma Masjid.,Mosque,"C7M2+V69 Kalikapur Jumma Masjid., Lalgola, West Bengal 742148",,C7M2+V69,Lalgola,742148,West Bengal,IN,https://www.google.com/maps/place/Kalikapur+Jumma+Masjid./data=!4m7!3m6!1s0x39fbc913fa8802dd:0x218796b18515901d!8m2!3d24.4346705!4d88.250613!16s%2Fg%2F11p068gmhf!19sChIJ3QKI-hPJ-zkRHZAVhbGWhyE?authuser=0&hl=en&rclk=1,"24.4346705,88.250613"
Gabtala School Masjid gaabtlaa skul msjid,Mosque,"C7C6+Q88 Gabtala School Masjid gaabtlaa skul msjid, Gabtala, Lalgola, West Bengal 742148",Gabtala,C7C6+Q88,Lalgola,742148,West Bengal,IN,https://www.google.com/maps/place/Gabtala+School+Masjid+%E0%A6%97%E0%A6%BE%E0%A6%AC%E0%A6%A4%E0%A6%B2%E0%A6%BE+%E0%A6%B8%E0%A7%8D%E0%A6%95%E0%A7%81%E0%A6%B2+%E0%A6%AE%E0%A6%B8%E0%A6%9C%E0%A6%BF%E0%A6%A6/data=!4m7!3m6!1s0x39fbc9563ab91053:0xec6798f39de1df97!8m2!3d24.4219007!4d88.2608213!16s%2Fg%2F11ghwj86mf!19sChIJUxC5OlbJ-zkRl9_hnfOYZ-w?authuser=0&hl=en&rclk=1,"24.4219007,88.26082129999999"
Ramchandrapur Mosque,Mosque,"97V7+GQJ Ramchandrapur Mosque, Ramchandrapur, Lalgola, West Bengal 742148",,97V7+GQJ,"Ramchandrapur, Lalgola",,West Bengal,IN,https://www.google.com/maps/place/Ramchandrapur+Mosque/data=!4m7!3m6!1s0x39fbcf2cf72359a3:0xd3549e8a6d14b06d!8m2!3d24.393842!4d88.2644005!16s%2Fg%2F11gyxdfknv!19sChIJo1kj9yzP-zkRbbAUbYqeVNM?authuser=0&hl=en&rclk=1,"24.393842,88.2644005"
ramnagar jumma masjid,Mosque,"C6QW+6J4 ramnagar jumma masjid, Lalgola, West Bengal 742148",,C6QW+6J4,Lalgola,742148,West Bengal,IN,https://www.google.com/maps/place/ramnagar+jumma+masjid/data=!4m7!3m6!1s0x39fbc90602454fb3:0x27d6a8a34b991ed4!8m2!3d24.4380098!4d88.2465933!16s%2Fg%2F11rsv4xd1b!19sChIJs09FAgbJ-zkR1B6ZS6Oo1ic?authuser=0&hl=en&rclk=1,"24.4380098,88.2465933"
Chataidubi Masjid caattaaiddubi msjid,Mosque,"C77C+C7C Chataidubi Masjid caattaaiddubi msjid, Bansgara, West Bengal 742148",,C77C+C7C,Bansgara,,West Bengal,IN,https://www.google.com/maps/place/Chataidubi+Masjid+%E0%A6%9A%E0%A6%BE%E0%A6%9F%E0%A6%BE%E0%A6%87%E0%A6%A1%E0%A7%81%E0%A6%AC%E0%A6%BF+%E0%A6%AE%E0%A6%B8%E0%A6%9C%E0%A6%BF%E0%A6%A6/data=!4m7!3m6!1s0x39fbcf0110004643:0x5b85c7d5e29a081c!8m2!3d24.413556!4d88.2706333!16s%2Fg%2F11f6y4dhr6!19sChIJQ0YAEAHP-zkRHAia4tXHhVs?authuser=0&hl=en&rclk=1,"24.413556,88.2706333"
Krishnapur Jumma Masjid,Mosque,"C753+76C Krishnapur Jumma Masjid, Vill + P.o - Krishnapur, P.s - lalgola, Krishnapur, West Bengal 742148",,"C753+76C, Vill + P.o - Krishnapur, P.s - lalgola",Krishnapur,742148,West Bengal,IN,https://www.google.com/maps/place/Krishnapur+Jumma+Masjid/data=!4m7!3m6!1s0x39fbcf7ad03cd693:0x735fccfc6ae9d102!8m2!3d24.4081813!4d88.2530032!16s%2Fg%2F11lbgrx0hx!19sChIJk9Y80HrP-zkRAtHpavzMX3M?authuser=0&hl=en&rclk=1,"24.4081813,88.2530032"
Malatipur Jumuah Masjid,Mosque,"C6PG+35F Malatipur Jumuah Masjid, Malatipur, West Bengal 742148",,C6PG+35F,Malatipur,742148,West Bengal,IN,https://www.google.com/maps/place/Malatipur+Jumuah+Masjid/data=!4m7!3m6!1s0x39fbcb936aaaaaab:0xff07e4ee0a44299!8m2!3d24.4352!4d88.2254259!16s%2Fg%2F11dftk7_zd!19sChIJq6qqapPL-zkRmUKk4E5-8A8?authuser=0&hl=en&rclk=1,"24.4352,88.22542589999999"
Durgapur Jumma Masjid,Mosque,"C64W+QRM Durgapur Jumma Masjid, Durgapur, West Bengal 742148",,C64W+QRM,Durgapur,742148,West Bengal,IN,https://www.google.com/maps/place/Durgapur+Jumma+Masjid/data=!4m7!3m6!1s0x39fbcea7e1609f4b:0x8ef8d039e0a8025b!8m2!3d24.4069614!4d88.247045!16s%2Fg%2F11c5_s4rhn!19sChIJS59g4afO-zkRWwKo4DnQ-I4?authuser=0&hl=en&rclk=1,"24.4069614,88.247045"
Natungram Pulpara Jumma Mosque,Mosque,"C789+J6J Natungram Pulpara Jumma Mosque, Natun Gram, Lalgola, West Bengal 742148",,C789+J6J,"Natun Gram, Lalgola",742148,West Bengal,IN,https://www.google.com/maps/place/Natungram+Pulpara+Jumma+Mosque/data=!4m7!3m6!1s0x39fbcf5df549a4a3:0x7ed32cda01b90c29!8m2!3d24.4165946!4d88.2680004!16s%2Fg%2F11gjt_k3pc!19sChIJo6RJ9V3P-zkRKQy5Ados034?authuser=0&hl=en&rclk=1,"24.4165946,88.26800039999999"
Dumuriapara Zumma Masjid ddumuriy'aapaaraa jummaa msjid,Mosque,"C72C+QWM Dumuriapara Zumma Masjid ddumuriy'aapaaraa jummaa msjid, Dumuriapara, Bansgara, Lalgola",,"C72C+QWM, Dumuriapara, Bansgara","Lalgola, Karttikpur",,West Bengal,IN,https://www.google.com/maps/place/Dumuriapara+Zumma+Masjid+%E0%A6%A1%E0%A7%81%E0%A6%AE%E0%A7%81%E0%A6%B0%E0%A6%BF%E0%A6%AF%E0%A6%BC%E0%A6%BE%E0%A6%AA%E0%A6%BE%E0%A6%B0%E0%A6%BE+%E0%A6%9C%E0%A7%81%E0%A6%AE%E0%A7%8D%E0%A6%AE%E0%A6%BE+%E0%A6%AE%E0%A6%B8%E0%A6%9C%E0%A6%BF%E0%A6%A6/data=!4m7!3m6!1s0x39fbcfe9161d3c99:0x360b0a0f1cfdff9f!8m2!3d24.4019572!4d88.2722882!16s%2Fg%2F11sq1n8yd3!19sChIJmTwdFunP-zkRn__9HA8KCzY?authuser=0&hl=en&rclk=1,"24.4019572,88.27228819999999"
msjid Masjid,Mosque,"97WC+MR2 msjid Masjid, Jhowbona School Road, Jhowbona, Bansgara, Lalgola, West Bengal 742148",,"97WC+MR2, Jhowbona School Road, Jhowbona, Bansgara",Lalgola,742148,West Bengal,IN,https://www.google.com/maps/place/%E0%A6%AE%E0%A6%B8%E0%A6%9C%E0%A6%BF%E0%A6%A6+Masjid/data=!4m7!3m6!1s0x39fbcfdad143a68d:0x2da3340536b9c1a8!8m2!3d24.3966497!4d88.2720274!16s%2Fg%2F11q96g41_l!19sChIJjaZD0drP-zkRqMG5NgU0oy0?authuser=0&hl=en&rclk=1,"24.396649699999998,88.2720274"
phkirpaadd'aa jummaa msjid,Mosque,"C7H3+669 phkirpaadd'aa jummaa msjid, Lalgola, West Bengal 742148",Lalgola,C7H3+669,Lalgola,742148,West Bengal,IN,https://www.google.com/maps/place/%E0%A6%AB%E0%A6%95%E0%A6%BF%E0%A6%B0%E0%A6%AA%E0%A6%BE%E0%A6%A1%E0%A6%BC%E0%A6%BE+%E0%A6%9C%E0%A7%81%E0%A6%AE%E0%A7%8D%E0%A6%AE%E0%A6%BE+%E0%A6%AE%E0%A6%B8%E0%A6%9C%E0%A6%BF%E0%A6%A6/data=!4m7!3m6!1s0x39fbc9761ff937bf:0xdc39056b83866494!8m2!3d24.4280352!4d88.2531214!16s%2Fg%2F11gvy201nd!19sChIJvzf5H3bJ-zkRlGSGg2sFOdw?authuser=0&hl=en&rclk=1,"24.4280352,88.2531214"
msjid,Mosque,"97XF+4XF msjid, Jhowbona,Bansgara, Lalgola, West Bengal 742148",,"97XF+4XF, Jhowbona,Bansgara",Lalgola,742148,West Bengal,IN,https://www.google.com/maps/place/%E0%A6%AE%E0%A6%B8%E0%A6%9C%E0%A6%BF%E0%A6%A6/data=!4m7!3m6!1s0x39fbcf3d1dd98251:0xb8fff420b044be70!8m2!3d24.3978028!4d88.2749294!16s%2Fg%2F11rssdztw3!19sChIJUYLZHT3P-zkRcL5EsCD0_7g?authuser=0&hl=en&rclk=1,"24.397802799999997,88.27492939999999"
RAMNAGAR MIDDLE WAKTIA MASJID,Mosque,"C6RP+F5 RAMNAGAR MIDDLE WAKTIA MASJID, Lalgola, West Bengal 742148",,C6RP+F5,Lalgola,742148,West Bengal,IN,https://www.google.com/maps/place/RAMNAGAR+MIDDLE+WAKTIA+MASJID/data=!4m7!3m6!1s0x39fbcba29c6ba50d:0x7616f9f8ca390e38!8m2!3d24.441094!4d88.2354173!16s%2Fg%2F11pztfd251!19sChIJDaVrnKLL-zkROA45yvj5FnY?authuser=0&hl=en&rclk=1,"24.441094,88.2354173"
Uttar Latiber Para (Hazipara) Jummah Masjid,Mosque,"C75F+RF5 Uttar Latiber Para (Hazipara) Jummah Masjid, Uttar Latiber Par,Bansgara, Lalgola, 742148",,"C75F+RF5, Uttar Latiber Par,Bansgara","Lalgola, Kaimegha",742148,West Bengal,IN,https://www.google.com/maps/place/Uttar+Latiber+Para+%28Hazipara%29+Jummah+Masjid/data=!4m7!3m6!1s0x39fbcf37b8ffe95b:0xeac1f333066039e5!8m2!3d24.409518!4d88.2737312!16s%2Fg%2F11py6fvnfg!19sChIJW-n_uDfP-zkR5TlgBjPzweo?authuser=0&hl=en&rclk=1,"24.409518,88.2737312"
Damodarpur Jumma Masjid,Mosque,"C65X+MH6 Damodarpur Jumma Masjid, Unnamed Road, Lalgola, Durgapur, West Bengal 742148",,"C65X+MH6, Unnamed Road","Lalgola, Durgapur",742148,West Bengal,IN,https://www.google.com/maps/place/Damodarpur+Jumma+Masjid/data=!4m7!3m6!1s0x39fbcffafddaddb5:0x174be1cdf4426dfa!8m2!3d24.4091704!4d88.2489027!16s%2Fg%2F11rfccg109!19sChIJtd3a_frP-zkR-m1C9M3hSxc?authuser=0&hl=en&rclk=1,"24.409170399999997,88.2489027"
Mosque,Mosque,"Mosque, Lalgola College Rd, Durgapur, Krishnapur, West Bengal 742148",,Lalgola College Rd,"Durgapur, Krishnapur",742148,West Bengal,IN,https://www.google.com/maps/place/Mosque/data=!4m7!3m6!1s0x39fbcfce62d0b37b:0xd2f358b9c6c7e1a2!8m2!3d24.4072974!4d88.2518809!16s%2Fg%2F11h2j7sxrw!19sChIJe7PQYs7P-zkRouHHxrlY89I?authuser=0&hl=en&rclk=1,"24.407297399999997,88.25188089999999"
msjid MOSQUE,Mosque,"msjid MOSQUE, Rail Get, Krishnapur, West Bengal 742148",,Rail Get,Krishnapur,742148,West Bengal,IN,https://www.google.com/maps/place/%E0%A6%AE%E0%A6%B8%E0%A6%9C%E0%A6%BF%E0%A6%A6+MOSQUE/data=!4m7!3m6!1s0x39fbcfcaeb683b55:0xc18b79279694b3fa!8m2!3d24.4122246!4d88.2556394!16s%2Fg%2F11qgg5476_!19sChIJVTto68rP-zkR-rOUlid5i8E?authuser=0&hl=en&rclk=1,"24.4122246,88.25563939999999"
MASJID,Mosque,"C784+Q7Q MASJID, Lalgola, Krishnapur, West Bengal 742148",Lalgola,C784+Q7Q,Krishnapur,742148,West Bengal,IN,https://www.google.com/maps/place/MASJID/data=!4m7!3m6!1s0x39fbcfbf13f2a97b:0x93eccf526b4eb683!8m2!3d24.4159966!4d88.2564218!16s%2Fg%2F11v0c1pz4v!19sChIJe6nyE7_P-zkRg7ZOa1LP7JM?authuser=0&hl=en&rclk=1,"24.4159966,88.2564218"
KALMEGHA JUMMA MASJID,Mosque,"KALMEGHA JUMMA MASJID, Kalmegh Rd, Lalgola, Karttikpur, West Bengal 742148",,Kalmegh Rd,"Lalgola, Karttikpur",742148,West Bengal,IN,https://www.google.com/maps/place/KALMEGHA+JUMMA+MASJID/data=!4m7!3m6!1s0x39fbceb88e6e1db1:0x327d8c49fe82fb93!8m2!3d24.4038484!4d88.264658!16s%2Fg%2F11f33pr_kw!19sChIJsR1ujrjO-zkRk_uC_kmMfTI?authuser=0&hl=en&rclk=1,"24.403848399999998,88.264658"
Maidapara Masjid,Mosque,"C736+4VV Maidapara Masjid, Hossainabad, Kaimegha, Karttikpur, West Bengal 742148",Hossainabad,C736+4VV,"Kaimegha, Karttikpur",742148,West Bengal,IN,https://www.google.com/maps/place/Maidapara+Masjid/data=!4m7!3m6!1s0x39fbcf93ef4a187d:0x1710d9634e837885!8m2!3d24.4028613!4d88.2621703!16s%2Fg%2F11rstvmxym!19sChIJfRhK75PP-zkRhXiDTmPZEBc?authuser=0&hl=en&rclk=1,"24.402861299999998,88.2621703"
uttr ltiber paarraa jummaa msjid( JUMMA MASJID),Mosque,"uttr ltiber paarraa jummaa msjid( JUMMA MASJID), 201, Natungram Rd, Lalgola, Bansgara, West Bengal 742148",,"201, Natungram Rd","Lalgola, Bansgara",742148,West Bengal,IN,https://www.google.com/maps/place/%E0%A6%89%E0%A6%A4%E0%A7%8D%E0%A6%A4%E0%A6%B0+%E0%A6%B2%E0%A6%A4%E0%A6%BF%E0%A6%AC%E0%A7%87%E0%A6%B0+%E0%A6%AA%E0%A6%BE%E0%A7%9C%E0%A6%BE+%E0%A6%9C%E0%A7%81%E0%A6%AE%E0%A7%8D%E0%A6%AE%E0%A6%BE+%E0%A6%AE%E0%A6%B8%E0%A6%9C%E0%A6%BF%E0%A6%A6%28+JUMMA+MASJID%29/data=!4m7!3m6!1s0x39fbcfe6c03dec25:0xcbeb20abbc39322d!8m2!3d24.4140375!4d88.2726991!16s%2Fg%2F11skwp0n98!19sChIJJew9wObP-zkRLTI5vKsg68s?authuser=0&hl=en&rclk=1,"24.4140375,88.2726991"
Chamapara Jumma Masjid,Mosque,"C776+87R Chamapara Jumma Masjid, Lalgola, Krishnapur, West Bengal 742148",,C776+87R,"Lalgola, Krishnapur",742148,West Bengal,IN,https://www.google.com/maps/place/Chamapara+Jumma+Masjid/data=!4m7!3m6!1s0x39fbceb6aaaaaaab:0xe012e98087b26e4f!8m2!3d24.413353!4d88.2606446!16s%2Fg%2F11hbvqyy0n!19sChIJq6qqqrbO-zkRT26yh4DpEuA?authuser=0&hl=en&rclk=1,"24.413352999999997,88.26064459999999"
Dakshin Latiberpara Jumma Masjid (A.C),Mosque,"C74F+5Q6 Dakshin Latiberpara Jumma Masjid (A.C), Kaimegha, West Bengal 742148",,C74F+5Q6,Kaimegha,742148,West Bengal,IN,https://www.google.com/maps/place/Dakshin+Latiberpara+Jumma+Masjid+%28A.C%29/data=!4m7!3m6!1s0x39fbcf9cea0ab39b:0x3983229cb0dcd56c!8m2!3d24.4054139!4d88.2743801!16s%2Fg%2F11kjf7lm5g!19sChIJm7MK6pzP-zkRbNXcsJwigzk?authuser=0&hl=en&rclk=1,"24.4054139,88.2743801"
Bhwanipur Jummah masjid,Mosque,"97X5+QPW Bhwanipur Jummah masjid, Krishnapur, West Bengal 742148",,97X5+QPW,Krishnapur,742148,West Bengal,IN,https://www.google.com/maps/place/Bhwanipur+Jummah+masjid/data=!4m7!3m6!1s0x39fbcf3537aeaaeb:0x34d88520445a081b!8m2!3d24.3994838!4d88.2593152!16s%2Fg%2F11p75pqsk0!19sChIJ66quNzXP-zkRGwhaRCCF2DQ?authuser=0&hl=en&rclk=1,"24.3994838,88.25931519999999"
KHALIFABAD( KALPARA) OKTIA MASJID,Mosque,"C6JG+4WR KHALIFABAD( KALPARA) OKTIA MASJID, KHALIFABAD, PAHARPUR, LALGOLA, WES, West Bengal 724148",,"C6JG+4WR, KHALIFABAD, PAHARPUR, LALGOLA","WES, Khalifabaj",724148,West Bengal,IN,https://www.google.com/maps/place/KHALIFABAD%28+KALPARA%29+OKTIA+MASJID/data=!4m7!3m6!1s0x39fbcb646ef995a5:0xa834e829e8db8ef1!8m2!3d24.4303652!4d88.2272611!16s%2Fg%2F11sv1cwqr6!19sChIJpZX5bmTL-zkR8Y7b6CnoNKg?authuser=0&hl=en&rclk=1,"24.4303652,88.22726109999999"
Al Hera Jama masjid (aal heraa jummaa msjid),Mosque,"C6GG+P27 Al Hera Jama masjid (aal heraa jummaa msjid), Natatala,paharpur, Lalgola, 742148",,"C6GG+P27, Natatala,paharpur","Lalgola, Paharpur",742148,West Bengal,IN,https://www.google.com/maps/place/Al+Hera+Jama+masjid+%28%E0%A6%86%E0%A6%B2+%E0%A6%B9%E0%A7%87%E0%A6%B0%E0%A6%BE+%E0%A6%9C%E0%A7%81%E0%A6%AE%E0%A7%8D%E0%A6%AE%E0%A6%BE+%E0%A6%AE%E0%A6%B8%E0%A6%9C%E0%A6%BF%E0%A6%A6%29/data=!4m7!3m6!1s0x39fbcb11ed284353:0x177f7b94f79d841e!8m2!3d24.4267851!4d88.2250616!16s%2Fg%2F11tf7842qt!19sChIJU0Mo7RHL-zkRHoSd95R7fxc?authuser=0&hl=en&rclk=1,"24.4267851,88.22506159999999"
Jumma masjid,Mosque,"C749+JCM Jumma masjid, Kaimegha, West Bengal 742148",,C749+JCM,Kaimegha,742148,West Bengal,IN,https://www.google.com/maps/place/Jumma+masjid/data=!4m7!3m6!1s0x39fbcf507a713575:0xffe93c2bb4f85db0!8m2!3d24.4070195!4d88.2693258!16s%2Fg%2F11v3h0858q!19sChIJdTVxelDP-zkRsF34tCs86f8?authuser=0&hl=en&rclk=1,"24.4070195,88.26932579999999"
Masjid,Mosque,"C745+2R Masjid, Lalgola, Krishnapur, West Bengal 742148",,C745+2R,"Lalgola, Krishnapur",,West Bengal,IN,https://www.google.com/maps/place/Masjid/data=!4m7!3m6!1s0x39fbcfc43c0d6ccd:0x6330c31a807703f4!8m2!3d24.4050381!4d88.2596106!16s%2Fg%2F11kpvkkvqp!19sChIJzWwNPMTP-zkR9AN3gBrDMGM?authuser=0&hl=en&rclk=1,"24.4050381,88.2596106"
Masjid,Mosque,"C749+JCM Masjid, Kaimegha, West Bengal 742148",,C749+JCM,Kaimegha,742148,West Bengal,IN,https://www.google.com/maps/place/Masjid/data=!4m7!3m6!1s0x39fbcfcf56b4dee3:0x67962f87c19dfa68!8m2!3d24.4069196!4d88.2693969!16s%2Fg%2F11krh58p_1!19sChIJ4960Vs_P-zkRaPqdwYcvlmc?authuser=0&hl=en&rclk=1,"24.4069196,88.26939689999999"
Masjid,Mosque,"C746+C2 Masjid, Lalgola, Krishnapur, West Bengal 742148",,C746+C2,"Lalgola, Krishnapur",,West Bengal,IN,https://www.google.com/maps/place/Masjid/data=!4m7!3m6!1s0x39fbcf79af422501:0x4d935c3c67ee84f6!8m2!3d24.4060727!4d88.2599798!16s%2Fg%2F11sv2r55hs!19sChIJASVCr3nP-zkR9oTuZzxck00?authuser=0&hl=en&rclk=1,"24.4060727,88.2599798"
Masjid,Mosque,"C795+43V Masjid, Krishnapur, West Bengal 742148",,C795+43V,Krishnapur,742148,West Bengal,IN,https://www.google.com/maps/place/Masjid/data=!4m7!3m6!1s0x39fbcf0365101d8f:0x164b0e698af52168!8m2!3d24.4174006!4d88.258042!16s%2Fg%2F11stxpgvdw!19sChIJjx0QZQPP-zkRaCH1imkOSxY?authuser=0&hl=en&rclk=1,"24.4174006,88.25804199999999"
Masjid,Mosque,"C758+7GV Masjid, Kalmegh Rd, Lalgola, Kaimegha, West Bengal 742148",,"C758+7GV, Kalmegh Rd","Lalgola, Kaimegha",742148,West Bengal,IN,https://www.google.com/maps/place/Masjid/data=!4m7!3m6!1s0x39fbcfd94581193f:0x449981f5921a5c63!8m2!3d24.4082493!4d88.2662888!16s%2Fg%2F11v0hbyxph!19sChIJPxmBRdnP-zkRY1wakvWBmUQ?authuser=0&hl=en&rclk=1,"24.408249299999998,88.2662888"
Abul Kasem's Masjid,Mosque,"C777+8R3 Abul Kasem's Masjid, Bansgara, West Bengal 742148",,C777+8R3,Bansgara,742148,West Bengal,IN,https://www.google.com/maps/place/Abul+Kasem%27s+Masjid/data=!4m7!3m6!1s0x39fbcfe6a332e5b5:0x64b46a6e321b247!8m2!3d24.4135225!4d88.2646513!16s%2Fg%2F11s758lkhw!19sChIJteUyo-bP-zkRR7Ih46ZGSwY?authuser=0&hl=en&rclk=1,"24.4135225,88.2646513"
Tentuliya para jumma masjid,Mosque,"C775+6CH Tentuliya para jumma masjid, Lalgola, Krishnapur, West Bengal 742148",,C775+6CH,"Lalgola, Krishnapur",742148,West Bengal,IN,https://www.google.com/maps/place/Tentuliya+para+jumma+masjid/data=!4m7!3m6!1s0x39fbcf01521760b9:0x24142d45732524c9!8m2!3d24.4130554!4d88.2586107!16s%2Fg%2F11twkgpz00!19sChIJuWAXUgHP-zkRySQlc0UtFCQ?authuser=0&hl=en&rclk=1,"24.413055399999998,88.25861069999999"
Uttra Latiber Para - 2 Jumma Masjid,Mosque,"C75H+Q68 Uttra Latiber Para - 2 Jumma Masjid, Lalgola, Bansgara, West Bengal 742148",,C75H+Q68,"Lalgola, Bansgara",742148,West Bengal,IN,https://www.google.com/maps/place/Uttra+Latiber+Para+-+2+Jumma+Masjid/data=!4m7!3m6!1s0x39fbcf1bc1fa71af:0x61722ebedb906d89!8m2!3d24.4097642!4d88.2775209!16s%2Fg%2F11kb585qb8!19sChIJr3H6wRvP-zkRiW2Q274ucmE?authuser=0&hl=en&rclk=1,"24.409764199999998,88.2775209"
Sahajipara jumma masjid,Mosque,"Sahajipara jumma masjid, Krishnapur, West Bengal 742148",,,Krishnapur,742148,West Bengal,IN,https://www.google.com/maps/place/Sahajipara+jumma+masjid/data=!4m7!3m6!1s0x39fbcff3866e8eb1:0xe1d7ebb96f230802!8m2!3d24.4160881!4d88.2553256!16s%2Fg%2F11szfk5hkj!19sChIJsY5uhvPP-zkRAggjb7nr1-E?authuser=0&hl=en&rclk=1,"24.4160881,88.25532559999999"
Ganeshpur jumma masjid,Mosque,"96XV+V3V Ganeshpur jumma masjid, Ganeshpur, Lalgola, West Bengal 742148",,"96XV+V3V, Ganeshpur",Lalgola,742148,West Bengal,IN,https://www.google.com/maps/place/Ganeshpur+jumma+masjid/data=!4m7!3m6!1s0x39fbcd433c68fd6d:0x10aa0c3285181c30!8m2!3d24.3997325!4d88.242669!16s%2Fg%2F11pl6vcz4l!19sChIJbf1oPEPN-zkRMBwYhTIMqhA?authuser=0&hl=en&rclk=1,"24.3997325,88.24266899999999"
Natungram Kokilpara jaame Mosque ntungraam kokilpaadd'aa jummaa msjid,Mosque,"Natungram Kokilpara jaame Mosque ntungraam kokilpaadd'aa jummaa msjid, 201, Natungram Rd, Lalgola, Bansgara, West Bengal 742148",,"201, Natungram Rd","Lalgola, Bansgara",742148,West Bengal,IN,https://www.google.com/maps/place/Natungram+Kokilpara+jaame+Mosque+%E0%A6%A8%E0%A6%A4%E0%A7%81%E0%A6%A8%E0%A6%97%E0%A7%8D%E0%A6%B0%E0%A6%BE%E0%A6%AE+%E0%A6%95%E0%A7%8B%E0%A6%95%E0%A6%BF%E0%A6%B2%E0%A6%AA%E0%A6%BE%E0%A6%A1%E0%A6%BC%E0%A6%BE+%E0%A6%9C%E0%A7%81%E0%A6%AE%E0%A7%8D%E0%A6%AE%E0%A6%BE+%E0%A6%AE%E0%A6%B8%E0%A6%9C%E0%A6%BF%E0%A6%A6/data=!4m7!3m6!1s0x39fbcf7fd8933d7f:0xd2574dc270d43d40!8m2!3d24.413833!4d88.2717955!16s%2Fg%2F11qpkryw9j!19sChIJfz2T2H_P-zkRQD3UcMJNV9I?authuser=0&hl=en&rclk=1,"24.413833,88.2717955"
raamngr msjid Ramnagar Masjid,Mosque,"C6QQ+2G8 raamngr msjid Ramnagar Masjid, near Ramnagar Bijlee Songho Club, Lalgola, West Bengal 742148",,"C6QQ+2G8, near Ramnagar Bijlee Songho Club",Lalgola,742148,West Bengal,IN,https://www.google.com/maps/place/%E0%A6%B0%E0%A6%BE%E0%A6%AE%E0%A6%A8%E0%A6%97%E0%A6%B0+%E0%A6%AE%E0%A6%B8%E0%A6%9C%E0%A6%BF%E0%A6%A6+Ramnagar+Masjid/data=!4m7!3m6!1s0x39fbcbb896cbf94b:0x98dcb88447942df9!8m2!3d24.4375743!4d88.2388015!16s%2Fg%2F11l5rlmmj1!19sChIJS_nLlrjL-zkR-S2UR4S43Jg?authuser=0&hl=en&rclk=1,"24.437574299999998,88.2388015"
Kanapara Jummah Masjid,Mosque,"C724+872 Kanapara Jummah Masjid, Krishnapur, West Bengal 742148",,C724+872,Krishnapur,742148,West Bengal,IN,https://www.google.com/maps/place/Kanapara+Jummah+Masjid/data=!4m7!3m6!1s0x39fbcf45275319c7:0x4df5b75d85257121!8m2!3d24.40076!4d88.255625!16s%2Fg%2F11rfbl8tnl!19sChIJxxlTJ0XP-zkRIXElhV239U0?authuser=0&hl=en&rclk=1,"24.40076,88.255625"
NamuJhawbona 1No Jumma Masjid,Mosque,"97VC+P55 NamuJhawbona 1No Jumma Masjid, Unnamed Road, Lalgola, Ramchandrapur, West Bengal 742148",,"97VC+P55, Unnamed Road","Lalgola, Ramchandrapur",742148,West Bengal,IN,https://www.google.com/maps/place/NamuJhawbona+1No+Jumma+Masjid/data=!4m7!3m6!1s0x39fbcf6dd772affd:0xc7734e48aa778020!8m2!3d24.3942619!4d88.2704969!16s%2Fg%2F11lq4n5qvr!19sChIJ_a9y123P-zkRIIB3qkhOc8c?authuser=0&hl=en&rclk=1,"24.3942619,88.2704969"
NOTUNGRAM JUMMA MASJID,Mosque,"C78C+2HP NOTUNGRAM JUMMA MASJID, Natungram Rd, ashariadaha, Lalgola, West Bengal 742148",ashariadaha,"C78C+2HP, Natungram Rd",Lalgola,742148,West Bengal,IN,https://www.google.com/maps/place/NOTUNGRAM+JUMMA+MASJID/data=!4m7!3m6!1s0x39fbcf5cd821f373:0x2b1831e9c5053d17!8m2!3d24.415077!4d88.271441!16s%2Fg%2F11hjk4vw95!19sChIJc_Mh2FzP-zkRFz0FxekxGCs?authuser=0&hl=en&rclk=1,"24.415077,88.271441"
Lalgola Guripara Mosque,Mosque,"C7C4+3Q7 Lalgola Guripara Mosque, Lalgola, Krishnapur, West Bengal 742148",Lalgola,C7C4+3Q7,"Lalgola, Krishnapur",742148,West Bengal,IN,https://www.google.com/maps/place/Lalgola+Guripara+Mosque/data=!4m7!3m6!1s0x39fbc97b1cc923c1:0xe55a439c7874af3!8m2!3d24.419386!4d88.256906!16s%2Fg%2F11tgbd3qwl!19sChIJwSPJHHvJ-zkR80qHxzmkVQ4?authuser=0&hl=en&rclk=1,"24.419386,88.256906"
jotkhaamaar id gaah,Mosque,"C6JX+JH9 jotkhaamaar id gaah, Lalgola, West Bengal 742148",,C6JX+JH9,Lalgola,742148,West Bengal,IN,https://www.google.com/maps/place/%E0%A6%9C%E0%A7%8B%E0%A6%A4%E0%A6%96%E0%A6%BE%E0%A6%AE%E0%A6%BE%E0%A6%B0+%E0%A6%87%E0%A6%A6+%E0%A6%97%E0%A6%BE%E0%A6%B9/data=!4m7!3m6!1s0x39fbc923b653064b:0x3864f77eeb6ed82e!8m2!3d24.4314595!4d88.2489894!16s%2Fg%2F11q4gfvp0g!19sChIJSwZTtiPJ-zkRLthu6373ZDg?authuser=0&hl=en&rclk=1,"24.4314595,88.2489894"
Boss,Mosque,"Boss, msjid, Ganeshpur jumma masjid gneshpur jummaa, Lalgola, West Bengal",,"msjid, Ganeshpur jumma masjid gneshpur jummaa",Lalgola,,West Bengal,IN,https://www.google.com/maps/place/Boss/data=!4m7!3m6!1s0x39fbcde54db2def7:0x6dc46d053e37e15a!8m2!3d24.3995943!4d88.2429098!16s%2Fg%2F11nwxzq97p!19sChIJ996yTeXN-zkRWuE3PgVtxG0?authuser=0&hl=en&rclk=1,"24.3995943,88.24290979999999"
