name,main_category,address,address_ward,address_street,address_city,address_postal_code,address_state,address_country_code,link,coordinates
Damdi Masjid,Mosque,"4Q36+F4Q Damdi Masjid, Mukundnagar, Ahmednagar, Maharashtra 414001",Mukundnagar,4Q36+F4Q,Ahmednagar,414001,Maharashtra,IN,https://www.google.com/maps/place/Damdi+Masjid/data=!4m7!3m6!1s0x3bdcb00d8eae818d:0x80b6f1257a3ff4b0!8m2!3d19.1037224!4d74.7603482!16s%2Fg%2F1262tscwh!19sChIJjYGujg2w3DsRsPQ_eiXxtoA?authuser=0&hl=en&rclk=1,"19.1037224,74.7603482"
Masjid,Mosque,"3P75+FCF Masjid, Renuka Goddess Temple Road, Kedgaon, Ahmednagar, Maharashtra 414005",Kedgaon,"3P75+FCF, Renuka Goddess Temple Road",Ahmednagar,414005,Maharashtra,IN,https://www.google.com/maps/place/Masjid/data=!4m7!3m6!1s0x3bdcb1206bc76fb7:0x602ae5ef438134d9!8m2!3d19.0636874!4d74.7085547!16s%2Fg%2F1264ft3c1!19sChIJt2_HayCx3DsR2TSBQ-_lKmA?authuser=0&hl=en&rclk=1,"19.0636874,74.7085547"
shadwal Dargaah,Mosque,"shadwal Dargaah, 1, Kopargaon - Shirdi - Ahmednagar - Pune Hwy, Kedgaon, Ahmednagar, Maharashtra 414005",Kedgaon,"1, Kopargaon - Shirdi - Ahmednagar - Pune Hwy",Ahmednagar,414005,Maharashtra,IN,https://www.google.com/maps/place/shadwal+Dargaah/data=!4m7!3m6!1s0x3bdcb1206be33ccb:0x63eaade75e390981!8m2!3d19.0637511!4d74.70852!16s%2Fg%2F11g7_f9tjp!19sChIJyzzjayCx3DsRgQk5Xuet6mM?authuser=0&hl=en&rclk=1,"19.063751099999998,74.70852"
Masjid,Mosque,"3MFW+652 Masjid, Jagdamba Colony, Kedgaon, Ahmednagar, Maharashtra 414005","Jagdamba Colony, Kedgaon",3MFW+652,Ahmednagar,414005,Maharashtra,IN,https://www.google.com/maps/place/Masjid/data=!4m7!3m6!1s0x3bdcb0d1adb4f5f5:0x92231a2a373f3cea!8m2!3d19.0730072!4d74.6953871!16s%2Fg%2F11dymm06tf!19sChIJ9fW0rdGw3DsR6jw_NyoaI5I?authuser=0&hl=en&rclk=1,"19.0730072,74.69538709999999"
Sunni Rehmaniya Masjid,Mosque,"3P52+WX6 Sunni Rehmaniya Masjid, Saadat nagar, Kedgaon, Ahmednagar, Maharashtra 414005","Saadat nagar, Kedgaon",3P52+WX6,Ahmednagar,414005,Maharashtra,IN,https://www.google.com/maps/place/Sunni+Rehmaniya+Masjid/data=!4m7!3m6!1s0x3bdcb0d9c817d60f:0x4ac1f897148ae7c8!8m2!3d19.059784!4d74.702395!16s%2Fg%2F11b7gdqtb3!19sChIJD9YXyNmw3DsRyOeKFJf4wUo?authuser=0&hl=en&rclk=1,"19.059784,74.702395"
Tamboli Masjid and Qabrastan,Mosque,"Tamboli Masjid and Qabrastan, & Qabrastan, Tamboli Masjid, Sarjepura Rd, Tarakpur, Ahmednagar, Maharashtra 414001",Tarakpur,"& Qabrastan, Tamboli Masjid, Sarjepura Rd",Ahmednagar,414001,Maharashtra,IN,https://www.google.com/maps/place/Tamboli+Masjid+and+Qabrastan/data=!4m7!3m6!1s0x3bdcb07cb98faacf:0x2412828d0d32caf9!8m2!3d19.1032459!4d74.7383383!16s%2Fg%2F11cm3tz4c7!19sChIJz6qPuXyw3DsR-coyDY2CEiQ?authuser=0&hl=en&rclk=1,"19.103245899999997,74.7383383"
Baba Bangali Masjid bb bngl shh msjd,Mosque,"3PVV+PW6 Baba Bangali Masjid bb bngl shh msjd, Pune - Ahmednagar Hwy, NEAR COLLECTRATE Kalyan, Nalegaon, Ahmednagar, Maharashtra 414001",Nalegaon,"3PVV+PW6, Pune - Ahmednagar Hwy, NEAR COLLECTRATE Kalyan",Ahmednagar,414001,Maharashtra,IN,https://www.google.com/maps/place/Baba+Bangali+Masjid+%D8%A8%D8%A7%D8%A8%D8%A7+%D8%A8%D9%86%DA%AF%D8%A7%D9%84+%D8%B4%D8%A7%DB%81+%D9%85%D8%B3%D8%AC%D8%AF%E2%80%AD/data=!4m7!3m6!1s0x3bdcb0662de96341:0xe2877faa7d962dbb!8m2!3d19.0942883!4d74.7447565!16s%2Fg%2F1pp2vcvm3!19sChIJQWPpLWaw3DsRuy2Wfap_h-I?authuser=0&hl=en&rclk=1,"19.0942883,74.7447565"
Jama Masjid (jm` msjd)Badi Masjid,Mosque,"4Q63+48J Jama Masjid (jm` msjd)Badi Masjid, Nagardeole, Ahmednagar, Maharashtra 414001",Nagardeole,4Q63+48J,Ahmednagar,414001,Maharashtra,IN,https://www.google.com/maps/place/Jama+Masjid+%28%D8%AC%D8%A7%D9%85%D8%B9+%D9%85%D8%B3%D8%AC%D8%AF%29Badi+Masjid%E2%80%AD/data=!4m7!3m6!1s0x3bdcb074693b2369:0xb9be150dc34c1fbb!8m2!3d19.1103477!4d74.7532588!16s%2Fg%2F1260p33cj!19sChIJaSM7aXSw3DsRux9Mww0Vvrk?authuser=0&hl=en&rclk=1,"19.1103477,74.7532588"
Inam-Ul-Hasan Masjid & Madrasa,Mosque,"4Q52+XJJ Inam-Ul-Hasan Masjid & Madrasa, Mukundnagar Main Rd, Mukundnagar, Ahmednagar, Maharashtra 414001",Mukundnagar,"4Q52+XJJ, Mukundnagar Main Rd",Ahmednagar,414001,Maharashtra,IN,https://www.google.com/maps/place/Inam-Ul-Hasan+Masjid+%26+Madrasa/data=!4m7!3m6!1s0x3bdcb0741c5ec4b9:0x1a48c6782595a459!8m2!3d19.1099565!4d74.751509!16s%2Fg%2F11bw66s9pt!19sChIJucReHHSw3DsRWaSVJXjGSBo?authuser=0&hl=en&rclk=1,"19.1099565,74.751509"
Mariyam Masjid (Small),Mosque,"Mariyam Masjid (Small), 108, CIV Housing Society, Mukundnagar, Ahmednagar, Darga Daira, Maharashtra 414001","CIV Housing Society, Mukundnagar",108,"Ahmednagar, Darga Daira",414001,Maharashtra,IN,https://www.google.com/maps/place/Mariyam+Masjid+%28Small%29/data=!4m7!3m6!1s0x3bdcb0751dadcee9:0x307377c865819afe!8m2!3d19.1124145!4d74.7551196!16s%2Fg%2F11bxf_qpy2!19sChIJ6c6tHXWw3DsR_pqBZch3czA?authuser=0&hl=en&rclk=1,"19.1124145,74.7551196"
Muhammadi Masjid,Mosque,"Muhammadi Masjid, 23/12, Mukundnagar Main Rd, Mukundnagar, Darga Daira, Maharashtra 414001",Mukundnagar,"23/12, Mukundnagar Main Rd",Darga Daira,414001,Maharashtra,IN,https://www.google.com/maps/place/Muhammadi+Masjid/data=!4m7!3m6!1s0x3bdcb07486f7433d:0x5082e11cc2b1bc7b!8m2!3d19.1097813!4d74.7544333!16s%2Fg%2F1q6b6gsz4!19sChIJPUP3hnSw3DsRe7yxwhzhglA?authuser=0&hl=en&rclk=1,"19.109781299999998,74.7544333"
Dargah Daira Mehdavia Masjid (Masjid-e-Mahdavia),Religious destination,"4Q56+J8P Dargah Daira Mehdavia Masjid (Masjid-e-Mahdavia), Mukundnagar, Ahmednagar, Maharashtra 414001",Mukundnagar,4Q56+J8P,Ahmednagar,414001,Maharashtra,IN,https://www.google.com/maps/place/Dargah+Daira+Mehdavia+Masjid+%28Masjid-e-Mahdavia%29/data=!4m7!3m6!1s0x3bdcb00c7021fa65:0xdef1aace039d7e21!8m2!3d19.1090875!4d74.7608281!16s%2Fg%2F1pp2w_768!19sChIJZfohcAyw3DsRIX6dA86q8d4?authuser=0&hl=en&rclk=1,"19.109087499999998,74.7608281"
JK Auto,Chauffeur service,"JK Auto, Hatampura Chauk, Maharashtra 414002",Maliwada,Hatampura Chauk,Ahmednagar,414002,Maharashtra,IN,https://www.google.com/maps/place/JK+Auto/data=!4m7!3m6!1s0x3bdcb06706ec21eb:0xa269980a49ddc523!8m2!3d19.0933696!4d74.7428595!16s%2Fg%2F1hc68q0jq!19sChIJ6yHsBmew3DsRI8XdSQqYaaI?authuser=0&hl=en&rclk=1,"19.0933696,74.7428595"
Mariyam Masjid (Big),Mosque,"4Q53+7X5 Mariyam Masjid (Big), Mukundnagar, Darga Daira, Maharashtra 414001",Mukundnagar,4Q53+7X5,Darga Daira,414001,Maharashtra,IN,https://www.google.com/maps/place/Mariyam+Masjid+%28Big%29/data=!4m7!3m6!1s0x3bdcb0736d9106ef:0xb1efce560b0cd318!8m2!3d19.1081402!4d74.7549961!16s%2Fg%2F11clw6sklh!19sChIJ7waRbXOw3DsRGNMMC1bO77E?authuser=0&hl=en&rclk=1,"19.108140199999998,74.7549961"
Nagapur Masjid,Mosque,"4PW7+J6H Nagapur Masjid, MIDC, Ahmednagar, Maharashtra 414111",MIDC,4PW7+J6H,Ahmednagar,414111,Maharashtra,IN,https://www.google.com/maps/place/Nagapur+Masjid/data=!4m7!3m6!1s0x3bdcba487e40dce9:0xa96239def8394031!8m2!3d19.1465653!4d74.7131219!16s%2Fg%2F11gf8fgrh3!19sChIJ6dxAfki63DsRMUA5-N45Yqk?authuser=0&hl=en&rclk=1,"19.1465653,74.71312189999999"
Takhti Darvaza Masjid,Mosque,"3PVP+5HW Takhti Darvaza Masjid, Nalegaon, Ahmednagar, Maharashtra 414001",Nalegaon,3PVP+5HW,Ahmednagar,414001,Maharashtra,IN,https://www.google.com/maps/place/Takhti+Darvaza+Masjid/data=!4m7!3m6!1s0x3bdcb06055a2e565:0x3749667967e4da42!8m2!3d19.0929772!4d74.7364539!16s%2Fg%2F1tknhxth!19sChIJZeWiVWCw3DsRQtrkZ3lmSTc?authuser=0&hl=en&rclk=1,"19.0929772,74.7364539"
FAIZAN E MADINA GARIB NAWAZ MASJID,Mosque,"Ward No 3, FAIZAN E MADINA GARIB NAWAZ MASJID, Dargah Dayra Rd, Mukundnagar, Ahmednagar, Darga Daira, Maharashtra 414001",Mukundnagar,"Ward No 3, Dargah Dayra Rd","Ahmednagar, Darga Daira",414001,Maharashtra,IN,https://www.google.com/maps/place/FAIZAN+E+MADINA+GARIB+NAWAZ+MASJID/data=!4m7!3m6!1s0x3bdcb0733693195d:0x20a9d6463e949d7a!8m2!3d19.1077802!4d74.7566758!16s%2Fg%2F11c60g83kj!19sChIJXRmTNnOw3DsRep2UPkbWqSA?authuser=0&hl=en&rclk=1,"19.1077802,74.7566758"
Masjid msjd,Mosque,"3PHG+22M Masjid msjd, Station Rd, Anand Nagar, Ahmednagar, Maharashtra 414005",Anand Nagar,"3PHG+22M, Station Rd",Ahmednagar,414005,Maharashtra,IN,https://www.google.com/maps/place/Masjid+%D9%85%D8%B3%D8%AC%D8%AF%E2%80%AD/data=!4m7!3m6!1s0x3bdcb0fa7e71aa79:0xae5ebb39ab220b0b!8m2!3d19.0775855!4d74.7250469!16s%2Fg%2F1261bm8ty!19sChIJeapxfvqw3DsRCwsiqzm7Xq4?authuser=0&hl=en&rclk=1,"19.077585499999998,74.7250469"
Qadri Masjid qdry msjd,Mosque,"4Q64+68G Qadri Masjid qdry msjd, Dargah Dayra Rd, Mukundnagar, Ahmednagar, Darga Daira, Maharashtra 414001",Mukundnagar,"4Q64+68G, Dargah Dayra Rd","Ahmednagar, Darga Daira",414001,Maharashtra,IN,https://www.google.com/maps/place/Qadri+Masjid+%D9%82%D8%A7%D8%AF%D8%B1%DB%8C+%D9%85%D8%B3%D8%AC%D8%AF%E2%80%AD/data=!4m7!3m6!1s0x3bdcb074bef3cb5f:0x735c53ea90bf806b!8m2!3d19.1105543!4d74.7558307!16s%2Fg%2F11b6v7wfhh!19sChIJX8vzvnSw3DsRa4C_kOpTXHM?authuser=0&hl=en&rclk=1,"19.1105543,74.75583069999999"
Qari Masjid,Mosque,"3PVQ+X65 Qari Masjid, near post office, Nalegaon, Ahmednagar, Maharashtra 414001",Nalegaon,"3PVQ+X65, near post office",Ahmednagar,414001,Maharashtra,IN,https://www.google.com/maps/place/Qari+Masjid/data=!4m7!3m6!1s0x3bdcb068985bb765:0x9bdb2a6d68e21e77!8m2!3d19.0956266!4d74.7458052!16s%2Fg%2F11cktmrwbv!19sChIJZbdbmGiw3DsRdx7iaG0q25s?authuser=0&hl=en&rclk=1,"19.0956266,74.74580519999999"
BILAL MASJID,Mosque,"4QQ4+33H BILAL MASJID, ST COLONY, TAPOWAN ROAD,, Savedi, Ahmednagar, Maharashtra 414003",Savedi,"4QQ4+33H, ST COLONY, TAPOWAN ROAD,",Ahmednagar,414003,Maharashtra,IN,https://www.google.com/maps/place/BILAL+MASJID/data=!4m7!3m6!1s0x3bdcba9530c5fc15:0x951ed6452e00d09!8m2!3d19.1376849!4d74.7552421!16s%2Fg%2F11c2pyqs8n!19sChIJFfzFMJW63DsRCQ3gUmTtUQk?authuser=0&hl=en&rclk=1,"19.1376849,74.75524209999999"
Patvekar Masjid,Mosque,"3PRP+MQH Patvekar Masjid, Juna Mangalwar Bazar, Maliwada, Ahmednagar, Maharashtra 414001",Maliwada,"3PRP+MQH, Juna Mangalwar Bazar",Ahmednagar,414001,Maharashtra,IN,https://www.google.com/maps/place/Patvekar+Masjid/data=!4m7!3m6!1s0x3bdcb0608c63d77f:0xec58133ddd539509!8m2!3d19.0916763!4d74.736971!16s%2Fg%2F1vn16_57!19sChIJf9djjGCw3DsRCZVT3T0TWOw?authuser=0&hl=en&rclk=1,"19.0916763,74.736971"
Tamimdaree Masjid tmym dry msjd,Mosque,"4P5X+PJM Tamimdaree Masjid tmym dry msjd, Mukundnagar, Ahmednagar, Maharashtra 414001",Mukundnagar,4P5X+PJM,Ahmednagar,414001,Maharashtra,IN,https://www.google.com/maps/place/Tamimdaree+Masjid+%D8%AA%D9%85%DB%8C%D9%85+%D8%AF%D8%A7%D8%B1%DB%8C+%D9%85%D8%B3%D8%AC%D8%AF%E2%80%AD/data=!4m7!3m6!1s0x3bdcb076ce29e63b:0xabd8e79542923fa0!8m2!3d19.109346!4d74.7490598!16s%2Fg%2F11f33t8qz9!19sChIJO-Ypznaw3DsRoD-SQpXn2Ks?authuser=0&hl=en&rclk=1,"19.109346,74.7490598"
Husenmiya Masjid Hsyn myN msjd,Mosque,"Husenmiya Masjid Hsyn myN msjd, Unnamed Road, 414001new hina park, Mukundnagar, Ahmednagar, Maharashtra 414001",Mukundnagar,"Unnamed Road, 414001new hina park","Ahmednagar, Darga Daira",414001,Maharashtra,IN,https://www.google.com/maps/place/Husenmiya+Masjid+%D8%AD%D8%B3%DB%8C%D9%86+%D9%85%DB%8C%D8%A7%DA%BA+%D9%85%D8%B3%D8%AC%D8%AF%E2%80%AD/data=!4m7!3m6!1s0x3bdcb0735a704991:0xfe8f861c1a54fcbf!8m2!3d19.1092842!4d74.7563085!16s%2Fg%2F11dxql4jk9!19sChIJkUlwWnOw3DsRv_xUGhyGj_4?authuser=0&hl=en&rclk=1,"19.109284199999998,74.7563085"
Mominpura Masjid,Mosque,"3QX8+8RV Mominpura Masjid, Bhingar, Ahmednagar, Maharashtra 414002",Bhingar,3QX8+8RV,Ahmednagar,414002,Maharashtra,IN,https://www.google.com/maps/place/Mominpura+Masjid/data=!4m7!3m6!1s0x3bdcb01736aceb99:0x12c7bd5f2af4b54!8m2!3d19.0983626!4d74.7670389!16s%2Fg%2F11f126f_0l!19sChIJmeusNhew3DsRVEuv8tV7LAE?authuser=0&hl=en&rclk=1,"19.098362599999998,74.7670389"
Masjid Abu Hurairah,Mosque,"4PQ6+3CH Masjid Abu Hurairah, Renuka Nagar, Bolhegaon Suburban, Ahmednagar, Maharashtra 414111","Renuka Nagar, Bolhegaon Suburban",4PQ6+3CH,Ahmednagar,414111,Maharashtra,IN,https://www.google.com/maps/place/Masjid+Abu+Hurairah/data=!4m7!3m6!1s0x3bdcba40888aa263:0x861ca4c9a9079f4f!8m2!3d19.1376785!4d74.7111204!16s%2Fg%2F11f4qfgbmb!19sChIJY6KKiEC63DsRT58HqcmkHIY?authuser=0&hl=en&rclk=1,"19.1376785,74.7111204"
Makka Masjid mkh msjd,Mosque,"3PXR+H7Q Makka Masjid mkh msjd, Beldar Ln, Tarakpur, Ahmednagar, Maharashtra 414001",Tarakpur,"3PXR+H7Q, Beldar Ln",Ahmednagar,414001,Maharashtra,IN,https://www.google.com/maps/place/Makka+Masjid+%D9%85%D9%83%DB%81+%D9%85%D8%B3%D8%AC%D8%AF%E2%80%AD/data=!4m7!3m6!1s0x3bdcb06466eb4f53:0x2204b6ecfeb87fd5!8m2!3d19.0989679!4d74.7407476!16s%2Fg%2F11cltr18dj!19sChIJU0_rZmSw3DsR1X-4_uy2BCI?authuser=0&hl=en&rclk=1,"19.098967899999998,74.74074759999999"
Shahi Masjid,Mosque,"4P6X+P5Q Shahi Masjid, Nagardeole, Ahmednagar, Maharashtra 414001",Nagardeole,4P6X+P5Q,Ahmednagar,414001,Maharashtra,IN,https://www.google.com/maps/place/Shahi+Masjid/data=!4m7!3m6!1s0x3bdcb077abd67453:0x4d50bdcb995c7a67!8m2!3d19.1118352!4d74.7479779!16s%2Fg%2F124sysst1!19sChIJU3TWq3ew3DsRZ3pcmcu9UE0?authuser=0&hl=en&rclk=1,"19.111835199999998,74.7479779"
Abdul Razzak Masjid Darga Daira road,Mosque,"4Q55+967 Abdul Razzak Masjid Darga Daira road, Mukundnagar, Darga Daira, Maharashtra 414001",Mukundnagar,4Q55+967,Darga Daira,414001,Maharashtra,IN,https://www.google.com/maps/place/Abdul+Razzak+Masjid+Darga+Daira+road/data=!4m7!3m6!1s0x3bdcb00cb99269ef:0x87d112d1d75633dd!8m2!3d19.108408!4d74.7580432!16s%2Fg%2F11ddx62xj8!19sChIJ72mSuQyw3DsR3TNW19ES0Yc?authuser=0&hl=en&rclk=1,"19.108408,74.7580432"
Kadim Masjid,Mosque,"3PHP+CJ5 Kadim Masjid, Maniknagar, Ahmednagar, Maharashtra 414001",Maniknagar,3PHP+CJ5,Ahmednagar,414001,Maharashtra,IN,https://www.google.com/maps/place/Kadim+Masjid/data=!4m7!3m6!1s0x3bdcb05781fa45ad:0x2ee2c214fe8143fa!8m2!3d19.0785029!4d74.7365952!16s%2Fg%2F11dd_ny2pl!19sChIJrUX6gVew3DsR-kOB_hTC4i4?authuser=0&hl=en&rclk=1,"19.0785029,74.7365952"
AQSA MASJID ALAMGIR,Mosque,"4Q2H+Q7X AQSA MASJID ALAMGIR, Bhingar, Ahmednagar, Maharashtra 414002",Bhingar,4Q2H+Q7X,Ahmednagar,414002,Maharashtra,IN,https://www.google.com/maps/place/AQSA+MASJID+ALAMGIR/data=!4m7!3m6!1s0x3bdcb01daf05283d:0x36ff804a34b00ed0!8m2!3d19.1019828!4d74.7782439!16s%2Fg%2F11cnp2_7mx!19sChIJPSgFrx2w3DsR0A6wNEqA_zY?authuser=0&hl=en&rclk=1,"19.1019828,74.77824389999999"
MADNI MASJID,Mosque,"4Q2H+99Q MADNI MASJID, Bhingar, Ahmednagar, Maharashtra 414002",Bhingar,4Q2H+99Q,Ahmednagar,414002,Maharashtra,IN,https://www.google.com/maps/place/MADNI+MASJID/data=!4m7!3m6!1s0x3bdcb01dc7ac57d3:0x127c56e87cb5d3ab!8m2!3d19.1009506!4d74.7784789!16s%2Fg%2F11dxdjgqwz!19sChIJ01esxx2w3DsRq9O1fOhWfBI?authuser=0&hl=en&rclk=1,"19.1009506,74.7784789"
Laal Mistari Masjid,Mosque,"3PWQ+WR4 Laal Mistari Masjid, Beldar Ln, Sarjepura city, Ahmednagar, Maharashtra 414001",Sarjepura city,"3PWQ+WR4, Beldar Ln",Ahmednagar,414001,Maharashtra,IN,https://www.google.com/maps/place/Laal+Mistari+Masjid/data=!4m7!3m6!1s0x3bdcb06409b3d9ef:0x75697f09be623e45!8m2!3d19.0972735!4d74.7395714!16s%2Fg%2F11c3x99plq!19sChIJ79mzCWSw3DsRRT5ivgl_aXU?authuser=0&hl=en&rclk=1,"19.0972735,74.7395714"
Nurani Masjid,Mosque,"Nurani Masjid, Tarakpur, Ahmednagar, Maharashtra 414001",Tarakpur,,Ahmednagar,414001,Maharashtra,IN,https://www.google.com/maps/place/Nurani+Masjid/data=!4m7!3m6!1s0x3bdcb07dc8975f19:0xb8644a56984c9195!8m2!3d19.1065277!4d74.7359478!16s%2Fg%2F11gfh_v71j!19sChIJGV-XyH2w3DsRlZFMmFZKZLg?authuser=0&hl=en&rclk=1,"19.1065277,74.73594779999999"
Madina Masjid,Mosque,"Madina Masjid, Unnamed Road, 414111, Bolhegaon Suburban, Ahmednagar, Maharashtra 414111",Bolhegaon Suburban,"Unnamed Road, 414111",Ahmednagar,414111,Maharashtra,IN,https://www.google.com/maps/place/Madina+Masjid/data=!4m7!3m6!1s0x3bdcba3d8b80ec3b:0xb09c1282d12878fb!8m2!3d19.1341903!4d74.7028009!16s%2Fg%2F11gcx_tqpc!19sChIJO-yAiz263DsR-3go0YISnLA?authuser=0&hl=en&rclk=1,"19.1341903,74.7028009"
Ibrahim Masjid brhym msjd,Mosque,"3PMP+V87 Ibrahim Masjid brhym msjd, Bhavani Nagar, Ahmednagar, Maharashtra 414001",Bhavani Nagar,3PMP+V87,Ahmednagar,414001,Maharashtra,IN,https://www.google.com/maps/place/Ibrahim+Masjid+%D8%A7%D8%A8%D8%B1%D8%A7%D9%87%D9%8A%D9%85+%D9%85%D8%B3%D8%AC%D8%AF%E2%80%AD/data=!4m7!3m6!1s0x3bdcb05f32ea8955:0xc2c8a0b5474d0d4a!8m2!3d19.0846502!4d74.7358!16s%2Fg%2F11dzsx6kk4!19sChIJVYnqMl-w3DsRSg1NR7WgyMI?authuser=0&hl=en&rclk=1,"19.0846502,74.7358"
Roadgah Masjid,Mosque,"3PRP+MGR Roadgah Masjid, Juna Mangalwar Bazar, Nalegaon, Ahmednagar, Maharashtra 414001",Nalegaon,"3PRP+MGR, Juna Mangalwar Bazar",Ahmednagar,414001,Maharashtra,IN,https://www.google.com/maps/place/Roadgah+Masjid/data=!4m7!3m6!1s0x3bdcb06060f5ccbd:0xce46dbb89ff2aa3d!8m2!3d19.0917398!4d74.736281!16s%2Fg%2F1tgh1fjf!19sChIJvcz1YGCw3DsRParyn7jbRs4?authuser=0&hl=en&rclk=1,"19.0917398,74.73628099999999"
"Masjid,e Shahi",Mosque,"3RQC+H44 Masjid,e Shahi, Ahmednagar - Beed Rd, Shahapur, Nimbodi, Maharashtra 414002",,"3RQC+H44, Ahmednagar - Beed Rd","Shahapur, Nimbodi",414002,Maharashtra,IN,"https://www.google.com/maps/place/Masjid,e+Shahi/data=!4m7!3m6!1s0x3bdcafcfc7265585:0x56c92e0d5652b696!8m2!3d19.0888968!4d74.8203301!16s%2Fg%2F11j03rj852!19sChIJhVUmx8-v3DsRlrZSVg0uyVY?authuser=0&hl=en&rclk=1","19.0888968,74.82033009999999"
Bara Imam Masjid,Mosque,"4PCG+XJM Bara Imam Masjid, Unnamed Road, Savedi, Ahmednagar, Maharashtra 414003",Savedi,"4PCG+XJM, Unnamed Road",Ahmednagar,414003,Maharashtra,IN,https://www.google.com/maps/place/Bara+Imam+Masjid/data=!4m7!3m6!1s0x3bdcba7b6c8468e5:0x92271c234b4cce41!8m2!3d19.1224566!4d74.7265433!16s%2Fg%2F11f_z_8w7b!19sChIJ5WiEbHu63DsRQc5MSyMcJ5I?authuser=0&hl=en&rclk=1,"19.1224566,74.7265433"
Al Madina Sunni Masjid,Mosque,"4P9X+5P3 Al Madina Sunni Masjid, Sawli Housing Society, Anand Nagar East, Ahmednagar, Maharashtra 414003","Sawli Housing Society, Anand Nagar East",4P9X+5P3,Ahmednagar,414003,Maharashtra,IN,https://www.google.com/maps/place/Al+Madina+Sunni+Masjid/data=!4m7!3m6!1s0x3bdcba9c4c22dbe5:0xe5ab3a6fd812d8e9!8m2!3d19.1178848!4d74.7493117!16s%2Fg%2F11c51rxkmt!19sChIJ5dsiTJy63DsR6dgS2G86q-U?authuser=0&hl=en&rclk=1,"19.1178848,74.74931169999999"
Sunni Qureshi Masjid,Mosque,"3PVV+X6F Sunni Qureshi Masjid, Nalegaon, Ahmednagar, Maharashtra 414001",Nalegaon,3PVV+X6F,Ahmednagar,414001,Maharashtra,IN,https://www.google.com/maps/place/Sunni+Qureshi+Masjid/data=!4m7!3m6!1s0x3bdcb0665c819ec7:0x3e7f33d70414cb0c!8m2!3d19.0949451!4d74.7430473!16s%2Fg%2F11g9gst6nf!19sChIJx56BXGaw3DsRDMsUBNczfz4?authuser=0&hl=en&rclk=1,"19.0949451,74.7430473"
Chhoti Bee Masjid,Mosque,"3PWV+XC2 Chhoti Bee Masjid, Karshatji Rd, Nalegaon, Ahmednagar, Maharashtra 414001",Nalegaon,"3PWV+XC2, Karshatji Rd",Ahmednagar,414001,Maharashtra,IN,https://www.google.com/maps/place/Chhoti+Bee+Masjid/data=!4m7!3m6!1s0x3bdcb065c4b08521:0x89a167380d25651b!8m2!3d19.0973841!4d74.7435033!16s%2Fg%2F11cltnmnlc!19sChIJIYWwxGWw3DsRG2UlDThnoYk?authuser=0&hl=en&rclk=1,"19.0973841,74.7435033"
Nurani Masjid,Mosque,"4Q4F+FF6 Nurani Masjid, Nagardeole, Ahmednagar, Maharashtra 414002",Nagardeole,4Q4F+FF6,Ahmednagar,414002,Maharashtra,IN,https://www.google.com/maps/place/Nurani+Masjid/data=!4m7!3m6!1s0x3bdcb004beb822a7:0x25b4ade78c4e29f7!8m2!3d19.1061748!4d74.7736429!16s%2Fg%2F11gdt32_9q!19sChIJpyK4vgSw3DsR9ylOjOettCU?authuser=0&hl=en&rclk=1,"19.106174799999998,74.7736429"
Sadar Bazar Masjid,Mosque,"3QV8+HRP Sadar Bazar Masjid, Bhingar, Ahmednagar, Maharashtra 414002",Bhingar,3QV8+HRP,Ahmednagar,414002,Maharashtra,IN,https://www.google.com/maps/place/Sadar+Bazar+Masjid/data=!4m7!3m6!1s0x3bdcb017c3a2ea0d:0xcd0c515c5bab0b4b!8m2!3d19.0939737!4d74.7670879!16s%2Fg%2F11hcw5cs4v!19sChIJDeqiwxew3DsRSwurW1xRDM0?authuser=0&hl=en&rclk=1,"19.0939737,74.76708789999999"
Satranji Masjid,Mosque,"Satranji Masjid, Dharti chowk, Nalegaon, Ahmednagar, Maharashtra 414001",Nalegaon,Dharti chowk,Ahmednagar,414001,Maharashtra,IN,https://www.google.com/maps/place/Satranji+Masjid/data=!4m7!3m6!1s0x3bdcb066e38fbd6f:0x5d1d5d1e88a3f40d!8m2!3d19.0940431!4d74.7415543!16s%2Fg%2F1hc7jtxfz!19sChIJb72P42aw3DsRDfSjiB5dHV0?authuser=0&hl=en&rclk=1,"19.0940431,74.74155429999999"
Masjid A Firdos,Mosque,"3M6W+CF5 Masjid A Firdos, Shahunagar, Kedgaon, Ahmednagar, Maharashtra 414005","Shahunagar, Kedgaon",3M6W+CF5,Ahmednagar,414005,Maharashtra,IN,https://www.google.com/maps/place/Masjid+A+Firdos/data=!4m7!3m6!1s0x3bdcb12857d19a8b:0xd489ea3febdb25fb!8m2!3d19.0610075!4d74.6962471!16s%2Fg%2F11c7syxjnf!19sChIJi5rRVyix3DsR-yXb6z_qidQ?authuser=0&hl=en&rclk=1,"19.0610075,74.6962471"
Bakar Kasab Masjid,Mosque,"Bakar Kasab Masjid, 3828, Ghumare Lane, Nalegaon, Ahmednagar, Maharashtra 414001",Nalegaon,"3828, Ghumare Lane",Ahmednagar,414001,Maharashtra,IN,https://www.google.com/maps/place/Bakar+Kasab+Masjid/data=!4m7!3m6!1s0x3bdcb0604be9438f:0xf795b69d0b8f02f6!8m2!3d19.0928924!4d74.7352628!16s%2Fg%2F1tlbmm38!19sChIJj0PpS2Cw3DsR9gKPC522lfc?authuser=0&hl=en&rclk=1,"19.0928924,74.7352628"
Mohammadi Masjid,Mosque,"3PWQ+H42 Mohammadi Masjid, Tambatkar Lane, Near Shahji Road, Ahmednagar, Maharashtra 414001",Nalegaon,"3PWQ+H42, Tambatkar Lane, Near Shahji Road",Ahmednagar,414001,Maharashtra,IN,https://www.google.com/maps/place/Mohammadi+Masjid/data=!4m7!3m6!1s0x3bdcb063df360fb7:0x2cd53cf299065f64!8m2!3d19.0963909!4d74.7377556!16s%2Fg%2F11ggb9q32_!19sChIJtw8232Ow3DsRZF8GmfI81Sw?authuser=0&hl=en&rclk=1,"19.0963909,74.7377556"
Aamina Masjid bramhanagar alamgir,Mosque,"Survey No- 232, Aamina Masjid bramhanagar alamgir, Bramhanagar, Ratadgaon Rd, Amenanagar Colony, Bhingar, Ahmednagar, Maharashtra 414002","Amenanagar Colony, Bhingar","Survey No- 232, Bramhanagar, Ratadgaon Rd",Ahmednagar,414002,Maharashtra,IN,https://www.google.com/maps/place/Aamina+Masjid+bramhanagar+alamgir/data=!4m7!3m6!1s0x3bdcafe3a0e30d6d:0x1be39243afd54140!8m2!3d19.1029631!4d74.7845911!16s%2Fg%2F11c2l15wb3!19sChIJbQ3joOOv3DsRQEHVr0OS4xs?authuser=0&hl=en&rclk=1,"19.1029631,74.7845911"
ALAMGIR MADRASA MASJID DARULULUM ALAMGIR,Mosque,"4Q2J+W8J ALAMGIR MADRASA MASJID DARULULUM ALAMGIR, Bhingar, Ahmednagar, Maharashtra 414002",Bhingar,4Q2J+W8J,Ahmednagar,414002,Maharashtra,IN,https://www.google.com/maps/place/ALAMGIR+MADRASA+MASJID+DARULULUM+ALAMGIR/data=!4m7!3m6!1s0x3bdcb1a6efc2aa83:0xef2ce9f4c399f3b1!8m2!3d19.1025988!4d74.7803368!16s%2Fg%2F11p0w1z551!19sChIJg6rC76ax3DsRsfOZw_TpLO8?authuser=0&hl=en&rclk=1,"19.1025988,74.7803368"
Shahi Masjid,Mosque,"4PX6+MW2 Shahi Masjid, MIDC, Nagapur, Maharashtra 414111",MIDC,"4PX6+MW2, MIDC","Nagapur, Ahmednagar",414111,Maharashtra,IN,https://www.google.com/maps/place/Shahi+Masjid/data=!4m7!3m6!1s0x3bdcba49b3329ad5:0xaa95f9a226aa02c3!8m2!3d19.1491416!4d74.7122599!16s%2Fg%2F11gbxcrc2t!19sChIJ1Zoys0m63DsRwwKqJqL5lao?authuser=0&hl=en&rclk=1,"19.1491416,74.71225989999999"
Shahi Masjid,Mosque,"3PXM+J2C Shahi Masjid, Tarakpur, Ahmednagar, Maharashtra 414001",Tarakpur,3PXM+J2C,Ahmednagar,414001,Maharashtra,IN,https://www.google.com/maps/place/Shahi+Masjid/data=!4m7!3m6!1s0x3bdcb0883422b68f:0x57cea0eb5729343e!8m2!3d19.0990671!4d74.7325132!16s%2Fg%2F11gbzblswy!19sChIJj7YiNIiw3DsRPjQpV-ugzlc?authuser=0&hl=en&rclk=1,"19.0990671,74.7325132"
"Masjid,Bapu Fazal Shah",Mosque,"3PXV+Q3P Masjid,Bapu Fazal Shah, Mangal gate, Tarakpur, Ahmednagar, Maharashtra 414001",Tarakpur,"3PXV+Q3P, Mangal gate",Ahmednagar,414001,Maharashtra,IN,"https://www.google.com/maps/place/Masjid,Bapu+Fazal+Shah/data=!4m7!3m6!1s0x3bdcb065a8357765:0xf0147f09ef98820e!8m2!3d19.0994633!4d74.742709!16s%2Fg%2F11b783fh72!19sChIJZXc1qGWw3DsRDoKY7wl_FPA?authuser=0&hl=en&rclk=1","19.0994633,74.74270899999999"
Husayni Masjid Kothla,Mosque,"Husayni Masjid Kothla, Kothla Mosque, Tarakpur, Ahmednagar, Maharashtra 414001",Tarakpur,Kothla Mosque,Ahmednagar,414001,Maharashtra,IN,https://www.google.com/maps/place/Husayni+Masjid+Kothla/data=!4m7!3m6!1s0x3bdcb064e91507bb:0x9d81615e0a28bd5f!8m2!3d19.1006911!4d74.7414903!16s%2Fg%2F11fzf83dpt!19sChIJuwcV6WSw3DsRX70oCl5hgZ0?authuser=0&hl=en&rclk=1,"19.1006911,74.7414903"
Ghousia Masjid,Mosque,"4Q52+X3G Ghousia Masjid, Mukundnagar, Ahmednagar, Maharashtra 414001",Mukundnagar,4Q52+X3G,Ahmednagar,414001,Maharashtra,IN,https://www.google.com/maps/place/Ghousia+Masjid/data=!4m7!3m6!1s0x3bdcb076bbe5f2c1:0x20069c8f36cab570!8m2!3d19.1099476!4d74.7502091!16s%2Fg%2F11f00nrj6d!19sChIJwfLlu3aw3DsRcLXKNo-cBiA?authuser=0&hl=en&rclk=1,"19.109947599999998,74.75020909999999"
A C Depot Masjid,Mosque,"4P2V+4HH A C Depot Masjid, Mukundnagar, Ahmednagar, Maharashtra 414001",Mukundnagar,4P2V+4HH,Ahmednagar,414001,Maharashtra,IN,https://www.google.com/maps/place/A+C+Depot+Masjid/data=!4m7!3m6!1s0x3bdcb105a33b1cc1:0x9a0bd51055e2e8aa!8m2!3d19.1003153!4d74.7439826!16s%2Fg%2F11gxh9_drb!19sChIJwRw7owWx3DsRqujiVRDVC5o?authuser=0&hl=en&rclk=1,"19.1003153,74.7439826"
SAYYAD BURHAN DAKHNI Masjid syWd brhn dkhhny msjd,Mosque,"3PQP+G48 SAYYAD BURHAN DAKHNI Masjid syWd brhn dkhhny msjd, Maliwada, Ahmednagar, Maharashtra 414001",Maliwada,3PQP+G48,Ahmednagar,414001,Maharashtra,IN,https://www.google.com/maps/place/SAYYAD+BURHAN+DAKHNI+Masjid+%D8%B3%DB%8C%D9%91%D8%AF+%D8%A8%D8%B1%DB%81%D8%A7%D9%86+%D8%AF%DA%A9%DA%BE%D9%86%DB%8C+%D9%85%D8%B3%D8%AC%D8%AF%E2%80%AD/data=!4m7!3m6!1s0x3bdcb05fb8b178f1:0x7d57931bdd76f735!8m2!3d19.0887892!4d74.73533!16s%2Fg%2F12603k8wf!19sChIJ8XixuF-w3DsRNfd23RuTV30?authuser=0&hl=en&rclk=1,"19.0887892,74.73532999999999"
Madina Masjid,Mosque,"5P54+FCP Madina Masjid, Nav, Nagapur, Ahmednagar, Maharashtra 414111",Nav,5P54+FCP,"Nagapur, Ahmednagar",414111,Maharashtra,IN,https://www.google.com/maps/place/Madina+Masjid%F0%9F%8C%99/data=!4m7!3m6!1s0x3bdcbb664d893bdb:0x52b89daee5544244!8m2!3d19.1587158!4d74.7060708!16s%2Fg%2F11ghqbsnyf!19sChIJ2zuJTWa73DsRREJU5a6duFI?authuser=0&hl=en&rclk=1,"19.1587158,74.70607079999999"
Fakirwada Masjid,Mosque,"4P5W+HW4 Fakirwada Masjid, Rahemaniya Colony, Mukundnagar, Ahmednagar, Maharashtra 414001","Rahemaniya Colony, Mukundnagar",4P5W+HW4,Ahmednagar,414001,Maharashtra,IN,https://www.google.com/maps/place/Fakirwada+Masjid/data=!4m7!3m6!1s0x3bdcb15cd0823b5f:0xf4f56440ea4e9411!8m2!3d19.1088876!4d74.7473428!16s%2Fg%2F11gjtyg5v9!19sChIJXzuC0Fyx3DsREZRO6kBk9fQ?authuser=0&hl=en&rclk=1,"19.1088876,74.7473428"
Mohammedi Masjid (Shia Dawoodi Bohra Masjid),Mosque,"3PVQ+VQ9 Mohammedi Masjid (Shia Dawoodi Bohra Masjid), Juna Kapad Bazaar Rd, near Balaji Guest House, Nalegaon, Ahmednagar, Maharashtra 414001",Nalegaon,"3PVQ+VQ9, Juna Kapad Bazaar Rd, near Balaji Guest House",Ahmednagar,414001,Maharashtra,IN,https://www.google.com/maps/place/Mohammedi+Masjid+%28Shia+Dawoodi+Bohra+Masjid%29/data=!4m7!3m6!1s0x3bdcb0613323172b:0xeb9e7ddde313de7e!8m2!3d19.0946531!4d74.7394732!16s%2Fg%2F11hbplhxsr!19sChIJKxcjM2Gw3DsRft4T4919nus?authuser=0&hl=en&rclk=1,"19.0946531,74.73947319999999"
Kamani Masjid,Mosque,"3PVQ+67J Kamani Masjid, Nalegaon, Ahmednagar, Maharashtra 414001",Nalegaon,3PVQ+67J,Ahmednagar,414001,Maharashtra,IN,https://www.google.com/maps/place/Kamani+Masjid/data=!4m7!3m6!1s0x3bdcb060de0613f5:0xe815d492843de9ba!8m2!3d19.0930917!4d74.7381372!16s%2Fg%2F11c0rq8xzf!19sChIJ9RMG3mCw3DsRuuk9hJLUFeg?authuser=0&hl=en&rclk=1,"19.0930917,74.7381372"
Qasim Khani Masjid qsm khhny msjd,Mosque,"3PVV+FF2 Qasim Khani Masjid qsm khhny msjd, College Area, Ahmednagar, Maharashtra 414001",College Area,3PVV+FF2,Ahmednagar,,Maharashtra,IN,https://www.google.com/maps/place/Qasim+Khani+Masjid+%D9%82%D8%A7%D8%B3%D9%85+%DA%A9%DB%81%D8%A7%D9%86%DB%8C+%D9%85%D8%B3%D8%AC%D8%AF%E2%80%AD/data=!4m7!3m6!1s0x3bdcb067b46c82db:0x7917fbe56d135216!8m2!3d19.0936373!4d74.7436504!16s%2Fg%2F11ckr7j1lw!19sChIJ24JstGew3DsRFlITbeX7F3k?authuser=0&hl=en&rclk=1,"19.093637299999997,74.74365039999999"
Haqqui Shah Masjid,Mosque,"3PRQ+MG4 Haqqui Shah Masjid, Maliwada, Ahmednagar, Maharashtra 414001",Maliwada,3PRQ+MG4,Ahmednagar,414001,Maharashtra,IN,https://www.google.com/maps/place/Haqqui+Shah+Masjid/data=!4m7!3m6!1s0x3bdcb060b0a6777b:0xb4e5207861d77bdc!8m2!3d19.0916255!4d74.7388195!16s%2Fg%2F11hd9_c2_n!19sChIJe3emsGCw3DsR3HvXYXgg5bQ?authuser=0&hl=en&rclk=1,"19.0916255,74.73881949999999"
Ritha Masjid,Mosque,"3PWR+7J6 Ritha Masjid, pinjar galli peerahah khunt, Ahmednagar",Nalegaon,"3PWR+7J6, pinjar galli peerahah khunt",Ahmednagar,,Maharashtra,IN,https://www.google.com/maps/place/Ritha+Masjid/data=!4m7!3m6!1s0x3bdcb06691a85d2d:0x66ecce19cfa28aff!8m2!3d19.0956656!4d74.7415056!16s%2Fg%2F11c1tfhtf0!19sChIJLV2okWaw3DsR_4qizxnO7GY?authuser=0&hl=en&rclk=1,"19.0956656,74.7415056"
Tomb Of Rumikhan Dakkhani,Mosque,"4P2R+QV4 Tomb Of Rumikhan Dakkhani, Tarakpur, Ahmednagar, Maharashtra 414001",Tarakpur,4P2R+QV4,Ahmednagar,414001,Maharashtra,IN,https://www.google.com/maps/place/Tomb+Of+Rumikhan+Dakkhani/data=!4m7!3m6!1s0x3bdcb196e4b5d923:0xd6fad04ffc219617!8m2!3d19.1018923!4d74.7422022!16s%2Fg%2F11fmzb_zjy!19sChIJI9m15Jax3DsRF5Yh_E_Q-tY?authuser=0&hl=en&rclk=1,"19.1018923,74.7422022"
Ashrafi Masjid shrfy msjd,Mosque,"Ashrafi Masjid shrfy msjd, Gaibi Peer Maidan, Zendigate, Nalegaon, Ahmednagar, Maharashtra 414001",Nalegaon,"Gaibi Peer Maidan, Zendigate",Ahmednagar,414001,Maharashtra,IN,https://www.google.com/maps/place/Ashrafi+Masjid+%D8%A7%D8%B4%D8%B1%D9%81%DB%8C+%D9%85%D8%B3%D8%AC%D8%AF%E2%80%AD/data=!4m7!3m6!1s0x3bdcb1ed250ddc8d:0x1c35954fc4be82b3!8m2!3d19.0968956!4d74.745065!16s%2Fg%2F11fjw_3tkl!19sChIJjdwNJe2x3DsRs4K-xE-VNRw?authuser=0&hl=en&rclk=1,"19.0968956,74.745065"
Sunni Masjid,Mosque,"4Q89+C72 Sunni Masjid, Burhan Nagar, Ahmednagar, Maharashtra 414002",Burhan Nagar,4Q89+C72,Ahmednagar,414002,Maharashtra,IN,https://www.google.com/maps/place/Sunni+Masjid/data=!4m7!3m6!1s0x3bdcb0080327acf7:0x35dcdcba8350b7b0!8m2!3d19.1160192!4d74.7681428!16s%2Fg%2F11hb2ysnm1!19sChIJ96wnAwiw3DsRsLdQg7rc3DU?authuser=0&hl=en&rclk=1,"19.1160192,74.76814279999999"
"Khan jama khan jama , maliwada, masjid",Mosque,"3PRP+46X Khan jama khan jama , maliwada, masjid, Maliwada, Ahmednagar, Maharashtra 414001",Maliwada,3PRP+46X,Ahmednagar,414001,Maharashtra,IN,"https://www.google.com/maps/place/Khan+jama+khan+jama+,+maliwada,+masjid/data=!4m7!3m6!1s0x3bdcb164e0abd22d:0x2229c5e0a39773f!8m2!3d19.090373!4d74.7356062!16s%2Fg%2F11q22sc585!19sChIJLdKr4GSx3DsRP3c5Cl6cIgI?authuser=0&hl=en&rclk=1","19.090373,74.73560619999999"
KK Masjid,Mosque,"3QQ7+VC KK Masjid, Armoured Corps Center, Ahmednagar, Maharashtra 414002",Armoured Corps Center,3QQ7+VC,Ahmednagar,,Maharashtra,IN,https://www.google.com/maps/place/KK+Masjid/data=!4m7!3m6!1s0x3bdcb106f8f6bc8b:0x37ef0e73d9546ad0!8m2!3d19.0897235!4d74.7635692!16s%2Fg%2F11kbj0p6j7!19sChIJi7z2-Aax3DsR0GpU2XMO7zc?authuser=0&hl=en&rclk=1,"19.089723499999998,74.76356919999999"
Al kabir Maqthab Masjid,Religious destination,"Al kabir Maqthab Masjid, Krishna Enclave, RTO Office Rd, Tarakpur, Ahmednagar, Maharashtra 414001",Tarakpur,"Krishna Enclave, RTO Office Rd",Ahmednagar,414001,Maharashtra,IN,https://www.google.com/maps/place/Al+kabir+Maqthab+Masjid/data=!4m7!3m6!1s0x3bdcb1579b33c717:0xd48480f1a3c5834a!8m2!3d19.1034638!4d74.7437207!16s%2Fg%2F11gns8cmxr!19sChIJF8czm1ex3DsRSoPFo_GAhNQ?authuser=0&hl=en&rclk=1,"19.1034638,74.7437207"
Akbar Nagar Masjid,Mosque,"4QJ5+Q2X Akbar Nagar Masjid, Akbar Nagar,Aurangabad Highway, MH SH 60, Ahmednagar, Maharashtra 414001",Surya Nagar,"4QJ5+Q2X, Akbar Nagar,Aurangabad Highway, MH SH 60",Ahmednagar,414001,Maharashtra,IN,https://www.google.com/maps/place/Akbar+Nagar+Masjid/data=!4m7!3m6!1s0x3bdcbb09e9f07dbf:0x35e1ce3aaf78b461!8m2!3d19.1319827!4d74.7576147!16s%2Fg%2F11qpm4rbxm!19sChIJv33w6Qm73DsRYbR4rzrO4TU?authuser=0&hl=en&rclk=1,"19.1319827,74.75761469999999"
maulaa alii svaarii(haidr aakhaaddaa),Mosque,"3PH9+3MX maulaa alii svaarii(haidr aakhaaddaa), Unnamed Road, Kedgaon, Ahmednagar, Maharashtra 414005",Kedgaon,"3PH9+3MX, Unnamed Road",Ahmednagar,414005,Maharashtra,IN,https://www.google.com/maps/place/%E0%A4%AE%E0%A5%8C%E0%A4%B2%E0%A4%BE+%E0%A4%85%E0%A4%B2%E0%A5%80+%E0%A4%B8%E0%A4%B5%E0%A4%BE%E0%A4%B0%E0%A5%80%28%E0%A4%B9%E0%A5%88%E0%A4%A6%E0%A4%B0+%E0%A4%86%E0%A4%96%E0%A4%BE%E0%A4%A1%E0%A4%BE%29/data=!4m7!3m6!1s0x3bdcb11127178887:0x4532149e648a7f!8m2!3d19.0777362!4d74.7192197!16s%2Fg%2F11nxp0kpms!19sChIJh4gXJxGx3DsRf4pknhQyRQA?authuser=0&hl=en&rclk=1,"19.0777362,74.7192197"
Kaanch ki Masjid,Mosque,"3PXR+3JQ Kaanch ki Masjid, Mangal gate, Sarjepura city, Ahmednagar, Maharashtra 414001",Sarjepura city,"3PXR+3JQ, Mangal gate",Ahmednagar,414001,Maharashtra,IN,https://www.google.com/maps/place/Kaanch+ki+Masjid/data=!4m7!3m6!1s0x3bdcb1300bf3201b:0x4b9e5ccae64a02e1!8m2!3d19.0977106!4d74.7416082!16s%2Fg%2F11h3gks73v!19sChIJGyDzCzCx3DsR4QJK5spcnks?authuser=0&hl=en&rclk=1,"19.0977106,74.7416082"
Kagazkute masjid,Mosque,"3PWM+JWV Kagazkute masjid, Chitale Rd, Sarjepura city, Ahmednagar, Maharashtra 414001",Sarjepura city,"3PWM+JWV, Chitale Rd",Ahmednagar,414001,Maharashtra,IN,https://www.google.com/maps/place/Kagazkute+masjid/data=!4m7!3m6!1s0x3bdcb119e40182bb:0xfd0515562b652412!8m2!3d19.0966051!4d74.7347918!16s%2Fg%2F11rsdqfd4k!19sChIJu4IB5Bmx3DsREiRlK1YVBf0?authuser=0&hl=en&rclk=1,"19.096605099999998,74.7347918"
Amena masjid,Mosque,"Amena masjid, Amenanagar Colony, Bhingar, Ahmednagar, Maharashtra 414002","Amenanagar Colony, Bhingar",,Ahmednagar,,Maharashtra,IN,https://www.google.com/maps/place/Amena+masjid/data=!4m7!3m6!1s0x3bdcaf65bc14d415:0xa169f97f6c28334c!8m2!3d19.1029902!4d74.7845903!16s%2Fg%2F11v15zyf_4!19sChIJFdQUvGWv3DsRTDMobH_5aaE?authuser=0&hl=en&rclk=1,"19.1029902,74.78459029999999"
Nalband Masjid,Mosque,"Nalband Masjid, 2056, Near Bhandari Store, Nalbandkhunt, Maharashtra",Nalegaon,"2056, Near Bhandari Store, Nalbandkhunt",Ahmednagar,,Maharashtra,IN,https://www.google.com/maps/place/Nalband+Masjid/data=!4m7!3m6!1s0x3bdcb19e4438fa07:0x29bce85cce5c138!8m2!3d19.0947755!4d74.7426047!16s%2Fg%2F11h32yjfbj!19sChIJB_o4RJ6x3DsROMHlzIXOmwI?authuser=0&hl=en&rclk=1,"19.0947755,74.7426047"
KAVIJUNAGAR MASJID,Mosque,"KAVIJUNAGAR MASJID, Kavijung nagar masjid here, kalmarkar hospital, Gulmohar Rd, Sawli Housing Society, Savedi, Ahmednagar, Maharashtra 414003","Sawli Housing Society, Savedi","Kavijung nagar masjid here, kalmarkar hospital, Gulmohar Rd",Ahmednagar,414003,Maharashtra,IN,https://www.google.com/maps/place/KAVIJUNAGAR+MASJID/data=!4m7!3m6!1s0x3bdcb13dfc71fb1b:0x5bba2e8fca78dedb!8m2!3d19.1172823!4d74.7496762!16s%2Fg%2F11q9_2vf3f!19sChIJG_tx_D2x3DsR2954yo8uuls?authuser=0&hl=en&rclk=1,"19.1172823,74.7496762"
syyd burrhaan dkhnii,Mosque,"syyd burrhaan dkhnii, 4, Maliwada, Ahmednagar, Maharashtra 414001",Maliwada,4,Ahmednagar,414001,Maharashtra,IN,https://www.google.com/maps/place/%E0%A4%B8%E0%A4%AF%E0%A5%8D%E0%A4%AF%E0%A4%A6+%E0%A4%AC%E0%A5%81%E0%A4%B1%E0%A5%8D%E0%A4%B9%E0%A4%BE%E0%A4%A8+%E0%A4%A6%E0%A4%96%E0%A4%A8%E0%A5%80/data=!4m7!3m6!1s0x3bdcb1dcded36a63:0xeeebfd277cdc786f!8m2!3d19.0889406!4d74.7356537!16s%2Fg%2F11j98bmzmv!19sChIJY2rT3tyx3DsRb3jcfCf96-4?authuser=0&hl=en&rclk=1,"19.0889406,74.7356537"
Chand Tara Masjid,Mosque,"3P4Q+9CP Chand Tara Masjid, Burudgaon, Ahmednagar, Maharashtra 414006",Burudgaon,3P4Q+9CP,Ahmednagar,414006,Maharashtra,IN,https://www.google.com/maps/place/Chand+Tara+Masjid/data=!4m7!3m6!1s0x3bdcb10ee953b099:0xc36a0dcce58bf6a5!8m2!3d19.0557996!4d74.7385707!16s%2Fg%2F11ssfdpdj4!19sChIJmbBT6Q6x3DsRpfaL5cwNasM?authuser=0&hl=en&rclk=1,"19.0557996,74.7385707"
Pir Baba Darga,Mosque,"3P5H+7Q6 Pir Baba Darga, Meherabad, Ahmednagar, Maharashtra 414006",Meherabad,3P5H+7Q6,Ahmednagar,414006,Maharashtra,IN,https://www.google.com/maps/place/Pir+Baba+Darga/data=!4m7!3m6!1s0x3bdcb1322a650b81:0x3068dff8c96f9370!8m2!3d19.058085!4d74.728687!16s%2Fg%2F11rwkx_ng6!19sChIJgQtlKjKx3DsRcJNvyfjfaDA?authuser=0&hl=en&rclk=1,"19.058085,74.728687"
Taheri Masjid (Shia Dawoodi Bohra Masjid),Mosque,"3PWQ+6GJ Taheri Masjid (Shia Dawoodi Bohra Masjid), Nalegaon, Ahmednagar, Maharashtra 414001",Nalegaon,3PWQ+6GJ,Ahmednagar,414001,Maharashtra,IN,https://www.google.com/maps/place/Taheri+Masjid+%28Shia+Dawoodi+Bohra+Masjid%29/data=!4m7!3m6!1s0x3bdcb100415c127b:0x7c24b3d33ef906a4!8m2!3d19.0955925!4d74.7387547!16s%2Fg%2F11j235t01n!19sChIJexJcQQCx3DsRpAb5PtOzJHw?authuser=0&hl=en&rclk=1,"19.0955925,74.7387547"
Tayabi Masjid,Mosque,"3QV8+QQW Tayabi Masjid, Bhingar, Ahmednagar, Maharashtra 414002",Bhingar,3QV8+QQW,Ahmednagar,414002,Maharashtra,IN,https://www.google.com/maps/place/Tayabi+Masjid/data=!4m7!3m6!1s0x3bdcb1b5ac6e765f:0x9b91b6724756f738!8m2!3d19.0944934!4d74.7669431!16s%2Fg%2F11nygvbj2f!19sChIJX3ZurLWx3DsROPdWR3K2kZs?authuser=0&hl=en&rclk=1,"19.094493399999998,74.76694309999999"
Nayimiya Masjid Trust,Mosque,"3PRM+GRG Nayimiya Masjid Trust, Maliwada, Ahmednagar, Maharashtra 414001",Maliwada,3PRM+GRG,Ahmednagar,414001,Maharashtra,IN,https://www.google.com/maps/place/Nayimiya+Masjid+Trust/data=!4m7!3m6!1s0x3bdcb0601724c2a1:0x4ac25839322458b5!8m2!3d19.0913094!4d74.7345773!16s%2Fg%2F11f15jhh69!19sChIJocIkF2Cw3DsRtVgkMjlYwko?authuser=0&hl=en&rclk=1,"19.0913094,74.7345773"
Jama masjid wadgaon gupta,Mosque,"5P8C+X2 Jama masjid wadgaon gupta, Ahmednagar, Maharashtra 414111",,5P8C+X2,Ahmednagar,,Maharashtra,IN,https://www.google.com/maps/place/Jama+masjid+wadgaon+gupta/data=!4m7!3m6!1s0x3bdcbb2f32b3b723:0x83b7bf2e01f3ce6f!8m2!3d19.1674276!4d74.7201174!16s%2Fg%2F11kj971498!19sChIJI7ezMi-73DsRb87zAS6_t4M?authuser=0&hl=en&rclk=1,"19.1674276,74.72011739999999"
Sunheri Masjid,Mosque,"3PWQ+R2W Sunheri Masjid, Chitale Rd, Sarjepura city, Ahmednagar, Maharashtra 414001",Sarjepura city,"3PWQ+R2W, Chitale Rd",Ahmednagar,414001,Maharashtra,IN,https://www.google.com/maps/place/Sunheri+Masjid/data=!4m7!3m6!1s0x3bdcb063c4e43d69:0x3c053e894f55b837!8m2!3d19.0971218!4d74.7375762!16s%2Fg%2F11cltp2f7l!19sChIJaT3kxGOw3DsRN7hVT4k-BTw?authuser=0&hl=en&rclk=1,"19.0971218,74.73757619999999"
hjrt plNg piir shaah vllii,Mosque,"4P9H+RCQ hjrt plNg piir shaah vllii, Savedi, Ahmednagar, Maharashtra 414003",Savedi,4P9H+RCQ,Ahmednagar,414003,Maharashtra,IN,https://www.google.com/maps/place/%E0%A4%B9%E0%A4%9C%E0%A4%B0%E0%A4%A4+%E0%A4%AA%E0%A4%B2%E0%A4%82%E0%A4%97+%E0%A4%AA%E0%A5%80%E0%A4%B0+%E0%A4%B6%E0%A4%BE%E0%A4%B9+%E0%A4%B5%E0%A4%B2%E0%A5%8D%E0%A4%B2%E0%A5%80/data=!4m7!3m6!1s0x3bdcbbacffd423a1:0x51c0bc0ab35738c3!8m2!3d19.1195995!4d74.7285991!16s%2Fg%2F11pxl7p6xl!19sChIJoSPU_6y73DsRwzhXswq8wFE?authuser=0&hl=en&rclk=1,"19.1195995,74.7285991"
Afroz Ali,Mosque,"Afroz Ali, Shamsher Bazar Masjid, Koallaru camp, Sarjepura city, Ahmednagar, Maharashtra 414001",Sarjepura city,"Shamsher Bazar Masjid, Koallaru camp",Ahmednagar,414001,Maharashtra,IN,https://www.google.com/maps/place/Afroz+Ali/data=!4m7!3m6!1s0x3bdcb1ab3cfce0c1:0x86fbef2e4d191a5a!8m2!3d19.0999027!4d74.7393169!16s%2Fg%2F11nh0sdtdh!19sChIJweD8PKux3DsRWhoZTS7v-4Y?authuser=0&hl=en&rclk=1,"19.099902699999998,74.73931689999999"
Hazrat Alishah Murtaza Rh.,Mosque,"Hazrat Alishah Murtaza Rh., Yash Palace, Kothi Road, 3PJM+9JP, Suyoy Apartment, Chanakya Chowk, Maniknagar, Ahmednagar, Maharashtra 414001",Maniknagar,"Yash Palace, Kothi Road, 3PJM+9JP, Suyoy Apartment, Chanakya Chowk",Ahmednagar,414001,Maharashtra,IN,https://www.google.com/maps/place/Hazrat+Alishah+Murtaza+Rh./data=!4m7!3m6!1s0x3bdcb1fa97189cd3:0x47b7020412d4edae!8m2!3d19.0804097!4d74.7341065!16s%2Fg%2F11s1rx82_h!19sChIJ05wYl_qx3DsRru3UEgQCt0c?authuser=0&hl=en&rclk=1,"19.0804097,74.7341065"
Mirawali Masjid Ahmednagar,Mosque,"4QXP+HWW Mirawali Masjid Ahmednagar, Ahmednagar, Maharashtra 414601",,4QXP+HWW,Ahmednagar,,Maharashtra,IN,https://www.google.com/maps/place/Mirawali+Masjid+Ahmednagar/data=!4m7!3m6!1s0x3bdca5cb776a69b3:0xa2564d2748845eac!8m2!3d19.1489781!4d74.7873242!16s%2Fg%2F11k4m4g2m6!19sChIJs2lqd8ul3DsRrF6ESCdNVqI?authuser=0&hl=en&rclk=1,"19.1489781,74.7873242"
Husaini Baba Dargah,Mosque,"4P3Q+8Q8 Husaini Baba Dargah, Sarjepura Rd, Karachiwala Nagar, Sarjepura city, Ahmednagar, Maharashtra 414001","Karachiwala Nagar, Sarjepura city","4P3Q+8Q8, Sarjepura Rd",Ahmednagar,414001,Maharashtra,IN,https://www.google.com/maps/place/Husaini+Baba+Dargah/data=!4m7!3m6!1s0x3bdcb1ca93be2b5d:0x607b4dc04d63f1ed!8m2!3d19.1037008!4d74.7390598!16s%2Fg%2F11v03wk1p5!19sChIJXSu-k8qx3DsR7fFjTcBNe2A?authuser=0&hl=en&rclk=1,"19.1037008,74.73905979999999"
Ghulam Ali Masjid,Historical landmark,"3PWP+26H Ghulam Ali Masjid, Nalegaon, Ahmednagar, Maharashtra 414001",Nalegaon,3PWP+26H,Ahmednagar,414001,Maharashtra,IN,https://www.google.com/maps/place/Ghulam+Ali+Masjid/data=!4m7!3m6!1s0x3bdcb0619149642b:0xf6b2393addd5ebb5!8m2!3d19.0950556!4d74.7356115!16s%2Fg%2F11ggw81jpg!19sChIJK2RJkWGw3DsRtevV3To5svY?authuser=0&hl=en&rclk=1,"19.0950556,74.73561149999999"
Do Boti Chira Masjid,Mosque,"3PVM+599 Do Boti Chira Masjid, Nalegaon, Ahmednagar, Maharashtra 414001",Nalegaon,3PVM+599,Ahmednagar,414001,Maharashtra,IN,https://www.google.com/maps/place/Do+Boti+Chira+Masjid/data=!4m7!3m6!1s0x3bdcb08a80f00001:0xe4aa359ece6db5f0!8m2!3d19.0929064!4d74.7334783!16s%2Fg%2F11kj3f8xgs!19sChIJAQDwgIqw3DsR8LVtzp41quQ?authuser=0&hl=en&rclk=1,"19.0929064,74.7334783"
Aqsa Masjid (Rajnagar),Mosque,"4Q54+4WP Aqsa Masjid (Rajnagar), Mukundnagar, Darga Daira, Maharashtra 414001",Mukundnagar,4Q54+4WP,Darga Daira,414001,Maharashtra,IN,https://www.google.com/maps/place/Aqsa+Masjid+%28Rajnagar%29/data=!4m7!3m6!1s0x3bdcb1197e6487b7:0xe498081a924b572a!8m2!3d19.1079546!4d74.7574492!16s%2Fg%2F11sj9smmqj!19sChIJt4dkfhmx3DsRKldLkhoImOQ?authuser=0&hl=en&rclk=1,"19.1079546,74.7574492"
Maktab e Haneefa(Musalla Masjid),Mosque,"4P4X+JRP Maktab e Haneefa(Musalla Masjid), Govindpura, Mukundnagar, Ahmednagar, Maharashtra 414001","Govindpura, Mukundnagar",4P4X+JRP,Ahmednagar,414001,Maharashtra,IN,https://www.google.com/maps/place/Maktab+e+Haneefa%28Musalla+Masjid%29/data=!4m7!3m6!1s0x3bdcb1081608d5e9:0xda1575b36ea37614!8m2!3d19.1066634!4d74.749633!16s%2Fg%2F11pzx8jj_z!19sChIJ6dUIFgix3DsRFHajbrN1Fdo?authuser=0&hl=en&rclk=1,"19.1066634,74.749633"
msjid e mustphaa,Mosque,"msjid e mustphaa, Darbar chowk, Mukundnagar, Ahmednagar, Darga Daira, Maharashtra 414001",Mukundnagar,Darbar chowk,"Ahmednagar, Darga Daira",414001,Maharashtra,IN,https://www.google.com/maps/place/%E0%A4%AE%E0%A4%B8%E0%A5%8D%E0%A4%9C%E0%A4%BF%E0%A4%A6+%E0%A4%8F+%E0%A4%AE%E0%A5%81%E0%A4%B8%E0%A5%8D%E0%A4%A4%E0%A4%AB%E0%A4%BE/data=!4m7!3m6!1s0x3bdcb13332358b87:0x765d209d1332a0bf!8m2!3d19.110226!4d74.7545829!16s%2Fg%2F11sbrmy31s!19sChIJh4s1MjOx3DsRv6AyE50gXXY?authuser=0&hl=en&rclk=1,"19.110226,74.7545829"
Kasimkhani masjid,Mosque,"3PRQ+P3W Kasimkhani masjid, Juna Mangalwar Bazar, Maliwada, Ahmednagar, Maharashtra 414001",Maliwada,"3PRQ+P3W, Juna Mangalwar Bazar",Ahmednagar,414001,Maharashtra,IN,https://www.google.com/maps/place/Kasimkhani+masjid/data=!4m7!3m6!1s0x3bdcb14e22f22f85:0x9e4d3c9f68734508!8m2!3d19.0918635!4d74.7376927!16s%2Fg%2F11jt4f_kw1!19sChIJhS_yIk6x3DsRCEVzaJ88TZ4?authuser=0&hl=en&rclk=1,"19.0918635,74.7376927"
Ek Khamb Masjid,Mosque,"Ek Khamb Masjid, 2317, Near Rasrang Misal Tapidas Galli, Adat, Juna Mangalwar Bazar, Nalegaon, Ahmednagar, Maharashtra 414001",Nalegaon,"2317, Near Rasrang Misal Tapidas Galli, Adat, Juna Mangalwar Bazar",Ahmednagar,414001,Maharashtra,IN,https://www.google.com/maps/place/Ek+Khamb+Masjid/data=!4m7!3m6!1s0x3bdcb137f2512b57:0x8bab67ff21a27a3!8m2!3d19.0966366!4d74.7408052!16s%2Fg%2F11rvb56x9q!19sChIJVytR8jex3DsRoyca8n-2ugg?authuser=0&hl=en&rclk=1,"19.0966366,74.7408052"
Sayidu Karanja Masjid,Mosque,"3PWV+GP9 Sayidu Karanja Masjid, Unnamed Road, Nalegaon, Ahmednagar, Maharashtra 414001",Nalegaon,"3PWV+GP9, Unnamed Road",Ahmednagar,414001,Maharashtra,IN,https://www.google.com/maps/place/Sayidu+Karanja+Masjid/data=!4m7!3m6!1s0x3bdcb1d3a81c5d79:0xb9e282441825906!8m2!3d19.0962781!4d74.7443615!16s%2Fg%2F11h1lsyl3l!19sChIJeV0cqNOx3DsRBlmCQSQongs?authuser=0&hl=en&rclk=1,"19.0962781,74.7443615"
Mehboob E Subhani Masjid,Mosque,"4Q64+2PC Mehboob E Subhani Masjid, CIV Housing Society, Mukundnagar, Ahmednagar, Darga Daira, Maharashtra 414001","CIV Housing Society, Mukundnagar",4Q64+2PC,"Ahmednagar, Darga Daira",414001,Maharashtra,IN,https://www.google.com/maps/place/Mehboob+E+Subhani+Masjid/data=!4m7!3m6!1s0x3bdcb13eb7b3e4d9:0x9f367231eae51b7f!8m2!3d19.1100642!4d74.7567515!16s%2Fg%2F11jg6nj238!19sChIJ2eSztz6x3DsRfxvl6jFyNp8?authuser=0&hl=en&rclk=1,"19.1100642,74.7567515"
Tahera Bano masjid,Mosque,"Shop No 1, Tahera Bano masjid, Darbar Chowk, Nasheman colony, Mukundnagar, Ahmednagar, Darga Daira, Maharashtra 414001","Nasheman colony, Mukundnagar","Shop No 1, Darbar Chowk","Ahmednagar, Darga Daira",414001,Maharashtra,IN,https://www.google.com/maps/place/Tahera+Bano+masjid/data=!4m7!3m6!1s0x3bdcb166fc4de9bb:0x2debdd33bf1d60df!8m2!3d19.1108422!4d74.7547981!16s%2Fg%2F11kqtkv8hf!19sChIJu-lN_Gax3DsR32AdvzPd6y0?authuser=0&hl=en&rclk=1,"19.1108422,74.7547981"
HAJRAT IMAM HASAN KABRASTAN MASJID,Mosque,"4PR8+V89 HAJRAT IMAM HASAN KABRASTAN MASJID, MIDC, Nagapur, Ahmednagar, Maharashtra 414111",MIDC,4PR8+V89,"Nagapur, Ahmednagar",414111,Maharashtra,IN,https://www.google.com/maps/place/HAJRAT+IMAM+HASAN+KABRASTAN+MASJID/data=!4m7!3m6!1s0x3bdcbb716b1ca379:0x6b249776bcf46b5b!8m2!3d19.1421677!4d74.7158723!16s%2Fg%2F11j5btfqvt!19sChIJeaMca3G73DsRW2v0vHaXJGs?authuser=0&hl=en&rclk=1,"19.142167699999998,74.7158723"
rahemaniya mashjid,Mosque,"3M9X+3X4 rahemaniya mashjid, Kedgaon, Ahmednagar, Maharashtra 414005",Kedgaon,3M9X+3X4,Ahmednagar,414005,Maharashtra,IN,https://www.google.com/maps/place/rahemaniya+mashjid/data=!4m7!3m6!1s0x3bdcb1052b7edde1:0xd1cd89a0fc4d7b75!8m2!3d19.0676411!4d74.6999593!16s%2Fg%2F11r_g405hv!19sChIJ4d1-KwWx3DsRdXtN_KCJzdE?authuser=0&hl=en&rclk=1,"19.0676411,74.6999593"
Irrigation masjid,Place of worship,"Irrigation masjid, Irrigation Rest house, Sawli Housing Society, Anand Nagar East, Ahmednagar, Maharashtra 414003","Sawli Housing Society, Anand Nagar East",Irrigation Rest house,Ahmednagar,,Maharashtra,IN,https://www.google.com/maps/place/Irrigation+masjid/data=!4m7!3m6!1s0x3bdcbb6f64c97f43:0xd221725e28dc824d!8m2!3d19.1168895!4d74.7481668!16s%2Fg%2F11h565hrkk!19sChIJQ3_JZG-73DsRTYLcKF5yIdI?authuser=0&hl=en&rclk=1,"19.1168895,74.74816679999999"
Madina Masjid,Charity,"Madina Masjid, Shop No 1 Gandhinagar Road Sarkar Chowk Gandhinagar, Bolhegaon Suburban, Ahmednagar, Maharashtra 414111",Bolhegaon Suburban,Shop No 1 Gandhinagar Road Sarkar Chowk Gandhinagar,Ahmednagar,414111,Maharashtra,IN,https://www.google.com/maps/place/Madina+Masjid/data=!4m7!3m6!1s0x3bdcbb81d9b65b55:0x524fe94999d44db5!8m2!3d19.1355228!4d74.7031622!16s%2Fg%2F11k4vdj4l4!19sChIJVVu22YG73DsRtU3UmUnpT1I?authuser=0&hl=en&rclk=1,"19.1355228,74.7031622"
Ahmednagar Eidgah,Mosque,"3PXV+7RW Ahmednagar Eidgah, SH60, Nalegaon, Ahmednagar, Maharashtra 414001",Nalegaon,"3PXV+7RW, SH60",Ahmednagar,414001,Maharashtra,IN,https://www.google.com/maps/place/Ahmednagar+Eidgah/data=!4m7!3m6!1s0x3bdcb065ed155555:0xf43a4daeb8dc6d91!8m2!3d19.09823!4d74.7445882!16s%2Fg%2F11txmz6j6w!19sChIJVVUV7WWw3DsRkW3cuK5NOvQ?authuser=0&hl=en&rclk=1,"19.098229999999997,74.7445882"
Dargha Kasham Shah,Mosque,"3PVP+6HW Dargha Kasham Shah, Nalegaon, Ahmednagar, Maharashtra 414001",Nalegaon,3PVP+6HW,Ahmednagar,414001,Maharashtra,IN,https://www.google.com/maps/place/Dargha+Kasham+Shah/data=!4m7!3m6!1s0x3bdcb13988995e2d:0x7a120e5da0e6eeb7!8m2!3d19.0931136!4d74.736449!16s%2Fg%2F11g57cdqkw!19sChIJLV6ZiDmx3DsRt-7moF0OEno?authuser=0&hl=en&rclk=1,"19.0931136,74.736449"
juunaa kaapdd baajaar,Mosque,"juunaa kaapdd baajaar, Jariwala Niwas, Juna Kapad Bazaar Rd, Nalegaon, Ahmednagar, Maharashtra 414001",Nalegaon,"Jariwala Niwas, Juna Kapad Bazaar Rd",Ahmednagar,414001,Maharashtra,IN,https://www.google.com/maps/place/%E0%A4%9C%E0%A5%82%E0%A4%A8%E0%A4%BE+%E0%A4%95%E0%A4%BE%E0%A4%AA%E0%A4%A1+%E0%A4%AC%E0%A4%BE%E0%A4%9C%E0%A4%BE%E0%A4%B0/data=!4m7!3m6!1s0x3bdcb185334021b9:0x10f222a7ac5e9b03!8m2!3d19.0948004!4d74.7411647!16s%2Fg%2F11r_716rg4!19sChIJuSFAM4Wx3DsRA5terKci8hA?authuser=0&hl=en&rclk=1,"19.0948004,74.7411647"
Fatah Ka Masjid (Ibasi Masjid - Nizam Shahi),Historical landmark,"3PVP+XJJ Fatah Ka Masjid (Ibasi Masjid - Nizam Shahi), Nalegaon, Ahmednagar, Maharashtra 414001",Nalegaon,3PVP+XJJ,Ahmednagar,414001,Maharashtra,IN,https://www.google.com/maps/place/Fatah+Ka+Masjid+%28Ibasi+Masjid+-+Nizam+Shahi%29/data=!4m7!3m6!1s0x3bdcb0619e461cb7:0x4406ef704ea94da3!8m2!3d19.0949731!4d74.7365217!16s%2Fg%2F11hd22611v!19sChIJtxxGnmGw3DsRo02pTnDvBkQ?authuser=0&hl=en&rclk=1,"19.0949731,74.7365217"
