name,main_category,address,address_ward,address_street,address_city,address_postal_code,address_state,address_country_code,link,coordinates
Masjid ul Islam msjd,Mosque,"X69V+2W3 Masjid ul Islam msjd, Kunnumupuram, Fort Kochi, Kochi, Kerala 682001","Kunnumupuram, Fort Kochi",X69V+2W3,Kochi,682001,Kerala,IN,https://www.google.com/maps/place/Masjid+ul+Islam+%D9%85%D8%B3%D8%AC%D8%AF%E2%80%AD/data=!4m7!3m6!1s0x3b086d34344d742f:0xf63bbd8d12b427b2!8m2!3d9.9675092!4d76.2448116!16s%2Fg%2F124ykrgfv!19sChIJL3RNNDRtCDsRsie0Eo29O_Y?authuser=0&hl=en&rclk=1,"9.9675092,76.24481159999999"
"Ahmadiyya Muslim Jama'ath (Mission House), Mahe, Kerala",Mosque,"PG5J+45W Ahmadiyya Muslim Jama'ath (Mission House), Mahe, Kerala, NH 66, New Mahe, Mahe, Kerala 670311",New Mahe,"PG5J+45W, NH 66",Mahe,670311,Kerala,IN,"https://www.google.com/maps/place/Ahmadiyya+Muslim+Jama%27ath+%28Mission+House%29,+Mahe,+Kerala/data=!4m7!3m6!1s0x3ba42942fa5d2bd7:0xf523b1377d88a11a!8m2!3d11.707869!4d75.5304399!16s%2Fg%2F11qn4zyyzw!19sChIJ1ytd-kIppDsRGqGIfTexI_U?authuser=0&hl=en&rclk=1","11.707868999999999,75.53043989999999"
"Salafi Centre and Mosque, Choodikotta, Mahe",Place of worship,"Salafi Centre and Mosque, Choodikotta, Mahe, Choodikotta, Hospital Road, Mahe, Kerala 673310",,"Choodikotta, Hospital Road",Mahe,673310,Kerala,IN,"https://www.google.com/maps/place/Salafi+Centre+and+Mosque,+Choodikotta,+Mahe/data=!4m7!3m6!1s0x3ba682a6589f2c95:0x1d3047470cedddef!8m2!3d11.6961917!4d75.5417196!16s%2Fg%2F11b6zr8mpg!19sChIJlSyfWKaCpjsR793tDEdHMB0?authuser=0&hl=en&rclk=1","11.6961917,75.5417196"
Muhyyidheen Juma Masjid,Mosque,"28FR+657 Muhyyidheen Juma Masjid, Seaport - Airport Rd, Thrikkakara, Vazhakkala, Kakkanad, Kerala 682021","Thrikkakara, Vazhakkala","28FR+657, Seaport - Airport Rd",Kakkanad,682021,Kerala,IN,https://www.google.com/maps/place/Muhyyidheen+Juma+Masjid/data=!4m7!3m6!1s0x3b080c5e271aa683:0x6d2ad4a17b8fab47!8m2!3d10.0230461!4d76.3404362!16s%2Fg%2F1hm3zzkkv!19sChIJg6YaJ14MCDsRR6uPe6HUKm0?authuser=0&hl=en&rclk=1,"10.0230461,76.3404362"
Njalakam Juma Masjid,Mosque,"Njalakam Juma Masjid, NH544, South Kalamassery, Kalamassery, Kochi, Kerala 682039","Thirunilath Housing Colony, South Kalamassery, Kalamassery",NH544,Kochi,682039,Kerala,IN,https://www.google.com/maps/place/Njalakam+Juma+Masjid/data=!4m7!3m6!1s0x3b080c364e4801ed:0xf1935bb07d77d602!8m2!3d10.0451179!4d76.3172132!16s%2Fg%2F1tmxc_f9!19sChIJ7QFITjYMCDsRAtZ3fbBbk_E?authuser=0&hl=en&rclk=1,"10.0451179,76.3172132"
Kalvathy Juma Masjid,Mosque,"X69X+9MP Kalvathy Juma Masjid, Kalvathi Rd, Kunnumupuram, Fort Kochi, Kochi, Kerala 682002","Kunnumupuram, Fort Kochi","X69X+9MP, Kalvathi Rd",Kochi,682002,Kerala,IN,https://www.google.com/maps/place/Kalvathy+Juma+Masjid/data=!4m7!3m6!1s0x3b086d4a693d2bf1:0x11597f60e419b6f0!8m2!3d9.9684731!4d76.2492141!16s%2Fg%2F1tx1rmxg!19sChIJ8Ss9aUptCDsR8LYZ5GB_WRE?authuser=0&hl=en&rclk=1,"9.968473099999999,76.2492141"
MASJID TAQWA msjid tkh v,Mosque,"4F77+XQP MASJID TAQWA msjid tkh v, Aluva - Perumbavoor Rd, Perumbavoor, Marampally, Kerala 683547",,"4F77+XQP, Aluva - Perumbavoor Rd","Perumbavoor, Marampally",683547,Kerala,IN,https://www.google.com/maps/place/MASJID+TAQWA+%E0%B4%AE%E0%B4%B8%E0%B5%8D%E0%B4%9C%E0%B4%BF%E0%B4%A6%E0%B5%8D+%E0%B4%A4%E0%B4%96%E0%B5%8D+%E0%B4%B5/data=!4m7!3m6!1s0x3b07e287034d37fb:0x92c9e133b7f6e2db!8m2!3d10.1149616!4d76.4644394!16s%2Fg%2F11_1qqyc3!19sChIJ-zdNA4fiBzsR2-L2tzPhyZI?authuser=0&hl=en&rclk=1,"10.114961599999999,76.4644394"
Malepalli Juma Masjid,Mosque,"Malepalli Juma Masjid, Malepalli, Edathala, Aluva, Kerala 683561",Edathala,Malepalli,Aluva,683561,Kerala,IN,https://www.google.com/maps/place/Malepalli+Juma+Masjid/data=!4m7!3m6!1s0x3b08095a92e93511:0x35c05e84daa8ac90!8m2!3d10.0735592!4d76.3766159!16s%2Fg%2F11g_2p9h3!19sChIJETXpkloJCDsRkKyo2oRewDU?authuser=0&hl=en&rclk=1,"10.0735592,76.37661589999999"
Manjaly Juma Masjid,Mosque,"5736+2RM Manjaly Juma Masjid, Kerala 683520",,5736+2RM,,683520,Kerala,IN,https://www.google.com/maps/place/Manjaly+Juma+Masjid/data=!4m7!3m6!1s0x3b081aa8d2a19847:0x3a1fb9951b80ea26!8m2!3d10.1525992!4d76.262046!16s%2Fg%2F1w_vlq46!19sChIJR5ih0qgaCDsRJuqAG5W5Hzo?authuser=0&hl=en&rclk=1,"10.1525992,76.262046"
Muhiyudeen Juma Masjid,Mosque,"X7QG+9PF Muhiyudeen Juma Masjid, Kombara, Market Rd, Ernakulam, Kerala 682018","Kombara, Kacheripady","X7QG+9PF, Kombara, Market Rd",Ernakulam,682018,Kerala,IN,https://www.google.com/maps/place/Muhiyudeen+Juma+Masjid/data=!4m7!3m6!1s0x3b080d595f4037c9:0x9a156f9b15fa0b51!8m2!3d9.9884446!4d76.2768072!16s%2Fg%2F1jgm1fyps!19sChIJyTdAX1kNCDsRUQv6FZtvFZo?authuser=0&hl=en&rclk=1,"9.9884446,76.2768072"
Edayilpeedika Mosque,Mosque,"PGRR+PCX Edayilpeedika Mosque, Pookome - Madapeedika Rd, Kodiyeri, Kerala 670103",Kodiyeri,"PGRR+PCX, Pookome - Madapeedika Rd",Kodiyeri,670103,Kerala,IN,https://www.google.com/maps/place/Edayilpeedika+Mosque/data=!4m7!3m6!1s0x3ba42862e1f920c3:0x3749f2a0eed0046e!8m2!3d11.7418575!4d75.5411242!16s%2Fg%2F124yg8y26!19sChIJwyD54WIopDsRbgTQ7qDySTc?authuser=0&hl=en&rclk=1,"11.7418575,75.5411242"
Nalam Mile Mosque,Mosque,"Nalam Mile Mosque, SH 16, Edathala, Kerala 683112",Edathala,SH 16,,683112,Kerala,IN,https://www.google.com/maps/place/Nalam+Mile+Mosque/data=!4m7!3m6!1s0x3b080912f6c8deeb:0x5567cc1134197db6!8m2!3d10.0892118!4d76.3968964!16s%2Fg%2F1trxc3tp!19sChIJ697I9hIJCDsRtn0ZNBHMZ1U?authuser=0&hl=en&rclk=1,"10.0892118,76.3968964"
Hidhayatul Islam Juma Masjid,Mosque,"27RM+285 Hidhayatul Islam Juma Masjid, Edayakkunnam, South Chittoor, Kochi, Ernakulam, Kerala 682027","Edayakkunnam, South Chittoor",27RM+285,"Kochi, Ernakulam",682027,Kerala,IN,https://www.google.com/maps/place/Hidhayatul+Islam+Juma+Masjid/data=!4m7!3m6!1s0x3b080ded5cc8b02b:0x50e872abb0a9eb32!8m2!3d10.0400069!4d76.2833682!16s%2Fg%2F11c3_9g_vp!19sChIJK7DIXO0NCDsRMuupsKty6FA?authuser=0&hl=en&rclk=1,"10.0400069,76.2833682"
Jama Masjid,Mosque,"277X+W7F Jama Masjid, Mamangalam, Edappally, Ernakulam, Kerala 682024","Mamangalam, Edappally",277X+W7F,Ernakulam,682024,Kerala,IN,https://www.google.com/maps/place/Jama+Masjid/data=!4m7!3m6!1s0x3b080d0bb30c87cd:0xe95bbba19b8a45c7!8m2!3d10.0148154!4d76.2981643!16s%2Fg%2F1tycv1_x!19sChIJzYcMswsNCDsRx0WKm6G7W-k?authuser=0&hl=en&rclk=1,"10.0148154,76.2981643"
Masjidul Huda Juma Masjid,Mosque,"28WF+FFF Masjidul Huda Juma Masjid, University Road, Alfiya Nagar, South Kalamassery, Kalamassery, Kochi, Kerala 682022","Alfiya Nagar, South Kalamassery, Kalamassery","28WF+FFF, University Road",Kochi,682022,Kerala,IN,https://www.google.com/maps/place/Masjidul+Huda+Juma+Masjid/data=!4m7!3m6!1s0x3b080c31535704e9:0x28ac384e3db0d8a6!8m2!3d10.0461911!4d76.3236714!16s%2Fg%2F1ptxnzkdt!19sChIJ6QRXUzEMCDsRptiwPU44rCg?authuser=0&hl=en&rclk=1,"10.0461911,76.3236714"
Juma Masjid,Mosque,"X8PH+XV6 Juma Masjid, Eroor Rd, Eroor North, Eroor, Kochi, Kerala 682306","Eroor North, Eroor","X8PH+XV6, Eroor Rd",Kochi,682306,Kerala,IN,https://www.google.com/maps/place/Juma+Masjid/data=!4m7!3m6!1s0x3b080cc548421aad:0x430144d707e29f37!8m2!3d9.9874224!4d76.3296254!16s%2Fg%2F1pychf_2q!19sChIJrRpCSMUMCDsRN5_iB9dEAUM?authuser=0&hl=en&rclk=1,"9.9874224,76.3296254"
Masjidul Ejaba Juma Masjid,Mosque,"Masjidul Ejaba Juma Masjid, 1428028, Kanjiramattom Thalayolaparambu Rd, Kanjiramattom, Kerala 682315",,"1428028, Kanjiramattom Thalayolaparambu Rd",Kanjiramattom,682315,Kerala,IN,https://www.google.com/maps/place/Masjidul+Ejaba+Juma+Masjid/data=!4m7!3m6!1s0x3b0877aead6a66ed:0x8b934bbabcd96b2a!8m2!3d9.8418296!4d76.4159079!16s%2Fg%2F11dxnrr9sn!19sChIJ7WZqra53CDsRKmvZvLpLk4s?authuser=0&hl=en&rclk=1,"9.841829599999999,76.4159079"
Mosque msjd,Mosque,"X76C+P58 Mosque msjd, KPK Menon Rd, opp. Port Trust Hospital, Willingdon Island, Kochi, Kerala 682009",Willingdon Island,"X76C+P58, KPK Menon Rd, opp. Port Trust Hospital",Kochi,682009,Kerala,IN,https://www.google.com/maps/place/Mosque+%D9%85%D8%B3%D8%AC%D8%AF%E2%80%AD/data=!4m7!3m6!1s0x3b086d5802ea424f:0x7da69f092f7bd89d!8m2!3d9.9617826!4d76.270464!16s%2Fg%2F1vfp6mzf!19sChIJT0LqAlhtCDsRndh7Lwmfpn0?authuser=0&hl=en&rclk=1,"9.9617826,76.27046399999999"
Parimadam Juma Masjid,Mosque,"Parimadam Juma Masjid, National Highway Road, 17, Parimadam, New Mahe, Mahe, Kerala 670311","Parimadam, New Mahe","National Highway Road, 17",Mahe,670311,Kerala,IN,https://www.google.com/maps/place/Parimadam+Juma+Masjid/data=!4m7!3m6!1s0x3ba4280802f5f76d:0x9a9f1a34a14f85f3!8m2!3d11.7114323!4d75.5276072!16s%2Fg%2F124yq9kjm!19sChIJbff1AggopDsR84VPoTQan5o?authuser=0&hl=en&rclk=1,"11.7114323,75.52760719999999"
Mahalara Masjid,Mosque,"X773+57F Mahalara Masjid, Mohammad Abdul Rahaman Rd, Mattancherry, Kochi, Kerala 682002",Mattancherry,"X773+57F, Mohammad Abdul Rahaman Rd",Kochi,682002,Kerala,IN,https://www.google.com/maps/place/Mahalara+Masjid/data=!4m7!3m6!1s0x3b086d48cf5ea199:0xdd40ddf858cb132c!8m2!3d9.9629463!4d76.2531654!16s%2Fg%2F1tc_pfrt!19sChIJmaFez0htCDsRLBPLWPjdQN0?authuser=0&hl=en&rclk=1,"9.962946299999999,76.2531654"
Manjakkal Juma Masjid,Mosque,"PG4R+792 Manjakkal Juma Masjid, Mahe, Puducherry 673312",,PG4R+792,Mahe,673312,Puducherry,IN,https://www.google.com/maps/place/Manjakkal+Juma+Masjid/data=!4m7!3m6!1s0x3ba4281c9d0cc31d:0x47f87d2ed17bd2b8!8m2!3d11.7056306!4d75.5408844!16s%2Fg%2F11g6lx3ff8!19sChIJHcMMnRwopDsRuNJ70S59-Ec?authuser=0&hl=en&rclk=1,"11.7056306,75.5408844"
Poozhithala Masjid,Mosque,"MGWP+39R Poozhithala Masjid, Mahe, Puducherry 673310",,MGWP+39R,Mahe,673310,Puducherry,IN,https://www.google.com/maps/place/Poozhithala+Masjid/data=!4m7!3m6!1s0x3ba682a925e010f7:0xee068faad5b88936!8m2!3d11.6952435!4d75.5358927!16s%2Fg%2F1tj2lx8z!19sChIJ9xDgJamCpjsRNom41aqPBu4?authuser=0&hl=en&rclk=1,"11.6952435,75.53589269999999"
Muhiyudhin Juma Masjid,Mosque,"38G8+G9R Muhiyudhin Juma Masjid, Eloor Road Udyogmandal, Pathalam, Eloor, Kochi, Kerala 683501","Pathalam, Eloor","38G8+G9R, Eloor Road Udyogmandal",Kochi,683501,Kerala,IN,https://www.google.com/maps/place/Muhiyudhin+Juma+Masjid/data=!4m7!3m6!1s0x3b080e625d8e72f5:0x66ec2226a6cc627!8m2!3d10.0763555!4d76.3158759!16s%2Fg%2F11xfb7v0m!19sChIJ9XKOXWIOCDsRJ8ZsaiLCbgY?authuser=0&hl=en&rclk=1,"10.0763555,76.3158759"
Kunhipalli Juma Masjid,Mosque,"PGH6+4PJ Kunhipalli Juma Masjid, Punnol, New Mahe, Kerala 670102",Punnol,PGH6+4PJ,New Mahe,670102,Kerala,IN,https://www.google.com/maps/place/Kunhipalli+Juma+Masjid/data=!4m7!3m6!1s0x3ba427e5903be7c9:0x92ad8868e7f81201!8m2!3d11.7278345!4d75.5117707!16s%2Fg%2F11fn1w98zc!19sChIJyec7kOUnpDsRARL452iIrZI?authuser=0&hl=en&rclk=1,"11.7278345,75.5117707"
Thalayi Masjid,Mosque,"PGH6+4PJ Thalayi Masjid, Edapally Panvel Highway, NH 66, Punnol, Thalassery, Kerala 670102",Punnol,"PGH6+4PJ, Edapally Panvel Highway, NH 66","Thalassery, New Mahe",670102,Kerala,IN,https://www.google.com/maps/place/Thalayi+Masjid/data=!4m7!3m6!1s0x3ba427c5cd1fe4f7:0x7afe56d69bce9cff!8m2!3d11.7278397!4d75.5117738!16s%2Fg%2F1pyqngqsc!19sChIJ9-QfzcUnpDsR_5zOm9ZW_no?authuser=0&hl=en&rclk=1,"11.727839699999999,75.5117738"
Chalakkara Mosque,Mosque,"PGCP+F5P Chalakkara Mosque, Palloor Rd, (PO, New Mahe, 673310",Chembra,"PGCP+F5P, Palloor Rd, (PO",New Mahe,673310,Puducherry,IN,https://www.google.com/maps/place/Chalakkara+Mosque/data=!4m7!3m6!1s0x3ba4280cc3ebd2e3:0xa04904fd3fd5feb!8m2!3d11.7212173!4d75.5354533!16s%2Fg%2F11f3nk0v5x!19sChIJ49LrwwwopDsR61_900-QBAo?authuser=0&hl=en&rclk=1,"11.7212173,75.5354533"
"Muhyudheen Masjid,hussanmotta",Mosque,"PG8C+P67 Muhyudheen Masjid,hussanmotta, Punnol, New Mahe, Kerala 670311",Punnol,PG8C+P67,New Mahe,670311,Kerala,IN,"https://www.google.com/maps/place/Muhyudheen+Masjid,hussanmotta/data=!4m7!3m6!1s0x3ba427e695f6d22b:0xaa7a2872515e5747!8m2!3d11.7167841!4d75.5205486!16s%2Fg%2F124yhg2f4!19sChIJK9L2leYnpDsRR1deUXIoeqo?authuser=0&hl=en&rclk=1","11.7167841,75.5205486"
Kalla Palli maqam,Mosque,"PG6P+8J6 Kalla Palli maqam, New Mahe, Kerala 673312",Palloor,"PG6P+8J6, New Mahe",Mahe,673312,Kerala,IN,https://www.google.com/maps/place/Kalla+Palli+maqam/data=!4m7!3m6!1s0x3ba428057f0289eb:0xc7f4d27fe40fd28!8m2!3d11.7107792!4d75.5365295!16s%2Fg%2F124ygvxh1!19sChIJ64kCfwUopDsRKP1A_idNfww?authuser=0&hl=en&rclk=1,"11.7107792,75.5365295"
KUTHUBI MASJID Kuthubi Maqam,Mosque,"KUTHUBI MASJID Kuthubi Maqam, Palloor, Mahe, Kerala 670672",Palloor,,Mahe,670672,Kerala,IN,https://www.google.com/maps/place/KUTHUBI+MASJID+Kuthubi+Maqam/data=!4m7!3m6!1s0x3ba4283f8a1b02c7:0xd36f1503191f48e0!8m2!3d11.7227258!4d75.5522773!16s%2Fg%2F11b6gh6ykl!19sChIJxwIbij8opDsR4EgfGQMVb9M?authuser=0&hl=en&rclk=1,"11.7227258,75.5522773"
Moideen Juma Masjid,Mosque,"Moideen Juma Masjid, 191A, Edapally - Panvel Hwy, Mahe, Puducherry 673310",,"191A, Edapally - Panvel Hwy",Mahe,673310,Puducherry,IN,https://www.google.com/maps/place/Moideen+Juma+Masjid/data=!4m7!3m6!1s0x3ba682a9960680a1:0x4cf60f17d6ecf34c!8m2!3d11.6981068!4d75.5349008!16s%2Fg%2F11bv1pnypg!19sChIJoYAGlqmCpjsRTPPs1hcP9kw?authuser=0&hl=en&rclk=1,"11.6981068,75.5349008"
Punnol Salafi Juma Masjid,Mosque,"Punnol Salafi Juma Masjid, P.O.Kurichiyil, Tly-2 Edapally Panvel Highway New Mahe, Kannur, Kerala 670102",New Mahe,"P.O.Kurichiyil, Tly-2 Edapally Panvel Highway New Mahe","Kannur, New Mahe",670102,Kerala,IN,https://www.google.com/maps/place/Punnol+Salafi+Juma+Masjid/data=!4m7!3m6!1s0x3ba427e7a785453d:0x58413d0584f94b25!8m2!3d11.7192837!4d75.518893!16s%2Fg%2F12ml2vn8b!19sChIJPUWFp-cnpDsRJUv5hAU9QVg?authuser=0&hl=en&rclk=1,"11.7192837,75.51889299999999"
Muhiyadheen Masjid,Mosque,"38QJ+CM4 Muhiyadheen Masjid, Kadungalloor, Kayantikkara, Kerala 683110",Kadungalloor,38QJ+CM4,Kayantikkara,683110,Kerala,IN,https://www.google.com/maps/place/Muhiyadheen+Masjid/data=!4m7!3m6!1s0x3b080eedb4f85709:0xb2d804c8914e6d07!8m2!3d10.0885166!4d76.331717!16s%2Fg%2F11clx19_p2!19sChIJCVf4tO0OCDsRB21OkcgE2LI?authuser=0&hl=en&rclk=1,"10.0885166,76.331717"
Muhiyudheen Masjid,Mosque,"498W+R77 Muhiyudheen Masjid, Kuttamassery, Kerala 683105",Kuttamassery,498W+R77,,683105,Kerala,IN,https://www.google.com/maps/place/Muhiyudheen+Masjid/data=!4m7!3m6!1s0x3b0808e459dd0d45:0x351835a8ff827b6a!8m2!3d10.1170357!4d76.3956642!16s%2Fg%2F11dxbnt6cg!19sChIJRQ3dWeQICDsRanuC_6g1GDU?authuser=0&hl=en&rclk=1,"10.117035699999999,76.3956642"
Bilal Juma Masjid,Mosque,"PG8J+CRX Bilal Juma Masjid, Palloor, Mahe, Puducherry 670102",Palloor,PG8J+CRX,Mahe,670102,Puducherry,IN,https://www.google.com/maps/place/Bilal+Juma+Masjid/data=!4m7!3m6!1s0x3ba428095e3ecf37:0x71220a2dfdf94be2!8m2!3d11.7161143!4d75.5321094!16s%2Fg%2F11f0k_c1ht!19sChIJN88-XgkopDsR4kv5_S0KInE?authuser=0&hl=en&rclk=1,"11.7161143,75.5321094"
Al Bhusthan Juma Masjid,Mosque,"28H8+MV4 Al Bhusthan Juma Masjid, Near Club Junction,Thrikkakara P.O, Edappally - Pukkattupady Rd, Unnichira, Edappally, Ernakulam, Kerala 682021","Unnichira, Marottichuvadu, Edappally","28H8+MV4, Near Club Junction,Thrikkakara P.O, Edappally - Pukkattupady Rd",Ernakulam,682021,Kerala,IN,https://www.google.com/maps/place/Al+Bhusthan+Juma+Masjid/data=!4m7!3m6!1s0x3b080dad53835c81:0x860b9a044875b8c6!8m2!3d10.0291275!4d76.3172139!16s%2Fg%2F1pzq1l66v!19sChIJgVyDU60NCDsRxrh1SASaC4Y?authuser=0&hl=en&rclk=1,"10.0291275,76.3172139"
Masjid Ul Hajra,Mosque,"Masjid Ul Hajra, 16/R1537, Aroor - Thoppumpady Rd, Thoppumpady, Kochi, Kerala 682005",Thoppumpady,"16/R1537, Aroor - Thoppumpady Rd",Kochi,682005,Kerala,IN,https://www.google.com/maps/place/Masjid+Ul+Hajra/data=!4m7!3m6!1s0x3b086d7a33ab5837:0x1677b9e820092bf2!8m2!3d9.9355514!4d76.2614852!16s%2Fg%2F11c72jvg26!19sChIJN1irM3ptCDsR8isJIOi5dxY?authuser=0&hl=en&rclk=1,"9.9355514,76.2614852"
Kallilthazhe Masjid,Mosque,"PGQJ+F2W Kallilthazhe Masjid, Kallilthazhe, Kodiyeri, Kerala 670102",Kallilthazhe,PGQJ+F2W,Kodiyeri,670102,Kerala,IN,https://www.google.com/maps/place/Kallilthazhe+Masjid/data=!4m7!3m6!1s0x3ba4287f2e9ce577:0x83ea72febe4a3243!8m2!3d11.7387379!4d75.5300928!16s%2Fg%2F11c701prnd!19sChIJd-WcLn8opDsRQzJKvv5y6oM?authuser=0&hl=en&rclk=1,"11.7387379,75.53009279999999"
kallilandy Muhiyudheen Jummah masjid,Mosque,"PG5W+HJX kallilandy Muhiyudheen Jummah masjid, Peringadi, Chokli, Kerala 673312",Peringadi,PG5W+HJX,Chokli,673312,Kerala,IN,https://www.google.com/maps/place/kallilandy+Muhiyudheen+Jummah+masjid/data=!4m7!3m6!1s0x3ba428199f7402d5:0x728970ac40b1a5c3!8m2!3d11.7089819!4d75.5466136!16s%2Fg%2F11f15l_63d!19sChIJ1QJ0nxkopDsRw6WxQKxwiXI?authuser=0&hl=en&rclk=1,"11.7089819,75.5466136"
Musjidh Al Khidhir Juma Masjid,Mosque,"38W8+JXJ Musjidh Al Khidhir Juma Masjid, Muppathadam Punchayath, Kadungalloor Road, Aluva, Kerala 683110",,"38W8+JXJ, Muppathadam Punchayath, Kadungalloor Road",Aluva,683110,Kerala,IN,https://www.google.com/maps/place/Musjidh+Al+Khidhir+Juma+Masjid/data=!4m7!3m6!1s0x3b080e57df5c9bad:0x28652ffd1eccb5ab!8m2!3d10.0965936!4d76.3173764!16s%2Fg%2F11b5yrxylk!19sChIJrZtc31cOCDsRq7XMHv0vZSg?authuser=0&hl=en&rclk=1,"10.0965936,76.3173764"
Masjidul Hidaya,Mosque,"296V+CW2 Masjidul Hidaya, Ambalappady Pinarmunda Road, Pallikkara, Kerala 683565",Pallikkara,"296V+CW2, Ambalappady Pinarmunda Road",,683565,Kerala,IN,https://www.google.com/maps/place/Masjidul+Hidaya/data=!4m7!3m6!1s0x3b080b0e29173193:0xc39adfa0c667f18e!8m2!3d10.0110175!4d76.3947605!16s%2Fg%2F11crzp_1vl!19sChIJkzEXKQ4LCDsRjvFnxqDfmsM?authuser=0&hl=en&rclk=1,"10.0110175,76.39476049999999"
Mubarak Juma Masjid,Mosque,"PG8H+6V3 Mubarak Juma Masjid, Punnol, New Mahe, Kerala 670102",Punnol,PG8H+6V3,New Mahe,670102,Kerala,IN,https://www.google.com/maps/place/Mubarak+Juma+Masjid/data=!4m7!3m6!1s0x3ba42809902b163d:0x98fb8a15a54f8940!8m2!3d11.7155074!4d75.5296747!16s%2Fg%2F11f0k_6m6z!19sChIJPRYrkAkopDsRQIlPpRWK-5g?authuser=0&hl=en&rclk=1,"11.7155074,75.5296747"
Muhiyudheen Masjid,Mosque,"Muhiyudheen Masjid, Panchayath Bus Stop, Vyshali Rd, Jn, Edappally - Pukkattupady Rd, Mochamkulam, Kuzhivelippady, Kerala 683561","Mochamkulam, Kuzhivelippady","Panchayath Bus Stop, Vyshali Rd, Jn, Edappally - Pukkattupady Rd",,683561,Kerala,IN,https://www.google.com/maps/place/Muhiyudheen+Masjid/data=!4m7!3m6!1s0x3b080bee48c2d8c3:0x573c77094380e6da!8m2!3d10.0505023!4d76.377089!16s%2Fg%2F1ptx7k4_m!19sChIJw9jCSO4LCDsR2uaAQwl3PFc?authuser=0&hl=en&rclk=1,"10.0505023,76.377089"
ASHM Sait Jumua Masjid,Mosque,"4972+7WX ASHM Sait Jumua Masjid, Bridge Rd, Periyar Nagar, Aluva, Kerala 683101",Periyar Nagar,"4972+7WX, Bridge Rd",Aluva,683101,Kerala,IN,https://www.google.com/maps/place/ASHM+Sait+Jumua+Masjid/data=!4m7!3m6!1s0x3b080f2f54698777:0xf3c2a0038c5b4cc9!8m2!3d10.1132304!4d76.3523623!16s%2Fg%2F11c67rxxqr!19sChIJd4dpVC8PCDsRyUxbjAOgwvM?authuser=0&hl=en&rclk=1,"10.113230399999999,76.3523623"
Masjidul Malik,Mosque,"X7RQ+688 Masjidul Malik, Lisie Hospital Rd, Ernakulam North, Kaloor, Kochi, Ernakulam, Kerala 682018","Ernakulam North, Kaloor","X7RQ+688, Lisie Hospital Rd","Kochi, Ernakulam",682018,Kerala,IN,https://www.google.com/maps/place/Masjidul+Malik/data=!4m7!3m6!1s0x3b080d43fd3d5bd9:0x4aeea7d28ffb1e14!8m2!3d9.9905345!4d76.2883297!16s%2Fg%2F1q65ctns_!19sChIJ2Vs9_UMNCDsRFB77j9Kn7ko?authuser=0&hl=en&rclk=1,"9.990534499999999,76.28832969999999"
Meethal Juma Masjid,Mosque,"PGF8+574 Meethal Juma Masjid, Pallikunnu, Punnol, New Mahe, Kerala 670102","Pallikunnu, Punnol",PGF8+574,New Mahe,670102,Kerala,IN,https://www.google.com/maps/place/Meethal+Juma+Masjid/data=!4m7!3m6!1s0x3ba427c2c9285ca5:0x62a21a9512e67cd4!8m2!3d11.7228873!4d75.5157149!16s%2Fg%2F11fx9h7h2t!19sChIJpVwoycInpDsR1HzmEpUaomI?authuser=0&hl=en&rclk=1,"11.7228873,75.51571489999999"
Hajiar Pally Juma Masjid,Mosque,"MGRR+HF8 Hajiar Pally Juma Masjid, Azhiyur, Mahe, Kerala 673310",,MGRR+HF8,"Azhiyur, Mahe",,Kerala,IN,https://www.google.com/maps/place/Hajiar+Pally+Juma+Masjid/data=!4m7!3m6!1s0x3ba682a5697154f1:0xe3a991fff1181cec!8m2!3d11.691416!4d75.5412147!16s%2Fg%2F11c490d661!19sChIJ8VRxaaWCpjsR7BwY8f-RqeM?authuser=0&hl=en&rclk=1,"11.691416,75.5412147"
Azhiyoor Anjaam peedika Juma Masjid,Mosque,"MGPV+8PH Azhiyoor Anjaam peedika Juma Masjid, Panvel - Kochi - Kanyakumari Hwy, Mahe, Azhiyur, Kerala 673309",,"MGPV+8PH, Panvel - Kochi - Kanyakumari Hwy","Mahe, Azhiyur",673309,Kerala,IN,https://www.google.com/maps/place/Azhiyoor+Anjaam+peedika+Juma+Masjid/data=!4m7!3m6!1s0x3ba683e91f54f9a9:0x238fd50c006dfa7e!8m2!3d11.6858164!4d75.5443666!16s%2Fg%2F11h2dbk0x4!19sChIJqflUH-mDpjsRfvptAAzVjyM?authuser=0&hl=en&rclk=1,"11.6858164,75.5443666"
Muhayudheen Masjid,Mosque,"28VM+M92 Muhayudheen Masjid, Kundukattukavu Rd, Vidya Nagar Colony, Thrikkakara, Kochi, Kerala 682021","Vidya Nagar Colony, Thrikkakara","28VM+M92, Kundukattukavu Rd",Kochi,682021,Kerala,IN,https://www.google.com/maps/place/Muhayudheen+Masjid/data=!4m7!3m6!1s0x3b080c39226dccd9:0x765c1cd09b14b8d3!8m2!3d10.0441492!4d76.3333927!16s%2Fg%2F11c1_w0_s0!19sChIJ2cxtIjkMCDsR07gUm9AcXHY?authuser=0&hl=en&rclk=1,"10.0441492,76.33339269999999"
Salafi Juma Masjid,Mosque,"48M6+RG7 Salafi Juma Masjid, Parana Jn,Veliyathunad, Kerala 683511",,"48M6+RG7, Parana Jn,Veliyathunad",Veliyathunadu,683511,Kerala,IN,https://www.google.com/maps/place/Salafi+Juma+Masjid/data=!4m7!3m6!1s0x3b080f9b8b85cd4f:0x3b2edace704e401b!8m2!3d10.1345391!4d76.3112873!16s%2Fg%2F11c6_ypcl3!19sChIJT82Fi5sPCDsRG0BOcM7aLjs?authuser=0&hl=en&rclk=1,"10.1345391,76.3112873"
Mosco Masjid Road,Mosque,"4C54+P5V Mosco Masjid Road, Chalakkal East, Marampally, Kerala 683105",Chalakkal East,4C54+P5V,Marampally,683105,Kerala,IN,https://www.google.com/maps/place/Mosco+Masjid+Road/data=!4m7!3m6!1s0x3b080901de331605:0x2e89d899faa63e3a!8m2!3d10.1094681!4d76.4054862!16s%2Fg%2F11g8ybm0sy!19sChIJBRYz3gEJCDsROj6m-pnYiS4?authuser=0&hl=en&rclk=1,"10.109468099999999,76.4054862"
Muhiyadheen Masjid Market Mosque,Mosque,"484X+HP8 Muhiyadheen Masjid Market Mosque, Market Rd, Periyar Nagar, Aluva, Kerala 683101",Periyar Nagar,"484X+HP8, Market Rd",Aluva,683101,Kerala,IN,https://www.google.com/maps/place/Muhiyadheen+Masjid+Market+Mosque/data=!4m7!3m6!1s0x3b080ed87d9bf1a5:0x3d52d399c597416b!8m2!3d10.1064207!4d76.3493401!16s%2Fg%2F11g8xhz2cl!19sChIJpfGbfdgOCDsRa0GXxZnTUj0?authuser=0&hl=en&rclk=1,"10.1064207,76.34934009999999"
Madol Juma Masjid,Mosque,"PG4M+Q5C Madol Juma Masjid, Palam Rd, Peringadi, Mahe, Kerala 673311",Peringadi,"PG4M+Q5C, Palam Rd",Mahe,673311,Kerala,IN,https://www.google.com/maps/place/Madol+Juma+Masjid/data=!4m7!3m6!1s0x3ba42806995b8dbf:0x2a031d0feb7c857!8m2!3d11.7069379!4d75.5328871!16s%2Fg%2F124ypr4hz!19sChIJv41bmQYopDsRV8i3_tAxoAI?authuser=0&hl=en&rclk=1,"11.7069379,75.5328871"
Muhyidheen Masjid,Mosque,"28VG+364 Muhyidheen Masjid, Vidya Nagar Colony, Thrikkakara, Edappally, Kochi, Kerala 682033","Vidya Nagar Colony, Thrikkakara, Edappally",28VG+364,Kochi,682033,Kerala,IN,https://www.google.com/maps/place/Muhyidheen+Masjid/data=!4m7!3m6!1s0x3b080c364fdc2363:0xf3ea09c1f9efc230!8m2!3d10.0426461!4d76.3255935!16s%2Fg%2F1hm30g98v!19sChIJYyPcTzYMCDsRMMLv-cEJ6vM?authuser=0&hl=en&rclk=1,"10.042646099999999,76.3255935"
Musjid Nabaviyya Mallepalli Muslim Juma Musjid,Mosque,"2CXP+QPG Musjid Nabaviyya Mallepalli Muslim Juma Musjid, Kochi, Kerala 683562",,2CXP+QPG,Kochi,683562,Kerala,IN,https://www.google.com/maps/place/Musjid+Nabaviyya+Mallepalli+Muslim+Juma+Musjid/data=!4m7!3m6!1s0x3b080a1438112831:0x9b9203c07d36e656!8m2!3d10.0494362!4d76.4368144!16s%2Fg%2F11c5bpfwr6!19sChIJMSgROBQKCDsRVuY2fcADkps?authuser=0&hl=en&rclk=1,"10.049436199999999,76.4368144"
MUSDHALIFA MASJID,Mosque,"MUSDHALIFA MASJID, Thaikkattukara, p.o, Kunnathery Thikavu, Aluva, Kerala 683106","Thaikkattukara, p.o, Kunnathery Thikavu",,Aluva,683106,Kerala,IN,https://www.google.com/maps/place/MUSDHALIFA+MASJID/data=!4m7!3m6!1s0x3b080f3587b2c477:0xe17f339c6a4a5f2b!8m2!3d10.0854268!4d76.3453491!16s%2Fg%2F11vl92jyhd!19sChIJd8SyhzUPCDsRK19Kapwzf-E?authuser=0&hl=en&rclk=1,"10.085426799999999,76.34534909999999"
Marwa Masjid and Islamic Centre,Mosque,"36V4+G4V Marwa Masjid and Islamic Centre, Edavanakkad, Vypin, Kochi, Kerala 682502","Edavanakkad, Vypin",36V4+G4V,Kochi,682502,Kerala,IN,https://www.google.com/maps/place/Marwa+Masjid+and+Islamic+Centre/data=!4m7!3m6!1s0x3b08111910f01c7f:0xad762b8bbaaeefc2!8m2!3d10.0938516!4d76.2053115!16s%2Fg%2F11g65f46vs!19sChIJfxzwEBkRCDsRwu-uuosrdq0?authuser=0&hl=en&rclk=1,"10.093851599999999,76.2053115"
Juma Masjid,Mosque,"Juma Masjid, 32, Pipeline Rd, Pradeeksha Nagar, North Kalamassery, Kalamassery, Ernakulam, Kochi, Kerala 683503","Pradeeksha Nagar, North Kalamassery, Kalamassery","32, Pipeline Rd","Ernakulam, Kochi",683503,Kerala,IN,https://www.google.com/maps/place/Juma+Masjid/data=!4m7!3m6!1s0x3b080c219d94f8ff:0x69f318385b02cddc!8m2!3d10.0584759!4d76.3377557!16s%2Fg%2F11cn7x4tl8!19sChIJ__iUnSEMCDsR3M0CWzgY82k?authuser=0&hl=en&rclk=1,"10.0584759,76.3377557"
Palloor Juma Masjid,Mosque,"PGJQ+9J9 Palloor Juma Masjid, Palloor, Mahe, Puducherry 670672",Palloor,PGJQ+9J9,Mahe,670672,Puducherry,IN,https://www.google.com/maps/place/Palloor+Juma+Masjid/data=!4m7!3m6!1s0x3ba428702a8e5f33:0xeed5399f814aaab9!8m2!3d11.7309061!4d75.5390994!16s%2Fg%2F11f_j2vtcv!19sChIJM1-OKnAopDsRuapKgZ851e4?authuser=0&hl=en&rclk=1,"11.7309061,75.5390994"
Vayalilpalli Juma Masjid,Mosque,"PHC4+FR7 Vayalilpalli Juma Masjid, Mahe - Chokli Rd, New Mahe, Chokli, Kerala 673312",New Mahe,"PHC4+FR7, Mahe - Chokli Rd",Chokli,673312,Kerala,IN,https://www.google.com/maps/place/Vayalilpalli+Juma+Masjid/data=!4m7!3m6!1s0x3ba428168adc12e9:0xd87c2f2e8c61afa1!8m2!3d11.7211655!4d75.557038!16s%2Fg%2F11c54cnkx5!19sChIJ6RLcihYopDsRoa9hjC4vfNg?authuser=0&hl=en&rclk=1,"11.7211655,75.55703799999999"
Al Salafi Mujahid Mosque,Mosque,"PG6V+GJ2 Al Salafi Mujahid Mosque, Peringadi, Mahe, Kerala 673312",Peringadi,PG6V+GJ2,Mahe,673312,Kerala,IN,https://www.google.com/maps/place/Al+Salafi+Mujahid+Mosque/data=!4m7!3m6!1s0x3ba4281a0a2c5911:0x37dbc50fdad00c97!8m2!3d11.7112652!4d75.5440159!16s%2Fg%2F124t40359!19sChIJEVksChoopDsRlwzQ2g_F2zc?authuser=0&hl=en&rclk=1,"11.7112652,75.54401589999999"
Sunni Masjid Purayar,Mosque,"49H7+Q8G Sunni Masjid Purayar, Purayar, Aluva, Kerala 683102",Purayar,49H7+Q8G,Aluva,683102,Kerala,IN,https://www.google.com/maps/place/Sunni+Masjid+Purayar/data=!4m7!3m6!1s0x3b080f355697a3c1:0x9dcdf3ffb29c1b73!8m2!3d10.1294422!4d76.3633148!16s%2Fg%2F11gdgz2_rj!19sChIJwaOXVjUPCDsRcxucsv_zzZ0?authuser=0&hl=en&rclk=1,"10.1294422,76.3633148"
Mujahedeen Juma Masjid,Mosque,"X724+GRF Mujahedeen Juma Masjid, Kappalandimukku, Mattancherry, Kochi, Kerala 682002","Kappalandimukku, Mattancherry",X724+GRF,Kochi,682002,Kerala,IN,https://www.google.com/maps/place/Mujahedeen+Juma+Masjid/data=!4m7!3m6!1s0x3b086db81508eab7:0xb1d2ab0d40b806b2!8m2!3d9.9513052!4d76.257047!16s%2Fg%2F11h2hlr4sy!19sChIJt-oIFbhtCDsRsga4QA2r0rE?authuser=0&hl=en&rclk=1,"9.9513052,76.257047"
Salim Masjid,Mosque,"36M2+QP9 Salim Masjid, Edavanakkad, Nayarambalam, Kochi, Kerala 682509","Edavanakkad, Nayarambalam",36M2+QP9,Kochi,682509,Kerala,IN,https://www.google.com/maps/place/Salim+Masjid/data=!4m7!3m6!1s0x3b081115fe8e5a09:0xb18490646c622236!8m2!3d10.0844053!4d76.2018479!16s%2Fg%2F1pyqh91zw!19sChIJCVqO_hURCDsRNiJibGSQhLE?authuser=0&hl=en&rclk=1,"10.0844053,76.20184789999999"
Edolil Juma Masjid,Mosque,"PG6H+H3F Edolil Juma Masjid, New Mahe, Mahe, Kerala 670311",New Mahe,PG6H+H3F,Mahe,670311,Kerala,IN,https://www.google.com/maps/place/Edolil+Juma+Masjid/data=!4m7!3m6!1s0x3ba42808023ba599:0xa6b89de77f9452a6!8m2!3d11.7114329!4d75.5276769!16s%2Fg%2F11c2pgx_f8!19sChIJmaU7AggopDsRplKUf-eduKY?authuser=0&hl=en&rclk=1,"11.7114329,75.5276769"
Salafi Masjid,Mosque,"PG5J+2MR Salafi Masjid, New Mahe, Mahe, Kerala 670311",New Mahe,PG5J+2MR,Mahe,670311,Kerala,IN,https://www.google.com/maps/place/Salafi+Masjid/data=!4m7!3m6!1s0x3ba42806f463a633:0x15367fd84d9a5d29!8m2!3d11.7076069!4d75.5316322!16s%2Fg%2F11c0rspbpt!19sChIJM6Zj9AYopDsRKV2aTdh_NhU?authuser=0&hl=en&rclk=1,"11.7076069,75.53163219999999"
Twayyiba juma masjid. Panjarappalli,Mosque,"PGF9+WHM Twayyiba juma masjid. Panjarappalli, Unnamed Road, Pallikunnu, Punnol, New Mahe, Kerala 670102","Pallikunnu, Punnol","PGF9+WHM, Unnamed Road",New Mahe,670102,Kerala,IN,https://www.google.com/maps/place/Twayyiba+juma+masjid.+Panjarappalli/data=!4m7!3m6!1s0x3ba42762d6789dd3:0x1fbf2c0c8a64055!8m2!3d11.7248383!4d75.5189121!16s%2Fg%2F11gy4rq4s0!19sChIJ05141mInpDsRVUCmyMDy-wE?authuser=0&hl=en&rclk=1,"11.7248383,75.5189121"
Muhyadeen Masjid,Mosque,"48VV+GQP Muhyadeen Masjid, Kochi, Kerala 683102",,48VV+GQP,Kochi,683102,Kerala,IN,https://www.google.com/maps/place/Muhyadeen+Masjid/data=!4m7!3m6!1s0x3b080f5c4730bffb:0xd5d6c2a025814904!8m2!3d10.1438495!4d76.3444405!16s%2Fg%2F11f_0k4042!19sChIJ-78wR1wPCDsRBEmBJaDC1tU?authuser=0&hl=en&rclk=1,"10.1438495,76.34444049999999"
Masjidul Ansar,Mosque,"26CF+MW6 Masjidul Ansar, Malipuram Bridge, Schoolmuttam, Kochi, Kerala 682511",Schoolmuttam,"26CF+MW6, Malipuram Bridge",Kochi,682511,Kerala,IN,https://www.google.com/maps/place/Masjidul+Ansar/data=!4m7!3m6!1s0x3b08125334b78b93:0xd73919e981d2f7de!8m2!3d10.0216667!4d76.2247807!16s%2Fg%2F11hbpx4d07!19sChIJk4u3NFMSCDsR3vfSgekZOdc?authuser=0&hl=en&rclk=1,"10.021666699999999,76.2247807"
Salafi Masjid,Mosque,"36Q5+Q74 Salafi Masjid, Edavanakkad, Vypin, Kochi, Kerala 682502","Edavanakkad, Vypin",36Q5+Q74,Kochi,,Kerala,IN,https://www.google.com/maps/place/Salafi+Masjid/data=!4m7!3m6!1s0x3b0811b331cf3367:0x6837c37207c73d4b!8m2!3d10.0893895!4d76.2081975!16s%2Fg%2F11h3g47z1l!19sChIJZzPPMbMRCDsRSz3HB3LDN2g?authuser=0&hl=en&rclk=1,"10.0893895,76.2081975"
Salafi Juma Masjid,Mosque,"X6QH+PCP Salafi Juma Masjid, Puthuvype Beach Rd, Puthuvype, Kochi, Kerala 682508",Puthuvype,"X6QH+PCP, Puthuvype Beach Rd",Kochi,682508,Kerala,IN,https://www.google.com/maps/place/Salafi+Juma+Masjid/data=!4m7!3m6!1s0x3b0812dee3a35e03:0x60605c680ec9aa52!8m2!3d9.9893331!4d76.228578!16s%2Fg%2F1pyqvj8xv!19sChIJA16j494SCDsRUqrJDmhcYGA?authuser=0&hl=en&rclk=1,"9.9893331,76.228578"
"Azheeckal Masjid, New Mahe",Mosque,"PG4J+5C3 Azheeckal Masjid, New Mahe, New Mahe, Mahe, Kerala 670311",New Mahe,PG4J+5C3,"New Mahe, Mahe",670311,Kerala,IN,"https://www.google.com/maps/place/Azheeckal+Masjid,+New+Mahe/data=!4m7!3m6!1s0x3ba42806ba07f44f:0x610a2eb6a2a1f666!8m2!3d11.7053889!4d75.5310317!16s%2Fg%2F11g6xn8blv!19sChIJT_QHugYopDsRZvahorYuCmE?authuser=0&hl=en&rclk=1","11.705388899999999,75.5310317"
Khadeejathul Khubra Masjid,Mosque,"PG6F+F45 Khadeejathul Khubra Masjid, New Mahe, Mahe, Kerala 670311",New Mahe,PG6F+F45,Mahe,670311,Kerala,IN,https://www.google.com/maps/place/Khadeejathul+Khubra+Masjid/data=!4m7!3m6!1s0x3ba427a4549c5b27:0x7f72927116c84cc4!8m2!3d11.7111421!4d75.5228469!16s%2Fg%2F11gv0wqfrh!19sChIJJ1ucVKQnpDsRxEzIFnGScn8?authuser=0&hl=en&rclk=1,"11.7111421,75.52284689999999"
Parammal Juma Masjid,Mosque,"PH73+GV5 Parammal Juma Masjid, Parammal Jumaa Masjid Kaviyoor, Mahe - Chokli Rd, Peringadi, Chokli, Kerala 670672",Peringadi,"PH73+GV5, Parammal Jumaa Masjid Kaviyoor, Mahe - Chokli Rd",Chokli,670672,Kerala,IN,https://www.google.com/maps/place/Parammal+Juma+Masjid/data=!4m7!3m6!1s0x3ba4283b3b5595ad:0x144cbd44928f3bf3!8m2!3d11.7137642!4d75.5547188!16s%2Fg%2F11b8_gn_rz!19sChIJrZVVOzsopDsR8zuPkkS9TBQ?authuser=0&hl=en&rclk=1,"11.7137642,75.5547188"
Al Hameediya Juma Masjid,Mosque,"39R6+WCP Al Hameediya Juma Masjid, SH 16, Ashokapuram, Aluva, Kochi, Aluva, Kerala 683101","Ashokapuram, Aluva","39R6+WCP, SH 16","Kochi, Aluva",683101,Kerala,IN,https://www.google.com/maps/place/Al+Hameediya+Juma+Masjid/data=!4m7!3m6!1s0x3b080ecc89a10c97:0x322ab5d8697d8d9d!8m2!3d10.0923444!4d76.3610722!16s%2Fg%2F11bbt3jrws!19sChIJlwyhicwOCDsRnY19adi1KjI?authuser=0&hl=en&rclk=1,"10.0923444,76.3610722"
Masjidul Manar,Mosque,"484V+9WH Masjidul Manar, Uliyannoor, Aluva, Kerala 683108",Uliyannoor,484V+9WH,Aluva,683108,Kerala,IN,https://www.google.com/maps/place/Masjidul+Manar/data=!4m7!3m6!1s0x3b080edf6a89e61d:0x6251919b3197b28d!8m2!3d10.1059268!4d76.3448577!16s%2Fg%2F11dzw5hwzm!19sChIJHeaJat8OCDsRjbKXMZuRUWI?authuser=0&hl=en&rclk=1,"10.105926799999999,76.34485769999999"
Mohiyudheen Mosque,Mosque,"36R5+65M Mohiyudheen Mosque, SH63, near Hidayathul Islam Higher Secondary School, Edavanakkad, Vypin, Kochi, Kerala 682502","Edavanakkad, Vypin","36R5+65M, SH63, near Hidayathul Islam Higher Secondary School",Kochi,682502,Kerala,IN,https://www.google.com/maps/place/Mohiyudheen+Mosque/data=!4m7!3m6!1s0x3b08111a0666eec7:0x755bd14a9e0fbc93!8m2!3d10.0905995!4d76.2079197!16s%2Fg%2F1vzn3_80!19sChIJx-5mBhoRCDsRk7wPnkrRW3U?authuser=0&hl=en&rclk=1,"10.0905995,76.20791969999999"
FEA Masjid,Mosque,"FEA Masjid, 683501, Companypadi, Verapoli, Eloor, Ernakulam, Kerala 683501","Companypadi, Verapoli, Eloor",683501,"Ernakulam, Kochi",683501,Kerala,IN,https://www.google.com/maps/place/FEA+Masjid/data=!4m7!3m6!1s0x3b080e6d96daba7b:0x9764a4f7dae866f!8m2!3d10.0733443!4d76.2980302!16s%2Fg%2F11g6mh_dsm!19sChIJe7ralm0OCDsRb4aufU9Kdgk?authuser=0&hl=en&rclk=1,"10.073344299999999,76.2980302"
Masjid Sa'ad Bin Muad,Mosque,"PG2M+R3F Masjid Sa'ad Bin Muad, Mahe, Puducherry 673310",,PG2M+R3F,Mahe,,Puducherry,IN,https://www.google.com/maps/place/Masjid+Sa%27ad+Bin+Muad/data=!4m7!3m6!1s0x3ba4296c0974c70d:0xfc471527f762a9ac!8m2!3d11.7020616!4d75.5326581!16s%2Fg%2F11ght5j2fq!19sChIJDcd0CWwppDsRrKli9ycVR_w?authuser=0&hl=en&rclk=1,"11.702061599999999,75.53265809999999"
Vayalalam Juma Masjid,Mosque,"PGPF+6RC Vayalalam Juma Masjid, Thalassery - Nadapuram Rd, Kallilthazhe, Kodiyeri, New Mahe, Kerala 670102",Kallilthazhe,"PGPF+6RC, Thalassery - Nadapuram Rd","Kodiyeri, New Mahe",670102,Kerala,IN,https://www.google.com/maps/place/Vayalalam+Juma+Masjid/data=!4m7!3m6!1s0x3ba427d6e37856d9:0x367974d216da145a!8m2!3d11.7355508!4d75.5245273!16s%2Fg%2F11f12243j0!19sChIJ2VZ449YnpDsRWhTaFtJ0eTY?authuser=0&hl=en&rclk=1,"11.735550799999999,75.5245273"
Sunni Masjid moozhikkara and murshidul vildhan madrassa,Mosque,"Sunni Masjid moozhikkara and murshidul vildhan madrassa, Malabar Cancer Centre, Thalassery, Near, Thalassery- Kodiyeri Rd, Kerala 670103",,"Malabar Cancer Centre, Thalassery, Near, Thalassery- Kodiyeri Rd","Kodiyeri, New Mahe",670103,Kerala,IN,https://www.google.com/maps/place/Sunni+Masjid+moozhikkara+and+murshidul+vildhan+madrassa/data=!4m7!3m6!1s0x3ba42881d9477781:0xce4075d35a735460!8m2!3d11.7476528!4d75.5279458!16s%2Fg%2F11hbn3vtn7!19sChIJgXdH2YEopDsRYFRzWtN1QM4?authuser=0&hl=en&rclk=1,"11.7476528,75.5279458"
Manarul Islam Masjid,Mosque,"48FM+V4P Manarul Islam Masjid, VSCB Rd, Aluva, Kerala 683102",,"48FM+V4P, VSCB Rd",Aluva,683102,Kerala,IN,https://www.google.com/maps/place/Manarul+Islam+Masjid/data=!4m7!3m6!1s0x3b080f13ba57807d:0x28fef4fd77d41907!8m2!3d10.1247226!4d76.3328307!16s%2Fg%2F11dylzly5b!19sChIJfYBXuhMPCDsRBxnUd_30_ig?authuser=0&hl=en&rclk=1,"10.1247226,76.3328307"
Badr Masjid,Mosque,"Badr Masjid, 670102, Pallikunnu, Punnol, New Mahe, Kerala 670102","Pallikunnu, Punnol",670102,New Mahe,670102,Kerala,IN,https://www.google.com/maps/place/Badr+Masjid/data=!4m7!3m6!1s0x3ba427dd5b8693df:0x98b3baece32f97e7!8m2!3d11.7216323!4d75.5170969!16s%2Fg%2F11fylnj_bb!19sChIJ35OGW90npDsR55cv4-y6s5g?authuser=0&hl=en&rclk=1,"11.7216323,75.5170969"
Panayikulam Jama-ath Masjid,Mosque,"4843+5PM Panayikulam Jama-ath Masjid, Panayikulam, Kerala 683502",Panayikulam,4843+5PM,,,Kerala,IN,https://www.google.com/maps/place/Panayikulam+Jama-ath+Masjid/data=!4m7!3m6!1s0x3b080f6e710de94b:0xd28af22754653025!8m2!3d10.1054719!4d76.304294!16s%2Fg%2F11gl3cc6kt!19sChIJS-kNcW4PCDsRJTBlVCfyitI?authuser=0&hl=en&rclk=1,"10.1054719,76.304294"
Juma Masjid,Mosque,"38JX+954 Juma Masjid, Pipeline Rd, Kunnathery Thikavu, Aluva, Kerala 683106",Kunnathery Thikavu,"38JX+954, Pipeline Rd",Aluva,683106,Kerala,IN,https://www.google.com/maps/place/Juma+Masjid/data=!4m7!3m6!1s0x3b080eb96a2e809f:0x68ef251bd757c5be!8m2!3d10.080892!4d76.347967!16s%2Fg%2F1pyqsqz1y!19sChIJn4AuarkOCDsRvsVX1xsl72g?authuser=0&hl=en&rclk=1,"10.080892,76.347967"
Munavirul Islam Masjid,Mosque,"Munavirul Islam Masjid, Malayankadu, Keeramkunnu, Keezhmadu, Kerala 683105","Keeramkunnu, Keezhmadu",Malayankadu,,683105,Kerala,IN,https://www.google.com/maps/place/Munavirul+Islam+Masjid/data=!4m7!3m6!1s0x3b0808dfb8b9246d:0xee1239831c659803!8m2!3d10.1104753!4d76.3854376!16s%2Fg%2F11d_1nghw0!19sChIJbSS5uN8ICDsRA5hlHIM5Eu4?authuser=0&hl=en&rclk=1,"10.1104753,76.3854376"
Sankedam Hajeed Palli Juma Masjid,Mosque,"26CG+7Q3 Sankedam Hajeed Palli Juma Masjid, Malippuram, Kochi, Kerala 682511",Malippuram,26CG+7Q3,Kochi,682511,Kerala,IN,https://www.google.com/maps/place/Sankedam+Hajeed+Palli+Juma+Masjid/data=!4m7!3m6!1s0x3b081253652ad159:0x10fb06adfd805a6!8m2!3d10.0206435!4d76.2269301!16s%2Fg%2F11d_yph596!19sChIJWdEqZVMSCDsRpgXY32qwDwE?authuser=0&hl=en&rclk=1,"10.0206435,76.22693009999999"
Ansar Masjid Thiruthi,Mosque,"H259+874 Ansar Masjid Thiruthi, Blangad, Chavakkad, Kadappuram, Kerala 680506",Blangad,H259+874,"Chavakkad, Kadappuram",680506,Kerala,IN,https://www.google.com/maps/place/Ansar+Masjid+Thiruthi/data=!4m7!3m6!1s0x3ba793948367e91d:0xe479f00e172d1a05!8m2!3d10.5582711!4d76.0182092!16s%2Fg%2F11hb30vx7m!19sChIJHelng5STpzsRBRotFw7weeQ?authuser=0&hl=en&rclk=1,"10.558271099999999,76.0182092"
AZHIYOOR MOHIYUDHEEN JUMA MASJID,Mosque,"MGXX+939 AZHIYOOR MOHIYUDHEEN JUMA MASJID, Mahe, Kerala 673309",,MGXX+939,Mahe,673309,Kerala,IN,https://www.google.com/maps/place/AZHIYOOR+MOHIYUDHEEN+JUMA+MASJID/data=!4m7!3m6!1s0x3ba683ce7f8603c7:0x8126eba1c47119f2!8m2!3d11.6984094!4d75.5477365!16s%2Fg%2F11f7cqskq2!19sChIJxwOGf86DpjsR8hlxxKHrJoE?authuser=0&hl=en&rclk=1,"11.6984094,75.5477365"
Masjidu Noor,Mosque,"PG6R+6WV Masjidu Noor, Peringadi, Mahe, Kerala 673312",Peringadi,PG6R+6WV,Mahe,673312,Kerala,IN,https://www.google.com/maps/place/Masjidu+Noor/data=!4m7!3m6!1s0x3ba4281a7d4447d5:0xe083a876199cbd6d!8m2!3d11.7106222!4d75.5422887!16s%2Fg%2F124yq70sn!19sChIJ1UdEfRoopDsRbb2cGXaog-A?authuser=0&hl=en&rclk=1,"11.7106222,75.5422887"
Serambi Mosque,Mosque,"PG2R+VXC Serambi Mosque, Mahe, Kerala 673310",,PG2R+VXC,Mahe,673310,Kerala,IN,https://www.google.com/maps/place/Serambi+Mosque/data=!4m7!3m6!1s0x3ba4281da7cbe3b1:0x1c25b625517b54bb!8m2!3d11.7021798!4d75.5424033!16s%2Fg%2F11d_8zzpxj!19sChIJsePLpx0opDsRu1R7USW2JRw?authuser=0&hl=en&rclk=1,"11.7021798,75.54240329999999"
Kooloth masjid,Mosque,"PGGQ+693 Kooloth masjid, Palloor, Mahe, Puducherry 670672",Palloor,PGGQ+693,Mahe,670672,Puducherry,IN,https://www.google.com/maps/place/Kooloth+masjid/data=!4m7!3m6!1s0x3ba429714eb537b1:0x1ab1af2011f52eec!8m2!3d11.7255126!4d75.5384373!16s%2Fg%2F11j0sf0k31!19sChIJsTe1TnEppDsR7C71ESCvsRo?authuser=0&hl=en&rclk=1,"11.7255126,75.5384373"
Badriya Masjid,Mosque,"MGRV+HX6 Badriya Masjid, Koodali, Mahe, Kerala 673310",Koodali,MGRV+HX6,Mahe,673310,Kerala,IN,https://www.google.com/maps/place/Badriya+Masjid/data=!4m7!3m6!1s0x3ba68380ef31a87b:0xcb396d425fa862da!8m2!3d11.6914091!4d75.5449057!16s%2Fg%2F11g_rv_pgq!19sChIJe6gx74CDpjsR2mKoX0JtOcs?authuser=0&hl=en&rclk=1,"11.6914091,75.5449057"
Salafi Masjid,Mosque,"QG4F+2P5 Salafi Masjid, Illathaazha, Kodiyeri, Kerala 670102",Illathaazha,QG4F+2P5,Kodiyeri,670102,Kerala,IN,https://www.google.com/maps/place/Salafi+Masjid/data=!4m7!3m6!1s0x3ba42626298c9811:0xfafe40119836ba1e!8m2!3d11.7550027!4d75.5243523!16s%2Fg%2F11fx8z0pcn!19sChIJEZiMKSYmpDsRHro2mBFA_vo?authuser=0&hl=en&rclk=1,"11.755002699999999,75.52435229999999"
islahi center,Mosque,"PGFQ+63V islahi center, islahi center, po, Palloor, Mahe, 670672",Palloor,"PGFQ+63V, islahi center, po",Mahe,670672,Puducherry,IN,https://www.google.com/maps/place/islahi+center/data=!4m7!3m6!1s0x3ba42872c71f68f1:0x99ab3843cc1a8aa0!8m2!3d11.7231213!4d75.5376849!16s%2Fg%2F11byt_lvy2!19sChIJ8Wgfx3IopDsRoIoazEM4q5k?authuser=0&hl=en&rclk=1,"11.723121299999999,75.5376849"
New Mahe Hussan Masjid,Mosque,"PG5M+J9X New Mahe Hussan Masjid, New Mahe, Mahe, Kerala 673312",New Mahe,PG5M+J9X,"New Mahe, Mahe",,Kerala,IN,https://www.google.com/maps/place/New+Mahe+Hussan+Masjid/data=!4m7!3m6!1s0x3ba429fe29e51bf9:0xcc4301491dd0d44a!8m2!3d11.7091072!4d75.5334883!16s%2Fg%2F11n0447p2f!19sChIJ-RvlKf4ppDsRStTQHUkBQ8w?authuser=0&hl=en&rclk=1,"11.7091072,75.5334883"
Akbar Masjid,Mosque,"PG99+HP6 Akbar Masjid, Edapally Panvel Highway (NH-17), New Mahe, Thalassery, New Mahe, Kerala 670311",New Mahe,"PG99+HP6, Edapally Panvel Highway (NH-17)","Thalassery, New Mahe",670311,Kerala,IN,https://www.google.com/maps/place/Akbar+Masjid/data=!4m7!3m6!1s0x3ba427e706ca633d:0x3309751b3cc17194!8m2!3d11.7189144!4d75.5192534!16s%2Fg%2F1pyqks1rb!19sChIJPWPKBucnpDsRlHHBPBt1CTM?authuser=0&hl=en&rclk=1,"11.7189144,75.5192534"
Muhyudheen Juma Masjid mohiyuddhii jumaamsjid,Mosque,"MGXX+939 Muhyudheen Juma Masjid mohiyuddhii jumaamsjid, Azhiyur, Mahe, Kerala 673309",,MGXX+939,"Azhiyur, Mahe",673309,Kerala,IN,https://www.google.com/maps/place/Muhyudheen+Juma+Masjid+%E0%B4%AE%E0%B5%8A%E0%B4%B9%E0%B4%BF%E0%B4%AF%E0%B5%81%E0%B4%A6%E0%B4%A7%E0%B5%80%E0%B5%BB+%E0%B4%9C%E0%B5%81%E0%B4%AE%E0%B4%BE%E0%B4%AE%E0%B4%B8%E0%B5%8D%E0%B4%9C%E0%B4%BF%E0%B4%A6%E0%B5%8D/data=!4m7!3m6!1s0x3ba4281fb3873b4f:0xe6cb4b29eeb34df2!8m2!3d11.698422!4d75.5477334!16s%2Fg%2F124yfy8l3!19sChIJTzuHsx8opDsR8k2z7ilLy-Y?authuser=0&hl=en&rclk=1,"11.698421999999999,75.5477334"
Rahma Masjid Punnol,Mosque,"PGCC+F33 Rahma Masjid Punnol, Pallikunnu, Punnol, New Mahe, Kerala 670102","Pallikunnu, Punnol",PGCC+F33,New Mahe,670102,Kerala,IN,https://www.google.com/maps/place/Rahma+Masjid+Punnol/data=!4m7!3m6!1s0x3ba4273abd36ca01:0x9920bd861ef835e0!8m2!3d11.7211438!4d75.5201852!16s%2Fg%2F11fnszfrsh!19sChIJAco2vTonpDsR4DX4Hoa9IJk?authuser=0&hl=en&rclk=1,"11.7211438,75.5201852"
Masjidhul Ihsan,Mosque,"39MM+323 Masjidhul Ihsan, MES Chunangamvely Canal Rd, Edathala, Aluva, Kerala 683561",Edathala,"39MM+323, MES Chunangamvely Canal Rd",Aluva,683561,Kerala,IN,https://www.google.com/maps/place/Masjidhul+Ihsan/data=!4m7!3m6!1s0x3b08094140000001:0x9d98bbec6d7216fd!8m2!3d10.082647!4d76.3825391!16s%2Fg%2F11hcw3gvlm!19sChIJAQAAQEEJCDsR_RZybey7mJ0?authuser=0&hl=en&rclk=1,"10.082647,76.3825391"
Masjid,Mosque,"3CQ4+H42 Masjid, Vazhakkulam, Kerala 683112",Vazhakkulam,3CQ4+H42,,683112,Kerala,IN,https://www.google.com/maps/place/Masjid/data=!4m7!3m6!1s0x3b08095487d03513:0x6222237329ef8846!8m2!3d10.0888989!4d76.4052783!16s%2Fg%2F11p5lxrpq2!19sChIJEzXQh1QJCDsRRojvKXMjImI?authuser=0&hl=en&rclk=1,"10.0888989,76.40527829999999"
juma masjid,Mosque,"28G7+C27 juma masjid, Paruthelipalam, Marottichuvadu, Edappally, Kochi, Ernakulam, Kerala 682024","Paruthelipalam, Marottichuvadu, Edappally",28G7+C27,"Kochi, Ernakulam",682024,Kerala,IN,https://www.google.com/maps/place/juma+masjid/data=!4m7!3m6!1s0x3b080d336ba1aee3:0xab12853faa8d7a23!8m2!3d10.0260401!4d76.3125507!16s%2Fg%2F11s8b88v_4!19sChIJ466hazMNCDsRI3qNqj-FEqs?authuser=0&hl=en&rclk=1,"10.0260401,76.3125507"
"Salafi Centre, Mahe",Mosque,"PG2Q+C57 Salafi Centre, Mahe, Mahe, Puducherry 673310",,PG2Q+C57,Mahe,673310,Puducherry,IN,"https://www.google.com/maps/place/Salafi+Centre,+Mahe/data=!4m7!3m6!1s0x3ba42802bdfdd8c1:0x30e60b33ff407464!8m2!3d11.70104!4d75.537915!16s%2Fg%2F11hd5586x8!19sChIJwdj9vQIopDsRZHRA_zML5jA?authuser=0&hl=en&rclk=1","11.701039999999999,75.537915"
Vayalakandy Juma Masjid,Mosque,"PG8W+9H4 Vayalakandy Juma Masjid, Palloor, Mahe, Kerala 673312",Palloor,PG8W+9H4,Mahe,673312,Kerala,IN,https://www.google.com/maps/place/Vayalakandy+Juma+Masjid/data=!4m7!3m6!1s0x3ba42930734c043b:0x60545b298552d976!8m2!3d11.7158789!4d75.5464545!16s%2Fg%2F11h_2df5tg!19sChIJOwRMczAppDsRdtlShSlbVGA?authuser=0&hl=en&rclk=1,"11.7158789,75.5464545"
Siddique Masjid (Puthiya Palli) siddikh msjid (putiy plllli),Mosque,"PG6V+FJJ Siddique Masjid (Puthiya Palli) siddikh msjid (putiy plllli), Palloor, Mahe, Kerala 673312",Palloor,PG6V+FJJ,Mahe,673312,Kerala,IN,https://www.google.com/maps/place/Siddique+Masjid+%28Puthiya+Palli%29+%E0%B4%B8%E0%B4%BF%E0%B4%A6%E0%B5%8D%E0%B4%A6%E0%B4%BF%E0%B4%96%E0%B5%8D+%E0%B4%AE%E0%B4%B8%E0%B5%8D%E0%B4%9C%E0%B4%BF%E0%B4%A6%E0%B5%8D+%28%E0%B4%AA%E0%B5%81%E0%B4%A4%E0%B4%BF%E0%B4%AF+%E0%B4%AA%E0%B4%B3%E0%B5%8D%E0%B4%B3%E0%B4%BF%29/data=!4m7!3m6!1s0x3ba429141af32e45:0x802843cbc87a8de9!8m2!3d11.7112247!4d75.5440256!16s%2Fg%2F11mvhym9fp!19sChIJRS7zGhQppDsR6Y16yMtDKIA?authuser=0&hl=en&rclk=1,"11.711224699999999,75.5440256"
Masjid(Thaatha Kulam Srambi Masjid),Mosque,"PG2V+W2J Masjid(Thaatha Kulam Srambi Masjid), Mahe, Kerala 673310",,PG2V+W2J,Mahe,673310,Kerala,IN,https://www.google.com/maps/place/Masjid%28Thaatha+Kulam+Srambi+Masjid%29/data=!4m7!3m6!1s0x3ba4281c93000005:0x34f173e30a4c3763!8m2!3d11.702339!4d75.542531!16s%2Fg%2F11g7z08z0n!19sChIJBQAAkxwopDsRYzdMCuNz8TQ?authuser=0&hl=en&rclk=1,"11.702339,75.542531"
Masjid Abrar,Mosque,"PG6R+PG9 Masjid Abrar, Peringadi, Mahe, Kerala 673312",Peringadi,PG6R+PG9,Mahe,673312,Kerala,IN,https://www.google.com/maps/place/Masjid+Abrar/data=!4m7!3m6!1s0x3ba4281070fce99b:0x87d7172ff31f91f9!8m2!3d11.7117779!4d75.5413633!16s%2Fg%2F124ykx4_m!19sChIJm-n8cBAopDsR-ZEf8y8X14c?authuser=0&hl=en&rclk=1,"11.7117779,75.5413633"
Angadi Palli,Mosque,"PG6Q+C2X Angadi Palli, Eechi Road, Palloor, New Mahe, Mahe, Kerala 673312",Palloor,"PG6Q+C2X, Eechi Road","New Mahe, Mahe",,Kerala,IN,https://www.google.com/maps/place/Angadi+Palli/data=!4m7!3m6!1s0x3ba4293454a1edff:0x9a1f74ce2f2a6ebc!8m2!3d11.7111088!4d75.5376239!16s%2Fg%2F11t8bdpl7d!19sChIJ_-2hVDQppDsRvG4qL850H5o?authuser=0&hl=en&rclk=1,"11.7111088,75.5376239"
Fareedhiya Masjid,Mosque,"3993+3PH Fareedhiya Masjid, Pullalikkara, NAD Rd, Aluva",,"3993+3PH, Pullalikkara, NAD Rd",Aluva,,Kerala,IN,https://www.google.com/maps/place/Fareedhiya+Masjid/data=!4m7!3m6!1s0x3b080fcb7434af99:0x1067ecb4a650f7a4!8m2!3d10.0676848!4d76.3543542!16s%2Fg%2F11nmqytr2q!19sChIJma80dMsPCDsRpPdQprTsZxA?authuser=0&hl=en&rclk=1,"10.0676848,76.3543542"
Juma Masjid,Mosque,"48RJ+JVP Juma Masjid, Kolbe Rd, Millupady, Veliyathunadu, Kerala 683102",Millupady,"48RJ+JVP, Kolbe Rd",Veliyathunadu,683102,Kerala,IN,https://www.google.com/maps/place/Juma+Masjid/data=!4m7!3m6!1s0x3b080f65a93aaaab:0x786834d9c6d1482b!8m2!3d10.1415848!4d76.3322056!16s%2Fg%2F11txmzc_4z!19sChIJq6o6qWUPCDsRK0jRxtk0aHg?authuser=0&hl=en&rclk=1,"10.1415848,76.3322056"
Juma Masjid,Mosque,"49QH+C74 Juma Masjid, Neduvannoor, Kerala",,49QH+C74,Neduvannoor,,Kerala,IN,https://www.google.com/maps/place/Juma+Masjid/data=!4m7!3m6!1s0x3b0809ab6964bf6f:0x750cd16298ca4a91!8m2!3d10.1385197!4d76.3781984!16s%2Fg%2F11vhhvldx0!19sChIJb79kaasJCDsRkUrKmGLRDHU?authuser=0&hl=en&rclk=1,"10.1385197,76.3781984"
Juma masjid,Mosque,"X6VC+PRJ Juma masjid, Puthuvype, Kochi, Kerala 682508",Puthuvype,X6VC+PRJ,Kochi,682508,Kerala,IN,https://www.google.com/maps/place/Juma+masjid/data=!4m7!3m6!1s0x3b08131d0ee229cf:0xe82a7035e4fc6d1c!8m2!3d9.9943351!4d76.2220021!16s%2Fg%2F11y1cyfkx5!19sChIJzyniDh0TCDsRHG385DVwKug?authuser=0&hl=en&rclk=1,"9.994335099999999,76.2220021"
Thaathakkulam Masjid Mahe,Mosque,"PG2R+VXJ Thaathakkulam Masjid Mahe, Mahe, Kerala 673310",,PG2R+VXJ,Mahe,673310,Kerala,IN,https://www.google.com/maps/place/Thaathakkulam+Masjid+Mahe/data=!4m7!3m6!1s0x3ba4291739a95447:0xe2c9439592b605b6!8m2!3d11.7021846!4d75.5424086!16s%2Fg%2F11rk001p7k!19sChIJR1SpORcppDsRtgW2kpVDyeI?authuser=0&hl=en&rclk=1,"11.702184599999999,75.5424086"
Perumundery juma masjid,Mosque,"PG8P+C82 Perumundery juma masjid, Palloor, Mahe, Kerala 670102",Palloor,PG8P+C82,Mahe,670102,Kerala,IN,https://www.google.com/maps/place/Perumundery+juma+masjid/data=!4m7!3m6!1s0x3ba429200f52d5d3:0xcdab62113a3004fa!8m2!3d11.7160194!4d75.5357719!16s%2Fg%2F11m_jxxfwk!19sChIJ09VSDyAppDsR-gQwOhFiq80?authuser=0&hl=en&rclk=1,"11.716019399999999,75.5357719"
Madrasathul Islamiyya masjid,Mosque,"V8XP+JG9 Madrasathul Islamiyya masjid, Cheppanam Chattamma Rd, Cheppanam, Ernakulam, Kerala 682506",Cheppanam,"V8XP+JG9, Cheppanam Chattamma Rd",Ernakulam,682506,Kerala,IN,https://www.google.com/maps/place/Madrasathul+Islamiyya+masjid/data=!4m7!3m6!1s0x3b08732d85087a33:0xa7be9c35a190da15!8m2!3d9.8990395!4d76.336373!16s%2Fg%2F11scnmxp83!19sChIJM3oIhS1zCDsRFdqQoTWcvqc?authuser=0&hl=en&rclk=1,"9.899039499999999,76.336373"
Refayi Masjid,Mosque,"MGQR+RM5 Refayi Masjid, Mahe, Kerala 673310",,MGQR+RM5,Mahe,673310,Kerala,IN,https://www.google.com/maps/place/Refayi+Masjid/data=!4m7!3m6!1s0x3ba682a52e900001:0x86a77aa8e5bbdc2c!8m2!3d11.6895114!4d75.5417264!16s%2Fg%2F11txmzfgs4!19sChIJAQCQLqWCpjsRLNy75ah6p4Y?authuser=0&hl=en&rclk=1,"11.689511399999999,75.5417264"
Peringadi Jummath palli,Mosque,"PG5R+HJ2 Peringadi Jummath palli, Palam Rd, Peringadi, Mahe, Kerala 673312",Peringadi,"PG5R+HJ2, Palam Rd",Mahe,673312,Kerala,IN,https://www.google.com/maps/place/Peringadi+Jummath+palli/data=!4m7!3m6!1s0x3ba429dbfbbdab6f:0xe107232fc1662b71!8m2!3d11.7073718!4d75.5432664!16s%2Fg%2F11shzmt9_d!19sChIJb6u9-9sppDsRcStmwS8jB-E?authuser=0&hl=en&rclk=1,"11.707371799999999,75.5432664"
Asya Road Masjid,Mosque,"MGXR+3Q2 Asya Road Masjid, Azhiyur, Mahe, Kerala 673310",,MGXR+3Q2,"Azhiyur, Mahe",,Kerala,IN,https://www.google.com/maps/place/Asya+Road+Masjid/data=!4m7!3m6!1s0x3ba682a7ab820e4d:0x6bb6489cf11291ee!8m2!3d11.6976253!4d75.5418892!16s%2Fg%2F11f384gf7k!19sChIJTQ6Cq6eCpjsR7pES8ZxItms?authuser=0&hl=en&rclk=1,"11.6976253,75.5418892"
