name,main_category,address,address_ward,address_street,address_city,address_postal_code,address_state,address_country_code,link,coordinates
Rajdhani Masjid,Mosque,"4QRP+JGP Rajdhani Masjid, Hatigaon Bhetapara Rd, Mula Gabharu Path, Hatigaon, Guwahati, Assam 781006","Mula Gabharu Path, Hatigaon","4QRP+JGP, Hatigaon Bhetapara Rd",Guwahati,781006,Assam,IN,https://www.google.com/maps/place/Rajdhani+Masjid/data=!4m7!3m6!1s0x375a592472ab2557:0xf8d760d9ce2db0f1!8m2!3d26.1415961!4d91.7863301!16s%2Fg%2F1tffh3sz!19sChIJVyWrciRZWjcR8bAtztlg1_g?authuser=0&hl=en&rclk=1,"26.141596099999997,91.7863301"
Katabari 1 No Masjid,Mosque,"4PC9+C3P Katabari 1 No Masjid, Dhirenpara, Guwahati, Assam 781009",Dhirenpara,4PC9+C3P,Guwahati,,Assam,IN,https://www.google.com/maps/place/Katabari+1+No+Masjid/data=!4m7!3m6!1s0x375a5c7e8c78276d:0x8a83cd440a4bd778!8m2!3d26.1211!4d91.7177!16s%2Fg%2F1pyql283v!19sChIJbSd4jH5cWjcReNdLCkTNg4o?authuser=0&hl=en&rclk=1,"26.1211,91.7177"
Kumarpara Masjid,Mosque,"5PFP+HF8 Kumarpara Masjid, Kumarpara Rd, Kumarpara, Athgaon, Guwahati, Assam 781001","Kumarpara, Athgaon","5PFP+HF8, Kumarpara Rd",Guwahati,781001,Assam,IN,https://www.google.com/maps/place/Kumarpara+Masjid/data=!4m7!3m6!1s0x375a5a35235f451f:0xf1b6d7b6120e446b!8m2!3d26.1739137!4d91.7362005!16s%2Fg%2F1pyqg6q6l!19sChIJH0VfIzVaWjcRa0QOErbXtvE?authuser=0&hl=en&rclk=1,"26.1739137,91.7362005"
"Islampur Masjid, Guwahati Club",Mosque,"Islampur Masjid, Guwahati Club, Islampur Kabarstan Rd, Gandhi Basti, Sarania Hills, Guwahati, Assam 781003","Gandhi Basti, Sarania Hills",Islampur Kabarstan Rd,Guwahati,781003,Assam,IN,"https://www.google.com/maps/place/Islampur+Masjid,+Guwahati+Club/data=!4m7!3m6!1s0x375a59844a7269d9:0x911dfc437d3b7ca6!8m2!3d26.1814412!4d91.7600267!16s%2Fg%2F1pyqh9m_h!19sChIJ2WlySoRZWjcRpnw7fUP8HZE?authuser=0&hl=en&rclk=1","26.1814412,91.7600267"
Jama Masjid: Lakhtokia,Mosque,"5PJV+WHC Jama Masjid: Lakhtokia, Col. J. Ali Rd, Lakhtokia, Fancy Bazaar, Guwahati, Assam 781001","Lakhtokia, Fancy Bazaar","5PJV+WHC, Col. J. Ali Rd",Guwahati,781001,Assam,IN,https://www.google.com/maps/place/Jama+Masjid:+Lakhtokia/data=!4m7!3m6!1s0x375a5a30266c78cd:0x8476ecb232a0f76d!8m2!3d26.1823038!4d91.7439022!16s%2Fg%2F1w0hyztj!19sChIJzXhsJjBaWjcRbfegMrLsdoQ?authuser=0&hl=en&rclk=1,"26.1823038,91.7439022"
"Burha Jame Masjid, Ambari",Mosque,"5QM4+XF2 Burha Jame Masjid, Ambari, GNB Rd, Ambari, Guwahati, Assam 781003",Ambari,"5QM4+XF2, GNB Rd",Guwahati,781003,Assam,IN,"https://www.google.com/maps/place/Burha+Jame+Masjid,+Ambari/data=!4m7!3m6!1s0x375a59887e991119:0x6934e304786553c8!8m2!3d26.1848988!4d91.7561283!16s%2Fg%2F1pyqj9nk2!19sChIJGRGZfohZWjcRyFNleATjNGk?authuser=0&hl=en&rclk=1","26.1848988,91.7561283"
Athgaon Jama Masjid,Mosque,"5PFQ+MX8 Athgaon Jama Masjid, Athgaon, Guwahati, Assam 781001",Athgaon,5PFQ+MX8,Guwahati,781001,Assam,IN,https://www.google.com/maps/place/Athgaon+Jama+Masjid/data=!4m7!3m6!1s0x375a5a3342bc64cf:0x3f859bcb8ae1c522!8m2!3d26.1741528!4d91.7399465!16s%2Fg%2F1tpc6b3w!19sChIJz2S8QjNaWjcRIsXhisubhT8?authuser=0&hl=en&rclk=1,"26.174152799999998,91.7399465"
Milanpur Purana Masjid ( Masjid No 1 ),Mosque,"5QRJ+3GM Milanpur Purana Masjid ( Masjid No 1 ), Milanpur, West Jyotinagar, Bamunimaidan, Guwahati, Assam 781021","Milanpur, West Jyotinagar, Bamunimaidan",5QRJ+3GM,Guwahati,781021,Assam,IN,https://www.google.com/maps/place/Milanpur+Purana+Masjid+%28+Masjid+No+1+%29/data=!4m7!3m6!1s0x375a59b9889afef3:0xa3206ea3fd6807ed!8m2!3d26.1902!4d91.7813!16s%2Fg%2F1pyqr6m0x!19sChIJ8_6aiLlZWjcR7Qdo_aNuIKM?authuser=0&hl=en&rclk=1,"26.190199999999997,91.7813"
Birubari Jama Masjid,Mosque,"5Q54+8HM Birubari Jama Masjid, Birubari Main Rd, Birubari, Guwahati, Assam 781016",Birubari,"5Q54+8HM, Birubari Main Rd",Guwahati,781016,Assam,IN,https://www.google.com/maps/place/Birubari+Jama+Masjid/data=!4m7!3m6!1s0x375a5bd9f284198d:0x49031a974acc262e!8m2!3d26.1595!4d91.7496!16s%2Fg%2F1pyqgzv6g!19sChIJjRmE8tlbWjcRLibMSpcaA0k?authuser=0&hl=en&rclk=1,"26.159499999999998,91.7496"
"Hedayetpur Jame Masjid, Guwahati Club",Mosque,"Hedayetpur Jame Masjid, Guwahati Club, Hedayatpur, Guwahati Club, Guwahati, Assam 781003","Hedayatpur, Guwahati Club",,Guwahati,781003,Assam,IN,"https://www.google.com/maps/place/Hedayetpur+Jame+Masjid,+Guwahati+Club/data=!4m7!3m6!1s0x375a59860fc1f2d1:0xd8566162f8175eed!8m2!3d26.1835283!4d91.7581575!16s%2Fg%2F1pyqkyhsc!19sChIJ0fLBD4ZZWjcR7V4X-GJhVtg?authuser=0&hl=en&rclk=1","26.1835283,91.7581575"
Ulubari Jama Masjid,Mosque,"5QG3+PQC Ulubari Jama Masjid, GS Rd, Opposite Volvo Bus Counter, Opposite Flyover Bridge, Manipuri Rajbari, Ulubari, Guwahati, Assam 781007","Opposite Flyover Bridge, Manipuri Rajbari, Ulubari","5QG3+PQC, GS Rd, Opposite Volvo Bus Counter",Guwahati,781007,Assam,IN,https://www.google.com/maps/place/Ulubari+Jama+Masjid/data=!4m7!3m6!1s0x375a59809841bd71:0x8fa3441ab3c35a95!8m2!3d26.1768135!4d91.7543946!16s%2Fg%2F1pyqk08bn!19sChIJcb1BmIBZWjcRlVrDsxpEo48?authuser=0&hl=en&rclk=1,"26.176813499999998,91.7543946"
"Guwahati University Masjid,. Garigaon Bidyanagar",Mosque,"Guwahati University Masjid,. Garigaon Bidyanagar, NH 17, Garigaon Main Rd, Bidyanagar, Garigaon, Jalukbari, Guwahati, Assam 781012","Bidyanagar, Jalukbari","NH 17, Garigaon Main Rd, Bidyanagar, Garigaon",Guwahati,781012,Assam,IN,"https://www.google.com/maps/place/Guwahati+University+Masjid,.+Garigaon+Bidyanagar/data=!4m7!3m6!1s0x375a44c39bf05467:0x1da076b759a79966!8m2!3d26.1584152!4d91.6606245!16s%2Fg%2F11_q2xhgr!19sChIJZ1Twm8NEWjcRZpmnWbd2oB0?authuser=0&hl=en&rclk=1","26.1584152,91.6606245"
Lachit Nagar Jame Masjid,Mosque,"5Q98+QRJ Lachit Nagar Jame Masjid, Lachit Nagar, Guwahati, Assam 781007",Lachit Nagar,5Q98+QRJ,Guwahati,781007,Assam,IN,https://www.google.com/maps/place/Lachit+Nagar+Jame+Masjid/data=!4m7!3m6!1s0x375a5976f254841f:0xeb7250c7412511c6!8m2!3d26.1694675!4d91.7670158!16s%2Fg%2F1pyqn96cl!19sChIJH4RU8nZZWjcRxhElQcdQcus?authuser=0&hl=en&rclk=1,"26.1694675,91.7670158"
Shahnagar Masjid,Mosque,"Shahnagar Masjid, 31, Laxmi Nath Bezbaruah Path, Juripar, Hatigaon, Guwahati, Assam 781038","Juripar, Hatigaon","31, Laxmi Nath Bezbaruah Path",Guwahati,781038,Assam,IN,https://www.google.com/maps/place/Shahnagar+Masjid/data=!4m7!3m6!1s0x375a5936d9ad9747:0xd4637e2d9fd9a34a!8m2!3d26.1337!4d91.7775!16s%2Fg%2F1pyqgnngt!19sChIJR5et2TZZWjcRSqPZny1-Y9Q?authuser=0&hl=en&rclk=1,"26.133699999999997,91.77749999999999"
South Sarania Jame Masjid,Mosque,"South Sarania Jame Masjid, 10B, Gandhi Basti Rd, South Sarania, Gandhi Basti, Sarania Hills, Guwahati, Assam 781003","South Sarania, Gandhi Basti, Sarania Hills","10B, Gandhi Basti Rd",Guwahati,781003,Assam,IN,https://www.google.com/maps/place/South+Sarania+Jame+Masjid/data=!4m7!3m6!1s0x375a599cd2ccbc2b:0xd1215f45c0140d41!8m2!3d26.1759455!4d91.7635471!16s%2Fg%2F1v1tlfwb!19sChIJK7zM0pxZWjcRQQ0UwEVfIdE?authuser=0&hl=en&rclk=1,"26.175945499999997,91.7635471"
Kalyanpur Jama Masjid,Mosque,"Kalyanpur Jama Masjid, Ganeshguri, Kalyanpur, 44, Mandakini Path, near by DC OFFICE, GMC Ward Number 44, Hengrabari, Guwahati, Assam 781006","GMC Ward Number 44, Hengrabari","Ganeshguri, Kalyanpur, 44, Mandakini Path, near by DC OFFICE",Guwahati,781006,Assam,IN,https://www.google.com/maps/place/Kalyanpur+Jama+Masjid/data=!4m7!3m6!1s0x375a591ed6977081:0xf7ed89272bffcd81!8m2!3d26.1514739!4d91.7891957!16s%2Fg%2F1tgwl14r!19sChIJgXCX1h5ZWjcRgc3_KyeJ7fc?authuser=0&hl=en&rclk=1,"26.1514739,91.7891957"
Christian Basti Masjid,Mosque,"5Q4F+8X6 Christian Basti Masjid, Christian Basti, Guwahati, Assam 781034",Christian Basti,5Q4F+8X6,Guwahati,781034,Assam,IN,https://www.google.com/maps/place/Christian+Basti+Masjid/data=!4m7!3m6!1s0x375a59136c0cbabb:0xb7a1750977d63a14!8m2!3d26.1558!4d91.7749!16s%2Fg%2F1pyqqyc80!19sChIJu7oMbBNZWjcRFDrWdwl1obc?authuser=0&hl=en&rclk=1,"26.1558,91.7749"
Zoo-Narengi Road Masjid,Mosque,"Zoo-Narengi Road Masjid, House No.14, Mother Teresa Rd, South By Lane No.1, Surojit Gogoi Rd, Zoo Road Tiniali, Guwahati, Assam 781024","Zoo Road Tiniali, Ambikagirinagar","House No.14, Mother Teresa Rd, South By Lane No.1, Surojit Gogoi Rd",Guwahati,781024,Assam,IN,https://www.google.com/maps/place/Zoo-Narengi+Road+Masjid/data=!4m7!3m6!1s0x375a59a0b3733a61:0xba60566acb8a2eb2!8m2!3d26.1734532!4d91.7783075!16s%2Fg%2F1pyqv14zw!19sChIJYTpzs6BZWjcRsi6Ky2pWYLo?authuser=0&hl=en&rclk=1,"26.173453199999997,91.7783075"
Sijubari Burah Jama Masjid,Mosque,"4QHH+XP3 Sijubari Burah Jama Masjid, Masjid Path, Sijubari, Hatigaon, Guwahati, Assam 781038","Sijubari, Hatigaon","4QHH+XP3, Masjid Path",Guwahati,781038,Assam,IN,https://www.google.com/maps/place/Sijubari+Burah+Jama+Masjid/data=!4m7!3m6!1s0x375a5933e99faf63:0xae52f23eca7a8ee2!8m2!3d26.1299!4d91.7793!16s%2Fg%2F1pyqf49zz!19sChIJY6-f6TNZWjcR4o56yj7yUq4?authuser=0&hl=en&rclk=1,"26.1299,91.77929999999999"
Cycle Factory Masjid,Mosque,"Cycle Factory Masjid, Cycle Factory, Milan Path, Fatasil Ambari, Guwahati, Assam 781016",Fatasil Ambari,"Cycle Factory, Milan Path",Guwahati,781016,Assam,IN,https://www.google.com/maps/place/Cycle+Factory+Masjid/data=!4m7!3m6!1s0x375a5b7f388d7449:0xde585d4bc6e85228!8m2!3d26.1602392!4d91.7392491!16s%2Fg%2F11hdnh7hgk!19sChIJSXSNOH9bWjcRKFLoxktdWN4?authuser=0&hl=en&rclk=1,"26.1602392,91.7392491"
Japorigog Jama Masjid,Mosque,"Japorigog Jama Masjid, 72, Shivam Path, Japorigog, Guwahati, Assam 781005",Japorigog,"72, Shivam Path",Guwahati,781005,Assam,IN,https://www.google.com/maps/place/Japorigog+Jama+Masjid/data=!4m7!3m6!1s0x375a591da8ab0a2f:0xd6747bf2d86c2076!8m2!3d26.1573523!4d91.7908848!16s%2Fg%2F1pyqq3d8y!19sChIJLwqrqB1ZWjcRdiBs2PJ7dNY?authuser=0&hl=en&rclk=1,"26.1573523,91.7908848"
"Anowarpur Masjid, Bhangaghar",Mosque,"5Q79+P56 Anowarpur Masjid, Bhangaghar, Bhangagarh, Guwahati, Assam 781007",Bhangagarh,5Q79+P56,Guwahati,781007,Assam,IN,"https://www.google.com/maps/place/Anowarpur+Masjid,+Bhangaghar/data=!4m7!3m6!1s0x375a597165539b27:0xa536c6b1f80e80e3!8m2!3d26.1643!4d91.7679!16s%2Fg%2F1pyqnpqfp!19sChIJJ5tTZXFZWjcR44AO-LHGNqU?authuser=0&hl=en&rclk=1","26.164299999999997,91.7679"
Chandmari Masjid,Mosque,"5QMG+8F9 Chandmari Masjid, Maniram Dawan Road, Bamunimaidan, Guwahati, Assam 781003",Bamunimaidan,"5QMG+8F9, Maniram Dawan Road",Guwahati,781003,Assam,IN,https://www.google.com/maps/place/Chandmari+Masjid/data=!4m7!3m6!1s0x375a59a32596fd29:0x21eb20c8b5375a76!8m2!3d26.1832999!4d91.7762341!16s%2Fg%2F1pyqmg02p!19sChIJKf2WJaNZWjcRdlo3tcgg6yE?authuser=0&hl=en&rclk=1,"26.183299899999998,91.7762341"
Navagiri Jama Masjid,Mosque,"no. 7 B, Navagiri Jama Masjid, Chandmari Navagiri Rd, Krishna Nagar, Chandmari, Guwahati, Assam 781004","Krishna Nagar, Chandmari","no. 7 B, Chandmari Navagiri Rd",Guwahati,781004,Assam,IN,https://www.google.com/maps/place/Navagiri+Jama+Masjid/data=!4m7!3m6!1s0x375a59bd7fcc00e5:0xb3a7756cbd974fb3!8m2!3d26.1870262!4d91.7734344!16s%2Fg%2F11b5wppmp7!19sChIJ5QDMf71ZWjcRs0-XvWx1p7M?authuser=0&hl=en&rclk=1,"26.1870262,91.7734344"
Srimantapur Chilarai Jamme Masjid,Mosque,"5Q77+RXX Srimantapur Chilarai Jamme Masjid, L P School Masjid Lane, By Lane 4, Srimantapur, Nabin Nagar, Guwahati, Assam 781003","Srimantapur, Nabin Nagar","5Q77+RXX, L P School Masjid Lane, By Lane 4",Guwahati,781003,Assam,IN,https://www.google.com/maps/place/Srimantapur+Chilarai+Jamme+Masjid/data=!4m7!3m6!1s0x375a5970ec8bce09:0x7810f63369e27e25!8m2!3d26.1646188!4d91.7649767!16s%2Fg%2F11dfknm2vc!19sChIJCc6L7HBZWjcRJX7iaTP2EHg?authuser=0&hl=en&rclk=1,"26.1646188,91.76497669999999"
Machkhowa Bura Masjid,Mosque,"Machkhowa Bura Masjid, Fayez Ahmed Rd, Machkhowa, Guwahati, Assam 781001",Machkhowa,Fayez Ahmed Rd,Guwahati,781001,Assam,IN,https://www.google.com/maps/place/Machkhowa+Bura+Masjid/data=!4m7!3m6!1s0x375a5a35a382a8f5:0x7f20357fb838436a!8m2!3d26.1762225!4d91.7358881!16s%2Fg%2F1pyqsnm5w!19sChIJ9aiCozVaWjcRakM4uH81IH8?authuser=0&hl=en&rclk=1,"26.176222499999998,91.7358881"
Jyotikuchi Jama Masjid,Mosque,"4PMP+HP3 Jyotikuchi Jama Masjid, Lokhra Rd, Sonaighuli, Guwahati, Assam 781034",Sonaighuli,"4PMP+HP3, Lokhra Rd",Guwahati,781034,Assam,IN,https://www.google.com/maps/place/Jyotikuchi+Jama+Masjid/data=!4m7!3m6!1s0x375a5bf3076ee331:0xeec8290bcc9bc3b!8m2!3d26.1339!4d91.7368!16s%2Fg%2F1pyqvjrx8!19sChIJMeNuB_NbWjcRO7zJvJCC7A4?authuser=0&hl=en&rclk=1,"26.1339,91.7368"
Chenikuthi Masjid,Mosque,"Chenikuthi Masjid, 12, Principal J B Rd, Chenikuthi, Guwahati, Assam 781003",Chenikuthi,"12, Principal J B Rd",Guwahati,781003,Assam,IN,https://www.google.com/maps/place/Chenikuthi+Masjid/data=!4m7!3m6!1s0x375a598f2cf5f177:0x998e63c1dcf4a01!8m2!3d26.1868!4d91.7589!16s%2Fg%2F1pyqryh26!19sChIJd_H1LI9ZWjcRAUrPHTzmmAk?authuser=0&hl=en&rclk=1,"26.186799999999998,91.7589"
Mallick Aluminium,Mosque,"Mallick Aluminium, Masjid Path, Maligaon, Dhirenpara, Tila, Guwahati, Assam 781025","Maligaon, Dhirenpara",Masjid Path,"Tila, Guwahati",781025,Assam,IN,https://www.google.com/maps/place/Mallick+Aluminium/data=!4m7!3m6!1s0x375a5b906f8db7e3:0xe081d7f2b16f6219!8m2!3d26.1506125!4d91.7306012!16s%2Fg%2F11h5dn122z!19sChIJ47eNb5BbWjcRGWJvsfLXgeA?authuser=0&hl=en&rclk=1,"26.150612499999998,91.7306012"
Barsajai Jama Masjid,Mosque,"Barsajai Jama Masjid, 4A, Barnali Path, Sijubari, Hatigaon, Guwahati, Assam 781038","Sijubari, Hatigaon","4A, Barnali Path",Guwahati,781038,Assam,IN,https://www.google.com/maps/place/Barsajai+Jama+Masjid/data=!4m7!3m6!1s0x375a5ed299e04edb:0x720666f6b754393!8m2!3d26.1231876!4d91.7834548!16s%2Fg%2F1pyqf49_2!19sChIJ207gmdJeWjcRk0N1a29mIAc?authuser=0&hl=en&rclk=1,"26.123187599999998,91.7834548"
"Masjid-e-Sheikh, Ulubari",Mosque,"5QF5+XW4 Masjid-e-Sheikh, Ulubari, Ashram Rd, Sarania Hills,ulubari Guwahati, Assam, Guwahati","South Sarania, Lachit Nagar","5QF5+XW4, Ashram Rd, Sarania Hills,ulubari Guwahati, Assam",Guwahati,,Assam,IN,"https://www.google.com/maps/place/Masjid-e-Sheikh,+Ulubari/data=!4m7!3m6!1s0x375a598237a39045:0xa0c2f0aef953124a!8m2!3d26.1748929!4d91.759824!16s%2Fg%2F1tfq300f!19sChIJRZCjN4JZWjcRShJT-a7wwqA?authuser=0&hl=en&rclk=1","26.1748929,91.759824"
Uzanbazar Islampatty Jame Masjid,Mosque,"Uzanbazar Islampatty Jame Masjid, 16, Bhuban Rd, Latasil, Uzan Bazar, Guwahati, Assam 781001","Latasil, Uzan Bazar","16, Bhuban Rd",Guwahati,781001,Assam,IN,https://www.google.com/maps/place/Uzanbazar+Islampatty+Jame+Masjid/data=!4m7!3m6!1s0x375a598a5a957fa1:0x445a99b0e72e40a9!8m2!3d26.19258!4d91.7556402!16s%2Fg%2F11dfjclzpy!19sChIJoX-VWopZWjcRqUAu57CZWkQ?authuser=0&hl=en&rclk=1,"26.19258,91.7556402"
Jyotinagar Masjid,Mosque,"5QQQ+2QX Jyotinagar Masjid, Jyoti Nagar Rd, Jyoti Nagar, Bamunimaidan, Guwahati, Assam 781021","Jyoti Nagar, Bamunimaidan","5QQQ+2QX, Jyoti Nagar Rd",Guwahati,781021,Assam,IN,https://www.google.com/maps/place/Jyotinagar+Masjid/data=!4m7!3m6!1s0x375a59b3b0ad778d:0x4ea6b2492081ddac!8m2!3d26.1876!4d91.7895!16s%2Fg%2F1pyqwbd9r!19sChIJjXetsLNZWjcRrN2BIEmypk4?authuser=0&hl=en&rclk=1,"26.1876,91.78949999999999"
Panja Gama Masjid,Mosque,"5QH6+6RX Panja Gama Masjid, South Sarania, Sarania Hills, Guwahati, Assam 781003","South Sarania, Sarania Hills",5QH6+6RX,Guwahati,781003,Assam,IN,https://www.google.com/maps/place/Panja+Gama+Masjid/data=!4m7!3m6!1s0x375a59836733a0af:0xe7c817af0a48274e!8m2!3d26.1781125!4d91.7621193!16s%2Fg%2F1pyqrhxcn!19sChIJr6AzZ4NZWjcRTidICq8XyOc?authuser=0&hl=en&rclk=1,"26.178112499999997,91.7621193"
New Guwahati Railway Colony Masjid,Mosque,"5QJM+35C New Guwahati Railway Colony Masjid, Railway Colony Rd, Sahib Tila, Railway Colony, Guwahati, Assam 781003","Sahib Tila, Railway Colony","5QJM+35C, Railway Colony Rd",Guwahati,781003,Assam,IN,https://www.google.com/maps/place/New+Guwahati+Railway+Colony+Masjid/data=!4m7!3m6!1s0x375a59a588e56dfb:0xa9ea3174bda0d697!8m2!3d26.1802!4d91.7829!16s%2Fg%2F1pyqhkyn9!19sChIJ-23liKVZWjcRl9agvXQx6qk?authuser=0&hl=en&rclk=1,"26.1802,91.7829"
Jayanta Nagar Jame Masjid,Mosque,"Jayanta Nagar Jame Masjid, Guwahati Refinery Link Rd, Sector 2, Jayanta Nagar, Noonmati, Guwahati, Assam 781020","Sector 2, Jayanta Nagar, Noonmati",Guwahati Refinery Link Rd,Guwahati,781020,Assam,IN,https://www.google.com/maps/place/Jayanta+Nagar+Jame+Masjid/data=!4m7!3m6!1s0x375a584ed0b4d06f:0xafdb55eda6acfe96!8m2!3d26.1896073!4d91.7979759!16s%2Fg%2F11g8w7_y1g!19sChIJb9C00E5YWjcRlv6spu1V268?authuser=0&hl=en&rclk=1,"26.1896073,91.7979759"
Lakhtokia 1 No Masjid Field,Mosque,"5PMV+2H9 Lakhtokia 1 No Masjid Field, Pan Bazaar, Guwahati, Assam 781001",Pan Bazaar,5PMV+2H9,Guwahati,781001,Assam,IN,https://www.google.com/maps/place/Lakhtokia+1+No+Masjid+Field/data=!4m7!3m6!1s0x375a5bbdf3451e1f:0x18732529ab9af130!8m2!3d26.1825364!4d91.7439787!16s%2Fg%2F11h00901jd!19sChIJHx5F871bWjcRMPGaqyklcxg?authuser=0&hl=en&rclk=1,"26.1825364,91.7439787"
Tarun Nagar Masjid,Mosque,"5Q8F+438 Tarun Nagar Masjid, SATSANG VIHAR, Bhangagarh, Guwahati, Assam 781006","SATSANG VIHAR, Bhangagarh",5Q8F+438,Guwahati,781006,Assam,IN,https://www.google.com/maps/place/Tarun+Nagar+Masjid/data=!4m7!3m6!1s0x375a5973460e5515:0xdbe6d18a6f951b78!8m2!3d26.1652999!4d91.7727!16s%2Fg%2F1pyqvmztr!19sChIJFVUORnNZWjcReBuVb4rR5ts?authuser=0&hl=en&rclk=1,"26.165299899999997,91.7727"
Dighalipukhuri Masjid,Mosque,"5QQ2+WMM Dighalipukhuri Masjid, Dighalipukhuri, Guwahati, Assam 781001",Dighalipukhuri,5QQ2+WMM,Guwahati,781001,Assam,IN,https://www.google.com/maps/place/Dighalipukhuri+Masjid/data=!4m7!3m6!1s0x375a5a2729245e05:0x5df0cf9018d9231a!8m2!3d26.1898389!4d91.7516733!16s%2Fg%2F1pyqh9nz2!19sChIJBV4kKSdaWjcRGiPZGJDP8F0?authuser=0&hl=en&rclk=1,"26.189838899999998,91.7516733"
A K DEV Road Masjid,Mosque,"5P2H+8XC A K DEV Road Masjid, AK Dev Rd, Dhirenpara, Fatasil Ambari, Guwahati, Assam 781001","Dhirenpara, Fatasil Ambari","5P2H+8XC, AK Dev Rd",Guwahati,781001,Assam,IN,https://www.google.com/maps/place/A+K+DEV+Road+Masjid/data=!4m7!3m6!1s0x375a5bbe7342fcfd:0xb7c2e07ce7961c3b!8m2!3d26.1508!4d91.7299!16s%2Fg%2F1pyqnk1sz!19sChIJ_fxCc75bWjcROxyW53zgwrc?authuser=0&hl=en&rclk=1,"26.1508,91.7299"
"Dakhingaon Sahih Ahle Hadish Jama Masjid, Guwahati",Mosque,"4QH7+73H Dakhingaon Sahih Ahle Hadish Jama Masjid, Guwahati, Sawkuchi, Guwahati, Assam 781040",Sawkuchi,4QH7+73H,Guwahati,781040,Assam,IN,"https://www.google.com/maps/place/Dakhingaon+Sahih+Ahle+Hadish+Jama+Masjid,+Guwahati/data=!4m7!3m6!1s0x375a59526206447d:0x323d65e9ea95750d!8m2!3d26.1281888!4d91.7627367!16s%2Fg%2F11g8wj4ryp!19sChIJfUQGYlJZWjcRDXWV6ullPTI?authuser=0&hl=en&rclk=1","26.1281888,91.76273669999999"
Mosque,Mosque,"5QFH+C84 Mosque, Ambikagirinagar, Guwahati, Assam 781005",Ambikagirinagar,5QFH+C84,Guwahati,781005,Assam,IN,https://www.google.com/maps/place/Mosque/data=!4m7!3m6!1s0x375a59a74b11f479:0xfe2f9a16e9ecfb9e!8m2!3d26.1735017!4d91.7783218!16s%2Fg%2F1td1stfv!19sChIJefQRS6dZWjcRnvvs6RaaL_4?authuser=0&hl=en&rclk=1,"26.1735017,91.7783218"
Bhaskar Nagar Jame Masjid,Mosque,"5QGJ+V5C Bhaskar Nagar Jame Masjid, Bhaskar Nagar, Guwahati, Assam 781003",Bhaskar Nagar,5QGJ+V5C,Guwahati,781003,Assam,IN,https://www.google.com/maps/place/Bhaskar+Nagar+Jame+Masjid/data=!4m7!3m6!1s0x375a598ad3c19021:0x16603bc645dfa136!8m2!3d26.1771924!4d91.7803923!16s%2Fg%2F11j2c9nb2d!19sChIJIZDB04pZWjcRNqHfRcY7YBY?authuser=0&hl=en&rclk=1,"26.1771924,91.7803923"
Masjid guwahati,Mosque,"5P9Q+6HX Masjid guwahati, Bishnupur, Fatasil Ambari, Guwahati, Assam 781001","Bishnupur, Fatasil Ambari",5P9Q+6HX,Guwahati,781001,Assam,IN,https://www.google.com/maps/place/Masjid+guwahati/data=!4m7!3m6!1s0x375a5b805c5a830b:0xc7265ab245f4acbc!8m2!3d26.1681208!4d91.7389846!16s%2Fg%2F11j3vxsgtj!19sChIJC4NaXIBbWjcRvKz0RbJaJsc?authuser=0&hl=en&rclk=1,"26.1681208,91.7389846"
"Lachit Nagar Masjid , Kanaklata Path",Mosque,"house no.9, Lachit Nagar Masjid , Kanaklata Path, Sandor Medicaids Pvt. Ltd, Bye Lane, 12, Lachit Nagar Main Rd, Lachit Nagar, Guwahati, Assam 781003",Lachit Nagar,"house no.9, Sandor Medicaids Pvt. Ltd, Bye Lane, 12, Lachit Nagar Main Rd",Guwahati,781003,Assam,IN,"https://www.google.com/maps/place/Lachit+Nagar+Masjid+,+Kanaklata+Path/data=!4m7!3m6!1s0x375a5939c6608ce7:0xe52883f4882a4943!8m2!3d26.1704216!4d91.7683583!16s%2Fg%2F11fklh48hy!19sChIJ54xgxjlZWjcRQ0kqiPSDKOU?authuser=0&hl=en&rclk=1","26.170421599999997,91.7683583"
Khanqah e Hasni Huzoori Masjid,Mosque,"5QG6+3QF Khanqah e Hasni Huzoori Masjid, S Sarania Rd, South Sarania, Sarania Hills, Guwahati, Assam 781007","South Sarania, Sarania Hills","5QG6+3QF, S Sarania Rd",Guwahati,781007,Assam,IN,https://www.google.com/maps/place/Khanqah+e+Hasni+Huzoori+Masjid/data=!4m7!3m6!1s0x375a59681142ee6f:0x769bf153df47ec71!8m2!3d26.1751957!4d91.7619334!16s%2Fg%2F11mwwm_cr6!19sChIJb-5CEWhZWjcRcexH31Pxm3Y?authuser=0&hl=en&rclk=1,"26.1751957,91.76193339999999"
Islampur Boro Masjid,Mosque,"Islampur Boro Masjid, 22, Hazi Musafir Khana Rd, Gandhi Basti, Sarania Hills, Guwahati, Assam 781007","Gandhi Basti, Sarania Hills","22, Hazi Musafir Khana Rd",Guwahati,781007,Assam,IN,https://www.google.com/maps/place/Islampur+Boro+Masjid/data=!4m7!3m6!1s0x375a59a57c66ded1:0xfcb13565fc2c4ae4!8m2!3d26.1798525!4d91.7613954!16s%2Fg%2F11fj45pb7s!19sChIJ0d5mfKVZWjcR5Eos_GU1sfw?authuser=0&hl=en&rclk=1,"26.1798525,91.7613954"
3 no masjid,Mosque,"4PWF+GJ6 3 no masjid, Jyoti Path, Dhirenpara, Guwahati, Assam 781009",Dhirenpara,"4PWF+GJ6, Jyoti Path",Guwahati,781009,Assam,IN,https://www.google.com/maps/place/3+no+masjid/data=!4m7!3m6!1s0x375a5b4b32b5bd55:0x7699457dafdf1a0a!8m2!3d26.1462871!4d91.7240113!16s%2Fg%2F11lfzzprxn!19sChIJVb21MktbWjcRChrfr31FmXY?authuser=0&hl=en&rclk=1,"26.1462871,91.7240113"
Santipur Jame Masjid,Mosque,"5P9G+8H6 Santipur Jame Masjid, Santipur, Guwahati, Assam 781009",Santipur,5P9G+8H6,Guwahati,781009,Assam,IN,https://www.google.com/maps/place/Santipur+Jame+Masjid/data=!4m7!3m6!1s0x375a5bf1733c4adb:0xb59e95a7d010b036!8m2!3d26.1684008!4d91.7259112!16s%2Fg%2F11v11ggzd5!19sChIJ20o8c_FbWjcRNrAQ0KeVnrU?authuser=0&hl=en&rclk=1,"26.1684008,91.7259112"
Lalmati Jama Masjid,Mosque,"5QH6+6RX Lalmati Jama Masjid, Lalmati Rd, South Sarania, Gandhi Basti, Sarania Hills, Guwahati, Assam 781003","South Sarania, Gandhi Basti, Sarania Hills","5QH6+6RX, Lalmati Rd",Guwahati,781003,Assam,IN,https://www.google.com/maps/place/Lalmati+Jama+Masjid/data=!4m7!3m6!1s0x375a59e94bc5d6a3:0xdffce4fbe711b320!8m2!3d26.1781044!4d91.7621134!16s%2Fg%2F11tcqwfqmk!19sChIJo9bFS-lZWjcRILMR5_vk_N8?authuser=0&hl=en&rclk=1,"26.1781044,91.76211339999999"
Ganesh Nagar Jame Masjid.Guwahati 781021,Mosque,"Ganesh Nagar Jame Masjid.Guwahati 781021, Jame Masjid, Jyotinagar, Ganesh Nagar, Noonmati, Guwahati, Assam 781021","Jyotinagar, Ganesh Nagar, Noonmati",Jame Masjid,Guwahati,781021,Assam,IN,https://www.google.com/maps/place/Ganesh+Nagar+Jame+Masjid.Guwahati+781021/data=!4m7!3m6!1s0x375a598a93744be7:0x6e78a82286d68e20!8m2!3d26.1950198!4d91.7879137!16s%2Fg%2F11gmxt8gx9!19sChIJ50t0k4pZWjcRII7WhiKoeG4?authuser=0&hl=en&rclk=1,"26.195019799999997,91.78791369999999"
Bhutnath bagan masjid,Mosque,"5P9F+QM5 Bhutnath bagan masjid, Bhutnath, Guwahati, Assam 781009",Bhutnath,5P9F+QM5,Guwahati,781009,Assam,IN,https://www.google.com/maps/place/Bhutnath+bagan+masjid/data=!4m7!3m6!1s0x375a5bcab232f17b:0x3148b5b048deda9!8m2!3d26.1693805!4d91.7242387!16s%2Fg%2F11s4zf5jkw!19sChIJe_EysspbWjcRqe2NBFuLFAM?authuser=0&hl=en&rclk=1,"26.1693805,91.7242387"
Jatkapon Purathon jama Masjid,Mosque,"5QG3+RRG Jatkapon Purathon jama Masjid, Assam Trunk Rd, Opposite Flyover Bridge, Manipuri Rajbari, Ulubari, Guwahati, Assam 781008","Opposite Flyover Bridge, Manipuri Rajbari, Ulubari","5QG3+RRG, Assam Trunk Rd",Guwahati,781008,Assam,IN,https://www.google.com/maps/place/Jatkapon+Purathon+jama+Masjid/data=!4m7!3m6!1s0x375a59de7605168b:0xd0f4864563b519fb!8m2!3d26.1770684!4d91.7545933!16s%2Fg%2F11h2j6cjxs!19sChIJixYFdt5ZWjcR-xm1Y0WG9NA?authuser=0&hl=en&rclk=1,"26.1770684,91.7545933"
Kamarpatty Masjid,Mosque,"5PJR+W78 Kamarpatty Masjid, Dr JC Das Rd, Kamarpatty, Fancy Bazaar, Guwahati, Assam 781001","Kamarpatty, Fancy Bazaar","5PJR+W78, Dr JC Das Rd",Guwahati,781001,Assam,IN,https://www.google.com/maps/place/Kamarpatty+Masjid/data=!4m7!3m6!1s0x375a5a30ef438d33:0x850bb34da95b33a4!8m2!3d26.1822833!4d91.740714!16s%2Fg%2F1tdp3dkf!19sChIJM41D7zBaWjcRpDNbqU2zC4U?authuser=0&hl=en&rclk=1,"26.182283299999998,91.740714"
Masjid-E-Gousia (Khanka Masjid),Mosque,"5QG6+3QC Masjid-E-Gousia (Khanka Masjid), near Red Chilli, South Sarania, Ulubari, Guwahati, Assam 7","South Sarania, Ulubari","5QG6+3QC, near Red Chilli",Guwahati,7,Assam,IN,https://www.google.com/maps/place/Masjid-E-Gousia+%28Khanka+Masjid%29/data=!4m7!3m6!1s0x375a59bd13d26963:0xf73cd502543aae29!8m2!3d26.1751873!4d91.7618928!16s%2Fg%2F11t9bjvxfh!19sChIJY2nSE71ZWjcRKa46VALVPPc?authuser=0&hl=en&rclk=1,"26.175187299999997,91.7618928"
