name,main_category,address,address_ward,address_street,address_city,address_postal_code,address_state,address_country_code,link,coordinates
Mastan Baba Dargah and Masjid,Mosque,"HMQ6+FJ3 Mastan Baba Dargah and Masjid, Malla Talai, Udaipur, Rajasthan 313001",Malla Talai,HMQ6+FJ3,Udaipur,313001,Rajasthan,IN,https://www.google.com/maps/place/Mastan+Baba+Dargah+and+Masjid/data=!4m7!3m6!1s0x3967e549a6cf8489:0x885fcbc701684750!8m2!3d24.5886373!4d73.6615539!16s%2Fg%2F1tcw1_y0!19sChIJiYTPpknlZzkRUEdoAcfLX4g?authuser=0&hl=en&rclk=1,"24.5886373,73.6615539"
Burhani Masjid,Mosque,"JM7M+CMG Burhani Masjid, Fatehpura, Udaipur, Rajasthan 313001",Fatehpura,JM7M+CMG,Udaipur,313001,Rajasthan,IN,https://www.google.com/maps/place/Burhani+Masjid/data=!4m7!3m6!1s0x3967e51c387a8f23:0x6cc0d7b7a9d03a12!8m2!3d24.6135542!4d73.6842037!16s%2Fg%2F1hm2r9095!19sChIJI496OBzlZzkREjrQqbfXwGw?authuser=0&hl=en&rclk=1,"24.6135542,73.6842037"
MASJID SYEDNA UMAR BIN KHATTAB,Mosque,"HMP9+69J MASJID SYEDNA UMAR BIN KHATTAB, Subhash Chauraha, Raza Colony, Malla Talai, Udaipur, Rajasthan 313001","Raza Colony, Malla Talai","HMP9+69J, Subhash Chauraha",Udaipur,313001,Rajasthan,IN,https://www.google.com/maps/place/MASJID+SYEDNA+UMAR+BIN+KHATTAB/data=!4m7!3m6!1s0x3967e545d2991dbd:0xab7c502f0bfa341b!8m2!3d24.5855751!4d73.6683924!16s%2Fg%2F1260134nr!19sChIJvR2Z0kXlZzkRGzT6Cy9QfKs?authuser=0&hl=en&rclk=1,"24.5855751,73.6683924"
Masjid Alipura,Mosque,"Masjid Alipura, 42, Residency Rd Opposite G.B.H. American Hospital, Ashok Nagar Residency Road Opposite G.B.H. American Hospital, Ashok Nagar, Udaipur, Rajasthan 313001",Ashok Nagar,"42, Residency Rd Opposite G.B.H. American Hospital, Ashok Nagar Residency Road Opposite G.B.H. American Hospital",Udaipur,313001,Rajasthan,IN,https://www.google.com/maps/place/Masjid+Alipura/data=!4m7!3m6!1s0x3967e574c51c6577:0x756161ed02175557!8m2!3d24.5948678!4d73.6970548!16s%2Fg%2F11c5rq9b29!19sChIJd2UcxXTlZzkRV1UXAu1hYXU?authuser=0&hl=en&rclk=1,"24.5948678,73.6970548"
Hathipol Mosque msjd,Mosque,"HMPP+JV7 Hathipol Mosque msjd, Hathipol Rd, Old City, Silawatwari, Udaipur, Rajasthan 313001","Old City, Silawatwari","HMPP+JV7, Hathipol Rd",Udaipur,313001,Rajasthan,IN,https://www.google.com/maps/place/Hathipol+Mosque+%D9%85%D8%B3%D8%AC%D8%AF%E2%80%AD/data=!4m7!3m6!1s0x3967e56e46bef8a5:0xcdb0bb445ac60653!8m2!3d24.5865331!4d73.6871774!16s%2Fg%2F11cr_zpszw!19sChIJpfi-Rm7lZzkRUwbGWkS7sM0?authuser=0&hl=en&rclk=1,"24.5865331,73.6871774"
"Khara Kua Maszid, Anjuman Chowk",Mosque,"HMJR+G8Q Khara Kua Maszid, Anjuman Chowk, Teliwara, Nada Khada, Udaipur, Rajasthan 313001","Teliwara, Nada Khada",HMJR+G8Q,Udaipur,313001,Rajasthan,IN,"https://www.google.com/maps/place/Khara+Kua+Maszid,+Anjuman+Chowk/data=!4m7!3m6!1s0x3967e57aeb8a5681:0x9cc24a80c1019c3f!8m2!3d24.5813277!4d73.6908685!16s%2Fg%2F11c5b0jlth!19sChIJgVaK63rlZzkRP5wBwYBKwpw?authuser=0&hl=en&rclk=1","24.5813277,73.6908685"
Masjid E Helaan,Mosque,"Masjid E Helaan, Junction, Nehru Bazar Rd, Old City, Bapu Bazar, Nada Khada, Udaipur, Rajasthan 313001","Old City, Bapu Bazar, Nada Khada","Junction, Nehru Bazar Rd",Udaipur,313001,Rajasthan,IN,https://www.google.com/maps/place/Masjid+E+Helaan/data=!4m7!3m6!1s0x3967e57991da59e7:0xe1bc2d2fc3b51e7f!8m2!3d24.5817781!4d73.6956413!16s%2Fg%2F11cs5ft021!19sChIJ51nakXnlZzkRfx61wy8tvOE?authuser=0&hl=en&rclk=1,"24.581778099999998,73.69564129999999"
Bilali Masjid msjd,Mosque,"HPVF+G55 Bilali Masjid msjd, Bilali Masjid Rd, Pahada, Udaipur, Rajasthan 313001",Pahada,"HPVF+G55, Bilali Masjid Rd",Udaipur,313001,Rajasthan,IN,https://www.google.com/maps/place/Bilali+Masjid+%D9%85%D8%B3%D8%AC%D8%AF%E2%80%AD/data=!4m7!3m6!1s0x3967e594ea500f2b:0x4fd66fd3787dc438!8m2!3d24.5937667!4d73.7229801!16s%2Fg%2F11bwqfv0hx!19sChIJKw9Q6pTlZzkROMR9eNNv1k8?authuser=0&hl=en&rclk=1,"24.5937667,73.7229801"
Masjid E Gousia Nooriya Badi Masjid savina Sunni masjid,Mosque,"GPV5+C5R Masjid E Gousia Nooriya Badi Masjid savina Sunni masjid, Barkat Colony, RHB Colony, Hiran Magri, Udaipur, Gordhan Vilas Rural, Rajasthan 313001","Barkat Colony, RHB Colony, Hiran Magri",GPV5+C5R,"Udaipur, Gordhan Vilas Rural",313001,Rajasthan,IN,https://www.google.com/maps/place/Masjid+E+Gousia+Nooriya+Badi+Masjid+savina+Sunni+masjid/data=!4m7!3m6!1s0x3967ef0ebdc4be85:0x8086eb818eeb9580!8m2!3d24.543601!4d73.7078895!16s%2Fg%2F1v1sjm74!19sChIJhb7EvQ7vZzkRgJXrjoHrhoA?authuser=0&hl=en&rclk=1,"24.543601,73.7078895"
Paltan Masjid,Mosque,"Paltan Masjid, 125, Chohtta Chetak Rd, Chetak Circle, Chamanpura, Udaipur, Rajasthan 313001","Chetak Circle, Chamanpura","125, Chohtta Chetak Rd",Udaipur,313001,Rajasthan,IN,https://www.google.com/maps/place/Paltan+Masjid/data=!4m7!3m6!1s0x3967e572728a15c5:0x1e7f472077ffd3ba!8m2!3d24.5903661!4d73.6896825!16s%2Fg%2F1pyqj4mqt!19sChIJxRWKcnLlZzkRutP_dyBHfx4?authuser=0&hl=en&rclk=1,"24.590366099999997,73.6896825"
Rehmaniya Masjid,Mosque,"HPP2+C3X Rehmaniya Masjid, Shastri Cir, Opposite Tata Indicom Office, Shakti Nagar, Udaipur, Rajasthan 313001","Opposite Tata Indicom Office, Shakti Nagar","HPP2+C3X, Shastri Cir",Udaipur,313001,Rajasthan,IN,https://www.google.com/maps/place/Rehmaniya+Masjid/data=!4m7!3m6!1s0x3967e577c8da2297:0x7e0eadf520eeb56f!8m2!3d24.5861056!4d73.7002477!16s%2Fg%2F1hjhbd300!19sChIJlyLayHflZzkRb7XuIPWtDn4?authuser=0&hl=en&rclk=1,"24.5861056,73.70024769999999"
Bohra Youth Masjid,Mosque,"JM7J+6XW Bohra Youth Masjid, Kharol Colony, Fatehpura, Udaipur, Rajasthan 313001","Kharol Colony, Fatehpura",JM7J+6XW,Udaipur,313001,Rajasthan,IN,https://www.google.com/maps/place/Bohra+Youth+Masjid/data=!4m7!3m6!1s0x3967e51e86688b21:0x858fccc4860d9f38!8m2!3d24.6131231!4d73.6824685!16s%2Fg%2F1hm3lg4ym!19sChIJIYtohh7lZzkROJ8NhsTMj4U?authuser=0&hl=en&rclk=1,"24.6131231,73.6824685"
"MASJID MADARSA NOORUL ISLAM, 80-FEET ROAD",Mosque,"MASJID MADARSA NOORUL ISLAM, 80-FEET ROAD, 80 feed road, Seesaram Rural, Rajasthan 313001",Eklavya Colony,80 feed road,Seesaram Rural,313001,Rajasthan,IN,"https://www.google.com/maps/place/MASJID+MADARSA+NOORUL+ISLAM,+80-FEET+ROAD/data=!4m7!3m6!1s0x3967e54e0e7ae8dd:0x16ddd3fe1cb8f475!8m2!3d24.5806884!4d73.6600973!16s%2Fg%2F11c74_dgvd!19sChIJ3eh6Dk7lZzkRdfS4HP7T3RY?authuser=0&hl=en&rclk=1","24.5806884,73.66009729999999"
Moayyedpura Masjid,Mosque,"HMMQ+Q92 Moayyedpura Masjid, Old City, Bohrwadi, Udaipur, Rajasthan 313001","Old City, Bohrwadi",HMMQ+Q92,Udaipur,313001,Rajasthan,IN,https://www.google.com/maps/place/Moayyedpura+Masjid/data=!4m7!3m6!1s0x3967e56fddbaba35:0x3ce53fe77c858fce!8m2!3d24.5843894!4d73.6883762!16s%2Fg%2F1wcxbh7_!19sChIJNbq63W_lZzkRzo-FfOc_5Tw?authuser=0&hl=en&rclk=1,"24.5843894,73.6883762"
Tableegi Markaz Masjid udaipur Deobandi,Mosque,"HPMH+QC7 Tableegi Markaz Masjid udaipur Deobandi, Airport Road, Rana Pratap Nagar, Near Old Railway Station, Thokar Choraha, Udaipur, Rajasthan 313001","Rana Pratap Nagar, Ganapati Nagar","HPMH+QC7, Airport Road, Rana Pratap Nagar, Near Old Railway Station, Thokar Choraha",Udaipur,313001,Rajasthan,IN,https://www.google.com/maps/place/Tableegi+Markaz+Masjid+udaipur+Deobandi/data=!4m7!3m6!1s0x3967e5f24ac0fe2d:0xad7fcfc76d5f1aba!8m2!3d24.584415!4d73.7285587!16s%2Fg%2F11fx8vtp4r!19sChIJLf7ASvLlZzkRuhpfbcfPf60?authuser=0&hl=en&rclk=1,"24.584415,73.7285587"
Hussaini Masjid,Mosque,"HMMV+V3G Hussaini Masjid, Dholi Bawri, Udaipur, Rajasthan 313001","Danmandi, Nada Khada","HMMV+V3G, Dholi Bawri",Udaipur,313001,Rajasthan,IN,https://www.google.com/maps/place/Hussaini+Masjid/data=!4m7!3m6!1s0x3967e570ed4acd73:0x4d75bc6b14c5497b!8m2!3d24.5847!4d73.6927!16s%2Fg%2F1pyqr_vbw!19sChIJc81K7XDlZzkRe0nFFGu8dU0?authuser=0&hl=en&rclk=1,"24.584699999999998,73.6927"
Bhramhapole masjid,Mosque,"HMMF+6R7 Bhramhapole masjid, Brahmpol Road (SH-50), Ambamata, Udaipur, Rajasthan 313001",Ambamata,"HMMF+6R7, Brahmpol Road (SH-50)",Udaipur,313001,Rajasthan,IN,https://www.google.com/maps/place/Bhramhapole+masjid/data=!4m7!3m6!1s0x3967e542e3e82ba9:0xd1d9377720bab651!8m2!3d24.5830304!4d73.6745583!16s%2Fg%2F1pyqtg568!19sChIJqSvo40LlZzkRUba6IHc32dE?authuser=0&hl=en&rclk=1,"24.5830304,73.6745583"
Chistiya Masjid Garib Nawaz Madrasa,Mosque,"JP4C+6V8 Chistiya Masjid Garib Nawaz Madrasa, Vinayak Nagar, Pahada, Udaipur, Rajasthan 313001","Vinayak Nagar, Pahada",JP4C+6V8,Udaipur,313001,Rajasthan,IN,https://www.google.com/maps/place/Chistiya+Masjid+Garib+Nawaz+Madrasa/data=!4m7!3m6!1s0x3967e5b8e8e124cd:0x143c19e03824971d!8m2!3d24.6055261!4d73.7222066!16s%2Fg%2F11g9gsv69g!19sChIJzSTh6LjlZzkRHZckOOAZPBQ?authuser=0&hl=en&rclk=1,"24.6055261,73.72220659999999"
"Madina Masjid, Lohar Colony, Ayad",Mosque,"HPP7+R6V Madina Masjid, Lohar Colony, Ayad, Lohar Colony ,ayad, Shabri Colony, Ganapati Nagar, Udaipur, Rajasthan 313001","Shabri Colony, Ayad, Ganapati Nagar","HPP7+R6V, Lohar Colony ,ayad",Udaipur,313001,Rajasthan,IN,"https://www.google.com/maps/place/Madina+Masjid,+Lohar+Colony,+Ayad/data=!4m7!3m6!1s0x3967e59072feca53:0x1a8ea7f353f5db67!8m2!3d24.587102!4d73.7130546!16s%2Fg%2F124yfk9nl!19sChIJU8r-cpDlZzkRZ9v1U_Onjho?authuser=0&hl=en&rclk=1","24.587101999999998,73.71305459999999"
Masjid,Mosque,"HPJH+H69 Masjid, U.L.T.Colony, Udaipur, Rajasthan 313001",U.L.T.Colony,HPJH+H69,Udaipur,313001,Rajasthan,IN,https://www.google.com/maps/place/Masjid/data=!4m7!3m6!1s0x3967e5f477d5794b:0x27632624f5d2e918!8m2!3d24.5814!4d73.7281!16s%2Fg%2F1pyqfm6wp!19sChIJS3nVd_TlZzkRGOnS9SQmYyc?authuser=0&hl=en&rclk=1,"24.5814,73.7281"
Luqmani masjid,Mosque,"HMCV+5Q8 Luqmani masjid, Jawahar Nagar, Khanjipeer, Udaipur, Rajasthan 313001","Jawahar Nagar, Khanjipeer",HMCV+5Q8,Udaipur,313001,Rajasthan,IN,https://www.google.com/maps/place/Luqmani+masjid/data=!4m7!3m6!1s0x3967ef8735ee4c9f:0x5451de5ca8ef6640!8m2!3d24.5704197!4d73.6944452!16s%2Fg%2F12hlc3bw9!19sChIJn0zuNYfvZzkRQGbvqFzeUVQ?authuser=0&hl=en&rclk=1,"24.5704197,73.69444519999999"
Masjid Qutub E Aalam Khanjipeer,Mosque,"HMCV+3PJ Masjid Qutub E Aalam Khanjipeer, Jawahar Nagar, Khanjipeer, Udaipur, Rajasthan 313001","Jawahar Nagar, Khanjipeer",HMCV+3PJ,Udaipur,313001,Rajasthan,IN,https://www.google.com/maps/place/Masjid+Qutub+E+Aalam+Khanjipeer/data=!4m7!3m6!1s0x3967ef87312c898b:0x239dd71bf789fdb3!8m2!3d24.5702201!4d73.6942576!16s%2Fg%2F11c2khvq16!19sChIJi4ksMYfvZzkRs_2J9xvXnSM?authuser=0&hl=en&rclk=1,"24.5702201,73.6942576"
"Masjid e ghosiya, Choti Masjid, Sunni masjid",Mosque,"GPV4+WXR Masjid e ghosiya, Choti Masjid, Sunni masjid, Sector 12, RHB Colony, Savina, Gordhan Vilas Rural, Rajasthan 313001","Sector 12, RHB Colony, Savina",GPV4+WXR,Gordhan Vilas Rural,313001,Rajasthan,IN,"https://www.google.com/maps/place/Masjid+e+ghosiya,+Choti+Masjid,+Sunni+masjid/data=!4m7!3m6!1s0x3967ef0c0358ac25:0x1e5a1181b39700cb!8m2!3d24.5448532!4d73.7074054!16s%2Fg%2F1hm1yc7nz!19sChIJJaxYAwzvZzkRywCXs4ERWh4?authuser=0&hl=en&rclk=1","24.5448532,73.7074054"
Jahangiri Masjid,Mosque,"Jahangiri Masjid, Akshat Plaza, 3, Savina Main Rd, Near Police Chowki, Dabal, Savina, Udaipur, Gordhan Vilas Rural, Rajasthan 313002","Dabal, Savina","Akshat Plaza, 3, Savina Main Rd, Near Police Chowki","Udaipur, Gordhan Vilas Rural",313002,Rajasthan,IN,https://www.google.com/maps/place/Jahangiri+Masjid/data=!4m7!3m6!1s0x3967ef0c3a72326d:0x3484d762e75b822d!8m2!3d24.5456215!4d73.7087654!16s%2Fg%2F11cn947964!19sChIJbTJyOgzvZzkRLYJb52LXhDQ?authuser=0&hl=en&rclk=1,"24.5456215,73.70876539999999"
Burhani Nagar Markaz,Mosque,"JMCJ+P9W Burhani Nagar Markaz, Neemuch Kheda, Udaipur, Rajasthan 313001",Neemuch Kheda,JMCJ+P9W,Udaipur,313001,Rajasthan,IN,https://www.google.com/maps/place/Burhani+Nagar+Markaz/data=!4m7!3m6!1s0x3967e4e131bf9f7b:0x70ac06e38d8bca2!8m2!3d24.6218719!4d73.6809425!16s%2Fg%2F11g8dhy9mh!19sChIJe5-_MeHkZzkRorzYOG7ACgc?authuser=0&hl=en&rclk=1,"24.6218719,73.6809425"
Shia Jama Masjid and Imambargah,Mosque,"Shia Jama Masjid and Imambargah, hawala marg, behind Ajnata Hotel, Chetak Circle, road, Udaipur, Rajasthan 313001","Chetak Circle, road","hawala marg, behind Ajnata Hotel",Udaipur,313001,Rajasthan,IN,https://www.google.com/maps/place/Shia+Jama+Masjid+and+Imambargah/data=!4m7!3m6!1s0x3967e571f0344adb:0xdcd2533069adf00f!8m2!3d24.5880533!4d73.6898464!16s%2Fg%2F11c3186hfz!19sChIJ20o08HHlZzkRD_CtaTBT0tw?authuser=0&hl=en&rclk=1,"24.5880533,73.6898464"
Masjid,Mosque,"HMMV+C5X Masjid, Danmandi, Nada Khada, Udaipur, Rajasthan 313001","Danmandi, Nada Khada",HMMV+C5X,Udaipur,313001,Rajasthan,IN,https://www.google.com/maps/place/Masjid/data=!4m7!3m6!1s0x3967e5709ea640b5:0xc57f9814dee54820!8m2!3d24.5836!4d73.693!16s%2Fg%2F1pyqgj7k1!19sChIJtUCmnnDlZzkRIEjl3hSYf8U?authuser=0&hl=en&rclk=1,"24.5836,73.693"
Masjid Farukh Azam,Mosque,"Masjid Farukh Azam, 366, Block D, Malla Talai, Udaipur, Rajasthan 313001","Block D, Malla Talai",366,Udaipur,313001,Rajasthan,IN,https://www.google.com/maps/place/Masjid+Farukh+Azam/data=!4m7!3m6!1s0x3967e5464a47c4f1:0xac0233bc0405a034!8m2!3d24.5888!4d73.667!16s%2Fg%2F1pyqnc392!19sChIJ8cRHSkblZzkRNKAFBLwzAqw?authuser=0&hl=en&rclk=1,"24.5888,73.667"
Masjid Patel Circle,Mosque,"Masjid Patel Circle, Patel Circle, Kali Murti,, 4, near lic office, Patel Circle, Kali Murti, Khanjipeer, Udaipur, Rajasthan 313001","Patel Circle, Kali Murti, Khanjipeer","Patel Circle, Kali Murti,, 4, near lic office",Udaipur,313001,Rajasthan,IN,https://www.google.com/maps/place/Masjid+Patel+Circle/data=!4m7!3m6!1s0x3967ef844863df5f:0xc1feacaf5aa843d4!8m2!3d24.5642381!4d73.692571!16s%2Fg%2F11c5rqqnxd!19sChIJX99jSITvZzkR1EOoWq-s_sE?authuser=0&hl=en&rclk=1,"24.564238099999997,73.692571"
Chhipa Masjid,Mosque,"Chhipa Masjid, 06, University Rd, Shabri Colony, Ayad, Pahada, Udaipur, Rajasthan 313001","Shabri Colony, Ayad, Pahada","06, University Rd",Udaipur,313001,Rajasthan,IN,https://www.google.com/maps/place/Chhipa+Masjid/data=!4m7!3m6!1s0x3967e590542442f5:0x285ec4aa3c03d72c!8m2!3d24.588379!4d73.7149251!16s%2Fg%2F11b70_c5_j!19sChIJ9UIkVJDlZzkRLNcDPKrEXig?authuser=0&hl=en&rclk=1,"24.588379,73.7149251"
Bohrwadi Vajeehpura Masjid,Mosque,"Bohrwadi Vajeehpura Masjid, 119, Maldas St, Old City, Bohrwadi, Udaipur, Rajasthan 313001","Old City, Bohrwadi","119, Maldas St",Udaipur,313001,Rajasthan,IN,https://www.google.com/maps/place/Bohrwadi+Vajeehpura+Masjid/data=!4m7!3m6!1s0x3967e57002f4b589:0x7cfaa627e942d6c8!8m2!3d24.583411!4d73.6890681!16s%2Fg%2F1tjz6bzg!19sChIJibX0AnDlZzkRyNZC6Sem-nw?authuser=0&hl=en&rclk=1,"24.583410999999998,73.6890681"
Masjid Hazrat Abu Bakr Siddique [R.A.],Mosque,"HMQC+767 Masjid Hazrat Abu Bakr Siddique [R.A.], Malla Talai, Udaipur, Rajasthan 313001",Malla Talai,HMQC+767,Udaipur,313001,Rajasthan,IN,https://www.google.com/maps/place/Masjid+Hazrat+Abu+Bakr+Siddique+%5BR.A.%5D/data=!4m7!3m6!1s0x3967e58f3ae0d9d3:0x93fa099958a449da!8m2!3d24.5881746!4d73.6705572!16s%2Fg%2F11g1f1yq0w!19sChIJ09ngOo_lZzkR2kmkWJkJ-pM?authuser=0&hl=en&rclk=1,"24.5881746,73.67055719999999"
Rasoolpura Masjid,Mosque,"HMPR+326 Rasoolpura Masjid, Old City, Basti Ram Jiki Badi, Udaipur, Rajasthan 313001","Old City, Basti Ram Jiki Badi",HMPR+326,Udaipur,313001,Rajasthan,IN,https://www.google.com/maps/place/Rasoolpura+Masjid/data=!4m7!3m6!1s0x3967e57030ae0d6f:0x367aa7833af7ae9e!8m2!3d24.5851633!4d73.6900157!16s%2Fg%2F11c1l6rcqz!19sChIJbw2uMHDlZzkRnq73OoOnejY?authuser=0&hl=en&rclk=1,"24.585163299999998,73.6900157"
Masjid Hujjattul Islam (Bich Ki Masjid) biic ki msjid,Mosque,"HMPP+F52 Masjid Hujjattul Islam (Bich Ki Masjid) biic ki msjid, Old City, Jatwari, Silawatwari, Udaipur, Rajasthan 313001","Old City, Jatwari, Silawatwari",HMPP+F52,Udaipur,313001,Rajasthan,IN,https://www.google.com/maps/place/Masjid+Hujjattul+Islam+%28Bich+Ki+Masjid%29+%E0%A4%AC%E0%A5%80%E0%A4%9A+%E0%A4%95%E0%A4%BF+%E0%A4%AE%E0%A4%B8%E0%A5%8D%E0%A4%9C%E0%A4%BF%E0%A4%A6/data=!4m7!3m6!1s0x3967e56ef045fb53:0x7060d844c25e95e7!8m2!3d24.5861349!4d73.6853884!16s%2Fg%2F11f_kn7r4g!19sChIJU_tF8G7lZzkR55VewkTYYHA?authuser=0&hl=en&rclk=1,"24.586134899999998,73.6853884"
"Qadri Masjid, Sunni Masjid, Maslak E Aalahazrat, Aloo Factory Masjid",Religious destination,"HMXX+M2X Qadri Masjid, Sunni Masjid, Maslak E Aalahazrat, Aloo Factory Masjid, Aalu Factory Road, Panchwati, Udaipur, Rajasthan 313001",Panchwati,"HMXX+M2X, Aalu Factory Road",Udaipur,313001,Rajasthan,IN,"https://www.google.com/maps/place/Qadri+Masjid,+Sunni+Masjid,+Maslak+E+Aalahazrat,+Aloo+Factory+Masjid/data=!4m7!3m6!1s0x3967e50bb37a70ad:0x1120695f9a467026!8m2!3d24.5992412!4d73.6976135!16s%2Fg%2F11f_kmzfch!19sChIJrXB6swvlZzkRJnBGml9pIBE?authuser=0&hl=en&rclk=1","24.599241199999998,73.6976135"
Muqarba Masjid (Sunni masjid),Mosque,"Muqarba Masjid (Sunni masjid), 313001, Surajpole, Nada Khada, Udaipur, Rajasthan 313001","Surajpole, Nada Khada",313001,Udaipur,313001,Rajasthan,IN,https://www.google.com/maps/place/Muqarba+Masjid+%28Sunni+masjid%29/data=!4m7!3m6!1s0x3967e5794abfe0bd:0x66b0328013665ac5!8m2!3d24.5780142!4d73.69608!16s%2Fg%2F11df80v1n4!19sChIJveC_SnnlZzkRxVpmE4AysGY?authuser=0&hl=en&rclk=1,"24.5780142,73.69608"
Kaharwadi Mosque,Mosque,"HMPQ+398 Kaharwadi Mosque, Kaharwadi Dr. Zakir Hussain Marg,, Udaipur, Rajasthan 313001","Old City, Basti Ram Jiki Badi","HMPQ+398, Kaharwadi Dr. Zakir Hussain Marg,",Udaipur,313001,Rajasthan,IN,https://www.google.com/maps/place/Kaharwadi+Mosque/data=!4m7!3m6!1s0x3967e571d14d99bd:0x858b1adb8795c9ea!8m2!3d24.5851575!4d73.6884377!16s%2Fg%2F11cs019f61!19sChIJvZlN0XHlZzkR6smVh9sai4U?authuser=0&hl=en&rclk=1,"24.585157499999998,73.6884377"
"Dargah Amrat Rasool Baba,",Mosque,"Dargah Amrat Rasool Baba,, 50, Brahmpol Rd, Ambamata, Udaipur, Rajasthan 313001",Ambamata,"50, Brahmpol Rd",Udaipur,313001,Rajasthan,IN,"https://www.google.com/maps/place/Dargah+Amrat+Rasool+Baba,/data=!4m7!3m6!1s0x3967e542e3cf9b33:0x90d2b823fb4ff59c!8m2!3d24.5829577!4d73.6743939!16s%2Fg%2F11gd1wt1cx!19sChIJM5vP40LlZzkRnPVP-yO40pA?authuser=0&hl=en&rclk=1","24.582957699999998,73.6743939"
Mahawat Wari Maszid,Mosque,"Mahawat Wari Maszid, 100, Mahawat Wari Marg, Old City, Jatwari, Silawatwari, Udaipur, Rajasthan 313001","Old City, Jatwari, Silawatwari","100, Mahawat Wari Marg",Udaipur,313001,Rajasthan,IN,https://www.google.com/maps/place/Mahawat+Wari+Maszid/data=!4m7!3m6!1s0x3967e56f195725af:0x4e9c0f91c1ca7ebf!8m2!3d24.5848786!4d73.6848719!16s%2Fg%2F11c2y7xhzt!19sChIJryVXGW_lZzkRv37KwZEPnE4?authuser=0&hl=en&rclk=1,"24.5848786,73.68487189999999"
Kallesath Masjid Madarsa Raza A Mustafa ,Mosque,"HMPM+299 Kallesath Masjid Madarsa Raza A Mustafa , Old City, Jatwari, Silawatwari, Udaipur, Rajasthan 313001","Old City, Jatwari, Silawatwari",HMPM+299,Udaipur,313001,Rajasthan,IN,https://www.google.com/maps/place/Kallesath+Masjid+Madarsa+Raza+A+Mustafa+%EF%B7%BA%E2%80%AD/data=!4m7!3m6!1s0x3967e538eaa1df37:0xfa3947ee7f62f311!8m2!3d24.5850358!4d73.6834902!16s%2Fg%2F11ghshlht9!19sChIJN9-h6jjlZzkREfNif-5HOfo?authuser=0&hl=en&rclk=1,"24.5850358,73.6834902"
Masjid sec-5,Mosque,"Masjid sec-5, 2-P-13, Amal Ka Kanta, Sector 5, Shanti Nagar, Hiran Magri, Udaipur, Rajasthan 313002","Amal Ka Kanta, Sector 5, Shanti Nagar, Hiran Magri",2-P-13,Udaipur,313002,Rajasthan,IN,https://www.google.com/maps/place/Masjid+sec-5/data=!4m7!3m6!1s0x3967ef9d4541b069:0xc50ae7c64901bba6!8m2!3d24.563851!4d73.7268234!16s%2Fg%2F11qs79jq7c!19sChIJabBBRZ3vZzkRprsBScbnCsU?authuser=0&hl=en&rclk=1,"24.563851,73.7268234"
Masjid Sindhiyan,Mosque,"HMGW+VQ5 Masjid Sindhiyan, Jawahar Nagar, Ganga Gali, Udaipur, Rajasthan 313001","Jawahar Nagar, Ganga Gali",HMGW+VQ5,Udaipur,313001,Rajasthan,IN,https://www.google.com/maps/place/Masjid+Sindhiyan/data=!4m7!3m6!1s0x3967e57ec53647e5:0xe3a94e5b94e3255c!8m2!3d24.5771378!4d73.6969975!16s%2Fg%2F1pyqvc5mr!19sChIJ5Uc2xX7lZzkRXCXjlFtOqeM?authuser=0&hl=en&rclk=1,"24.5771378,73.6969975"
Bohra Youth Masjid,Mosque,"HM9V+677 Bohra Youth Masjid, Jawahar Nagar, Khanjipeer, Udaipur, Rajasthan 313001","Jawahar Nagar, Khanjipeer",HM9V+677,Udaipur,313001,Rajasthan,IN,https://www.google.com/maps/place/Bohra+Youth+Masjid/data=!4m7!3m6!1s0x3967ef86e8582503:0x9192ef651ba105d3!8m2!3d24.5680338!4d73.693176!16s%2Fg%2F11byxf179z!19sChIJAyVY6IbvZzkR0wWhG2XvkpE?authuser=0&hl=en&rclk=1,"24.5680338,73.693176"
Dawoodi Bohra Masjid,Mosque,"Dawoodi Bohra Masjid, New UIT Market, New UIT Market, Subhash Chauraha,, No 44, Charak Marg, Sector 5, Malla Talai, Udaipur, Rajasthan 313001","OTC Scheme, Sector 5, Malla Talai","New UIT Market, New UIT Market, Subhash Chauraha,, No 44, Charak Marg",Udaipur,313001,Rajasthan,IN,https://www.google.com/maps/place/Dawoodi+Bohra+Masjid/data=!4m7!3m6!1s0x3967e54429a64259:0x881cf780003c56db!8m2!3d24.5862184!4d73.668835!16s%2Fg%2F11ddyk25pc!19sChIJWUKmKUTlZzkR21Y8AID3HIg?authuser=0&hl=en&rclk=1,"24.5862184,73.668835"
Gandhi nagar mosque,Mosque,"JP2G+8M7 Gandhi nagar mosque, Gandhi Nagar, Udaipur, Rajasthan 313001",Gandhi Nagar,JP2G+8M7,Udaipur,313001,Rajasthan,IN,https://www.google.com/maps/place/Gandhi+nagar+mosque/data=!4m7!3m6!1s0x3967e5f2e4c5166d:0x901b9da083ab2a70!8m2!3d24.6007889!4d73.7266725!16s%2Fg%2F11j83x6rq6!19sChIJbRbF5PLlZzkRcCqrg6CdG5A?authuser=0&hl=en&rclk=1,"24.600788899999998,73.72667249999999"
Masjid Siddiq E Akbar | msjid siddiiq e akbr | msjd Sdyq khbr,Mosque,"Masjid Siddiq E Akbar | msjid siddiiq e akbr | msjd Sdyq khbr, 173,A-Block, Sajjan Nagar, Udaipur, Rajasthan 313001","Sajjan Nagar, Malla Talai","173,A-Block",Udaipur,313001,Rajasthan,IN,https://www.google.com/maps/place/Masjid+Siddiq+E+Akbar+%7C+%E0%A4%AE%E0%A4%B8%E0%A5%8D%E0%A4%9C%E0%A4%BF%E0%A4%A6+%E0%A4%B8%E0%A4%BF%E0%A4%A6%E0%A5%8D%E0%A4%A6%E0%A5%80%E0%A5%98+%E0%A4%8F+%E0%A4%85%E0%A4%95%E0%A4%AC%E0%A4%B0+%7C+%D8%93%D9%85%D8%B3%D8%AC%D8%AF+%D8%B5%D8%AF%DB%8C%D9%82+%D8%A7%DA%A9%D8%A8%D8%B1%E2%80%AD/data=!4m7!3m6!1s0x3967e5ff3e7823b1:0xe64126d9f844a8ca!8m2!3d24.5845175!4d73.6619504!16s%2Fg%2F11n064h0qg!19sChIJsSN4Pv_lZzkRyqhE-NkmQeY?authuser=0&hl=en&rclk=1,"24.5845175,73.6619504"
Gosiya Masjid,Mosque,"Gosiya Masjid, 193 gosiya colony street no.2 outside, Kishanpole, Jawahar Nagar, Khanjipeer, Udaipur, Rajasthan 313001","Kishanpole, Jawahar Nagar, Khanjipeer",193 gosiya colony street no.2 outside,Udaipur,313001,Rajasthan,IN,https://www.google.com/maps/place/Gosiya+Masjid/data=!4m7!3m6!1s0x3967ef08dc17a831:0xe30ad8a8f638efbd!8m2!3d24.5670115!4d73.6910685!16s%2Fg%2F11fmh3vfkt!19sChIJMagX3AjvZzkRve849qjYCuM?authuser=0&hl=en&rclk=1,"24.5670115,73.6910685"
Sodagar Baba Masjid,Mosque,"HMPR+FW6 Sodagar Baba Masjid, Ashwini Bazaar Rd, City's Prime Health Care Area, Udaipur, Rajasthan 313001",City's Prime Health Care Area,"HMPR+FW6, Ashwini Bazaar Rd",Udaipur,313001,Rajasthan,IN,https://www.google.com/maps/place/Sodagar+Baba+Masjid/data=!4m7!3m6!1s0x3967e571021edd6b:0x31d1e504795e9115!8m2!3d24.58617!4d73.692266!16s%2Fg%2F1pyql7ymf!19sChIJa90eAnHlZzkRFZFeeQTl0TE?authuser=0&hl=en&rclk=1,"24.58617,73.692266"
Hajrat Davalshah Masjid,Mosque,"Hajrat Davalshah Masjid, 131, Maldas St, Old City, Bada Bazar, Bohrwadi, Udaipur, Rajasthan 313001","Old City, Bada Bazar, Bohrwadi","131, Maldas St",Udaipur,313001,Rajasthan,IN,https://www.google.com/maps/place/Hajrat+Davalshah+Masjid/data=!4m7!3m6!1s0x3967e5655cace033:0xf147fe52c17f5f86!8m2!3d24.5818989!4d73.6872963!16s%2Fg%2F1pyqmwwjj!19sChIJM-CsXGXlZzkRhl9_wVL-R_E?authuser=0&hl=en&rclk=1,"24.5818989,73.6872963"
Masjid Panduvakshi,Mosque,"HMJJ+7RJ Masjid Panduvakshi, Old City, Silawatwari, Udaipur, Rajasthan 313001","Old City, Silawatwari",HMJJ+7RJ,Udaipur,313001,Rajasthan,IN,https://www.google.com/maps/place/Masjid+Panduvakshi/data=!4m7!3m6!1s0x3967e56613435d91:0x437adb0fb7894a71!8m2!3d24.5807!4d73.682!16s%2Fg%2F1pyqvj8t_!19sChIJkV1DE2blZzkRcUqJtw_bekM?authuser=0&hl=en&rclk=1,"24.5807,73.682"
masjid mahawatwadi,Mosque,"HMMM+PXX masjid mahawatwadi, masjid chowk , mahawatwadi, Old City, clock tower, Udaipur, Rajasthan 313001","Old City, Jatwari, Silawatwari","HMMM+PXX, masjid chowk , mahawatwadi, Old City, clock tower",Udaipur,313001,Rajasthan,IN,https://www.google.com/maps/place/masjid+mahawatwadi/data=!4m7!3m6!1s0x3967e52cba1c8b6b:0x23ec4335a5c04733!8m2!3d24.5843598!4d73.6849919!16s%2Fg%2F11h5mddn1j!19sChIJa4scuizlZzkRM0fApTVD7CM?authuser=0&hl=en&rclk=1,"24.584359799999998,73.6849919"
Panduwadi Masjid,Mosque,"Panduwadi Masjid, 36, Gadiya Devra Marg, Chand Pole, Silawatwari, Udaipur, Rajasthan 313001","Chand Pole, Silawatwari","36, Gadiya Devra Marg",Udaipur,313001,Rajasthan,IN,https://www.google.com/maps/place/Panduwadi+Masjid/data=!4m7!3m6!1s0x3967e566124459af:0x46072ab75fce6808!8m2!3d24.582038!4d73.681849!16s%2Fg%2F11g8bqrn35!19sChIJr1lEEmblZzkRCGjOX7cqB0Y?authuser=0&hl=en&rclk=1,"24.582037999999997,73.681849"
Bohra Masjid Chamanpura,Mosque,"HMQQ+P7J Bohra Masjid Chamanpura, Loha Bazar, Hathipole, Loha Bazar, Chamanpura, Udaipur, Rajasthan 313001","Loha Bazar, Hathipole, Loha Bazar, Chamanpura",HMQQ+P7J,Udaipur,313001,Rajasthan,IN,https://www.google.com/maps/place/Bohra+Masjid+Chamanpura/data=!4m7!3m6!1s0x3967e56defe9c74f:0x6ca826c4f42d3c97!8m2!3d24.5893269!4d73.6881405!16s%2Fg%2F1ptwy079t!19sChIJT8fp723lZzkRlzwt9MQmqGw?authuser=0&hl=en&rclk=1,"24.5893269,73.6881405"
Kadri masjid,Mosque,"HMVW+R89 Kadri masjid, Madhuban, Udaipur, Rajasthan 313001",Madhuban,HMVW+R89,Udaipur,313001,Rajasthan,IN,https://www.google.com/maps/place/Kadri+masjid/data=!4m7!3m6!1s0x3967e53425e8fec7:0x3277385a9efcf72d!8m2!3d24.594537!4d73.695855!16s%2Fg%2F11fpfkq_pr!19sChIJx_7oJTTlZzkRLff8nlo4dzI?authuser=0&hl=en&rclk=1,"24.594537,73.695855"
Sunni masjid panduwari,Mosque,"Sunni masjid panduwari, 62, Moti Bhawan, Pandu Wadi, Gadiya Dewra, City Palace Rd, opposite Minerwa hotel, Old City, Udaipur, Rajasthan 313001",Old City,"62, Moti Bhawan, Pandu Wadi, Gadiya Dewra, City Palace Rd, opposite Minerwa hotel",Udaipur,313001,Rajasthan,IN,https://www.google.com/maps/place/Sunni+masjid+panduwari/data=!4m7!3m6!1s0x3967e50e3ef70219:0x5f9212433094b7fb!8m2!3d24.5810231!4d73.6825148!16s%2Fg%2F11rkg3tjtl!19sChIJGQL3Pg7lZzkR-7eUMEMSkl8?authuser=0&hl=en&rclk=1,"24.5810231,73.68251479999999"
Masjid Hujjatul Islam msjd Hj@ lslm,Mosque,"HMPP+G6V Masjid Hujjatul Islam msjd Hj@ lslm, Old City, Jatwari, Silawatwari, Udaipur, Rajasthan 313001","Old City, Jatwari, Silawatwari",HMPP+G6V,Udaipur,313001,Rajasthan,IN,https://www.google.com/maps/place/Masjid+Hujjatul+Islam+%D9%85%D8%B3%D8%AC%D8%AF+%D8%AD%D8%AC%D8%A9+%D8%A7%D9%84%D8%B3%D9%84%D8%A7%D9%85%E2%80%AD/data=!4m7!3m6!1s0x3967e527f3cb1f79:0xf05dd06bcff5e26d!8m2!3d24.586369!4d73.6855563!16s%2Fg%2F11r773d5l4!19sChIJeR_L8yflZzkRbeL1z2vQXfA?authuser=0&hl=en&rclk=1,"24.586368999999998,73.6855563"
Masjid Owesh-Al-Qarni (R.A.),Mosque,"HMQ6+FCQ Masjid Owesh-Al-Qarni (R.A.), Malla Talai, Udaipur, Rajasthan 313001",Malla Talai,HMQ6+FCQ,Udaipur,313001,Rajasthan,IN,https://www.google.com/maps/place/Masjid+Owesh-Al-Qarni+%28R.A.%29/data=!4m7!3m6!1s0x3967e5a197e0993f:0xdc9d26ab5137b98c!8m2!3d24.5887022!4d73.6611077!16s%2Fg%2F11rcr76lyx!19sChIJP5ngl6HlZzkRjLk3Uasmndw?authuser=0&hl=en&rclk=1,"24.5887022,73.6611077"
Masjid Quzi Wada,Mosque,"HMMP+9R9 Masjid Quzi Wada, Maldas St, Moti Chohatta, Silawatwari, Udaipur, Rajasthan 313001","Moti Chohatta, Silawatwari","HMMP+9R9, Maldas St",Udaipur,313001,Rajasthan,IN,https://www.google.com/maps/place/Masjid+Quzi+Wada/data=!4m7!3m6!1s0x3967e5c98a91b02d:0xbb05e12314159584!8m2!3d24.5834182!4d73.6870951!16s%2Fg%2F11g0g3jkr9!19sChIJLbCRisnlZzkRhJUVFCPhBbs?authuser=0&hl=en&rclk=1,"24.5834182,73.6870951"
Masjid mewa farosan,Mosque,"Masjid mewa farosan, 786, Rd Number 5, Ashok Nagar, Udaipur, Rajasthan 313001",Ashok Nagar,"786, Rd Number 5",Udaipur,313001,Rajasthan,IN,https://www.google.com/maps/place/Masjid+mewa+farosan/data=!4m7!3m6!1s0x3967e5d97be5d7c3:0x32a846a8f439858a!8m2!3d24.588372!4d73.7028122!16s%2Fg%2F11swgf90wh!19sChIJw9fle9nlZzkRioU59KhGqDI?authuser=0&hl=en&rclk=1,"24.588372,73.7028122"
Ghosiya masjid sec 3-6,Mosque,"HPP6+5XH Ghosiya masjid sec 3-6, Ayad, Shakti Nagar, Udaipur, Rajasthan 313001","Ayad, Shakti Nagar",HPP6+5XH,Udaipur,,Rajasthan,IN,https://www.google.com/maps/place/Ghosiya+masjid+sec+3-6/data=!4m7!3m6!1s0x3967e559c1493bb7:0x47e2e0c8f027d13e!8m2!3d24.585445!4d73.712479!16s%2Fg%2F11hdsr7pq7!19sChIJtztJwVnlZzkRPtEn8Mjg4kc?authuser=0&hl=en&rclk=1,"24.585445,73.712479"
Darkhanwadi Mosque,Mosque,"HMMQ+F5F Darkhanwadi Mosque, Maldas St, Sindhi Bazar Rd, Bohrwadi, Udaipur, Rajasthan 313001","Old City, Bohrwadi","HMMQ+F5F, Maldas St, Sindhi Bazar Rd",Udaipur,313001,Rajasthan,IN,https://www.google.com/maps/place/Darkhanwadi+Mosque/data=!4m7!3m6!1s0x3967e50afcb229af:0xe8330e08dfaf2374!8m2!3d24.5836772!4d73.6879098!16s%2Fg%2F11gmxvr9zp!19sChIJrymy_ArlZzkRdCOv3wgOM-g?authuser=0&hl=en&rclk=1,"24.5836772,73.6879098"
Shia Masjid & Imambada,Religious institution,"Shia Masjid & Imambada, near Ajanta Hotel, Hathipole, City's Prime Health Care Area, Udaipur, Rajasthan 313001","Hathipole, City's Prime Health Care Area",near Ajanta Hotel,Udaipur,313001,Rajasthan,IN,https://www.google.com/maps/place/Shia+Masjid+%26+Imambada/data=!4m7!3m6!1s0x3967e51218abab35:0xb6972f70d2cb5317!8m2!3d24.5879427!4d73.6899423!16s%2Fg%2F11gs8_jn43!19sChIJNaurGBLlZzkRF1PL0nAvl7Y?authuser=0&hl=en&rclk=1,"24.5879427,73.6899423"
Dargah,Mosque,"HPX4+QQQ Dargah, New Bhupalpura, Rupsagar, Udaipur, Rajasthan 313001","New Bhupalpura, Rupsagar",HPX4+QQQ,Udaipur,313001,Rajasthan,IN,https://www.google.com/maps/place/Dargah/data=!4m7!3m6!1s0x3967e5cbd5ce7df7:0xe1b216a0008ebfc2!8m2!3d24.5994581!4d73.7070341!16s%2Fg%2F11q3vksm7d!19sChIJ933O1cvlZzkRwr-OAKAWsuE?authuser=0&hl=en&rclk=1,"24.5994581,73.7070341"
Masjid makbara,Mosque,"Masjid makbara, 313001, Surajpole, Nada Khada, Udaipur, Rajasthan 313001","Surajpole, Nada Khada",313001,Udaipur,313001,Rajasthan,IN,https://www.google.com/maps/place/Masjid+makbara/data=!4m7!3m6!1s0x3967e585fb0ba119:0x8a6877067773325d!8m2!3d24.5775381!4d73.6960474!16s%2Fg%2F11spznhr2g!19sChIJGaEL-4XlZzkRXTJzdwZ3aIo?authuser=0&hl=en&rclk=1,"24.577538099999998,73.6960474"
Masjid chilla,Mosque,"93, Masjid chilla, 93, Sindhi Bazar Rd, near Bada Bazaar, Old City, Silawatwari, Udaipur, Rajasthan 313001","Old City, Silawatwari","93, 93, Sindhi Bazar Rd, near Bada Bazaar",Udaipur,313001,Rajasthan,IN,https://www.google.com/maps/place/Masjid+chilla/data=!4m7!3m6!1s0x3967e5eb934af535:0xfc07a95d6a95938d!8m2!3d24.5821759!4d73.6876648!16s%2Fg%2F11pzbmcvdg!19sChIJNfVKk-vlZzkRjZOVal2pB_w?authuser=0&hl=en&rclk=1,"24.5821759,73.6876648"
Masjid,Mosque,"Masjid, 36, Ambavgarh, opposite MMVM School, Ambamata, Udaipur, Rajasthan 313001",Ambamata,"36, Ambavgarh, opposite MMVM School",Udaipur,313001,Rajasthan,IN,https://www.google.com/maps/place/Masjid/data=!4m7!3m6!1s0x3967e57f8bd19253:0xd1422971a84c9130!8m2!3d24.5882505!4d73.6807124!16s%2Fg%2F11vcbd_7g9!19sChIJU5LRi3_lZzkRMJFMqHEpQtE?authuser=0&hl=en&rclk=1,"24.588250499999997,73.68071239999999"
Masjid Nada khada,Mosque,"Masjid Nada khada, 13b, Nehru Bazar Rd, opp. sardar batery, Old City, Bapu Bazar, Nada Khada, Udaipur, Rajasthan 313001","Old City, Bapu Bazar, Nada Khada","13b, Nehru Bazar Rd, opp. sardar batery",Udaipur,313001,Rajasthan,IN,https://www.google.com/maps/place/Masjid+Nada+khada/data=!4m7!3m6!1s0x3967e5450b6f3e3b:0x9f1f70dab58d5220!8m2!3d24.5818334!4d73.6954179!16s%2Fg%2F11rqchf6hx!19sChIJOz5vC0XlZzkRIFKNtdpwH58?authuser=0&hl=en&rclk=1,"24.581833399999997,73.6954179"
Masjid Lanka Pati sarkar,Mosque,"Masjid Lanka Pati sarkar, 122,Badi holi bhopal wadi udaipur raj, Rajasthan 313001","Old City, Nada Khada","122,Badi holi bhopal wadi udaipur raj",Udaipur,313001,Rajasthan,IN,https://www.google.com/maps/place/Masjid+Lanka+Pati+sarkar/data=!4m7!3m6!1s0x3967e5c3b4d4158b:0xd69f4a678b4591a1!8m2!3d24.582429!4d73.6904874!16s%2Fg%2F11spznhx92!19sChIJixXUtMPlZzkRoZFFi2dKn9Y?authuser=0&hl=en&rclk=1,"24.582428999999998,73.6904874"
Khanpura Masjid,Mosque,"HMMP+2MF Khanpura Masjid, Moti Chohatta, Bohrwadi, Udaipur, Rajasthan 313001","Moti Chohatta, Bohrwadi",HMMP+2MF,Udaipur,313001,Rajasthan,IN,https://www.google.com/maps/place/Khanpura+Masjid/data=!4m7!3m6!1s0x3967e5e61bb51663:0x13b4dbc6da4727ce!8m2!3d24.582565!4d73.6866864!16s%2Fg%2F11pf18mmjr!19sChIJYxa1G-blZzkRzidH2sbbtBM?authuser=0&hl=en&rclk=1,"24.582565,73.6866864"
Ambavgad masjid,Mosque,"HMPG+GMF Ambavgad masjid, Ambamata, Udaipur, Rajasthan 313001",Ambamata,HMPG+GMF,Udaipur,313001,Rajasthan,IN,https://www.google.com/maps/place/Ambavgad+masjid/data=!4m7!3m6!1s0x3967e511393e7b6f:0xa156eba9c29becd4!8m2!3d24.5863006!4d73.6766592!16s%2Fg%2F11vcbdwyzk!19sChIJb3s-ORHlZzkR1OybwqnrVqE?authuser=0&hl=en&rclk=1,"24.586300599999998,73.6766592"
Hazrat Roshan saha baba dargah masjid,Mosque,"Hazrat Roshan saha baba dargah masjid, C Industrial Estate, C-9, Pratap Nagar Rd, Sunderwas, Khempura, Udaipur, Rajasthan 313001","Sunderwas, Khempura","C Industrial Estate, C-9, Pratap Nagar Rd",Udaipur,313001,Rajasthan,IN,https://www.google.com/maps/place/Hazrat+Roshan+saha+baba+dargah+masjid/data=!4m7!3m6!1s0x3967e532de87620b:0xa56c5d6dd9600fb9!8m2!3d24.5881122!4d73.7421769!16s%2Fg%2F11ss4vfldb!19sChIJC2KH3jLlZzkRuQ9g2W1dbKU?authuser=0&hl=en&rclk=1,"24.588112199999998,73.74217689999999"
msjd mTfy rD nwry,Mosque,"HMPP+JV7 msjd mTfy rD nwry, Hathipol Rd, Old City, Silawatwari, Udaipur, Rajasthan 313001","Old City, Silawatwari","HMPP+JV7, Hathipol Rd",Udaipur,313001,Rajasthan,IN,https://www.google.com/maps/place/%D9%85%D8%B3%D8%AC%D8%AF+%D9%85%D8%B7%D9%81%DB%8C+%D8%B1%D8%B6%D8%A7+%D9%86%D9%88%D8%B1%DB%8C%E2%80%AD/data=!4m7!3m6!1s0x3967e5797c6c9e35:0xbea0a681da9562f3!8m2!3d24.5865331!4d73.6871774!16s%2Fg%2F11nrv1084l!19sChIJNZ5sfHnlZzkR82KV2oGmoL4?authuser=0&hl=en&rclk=1,"24.5865331,73.6871774"
Hazrat sayyad zagrrar ali sha,Mosque,"HPFH+7RJ Hazrat sayyad zagrrar ali sha, Shanti Nagar, Sector 3, Udaipur, Rajasthan 313001","Shanti Nagar, Sector 3",HPFH+7RJ,Udaipur,313001,Rajasthan,IN,https://www.google.com/maps/place/Hazrat+sayyad+zagrrar+ali+sha/data=!4m7!3m6!1s0x3967ef3bb5bbe473:0xc4ca916518eafccd!8m2!3d24.5732445!4d73.7294603!16s%2Fg%2F11s7td2987!19sChIJc-S7tTvvZzkRzfzqGGWRysQ?authuser=0&hl=en&rclk=1,"24.573244499999998,73.7294603"
