name,main_category,address,address_ward,address_street,address_city,address_postal_code,address_state,address_country_code,link,coordinates
BHABANIBATI OKTIA MASJID bhbaaniibaattii aktiyyaa maasjid,Mosque,"BHABANIBATI OKTIA MASJID bhbaaniibaattii aktiyyaa maasjid, Dhuliyan, Alamsahi, West Bengal 742224",,,"Dhuliyan, Alamsahi",742224,West Bengal,IN,https://www.google.com/maps/place/BHABANIBATI+OKTIA+MASJID+%E0%A6%AD%E0%A6%AC%E0%A6%BE%E0%A6%A8%E0%A7%80%E0%A6%AC%E0%A6%BE%E0%A6%9F%E0%A7%80+%E0%A6%85%E0%A6%95%E0%A6%A4%E0%A6%BF%E0%A7%9F%E0%A6%BE+%E0%A6%AE%E0%A6%BE%E0%A6%B8%E0%A6%9C%E0%A6%BF%E0%A6%A6/data=!4m7!3m6!1s0x39fa45df22c718cf:0xa39d7cc9cef3d6b6!8m2!3d24.6242648!4d87.9711915!16s%2Fg%2F11rssq0b0m!19sChIJzxjHIt9F-jkRttbzzsl8naM?authuser=0&hl=en&rclk=1,"24.6242648,87.97119149999999"
Markaz Masjid Siddiq Chowk,Mosque,"744Q+GQM Markaz Masjid Siddiq Chowk, Kannad, Maharashtra 431103",Kannad,744Q+GQM,Kannad,431103,Maharashtra,IN,https://www.google.com/maps/place/Markaz+Masjid+Siddiq+Chowk/data=!4m7!3m6!1s0x3bdbf00928f1c2f5:0x24e7df2cae124139!8m2!3d20.2563339!4d75.1394339!16s%2Fg%2F1z44b0dr3!19sChIJ9cLxKAnw2zsROUESrizf5yQ?authuser=0&hl=en&rclk=1,"20.256333899999998,75.1394339"
Jama Masjid,Mosque,"743Q+GHR Jama Masjid, Maliwada Rd, Maliwada, Kannad, Pishore, Kannad, Maharashtra 431104","Maliwada, Kannad","743Q+GHR, Maliwada Rd","Pishore, Kannad",431104,Maharashtra,IN,https://www.google.com/maps/place/Jama+Masjid/data=!4m7!3m6!1s0x3bdbf00ee952ae79:0xe3c1b6f72a2346ae!8m2!3d20.2538622!4d75.1388931!16s%2Fg%2F11c1qs99sx!19sChIJea5S6Q7w2zsRrkYjKve2weM?authuser=0&hl=en&rclk=1,"20.2538622,75.13889309999999"
Masjid Gausulwara (Ahle Sunnat Wal Jamaat),Mosque,"743R+VF6 Masjid Gausulwara (Ahle Sunnat Wal Jamaat), Shivna nadiRd, Kannad, Maharashtra 431103",Kannad,"743R+VF6, Shivna nadiRd",Kannad,431103,Maharashtra,IN,https://www.google.com/maps/place/Masjid+Gausulwara+%28Ahle+Sunnat+Wal+Jamaat%29/data=!4m7!3m6!1s0x3bdbf00f3eebbc61:0x27e1ab764963fcaf!8m2!3d20.2546744!4d75.1411451!16s%2Fg%2F11f10f0npn!19sChIJYbzrPg_w2zsRr_xjSXar4Sc?authuser=0&hl=en&rclk=1,"20.2546744,75.1411451"
Madina Masjid,Mosque,"746Q+VFM Madina Masjid, Karim Nagar Rd, Kannad, Maharashtra 431103",Kannad,"746Q+VFM, Karim Nagar Rd",Kannad,431103,Maharashtra,IN,https://www.google.com/maps/place/Madina+Masjid/data=!4m7!3m6!1s0x3bdbfaa7662b54b1:0xb10d0ef548921c77!8m2!3d20.2622059!4d75.1386791!16s%2Fg%2F11f_1gpy4r!19sChIJsVQrZqf62zsRdxySSPUODbE?authuser=0&hl=en&rclk=1,"20.262205899999998,75.13867909999999"
Momin Masjid,Mosque,"Momin Masjid, Shanti Nagar, Kannad, Maharashtra 431103",Shanti Nagar,,Kannad,431103,Maharashtra,IN,https://www.google.com/maps/place/Momin+Masjid/data=!4m7!3m6!1s0x3bdbfaa3a3865469:0xebe0b5e876680800!8m2!3d20.269373!4d75.1351669!16s%2Fg%2F11g6b1yh0v!19sChIJaVSGo6P62zsRAAhodui14Os?authuser=0&hl=en&rclk=1,"20.269372999999998,75.1351669"
Harioka Jumma Masjid,Mosque,"8Q6V+842 Harioka Jumma Masjid, Haritoka, West Bengal 731238",,8Q6V+842,Haritoka,,West Bengal,IN,https://www.google.com/maps/place/Harioka+Jumma+Masjid/data=!4m7!3m6!1s0x39fa19e6c2799777:0xf91e1cc576051aa7!8m2!3d24.3107656!4d87.7927809!16s%2Fg%2F11g02syv0k!19sChIJd5d5wuYZ-jkRpxoFdsUcHvk?authuser=0&hl=en&rclk=1,"24.3107656,87.7927809"
Masjid e Abdul Gani,Mosque,"Masjid e Abdul Gani, Bus Stand, Kannad, Maharashtra 431103",Kannad,Bus Stand,Kannad,431103,Maharashtra,IN,https://www.google.com/maps/place/Masjid+e+Abdul+Gani/data=!4m7!3m6!1s0x3bdbf178e7bfc6e7:0x81600e056728b9d0!8m2!3d20.2562251!4d75.1350814!16s%2Fg%2F11fnyf9447!19sChIJ58a_53jx2zsR0LkoZwUOYIE?authuser=0&hl=en&rclk=1,"20.256225099999998,75.13508139999999"
Khairakandi Juma Masjid,Mosque,"QW97+C4G Khairakandi Juma Masjid, Sahanagar, Farakka, West Bengal 742236",,QW97+C4G,"Sahanagar, Farakka",,West Bengal,IN,https://www.google.com/maps/place/Khairakandi+Juma+Masjid/data=!4m7!3m6!1s0x39fa5d763724a821:0xf77a0b7a33359e04!8m2!3d24.7685591!4d87.9128204!16s%2Fg%2F11gmcxr68d!19sChIJIagkN3Zd-jkRBJ41M3oLevc?authuser=0&hl=en&rclk=1,"24.768559099999997,87.9128204"
MALOPARA JUMMA MAJDIJ,Mosque,"H2WR+7MR MALOPARA JUMMA MAJDIJ, Chhabghati, Aurangabad, Paschim Punropara, West Bengal 742201",Chhabghati,H2WR+7MR,"Aurangabad, Paschim Punropara",742201,West Bengal,IN,https://www.google.com/maps/place/MALOPARA+JUMMA+MAJDIJ/data=!4m7!3m6!1s0x39fa48d00cbb9e39:0x4453d5e5c245b7c0!8m2!3d24.5957469!4d88.0416522!16s%2Fg%2F11f15lpblc!19sChIJOZ67DNBI-jkRwLdFwuXVU0Q?authuser=0&hl=en&rclk=1,"24.595746899999998,88.0416522"
Nengri Para Jame Masjid,Place of worship,"F3FP+QJ6 Nengri Para Jame Masjid, Jayarampur, Mukundapur, Jangipur, West Bengal 742213",Jayarampur,F3FP+QJ6,"Mukundapur, Jangipur",742213,West Bengal,IN,https://www.google.com/maps/place/Nengri+Para+Jame+Masjid/data=!4m7!3m6!1s0x39fa37cdde315f25:0xb4a18049cf21e138!8m2!3d24.4744074!4d88.0865019!16s%2Fg%2F11gh_llsx0!19sChIJJV8x3s03-jkROOEhz0mAobQ?authuser=0&hl=en&rclk=1,"24.4744074,88.0865019"
Masjid,Mosque,"57GH+VXP Masjid, Lalbagh, Murshidabad, West Bengal 742149",Lalbagh,57GH+VXP,Murshidabad,742149,West Bengal,IN,https://www.google.com/maps/place/Masjid/data=!4m7!3m6!1s0x39fbd656a174ffbd:0x249529c00466ed04!8m2!3d24.1772108!4d88.279963!16s%2Fg%2F11f4_319rq!19sChIJvf90oVbW-zkRBO1mBMAplSQ?authuser=0&hl=en&rclk=1,"24.177210799999997,88.279963"
Ayesha masjid,Mosque,"744M+4PC Ayesha masjid, Kannad, Maharashtra 431103",Kannad,744M+4PC,Kannad,431103,Maharashtra,IN,https://www.google.com/maps/place/Ayesha+masjid/data=!4m7!3m6!1s0x3bdbf1eebe90ca4f:0xa92f7b33e1421c57!8m2!3d20.2553002!4d75.134266!16s%2Fg%2F11qphl9jy4!19sChIJT8qQvu7x2zsRVxxC4TN7L6k?authuser=0&hl=en&rclk=1,"20.2553002,75.134266"
Bilal Masjid,Mosque,"748P+83X Bilal Masjid, Ganesh Colony, Kannad, Maharashtra 431103",Ganesh Colony,748P+83X,Kannad,431103,Maharashtra,IN,https://www.google.com/maps/place/Bilal+Masjid/data=!4m7!3m6!1s0x3bdbfaa16bf8c817:0x9434a79b4907ab6f!8m2!3d20.265859!4d75.1352189!16s%2Fg%2F11c6w3dj9d!19sChIJF8j4a6H62zsRb6sHSZunNJQ?authuser=0&hl=en&rclk=1,"20.265859,75.1352189"
Chowk Masjid,Mosque,"744Q+7QP Chowk Masjid, Kannad, Maharashtra 431103",Kannad,744Q+7QP,Kannad,431103,Maharashtra,IN,https://www.google.com/maps/place/Chowk+Masjid/data=!4m7!3m6!1s0x3bdbf00ed3257339:0x163342cc2f9c8aef!8m2!3d20.2557188!4d75.1394404!16s%2Fg%2F11f2xxy361!19sChIJOXMl0w7w2zsR74qcL8xCMxY?authuser=0&hl=en&rclk=1,"20.2557188,75.1394404"
JUMMA MASJID,Mosque,"RWGW+WG9 JUMMA MASJID, Ajimtola, Jagannathpur, West Bengal",,"RWGW+WG9, Ajimtola",Jagannathpur,,West Bengal,IN,https://www.google.com/maps/place/JUMMA+MASJID/data=!4m7!3m6!1s0x39fa593baff926db:0x32f615bbe0348ad6!8m2!3d24.8272774!4d87.9463552!16s%2Fg%2F11ddzx5zp5!19sChIJ2yb5rztZ-jkR1oo04LsV9jI?authuser=0&hl=en&rclk=1,"24.8272774,87.9463552"
MASJID E NIMRAH msjideN nimraah,Mosque,"746R+396 MASJID E NIMRAH msjideN nimraah, Kannad, Maharashtra 431103",Kannad,746R+396,Kannad,431103,Maharashtra,IN,https://www.google.com/maps/place/MASJID+E+NIMRAH+%E0%A4%AE%E0%A4%B8%E0%A5%8D%E0%A4%9C%E0%A4%BF%E0%A4%A6%E0%A5%87%E0%A4%82+%E0%A4%A8%E0%A4%BF%E0%A4%AE%E0%A4%B0%E0%A4%BE%E0%A4%B9/data=!4m7!3m6!1s0x3bdbf15c2d0b8ce3:0x22c1981504829131!8m2!3d20.2601453!4d75.1408451!16s%2Fg%2F11k52jm4wx!19sChIJ44wLLVzx2zsRMZGCBBWYwSI?authuser=0&hl=en&rclk=1,"20.260145299999998,75.14084509999999"
Masjid Noorani Lashkar,Mosque,"Masjid Noorani Lashkar, Tehsil, road, Kannad, Maharashtra 431103",Kannad,"Tehsil, road",Kannad,431103,Maharashtra,IN,https://www.google.com/maps/place/Masjid+Noorani+Lashkar/data=!4m7!3m6!1s0x3bdbf10a5db2b235:0x7ff3dbfb876c769b!8m2!3d20.2589213!4d75.1378527!16s%2Fg%2F11h35pfh9f!19sChIJNbKyXQrx2zsRm3Zsh_vb838?authuser=0&hl=en&rclk=1,"20.2589213,75.1378527"
Khejur bona Jumma Masjid,Mosque,"8755+G79 Khejur bona Jumma Masjid, Sadasib, West Bengal 742135",,8755+G79,Sadasib,742135,West Bengal,IN,https://www.google.com/maps/place/Khejur+bona+Jumma+Masjid/data=!4m7!3m6!1s0x39fbd17bf4954731:0x122d33932feedd37!8m2!3d24.3087952!4d88.2582382!16s%2Fg%2F11j6wgdp79!19sChIJMUeV9HvR-zkRN93uL5MzLRI?authuser=0&hl=en&rclk=1,"24.3087952,88.2582382"
Jalbandha Jumma Masjid,Mosque,"73R6+M34 Jalbandha Jumma Masjid, Jalbanda, West Bengal 742226",,73R6+M34,Jalbanda,742226,West Bengal,IN,https://www.google.com/maps/place/Jalbandha+Jumma+Masjid/data=!4m7!3m6!1s0x39fa2fcc0f371ce1:0x88458291e90c77fb!8m2!3d24.2916481!4d88.060202!16s%2Fg%2F11q3606nql!19sChIJ4Rw3D8wv-jkR-3cM6ZGCRYg?authuser=0&hl=en&rclk=1,"24.2916481,88.06020199999999"
Madia masjid,Mosque,"79X3+P3X Madia masjid, Rasulpur, West Bengal 742135",,79X3+P3X,Rasulpur,742135,West Bengal,IN,https://www.google.com/maps/place/Madia+masjid/data=!4m7!3m6!1s0x39fbdb89780e9deb:0xcfc42991971f8cc0!8m2!3d24.2993534!4d88.3527254!16s%2Fg%2F11fpj9ppzp!19sChIJ650OeInb-zkRwIwfl5EpxM8?authuser=0&hl=en&rclk=1,"24.299353399999998,88.3527254"
Abuhanifa Masjid,Mosque,"748Q+H99 Abuhanifa Masjid, Ganpati Mandir Rd, Ganesh Colony, Kannad, Maharashtra 431103",Ganesh Colony,"748Q+H99, Ganpati Mandir Rd",Kannad,431103,Maharashtra,IN,https://www.google.com/maps/place/Abuhanifa+Masjid/data=!4m7!3m6!1s0x3bdbfba8efe355d5:0xa71b653c1e4b60f4!8m2!3d20.2664092!4d75.1384743!16s%2Fg%2F11gxwspm5m!19sChIJ1VXj76j72zsR9GBLHjxlG6c?authuser=0&hl=en&rclk=1,"20.2664092,75.1384743"
Masjid E Rahemaniya MN,Mosque,"744P+8H2 Masjid E Rahemaniya MN, Mehtab Nagar, Kannad, Maharashtra 431103",Kannad,"744P+8H2, Mehtab Nagar",Kannad,431103,Maharashtra,IN,https://www.google.com/maps/place/Masjid+E+Rahemaniya+MN/data=!4m7!3m6!1s0x3bdbf00bf7562681:0xfb514b7e52c3113a!8m2!3d20.2557678!4d75.1363948!16s%2Fg%2F11f04qhr1b!19sChIJgSZW9wvw2zsROhHDUn5LUfs?authuser=0&hl=en&rclk=1,"20.255767799999997,75.13639479999999"
Kamraon,Mosque,"MRFP+3FP Kamraon, Dalsinghsarai, Bihar 848114",,MRFP+3FP,Dalsinghsarai,848114,Bihar,IN,https://www.google.com/maps/place/Kamraon/data=!4m7!3m6!1s0x39ed89ead5440dc3:0x9ffb216fd208ee76!8m2!3d25.6727062!4d85.8361928!16s%2Fg%2F11s7yv9jzc!19sChIJww1E1eqJ7TkRdu4I0m8h-58?authuser=0&hl=en&rclk=1,"25.6727062,85.83619279999999"
Kankuria Sunni Jame Masjid,Mosque,"Kankuria Sunni Jame Masjid, Kankaria, West Bengal 742225",,,Kankaria,742225,West Bengal,IN,https://www.google.com/maps/place/Kankuria+Sunni+Jame+Masjid/data=!4m7!3m6!1s0x39fa375bc1f4eca5:0xad06036a1f8f1cd4!8m2!3d24.442378!4d88.0444708!16s%2Fg%2F11h0cfn5sy!19sChIJpez0wVs3-jkR1ByPH2oDBq0?authuser=0&hl=en&rclk=1,"24.442377999999998,88.0444708"
KEDUA MOSQUE,Mosque,"QVCJ+C3X KEDUA MOSQUE, Kendua, West Bengal 742212",,QVCJ+C3X,Kendua,742212,West Bengal,IN,https://www.google.com/maps/place/KEDUA+MOSQUE/data=!4m7!3m6!1s0x39fa5d092260e2cb:0x134bac8f3bf6c17!8m2!3d24.771109!4d87.8802412!16s%2Fg%2F11j22s4yty!19sChIJy-JgIgld-jkRF2y_88i6NAE?authuser=0&hl=en&rclk=1,"24.771109,87.8802412"
Baharon masjid kannad,Mosque,"748J+GV7 Baharon masjid kannad, NH52, Shiv Nagar, Kannad, Maharashtra 431103",Shiv Nagar,"748J+GV7, NH52",Kannad,431103,Maharashtra,IN,https://www.google.com/maps/place/Baharon+masjid+kannad/data=!4m7!3m6!1s0x3bdbfbdfbccb6661:0x1f665e955c713ea!8m2!3d20.2662983!4d75.1321845!16s%2Fg%2F11jggzbsj1!19sChIJYWbLvN_72zsR6hPHVell9gE?authuser=0&hl=en&rclk=1,"20.2662983,75.1321845"
Rahmaniya Masjid Aurangzeb Colony Kannad,Mosque,"74CG+59J Rahmaniya Masjid Aurangzeb Colony Kannad, Shiv Nagar, Kannad, Maharashtra 431103",Shiv Nagar,74CG+59J,Kannad,431103,Maharashtra,IN,https://www.google.com/maps/place/Rahmaniya+Masjid+Aurangzeb+Colony+Kannad/data=!4m7!3m6!1s0x3bdbfbb643e7d35b:0x35096edb1ac0419!8m2!3d20.270457!4d75.1258768!16s%2Fg%2F11kgptdx7k!19sChIJW9PnQ7b72zsRGQSsse2WUAM?authuser=0&hl=en&rclk=1,"20.270457,75.1258768"
Masjid e Bara Dari,Mosque,"745M+HMR Masjid e Bara Dari, Humchand Nagar, Balaji Nagar, Kannad, Maharashtra 431103","Humchand Nagar, Balaji Nagar",745M+HMR,Kannad,431103,Maharashtra,IN,https://www.google.com/maps/place/Masjid+e+Bara+Dari/data=!4m7!3m6!1s0x3bdbf154f3ddfe71:0x9b1b3e623274246a!8m2!3d20.2589883!4d75.1341362!16s%2Fg%2F11fsjzrvgx!19sChIJcf7d81Tx2zsRaiR0MmI-G5s?authuser=0&hl=en&rclk=1,"20.2589883,75.1341362"
Dargah Masjid,Mosque,"Dargah Masjid, Kannad, Maharashtra 431103",Kannad,,Kannad,431103,Maharashtra,IN,https://www.google.com/maps/place/Dargah+Masjid/data=!4m7!3m6!1s0x3bdbf008deb1483f:0x54765b9c80bed4e9!8m2!3d20.2569469!4d75.1402476!16s%2Fg%2F11gfxkb_hp!19sChIJP0ix3gjw2zsR6dS-gJxbdlQ?authuser=0&hl=en&rclk=1,"20.2569469,75.1402476"
Yasin Seth masjid,Mosque,"747R+QG2 Yasin Seth masjid, Kannad, Maharashtra 431103",,747R+QG2,Kannad,431103,Maharashtra,IN,https://www.google.com/maps/place/Yasin+Seth+masjid/data=!4m7!3m6!1s0x3bdbfbe6dcedf359:0x5f39d5e58b48279!8m2!3d20.2643702!4d75.1412091!16s%2Fg%2F11jz7bwgf3!19sChIJWfPt3Ob72zsReYK0WF6d8wU?authuser=0&hl=en&rclk=1,"20.2643702,75.1412091"
AQSA MASJID,Mosque,"74CV+Q74 AQSA MASJID, Brahamni Garada Road,Aqsa Nagar,Narsingpur, Kannad, 431103",,"74CV+Q74, Brahamni Garada Road,Aqsa Nagar,Narsingpur",Kannad,431103,Maharashtra,IN,https://www.google.com/maps/place/AQSA+MASJID/data=!4m7!3m6!1s0x3bdbfb5e5d9ae6cf:0x487dbdec9751b0b5!8m2!3d20.2718975!4d75.1432071!16s%2Fg%2F11hg46g397!19sChIJz-aaXV772zsRtbBRl-y9fUg?authuser=0&hl=en&rclk=1,"20.271897499999998,75.1432071"
Ali masjid bismillah colony,Mosque,"Ali masjid bismillah colony, Samrth nagar, Shiv Nagar, Kannad, Maharashtra 431103",Shiv Nagar,Samrth nagar,Kannad,,Maharashtra,IN,https://www.google.com/maps/place/Ali+masjid+bismillah+colony/data=!4m7!3m6!1s0x3bdbfb52c000cb33:0xda93fe983e44c3fb!8m2!3d20.2689144!4d75.1284214!16s%2Fg%2F11jxnd0kqk!19sChIJM8sAwFL72zsR-8NEPpj-k9o?authuser=0&hl=en&rclk=1,"20.2689144,75.1284214"
JUMMA MASJID,Mosque,"MXG3+225 JUMMA MASJID, Anup Nagar, West Bengal 742202",,MXG3+225,Anup Nagar,742202,West Bengal,IN,https://www.google.com/maps/place/JUMMA+MASJID/data=!4m7!3m6!1s0x39fa45da2a404b63:0x9d3faa1e80297697!8m2!3d24.6750022!4d87.9526056!16s%2Fg%2F11svjgj4g9!19sChIJY0tAKtpF-jkRl3YpgB6qP50?authuser=0&hl=en&rclk=1,"24.675002199999998,87.9526056"
Jumma masjid,Mosque,"MWJX+PQH Jumma masjid, Natun bazar, Thakurpara, Dhuliyan, Anup Nagar, West Bengal 742202",Thakurpara,"MWJX+PQH, Natun bazar","Dhuliyan, Anup Nagar",742202,West Bengal,IN,https://www.google.com/maps/place/Jumma+masjid/data=!4m7!3m6!1s0x39fa45ed7b2fcfb5:0x1d22df77568c7b78!8m2!3d24.6818144!4d87.9494894!16s%2Fg%2F11n0ds_xn9!19sChIJtc8ve-1F-jkReHuMVnffIh0?authuser=0&hl=en&rclk=1,"24.6818144,87.94948939999999"
Haji Para Masjid,Mosque,"Haji Para Masjid, Tildanda, Farakka, West Bengal 742212",,Tildanda,"Farakka, Uttar Bhabanipur",742212,West Bengal,IN,https://www.google.com/maps/place/Haji+Para+Masjid/data=!4m7!3m6!1s0x39fa5d11df254b03:0x263805e771af1239!8m2!3d24.7889194!4d87.8742548!16s%2Fg%2F11gy3dw7l9!19sChIJA0sl3xFd-jkRORKvcecFOCY?authuser=0&hl=en&rclk=1,"24.788919399999997,87.8742548"
Harirrampur jumma masjid,Mosque,"9R8Q+VV2 Harirrampur jumma masjid, Harirampur, West Bengal 731238",,9R8Q+VV2,Harirampur,731238,West Bengal,IN,https://www.google.com/maps/place/Harirrampur+jumma+masjid/data=!4m7!3m6!1s0x39fa17ba55d01815:0xc6d778d92d3bdf82!8m2!3d24.3671392!4d87.8396279!16s%2Fg%2F11jp175f1y!19sChIJFRjQVboX-jkRgt87Ldl418Y?authuser=0&hl=en&rclk=1,"24.3671392,87.8396279"
Ranpur Jumma Masjid,Mosque,"9RW4+QF4 Ranpur Jumma Masjid, Unnamed Road, Panpur, West Bengal 731238",,"9RW4+QF4, Unnamed Road",Panpur,731238,West Bengal,IN,https://www.google.com/maps/place/Ranpur+Jumma+Masjid/data=!4m7!3m6!1s0x39fa168e18e09e81:0xb9808106cb63f0cb!8m2!3d24.396885!4d87.8061957!16s%2Fg%2F11gf0hn4vb!19sChIJgZ7gGI4W-jkRy_BjywaBgLk?authuser=0&hl=en&rclk=1,"24.396884999999997,87.80619569999999"
Kandaha Utter para mosque,Mosque,"GCXW+X57 Kandaha Utter para mosque, Unnamed Road, Kandaha, West Bengal 733132",,"GCXW+X57, Unnamed Road",Kandaha,733132,West Bengal,IN,https://www.google.com/maps/place/Kandaha+Utter+para+mosque/data=!4m7!3m6!1s0x39fb375cb184d277:0xb45882779b83f6e3!8m2!3d25.5499205!4d88.4454362!16s%2Fg%2F11n08xs98w!19sChIJd9KEsVw3-zkR4_aDm3eCWLQ?authuser=0&hl=en&rclk=1,"25.5499205,88.44543619999999"
ntun jaame msjid,Mosque,"344V+Q6W ntun jaame msjid, Bangladesh",,344V+Q6W,,,,BD,https://www.google.com/maps/place/%E0%A6%A8%E0%A6%A4%E0%A7%81%E0%A6%A8+%E0%A6%9C%E0%A6%BE%E0%A6%AE%E0%A7%87+%E0%A6%AE%E0%A6%B8%E0%A6%9C%E0%A6%BF%E0%A6%A6/data=!4m7!3m6!1s0x3755678996203d1d:0x53b70b151aedb171!8m2!3d23.0569802!4d90.1430631!16s%2Fg%2F11v167txr4!19sChIJHT0glolnVTcRcbHtGhULt1M?authuser=0&hl=en&rclk=1,"23.056980199999998,90.14306309999999"
kchundi baajaar jaame msjid,Mosque,"kchundi baajaar jaame msjid, Magura, Bangladesh",,,Magura,,,BD,https://www.google.com/maps/place/%E0%A6%95%E0%A6%9B%E0%A7%81%E0%A6%A8%E0%A7%8D%E0%A6%A6%E0%A6%BF+%E0%A6%AC%E0%A6%BE%E0%A6%9C%E0%A6%BE%E0%A6%B0+%E0%A6%9C%E0%A6%BE%E0%A6%AE%E0%A7%87+%E0%A6%AE%E0%A6%B8%E0%A6%9C%E0%A6%BF%E0%A6%A6/data=!4m7!3m6!1s0x39fe516590b81cb9:0x17964204e4496e0f!8m2!3d23.5254735!4d89.4897473!16s%2Fg%2F11hsqvbhyk!19sChIJuRy4kGVR_jkRD25J5ARClhc?authuser=0&hl=en&rclk=1,"23.5254735,89.48974729999999"
Masjid,Mosque,"75C6+FV5 Masjid, Kannad - Sillod Rd, Narsingpur, Maharashtra 431103",,"75C6+FV5, Kannad - Sillod Rd",Narsingpur,431103,Maharashtra,IN,https://www.google.com/maps/place/Masjid/data=!4m7!3m6!1s0x3bdbe532b61ca8cf:0xcf16095ed3c4f114!8m2!3d20.2711445!4d75.1622275!16s%2Fg%2F11k_rblx65!19sChIJz6gctjLl2zsRFPHE014JFs8?authuser=0&hl=en&rclk=1,"20.2711445,75.1622275"
Ayesha Masjid,Mosque,"Ayesha Masjid, Nitin Nagar, Shanti Nagar, Kannad, Maharashtra 431103",Shanti Nagar,Nitin Nagar,Kannad,431103,Maharashtra,IN,https://www.google.com/maps/place/Ayesha+Masjid/data=!4m7!3m6!1s0x3bdbfbbfd2b48889:0x7f9b7609b3c0c5d9!8m2!3d20.2697929!4d75.1340951!16s%2Fg%2F11qqwl5fg8!19sChIJiYi00r_72zsR2cXAswl2m38?authuser=0&hl=en&rclk=1,"20.2697929,75.1340951"
CHAKJAMA NEW JUMMA MASJID,Mosque,"CHAKJAMA NEW JUMMA MASJID, Unnamed Road, Tekaraipur, West Bengal 742304",,Unnamed Road,Tekaraipur,742304,West Bengal,IN,https://www.google.com/maps/place/CHAKJAMA+NEW+JUMMA+MASJID/data=!4m7!3m6!1s0x39fbdffd55e975bb:0x8a51967000281a71!8m2!3d24.1725702!4d88.4463609!16s%2Fg%2F11jh_b71r_!19sChIJu3XpVf3f-zkRcRooAHCWUYo?authuser=0&hl=en&rclk=1,"24.1725702,88.4463609"
Madhupur masjid,Mosque,"8R94+J3X Madhupur masjid, Unnamed Road, Madhupur, West Bengal 731238",,"8R94+J3X, Unnamed Road",Madhupur,731238,West Bengal,IN,https://www.google.com/maps/place/Madhupur+masjid/data=!4m7!3m6!1s0x39fa1758372bd533:0x627892fcc6b97155!8m2!3d24.3191208!4d87.8052196!16s%2Fg%2F11p9tb_m2z!19sChIJM9UrN1gX-jkRVXG5xvySeGI?authuser=0&hl=en&rclk=1,"24.3191208,87.8052196"
ayesha masjid karkhana,Mosque,"64XM+735 ayesha masjid karkhana, Kannad, Maharashtra 431103",,64XM+735,Kannad,431103,Maharashtra,IN,https://www.google.com/maps/place/ayesha+masjid+karkhana/data=!4m7!3m6!1s0x3bdbf1036ca602bb:0x8c5dbd090bb2e594!8m2!3d20.248114!4d75.1327352!16s%2Fg%2F11kc3hkb3r!19sChIJuwKmbAPx2zsRlOWyCwm9XYw?authuser=0&hl=en&rclk=1,"20.248113999999998,75.1327352"
Wahrun Masjid,Mosque,"748J+HVH Wahrun Masjid, NH52, Shiv Nagar, Kannad, Maharashtra 431103",Shiv Nagar,"748J+HVH, NH52",Kannad,431103,Maharashtra,IN,https://www.google.com/maps/place/Wahrun+Masjid/data=!4m7!3m6!1s0x3bdbfbd92e4e6217:0x6d53e6e16ca233b8!8m2!3d20.2664154!4d75.1322109!16s%2Fg%2F11tg88x7l5!19sChIJF2JOLtn72zsRuDOibOHmU20?authuser=0&hl=en&rclk=1,"20.2664154,75.13221089999999"
Madina Masjid,Mosque,"744J+H5F Madina Masjid, Makranpur, Makranpur Kannad, Kannad, Maharashtra 431103",Makranpur,744J+H5F,"Makranpur Kannad, Kannad",431103,Maharashtra,IN,https://www.google.com/maps/place/Madina+Masjid/data=!4m7!3m6!1s0x3bdbf1e3c8a29451:0x8c90a64cdb5f47b0!8m2!3d20.256443!4d75.1304069!16s%2Fg%2F11shpdk7zk!19sChIJUZSiyOPx2zsRsEdf20ymkIw?authuser=0&hl=en&rclk=1,"20.256442999999997,75.1304069"
