name,main_category,address,address_ward,address_street,address_city,address_postal_code,address_state,address_country_code,link,coordinates
Madina Masjid Ahle sunnat,Mosque,"Madina Masjid Ahle sunnat, masjid ahle sunnat Bakra mandi, Madina, Jodhpur, Rajasthan 342001",Sodagaran Mohalla,"masjid ahle sunnat Bakra mandi, Madina",Jodhpur,342001,Rajasthan,IN,https://www.google.com/maps/place/Madina+Masjid+Ahle+sunnat/data=!4m7!3m6!1s0x39418dc9524b43d7:0xa52dfa193a25aaa9!8m2!3d26.292261!4d73.0113924!16s%2Fg%2F11fy7f6397!19sChIJ10NLUsmNQTkRqaolOhn6LaU?authuser=0&hl=en&rclk=1,"26.292261,73.01139239999999"
Chirghar Masjid,Mosque,"7XGP+88W Chirghar Masjid, Chopasani Rd, Kamla Nehru Nagar, 1st Pulia, Jodhpur, Rajasthan 342003","Kamla Nehru Nagar, 1st Pulia","7XGP+88W, Chopasani Rd",Jodhpur,342003,Rajasthan,IN,https://www.google.com/maps/place/Chirghar+Masjid/data=!4m7!3m6!1s0x39418e843e35d713:0x65eb433f510efcfa!8m2!3d26.2758727!4d72.9858371!16s%2Fg%2F11b6bgc0bk!19sChIJE9c1PoSOQTkR-vwOUT9D62U?authuser=0&hl=en&rclk=1,"26.275872699999997,72.9858371"
Eidgah,Mosque,"Eidgah, 24, Gole Bldg Rd, near Metro Shoes, Sardarpura, Jodhpur, Rajasthan 342003",Sardarpura,"24, Gole Bldg Rd, near Metro Shoes",Jodhpur,342003,Rajasthan,IN,https://www.google.com/maps/place/Eidgah/data=!4m7!3m6!1s0x39418c35e9edb5b9:0x221a5296b6d7a21f!8m2!3d26.281716!4d73.015513!16s%2Fg%2F1pyqvd__0!19sChIJubXt6TWMQTkRH6LXtpZSGiI?authuser=0&hl=en&rclk=1,"26.281716,73.015513"
Novelty Saree's,Mosque,"Novelty Saree's, Plot no 91 ligh behind cheerghar masjid, near old power house, Rajasthan 342008",Shyam Nagar,"Plot no 91 ligh behind cheerghar masjid, near old power house",Jodhpur,342008,Rajasthan,IN,https://www.google.com/maps/place/Novelty+Saree%27s/data=!4m7!3m6!1s0x39418e84434b5293:0xbaf51236b355495f!8m2!3d26.274814!4d72.9855539!16s%2Fg%2F1hm4kfpb8!19sChIJk1JLQ4SOQTkRX0lVszYS9bo?authuser=0&hl=en&rclk=1,"26.274814,72.9855539"
Sardarpura Masjid,Mosque,"Sardarpura Masjid, 7th C Rd, Sardarpura, Jodhpur, Rajasthan 342003",Sardarpura,7th C Rd,Jodhpur,342003,Rajasthan,IN,https://www.google.com/maps/place/Sardarpura+Masjid/data=!4m7!3m6!1s0x39418c308c6b90a9:0x577c4f1507e19864!8m2!3d26.2755224!4d73.0086535!16s%2Fg%2F1pyqg2snq!19sChIJqZBrjDCMQTkRZJjhBxVPfFc?authuser=0&hl=en&rclk=1,"26.2755224,73.0086535"
Jama Masjid - Basni,Mosque,"Jama Masjid - Basni, Behind Police Station, 2nd Phase, M.I.A. 1st Phase, Basni, Basni, Jodhpur, Rajasthan 342005","2nd Phase, M.I.A. 1st Phase, Basni, Basni",Behind Police Station,Jodhpur,342005,Rajasthan,IN,https://www.google.com/maps/place/Jama+Masjid+-+Basni/data=!4m7!3m6!1s0x39418bfa4d52a9fb:0x965f466d41dac3a7!8m2!3d26.2311863!4d73.0021306!16s%2Fg%2F11bw7g7bbf!19sChIJ-6lSTfqLQTkRp8PaQW1GX5Y?authuser=0&hl=en&rclk=1,"26.231186299999997,73.0021306"
Shahi Masjid Ek Minar,Mosque,"72R7+8F6 Shahi Masjid Ek Minar, Fateh Pol Rd, Khanda Falsa, Bhistiyon Ka Bas, Jodhpur, Rajasthan 342001","Khanda Falsa, Bhistiyon Ka Bas","72R7+8F6, Fateh Pol Rd",Jodhpur,342001,Rajasthan,IN,https://www.google.com/maps/place/Shahi+Masjid+Ek+Minar/data=!4m7!3m6!1s0x39418dcbcbe18cb7:0x97cfee47e34a5232!8m2!3d26.290799!4d73.0136365!16s%2Fg%2F11c2nq9n_d!19sChIJt4zhy8uNQTkRMlJK40fuz5c?authuser=0&hl=en&rclk=1,"26.290799,73.01363649999999"
Nai Maszid Baiji Ka Talab,Mosque,"72P9+PWF Nai Maszid Baiji Ka Talab, Baiji Ka Talab, Jodhpur, Rajasthan 342001",Rawaton Ka Bass,"72P9+PWF, Baiji Ka Talab",Jodhpur,342001,Rajasthan,IN,https://www.google.com/maps/place/Nai+Maszid+Baiji+Ka+Talab/data=!4m7!3m6!1s0x39418c4ad56e57ed:0x132c3fe1380c65c1!8m2!3d26.2868187!4d73.0198051!16s%2Fg%2F11b7q10vt1!19sChIJ7Vdu1UqMQTkRwWUMOOE_LBM?authuser=0&hl=en&rclk=1,"26.286818699999998,73.0198051"
Gulistan Masjid,Mosque,"6XP7+93V Gulistan Masjid, Bhadu Market, Jodhpur, Rajasthan 342008",Bhadu Market,6XP7+93V,Jodhpur,342008,Rajasthan,IN,https://www.google.com/maps/place/Gulistan+Masjid/data=!4m7!3m6!1s0x39418ecc8dc7de75:0xd2c47abecbdbe02!8m2!3d26.235981!4d72.9626715!16s%2Fg%2F11dxf2__j4!19sChIJdd7HjcyOQTkRAr697KtHLA0?authuser=0&hl=en&rclk=1,"26.235981,72.9626715"
Bamba Badi Masjid,Mosque,"72VG+9V4 Bamba Badi Masjid, Bamba Mohalla, Sri Ganganagar, Jodhpur, Rajasthan 342001","Bamba Mohalla, Sri Ganganagar",72VG+9V4,Jodhpur,342001,Rajasthan,IN,https://www.google.com/maps/place/Bamba+Badi+Masjid/data=!4m7!3m6!1s0x39418db220653e25:0xa0fe7e15dd7d2317!8m2!3d26.2933874!4d73.0271929!16s%2Fg%2F1pyqtw3vz!19sChIJJT5lILKNQTkRFyN93RV-_qA?authuser=0&hl=en&rclk=1,"26.2933874,73.0271929"
Masjid Faiz e aam,Mosque,"7XMV+3WH Masjid Faiz e aam, Pratap Nagar, Jodhpur, Rajasthan 342003",Pratap Nagar,7XMV+3WH,Jodhpur,342003,Rajasthan,IN,https://www.google.com/maps/place/Masjid+Faiz+e+aam/data=!4m7!3m6!1s0x39418c2ac08cbdad:0xfe1c7a254258a445!8m2!3d26.2826892!4d72.9948602!16s%2Fg%2F11c6cqjmcv!19sChIJrb2MwCqMQTkRRaRYQiV6HP4?authuser=0&hl=en&rclk=1,"26.2826892,72.99486019999999"
Jama Masjid msjd,Mosque,"72VJ+H8W Jama Masjid msjd, Udai Mandir, Jodhpur, Rajasthan 342001",Udai Mandir,72VJ+H8W,Jodhpur,342001,Rajasthan,IN,https://www.google.com/maps/place/Jama+Masjid+%D9%85%D8%B3%D8%AC%D8%AF%E2%80%AD/data=!4m7!3m6!1s0x39418dadd70aa4b7:0x41b5fbdcc1454e10!8m2!3d26.2939957!4d73.0308203!16s%2Fg%2F12hpzrlyb!19sChIJt6QK162NQTkREE5Fwdz7tUE?authuser=0&hl=en&rclk=1,"26.2939957,73.0308203"
Suthla Masjid,Mosque,"Suthla Masjid, 17, Chopasani Rd, Suthala, Chopasni Housing Board, Jodhpur, Rajasthan 342008","Suthala, Chopasni Housing Board","17, Chopasani Rd",Jodhpur,342008,Rajasthan,IN,https://www.google.com/maps/place/Suthla+Masjid/data=!4m7!3m6!1s0x39418e8d56638cbf:0x491e596d25338153!8m2!3d26.2696199!4d72.9701101!16s%2Fg%2F11dz5qr5cq!19sChIJv4xjVo2OQTkRU4EzJW1ZHkk?authuser=0&hl=en&rclk=1,"26.2696199,72.9701101"
Sutarkhana Masjid,Mosque,"72RH+M5C Sutarkhana Masjid, Bamba Bari, Guljarpura, near Unstitch point, Jodhpur, Rajasthan 342001",Sri Ganganagar,"72RH+M5C, Bamba Bari, Guljarpura, near Unstitch point",Jodhpur,342001,Rajasthan,IN,https://www.google.com/maps/place/Sutarkhana+Masjid/data=!4m7!3m6!1s0x39418db2701a9b29:0xf1131cacc9cf753a!8m2!3d26.2916884!4d73.0278923!16s%2Fg%2F11b6d2vl9g!19sChIJKZsacLKNQTkROnXPyawcE_E?authuser=0&hl=en&rclk=1,"26.291688399999998,73.02789229999999"
Ansar Masjid,Mosque,"Ansar Masjid, near blind school, Kamla Nehru Nagar, 1st Pulia, Jodhpur, Rajasthan 342003","Kamla Nehru Nagar, 1st Pulia",near blind school,Jodhpur,,Rajasthan,IN,https://www.google.com/maps/place/Ansar+Masjid/data=!4m7!3m6!1s0x39418e7daaaaaaab:0x633dc99b057180bf!8m2!3d26.277!4d72.9831581!16s%2Fg%2F11f4wzf_5j!19sChIJq6qqqn2OQTkRv4BxBZvJPWM?authuser=0&hl=en&rclk=1,"26.276999999999997,72.9831581"
Masjid msjd,Mosque,"62J2+8RC Masjid msjd, MIA 2nd Phase, Basni, Jodhpur, Rajasthan 342005","MIA 2nd Phase, Basni",62J2+8RC,Jodhpur,342005,Rajasthan,IN,https://www.google.com/maps/place/Masjid+%D9%85%D8%B3%D8%AC%D8%AF%E2%80%AD/data=!4m7!3m6!1s0x39418bfbac8f6dc1:0xce3b3a04ea1f63b4!8m2!3d26.2308101!4d73.0020003!16s%2Fg%2F11c55vn909!19sChIJwW2PrPuLQTkRtGMf6gQ6O84?authuser=0&hl=en&rclk=1,"26.2308101,73.00200029999999"
Purani Loko Masjid,Mosque,"72HF+2XX Purani Loko Masjid, Mahamandir, Ratanada, Jodhpur, Rajasthan 342001","Mahamandir, Ratanada",72HF+2XX,Jodhpur,342001,Rajasthan,IN,https://www.google.com/maps/place/Purani+Loko+Masjid/data=!4m7!3m6!1s0x39418c4f6d5a4ddb:0xa6e8dd7daa8ec80e!8m2!3d26.2776105!4d73.0249771!16s%2Fg%2F1pyqklbms!19sChIJ201abU-MQTkRDsiOqn3d6KY?authuser=0&hl=en&rclk=1,"26.277610499999998,73.0249771"
Masjid Faiz-E-Rasool,Mosque,"Masjid Faiz-E-Rasool, 2 PA 15, Madhuban Housing Board, Madhuban, Jodhpur, Rajasthan 342005","Madhuban Housing Board, Madhuban",2 PA 15,Jodhpur,342005,Rajasthan,IN,https://www.google.com/maps/place/Masjid+Faiz-E-Rasool/data=!4m7!3m6!1s0x39418b91f7a66f2d:0xd0eab411fc440f38!8m2!3d26.2291774!4d73.02314!16s%2Fg%2F11bv2lv8g3!19sChIJLW-m95GLQTkROA9E_BG06tA?authuser=0&hl=en&rclk=1,"26.229177399999998,73.02314"
J K NAGAR MASJID,Mosque,"6XPG+VVH J K NAGAR MASJID, JK Nagar, Khema-Ka-Kuwa, Jodhpur, Rajasthan 342008","JK Nagar, Khema-Ka-Kuwa",6XPG+VVH,Jodhpur,342008,Rajasthan,IN,https://www.google.com/maps/place/J+K+NAGAR+MASJID/data=!4m7!3m6!1s0x39418f29ae9ad9f9:0xb460cfea59d5e409!8m2!3d26.2371909!4d72.9772498!16s%2Fg%2F11gh_kgpzg!19sChIJ-dmarimPQTkRCeTVWerPYLQ?authuser=0&hl=en&rclk=1,"26.237190899999998,72.9772498"
Rehmaniya Mosque,Mosque,"72M3+99Q Rehmaniya Mosque, Pratap Nagar, Jodhpur, Rajasthan 342003",Pratap Nagar,72M3+99Q,Jodhpur,342003,Rajasthan,IN,https://www.google.com/maps/place/Rehmaniya+Mosque/data=!4m7!3m6!1s0x39418c2d156e2583:0xe3f685b350d302df!8m2!3d26.2834735!4d73.0034932!16s%2Fg%2F11c205r4xl!19sChIJgyVuFS2MQTkR3wLTULOF9uM?authuser=0&hl=en&rclk=1,"26.2834735,73.0034932"
Jama Masjid,Mosque,"Jama Masjid, 280, Ekta Nagar, Ramzan Ji Ka Hattha, Jodhpur, Rajasthan 342015","Ekta Nagar, Ramzan Ji Ka Hattha",280,Jodhpur,342015,Rajasthan,IN,https://www.google.com/maps/place/Jama+Masjid/data=!4m7!3m6!1s0x3941f2ce539f1437:0xb734967d5ca09c0c!8m2!3d26.3096106!4d73.0974798!16s%2Fg%2F11bw4ycnb_!19sChIJNxSfU87yQTkRDJygXH2WNLc?authuser=0&hl=en&rclk=1,"26.3096106,73.0974798"
Gol Takiya Masjid,Mosque,"72R8+CXX Gol Takiya Masjid, Sodagaran Mohalla, Jodhpur, Rajasthan 342001",Sodagaran Mohalla,72R8+CXX,Jodhpur,342001,Rajasthan,IN,https://www.google.com/maps/place/Gol+Takiya+Masjid/data=!4m7!3m6!1s0x39418db5f2ffb5fb:0xeb31436f8e13ad89!8m2!3d26.2911209!4d73.0174729!16s%2Fg%2F1tfc9kxk!19sChIJ-7X_8rWNQTkRia0Tjm9DMes?authuser=0&hl=en&rclk=1,"26.2911209,73.0174729"
Masjid Mohalla Nagori Silawatan,Mosque,"72R8+5X3 Masjid Mohalla Nagori Silawatan, Mohalla Nagori Silawatan, Sodagaran Mohalla, Jodhpur, Rajasthan 342001","Mohalla Nagori Silawatan, Sodagaran Mohalla",72R8+5X3,Jodhpur,342001,Rajasthan,IN,https://www.google.com/maps/place/Masjid+Mohalla+Nagori+Silawatan/data=!4m7!3m6!1s0x39418db58ef6d9a3:0xbad0a7b4f7820d4f!8m2!3d26.2903766!4d73.01743!16s%2Fg%2F12cpdfpc2!19sChIJo9n2jrWNQTkRTw2C97Sn0Lo?authuser=0&hl=en&rclk=1,"26.2903766,73.01742999999999"
Langa Masjid,Mosque,"7XFQ+MR3 Langa Masjid, Street No. 7, Teliyon Ki Basti, Masuria, Baldev Nagar, Jodhpur, Rajasthan 342003","Teliyon Ki Basti, Masuria, Baldev Nagar","7XFQ+MR3, Street No. 7",Jodhpur,342003,Rajasthan,IN,https://www.google.com/maps/place/Langa+Masjid/data=!4m7!3m6!1s0x39418e830f9b599d:0x3c0c585d2bed9a1f!8m2!3d26.274126!4d72.9895569!16s%2Fg%2F11b6c2sksc!19sChIJnVmbD4OOQTkRH5rtK11YDDw?authuser=0&hl=en&rclk=1,"26.274126,72.9895569"
Jubeda Masjid msjd,Mosque,"72RG+2GC Jubeda Masjid msjd, Nai Sarak, Khaniya, Sri Ganganagar, Jodhpur, Rajasthan 342001","Khaniya, Sri Ganganagar","72RG+2GC, Nai Sarak",Jodhpur,342001,Rajasthan,IN,https://www.google.com/maps/place/Jubeda+Masjid+%D9%85%D8%B3%D8%AC%D8%AF%E2%80%AD/data=!4m7!3m6!1s0x39418db2fbbf1d4b:0x54a08659801688a4!8m2!3d26.2900555!4d73.0262725!16s%2Fg%2F11b636kkdx!19sChIJSx2_-7KNQTkRpIgWgFmGoFQ?authuser=0&hl=en&rclk=1,"26.290055499999998,73.02627249999999"
Masjid Sodagaran msjd,Mosque,"72R8+WFH Masjid Sodagaran msjd, Vyapariyon Ka Mohalla, Jodhpur, Rajasthan 342001",Vyapariyon Ka Mohalla,72R8+WFH,Jodhpur,342001,Rajasthan,IN,https://www.google.com/maps/place/Masjid+Sodagaran+%D9%85%D8%B3%D8%AC%D8%AF%E2%80%AD/data=!4m7!3m6!1s0x39418dca0301b6e3:0x8b35cc48f3f6a84!8m2!3d26.2923178!4d73.0162356!16s%2Fg%2F11byttvstb!19sChIJ47YBA8qNQTkRhGo_j8Rcswg?authuser=0&hl=en&rclk=1,"26.2923178,73.0162356"
Barahdari masjid ahle hadees,Mosque,"72P3+5WX Barahdari masjid ahle hadees, Pratap Nagar, Jodhpur, Rajasthan 342003",Pratap Nagar,72P3+5WX,Jodhpur,342003,Rajasthan,IN,https://www.google.com/maps/place/Barahdari+masjid+ahle+hadees/data=!4m7!3m6!1s0x39418dd2abd88eff:0xa14ee0a0c6270add!8m2!3d26.2854834!4d73.0048612!16s%2Fg%2F11f0kxh6tz!19sChIJ_47Yq9KNQTkR3QonxqDgTqE?authuser=0&hl=en&rclk=1,"26.2854834,73.0048612"
Jama Masjid,Mosque,"7XWW+F6W Jama Masjid, Hanwant Sector A, Kabir Nagar, Jodhpur, Rajasthan 342001","Hanwant Sector A, Kabir Nagar",7XWW+F6W,Jodhpur,342001,Rajasthan,IN,https://www.google.com/maps/place/Jama+Masjid/data=!4m7!3m6!1s0x39418dd8301248c1:0x1c5029d64797bc1!8m2!3d26.2962366!4d72.9955663!16s%2Fg%2F11hbk2_1wq!19sChIJwUgSMNiNQTkRwXt5ZJ0CxQE?authuser=0&hl=en&rclk=1,"26.2962366,72.9955663"
Miyao Ki Masjid,Mosque,"72XJ+C2R Miyao Ki Masjid, Nagori Gate Kila Rd, Near Fateh Sagar, Inside Nagori Gate, Gulab Sagar, Jodhpur, Rajasthan 342001","Near Fateh Sagar, Inside Nagori Gate, Gulab Sagar","72XJ+C2R, Nagori Gate Kila Rd",Jodhpur,342001,Rajasthan,IN,https://www.google.com/maps/place/Miyao+Ki+Masjid/data=!4m7!3m6!1s0x39418db01db14683:0xbe1164b291394deb!8m2!3d26.2986196!4d73.0300136!16s%2Fg%2F1hhh5cnrh!19sChIJg0axHbCNQTkR6005kbJkEb4?authuser=0&hl=en&rclk=1,"26.2986196,73.0300136"
Masjid Muhajereen,Mosque,"723Q+8CW Masjid Muhajereen, Air Force Area, Jodhpur, Rajasthan 342011",Air Force Area,723Q+8CW,Jodhpur,342011,Rajasthan,IN,https://www.google.com/maps/place/Masjid+Muhajereen/data=!4m7!3m6!1s0x39418c7d161563d7:0xb8b123ac2824a56a!8m2!3d26.2533575!4d73.0385916!16s%2Fg%2F11bt_hfjcy!19sChIJ12MVFn2MQTkRaqUkKKwjsbg?authuser=0&hl=en&rclk=1,"26.2533575,73.0385916"
Madina Masjid,Mosque,"Madina Masjid, Gali Number 4, Kamla Nehru Nagar, 1st Pulia, near Blind School, Jodhpur, Rajasthan 342008",Kamla Nehru Nagar III,"Gali Number 4, Kamla Nehru Nagar, 1st Pulia, near Blind School",Jodhpur,342008,Rajasthan,IN,https://www.google.com/maps/place/Madina+Masjid/data=!4m7!3m6!1s0x39418e86034c0627:0xa5669aa4d11d332d!8m2!3d26.2767171!4d72.9815732!16s%2Fg%2F11fy4pv4fz!19sChIJJwZMA4aOQTkRLTMd0aSaZqU?authuser=0&hl=en&rclk=1,"26.2767171,72.9815732"
Kayam Khani Masjid,Mosque,"8334+35H Kayam Khani Masjid, BJS Colony, Jodhpur, Rajasthan 342006",BJS Colony,8334+35H,Jodhpur,342006,Rajasthan,IN,https://www.google.com/maps/place/Kayam+Khani+Masjid/data=!4m7!3m6!1s0x39418d1a7f7bf0a9:0xef6764b1a560501e!8m2!3d26.3026896!4d73.0554959!16s%2Fg%2F125__frng!19sChIJqfB7fxqNQTkRHlBgpbFkZ-8?authuser=0&hl=en&rclk=1,"26.302689599999997,73.0554959"
Masjid Medti Silawtan,Mosque,"72RC+HMJ Masjid Medti Silawtan, Moti Chowk, Tripolia Bazar, Rawaton Ka Bass, Jodhpur, Rajasthan 342001","Moti Chowk, Tripolia Bazar, Rawaton Ka Bass",72RC+HMJ,Jodhpur,342001,Rajasthan,IN,https://www.google.com/maps/place/Masjid+Medti+Silawtan/data=!4m7!3m6!1s0x39418db46c880b69:0xd8e83551c3d81bd1!8m2!3d26.2914564!4d73.0216515!16s%2Fg%2F11b67fr_th!19sChIJaQuIbLSNQTkR0RvYw1E16Ng?authuser=0&hl=en&rclk=1,"26.291456399999998,73.02165149999999"
Noorani Masjid,Mosque,"7XCR+56V Noorani Masjid, Baldev Nagar Rd, Masuria Colony, Baldev Nagar, Jodhpur, Rajasthan 342003","Masuria Colony, Baldev Nagar","7XCR+56V, Baldev Nagar Rd",Jodhpur,342003,Rajasthan,IN,https://www.google.com/maps/place/Noorani+Masjid/data=!4m7!3m6!1s0x39418e9d1f7be22d:0x871e40e70d2b4f64!8m2!3d26.270488!4d72.9905529!16s%2Fg%2F11b6cn3y1x!19sChIJLeJ7H52OQTkRZE8rDedAHoc?authuser=0&hl=en&rclk=1,"26.270488,72.9905529"
Masjid E Hamja,Mosque,"72P3+445 Masjid E Hamja, Pratap Nagar, Jodhpur, Rajasthan 342003",Pratap Nagar,72P3+445,Jodhpur,342003,Rajasthan,IN,https://www.google.com/maps/place/Masjid+E+Hamja/data=!4m7!3m6!1s0x39418dd2d6a213ad:0x236baaa78ceaf2e6!8m2!3d26.2852637!4d73.0028539!16s%2Fg%2F11fy5dkgyv!19sChIJrROi1tKNQTkR5vLqjKeqayM?authuser=0&hl=en&rclk=1,"26.285263699999998,73.00285389999999"
Pathankot Masjid,Mosque,"7X74+8W5 Pathankot Masjid, Ram Nagar, Jodhpur, Rajasthan 342001",Ram Nagar,7X74+8W5,Jodhpur,342001,Rajasthan,IN,https://www.google.com/maps/place/Pathankot+Masjid/data=!4m7!3m6!1s0x39418ee5f6f2d5fb:0xf4fb4100113f53f5!8m2!3d26.263273!4d72.957369!16s%2Fg%2F11f1rgf9pf!19sChIJ-9Xy9uWOQTkR9VM_EQBB-_Q?authuser=0&hl=en&rclk=1,"26.263272999999998,72.957369"
Masjid Market,Market,"72QF+GPF Masjid Market, MG Hospital Rd, Rawaton Ka Bass, Jodhpur, Rajasthan 342001",Rawaton Ka Bass,"72QF+GPF, MG Hospital Rd",Jodhpur,342001,Rajasthan,IN,https://www.google.com/maps/place/Masjid+Market/data=!4m7!3m6!1s0x39418db33fb9ec81:0x3956c505bab0a69f!8m2!3d26.2888159!4d73.0243042!16s%2Fg%2F11b782t104!19sChIJgey5P7ONQTkRn6awugXFVjk?authuser=0&hl=en&rclk=1,"26.2888159,73.0243042"
Masjid - e- Kubba,Mosque,"8334+6WM Masjid - e- Kubba, Rd Number 11, Mohan Nagar B, BJS Colony, Jodhpur, Rajasthan 342006","Mohan Nagar B, BJS Colony","8334+6WM, Rd Number 11",Jodhpur,342006,Rajasthan,IN,https://www.google.com/maps/place/Masjid+-+e-+Kubba/data=!4m7!3m6!1s0x39418d10a7ba5edb:0xb2dcab1e7ea1cabe!8m2!3d26.3030812!4d73.0572836!16s%2Fg%2F11b6dfz02_!19sChIJ2166pxCNQTkRvsqhfh6r3LI?authuser=0&hl=en&rclk=1,"26.303081199999998,73.05728359999999"
Irani Masjid and Dargah,Mosque,"Irani Masjid and Dargah, Nagori Gate Road, 2nd Polo Ground, opposite Fire Brigade Office, Paota, Jodhpur, Rajasthan 342006","Bhadwasiya, Paota","Nagori Gate Road, 2nd Polo Ground, opposite Fire Brigade Office",Jodhpur,342006,Rajasthan,IN,https://www.google.com/maps/place/Irani+Masjid+and+Dargah/data=!4m7!3m6!1s0x39418da612ef7f81:0x6f5f6404220bb35d!8m2!3d26.3015027!4d73.0355588!16s%2Fg%2F1pyqm5y94!19sChIJgX_vEqaNQTkRXbMLIgRkX28?authuser=0&hl=en&rclk=1,"26.3015027,73.03555879999999"
Ashraf Manjil Masjid,Mosque,"72VH+VWQ Ashraf Manjil Masjid, Jodhpur, Rajasthan 342008",,72VH+VWQ,Jodhpur,342008,Rajasthan,IN,https://www.google.com/maps/place/Ashraf+Manjil+Masjid/data=!4m7!3m6!1s0x39418dae12256b1d:0x31eae1d4611e6409!8m2!3d26.2947064!4d73.0298658!16s%2Fg%2F11cp5vqpvf!19sChIJHWslEq6NQTkRCWQeYdTh6jE?authuser=0&hl=en&rclk=1,"26.2947064,73.0298658"
ikra Masjid,Mosque,"822J+43P ikra Masjid, Nagori Gate Kila Rd, Nagori Gate, Gulab Sagar, Jodhpur, Rajasthan 342001","Nagori Gate, Gulab Sagar","822J+43P, Nagori Gate Kila Rd",Jodhpur,342001,Rajasthan,IN,https://www.google.com/maps/place/ikra+Masjid/data=!4m7!3m6!1s0x39418da55d57cb09:0x232625d923da7d4!8m2!3d26.3003268!4d73.0301953!16s%2Fg%2F11b6dg8vvy!19sChIJCctXXaWNQTkR1Kc9kl1iMgI?authuser=0&hl=en&rclk=1,"26.3003268,73.0301953"
Masjid Umar Farooq,Mosque,"8264+6JJ Masjid Umar Farooq, Soorsagar, Jodhpur, Rajasthan 342024",Soorsagar,8264+6JJ,Jodhpur,342024,Rajasthan,IN,https://www.google.com/maps/place/Masjid+Umar+Farooq/data=!4m7!3m6!1s0x39418de8676de2bb:0xfe0ab598ef4a1703!8m2!3d26.3105956!4d73.0065121!16s%2Fg%2F11c6rl5qkn!19sChIJu-JtZ-iNQTkRAxdK75i1Cv4?authuser=0&hl=en&rclk=1,"26.3105956,73.0065121"
Jilani Masjid,Mosque,"72WM+XRH Jilani Masjid, ship house road kayamkhani hostel opposite, Rajasthan 342001",,"72WM+XRH, ship house road kayamkhani hostel opposite",Jodhpur,342001,Rajasthan,IN,https://www.google.com/maps/place/Jilani+Masjid/data=!4m7!3m6!1s0x39418daf2ab67e81:0x21c9f6fc04601f12!8m2!3d26.2974257!4d73.0346013!16s%2Fg%2F1pyqgfv9v!19sChIJgX62Kq-NQTkREh9gBPz2ySE?authuser=0&hl=en&rclk=1,"26.297425699999998,73.03460129999999"
Masjid Ahle Sunnat,Mosque,"Masjid Ahle Sunnat, 481 482 Laxman Nagar ""C"", Ramjan Ji Ka Hatha, Banar Rd, Nandri, Jodhpur, Rajasthan 342001",Nandri,"481 482 Laxman Nagar ""C"", Ramjan Ji Ka Hatha, Banar Rd",Jodhpur,342001,Rajasthan,IN,https://www.google.com/maps/place/Masjid+Ahle+Sunnat/data=!4m7!3m6!1s0x3941f2d0b224f5cb:0x1b88eeed22d0ef4b!8m2!3d26.3024828!4d73.0981343!16s%2Fg%2F11bv5vb2v6!19sChIJy_UkstDyQTkRS-_QIu3uiBs?authuser=0&hl=en&rclk=1,"26.3024828,73.0981343"
Sindhi Bhutta Masjid,Mosque,"822J+PCH Sindhi Bhutta Masjid, Nagori Gate Kila Rd, Sindhiyon Ka Mohalla, Gulab Sagar, Jodhpur, Rajasthan 342001","Sindhiyon Ka Mohalla, Gulab Sagar","822J+PCH, Nagori Gate Kila Rd",Jodhpur,342001,Rajasthan,IN,https://www.google.com/maps/place/Sindhi+Bhutta+Masjid/data=!4m7!3m6!1s0x39418da50fa16917:0xcb654f693a0e0bd6!8m2!3d26.3018156!4d73.0311013!16s%2Fg%2F1pyqqm5j5!19sChIJF2mhD6WNQTkR1gsOOmlPZcs?authuser=0&hl=en&rclk=1,"26.301815599999998,73.0311013"
Madrasa Mohmmadi Musjid,Mosque,"72GJ+J3R Madrasa Mohmmadi Musjid, New Railway Loco Colony, Ratanada, Jodhpur, Rajasthan 342011","New Railway Loco Colony, Ratanada",72GJ+J3R,Jodhpur,342011,Rajasthan,IN,https://www.google.com/maps/place/Madrasa+Mohmmadi+Musjid/data=!4m7!3m6!1s0x39418c4e2fffffff:0xd943a42ce765dc02!8m2!3d26.2766109!4d73.030139!16s%2Fg%2F11dfq2_1y6!19sChIJ____L06MQTkRAtxl5yykQ9k?authuser=0&hl=en&rclk=1,"26.276610899999998,73.03013899999999"
Masjid Telyan msjd,Mosque,"72RF+65W Masjid Telyan msjd, Tripoliya Bazar Rd, Rawaton Ka Bass, Jodhpur, Rajasthan 342001",Rawaton Ka Bass,"72RF+65W, Tripoliya Bazar Rd",Jodhpur,342001,Rajasthan,IN,https://www.google.com/maps/place/Masjid+Telyan+%D9%85%D8%B3%D8%AC%D8%AF%E2%80%AD/data=!4m7!3m6!1s0x39418db3873b4f6f:0x6179afa4990e01ac!8m2!3d26.2906043!4d73.0229478!16s%2Fg%2F11dz27p7f1!19sChIJb087h7ONQTkRrAEOmaSveWE?authuser=0&hl=en&rclk=1,"26.2906043,73.0229478"
MASJID-E-KOUM NAGOURI TELIYAN,Mosque,"7XCQ+FR6 MASJID-E-KOUM NAGOURI TELIYAN, Near Shiv Mandir, Durgadas Colony, Masuria, Baldev Nagar, Jodhpur, Rajasthan 342003","Durgadas Colony, Masuria, Baldev Nagar","7XCQ+FR6, Near Shiv Mandir",Jodhpur,342003,Rajasthan,IN,https://www.google.com/maps/place/MASJID-E-KOUM+NAGOURI+TELIYAN/data=!4m7!3m6!1s0x39418e9ccf937b75:0x4b21af664d8b756a!8m2!3d26.271168!4d72.989505!16s%2Fg%2F11b6clrfwj!19sChIJdXuTz5yOQTkRanWLTWavIUs?authuser=0&hl=en&rclk=1,"26.271168,72.989505"
Naya Talab Moti Kund Masjid,Mosque,"72XM+J7P Naya Talab Moti Kund Masjid, Sri Ganganagar, Jodhpur, Rajasthan 342001",Sri Ganganagar,72XM+J7P,Jodhpur,342001,Rajasthan,IN,https://www.google.com/maps/place/Naya+Talab+Moti+Kund+Masjid/data=!4m7!3m6!1s0x39418daf69cd6673:0xc8b29550768efb1e!8m2!3d26.2990755!4d73.0331887!16s%2Fg%2F1pyqrzftg!19sChIJc2bNaa-NQTkRHvuOdlCVssg?authuser=0&hl=en&rclk=1,"26.299075499999997,73.0331887"
Masjid E Khaif,Mosque,"7XFM+7R8 Masjid E Khaif, Jai Ambey Colony, Shyam Nagar, Jodhpur, Rajasthan 342008","Jai Ambey Colony, Shyam Nagar",7XFM+7R8,Jodhpur,342008,Rajasthan,IN,https://www.google.com/maps/place/Masjid+E+Khaif/data=!4m7!3m6!1s0x39418f8d5219ddc3:0xdd1b6a04536b3640!8m2!3d26.2731738!4d72.9845894!16s%2Fg%2F11fcvb8s9t!19sChIJw90ZUo2PQTkRQDZrUwRqG90?authuser=0&hl=en&rclk=1,"26.2731738,72.98458939999999"
Ganpati dresses jodhpur,Mosque,"Ganpati dresses jodhpur, Lakhara Masjid, Lakhara bajar, behind Mehta Market, Jodhpur, Rajasthan 342001",Sodagaran Mohalla,"Lakhara Masjid, Lakhara bajar, behind Mehta Market",Jodhpur,342001,Rajasthan,IN,https://www.google.com/maps/place/Ganpati+dresses+jodhpur/data=!4m7!3m6!1s0x39418db6585ba6ab:0x7ab40b87a2b1956d!8m2!3d26.2946982!4d73.0197284!16s%2Fg%2F11b6bvkk2_!19sChIJq6ZbWLaNQTkRbZWxoocLtHo?authuser=0&hl=en&rclk=1,"26.2946982,73.01972839999999"
Masjid Ma'aaz,Mosque,"7XMV+4M9 Masjid Ma'aaz, Pratap Nagar, Jodhpur, Rajasthan 342003",Pratap Nagar,7XMV+4M9,Jodhpur,342003,Rajasthan,IN,https://www.google.com/maps/place/Masjid+Ma%27aaz/data=!4m7!3m6!1s0x39418dc95a136231:0x9a4bb4b6e514d4c5!8m2!3d26.2827866!4d72.994249!16s%2Fg%2F11h4_dqg2r!19sChIJMWITWsmNQTkRxdQU5ba0S5o?authuser=0&hl=en&rclk=1,"26.282786599999998,72.994249"
Masjid msjd,Mosque,"8X2X+2GV Masjid msjd, Kabir Nagar, Jodhpur, Rajasthan 342001",Kabir Nagar,8X2X+2GV,Jodhpur,342001,Rajasthan,IN,https://www.google.com/maps/place/Masjid+%D9%85%D8%B3%D8%AC%D8%AF%E2%80%AD/data=!4m7!3m6!1s0x39418dd96751065d:0xb389f678c03f9de2!8m2!3d26.3001!4d72.9988!16s%2Fg%2F1pyqmrby9!19sChIJXQZRZ9mNQTkR4p0_wHj2ibM?authuser=0&hl=en&rclk=1,"26.3001,72.9988"
Bamba Chhoti Masjid,Mosque,"72RH+V4M Bamba Chhoti Masjid, Choti Masjid, Bamba Mohalla, Jodhpur, Rajasthan 342001","Bamba Mohalla, Sri Ganganagar","72RH+V4M, Choti Masjid",Jodhpur,342001,Rajasthan,IN,https://www.google.com/maps/place/Bamba+Chhoti+Masjid/data=!4m7!3m6!1s0x39418db212d5f2e5:0xe6e1c844680c20fd!8m2!3d26.2922214!4d73.0278008!16s%2Fg%2F11fzb23mdv!19sChIJ5fLVErKNQTkR_SAMaETI4eY?authuser=0&hl=en&rclk=1,"26.2922214,73.0278008"
Masjid Mubarak Hussain,Mosque,"72M4+HR9 Masjid Mubarak Hussain, Umaid Hospital Rd, Behind Geeta Bhawan, Beside Graveyard, Pratap Nagar, Jodhpur, Rajasthan 342001","Behind Geeta Bhawan, Beside Graveyard, Pratap Nagar","72M4+HR9, Umaid Hospital Rd",Jodhpur,342001,Rajasthan,IN,https://www.google.com/maps/place/Masjid+Mubarak+Hussain/data=!4m7!3m6!1s0x39418c32e9ce9071:0x23ebcd1f3e1102ff!8m2!3d26.2839119!4d73.007109!16s%2Fg%2F11b6c9qh55!19sChIJcZDO6TKMQTkR_wIRPh_N6yM?authuser=0&hl=en&rclk=1,"26.2839119,73.007109"
Masjid & Madarsa Mustafa,Mosque,"7X8V+P2G Masjid & Madarsa Mustafa, Main Pal Road Near Shree Ram Hospital,Dalle Khan Ki Chakki, Masuria Colony, Baldev Nagar, Jodhpur, Rajasthan 342003","Masuria Colony, Baldev Nagar","7X8V+P2G, Main Pal Road Near Shree Ram Hospital,Dalle Khan Ki Chakki",Jodhpur,342003,Rajasthan,IN,https://www.google.com/maps/place/Masjid+%26+Madarsa+Mustafa/data=!4m7!3m6!1s0x39418e9dfcabb803:0x5011104460e24b22!8m2!3d26.266811!4d72.992576!16s%2Fg%2F11btmb4l53!19sChIJA7ir_J2OQTkRIkviYEQQEVA?authuser=0&hl=en&rclk=1,"26.266811,72.992576"
Sufiya Masjid,Mosque,"7XHV+5H6 Sufiya Masjid, Pratap Nagar, Jodhpur, Rajasthan 342003",Pratap Nagar,7XHV+5H6,Jodhpur,342003,Rajasthan,IN,https://www.google.com/maps/place/Sufiya+Masjid/data=!4m7!3m6!1s0x39418c29f84d44e5:0x53d8a0718d1d0590!8m2!3d26.2779!4d72.9939!16s%2Fg%2F1pyqmy8wj!19sChIJ5URN-CmMQTkRkAUdjXGg2FM?authuser=0&hl=en&rclk=1,"26.2779,72.9939"
Masjid Golmadajan,Mosque,"72R9+VQ4 Masjid Golmadajan, Moti Chowk, Inside Sojati Gate, Sodagaran Mohalla, Jodhpur, Rajasthan 342001","Moti Chowk, Inside Sojati Gate, Sodagaran Mohalla",72R9+VQ4,Jodhpur,342001,Rajasthan,IN,https://www.google.com/maps/place/Masjid+Golmadajan/data=!4m7!3m6!1s0x39418db5d177098f:0xd9a80c4de36fb131!8m2!3d26.2921481!4d73.0194466!16s%2Fg%2F11b6b39m69!19sChIJjwl30bWNQTkRMbFv400MqNk?authuser=0&hl=en&rclk=1,"26.2921481,73.0194466"
Masjid E Jullahan Ahle Hadees,Mosque,"72P7+V7X Masjid E Jullahan Ahle Hadees, tabuton ka chowk, Siwanchi Gate Rd, Sindhiyon Ka Mohalla, Bhistiyon Ka Bas, Jodhpur, Rajasthan 342001","Sindhiyon Ka Mohalla, Bhistiyon Ka Bas","72P7+V7X, tabuton ka chowk, Siwanchi Gate Rd",Jodhpur,342001,Rajasthan,IN,https://www.google.com/maps/place/Masjid+E+Jullahan+Ahle+Hadees/data=!4m7!3m6!1s0x39418dbf12ac4a01:0x94e93dcfb0b3db40!8m2!3d26.2872321!4d73.0132349!16s%2Fg%2F11gnpnf859!19sChIJAUqsEr-NQTkRQNuzsM896ZQ?authuser=0&hl=en&rclk=1,"26.287232099999997,73.0132349"
Masjid Sindhi Saheb Jadan,Mosque,"823J+3RC Masjid Sindhi Saheb Jadan, Fort Rd, Kila Road, Sindhi Masjid, Gulab Sagar, Jodhpur, Rajasthan 342006","Sindhi Masjid, Gulab Sagar","823J+3RC, Fort Rd, Kila Road",Jodhpur,342006,Rajasthan,IN,https://www.google.com/maps/place/Masjid+Sindhi+Saheb+Jadan/data=!4m7!3m6!1s0x39418da5ab51c699:0xc49621bf7cf4fee2!8m2!3d26.302681!4d73.03201!16s%2Fg%2F1pyqnc38c!19sChIJmcZRq6WNQTkR4v70fL8hlsQ?authuser=0&hl=en&rclk=1,"26.302681,73.03201"
Mohammadi Masjid,Mosque,"Mohammadi Masjid, mohammadi masjid, Sri Ganganagar, Jodhpur, Rajasthan 342001",Sri Ganganagar,mohammadi masjid,Jodhpur,342001,Rajasthan,IN,https://www.google.com/maps/place/Mohammadi+Masjid/data=!4m7!3m6!1s0x39418dede82801f5:0x24f39e2101f941d2!8m2!3d26.2923098!4d73.0261674!16s%2Fg%2F11fcsv77fs!19sChIJ9QEo6O2NQTkR0kH5ASGe8yQ?authuser=0&hl=en&rclk=1,"26.292309799999998,73.02616739999999"
Masjid Bhutto Sindhiyan,Mosque,"826R+W7F Masjid Bhutto Sindhiyan, Mandore Rd, Mahamandir, Lawaran, Jodhpur, Rajasthan 342006","Mahamandir, Lawaran","826R+W7F, Mandore Rd",Jodhpur,342006,Rajasthan,IN,https://www.google.com/maps/place/Masjid+Bhutto+Sindhiyan/data=!4m7!3m6!1s0x39418d0aab20f993:0xe73c8fb6ffd06c6!8m2!3d26.3123169!4d73.0406761!16s%2Fg%2F11cr_grb24!19sChIJk_kgqwqNQTkRxgb9b_vIcw4?authuser=0&hl=en&rclk=1,"26.3123169,73.0406761"
Mahawaton Ki Masjid,Mosque,"72WG+QQH Mahawaton Ki Masjid, Fateh Sagar Rd, Near Nagori Gate, inside, Gulab Sagar, Jodhpur, Rajasthan 342001","Near Nagori Gate, inside, Gulab Sagar","72WG+QQH, Fateh Sagar Rd",Jodhpur,342001,Rajasthan,IN,https://www.google.com/maps/place/Mahawaton+Ki+Masjid/data=!4m7!3m6!1s0x39418dedb742cf05:0xd1c7964e3922430b!8m2!3d26.2969399!4d73.0269827!16s%2Fg%2F11ff57nz4b!19sChIJBc9Ct-2NQTkRC0MiOU6Wx9E?authuser=0&hl=en&rclk=1,"26.296939899999998,73.02698269999999"
Ghousiya Masjid msjd,Mosque,"Ghousiya Masjid msjd, Near, Akhaliya Circle, Barkathulla Colony, Pratap Nagar, Jodhpur, Rajasthan 342001","Barkathulla Colony, Pratap Nagar","Near, Akhaliya Circle",Jodhpur,342001,Rajasthan,IN,https://www.google.com/maps/place/Ghousiya+Masjid+%D9%85%D8%B3%D8%AC%D8%AF%E2%80%AD/data=!4m7!3m6!1s0x39418e81c1e0867b:0x439d050495c4d72d!8m2!3d26.279408!4d72.992119!16s%2Fg%2F1pyqhkypf!19sChIJe4bgwYGOQTkRLdfElQQFnUM?authuser=0&hl=en&rclk=1,"26.279408,72.992119"
Madina Masjid,Mosque,"Madina Masjid, First Pahar, Gunj colony, Rd, Mandore, Jodhpur, Rajasthan 342006",Mandore,"First Pahar, Gunj colony, Rd",Jodhpur,342006,Rajasthan,IN,https://www.google.com/maps/place/Madina+Masjid/data=!4m7!3m6!1s0x39418d75124345b9:0x1b45a31b557c51c6!8m2!3d26.3145943!4d73.0422375!16s%2Fg%2F11gchk1k62!19sChIJuUVDEnWNQTkRxlF8VRujRRs?authuser=0&hl=en&rclk=1,"26.3145943,73.0422375"
Masjid Al Baitusshareef,Mosque,"7XCP+675 Masjid Al Baitusshareef, Umrao Ben Marg, Near Kamla Nagar Hospital, Kamla Nehru Nagar, Shyam Nagar, Jodhpur, Rajasthan 342008","Kamla Nehru Nagar, Shyam Nagar","7XCP+675, Umrao Ben Marg, Near Kamla Nagar Hospital",Jodhpur,342008,Rajasthan,IN,https://www.google.com/maps/place/Masjid+Al+Baitusshareef/data=!4m7!3m6!1s0x39418e9b39b2c4db:0xd396eb563a25c37!8m2!3d26.270518!4d72.985728!16s%2Fg%2F11b6br_lys!19sChIJ28SyOZuOQTkRN1yiY7VuOQ0?authuser=0&hl=en&rclk=1,"26.270518,72.985728"
Nagina Masjid,Mosque,"7XMX+F78 Nagina Masjid, Pratap Nagar, Jodhpur, Rajasthan 342003",Pratap Nagar,7XMX+F78,Jodhpur,342003,Rajasthan,IN,https://www.google.com/maps/place/Nagina+Masjid/data=!4m7!3m6!1s0x39418c2b4f35a169:0xa3c38342d9476ce1!8m2!3d26.2836635!4d72.9981935!16s%2Fg%2F11hbvyc6s4!19sChIJaaE1TyuMQTkR4WxH2UKDw6M?authuser=0&hl=en&rclk=1,"26.2836635,72.9981935"
Masjid Mochiyan (Rehmani Masjid),Mosque,"Masjid Mochiyan (Rehmani Masjid), 109, Nai Sarak, Ghantaghar Market, Jodhpur, Rajasthan 342001",Ghantaghar Market,"109, Nai Sarak",Jodhpur,342001,Rajasthan,IN,https://www.google.com/maps/place/Masjid+Mochiyan+%28Rehmani+Masjid%29/data=!4m7!3m6!1s0x39418db14ea64833:0x8e0f10f58ce574dd!8m2!3d26.2941!4d73.0232!16s%2Fg%2F1pyqqm2r5!19sChIJM0imTrGNQTkR3XTljPUQD44?authuser=0&hl=en&rclk=1,"26.2941,73.0232"
Masjid Haddi mill,Mosque,"62X3+M96 Masjid Haddi mill, Haddi Mill Rd, near masjid, Heavy Industrial Area Phase II, Basni, Jodhpur, Rajasthan 342005","Heavy Industrial Area Phase II, Basni","62X3+M96, Haddi Mill Rd, near masjid",Jodhpur,342005,Rajasthan,IN,https://www.google.com/maps/place/Masjid+Haddi+mill/data=!4m7!3m6!1s0x39418d835cf59485:0xb22c52f9feff296e!8m2!3d26.249173!4d73.0033842!16s%2Fg%2F11spd9k2wp!19sChIJhZT1XIONQTkRbin__vlSLLI?authuser=0&hl=en&rclk=1,"26.249173,73.0033842"
Garib Nawaz Masjid,Mosque,"7XPW+RW3 Garib Nawaz Masjid, bheraw bhakar, Kabir Nagar, Jodhpur, Rajasthan 342003","bheraw bhakar, Kabir Nagar",7XPW+RW3,Jodhpur,342003,Rajasthan,IN,https://www.google.com/maps/place/Garib+Nawaz+Masjid/data=!4m7!3m6!1s0x39418dd4f613f251:0x5e8ab480323ff7e5!8m2!3d26.287!4d72.9972893!16s%2Fg%2F11gf5kvrfy!19sChIJUfIT9tSNQTkR5fc_MoC0il4?authuser=0&hl=en&rclk=1,"26.287,72.99728929999999"
Dr Mohammed Arbaz,Mosque,"Dr Mohammed Arbaz, Pratap Nagar, Jodhpur, Rajasthan 342003",Pratap Nagar,,Jodhpur,342003,Rajasthan,IN,https://www.google.com/maps/place/Dr+Mohammed+Arbaz/data=!4m7!3m6!1s0x39418c2a6a747a7b:0x4ce487a6d9189714!8m2!3d26.2798564!4d72.9947603!16s%2Fg%2F1pyqj4kx2!19sChIJe3p0aiqMQTkRFJcY2aaH5Ew?authuser=0&hl=en&rclk=1,"26.2798564,72.9947603"
Kabadiyo ki masjid,Mosque,"Kabadiyo ki masjid, kabadi ki Masjid, Sardarpura, Jodhpur, Rajasthan 342003",Sardarpura,kabadi ki Masjid,Jodhpur,342003,Rajasthan,IN,https://www.google.com/maps/place/Kabadiyo+ki+masjid/data=!4m7!3m6!1s0x39418db2644f16f3:0x34f5680fdc816ba1!8m2!3d26.2813972!4d73.0124317!16s%2Fg%2F11m9wbn7z8!19sChIJ8xZPZLKNQTkRoWuB3A9o9TQ?authuser=0&hl=en&rclk=1,"26.281397199999997,73.0124317"
Sindhiyo Masjid,Mosque,"Sindhiyo Masjid, Gali No.3, Chopasani Rd, Opposite OS Motors, Bombay Motors, Pratap Nagar, Jodhpur, Rajasthan 342003","Opposite OS Motors, Bombay Motors, Pratap Nagar","Gali No.3, Chopasani Rd",Jodhpur,342003,Rajasthan,IN,https://www.google.com/maps/place/Sindhiyo+Masjid/data=!4m7!3m6!1s0x39418c2a2c57fe65:0x1630ecd1b8d301ff!8m2!3d26.278831!4d72.996064!16s%2Fg%2F1pyqfxkz3!19sChIJZf5XLCqMQTkR_wHTuNHsMBY?authuser=0&hl=en&rclk=1,"26.278831,72.99606399999999"
Sultan Hazrat Mohammad Umar Kasim Masjid,Mosque,"72V9+H42 Sultan Hazrat Mohammad Umar Kasim Masjid, Sunaro Ki Ghati Rd, Kapra Market, Sodagaran Mohalla, Jodhpur, Rajasthan 342001","Kapra Market, Sodagaran Mohalla","72V9+H42, Sunaro Ki Ghati Rd",Jodhpur,342001,Rajasthan,IN,https://www.google.com/maps/place/Sultan+Hazrat+Mohammad+Umar+Kasim+Masjid/data=!4m7!3m6!1s0x39418db63d6503b1:0x8171dd5d571b5b90!8m2!3d26.2938854!4d73.0177803!16s%2Fg%2F11b66fv6gb!19sChIJsQNlPbaNQTkRkFsbV13dcYE?authuser=0&hl=en&rclk=1,"26.293885399999997,73.0177803"
Masjid Al Kausar,Mosque,"7X7P+X8R Masjid Al Kausar, Narpat Nagar, Ashok Nagar, Jodhpur, Rajasthan 342008","Narpat Nagar, Ashok Nagar",7X7P+X8R,Jodhpur,342008,Rajasthan,IN,https://www.google.com/maps/place/Masjid+Al+Kausar/data=!4m7!3m6!1s0x39418f992041e5f5:0x3cde3cae9960c495!8m2!3d26.2649771!4d72.9857635!16s%2Fg%2F11gwhdvgbq!19sChIJ9eVBIJmPQTkRlcRgma483jw?authuser=0&hl=en&rclk=1,"26.2649771,72.98576349999999"
Auliya Masjid Ahle Sunnat,Mosque,"72R7+G36 Auliya Masjid Ahle Sunnat, Kumhariya Ka Kua Rd, Khanda Falsa, Bhistiyon Ka Bas, Jodhpur, Rajasthan 342001","Khanda Falsa, Bhistiyon Ka Bas","72R7+G36, Kumhariya Ka Kua Rd",Jodhpur,342001,Rajasthan,IN,https://www.google.com/maps/place/Auliya+Masjid+Ahle+Sunnat/data=!4m7!3m6!1s0x39418dcbc7e7454d:0x9a753ac86cfcd417!8m2!3d26.2912875!4d73.0126399!16s%2Fg%2F11g88c48x0!19sChIJTUXnx8uNQTkRF9T8bMg6dZo?authuser=0&hl=en&rclk=1,"26.2912875,73.0126399"
Al Falah Masjid,Mosque,"72Q6+WMX Al Falah Masjid, Bhistiyon Ka Bas, Jodhpur, Rajasthan 342001",Bhistiyon Ka Bas,72Q6+WMX,Jodhpur,342001,Rajasthan,IN,https://www.google.com/maps/place/Al+Falah+Masjid/data=!4m7!3m6!1s0x39418dde7e7d0ae9:0xcc184b70c3c1c267!8m2!3d26.2898607!4d73.0117446!16s%2Fg%2F11h8cb_3dv!19sChIJ6Qp9ft6NQTkRZ8LBw3BLGMw?authuser=0&hl=en&rclk=1,"26.2898607,73.0117446"
Chhoti Masjid chottii msjid cobdaaro kii,Mosque,"72R8+GXH Chhoti Masjid chottii msjid cobdaaro kii, Unnamed Road, Sodagaran Mohalla, Jodhpur, Rajasthan 342001",Sodagaran Mohalla,"72R8+GXH, Unnamed Road",Jodhpur,342001,Rajasthan,IN,https://www.google.com/maps/place/Chhoti+Masjid+%E0%A4%9B%E0%A5%8B%E0%A4%9F%E0%A5%80+%E0%A4%AE%E0%A4%B8%E0%A5%8D%E0%A4%9C%E0%A4%BF%E0%A4%A6+%E0%A4%9A%E0%A5%8B%E0%A4%AC%E0%A4%A6%E0%A4%BE%E0%A4%B0%E0%A5%8B+%E0%A4%95%E0%A5%80/data=!4m7!3m6!1s0x39418db5f22bdaaf:0x66dea70146253bd1!8m2!3d26.2913213!4d73.0174873!16s%2Fg%2F11ggm90mrz!19sChIJr9or8rWNQTkR0TslRgGn3mY?authuser=0&hl=en&rclk=1,"26.2913213,73.0174873"
Masjid,Mosque,"6XC5+P2G Masjid, Pal Gaon, Jodhpur, Rajasthan 342008",Pal Gaon,6XC5+P2G,Jodhpur,342008,Rajasthan,IN,https://www.google.com/maps/place/Masjid/data=!4m7!3m6!1s0x39418925540c33f9:0x48fce6f506b56cf9!8m2!3d26.221824!4d72.957572!16s%2Fg%2F1pyqtlsrh!19sChIJ-TMMVCWJQTkR-Wy1BvXm_Eg?authuser=0&hl=en&rclk=1,"26.221823999999998,72.957572"
Noorani Mazjid,Mosque,"72M2+X85 Noorani Mazjid, Pratap Nagar, Jodhpur, Rajasthan 342003",Pratap Nagar,72M2+X85,Jodhpur,342003,Rajasthan,IN,https://www.google.com/maps/place/Noorani+Mazjid/data=!4m7!3m6!1s0x39418dd3344b73cf:0x29f40d9db8a9180d!8m2!3d26.2848954!4d73.0008714!16s%2Fg%2F11c30sfvgt!19sChIJz3NLNNONQTkRDRipuJ0N9Ck?authuser=0&hl=en&rclk=1,"26.2848954,73.0008714"
Masjidul Firdous,Mosque,"Masjidul Firdous, 146-147 Sahara Nagar, Behind Rajasthan Hospital Banar road, Punjala, Jodhpur, Rajasthan 342027",,"146-147 Sahara Nagar, Behind Rajasthan Hospital Banar road, Punjala",Jodhpur,342027,Rajasthan,IN,https://www.google.com/maps/place/Masjidul+Firdous/data=!4m7!3m6!1s0x3941f2b8a95e5e59:0x1334672732b48f8b!8m2!3d26.3204527!4d73.1051725!16s%2Fg%2F11ckrcbz8m!19sChIJWV5eqbjyQTkRi4-0MidnNBM?authuser=0&hl=en&rclk=1,"26.320452699999997,73.1051725"
Makki Masjid,Mosque,"7XHW+98F Makki Masjid, Upper Chopasani Road, Near Haji Umrav Petrol Pump, Bombay Motor Circle, Baldev Nagar, Jodhpur, Rajasthan 342003","Near Haji Umrav Petrol Pump, Bombay Motor Circle, Baldev Nagar","7XHW+98F, Upper Chopasani Road",Jodhpur,342003,Rajasthan,IN,https://www.google.com/maps/place/Makki+Masjid/data=!4m7!3m6!1s0x39418c2a29983045:0xfec308fa383dc29a!8m2!3d26.278443!4d72.995797!16s%2Fg%2F11b6cs91v6!19sChIJRTCYKSqMQTkRmsI9OPoIw_4?authuser=0&hl=en&rclk=1,"26.278443,72.995797"
Dholiyonki Masjid,Mosque,"7XPX+GW8 Dholiyonki Masjid, Shamshan Rd, Pratap Nagar Road, Kali Tanki, Pratap Nagar, Jodhpur, Rajasthan 342004","Kali Tanki, Pratap Nagar","7XPX+GW8, Shamshan Rd, Pratap Nagar Road",Jodhpur,342004,Rajasthan,IN,https://www.google.com/maps/place/Dholiyonki+Masjid/data=!4m7!3m6!1s0x39418dd3667360b9:0x840d993856131653!8m2!3d26.286285!4d72.999841!16s%2Fg%2F11b6f067vp!19sChIJuWBzZtONQTkRUxYTVjiZDYQ?authuser=0&hl=en&rclk=1,"26.286285,72.999841"
Raja Masjid,Mosque,"7XFP+W7M Raja Masjid, Pal Link Rd, Near T.B.Hospital, 1st Pulia, Jodhpur, Rajasthan 342003",1st Pulia,"7XFP+W7M, Pal Link Rd, Near T.B.Hospital",Jodhpur,342003,Rajasthan,IN,https://www.google.com/maps/place/Raja+Masjid/data=!4m7!3m6!1s0x39418c2a5bf795c3:0xf8603c5dac98b4ef!8m2!3d26.274838!4d72.98567!16s%2Fg%2F1pyqpp0_j!19sChIJw5X3WyqMQTkR77SYrF08YPg?authuser=0&hl=en&rclk=1,"26.274838,72.98567"
Mosque,Mosque,"72GH+HXF Mosque, Subhash Chowk, Ratanada, Jodhpur, Rajasthan 342011",Ratanada,"72GH+HXF, Subhash Chowk",Jodhpur,342011,Rajasthan,IN,https://www.google.com/maps/place/Mosque/data=!4m7!3m6!1s0x39418dda9a90bb3b:0x58c577089b271b40!8m2!3d26.2764295!4d73.0299137!16s%2Fg%2F11gnrly4zb!19sChIJO7uQmtqNQTkRQBsnmwh3xVg?authuser=0&hl=en&rclk=1,"26.2764295,73.0299137"
Masjid Chhipan,Mosque,"823J+QQ5 Masjid Chhipan, chhipa colony out side, Nagori Gate Kila Rd, Jodhpur, Rajasthan","Mahamandir, Lawaran","823J+QQ5, chhipa colony out side, Nagori Gate Kila Rd",Jodhpur,,Rajasthan,IN,https://www.google.com/maps/place/Masjid+Chhipan/data=!4m7!3m6!1s0x39418da8e31ca40f:0xbb5736bd6b0bf279!8m2!3d26.3043995!4d73.0319729!16s%2Fg%2F11hddwzsgv!19sChIJD6Qc46iNQTkRefILa702V7s?authuser=0&hl=en&rclk=1,"26.3043995,73.0319729"
Muhammadi Masjid,Mosque,"826P+8VG Muhammadi Masjid, Lawaran, Jodhpur, Rajasthan 342006",Lawaran,826P+8VG,Jodhpur,342006,Rajasthan,IN,https://www.google.com/maps/place/Muhammadi+Masjid/data=!4m7!3m6!1s0x39418da1c95f3e0b:0x3ef3c425475bc9e0!8m2!3d26.3108!4d73.0372!16s%2Fg%2F1pyqg26xg!19sChIJCz5fyaGNQTkR4MlbRyXE8z4?authuser=0&hl=en&rclk=1,"26.3108,73.0372"
MASJID,Mosque,"MASJID, 86, Patrakar Colony, Rai Ka Bagh, Jodhpur, Rajasthan 342010","Patrakar Colony, Rai Ka Bagh",86,Jodhpur,342010,Rajasthan,IN,https://www.google.com/maps/place/MASJID/data=!4m7!3m6!1s0x39418ddf3e293367:0x2338931efdefa28c!8m2!3d26.2908112!4d73.0420167!16s%2Fg%2F11rsrntcb4!19sChIJZzMpPt-NQTkRjKLv_R6TOCM?authuser=0&hl=en&rclk=1,"26.2908112,73.04201669999999"
Madina Mosque,Mosque,"Madina Mosque, Paharganj 1st, Rajasthan 342007",Maderana Colony,Paharganj 1st,Jodhpur,342007,Rajasthan,IN,https://www.google.com/maps/place/Madina+Mosque/data=!4m7!3m6!1s0x39418decfd28bdf5:0xa4d1957e096e851c!8m2!3d26.3236715!4d73.0436225!16s%2Fg%2F11lsr7t_p1!19sChIJ9b0o_eyNQTkRHIVuCX6V0aQ?authuser=0&hl=en&rclk=1,"26.3236715,73.0436225"
Mohammadi Masjid,Mosque,"834X+7F8 Mohammadi Masjid, Ramzan Ji Ka Hattha, Jodhpur, Rajasthan 342015",Ramzan Ji Ka Hattha,834X+7F8,Jodhpur,342015,Rajasthan,IN,https://www.google.com/maps/place/Mohammadi+Masjid/data=!4m7!3m6!1s0x3941f3bf51c13837:0xadd5b961b1b19f56!8m2!3d26.305662!4d73.0987101!16s%2Fg%2F11gj74xdc2!19sChIJNzjBUb_zQTkRVp-xsWG51a0?authuser=0&hl=en&rclk=1,"26.305661999999998,73.09871009999999"
MASJID,Religious destination,"72VM+VXH MASJID, Jodhpur, Rajasthan 342001",,72VM+VXH,Jodhpur,,Rajasthan,IN,https://www.google.com/maps/place/MASJID/data=!4m7!3m6!1s0x39418d3e1b062dbf:0x5eaa3844bf65ca79!8m2!3d26.2946876!4d73.0349918!16s%2Fg%2F11fsx8yff6!19sChIJvy0GGz6NQTkRecplv0Q4ql4?authuser=0&hl=en&rclk=1,"26.2946876,73.0349918"
Raza Masjid,Mosque,"7XJW+72G Raza Masjid, Majdor Colony, Pratap Nagar, Jodhpur, Rajasthan 342003","Majdor Colony, Pratap Nagar",7XJW+72G,Jodhpur,342003,Rajasthan,IN,https://www.google.com/maps/place/Raza+Masjid/data=!4m7!3m6!1s0x39418c2a5c1a0d85:0xd72c10bef2db9859!8m2!3d26.2806802!4d72.9950778!16s%2Fg%2F11hcj7pr54!19sChIJhQ0aXCqMQTkRWZjb8r4QLNc?authuser=0&hl=en&rclk=1,"26.2806802,72.99507779999999"
Purani Masjid (Masjid- E-Mohammadi),Mosque,"Purani Masjid (Masjid- E-Mohammadi), 27/87 Ekta Nagar, Ramjaan ji ka hatha, Banar, Jodhpur, Rajasthan 342027",Ramzan Ji Ka Hattha,"27/87 Ekta Nagar, Ramjaan ji ka hatha, Banar",Jodhpur,342027,Rajasthan,IN,https://www.google.com/maps/place/Purani+Masjid+%28Masjid-+E-Mohammadi%29/data=!4m7!3m6!1s0x3941f2da83e79b0b:0x1c56efcd8035d1fa!8m2!3d26.305764!4d73.0989159!16s%2Fg%2F11bw470j95!19sChIJC5vng9ryQTkR-tE1gM3vVhw?authuser=0&hl=en&rclk=1,"26.305764,73.0989159"
MASJID,Mosque,"MASJID, 3, Somani College Rd, Somani College, 1st Pulia, Jodhpur, Rajasthan 342004","Somani College, 1st Pulia","3, Somani College Rd",Jodhpur,342004,Rajasthan,IN,https://www.google.com/maps/place/MASJID/data=!4m7!3m6!1s0x39418f322c8b485b:0xc27654e2e3759e0f!8m2!3d26.2766437!4d72.9765939!16s%2Fg%2F11hdjgcnp7!19sChIJW0iLLDKPQTkRD5514-JUdsI?authuser=0&hl=en&rclk=1,"26.276643699999997,72.9765939"
NOORI MASJID,Mosque,"7XXW+882 NOORI MASJID, Kabir Nagar, Jodhpur, Rajasthan 342001",Kabir Nagar,7XXW+882,Jodhpur,342001,Rajasthan,IN,https://www.google.com/maps/place/NOORI+MASJID/data=!4m7!3m6!1s0x39418d1d7da120c5:0x946d47cd6527e904!8m2!3d26.2982685!4d72.9957806!16s%2Fg%2F11q1tj5hx5!19sChIJxSChfR2NQTkRBOknZc1HbZQ?authuser=0&hl=en&rclk=1,"26.2982685,72.9957806"
Masjid E Madarsa,Mosque,"Masjid E Madarsa, Maderana Colony, Jodhpur, Rajasthan 342007",Maderana Colony,,Jodhpur,342007,Rajasthan,IN,https://www.google.com/maps/place/Masjid+E+Madarsa/data=!4m7!3m6!1s0x39418d6e298e0721:0x4f295d7559ce701c!8m2!3d26.3219779!4d73.0524499!16s%2Fg%2F11b6hr595n!19sChIJIQeOKW6NQTkRHHDOWXVdKU8?authuser=0&hl=en&rclk=1,"26.3219779,73.0524499"
Yateem khana masjid ytiim khaanaa msjid,Mosque,"72Q6+QF7 Yateem khana masjid ytiim khaanaa msjid, Unnamed Road, Bhistiyon Ka Bas, Jodhpur, Rajasthan 342001",Bhistiyon Ka Bas,"72Q6+QF7, Unnamed Road",Jodhpur,342001,Rajasthan,IN,https://www.google.com/maps/place/Yateem+khana+masjid+%E0%A4%AF%E0%A4%A4%E0%A5%80%E0%A4%AE+%E0%A4%96%E0%A4%BE%E0%A4%A8%E0%A4%BE+%E0%A4%AE%E0%A4%B8%E0%A5%8D%E0%A4%9C%E0%A4%BF%E0%A4%A6/data=!4m7!3m6!1s0x39418d380d68841f:0x76ef9ef6a49a2a3c!8m2!3d26.2894156!4d73.0111684!16s%2Fg%2F11qscpj03r!19sChIJH4RoDTiNQTkRPCqapPae73Y?authuser=0&hl=en&rclk=1,"26.289415599999998,73.0111684"
Garib nawaj masjid,Mosque,"Garib nawaj masjid, Unnkag kagadi, Lawaran, Jodhpur, Rajasthan 342024",Lawaran,Unnkag kagadi,Jodhpur,342024,Rajasthan,IN,https://www.google.com/maps/place/Garib+nawaj+masjid/data=!4m7!3m6!1s0x39418d5fb8db6cb7:0x4b20f453a01a2dcc!8m2!3d26.3070271!4d73.0306089!16s%2Fg%2F11fkt4tsgc!19sChIJt2zbuF-NQTkRzC0aoFP0IEs?authuser=0&hl=en&rclk=1,"26.3070271,73.03060889999999"
Lakhara Masjid,Mosque,"72V9+WWM Lakhara Masjid, Sodagaran Mohalla, Jodhpur, Rajasthan 342001",Sodagaran Mohalla,72V9+WWM,Jodhpur,342001,Rajasthan,IN,https://www.google.com/maps/place/Lakhara+Masjid/data=!4m7!3m6!1s0x39418df3116f6aaf:0x250e5fcec6351ca2!8m2!3d26.2948275!4d73.01979!16s%2Fg%2F11ryt3dw5y!19sChIJr2pvEfONQTkRohw1xs5fDiU?authuser=0&hl=en&rclk=1,"26.2948275,73.01979"
Namra Masjid,Mosque,"7XGP+MHR Namra Masjid, Kamla Nehru Nagar, 1st Pulia, Jodhpur, Rajasthan 342003","Kamla Nehru Nagar, 1st Pulia",7XGP+MHR,Jodhpur,342003,Rajasthan,IN,https://www.google.com/maps/place/Namra+Masjid/data=!4m7!3m6!1s0x39418fce713778db:0x61cb2a8caea27f6c!8m2!3d26.2767364!4d72.9863944!16s%2Fg%2F11t3w2dsn9!19sChIJ23g3cc6PQTkRbH-irowqy2E?authuser=0&hl=en&rclk=1,"26.276736399999997,72.9863944"
Masjid Abdullah bin Abdul aziz,Mosque,"Masjid Abdullah bin Abdul aziz, Haji Abdullah Building, Station Rd, Opp. Minerva Center, Ratanada, Jodhpur, Rajasthan 342001","Opp. Minerva Center, Ratanada","Haji Abdullah Building, Station Rd",Jodhpur,342001,Rajasthan,IN,https://www.google.com/maps/place/Masjid+Abdullah+bin+Abdul+aziz/data=!4m7!3m6!1s0x39418d4078a0678f:0xe2eb1fc21addde97!8m2!3d26.2870314!4d73.023364!16s%2Fg%2F11kq7hbmmz!19sChIJj2egeECNQTkRl97dGsIf6-I?authuser=0&hl=en&rclk=1,"26.2870314,73.023364"
Masjid Jindashah Ishaqiya Madressa,Mosque,"72R9+F7M Masjid Jindashah Ishaqiya Madressa, Kharadiyon ka bass, Sodagaran Mohalla, Jodhpur, Rajasthan 342001",Sodagaran Mohalla,"72R9+F7M, Kharadiyon ka bass",Jodhpur,342001,Rajasthan,IN,https://www.google.com/maps/place/Masjid+Jindashah+Ishaqiya+Madressa/data=!4m7!3m6!1s0x39418d498bc632e1:0x922ac7256ddb7e42!8m2!3d26.2912222!4d73.0181623!16s%2Fg%2F11lxwnb835!19sChIJ4TLGi0mNQTkRQn7bbSXHKpI?authuser=0&hl=en&rclk=1,"26.2912222,73.0181623"
Sindhiyo ki masjid,Mosque,"72Q7+J8F Sindhiyo ki masjid, Khanda Falsa, Bhistiyon Ka Bas, Jodhpur, Rajasthan 342001","Khanda Falsa, Bhistiyon Ka Bas",72Q7+J8F,Jodhpur,342001,Rajasthan,IN,https://www.google.com/maps/place/Sindhiyo+ki+masjid/data=!4m7!3m6!1s0x39418d5e427039b9:0xa92bf1147b975786!8m2!3d26.2890689!4d73.0132938!16s%2Fg%2F11q23k7_jp!19sChIJuTlwQl6NQTkRhleXexTxK6k?authuser=0&hl=en&rclk=1,"26.2890689,73.0132938"
Masjid - E - Mohammedi,Mosque,"7XCQ+7P4 Masjid - E - Mohammedi, Shramikpura, Masuria, Baldev Nagar, Jodhpur, Rajasthan 342003","Shramikpura, Masuria, Baldev Nagar",7XCQ+7P4,Jodhpur,342003,Rajasthan,IN,https://www.google.com/maps/place/Masjid+-+E+-+Mohammedi/data=!4m7!3m6!1s0x39418e9cc3958069:0x38a50710f271c464!8m2!3d26.270636!4d72.9893419!16s%2Fg%2F11b6ctjdb6!19sChIJaYCVw5yOQTkRZMRx8hAHpTg?authuser=0&hl=en&rclk=1,"26.270636,72.9893419"
Eidgah masjid wajukhana,Mosque,"72J8+MCR Eidgah masjid wajukhana, Sardarpura, Jodhpur, Rajasthan 342003",Sardarpura,72J8+MCR,Jodhpur,342003,Rajasthan,IN,https://www.google.com/maps/place/Eidgah+masjid+wajukhana/data=!4m7!3m6!1s0x39418d897349d043:0x567ad6882e48809!8m2!3d26.2819702!4d73.0160634!16s%2Fg%2F11kqw24dq6!19sChIJQ9BJc4mNQTkRCYjkgmitZwU?authuser=0&hl=en&rclk=1,"26.2819702,73.0160634"
Ahle sunnat Qadri masjid,Mosque,"72XJ+4V8 Ahle sunnat Qadri masjid, Naya talab, Jodhpur, Rajasthan 342001",Naya talab,72XJ+4V8,Jodhpur,342001,Rajasthan,IN,https://www.google.com/maps/place/Ahle+sunnat+Qadri+masjid/data=!4m7!3m6!1s0x39418deda6d54393:0x5579c8e6444a8070!8m2!3d26.2977945!4d73.0321932!16s%2Fg%2F11qn5lp3rn!19sChIJk0PVpu2NQTkRcIBKRObIeVU?authuser=0&hl=en&rclk=1,"26.2977945,73.0321932"
ahle sunnt jmaat,Mosque,"83F2+3VC ahle sunnt jmaat, Maderana Colony, Jodhpur, Rajasthan 342006",Maderana Colony,83F2+3VC,Jodhpur,,Rajasthan,IN,https://www.google.com/maps/place/%E0%A4%85%E0%A4%B9%E0%A4%B2%E0%A5%87+%E0%A4%B8%E0%A5%81%E0%A4%A8%E0%A5%8D%E0%A4%A8%E0%A4%A4+%E0%A4%9C%E0%A4%AE%E0%A4%BE%E0%A4%A4/data=!4m7!3m6!1s0x39418d9bf9d2b2e7:0x76a8283d85cf72db!8m2!3d26.322684!4d73.0521334!16s%2Fg%2F11rg9fy4vt!19sChIJ57LS-ZuNQTkR23LPhT0oqHY?authuser=0&hl=en&rclk=1,"26.322684,73.0521334"
Noorani Masjid,Mosque,"84C5+CF2 Noorani Masjid, Jodhpur, Rajasthan 342027",,84C5+CF2,Jodhpur,,Rajasthan,IN,https://www.google.com/maps/place/Noorani+Masjid/data=!4m7!3m6!1s0x3941f3527672a161:0xdab58912e3b9f45f!8m2!3d26.3210174!4d73.1086291!16s%2Fg%2F11h12665gp!19sChIJYaFydlLzQTkRX_S54xKJtdo?authuser=0&hl=en&rclk=1,"26.3210174,73.1086291"
Makkah Masjid,Mosque,"83F2+3R5 Makkah Masjid, Maderana Colony, Jodhpur, Rajasthan 342006",Maderana Colony,83F2+3R5,Jodhpur,,Rajasthan,IN,https://www.google.com/maps/place/Makkah+Masjid/data=!4m7!3m6!1s0x39418daa7bd0a223:0x90b4652119ba4d59!8m2!3d26.3226459!4d73.0521012!16s%2Fg%2F11txy024hr!19sChIJI6LQe6qNQTkRWU26GSFltJA?authuser=0&hl=en&rclk=1,"26.322645899999998,73.0521012"
Madina masjid,Mosque,"8X3X+G2G Madina masjid, Kabir Nagar, Jodhpur, Rajasthan 342001",Kabir Nagar,8X3X+G2G,Jodhpur,342001,Rajasthan,IN,https://www.google.com/maps/place/Madina+masjid/data=!4m7!3m6!1s0x39418d254f712789:0x3770c5bf0734a07e!8m2!3d26.3038227!4d72.997578!16s%2Fg%2F11nf_nwtlx!19sChIJiSdxTyWNQTkRfqA0B7_FcDc?authuser=0&hl=en&rclk=1,"26.303822699999998,72.99757799999999"
Masjid,Mosque,"72VC+4PR Masjid, Rawaton Ka Bass, Jodhpur, Rajasthan 342001",Rawaton Ka Bass,72VC+4PR,Jodhpur,342001,Rajasthan,IN,https://www.google.com/maps/place/Masjid/data=!4m7!3m6!1s0x39418dd1c90f46ed:0x6424c4809945cd4e!8m2!3d26.2928745!4d73.0217561!16s%2Fg%2F11ff5m1vn3!19sChIJ7UYPydGNQTkRTs1FmYDEJGQ?authuser=0&hl=en&rclk=1,"26.2928745,73.02175609999999"
Masjid umar bin khattab ahle hadees,Mosque,"7XXV+W6C Masjid umar bin khattab ahle hadees, Kabir Nagar, Jodhpur, Rajasthan 342001",Kabir Nagar,7XXV+W6C,Jodhpur,342001,Rajasthan,IN,https://www.google.com/maps/place/Masjid+umar+bin+khattab+ahle+hadees/data=!4m7!3m6!1s0x39418d663d0d8065:0x8947fc6a2b8d1248!8m2!3d26.2998199!4d72.9930163!16s%2Fg%2F11rvfx7cjn!19sChIJZYANPWaNQTkRSBKNK2r8R4k?authuser=0&hl=en&rclk=1,"26.2998199,72.9930163"
Masjid-Al-Aqsaa,Mosque,"72XM+J7M Masjid-Al-Aqsaa, Nagauri Gate, Sri Ganganagar, Jodhpur, Rajasthan 342001","Nagauri Gate, Sri Ganganagar",72XM+J7M,Jodhpur,342001,Rajasthan,IN,https://www.google.com/maps/place/Masjid-Al-Aqsaa/data=!4m7!3m6!1s0x39418d8880257d1d:0xc11cfef2dcf618cb!8m2!3d26.299093!4d73.0331776!16s%2Fg%2F11vb2t7kk1!19sChIJHX0lgIiNQTkRyxj23PL-HME?authuser=0&hl=en&rclk=1,"26.299093,73.0331776"
Aamna masjid,Mosque,"828V+XQ2 Aamna masjid, Maderana Colony, Jodhpur, Rajasthan 342006",Maderana Colony,828V+XQ2,Jodhpur,342006,Rajasthan,IN,https://www.google.com/maps/place/Aamna+masjid/data=!4m7!3m6!1s0x39418d95e1b07e9d:0xf8bf5b4ccd37272e!8m2!3d26.3173904!4d73.0444039!16s%2Fg%2F11pzyvjrf_!19sChIJnX6w4ZWNQTkRLic3zUxbv_g?authuser=0&hl=en&rclk=1,"26.317390399999997,73.04440389999999"
"Masjid Ayesha Siddiqa, Rajiv Gandhi Colony Somani College Jodhpur",Mosque,"Masjid Ayesha Siddiqa, Rajiv Gandhi Colony Somani College Jodhpur, 8, Street Number 1, Rajiv Gandhi Colony, Kamla Nehru Nagar, 1st Pulia, Jodhpur, Rajasthan 342008","Rajiv Gandhi Colony, Kamla Nehru Nagar, 1st Pulia","8, Street Number 1",Jodhpur,342008,Rajasthan,IN,"https://www.google.com/maps/place/Masjid+Ayesha+Siddiqa,+Rajiv+Gandhi+Colony+Somani+College+Jodhpur/data=!4m7!3m6!1s0x39418fd951266d93:0x526a064eb16172e8!8m2!3d26.2760121!4d72.976867!16s%2Fg%2F11srh9m5nz!19sChIJk20mUdmPQTkR6HJhsU4GalI?authuser=0&hl=en&rclk=1","26.2760121,72.976867"
Masjid Zakariya,Mosque,"72R6+59M Masjid Zakariya, Fateh Pol Rd, Navchowkiya, Sodagaran Mohalla, Jodhpur, Rajasthan 342001","Navchowkiya, Sodagaran Mohalla","72R6+59M, Fateh Pol Rd",Jodhpur,342001,Rajasthan,IN,https://www.google.com/maps/place/Masjid+Zakariya/data=!4m7!3m6!1s0x39418dfb8f676485:0xb09e27c1c52353ee!8m2!3d26.2898805!4d73.010747!16s%2Fg%2F11q9kprlpg!19sChIJhWRnj_uNQTkR7lMjxcEnnrA?authuser=0&hl=en&rclk=1,"26.2898805,73.010747"
Bhishtiyon ki Masjid,Mosque,"72RF+PJ6 Bhishtiyon ki Masjid, Nai Sarak, behind Bombay Dyeing Showroom, near Bhishtiyon Ki Masjid, Rawaton Ka Bass, Jodhpur, Rajasthan 342001",Rawaton Ka Bass,"72RF+PJ6, Nai Sarak, behind Bombay Dyeing Showroom, near Bhishtiyon Ki Masjid",Jodhpur,342001,Rajasthan,IN,https://www.google.com/maps/place/Bhishtiyon+ki+Masjid/data=!4m7!3m6!1s0x39418db5480d49e3:0xaf78a774872b37b7!8m2!3d26.2917972!4d73.0240125!16s%2Fg%2F11r0w153wh!19sChIJ40kNSLWNQTkRtzcrh3SneK8?authuser=0&hl=en&rclk=1,"26.291797199999998,73.0240125"
Chhipon ki masjid,Mosque,"72Q7+P2C Chhipon ki masjid, Bhistiyon Ka Bas, Jodhpur, Rajasthan 342001",Bhistiyon Ka Bas,72Q7+P2C,Jodhpur,342001,Rajasthan,IN,https://www.google.com/maps/place/Chhipon+ki+masjid/data=!4m7!3m6!1s0x39418ddff1ab6883:0x59964c4560b9c8c8!8m2!3d26.2892957!4d73.0123261!16s%2Fg%2F11q9m2mzs8!19sChIJg2ir8d-NQTkRyMi5YEVMllk?authuser=0&hl=en&rclk=1,"26.2892957,73.0123261"
Masjid kuba kabristan,Mosque,"72P5+G28 Masjid kuba kabristan, Shamshan Rd, Pratap Nagar, Jodhpur, Rajasthan 342003",Pratap Nagar,"72P5+G28, Shamshan Rd",Jodhpur,342003,Rajasthan,IN,https://www.google.com/maps/place/Masjid+kuba+kabristan/data=!4m7!3m6!1s0x39418d74ea7c21f5:0x28236f8c457efd10!8m2!3d26.2862879!4d73.0075672!16s%2Fg%2F11s0x59c1m!19sChIJ9SF86nSNQTkREP1-RYxvIyg?authuser=0&hl=en&rclk=1,"26.286287899999998,73.0075672"
Jolahan masjid,Mosque,"72VC+FCX Jolahan masjid, Rawaton Ka Bass, Jodhpur, Rajasthan 342001",Rawaton Ka Bass,72VC+FCX,Jodhpur,342001,Rajasthan,IN,https://www.google.com/maps/place/Jolahan+masjid/data=!4m7!3m6!1s0x39418dde8c661601:0x4e9a09342cdb84c7!8m2!3d26.2937267!4d73.0211573!16s%2Fg%2F11symq0_f_!19sChIJARZmjN6NQTkRx4TbLDQJmk4?authuser=0&hl=en&rclk=1,"26.2937267,73.0211573"
