name,main_category,address,address_ward,address_street,address_city,address_postal_code,address_state,address_country_code,link,coordinates
MASJID AI'SHAH R.A,Mosque,"MASJID AI'SHAH R.A, 1-3-186, Indira Market, Sriram Nagar, Kagaznagar, Telangana 504296","Indira Market, Sriram Nagar",1-3-186,Kagaznagar,504296,Telangana,IN,https://www.google.com/maps/place/MASJID+AI%27SHAH+R.A/data=!4m7!3m6!1s0x3a2d56bb01368ee3:0x21da7f9b2095a48e!8m2!3d19.3432186!4d79.4839366!16s%2Fg%2F11b6v0c92z!19sChIJ4442AbtWLToRjqSVIJt_2iE?authuser=0&hl=en&rclk=1,"19.3432186,79.48393659999999"
Jamiat Ahl-e Hadith Kaghaznagar,Religious organization,"Jamiat Ahl-e Hadith Kaghaznagar, Al-Masjid Al-Salafiyya Umm Ul Momi'neen Aisha Siddiqa Raadhiallahu Anha, Indira Market, Sriram Nagar, Kagaznagar, Telangana 504296","Indira Market, Sriram Nagar",Al-Masjid Al-Salafiyya Umm Ul Momi'neen Aisha Siddiqa Raadhiallahu Anha,Kagaznagar,504296,Telangana,IN,https://www.google.com/maps/place/Jamiat+Ahl-e+Hadith+Kaghaznagar/data=!4m7!3m6!1s0x3a2d56bb0489a763:0xb8fad4781e849f87!8m2!3d19.3432841!4d79.4839188!16s%2Fg%2F11c76mmmtl!19sChIJY6eJBLtWLToRh5-EHnjU-rg?authuser=0&hl=en&rclk=1,"19.343284099999998,79.4839188"
Al-Masjid Al-Salafiyya Umm Ul Momineen Aisha Siddiqa Raadhiallahu Anha,Mosque,"Al-Masjid Al-Salafiyya Umm Ul Momineen Aisha Siddiqa Raadhiallahu Anha, 1-3-186, Indira Market, Kagaznagar, Telangana 504296",Ward Number 3,"1-3-186, Indira Market",Kagaznagar,504296,Telangana,IN,https://www.google.com/maps/place/Al-Masjid+Al-Salafiyya+Umm+Ul+Momineen+Aisha+Siddiqa+Raadhiallahu+Anha/data=!4m7!3m6!1s0x3a2d57122ab10c9b:0x2366cf8f27649544!8m2!3d19.343273!4d79.483942!16s%2Fg%2F11px9yb4sd!19sChIJmwyxKhJXLToRRJVkJ4_PZiM?authuser=0&hl=en&rclk=1,"19.343273,79.483942"
Tiryani Post Office,Post office,"5788+GC3 Tiryani Post Office, Tiryani, Telangana 504297",,5788+GC3,Tiryani,504297,Telangana,IN,https://www.google.com/maps/place/Tiryani+Post+Office/data=!4m7!3m6!1s0x3bcd56c9b42bdc87:0xbf801feb09239277!8m2!3d19.1662572!4d79.266047!16s%2Fg%2F11f30wd97z!19sChIJh9wrtMlWzTsRd5IjCesfgL8?authuser=0&hl=en&rclk=1,"19.1662572,79.266047"
Masjid Al Furqaan,Mosque,"9FR6+9PV Masjid Al Furqaan, Habeeb nagar near Owaisi community hall Nampally Vegetable Market, Bazar Ghat, Aghapura, Nampally, Hyderabad, Telangana 500001","Aghapura, Nampally","9FR6+9PV, Habeeb nagar near Owaisi community hall Nampally Vegetable Market, Bazar Ghat",Hyderabad,500001,Telangana,IN,https://www.google.com/maps/place/Masjid+Al+Furqaan/data=!4m7!3m6!1s0x3bcb9770253f0439:0xf3d89f1bf59038b5!8m2!3d17.3909898!4d78.461794!16s%2Fg%2F11gz_tr26!19sChIJOQQ_JXCXyzsRtTiQ9Ruf2PM?authuser=0&hl=en&rclk=1,"17.3909898,78.461794"
Jama Masjid,Mosque,"MGGQ+F5Q Jama Masjid, Jama Masjid Rd, Mahalaxmiwada, Adilabad, Telangana 504001",Mahalaxmiwada,"MGGQ+F5Q, Jama Masjid Rd",Adilabad,504001,Telangana,IN,https://www.google.com/maps/place/Jama+Masjid/data=!4m7!3m6!1s0x3bd25c75f87e8a01:0x25a95ee1fbab37d0!8m2!3d19.6762137!4d78.5379985!16s%2Fg%2F1tlqnfwv!19sChIJAYp--HVc0jsR0Der--FeqSU?authuser=0&hl=en&rclk=1,"19.676213699999998,78.5379985"
Gulzaar Masjid,Mosque,"MGCR+66Q Gulzaar Masjid, Bokkalguda St, Brahmanwadi, Adilabad, Telangana 504001",Brahmanwadi,"MGCR+66Q, Bokkalguda St",Adilabad,504001,Telangana,IN,https://www.google.com/maps/place/Gulzaar+Masjid/data=!4m7!3m6!1s0x3bd25c7477d00337:0x3dc61fe7489f62b1!8m2!3d19.6704596!4d78.5395986!16s%2Fg%2F1tcz6sjz!19sChIJNwPQd3Rc0jsRsWKfSOcfxj0?authuser=0&hl=en&rclk=1,"19.670459599999997,78.53959859999999"
Masjid e Sharje Khan,Mosque,"7GFR+4HR Masjid e Sharje Khan, Nadargul, Telangana 501510",,7GFR+4HR,Nadargul,501510,Telangana,IN,https://www.google.com/maps/place/Masjid+e+Sharje+Khan/data=!4m7!3m6!1s0x3bcba3bf3ca1261d:0x8a8a511cba31a783!8m2!3d17.2728557!4d78.5413764!16s%2Fg%2F11c5rpg0yc!19sChIJHSahPL-jyzsRg6cxuhxRioo?authuser=0&hl=en&rclk=1,"17.2728557,78.54137639999999"
"Masid E Minar, IB Tandur",Mosque,"Masid E Minar, IB Tandur, 3""E, State Highway 2, Thiru Vi Ka Indl Estate, Thiru Vi Ka Industrial Estate, West Saidapet, Chennai, 600032",,"3""E, State Highway 2, Thiru Vi Ka Indl Estate, Thiru Vi Ka Industrial Estate, West Saidapet","Chennai, Tandur",600032,Telangana,IN,"https://www.google.com/maps/place/Masid+E+Minar,+IB+Tandur/data=!4m7!3m6!1s0x3a32ac70447ebbcb:0x4fdec0dfabd28dd5!8m2!3d19.1581003!4d79.4384271!16s%2Fg%2F11f352mymv!19sChIJy7t-RHCsMjoR1Y3Sq9_A3k8?authuser=0&hl=en&rclk=1","19.158100299999997,79.4384271"
JAMA MASJID TURKAYAMJAL,Mosque,"7H9G+MR5 JAMA MASJID TURKAYAMJAL, Sub Station Rd, Turkayamjal, Telangana 501510",,"7H9G+MR5, Sub Station Rd",Turkayamjal,501510,Telangana,IN,https://www.google.com/maps/place/JAMA+MASJID+TURKAYAMJAL/data=!4m7!3m6!1s0x3bcba15d5272e5ff:0xeba503f767e74208!8m2!3d17.2691276!4d78.5771241!16s%2Fg%2F11gbxb1wx1!19sChIJ_-VyUl2hyzsRCELnZ_cDpes?authuser=0&hl=en&rclk=1,"17.2691276,78.57712409999999"
Masjid al-Kausar,Mosque,"8FQH+H37 Masjid al-Kausar, 1-14-71/1, Kausar Nagar, Sriram Nagar, Kagaznagar, Telangana 504296","Kausar Nagar, Sriram Nagar","8FQH+H37, 1-14-71/1",Kagaznagar,504296,Telangana,IN,https://www.google.com/maps/place/Masjid+al-Kausar/data=!4m7!3m6!1s0x3a2d56a47baa058d:0x1c8a9f1315d0247!8m2!3d19.3410318!4d79.4783643!16s%2Fg%2F1tj7cgkk!19sChIJjQWqe6RWLToRRwJdMfGpyAE?authuser=0&hl=en&rclk=1,"19.3410318,79.4783643"
Masjid-e-Osmania,Mosque,"979Q+CCG Masjid-e-Osmania, Osmania Colony, Asifabad, Asifabad",,"979Q+CCG, Osmania Colony, Asifabad",Asifabad,,Telangana,IN,https://www.google.com/maps/place/Masjid-e-Osmania/data=!4m7!3m6!1s0x3bd2aea043e8367d:0xee7678b6d5658e7!8m2!3d19.3685527!4d79.2885762!16s%2Fg%2F11bw6692r_!19sChIJfTboQ6Cu0jsR51hWbYtn5w4?authuser=0&hl=en&rclk=1,"19.3685527,79.2885762"
Masjid Panjesha,Mosque,"Masjid Panjesha, masjid, panjesha marg, Bhainsa, Telangana 504103",,"masjid, panjesha marg",Bhainsa,,Telangana,IN,https://www.google.com/maps/place/Masjid+Panjesha/data=!4m7!3m6!1s0x3bcdfe45594b318b:0xa9a4527a0d3bdd4e!8m2!3d19.1114013!4d77.9614446!16s%2Fg%2F11xfvxc4m!19sChIJizFLWUX-zTsRTt07DXpSpKk?authuser=0&hl=en&rclk=1,"19.1114013,77.9614446"
Masjid e Noor Khursheed Nagar,Mosque,"Masjid e Noor Khursheed Nagar, khursheed Nagar, Adilabad, Telangana 504001",khursheed Nagar,,Adilabad,,Telangana,IN,https://www.google.com/maps/place/Masjid+e+Noor+Khursheed+Nagar/data=!4m7!3m6!1s0x3bd25b7f77891187:0xd64d9d2522c68201!8m2!3d19.6780656!4d78.5199255!16s%2Fg%2F1pp2x6dd1!19sChIJhxGJd39b0jsRAYLGIiWdTdY?authuser=0&hl=en&rclk=1,"19.6780656,78.5199255"
Golleti Masjid,Mosque,"69HJ+MRR Golleti Masjid, Gollet, Telangana 504292",,69HJ+MRR,Gollet,504292,Telangana,IN,https://www.google.com/maps/place/Golleti+Masjid/data=!4m7!3m6!1s0x3a32aacb61c1b09d:0x3d1c844762d42b55!8m2!3d19.2292306!4d79.3820089!16s%2Fg%2F11c0xp7n2t!19sChIJnbDBYcuqMjoRVSvUYkeEHD0?authuser=0&hl=en&rclk=1,"19.229230599999998,79.3820089"
Masjid-e-Irfan,Place of worship,"Masjid-e-Irfan, Irfan Colony, Irfan Nagar Colony, Kagaznagar, Telangana 504296",Irfan Nagar Colony,Irfan Colony,Kagaznagar,504296,Telangana,IN,https://www.google.com/maps/place/Masjid-e-Irfan/data=!4m7!3m6!1s0x3a2d56aa90d4eb1b:0xf69dc4d8b2934690!8m2!3d19.355791!4d79.4712658!16s%2Fg%2F1ptwyyk68!19sChIJG-vUkKpWLToRkEaTstjEnfY?authuser=0&hl=en&rclk=1,"19.355791,79.4712658"
Masjid e Khadim,Mosque,"974W+GHR Masjid e Khadim, Asifabad, Telangana 504293",,974W+GHR,Asifabad,504293,Telangana,IN,https://www.google.com/maps/place/Masjid+e+Khadim/data=!4m7!3m6!1s0x3bd2ac0487a9f291:0x6fbe7074c3de740b!8m2!3d19.3563518!4d79.2964018!16s%2Fg%2F11cjj61r0q!19sChIJkfKphwSs0jsRC3Tew3Rwvm8?authuser=0&hl=en&rclk=1,"19.3563518,79.2964018"
Masjid-e-Huda,Mosque,"Masjid-e-Huda, opp. Bus Stand, Asifabad, Telangana 504293",,opp. Bus Stand,Asifabad,,Telangana,IN,https://www.google.com/maps/place/Masjid-e-Huda/data=!4m7!3m6!1s0x3bd2ac1c5f823685:0x442868b52a3ced5e!8m2!3d19.3620003!4d79.2942735!16s%2Fg%2F11bw7cz2mz!19sChIJhTaCXxys0jsRXu08KrVoKEQ?authuser=0&hl=en&rclk=1,"19.3620003,79.2942735"
Jama Masjid,Mosque,"Jama Masjid, Bazarwadi,, Asifabad, Telangana 504293",,"Bazarwadi,",Asifabad,504293,Telangana,IN,https://www.google.com/maps/place/Jama+Masjid/data=!4m7!3m6!1s0x3bd2aea773cd3d43:0xc60c04b9f21fcf83!8m2!3d19.3622125!4d79.289124!16s%2Fg%2F11bw77yf0r!19sChIJQz3Nc6eu0jsRg88f8rkEDMY?authuser=0&hl=en&rclk=1,"19.3622125,79.289124"
Jama Masjid,Mosque,"7C48+F37 Jama Masjid, beside Post office, Rebbena, Telangana 504292",,"7C48+F37, beside Post office",Rebbena,,Telangana,IN,https://www.google.com/maps/place/Jama+Masjid/data=!4m7!3m6!1s0x3a32ab76eba52721:0x1019c60f50818098!8m2!3d19.2561673!4d79.4151744!16s%2Fg%2F11f879y6q1!19sChIJISel63arMjoRmICBUA_GGRA?authuser=0&hl=en&rclk=1,"19.256167299999998,79.4151744"
Masjid e Sahaba & Madarsa Tahfiz ul Quraan,Mosque,"Masjid e Sahaba & Madarsa Tahfiz ul Quraan, NAWAZISH NAGAR, Asifabad, Telangana 504293",,NAWAZISH NAGAR,Asifabad,504293,Telangana,IN,https://www.google.com/maps/place/Masjid+e+Sahaba+%26+Madarsa+Tahfiz+ul+Quraan/data=!4m7!3m6!1s0x3bd2aea7c6631baf:0x62b87d4b00422aba!8m2!3d19.3598125!4d79.2883125!16s%2Fg%2F113dzbrlr!19sChIJrxtjxqeu0jsRuipCAEt9uGI?authuser=0&hl=en&rclk=1,"19.3598125,79.28831249999999"
Masjid e Noorani,Mosque,"Masjid e Noorani, Kapuwada, Kagaznagar, Telangana 504296",Kapuwada,,Kagaznagar,504296,Telangana,IN,https://www.google.com/maps/place/Masjid+e+Noorani/data=!4m7!3m6!1s0x3a2d56b93b09e1f7:0x357a83cab19e831f!8m2!3d19.3420694!4d79.4891953!16s%2Fg%2F11bw7jjxtw!19sChIJ9-EJO7lWLToRH4OescqDejU?authuser=0&hl=en&rclk=1,"19.3420694,79.48919529999999"
Eidghah Congregation Prayer Palace,Mosque,"9F5G+9PP Eidghah Congregation Prayer Palace, Edgha colony, Kagaznagar, Telangana 504296",Edgha colony,9F5G+9PP,Kagaznagar,504296,Telangana,IN,https://www.google.com/maps/place/Eidghah+Congregation+Prayer+Palace/data=!4m7!3m6!1s0x3a2d51534e416e1d:0xb3e32641ae9869d0!8m2!3d19.3584639!4d79.4768223!16s%2Fg%2F11ckrc4_vw!19sChIJHW5BTlNRLToR0GmYrkEm47M?authuser=0&hl=en&rclk=1,"19.3584639,79.4768223"
Masjid-e-Amera | msjd `myrh,Mosque,"8FVM+P2F Masjid-e-Amera | msjd `myrh, New Indira Market, Kagaznagar, Telangana",Ward Number 3,"8FVM+P2F, New Indira Market",Kagaznagar,,Telangana,IN,https://www.google.com/maps/place/Masjid-e-Amera+%7C+%D9%85%D8%B3%D8%AC%D8%AF+%D8%B9%D8%A7%D9%85%DB%8C%D8%B1%D8%A7%DB%81%E2%80%AD/data=!4m7!3m6!1s0x3a2d56badb25cd45:0x64c23d8b7bb9f786!8m2!3d19.3443152!4d79.4825415!16s%2Fg%2F11b6w96mkl!19sChIJRc0l27pWLToRhve5e4s9wmQ?authuser=0&hl=en&rclk=1,"19.3443152,79.4825415"
Masjid e Nasar,Mosque,"8FXH+2V4 Masjid e Nasar, Kagaznagar, Telangana 504296",,8FXH+2V4,Kagaznagar,504296,Telangana,IN,https://www.google.com/maps/place/Masjid+e+Nasar/data=!4m7!3m6!1s0x3a2d56af8e04a971:0x8eefd28da8ea9968!8m2!3d19.3475054!4d79.4797024!16s%2Fg%2F11bxf9z03y!19sChIJcakEjq9WLToRaJnqqI3S744?authuser=0&hl=en&rclk=1,"19.3475054,79.4797024"
Masjid-e-Qadeem,Mosque,"8FXM+3MX Masjid-e-Qadeem, Nizamuddin Colony, Kagaznagar, Telangana 504296",Nizamuddin Colony,8FXM+3MX,Kagaznagar,504296,Telangana,IN,https://www.google.com/maps/place/Masjid-e-Qadeem/data=!4m7!3m6!1s0x3a2d56b063da2fbd:0xe321e240d18cecbb!8m2!3d19.3477485!4d79.4842215!16s%2Fg%2F11bw65hd1l!19sChIJvS_aY7BWLToRu-yM0UDiIeM?authuser=0&hl=en&rclk=1,"19.347748499999998,79.48422149999999"
"Jama Masjid, Kagaznagar",Mosque,"8FXP+GH7 Jama Masjid, Kagaznagar, near Spm Gate, Kagaznagar, Telangana 504296",,"8FXP+GH7, near Spm Gate",Kagaznagar,504296,Telangana,IN,"https://www.google.com/maps/place/Jama+Masjid,+Kagaznagar/data=!4m7!3m6!1s0x3a2d56b0c5a924a5:0x1616f5cf3e128492!8m2!3d19.3488!4d79.4864136!16s%2Fg%2F11bw7_2vw3!19sChIJpSSpxbBWLToRkoQSPs_1FhY?authuser=0&hl=en&rclk=1","19.3488,79.48641359999999"
Masjid E Firdous,Mosque,"Masjid E Firdous, Utukur, Lakshettipet, Telangana 504215",,,"Utukur, Lakshettipet",,Telangana,IN,https://www.google.com/maps/place/Masjid+E+Firdous/data=!4m7!3m6!1s0x3bcd480ee90e2c3f:0xfcd8f71cabc7c5c8!8m2!3d18.8884431!4d79.2072006!16s%2Fg%2F1td5721r!19sChIJPywO6Q5IzTsRyMXHqxz32Pw?authuser=0&hl=en&rclk=1,"18.8884431,79.2072006"
Masjid-e-gouse-ul-wara,Mosque,"3FGP+WXC Masjid-e-gouse-ul-wara, Bellampalle, Kannal Rural, Telangana 504251",,3FGP+WXC,"Bellampalle, Kannal Rural",504251,Telangana,IN,https://www.google.com/maps/place/Masjid-e-gouse-ul-wara/data=!4m7!3m6!1s0x3a32ae1e07a8f3a1:0x30d5ea744ddf5099!8m2!3d19.0773045!4d79.4873999!16s%2Fg%2F11dfmg17l2!19sChIJofOoBx6uMjoRmVDfTXTq1TA?authuser=0&hl=en&rclk=1,"19.0773045,79.4873999"
Madeena Masjid,Mosque,"V6P3+8XJ Madeena Masjid, Unnamed Road, Lakshettipet, Utukur, Telangana 504215",,"V6P3+8XJ, Unnamed Road","Lakshettipet, Utukur",504215,Telangana,IN,https://www.google.com/maps/place/Madeena+Masjid/data=!4m7!3m6!1s0x3bcd4808b8069611:0xa08757891f8dc24f!8m2!3d18.8858394!4d79.2049032!16s%2Fg%2F11h9rd_j48!19sChIJEZYGuAhIzTsRT8KNH4lXh6A?authuser=0&hl=en&rclk=1,"18.8858394,79.20490319999999"
Masjid e Ansar,Mosque,"Masjid e Ansar, Colony, Sirsilk Rd, Kagaznagar, Telangana 504296",,"Colony, Sirsilk Rd",Kagaznagar,504296,Telangana,IN,https://www.google.com/maps/place/Masjid+e+Ansar/data=!4m7!3m6!1s0x3a2d56b520c4819d:0x41e365a54af75873!8m2!3d19.3575975!4d79.4901958!16s%2Fg%2F11bw83jqr_!19sChIJnYHEILVWLToRc1j3SqVl40E?authuser=0&hl=en&rclk=1,"19.3575975,79.4901958"
Jaame Masjid,Mosque,"22MM+M88 Jaame Masjid, Donthapur, Telangana 505425",,22MM+M88,Donthapur,505425,Telangana,IN,https://www.google.com/maps/place/Jaame+Masjid/data=!4m7!3m6!1s0x3bcd42bb0af194e7:0x637d967f2a20d1f7!8m2!3d19.0341733!4d79.0333137!16s%2Fg%2F11bx1hgl96!19sChIJ55TxCrtCzTsR99EgKn-WfWM?authuser=0&hl=en&rclk=1,"19.0341733,79.0333137"
Madarsa al Arabiya Bait ul Uloom & Masjid e Rahmania,Mosque,"8FWM+597 Madarsa al Arabiya Bait ul Uloom & Masjid e Rahmania, MG Rd, Kagaznagar, Telangana 504296",,"8FWM+597, MG Rd",Kagaznagar,504296,Telangana,IN,https://www.google.com/maps/place/Madarsa+al+Arabiya+Bait+ul+Uloom+%26+Masjid+e+Rahmania/data=!4m7!3m6!1s0x3a2d56ba940d6e41:0xa09cb1cd9452c8a6!8m2!3d19.345412!4d79.4834169!16s%2Fg%2F11bw5xmyn4!19sChIJQW4NlLpWLToRpshSlM2xnKA?authuser=0&hl=en&rclk=1,"19.345412,79.4834169"
Masjid e Bilal,Mosque,"9F9G+WXM Masjid e Bilal, Dada Nagar, Kagaznagar, Telangana 504296",Dada Nagar,9F9G+WXM,Kagaznagar,504296,Telangana,IN,https://www.google.com/maps/place/Masjid+e+Bilal/data=!4m7!3m6!1s0x3a2d515a754c6735:0xd45f0f4ccb45c2ba!8m2!3d19.3698374!4d79.4774318!16s%2Fg%2F11cjc1jzf5!19sChIJNWdMdVpRLToRusJFy0wPX9Q?authuser=0&hl=en&rclk=1,"19.369837399999998,79.47743179999999"
Masjid E Aqsa,Mosque,"V6M3+CQ7 Masjid E Aqsa, Godavari Rd, Luxettipet, Utukur, Telangana 504215",,"V6M3+CQ7, Godavari Rd","Luxettipet, Utukur",504215,Telangana,IN,https://www.google.com/maps/place/Masjid+E+Aqsa/data=!4m7!3m6!1s0x3bcd4806170503ff:0x41898622cf17800e!8m2!3d18.8835328!4d79.204429!16s%2Fg%2F11dx9f8k5s!19sChIJ_wMFFwZIzTsRDoAXzyKGiUE?authuser=0&hl=en&rclk=1,"18.883532799999998,79.20442899999999"
Masjid e Noor,Mosque,"976M+99C Masjid e Noor, Asifabad, Telangana 504293",,976M+99C,Asifabad,504293,Telangana,IN,https://www.google.com/maps/place/Masjid+e+Noor/data=!4m7!3m6!1s0x3bd2aea5cbc568eb:0x5aed9b5568109c20!8m2!3d19.3609381!4d79.283388!16s%2Fg%2F11cjj4r8cv!19sChIJ62jFy6Wu0jsRIJwQaFWb7Vo?authuser=0&hl=en&rclk=1,"19.3609381,79.283388"
Masjid E Umar E Farooq Raadhiallahu Anhu,Mosque,"9F5C+HRF Masjid E Umar E Farooq Raadhiallahu Anhu, Ahmed.Raza.Colony, Kagaznagar, Telangana 504296",Ahmed.Raza.Colony,9F5C+HRF,Kagaznagar,504296,Telangana,IN,https://www.google.com/maps/place/Masjid+E+Umar+E+Farooq+Raadhiallahu+Anhu/data=!4m7!3m6!1s0x3a2d51553eee9879:0x8a39ea93011e9574!8m2!3d19.3589342!4d79.4720342!16s%2Fg%2F11bw6843jl!19sChIJeZjuPlVRLToRdJUeAZPqOYo?authuser=0&hl=en&rclk=1,"19.3589342,79.4720342"
Osman Masjid,Mosque,"4X47+RJX Osman Masjid, Asad Baba Nagar, Bhainsa, Telangana 504103",Asad Baba Nagar,4X47+RJX,Bhainsa,504103,Telangana,IN,https://www.google.com/maps/place/Osman+Masjid/data=!4m7!3m6!1s0x3bcdfe5b6bc0025d:0x854fb770d38fd2a3!8m2!3d19.107103!4d77.9641068!16s%2Fg%2F11cn6jvztk!19sChIJXQLAa1v-zTsRo9KP03C3T4U?authuser=0&hl=en&rclk=1,"19.107103,77.9641068"
Masjid,Mosque,"69HJ+PQ9 Masjid, Gollet, Telangana 504292",,69HJ+PQ9,Gollet,504292,Telangana,IN,https://www.google.com/maps/place/Masjid/data=!4m7!3m6!1s0x3a32aacb61a4a7e9:0x218677eef2130f05!8m2!3d19.229293!4d79.381994!16s%2Fg%2F11c702ycmc!19sChIJ6aekYcuqMjoRBQ8T8u53hiE?authuser=0&hl=en&rclk=1,"19.229293,79.38199399999999"
hazrath imam bhi fathima dhevassthanam,Hindu temple,"7C85+RXF hazrath imam bhi fathima dhevassthanam, Unnamed Road, Rebbena, Telangana 504292",,"7C85+RXF, Unnamed Road",Rebbena,504292,Telangana,IN,https://www.google.com/maps/place/hazrath+imam+bhi+fathima+dhevassthanam/data=!4m7!3m6!1s0x3a2d551fbed92b5b:0x5e739bf9ed0dc7d2!8m2!3d19.2670524!4d79.4099279!16s%2Fg%2F11h3ghfmb2!19sChIJWyvZvh9VLToR0scN7fmbc14?authuser=0&hl=en&rclk=1,"19.2670524,79.4099279"
Mosque,Mosque,"X52G+R6F Mosque, Mutyampet, Telangana 504206",,X52G+R6F,Mutyampet,504206,Telangana,IN,https://www.google.com/maps/place/Mosque/data=!4m7!3m6!1s0x3bcd466d6eedd661:0x2921ef9d1613e136!8m2!3d18.9520508!4d79.1755405!16s%2Fg%2F11ddxvk81c!19sChIJYdbtbm1GzTsRNuETFp3vISk?authuser=0&hl=en&rclk=1,"18.9520508,79.1755405"
EidGah Donthapur,Mosque,"22HH+393 EidGah Donthapur, Telangana 505454",,22HH+393,,505454,Telangana,IN,https://www.google.com/maps/place/EidGah+Donthapur/data=!4m7!3m6!1s0x3bcd42a2d1c7d42b:0xca626dc30ee13ca9!8m2!3d19.027628!4d79.0284177!16s%2Fg%2F11g9vmb82t!19sChIJK9TH0aJCzTsRqTzhDsNtYso?authuser=0&hl=en&rclk=1,"19.027628,79.02841769999999"
Masjid E Mujtab Sunnatul Jamat,Mosque,"9F5V+PFV Masjid E Mujtab Sunnatul Jamat, Kagaznagar, Telangana 504296",,9F5V+PFV,Kagaznagar,504296,Telangana,IN,https://www.google.com/maps/place/Masjid+E+Mujtab+Sunnatul+Jamat/data=!4m7!3m6!1s0x3a2d51354e04ccd1:0xc6571f4357c154c3!8m2!3d19.3593655!4d79.4936785!16s%2Fg%2F11f00j6kvz!19sChIJ0cwETjVRLToRw1TBV0MfV8Y?authuser=0&hl=en&rclk=1,"19.3593655,79.4936785"
Jama Masjid,Mosque,"5F32+484 Jama Masjid, Tandur, Telangana 501141",,5F32+484,Tandur,501141,Telangana,IN,https://www.google.com/maps/place/Jama+Masjid/data=!4m7!3m6!1s0x3a32ac13a0cebcd7:0x2d0109d02673adad!8m2!3d19.1527617!4d79.4508136!16s%2Fg%2F11c4b2z2dm!19sChIJ17zOoBOsMjoRra1zJtAJAS0?authuser=0&hl=en&rclk=1,"19.1527617,79.45081359999999"
Masjid-e-Aamina,Mosque,"8FRV+PV6 Masjid-e-Aamina, Bhatpalli Rd, Kagaznagar, Telangana 504296",,"8FRV+PV6, Bhatpalli Rd",Kagaznagar,504296,Telangana,IN,https://www.google.com/maps/place/Masjid-e-Aamina/data=!4m7!3m6!1s0x3a2d56c7315505f3:0x478330fdb4e0ec72!8m2!3d19.3417809!4d79.494654!16s%2Fg%2F11f51zzsj0!19sChIJ8wVVMcdWLToRcuzgtP0wg0c?authuser=0&hl=en&rclk=1,"19.3417809,79.494654"
Dargah Muzaffar Ali Shah Qalandar Dada R H,Religious destination,"9F7W+4FP Dargah Muzaffar Ali Shah Qalandar Dada R H, Adilabad, Telangana 504296",,9F7W+4FP,Adilabad,,Telangana,IN,https://www.google.com/maps/place/Dargah+Muzaffar+Ali+Shah+Qalandar+Dada+R+H/data=!4m7!3m6!1s0x3a2d51344e304d11:0x548c2a3c98dcd259!8m2!3d19.3628401!4d79.4961912!16s%2Fg%2F11gd_17c57!19sChIJEU0wTjRRLToRWdLcmDwqjFQ?authuser=0&hl=en&rclk=1,"19.3628401,79.4961912"
Masjid e Yaseen,Mosque,"Masjid e Yaseen, opp. Jail, Jankapur, Asifabad, Telangana 504293",Jankapur,opp. Jail,Asifabad,504293,Telangana,IN,https://www.google.com/maps/place/Masjid+e+Yaseen/data=!4m7!3m6!1s0x3bd2ae9ef5cade0b:0xa80f60e413fdcad2!8m2!3d19.374471!4d79.2873049!16s%2Fg%2F11cjpfh3jq!19sChIJC97K9Z6u0jsR0sr9E-RgD6g?authuser=0&hl=en&rclk=1,"19.374471,79.2873049"
Masjid e Taiba,Mosque,"Masjid e Taiba, Industrial Area, near HP Petrol Pump, Kagaznagar, Telangana 504296",,"Industrial Area, near HP Petrol Pump",Kagaznagar,504296,Telangana,IN,https://www.google.com/maps/place/Masjid+e+Taiba/data=!4m7!3m6!1s0x3a2d56a9f9e46a0d:0x9a80284099893d90!8m2!3d19.3515515!4d79.4710951!16s%2Fg%2F11bw77v1l8!19sChIJDWrk-alWLToRkD2JmUAogJo?authuser=0&hl=en&rclk=1,"19.3515515,79.4710951"
Makka Masjid Theegala Dhrmaram,Mosque,"225M+7F7 Makka Masjid Theegala Dhrmaram, Theegala Dharmaram, Telangana 505454",,225M+7F7,Theegala Dharmaram,505454,Telangana,IN,https://www.google.com/maps/place/Makka+Masjid+Theegala+Dhrmaram/data=!4m7!3m6!1s0x3bcd428926ec2039:0x43d64dd5a8bc946b!8m2!3d19.0081507!4d79.0336722!16s%2Fg%2F11f0wpv39c!19sChIJOSDsJolCzTsRa5S8qNVN1kM?authuser=0&hl=en&rclk=1,"19.008150699999998,79.0336722"
Masjid (Pedda Darmaram),Mosque,"2C5H+3JX Masjid (Pedda Darmaram), Chinnadharmaram Rd, Telangana 504207",,"2C5H+3JX, Chinnadharmaram Rd",,,Telangana,IN,https://www.google.com/maps/place/Masjid+%28Pedda+Darmaram%29/data=!4m7!3m6!1s0x3a32b3099815f42f:0x72380b2e6077fd12!8m2!3d19.0077368!4d79.4291235!16s%2Fg%2F11hyt6yp81!19sChIJL_QVmAmzMjoREv13YC4LOHI?authuser=0&hl=en&rclk=1,"19.0077368,79.4291235"
Masjid e Abrar,Mosque,"Masjid e Abrar, Pakeeza Nagar, Bareguda, Kagaznagar, Telangana 504296",,Pakeeza Nagar,"Bareguda, Kagaznagar",504296,Telangana,IN,https://www.google.com/maps/place/Masjid+e+Abrar/data=!4m7!3m6!1s0x3a2d56a3c9998f43:0x4a9d72ede0a21436!8m2!3d19.3378967!4d79.4772796!16s%2Fg%2F11bwkm5kt3!19sChIJQ4-ZyaNWLToRNhSi4O1ynUo?authuser=0&hl=en&rclk=1,"19.337896699999998,79.4772796"
Masjid al-Ikhlas,Mosque,"9F8P+632 Masjid al-Ikhlas, Sirsilk Rd, beside Fire Station, Kagaznagar, Telangana 504296",,"9F8P+632, Sirsilk Rd, beside Fire Station",Kagaznagar,504296,Telangana,IN,https://www.google.com/maps/place/Masjid+al-Ikhlas/data=!4m7!3m6!1s0x3a2d5156dce6632b:0x88f967c40aed6e51!8m2!3d19.3655101!4d79.4851321!16s%2Fg%2F11ll8dp_b0!19sChIJK2Pm3FZRLToRUW7tCsRn-Yg?authuser=0&hl=en&rclk=1,"19.365510099999998,79.4851321"
Masjede-E-Mohomadya,Mosque,"5C2V+5PQ Masjede-E-Mohomadya, Tandur, Telangana 504272",,5C2V+5PQ,Tandur,504272,Telangana,IN,https://www.google.com/maps/place/Masjede-E-Mohomadya/data=!4m7!3m6!1s0x3a32ac6b88820c93:0x87ac92cc59e900f3!8m2!3d19.1504521!4d79.4443549!16s%2Fg%2F11c6rhccd4!19sChIJkwyCiGusMjoR8wDpWcySrIc?authuser=0&hl=en&rclk=1,"19.1504521,79.4443549"
EIDGAH,Mosque,"976J+H9X EIDGAH, Asifabad, Yellaram, Telangana 504293",,976J+H9X,"Asifabad, Yellaram",504293,Telangana,IN,https://www.google.com/maps/place/EIDGAH/data=!4m7!3m6!1s0x3bd2aea4e343c61d:0x15ac3331aed26d20!8m2!3d19.3614885!4d79.2809802!16s%2Fg%2F11cs0_3lqd!19sChIJHcZD46Su0jsRIG3SrjEzrBU?authuser=0&hl=en&rclk=1,"19.3614885,79.2809802"
Jamia Dar-ul-uloom Mohammadia Jamia Nagar,Mosque,"8CPV+G46 Jamia Dar-ul-uloom Mohammadia Jamia Nagar, Sirpur - Kagaznagar Rd, Nandiguda, Telangana 504296",,"8CPV+G46, Sirpur - Kagaznagar Rd",Nandiguda,504296,Telangana,IN,https://www.google.com/maps/place/Jamia+Dar-ul-uloom+Mohammadia+Jamia+Nagar/data=!4m7!3m6!1s0x3a2d546bda5c573d:0xa9bbae92fe1420d8!8m2!3d19.3362918!4d79.4427549!16s%2Fg%2F11fylqyjjb!19sChIJPVdc2mtULToR2CAU_pKuu6k?authuser=0&hl=en&rclk=1,"19.336291799999998,79.4427549"
Masjid-e-Mahmoodunnisa,Mosque,"3435+9WM Masjid-e-Mahmoodunnisa, Thallapet, Tallapet, Telangana 504206",,3435+9WM,"Thallapet, Tallapet",504206,Telangana,IN,https://www.google.com/maps/place/Masjid-e-Mahmoodunnisa/data=!4m7!3m6!1s0x3bcd453f06c5e385:0x8bfd0695f73e7367!8m2!3d19.0534615!4d79.1098047!16s%2Fg%2F11ghs2kky5!19sChIJhePFBj9FzTsRZ3M-95UG_Ys?authuser=0&hl=en&rclk=1,"19.053461499999997,79.1098047"
Mosque,Mosque,"Mosque, Devapur, Telangana 504218",,,Devapur,,Telangana,IN,https://www.google.com/maps/place/Mosque/data=!4m7!3m6!1s0x3bcd4d17c2ad90f3:0xab9c721020869a11!8m2!3d19.0355273!4d79.3571019!16s%2Fg%2F1tfzqcm7!19sChIJ85CtwhdNzTsREZqGIBBynKs?authuser=0&hl=en&rclk=1,"19.0355273,79.35710189999999"
Masjid E Ayesha,Mosque,"V6H2+8JM Masjid E Ayesha, Luxettipet, Telangana 504215",,V6H2+8JM,Luxettipet,504215,Telangana,IN,https://www.google.com/maps/place/Masjid+E+Ayesha/data=!4m7!3m6!1s0x3bcd49d98161d923:0x59d66f4dcf609572!8m2!3d18.8783282!4d79.2015539!16s%2Fg%2F11q24cd0db!19sChIJI9lhgdlJzTsRcpVgz01v1lk?authuser=0&hl=en&rclk=1,"18.8783282,79.2015539"
Masjid E Safia Sulaiman,Mosque,"X32W+V9F Masjid E Safia Sulaiman, Unnamed Road, Mamidiwada, Rotte Venkamma Illu, Dharmapuri, Telangana 505425","Mamidiwada, Rotte Venkamma Illu","X32W+V9F, Unnamed Road",Dharmapuri,505425,Telangana,IN,https://www.google.com/maps/place/Masjid+E+Safia+Sulaiman/data=!4m7!3m6!1s0x3bcd419c1140ecef:0x5738f10bd92bf8d1!8m2!3d18.9521875!4d79.0959375!16s%2Fg%2F11rcrh6mgm!19sChIJ7-xAEZxBzTsR0fgr2QvxOFc?authuser=0&hl=en&rclk=1,"18.9521875,79.09593749999999"
MASJID E QUBA,Mosque,"MASJID E QUBA, Kagaznagar, Telangana 504296",,,Kagaznagar,504296,Telangana,IN,https://www.google.com/maps/place/MASJID+E+QUBA/data=!4m7!3m6!1s0x3a2d51c96628b40b:0x7b1d067f67bba92d!8m2!3d19.3596201!4d79.4954535!16s%2Fg%2F11g0h7vzht!19sChIJC7QoZslRLToRLam7Z38GHXs?authuser=0&hl=en&rclk=1,"19.3596201,79.4954535"
Masjide Wahida Unisa,Mosque,"V3V4+QGR Masjide Wahida Unisa, Velgonda, Telangana 505454",,V3V4+QGR,Velgonda,505454,Telangana,IN,https://www.google.com/maps/place/Masjide+Wahida+Unisa/data=!4m7!3m6!1s0x3bcd405b9ee52317:0x8fb1c9f68cb284a!8m2!3d18.8944821!4d79.0562564!16s%2Fg%2F11f15dx9xq!19sChIJFyPlnltAzTsRSijLaJ8c-wg?authuser=0&hl=en&rclk=1,"18.894482099999998,79.0562564"
Masjid,Mosque,"V6MR+V66 Masjid, Ankathipally, Telangana 504215",,V6MR+V66,Ankathipally,504215,Telangana,IN,https://www.google.com/maps/place/Masjid/data=!4m7!3m6!1s0x3bcd49bdc216284d:0x350592a99ce08e14!8m2!3d18.8846738!4d79.2405227!16s%2Fg%2F11h2hhxpqs!19sChIJTSgWwr1JzTsRFI7gnKmSBTU?authuser=0&hl=en&rclk=1,"18.884673799999998,79.2405227"
Jama Mosque Devapur,Mosque,"29R3+5CH Jama Mosque Devapur, Devapur, Telangana 504218",,29R3+5CH,Devapur,504218,Telangana,IN,https://www.google.com/maps/place/Jama+Mosque+Devapur/data=!4m7!3m6!1s0x3bcd4d143d51615b:0xd161b4f792ad7f92!8m2!3d19.0404421!4d79.3536248!16s%2Fg%2F11hbvtzyrz!19sChIJW2FRPRRNzTsRkn-tkve0YdE?authuser=0&hl=en&rclk=1,"19.0404421,79.35362479999999"
Masid -E- Moina,Mosque,"9F4J+H62 Masid -E- Moina, Kagaznagar, Telangana 504296",,9F4J+H62,Kagaznagar,504296,Telangana,IN,https://www.google.com/maps/place/Masid+-E-+Moina/data=!4m7!3m6!1s0x3a2d56ad6bf3ffff:0x9dfe118ee35ddb93!8m2!3d19.3563926!4d79.4805173!16s%2Fg%2F11txmz3bz7!19sChIJ___za61WLToRk9td444R_p0?authuser=0&hl=en&rclk=1,"19.3563926,79.4805173"
Peerila Masjid,Mosque,"W3XW+8M8 Peerila Masjid, Dharmapuri, Telangana 505425",,W3XW+8M8,Dharmapuri,505425,Telangana,IN,https://www.google.com/maps/place/Peerila+Masjid/data=!4m7!3m6!1s0x3bcd41453495526d:0xd1b992ce8abbbd59!8m2!3d18.9482959!4d79.0967184!16s%2Fg%2F124t1g8cl!19sChIJbVKVNEVBzTsRWb27is6SudE?authuser=0&hl=en&rclk=1,"18.948295899999998,79.0967184"
Jama Masjid,Mosque,"5C74+CR4 Jama Masjid, Madaram, Telangana 504220",,5C74+CR4,Madaram,,Telangana,IN,https://www.google.com/maps/place/Jama+Masjid/data=!4m7!3m6!1s0x3a32ad7ae62b7df5:0xcdd8f1d2f05ef0ac!8m2!3d19.1635215!4d79.4070814!16s%2Fg%2F11g4dq6kvw!19sChIJ9X0r5nqtMjoRrPBe8NLx2M0?authuser=0&hl=en&rclk=1,"19.163521499999998,79.4070814"
Masjid e Amina Abdullah Rashod,Mosque,"X5W3+5FW Masjid e Amina Abdullah Rashod, bolishetty rajanna mro office, Dantepally, Telangana 504206",,"X5W3+5FW, bolishetty rajanna mro office",Dantepally,504206,Telangana,IN,https://www.google.com/maps/place/Masjid+e+Amina+Abdullah+Rashod/data=!4m7!3m6!1s0x3bcd45765b74900f:0xabe4778fa50cba8c!8m2!3d18.9954814!4d79.1537153!16s%2Fg%2F11n25bc1t1!19sChIJD5B0W3ZFzTsRjLoMpY935Ks?authuser=0&hl=en&rclk=1,"18.9954814,79.1537153"
"Old mosque, Qabrasthan",Mosque,"2C4H+6RR Old mosque, Qabrasthan, Chinnadharmaram Rd, Telangana 504207",,"2C4H+6RR, Chinnadharmaram Rd",,504207,Telangana,IN,"https://www.google.com/maps/place/Old+mosque,+Qabrasthan/data=!4m7!3m6!1s0x3a32b3a0bd78ad09:0xdc4121e4963c54c1!8m2!3d19.005623!4d79.429517!16s%2Fg%2F11px419zph!19sChIJCa14vaCzMjoRwVQ8luQhQdw?authuser=0&hl=en&rclk=1","19.005623,79.42951699999999"
Jama Masjid,Mosque,"2CHM+5MG Jama Masjid, Muthyampalli, Kasipet, Telangana 504231",Muthyampalli,2CHM+5MG,Kasipet,,Telangana,IN,https://www.google.com/maps/place/Jama+Masjid/data=!4m7!3m6!1s0x3a32b252dc215675:0x846773db6ac334c7!8m2!3d19.0279442!4d79.4341921!16s%2Fg%2F11ggncg26w!19sChIJdVYh3FKyMjoRxzTDattzZ4Q?authuser=0&hl=en&rclk=1,"19.0279442,79.43419209999999"
Khankha e mohammadi luxettipet,Mosque,"V6G2+MFW Khankha e mohammadi luxettipet, Unnamed Road, Luxettipet, Telangana 504215",,"V6G2+MFW, Unnamed Road",Luxettipet,504215,Telangana,IN,https://www.google.com/maps/place/Khankha+e+mohammadi+luxettipet/data=!4m7!3m6!1s0x3bcd494724f49b4d:0x987539901e1b05d2!8m2!3d18.8767471!4d79.2012099!16s%2Fg%2F11nt4bv2g0!19sChIJTZv0JEdJzTsR0gUbHpA5dZg?authuser=0&hl=en&rclk=1,"18.8767471,79.2012099"
Masjid E Shaheda,Mosque,"9F48+RXF Masjid E Shaheda, NGO's colony, Kagaznagar, Telangana 504296",NGO's colony,9F48+RXF,Kagaznagar,504296,Telangana,IN,https://www.google.com/maps/place/Masjid+E+Shaheda/data=!4m7!3m6!1s0x3a2d5502cd32a55f:0xcdd3f4a3b642f2c!8m2!3d19.3570619!4d79.4674218!16s%2Fg%2F11jf9rxybs!19sChIJX6UyzQJVLToRLC9kO0o_3Qw?authuser=0&hl=en&rclk=1,"19.357061899999998,79.4674218"
Masjid-e-Aqsa,Mosque,"Masjid-e-Aqsa, C, Babu Colony, Kagaznagar, Telangana 504296",Babu Colony,C,Kagaznagar,504296,Telangana,IN,https://www.google.com/maps/place/Masjid-e-Aqsa/data=!4m7!3m6!1s0x3a2d573ca2ab7e55:0xd6c91fd9a55532d!8m2!3d19.338031!4d79.4886317!16s%2Fg%2F11kxknz7mp!19sChIJVX6rojxXLToRLVNVmv2RbA0?authuser=0&hl=en&rclk=1,"19.338031,79.4886317"
Eidgah old,Mosque,"Eidgah old, 2, Fathima Rd, Edgha colony, Kagaznagar, Telangana 504296",Edgha colony,"2, Fathima Rd",Kagaznagar,504296,Telangana,IN,https://www.google.com/maps/place/Eidgah+old/data=!4m7!3m6!1s0x3a2d51531faaaaab:0xd09f9ed6a2cdc210!8m2!3d19.3596388!4d79.4790725!16s%2Fg%2F11d_786csg!19sChIJq6qqH1NRLToREMLNotaen9A?authuser=0&hl=en&rclk=1,"19.3596388,79.4790725"
"Mosque , arepalle",Mosque,"327F+R6Q Mosque , arepalle, Arepally Rd, Donthapur, Arpapalle, Telangana 505425",,"327F+R6Q, Arepally Rd","Donthapur, Arpapalle",505425,Telangana,IN,"https://www.google.com/maps/place/Mosque+,+arepalle/data=!4m7!3m6!1s0x3bcd5d8dd8a2592b:0x800db10c518ef6fa!8m2!3d19.0645903!4d79.0231206!16s%2Fg%2F11qg18z79k!19sChIJK1mi2I1dzTsR-vaOUQyxDYA?authuser=0&hl=en&rclk=1","19.0645903,79.0231206"
Masjid e Safia,Mosque,"8G9G+69 Masjid e Safia, Jagannathpur, Telangana 504273",,8G9G+69,Jagannathpur,,Telangana,IN,https://www.google.com/maps/place/Masjid+e+Safia/data=!4m7!3m6!1s0x3a2d57bf7f58f09b:0x5949498ed379833!8m2!3d19.3180122!4d79.5259171!16s%2Fg%2F11k3xl0wp2!19sChIJm_BYf79XLToRM5g37ZiUlAU?authuser=0&hl=en&rclk=1,"19.3180122,79.5259171"
Masjid-e-Muhammadiyya,Mosque,"Masjid-e-Muhammadiyya, H.No: 2-6-263/A Nogam Basthi, Kagaznagar, Telangana 504296",,H.No: 2-6-263/A Nogam Basthi,Kagaznagar,504296,Telangana,IN,https://www.google.com/maps/place/Masjid-e-Muhammadiyya/data=!4m7!3m6!1s0x3a2d57c2ffbb6a51:0x436e0f567a69b428!8m2!3d19.3498972!4d79.4772235!16s%2Fg%2F11h7d_19d5!19sChIJUWq7_8JXLToRKLRpelYPbkM?authuser=0&hl=en&rclk=1,"19.349897199999997,79.4772235"
Masjid,Mosque,"V7J4+GG5 Masjid, Telangana 504215",,V7J4+GG5,,504215,Telangana,IN,https://www.google.com/maps/place/Masjid/data=!4m7!3m6!1s0x3bcd4949a9bf89a1:0xfedf2abfb93c1c36!8m2!3d18.8812544!4d79.2563521!16s%2Fg%2F11rw9wcgw5!19sChIJoYm_qUlJzTsRNhw8ub8q3_4?authuser=0&hl=en&rclk=1,"18.8812544,79.2563521"
Masjid e Mohiuddin,Mosque,"8FVJ+HGX Masjid e Mohiuddin, Street Number 21, Ward Number 3, Kagaznagar, Telangana 504296",Ward Number 3,"8FVJ+HGX, Street Number 21",Kagaznagar,504296,Telangana,IN,https://www.google.com/maps/place/Masjid+e+Mohiuddin/data=!4m7!3m6!1s0x3a2d5746c9550301:0x155a0e1a557e421b!8m2!3d19.3439843!4d79.4813698!16s%2Fg%2F11fq6r4rbw!19sChIJAQNVyUZXLToRG0J-VRoOWhU?authuser=0&hl=en&rclk=1,"19.3439843,79.4813698"
Madaram jamm,Mosque,"Madaram jamm, Qno 4o8, near dispensary, Madaram, Telangana 504220",,"Qno 4o8, near dispensary",Madaram,504220,Telangana,IN,https://www.google.com/maps/place/Madaram+jamm/data=!4m7!3m6!1s0x3a32aba9f3587947:0xc2520d4afb36d87d!8m2!3d19.1667082!4d79.4090189!16s%2Fg%2F11fszl8n44!19sChIJR3lY86mrMjoRfdg2-0oNUsI?authuser=0&hl=en&rclk=1,"19.1667082,79.40901889999999"
Nasar aminabhi masid,Mosque,"39FQ+QH5 Nasar aminabhi masid, Dharmaraopet, Telangana 504231",,39FQ+QH5,Dharmaraopet,,Telangana,IN,https://www.google.com/maps/place/Nasar+aminabhi+masid/data=!4m7!3m6!1s0x3a32ade904d6e6c5:0x2e43291e9b8a9e71!8m2!3d19.0743892!4d79.3889896!16s%2Fg%2F11qg0mpk9h!19sChIJxebWBOmtMjoRcZ6Kmx4pQy4?authuser=0&hl=en&rclk=1,"19.0743892,79.3889896"
Masjid-E-mehraj,Mosque,"9F5M+Q6X Masjid-E-mehraj, Kagaznagar, Telangana 504296",,9F5M+Q6X,Kagaznagar,504296,Telangana,IN,https://www.google.com/maps/place/Masjid-E-mehraj/data=!4m7!3m6!1s0x3a2d512301acbe4f:0xa16b6b0da34d435a!8m2!3d19.3594803!4d79.4831088!16s%2Fg%2F11kgcjm_5t!19sChIJT76sASNRLToRWkNNow1ra6E?authuser=0&hl=en&rclk=1,"19.359480299999998,79.4831088"
Masjid-e-Khadijah,Mosque,"974R+XWR Masjid-e-Khadijah, Asifabad, Telangana 504293",,974R+XWR,Asifabad,504293,Telangana,IN,https://www.google.com/maps/place/Masjid-e-Khadijah/data=!4m7!3m6!1s0x3bd2ad43aa7c3d41:0xceb45b62869910bb!8m2!3d19.3574779!4d79.2922524!16s%2Fg%2F11sshd34_9!19sChIJQT18qkOt0jsRuxCZhmJbtM4?authuser=0&hl=en&rclk=1,"19.3574779,79.2922524"
Dargah shareef,Mosque,"5C7X+FC Dargah shareef, Kothapalle, Telangana 504272",,5C7X+FC,Kothapalle,,Telangana,IN,https://www.google.com/maps/place/Dargah+shareef/data=!4m7!3m6!1s0x3a32ada887986453:0x54f943bfb75a322a!8m2!3d19.1636278!4d79.448567!16s%2Fg%2F11t62td4qj!19sChIJU2SYh6itMjoRKjJat79D-VQ?authuser=0&hl=en&rclk=1,"19.1636278,79.448567"
BAREGUDA,Mosque,"8FC9+VJR BAREGUDA, Bareguda, Vanjiri, Telangana 504296",,8FC9+VJR,"Bareguda, Vanjiri",504296,Telangana,IN,https://www.google.com/maps/place/BAREGUDA/data=!4m7!3m6!1s0x3a2d55d3e0a779ef:0xc051412f03290ed2!8m2!3d19.3228459!4d79.4690313!16s%2Fg%2F11t7m3r5s8!19sChIJ73mn4NNVLToR0g4pAy9BUcA?authuser=0&hl=en&rclk=1,"19.3228459,79.4690313"
Masjide e Shaheda,Mosque,"9F48+6GC Masjide e Shaheda, Boregaon, Telangana 504296",,9F48+6GC,Boregaon,504296,Telangana,IN,https://www.google.com/maps/place/Masjide+e+Shaheda/data=!4m7!3m6!1s0x3a2d55e976790463:0xf4321055665e109d!8m2!3d19.3555746!4d79.4662507!16s%2Fg%2F11j8pdg92n!19sChIJYwR5dulVLToRnRBeZlUQMvQ?authuser=0&hl=en&rclk=1,"19.3555746,79.4662507"
* ASHURKHANA BARAH IMAM *MOHARRAM,Mosque,"726X+QCJ * ASHURKHANA BARAH IMAM *MOHARRAM, Yellapatar, Telangana 504313",,726X+QCJ,Yellapatar,504313,Telangana,IN,https://www.google.com/maps/place/*+ASHURKHANA+BARAH+IMAM+*MOHARRAM/data=!4m7!3m6!1s0x3bd2a1d7a05cb05b:0x2ad6f2e9cbb8bf9c!8m2!3d19.261955!4d79.0485027!16s%2Fg%2F11pzs9dl31!19sChIJW7BcoNeh0jsRnL-4y-ny1io?authuser=0&hl=en&rclk=1,"19.261955,79.0485027"
Hazrat ali akbar baigh urf jamedar baba rahmatullah alaih,Mosque,"974W+5H6 Hazrat ali akbar baigh urf jamedar baba rahmatullah alaih, Asifabad, Telangana 504293",,974W+5H6,Asifabad,504293,Telangana,IN,https://www.google.com/maps/place/Hazrat+ali+akbar+baigh+urf+jamedar+baba+rahmatullah+alaih/data=!4m7!3m6!1s0x3bd2ad04b54506cd:0xc402655b1ee75b9b!8m2!3d19.3554179!4d79.2963962!16s%2Fg%2F11sjqrm663!19sChIJzQZFtQSt0jsRm1vnHltlAsQ?authuser=0&hl=en&rclk=1,"19.3554179,79.29639619999999"
Mosque,Mosque,"9GV2+4MF Mosque, Vempally, Sirpur, Regulguda, Telangana 504296",Vempally,9GV2+4MF,"Sirpur, Regulguda",504296,Telangana,IN,https://www.google.com/maps/place/Mosque/data=!4m7!3m6!1s0x3a2d51d8ff13e49d:0x26e2fa88db4ae3c5!8m2!3d19.3924202!4d79.5013119!16s%2Fg%2F11sbfj5vqh!19sChIJneQT_9hRLToRxeNK24j64iY?authuser=0&hl=en&rclk=1,"19.3924202,79.50131189999999"
Masjid e Saleh,Mosque,"X5W3+5FW Masjid e Saleh, bolishetty rajanna mro office, Dantepally, Telangana 504206",,"X5W3+5FW, bolishetty rajanna mro office",Dantepally,504206,Telangana,IN,https://www.google.com/maps/place/Masjid+e+Saleh/data=!4m7!3m6!1s0x3bcd45dc06307c6d:0xb5279caa5d165fe6!8m2!3d18.9954959!4d79.1537098!16s%2Fg%2F11n258mlmb!19sChIJbXwwBtxFzTsR5l8WXaqcJ7U?authuser=0&hl=en&rclk=1,"18.995495899999998,79.1537098"
Badi masjid,Mosque,"V6M4+6G6 Badi masjid, Luxettipet, Utukur, Telangana 504215",,V6M4+6G6,"Luxettipet, Utukur",504215,Telangana,IN,https://www.google.com/maps/place/Badi+masjid/data=!4m7!3m6!1s0x3bcd4983c8455595:0x967acd0ca59d0e65!8m2!3d18.8830416!4d79.2062597!16s%2Fg%2F11vf2g1rj5!19sChIJlVVFyINJzTsRZQ6dpQzNepY?authuser=0&hl=en&rclk=1,"18.8830416,79.20625969999999"
MAJED MBD,Mosque,"33QC+436 MAJED MBD, Malyal1, Telangana 504205",,33QC+436,Malyal1,504205,Telangana,IN,https://www.google.com/maps/place/MAJED+MBD/data=!4m7!3m6!1s0x3bcd5dc7d8043ab9:0xd0a3a374a7512c1b!8m2!3d19.087524!4d79.070119!16s%2Fg%2F11t4_mj0wl!19sChIJuToE2MddzTsRGyxRp3Sjo9A?authuser=0&hl=en&rclk=1,"19.087524,79.07011899999999"
Jama masjid luxettipet,Mosque,"W656+7GJ Jama masjid luxettipet, Luxettipet, Utukur, Telangana 504215",,W656+7GJ,"Luxettipet, Utukur",504215,Telangana,IN,https://www.google.com/maps/place/Jama+masjid+luxettipet/data=!4m7!3m6!1s0x3bcd495e1c762f25:0xa0cfa07634d3bb03!8m2!3d18.9082189!4d79.2112769!16s%2Fg%2F11vf2fh6z5!19sChIJJS92HF5JzTsRA7vTNHagz6A?authuser=0&hl=en&rclk=1,"18.908218899999998,79.2112769"
Ansar masjid,Mosque,"9F5J+7W4 Ansar masjid, Kagaznagar, Telangana 504296",,9F5J+7W4,Kagaznagar,504296,Telangana,IN,https://www.google.com/maps/place/Ansar+masjid/data=!4m7!3m6!1s0x3a2d57b977fdbe6d:0x6960a1717e731215!8m2!3d19.3581456!4d79.4823339!16s%2Fg%2F11rsc1y_tg!19sChIJbb79d7lXLToRFRJzfnGhYGk?authuser=0&hl=en&rclk=1,"19.3581456,79.4823339"
Mosque Mahammadabad,Mosque,"33QC+229 Mosque Mahammadabad, jannaram mahammadabad, 504205",,"33QC+229, jannaram mahammadabad",,504205,Telangana,IN,https://www.google.com/maps/place/Mosque+Mahammadabad/data=!4m7!3m6!1s0x3bcd5d75c529e10b:0x76390774d02a9d68!8m2!3d19.0875411!4d79.0700938!16s%2Fg%2F11t6ky02_j!19sChIJC-EpxXVdzTsRaJ0q0HQHOXY?authuser=0&hl=en&rclk=1,"19.0875411,79.0700938"
Masjid E Iqlaas,Mosque,"9F8P+632 Masjid E Iqlaas, Sirsilk Rd, beside Fire Station, Kagaznagar, Telangana 504296",,"9F8P+632, Sirsilk Rd, beside Fire Station",Kagaznagar,504296,Telangana,IN,https://www.google.com/maps/place/Masjid+E+Iqlaas/data=!4m7!3m6!1s0x3a2d51d0cddbd5e7:0xf2aef1fe202c2d0d!8m2!3d19.3655076!4d79.4851167!16s%2Fg%2F11vkplc0nw!19sChIJ59XbzdBRLToRDS0sIP7xrvI?authuser=0&hl=en&rclk=1,"19.3655076,79.48511669999999"
Choti masjid,Mosque,"5C2X+8M Choti masjid, Tandur, Telangana 504272",,5C2X+8M,Tandur,,Telangana,IN,https://www.google.com/maps/place/Choti+masjid/data=!4m7!3m6!1s0x3a32adad042446a3:0xd142992232766ce7!8m2!3d19.1507869!4d79.4491885!16s%2Fg%2F11sq8hn0w4!19sChIJo0YkBK2tMjoR52x2MiKZQtE?authuser=0&hl=en&rclk=1,"19.1507869,79.44918849999999"
Masjid-E-Bilal,Mosque,"87J6+9HP Masjid-E-Bilal, Thumpalle, Babapur, Telangana 504294",,87J6+9HP,"Thumpalle, Babapur",,Telangana,IN,https://www.google.com/maps/place/Masjid-E-Bilal/data=!4m7!3m6!1s0x3bd2a948559e9c4b:0xf625909021a2406d!8m2!3d19.3309518!4d79.2614523!16s%2Fg%2F11kjk9fcwg!19sChIJS5yeVUip0jsRbUCiIZCQJfY?authuser=0&hl=en&rclk=1,"19.330951799999998,79.2614523"
Madeena Masjid,Mosque,"89F9+473 Madeena Masjid, SH1, Khairgaon, Telangana 504292",,"89F9+473, SH1",Khairgaon,,Telangana,IN,https://www.google.com/maps/place/Madeena+Masjid/data=!4m7!3m6!1s0x3bd2ab55de777551:0xd86d0f49d393c93f!8m2!3d19.3227714!4d79.3681607!16s%2Fg%2F11gwm9j8f5!19sChIJUXV33lWr0jsRP8mT00kPbdg?authuser=0&hl=en&rclk=1,"19.3227714,79.36816069999999"
Madeena,Mosque,"896F+9VG Madeena, Khairgaon, Telangana 504292",,896F+9VG,Khairgaon,504292,Telangana,IN,https://www.google.com/maps/place/Madeena/data=!4m7!3m6!1s0x3bd2ab76fe62e4f9:0x655e67e2cda8427f!8m2!3d19.3109257!4d79.3747141!16s%2Fg%2F11txsk5xt9!19sChIJ-eRi_nar0jsRf0KozeJnXmU?authuser=0&hl=en&rclk=1,"19.3109257,79.37471409999999"
Madeena majhid,Mosque,"X3MQ+P34 Madeena majhid, Unnamed Road, Rajaram, Telangana 505425",,"X3MQ+P34, Unnamed Road",Rajaram,505425,Telangana,IN,https://www.google.com/maps/place/Madeena+majhid/data=!4m7!3m6!1s0x3bcd4361bfcc1b0f:0xfe0d7c8a129ec417!8m2!3d18.9842711!4d79.0876911!16s%2Fg%2F11rb3r6v9n!19sChIJDxvMv2FDzTsRF8SeEop8Df4?authuser=0&hl=en&rclk=1,"18.9842711,79.0876911"
MASJID E SHAHEDA,Mosque,"8FWQ+HXH MASJID E SHAHEDA, NGO Colony, Kagaznagar, Telangana 504296",NGO Colony,8FWQ+HXH,Kagaznagar,,Telangana,IN,https://www.google.com/maps/place/MASJID+E+SHAHEDA/data=!4m7!3m6!1s0x3a2d57d62aed7ce5:0x893703f71d564abc!8m2!3d19.3464329!4d79.4899888!16s%2Fg%2F11fszvx_m4!19sChIJ5XztKtZXLToRvEpWHfcDN4k?authuser=0&hl=en&rclk=1,"19.3464329,79.48998879999999"
Jamma Masjid,Mosque,"7345+QGQ Jamma Masjid, Yellapatar, Telangana 504313",,7345+QGQ,Yellapatar,,Telangana,IN,https://www.google.com/maps/place/Jamma+Masjid/data=!4m7!3m6!1s0x3bd2a1118f7720e5:0xd3a650aa42284af1!8m2!3d19.2569583!4d79.058856!16s%2Fg%2F11thhfc6wm!19sChIJ5SB3jxGh0jsR8UooQqpQptM?authuser=0&hl=en&rclk=1,"19.2569583,79.05885599999999"
MASJID E COURT AREA LUXETTIPET,Mosque,"V6Q3+JGJ MASJID E COURT AREA LUXETTIPET, Utukur, Telangana 504215",,V6Q3+JGJ,Utukur,504215,Telangana,IN,https://www.google.com/maps/place/MASJID+E+COURT+AREA+LUXETTIPET/data=!4m7!3m6!1s0x3bcd49085fcf7d37:0xb9935c9de9f0090d!8m2!3d18.8890885!4d79.2037506!16s%2Fg%2F11nn43__y4!19sChIJN33PXwhJzTsRDQnw6Z1ck7k?authuser=0&hl=en&rclk=1,"18.8890885,79.20375059999999"
MASJID E MONIYA,Mosque,"9F5J+7W4 MASJID E MONIYA, Kagaznagar, Telangana 504296",,9F5J+7W4,Kagaznagar,504296,Telangana,IN,https://www.google.com/maps/place/MASJID+E+MONIYA/data=!4m7!3m6!1s0x3a2d57da2d7f2b1d:0x8d9e255b8d876c7d!8m2!3d19.3581456!4d79.4823339!16s%2Fg%2F11kj02mzft!19sChIJHSt_LdpXLToRfWyHjVslno0?authuser=0&hl=en&rclk=1,"19.3581456,79.4823339"
Masjid-E-Ibrahimia,Mosque,"W3XR+6G5 Masjid-E-Ibrahimia, Dharmapuri Camp, Dharmapuri, Telangana 505425",Dharmapuri Camp,W3XR+6G5,Dharmapuri,505425,Telangana,IN,https://www.google.com/maps/place/Masjid-E-Ibrahimia/data=!4m7!3m6!1s0x3bcd417b204cbc55:0xfcf4ceb2cce74a88!8m2!3d18.9479993!4d79.091359!16s%2Fg%2F11rqh_2269!19sChIJVbxMIHtBzTsRiErnzLLO9Pw?authuser=0&hl=en&rclk=1,"18.9479993,79.091359"
MASJID E SHAHEDA,Mosque,"9F5J+7W4 MASJID E SHAHEDA, NGO Colony, Kagaznagar, Telangana 504296",NGO Colony,9F5J+7W4,Kagaznagar,,Telangana,IN,https://www.google.com/maps/place/MASJID+E+SHAHEDA/data=!4m7!3m6!1s0x3a2d5703a7a9a817:0xf96caec15d8f9977!8m2!3d19.3581456!4d79.4823339!16s%2Fg%2F11j37gd00w!19sChIJF6ippwNXLToRd5mPXcGubPk?authuser=0&hl=en&rclk=1,"19.3581456,79.4823339"
Eid Gah,Mosque,"V6R3+844 Eid Gah, Lakshettipet, Utukur, Telangana 504215",,V6R3+844,"Lakshettipet, Utukur",504215,Telangana,IN,https://www.google.com/maps/place/Eid+Gah/data=!4m7!3m6!1s0x3bcd49633e4aa623:0xc8ba704d0873bb4a!8m2!3d18.8907702!4d79.202828!16s%2Fg%2F11q_1t7gt0!19sChIJI6ZKPmNJzTsRSrtzCE1wusg?authuser=0&hl=en&rclk=1,"18.8907702,79.202828"
Thumpalli Muslim colony,Mosque,"976V+Q6C Thumpalli Muslim colony, Asifabad, Telangana 504293",,976V+Q6C,Asifabad,504293,Telangana,IN,https://www.google.com/maps/place/Thumpalli+Muslim+colony/data=!4m7!3m6!1s0x3bd2ad06cba3abe5:0x931a22a7c0a7a4f6!8m2!3d19.3619289!4d79.2930146!16s%2Fg%2F11twtx7brp!19sChIJ5aujywat0jsR9qSnwKciGpM?authuser=0&hl=en&rclk=1,"19.3619289,79.29301459999999"
Masjid E Qausar,Mosque,"8FRH+77Q Masjid E Qausar, Kausar Nagar, Sriram Nagar, Kagaznagar, Telangana 504296","Kausar Nagar, Sriram Nagar",8FRH+77Q,Kagaznagar,504296,Telangana,IN,https://www.google.com/maps/place/Masjid+E+Qausar/data=!4m7!3m6!1s0x3a2d575e13a03731:0xd0ee5cb55f5430a2!8m2!3d19.3407871!4d79.4783173!16s%2Fg%2F11rysdj5c8!19sChIJMTegE15XLToRojBUX7Vc7tA?authuser=0&hl=en&rclk=1,"19.3407871,79.4783173"
Masjid e Quresh,Mosque,"8FVP+746 Masjid e Quresh, Sanjeeviah Colony, Kagaznagar, Telangana 504296",Sanjeeviah Colony,8FVP+746,Kagaznagar,504296,Telangana,IN,https://www.google.com/maps/place/Masjid+e+Quresh/data=!4m7!3m6!1s0x3a2d56bbb043c6a9:0x97198713a0689373!8m2!3d19.3431704!4d79.4852652!16s%2Fg%2F11bw65zvhz!19sChIJqcZDsLtWLToRc5NooBOHGZc?authuser=0&hl=en&rclk=1,"19.343170399999998,79.4852652"
Hazrat Moula Ali Gouse Azam Dastagir Chilla Shareef,Mosque,"Hazrat Moula Ali Gouse Azam Dastagir Chilla Shareef, Kothapally, Tandur, Kothapalle, Telangana 504272",,Kothapally,"Tandur, Kothapalle",504272,Telangana,IN,https://www.google.com/maps/place/Hazrat+Moula+Ali+Gouse+Azam+Dastagir+Chilla+Shareef/data=!4m7!3m6!1s0x3a32adca8b38aa6b:0xe8cd48f76d5f24fd!8m2!3d19.1648172!4d79.4409776!16s%2Fg%2F11l1fpg371!19sChIJa6o4i8qtMjoR_SRfbfdIzeg?authuser=0&hl=en&rclk=1,"19.164817199999998,79.4409776"
Madina Masjid,Mosque,"W3XW+XWP Madina Masjid, Rotte Venkamma Illu, Dharmapuri, Telangana 505425",Rotte Venkamma Illu,W3XW+XWP,Dharmapuri,505425,Telangana,IN,https://www.google.com/maps/place/Madina+Masjid/data=!4m7!3m6!1s0x3bcd415a95e6aaab:0x91c9672ecbd81a34!8m2!3d18.9499598!4d79.097315!16s%2Fg%2F11txmzj9x5!19sChIJq6rmlVpBzTsRNBrYyy5nyZE?authuser=0&hl=en&rclk=1,"18.9499598,79.097315"
Edgha colony,Mosque,"9F5J+7W4 Edgha colony, Kagaznagar, Telangana 504296",,9F5J+7W4,Kagaznagar,504296,Telangana,IN,https://www.google.com/maps/place/Edgha+colony/data=!4m7!3m6!1s0x3a2d578aaf27caff:0xcf4e93d61033b242!8m2!3d19.3581456!4d79.4823339!16s%2Fg%2F11jzw8f342!19sChIJ_8onr4pXLToRQrIzENaTTs8?authuser=0&hl=en&rclk=1,"19.3581456,79.4823339"
Kousar nagar,Mosque,"8FRH+FC8 Kousar nagar, Kausar Nagar, Balaji Nagar, Sriram Nagar, Kagaznagar, Telangana 504296","Kausar Nagar, Balaji Nagar, Sriram Nagar",8FRH+FC8,Kagaznagar,504296,Telangana,IN,https://www.google.com/maps/place/Kousar+nagar/data=!4m7!3m6!1s0x3a2d57c4111b1d31:0x5188e812f1e13138!8m2!3d19.3411643!4d79.4785924!16s%2Fg%2F11sv7c2fyx!19sChIJMR0bEcRXLToRODHh8RLoiFE?authuser=0&hl=en&rclk=1,"19.3411643,79.4785924"
theegala dhrmaram eidgah,Mosque,"224Q+GM9 theegala dhrmaram eidgah, Theegala Dharmaram, Telangana 505454",,224Q+GM9,Theegala Dharmaram,,Telangana,IN,https://www.google.com/maps/place/theegala+dhrmaram+eidgah/data=!4m7!3m6!1s0x3bcd4368ad4018c5:0x790c17ab17e3aaa6!8m2!3d19.0062932!4d79.0392394!16s%2Fg%2F11j92b1npv!19sChIJxRhArWhDzTsRpqrjF6sXDHk?authuser=0&hl=en&rclk=1,"19.006293199999998,79.0392394"
Hazrat makkusha maqdum sha Baba dargah shareef,Mosque,"5C3W+QR8 Hazrat makkusha maqdum sha Baba dargah shareef, Govt Hospital, Road, Tandur, Telangana 504272",,"5C3W+QR8 Govt Hospital, Road",Tandur,504272,Telangana,IN,https://www.google.com/maps/place/Hazrat+makkusha+maqdum+sha+Baba+dargah+shareef/data=!4m7!3m6!1s0x3a32ad4f88de6973:0x9a0699e3a44a547d!8m2!3d19.15451!4d79.447123!16s%2Fg%2F11t4jhz0xs!19sChIJc2neiE-tMjoRfVRKpOOZBpo?authuser=0&hl=en&rclk=1,"19.15451,79.44712299999999"
Tiryani,,"Tiryani, Telangana 504297",,,Tiryani,,Telangana,IN,https://www.google.com/maps/place/Tiryani/data=!4m7!3m6!1s0x3bcd56bf6abbc7d1:0xe9054d830e4bfe0c!8m2!3d19.1786011!4d79.2704854!16s%2Fm%2F02prlzv!19sChIJ0ce7ar9WzTsRDP5LDoNNBek?authuser=0&hl=en&rclk=1,"19.178601099999998,79.2704854"
"Masjid E Khadija, Maktab E Abdullah",Place of worship,"974R+VWP Masjid E Khadija, Maktab E Abdullah, Kasabwadi, Asifabad, Telangana 504293",Kasabwadi,974R+VWP,Asifabad,504293,Telangana,IN,"https://www.google.com/maps/place/Masjid+E+Khadija,+Maktab+E+Abdullah/data=!4m7!3m6!1s0x3bd2ad4c6a475809:0x7f6fc1ed635fd790!8m2!3d19.3572248!4d79.2923366!16s%2Fg%2F11sshcvd0p!19sChIJCVhHakyt0jsRkNdfY-3Bb38?authuser=0&hl=en&rclk=1","19.3572248,79.2923366"
Qadeem Masjid,Housing society,"976V+Q6C Qadeem Masjid, Asifabad, Telangana 504293",,976V+Q6C,Asifabad,504293,Telangana,IN,https://www.google.com/maps/place/Qadeem+Masjid/data=!4m7!3m6!1s0x3bd2ad16820b6fcf:0xc2c5251517b0c7f4!8m2!3d19.3619289!4d79.2930146!16s%2Fg%2F11s9c75fsj!19sChIJz28Lghat0jsR9MewFxUlxcI?authuser=0&hl=en&rclk=1,"19.3619289,79.29301459999999"
DARUSSALAM ASIFABAD,Political party office,"DARUSSALAM ASIFABAD, Rahmat Nagar Bazar, Wadi, Asifabad, Telangana 504293",Wadi,Rahmat Nagar Bazar,Asifabad,504293,Telangana,IN,https://www.google.com/maps/place/DARUSSALAM+ASIFABAD/data=!4m7!3m6!1s0x3bd2aff5c64e86a1:0x568fb07cb691fb51!8m2!3d19.3633874!4d79.287888!16s%2Fg%2F11v05yrg_y!19sChIJoYZOxvWv0jsRUfuRtnywj1Y?authuser=0&hl=en&rclk=1,"19.3633874,79.287888"
