name,main_category,address,address_ward,address_street,address_city,address_postal_code,address_state,address_country_code,link,coordinates
Jamia Masjid Hangal,Mosque,"PPP2+6M4 Jamia Masjid Hangal, Hanagal, Karnataka 577535",,PPP2+6M4,Hanagal,577535,Karnataka,IN,https://www.google.com/maps/place/Jamia+Masjid+Hangal/data=!4m7!3m6!1s0x3bb74c27ab07544d:0xacedbd025fa0fd22!8m2!3d14.7355093!4d76.7016999!16s%2Fg%2F11fxc1m6mk!19sChIJTVQHqydMtzsRIv2gXwK97aw?authuser=0&hl=en&rclk=1,"14.735509299999999,76.7016999"
Masjid Sha Maqbooliya,Mosque,"Q489+RXR Masjid Sha Maqbooliya, Hangal, Karnataka 581104",,Q489+RXR,Hangal,581104,Karnataka,IN,https://www.google.com/maps/place/Masjid+Sha+Maqbooliya/data=!4m7!3m6!1s0x3bb94fa55de27a41:0xd18f6300a585f893!8m2!3d14.7671245!4d75.1198946!16s%2Fg%2F11gdtf2r1g!19sChIJQXriXaVPuTsRk_iFpQBjj9E?authuser=0&hl=en&rclk=1,"14.7671245,75.1198946"
Nouman Masjid,Mosque,"Q49F+HF4 Nouman Masjid, Hangal, Karnataka 581104",,Q49F+HF4,Hangal,581104,Karnataka,IN,https://www.google.com/maps/place/Nouman+Masjid/data=!4m7!3m6!1s0x3bb94fa45f77e9f1:0x2848a481dcb3c276!8m2!3d14.768882!4d75.123703!16s%2Fg%2F11dxjjj0f7!19sChIJ8el3X6RPuTsRdsKz3IGkSCg?authuser=0&hl=en&rclk=1,"14.768882,75.12370299999999"
Al Hidaya Shafi Jumma Masjid,Mosque,"Q44C+2G3 Al Hidaya Shafi Jumma Masjid, Hangal, Karnataka 581104",,Q44C+2G3,Hangal,581104,Karnataka,IN,https://www.google.com/maps/place/Al+Hidaya+Shafi+Jumma+Masjid/data=!4m7!3m6!1s0x3bb94fb7889b83d5:0x6e1bc54d2b480a83!8m2!3d14.7550212!4d75.1213003!16s%2Fg%2F11fcvbhmy9!19sChIJ1YObiLdPuTsRgwpIK03FG24?authuser=0&hl=en&rclk=1,"14.7550212,75.1213003"
Muzaffariya Masjid,Mosque,"Q46F+C97 Muzaffariya Masjid, Ward Number 20, Hangal, Karnataka 581104",Ward Number 20,Q46F+C97,Hangal,581104,Karnataka,IN,https://www.google.com/maps/place/Muzaffariya+Masjid/data=!4m7!3m6!1s0x3bb94fbbc525c935:0xb88f6564a0dda80a!8m2!3d14.7610278!4d75.1234091!16s%2Fg%2F11by_f4gn5!19sChIJNcklxbtPuTsRCqjdoGRlj7g?authuser=0&hl=en&rclk=1,"14.761027799999999,75.1234091"
Masjid E Ziya Ul Mustafa,Mosque,"Q4HG+79M Masjid E Ziya Ul Mustafa, Hangal, Karnataka 581104",,Q4HG+79M,Hangal,581104,Karnataka,IN,https://www.google.com/maps/place/Masjid+E+Ziya+Ul+Mustafa/data=!4m7!3m6!1s0x3bb94f0a052ece85:0x1e76cc3875aa3385!8m2!3d14.7782211!4d75.1259205!16s%2Fg%2F11cr_t2f1h!19sChIJhc4uBQpPuTsRhTOqdTjMdh4?authuser=0&hl=en&rclk=1,"14.7782211,75.12592049999999"
Shahi Mitti Masjid,Mosque,"Q47H+G28 Shahi Mitti Masjid, Hangal, Karnataka 581104",,Q47H+G28,Hangal,581104,Karnataka,IN,https://www.google.com/maps/place/Shahi+Mitti+Masjid/data=!4m7!3m6!1s0x3bb94ff5d952ea23:0x56cb52cb413b20f6!8m2!3d14.7637766!4d75.1275823!16s%2Fg%2F11r_t1f_ny!19sChIJI-pS2fVPuTsR9iA7QctSy1Y?authuser=0&hl=en&rclk=1,"14.7637766,75.1275823"
Sahiboma Masjid,Mosque,"Q4JF+MMP Sahiboma Masjid, Hangal, Karnataka 581104",,Q4JF+MMP,Hangal,581104,Karnataka,IN,https://www.google.com/maps/place/Sahiboma+Masjid/data=!4m7!3m6!1s0x3bb94f0941faaefd:0x58b9a975b03be592!8m2!3d14.7817049!4d75.1242102!16s%2Fg%2F11fy_3z_zb!19sChIJ_a76QQlPuTsRkuU7sHWpuVg?authuser=0&hl=en&rclk=1,"14.7817049,75.1242102"
Darega Gyarvi Wale,Mosque,"Q49C+27W Darega Gyarvi Wale, Hangal, Karnataka 581104",,Q49C+27W,Hangal,581104,Karnataka,IN,https://www.google.com/maps/place/Darega+Gyarvi+Wale/data=!4m7!3m6!1s0x3bb94fa56baacce1:0x9f769b9ac4eba6ef!8m2!3d14.7676075!4d75.1206939!16s%2Fg%2F11f33ppp1s!19sChIJ4cyqa6VPuTsR76brxJqbdp8?authuser=0&hl=en&rclk=1,"14.767607499999999,75.12069389999999"
Markazi Jamia masjid Hangal pahoo,Mosque,"Markazi Jamia masjid Hangal pahoo, 192125",,,,192125,,IN,https://www.google.com/maps/place/Markazi+Jamia+masjid+Hangal+pahoo/data=!4m7!3m6!1s0x38e2139f9677515d:0xaa788673142d388f!8m2!3d33.8268375!4d75.3288644!16s%2Fg%2F11qfy7smdw!19sChIJXVF3lp8T4jgRjzgtFHOGeKo?authuser=0&hl=en&rclk=1,"33.826837499999996,75.3288644"
Masjid e Noor,Mosque,"Q47J+39G Masjid e Noor, Hangal, Karnataka 581104",,Q47J+39G,Hangal,581104,Karnataka,IN,https://www.google.com/maps/place/Masjid+e+Noor/data=!4m7!3m6!1s0x3bb94f6bfe3feee3:0x791a645fa1fb06f8!8m2!3d14.7626912!4d75.1309386!16s%2Fg%2F11r_mkz939!19sChIJ4-4__mtPuTsR-Ab7oV9kGnk?authuser=0&hl=en&rclk=1,"14.762691199999999,75.1309386"
Jamia Masjid Ahle Sunnat Wal Jamath,Mosque,"Q48F+6X2 Jamia Masjid Ahle Sunnat Wal Jamath, Hangal, Karnataka 581104",,Q48F+6X2,Hangal,581104,Karnataka,IN,https://www.google.com/maps/place/Jamia+Masjid+Ahle+Sunnat+Wal+Jamath/data=!4m7!3m6!1s0x3bb94f3c18c1f4b3:0x6c7e4a4969084c80!8m2!3d14.7655223!4d75.1248794!16s%2Fg%2F11gxg_4xg4!19sChIJs_TBGDxPuTsRgEwIaUlKfmw?authuser=0&hl=en&rclk=1,"14.765522299999999,75.1248794"
MASJID E MALANG EHASSANAIN,Mosque,"Q4HG+M7C MASJID E MALANG EHASSANAIN, Hangal, Karnataka 581104",,Q4HG+M7C,Hangal,581104,Karnataka,IN,https://www.google.com/maps/place/MASJID+E+MALANG+EHASSANAIN/data=!4m7!3m6!1s0x3bb94f0a2169947f:0x3096a11cdc056510!8m2!3d14.7791963!4d75.125647!16s%2Fg%2F11c37g5x71!19sChIJf5RpIQpPuTsREGUF3ByhljA?authuser=0&hl=en&rclk=1,"14.779196299999999,75.125647"
RAZA-E-MAQBOOL MASJID,Mosque,"Q48C+GFX RAZA-E-MAQBOOL MASJID, Hangal, Karnataka 581104",,Q48C+GFX,Hangal,581104,Karnataka,IN,https://www.google.com/maps/place/RAZA-E-MAQBOOL+MASJID/data=!4m7!3m6!1s0x3bb94fa536e7ac93:0x5be737914d292d67!8m2!3d14.7663588!4d75.1212336!16s%2Fg%2F11g01v6chc!19sChIJk6znNqVPuTsRZy0pTZE351s?authuser=0&hl=en&rclk=1,"14.766358799999999,75.1212336"
"Masjide Quba ,Hangal Sharif",Mosque,"Q49F+RRG Masjide Quba ,Hangal Sharif, Hangal, Karnataka 581104",,Q49F+RRG,Hangal,581104,Karnataka,IN,"https://www.google.com/maps/place/Masjide+Quba+,Hangal+Sharif/data=!4m7!3m6!1s0x3bb94f24020e1975:0x9d34c740ba88a56b!8m2!3d14.7695596!4d75.1245657!16s%2Fg%2F11rghlm1hs!19sChIJdRkOAiRPuTsRa6WIukDHNJ0?authuser=0&hl=en&rclk=1","14.7695596,75.12456569999999"
Jummah masjidh,Mosque,"V4J2+CHF Jummah masjidh, Hangal, Karnataka 581203",,V4J2+CHF,Hangal,581203,Karnataka,IN,https://www.google.com/maps/place/Jummah+masjidh/data=!4m7!3m6!1s0x3bb949e7701fa857:0x5f5eda54f560cb6!8m2!3d14.881059!4d75.1014223!16s%2Fg%2F11tmhqqrfg!19sChIJV6gfcOdJuTsRtgxWT6Xt9QU?authuser=0&hl=en&rclk=1,"14.881058999999999,75.1014223"
jamia masjid hangalbuch,Mosque,"PXVX+27P jamia masjid hangalbuch, Hangalbuch, 192232",,PXVX+27P,Hangalbuch,192232,,IN,https://www.google.com/maps/place/jamia+masjid+hangalbuch/data=!4m7!3m6!1s0x38e203cac9929a77:0xeecdaf9d12e0cab2!8m2!3d33.7425846!4d74.9982025!16s%2Fg%2F11q58g30vh!19sChIJd5qSycoD4jgRssrgEp2vze4?authuser=0&hl=en&rclk=1,"33.7425846,74.99820249999999"
Eidgah Maidaan,Mosque,"Q4GF+HRM Eidgah Maidaan, Hangal, Karnataka 581104",,Q4GF+HRM,Hangal,581104,Karnataka,IN,https://www.google.com/maps/place/Eidgah+Maidaan/data=!4m7!3m6!1s0x3bb94f3bcdb5d075:0xcc8cca70dd60003b!8m2!3d14.7764516!4d75.1245516!16s%2Fg%2F11fhl1dryz!19sChIJddC1zTtPuTsROwBg3XDKjMw?authuser=0&hl=en&rclk=1,"14.7764516,75.12455159999999"
Hangal Karnatak,Mosque,"Hangal Karnatak, Naveed Farooqiya Masjid, Hangal, Karnataka 581104",,Naveed Farooqiya Masjid,Hangal,,Karnataka,IN,https://www.google.com/maps/place/Hangal+Karnatak/data=!4m7!3m6!1s0x3bb94f436a6da9a5:0x4d8ed4bd50bff55!8m2!3d14.771781!4d75.1253492!16s%2Fg%2F11fb0t57r7!19sChIJpaltakNPuTsRVf8L1Uvt2AQ?authuser=0&hl=en&rclk=1,"14.771780999999999,75.1253492"
Masjid E Aqsa,Mosque,"Q47H+WGR Masjid E Aqsa, SH1, Hangal, Karnataka 581104",,"Q47H+WGR, SH1",Hangal,581104,Karnataka,IN,https://www.google.com/maps/place/Masjid+E+Aqsa/data=!4m7!3m6!1s0x3bb94fe0ce7acaf1:0x99c5b4c00dd5cc77!8m2!3d14.7648719!4d75.1287657!16s%2Fg%2F11fk1jt0x2!19sChIJ8cp6zuBPuTsRd8zVDcC0xZk?authuser=0&hl=en&rclk=1,"14.7648719,75.1287657"
