name,main_category,address,address_ward,address_street,address_city,address_postal_code,address_state,address_country_code,link,coordinates
Jami Masjid Sarkhej,Mosque,"XGV3+8V9 Jami Masjid Sarkhej, Post Jeevraj Park, Makarba, Ahmedabad, Gujarat 380051",Makarba,"XGV3+8V9, Post Jeevraj Park",Ahmedabad,380051,Gujarat,IN,https://www.google.com/maps/place/Jami+Masjid+Sarkhej/data=!4m7!3m6!1s0x395e9ac445c0c531:0xa9dca1278079b30c!8m2!3d22.9932817!4d72.5047462!16s%2Fg%2F12hrks9bn!19sChIJMcXARcSaXjkRDLN5gCeh3Kk?authuser=0&hl=en&rclk=1,"22.9932817,72.5047462"
Kanzul Iman Masjid Dawateislami,Mosque,"Kanzul Iman Masjid Dawateislami, Survey No: 91, TP-85. B/H Manpasand Parlour, Opp:Amber Tower, Sarkhej Road, Jawaharlal Nehru Rd, TP 85, Ahmedabad, Gujarat 380055",TP 85,"Survey No: 91, TP-85. B/H Manpasand Parlour, Opp:Amber Tower, Sarkhej Road, Jawaharlal Nehru Rd","Ahmedabad, Sarkhej-Okaf",380055,Gujarat,IN,https://www.google.com/maps/place/Kanzul+Iman+Masjid+Dawateislami/data=!4m7!3m6!1s0x395e9ac83a3f16eb:0xa1d471cf1914be53!8m2!3d22.9875958!4d72.5107386!16s%2Fg%2F1pp2vf48_!19sChIJ6xY_OsiaXjkRU74UGc9x1KE?authuser=0&hl=en&rclk=1,"22.987595799999998,72.5107386"
Masjid-e-Fatima,Mosque,"MHR7+C9C Masjid-e-Fatima, Vejalpur, Gujarat 389340",,MHR7+C9C,Vejalpur,,Gujarat,IN,https://www.google.com/maps/place/Masjid-e-Fatima/data=!4m7!3m6!1s0x396084a130c3ff2b:0x9bd94c21532a640f!8m2!3d22.6910576!4d73.563392!16s%2Fg%2F11hbbr7jkx!19sChIJK__DMKGEYDkRD2QqUyFM2Zs?authuser=0&hl=en&rclk=1,"22.6910576,73.563392"
Sidi Saiyyed Mosque,Mosque,"Sidi Saiyyed Mosque, Bhadra Rd, Opposite Electricity House, Old City, Gheekanta, Lal Darwaja, Ahmedabad, Gujarat 380001","Old City, Gheekanta, Lal Darwaja","Bhadra Rd, Opposite Electricity House",Ahmedabad,380001,Gujarat,IN,https://www.google.com/maps/place/Sidi+Saiyyed+Mosque/data=!4m7!3m6!1s0x395e844fc79401b5:0x2d62f388bec1fa89!8m2!3d23.0270812!4d72.5810352!16zL20vMGQwd3Ns!19sChIJtQGUx0-EXjkRifrBvojzYi0?authuser=0&hl=en&rclk=1,"23.027081199999998,72.5810352"
Rani Sipri Ki Masjid,Mosque,"Rani Sipri Ki Masjid, Astodia Gate Cir, near Astodia Darwaja, Old City, Raipur, Khadia, Ahmedabad, Gujarat 380001","Old City, Raipur, Khadia","Astodia Gate Cir, near Astodia Darwaja",Ahmedabad,380001,Gujarat,IN,https://www.google.com/maps/place/Rani+Sipri+Ki+Masjid/data=!4m7!3m6!1s0x395e85b54182aae5:0xca54d6ecef12ac1!8m2!3d23.0173355!4d72.59025!16s%2Fm%2F0hzn0xz!19sChIJ5aqCQbWFXjkRwSrxzm5NpQw?authuser=0&hl=en&rclk=1,"23.017335499999998,72.59025"
Shahi Jam-e-Masjid Bhadra,Mosque,"Shahi Jam-e-Masjid Bhadra, 2220, National Highway 8A, Lal Darwaja, Ahmedabad, Gujarat 380001","Old City, Lal Darwaja","2220, National Highway 8A, Lal Darwaja",Ahmedabad,380001,Gujarat,IN,https://www.google.com/maps/place/Shahi+Jam-e-Masjid+Bhadra/data=!4m7!3m6!1s0x395e8452046d29cb:0xa5b8924b54c806dc!8m2!3d23.0227183!4d72.5789408!16s%2Fm%2F012dwtpy!19sChIJyyltBFKEXjkR3AbIVEuSuKU?authuser=0&hl=en&rclk=1,"23.022718299999998,72.5789408"
Al-Fazal Masjid lfDl msjd,Mosque,"XGVH+R4M Al-Fazal Masjid lfDl msjd, Sarkhej Rd, Juhapura, Ahmedabad, Gujarat 380055",Juhapura,"XGVH+R4M, Sarkhej Rd",Ahmedabad,380055,Gujarat,IN,https://www.google.com/maps/place/Al-Fazal+Masjid+%D8%A7%D9%84%D9%81%D8%B6%D9%84+%D9%85%D8%B3%D8%AC%D8%AF%E2%80%AD/data=!4m7!3m6!1s0x395e853149966a43:0xc850ff2f0d1de2a8!8m2!3d22.9945975!4d72.527808!16s%2Fg%2F1td0dx96!19sChIJQ2qWSTGFXjkRqOIdDS__UMg?authuser=0&hl=en&rclk=1,"22.994597499999998,72.527808"
Noori Masjid,Mosque,"XGXH+RXH Noori Masjid, Juhapura Market Road, Saleem Nagar, Juhapura, Ahmedabad, Gujarat 380051","Saleem Nagar, Juhapura","XGXH+RXH, Juhapura Market Road",Ahmedabad,380051,Gujarat,IN,https://www.google.com/maps/place/Noori+Masjid/data=!4m7!3m6!1s0x395e85303203bba5:0xa60cc520a8f6e221!8m2!3d22.9995696!4d72.5299819!16s%2Fg%2F12hkklq7l!19sChIJpbsDMjCFXjkRIeL2qCDFDKY?authuser=0&hl=en&rclk=1,"22.999569599999997,72.5299819"
Hajra Masjid hjrh msjd,Mosque,"XGR7+3V4 Hajra Masjid hjrh msjd, Al Asbab Society, Makarba, Ahmedabad, Gujarat 380051","Al Asbab Society, Makarba",XGR7+3V4,Ahmedabad,380051,Gujarat,IN,https://www.google.com/maps/place/Hajra+Masjid+%DB%81%D8%A7%D8%AC%D8%B1%DB%81+%D9%85%D8%B3%D8%AC%D8%AF%E2%80%AD/data=!4m7!3m6!1s0x395e9acbd45bce3b:0x485d359da799e2bf!8m2!3d22.9901492!4d72.5147073!16s%2Fg%2F11clwlpwch!19sChIJO85b1MuaXjkRv-KZp501XUg?authuser=0&hl=en&rclk=1,"22.990149199999998,72.5147073"
Mastan Masjid,Mosque,"Mastan Masjid, Fatehwadi, Arshad Park, Juhapura, Ahmedabad, Gujarat 380055","Fatehwadi, Arshad Park, Juhapura",,Ahmedabad,380055,Gujarat,IN,https://www.google.com/maps/place/Mastan+Masjid/data=!4m7!3m6!1s0x395e9ab419252f1d:0x761e69333002efe3!8m2!3d22.9828312!4d72.5152814!16s%2Fg%2F11c58sjtfr!19sChIJHS8lGbSaXjkR4-8CMDNpHnY?authuser=0&hl=en&rclk=1,"22.9828312,72.51528139999999"
Ayesha Masjid,Mosque,"Ayesha Masjid, Ahmed baug, Near Mansuri Hall, Vejalpur, Juhapura, Ahmedabad, Gujarat 380051",Juhapura,"Ahmed baug, Near Mansuri Hall, Vejalpur",Ahmedabad,380051,Gujarat,IN,https://www.google.com/maps/place/Ayesha+Masjid/data=!4m7!3m6!1s0x395e853279de53a7:0xd461d1c5433b870a!8m2!3d22.9992642!4d72.5241059!16s%2Fg%2F11b6jk039b!19sChIJp1PeeTKFXjkRCoc7Q8XRYdQ?authuser=0&hl=en&rclk=1,"22.9992642,72.5241059"
Akbari Masjid,Mosque,"XGWC+33V Akbari Masjid, Shrinand Nagar, Juhapura, Ahmedabad, Gujarat 380055","Shrinand Nagar, Juhapura",XGWC+33V,Ahmedabad,380055,Gujarat,IN,https://www.google.com/maps/place/Akbari+Masjid/data=!4m7!3m6!1s0x395e9acccc17fb27:0x2051ac126f19519!8m2!3d22.9952369!4d72.5201619!16s%2Fg%2F1v75q98b!19sChIJJ_sXzMyaXjkRGZXxJsEaBQI?authuser=0&hl=en&rclk=1,"22.9952369,72.52016189999999"
Gulistan Masjid,Mosque,"XGWF+JJ9 Gulistan Masjid, XGWF+JJ9, Gulistan Masjid Nr Gaiban shah baba Dargah Behind Royal Akbar Tower Sarkhej, Road, Juhapura, Ahmedabad, Gujarat 380055","Garib Nawaz Society, Hazrat Khawja Society, Juhapura","XGWF+JJ9, XGWF+JJ9, Gulistan Masjid Nr Gaiban shah baba Dargah Behind Royal Akbar Tower Sarkhej, Road",Ahmedabad,380055,Gujarat,IN,https://www.google.com/maps/place/Gulistan+Masjid/data=!4m7!3m6!1s0x395e8533b04503d5:0x4789982de2dc2bcc!8m2!3d22.9965432!4d72.5241578!16s%2Fg%2F11bttfjzvb!19sChIJ1QNFsDOFXjkRzCvc4i2YiUc?authuser=0&hl=en&rclk=1,"22.996543199999998,72.5241578"
Hoz Wali Masjid,Mosque,"2J86+8PP Hoz Wali Masjid, Rajpur Hirpur, Gomtipur, Ahmedabad, Gujarat 380021","Rajpur Hirpur, Gomtipur",2J86+8PP,Ahmedabad,380021,Gujarat,IN,https://www.google.com/maps/place/Hoz+Wali+Masjid/data=!4m7!3m6!1s0x395e85d42e3b8f4d:0x86df340c751b8164!8m2!3d23.0158355!4d72.6118309!16s%2Fg%2F1tdsh55n!19sChIJTY87LtSFXjkRZIEbdQw034Y?authuser=0&hl=en&rclk=1,"23.015835499999998,72.6118309"
Madni Masjid,Mosque,"Madni Masjid, 4/2, Quresh Nagar Society, Juhapura, Ahmedabad, Gujarat 380055","Quresh Nagar Society, Juhapura","4/2, Quresh Nagar Society, Juhapura",Ahmedabad,380055,Gujarat,IN,https://www.google.com/maps/place/Madni+Masjid/data=!4m7!3m6!1s0x395e9acd165c8383:0x8bd73ca2902eb595!8m2!3d22.9970069!4d72.5188725!16s%2Fg%2F11c2k9_jc2!19sChIJg4NcFs2aXjkRlbUukKI814s?authuser=0&hl=en&rclk=1,"22.9970069,72.5188725"
Al-Amin Masjid al amiin msjid,Mosque,"XGV9+H3P Al-Amin Masjid al amiin msjid, Baug e Nishat Society, Vejalpur Rd, Juhapura, Ahmedabad, Gujarat 380055","Quresh Nagar Society, Juhapura","XGV9+H3P, Baug e Nishat Society, Vejalpur Rd",Ahmedabad,380055,Gujarat,IN,https://www.google.com/maps/place/Al-Amin+Masjid+%E0%AA%85%E0%AA%B2+%E0%AA%85%E0%AA%AE%E0%AB%80%E0%AA%A8+%E0%AA%AE%E0%AA%B8%E0%AB%8D%E0%AA%9C%E0%AA%BF%E0%AA%A6/data=!4m7!3m6!1s0x395e9acc8855a6bb:0x68687e6b7264a8b!8m2!3d22.9939582!4d72.5177023!16s%2Fg%2F11bzy673kr!19sChIJu6ZViMyaXjkRi0omt-aHhgY?authuser=0&hl=en&rclk=1,"22.993958199999998,72.5177023"
Makka Masjid,Mosque,"Makka Masjid, 96, Royal Park Society, Makka Nagar Society, Royal Nawab Society, Vejalpur, Ahmedabad, Gujarat 380055","Makka Nagar Society, Royal Nawab Society, Vejalpur","96, Royal Park Society",Ahmedabad,380055,Gujarat,IN,https://www.google.com/maps/place/Makka+Masjid/data=!4m7!3m6!1s0x395e8532d00122a5:0x3309493ef3167414!8m2!3d22.9972736!4d72.521343!16s%2Fg%2F11b6hl55pl!19sChIJpSIB0DKFXjkRFHQW8z5JCTM?authuser=0&hl=en&rclk=1,"22.9972736,72.521343"
Bibi Ayesha Masjid(Sarni Masjid),Mosque,"Bibi Ayesha Masjid(Sarni Masjid), 82/81, Sanklit Nagar, Juhapura, Vejalpur, Ahmedabad, Gujarat 380055","Sanklit Nagar, Juhapura","82/81, Sanklit Nagar, Juhapura, Vejalpur",Ahmedabad,380055,Gujarat,IN,https://www.google.com/maps/place/Bibi+Ayesha+Masjid%28Sarni+Masjid%29/data=!4m7!3m6!1s0x395e853ace36a6a5:0x9743ad7e3f267138!8m2!3d23.0002867!4d72.5342996!16s%2Fg%2F11bw5zljb3!19sChIJpaY2zjqFXjkROHEmP36tQ5c?authuser=0&hl=en&rclk=1,"23.0002867,72.5342996"
Khoja Shia Isna Ashari Masjid (Juhapura),Mosque,"Khoja Shia Isna Ashari Masjid (Juhapura), 13/14, Green Park Society, Juhapura, Ahmedabad, Gujarat 380055","Royal Nawab Society, Juhapura","13/14, Green Park Society",Ahmedabad,380055,Gujarat,IN,https://www.google.com/maps/place/Khoja+Shia+Isna+Ashari+Masjid+%28Juhapura%29/data=!4m7!3m6!1s0x395e85367f3a4fef:0x89b29d7a30d02479!8m2!3d22.990999!4d72.5265921!16s%2Fg%2F11c30sb1g2!19sChIJ7086fzaFXjkReSTQMHqdsok?authuser=0&hl=en&rclk=1,"22.990999,72.5265921"
AL-Farukh Masjid Circle,Mosque,"XGXJ+R9J AL-Farukh Masjid Circle, Shahid Solanki Chetan Road, Mohammedi Park, Sanklit Nagar, Juhapura, Ahmedabad, Gujarat 380051","Mohammedi Park, Sanklit Nagar, Juhapura","XGXJ+R9J, Shahid Solanki Chetan Road",Ahmedabad,380051,Gujarat,IN,https://www.google.com/maps/place/AL-Farukh+Masjid+Circle/data=!4m7!3m6!1s0x395e8530229ee5bd:0xf33b26f7240eb0f2!8m2!3d22.9995839!4d72.5308945!16s%2Fg%2F1ptvxsrfm!19sChIJveWeIjCFXjkR8rAOJPcmO_M?authuser=0&hl=en&rclk=1,"22.999583899999998,72.5308945"
Masjid e Almuqaam. msjid e al mukaam,Mosque,"Masjid e Almuqaam. msjid e al mukaam, Basement of complex, Gupta Nagar, Vishala, Ahmedabad, Gujarat 380055","Gupta Nagar, Vishala",Basement of complex,Ahmedabad,380055,Gujarat,IN,https://www.google.com/maps/place/Masjid+e+Almuqaam.+%E0%AA%AE%E0%AA%B8%E0%AB%8D%E0%AA%9C%E0%AA%BF%E0%AA%A6+%E0%AA%8F+%E0%AA%85%E0%AA%B2+%E0%AA%AE%E0%AB%81%E0%AA%95%E0%AA%BE%E0%AA%AE/data=!4m7!3m6!1s0x395e853a110f54cf:0xc85c2ef5947515e2!8m2!3d22.9958346!4d72.5332473!16s%2Fg%2F11c1lx_dsq!19sChIJz1QPETqFXjkR4hV1lPUuXMg?authuser=0&hl=en&rclk=1,"22.9958346,72.5332473"
Al-Madina Masjid,Mosque,"XGXG+7WJ Al-Madina Masjid, Saleem Nagar, Juhapura, Ahmedabad, Gujarat 380055","Saleem Nagar, Juhapura",XGXG+7WJ,Ahmedabad,380055,Gujarat,IN,https://www.google.com/maps/place/Al-Madina+Masjid/data=!4m7!3m6!1s0x395e85319238f7b1:0x3f99917f937d1a00!8m2!3d22.9982202!4d72.5272659!16s%2Fg%2F124swr4zn!19sChIJsfc4kjGFXjkRABp9k3-RmT8?authuser=0&hl=en&rclk=1,"22.9982202,72.5272659"
Nasheman Society Masjid. Al ummar masjid,Mosque,"XGQH+J4C Nasheman Society Masjid. Al ummar masjid, Aamir Park Society, 1, Ice Factory Rd, Royal Nawab Society, Juhapura, Ahmedabad, Gujarat 380055","Royal Nawab Society, Juhapura","XGQH+J4C Aamir Park Society, 1, Ice Factory Rd",Ahmedabad,380055,Gujarat,IN,https://www.google.com/maps/place/Nasheman+Society+Masjid.+Al+ummar+masjid/data=!4m7!3m6!1s0x395e8549d1bde3f9:0x4839fc82f8f80b45!8m2!3d22.9880667!4d72.5291663!16s%2Fg%2F1tfh3165!19sChIJ-eO90UmFXjkRRQv4-IL8OUg?authuser=0&hl=en&rclk=1,"22.988066699999997,72.5291663"
Namrah Masjid,Mosque,"Namrah Masjid, 9, Vejalpur Rd, Vibhavari Society, Juhapura, Ahmedabad, Gujarat 380051","Vibhavari Society, Juhapura","9, Vejalpur Rd",Ahmedabad,380051,Gujarat,IN,https://www.google.com/maps/place/Namrah+Masjid/data=!4m7!3m6!1s0x395e852d1255a7bf:0xeafc6a89a9dfed5a!8m2!3d23.0006154!4d72.522622!16s%2Fg%2F11g6jrpzq6!19sChIJv6dVEi2FXjkRWu3fqYlq_Oo?authuser=0&hl=en&rclk=1,"23.000615399999997,72.522622"
Jumma Masjid jm`h msjd,Mosque,"Jumma Masjid jm`h msjd, 49, Anusha Park Society, Juhapura, Ahmedabad, Gujarat 380051","Anusha Park Society, Juhapura",49,Ahmedabad,380051,Gujarat,IN,https://www.google.com/maps/place/Jumma+Masjid+%D8%AC%D9%85%D8%B9%DB%81+%D9%85%D8%B3%D8%AC%D8%AF%E2%80%AD/data=!4m7!3m6!1s0x395e852d357e30ef:0xaece43931d701857!8m2!3d23.000607!4d72.5206537!16s%2Fg%2F11g728r085!19sChIJ7zB-NS2FXjkRVxhwHZNDzq4?authuser=0&hl=en&rclk=1,"23.000607,72.5206537"
MASJID E PIR KHAMOSH,Mosque,"MASJID E PIR KHAMOSH, Sarkhej Dhal , Makarba Rd,, Sarkhej, Ahmedabad, Gujarat 380051",Makarba,"Sarkhej Dhal , Makarba Rd,, Sarkhej",Ahmedabad,380051,Gujarat,IN,https://www.google.com/maps/place/MASJID+E+PIR+KHAMOSH/data=!4m7!3m6!1s0x395e9ac6dda8ba17:0x1a8ee290dc230d56!8m2!3d22.989051!4d72.504275!16s%2Fg%2F1hm659jp3!19sChIJF7qo3caaXjkRVg0j3JDijho?authuser=0&hl=en&rclk=1,"22.989051,72.50427499999999"
Masjid-E-Noor msjd  nwr,Mosque,"XGQC+J79 Masjid-E-Noor msjd  nwr, Kajal Park Society, Khwaja Street, Jawaharlal Nehru Rd, Vejalpur, Ahmedabad, Gujarat 380051","Fatehwadi, Aehsan Park, Vejalpur","XGQC+J79, Kajal Park Society, Khwaja Street, Jawaharlal Nehru Rd",Ahmedabad,380051,Gujarat,IN,https://www.google.com/maps/place/Masjid-E-Noor+%D9%85%D8%B3%D8%AC%D8%AF+%D8%A7+%D9%86%D9%88%D8%B1%E2%80%AD/data=!4m7!3m6!1s0x395e85354a6c676b:0x6caf995a0970080e!8m2!3d22.9890286!4d72.5207224!16s%2Fg%2F1tkslrtz!19sChIJa2dsSjWFXjkRDghwCVqZr2w?authuser=0&hl=en&rclk=1,"22.989028599999997,72.5207224"
Muhammadi Masjid,Mosque,"XGVC+CJG Muhammadi Masjid, Minesh Nagar Society, Quresh Nagar Society, Juhapura, Ahmedabad, Gujarat 380051","Minesh Nagar Society, Quresh Nagar Society, Juhapura",XGVC+CJG,Ahmedabad,380051,Gujarat,IN,https://www.google.com/maps/place/Muhammadi+Masjid/data=!4m7!3m6!1s0x395e85335f47b03f:0xaa9625baf253c07f!8m2!3d22.9935657!4d72.5215703!16s%2Fg%2F1tsyn57z!19sChIJP7BHXzOFXjkRf8BT8rollqo?authuser=0&hl=en&rclk=1,"22.993565699999998,72.5215703"
Masjid E Huda,Mosque,"XGP7+GX8 Masjid E Huda, Gulzar Park, Arshad Park, Juhapura, Ahmedabad, Gujarat 380055","Gulzar Park, Arshad Park, Juhapura",XGP7+GX8,Ahmedabad,380055,Gujarat,IN,https://www.google.com/maps/place/Masjid+E+Huda/data=!4m7!3m6!1s0x395e9ab5fb55cb73:0xd5dabac38833d38!8m2!3d22.9862986!4d72.5149477!16s%2Fg%2F12ltzdjp_!19sChIJc8tV-7WaXjkROD2DOKyrXQ0?authuser=0&hl=en&rclk=1,"22.986298599999998,72.5149477"
nwr msjd Noor Masjid nuur msjid,Mosque,"XGQJ+VMP nwr msjd Noor Masjid nuur msjid, Ice Factory Rd, Unit Hills Society, Rehnuma Society, Royal Nawab Society, Juhapura, Ahmedabad, Gujarat 380055","Unit Hills Society, Rehnuma Society, Royal Nawab Society, Juhapura","XGQJ+VMP, Ice Factory Rd",Ahmedabad,380055,Gujarat,IN,https://www.google.com/maps/place/%D9%86%D9%88%D8%B1+%D9%85%D8%B3%D8%AC%D8%AF+Noor+Masjid+%E0%AA%A8%E0%AB%82%E0%AA%B0+%E0%AA%AE%E0%AA%B8%E0%AB%8D%E0%AA%9C%E0%AA%BF%E0%AA%A6%E2%80%AD/data=!4m7!3m6!1s0x395e85381917f9d9:0x8f2f3f3ff5d7fbc8!8m2!3d22.9897176!4d72.5316917!16s%2Fg%2F11b7c7xrk1!19sChIJ2fkXGTiFXjkRyPvX9T8_L48?authuser=0&hl=en&rclk=1,"22.9897176,72.5316917"
Al-Farooq Masjid lfrwq msjd,Mosque,"Al-Farooq Masjid lfrwq msjd, A-1, Ice Factory Rd, Unit Hills Society, Rehnuma Society, Royal Nawab Society, Juhapura, Ahmedabad, Gujarat 380055","Unit Hills Society, Rehnuma Society, Royal Nawab Society, Juhapura","A-1, Ice Factory Rd",Ahmedabad,380055,Gujarat,IN,https://www.google.com/maps/place/Al-Farooq+Masjid+%D8%A7%D9%84%D9%81%D8%A7%D8%B1%D9%88%D9%82+%D9%85%D8%B3%D8%AC%D8%AF%E2%80%AD/data=!4m7!3m6!1s0x395e853859474e4d:0x9f7cc1b9f077287e!8m2!3d22.9911339!4d72.5349712!16s%2Fg%2F1tfzq9ng!19sChIJTU5HWTiFXjkRfih38LnBfJ8?authuser=0&hl=en&rclk=1,"22.991133899999998,72.5349712"
Usmani Masjid,Mosque,"Usmani Masjid, 7, Saleem Nagar, Juhapura, Ahmedabad, Gujarat 380051","Saleem Nagar, Juhapura",7,Ahmedabad,380051,Gujarat,IN,https://www.google.com/maps/place/Usmani+Masjid/data=!4m7!3m6!1s0x395e852e1acd9a37:0xfd08bada1ad78678!8m2!3d23.0004882!4d72.5271517!16s%2Fg%2F11cjj4jlnj!19sChIJN5rNGi6FXjkReIbXGtq6CP0?authuser=0&hl=en&rclk=1,"23.0004882,72.52715169999999"
Masjid-E-Waris,Mosque,"Masjid-E-Waris, 18, Jivraj Vejalpur Rd, Vibhavari Society, Juhapura, Ahmedabad, Gujarat 380051","Vibhavari Society, Juhapura","18, Jivraj Vejalpur Rd",Ahmedabad,380051,Gujarat,IN,https://www.google.com/maps/place/Masjid-E-Waris/data=!4m7!3m6!1s0x395e852ddab585af:0x7525ccdc9dac04fd!8m2!3d23.0019119!4d72.525576!16s%2Fg%2F11clwp8jgg!19sChIJr4W12i2FXjkR_QSsndzMJXU?authuser=0&hl=en&rclk=1,"23.0019119,72.525576"
Mansuri Masjid mnsuurii msjid,Mosque,"XGXM+W43 Mansuri Masjid mnsuurii msjid, 132 Feet Ring Rd, Sanklit Nagar, Juhapura, Ahmedabad, Gujarat 380051","Sanklit Nagar, Juhapura","XGXM+W43, 132 Feet Ring Rd",Ahmedabad,380051,Gujarat,IN,https://www.google.com/maps/place/Mansuri+Masjid+%E0%AA%AE%E0%AA%A8%E0%AB%8D%E0%AA%B8%E0%AB%82%E0%AA%B0%E0%AB%80+%E0%AA%AE%E0%AA%B8%E0%AB%8D%E0%AA%9C%E0%AA%BF%E0%AA%A6/data=!4m7!3m6!1s0x395e853aa6e10ac5:0x8a83058900d4af50!8m2!3d22.9997514!4d72.5327991!16s%2Fg%2F12jlxxzmw!19sChIJxQrhpjqFXjkRUK_UAIkFg4o?authuser=0&hl=en&rclk=1,"22.999751399999997,72.53279909999999"
Saiyad Intezar Masjid saiyad intejhaar msjid,Mosque,"Saiyad Intezar Masjid saiyad intejhaar msjid, 2, Ice Factory Rd, Fazl-e-Rehmani Society, Royal Nawab Society, Juhapura, Ahmedabad, Gujarat 380055","Fazl-e-Rehmani Society, Royal Nawab Society, Juhapura","2, Ice Factory Rd",Ahmedabad,380055,Gujarat,IN,https://www.google.com/maps/place/Saiyad+Intezar+Masjid+%E0%AA%B8%E0%AB%88%E0%AA%AF%E0%AA%A6+%E0%AA%87%E0%AA%A8%E0%AB%8D%E0%AA%A4%E0%AB%87%E0%AA%9D%E0%AA%BE%E0%AA%B0+%E0%AA%AE%E0%AA%B8%E0%AB%8D%E0%AA%9C%E0%AA%BF%E0%AA%A6/data=!4m7!3m6!1s0x395e8537d763c539:0x9856608762b83c4!8m2!3d22.9889579!4d72.5300807!16s%2Fg%2F1tcyjfjw!19sChIJOcVj1zeFXjkRxIMrdghmhQk?authuser=0&hl=en&rclk=1,"22.9889579,72.5300807"
Masjid-E-Rabbani msjid e rbbaanii,Mosque,"XGRM+PC8 Masjid-E-Rabbani msjid e rbbaanii, Ammar Park, Rehnuma Society, Juhapura, Ahmedabad, Gujarat 380055","Ammar Park, Rehnuma Society, Juhapura",XGRM+PC8,Ahmedabad,380055,Gujarat,IN,https://www.google.com/maps/place/Masjid-E-Rabbani+%E0%AA%AE%E0%AA%B8%E0%AB%8D%E0%AA%9C%E0%AA%BF%E0%AA%A6+%E0%AA%8F+%E0%AA%B0%E0%AA%AC%E0%AB%8D%E0%AA%AC%E0%AA%BE%E0%AA%A8%E0%AB%80/data=!4m7!3m6!1s0x395e853835b28147:0x4258bf3b720998cb!8m2!3d22.9917869!4d72.5335848!16s%2Fg%2F1tl8j33f!19sChIJR4GyNTiFXjkRy5gJcju_WEI?authuser=0&hl=en&rclk=1,"22.991786899999997,72.5335848"
Masjid-E-Abu Bakr,Mosque,"Masjid-E-Abu Bakr, 20, Gulzar Park, Arshad Park, Juhapura, Ahmedabad, Gujarat 380055","Gulzar Park, Arshad Park, Juhapura",20,Ahmedabad,380055,Gujarat,IN,https://www.google.com/maps/place/Masjid-E-Abu+Bakr/data=!4m7!3m6!1s0x395e9aca27a90557:0x889cdfed20701130!8m2!3d22.9889693!4d72.5146907!16s%2Fg%2F11fy2j850g!19sChIJVwWpJ8qaXjkRMBFwIO3fnIg?authuser=0&hl=en&rclk=1,"22.988969299999997,72.5146907"
Rabbani Masjid,Mosque,"Rabbani Masjid, UMARJI COMPLEX, 7/927, Vejalpur Rd, near RABBANI MASJID, Mohammadi Society, Godhra, Gujarat 389001",Mohammadi Society,"UMARJI COMPLEX, 7/927, Vejalpur Rd, near RABBANI MASJID",Godhra,389001,Gujarat,IN,https://www.google.com/maps/place/Rabbani+Masjid/data=!4m7!3m6!1s0x39609bb2db1b27b7:0xdeca47e387e5a1fb!8m2!3d22.7735773!4d73.6055684!16s%2Fg%2F11clfpbln3!19sChIJtycb27KbYDkR-6Hlh-NHyt4?authuser=0&hl=en&rclk=1,"22.7735773,73.6055684"
Garib Nawaz Masjid(Pithe Wali),Mosque,"2JC3+8WX Garib Nawaz Masjid(Pithe Wali), Partabgad, Saraspur, Ahmedabad, Gujarat 380002","Partabgad, Saraspur",2JC3+8WX,Ahmedabad,380002,Gujarat,IN,https://www.google.com/maps/place/Garib+Nawaz+Masjid%28Pithe+Wali%29/data=!4m7!3m6!1s0x395e842d37933fd7:0xfc86683f87d22b22!8m2!3d23.0208579!4d72.604866!16s%2Fg%2F11bzsg424b!19sChIJ1z-TNy2EXjkRIivShz9ohvw?authuser=0&hl=en&rclk=1,"23.0208579,72.604866"
Madina Masjid,Mosque,"XGRG+874 Madina Masjid, Gandhi Smurti Society, Madina Masjid Rd, Park Land Society, Royal Nawab Society, Juhapura, Ahmedabad, Gujarat 380055","Park Land Society, Royal Nawab Society, Juhapura","XGRG+874, Gandhi Smurti Society, Madina Masjid Rd",Ahmedabad,380055,Gujarat,IN,https://www.google.com/maps/place/Madina+Masjid/data=!4m7!3m6!1s0x395e8535d20483c3:0x3a07e7b15a18fa10!8m2!3d22.9907691!4d72.5257136!16s%2Fg%2F11bysjx2r8!19sChIJw4ME0jWFXjkREPoYWrHnBzo?authuser=0&hl=en&rclk=1,"22.990769099999998,72.5257136"
Badar Masjid bdr msjd bdr msjid,Mosque,"Badar Masjid bdr msjd bdr msjid, Makka Nagar, Hazrat Khawja Society, Juhapura, Ahmedabad, Gujarat 380051","Makka Nagar, Hazrat Khawja Society, Juhapura",,Ahmedabad,380051,Gujarat,IN,https://www.google.com/maps/place/Badar+Masjid+%D8%A8%D8%AF%D8%B1+%D9%85%D8%B3%D8%AC%D8%AF+%E0%AA%AC%E0%AA%A6%E0%AA%B0+%E0%AA%AE%E0%AA%B8%E0%AB%8D%E0%AA%9C%E0%AA%BF%E0%AA%A6%E2%80%AD/data=!4m7!3m6!1s0x395e8532bf203ea7:0x64e5790e577c0998!8m2!3d22.9981073!4d72.5216795!16s%2Fg%2F11b5pk749m!19sChIJpz4gvzKFXjkRmAl8Vw555WQ?authuser=0&hl=en&rclk=1,"22.998107299999997,72.52167949999999"
Masjid E Kheif,Mosque,"XGP9+CFM Masjid E Kheif, MASJIDE KHEIF NR Arsh duplex, Fatehwadi Tower Rd, Fatehwadi, opp, Ahmedabad, Gujarat 380055","Fatehwadi, opp, Juhapura","XGP9+CFM, MASJIDE KHEIF NR Arsh duplex, Fatehwadi Tower Rd",Ahmedabad,380055,Gujarat,IN,https://www.google.com/maps/place/Masjid+E+Kheif/data=!4m7!3m6!1s0x395e9ab56b66b169:0xf53a317b5d7eaaf1!8m2!3d22.9860896!4d72.5186588!16s%2Fg%2F11b_25mcjh!19sChIJabFma7WaXjkR8ap-XXsxOvU?authuser=0&hl=en&rclk=1,"22.9860896,72.5186588"
Al-Raza Masjid al-rjhaa msjid msjd lrz,Mosque,"XGVF+HJF Al-Raza Masjid al-rjhaa msjid msjd lrz, Al Kamar Society, Juhapura, Ahmedabad, Gujarat 380055","Al Kamar Society, Juhapura",XGVF+HJF,Ahmedabad,380055,Gujarat,IN,https://www.google.com/maps/place/Al-Raza+Masjid+%E0%AA%85%E0%AA%B2-%E0%AA%B0%E0%AA%9D%E0%AA%BE+%E0%AA%AE%E0%AA%B8%E0%AB%8D%E0%AA%9C%E0%AA%BF%E0%AA%A6+%D9%85%D8%B3%D8%AC%D8%AF+%D8%A7%D9%84%D8%B1%D8%B2%D8%A7%E2%80%AD/data=!4m7!3m6!1s0x395e853385e51bbf:0x3659fdfd20ae041c!8m2!3d22.9939347!4d72.5240622!16s%2Fg%2F11b5pkxc__!19sChIJvxvlhTOFXjkRHASuIP39WTY?authuser=0&hl=en&rclk=1,"22.9939347,72.5240622"
Masjid E Fatima msjd ` fTmh msjid e phaatimaa,Mosque,"XGWC+7WR Masjid E Fatima msjd ` fTmh msjid e phaatimaa, Al, Qamr Society, Royal, Akbar Tower, Naya Road, Juhapura, Ahmedabad, Gujarat 380055","Quresh Nagar Society, Juhapura","XGWC+7WR, Al, Qamr Society, Royal, Akbar Tower, Naya Road",Ahmedabad,380055,Gujarat,IN,https://www.google.com/maps/place/Masjid+E+Fatima+%D9%85%D8%B3%D8%AC%D8%AF+%D8%B9+%D9%81%D8%A7%D8%B7%D9%85%DB%81+%E0%AA%AE%E0%AA%B8%E0%AB%8D%E0%AA%9C%E0%AA%BF%E0%AA%A6+%E0%AA%8F+%E0%AA%AB%E0%AA%BE%E0%AA%A4%E0%AA%BF%E0%AA%AE%E0%AA%BE%E2%80%AD/data=!4m7!3m6!1s0x395e85333cb4180f:0xe0156f185e309fd8!8m2!3d22.9957471!4d72.5222757!16s%2Fg%2F11f2s0yz4v!19sChIJDxi0PDOFXjkR2J8wXhhvFeA?authuser=0&hl=en&rclk=1,"22.9957471,72.5222757"
Hazrat Usman shah Sarkar,Shrine,"Hazrat Usman shah Sarkar, I, Makarba Rd, Vejalpur, Ahmedabad, Gujarat 380051",Vejalpur,"I, Makarba Rd",Ahmedabad,380051,Gujarat,IN,https://www.google.com/maps/place/Hazrat+Usman+shah+Sarkar/data=!4m7!3m6!1s0x395e9ac8a534d9ef:0x8e70050f527d3ac1!8m2!3d22.9913067!4d72.5093874!16s%2Fg%2F11c1wskzhd!19sChIJ79k0pciaXjkRwTp9Ug8FcI4?authuser=0&hl=en&rclk=1,"22.9913067,72.5093874"
Prachina Mosque,Mosque,"XGRF+2GF Prachina Mosque, Prachina Society,Maktampura, Juhapura, Ahmedabad, Gujarat 380055","Aehsan Park, Juhapura","XGRF+2GF, Prachina Society,Maktampura",Ahmedabad,380055,Gujarat,IN,https://www.google.com/maps/place/Prachina+Mosque/data=!4m7!3m6!1s0x395e8535a60ad1d9:0x202666891d95db4!8m2!3d22.9900743!4d72.5238016!16s%2Fg%2F11gbv2x2mq!19sChIJ2dEKpjWFXjkRtF3ZkWhmAgI?authuser=0&hl=en&rclk=1,"22.9900743,72.5238016"
Latif Masjid lTyf msjd,Mosque,"Latif Masjid lTyf msjd, Ahmedbage society, Makka Nagar Society, Juhapura, Ahmedabad, Gujarat 380055","Makka Nagar Society, Juhapura",Ahmedbage society,Ahmedabad,380055,Gujarat,IN,https://www.google.com/maps/place/Latif+Masjid+%D9%84%D8%B7%DB%8C%D9%81+%D9%85%D8%B3%D8%AC%D8%AF%E2%80%AD/data=!4m7!3m6!1s0x395e85329f36ee21:0x61316d721bfcbe9!8m2!3d22.9987193!4d72.5224815!16s%2Fg%2F11by_dymbt!19sChIJIe42nzKFXjkR6cu_IdcWEwY?authuser=0&hl=en&rclk=1,"22.998719299999998,72.5224815"
Masjid,Mosque,"XHWF+86J Masjid, Chhipakuva, Ahmedabad, Gujarat 380028",Chhipakuva,XHWF+86J,Ahmedabad,380028,Gujarat,IN,https://www.google.com/maps/place/Masjid/data=!4m7!3m6!1s0x395e85a18536b625:0xbd03b4d4045fa2bd!8m2!3d22.9958354!4d72.5730081!16s%2Fg%2F11dxdbcf20!19sChIJJbY2haGFXjkRvaJfBNS0A70?authuser=0&hl=en&rclk=1,"22.9958354,72.5730081"
Madina Masjid,Mosque,"Madina Masjid, Ronak park, 132ft Ring Road, Sanklit Nagar, Juhapura, Ahmedabad, Gujarat 380055","Sanklit Nagar, Juhapura","Ronak park, 132ft Ring Road, Sanklit Nagar, Juhapura",Ahmedabad,380055,Gujarat,IN,https://www.google.com/maps/place/Madina+Masjid/data=!4m7!3m6!1s0x395e853b179b2099:0x4ab0780a7a6d799a!8m2!3d22.999314!4d72.5360575!16s%2Fg%2F11b5phxw7s!19sChIJmSCbFzuFXjkRmnltegp4sEo?authuser=0&hl=en&rclk=1,"22.999314,72.5360575"
Raza-E-Mustufa Masjid rjhaa e mustuphaa msjid,Mosque,"Raza-E-Mustufa Masjid rjhaa e mustuphaa msjid, 51, Juhapura Market Road, Anwar Park Society, Rehnuma Society, Juhapura, Ahmedabad, Gujarat 380055","Anwar Park Society, Rehnuma Society, Juhapura","51, Juhapura Market Road",Ahmedabad,380055,Gujarat,IN,https://www.google.com/maps/place/Raza-E-Mustufa+Masjid+%E0%AA%B0%E0%AA%9D%E0%AA%BE+%E0%AA%8F+%E0%AA%AE%E0%AB%81%E0%AA%B8%E0%AB%8D%E0%AA%A4%E0%AB%81%E0%AA%AB%E0%AA%BE+%E0%AA%AE%E0%AA%B8%E0%AB%8D%E0%AA%9C%E0%AA%BF%E0%AA%A6/data=!4m7!3m6!1s0x395e853632336d0b:0xcb080d9ebe49c072!8m2!3d22.9895274!4d72.5290356!16s%2Fg%2F1vfzckvb!19sChIJC20zMjaFXjkRcsBJvp4NCMs?authuser=0&hl=en&rclk=1,"22.9895274,72.5290356"
HAZRAT SABIR PIYA MASJID,Mosque,"HAZRAT SABIR PIYA MASJID, 16, Saleem Nagar, Juhapura, Ahmedabad, Gujarat 380051","Saleem Nagar, Juhapura",16,Ahmedabad,380051,Gujarat,IN,https://www.google.com/maps/place/HAZRAT+SABIR+PIYA+MASJID/data=!4m7!3m6!1s0x395e8564aec42409:0xda5b9991dd37e97d!8m2!3d23.0001712!4d72.5257327!16s%2Fg%2F11j7ykl3pg!19sChIJCSTErmSFXjkRfek33ZGZW9o?authuser=0&hl=en&rclk=1,"23.0001712,72.52573269999999"
Masjid-E-Gul-E-Ziyad,Mosque,"Masjid-E-Gul-E-Ziyad, Bage firdosh Society part -2, Nr., Iqra hospital,Sarkhej - Juhapura road, Ahmedabad, Gujarat 380055","Haji Bawa park Society, Quresh Nagar Society, Juhapura","Bage firdosh Society part -2, Nr., Iqra hospital,Sarkhej - Juhapura road",Ahmedabad,380055,Gujarat,IN,https://www.google.com/maps/place/Masjid-E-Gul-E-Ziyad/data=!4m7!3m6!1s0x395e9acb7591808b:0x267bad6554fb7f18!8m2!3d22.9918789!4d72.5175529!16s%2Fg%2F11bw835ldw!19sChIJi4CRdcuaXjkRGH_7VGWteyY?authuser=0&hl=en&rclk=1,"22.9918789,72.5175529"
Fatima Masjid,Mosque,"Fatima Masjid, Unnamed Road, Saleem Nagar, Juhapura, Ahmedabad, Gujarat 380051","Saleem Nagar, Juhapura",Unnamed Road,Ahmedabad,380051,Gujarat,IN,https://www.google.com/maps/place/Fatima+Masjid/data=!4m7!3m6!1s0x395e858558dcb845:0xa9d0e9a91b8ebc2b!8m2!3d23.0006561!4d72.5255446!16s%2Fg%2F11fnp9rr4q!19sChIJRbjcWIWFXjkRK7yOG6np0Kk?authuser=0&hl=en&rclk=1,"23.0006561,72.5255446"
Masjid-E-Barkat-E-Raza,Mosque,"XGVM+33V Masjid-E-Barkat-E-Raza, Narol - Sarkhej Rd, Unit Hills Society, Rehnuma Society, Juhapura, Ahmedabad, Gujarat 380055","Unit Hills Society, Rehnuma Society, Juhapura","XGVM+33V, Narol - Sarkhej Rd",Ahmedabad,380055,Gujarat,IN,https://www.google.com/maps/place/Masjid-E-Barkat-E-Raza/data=!4m7!3m6!1s0x395e8539da28b081:0xacd512a26d0b46d0!8m2!3d22.992741!4d72.5326817!16s%2Fg%2F1thkvnv4!19sChIJgbAo2jmFXjkR0EYLbaIS1aw?authuser=0&hl=en&rclk=1,"22.992741,72.5326817"
Masjid-e-Tuba,Mosque,"QJ82+F2X Masjid-e-Tuba, Vejalpur Rd, near capsule company, Tathoora, Chikhodra, Godhra, Gujarat 389340",Tathoora,"QJ82+F2X, Vejalpur Rd, near capsule company","Chikhodra, Godhra",389340,Gujarat,IN,https://www.google.com/maps/place/Masjid-e-Tuba/data=!4m7!3m6!1s0x39609ba9ecc09b47:0x3b3e480171a6c809!8m2!3d22.7662408!4d73.6001169!16s%2Fg%2F11g691m6fl!19sChIJR5vA7KmbYDkRCcimcQFIPjs?authuser=0&hl=en&rclk=1,"22.7662408,73.6001169"
Masjid E Gausiya,Mosque,"Masjid E Gausiya, 24/B, P&T Colony, Danilimda, Ahmedabad, Gujarat 380043","P&T Colony, Danilimda",24/B,Ahmedabad,380043,Gujarat,IN,https://www.google.com/maps/place/Masjid+E+Gausiya/data=!4m7!3m6!1s0x395e85bf25c9c16d:0x326cc222c1b03ada!8m2!3d23.0002617!4d72.5889934!16s%2Fg%2F11dxbr9b6r!19sChIJbcHJJb-FXjkR2jqwwSLCbDI?authuser=0&hl=en&rclk=1,"23.0002617,72.58899339999999"
Masjide Abdul-Aziz Apnanagar,Mosque,"Masjide Abdul-Aziz Apnanagar, 85, APN Nagar, Saleem Nagar, Juhapura, Ahmedabad, Gujarat 380051","APN Nagar, Saleem Nagar, Juhapura",85,Ahmedabad,380051,Gujarat,IN,https://www.google.com/maps/place/Masjide+Abdul-Aziz+Apnanagar/data=!4m7!3m6!1s0x395e8531c01a7eb9:0xb2bfd06d640e6278!8m2!3d22.9986045!4d72.5279224!16s%2Fg%2F11g6qt7s98!19sChIJuX4awDGFXjkReGIOZG3Qv7I?authuser=0&hl=en&rclk=1,"22.9986045,72.5279224"
Al - Wahid Masjid al vaahiid msjid,Mosque,"Al - Wahid Masjid al vaahiid msjid, 27, Unit Hills Society, Rehnuma Society, Royal Nawab Society, Juhapura, Ahmedabad, Gujarat 380055","Unit Hills Society, Rehnuma Society, Royal Nawab Society, Juhapura",27,Ahmedabad,380055,Gujarat,IN,https://www.google.com/maps/place/Al+-+Wahid+Masjid+%E0%AA%85%E0%AA%B2+%E0%AA%B5%E0%AA%BE%E0%AA%B9%E0%AB%80%E0%AA%A6+%E0%AA%AE%E0%AA%B8%E0%AB%8D%E0%AA%9C%E0%AA%BF%E0%AA%A6/data=!4m7!3m6!1s0x395e8537873d36f1:0x2ad39158a9551817!8m2!3d22.9913867!4d72.5321772!16s%2Fg%2F11c61985j9!19sChIJ8TY9hzeFXjkRFxhVqViR0yo?authuser=0&hl=en&rclk=1,"22.9913867,72.53217719999999"
MASJID-E-UVESHQARNI,Mosque,"MASJID-E-UVESHQARNI, 123, Makka Nagar, Juhapura, Ahmedabad, Gujarat 380055","Makka Nagar, Juhapura",123,Ahmedabad,380055,Gujarat,IN,https://www.google.com/maps/place/MASJID-E-UVESHQARNI/data=!4m7!3m6!1s0x395e85ef36c86bcf:0x9c6991bac0bf17ab!8m2!3d22.9988586!4d72.5212866!16s%2Fg%2F11f7qz2yjp!19sChIJz2vINu-FXjkRqxe_wLqRaZw?authuser=0&hl=en&rclk=1,"22.9988586,72.5212866"
Gulab Park Masjid. gulaab paark msjid,Mosque,"Gulab Park Masjid. gulaab paark msjid, 2,gulab park society near Al madina masjid juhapura Ahmedabad Gulab park society, Sarani Rd, APN Nagar, Saleem Nagar, Juhapura, Ahmedabad, Gujarat 380051","APN Nagar, Saleem Nagar, Juhapura","2,gulab park society near Al madina masjid juhapura Ahmedabad Gulab park society, Sarani Rd",Ahmedabad,380051,Gujarat,IN,https://www.google.com/maps/place/Gulab+Park+Masjid.+%E0%AA%97%E0%AB%81%E0%AA%B2%E0%AA%BE%E0%AA%AC+%E0%AA%AA%E0%AA%BE%E0%AA%B0%E0%AB%8D%E0%AA%95+%E0%AA%AE%E0%AA%B8%E0%AB%8D%E0%AA%9C%E0%AA%BF%E0%AA%A6/data=!4m7!3m6!1s0x395e85321f0238ad:0xe58ac6efa2a4c2e1!8m2!3d22.9985184!4d72.5268576!16s%2Fg%2F11cspj98jj!19sChIJrTgCHzKFXjkR4cKkou_GiuU?authuser=0&hl=en&rclk=1,"22.9985184,72.5268576"
GaribNawaz Masjid griib nvaajh msjid,Mosque,"XGXP+885 GaribNawaz Masjid griib nvaajh msjid, APMC Market, Asharaf Nagar, B/H, Juhapura, Ahmedabad, Gujarat 380052","APMC Market, Asharaf Nagar, B/H, Juhapura",XGXP+885,Ahmedabad,380052,Gujarat,IN,https://www.google.com/maps/place/GaribNawaz+Masjid+%E0%AA%97%E0%AA%B0%E0%AB%80%E0%AA%AC+%E0%AA%A8%E0%AA%B5%E0%AA%BE%E0%AA%9D+%E0%AA%AE%E0%AA%B8%E0%AB%8D%E0%AA%9C%E0%AA%BF%E0%AA%A6/data=!4m7!3m6!1s0x395e853b06f51817:0x85e3413a8d234871!8m2!3d22.9982699!4d72.5358489!16s%2Fg%2F11gf967559!19sChIJFxj1BjuFXjkRcUgjjTpB44U?authuser=0&hl=en&rclk=1,"22.9982699,72.53584889999999"
Fatima Masjid,Mosque,"Fatima Masjid, Sur. No.-84 Paki,Shop No.-13 Ambar Tower Lane, Sarkhej Rd, opp. Savan Party Plot, Makarba, Ahmedabad, Gujarat 380055",Makarba,"Sur. No.-84 Paki,Shop No.-13 Ambar Tower Lane, Sarkhej Rd, opp. Savan Party Plot",Ahmedabad,380055,Gujarat,IN,https://www.google.com/maps/place/Fatima+Masjid/data=!4m7!3m6!1s0x395e9bbf285b5573:0x458b9368197419f!8m2!3d22.9891751!4d72.5097307!16s%2Fg%2F11fqsypzwv!19sChIJc1VbKL-bXjkRn0GXgTa5WAQ?authuser=0&hl=en&rclk=1,"22.9891751,72.50973069999999"
Msjid-e-yousufi,Mosque,"MHR7+R25 Msjid-e-yousufi, Vejalpur, Gujarat 389340",,MHR7+R25,Vejalpur,389340,Gujarat,IN,https://www.google.com/maps/place/Msjid-e-yousufi/data=!4m7!3m6!1s0x396084a6d6a2064f:0x20e6d3c8ab223e6a!8m2!3d22.6920233!4d73.5625954!16s%2Fg%2F11fx7p6w5r!19sChIJTwai1qaEYDkRaj4iq8jT5iA?authuser=0&hl=en&rclk=1,"22.6920233,73.56259539999999"
Madni Mosque,Mosque,"Madni Mosque, D14, Ainal Haque Society, Fatehwadi, Arshad Park, Juhapura, Ahmedabad, Gujarat 380055","Ainal Haque Society, Fatehwadi, Arshad Park, Juhapura",D14,Ahmedabad,380055,Gujarat,IN,https://www.google.com/maps/place/Madni+Mosque/data=!4m7!3m6!1s0x395e9b791d99406b:0xe54cead8e65cd324!8m2!3d22.9894932!4d72.5183332!16s%2Fg%2F11f66hw3g5!19sChIJa0CZHXmbXjkRJNNc5tjqTOU?authuser=0&hl=en&rclk=1,"22.9894932,72.5183332"
Masjid-E-Iqbal msjdi qbl - Ahmedabad,Mosque,"Masjid-E-Iqbal msjdi qbl - Ahmedabad, Iqbal Flats, Unit Hills Society, Rehnuma Society, Juhapura, Ahmedabad, Gujarat 380055","Unit Hills Society, Rehnuma Society, Juhapura",Iqbal Flats,Ahmedabad,380055,Gujarat,IN,https://www.google.com/maps/place/Masjid-E-Iqbal+%D9%85%D8%B3%D8%AC%D8%AF%D9%90+%D8%A7%D9%82%D8%A8%D8%A7%D9%84+-+Ahmedabad%E2%80%AD/data=!4m7!3m6!1s0x395e853713f1117b:0xb47b39d1b0bcb584!8m2!3d22.9926603!4d72.5300073!16s%2Fg%2F11c50qfdtb!19sChIJexHxEzeFXjkRhLW8sNE5e7Q?authuser=0&hl=en&rclk=1,"22.9926603,72.5300073"
Noor e Muhammadi Masjid,Mosque,"Noor e Muhammadi Masjid, 39/40, Haryali Society Rd, Unit Hills Society, Rehnuma Society, Royal Nawab Society, Juhapura, Ahmedabad, Gujarat 380055","Unit Hills Society, Rehnuma Society, Royal Nawab Society, Juhapura","39/40, Haryali Society Rd",Ahmedabad,380055,Gujarat,IN,https://www.google.com/maps/place/Noor+e+Muhammadi+Masjid/data=!4m7!3m6!1s0x395e8537a90aa02f:0xe62e8fcc21b54de8!8m2!3d22.9913843!4d72.5298237!16s%2Fg%2F11csbdqsrf!19sChIJL6AKqTeFXjkR6E21IcyPLuY?authuser=0&hl=en&rclk=1,"22.9913843,72.5298237"
Mosque,Mosque,"Mosque, 380052, Sanklit Nagar, Juhapura, Ahmedabad, Gujarat 380055","Sanklit Nagar, Juhapura",380052,Ahmedabad,380055,Gujarat,IN,https://www.google.com/maps/place/Mosque/data=!4m7!3m6!1s0x395e853046b081ef:0x1d8de12b7d3508b3!8m2!3d22.998631!4d72.5303369!16s%2Fg%2F11f126tgr6!19sChIJ74GwRjCFXjkRswg1fSvhjR0?authuser=0&hl=en&rclk=1,"22.998631,72.5303369"
Masjid-e-Rahmaniya,Mosque,"QJC3+V2R Masjid-e-Rahmaniya, muslim society A, Vejalpur Rd, Mohammadi Society, Godhra, Gujarat 389001",Mohammadi Society,"QJC3+V2R, muslim society A, Vejalpur Rd",Godhra,389001,Gujarat,IN,https://www.google.com/maps/place/Masjid-e-Rahmaniya/data=!4m7!3m6!1s0x39609bb2699cd6f7:0x223217f118461a32!8m2!3d22.7722335!4d73.6025221!16s%2Fg%2F11fx8cjlp6!19sChIJ99acabKbYDkRMhpGGPEXMiI?authuser=0&hl=en&rclk=1,"22.7722335,73.6025221"
"Dayanand Society , near dayare madina masjid",Mosque,"Dayanand Society , near dayare madina masjid, United Apartment Rd, Park Land Society, Royal Nawab Society, Juhapura, Ahmedabad, Gujarat 380055","Park Land Society, Royal Nawab Society, Juhapura",United Apartment Rd,Ahmedabad,380055,Gujarat,IN,"https://www.google.com/maps/place/Dayanand+Society+,+near+dayare+madina+masjid/data=!4m7!3m6!1s0x395e855bae36a749:0x319731c469784b98!8m2!3d22.9924023!4d72.5284379!16s%2Fg%2F11hz00xhc4!19sChIJSac2rluFXjkRmEt4acQxlzE?authuser=0&hl=en&rclk=1","22.9924023,72.5284379"
Masjid Ur Rehman msjid ur rhemaan,Mosque,"2G2G+VQ2 Masjid Ur Rehman msjid ur rhemaan, Vibhavari Society, Juhapura, Ahmedabad, Gujarat 380051","Vibhavari Society, Juhapura",2G2G+VQ2,Ahmedabad,380051,Gujarat,IN,https://www.google.com/maps/place/Masjid+Ur+Rehman+%E0%AA%AE%E0%AA%B8%E0%AB%8D%E0%AA%9C%E0%AA%BF%E0%AA%A6+%E0%AA%89%E0%AA%B0+%E0%AA%B0%E0%AA%B9%E0%AB%87%E0%AA%AE%E0%AA%BE%E0%AA%A8/data=!4m7!3m6!1s0x395e852e7a43faab:0xbd19993c645b5724!8m2!3d23.0021387!4d72.5268865!16s%2Fg%2F11f2wf0nly!19sChIJq_pDei6FXjkRJFdbZDyZGb0?authuser=0&hl=en&rclk=1,"23.0021387,72.5268865"
Unit Hills Sunni Masjid,Mosque,"Unit Hills Sunni Masjid, 15, Prerna Society, 380055, Rehnuma Society, Royal Nawab Society, Juhapura, Ahmedabad, Gujarat 380055","Unit Hills Society, Rehnuma Society, Royal Nawab Society, Juhapura","15, Prerna Society, 380055",Ahmedabad,380055,Gujarat,IN,https://www.google.com/maps/place/Unit+Hills+Sunni+Masjid/data=!4m7!3m6!1s0x395e8596f531aa51:0x8c28e98f9a26e397!8m2!3d22.9927858!4d72.532711!16s%2Fg%2F11ffm7p704!19sChIJUaox9ZaFXjkRl-Mmmo_pKIw?authuser=0&hl=en&rclk=1,"22.9927858,72.53271099999999"
Ayisha Masjid,Mosque,"Ayisha Masjid, Ahmed bag society, Opposite Mansuri hall, Vejalpur, Juhapura, Ahmedabad, Gujarat 380051","Unit Hills Society, Rehnuma Society, Juhapura","Ahmed bag society, Opposite Mansuri hall, Vejalpur",Ahmedabad,380051,Gujarat,IN,https://www.google.com/maps/place/Ayisha+Masjid/data=!4m7!3m6!1s0x395e853279e4d055:0xd278811d9f1b6763!8m2!3d22.9933385!4d72.5292133!16s%2Fg%2F1hc18yqqd!19sChIJVdDkeTKFXjkRY2cbnx2BeNI?authuser=0&hl=en&rclk=1,"22.9933385,72.5292133"
Masjide Salihin,Mosque,"Masjide Salihin, Yash Complex, Saleem Nagar, Juhapura, Ahmedabad, Gujarat 380051","Saleem Nagar, Juhapura",Yash Complex,Ahmedabad,380051,Gujarat,IN,https://www.google.com/maps/place/Masjide+Salihin/data=!4m7!3m6!1s0x395e85398a87a8f5:0x3489206701e8d7a3!8m2!3d23.0011139!4d72.5282942!16s%2Fg%2F11f6krtcxr!19sChIJ9aiHijmFXjkRo9foAWcgiTQ?authuser=0&hl=en&rclk=1,"23.0011139,72.52829419999999"
Jubeda Masjid jubedaa msjid,Mosque,"Jubeda Masjid jubedaa msjid, 11, Fatehwadi, Arshad Park, Juhapura, Ahmedabad, Gujarat 380055","Fatehwadi, Arshad Park, Juhapura",11,Ahmedabad,380055,Gujarat,IN,https://www.google.com/maps/place/Jubeda+Masjid+%E0%AA%9C%E0%AB%81%E0%AA%AC%E0%AB%87%E0%AA%A6%E0%AA%BE+%E0%AA%AE%E0%AA%B8%E0%AB%8D%E0%AA%9C%E0%AA%BF%E0%AA%A6/data=!4m7!3m6!1s0x395e9ab54a6402c3:0xdee10f39e67f8537!8m2!3d22.9862307!4d72.5202722!16s%2Fg%2F11d_8g207z!19sChIJwwJkSrWaXjkRN4V_5jkP4d4?authuser=0&hl=en&rclk=1,"22.9862307,72.5202722"
Mohammdi Masjid,Mosque,"Mohammdi Masjid, G Ward, Sanklit Nagar, Juhapura, Ahmedabad, Gujarat 380055","Sanklit Nagar, Juhapura",G Ward,Ahmedabad,380055,Gujarat,IN,https://www.google.com/maps/place/Mohammdi+Masjid/data=!4m7!3m6!1s0x395e8523a5917a6b:0x3d4e971d11da471b!8m2!3d22.9970603!4d72.5317594!16s%2Fg%2F11h1hwrywg!19sChIJa3qRpSOFXjkRG0faER2XTj0?authuser=0&hl=en&rclk=1,"22.997060299999998,72.5317594"
Masjid E Hajra,Mosque,"XGR4+MR6 Masjid E Hajra, Sarkhej Makarba Rd, Makarba, Ahmedabad, Gujarat 380051",Makarba,"XGR4+MR6, Sarkhej Makarba Rd",Ahmedabad,380051,Gujarat,IN,https://www.google.com/maps/place/Masjid+E+Hajra/data=!4m7!3m6!1s0x395e9ac674f95b7b:0x2fa5e9866f57a3cd!8m2!3d22.9916528!4d72.507008!16s%2Fg%2F11f320hc6w!19sChIJe1v5dMaaXjkRzaNXb4bppS8?authuser=0&hl=en&rclk=1,"22.9916528,72.507008"
Masjid-e-Ronke Islam (naanii msjiid),Mosque,"MHR7+8PJ Masjid-e-Ronke Islam (naanii msjiid), Vejalpur, Gujarat 389340",,MHR7+8PJ,Vejalpur,,Gujarat,IN,https://www.google.com/maps/place/Masjid-e-Ronke+Islam+%28%E0%AA%A8%E0%AA%BE%E0%AA%A8%E0%AB%80+%E0%AA%AE%E0%AA%B8%E0%AB%8D%E0%AA%9C%E0%AB%80%E0%AA%A6%29/data=!4m7!3m6!1s0x396085c507789cb7:0x67b6774036842c96!8m2!3d22.690842!4d73.5642714!16s%2Fg%2F11f731t4hr!19sChIJt5x4B8WFYDkRliyENkB3tmc?authuser=0&hl=en&rclk=1,"22.690842,73.5642714"
Masjid-E-Khaiber,Mosque,"Masjid-E-Khaiber, 18, Sarani Rd, APN Nagar, Saleem Nagar, Juhapura, Ahmedabad, Gujarat 380051","APN Nagar, Saleem Nagar, Juhapura","18, Sarani Rd",Ahmedabad,380051,Gujarat,IN,https://www.google.com/maps/place/Masjid-E-Khaiber/data=!4m7!3m6!1s0x395e85fea8579643:0x87861ac34bcf5765!8m2!3d22.9993627!4d72.5279606!16s%2Fg%2F11gxz_sh4h!19sChIJQ5ZXqP6FXjkRZVfPS8Mahoc?authuser=0&hl=en&rclk=1,"22.9993627,72.5279606"
salma masjid juhapura,Mosque,"XGXJ+3HH salma masjid juhapura, Unnamed Road, Sanklit Nagar, Juhapura, Ahmedabad, Gujarat 380055","Sanklit Nagar, Juhapura","XGXJ+3HH, Unnamed Road",Ahmedabad,380055,Gujarat,IN,https://www.google.com/maps/place/salma+masjid+juhapura/data=!4m7!3m6!1s0x395e851396800cdb:0xab0a079587ea258!8m2!3d22.9976882!4d72.531496!16s%2Fg%2F11fn2s2thw!19sChIJ2wyAlhOFXjkRWKJ-WHmgsAo?authuser=0&hl=en&rclk=1,"22.9976882,72.53149599999999"
Momin Masjid - Sarkhej. momiin msjid,Mosque,"Momin Masjid - Sarkhej. momiin msjid, 14, Makarba, Ahmedabad, Gujarat 380051",Makarba,14,Ahmedabad,380051,Gujarat,IN,https://www.google.com/maps/place/Momin+Masjid+-+Sarkhej.+%E0%AA%AE%E0%AB%8B%E0%AA%AE%E0%AB%80%E0%AA%A8+%E0%AA%AE%E0%AA%B8%E0%AB%8D%E0%AA%9C%E0%AA%BF%E0%AA%A6/data=!4m7!3m6!1s0x395e9ac118e787c5:0x53116e990178fa3e!8m2!3d22.9888202!4d72.501211!16s%2Fg%2F11b_2cm13h!19sChIJxYfnGMGaXjkRPvp4AZluEVM?authuser=0&hl=en&rclk=1,"22.9888202,72.501211"
Noor e rehman Masjid,Mosque,"66, Noor e rehman Masjid, Classic Villa Society, Jannat Ul Naim Society Rd, Aehsan Park, Juhapura, Ahmedabad, Gujarat 380055","Aehsan Park, Juhapura","66, Classic Villa Society, Jannat Ul Naim Society Rd",Ahmedabad,380055,Gujarat,IN,https://www.google.com/maps/place/Noor+e+rehman+Masjid/data=!4m7!3m6!1s0x395e8577c1479a19:0x5c6b2d2b081c3fe8!8m2!3d22.9905611!4d72.5225963!16s%2Fg%2F11p6826qyz!19sChIJGZpHwXeFXjkR6D8cCCsta1w?authuser=0&hl=en&rclk=1,"22.990561099999997,72.5225963"
"Nure mohamadi masjid , Ahle sunnat wal jmat DAWAT E ISLAMI",Mosque,"XGQ5+Q9P Nure mohamadi masjid , Ahle sunnat wal jmat DAWAT E ISLAMI, Makarba, Ahmedabad, Gujarat 380051",Makarba,XGQ5+Q9P,Ahmedabad,380051,Gujarat,IN,"https://www.google.com/maps/place/Nure+mohamadi+masjid+,+Ahle+sunnat+wal+jmat+DAWAT+E+ISLAMI/data=!4m7!3m6!1s0x395e9b06e3dcce6f:0x846542770537d02!8m2!3d22.9894555!4d72.5084681!16s%2Fg%2F11h0b7yxvj!19sChIJb87c4wabXjkRAn1TcCdURgg?authuser=0&hl=en&rclk=1","22.9894555,72.5084681"
MASJID E NOOR,Mosque,"XGXM+CF9 MASJID E NOOR, Masjid E Noor J Word Rd, Sanklit Nagar, Juhapura, Ahmedabad, Gujarat 380055","Sanklit Nagar, Juhapura","XGXM+CF9, Masjid E Noor J Word Rd",Ahmedabad,380055,Gujarat,IN,https://www.google.com/maps/place/MASJID+E+NOOR/data=!4m7!3m6!1s0x395e85430f762823:0xdde5821fdca117f2!8m2!3d22.9985328!4d72.5337238!16s%2Fg%2F11f7710t7_!19sChIJIyh2D0OFXjkR8heh3B-C5d0?authuser=0&hl=en&rclk=1,"22.9985328,72.53372379999999"
Masjid e AbdulWahid. msjid e abdulvaahiid,Mosque,"XGJ8+2P3 Masjid e AbdulWahid. msjid e abdulvaahiid, Unnamed Road, Arshad Park, Juhapura, Ahmedabad, Chaloda, Gujarat 380055","Arshad Park, Juhapura","XGJ8+2P3, Unnamed Road","Ahmedabad, Chaloda",380055,Gujarat,IN,https://www.google.com/maps/place/Masjid+e+AbdulWahid.+%E0%AA%AE%E0%AA%B8%E0%AB%8D%E0%AA%9C%E0%AA%BF%E0%AA%A6+%E0%AA%8F+%E0%AA%85%E0%AA%AC%E0%AB%8D%E0%AA%A6%E0%AB%81%E0%AA%B2%E0%AA%B5%E0%AA%BE%E0%AA%B9%E0%AB%80%E0%AA%A6/data=!4m7!3m6!1s0x395e9b92b8cc02ad:0xbb7ecf6c22849929!8m2!3d22.9800071!4d72.5167994!16s%2Fg%2F11gy254b5m!19sChIJrQLMuJKbXjkRKZmEImzPfrs?authuser=0&hl=en&rclk=1,"22.980007099999998,72.5167994"
Masjid-e-Noor,Mosque,"Masjid-e-Noor, Sohailpark, Fatehwadi, Arshad Park, Juhapura, Ahmedabad, Gujarat 380055","Sohailpark, Fatehwadi, Arshad Park, Juhapura",,Ahmedabad,380055,Gujarat,IN,https://www.google.com/maps/place/Masjid-e-Noor/data=!4m7!3m6!1s0x395e9b87607033d1:0xc8d5a13793249037!8m2!3d22.9891369!4d72.5167115!16s%2Fg%2F11g0jjp7m5!19sChIJ0TNwYIebXjkRN5Akkzeh1cg?authuser=0&hl=en&rclk=1,"22.9891369,72.5167115"
Yusuf Masjid,Mosque,"XGJ8+XWX Yusuf Masjid, Fatehwadi, Arshad Park, Juhapura, Ahmedabad, Gujarat 380055","Fatehwadi, Arshad Park, Juhapura",XGJ8+XWX,Ahmedabad,380055,Gujarat,IN,https://www.google.com/maps/place/Yusuf+Masjid/data=!4m7!3m6!1s0x395e9b0f35d469fd:0x764ca7f2794024c8!8m2!3d22.9824897!4d72.5173492!16s%2Fg%2F11q8573yz1!19sChIJ_WnUNQ-bXjkRyCRAefKnTHY?authuser=0&hl=en&rclk=1,"22.9824897,72.5173492"
Qazi Ali Masjid qDy `ly msjd,Mosque,"Qazi Ali Masjid qDy `ly msjd, 1260, Jadawala Rd, Panchpatti, Dariyapur, Ahmedabad, Gujarat 380001","Panchpatti, Dariyapur","1260, Jadawala Rd",Ahmedabad,380001,Gujarat,IN,https://www.google.com/maps/place/Qazi+Ali+Masjid+%D9%82%D8%A7%D8%B6%DB%8C+%D8%B9%D9%84%DB%8C+%D9%85%D8%B3%D8%AC%D8%AF%E2%80%AD/data=!4m7!3m6!1s0x395e84378209d55b:0xde265905e05f76bf!8m2!3d23.0301277!4d72.5944911!16s%2Fg%2F11g9g_j0hq!19sChIJW9UJgjeEXjkRv3Zf4AVZJt4?authuser=0&hl=en&rclk=1,"23.030127699999998,72.5944911"
Masjid E Tajusshariah,Mosque,"XGJ7+8GG Masjid E Tajusshariah, Fatehwadi, Arshad Park, Juhapura, Ahmedabad, Gujarat 380055","Fatehwadi, Arshad Park, Juhapura",XGJ7+8GG,Ahmedabad,380055,Gujarat,IN,https://www.google.com/maps/place/Masjid+E+Tajusshariah/data=!4m7!3m6!1s0x395e9b142b1f3a65:0x9069d56496a2e663!8m2!3d22.9808129!4d72.5138274!16s%2Fg%2F11srcw2ql5!19sChIJZTofKxSbXjkRY-ailmTVaZA?authuser=0&hl=en&rclk=1,"22.9808129,72.5138274"
Amena Masjid amynh msjd aamenaa msjid,Mosque,"XGV9+59F Amena Masjid amynh msjd aamenaa msjid, Quresh Nagar Society, Juhapura, Ahmedabad, Gujarat 380051","Quresh Nagar Society, Juhapura",XGV9+59F,Ahmedabad,380051,Gujarat,IN,https://www.google.com/maps/place/Amena+Masjid+%D8%A2%D9%85%DB%8C%D9%86%DB%81+%D9%85%D8%B3%D8%AC%D8%AF+%E0%AA%86%E0%AA%AE%E0%AB%87%E0%AA%A8%E0%AA%BE+%E0%AA%AE%E0%AA%B8%E0%AB%8D%E0%AA%9C%E0%AA%BF%E0%AA%A6%E2%80%AD/data=!4m7!3m6!1s0x395e9b9f258264d3:0xc0e1c886ca7d2617!8m2!3d22.9929374!4d72.5184287!16s%2Fg%2F11gtbs1gd8!19sChIJ02SCJZ-bXjkRFyZ9yobI4cA?authuser=0&hl=en&rclk=1,"22.9929374,72.5184287"
Masjid-E-Hawwa,Mosque,"XGJ8+H5W Masjid-E-Hawwa, Fatehwadi, Arshad Park, Juhapura, Ahmedabad, Gujarat 380055","Fatehwadi, Arshad Park, Juhapura",XGJ8+H5W,Ahmedabad,380055,Gujarat,IN,https://www.google.com/maps/place/Masjid-E-Hawwa/data=!4m7!3m6!1s0x395e9ba719df0f6d:0x8e73326e23dde93!8m2!3d22.9814765!4d72.5154421!16s%2Fg%2F11p0ghl01g!19sChIJbQ_fGaebXjkRk9494iYz5wg?authuser=0&hl=en&rclk=1,"22.9814765,72.5154421"
Siddique Masjid,Mosque,"2G2H+4M6 Siddique Masjid, Saleem Nagar, Juhapura, Ahmedabad, Gujarat 380051","Saleem Nagar, Juhapura",2G2H+4M6,Ahmedabad,380051,Gujarat,IN,https://www.google.com/maps/place/Siddique+Masjid/data=!4m7!3m6!1s0x395e8590d52cdf4f:0x9b656b0744038927!8m2!3d23.0002777!4d72.5291503!16s%2Fg%2F11hdr13xx4!19sChIJT98s1ZCFXjkRJ4kDRAdrZZs?authuser=0&hl=en&rclk=1,"23.000277699999998,72.5291503"
SUNNI MASJID,Mosque,"XGJ8+RPR SUNNI MASJID, Fatehwadi, Arshad Park, Juhapura, Ahmedabad, Gujarat 380055","Fatehwadi, Arshad Park, Juhapura",XGJ8+RPR,Ahmedabad,380055,Gujarat,IN,https://www.google.com/maps/place/SUNNI+MASJID/data=!4m7!3m6!1s0x395e9b996f524d8d:0xd157d4666b93e3b2!8m2!3d22.9821163!4d72.516751!16s%2Fg%2F11fm49grjd!19sChIJjU1Sb5mbXjkRsuOTa2bUV9E?authuser=0&hl=en&rclk=1,"22.982116299999998,72.516751"
JUNED MASJID,Mosque,"XGC6+PP8 JUNED MASJID, Chaloda, Sarkhej-Okaf, Gujarat 380055",,XGC6+PP8,"Chaloda, Sarkhej-Okaf",380055,Gujarat,IN,https://www.google.com/maps/place/JUNED+MASJID/data=!4m7!3m6!1s0x395e9bef0122bbf5:0x4125ee37f227fbbc!8m2!3d22.9717876!4d72.5118263!16s%2Fg%2F11pv3mk0nq!19sChIJ9bsiAe-bXjkRvPsn8jfuJUE?authuser=0&hl=en&rclk=1,"22.9717876,72.5118263"
Masjid E Ali,Mosque,"XHRV+V54 Masjid E Ali, Chandola, Shah-E-Alam Roja, Ahmedabad, Gujarat 380028","Chandola, Shah-E-Alam Roja",XHRV+V54,Ahmedabad,380028,Gujarat,IN,https://www.google.com/maps/place/Masjid+E+Ali/data=!4m7!3m6!1s0x395e8550666bc34f:0x4a9c35c1afbbc20b!8m2!3d22.9917104!4d72.5925611!16s%2Fg%2F11rmt2q16v!19sChIJT8NrZlCFXjkRC8K7r8E1nEo?authuser=0&hl=en&rclk=1,"22.9917104,72.5925611"
MASJID E MOOSA,Mosque,"XGMC+C57 MASJID E MOOSA, Fatehwadi, Arshad Park, Juhapura, Ahmedabad, Gujarat 380055","Fatehwadi, Arshad Park, Juhapura",XGMC+C57,Ahmedabad,380055,Gujarat,IN,https://www.google.com/maps/place/MASJID+E+MOOSA/data=!4m7!3m6!1s0x395e9b9bad45e2cb:0x24848ffe119caa57!8m2!3d22.9833433!4d72.5198777!16s%2Fg%2F11smjd_d4h!19sChIJy-JFrZubXjkRV6qcEf6PhCQ?authuser=0&hl=en&rclk=1,"22.983343299999998,72.5198777"
Noor-E-Mohammadi Masjid(Nalsarovar Colony),Mosque,"Noor-E-Mohammadi Masjid(Nalsarovar Colony), Nalsarovar Colony, Sarkhej Rd, opp. Faruke Azam School, Fatehwadi, Juhapura, Ahmedabad, Gujarat 380055","Navrang Society, Fatehwadi, Arshad Park, Juhapura","Nalsarovar Colony, Sarkhej Rd, opp. Faruke Azam School",Ahmedabad,380055,Gujarat,IN,https://www.google.com/maps/place/Noor-E-Mohammadi+Masjid%28Nalsarovar+Colony%29/data=!4m7!3m6!1s0x395e9b0cc9b69f47:0xa85b873f8d5866ca!8m2!3d22.9880323!4d72.5176054!16s%2Fg%2F11h5vtghls!19sChIJR5-2yQybXjkRymZYjT-HW6g?authuser=0&hl=en&rclk=1,"22.9880323,72.5176054"
Masjid E Abdurrahman,Mosque,"XGG7+8W9 Masjid E Abdurrahman, fateh wadi kenal,sarkhez, near humera park, Ahmedabad, Gujarat 380055","Arshad Park, Juhapura","XGG7+8W9, fateh wadi kenal,sarkhez, near humera park","Ahmedabad, Chaloda",380055,Gujarat,IN,https://www.google.com/maps/place/Masjid+E+Abdurrahman/data=!4m7!3m6!1s0x395e9ba5f1386837:0xa82ac6b02616ae86!8m2!3d22.9757776!4d72.5148441!16s%2Fg%2F11gh6j120f!19sChIJN2g48aWbXjkRhq4WJrDGKqg?authuser=0&hl=en&rclk=1,"22.9757776,72.51484409999999"
Nur-e-Islam Ibadatgah,Mosque,"MHV5+7RW Nur-e-Islam Ibadatgah, Vejalpur, Gujarat 389340",,MHV5+7RW,Vejalpur,,Gujarat,IN,https://www.google.com/maps/place/Nur-e-Islam+Ibadatgah/data=!4m7!3m6!1s0x396085913d025947:0xa5dbc3b1e1dc23c2!8m2!3d22.6932383!4d73.5595763!16s%2Fg%2F11fb2wgz9z!19sChIJR1kCPZGFYDkRwiPc4bHD26U?authuser=0&hl=en&rclk=1,"22.693238299999997,73.5595763"
Masjid-E-Aqsha,Mosque,"Masjid-E-Aqsha, Fazle Rabbi Society, Royal Nawab Society, Juhapura, Ahmedabad, Gujarat 380055","Fazle Rabbi Society, Royal Nawab Society, Juhapura",,Ahmedabad,,Gujarat,IN,https://www.google.com/maps/place/Masjid-E-Aqsha/data=!4m7!3m6!1s0x395e8547fe774cc7:0x6d0f8e65e2c0a287!8m2!3d22.9883779!4d72.5320376!16s%2Fg%2F11hzwdpfbx!19sChIJx0x3_keFXjkRh6LA4mWOD20?authuser=0&hl=en&rclk=1,"22.9883779,72.5320376"
Masjid E Tajdar E Khatme Nabuwat,Mosque,"XGC5+3X8 Masjid E Tajdar E Khatme Nabuwat, Sarkhej-Okaf, Gujarat 380055",,XGC5+3X8,Sarkhej-Okaf,,Gujarat,IN,https://www.google.com/maps/place/Masjid+E+Tajdar+E+Khatme+Nabuwat/data=!4m7!3m6!1s0x395e9b5c61fc13b5:0xe4a1e9318797667f!8m2!3d22.9701712!4d72.5099464!16s%2Fg%2F11spdg3y0y!19sChIJtRP8YVybXjkRf2aXhzHpoeQ?authuser=0&hl=en&rclk=1,"22.9701712,72.50994639999999"
Sharifa Masjid shriiphaa msjid,Mosque,"XGXF+9P8 Sharifa Masjid shriiphaa msjid, Keshar Baugh Society, Saleem Nagar, Juhapura, Ahmedabad, Gujarat 380051","Garib Nawaz Society, Saleem Nagar, Juhapura","XGXF+9P8, Keshar Baugh Society",Ahmedabad,380051,Gujarat,IN,https://www.google.com/maps/place/Sharifa+Masjid+%E0%AA%B6%E0%AA%B0%E0%AB%80%E0%AA%AB%E0%AA%BE+%E0%AA%AE%E0%AA%B8%E0%AB%8D%E0%AA%9C%E0%AA%BF%E0%AA%A6/data=!4m7!3m6!1s0x395e853268b67e01:0x19023e71a0f5faec!8m2!3d22.998411!4d72.5243197!16s%2Fg%2F11hd6q5v80!19sChIJAX62aDKFXjkR7Pr1oHE-Ahk?authuser=0&hl=en&rclk=1,"22.998410999999997,72.52431969999999"
Masjid e fajle rabani,Mosque,"Masjid e fajle rabani, 22, Minesh Nagar Society, Quresh Nagar Society, Juhapura, Ahmedabad, Gujarat 380055","Minesh Nagar Society, Quresh Nagar Society, Juhapura",22,Ahmedabad,380055,Gujarat,IN,https://www.google.com/maps/place/Masjid+e+fajle+rabani/data=!4m7!3m6!1s0x395e9beed15ccd1d:0xe09a6c38e0a56e9b!8m2!3d22.9942533!4d72.5201471!16s%2Fg%2F11kyltb28k!19sChIJHc1c0e6bXjkRm26l4DhsmuA?authuser=0&hl=en&rclk=1,"22.9942533,72.5201471"
Al Saiyed Masjid,Mosque,"XGWM+WFQ Al Saiyed Masjid, I-Word Rd, Sanklit Nagar, Juhapura, Ahmedabad, Gujarat 380055","Sanklit Nagar, Juhapura","XGWM+WFQ, I-Word Rd",Ahmedabad,380055,Gujarat,IN,https://www.google.com/maps/place/Al+Saiyed+Masjid/data=!4m7!3m6!1s0x395e85637510335b:0xe38276bc8b40b2e6!8m2!3d22.9973342!4d72.5337193!16s%2Fg%2F11rvh0k4c5!19sChIJWzMQdWOFXjkR5rJAi7x2guM?authuser=0&hl=en&rclk=1,"22.997334199999997,72.5337193"
Masjide rukaiyya,Mosque,"Masjide rukaiyya, Amber tower, Fatehwadi, Arshad Park, Juhapura, Ahmedabad, Gujarat 380055","Fatehwadi, Arshad Park, Juhapura",Amber tower,Ahmedabad,380055,Gujarat,IN,https://www.google.com/maps/place/Masjide+rukaiyya/data=!4m7!3m6!1s0x395e9bb18a840d15:0xe0b8f6b3cd082f92!8m2!3d22.9806279!4d72.5149933!16s%2Fg%2F11rvhv4nn1!19sChIJFQ2EirGbXjkRki8IzbP2uOA?authuser=0&hl=en&rclk=1,"22.980627899999998,72.5149933"
Madina masjid,Mosque,"XGR5+3GX Madina masjid, Makarba, Ahmedabad, Gujarat 380051",Makarba,XGR5+3GX,Ahmedabad,380051,Gujarat,IN,https://www.google.com/maps/place/Madina+masjid/data=!4m7!3m6!1s0x395e9b46f09d3f03:0xd8fa87614e35827f!8m2!3d22.9902303!4d72.5088633!16s%2Fg%2F11k4wks819!19sChIJAz-d8EabXjkRf4I1TmGH-tg?authuser=0&hl=en&rclk=1,"22.9902303,72.5088633"
Masjid-e-Rahmaniya,Mosque,"MHQ7+W3M Masjid-e-Rahmaniya, Nana mohallah, Mochiwad, Vejalpur",,"MHQ7+W3M, Nana mohallah, Mochiwad",Vejalpur,,Gujarat,IN,https://www.google.com/maps/place/Masjid-e-Rahmaniya/data=!4m7!3m6!1s0x3960855f3cd2076d:0xf7f70baf51ca8e0d!8m2!3d22.6898334!4d73.5626805!16s%2Fg%2F11rnqhdf3c!19sChIJbQfSPF-FYDkRDY7KUa8L9_c?authuser=0&hl=en&rclk=1,"22.689833399999998,73.5626805"
Masjid e Noor,Mosque,"Masjid e Noor, Ice Factory Rd, opp. Al Hamd House , near Fazle Rabbi Society, Unit Hills Society, Rehnuma Society, Juhapura, Ahmedabad, Gujarat 380055","Unit Hills Society, Rehnuma Society, Juhapura","Masjid e Noor, Ice Factory Rd, opp. Al Hamd House , near Fazle Rabbi Society",Ahmedabad,380055,Gujarat,IN,https://www.google.com/maps/place/Masjid+e+Noor/data=!4m7!3m6!1s0x395e8552324a6611:0x881f7ed8bc5d2b2f!8m2!3d22.9902225!4d72.5328526!16s%2Fg%2F11mqk412kj!19sChIJEWZKMlKFXjkRLytdvNh-H4g?authuser=0&hl=en&rclk=1,"22.990222499999998,72.5328526"
Hazrat Bilal ra Masjid,Mosque,"Hazrat Bilal ra Masjid, C-6, Juhapura, Ahmedabad, Gujarat 380055",Juhapura,C-6,Ahmedabad,380055,Gujarat,IN,https://www.google.com/maps/place/Hazrat+Bilal+ra+Masjid/data=!4m7!3m6!1s0x395e85e6740ee117:0xfa9448c959817862!8m2!3d22.9955116!4d72.5281595!16s%2Fg%2F11trtc6qtx!19sChIJF-EOdOaFXjkRYniBWclIlPo?authuser=0&hl=en&rclk=1,"22.9955116,72.5281595"
Abdul Masjid,Mosque,"XGRJ+JR5 Abdul Masjid, Sunrise Park Society, Rehnuma Society, Royal Nawab Society, Juhapura, Ahmedabad, Gujarat 380055","Sunrise Park Society, Rehnuma Society, Royal Nawab Society, Juhapura",XGRJ+JR5,Ahmedabad,380055,Gujarat,IN,https://www.google.com/maps/place/Abdul+Masjid/data=!4m7!3m6!1s0x395e853780d70d85:0x7d58902cc530ef94!8m2!3d22.9915243!4d72.5321241!16s%2Fg%2F11b5phy9rc!19sChIJhQ3XgDeFXjkRlO8wxSyQWH0?authuser=0&hl=en&rclk=1,"22.9915243,72.53212409999999"
Aqsa Masjid,Mosque,"XGG7+P3J Aqsa Masjid, Arshad Park, Juhapura, Ahmedabad, Chaloda, Gujarat 380055","Arshad Park, Juhapura",XGG7+P3J,"Ahmedabad, Chaloda",380055,Gujarat,IN,https://www.google.com/maps/place/Aqsa+Masjid/data=!4m7!3m6!1s0x395e9b255d17e303:0x375509b1794dccf6!8m2!3d22.9768303!4d72.5126407!16s%2Fg%2F11np8vgzpg!19sChIJA-MXXSWbXjkR9sxNebEJVTc?authuser=0&hl=en&rclk=1,"22.9768303,72.51264069999999"
Jama Musjid,Mosque,"552, Jama Musjid, khawajanagar, 100 ft ring road behind canal, 1, Sarkhej ITI Rd, Navi Fatehvadi Village, Juhapura, Ahmedabad, Gujarat 380055","Navi Fatehvadi Village, Juhapura","552, khawajanagar, 100 ft ring road behind canal, 1, Sarkhej ITI Rd","Ahmedabad, Sarkhej-Okaf",380055,Gujarat,IN,https://www.google.com/maps/place/Jama+Musjid/data=!4m7!3m6!1s0x395e9b791125c919:0x2b4a03d1e76dbd9f!8m2!3d22.9729078!4d72.5138231!16s%2Fg%2F11j8kf7by_!19sChIJGcklEXmbXjkRn71t59EDSis?authuser=0&hl=en&rclk=1,"22.972907799999998,72.5138231"
Gulliwala Madrasa And Masjid,Mosque,"XGWJ+54W Gulliwala Madrasa And Masjid, 1st St, Sham-e-Burhan Society, Sanklit Nagar, Juhapura, Ahmedabad, Gujarat 382210","Sham-e-Burhan Society, Sanklit Nagar, Juhapura","XGWJ+54W, 1st St",Ahmedabad,382210,Gujarat,IN,https://www.google.com/maps/place/Gulliwala+Madrasa+And+Masjid/data=!4m7!3m6!1s0x395e9ac79151f59b:0xeae11f069ff13d5f!8m2!3d22.9954856!4d72.5303374!16s%2Fg%2F11j8k956hj!19sChIJm_VRkceaXjkRXz3xnwYf4eo?authuser=0&hl=en&rclk=1,"22.9954856,72.5303374"
Madrasa,Mosque,"XGW9+7W8 Madrasa, Jivraj Vejalpur Rd, Teacher's Society, Quresh Nagar Society, Juhapura, Ahmedabad, Gujarat 380055","Teacher's Society, Quresh Nagar Society, Juhapura","XGW9+7W8, Jivraj Vejalpur Rd",Ahmedabad,,Gujarat,IN,https://www.google.com/maps/place/Madrasa/data=!4m7!3m6!1s0x395e9bc599deb9ad:0xca6d5017293eed02!8m2!3d22.9956702!4d72.5198417!16s%2Fg%2F11q5844b0h!19sChIJrbnemcWbXjkRAu0-KRdQbco?authuser=0&hl=en&rclk=1,"22.9956702,72.5198417"
Mehrufazal masjid,Mosque,"Mehrufazal masjid, 34, faiz e mohammadi park, opp. prachina, socity, Juhapura, Ahmedabad, Gujarat 380055","socity, Juhapura","34, faiz e mohammadi park, opp. prachina",Ahmedabad,380055,Gujarat,IN,https://www.google.com/maps/place/Mehrufazal+masjid/data=!4m7!3m6!1s0x395e85927b38b6bd:0xeb2ac92a07db465a!8m2!3d22.9863128!4d72.52686!16s%2Fg%2F11r7xpcmqg!19sChIJvbY4e5KFXjkRWkbbByrJKus?authuser=0&hl=en&rclk=1,"22.9863128,72.52686"
Masjid-E-yusuf,Mosque,"XGH8+6F5 Masjid-E-yusuf, Arshad Park, Juhapura, Chaloda, Gujarat 380055","Arshad Park, Juhapura",XGH8+6F5,Chaloda,380055,Gujarat,IN,https://www.google.com/maps/place/Masjid-E-yusuf/data=!4m7!3m6!1s0x395e9bcaab8594a7:0xf482928dcefbde25!8m2!3d22.9780152!4d72.5162285!16s%2Fg%2F11pf1_ks6f!19sChIJp5SFq8qbXjkRJd77zo2SgvQ?authuser=0&hl=en&rclk=1,"22.978015199999998,72.5162285"
Kuba Masjid,Mosque,"XGH8+JVV Kuba Masjid, Arshad Park, Juhapura, Ahmedabad, Chaloda, Gujarat 380055","Arshad Park, Juhapura",XGH8+JVV,"Ahmedabad, Chaloda",380055,Gujarat,IN,https://www.google.com/maps/place/Kuba+Masjid/data=!4m7!3m6!1s0x395e9b35ef6914fb:0xa297375a71005712!8m2!3d22.9791043!4d72.517186!16s%2Fg%2F11t9lmtbh1!19sChIJ-xRp7zWbXjkRElcAcVo3l6I?authuser=0&hl=en&rclk=1,"22.9791043,72.517186"
Fatima Residency,Mosque,"Fatima Residency, 100 foot ring road, Kenal Road, Arshad Park, Juhapura, Ahmedabad, Gujarat 380055","Arshad Park, Juhapura","100 foot ring road, Kenal Road",Ahmedabad,,Gujarat,IN,https://www.google.com/maps/place/Fatima+Residency/data=!4m7!3m6!1s0x395e9beedd0c5e15:0xc7ea6ca27ebd2271!8m2!3d22.9799347!4d72.5185627!16s%2Fg%2F11jz1vslgr!19sChIJFV4M3e6bXjkRcSK9fqJs6sc?authuser=0&hl=en&rclk=1,"22.979934699999998,72.51856269999999"
