name,main_category,address,address_ward,address_street,address_city,address_postal_code,address_state,address_country_code,link,coordinates
Masjid Mujeeb Bagh,Mosque,"H74R+R4J Masjid Mujeeb Bagh, Mujeeb Bagh, Jamia Nagar, Okhla, New Delhi, Delhi 110025","Mujeeb Bagh, Jamia Nagar, Okhla",H74R+R4J,New Delhi,110025,Delhi,IN,https://www.google.com/maps/place/Masjid+Mujeeb+Bagh/data=!4m7!3m6!1s0x390ce40bc79e1ce9:0x18ab01f5fdcf10b3!8m2!3d28.5570856!4d77.2902574!16s%2Fg%2F11hbvrlrnj!19sChIJ6RyexwvkDDkRsxDP_fUBqxg?authuser=0&hl=en&rclk=1,"28.557085599999997,77.2902574"
Hari Masjid - hry msjd,Mosque,"Hari Masjid - hry msjd, S5, Rajguru Marg, Chuna Mandi, Paharganj, New Delhi, Delhi 110055","Bazar Sangatrashan, Chuna Mandi, Paharganj","S5, Rajguru Marg",New Delhi,110055,Delhi,IN,https://www.google.com/maps/place/Hari+Masjid+-+%DB%81%D8%B1%DB%8C+%D9%85%D8%B3%D8%AC%D8%AF%E2%80%AD/data=!4m7!3m6!1s0x390cfd420fb3ca0d:0xb47391289f663fde!8m2!3d28.6451083!4d77.2107922!16s%2Fg%2F12ml2wx8n!19sChIJDcqzD0L9DDkR3j9mnyiRc7Q?authuser=0&hl=en&rclk=1,"28.6451083,77.2107922"
Noorani Masjid,Mosque,"Noorani Masjid, 204, Sultanpur, New Delhi, Delhi 110030",Sultanpur,204,New Delhi,110030,Delhi,IN,https://www.google.com/maps/place/Noorani+Masjid/data=!4m7!3m6!1s0x390d1e4551a7abdf:0x537a2e081ba4c18c!8m2!3d28.4911875!4d77.1591791!16s%2Fg%2F11ckqn8fzb!19sChIJ36unUUUeDTkRjMGkGwguelM?authuser=0&hl=en&rclk=1,"28.4911875,77.1591791"
Dibiya wali Masjid,Mosque,"G54H+M78 Dibiya wali Masjid, Mehrauli-Gurgaon Road, M G Road, Dr Ambedkar Colony, Chhatarpur, New Delhi, Delhi 110030","Dr Ambedkar Colony, Chhatarpur","G54H+M78, Mehrauli-Gurgaon Road, M G Road",New Delhi,110030,Delhi,IN,https://www.google.com/maps/place/Dibiya+wali+Masjid/data=!4m7!3m6!1s0x390d1e16e71c9d4d:0x176d7f6163772932!8m2!3d28.5091206!4d77.1796709!16s%2Fg%2F119w0d7q4!19sChIJTZ0c5xYeDTkRMil3Y2F_bRc?authuser=0&hl=en&rclk=1,"28.5091206,77.17967089999999"
Madina Masjid msjd mdynh,Mosque,"G5F3+86X Madina Masjid msjd mdynh, Pocket 5, Sector D, Vasant Kunj, New Delhi, Delhi 110070","Pocket 5, Sector D, Vasant Kunj",G5F3+86X,New Delhi,110070,Delhi,IN,https://www.google.com/maps/place/Madina+Masjid+%D9%85%D8%B3%D8%AC%D8%AF+%D9%85%D8%AF%DB%8C%D9%86%DB%81%E2%80%AD/data=!4m7!3m6!1s0x390d1e7f3ce8a9cf:0xb481f0aa48b311f9!8m2!3d28.5233679!4d77.1530999!16s%2Fg%2F11g8fn63n6!19sChIJz6noPH8eDTkR-RGzSKrwgbQ?authuser=0&hl=en&rclk=1,"28.5233679,77.1530999"
Masjid Alishan `lyshn msjd,Mosque,"H74P+4C2 Masjid Alishan `lyshn msjd, Ajmal Bagh, Noor Nagar Extn I, Noor Nagar, Okhla, New Delhi, Delhi 110025","Ajmal Bagh, Noor Nagar Extn I, Noor Nagar, Okhla",H74P+4C2,New Delhi,110025,Delhi,IN,https://www.google.com/maps/place/Masjid+Alishan+%D8%B9%D8%A7%D9%84%DB%8C%D8%B4%D8%A7%D9%86+%D9%85%D8%B3%D8%AC%D8%AF%E2%80%AD/data=!4m7!3m6!1s0x390ce3f602454533:0xcfc3736868fe546a!8m2!3d28.5552743!4d77.2860168!16s%2Fg%2F1ptvvnp64!19sChIJM0VFAvbjDDkRalT-aGhzw88?authuser=0&hl=en&rclk=1,"28.555274299999997,77.2860168"
Jama masjid,Mosque,"Jama masjid, Metro station, Giri Nagar, Maa Anandmayee Marg, near Govindpuri, Kalkaji, New Delhi, Delhi 110019","Ami Chand Khand, Block AC, Giri Nagar, Kalkaji","Metro station, Giri Nagar, Maa Anandmayee Marg, near Govindpuri",New Delhi,110019,Delhi,IN,https://www.google.com/maps/place/Jama+masjid/data=!4m7!3m6!1s0x390ce3915ddf4023:0xc0785bd0f9e63fa0!8m2!3d28.5435534!4d77.2644385!16s%2Fg%2F11fj32cs9z!19sChIJI0DfXZHjDDkRoD_m-dBbeMA?authuser=0&hl=en&rclk=1,"28.5435534,77.2644385"
Ahle Sunnat wal jamaat RazaeMuhammadi Masjid,Mosque,"J6X8+JC2 Ahle Sunnat wal jamaat RazaeMuhammadi Masjid, Aram Nagar, Paharganj, New Delhi, Delhi 110055","Aram Nagar, Paharganj",J6X8+JC2,New Delhi,110055,Delhi,IN,https://www.google.com/maps/place/Ahle+Sunnat+wal+jamaat+RazaeMuhammadi+Masjid/data=!4m7!3m6!1s0x390cfd6b1c55570b:0xb6cbdaabca9cc6b2!8m2!3d28.6490022!4d77.2160178!16s%2Fg%2F11g6mj_5x9!19sChIJC1dVHGv9DDkRssacyqvay7Y?authuser=0&hl=en&rclk=1,"28.649002199999998,77.2160178"
Inayati Masjid,Mosque,"a132, Inayati Masjid, A132, Pocket A, Mayur Vihar Phase II, Patparganj, New Delhi, Delhi, 110091","Pocket A, Mayur Vihar Phase II, Patparganj","a132, A132","New Delhi, Delhi",110091,Delhi,IN,https://www.google.com/maps/place/Inayati+Masjid/data=!4m7!3m6!1s0x390ce4bb25f8c36f:0xa0d251b5e9230397!8m2!3d28.6162024!4d77.2992068!16s%2Fg%2F11b7gmcs_f!19sChIJb8P4JbvkDDkRlwMj6bVR0qA?authuser=0&hl=en&rclk=1,"28.6162024,77.2992068"
Noorani Masjid,Mosque,"F59M+H46 Noorani Masjid, Chandan Hola, New Delhi, Delhi 110074",Chandan Hola,F59M+H46,New Delhi,110074,Delhi,IN,https://www.google.com/maps/place/Noorani+Masjid/data=!4m7!3m6!1s0x390d1fc532333ee3:0x8f9790e5b736649b!8m2!3d28.4689233!4d77.1827702!16s%2Fg%2F11b7hpcszy!19sChIJ4z4zMsUfDTkRm2Q2t-WQl48?authuser=0&hl=en&rclk=1,"28.4689233,77.1827702"
MASJID AMROOD WALI,Mosque,"MASJID AMROOD WALI, Bulbuli khana, near kala masjid, Turkman Gate, Old Delhi, New Delhi, Delhi, 110006","Turkman Gate, Old Delhi","Bulbuli khana, near kala masjid","New Delhi, Delhi",110006,Delhi,IN,https://www.google.com/maps/place/MASJID+AMROOD+WALI/data=!4m7!3m6!1s0x390cfd22f0eb7eef:0xc91420f046ba3b88!8m2!3d28.6410797!4d77.2337194!16s%2Fg%2F11d_x09zhj!19sChIJ737r8CL9DDkRiDu6RvAgFMk?authuser=0&hl=en&rclk=1,"28.6410797,77.2337194"
MASJID,Mosque,"MASJID, Wz 173a/1 new ranjeet nagar, Guru Nanak Nagar, Shadipur, Delhi 110008","Guru Nanak Nagar, Shadipur",Wz 173a/1 new ranjeet nagar,New Delhi,110008,Delhi,IN,https://www.google.com/maps/place/MASJID/data=!4m7!3m6!1s0x390d0327bb6f6129:0xe8342be2eca63326!8m2!3d28.6456917!4d77.1597324!16s%2Fg%2F11h5lkhmc2!19sChIJKWFvuycDDTkRJjOm7OIrNOg?authuser=0&hl=en&rclk=1,"28.6456917,77.1597324"
Masjid Jamun Wali,Mosque,"Masjid Jamun Wali, Jamun Street, Kalan Mahal Rd, Kalan Mahal, Daryaganj, Delhi, 110002","Kalan Mahal, Daryaganj","Jamun Street, Kalan Mahal Rd",Delhi,110002,Delhi,IN,https://www.google.com/maps/place/Masjid+Jamun+Wali/data=!4m7!3m6!1s0x390cfd21e86c6d67:0xebc83db6fbea62a8!8m2!3d28.6473277!4d77.2360868!16s%2Fg%2F11g6qh_snj!19sChIJZ21s6CH9DDkRqGLq-7Y9yOs?authuser=0&hl=en&rclk=1,"28.647327699999998,77.2360868"
Masjid Dhobiyan,Mosque,"Masjid Dhobiyan, 3280, Delhi Gate Bazar, Kucha Alam, Old Dariya Ganj, New Delhi, Delhi 110002","Chatta lal Miya, Chandni Mahal, Old Delhi","3280, Delhi Gate Bazar, Kucha Alam, Old Dariya Ganj","New Delhi, Delhi",110002,Delhi,IN,https://www.google.com/maps/place/Masjid+Dhobiyan/data=!4m7!3m6!1s0x390cfd273340d127:0x7d6d2edf4a35f8d9!8m2!3d28.6425263!4d77.2386389!16s%2Fg%2F11cs5s2vzb!19sChIJJ9FAMyf9DDkR2fg1St8ubX0?authuser=0&hl=en&rclk=1,"28.6425263,77.2386389"
Masjid Abdul Ghani (Connaught Place) Advocate Feroz Khan Ghazi,Mosque,"Masjid Abdul Ghani (Connaught Place) Advocate Feroz Khan Ghazi, 23 A, Chelmsford Rd, Railway Colony, Paharganj, New Delhi, Delhi 110055","Railway Colony, Paharganj","23 A, Chelmsford Rd",New Delhi,110055,Delhi,IN,https://www.google.com/maps/place/Masjid+Abdul+Ghani+%28Connaught+Place%29+Advocate+Feroz+Khan+Ghazi/data=!4m7!3m6!1s0x390cfd3870115457:0x6ea3f798cfa92403!8m2!3d28.6368217!4d77.2181646!16s%2Fg%2F1hm35b78b!19sChIJV1QRcDj9DDkRAySpz5j3o24?authuser=0&hl=en&rclk=1,"28.6368217,77.2181646"
"MOsque, Adhichini msjd",Mosque,"G5QW+9W4 MOsque, Adhichini msjd, Sri Aurobindo Marg, Adchini, Adhchini Village, Adchini, New Delhi, Delhi 110016","Adchini, Adhchini Village, Adchini","G5QW+9W4, Sri Aurobindo Marg",New Delhi,110016,Delhi,IN,"https://www.google.com/maps/place/MOsque,+Adhichini+%D9%85%D8%B3%D8%AC%D8%AF%E2%80%AD/data=!4m7!3m6!1s0x390ce206fa4ab215:0xd8dd5b48102a18ee!8m2!3d28.5383861!4d77.1973319!16s%2Fg%2F124yj8n65!19sChIJFbJK-gbiDDkR7hgqEEhb3dg?authuser=0&hl=en&rclk=1","28.5383861,77.1973319"
Masjid Amaniya Jamalu ka Bagh msjd mnyh jmlw kh bG,Mosque,"Masjid Amaniya Jamalu ka Bagh msjd mnyh jmlw kh bG, Main, Maujpur Rd, Shahdara, Delhi, 110053",Shahdara,"Main, Maujpur Rd",Delhi,110053,Delhi,IN,https://www.google.com/maps/place/Masjid+Amaniya+Jamalu+ka+Bagh+%D9%85%D8%B3%D8%AC%D8%AF+%D8%A7%D9%85%D8%A7%D9%86%DB%8C%DB%81+%D8%AC%D9%85%D8%A7%D9%84%D9%88+%DA%A9%D8%A7+%D8%A8%D8%A7%D8%BA%E2%80%AD/data=!4m7!3m6!1s0x390cfc7abcd4bae7:0xe8588606af183e3c!8m2!3d28.6855897!4d77.2762341!16s%2Fg%2F11bxdtk5g1!19sChIJ57rUvHr8DDkRPD4YrwaGWOg?authuser=0&hl=en&rclk=1,"28.685589699999998,77.2762341"
MASJID (Aram park ) msjd arm prkh,Mosque,"Shop No-97, MASJID (Aram park ) msjd arm prkh, Sarojini Park, Shastri Nagar, Geeta Colony, New Delhi, Delhi 110031","Shastri Nagar, Geeta Colony","Shop No-97, Sarojini Park","New Delhi, Delhi",110031,Delhi,IN,https://www.google.com/maps/place/MASJID+%28Aram+park+%29+%D9%85%D8%B3%D8%AC%D8%AF+%D8%A2%D8%B1%D8%A7%D9%85+%D9%BE%D8%A7%D8%B1%DA%A9%E2%80%AD/data=!4m7!3m6!1s0x390cfca5ad5ea739:0x5eee56b2e4485484!8m2!3d28.6434642!4d77.2785658!16s%2Fg%2F11gfnjwk83!19sChIJOaderaX8DDkRhFRI5LJW7l4?authuser=0&hl=en&rclk=1,"28.6434642,77.2785658"
Ata E Rasool Masjid,Mosque,"P744+V55 Ata E Rasool Masjid, Shriram Colony, Block A, Rajiv Nagar, Sonia Vihar, Delhi, 110094","Shriram Colony, Block A, Rajiv Nagar, Sonia Vihar",P744+V55,Delhi,110094,Delhi,IN,https://www.google.com/maps/place/Ata+E+Rasool+Masjid/data=!4m7!3m6!1s0x390cfc3b2d10341f:0xd365e06455e65096!8m2!3d28.7071349!4d77.2554772!16s%2Fg%2F11dxrw2d2x!19sChIJHzQQLTv8DDkRllDmVWTgZdM?authuser=0&hl=en&rclk=1,"28.7071349,77.2554772"
Masjid-e-Anjum,Mosque,"Masjid-e-Anjum, Indira Gandhi Camp Part 2, New Friends Colony, New Delhi, Delhi 110065","Block A, Taimoor Nagar, New Friends Colony","Indira Gandhi Camp Part 2, New Friends Colony",New Delhi,110065,Delhi,IN,https://www.google.com/maps/place/Masjid-e-Anjum/data=!4m7!3m6!1s0x390ce39a2cbe5dad:0x263099a5cc320902!8m2!3d28.573773!4d77.2696933!16s%2Fg%2F11ckkxbn_t!19sChIJrV2-LJrjDDkRAgkyzKWZMCY?authuser=0&hl=en&rclk=1,"28.573773,77.2696933"
Masjid Rehel Wali,Mosque,"Masjid Rehel Wali, 1138, Matia Mahal Rd, Manohar Market, Jama Masjid, Old Delhi, New Delhi, Delhi, 110006","Manohar Market, Jama Masjid, Old Delhi","1138, Matia Mahal Rd","New Delhi, Delhi",110006,Delhi,IN,https://www.google.com/maps/place/Masjid+Rehel+Wali/data=!4m7!3m6!1s0x390cfd2209bda88f:0xf6c2b99a4522250f!8m2!3d28.6477449!4d77.2337881!16s%2Fg%2F11cs22c5d9!19sChIJj6i9CSL9DDkRDyUiRZq5wvY?authuser=0&hl=en&rclk=1,"28.6477449,77.2337881"
Masjid Badi msjd,Mosque,"Masjid Badi msjd, 893,, Chittli Qabar Bazar Rd, Jama Masjid, Chandni Chowk, New Delhi, Delhi 110006","Bazar Chitli Qabar, Kucha Chelan, Jama Masjid, Chandni Chowk","893,, Chittli Qabar Bazar Rd","New Delhi, Delhi",110006,Delhi,IN,https://www.google.com/maps/place/Masjid+Badi+%D9%85%D8%B3%D8%AC%D8%AF%E2%80%AD/data=!4m7!3m6!1s0x390cfd219cfec1f3:0x93ccacb281d71709!8m2!3d28.645321!4d77.2357133!16s%2Fg%2F12m98gjn5!19sChIJ88H-nCH9DDkRCRfXgbKszJM?authuser=0&hl=en&rclk=1,"28.645321,77.2357133"
Masjid Chaman Wali,Mosque,"J6VQ+35F Masjid Chaman Wali, Chatta Lal Main Rd, Chatta lal Miya, Chandni Mahal, Old Delhi, New Delhi, Delhi, 110006","Chatta lal Miya, Chandni Mahal, Old Delhi","J6VQ+35F, Chatta Lal Main Rd","New Delhi, Delhi",110006,Delhi,IN,https://www.google.com/maps/place/Masjid+Chaman+Wali/data=!4m7!3m6!1s0x390cfd20d48b3cf5:0x916e89198649cad7!8m2!3d28.6426911!4d77.2379154!16s%2Fg%2F11dylqpy8c!19sChIJ9TyL1CD9DDkR18pJhhmJbpE?authuser=0&hl=en&rclk=1,"28.6426911,77.23791539999999"
Mosque,Mosque,"Mosque, C-194, Industrial Area Phase I, Block C, Naraina Industrial Area Phase 1, Naraina, New Delhi, Delhi 110028","Industrial Area Phase I, Block C, Naraina Industrial Area Phase 1, Naraina",C-194,New Delhi,110028,Delhi,IN,https://www.google.com/maps/place/Mosque/data=!4m7!3m6!1s0x390d03e44e562277:0xcc16aa56e8c113fd!8m2!3d28.6307669!4d77.137273!16s%2Fg%2F11gl13ryh3!19sChIJdyJWTuQDDTkR_RPB6FaqFsw?authuser=0&hl=en&rclk=1,"28.630766899999998,77.137273"
Masjid msjd,Mosque,"H6VX+34H Masjid msjd, Nizamuddin, Nizamuddin East, New Delhi, Delhi 110013","Nizamuddin, Nizamuddin East",H6VX+34H,New Delhi,110013,Delhi,IN,https://www.google.com/maps/place/Masjid+%D9%85%D8%B3%D8%AC%D8%AF%E2%80%AD/data=!4m7!3m6!1s0x390ce31b384dab99:0x1853a43e8d3f0e37!8m2!3d28.592699!4d77.247867!16s%2Fg%2F11g6vgsy16!19sChIJmatNOBvjDDkRNw4_jT6kUxg?authuser=0&hl=en&rclk=1,"28.592699,77.247867"
Masjid,Mosque,"H769+P87 Masjid, Block A, Friends Colony East, New Friends Colony, New Delhi, Delhi 110025","Block A, Friends Colony East, New Friends Colony",H769+P87,New Delhi,110025,Delhi,IN,https://www.google.com/maps/place/Masjid/data=!4m7!3m6!1s0x390ce3a3874c1a6d:0x3777b5148e43553a!8m2!3d28.5617917!4d77.2683072!16s%2Fg%2F11grc87l61!19sChIJbRpMh6PjDDkROlVDjhS1dzc?authuser=0&hl=en&rclk=1,"28.561791699999997,77.2683072"
Masjid E Umar,Mosque,"M3P6+W5W Masjid E Umar, Nomadic Banjara Community, Railway Colony, Prem Nagar II, Prem Nagar, Delhi, 110086","Nomadic Banjara Community, Railway Colony, Prem Nagar II, Prem Nagar",M3P6+W5W,Delhi,110086,Delhi,IN,https://www.google.com/maps/place/Masjid+E+Umar/data=!4m7!3m6!1s0x390d04326bc31b0f:0xa6e2b96d7dadb38d!8m2!3d28.6873504!4d77.0604564!16s%2Fg%2F11g9npm5_d!19sChIJDxvDazIEDTkRjbOtfW254qY?authuser=0&hl=en&rclk=1,"28.6873504,77.06045639999999"
Ramzania Masjid,Mosque,"M7G8+H3W Ramzania Masjid, Phase 1, Block J, Shahdara, Delhi, 110053","Phase 1, Block J, Shahdara",M7G8+H3W,Delhi,110053,Delhi,IN,https://www.google.com/maps/place/Ramzania+Masjid/data=!4m7!3m6!1s0x390cfc605f1fc6dd:0x8e4ff1e8c957f8c9!8m2!3d28.6764861!4d77.2652025!16s%2Fg%2F11dxrtb5q8!19sChIJ3cYfX2D8DDkRyfhXyejxT44?authuser=0&hl=en&rclk=1,"28.676486099999998,77.2652025"
Minara Masjid,Mosque,"Q78H+MC7 Minara Masjid, Ghaziabad, Uttar Pradesh 201102",,Q78H+MC7,Ghaziabad,,Uttar Pradesh,IN,https://www.google.com/maps/place/Minara+Masjid/data=!4m7!3m6!1s0x390cfed628f5c28f:0x6c63711d6c363dd6!8m2!3d28.7666689!4d77.2785548!16s%2Fg%2F11hbc20ck7!19sChIJj8L1KNb-DDkR1j02bB1xY2w?authuser=0&hl=en&rclk=1,"28.7666689,77.2785548"
Masjid Al Firdous,Mosque,"H6WR+56G Masjid Al Firdous, Delhi Golf Club, Golf Links, New Delhi, Delhi 110003","Delhi Golf Club, Golf Links",H6WR+56G,New Delhi,110003,Delhi,IN,https://www.google.com/maps/place/Masjid+Al+Firdous/data=!4m7!3m6!1s0x390ce31d8aba7277:0xdaa66bdae288c0a1!8m2!3d28.595438!4d77.2405761!16s%2Fg%2F11c6snq8n9!19sChIJd3K6ih3jDDkRocCI4tprpto?authuser=0&hl=en&rclk=1,"28.595437999999998,77.2405761"
Jahtari Wali Masjid,Mosque,"Jahtari Wali Masjid, 5077, Main Bazar Rd, Bharat Nagar, Main Bazar, Aram Bagh, Paharganj, New Delhi, Delhi 110055","Bharat Nagar, Main Bazar, Aram Bagh, Paharganj","5077, Main Bazar Rd",New Delhi,110055,Delhi,IN,https://www.google.com/maps/place/Jahtari+Wali+Masjid/data=!4m7!3m6!1s0x390cfd815a030b8b:0xe18350aa13859d7a!8m2!3d28.6406795!4d77.2115511!16s%2Fg%2F11gjxtbc0j!19sChIJiwsDWoH9DDkRep2FE6pQg-E?authuser=0&hl=en&rclk=1,"28.640679499999997,77.2115511"
Masjid annoor Jahan,Mosque,"H78J+HQ5 Masjid annoor Jahan, Street Number 2, Mehboob Nagar, Jogabai Extension, Okhla, New Delhi, Delhi 110025","Mehboob Nagar, Jogabai Extension, Okhla","H78J+HQ5, Street Number 2",New Delhi,110025,Delhi,IN,https://www.google.com/maps/place/Masjid+annoor+Jahan/data=!4m7!3m6!1s0x390ce38edd294515:0xf9f6a26d69a9d112!8m2!3d28.5663801!4d77.2819754!16s%2Fg%2F11g6rd5s7t!19sChIJFUUp3Y7jDDkREtGpaW2i9vk?authuser=0&hl=en&rclk=1,"28.5663801,77.2819754"
masjid alshirin,Mosque,"P742+XW3 masjid alshirin, Aurangzeb Rd, Shriram Colony, Block C, Rajiv Nagar, Khazoori Khas, Delhi, 110094","Shriram Colony, Block C, Rajiv Nagar, Khazoori Khas","P742+XW3, Aurangzeb Rd",Delhi,110094,Delhi,IN,https://www.google.com/maps/place/masjid+alshirin/data=!4m7!3m6!1s0x390cfda8e0df6f63:0xda4e08b680a09e45!8m2!3d28.7073834!4d77.2523086!16s%2Fg%2F11gxgrx95b!19sChIJY2_f4Kj9DDkRRZ6ggLYITto?authuser=0&hl=en&rclk=1,"28.707383399999998,77.25230859999999"
Masjid Sanauji,Mosque,"Masjid Sanauji, Shop No. 1630, Lal Kuan, Lalkuan Bazar Rd, Baradari, Chandni Chowk, New Delhi, Delhi 110006","Bazar Sirkiwalan, Baradari, Chandni Chowk","Shop No. 1630, Lal Kuan, Lalkuan Bazar Rd","New Delhi, Delhi",110006,Delhi,IN,https://www.google.com/maps/place/Masjid+Sanauji/data=!4m7!3m6!1s0x390cfd13fe3ea72d:0x27ea23bc5f650202!8m2!3d28.6529317!4d77.2232485!16s%2Fg%2F12hplq4pp!19sChIJLac-_hP9DDkRAgJlX7wj6ic?authuser=0&hl=en&rclk=1,"28.6529317,77.2232485"
khwy'yN wly msjd Kuein Wali Masjid,Mosque,"khwy'yN wly msjd Kuein Wali Masjid, 3017, Ram Bazar Marg, Mori Gate, Delhi, 110006","Ganda Nala Bazar, South Indian Madrasi Colony, Mori Gate","3017, Ram Bazar Marg",Delhi,110006,Delhi,IN,https://www.google.com/maps/place/%DA%A9%D9%88%D8%A6%DB%8C%DA%BA+%D9%88%D8%A7%D9%84%DB%8C+%D9%85%D8%B3%D8%AC%D8%AF+Kuein+Wali+Masjid%E2%80%AD/data=!4m7!3m6!1s0x390cfd0eb6b8bd09:0x18933362fd3b39e4!8m2!3d28.663729!4d77.224411!16s%2Fg%2F12hqtrvvz!19sChIJCb24tg79DDkR5Dk7_WIzkxg?authuser=0&hl=en&rclk=1,"28.663729,77.224411"
Anarwali Masjid msjd nr wly,Mosque,"Anarwali Masjid msjd nr wly, hno.230/ mandavali, 3, Mandawali Main Road, Fazalpur, Railway Colony, Mandawali, Delhi, 110092","Railway Colony, Mandawali","hno.230/ mandavali, 3, Mandawali Main Road, Fazalpur, Railway Colony, Mandawali",Delhi,110092,Delhi,IN,https://www.google.com/maps/place/Anarwali+Masjid+%D9%85%D8%B3%D8%AC%D8%AF+%D8%A7%D9%86%D8%A7%D8%B1+%D9%88%D8%A7%D9%84%DB%8C%E2%80%AD/data=!4m7!3m6!1s0x390ce4aceaaaaaab:0xf35cfc3b5a9a894a!8m2!3d28.6291881!4d77.2936695!16s%2Fg%2F11cmfdyfyg!19sChIJq6qq6qzkDDkRSomaWjv8XPM?authuser=0&hl=en&rclk=1,"28.6291881,77.2936695"
Masjid,Mosque,"P26W+G9R Masjid, Sharma Enclave, Phase II, Rohini, New Delhi, Delhi, 110086","Sharma Enclave, Phase II, Rohini",P26W+G9R,"New Delhi, Delhi",110086,Delhi,IN,https://www.google.com/maps/place/Masjid/data=!4m7!3m6!1s0x390d0665424343cf:0xe967304e46362a9e!8m2!3d28.7113688!4d77.045882!16s%2Fg%2F11gfgxlbhp!19sChIJz0NDQmUGDTkRnio2Rk4wZ-k?authuser=0&hl=en&rclk=1,"28.7113688,77.04588199999999"
Anisa Masjid msjd nys,Mosque,"Anisa Masjid msjd nys, G-98/a, Chungi No 2, Kotla Mahingiran, Lal Kuan, New Delhi, Delhi 110044","Chungi No 2, Kotla Mahingiran, Lal Kuan",G-98/a,New Delhi,110044,Delhi,IN,https://www.google.com/maps/place/Anisa+Masjid+%D9%85%D8%B3%D8%AC%D8%AF+%D8%A7%D9%86%DB%8C%D8%B3%D8%A7%E2%80%AD/data=!4m7!3m6!1s0x390ce1c7a0cef4bf:0x5e4d72c51a51992b!8m2!3d28.5003582!4d77.2823266!16s%2Fg%2F11fl8_svcx!19sChIJv_TOoMfhDDkRK5lRGsVyTV4?authuser=0&hl=en&rclk=1,"28.500358199999997,77.28232659999999"
Noor masjid,Mosque,"Noor masjid, 88-A, Meharchand Market, Lodi Colony, New Delhi, Delhi 110003","Meharchand Market, Lodi Colony",88-A,New Delhi,110003,Delhi,IN,https://www.google.com/maps/place/Noor+masjid/data=!4m7!3m6!1s0x390ce3bde048d651:0x31a744236a19398c!8m2!3d28.5863397!4d77.2271578!16s%2Fg%2F11j0z5cnj_!19sChIJUdZI4L3jDDkRjDkZaiNEpzE?authuser=0&hl=en&rclk=1,"28.5863397,77.2271578"
Masjid Mehendiyan msjd mhndyn,Mosque,"J6MP+QX3 Masjid Mehendiyan msjd mhndyn, Qabrastan Mehendiyan, Mirdard Road, Delh, Gandhi Market Area, Barakhamba, New Delhi, Delhi 110002","Maulana Azad Medical College Campus, Gandhi Market Area, Barakhamba","J6MP+QX3, Qabrastan Mehendiyan, Mirdard Road, Delh","New Delhi, Delhi",110002,Delhi,IN,https://www.google.com/maps/place/Masjid+Mehendiyan+%D9%85%D8%B3%D8%AC%D8%AF+%D9%85%DB%81%D9%86%D8%AF%DB%8C%D8%A7%D9%86%E2%80%AD/data=!4m7!3m6!1s0x390cfd28f90517f3:0xd21a0ff0de2e7447!8m2!3d28.6343771!4d77.2374252!16s%2Fg%2F11d_9hcbf5!19sChIJ8xcF-Sj9DDkRR3Qu3vAPGtI?authuser=0&hl=en&rclk=1,"28.6343771,77.23742519999999"
Masjid Hussainiya,Mosque,"J6XM+GHP Masjid Hussainiya, Matia Mahal Rd, Kalan Mehal, Old Delhi, Delhi, 110006","Kalan Mehal, Old Delhi","J6XM+GHP, Matia Mahal Rd",Delhi,110006,Delhi,IN,https://www.google.com/maps/place/Masjid+Hussainiya/data=!4m7!3m6!1s0x390cfd18ba6b0bd5:0xced4d691b8d1a3fb!8m2!3d28.6488459!4d77.2339534!16s%2Fg%2F11gc9g4rkv!19sChIJ1Qtruhj9DDkR-6PRuJHW1M4?authuser=0&hl=en&rclk=1,"28.648845899999998,77.23395339999999"
Masjid Aashikan-E-Rasool,Mosque,"Masjid Aashikan-E-Rasool, B168A, Block B, Baljit Nagar, Patel Nagar, New Delhi, Delhi, 110008","Block B, Baljit Nagar, Patel Nagar",B168A,"New Delhi, Delhi",110008,Delhi,IN,https://www.google.com/maps/place/Masjid+Aashikan-E-Rasool/data=!4m7!3m6!1s0x390d03568277eb99:0x27959f1a230ab399!8m2!3d28.6610366!4d77.1631945!16s%2Fg%2F11qz5hv88s!19sChIJmet3glYDDTkRmbMKIxqflSc?authuser=0&hl=en&rclk=1,"28.6610366,77.1631945"
Noorani Mosque msjd,Mosque,"J6X9+264 Noorani Mosque msjd, Ram Nagar Market, Prem Nagar, Paharganj, New Delhi, Delhi, 110006","Ram Nagar Market, Prem Nagar, Paharganj",J6X9+264,"New Delhi, Delhi",110006,Delhi,IN,https://www.google.com/maps/place/Noorani+Mosque+%D9%85%D8%B3%D8%AC%D8%AF%E2%80%AD/data=!4m7!3m6!1s0x390cfd15484b7eeb:0xa62a930e2393d479!8m2!3d28.6475072!4d77.218065!16s%2Fg%2F11gdm60sn2!19sChIJ635LSBX9DDkRedSTIw6TKqY?authuser=0&hl=en&rclk=1,"28.6475072,77.218065"
Mr.SAHEEM MALIK,Mosque,"Mr.SAHEEM MALIK, Gali no. 3 - Tirpal Factory Mustafabad, near Ayisha masjid, 25 Futa Rd, near by Aisha Masjid, chowk, Delhi 110094","Shakti Vihar, Old Mustafabad, chowk","Gali no. 3 - Tirpal Factory Mustafabad, near Ayisha masjid, 25 Futa Rd, near by Aisha Masjid",Delhi,110094,Delhi,IN,https://www.google.com/maps/place/Mr.SAHEEM+MALIK/data=!4m7!3m6!1s0x390cfd9a44cd4997:0xffdc8860c53e3f2b!8m2!3d28.7159667!4d77.272238!16s%2Fg%2F11h3cwgc8y!19sChIJl0nNRJr9DDkRKz8-xWCI3P8?authuser=0&hl=en&rclk=1,"28.7159667,77.272238"
Haji Rojdaar Wali Masjid,Mosque,"Haji Rojdaar Wali Masjid, 110074, Kharak, Sat Bari, New Delhi, Delhi 110074","Kharak, Sat Bari",110074,New Delhi,110074,Delhi,IN,https://www.google.com/maps/place/Haji+Rojdaar+Wali+Masjid/data=!4m7!3m6!1s0x390ce024a51f068f:0x1d8c2d91ee022fdd!8m2!3d28.4679055!4d77.2051939!16s%2Fg%2F11c5_hph3y!19sChIJjwYfpSTgDDkR3S8C7pEtjB0?authuser=0&hl=en&rclk=1,"28.467905499999997,77.2051939"
Masjid Anar Wali,Mosque,"Masjid Anar Wali, 847-893, Tilak Gali, Mori Gate, New Delhi, Delhi, 110006",Mori Gate,"847-893, Tilak Gali","New Delhi, Delhi",110006,Delhi,IN,https://www.google.com/maps/place/Masjid+Anar+Wali/data=!4m7!3m6!1s0x390cfdb5e13e91e7:0x8093a0c1f6de61be!8m2!3d28.6629573!4d77.2291866!16s%2Fg%2F11gmfybb2k!19sChIJ55E-4bX9DDkRvmHe9sGgk4A?authuser=0&hl=en&rclk=1,"28.6629573,77.22918659999999"
Masjid e umar,Mosque,"M386+XJC Masjid e umar, Peer Baba Rd, Block C, Kamruddin Nagar, Delhi, 110041","Block C, Kamruddin Nagar","M386+XJC, Peer Baba Rd",Delhi,110041,Delhi,IN,https://www.google.com/maps/place/Masjid+e+umar/data=!4m7!3m6!1s0x390d05173408e429:0xa967bf9a5ce35560!8m2!3d28.6674328!4d77.0615213!16s%2Fg%2F11jsztfkmf!19sChIJKeQINBcFDTkRYFXjXJq_Z6k?authuser=0&hl=en&rclk=1,"28.6674328,77.0615213"
Purani Masjid,Mosque,"J6X9+Q5Q Purani Masjid, Ram Nagar Market, Prem Nagar, Ajmeri Gate, New Delhi, Delhi, 110006","Ram Nagar Market, Prem Nagar, Ajmeri Gate",J6X9+Q5Q,"New Delhi, Delhi",110006,Delhi,IN,https://www.google.com/maps/place/Purani+Masjid/data=!4m7!3m6!1s0x390cfdd4fb09e8e3:0xc0634defce74b9aa!8m2!3d28.6494674!4d77.2179722!16s%2Fg%2F11h288cp8c!19sChIJ4-gJ-9T9DDkRqrl0zu9NY8A?authuser=0&hl=en&rclk=1,"28.6494674,77.21797219999999"
Masjid Akhundji,Mosque,"M63C+W27 Masjid Akhundji, Shardhanand Market, Farash Khana, Chandni Chowk, Delhi, 110006","Shardhanand Market, Farash Khana, Chandni Chowk",M63C+W27,Delhi,110006,Delhi,IN,https://www.google.com/maps/place/Masjid+Akhundji/data=!4m7!3m6!1s0x390cfd1304000001:0x72fdec335cb3985d!8m2!3d28.6547977!4d77.2200373!16s%2Fg%2F11cjkvmmtk!19sChIJAQAABBP9DDkRXZizXDPs_XI?authuser=0&hl=en&rclk=1,"28.6547977,77.2200373"
Nurani Masjid,Mosque,"Q6CX+8QH Nurani Masjid, Haqiqatpur, Uttar Pradesh 201102",,Q6CX+8QH,Haqiqatpur,201102,Uttar Pradesh,IN,https://www.google.com/maps/place/Nurani+Masjid/data=!4m7!3m6!1s0x390cff06d1a26571:0x2a7700db518ef62a!8m2!3d28.7708199!4d77.2494795!16s%2Fg%2F11q8vqwpg_!19sChIJcWWi0Qb_DDkRKvaOUdsAdyo?authuser=0&hl=en&rclk=1,"28.7708199,77.24947949999999"
Masjid msjd,Mosque,"G59J+WQR Masjid msjd, Mehrauli Village, Mehrauli, New Delhi, Delhi 110030","Mehrauli Village, Mehrauli",G59J+WQR,New Delhi,110030,Delhi,IN,https://www.google.com/maps/place/Masjid+%D9%85%D8%B3%D8%AC%D8%AF%E2%80%AD/data=!4m7!3m6!1s0x390d1e0f7415e86f:0x4b3d0ac303c4f65!8m2!3d28.5198715!4d77.1818757!16s%2Fg%2F11dzdrhdgj!19sChIJb-gVdA8eDTkRZU88MKzQswQ?authuser=0&hl=en&rclk=1,"28.519871499999997,77.18187569999999"
taaj masjid,Mosque,"9CM9+65J taaj masjid, Aron, Madhya Pradesh 473101",,9CM9+65J,Aron,473101,Madhya Pradesh,IN,https://www.google.com/maps/place/taaj+masjid/data=!4m7!3m6!1s0x397a4d2eb06c506f:0x85f04acfa3fa6486!8m2!3d24.3830908!4d77.4178903!16s%2Fg%2F11c601fsx2!19sChIJb1BssC5NejkRhmT6o89K8IU?authuser=0&hl=en&rclk=1,"24.383090799999998,77.4178903"
Masjid Anar Wali,Mosque,"J6WP+H6G Masjid Anar Wali, Haveli Azam Khan, Chittli Qabar Bazar Rd, Delhi, 110006","Kalan Mehal, Old Delhi","J6WP+H6G, Haveli Azam Khan, Chittli Qabar Bazar Rd",Delhi,110006,Delhi,IN,https://www.google.com/maps/place/Masjid+Anar+Wali/data=!4m7!3m6!1s0x390cfd2192f45833:0xddf1e01c9e23f7d3!8m2!3d28.6464403!4d77.2355876!16s%2Fg%2F11f4v9j1sy!19sChIJM1j0kiH9DDkR0_cjnhzg8d0?authuser=0&hl=en&rclk=1,"28.6464403,77.2355876"
Masjid Ramzan Shah,Mosque,"Masjid Ramzan Shah, 2426-27, Tilak Bazar, Chhota Chamarwara, Khari Baoli, Chandni Chowk, Delhi, 110006","Tilak Bazar, Chhota Chamarwara, Khari Baoli, Chandni Chowk",2426-27,Delhi,110006,Delhi,IN,https://www.google.com/maps/place/Masjid+Ramzan+Shah/data=!4m7!3m6!1s0x390cfd0d753d925d:0x642ac5cf3bf4413b!8m2!3d28.6593521!4d77.2201978!16s%2Fg%2F11cnczp9wn!19sChIJXZI9dQ39DDkRO0H0O8_FKmQ?authuser=0&hl=en&rclk=1,"28.6593521,77.2201978"
Masjid,Mosque,"Masjid, 242, Masjid Jheel Pio, Near ITO metro GateNo.3, Bahadur Shah Zafar Marg, Balmiki Basti, Vikram Nagar, Delhi, 110002","Bahadur Shah Zafar Marg, Balmiki Basti, Vikram Nagar","242, Masjid Jheel Pio, Near ITO metro GateNo.3, Bahadur Shah Zafar Marg",Delhi,110002,Delhi,IN,https://www.google.com/maps/place/Masjid/data=!4m7!3m6!1s0x390cfd441769149d:0xa1929f1b4f5921d6!8m2!3d28.6298914!4d77.2415098!16s%2Fg%2F11s2n38r9b!19sChIJnRRpF0T9DDkR1iFZTxufkqE?authuser=0&hl=en&rclk=1,"28.629891399999998,77.2415098"
Masjid,Mosque,"Masjid, 2508, Fasil Rd, Gali Sakko Wali, Shah Ganj, Chandni Chowk, New Delhi, Delhi, 110006","Gali Sakko Wali, Shah Ganj, Chandni Chowk","2508, Fasil Rd","New Delhi, Delhi",110006,Delhi,IN,https://www.google.com/maps/place/Masjid/data=!4m7!3m6!1s0x390cfd15c9a8a4b1:0xf975aada141da03e!8m2!3d28.6491552!4d77.2220471!16s%2Fg%2F1hm4gjxkd!19sChIJsaSoyRX9DDkRPqAdFNqqdfk?authuser=0&hl=en&rclk=1,"28.6491552,77.2220471"
Masjid,Mosque,"Masjid, 191/1, JJ Colony, New Krishna Park, Vikaspuri, New Delhi, Delhi, 110018","JJ Colony, New Krishna Park, Vikaspuri",191/1,"New Delhi, Delhi",110018,Delhi,IN,https://www.google.com/maps/place/Masjid/data=!4m7!3m6!1s0x390d0523e13f6ebf:0xcf430f5986189794!8m2!3d28.6318645!4d77.0776203!16s%2Fg%2F11kq3krq6c!19sChIJv24_4SMFDTkRlJcYhlkPQ88?authuser=0&hl=en&rclk=1,"28.6318645,77.07762029999999"
Masjid Amania,Mosque,"Masjid Amania, Main, Maujpur Rd, Shahdara, Delhi, 110053",Shahdara,"Main, Maujpur Rd",Delhi,110053,Delhi,IN,https://www.google.com/maps/place/Masjid+Amania/data=!4m7!3m6!1s0x390cfd4212229ecb:0x56b4673279cdc3f1!8m2!3d28.6855897!4d77.2762341!16s%2Fg%2F11s0s2pf6g!19sChIJy54iEkL9DDkR8cPNeTJntFY?authuser=0&hl=en&rclk=1,"28.685589699999998,77.2762341"
Masjid,Mosque,"Masjid, Generator section LNH, Maulana Azad Medical College Campus, LNJP Colony, New Delhi, Delhi, 110002","Maulana Azad Medical College Campus, LNJP Colony",Generator section LNH,"New Delhi, Delhi",110002,Delhi,IN,https://www.google.com/maps/place/Masjid/data=!4m7!3m6!1s0x390cfda80d3a142f:0x7e63ba6e21dc1e97!8m2!3d28.6378466!4d77.2379581!16s%2Fg%2F11ss881009!19sChIJLxQ6Daj9DDkRlx7cIW66Y34?authuser=0&hl=en&rclk=1,"28.6378466,77.2379581"
Masjid Aziziya,Mosque,"M7WF+M75 Masjid Aziziya, Near Ilai, Vijay Park, Shahdara, Delhi, 110053","Vijay Park, Shahdara","M7WF+M75, Near Ilai",Delhi,110053,Delhi,IN,https://www.google.com/maps/place/Masjid+Aziziya/data=!4m7!3m6!1s0x390cfc6d3bc7013b:0xc12e6f3fb4fe15ec!8m2!3d28.6966475!4d77.2732278!16s%2Fg%2F12hlx66g3!19sChIJOwHHO238DDkR7BX-tD9vLsE?authuser=0&hl=en&rclk=1,"28.696647499999997,77.2732278"
Masjid Ahangaran,Mosque,"Masjid Ahangaran, 956, Gali Chandiwali, Montola, Paharganj, New Delhi, Delhi 110025","Ratan Lal Market, Kaseru Walan, Paharganj","956, Gali Chandiwali, Montola, Paharganj",New Delhi,110025,Delhi,IN,https://www.google.com/maps/place/Masjid+Ahangaran/data=!4m7!3m6!1s0x390cfd40e88a2d05:0x1c630582e126ec60!8m2!3d28.642006!4d77.215436!16s%2Fg%2F11cn95g4v1!19sChIJBS2K6ED9DDkRYOwm4YIFYxw?authuser=0&hl=en&rclk=1,"28.642006,77.215436"
Masjid/prayer room,Mosque,"H76F+7H6 Masjid/prayer room, Fortis Escorts Hospital Sukhdev metro station, Delhi",New Friends Colony,"H76F+7H6, Fortis Escorts Hospital Sukhdev metro station","Delhi, New Delhi",,Delhi,IN,https://www.google.com/maps/place/Masjid%2Fprayer+room/data=!4m7!3m6!1s0x390ce3c02d7da811:0x388ca404d02fd2b3!8m2!3d28.5606583!4d77.2739036!16s%2Fg%2F11rj_njv5d!19sChIJEah9LcDjDDkRs9Iv0ASkjDg?authuser=0&hl=en&rclk=1,"28.5606583,77.2739036"
Masjid,Mosque,"M65J+GV7 Masjid, Chhippy Wada, Chandni Chowk, Delhi, 110006","Chhippy Wada, Chandni Chowk",M65J+GV7,Delhi,110006,Delhi,IN,https://www.google.com/maps/place/Masjid/data=!4m7!3m6!1s0x390cfd04823e663b:0x88920d6fe0b74a65!8m2!3d28.6587916!4d77.2321828!16s%2Fg%2F11n0gg69p2!19sChIJO2Y-ggT9DDkRZUq34G8Nkog?authuser=0&hl=en&rclk=1,"28.658791599999997,77.23218279999999"
Syed Hasan Masjid,Mosque,"Syed Hasan Masjid, 124, Sector C, Gole Market, New Delhi, Delhi 110001","Sector C, Gole Market",124,New Delhi,110001,Delhi,IN,https://www.google.com/maps/place/Syed+Hasan+Masjid/data=!4m7!3m6!1s0x390cfd263f536697:0x174e102183d9d2d1!8m2!3d28.63939!4d77.2065116!16s%2Fg%2F11pvclr7q6!19sChIJl2ZTPyb9DDkR0dLZgyEQThc?authuser=0&hl=en&rclk=1,"28.63939,77.2065116"
Madina Maszid,Mosque,"P432+JXG Madina Maszid, Pocket 25, Sector 3G, Rohini, Delhi, 110085","Pocket 25, Sector 3G, Rohini",P432+JXG,Delhi,110085,Delhi,IN,https://www.google.com/maps/place/Madina+Maszid/data=!4m7!3m6!1s0x390d018613fc13e1:0xb7a57d9d5623c997!8m2!3d28.7040585!4d77.1024588!16s%2Fg%2F11f6dnn289!19sChIJ4RP8E4YBDTkRl8kjVp19pbc?authuser=0&hl=en&rclk=1,"28.7040585,77.1024588"
Masjid,Mosque,"9M74+66G Masjid, Hirnoti, Uttar Pradesh 203203",,9M74+66G,Hirnoti,203203,Uttar Pradesh,IN,https://www.google.com/maps/place/Masjid/data=!4m7!3m6!1s0x390cbbdfa6584727:0x4a1e67c0bd32dfaf!8m2!3d28.36306!4d77.6555641!16s%2Fg%2F11dzwm3m09!19sChIJJ0dYpt-7DDkRr98yvcBnHko?authuser=0&hl=en&rclk=1,"28.363059999999997,77.65556409999999"
Khaliliya Masjid,Mosque,"9CG7+M95 Khaliliya Masjid, Unnamed Road, Aron, Madhya Pradesh 473101",,"9CG7+M95, Unnamed Road",Aron,473101,Madhya Pradesh,IN,https://www.google.com/maps/place/Khaliliya+Masjid/data=!4m7!3m6!1s0x397a4d1ce54fab23:0x7b1f7e5424595de6!8m2!3d24.3766459!4d77.4134757!16s%2Fg%2F11j91ybwj1!19sChIJI6tP5RxNejkR5l1ZJFR-H3s?authuser=0&hl=en&rclk=1,"24.3766459,77.41347569999999"
Masjid Abdur Raheem,Mosque,"M64G+QG2 Masjid Abdur Raheem, Kucha Qabil Attaar, Chandni Chowk Rd, Chandni Chowk, Delhi 110006","New Krishna Cloth Market, Katra Neel, Chandni Chowk","M64G+QG2, Kucha Qabil Attaar, Chandni Chowk Rd",Delhi,110006,Delhi,IN,https://www.google.com/maps/place/Masjid+Abdur+Raheem/data=!4m7!3m6!1s0x390cfd104b825bd9:0xb9f6b4db1db96bb7!8m2!3d28.656881!4d77.2262763!16s%2Fg%2F11clsyjt17!19sChIJ2VuCSxD9DDkRt2u5Hdu09rk?authuser=0&hl=en&rclk=1,"28.656881,77.2262763"
Masjid gulshane ahmad rza,Mosque,"P323+V95 Masjid gulshane ahmad rza, Phase I, Baljit Vihar, Delhi, 110086","Phase I, Baljit Vihar",P323+V95,Delhi,110086,Delhi,IN,https://www.google.com/maps/place/Masjid+gulshane+ahmad+rza/data=!4m7!3m6!1s0x390d0709508d6209:0x6199915298bc7e5c!8m2!3d28.702353!4d77.0530291!16s%2Fg%2F11q3tq1rsm!19sChIJCWKNUAkHDTkRXH68mFKRmWE?authuser=0&hl=en&rclk=1,"28.702353,77.0530291"
Masjid Kaddan Wali,Mosque,"Masjid Kaddan Wali, 3800,, Charkhiwalan Gali, Khush Dil, Chandni Chowk, New Delhi, Delhi 110006","Khush Dil, Chandni Chowk","3800,, Charkhiwalan Gali","New Delhi, Delhi",110006,Delhi,IN,https://www.google.com/maps/place/Masjid+Kaddan+Wali/data=!4m7!3m6!1s0x390cfd19d610452b:0xf81efc1a357adee8!8m2!3d28.6506731!4d77.2290561!16s%2Fg%2F12hkbxr_7!19sChIJK0UQ1hn9DDkR6N56NRr8Hvg?authuser=0&hl=en&rclk=1,"28.6506731,77.2290561"
Masjid,Mosque,"M794+RG5 Masjid, Block A, Shastri Park, Shahdara, Delhi, 110053","Block A, Shastri Park, Shahdara",M794+RG5,Delhi,,Delhi,IN,https://www.google.com/maps/place/Masjid/data=!4m7!3m6!1s0x390cfd74b6378221:0x2da5c9212f831088!8m2!3d28.6695164!4d77.2563643!16s%2Fg%2F11tb42z9g0!19sChIJIYI3tnT9DDkRiBCDLyHJpS0?authuser=0&hl=en&rclk=1,"28.6695164,77.2563643"
Masjid,Mosque,"Masjid, 94L, Adarsh Mohalla, Block P, Mayur Vihar, Delhi, 110091","Adarsh Mohalla, Block P, Mayur Vihar",94L,Delhi,110091,Delhi,IN,https://www.google.com/maps/place/Masjid/data=!4m7!3m6!1s0x390ce594aaf9a4ed:0x7705b6bd1214d779!8m2!3d28.6097585!4d77.2915521!16s%2Fg%2F11vdfgxvzr!19sChIJ7aT5qpTlDDkRedcUEr22BXc?authuser=0&hl=en&rclk=1,"28.609758499999998,77.29155209999999"
Masjid,Mosque,"Shop No: 5035, Masjid, Netaji Subhash Marg, Daryaganj, New Delhi, Delhi, 110002",Daryaganj,"Shop No: 5035, Netaji Subhash Marg","New Delhi, Delhi",110002,Delhi,IN,https://www.google.com/maps/place/Masjid/data=!4m7!3m6!1s0x390cfdf175041b95:0x8ef57a2bc9f92c1c!8m2!3d28.6480954!4d77.2403964!16s%2Fg%2F11s664lvxh!19sChIJlRsEdfH9DDkRHCz5ySt69Y4?authuser=0&hl=en&rclk=1,"28.6480954,77.2403964"
Jahidur Rahman,Mosque,"M4H2+93C Jahidur Rahman, Block A, Paschim Vihar, Dharmasala, Delhi, 110063","Block A, Paschim Vihar",M4H2+93C,"Dharmasala, Delhi",,Delhi,IN,https://www.google.com/maps/place/Jahidur+Rahman/data=!4m7!3m6!1s0x390d054582f47dfd:0xc993f2b3c1e0d5fa!8m2!3d28.678435!4d77.100154!16s%2Fg%2F11ns_vnhyj!19sChIJ_X30gkUFDTkR-tXgwbPyk8k?authuser=0&hl=en&rclk=1,"28.678435,77.100154"
Masjid,Mosque,"H662+8G4 Masjid, Green Park Ext Rd, Block J, Green Park Extension, Green Park, New Delhi, Delhi 110016","Block J, Green Park Extension, Green Park","H662+8G4, Green Park Ext Rd",New Delhi,110016,Delhi,IN,https://www.google.com/maps/place/Masjid/data=!4m7!3m6!1s0x390ce3053c6f74cf:0x33b8d79c09cb4f99!8m2!3d28.5607743!4d77.2013357!16s%2Fg%2F11krd8fpw7!19sChIJz3RvPAXjDDkRmU_LCZzXuDM?authuser=0&hl=en&rclk=1,"28.5607743,77.2013357"
Masjid Road,Mosque,"M3X2+MWG Masjid Road, Block W, Prem Nagar I, Kirari Suleman Nagar, Delhi, 110086","Block W, Prem Nagar I, Kirari Suleman Nagar","M3X2+MWG, Masjid Road",Delhi,110086,Delhi,IN,https://www.google.com/maps/place/Masjid+Road/data=!4m7!3m6!1s0x390d07a86e5263e9:0x9201e9cfb39a2044!8m2!3d28.6991868!4d77.052315!16s%2Fg%2F11vfb9h06f!19sChIJ6WNSbqgHDTkRRCCas8_pAZI?authuser=0&hl=en&rclk=1,"28.6991868,77.052315"
Abdul rain,Mosque,"Block G, Abdul rain, G, 13, Inder Enclave Rd., Kirari Suleman Nagar, Delhi, 86","Inder Enclave, Kirari Suleman Nagar","Block G, G, 13, Inder Enclave Rd.",Delhi,86,Delhi,IN,https://www.google.com/maps/place/Abdul+rain/data=!4m7!3m6!1s0x390d077b8a1dd961:0xb20a6b1456f92a4d!8m2!3d28.7086728!4d77.0463717!16s%2Fg%2F11rx87xfk8!19sChIJYdkdinsHDTkRTSr5VhRrCrI?authuser=0&hl=en&rclk=1,"28.7086728,77.0463717"
Masjid,Mosque,"Masjid, L385, Block L, JJ Colony No 3, Nangloi, New Delhi, Delhi, 110041","Block L, JJ Colony No 3, Nangloi",L385,"New Delhi, Delhi",110041,Delhi,IN,https://www.google.com/maps/place/Masjid/data=!4m7!3m6!1s0x390d0530462f99ad:0xf47aa8290ce093fa!8m2!3d28.6842352!4d77.0742041!16s%2Fg%2F11smtj7p27!19sChIJrZkvRjAFDTkR-pPgDCmoevQ?authuser=0&hl=en&rclk=1,"28.6842352,77.0742041"
msjd,Mosque,"msjd, B-110, Panday Enclave, Prem Nagar III, Kirari Suleman Nagar, Delhi, 110086","Panday Enclave, Prem Nagar III, Kirari Suleman Nagar",B-110,Delhi,110086,Delhi,IN,https://www.google.com/maps/place/%D9%85%D8%B3%D8%AC%D8%AF%E2%80%AD/data=!4m7!3m6!1s0x390d050ee02471eb:0xd53bfc94df598bf3!8m2!3d28.6920282!4d77.041928!16s%2Fg%2F11swfzfnz9!19sChIJ63Ek4A4FDTkR84tZ35T8O9U?authuser=0&hl=en&rclk=1,"28.6920282,77.041928"
Masjid,Mosque,"J2WM+MXF Masjid, Sunni Masjid Rd, Deep Enclave, Hastsal, Delhi, 110059","Deep Enclave, Hastsal","J2WM+MXF, Sunni Masjid Rd",Delhi,110059,Delhi,IN,https://www.google.com/maps/place/Masjid/data=!4m7!3m6!1s0x390d05267bb46283:0xaef6f06f366d7113!8m2!3d28.6466834!4d77.0349292!16s%2Fg%2F11vl8tpxw1!19sChIJg2K0eyYFDTkRE3FtNm_w9q4?authuser=0&hl=en&rclk=1,"28.646683399999997,77.0349292"
