name,main_category,address,address_ward,address_street,address_city,address_postal_code,address_state,address_country_code,link,coordinates
Jama Masjid Rourkela - Tablighi Jamaat Markaz (Sunni Hanafi),Mosque,"Jama Masjid Rourkela - Tablighi Jamaat Markaz (Sunni Hanafi), Nala Road, Udit Nagar, Rourkela, Odisha 769001","Nala Road, Udit Nagar",,Rourkela,769001,Odisha,IN,https://www.google.com/maps/place/Jama+Masjid+Rourkela+-+Tablighi+Jamaat+Markaz+%28Sunni+Hanafi%29/data=!4m7!3m6!1s0x3a201ecad6be3f21:0x5d24d90daf7e5738!8m2!3d22.2262441!4d84.8574872!16s%2Fg%2F1v2kvw6h!19sChIJIT--1soeIDoROFd-rw3ZJF0?authuser=0&hl=en&rclk=1,"22.2262441,84.8574872"
Ispat Anjuman Jama Masjid Rourkela,Mosque,"Ispat Anjuman Jama Masjid Rourkela, H/68, Ring Rd, Sector 15, Rourkela, Raurkela Industrialship, Odisha 769003",Sector 15,"H/68, Ring Rd","Rourkela, Raurkela Industrialship",769003,Odisha,IN,https://www.google.com/maps/place/Ispat+Anjuman+Jama+Masjid+Rourkela/data=!4m7!3m6!1s0x3a201bfcee02fe5f:0x301bf16d4f9169c6!8m2!3d22.2564241!4d84.8482437!16s%2Fg%2F11g8cxsp7q!19sChIJX_4C7vwbIDoRxmmRT23xGzA?authuser=0&hl=en&rclk=1,"22.2564241,84.8482437"
Zeenatul Masjid - Sunni Hanafi(Ahle Sunnat Wal Jamaat),Mosque,"Zeenatul Masjid - Sunni Hanafi(Ahle Sunnat Wal Jamaat), Siraj Babu Ln, 102, Ring Road, Al-Karim, Hotel Road, near Mohsin Hotel, Nala Road, Rourkela, Odisha 769001","Nala Road, Udit Nagar","Siraj Babu Ln, 102, Ring Road, Al-Karim, Hotel Road, near Mohsin Hotel",Rourkela,769001,Odisha,IN,https://www.google.com/maps/place/Zeenatul+Masjid+-+Sunni+Hanafi%28Ahle+Sunnat+Wal+Jamaat%29/data=!4m7!3m6!1s0x3a201ecb48298db5:0xde7f3cbcbd49997e!8m2!3d22.2244226!4d84.8573116!16s%2Fg%2F1v_z2rpb!19sChIJtY0pSMseIDoRfplJvbw8f94?authuser=0&hl=en&rclk=1,"22.2244226,84.8573116"
Noor Masjid - Tablighi Jamaat (Sunni Hanafi),Mosque,"Noor Masjid - Tablighi Jamaat (Sunni Hanafi), 102, Ring Road, Near Masjid e Umar, opposite Daawat Mughlai Restaurant, Nala Road, Rourkela, Odisha 769001","Nala Road, Udit Nagar","102, Ring Road, Near Masjid e Umar, opposite Daawat Mughlai Restaurant",Rourkela,769001,Odisha,IN,https://www.google.com/maps/place/Noor+Masjid+-+Tablighi+Jamaat+%28Sunni+Hanafi%29/data=!4m7!3m6!1s0x3a201ecb1504021d:0x6df502eee5d2abc7!8m2!3d22.2245962!4d84.8589718!16s%2Fg%2F1tcy2qfw!19sChIJHQIEFcseIDoRx6vS5e4C9W0?authuser=0&hl=en&rclk=1,"22.2245962,84.85897179999999"
MASJID e UMAR,Mosque,"6VF5+MQM MASJID e UMAR, Anand Bhawan Ln, Opp Gulshan Grocery, Nala Road, Udit Nagar, Rourkela, Odisha 769001","Nala Road, Udit Nagar","6VF5+MQM, Anand Bhawan Ln, Opp Gulshan Grocery",Rourkela,769001,Odisha,IN,https://www.google.com/maps/place/MASJID+e+UMAR/data=!4m7!3m6!1s0x3a201ecb9e1db249:0xe8a961f75a8681c8!8m2!3d22.2242036!4d84.8594086!16s%2Fg%2F11f00f5628!19sChIJSbIdnsseIDoRyIGGWvdhqeg?authuser=0&hl=en&rclk=1,"22.2242036,84.8594086"
Masjid E Raza - Sunni Hanafi,Mosque,"6RH6+M34 Masjid E Raza - Sunni Hanafi, koel bank khariya bahal, Panposh, Rourkela, Odisha 769004",Panposh,"6RH6+M34, koel bank khariya bahal",Rourkela,769004,Odisha,IN,https://www.google.com/maps/place/Masjid+E+Raza+-+Sunni+Hanafi/data=!4m7!3m6!1s0x3a20199f393406b1:0xede38104407dc205!8m2!3d22.2291469!4d84.8102052!16s%2Fg%2F11d_z65dcb!19sChIJsQY0OZ8ZIDoRBcJ9QASB4-0?authuser=0&hl=en&rclk=1,"22.2291469,84.8102052"
Sunni Masjid,Mosque,"7R5X+666 Sunni Masjid, Sector 15, Rourkela, Raurkela Industrialship, Odisha 769003",Sector 15,7R5X+666,"Rourkela, Raurkela Industrialship",769003,Odisha,IN,https://www.google.com/maps/place/Sunni+Masjid/data=!4m7!3m6!1s0x3a201bfc9c26b177:0x6023312aaa54e46e!8m2!3d22.2580386!4d84.8480147!16s%2Fg%2F11f3jyc05w!19sChIJd7EmnPwbIDoRbuRUqioxI2A?authuser=0&hl=en&rclk=1,"22.2580386,84.8480147"
Masjid E Noor,Mosque,"6RH6+QMX Masjid E Noor, Panposh, Rourkela, Odisha 769004",Panposh,6RH6+QMX,Rourkela,769004,Odisha,IN,https://www.google.com/maps/place/Masjid+E+Noor/data=!4m7!3m6!1s0x3a2019467114fcd7:0xbefc119d1b602b67!8m2!3d22.2294934!4d84.8117429!16s%2Fg%2F11h002c0jl!19sChIJ1_wUcUYZIDoRZytgG50R_L4?authuser=0&hl=en&rclk=1,"22.2294934,84.8117429"
"Madarsha Chistiya- Sultan- Ul- Hind , Kalunga",Mosque,"6PCM+623 Madarsha Chistiya- Sultan- Ul- Hind , Kalunga, Kanshbahal, Rourkela, Odisha 770031",Kanshbahal,6PCM+623,Rourkela,770031,Odisha,IN,"https://www.google.com/maps/place/Madarsha+Chistiya-+Sultan-+Ul-+Hind+,+Kalunga/data=!4m7!3m6!1s0x3a20171e3e0bce15:0xa469441764528bbb!8m2!3d22.2205215!4d84.7325475!16s%2Fg%2F11ddzhg5bs!19sChIJFc4LPh4XIDoRu4tSZBdEaaQ?authuser=0&hl=en&rclk=1","22.2205215,84.7325475"
Panposh Noori Jama Masjid,Mosque,"Panposh Noori Jama Masjid, Basti, 4, Dist:, Panposh, Rourkela, Odisha 769004",Panposh,"Basti, 4, Dist:",Rourkela,769004,Odisha,IN,https://www.google.com/maps/place/Panposh+Noori+Jama+Masjid/data=!4m7!3m6!1s0x3a2019486b04dcbb:0xaa3e56d1bb67840a!8m2!3d22.2329606!4d84.8032986!16s%2Fg%2F11gjq3qpcv!19sChIJu9wEa0gZIDoRCoRnu9FWPqo?authuser=0&hl=en&rclk=1,"22.2329606,84.80329859999999"
SUNNI MASJID,Mosque,"5VV7+P62 SUNNI MASJID, Fertilizer Twp, Rourkela, Odisha 769007",Fertilizer Township,5VV7+P62,Rourkela,769007,Odisha,IN,https://www.google.com/maps/place/SUNNI+MASJID/data=!4m7!3m6!1s0x3a201f2e17244ce1:0xb02105f2525e2b4d!8m2!3d22.194271!4d84.8630104!16s%2Fg%2F11gh343s0j!19sChIJ4UwkFy4fIDoRTSteUvIFIbA?authuser=0&hl=en&rclk=1,"22.194271,84.8630104"
Madina Masjid,Mosque,"6VJ6+JQJ Madina Masjid, Railway Colony, Rourkela, Odisha 769001",Railway Colony,6VJ6+JQJ,Rourkela,769001,Odisha,IN,https://www.google.com/maps/place/Madina+Masjid/data=!4m7!3m6!1s0x3a201fc6d2b5cb5f:0xd47dc48ec7b70626!8m2!3d22.2315937!4d84.8619027!16s%2Fg%2F11gxtk7dvf!19sChIJX8u10sYfIDoRJga3x47EfdQ?authuser=0&hl=en&rclk=1,"22.231593699999998,84.8619027"
Masjid e habib tanzim e ahlesunnat,Mosque,"7R5X+78C Masjid e habib tanzim e ahlesunnat, Sector 15, Rourkela, Raurkela Industrialship, Odisha 769003",Sector 15,7R5X+78C,"Rourkela, Raurkela Industrialship",769003,Odisha,IN,https://www.google.com/maps/place/Masjid+e+habib+tanzim+e+ahlesunnat/data=!4m7!3m6!1s0x3a201bbff35ca26f:0x47f72c49aa87664b!8m2!3d22.2581877!4d84.8482506!16s%2Fg%2F11rcq5d0b5!19sChIJb6Jc878bIDoRS2aHqkks90c?authuser=0&hl=en&rclk=1,"22.2581877,84.8482506"
Masjid Mujahid-e-Millat,Mosque,"Masjid Mujahid-e-Millat, Azad Basti, Sector 20 Rourkela 05, Odisha 769005","Azad Basti, Sector 20","Azad Basti, Sector 20 Rourkela 05","Rourkela, Dadposh",769005,Odisha,IN,https://www.google.com/maps/place/Masjid+Mujahid-e-Millat/data=!4m7!3m6!1s0x3a201dd0e5cef35b:0xe98393c3f2f688d5!8m2!3d22.2650476!4d84.8770738!16s%2Fg%2F11ll98fmkk!19sChIJW_PO5dAdIDoR1Yj28sOTg-k?authuser=0&hl=en&rclk=1,"22.2650476,84.87707379999999"
MADNI MANZIL,Mosque,"MADNI MANZIL, Nala Road, Udit Nagar, Rourkela, Odisha 769001","Nala Road, Udit Nagar",,Rourkela,769001,Odisha,IN,https://www.google.com/maps/place/MADNI+MANZIL/data=!4m7!3m6!1s0x3a201918e82ca677:0xabadf90b5dc943dd!8m2!3d22.2273127!4d84.8556311!16s%2Fg%2F11smv0vmjr!19sChIJd6Ys6BgZIDoR3UPJXQv5ras?authuser=0&hl=en&rclk=1,"22.2273127,84.8556311"
Masjid-e-Abubakar,Mosque,"6VG4+7JP Masjid-e-Abubakar, Nala Road, Udit Nagar, Rourkela, Odisha 769001","Nala Road, Udit Nagar",6VG4+7JP,Rourkela,769001,Odisha,IN,https://www.google.com/maps/place/Masjid-e-Abubakar/data=!4m7!3m6!1s0x3a20196d770b87dd:0x5ebffe9180f0e828!8m2!3d22.2257442!4d84.8565497!16s%2Fg%2F11rn7c51vt!19sChIJ3YcLd20ZIDoRKOjwgJH-v14?authuser=0&hl=en&rclk=1,"22.225744199999998,84.8565497"
Masjid-e-fatima,Mosque,"Masjid-e-fatima, Main road, Urdu School Galli, near maktab fine touch, Nala Road, Udit Nagar, Rourkela, Odisha 769001","Nala Road, Udit Nagar","Main road, Urdu School Galli, near maktab fine touch",Rourkela,769001,Odisha,IN,https://www.google.com/maps/place/Masjid-e-fatima/data=!4m7!3m6!1s0x3a201960ef3755b9:0x14ff82f3fa854676!8m2!3d22.2251503!4d84.8559557!16s%2Fg%2F11pfxnzggv!19sChIJuVU372AZIDoRdkaF-vOC_xQ?authuser=0&hl=en&rclk=1,"22.2251503,84.8559557"
Masjid-E-Khudaiza,Mosque,"6VF7+X9R Masjid-E-Khudaiza, Bisra Rd, Udit Nagar, Rourkela, Odisha 769001",Udit Nagar,"6VF7+X9R, Bisra Rd",Rourkela,769001,Odisha,IN,https://www.google.com/maps/place/Masjid-E-Khudaiza/data=!4m7!3m6!1s0x3a201f2383a5c355:0x37ce8ea60b88c458!8m2!3d22.2249816!4d84.8633845!16s%2Fg%2F11twtx5lb_!19sChIJVcOlgyMfIDoRWMSIC6aOzjc?authuser=0&hl=en&rclk=1,"22.2249816,84.8633845"
Mosque,Mosque,"Mosque, Bhatti Rd, near shamvil height, Nala Road, Udit Nagar, Rourkela, Odisha 769001","Nala Road, Udit Nagar","Bhatti Rd, near shamvil height",Rourkela,769001,Odisha,IN,https://www.google.com/maps/place/Mosque/data=!4m7!3m6!1s0x3a2019aeedaabac9:0xcbf69bb45397bca5!8m2!3d22.2267451!4d84.8555894!16s%2Fg%2F11pv5tlp4w!19sChIJybqq7a4ZIDoRpbyXU7Sb9ss?authuser=0&hl=en&rclk=1,"22.2267451,84.8555894"
Panposh Kabristan,Mosque,"6RP6+F55 Panposh Kabristan, Chhend Colony, Rourkela, Odisha 769004",Chhend Colony,6RP6+F55,Rourkela,769004,Odisha,IN,https://www.google.com/maps/place/Panposh+Kabristan/data=!4m7!3m6!1s0x3a201977e13d1f79:0x5b424ec4b9717d0!8m2!3d22.2361285!4d84.8104724!16s%2Fg%2F11fm5yr98b!19sChIJeR894XcZIDoR0BeXS-wktAU?authuser=0&hl=en&rclk=1,"22.2361285,84.8104724"
