name,main_category,address,address_ward,address_street,address_city,address_postal_code,address_state,address_country_code,link,coordinates
Jama Masjid,Mosque,"MGGQ+F5Q Jama Masjid, Jama Masjid Rd, Mahalaxmiwada, Adilabad, Telangana 504001",Mahalaxmiwada,"MGGQ+F5Q, Jama Masjid Rd",Adilabad,504001,Telangana,IN,https://www.google.com/maps/place/Jama+Masjid/data=!4m7!3m6!1s0x3bd25c75f87e8a01:0x25a95ee1fbab37d0!8m2!3d19.6762137!4d78.5379985!16s%2Fg%2F1tlqnfwv!19sChIJAYp--HVc0jsR0Der--FeqSU?authuser=0&hl=en&rclk=1,"19.676213699999998,78.5379985"
Gulzaar Masjid,Mosque,"MGCR+66Q Gulzaar Masjid, Bokkalguda St, Brahmanwadi, Adilabad, Telangana 504001",Brahmanwadi,"MGCR+66Q, Bokkalguda St",Adilabad,504001,Telangana,IN,https://www.google.com/maps/place/Gulzaar+Masjid/data=!4m7!3m6!1s0x3bd25c7477d00337:0x3dc61fe7489f62b1!8m2!3d19.6704596!4d78.5395986!16s%2Fg%2F1tcz6sjz!19sChIJNwPQd3Rc0jsRsWKfSOcfxj0?authuser=0&hl=en&rclk=1,"19.670459599999997,78.53959859999999"
Masjid-e-Rahmania,Mosque,"MG5H+P96 Masjid-e-Rahmania, Dasnapur, Sapthagiri Colony, chaitanyapuri, Adilabad, Telangana 504001","Dasnapur, Sapthagiri Colony, chaitanyapuri",MG5H+P96,Adilabad,504001,Telangana,IN,https://www.google.com/maps/place/Masjid-e-Rahmania/data=!4m7!3m6!1s0x3bd25c643f4fdb2f:0xa503fe99bb42906e!8m2!3d19.6592958!4d78.5283772!16s%2Fg%2F1w2ysb6c!19sChIJL9tPP2Rc0jsRbpBCu5n-A6U?authuser=0&hl=en&rclk=1,"19.6592958,78.5283772"
Masjid-e-Firdous,Mosque,"MG6G+978 Masjid-e-Firdous, Rickshaw Colony, Adilabad, Telangana 504001",Rickshaw Colony,MG6G+978,Adilabad,504001,Telangana,IN,https://www.google.com/maps/place/Masjid-e-Firdous/data=!4m7!3m6!1s0x3bd25c6379b59d8d:0x6f222369871ef4cd!8m2!3d19.6609205!4d78.525713!16s%2Fg%2F11b6tqg984!19sChIJjZ21eWNc0jsRzfQeh2kjIm8?authuser=0&hl=en&rclk=1,"19.6609205,78.525713"
Masjid-E-Taneem,Mosque,"MG8P+GJ2 Masjid-E-Taneem, Shanti Nagar, Adilabad, Telangana 504001",Shanti Nagar,MG8P+GJ2,Adilabad,504001,Telangana,IN,https://www.google.com/maps/place/Masjid-E-Taneem/data=!4m7!3m6!1s0x3bd25c7196951817:0xe1695f659d337d7!8m2!3d19.6662707!4d78.5365283!16s%2Fg%2F11c52zx1f3!19sChIJFxiVlnFc0jsR1zfTWfaVFg4?authuser=0&hl=en&rclk=1,"19.6662707,78.5365283"
Masjid e Noor Khursheed Nagar,Mosque,"Masjid e Noor Khursheed Nagar, khursheed Nagar, Adilabad, Telangana 504001",khursheed Nagar,,Adilabad,,Telangana,IN,https://www.google.com/maps/place/Masjid+e+Noor+Khursheed+Nagar/data=!4m7!3m6!1s0x3bd25b7f77891187:0xd64d9d2522c68201!8m2!3d19.6780656!4d78.5199255!16s%2Fg%2F1pp2x6dd1!19sChIJhxGJd39b0jsRAYLGIiWdTdY?authuser=0&hl=en&rclk=1,"19.6780656,78.5199255"
Mohammadia Masjid,Mosque,"MGFH+M8P Mohammadia Masjid, NH 44, Vidya Nagar, Adilabad, Telangana 504001",Vidya Nagar,"MGFH+M8P, NH 44",Adilabad,504001,Telangana,IN,https://www.google.com/maps/place/Mohammadia+Masjid/data=!4m7!3m6!1s0x3bd25c7892a2eb3b:0x89c3b0daf8ff360!8m2!3d19.6742243!4d78.5283275!16s%2Fg%2F1tjz1t_5!19sChIJO-uiknhc0jsRYPOPrw07nAg?authuser=0&hl=en&rclk=1,"19.6742243,78.5283275"
Masjid_E_Quba,Mosque,"Masjid_E_Quba, 2-5-216, beside Masjid E Quba Khila, Mohalla Badh, Adilabad, Telangana 504001",Mohalla Badh,"2-5-216, beside Masjid E Quba Khila",Adilabad,504001,Telangana,IN,https://www.google.com/maps/place/Masjid_E_Quba/data=!4m7!3m6!1s0x3bd25bedeaaaaaab:0xe29f9a411d92289b!8m2!3d19.6793188!4d78.5406475!16s%2Fg%2F11bwkvtnj8!19sChIJq6qq6u1b0jsRmyiSHUGan-I?authuser=0&hl=en&rclk=1,"19.6793188,78.54064749999999"
Masjid-e-Meraj,Mosque,"Masjid-e-Meraj, Police lane, Sanjay Nagar, Adilabad, Bhattisavargaon, Telangana 504001",Sanjay Nagar,Police lane,"Adilabad, Bhattisavargaon",504001,Telangana,IN,https://www.google.com/maps/place/Masjid-e-Meraj/data=!4m7!3m6!1s0x3bd25c80a40634d7:0x99b706696d47a613!8m2!3d19.6674917!4d78.5163997!16s%2Fg%2F1tr7b846!19sChIJ1zQGpIBc0jsRE6ZHbWkGt5k?authuser=0&hl=en&rclk=1,"19.6674917,78.5163997"
Masjid E Abubaker,Mosque,"MG8V+54F Masjid E Abubaker, Shanti Nagar, Adilabad, Telangana 504001",Shanti Nagar,MG8V+54F,Adilabad,504001,Telangana,IN,https://www.google.com/maps/place/Masjid+E+Abubaker/data=!4m7!3m6!1s0x3bd25c72afd994d1:0x55e84f035f33b282!8m2!3d19.6654385!4d78.542794!16s%2Fg%2F11c1wsmygw!19sChIJ0ZTZr3Jc0jsRgrIzXwNP6FU?authuser=0&hl=en&rclk=1,"19.6654385,78.542794"
Masjid E Arafath,Mosque,"MG9W+PJJ Masjid E Arafath, arfath nagar, Adilabad, Telangana 504001",arfath nagar,MG9W+PJJ,Adilabad,504001,Telangana,IN,https://www.google.com/maps/place/Masjid+E+Arafath/data=!4m7!3m6!1s0x3bd25c0c5e111929:0x778ec5e1e693b913!8m2!3d19.6693375!4d78.5465156!16s%2Fg%2F11dxl2lpw0!19sChIJKRkRXgxc0jsRE7mT5uHFjnc?authuser=0&hl=en&rclk=1,"19.669337499999997,78.54651559999999"
Madina Masjid mdynh msjd,Mosque,"MGCJ+GX8 Madina Masjid mdynh msjd, Netaji Chowk Rd, Ponnar, Bhuktapur, Telangana 504001",Ponnar,"MGCJ+GX8, Netaji Chowk Rd",Bhuktapur,504001,Telangana,IN,https://www.google.com/maps/place/Madina+Masjid+%D9%85%D8%AF%DB%8C%D9%86%DB%81+%D9%85%D8%B3%D8%AC%D8%AF%E2%80%AD/data=!4m7!3m6!1s0x3bd25c7742dd0b05:0xf2fb259a889bfa78!8m2!3d19.6712846!4d78.5324561!16s%2Fg%2F11fzzxxq7l!19sChIJBQvdQndc0jsRePqbiJol-_I?authuser=0&hl=en&rclk=1,"19.6712846,78.53245609999999"
Masjid E Tawheed Ahle Hadees,Mosque,"MG9R+3FF Masjid E Tawheed Ahle Hadees, Bokkalguda St, Opp. Sanober Urdu School, Shanti Nagar, Adilabad, Telangana 504001",Shanti Nagar,"MG9R+3FF, Bokkalguda St, Opp. Sanober Urdu School",Adilabad,504001,Telangana,IN,https://www.google.com/maps/place/Masjid+E+Tawheed+Ahle+Hadees/data=!4m7!3m6!1s0x3bd25c72fd255f2d:0x9b9a25549484aac6!8m2!3d19.6676945!4d78.5411635!16s%2Fg%2F11b6wlm0t4!19sChIJLV8l_XJc0jsRxqqElFQlmps?authuser=0&hl=en&rclk=1,"19.6676945,78.5411635"
Muhammadiya Masjid,Mosque,"MG29+X76 Muhammadiya Masjid, Ramnagar Colony, Adilabad, Telangana 504001",Ramnagar Colony,MG29+X76,Adilabad,504001,Telangana,IN,https://www.google.com/maps/place/Muhammadiya+Masjid/data=!4m7!3m6!1s0x3bd25c8ad95e1f51:0xc9001b8ca6d7fd64!8m2!3d19.6524043!4d78.5181462!16s%2Fg%2F11cn7qqr7d!19sChIJUR9e2Ypc0jsRZP3XpowbAMk?authuser=0&hl=en&rclk=1,"19.6524043,78.51814619999999"
Fathima Masjid,Mosque,"MGFF+676 Fathima Masjid, Sanjay Nagar, Adilabad, Telangana 504001",Sanjay Nagar,MGFF+676,Adilabad,504001,Telangana,IN,https://www.google.com/maps/place/Fathima+Masjid/data=!4m7!3m6!1s0x3bd25c7fa619132f:0x3fc5279c8cd8c162!8m2!3d19.6730467!4d78.5231404!16s%2Fg%2F11g65c9p2q!19sChIJLxMZpn9c0jsRYsHYjJwnxT8?authuser=0&hl=en&rclk=1,"19.6730467,78.5231404"
MASJID-E-Bilal,Mosque,"MGHQ+H25 MASJID-E-Bilal, Adilabad - Nagpur Rd, Panjesha, Adilabad, Telangana 504001",Panjesha,"MGHQ+H25, Adilabad - Nagpur Rd",Adilabad,504001,Telangana,IN,https://www.google.com/maps/place/MASJID-E-Bilal/data=!4m7!3m6!1s0x3bd25b89846e6659:0x31ee36077b20474f!8m2!3d19.6788851!4d78.5375982!16s%2Fg%2F11gclzc6pn!19sChIJWWZuhIlb0jsRT0cgewc27jE?authuser=0&hl=en&rclk=1,"19.6788851,78.53759819999999"
Masjid E Hassan,Mosque,"MG8V+QPM Masjid E Hassan, Unnamed Road, Shanti Nagar, Adilabad, Telangana 504001",Shanti Nagar,"MG8V+QPM, Unnamed Road",Adilabad,504001,Telangana,IN,https://www.google.com/maps/place/Masjid+E+Hassan/data=!4m7!3m6!1s0x3bd25c0d29000079:0xa0cc092090b96993!8m2!3d19.6669651!4d78.5443022!16s%2Fg%2F11dfk_8lt4!19sChIJeQAAKQ1c0jsRk2m5kCAJzKA?authuser=0&hl=en&rclk=1,"19.6669651,78.54430219999999"
Masjid-e-Garib Nawaz,Mosque,"MGPP+943 Masjid-e-Garib Nawaz, raza chowk, Jai Jawan Nagar, Tatiguda Colony, Adilabad, Telangana 504001","Kranti Nagar, Tatiguda Colony","MGPP+943, raza chowk, Jai Jawan Nagar",Adilabad,504001,Telangana,IN,https://www.google.com/maps/place/Masjid-e-Garib+Nawaz/data=!4m7!3m6!1s0x3bd25b8e4eca922b:0x9859180dd7cc6aa7!8m2!3d19.6858886!4d78.5352986!16s%2Fg%2F11g889_zry!19sChIJK5LKTo5b0jsRp2rM1w0YWZg?authuser=0&hl=en&rclk=1,"19.6858886,78.53529859999999"
MASJID E MAHEBOOB E SUBHANI ( Markaz e Ahle Sunnat ),Mosque,"MASJID E MAHEBOOB E SUBHANI ( Markaz e Ahle Sunnat ), Sanjay Nagar, Adilabad, Telangana 504001",Sanjay Nagar,,Adilabad,504001,Telangana,IN,https://www.google.com/maps/place/MASJID+E+MAHEBOOB+E+SUBHANI+%28+Markaz+e+Ahle+Sunnat+%29/data=!4m7!3m6!1s0x3bd25c7cd0000001:0xe56e990e56fe962c!8m2!3d19.6669356!4d78.5213162!16s%2Fg%2F11c2kk77hk!19sChIJAQAA0Hxc0jsRLJb-Vg6ZbuU?authuser=0&hl=en&rclk=1,"19.6669356,78.5213162"
Masjid,Mosque,"HFPR+4Q8 Masjid, Adilabad, Telangana 504308",,HFPR+4Q8,Adilabad,504308,Telangana,IN,https://www.google.com/maps/place/Masjid/data=!4m7!3m6!1s0x3bd25d5bfe1eb429:0x753a217332ff9baa!8m2!3d19.5852914!4d78.4919588!16s%2Fg%2F11dxq2d28t!19sChIJKbQe_ltd0jsRqpv_MnMhOnU?authuser=0&hl=en&rclk=1,"19.5852914,78.49195879999999"
Masjid e Ishaat-e-Islam,Mosque,"MH33+H28 Masjid e Ishaat-e-Islam, Adilabad, Telangana 504001",,MH33+H28,Adilabad,504001,Telangana,IN,https://www.google.com/maps/place/Masjid+e+Ishaat-e-Islam/data=!4m7!3m6!1s0x3bd25c17d761b9e3:0x9051e74decccc3da!8m2!3d19.653917!4d78.552592!16s%2Fg%2F11g9vtzndj!19sChIJ47lh1xdc0jsR2sPM7E3nUZA?authuser=0&hl=en&rclk=1,"19.653917,78.55259199999999"
Masjid Badar,Mosque,"MG8C+44M Masjid Badar, Rickshaw Colony, Adilabad, Telangana 504001",Rickshaw Colony,MG8C+44M,Adilabad,504001,Telangana,IN,https://www.google.com/maps/place/Masjid+Badar/data=!4m7!3m6!1s0x3bd25c878e7870c1:0x8e24c92e23dce198!8m2!3d19.6653455!4d78.5202985!16s%2Fg%2F11bbrlytdq!19sChIJwXB4jodc0jsRmOHcIy7JJI4?authuser=0&hl=en&rclk=1,"19.6653455,78.5202985"
ILAHIYA MASJID,Mosque,"MGMH+97P ILAHIYA MASJID, Indira Nagar Rd, Bhagya Nagar, Adilabad, Telangana 504001",Bhagya Nagar,"MGMH+97P, Indira Nagar Rd",Adilabad,504001,Telangana,IN,https://www.google.com/maps/place/ILAHIYA+MASJID/data=!4m7!3m6!1s0x3bd25b8444ebd13f:0xe27cf6a1114241d4!8m2!3d19.6834654!4d78.5282048!16s%2Fg%2F11fzfhsmc2!19sChIJP9HrRIRb0jsR1EFCEaH2fOI?authuser=0&hl=en&rclk=1,"19.6834654,78.5282048"
masjid e noor,Mosque,"MG4Q+H92 masjid e noor, Sri Rama Colony, Adilabad, Telangana 504001",Sri Rama Colony,MG4Q+H92,Adilabad,504001,Telangana,IN,https://www.google.com/maps/place/masjid+e+noor/data=!4m7!3m6!1s0x3bd25c6bd009a42f:0x83777eaad70e454d!8m2!3d19.6563983!4d78.5384053!16s%2Fg%2F11c5t1smfj!19sChIJL6QJ0Gtc0jsRTUUO16p-d4M?authuser=0&hl=en&rclk=1,"19.6563983,78.5384053"
Masjid E-munawar,Mosque,"MGHG+WFR Masjid E-munawar, Indira Nagar, Bhagya Nagar, Adilabad, Telangana 504001","Indira Nagar, Bhagya Nagar",MGHG+WFR,Adilabad,504001,Telangana,IN,https://www.google.com/maps/place/Masjid+E-munawar/data=!4m7!3m6!1s0x3bd25b814a89a5d1:0x13757a533e5d9127!8m2!3d19.6798716!4d78.5261472!16s%2Fg%2F11g5_f9f2n!19sChIJ0aWJSoFb0jsRJ5FdPlN6dRM?authuser=0&hl=en&rclk=1,"19.6798716,78.5261472"
Masjid-e-hanfia,Mosque,"MGPM+2C4 Masjid-e-hanfia, Kranti Nagar, Gandhi Nagar, Adilabad, Telangana 504001","Kranti Nagar, Gandhi Nagar",MGPM+2C4,Adilabad,504001,Telangana,IN,https://www.google.com/maps/place/Masjid-e-hanfia/data=!4m7!3m6!1s0x3bd25b8fa218f2e1:0x18f2829bdf51eaf4!8m2!3d19.6850231!4d78.5335857!16s%2Fg%2F11dd_qtmkm!19sChIJ4fIYoo9b0jsR9OpR35uC8hg?authuser=0&hl=en&rclk=1,"19.6850231,78.5335857"
Masjid-E- Rahimaniya,Mosque,"MGRR+5G5 Masjid-E- Rahimaniya, Tirupally, Adilabad, Telangana 504001",Tirupally,MGRR+5G5,Adilabad,504001,Telangana,IN,https://www.google.com/maps/place/Masjid-E-+Rahimaniya/data=!4m7!3m6!1s0x3bd25ba3e27d5519:0x3ff2f3403e845bff!8m2!3d19.6903884!4d78.5413572!16s%2Fg%2F11gmblynz2!19sChIJGVV94qNb0jsR_1uEPkDz8j8?authuser=0&hl=en&rclk=1,"19.6903884,78.5413572"
Khanka E Mohammadi,Mosque,"MGJV+P72 Khanka E Mohammadi, Tirupally, Adilabad, Telangana 504001",Tirupally,MGJV+P72,Adilabad,504001,Telangana,IN,https://www.google.com/maps/place/Khanka+E+Mohammadi/data=!4m7!3m6!1s0x3bd25bd22744411f:0x22b8cbaf2829e2c7!8m2!3d19.6817626!4d78.5431504!16s%2Fg%2F11g1rbmtkk!19sChIJH0FEJ9Jb0jsRx-IpKK_LuCI?authuser=0&hl=en&rclk=1,"19.6817626,78.5431504"
Masjid E Namrah,Mosque,"MGGM+7CV Masjid E Namrah, Ambedkar Chowk, Bhuktapur, Telangana 504001",,"MGGM+7CV, Ambedkar Chowk",Bhuktapur,,Telangana,IN,https://www.google.com/maps/place/Masjid+E+Namrah/data=!4m7!3m6!1s0x3bd25b8829cd21e7:0xb871a2b68c3b292c!8m2!3d19.6757458!4d78.5335363!16s%2Fg%2F11b6v0h3n3!19sChIJ5yHNKYhb0jsRLCk7jLaicbg?authuser=0&hl=en&rclk=1,"19.675745799999998,78.5335363"
Umar Masjid,Mosque,"MG2H+9J7 Umar Masjid, Pittalwada, Khoja Colony, Adilabad, Telangana 504001","Pittalwada, Khoja Colony",MG2H+9J7,Adilabad,504001,Telangana,IN,https://www.google.com/maps/place/Umar+Masjid/data=!4m7!3m6!1s0x3bd25c5d9e45a7ff:0xd9937a4c4bfe8c53!8m2!3d19.6509166!4d78.5290486!16s%2Fg%2F11fx95lqmp!19sChIJ_6dFnl1c0jsRU4z-S0x6k9k?authuser=0&hl=en&rclk=1,"19.6509166,78.5290486"
Masjid E Umar Farooq,Mosque,"CFG3+GFW Masjid E Umar Farooq, Ichoda, Telangana 504307",,CFG3+GFW,Ichoda,504307,Telangana,IN,https://www.google.com/maps/place/Masjid+E+Umar+Farooq/data=!4m7!3m6!1s0x3bd26f986a32f5f1:0xa79367774c71be95!8m2!3d19.4263502!4d78.4537135!16s%2Fg%2F11f03zm31b!19sChIJ8fUyaphv0jsRlb5xTHdnk6c?authuser=0&hl=en&rclk=1,"19.426350199999998,78.45371349999999"
Jama Masjid Ghotkuri,Mosque,"PGM5+G6V Jama Masjid Ghotkuri, Ghotkuri, Telangana 504312",,PGM5+G6V,Ghotkuri,504312,Telangana,IN,https://www.google.com/maps/place/Jama+Masjid+Ghotkuri/data=!4m7!3m6!1s0x3bd25b8331a0a60d:0x41ef8cf68b67feef!8m2!3d19.7338744!4d78.5080623!16s%2Fg%2F11gyyzzys3!19sChIJDaagMYNb0jsR7_5ni_aM70E?authuser=0&hl=en&rclk=1,"19.733874399999998,78.50806229999999"
MOHAMMAD IS MASJID,Mosque,"GHF6+VQ6 MOHAMMAD IS MASJID, Tosham, Telangana 504308",,GHF6+VQ6,Tosham,504308,Telangana,IN,https://www.google.com/maps/place/MOHAMMAD+IS+MASJID/data=!4m7!3m6!1s0x3bd267780b316d2b:0x43def7ea72223fa!8m2!3d19.5246611!4d78.5618857!16s%2Fg%2F11fjyxlpk6!19sChIJK20xC3hn0jsR-iMip37vPQQ?authuser=0&hl=en&rclk=1,"19.5246611,78.56188569999999"
Masjid E IBrahimiya,Mosque,"Masjid E IBrahimiya, Shanti Nagar, Adilabad, Telangana 504001",Shanti Nagar,,Adilabad,504001,Telangana,IN,https://www.google.com/maps/place/Masjid+E+IBrahimiya/data=!4m7!3m6!1s0x3bd25d44b0027dc7:0x5b9c582e308fceb0!8m2!3d19.6688451!4d78.5432386!16s%2Fg%2F11flbsbk92!19sChIJx30CsERd0jsRsM6PMC5YnFs?authuser=0&hl=en&rclk=1,"19.6688451,78.5432386"
Masjid e Noorani,Mosque,"MGMQ+P66 Masjid e Noorani, Mahalaxmiwada, Adilabad, Telangana 504001",Mahalaxmiwada,MGMQ+P66,Adilabad,504001,Telangana,IN,https://www.google.com/maps/place/Masjid+e+Noorani/data=!4m7!3m6!1s0x3bd25b71656d7da1:0x9db65c4943296ea6!8m2!3d19.6842802!4d78.5380187!16s%2Fg%2F11gphd3bdg!19sChIJoX1tZXFb0jsRpm4pQ0lctp0?authuser=0&hl=en&rclk=1,"19.6842802,78.5380187"
Masjid-E-Zohra,Mosque,"Masjid-E-Zohra, Masjid-E- Zohra, Ambedkar Nagar, Khanapur, Telangana 504001",Ambedkar Nagar,Masjid-E- Zohra,Khanapur,504001,Telangana,IN,https://www.google.com/maps/place/Masjid-E-Zohra/data=!4m7!3m6!1s0x3bd25dbaced23b33:0xe16af2c30b24656!8m2!3d19.6729258!4d78.5447961!16s%2Fg%2F11j000cqb1!19sChIJMzvSzrpd0jsRVkayMCyvFg4?authuser=0&hl=en&rclk=1,"19.672925799999998,78.5447961"
Masjid-E-Aqsa,Mosque,"Masjid-E-Aqsa, Masjid-E-Aqsa Khanapur, Ambedkar Nagar, Khanapur, Telangana 504001",Ambedkar Nagar,Masjid-E-Aqsa Khanapur,Khanapur,504001,Telangana,IN,https://www.google.com/maps/place/Masjid-E-Aqsa/data=!4m7!3m6!1s0x3bd25dcc44670e61:0x730f194bf8b6847d!8m2!3d19.6716338!4d78.5448989!16s%2Fg%2F11j07wlncw!19sChIJYQ5nRMxd0jsRfYS2-EsZD3M?authuser=0&hl=en&rclk=1,"19.6716338,78.54489889999999"
Masjid-e- Amina,Mosque,"MGFR+G3G Masjid-e- Amina, Brahmanwadi, Adilabad, Telangana 504001",Brahmanwadi,MGFR+G3G,Adilabad,504001,Telangana,IN,https://www.google.com/maps/place/Masjid-e-+Amina/data=!4m7!3m6!1s0x3bd25ddc88f570b9:0x22cb1f0c107c4bc6!8m2!3d19.6738162!4d78.5401916!16s%2Fg%2F11k7xv923r!19sChIJuXD1iNxd0jsRxkt8EAwfyyI?authuser=0&hl=en&rclk=1,"19.673816199999997,78.5401916"
Osmania Masjid,Mosque,"MGGH+J95 Osmania Masjid, Unnamed Road, Osmania Nagar, Adilabad, Telangana 504001",Osmania Nagar,"MGGH+J95, Unnamed Road",Adilabad,504001,Telangana,IN,https://www.google.com/maps/place/Osmania+Masjid/data=!4m7!3m6!1s0x3bd25be4233f9883:0xb2c0a1b37d2b2191!8m2!3d19.6765118!4d78.5284822!16s%2Fg%2F11h76l8r35!19sChIJg5g_I-Rb0jsRkSErfbOhwLI?authuser=0&hl=en&rclk=1,"19.6765118,78.5284822"
Masjid-e-Siddique,Mosque,"MG78+GG3 Masjid-e-Siddique, Unnamed Road, Subhash Nagar, Adilabad, Telangana 504001",Subhash Nagar,"MG78+GG3, Unnamed Road",Adilabad,504001,Telangana,IN,https://www.google.com/maps/place/Masjid-e-Siddique/data=!4m7!3m6!1s0x3bd25ddfdb658e8d:0x40be051be107f7ff!8m2!3d19.66377!4d78.516291!16s%2Fg%2F11h6mnz8kz!19sChIJjY5l299d0jsR__cH4RsFvkA?authuser=0&hl=en&rclk=1,"19.66377,78.516291"
"Madarsa Jamia Kanzul Iman, Tajushariya Colony",Mosque,"Madarsa Jamia Kanzul Iman, Tajushariya Colony, Tajushshariah colony, sathnala road, Adilabad, Telangana 504001",,"Tajushshariah colony, sathnala road",Adilabad,504001,Telangana,IN,"https://www.google.com/maps/place/Madarsa+Jamia+Kanzul+Iman,+Tajushariya+Colony/data=!4m7!3m6!1s0x3bd25bf7e96ee307:0x951a6fc37998f72e!8m2!3d19.6781047!4d78.5569819!16s%2Fg%2F11tsz_q5km!19sChIJB-Nu6fdb0jsRLveYecNvGpU?authuser=0&hl=en&rclk=1","19.6781047,78.5569819"
Masjid-e-Hazrat Syedna Ali,Mosque,"Masjid-e-Hazrat Syedna Ali, Tatiguda Colony, Adilabad, Telangana 504001",Tatiguda Colony,,Adilabad,504001,Telangana,IN,https://www.google.com/maps/place/Masjid-e-Hazrat+Syedna+Ali/data=!4m7!3m6!1s0x3bd25b054f1b7477:0xbe5511ba6cbe653a!8m2!3d19.6844778!4d78.5344335!16s%2Fg%2F11h_488z3f!19sChIJd3QbTwVb0jsROmW-bLoRVb4?authuser=0&hl=en&rclk=1,"19.6844778,78.53443349999999"
Jama masjid,Mosque,"MC8G+7J9 Jama masjid, Unnamed Road, Umadam, Telangana 504001",,"MC8G+7J9, Unnamed Road",Umadam,504001,Telangana,IN,https://www.google.com/maps/place/Jama+masjid/data=!4m7!3m6!1s0x3bd2438922bc7361:0x90f6ce9e5e66ddca!8m2!3d19.6656543!4d78.426601!16s%2Fg%2F11qsvy6d57!19sChIJYXO8IolD0jsRyt1mXp7O9pA?authuser=0&hl=en&rclk=1,"19.6656543,78.42660099999999"
Masjid E Hamza Ramnagar Adilabad,Mosque,"MG4C+F8M Masjid E Hamza Ramnagar Adilabad, Ramnagar Colony, Adilabad, Telangana 504001",Ramnagar Colony,MG4C+F8M,Adilabad,504001,Telangana,IN,https://www.google.com/maps/place/Masjid+E+Hamza+Ramnagar+Adilabad/data=!4m7!3m6!1s0x3bd25d6d632224ef:0xc12bfcc836f7600c!8m2!3d19.6562608!4d78.5213636!16s%2Fg%2F11r_w2kkk1!19sChIJ7yQiY21d0jsRDGD3Nsj8K8E?authuser=0&hl=en&rclk=1,"19.6562608,78.5213636"
Masjid E Umar,Mosque,"PG3V+48M Masjid E Umar, Adilabad, Telangana 504001",,PG3V+48M,Adilabad,,Telangana,IN,https://www.google.com/maps/place/Masjid+E+Umar/data=!4m7!3m6!1s0x3bd25bdf0118b5d3:0x62b0f5a28ee4880c!8m2!3d19.7028448!4d78.5433019!16s%2Fg%2F11ns53vp9f!19sChIJ07UYAd9b0jsRDIjkjqL1sGI?authuser=0&hl=en&rclk=1,"19.702844799999998,78.5433019"
Masjid-E-Kausar,Mosque,"MG8Q+6M8 Masjid-E-Kausar, Shanti Nagar, Adilabad, Telangana 504001",Shanti Nagar,MG8Q+6M8,Adilabad,504001,Telangana,IN,https://www.google.com/maps/place/Masjid-E-Kausar/data=!4m7!3m6!1s0x3bd25c726cbfffff:0xdcc8a30755b4260c!8m2!3d19.6655322!4d78.5391992!16s%2Fg%2F11txmzh9h_!19sChIJ__-_bHJc0jsRDCa0VQejyNw?authuser=0&hl=en&rclk=1,"19.665532199999998,78.5391992"
Makkah Masjid,Mosque,"JGVP+75 Makkah Masjid, Khoja Colony, Adilabad, Telangana 504001",Khoja Colony,JGVP+75,Adilabad,504001,Telangana,IN,https://www.google.com/maps/place/Makkah+Masjid/data=!4m7!3m6!1s0x3bd25d02ee832577:0x98776ac946be5479!8m2!3d19.6431637!4d78.5353692!16s%2Fg%2F11r_wlfhm2!19sChIJdyWD7gJd0jsReVS-Rslqd5g?authuser=0&hl=en&rclk=1,"19.6431637,78.53536919999999"
Masjid-E-ibraheem bin abbas,Mosque,"MGGX+2JV Masjid-E-ibraheem bin abbas, Ambedkar Nagar, Adilabad, Telangana 504001",Ambedkar Nagar,MGGX+2JV,Adilabad,504001,Telangana,IN,https://www.google.com/maps/place/Masjid-E-ibraheem+bin+abbas/data=!4m7!3m6!1s0x3bd25dca817e57db:0x80929612f281e68c!8m2!3d19.6751132!4d78.5490388!16s%2Fg%2F11jz2dzlg7!19sChIJ21d-gcpd0jsRjOaB8hKWkoA?authuser=0&hl=en&rclk=1,"19.6751132,78.54903879999999"
Masjid e Abu Hurera,Mosque,"MG3R+8F Masjid e Abu Hurera, Adilabad, Telangana 504001",,MG3R+8F,Adilabad,,Telangana,IN,https://www.google.com/maps/place/Masjid+e+Abu+Hurera/data=!4m7!3m6!1s0x3bd25d2ea7388ce5:0x955ec3718d1b00a1!8m2!3d19.6532544!4d78.5411588!16s%2Fg%2F11twgyhbqr!19sChIJ5Yw4py5d0jsRoQAbjXHDXpU?authuser=0&hl=en&rclk=1,"19.653254399999998,78.54115879999999"
Masjide Mera,Mosque,"Masjide Mera, Police line, Old Housing Board Colony, Ravindra Nagar Colony, Adilabad, Telangana 504001","Old Housing Board Colony, Ravindra Nagar Colony",Police line,Adilabad,,Telangana,IN,https://www.google.com/maps/place/Masjide+Mera/data=!4m7!3m6!1s0x3bd25d4f276d7737:0xfba7d6c285a2493a!8m2!3d19.6640624!4d78.5320107!16s%2Fg%2F11jt228q6b!19sChIJN3dtJ09d0jsROkmihcLWp_s?authuser=0&hl=en&rclk=1,"19.6640624,78.5320107"
KHANKHA E MOHAMMADI ADILABAD,Mosque,"MG7H+84G KHANKHA E MOHAMMADI ADILABAD, Adilabad Main Rd, Satnala Quarters, chaitanyapuri, Adilabad, Telangana 504001","Satnala Quarters, chaitanyapuri","MG7H+84G, Adilabad Main Rd",Adilabad,504001,Telangana,IN,https://www.google.com/maps/place/KHANKHA+E+MOHAMMADI+ADILABAD/data=!4m7!3m6!1s0x3bd25d7de627a569:0x4868af4429eca682!8m2!3d19.6633136!4d78.5278399!16s%2Fg%2F11nxrkqmlw!19sChIJaaUn5n1d0jsRgqbsKUSvaEg?authuser=0&hl=en&rclk=1,"19.6633136,78.52783989999999"
masjid,Mosque,"MGFX+R5C masjid, Ambedkar Nagar, Adilabad, Telangana 504001",Ambedkar Nagar,MGFX+R5C,Adilabad,504001,Telangana,IN,https://www.google.com/maps/place/masjid/data=!4m7!3m6!1s0x3bd25dea5bc85cff:0xa139fac0fe5bfbe8!8m2!3d19.6750538!4d78.549016!16s%2Fg%2F11tg1ql3mw!19sChIJ_1zIW-pd0jsR6Ptb_sD6OaE?authuser=0&hl=en&rclk=1,"19.6750538,78.549016"
Eid Gah and muslim burial ground,Mosque,"F942+CJP Eid Gah and muslim burial ground, Bazarhatnoor Rd, Bazarhatnoor, Telangana 504304",,"F942+CJP, Bazarhatnoor Rd",Bazarhatnoor,504304,Telangana,IN,https://www.google.com/maps/place/Eid+Gah+and+muslim+burial+ground/data=!4m7!3m6!1s0x3bd26c68f55bd4df:0x37802d22bc216b99!8m2!3d19.4560996!4d78.3515659!16s%2Fg%2F11cmv2275y!19sChIJ39Rb9Whs0jsRmWshvCItgDc?authuser=0&hl=en&rclk=1,"19.456099599999998,78.3515659"
Masjid e Meena,Mosque,"MGP9+8H Masjid e Meena, Gandi Nagar, Gandhi Nagar, Adilabad, Telangana 504001","Gandi Nagar, Gandhi Nagar",MGP9+8H,Adilabad,504001,Telangana,IN,https://www.google.com/maps/place/Masjid+e+Meena/data=!4m7!3m6!1s0x3bd25b2d5ed8222d:0x771014856dfdca9c!8m2!3d19.685762!4d78.5189931!16s%2Fg%2F11tw_8y348!19sChIJLSLYXi1b0jsRnMr9bYUUEHc?authuser=0&hl=en&rclk=1,"19.685762,78.5189931"
Mecca masjid,Mosque,"MGP8+9W4 Mecca masjid, Ranadive Nagar, Adilabad, Telangana 504001",Ranadive Nagar,MGP8+9W4,Adilabad,504001,Telangana,IN,https://www.google.com/maps/place/Mecca+masjid/data=!4m7!3m6!1s0x3bd25bb7b3fb23e1:0x87b034458c3a1168!8m2!3d19.6862525!4d78.5171874!16s%2Fg%2F11stb2lqs3!19sChIJ4SP7s7db0jsRaBE6jEU0sIc?authuser=0&hl=en&rclk=1,"19.6862525,78.5171874"
"JAM-E-MASJID,MANNUR",Mosque,"FFPW+29F JAM-E-MASJID,MANNUR, AH43, Mannur, Telangana 504308",,"FFPW+29F, AH43",Mannur,504308,Telangana,IN,"https://www.google.com/maps/place/JAM-E-MASJID,MANNUR/data=!4m7!3m6!1s0x3bd265bcb2478de3:0x3dc9202eefabe3bc!8m2!3d19.4850021!4d78.496046!16s%2Fg%2F11twqt17yj!19sChIJ441Hsrxl0jsRvOOr7y4gyT0?authuser=0&hl=en&rclk=1","19.4850021,78.49604599999999"
MASJID SHANTAPUR,Mosque,"FGFP+C5C MASJID SHANTAPUR, Gudihathnoor Mandal, Shantapur, Telangana 504308",,FGFP+C5C Gudihathnoor Mandal,Shantapur,504308,Telangana,IN,https://www.google.com/maps/place/MASJID+SHANTAPUR/data=!4m7!3m6!1s0x3bd2654db6a04cab:0xf7f3553ee06f6434!8m2!3d19.4739955!4d78.5351779!16s%2Fg%2F11tgc9r3cf!19sChIJq0ygtk1l0jsRNGRv4D5V8_c?authuser=0&hl=en&rclk=1,"19.473995499999997,78.5351779"
DARUL ULOOM HUSSAINIA ARABIC RESIDENTIAL SCHOOL,Mosque,"DARUL ULOOM HUSSAINIA ARABIC RESIDENTIAL SCHOOL, e Ibrahim, Road, New Housing Board 4th Zone, Wadi, Adilabad, Telangana 504001","New Housing Board 4th Zone, Wadi","e Ibrahim, Road",Adilabad,504001,Telangana,IN,https://www.google.com/maps/place/DARUL+ULOOM+HUSSAINIA+ARABIC+RESIDENTIAL+SCHOOL/data=!4m7!3m6!1s0x3bd25d078c55b7e3:0x84991b5134a69ea3!8m2!3d19.6585896!4d78.5114721!16s%2Fg%2F11t2c1_7d8!19sChIJ47dVjAdd0jsRo56mNFEbmYQ?authuser=0&hl=en&rclk=1,"19.6585896,78.51147209999999"
Masjid-E-Ayesha,Mosque,"MGCQ+XRX Masjid-E-Ayesha, Brahmanwadi, Adilabad, Telangana 504001",Brahmanwadi,MGCQ+XRX,Adilabad,504001,Telangana,IN,https://www.google.com/maps/place/Masjid-E-Ayesha/data=!4m7!3m6!1s0x3bd25c7445a55555:0xe3f8a99466fc71ef!8m2!3d19.6724753!4d78.5395986!16s%2Fg%2F11sscsfbvt!19sChIJVVWlRXRc0jsR73H8ZpSp-OM?authuser=0&hl=en&rclk=1,"19.6724753,78.53959859999999"
Madina masjid,Mosque,"HJX5+HJ6 Madina masjid, Lokari, Telangana 504001",,HJX5+HJ6,Lokari,504001,Telangana,IN,https://www.google.com/maps/place/Madina+masjid/data=!4m7!3m6!1s0x3bd25fd0b85e3af7:0x58b0d4e158d49e84!8m2!3d19.5986215!4d78.6098443!16s%2Fg%2F11s39q45km!19sChIJ9zpeuNBf0jsRhJ7UWOHUsFg?authuser=0&hl=en&rclk=1,"19.5986215,78.60984429999999"
Masjid-e-afreen,Mosque,"MGGF+4FV Masjid-e-afreen, khursheed Nagar, Adilabad, Telangana 504001",khursheed Nagar,MGGF+4FV,Adilabad,504001,Telangana,IN,https://www.google.com/maps/place/Masjid-e-afreen/data=!4m7!3m6!1s0x3bd25b038e0e96e3:0x1f892d183a40c1ab!8m2!3d19.6753577!4d78.5236845!16s%2Fg%2F11nn1rkr2z!19sChIJ45YOjgNb0jsRq8FAOhgtiR8?authuser=0&hl=en&rclk=1,"19.6753577,78.5236845"
Baba Shadullah Dargah,Mosque,"JGVM+X4J Baba Shadullah Dargah, KRK Colony, Khoja Colony, Adilabad, Telangana 504001","KRK Colony, Khoja Colony",JGVM+X4J,Adilabad,504001,Telangana,IN,https://www.google.com/maps/place/Baba+Shadullah+Dargah/data=!4m7!3m6!1s0x3bd25dde609dddf1:0xb10548e403faacef!8m2!3d19.6449191!4d78.5327293!16s%2Fg%2F11kpt652yk!19sChIJ8d2dYN5d0jsR76z6A-RIBbE?authuser=0&hl=en&rclk=1,"19.6449191,78.5327293"
Masjid-e-Umar Faruq,Mosque,"Masjid-e-Umar Faruq, 5-990, near Bhim Nagar, Indervelly, Telangana 504346",,"5-990, near Bhim Nagar",Indervelly,504346,Telangana,IN,https://www.google.com/maps/place/Masjid-e-Umar+Faruq/data=!4m7!3m6!1s0x3bd28977e7eaf70d:0x8258704df043e015!8m2!3d19.4936269!4d78.6706737!16s%2Fg%2F11st_xzdb0!19sChIJDffq53eJ0jsRFeBD8E1wWII?authuser=0&hl=en&rclk=1,"19.4936269,78.6706737"
Aamena masjid,Mosque,"JGX6+87J Aamena masjid, Dasnapur, Adilabad, Bhattisavargaon, Telangana 504001",Dasnapur,JGX6+87J,"Adilabad, Bhattisavargaon",504001,Telangana,IN,https://www.google.com/maps/place/Aamena+masjid/data=!4m7!3m6!1s0x3bd25d2e87707821:0x7a8dc8944d703c82!8m2!3d19.6483397!4d78.5106279!16s%2Fg%2F11tgg9_s_q!19sChIJIXhwhy5d0jsRgjxwTZTIjXo?authuser=0&hl=en&rclk=1,"19.648339699999998,78.5106279"
