name,main_category,address,address_ward,address_street,address_city,address_postal_code,address_state,address_country_code,link,coordinates
Nadesar Jama Masjid Varanasi,Mosque,"8XMQ+3R2 Nadesar Jama Masjid Varanasi, Nadesar, Kachari Rd, Varanasi, Uttar Pradesh 221002","Nadesar, Chaukaghat","8XMQ+3R2, Nadesar, Kachari Rd",Varanasi,221002,Uttar Pradesh,IN,https://www.google.com/maps/place/Nadesar+Jama+Masjid+Varanasi/data=!4m7!3m6!1s0x398e2dde5b453d73:0x8ebe0e84802818ab!8m2!3d25.3326482!4d82.989513!16s%2Fg%2F1hm1z3nwl!19sChIJcz1FW94tjjkRqxgogIQOvo4?authuser=0&hl=en&rclk=1,"25.332648199999998,82.989513"
Jamia Salafiah Masjid,Mosque,"Jamia Salafiah Masjid, B.18/1-G, Jamiah Salafiah Marg, Reori Talab, Bhelupur, Varanasi, Uttar Pradesh 221001","Ashfaq Nagar, Bhelupur","B.18/1-G, Jamiah Salafiah Marg, Reori Talab",Varanasi,221001,Uttar Pradesh,IN,https://www.google.com/maps/place/Jamia+Salafiah+Masjid/data=!4m7!3m6!1s0x398e31fe71eb390d:0x329e2217f298f6bd!8m2!3d25.3052855!4d82.9980971!16s%2Fg%2F12tb6wnpp!19sChIJDTnrcf4xjjkRvfaY8hcinjI?authuser=0&hl=en&rclk=1,"25.3052855,82.9980971"
Nagina Masjid,Mosque,"Nagina Masjid, B 20/36A,Near azhari Maidan(khuddi ka maidan, Reori Talab, Bhelupur, Varanasi, Uttar Pradesh 221010","Reori Talab, Ashfaq Nagar, Bhelupur","B 20/36A,Near azhari Maidan(khuddi ka maidan",Varanasi,221010,Uttar Pradesh,IN,https://www.google.com/maps/place/Nagina+Masjid/data=!4m7!3m6!1s0x398e31fc487004d7:0x628057a38dec24a4!8m2!3d25.3036042!4d83.0000695!16s%2Fg%2F11bwh5sr6b!19sChIJ1wRwSPwxjjkRpCTsjaNXgGI?authuser=0&hl=en&rclk=1,"25.3036042,83.0000695"
Masjid Hanfiya Ahle Sunnat,Mosque,"Masjid Hanfiya Ahle Sunnat, Bajardiha, Azad Nagar Colony, Phulwari Village, Varanasi cantonment, Varanasi, Uttar Pradesh 221010","Azad Nagar Colony, Phulwari Village, Varanasi cantonment",Bajardiha,Varanasi,221010,Uttar Pradesh,IN,https://www.google.com/maps/place/Masjid+Hanfiya+Ahle+Sunnat/data=!4m7!3m6!1s0x398e32101d22f701:0x55bb2e5217da7125!8m2!3d25.2943448!4d82.9821748!16s%2Fg%2F11c4hc56kx!19sChIJAfciHRAyjjkRJXHaF1Iuu1U?authuser=0&hl=en&rclk=1,"25.294344799999998,82.9821748"
Alamgir Masjid,Mosque,"Alamgir Masjid, Panchganga Ghat, Ghasi Tola, Varanasi, Domari, Uttar Pradesh 221001","Panchganga Ghat, Ghasi Tola",,"Varanasi, Domari",221001,Uttar Pradesh,IN,https://www.google.com/maps/place/Alamgir+Masjid/data=!4m7!3m6!1s0x398e2e23c9a2c171:0xcaac7406e0c55f75!8m2!3d25.3152397!4d83.0177845!16s%2Fg%2F11b8chsq90!19sChIJccGiySMujjkRdV_F4AZ0rMo?authuser=0&hl=en&rclk=1,"25.3152397,83.01778449999999"
Mahmoorganj Masjid,Mosque,"8X4J+5Q9 Mahmoorganj Masjid, Mahmoorganj, Varanasi, Uttar Pradesh 221010",Mahmoorganj,8X4J+5Q9,Varanasi,221010,Uttar Pradesh,IN,https://www.google.com/maps/place/Mahmoorganj+Masjid/data=!4m7!3m6!1s0x398e32080e963971:0xd0448f86e687d94f!8m2!3d25.3054028!4d82.981988!16s%2Fg%2F11d_x2mx1t!19sChIJcTmWDggyjjkRT9mH5oaPRNA?authuser=0&hl=en&rclk=1,"25.3054028,82.981988"
Muslim Musafir Khana Masjid,Mosque,"8274+3HJ Muslim Musafir Khana Masjid, Daalmandi Rd, Dalmandi, Harha, Varanasi, Uttar Pradesh 221001","Dalmandi, Harha","8274+3HJ, Daalmandi Rd",Varanasi,221001,Uttar Pradesh,IN,https://www.google.com/maps/place/Muslim+Musafir+Khana+Masjid/data=!4m7!3m6!1s0x398e2e1c88860bdf:0x108117d9466b0dd8!8m2!3d25.3127229!4d83.006406!16s%2Fg%2F11b6h_cs0v!19sChIJ3wuGiBwujjkR2A1rRtkXgRA?authuser=0&hl=en&rclk=1,"25.312722899999997,83.006406"
SHAHID BABA Mosque,Mosque,"82PF+9QF SHAHID BABA Mosque, Madan Mohan Malviya Rd, Lath Saraiya, Jalalipura, Varanasi, Uttar Pradesh 221001","Lath Saraiya, Jalalipura","82PF+9QF, Madan Mohan Malviya Rd",Varanasi,221001,Uttar Pradesh,IN,https://www.google.com/maps/place/SHAHID+BABA+Mosque/data=!4m7!3m6!1s0x398e2e47ca64481d:0xc57535c2d3d90dea!8m2!3d25.3359403!4d83.0244149!16s%2Fg%2F1hm1v4dn_!19sChIJHUhkykcujjkR6g3Z08I1dcU?authuser=0&hl=en&rclk=1,"25.335940299999997,83.0244149"
Minar Allu Ki Masjid,Mosque,"8233+VJ6 Minar Allu Ki Masjid, Unnamed Road, Malti Bagh, Tilbhandeshwer, Bhelupur, Varanasi, Uttar Pradesh 221001","Malti Bagh, Tilbhandeshwer, Bhelupur","8233+VJ6, Unnamed Road, Malti Bagh",Varanasi,221001,Uttar Pradesh,IN,https://www.google.com/maps/place/Minar+Allu+Ki+Masjid/data=!4m7!3m6!1s0x398e3178732d9b3d:0xce8160bea26e37a2!8m2!3d25.3046532!4d83.0040229!16s%2Fg%2F11btylwwnn!19sChIJPZstc3gxjjkRojduor5ggc4?authuser=0&hl=en&rclk=1,"25.3046532,83.0040229"
MASJID YAQOOB SHAHEED BABA,Mosque,"72J4+CCX MASJID YAQOOB SHAHEED BABA, Assi Rd, Nagwa, Varanasi, Uttar Pradesh 221005",Nagwa,"72J4+CCX, Assi Rd",Varanasi,221005,Uttar Pradesh,IN,https://www.google.com/maps/place/MASJID+YAQOOB+SHAHEED+BABA/data=!4m7!3m6!1s0x398e3192f8b6dba3:0x317d8374729ddbb6!8m2!3d25.2811033!4d83.0061185!16s%2Fg%2F124swn1r5!19sChIJo9u2-JIxjjkRttudcnSDfTE?authuser=0&hl=en&rclk=1,"25.281103299999998,83.0061185"
Butique varanasi sadar bazar,Mosque,"Butique varanasi sadar bazar, Sadar bazar, Varanasi, Uttar Pradesh 221002",Sadar bazar,,Varanasi,221002,Uttar Pradesh,IN,https://www.google.com/maps/place/Butique+varanasi+sadar+bazar/data=!4m7!3m6!1s0x398e2dea01eba129:0x76d2d48b37652c5c!8m2!3d25.3296632!4d82.9768734!16s%2Fg%2F11bwhb10tc!19sChIJKaHrAeotjjkRXCxlN4vU0nY?authuser=0&hl=en&rclk=1,"25.3296632,82.9768734"
Langde Hafiz Ki Masjid,Mosque,"8273+4V2 Langde Hafiz Ki Masjid, Daalmandi Rd, Benia Bagh Road, Nai Sarak, Varanasi, Uttar Pradesh 221001",Nai Sarak,"8273+4V2, Daalmandi Rd, Benia Bagh Road",Varanasi,221001,Uttar Pradesh,IN,https://www.google.com/maps/place/Langde+Hafiz+Ki+Masjid/data=!4m7!3m6!1s0x398e2e1ca5595e63:0x1a9192b75cc812e8!8m2!3d25.3127617!4d83.0046416!16s%2Fg%2F11b6gnbdqs!19sChIJY15ZpRwujjkR6BLIXLeSkRo?authuser=0&hl=en&rclk=1,"25.3127617,83.0046416"
Bahadur Shaheed Masjid,Mosque,"Bahadur Shaheed Masjid, A29/55 , Bahadur Shaheed, Pilikothi, Varanasi, Uttar Pradesh 221001","Pilikothi, Baluabir, Chittanpura, Aalampura","A29/55 , Bahadur Shaheed",Varanasi,221001,Uttar Pradesh,IN,https://www.google.com/maps/place/Bahadur+Shaheed+Masjid/data=!4m7!3m6!1s0x398e2e3e9e4ac185:0x7fe957e3d14052b3!8m2!3d25.3259761!4d83.0185734!16s%2Fg%2F11fzf42d3b!19sChIJhcFKnj4ujjkRs1JA0eNX6X8?authuser=0&hl=en&rclk=1,"25.3259761,83.0185734"
Masjid Lohatiya,Mosque,"Masjid Lohatiya, C24/1-A, Sant Kabir Rd, Narharpura, Kabir Nagar Churaha, Kotwali, Varanasi, Uttar Pradesh 221001","Narharpura, Kabir Nagar Churaha, Kotwali","C24/1-A, Sant Kabir Rd",Varanasi,221001,Uttar Pradesh,IN,https://www.google.com/maps/place/Masjid+Lohatiya/data=!4m7!3m6!1s0x398e2e175f93340b:0x6b1aea7cb6248744!8m2!3d25.3196542!4d83.0105385!16s%2Fg%2F11bxc5v_zv!19sChIJCzSTXxcujjkRRIcktnzqGms?authuser=0&hl=en&rclk=1,"25.3196542,83.0105385"
Oonchi Masjid,Mosque,"Oonchi Masjid, madanpura, Madanpura Rd, Varanasi, Uttar Pradesh 221001","Malti Bagh, Tilbhandeshwer, Bhelupur","madanpura, Madanpura Rd",Varanasi,221001,Uttar Pradesh,IN,https://www.google.com/maps/place/Oonchi+Masjid/data=!4m7!3m6!1s0x398e31e2cf87236b:0x50f6605906214e6c!8m2!3d25.3055241!4d83.0046956!16s%2Fg%2F11b5ymdyc4!19sChIJayOHz-IxjjkRbE4hBllg9lA?authuser=0&hl=en&rclk=1,"25.3055241,83.00469559999999"
Meenar Vali Masjid,Mosque,"8X7W+WX3 Meenar Vali Masjid, Kazipura Khurd, Naipokhari, Chetganj, Aurangabad, Varanasi, Uttar Pradesh 221010","Kazipura Khurd, Naipokhari, Chetganj",8X7W+WX3,"Aurangabad, Varanasi",221010,Uttar Pradesh,IN,https://www.google.com/maps/place/Meenar+Vali+Masjid/data=!4m7!3m6!1s0x398e2e06944c4767:0x2bed55f2e26eaf78!8m2!3d25.31475!4d82.9974149!16s%2Fg%2F11b6p_g2wt!19sChIJZ0dMlAYujjkReK9u4vJV7Ss?authuser=0&hl=en&rclk=1,"25.31475,82.9974149"
Masjid E Ghausia Khalispura,Mosque,"Masjid E Ghausia Khalispura, D 33/11 Khalispura, Ganesh Mahal, Jangambadi Post Office Street, Dashashwamedh Ghat Rd, Near Munshi Ghat, Varanasi, Uttar Pradesh 221001",Bangali Tola,"D 33/11 Khalispura, Ganesh Mahal, Jangambadi Post Office Street, Dashashwamedh Ghat Rd, Near Munshi Ghat",Varanasi,221001,Uttar Pradesh,IN,https://www.google.com/maps/place/Masjid+E+Ghausia+Khalispura/data=!4m7!3m6!1s0x398e31e23fcd3e9d:0xb550e25556cc1dfb!8m2!3d25.3061597!4d83.0081007!16s%2Fg%2F11hcd_0n38!19sChIJnT7NP-IxjjkR-x3MVlXiULU?authuser=0&hl=en&rclk=1,"25.3061597,83.0081007"
Masjid Ghausia Nawab Ganj,Mosque,"7XRW+GMQ Masjid Ghausia Nawab Ganj, Nawabganj, Durgakund, Jawahar Nagar Colony, Bhelupur, Varanasi, Uttar Pradesh 221010","Nawabganj, Durgakund, Jawahar Nagar Colony, Bhelupur",7XRW+GMQ,Varanasi,221010,Uttar Pradesh,IN,https://www.google.com/maps/place/Masjid+Ghausia+Nawab+Ganj/data=!4m7!3m6!1s0x398e31f6ee997af7:0xb51458f5a70ce29e!8m2!3d25.2913496!4d82.9967255!16s%2Fg%2F11b6cbc4pm!19sChIJ93qZ7vYxjjkRnuIMp_VYFLU?authuser=0&hl=en&rclk=1,"25.2913496,82.9967255"
"Choti Masjid, Sadar Bazar",Mosque,"8XJG+5HF Choti Masjid, Sadar Bazar, Varanasi cantonment, Varanasi, Uttar Pradesh 221002",Varanasi cantonment,8XJG+5HF,Varanasi,221002,Uttar Pradesh,IN,"https://www.google.com/maps/place/Choti+Masjid,+Sadar+Bazar/data=!4m7!3m6!1s0x398e2dc1fa960299:0xa06a1542dbdfed18!8m2!3d25.3304345!4d82.9764186!16s%2Fg%2F11c3tj51yx!19sChIJmQKW-sEtjjkRGO3f20IVaqA?authuser=0&hl=en&rclk=1","25.3304345,82.9764186"
Masjid Tayyab Shah (Ahle Hadees),Mosque,"8234+W5Q Masjid Tayyab Shah (Ahle Hadees), neem talla,, Madanpura","Madanpura, Bangali Tola","8234+W5Q, neem talla,",Varanasi,,Uttar Pradesh,IN,https://www.google.com/maps/place/Masjid+Tayyab+Shah+%28Ahle+Hadees%29/data=!4m7!3m6!1s0x398e31e2e10d6c05:0x834f227f990ab326!8m2!3d25.3048415!4d83.0054959!16s%2Fg%2F11btwv9s1x!19sChIJBWwN4eIxjjkRJrMKmX8iT4M?authuser=0&hl=en&rclk=1,"25.3048415,83.0054959"
"KAUWASHAH MASJID, HADAHA",Mosque,"8285+3CX KAUWASHAH MASJID, HADAHA, Benia Bagh, Varanasi, Uttar Pradesh 221001",Benia Bagh,8285+3CX,Varanasi,221001,Uttar Pradesh,IN,"https://www.google.com/maps/place/KAUWASHAH+MASJID,+HADAHA/data=!4m7!3m6!1s0x398e2e1bc38ebe5b:0x9fe6ae52c531c8fe!8m2!3d25.3152445!4d83.008608!16s%2Fg%2F1ptwrp0sw!19sChIJW76OwxsujjkR_sgxxVKu5p8?authuser=0&hl=en&rclk=1","25.3152445,83.008608"
"Shaikh Naubat Masjid, Chetganj, Varanasi",Mosque,"Shaikh Naubat Masjid, Chetganj, Varanasi, Cantt, Near Kalika Hotel, Vidyapeeth Rd, Englishiyaline, Vijay Nagar Colony, Chetganj, Varanasi, Uttar Pradesh 221002","Englishiyaline, Vijay Nagar Colony, Chetganj","Cantt, Near Kalika Hotel, Vidyapeeth Rd",Varanasi,221002,Uttar Pradesh,IN,"https://www.google.com/maps/place/Shaikh+Naubat+Masjid,+Chetganj,+Varanasi/data=!4m7!3m6!1s0x398e2de3ff2e4193:0xf5a383064ab0f256!8m2!3d25.3240868!4d82.9880374!16s%2Fg%2F11b6hx0t3d!19sChIJk0Eu_-MtjjkRVvKwSgaDo_U?authuser=0&hl=en&rclk=1","25.3240868,82.9880374"
Hafiz Zahoor Masjid,Mosque,"8232+3HR Hafiz Zahoor Masjid, Durgakund Rd, Bhelupur Rd, Reori Talab, Bhelupur, Varanasi, Uttar Pradesh 221001","Reori Talab, Tilbhandeshwer, Bhelupur","8232+3HR, Durgakund Rd, Bhelupur Rd",Varanasi,221001,Uttar Pradesh,IN,https://www.google.com/maps/place/Hafiz+Zahoor+Masjid/data=!4m7!3m6!1s0x398e31fc8ae6658d:0x5416433bcff03712!8m2!3d25.3027356!4d83.0013779!16s%2Fg%2F1hc4wpxfs!19sChIJjWXmivwxjjkREjfwzztDFlQ?authuser=0&hl=en&rclk=1,"25.3027356,83.0013779"
Masjid-E-Belal msjd bll,Mosque,"Masjid-E-Belal msjd bll, Malti Bagh, Tilbhandeshwer, Ramapura Luxa, Varanasi, Uttar Pradesh 221001","Malti Bagh, Tilbhandeshwer, Ramapura Luxa",,Varanasi,221001,Uttar Pradesh,IN,https://www.google.com/maps/place/Masjid-E-Belal+%D9%85%D8%B3%D8%AC%D8%AF+%D8%A8%D9%84%D8%A7%D9%84%E2%80%AD/data=!4m7!3m6!1s0x398e31fcdd8f9ec3:0x81ef274f80a09b7c!8m2!3d25.303973!4d83.0026312!16s%2Fg%2F11b5qvkcrw!19sChIJw56P3fwxjjkRfJuggE8n74E?authuser=0&hl=en&rclk=1,"25.303973,83.0026312"
Masjid Bagh E Noor,Mosque,"82H4+WGR Masjid Bagh E Noor, Bunker Colony, Dhupchandi, Jaitpura, Varanasi, Uttar Pradesh 221001","Bunker Colony, Dhupchandi, Jaitpura","82H4+WGR, Bunker Colony",Varanasi,221001,Uttar Pradesh,IN,https://www.google.com/maps/place/Masjid+Bagh+E+Noor/data=!4m7!3m6!1s0x398e2e12905c60a9:0xa992c79c115293df!8m2!3d25.3298648!4d83.006251!16s%2Fg%2F11cm04hfny!19sChIJqWBckBIujjkR35NSEZzHkqk?authuser=0&hl=en&rclk=1,"25.3298648,83.00625099999999"
Kachchi Masjid,Mosque,"82J4+FW4 Kachchi Masjid, Bari Bazar Rd, Rasoolpura, Bunker Colony, Alaipura, Jaitpura, Varanasi, Uttar Pradesh 221001","Rasoolpura, Bunker Colony, Alaipura, Jaitpura","82J4+FW4, Bari Bazar Rd",Varanasi,221001,Uttar Pradesh,IN,https://www.google.com/maps/place/Kachchi+Masjid/data=!4m7!3m6!1s0x398e2e1332becaf7:0x7878cc15f07c117!8m2!3d25.3311375!4d83.0073312!16s%2Fg%2F11cm0m899w!19sChIJ98q-MhMujjkRF8EHX8GMhwc?authuser=0&hl=en&rclk=1,"25.3311375,83.0073312"
Masjid ziapura,Mosque,"8282+V33 Masjid ziapura, ziapura, Chetganj, Varanasi, Uttar Pradesh 221001",Chetganj,"8282+V33, ziapura",Varanasi,221001,Uttar Pradesh,IN,https://www.google.com/maps/place/Masjid+ziapura/data=!4m7!3m6!1s0x398e2e05b746d4e5:0x758863f7b1d2cf13!8m2!3d25.3171442!4d83.0001674!16s%2Fg%2F11fxzrd61n!19sChIJ5dRGtwUujjkRE8_SsfdjiHU?authuser=0&hl=en&rclk=1,"25.317144199999998,83.0001674"
LAAT BHAIRO MASJID,Mosque,"LAAT BHAIRO MASJID, Jalalipura, Varanasi, Uttar Pradesh 221001",Jalalipura,,Varanasi,221001,Uttar Pradesh,IN,https://www.google.com/maps/place/LAAT+BHAIRO+MASJID/data=!4m7!3m6!1s0x398e2e47eacde025:0x96412df29b57572d!8m2!3d25.3333639!4d83.024074!16s%2Fg%2F11g8vmg6s_!19sChIJJeDN6kcujjkRLVdXm_ItQZY?authuser=0&hl=en&rclk=1,"25.3333639,83.024074"
Auliya Jama Masjid,Mosque,"7XVM+5MW Auliya Jama Masjid, Sarai Nandan, Nagwa, Varanasi, Uttar Pradesh 221009","Sarai Nandan, Nagwa",7XVM+5MW,Varanasi,221009,Uttar Pradesh,IN,https://www.google.com/maps/place/Auliya+Jama+Masjid/data=!4m7!3m6!1s0x398e321ae9393d3d:0xd6f7385410c4703!8m2!3d25.292983!4d82.984189!16s%2Fg%2F11b6j0spq8!19sChIJPT056RoyjjkRA0cMQYVzbw0?authuser=0&hl=en&rclk=1,"25.292983,82.984189"
Masjid Ahle Hadees nadesar,Mosque,"Masjid Ahle Hadees nadesar, Nadesar, Motor market, Chaukaghat, Varanasi, Uttar Pradesh 221002","Nadesar, Chaukaghat","Nadesar, Motor market",Varanasi,221002,Uttar Pradesh,IN,https://www.google.com/maps/place/Masjid+Ahle+Hadees+nadesar/data=!4m7!3m6!1s0x398e2ddfecc1ea31:0x255584b4f984ad26!8m2!3d25.3319536!4d82.991243!16s%2Fg%2F11hbc4pcmd!19sChIJMerB7N8tjjkRJq2E-bSEVSU?authuser=0&hl=en&rclk=1,"25.3319536,82.991243"
Noori Masjid msjd,Mosque,"8X3W+CW5 Noori Masjid msjd, Kamaccha, Ashfaq Nagar, Bhelupur, Varanasi, Uttar Pradesh 221001","Kamaccha, Ashfaq Nagar, Bhelupur",8X3W+CW5,Varanasi,221001,Uttar Pradesh,IN,https://www.google.com/maps/place/Noori+Masjid+%D9%85%D8%B3%D8%AC%D8%AF%E2%80%AD/data=!4m7!3m6!1s0x398e31fe8d823225:0x1fa9f128785234!8m2!3d25.3035196!4d82.9973682!16s%2Fg%2F11bx4btrym!19sChIJJTKCjf4xjjkRNFJ4KPGpHwA?authuser=0&hl=en&rclk=1,"25.303519599999998,82.9973682"
Jahangiri Masjid Khojid Kuan,Mosque,"Jahangiri Masjid Khojid Kuan, A32/64-E, Chittanpura, Aalampura, Varanasi, Uttar Pradesh 221001","Chittanpura, Aalampura",A32/64-E,Varanasi,221001,Uttar Pradesh,IN,https://www.google.com/maps/place/Jahangiri+Masjid+Khojid+Kuan/data=!4m7!3m6!1s0x398e2e39657ea8db:0x87af8d7e02c830fa!8m2!3d25.326741!4d83.0218909!16s%2Fg%2F11css0prgy!19sChIJ26h-ZTkujjkR-jDIAn6Nr4c?authuser=0&hl=en&rclk=1,"25.326741,83.0218909"
Masjid Ashiq Mashuq,Mosque,"Masjid Ashiq Mashuq, A-24, Siddhigiri Bagh Rd, Kasturba Nagar, Siddharthanagar, Siddhigiri Bagh Rd, Kasturba Nagar, Siddharthanagar, Varanasi, Uttar Pradesh 221001","Kasturba Nagar, Siddharthanagar","A-24, Siddhigiri Bagh Rd, Kasturba Nagar, Siddharthanagar, Siddhigiri Bagh Rd",Varanasi,221001,Uttar Pradesh,IN,https://www.google.com/maps/place/Masjid+Ashiq+Mashuq/data=!4m7!3m6!1s0x398e2dfe16dfd56b:0x9e0513cd2ec9ad3b!8m2!3d25.3116787!4d82.9922918!16s%2Fg%2F11dftgq47g!19sChIJa9XfFv4tjjkRO63JLs0TBZ4?authuser=0&hl=en&rclk=1,"25.311678699999998,82.99229179999999"
Fatman Roza/Mazar/Zeyaratgah/Masjid,Mosque,"8X9V+V3R Fatman Roza/Mazar/Zeyaratgah/Masjid, Badshahbag Colony, Ramakanth Nagar, Chetganj, Varanasi, Uttar Pradesh 221001","Badshahbag Colony, Ramakanth Nagar, Chetganj",8X9V+V3R,Varanasi,221001,Uttar Pradesh,IN,https://www.google.com/maps/place/Fatman+Roza%2FMazar%2FZeyaratgah%2FMasjid/data=!4m7!3m6!1s0x398e2de2a4ed0499:0x995b07781428584!8m2!3d25.3197435!4d82.9926331!16s%2Fg%2F11fzb11_78!19sChIJmQTtpOItjjkRhIVCgXewlQk?authuser=0&hl=en&rclk=1,"25.319743499999998,82.99263309999999"
doshiipuraa msjid,Mosque,"82M5+VR4 doshiipuraa msjid, near Gazi miyan, Dosi Pura, Jaitpura, Varanasi, Uttar Pradesh 221001","Dosi Pura, Jaitpura","82M5+VR4, near Gazi miyan",Varanasi,221001,Uttar Pradesh,IN,https://www.google.com/maps/place/%E0%A4%A6%E0%A5%8B%E0%A4%B6%E0%A5%80%E0%A4%AA%E0%A5%81%E0%A4%B0%E0%A4%BE+%E0%A4%AE%E0%A4%B8%E0%A5%8D%E0%A4%9C%E0%A4%BF%E0%A4%A6/data=!4m7!3m6!1s0x398e2e6b83192cb1:0x6c7a29dc3e89b0ab!8m2!3d25.3346275!4d83.0095841!16s%2Fg%2F11f57fl89l!19sChIJsSwZg2sujjkRq7CJPtwpemw?authuser=0&hl=en&rclk=1,"25.3346275,83.0095841"
Ek Raat Ki Masjid,Mosque,"8X9V+4P8 Ek Raat Ki Masjid, Lallapura, Chetganj, Varanasi, Uttar Pradesh 221001","Lallapura, Chetganj",8X9V+4P8,Varanasi,221001,Uttar Pradesh,IN,https://www.google.com/maps/place/Ek+Raat+Ki+Masjid/data=!4m7!3m6!1s0x398e2e07e99ca167:0xe6c9412bae3fd23a!8m2!3d25.3177791!4d82.9943279!16s%2Fg%2F11gf8hsr79!19sChIJZ6Gc6QcujjkROtI_ritByeY?authuser=0&hl=en&rclk=1,"25.3177791,82.9943279"
Jama Masjid Pousra,Mosque,"8X9W+582 Jama Masjid Pousra, Lallapura, Naipokhari, Chetganj, Varanasi, Uttar Pradesh 221001","Lallapura, Naipokhari, Chetganj",8X9W+582,Varanasi,221001,Uttar Pradesh,IN,https://www.google.com/maps/place/Jama+Masjid+Pousra/data=!4m7!3m6!1s0x398e2e07cceb3001:0xe66f9cd83605fe79!8m2!3d25.3178804!4d82.9957505!16s%2Fg%2F11c0qgmh2r!19sChIJATDrzAcujjkRef4FNticb-Y?authuser=0&hl=en&rclk=1,"25.3178804,82.9957505"
BARTALLA MASJID,Mosque,"8234+H79 BARTALLA MASJID, Madanpura Rd, Bangali Tola, Varanasi, Uttar Pradesh 221001",Bangali Tola,"8234+H79, Madanpura Rd",Varanasi,221001,Uttar Pradesh,IN,https://www.google.com/maps/place/BARTALLA+MASJID/data=!4m7!3m6!1s0x398e31e31a812add:0xe2f80fc185a145b7!8m2!3d25.303917!4d83.0057462!16s%2Fg%2F11g6gn5d0j!19sChIJ3SqBGuMxjjkRt0WhhcEP-OI?authuser=0&hl=en&rclk=1,"25.303917,83.00574619999999"
Bhalu Bandar Masjid,Mosque,"Bhalu Bandar Masjid, A39/377-M, Lath Saraiya, Jalalipura, Varanasi, Uttar Pradesh 221001","Lath Saraiya, Jalalipura",A39/377-M,Varanasi,221001,Uttar Pradesh,IN,https://www.google.com/maps/place/Bhalu+Bandar+Masjid/data=!4m7!3m6!1s0x398e2e47cf324073:0xcdddfcfd6bc06c07!8m2!3d25.3343812!4d83.0244045!16s%2Fg%2F11cs1lkvrb!19sChIJc0Ayz0cujjkRB2zAa_383c0?authuser=0&hl=en&rclk=1,"25.3343812,83.0244045"
MASJID ASNA ASHRI,Mosque,"8243+2V4 MASJID ASNA ASHRI, Madanpura Rd, Malti Bagh, Tilbhandeshwer, Bhelupur, Varanasi, Uttar Pradesh 221001","Malti Bagh, Tilbhandeshwer, Bhelupur","8243+2V4, Madanpura Rd",Varanasi,221001,Uttar Pradesh,IN,https://www.google.com/maps/place/MASJID+ASNA+ASHRI/data=!4m7!3m6!1s0x398e31e2da3a3a45:0x62647d0e4b6416ea!8m2!3d25.3050115!4d83.0046976!16s%2Fg%2F11cn9516g7!19sChIJRTo62uIxjjkR6hZkSw59ZGI?authuser=0&hl=en&rclk=1,"25.3050115,83.0046976"
Masjid-e-Hashmi,Mosque,"7XRH+RQR Masjid-e-Hashmi, Jjanki Nagar, Varanasi, Uttar Pradesh 221005",Jjanki Nagar,7XRH+RQR,Varanasi,221005,Uttar Pradesh,IN,https://www.google.com/maps/place/Masjid-e-Hashmi/data=!4m7!3m6!1s0x398e3211ac29f6e7:0x4ebfa3f9df543ebd!8m2!3d25.2921143!4d82.9793921!16s%2Fg%2F11hbpwqt27!19sChIJ5_YprBEyjjkRvT5U3_mjv04?authuser=0&hl=en&rclk=1,"25.292114299999998,82.9793921"
Masjid E Rahmaniya,Mosque,"Masjid E Rahmaniya, Ansar Nagar, Nai Basti.n13.420 Bajardiha.v.n.s, Sarai Nandan, Nagwa, Varanasi, Uttar Pradesh 22109","Sarai Nandan, Nagwa","Ansar Nagar, Nai Basti.n13.420 Bajardiha.v.n.s",Varanasi,22109,Uttar Pradesh,IN,https://www.google.com/maps/place/Masjid+E+Rahmaniya/data=!4m7!3m6!1s0x398e32199b6c8f3f:0x7d8b4cad20c14908!8m2!3d25.288032!4d82.9846884!16s%2Fg%2F11dzscyz_0!19sChIJP49smxkyjjkRCEnBIK1Mi30?authuser=0&hl=en&rclk=1,"25.288031999999998,82.9846884"
Gosya Masjid,Mosque,"8W4J+FWR Gosya Masjid, Lohta Bazar, Lohta, Uttar Pradesh 221107",Lohta Bazar,8W4J+FWR,Lohta,221107,Uttar Pradesh,IN,https://www.google.com/maps/place/Gosya+Masjid/data=!4m7!3m6!1s0x398e2d61bb386ce3:0x441d59068068ae01!8m2!3d25.3062306!4d82.9322535!16s%2Fg%2F11c58lftzf!19sChIJ42w4u2EtjjkRAa5ogAZZHUQ?authuser=0&hl=en&rclk=1,"25.3062306,82.9322535"
Fulwarya Masjid,Mosque,"Fulwarya Masjid, a31/212, Aalampura, Golgadda, Varanasi, Uttar Pradesh 221001",Golgadda,"a31/212, Aalampura",Varanasi,221001,Uttar Pradesh,IN,https://www.google.com/maps/place/Fulwarya+Masjid/data=!4m7!3m6!1s0x398e2e3ec4564e35:0x1cf692638ec7142a!8m2!3d25.3279135!4d83.0191557!16s%2Fg%2F11c6zycnt3!19sChIJNU5WxD4ujjkRKhTHjmOS9hw?authuser=0&hl=en&rclk=1,"25.327913499999998,83.0191557"
Masjid Baghar billi ahlehadees,Mosque,"Masjid Baghar billi ahlehadees, B 16/130, Bahgar Billi, Ramapura Luxa, Varanasi, Uttar Pradesh 221001","Malti Bagh, Tilbhandeshwer, Ramapura Luxa","B 16/130, Bahgar Billi",Varanasi,221001,Uttar Pradesh,IN,https://www.google.com/maps/place/Masjid+Baghar+billi+ahlehadees/data=!4m7!3m6!1s0x398e31fce1e639ef:0xc39e389bc7f9f5bc!8m2!3d25.3044632!4d83.0023286!16s%2Fg%2F1q6n2txpv!19sChIJ7znm4fwxjjkRvPX5x5s4nsM?authuser=0&hl=en&rclk=1,"25.304463199999997,83.0023286"
Sultaniya Masjid,Mosque,"Sultaniya Masjid, Ashfaq Nagar, Bhelupur, Varanasi, Uttar Pradesh 221001","Ashfaq Nagar, Bhelupur",,Varanasi,221001,Uttar Pradesh,IN,https://www.google.com/maps/place/Sultaniya+Masjid/data=!4m7!3m6!1s0x398e31fc2ec3c9a3:0x9cf6a642a0b148f!8m2!3d25.3038375!4d82.9988922!16s%2Fg%2F11cs0cxks3!19sChIJo8nDLvwxjjkRjxQLKmRqzwk?authuser=0&hl=en&rclk=1,"25.3038375,82.9988922"
Sadak Wali Masjid,Mosque,"82M6+XWQ Sadak Wali Masjid, Alaipura, Jaitpura, Varanasi, Uttar Pradesh 221001","Alaipura, Jaitpura",82M6+XWQ,Varanasi,221001,Uttar Pradesh,IN,https://www.google.com/maps/place/Sadak+Wali+Masjid/data=!4m7!3m6!1s0x398e2e6a517927e5:0x5a220235b709fac9!8m2!3d25.3349602!4d83.012344!16s%2Fg%2F11b6j110vq!19sChIJ5Sd5UWoujjkRyfoJtzUCIlo?authuser=0&hl=en&rclk=1,"25.334960199999998,83.012344"
Badi Bakhsi Ji Masjid,Mosque,"S.14/80, Badi Bakhsi Ji Masjid, Raja Bazar Rd, Near Andharapul, Near Andha Crossing, Vijay Nagar Colony, Chaukaghat, Varanasi, Uttar Pradesh 221002","Near Andharapul, Near Andha Crossing, Vijay Nagar Colony, Chaukaghat","S.14/80, Raja Bazar Rd",Varanasi,221002,Uttar Pradesh,IN,https://www.google.com/maps/place/Badi+Bakhsi+Ji+Masjid/data=!4m7!3m6!1s0x398e2de01bdb86cb:0xa38393a4dfeb9617!8m2!3d25.3294639!4d82.9927189!16s%2Fg%2F11b6j3v67f!19sChIJy4bbG-AtjjkRF5br36STg6M?authuser=0&hl=en&rclk=1,"25.3294639,82.9927189"
MASJID E RAZA(msjd rD),Mosque,"D.28, MASJID E RAZA(msjd rD), 84, Pandey Haveli Rd, near silk city, Madanpura, Bangali Tola, Varanasi, Uttar Pradesh 221001","Madanpura, Bangali Tola","D.28, 84, Pandey Haveli Rd, near silk city",Varanasi,221001,Uttar Pradesh,IN,https://www.google.com/maps/place/MASJID+E+RAZA%28%D9%85%D8%B3%D8%AC%D8%AF+%D8%B1%D8%B6%D8%A7%29%E2%80%AD/data=!4m7!3m6!1s0x398e32abc5555555:0xbc49dfa55a4ede16!8m2!3d25.3037879!4d83.0048281!16s%2Fg%2F11bttg81wl!19sChIJVVVVxasyjjkRFt5OWqXfSbw?authuser=0&hl=en&rclk=1,"25.3037879,83.0048281"
Masjid Nakkhi Ghat Railway Crossing,Mosque,"82P5+XRC Masjid Nakkhi Ghat Railway Crossing, Nakkhighat Rd, Jaitpura, Varanasi, Uttar Pradesh 221001",Jaitpura,"82P5+XRC, Nakkhighat Rd",Varanasi,221001,Uttar Pradesh,IN,https://www.google.com/maps/place/Masjid+Nakkhi+Ghat+Railway+Crossing/data=!4m7!3m6!1s0x398e2f4a50569cd1:0xb4f7fa657712c046!8m2!3d25.3374302!4d83.009531!16s%2Fg%2F11hk7kdt59!19sChIJ0ZxWUEovjjkRRsASd2X697Q?authuser=0&hl=en&rclk=1,"25.3374302,83.009531"
Badi Masjid Rasool Pura,Mosque,"82J5+3FP Badi Masjid Rasool Pura, Rasool Pura badi bazar, Jaitpura, Varanasi, Uttar Pradesh 221001","Alaipura, Jaitpura","82J5+3FP, Rasool Pura badi bazar",Varanasi,221001,Uttar Pradesh,IN,https://www.google.com/maps/place/Badi+Masjid+Rasool+Pura/data=!4m7!3m6!1s0x398e2e135b63fb01:0x472680f6eea380e2!8m2!3d25.3302111!4d83.0087156!16s%2Fg%2F11d_7ng5zj!19sChIJAftjWxMujjkR4oCj7vaAJkc?authuser=0&hl=en&rclk=1,"25.3302111,83.0087156"
Masjid Ul Husnain,Mosque,"7XRH+CWJ Masjid Ul Husnain, Al-Husnain Street, Bajardiha Rd, makhdoom Nagar, Varanasi, Uttar Pradesh 221106",makhdoom Nagar,"7XRH+CWJ, Al-Husnain Street, Bajardiha Rd",Varanasi,221106,Uttar Pradesh,IN,https://www.google.com/maps/place/Masjid+Ul+Husnain/data=!4m7!3m6!1s0x398e3214804d5dd5:0x11d450b26b3324c9!8m2!3d25.2910767!4d82.9797615!16s%2Fg%2F11c6m3ly02!19sChIJ1V1NgBQyjjkRySQza7JQ1BE?authuser=0&hl=en&rclk=1,"25.291076699999998,82.9797615"
Jama Masjid Khawajapura,Mosque,"82J6+RM8 Jama Masjid Khawajapura, Khwajapura, Alaipura, Jaitpura, Varanasi, Uttar Pradesh 221001","Khwajapura, Alaipura, Jaitpura",82J6+RM8,Varanasi,221001,Uttar Pradesh,IN,https://www.google.com/maps/place/Jama+Masjid+Khawajapura/data=!4m7!3m6!1s0x398e2fcdee39b705:0xcb92eeaf3e7a883a!8m2!3d25.3320403!4d83.0117115!16s%2Fg%2F11gmcgsmdx!19sChIJBbc57s0vjjkROoh6Pq_ukss?authuser=0&hl=en&rclk=1,"25.3320403,83.01171149999999"
Barnapul Masjid,Mosque,"8XQJ+XMR Barnapul Masjid, Nadesar, Chaukaghat, Varanasi, Uttar Pradesh 221002","Nadesar, Chaukaghat",8XQJ+XMR,Varanasi,221002,Uttar Pradesh,IN,https://www.google.com/maps/place/Barnapul+Masjid/data=!4m7!3m6!1s0x398e2dc537ba92e9:0x8680da5a39fd4d36!8m2!3d25.339984!4d82.9816266!16s%2Fg%2F11g01sht5b!19sChIJ6ZK6N8UtjjkRNk39OVragIY?authuser=0&hl=en&rclk=1,"25.339983999999998,82.9816266"
Sunni Masjid,Mosque,"8XHW+446 Sunni Masjid, Near Chaura Mata Mandir, Maldahiya, Chetganj, Varanasi, Uttar Pradesh 221002","Near Chaura Mata Mandir, Maldahiya, Chetganj",8XHW+446,Varanasi,221002,Uttar Pradesh,IN,https://www.google.com/maps/place/Sunni+Masjid/data=!4m7!3m6!1s0x398e2e0af86a3911:0x3bce80acb37d9401!8m2!3d25.3277774!4d82.995252!16s%2Fg%2F11c7wdlphf!19sChIJETlq-AoujjkRAZR9s6yAzjs?authuser=0&hl=en&rclk=1,"25.3277774,82.995252"
Aarif Ki Masjid,Mosque,"82H8+PF3 Aarif Ki Masjid, Chhora, Kachi Bagh, Jaitpura, Varanasi, Uttar Pradesh 221001","Kachi Bagh, Jaitpura","82H8+PF3, Chhora",Varanasi,221001,Uttar Pradesh,IN,https://www.google.com/maps/place/Aarif+Ki+Masjid/data=!4m7!3m6!1s0x398e2f76e5f81031:0xd04b7ed79d288b95!8m2!3d25.3292692!4d83.016158!16s%2Fg%2F11g2m5j0k6!19sChIJMRD45XYvjjkRlYsondd-S9A?authuser=0&hl=en&rclk=1,"25.3292692,83.01615799999999"
Raza Masjid,Mosque,"8XRQ+PXC Raza Masjid, Raza Colony, Khajuri Colony, Varanasi, Uttar Pradesh 221002","Raza Colony, Khajuri Colony",8XRQ+PXC,Varanasi,221002,Uttar Pradesh,IN,https://www.google.com/maps/place/Raza+Masjid/data=!4m7!3m6!1s0x398e2d9b043c0717:0x9a85723131d0c45d!8m2!3d25.3418238!4d82.9898866!16s%2Fg%2F11gnpxyhn3!19sChIJFwc8BJstjjkRXcTQMTFyhZo?authuser=0&hl=en&rclk=1,"25.3418238,82.98988659999999"
Madari Ki Masjid,Mosque,"82GC+X24 Madari Ki Masjid, Golgadda Rd, Teliyana, Ganga Nagar Colony, Aalampura, Varanasi, Uttar Pradesh 221001","Teliyana, Ganga Nagar Colony, Aalampura","82GC+X24, Golgadda Rd",Varanasi,221001,Uttar Pradesh,IN,https://www.google.com/maps/place/Madari+Ki+Masjid/data=!4m7!3m6!1s0x398e2e394a99a0fb:0xeac28ce3ecebb4e0!8m2!3d25.3273812!4d83.0200877!16s%2Fg%2F11g9fws_pf!19sChIJ-6CZSjkujjkR4LTr7OOMwuo?authuser=0&hl=en&rclk=1,"25.327381199999998,83.02008769999999"
Masjid Ahnaf,Mosque,"B28, Masjid Ahnaf, 78A-1, Sankat Mochan Rd, Anandbagh, Bhelupur, Varanasi, Uttar Pradesh 221010","Anandbagh, Bhelupur","B28, 78A-1, Sankat Mochan Rd",Varanasi,221010,Uttar Pradesh,IN,https://www.google.com/maps/place/Masjid+Ahnaf/data=!4m7!3m6!1s0x398e311ae8672da7:0xeae38fe4135a4b40!8m2!3d25.2867832!4d83.0000965!16s%2Fg%2F11fk56cvz6!19sChIJpy1n6BoxjjkRQEtaE-SP4-o?authuser=0&hl=en&rclk=1,"25.2867832,83.0000965"
Ramapura Ki Masjid,Mosque,"8242+P3V Ramapura Ki Masjid, Ramapura Luxa, Varanasi, Uttar Pradesh 221001",Ramapura Luxa,8242+P3V,Varanasi,221001,Uttar Pradesh,IN,https://www.google.com/maps/place/Ramapura+Ki+Masjid/data=!4m7!3m6!1s0x398e31fd8c112829:0xe90b83274987aa46!8m2!3d25.306875!4d83.000161!16s%2Fg%2F11gdqkclpg!19sChIJKSgRjP0xjjkRRqqHSSeDC-k?authuser=0&hl=en&rclk=1,"25.306874999999998,83.00016099999999"
Qadirya Masjid,Mosque,"8X3X+WJV Qadirya Masjid, Ashfaq Nagar, Bhelupur, Varanasi, Uttar Pradesh 221001","Ashfaq Nagar, Bhelupur",8X3X+WJV,Varanasi,221001,Uttar Pradesh,IN,https://www.google.com/maps/place/Qadirya+Masjid/data=!4m7!3m6!1s0x398e31fdd1ab5603:0x33a10a05139fca77!8m2!3d25.3048615!4d82.999059!16s%2Fg%2F11hbqdpm3y!19sChIJA1ar0f0xjjkRd8qfEwUKoTM?authuser=0&hl=en&rclk=1,"25.304861499999998,82.999059"
Matru Baba Masjid,Mosque,"82F8+9P7 Matru Baba Masjid, Hartirath, Machodari, Kotwali, Varanasi, Uttar Pradesh 221001","Hartirath, Machodari, Kotwali",82F8+9P7,Varanasi,221001,Uttar Pradesh,IN,https://www.google.com/maps/place/Matru+Baba+Masjid/data=!4m7!3m6!1s0x398e2e3dafa148e9:0xf7aaa929869bb418!8m2!3d25.3234025!4d83.0168086!16s%2Fg%2F11b6j06vp4!19sChIJ6Uihrz0ujjkRGLSbhimpqvc?authuser=0&hl=en&rclk=1,"25.3234025,83.01680859999999"
Haji Maqsood Ali Shah Masjid Aur Dargah,Mosque,"8X9V+F95 Haji Maqsood Ali Shah Masjid Aur Dargah, Badshahbag Colony, Ramakanth Nagar, Chetganj, Varanasi, Uttar Pradesh 221001","Badshahbag Colony, Ramakanth Nagar, Chetganj",8X9V+F95,Varanasi,221001,Uttar Pradesh,IN,https://www.google.com/maps/place/Haji+Maqsood+Ali+Shah+Masjid+Aur+Dargah/data=!4m7!3m6!1s0x398e2f441ee5d101:0x86b48e7430aacd2e!8m2!3d25.3186471!4d82.9934914!16s%2Fg%2F11g1gtycgy!19sChIJAdHlHkQvjjkRLs2qMHSOtIY?authuser=0&hl=en&rclk=1,"25.3186471,82.9934914"
Badi Masjid,Mosque,"8X8W+4W9 Badi Masjid, Kazipura Khurd, Lallapura,, Varanasi, Uttar Pradesh 221010","Lallapura, Naipokhari, Chetganj","8X8W+4W9, Kazipura Khurd, Lallapura,",Varanasi,221010,Uttar Pradesh,IN,https://www.google.com/maps/place/Badi+Masjid/data=!4m7!3m6!1s0x398e2e068d7e5979:0xed438e349129436c!8m2!3d25.3152924!4d82.997345!16s%2Fg%2F11bz_tr_g7!19sChIJeVl-jQYujjkRbEMpkTSOQ-0?authuser=0&hl=en&rclk=1,"25.3152924,82.997345"
Pikar Wali Masjid,Mosque,"82GH+6PM Pikar Wali Masjid, ghasiyari, Jugul Tola, Pathani Tola, Varanasi, Uttar Pradesh 221001",Pathani Tola,"82GH+6PM, ghasiyari, Jugul Tola",Varanasi,221001,Uttar Pradesh,IN,https://www.google.com/maps/place/Pikar+Wali+Masjid/data=!4m7!3m6!1s0x398e2e313830f74d:0x8dd10cb1aeca6fe!8m2!3d25.3255972!4d83.0292885!16s%2Fg%2F11f3dyksc2!19sChIJTfcwODEujjkR_qbsGssQ3Qg?authuser=0&hl=en&rclk=1,"25.325597199999997,83.02928849999999"
Habeebiya Masjid,Mosque,"Habeebiya Masjid, Rabindranath Tagore Rd, Baheliya Tola, Machodari, Kotwali, Varanasi, Uttar Pradesh 221001","Baheliya Tola, Machodari, Kotwali",Rabindranath Tagore Rd,Varanasi,221001,Uttar Pradesh,IN,https://www.google.com/maps/place/Habeebiya+Masjid/data=!4m7!3m6!1s0x398e2e314cd874b1:0xe3aa39072869f2e2!8m2!3d25.3214397!4d83.0216367!16s%2Fg%2F11cs6k0gtt!19sChIJsXTYTDEujjkR4vJpKAc5quM?authuser=0&hl=en&rclk=1,"25.3214397,83.0216367"
Minar Masjid,Mosque,"Minar Masjid, Minar Wali Masjid, Pilikothi, Kachi Bagh, Jaitpura, Varanasi, Uttar Pradesh 221001","Pilikothi, Kachi Bagh, Jaitpura",Minar Wali Masjid,Varanasi,221001,Uttar Pradesh,IN,https://www.google.com/maps/place/Minar+Masjid/data=!4m7!3m6!1s0x398e2fb7ca0b2e83:0xe1cb4aa0e0c92e0d!8m2!3d25.3286205!4d83.0173187!16s%2Fg%2F11gks_rgkj!19sChIJgy4LyrcvjjkRDS7J4KBKy-E?authuser=0&hl=en&rclk=1,"25.3286205,83.01731869999999"
Juma Masjid,Mosque,"82FC+2JQ Juma Masjid, Varanasi Rd, Baheliya Tola, Machodari, Saleempura, Varanasi, Uttar Pradesh 221001","Baheliya Tola, Machodari, Saleempura","82FC+2JQ, Varanasi Rd",Varanasi,221001,Uttar Pradesh,IN,https://www.google.com/maps/place/Juma+Masjid/data=!4m7!3m6!1s0x398e2e3b0c1ce6df:0x2ade074a1783ad10!8m2!3d25.322584!4d83.0215968!16s%2Fg%2F11cssq6_8f!19sChIJ3-YcDDsujjkREK2DF0oH3io?authuser=0&hl=en&rclk=1,"25.322584,83.0215968"
Mirza Karimullah Beg Masjid,Mosque,"Mirza Karimullah Beg Masjid, CK (56/5 -6), Chowk Daalmandi Gali, Near Chowk Thana, Harha, Varanasi, Uttar Pradesh 221001",Harha,"CK (56/5 -6), Chowk Daalmandi Gali, Near Chowk Thana",Varanasi,221001,Uttar Pradesh,IN,https://www.google.com/maps/place/Mirza+Karimullah+Beg+Masjid/data=!4m7!3m6!1s0x398e2e1eb608646f:0x420d75ba7737cd29!8m2!3d25.3133209!4d83.010578!16s%2Fg%2F11b6hvrvcr!19sChIJb2QIth4ujjkRKc03d7p1DUI?authuser=0&hl=en&rclk=1,"25.313320899999997,83.010578"
Ek Minara Masjid (furqaniya masjid),Mosque,"Ek Minara Masjid (furqaniya masjid), J.23/06, kamal Pura, Alaipura, Jaitpura, Varanasi, Uttar Pradesh 221001","kamal Pura, Alaipura, Jaitpura",J.23/06,Varanasi,221001,Uttar Pradesh,IN,https://www.google.com/maps/place/Ek+Minara+Masjid+%28furqaniya+masjid%29/data=!4m7!3m6!1s0x398e2f0382a1ae8b:0xf72b726068c0953e!8m2!3d25.3307345!4d83.0116935!16s%2Fg%2F11g4f55mm1!19sChIJi66hggMvjjkRPpXAaGByK_c?authuser=0&hl=en&rclk=1,"25.3307345,83.01169349999999"
MASJID MINNA KHAN,Mosque,"MASJID MINNA KHAN, Minne Khan Masjid, near Benia Bagh, Benia Bagh, Varanasi, Uttar Pradesh 221001",Benia Bagh,"Minne Khan Masjid, near Benia Bagh",Varanasi,221001,Uttar Pradesh,IN,https://www.google.com/maps/place/MASJID+MINNA+KHAN/data=!4m7!3m6!1s0x398e2ff88fa0dded:0x6d9a4b146be202eb!8m2!3d25.3158447!4d83.0074313!16s%2Fg%2F11ghns3k95!19sChIJ7d2gj_gvjjkR6wLiaxRLmm0?authuser=0&hl=en&rclk=1,"25.3158447,83.0074313"
Masjid msjd,Mosque,"Masjid msjd, N16/62C, Badi Gaibi Rd, Bhelupur, Varanasi, Uttar Pradesh 221010",Bhelupur,"N16/62C, Badi Gaibi Rd",Varanasi,221010,Uttar Pradesh,IN,https://www.google.com/maps/place/Masjid+%D9%85%D8%B3%D8%AC%D8%AF%E2%80%AD/data=!4m7!3m6!1s0x398e31f89eac65eb:0x7ed03232adf2d2e0!8m2!3d25.2993201!4d82.9934835!16s%2Fg%2F11c2q4b3f7!19sChIJ62WsnvgxjjkR4NLyrTIy0H4?authuser=0&hl=en&rclk=1,"25.2993201,82.9934835"
Kali Masjid,Mosque,"Kali Masjid, A25/90 saleempura machhodhari park, Rabindranath Tagore Rd, Machodari Road, Aalampura, Varanasi, Uttar Pradesh 221001","Machodari, Kotwali","A25/90 saleempura machhodhari park, Rabindranath Tagore Rd, Machodari Road, Aalampura",Varanasi,221001,Uttar Pradesh,IN,https://www.google.com/maps/place/Kali+Masjid/data=!4m7!3m6!1s0x398e2e3b4c040ff3:0x9f47bd0c4c35b8e1!8m2!3d25.320431!4d83.021008!16s%2Fg%2F11cm05gwfh!19sChIJ8w8ETDsujjkR4bg1TAy9R58?authuser=0&hl=en&rclk=1,"25.320431,83.021008"
DO'MAN KI MASJID,Mosque,"8224+XJG DO'MAN KI MASJID, Bangali Tola Rd, Mansarover Ghat, Bangali Tola, Varanasi, Uttar Pradesh 221001","Mansarover Ghat, Bangali Tola","8224+XJG, Bangali Tola Rd",Varanasi,221001,Uttar Pradesh,IN,https://www.google.com/maps/place/DO%27MAN+KI+MASJID/data=!4m7!3m6!1s0x398e31e37801181d:0xb3e9e90660139425!8m2!3d25.3024393!4d83.0065809!16s%2Fg%2F11cn92y57b!19sChIJHRgBeOMxjjkRJZQTYAbp6bM?authuser=0&hl=en&rclk=1,"25.3024393,83.0065809"
Madina Masjid,Mosque,"82GF+HJ9 Madina Masjid, Aalampura, Varanasi, Uttar Pradesh 221001",Aalampura,82GF+HJ9,Varanasi,221001,Uttar Pradesh,IN,https://www.google.com/maps/place/Madina+Masjid/data=!4m7!3m6!1s0x398e2e39f4b72e15:0xfcc02f13aa4a9be5!8m2!3d25.3264241!4d83.0241074!16s%2Fg%2F11ggr7hcrw!19sChIJFS639DkujjkR5ZtKqhMvwPw?authuser=0&hl=en&rclk=1,"25.3264241,83.02410739999999"
Manduadih Masjid,Mosque,"7XWC+X29 Manduadih Masjid, DLW Rd, Kanchan Vihar Colony, Manduwadih, Varanasi, Shivdaspur, Uttar Pradesh 221103","Kanchan Vihar Colony, Manduwadih","7XWC+X29, DLW Rd","Varanasi, Shivdaspur",221103,Uttar Pradesh,IN,https://www.google.com/maps/place/Manduadih+Masjid/data=!4m7!3m6!1s0x398e335fd82ab2a9:0x641f04b2fe810ade!8m2!3d25.2974072!4d82.970116!16s%2Fg%2F11rs147jjb!19sChIJqbIq2F8zjjkR3gqB_rIEH2Q?authuser=0&hl=en&rclk=1,"25.2974072,82.97011599999999"
Masjid Ahele-hadees Nimiya Varanasi,Mosque,"8242+6XW Masjid Ahele-hadees Nimiya Varanasi, Bazar Sadanand,reori talab road, Ramapura, Bhelupur, Varanasi, Uttar Pradesh 221001","Malti Bagh, Bhelupur","8242+6XW, Bazar Sadanand,reori talab road, Ramapura",Varanasi,221001,Uttar Pradesh,IN,https://www.google.com/maps/place/Masjid+Ahele-hadees+Nimiya+Varanasi/data=!4m7!3m6!1s0x398e31fd3f85d7b3:0x7415ef748ca6dd99!8m2!3d25.305609!4d83.0024644!16s%2Fg%2F11dzzyy5v3!19sChIJs9eFP_0xjjkRmd2mjHTvFXQ?authuser=0&hl=en&rclk=1,"25.305609,83.0024644"
Shahi Masjid Panch Gumbad,Mosque,"8X9W+7MC Shahi Masjid Panch Gumbad, Panch Gumbad, Lallapura, Varanasi, Uttar Pradesh 221010","Panch Gumbad, Lallapura",8X9W+7MC,Varanasi,221010,Uttar Pradesh,IN,https://www.google.com/maps/place/Shahi+Masjid+Panch+Gumbad/data=!4m7!3m6!1s0x398e2e063b32a5ad:0x23fc188e15b4f69a!8m2!3d25.3181779!4d82.9966476!16s%2Fg%2F11b6p9q6x_!19sChIJraUyOwYujjkRmva0FY4Y_CM?authuser=0&hl=en&rclk=1,"25.3181779,82.9966476"
Masjid Noman Bin Sabit RH,Mosque,"Masjid Noman Bin Sabit RH, B26/112-A, Nawab Gunj, Padampuri Colony, Durgakund, Khojwan, Bhelupur, Varanasi, Uttar Pradesh 221010","Padampuri Colony, Durgakund, Khojwan, Bhelupur","B26/112-A, Nawab Gunj",Varanasi,221010,Uttar Pradesh,IN,https://www.google.com/maps/place/Masjid+Noman+Bin+Sabit+RH/data=!4m7!3m6!1s0x398e3135c5acb137:0xf87d5cc7edca1bc2!8m2!3d25.2909784!4d82.9958066!16s%2Fg%2F11fp92mmyb!19sChIJN7GsxTUxjjkRwhvK7cdcffg?authuser=0&hl=en&rclk=1,"25.2909784,82.9958066"
masjid Ahlehadees daranagar,Mosque,"82F7+J9Q masjid Ahlehadees daranagar, Kachi Bagh, Jaitpura, Varanasi, Uttar Pradesh 221001","Kachi Bagh, Jaitpura",82F7+J9Q,Varanasi,221001,Uttar Pradesh,IN,https://www.google.com/maps/place/masjid+Ahlehadees+daranagar/data=!4m7!3m6!1s0x398e2fea85156721:0x34b74189da27fb79!8m2!3d25.3240843!4d83.0134689!16s%2Fg%2F11nxc4dzk5!19sChIJIWcVheovjjkRefsn2olBtzQ?authuser=0&hl=en&rclk=1,"25.3240843,83.01346889999999"
Masjid Hanfiya,Mosque,"8X8F+XGJ Masjid Hanfiya, Lahartara Boulia, Bazardiha, Maheshpur, Varanasi, Uttar Pradesh 221002","Lahartara Boulia, Bazardiha, Maheshpur",8X8F+XGJ,Varanasi,221002,Uttar Pradesh,IN,https://www.google.com/maps/place/Masjid+Hanfiya/data=!4m7!3m6!1s0x398e2d4e9fa18489:0x2bbe90bc8553fe6d!8m2!3d25.3174663!4d82.9737806!16s%2Fg%2F11h4c3sg65!19sChIJiYShn04tjjkRbf5ThbyQvis?authuser=0&hl=en&rclk=1,"25.3174663,82.9737806"
Raqeebiya Razaviya Masjid,Mosque,"Raqeebiya Razaviya Masjid, 15/410-B-R-17, Sarai Nandan, Nagwa, Varanasi, Uttar Pradesh 221005","Sarai Nandan, Nagwa",15/410-B-R-17,Varanasi,221005,Uttar Pradesh,IN,https://www.google.com/maps/place/Raqeebiya+Razaviya+Masjid/data=!4m7!3m6!1s0x398e321b033a7215:0x7f82e9e51b051ad3!8m2!3d25.2925568!4d82.9852648!16s%2Fg%2F11gfdf842q!19sChIJFXI6AxsyjjkR0xoFG-Xpgn8?authuser=0&hl=en&rclk=1,"25.2925568,82.9852648"
Shahi Masjid Vidya peeth,Mosque,"8XCQ+46J Shahi Masjid Vidya peeth, Vidyapeeth Rd, Kashi Vidyapith, Chetganj, Varanasi, Uttar Pradesh 221010","Kashi Vidyapith, Chetganj","8XCQ+46J, Vidyapeeth Rd",Varanasi,221010,Uttar Pradesh,IN,https://www.google.com/maps/place/Shahi+Masjid+Vidya+peeth/data=!4m7!3m6!1s0x398e2d773cb677f9:0xf29ad353d4f6f16f!8m2!3d25.3203489!4d82.9880223!16s%2Fg%2F11fk1nz8bz!19sChIJ-Xe2PHctjjkRb_H21FPTmvI?authuser=0&hl=en&rclk=1,"25.3203489,82.9880223"
"Sadarbag Masjid, Ansarabad Vns",Mosque,"Sadarbag Masjid, Ansarabad Vns, A 34/41-29 ANSARABAD, Kazzakpura, Aalampura, Varanasi, Uttar Pradesh 221001","Kazzakpura, Aalampura",A 34/41-29 ANSARABAD,Varanasi,221001,Uttar Pradesh,IN,"https://www.google.com/maps/place/Sadarbag+Masjid,+Ansarabad+Vns/data=!4m7!3m6!1s0x398e2fea36bb050d:0xcdfc7a7d0aaff0f9!8m2!3d25.3288411!4d83.0238369!16s%2Fg%2F11rpzcf07b!19sChIJDQW7NuovjjkR-fCvCn16_M0?authuser=0&hl=en&rclk=1","25.328841099999998,83.02383689999999"
Phooti Masjid,Mosque,"Phooti Masjid, Jagjivanpura, Malti Bagh, Tilbhandeshwer, Bhelupur, Varanasi, Uttar Pradesh 221001","Malti Bagh, Tilbhandeshwer, Bhelupur",Jagjivanpura,Varanasi,221001,Uttar Pradesh,IN,https://www.google.com/maps/place/Phooti+Masjid/data=!4m7!3m6!1s0x398e3137a1aa2f4b:0xce07545d2a1f550!8m2!3d25.3052856!4d83.0044954!16s%2Fg%2F11g0m4cr4t!19sChIJSy-qoTcxjjkRUPWh0kV14Aw?authuser=0&hl=en&rclk=1,"25.305285599999998,83.0044954"
Raza Jama Masjid. Husain Pura chamuhani,Mosque,"82J7+482 Raza Jama Masjid. Husain Pura chamuhani, Kachi Bagh, Jaitpura, Varanasi, Uttar Pradesh 221001","Kachi Bagh, Jaitpura",82J7+482,Varanasi,221001,Uttar Pradesh,IN,https://www.google.com/maps/place/Raza+Jama+Masjid.+Husain+Pura+chamuhani/data=!4m7!3m6!1s0x398e2fa1dbc1558f:0x2f1dcf179d5e562f!8m2!3d25.3302693!4d83.013278!16s%2Fg%2F11j8p6yp_7!19sChIJj1XB26EvjjkRL1ZenRfPHS8?authuser=0&hl=en&rclk=1,"25.330269299999998,83.013278"
Masjid Ahle Islam Bhoj baba,Mosque,"82GC+4CX Masjid Ahle Islam Bhoj baba, Chittanpura, Aalampura, Varanasi, Uttar Pradesh 221001","Chittanpura, Aalampura",82GC+4CX,Varanasi,221001,Uttar Pradesh,IN,https://www.google.com/maps/place/Masjid+Ahle+Islam+Bhoj+baba/data=!4m7!3m6!1s0x398e2f206b041665:0xf512dc6caefd1af1!8m2!3d25.3253588!4d83.021103!16s%2Fg%2F11hk7xdrmb!19sChIJZRYEayAvjjkR8Rr9rmzcEvU?authuser=0&hl=en&rclk=1,"25.3253588,83.021103"
"Badi masjid, konia",Mosque,"82QJ+RQ5 Badi masjid, konia, Konia, Varanasi, Uttar Pradesh 221007",Konia,82QJ+RQ5,Varanasi,221007,Uttar Pradesh,IN,"https://www.google.com/maps/place/Badi+masjid,+konia/data=!4m7!3m6!1s0x398e2fb1b8f13935:0xf0f87c17f67d1c24!8m2!3d25.3395172!4d83.0319864!16s%2Fg%2F11my5ws576!19sChIJNTnxuLEvjjkRJBx99hd8-PA?authuser=0&hl=en&rclk=1","25.3395172,83.0319864"
Jinnati Masjid,Mosque,"Jinnati Masjid, Bunker Colony, Jaitpura, Varanasi, Uttar Pradesh 221001","Bunker Colony, Jaitpura",,Varanasi,221001,Uttar Pradesh,IN,https://www.google.com/maps/place/Jinnati+Masjid/data=!4m7!3m6!1s0x398e2ff49ce28aa5:0x7a12a385738d4a09!8m2!3d25.330415!4d83.0060597!16s%2Fg%2F11gzpj06k7!19sChIJpYrinPQvjjkRCUqNc4WjEno?authuser=0&hl=en&rclk=1,"25.330415,83.0060597"
Pakki Masjid,Mosque,"8X9V+F3J Pakki Masjid, Lallapura Rd, Badshahbag Colony, Ramakanth Nagar, Chetganj, Varanasi, Uttar Pradesh 221001","Badshahbag Colony, Ramakanth Nagar, Chetganj","8X9V+F3J, Lallapura Rd",Varanasi,221001,Uttar Pradesh,IN,https://www.google.com/maps/place/Pakki+Masjid/data=!4m7!3m6!1s0x398e2d22fd006375:0xf82ea35e54898348!8m2!3d25.3187141!4d82.9926314!16s%2Fg%2F11h5r_v4rz!19sChIJdWMA_SItjjkRSIOJVF6jLvg?authuser=0&hl=en&rclk=1,"25.318714099999998,82.9926314"
Masjid yaqoob,Mosque,"8X8W+9HQ Masjid yaqoob, Naipokhari, Chetganj, Varanasi, Uttar Pradesh 221001","Naipokhari, Chetganj",8X8W+9HQ,Varanasi,221001,Uttar Pradesh,IN,https://www.google.com/maps/place/Masjid+yaqoob/data=!4m7!3m6!1s0x398e2fb8828b6d37:0xf9b324a2e1f7b0a0!8m2!3d25.315955!4d82.996488!16s%2Fg%2F11hdnh2lt6!19sChIJN22LgrgvjjkRoLD34aIks_k?authuser=0&hl=en&rclk=1,"25.315955,82.996488"
Masjid Nawapura,Mosque,"82GC+QCH Masjid Nawapura, Navapura, Chittanpura, Aalampura, Varanasi, Uttar Pradesh 221001","Teliyana, Chittanpura, Aalampura","82GC+QCH, Navapura",Varanasi,221001,Uttar Pradesh,IN,https://www.google.com/maps/place/Masjid+Nawapura/data=!4m7!3m6!1s0x398e2f4552a15d95:0xfa39691327f3f2f5!8m2!3d25.3269273!4d83.0210999!16s%2Fg%2F11kwn749_y!19sChIJlV2hUkUvjjkR9fLzJxNpOfo?authuser=0&hl=en&rclk=1,"25.326927299999998,83.0210999"
MASJID AL QURAISHI,Mosque,"8263+WFW MASJID AL QURAISHI, Maulvibagh, Sidhgiribagh, Varanasi, Uttar Pradesh 221001","Maulvibagh, Sidhgiribagh",8263+WFW,Varanasi,221001,Uttar Pradesh,IN,https://www.google.com/maps/place/MASJID+AL+QURAISHI/data=!4m7!3m6!1s0x398e2e034c5ef707:0xebacc9f63d15adf9!8m2!3d25.3123736!4d83.0037156!16s%2Fg%2F1hm5twmpx!19sChIJB_deTAMujjkR-a0VPfbJrOs?authuser=0&hl=en&rclk=1,"25.312373599999997,83.00371559999999"
Chakra Wali Masjid,Mosque,"8X8R+9G8 Chakra Wali Masjid, Naipokhari, Chetganj, Varanasi, Uttar Pradesh 221002","Naipokhari, Chetganj",8X8R+9G8,Varanasi,221002,Uttar Pradesh,IN,https://www.google.com/maps/place/Chakra+Wali+Masjid/data=!4m7!3m6!1s0x398e2d56410c14db:0xc869e36d2ef3897b!8m2!3d25.3159095!4d82.9913188!16s%2Fg%2F11pp9l4rbp!19sChIJ2xQMQVYtjjkRe4nzLm3jacg?authuser=0&hl=en&rclk=1,"25.3159095,82.9913188"
Masjid Samman Kha,Mosque,"Masjid Samman Kha, b3269, Gauriganj, Bhelupur, Varanasi, Uttar Pradesh 221001","Gauriganj, Bhelupur",b3269,Varanasi,221001,Uttar Pradesh,IN,https://www.google.com/maps/place/Masjid+Samman+Kha/data=!4m7!3m6!1s0x398e31fad6c0eca7:0x58d57ca614a718c7!8m2!3d25.2983329!4d83.0034823!16s%2Fg%2F11g8kstlb7!19sChIJp-zA1voxjjkRxxinFKZ81Vg?authuser=0&hl=en&rclk=1,"25.2983329,83.0034823"
Masjid Raza E Ilahi Bakhsh,Mosque,"Masjid Raza E Ilahi Bakhsh, Bhelupur B-21/221, 2, Ashfaq Nagar, Bhelupur, Varanasi, Uttar Pradesh 221001","Ashfaq Nagar, Bhelupur","Bhelupur B-21/221, 2",Varanasi,221001,Uttar Pradesh,IN,https://www.google.com/maps/place/Masjid+Raza+E+Ilahi+Bakhsh/data=!4m7!3m6!1s0x398e31724cb3c457:0xa39bf9fcba6b1f11!8m2!3d25.3051416!4d82.9978261!16s%2Fg%2F11rdr1hjbv!19sChIJV8SzTHIxjjkRER9ruvz5m6M?authuser=0&hl=en&rclk=1,"25.3051416,82.9978261"
Masjid Raja Darwaza,Mosque,"Masjid Raja Darwaza, CK-50/80-1, Kashipura, Rajadarwaja, Bulanala, Varanasi, Uttar Pradesh 221001","Rajadarwaja, Bulanala","CK-50/80-1, Kashipura",Varanasi,221001,Uttar Pradesh,IN,https://www.google.com/maps/place/Masjid+Raja+Darwaza/data=!4m7!3m6!1s0x398e2fc9bdc33d33:0xd4bd62440badbd62!8m2!3d25.3154479!4d83.0098203!16s%2Fg%2F11fk41jyys!19sChIJMz3DvckvjjkRYr2tC0RivdQ?authuser=0&hl=en&rclk=1,"25.3154479,83.0098203"
Shahi Masjid Sota Basath,Mosque,"Shahi Masjid Sota Basath, C19/56, Kashi Vidyapith, Chetganj, Varanasi, Uttar Pradesh 221001","Kashi Vidyapith, Chetganj",C19/56,Varanasi,221001,Uttar Pradesh,IN,https://www.google.com/maps/place/Shahi+Masjid+Sota+Basath/data=!4m7!3m6!1s0x398e2d9ad43aa5e7:0xd9ab90507d618be0!8m2!3d25.3209201!4d82.9893382!16s%2Fg%2F11h07z3_8q!19sChIJ56U61JotjjkR4IthfVCQq9k?authuser=0&hl=en&rclk=1,"25.3209201,82.98933819999999"
Masjid Pathani Tola,Mosque,"Masjid Pathani Tola, A17/56, Chittanpura, Aalampura, Varanasi, Uttar Pradesh 221001","Chittanpura, Aalampura",A17/56,Varanasi,221001,Uttar Pradesh,IN,https://www.google.com/maps/place/Masjid+Pathani+Tola/data=!4m7!3m6!1s0x398e2f47182b47bb:0x49bfcf2eca8cf870!8m2!3d25.3264331!4d83.0227563!16s%2Fg%2F11f73z19g7!19sChIJu0crGEcvjjkRcPiMyi7Pv0k?authuser=0&hl=en&rclk=1,"25.3264331,83.0227563"
Babri Mosque,Mosque,"8X9F+2HG Babri Mosque, varanasi, Ayodhya, Uttar Pradesh 212303","Golghar, Bazardiha, Maheshpur","8X9F+2HG, varanasi","Ayodhya, Varanasi",212303,Uttar Pradesh,IN,https://www.google.com/maps/place/Babri+Mosque/data=!4m7!3m6!1s0x398e2dd0d81e3a19:0x2d5cda2e7c732d21!8m2!3d25.3175518!4d82.973968!16s%2Fg%2F11s1wk1tsv!19sChIJGToe2NAtjjkRIS1zfC7aXC0?authuser=0&hl=en&rclk=1,"25.3175518,82.973968"
MASJID JAHANGIR HATIYA,Mosque,"8234+969 MASJID JAHANGIR HATIYA, Madanpura, Bhelupur, Varanasi, Uttar Pradesh 221001","Madanpura, Bhelupur",8234+969,Varanasi,221001,Uttar Pradesh,IN,https://www.google.com/maps/place/MASJID+JAHANGIR+HATIYA/data=!4m7!3m6!1s0x398e31e3138b28b9:0x1724803c9de648bb!8m2!3d25.3034154!4d83.0056015!16s%2Fg%2F11fz9k0ylt!19sChIJuSiLE-MxjjkRu0jmnTyAJBc?authuser=0&hl=en&rclk=1,"25.3034154,83.0056015"
Anjuman Mughliya Masjid,Mosque,"8XCR+CFG Anjuman Mughliya Masjid, Fatman Rd, Kashi Vidyapith, Chetganj, Varanasi, Uttar Pradesh 221002","Kashi Vidyapith, Chetganj","8XCR+CFG, Fatman Rd",Varanasi,221002,Uttar Pradesh,IN,https://www.google.com/maps/place/Anjuman+Mughliya+Masjid/data=!4m7!3m6!1s0x398e2de2f1ab0041:0xdb2e4549da5f9dba!8m2!3d25.3210556!4d82.9911887!16s%2Fg%2F1hm5q718b!19sChIJQQCr8eItjjkRup1f2klFLts?authuser=0&hl=en&rclk=1,"25.321055599999998,82.9911887"
Shia Haidari Jama Masjid,Mosque,"Shia Haidari Jama Masjid, 81, Sheel Nagar, Colony, Mahmoorganj, Varanasi, Uttar Pradesh 221010","Sheel Nagar, Colony, Mahmoorganj",81,Varanasi,221010,Uttar Pradesh,IN,https://www.google.com/maps/place/Shia+Haidari+Jama+Masjid/data=!4m7!3m6!1s0x398e33fc7014da65:0xa3682fde9f1715d2!8m2!3d25.3013724!4d82.9734727!16s%2Fg%2F11lgkw97lt!19sChIJZdoUcPwzjjkR0hUXn94vaKM?authuser=0&hl=en&rclk=1,"25.301372399999998,82.9734727"
Ahle hadees masjid (munazrah wali masjid,Mosque,"Ahle hadees masjid (munazrah wali masjid, N 13/97A, Sarai Nandan, Bhelupur, Varanasi, Uttar Pradesh 221001","Sarai Nandan, Bhelupur",N 13/97A,Varanasi,221001,Uttar Pradesh,IN,https://www.google.com/maps/place/Ahle+hadees+masjid+%28munazrah+wali+masjid/data=!4m7!3m6!1s0x398e33812681df5f:0x2457ea72209362e7!8m2!3d25.2900692!4d82.9836218!16s%2Fg%2F11svzm7ldk!19sChIJX9-BJoEzjjkR52KTIHLqVyQ?authuser=0&hl=en&rclk=1,"25.290069199999998,82.9836218"
Masjid Usmani,Mosque,"82M6+5RV Masjid Usmani, Alaipura, Jaitpura, Varanasi, Uttar Pradesh 221001","Alaipura, Jaitpura",82M6+5RV,Varanasi,221001,Uttar Pradesh,IN,https://www.google.com/maps/place/Masjid+Usmani/data=!4m7!3m6!1s0x398e2f7b60d282f7:0x22454378c918f729!8m2!3d25.3329974!4d83.0120562!16s%2Fg%2F11fcr0p8hd!19sChIJ94LSYHsvjjkRKfcYyXhDRSI?authuser=0&hl=en&rclk=1,"25.3329974,83.01205619999999"
Masjid,Mosque,"Masjid, NH 29, behind Yateem Khana Building, Kachi Bagh, Jaitpura, Varanasi, Uttar Pradesh 221001","Kachi Bagh, Jaitpura","NH 29, behind Yateem Khana Building",Varanasi,221001,Uttar Pradesh,IN,https://www.google.com/maps/place/Masjid/data=!4m7!3m6!1s0x398e2f2853a5cfe7:0xdee8ea18b4c3de2d!8m2!3d25.3308951!4d83.0167917!16s%2Fg%2F11qg5s4jx7!19sChIJ58-lUygvjjkRLd7DtBjq6N4?authuser=0&hl=en&rclk=1,"25.3308951,83.0167917"
Masjid msjid,Mosque,"Masjid msjid, 8, Sonarpura Road, near Ksheer Sagar, Sonarpura, Bangali Tola, Varanasi, Uttar Pradesh 221001","Sonarpura, Bangali Tola","8, Sonarpura Road, near Ksheer Sagar",Varanasi,221001,Uttar Pradesh,IN,https://www.google.com/maps/place/Masjid+%E0%A4%AE%E0%A4%B8%E0%A5%8D%E0%A4%9C%E0%A4%BF%E0%A4%A6/data=!4m7!3m6!1s0x398e3128ba755329:0x9df5fb9a13b4c986!8m2!3d25.3001!4d83.004715!16s%2Fg%2F11rnjy196h!19sChIJKVN1uigxjjkRhsm0E5r79Z0?authuser=0&hl=en&rclk=1,"25.3001,83.00471499999999"
Masjid Maula Ali ( AS) . Fatman Varanasi,Mosque,"8X9V+X4R Masjid Maula Ali ( AS) . Fatman Varanasi, Fatman Rd, Badshahbag Colony, Kashi Vidyapith, Sigra, Varanasi, Uttar Pradesh 221002","Badshahbag Colony, Kashi Vidyapith, Sigra","8X9V+X4R, Fatman Rd",Varanasi,221002,Uttar Pradesh,IN,https://www.google.com/maps/place/Masjid+Maula+Ali+%28+AS%29+.+Fatman+Varanasi/data=!4m7!3m6!1s0x398e2df496f4b95d:0xdd01d7e9ce5cea82!8m2!3d25.3199945!4d82.9927765!16s%2Fg%2F11s1w4v71q!19sChIJXbn0lvQtjjkRgupczunXAd0?authuser=0&hl=en&rclk=1,"25.3199945,82.99277649999999"
Jinnati masjid,Mosque,"Jinnati masjid, C-19/40-B-L, Kashi Vidyapith, Chetganj, Varanasi, Uttar Pradesh 221001","Kashi Vidyapith, Chetganj","C-19/40-B-L, Kashi Vidyapith",Varanasi,221001,Uttar Pradesh,IN,https://www.google.com/maps/place/Jinnati+masjid/data=!4m7!3m6!1s0x398e2d25a46a12e5:0x95c697ebc83e0ce0!8m2!3d25.3205104!4d82.9908631!16s%2Fg%2F11h5r_sf51!19sChIJ5RJqpCUtjjkR4Aw-yOuXxpU?authuser=0&hl=en&rclk=1,"25.3205104,82.9908631"
Masjid,Mosque,"Masjid, Sadar Mahal, Muqeemganj, Machodari, Kotwali, Varanasi, Uttar Pradesh 221001","Muqeemganj, Machodari, Kotwali",Sadar Mahal,Varanasi,221001,Uttar Pradesh,IN,https://www.google.com/maps/place/Masjid/data=!4m7!3m6!1s0x398e2f0c312a33bd:0xbcb787cb861020fd!8m2!3d25.3223332!4d83.0237554!16s%2Fg%2F11k7rwqcmb!19sChIJvTMqMQwvjjkR_SAQhsuHt7w?authuser=0&hl=en&rclk=1,"25.3223332,83.0237554"
Masjid,Mosque,"8292+F6J Masjid, Senpura, Piplani Katra, Chetganj, Varanasi, Uttar Pradesh 221001","Senpura, Piplani Katra, Chetganj",8292+F6J,Varanasi,221001,Uttar Pradesh,IN,https://www.google.com/maps/place/Masjid/data=!4m7!3m6!1s0x398e2f0aebcc726f:0x8ed5d07b4be98bda!8m2!3d25.3187026!4d83.0005074!16s%2Fg%2F11kj1thqm0!19sChIJb3LM6wovjjkR2ovpS3vQ1Y4?authuser=0&hl=en&rclk=1,"25.318702599999998,83.00050739999999"
Bachad Masjid baachdd msjid (bchhrr msjd),Mosque,"8X4W+4MV Bachad Masjid baachdd msjid (bchhrr msjd), Ashfaq Nagar, Bhelupur, Varanasi, Uttar Pradesh 221001","Ashfaq Nagar, Bhelupur",8X4W+4MV,Varanasi,221001,Uttar Pradesh,IN,https://www.google.com/maps/place/Bachad+Masjid+%E0%A4%AC%E0%A4%BE%E0%A4%9B%E0%A4%A1+%E0%A4%AE%E0%A4%B8%E0%A5%8D%E0%A4%9C%E0%A4%BF%E0%A4%A6+%28%D8%A8%D8%A7%DA%86%DB%81%DA%91+%D9%85%D8%B3%D8%AC%D8%AF%29%E2%80%AD/data=!4m7!3m6!1s0x398e311d1a83e175:0x440f3a6158280aa1!8m2!3d25.3053563!4d82.996672!16s%2Fg%2F11rx0n8fh_!19sChIJdeGDGh0xjjkRoQooWGE6D0Q?authuser=0&hl=en&rclk=1,"25.3053563,82.99667199999999"
Masjid,Mosque,"8XHW+46P Masjid, near Anand Cinema Hall, Near Chaura Mata Mandir, Maldahiya, Teliyabag, Varanasi, Uttar Pradesh 221002","Near Chaura Mata Mandir, Maldahiya, Teliyabag","8XHW+46P, near Anand Cinema Hall",Varanasi,221002,Uttar Pradesh,IN,https://www.google.com/maps/place/Masjid/data=!4m7!3m6!1s0x398e2f7c4d588a11:0x6240e5fc807a9611!8m2!3d25.3277761!4d82.9955939!16s%2Fg%2F11t6hg4r9t!19sChIJEYpYTXwvjjkREZZ6gPzlQGI?authuser=0&hl=en&rclk=1,"25.327776099999998,82.9955939"
