name,main_category,address,address_ward,address_street,address_city,address_postal_code,address_state,address_country_code,link,coordinates
Masjid-e-Hasan (AHMADIYYA MASJID),Mosque,"GQMF+2MP Masjid-e-Hasan (AHMADIYYA MASJID), Rangampet, Karnataka 585224",,GQMF+2MP,Rangampet,585224,Karnataka,IN,https://www.google.com/maps/place/Masjid-e-Hasan+%28AHMADIYYA+MASJID%29/data=!4m7!3m6!1s0x3bc86b00ccf3d241:0x2b48bdbc570aa956!8m2!3d16.5325913!4d76.774195!16s%2Fg%2F11cn93j1hw!19sChIJQdLzzABryDsRVqkKV7y9SCs?authuser=0&hl=en&rclk=1,"16.5325913,76.77419499999999"
MASJID-E-RAHMAN,Mosque,"GQJ9+PWJ MASJID-E-RAHMAN, Rangampet, Karnataka 585220",,GQJ9+PWJ,Rangampet,585220,Karnataka,IN,https://www.google.com/maps/place/MASJID-E-RAHMAN/data=!4m7!3m6!1s0x3bc86b07c861f58d:0xd7e2d5e272da0fe9!8m2!3d16.5318482!4d76.7697663!16s%2Fg%2F11cnwnrd25!19sChIJjfVhyAdryDsR6Q_acuLV4tc?authuser=0&hl=en&rclk=1,"16.5318482,76.7697663"
Jamiya Masjid ( Ahle Hadees),Mosque,"GQ97+43X Jamiya Masjid ( Ahle Hadees), Qureshi Colony, Shorapur, Karnataka 585224",Qureshi Colony,GQ97+43X,Shorapur,585224,Karnataka,IN,https://www.google.com/maps/place/Jamiya+Masjid+%28+Ahle+Hadees%29/data=!4m7!3m6!1s0x3bc86b1160199e7f:0x2d4a6510b1639391!8m2!3d16.5178635!4d76.7627289!16s%2Fg%2F11bz0bcwy1!19sChIJf54ZYBFryDsRkZNjsRBlSi0?authuser=0&hl=en&rclk=1,"16.5178635,76.7627289"
Ayesha Masjid,Mosque,"GQJG+H5F Ayesha Masjid, Rangampet, Karnataka 585224",,GQJG+H5F,Rangampet,585224,Karnataka,IN,https://www.google.com/maps/place/Ayesha+Masjid/data=!4m7!3m6!1s0x3bc86b0123991b6b:0xafa2dc15a9bccb7f!8m2!3d16.5314276!4d76.7754233!16s%2Fg%2F11c3yrycn0!19sChIJaxuZIwFryDsRf8u8qRXcoq8?authuser=0&hl=en&rclk=1,"16.5314276,76.7754233"
Masjid-e-Shaikh (Markaz),Mosque,"Masjid-e-Shaikh (Markaz), main road,, main road, SH 19, Rangampet, Karnataka 585220",,"main road,, main road, SH 19",Rangampet,585220,Karnataka,IN,https://www.google.com/maps/place/Masjid-e-Shaikh+%28Markaz%29/data=!4m7!3m6!1s0x3bc86b062de3dad9:0xf0f3d109455db0ff!8m2!3d16.5307374!4d76.7689644!16s%2Fg%2F11c60414cs!19sChIJ2drjLQZryDsR_7BdRQnR8_A?authuser=0&hl=en&rclk=1,"16.5307374,76.7689644"
MAKKAH MASJID,Mosque,"GQJF+H5F MAKKAH MASJID, Rangampet, Karnataka 585224",,GQJF+H5F,Rangampet,585224,Karnataka,IN,https://www.google.com/maps/place/MAKKAH+MASJID/data=!4m7!3m6!1s0x3bc86b0720abc861:0x7fccb91830c56ce4!8m2!3d16.5314452!4d76.7729112!16s%2Fg%2F11c5bt0xxl!19sChIJYcirIAdryDsR5GzFMBi5zH8?authuser=0&hl=en&rclk=1,"16.5314452,76.7729112"
Masjid e hanafiya arifpura,Mosque,"GQG4+CHJ Masjid e hanafiya arifpura, SH 60, Shorapur, Karnataka 585220",,"GQG4+CHJ, SH 60",Shorapur,585220,Karnataka,IN,https://www.google.com/maps/place/Masjid+e+hanafiya+arifpura/data=!4m7!3m6!1s0x3bc86b73482a413f:0xe6bddc0ad1d8bd91!8m2!3d16.5260983!4d76.7563942!16s%2Fg%2F1thmcv_p!19sChIJP0EqSHNryDsRkb3Y0QrcveY?authuser=0&hl=en&rclk=1,"16.5260983,76.7563942"
Yousufia Masjid,Mosque,"GQJ9+X86 Yousufia Masjid, Rangampet, Karnataka 585224",,GQJ9+X86,Rangampet,585224,Karnataka,IN,https://www.google.com/maps/place/Yousufia+Masjid/data=!4m7!3m6!1s0x3bc86b0875c74421:0xb8567175dfbfd21f!8m2!3d16.5324039!4d76.7682554!16s%2Fg%2F11g8cl0vtc!19sChIJIUTHdQhryDsRH9K_33VxVrg?authuser=0&hl=en&rclk=1,"16.5324039,76.7682554"
Badi Masjid Shorapur,Place of worship,"GQC6+34C Badi Masjid Shorapur, Badi Masjid Mohalla, Shorapur, Karnataka 585224",,"GQC6+34C, Badi Masjid Mohalla",Shorapur,585224,Karnataka,IN,https://www.google.com/maps/place/Badi+Masjid+Shorapur/data=!4m7!3m6!1s0x3bc86b125b43e689:0x73bee7abf2055709!8m2!3d16.5201991!4d76.7602713!16s%2Fg%2F11cllhky7w!19sChIJieZDWxJryDsRCVcF8qvnvnM?authuser=0&hl=en&rclk=1,"16.5201991,76.7602713"
Jamiya Masjid Mozampura,Mosque,"GQF6+383 Jamiya Masjid Mozampura, Shorapur, Karnataka 585224",,GQF6+383,Shorapur,585224,Karnataka,IN,https://www.google.com/maps/place/Jamiya+Masjid+Mozampura/data=!4m7!3m6!1s0x3bc86b0d8c3566d7:0x9afe73f9c135a037!8m2!3d16.5226365!4d76.7607927!16s%2Fg%2F11f0432y7m!19sChIJ12Y1jA1ryDsRN6A1wflz_po?authuser=0&hl=en&rclk=1,"16.5226365,76.7607927"
Masjid E Talha,Mosque,"GQG5+GXV Masjid E Talha, Rangampet- main road shorapur, Shorapur, Karnataka 585224",,"GQG5+GXV, Rangampet- main road shorapur",Shorapur,585224,Karnataka,IN,https://www.google.com/maps/place/Masjid+E+Talha/data=!4m7!3m6!1s0x3bc86b0c5e0365df:0x694931e331cdf98c!8m2!3d16.5263619!4d76.7599279!16s%2Fg%2F11cm056jpd!19sChIJ32UDXgxryDsRjPnNMeMxSWk?authuser=0&hl=en&rclk=1,"16.526361899999998,76.7599279"
Masjide Umar (AhleHadees masjid),Mosque,"GQ96+4C8 Masjide Umar (AhleHadees masjid), Shorapur, Karnataka 585224",,GQ96+4C8,Shorapur,585224,Karnataka,IN,https://www.google.com/maps/place/Masjide+Umar+%28AhleHadees+masjid%29/data=!4m7!3m6!1s0x3bc86b13bffad653:0xeb085da9a69750e5!8m2!3d16.5177989!4d76.7610741!16s%2Fg%2F11by_xk441!19sChIJU9b6vxNryDsR5VCXpqldCOs?authuser=0&hl=en&rclk=1,"16.5177989,76.7610741"
Masjid E Afzal ud Doula Bahadur,Mosque,"GQ94+52F Masjid E Afzal ud Doula Bahadur, Shorapur, Karnataka 585220",,GQ94+52F,Shorapur,,Karnataka,IN,https://www.google.com/maps/place/Masjid+E+Afzal+ud+Doula+Bahadur/data=!4m7!3m6!1s0x3bc86b6ce905ea4b:0x131ddce7daeda181!8m2!3d16.5179394!4d76.7550353!16s%2Fg%2F11gf1l21f8!19sChIJS-oF6WxryDsRgaHt2ufcHRM?authuser=0&hl=en&rclk=1,"16.5179394,76.7550353"
Jamiya masjid Rukmapur,Mosque,"Jamiya masjid Rukmapur, Rukmapur, Karnataka 585224",,,Rukmapur,585224,Karnataka,IN,https://www.google.com/maps/place/Jamiya+masjid+Rukmapur/data=!4m7!3m6!1s0x3bc86b324a5f5c95:0x66a9b9b476679ded!8m2!3d16.5068647!4d76.7848025!16s%2Fg%2F11rtmf2n2g!19sChIJlVxfSjJryDsR7Z1ndrS5qWY?authuser=0&hl=en&rclk=1,"16.506864699999998,76.7848025"
Husen Saiyadh Masjid,Mosque,"GQ53+XCV Husen Saiyadh Masjid, Kumbarpet, Shorapur, Karnataka 585290",Kumbarpet,GQ53+XCV,Shorapur,585290,Karnataka,IN,https://www.google.com/maps/place/Husen+Saiyadh+Masjid/data=!4m7!3m6!1s0x3bc86bf74959d74b:0x4909ced6ae104b00!8m2!3d16.5099778!4d76.7535323!16s%2Fg%2F11rwq7ngdn!19sChIJS9dZSfdryDsRAEsQrtbOCUk?authuser=0&hl=en&rclk=1,"16.509977799999998,76.7535323"
MASJID-E-IQRA,Mosque,"GQMP+5C3 MASJID-E-IQRA, Jevargi - Chamarajanagar Rd, Karnataka 585224",,"GQMP+5C3, Jevargi - Chamarajanagar Rd",,585224,Karnataka,IN,https://www.google.com/maps/place/MASJID-E-IQRA/data=!4m7!3m6!1s0x3bc86af8d172dc15:0xf9f005635097db1d!8m2!3d16.5328835!4d76.7860328!16s%2Fg%2F11c2psk6l7!19sChIJFdxy0fhqyDsRHduXUGMF8Pk?authuser=0&hl=en&rclk=1,"16.5328835,76.7860328"
Masjid E Talha Bin Zubair Shorapur,Mosque,"GQG6+J6F Masjid E Talha Bin Zubair Shorapur, Rangampet- main road shorapur, Shorapur, Karnataka 585224",,"GQG6+J6F, Rangampet- main road shorapur",Shorapur,585224,Karnataka,IN,https://www.google.com/maps/place/Masjid+E+Talha+Bin+Zubair+Shorapur/data=!4m7!3m6!1s0x3bc86b4e2be2be67:0x53bf7eb2b853240a!8m2!3d16.5265589!4d76.7605546!16s%2Fg%2F11lqrjz_x2!19sChIJZ77iK05ryDsRCiRTuLJ-v1M?authuser=0&hl=en&rclk=1,"16.526558899999998,76.76055459999999"
Masjid-e-Asar Shareef,Mosque,"GQF6+CR7 Masjid-e-Asar Shareef, Shorapur, Karnataka 585224",,GQF6+CR7,Shorapur,,Karnataka,IN,https://www.google.com/maps/place/Masjid-e-Asar+Shareef/data=!4m7!3m6!1s0x3bc86b080f913365:0x8c251719747cdb20!8m2!3d16.5235256!4d76.7620367!16s%2Fg%2F11h2vjzr4r!19sChIJZTORDwhryDsRINt8dBkXJYw?authuser=0&hl=en&rclk=1,"16.5235256,76.7620367"
Taylor's bangalow masjid,Mosque,"Taylor's bangalow masjid, Taylor's Bungalow, Shorapur, Talwargera, Karnataka 585220",,Taylor's Bungalow,"Shorapur, Talwargera",585220,Karnataka,IN,https://www.google.com/maps/place/Taylor%27s+bangalow+masjid/data=!4m7!3m6!1s0x3bc86b474db7a6c5:0x16bf173e09d2d5f4!8m2!3d16.5251068!4d76.7518333!16s%2Fg%2F11s2qqwlkq!19sChIJxaa3TUdryDsR9NXSCT4XvxY?authuser=0&hl=en&rclk=1,"16.5251068,76.7518333"
madina masjid jalaal mohella,School,"GQ95+H25 madina masjid jalaal mohella, Shorapur, Karnataka 585224",,GQ95+H25,Shorapur,,Karnataka,IN,https://www.google.com/maps/place/madina+masjid+jalaal+mohella/data=!4m7!3m6!1s0x3bc86b1327a305d7:0x2bcf7dbd398b9b74!8m2!3d16.5188837!4d76.7576037!16s%2Fg%2F11hcnc9kjx!19sChIJ1wWjJxNryDsRdJuLOb19zys?authuser=0&hl=en&rclk=1,"16.5188837,76.75760369999999"
SUBEDAR masjid,Mosque,"SUBEDAR masjid, Road, near court complex, Shorapur, Karnataka 585220",,"Road, near court complex",Shorapur,585220,Karnataka,IN,https://www.google.com/maps/place/SUBEDAR+masjid/data=!4m7!3m6!1s0x3bc86b89a96d6051:0x428f2f7aaecba87e!8m2!3d16.5234404!4d76.7461887!16s%2Fg%2F11nwc9l8rk!19sChIJUWBtqYlryDsRfqjLrnovj0I?authuser=0&hl=en&rclk=1,"16.5234404,76.74618869999999"
Masjid e ansariya,Mosque,"GQF4+6H2 Masjid e ansariya, SH 60, Shorapur, Karnataka 585224",,"GQF4+6H2, SH 60",Shorapur,585224,Karnataka,IN,https://www.google.com/maps/place/Masjid+e+ansariya/data=!4m7!3m6!1s0x3bc86b636a5e7905:0xb1b88b1591de2bb4!8m2!3d16.5230104!4d76.7563755!16s%2Fg%2F11rsf0qp0j!19sChIJBXleamNryDsRtCvekRWLuLE?authuser=0&hl=en&rclk=1,"16.5230104,76.75637549999999"
Lal Sahib Masjid,Mosque,"GQ62+7XQ Lal Sahib Masjid, Kumbarpet, Shorapur, Karnataka 585290",Kumbarpet,GQ62+7XQ,Shorapur,585290,Karnataka,IN,https://www.google.com/maps/place/Lal+Sahib+Masjid/data=!4m7!3m6!1s0x3bc86b4b752b95ed:0x9d517484d458d787!8m2!3d16.5107187!4d76.7524741!16s%2Fg%2F11qg44vzg3!19sChIJ7ZUrdUtryDsRh9dY1IR0UZ0?authuser=0&hl=en&rclk=1,"16.510718699999998,76.7524741"
ranagmpet moharam masjid,Mosque,"GQM9+24F ranagmpet moharam masjid, taluk, Rangampet, Karnataka 585220",,"GQM9+24F, taluk",Rangampet,,Karnataka,IN,https://www.google.com/maps/place/ranagmpet+moharam+masjid/data=!4m7!3m6!1s0x3bc86b9873f817a5:0x9d83a904c6ebcf55!8m2!3d16.5325543!4d76.7677819!16s%2Fg%2F11s9gfmpjl!19sChIJpRf4c5hryDsRVc_rxgSpg50?authuser=0&hl=en&rclk=1,"16.532554299999997,76.7677819"
Masjid of MOZAMPURA,Mosque,"GQ96+J88 Masjid of MOZAMPURA, Unnamed Road, Shorapur, Karnataka 585224",,"GQ96+J88, Unnamed Road",Shorapur,585224,Karnataka,IN,https://www.google.com/maps/place/Masjid+of+MOZAMPURA/data=!4m7!3m6!1s0x3bc86b31fb183747:0xa50325e8960853f6!8m2!3d16.5190384!4d76.7608334!16s%2Fg%2F11lb13s3r9!19sChIJRzcY-zFryDsR9lMIluglA6U?authuser=0&hl=en&rclk=1,"16.5190384,76.7608334"
Syed Kashim Masjid,Mosque,"GQ94+P6X Syed Kashim Masjid, Shorapur, Karnataka 585220",,GQ94+P6X,Shorapur,,Karnataka,IN,https://www.google.com/maps/place/Syed+Kashim+Masjid/data=!4m7!3m6!1s0x3bc86b5c16bb0117:0xe7bb17524f209c49!8m2!3d16.5193556!4d76.755614!16s%2Fg%2F11p01v5jtr!19sChIJFwG7FlxryDsRSZwgT1IXu-c?authuser=0&hl=en&rclk=1,"16.5193556,76.755614"
Bara-E-Imam Aashirkhana Masjid,Mosque,"GQ96+RJM Bara-E-Imam Aashirkhana Masjid, Shorapur, Karnataka 585224",,GQ96+RJM,Shorapur,,Karnataka,IN,https://www.google.com/maps/place/Bara-E-Imam+Aashirkhana+Masjid/data=!4m7!3m6!1s0x3bc86b78ee27c1c3:0x3993910fc1cbed0d!8m2!3d16.5195821!4d76.761534!16s%2Fg%2F11q24gxfdj!19sChIJw8En7nhryDsRDe3LwQ-Rkzk?authuser=0&hl=en&rclk=1,"16.5195821,76.761534"
Shorapur Hanuman talkies uppar mohalla,Mosque,"Shorapur Hanuman talkies uppar mohalla, Ansariya Masjid, Shorapur, Karnataka 585224",,Ansariya Masjid,Shorapur,585224,Karnataka,IN,https://www.google.com/maps/place/Shorapur+Hanuman+talkies+uppar+mohalla/data=!4m7!3m6!1s0x3bc86b19d3165e57:0x8cd22d4f82ecf749!8m2!3d16.5232796!4d76.7563433!16s%2Fg%2F11s8rcyb2t!19sChIJV14W0xlryDsRSffsgk8t0ow?authuser=0&hl=en&rclk=1,"16.5232796,76.7563433"
ranagmpet moharram masjid,Mosque,"GQC6+M9H ranagmpet moharram masjid, ranagmpet quraishi maula, taluk, Shorapur",,"GQC6+M9H, ranagmpet quraishi maula, taluk",Shorapur,,Karnataka,IN,https://www.google.com/maps/place/ranagmpet+moharram+masjid/data=!4m7!3m6!1s0x3bc86b5cb59ca695:0xb48a05718c0ebda6!8m2!3d16.5216869!4d76.7609987!16s%2Fg%2F11jyjdb2_l!19sChIJlaactVxryDsRpr0OjHEFirQ?authuser=0&hl=en&rclk=1,"16.5216869,76.7609987"
