name,main_category,address,address_ward,address_street,address_city,address_postal_code,address_state,address_country_code,link,coordinates
Jama Masjid,Mosque,"GRRM+G9C Jama Masjid, Bhaga, Assam 788120",,GRRM+G9C,Bhaga,788120,Assam,IN,https://www.google.com/maps/place/Jama+Masjid/data=!4m7!3m6!1s0x374e41a13a40ebe9:0x5d16fb670206df24!8m2!3d24.5413034!4d92.8333943!16s%2Fg%2F11clwlsskt!19sChIJ6etAOqFBTjcRJN8GAmf7Fl0?authuser=0&hl=en&rclk=1,"24.5413034,92.8333943"
"Jame Masjid, Lunglei Bazar",Mosque,"VPVX+X87 Jame Masjid, Lunglei Bazar, Lunglei-Thenzawl Rd, Bazar veng, Serkawn, Lunglei, Mizoram 796701","Bazar veng, Serkawn","VPVX+X87, Lunglei-Thenzawl Rd",Lunglei,796701,Mizoram,IN,"https://www.google.com/maps/place/Jame+Masjid,+Lunglei+Bazar/data=!4m7!3m6!1s0x374d40c6cea8bfc5:0x96744d118e38f74d!8m2!3d22.8949004!4d92.7482933!16s%2Fg%2F11g6649wph!19sChIJxb-ozsZATTcRTfc4jhFNdJY?authuser=0&hl=en&rclk=1","22.894900399999997,92.7482933"
Hathkala Jumma Masjid,Mosque,"J8JJ+M4H Hathkala Jumma Masjid, Jamirala, Assam 788724",,J8JJ+M4H,Jamirala,788724,Assam,IN,https://www.google.com/maps/place/Hathkala+Jumma+Masjid/data=!4m7!3m6!1s0x3751db118e39b93d:0xb82bfd2d6574f87b!8m2!3d24.6316813!4d92.3303726!16s%2Fg%2F11gf8h45gk!19sChIJPbk5jhHbUTcRe_h0ZS39K7g?authuser=0&hl=en&rclk=1,"24.6316813,92.33037259999999"
Chamtila Jame Masjid,Mosque,"75M5+F5M Chamtila Jame Masjid, Roa, Tripura 799260",,75M5+F5M,Roa,799260,Tripura,IN,https://www.google.com/maps/place/Chamtila+Jame+Masjid/data=!4m7!3m6!1s0x3751f2c4ce3cdef7:0x97b75fe5beda60d3!8m2!3d24.2837206!4d92.1579303!16s%2Fg%2F11c7szmt11!19sChIJ9948zsTyUTcR02DavuVft5c?authuser=0&hl=en&rclk=1,"24.2837206,92.15793029999999"
"Sesah Bridge, Serchhip",Bridge,"8V23+H6V Sesah Bridge, Serchhip, Serchhip, Mizoram 796181",,8V23+H6V,Serchhip,796181,Mizoram,IN,"https://www.google.com/maps/place/Sesah+Bridge,+Serchhip/data=!4m7!3m6!1s0x374d0b4b20cbaf61:0x79ff2c50897715e1!8m2!3d23.3014851!4d92.8530526!16s%2Fg%2F11fl98bzt2!19sChIJYa_LIEsLTTcR4RV3iVAs_3k?authuser=0&hl=en&rclk=1","23.301485099999997,92.8530526"
South Betail Jama Masjid,Mosque,"V942+52R South Betail Jama Masjid, Umapati, Assam 788711",,V942+52R,Umapati,788711,Assam,IN,https://www.google.com/maps/place/South+Betail+Jama+Masjid/data=!4m7!3m6!1s0x3751d31a2524d033:0x8dd5c095b47adb52!8m2!3d24.855479!4d92.3500201!16s%2Fg%2F11d_8rr0rn!19sChIJM9AkJRrTUTcRUtt6tJXA1Y0?authuser=0&hl=en&rclk=1,"24.855479,92.3500201"
"East Batarasi, Jame Masjid",Mosque,"East Batarasi, Jame Masjid, Kameswar Post, North Tripura District, near Batarasi High School, East Batarasi, Tripura 799253",,"Kameswar Post, North Tripura District, near Batarasi High School","East Batarasi, Kameswar",799253,Tripura,IN,"https://www.google.com/maps/place/East+Batarasi,+Jame+Masjid/data=!4m7!3m6!1s0x3751edaa68f83c35:0xdf7a5039fba358c!8m2!3d24.3621498!4d92.1852963!16s%2Fg%2F11f00hv6mb!19sChIJNTz4aKrtUTcRjDW6nwOl9w0?authuser=0&hl=en&rclk=1","24.362149799999997,92.18529629999999"
West Singaria New Jame Masjid,Mosque,"P953+RVR West Singaria New Jame Masjid, Nagharia Pt I, Assam 788719",,P953+RVR,Nagharia Pt I,,Assam,IN,https://www.google.com/maps/place/West+Singaria+New+Jame+Masjid/data=!4m7!3m6!1s0x3751d090f3d6e2c5:0xfa5e115abddcf47f!8m2!3d24.7096221!4d92.3546533!16s%2Fg%2F11hbr7dbmg!19sChIJxeLW85DQUTcRf_TcvVoRXvo?authuser=0&hl=en&rclk=1,"24.709622099999997,92.3546533"
JAMA MASJID,Mosque,"PRGQ+9MM JAMA MASJID, Dhanehari Pt III, Assam 788013",,PRGQ+9MM,Dhanehari Pt III,788013,Assam,IN,https://www.google.com/maps/place/JAMA+MASJID/data=!4m7!3m6!1s0x374e48dd0a5d9065:0xe29863d15bd8d416!8m2!3d24.7259734!4d92.8391745!16s%2Fg%2F11fy4x8mfv!19sChIJZZBdCt1ITjcRFtTYW9FjmOI?authuser=0&hl=en&rclk=1,"24.725973399999997,92.8391745"
Notun Masjid ntun msjid,Mosque,"GRP6+5RG Notun Masjid ntun msjid, Joydhanpur, Assam 788120",,GRP6+5RG,Joydhanpur,788120,Assam,IN,https://www.google.com/maps/place/Notun+Masjid+%E0%A6%A8%E0%A6%A4%E0%A7%81%E0%A6%A8+%E0%A6%AE%E0%A6%B8%E0%A6%9C%E0%A6%BF%E0%A6%A6/data=!4m7!3m6!1s0x374e41cca988a353:0x515345a2d632e9b5!8m2!3d24.5354308!4d92.8120761!16s%2Fg%2F11g2v_hq0y!19sChIJU6OIqcxBTjcRteky1qJFU1E?authuser=0&hl=en&rclk=1,"24.5354308,92.8120761"
Mokshergool Jame Masjid,Mosque,"M7XX+GPC Mokshergool Jame Masjid, Mokshyergool Kadam Wala Road, 788723",,"M7XX+GPC, Mokshyergool Kadam Wala Road",Lakshipur,788723,Assam,IN,https://www.google.com/maps/place/Mokshergool+Jame+Masjid/data=!4m7!3m6!1s0x3751cf9c3e153a05:0xca8c5137cea56c26!8m2!3d24.6988176!4d92.2992745!16s%2Fg%2F11ppcsm_zs!19sChIJBToVPpzPUTcRJmylzjdRjMo?authuser=0&hl=en&rclk=1,"24.698817599999998,92.2992745"
7No Jama Masjid,Mosque,"7No Jama Masjid, Dariarghat Grant, Dariaghat Grant, Jalnacherra Grant, Assam 788165",,Dariarghat Grant,"Dariaghat Grant, Jalnacherra Grant",,Assam,IN,https://www.google.com/maps/place/7No+Jama+Masjid/data=!4m7!3m6!1s0x374e1b06212ab7eb:0xfa3d2ff072a86313!8m2!3d24.3325637!4d92.5522434!16s%2Fg%2F11hdy1y_8b!19sChIJ67cqIQYbTjcRE2OocvAvPfo?authuser=0&hl=en&rclk=1,"24.332563699999998,92.5522434"
Killarbak Jama Masjid,Mosque,"7GQF+8FF Killarbak Jama Masjid, Jalnacherra Grant, Assam 788162",,7GQF+8FF,Jalnacherra Grant,,Assam,IN,https://www.google.com/maps/place/Killarbak+Jama+Masjid/data=!4m7!3m6!1s0x374e0380736b6961:0xedba239c76817367!8m2!3d24.2883015!4d92.5236643!16s%2Fg%2F11rfmvj0yy!19sChIJYWlrc4ADTjcRZ3OBdpwjuu0?authuser=0&hl=en&rclk=1,"24.2883015,92.5236643"
Howaithang Jama Masjid,Mosque,"GRC3+4PV Howaithang Jama Masjid, NH306, Howaithang, Lailapur, Assam 788120",,"GRC3+4PV, NH306","Howaithang, Lailapur",788120,Assam,IN,https://www.google.com/maps/place/Howaithang+Jama+Masjid/data=!4m7!3m6!1s0x374e41f7f88df553:0x9b0f387ff0f6359c!8m2!3d24.5203744!4d92.8042995!16s%2Fg%2F11fmd7lw8x!19sChIJU_WN-PdBTjcRnDX28H84D5s?authuser=0&hl=en&rclk=1,"24.520374399999998,92.8042995"
Khedaghar Jame Masjid,Mosque,"P4CF+8P5 Khedaghar Jame Masjid, Unnamed Road, Savomphai, Manipur 795116",,"P4CF+8P5, Unnamed Road",Savomphai,795116,Manipur,IN,https://www.google.com/maps/place/Khedaghar+Jame+Masjid/data=!4m7!3m6!1s0x374ef85ba6c61d11:0xc226b5c5b6912de0!8m2!3d24.7207635!4d93.1243485!16s%2Fg%2F11gccrzhmh!19sChIJER3Gplv4TjcR4C2RtsW1JsI?authuser=0&hl=en&rclk=1,"24.7207635,93.1243485"
East Shanti Pur Jama Masjid,Mosque,"P99M+MW3 East Shanti Pur Jama Masjid, Shanti Pu (Keutkuna) Po Singaria Bazar Dist, Eraligool Pt X",,"P99M+MW3, Shanti Pu (Keutkuna) Po Singaria Bazar Dist",Eraligool Pt X,,Assam,IN,https://www.google.com/maps/place/East+Shanti+Pur+Jama+Masjid/data=!4m7!3m6!1s0x3751d7a997a605ed:0x8f5faa57ee21cfdb!8m2!3d24.7191327!4d92.3847903!16s%2Fg%2F11s48rhm0w!19sChIJ7QWml6nXUTcR288h7leqX48?authuser=0&hl=en&rclk=1,"24.7191327,92.38479029999999"
Chowrei Wali Masjid,Mosque,"JV4R+FHC Chowrei Wali Masjid, Mayang Imphal, Manipur 795132",,JV4R+FHC,Mayang Imphal,,Manipur,IN,https://www.google.com/maps/place/Chowrei+Wali+Masjid/data=!4m7!3m6!1s0x37493179f3499b9d:0x5455a1479b619d08!8m2!3d24.6061951!4d93.8913877!16s%2Fg%2F11fd6mc4fq!19sChIJnZtJ83kxSTcRCJ1hm0ehVVQ?authuser=0&hl=en&rclk=1,"24.606195099999997,93.8913877"
"Sedique Masjid,Lilong Dam Makha",Mosque,"MW9M+GR8 Sedique Masjid,Lilong Dam Makha, Iramsiphai, Leiphrakpam, Manipur 795009",,MW9M+GR8,"Iramsiphai, Leiphrakpam",795009,Manipur,IN,"https://www.google.com/maps/place/Sedique+Masjid,Lilong+Dam+Makha/data=!4m7!3m6!1s0x374925322a4c23b7:0xad7c6cbc1c43f2bc!8m2!3d24.6687913!4d93.9345753!16s%2Fg%2F11fy24npjp!19sChIJtyNMKjIlSTcRvPJDHLxsfK0?authuser=0&hl=en&rclk=1","24.6687913,93.93457529999999"
Shekhludi Jama Masjid,Mosque,"Q8RR+FJH Shekhludi Jama Masjid, Lamabahadurpur P, Assam 788722",,Q8RR+FJH,Lamabahadurpur P,788722,Assam,IN,https://www.google.com/maps/place/Shekhludi+Jama+Masjid/data=!4m7!3m6!1s0x3751d3b966e17aef:0xeb3f15c45f12d1fb!8m2!3d24.7911924!4d92.341606!16s%2Fg%2F11rff968zs!19sChIJ73rhZrnTUTcR-9ESX8QVP-s?authuser=0&hl=en&rclk=1,"24.7911924,92.341606"
New Serchhip Community Hall,Community center,"8VP3+VRH New Serchhip Community Hall, College Peng, New Serchhip, Serchhip, Mizoram 796181","College Peng, New Serchhip",8VP3+VRH,Serchhip,796181,Mizoram,IN,https://www.google.com/maps/place/New+Serchhip+Community+Hall/data=!4m7!3m6!1s0x374d0a1e8d5e5517:0x49d5781c83cc0ede!8m2!3d23.3371986!4d92.8546036!16s%2Fg%2F11hb5jdz89!19sChIJF1VejR4KTTcR3g7Mgxx41Uk?authuser=0&hl=en&rclk=1,"23.3371986,92.85460359999999"
Sah Cherag Ali Jame masjid,Mosque,"GCMP+4P9 Sah Cherag Ali Jame masjid, Krishnagar, Assam 788734",,GCMP+4P9,Krishnagar,788734,Assam,IN,https://www.google.com/maps/place/Sah+Cherag+Ali+Jame+masjid/data=!4m7!3m6!1s0x3751dfca1540a733:0xe54b94f60c8e5445!8m2!3d24.5327786!4d92.4368666!16s%2Fg%2F11l5wqqnyn!19sChIJM6dAFcrfUTcRRVSODPaUS-U?authuser=0&hl=en&rclk=1,"24.5327786,92.4368666"
Saitrishhal Pashchim Para Jam E Masjid,Mosque,"HC39+FRP Saitrishhal Pashchim Para Jam E Masjid, Anipur - Ramkrishna Nagar Rd, Basattihal, Assam 788735",,"HC39+FRP, Anipur - Ramkrishna Nagar Rd",Basattihal,,Assam,IN,https://www.google.com/maps/place/Saitrishhal+Pashchim+Para+Jam+E+Masjid/data=!4m7!3m6!1s0x3751dfdc5a67c0a9:0x82cf3fef0cef7a79!8m2!3d24.5537135!4d92.4195654!16s%2Fg%2F11rv6f484_!19sChIJqcBnWtzfUTcReXrvDO8_z4I?authuser=0&hl=en&rclk=1,"24.5537135,92.4195654"
Pochim Par Jame Masjid,Mosque,"RH7M+GJV Pochim Par Jame Masjid, Chiparsangan Pt II, Assam 788801",,RH7M+GJV,Chiparsangan Pt II,788801,Assam,IN,https://www.google.com/maps/place/Pochim+Par+Jame+Masjid/data=!4m7!3m6!1s0x374e2d08394299a7:0x4984d1bac0aea6f4!8m2!3d24.8138609!4d92.5840623!16s%2Fg%2F11hzqvjz5n!19sChIJp5lCOQgtTjcR9KauwLrRhEk?authuser=0&hl=en&rclk=1,"24.813860899999998,92.5840623"
South Pailamuli Jame Masjid,Mosque,"H84M+62C South Pailamuli Jame Masjid, Pailamuli, Baithakhal Basti, Assam 788726",,H84M+62C,"Pailamuli, Baithakhal Basti",788726,Assam,IN,https://www.google.com/maps/place/South+Pailamuli+Jame+Masjid/data=!4m7!3m6!1s0x3751dde2ab75b1b7:0x7964d6fe60bc4ecb!8m2!3d24.555563!4d92.3325137!16s%2Fg%2F11sdqz10g9!19sChIJt7F1q-LdUTcRy068YP7WZHk?authuser=0&hl=en&rclk=1,"24.555563,92.33251369999999"
North Jherjheri Jame Masjid,Mosque,"9832+39Q North Jherjheri Jame Masjid, Zerjheri, Assam 788728",,9832+39Q,Zerjheri,788728,Assam,IN,https://www.google.com/maps/place/North+Jherjheri+Jame+Masjid/data=!4m7!3m6!1s0x3751ef53140e9943:0xabe5cffef8ddef97!8m2!3d24.3527014!4d92.3009691!16s%2Fg%2F11k3dnjb28!19sChIJQ5kOFFPvUTcRl-_d-P7P5as?authuser=0&hl=en&rclk=1,"24.352701399999997,92.30096909999999"
Uttar sewti paschim jama masjid,Mosque,"WMV2+7JC Uttar sewti paschim jama masjid, Bhangarpar-I, Assam 788817",,WMV2+7JC,Bhangarpar-I,788817,Assam,IN,https://www.google.com/maps/place/Uttar+sewti+paschim+jama+masjid/data=!4m7!3m6!1s0x374fcd0f3c0751db:0x5e4e672badae0f9e!8m2!3d24.9431863!4d92.6515212!16s%2Fg%2F11f6nggwzf!19sChIJ21EHPA_NTzcRng-urStnTl4?authuser=0&hl=en&rclk=1,"24.943186299999997,92.65152119999999"
Kinarawali Masjid,Mosque,"FP5M+C7M Kinarawali Masjid, Islampur, Terakhongshangbi, Manipur 795133",,"FP5M+C7M, Islampur",Terakhongshangbi,795133,Manipur,IN,https://www.google.com/maps/place/Kinarawali+Masjid/data=!4m7!3m6!1s0x374eb54627186471:0xc4bc2da001c64757!8m2!3d24.4585934!4d93.7331807!16s%2Fg%2F11f1p18fbk!19sChIJcWQYJ0a1TjcRV0fGAaAtvMQ?authuser=0&hl=en&rclk=1,"24.458593399999998,93.73318069999999"
Masjid Kuchaiuni,Mosque,"JH92+43V Masjid Kuchaiuni, Lakshinagar Pt II, Assam 788168",,JH92+43V,Lakshinagar Pt II,,Assam,IN,https://www.google.com/maps/place/Masjid+Kuchaiuni/data=!4m7!3m6!1s0x374e2417701d4599:0xa6c1b8c5beea53b!8m2!3d24.6178589!4d92.550179!16s%2Fg%2F11gf5w2mm0!19sChIJmUUdcBckTjcRO6XuW4wbbAo?authuser=0&hl=en&rclk=1,"24.617858899999998,92.550179"
West Chengjur Idghah Jama Masjid,Mosque,"J74V+GGF West Chengjur Idghah Jama Masjid, Kurtacharra, Assam 788724",,J74V+GGF,Kurtacharra,788724,Assam,IN,https://www.google.com/maps/place/West+Chengjur+Idghah+Jama+Masjid/data=!4m7!3m6!1s0x3751c5655ceabb9f:0x51754a81c21ffed4!8m2!3d24.6063033!4d92.2937896!16s%2Fg%2F11qg9lw7bg!19sChIJn7vqXGXFUTcR1P4fwoFKdVE?authuser=0&hl=en&rclk=1,"24.6063033,92.2937896"
Mohanbhog 2 no jme masjid,Mosque,"F9R8+79V Mohanbhog 2 no jme masjid, Chandul, Tripura 799115",,F9R8+79V,Chandul,,Tripura,IN,https://www.google.com/maps/place/Mohanbhog+2+no+%E0%A6%9C%E0%A6%AE%E0%A7%87+masjid/data=!4m7!3m6!1s0x3753857bac3d61bd:0xaadd092ab10bf74d!8m2!3d23.4907445!4d91.3659197!16s%2Fg%2F11l22nb968!19sChIJvWE9rHuFUzcRTfcLsSoJ3ao?authuser=0&hl=en&rclk=1,"23.490744499999998,91.36591969999999"
West Lakhipur Jama Masjid,Mosque,"J7V8+R3 West Lakhipur Jama Masjid, Dakshin Defolala, Assam 788719",,J7V8+R3,Dakshin Defolala,,Assam,IN,https://www.google.com/maps/place/West+Lakhipur+Jama+Masjid/data=!4m7!3m6!1s0x3751c556ff68d5a1:0x1f54f3de82ff863f!8m2!3d24.6446079!4d92.2651295!16s%2Fg%2F11stb3q3z0!19sChIJodVo_1bFUTcRP4b_gt7zVB8?authuser=0&hl=en&rclk=1,"24.6446079,92.2651295"
sukhtlaa jaame msjid,Mosque,"HVR7+XWC sukhtlaa jaame msjid, Sukhtala, Assam 788114",,HVR7+XWC,Sukhtala,,Assam,IN,https://www.google.com/maps/place/%E0%A6%B8%E0%A7%81%E0%A6%96%E0%A6%A4%E0%A6%B2%E0%A6%BE+%E0%A6%9C%E0%A6%BE%E0%A6%AE%E0%A7%87+%E0%A6%AE%E0%A6%B8%E0%A6%9C%E0%A6%BF%E0%A6%A6/data=!4m7!3m6!1s0x374e45ebf8353b29:0x168588ba4b156429!8m2!3d24.5924264!4d92.8647756!16s%2Fg%2F11q8rtymcx!19sChIJKTs1-OtFTjcRKWQVS7qIhRY?authuser=0&hl=en&rclk=1,"24.592426399999997,92.8647756"
New Masjid,Mosque,"GRP7+PXF New Masjid, Joydhanpur Rd, Rajghat, Joydhanpur, Assam 788120",,"GRP7+PXF, Joydhanpur Rd","Rajghat, Joydhanpur",788120,Assam,IN,https://www.google.com/maps/place/New+Masjid/data=!4m7!3m6!1s0x374e413a7189fa91:0x89fd7c18d5ccce57!8m2!3d24.5368207!4d92.8149096!16s%2Fg%2F11kjg0dw09!19sChIJkfqJcTpBTjcRV87M1Rh8_Yk?authuser=0&hl=en&rclk=1,"24.5368207,92.8149096"
West Kotanpur Jama Masjid,Mosque,"West Kotanpur Jama Masjid, KOTAMONI TOWN/ BAZAR, Zerjheri, Assam 788728",,KOTAMONI TOWN/ BAZAR,Zerjheri,788728,Assam,IN,https://www.google.com/maps/place/West+Kotanpur+Jama+Masjid/data=!4m7!3m6!1s0x3751ef7a31ddf5c9:0xe9b24a1063dcdf9!8m2!3d24.358592!4d92.3009303!16s%2Fg%2F11hv0z_qfk!19sChIJyfXdMXrvUTcR-c09BqEkmw4?authuser=0&hl=en&rclk=1,"24.358591999999998,92.30093029999999"
btttlii drbaar shriiph,Mosque,"45RW+447 btttlii drbaar shriiph, Bangladesh",,45RW+447,,,,BD,https://www.google.com/maps/place/%E0%A6%AC%E0%A6%9F%E0%A6%A4%E0%A6%B2%E0%A7%80+%E0%A6%A6%E0%A6%B0%E0%A6%AC%E0%A6%BE%E0%A6%B0+%E0%A6%B6%E0%A6%B0%E0%A7%80%E0%A6%AB/data=!4m7!3m6!1s0x375293cfd0e64cd5:0x5885693c4d1899d3!8m2!3d23.1402986!4d92.1952841!16s%2Fg%2F11lrr7h3mb!19sChIJ1Uzm0M-TUjcR05kYTTxphVg?authuser=0&hl=en&rclk=1,"23.140298599999998,92.1952841"
New Serchhip,,"New Serchhip, Mizoram 796181",New Serchhip,,,,Mizoram,IN,https://www.google.com/maps/place/New+Serchhip/data=!4m7!3m6!1s0x374d0a1f1add45db:0xb8c381b75bf6e308!8m2!3d23.3386381!4d92.8527235!16s%2Fm%2F07kgjmt!19sChIJ20XdGh8KTTcRCOP2W7eBw7g?authuser=0&hl=en&rclk=1,"23.3386381,92.8527235"
Serchhip,,"Serchhip, Mizoram 796181",,,Serchhip,,Mizoram,IN,https://www.google.com/maps/place/Serchhip/data=!4m7!3m6!1s0x374d0a2a7d3330e5:0x227c57e1c30ac98!8m2!3d23.3416578!4d92.8502302!16zL20vMGY2N3Zi!19sChIJ5TAzfSoKTTcRmKwwHH7FJwI?authuser=0&hl=en&rclk=1,"23.3416578,92.8502302"
District Sericulture Office,Government office,"8RWX+X77 District Sericulture Office, Kikawn, New Serchhip, Serchhip, Mizoram 796181","Kikawn, New Serchhip",8RWX+X77,Serchhip,796181,Mizoram,IN,https://www.google.com/maps/place/District+Sericulture+Office/data=!4m7!3m6!1s0x374d0b64091c227d:0xf8c0ba6a13ac0de0!8m2!3d23.3474008!4d92.8481801!16s%2Fg%2F11rrrmp635!19sChIJfSIcCWQLTTcR4A2sE2q6wPg?authuser=0&hl=en&rclk=1,"23.3474008,92.8481801"
East Serpur Jame Masjid,Mosque,"East Serpur Jame Masjid, East, Seepur, Ilashpur, Assam 788723",,"East, Seepur",Ilashpur,788723,Assam,IN,https://www.google.com/maps/place/East+Serpur+Jame+Masjid/data=!4m7!3m6!1s0x3751db44ce941605:0xd94333bb968147f6!8m2!3d24.6691529!4d92.3461003!16s%2Fg%2F11fn97kljh!19sChIJBRaUzkTbUTcR9keBlrszQ9k?authuser=0&hl=en&rclk=1,"24.6691529,92.34610029999999"
"Office of the Deputy Commissioner -- Serchhip District, Serchhip",State government office,"8VG4+P3M Office of the Deputy Commissioner -- Serchhip District, Serchhip, New Serchhip, Serchhip, Mizoram 796181",New Serchhip,8VG4+P3M,Serchhip,796181,Mizoram,IN,"https://www.google.com/maps/place/Office+of+the+Deputy+Commissioner+%E2%80%94+Serchhip+District,+Serchhip/data=!4m7!3m6!1s0x374d0b6eb3c8329b:0x2505661beb5a55c4!8m2!3d23.3268276!4d92.8551575!16s%2Fg%2F11fvm73hc1!19sChIJmzLIs24LTTcRxFVa6xtmBSU?authuser=0&hl=en&rclk=1","23.326827599999998,92.85515749999999"
New Masjid,Mosque,"RH8P+RG7 New Masjid, Unnamed Road, Bakri Howar Pt II, Chiparsangan Pt II, Assam 788801",,"RH8P+RG7, Unnamed Road","Bakri Howar Pt II, Chiparsangan Pt II",788801,Assam,IN,https://www.google.com/maps/place/New+Masjid/data=!4m7!3m6!1s0x374e2dad34884b09:0x5b49a8380f87e4a2!8m2!3d24.8170498!4d92.5862969!16s%2Fg%2F11h4tbzmt1!19sChIJCUuINK0tTjcRouSHDzioSVs?authuser=0&hl=en&rclk=1,"24.8170498,92.5862969"
Chanjgur New Masjid,Mosque,"J848+XVX Chanjgur New Masjid, Changjur, Patharkandi, Assam 788724",Changjur,J848+XVX,Patharkandi,,Assam,IN,https://www.google.com/maps/place/Chanjgur+New+Masjid/data=!4m7!3m6!1s0x3751dbeb19d6ab71:0x29a72f1fde9882f9!8m2!3d24.6074789!4d92.3172324!16s%2Fg%2F11s5k5_y3l!19sChIJcavWGevbUTcR-YKY3h8vpyk?authuser=0&hl=en&rclk=1,"24.6074789,92.3172324"
South Kotanpur Jama Masjid,Mosque,"South Kotanpur Jama Masjid, KOTAMONI TOWN/ BAZAR, Zerjheri, Assam 788728",,KOTAMONI TOWN/ BAZAR,Zerjheri,788728,Assam,IN,https://www.google.com/maps/place/South+Kotanpur+Jama+Masjid/data=!4m7!3m6!1s0x3751efb05b63a9c7:0xe1f7be79ee6a2577!8m2!3d24.3556744!4d92.3018119!16s%2Fg%2F11hv0_ggcj!19sChIJx6ljW7DvUTcRdyVq7nm-9-E?authuser=0&hl=en&rclk=1,"24.355674399999998,92.30181189999999"
Singaripar Jame Masjid,Mosque,"QJX8+HV Singaripar Jame Masjid, Bakri Howar Pt X, Bakri Howar Pt XI, Assam 788801",,QJX8+HV,"Bakri Howar Pt X, Bakri Howar Pt XI",788801,Assam,IN,https://www.google.com/maps/place/Singaripar+Jame+Masjid/data=!4m7!3m6!1s0x374e2da74f4b8d95:0xbc5a4195344ee981!8m2!3d24.7991855!4d92.6166055!16s%2Fg%2F11try95344!19sChIJlY1LT6ctTjcRgelONJVBWrw?authuser=0&hl=en&rclk=1,"24.7991855,92.61660549999999"
Tilabari Jama Masjid ttilaabaadd'ii jaame msjid singgaariyyaa,Mosque,"P95G+JPW Tilabari Jama Masjid ttilaabaadd'ii jaame msjid singgaariyyaa, Singaria, PWD Rd, Assam 788719",,"P95G+JPW, Singaria, PWD Rd",Bataiya Punjee,788719,Assam,IN,https://www.google.com/maps/place/Tilabari+Jama+Masjid+%E0%A6%9F%E0%A6%BF%E0%A6%B2%E0%A6%BE%E0%A6%AC%E0%A6%BE%E0%A6%A1%E0%A6%BC%E0%A7%80+%E0%A6%9C%E0%A6%BE%E0%A6%AE%E0%A7%87+%E0%A6%AE%E0%A6%B8%E0%A6%9C%E0%A6%BF%E0%A6%A6+%E0%A6%B8%E0%A6%BF%E0%A6%99%E0%A7%8D%E0%A6%97%E0%A6%BE%E0%A6%B0%E0%A6%BF%E0%A7%9F%E0%A6%BE/data=!4m7!3m6!1s0x3751d1c470015c69:0xca0b6c8aa23341f2!8m2!3d24.7091138!4d92.3768239!16s%2Fg%2F11j0b477hv!19sChIJaVwBcMTRUTcR8kEzoopsC8o?authuser=0&hl=en&rclk=1,"24.709113799999997,92.37682389999999"
HAJI MUHAMDALI WALI MASJID,Mosque,"JWJ4+P87 HAJI MUHAMDALI WALI MASJID, Irong Idgah Rd, Irong Chesaba, Manipur 795132",,"JWJ4+P87, Irong Idgah Rd",Irong Chesaba,795132,Manipur,IN,https://www.google.com/maps/place/HAJI+MUHAMDALI+WALI+MASJID/data=!4m7!3m6!1s0x374931af2187481d:0x69afa56b5e9c437f!8m2!3d24.6317786!4d93.9058008!16s%2Fg%2F11n5bs3jnb!19sChIJHUiHIa8xSTcRf0OcXmulr2k?authuser=0&hl=en&rclk=1,"24.6317786,93.9058008"
shorifBari Jama Masjid,Mosque,"shorifBari Jama Masjid, Shankorpasa Union, Bangladesh",,,Shankorpasa Union,,,BD,https://www.google.com/maps/place/shorifBari+Jama+Masjid/data=!4m7!3m6!1s0x3a0001a18f10eadb:0x2996bd5738b5b260!8m2!3d22.5543473!4d89.9722609!16s%2Fg%2F11khxxm_fz!19sChIJ2-oQj6EBADoRYLK1OFe9lik?authuser=0&hl=en&rclk=1,"22.5543473,89.9722609"
West bilthai jama masjid,Mosque,"West bilthai jama masjid, Jama Masjid, West, Bilthai, Tripura 799260",,"Jama Masjid, West",Bilthai,799260,Tripura,IN,https://www.google.com/maps/place/West+bilthai+jama+masjid/data=!4m7!3m6!1s0x37518d01e91e5837:0x633599b21872f60b!8m2!3d24.2809663!4d92.1373463!16s%2Fg%2F11jt6hyfq1!19sChIJN1ge6QGNUTcRC_ZyGLKZNWM?authuser=0&hl=en&rclk=1,"24.2809663,92.13734629999999"
Jame Masjid,Mosque,"GRP8+M4H Jame Masjid, Joydhanpur, Assam 788120",,GRP8+M4H,Joydhanpur,788120,Assam,IN,https://www.google.com/maps/place/Jame+Masjid/data=!4m7!3m6!1s0x374e41fe1f2ed855:0xf7ad7ee463c98b5!8m2!3d24.5368348!4d92.8149123!16s%2Fg%2F11kjg0yrnq!19sChIJVdguH_5BTjcRtZg8Ru7Xeg8?authuser=0&hl=en&rclk=1,"24.536834799999998,92.81491229999999"
Zariya _e_masjid,Mosque,"MXJ3+XX6 Zariya _e_masjid, Lilong ushoipokpi tharaorok, Lilong Part, 795130",,"MXJ3+XX6, Lilong ushoipokpi tharaorok",Lilong Part,795130,Manipur,IN,https://www.google.com/maps/place/Zariya+_e_masjid/data=!4m7!3m6!1s0x374925f5e6984231:0x3b8cf03c37296357!8m2!3d24.6824081!4d93.9549041!16s%2Fg%2F11t30k9zz7!19sChIJMUKY5vUlSTcRV2MpNzzwjDs?authuser=0&hl=en&rclk=1,"24.6824081,93.9549041"
"Serchhip Hill City - Serchhip District, Mizoram, India",Tourist attraction,"8V5X+63C Serchhip Hill City - Serchhip District, Mizoram, India, Mizoram 796181",,8V5X+63C,,,Mizoram,IN,"https://www.google.com/maps/place/Serchhip+Hill+City+-+Serchhip+District,+Mizoram,+India/data=!4m7!3m6!1s0x374d09dbc27916f9:0xdb3600eb40f07ae5!8m2!3d23.3080729!4d92.8976254!16s%2Fg%2F11kjpb54m4!19sChIJ-RZ5wtsJTTcR5XrwQOsANts?authuser=0&hl=en&rclk=1","23.3080729,92.8976254"
Masjid,Mosque,"74G5+X92 Masjid, Paschim Tilthai, Tripura 799260",,74G5+X92,Paschim Tilthai,799260,Tripura,IN,https://www.google.com/maps/place/Masjid/data=!4m7!3m6!1s0x37518d7f40b68153:0x39a8f4df69849bad!8m2!3d24.2773757!4d92.1083803!16s%2Fg%2F11kpr4p3gv!19sChIJU4G2QH-NUTcRrZuEad_0qDk?authuser=0&hl=en&rclk=1,"24.2773757,92.1083803"
East mohanpur mosque,Mosque,"GF8P+W9H East mohanpur mosque, Unnamed Road, Jungal Block, Assam 788734",,"GF8P+W9H, Unnamed Road",Jungal Block,788734,Assam,IN,https://www.google.com/maps/place/East+mohanpur+mosque/data=!4m7!3m6!1s0x374e21238e73c3e1:0xbc283bad8e363d3e!8m2!3d24.5173058!4d92.4859946!16s%2Fg%2F11hk5kz7w6!19sChIJ4cNzjiMhTjcRPj02jq07KLw?authuser=0&hl=en&rclk=1,"24.5173058,92.4859946"
Serchhip,,"Serchhip, Mizoram",,,,,Mizoram,IN,https://www.google.com/maps/place/Serchhip/data=!4m7!3m6!1s0x374d0bc84612c723:0xa436d86c6383d84d!8m2!3d23.3080729!4d92.8976254!16s%2Fm%2F03cktlr!19sChIJI8cSRsgLTTcRTdiDY2zYNqQ?authuser=0&hl=en&rclk=1,"23.3080729,92.8976254"
