name,main_category,address,address_ward,address_street,address_city,address_postal_code,address_state,address_country_code,link,coordinates
Faizane Madina Dawate Islami,Mosque,"7M45+H3R Faizane Madina Dawate Islami, Kodki Rd, Dhara Nagar, Ravalvadi, Bhuj, Gujarat 370001","Dhara Nagar, Ravalvadi","7M45+H3R, Kodki Rd",Bhuj,370001,Gujarat,IN,https://www.google.com/maps/place/Faizane+Madina+Dawate+Islami/data=!4m7!3m6!1s0x39511dfcb1dfe557:0x1e8701e5c6d6085e!8m2!3d23.2564805!4d69.6576495!16s%2Fg%2F11cs18g46y!19sChIJV-XfsfwdUTkRXgjWxuUBhx4?authuser=0&hl=en&rclk=1,"23.2564805,69.65764949999999"
Tauhid Masjid,Mosque,"Tauhid Masjid, Pathan, Nani Poshad Gali Rd, Bhuj, Gujarat 370001","Camp Area, Jestha Nagar","Pathan, Nani Poshad Gali Rd",Bhuj,370001,Gujarat,IN,https://www.google.com/maps/place/Tauhid+Masjid/data=!4m7!3m6!1s0x3950e1fba5a1b503:0xfb0cf6f8e9f88fb3!8m2!3d23.2460575!4d69.6772095!16s%2Fg%2F11b8_qyk9f!19sChIJA7WhpfvhUDkRs4_46fj2DPs?authuser=0&hl=en&rclk=1,"23.2460575,69.6772095"
Masjid E Iqra,Mosque,"Masjid E Iqra, near muskaan nagar, Mustafa Nagar, Ravalvadi, Bhuj, Gujarat 370001","Mustafa Nagar, Ravalvadi",near muskaan nagar,Bhuj,370001,Gujarat,IN,https://www.google.com/maps/place/Masjid+E+Iqra/data=!4m7!3m6!1s0x39511dfd94add0bd:0x71d9b94609c91144!8m2!3d23.2616624!4d69.6601073!16s%2Fg%2F11g8cpflty!19sChIJvdCtlP0dUTkRRBHJCUa52XE?authuser=0&hl=en&rclk=1,"23.2616624,69.66010729999999"
Mohammad Pannah Masjid,Mosque,"6MX8+RHX Mohammad Pannah Masjid, Bus Station Rd, Old Dhatia Falia, Bhuj, Gujarat 370001",Old Dhatia Falia,"6MX8+RHX, Bus Station Rd",Bhuj,370001,Gujarat,IN,https://www.google.com/maps/place/Mohammad+Pannah+Masjid/data=!4m7!3m6!1s0x39511e01aba38589:0x36b9f0f21f6b8371!8m2!3d23.249617!4d69.666499!16s%2Fg%2F1tgbz4l1!19sChIJiYWjqwEeUTkRcYNrH_LwuTY?authuser=0&hl=en&rclk=1,"23.249617,69.666499"
Aalawali Masjid,Mosque,"7M5G+9FV Aalawali Masjid, Madhapara, Bhuj, Gujarat 370001",Madhapara,7M5G+9FV,Bhuj,370001,Gujarat,IN,https://www.google.com/maps/place/Aalawali+Masjid/data=!4m7!3m6!1s0x3950e203ebe39f6b:0x99619ef60a79c3d5!8m2!3d23.2584926!4d69.6761571!16s%2Fg%2F11b77g2h04!19sChIJa5_j6wPiUDkR1cN5CvaeYZk?authuser=0&hl=en&rclk=1,"23.2584926,69.6761571"
Masjid-e-Kausar,Mosque,"Masjid-e-Kausar, Junavas, Madhapar, Bhuj, Gujarat 370020","Junavas, Madhapar",,Bhuj,370020,Gujarat,IN,https://www.google.com/maps/place/Masjid-e-Kausar/data=!4m7!3m6!1s0x3950e1990640daf1:0x72a56371aff59264!8m2!3d23.2389392!4d69.7080983!16s%2Fg%2F1hc6jgrgv!19sChIJ8dpABpnhUDkRZJL1r3FjpXI?authuser=0&hl=en&rclk=1,"23.238939199999997,69.7080983"
Molu Wali Masjid,Mosque,"7M5C+X68 Molu Wali Masjid, Station Rd, Shivnagar, Bhuj, Gujarat 370001",Shivnagar,"7M5C+X68, Station Rd",Bhuj,370001,Gujarat,IN,https://www.google.com/maps/place/Molu+Wali+Masjid/data=!4m7!3m6!1s0x3950e20740ad51f3:0x10eb978f024859c1!8m2!3d23.259921!4d69.670564!16s%2Fg%2F1pyqlfvy6!19sChIJ81GtQAfiUDkRwVlIAo-X6xA?authuser=0&hl=en&rclk=1,"23.259921,69.670564"
"Masjid e Farid Memni, Muskan Nagar",Mosque,"7M76+37C Masjid e Farid Memni, Muskan Nagar, Sanjog Nagar, Bhuj, Gujarat 370001",Sanjog Nagar,7M76+37C,Bhuj,370001,Gujarat,IN,"https://www.google.com/maps/place/Masjid+e+Farid+Memni,+Muskan+Nagar/data=!4m7!3m6!1s0x39511dfa7b98113b:0x4b1826cc1132babd!8m2!3d23.2626833!4d69.6606514!16s%2Fg%2F11gbxfjl9q!19sChIJOxGYe_odUTkRvboyEcwmGEs?authuser=0&hl=en&rclk=1","23.2626833,69.66065139999999"
Al Falah Masjid msjd,Mosque,"6MXH+F89 Al Falah Masjid msjd, Rajendra Nagar, Jestha Nagar, Bhuj, Gujarat 370001","Rajendra Nagar, Jestha Nagar",6MXH+F89,Bhuj,370001,Gujarat,IN,https://www.google.com/maps/place/Al+Falah+Masjid+%D9%85%D8%B3%D8%AC%D8%AF%E2%80%AD/data=!4m7!3m6!1s0x3950e1f980c4ab4f:0xf56e0e712e946be1!8m2!3d23.2486582!4d69.6783587!16s%2Fg%2F1hc2fqg_l!19sChIJT6vEgPnhUDkR4WuULnEObvU?authuser=0&hl=en&rclk=1,"23.248658199999998,69.67835869999999"
Chistiya Masjid,Mosque,"7M4P+RQG Chistiya Masjid, Anjani Nagar, Bhuj, Gujarat 370001",Anjani Nagar,7M4P+RQG,Bhuj,370001,Gujarat,IN,https://www.google.com/maps/place/Chistiya+Masjid/data=!4m7!3m6!1s0x3950e21ddf67edd3:0x1231934d24c0abc4!8m2!3d23.2570521!4d69.6869679!16s%2Fg%2F11c61vv0n1!19sChIJ0-1n3x3iUDkRxKvAJE2TMRI?authuser=0&hl=en&rclk=1,"23.2570521,69.6869679"
Burhani Masjid,Mosque,"Burhani Masjid, 370040, Bohra Colony, Bhuj, Gujarat",Bohra Colony,370040,Bhuj,,Gujarat,IN,https://www.google.com/maps/place/Burhani+Masjid/data=!4m7!3m6!1s0x39511e3774dd96d5:0xa71fae3c8242f30e!8m2!3d23.2147077!4d69.6484098!16s%2Fg%2F11fx809c9g!19sChIJ1ZbddDceUTkRDvNCgjyuH6c?authuser=0&hl=en&rclk=1,"23.214707699999998,69.6484098"
Mustafa-masjid,Mosque,"7M65+G72 Mustafa-masjid, Sanjog Nagar, Bhuj, Gujarat 370001",Sanjog Nagar,7M65+G72,Bhuj,370001,Gujarat,IN,https://www.google.com/maps/place/Mustafa-masjid/data=!4m7!3m6!1s0x39511dfac7ab1009:0xf7d3b4528d06dfc3!8m2!3d23.2612677!4d69.6581251!16s%2Fg%2F11b75d1_v5!19sChIJCRCrx_odUTkRw98GjVK00_c?authuser=0&hl=en&rclk=1,"23.261267699999998,69.65812509999999"
Kumbhar masjid,Mosque,"6MWG+HJ8 Kumbhar masjid, Camp Masjid Rd, Camp Area, Jestha Nagar, Bhuj, Gujarat 370001","Camp Area, Jestha Nagar","6MWG+HJ8, Camp Masjid Rd",Bhuj,370001,Gujarat,IN,https://www.google.com/maps/place/Kumbhar+masjid/data=!4m7!3m6!1s0x3950e1fb961cffc9:0xc1b9af86530b3a94!8m2!3d23.2464032!4d69.676566!16s%2Fg%2F1hc6f39x1!19sChIJyf8clvvhUDkRlDoLU4avucE?authuser=0&hl=en&rclk=1,"23.2464032,69.676566"
Masjid Imam E Rabbani,Mosque,"7M44+M76 Masjid Imam E Rabbani, bakali colony,imame rabbani road, Bhuj, Gujarat 370001",Sanjog Nagar,"7M44+M76, bakali colony,imame rabbani road",Bhuj,370001,Gujarat,IN,https://www.google.com/maps/place/Masjid+Imam+E+Rabbani/data=!4m7!3m6!1s0x39511de3608be3c9:0x43450c7549b607d7!8m2!3d23.2566507!4d69.6556431!16s%2Fg%2F11cs6kmm9x!19sChIJyeOLYOMdUTkR1we2SXUMRUM?authuser=0&hl=en&rclk=1,"23.256650699999998,69.65564309999999"
Hazrat Garib Sha Dargah,Mosque,"5MXH+GFC Hazrat Garib Sha Dargah, Tapkeshwari Rd, Nirmalsinh Vadi, Aiya Nagar, Bhuj, Gujarat 370020","Nirmalsinh Vadi, Aiya Nagar","5MXH+GFC, Tapkeshwari Rd",Bhuj,370020,Gujarat,IN,https://www.google.com/maps/place/Hazrat+Garib+Sha+Dargah/data=!4m7!3m6!1s0x3950e02fa283670d:0xfe9bed84efe9667e!8m2!3d23.1988148!4d69.6786538!16s%2Fg%2F11c2ptvm55!19sChIJDWeDoi_gUDkRfmbp74Ttm_4?authuser=0&hl=en&rclk=1,"23.198814799999997,69.67865379999999"
Pattawali Masjid msjd,Mosque,"7M4F+PR4 Pattawali Masjid msjd, Matan Near by Bhid Gate, Behind Market Road, Old Dhatia Falia, Bhuj, Gujarat 370001",Old Dhatia Falia,"7M4F+PR4, Matan Near by Bhid Gate, Behind Market Road",Bhuj,370001,Gujarat,IN,https://www.google.com/maps/place/Pattawali+Masjid+%D9%85%D8%B3%D8%AC%D8%AF%E2%80%AD/data=!4m7!3m6!1s0x3950e201791b2e99:0x1a7ab348ffe6d034!8m2!3d23.2567564!4d69.6745658!16s%2Fg%2F11dfj269qz!19sChIJmS4beQHiUDkRNNDm_0izeho?authuser=0&hl=en&rclk=1,"23.2567564,69.6745658"
Masjide Aman,Mosque,"7M63+GH2 Masjide Aman, Sanjog Nagar, Bhuj, Gujarat 370001",Sanjog Nagar,7M63+GH2,Bhuj,370001,Gujarat,IN,https://www.google.com/maps/place/Masjide+Aman/data=!4m7!3m6!1s0x39511de59c0083f5:0xe369cea1dabba490!8m2!3d23.2612592!4d69.6538908!16s%2Fg%2F11g8bc7xkd!19sChIJ9YMAnOUdUTkRkKS72qHOaeM?authuser=0&hl=en&rclk=1,"23.261259199999998,69.6538908"
Lal Tekri Mosque,Mosque,"6MXF+FMJ Lal Tekri Mosque, Lal Tekri Rd, Lal Tekri, Bhuj, Gujarat 370001",Lal Tekri,"6MXF+FMJ, Lal Tekri Rd",Bhuj,370001,Gujarat,IN,https://www.google.com/maps/place/Lal+Tekri+Mosque/data=!4m7!3m6!1s0x3950e1febad7d2cf:0xe9afbaea38c69129!8m2!3d23.2487038!4d69.6741477!16s%2Fg%2F124yks99q!19sChIJz9LXuv7hUDkRKZHGOOq6r-k?authuser=0&hl=en&rclk=1,"23.248703799999998,69.67414769999999"
Chhadidar Masjid,Mosque,"7M59+5M7 Chhadidar Masjid, Sonivad, Bhuj, Gujarat 370001",Sonivad,7M59+5M7,Bhuj,370001,Gujarat,IN,https://www.google.com/maps/place/Chhadidar+Masjid/data=!4m7!3m6!1s0x3950e200a7f00e4b:0xf5767abbf699442e!8m2!3d23.2579068!4d69.6691614!16s%2Fg%2F1hc6zj833!19sChIJSw7wpwDiUDkRLkSZ9rt6dvU?authuser=0&hl=en&rclk=1,"23.2579068,69.6691614"
Bakali Masjid,Mosque,"Bakali Masjid, Patwadi Gate, Out Side, Bhuj, Gujarat 370001",Sonivad,"Patwadi Gate, Out Side",Bhuj,370001,Gujarat,IN,https://www.google.com/maps/place/Bakali+Masjid/data=!4m7!3m6!1s0x39511dfc0ffc5029:0x6b8bc003c4e39120!8m2!3d23.2570558!4d69.6623842!16s%2Fg%2F11c2pcgv3x!19sChIJKVD8D_wdUTkRIJHjxAPAi2s?authuser=0&hl=en&rclk=1,"23.2570558,69.66238419999999"
Masjid E Aqsa,Mosque,"7J4X+2J4 Masjid E Aqsa, Vaalram Nagar, Bhuj, Gujarat 370001",Vaalram Nagar,7J4X+2J4,Bhuj,370001,Gujarat,IN,https://www.google.com/maps/place/Masjid+E+Aqsa/data=!4m7!3m6!1s0x39511de13b395355:0xb5654b17224c3942!8m2!3d23.2550073!4d69.6490811!16s%2Fg%2F11f1mqct2b!19sChIJVVM5O-EdUTkRQjlMIhdLZbU?authuser=0&hl=en&rclk=1,"23.2550073,69.6490811"
Jannat Masjid,Mosque,"7M28+MRW Jannat Masjid, Paleswar Chowk St, Old Dhatia Falia, Bhuj, Gujarat 370001",Old Dhatia Falia,"7M28+MRW, Paleswar Chowk St",Bhuj,370001,Gujarat,IN,https://www.google.com/maps/place/Jannat+Masjid/data=!4m7!3m6!1s0x39511e006ee1126f:0xc5684e39b02f9a31!8m2!3d23.2517362!4d69.6670854!16s%2Fg%2F12hnltzfw!19sChIJbxLhbgAeUTkRMZovsDlOaMU?authuser=0&hl=en&rclk=1,"23.2517362,69.66708539999999"
Station Road Mosque Bhuj Backside Of Petrol Pump,Mosque,"7M3G+6G6 Station Road Mosque Bhuj Backside Of Petrol Pump, New Station Rd, Dharanagar Kodki, Old Dhatia Falia, Bhuj, Gujarat 370001","Dharanagar Kodki, Old Dhatia Falia","7M3G+6G6, New Station Rd",Bhuj,370001,Gujarat,IN,https://www.google.com/maps/place/Station+Road+Mosque+Bhuj+Backside+Of+Petrol+Pump/data=!4m7!3m6!1s0x3950e1f8bc5c89df:0x63e4ed1d0a1cf36c!8m2!3d23.2530319!4d69.676271!16s%2Fg%2F11c5rw5c05!19sChIJ34lcvPjhUDkRbPMcCh3t5GM?authuser=0&hl=en&rclk=1,"23.2530319,69.676271"
Khoja jamat khana,Mosque,"Khoja jamat khana, al mahendi society, Yusuf sha, bhabnshah road, Bhuj, Gujarat 370001",Madhapara,"al mahendi society, Yusuf sha, bhabnshah road",Bhuj,370001,Gujarat,IN,https://www.google.com/maps/place/Khoja+jamat+khana/data=!4m7!3m6!1s0x3950e21da533cc31:0x934c95f315767caf!8m2!3d23.2573653!4d69.6848271!16s%2Fg%2F11g9q6m2hm!19sChIJMcwzpR3iUDkRr3x2FfOVTJM?authuser=0&hl=en&rclk=1,"23.2573653,69.68482709999999"
Hajrat Ibrahimsha Vali Dargah Shrif,Mosque,"6PPF+CRR Hajrat Ibrahimsha Vali Dargah Shrif, Opp. Hotel Bhavani, anjar road, Bhuj-bhachau Highway, Bhuj, Gujarat 370021",Vardhman Nagar,"6PPF+CRR, Opp. Hotel Bhavani, anjar road, Bhuj-bhachau Highway",Bhuj,370021,Gujarat,IN,https://www.google.com/maps/place/Hajrat+Ibrahimsha+Vali+Dargah+Shrif/data=!4m7!3m6!1s0x3950e10cea2743d1:0xdeb09e32640c36ba!8m2!3d23.2361189!4d69.7245002!16s%2Fg%2F11hbbx6hzc!19sChIJ0UMn6gzhUDkRujYMZDKesN4?authuser=0&hl=en&rclk=1,"23.236118899999997,69.7245002"
Al-huda Masjid,Mosque,"7M56+RH8 Al-huda Masjid, Sanjog Nagar, Bhuj, Gujarat 370001",Sanjog Nagar,7M56+RH8,Bhuj,370001,Gujarat,IN,https://www.google.com/maps/place/Al-huda+Masjid/data=!4m7!3m6!1s0x39511dfbb90520a7:0x4604807c11b90cce!8m2!3d23.2595428!4d69.6614504!16s%2Fg%2F11c2r8wdfn!19sChIJpyAFufsdUTkRzgy5EXyABEY?authuser=0&hl=en&rclk=1,"23.2595428,69.66145039999999"
Hasnain Masjid (Ahle Sunnat Wal Jammat ),Mosque,"7M5P+765 Hasnain Masjid (Ahle Sunnat Wal Jammat ), Madhapara, Bhuj, Gujarat 370001",Madhapara,7M5P+765,Bhuj,370001,Gujarat,IN,https://www.google.com/maps/place/Hasnain+Masjid+%28Ahle+Sunnat+Wal+Jammat+%29/data=!4m7!3m6!1s0x3950e21c3513874b:0x10a5f0f6ffa1cfdd!8m2!3d23.2581419!4d69.6856081!16s%2Fg%2F11d_bcg4ff!19sChIJS4cTNRziUDkR3c-h__bwpRA?authuser=0&hl=en&rclk=1,"23.2581419,69.6856081"
Jakariya Masjid,Mosque,"7M66+CJV Jakariya Masjid, Sanjog Nagar, Bhuj, Gujarat 370001",Sanjog Nagar,7M66+CJV,Bhuj,370001,Gujarat,IN,https://www.google.com/maps/place/Jakariya+Masjid/data=!4m7!3m6!1s0x39511dfa342b6ded:0xdc484500bc0bfc04!8m2!3d23.2611174!4d69.6615544!16s%2Fg%2F11b76tsj41!19sChIJ7W0rNPodUTkRBPwLvABFSNw?authuser=0&hl=en&rclk=1,"23.2611174,69.6615544"
Alif Masjid (Ahele Sunnat Wal Jammat ),Mosque,"7M3P+VRR Alif Masjid (Ahele Sunnat Wal Jammat ), bhakali collani gujrat, Bhuj, Gujarat",Anjani Nagar,"7M3P+VRR, bhakali collani gujrat",Bhuj,,Gujarat,IN,https://www.google.com/maps/place/Alif+Masjid+%28Ahele+Sunnat+Wal+Jammat+%29/data=!4m7!3m6!1s0x3950e1f5fd5e39ab:0xb34d918b182bf181!8m2!3d23.2547473!4d69.6870065!16s%2Fg%2F11d_d26mb8!19sChIJqzle_fXhUDkRgfErGIuRTbM?authuser=0&hl=en&rclk=1,"23.2547473,69.6870065"
Masjid-e-umarfarooq,Mosque,"7M64+9RV Masjid-e-umarfarooq, Sanjog Nagar, Bhuj, Gujarat 370001",Sanjog Nagar,7M64+9RV,Bhuj,370001,Gujarat,IN,https://www.google.com/maps/place/Masjid-e-umarfarooq/data=!4m7!3m6!1s0x39511de5348f6ea3:0x218fd6c82d128777!8m2!3d23.2609942!4d69.6570479!16s%2Fg%2F11b75gqfbr!19sChIJo26PNOUdUTkRd4cSLcjWjyE?authuser=0&hl=en&rclk=1,"23.2609942,69.6570479"
MASJID E REHMAT,Mosque,"7M75+7J4 MASJID E REHMAT, Sanjog Nagar, Bhuj, Gujarat 370001",Sanjog Nagar,7M75+7J4,Bhuj,370001,Gujarat,IN,https://www.google.com/maps/place/MASJID+E+REHMAT/data=!4m7!3m6!1s0x39511df0767937ff:0xbf280baa557d4e36!8m2!3d23.2631494!4d69.6590824!16s%2Fg%2F11dymcqcht!19sChIJ_zd5dvAdUTkRNk59VaoLKL8?authuser=0&hl=en&rclk=1,"23.2631494,69.6590824"
Masjid E Taaha,Mosque,"7M55+XPM Masjid E Taaha, Sanjog Nagar, Bhuj, Gujarat 370001",Sanjog Nagar,7M55+XPM,Bhuj,370001,Gujarat,IN,https://www.google.com/maps/place/Masjid+E+Taaha/data=!4m7!3m6!1s0x39511dfb1cee1bdf:0xc2079ba9e3d34070!8m2!3d23.2599627!4d69.659298!16s%2Fg%2F11f3r4yrtf!19sChIJ3xvuHPsdUTkRcEDT46mbB8I?authuser=0&hl=en&rclk=1,"23.2599627,69.65929799999999"
Khoja masjid,Mosque,"7M4F+26V Khoja masjid, Old Dhatia Falia, Bhuj, Gujarat 370001",Old Dhatia Falia,7M4F+26V,Bhuj,370001,Gujarat,IN,https://www.google.com/maps/place/Khoja+masjid/data=!4m7!3m6!1s0x3950e201b905c7ff:0xd561a869dc173c38!8m2!3d23.2551018!4d69.673062!16s%2Fg%2F11g9q1yz2b!19sChIJ_8cFuQHiUDkRODwX3GmoYdU?authuser=0&hl=en&rclk=1,"23.2551018,69.673062"
Masjid Noore musrafa,Mosque,"7M3F+PR6 Masjid Noore musrafa, Ashapura Ring Rd, Dharanagar Kodki, Old Dhatia Falia, Bhuj, Gujarat 370001","Dharanagar Kodki, Old Dhatia Falia","7M3F+PR6, Ashapura Ring Rd",Bhuj,370001,Gujarat,IN,https://www.google.com/maps/place/Masjid+Noore+musrafa/data=!4m7!3m6!1s0x3950e201fba9db55:0xce9fb55d3b4dcf9d!8m2!3d23.2542757!4d69.6745252!16s%2Fg%2F11c6f13jz3!19sChIJVdup-wHiUDkRnc9NO121n84?authuser=0&hl=en&rclk=1,"23.254275699999997,69.67452519999999"
Raheem Aabad Masjid,Mosque,"7M6J+P7R Raheem Aabad Masjid, Al-Flah Colony,Out Side of, Bhid Gate Rd, Bhuj, Gujarat 370001",Madhapara,"7M6J+P7R, Al-Flah Colony,Out Side of, Bhid Gate Rd",Bhuj,370001,Gujarat,IN,https://www.google.com/maps/place/Raheem+Aabad+Masjid/data=!4m7!3m6!1s0x3950e3d4dc6d40b3:0xd1b05b1549a6839!8m2!3d23.2618634!4d69.6806426!16s%2Fg%2F11ff11tw0f!19sChIJs0Bt3NTjUDkROWiaVLEFGw0?authuser=0&hl=en&rclk=1,"23.2618634,69.6806426"
Sidhiki Masjid,Mosque,"7M54+VWP Sidhiki Masjid, Sanjog Nagar, Bhuj, Gujarat 370001",Sanjog Nagar,7M54+VWP,Bhuj,370001,Gujarat,IN,https://www.google.com/maps/place/Sidhiki+Masjid/data=!4m7!3m6!1s0x39511dfb2ae69695:0xd6d2bbec20282f38!8m2!3d23.2597222!4d69.6573198!16s%2Fg%2F11c61w0sqs!19sChIJlZbmKvsdUTkROC8oIOy70tY?authuser=0&hl=en&rclk=1,"23.2597222,69.6573198"
Aksha Masjid,Mosque,"7M58+C29 Aksha Masjid, Pateshwer Nagar Rd, Sonivad, Bhuj, Gujarat 370001",Sonivad,"7M58+C29, Pateshwer Nagar Rd",Bhuj,370001,Gujarat,IN,https://www.google.com/maps/place/Aksha+Masjid/data=!4m7!3m6!1s0x39511df93169c88f:0xb1d034f5140f5347!8m2!3d23.2585349!4d69.6651207!16s%2Fg%2F11c2r8wdgp!19sChIJj8hpMfkdUTkRR1MPFPU00LE?authuser=0&hl=en&rclk=1,"23.258534899999997,69.6651207"
Gulzar E Madina Masjid,Mosque,"6MWJ+GRM Gulzar E Madina Masjid, Laskari Matam, Janta Nagari,, Camp Area, Bhuj, Gujarat 370001","Camp Area, Jestha Nagar","6MWJ+GRM, Laskari Matam, Janta Nagari,",Bhuj,370001,Gujarat,IN,https://www.google.com/maps/place/Gulzar+E+Madina+Masjid/data=!4m7!3m6!1s0x3950e1f08999234d:0xc5d65cde3f2cd9c6!8m2!3d23.2463377!4d69.6820574!16s%2Fg%2F11b_2rc43g!19sChIJTSOZifDhUDkRxtksP95c1sU?authuser=0&hl=en&rclk=1,"23.246337699999998,69.68205739999999"
Koreja Masjid,Mosque,"7M49+W3M Koreja Masjid, Sonivad, Bhuj, Gujarat 370001",Sonivad,7M49+W3M,Bhuj,370001,Gujarat,IN,https://www.google.com/maps/place/Koreja+Masjid/data=!4m7!3m6!1s0x39511dff40a4cd5b:0xbe216623d2c18b7!8m2!3d23.25734!4d69.6676755!16s%2Fg%2F11b6hn0mxw!19sChIJW82kQP8dUTkRtxgsPWIW4gs?authuser=0&hl=en&rclk=1,"23.25734,69.6676755"
Masjid-e-Muhammadiya,Mosque,"7M66+J9R Masjid-e-Muhammadiya, Sanjog Nagar, Bhuj, Gujarat 370001",Sanjog Nagar,7M66+J9R,Bhuj,370001,Gujarat,IN,https://www.google.com/maps/place/Masjid-e-Muhammadiya/data=!4m7!3m6!1s0x39511dfa5d5301e7:0xfc76cec0596d577c!8m2!3d23.2616059!4d69.6609059!16s%2Fg%2F11b75p00nj!19sChIJ5wFTXfodUTkRfFdtWcDOdvw?authuser=0&hl=en&rclk=1,"23.2616059,69.6609059"
Langa Street Masjid,Mosque,"7M39+6Q2 Langa Street Masjid, Old Dhatia Falia, Bhuj, Gujarat 370001",Old Dhatia Falia,7M39+6Q2,Bhuj,370001,Gujarat,IN,https://www.google.com/maps/place/Langa+Street+Masjid/data=!4m7!3m6!1s0x3950e1ffff3a63bf:0xca19d316e408314!8m2!3d23.2530069!4d69.6693931!16s%2Fg%2F124yp54_d!19sChIJv2M6___hUDkRFINAbjGdoQw?authuser=0&hl=en&rclk=1,"23.2530069,69.6693931"
Hajrat Kasamsha Vali Dargah Shrif,Mosque,"6PV4+8RG Hajrat Kasamsha Vali Dargah Shrif, Opp ADM Space, near KD Hero, Junavas, Madhapar, Bhuj, Gujarat 370020","Junavas, Madhapar","6PV4+8RG, Opp ADM Space, near KD Hero",Bhuj,370020,Gujarat,IN,https://www.google.com/maps/place/Hajrat+Kasamsha+Vali+Dargah+Shrif/data=!4m7!3m6!1s0x3950e19a5a806557:0x7d72defc19bb5222!8m2!3d23.2433119!4d69.7070889!16s%2Fg%2F11hbbx6m6p!19sChIJV2WAWprhUDkRIlK7Gfzecn0?authuser=0&hl=en&rclk=1,"23.2433119,69.7070889"
"Masjid - E - Usman ,Jamiat Ahle hadees .kutch",Mosque,"7M7H+673 Masjid - E - Usman ,Jamiat Ahle hadees .kutch, Station Rd, Madhapara, Bhuj, Gujarat 370001",Madhapara,"7M7H+673, Station Rd",Bhuj,370001,Gujarat,IN,"https://www.google.com/maps/place/Masjid+-+E+-+Usman+,Jamiat+Ahle+hadees+.kutch/data=!4m7!3m6!1s0x3950e3e6d851a787:0x6d4e2cc1ff329284!8m2!3d23.2630246!4d69.6781752!16s%2Fg%2F11fl2dt2yn!19sChIJh6dR2ObjUDkRhJIy_8EsTm0?authuser=0&hl=en&rclk=1","23.263024599999998,69.6781752"
Masjid-e-Rahimiya Baalwadi,Mosque,"7P62+V6C Masjid-e-Rahimiya Baalwadi, Sural Bhit Rd, Sural Bhit, Bhuj, Gujarat 370020",Sural Bhit,"7P62+V6C, Sural Bhit Rd",Bhuj,370020,Gujarat,IN,https://www.google.com/maps/place/Masjid-e-Rahimiya+Baalwadi/data=!4m7!3m6!1s0x3950e22698239a83:0x68bd0b4a9f904c6!8m2!3d23.2621946!4d69.7005084!16s%2Fg%2F11c2pqw92x!19sChIJg5ojmCbiUDkRxgT5qbTQiwY?authuser=0&hl=en&rclk=1,"23.262194599999997,69.7005084"
Khatri Masjid,Mosque,"7M4C+PPV Khatri Masjid, khatri chock, near Dr Mali hospital, Old Dhatia Falia, Bhuj, Gujarat 370001",Old Dhatia Falia,"7M4C+PPV khatri chock, near Dr Mali hospital",Bhuj,370001,Gujarat,IN,https://www.google.com/maps/place/Khatri+Masjid/data=!4m7!3m6!1s0x3950e3808b0f94f7:0x62f8b15ed60ffdf6!8m2!3d23.2568622!4d69.671786!16s%2Fg%2F11fhvdvwh2!19sChIJ95QPi4DjUDkR9v0P1l6x-GI?authuser=0&hl=en&rclk=1,"23.2568622,69.671786"
Pir Saiyad Sajansha Masjid,Mosque,"7M58+3C6 Pir Saiyad Sajansha Masjid, Sejwalamatam Rd, Sonivad, Bhuj, Gujarat 370001",Sonivad,"7M58+3C6, Sejwalamatam Rd",Bhuj,370001,Gujarat,IN,https://www.google.com/maps/place/Pir+Saiyad+Sajansha+Masjid/data=!4m7!3m6!1s0x39511da31985b803:0xb26b9cb4dc3b8464!8m2!3d23.257659!4d69.666013!16s%2Fg%2F11ghs90f6c!19sChIJA7iFGaMdUTkRZIQ73LSca7I?authuser=0&hl=en&rclk=1,"23.257659,69.66601299999999"
PANJATAN MASJID (P P R F),Mosque,"PANJATAN MASJID (P P R F), haveli faliya, kalika, Ashapura Ring Rd, Old Dhatia Falia, Bhuj, Gujarat 370001",Old Dhatia Falia,"haveli faliya, kalika, Ashapura Ring Rd",Bhuj,,Gujarat,IN,https://www.google.com/maps/place/PANJATAN+MASJID+%28P+P+R+F%29/data=!4m7!3m6!1s0x3950e200555dfcf3:0x2915dd07182463c6!8m2!3d23.2561755!4d69.6719994!16s%2Fg%2F11dxd3hrkd!19sChIJ8_xdVQDiUDkRxmMkGAfdFSk?authuser=0&hl=en&rclk=1,"23.256175499999998,69.67199939999999"
Ara Wali Masjid,Mosque,"Ara Wali Masjid, Patwadi Gate, Near, Uplipad Road. Panj Htadi nak bahr, Old Dhatia Falia, Bhuj, Gujarat 370001",Old Dhatia Falia,"Patwadi Gate, Near, Uplipad Road. Panj Htadi nak bahr",Bhuj,370001,Gujarat,IN,https://www.google.com/maps/place/Ara+Wali+Masjid/data=!4m7!3m6!1s0x39511dfe53403bf3:0x868cd587980cb9ef!8m2!3d23.2549654!4d69.6660507!16s%2Fg%2F11c5_w78jp!19sChIJ8ztAU_4dUTkR77kMmIfVjIY?authuser=0&hl=en&rclk=1,"23.2549654,69.6660507"
Hazrat Mahemood Bava Saheb,Mosque,"7M48+R4G Hazrat Mahemood Bava Saheb, Sonivad, Bhuj, Gujarat 370001",Sonivad,7M48+R4G,Bhuj,370001,Gujarat,IN,https://www.google.com/maps/place/Hazrat+Mahemood+Bava+Saheb/data=!4m7!3m6!1s0x39511dfec35e920b:0x683c23900e53ecf4!8m2!3d23.2570635!4d69.6653165!16s%2Fg%2F11c2pby7tz!19sChIJC5Jew_4dUTkR9OxTDpAjPGg?authuser=0&hl=en&rclk=1,"23.257063499999997,69.6653165"
Madina Masjid (Ahele Sunnat Wal Jammat ),Mosque,"7M4P+V86 Madina Masjid (Ahele Sunnat Wal Jammat ), Madhapara, Bhuj, Gujarat 370001",Madhapara,7M4P+V86,Bhuj,370001,Gujarat,IN,https://www.google.com/maps/place/Madina+Masjid+%28Ahele+Sunnat+Wal+Jammat+%29/data=!4m7!3m6!1s0x3950e21dc6f55161:0x42bb0a0df0f4a70a!8m2!3d23.257163!4d69.6857797!16s%2Fg%2F11d_bb_6q6!19sChIJYVH1xh3iUDkRCqf08A0Ku0I?authuser=0&hl=en&rclk=1,"23.257163,69.6857797"
Pir Murad Shah Wali Arab Masjid,Mosque,"7M48+WJW Pir Murad Shah Wali Arab Masjid, Sonivad, Bhuj, Gujarat 370001",Sonivad,7M48+WJW,Bhuj,370001,Gujarat,IN,https://www.google.com/maps/place/Pir+Murad+Shah+Wali+Arab+Masjid/data=!4m7!3m6!1s0x39511dff243ad72f:0x250e7bd9bf24b95!8m2!3d23.2573724!4d69.6665697!16s%2Fg%2F1pyqnqp8h!19sChIJL9c6JP8dUTkRlUvym73nUAI?authuser=0&hl=en&rclk=1,"23.257372399999998,69.6665697"
Ustado Wali Masjid,Mosque,"7M56+3WC Ustado Wali Masjid, Patwadi Gate Nr. Arbit Kabrastan out side of, Kodki Rd, Sonivad, Bhuj, Gujarat 370001",Sonivad,"7M56+3WC, Patwadi Gate Nr. Arbit Kabrastan out side of, Kodki Rd",Bhuj,370001,Gujarat,IN,https://www.google.com/maps/place/Ustado+Wali+Masjid/data=!4m7!3m6!1s0x39511d0a8b3065b3:0x7b2e746f7e4f7e0c!8m2!3d23.2576909!4d69.6622688!16s%2Fg%2F11g0lc3qrj!19sChIJs2UwiwodUTkRDH5Pfm90Lns?authuser=0&hl=en&rclk=1,"23.2576909,69.66226879999999"
Takiya Pir Masjid And Darga,Mosque,"6M5G+QG6 Takiya Pir Masjid And Darga, Haripar, Bhuj, Gujarat 370020",Haripar,6M5G+QG6,Bhuj,370020,Gujarat,IN,https://www.google.com/maps/place/Takiya+Pir+Masjid+And+Darga/data=!4m7!3m6!1s0x3950e1d346bddbbf:0xf12cc1a9a9d70a5!8m2!3d23.2094128!4d69.6762612!16s%2Fg%2F11hbbrcjgx!19sChIJv9u9RtPhUDkRpXCdmhrMEg8?authuser=0&hl=en&rclk=1,"23.2094128,69.6762612"
masjid-e-Ali mhommad,Mosque,"masjid-e-Ali mhommad, Madhapara, Bhuj, Gujarat 370001",Madhapara,,Bhuj,370001,Gujarat,IN,https://www.google.com/maps/place/masjid-e-Ali+mhommad/data=!4m7!3m6!1s0x3950e371038bc8f9:0x20e2618db88be3ea!8m2!3d23.2614418!4d69.6754656!16s%2Fg%2F11h5mmh2hj!19sChIJ-ciLA3HjUDkR6uOLuI1h4iA?authuser=0&hl=en&rclk=1,"23.2614418,69.6754656"
Rahmaniya-masjid,Mosque,"7P56+H8F Rahmaniya-masjid, Sardar Nagar, Bhuj, Gujarat 370001",Sardar Nagar,7P56+H8F,Bhuj,370001,Gujarat,IN,https://www.google.com/maps/place/Rahmaniya-masjid/data=!4m7!3m6!1s0x3950e229f8ac7c5b:0x5d3093e76c2661a0!8m2!3d23.2589344!4d69.7107957!16s%2Fg%2F11bt_gnnmw!19sChIJW3ys-CniUDkRoGEmbOeTMF0?authuser=0&hl=en&rclk=1,"23.258934399999998,69.71079569999999"
Vaniyavad Masjid,Mosque,"7M2C+2QF Vaniyavad Masjid, Street Rd, Old Dhatia Falia, Bhuj, Gujarat 370001",Old Dhatia Falia,"7M2C+2QF, Street Rd",Bhuj,370001,Gujarat,IN,https://www.google.com/maps/place/Vaniyavad+Masjid/data=!4m7!3m6!1s0x3950e1fe568ab95b:0xd1690957027232e2!8m2!3d23.2500617!4d69.6719067!16s%2Fg%2F12601dy4y!19sChIJW7mKVv7hUDkR4jJyAlcJadE?authuser=0&hl=en&rclk=1,"23.2500617,69.6719067"
Masjid E Raza,Mosque,"6J9H+9V8 Masjid E Raza, Mirjapar, Bhuj, Mirjapar Part, Gujarat 370040",Mirjapar,6J9H+9V8,"Bhuj, Mirjapar Part",370040,Gujarat,IN,https://www.google.com/maps/place/Masjid+E+Raza/data=!4m7!3m6!1s0x39511e5b9cf14393:0x9ed0b527ee24a248!8m2!3d23.2184235!4d69.6296976!16s%2Fg%2F11gfjbnrp7!19sChIJk0PxnFseUTkRSKIk7ie10J4?authuser=0&hl=en&rclk=1,"23.2184235,69.6296976"
Hajira Of Fatehmamad Tamachi notiyar,Mosque,"7M57+JVM Hajira Of Fatehmamad Tamachi notiyar, Sonivad, Bhuj, Gujarat 370001",Sonivad,7M57+JVM,Bhuj,370001,Gujarat,IN,https://www.google.com/maps/place/Hajira+Of+Fatehmamad+Tamachi+notiyar/data=!4m7!3m6!1s0x39511df938a8a749:0xd0fbb7773d9402b1!8m2!3d23.2590829!4d69.6646694!16s%2Fg%2F11dxbnkpw2!19sChIJSaeoOPkdUTkRsQKUPXe3-9A?authuser=0&hl=en&rclk=1,"23.2590829,69.6646694"
Masjid msjd,Mosque,"Masjid msjd, 370001, Dharanagar Kodki, Old Dhatia Falia, Bhuj, Gujarat 370001","Dharanagar Kodki, Old Dhatia Falia",370001,Bhuj,370001,Gujarat,IN,https://www.google.com/maps/place/Masjid+%D9%85%D8%B3%D8%AC%D8%AF%E2%80%AD/data=!4m7!3m6!1s0x3950e202712ad2c5:0xe66134753c100360!8m2!3d23.2544014!4d69.6771149!16s%2Fg%2F11c37l32tb!19sChIJxdIqcQLiUDkRYAMQPHU0YeY?authuser=0&hl=en&rclk=1,"23.2544014,69.67711489999999"
Masjid E Ravumiya,Mosque,"7M4C+HHJ Masjid E Ravumiya, Old Dhatia Falia, Bhuj, Gujarat 370001",Old Dhatia Falia,7M4C+HHJ,Bhuj,370001,Gujarat,IN,https://www.google.com/maps/place/Masjid+E+Ravumiya/data=!4m7!3m6!1s0x3950e200f9f8e93b:0x322e77e15edf9302!8m2!3d23.2564686!4d69.6713969!16s%2Fg%2F11c1r04gm_!19sChIJO-n4-QDiUDkRApPfXuF3LjI?authuser=0&hl=en&rclk=1,"23.256468599999998,69.67139689999999"
Masjid e Mohammedia,Mosque,"7M3F+C89 Masjid e Mohammedia, Bhid Bazar Rd, Dharanagar Kodki, Old Dhatia Falia, Bhuj, Gujarat 370001","Dharanagar Kodki, Old Dhatia Falia","7M3F+C89, Bhid Bazar Rd",Bhuj,370001,Gujarat,IN,https://www.google.com/maps/place/Masjid+e+Mohammedia/data=!4m7!3m6!1s0x3950e1ff61ff2cb9:0xaaf1889fd4fb6381!8m2!3d23.2535315!4d69.6733487!16s%2Fg%2F11c6rx2jt4!19sChIJuSz_Yf_hUDkRgWP71J-I8ao?authuser=0&hl=en&rclk=1,"23.253531499999998,69.67334869999999"
Sukhpar Sunni Mashjid,Mosque,"6J94+3PM Sukhpar Sunni Mashjid, Sukhpar, Bhuj, Gujarat 370040",Sukhpar,6J94+3PM,Bhuj,370040,Gujarat,IN,https://www.google.com/maps/place/Sukhpar+Sunni+Mashjid/data=!4m7!3m6!1s0x39511f522f8c1de9:0x823175c6223fdd29!8m2!3d23.2176925!4d69.6068398!16s%2Fg%2F11k3rx8ccc!19sChIJ6R2ML1IfUTkRKd0_IsZ1MYI?authuser=0&hl=en&rclk=1,"23.2176925,69.6068398"
Bhandari Wali Masjid And Dargah Sharif,Shrine,"7M29+9RW Bhandari Wali Masjid And Dargah Sharif, Nana Vokla St, Old Dhatia Falia, Bhuj, Gujarat 370001",Old Dhatia Falia,"7M29+9RW, Nana Vokla St",Bhuj,370001,Gujarat,IN,https://www.google.com/maps/place/Bhandari+Wali+Masjid+And+Dargah+Sharif/data=!4m7!3m6!1s0x3950e19118109477:0xbaedc5e716b57720!8m2!3d23.2509929!4d69.6695832!16s%2Fg%2F11gzpw117r!19sChIJd5QQGJHhUDkRIHe1FufF7bo?authuser=0&hl=en&rclk=1,"23.2509929,69.66958319999999"
Masjid - E - Noor - E - Mustafa,Mosque,"7P56+6W7 Masjid - E - Noor - E - Mustafa, Unnamed Road, Sardar Nagar, Bhuj, Gujarat 370020",Sardar Nagar,"7P56+6W7, Unnamed Road",Bhuj,370020,Gujarat,IN,https://www.google.com/maps/place/Masjid+-+E+-+Noor+-+E+-+Mustafa/data=!4m7!3m6!1s0x3950e10a318685ab:0xa838bf13e59322aa!8m2!3d23.2580307!4d69.7122975!16s%2Fg%2F11fm9n04n9!19sChIJq4WGMQrhUDkRqiKT5RO_OKg?authuser=0&hl=en&rclk=1,"23.2580307,69.71229749999999"
MASJID E QADRIYA(KUMBHAR WALI MASJID),Mosque,"MASJID E QADRIYA(KUMBHAR WALI MASJID), 20, Bhuj Industrial Area, Bhuj, Gujarat 370605",Anjani Nagar,"20, Bhuj Industrial Area",Bhuj,370605,Gujarat,IN,https://www.google.com/maps/place/MASJID+E+QADRIYA%28KUMBHAR+WALI+MASJID%29/data=!4m7!3m6!1s0x3950e3a4ffbf9253:0x8e5be6f054345cb8!8m2!3d23.2612674!4d69.6965437!16s%2Fg%2F11rxqhxhpb!19sChIJU5K__6TjUDkRuFw0VPDmW44?authuser=0&hl=en&rclk=1,"23.261267399999998,69.69654369999999"
Masjid Umar Faruk,Mosque,"7M9F+CVH Masjid Umar Faruk, Gandhi Nagari, Bhuj, Gujarat 370001",Gandhi Nagari,7M9F+CVH,Bhuj,370001,Gujarat,IN,https://www.google.com/maps/place/Masjid+Umar+Faruk/data=!4m7!3m6!1s0x3950e38559fcb479:0x2d2953f7babc4a2a!8m2!3d23.2685637!4d69.6747468!16s%2Fg%2F11rfs69nlx!19sChIJebT8WYXjUDkRKkq8uvdTKS0?authuser=0&hl=en&rclk=1,"23.268563699999998,69.6747468"
Masjid Sikandar Suleman Khatri,Mosque,"Masjid Sikandar Suleman Khatri, Sarah Baug, Airport Road, Odhav Vandana II, Bhuj, Gujarat 370001",Odhav Vandana II,"Sarah Baug, Airport Road",Bhuj,370001,Gujarat,IN,https://www.google.com/maps/place/Masjid+Sikandar+Suleman+Khatri/data=!4m7!3m6!1s0x39511d97ded31d99:0x3f01005b886fc5f5!8m2!3d23.2672005!4d69.6619354!16s%2Fg%2F11p497zhz0!19sChIJmR3T3pcdUTkR9cVviFsAAT8?authuser=0&hl=en&rclk=1,"23.267200499999998,69.66193539999999"
Alavali Masjid (Near),Mosque,"7M3G+P5G Alavali Masjid (Near), Bhid Bazar Rd, Dharanagar Kodki, Old Dhatia Falia, Bhuj, Gujarat 370001","Dharanagar Kodki, Old Dhatia Falia","7M3G+P5G, Bhid Bazar Rd",Bhuj,370001,Gujarat,IN,https://www.google.com/maps/place/Alavali+Masjid+%28Near%29/data=!4m7!3m6!1s0x3950e3bac5106b93:0x581a8608738b49c4!8m2!3d23.2543105!4d69.6754635!16s%2Fg%2F11f9xwrtvj!19sChIJk2sQxbrjUDkRxEmLcwiGGlg?authuser=0&hl=en&rclk=1,"23.2543105,69.67546349999999"
Gowar Masjid,Mosque,"7M2C+CQ2 Gowar Masjid, Old Dhatia Falia, Bhuj, Gujarat 370001",Old Dhatia Falia,7M2C+CQ2,Bhuj,370001,Gujarat,IN,https://www.google.com/maps/place/Gowar+Masjid/data=!4m7!3m6!1s0x3950e1ffa906c507:0xf7548881c0676228!8m2!3d23.2510083!4d69.671896!16s%2Fg%2F11g5_dxf6b!19sChIJB8UGqf_hUDkRKGJnwIGIVPc?authuser=0&hl=en&rclk=1,"23.2510083,69.671896"
Chitrawali Masjid,Mosque,"7M48+FF6 Chitrawali Masjid, Unnamed Road, Jumavadi, Sonivad, Bhuj, Gujarat 370001","Jumavadi, Sonivad","7M48+FF6, Unnamed Road",Bhuj,370001,Gujarat,IN,https://www.google.com/maps/place/Chitrawali+Masjid/data=!4m7!3m6!1s0x39511dff1d5a389d:0x2ffc44946c6b48b6!8m2!3d23.2561707!4d69.666144!16s%2Fg%2F11f4m9rdbb!19sChIJnThaHf8dUTkRtkhrbJRE_C8?authuser=0&hl=en&rclk=1,"23.2561707,69.666144"
Linewali Masjid,Mosque,"7M5C+P35 Linewali Masjid, Sarpat Gate Rd, Sonivad, Bhuj, Gujarat 370001",Sonivad,"7M5C+P35, Sarpat Gate Rd",Bhuj,370001,Gujarat,IN,https://www.google.com/maps/place/Linewali+Masjid/data=!4m7!3m6!1s0x3950e2074eb27fb5:0xea8bd3db97ee7daf!8m2!3d23.2592586!4d69.6702239!16s%2Fg%2F11b6hsk7t7!19sChIJtX-yTgfiUDkRr33ul9vTi-o?authuser=0&hl=en&rclk=1,"23.2592586,69.6702239"
Masjid-e-ishaak,Mosque,"Masjid-e-ishaak, Siddhapur, 42, Camp Area Rd, Camp Area, Gujarat Housing Board, Bhuj, Gujarat 370020","Camp Area, Gujarat Housing Board","Siddhapur, 42, Camp Area Rd",Bhuj,370020,Gujarat,IN,https://www.google.com/maps/place/Masjid-e-ishaak/data=!4m7!3m6!1s0x3950e1dbb5a2eb2d:0x8b9639a166416b09!8m2!3d23.244354!4d69.678575!16s%2Fg%2F11p0vs30w_!19sChIJLeuitdvhUDkRCWtBZqE5los?authuser=0&hl=en&rclk=1,"23.244353999999998,69.678575"
Al Madina Masjid Ahle Sunnat Wal Jamat,Mosque,"Al Madina Masjid Ahle Sunnat Wal Jamat, Seven Sky Rd, Yogeswar Nagar, Bhuj, Gujarat 370001",Yogeswar Nagar,Seven Sky Rd,Bhuj,370001,Gujarat,IN,https://www.google.com/maps/place/Al+Madina+Masjid+Ahle+Sunnat+Wal+Jamat/data=!4m7!3m6!1s0x39511dcc27a9835f:0x796ddbeedf19d664!8m2!3d23.2581868!4d69.6447325!16s%2Fg%2F11twp7my_x!19sChIJX4OpJ8wdUTkRZNYZ3-7bbXk?authuser=0&hl=en&rclk=1,"23.2581868,69.6447325"
Al-Falah Masjid ( Manjothi Madresha ),Mosque,"6MWH+6QP Al-Falah Masjid ( Manjothi Madresha ), Camp Area, Jestha Nagar, Bhuj, Gujarat 370001","Camp Area, Jestha Nagar",6MWH+6QP,Bhuj,370001,Gujarat,IN,https://www.google.com/maps/place/Al-Falah+Masjid+%28+Manjothi+Madresha+%29/data=!4m7!3m6!1s0x3950e1e0334441e7:0x4b4d7dd2796c6b71!8m2!3d23.2455755!4d69.679448!16s%2Fg%2F11h2616rx8!19sChIJ50FEM-DhUDkRcWtsedJ9TUs?authuser=0&hl=en&rclk=1,"23.245575499999998,69.679448"
Tanksara Masjid,Mosque,"Tanksara Masjid, 370001, Saraf Bazar, Old Dhatia Falia, Bhuj, Gujarat 370001","Saraf Bazar, Old Dhatia Falia",370001,Bhuj,370001,Gujarat,IN,https://www.google.com/maps/place/Tanksara+Masjid/data=!4m7!3m6!1s0x3950e20073f3a7bf:0x5feb3916891a0f8e!8m2!3d23.2547204!4d69.669547!16s%2Fg%2F11c5_pk8cf!19sChIJv6fzcwDiUDkRjg8aiRY5618?authuser=0&hl=en&rclk=1,"23.2547204,69.669547"
Abbas-ali Dargah,Mosque,"6MW3+8R7 Abbas-ali Dargah, Sanskar Nagar, Bhuj, Gujarat 370001",Sanskar Nagar,6MW3+8R7,Bhuj,370001,Gujarat,IN,https://www.google.com/maps/place/Abbas-ali+Dargah/data=!4m7!3m6!1s0x39511ff20cafc59f:0x4a975eb5f05b31ba!8m2!3d23.245793!4d69.6545323!16s%2Fg%2F11gjtxcyps!19sChIJn8WvDPIfUTkRujFb8LVel0o?authuser=0&hl=en&rclk=1,"23.245793,69.6545323"
Masjid E Roshan E Mustafa ( Vagadiya Kumbhar wali Masjid),Mosque,"7M6V+HW8 Masjid E Roshan E Mustafa ( Vagadiya Kumbhar wali Masjid), Bhakti Nagar, Bhuj, Gujarat 370001",Bhakti Nagar,7M6V+HW8,Bhuj,370001,Gujarat,IN,https://www.google.com/maps/place/Masjid+E+Roshan+E+Mustafa+%28+Vagadiya+Kumbhar+wali+Masjid%29/data=!4m7!3m6!1s0x3950e32ac077dcdf:0x6daf23967d7dff36!8m2!3d23.2614239!4d69.6948335!16s%2Fg%2F11py6srbj_!19sChIJ39x3wCrjUDkRNv99fZYjr20?authuser=0&hl=en&rclk=1,"23.2614239,69.6948335"
Masjid e Amina,Mosque,"Masjid e Amina, FF11, Sanjog Nagar, Bhuj, Gujarat 370015",Sanjog Nagar,FF11,Bhuj,370015,Gujarat,IN,https://www.google.com/maps/place/Masjid+e+Amina/data=!4m7!3m6!1s0x39511d7fd5e2e309:0xbb6b063af43edfa1!8m2!3d23.26469!4d69.6563717!16s%2Fg%2F11pqzxkr4s!19sChIJCePi1X8dUTkRod8-9DoGa7s?authuser=0&hl=en&rclk=1,"23.264689999999998,69.6563717"
Mahommadi Masjid,Mosque,"7MCF+4FQ Mahommadi Masjid, Ring Road, Gandhi Nagari, Bhuj, Gujarat 370001",Gandhi Nagari,"7MCF+4FQ, Ring Road",Bhuj,370001,Gujarat,IN,https://www.google.com/maps/place/Mahommadi+Masjid/data=!4m7!3m6!1s0x3950e37f9f8849d5:0x30689a65dd40ad41!8m2!3d23.2703344!4d69.6737333!16s%2Fg%2F11gm93lc1x!19sChIJ1UmIn3_jUDkRQa1A3WWaaDA?authuser=0&hl=en&rclk=1,"23.2703344,69.6737333"
Masjid e usmani,Mosque,"7M54+RCR Masjid e usmani, Khari Nadi Rd, Sanjog Nagar, Bhuj, Gujarat 370001",Sanjog Nagar,"7M54+RCR, Khari Nadi Rd",Bhuj,370001,Gujarat,IN,https://www.google.com/maps/place/Masjid+e+usmani/data=!4m7!3m6!1s0x39511d9739c77405:0x1cfa023cb3ca7e19!8m2!3d23.2596127!4d69.6560112!16s%2Fg%2F11fnq4g2fl!19sChIJBXTHOZcdUTkRGX7KszwC-hw?authuser=0&hl=en&rclk=1,"23.259612699999998,69.6560112"
Masjid e Najmul Hassan (Ahle Sunnat wal jamaat),Mosque,"7M9F+MXW Masjid e Najmul Hassan (Ahle Sunnat wal jamaat), Gandhi Nagari, Bhuj, Gujarat 370001",Gandhi Nagari,7M9F+MXW,Bhuj,370001,Gujarat,IN,https://www.google.com/maps/place/Masjid+e+Najmul+Hassan+%28Ahle+Sunnat+wal+jamaat%29/data=!4m7!3m6!1s0x3950e3bf26231be5:0x84c2e7fbbd961e85!8m2!3d23.2692326!4d69.6749465!16s%2Fg%2F11sqh9z9b6!19sChIJ5RsjJr_jUDkRhR6WvfvnwoQ?authuser=0&hl=en&rclk=1,"23.2692326,69.67494649999999"
Khoja Shia Ishnaasheri Masjid,Mosque,"Khoja Shia Ishnaasheri Masjid, Al Mehndi Society, Vijay Nagar, Bhuj, Gujarat 370001",Vijay Nagar,Al Mehndi Society,Bhuj,370001,Gujarat,IN,https://www.google.com/maps/place/Khoja+Shia+Ishnaasheri+Masjid/data=!4m7!3m6!1s0x39511f3c848e5c9f:0xa821c84827da3815!8m2!3d23.2419538!4d69.6669916!16s%2Fg%2F11gxp3360d!19sChIJn1yOhDwfUTkRFTjaJ0jIIag?authuser=0&hl=en&rclk=1,"23.241953799999997,69.6669916"
Pathan masjid,Mosque,"7M58+HG7 Pathan masjid, Pateshwer Nagar Rd, Sonivad, Bhuj, Gujarat 370001",Sonivad,"7M58+HG7, Pateshwer Nagar Rd",Bhuj,370001,Gujarat,IN,https://www.google.com/maps/place/Pathan+masjid/data=!4m7!3m6!1s0x39511d960b649165:0xc8e64b1eb3af47c2!8m2!3d23.2589016!4d69.6662957!16s%2Fg%2F11fl7pqlcv!19sChIJZZFkC5YdUTkRwkevsx5L5sg?authuser=0&hl=en&rclk=1,"23.258901599999998,69.66629569999999"
Ladha Shah Wali Masjid,Mosque,"7M37+XQ4 Ladha Shah Wali Masjid, Sonivad, Bhuj, Gujarat 370001",Sonivad,7M37+XQ4,Bhuj,370001,Gujarat,IN,https://www.google.com/maps/place/Ladha+Shah+Wali+Masjid/data=!4m7!3m6!1s0x39511dfe60d80135:0x4794ee369413d78!8m2!3d23.2548798!4d69.6644652!16s%2Fg%2F11c2pdv78x!19sChIJNQHYYP4dUTkReD1BaeNOeQQ?authuser=0&hl=en&rclk=1,"23.254879799999998,69.6644652"
"Khankahe ""NAQSBAND""",Mosque,"Khankahe ""NAQSBAND"", 813, Ekta Nagar, Bhuj, Gujarat 370015",Ekta Nagar,813,Bhuj,370015,Gujarat,IN,https://www.google.com/maps/place/Khankahe+%22NAQSBAND%22/data=!4m7!3m6!1s0x39511d0c95c4c70d:0xe8c218c5fdfc58c9!8m2!3d23.2561905!4d69.6558198!16s%2Fg%2F11sd7wwyn1!19sChIJDcfElQwdUTkRyVj8_cUYwug?authuser=0&hl=en&rclk=1,"23.2561905,69.6558198"
msjid shmste musaa sumraa vaas,Mosque,"6PVC+J9 msjid shmste musaa sumraa vaas, Bhuj, Gujarat 370001",,6PVC+J9,Bhuj,370001,Gujarat,IN,https://www.google.com/maps/place/%E0%AA%AE%E0%AA%B8%E0%AB%8D%E0%AA%9C%E0%AA%BF%E0%AA%A6+%E0%AA%B6%E0%AA%AE%E0%AA%B8%E0%AA%A4%E0%AB%87+%E0%AA%AE%E0%AB%81%E0%AA%B8%E0%AA%BE+%E0%AA%B8%E0%AB%81%E0%AA%AE%E0%AA%B0%E0%AA%BE+%E0%AA%B5%E0%AA%BE%E0%AA%B8/data=!4m7!3m6!1s0x3950e10a15018e53:0xbec034611ecc61c8!8m2!3d23.2440485!4d69.720918!16s%2Fg%2F11smc3qd4l!19sChIJU44BFQrhUDkRyGHMHmE0wL4?authuser=0&hl=en&rclk=1,"23.244048499999998,69.720918"
Hazrat saheb wali masjid-e-ibrahim,Mosque,"7M74+3XJ Hazrat saheb wali masjid-e-ibrahim, Madina Nagar 1, Sanjog Nagar, Bhuj, Gujarat 370001","Madina Nagar 1, Sanjog Nagar",7M74+3XJ,Bhuj,370001,Gujarat,IN,https://www.google.com/maps/place/Hazrat+saheb+wali+masjid-e-ibrahim/data=!4m7!3m6!1s0x39511d88b5f0790b:0x6bad7b964c731bc6!8m2!3d23.2627025!4d69.6574033!16s%2Fg%2F11rxrxx2vr!19sChIJC3nwtYgdUTkRxhtzTJZ7rWs?authuser=0&hl=en&rclk=1,"23.2627025,69.6574033"
Masjid hafshah,Mosque,"6J5P+JFW Masjid hafshah, Mirjapar Part, Gujarat 370040",,6J5P+JFW,Mirjapar Part,,Gujarat,IN,https://www.google.com/maps/place/Masjid+hafshah/data=!4m7!3m6!1s0x39511ffa1d2e0d69:0x776d1753871a66f!8m2!3d23.2091007!4d69.6362162!16s%2Fg%2F11nnp0g0f0!19sChIJaQ0uHfofUTkRb6ZxOHXRdgc?authuser=0&hl=en&rclk=1,"23.2091007,69.63621619999999"
Masjid Khawja Osman Haruni (Bhujiyay Masjid),Mosque,"Masjid Khawja Osman Haruni (Bhujiyay Masjid), 2614/1, Rajendra Nagar, Siddhapur, Bhuj, Gujarat 370020","Rajendra Nagar, Siddhapur",2614/1,Bhuj,370020,Gujarat,IN,https://www.google.com/maps/place/Masjid+Khawja+Osman+Haruni+%28Bhujiyay+Masjid%29/data=!4m7!3m6!1s0x3950e1c97b73653b:0xe189a7284b42a07d!8m2!3d23.2490624!4d69.6789488!16s%2Fg%2F11sgn6gcww!19sChIJO2Vze8nhUDkRfaBCSyinieE?authuser=0&hl=en&rclk=1,"23.2490624,69.6789488"
Rehmat masjid,Mosque,"Rehmat masjid, 99F/1, Muslim Colony, Madhapara, Bhuj, Gujarat 370605","Muslim Colony, Madhapara",99F/1,Bhuj,370605,Gujarat,IN,https://www.google.com/maps/place/Rehmat+masjid/data=!4m7!3m6!1s0x3950e3bf3c575835:0xed2d6b2c2fb28f1f!8m2!3d23.2586224!4d69.6784127!16s%2Fg%2F11tsg8tr0m!19sChIJNVhXPL_jUDkRH4-yLyxrLe0?authuser=0&hl=en&rclk=1,"23.2586224,69.6784127"
Pttavali Masjid,Mosque,"7M3C+XJX Pttavali Masjid, Kansara Bazar Rd, Old Dhatia Falia, Bhuj, Gujarat 370001",Old Dhatia Falia,"7M3C+XJX, Kansara Bazar Rd",Bhuj,370001,Gujarat,IN,https://www.google.com/maps/place/Pttavali+Masjid/data=!4m7!3m6!1s0x3950e200496ba50b:0x2f973873d3391f3f!8m2!3d23.2549935!4d69.6715959!16s%2Fg%2F11ggb9vwcc!19sChIJC6VrSQDiUDkRPx8503M4ly8?authuser=0&hl=en&rclk=1,"23.254993499999998,69.6715959"
Chand Masjid,Mosque,"7M4H+PXG Chand Masjid, Yusufsha Bhavansha Margh, Madhapara, Bhuj, Gujarat 370001",Madhapara,"7M4H+PXG, Yusufsha Bhavansha Margh",Bhuj,370001,Gujarat,IN,https://www.google.com/maps/place/Chand+Masjid/data=!4m7!3m6!1s0x3950e3f06ee48003:0xcc7205f5cec8c5a0!8m2!3d23.2568169!4d69.6799572!16s%2Fg%2F11j8k_1hyn!19sChIJA4DkbvDjUDkRoMXIzvUFcsw?authuser=0&hl=en&rclk=1,"23.2568169,69.67995719999999"
Masjid e vadi e Rahemat,Mosque,"6JG7+74F Masjid e vadi e Rahemat, vistar, Vadi, Sukhpar, Bhuj, Gujarat 370040",Sukhpar,"6JG7+74F vistar, Vadi",Bhuj,370040,Gujarat,IN,https://www.google.com/maps/place/Masjid+e+vadi+e+Rahemat/data=!4m7!3m6!1s0x39511f7c88ea7b29:0xeae25d18dfaee324!8m2!3d23.2254088!4d69.6127854!16s%2Fg%2F11jzvdsr0c!19sChIJKXvqiHwfUTkRJOOu3xhd4uo?authuser=0&hl=en&rclk=1,"23.2254088,69.61278539999999"
Masjid-e-Aqsa(oganwali masjid),Mosque,"7M3J+X77 Masjid-e-Aqsa(oganwali masjid), Oganwadi, Sural Bhit Rd, Bhuj, Gujarat",Madhapara,"7M3J+X77, Oganwadi, Sural Bhit Rd",Bhuj,,Gujarat,IN,https://www.google.com/maps/place/Masjid-e-Aqsa%28oganwali+masjid%29/data=!4m7!3m6!1s0x3950e37097c1f84b:0xf7024082b4a68cc!8m2!3d23.2549146!4d69.6806624!16s%2Fg%2F11t0vy4gb7!19sChIJS_jBl3DjUDkRzGhKKwgkcA8?authuser=0&hl=en&rclk=1,"23.2549146,69.6806624"
Masji a salfiya,Mosque,"7M5J+588 Masji a salfiya, Madhapara, Bhuj, Gujarat 370001",Madhapara,7M5J+588,Bhuj,370001,Gujarat,IN,https://www.google.com/maps/place/Masji+a+salfiya/data=!4m7!3m6!1s0x3950e3c4e9fb95fd:0xb0eb287347b6bd34!8m2!3d23.2579096!4d69.6808368!16s%2Fg%2F11h1mj56d9!19sChIJ_ZX76cTjUDkRNL22R3Mo67A?authuser=0&hl=en&rclk=1,"23.257909599999998,69.6808368"
JANNAT MASJID BHUJ,Store,"JANNAT MASJID BHUJ, Uplipad, Mahadev Gate Rd, Ghanshyam Nagar, Bhuj, Gujarat 370001",Ghanshyam Nagar,"Uplipad, Mahadev Gate Rd",Bhuj,370001,Gujarat,IN,https://www.google.com/maps/place/JANNAT+MASJID+BHUJ/data=!4m7!3m6!1s0x39511de31de88bcf:0x216dec4e132753e!8m2!3d23.2544094!4d69.6678153!16s%2Fg%2F11tnnqwhyx!19sChIJz4voHeMdUTkRPnUy4cTeFgI?authuser=0&hl=en&rclk=1,"23.2544094,69.6678153"
Abdullasha kadri sirachi ni dargha,Mosque,"7M78+MRP Abdullasha kadri sirachi ni dargha, Shivnagar, Bhuj, Gujarat 370001",Shivnagar,7M78+MRP,Bhuj,370001,Gujarat,IN,https://www.google.com/maps/place/Abdullasha+kadri+sirachi+ni+dargha/data=!4m7!3m6!1s0x39511d98b1d6efd5:0x20bc8588c0b7903a!8m2!3d23.2642216!4d69.667069!16s%2Fg%2F11p9n8vxl3!19sChIJ1e_WsZgdUTkROpC3wIiFvCA?authuser=0&hl=en&rclk=1,"23.2642216,69.667069"
Rehmat masjid (chaki wali),Mosque,"Rehmat masjid (chaki wali), 99F/4, Muslim Colony, Vijay Nagar, Bhuj, Gujarat 370605","Muslim Colony, Vijay Nagar",99F/4,Bhuj,370605,Gujarat,IN,https://www.google.com/maps/place/Rehmat+masjid+%28chaki+wali%29/data=!4m7!3m6!1s0x39511f3517f8ee71:0xbcad0812d8876a64!8m2!3d23.2419538!4d69.6669916!16s%2Fg%2F11sj4x5yyr!19sChIJce74FzUfUTkRZGqH2BIIrbw?authuser=0&hl=en&rclk=1,"23.241953799999997,69.6669916"
Masjid darhag vali,Mosque,"Masjid darhag vali, 1/6, Ghanshyam Nagar, Bhuj, Gujarat 370020",Ghanshyam Nagar,1/6,Bhuj,370020,Gujarat,IN,https://www.google.com/maps/place/Masjid+darhag+vali/data=!4m7!3m6!1s0x39511f66c0cd44bf:0xd2aeaf83a28b11a4!8m2!3d23.2448989!4d69.6688388!16s%2Fg%2F11nxs0s66d!19sChIJv0TNwGYfUTkRpBGLooOvrtI?authuser=0&hl=en&rclk=1,"23.2448989,69.6688388"
Jiyeja abda masjid,Mosque,"7M59+CCG Jiyeja abda masjid, Sonivad, Bhuj, Gujarat 370001",Sonivad,7M59+CCG,Bhuj,370001,Gujarat,IN,https://www.google.com/maps/place/Jiyeja+abda+masjid/data=!4m7!3m6!1s0x39511dd550cd4755:0x7ec8c7fb84166057!8m2!3d23.2585641!4d69.6685854!16s%2Fg%2F11h4pr037f!19sChIJVUfNUNUdUTkRV2AWhPvHyH4?authuser=0&hl=en&rclk=1,"23.258564099999997,69.6685854"
Farak wali masjid,Mosque,"6PV8+GGG Farak wali masjid, Bhuj, Gujarat 370020",,6PV8+GGG,Bhuj,,Gujarat,IN,https://www.google.com/maps/place/Farak+wali+masjid/data=!4m7!3m6!1s0x3950e188bdd83f23:0x38933ddd151baa11!8m2!3d23.2438127!4d69.7163261!16s%2Fg%2F11rvk3qxtr!19sChIJIz_YvYjhUDkREaobFd09kzg?authuser=0&hl=en&rclk=1,"23.2438127,69.7163261"
CHAKI VAALI KABRISTAAN MADINA MASJID,Mosque,"2, CHAKI VAALI KABRISTAAN MADINA MASJID, C10, Jestha Nagar, Bhuj, Gujarat 370020",Jestha Nagar,"2, C10",Bhuj,370020,Gujarat,IN,https://www.google.com/maps/place/CHAKI+VAALI+KABRISTAAN+MADINA+MASJID/data=!4m7!3m6!1s0x3950e12181a12965:0x8735fdbdc1009115!8m2!3d23.2489841!4d69.6742938!16s%2Fg%2F11q8v_cyjr!19sChIJZSmhgSHhUDkRFZEAwb39NYc?authuser=0&hl=en&rclk=1,"23.248984099999998,69.6742938"
Chitrawali masjid,Mosque,"7M5C+X59 Chitrawali masjid, Sonivad, Bhuj, Gujarat 370001",Sonivad,7M5C+X59,Bhuj,370001,Gujarat,IN,https://www.google.com/maps/place/Chitrawali+masjid/data=!4m7!3m6!1s0x3950e32f909b466f:0xc9b7affbe5638869!8m2!3d23.2599127!4d69.6704978!16s%2Fg%2F11t61tmh8j!19sChIJb0abkC_jUDkRaYhj5fuvt8k?authuser=0&hl=en&rclk=1,"23.259912699999997,69.67049779999999"
