name,main_category,address,address_ward,address_street,address_city,address_postal_code,address_state,address_country_code,link,coordinates
Masjid E Quraish,Mosque,"94V8+6Q4 Masjid E Quraish, Khadkali, Udgir, Maharashtra 413517",Khadkali,94V8+6Q4,Udgir,413517,Maharashtra,IN,https://www.google.com/maps/place/Masjid+E+Quraish/data=!4m7!3m6!1s0x3bcfaa3c56501903:0x13c4e60af22dd62c!8m2!3d18.3930108!4d77.1169682!16s%2Fg%2F1hf3lbz2t!19sChIJAxlQVjyqzzsRLNYt8grmxBM?authuser=0&hl=en&rclk=1,"18.3930108,77.1169682"
Madni Masjid Qasimuloom,Mosque,"C42F+FXM Madni Masjid Qasimuloom, Jalkot Rd, Dabir Poora, Khadkali, Udgir, Maharashtra 413517","Dabir Poora, Khadkali","C42F+FXM, Jalkot Rd",Udgir,413517,Maharashtra,IN,https://www.google.com/maps/place/Madni+Masjid+Qasimuloom/data=!4m7!3m6!1s0x3bcfaa3805055a17:0x970c16b61e0f82ed!8m2!3d18.401203!4d77.1249243!16s%2Fg%2F11dzw4zdrx!19sChIJF1oFBTiqzzsR7YIPHrYWDJc?authuser=0&hl=en&rclk=1,"18.401203,77.1249243"
Masjid E-Ilahi Azad Nagar,Mosque,"Masjid E-Ilahi Azad Nagar, Dabir Poora, azad nagar, Udgir, Maharashtra 413517","Dabir Poora, azad nagar",,Udgir,413517,Maharashtra,IN,https://www.google.com/maps/place/Masjid+E-Ilahi+Azad+Nagar/data=!4m7!3m6!1s0x3bcfaa38eafa4adf:0xb32f6caf8f74daf7!8m2!3d18.3975046!4d77.1239161!16s%2Fg%2F11ckqt15kq!19sChIJ30r66jiqzzsR99p0j69sL7M?authuser=0&hl=en&rclk=1,"18.397504599999998,77.1239161"
Syed Chand Masjid,Mosque,"94WC+2H5 Syed Chand Masjid, Khadkali, Udgir, Maharashtra 413517",Khadkali,94WC+2H5,Udgir,413517,Maharashtra,IN,https://www.google.com/maps/place/Syed+Chand+Masjid/data=!4m7!3m6!1s0x3bcfab98e6898b73:0x30e054ef9c718267!8m2!3d18.3950203!4d77.1214718!16s%2Fg%2F11hzbvl_y4!19sChIJc4uJ5pirzzsRZ4JxnO9U4DA?authuser=0&hl=en&rclk=1,"18.3950203,77.1214718"
Sah Sailani Baba Dargah & Mosque,Mosque,"94V6+H72 Sah Sailani Baba Dargah & Mosque, Gandhi Nagar, Ramchandra Nagar, Udgir, Maharashtra 413517","Gandhi Nagar, Ramchandra Nagar",94V6+H72,Udgir,413517,Maharashtra,IN,https://www.google.com/maps/place/Sah+Sailani+Baba+Dargah+%26+Mosque/data=!4m7!3m6!1s0x3bcfaa23996357e9:0x11a38d6b5e1d631!8m2!3d18.3938775!4d77.1106295!16s%2Fg%2F11c6wmx6qk!19sChIJ6VdjmSOqzzsRMdbhtdY4GgE?authuser=0&hl=en&rclk=1,"18.3938775,77.1106295"
Khair Nagar Masjid,Mosque,"94JG+436 Khair Nagar Masjid, Vikas Nagar, Udgir, Maharashtra 413517",Vikas Nagar,94JG+436,Udgir,413517,Maharashtra,IN,https://www.google.com/maps/place/Khair+Nagar+Masjid/data=!4m7!3m6!1s0x3bcfaa12cbe57e09:0x992a0ca0f5f41fc3!8m2!3d18.380282!4d77.1251439!16s%2Fg%2F11dxf122kg!19sChIJCX7lyxKqzzsRwx_09aAMKpk?authuser=0&hl=en&rclk=1,"18.380281999999998,77.1251439"
Noor Patel Masjid,Mosque,"Noor Patel Masjid, Vikas Nagar, Udgir, Maharashtra 413517",Vikas Nagar,,Udgir,413517,Maharashtra,IN,https://www.google.com/maps/place/Noor+Patel+Masjid/data=!4m7!3m6!1s0x3bcfaa6cf96e443d:0xb3c23d807c8246e4!8m2!3d18.3823061!4d77.1258989!16s%2Fg%2F11c5ss22cv!19sChIJPURu-WyqzzsR5EaCfIA9wrM?authuser=0&hl=en&rclk=1,"18.382306099999997,77.1258989"
Baig ji Masjid,Mosque,"C42C+FM9 Baig ji Masjid, dabeer pura near, Udgir, Maharashtra 413517","Dabir Poora, Khadkali","C42C+FM9, dabeer pura near",Udgir,413517,Maharashtra,IN,https://www.google.com/maps/place/Baig+ji+Masjid/data=!4m7!3m6!1s0x3bcfaa39da326549:0xb14236fbe5c0b70c!8m2!3d18.4011625!4d77.1217436!16s%2Fg%2F1pp2x9xzd!19sChIJSWUy2jmqzzsRDLfA5fs2QrE?authuser=0&hl=en&rclk=1,"18.401162499999998,77.1217436"
Hazrat Meer Musa baba Dargha,Religious destination,"94X5+XQ9 Hazrat Meer Musa baba Dargha, Malkapur, Udgir, Maharashtra 413517",Malkapur,94X5+XQ9,Udgir,413517,Maharashtra,IN,https://www.google.com/maps/place/Hazrat+Meer+Musa+baba+Dargha/data=!4m7!3m6!1s0x3bcfaa25eda04519:0x11fc17648428e2eb!8m2!3d18.3999083!4d77.1094744!16s%2Fg%2F11c6w297pk!19sChIJGUWg7SWqzzsR6-IohGQX_BE?authuser=0&hl=en&rclk=1,"18.3999083,77.1094744"
Masjide maheboob pura(Pinjar Masjid),Mosque,"94WC+W92 Masjide maheboob pura(Pinjar Masjid), Khadkali, Udgir, Maharashtra 413517",Khadkali,94WC+W92,Udgir,413517,Maharashtra,IN,https://www.google.com/maps/place/Masjide+maheboob+pura%28Pinjar+Masjid%29/data=!4m7!3m6!1s0x3bcfaa396a1cecb3:0x14268bc34d47ca5e!8m2!3d18.3972642!4d77.1208983!16s%2Fg%2F1tk9p6sw!19sChIJs-wcajmqzzsRXspHTcOLJhQ?authuser=0&hl=en&rclk=1,"18.3972642,77.1208983"
Masjid -A- Mustafa Jagirdar,Mosque,"94RG+CJ5 Masjid -A- Mustafa Jagirdar, Shivneri, Udgir, Maharashtra 413517",Shivneri,94RG+CJ5,Udgir,413517,Maharashtra,IN,https://www.google.com/maps/place/Masjid+-A-+Mustafa+Jagirdar/data=!4m7!3m6!1s0x3bcfaa401a05d63f:0xd2805ad3e270e96d!8m2!3d18.3910078!4d77.1266145!16s%2Fg%2F11dxlb8fw8!19sChIJP9YFGkCqzzsRbelw4tNagNI?authuser=0&hl=en&rclk=1,"18.3910078,77.1266145"
Mukbara Masjid,Mosque,"94R8+M56 Mukbara Masjid, Ramchandra Nagar, Udgir, Maharashtra 413517",Ramchandra Nagar,94R8+M56,Udgir,413517,Maharashtra,IN,https://www.google.com/maps/place/Mukbara+Masjid/data=!4m7!3m6!1s0x3bcfaa3d3d58fc01:0xcd5c1fe86146b5d7!8m2!3d18.3916679!4d77.1153787!16s%2Fg%2F1pp2vj8jm!19sChIJAfxYPT2qzzsR17VGYegfXM0?authuser=0&hl=en&rclk=1,"18.391667899999998,77.1153787"
Ameeri Masjid,Mosque,"94X9+M3W Ameeri Masjid, Fort Road, Khadkali, Udgir, Maharashtra 413517",Khadkali,"94X9+M3W, Fort Road",Udgir,413517,Maharashtra,IN,https://www.google.com/maps/place/Ameeri+Masjid/data=!4m7!3m6!1s0x3bcfaa3a4f61bb71:0x79b2de3ff7992f8f!8m2!3d18.3992363!4d77.1176908!16s%2Fg%2F11c59vb1qf!19sChIJcbthTzqqzzsRjy-Z9z_esnk?authuser=0&hl=en&rclk=1,"18.3992363,77.11769079999999"
Masjid,Mosque,"94RC+V5J Masjid, Khadkali, Udgir, Maharashtra 413517",Khadkali,94RC+V5J,Udgir,413517,Maharashtra,IN,https://www.google.com/maps/place/Masjid/data=!4m7!3m6!1s0x3bcfabb492ebf699:0xf77df511def038a3!8m2!3d18.3922075!4d77.1203888!16s%2Fg%2F11p168m5nd!19sChIJmfbrkrSrzzsRozjw3hH1ffc?authuser=0&hl=en&rclk=1,"18.392207499999998,77.1203888"
Fatima Masjid,Mosque,"94MH+867 Fatima Masjid, Vikas Nagar, Udgir, Maharashtra 413517",Vikas Nagar,94MH+867,Udgir,413517,Maharashtra,IN,https://www.google.com/maps/place/Fatima+Masjid/data=!4m7!3m6!1s0x3bcfaa6c8b813e41:0x8bcefe13c5b1c14a!8m2!3d18.383284!4d77.1280344!16s%2Fg%2F11csr0tpdq!19sChIJQT6Bi2yqzzsRSsGxxRP-zos?authuser=0&hl=en&rclk=1,"18.383284,77.12803439999999"
Aksa Masjid,Mosque,"94Q4+CH2 Aksa Masjid, Samta Nagar, Udgir, Maharashtra 413517",Samta Nagar,94Q4+CH2,Udgir,413517,Maharashtra,IN,https://www.google.com/maps/place/Aksa+Masjid/data=!4m7!3m6!1s0x3bcfabcb19f9d2f9:0x1dc369e80a8bf07c!8m2!3d18.3885144!4d77.1064057!16s%2Fg%2F11g0hzr_94!19sChIJ-dL5GcurzzsRfPCLCuhpwx0?authuser=0&hl=en&rclk=1,"18.3885144,77.1064057"
Masjid-E-Haftee Biradaran,Mosque,"94V9+FPF Masjid-E-Haftee Biradaran, Khadkali, Udgir, Maharashtra 413517",Khadkali,94V9+FPF,Udgir,413517,Maharashtra,IN,https://www.google.com/maps/place/Masjid-E-Haftee+Biradaran/data=!4m7!3m6!1s0x3bcfaa3c2414d60d:0xfd883151b0b6a7f!8m2!3d18.3936872!4d77.1193041!16s%2Fg%2F11g6bvnyjc!19sChIJDdYUJDyqzzsRf2oLGxWD2A8?authuser=0&hl=en&rclk=1,"18.3936872,77.1193041"
Aisha Mosque,Mosque,"94V6+246 Aisha Mosque, Ramchandra Nagar, Udgir, Maharashtra 413517",Ramchandra Nagar,94V6+246,Udgir,413517,Maharashtra,IN,https://www.google.com/maps/place/Aisha+Mosque/data=!4m7!3m6!1s0x3bcfaa23b10e5481:0x2e9db4bf30f3516c!8m2!3d18.3925432!4d77.1102522!16s%2Fg%2F11c6w17gkr!19sChIJgVQOsSOqzzsRbFHzML-0nS4?authuser=0&hl=en&rclk=1,"18.3925432,77.11025219999999"
Masjid-e-Dabeer Pura,Mosque,"94XC+QM5 Masjid-e-Dabeer Pura, Dabir Poora, Khadkali, Udgir, Maharashtra 413517","Dabir Poora, Khadkali",94XC+QM5,Udgir,413517,Maharashtra,IN,https://www.google.com/maps/place/Masjid-e-Dabeer+Pura/data=!4m7!3m6!1s0x3bcfaa39a52ab007:0x56f3b310bd33358c!8m2!3d18.399388!4d77.1217328!16s%2Fg%2F11gcdvqs3g!19sChIJB7AqpTmqzzsRjDUzvRCz81Y?authuser=0&hl=en&rclk=1,"18.399388,77.12173279999999"
Ibrahim Masjid,Mosque,"94J6+GRX Ibrahim Masjid, Samta Nagar, Udgir, Maharashtra 413517",Samta Nagar,94J6+GRX,Udgir,413517,Maharashtra,IN,https://www.google.com/maps/place/Ibrahim+Masjid/data=!4m7!3m6!1s0x3bcfaa1a44a33c21:0x3c5cc22d9d64f16a!8m2!3d18.3813504!4d77.1120952!16s%2Fg%2F1pp2vg0fj!19sChIJITyjRBqqzzsRavFknS3CXDw?authuser=0&hl=en&rclk=1,"18.3813504,77.1120952"
Masjide kashiful uloom,Mosque,"94X7+R6R Masjide kashiful uloom, Ramchandra Nagar, Udgir, Maharashtra 413517",Ramchandra Nagar,94X7+R6R,Udgir,413517,Maharashtra,IN,https://www.google.com/maps/place/Masjide+kashiful+uloom/data=!4m7!3m6!1s0x3bcfaa2547145593:0xfc6666acf3f9483!8m2!3d18.3996244!4d77.1130217!16s%2Fg%2F11d_8r6_tn!19sChIJk1UURyWqzzsRg5Q_z2pmxg8?authuser=0&hl=en&rclk=1,"18.3996244,77.11302169999999"
masjide hazrat syed khaja bashah rh udgir,Mosque,"94X9+GRF masjide hazrat syed khaja bashah rh udgir, Dabir Poora, Khadkali, Udgir, Maharashtra 413517","Dabir Poora, Khadkali",94X9+GRF,Udgir,413517,Maharashtra,IN,https://www.google.com/maps/place/masjide+hazrat+syed+khaja+bashah+rh+udgir/data=!4m7!3m6!1s0x3bcfaa3a2bcefb55:0x7386af073a08013d!8m2!3d18.3988038!4d77.1195411!16s%2Fg%2F11hbpyq0cs!19sChIJVfvOKzqqzzsRPQEIOgevhnM?authuser=0&hl=en&rclk=1,"18.3988038,77.11954109999999"
Masjid Paigambar Pura,Mosque,"94V9+F68 Masjid Paigambar Pura, Khadkali, Udgir, Maharashtra 413517",Khadkali,94V9+F68,Udgir,413517,Maharashtra,IN,https://www.google.com/maps/place/Masjid+Paigambar+Pura/data=!4m7!3m6!1s0x3bcfaa3c46cc0449:0xffd14ade405bb52f!8m2!3d18.3936611!4d77.1180683!16s%2Fg%2F11g659cl78!19sChIJSQTMRjyqzzsRL7VbQN5K0f8?authuser=0&hl=en&rclk=1,"18.3936611,77.11806829999999"
Khwaja Basha Dargah,Mosque,"Khwaja Basha Dargah, 413517, Dabir Poora, Khadkali, Udgir, Maharashtra 413517","Dabir Poora, Khadkali",413517,Udgir,413517,Maharashtra,IN,https://www.google.com/maps/place/Khwaja+Basha+Dargah/data=!4m7!3m6!1s0x3bcfaa3a29ff625f:0x77b46990bb84643!8m2!3d18.3988907!4d77.1197373!16s%2Fg%2F11gb3yq6h2!19sChIJX2L_KTqqzzsRQ0a4C5lGewc?authuser=0&hl=en&rclk=1,"18.3988907,77.1197373"
Masjid-E-Momin Pura Udgir,Mosque,"Masjid-E-Momin Pura Udgir, Khadkali, Udgir, Maharashtra 413517",Khadkali,,Udgir,413517,Maharashtra,IN,https://www.google.com/maps/place/Masjid-E-Momin+Pura+Udgir/data=!4m7!3m6!1s0x3bcfab13d9d1bda7:0x3fdee6577f936dd!8m2!3d18.3943442!4d77.1187556!16s%2Fg%2F11h8bch3fh!19sChIJp73R2ROrzzsR3Tb5d2Xu_QM?authuser=0&hl=en&rclk=1,"18.3943442,77.1187556"
Masjid-E-Sabereen (Al-Ameen Nagar),Mosque,"94WG+G9V Masjid-E-Sabereen (Al-Ameen Nagar), Shivneri, Udgir, Maharashtra 413517",Shivneri,94WG+G9V,Udgir,413517,Maharashtra,IN,https://www.google.com/maps/place/Masjid-E-Sabereen+%28Al-Ameen+Nagar%29/data=!4m7!3m6!1s0x3bcfab2eed3b26dd:0x84f5b903497f00b6!8m2!3d18.3962454!4d77.126306!16s%2Fg%2F11kk8r0dcy!19sChIJ3SY77S6rzzsRtgB_SQO59YQ?authuser=0&hl=en&rclk=1,"18.396245399999998,77.126306"
MADNI MASJID,Mosque,"94QF+575 MADNI MASJID, Vikas Nagar, Udgir, Maharashtra 413517",Vikas Nagar,94QF+575,Udgir,413517,Maharashtra,IN,https://www.google.com/maps/place/MADNI+MASJID/data=!4m7!3m6!1s0x3bcfaa150f8dc9c7:0x76f06a5bce1fd80f!8m2!3d18.3878863!4d77.1232409!16s%2Fg%2F11gdr1dwl2!19sChIJx8mNDxWqzzsRD9gfzltq8HY?authuser=0&hl=en&rclk=1,"18.387886299999998,77.1232409"
Masjid-e-Hamidya,Mosque,"C44F+RP6 Masjid-e-Hamidya, Unnamed Road, Shivneri, Udgir, Maharashtra 413517",Shivneri,"C44F+RP6, Unnamed Road",Udgir,413517,Maharashtra,IN,https://www.google.com/maps/place/Masjid-e-Hamidya/data=!4m7!3m6!1s0x3bcfabb7a8a60955:0x79a370c58384b591!8m2!3d18.4070285!4d77.1242746!16s%2Fg%2F11fn6219zr!19sChIJVQmmqLerzzsRkbWEg8Vwo3k?authuser=0&hl=en&rclk=1,"18.4070285,77.12427459999999"
Masjid-e Manzoor,Mosque,"94X5+P4J Masjid-e Manzoor, Malkapur, Udgir, Maharashtra 413517",Malkapur,94X5+P4J,Udgir,413517,Maharashtra,IN,https://www.google.com/maps/place/Masjid-e+Manzoor/data=!4m7!3m6!1s0x3bcfabaa504373d7:0x306d4f2743ca4bd2!8m2!3d18.3993485!4d77.1077783!16s%2Fg%2F11h6ql1fp2!19sChIJ13NDUKqrzzsR0kvKQydPbTA?authuser=0&hl=en&rclk=1,"18.3993485,77.10777829999999"
Masjid e Nimrah,Mosque,"Masjid e Nimrah, Azad Nagar Azad Nagar, Jalkot Rd, Udgir, Maharashtra 413517",Khadkali,"Azad Nagar Azad Nagar, Jalkot Rd",Udgir,413517,Maharashtra,IN,https://www.google.com/maps/place/Masjid+e+Nimrah/data=!4m7!3m6!1s0x3bcfabcf3c73282f:0xbdbdeddd89a7928c!8m2!3d18.3953889!4d77.1234373!16s%2Fg%2F11nmqrz3zm!19sChIJLyhzPM-rzzsRjJKnid3tvb0?authuser=0&hl=en&rclk=1,"18.3953889,77.12343729999999"
Eidgah,Mosque,"94R6+RVF Eidgah, Venkatesh Nagar, Ramchandra Nagar, Udgir, Maharashtra 413517","Venkatesh Nagar, Ramchandra Nagar",94R6+RVF,Udgir,413517,Maharashtra,IN,https://www.google.com/maps/place/Eidgah/data=!4m7!3m6!1s0x3bcfaa22e21e1a0f:0x4b26ee162e8207ab!8m2!3d18.3920726!4d77.11216!16s%2Fg%2F1hc2w4gsv!19sChIJDxoe4iKqzzsRqweCLhbuJks?authuser=0&hl=en&rclk=1,"18.3920726,77.11216"
abubakar masjid,Mosque,"abubakar masjid, Syed chand dargah, near nidebanves, Khadkali, Udgir, Maharashtra 413517",Khadkali,"Syed chand dargah, near nidebanves",Udgir,413517,Maharashtra,IN,https://www.google.com/maps/place/abubakar+masjid/data=!4m7!3m6!1s0x3bcfab1d7fa74fbd:0x1b947385ee34b884!8m2!3d18.3959689!4d77.1216897!16s%2Fg%2F11gxjssw7r!19sChIJvU-nfx2rzzsRhLg07oVzlBs?authuser=0&hl=en&rclk=1,"18.3959689,77.12168969999999"
Masjid-e-ismail,Mosque,"94V9+VW9 Masjid-e-ismail, Khadkali, Udgir, Maharashtra 413517",Khadkali,94V9+VW9,Udgir,413517,Maharashtra,IN,https://www.google.com/maps/place/Masjid-e-ismail/data=!4m7!3m6!1s0x3bcfab8df28ed767:0xf9a788fb5b724b67!8m2!3d18.394669!4d77.1198486!16s%2Fg%2F11gyb11ply!19sChIJZ9eO8o2rzzsRZ0tyW_uIp_k?authuser=0&hl=en&rclk=1,"18.394669,77.1198486"
Baba Nagar Masjid,Mosque,"94JH+2RJ Baba Nagar Masjid, Unnamed Road, Vikas Nagar, Nideban, Udgir, Maharashtra 413517",Vikas Nagar,"94JH+2RJ, Unnamed Road","Nideban, Udgir",413517,Maharashtra,IN,https://www.google.com/maps/place/Baba+Nagar+Masjid/data=!4m7!3m6!1s0x3bcfab6697d48711:0xa23cbc1f96648567!8m2!3d18.3800852!4d77.1295243!16s%2Fg%2F11lfzyc1hh!19sChIJEYfUl2arzzsRZ4Vklh-8PKI?authuser=0&hl=en&rclk=1,"18.3800852,77.1295243"
MASJID E SARVER,Mosque,"94G9+5RH MASJID E SARVER, Venkatesh Nagar, Major Colony, Udgir, Madlapur, Maharashtra 413517","Venkatesh Nagar, Major Colony",94G9+5RH,"Udgir, Madlapur",413517,Maharashtra,IN,https://www.google.com/maps/place/MASJID+E+SARVER/data=!4m7!3m6!1s0x3bcfab702fd65013:0xa9cf438648339a36!8m2!3d18.3754332!4d77.1196025!16s%2Fg%2F11h2m1zzb_!19sChIJE1DWL3CrzzsRNpozSIZDz6k?authuser=0&hl=en&rclk=1,"18.3754332,77.1196025"
Masjid e hussain,Mosque,"94H9+PVP Masjid e hussain, Udgir - Nilanga Rd, Venkatesh Nagar, Major Colony, Udgir, Maharashtra 413517","Venkatesh Nagar, Major Colony","94H9+PVP, Udgir - Nilanga Rd",Udgir,413517,Maharashtra,IN,https://www.google.com/maps/place/Masjid+e+hussain/data=!4m7!3m6!1s0x3bcfab0351ee666b:0xf553bae7e1292a2f!8m2!3d18.3793387!4d77.1196943!16s%2Fg%2F11qsny2gkv!19sChIJa2buUQOrzzsRLyop4ee6U_U?authuser=0&hl=en&rclk=1,"18.379338699999998,77.11969429999999"
Madina Masjid,Mosque,"Madina Masjid, Banshelki, Road, Malkapur, Udgir, Maharashtra 413517",Malkapur,"Banshelki, Road",Udgir,413517,Maharashtra,IN,https://www.google.com/maps/place/Madina+Masjid/data=!4m7!3m6!1s0x3bcfabf670ff5d5f:0x9ce2b0ea0b3cb2d0!8m2!3d18.3901435!4d77.1053076!16s%2Fg%2F11hdwwy8mt!19sChIJX13_cParzzsR0LI8C-qw4pw?authuser=0&hl=en&rclk=1,"18.3901435,77.1053076"
Kila masjid udgir,,"C439+32G Kila masjid udgir, Fort Road, Khadkali, Udgir, Maharashtra 413517",Khadkali,"C439+32G, Fort Road",Udgir,413517,Maharashtra,IN,https://www.google.com/maps/place/Kila+masjid+udgir/data=!4m7!3m6!1s0x3bcfab8829a1c60b:0x6682dc6f3cd4430a!8m2!3d18.3990409!4d77.1178519!16s%2Fg%2F11s2yflx_w!19sChIJC8ahKYirzzsRCkPUPG_cgmY?authuser=0&hl=en&rclk=1,"18.3990409,77.11785189999999"
Masjid-E-Enamul Hasan,Mosque,"Masjid-E-Enamul Hasan, Malkapur, Udgir, Maharashtra 413517",Malkapur,,Udgir,413517,Maharashtra,IN,https://www.google.com/maps/place/Masjid-E-Enamul+Hasan/data=!4m7!3m6!1s0x3bcfabf8e3915acf:0xa53c9b6017795d2c!8m2!3d18.4013246!4d77.1074396!16s%2Fg%2F11nn17chb7!19sChIJz1qR4_irzzsRLF15F2CbPKU?authuser=0&hl=en&rclk=1,"18.4013246,77.10743959999999"
Hazarat Abu Hurera Rz. Masjid,Mosque,"C42F+W63 Hazarat Abu Hurera Rz. Masjid, Khadkali, Udgir, Maharashtra 413517",Khadkali,C42F+W63,Udgir,413517,Maharashtra,IN,https://www.google.com/maps/place/Hazarat+Abu+Hurera+Rz.+Masjid/data=!4m7!3m6!1s0x3bcfabe715ee4fe9:0x1c82ab510fc82615!8m2!3d18.4022566!4d77.1230344!16s%2Fg%2F11k41lqrpq!19sChIJ6U_uFeerzzsRFSbID1Grghw?authuser=0&hl=en&rclk=1,"18.402256599999998,77.1230344"
Masjid E Quba,Mosque,"94XF+433 Masjid E Quba, Rokade Hanuman Rd, Dabir Poora, Khadkali, Udgir, Maharashtra 413517","Dabir Poora, Khadkali","94XF+433, Rokade Hanuman Rd",Udgir,413517,Maharashtra,IN,https://www.google.com/maps/place/Masjid+E+Quba/data=!4m7!3m6!1s0x3bcfabbefa5257c7:0xec73cce7ff056032!8m2!3d18.3977534!4d77.1226867!16s%2Fg%2F11hj3t2ft1!19sChIJx1dS-r6rzzsRMmAF_-fMc-w?authuser=0&hl=en&rclk=1,"18.3977534,77.1226867"
Masjid e abi huraiara,Mosque,"C42F+M67 Masjid e abi huraiara, Khadkali, Udgir, Maharashtra 413517",Khadkali,C42F+M67,Udgir,413517,Maharashtra,IN,https://www.google.com/maps/place/Masjid+e+abi+huraiara/data=!4m7!3m6!1s0x3bcfab43d4322733:0x7959ebcdecb75613!8m2!3d18.40226!4d77.123098!16s%2Fg%2F11q9tz02x0!19sChIJMycy1EOrzzsRE1a37M3rWXk?authuser=0&hl=en&rclk=1,"18.40226,77.123098"
MASJID E AQSA LONI,Mosque,"C38R+GC2 MASJID E AQSA LONI, Tondar - Udgir Rd, Loni, Maharashtra 413517",,"C38R+GC2, Tondar - Udgir Rd",Loni,413517,Maharashtra,IN,https://www.google.com/maps/place/MASJID+E+AQSA+LONI/data=!4m7!3m6!1s0x3bcfa97b378dace3:0x42ad4c3473b992bd!8m2!3d18.4162714!4d77.0910228!16s%2Fg%2F11n981xxky!19sChIJ46yNN3upzzsRvZK5czRMrUI?authuser=0&hl=en&rclk=1,"18.4162714,77.09102279999999"
Masjid e killa,Mosque,"Masjid e killa, Udgir Fort, Fort Road, Khadkali, Udgir, Maharashtra 413517",Khadkali,"Udgir Fort, Fort Road",Udgir,413517,Maharashtra,IN,https://www.google.com/maps/place/Masjid+e+killa/data=!4m7!3m6!1s0x3bcfabc2c9d18b33:0x7b60e5a1a58e024b!8m2!3d18.4026108!4d77.1174762!16s%2Fg%2F11s7px318r!19sChIJM4vRycKrzzsRSwKOpaHlYHs?authuser=0&hl=en&rclk=1,"18.402610799999998,77.1174762"
Masjid-E-Arqum,Mosque,"94X9+7FR Masjid-E-Arqum, Killa, Gawali Galli, behind GA function hall, Khadkali, Udgir, Maharashtra 413517",Khadkali,"94X9+7FR, Killa, Gawali Galli, behind GA function hall",Udgir,413517,Maharashtra,IN,https://www.google.com/maps/place/Masjid-E-Arqum/data=!4m7!3m6!1s0x3bcfab7466deae85:0xb4358c4105912e3!8m2!3d18.3982414!4d77.1186429!16s%2Fg%2F11rc48xtg_!19sChIJha7eZnSrzzsR4xJZEMRYQws?authuser=0&hl=en&rclk=1,"18.3982414,77.1186429"
Masjide meer Musa (tek ki masjid),Mosque,"94X5+XQ9 Masjide meer Musa (tek ki masjid), Malkapur, Udgir, Maharashtra 413517",Malkapur,94X5+XQ9,Udgir,413517,Maharashtra,IN,https://www.google.com/maps/place/Masjide+meer+Musa+%28tek+ki+masjid%29/data=!4m7!3m6!1s0x3bcfab22b6283d2b:0x74dce8120fcae94d!8m2!3d18.3998811!4d77.1094089!16s%2Fg%2F11kjqnwttv!19sChIJKz0otiKrzzsRTenKDxLo3HQ?authuser=0&hl=en&rclk=1,"18.399881099999998,77.10940889999999"
Masjid Raj muhammad,Mosque,"94R9+WWX Masjid Raj muhammad, Khadkali, Udgir, Maharashtra 413517",Khadkali,94R9+WWX,Udgir,413517,Maharashtra,IN,https://www.google.com/maps/place/Masjid+Raj+muhammad/data=!4m7!3m6!1s0x3bcfabe647c262e1:0x368fbae5a0ffeb92!8m2!3d18.392358!4d77.1198657!16s%2Fg%2F11vbg2rkgs!19sChIJ4WLCR-arzzsRkuv_oOW6jzY?authuser=0&hl=en&rclk=1,"18.392357999999998,77.11986569999999"
Sabitya Masjid,Mosque,"94J6+M4P Sabitya Masjid, Malkapur, Udgir, Maharashtra 413517",Malkapur,94J6+M4P,Udgir,413517,Maharashtra,IN,https://www.google.com/maps/place/Sabitya+Masjid/data=!4m7!3m6!1s0x3bcfaa1bb8315555:0xedd58eca888becf3!8m2!3d18.3817137!4d77.1103348!16s%2Fg%2F11kj3f186m!19sChIJVVUxuBuqzzsR8-yLiMqO1e0?authuser=0&hl=en&rclk=1,"18.3817137,77.11033479999999"
Shahid Abdul Khadar masjid,Mosque,"C42G+QJX Shahid Abdul Khadar masjid, Jalkot Rd, Shivneri, Udgir, Maharashtra 413517",Shivneri,"C42G+QJX, Jalkot Rd",Udgir,413517,Maharashtra,IN,https://www.google.com/maps/place/Shahid+Abdul+Khadar+masjid/data=!4m7!3m6!1s0x3bcfab20f68a7f6d:0xc198f06a0e1b5ee4!8m2!3d18.4019948!4d77.1266037!16s%2Fg%2F11k4341whf!19sChIJbX-K9iCrzzsR5F4bDmrwmME?authuser=0&hl=en&rclk=1,"18.4019948,77.12660369999999"
Masjid Arqum,Mosque,"Masjid Arqum, Qilla galli, Jijau Nagar, Ramchandra Nagar, Udgir, Maharashtra 413517","Jijau Nagar, Ramchandra Nagar",Qilla galli,Udgir,413517,Maharashtra,IN,https://www.google.com/maps/place/Masjid+Arqum/data=!4m7!3m6!1s0x3bcfaa234299f1fd:0x77e50f6b60fd5ab2!8m2!3d18.3942881!4d77.1126008!16s%2Fg%2F11gf954ps6!19sChIJ_fGZQiOqzzsRslr9YGsP5Xc?authuser=0&hl=en&rclk=1,"18.3942881,77.1126008"
Masjid,Mosque,"94JG+3XJ Masjid, Vikas Nagar, Udgir, Maharashtra 413517",Vikas Nagar,94JG+3XJ,Udgir,413517,Maharashtra,IN,https://www.google.com/maps/place/Masjid/data=!4m7!3m6!1s0x3bcfabb862ab7adb:0x7998c7c9c20b38ea!8m2!3d18.3801934!4d77.1272005!16s%2Fg%2F11sv11wv_2!19sChIJ23qrYrirzzsR6jgLwsnHmHk?authuser=0&hl=en&rclk=1,"18.3801934,77.1272005"
Khankha masjid,Mosque,"94V9+X62 Khankha masjid, Khadkali, Udgir, Maharashtra 413517",Khadkali,94V9+X62,Udgir,413517,Maharashtra,IN,https://www.google.com/maps/place/Khankha+masjid/data=!4m7!3m6!1s0x3bcfab2e3962c9f7:0xa04c5058e28e31e4!8m2!3d18.3948837!4d77.1180216!16s%2Fg%2F11nyfx_ppd!19sChIJ98liOS6rzzsR5DGO4lhQTKA?authuser=0&hl=en&rclk=1,"18.394883699999998,77.11802159999999"
Masjide Mirza maheboob beg,Mosque,"C42H+44P Masjide Mirza maheboob beg, Shivneri, Udgir, Maharashtra 413517",Shivneri,C42H+44P,Udgir,413517,Maharashtra,IN,https://www.google.com/maps/place/Masjide+Mirza+maheboob+beg/data=!4m7!3m6!1s0x3bcfab4c243171c7:0x72afeaaa65a0660c!8m2!3d18.4000424!4d77.1269558!16s%2Fg%2F11kj6jhb8w!19sChIJx3ExJEyrzzsRDGagZarqr3I?authuser=0&hl=en&rclk=1,"18.4000424,77.12695579999999"
MASJID - E - MAQBARA NAWABAN,Mosque,"94R8+P49 MASJID - E - MAQBARA NAWABAN, Ramchandra Nagar, Udgir, Maharashtra 413517",Ramchandra Nagar,94R8+P49,Udgir,413517,Maharashtra,IN,https://www.google.com/maps/place/MASJID+-+E+-+MAQBARA+NAWABAN/data=!4m7!3m6!1s0x3bcfab8b569521c3:0x60b0becb6492040d!8m2!3d18.3917853!4d77.115371!16s%2Fg%2F11vd0fgftb!19sChIJwyGVVourzzsRDQSSZMu-sGA?authuser=0&hl=en&rclk=1,"18.3917853,77.115371"
Masjid E Khwaja pura,Mosque,"94XC+J2Q Masjid E Khwaja pura, Dabir Poora, Khadkali, Udgir, Maharashtra 413517","Dabir Poora, Khadkali",94XC+J2Q,Udgir,,Maharashtra,IN,https://www.google.com/maps/place/Masjid+E+Khwaja+pura/data=!4m7!3m6!1s0x3bcfabd2af46b4e3:0xf86040956112f601!8m2!3d18.399088!4d77.1201181!16s%2Fg%2F11ts3fjz5v!19sChIJ47RGr9KrzzsRAfYSYZVAYPg?authuser=0&hl=en&rclk=1,"18.399088,77.1201181"
Masjid-E-Awad,Mosque,"Masjid-E-Awad, Ali Nagar Dam Road, near Udgir, Samta Nagar, Udgir, Maharashtra 413517",Samta Nagar,"Ali Nagar Dam Road, near Udgir",Udgir,413517,Maharashtra,IN,https://www.google.com/maps/place/Masjid-E-Awad/data=!4m7!3m6!1s0x3bcfab56e0ed5a23:0x1308187230c0d915!8m2!3d18.3801548!4d77.1091883!16s%2Fg%2F11l752h4mc!19sChIJI1rt4FarzzsRFdnAMHIYCBM?authuser=0&hl=en&rclk=1,"18.3801548,77.1091883"
Inamul-ul-hasan masjid,School,"C424+CXJ Inamul-ul-hasan masjid, Malkapur, Udgir, Maharashtra 413517",Malkapur,C424+CXJ,Udgir,413517,Maharashtra,IN,https://www.google.com/maps/place/Inamul-ul-hasan+masjid/data=!4m7!3m6!1s0x3bcfabeaed1e7767:0xf1fe2c83afb73e!8m2!3d18.4010931!4d77.1074034!16s%2Fg%2F11fmbxpvdb!19sChIJZ3ce7eqrzzsRPrevgyz-8QA?authuser=0&hl=en&rclk=1,"18.4010931,77.1074034"
