name,main_category,address,address_ward,address_street,address_city,address_postal_code,address_state,address_country_code,link,coordinates
Hasan Gouri Masjid,Mosque,"3VWW+86W Hasan Gouri Masjid, Guwalda, Rajasthan 301411",,3VWW+86W,Guwalda,,Rajasthan,IN,https://www.google.com/maps/place/Hasan+Gouri+Masjid/data=!4m7!3m6!1s0x390d3467820818e1:0x4b552f09b0820565!8m2!3d28.0958671!4d76.8955653!16s%2Fg%2F11gf3t4gr2!19sChIJ4RgIgmc0DTkRZQWCsAkvVUs?authuser=0&hl=en&rclk=1,"28.0958671,76.8955653"
HAJI WALI MASJID,Mosque,"HAJI WALI MASJID, Ghasera, Haryana 122103",,,Ghasera,122103,Haryana,IN,https://www.google.com/maps/place/HAJI+WALI+MASJID/data=!4m7!3m6!1s0x390d2d37a097eb09:0x9645be1f690971b1!8m2!3d28.1282928!4d77.073101!16s%2Fg%2F11r1gpc6gg!19sChIJCeuXoDctDTkRsXEJaR--RZY?authuser=0&hl=en&rclk=1,"28.128292799999997,77.073101"
Bhagat Singh Chowk - Dharuhera,Historical landmark,"Bhagat Singh Chowk - Dharuhera, NH 8, near bestech city mall, Dharuhera, Haryana 123106",,"NH 8, near bestech city mall",Dharuhera,123106,Haryana,IN,https://www.google.com/maps/place/Bhagat+Singh+Chowk+-+Dharuhera/data=!4m7!3m6!1s0x390d49b547cf4881:0x8cbf1f35cce8ba68!8m2!3d28.2056606!4d76.7914639!16s%2Fg%2F11nns2vsq5!19sChIJgUjPR7VJDTkRaLrozDUfv4w?authuser=0&hl=en&rclk=1,"28.205660599999998,76.7914639"
Town Park,Park,"6Q5Q+5WJ Town Park, Dharuhera, Haryana 123106",,6Q5Q+5WJ,Dharuhera,123106,Haryana,IN,https://www.google.com/maps/place/Town+Park/data=!4m7!3m6!1s0x390d487a3d419955:0x841b981c8e674096!8m2!3d28.2079693!4d76.7897602!16s%2Fg%2F1hm24p9y9!19sChIJVZlBPXpIDTkRlkBnjhyYG4Q?authuser=0&hl=en&rclk=1,"28.2079693,76.7897602"
Jama Masjid Pataudi Chowk,Mosque,"8QFG+PJ5 Jama Masjid Pataudi Chowk, Sher Shah Suri Rd, Pataudi, Haryana 122503",,"8QFG+PJ5, Sher Shah Suri Rd",Pataudi,122503,Haryana,IN,https://www.google.com/maps/place/Jama+Masjid+Pataudi+Chowk/data=!4m7!3m6!1s0x390d41fdca3a5b95:0xe39b3af209efcb72!8m2!3d28.3242511!4d76.7766043!16s%2Fg%2F11k5vzg5w3!19sChIJlVs6yv1BDTkRcsvvCfI6m-M?authuser=0&hl=en&rclk=1,"28.324251099999998,76.7766043"
Jama Masjid,Mosque,"6J29+948 Jama Masjid, Kayasthwara Mohalla, Rewari, Kanmajra, Haryana 123401",Kayasthwara Mohalla,6J29+948,"Rewari, Kanmajra",123401,Haryana,IN,https://www.google.com/maps/place/Jama+Masjid/data=!4m7!3m6!1s0x390d5a9f79665751:0x8f45f817913a0c5a!8m2!3d28.2009209!4d76.6178169!16s%2Fg%2F11h0_z_pg!19sChIJUVdmeZ9aDTkRWgw6kRf4RY8?authuser=0&hl=en&rclk=1,"28.2009209,76.6178169"
Madni Jama Masjid,Mosque,"6V5P+34J Madni Jama Masjid, Khori Kalan, Haryana 122015",,6V5P+34J,Khori Kalan,122015,Haryana,IN,https://www.google.com/maps/place/Madni+Jama+Masjid/data=!4m7!3m6!1s0x390d376e6d9e6c15:0x2d85391f7c435653!8m2!3d28.207719!4d76.8852533!16s%2Fg%2F11c20d2f_n!19sChIJFWyebW43DTkRU1ZDfB85hS0?authuser=0&hl=en&rclk=1,"28.207718999999997,76.8852533"
Jama Masjid,Mosque,"6V88+2HP Jama Masjid, Bhiwadi, Rajasthan 301019",,6V88+2HP,Bhiwadi,301019,Rajasthan,IN,https://www.google.com/maps/place/Jama+Masjid/data=!4m7!3m6!1s0x390d37838aceeaff:0xc7820228e8a39e81!8m2!3d28.2150914!4d76.8664496!16s%2Fg%2F11gbx9x0cz!19sChIJ_-rOioM3DTkRgZ6j6CgCgsc?authuser=0&hl=en&rclk=1,"28.2150914,76.8664496"
Masjid Galpur,Mosque,"3R5M+QPR Masjid Galpur, gailpur front of, Alwar - Bhiwadi Rd, Tijara, Rajasthan 301707",,"3R5M+QPR, gailpur front of, Alwar - Bhiwadi Rd","Tijara, Gelpur",301707,Rajasthan,IN,https://www.google.com/maps/place/Masjid+Galpur/data=!4m7!3m6!1s0x390d35671fe48725:0xc108195667084f80!8m2!3d28.0594969!4d76.8342577!16s%2Fg%2F11gf9fw65b!19sChIJJYfkH2c1DTkRgE8IZ1YZCME?authuser=0&hl=en&rclk=1,"28.0594969,76.8342577"
Masjid Abu Bakar msjd bwbkhr,Mosque,"6X76+QMV Masjid Abu Bakar msjd bwbkhr, sarpanch market sohna rod baypaas, Tauru, Haryana 122105",,"6X76+QMV, sarpanch market sohna rod baypaas","Tauru, Taorurural",122105,Haryana,IN,https://www.google.com/maps/place/Masjid+Abu+Bakar+%D9%85%D8%B3%D8%AC%D8%AF+%D8%A7%D8%A8%D9%88%D8%A8%DA%A9%D8%B1%E2%80%AD/data=!4m7!3m6!1s0x390d3089811e40e9:0x6537ba34315fcd62!8m2!3d28.2144766!4d76.9616797!16s%2Fg%2F11f4l9kkln!19sChIJ6UAegYkwDTkRYs1fMTS6N2U?authuser=0&hl=en&rclk=1,"28.214476599999998,76.96167969999999"
mrkjii msjid kheddii,Mosque,"5W76+HCM mrkjii msjid kheddii, Kheri, Rajasthan 301018",,5W76+HCM,Kheri,,Rajasthan,IN,https://www.google.com/maps/place/%E0%A4%AE%E0%A4%B0%E0%A4%95%E0%A4%9C%E0%A5%80+%E0%A4%AE%E0%A4%B8%E0%A5%8D%E0%A4%9C%E0%A4%BF%E0%A4%A6+%E0%A4%96%E0%A5%87%E0%A4%A1%E0%A5%80/data=!4m7!3m6!1s0x390d36ceb64a7cb1:0x601f07093e79f0a7!8m2!3d28.1639552!4d76.9110528!16s%2Fg%2F11hctyzfw8!19sChIJsXxKts42DTkRp_B5PgkHH2A?authuser=0&hl=en&rclk=1,"28.1639552,76.9110528"
jama masjid karenda,Mosque,"5V9W+5PG jama masjid karenda, Karenda, Rajasthan 301018",,5V9W+5PG,Karenda,,Rajasthan,IN,https://www.google.com/maps/place/jama+masjid+karenda/data=!4m7!3m6!1s0x390d36dd3493f3f5:0x37358cb0ed0f0688!8m2!3d28.1679304!4d76.8968333!16s%2Fg%2F11f5237zwx!19sChIJ9fOTNN02DTkRiAYP7bCMNTc?authuser=0&hl=en&rclk=1,"28.1679304,76.8968333"
Dhaka Basti Masjid,Mosque,"5JRC+PGV Dhaka Basti Masjid, Rajeev Nagar, krishna Nagar, Rewari, Haryana 123401","Rajeev Nagar, krishna Nagar",5JRC+PGV,Rewari,123401,Haryana,IN,https://www.google.com/maps/place/Dhaka+Basti+Masjid/data=!4m7!3m6!1s0x390d500c9486d085:0xf39f260c28ea5228!8m2!3d28.1918701!4d76.6212863!16s%2Fg%2F11f2w5j6wq!19sChIJhdCGlAxQDTkRKFLqKAwmn_M?authuser=0&hl=en&rclk=1,"28.1918701,76.6212863"
Jama Masjid Guwalda,Mosque,"4V6V+3GG Jama Masjid Guwalda, Guwalda, Rajasthan 301707",,4V6V+3GG,Guwalda,301707,Rajasthan,IN,https://www.google.com/maps/place/Jama+Masjid+Guwalda/data=!4m7!3m6!1s0x390d3446aaaaaaa9:0x6fd826dd23dae888!8m2!3d28.1101824!4d76.8938403!16s%2Fg%2F11fxdy1bfp!19sChIJqaqqqkY0DTkRiOjaI90m2G8?authuser=0&hl=en&rclk=1,"28.1101824,76.8938403"
Jama Masjid,Mosque,"7XHF+J86 Jama Masjid, Mohammadpur Ahir, Haryana 122105",,7XHF+J86,Mohammadpur Ahir,122105,Haryana,IN,https://www.google.com/maps/place/Jama+Masjid/data=!4m7!3m6!1s0x390d3b028699b707:0xac33367e0033dbb2!8m2!3d28.2790473!4d76.9732685!16s%2Fg%2F11c1szbrd8!19sChIJB7eZhgI7DTkRstszAH42M6w?authuser=0&hl=en&rclk=1,"28.2790473,76.9732685"
Jama Masjid,Mosque,"7V3H+MJ5 Jama Masjid, Utoon, Haryana 122015",,7V3H+MJ5,Utoon,122015,Haryana,IN,https://www.google.com/maps/place/Jama+Masjid/data=!4m7!3m6!1s0x390d39b16e9dc317:0xe0338f4798f598c4!8m2!3d28.2541391!4d76.8790972!16s%2Fg%2F11hbn368zx!19sChIJF8OdbrE5DTkRxJj1mEePM-A?authuser=0&hl=en&rclk=1,"28.2541391,76.87909719999999"
raza jama masjed,Mosque,"5VXC+QR6 raza jama masjed, RIICO Industrial Area, Bhiwadi, Rajasthan 301019",RIICO Industrial Area,5VXC+QR6,Bhiwadi,301019,Rajasthan,IN,https://www.google.com/maps/place/raza+jama+masjed/data=!4m7!3m6!1s0x390d37a0076be8b1:0x178a1afa2e72c660!8m2!3d28.1994019!4d76.8720255!16s%2Fg%2F11hbg9wb3k!19sChIJsehrB6A3DTkRYMZyLvoaihc?authuser=0&hl=en&rclk=1,"28.199401899999998,76.87202549999999"
Eidgah Masjid Dhulawat,Mosque,"6265+Q7H Eidgah Masjid Dhulawat, Dhulawat, Haryana 122103",,6265+Q7H,Dhulawat,122103,Haryana,IN,https://www.google.com/maps/place/Eidgah+Masjid+Dhulawat/data=!4m7!3m6!1s0x390d31b74a94e075:0x457531365d6eeaae!8m2!3d28.2119416!4d77.0082209!16s%2Fg%2F11h00k797c!19sChIJdeCUSrcxDTkRrupuXTYxdUU?authuser=0&hl=en&rclk=1,"28.2119416,77.0082209"
Aqsha Masjid,Mosque,"6X6Q+4W2 Aqsha Masjid, Raheri, Haryana 122103",,6X6Q+4W2,Raheri,122103,Haryana,IN,https://www.google.com/maps/place/Aqsha+Masjid/data=!4m7!3m6!1s0x390d303fc96dc523:0x7de38ec6173f5970!8m2!3d28.2102553!4d76.9897513!16s%2Fg%2F11gfdspw5h!19sChIJI8VtyT8wDTkRcFk_F8aO430?authuser=0&hl=en&rclk=1,"28.2102553,76.9897513"
Masjid Ayesha,Mosque,"4VP2+6Q2 Masjid Ayesha, Unnamed Road, Khatiwas, Rajasthan 301707",,"4VP2+6Q2, Unnamed Road",Khatiwas,301707,Rajasthan,IN,https://www.google.com/maps/place/Masjid+Ayesha/data=!4m7!3m6!1s0x390d37026827fb65:0xe89809109bdab680!8m2!3d28.1355236!4d76.8518852!16s%2Fg%2F11h0ykcrk8!19sChIJZfsnaAI3DTkRgLbamxAJmOg?authuser=0&hl=en&rclk=1,"28.1355236,76.8518852"
Islampur Masjid,Mosque,"4XJG+89P Islampur Masjid, Sonkh, Haryana 122107",,4XJG+89P,Sonkh,122107,Haryana,IN,https://www.google.com/maps/place/Islampur+Masjid/data=!4m7!3m6!1s0x390d32255fd0ede9:0x65fed293eed28b8b!8m2!3d28.1308327!4d76.9759648!16s%2Fg%2F11gdddykb2!19sChIJ6e3QXyUyDTkRi4vS7pPS_mU?authuser=0&hl=en&rclk=1,"28.1308327,76.9759648"
Jaama Masjid,Mosque,"5RC8+4G2 Jaama Masjid, Udaipur, Rajasthan 301018",,5RC8+4G2,Udaipur,301018,Rajasthan,IN,https://www.google.com/maps/place/Jaama+Masjid/data=!4m7!3m6!1s0x390d49d2c3cee6a9:0x3532684b69dd4498!8m2!3d28.170259!4d76.8162561!16s%2Fg%2F11gf62chw9!19sChIJqebOw9JJDTkRmETdaUtoMjU?authuser=0&hl=en&rclk=1,"28.170258999999998,76.81625609999999"
Juma Masjid Pathradi Ind. Area,Mosque,"4VGJ+H2J Juma Masjid Pathradi Ind. Area, Khohri Kalan, Rajasthan 301707",,4VGJ+H2J,Khohri Kalan,301707,Rajasthan,IN,https://www.google.com/maps/place/Juma+Masjid+Pathradi+Ind.+Area/data=!4m7!3m6!1s0x390d34292e2f7f5d:0x3b6468ecd698ce48!8m2!3d28.1264647!4d76.8800089!16s%2Fg%2F11dfwfddjg!19sChIJXX8vLik0DTkRSM6Y1uxoZDs?authuser=0&hl=en&rclk=1,"28.1264647,76.88000889999999"
Madina masjid Nibhaheri,Mosque,"3VJH+QPP Madina masjid Nibhaheri, Nibaheri, Rajasthan 301411",,3VJH+QPP,Nibaheri,,Rajasthan,IN,https://www.google.com/maps/place/Madina+masjid+Nibhaheri/data=!4m7!3m6!1s0x390d354cd3724eb9:0x57f377cc3632c079!8m2!3d28.0819701!4d76.8793332!16s%2Fg%2F11hh3kwdkq!19sChIJuU5y00w1DTkRecAyNsx381c?authuser=0&hl=en&rclk=1,"28.0819701,76.87933319999999"
Jama Masjid,Mosque,"4VW3+PQ6 Jama Masjid, Jhiwana, Rajasthan 301707",,4VW3+PQ6,Jhiwana,301707,Rajasthan,IN,https://www.google.com/maps/place/Jama+Masjid/data=!4m7!3m6!1s0x390d366bf9574d03:0x77ae712d1e974729!8m2!3d28.1467977!4d76.8543971!16s%2Fg%2F11f3mbfr4y!19sChIJA01X-Ws2DTkRKUeXHi1xrnc?authuser=0&hl=en&rclk=1,"28.1467977,76.8543971"
Kheda Salafi Masjid,Mosque,"33QX+JMP Kheda Salafi Masjid, Bainsi, Haryana 122107",,33QX+JMP,Bainsi,122107,Haryana,IN,https://www.google.com/maps/place/Kheda+Salafi+Masjid/data=!4m7!3m6!1s0x390d2d6d2b504c07:0xdbbab25cfdcd6c9e!8m2!3d28.0890796!4d77.0992023!16s%2Fg%2F11f730xkxf!19sChIJB0xQK20tDTkRnmzN_Vyyuts?authuser=0&hl=en&rclk=1,"28.089079599999998,77.0992023"
jama masjid nurani jm` msjd nwrny,Mosque,"5WV8+9PC jama masjid nurani jm` msjd nwrny, taoro, Gurnawat, Haryana",,"5WV8+9PC, taoro",Gurnawat,,Haryana,IN,https://www.google.com/maps/place/jama+masjid+nurani+%D8%AC%D8%A7%D9%85%D8%B9+%D9%85%D8%B3%D8%AC%D8%AF+%D9%86%D9%88%D8%B1%D8%A7%D9%86%DB%8C%E2%80%AD/data=!4m7!3m6!1s0x390d37329809b9e3:0x71b6eddbb1167e64!8m2!3d28.1934293!4d76.916771!16s%2Fg%2F11f4m9z0jf!19sChIJ47kJmDI3DTkRZH4WsdvttnE?authuser=0&hl=en&rclk=1,"28.1934293,76.916771"
haajii shhiid vaalii msjid,Mosque,"5XCG+R3F haajii shhiid vaalii msjid, Chharora, Haryana 122103",,5XCG+R3F,Chharora,122103,Haryana,IN,https://www.google.com/maps/place/%E0%A4%B9%E0%A4%BE%E0%A4%9C%E0%A5%80+%E0%A4%B6%E0%A4%B9%E0%A5%80%E0%A4%A6+%E0%A4%B5%E0%A4%BE%E0%A4%B2%E0%A5%80+%E0%A4%AE%E0%A4%B8%E0%A5%8D%E0%A4%9C%E0%A4%BF%E0%A4%A6/data=!4m7!3m6!1s0x390d31a4d0be9209:0x3e6b664ccaacf167!8m2!3d28.1720696!4d76.9751793!16s%2Fg%2F11gbxd0_h6!19sChIJCZK-0KQxDTkRZ_Gsykxmaz4?authuser=0&hl=en&rclk=1,"28.1720696,76.9751793"
Eid Gah Masjid,Mosque,"W46F+6JC Eid Gah Masjid, Ter, Haryana 122508",,W46F+6JC,Ter,122508,Haryana,IN,https://www.google.com/maps/place/Eid+Gah+Masjid/data=!4m7!3m6!1s0x3972d73da01868e5:0xb92d8893abf34be3!8m2!3d27.9105655!4d77.1240301!16s%2Fg%2F11f2xn4mzn!19sChIJ5WgYoD3XcjkR40vzq5OILbk?authuser=0&hl=en&rclk=1,"27.910565499999997,77.1240301"
Madina Masjid Aakera on Road,Mosque,"2286+9FC Madina Masjid Aakera on Road, Akera, Haryana 122108",,2286+9FC,Akera,,Haryana,IN,https://www.google.com/maps/place/Madina+Masjid+Aakera+on+Road/data=!4m7!3m6!1s0x3972d3cab0a82619:0xb47bf630c1c41922!8m2!3d28.0159316!4d77.01114!16s%2Fg%2F11fl8_d_cw!19sChIJGSaosMrTcjkRIhnEwTD2e7Q?authuser=0&hl=en&rclk=1,"28.0159316,77.01114"
Madina Markaz Masjid Dhulawat (Mod Vali),Mosque,"6264+948 Madina Markaz Masjid Dhulawat (Mod Vali), Dhulawat, Haryana 122103",,6264+948,Dhulawat,122103,Haryana,IN,https://www.google.com/maps/place/Madina+Markaz+Masjid+Dhulawat+%28Mod+Vali%29/data=!4m7!3m6!1s0x390d31be998a04c7:0xb73540685c0c72f!8m2!3d28.2109044!4d77.0053397!16s%2Fg%2F11ff0w559f!19sChIJxwSKmb4xDTkRL8fAhQZUcws?authuser=0&hl=en&rclk=1,"28.2109044,77.0053397"
Masjid Johad Wali,Mosque,"5VF2+CR3 Masjid Johad Wali, Godhan, Rajasthan 301019",,5VF2+CR3,Godhan,,Rajasthan,IN,https://www.google.com/maps/place/Masjid+Johad+Wali/data=!4m7!3m6!1s0x390d37445fa92815:0xfd935e9b8954c32c!8m2!3d28.1735001!4d76.8520531!16s%2Fg%2F11kvpmpf74!19sChIJFSipX0Q3DTkRLMNUiZtek_0?authuser=0&hl=en&rclk=1,"28.1735001,76.85205309999999"
Jaama Masjid,Mosque,"X2MF+2GV Jaama Masjid, Gandoori, Haryana 122108",,X2MF+2GV,Gandoori,122108,Haryana,IN,https://www.google.com/maps/place/Jaama+Masjid/data=!4m7!3m6!1s0x3972d3d5a6ae8c23:0x1284fb36a93c075d!8m2!3d27.9826217!4d77.0238054!16s%2Fg%2F11fkgqdc01!19sChIJI4yuptXTcjkRXQc8qTb7hBI?authuser=0&hl=en&rclk=1,"27.9826217,77.0238054"
Eidgaah masjid,Mosque,"6V4Q+WVR Eidgaah masjid, Haryana 122015",,6V4Q+WVR,,122015,Haryana,IN,https://www.google.com/maps/place/Eidgaah+masjid/data=!4m7!3m6!1s0x390d3769558e25e3:0x41b2327e9c7d82fd!8m2!3d28.2073643!4d76.8896302!16s%2Fg%2F11g71y0lyz!19sChIJ4yWOVWk3DTkR_YJ9nH4yskE?authuser=0&hl=en&rclk=1,"28.2073643,76.8896302"
Madarsa Madinatul Uloom Masjid,Mosque,"Madarsa Madinatul Uloom Masjid, Unnamed Road, 301707, Jhiwana, Rajasthan",,"Unnamed Road, 301707",Jhiwana,,Rajasthan,IN,https://www.google.com/maps/place/Madarsa+Madinatul+Uloom+Masjid/data=!4m7!3m6!1s0x390d366f2c5f7549:0x8d81deffc15b921a!8m2!3d28.1466654!4d76.858157!16s%2Fg%2F11f105dw81!19sChIJSXVfLG82DTkRGpJbwf_egY0?authuser=0&hl=en&rclk=1,"28.1466654,76.85815699999999"
Jumma Masjid Tapukara,Mosque,"4R2J+G5Q Jumma Masjid Tapukara, Tapukara, Rajasthan 301707",,4R2J+G5Q,Tapukara,301707,Rajasthan,IN,https://www.google.com/maps/place/Jumma+Masjid+Tapukara/data=!4m7!3m6!1s0x390d3501744e9b0b:0x4e01297e6a21cfec!8m2!3d28.1013412!4d76.8304934!16s%2Fg%2F11ptv5p9d8!19sChIJC5tOdAE1DTkR7M8han4pAU4?authuser=0&hl=en&rclk=1,"28.1013412,76.8304934"
Badi Jama Masjid Pathredi,Mosque,"4VRG+38X Badi Jama Masjid Pathredi, Pathredi, Rajasthan 301018",,4VRG+38X,Pathredi,,Rajasthan,IN,https://www.google.com/maps/place/Badi+Jama+Masjid+Pathredi/data=!4m7!3m6!1s0x390d3686599b175b:0xee6106fe1b822b52!8m2!3d28.1402303!4d76.8758561!16s%2Fg%2F11g0260zhv!19sChIJWxebWYY2DTkRUiuCG_4GYe4?authuser=0&hl=en&rclk=1,"28.1402303,76.8758561"
madina Masjid Bhonker,Mosque,"3R36+JRF madina Masjid Bhonker, Bhonkar, Rajasthan 301707",,3R36+JRF,Bhonkar,301707,Rajasthan,IN,https://www.google.com/maps/place/madina+Masjid+Bhonker/data=!4m7!3m6!1s0x390d4abd0f719ef5:0x2d9702e0dfe932d0!8m2!3d28.0540661!4d76.8120386!16s%2Fg%2F11f3nb3lm7!19sChIJ9Z5xD71KDTkR0DLp3-ACly0?authuser=0&hl=en&rclk=1,"28.0540661,76.8120386"
Haji Yasin Masjid Kharkhadi,Mosque,"4WW5+WGH Haji Yasin Masjid Kharkhadi, Kharkhari, Sare Kalan, Rajasthan 301707",,4WW5+WGH,"Kharkhari, Sare Kalan",301707,Rajasthan,IN,https://www.google.com/maps/place/Haji+Yasin+Masjid+Kharkhadi/data=!4m7!3m6!1s0x390d375a4ea2c26d:0x68c34049d82d1504!8m2!3d28.1473152!4d76.9088446!16s%2Fg%2F11k10_6qrc!19sChIJbcKiTlo3DTkRBBUt2ElAw2g?authuser=0&hl=en&rclk=1,"28.147315199999998,76.9088446"
Masjid karendi,Mosque,"5VGW+RH6 Masjid karendi, Unnamed Road, Karendi, Karenda, Rajasthan 301018",,"5VGW+RH6, Unnamed Road","Karendi, Karenda",,Rajasthan,IN,https://www.google.com/maps/place/Masjid+karendi/data=!4m7!3m6!1s0x390d372e7cfa2383:0x11302add65d339cf!8m2!3d28.1770416!4d76.8963939!16s%2Fg%2F11qnk8yr97!19sChIJgyP6fC43DTkRzznTZd0qMBE?authuser=0&hl=en&rclk=1,"28.1770416,76.89639389999999"
Aqsha Masjid,Mosque,"22CH+7W6 Aqsha Masjid, Dehana, Haryana 122108",,22CH+7W6,Dehana,122108,Haryana,IN,https://www.google.com/maps/place/Aqsha+Masjid/data=!4m7!3m6!1s0x3972d32611cd67bd:0x78b37864fbe338a1!8m2!3d28.0206611!4d77.029778!16s%2Fg%2F11h9g3_hhx!19sChIJvWfNESbTcjkRoTjj-2R4s3g?authuser=0&hl=en&rclk=1,"28.020661099999998,77.029778"
Masjid,Mosque,"W38P+95P Masjid, Dadola, Haryana 122108",,W38P+95P,Dadola,122108,Haryana,IN,https://www.google.com/maps/place/Masjid/data=!4m7!3m6!1s0x3972d0d9546f467f:0x4c22b9d8052c7d1d!8m2!3d27.915952!4d77.0854546!16s%2Fg%2F11dxq2mq3b!19sChIJf0ZvVNnQcjkRHX0sBdi5Ikw?authuser=0&hl=en&rclk=1,"27.915951999999997,77.08545459999999"
Badi Masjid Sunari,Mosque,"6WC4+934 Badi Masjid Sunari, Sunari, Haryana 122015",,6WC4+934,Sunari,122015,Haryana,IN,https://www.google.com/maps/place/Badi+Masjid+Sunari/data=!4m7!3m6!1s0x390d37b1a8c9e905:0x4fdbbc16a30d02a5!8m2!3d28.2208998!4d76.9052088!16s%2Fg%2F11m0sxn2c9!19sChIJBenJqLE3DTkRpQINoxa8208?authuser=0&hl=en&rclk=1,"28.220899799999998,76.9052088"
Masjid,Mosque,"5VC2+RQ4 Masjid, Godhan, Rajasthan 301018",,5VC2+RQ4,Godhan,301018,Rajasthan,IN,https://www.google.com/maps/place/Masjid/data=!4m7!3m6!1s0x390d37aa883f0a01:0x6d2f1732f6537104!8m2!3d28.1720035!4d76.8519385!16s%2Fg%2F11lpwzj679!19sChIJAQo_iKo3DTkRBHFT9jIXL20?authuser=0&hl=en&rclk=1,"28.1720035,76.8519385"
Aqsha Masjid Bandapur,Mosque,"5V4M+VGR Aqsha Masjid Bandapur, Bandapur, Rajasthan 301707",,5V4M+VGR,Bandapur,301707,Rajasthan,IN,https://www.google.com/maps/place/Aqsha+Masjid+Bandapur/data=!4m7!3m6!1s0x390d3700d7f09205:0x551a0e428bdfb790!8m2!3d28.1572417!4d76.8837716!16s%2Fg%2F11fml2tnvf!19sChIJBZLw1wA3DTkRkLffi0IOGlU?authuser=0&hl=en&rclk=1,"28.1572417,76.8837716"
masjid aqsa,Mosque,"4VF8+VCV masjid aqsa, Khohari, Rajasthan 301707",,4VF8+VCV,Khohari,301707,Rajasthan,IN,https://www.google.com/maps/place/masjid+aqsa/data=!4m7!3m6!1s0x390d35cf0caec921:0xcc5bfa53677c0966!8m2!3d28.1247255!4d76.8660382!16s%2Fg%2F11n916ln6_!19sChIJIcmuDM81DTkRZgl8Z1P6W8w?authuser=0&hl=en&rclk=1,"28.1247255,76.86603819999999"
JAMA MASJID HUSAIPUR,Mosque,"5V3X+CRQ JAMA MASJID HUSAIPUR, Husaipur, Rajasthan 301018",,5V3X+CRQ,Husaipur,301018,Rajasthan,IN,https://www.google.com/maps/place/JAMA+MASJID+HUSAIPUR/data=!4m7!3m6!1s0x390d3798c2f90561:0xbac268edf4962bd2!8m2!3d28.153593!4d76.8996121!16s%2Fg%2F11kgt25nb3!19sChIJYQX5wpg3DTkR0iuW9O1owro?authuser=0&hl=en&rclk=1,"28.153592999999997,76.8996121"
Makki masjid Aazad nagar,Mosque,"Makki masjid Aazad nagar, Khori Kalan, Haryana 301019",,,Khori Kalan,,Haryana,IN,https://www.google.com/maps/place/Makki+masjid+Aazad+nagar/data=!4m7!3m6!1s0x390d37f060f6a38b:0x2e7c75430c5e58ee!8m2!3d28.2097752!4d76.8748258!16s%2Fg%2F11hz6rp163!19sChIJi6P2YPA3DTkR7lheDEN1fC4?authuser=0&hl=en&rclk=1,"28.2097752,76.8748258"
Madina Masjid,Mosque,"6V2G+3QX Madina Masjid, Rampura, Rajasthan 301019",,6V2G+3QX,Rampura,301019,Rajasthan,IN,https://www.google.com/maps/place/Madina+Masjid/data=!4m7!3m6!1s0x390d3772e49f2a21:0x925ae5a65968bc59!8m2!3d28.2002274!4d76.876978!16s%2Fg%2F11j07vw8kw!19sChIJISqf5HI3DTkRWbxoWablWpI?authuser=0&hl=en&rclk=1,"28.2002274,76.876978"
Masjid Hussainia,Mosque,"5JX8+749 Masjid Hussainia, Kayasthwara Mohalla, Kanmajra, Haryana 123401",Kayasthwara Mohalla,5JX8+749,Kanmajra,123401,Haryana,IN,https://www.google.com/maps/place/Masjid+Hussainia/data=!4m7!3m6!1s0x390d5b2a9c445a83:0x8da9e1341e51c3fe!8m2!3d28.1981511!4d76.6153743!16s%2Fg%2F11mnc14jvz!19sChIJg1pEnCpbDTkR_sNRHjThqY0?authuser=0&hl=en&rclk=1,"28.1981511,76.6153743"
Chhoti Masjid chhwtty msjd,Mosque,"7W6R+X99 Chhoti Masjid chhwtty msjd, Sheikhpur, Haryana 122015",,7W6R+X99,Sheikhpur,122015,Haryana,IN,https://www.google.com/maps/place/Chhoti+Masjid+%DA%86%DA%BE%D9%88%D9%B9%DB%8C+%D9%85%D8%B3%D8%AC%D8%AF%E2%80%AD/data=!4m7!3m6!1s0x390d3b8b0c055839:0x76b8b9b5f6b79643!8m2!3d28.2623499!4d76.9409274!16s%2Fg%2F11thnqbr29!19sChIJOVgFDIs7DTkRQ5a39rW5uHY?authuser=0&hl=en&rclk=1,"28.2623499,76.94092739999999"
chottii msjid,Mosque,"4VW3+P72 chottii msjid, Jhiwana, Rajasthan 301707",,4VW3+P72,Jhiwana,,Rajasthan,IN,https://www.google.com/maps/place/%E0%A4%9B%E0%A5%8B%E0%A4%9F%E0%A5%80+%E0%A4%AE%E0%A4%B8%E0%A5%8D%E0%A4%9C%E0%A4%BF%E0%A4%A6/data=!4m7!3m6!1s0x390d37efb38753c3:0x67d20b9afdf6d0bc!8m2!3d28.1467748!4d76.8531322!16s%2Fg%2F11fn335vx6!19sChIJw1OHs-83DTkRvND2_ZoL0mc?authuser=0&hl=en&rclk=1,"28.1467748,76.85313219999999"
Gazi Bari Baitul Mamur Mosjid,Mosque,"4M92+QH6 Gazi Bari Baitul Mamur Mosjid, Bakhapur, Haryana 123501",,4M92+QH6,Bakhapur,,Haryana,IN,https://www.google.com/maps/place/Gazi+Bari+Baitul+Mamur+Mosjid/data=!4m7!3m6!1s0x390d4ff1d3334d05:0xf9d91f116d634e58!8m2!3d28.119408!4d76.6513787!16s%2Fg%2F11h0t6tjs6!19sChIJBU0z0_FPDTkRWE5jbREf2fk?authuser=0&hl=en&rclk=1,"28.119408,76.6513787"
MADINA MASJID,Mosque,"6W94+GPX MADINA MASJID, Sunari Rd, Sunari, Haryana 122015",,"6W94+GPX, Sunari Rd",Sunari,122015,Haryana,IN,https://www.google.com/maps/place/MADINA+MASJID/data=!4m7!3m6!1s0x390d3708abfdf1d7:0x1149aac20df6c208!8m2!3d28.2188706!4d76.9068523!16s%2Fg%2F11lrwwmvwf!19sChIJ1_H9qwg3DTkRCML2DcKqSRE?authuser=0&hl=en&rclk=1,"28.2188706,76.9068523"
Madina masjid near sokat colony,Mosque,"6V2F+GM6 Madina masjid near sokat colony, Suraj Cinema Rd, RIICO Industrial Area, Rampura, Rajasthan 301019",RIICO Industrial Area,"6V2F+GM6, Suraj Cinema Rd",Rampura,301019,Rajasthan,IN,https://www.google.com/maps/place/Madina+masjid+near+sokat+colony/data=!4m7!3m6!1s0x390d37a22032ea3b:0x19362fa244f53ce6!8m2!3d28.201287!4d76.8741527!16s%2Fg%2F11rz460hk5!19sChIJO-oyIKI3DTkR5jz1RKIvNhk?authuser=0&hl=en&rclk=1,"28.201286999999997,76.8741527"
Masjid E Juma,Mosque,"5VFJ+QCR Masjid E Juma, Unnamed Road, Gadpur, Rajasthan 301019",,"5VFJ+QCR, Unnamed Road",Gadpur,301019,Rajasthan,IN,https://www.google.com/maps/place/Masjid+E+Juma/data=!4m7!3m6!1s0x390d36fcf94938e3:0x5955b915cd2491a0!8m2!3d28.1744769!4d76.8810216!16s%2Fg%2F11hbnymtyw!19sChIJ4zhJ-fw2DTkRoJEkzRW5VVk?authuser=0&hl=en&rclk=1,"28.1744769,76.8810216"
Molvi samsuddin masjid,Mosque,"3RXX+7VM Molvi samsuddin masjid, Unnamed Road, Lakhnor, Rajasthan 301707",,"3RXX+7VM, Unnamed Road",Lakhnor,301707,Rajasthan,IN,https://www.google.com/maps/place/Molvi+samsuddin+masjid/data=!4m7!3m6!1s0x390d35d490a06af1:0x7ab5d4fcb2dca59d!8m2!3d28.0982036!4d76.849674!16s%2Fg%2F11fp8cjxx0!19sChIJ8WqgkNQ1DTkRnaXcsvzUtXo?authuser=0&hl=en&rclk=1,"28.098203599999998,76.849674"
Jama Masjid Chhapar,Mosque,"4RPW+F76 Jama Masjid Chhapar, Chhapar, Rajasthan 301707",,4RPW+F76,Chhapar,301707,Rajasthan,IN,https://www.google.com/maps/place/Jama+Masjid+Chhapar/data=!4m7!3m6!1s0x390d374d35281e15:0x7578feb662fa10a3!8m2!3d28.1361524!4d76.8456353!16s%2Fg%2F11j0z5_zl0!19sChIJFR4oNU03DTkRoxD6Yrb-eHU?authuser=0&hl=en&rclk=1,"28.1361524,76.8456353"
Masjid E Suffah Guwalda msjid e suphphaa guvaaldaa msjd Sfh gwldh,Mosque,"4V7R+C8P Masjid E Suffah Guwalda msjid e suphphaa guvaaldaa msjd Sfh gwldh, Guwalda, Rajasthan 301707",,4V7R+C8P,Guwalda,301707,Rajasthan,IN,https://www.google.com/maps/place/Masjid+E+Suffah+Guwalda+%E0%A4%AE%E0%A4%B8%E0%A5%8D%E0%A4%9C%E0%A4%BF%E0%A4%A6+%E0%A4%8F+%E0%A4%B8%E0%A5%81%E0%A4%AB%E0%A5%8D%E0%A4%AB%E0%A4%BE+%E0%A4%97%E0%A5%81%E0%A4%B5%E0%A4%BE%E0%A4%B2%E0%A4%A6%E0%A4%BE+%D9%85%D8%B3%D8%AC%D8%AF+%D8%B5%D9%81%DB%81+%DA%AF%D9%88%D8%A7%D9%84%D8%AF%DB%81%E2%80%AD/data=!4m7!3m6!1s0x390d3555d3bba091:0xb1347cda4485bde8!8m2!3d28.1135992!4d76.8908302!16s%2Fg%2F11tcl4f8y7!19sChIJkaC701U1DTkR6L2FRNp8NLE?authuser=0&hl=en&rclk=1,"28.1135992,76.8908302"
mkka masjid,Mosque,"3VJQ+W6 mkka masjid, Ubaraka, Rajasthan 301707",,3VJQ+W6,Ubaraka,301707,Rajasthan,IN,https://www.google.com/maps/place/mkka+masjid/data=!4m7!3m6!1s0x390d3508ce53ec37:0x6e2be63575e8261f!8m2!3d28.082166!4d76.88817!16s%2Fg%2F11sjcfrf7s!19sChIJN-xTzgg1DTkRHybodTXmK24?authuser=0&hl=en&rclk=1,"28.082165999999997,76.88817"
JUMMA MASJID KHIJARPUR,Mosque,"5VM3+R9 JUMMA MASJID KHIJARPUR, Khijarpur, Rajasthan 301019",,5VM3+R9,Khijarpur,,Rajasthan,IN,https://www.google.com/maps/place/JUMMA+MASJID+KHIJARPUR/data=!4m7!3m6!1s0x390d3794d3da3e8b:0x7b632799bd489a20!8m2!3d28.1846176!4d76.8534911!16s%2Fg%2F11kpgmrjf3!19sChIJiz7a05Q3DTkRIJpIvZknY3s?authuser=0&hl=en&rclk=1,"28.1846176,76.8534911"
Madarsa mundana,Mosque,"5WM5+G9W Madarsa mundana, Unnamed Road, Sewka, Haryana 122015",,"5WM5+G9W, Unnamed Road",Sewka,122015,Haryana,IN,https://www.google.com/maps/place/Madarsa+mundana/data=!4m7!3m6!1s0x390d375611bc601b:0xcfa2d84e05a34989!8m2!3d28.1838531!4d76.908463!16s%2Fg%2F11fwxhy5_4!19sChIJG2C8EVY3DTkRiUmjBU7Yos8?authuser=0&hl=en&rclk=1,"28.1838531,76.908463"
Masjid,Mosque,"VQM8+3HM Masjid, Alwar - Bhiwadi Rd, Bagthala, Rajasthan 301405",,"VQM8+3HM, Alwar - Bhiwadi Rd",Bagthala,301405,Rajasthan,IN,https://www.google.com/maps/place/Masjid/data=!4m7!3m6!1s0x3972b794f0492aaf:0xafa2b7b1dcadbbd9!8m2!3d27.8827023!4d76.7664274!16s%2Fg%2F11h0bzj5kf!19sChIJrypJ8JS3cjkR2but3LG3oq8?authuser=0&hl=en&rclk=1,"27.8827023,76.7664274"
Jumma Masjid khori kalan,Mosque,"6V8J+56 Jumma Masjid khori kalan, Khori Kalan, Haryana 122105",,6V8J+56,Khori Kalan,122105,Haryana,IN,https://www.google.com/maps/place/Jumma+Masjid+khori+kalan/data=!4m7!3m6!1s0x390d3745c9ad4589:0x70e34bfd3de5f241!8m2!3d28.215419!4d76.8805482!16s%2Fg%2F11sqv8j8nb!19sChIJiUWtyUU3DTkRQfLlPf1L43A?authuser=0&hl=en&rclk=1,"28.215418999999997,76.88054819999999"
Noor-e-Jama Masjid Sewka,Mosque,"5VPR+6R5 Noor-e-Jama Masjid Sewka, Bhiwadi - Chopanki Road, Gadpur, Amlaki, Rajasthan 301018",,"5VPR+6R5, Bhiwadi - Chopanki Road","Gadpur, Amlaki",301018,Rajasthan,IN,https://www.google.com/maps/place/Noor-e-Jama+Masjid+Sewka/data=!4m7!3m6!1s0x390d37072dba71e5:0x606092507da025d7!8m2!3d28.185511!4d76.8921113!16s%2Fg%2F11ssqg0r6j!19sChIJ5XG6LQc3DTkR1yWgfVCSYGA?authuser=0&hl=en&rclk=1,"28.185510999999998,76.8921113"
Masjid-e-atitka,Mosque,"6V4V+WW2 Masjid-e-atitka, Shahdod, Haryana 122015",,6V4V+WW2,Shahdod,,Haryana,IN,https://www.google.com/maps/place/Masjid-e-atitka/data=!4m7!3m6!1s0x390d371c3ca7ef23:0x4773b7454a66f013!8m2!3d28.2072558!4d76.8947542!16s%2Fg%2F11hf1bv81t!19sChIJI--nPBw3DTkRE_BmSkW3c0c?authuser=0&hl=en&rclk=1,"28.2072558,76.8947542"
Masjid Maseet,Mosque,"3RGJ+5J6 Masjid Maseet, Maseet, Tijara, Rajasthan 301707",,"3RGJ+5J6, Maseet","Tijara, Maseet",301707,Rajasthan,IN,https://www.google.com/maps/place/Masjid+Maseet/data=!4m7!3m6!1s0x390d357eaa5a551d:0xcac702d166a8c01e!8m2!3d28.075414!4d76.8315192!16s%2Fg%2F11g02b5w35!19sChIJHVVaqn41DTkRHsCoZtECx8o?authuser=0&hl=en&rclk=1,"28.075414,76.8315192"
Chopanki juma masjid,Mosque,"4VVM+XF7 Chopanki juma masjid, Chaupanki, Rajasthan 301018",,4VVM+XF7,Chaupanki,301018,Rajasthan,IN,https://www.google.com/maps/place/Chopanki+juma+masjid/data=!4m7!3m6!1s0x390d37ae8d6fb357:0x6b7bd5709bb0b479!8m2!3d28.1449195!4d76.883661!16s%2Fg%2F11ry3bb4j4!19sChIJV7Nvja43DTkRebSwm3DVe2s?authuser=0&hl=en&rclk=1,"28.1449195,76.883661"
Eidgah khidarpur,Mosque,"5VJ3+W74 Eidgah khidarpur, Khijarpur, Rajasthan 301019",,5VJ3+W74,Khijarpur,301019,Rajasthan,IN,https://www.google.com/maps/place/Eidgah+khidarpur/data=!4m7!3m6!1s0x390d3783c5e22de1:0xa280133d65b35703!8m2!3d28.1822644!4d76.8532109!16s%2Fg%2F11m2y6j3cc!19sChIJ4S3ixYM3DTkRA1ezZT0TgKI?authuser=0&hl=en&rclk=1,"28.182264399999998,76.8532109"
"Haji banniMasjid, bagodiya ki dhani nizampur",Place of worship,"6W47+99G Haji banniMasjid, bagodiya ki dhani nizampur, Tavdu, Bhiwadi road, nizampur, 122015",,"6W47+99G, Tavdu, Bhiwadi road","nizampur, Atitka",122015,Haryana,IN,"https://www.google.com/maps/place/Haji+banniMasjid,+bagodiya+ki+dhani+nizampur/data=!4m7!3m6!1s0x390d37e655b4accd:0xaa587512ee094577!8m2!3d28.2059425!4d76.9134429!16s%2Fg%2F11j7d__qlx!19sChIJzay0VeY3DTkRd0UJ7hJ1WKo?authuser=0&hl=en&rclk=1","28.2059425,76.91344289999999"
Masjid,Mosque,"6X62+RF6 Masjid, Tauru, Haryana 122015",,6X62+RF6,Tauru,,Haryana,IN,https://www.google.com/maps/place/Masjid/data=!4m7!3m6!1s0x390d311378befb19:0x19e6402eca80c9ac!8m2!3d28.2120473!4d76.9511428!16s%2Fg%2F11rkg59bzl!19sChIJGfu-eBMxDTkRrMmAyi5A5hk?authuser=0&hl=en&rclk=1,"28.2120473,76.9511428"
Ruddar Kapoora % Rahmat Masjid Kharkhadi,Mosque,"4WX4+V9H Ruddar Kapoora % Rahmat Masjid Kharkhadi, Kharkhari, Rajasthan 301018",,4WX4+V9H,Kharkhari,301018,Rajasthan,IN,https://www.google.com/maps/place/Ruddar+Kapoora+%25+Rahmat+Masjid+Kharkhadi/data=!4m7!3m6!1s0x390d3723dce148e7:0x8ec096ceeb62c4ac!8m2!3d28.1496965!4d76.9059924!16s%2Fg%2F11nxsc6dsd!19sChIJ50jh3CM3DTkRrMRi686WwI4?authuser=0&hl=en&rclk=1,"28.149696499999997,76.9059924"
Eidgaha wali masjid,Mosque,"32PM+RJR Eidgaha wali masjid, Adbar, Haryana 122107",,32PM+RJR,Adbar,122107,Haryana,IN,https://www.google.com/maps/place/Eidgaha+wali+masjid/data=!4m7!3m6!1s0x390d2d12cf706fb3:0x3960cdc7d8eb3832!8m2!3d28.0871212!4d77.0340089!16s%2Fg%2F11f3r6nxsj!19sChIJs29wzxItDTkRMjjr2MfNYDk?authuser=0&hl=en&rclk=1,"28.0871212,77.0340089"
Masjid,Mosque,"326P+2XV Masjid, Nizampur Nuh, Haryana 122107",,326P+2XV,Nizampur Nuh,122107,Haryana,IN,https://www.google.com/maps/place/Masjid/data=!4m7!3m6!1s0x390d2d0af5f344dd:0x61211f4aca63de44!8m2!3d28.0601173!4d77.0374152!16s%2Fg%2F11h8rl8qhg!19sChIJ3UTz9QotDTkRRN5jykofIWE?authuser=0&hl=en&rclk=1,"28.060117299999998,77.0374152"
Dharuhera,Garden,"6Q4R+7H8 Dharuhera, Haryana 123106",,6Q4R+7H8,Dharuhera,,Haryana,IN,https://www.google.com/maps/place/Dharuhera/data=!4m7!3m6!1s0x390d49e410ce0bbb:0x92e30e9a30076d59!8m2!3d28.2056606!4d76.7914639!16s%2Fg%2F11sy4dppn1!19sChIJuwvOEORJDTkRWW0HMJoO45I?authuser=0&hl=en&rclk=1,"28.205660599999998,76.7914639"
Jain Mandir,Place of worship,"6Q9X+9FC Jain Mandir, Near Bestech Mall opp Huda, Sector 6, Dharuhera, Haryana 123106",Sector 6,"6Q9X+9FC, Near Bestech Mall opp Huda",Dharuhera,123106,Haryana,IN,https://www.google.com/maps/place/Jain+Mandir/data=!4m7!3m6!1s0x390d4789893f0c19:0x509f65db0069b6ce!8m2!3d28.2184428!4d76.798654!16s%2Fg%2F11g0w452f9!19sChIJGQw_iYlHDTkRzrZpANtln1A?authuser=0&hl=en&rclk=1,"28.2184428,76.798654"
Masjid mosque,Mosque,"5VH9+MX9 Masjid mosque, Bhiwadi - Chopanki Rd, RIICO Industrial Area, Bhiwadi, Kahrani, Rajasthan 301019",RIICO Industrial Area,"5VH9+MX9, Bhiwadi - Chopanki Rd","Bhiwadi, Kahrani",301019,Rajasthan,IN,https://www.google.com/maps/place/Masjid+mosque/data=!4m7!3m6!1s0x390d3763a6c4df3f:0x2d4c2b6d7f1062a9!8m2!3d28.1791613!4d76.8699827!16s%2Fg%2F11h6njp8sy!19sChIJP9_EpmM3DTkRqWIQf20rTC0?authuser=0&hl=en&rclk=1,"28.179161299999997,76.8699827"
"Rahmania Masjid Bandapur, Rajasthan",Mosque,"Rahmania Masjid Bandapur, Rajasthan, PLOT NO. G1, 358, Bhiwadi - Chopanki Rd, RIICO Industrial Area, Bandapur, Rajasthan 301018",RIICO Industrial Area,"PLOT NO. G1, 358, Bhiwadi - Chopanki Rd",Bandapur,301018,Rajasthan,IN,"https://www.google.com/maps/place/Rahmania+Masjid+Bandapur,+Rajasthan/data=!4m7!3m6!1s0x390d375e96614547:0x3e40c4f5d61a864!8m2!3d28.1530914!4d76.8872447!16s%2Fg%2F11fktlnk5h!19sChIJR0Vhll43DTkRZKhhXU8M5AM?authuser=0&hl=en&rclk=1","28.153091399999997,76.8872447"
Aeasha.masjid,Mosque,"6W93+XQC Aeasha.masjid, Unnamed Road, Khori Khurd, Sunari, Haryana 122015",,"6W93+XQC, Unnamed Road","Khori Khurd, Sunari",122015,Haryana,IN,https://www.google.com/maps/place/Aeasha.masjid/data=!4m7!3m6!1s0x390d372dc616cebd:0x3b2ab937d684caaa!8m2!3d28.2199458!4d76.9044022!16s%2Fg%2F11r3cm3yv3!19sChIJvc4Wxi03DTkRqsqE1je5Kjs?authuser=0&hl=en&rclk=1,"28.219945799999998,76.90440219999999"
CHOPANKI MOSQUE (MASJID),Mosque,"4VXP+47H CHOPANKI MOSQUE (MASJID), Bhiwadi - Chopanki Rd, Chaupanki, Bandapur, Rajasthan 301018",,"4VXP+47H, Bhiwadi - Chopanki Rd","Chaupanki, Bandapur",301018,Rajasthan,IN,https://www.google.com/maps/place/CHOPANKI+MOSQUE+%28MASJID%29/data=!4m7!3m6!1s0x390d3792dd44ad3f:0x69a82ab5873d41fe!8m2!3d28.1478173!4d76.8857444!16s%2Fg%2F11rsq88j_2!19sChIJP61E3ZI3DTkR_kE9h7UqqGk?authuser=0&hl=en&rclk=1,"28.1478173,76.8857444"
Badi Masjid Khohri kalan,Mosque,"4V99+79W Badi Masjid Khohri kalan, Khohri Kalan, Rajasthan 301707",,4V99+79W,Khohri Kalan,301707,Rajasthan,IN,https://www.google.com/maps/place/Badi+Masjid+Khohri+kalan/data=!4m7!3m6!1s0x390d3583b4d572b1:0x15018fcfe1212aa!8m2!3d28.1182933!4d76.8684738!16s%2Fg%2F11kj_8ph_x!19sChIJsXLVtIM1DTkRqhIS_vwYUAE?authuser=0&hl=en&rclk=1,"28.118293299999998,76.86847379999999"
Jama masjid tapukara,Mosque,"4R6P+PW8 Jama masjid tapukara, MDR61, Mayapur, Rajasthan 301707",,"4R6P+PW8, MDR61",Mayapur,301707,Rajasthan,IN,https://www.google.com/maps/place/Jama+masjid+tapukara/data=!4m7!3m6!1s0x390d35f2254c01bb:0x98496226fe25b4bf!8m2!3d28.1117587!4d76.8372803!16s%2Fg%2F11kk5p3bxb!19sChIJuwFMJfI1DTkRv7Ql_iZiSZg?authuser=0&hl=en&rclk=1,"28.1117587,76.8372803"
MASJID AL AQSAH MULLAH KI DHANI NIBAHERI,Mosque,"MASJID AL AQSAH MULLAH KI DHANI NIBAHERI, Nibaheri, Rajasthan 301707",,,Nibaheri,301707,Rajasthan,IN,https://www.google.com/maps/place/MASJID+AL+AQSAH+MULLAH+KI+DHANI+NIBAHERI/data=!4m7!3m6!1s0x390d357d12d9be83:0xa4042538b287fdb5!8m2!3d28.0841549!4d76.8722743!16s%2Fg%2F11s55gsrq7!19sChIJg77ZEn01DTkRtf2HsjglBKQ?authuser=0&hl=en&rclk=1,"28.084154899999998,76.8722743"
Old Gaon Masjid Nakhnaul,Mosque,"4V53+6MF Old Gaon Masjid Nakhnaul, Lakhnor, Rajasthan 301707",,4V53+6MF,Lakhnor,301707,Rajasthan,IN,https://www.google.com/maps/place/Old+Gaon+Masjid+Nakhnaul/data=!4m7!3m6!1s0x390d35b9678af541:0xb6f6bafabf43ebb1!8m2!3d28.1078482!4d76.8551739!16s%2Fg%2F11n_zgp1h5!19sChIJQfWKZ7k1DTkRsetDv_q69rY?authuser=0&hl=en&rclk=1,"28.1078482,76.8551739"
Masjid Eid Gah Guwalda msjid iidgaah guvaaldaa msjd `ydgh gwldh,Mosque,"4V8R+FHC Masjid Eid Gah Guwalda msjid iidgaah guvaaldaa msjd `ydgh gwldh, Guwalda, Rajasthan 301707",,4V8R+FHC,Guwalda,,Rajasthan,IN,https://www.google.com/maps/place/Masjid+Eid+Gah+Guwalda+%E0%A4%AE%E0%A4%B8%E0%A5%8D%E0%A4%9C%E0%A4%BF%E0%A4%A6+%E0%A4%88%E0%A4%A6%E0%A4%97%E0%A4%BE%E0%A4%B9+%E0%A4%97%E0%A5%81%E0%A4%B5%E0%A4%BE%E0%A4%B2%E0%A4%A6%E0%A4%BE+%D9%85%D8%B3%D8%AC%D8%AF+%D8%B9%DB%8C%D8%AF%DA%AF%D8%A7%DB%81+%DA%AF%D9%88%D8%A7%D9%84%D8%AF%DB%81%E2%80%AD/data=!4m7!3m6!1s0x390d3505aaa68111:0xede99485aff5cc86!8m2!3d28.1161792!4d76.8913774!16s%2Fg%2F11tfb80v51!19sChIJEYGmqgU1DTkRhsz1r4WU6e0?authuser=0&hl=en&rclk=1,"28.116179199999998,76.8913774"
Jumma masjid Chawandi,Mosque,"2RPM+JP6 Jumma masjid Chawandi, Papari Rd, Chawandi Khurd, Rajasthan 301411",,"2RPM+JP6, Papari Rd",Chawandi Khurd,301411,Rajasthan,IN,https://www.google.com/maps/place/Jumma+masjid+Chawandi/data=!4m7!3m6!1s0x390d3528d5f1f5b5:0xacb488d999aa0df6!8m2!3d28.0365276!4d76.8342774!16s%2Fg%2F11m_g62v_y!19sChIJtfXx1Sg1DTkR9g2qmdmItKw?authuser=0&hl=en&rclk=1,"28.0365276,76.83427739999999"
KHAN SAAB HOUSE,Mosque,"5R24+HMX KHAN SAAB HOUSE, Kalaka, Rajasthan 301018",,5R24+HMX,Kalaka,301018,Rajasthan,IN,https://www.google.com/maps/place/KHAN+SAAB+HOUSE/data=!4m7!3m6!1s0x390d4974573fcc33:0x9bb8b2b5127b510!8m2!3d28.1514945!4d76.8067188!16s%2Fg%2F11tf2shscy!19sChIJM8w_V3RJDTkRELUnUSuLuwk?authuser=0&hl=en&rclk=1,"28.1514945,76.8067188"
Eid Gah Masjid,Mosque,"3XVF+66W Eid Gah Masjid, Gehbar, Haryana 122107",,3XVF+66W,Gehbar,,Haryana,IN,https://www.google.com/maps/place/Eid+Gah+Masjid/data=!4m7!3m6!1s0x390d32f85fa844db:0x309c9829b77ffe4e!8m2!3d28.0931115!4d76.9730722!16s%2Fg%2F11f4ld74gy!19sChIJ20SoX_gyDTkRTv5_tymYnDA?authuser=0&hl=en&rclk=1,"28.0931115,76.97307219999999"
Park,Park,"6Q4W+445 Park, Dharuhera, Haryana 123106",,6Q4W+445,Dharuhera,,Haryana,IN,https://www.google.com/maps/place/Park/data=!4m7!3m6!1s0x390d498adb0fa313:0xa1f3bcfd6397d669!8m2!3d28.205267!4d76.7953647!16s%2Fg%2F11gtzg3083!19sChIJE6MP24pJDTkRadaXY_2886E?authuser=0&hl=en&rclk=1,"28.205267,76.7953647"
EIDGAH MASJID,Mosque,"4VQG+G65 EIDGAH MASJID, Pathredi, Rajasthan 301018",,4VQG+G65,Pathredi,,Rajasthan,IN,https://www.google.com/maps/place/EIDGAH+MASJID/data=!4m7!3m6!1s0x390d3744faa3d3c5:0x584a09dd79c21655!8m2!3d28.1387507!4d76.8756188!16s%2Fg%2F11sytg0g4x!19sChIJxdOj-kQ3DTkRVRbCed0JSlg?authuser=0&hl=en&rclk=1,"28.1387507,76.8756188"
iidgaah pttaudii,Place of worship,"iidgaah pttaudii, WARD NO 11 REWARI ROAD, near SUBHAM MARUTI WORKSHOP, opposite IDHGAH, Pataudi, Haryana 122503",,"WARD NO 11 REWARI ROAD, near SUBHAM MARUTI WORKSHOP, opposite IDHGAH",Pataudi,122503,Haryana,IN,https://www.google.com/maps/place/%E0%A4%88%E0%A4%A6%E0%A4%97%E0%A4%BE%E0%A4%B9+%E0%A4%AA%E0%A4%9F%E0%A5%8C%E0%A4%A6%E0%A5%80/data=!4m7!3m6!1s0x390d41ef47eb1267:0xe9d0e2686b50186c!8m2!3d28.3242437!4d76.7720457!16s%2Fg%2F11h52s1hc4!19sChIJZxLrR-9BDTkRbBhQa2ji0Ok?authuser=0&hl=en&rclk=1,"28.3242437,76.77204569999999"
Masjid,Mosque,"22M6+6XR Masjid, Malab, Haryana 122107",,22M6+6XR,Malab,122107,Haryana,IN,https://www.google.com/maps/place/Masjid/data=!4m7!3m6!1s0x3972d3868c8be52f:0xbb3ffa2d9ed49cdf!8m2!3d28.0331122!4d77.0123832!16s%2Fg%2F11l45_ysln!19sChIJL-WLjIbTcjkR35zUni36P7s?authuser=0&hl=en&rclk=1,"28.033112199999998,77.0123832"
Badi masjid khori khurd tauru,Mosque,"Badi masjid khori khurd tauru, Khori Khurd, Haryana 122015",,,Khori Khurd,122015,Haryana,IN,https://www.google.com/maps/place/Badi+masjid+khori+khurd+tauru/data=!4m7!3m6!1s0x390d39e6ba535a75:0xf553ce07b6ee3f35!8m2!3d28.2249859!4d76.8819695!16s%2Fg%2F11p0dlqhdh!19sChIJdVpTuuY5DTkRNT_utgfOU_U?authuser=0&hl=en&rclk=1,"28.2249859,76.8819695"
Mukeem,Mosque,"7VFR+WRP Mukeem, Tauru Rd, Haryana 122015",,"7VFR+WRP, Tauru Rd",,122015,Haryana,IN,https://www.google.com/maps/place/Mukeem/data=!4m7!3m6!1s0x390d39378cb9d599:0xa4177340992a7981!8m2!3d28.2748259!4d76.8920677!16s%2Fg%2F11rsyyv89v!19sChIJmdW5jDc5DTkRgXkqmUBzF6Q?authuser=0&hl=en&rclk=1,"28.2748259,76.8920677"
BADI MASJID CHUNDHIKA,Mosque,"6W35+Q4J BADI MASJID CHUNDHIKA, Atitka, Haryana 122015",,6W35+Q4J,Atitka,122015,Haryana,IN,https://www.google.com/maps/place/BADI+MASJID+CHUNDHIKA/data=!4m7!3m6!1s0x390d37791528db3f:0x7aee38b3cf6bdb79!8m2!3d28.2044517!4d76.9077706!16s%2Fg%2F11tdbgfx5l!19sChIJP9soFXk3DTkRedtrz7M47no?authuser=0&hl=en&rclk=1,"28.2044517,76.90777059999999"
Makka Masjid Haji Rujddar Ki dhani,Mosque,"Makka Masjid Haji Rujddar Ki dhani, Nimbahedi Tijara, Alwar, Nibaheri, Rajasthan 301411",,Nimbahedi Tijara,"Alwar, Nibaheri",,Rajasthan,IN,https://www.google.com/maps/place/Makka+Masjid+Haji+Rujddar+Ki+dhani/data=!4m7!3m6!1s0x390d3586d5105753:0x61176b22278ed911!8m2!3d28.0916028!4d76.8755304!16s%2Fg%2F11sjdx7p1h!19sChIJU1cQ1YY1DTkREdmOJyJrF2E?authuser=0&hl=en&rclk=1,"28.0916028,76.8755304"
Takiya Wali Masjid Khohri kalan,Mosque,"4VC8+HFR Takiya Wali Masjid Khohri kalan, MDR61, Khohri Kalan, Khohri Khurd, Rajasthan 301707",,"4VC8+HFR, MDR61","Khohri Kalan, Khohri Khurd",301707,Rajasthan,IN,https://www.google.com/maps/place/Takiya+Wali+Masjid+Khohri+kalan/data=!4m7!3m6!1s0x390d35be452b71fd:0xedd634cced6b72f1!8m2!3d28.1216603!4d76.8657681!16s%2Fg%2F11t_z2n4v5!19sChIJ_XErRb41DTkR8XJr7cw01u0?authuser=0&hl=en&rclk=1,"28.1216603,76.8657681"
Bhamboo ki dhani ki masjid,Mosque,"4V3Q+HQ2 Bhamboo ki dhani ki masjid, Bamboo ki dhani Bamboo ki dhani, Guwalda, Rajasthan 301707",,4V3Q+HQ2 Bamboo ki dhani Bamboo ki dhani,Guwalda,301707,Rajasthan,IN,https://www.google.com/maps/place/Bhamboo+ki+dhani+ki+masjid/data=!4m7!3m6!1s0x390d35c6952173dd:0xbf5206671f08a447!8m2!3d28.1038882!4d76.8893907!16s%2Fg%2F11rvg4qx20!19sChIJ3XMhlcY1DTkRR6QIH2cGUr8?authuser=0&hl=en&rclk=1,"28.1038882,76.88939069999999"
jaamaa msjid besmentt vaalii khraanii,Mosque,"5VGF+P26 jaamaa msjid besmentt vaalii khraanii, Kahrani, Rajasthan 301018",,5VGF+P26,Kahrani,,Rajasthan,IN,https://www.google.com/maps/place/%E0%A4%9C%E0%A4%BE%E0%A4%AE%E0%A4%BE+%E0%A4%AE%E0%A4%B8%E0%A5%8D%E0%A4%9C%E0%A4%BF%E0%A4%A6+%E0%A4%AC%E0%A5%87%E0%A4%B8%E0%A4%AE%E0%A5%87%E0%A4%A8%E0%A5%8D%E0%A4%9F+%E0%A4%B5%E0%A4%BE%E0%A4%B2%E0%A5%80+%E0%A4%95%E0%A4%B9%E0%A4%B0%E0%A4%BE%E0%A4%A8%E0%A5%80/data=!4m7!3m6!1s0x390d37d923ce1153:0xb70267baf522c1bf!8m2!3d28.1767999!4d76.8725201!16s%2Fg%2F11rxrt4xxm!19sChIJUxHOI9k3DTkRv8Ei9bpnArc?authuser=0&hl=en&rclk=1,"28.1767999,76.8725201"
Ameer Saab Muhuru Ki Majid amiir saab muhuuruu ki mjiid,Mosque,"4RVC+3W7 Ameer Saab Muhuru Ki Majid amiir saab muhuuruu ki mjiid, Bibipur, Rajasthan 301707",,4RVC+3W7,Bibipur,301707,Rajasthan,IN,https://www.google.com/maps/place/Ameer+Saab+Muhuru+Ki+Majid+%E0%A4%85%E0%A4%AE%E0%A5%80%E0%A4%B0+%E0%A4%B8%E0%A4%BE%E0%A4%AC+%E0%A4%AE%E0%A5%81%E0%A4%B9%E0%A5%82%E0%A4%B0%E0%A5%82+%E0%A4%95%E0%A4%BF+%E0%A4%AE%E0%A4%9C%E0%A5%80%E0%A4%A6/data=!4m7!3m6!1s0x390d4931b82066df:0x33e5ae4d2153ebb0!8m2!3d28.1426508!4d76.8223088!16s%2Fg%2F11pm71hyb4!19sChIJ32YguDFJDTkRsOtTIU2u5TM?authuser=0&hl=en&rclk=1,"28.1426508,76.8223088"
Madina masjid hasmi ( Suleman ki dhani ),Mosque,"3RFR+856 Madina masjid hasmi ( Suleman ki dhani ), Meethiyawas, Rajasthan 301707",,3RFR+856,Meethiyawas,301707,Rajasthan,IN,https://www.google.com/maps/place/Madina+masjid+hasmi+%28+Suleman+ki+dhani+%29/data=!4m7!3m6!1s0x390d358130102b4b:0xdd197c2086e00039!8m2!3d28.0731657!4d76.8403533!16s%2Fg%2F11vhsd_kx3!19sChIJSysQMIE1DTkROQDghiB8Gd0?authuser=0&hl=en&rclk=1,"28.073165699999997,76.84035329999999"
Naye Masjid basaiya ki dhani,Mosque,"3VWR+W73 Naye Masjid basaiya ki dhani, Guwalda, Rajasthan 301411",,3VWR+W73,Guwalda,301411,Rajasthan,IN,https://www.google.com/maps/place/Naye+Masjid+basaiya+ki+dhani/data=!4m7!3m6!1s0x390d35f4ec39ca5d:0x582ee4a0b9625ec3!8m2!3d28.0972714!4d76.8906578!16s%2Fg%2F11kryc0vxg!19sChIJXco57PQ1DTkRw15iuaDkLlg?authuser=0&hl=en&rclk=1,"28.0972714,76.8906578"
MASJID E NAMRA,Mosque,"6V3M+HXQ MASJID E NAMRA, Rampura, Rajasthan 301019",,6V3M+HXQ,Rampura,301019,Rajasthan,IN,https://www.google.com/maps/place/MASJID+E+NAMRA/data=!4m7!3m6!1s0x390d3726788aa599:0x24ccea9c32c7998f!8m2!3d28.204188!4d76.884525!16s%2Fg%2F11srhp2jd4!19sChIJmaWKeCY3DTkRj5nHMpzqzCQ?authuser=0&hl=en&rclk=1,"28.204188,76.884525"
Jama Masjid Turkiawas,Mosque,"6MPV+5MJ Jama Masjid Turkiawas, Turkiawas, Janti, Haryana 122502",,6MPV+5MJ,"Turkiawas, Janti",122502,Haryana,IN,https://www.google.com/maps/place/Jama+Masjid+Turkiawas/data=!4m7!3m6!1s0x390d45ed50c007cb:0x4c3ea7a9983e7967!8m2!3d28.2354551!4d76.6941256!16s%2Fg%2F11t8bx1_6v!19sChIJywfAUO1FDTkRZ3k-mKmnPkw?authuser=0&hl=en&rclk=1,"28.2354551,76.69412559999999"
Gadwali Masjid Khohri kalan,Mosque,"4VCC+4V Gadwali Masjid Khohri kalan, Khohri Kalan, Rajasthan 301707",,4VCC+4V,Khohri Kalan,,Rajasthan,IN,https://www.google.com/maps/place/Gadwali+Masjid+Khohri+kalan/data=!4m7!3m6!1s0x390d359071dec8a7:0x3a857a67cdf2ceea!8m2!3d28.1203693!4d76.8721495!16s%2Fg%2F11st7z_yjk!19sChIJp8jecZA1DTkR6s7yzWd6hTo?authuser=0&hl=en&rclk=1,"28.1203693,76.87214949999999"
Bamboo ki dhani ki masjid,Mosque,"Bamboo ki dhani ki masjid, Bamboo ki dhani, Guwalda, Rajasthan 301411",,Bamboo ki dhani,Guwalda,,Rajasthan,IN,https://www.google.com/maps/place/Bamboo+ki+dhani+ki+masjid/data=!4m7!3m6!1s0x390d35bfa081b2cf:0x7897db53045f6966!8m2!3d28.0894647!4d76.9012529!16s%2Fg%2F11q4gcl052!19sChIJz7KBoL81DTkRZmlfBFPbl3g?authuser=0&hl=en&rclk=1,"28.089464699999997,76.9012529"
Masjid Israil Gattad,Mosque,"5VF2+8FG Masjid Israil Gattad, Godhan, Rajasthan 301018",,5VF2+8FG,Godhan,,Rajasthan,IN,https://www.google.com/maps/place/Masjid+Israil+Gattad/data=!4m7!3m6!1s0x390d376f10e2caf1:0x7865edfda44e02b8!8m2!3d28.1727816!4d76.8512292!16s%2Fg%2F11t7t_2hpt!19sChIJ8criEG83DTkRuAJOpP3tZXg?authuser=0&hl=en&rclk=1,"28.1727816,76.85122919999999"
NOORANI MASJID,Mosque,"7XC2+PV8 NOORANI MASJID, Beri Nisfi Tauru, Sabras, Haryana 122015",,7XC2+PV8,"Beri Nisfi Tauru, Sabras",,Haryana,IN,https://www.google.com/maps/place/NOORANI+MASJID/data=!4m7!3m6!1s0x390d3b4a2e8e66cd:0xb36586a55550f649!8m2!3d28.2717895!4d76.9522142!16s%2Fg%2F11srty70dk!19sChIJzWaOLko7DTkRSfZQVaWGZbM?authuser=0&hl=en&rclk=1,"28.271789499999997,76.9522142"
Badi Masjid,Mosque,"5VFH+8P7 Badi Masjid, Gadpur, Rajasthan 301018",,5VFH+8P7,Gadpur,,Rajasthan,IN,https://www.google.com/maps/place/Badi+Masjid/data=!4m7!3m6!1s0x390d3763cfce7081:0xf56376419087392f!8m2!3d28.1732923!4d76.8793025!16s%2Fg%2F11k4frk867!19sChIJgXDOz2M3DTkRLzmHkEF2Y_U?authuser=0&hl=en&rclk=1,"28.1732923,76.8793025"
Chhoti Masjid Alladiya,Mosque,"7V3H+5C8 Chhoti Masjid Alladiya, Utoon, Haryana 122015",,7V3H+5C8,Utoon,122015,Haryana,IN,https://www.google.com/maps/place/Chhoti+Masjid+Alladiya/data=!4m7!3m6!1s0x390d39e155b5c3e9:0xc07aa6c4c6d4f69c!8m2!3d28.2529163!4d76.8785872!16s%2Fg%2F11tdhz1knj!19sChIJ6cO1VeE5DTkRnPbUxsSmesA?authuser=0&hl=en&rclk=1,"28.2529163,76.8785872"
Masjid,Housing society,"6W47+94C Masjid, Nizampur, Atitka, Haryana 122015",,6W47+94C,"Nizampur, Atitka",,Haryana,IN,https://www.google.com/maps/place/Masjid/data=!4m7!3m6!1s0x390d37b614c2073f:0xa1ca7cfee26087ed!8m2!3d28.2059312!4d76.9127628!16s%2Fg%2F11qgfhp86l!19sChIJPwfCFLY3DTkR7Ydg4v58yqE?authuser=0&hl=en&rclk=1,"28.2059312,76.9127628"
Madina,Mosque,"6J47+XPJ Madina, Durga Colony, Rewari, Haryana 123401",Durga Colony,6J47+XPJ,Rewari,123401,Haryana,IN,https://www.google.com/maps/place/Madina/data=!4m7!3m6!1s0x390d5bbf4ff5eccd:0xb3d91f2b3a9842bc!8m2!3d28.2074582!4d76.6142693!16s%2Fg%2F11v3sjjyp5!19sChIJzez1T79bDTkRvEKYOisf2bM?authuser=0&hl=en&rclk=1,"28.207458199999998,76.61426929999999"
Chhoti Masjid teuwas,Mosque,"3R24+W8C Chhoti Masjid teuwas, MDR 61, Bhonkar, Rajasthan 301707",,"3R24+W8C, MDR 61",Bhonkar,301707,Rajasthan,IN,https://www.google.com/maps/place/Chhoti+Masjid+teuwas/data=!4m7!3m6!1s0x390d4b8a6fa4e5e1:0xae23ec3a9874da7f!8m2!3d28.0520252!4d76.804773!16s%2Fg%2F11tghl5mtq!19sChIJ4eWkb4pLDTkRf9p0mDrsI64?authuser=0&hl=en&rclk=1,"28.0520252,76.804773"
Aslat masjid (masjid,Mosque,"W2Q4+3GH Aslat masjid (masjid, Delhi Alwar Rd, Bhadas, Haryana 122107",,"W2Q4+3GH, Delhi Alwar Rd",Bhadas,122107,Haryana,IN,https://www.google.com/maps/place/Aslat+masjid+%28masjid/data=!4m7!3m6!1s0x3972cfd019ea685f:0x23a0639c8bddb203!8m2!3d27.937691!4d77.0063736!16s%2Fg%2F11ss9n4lsg!19sChIJX2jqGdDPcjkRA7Ldi5xjoCM?authuser=0&hl=en&rclk=1,"27.937690999999997,77.0063736"
MAKKA MASJID DHADOLI,Mosque,"W3FQ+4R4 MAKKA MASJID DHADOLI, Dhadoli Kalan, Haryana 122108",,W3FQ+4R4,Dhadoli Kalan,122108,Haryana,IN,https://www.google.com/maps/place/MAKKA+MASJID+DHADOLI/data=!4m7!3m6!1s0x3972d1545c76f223:0x35aa3640f8d85f0e!8m2!3d27.9227722!4d77.0895634!16s%2Fg%2F11n31yd8r2!19sChIJI_J2XFTRcjkRDl_Y-EA2qjU?authuser=0&hl=en&rclk=1,"27.922772199999997,77.0895634"
Masjid,Mosque,"22V8+G6F Masjid, Malab, Haryana 122107",,22V8+G6F,Malab,122107,Haryana,IN,https://www.google.com/maps/place/Masjid/data=!4m7!3m6!1s0x3972d31cb89fa00b:0xb71b0488d8838ecb!8m2!3d28.0438171!4d77.0155502!16s%2Fg%2F11hnl6823s!19sChIJC6CfuBzTcjkRy46D2IgEG7c?authuser=0&hl=en&rclk=1,"28.0438171,77.01555019999999"
masjid bag wali,Mosque,"4V3Q+HQ2 masjid bag wali, Guwalda, Rajasthan 301707",,4V3Q+HQ2,Guwalda,,Rajasthan,IN,https://www.google.com/maps/place/masjid+bag+wali/data=!4m7!3m6!1s0x390d353bbfe9cbe3:0x56838f77477ff9f3!8m2!3d28.1038882!4d76.8893907!16s%2Fg%2F11k46kmd4n!19sChIJ48vpvzs1DTkR8_l_R3ePg1Y?authuser=0&hl=en&rclk=1,"28.1038882,76.88939069999999"
Masjid,Mosque,"3235+CXH Masjid, Malab, Haryana 122107",,3235+CXH,Malab,122107,Haryana,IN,https://www.google.com/maps/place/Masjid/data=!4m7!3m6!1s0x390d334dcabe8bd7:0xd5575ea6441169c5!8m2!3d28.0535746!4d77.0099789!16s%2Fg%2F11l45zp4kq!19sChIJ14u-yk0zDTkRxWkRRKZeV9U?authuser=0&hl=en&rclk=1,"28.053574599999997,77.0099789"
Dharuhera,Garden,"5QVR+FXV Dharuhera, Haryana 123106",,5QVR+FXV,Dharuhera,123106,Haryana,IN,https://www.google.com/maps/place/Dharuhera/data=!4m7!3m6!1s0x390d494ddf57c0c5:0x98e5713de6403d84!8m2!3d28.1939915!4d76.7924786!16s%2Fg%2F11l5v7_164!19sChIJxcBX301JDTkRhD1A5j1x5Zg?authuser=0&hl=en&rclk=1,"28.1939915,76.7924786"
Masjid,Mosque,"4X5M+66Q Masjid, Palri, Nuh, Haryana 122107",Palla,"4X5M+66Q, Palri",Nuh,122107,Haryana,IN,https://www.google.com/maps/place/Masjid/data=!4m7!3m6!1s0x390d336e85e72515:0x98f4e12a1f6ebe6a!8m2!3d28.1080964!4d76.9831099!16s%2Fg%2F11tjc0frvq!19sChIJFSXnhW4zDTkRar5uHyrh9Jg?authuser=0&hl=en&rclk=1,"28.108096399999997,76.9831099"
