name,main_category,address,address_ward,address_street,address_city,address_postal_code,address_state,address_country_code,link,coordinates
ASK City Center,Shopping mall,"ASK City Center, Old Rani bazaar road Opp Teliyan masjid Near Agrasen bhawan and Chowdary dharamshaal Main road towards Ghanta ghar, Sardarshahar, Rajasthan 331403",Sharif Gouri,Old Rani bazaar road Opp Teliyan masjid Near Agrasen bhawan and Chowdary dharamshaal Main road towards Ghanta ghar,"Sardarshahar, Sardarshahr",331403,Rajasthan,IN,https://www.google.com/maps/place/ASK+City+Center/data=!4m7!3m6!1s0x3914f7568e1e2139:0xd765f909d7aae2de!8m2!3d28.4430787!4d74.4894011!16s%2Fg%2F11sgcwkw6k!19sChIJOSEejlb3FDkR3uKq1wn5Zdc?authuser=0&hl=en&rclk=1,"28.443078699999997,74.4894011"
Gauri E-Mitra,Service Apartment,"Gauri E-Mitra, Teliyan Masjid, Ward No.35, Sardarshahar, Rajasthan 331403","Ward No.35, Sharif Gouri",Teliyan Masjid,"Sardarshahar, Sardarshahr",331403,Rajasthan,IN,https://www.google.com/maps/place/Gauri+E-Mitra/data=!4m7!3m6!1s0x3914f7f51143bb11:0x6ffb42de2a6540e2!8m2!3d28.4432148!4d74.489562!16s%2Fg%2F11qg3c5p8p!19sChIJEbtDEfX3FDkR4kBlKt5C-28?authuser=0&hl=en&rclk=1,"28.4432148,74.48956199999999"
Islamiya road,Store,"CFVR+P5P Islamiya road, Minara Masjid Rd, Sharif Gouri, Sardarshahr, Rajasthan 331403",Sharif Gouri,"CFVR+P5P, Minara Masjid Rd",Sardarshahr,331403,Rajasthan,IN,https://www.google.com/maps/place/Islamiya+road/data=!4m7!3m6!1s0x3914f72edb755951:0x2cf1589c95fc0c3c!8m2!3d28.4443339!4d74.4904556!16s%2Fg%2F11vlf2h55y!19sChIJUVl12y73FDkRPAz8lZxY8Sw?authuser=0&hl=en&rclk=1,"28.4443339,74.49045559999999"
Chayal hostel,Boy's Hostel,"ward no 31, Chayal hostel, Near, Nurani Masjid Rd, Gayatri Nagar, Sardarshahar, Hariyasar Gharsotan, Rajasthan 331403",Gayatri Nagar,"ward no 31, Near, Nurani Masjid Rd","Sardarshahar, Hariyasar Gharsotan",331403,Rajasthan,IN,https://www.google.com/maps/place/Chayal+hostel/data=!4m7!3m6!1s0x3914f59abfe75169:0x26c936ae523eeb6d!8m2!3d28.4501925!4d74.5025422!16s%2Fg%2F11tcp9_2j3!19sChIJaVHnv5r1FDkRbes-Uq42ySY?authuser=0&hl=en&rclk=1,"28.4501925,74.5025422"
Kayamkhani Masjid,Mosque,"CFXW+3W3 Kayamkhani Masjid, Kayamkhani Masjid Rd, Ward No 19, Gayatri Nagar, Sardarshahr, Hariyasar Gharsotan, Rajasthan 331403","Ward No 19, Gayatri Nagar","CFXW+3W3, Kayamkhani Masjid Rd","Sardarshahr, Hariyasar Gharsotan",331403,Rajasthan,IN,https://www.google.com/maps/place/Kayamkhani+Masjid/data=!4m7!3m6!1s0x3914f54ad3f43b65:0x4b81aadb4be9aef9!8m2!3d28.4476458!4d74.4972912!16s%2Fg%2F11s6h9zf22!19sChIJZTv000r1FDkR-a7pS9uqgUs?authuser=0&hl=en&rclk=1,"28.4476458,74.49729119999999"
Bharat Multispeciality Hospital (Best Hospital In Sardarshahar),Hospital,"Bharat Multispeciality Hospital (Best Hospital In Sardarshahar), Bas, Police Station Ke Samne Wali Road, near Chhimpa Masjid, Bukalsar Bass, Sardarshahr, Rajasthan 331403","Bukalsar Bass, Gayatri Nagar","Bas, Police Station Ke Samne Wali Road, near Chhimpa Masjid",Sardarshahr,331403,Rajasthan,IN,https://www.google.com/maps/place/Bharat+Multispeciality+Hospital+%28Best+Hospital+In+Sardarshahar%29/data=!4m7!3m6!1s0x3914f5f85483aba9:0xb8b0b3b9c5db088b!8m2!3d28.4482876!4d74.501434!16s%2Fg%2F11j3pbgyrn!19sChIJqauDVPj1FDkRiwjbxbmzsLg?authuser=0&hl=en&rclk=1,"28.4482876,74.501434"
Madarsa Islaamia lateefiya,Religious school,"Madarsa Islaamia lateefiya, Gayatri Nagar, Sardarshahr, Hariyasar Gharsotan, Rajasthan 331403",Gayatri Nagar,,"Sardarshahr, Hariyasar Gharsotan",331403,Rajasthan,IN,https://www.google.com/maps/place/Madarsa+Islaamia+lateefiya/data=!4m7!3m6!1s0x3914f6a3ad6f8513:0xa3aae8d08dd058c8!8m2!3d28.446278!4d74.4913454!16s%2Fg%2F11cp7css4p!19sChIJE4VvraP2FDkRyFjQjdDoqqM?authuser=0&hl=en&rclk=1,"28.446278,74.4913454"
srdaarshhr nndii cok,Park,"srdaarshhr nndii cok, niran ji kotej, Sharif Gouri, Sardarshahar, Hariyasar Gharsotan, Rajasthan 331403",Sharif Gouri,niran ji kotej,"Sardarshahar, Hariyasar Gharsotan",331403,Rajasthan,IN,https://www.google.com/maps/place/%E0%A4%B8%E0%A4%B0%E0%A4%A6%E0%A4%BE%E0%A4%B0%E0%A4%B6%E0%A4%B9%E0%A4%B0+%E0%A4%A8%E0%A4%A8%E0%A5%8D%E0%A4%A6%E0%A5%80+%E0%A4%9A%E0%A5%8B%E0%A4%95/data=!4m7!3m6!1s0x3914f71c48c615ef:0xc74bac7195d3e459!8m2!3d28.4444178!4d74.488178!16s%2Fg%2F11h0ld88xb!19sChIJ7xXGSBz3FDkRWeTTlXGsS8c?authuser=0&hl=en&rclk=1,"28.4444178,74.48817799999999"
Masjid-E-Bilal,Mosque,"FF2W+FWC Masjid-E-Bilal, Kayamkhani St Rd, Gayatri Nagar, Sardarshahr, Hariyasar Gharsotan, Rajasthan 331403",Gayatri Nagar,"FF2W+FWC, Kayamkhani St Rd","Sardarshahr, Hariyasar Gharsotan",331403,Rajasthan,IN,https://www.google.com/maps/place/Masjid-E-Bilal/data=!4m7!3m6!1s0x3914f69f9783072f:0x24166c3a9ed646d3!8m2!3d28.4511946!4d74.4972604!16s%2Fg%2F11gbk40xbw!19sChIJLweDl5_2FDkR00bWnjpsFiQ?authuser=0&hl=en&rclk=1,"28.451194599999997,74.4972604"
Nurani-masjid,Mosque,"FG23+393 Nurani-masjid, Gayatri Nagar, Sardarshahr, Hariyasar Gharsotan, Rajasthan 331403",Gayatri Nagar,FG23+393,"Sardarshahr, Hariyasar Gharsotan",331403,Rajasthan,IN,https://www.google.com/maps/place/Nurani-masjid/data=!4m7!3m6!1s0x3914f41f642e269b:0xc3d3e8a55e1f3c00!8m2!3d28.45015!4d74.5034362!16s%2Fg%2F11ggbnlvwp!19sChIJmyYuZB_0FDkRADwfXqXo08M?authuser=0&hl=en&rclk=1,"28.450149999999997,74.5034362"
Gayatri Shaktipeeth Sardarshahar Near Choudhary Well,Hindu temple,"Gayatri Shaktipeeth Sardarshahar Near Choudhary Well, near Choudhary Well, Sharif Gouri, Sardarshahar, Hariyasar Gharsotan, Rajasthan 331403",Sharif Gouri,near Choudhary Well,"Sardarshahar, Hariyasar Gharsotan",331403,Rajasthan,IN,https://www.google.com/maps/place/Gayatri+Shaktipeeth+Sardarshahar+Near+Choudhary+Well/data=!4m7!3m6!1s0x3914f6bcffffffff:0x14c9057be5798262!8m2!3d28.4455731!4d74.4848293!16s%2Fg%2F11fzf9pdq4!19sChIJ_____7z2FDkRYoJ55XsFyRQ?authuser=0&hl=en&rclk=1,"28.445573099999997,74.4848293"
"Masjid Ghadsisar Sardarshahr Churu,",Mosque,"C682+337 Masjid Ghadsisar Sardarshahr Churu,, Ghadsisar, Rajasthan 331403",,C682+337,Ghadsisar,,Rajasthan,IN,"https://www.google.com/maps/place/Masjid+Ghadsisar+Sardarshahr+Churu,/data=!4m7!3m6!1s0x39150114efe59b15:0x6db47bc9fbd29b90!8m2!3d28.4151636!4d74.2001659!16s%2Fg%2F11fj5l4x26!19sChIJFZvl7xQBFTkRkJvS-8l7tG0?authuser=0&hl=en&rclk=1","28.4151636,74.2001659"
Abu.bakar Masjid,Mosque,"CFMG+87F Abu.bakar Masjid, Ram Nagar, Sardarshahr, Rajasthan 331403",Ram Nagar,CFMG+87F,Sardarshahr,331403,Rajasthan,IN,https://www.google.com/maps/place/Abu.bakar+Masjid/data=!4m7!3m6!1s0x3914f6c9d355c2b7:0x851f5dafdb70556f!8m2!3d28.4333023!4d74.4756624!16s%2Fg%2F11dxdc_dyn!19sChIJt8JV08n2FDkRb1Vw269dH4U?authuser=0&hl=en&rclk=1,"28.433302299999998,74.47566239999999"
Neha solar supplier,Solar energy system service,"Neha solar supplier, Arjun Club, bus stand, Roadways, Sardarshahar, Rajasthan 331402",Gayatri Nagar,"Arjun Club, bus stand, Roadways","Sardarshahar, Sardarshahr",331402,Rajasthan,IN,https://www.google.com/maps/place/Neha+solar+supplier/data=!4m7!3m6!1s0x3914f5130e6c93dd:0xff3bdc9132fb5952!8m2!3d28.4452998!4d74.4944275!16s%2Fg%2F11h2rw82_2!19sChIJ3ZNsDhP1FDkRUln7MpHcO_8?authuser=0&hl=en&rclk=1,"28.445299799999997,74.4944275"
Vishwakarma Building Materials Sardar Sahar,Electronics store,"Vishwakarma Building Materials Sardar Sahar, Madinah Colony, Gayatri Nagar, Hariyasar Gharsotan, Rajasthan 331403","Madinah Colony, Gayatri Nagar",,Hariyasar Gharsotan,331403,Rajasthan,IN,https://www.google.com/maps/place/Vishwakarma+Building+Materials+Sardar+Sahar/data=!4m7!3m6!1s0x3914f7e25cb2e64b:0xa0ce92cb51c5322f!8m2!3d28.4580203!4d74.495487!16s%2Fg%2F11gxtb4z9r!19sChIJS-ayXOL3FDkRLzLFUcuSzqA?authuser=0&hl=en&rclk=1,"28.458020299999998,74.495487"
Ratlam cafe house,Coffee shop,"Ratlam cafe house, Minara masjid (teliyan masjid), Janhit Pranyas Colony, Sardarshahar, Sardarshahr, Rajasthan 331403",Janhit Pranyas Colony,Minara masjid (teliyan masjid),"Sardarshahar, Sardarshahr",331403,Rajasthan,IN,https://www.google.com/maps/place/Ratlam+cafe+house/data=!4m7!3m6!1s0x3914f7e6cbab3607:0x50be85759ee5435d!8m2!3d28.4404544!4d74.4936912!16s%2Fg%2F11f9_8zmj4!19sChIJBzary-b3FDkRXUPlnnWFvlA?authuser=0&hl=en&rclk=1,"28.4404544,74.4936912"
Minara masjid (teliyan masjid),Mosque,"CFVQ+8V3 Minara masjid (teliyan masjid), Sharif Gouri, Sardarshahr, Rajasthan 331403",Sharif Gouri,CFVQ+8V3,Sardarshahr,331403,Rajasthan,IN,https://www.google.com/maps/place/Minara+masjid+%28teliyan+masjid%29/data=!4m7!3m6!1s0x3914f7176843b1c9:0x43d0df2915b01123!8m2!3d28.4432595!4d74.4896845!16s%2Fg%2F11b6t2pvqn!19sChIJybFDaBf3FDkRIxGwFSnf0EM?authuser=0&hl=en&rclk=1,"28.4432595,74.4896845"
Fatima masjid,Mosque,"FF2R+XQ4 Fatima masjid, Gayatri Nagar, Hariyasar Gharsotan, Rajasthan 331403",Gayatri Nagar,FF2R+XQ4,Hariyasar Gharsotan,331403,Rajasthan,IN,https://www.google.com/maps/place/Fatima+masjid/data=!4m7!3m6!1s0x3914f7002fd65863:0xd4baed821341311d!8m2!3d28.452375!4d74.4919385!16s%2Fg%2F11j07vskxl!19sChIJY1jWLwD3FDkRHTFBE4LtutQ?authuser=0&hl=en&rclk=1,"28.452375,74.4919385"
Ramgadiya Marriage and Garden Hall,Banquet hall,"Ramgadiya Marriage and Garden Hall, Near Ask city center Rani bazaar road opp Teliyan masjid Ramgadiya Bhawan, Sardarshahar, Rajasthan 331403",Sharif Gouri,Near Ask city center Rani bazaar road opp Teliyan masjid Ramgadiya Bhawan,"Sardarshahar, Sardarshahr",331403,Rajasthan,IN,https://www.google.com/maps/place/Ramgadiya+Marriage+and+Garden+Hall/data=!4m7!3m6!1s0x3914f7c765baeb79:0x514f4114101136d3!8m2!3d28.4430387!4d74.4891709!16s%2Fg%2F11p_8hphkz!19sChIJeeu6Zcf3FDkR0zYREBRBT1E?authuser=0&hl=en&rclk=1,"28.4430387,74.48917089999999"
MASJID E AKSA srdaarshhr,Mosque,"CFVW+V7M MASJID E AKSA srdaarshhr, Tarkhani Mohalla, Ward No.22, Gayatri Nagar, Sardarshahr, Rajasthan 331403","Ward No.22, Gayatri Nagar","CFVW+V7M, Tarkhani Mohalla",Sardarshahr,331403,Rajasthan,IN,https://www.google.com/maps/place/MASJID+E+AKSA+%E0%A4%B8%E0%A4%B0%E0%A4%A6%E0%A4%BE%E0%A4%B0%E0%A4%B6%E0%A4%B9%E0%A4%B0/data=!4m7!3m6!1s0x3914f6a13a6c2a01:0x56ec722eb0175ea4!8m2!3d28.4447118!4d74.495683!16s%2Fg%2F11d_2fzvlj!19sChIJASpsOqH2FDkRpF4XsC5y7FY?authuser=0&hl=en&rclk=1,"28.4447118,74.495683"
Mohammadiya masjid,Mosque,"FF3V+R94 Mohammadiya masjid, Gayatri Nagar, Sardarshahr, Hariyasar Gharsotan, Rajasthan 331403",Gayatri Nagar,FF3V+R94,"Sardarshahr, Hariyasar Gharsotan",331403,Rajasthan,IN,https://www.google.com/maps/place/Mohammadiya+masjid/data=!4m7!3m6!1s0x3914f6995290110f:0x5e58d7c63c2a7e2d!8m2!3d28.4545246!4d74.4934577!16s%2Fg%2F11f24t525l!19sChIJDxGQUpn2FDkRLX4qPMbXWF4?authuser=0&hl=en&rclk=1,"28.4545246,74.4934577"
MADINA MASJID,Mosque,"CGX2+VQ4 MADINA MASJID, Unnamed Road, Gayatri Nagar, Sardarshahr, Hariyasar Gharsotan, Rajasthan 331403",Gayatri Nagar,"CGX2+VQ4, Unnamed Road","Sardarshahr, Hariyasar Gharsotan",331403,Rajasthan,IN,https://www.google.com/maps/place/MADINA+MASJID/data=!4m7!3m6!1s0x3914f534f267c761:0xc486997b63c3e7db!8m2!3d28.4496253!4d74.5019635!16s%2Fg%2F11gzr_x9fb!19sChIJYcdn8jT1FDkR2-fDY3uZhsQ?authuser=0&hl=en&rclk=1,"28.449625299999997,74.5019635"
Jakariya Masjid,Mosque,"CFMH+MWV Jakariya Masjid, Ram Nagar, Sardarshahr, Rajasthan 331403",Ram Nagar,CFMH+MWV,Sardarshahr,331403,Rajasthan,IN,https://www.google.com/maps/place/Jakariya+Masjid/data=!4m7!3m6!1s0x3914f6b71a90e293:0xab5aa83ef397ca04!8m2!3d28.4342344!4d74.4797926!16s%2Fg%2F11bzq92kg2!19sChIJk-KQGrf2FDkRBMqX8z6oWqs?authuser=0&hl=en&rclk=1,"28.434234399999998,74.4797926"
Aayesha Masjid,Mosque,"Aayesha Masjid, Near old Gas Godawn, Ward no. 4, Sardarshahar, Rajasthan 331403",Ram Nagar,"Near old Gas Godawn, Ward no. 4","Sardarshahar, Sardarshahr",331403,Rajasthan,IN,https://www.google.com/maps/place/Aayesha+Masjid/data=!4m7!3m6!1s0x3914f6b6dcc122fd:0x366e676856d96daf!8m2!3d28.4331113!4d74.480585!16s%2Fg%2F11f3v8t7y4!19sChIJ_SLB3Lb2FDkRr23ZVmhnbjY?authuser=0&hl=en&rclk=1,"28.4331113,74.48058499999999"
Makka masjid/ Sikka masjid,Mosque,"Makka masjid/ Sikka masjid, Makka masjid,ward no. 55, Sardarshahar, 331403",Sharif Gouri,"Makka masjid,ward no. 55","Sardarshahar, Hariyasar Gharsotan",331403,Rajasthan,IN,https://www.google.com/maps/place/Makka+masjid%2F+Sikka+masjid/data=!4m7!3m6!1s0x3914f7013bd4ea51:0xafd548eb32db368e!8m2!3d28.4479096!4d74.4841072!16s%2Fg%2F11p5gjjjrq!19sChIJUerUOwH3FDkRjjbbMutI1a8?authuser=0&hl=en&rclk=1,"28.4479096,74.4841072"
JAMA MASJID,Mosque,"CFWV+78 JAMA MASJID, well, ward no. 22, dhore wali, opposite kalukhan, Sardarshahr, Rajasthan 331403",Gayatri Nagar,"CFWV+78 well, ward no. 22, dhore wali, opposite kalukhan",Sardarshahr,331403,Rajasthan,IN,https://www.google.com/maps/place/JAMA+MASJID/data=!4m7!3m6!1s0x3914f6a15fc75e67:0x1527dc237e576d6f!8m2!3d28.4451663!4d74.4937109!16s%2Fg%2F11gffhtqjd!19sChIJZ17HX6H2FDkRb21XfiPcJxU?authuser=0&hl=en&rclk=1,"28.4451663,74.4937109"
Madina General Store,Dairy store,"Madina General Store, Aksha masjid, Gayatri Nagar, Sardarshahar, Sardarshahr, Rajasthan 331001",Gayatri Nagar,Aksha masjid,"Sardarshahar, Sardarshahr",331001,Rajasthan,IN,https://www.google.com/maps/place/Madina+General+Store/data=!4m7!3m6!1s0x3914f7b3753bf063:0xb5b165572b7bf005!8m2!3d28.4447544!4d74.495736!16s%2Fg%2F11ll4tpnnv!19sChIJY_A7dbP3FDkRBfB7K1dlsbU?authuser=0&hl=en&rclk=1,"28.444754399999997,74.495736"
Shivaji Bal Siksha Niketan,School,"CFXW+R89 Shivaji Bal Siksha Niketan, Gayatri Nagar, Sardarshahr, Hariyasar Gharsotan, Rajasthan 331403",Gayatri Nagar,CFXW+R89,"Sardarshahr, Hariyasar Gharsotan",331403,Rajasthan,IN,https://www.google.com/maps/place/Shivaji+Bal+Siksha+Niketan/data=!4m7!3m6!1s0x3914f6a1d71e8f6b:0x589525042c059866!8m2!3d28.4495269!4d74.4958478!16s%2Fg%2F11gfjbd368!19sChIJa48e16H2FDkRZpgFLAQllVg?authuser=0&hl=en&rclk=1,"28.4495269,74.49584779999999"
MOTI MASJID,Mosque,"CFXV+J6X MOTI MASJID, Anjumn Rd, Gayatri Nagar, Sardarshahr, Hariyasar Gharsotan, Rajasthan 331403",Gayatri Nagar,"CFXV+J6X, Anjumn Rd","Sardarshahr, Hariyasar Gharsotan",331403,Rajasthan,IN,https://www.google.com/maps/place/MOTI+MASJID/data=!4m7!3m6!1s0x3914f744e3593455:0xe1bd22aef14db320!8m2!3d28.449107!4d74.493097!16s%2Fg%2F11pqw9kn8y!19sChIJVTRZ40T3FDkRILNN8a4iveE?authuser=0&hl=en&rclk=1,"28.449106999999998,74.49309699999999"
Imam Bara,Shopping mall,"CFWV+72J Imam Bara, Imam Bara Rd, Gayatri Nagar, Sardarshahar, Sardarshahr, Rajasthan 331403",Gayatri Nagar,"CFWV+72J, Imam Bara Rd","Sardarshahar, Sardarshahr",,Rajasthan,IN,https://www.google.com/maps/place/Imam+Bara/data=!4m7!3m6!1s0x3914f7b874c08b1b:0xed0c873a8a79016f!8m2!3d28.4457045!4d74.4925195!16s%2Fg%2F11g0h1cs07!19sChIJG4vAdLj3FDkRbwF5ijqHDO0?authuser=0&hl=en&rclk=1,"28.445704499999998,74.4925195"
Madina Masjid,Mosque,"Madina Masjid, Gayatri Nagar, Sardarshahr, Rajasthan 331403",Gayatri Nagar,,Sardarshahr,331403,Rajasthan,IN,https://www.google.com/maps/place/Madina+Masjid/data=!4m7!3m6!1s0x3914f5c36cc17cf3:0x76a422df686cd2ae!8m2!3d28.4475949!4d74.50134!16s%2Fg%2F11ll4zyxbr!19sChIJ83zBbMP1FDkRrtJsaN8ipHY?authuser=0&hl=en&rclk=1,"28.4475949,74.50134"
Masjid-e-Tauheed,Mosque,"FF2X+PW8 Masjid-e-Tauheed, Gayatri Nagar, Sardarshahr, Hariyasar Gharsotan, Rajasthan 331403",Gayatri Nagar,FF2X+PW8,"Sardarshahr, Hariyasar Gharsotan",331403,Rajasthan,IN,https://www.google.com/maps/place/Masjid-e-Tauheed/data=!4m7!3m6!1s0x3914f541cbfef381:0xd7b0713db997bc56!8m2!3d28.4517829!4d74.4998342!16s%2Fg%2F11rbxnq7km!19sChIJgfP-y0H1FDkRVryXuT1xsNc?authuser=0&hl=en&rclk=1,"28.451782899999998,74.4998342"
Meenna Masjid,Mosque,"Meenna Masjid, Unnamed Road, Sharif Gouri, Sardarshahr, Hariyasar Gharsotan, Rajasthan 331403",Sharif Gouri,Unnamed Road,"Sardarshahr, Hariyasar Gharsotan",331403,Rajasthan,IN,https://www.google.com/maps/place/Meenna+Masjid/data=!4m7!3m6!1s0x3914f7f18313333b:0xe0133edf34d87d3b!8m2!3d28.4497396!4d74.4897666!16s%2Fg%2F11h3mlknwp!19sChIJOzMTg_H3FDkRO33YNN8-E-A?authuser=0&hl=en&rclk=1,"28.449739599999997,74.4897666"
Moti Masjid,Pharmacy,"FF2V+3C7 Moti Masjid, Gayatri Nagar, Sardarshahr, Hariyasar Gharsotan, Rajasthan 331403",Gayatri Nagar,FF2V+3C7,"Sardarshahr, Hariyasar Gharsotan",331403,Rajasthan,IN,https://www.google.com/maps/place/Moti+Masjid/data=!4m7!3m6!1s0x3914f713398ee185:0xf9845c9ef9b9e071!8m2!3d28.4501506!4d74.4935381!16s%2Fg%2F11g0hszkwr!19sChIJheGOORP3FDkRceC5-Z5chPk?authuser=0&hl=en&rclk=1,"28.450150599999997,74.4935381"
EIDGAH iidgaah,Mosque,"EIDGAH iidgaah, Anjuman school, Road, Gayatri Nagar, Sardarshahar, Hariyasar Gharsotan, Rajasthan 331403",Gayatri Nagar,"Anjuman school, Road","Sardarshahar, Hariyasar Gharsotan",331403,Rajasthan,IN,https://www.google.com/maps/place/EIDGAH+%E0%A4%88%E0%A4%A6%E0%A4%97%E0%A4%BE%E0%A4%B9/data=!4m7!3m6!1s0x3914f70d34c2f019:0x6a9847089bf79e01!8m2!3d28.4533537!4d74.4931633!16s%2Fg%2F11ft_cq8b5!19sChIJGfDCNA33FDkRAZ73mwhHmGo?authuser=0&hl=en&rclk=1,"28.453353699999997,74.49316329999999"
MAKKA MASJID WARD NO.40,School,"MAKKA MASJID WARD NO.40, MAKKA MASJID, Sharif Gouri, Sardarshahar, Hariyasar Gharsotan, Rajasthan 331403",Sharif Gouri,MAKKA MASJID,"Sardarshahar, Hariyasar Gharsotan",331403,Rajasthan,IN,https://www.google.com/maps/place/MAKKA+MASJID+WARD+NO.40/data=!4m7!3m6!1s0x3914f710e6487731:0x3fd3a894535421b1!8m2!3d28.4485577!4d74.4867787!16s%2Fg%2F11j9dkzvd4!19sChIJMXdI5hD3FDkRsSFUU5So0z8?authuser=0&hl=en&rclk=1,"28.4485577,74.4867787"
CHOUDHARY A.R. PG COLLAGE,College,"CHOUDHARY A.R. PG COLLAGE, Tughlaq marriage garden, Masjid-E-Bilal Rd, Gayatri Nagar, Sardarshahr, Hariyasar Gharsotan, Rajasthan 331403",Gayatri Nagar,"Tughlaq marriage garden, Masjid-E-Bilal Rd","Sardarshahr, Hariyasar Gharsotan",331403,Rajasthan,IN,https://www.google.com/maps/place/CHOUDHARY+A.R.+PG+COLLAGE/data=!4m7!3m6!1s0x3914f7eab834c3dd:0x31f809a60c80c92c!8m2!3d28.4527067!4d74.4977392!16s%2Fg%2F11rk029w2g!19sChIJ3cM0uOr3FDkRLMmADKYJ-DE?authuser=0&hl=en&rclk=1,"28.4527067,74.4977392"
Islamiya masjid,Mosque,"CFRV+5FP Islamiya masjid, Janhit Pranyas Colony, Sardarshahar, Sardarshahr, Rajasthan 331403",Janhit Pranyas Colony,CFRV+5FP,"Sardarshahar, Sardarshahr",331403,Rajasthan,IN,https://www.google.com/maps/place/Islamiya+masjid/data=!4m7!3m6!1s0x3914f7dce86c15fb:0x4df450ae7d912535!8m2!3d28.4404621!4d74.4936883!16s%2Fg%2F11sw_qzzxf!19sChIJ-xVs6Nz3FDkRNSWRfa5Q9E0?authuser=0&hl=en&rclk=1,"28.440462099999998,74.4936883"
RAMJAAN SAYED KAA GHAR HAI,Mosque,"CFXR+M93 RAMJAAN SAYED KAA GHAR HAI, Gayatri Nagar, Sardarshahar, Hariyasar Gharsotan, Rajasthan 331403",Gayatri Nagar,CFXR+M93,"Sardarshahar, Hariyasar Gharsotan",331403,Rajasthan,IN,https://www.google.com/maps/place/RAMJAAN+SAYED+KAA+GHAR+HAI/data=!4m7!3m6!1s0x3914f738af4e2dc3:0x3488978937226118!8m2!3d28.4492783!4d74.4908583!16s%2Fg%2F11tbwynb1_!19sChIJwy1Orzj3FDkRGGEiN4mXiDQ?authuser=0&hl=en&rclk=1,"28.4492783,74.4908583"
it's me babu,Housing society,"it's me babu, Gayatri Nagar, Sardarshahar, Hariyasar Gharsotan, Rajasthan 331403",Gayatri Nagar,,"Sardarshahar, Hariyasar Gharsotan",,Rajasthan,IN,https://www.google.com/maps/place/it%27s+me+babu/data=!4m7!3m6!1s0x3914f7e0b36f7677:0xe7c93180ba896bc0!8m2!3d28.4518153!4d74.4984533!16s%2Fg%2F11t0p9dk0r!19sChIJd3Zvs-D3FDkRwGuJuoAxyec?authuser=0&hl=en&rclk=1,"28.4518153,74.4984533"
KHaN SaHaB Kothi's,Housing society,"CFXW+PXX KHaN SaHaB Kothi's, Masjid-E-Bilal Rd, Gayatri Nagar, Sardarshahr, Hariyasar Gharsotan, Rajasthan 331403",Gayatri Nagar,"CFXW+PXX, Masjid-E-Bilal Rd","Sardarshahr, Hariyasar Gharsotan",331403,Rajasthan,IN,https://www.google.com/maps/place/KHaN+SaHaB+Kothi%27s/data=!4m7!3m6!1s0x3914f7fe6e23ce69:0x97586b2851fcb3df!8m2!3d28.4493721!4d74.4974756!16s%2Fg%2F11qqkxv4y7!19sChIJac4jbv73FDkR37P8UShrWJc?authuser=0&hl=en&rclk=1,"28.449372099999998,74.4974756"
Tughlaq palace,Housing society,"Tughlaq palace, Jama masjid, dhore wali, Gayatri Nagar, Sardarshahar, Sardarshahr, Rajasthan 331403",Gayatri Nagar,"Jama masjid, dhore wali","Sardarshahar, Sardarshahr",,Rajasthan,IN,https://www.google.com/maps/place/Tughlaq+palace/data=!4m7!3m6!1s0x3914f7796b10993d:0xfac188d235c459b8!8m2!3d28.4451613!4d74.4937162!16s%2Fg%2F11q3bxnrtj!19sChIJPZkQa3n3FDkRuFnENdKIwfo?authuser=0&hl=en&rclk=1,"28.4451613,74.4937162"
Sardarshahar markaj masjid,University,"CFWR+MH7 Sardarshahar markaj masjid, Gayatri Nagar, Hariyasar Gharsotan, Rajasthan 331403",Gayatri Nagar,CFWR+MH7,Hariyasar Gharsotan,331403,Rajasthan,IN,https://www.google.com/maps/place/Sardarshahar+markaj+masjid/data=!4m7!3m6!1s0x3914f70cf849f545:0xa5e586a81e144c4a!8m2!3d28.4466503!4d74.4914319!16s%2Fg%2F11q1kzb0vj!19sChIJRfVJ-Az3FDkRSkwUHqiG5aU?authuser=0&hl=en&rclk=1,"28.446650299999998,74.4914319"
Masjid Usman,Mosque,"FF5R+CFJ Masjid Usman, Madinah Colony, Gayatri Nagar, Hariyasar Gharsotan, Rajasthan 331403","Madinah Colony, Gayatri Nagar",FF5R+CFJ,Hariyasar Gharsotan,331403,Rajasthan,IN,https://www.google.com/maps/place/Masjid+Usman/data=!4m7!3m6!1s0x3914f7c88fdc53d3:0x8b1133363db5eb3c!8m2!3d28.4585839!4d74.4911551!16s%2Fg%2F11r8wrhm3n!19sChIJ01Pcj8j3FDkRPOu1PTYzEYs?authuser=0&hl=en&rclk=1,"28.458583899999997,74.4911551"
Aaqsah masjid,University,"CFVW+X3X Aaqsah masjid, Ward No.22, Gayatri Nagar, Sardarshahr, Rajasthan 331403","Ward No.22, Gayatri Nagar",CFVW+X3X,Sardarshahr,331403,Rajasthan,IN,https://www.google.com/maps/place/Aaqsah+masjid/data=!4m7!3m6!1s0x3914f73cce8ea189:0x685cc95f820f8bbd!8m2!3d28.4447936!4d74.4953691!16s%2Fg%2F11tx5j2cn9!19sChIJiaGOzjz3FDkRvYsPgl_JXGg?authuser=0&hl=en&rclk=1,"28.444793599999997,74.49536909999999"
Al Karim Masjid,School,"CFWQ+M8W Al Karim Masjid, Sharif Gouri, Sardarshahr, Hariyasar Gharsotan, Rajasthan 331403",Sharif Gouri,CFWQ+M8W,"Sardarshahr, Hariyasar Gharsotan",331403,Rajasthan,IN,https://www.google.com/maps/place/Al+Karim+Masjid/data=!4m7!3m6!1s0x3914f7a1508669c9:0x7077b614f060134f!8m2!3d28.4467257!4d74.4883414!16s%2Fg%2F11f7mn6y4l!19sChIJyWmGUKH3FDkRTxNg8BS2d3A?authuser=0&hl=en&rclk=1,"28.4467257,74.4883414"
farukh nirban,Home help,"ward no.41, farukh nirban, Minara masjid (teliyan masjid), Sharif Gouri, Sardarshahar, Sardarshahr, Rajasthan 331403",Sharif Gouri,"ward no.41, Minara masjid (teliyan masjid)","Sardarshahar, Sardarshahr",,Rajasthan,IN,https://www.google.com/maps/place/farukh+nirban/data=!4m7!3m6!1s0x3914f79d1b060cb7:0x926ad2ded3516ba1!8m2!3d28.4432666!4d74.4896939!16s%2Fg%2F11tj951cpm!19sChIJtwwGG533FDkRoWtR097SapI?authuser=0&hl=en&rclk=1,"28.443266599999998,74.48969389999999"
Masjid Al Kareem,School,"CFJV+WCX Masjid Al Kareem, Ram Nagar, Sardarshahr, Rajasthan 331403",Ram Nagar,CFJV+WCX,Sardarshahr,331403,Rajasthan,IN,https://www.google.com/maps/place/Masjid+Al+Kareem/data=!4m7!3m6!1s0x3914f6abffffffff:0x7e3f0a6175d3503d!8m2!3d28.4323658!4d74.493617!16s%2Fg%2F11g6bjk3vn!19sChIJ_____6v2FDkRPVDTdWEKP34?authuser=0&hl=en&rclk=1,"28.4323658,74.493617"
GAURI MANJIL,Housing complex,"GAURI MANJIL, SIKKA MASJID WARD NO. 53, Sardarshahar",Sharif Gouri,SIKKA MASJID WARD NO. 53,"Sardarshahar, Hariyasar Gharsotan",,Rajasthan,IN,https://www.google.com/maps/place/GAURI+MANJIL/data=!4m7!3m6!1s0x3914f750fafbe62b:0x7aa66bd206dc6b4f!8m2!3d28.4479096!4d74.4841072!16s%2Fg%2F11smqlkblt!19sChIJK-b7-lD3FDkRT2vcBtJrpno?authuser=0&hl=en&rclk=1,"28.4479096,74.4841072"
Mother dairy,Milk delivery service,"ward no 31, Mother dairy, near by Nurani Masjid Road, Gayatri Nagar, Sardarshahar, Hariyasar Gharsotan, Rajasthan 331404",Gayatri Nagar,"ward no 31, near by Nurani Masjid Road","Sardarshahar, Hariyasar Gharsotan",331404,Rajasthan,IN,https://www.google.com/maps/place/Mother+dairy/data=!4m7!3m6!1s0x3914f5e0e8de64c9:0x58be68aca29fcd4c!8m2!3d28.4514699!4d74.5024952!16s%2Fg%2F11vb2pjggz!19sChIJyWTe6OD1FDkRTM2foqxovlg?authuser=0&hl=en&rclk=1,"28.4514699,74.5024952"
Maa Jeen Bhavani E-Mitra Seva Kendra,Computer support and services,"Maa Jeen Bhavani E-Mitra Seva Kendra, Railway Station, Ram Nagar, Sardarshahar, Sardarshahr, Rajasthan 332719",Ram Nagar,Railway Station,"Sardarshahar, Sardarshahr",332719,Rajasthan,IN,https://www.google.com/maps/place/Maa+Jeen+Bhavani+E-Mitra+Seva+Kendra/data=!4m7!3m6!1s0x3914f746f5774069:0xa9c94b4706fdb38e!8m2!3d28.4330923!4d74.4759928!16s%2Fg%2F11rpmdn1zk!19sChIJaUB39Ub3FDkRjrP9BkdLyak?authuser=0&hl=en&rclk=1,"28.4330923,74.4759928"
Mohammed Zahid khokhar house,Apartment building,"Mohammed Zahid khokhar house, sardar share, near Fatima masjid, Gayatri Nagar, Hariyasar Gharsotan, Sardarshahr, Rajasthan 331403",Gayatri Nagar,"sardar share, near Fatima masjid","Hariyasar Gharsotan, Sardarshahr",,Rajasthan,IN,https://www.google.com/maps/place/Mohammed+Zahid+khokhar+house/data=!4m7!3m6!1s0x3914f7f3100c6159:0x4a4fbc8c6139fed7!8m2!3d28.4512182!4d74.4915918!16s%2Fg%2F11tp3c1y07!19sChIJWWEMEPP3FDkR1_45YYy8T0o?authuser=0&hl=en&rclk=1,"28.4512182,74.4915918"
Maan ki badi,Farm,"Maan ki badi, Masjid -e-tauheed, Gayatri Nagar, Sardarshahar, Hariyasar Gharsotan, Rajasthan 331403",Gayatri Nagar,Masjid -e-tauheed,"Sardarshahar, Hariyasar Gharsotan",331403,Rajasthan,IN,https://www.google.com/maps/place/Maan+ki+badi/data=!4m7!3m6!1s0x3914f5f18b585de9:0x54ace7edcc60300!8m2!3d28.4518072!4d74.4998267!16s%2Fg%2F11s8x0gqmy!19sChIJ6V1Yi_H1FDkRAAPG3H7OSgU?authuser=0&hl=en&rclk=1,"28.451807199999998,74.4998267"
Khalid Qureshi,Apartment complex,"CFWQ+QPG Khalid Qureshi, near Alkrim Masjid, Sharif Gouri, Sardarshahar, Hariyasar Gharsotan, Rajasthan 331403",Sharif Gouri,"CFWQ+QPG, near Alkrim Masjid","Sardarshahar, Hariyasar Gharsotan",,Rajasthan,IN,https://www.google.com/maps/place/Khalid+Qureshi/data=!4m7!3m6!1s0x3914f7cdea01ffe7:0x90ac0c5bb9b6f9d7!8m2!3d28.4469347!4d74.4893383!16s%2Fg%2F11rr27zdby!19sChIJ5_8B6s33FDkR1_m2uVsMrJA?authuser=0&hl=en&rclk=1,"28.4469347,74.4893383"
MOHAMMED SHAKIR KHATRI SEVEN STAR,Store,"CFVQ+9J8 MOHAMMED SHAKIR KHATRI SEVEN STAR, CHOWDARY WELL ROAD, near TELIYAN MASJID, Sharif Gouri, Sardarshahar, Sardarshahr, Rajasthan 331403",Sharif Gouri,"CFVQ+9J8, CHOWDARY WELL ROAD, near TELIYAN MASJID","Sardarshahar, Sardarshahr",,Rajasthan,IN,https://www.google.com/maps/place/MOHAMMED+SHAKIR+KHATRI+SEVEN+STAR/data=!4m7!3m6!1s0x3914f7b578695ffd:0xaa68dbbbd921a03e!8m2!3d28.4434213!4d74.4890637!16s%2Fg%2F11sfjflh1g!19sChIJ_V9peLX3FDkRPqAh2bvbaKo?authuser=0&hl=en&rclk=1,"28.443421299999997,74.4890637"
Maksud Khan Tanwar,Housing society,"W.N. 19, Maksud Khan Tanwar, Madina masjid, Ward No 19, Gayatri Nagar, Sardarshahr, Rajasthan 331403","Ward No 19, Gayatri Nagar","W.N. 19, Madina masjid",Sardarshahr,331403,Rajasthan,IN,https://www.google.com/maps/place/Maksud+Khan+Tanwar/data=!4m7!3m6!1s0x3914f52f09421931:0x4ad5bb9bd301ce8b!8m2!3d28.447543!4d74.5022044!16s%2Fg%2F11sj5d_0yq!19sChIJMRlCCS_1FDkRi84B05u71Uo?authuser=0&hl=en&rclk=1,"28.447543,74.5022044"
new.genempire,Business management consultant,"CFVQ+8R8 new.genempire, teliyan masjid, Ward No.35, Sardarshahar, Rajasthan 331403","Ward No.35, Sharif Gouri","CFVQ+8R8, teliyan masjid","Sardarshahar, Sardarshahr",331403,Rajasthan,IN,https://www.google.com/maps/place/new.genempire/data=!4m7!3m6!1s0x3914f76393d8ab1d:0x4e9515730d367038!8m2!3d28.4432899!4d74.4895645!16s%2Fg%2F11rwqqtkqv!19sChIJHavYk2P3FDkROHA2DXMVlU4?authuser=0&hl=en&rclk=1,"28.4432899,74.4895645"
Shekhawat generator,Electric generator shop,"FG22+337 Shekhawat generator, Nurani Masjid Rd, Gayatri Nagar, Sardarshahr, Hariyasar Gharsotan, Rajasthan 331403",Gayatri Nagar,"FG22+337, Nurani Masjid Rd","Sardarshahr, Hariyasar Gharsotan",331403,Rajasthan,IN,https://www.google.com/maps/place/Shekhawat+generator/data=!4m7!3m6!1s0x3914f568b028f92b:0xc458c1cbe5b4d4b4!8m2!3d28.4501716!4d74.5001579!16s%2Fg%2F11rrp4vqbc!19sChIJK_kosGj1FDkRtNS05cvBWMQ?authuser=0&hl=en&rclk=1,"28.450171599999997,74.50015789999999"
J.M Mobile Store,Cell phone store,"J.M Mobile Store, Teliyan masjid choudhary Wala kuva Side of Teliyan Masjid, Chaudhary Marg, Kuva, Sardarshahar, Sardarshahr, Rajasthan 331403",Kuva,"Teliyan masjid choudhary Wala kuva Side of Teliyan Masjid, Chaudhary Marg","Sardarshahar, Sardarshahr",331403,Rajasthan,IN,https://www.google.com/maps/place/J.M+Mobile+Store/data=!4m7!3m6!1s0x3914f774bda45dff:0x72adb6dbfdfa49d6!8m2!3d28.443453!4d74.4889462!16s%2Fg%2F11sd9d9sf0!19sChIJ_12kvXT3FDkR1kn6_du2rXI?authuser=0&hl=en&rclk=1,"28.443452999999998,74.4889462"
