name,main_category,address,address_ward,address_street,address_city,address_postal_code,address_state,address_country_code,link,coordinates
Barabazar Mosque,Mosque,"6VR5+444 Barabazar Mosque, BC Rd, Shyamlal Colony, Baburbag, Bardhaman, West Bengal 713101","Shyamlal Colony, Baburbag","6VR5+444, BC Rd",Bardhaman,713101,West Bengal,IN,https://www.google.com/maps/place/Barabazar+Mosque/data=!4m7!3m6!1s0x39f849d97266488f:0xd0ad092614035315!8m2!3d23.2402533!4d87.8578283!16s%2Fg%2F1tmptd88!19sChIJj0hmctlJ-DkRFVMDFCYJrdA?authuser=0&hl=en&rclk=1,"23.2402533,87.8578283"
Rasikpur Mosque,Mosque,"Rasikpur Mosque, Rasikpur, Subhas Pally, Bardhaman, West Bengal 713101","Rasikpur, Subhas Pally",,Bardhaman,713101,West Bengal,IN,https://www.google.com/maps/place/Rasikpur+Mosque/data=!4m7!3m6!1s0x39f849e77ef00cb1:0xc4f407a7778a1202!8m2!3d23.2490205!4d87.862148!16s%2Fg%2F1264gkjgc!19sChIJsQzwfudJ-DkRAhKKd6cH9MQ?authuser=0&hl=en&rclk=1,"23.2490205,87.86214799999999"
Golapbag Mosque,Mosque,"7V42+923 Golapbag Mosque, University Rd, Bardhaman University, Bardhaman, West Bengal 713104",Bardhaman University,"7V42+923, University Rd",Bardhaman,713104,West Bengal,IN,https://www.google.com/maps/place/Golapbag+Mosque/data=!4m7!3m6!1s0x39f8361bf5794fb9:0x158f4942d099dfc0!8m2!3d23.2558809!4d87.8500514!16s%2Fg%2F124yf15n3!19sChIJuU959Rs2-DkRwN-Z0EJJjxU?authuser=0&hl=en&rclk=1,"23.255880899999998,87.8500514"
Vivekananda College More Masjid,Mosque,"6VG5+44G Vivekananda College More Masjid, Barabalidanga, Bardhaman, West Bengal 713101",Barabalidanga,6VG5+44G,Bardhaman,713101,West Bengal,IN,https://www.google.com/maps/place/Vivekananda+College+More+Masjid/data=!4m7!3m6!1s0x39f849d4d16d2013:0xdd9a4e6ce29534af!8m2!3d23.225321!4d87.8578245!16s%2Fg%2F11f03p4172!19sChIJEyBt0dRJ-DkRrzSV4mxOmt0?authuser=0&hl=en&rclk=1,"23.225320999999997,87.85782449999999"
Court Compound Mosque,Mosque,"6VQC+V3G Court Compound Mosque, Badamtala, Kalibazar, Bardhaman, West Bengal 713101","Badamtala, Kalibazar",6VQC+V3G,Bardhaman,713101,West Bengal,IN,https://www.google.com/maps/place/Court+Compound+Mosque/data=!4m7!3m6!1s0x39f849c67c8d8855:0xe75d9398473f2bca!8m2!3d23.2396801!4d87.8702037!16s%2Fg%2F11cjhjl5cw!19sChIJVYiNfMZJ-DkRyis_R5iTXec?authuser=0&hl=en&rclk=1,"23.239680099999998,87.87020369999999"
Solapukur Masjid,Mosque,"7V3C+4FG Solapukur Masjid, Bajepratappur, Bardhaman, West Bengal 713101",Bajepratappur,7V3C+4FG,Bardhaman,713101,West Bengal,IN,https://www.google.com/maps/place/Solapukur+Masjid/data=!4m7!3m6!1s0x39f849ebb97e9c69:0x176c0e6d91fe3681!8m2!3d23.2528116!4d87.8712071!16s%2Fg%2F11c5hh_gs2!19sChIJaZx-uetJ-DkRgTb-kW0ObBc?authuser=0&hl=en&rclk=1,"23.252811599999998,87.87120709999999"
Kamal Sayar Shaahi Jama Masjid,Mosque,"Kamal Sayar Shaahi Jama Masjid, Goda, Bardhaman, West Bengal 713104",Goda,,Bardhaman,713104,West Bengal,IN,https://www.google.com/maps/place/Kamal+Sayar+Shaahi+Jama+Masjid/data=!4m7!3m6!1s0x39f8361011d92daf:0x88e6457bbebe2c33!8m2!3d23.2594593!4d87.8445272!16s%2Fg%2F11c6sm82nx!19sChIJry3ZERA2-DkRMyy-vntF5og?authuser=0&hl=en&rclk=1,"23.2594593,87.8445272"
Parkas Road Jama Masjid,Mosque,"Parkas Road Jama Masjid, 1, Parcus Rd., Laskar Dighi, Khosbagan, Bardhaman, West Bengal 713101","Laskar Dighi, Khosbagan","1, Parcus Rd.",Bardhaman,713101,West Bengal,IN,https://www.google.com/maps/place/Parkas+Road+Jama+Masjid/data=!4m7!3m6!1s0x39f849c390e35755:0x4266039bdc4d9e72!8m2!3d23.2438959!4d87.8680067!16s%2Fg%2F1pyqjz0rl!19sChIJVVfjkMNJ-DkRcp5N3JsDZkI?authuser=0&hl=en&rclk=1,"23.2438959,87.8680067"
Nurani Masjid (Burdwan district markaj),Mosque,"Nurani Masjid (Burdwan district markaj), 105, BC Rd, Khosbagan, Bardhaman, West Bengal 713101",Khosbagan,"105, BC Rd",Bardhaman,713101,West Bengal,IN,https://www.google.com/maps/place/Nurani+Masjid+%28Burdwan+district+markaj%29/data=!4m7!3m6!1s0x39f849db03f1dc25:0xc9a6abef59250d71!8m2!3d23.240307!4d87.8627452!16s%2Fg%2F1pyqnqncx!19sChIJJdzxA9tJ-DkRcQ0lWe-rpsk?authuser=0&hl=en&rclk=1,"23.240306999999998,87.86274519999999"
BORO MASJID,Mosque,"7V24+4QX BORO MASJID, Bahir Sarbamangala Para Rd, Khudiram Pally, Bardhaman, West Bengal 713101",Khudiram Pally,"7V24+4QX, Bahir Sarbamangala Para Rd",Bardhaman,713101,West Bengal,IN,https://www.google.com/maps/place/BORO+MASJID/data=!4m7!3m6!1s0x39f849e05da00c23:0xc90c0ce9eb260d92!8m2!3d23.2503684!4d87.8569957!16s%2Fg%2F11cjpczp5x!19sChIJIwygXeBJ-DkRkg0m6-kMDMk?authuser=0&hl=en&rclk=1,"23.2503684,87.8569957"
Hatudewan Mosque,Mosque,"7V6F+7CG Hatudewan Mosque, Bajepratappur, Bardhaman, West Bengal 713101",Bajepratappur,7V6F+7CG,Bardhaman,713101,West Bengal,IN,https://www.google.com/maps/place/Hatudewan+Mosque/data=!4m7!3m6!1s0x39f849ed5f26294d:0x392a2b020506526e!8m2!3d23.2606905!4d87.87358!16s%2Fg%2F11c5rmkvpf!19sChIJTSkmX-1J-DkRblIGBQIrKjk?authuser=0&hl=en&rclk=1,"23.2606905,87.87357999999999"
Sahana Masjid,Mosque,"7R3R+Q25 Sahana Masjid, Goda, Bardhaman, West Bengal 713102",Goda,7R3R+Q25,Bardhaman,713102,West Bengal,IN,https://www.google.com/maps/place/Sahana+Masjid/data=!4m7!3m6!1s0x39f83614005e8e6b:0xd1c8c48848a7072a!8m2!3d23.2543959!4d87.8401022!16s%2Fg%2F1tmqk5wf!19sChIJa45eABQ2-DkRKgenSIjEyNE?authuser=0&hl=en&rclk=1,"23.2543959,87.84010219999999"
Hajrat Pir Aama Masjid,Mosque,"6VW3+GX9 Hajrat Pir Aama Masjid, Bardhaman University, Bardhaman, West Bengal 713104",Bardhaman University,6VW3+GX9,Bardhaman,713104,West Bengal,IN,https://www.google.com/maps/place/Hajrat+Pir+Aama+Masjid/data=!4m7!3m6!1s0x39f836207860ac83:0x70b2f2f748d776b8!8m2!3d23.2462864!4d87.8549976!16s%2Fg%2F1pyqrzgrz!19sChIJg6xgeCA2-DkRuHbXSPfysnA?authuser=0&hl=en&rclk=1,"23.2462864,87.85499759999999"
Sarat Pally Masjid (Masjid-e-Qubah),Mosque,"Sarat Pally Masjid (Masjid-e-Qubah), Sarat, Nivedita Pally Rd, Meghnad Saha Pally, Khagragorh, Bardhaman, West Bengal 713104","Meghnad Saha Pally, Khagragorh","Sarat, Nivedita Pally Rd",Bardhaman,,West Bengal,IN,https://www.google.com/maps/place/Sarat+Pally+Masjid+%28Masjid-e-Qubah%29/data=!4m7!3m6!1s0x39f8361cb2f3c423:0xbb7b399467719868!8m2!3d23.2604046!4d87.8506902!16s%2Fg%2F11bv3v0n4p!19sChIJI8Tzshw2-DkRaJhxZ5Q5e7s?authuser=0&hl=en&rclk=1,"23.260404599999998,87.8506902"
Madina mosque,Mosque,"Madina mosque, BB Ghosh Rd, Khosbagan, Bardhaman, West Bengal 713101",Khosbagan,BB Ghosh Rd,Bardhaman,713101,West Bengal,IN,https://www.google.com/maps/place/Madina+mosque/data=!4m7!3m6!1s0x39f849db4c701505:0x8eb63e6abd026ca5!8m2!3d23.2417618!4d87.864427!16s%2Fg%2F1pyqm15bv!19sChIJBRVwTNtJ-DkRpWwCvWo-to4?authuser=0&hl=en&rclk=1,"23.2417618,87.86442699999999"
Masjid-e Darul Aman,Mosque,"7V54+5P8 Masjid-e Darul Aman, Purbapara Rd, Khagragorh, Bardhaman, West Bengal 713104",Khagragorh,"7V54+5P8, Purbapara Rd",Bardhaman,713104,West Bengal,IN,https://www.google.com/maps/place/Masjid-e+Darul+Aman/data=!4m7!3m6!1s0x39f8491f127dc191:0x5cc02dc8175b4398!8m2!3d23.2579136!4d87.8568204!16s%2Fg%2F11rsv045v5!19sChIJkcF9Eh9J-DkRmENbF8gtwFw?authuser=0&hl=en&rclk=1,"23.2579136,87.85682039999999"
Kalashipara Masjid,Mosque,"6VWJ+PG2 Kalashipara Masjid, Kalna Link Road, Railway Loco Colony, Bardhaman, West Bengal 713101",Railway Loco Colony,"6VWJ+PG2, Kalna Link Road",Bardhaman,713101,West Bengal,IN,https://www.google.com/maps/place/Kalashipara+Masjid/data=!4m7!3m6!1s0x39f849a5bac462cb:0x1c37b92cb12e306!8m2!3d23.2467735!4d87.8812614!16s%2Fg%2F11rc0gmlk6!19sChIJy2LEuqVJ-DkRBuMSy5J7wwE?authuser=0&hl=en&rclk=1,"23.2467735,87.8812614"
Balidanga Masjid-E-Bilal,Mosque,"Balidanga Masjid-E-Bilal, 149, Perbirhata, Bardhaman, West Bengal 713101",Perbirhata,149,Bardhaman,713101,West Bengal,IN,https://www.google.com/maps/place/Balidanga+Masjid-E-Bilal/data=!4m7!3m6!1s0x39f8494989b990e9:0xd8a93052e065b131!8m2!3d23.2270101!4d87.8668262!16s%2Fg%2F11pwst2j6z!19sChIJ6ZC5iUlJ-DkRMbFl4FIwqdg?authuser=0&hl=en&rclk=1,"23.227010099999998,87.86682619999999"
msjid,Mosque,"6VMJ+6HH msjid, Unnamed Road, Rabindrapally, Bardhaman, West Bengal 713103",Rabindrapally,"6VMJ+6HH, Unnamed Road",Bardhaman,713103,West Bengal,IN,https://www.google.com/maps/place/%E0%A6%AE%E0%A6%B8%E0%A6%9C%E0%A6%BF%E0%A6%A6/data=!4m7!3m6!1s0x39f849b10dd9d8fd:0x82338b6624d01e!8m2!3d23.2330737!4d87.881471!16s%2Fg%2F11g9k12fqf!19sChIJ_djZDbFJ-DkRHtAkZoszggA?authuser=0&hl=en&rclk=1,"23.2330737,87.88147099999999"
msjid,Mosque,"713103, msjid, 437, Golahat Rd, Barabalidanga, Bardhaman, West Bengal 713101",Barabalidanga,"713103, 437, Golahat Rd",Bardhaman,713101,West Bengal,IN,https://www.google.com/maps/place/%E0%A6%AE%E0%A6%B8%E0%A6%9C%E0%A6%BF%E0%A6%A6/data=!4m7!3m6!1s0x39f849d6f7aaaf59:0x3cbc1fb6e8f0d0dc!8m2!3d23.2312022!4d87.8572758!16s%2Fg%2F11dylvzpsq!19sChIJWa-q99ZJ-DkR3NDw6LYfvDw?authuser=0&hl=en&rclk=1,"23.2312022,87.8572758"
