name,main_category,address,address_ward,address_street,address_city,address_postal_code,address_state,address_country_code,link,coordinates
Jama Masjid,Mosque,"Jama Masjid, Old Delhi, Delhi, 110006","Jama Masjid, Old Delhi",,Delhi,110006,Delhi,IN,https://www.google.com/maps/place/Jama+Masjid/data=!4m7!3m6!1s0x390cfd18df89b215:0xdd57369e29bf9d96!8m2!3d28.6506792!4d77.2334421!16zL20vMDR5emo1!19sChIJFbKJ3xj9DDkRlp2_KZ42V90?authuser=0&hl=en&rclk=1,"28.6506792,77.23344209999999"
Karim's Hotel Pvt. Ltd.,Mughlai restaurant,"Karim's Hotel Pvt. Ltd., 16, Gali Kababian, Jama Masjid, Old Delhi, Delhi, 110006","Jama Masjid, Old Delhi","16, Gali Kababian",Delhi,110006,Delhi,IN,https://www.google.com/maps/place/Karim%27s+Hotel+Pvt.+Ltd./data=!4m7!3m6!1s0x390cfd18c7d52fcb:0x3d7dc47ed575713d!8m2!3d28.6494961!4d77.2337642!16s%2Fg%2F11f2rw76w9!19sChIJyy_Vxxj9DDkRPXF11X7EfT0?authuser=0&hl=en&rclk=1,"28.6494961,77.2337642"
Bikanervala,Family restaurant,"Bikanervala, 7,Masjid Moth ,GK-II Savitri Cinema Main Road,, New Delhi, Delhi 110048","Greater Kailash Part 3, Greater Kailash","7,Masjid Moth ,GK-II Savitri Cinema Main Road,",New Delhi,110048,Delhi,IN,https://www.google.com/maps/place/Bikanervala/data=!4m7!3m6!1s0x390ce22b17e2d781:0x40c5f102209b866c!8m2!3d28.5374253!4d77.2389712!16s%2Fg%2F11cmr0t9q8!19sChIJgdfiFyviDDkRbIabIALxxUA?authuser=0&hl=en&rclk=1,"28.5374253,77.2389712"
Carnatic Cafe,South Indian restaurant,"Ground Shop No, Carnatic Cafe, M-21, Inder Mohan Bhardwaj Marg, Block M, Greater Kailash II, Greater Kailash, New Delhi, Delhi 110048","Block M, Greater Kailash II, Greater Kailash","Ground Shop No, M-21, Inder Mohan Bhardwaj Marg",New Delhi,110048,Delhi,IN,https://www.google.com/maps/place/Carnatic+Cafe/data=!4m7!3m6!1s0x390ce17fddd3c699:0x95c5b305d99393d2!8m2!3d28.5336578!4d77.2421822!16s%2Fg%2F11bwh9wdns!19sChIJmcbT3X_hDDkR0pOT2QWzxZU?authuser=0&hl=en&rclk=1,"28.5336578,77.2421822"
McDonald's,Fast food restaurant,"McDonald's, Commercial Complex-II, Kumar Theatre, 1888-89, Chandni Chowk Rd, Chhippy Wada, New Delhi, Delhi 110006","Chhippy Wada, Chandni Chowk","Commercial Complex-II, Kumar Theatre, 1888-89, Chandni Chowk Rd","New Delhi, Delhi",110006,Delhi,IN,https://www.google.com/maps/place/McDonald%27s/data=!4m7!3m6!1s0x390cfd1f1ff86e63:0x6869048a65ebc571!8m2!3d28.656312!4d77.2340805!16s%2Fg%2F1xpwh4rh!19sChIJY274Hx_9DDkRccXrZYoEaWg?authuser=0&hl=en&rclk=1,"28.656312,77.23408049999999"
Sagar Ratna,South Indian restaurant,"Shop No 27, E, Sagar Ratna, Block Local Market, Inder Mohan Bhardwaj Marg, Greater Kailash Part 3, Masjid Moth, Greater Kailash, New Delhi, Delhi 110048","Greater Kailash Part 3, Masjid Moth, Greater Kailash","Shop No 27, E, Block Local Market, Inder Mohan Bhardwaj Marg",New Delhi,110048,Delhi,IN,https://www.google.com/maps/place/Sagar+Ratna/data=!4m7!3m6!1s0x390ce22b11117e8d:0x219477ad7025b937!8m2!3d28.5376639!4d77.2391646!16s%2Fg%2F1hhw3_fjx!19sChIJjX4RESviDDkRN7klcK13lCE?authuser=0&hl=en&rclk=1,"28.5376639,77.2391646"
McDonald's India,Fast food restaurant,"McDonald's India, Terminal 3, D-40, Food Court, Domestic Terminal of, Delhi 110037",,"Terminal 3, D-40, Food Court, Domestic Terminal of",Delhi,110037,Delhi,IN,https://www.google.com/maps/place/McDonald%27s+India/data=!4m7!3m6!1s0x390d1b9a2290f06d:0x59432371c9c1a851!8m2!3d28.5557252!4d77.0994622!16s%2Fg%2F11bwq90270!19sChIJbfCQIpobDTkRUajByXEjQ1k?authuser=0&hl=en&rclk=1,"28.555725199999998,77.09946219999999"
Le Calicut,Kerala restaurant,"Le Calicut, F 117, Pankha Rd, Jivan Park, Uttam Nagar, Delhi, 110059","Jivan Park, Uttam Nagar","F 117, Pankha Rd",Delhi,110059,Delhi,IN,https://www.google.com/maps/place/Le+Calicut/data=!4m7!3m6!1s0x390d0566c787046d:0x458c7f555a076d18!8m2!3d28.6205442!4d77.070182!16s%2Fg%2F11fb0cjmcx!19sChIJbQSHx2YFDTkRGG0HWlV_jEU?authuser=0&hl=en&rclk=1,"28.620544199999998,77.070182"
Goli Vada Pav,Dessert shop,"Goli Vada Pav, G2 Specific Mall, Karkunj Road, Near Dominos, Jama Masjid, Sheb Bazar, Mantola, Agra, Uttar Pradesh 282003","Jama Masjid, Sheb Bazar, Mantola","G2 Specific Mall, Karkunj Road, Near Dominos",Agra,282003,Uttar Pradesh,IN,https://www.google.com/maps/place/Goli+Vada+Pav/data=!4m7!3m6!1s0x3974778d9cabf82d:0x49a4ea6393662cf!8m2!3d27.1828778!4d78.0166125!16s%2Fg%2F1q6j7h0mp!19sChIJLfirnI13dDkRz2I2OaZOmgQ?authuser=0&hl=en&rclk=1,"27.1828778,78.0166125"
Khana Khazana Restaurant,Indian restaurant,"Khana Khazana Restaurant, TA-61, Main Road, Tughlakabad Extension, Okhla, New Delhi, Delhi 110044","Tughlakabad Extension, Okhla","TA-61, Main Road",New Delhi,110044,Delhi,IN,https://www.google.com/maps/place/Khana+Khazana+Restaurant/data=!4m7!3m6!1s0x390ce166716e90e5:0x2fde6e3b5822a4!8m2!3d28.5260163!4d77.2583568!16s%2Fg%2F1tg5x_ts!19sChIJ5ZBucWbhDDkRpCJYO27eLwA?authuser=0&hl=en&rclk=1,"28.5260163,77.2583568"
Ganeshwaram,Vegetarian restaurant,"Ganeshwaram, SD 155,156, Sadarpur, Sector-45, Noida, Uttar Pradesh 201303","SD Block, Sadarpur, Sector-45","SD 155,156",Noida,201303,Uttar Pradesh,IN,https://www.google.com/maps/place/Ganeshwaram/data=!4m10!3m9!1s0x390ce5de6fa15555:0xeaf03818425a0561!5m2!4m1!1i2!8m2!3d28.5491103!4d77.3555993!16s%2Fg%2F11hbr3lt4z!19sChIJVVWhb97lDDkRYQVaQhg48Oo?authuser=0&hl=en&rclk=1,"28.5491103,77.3555993"
Darbar Restaurant,Vegetarian restaurant,"Darbar Restaurant, 8996, Desh Bandhu Gupta Road Bazar Sangatrashan,Chowk, Multani Dhanda, Paharganj, New Delhi, Delhi 110055","Bazar Sangatrashan, Multani Dhanda, Paharganj","8996, Desh Bandhu Gupta Road Bazar Sangatrashan,Chowk",New Delhi,110055,Delhi,IN,https://www.google.com/maps/place/Darbar+Restaurant/data=!4m7!3m6!1s0x390cfd409ac5d089:0xb13a0bf6b69a41ed!8m2!3d28.6457292!4d77.21121!16s%2Fg%2F11bv19hjyn!19sChIJidDFmkD9DDkR7UGatvYLOrE?authuser=0&hl=en&rclk=1,"28.645729199999998,77.21121"
Bhaja Govindam,Vegetarian restaurant,"Bhaja Govindam, Delite Theater Building, Asaf Ali Rd, opp. MCD Park, New Delhi, Delhi 110057","Chatta lal Miya, Chandni Mahal, Chandni Chowk","Delite Theater Building, Asaf Ali Rd, opp. MCD Park","New Delhi, Delhi",110057,Delhi,IN,https://www.google.com/maps/place/Bhaja+Govindam/data=!4m7!3m6!1s0x390cfd2387aad633:0xa71f59a43fc019a1!8m2!3d28.6411357!4d77.2363728!16s%2Fg%2F1tfnrcmc!19sChIJM9aqhyP9DDkRoRnAP6RZH6c?authuser=0&hl=en&rclk=1,"28.6411357,77.2363728"
Gupta Foods,Fast food restaurant,"Block-N, N, Gupta Foods, 33, Middle Cir, Block N, Connaught Place, New Delhi, Delhi 110001","Block N, Connaught Place","Block-N, N, 33, Middle Cir",New Delhi,110001,Delhi,IN,https://www.google.com/maps/place/Gupta+Foods/data=!4m7!3m6!1s0x390cfd368b3f8729:0x4408ff37f18081d9!8m2!3d28.6302834!4d77.2205468!16s%2Fg%2F11c594kprp!19sChIJKYc_izb9DDkR2YGA8Tf_CEQ?authuser=0&hl=en&rclk=1,"28.6302834,77.2205468"
Vikrant Cafe,Indian restaurant,"Vikrant Cafe, 7280, Block B, Shakti Nagar, Delhi, 110007","Block B, Shakti Nagar",7280,Delhi,110007,Delhi,IN,https://www.google.com/maps/place/Vikrant+Cafe/data=!4m7!3m6!1s0x390cfd88c65f647b:0x428d1c64e7260189!8m2!3d28.679904!4d77.199953!16s%2Fg%2F11c20bv_l1!19sChIJe2Rfxoj9DDkRiQEm52QcjUI?authuser=0&hl=en&rclk=1,"28.679903999999997,77.199953"
DS Dosa Factory- CP (Connaught Place) Delhi,South Indian restaurant,"DS Dosa Factory- CP (Connaught Place) Delhi, T"" Point of KG Marg, (Old Amber Restt, N-19, Connaught Cir, Connaught Place, New Delhi, Delhi 110001","Block N, Connaught Place","T"" Point of KG Marg, (Old Amber Restt, N-19, Connaught Cir",New Delhi,110001,Delhi,IN,https://www.google.com/maps/place/DS+Dosa+Factory-+CP+%28Connaught+Place%29+Delhi/data=!4m7!3m6!1s0x390cfd96a1e61f0d:0xa7c14dcc30b0a96c!8m2!3d28.6303878!4d77.2208916!16s%2Fg%2F11l9_j9vmd!19sChIJDR_moZb9DDkRbKmwMMxNwac?authuser=0&hl=en&rclk=1,"28.630387799999998,77.2208916"
Flavour of Southvala pvt ltd veg& non veg chettinadu restaurant,South Indian restaurant,"Gate No 5, Flavour of Southvala pvt ltd veg& non veg chettinadu restaurant, Metro Station Laxmi Nagar, D-355, Vikas Marg, Veer Savarkar Block, Block D, Laxmi Nagar, New Delhi, Delhi, 110092","Veer Savarkar Block, Block D, Laxmi Nagar","Gate No 5, Metro Station Laxmi Nagar, D-355, Vikas Marg","New Delhi, Delhi",110092,Delhi,IN,https://www.google.com/maps/place/Flavour+of+Southvala+pvt+ltd+veg%26+non+veg+chettinadu+restaurant/data=!4m7!3m6!1s0x390ce45ec1d46519:0xb608e0c5762f04c3!8m2!3d28.6307985!4d77.2776567!16s%2Fg%2F11hcmt77dl!19sChIJGWXUwV7kDDkRwwQvdsXgCLY?authuser=0&hl=en&rclk=1,"28.630798499999997,77.2776567"
Manoj Restaurant,South Indian restaurant,"Manoj Restaurant, Kinari Bazar Rd, Kinari Bazar, Katra Shah N Shah, Old Delhi, New Delhi, Delhi, 110006","Kinari Bazar, Katra Shah N Shah, Old Delhi",Kinari Bazar Rd,"New Delhi, Delhi",110006,Delhi,IN,https://www.google.com/maps/place/Manoj+Restaurant/data=!4m7!3m6!1s0x3974772db04b0a41:0x86bf2cd38105a19f!8m2!3d28.6554121!4d77.2312346!16s%2Fg%2F11b5phy94q!19sChIJQQpLsC13dDkRn6EFgdMsv4Y?authuser=0&hl=en&rclk=1,"28.6554121,77.2312346"
Ashok Chat Corner,Fast food restaurant,"Ashok Chat Corner, 3488, Hauz Qazi Chowk, Bazar Sirkiwalan, Chawri Bazar, Old Delhi, New Delhi, Delhi, 110006","Bazar Sirkiwalan, Chawri Bazar, Old Delhi","3488, Hauz Qazi Chowk","New Delhi, Delhi",110006,Delhi,IN,https://www.google.com/maps/place/Ashok+Chat+Corner/data=!4m7!3m6!1s0x390cfd17b0086b2f:0x86cf3d6e4c0950df!8m2!3d28.6493483!4d77.2269044!16s%2Fg%2F12hqlfgsk!19sChIJL2sIsBf9DDkR31AJTG49z4Y?authuser=0&hl=en&rclk=1,"28.6493483,77.2269044"
Masjid Moth,Mosque,"Masjid Moth, 92, Masjid Moth Rd, South Extension II, Masjid Moth Village, New Delhi, Delhi 110049","South Extension II, Masjid Moth Village","92, Masjid Moth Rd",New Delhi,110049,Delhi,IN,https://www.google.com/maps/place/Masjid+Moth/data=!4m7!3m6!1s0x390ce242799950e9:0xb2f0ba5418b140f8!8m2!3d28.562458!4d77.2176906!16s%2Fm%2F05zxh9f!19sChIJ6VCZeULiDDkR-ECxGFS68LI?authuser=0&hl=en&rclk=1,"28.562458,77.2176906"
Gupta Restaurant,Fast food restaurant,"Shop No. 56, Gupta Restaurant, 57, Bhagat Singh Market, Gole Market, New Delhi, Delhi 110001","Bhagat Singh Market, Gole Market","Shop No. 56, 57",New Delhi,110001,Delhi,IN,https://www.google.com/maps/place/Gupta+Restaurant/data=!4m7!3m6!1s0x390cfd4f943abd0f:0x914b8f40af54d7c1!8m2!3d28.6327762!4d77.2077496!16s%2Fg%2F11bt_h1f2l!19sChIJD706lE_9DDkRwddUr0CPS5E?authuser=0&hl=en&rclk=1,"28.6327762,77.2077496"
Al Taqwa Masjid,Mosque,"Al Taqwa Masjid, 42A, Jogabai Extension, Okhla, New Delhi, Delhi 110025","Jogabai Extension, Okhla",42A,New Delhi,110025,Delhi,IN,https://www.google.com/maps/place/Al+Taqwa+Masjid/data=!4m7!3m6!1s0x390ce3886898c141:0x9ba952352c057021!8m2!3d28.5711037!4d77.2843441!16s%2Fg%2F11b6j7lmqh!19sChIJQcGYaIjjDDkRIXAFLDVSqZs?authuser=0&hl=en&rclk=1,"28.5711037,77.2843441"
Jama Masjid Karol Bagh,Mosque,"Jama Masjid Karol Bagh, 2579, Ajmal Khan Rd, Block 35M, Beadonpura, Karol Bagh, New Delhi, Delhi, 110005","Block 35M, Beadonpura, Karol Bagh","2579, Ajmal Khan Rd","New Delhi, Delhi",110005,Delhi,IN,https://www.google.com/maps/place/Jama+Masjid+Karol+Bagh/data=!4m7!3m6!1s0x390d029dfa3c1e01:0xa369c394e95dff11!8m2!3d28.6502862!4d77.1943191!16s%2Fg%2F12qfvxv2v!19sChIJAR48-p0CDTkREf9d6ZTDaaM?authuser=0&hl=en&rclk=1,"28.6502862,77.1943191"
Sabz Masjid,Mosque,"Sabz Masjid, 3571, Lalkuan Bazar Rd, Bazar Sirkiwalan, Lal Kuan Bazar, Chandni Chowk, Delhi, 110006","Bazar Sirkiwalan, Lal Kuan Bazar, Chandni Chowk","3571, Lalkuan Bazar Rd",Delhi,110006,Delhi,IN,https://www.google.com/maps/place/Sabz+Masjid/data=!4m7!3m6!1s0x390cfd16a94877a7:0x7b35bb653cd42e20!8m2!3d28.652163!4d77.223599!16s%2Fm%2F04q247t!19sChIJp3dIqRb9DDkRIC7UPGW7NXs?authuser=0&hl=en&rclk=1,"28.652162999999998,77.223599"
Masjid Patherwali msjd,Mosque,"1608, Masjid Patherwali msjd, 32, Block 39E, Nai Walan, Karol Bagh, New Delhi, Delhi, 110005","Block 39E, Nai Walan, Karol Bagh","1608, 32","New Delhi, Delhi",110005,Delhi,IN,https://www.google.com/maps/place/Masjid+Patherwali+%D9%85%D8%B3%D8%AC%D8%AF%E2%80%AD/data=!4m7!3m6!1s0x390cfd61ca03d689:0x8ff36a5a3c66d0bd!8m2!3d28.6475823!4d77.1958499!16s%2Fg%2F12hm6x9t2!19sChIJidYDymH9DDkRvdBmPFpq848?authuser=0&hl=en&rclk=1,"28.6475823,77.1958499"
Shahi Masjid Vasant Vihar msjd shhy,Mosque,"H47X+FQ4 Shahi Masjid Vasant Vihar msjd shhy, Muradabad Pahari, D3 St, near Shri Raam School, Vasant Vihar, New Delhi, Delhi 110057",Vasant Vihar,"H47X+FQ4, Muradabad Pahari, D3 St, near Shri Raam School",New Delhi,110057,Delhi,IN,https://www.google.com/maps/place/Shahi+Masjid+Vasant+Vihar+%D9%85%D8%B3%D8%AC%D8%AF+%D8%B4%D8%A7%DB%81%DB%8C%E2%80%AD/data=!4m7!3m6!1s0x390d1dacc6b7318b:0xd650b525228c3634!8m2!3d28.5636477!4d77.1494618!16s%2Fg%2F1xg5r1k0!19sChIJizG3xqwdDTkRNDaMIiW1UNY?authuser=0&hl=en&rclk=1,"28.563647699999997,77.1494618"
Baghdad Biriyani Canter,Restaurant,"Baghdad Biriyani Canter, Main Bazar, Kaila Bhatta, Ghaziabad, Uttar Pradesh 201001","Chota Kaila Village, Madhopura","Main Bazar, Kaila Bhatta",Ghaziabad,201001,Uttar Pradesh,IN,https://www.google.com/maps/place/Baghdad+Biriyani+Canter/data=!4m7!3m6!1s0x390cf035d41d1853:0xe04ac3725b28b5a9!8m2!3d28.6628811!4d77.4188103!16s%2Fg%2F11clvfsfkw!19sChIJUxgd1DXwDDkRqbUoW3LDSuA?authuser=0&hl=en&rclk=1,"28.6628811,77.41881029999999"
Chhoti Masjid,Mosque,"M664+CQQ Chhoti Masjid, Rani Jhansi Rd, Bara Hindu Rao, Sadar Bazaar, New Delhi, Delhi, 110006","Bara Hindu Rao, Sadar Bazaar","M664+CQQ, Rani Jhansi Rd","New Delhi, Delhi",110006,Delhi,IN,https://www.google.com/maps/place/Chhoti+Masjid/data=!4m7!3m6!1s0x390cfd7755000721:0xef06dba0e85ba84!8m2!3d28.6610752!4d77.2069708!16s%2Fg%2F11c6dfyx3s!19sChIJIQcAVXf9DDkRhLqFDrpt8A4?authuser=0&hl=en&rclk=1,"28.6610752,77.2069708"
Masjid Basant Vihar Jumma,Mosque,"Masjid Basant Vihar Jumma, Juma 2:30 Shankar Vihar, near IGI Airport, Shankar Vihar, New Delhi, Delhi 110010",Shankar Vihar,"Juma 2:30 Shankar Vihar, near IGI Airport",New Delhi,110010,Delhi,IN,https://www.google.com/maps/place/Masjid+Basant+Vihar+Jumma/data=!4m7!3m6!1s0x390d1cf9351869c5:0x4156c39cbdc5bc6e!8m2!3d28.5744872!4d77.1426721!16s%2Fg%2F11c7swq8tz!19sChIJxWkYNfkcDTkRbrzFvZzDVkE?authuser=0&hl=en&rclk=1,"28.5744872,77.1426721"
Chhoti Masjid,Mosque,"Chhoti Masjid, 2523, Ajmal Khan Rd, Beadonpura, Karol Bagh, Delhi, 110005","Block 35M, Beadonpura, Karol Bagh","2523, Ajmal Khan Rd",Delhi,110005,Delhi,IN,https://www.google.com/maps/place/Chhoti+Masjid/data=!4m7!3m6!1s0x390d029de7d6d2a9:0x88b4aa7e52017f86!8m2!3d28.650423!4d77.193236!16s%2Fg%2F12qfjw47c!19sChIJqdLW550CDTkRhn8BUn6qtIg?authuser=0&hl=en&rclk=1,"28.650423,77.193236"
Saeediya Masjid,Mosque,"Saeediya Masjid, 45, New Silampur Gali, Block A, Chauhan Banger, Shahdara, Delhi, 110031","Block A, Chauhan Banger, Shahdara","45, New Silampur Gali",Delhi,110031,Delhi,IN,https://www.google.com/maps/place/Saeediya+Masjid/data=!4m7!3m6!1s0x390cfc61230920b1:0xd4902005e34cb106!8m2!3d28.678415!4d77.2672561!16s%2Fg%2F11c6qcjmhv!19sChIJsSAJI2H8DDkRBrFM4wUgkNQ?authuser=0&hl=en&rclk=1,"28.678414999999998,77.2672561"
Jama Masjid jm` msjd,Mosque,"J855+M79 Jama Masjid jm` msjd, Block 15, Part 2, Trilokpuri, New Delhi, Delhi, 110091","Block 15, Part 2, Trilokpuri",J855+M79,"New Delhi, Delhi",110091,Delhi,IN,https://www.google.com/maps/place/Jama+Masjid+%D8%AC%D8%A7%D9%85%D8%B9+%D9%85%D8%B3%D8%AC%D8%AF%E2%80%AD/data=!4m7!3m6!1s0x390ce4bfe1b12b91:0xfecd74e7cb8ce1c7!8m2!3d28.6091721!4d77.3082433!16s%2Fg%2F11g8djm1rv!19sChIJkSux4b_kDDkRx-GMy-d0zf4?authuser=0&hl=en&rclk=1,"28.6091721,77.3082433"
Rahis Biryani Point,Chicken restaurant,"Rahis Biryani Point, Rz3/14A, Street Number 6, near Madina Masjid, Sitapuri Part 1, New Delhi, Delhi 110046","Block C, Sitapuri Part 1, Janakpuri","Rz3/14A, Street Number 6, near Madina Masjid","New Delhi, Delhi",110046,Delhi,IN,https://www.google.com/maps/place/Rahis+Biryani+Point/data=!4m7!3m6!1s0x390d04b5b744f5fd:0x67c8b57c709e82cb!8m2!3d28.6143233!4d77.0816981!16s%2Fg%2F11pzryzhpr!19sChIJ_fVEt7UEDTkRy4KecHy1yGc?authuser=0&hl=en&rclk=1,"28.6143233,77.0816981"
Ahle Sunnat wal jamaat RazaeMuhammadi Masjid,Mosque,"J6X8+JC2 Ahle Sunnat wal jamaat RazaeMuhammadi Masjid, Aram Nagar, Paharganj, New Delhi, Delhi 110055","Aram Nagar, Paharganj",J6X8+JC2,New Delhi,110055,Delhi,IN,https://www.google.com/maps/place/Ahle+Sunnat+wal+jamaat+RazaeMuhammadi+Masjid/data=!4m7!3m6!1s0x390cfd6b1c55570b:0xb6cbdaabca9cc6b2!8m2!3d28.6490022!4d77.2160178!16s%2Fg%2F11g6mj_5x9!19sChIJC1dVHGv9DDkRssacyqvay7Y?authuser=0&hl=en&rclk=1,"28.649002199999998,77.2160178"
Puliya Wali Masjid,Mosque,"J6R9+Q48 Puliya Wali Masjid, Main Bazar Rd, Ratan Lal Market, Aram Bagh, Paharganj, New Delhi, Delhi, 110055","Ratan Lal Market, Aram Bagh, Paharganj","J6R9+Q48, Main Bazar Rd","New Delhi, Delhi",110055,Delhi,IN,https://www.google.com/maps/place/Puliya+Wali+Masjid/data=!4m7!3m6!1s0x390cfd3f5dcc4137:0x1ed0072a0c155076!8m2!3d28.6419015!4d77.2178423!16s%2Fg%2F12q4q_hw8!19sChIJN0HMXT_9DDkRdlAVDCoH0B4?authuser=0&hl=en&rclk=1,"28.6419015,77.2178423"
Masjid Takia Wali,Mosque,"M634+XQF Masjid Takia Wali, Idgah Rd, Sarai Khalil, Sadar Bazaar, New Delhi, Delhi, 110006","Sarai Khalil, Sadar Bazaar","M634+XQF, Idgah Rd","New Delhi, Delhi",110006,Delhi,IN,https://www.google.com/maps/place/Masjid+Takia+Wali/data=!4m7!3m6!1s0x390cfd6f971e1e1b:0xe74631f43b7267ac!8m2!3d28.6549496!4d77.2069151!16s%2Fg%2F11bw3y5xhf!19sChIJGx4el2_9DDkRrGdyO_QxRuc?authuser=0&hl=en&rclk=1,"28.6549496,77.2069151"
Kadimi Jama Masjid,Mosque,"Kadimi Jama Masjid, Tughlaqabad Village, Tughlakabad, New Delhi, Delhi 110044","Tughlaqabad Village, Tughlakabad",Kadimi Jama Masjid,New Delhi,110044,Delhi,IN,https://www.google.com/maps/place/Kadimi+Jama+Masjid/data=!4m7!3m6!1s0x390ce143d0a92cab:0xee6b81c85a0ee47f!8m2!3d28.5194859!4d77.2669768!16s%2Fg%2F11g6b86ck6!19sChIJqyyp0EPhDDkRf-QOWsiBa-4?authuser=0&hl=en&rclk=1,"28.5194859,77.2669768"
CHiRAG : foods,Fast food restaurant,"CHiRAG : foods, 560 rasheed market main road, Jafrabad Main Rd, Seelampur, Shahdara, Delhi, 110053","Seelampur, Shahdara","560 rasheed market main road, Jafrabad Main Rd",Delhi,110053,Delhi,IN,https://www.google.com/maps/place/CHiRAG+:+foods/data=!4m7!3m6!1s0x390cfded5ea062fd:0x6ae3b383c7eb1d42!8m2!3d28.6795822!4d77.2716237!16s%2Fg%2F11m84_4g17!19sChIJ_WKgXu39DDkRQh3rx4Oz42o?authuser=0&hl=en&rclk=1,"28.6795822,77.27162369999999"
Masjid Majeedia Motilal nehru marg- msjdi mjdyh,Mosque,"Masjid Majeedia Motilal nehru marg- msjdi mjdyh, Unnamed Road, Dr APJ Abdul Kalam Rd, South Block, Aurangzeb Road, New Delhi, Delhi 110001","South Block, Aurangzeb Road","Unnamed Road, Dr APJ Abdul Kalam Rd",New Delhi,110001,Delhi,IN,https://www.google.com/maps/place/Masjid+Majeedia+Motilal+nehru+marg-+%D9%85%D8%B3%D8%AC%D8%AF%D9%90+%D9%85%D8%AC%D8%AF%DB%8C%DB%81%E2%80%AD/data=!4m7!3m6!1s0x390ce2c111445fc5:0x1156210e810cd168!8m2!3d28.6046984!4d77.2215032!16s%2Fg%2F11f1lpdw85!19sChIJxV9EEcHiDDkRaNEMgQ4hVhE?authuser=0&hl=en&rclk=1,"28.6046984,77.2215032"
Wada Jama Masjid,Mosque,"Wada Jama Masjid, Musalman Ali, Wada, Maharashtra 421303",Musalman Ali,,Wada,421303,Maharashtra,IN,https://www.google.com/maps/place/Wada+Jama+Masjid/data=!4m7!3m6!1s0x3be773b1cd10e0fd:0xc0ec185ae8da74f3!8m2!3d19.6556992!4d73.1475838!16s%2Fg%2F1tcxn3y3!19sChIJ_eAQzbFz5zsR83Ta6FoY7MA?authuser=0&hl=en&rclk=1,"19.6556992,73.14758379999999"
Masjid Dai-Wali,Mosque,"Shop No, Masjid Dai-Wali, 3136, Delhi Gate Bazar, Kucha Alam, Khabas Pura, Daryaganj, New Delhi, Delhi, 110002","Kucha Alam, Khabas Pura, Daryaganj","Shop No, 3136, Delhi Gate Bazar","New Delhi, Delhi",110002,Delhi,IN,https://www.google.com/maps/place/Masjid+Dai-Wali/data=!4m7!3m6!1s0x390cfd20da360d31:0x7e303aff50cc4c2b!8m2!3d28.6435772!4d77.2380546!16s%2Fg%2F1jky_pbsw!19sChIJMQ022iD9DDkRK0zMUP86MH4?authuser=0&hl=en&rclk=1,"28.6435772,77.2380546"
Masjid Bawli Wali,Mosque,"Masjid Bawli Wali, Shop No:921/13, Gali Number 1, Nai Walan, Sewak Chember, Block 49A, Nai Walan, Karol Bagh, Delhi, 110005","Nai Walan, Sewak Chember, Block 49A, Nai Walan, Karol Bagh","Shop No:921/13, Gali Number 1",Delhi,110005,Delhi,IN,https://www.google.com/maps/place/Masjid+Bawli+Wali/data=!4m7!3m6!1s0x390cfd613f8e033b:0x60fed6bb157588e7!8m2!3d28.648882!4d77.1989608!16s%2Fg%2F12q4yp2sd!19sChIJOwOOP2H9DDkR54h1FbvW_mA?authuser=0&hl=en&rclk=1,"28.648882,77.1989608"
Madina Masjid,Mosque,"H5QG+4VC Madina Masjid, Madina Masjid Sanjay,Camp, Chanakyapuri, New Delhi, Delhi 110021",Chanakyapuri,"H5QG+4VC, Madina Masjid Sanjay,Camp",New Delhi,110021,Delhi,IN,https://www.google.com/maps/place/Madina+Masjid/data=!4m7!3m6!1s0x390d1d6dd5af3b35:0x2fffa5a7352639fe!8m2!3d28.5878245!4d77.1771462!16s%2Fg%2F11gd1wtj_f!19sChIJNTuv1W0dDTkR_jkmNael_y8?authuser=0&hl=en&rclk=1,"28.5878245,77.1771462"
MASJID,Mosque,"MASJID, Wz 173a/1 new ranjeet nagar, Guru Nanak Nagar, Shadipur, Delhi 110008","Guru Nanak Nagar, Shadipur",Wz 173a/1 new ranjeet nagar,New Delhi,110008,Delhi,IN,https://www.google.com/maps/place/MASJID/data=!4m7!3m6!1s0x390d0327bb6f6129:0xe8342be2eca63326!8m2!3d28.6456917!4d77.1597324!16s%2Fg%2F11h5lkhmc2!19sChIJKWFvuycDDTkRJjOm7OIrNOg?authuser=0&hl=en&rclk=1,"28.6456917,77.1597324"
Jama Masjid,Mosque,"Jama Masjid, Transport Bhawan Masjid, 1, Annexe Rd, Gokul Nagar, Pandit Pant Marg Area, Central Secretariat, New Delhi, Delhi 110001","Gokul Nagar, Pandit Pant Marg Area, Central Secretariat","Transport Bhawan Masjid, 1, Annexe Rd",New Delhi,110001,Delhi,IN,https://www.google.com/maps/place/Jama+Masjid/data=!4m7!3m6!1s0x390ce2b39554d7fd:0xd8f8e403ebe796c8!8m2!3d28.618668!4d77.2101746!16s%2Fg%2F11c4ww6ts3!19sChIJ_ddUlbPiDDkRyJbn6wPk-Ng?authuser=0&hl=en&rclk=1,"28.618668,77.2101746"
Jama Masjid - jm` msjd Sdr bzr,Mosque,"H4WC+5PW Jama Masjid - jm` msjd Sdr bzr, Sadar Bazaar, Delhi Cantonment, New Delhi, Delhi 110010","Sadar Bazaar, Delhi Cantonment",H4WC+5PW,New Delhi,110010,Delhi,IN,https://www.google.com/maps/place/Jama+Masjid+-+%D8%AC%D8%A7%D9%85%D8%B9+%D9%85%D8%B3%D8%AC%D8%AF+%D8%B5%D8%AF%D8%B1+%D8%A8%D8%A7%D8%B2%D8%A7%D8%B1%E2%80%AD/data=!4m7!3m6!1s0x390d1d4bd3683751:0x327e46a4679ef84b!8m2!3d28.5954841!4d77.1218315!16s%2Fg%2F11ghpzn7cd!19sChIJUTdo00sdDTkRS_ieZ6RGfjI?authuser=0&hl=en&rclk=1,"28.5954841,77.1218315"
Pare wali masjid - paare vaalii msjid (vkph),Mosque,"Pare wali masjid - paare vaalii msjid (vkph), Dr Ambedkar Colony, near Nature Bazar, Andheria Mor Village, Chhatarpur, New Delhi, Delhi 110074","Pocket A, Andheria Mor Village, Chhatarpur","Dr Ambedkar Colony, near Nature Bazar",New Delhi,110074,Delhi,IN,https://www.google.com/maps/place/Pare+wali+masjid+-+%E0%A4%AA%E0%A4%BE%E0%A4%B0%E0%A5%87+%E0%A4%B5%E0%A4%BE%E0%A4%B2%E0%A5%80+%E0%A4%AE%E0%A4%B8%E0%A5%8D%E0%A4%9C%E0%A4%BF%E0%A4%A6+%28%E0%A4%B5%E0%A4%95%E0%A5%8D%E0%A4%AB%29/data=!4m7!3m6!1s0x390d1e16f6905e1f:0x25b96cc9ca94f881!8m2!3d28.5081282!4d77.1791472!16s%2Fg%2F1s04dqgww!19sChIJH16Q9hYeDTkRgfiUyslsuSU?authuser=0&hl=en&rclk=1,"28.508128199999998,77.1791472"
Peepal Wali Masjid,Mosque,"Peepal Wali Masjid, B134, Begumpur, New Delhi, Delhi 110017",Begumpur,B134,New Delhi,110017,Delhi,IN,https://www.google.com/maps/place/Peepal+Wali+Masjid/data=!4m7!3m6!1s0x390ce21b0b03c791:0x1561084abd369527!8m2!3d28.5380854!4d77.2087045!16s%2Fg%2F11gb3ymxth!19sChIJkccDCxviDDkRJ5U2vUoIYRU?authuser=0&hl=en&rclk=1,"28.5380854,77.2087045"
Masjid Abdul Ghani (Connaught Place) Advocate Feroz Khan Ghazi,Mosque,"Masjid Abdul Ghani (Connaught Place) Advocate Feroz Khan Ghazi, 23 A, Chelmsford Rd, Railway Colony, Paharganj, New Delhi, Delhi 110055","Railway Colony, Paharganj","23 A, Chelmsford Rd",New Delhi,110055,Delhi,IN,https://www.google.com/maps/place/Masjid+Abdul+Ghani+%28Connaught+Place%29+Advocate+Feroz+Khan+Ghazi/data=!4m7!3m6!1s0x390cfd3870115457:0x6ea3f798cfa92403!8m2!3d28.6368217!4d77.2181646!16s%2Fg%2F1hm35b78b!19sChIJV1QRcDj9DDkRAySpz5j3o24?authuser=0&hl=en&rclk=1,"28.6368217,77.2181646"
MASJID KHASTA GUL,Mosque,"MASJID KHASTA GUL, T16353, Goutampuri, Shahdara, Delhi, 110053","Goutampuri, Shahdara",T16353,Delhi,110053,Delhi,IN,https://www.google.com/maps/place/MASJID+KHASTA+GUL/data=!4m7!3m6!1s0x390cfc674ffe69a9:0xf03028dcb171102a!8m2!3d28.6802209!4d77.2642006!16s%2Fg%2F11g8ngh1ss!19sChIJqWn-T2f8DDkRKhBxsdwoMPA?authuser=0&hl=en&rclk=1,"28.6802209,77.2642006"
EIDGAH & MASJID MANDOLI `ydgh & msjd mndd wly,Mosque,"P837+Q5M EIDGAH & MASJID MANDOLI `ydgh & msjd mndd wly, BUDH BAZAR ROAD BANK COLONY RAJIV NAGAR, Mandoli, Delhi, 110093","Budh Vihar, Mandoli","P837+Q5M, BUDH BAZAR ROAD BANK COLONY RAJIV NAGAR",Delhi,110093,Delhi,IN,https://www.google.com/maps/place/EIDGAH+%26+MASJID+MANDOLI+%D8%B9%DB%8C%D8%AF%DA%AF%D8%A7%DB%81+%26+%D9%85%D8%B3%D8%AC%D8%AF+%D9%85%D9%86%DA%88+%D9%88%D9%84%DB%8C%E2%80%AD/data=!4m7!3m6!1s0x390cfbc103a082b5:0x7e3fa7e11bedab2b!8m2!3d28.7044533!4d77.3129223!16s%2Fg%2F11cmzzb_k5!19sChIJtYKgA8H7DDkRK6vtG-GnP34?authuser=0&hl=en&rclk=1,"28.704453299999997,77.3129223"
"Badi Masjid, 179 Bajarwada Chowk",Mosque,"Badi Masjid, 179 Bajarwada Chowk, 179, Bajarwara Rd, Bhandariyon Ki Gali, Nagaur, Rajasthan 341001",Bhandariyon Ki Gali,"179, Bajarwara Rd",Nagaur,341001,Rajasthan,IN,"https://www.google.com/maps/place/Badi+Masjid,+179+Bajarwada+Chowk/data=!4m7!3m6!1s0x396a917a353431d5:0x8fa29261aa972c32!8m2!3d27.2039974!4d73.7389413!16s%2Fg%2F11g728z2n9!19sChIJ1TE0NXqRajkRMiyXqmGSoo8?authuser=0&hl=en&rclk=1","27.2039974,73.7389413"
Badi Masjid,Mosque,"Badi Masjid, 110074, Kharak, Sat Bari, New Delhi, Delhi 110074","Kharak, Sat Bari",110074,New Delhi,110074,Delhi,IN,https://www.google.com/maps/place/Badi+Masjid/data=!4m7!3m6!1s0x390ce03b4d29edfd:0x103a4cedbe1fbe4d!8m2!3d28.468273!4d77.2060496!16s%2Fg%2F11c0t58w9h!19sChIJ_e0pTTvgDDkRTb4fvu1MOhA?authuser=0&hl=en&rclk=1,"28.468273,77.2060496"
Deepu Samosa Shop.,Indian sweets shop,"Deepu Samosa Shop., Jain Mandir market, 229, Masjid Moth Rd, South Extension II, Masjid Moth Village, New Delhi, Delhi 110049","South Extension II, Masjid Moth Village","Jain Mandir market, 229, Masjid Moth Rd",New Delhi,110049,Delhi,IN,https://www.google.com/maps/place/Deepu+Samosa+Shop./data=!4m7!3m6!1s0x390ce243b58238c3:0x9acd2ff40ace53bb!8m2!3d28.5620862!4d77.2206143!16s%2Fg%2F11dft04dgz!19sChIJwziCtUPiDDkRu1POCvQvzZo?authuser=0&hl=en&rclk=1,"28.5620862,77.2206143"
Ata E Rasool Masjid,Mosque,"P744+V55 Ata E Rasool Masjid, Shriram Colony, Block A, Rajiv Nagar, Sonia Vihar, Delhi, 110094","Shriram Colony, Block A, Rajiv Nagar, Sonia Vihar",P744+V55,Delhi,110094,Delhi,IN,https://www.google.com/maps/place/Ata+E+Rasool+Masjid/data=!4m7!3m6!1s0x390cfc3b2d10341f:0xd365e06455e65096!8m2!3d28.7071349!4d77.2554772!16s%2Fg%2F11dxrw2d2x!19sChIJHzQQLTv8DDkRllDmVWTgZdM?authuser=0&hl=en&rclk=1,"28.7071349,77.2554772"
Pero Wali Masjid msjd,Mosque,"J7HQ+WR7 Pero Wali Masjid msjd, Saket Block, Mandawali, New Delhi, Delhi, 110092","Saket Block, Mandawali",J7HQ+WR7,"New Delhi, Delhi",110092,Delhi,IN,https://www.google.com/maps/place/Pero+Wali+Masjid+%D9%85%D8%B3%D8%AC%D8%AF%E2%80%AD/data=!4m7!3m6!1s0x390ce567eb7682bd:0xbbc6d18fbb72ad58!8m2!3d28.629783!4d77.289544!16s%2Fg%2F11gk248b3y!19sChIJvYJ262flDDkRWK1yu4_Rxrs?authuser=0&hl=en&rclk=1,"28.629783,77.28954399999999"
IMAM AHMAD RAZA JAMA MASJID,Mosque,"IMAM AHMAD RAZA JAMA MASJID, B 665, Pocket 4, B Block, JJ Colony, Uttam Nagar, New Delhi, Delhi, 110059","Pocket 4, B Block, JJ Colony, Uttam Nagar",B 665,"New Delhi, Delhi",110059,Delhi,IN,https://www.google.com/maps/place/IMAM+AHMAD+RAZA+JAMA+MASJID/data=!4m7!3m6!1s0x390d052171654883:0xcbc2bc8f49e66da2!8m2!3d28.6253214!4d77.0630461!16s%2Fg%2F11n5gz54q_!19sChIJg0hlcSEFDTkRom3mSY-8wss?authuser=0&hl=en&rclk=1,"28.625321399999997,77.0630461"
Masjid Rehel Wali,Mosque,"Masjid Rehel Wali, 1138, Matia Mahal Rd, Manohar Market, Jama Masjid, Old Delhi, New Delhi, Delhi, 110006","Manohar Market, Jama Masjid, Old Delhi","1138, Matia Mahal Rd","New Delhi, Delhi",110006,Delhi,IN,https://www.google.com/maps/place/Masjid+Rehel+Wali/data=!4m7!3m6!1s0x390cfd2209bda88f:0xf6c2b99a4522250f!8m2!3d28.6477449!4d77.2337881!16s%2Fg%2F11cs22c5d9!19sChIJj6i9CSL9DDkRDyUiRZq5wvY?authuser=0&hl=en&rclk=1,"28.6477449,77.2337881"
Muhamadi Wali Masjid,Historical landmark,"H638+R8G Muhamadi Wali Masjid, Siri Fort Institutional Area, Siri Fort, New Delhi, Delhi 110049","Siri Fort Institutional Area, Siri Fort",H638+R8G,New Delhi,110049,Delhi,IN,https://www.google.com/maps/place/Muhamadi+Wali+Masjid/data=!4m7!3m6!1s0x390ce26acaf52495:0x99ea43a076fc60c!8m2!3d28.5545536!4d77.2158416!16s%2Fg%2F11gzqh6d0!19sChIJlST1ymriDDkRDMZvBzqkngk?authuser=0&hl=en&rclk=1,"28.5545536,77.21584159999999"
Garahaiya Wali Masjid msjd ghrrhy wly,Mosque,"M645+P9X Garahaiya Wali Masjid msjd ghrrhy wly, Qureshnagar, Sadar Bazaar, Delhi, 110006","Sarai Khalil, Sadar Bazaar","M645+P9X, Qureshnagar, Sadar Bazaar",Delhi,110006,Delhi,IN,https://www.google.com/maps/place/Garahaiya+Wali+Masjid+%D9%85%D8%B3%D8%AC%D8%AF+%DA%AF%DA%BE%DA%91%DA%BE%DB%8C%D8%A7+%D9%88%D8%A7%D9%84%DB%8C%E2%80%AD/data=!4m7!3m6!1s0x390cfd6fd6004367:0xfebc1f26322235da!8m2!3d28.6568604!4d77.2084973!16s%2Fg%2F11c3w0w7y_!19sChIJZ0MA1m_9DDkR2jUiMiYfvP4?authuser=0&hl=en&rclk=1,"28.6568604,77.20849729999999"
Qadri Masjid Kandharwari,Mosque,"GCXX+MQ7 Qadri Masjid Kandharwari, Imam vada kadari masjid chok, Khandarwadi, Banswara, Rajasthan 327001","Teliwada, Khandarwadi","GCXX+MQ7, Imam vada kadari masjid chok",Banswara,327001,Rajasthan,IN,https://www.google.com/maps/place/Qadri+Masjid+Kandharwari/data=!4m7!3m6!1s0x3966c5791f0d3309:0xd89cb01ed3041fbe!8m2!3d23.5491649!4d74.4494342!16s%2Fg%2F1vg_5pns!19sChIJCTMNH3nFZjkRvh8E0x6wnNg?authuser=0&hl=en&rclk=1,"23.549164899999997,74.4494342"
MASJID E RABBANI Vada Mandvi,Mosque,"V8W6+R6G MASJID E RABBANI Vada Mandvi, Vada, Gujarat 370465",,V8W6+R6G,Vada,370465,Gujarat,IN,https://www.google.com/maps/place/MASJID+E+RABBANI+Vada+Mandvi/data=!4m7!3m6!1s0x395137c80e6a9fcd:0xd250c17ca9a8d208!8m2!3d22.8970563!4d69.310566!16s%2Fg%2F11f06lxgpl!19sChIJzZ9qDsg3UTkRCNKoqXzBUNI?authuser=0&hl=en&rclk=1,"22.8970563,69.310566"
Gupta Ji Snacks Corner,Restaurant,"Gupta Ji Snacks Corner, Janpath, Connaught Place, New Delhi, Delhi 110001","Janpath, Connaught Place",,New Delhi,110001,Delhi,IN,https://www.google.com/maps/place/Gupta+Ji+Snacks+Corner/data=!4m7!3m6!1s0x390cfdc34c0b751b:0xfa847d75d5619e82!8m2!3d28.6259674!4d77.2158304!16s%2Fg%2F11gsly6ch7!19sChIJG3ULTMP9DDkRgp5h1XV9hPo?authuser=0&hl=en&rclk=1,"28.6259674,77.2158304"
Badi Masjid Pandav Nagar,Mosque,"M523+V4V Badi Masjid Pandav Nagar, Pandav Nagar, Shadipur, New Delhi, Delhi, 110008","Pandav Nagar, Shadipur",M523+V4V,"New Delhi, Delhi",110008,Delhi,IN,https://www.google.com/maps/place/Badi+Masjid+Pandav+Nagar/data=!4m7!3m6!1s0x390d02fcb7da6879:0x4a95f94ceb0b5b27!8m2!3d28.6522272!4d77.1527915!16s%2Fg%2F11gczfpr0n!19sChIJeWjat_wCDTkRJ1sL60z5lUo?authuser=0&hl=en&rclk=1,"28.6522272,77.15279149999999"
Kasai Wada Masjid,Mosque,"HQ52+RGQ Kasai Wada Masjid, Kashipur, Vijapur, Gujarat 382870",Kashipur,HQ52+RGQ,Vijapur,382870,Gujarat,IN,https://www.google.com/maps/place/Kasai+Wada+Masjid/data=!4m7!3m6!1s0x395db576b5f034f7:0xebbe4b64e6730e4!8m2!3d23.5595759!4d72.7513735!16s%2Fg%2F11c4bq5qqr!19sChIJ9zTwtXa1XTkR5DBnTrbkuw4?authuser=0&hl=en&rclk=1,"23.5595759,72.7513735"
Masjid-e-Sukoon,Mosque,"2WH5+F6J Masjid-e-Sukoon, Wada, Gujarat 396415",,2WH5+F6J,Wada,396415,Gujarat,IN,https://www.google.com/maps/place/Masjid-e-Sukoon/data=!4m7!3m6!1s0x3be059d22c03f091:0xe091f47bb3fa42c9!8m2!3d21.028703!4d72.908015!16s%2Fg%2F11c549f7bm!19sChIJkfADLNJZ4DsRyUL6s3v0keA?authuser=0&hl=en&rclk=1,"21.028703,72.90801499999999"
Deobandi Masjid,Mosque,"M44W+4MR Deobandi Masjid, Musalman Ali, Wada, Maharashtra 421303",Musalman Ali,M44W+4MR,Wada,421303,Maharashtra,IN,https://www.google.com/maps/place/Deobandi+Masjid/data=!4m7!3m6!1s0x3be773ae2877d78f:0x4ac3445c9a91550f!8m2!3d19.6553594!4d73.1466324!16s%2Fg%2F11f06l3b4k!19sChIJj9d3KK5z5zsRD1WRmlxEw0o?authuser=0&hl=en&rclk=1,"19.6553594,73.1466324"
Munawra masjid,Mosque,"M7P4+6M2 Munawra masjid, Masjid Road, Third Pushta, Usmanpur, Nayagaon Village, Shahdara, Delhi, 110053","Third Pushta, Nayagaon, Nayagaon Village, Shahdara","M7P4+6M2, Masjid Road, Third Pushta, Usmanpur",Delhi,110053,Delhi,IN,https://www.google.com/maps/place/Munawra+masjid/data=!4m7!3m6!1s0x390cfd030e33f563:0x5dc12b36744f9a85!8m2!3d28.6855176!4d77.2566372!16s%2Fg%2F11hzwz2ypj!19sChIJY_UzDgP9DDkRhZpPdDYrwV0?authuser=0&hl=en&rclk=1,"28.685517599999997,77.2566372"
Jahtari Wali Masjid,Mosque,"Jahtari Wali Masjid, 5077, Main Bazar Rd, Bharat Nagar, Main Bazar, Aram Bagh, Paharganj, New Delhi, Delhi 110055","Bharat Nagar, Main Bazar, Aram Bagh, Paharganj","5077, Main Bazar Rd",New Delhi,110055,Delhi,IN,https://www.google.com/maps/place/Jahtari+Wali+Masjid/data=!4m7!3m6!1s0x390cfd815a030b8b:0xe18350aa13859d7a!8m2!3d28.6406795!4d77.2115511!16s%2Fg%2F11gjxtbc0j!19sChIJiwsDWoH9DDkRep2FE6pQg-E?authuser=0&hl=en&rclk=1,"28.640679499999997,77.2115511"
SE Road Mosque,Mosque,"J6Q9+QQX SE Road Mosque, State Entry Rd, Railway Colony, Paharganj, New Delhi, Delhi, 110006","Railway Colony, Paharganj","J6Q9+QQX, State Entry Rd","New Delhi, Delhi",110006,Delhi,IN,https://www.google.com/maps/place/SE+Road+Mosque/data=!4m7!3m6!1s0x390cfd38cc2255bd:0x8b76006125eef67c!8m2!3d28.6394908!4d77.2194758!16s%2Fg%2F1q2w4_nrg!19sChIJvVUizDj9DDkRfPbuJWEAdos?authuser=0&hl=en&rclk=1,"28.639490799999997,77.2194758"
Ghaziuddin's Mosque,Mosque,"J6WC+27Q Ghaziuddin's Mosque, Desh Bandhu Gupta Rd, Ajmeri Gate, New Delhi, Delhi, 110006",Ajmeri Gate,"J6WC+27Q, Desh Bandhu Gupta Rd","New Delhi, Delhi",110006,Delhi,IN,https://www.google.com/maps/place/Ghaziuddin%27s+Mosque/data=!4m7!3m6!1s0x390cfd3e4a23a085:0xc3158b353abd92f2!8m2!3d28.6450762!4d77.2207416!16s%2Fg%2F12hmk812x!19sChIJhaAjSj79DDkR8pK9OjWLFcM?authuser=0&hl=en&rclk=1,"28.6450762,77.2207416"
Patrigarwada masjid,Mosque,"MVX6+5GV Patrigarwada masjid, Junaraopura, Nadiad, Gujarat 387001",Junaraopura,MVX6+5GV,Nadiad,387001,Gujarat,IN,https://www.google.com/maps/place/Patrigarwada+masjid/data=!4m7!3m6!1s0x395e5b0ddbc7ffcf:0x3b8023bbafe39dcc!8m2!3d22.697981!4d72.8612896!16s%2Fg%2F11b7d3hs61!19sChIJz__H2w1bXjkRzJ3jr7sjgDs?authuser=0&hl=en&rclk=1,"22.697981,72.86128959999999"
KAASMI MASJID,Mosque,"KAASMI MASJID, 8 -110094, Gali No. 2, E2 Block, Nehru Vihar, New Mustafabad, Delhi, 110094","E2 Block, Nehru Vihar, Old Mustafabad, New Mustafabad","8 -110094, Gali No. 2",Delhi,110094,Delhi,IN,https://www.google.com/maps/place/KAASMI+MASJID/data=!4m7!3m6!1s0x390cfc1bc20852c3:0xbeb256e8db121704!8m2!3d28.712964!4d77.2702719!16s%2Fg%2F11fxb790sf!19sChIJw1IIwhv8DDkRBBcS2-hWsr4?authuser=0&hl=en&rclk=1,"28.712964,77.2702719"
Masjid Sanauji,Mosque,"Masjid Sanauji, Shop No. 1630, Lal Kuan, Lalkuan Bazar Rd, Baradari, Chandni Chowk, New Delhi, Delhi 110006","Bazar Sirkiwalan, Baradari, Chandni Chowk","Shop No. 1630, Lal Kuan, Lalkuan Bazar Rd","New Delhi, Delhi",110006,Delhi,IN,https://www.google.com/maps/place/Masjid+Sanauji/data=!4m7!3m6!1s0x390cfd13fe3ea72d:0x27ea23bc5f650202!8m2!3d28.6529317!4d77.2232485!16s%2Fg%2F12hplq4pp!19sChIJLac-_hP9DDkRAgJlX7wj6ic?authuser=0&hl=en&rclk=1,"28.6529317,77.2232485"
Masjid Badh Wali,Mosque,"J6VP+JV6 Masjid Badh Wali, Tiraha Behram Khan Rd, Bazar Chitli Qabar, Rakab Ganj, Chandni Mahal, Old Delhi, New Delhi, Delhi, 110002","Bazar Chitli Qabar, Rakab Ganj, Chandni Mahal, Old Delhi","J6VP+JV6, Tiraha Behram Khan Rd","New Delhi, Delhi",110002,Delhi,IN,https://www.google.com/maps/place/Masjid+Badh+Wali/data=!4m7!3m6!1s0x390cfd2118e572f3:0x9c213c137affb7ef!8m2!3d28.6440274!4d77.2371508!16s%2Fg%2F11dybg90wk!19sChIJ83LlGCH9DDkR77f_ehM8IZw?authuser=0&hl=en&rclk=1,"28.6440274,77.2371508"
Anarwali Masjid msjd nr wly,Mosque,"Anarwali Masjid msjd nr wly, hno.230/ mandavali, 3, Mandawali Main Road, Fazalpur, Railway Colony, Mandawali, Delhi, 110092","Railway Colony, Mandawali","hno.230/ mandavali, 3, Mandawali Main Road, Fazalpur, Railway Colony, Mandawali",Delhi,110092,Delhi,IN,https://www.google.com/maps/place/Anarwali+Masjid+%D9%85%D8%B3%D8%AC%D8%AF+%D8%A7%D9%86%D8%A7%D8%B1+%D9%88%D8%A7%D9%84%DB%8C%E2%80%AD/data=!4m7!3m6!1s0x390ce4aceaaaaaab:0xf35cfc3b5a9a894a!8m2!3d28.6291881!4d77.2936695!16s%2Fg%2F11cmfdyfyg!19sChIJq6qq6qzkDDkRSomaWjv8XPM?authuser=0&hl=en&rclk=1,"28.6291881,77.2936695"
Chhoti Masjid (Ahle Hadees),Mosque,"Chhoti Masjid (Ahle Hadees), 1350, Ballimaran Rd, Baradari, Chandni Chowk, New Delhi, Delhi, 110006","Baradari, Chandni Chowk","1350, Ballimaran Rd","New Delhi, Delhi",110006,Delhi,IN,https://www.google.com/maps/place/Chhoti+Masjid+%28Ahle+Hadees%29/data=!4m7!3m6!1s0x390cfd1114163021:0xfe55fec1a30e884f!8m2!3d28.6544687!4d77.2250088!16s%2Fg%2F11g03hfjlc!19sChIJITAWFBH9DDkRT4gOo8H-Vf4?authuser=0&hl=en&rclk=1,"28.6544687,77.2250088"
Mosque msjd,Mosque,"J76X+W9R Mosque msjd, New, Kotla Village, Mayur Vihar, New Delhi, Delhi 110091","Kotla Village, Mayur Vihar","J76X+W9R, New","New Delhi, Delhi",110091,Delhi,IN,https://www.google.com/maps/place/Mosque+%D9%85%D8%B3%D8%AC%D8%AF%E2%80%AD/data=!4m7!3m6!1s0x390ce4bcc9c6272b:0x172c875eb9dd78e2!8m2!3d28.612373!4d77.2984052!16s%2Fg%2F11c3182y_w!19sChIJKyfGybzkDDkR4njduV6HLBc?authuser=0&hl=en&rclk=1,"28.612372999999998,77.29840519999999"
Ishaq Masjid,Mosque,"Ishaq Masjid, Ishaq Masjid Wali Gali, Block C, Sarai Kale Khan, New Delhi, Delhi 110013","Block C, Sarai Kale Khan",Ishaq Masjid Wali Gali,New Delhi,110013,Delhi,IN,https://www.google.com/maps/place/Ishaq+Masjid/data=!4m7!3m6!1s0x390ce376f8a80f59:0x43d242dbd3376818!8m2!3d28.5849571!4d77.2565889!16s%2Fg%2F11q2tx_6x1!19sChIJWQ-o-HbjDDkRGGg309tC0kM?authuser=0&hl=en&rclk=1,"28.5849571,77.2565889"
Ijaba Masjid,Mosque,"Ijaba Masjid, 1489/16, Block D, Chand Vihar, New Mustafabad, Delhi, 110094","Block D, Chand Vihar, New Mustafabad",1489/16,Delhi,110094,Delhi,IN,https://www.google.com/maps/place/Ijaba+Masjid/data=!4m7!3m6!1s0x390cfd4112cff819:0x124578cf76e8540b!8m2!3d28.7086594!4d77.2713446!16s%2Fg%2F11j08711wr!19sChIJGfjPEkH9DDkRC1Tods94RRI?authuser=0&hl=en&rclk=1,"28.7086594,77.27134459999999"
Mr.SAHEEM MALIK,Mosque,"Mr.SAHEEM MALIK, Gali no. 3 - Tirpal Factory Mustafabad, near Ayisha masjid, 25 Futa Rd, near by Aisha Masjid, chowk, Delhi 110094","Shakti Vihar, Old Mustafabad, chowk","Gali no. 3 - Tirpal Factory Mustafabad, near Ayisha masjid, 25 Futa Rd, near by Aisha Masjid",Delhi,110094,Delhi,IN,https://www.google.com/maps/place/Mr.SAHEEM+MALIK/data=!4m7!3m6!1s0x390cfd9a44cd4997:0xffdc8860c53e3f2b!8m2!3d28.7159667!4d77.272238!16s%2Fg%2F11h3cwgc8y!19sChIJl0nNRJr9DDkRKz8-xWCI3P8?authuser=0&hl=en&rclk=1,"28.7159667,77.272238"
Masjid,Mosque,"Q7JJ+7WC Masjid, Pavi Sadakpur, Uttar Pradesh 201102",,Q7JJ+7WC,Pavi Sadakpur,201102,Uttar Pradesh,IN,https://www.google.com/maps/place/Masjid/data=!4m7!3m6!1s0x390cff3247b3c4d7:0xf1b7407f946dd8cc!8m2!3d28.7806806!4d77.2822504!16s%2Fg%2F11ggz8tfhy!19sChIJ18SzRzL_DDkRzNhtlH9At_E?authuser=0&hl=en&rclk=1,"28.7806806,77.2822504"
Masjid,Mosque,"Q6MJ+5H5 Masjid, Badarpur, Madanpur Khadar, New Delhi, 110084",Madanpur Khadar,"Q6MJ+5H5, Badarpur","New Delhi, Delhi",110084,Delhi,IN,https://www.google.com/maps/place/Masjid/data=!4m7!3m6!1s0x390cffb780460377:0x9fe224e9c653e965!8m2!3d28.7828891!4d77.2314704!16s%2Fg%2F11qn790lvq!19sChIJdwNGgLf_DDkRZelTxukk4p8?authuser=0&hl=en&rclk=1,"28.7828891,77.23147039999999"
Depo Wali Masjid,Mosque,"H559+26W Depo Wali Masjid, Unnamed Road, Basant Lok, Vasant Vihar, New Delhi, Delhi 110070","Basant Lok, Vasant Vihar","H559+26W, Unnamed Road",New Delhi,110070,Delhi,IN,https://www.google.com/maps/place/Depo+Wali+Masjid/data=!4m7!3m6!1s0x390d1d964513d629:0x8d4bd74a0cdc5aa6!8m2!3d28.557603!4d77.1680784!16s%2Fg%2F11h6t6kq7k!19sChIJKdYTRZYdDTkRplrcDErXS40?authuser=0&hl=en&rclk=1,"28.557603,77.1680784"
Masjid Hamam Wali,Mosque,"Masjid Hamam Wali, 6470, Katra Bariyan, Fatehpuri, Chandni Chowk, New Delhi, Delhi, 110006","Fatehpuri, Chandni Chowk","6470, Katra Bariyan","New Delhi, Delhi",110006,Delhi,IN,https://www.google.com/maps/place/Masjid+Hamam+Wali/data=!4m7!3m6!1s0x390cfd12316f31ef:0x174a76ac455f8b5!8m2!3d28.655784!4d77.222307!16s%2Fg%2F12hqwxj4v!19sChIJ7zFvMRL9DDkRtfhVxGqndAE?authuser=0&hl=en&rclk=1,"28.655783999999997,77.222307"
Waheedan Masjid,Mosque,"M7MH+25G Waheedan Masjid, Masjid Noorun Nabi Rd, New Jaffrabad, Shahdara, Delhi, 110032","New Jaffrabad, Shahdara","M7MH+25G, Masjid Noorun Nabi Rd",Delhi,110032,Delhi,IN,https://www.google.com/maps/place/Waheedan+Masjid/data=!4m7!3m6!1s0x390cfc7ba737c24f:0xf7bbd2241f1691de!8m2!3d28.682571!4d77.2779629!16s%2Fg%2F11f_xhnkhb!19sChIJT8I3p3v8DDkR3pEWHyTSu_c?authuser=0&hl=en&rclk=1,"28.682571,77.27796289999999"
Jama masjid jaamaa msjid,Mosque,"Q482+XV3 Jama masjid jaamaa msjid, Uttar Pradesh 245205",,Q482+XV3,,245205,Uttar Pradesh,IN,https://www.google.com/maps/place/Jama+masjid+%E0%A4%9C%E0%A4%BE%E0%A4%AE%E0%A4%BE+%E0%A4%AE%E0%A4%B8%E0%A5%8D%E0%A4%9C%E0%A4%BF%E0%A4%A6/data=!4m7!3m6!1s0x390b7b094fbe2523:0x93fcc9b0617d84dc!8m2!3d28.7673839!4d78.1021844!16s%2Fg%2F11qnrrrssc!19sChIJIyW-Twl7CzkR3IR9YbDJ_JM?authuser=0&hl=en&rclk=1,"28.7673839,78.1021844"
Masjid,Mosque,"Masjid, 242, Masjid Jheel Pio, Near ITO metro GateNo.3, Bahadur Shah Zafar Marg, Balmiki Basti, Vikram Nagar, Delhi, 110002","Bahadur Shah Zafar Marg, Balmiki Basti, Vikram Nagar","242, Masjid Jheel Pio, Near ITO metro GateNo.3, Bahadur Shah Zafar Marg",Delhi,110002,Delhi,IN,https://www.google.com/maps/place/Masjid/data=!4m7!3m6!1s0x390cfd441769149d:0xa1929f1b4f5921d6!8m2!3d28.6298914!4d77.2415098!16s%2Fg%2F11s2n38r9b!19sChIJnRRpF0T9DDkR1iFZTxufkqE?authuser=0&hl=en&rclk=1,"28.629891399999998,77.2415098"
Masjid,Mosque,"Masjid, 2508, Fasil Rd, Gali Sakko Wali, Shah Ganj, Chandni Chowk, New Delhi, Delhi, 110006","Gali Sakko Wali, Shah Ganj, Chandni Chowk","2508, Fasil Rd","New Delhi, Delhi",110006,Delhi,IN,https://www.google.com/maps/place/Masjid/data=!4m7!3m6!1s0x390cfd15c9a8a4b1:0xf975aada141da03e!8m2!3d28.6491552!4d77.2220471!16s%2Fg%2F1hm4gjxkd!19sChIJsaSoyRX9DDkRPqAdFNqqdfk?authuser=0&hl=en&rclk=1,"28.6491552,77.2220471"
Old Mugal Masjid,Mosque,"J6X9+P3V Old Mugal Masjid, Qutab Rd, Ram Nagar Market, Aram Nagar, Paharganj, New Delhi, Delhi, 110055","Ram Nagar Market, Aram Nagar, Paharganj","J6X9+P3V, Qutab Rd","New Delhi, Delhi",110055,Delhi,IN,https://www.google.com/maps/place/Old+Mugal+Masjid/data=!4m7!3m6!1s0x390cfd152b1b0125:0x49e032c4a3927074!8m2!3d28.6493546!4d77.2176682!16s%2Fg%2F11ggw008kv!19sChIJJQEbKxX9DDkRdHCSo8Qy4Ek?authuser=0&hl=en&rclk=1,"28.6493546,77.21766819999999"
Ghausiya Masjid,Mosque,"M7WQ+X5M Ghausiya Masjid, New, Kardam Puri Extension, Delhi","Kardam Puri Extension, Kardam Puri, Shahdara","M7WQ+X5M, New",Delhi,,Delhi,IN,https://www.google.com/maps/place/Ghausiya+Masjid/data=!4m7!3m6!1s0x390cfb24c7dc3f8b:0x7940cd0e405956a3!8m2!3d28.6974538!4d77.2879242!16s%2Fg%2F11h3g56qsq!19sChIJiz_cxyT7DDkRo1ZZQA7NQHk?authuser=0&hl=en&rclk=1,"28.697453799999998,77.28792419999999"
msjid,Mosque,"msjid, 249, Swami Amardev Marg, Bara Bazar, Maharam Mohalla, Shahdara, Delhi, 110032","Bara Bazar, Maharam Mohalla, Shahdara","249, Swami Amardev Marg",Delhi,110032,Delhi,IN,https://www.google.com/maps/place/%E0%A4%AE%E0%A4%B8%E0%A5%8D%E0%A4%9C%E0%A4%BF%E0%A4%A6/data=!4m7!3m6!1s0x390cfb490b84c709:0x30ecad58f89bafaa!8m2!3d28.6687399!4d77.2917355!16s%2Fg%2F11n03hfp8k!19sChIJCceEC0n7DDkRqq-b-Fit7DA?authuser=0&hl=en&rclk=1,"28.6687399,77.2917355"
Masjid Anar Wali,Mosque,"J6WP+H6G Masjid Anar Wali, Haveli Azam Khan, Chittli Qabar Bazar Rd, Delhi, 110006","Kalan Mehal, Old Delhi","J6WP+H6G, Haveli Azam Khan, Chittli Qabar Bazar Rd",Delhi,110006,Delhi,IN,https://www.google.com/maps/place/Masjid+Anar+Wali/data=!4m7!3m6!1s0x390cfd2192f45833:0xddf1e01c9e23f7d3!8m2!3d28.6464403!4d77.2355876!16s%2Fg%2F11f4v9j1sy!19sChIJM1j0kiH9DDkR0_cjnhzg8d0?authuser=0&hl=en&rclk=1,"28.6464403,77.2355876"
Masjid Saguwa Wali (Choti Masjid),Mosque,"Masjid Saguwa Wali (Choti Masjid), 1614, Old Dariya Ganj, Daryaganj, New Delhi, Delhi, 110002","Old Dariya Ganj, Daryaganj",1614,"New Delhi, Delhi",110002,Delhi,IN,https://www.google.com/maps/place/Masjid+Saguwa+Wali+%28Choti+Masjid%29/data=!4m7!3m6!1s0x390cfde70c37cfe3:0xcd9ebd43305f88c8!8m2!3d28.6470267!4d77.2382029!16s%2Fg%2F11f7qykm_q!19sChIJ4883DOf9DDkRyIhfMEO9ns0?authuser=0&hl=en&rclk=1,"28.647026699999998,77.23820289999999"
Munwara Masjid,Mosque,"Munwara Masjid, E-130, Gali No.6, Third Pusta Main Rd, Jagjeet Nagar, Delhi, 110053","Third Pushta, Nayagaon, Jagjeet Nagar, Shahdara","E-130, Gali No.6, Third Pusta Main Rd",Delhi,110053,Delhi,IN,https://www.google.com/maps/place/Munwara+Masjid/data=!4m7!3m6!1s0x390cfc44ec3cee7b:0x6817d8194e44c0a7!8m2!3d28.6861966!4d77.2559837!16s%2Fg%2F12hq6qdwg!19sChIJe-487ET8DDkRp8BEThnYF2g?authuser=0&hl=en&rclk=1,"28.6861966,77.2559837"
Hauz Wali Masjid,Mosque,"M676+45X Hauz Wali Masjid, Fyaz Ganj, Sadar Bazaar, New Delhi, Delhi, 110006","Fyaz Ganj, Sadar Bazaar",M676+45X,"New Delhi, Delhi",110006,Delhi,IN,https://www.google.com/maps/place/Hauz+Wali+Masjid/data=!4m7!3m6!1s0x390cfd4b2f653019:0x4f38aebb9d4831e3!8m2!3d28.6628726!4d77.2104778!16s%2Fg%2F11j0n54097!19sChIJGTBlL0v9DDkR4zFInbuuOE8?authuser=0&hl=en&rclk=1,"28.6628726,77.21047779999999"
Masjid sadak wali,Mosque,"7992, Masjid sadak wali, 1, Md. Ismail Marg, Chowk Nai Basti, Sadar Bazaar, New Delhi, Delhi, 110006","Chowk Nai Basti, Sadar Bazaar","7992, 1, Md. Ismail Marg","New Delhi, Delhi",110006,Delhi,IN,https://www.google.com/maps/place/Masjid+sadak+wali/data=!4m7!3m6!1s0x390cfd2020037aed:0xf4109e03947cf68f!8m2!3d28.6602926!4d77.2062804!16s%2Fg%2F11jz7vcbwz!19sChIJ7XoDICD9DDkRj_Z8lAOeEPQ?authuser=0&hl=en&rclk=1,"28.6602926,77.2062804"
Masjid,Mosque,"Masjid, Molarband, Badarpur, New Delhi, Delhi 110044","Molarband, Badarpur",,New Delhi,110044,Delhi,IN,https://www.google.com/maps/place/Masjid/data=!4m7!3m6!1s0x390ce75604c9317b:0x95388f2bb1f0f9b2!8m2!3d28.5063324!4d77.3130947!16s%2Fg%2F11rkpbdy5r!19sChIJezHJBFbnDDkRsvnwsSuPOJU?authuser=0&hl=en&rclk=1,"28.506332399999998,77.3130947"
Palikha Bhawan masjid,Mosque,"H5CM+CR Palikha Bhawan masjid, Block B, Sector 13, Rama Krishna Puram, New Delhi, Delhi 110023","Block B, Sector 13, Rama Krishna Puram",H5CM+CR,New Delhi,,Delhi,IN,https://www.google.com/maps/place/Palikha+Bhawan+masjid/data=!4m7!3m6!1s0x390d1d225eb0fc93:0xd02146e38fc68bbc!8m2!3d28.5711007!4d77.1846199!16s%2Fg%2F11tjs4v4h2!19sChIJk_ywXiIdDTkRvIvGj-NGIdA?authuser=0&hl=en&rclk=1,"28.5711007,77.1846199"
Jama masjid of Takhawali,Mosque,"6W23+22M Jama masjid of Takhawali, Takhawali, Uttar Pradesh 250401",,6W23+22M,Takhawali,250401,Uttar Pradesh,IN,https://www.google.com/maps/place/Jama+masjid+of+Takhawali/data=!4m7!3m6!1s0x390c75fb54ad8293:0x9cdd3ee4e791bed5!8m2!3d29.2000898!4d77.9025541!16s%2Fg%2F11n82mgvjd!19sChIJk4KtVPt1DDkR1b6R5-Q-3Zw?authuser=0&hl=en&rclk=1,"29.200089799999997,77.9025541"
Masjid Dai Wali,Mosque,"Masjid Dai Wali, G56, Netaji Subhash Marg, Daryaganj, New Delhi, Delhi, 110002",Daryaganj,"G56, Netaji Subhash Marg","New Delhi, Delhi",110002,Delhi,IN,https://www.google.com/maps/place/Masjid+Dai+Wali/data=!4m7!3m6!1s0x390cfda951a7bf9f:0xc163c4c6f2f49693!8m2!3d28.6466017!4d77.24039!16s%2Fg%2F11s564tbys!19sChIJn7-nUan9DDkRk5b08sbEY8E?authuser=0&hl=en&rclk=1,"28.646601699999998,77.24038999999999"
Masjid Kaddan Wali,Mosque,"Masjid Kaddan Wali, 3800,, Charkhiwalan Gali, Khush Dil, Chandni Chowk, New Delhi, Delhi 110006","Khush Dil, Chandni Chowk","3800,, Charkhiwalan Gali","New Delhi, Delhi",110006,Delhi,IN,https://www.google.com/maps/place/Masjid+Kaddan+Wali/data=!4m7!3m6!1s0x390cfd19d610452b:0xf81efc1a357adee8!8m2!3d28.6506731!4d77.2290561!16s%2Fg%2F12hkbxr_7!19sChIJK0UQ1hn9DDkR6N56NRr8Hvg?authuser=0&hl=en&rclk=1,"28.6506731,77.2290561"
Masjid Shatoot Wali,Mosque,"M67H+G5Q Masjid Shatoot Wali, Chhota Bazar, Mori Gate, New Delhi, Delhi, 110006","Chhota Bazar, Mori Gate",M67H+G5Q,"New Delhi, Delhi",110006,Delhi,IN,https://www.google.com/maps/place/Masjid+Shatoot+Wali/data=!4m7!3m6!1s0x390cfdd8114d08fd:0x326042596014276a!8m2!3d28.663827!4d77.2279973!16s%2Fg%2F11g4h_zjtj!19sChIJ_QhNEdj9DDkRaicUYFlCYDI?authuser=0&hl=en&rclk=1,"28.663826999999998,77.2279973"
Masjid Bagheechey Wali,Mosque,"Masjid Bagheechey Wali, 5200, Kucha Rehman Gali, New Krishna Cloth Market, Katra Rathi, Chandni Chowk, New Delhi, Delhi, 110006","New Krishna Cloth Market, Katra Rathi, Chandni Chowk","5200, Kucha Rehman Gali","New Delhi, Delhi",110006,Delhi,IN,https://www.google.com/maps/place/Masjid+Bagheechey+Wali/data=!4m7!3m6!1s0x390cfd369091dc93:0x980e7cf6a2accc8a!8m2!3d28.6548146!4d77.2267999!16s%2Fg%2F11jgxc_zvm!19sChIJk9yRkDb9DDkRisysovZ8Dpg?authuser=0&hl=en&rclk=1,"28.654814599999998,77.2267999"
Masjid,Mosque,"H4Q9+GQ2 Masjid, Sadar Bazaar, Delhi Cantonment, New Delhi, Delhi 110010","Sadar Bazaar, Delhi Cantonment",H4Q9+GQ2,New Delhi,110010,Delhi,IN,https://www.google.com/maps/place/Masjid/data=!4m7!3m6!1s0x390d1de7a344966b:0x439561fcffba0204!8m2!3d28.5887553!4d77.1193923!16s%2Fg%2F11vlmpcmn5!19sChIJa5ZEo-cdDTkRBAK6__xhlUM?authuser=0&hl=en&rclk=1,"28.5887553,77.1193923"
Masjid,Mosque,"Masjid, 8/2, Budh Bazar, Block L 1, Devli, Sangam Vihar, New Delhi, Delhi 110062","Budh Bazar, Block L 1, Devli, Sangam Vihar",8/2,New Delhi,110062,Delhi,IN,https://www.google.com/maps/place/Masjid/data=!4m7!3m6!1s0x390ce1dde82b3bc3:0x4d3537cacd38aec4!8m2!3d28.4940769!4d77.2261653!16s%2Fg%2F11rk33_10p!19sChIJwzsr6N3hDDkRxK44zco3NU0?authuser=0&hl=en&rclk=1,"28.4940769,77.22616529999999"
Masjid,Mosque,"Masjid, Gali No 19, Gali Number 1, Mustafabad Extn, New Mustafabad, Delhi, 110094","E2 Block, Mustafabad Extn, New Mustafabad","Gali No 19, Gali Number 1",Delhi,110094,Delhi,IN,https://www.google.com/maps/place/Masjid/data=!4m7!3m6!1s0x390cfc1b020b0e91:0xb48a3c3233e41cbd!8m2!3d28.711773!4d77.272563!16s%2Fg%2F12hpqnhjr!19sChIJkQ4LAhv8DDkRvRzkMzI8irQ?authuser=0&hl=en&rclk=1,"28.711772999999997,77.27256299999999"
Bole to Vadapao,Coffee shop,"Bole to Vadapao, Metro station, 1786 Lal Kuan Main Bazar, Near, Chawri Bazar, opp. Lal Masjid, Delhi, 110006","Baradari, Chandni Chowk","Metro station, 1786 Lal Kuan Main Bazar, Near, Chawri Bazar, opp. Lal Masjid",Delhi,110006,Delhi,IN,https://www.google.com/maps/place/Bole+to+Vadapao/data=!4m7!3m6!1s0x390cfd679f075fa5:0x176b438944f4e531!8m2!3d28.6537926!4d77.2225407!16s%2Fg%2F11ts216l0h!19sChIJpV8Hn2f9DDkRMeX0RIlDaxc?authuser=0&hl=en&rclk=1,"28.6537926,77.2225407"
Israil poma masjid,Mosque,"HF74+H6J Israil poma masjid, Bhaisani Islampur, Kadargarh, Uttar Pradesh 251301",,HF74+H6J,"Bhaisani Islampur, Kadargarh",251301,Uttar Pradesh,IN,https://www.google.com/maps/place/Israil+poma+masjid/data=!4m7!3m6!1s0x390e9d7d18fd5931:0xb70126529c138bb4!8m2!3d29.5639737!4d77.4555134!16s%2Fg%2F11nnw0p_9w!19sChIJMVn9GH2dDjkRtIsTnFImAbc?authuser=0&hl=en&rclk=1,"29.5639737,77.4555134"
The Mughalai By Tashmeem,Family restaurant,"Shop No B 1, The Mughalai By Tashmeem, 21, Parmeshwaridas Gupta Marg, Block A4, B 1 Block, Paschim Vihar, New Delhi, Delhi, 110063","Block A4, B 1 Block, Paschim Vihar","Shop No B 1, 21, Parmeshwaridas Gupta Marg","New Delhi, Delhi",110063,Delhi,IN,https://www.google.com/maps/place/The+Mughalai+By+Tashmeem/data=!4m7!3m6!1s0x390d0385fc7aaf79:0xd284978bc51854d5!8m2!3d28.6697519!4d77.1085666!16s%2Fg%2F11s3zb3ct8!19sChIJea96_IUDDTkR1VQYxYuXhNI?authuser=0&hl=en&rclk=1,"28.669751899999998,77.1085666"
Masjid Bodsawala Wali,Mosque,"Masjid Bodsawala Wali, 2370,Chatta Shahji,Chawri Bazar, Dharam Pura Rd, Nai Wala, Chandni Chowk, New Delhi, Delhi 110006","Nai Wala, Chandni Chowk","2370,Chatta Shahji,Chawri Bazar, Dharam Pura Rd","New Delhi, Delhi",110006,Delhi,IN,https://www.google.com/maps/place/Masjid+Bodsawala+Wali/data=!4m7!3m6!1s0x390cfd19b6b59b81:0x1d0c8dba8ab5b549!8m2!3d28.6509214!4d77.2308029!16s%2Fg%2F1ptx9cfbw!19sChIJgZu1thn9DDkRSbW1irqNDB0?authuser=0&hl=en&rclk=1,"28.650921399999998,77.2308029"
Masjid,Mosque,"Masjid, 20, Masjid Rd, Pervesh Nagar, Mubarakpur Dabas, New Delhi, Delhi, 110081","Pervesh Nagar, Mubarakpur Dabas","20, Masjid Rd","New Delhi, Delhi",110081,Delhi,IN,https://www.google.com/maps/place/Masjid/data=!4m7!3m6!1s0x390d075632dea237:0xe707b406c4cff64!8m2!3d28.7098866!4d77.0310854!16s%2Fg%2F11kq2cq2_1!19sChIJN6LeMlYHDTkRZP9MbEB7cA4?authuser=0&hl=en&rclk=1,"28.709886599999997,77.0310854"
Masjid,Mosque,"J2WM+MXF Masjid, Sunni Masjid Rd, Deep Enclave, Hastsal, Delhi, 110059","Deep Enclave, Hastsal","J2WM+MXF, Sunni Masjid Rd",Delhi,110059,Delhi,IN,https://www.google.com/maps/place/Masjid/data=!4m7!3m6!1s0x390d05267bb46283:0xaef6f06f366d7113!8m2!3d28.6466834!4d77.0349292!16s%2Fg%2F11vl8tpxw1!19sChIJg2K0eyYFDTkRE3FtNm_w9q4?authuser=0&hl=en&rclk=1,"28.646683399999997,77.0349292"
Masjid,Mosque,"M794+RG5 Masjid, Block A, Shastri Park, Shahdara, Delhi, 110053","Block A, Shastri Park, Shahdara",M794+RG5,Delhi,,Delhi,IN,https://www.google.com/maps/place/Masjid/data=!4m7!3m6!1s0x390cfd74b6378221:0x2da5c9212f831088!8m2!3d28.6695164!4d77.2563643!16s%2Fg%2F11tb42z9g0!19sChIJIYI3tnT9DDkRiBCDLyHJpS0?authuser=0&hl=en&rclk=1,"28.6695164,77.2563643"
Masjid,Mosque,"Shop No: 5035, Masjid, Netaji Subhash Marg, Daryaganj, New Delhi, Delhi, 110002",Daryaganj,"Shop No: 5035, Netaji Subhash Marg","New Delhi, Delhi",110002,Delhi,IN,https://www.google.com/maps/place/Masjid/data=!4m7!3m6!1s0x390cfdf175041b95:0x8ef57a2bc9f92c1c!8m2!3d28.6480954!4d77.2403964!16s%2Fg%2F11s664lvxh!19sChIJlRsEdfH9DDkRHCz5ySt69Y4?authuser=0&hl=en&rclk=1,"28.6480954,77.2403964"
Masjid,Mosque,"H662+8G4 Masjid, Green Park Ext Rd, Block J, Green Park Extension, Green Park, New Delhi, Delhi 110016","Block J, Green Park Extension, Green Park","H662+8G4, Green Park Ext Rd",New Delhi,110016,Delhi,IN,https://www.google.com/maps/place/Masjid/data=!4m7!3m6!1s0x390ce3053c6f74cf:0x33b8d79c09cb4f99!8m2!3d28.5607743!4d77.2013357!16s%2Fg%2F11krd8fpw7!19sChIJz3RvPAXjDDkRmU_LCZzXuDM?authuser=0&hl=en&rclk=1,"28.5607743,77.2013357"
Masjid,Mosque,"Masjid, 94L, Adarsh Mohalla, Block P, Mayur Vihar, Delhi, 110091","Adarsh Mohalla, Block P, Mayur Vihar",94L,Delhi,110091,Delhi,IN,https://www.google.com/maps/place/Masjid/data=!4m7!3m6!1s0x390ce594aaf9a4ed:0x7705b6bd1214d779!8m2!3d28.6097585!4d77.2915521!16s%2Fg%2F11vdfgxvzr!19sChIJ7aT5qpTlDDkRedcUEr22BXc?authuser=0&hl=en&rclk=1,"28.609758499999998,77.29155209999999"
