name,main_category,address,address_ward,address_street,address_city,address_postal_code,address_state,address_country_code,link,coordinates
Perumattam Juma Masjid,Mosque,"XHVW+4FR Perumattam Juma Masjid, Perumattom, Muvattupuzha, Kerala 686673",Perumattom,XHVW+4FR,Muvattupuzha,686673,Kerala,IN,https://www.google.com/maps/place/Perumattam+Juma+Masjid/data=!4m7!3m6!1s0x3b07e782147aae31:0x6877a56b614490fa!8m2!3d9.992857!4d76.5961519!16s%2Fg%2F1tdz37p2!19sChIJMa56FILnBzsR-pBEYWuld2g?authuser=0&hl=en&rclk=1,"9.992856999999999,76.5961519"
Central Mahal Juma Masjid Muvattupuzha,Mosque,"XHRM+295 Central Mahal Juma Masjid Muvattupuzha, Kochi - Madurai - Dhanushkodi Rd, Vazhappily, Muvattupuzha, Kerala 686673",Vazhappily,"XHRM+295, Kochi - Madurai - Dhanushkodi Rd",Muvattupuzha,686673,Kerala,IN,https://www.google.com/maps/place/Central+Mahal+Juma+Masjid+Muvattupuzha/data=!4m7!3m6!1s0x3b07e7634b2e847f:0x4fe522c5eb43af47!8m2!3d9.990018!4d76.583475!16s%2Fg%2F1262bc6k3!19sChIJf4QuS2PnBzsRR69D68Ui5U8?authuser=0&hl=en&rclk=1,"9.990018,76.58347499999999"
Central Jumua Masjid Pezhakkapilly,Mosque,"2H68+3M4 Central Jumua Masjid Pezhakkapilly, Pezhakkappilly, Kerala 686674",,2H68+3M4,Pezhakkappilly,686674,Kerala,IN,https://www.google.com/maps/place/Central+Jumua+Masjid+Pezhakkapilly/data=!4m7!3m6!1s0x3b07e73ed0ffffff:0x61b54cbc355da1e7!8m2!3d10.0101398!4d76.5667041!16s%2Fg%2F11cn5ll_6c!19sChIJ____0D7nBzsR56FdNbxMtWE?authuser=0&hl=en&rclk=1,"10.0101398,76.5667041"
Thaqwa Jum'a Masjid,Mosque,"XHRG+F3W Thaqwa Jum'a Masjid, Signal Jn, Velloorkunnam, Muvattupuzha, Kerala 686673",Velloorkunnam,"XHRG+F3W, Signal Jn",Muvattupuzha,686673,Kerala,IN,https://www.google.com/maps/place/Thaqwa+Jum%27a+Masjid/data=!4m7!3m6!1s0x3b07e766d14c9b71:0x74de468ff5338335!8m2!3d9.99125!4d76.5752!16s%2Fg%2F1pyqsg379!19sChIJcZtM0WbnBzsRNYMz9Y9G3nQ?authuser=0&hl=en&rclk=1,"9.991249999999999,76.5752"
Salafi Masjid msjd,Mosque,"XHVJ+HX3 Salafi Masjid msjd, Muvattupuzha, Kerala 686673",,XHVJ+HX3,Muvattupuzha,686673,Kerala,IN,https://www.google.com/maps/place/Salafi+Masjid+%D9%85%D8%B3%D8%AC%D8%AF%E2%80%AD/data=!4m7!3m6!1s0x3b07e764dc250695:0x7496ca41c12bd4af!8m2!3d9.9938888!4d76.5824234!16s%2Fg%2F1hm1xrd_q!19sChIJlQYl3GTnBzsRr9QrwUHKlnQ?authuser=0&hl=en&rclk=1,"9.993888799999999,76.5824234"
Muhyiddin Juma masjid marady,Mosque,"XH67+F8W Muhyiddin Juma masjid marady, Muvattupuzha Pampakuda Rd, Thottumkalpeedika, Muvattupuzha, Kerala 686661",Thottumkalpeedika,"XH67+F8W, Muvattupuzha Pampakuda Rd",Muvattupuzha,686661,Kerala,IN,https://www.google.com/maps/place/Muhyiddin+Juma+masjid+marady/data=!4m7!3m6!1s0x3b07ddc2587e2f11:0xad5c52dfd236de62!8m2!3d9.9612269!4d76.5633404!16s%2Fg%2F11dyqy_90j!19sChIJES9-WMLdBzsRYt420t9SXK0?authuser=0&hl=en&rclk=1,"9.9612269,76.5633404"
"Muhiyidheen Jum'a Masjid, Petta (Hanafiy Mosque)",Mosque,"XHHJ+CW4 Muhiyidheen Jum'a Masjid, Petta (Hanafiy Mosque), Vandipetta Rd, Thottumkalpeedika, Muvattupuzha, Kerala 686661",Thottumkalpeedika,"XHHJ+CW4, Vandipetta Rd",Muvattupuzha,686661,Kerala,IN,"https://www.google.com/maps/place/Muhiyidheen+Jum%27a+Masjid,+Petta+%28Hanafiy+Mosque%29/data=!4m7!3m6!1s0x3b07dd8f6b897823:0xd20fb300670aedfe!8m2!3d9.9785025!4d76.5823269!16s%2Fg%2F1pyqm6xch!19sChIJI3iJa4_dBzsR_u0KZwCzD9I?authuser=0&hl=en&rclk=1","9.9785025,76.5823269"
"Mulavoor Makkam,Dargha Shareef",Mosque,"2HJR+35X Mulavoor Makkam,Dargha Shareef, Mulavoor, Kerala 686673",,2HJR+35X,Mulavoor,686673,Kerala,IN,"https://www.google.com/maps/place/Mulavoor+Makkam,Dargha+Shareef/data=!4m7!3m6!1s0x3b07e6fe19084c53:0xdf8a4da220538428!8m2!3d10.0302382!4d76.5904858!16s%2Fg%2F11g691xh8b!19sChIJU0wIGf7mBzsRKIRTIKJNit8?authuser=0&hl=en&rclk=1","10.0302382,76.5904858"
"Mangattu Jum'a Masjid, Kizhakkekara",Mosque,"Mangattu Jum'a Masjid, Kizhakkekara, Randar, Rd, Kizhakkekara, Muvattupuzha, Kerala",Kizhakkekara,"Randar, Rd",Muvattupuzha,,Kerala,IN,"https://www.google.com/maps/place/Mangattu+Jum%27a+Masjid,+Kizhakkekara/data=!4m7!3m6!1s0x3b07e77fb290ae71:0xfd5ad0500117a30b!8m2!3d9.9881048!4d76.5922956!16s%2Fg%2F1tf6kmtj!19sChIJca6Qsn_nBzsRC6MXAVDQWv0?authuser=0&hl=en&rclk=1","9.9881048,76.5922956"
Kavumkara Masjid,Mosque,"XHRM+2CQ Kavumkara Masjid, Kochi - Madurai - Dhanushkodi Rd, Vazhappily, Muvattupuzha, Kerala 686673",Vazhappily,"XHRM+2CQ, Kochi - Madurai - Dhanushkodi Rd",Muvattupuzha,686673,Kerala,IN,https://www.google.com/maps/place/Kavumkara+Masjid/data=!4m7!3m6!1s0x3b07e779bc8aec09:0x406ef4f109326650!8m2!3d9.9900789!4d76.5836052!16s%2Fg%2F1pyqsf44c!19sChIJCeyKvHnnBzsRUGYyCfH0bkA?authuser=0&hl=en&rclk=1,"9.9900789,76.5836052"
Kalampoor East Jum'a Masjid,Mosque,"2J2V+2GG Kalampoor East Jum'a Masjid, Muvattupuzha-Pothanicad Rd, Kerala 686671",,"2J2V+2GG, Muvattupuzha-Pothanicad Rd",,686671,Kerala,IN,https://www.google.com/maps/place/Kalampoor+East+Jum%27a+Masjid/data=!4m7!3m6!1s0x3b07e80863f2fc3b:0x22a99163d2c3075e!8m2!3d10.000053!4d76.6438329!16s%2Fg%2F11y3n1yg7!19sChIJO_zyYwjoBzsRXgfD0mORqSI?authuser=0&hl=en&rclk=1,"10.000053,76.64383289999999"
Punnamattam Juma Masjid punnmrrrrN jumaa msjid,Mosque,"XJV3+J9R Punnamattam Juma Masjid punnmrrrrN jumaa msjid, Kakkadasseri, Muvattupuzha, Kerala 686673",Kakkadasseri,XJV3+J9R,Muvattupuzha,686673,Kerala,IN,https://www.google.com/maps/place/Punnamattam+Juma+Masjid+%E0%B4%AA%E0%B5%81%E0%B4%A8%E0%B5%8D%E0%B4%A8%E0%B4%AE%E0%B4%B1%E0%B5%8D%E0%B4%B1%E0%B4%82+%E0%B4%9C%E0%B5%81%E0%B4%AE%E0%B4%BE+%E0%B4%AE%E0%B4%B8%E0%B5%8D%E0%B4%9C%E0%B4%BF%E0%B4%A6%E0%B5%8D/data=!4m7!3m6!1s0x3b07e784521ecc3b:0x134bed76ae1da932!8m2!3d9.9941149!4d76.6033825!16s%2Fg%2F1pp2tw4c7!19sChIJO8weUoTnBzsRMqkdrnbtSxM?authuser=0&hl=en&rclk=1,"9.9941149,76.6033825"
Darussalam Jum'a Masjid,Mosque,"Darussalam Jum'a Masjid, SH 1 Pulinchodu Junction, Vazhappily, Muvattupuzha, Kerala 686673",Vazhappily,SH 1 Pulinchodu Junction,Muvattupuzha,686673,Kerala,IN,https://www.google.com/maps/place/Darussalam+Jum%27a+Masjid/data=!4m7!3m6!1s0x3b07e73f78882123:0x45473543a4aa1868!8m2!3d10.0046864!4d76.5709231!16s%2Fg%2F1pyqnjjm1!19sChIJIyGIeD_nBzsRaBiqpEM1R0U?authuser=0&hl=en&rclk=1,"10.004686399999999,76.5709231"
Paipra Central Juma Masjid,Mosque,"2HV8+WXM Paipra Central Juma Masjid, Paipra, Manary PO, Muvattupuzha, Cochin, East Paipra Road, Kerala",,"2HV8+WXM, Paipra, Manary PO, Muvattupuzha, Cochin, East Paipra Road",,,Kerala,IN,https://www.google.com/maps/place/Paipra+Central+Juma+Masjid/data=!4m7!3m6!1s0x3b07e6c3f3c7301b:0xa17d98fd2ea1779a!8m2!3d10.0448307!4d76.5674168!16s%2Fg%2F11gzwgxng!19sChIJGzDH88PmBzsRmnehLv2YfaE?authuser=0&hl=en&rclk=1,"10.0448307,76.56741679999999"
Central Juma Masjid. Adooparambu,Mosque,"XJF3+FW5 Central Juma Masjid. Adooparambu, Adooparambu, Kizhakkekara, Muvattupuzha, Kerala 686661","Adooparambu, Kizhakkekara",XJF3+FW5,Muvattupuzha,686661,Kerala,IN,https://www.google.com/maps/place/Central+Juma+Masjid.+Adooparambu/data=!4m7!3m6!1s0x3b07dd704f18892d:0xd4079995985f1aa4!8m2!3d9.9736265!4d76.6048495!16s%2Fg%2F11c30qc0kj!19sChIJLYkYT3DdBzsRpBpfmJWZB9Q?authuser=0&hl=en&rclk=1,"9.9736265,76.6048495"
JAMIA BADRIYA MASJID,Mosque,"2H97+2QP JAMIA BADRIYA MASJID, SH 1, Pezhakkappilly, Kerala 686673",,"2H97+2QP, SH 1",Pezhakkappilly,686673,Kerala,IN,https://www.google.com/maps/place/JAMIA+BADRIYA+MASJID/data=!4m7!3m6!1s0x3b07e73b34f38f37:0xb27a2cdb45442f9c!8m2!3d10.0175866!4d76.564461!16s%2Fg%2F1pp2tjz8d!19sChIJN4_zNDvnBzsRnC9ERdsserI?authuser=0&hl=en&rclk=1,"10.0175866,76.564461"
Marady Muslim Juma Masjid,Mosque,"XH3G+5H2 Marady Muslim Juma Masjid, SH 1, East Marady, Kerala 683574",East Marady,"XH3G+5H2, SH 1",,683574,Kerala,IN,https://www.google.com/maps/place/Marady+Muslim+Juma+Masjid/data=!4m7!3m6!1s0x3b07ddb9e0c24d67:0xce9c9676f82343e6!8m2!3d9.9528899!4d76.5763993!16s%2Fg%2F11cjj42x1x!19sChIJZ03C4LndBzsR5kMj-HaWnM4?authuser=0&hl=en&rclk=1,"9.952889899999999,76.57639929999999"
Ullappilly Juma Masjid,Mosque,"XH8P+J6G Ullappilly Juma Masjid, Arakuzha Rd, Thottumkalpeedika, Muvattupuzha, Kerala 686673",Thottumkalpeedika,"XH8P+J6G, Arakuzha Rd",Muvattupuzha,686673,Kerala,IN,https://www.google.com/maps/place/Ullappilly+Juma+Masjid/data=!4m7!3m6!1s0x3b07dd985a4d32ad:0x62541415d33d6cce!8m2!3d9.9665612!4d76.5855889!16s%2Fg%2F1pyqjplrm!19sChIJrTJNWpjdBzsRzmw90xUUVGI?authuser=0&hl=en&rclk=1,"9.9665612,76.58558889999999"
Randarkara Muhiyiddeen Juma Masjid,Mosque,"XJQ2+VW2 Randarkara Muhiyiddeen Juma Masjid, Randar, Muvattupuzha, Kerala 686673",Randar,XJQ2+VW2,Muvattupuzha,686673,Kerala,IN,https://www.google.com/maps/place/Randarkara+Muhiyiddeen+Juma+Masjid/data=!4m7!3m6!1s0x3b07e786dd8b4963:0x9e6699cfbc15c60e!8m2!3d9.9896442!4d76.60226!16s%2Fg%2F119w8msjm!19sChIJY0mL3YbnBzsRDsYVvM-ZZp4?authuser=0&hl=en&rclk=1,"9.989644199999999,76.60226"
West Mulavoor Juma Masjid,Mosque,"2HFM+Q6W West Mulavoor Juma Masjid, Ponnirickapparambu-Kannadi Road, West, Mulavoor, Kerala 686673",,"2HFM+Q6W, Ponnirickapparambu-Kannadi Road, West",Mulavoor,686673,Kerala,IN,https://www.google.com/maps/place/West+Mulavoor+Juma+Masjid/data=!4m7!3m6!1s0x3b07e71cae62875f:0x92d045a08560a767!8m2!3d10.024477!4d76.5830814!16s%2Fg%2F11c1s3my_3!19sChIJX4dirhznBzsRZ6dghaBF0JI?authuser=0&hl=en&rclk=1,"10.024477,76.5830814"
Punnamattom Thykkavu,Mosque,"XJW2+WJG Punnamattom Thykkavu, Muvattupuzha-Pothanicad Rd, Kakkadassery, Perumattom, Muvattupuzha, Kerala 686673","Kakkadassery, Perumattom","XJW2+WJG, Muvattupuzha-Pothanicad Rd",Muvattupuzha,686673,Kerala,IN,https://www.google.com/maps/place/Punnamattom+Thykkavu/data=!4m7!3m6!1s0x3b07e784b2a86593:0xa63b1f6b965e0f3!8m2!3d9.9973244!4d76.6015823!16s%2Fg%2F11gf260_w2!19sChIJk2WosoTnBzsR8-BlufaxYwo?authuser=0&hl=en&rclk=1,"9.9973244,76.60158229999999"
Khabarinkal Jum'a Masjid,Mosque,"2H85+JM5 Khabarinkal Jum'a Masjid, Pezhakkappilly, Kerala 686673",,2H85+JM5,Pezhakkappilly,686673,Kerala,IN,https://www.google.com/maps/place/Khabarinkal+Jum%27a+Masjid/data=!4m7!3m6!1s0x3b07e73016bcccb9:0x7dee021973bd374c!8m2!3d10.0165135!4d76.5592274!16s%2Fg%2F11csrxf9rr!19sChIJucy8FjDnBzsRTDe9cxkC7n0?authuser=0&hl=en&rclk=1,"10.0165135,76.5592274"
Salafi Masjid,Mosque,"XHWW+GRC Salafi Masjid, Perumattom, Muvattupuzha, Kerala 686673",Perumattom,XHWW+GRC,Muvattupuzha,686673,Kerala,IN,https://www.google.com/maps/place/Salafi+Masjid/data=!4m7!3m6!1s0x3b07e782c4513bf3:0xa762a30644452e81!8m2!3d9.996318!4d76.597015!16s%2Fg%2F1tftpjf1!19sChIJ8ztRxILnBzsRgS5FRAajYqc?authuser=0&hl=en&rclk=1,"9.996317999999999,76.597015"
Muvattupuzha Mosque,Mosque,"XHGH+CQR Muvattupuzha Mosque, Thottumkalpeedika, Muvattupuzha, Kerala 686661",Thottumkalpeedika,XHGH+CQR,Muvattupuzha,686661,Kerala,IN,https://www.google.com/maps/place/Muvattupuzha+Mosque/data=!4m7!3m6!1s0x3b07dd8e4118a555:0x5d467bf5453798b1!8m2!3d9.9761057!4d76.5793996!16s%2Fg%2F1260rv_s5!19sChIJVaUYQY7dBzsRsZg3RfV7Rl0?authuser=0&hl=en&rclk=1,"9.9761057,76.5793996"
Karimattom Masjid,Mosque,"XJQH+98V Karimattom Masjid, Karimattom-Randar Rd, Karimattom, Kerala 686673",,"XJQH+98V, Karimattom-Randar Rd",Karimattom,686673,Kerala,IN,https://www.google.com/maps/place/Karimattom+Masjid/data=!4m7!3m6!1s0x3b07e7f79894f7cd:0x13f969f0f4d7a54a!8m2!3d9.9884832!4d76.6283003!16s%2Fg%2F1pp2xb4fz!19sChIJzfeUmPfnBzsRSqXX9PBp-RM?authuser=0&hl=en&rclk=1,"9.9884832,76.62830029999999"
"Dhasookhi Juma Masjid,Chamalathazham",Mosque,"2H2Q+5MX Dhasookhi Juma Masjid,Chamalathazham, Attayam, Vazhappily, Muvattupuzha, Kerala 686673","Attayam, Vazhappily",2H2Q+5MX,Muvattupuzha,686673,Kerala,IN,"https://www.google.com/maps/place/Dhasookhi+Juma+Masjid,Chamalathazham/data=!4m7!3m6!1s0x3b07e776ccd2527f:0xb5cc665d61d05d0a!8m2!3d10.0004883!4d76.5892449!16s%2Fg%2F11c3k56ltc!19sChIJf1LSzHbnBzsRCl3QYV1mzLU?authuser=0&hl=en&rclk=1","10.000488299999999,76.5892449"
Kurumbinampara Juma Masjid,Mosque,"2HPV+9JC Kurumbinampara Juma Masjid, Ernakulam, Kerala 686691",,2HPV+9JC,Ernakulam,686691,Kerala,IN,https://www.google.com/maps/place/Kurumbinampara+Juma+Masjid/data=!4m7!3m6!1s0x3b07e6f8b0c70415:0xb574b1c7c1588001!8m2!3d10.0359346!4d76.5940303!16s%2Fg%2F11g6nhwjx0!19sChIJFQTHsPjmBzsRAYBYwcexdLU?authuser=0&hl=en&rclk=1,"10.0359346,76.5940303"
Uravakkuzhy Jumua Masjid,Mosque,"XHWM+R5X Uravakkuzhy Jumua Masjid, Uravakkuzhi Rd, Muvattupuzha, Kerala 686673",,"XHWM+R5X, Uravakkuzhi Rd",Muvattupuzha,686673,Kerala,IN,https://www.google.com/maps/place/Uravakkuzhy+Jumua+Masjid/data=!4m7!3m6!1s0x3b07e76ffa1165af:0xdf51d42dd0d974e7!8m2!3d9.997121!4d76.5829897!16s%2Fg%2F11by_qn6mr!19sChIJr2UR-m_nBzsR53TZ0C3UUd8?authuser=0&hl=en&rclk=1,"9.997121,76.5829897"
Muhiyiddheen Jum'a Masjid,Mosque,"XHGV+89W Muhiyiddheen Jum'a Masjid, Thodupuzha - Muvattupuzha Rd, Kizhakkekara, Muvattupuzha, Kerala 686661",Kizhakkekara,"XHGV+89W, Thodupuzha - Muvattupuzha Rd",Muvattupuzha,686661,Kerala,IN,https://www.google.com/maps/place/Muhiyiddheen+Jum%27a+Masjid/data=!4m7!3m6!1s0x3b07dd82c88f4ce3:0x9df82aa9f3592dec!8m2!3d9.97586!4d76.5934396!16s%2Fg%2F1hjgspn47!19sChIJ40yPyILdBzsR7C1Z86kq-J0?authuser=0&hl=en&rclk=1,"9.975859999999999,76.5934396"
"Muhiyiddheen Juma Masjid(Hanafiyy), Kizhakkekara",Mosque,"XHMQ+C45 Muhiyiddheen Juma Masjid(Hanafiyy), Kizhakkekara, Randarkara Rd, Kanam, Kizhakkekara, Muvattupuzha, Kerala 686661","Kanam, Kizhakkekara","XHMQ+C45, Randarkara Rd",Muvattupuzha,686661,Kerala,IN,"https://www.google.com/maps/place/Muhiyiddheen+Juma+Masjid%28Hanafiyy%29,+Kizhakkekara/data=!4m7!3m6!1s0x3b07dd8720954cd1:0x839bc22eac97bc92!8m2!3d9.9835052!4d76.587867!16s%2Fg%2F1pyqswm19!19sChIJ0UyVIIfdBzsRkryXrC7Cm4M?authuser=0&hl=en&rclk=1","9.9835052,76.587867"
Punnoppady Juma Masjid,Mosque,"2H73+CW2 Punnoppady Juma Masjid, Kerala 682011",,2H73+CW2,,682011,Kerala,IN,https://www.google.com/maps/place/Punnoppady+Juma+Masjid/data=!4m7!3m6!1s0x3b07e731619e307d:0x7e49870e901e877c!8m2!3d10.0135083!4d76.5547802!16s%2Fg%2F11cnbmjvsz!19sChIJfTCeYTHnBzsRfIcekA6HSX4?authuser=0&hl=en&rclk=1,"10.0135083,76.5547802"
Rahmania Masjid,Mosque,"2HGX+6VC Rahmania Masjid, Mulavoor, Kerala 686673",,2HGX+6VC,Mulavoor,686673,Kerala,IN,https://www.google.com/maps/place/Rahmania+Masjid/data=!4m7!3m6!1s0x3b07e7abe91e4845:0xeb71119f5abeb96c!8m2!3d10.0255681!4d76.5996474!16s%2Fg%2F1hhwx2jnt!19sChIJRUge6avnBzsRbLm-Wp8Rces?authuser=0&hl=en&rclk=1,"10.0255681,76.5996474"
Masjid,Mosque,"XHPH+93C Masjid, Thottumkalpeedika, Muvattupuzha, Kerala 686673",Thottumkalpeedika,XHPH+93C,Muvattupuzha,686673,Kerala,IN,https://www.google.com/maps/place/Masjid/data=!4m7!3m6!1s0x3b07e7eb0c85a503:0x4f58f3106bd4a66!8m2!3d9.9859381!4d76.5776387!16s%2Fg%2F11gwmkqx29!19sChIJA6WFDOvnBzsRZkq9BjGP9QQ?authuser=0&hl=en&rclk=1,"9.9859381,76.5776387"
Ahmadiyya Muslim jamaath,Mosque,"XHX9+JCQ Ahmadiyya Muslim jamaath, vaalllppilllli, muttvuu pioo, Muvattupuzha, Kerala 686669",,"XHX9+JCQ, vaalllppilllli, muttvuu pioo",Muvattupuzha,686669,Kerala,IN,https://www.google.com/maps/place/Ahmadiyya+Muslim+jamaath/data=!4m7!3m6!1s0x3b07e743a97b2f4b:0xd6ee410768355fe!8m2!3d9.9990752!4d76.5686176!16s%2Fg%2F11c30wg5c6!19sChIJSy97qUPnBzsR_lWDdhDkbg0?authuser=0&hl=en&rclk=1,"9.9990752,76.5686176"
Noorul Hudah Juma Masjid nuurru msjid,Mosque,"2H6Q+MVQ Noorul Hudah Juma Masjid nuurru msjid, Ernakulam, Kerala 686673",,2H6Q+MVQ,Ernakulam,686673,Kerala,IN,https://www.google.com/maps/place/Noorul+Hudah+Juma+Masjid+%E0%B4%A8%E0%B5%82%E0%B4%B1%E0%B5%81%E0%B5%BD+%E0%B4%AE%E0%B4%B8%E0%B5%8D%E0%B4%9C%E0%B4%BF%E0%B4%A6%E0%B5%8D/data=!4m7!3m6!1s0x3b07e70b8e00de7b:0x8386b4bc82f3f181!8m2!3d10.0117126!4d76.5897467!16s%2Fg%2F11df1qbdpg!19sChIJe94AjgvnBzsRgfHzgry0hoM?authuser=0&hl=en&rclk=1,"10.0117126,76.58974669999999"
"Central Juma Masjid, Mulavoor",Mosque,"2HJR+36Q Central Juma Masjid, Mulavoor, Mulavoor, Kerala 686673",,2HJR+36Q,Mulavoor,686673,Kerala,IN,"https://www.google.com/maps/place/Central+Juma+Masjid,+Mulavoor/data=!4m7!3m6!1s0x3b07e6fe1c5e0bbd:0xaa521181ecb66bb9!8m2!3d10.0302174!4d76.5906236!16s%2Fg%2F11c2ns9r1x!19sChIJvQteHP7mBzsRuWu27IERUqo?authuser=0&hl=en&rclk=1","10.0302174,76.5906236"
Madeena Masjid FOR PRAYER,Mosque,"Madeena Masjid FOR PRAYER, 9deg59'51. 76deg35'13., 9""N, 7th Cross Road, Giri Nagar Housing Society, Giri Nagar, Kadavanthra, Ernakulam, Kerala 682020","Giri Nagar Housing Society, Giri Nagar, Kadavanthra","9deg59'51. 76deg35'13., 9""N, 7th Cross Road","Ernakulam, Muvattupuzha",682020,Kerala,IN,https://www.google.com/maps/place/Madeena+Masjid+FOR+PRAYER/data=!4m7!3m6!1s0x3b07e77091e5d6b1:0xc7c10ece530d7208!8m2!3d9.99776!4d76.587146!16s%2Fg%2F11c606x9bw!19sChIJsdblkXDnBzsRCHINU84Owcc?authuser=0&hl=en&rclk=1,"9.99776,76.58714599999999"
Noor Ul Huda Masjid and Madrasa,Mosque,"XHX8+8V9 Noor Ul Huda Masjid and Madrasa, errnnaakullN - teekktti rroodd, vaalllppilllli, muttvuu pioo, Muvattupuzha, Kerala 686669",,"XHX8+8V9, errnnaakullN - teekktti rroodd, vaalllppilllli, muttvuu pioo",Muvattupuzha,686669,Kerala,IN,https://www.google.com/maps/place/Noor+Ul+Huda+Masjid+and+Madrasa/data=!4m7!3m6!1s0x3b07e7437142d5a9:0x8338864c28733d17!8m2!3d9.9982989!4d76.5672195!16s%2Fg%2F1pyqfzh74!19sChIJqdVCcUPnBzsRFz1zKEyGOIM?authuser=0&hl=en&rclk=1,"9.9982989,76.5672195"
Rabbaniya Masjid And Cultural Center,Mosque,"2J82+5VQ Rabbaniya Masjid And Cultural Center, Puthuppady, Kerala 686673",,2J82+5VQ,Puthuppady,686673,Kerala,IN,https://www.google.com/maps/place/Rabbaniya+Masjid+And+Cultural+Center/data=!4m7!3m6!1s0x3b07e7a43f452285:0x7f5ca5916c73e942!8m2!3d10.0154682!4d76.6022272!16s%2Fg%2F11c37pgqph!19sChIJhSJFP6TnBzsRQulzbJGlXH8?authuser=0&hl=en&rclk=1,"10.015468199999999,76.6022272"
FALAH MASJID,Mosque,"2H76+94C FALAH MASJID, Pezhakkappilly, Kerala 686673",,2H76+94C,Pezhakkappilly,,Kerala,IN,https://www.google.com/maps/place/FALAH+MASJID/data=!4m7!3m6!1s0x3b07e730a0216373:0x7fa086bfb81b1f88!8m2!3d10.0134443!4d76.5602733!16s%2Fg%2F11f3_0wrty!19sChIJc2MhoDDnBzsRiB8buL-GoH8?authuser=0&hl=en&rclk=1,"10.0134443,76.56027329999999"
"Central Jum'a Masjid (Hanafiy), Kalamboor",Mosque,"2J2P+8X6 Central Jum'a Masjid (Hanafiy), Kalamboor, Kalamboor Chira, Kerala 686671",,2J2P+8X6,Kalamboor Chira,686671,Kerala,IN,"https://www.google.com/maps/place/Central+Jum%27a+Masjid+%28Hanafiy%29,+Kalamboor/data=!4m7!3m6!1s0x3b07e7e313b01f91:0xb154bc8abae6a17f!8m2!3d10.0007757!4d76.6373803!16s%2Fg%2F11bxc7g2rs!19sChIJkR-wE-PnBzsRf6Hmuoq8VLE?authuser=0&hl=en&rclk=1","10.0007757,76.63738029999999"
Pandiyarappilly Mosque,Mosque,"2H37+9QP Pandiyarappilly Mosque, Vazhappily, Muvattupuzha, Kerala 686673",Vazhappily,2H37+9QP,Muvattupuzha,686673,Kerala,IN,https://www.google.com/maps/place/Pandiyarappilly+Mosque/data=!4m7!3m6!1s0x3b07e746e63e46a7:0x62c670308bfe4c1b!8m2!3d10.0034576!4d76.5644535!16s%2Fg%2F11gdkxqffd!19sChIJp0Y-5kbnBzsRG0z-izBwxmI?authuser=0&hl=en&rclk=1,"10.003457599999999,76.5644535"
KOLLIKKATTUCHALIL MASJID,Mosque,"2H56+P5C KOLLIKKATTUCHALIL MASJID, Pezhakkappilly, Kerala 686673",,2H56+P5C,Pezhakkappilly,,Kerala,IN,https://www.google.com/maps/place/KOLLIKKATTUCHALIL+MASJID/data=!4m7!3m6!1s0x3b07e7382b282ef3:0x43d889c4e9c7c0eb!8m2!3d10.0093163!4d76.5603922!16s%2Fg%2F11gfxr9fmq!19sChIJ8y4oKzjnBzsR68DH6cSJ2EM?authuser=0&hl=en&rclk=1,"10.0093163,76.5603922"
Kattukandom Thaikkavu Masjid (HIM-C),Mosque,"XHJV+CX6 Kattukandom Thaikkavu Masjid (HIM-C), Majacs Match Factory Road, Kizhakkekara, Muvattupuzha, Kerala 686661",Kizhakkekara,"XHJV+CX6, Majacs Match Factory Road",Muvattupuzha,686661,Kerala,IN,https://www.google.com/maps/place/Kattukandom+Thaikkavu+Masjid+%28HIM-C%29/data=!4m7!3m6!1s0x3b07dd78b80b4e5f:0x852124da8d198a38!8m2!3d9.9810309!4d76.5948994!16s%2Fg%2F11hb63m2bz!19sChIJX04LuHjdBzsROIoZjdokIYU?authuser=0&hl=en&rclk=1,"9.9810309,76.5948994"
Mohideen Masjid,Mosque,"XHRP+X7P Mohideen Masjid, Kochi - Madurai - Dhanushkodi Rd, Vazhappily, Muvattupuzha, Kerala 686673",Vazhappily,"XHRP+X7P, Kochi - Madurai - Dhanushkodi Rd",Muvattupuzha,686673,Kerala,IN,https://www.google.com/maps/place/Mohideen+Masjid/data=!4m7!3m6!1s0x3b07e77b7287803b:0xe37851abad12d095!8m2!3d9.99247!4d76.5857!16s%2Fg%2F1pyqhp_n3!19sChIJO4CHcnvnBzsRldASratReOM?authuser=0&hl=en&rclk=1,"9.992469999999999,76.5857"
Kizhakkekara Thaikkavu Masjid HIM (B),Mosque,"XHPQ+58F Kizhakkekara Thaikkavu Masjid HIM (B), Randarkara Rd, Kanam, Kizhakkekara, Muvattupuzha, Kerala 686661","Kanam, Kizhakkekara","XHPQ+58F, Randarkara Rd",Muvattupuzha,686661,Kerala,IN,https://www.google.com/maps/place/Kizhakkekara+Thaikkavu+Masjid+HIM+%28B%29/data=!4m7!3m6!1s0x3b07dd875bbcc16f:0xa5dbdf137be53ba8!8m2!3d9.9854449!4d76.5883002!16s%2Fg%2F1pyqgcz9h!19sChIJb8G8W4fdBzsRqDvlexPf26U?authuser=0&hl=en&rclk=1,"9.9854449,76.58830019999999"
Thamarapotta Juma Masjid,Mosque,"2H87+QFM Thamarapotta Juma Masjid, Paipra - Veettur Rd, Pezhakkappilly, Kerala 686673",,"2H87+QFM, Paipra - Veettur Rd",Pezhakkappilly,686673,Kerala,IN,https://www.google.com/maps/place/Thamarapotta+Juma+Masjid/data=!4m7!3m6!1s0x3b07e73b25e8ce17:0xb8d269afd7bbf777!8m2!3d10.016954!4d76.5636872!16s%2Fg%2F11c6w09ky6!19sChIJF87oJTvnBzsRd_e7169p0rg?authuser=0&hl=en&rclk=1,"10.016954,76.56368719999999"
AL Ihsan Masjid,Mosque,"2H64+RRX AL Ihsan Masjid, Pezhakkappilly, Kerala 686673",,2H64+RRX,Pezhakkappilly,686673,Kerala,IN,https://www.google.com/maps/place/AL+Ihsan+Masjid/data=!4m7!3m6!1s0x3b07e7312b6be59b:0xe1722a168b2243aa!8m2!3d10.0121004!4d76.5570982!16s%2Fg%2F11g6pl9lvq!19sChIJm-VrKzHnBzsRqkMiixYqcuE?authuser=0&hl=en&rclk=1,"10.0121004,76.5570982"
Poyali Muhyidheen Jumua Masjid,Mosque,"2HPF+JFP Poyali Muhyidheen Jumua Masjid, East Paipra Road, Pezhakkappilly, Kerala 686673",,"2HPF+JFP, East Paipra Road",Pezhakkappilly,686673,Kerala,IN,https://www.google.com/maps/place/Poyali+Muhyidheen+Jumua+Masjid/data=!4m7!3m6!1s0x3b07e6e70dfa672b:0xc5ffd1ba51fe1aca!8m2!3d10.0365787!4d76.573699!16s%2Fg%2F11gfffz92x!19sChIJK2f6DefmBzsRyhr-UbrR_8U?authuser=0&hl=en&rclk=1,"10.0365787,76.57369899999999"
Masjid,Mosque,"XHQH+9MX Masjid, Muvattupuzha, Kerala 686673",,XHQH+9MX,Muvattupuzha,,Kerala,IN,https://www.google.com/maps/place/Masjid/data=!4m7!3m6!1s0x3b07e72948b37d55:0x4004125e4726ab67!8m2!3d9.9884911!4d76.5792494!16s%2Fg%2F11gwmksw0y!19sChIJVX2zSCnnBzsRZ6smR14SBEA?authuser=0&hl=en&rclk=1,"9.9884911,76.5792494"
Hira Masjid{MIET Masjid},Mosque,"XHVQ+MP3 Hira Masjid{MIET Masjid}, One Way Rd, opposite HP Petrol station, Jn, Muvattupuzha, Kerala 686662",Jn,"XHVQ+MP3, One Way Rd, opposite HP Petrol station",Muvattupuzha,686662,Kerala,IN,https://www.google.com/maps/place/Hira+Masjid%7BMIET+Masjid%7D/data=!4m7!3m6!1s0x3b07e71dc5c95179:0x41f2396aee0e84f9!8m2!3d9.9941381!4d76.5893092!16s%2Fg%2F11gyt3hqxb!19sChIJeVHJxR3nBzsR-YQO7mo58kE?authuser=0&hl=en&rclk=1,"9.994138099999999,76.5893092"
puthen mahal juma masjid puthuppady,Mosque,"2J64+43V puthen mahal juma masjid puthuppady, Puthuppady, Kerala 686673",,2J64+43V,Puthuppady,686673,Kerala,IN,https://www.google.com/maps/place/puthen+mahal+juma+masjid+puthuppady/data=!4m7!3m6!1s0x3b07e7a2c4ae7299:0xdc29caccbaff01e4!8m2!3d10.0103727!4d76.6051615!16s%2Fg%2F11g6qrp3j6!19sChIJmXKuxKLnBzsR5AH_uszKKdw?authuser=0&hl=en&rclk=1,"10.0103727,76.6051615"
Madeena Masjid Olippara,Mosque,"2HJW+XF7 Madeena Masjid Olippara, Mulavoorpally - Uzhavupara - Paipara Rd, Puthenpura, Mulavoor, Kerala 686691",,"2HJW+XF7, Mulavoorpally - Uzhavupara - Paipara Rd","Puthenpura, Mulavoor",686691,Kerala,IN,https://www.google.com/maps/place/Madeena+Masjid+Olippara/data=!4m7!3m6!1s0x3b07e65576ba156b:0x79752c61a87725b3!8m2!3d10.0324168!4d76.5961672!16s%2Fg%2F11dxdg__x0!19sChIJaxW6dlXmBzsRsyV3qGEsdXk?authuser=0&hl=en&rclk=1,"10.0324168,76.5961672"
BADARULHUDA MASJID,Mosque,"2HF8+F44 BADARULHUDA MASJID, Pezhakkappilly, Kerala 686673",,2HF8+F44,Pezhakkappilly,686673,Kerala,IN,https://www.google.com/maps/place/BADARULHUDA+MASJID/data=!4m7!3m6!1s0x3b07e726a5c8ba2b:0xbba59ed7b0085e30!8m2!3d10.0236289!4d76.5653362!16s%2Fg%2F11d_x388h5!19sChIJK7rIpSbnBzsRMF4IsNeepbs?authuser=0&hl=en&rclk=1,"10.0236289,76.56533619999999"
"Irshadia Juma Masjid, Uravakkuzhi",Mosque,"XHWM+R5Q Irshadia Juma Masjid, Uravakkuzhi, Uravakuzhi Road, Muvattupuzha, Kerala 686673",,"XHWM+R5Q, Uravakuzhi Road",Muvattupuzha,686673,Kerala,IN,"https://www.google.com/maps/place/Irshadia+Juma+Masjid,+Uravakkuzhi/data=!4m7!3m6!1s0x3b07e70096834fbb:0x2c350d57f20b9db8!8m2!3d9.9970831!4d76.5829706!16s%2Fg%2F11gj40q5nc!19sChIJu0-DlgDnBzsRuJ0L8lcNNSw?authuser=0&hl=en&rclk=1","9.9970831,76.5829706"
Kanam Junction Mosque,Mosque,"XHPX+855 Kanam Junction Mosque, Kanam, Randar, Muvattupuzha, Kerala 686661","Kanam, Randar",XHPX+855,Muvattupuzha,686661,Kerala,IN,https://www.google.com/maps/place/Kanam+Junction+Mosque/data=!4m7!3m6!1s0x3b07dd8b99d6b639:0x345345745678a3bd!8m2!3d9.9857502!4d76.5979735!16s%2Fg%2F11ry2yf__t!19sChIJObbWmYvdBzsRvaN4VnRFUzQ?authuser=0&hl=en&rclk=1,"9.9857502,76.5979735"
Pottackal Masjid,Mosque,"Pottackal Masjid, S. Valavu, Pezhakkappilly, Kerala 686673",,S. Valavu,Pezhakkappilly,686673,Kerala,IN,https://www.google.com/maps/place/Pottackal+Masjid/data=!4m7!3m6!1s0x3b07e72f79d10f6b:0x23c2ec39a193920b!8m2!3d10.0206854!4d76.5599936!16s%2Fg%2F11f54q7k2f!19sChIJaw_ReS_nBzsRC5KToTnswiM?authuser=0&hl=en&rclk=1,"10.0206854,76.5599936"
Badriya Masjid,Mosque,"2HHG+258 Badriya Masjid, Kerala 686673",,2HHG+258,,,Kerala,IN,https://www.google.com/maps/place/Badriya+Masjid/data=!4m7!3m6!1s0x3b07e7106397a355:0x7bb6985741889b23!8m2!3d10.0275435!4d76.5754564!16s%2Fg%2F11gjjclvlz!19sChIJVaOXYxDnBzsRI5uIQVeYtns?authuser=0&hl=en&rclk=1,"10.0275435,76.5754564"
Anjelpetty Juma Masjid msjd,Mosque,"XJXG+JHV Anjelpetty Juma Masjid msjd, Kothamangalam - Vazhakulam Rd, Kozhippilly, Kothamangalam, Kerala 686691",Kozhippilly,"XJXG+JHV, Kothamangalam - Vazhakulam Rd",Kothamangalam,686691,Kerala,IN,https://www.google.com/maps/place/Anjelpetty+Juma+Masjid+%D9%85%D8%B3%D8%AC%D8%AF%E2%80%AD/data=!4m7!3m6!1s0x3b07e7ee31f9ad09:0x809c0dda494fdf92!8m2!3d9.999124!4d76.6264154!16s%2Fg%2F11f03jr0c5!19sChIJCa35Me7nBzsRkt9PSdoNnIA?authuser=0&hl=en&rclk=1,"9.999124,76.6264154"
Masjidul Abrar,Mosque,"2J4V+8FP Masjidul Abrar, Kerala 686671",,2J4V+8FP,,686671,Kerala,IN,https://www.google.com/maps/place/Masjidul+Abrar/data=!4m7!3m6!1s0x3b07e9d1f460f73b:0xcd027f189598b58d!8m2!3d10.0058447!4d76.6437139!16s%2Fg%2F11kwq_nb5f!19sChIJO_dg9NHpBzsRjbWYlRh_As0?authuser=0&hl=en&rclk=1,"10.005844699999999,76.6437139"
KK Masjid,Mosque,"XHRM+XV6 KK Masjid, Kochi - Madurai - Dhanushkodi Rd, Vazhappily, Muvattupuzha, Kerala 686673",Vazhappily,"XHRM+XV6, Kochi - Madurai - Dhanushkodi Rd",Muvattupuzha,686673,Kerala,IN,https://www.google.com/maps/place/KK+Masjid/data=!4m7!3m6!1s0x3b07e77b40b21285:0x7a71902c6cd10df1!8m2!3d9.9924212!4d76.5846402!16s%2Fg%2F1pyqprc70!19sChIJhRKyQHvnBzsR8Q3RbCyQcXo?authuser=0&hl=en&rclk=1,"9.992421199999999,76.5846402"
Hira Masjid,Mosque,"XHWR+3JQ Hira Masjid, Kochi - Madurai - Dhanushkodi Rd, Vazhappily, Muvattupuzha, Kerala 686673",Vazhappily,"XHWR+3JQ, Kochi - Madurai - Dhanushkodi Rd",Muvattupuzha,686673,Kerala,IN,https://www.google.com/maps/place/Hira+Masjid/data=!4m7!3m6!1s0x3b07e7790b39668d:0x39ec00a244b0929e!8m2!3d9.9952211!4d76.59161!16s%2Fg%2F11c2prkns7!19sChIJjWY5C3nnBzsRnpKwRKIA7Dk?authuser=0&hl=en&rclk=1,"9.9952211,76.59161"
Madina Masjid,Mosque,"2HJW+GHP Madina Masjid, Mulavoor, Kerala 686691",,2HJW+GHP,Mulavoor,686691,Kerala,IN,https://www.google.com/maps/place/Madina+Masjid/data=!4m7!3m6!1s0x3b07e65540013337:0xdc71e04a7ca134ea!8m2!3d10.0313299!4d76.5964481!16s%2Fg%2F11dxdlpkgp!19sChIJNzMBQFXmBzsR6jShfErgcdw?authuser=0&hl=en&rclk=1,"10.0313299,76.5964481"
Muhyidheen Juma Masjid,Mosque,"XJC4+VHJ Muhyidheen Juma Masjid, Adooparambu, Kizhakkekara, Muvattupuzha, Kerala 686661","Adooparambu, Kizhakkekara",XJC4+VHJ,Muvattupuzha,686661,Kerala,IN,https://www.google.com/maps/place/Muhyidheen+Juma+Masjid/data=!4m7!3m6!1s0x3b07dda7ff42b60b:0xb195fbc2f3d0bbfa!8m2!3d9.9722125!4d76.6063906!16s%2Fg%2F11rn23wrbj!19sChIJC7ZC_6fdBzsR-rvQ88L7lbE?authuser=0&hl=en&rclk=1,"9.9722125,76.6063906"
Thaikkavu Masjid,Mosque,"XJJ4+WFJ Thaikkavu Masjid, Randar, Muvattupuzha, Kerala 686661",Randar,XJJ4+WFJ,Muvattupuzha,686661,Kerala,IN,https://www.google.com/maps/place/Thaikkavu+Masjid/data=!4m7!3m6!1s0x3b07dd7cb691f525:0x4510c077f5056d7f!8m2!3d9.982331!4d76.6061318!16s%2Fg%2F119tdd2h8!19sChIJJfWRtnzdBzsRf20F9XfAEEU?authuser=0&hl=en&rclk=1,"9.982331,76.6061318"
Randarkara masjid road,Mosque,"XJM3+HG2 Randarkara masjid road, Randar, Muvattupuzha, Kerala 686673",Randar,XJM3+HG2,Muvattupuzha,686673,Kerala,IN,https://www.google.com/maps/place/Randarkara+masjid+road/data=!4m7!3m6!1s0x3b07dd7c55555555:0xdd24d0471615f9b!8m2!3d9.9838996!4d76.6037565!16s%2Fg%2F11f3cpdrpn!19sChIJVVVVVXzdBzsRm19hcQRN0g0?authuser=0&hl=en&rclk=1,"9.983899599999999,76.6037565"
Masjidunaa irshadiyya,Mosque,"Masjidunaa irshadiyya, Nirappu Rd, Vazhappily, Muvattupuzha, Kerala 686673",Vazhappily,Nirappu Rd,Muvattupuzha,,Kerala,IN,https://www.google.com/maps/place/Masjidunaa+irshadiyya/data=!4m7!3m6!1s0x3b07e7bfc65d9baf:0xdddb0df84f760fe1!8m2!3d10.0320702!4d76.5791329!16s%2Fg%2F11svggbzdx!19sChIJr5tdxr_nBzsR4Q92T_gN290?authuser=0&hl=en&rclk=1,"10.0320702,76.57913289999999"
"Noorussibiyan Masjid,Hassan Musliyar Nagar,Kadarakkuzhi",Mosque,"2H2R+RJ3 Noorussibiyan Masjid,Hassan Musliyar Nagar,Kadarakkuzhi, Muvattupuzha, Kerala 686673",,2H2R+RJ3,Muvattupuzha,686673,Kerala,IN,"https://www.google.com/maps/place/Noorussibiyan+Masjid,Hassan+Musliyar+Nagar,Kadarakkuzhi/data=!4m7!3m6!1s0x3b07e709b319b231:0x458d48ca3794f810!8m2!3d10.0020055!4d76.5915101!16s%2Fg%2F11rnhx0gvc!19sChIJMbIZswnnBzsREPiUN8pIjUU?authuser=0&hl=en&rclk=1","10.0020055,76.5915101"
Vallyey Pappa Jumma Masjid,Mosque,"XHVW+4CX Vallyey Pappa Jumma Masjid, Perumattom, Muvattupuzha, Kerala 686673",Perumattom,XHVW+4CX,Muvattupuzha,686673,Kerala,IN,https://www.google.com/maps/place/Vallyey+Pappa+Jumma+Masjid/data=!4m7!3m6!1s0x3b07e7821383182f:0xd5d295088c3bb9ce!8m2!3d9.9928677!4d76.5960991!16s%2Fg%2F1pyqhqjdw!19sChIJLxiDE4LnBzsRzrk7jAiV0tU?authuser=0&hl=en&rclk=1,"9.9928677,76.5960991"
"Badarul huda masjid , ayiruml",Mosque,"2H77+5MH Badarul huda masjid , ayiruml, Pezhakkappilly, Kerala 686673",,2H77+5MH,Pezhakkappilly,,Kerala,IN,"https://www.google.com/maps/place/Badarul+huda+masjid+,+%E0%B4%85%E0%B4%AF%E0%B4%BF%E0%B4%B0%E0%B5%81%E0%B4%AE%E0%B4%B2/data=!4m7!3m6!1s0x3b07e7aad6dc48eb:0x947411b9dca882b7!8m2!3d10.012946!4d76.564242!16s%2Fg%2F11sv_mj5_4!19sChIJ60jc1qrnBzsRt4Ko3LkRdJQ?authuser=0&hl=en&rclk=1","10.012946,76.564242"
Mulavoor chirappady masjid,Mosque,"2HCV+4M3 Mulavoor chirappady masjid, Mulavoor, Kerala 686673",,2HCV+4M3,Mulavoor,686673,Kerala,IN,https://www.google.com/maps/place/Mulavoor+chirappady+masjid/data=!4m7!3m6!1s0x3b07e73e48a816b3:0x76fc97007bb4d2f0!8m2!3d10.0202312!4d76.5941996!16s%2Fg%2F11rhprgtjv!19sChIJsxaoSD7nBzsR8NK0ewCX_HY?authuser=0&hl=en&rclk=1,"10.0202312,76.5941996"
Jumua Masjid Thattuparambu,Mosque,"2H9C+RG7 Jumua Masjid Thattuparambu, tttttuprrmp, Pezhakkappilly, Kerala 686673",tttttuprrmp,2H9C+RG7,Pezhakkappilly,,Kerala,IN,https://www.google.com/maps/place/Jumua+Masjid+Thattuparambu/data=!4m7!3m6!1s0x3b07e78e7a01213b:0xb1428e41864a7bcb!8m2!3d10.019546!4d76.5713673!16s%2Fg%2F11t739x0d7!19sChIJOyEBeo7nBzsRy3tKhkGOQrE?authuser=0&hl=en&rclk=1,"10.019546,76.57136729999999"
"Darul Masjid, Ponnirickaparambu",Mosque,"2HMP+368 Darul Masjid, Ponnirickaparambu, Mulavoor, Kerala 686691",,2HMP+368,Mulavoor,686691,Kerala,IN,"https://www.google.com/maps/place/Darul+Masjid,+Ponnirickaparambu/data=!4m7!3m6!1s0x3b07e6fce4bb8ec5:0x7533d8d406f02455!8m2!3d10.0326581!4d76.5855778!16s%2Fg%2F11dzw62_gf!19sChIJxY675PzmBzsRVSTwBtTYM3U?authuser=0&hl=en&rclk=1","10.032658099999999,76.5855778"
Masjidu Rahma,Mosque,"Masjidu Rahma, one way junction, Tharbiyath School Rd, Muvattupuzha, Kerala 686673",,"one way junction, Tharbiyath School Rd",Muvattupuzha,686673,Kerala,IN,https://www.google.com/maps/place/Masjidu+Rahma/data=!4m7!3m6!1s0x3b07e7d623443093:0xea080b13df8d816!8m2!3d9.9951303!4d76.5870496!16s%2Fg%2F11r109cz3c!19sChIJkzBEI9bnBzsRFtj4PbGAoA4?authuser=0&hl=en&rclk=1,"9.9951303,76.5870496"
Masjid Noor,Mosque,"XHXR+HC4 Masjid Noor, Perumattom, Muvattupuzha, Kerala 686673",Perumattom,XHXR+HC4,Muvattupuzha,686673,Kerala,IN,https://www.google.com/maps/place/Masjid+Noor/data=!4m7!3m6!1s0x3b07e775f6e8fba5:0x773911995b158357!8m2!3d9.9990656!4d76.5905305!16s%2Fg%2F11kb4pc35y!19sChIJpfvo9nXnBzsRV4MVW5kROXc?authuser=0&hl=en&rclk=1,"9.9990656,76.5905305"
Noorul Islam Masjid,Mosque,"Noorul Islam Masjid, P.O, Noorul Islam Masjid, Thachodathumpady, Mulavoor, Muvattupuzha",,"P.O, Noorul Islam Masjid, Thachodathumpady, Mulavoor",Muvattupuzha,,Kerala,IN,https://www.google.com/maps/place/Noorul+Islam+Masjid/data=!4m7!3m6!1s0x3b07e79cb3333399:0xa9baae1451ff466e!8m2!3d10.0079284!4d76.5982642!16s%2Fg%2F11sbdy7pfd!19sChIJmTMzs5znBzsRbkb_URSuuqk?authuser=0&hl=en&rclk=1,"10.007928399999999,76.5982642"
Shihab Shajahan,Mosque,"XHGF+5QQ Shihab Shajahan, Pettah, near pettah juma masjid, Thottumkalpeedika, Muvattupuzha, Kerala 686661",Thottumkalpeedika,"XHGF+5QQ, Pettah, near pettah juma masjid",Muvattupuzha,686661,Kerala,IN,https://www.google.com/maps/place/Shihab+Shajahan/data=!4m7!3m6!1s0x3b07dd35a8774411:0x793aadafbb5a71ad!8m2!3d9.9754712!4d76.5744852!16s%2Fg%2F11l2ygx9r_!19sChIJEUR3qDXdBzsRrXFau6-tOnk?authuser=0&hl=en&rclk=1,"9.9754712,76.5744852"
"Central Juma Masjid, Kalampoor",Mosque,"2H9M+C95 Central Juma Masjid, Kalampoor, Kalampoor, Muvattupuzha, Kerala 686673",Kalampoor,2H9M+C95,Muvattupuzha,686673,Kerala,IN,"https://www.google.com/maps/place/Central+Juma+Masjid,+Kalampoor/data=!4m7!3m6!1s0x3b07e720943dbe1f:0xf1eff421b4c88da5!8m2!3d10.0185132!4d76.583499!16s%2Fg%2F11n0k7n9bw!19sChIJH749lCDnBzsRpY3ItCH07_E?authuser=0&hl=en&rclk=1","10.0185132,76.583499"
Thaqwa Masjid,Mosque,"2HJH+QQG Thaqwa Masjid, Ponnirikaparambu - Mulavoor Pally - Paipra Rd, Mulavoor, Kerala 686673",,"2HJH+QQG, Ponnirikaparambu - Mulavoor Pally - Paipra Rd",Mulavoor,686673,Kerala,IN,https://www.google.com/maps/place/Thaqwa+Masjid/data=!4m7!3m6!1s0x3b07e724ff19284d:0x6d781663d4411160!8m2!3d10.0319384!4d76.5794415!16s%2Fg%2F11sstxq070!19sChIJTSgZ_yTnBzsRYBFB1GMWeG0?authuser=0&hl=en&rclk=1,"10.0319384,76.5794415"
Mangattu Masjid Khabristan,Cemetery,"XHQR+8WP Mangattu Masjid Khabristan, Back side of Mangattu Masjid, Kizhakkekara, Road, Randar, Muvattupuzha, Kerala",Randar,"XHQR+8WP, Back side of Mangattu Masjid, Kizhakkekara, Road",Muvattupuzha,,Kerala,IN,https://www.google.com/maps/place/Mangattu+Masjid+Khabristan/data=!4m7!3m6!1s0x3b07e73a26739c05:0x67eea408550a5a3!8m2!3d9.9883373!4d76.5923285!16s%2Fg%2F11kpsv_kt7!19sChIJBZxzJjrnBzsRo6VQhUDqfgY?authuser=0&hl=en&rclk=1,"9.9883373,76.5923285"
