name,main_category,address,address_ward,address_street,address_city,address_postal_code,address_state,address_country_code,link,coordinates
Matrichhaya Art Academy,Artist,"Matrichhaya Art Academy, Marai chowk, near Jama Masjid, Hajipur, Bihar 844101",,"Marai chowk, near Jama Masjid",Hajipur,844101,Bihar,IN,https://www.google.com/maps/place/Matrichhaya+Art+Academy/data=!4m7!3m6!1s0x39ed5d20c5df13bf:0x6c66a6f2a14de061!8m2!3d25.6931818!4d85.2189124!16s%2Fg%2F11p5p37szz!19sChIJvxPfxSBd7TkRYeBNofKmZmw?authuser=0&hl=en&rclk=1,"25.693181799999998,85.2189124"
Hajipur wala,Education center,,,,,,,,https://www.google.com/maps/place/Hajipur+wala/data=!4m7!3m6!1s0x39ed5d1a3cc1f74b:0xf6688f7b026d904f!8m2!3d21.0686228!4d82.7525294!16s%2Fg%2F11k6qz33b3!19sChIJS_fBPBpd7TkRT5BtAnuPaPY?authuser=0&hl=en&rclk=1,"21.0686228,82.7525294"
"J P Dental Hospital Masjid Chowk, Hajipur",Dental clinic,"J P Dental Hospital Masjid Chowk, Hajipur, Masjid chowk, behind sri Krishna library, Hajipur, Bihar 844101",Magarhatta,"Masjid chowk, behind sri Krishna library",Hajipur,844101,Bihar,IN,"https://www.google.com/maps/place/J+P+Dental+Hospital+Masjid+Chowk,+Hajipur/data=!4m7!3m6!1s0x39ed5c192d099167:0xd261c843ad4a4a6f!8m2!3d25.6851844!4d85.2071281!16s%2Fg%2F11cmscl1b3!19sChIJZ5EJLRlc7TkRb0pKrUPIYdI?authuser=0&hl=en&rclk=1","25.685184399999997,85.20712809999999"
Hajipur Junction,Train station,"Hajipur Junction, Railway Station, Bagmusa, Hajipur, Bihar 844101",Bagmusa,Railway Station,Hajipur,844101,Bihar,IN,https://www.google.com/maps/place/Hajipur+Junction/data=!4m7!3m6!1s0x39ed5c38ad7237f3:0xeb26d7c15cecc8f6!8m2!3d25.7023231!4d85.2152903!16s%2Fm%2F0jl1lhj!19sChIJ8zdyrThc7TkR9sjsXMHXJus?authuser=0&hl=en&rclk=1,"25.702323099999997,85.21529029999999"
Sidhi Ghat,Port,"M5PW+JFV Sidhi Ghat, Hajipur, Bihar 844101",,M5PW+JFV,Hajipur,844101,Bihar,IN,https://www.google.com/maps/place/Sidhi+Ghat/data=!4m7!3m6!1s0x39ed5c05b6195d9d:0x11c0bae3803c1d74!8m2!3d25.6866084!4d85.1961771!16s%2Fg%2F12hnjd4y8!19sChIJnV0ZtgVc7TkRdB08gOO6wBE?authuser=0&hl=en&rclk=1,"25.686608399999997,85.1961771"
"Haji Iliyaas Park, Hajipur",Park,"Haji Iliyaas Park, Hajipur, SDO Rd, Hajipur, Bihar 844101",,SDO Rd,Hajipur,844101,Bihar,IN,"https://www.google.com/maps/place/Haji+Iliyaas+Park,+Hajipur/data=!4m7!3m6!1s0x39ed5c0511805089:0x859fde9742372dbe!8m2!3d25.6898129!4d85.1978809!16s%2Fg%2F11ff0rcpd7!19sChIJiVCAEQVc7TkRvi03Qpfen4U?authuser=0&hl=en&rclk=1","25.6898129,85.1978809"
Lovely Market,Market,"Lovely Market, Town Thana Rd, Pokhra Muhalla, Hajipur, Bihar 844101",Pokhra Muhalla,Town Thana Rd,Hajipur,844101,Bihar,IN,https://www.google.com/maps/place/Lovely+Market/data=!4m7!3m6!1s0x39ed5c18fd7d887f:0xdd9663a99da378d4!8m2!3d25.6873387!4d85.2075376!16s%2Fg%2F11c2kj366l!19sChIJf4h9_Rhc7TkR1Hijnaljlt0?authuser=0&hl=en&rclk=1,"25.687338699999998,85.2075376"
Cake Corner,Bakery and Cake Shop,"Cake Corner, Masjid Chowk, Magarhatta, Hajipur, Bihar 844101",Magarhatta,Masjid Chowk,Hajipur,844101,Bihar,IN,https://www.google.com/maps/place/Cake+Corner/data=!4m7!3m6!1s0x39ed5c1933247d19:0xa8ab809ae17ee702!8m2!3d25.6848943!4d85.2068834!16s%2Fg%2F11dyzb0r44!19sChIJGX0kMxlc7TkRAud-4ZqAq6g?authuser=0&hl=en&rclk=1,"25.6848943,85.2068834"
Hichkii Restaurant,Restaurant,"Hichkii Restaurant, Masjid chowk, Tana Rd, Magarhatta, Hajipur, Bihar 844101",Magarhatta,"Masjid chowk, Tana Rd",Hajipur,844101,Bihar,IN,https://www.google.com/maps/place/Hichkii+Restaurant/data=!4m7!3m6!1s0x39ed5df4e8a4b5ff:0x619e50e549e8f73b!8m2!3d25.6864737!4d85.2072933!16s%2Fg%2F11h80xdb2j!19sChIJ_7Wk6PRd7TkRO_foSeVQnmE?authuser=0&hl=en&rclk=1,"25.6864737,85.20729329999999"
Sangi Jama Masjid [Pathar Masjid],Mosque,"M5QX+252 Sangi Jama Masjid [Pathar Masjid], Sidhi Ghat Colony, Hajipur, Bihar 844101",Sidhi Ghat Colony,M5QX+252,Hajipur,844101,Bihar,IN,https://www.google.com/maps/place/Sangi+Jama+Masjid+%5BPathar+Masjid%5D/data=!4m7!3m6!1s0x39ed5c04e292fb9b:0x98910e64739f7edf!8m2!3d25.6875158!4d85.1979048!16s%2Fg%2F1pxxq64ht!19sChIJm_uS4gRc7TkR336fc2QOkZg?authuser=0&hl=en&rclk=1,"25.6875158,85.19790479999999"
Jama Masjid,Mosque,"M6M4+XJQ Jama Masjid, Magarhatta Rd, Magarhatta, Hajipur, Bihar 844101",Magarhatta,"M6M4+XJQ, Magarhatta Rd",Hajipur,844101,Bihar,IN,https://www.google.com/maps/place/Jama+Masjid/data=!4m7!3m6!1s0x39ed5c1933537f07:0xfe93176ac7a31ef8!8m2!3d25.6849559!4d85.2066095!16s%2Fg%2F1hdywhsj0!19sChIJB39TMxlc7TkR-B6jx2oXk_4?authuser=0&hl=en&rclk=1,"25.6849559,85.2066095"
"Jama Masjid,Bagmali",Mosque,"M6X4+2CF Jama Masjid,Bagmali, Adalpur, Hajipur, Bihar 844101",Adalpur,M6X4+2CF,Hajipur,844101,Bihar,IN,"https://www.google.com/maps/place/Jama+Masjid,Bagmali/data=!4m7!3m6!1s0x39ed5c14176bede5:0xd109e31358d5880d!8m2!3d25.6975551!4d85.2060533!16s%2Fg%2F11g6rd16jn!19sChIJ5e1rFxRc7TkRDYjVWBPjCdE?authuser=0&hl=en&rclk=1","25.6975551,85.2060533"
Jama Masjid Anwarpur east Hajipur,Mosque,"Jama Masjid Anwarpur east Hajipur, Jama Masjid, East Anwarpur, Hajipur, Bihar 844101",East Anwarpur,Jama Masjid,Hajipur,844101,Bihar,IN,https://www.google.com/maps/place/Jama+Masjid+Anwarpur+east+Hajipur/data=!4m7!3m6!1s0x39ed5c3938984d99:0xe5cebeb64c738b44!8m2!3d25.6986316!4d85.2160257!16s%2Fg%2F11cs17pm5p!19sChIJmU2YODlc7TkRRItzTLa-zuU?authuser=0&hl=en&rclk=1,"25.6986316,85.2160257"
Madina masjid,Mosque,"P623+3RC Madina masjid, Anjaanpir chock, Adalpur, Hajipur, Bihar 844101",Adalpur,"P623+3RC, Anjaanpir chock",Hajipur,844101,Bihar,IN,https://www.google.com/maps/place/Madina+masjid/data=!4m7!3m6!1s0x39ed5c137bb0244d:0x54036a37d740e80c!8m2!3d25.7001847!4d85.2045033!16s%2Fg%2F11c5zg2nwm!19sChIJTSSwexNc7TkRDOhA1zdqA1Q?authuser=0&hl=en&rclk=1,"25.700184699999998,85.2045033"
Jama masjid,Mosque,"M69J+V2V Jama masjid, Vaishali, Saifpur, Bihar 844101",,"M69J+V2V, Vaishali",Saifpur,844101,Bihar,IN,https://www.google.com/maps/place/Jama+masjid/data=!4m7!3m6!1s0x39ed5e87924965e5:0x90984212f4addbda!8m2!3d25.6697316!4d85.230055!16s%2Fg%2F11g6n80hql!19sChIJ5WVJkode7TkR2tut9BJCmJA?authuser=0&hl=en&rclk=1,"25.6697316,85.230055"
Jama Masjid,Mosque,"M6W9+8Q8 Jama Masjid, Baghdulhan, Hajipur, Bihar 844101",Baghdulhan,M6W9+8Q8,Hajipur,844101,Bihar,IN,https://www.google.com/maps/place/Jama+Masjid/data=!4m7!3m6!1s0x39ed5c3a14bdf6b9:0x547f8066f8690c9c!8m2!3d25.695783!4d85.2194666!16s%2Fg%2F11c5541kv1!19sChIJufa9FDpc7TkRnAxp-GaAf1Q?authuser=0&hl=en&rclk=1,"25.695783,85.21946659999999"
Noori Masjid,Mosque,"P622+WW2 Noori Masjid, Pathan, Yadav Tola Rd, Hajipur, Bihar 844101",,"P622+WW2 Pathan, Yadav Tola Rd",Hajipur,844101,Bihar,IN,https://www.google.com/maps/place/Noori+Masjid/data=!4m7!3m6!1s0x39ed5c12d5c3d8ff:0x755ac3db2c604d71!8m2!3d25.7022512!4d85.2022727!16s%2Fg%2F11c1w0h5bx!19sChIJ_9jD1RJc7TkRcU1gLNvDWnU?authuser=0&hl=en&rclk=1,"25.7022512,85.2022727"
Jama Masjid Miya Bag,Mosque,"M5PP+X6X Jama Masjid Miya Bag, Sonepur, Bihar 841101",,M5PP+X6X,Sonepur,841101,Bihar,IN,https://www.google.com/maps/place/Jama+Masjid+Miya+Bag/data=!4m7!3m6!1s0x39ed5bf9a1a27cbd:0x4cb92237f893083a!8m2!3d25.687481!4d85.1856185!16s%2Fg%2F11f_zpnylw!19sChIJvXyioflb7TkROgiT-DciuUw?authuser=0&hl=en&rclk=1,"25.687481,85.18561849999999"
Jama Masjid Marai,Mosque,"M6V9+3XV Jama Masjid Marai, Madai Chowk, Bihar 844101",,"M6V9+3XV, Madai Chowk",Hajipur,844101,Bihar,IN,https://www.google.com/maps/place/Jama+Masjid+Marai/data=!4m7!3m6!1s0x39ed5c3aa28819fd:0x770dfd4018c249e9!8m2!3d25.6927311!4d85.21992!16s%2Fg%2F11dzt5b9hp!19sChIJ_RmIojpc7TkR6UnCGED9DXc?authuser=0&hl=en&rclk=1,"25.6927311,85.21992"
Gadai Sarai Masjid | gdy'y sry'y msjd,Mosque,"P6H2+Q7J Gadai Sarai Masjid | gdy'y sry'y msjd, Gadai Sarai, Hajipur, Bihar",,"P6H2+Q7J, Gadai Sarai","Hajipur, Akilabad",,Bihar,IN,https://www.google.com/maps/place/Gadai+Sarai+Masjid+%7C+%DA%AF%D8%AF%D8%A7%D8%A6%DB%8C+%D8%B3%D8%B1%D8%A7%D8%A6%DB%92+%D9%85%D8%B3%D8%AC%D8%AF%E2%80%AD/data=!4m7!3m6!1s0x39ed5c8885f0808b:0xbd61a69852e8a899!8m2!3d25.729464!4d85.2006406!16s%2Fg%2F11c554pw7k!19sChIJi4DwhYhc7TkRmajoUpimYb0?authuser=0&hl=en&rclk=1,"25.729464,85.2006406"
Masjid-e-taiba,Mosque,"M6H8+VH4 Masjid-e-taiba, chauhatta chhipitola minapur Road, Hajipur, Bihar 844101",,"M6H8+VH4, chauhatta chhipitola minapur Road",Hajipur,844101,Bihar,IN,https://www.google.com/maps/place/Masjid-e-taiba/data=!4m7!3m6!1s0x39ed5d78e719cbe3:0xe30a48dc53588b3a!8m2!3d25.6796427!4d85.2164639!16s%2Fg%2F11gm8r7172!19sChIJ48sZ53hd7TkROotYU9xICuM?authuser=0&hl=en&rclk=1,"25.6796427,85.2164639"
"Mahaprabhuji Baithak, Hajipur, Bihar",Hindu temple,"Mahaprabhuji Baithak, Hajipur, Bihar, bazar, Masjid Chowk, Magarhatta Near Suklain Mandir Hela, Hajipur, Bihar 844101",Magarhatta,"bazar, Masjid Chowk, Magarhatta Near Suklain Mandir Hela",Hajipur,844101,Bihar,IN,"https://www.google.com/maps/place/Mahaprabhuji+Baithak,+Hajipur,+Bihar/data=!4m7!3m6!1s0x39ed5c1e7829fab7:0xfcb1c170de2988da!8m2!3d25.6810821!4d85.2054264!16s%2Fg%2F11clhq7_zb!19sChIJt_opeB5c7TkR2ogp3nDBsfw?authuser=0&hl=en&rclk=1","25.681082099999998,85.2054264"
Durga Mandir,Hindu temple,"M6P4+VX9 Durga Mandir, Gudri Rd, Magarhatta, Hajipur, Bihar 844101",Magarhatta,"M6P4+VX9, Gudri Rd",Hajipur,844101,Bihar,IN,https://www.google.com/maps/place/Durga+Mandir/data=!4m7!3m6!1s0x39ed5c1902ba21dd:0xb6a89989ac3ca609!8m2!3d25.6871507!4d85.2074994!16s%2Fg%2F11_t2s3m3!19sChIJ3SG6Ahlc7TkRCaY8rImZqLY?authuser=0&hl=en&rclk=1,"25.6871507,85.2074994"
Jama Masjid,Mosque,"M6FQ+CMM Jama Masjid, Vaishali, Gadai Sarai, Bihar 844102",,"M6FQ+CMM, Vaishali",Gadai Sarai,844102,Bihar,IN,https://www.google.com/maps/place/Jama+Masjid/data=!4m7!3m6!1s0x39ed5e7a2fbc4daf:0xae6f88d8e4b4e788!8m2!3d25.6735807!4d85.2391628!16s%2Fg%2F11c2pvz_tq!19sChIJr028L3pe7TkRiOe05NiIb64?authuser=0&hl=en&rclk=1,"25.6735807,85.2391628"
Gausiya Mosque,Mosque,"M6FR+7F4 Gausiya Mosque, Vaishali, Gadai Sarai, Bihar 844102",,"M6FR+7F4, Vaishali",Gadai Sarai,844102,Bihar,IN,https://www.google.com/maps/place/Gausiya+Mosque/data=!4m7!3m6!1s0x39ed5e70a0aae9ef:0x5736da0e3fe40e70!8m2!3d25.6731486!4d85.2412023!16s%2Fg%2F11c2qp986c!19sChIJ7-mqoHBe7TkRcA7kPw7aNlc?authuser=0&hl=en&rclk=1,"25.673148599999998,85.2412023"
Qadimi masjid (Choti masjid),Mosque,"M76Q+8FV Qadimi masjid (Choti masjid), Unnamed Road, Bhairopur, Bihar 844102",,"M76Q+8FV, Unnamed Road",Bhairopur,844102,Bihar,IN,https://www.google.com/maps/place/Qadimi+masjid+%28Choti+masjid%29/data=!4m7!3m6!1s0x39ed61a1534b8c6b:0xc86f9d96feffd1d9!8m2!3d25.6608588!4d85.2886743!16s%2Fg%2F11qg5g_9dq!19sChIJa4xLU6Fh7TkR2dH__padb8g?authuser=0&hl=en&rclk=1,"25.6608588,85.2886743"
Jama Masjid O Madarsa Ah-Le Sunnat Raza-E Mustafa Sonpur Mirdaha,Mosque,"Jama Masjid O Madarsa Ah-Le Sunnat Raza-E Mustafa Sonpur Mirdaha, ADAM MIRDAHA, Sonepur, Bihar 841101",,ADAM MIRDAHA,Sonepur,841101,Bihar,IN,https://www.google.com/maps/place/Jama+Masjid+O+Madarsa+Ah-Le+Sunnat+Raza-E+Mustafa+Sonpur+Mirdaha/data=!4m7!3m6!1s0x39ed5bef76085671:0x2ac32dffdda1c7ff!8m2!3d25.6910113!4d85.1764905!16s%2Fg%2F11c5gghqyp!19sChIJcVYIdu9b7TkR_8eh3f8twyo?authuser=0&hl=en&rclk=1,"25.6910113,85.1764905"
Hajipur Mosque,Mosque,"RJFF+R66 Hajipur Mosque, Rafiganj, Bihar 824125",,RJFF+R66,Rafiganj,824125,Bihar,IN,https://www.google.com/maps/place/Hajipur+Mosque/data=!4m7!3m6!1s0x398d2013ece2d143:0x900a6cb4e6d6dfd2!8m2!3d24.8245387!4d84.6230178!16s%2Fg%2F11fxb1kfqy!19sChIJQ9Hi7BMgjTkR0t_W5rRsCpA?authuser=0&hl=en&rclk=1,"24.824538699999998,84.6230178"
Mokim Chak Mosque,Mosque,"M7J9+H4X Mokim Chak Mosque, Hajipur, Ansari Fort Rd, Mokim Chak, Bihar 844102",,"M7J9+H4X, Hajipur, Ansari Fort Rd",Mokim Chak,844102,Bihar,IN,https://www.google.com/maps/place/Mokim+Chak+Mosque/data=!4m7!3m6!1s0x39ed5dfe1b0b1ba9:0x58e2de0c42fcf779!8m2!3d25.6814999!4d85.2678698!16s%2Fg%2F1q5by3c9x!19sChIJqRsLG_5d7TkReff8Qgze4lg?authuser=0&hl=en&rclk=1,"25.6814999,85.2678698"
Thana Masjid Hajipur,Mosque,"M6Q4+3G5 Thana Masjid Hajipur, East nungolaa, Magarhatta, Hajipur, Bihar 844101",Magarhatta,"M6Q4+3G5, East nungolaa",Hajipur,,Bihar,IN,https://www.google.com/maps/place/Thana+Masjid+Hajipur/data=!4m7!3m6!1s0x39ed5ddb4cf9d7b5:0xfc4b1e83cf59ad70!8m2!3d25.6876314!4d85.2063537!16s%2Fg%2F11fd4zxj3p!19sChIJtdf5TNtd7TkRcK1Zz4MeS_w?authuser=0&hl=en&rclk=1,"25.687631399999997,85.2063537"
Urdu Primary School Jadhua Baghtola Hajipur,School,"Urdu Primary School Jadhua Baghtola Hajipur, Jama Masjid, Post Office: Jadhua, Village: Baghtola, PS. Hajipur Twon, District: Vaishali, Bihar, PIN: 844102 LANDMARK: Near, Baghtola, Bihar",,"Jama Masjid, Post Office: Jadhua, Village: Baghtola, PS. Hajipur Twon, District: Vaishali, Bihar, PIN: 844102 LANDMARK: Near, Baghtola",,,Bihar,IN,https://www.google.com/maps/place/Urdu+Primary+School+Jadhua+Baghtola+Hajipur/data=!4m7!3m6!1s0x39ed5e7a1d87f559:0xbedd5d3c898b7d20!8m2!3d25.674234!4d85.2403514!16s%2Fg%2F11g8zxyvgq!19sChIJWfWHHXpe7TkRIH2LiTxd3b4?authuser=0&hl=en&rclk=1,"25.674234,85.2403514"
Jagdamba Mandir,Hindu temple,"P623+VRG Jagdamba Mandir, Hajipur - Lalganj Rd, Adalpur, Bihar 844101",Adalpur,"P623+VRG, Hajipur - Lalganj Rd",,844101,Bihar,IN,https://www.google.com/maps/place/Jagdamba+Mandir/data=!4m7!3m6!1s0x39ed5c1351534cdd:0x665c67a1bdc90a2!8m2!3d25.7021772!4d85.2045719!16s%2Fg%2F11g6_w92fw!19sChIJ3UxTURNc7TkRopDcG3rGZQY?authuser=0&hl=en&rclk=1,"25.702177199999998,85.20457189999999"
Bari Masjid w Eidgah,Mosque,"M5RG+85M Bari Masjid w Eidgah, Sonepur, Bihar 841101",,M5RG+85M,Sonepur,841101,Bihar,IN,https://www.google.com/maps/place/Bari+Masjid+w+Eidgah/data=!4m7!3m6!1s0x39ed5bef6949fc8d:0xe4155af905ee1286!8m2!3d25.6908437!4d85.1754267!16s%2Fg%2F11fxb6cctv!19sChIJjfxJae9b7TkRhhLuBflaFeQ?authuser=0&hl=en&rclk=1,"25.6908437,85.1754267"
jama masjid mail Biddupur,Mosque,"jama masjid mail Biddupur, Mail, Bhairopur, Pakri, Bihar 844102",,Mail,"Bhairopur, Pakri",844102,Bihar,IN,https://www.google.com/maps/place/jama+masjid+mail+Biddupur/data=!4m7!3m6!1s0x39ed6128780f2a05:0xf639d8d028b8231d!8m2!3d25.6537057!4d85.2910898!16s%2Fg%2F11h3ngnmlt!19sChIJBSoPeChh7TkRHSO4KNDYOfY?authuser=0&hl=en&rclk=1,"25.6537057,85.2910898"
Aashiyana Masjid,Mosque,"M6X3+92R Aashiyana Masjid, Ashiyana Colony, Sanchipatti, Hajipur, Bihar 844101","Ashiyana Colony, Sanchipatti",M6X3+92R,Hajipur,844101,Bihar,IN,https://www.google.com/maps/place/Aashiyana+Masjid/data=!4m7!3m6!1s0x39ed5d92af851121:0x584a1783fc4fcbf6!8m2!3d25.6984875!4d85.2025178!16s%2Fg%2F11ght182l5!19sChIJIRGFr5Jd7TkR9stP_IMXSlg?authuser=0&hl=en&rclk=1,"25.6984875,85.2025178"
Shah Idrish Mazhar,Mosque,"M6P5+7HW Shah Idrish Mazhar, Magarhatta, Hajipur, Bihar 844101",Magarhatta,M6P5+7HW,Hajipur,844101,Bihar,IN,https://www.google.com/maps/place/Shah+Idrish+Mazhar/data=!4m7!3m6!1s0x39ed5c18b77c174f:0xf80b8db3189ae0c0!8m2!3d25.6857452!4d85.2089673!16s%2Fg%2F12hp_q48t!19sChIJTxd8txhc7TkRwOCaGLONC_g?authuser=0&hl=en&rclk=1,"25.6857452,85.2089673"
Minapur Eid Gah,Mosque,"M6FF+28R Minapur Eid Gah, Minapur, Bihar 844101",,M6FF+28R,Minapur,844101,Bihar,IN,https://www.google.com/maps/place/Minapur+Eid+Gah/data=!4m7!3m6!1s0x39ed5f9948364263:0x9c3fb991f214a66!8m2!3d25.6726086!4d85.223262!16s%2Fg%2F11gjq88p5w!19sChIJY0I2SJlf7TkRZkohH5n7wwk?authuser=0&hl=en&rclk=1,"25.6726086,85.22326199999999"
Eidgah,Mosque,"M6FM+85X Eidgah, Hajipur - Jadhua Rd, Jadhua, Hajipur, Bihar 844101",Jadhua,"M6FM+85X, Hajipur - Jadhua Rd",Hajipur,844101,Bihar,IN,https://www.google.com/maps/place/Eidgah/data=!4m7!3m6!1s0x39ed5e7dd1b635b9:0x1b8b8cf7f39642a3!8m2!3d25.6733535!4d85.2329743!16s%2Fg%2F1263fs0g8!19sChIJuTW20X1e7TkRo0KW8_eMixs?authuser=0&hl=en&rclk=1,"25.673353499999997,85.2329743"
Rasulpur Bakhari Masjid,Mosque,"P96M+4F5 Rasulpur Bakhari Masjid, Rasulpur Bakhri, Hasanpur Bakhri, Bihar 844103",,P96M+4F5,"Rasulpur Bakhri, Hasanpur Bakhri",844103,Bihar,IN,https://www.google.com/maps/place/Rasulpur+Bakhari+Masjid/data=!4m7!3m6!1s0x39ed650ac5f62cf1:0x987fa4eebbae442d!8m2!3d25.7102644!4d85.3837438!16s%2Fg%2F11frmnlp5g!19sChIJ8Sz2xQpl7TkRLUSuu-6kf5g?authuser=0&hl=en&rclk=1,"25.7102644,85.38374379999999"
rambhadra masjid,Mosque,"M6H4+VW8 rambhadra masjid, Unnamed Road, Rambhadra, Magarhatta, Hajipur, Bihar 844101","Rambhadra, Magarhatta","M6H4+VW8, Unnamed Road",Hajipur,844101,Bihar,IN,https://www.google.com/maps/place/rambhadra+masjid/data=!4m7!3m6!1s0x39ed5c1e2db6f6cb:0xd3b65d36f0facc29!8m2!3d25.6796686!4d85.20732!16s%2Fg%2F11f26v0bp1!19sChIJy_a2LR5c7TkRKcz68DZdttM?authuser=0&hl=en&rclk=1,"25.6796686,85.20732"
Jaysenmusic Guitar Class,Guitar instructor,"Jaysenmusic Guitar Class, Marai Chowk, near Jama Masjid, Hajipur, Bihar 844101",,"Marai Chowk, near Jama Masjid",Hajipur,844101,Bihar,IN,https://www.google.com/maps/place/Jaysenmusic+Guitar+Class/data=!4m7!3m6!1s0x39ed5df33caba8ab:0xdd88d2ba7d50e307!8m2!3d25.6932048!4d85.2189251!16s%2Fg%2F11sfrrnnf8!19sChIJq6irPPNd7TkRB-NQfbrSiN0?authuser=0&hl=en&rclk=1,"25.6932048,85.21892509999999"
HIRA PANNA,Jewelry store,"HIRA PANNA, Gudri Rd, Hajipur, Bihar 844101",,Gudri Rd,Hajipur,844101,Bihar,IN,https://www.google.com/maps/place/HIRA+PANNA/data=!4m7!3m6!1s0x39ed5db3a0e09673:0x96f40507e04333f5!8m2!3d25.6881181!4d85.2081659!16s%2Fg%2F11q9z_2th6!19sChIJc5bgoLNd7TkR9TND4AcF9JY?authuser=0&hl=en&rclk=1,"25.6881181,85.2081659"
Jama Masjid salimabaad Phulahra,Mosque,"Q648+3J4 Jama Masjid salimabaad Phulahra, Salimabad Phulhara Rd, Astipur, Salemabad, Bihar 844102",,"Q648+3J4, Salimabad Phulhara Rd","Astipur, Salemabad",844102,Bihar,IN,https://www.google.com/maps/place/Jama+Masjid+salimabaad+Phulahra/data=!4m7!3m6!1s0x39ed5cc3f503c8e5:0xded4485649eb7d62!8m2!3d25.755148!4d85.2165642!16s%2Fg%2F11g9vwc9b_!19sChIJ5cgD9cNc7TkRYn3rSVZI1N4?authuser=0&hl=en&rclk=1,"25.755148,85.2165642"
Hanuman Mandir,Hindu temple,"M6M4+XQC Hanuman Mandir, Magarhatta, Hajipur, Bihar 844101",Magarhatta,M6M4+XQC,Hajipur,844101,Bihar,IN,https://www.google.com/maps/place/Hanuman+Mandir/data=!4m7!3m6!1s0x39ed5c1ecd542791:0x6fe07b1832cb8609!8m2!3d25.684938!4d85.2068803!16s%2Fg%2F11_q3_lkr!19sChIJkSdUzR5c7TkRCYbLMhh74G8?authuser=0&hl=en&rclk=1,"25.684938,85.2068803"
Muzaffarpur,Museum,"M6P4+2M3 Muzaffarpur, Imambara gali masjid chok, muz pur, Bihar 842002",Magarhatta,"M6P4+2M3, Imambara gali masjid chok, muz pur",Hajipur,842002,Bihar,IN,https://www.google.com/maps/place/Muzaffarpur/data=!4m7!3m6!1s0x39ed5d7fa6b78183:0x822d6e2113d2d1db!8m2!3d25.6850138!4d85.2066858!16s%2Fg%2F11s76828lz!19sChIJg4G3pn9d7TkR29HSEyFuLYI?authuser=0&hl=en&rclk=1,"25.6850138,85.2066858"
Jama Masjid,Mosque,"P6HV+PJ8 Jama Masjid, Daulatpur Dewaria, Bihar 844125",,P6HV+PJ8,Daulatpur Dewaria,,Bihar,IN,https://www.google.com/maps/place/Jama+Masjid/data=!4m7!3m6!1s0x39ed5defbb304b3d:0x71cac1bc92ac2ac7!8m2!3d25.7292864!4d85.2440692!16s%2Fg%2F11hzv4vn8x!19sChIJPUswu-9d7TkRxyqskrzBynE?authuser=0&hl=en&rclk=1,"25.7292864,85.2440692"
Jama Masjid Hajipur,Mosque,"HGGJ+Q59 Jama Masjid Hajipur, Hajipur, Bihar 854109",,HGGJ+Q59,Hajipur,854109,Bihar,IN,https://www.google.com/maps/place/Jama+Masjid+Hajipur/data=!4m7!3m6!1s0x39f001003faf381b:0x8f3e6dca9e54dc0!8m2!3d25.5768233!4d87.5305053!16s%2Fg%2F11q3tvyv08!19sChIJGzivPwAB8DkRwE3lqdzm8wg?authuser=0&hl=en&rclk=1,"25.576823299999997,87.5305053"
Jama Masjid,Mosque,"M6GC+27J Jama Masjid, Minapur, Bihar 844101",,M6GC+27J,Minapur,844101,Bihar,IN,https://www.google.com/maps/place/Jama+Masjid/data=!4m7!3m6!1s0x39ed5e834a84e9bd:0x4e30e2b949de2b6b!8m2!3d25.6750848!4d85.2206395!16s%2Fg%2F11clh0h4g9!19sChIJvemESoNe7TkRayveSbniME4?authuser=0&hl=en&rclk=1,"25.6750848,85.22063949999999"
Ghausia Masjid,Mosque,"M76F+8RG Ghausia Masjid, Rajasan, Panapur Dharmpur, Bihar 844502",,M76F+8RG,"Rajasan, Panapur Dharmpur",844502,Bihar,IN,https://www.google.com/maps/place/Ghausia+Masjid/data=!4m7!3m6!1s0x39ed61397f530da9:0x4b26c7ed4e591c35!8m2!3d25.6608051!4d85.2745747!16s%2Fg%2F11h3k79ylz!19sChIJqQ1Tfzlh7TkRNRxZTu3HJks?authuser=0&hl=en&rclk=1,"25.660805099999997,85.2745747"
Shiv Mandir,Hindu temple,"M6R9+MQ7 Shiv Mandir, Shahi colony, Hajipur, Bihar 844101",Shahi colony,M6R9+MQ7,Hajipur,844101,Bihar,IN,https://www.google.com/maps/place/Shiv+Mandir/data=!4m7!3m6!1s0x39ed5c3ab6991ff5:0x8c9bfb30b4986726!8m2!3d25.6916625!4d85.2194228!16s%2Fg%2F11c318cd0f!19sChIJ9R-Ztjpc7TkRJmeYtDD7m4w?authuser=0&hl=en&rclk=1,"25.6916625,85.21942279999999"
Choti Masjid,Mosque,"M6GG+RCQ Choti Masjid, Minapur, Hajipur, Bihar 844101",,"M6GG+RCQ, Minapur","Hajipur, Minapur",844101,Bihar,IN,https://www.google.com/maps/place/Choti+Masjid/data=!4m7!3m6!1s0x39ed5fc46c036c65:0x8be753997c5adcb9!8m2!3d25.6770991!4d85.2261187!16s%2Fg%2F11fb0vqcs5!19sChIJZWwDbMRf7TkRudxafJlT54s?authuser=0&hl=en&rclk=1,"25.6770991,85.2261187"
Jadhua karwala,Mosque,"M6HJ+24C Jadhua karwala, Unnamed Road, Hajipur, Bihar 844101",,"M6HJ+24C, Unnamed Road",Hajipur,844101,Bihar,IN,https://www.google.com/maps/place/Jadhua+karwala/data=!4m7!3m6!1s0x39ed5f0e8f397a0f:0x3ee3f69df38ba1c8!8m2!3d25.6775706!4d85.2302606!16s%2Fg%2F11nxcngqx6!19sChIJD3o5jw5f7TkRyKGL85324z4?authuser=0&hl=en&rclk=1,"25.6775706,85.2302606"
Durga Asthan,Hindu temple,"M6M4+XP6 Durga Asthan, Magarhatta Rd, Magarhatta, Hajipur, Bihar 844101",Magarhatta,"M6M4+XP6, Magarhatta Rd",Hajipur,844101,Bihar,IN,https://www.google.com/maps/place/Durga+Asthan/data=!4m7!3m6!1s0x39ed5c1ecd17cbeb:0x3a95a731d7fb8cf7!8m2!3d25.6849005!4d85.2067681!16s%2Fg%2F11_tgz41b!19sChIJ68sXzR5c7TkR94z71zGnlTo?authuser=0&hl=en&rclk=1,"25.684900499999998,85.20676809999999"
JAMA Masjid Hajipur dullam bigha,Mosque,"JAMA Masjid Hajipur dullam bigha, Hajipur,Dullam Bigha, Bihar 805112",,"Hajipur,Dullam Bigha",Hazratpur,805112,Bihar,IN,https://www.google.com/maps/place/JAMA+Masjid+Hajipur+dullam+bigha/data=!4m7!3m6!1s0x39f303de2919ac7d:0x20c46159b83e115a!8m2!3d24.7840119!4d85.4745746!16s%2Fg%2F11pwwxt2p2!19sChIJfawZKd4D8zkRWhE-uFlhxCA?authuser=0&hl=en&rclk=1,"24.7840119,85.4745746"
JAMA MASJID (KILA LARUI),Mosque,"JAMA MASJID (KILA LARUI), Kila Larui, Hilalpur, Bihar 844502",,,"Kila Larui, Hilalpur",844502,Bihar,IN,https://www.google.com/maps/place/JAMA+MASJID+%28KILA+LARUI%29/data=!4m7!3m6!1s0x39ed67028f43b459:0xab27617239768d0d!8m2!3d25.6987144!4d85.285165!16s%2Fg%2F11rn7903rh!19sChIJWbRDjwJn7TkRDY12OXJhJ6s?authuser=0&hl=en&rclk=1,"25.6987144,85.28516499999999"
Pokhra Masjid,Mosque,"M6R6+79X Pokhra Masjid, Dr Sudist Colony, Hajipur, Bihar",Pokhra Muhalla,"M6R6+79X, Dr Sudist Colony",Hajipur,,Bihar,IN,https://www.google.com/maps/place/Pokhra+Masjid/data=!4m7!3m6!1s0x39ed5db9b02c5313:0x17dff7af6607fb5c!8m2!3d25.6907329!4d85.2109755!16s%2Fg%2F11hf5w_qk0!19sChIJE1MssLld7TkRXPsHZq_33xc?authuser=0&hl=en&rclk=1,"25.6907329,85.21097549999999"
SUNNI JAMA MASJID,Mosque,"P653+XV7 SUNNI JAMA MASJID, Adalpur, Hajipur, Bihar 844101",Adalpur,P653+XV7,Hajipur,844101,Bihar,IN,https://www.google.com/maps/place/SUNNI+JAMA+MASJID/data=!4m7!3m6!1s0x39ed5dfcfbf21369:0xcb7873c03731b4d5!8m2!3d25.709921!4d85.2046875!16s%2Fg%2F11qh85tt87!19sChIJaRPy-_xd7TkR1bQxN8BzeMs?authuser=0&hl=en&rclk=1,"25.709920999999998,85.20468749999999"
Jama Masjid,Mosque,"M7G2+6JF Jama Masjid, Rampur Nausahan, Bihar 844102",,M7G2+6JF,Rampur Nausahan,844102,Bihar,IN,https://www.google.com/maps/place/Jama+Masjid/data=!4m7!3m6!1s0x39ed5fe98e57f78b:0x73b4dbf6d7829687!8m2!3d25.6755561!4d85.2515546!16s%2Fg%2F11mw8brktt!19sChIJi_dXjulf7TkRh5aC1_bbtHM?authuser=0&hl=en&rclk=1,"25.675556099999998,85.25155459999999"
imaambaadd'aa,Mosque,"P689+W24 imaambaadd'aa, paanaapur, gauraahii, Bihar",,"P689+W24, paanaapur","gauraahii, Panapur Gobrahi",,Bihar,IN,https://www.google.com/maps/place/%E0%A4%87%E0%A4%AE%E0%A4%BE%E0%A4%AE%E0%A4%AC%E0%A4%BE%E0%A4%A1%E0%A4%BC%E0%A4%BE/data=!4m7!3m6!1s0x39ed5d7ce7e4ce47:0xf915edad63739b1d!8m2!3d25.7172654!4d85.2175881!16s%2Fg%2F11gxz_5c82!19sChIJR87k53xd7TkRHZtzY63tFfk?authuser=0&hl=en&rclk=1,"25.7172654,85.2175881"
Kanhimal Mandir (Baba Bholenath temple),Hindu temple,"Kanhimal Mandir (Baba Bholenath temple), Jadhua Rd, Magarhatta, Hajipur, Bihar 844101",Magarhatta,Jadhua Rd,Hajipur,844101,Bihar,IN,https://www.google.com/maps/place/Kanhimal+Mandir+%28Baba+Bholenath+temple%29/data=!4m7!3m6!1s0x39ed5d041b7cb179:0x4acff335e2f26a53!8m2!3d25.684368!4d85.208913!16s%2Fg%2F11h6lr81vx!19sChIJebF8GwRd7TkRU2ry4jXzz0o?authuser=0&hl=en&rclk=1,"25.684368,85.208913"
Mahavir Mandir,Hindu temple,"M5PX+G97 Mahavir Mandir, Hajipur, Bihar 844101",,M5PX+G97,Hajipur,,Bihar,IN,https://www.google.com/maps/place/Mahavir+Mandir/data=!4m7!3m6!1s0x39ed5c04ea8e5c25:0xa383fc7d3b0e828a!8m2!3d25.6862972!4d85.1984167!16s%2Fg%2F11f3ty0vfz!19sChIJJVyO6gRc7TkRioIOO338g6M?authuser=0&hl=en&rclk=1,"25.6862972,85.1984167"
Jamiya Masjid,Mosque,"JWHQ+Q4J Jamiya Masjid, Patna - Parsa - Siwan Hwy, Jadhua, Hajipur, Sadikpur, Bihar 801111",Jadhua,"JWHQ+Q4J, Patna - Parsa - Siwan Hwy","Hajipur, Sadikpur",,Bihar,IN,https://www.google.com/maps/place/Jamiya+Masjid/data=!4m7!3m6!1s0x3992abe4126d5f15:0x79198234a858abb2!8m2!3d25.6294687!4d84.9377545!16s%2Fg%2F11gtz579jw!19sChIJFV9tEuSrkjkRsqtYqDSCGXk?authuser=0&hl=en&rclk=1,"25.6294687,84.9377545"
Prachin Gauri Shankar Mandir,Hindu temple,"M6J5+W4J Prachin Gauri Shankar Mandir, Magarhatta, Hajipur, Bihar 844101",Magarhatta,M6J5+W4J,Hajipur,844101,Bihar,IN,https://www.google.com/maps/place/Prachin+Gauri+Shankar+Mandir/data=!4m7!3m6!1s0x39ed5d670d62c8ad:0xf1325f15d8441262!8m2!3d25.6823483!4d85.2077793!16s%2Fg%2F11k6klbq79!19sChIJrchiDWdd7TkRYhJE2BVfMvE?authuser=0&hl=en&rclk=1,"25.682348299999997,85.2077793"
Jadhua makhdumia masjid,Mosque,"M69G+XQ6 Jadhua makhdumia masjid, konhaaraa ghaatt - jduaa rodd, Minapur, Bihar 844101",,"M69G+XQ6, konhaaraa ghaatt - jduaa rodd",Minapur,844101,Bihar,IN,https://www.google.com/maps/place/Jadhua+makhdumia+masjid/data=!4m7!3m6!1s0x39ed5fcb4bd82a11:0x788254e6daa3a335!8m2!3d25.6699162!4d85.226882!16s%2Fg%2F11h03fd5xc!19sChIJESrYS8tf7TkRNaOj2uZUgng?authuser=0&hl=en&rclk=1,"25.6699162,85.22688199999999"
Masjid haji fahim khan,Mosque,"J8W3+W2 Masjid haji fahim khan, Daud Nagar, Bihar 844502",,J8W3+W2,Daud Nagar,844502,Bihar,IN,https://www.google.com/maps/place/Masjid+haji+fahim+khan/data=!4m7!3m6!1s0x39ed61387bb6f931:0xcc92e5eaae555b77!8m2!3d25.6478513!4d85.3021468!16s%2Fg%2F11srrw5t4x!19sChIJMfm2ezhh7TkRd1tVrurlksw?authuser=0&hl=en&rclk=1,"25.6478513,85.3021468"
Baghtola Jama Masjid,School,"M6FQ+JHG Baghtola Jama Masjid, Hajipur, Bihar 844102",,M6FQ+JHG,Hajipur,,Bihar,IN,https://www.google.com/maps/place/Baghtola+Jama+Masjid/data=!4m7!3m6!1s0x39ed5fec011b8fff:0x22f0a088da0a71df!8m2!3d25.6740702!4d85.2389679!16s%2Fg%2F11g4cs20ls!19sChIJ_48bAexf7TkR33EK2oig8CI?authuser=0&hl=en&rclk=1,"25.6740702,85.23896789999999"
Jama Masjid Gouse Aazam,Mosque,"M6CH+XMX Jama Masjid Gouse Aazam, Minapur, Bihar 844101",,M6CH+XMX,Minapur,844101,Bihar,IN,https://www.google.com/maps/place/Jama+Masjid+Gouse+Aazam/data=!4m7!3m6!1s0x39ed5f675d07425d:0xcbcd35500f3ee43f!8m2!3d25.6724779!4d85.2292252!16s%2Fg%2F11gycw3_gl!19sChIJXUIHXWdf7TkRP-Q-D1A1zcs?authuser=0&hl=en&rclk=1,"25.6724779,85.2292252"
Haripur,Hindu temple,"M6R5+VX4 Haripur, Hajipur, Bihar 848203",,M6R5+VX4,Hajipur,848203,Bihar,IN,https://www.google.com/maps/place/Haripur/data=!4m7!3m6!1s0x39ed5da0ab101381:0x37f8a3628f727de6!8m2!3d25.6921393!4d85.2099673!16s%2Fg%2F11ny1rk44v!19sChIJgRMQq6Bd7TkR5n1yj2Kj-Dc?authuser=0&hl=en&rclk=1,"25.692139299999997,85.2099673"
Daarul Uloome Makhdumia,Mosque,"M6CH+P9V Daarul Uloome Makhdumia, Minapur, Bihar 844101",,M6CH+P9V,Minapur,844101,Bihar,IN,https://www.google.com/maps/place/Daarul+Uloome+Makhdumia/data=!4m7!3m6!1s0x39ed5f955205b287:0x52877cd2bc38794a!8m2!3d25.6718511!4d85.2284122!16s%2Fg%2F11h3yg17wx!19sChIJh7IFUpVf7TkRSnk4vNJ8h1I?authuser=0&hl=en&rclk=1,"25.671851099999998,85.2284122"
Jama Masjid Madarpur | jm` msjd mdrpwr | jaamaa msjid mdaarpur,Mosque,"P6Q2+4W5 Jama Masjid Madarpur | jm` msjd mdrpwr | jaamaa msjid mdaarpur, Naya Tola Rd, Madarpur, Bihar 844102",,"P6Q2+4W5, Naya Tola Rd",Madarpur,844102,Bihar,IN,https://www.google.com/maps/place/Jama+Masjid+Madarpur+%7C+%D8%AC%D8%A7%D9%85%D8%B9+%D9%85%D8%B3%D8%AC%D8%AF+%D9%85%D8%AF%D8%A7%D8%B1%D9%BE%D9%88%D8%B1+%7C+%E0%A4%9C%E0%A4%BE%E0%A4%AE%E0%A4%BE+%E0%A4%AE%E0%A4%B8%E0%A5%8D%E0%A4%9C%E0%A4%BF%E0%A4%A6+%E0%A4%AE%E0%A4%A6%E0%A4%BE%E0%A4%B0%E0%A4%AA%E0%A5%81%E0%A4%B0%E2%80%AD/data=!4m7!3m6!1s0x39ed5dee1bb25c71:0x3f78a37860bad885!8m2!3d25.7377742!4d85.2023714!16s%2Fg%2F11qgs25286!19sChIJcVyyG-5d7TkRhdi6YHijeD8?authuser=0&hl=en&rclk=1,"25.7377742,85.20237139999999"
Near masjid bagdulhan,Housing society,"M6W9+MJQ Near masjid bagdulhan, Bagdulhan Rd, Mishra Colony, Hajipur, Bihar 844101",Mishra Colony,"M6W9+MJQ, Bagdulhan Rd",Hajipur,844101,Bihar,IN,https://www.google.com/maps/place/Near+masjid+bagdulhan/data=!4m7!3m6!1s0x39ed5dc15d107631:0xd8c7eb334fa2121b!8m2!3d25.6967132!4d85.2191151!16s%2Fg%2F11tjj4jxzq!19sChIJMXYQXcFd7TkRGxKiTzPrx9g?authuser=0&hl=en&rclk=1,"25.696713199999998,85.2191151"
Katra hajipur,Housing complex,"Katra hajipur, At Katra, near, pataleshwar mandir road, Hajipur, Bihar",Bharat Raut Katra,"At Katra, near, pataleshwar mandir road",Hajipur,,Bihar,IN,https://www.google.com/maps/place/Katra+hajipur/data=!4m7!3m6!1s0x39ed5d04bc679023:0x52dd11d701ba8453!8m2!3d25.6811186!4d85.2109795!16s%2Fg%2F11t994hs7t!19sChIJI5BnvARd7TkRU4S6AdcR3VI?authuser=0&hl=en&rclk=1,"25.681118599999998,85.2109795"
Vaishali Classes,School,"M6M4+GG2 Vaishali Classes, Nashua road masjid chowk Hajipur vaishali, RambhadrbiharMagarhatta, Hajipur, Bihar 844101",Magarhatta,"M6M4+GG2, Nashua road masjid chowk Hajipur vaishali, RambhadrbiharMagarhatta",Hajipur,844101,Bihar,IN,https://www.google.com/maps/place/Vaishali+Classes/data=!4m7!3m6!1s0x39ed5d8af087e3ad:0xa673448a0b09e7c9!8m2!3d25.6837518!4d85.2062557!16s%2Fg%2F11j3r5jxlk!19sChIJreOH8Ipd7TkRyecJC4pEc6Y?authuser=0&hl=en&rclk=1,"25.6837518,85.2062557"
Masjid Chawk,Town square,"Masjid Chawk, Magarhatta, Hajipur, Bihar 844101",Magarhatta,,Hajipur,,Bihar,IN,https://www.google.com/maps/place/Masjid+Chawk/data=!4m7!3m6!1s0x39ed5c19332748e7:0xfd5ef143667fcaa1!8m2!3d25.6850121!4d85.2067235!16s%2Fg%2F11bzt_zn1n!19sChIJ50gnMxlc7TkRocp_ZkPxXv0?authuser=0&hl=en&rclk=1,"25.685012099999998,85.2067235"
nij iishaagraai maarkaayul koraan jaame msjid,Mosque,"nij iishaagraai maarkaayul koraan jaame msjid, Kagojpur, to, Ghazipur - Hajipur Rd",,"Kagojpur, to, Ghazipur - Hajipur Rd",Hajipur,,Bihar,IN,https://www.google.com/maps/place/%E0%A6%A8%E0%A6%BF%E0%A6%9C+%E0%A6%88%E0%A6%B6%E0%A6%BE%E0%A6%97%E0%A7%8D%E0%A6%B0%E0%A6%BE%E0%A6%87+%E0%A6%AE%E0%A6%BE%E0%A6%B0%E0%A6%95%E0%A6%BE%E0%A6%AF%E0%A7%81%E0%A6%B2+%E0%A6%95%E0%A7%8B%E0%A6%B0%E0%A6%86%E0%A6%A8+%E0%A6%9C%E0%A6%BE%E0%A6%AE%E0%A7%87+%E0%A6%AE%E0%A6%B8%E0%A6%9C%E0%A6%BF%E0%A6%A6/data=!4m7!3m6!1s0x39ed5de88b13f2f5:0xcc384d5eeeea2622!8m2!3d25.6924354!4d85.208324!16s%2Fg%2F11qby41hc5!19sChIJ9fITi-hd7TkRIibq7l5NOMw?authuser=0&hl=en&rclk=1,"25.692435399999997,85.20832399999999"
Hajipur,,"Hajipur, Bihar",,,Hajipur,,Bihar,IN,https://www.google.com/maps/place/Hajipur/data=!4m7!3m6!1s0x39ed5c1f0e3e9d01:0x34ac550b84f13ad3!8m2!3d25.6924354!4d85.208324!16zL20vMDVwbnJ5!19sChIJAZ0-Dh9c7TkR0zrxhAtVrDQ?authuser=0&hl=en&rclk=1,"25.692435399999997,85.20832399999999"
Pathan toli,Housing society,"Pathan toli, noori masjid, Hajipur, Bihar 844101",,noori masjid,Hajipur,,Bihar,IN,https://www.google.com/maps/place/Pathan+toli/data=!4m7!3m6!1s0x39ed5d325033d2fd:0x4f20b8632836cdc1!8m2!3d25.7022512!4d85.2022727!16s%2Fg%2F11s5wxyv0m!19sChIJ_dIzUDJd7TkRwc02KGO4IE8?authuser=0&hl=en&rclk=1,"25.7022512,85.2022727"
abhishek Tripathi,Housing society,"abhishek Tripathi, Masjid Chowk, Magarhatta, Hajipur, Bihar 844101",Magarhatta,Masjid Chowk,Hajipur,844101,Bihar,IN,https://www.google.com/maps/place/abhishek+Tripathi/data=!4m7!3m6!1s0x39ed5d7890d88eb7:0x537b22cf046c78fc!8m2!3d25.6851974!4d85.2090169!16s%2Fg%2F11qg4m6rzt!19sChIJt47YkHhd7TkR_HhsBM8ie1M?authuser=0&hl=en&rclk=1,"25.6851974,85.2090169"
Hajipur,,"Hajipur, Bihar",,,,,Bihar,IN,https://www.google.com/maps/place/Hajipur/data=!4m7!3m6!1s0x39ed67b6e540bde1:0x7d82cbb11a0da78!8m2!3d25.6927085!4d85.2085302!16s%2Fg%2F11sppct9h7!19sChIJ4b1A5bZn7TkReNqgEbss2Ac?authuser=0&hl=en&rclk=1,"25.6927085,85.2085302"
Atul,Housing society,"P653+2H5 Atul, masjid, Anwarpur, masjid, Hajipur, Bihar 844101","Anwarpur, masjid",P653+2H5 masjid,Hajipur,844101,Bihar,IN,https://www.google.com/maps/place/Atul/data=!4m7!3m6!1s0x39ed5d82b5d40e5b:0xbdc67742e4215719!8m2!3d25.7076077!4d85.2040289!16s%2Fg%2F11kbyccl2l!19sChIJWw7UtYJd7TkRGVch5EJ3xr0?authuser=0&hl=en&rclk=1,"25.7076077,85.2040289"
JK Hospital...,Hospital,"JK Hospital..., masjid Chowk, Hajipur - Jadhua Rd, Hajipur, Bihar 844101",,"masjid Chowk, Hajipur - Jadhua Rd",Hajipur,844101,Bihar,IN,https://www.google.com/maps/place/JK+Hospital.../data=!4m7!3m6!1s0x39ed5d76ccaa3503:0x81238faf79aab26!8m2!3d25.6803026!4d85.2189972!16s%2Fg%2F11fm2j4j3m!19sChIJAzWqzHZd7TkRJqua9_o4Egg?authuser=0&hl=en&rclk=1,"25.680302599999997,85.21899719999999"
Jama Masjid Teghiya,Mosque,"Jama Masjid Teghiya, 2, Chandanpatti, Sakra, Sahdullapur, MMuzaffarpur, Bihar 844102",,"2, Chandanpatti, Sakra","Sahdullapur, MMuzaffarpur",,Bihar,IN,https://www.google.com/maps/place/Jama+Masjid+Teghiya/data=!4m7!3m6!1s0x39ed5f999f400ba7:0x9ab8e7d457a65b95!8m2!3d25.6717144!4d85.2541307!16s%2Fg%2F11h_frg1h4!19sChIJpwtAn5lf7TkRlVumV9TnuJo?authuser=0&hl=en&rclk=1,"25.6717144,85.25413069999999"
cyber cafe in masjid chowk,Cafe,"cyber cafe in masjid chowk, NAKHAS CHOWK ANDAR QUILA, Hajipur, Bihar 844101",,NAKHAS CHOWK ANDAR QUILA,Hajipur,844101,Bihar,IN,https://www.google.com/maps/place/cyber+cafe+in+masjid+chowk/data=!4m7!3m6!1s0x39ed5d1a9659dfa3:0xdf2838a69a91dad5!8m2!3d25.6924354!4d85.208324!16s%2Fg%2F11khjhpvzn!19sChIJo99Zlhpd7TkR1dqRmqY4KN8?authuser=0&hl=en&rclk=1,"25.692435399999997,85.20832399999999"
Prem Hotel,Hotel,"Prem Hotel, Masjid Chowk Masjid Chowk, Bihar 844101",Magarhatta,Masjid Chowk Masjid Chowk,Hajipur,844101,Bihar,IN,https://www.google.com/maps/place/Prem+Hotel/data=!4m7!3m6!1s0x39ed5c1933249ae1:0x2a43d696b0000000!8m2!3d25.6850112!4d85.2066944!16s%2Fg%2F11rdx2_my9!19sChIJ4ZokMxlc7TkRAAAAsJbWQyo?authuser=0&hl=en&rclk=1,"25.685011199999998,85.20669439999999"
