name,main_category,address,address_ward,address_street,address_city,address_postal_code,address_state,address_country_code,link,coordinates
Gulzaar Masjid,Mosque,"MGCR+66Q Gulzaar Masjid, Bokkalguda St, Brahmanwadi, Adilabad, Telangana 504001",Brahmanwadi,"MGCR+66Q, Bokkalguda St",Adilabad,504001,Telangana,IN,https://www.google.com/maps/place/Gulzaar+Masjid/data=!4m7!3m6!1s0x3bd25c7477d00337:0x3dc61fe7489f62b1!8m2!3d19.6704596!4d78.5395986!16s%2Fg%2F1tcz6sjz!19sChIJNwPQd3Rc0jsRsWKfSOcfxj0?authuser=0&hl=en&rclk=1,"19.670459599999997,78.53959859999999"
Masjid-e-Rahmania,Mosque,"MG5H+P96 Masjid-e-Rahmania, Dasnapur, Sapthagiri Colony, chaitanyapuri, Adilabad, Telangana 504001","Dasnapur, Sapthagiri Colony, chaitanyapuri",MG5H+P96,Adilabad,504001,Telangana,IN,https://www.google.com/maps/place/Masjid-e-Rahmania/data=!4m7!3m6!1s0x3bd25c643f4fdb2f:0xa503fe99bb42906e!8m2!3d19.6592958!4d78.5283772!16s%2Fg%2F1w2ysb6c!19sChIJL9tPP2Rc0jsRbpBCu5n-A6U?authuser=0&hl=en&rclk=1,"19.6592958,78.5283772"
Masjid-e-Firdous,Mosque,"MG6G+978 Masjid-e-Firdous, Rickshaw Colony, Adilabad, Telangana 504001",Rickshaw Colony,MG6G+978,Adilabad,504001,Telangana,IN,https://www.google.com/maps/place/Masjid-e-Firdous/data=!4m7!3m6!1s0x3bd25c6379b59d8d:0x6f222369871ef4cd!8m2!3d19.6609205!4d78.525713!16s%2Fg%2F11b6tqg984!19sChIJjZ21eWNc0jsRzfQeh2kjIm8?authuser=0&hl=en&rclk=1,"19.6609205,78.525713"
Masjid-E-Taneem,Mosque,"MG8P+GJ2 Masjid-E-Taneem, Shanti Nagar, Adilabad, Telangana 504001",Shanti Nagar,MG8P+GJ2,Adilabad,504001,Telangana,IN,https://www.google.com/maps/place/Masjid-E-Taneem/data=!4m7!3m6!1s0x3bd25c7196951817:0xe1695f659d337d7!8m2!3d19.6662707!4d78.5365283!16s%2Fg%2F11c52zx1f3!19sChIJFxiVlnFc0jsR1zfTWfaVFg4?authuser=0&hl=en&rclk=1,"19.6662707,78.5365283"
Masjid-e-Irfan,Place of worship,"Masjid-e-Irfan, Irfan Colony, Irfan Nagar Colony, Kagaznagar, Telangana 504296",Irfan Nagar Colony,Irfan Colony,Kagaznagar,504296,Telangana,IN,https://www.google.com/maps/place/Masjid-e-Irfan/data=!4m7!3m6!1s0x3a2d56aa90d4eb1b:0xf69dc4d8b2934690!8m2!3d19.355791!4d79.4712658!16s%2Fg%2F1ptwyyk68!19sChIJG-vUkKpWLToRkEaTstjEnfY?authuser=0&hl=en&rclk=1,"19.355791,79.4712658"
Masjid_E_Quba,Mosque,"Masjid_E_Quba, 2-5-216, beside Masjid E Quba Khila, Mohalla Badh, Adilabad, Telangana 504001",Mohalla Badh,"2-5-216, beside Masjid E Quba Khila",Adilabad,504001,Telangana,IN,https://www.google.com/maps/place/Masjid_E_Quba/data=!4m7!3m6!1s0x3bd25bedeaaaaaab:0xe29f9a411d92289b!8m2!3d19.6793188!4d78.5406475!16s%2Fg%2F11bwkvtnj8!19sChIJq6qq6u1b0jsRmyiSHUGan-I?authuser=0&hl=en&rclk=1,"19.6793188,78.54064749999999"
Masjid-e-Huda,Mosque,"Masjid-e-Huda, opp. Bus Stand, Asifabad, Telangana 504293",,opp. Bus Stand,Asifabad,,Telangana,IN,https://www.google.com/maps/place/Masjid-e-Huda/data=!4m7!3m6!1s0x3bd2ac1c5f823685:0x442868b52a3ced5e!8m2!3d19.3620003!4d79.2942735!16s%2Fg%2F11bw7cz2mz!19sChIJhTaCXxys0jsRXu08KrVoKEQ?authuser=0&hl=en&rclk=1,"19.3620003,79.2942735"
Masjid e Khadim,Mosque,"974W+GHR Masjid e Khadim, Asifabad, Telangana 504293",,974W+GHR,Asifabad,504293,Telangana,IN,https://www.google.com/maps/place/Masjid+e+Khadim/data=!4m7!3m6!1s0x3bd2ac0487a9f291:0x6fbe7074c3de740b!8m2!3d19.3563518!4d79.2964018!16s%2Fg%2F11cjj61r0q!19sChIJkfKphwSs0jsRC3Tew3Rwvm8?authuser=0&hl=en&rclk=1,"19.3563518,79.2964018"
Madina Masjid mdynh msjd,Mosque,"MGCJ+GX8 Madina Masjid mdynh msjd, Netaji Chowk Rd, Ponnar, Bhuktapur, Telangana 504001",Ponnar,"MGCJ+GX8, Netaji Chowk Rd",Bhuktapur,504001,Telangana,IN,https://www.google.com/maps/place/Madina+Masjid+%D9%85%D8%AF%DB%8C%D9%86%DB%81+%D9%85%D8%B3%D8%AC%D8%AF%E2%80%AD/data=!4m7!3m6!1s0x3bd25c7742dd0b05:0xf2fb259a889bfa78!8m2!3d19.6712846!4d78.5324561!16s%2Fg%2F11fzzxxq7l!19sChIJBQvdQndc0jsRePqbiJol-_I?authuser=0&hl=en&rclk=1,"19.6712846,78.53245609999999"
Masjid e Sahaba & Madarsa Tahfiz ul Quraan,Mosque,"Masjid e Sahaba & Madarsa Tahfiz ul Quraan, NAWAZISH NAGAR, Asifabad, Telangana 504293",,NAWAZISH NAGAR,Asifabad,504293,Telangana,IN,https://www.google.com/maps/place/Masjid+e+Sahaba+%26+Madarsa+Tahfiz+ul+Quraan/data=!4m7!3m6!1s0x3bd2aea7c6631baf:0x62b87d4b00422aba!8m2!3d19.3598125!4d79.2883125!16s%2Fg%2F113dzbrlr!19sChIJrxtjxqeu0jsRuipCAEt9uGI?authuser=0&hl=en&rclk=1,"19.3598125,79.28831249999999"
Muhammadiya Masjid,Mosque,"MG29+X76 Muhammadiya Masjid, Ramnagar Colony, Adilabad, Telangana 504001",Ramnagar Colony,MG29+X76,Adilabad,504001,Telangana,IN,https://www.google.com/maps/place/Muhammadiya+Masjid/data=!4m7!3m6!1s0x3bd25c8ad95e1f51:0xc9001b8ca6d7fd64!8m2!3d19.6524043!4d78.5181462!16s%2Fg%2F11cn7qqr7d!19sChIJUR9e2Ypc0jsRZP3XpowbAMk?authuser=0&hl=en&rclk=1,"19.6524043,78.51814619999999"
Fathima Masjid,Mosque,"MGFF+676 Fathima Masjid, Sanjay Nagar, Adilabad, Telangana 504001",Sanjay Nagar,MGFF+676,Adilabad,504001,Telangana,IN,https://www.google.com/maps/place/Fathima+Masjid/data=!4m7!3m6!1s0x3bd25c7fa619132f:0x3fc5279c8cd8c162!8m2!3d19.6730467!4d78.5231404!16s%2Fg%2F11g65c9p2q!19sChIJLxMZpn9c0jsRYsHYjJwnxT8?authuser=0&hl=en&rclk=1,"19.6730467,78.5231404"
MASJID-E-Bilal,Mosque,"MGHQ+H25 MASJID-E-Bilal, Adilabad - Nagpur Rd, Panjesha, Adilabad, Telangana 504001",Panjesha,"MGHQ+H25, Adilabad - Nagpur Rd",Adilabad,504001,Telangana,IN,https://www.google.com/maps/place/MASJID-E-Bilal/data=!4m7!3m6!1s0x3bd25b89846e6659:0x31ee36077b20474f!8m2!3d19.6788851!4d78.5375982!16s%2Fg%2F11gclzc6pn!19sChIJWWZuhIlb0jsRT0cgewc27jE?authuser=0&hl=en&rclk=1,"19.6788851,78.53759819999999"
JAMA MASJID SULTANGUDA,Mosque,"C2RR+XGF JAMA MASJID SULTANGUDA, Sultanguda, Kerimeri, Adilabad, Telangana 504313",Sultanguda,C2RR+XGF,"Kerimeri, Adilabad",,Telangana,IN,https://www.google.com/maps/place/JAMA+MASJID+SULTANGUDA/data=!4m7!3m6!1s0x3bd2bd475cdd2b39:0x2b52fccf2d27bcc0!8m2!3d19.4424339!4d79.0413029!16s%2Fg%2F11d_5drtt9!19sChIJOSvdXEe90jsRwLwnLc_8Uis?authuser=0&hl=en&rclk=1,"19.442433899999997,79.04130289999999"
MASJID E MAHEBOOB E SUBHANI ( Markaz e Ahle Sunnat ),Mosque,"MASJID E MAHEBOOB E SUBHANI ( Markaz e Ahle Sunnat ), Sanjay Nagar, Adilabad, Telangana 504001",Sanjay Nagar,,Adilabad,504001,Telangana,IN,https://www.google.com/maps/place/MASJID+E+MAHEBOOB+E+SUBHANI+%28+Markaz+e+Ahle+Sunnat+%29/data=!4m7!3m6!1s0x3bd25c7cd0000001:0xe56e990e56fe962c!8m2!3d19.6669356!4d78.5213162!16s%2Fg%2F11c2kk77hk!19sChIJAQAA0Hxc0jsRLJb-Vg6ZbuU?authuser=0&hl=en&rclk=1,"19.6669356,78.5213162"
Masjid e Noor,Mosque,"976M+99C Masjid e Noor, Asifabad, Telangana 504293",,976M+99C,Asifabad,504293,Telangana,IN,https://www.google.com/maps/place/Masjid+e+Noor/data=!4m7!3m6!1s0x3bd2aea5cbc568eb:0x5aed9b5568109c20!8m2!3d19.3609381!4d79.283388!16s%2Fg%2F11cjj4r8cv!19sChIJ62jFy6Wu0jsRIJwQaFWb7Vo?authuser=0&hl=en&rclk=1,"19.3609381,79.283388"
Masjid Badar,Mosque,"MG8C+44M Masjid Badar, Rickshaw Colony, Adilabad, Telangana 504001",Rickshaw Colony,MG8C+44M,Adilabad,504001,Telangana,IN,https://www.google.com/maps/place/Masjid+Badar/data=!4m7!3m6!1s0x3bd25c878e7870c1:0x8e24c92e23dce198!8m2!3d19.6653455!4d78.5202985!16s%2Fg%2F11bbrlytdq!19sChIJwXB4jodc0jsRmOHcIy7JJI4?authuser=0&hl=en&rclk=1,"19.6653455,78.5202985"
ILAHIYA MASJID,Mosque,"MGMH+97P ILAHIYA MASJID, Indira Nagar Rd, Bhagya Nagar, Adilabad, Telangana 504001",Bhagya Nagar,"MGMH+97P, Indira Nagar Rd",Adilabad,504001,Telangana,IN,https://www.google.com/maps/place/ILAHIYA+MASJID/data=!4m7!3m6!1s0x3bd25b8444ebd13f:0xe27cf6a1114241d4!8m2!3d19.6834654!4d78.5282048!16s%2Fg%2F11fzfhsmc2!19sChIJP9HrRIRb0jsR1EFCEaH2fOI?authuser=0&hl=en&rclk=1,"19.6834654,78.5282048"
Masjid e Bilala,Mosque,"Masjid e Bilala, Adilabad-Asifabad Rd, Jainoor, Telangana 504313",,Adilabad-Asifabad Rd,Jainoor,504313,Telangana,IN,https://www.google.com/maps/place/Masjid+e+Bilala/data=!4m7!3m6!1s0x3bd29bb7204a9e0f:0x706dab2553f72b79!8m2!3d19.3750134!4d78.9120455!16s%2Fg%2F11f6qq3rwz!19sChIJD55KILeb0jsReSv3UyWrbXA?authuser=0&hl=en&rclk=1,"19.3750134,78.91204549999999"
Masjid E-munawar,Mosque,"MGHG+WFR Masjid E-munawar, Indira Nagar, Bhagya Nagar, Adilabad, Telangana 504001","Indira Nagar, Bhagya Nagar",MGHG+WFR,Adilabad,504001,Telangana,IN,https://www.google.com/maps/place/Masjid+E-munawar/data=!4m7!3m6!1s0x3bd25b814a89a5d1:0x13757a533e5d9127!8m2!3d19.6798716!4d78.5261472!16s%2Fg%2F11g5_f9f2n!19sChIJ0aWJSoFb0jsRJ5FdPlN6dRM?authuser=0&hl=en&rclk=1,"19.6798716,78.5261472"
Masjid-e-hanfia,Mosque,"MGPM+2C4 Masjid-e-hanfia, Kranti Nagar, Gandhi Nagar, Adilabad, Telangana 504001","Kranti Nagar, Gandhi Nagar",MGPM+2C4,Adilabad,504001,Telangana,IN,https://www.google.com/maps/place/Masjid-e-hanfia/data=!4m7!3m6!1s0x3bd25b8fa218f2e1:0x18f2829bdf51eaf4!8m2!3d19.6850231!4d78.5335857!16s%2Fg%2F11dd_qtmkm!19sChIJ4fIYoo9b0jsR9OpR35uC8hg?authuser=0&hl=en&rclk=1,"19.6850231,78.5335857"
Masjid-E- Rahimaniya,Mosque,"MGRR+5G5 Masjid-E- Rahimaniya, Tirupally, Adilabad, Telangana 504001",Tirupally,MGRR+5G5,Adilabad,504001,Telangana,IN,https://www.google.com/maps/place/Masjid-E-+Rahimaniya/data=!4m7!3m6!1s0x3bd25ba3e27d5519:0x3ff2f3403e845bff!8m2!3d19.6903884!4d78.5413572!16s%2Fg%2F11gmblynz2!19sChIJGVV94qNb0jsR_1uEPkDz8j8?authuser=0&hl=en&rclk=1,"19.6903884,78.5413572"
Masjid e Yaseen,Mosque,"Masjid e Yaseen, opp. Jail, Jankapur, Asifabad, Telangana 504293",Jankapur,opp. Jail,Asifabad,504293,Telangana,IN,https://www.google.com/maps/place/Masjid+e+Yaseen/data=!4m7!3m6!1s0x3bd2ae9ef5cade0b:0xa80f60e413fdcad2!8m2!3d19.374471!4d79.2873049!16s%2Fg%2F11cjpfh3jq!19sChIJC97K9Z6u0jsR0sr9E-RgD6g?authuser=0&hl=en&rclk=1,"19.374471,79.2873049"
Masjid E IBrahimiya,Mosque,"Masjid E IBrahimiya, Shanti Nagar, Adilabad, Telangana 504001",Shanti Nagar,,Adilabad,504001,Telangana,IN,https://www.google.com/maps/place/Masjid+E+IBrahimiya/data=!4m7!3m6!1s0x3bd25d44b0027dc7:0x5b9c582e308fceb0!8m2!3d19.6688451!4d78.5432386!16s%2Fg%2F11flbsbk92!19sChIJx30CsERd0jsRsM6PMC5YnFs?authuser=0&hl=en&rclk=1,"19.6688451,78.5432386"
Eid-Gah Adilabad,Mosque,"MGFH+76M Eid-Gah Adilabad, Vidya Nagar, Adilabad, Telangana 504001",Vidya Nagar,MGFH+76M,Adilabad,504001,Telangana,IN,https://www.google.com/maps/place/Eid-Gah+Adilabad/data=!4m7!3m6!1s0x3bd25dc51f70cbab:0xb53df29e2fcc553b!8m2!3d19.6732088!4d78.5280509!16s%2Fg%2F11rd28b2_c!19sChIJq8twH8Vd0jsRO1XML57yPbU?authuser=0&hl=en&rclk=1,"19.673208799999998,78.5280509"
Masjid-E-Zohra,Mosque,"Masjid-E-Zohra, Masjid-E- Zohra, Ambedkar Nagar, Khanapur, Telangana 504001",Ambedkar Nagar,Masjid-E- Zohra,Khanapur,504001,Telangana,IN,https://www.google.com/maps/place/Masjid-E-Zohra/data=!4m7!3m6!1s0x3bd25dbaced23b33:0xe16af2c30b24656!8m2!3d19.6729258!4d78.5447961!16s%2Fg%2F11j000cqb1!19sChIJMzvSzrpd0jsRVkayMCyvFg4?authuser=0&hl=en&rclk=1,"19.672925799999998,78.5447961"
MASJID E IBRAHIMIA,Mosque,"MASJID E IBRAHIMIA, 2-5-275/1, tirpally, Adilabad, Telangana 504001",tirpally,2-5-275/1,Adilabad,504001,Telangana,IN,https://www.google.com/maps/place/MASJID+E+IBRAHIMIA/data=!4m7!3m6!1s0x3bd25b8b6628a527:0x550e60c0cd80575a!8m2!3d19.6814941!4d78.5416637!16s%2Fg%2F11f15jwjc0!19sChIJJ6UoZotb0jsRWleAzcBgDlU?authuser=0&hl=en&rclk=1,"19.6814941,78.5416637"
Masjid,Mosque,"V6MR+V66 Masjid, Ankathipally, Telangana 504215",,V6MR+V66,Ankathipally,504215,Telangana,IN,https://www.google.com/maps/place/Masjid/data=!4m7!3m6!1s0x3bcd49bdc216284d:0x350592a99ce08e14!8m2!3d18.8846738!4d79.2405227!16s%2Fg%2F11h2hhxpqs!19sChIJTSgWwr1JzTsRFI7gnKmSBTU?authuser=0&hl=en&rclk=1,"18.884673799999998,79.2405227"
Noori Masjid,Mosque,"3F8M+CFJ Noori Masjid, Bellampalle, Kannal Rural, Telangana 504251",,3F8M+CFJ,"Bellampalle, Kannal Rural",504251,Telangana,IN,https://www.google.com/maps/place/Noori+Masjid/data=!4m7!3m6!1s0x3a32b184aa02b33f:0x94aeef8bbc03886b!8m2!3d19.0660901!4d79.4836267!16s%2Fg%2F11tmz9bq51!19sChIJP7MCqoSxMjoRa4gDvIvvrpQ?authuser=0&hl=en&rclk=1,"19.0660901,79.4836267"
Masjid-e-Khadijah,Mosque,"974R+XWR Masjid-e-Khadijah, Asifabad, Telangana 504293",,974R+XWR,Asifabad,504293,Telangana,IN,https://www.google.com/maps/place/Masjid-e-Khadijah/data=!4m7!3m6!1s0x3bd2ad43aa7c3d41:0xceb45b62869910bb!8m2!3d19.3574779!4d79.2922524!16s%2Fg%2F11sshd34_9!19sChIJQT18qkOt0jsRuxCZhmJbtM4?authuser=0&hl=en&rclk=1,"19.3574779,79.2922524"
Masjid-E-ibraheem bin abbas,Mosque,"MGGX+2JV Masjid-E-ibraheem bin abbas, Ambedkar Nagar, Adilabad, Telangana 504001",Ambedkar Nagar,MGGX+2JV,Adilabad,504001,Telangana,IN,https://www.google.com/maps/place/Masjid-E-ibraheem+bin+abbas/data=!4m7!3m6!1s0x3bd25dca817e57db:0x80929612f281e68c!8m2!3d19.6751132!4d78.5490388!16s%2Fg%2F11jz2dzlg7!19sChIJ21d-gcpd0jsRjOaB8hKWkoA?authuser=0&hl=en&rclk=1,"19.6751132,78.54903879999999"
Makkah Masjid,Mosque,"JGVP+75 Makkah Masjid, Khoja Colony, Adilabad, Telangana 504001",Khoja Colony,JGVP+75,Adilabad,504001,Telangana,IN,https://www.google.com/maps/place/Makkah+Masjid/data=!4m7!3m6!1s0x3bd25d02ee832577:0x98776ac946be5479!8m2!3d19.6431637!4d78.5353692!16s%2Fg%2F11r_wlfhm2!19sChIJdyWD7gJd0jsReVS-Rslqd5g?authuser=0&hl=en&rclk=1,"19.6431637,78.53536919999999"
Madeena Masjid,Mosque,"89F9+473 Madeena Masjid, SH1, Khairgaon, Telangana 504292",,"89F9+473, SH1",Khairgaon,,Telangana,IN,https://www.google.com/maps/place/Madeena+Masjid/data=!4m7!3m6!1s0x3bd2ab55de777551:0xd86d0f49d393c93f!8m2!3d19.3227714!4d79.3681607!16s%2Fg%2F11gwm9j8f5!19sChIJUXV33lWr0jsRP8mT00kPbdg?authuser=0&hl=en&rclk=1,"19.3227714,79.36816069999999"
Thumpalli Muslim colony,Mosque,"976V+Q6C Thumpalli Muslim colony, Asifabad, Telangana 504293",,976V+Q6C,Asifabad,504293,Telangana,IN,https://www.google.com/maps/place/Thumpalli+Muslim+colony/data=!4m7!3m6!1s0x3bd2ad06cba3abe5:0x931a22a7c0a7a4f6!8m2!3d19.3619289!4d79.2930146!16s%2Fg%2F11twtx7brp!19sChIJ5aujywat0jsR9qSnwKciGpM?authuser=0&hl=en&rclk=1,"19.3619289,79.29301459999999"
Ansar masjid,Mosque,"9F5J+7W4 Ansar masjid, Kagaznagar, Telangana 504296",,9F5J+7W4,Kagaznagar,504296,Telangana,IN,https://www.google.com/maps/place/Ansar+masjid/data=!4m7!3m6!1s0x3a2d57b977fdbe6d:0x6960a1717e731215!8m2!3d19.3581456!4d79.4823339!16s%2Fg%2F11rsc1y_tg!19sChIJbb79d7lXLToRFRJzfnGhYGk?authuser=0&hl=en&rclk=1,"19.3581456,79.4823339"
MOHAMMADIA MASJID,Mosque,"FMVC+JFR MOHAMMADIA MASJID, Heerapur, Indervelly, Telangana",,"FMVC+JFR, Heerapur",Indervelly,,Telangana,IN,https://www.google.com/maps/place/MOHAMMADIA+MASJID/data=!4m7!3m6!1s0x3bd289c55f8ff47d:0x2d649ece3f38847e!8m2!3d19.494116!4d78.6711451!16s%2Fg%2F11fcnd7c7s!19sChIJffSPX8WJ0jsRfoQ4P86eZC0?authuser=0&hl=en&rclk=1,"19.494115999999998,78.67114509999999"
