name,main_category,address,address_ward,address_street,address_city,address_postal_code,address_state,address_country_code,link,coordinates
Masjid Noori,Mosque,"V6W5+3MQ Masjid Noori, Bangarmau, Uttar Pradesh 209868",,V6W5+3MQ,Bangarmau,209868,Uttar Pradesh,IN,https://www.google.com/maps/place/Masjid+Noori/data=!4m7!3m6!1s0x399e83c77a6091b1:0x7300936b8cb3b5b6!8m2!3d26.8952165!4d80.2092458!16s%2Fg%2F11b70gg6gw!19sChIJsZFgeseDnjkRtrWzjGuTAHM?authuser=0&hl=en&rclk=1,"26.8952165,80.20924579999999"
Gulam Mustafa Masjid,Place of worship,"V6V6+C8F Gulam Mustafa Masjid, gulam mustafa, Bangarmau",,"V6V6+C8F, gulam mustafa",Bangarmau,,Uttar Pradesh,IN,https://www.google.com/maps/place/Gulam+Mustafa+Masjid/data=!4m7!3m6!1s0x399e83b86c336b17:0x6e9aeb7bc5370c83!8m2!3d26.8935723!4d80.210787!16s%2Fg%2F11bttcps4k!19sChIJF2szbLiDnjkRgww3xXvrmm4?authuser=0&hl=en&rclk=1,"26.8935723,80.210787"
Makka Masjid Bangarmau,Mosque,"V6Q5+V24 Makka Masjid Bangarmau, Bhikhari Pur Kasba, Uttar Pradesh 209868",,V6Q5+V24,Bhikhari Pur Kasba,209868,Uttar Pradesh,IN,https://www.google.com/maps/place/Makka+Masjid+Bangarmau/data=!4m7!3m6!1s0x399e83c85ab2392d:0x2bd73569808287df!8m2!3d26.8896407!4d80.2075633!16s%2Fg%2F11c6cfn5n8!19sChIJLTmyWsiDnjkR34eCgGk11ys?authuser=0&hl=en&rclk=1,"26.889640699999998,80.20756329999999"
SheeshMahal Masjid Bangarmau,Mosque,"V6Q4+VFP SheeshMahal Masjid Bangarmau, Bhikhari Pur Kasba, Uttar Pradesh 209868",,V6Q4+VFP,Bhikhari Pur Kasba,209868,Uttar Pradesh,IN,https://www.google.com/maps/place/SheeshMahal+Masjid+Bangarmau/data=!4m7!3m6!1s0x399e83c8ee70ef7b:0xdd9d6cf27d77a00!8m2!3d26.8897014!4d80.2062128!16s%2Fg%2F11g8794gdt!19sChIJe-9w7siDnjkRAHrXJ8_W2Q0?authuser=0&hl=en&rclk=1,"26.8897014,80.2062128"
Jama Masjid,Mosque,"V6Q7+XCX Jama Masjid, Naunihal Ganj, Bhatpuri, Mau, Uttar Pradesh 209868","Naunihal Ganj, Bhatpuri",V6Q7+XCX,Mau,209868,Uttar Pradesh,IN,https://www.google.com/maps/place/Jama+Masjid/data=!4m7!3m6!1s0x399e83b710c7dc01:0x79b814b3602fa732!8m2!3d26.8899807!4d80.2136117!16s%2Fg%2F1q67dg2vy!19sChIJAdzHELeDnjkRMqcvYLMUuHk?authuser=0&hl=en&rclk=1,"26.8899807,80.2136117"
Shaikh Auliya Masjid,Mosque,"W627+33F Shaikh Auliya Masjid, Bagermao Rural, Uttar Pradesh 209868",,W627+33F,Bagermao Rural,209868,Uttar Pradesh,IN,https://www.google.com/maps/place/Shaikh+Auliya+Masjid/data=!4m7!3m6!1s0x399e83befd763145:0x1a86aa07f0817735!8m2!3d26.9001962!4d80.2126669!16s%2Fg%2F11f3v08c4n!19sChIJRTF2_b6DnjkRNXeB8Aeqhho?authuser=0&hl=en&rclk=1,"26.9001962,80.2126669"
Mohammadi Masjid,Mosque,"V6W5+GV5 Mohammadi Masjid, Bangarmau, Uttar Pradesh 209868",,V6W5+GV5,Bangarmau,209868,Uttar Pradesh,IN,https://www.google.com/maps/place/Mohammadi+Masjid/data=!4m7!3m6!1s0x399e83c75feda321:0xd2d15046314c7b5e!8m2!3d26.8962514!4d80.2097252!16s%2Fg%2F11c3s95vxg!19sChIJIaPtX8eDnjkRXntMMUZQ0dI?authuser=0&hl=en&rclk=1,"26.896251399999997,80.2097252"
New Masjid,Mosque,"V6Q8+5M5 New Masjid, Unnamed Road, Bangarmau, Mau, Uttar Pradesh 209868",,"V6Q8+5M5, Unnamed Road","Bangarmau, Mau",209868,Uttar Pradesh,IN,https://www.google.com/maps/place/New+Masjid/data=!4m7!3m6!1s0x399e83b16abbabcf:0x1ae7c766591505b3!8m2!3d26.8878859!4d80.2167424!16s%2Fg%2F11gfg_cxq3!19sChIJz6u7arGDnjkRswUVWWbH5xo?authuser=0&hl=en&rclk=1,"26.887885899999997,80.2167424"
Resham Masjid,Mosque,"V6V5+CX3 Resham Masjid, Bangarmau, Uttar Pradesh 209868",,V6V5+CX3,Bangarmau,209868,Uttar Pradesh,IN,https://www.google.com/maps/place/Resham+Masjid/data=!4m7!3m6!1s0x399e83b875bd8ddb:0xb2f23d7fef4f89e2!8m2!3d26.8935119!4d80.2099113!16s%2Fg%2F11bxc5z5mr!19sChIJ2429dbiDnjkR4olP73898rI?authuser=0&hl=en&rclk=1,"26.8935119,80.2099113"
Noori Masjid (Hatiya),Mosque,"V6V6+F87 Noori Masjid (Hatiya), gulam mustafa, Bangarmau, Uttar Pradesh 209868",,"V6V6+F87, gulam mustafa",Bangarmau,209868,Uttar Pradesh,IN,https://www.google.com/maps/place/Noori+Masjid+%28Hatiya%29/data=!4m7!3m6!1s0x399e83b86c191185:0xbc0705aac5f9812c!8m2!3d26.8936635!4d80.2107954!16s%2Fg%2F11f542nz7z!19sChIJhREZbLiDnjkRLIH5xaoFB7w?authuser=0&hl=en&rclk=1,"26.8936635,80.2107954"
Shahi Masjid,Mosque,"V6P7+W7F Shahi Masjid, Allampur Retwa, Uttar Pradesh 209868",,V6P7+W7F,Allampur Retwa,209868,Uttar Pradesh,IN,https://www.google.com/maps/place/Shahi+Masjid/data=!4m7!3m6!1s0x399e83b68dd7abd5:0xd0599a1703e8ebca!8m2!3d26.8873119!4d80.2131678!16s%2Fg%2F11f3v31c6v!19sChIJ1avXjbaDnjkRyuvoAxeaWdA?authuser=0&hl=en&rclk=1,"26.8873119,80.2131678"
Arfi Masjid Ahle Sunnat Wal Jamat,Mosque,"V6R8+545 Arfi Masjid Ahle Sunnat Wal Jamat, Mau, Uttar Pradesh 209868",,V6R8+545,Mau,209868,Uttar Pradesh,IN,https://www.google.com/maps/place/Arfi+Masjid+Ahle+Sunnat+Wal+Jamat/data=!4m7!3m6!1s0x399e832f8de066e7:0x89a9085ce997c1ab!8m2!3d26.890395!4d80.2153636!16s%2Fg%2F11ls576pz2!19sChIJ52bgjS-DnjkRq8GX6VwIqYk?authuser=0&hl=en&rclk=1,"26.890394999999998,80.2153636"
Masjid-e-Yasiniya,Mosque,"V6R5+96X Masjid-e-Yasiniya, Bangarmau, Uttar Pradesh 209868",,V6R5+96X,Bangarmau,209868,Uttar Pradesh,IN,https://www.google.com/maps/place/Masjid-e-Yasiniya/data=!4m7!3m6!1s0x399e83d4a5cb7309:0x5b049a741458eca3!8m2!3d26.8909989!4d80.2081149!16s%2Fg%2F11ll4458d1!19sChIJCXPLpdSDnjkRo-xYFHSaBFs?authuser=0&hl=en&rclk=1,"26.8909989,80.2081149"
Hussaini Masjid Gualm Mustafa,Mosque,"V6V7+R2P Hussaini Masjid Gualm Mustafa, Bagermao Rural, Uttar Pradesh 209868",,V6V7+R2P,Bagermao Rural,209868,Uttar Pradesh,IN,https://www.google.com/maps/place/Hussaini+Masjid+Gualm+Mustafa/data=!4m7!3m6!1s0x399e836f03c45113:0x740f6606c52ebebe!8m2!3d26.8945987!4d80.2125864!16s%2Fg%2F11fb0vvyhn!19sChIJE1HEA2-DnjkRvr4uxQZmD3Q?authuser=0&hl=en&rclk=1,"26.8945987,80.21258639999999"
bddii msjid,Mosque,"V6R7+M36 bddii msjid, Naunihal Ganj, jogiikott, Bangarmau, Uttar Pradesh 209868","Naunihal Ganj, jogiikott",V6R7+M36,Bangarmau,,Uttar Pradesh,IN,https://www.google.com/maps/place/%E0%A4%AC%E0%A4%A1%E0%A5%80+%E0%A4%AE%E0%A4%B8%E0%A5%8D%E0%A4%9C%E0%A4%BF%E0%A4%A6/data=!4m7!3m6!1s0x399e8362bf8eec5b:0x75f442cc1764fce7!8m2!3d26.8916643!4d80.212655!16s%2Fg%2F11gm70n0p7!19sChIJW-yOv2KDnjkR5_xkF8xC9HU?authuser=0&hl=en&rclk=1,"26.8916643,80.212655"
"Masjid Muqariyana, Bangarmau",Mosque,"V6R6+PXJ Masjid Muqariyana, Bangarmau, Naunihal Ganj, Bhatpuri, Bangarmau, Uttar Pradesh 209868","Naunihal Ganj, Bhatpuri",V6R6+PXJ,Bangarmau,209868,Uttar Pradesh,IN,"https://www.google.com/maps/place/Masjid+Muqariyana,+Bangarmau/data=!4m7!3m6!1s0x399e83b76919ba7b:0x7526e958660a2df7!8m2!3d26.8918478!4d80.2123831!16s%2Fg%2F11mtlng7mg!19sChIJe7oZabeDnjkR9y0KZljpJnU?authuser=0&hl=en&rclk=1","26.891847799999997,80.2123831"
Sunni masjid bangarmau,Mosque,"V6R7+2J3 Sunni masjid bangarmau, Bangarmau, Mau, Uttar Pradesh 209868",,V6R7+2J3,"Bangarmau, Mau",,Uttar Pradesh,IN,https://www.google.com/maps/place/Sunni+masjid+bangarmau/data=!4m7!3m6!1s0x399e833a850eb1e9:0x745b9db4e2d244c!8m2!3d26.8900187!4d80.2140503!16s%2Fg%2F11kb1_2zqt!19sChIJ6bEOhTqDnjkRTCQtTtu5RQc?authuser=0&hl=en&rclk=1,"26.8900187,80.2140503"
Nayi Masjid,Mosque,"V6V5+MGJ Nayi Masjid, Bangarmau, Uttar Pradesh 209868",,V6V5+MGJ,Bangarmau,209868,Uttar Pradesh,IN,https://www.google.com/maps/place/Nayi+Masjid/data=!4m7!3m6!1s0x399e835cb81f8e6f:0xf1aca6d8bd5eb34!8m2!3d26.8937579!4d80.2088253!16s%2Fg%2F11smgll2zz!19sChIJb44fuFyDnjkRNOvVi23KGg8?authuser=0&hl=en&rclk=1,"26.893757899999997,80.2088253"
Abu Baqr Masjid,Mosque,"Abu Baqr Masjid, 4, SH 38, Naunihal Ganj, Bhatpuri, Bangarmau, Uttar Pradesh 209868","Naunihal Ganj, Bhatpuri","4, SH 38",Bangarmau,209868,Uttar Pradesh,IN,https://www.google.com/maps/place/Abu+Baqr+Masjid/data=!4m7!3m6!1s0x399e83b82a74330b:0x33cc8d68c2da9d10!8m2!3d26.8920748!4d80.2124423!16s%2Fg%2F11c1xcf6p4!19sChIJCzN0KriDnjkREJ3awmiNzDM?authuser=0&hl=en&rclk=1,"26.8920748,80.21244229999999"
AHLE SUNNAT MASJID,Mosque,"V6R7+2J8 AHLE SUNNAT MASJID, MOHALLA GADHI NEAR ALVI COMPLEX, DIST, Bangarmau, Uttar Pradesh 241501",,"V6R7+2J8, MOHALLA GADHI NEAR ALVI COMPLEX, DIST","Bangarmau, Mau",241501,Uttar Pradesh,IN,https://www.google.com/maps/place/AHLE+SUNNAT+MASJID/data=!4m7!3m6!1s0x399e83eb54b5131d:0x56ef0b453737dc3!8m2!3d26.8900288!4d80.2140783!16s%2Fg%2F11j3r_5gcw!19sChIJHRO1VOuDnjkRw31zU7TwbgU?authuser=0&hl=en&rclk=1,"26.8900288,80.2140783"
