name,main_category,address,address_ward,address_street,address_city,address_postal_code,address_state,address_country_code,link,coordinates
Bade Khan Gazi Masjid - Sunni Hanafi,Mosque,"FWVQ+2GW Bade Khan Gazi Masjid - Sunni Hanafi, Motiganj, Manikhamb, Balasore, Gopalgoan, Odisha 756001","Motiganj, Manikhamb",FWVQ+2GW,"Balasore, Gopalgoan",756001,Odisha,IN,https://www.google.com/maps/place/Bade+Khan+Gazi+Masjid+-+Sunni+Hanafi/data=!4m7!3m6!1s0x3a1cf500e6ef3d51:0xfe6bf04f4373d217!8m2!3d21.4926096!4d86.9388287!16s%2Fg%2F11f0kxnbmp!19sChIJUT3v5gD1HDoRF9JzQ0_wa_4?authuser=0&hl=en&rclk=1,"21.492609599999998,86.9388287"
Eidgah Masjid - Sunni Hanafi,Mosque,"GW2G+PWP Eidgah Masjid - Sunni Hanafi, Vivekanand Marg, Balasore, Gopalgoan, Odisha 756001",Balasore,"GW2G+PWP, Vivekanand Marg",Gopalgoan,756001,Odisha,IN,https://www.google.com/maps/place/Eidgah+Masjid+-+Sunni+Hanafi/data=!4m7!3m6!1s0x3a1cf5a3f7984467:0xc90b3822680d8350!8m2!3d21.5018272!4d86.9273404!16s%2Fg%2F11bwghlph0!19sChIJZ0SY96P1HDoRUIMNaCI4C8k?authuser=0&hl=en&rclk=1,"21.501827199999997,86.92734039999999"
Arad Bazar Masjid - Sunni Masjid,Mosque,"Arad Bazar Masjid - Sunni Masjid, Arad Bazaar Rd, Arad Bazar, Balia, Balasore, Gopalgoan, Odisha 756001","Arad Bazar, Balia",Arad Bazaar Rd,"Balasore, Gopalgoan",756001,Odisha,IN,https://www.google.com/maps/place/Arad+Bazar+Masjid+-+Sunni+Masjid/data=!4m7!3m6!1s0x3a1cf5bcef284b05:0x2659d3f1a4489af7!8m2!3d21.5087222!4d86.9256875!16s%2Fg%2F11c2pwkb8b!19sChIJBUso77z1HDoR95pIpPHTWSY?authuser=0&hl=en&rclk=1,"21.508722199999998,86.9256875"
Quadri Rizvi Masjid - Sunni Hanafi,Mosque,"GW6H+R56 Quadri Rizvi Masjid - Sunni Hanafi, Lalbahadur Shastri Marg, Arad Bazar, Balia, Balasore, Gopalgoan, Odisha 756001","Arad Bazar, Balia","GW6H+R56, Lalbahadur Shastri Marg","Balasore, Gopalgoan",756001,Odisha,IN,https://www.google.com/maps/place/Quadri+Rizvi+Masjid+-+Sunni+Hanafi/data=!4m7!3m6!1s0x3a1cf5bbf03c4eab:0xeded579d01c895ab!8m2!3d21.5120414!4d86.9278923!16s%2Fg%2F11c2lr3m6x!19sChIJq0488Lv1HDoRq5XIAZ1X7e0?authuser=0&hl=en&rclk=1,"21.512041399999998,86.9278923"
Khawaja Bagh Masjid - Sunni Hanafi,Mosque,"FWPX+5W6 Khawaja Bagh Masjid - Sunni Hanafi, Mallikashpur, Balasore, Gopalgoan, Odisha 756002",Mallikashpur,FWPX+5W6,"Balasore, Gopalgoan",756002,Odisha,IN,https://www.google.com/maps/place/Khawaja+Bagh+Masjid+-+Sunni+Hanafi/data=!4m7!3m6!1s0x3a1cf4fb1c56bb3f:0x1a11f2920b512072!8m2!3d21.4854096!4d86.9497734!16s%2Fg%2F1pyqvjr_q!19sChIJP7tWHPv0HDoRciBRC5LyERo?authuser=0&hl=en&rclk=1,"21.4854096,86.9497734"
Farooqi Masjid - Tablighi Jamaat (Sunni Hanafi),Mosque,"FXQ2+88M Farooqi Masjid - Tablighi Jamaat (Sunni Hanafi), Puruna Balasore Rd, Mallikashpur, Balasore, Gopalgoan, Odisha 756002",Mallikashpur,"FXQ2+88M, Puruna Balasore Rd","Balasore, Gopalgoan",756002,Odisha,IN,https://www.google.com/maps/place/Farooqi+Masjid+-+Tablighi+Jamaat+%28Sunni+Hanafi%29/data=!4m7!3m6!1s0x3a1cf4fa3b064afb:0x508dda49b9678065!8m2!3d21.4883274!4d86.9507869!16s%2Fg%2F11bwysgpsr!19sChIJ-0oGO_r0HDoRZYBnuUnajVA?authuser=0&hl=en&rclk=1,"21.4883274,86.9507869"
Boro Mosque,Mosque,"FWMR+RCC Boro Mosque, Mallikashpur, Balasore, Taziabad, Odisha 756002",Mallikashpur,FWMR+RCC,"Balasore, Taziabad",756002,Odisha,IN,https://www.google.com/maps/place/Boro+Mosque/data=!4m7!3m6!1s0x3a1cf502ea1f6133:0xeae5958402dc7074!8m2!3d21.4845639!4d86.941019!16s%2Fg%2F1pyqhc5p4!19sChIJM2Ef6gL1HDoRdHDcAoSV5eo?authuser=0&hl=en&rclk=1,"21.484563899999998,86.941019"
Jama Masjid Balasore - Sunni Hanafi,Mosque,"FWHX+JMH Jama Masjid Balasore - Sunni Hanafi, Mallikashpur, Balasore, Hidigan, Odisha 756002",Mallikashpur,FWHX+JMH,"Balasore, Hidigan",756002,Odisha,IN,https://www.google.com/maps/place/Jama+Masjid+Balasore+-+Sunni+Hanafi/data=!4m7!3m6!1s0x3a1cf4e447cb1c4d:0xb0694a1a03b828ca!8m2!3d21.4790668!4d86.9492294!16s%2Fg%2F1pyqkz0wg!19sChIJTRzLR-T0HDoRyii4AxpKabA?authuser=0&hl=en&rclk=1,"21.4790668,86.9492294"
Qalandari Masjid,Mosque,"FWWV+FVX Qalandari Masjid, Manikhamb, Balasore, Gopalgoan, Odisha 756003",Manikhamb,FWWV+FVX,"Balasore, Gopalgoan",756003,Odisha,IN,https://www.google.com/maps/place/Qalandari+Masjid/data=!4m7!3m6!1s0x3a1cf4557416ad8d:0xc3ac945e2ffd60d0!8m2!3d21.4962398!4d86.9447292!16s%2Fg%2F11bw5zkf_9!19sChIJja0WdFX0HDoR0GD9L16UrMM?authuser=0&hl=en&rclk=1,"21.496239799999998,86.9447292"
Dargha Mosque,Mosque,"FWQW+PQW Dargha Mosque, Puruna Balasore Rd, Old Balasore, Balasore, Gopalgoan, Odisha 756002",Old Balasore,"FWQW+PQW, Puruna Balasore Rd","Balasore, Gopalgoan",756002,Odisha,IN,https://www.google.com/maps/place/Dargha+Mosque/data=!4m7!3m6!1s0x3a1cf4fea834ed89:0xd75083544be17c6d!8m2!3d21.4893583!4d86.9469641!16s%2Fg%2F11bwggm7z5!19sChIJie00qP70HDoRbXzhS1SDUNc?authuser=0&hl=en&rclk=1,"21.4893583,86.9469641"
Masjid Sha Baba Mosque,Mosque,"FXQ2+34H Masjid Sha Baba Mosque, Khaira, Balasore, Gopalgoan, Odisha 756002",Khaira,FXQ2+34H,"Balasore, Gopalgoan",756002,Odisha,IN,https://www.google.com/maps/place/Masjid+Sha+Baba+Mosque/data=!4m7!3m6!1s0x3a1cf4fa493d2c23:0x67d4a659fa71850a!8m2!3d21.4876983!4d86.9503739!16s%2Fg%2F1pyqvr818!19sChIJIyw9Sfr0HDoRCoVx-lmm1Gc?authuser=0&hl=en&rclk=1,"21.487698299999998,86.9503739"
Abdulah Khalifa Masjid - Sunni Hanafi,Mosque,"FWQV+2WH Abdulah Khalifa Masjid - Sunni Hanafi, Motigang Rd, Mallikashpur, Gopalgoan, Odisha 756002",Mallikashpur,"FWQV+2WH, Motigang Rd",Gopalgoan,756002,Odisha,IN,https://www.google.com/maps/place/Abdulah+Khalifa+Masjid+-+Sunni+Hanafi/data=!4m7!3m6!1s0x3a1cf4fc15440de5:0x20a7e1ad27f9def7!8m2!3d21.4875505!4d86.9448553!16s%2Fg%2F1pyql0t47!19sChIJ5Q1EFfz0HDoR9975J63hpyA?authuser=0&hl=en&rclk=1,"21.487550499999998,86.9448553"
Amtaz Masjid - Sunni Hanafi,Mosque,"FWVQ+2GP Amtaz Masjid - Sunni Hanafi, Manikhamb, Balasore, Gopalgoan, Odisha 756001",Manikhamb,FWVQ+2GP,"Balasore, Gopalgoan",756001,Odisha,IN,https://www.google.com/maps/place/Amtaz+Masjid+-+Sunni+Hanafi/data=!4m7!3m6!1s0x3a1cf5011dfffed9:0x6befe5c893b0529!8m2!3d21.4925887!4d86.938832!16s%2Fg%2F1pyqs1mdq!19sChIJ2f7_HQH1HDoRKQU7iVz-vgY?authuser=0&hl=en&rclk=1,"21.4925887,86.93883199999999"
"BALIA SUNNI MASJID, BALASORE",Mosque,"FWW2+RGM BALIA SUNNI MASJID, BALASORE, Artung, Balia, Balasore, Baleshwar, Odisha 756019","Artung, Balia",FWW2+RGM,"Balasore, Baleshwar",756019,Odisha,IN,"https://www.google.com/maps/place/BALIA+SUNNI+MASJID,+BALASORE/data=!4m7!3m6!1s0x3a1c5f2b9ac04d19:0xadaaf94e8b6e632d!8m2!3d21.4969721!4d86.9008624!16s%2Fg%2F11tmdhtfgh!19sChIJGU3AmitfHDoRLWNui075qq0?authuser=0&hl=en&rclk=1","21.4969721,86.9008624"
Shams-ud-Daulah Mosque,Mosque,"FWMR+RCX Shams-ud-Daulah Mosque, Masjid Ln, Mallikashpur, Balasore, Taziabad, Odisha 756002",Mallikashpur,"FWMR+RCX, Masjid Ln","Balasore, Taziabad",756002,Odisha,IN,https://www.google.com/maps/place/Shams-ud-Daulah+Mosque/data=!4m7!3m6!1s0x3a1cf5930a6381cb:0x17a12cd640056f9c!8m2!3d21.4846004!4d86.9411076!16s%2Fg%2F11g0gncn6k!19sChIJy4FjCpP1HDoRnG8FQNYsoRc?authuser=0&hl=en&rclk=1,"21.484600399999998,86.9411076"
Jama Masjid msjd,Mosque,"FWMW+P69 Jama Masjid msjd, Ushamerh Rd, Sunhat, Mallikashpur, Balasore, Gopalgoan, Odisha 756002","Sunhat, Mallikashpur","FWMW+P69, Ushamerh Rd","Balasore, Gopalgoan",756002,Odisha,IN,https://www.google.com/maps/place/Jama+Masjid+%D9%85%D8%B3%D8%AC%D8%AF%E2%80%AD/data=!4m7!3m6!1s0x3a1cf4fcc4eb8859:0x6037e12e24b9f93e!8m2!3d21.484294!4d86.9456073!16s%2Fg%2F11hbv9y_cb!19sChIJWYjrxPz0HDoRPvm5JC7hN2A?authuser=0&hl=en&rclk=1,"21.484294,86.94560729999999"
Bait un Noor Masjid,Mosque,"GW6H+7RG Bait un Noor Masjid, Lalbahadur Shastri Marg, Manikhamb, Balasore, Gopalgoan, Odisha 756001",Manikhamb,"GW6H+7RG, Lalbahadur Shastri Marg","Balasore, Gopalgoan",756001,Odisha,IN,https://www.google.com/maps/place/Bait+un+Noor+Masjid/data=!4m7!3m6!1s0x3a1cf5a68271c133:0xfc89654b89455a01!8m2!3d21.510676!4d86.9295895!16s%2Fg%2F11fnx6w2vm!19sChIJM8Fxgqb1HDoRAVpFiUtlifw?authuser=0&hl=en&rclk=1,"21.510676,86.92958949999999"
Kazhi Sahi Masjid,Mosque,"FWVR+9CG Kazhi Sahi Masjid, Suelpur, Motiganj","Motiganj, Manikhamb","FWVR+9CG, Suelpur",Gopalgoan,,Odisha,IN,https://www.google.com/maps/place/Kazhi+Sahi+Masjid/data=!4m7!3m6!1s0x3a1cf5091b6f9b45:0x9ac6304afe6bfce0!8m2!3d21.4934361!4d86.9410861!16s%2Fg%2F11hmrm3hj4!19sChIJRZtvGwn1HDoR4Pxr_kowxpo?authuser=0&hl=en&rclk=1,"21.4934361,86.94108609999999"
Fulwar masjid,Religious destination,"FWV7+89X Fulwar masjid, Artung, Balia, Balasore, Odisha 756001","Artung, Balia",FWV7+89X,Balasore,,Odisha,IN,https://www.google.com/maps/place/Fulwar+masjid/data=!4m7!3m6!1s0x3a1cf5e4649a949b:0x401288b0da6ed17!8m2!3d21.4933578!4d86.9134794!16s%2Fg%2F11jt380pyn!19sChIJm5SaZOT1HDoRF-2mDYsoAQQ?authuser=0&hl=en&rclk=1,"21.4933578,86.9134794"
binnaabaaid uttrpaarraa jaame msjid,Mosque,"FWPF+QVC binnaabaaid uttrpaarraa jaame msjid, Pragati Nagar, Mallikashpur, Balasore, Odisha 756001","Pragati Nagar, Mallikashpur",FWPF+QVC,Balasore,,Odisha,IN,https://www.google.com/maps/place/%E0%A6%AC%E0%A6%BF%E0%A6%A8%E0%A7%8D%E0%A6%A8%E0%A6%BE%E0%A6%AC%E0%A6%BE%E0%A6%87%E0%A6%A6+%E0%A6%89%E0%A6%A4%E0%A7%8D%E0%A6%A4%E0%A6%B0%E0%A6%AA%E0%A6%BE%E0%A7%9C%E0%A6%BE+%E0%A6%9C%E0%A6%BE%E0%A6%AE%E0%A7%87+%E0%A6%AE%E0%A6%B8%E0%A6%9C%E0%A6%BF%E0%A6%A6/data=!4m7!3m6!1s0x3a1cf51bea35d103:0x50674c39f1b24632!8m2!3d21.4869254!4d86.9246557!16s%2Fg%2F11h3x4zctg!19sChIJA9E16hv1HDoRMkay8TlMZ1A?authuser=0&hl=en&rclk=1,"21.4869254,86.9246557"
