name,main_category,address,address_ward,address_street,address_city,address_postal_code,address_state,address_country_code,link,coordinates
Valiya Juma Masjid,Mosque,"QWHF+F98 Valiya Juma Masjid, Malappuram, Ponnani, Kerala 679577",Malappuram,QWHF+F98,Ponnani,679577,Kerala,IN,https://www.google.com/maps/place/Valiya+Juma+Masjid/data=!4m7!3m6!1s0x3ba7bb17e475eb8d:0x796ba6c591a838f9!8m2!3d10.7786592!4d75.9234649!16s%2Fg%2F1tvm15zr!19sChIJjet15Be7pzsR-TiokcWma3k?authuser=0&hl=en&rclk=1,"10.7786592,75.9234649"
PONNANI ZIYARATH PALLY,Mosque,"PONNANI ZIYARATH PALLY, South, Ponnani, Kerala 679586",,South,Ponnani,679586,Kerala,IN,https://www.google.com/maps/place/PONNANI+ZIYARATH+PALLY/data=!4m7!3m6!1s0x3ba7bb6b99639221:0x20212812bdcb7759!8m2!3d10.7748712!4d75.9405178!16s%2Fg%2F11ggs4g03x!19sChIJIZJjmWu7pzsRWXfLvRIoISA?authuser=0&hl=en&rclk=1,"10.7748712,75.9405178"
Kuttikkad Juma Masjid,Mosque,"QWQQ+XVW Kuttikkad Juma Masjid, kuttikkadu, Ponnani, Kerala 679577",Kuttadu,"QWQQ+XVW, kuttikkadu",Ponnani,679577,Kerala,IN,https://www.google.com/maps/place/Kuttikkad+Juma+Masjid/data=!4m7!3m6!1s0x3ba7bb01f515b621:0xbca43c4826b43adb!8m2!3d10.7899958!4d75.9396944!16s%2Fg%2F11cmsjfxng!19sChIJIbYV9QG7pzsR2zq0Jkg8pLw?authuser=0&hl=en&rclk=1,"10.7899958,75.9396944"
"Maramuttam Juma Masjidh, Purangu.",Mosque,"QW3X+5JQ Maramuttam Juma Masjidh, Purangu., Ponnani, Kerala 679579",,QW3X+5JQ,Ponnani,,Kerala,IN,"https://www.google.com/maps/place/Maramuttam+Juma+Masjidh,+Purangu./data=!4m7!3m6!1s0x3ba7bb8181f34b31:0x371e79c4f9ce4f09!8m2!3d10.7529501!4d75.9491208!16s%2Fg%2F11gg91bxfl!19sChIJMUvzgYG7pzsRCU_O-cR5Hjc?authuser=0&hl=en&rclk=1","10.7529501,75.9491208"
Masjid Ummu Mariyam (Ponnani Thableeg Markaz),Mosque,"QWFF+8FG Masjid Ummu Mariyam (Ponnani Thableeg Markaz), Mukkadi, Ponnani, Kerala",Malappuram,"QWFF+8FG, Mukkadi",Ponnani,,Kerala,IN,https://www.google.com/maps/place/Masjid+Ummu+Mariyam+%28Ponnani+Thableeg+Markaz%29/data=!4m7!3m6!1s0x3ba7bb15f0438385:0x87fa0fae40307dee!8m2!3d10.773304!4d75.9237!16s%2Fg%2F11g6bg5qyt!19sChIJhYND8BW7pzsR7n0wQK4P-oc?authuser=0&hl=en&rclk=1,"10.773304,75.9237"
North Juma Masjid,Mosque,"North Juma Masjid, NH17, Old NH 17, Keezhillam, Ponnani, Kerala 679586",Keezhillam,"NH17, Old NH 17",Ponnani,679586,Kerala,IN,https://www.google.com/maps/place/North+Juma+Masjid/data=!4m7!3m6!1s0x3ba7bb637fa9ed61:0x6bf52cfe42771151!8m2!3d10.7524524!4d75.9319562!16s%2Fg%2F1tczyz04!19sChIJYe2pf2O7pzsRURF3Qv4s9Ws?authuser=0&hl=en&rclk=1,"10.7524524,75.9319562"
Muhyidheen Sunni Juma Masjid,Mosque,"Muhyidheen Sunni Juma Masjid, Avikulam Road, Old NH 17, Malappuram, Ponnani, Kerala 679577",Malappuram,"Avikulam Road, Old NH 17",Ponnani,679577,Kerala,IN,https://www.google.com/maps/place/Muhyidheen+Sunni+Juma+Masjid/data=!4m7!3m6!1s0x3ba7bb22e234736f:0x9fc591a1935baaf8!8m2!3d10.7812298!4d75.920359!16s%2Fg%2F11g9nrjw71!19sChIJb3M04iK7pzsR-Kpbk6GRxZ8?authuser=0&hl=en&rclk=1,"10.7812298,75.92035899999999"
Masjid Noor kottathara,Mosque,"QXW2+JMM Masjid Noor kottathara, kottathara, Ponnani, Kerala",,"QXW2+JMM, kottathara",Ponnani,,Kerala,IN,https://www.google.com/maps/place/Masjid+Noor+kottathara/data=!4m7!3m6!1s0x3ba7ba53f7081f75:0x1b4319e37da1f08b!8m2!3d10.7965952!4d75.9516711!16s%2Fg%2F11d_bwr2h8!19sChIJdR8I91O6pzsRi_ChfeMZQxs?authuser=0&hl=en&rclk=1,"10.796595199999999,75.9516711"
Thottungal Juma Masjid,Mosque,"QWMC+FP5 Thottungal Juma Masjid, Malappuram, Ponnani, Kerala 679577",Malappuram,QWMC+FP5,Ponnani,679577,Kerala,IN,https://www.google.com/maps/place/Thottungal+Juma+Masjid/data=!4m7!3m6!1s0x3ba7bb226b2cbc69:0x919e28863cc2497c!8m2!3d10.7836353!4d75.9218538!16s%2Fg%2F1tj566bc!19sChIJabwsayK7pzsRfEnCPIYonpE?authuser=0&hl=en&rclk=1,"10.7836353,75.9218538"
Kanhiramukku Juma Masjid,Mosque,"QXG7+R4G Kanhiramukku Juma Masjid, Kanhiramukku - Biyyam Rd, Ponnani, Kerala 679576",,"QXG7+R4G, Kanhiramukku - Biyyam Rd",Ponnani,679576,Kerala,IN,https://www.google.com/maps/place/Kanhiramukku+Juma+Masjid/data=!4m7!3m6!1s0x3ba7bbbbe8fd66b3:0xfb399f3d38c2aa36!8m2!3d10.7770639!4d75.9628356!16s%2Fg%2F11g65g3pq0!19sChIJs2b96Lu7pzsRNqrCOD2fOfs?authuser=0&hl=en&rclk=1,"10.7770639,75.96283559999999"
Misri Masjid,Mosque,"QWHF+42P Misri Masjid, Malappuram, Ponnani, Kerala 679577",Malappuram,QWHF+42P,Ponnani,679577,Kerala,IN,https://www.google.com/maps/place/Misri+Masjid/data=!4m7!3m6!1s0x3ba7bb3d668267bd:0xde367bcc9a56b1bb!8m2!3d10.7778491!4d75.9225759!16s%2Fg%2F1tgnq2d1!19sChIJvWeCZj27pzsRu7FWmsx7Nt4?authuser=0&hl=en&rclk=1,"10.7778491,75.9225759"
Masjid U Taqwa,Mosque,"QWHC+P3V Masjid U Taqwa, Malappuram, Ponnani, Kerala 679577",Malappuram,QWHC+P3V,Ponnani,679577,Kerala,IN,https://www.google.com/maps/place/Masjid+U+Taqwa/data=!4m7!3m6!1s0x3ba7bb3cd563bc4d:0x9ab3b97e565c3cfe!8m2!3d10.7793715!4d75.9201714!16s%2Fg%2F1thk_8q_!19sChIJTbxj1Ty7pzsR_jxcVn65s5o?authuser=0&hl=en&rclk=1,"10.7793715,75.9201714"
Kundukadavu Masjid,Mosque,"QX62+PV3 Kundukadavu Masjid, Purangu, Ponnani, Kerala 679579",Purangu,QX62+PV3,Ponnani,679579,Kerala,IN,https://www.google.com/maps/place/Kundukadavu+Masjid/data=!4m7!3m6!1s0x3ba7bb9b806534f1:0x742419ba8d842964!8m2!3d10.7617594!4d75.9521753!16s%2Fg%2F11g5_f2wsl!19sChIJ8TRlgJu7pzsRZCmEjboZJHQ?authuser=0&hl=en&rclk=1,"10.761759399999999,75.9521753"
"Hajiyar Juma Masjid, Kadavanad",Mosque,"PWXM+GV8 Hajiyar Juma Masjid, Kadavanad, Panvel - Kochi - Kanyakumari Hwy, Ponnani, Kerala 679584",,"PWXM+GV8, Panvel - Kochi - Kanyakumari Hwy",Ponnani,679584,Kerala,IN,"https://www.google.com/maps/place/Hajiyar+Juma+Masjid,+Kadavanad/data=!4m7!3m6!1s0x3ba7bb62cb53e1b5:0x2cd83489f005b1a0!8m2!3d10.7487928!4d75.934689!16s%2Fg%2F11c57nyp37!19sChIJteFTy2K7pzsRoLEF8Ik02Cw?authuser=0&hl=en&rclk=1","10.7487928,75.93468899999999"
M.S.S. Masjid,Mosque,"QWGQ+VPM M.S.S. Masjid, Barlikkulam, Ponnani, Kerala",Keezhillam,"QWGQ+VPM, Barlikkulam",Ponnani,,Kerala,IN,https://www.google.com/maps/place/M.S.S.+Masjid/data=!4m7!3m6!1s0x3ba7bb0edc2f95df:0xaae9ce450a075e37!8m2!3d10.7772012!4d75.9392897!16s%2Fg%2F11g6x9zgtw!19sChIJ35Uv3A67pzsRN14HCkXO6ao?authuser=0&hl=en&rclk=1,"10.7772012,75.9392897"
Hillar Juma Masjid,Mosque,"QW6F+FMP Hillar Juma Masjid, Nibras, Ponnani, Kerala 679584",Nibras,QW6F+FMP,Ponnani,679584,Kerala,IN,https://www.google.com/maps/place/Hillar+Juma+Masjid/data=!4m7!3m6!1s0x3ba7bb69c660c013:0xca05be2497a0787c!8m2!3d10.7612172!4d75.9242069!16s%2Fg%2F1hm3qgbn6!19sChIJE8Bgxmm7pzsRfHiglyS-Bco?authuser=0&hl=en&rclk=1,"10.761217199999999,75.9242069"
Valiya jaram ponnnani,Mosque,"QWHC+J78 Valiya jaram ponnnani, Malappuram, Ponnani, Kerala 679577",Malappuram,QWHC+J78,Ponnani,679577,Kerala,IN,https://www.google.com/maps/place/Valiya+jaram+ponnnani/data=!4m7!3m6!1s0x3ba7bb5936da75f1:0x79021fba45f74cd!8m2!3d10.779028!4d75.9207087!16s%2Fg%2F11hzsv6rhw!19sChIJ8XXaNlm7pzsRzXRfpPshkAc?authuser=0&hl=en&rclk=1,"10.779028,75.92070869999999"
Ziyarath Masjid,Mosque,"QWFG+P4X Ziyarath Masjid, JM Road, Malappuram, Ponnani, Kerala 679577",Malappuram,"QWFG+P4X, JM Road",Ponnani,679577,Kerala,IN,https://www.google.com/maps/place/Ziyarath+Masjid/data=!4m7!3m6!1s0x3ba7bb1679d31aa1:0xac613067194b666f!8m2!3d10.7743628!4d75.925371!16s%2Fg%2F11g8nnrwkp!19sChIJoRrTeRa7pzsRb2ZLGWcwYaw?authuser=0&hl=en&rclk=1,"10.774362799999999,75.925371"
Masjid Noor Ponnani,Mosque,"QW8F+XXP Masjid Noor Ponnani, Nibras, Ponnani, Kerala 679577",Nibras,QW8F+XXP,Ponnani,679577,Kerala,IN,https://www.google.com/maps/place/Masjid+Noor+Ponnani/data=!4m7!3m6!1s0x3ba7bb6ad13eae39:0x70a4d68969b349b3!8m2!3d10.7674525!4d75.9249631!16s%2Fg%2F11gcltb4yc!19sChIJOa4-0Wq7pzsRs0mzaYnWpHA?authuser=0&hl=en&rclk=1,"10.7674525,75.9249631"
Mujahid Masjid,Mosque,"QWJC+MM5 Mujahid Masjid, Malappuram, Ponnani, Kerala 679577",Malappuram,QWJC+MM5,Ponnani,679577,Kerala,IN,https://www.google.com/maps/place/Mujahid+Masjid/data=!4m7!3m6!1s0x3ba7bb228d6a308d:0x8865b4d4e3e1c444!8m2!3d10.7816395!4d75.9217454!16s%2Fg%2F11c2nhctsb!19sChIJjTBqjSK7pzsRRMTh49S0ZYg?authuser=0&hl=en&rclk=1,"10.781639499999999,75.92174539999999"
Karukathiruthi Salafi Masjid (slphi msjid),Mosque,"QW8X+H58 Karukathiruthi Salafi Masjid (slphi msjid), Valavu Centre, Guruvayur - Althara - Ponnani Rd, Kerala 679586",,"QW8X+H58, Valavu Centre, Guruvayur - Althara - Ponnani Rd",,679586,Kerala,IN,https://www.google.com/maps/place/Karukathiruthi+Salafi+Masjid+%28%E0%B4%B8%E0%B4%B2%E0%B4%AB%E0%B4%BF+%E0%B4%AE%E0%B4%B8%E0%B5%8D%E0%B4%9C%E0%B4%BF%E0%B4%A6%E0%B5%8D%29/data=!4m7!3m6!1s0x3ba7bb099f6d09f3:0x7fefa932b06806d6!8m2!3d10.7664241!4d75.9479425!16s%2Fg%2F11fjy4j8tv!19sChIJ8wltnwm7pzsR1gZosDKp738?authuser=0&hl=en&rclk=1,"10.7664241,75.9479425"
Salafi Masjid - MES Ponnani College,Mosque,"Salafi Masjid - MES Ponnani College, Main Block, Campus, Nibras, Ponnani, Kerala 679577",Nibras,"Main Block, Campus",Ponnani,679577,Kerala,IN,https://www.google.com/maps/place/Salafi+Masjid+-+MES+Ponnani+College/data=!4m7!3m6!1s0x3ba7bb6a45ed23a3:0xc00927ac71e52bef!8m2!3d10.7648612!4d75.9253027!16s%2Fg%2F11f552xthp!19sChIJoyPtRWq7pzsR7yvlcawnCcA?authuser=0&hl=en&rclk=1,"10.7648612,75.9253027"
Ansar Masjid,Mosque,"QWJ9+8PM Ansar Masjid, Malappuram, Ponnani, Kerala 679577",Malappuram,QWJ9+8PM,Ponnani,679577,Kerala,IN,https://www.google.com/maps/place/Ansar+Masjid/data=!4m7!3m6!1s0x3ba7bb231645be87:0x9932d93aaee61b3a!8m2!3d10.7808361!4d75.9193093!16s%2Fg%2F1x5f8s_1!19sChIJh75FFiO7pzsROhvmrjrZMpk?authuser=0&hl=en&rclk=1,"10.7808361,75.9193093"
Salam Masjid,Mosque,"QWPW+FVP Salam Masjid, Kuttadu, Ponnani, Kerala 679586",Kuttadu,QWPW+FVP,Ponnani,679586,Kerala,IN,https://www.google.com/maps/place/Salam+Masjid/data=!4m7!3m6!1s0x3ba7bbaa1d78cb09:0xa192ecfcff837e33!8m2!3d10.7862172!4d75.9472168!16s%2Fg%2F11c5_dkg17!19sChIJCct4Haq7pzsRM36D__zskqE?authuser=0&hl=en&rclk=1,"10.7862172,75.94721679999999"
Chanthappadi Juma Masjid,Mosque,"QWJP+VF9 Chanthappadi Juma Masjid, Chanthappadi Jct Rd, Keezhillam, Ponnani, Kerala 679577",Keezhillam,"QWJP+VF9, Chanthappadi Jct Rd",Ponnani,679577,Kerala,IN,https://www.google.com/maps/place/Chanthappadi+Juma+Masjid/data=!4m7!3m6!1s0x3ba7bbf3cf022ceb:0x97c3c9c24454b263!8m2!3d10.7821547!4d75.9362447!16s%2Fg%2F11h_6dc3t1!19sChIJ6ywCz_O7pzsRY7JURMLJw5c?authuser=0&hl=en&rclk=1,"10.7821547,75.9362447"
Masjid Al Noor,Mosque,"PWXM+566 Masjid Al Noor, Ponnani, Kerala 679584",,PWXM+566,Ponnani,679584,Kerala,IN,https://www.google.com/maps/place/Masjid+Al+Noor/data=!4m7!3m6!1s0x3ba7bb6295c153e9:0xd993d12ff1a36ae3!8m2!3d10.7479173!4d75.9330063!16s%2Fg%2F11d_87t5v9!19sChIJ6VPBlWK7pzsR42qj8S_Rk9k?authuser=0&hl=en&rclk=1,"10.7479173,75.9330063"
Vendipetta Masjid,Mosque,"Vendipetta Masjid, ISS Vendipetta Masjid, Keezhillam, Ponnani, Kerala 679577",Keezhillam,ISS Vendipetta Masjid,Ponnani,679577,Kerala,IN,https://www.google.com/maps/place/Vendipetta+Masjid/data=!4m7!3m6!1s0x3ba7bb183d8cc97f:0x29a31e03553f0e6a!8m2!3d10.7805832!4d75.9245785!16s%2Fg%2F11f552ytdb!19sChIJf8mMPRi7pzsRag4_VQMeoyk?authuser=0&hl=en&rclk=1,"10.780583199999999,75.9245785"
Salafi Masjid,Mosque,"QW9H+5RC Salafi Masjid, Keezhillam, Ponnani, Kerala 679577",Keezhillam,QW9H+5RC,Ponnani,679577,Kerala,IN,https://www.google.com/maps/place/Salafi+Masjid/data=!4m7!3m6!1s0x3ba7bb6b9be07ee5:0x6e0d15a47203d7d3!8m2!3d10.7679259!4d75.9295086!16s%2Fg%2F1ttdlf3r!19sChIJ5X7gm2u7pzsR09cDcqQVDW4?authuser=0&hl=en&rclk=1,"10.7679259,75.92950859999999"
Salafi JumaMasjid ( ponnani South),Mosque,"QW4H+M6H Salafi JumaMasjid ( ponnani South), Kochi - Panvel Highway, Kochi, Kerala 679584",,"QW4H+M6H, Kochi - Panvel Highway",Kochi,679584,Kerala,IN,https://www.google.com/maps/place/Salafi+JumaMasjid+%28+ponnani+South%29/data=!4m7!3m6!1s0x3ba7bb66120c2053:0xfa1993b883e46221!8m2!3d10.7566993!4d75.9281207!16s%2Fg%2F11c5h5ygbl!19sChIJUyAMEma7pzsRIWLkg7iTGfo?authuser=0&hl=en&rclk=1,"10.7566993,75.9281207"
Vadakkanjery Imam shibily masjid,Mosque,"QX42+JJH Vadakkanjery Imam shibily masjid, Ponnani, Kerala 679579",,QX42+JJH,Ponnani,,Kerala,IN,https://www.google.com/maps/place/Vadakkanjery+Imam+shibily+masjid/data=!4m7!3m6!1s0x3ba7bb5114cec717:0x3776c045a11f451c!8m2!3d10.756559!4d75.9516129!16s%2Fg%2F11fln3kmmw!19sChIJF8fOFFG7pzsRHEUfoUXAdjc?authuser=0&hl=en&rclk=1,"10.756559,75.9516129"
Hameediya Juma Masjid Kadavanad,Mosque,"QW5M+323 Hameediya Juma Masjid Kadavanad, JM Road, Ponnani, Kerala 679584",,"QW5M+323, JM Road",Ponnani,679584,Kerala,IN,https://www.google.com/maps/place/Hameediya+Juma+Masjid+Kadavanad/data=!4m7!3m6!1s0x3ba7bb6564a3c291:0x2e08bca297513208!8m2!3d10.7576311!4d75.9325521!16s%2Fg%2F11cs3f5_ch!19sChIJkcKjZGW7pzsRCDJRl6K8CC4?authuser=0&hl=en&rclk=1,"10.7576311,75.9325521"
Punnathiruthi Masjid,Mosque,"QWMQ+CC7 Punnathiruthi Masjid, Kuttikkad Junction, Ponnani, Kerala 679577",Kuttikkad Junction,QWMQ+CC7,Ponnani,679577,Kerala,IN,https://www.google.com/maps/place/Punnathiruthi+Masjid/data=!4m7!3m6!1s0x3ba7bb044efc9537:0xbd943b051b3965fa!8m2!3d10.7835333!4d75.9385611!16s%2Fg%2F11f4qlv5wg!19sChIJN5X8TgS7pzsR-mU5GwU7lL0?authuser=0&hl=en&rclk=1,"10.7835333,75.9385611"
Hamzath Masjid Mukkadi,Mosque,"Hamzath Masjid Mukkadi, Hamzath Masjid, Road, Malappuram, Ponnani, Kerala 679577",Malappuram,"Hamzath Masjid, Road",Ponnani,679577,Kerala,IN,https://www.google.com/maps/place/Hamzath+Masjid+Mukkadi/data=!4m7!3m6!1s0x3ba7bb3214891dd3:0x24320b61ef5211ac!8m2!3d10.7716942!4d75.9225056!16s%2Fg%2F11fwgn6cj3!19sChIJ0x2JFDK7pzsRrBFS72ELMiQ?authuser=0&hl=en&rclk=1,"10.771694199999999,75.9225056"
Thekke palli masjid,Mosque,"QWFF+W7G Thekke palli masjid, Palakkad - Ponnani Rd, Malappuram, Ponnani, Kerala 679577",Malappuram,"QWFF+W7G, Palakkad - Ponnani Rd",Ponnani,679577,Kerala,IN,https://www.google.com/maps/place/Thekke+palli+masjid/data=!4m7!3m6!1s0x3ba7bbfdd8a9b4ff:0x3e25ba79373b3187!8m2!3d10.7748125!4d75.9232018!16s%2Fg%2F11fk9klyhw!19sChIJ_7Sp2P27pzsRhzE7N3m6JT4?authuser=0&hl=en&rclk=1,"10.7748125,75.9232018"
mkhduuN ng khn gh lnwryh,Mosque,"QWHF+G38 mkhduuN ng khn gh lnwryh, Unnamed Road, Malappuram, Ponnani, Kerala 679577",Malappuram,"QWHF+G38, Unnamed Road",Ponnani,679577,Kerala,IN,https://www.google.com/maps/place/%E0%B4%AE%E0%B4%96%E0%B5%8D%E0%B4%A6%E0%B5%82%E0%B4%82+%E0%B4%A8%E0%B4%97%E0%B5%BC+%D8%AE%D8%A7%D9%86+%DA%AF%D8%A7%DB%81+%D8%A7%D9%84%D9%86%D9%88%D8%B1%DB%8C%DB%81%E2%80%AD/data=!4m7!3m6!1s0x3ba7bb41d0651ebb:0xf3193b408e69f566!8m2!3d10.7787978!4d75.9227161!16s%2Fg%2F11fn5slr1x!19sChIJux5l0EG7pzsRZvVpjkA7GfM?authuser=0&hl=en&rclk=1,"10.7787978,75.9227161"
ZIYARATH MASJID PONNANI SOUTH,Mosque,"QW8H+669 ZIYARATH MASJID PONNANI SOUTH, Malappuram, Ponnani, Kerala 679584",Malappuram,QW8H+669,Ponnani,679584,Kerala,IN,https://www.google.com/maps/place/ZIYARATH+MASJID+PONNANI+SOUTH/data=!4m7!3m6!1s0x3ba7bb6b9b275737:0xf4d88ff0297a8b9a!8m2!3d10.7655344!4d75.9281131!16s%2Fg%2F11dz_pr4_h!19sChIJN1cnm2u7pzsRmot6KfCP2PQ?authuser=0&hl=en&rclk=1,"10.7655344,75.92811309999999"
Hajiyar Juma Masjid,Mosque,"QWCG+R8R Hajiyar Juma Masjid, Thekkeppuram, JM Road, Malappuram, Ponnani, Kerala 679577",Malappuram,"QWCG+R8R Thekkeppuram, JM Road",Ponnani,679577,Kerala,IN,https://www.google.com/maps/place/Hajiyar+Juma+Masjid/data=!4m7!3m6!1s0x3ba7bb35606b0bf5:0x55d6f2a74707d055!8m2!3d10.7716056!4d75.9254417!16s%2Fg%2F11h7rq4l1r!19sChIJ9QtrYDW7pzsRVdAHR6fy1lU?authuser=0&hl=en&rclk=1,"10.7716056,75.9254417"
Muhyidheen Musliyar Masjid (Cheru Palli),Mosque,"QW4J+539 Muhyidheen Musliyar Masjid (Cheru Palli), Ponnani, Kerala 679584",,QW4J+539,Ponnani,,Kerala,IN,https://www.google.com/maps/place/Muhyidheen+Musliyar+Masjid+%28Cheru+Palli%29/data=!4m7!3m6!1s0x3ba7bb992a1ef109:0x4f6299949f344131!8m2!3d10.7554034!4d75.9302242!16s%2Fg%2F11jdb92pth!19sChIJCfEeKpm7pzsRMUE0n5SZYk8?authuser=0&hl=en&rclk=1,"10.755403399999999,75.9302242"
Thwaha Masjid,Mosque,"QW5R+HVQ Thwaha Masjid, Ponnani, Kerala 679579",,QW5R+HVQ,Ponnani,679579,Kerala,IN,https://www.google.com/maps/place/Thwaha+Masjid/data=!4m7!3m6!1s0x3ba7bb7766f4e089:0x74ea754b7084c1f0!8m2!3d10.7589512!4d75.9422356!16s%2Fg%2F11csptxzwf!19sChIJieD0Zne7pzsR8MGEcEt16nQ?authuser=0&hl=en&rclk=1,"10.7589512,75.9422356"
Hasrath Bilal Masjid,Mosque,"QWJ9+MG9 Hasrath Bilal Masjid, Malappuram, Ponnani, Kerala 679577",Malappuram,QWJ9+MG9,Ponnani,679577,Kerala,IN,https://www.google.com/maps/place/Hasrath+Bilal+Masjid/data=!4m7!3m6!1s0x3ba7bb230c451d5b:0xcd7ceeb3d674f839!8m2!3d10.7816579!4d75.9188662!16s%2Fg%2F11c5h2_ckn!19sChIJWx1FDCO7pzsROfh01rPufM0?authuser=0&hl=en&rclk=1,"10.781657899999999,75.9188662"
Ponnani Markaz,Mosque,"QWGC+VMJ Ponnani Markaz, Old NH 17, Malappuram, Ponnani, Kerala 679577",Malappuram,"QWGC+VMJ, Old NH 17",Ponnani,679577,Kerala,IN,https://www.google.com/maps/place/Ponnani+Markaz/data=!4m7!3m6!1s0x3ba7bb3d73347d91:0x67229524b0123ae2!8m2!3d10.7772125!4d75.9216539!16s%2Fg%2F11g690d_zz!19sChIJkX00cz27pzsR4joSsCSVImc?authuser=0&hl=en&rclk=1,"10.7772125,75.9216539"
Badar Juma masjid,Mosque,"QWFC+R44 Badar Juma masjid, Unnamed Road, Malappuram, Ponnani, Kerala 679577",Malappuram,"QWFC+R44, Unnamed Road",Ponnani,679577,Kerala,IN,https://www.google.com/maps/place/Badar+Juma+masjid/data=!4m7!3m6!1s0x3ba7bbc036560c43:0xa72a2b06ea992c65!8m2!3d10.7745032!4d75.9203399!16s%2Fg%2F11j09xx878!19sChIJQwxWNsC7pzsRZSyZ6gYrKqc?authuser=0&hl=en&rclk=1,"10.7745032,75.9203399"
Aboobakkar masjid,Mosque,"QWG9+FQH Aboobakkar masjid, Malappuram, Ponnani, Kerala 679577",Malappuram,QWG9+FQH,Ponnani,679577,Kerala,IN,https://www.google.com/maps/place/Aboobakkar+masjid/data=!4m7!3m6!1s0x3ba7bb9cb66e362f:0x9c7fd2bb8e7f601b!8m2!3d10.7761784!4d75.9194715!16s%2Fg%2F11fsnbp28g!19sChIJLzZutpy7pzsRG2B_jrvSf5w?authuser=0&hl=en&rclk=1,"10.7761784,75.9194715"
Theruvath Masjid,Mosque,"QWMC+48X Theruvath Masjid, Malappuram, Ponnani, Kerala 679577",Malappuram,QWMC+48X,Ponnani,679577,Kerala,IN,https://www.google.com/maps/place/Theruvath+Masjid/data=!4m7!3m6!1s0x3ba7bb7722d4da1f:0x5a29c3be9eb624b!8m2!3d10.7828733!4d75.9208448!16s%2Fg%2F11qq0sypj1!19sChIJH9rUIne7pzsRS2Lr6TucogU?authuser=0&hl=en&rclk=1,"10.7828733,75.9208448"
Masjid Da'awa,Mosque,"QWGC+7WX Masjid Da'awa, Old NH 17, Malappuram, Ponnani, Kerala 679577",Malappuram,"QWGC+7WX, Old NH 17",Ponnani,679577,Kerala,IN,https://www.google.com/maps/place/Masjid+Da%27awa/data=!4m7!3m6!1s0x3ba7bb2f0594a22f:0xabdfc55b0578f59!8m2!3d10.775744!4d75.9223495!16s%2Fg%2F11fhrv6wwt!19sChIJL6KUBS-7pzsRWY9XsFX8vQo?authuser=0&hl=en&rclk=1,"10.775744,75.9223495"
Salafi Masjid,Mosque,"QX63+J8P Salafi Masjid, Guruvayur - Althara - Ponnani Rd, Purangu, Ponnani, Kerala 679579",Purangu,"QX63+J8P, Guruvayur - Althara - Ponnani Rd",Ponnani,679579,Kerala,IN,https://www.google.com/maps/place/Salafi+Masjid/data=!4m7!3m6!1s0x3ba7bb9b75c41e29:0xc05f7996e7d37be7!8m2!3d10.7615938!4d75.9533144!16s%2Fg%2F11cr__3694!19sChIJKR7EdZu7pzsR53vT55Z5X8A?authuser=0&hl=en&rclk=1,"10.7615938,75.9533144"
Puthankulam cheriya jaram,Mosque,"QWGF+59G Puthankulam cheriya jaram, Malappuram, Ponnani, Kerala 679577",Malappuram,QWGF+59G,Ponnani,679577,Kerala,IN,https://www.google.com/maps/place/Puthankulam+cheriya+jaram/data=!4m7!3m6!1s0x3ba7bbf29418c24b:0xd706d4d7b1e51252!8m2!3d10.7754328!4d75.923456!16s%2Fg%2F11j0zsmpsh!19sChIJS8IYlPK7pzsRUhLlsdfUBtc?authuser=0&hl=en&rclk=1,"10.775432799999999,75.923456"
Masjid,Mosque,"Masjid, taluk hospital, bus stop, near Ponnani, Nibras, Ponnani, Kerala 679583",Nibras,"taluk hospital, bus stop, near Ponnani",Ponnani,679583,Kerala,IN,https://www.google.com/maps/place/Masjid/data=!4m7!3m6!1s0x3ba7bb5a42da3a05:0xdb3a83a0b4483758!8m2!3d10.769455!4d75.9241858!16s%2Fg%2F11q2j_jhyq!19sChIJBTraQlq7pzsRWDdItKCDOts?authuser=0&hl=en&rclk=1,"10.769454999999999,75.9241858"
msjid nuu,Mosque,"QW8F+XXF msjid nuu, Nibras, Ponnani, Kerala 679577",Nibras,QW8F+XXF,Ponnani,679577,Kerala,IN,https://www.google.com/maps/place/%E0%B4%AE%E0%B4%B8%E0%B5%8D%E0%B4%9C%E0%B4%BF%E0%B4%A6%E0%B5%8D+%E0%B4%A8%E0%B5%82%E0%B5%BC/data=!4m7!3m6!1s0x3ba7bbb0902885d7:0xef1bb6b1a46875a0!8m2!3d10.7674422!4d75.9249288!16s%2Fg%2F11j01bqx3w!19sChIJ14UokLC7pzsRoHVopLG2G-8?authuser=0&hl=en&rclk=1,"10.7674422,75.9249288"
Haidroos masjid,Mosque,"QWJ9+6R6 Haidroos masjid, Malappuram, Ponnani, Kerala 679577",Malappuram,QWJ9+6R6,Ponnani,679577,Kerala,IN,https://www.google.com/maps/place/Haidroos+masjid/data=!4m7!3m6!1s0x3ba7bbc064efce9b:0x3d6e2508eda844e1!8m2!3d10.7805299!4d75.9195275!16s%2Fg%2F11gxtj2fvs!19sChIJm87vZMC7pzsR4USo7Qglbj0?authuser=0&hl=en&rclk=1,"10.7805299,75.9195275"
Mosque MIHSS,Mosque,"QW8G+WFF Mosque MIHSS, Malappuram, Ponnani, Kerala 679577",Malappuram,QW8G+WFF,Ponnani,679577,Kerala,IN,https://www.google.com/maps/place/Mosque+MIHSS/data=!4m7!3m6!1s0x3ba7bbdf775fda47:0xae78f2acbb301b6a!8m2!3d10.7673213!4d75.926176!16s%2Fg%2F11h7slqb4w!19sChIJR9pfd9-7pzsRahswu6zyeK4?authuser=0&hl=en&rclk=1,"10.767321299999999,75.926176"
Makdoomiyya Akathe Palli,Mosque,"QWHF+R79 Makdoomiyya Akathe Palli, JM Road, Malappuram, Ponnani, Kerala 679577",Malappuram,"QWHF+R79, JM Road",Ponnani,679577,Kerala,IN,https://www.google.com/maps/place/Makdoomiyya+Akathe+Palli/data=!4m7!3m6!1s0x3ba7bb9610ee290f:0x9d4647539e62cfc8!8m2!3d10.7795286!4d75.9232209!16s%2Fg%2F11ns7rp6tn!19sChIJDynuEJa7pzsRyM9inlNHRp0?authuser=0&hl=en&rclk=1,"10.779528599999999,75.92322089999999"
Masjid Umarul Farooq,Mosque,"Masjid Umarul Farooq, Keezhillam, Ponnani, Kerala 679577",Keezhillam,,Ponnani,679577,Kerala,IN,https://www.google.com/maps/place/Masjid+Umarul+Farooq/data=!4m7!3m6!1s0x3ba7bbbe0b5bb8bd:0x255e9750ea84047f!8m2!3d10.7816921!4d75.924401!16s%2Fg%2F11fk0mw758!19sChIJvbhbC767pzsRfwSE6lCXXiU?authuser=0&hl=en&rclk=1,"10.781692099999999,75.924401"
HASRATH BILAL MASJID KALATHIL PADI,Mosque,"QW5X+2HM HASRATH BILAL MASJID KALATHIL PADI, Ponnani, Kerala 679579",,QW5X+2HM,Ponnani,,Kerala,IN,https://www.google.com/maps/place/HASRATH+BILAL+MASJID+KALATHIL+PADI/data=!4m7!3m6!1s0x3ba7bbe6e8f2e569:0xb1772c30fb6de60b!8m2!3d10.7575941!4d75.9489193!16s%2Fg%2F11qnjjm792!19sChIJaeXy6Oa7pzsRC-Zt-zAsd7E?authuser=0&hl=en&rclk=1,"10.7575941,75.9489193"
Masjid,Mosque,"QX73+274 Masjid, Guruvayur - Althara - Ponnani Rd, Purangu, Ponnani, Kerala 679583",Purangu,"QX73+274, Guruvayur - Althara - Ponnani Rd",Ponnani,679583,Kerala,IN,https://www.google.com/maps/place/Masjid/data=!4m7!3m6!1s0x3ba7bbfdb0ace5bd:0xa614665de0f448ee!8m2!3d10.7625128!4d75.9532063!16s%2Fg%2F11jrp38hwd!19sChIJveWssP27pzsR7kj04F1mFKY?authuser=0&hl=en&rclk=1,"10.7625128,75.95320629999999"
Canoli masjid,Mosque,"QW9H+5QG Canoli masjid, Keezhillam, Ponnani, Kerala 679577",Keezhillam,QW9H+5QG,Ponnani,679577,Kerala,IN,https://www.google.com/maps/place/Canoli+masjid/data=!4m7!3m6!1s0x3ba7bb10c04cc419:0x16c22dd3aa54f8b7!8m2!3d10.767947!4d75.9294574!16s%2Fg%2F11sxwzbr03!19sChIJGcRMwBC7pzsRt_hUqtMtwhY?authuser=0&hl=en&rclk=1,"10.767947,75.92945739999999"
Thaha Juma Masjid Anappadi,Mosque,"QW6G+6WQ Thaha Juma Masjid Anappadi, Ponnani, Kerala 679584",,QW6G+6WQ,Ponnani,679584,Kerala,IN,https://www.google.com/maps/place/Thaha+Juma+Masjid+Anappadi/data=!4m7!3m6!1s0x3ba7bbe4ea2e29e9:0x65ad8d7ede76638c!8m2!3d10.7599896!4d75.9280021!16s%2Fg%2F11smvcykq7!19sChIJ6Sku6uS7pzsRjGN23n6NrWU?authuser=0&hl=en&rclk=1,"10.759989599999999,75.9280021"
Avaran Masjid,Mosque,"QWJM+P3V Avaran Masjid, Keezhillam, Ponnani, Kerala 679586",Keezhillam,QWJM+P3V,Ponnani,679586,Kerala,IN,https://www.google.com/maps/place/Avaran+Masjid/data=!4m7!3m6!1s0x3ba7bb1aee500001:0x87f7248a24983449!8m2!3d10.7818599!4d75.9326699!16s%2Fg%2F11kj3f8dcg!19sChIJAQBQ7hq7pzsRSTSYJIok94c?authuser=0&hl=en&rclk=1,"10.781859899999999,75.9326699"
Masjid Cheriya Jaram,Mosque,"QWHC+5F5 Masjid Cheriya Jaram, Kozhikode Bypass, Malappuram, Ponnani, Kerala 679577",Malappuram,"QWHC+5F5, Kozhikode Bypass",Ponnani,679577,Kerala,IN,https://www.google.com/maps/place/Masjid+Cheriya+Jaram/data=!4m7!3m6!1s0x3ba7bb4adbccacf1:0x478dd160f65c4e68!8m2!3d10.7778885!4d75.9211511!16s%2Fg%2F11vdt_33gx!19sChIJ8azM20q7pzsRaE5c9mDRjUc?authuser=0&hl=en&rclk=1,"10.7778885,75.9211511"
Vadakkanjery Imam shibily masjid,Mosque,"Vadakkanjery Imam shibily masjid, Purang Maramuttam Maranchery, Kundukadavu - Veliancode Rd, Ponnani, Kerala 679577",,"Purang Maramuttam Maranchery, Kundukadavu - Veliancode Rd",Ponnani,679577,Kerala,IN,https://www.google.com/maps/place/Vadakkanjery+Imam+shibily+masjid/data=!4m7!3m6!1s0x3ba7bdf047164f4d:0x2038caa5d6295706!8m2!3d10.7478826!4d75.9527198!16s%2Fg%2F11qrr6976z!19sChIJTU8WR_C9pzsRBlcp1qXKOCA?authuser=0&hl=en&rclk=1,"10.747882599999999,75.9527198"
Moidu Musliar Masjid(cerruplllli),Mosque,"QW4H+HXP Moidu Musliar Masjid(cerruplllli), Ponnani, Kerala 679584",,QW4H+HXP,Ponnani,,Kerala,IN,https://www.google.com/maps/place/Moidu+Musliar+Masjid%28%E0%B4%9A%E0%B5%86%E0%B4%B1%E0%B5%81%E0%B4%AA%E0%B4%B3%E0%B5%8D%E0%B4%B3%E0%B4%BF%29/data=!4m7!3m6!1s0x3ba7bb5abbd09f23:0xdb19920708984dea!8m2!3d10.7564668!4d75.9299417!16s%2Fg%2F11fhr82d3f!19sChIJI5_Qu1q7pzsR6k2YCAeSGds?authuser=0&hl=en&rclk=1,"10.7564668,75.9299417"
JUMA MASJID-PUZHAMBRAM,Mosque,"QXM5+7P4 JUMA MASJID-PUZHAMBRAM, Ponnani, Kerala 679586",,QXM5+7P4,Ponnani,,Kerala,IN,https://www.google.com/maps/place/JUMA+MASJID-PUZHAMBRAM/data=!4m7!3m6!1s0x3ba7bbfda8568829:0x4be1f03e9ad8acc0!8m2!3d10.7831396!4d75.9593352!16s%2Fg%2F11tdd1wc99!19sChIJKYhWqP27pzsRwKzYmj7w4Us?authuser=0&hl=en&rclk=1,"10.7831396,75.9593352"
Madrasa Mosque Valavu,Mosque,"QW7W+GJM Madrasa Mosque Valavu, Ponnani, Kerala 679586",,QW7W+GJM,Ponnani,679586,Kerala,IN,https://www.google.com/maps/place/Madrasa+Mosque+Valavu/data=!4m7!3m6!1s0x3ba7bb9dfed00001:0x3cbe4d6fa280c5ac!8m2!3d10.7638451!4d75.9465508!16s%2Fg%2F11sscsf4sf!19sChIJAQDQ_p27pzsRrMWAom9Nvjw?authuser=0&hl=en&rclk=1,"10.7638451,75.9465508"
Elaappa masjidh (ellaapp msjiddh ),Mosque,"QWJC+HC5 Elaappa masjidh (ellaapp msjiddh ), Malappuram, Ponnani, Kerala 679577",Malappuram,QWJC+HC5,Ponnani,679577,Kerala,IN,https://www.google.com/maps/place/Elaappa+masjidh+%28%E0%B4%8E%E0%B4%B3%E0%B4%BE%E0%B4%AA%E0%B5%8D%E0%B4%AA+%E0%B4%AE%E0%B4%B8%E0%B5%8D%E0%B4%9C%E0%B4%BF%E0%B4%A6%E0%B5%8D%E0%B4%A7%E0%B5%8D+%29/data=!4m7!3m6!1s0x3ba7bbd48d1af939:0x4de57cc7caa653c7!8m2!3d10.7813797!4d75.9211003!16s%2Fg%2F11qn604zrk!19sChIJOfkajdS7pzsRx1Omysd85U0?authuser=0&hl=en&rclk=1,"10.781379699999999,75.92110029999999"
Salafi Juma masjid Biyyam,Mosque,"QXQ7+H54 Salafi Juma masjid Biyyam, Palakkad - Ponnani Rd, Ponnani, Kerala 679586",,"QXQ7+H54, Palakkad - Ponnani Rd",Ponnani,679586,Kerala,IN,https://www.google.com/maps/place/Salafi+Juma+masjid+Biyyam/data=!4m7!3m6!1s0x3ba7bb3a145abbdd:0x999f2a485ab0fc62!8m2!3d10.7886723!4d75.962992!16s%2Fg%2F11rz2x8xqc!19sChIJ3btaFDq7pzsRYvywWkgqn5k?authuser=0&hl=en&rclk=1,"10.7886723,75.962992"
