name,main_category,address,address_ward,address_street,address_city,address_postal_code,address_state,address_country_code,link,coordinates
Masjid E Mahboobia,Mosque,"38RV+23Q Masjid E Mahboobia, Madina colony, Eidgoan, Nirmal, Telangana 504106",Eidgoan,"38RV+23Q, Madina colony",Nirmal,504106,Telangana,IN,https://www.google.com/maps/place/Masjid+E+Mahboobia/data=!4m7!3m6!1s0x3bcd8c7cc72f32ad:0xc87a1e0f04aa3a5d!8m2!3d19.0900799!4d78.3427318!16s%2Fg%2F11b6njqqlh!19sChIJrTIvx3yMzTsRXTqqBA8eesg?authuser=0&hl=en&rclk=1,"19.0900799,78.3427318"
"Masjid-e-Yahya, Gajulpet",Mosque,"485J+MRG Masjid-e-Yahya, Gajulpet, Gajulpet, Telangana 504106",,485J+MRG,Gajulpet,504106,Telangana,IN,"https://www.google.com/maps/place/Masjid-e-Yahya,+Gajulpet/data=!4m7!3m6!1s0x3bcd8b7bcb59113d:0x9c871539096c8956!8m2!3d19.1091943!4d78.3320753!16s%2Fg%2F11c716w5jr!19sChIJPRFZy3uLzTsRVolsCTkVh5w?authuser=0&hl=en&rclk=1","19.1091943,78.3320753"
Madina Masjid,Mosque,"Madina Masjid, Government Junior College, Bhainsa, Telangana 504103",,Government Junior College,Bhainsa,504103,Telangana,IN,https://www.google.com/maps/place/Madina+Masjid/data=!4m7!3m6!1s0x3bcdfe5aef2fd1e3:0x48c8397dc97ab0f6!8m2!3d19.1096769!4d77.9643594!16s%2Fg%2F11b7w99d4p!19sChIJ49Ev71r-zTsR9rB6yX05yEg?authuser=0&hl=en&rclk=1,"19.1096769,77.96435939999999"
Masjid Panjesha,Mosque,"Masjid Panjesha, masjid, panjesha marg, Bhainsa, Telangana 504103",,"masjid, panjesha marg",Bhainsa,,Telangana,IN,https://www.google.com/maps/place/Masjid+Panjesha/data=!4m7!3m6!1s0x3bcdfe45594b318b:0xa9a4527a0d3bdd4e!8m2!3d19.1114013!4d77.9614446!16s%2Fg%2F11xfvxc4m!19sChIJizFLWUX-zTsRTt07DXpSpKk?authuser=0&hl=en&rclk=1,"19.1114013,77.9614446"
Mohammadia Masjid,Mosque,"38JR+55J Mohammadia Masjid, Adharsha Nagar, Nirmal, Telangana 504106",Adharsha Nagar,38JR+55J,Nirmal,504106,Telangana,IN,https://www.google.com/maps/place/Mohammadia+Masjid/data=!4m7!3m6!1s0x3bcd8c604b0a54d3:0x67084e8473077f46!8m2!3d19.0804551!4d78.340404!16s%2Fg%2F11bzq338xz!19sChIJ01QKS2CMzTsRRn8Hc4ROCGc?authuser=0&hl=en&rclk=1,"19.0804551,78.34040399999999"
Masjid E Mastaniya,Mosque,"38MP+W6H Masjid E Mastaniya, Asra Colony, Adharsha Nagar, Nirmal, Telangana 504106","Asra Colony, Adharsha Nagar",38MP+W6H,Nirmal,504106,Telangana,IN,https://www.google.com/maps/place/Masjid+E+Mastaniya/data=!4m7!3m6!1s0x3bcd8c884b8cf3ad:0xc9b46d1316dfb1a6!8m2!3d19.0848125!4d78.3356094!16s%2Fg%2F11f126_006!19sChIJrfOMS4iMzTsRprHfFhNttMk?authuser=0&hl=en&rclk=1,"19.084812499999998,78.3356094"
Masjid E Bilal Haq,Mosque,"483M+C39 Masjid E Bilal Haq, Nirmal, Gajulpet, Telangana 504106",,"483M+C39, Nirmal",Gajulpet,504106,Telangana,IN,https://www.google.com/maps/place/Masjid+E+Bilal+Haq/data=!4m7!3m6!1s0x3bcd8b7c2b493a63:0xf421e956b0a01151!8m2!3d19.1035383!4d78.3327297!16s%2Fg%2F11dftfsfpm!19sChIJYzpJK3yLzTsRURGgsFbpIfQ?authuser=0&hl=en&rclk=1,"19.1035383,78.3327297"
Eid-Gah,Mosque,"4XC4+J65 Eid-Gah, Palsi Road, Telangana 504103",,"4XC4+J65, Palsi Road",,504103,Telangana,IN,https://www.google.com/maps/place/Eid-Gah/data=!4m7!3m6!1s0x3bcdfe4b41f2b35b:0x49272df21ed88662!8m2!3d19.1215231!4d77.9556209!16s%2Fg%2F11b7lhbkzd!19sChIJW7PyQUv-zTsRYobYHvItJ0k?authuser=0&hl=en&rclk=1,"19.121523099999997,77.9556209"
Masjid-e-Umar Farooq,Mosque,"4X79+M2F Masjid-e-Umar Farooq, Umar Farooq St, Abadi, Bhainsa, Telangana 504103",Abadi,"4X79+M2F, Umar Farooq St",Bhainsa,504103,Telangana,IN,https://www.google.com/maps/place/Masjid-e-Umar+Farooq/data=!4m7!3m6!1s0x3bcdfe50d026f4b3:0x9d2df10fc48b7b47!8m2!3d19.1141962!4d77.9675498!16s%2Fg%2F11c1s1_b43!19sChIJs_Qm0FD-zTsRR3uLxA_xLZ0?authuser=0&hl=en&rclk=1,"19.1141962,77.9675498"
MASJID-E-MOMINAN,Mosque,"4X76+4V9 MASJID-E-MOMINAN, mominan Galli, Siddhartha Nagar, Bhainsa, Telangana 504103",Siddhartha Nagar,"4X76+4V9, mominan Galli",Bhainsa,504103,Telangana,IN,https://www.google.com/maps/place/MASJID-E-MOMINAN/data=!4m7!3m6!1s0x3bcdfe4fe1772615:0x1ea8449dd9031e42!8m2!3d19.1127883!4d77.9622459!16s%2Fg%2F11bymwdg7g!19sChIJFSZ34U_-zTsRQh4D2Z1EqB4?authuser=0&hl=en&rclk=1,"19.1127883,77.9622459"
Masjid-e-Arfath,Mosque,"485P+MVR Masjid-e-Arfath, Gajulpet, Telangana 504106",,485P+MVR,Gajulpet,504106,Telangana,IN,https://www.google.com/maps/place/Masjid-e-Arfath/data=!4m7!3m6!1s0x3bcd8b78f38929b7:0xf1f6598f1f63e972!8m2!3d19.1092323!4d78.3371349!16s%2Fg%2F11g6xq1bxz!19sChIJtymJ83iLzTsRculjH49Z9vE?authuser=0&hl=en&rclk=1,"19.1092323,78.3371349"
Jama Masjid,Mosque,"4X76+PG6 Jama Masjid, Bhainsa, Telangana 504103",,4X76+PG6,Bhainsa,504103,Telangana,IN,https://www.google.com/maps/place/Jama+Masjid/data=!4m7!3m6!1s0x3bcdfe4fcb6d4d3b:0x5b221d8cd9bf7450!8m2!3d19.1142804!4d77.961278!16s%2Fg%2F11by_ln6gj!19sChIJO01ty0_-zTsRUHS_2YwdIls?authuser=0&hl=en&rclk=1,"19.1142804,77.961278"
Budharpet Masjid,Mosque,"483V+F49 Budharpet Masjid, Pinjari Gutta, Nirmal, Telangana 504106",Pinjari Gutta,483V+F49,Nirmal,504106,Telangana,IN,https://www.google.com/maps/place/Budharpet+Masjid/data=!4m7!3m6!1s0x3bcd8b80c2fc5e99:0xbd732aff04f66e07!8m2!3d19.1036542!4d78.3428597!16s%2Fg%2F11dxchc4cr!19sChIJmV78woCLzTsRB272BP8qc70?authuser=0&hl=en&rclk=1,"19.103654199999998,78.34285969999999"
MASJID - E - RIYAZUL HAQ,Mosque,"38WX+Q76 MASJID - E - RIYAZUL HAQ, Bagulwada, Nirmal, Telangana 504106",Bagulwada,38WX+Q76,Nirmal,504106,Telangana,IN,https://www.google.com/maps/place/MASJID+-+E+-+RIYAZUL+HAQ/data=!4m7!3m6!1s0x3bcd8c79971e96a1:0x16fef0fe66a6bb49!8m2!3d19.0969176!4d78.3481556!16s%2Fg%2F11ddxp28l8!19sChIJoZYel3mMzTsRSbumZv7w_hY?authuser=0&hl=en&rclk=1,"19.096917599999998,78.3481556"
"Masjid E Ibrahim, Barktpura",Mosque,"V5G2+6GW Masjid E Ibrahim, Barktpura, Nandipet, Telangana 503212",,V5G2+6GW,Nandipet,503212,Telangana,IN,"https://www.google.com/maps/place/Masjid+E+Ibrahim,+Barktpura/data=!4m7!3m6!1s0x3bcde8e0d7a7ca29:0x90e848f7ab731261!8m2!3d18.8756018!4d78.1513263!16s%2Fg%2F11c3117pqk!19sChIJKcqn1-DozTsRYRJzq_dI6JA?authuser=0&hl=en&rclk=1","18.8756018,78.1513263"
Masjid E Tauheed Bhainsa,Mosque,"Masjid E Tauheed Bhainsa, Government Junior College, near jr, Bhainsa, Telangana 504103",,"Government Junior College, near jr",Bhainsa,504103,Telangana,IN,https://www.google.com/maps/place/Masjid+E+Tauheed+Bhainsa/data=!4m7!3m6!1s0x3bcdfe5abe12d209:0xcb0d4c3a60c43c0e!8m2!3d19.1106262!4d77.9637239!16s%2Fg%2F11g8nzxgs0!19sChIJCdISvlr-zTsRDjzEYDpMDcs?authuser=0&hl=en&rclk=1,"19.1106262,77.96372389999999"
Jama Masjid,Mosque,"4438+75M Jama Masjid, Unnamed Road, Chackpalli, Arli (Khurd), Telangana 504104",,"4438+75M, Unnamed Road","Chackpalli, Arli (Khurd)",504104,Telangana,IN,https://www.google.com/maps/place/Jama+Masjid/data=!4m7!3m6!1s0x3bcdf759442ad593:0x9d3101a5cbafb91e!8m2!3d19.1032189!4d78.1154349!16s%2Fg%2F11gdgxt0hd!19sChIJk9UqRFn3zTsRHrmvy6UBMZ0?authuser=0&hl=en&rclk=1,"19.103218899999998,78.1154349"
Masjid E IbadurRahman Ahle Hadees,Mosque,"XWG6+27P Masjid E IbadurRahman Ahle Hadees, Mudhole, Telangana 504102",,XWG6+27P,Mudhole,504102,Telangana,IN,https://www.google.com/maps/place/Masjid+E+IbadurRahman+Ahle+Hadees/data=!4m7!3m6!1s0x3bce080be6d32c33:0x252823fccc2f49dc!8m2!3d18.975097!4d77.9106939!16s%2Fg%2F11g7zv4hq8!19sChIJMyzT5gsIzjsR3EkvzPwjKCU?authuser=0&hl=en&rclk=1,"18.975096999999998,77.9106939"
EK MINAR MASJID,Mosque,"4X58+8P8 EK MINAR MASJID, Asad Baba Nagar, Bhainsa, Telangana 504103",Asad Baba Nagar,4X58+8P8,Bhainsa,504103,Telangana,IN,https://www.google.com/maps/place/EK+MINAR+MASJID/data=!4m7!3m6!1s0x3bcdfe5bc8742e03:0x9e4aca298cc82934!8m2!3d19.1082968!4d77.9668355!16s%2Fg%2F11c1wjq5wm!19sChIJAy50yFv-zTsRNCnIjCnKSp4?authuser=0&hl=en&rclk=1,"19.108296799999998,77.9668355"
Osman Masjid,Mosque,"4X47+RJX Osman Masjid, Asad Baba Nagar, Bhainsa, Telangana 504103",Asad Baba Nagar,4X47+RJX,Bhainsa,504103,Telangana,IN,https://www.google.com/maps/place/Osman+Masjid/data=!4m7!3m6!1s0x3bcdfe5b6bc0025d:0x854fb770d38fd2a3!8m2!3d19.107103!4d77.9641068!16s%2Fg%2F11cn6jvztk!19sChIJXQLAa1v-zTsRo9KP03C3T4U?authuser=0&hl=en&rclk=1,"19.107103,77.9641068"
Masjid E Saad,Mosque,"Masjid E Saad, Bail Bazar Rd, Naidiwada, Nirmal, Gajulpet, Telangana 504106",Naidiwada,Bail Bazar Rd,"Nirmal, Gajulpet",504106,Telangana,IN,https://www.google.com/maps/place/Masjid+E+Saad/data=!4m7!3m6!1s0x3bcd8b82f6becb3b:0x42b1513e084204aa!8m2!3d19.110158!4d78.3405581!16s%2Fg%2F11d_25gpf0!19sChIJO8u-9oKLzTsRqgRCCD5RsUI?authuser=0&hl=en&rclk=1,"19.110158,78.3405581"
jama masjid,Mosque,"4556+99V jama masjid, Narsapur, Telangana 504104",,4556+99V,Narsapur,504104,Telangana,IN,https://www.google.com/maps/place/jama+masjid/data=!4m7!3m6!1s0x3bcdf6debe130ce1:0x496ea4eb093e0f95!8m2!3d19.1084754!4d78.1609358!16s%2Fg%2F11dymkzz5r!19sChIJ4QwTvt72zTsRlQ8-Ceukbkk?authuser=0&hl=en&rclk=1,"19.1084754,78.16093579999999"
Zulfaquar Masjid,Mosque,"Zulfaquar Masjid, Batti Galli, Bhainsa, Telangana 504103",,Batti Galli,Bhainsa,504103,Telangana,IN,https://www.google.com/maps/place/Zulfaquar+Masjid/data=!4m7!3m6!1s0x3bcdfe458e005063:0x3327cc952a5d40c3!8m2!3d19.1106687!4d77.9585257!16s%2Fg%2F11b7lgcncq!19sChIJY1AAjkX-zTsRw0BdKpXMJzM?authuser=0&hl=en&rclk=1,"19.110668699999998,77.9585257"
Jaama Masjid (Mosque),Mosque,"VXM3+WC6 Jaama Masjid (Mosque), Basar, Telangana 504101",,VXM3+WC6,Basar,,Telangana,IN,https://www.google.com/maps/place/Jaama+Masjid+%28Mosque%29/data=!4m7!3m6!1s0x3bcde1fdd318d0b1:0xdbc2475fe58f185!8m2!3d18.8847972!4d77.9535133!16s%2Fg%2F11ghfsvdpd!19sChIJsdAY0_3hzTsRhfFY_nUkvA0?authuser=0&hl=en&rclk=1,"18.884797199999998,77.9535133"
Burhaniya Masjid Pan Galli,Mosque,"38WW+P6V Burhaniya Masjid Pan Galli, Market Rd, Bagulwada, Nirmal, Telangana 504106",Bagulwada,"38WW+P6V, Market Rd",Nirmal,504106,Telangana,IN,https://www.google.com/maps/place/Burhaniya+Masjid+Pan+Galli/data=!4m7!3m6!1s0x3bcd8c794121c375:0xc5851a3786d85199!8m2!3d19.0968567!4d78.345553!16s%2Fg%2F11c5814380!19sChIJdcMhQXmMzTsRmVHYhjcahcU?authuser=0&hl=en&rclk=1,"19.0968567,78.345553"
Jaama Masjid Kanjar,Mosque,"3756+GV6 Jaama Masjid Kanjar, Kanjar, Lingampalli, Telangana 504306",,3756+GV6,"Kanjar, Lingampalli",504306,Telangana,IN,https://www.google.com/maps/place/Jaama+Masjid+Kanjar/data=!4m7!3m6!1s0x3bcdf35773532b23:0xfc26b48181015783!8m2!3d19.0587778!4d78.2621545!16s%2Fg%2F11fhymsrwq!19sChIJIytTc1fzzTsRg1cBgYG0Jvw?authuser=0&hl=en&rclk=1,"19.058777799999998,78.2621545"
Kaali Masjid,Mosque,"4X86+8VM Kaali Masjid, Bhainsa, Telangana 504103",,4X86+8VM,Bhainsa,504103,Telangana,IN,https://www.google.com/maps/place/Kaali+Masjid/data=!4m7!3m6!1s0x3bcdff01ee4823b7:0x7c003f504db3c40c!8m2!3d19.1158403!4d77.9621864!16s%2Fg%2F11f6mcqf45!19sChIJtyNI7gH_zTsRDMSzTVA_AHw?authuser=0&hl=en&rclk=1,"19.1158403,77.9621864"
ISLAMIA MASJID,Mosque,"33P9+Q3G ISLAMIA MASJID, Unnamed Road, Pendapalle, Telangana 504109",,"33P9+Q3G, Unnamed Road",Pendapalle,504109,Telangana,IN,https://www.google.com/maps/place/ISLAMIA+MASJID/data=!4m7!3m6!1s0x3bcdf9a84cf030af:0x3505c992c42fe512!8m2!3d19.0869441!4d78.0677168!16s%2Fg%2F11h1lsvqdn!19sChIJrzDwTKj5zTsREuUvxJLJBTU?authuser=0&hl=en&rclk=1,"19.0869441,78.0677168"
Makkah Masjid,Mosque,"XWG6+PX2 Makkah Masjid, Mudhole, Telangana 504102",,XWG6+PX2,Mudhole,504102,Telangana,IN,https://www.google.com/maps/place/Makkah+Masjid/data=!4m7!3m6!1s0x3bce0809755c9b3f:0x48d5663eeadd5675!8m2!3d18.976772!4d77.9123917!16s%2Fg%2F11c1xm9fpd!19sChIJP5tcdQkIzjsRdVbd6j5m1Ug?authuser=0&hl=en&rclk=1,"18.976772,77.9123917"
"Old Masjid,Khudavandpoor",Mosque,"V5HP+PF8 Old Masjid,Khudavandpoor, Telangana 503212",,V5HP+PF8,,503212,Telangana,IN,"https://www.google.com/maps/place/Old+Masjid,Khudavandpoor/data=!4m7!3m6!1s0x3bcde969eaf5c695:0x61a5cf299e500802!8m2!3d18.8792964!4d78.1862171!16s%2Fg%2F11cs47y8xw!19sChIJlcb16mnpzTsRAghQninPpWE?authuser=0&hl=en&rclk=1","18.879296399999998,78.1862171"
Jama Masjid,Mosque,"XWG6+C48 Jama Masjid, Mudhole, Telangana 504102",,XWG6+C48,Mudhole,504102,Telangana,IN,https://www.google.com/maps/place/Jama+Masjid/data=!4m7!3m6!1s0x3bce080bcfe00875:0x521c3c0cceda907b!8m2!3d18.976033!4d77.910315!16s%2Fg%2F11cs6hpvpt!19sChIJdQjgzwsIzjsRe5Dazgw8HFI?authuser=0&hl=en&rclk=1,"18.976032999999997,77.910315"
New Masjid,Mosque,"4536+837 New Masjid, Narsapur, Telangana 504104",,4536+837,Narsapur,504104,Telangana,IN,https://www.google.com/maps/place/New+Masjid/data=!4m7!3m6!1s0x3bcdf6d9badf7107:0x959db33fe812bc3a!8m2!3d19.1032998!4d78.1601806!16s%2Fg%2F11dyqr83fc!19sChIJB3Hfutn2zTsROrwS6D-znZU?authuser=0&hl=en&rclk=1,"19.1032998,78.16018059999999"
Jama Masjid,Mosque,"36QG+MQ8 Jama Masjid, Dilawarpur, Telangana 504306",,36QG+MQ8,Dilawarpur,504306,Telangana,IN,https://www.google.com/maps/place/Jama+Masjid/data=!4m7!3m6!1s0x3bcdf38b6d895ff3:0xfb92232411ea544f!8m2!3d19.0891544!4d78.2269668!16s%2Fg%2F11g7cxjty8!19sChIJ81-JbYvzzTsRT1TqESQjkvs?authuser=0&hl=en&rclk=1,"19.089154399999998,78.2269668"
"jama masjid,temburni",Mosque,"35FQ+GJ7 jama masjid,temburni, Temborni, Telangana 504306",,35FQ+GJ7,Temborni,504306,Telangana,IN,"https://www.google.com/maps/place/jama+masjid,temburni/data=!4m7!3m6!1s0x3bcdf143602b1c57:0x1b94be4d9345b7c4!8m2!3d19.0737876!4d78.1890329!16s%2Fg%2F11hc_7v5pb!19sChIJVxwrYEPxzTsRxLdFk02-lBs?authuser=0&hl=en&rclk=1","19.0737876,78.1890329"
Madina Masjid,Mosque,"XWPC+CGC Madina Masjid, Mudhole St, Mudhole, Telangana 504102",,"XWPC+CGC, Mudhole St",Mudhole,504102,Telangana,IN,https://www.google.com/maps/place/Madina+Masjid/data=!4m7!3m6!1s0x3bce07fc0d5ab6d9:0xef39beed9a49c2b0!8m2!3d18.9860691!4d77.9212626!16s%2Fg%2F11fyzflsc6!19sChIJ2bZaDfwHzjsRsMJJmu2-Oe8?authuser=0&hl=en&rclk=1,"18.986069099999998,77.92126259999999"
Puspoor Jama Masjid,Mosque,"22XJ+P6Q Puspoor Jama Masjid, Puspur, Telangana 504102",,22XJ+P6Q,Puspur,504102,Telangana,IN,https://www.google.com/maps/place/Puspoor+Jama+Masjid/data=!4m7!3m6!1s0x3bcdfb8e2e750bc9:0x687fc9f12d518e7d!8m2!3d19.0493459!4d78.0306125!16s%2Fg%2F11hbnncv9l!19sChIJyQt1Lo77zTsRfY5RLfHJf2g?authuser=0&hl=en&rclk=1,"19.0493459,78.03061249999999"
EIDGAH MUDHOLE,Mosque,"XWJ9+GF6 EIDGAH MUDHOLE, Mudhole, Telangana 504102",,XWJ9+GF6,Mudhole,504102,Telangana,IN,https://www.google.com/maps/place/EIDGAH+MUDHOLE/data=!4m7!3m6!1s0x3bce07fd6c3d37c5:0xd851295bd8707bd0!8m2!3d18.9812863!4d77.9186262!16s%2Fg%2F11gck4xmd2!19sChIJxTc9bP0HzjsR0Htw2FspUdg?authuser=0&hl=en&rclk=1,"18.9812863,77.91862619999999"
JAAMA MASJID,Mosque,"V5HQ+CR2 JAAMA MASJID, Khudavandapur, Telangana 503212",,V5HQ+CR2,Khudavandapur,503212,Telangana,IN,https://www.google.com/maps/place/JAAMA+MASJID/data=!4m7!3m6!1s0x3bcde9686667a3f5:0xee541aaa8c8de747!8m2!3d18.8785188!4d78.1895025!16s%2Fg%2F11c5350yrl!19sChIJ9aNnZmjpzTsRR-eNjKoaVO4?authuser=0&hl=en&rclk=1,"18.8785188,78.1895025"
Masjid e Raza,Mosque,"XWF6+J4R Masjid e Raza, Mudhole, Telangana 504102",,XWF6+J4R,Mudhole,504102,Telangana,IN,https://www.google.com/maps/place/Masjid+e+Raza/data=!4m7!3m6!1s0x3bce080bf0b3996b:0x6a28aa7b8634486e!8m2!3d18.9741249!4d77.9102554!16s%2Fg%2F11gbk4v73l!19sChIJa5mz8AsIzjsRbkg0hnuqKGo?authuser=0&hl=en&rclk=1,"18.9741249,77.9102554"
Deen E Muhammad Dargah,Mosque,"4X87+PMF Deen E Muhammad Dargah, Bhainsa, Telangana 504103",,4X87+PMF,Bhainsa,504103,Telangana,IN,https://www.google.com/maps/place/Deen+E+Muhammad+Dargah/data=!4m7!3m6!1s0x3bcdff0bce791d5b:0x5d1dfe69be5f14ea!8m2!3d19.1168214!4d77.9641861!16s%2Fg%2F11fq8r95lt!19sChIJWx15zgv_zTsR6hRfvmn-HV0?authuser=0&hl=en&rclk=1,"19.1168214,77.96418609999999"
Masjid,Mosque,"W5WM+5J8 Masjid, Donkeshwar, Telangana 503212",,W5WM+5J8,Donkeshwar,503212,Telangana,IN,https://www.google.com/maps/place/Masjid/data=!4m7!3m6!1s0x3bcdef1f4fb601a3:0xa3523ea02136066c!8m2!3d18.9454093!4d78.1840925!16s%2Fg%2F11fcmfksy0!19sChIJowG2Tx_vzTsRbAY2IaA-UqM?authuser=0&hl=en&rclk=1,"18.945409299999998,78.18409249999999"
Madhar Khan Masjid,Mosque,"4X23+8HV Madhar Khan Masjid, National Highway 222, Khan Auto Nagar, Bhainsa, Telangana 504103",Khan Auto Nagar,"4X23+8HV, National Highway 222",Bhainsa,504103,Telangana,IN,https://www.google.com/maps/place/Madhar+Khan+Masjid/data=!4m7!3m6!1s0x3bcdfe41b557545b:0xd92f6034489efa34!8m2!3d19.1008595!4d77.9539175!16s%2Fg%2F11b7c49jxk!19sChIJW1RXtUH-zTsRNPqeSDRgL9k?authuser=0&hl=en&rclk=1,"19.1008595,77.9539175"
Masjid,Mosque,"V4J3+G35 Masjid, Talveda, Telangana 503212",,V4J3+G35,Talveda,503212,Telangana,IN,https://www.google.com/maps/place/Masjid/data=!4m7!3m6!1s0x3bcde61bd6f5a8df:0x2075fc2b5df30b25!8m2!3d18.8812633!4d78.1027307!16s%2Fg%2F11d_bkbh7z!19sChIJ36j11hvmzTsRJQvzXSv8dSA?authuser=0&hl=en&rclk=1,"18.8812633,78.1027307"
Makka masjid,Mosque,"4X49+5GM Makka masjid, Owaisi nagar, Bhainsa, Telangana 504103",Owaisi nagar,4X49+5GM,Bhainsa,504103,Telangana,IN,https://www.google.com/maps/place/Makka+masjid/data=!4m7!3m6!1s0x3bcdff0eae709cdd:0x6854d10775edfe3!8m2!3d19.1054591!4d77.9688006!16s%2Fg%2F11j7cswkz7!19sChIJ3Zxwrg7_zTsR499edxBNhQY?authuser=0&hl=en&rclk=1,"19.105459099999997,77.9688006"
Ahle Hadees Masjid,Mosque,"W5WM+7FF Ahle Hadees Masjid, Donkeshwar, Telangana 503212",,W5WM+7FF,Donkeshwar,503212,Telangana,IN,https://www.google.com/maps/place/Ahle+Hadees+Masjid/data=!4m7!3m6!1s0x3bcdeff6e7dc9b6d:0x49a5af6f8e8aad28!8m2!3d18.945693!4d78.183681!16s%2Fg%2F11g4jh5l1g!19sChIJbZvc5_bvzTsRKK2Kjm-vpUk?authuser=0&hl=en&rclk=1,"18.945693,78.18368099999999"
MOHAMMADIYA MASJID,Mosque,"XVR7+2R5 MOHAMMADIYA MASJID, Nandgam, Telangana 504102",,XVR7+2R5,Nandgam,504102,Telangana,IN,https://www.google.com/maps/place/MOHAMMADIYA+MASJID/data=!4m7!3m6!1s0x3bce07528ded7757:0x80b1e2eefa1c65c1!8m2!3d18.9900182!4d77.8646149!16s%2Fg%2F11tcm00p9l!19sChIJV3ftjVIHzjsRwWUc-u7isYA?authuser=0&hl=en&rclk=1,"18.990018199999998,77.86461489999999"
Masijd,Mosque,"37RJ+GWX Masijd, Sirgapur, Telangana 504306",,37RJ+GWX,Sirgapur,504306,Telangana,IN,https://www.google.com/maps/place/Masijd/data=!4m7!3m6!1s0x3bcdf33758e9a9e3:0xdf1a41fcd63d0884!8m2!3d19.0913546!4d78.2823573!16s%2Fg%2F11ssjwr2t4!19sChIJ46npWDfzzTsRhAg91vxBGt8?authuser=0&hl=en&rclk=1,"19.0913546,78.2823573"
Masjid e Ansar,Mosque,"XWH8+35H Masjid e Ansar, Mudhole, Telangana 504102",,XWH8+35H,Mudhole,504102,Telangana,IN,https://www.google.com/maps/place/Masjid+e+Ansar/data=!4m7!3m6!1s0x3bce0808663e36b7:0x507a7de2ed269433!8m2!3d18.9776815!4d77.9154895!16s%2Fg%2F11fyzflcvx!19sChIJtzY-ZggIzjsRM5Qm7eJ9elA?authuser=0&hl=en&rclk=1,"18.9776815,77.91548949999999"
MAKTAB ABU BAKKAR SIDDIQ AILAPUR masjid,Mosque,"R4XC+R93 MAKTAB ABU BAKKAR SIDDIQ AILAPUR masjid, Ailapur, Gunjali, Telangana 503212",,R4XC+R93,"Ailapur, Gunjali",,Telangana,IN,https://www.google.com/maps/place/MAKTAB+ABU+BAKKAR+SIDDIQ+AILAPUR+masjid/data=!4m7!3m6!1s0x3bcde9f36adbabc3:0x71fe00fb81b6ee5d!8m2!3d18.849512!4d78.12091!16s%2Fg%2F11tx1s7mnm!19sChIJw6vbavPpzTsRXe62gfsA_nE?authuser=0&hl=en&rclk=1,"18.849512,78.12091"
Jama masjid Ahle Hadees,Mosque,"35PW+8QR Jama masjid Ahle Hadees, Cherlapalle, Telangana 504306",,35PW+8QR,Cherlapalle,504306,Telangana,IN,https://www.google.com/maps/place/Jama+masjid+Ahle+Hadees/data=!4m7!3m6!1s0x3bcdf1ae0764e4b1:0x5349955489dd906f!8m2!3d19.0858704!4d78.196881!16s%2Fg%2F11kjckrnnj!19sChIJseRkB67xzTsRb5DdiVSVSVM?authuser=0&hl=en&rclk=1,"19.085870399999997,78.19688099999999"
Masjid-e-umare-farooq,Mosque,"VWCV+XWR Masjid-e-umare-farooq, Basar, Telangana 504101",,VWCV+XWR,Basar,,Telangana,IN,https://www.google.com/maps/place/Masjid-e-umare-farooq/data=!4m7!3m6!1s0x3bcde155a4892165:0xf683d03d0a4ee96e!8m2!3d18.872485!4d77.9447636!16s%2Fg%2F11pwxm21cv!19sChIJZSGJpFXhzTsRbulOCj3Qg_Y?authuser=0&hl=en&rclk=1,"18.872484999999998,77.9447636"
Jama masjid,Mosque,"X3CH+HHH Jama masjid, Unnamed Road, Dharmara, Telangana 504104",,"X3CH+HHH, Unnamed Road",Dharmara,504104,Telangana,IN,https://www.google.com/maps/place/Jama+masjid/data=!4m7!3m6!1s0x3bcde506ad45489d:0xd1d7c1c541293b7c!8m2!3d18.9714412!4d78.0789727!16s%2Fg%2F11r6xq5r2z!19sChIJnUhFrQblzTsRfDspQcXB19E?authuser=0&hl=en&rclk=1,"18.971441199999997,78.0789727"
Jama masjid,Mosque,"3466+MQ3 Jama masjid, Manmad, Telangana 504104",,3466+MQ3,Manmad,,Telangana,IN,https://www.google.com/maps/place/Jama+masjid/data=!4m7!3m6!1s0x3bcdf111d21c7737:0x5999179013b362b5!8m2!3d19.0616441!4d78.111914!16s%2Fg%2F11rvjygjlq!19sChIJN3cc0hHxzTsRtWKzE5AXmVk?authuser=0&hl=en&rclk=1,"19.0616441,78.111914"
Jama Masjid Nikalpoor,Mosque,"W5Q8+3CH Jama Masjid Nikalpoor, Nizmabad, Nikalpur, Telangana 503212",,"W5Q8+3CH, Nizmabad",Nikalpur,503212,Telangana,IN,https://www.google.com/maps/place/Jama+Masjid+Nikalpoor/data=!4m7!3m6!1s0x3bcdeee53497f8e9:0x39d6ff72e8b22f94!8m2!3d18.9376999!4d78.1661121!16s%2Fg%2F11g6bm2xmm!19sChIJ6fiXNOXuzTsRlC-y6HL_1jk?authuser=0&hl=en&rclk=1,"18.9376999,78.16611209999999"
Wattoli Darga ,Mosque,"X3H6+4X6 Wattoli Darga , Wastapur, Telangana 504101",,X3H6+4X6,Wastapur,504101,Telangana,IN,https://www.google.com/maps/place/Wattoli+Darga+%F0%9F%95%8B/data=!4m7!3m6!1s0x3bcde5434ff9fddb:0x570612386c856213!8m2!3d18.977918!4d78.061883!16s%2Fg%2F11vb_7nnp1!19sChIJ2_35T0PlzTsRE2KFbDgSBlc?authuser=0&hl=en&rclk=1,"18.977918,78.061883"
Masjid e Mubeen,Mosque,"XWF5+7JW Masjid e Mubeen, Mudhole, Telangana 504102",,XWF5+7JW,Mudhole,504102,Telangana,IN,https://www.google.com/maps/place/Masjid+e+Mubeen/data=!4m7!3m6!1s0x3bce080c712766a7:0x4da094a3ac35a2d9!8m2!3d18.9732415!4d77.9090696!16s%2Fg%2F11f0_gjyz0!19sChIJp2YncQwIzjsR2aI1rKOUoE0?authuser=0&hl=en&rclk=1,"18.9732415,77.9090696"
Masjid-e-Ibrahim,Mosque,"4X3F+MGW Masjid-e-Ibrahim, Owasi Nagar, Bhainsa, Telangana 504103",Owasi Nagar,4X3F+MGW,Bhainsa,504103,Telangana,IN,https://www.google.com/maps/place/Masjid-e-Ibrahim/data=!4m7!3m6!1s0x3bcdff2e3ed8c869:0x9a1ebb33c7592548!8m2!3d19.1042258!4d77.9738428!16s%2Fg%2F11jpgpwxgp!19sChIJacjYPi7_zTsRSCVZxzO7Hpo?authuser=0&hl=en&rclk=1,"19.1042258,77.9738428"
Masjid kothwal,Mosque,"VXP3+V4Q Masjid kothwal, Unnamed Road, Basar, Telangana 504101",,"VXP3+V4Q, Unnamed Road",Basar,504101,Telangana,IN,https://www.google.com/maps/place/Masjid+kothwal/data=!4m7!3m6!1s0x3bcde16442d9a5c5:0x6573bdfe9c430a9c!8m2!3d18.8872129!4d77.9528679!16s%2Fg%2F11kky5c5x4!19sChIJxaXZQmThzTsRnApDnP69c2U?authuser=0&hl=en&rclk=1,"18.887212899999998,77.9528679"
Eidgah.Khudavandpoor,Mosque,"V5GW+H8G Eidgah.Khudavandpoor, Khudavandapur, Telangana 503212",,V5GW+H8G,Khudavandapur,,Telangana,IN,https://www.google.com/maps/place/Eidgah.Khudavandpoor/data=!4m7!3m6!1s0x3bcde9ac4d4f8c19:0xed0c61cfdbaf9aa5!8m2!3d18.8764358!4d78.1958335!16s%2Fg%2F11f653w8gn!19sChIJGYxPTazpzTsRpZqv289hDO0?authuser=0&hl=en&rclk=1,"18.8764358,78.19583349999999"
Aqsa Masjid,Mosque,"4X4G+44V Aqsa Masjid, Bhainsa, Telangana 504103",,4X4G+44V,Bhainsa,504103,Telangana,IN,https://www.google.com/maps/place/Aqsa+Masjid/data=!4m7!3m6!1s0x3bcdffefc08d1e65:0x78398d3d727b1cd0!8m2!3d19.1053514!4d77.9752969!16s%2Fg%2F11jf0jv14x!19sChIJZR6NwO__zTsR0Bx7cj2NOXg?authuser=0&hl=en&rclk=1,"19.1053514,77.9752969"
Eid-gh,Mosque,"W4JM+GRR Eid-gh, Badguna, Telangana 503212",,W4JM+GRR,Badguna,503212,Telangana,IN,https://www.google.com/maps/place/Eid-gh/data=!4m7!3m6!1s0x3bcdef13387f6c31:0xa175339d4786e022!8m2!3d18.9313643!4d78.1345142!16s%2Fg%2F11g9vst3t9!19sChIJMWx_OBPvzTsRIuCGR50zdaE?authuser=0&hl=en&rclk=1,"18.9313643,78.1345142"
Owaisi masjid,Mosque,"4X3C+PVW Owaisi masjid, Rd number 2, Bhainsa, Telangana 504103",,"4X3C+PVW, Rd number 2",Bhainsa,504103,Telangana,IN,https://www.google.com/maps/place/Owaisi+masjid/data=!4m7!3m6!1s0x3bcdffb38f817769:0x3746a83dd7b84291!8m2!3d19.1044739!4d77.9714137!16s%2Fg%2F11s5627lk5!19sChIJaXeBj7P_zTsRkUK41z2oRjc?authuser=0&hl=en&rclk=1,"19.1044739,77.9714137"
Jamiya Masjid,Mosque,"Jamiya Masjid, Panchagudi, Dharmara, Telangana 504104",,,"Panchagudi, Dharmara",504104,Telangana,IN,https://www.google.com/maps/place/Jamiya+Masjid/data=!4m7!3m6!1s0x3bcde5f57d5ce841:0x54a16d15ab8d2131!8m2!3d18.9698223!4d78.0838299!16s%2Fg%2F11g23bk4d8!19sChIJQehcffXlzTsRMSGNqxVtoVQ?authuser=0&hl=en&rclk=1,"18.9698223,78.0838299"
Jama Masjid,Mosque,"4733+GPV Jama Masjid, Near the Nirmal Bhainsa main Road.Mdl: Dilawarpur. Dist:, Nirmal, Telangana 504306",,"4733+GPV, Near the Nirmal Bhainsa main Road.Mdl: Dilawarpur. Dist:","Nirmal, Lolam",504306,Telangana,IN,https://www.google.com/maps/place/Jama+Masjid/data=!4m7!3m6!1s0x3bcdfff87705fb39:0xd33edc6cec828713!8m2!3d19.1038707!4d78.2542839!16s%2Fg%2F11gtdzt517!19sChIJOfsFd_j_zTsRE4eC7GzcPtM?authuser=0&hl=en&rclk=1,"19.103870699999998,78.25428389999999"
"EIDGAH, NARSAPUR (G)",Mosque,"4575+M2P EIDGAH, NARSAPUR (G), Mallanna temple road, Narsapur G, Dist:Nirmal, Telangana 504104",,"4575+M2P, Mallanna temple road, Narsapur G, Dist:Nirmal",Shakapur,504104,Telangana,IN,"https://www.google.com/maps/place/EIDGAH,+NARSAPUR+%28G%29/data=!4m7!3m6!1s0x3bcdf72f7b2bd6cf:0xd8b0b0a1390199e5!8m2!3d19.1142006!4d78.1575704!16s%2Fg%2F11ffw748c1!19sChIJz9Yrey_3zTsR5ZkBOaGwsNg?authuser=0&hl=en&rclk=1","19.1142006,78.1575704"
Nagar masjid,Mosque,"2462+FF8 Nagar masjid, Nagar, Telangana 504104",,2462+FF8,Nagar,504104,Telangana,IN,https://www.google.com/maps/place/Nagar+masjid/data=!4m7!3m6!1s0x3bcdfb87f4e1ca07:0x97a41421f66a5818!8m2!3d19.010881!4d78.102116!16s%2Fg%2F11jt0w_z_l!19sChIJB8rh9If7zTsRGFhq9iEUpJc?authuser=0&hl=en&rclk=1,"19.010880999999998,78.102116"
"pedd gutttt deevuddu, dhrmaarN",Mosque,"X3PH+PC pedd gutttt deevuddu, dhrmaarN, VIP ADDA, New Raipur (K), Telangana 504104",,X3PH+PC VIP ADDA,New Raipur (K),504104,Telangana,IN,"https://www.google.com/maps/place/%E0%B0%AA%E0%B1%86%E0%B0%A6%E0%B1%8D%E0%B0%A6+%E0%B0%97%E0%B1%81%E0%B0%9F%E0%B1%8D%E0%B0%9F+%E0%B0%A6%E0%B1%87%E0%B0%B5%E0%B1%81%E0%B0%A1%E0%B1%81,+%E0%B0%A7%E0%B0%B0%E0%B1%8D%E0%B0%AE%E0%B0%BE%E0%B0%B0%E0%B0%82/data=!4m7!3m6!1s0x3bcde5abeb56f289:0xb9041ab83c7f2d55!8m2!3d18.9880077!4d78.07903!16s%2Fg%2F11vj7tb2v9!19sChIJifJW66vlzTsRVS1_PLgaBLk?authuser=0&hl=en&rclk=1","18.9880077,78.07903"
JAMA MASJID,Mosque,"433W+VC6 JAMA MASJID, Unnamed Road, Kallur, Telangana 504109",,"433W+VC6, Unnamed Road",Kallur,504109,Telangana,IN,https://www.google.com/maps/place/JAMA+MASJID/data=!4m7!3m6!1s0x3bcdf93e953482f7:0xc3dff5e66af38f82!8m2!3d19.1046594!4d78.0960113!16s%2Fg%2F11gwhk1782!19sChIJ94I0lT75zTsRgo_zaub138M?authuser=0&hl=en&rclk=1,"19.1046594,78.0960113"
Jama masjid manmad,Mosque,"3472+RW6 Jama masjid manmad, Manmad, Telangana 504104",,3472+RW6,Manmad,,Telangana,IN,https://www.google.com/maps/place/Jama+masjid+manmad/data=!4m7!3m6!1s0x3bcdfbf0cc314743:0x7260ab24ad71b5c9!8m2!3d19.0645456!4d78.1022656!16s%2Fg%2F11rvjykm2h!19sChIJQ0cxzPD7zTsRybVxrSSrYHI?authuser=0&hl=en&rclk=1,"19.0645456,78.1022656"
"Masjid Mohammad Osman, Nirmal",Mosque,"486M+V9M Masjid Mohammad Osman, Nirmal, Gajulpet, Telangana 504106",,486M+V9M,Gajulpet,504106,Telangana,IN,"https://www.google.com/maps/place/Masjid+Mohammad+Osman,+Nirmal/data=!4m7!3m6!1s0x3bcd8b85fd08424d:0x8490656f1497e456!8m2!3d19.1122219!4d78.3334251!16s%2Fg%2F11l8tvx7lb!19sChIJTUII_YWLzTsRVuSXFG9lkIQ?authuser=0&hl=en&rclk=1","19.112221899999998,78.3334251"
Thimmapur masjid,Mosque,"435F+Q9G Thimmapur masjid, Unnamed Road, Thimmapur, Telangana 504109",,"435F+Q9G, Unnamed Road",Thimmapur,504109,Telangana,IN,https://www.google.com/maps/place/Thimmapur+masjid/data=!4m7!3m6!1s0x3bcdf93c28513963:0x7dcfb1f3b4f8e7af!8m2!3d19.1094489!4d78.0734603!16s%2Fg%2F11qzbkts3t!19sChIJYzlRKDz5zTsRr-f4tPOxz30?authuser=0&hl=en&rclk=1,"19.1094489,78.0734603"
EIDGHA,Mosque,"4437+34C EIDGHA, Arli (Khurd), Telangana 504109",,4437+34C,Arli (Khurd),504109,Telangana,IN,https://www.google.com/maps/place/EIDGHA/data=!4m7!3m6!1s0x3bcdf758c3ab01ed:0x767d10e30bd7d358!8m2!3d19.1026851!4d78.1127769!16s%2Fg%2F11f_zp24v9!19sChIJ7QGrw1j3zTsRWNPXC-MQfXY?authuser=0&hl=en&rclk=1,"19.1026851,78.1127769"
Masjid-e-Taweed,Mosque,"W49M+X9V Masjid-e-Taweed, Ummeda, Telangana 503212",,W49M+X9V,Ummeda,503212,Telangana,IN,https://www.google.com/maps/place/Masjid-e-Taweed/data=!4m7!3m6!1s0x3bcdef84711adc7f:0x8386494f394d9ae7!8m2!3d18.9199843!4d78.1334202!16s%2Fg%2F11f9zdrpmj!19sChIJf9wacYTvzTsR55pNOU9JhoM?authuser=0&hl=en&rclk=1,"18.9199843,78.1334202"
Jama masjid,Mosque,"W329+52F Jama masjid, Naleshwar, Binola, Telangana 503246",,W329+52F,"Naleshwar, Binola",503246,Telangana,IN,https://www.google.com/maps/place/Jama+masjid/data=!4m7!3m6!1s0x3bcde56006a65bb5:0xa91c0bd3bb2daf87!8m2!3d18.9004336!4d78.067533!16s%2Fg%2F11rhp_r4kr!19sChIJtVumBmDlzTsRh68tu9MLHKk?authuser=0&hl=en&rclk=1,"18.9004336,78.067533"
JAMA MASJID,Mosque,"W5G5+3GC JAMA MASJID, Nizamabad, Telangana 503212",,W5G5+3GC,Nizamabad,,Telangana,IN,https://www.google.com/maps/place/JAMA+MASJID/data=!4m7!3m6!1s0x3bcdefa02fc947ab:0x9999f86c2c79e7ef!8m2!3d18.9251806!4d78.1587566!16s%2Fg%2F11k8b1618f!19sChIJq0fJL6DvzTsR7-d5LGz4mZk?authuser=0&hl=en&rclk=1,"18.9251806,78.15875659999999"
Nagar Eidga,Mosque,"2464+CV Nagar Eidga, Nagar, Telangana 504104",,2464+CV,Nagar,,Telangana,IN,https://www.google.com/maps/place/Nagar+Eidga/data=!4m7!3m6!1s0x3bcdfb9033bee125:0xd47693f047dca567!8m2!3d19.0110877!4d78.1071543!16s%2Fg%2F11jt0qjg8t!19sChIJJeG-M5D7zTsRZ6XcR_CTdtQ?authuser=0&hl=en&rclk=1,"19.011087699999997,78.10715429999999"
Dubba Masjid Nandipet,Mosque,"V4GV+QGF Dubba Masjid Nandipet, Noothpalli, Telangana 503212",,V4GV+QGF,Noothpalli,503212,Telangana,IN,https://www.google.com/maps/place/Dubba+Masjid+Nandipet/data=!4m7!3m6!1s0x3bcde98d96886be9:0x3478282a5d76648b!8m2!3d18.8769333!4d78.1437879!16s%2Fg%2F11h57m9nzq!19sChIJ6WuIlo3pzTsRi2R2XSooeDQ?authuser=0&hl=en&rclk=1,"18.876933299999997,78.14378789999999"
Masjid e Ehtesabi,Mosque,"XWF6+X43 Masjid e Ehtesabi, Mudhole, Telangana 504102",,XWF6+X43,Mudhole,504102,Telangana,IN,https://www.google.com/maps/place/Masjid+e+Ehtesabi/data=!4m7!3m6!1s0x3bce080bef54c367:0x4a93e5c981198351!8m2!3d18.9748753!4d77.9102991!16s%2Fg%2F11fyzfn1m_!19sChIJZ8NU7wsIzjsRUYMZgcnlk0o?authuser=0&hl=en&rclk=1,"18.9748753,77.9102991"
Jama masjid,Mosque,"Jama masjid, Tondakur, Shahpur, Telangana 503212",,,"Tondakur, Shahpur",503212,Telangana,IN,https://www.google.com/maps/place/Jama+masjid/data=!4m7!3m6!1s0x3bcde9b6689d0d6d:0xd82ac2d148723667!8m2!3d18.9007382!4d78.1827624!16s%2Fg%2F11ty4q1_7p!19sChIJbQ2daLbpzTsRZzZySNHCKtg?authuser=0&hl=en&rclk=1,"18.9007382,78.1827624"
Eid Gah Pendpally,Mosque,"33V5+4J5 Eid Gah Pendpally, Pendapalle, Telangana 504109",,33V5+4J5,Pendapalle,,Telangana,IN,https://www.google.com/maps/place/Eid+Gah+Pendpally/data=!4m7!3m6!1s0x3bcdf96438d2ab65:0x81c7b0a7ae7719bd!8m2!3d19.0927654!4d78.0591246!16s%2Fg%2F11h4s0gw3_!19sChIJZavSOGT5zTsRvRl3rqewx4E?authuser=0&hl=en&rclk=1,"19.092765399999998,78.05912459999999"
Quadanshah ali,Mosque,"4X5F+FPC Quadanshah ali, Bhainsa, Telangana 504103",,4X5F+FPC,Bhainsa,504103,Telangana,IN,https://www.google.com/maps/place/Quadanshah+ali/data=!4m7!3m6!1s0x3bcdff7a411bd27f:0xf18f2bb4d86febfc!8m2!3d19.1086944!4d77.9742549!16s%2Fg%2F11l6yhsc3v!19sChIJf9IbQXr_zTsR_Otv2LQrj_E?authuser=0&hl=en&rclk=1,"19.108694399999997,77.97425489999999"
MASJID MOUZA BINTE ALI,Mosque,"V4MR+2FP MASJID MOUZA BINTE ALI, Nandipet, Chimrajpalle, Telangana 503212",,V4MR+2FP,"Nandipet, Chimrajpalle",503212,Telangana,IN,https://www.google.com/maps/place/MASJID+MOUZA+BINTE+ALI/data=!4m7!3m6!1s0x3bcde9345837717f:0xf004e2e49254f5!8m2!3d18.882581!4d78.1412174!16s%2Fg%2F11rv1xz98r!19sChIJf3E3WDTpzTsR9VSS5OIE8AA?authuser=0&hl=en&rclk=1,"18.882581,78.1412174"
Dargah masjid,Mosque,"4X85+RH4 Dargah masjid, Kisan Gally, Bhainsa, Telangana 504103",,"4X85+RH4, Kisan Gally",Bhainsa,504103,Telangana,IN,https://www.google.com/maps/place/Dargah+masjid/data=!4m7!3m6!1s0x3bcdff8149341c71:0x4ab8fbf5c4f17c84!8m2!3d19.1170017!4d77.9589653!16s%2Fg%2F11n8wky035!19sChIJcRw0SYH_zTsRhHzxxPX7uEo?authuser=0&hl=en&rclk=1,"19.1170017,77.9589653"
Masjid e WALI,Mosque,"4X49+MWR Masjid e WALI, Rd Number 1, Bhainsa, Telangana 504103",,"4X49+MWR, Rd Number 1",Bhainsa,504103,Telangana,IN,https://www.google.com/maps/place/Masjid+e+WALI/data=!4m7!3m6!1s0x3bcdffe159c3e0c5:0x924cdf0a90587653!8m2!3d19.1067472!4d77.9697721!16s%2Fg%2F11lrryyhw2!19sChIJxeDDWeH_zTsRU3ZYkArfTJI?authuser=0&hl=en&rclk=1,"19.106747199999997,77.9697721"
Dastagir Saheb Burj,Mosque,"2X6X+X44 Dastagir Saheb Burj, Edbid, Telangana 504102",,2X6X+X44,Edbid,504102,Telangana,IN,https://www.google.com/maps/place/Dastagir+Saheb+Burj/data=!4m7!3m6!1s0x3bcdfdd991c2255f:0xc03dc50b054bc67f!8m2!3d19.0131884!4d77.9979526!16s%2Fg%2F11pz0j6z29!19sChIJXyXCkdn9zTsRf8ZLBQvFPcA?authuser=0&hl=en&rclk=1,"19.0131884,77.99795259999999"
JAMA MASJID Added By Muqeeth PPML.,Mosque,"RV7Q+FM6 JAMA MASJID Added By Muqeeth PPML., Kandakurthi, Telangana 503235",,RV7Q+FM6,Kandakurthi,503235,Telangana,IN,https://www.google.com/maps/place/JAMA+MASJID+Added+By+Muqeeth+PPML./data=!4m7!3m6!1s0x3bce0b34e6cc89cf:0xd18de08a862613d!8m2!3d18.8136747!4d77.8891529!16s%2Fg%2F11fln4lth7!19sChIJz4nM5jQLzjsRPWFiqAjeGA0?authuser=0&hl=en&rclk=1,"18.8136747,77.8891529"
Jama masjid ashta,Mosque,"W2M3+V9P Jama masjid ashta, Ashta, Telangana 504101",,W2M3+V9P,Ashta,504101,Telangana,IN,https://www.google.com/maps/place/Jama+masjid+ashta/data=!4m7!3m6!1s0x3bcde35a9ce42b59:0xffe320028c1cbff8!8m2!3d18.9347189!4d78.0034513!16s%2Fg%2F11pz2s9spl!19sChIJWSvknFrjzTsR-L8cjAIg4_8?authuser=0&hl=en&rclk=1,"18.9347189,78.0034513"
Jama Maszid Gadchanda,Mosque,"245G+97V Jama Maszid Gadchanda, Unnamed Road, Gadchanda, Telangana 504104",,"245G+97V, Unnamed Road",Gadchanda,504104,Telangana,IN,https://www.google.com/maps/place/Jama+Maszid+Gadchanda/data=!4m7!3m6!1s0x3bcdf11ee4eaa0b3:0x5074c88c16549bd7!8m2!3d19.0084902!4d78.1256743!16s%2Fg%2F11flc1zb5k!19sChIJs6Dq5B7xzTsR15tUFozIdFA?authuser=0&hl=en&rclk=1,"19.0084902,78.1256743"
Jama Masjid,Mosque,"24MG+M6H Jama Masjid, Rajura, Telangana 504104",,24MG+M6H,Rajura,504104,Telangana,IN,https://www.google.com/maps/place/Jama+Masjid/data=!4m7!3m6!1s0x3bcdf16c0271a325:0x36c8259feb23b1f8!8m2!3d19.0341967!4d78.125624!16s%2Fg%2F11sh79cpjj!19sChIJJaNxAmzxzTsR-LEj658lyDY?authuser=0&hl=en&rclk=1,"19.0341967,78.125624"
Jama masijid,Mosque,"X4GH+G53 Jama masijid, Pipri, Telangana 504104",,X4GH+G53,Pipri,504104,Telangana,IN,https://www.google.com/maps/place/Jama+masijid/data=!4m7!3m6!1s0x3bcdefbf1ef8ccff:0x33ae37cb52dc7205!8m2!3d18.9762572!4d78.1279359!16s%2Fg%2F11rn4j23nd!19sChIJ_8z4Hr_vzTsRBXLcUss3rjM?authuser=0&hl=en&rclk=1,"18.9762572,78.1279359"
Mosque,Mosque,"54G3+83C Mosque, Unnamed Road, Kuntala, Telangana 504109",,"54G3+83C, Unnamed Road",Kuntala,504109,Telangana,IN,https://www.google.com/maps/place/Mosque/data=!4m7!3m6!1s0x3bcdf9d025e5219f:0x95288131dbc628f8!8m2!3d19.1758173!4d78.1026331!16s%2Fg%2F11nn534w_k!19sChIJnyHlJdD5zTsR-CjG2zGBKJU?authuser=0&hl=en&rclk=1,"19.1758173,78.10263309999999"
smshaanvaattik,Mosque,"539X+CCJ smshaanvaattik, adilaabaadu, Telangana 504109",,539X+CCJ,adilaabaadu,504109,Telangana,IN,https://www.google.com/maps/place/%E0%B0%B8%E0%B1%8D%E0%B0%AE%E0%B0%B6%E0%B0%BE%E0%B0%A8%E0%B0%B5%E0%B0%BE%E0%B0%9F%E0%B0%BF%E0%B0%95/data=!4m7!3m6!1s0x3bcdf97b97a183ab:0xe00cb011d279594d!8m2!3d19.1682263!4d78.0990057!16s%2Fg%2F11v5bbbfvm!19sChIJq4Ohl3v5zTsRTVl50hGwDOA?authuser=0&hl=en&rclk=1,"19.1682263,78.09900569999999"
Masjid,Mosque,"23HP+VRV Masjid, Lokeshwaram, Telangana 504104",,23HP+VRV,Lokeshwaram,,Telangana,IN,https://www.google.com/maps/place/Masjid/data=!4m7!3m6!1s0x3bcdfb3d97c6beb1:0xffec44d109005d16!8m2!3d19.029744!4d78.0870508!16s%2Fg%2F11sy1hj3tx!19sChIJsb7Glz37zTsRFl0ACdFE7P8?authuser=0&hl=en&rclk=1,"19.029744,78.0870508"
Dulha masjid,Mosque,"4X76+QPR Dulha masjid, Bhainsa, Telangana 504103",,4X76+QPR,Bhainsa,504103,Telangana,IN,https://www.google.com/maps/place/Dulha+masjid/data=!4m7!3m6!1s0x3bcdff11036a7bc1:0x2af6a0e9a007d28e!8m2!3d19.1144859!4d77.9617514!16s%2Fg%2F11pzpf_hcw!19sChIJwXtqAxH_zTsRjtIHoOmg9io?authuser=0&hl=en&rclk=1,"19.1144859,77.9617514"
Masjid E Madeena,Mosque,"3XX8+XMW Masjid E Madeena, Vinayak Nagar, Bhainsa, Telangana 504103",Vinayak Nagar,3XX8+XMW,Bhainsa,504103,Telangana,IN,https://www.google.com/maps/place/Masjid+E+Madeena/data=!4m7!3m6!1s0x3bcdfe67609b6a17:0xd10b98fe9ebd9b74!8m2!3d19.1!4d77.9667!16s%2Fg%2F11b7tns2dg!19sChIJF2qbYGf-zTsRdJu9nv6YC9E?authuser=0&hl=en&rclk=1,"19.099999999999998,77.9667"
Masjid e Fatima,Mosque,"4X5G+9P4 Masjid e Fatima, Bhainsa, Telangana 504103",,4X5G+9P4,Bhainsa,504103,Telangana,IN,https://www.google.com/maps/place/Masjid+e+Fatima/data=!4m7!3m6!1s0x3bcdffb3b5a3debf:0x2063de0cbf29b1de!8m2!3d19.1083892!4d77.9768327!16s%2Fg%2F11l29xysl3!19sChIJv96jtbP_zTsR3rEpvwzeYyA?authuser=0&hl=en&rclk=1,"19.108389199999998,77.9768327"
Maqbara masjid,Mosque,"4X86+WF7 Maqbara masjid, Bhainsa, Telangana 504103",,4X86+WF7,Bhainsa,504103,Telangana,IN,https://www.google.com/maps/place/Maqbara+masjid/data=!4m7!3m6!1s0x3bcdff260e3b794f:0x8b0a022e971e6e24!8m2!3d19.117272!4d77.9611583!16s%2Fg%2F11sq9gjl68!19sChIJT3k7Dib_zTsRJG4ely4CCos?authuser=0&hl=en&rclk=1,"19.117272,77.9611583"
Madeena masjid,Mosque,"52C6+V34 Madeena masjid, Chintalabori, Telangana 504103",,52C6+V34,Chintalabori,,Telangana,IN,https://www.google.com/maps/place/Madeena+masjid/data=!4m7!3m6!1s0x3bcdffe967e8faaf:0xe0043d36fece529!8m2!3d19.1722582!4d78.0101075!16s%2Fg%2F11lgkmzqrf!19sChIJr_roZ-n_zTsRKeXsb9NDAA4?authuser=0&hl=en&rclk=1,"19.172258199999998,78.01010749999999"
Al huda Masjid,Mosque,"W5WM+7FJ Al huda Masjid, Unnamed Road, Donkeshwar, Telangana 503212",,"W5WM+7FJ, Unnamed Road",Donkeshwar,503212,Telangana,IN,https://www.google.com/maps/place/Al+huda+Masjid/data=!4m7!3m6!1s0x3bcdefb08c81d71b:0x382eeec8305a5790!8m2!3d18.945716!4d78.183656!16s%2Fg%2F11hz9llh_n!19sChIJG9eBjLDvzTsRkFdaMMjuLjg?authuser=0&hl=en&rclk=1,"18.945716,78.183656"
Masjid e noor banu,Mosque,"4298+7M3 Masjid e noor banu, Ekgaon, Telangana 504103",,4298+7M3,Ekgaon,504103,Telangana,IN,https://www.google.com/maps/place/Masjid+e+noor+banu/data=!4m7!3m6!1s0x3bcdff742aedeb0d:0x1cc2047094df4e93!8m2!3d19.1181434!4d78.0166847!16s%2Fg%2F11h6443h1y!19sChIJDevtKnT_zTsRk07flHAEwhw?authuser=0&hl=en&rclk=1,"19.118143399999997,78.0166847"
Jamamasjid,Mosque,"2X6W+RJ9 Jamamasjid, Edbid, Telangana 504102",,2X6W+RJ9,Edbid,504102,Telangana,IN,https://www.google.com/maps/place/Jamamasjid/data=!4m7!3m6!1s0x3bcdfd9419127871:0xbb4ac3774c96936d!8m2!3d19.0120371!4d77.9966174!16s%2Fg%2F11rchyqlgj!19sChIJcXgSGZT9zTsRbZOWTHfDSrs?authuser=0&hl=en&rclk=1,"19.0120371,77.99661739999999"
Jama masjid (Kotalgaom),Mosque,"42X5+48M Jama masjid (Kotalgaom), Kotalgaom, Bhainsa, Kotalgaon, Telangana 504109",Kotalgaom,42X5+48M,"Bhainsa, Kotalgaon",,Telangana,IN,https://www.google.com/maps/place/Jama+masjid+%28Kotalgaom%29/data=!4m7!3m6!1s0x3bcdff620818b4cb:0x849464b5944d2dae!8m2!3d19.1478345!4d78.0082907!16s%2Fg%2F11tnw1x59k!19sChIJy7QYCGL_zTsRri1NlLVklIQ?authuser=0&hl=en&rclk=1,"19.1478345,78.0082907"
Sarkari masjid,Mosque,"4X76+7FF Sarkari masjid, Bhainsa, Telangana 504103",,4X76+7FF,Bhainsa,504103,Telangana,IN,https://www.google.com/maps/place/Sarkari+masjid/data=!4m7!3m6!1s0x3bcdff1e48424da9:0xe5975291b8aab459!8m2!3d19.1131196!4d77.9611631!16s%2Fg%2F11sq9fy4l6!19sChIJqU1CSB7_zTsRWbSquJFSl-U?authuser=0&hl=en&rclk=1,"19.113119599999997,77.9611631"
Majid e abubakar,Mosque,"4X68+H97 Majid e abubakar, New Abadi, Bhainsa, Telangana 504103",New Abadi,4X68+H97,Bhainsa,504103,Telangana,IN,https://www.google.com/maps/place/Majid+e+abubakar/data=!4m7!3m6!1s0x3bcdff58c1da7aab:0x219623bea3a45cb3!8m2!3d19.1113411!4d77.9659192!16s%2Fg%2F11sz2t10vn!19sChIJq3rawVj_zTsRs1yko74jliE?authuser=0&hl=en&rclk=1,"19.1113411,77.9659192"
JAMA MASJID,Mosque,"W4HP+PQ2 JAMA MASJID, Badguna, Telangana 503212",,W4HP+PQ2,Badguna,503212,Telangana,IN,https://www.google.com/maps/place/JAMA+MASJID/data=!4m7!3m6!1s0x3bcdefc2978c6bbf:0xacd6ff565bbe1c1!8m2!3d18.9292727!4d78.1369054!16s%2Fg%2F11fkdps78w!19sChIJv2uMl8LvzTsRweG7ZfVvzQo?authuser=0&hl=en&rclk=1,"18.9292727,78.1369054"
Mosque,Mosque,"V23P+64R Mosque, Binola, Abbapur B, Telangana 503246",,V23P+64R,"Binola, Abbapur B",503246,Telangana,IN,https://www.google.com/maps/place/Mosque/data=!4m7!3m6!1s0x3bcde6d95e2f713f:0x4911a7c1ec28e174!8m2!3d18.8531021!4d78.0352664!16s%2Fg%2F11g9nhhhng!19sChIJP3EvXtnmzTsRdOEo7MGnEUk?authuser=0&hl=en&rclk=1,"18.853102099999997,78.0352664"
Makkah masjid Binola,Mosque,"V3Q5+XQQ Makkah masjid Binola, Binola, Telangana 503246",,V3Q5+XQQ,Binola,503246,Telangana,IN,https://www.google.com/maps/place/Makkah+masjid+Binola/data=!4m7!3m6!1s0x3bcde736e5d409a3:0x654b084de71f1403!8m2!3d18.8899684!4d78.0594874!16s%2Fg%2F11t7c6nbsr!19sChIJownU5TbnzTsRAxQf500IS2U?authuser=0&hl=en&rclk=1,"18.8899684,78.0594874"
Jama masjid,Mosque,"W49M+X9V Jama masjid, Ummeda, Telangana 503212",,W49M+X9V,Ummeda,503212,Telangana,IN,https://www.google.com/maps/place/Jama+masjid/data=!4m7!3m6!1s0x3bcdef93faeeb94f:0xec403736e47f32be!8m2!3d18.9199843!4d78.1334202!16s%2Fg%2F11k89z8hl2!19sChIJT7nu-pPvzTsRvjJ_5DY3QOw?authuser=0&hl=en&rclk=1,"18.9199843,78.1334202"
masjid-e-Ameena. Taroda,Mosque,"2W6P+HMC masjid-e-Ameena. Taroda, Taroda, Telangana 504102",,2W6P+HMC,Taroda,504102,Telangana,IN,https://www.google.com/maps/place/masjid-e-Ameena.+Taroda/data=!4m7!3m6!1s0x3bcdfd8ced879fc7:0xa8c8d0a46a879700!8m2!3d19.0114475!4d77.9366469!16s%2Fg%2F11nx3xpp3n!19sChIJx5-H7Yz9zTsRAJeHaqTQyKg?authuser=0&hl=en&rclk=1,"19.0114475,77.9366469"
Haji Sahab Masjid,Mosque,"4X76+WR5 Haji Sahab Masjid, Bhainsa, Telangana 504103",,4X76+WR5,Bhainsa,504103,Telangana,IN,https://www.google.com/maps/place/Haji+Sahab+Masjid/data=!4m7!3m6!1s0x3bcdffd89e630f21:0x6958ac2f4082e62d!8m2!3d19.114766!4d77.9621118!16s%2Fg%2F11r0wdt94j!19sChIJIQ9jntj_zTsRLeaCQC-sWGk?authuser=0&hl=en&rclk=1,"19.114766,77.9621118"
Momino mosque,Mosque,"4X38+64M Momino mosque, New Abadi, Bhainsa, Telangana 504103",New Abadi,4X38+64M,Bhainsa,504103,Telangana,IN,https://www.google.com/maps/place/Momino+mosque/data=!4m7!3m6!1s0x3bcdfffea979f1ef:0x5d2c7b949536d054!8m2!3d19.1030811!4d77.9652985!16s%2Fg%2F11kqn0r70h!19sChIJ7_F5qf7_zTsRVNA2lZR7LF0?authuser=0&hl=en&rclk=1,"19.1030811,77.9652985"
Ajaz uddin mpp mudhole,Mosque,"XWG6+X2V Ajaz uddin mpp mudhole, Mudhole, Telangana 504102",,XWG6+X2V,Mudhole,504102,Telangana,IN,https://www.google.com/maps/place/Ajaz+uddin+mpp+mudhole/data=!4m7!3m6!1s0x3bce092b3bed0477:0x9883546bb0eb0297!8m2!3d18.9774875!4d77.9100469!16s%2Fg%2F11l2byjt14!19sChIJdwTtOysJzjsRlwLrsGtUg5g?authuser=0&hl=en&rclk=1,"18.9774875,77.9100469"
Jama Masjid Limba,Mosque,"523V+7F2 Jama Masjid Limba, Limba Khurd, Telangana 504109",,523V+7F2,Limba Khurd,504109,Telangana,IN,https://www.google.com/maps/place/Jama+Masjid+Limba/data=!4m7!3m6!1s0x3bcdf91c30be5c01:0x41b0942c84df9744!8m2!3d19.1531407!4d78.0436445!16s%2Fg%2F11v9z80ywd!19sChIJAVy-MBz5zTsRRJffhCyUsEE?authuser=0&hl=en&rclk=1,"19.153140699999998,78.0436445"
Qureshi's dayra,Mosque,"XW74+RV Qureshi's dayra, Mudhole, Telangana 504102",,XW74+RV,Mudhole,,Telangana,IN,https://www.google.com/maps/place/Qureshi%27s+dayra/data=!4m7!3m6!1s0x3bce09a66983ce9b:0x9269f425b8a9c771!8m2!3d18.9645492!4d77.9071758!16s%2Fg%2F11kphpbb44!19sChIJm86DaaYJzjsRccepuCX0aZI?authuser=0&hl=en&rclk=1,"18.9645492,77.90717579999999"
Nathar shali ntr shli,Mosque,"QX2X+J8Q Nathar shali ntr shli, Nizamabad, Telangana 503245",,QX2X+J8Q,Nizamabad,,Telangana,IN,https://www.google.com/maps/place/Nathar+shali+%E0%B0%A8%E0%B0%A4%E0%B0%B0%E0%B1%8D+%E0%B0%B6%E0%B0%B2%E0%B0%BF/data=!4m7!3m6!1s0x3bcddfa600bc1db3:0xdeadda124117bf61!8m2!3d18.7515829!4d77.9983528!16s%2Fg%2F11rkfssnbd!19sChIJsx28AKbfzTsRYb8XQRLard4?authuser=0&hl=en&rclk=1,"18.7515829,77.99835279999999"
Raithufaram Jama masjid,Mosque,"R4RV+H45 Raithufaram Jama masjid, Ailapur, Gunjali, Telangana 503213",,R4RV+H45,"Ailapur, Gunjali",,Telangana,IN,https://www.google.com/maps/place/Raithufaram+Jama+masjid/data=!4m7!3m6!1s0x3bcde93d4b7e0f1d:0xe576038eba38fa5d!8m2!3d18.8413929!4d78.1428718!16s%2Fg%2F11kjhhhps4!19sChIJHQ9-Sz3pzTsRXfo4uo4DduU?authuser=0&hl=en&rclk=1,"18.8413929,78.1428718"
Masjid e mohammadiya,Mosque,"4X78+7FX Masjid e mohammadiya, Bhainsa, Telangana 504103",,4X78+7FX,Bhainsa,504103,Telangana,IN,https://www.google.com/maps/place/Masjid+e+mohammadiya/data=!4m7!3m6!1s0x3bcdffafe5575e1f:0xadcb9e0d27ec98a!8m2!3d19.1131596!4d77.9653526!16s%2Fg%2F11qbh1lndc!19sChIJH15X5a__zTsRisl-0uC53Ao?authuser=0&hl=en&rclk=1,"19.1131596,77.9653526"
Boregaon masjid,Mosque,"575J+M85 Boregaon masjid, Rd, Boragaon, Boregaon, Telangana 504110",,"575J+M85, Rd","Boragaon, Boregaon",504110,Telangana,IN,https://www.google.com/maps/place/Boregaon+masjid/data=!4m7!3m6!1s0x3bcdf5a37f0f4a77:0xa7ed0f87592cc9dd!8m2!3d19.1591431!4d78.2808539!16s%2Fg%2F11nfw3wdvw!19sChIJd0oPf6P1zTsR3cksWYcP7ac?authuser=0&hl=en&rclk=1,"19.159143099999998,78.2808539"
