name,main_category,address,address_ward,address_street,address_city,address_postal_code,address_state,address_country_code,link,coordinates
Jama Masjid,Mosque,"Jama Masjid, Old Delhi, Delhi, 110006","Jama Masjid, Old Delhi",,Delhi,110006,Delhi,IN,https://www.google.com/maps/place/Jama+Masjid/data=!4m7!3m6!1s0x390cfd18df89b215:0xdd57369e29bf9d96!8m2!3d28.6506792!4d77.2334421!16zL20vMDR5emo1!19sChIJFbKJ3xj9DDkRlp2_KZ42V90?authuser=0&hl=en&rclk=1,"28.6506792,77.23344209999999"
New Ashok Nagar,Subway station,"New Ashok Nagar, A-706, Block B, New Ashok Nagar, New Delhi, Delhi, 110096","Block B, New Ashok Nagar",A-706,"New Delhi, Delhi",,Delhi,IN,https://www.google.com/maps/place/New+Ashok+Nagar/data=!4m7!3m6!1s0x390ce48907b9ef0f:0x8d0cf5c34a0963e1!8m2!3d28.58916!4d77.30214!16s%2Fm%2F0bxzxm1!19sChIJD--5B4nkDDkR4WMJSsP1DI0?authuser=0&hl=en&rclk=1,"28.58916,77.30214"
SIRAJ TOOLS & SONS,Industrial engineers association,"G, SIRAJ TOOLS & SONS, 142, Street Number 17, near Noor Masjid, West Jyoti Nagar, Old Mustafabad, Shahdara, Delhi, 110094","West Jyoti Nagar, Old Mustafabad, Shahdara","G, 142, Street Number 17, near Noor Masjid",Delhi,110094,Delhi,IN,https://www.google.com/maps/place/SIRAJ+TOOLS+%26+SONS/data=!4m7!3m6!1s0x390cfb8d6e61a299:0xc230eabaa4fe02b9!8m2!3d28.6977671!4d77.2969741!16s%2Fg%2F11kphjgp9c!19sChIJmaJhbo37DDkRuQL-pLrqMMI?authuser=0&hl=en&rclk=1,"28.6977671,77.2969741"
Sunehri Masjid,Mosque,"M62Q+5QW Sunehri Masjid, Nishad Raj Marg, Lal Qila, Old Delhi, New Delhi, Delhi, 110006","Lal Qila, Old Delhi","M62Q+5QW, Nishad Raj Marg","New Delhi, Delhi",110006,Delhi,IN,https://www.google.com/maps/place/Sunehri+Masjid/data=!4m7!3m6!1s0x390cfd1e2ed1ec0d:0xb341e6c5c83f65e7!8m2!3d28.650487!4d77.2394481!16s%2Fm%2F0zwr167!19sChIJDezRLh79DDkR52U_yMXmQbM?authuser=0&hl=en&rclk=1,"28.650487,77.23944809999999"
Masjid Moth,Mosque,"Masjid Moth, 92, Masjid Moth Rd, South Extension II, Masjid Moth Village, New Delhi, Delhi 110049","South Extension II, Masjid Moth Village","92, Masjid Moth Rd",New Delhi,110049,Delhi,IN,https://www.google.com/maps/place/Masjid+Moth/data=!4m7!3m6!1s0x390ce242799950e9:0xb2f0ba5418b140f8!8m2!3d28.562458!4d77.2176906!16s%2Fm%2F05zxh9f!19sChIJ6VCZeULiDDkR-ECxGFS68LI?authuser=0&hl=en&rclk=1,"28.562458,77.2176906"
Akbari Jama Masjid jm` msjd khbry,Mosque,"H8R4+QXG Akbari Jama Masjid jm` msjd khbry, Block D, New Ashok Nagar, New Delhi, Delhi, 110096","Block D, New Ashok Nagar",H8R4+QXG,"New Delhi, Delhi",110096,Delhi,IN,https://www.google.com/maps/place/Akbari+Jama+Masjid+%D8%AC%D8%A7%D9%85%D8%B9+%D9%85%D8%B3%D8%AC%D8%AF+%D8%A7%DA%A9%D8%A8%D8%B1%DB%8C%E2%80%AD/data=!4m7!3m6!1s0x390ce48c9d102c1b:0xd247049122f58286!8m2!3d28.591929!4d77.3074671!16s%2Fg%2F12vs84fbn!19sChIJGywQnYzkDDkRhoL1IpEER9I?authuser=0&hl=en&rclk=1,"28.591929,77.3074671"
Shia Jama Masjid msjd shy`h,Mosque,"Shia Jama Masjid msjd shy`h, 2725, Hamilton Rd, Chabi Ganj, Kashmere Gate, New Delhi, Delhi, 110006","Chabi Ganj, Kashmere Gate","2725, Hamilton Rd","New Delhi, Delhi",110006,Delhi,IN,https://www.google.com/maps/place/Shia+Jama+Masjid+%D9%85%D8%B3%D8%AC%D8%AF+%D8%B4%DB%8C%D8%B9%DB%81%E2%80%AD/data=!4m7!3m6!1s0x390cfd05ae4afb2d:0xf62d6dbcc26ffcbb!8m2!3d28.6626295!4d77.2314668!16s%2Fm%2F0bwk37r!19sChIJLftKrgX9DDkRu_xvwrxtLfY?authuser=0&hl=en&rclk=1,"28.662629499999998,77.23146679999999"
Imamia Hall Shia Jama Masjid,Mosque,"J6R3+PF7 Imamia Hall Shia Jama Masjid, Panchkuian Marg, Harijan Basti, Gole Market, New Delhi, Delhi 110001","Harijan Basti, Gole Market","J6R3+PF7, Panchkuian Marg",New Delhi,110001,Delhi,IN,https://www.google.com/maps/place/Imamia+Hall+Shia+Jama+Masjid/data=!4m7!3m6!1s0x390cfd5cfcbf6533:0x711d2045522b3ced!8m2!3d28.6417818!4d77.2036635!16s%2Fg%2F124yqw23v!19sChIJM2W__Fz9DDkR7TwrUkUgHXE?authuser=0&hl=en&rclk=1,"28.6417818,77.20366349999999"
Mamu Bhanja,Mosque,"X2VF+PM5 Mamu Bhanja, Ashok Nagar, Sonipat, Haryana 131001",Ashok Nagar,X2VF+PM5,Sonipat,131001,Haryana,IN,https://www.google.com/maps/place/Mamu+Bhanja/data=!4m7!3m6!1s0x390db06d2e9b5f1b:0xab04754070c5d567!8m2!3d28.9942629!4d77.0242201!16s%2Fg%2F1hjh6vfkf!19sChIJG1-bLm2wDTkRZ9XFcEB1BKs?authuser=0&hl=en&rclk=1,"28.9942629,77.0242201"
Subhania Masjid( Badi Masjid),Mosque,"Subhania Masjid( Badi Masjid), Ghazipur Police Station, Mulla Colony, Rajbir Colony, I.P.Extension, Gharoli, New Delhi, Delhi, 110096","Mulla Colony, Rajbir Colony, I.P.Extension, Gharoli",Ghazipur Police Station,"New Delhi, Delhi",110096,Delhi,IN,https://www.google.com/maps/place/Subhania+Masjid%28+Badi+Masjid%29/data=!4m7!3m6!1s0x390ce4d854ffffff:0xb3add6f2399e893f!8m2!3d28.6208327!4d77.3291085!16s%2Fg%2F11cjp6912h!19sChIJ____VNjkDDkRP4meOfLWrbM?authuser=0&hl=en&rclk=1,"28.620832699999998,77.32910849999999"
Noorani Masjid,Mosque,"Noorani Masjid, A-27D, A Block, Sector 16, Noida, Uttar Pradesh 201301","A Block, Sector 16",A-27D,Noida,201301,Uttar Pradesh,IN,https://www.google.com/maps/place/Noorani+Masjid/data=!4m7!3m6!1s0x390ce45cf8cffc77:0x90d071db697bf979!8m2!3d28.5777983!4d77.3127416!16s%2Fg%2F11byyq5613!19sChIJd_zP-FzkDDkRefl7adtx0JA?authuser=0&hl=en&rclk=1,"28.577798299999998,77.3127416"
Badi(jama) Masjid,Mosque,"J4P4+2V4 Badi(jama) Masjid, Gali No. 4, Manak Vihar, Tihar Village, New Delhi, Delhi, 110018","Manak Vihar, Tihar Village","J4P4+2V4, Gali No. 4","New Delhi, Delhi",110018,Delhi,IN,https://www.google.com/maps/place/Badi%28jama%29+Masjid/data=!4m7!3m6!1s0x390d035e10a9d55f:0x40599e23ef175c9a!8m2!3d28.635023!4d77.1071989!16s%2Fg%2F11c1n313xp!19sChIJX9WpEF4DDTkRmlwX7yOeWUA?authuser=0&hl=en&rclk=1,"28.635023,77.1071989"
Masjid Wali Gali,Mosque,"Masjid Wali Gali, Akbari Masjid, Masjid Wali Gali, Block C, Block D, New Ashok Nagar, New Delhi, Delhi, 110096","Block C, Block D, New Ashok Nagar","Akbari Masjid, Masjid Wali Gali","New Delhi, Delhi",110096,Delhi,IN,https://www.google.com/maps/place/Masjid+Wali+Gali/data=!4m7!3m6!1s0x390ce48c9f1f9585:0xff54e3720e5d9ee5!8m2!3d28.5922497!4d77.3081096!16s%2Fg%2F11c48ghxkc!19sChIJhZUfn4zkDDkR5Z5dDnLjVP8?authuser=0&hl=en&rclk=1,"28.5922497,77.3081096"
Masjid Gharib Nawaz,Mosque,"Masjid Gharib Nawaz, Lane Number 4, I, G-95, Abul Fazal Enclave Rd, Jamia Nagar, Okhla, New Delhi, Delhi 110025","Part 1 Abul Fazal Enclave, Block L, Jamia Nagar, Okhla","Lane Number 4, I, G-95, Abul Fazal Enclave Rd",New Delhi,110025,Delhi,IN,https://www.google.com/maps/place/Masjid+Gharib+Nawaz/data=!4m7!3m6!1s0x390ce40e4647c9df:0x4ebd764bd7ab3249!8m2!3d28.5543078!4d77.2963136!16s%2Fg%2F11c1nrr849!19sChIJ38lHRg7kDDkRSTKr10t2vU4?authuser=0&hl=en&rclk=1,"28.5543078,77.29631359999999"
Masjid Chakkarwali,Mosque,"H6VV+J99 Masjid Chakkarwali, Dr Zakir Hussain Marg, Nizamuddin, National Zoological Park, Sundar Nagar, New Delhi, Delhi 110003","Nizamuddin, National Zoological Park, Sundar Nagar","H6VV+J99, Dr Zakir Hussain Marg",New Delhi,110003,Delhi,IN,https://www.google.com/maps/place/Masjid+Chakkarwali/data=!4m7!3m6!1s0x390ce31d01969b01:0xa554bb4cb707340e!8m2!3d28.5940396!4d77.2434789!16s%2Fg%2F1tg6nhqh!19sChIJAZuWAR3jDDkRDjQHt0y7VKU?authuser=0&hl=en&rclk=1,"28.5940396,77.2434789"
Madina Masjid,Mosque,"Madina Masjid, Mandigobindgarh, Block 29, Himmatpuri, Trilokpuri, New Delhi, Delhi, 110091","Mandigobindgarh, Block 29, Himmatpuri, Trilokpuri",,"New Delhi, Delhi",110091,Delhi,IN,https://www.google.com/maps/place/Madina+Masjid/data=!4m7!3m6!1s0x390ce493eaed65c3:0xcd13311e5a41e731!8m2!3d28.6016768!4d77.3050856!16s%2Fg%2F1hjgpl6fg!19sChIJw2Xt6pPkDDkRMedBWh4xE80?authuser=0&hl=en&rclk=1,"28.6016768,77.3050856"
Sunehari Bagh Masjid msjd,Mosque,"J666+5R2 Sunehari Bagh Masjid msjd, Motilal Nehru Marg, Rajpath Area, Central Secretariat, New Delhi, Delhi 110011","Rajpath Area, Central Secretariat","J666+5R2, Motilal Nehru Marg",New Delhi,110011,Delhi,IN,https://www.google.com/maps/place/Sunehari+Bagh+Masjid+%D9%85%D8%B3%D8%AC%D8%AF%E2%80%AD/data=!4m7!3m6!1s0x390ce2b9f7ae5b25:0x9e058e770ffa962f!8m2!3d28.610384!4d77.212024!16s%2Fg%2F124ycq4lc!19sChIJJVuu97niDDkRL5b6D3eOBZ4?authuser=0&hl=en&rclk=1,"28.610384,77.212024"
Lalkila N Delhi,Housing society,"J675+HJC Lalkila N Delhi, Rajpath Area, Raisina Hills, New Delhi, Delhi 110011","Rajpath Area, Raisina Hills",J675+HJC,New Delhi,,Delhi,IN,https://www.google.com/maps/place/Lalkila+N+Delhi/data=!4m7!3m6!1s0x390ce3bea61d9d33:0x542263055e69215d!8m2!3d28.6139391!4d77.2090212!16s%2Fg%2F11trn08glz!19sChIJM50dpr7jDDkRXSFpXgVjIlQ?authuser=0&hl=en&rclk=1,"28.6139391,77.2090212"
Choti Masjid (Aliya Madarsa) chhwtty msjd khwryjy,Mosque,"Choti Masjid (Aliya Madarsa) chhwtty msjd khwryjy, 43, Parwana Rd, Old Brijpuri, Krishna Nagar, Delhi, 110051","Old Brijpuri, Krishna Nagar","43, Parwana Rd",Delhi,110051,Delhi,IN,https://www.google.com/maps/place/Choti+Masjid+%28Aliya+Madarsa%29+%DA%86%DA%BE%D9%88%D9%B9%DB%8C+%D9%85%D8%B3%D8%AC%D8%AF+%D8%AE%D9%88%D8%B1%DB%8C%D8%AC%DB%8C%E2%80%AD/data=!4m7!3m6!1s0x390cfca4024b60bd:0xa220b66acb97b8ab!8m2!3d28.6461146!4d77.2805686!16s%2Fg%2F11bt_h35kf!19sChIJvWBLAqT8DDkRq7iXy2q2IKI?authuser=0&hl=en&rclk=1,"28.646114599999997,77.2805686"
LAL MASJID,Mosque,"M68H+3RH LAL MASJID, Mehar Parwar St, Old Dariya Ganj, Daryaganj, New Delhi, Delhi, 110006","Old Dariya Ganj, Daryaganj","M68H+3RH, Mehar Parwar St","New Delhi, Delhi",110006,Delhi,IN,https://www.google.com/maps/place/LAL+MASJID/data=!4m7!3m6!1s0x390cfd204bfd4f9d:0xfd439f7db6b2c4b0!8m2!3d28.6651865!4d77.2296039!16s%2Fm%2F02w18tr!19sChIJnU_9SyD9DDkRsMSytn2fQ_0?authuser=0&hl=en&rclk=1,"28.665186499999997,77.2296039"
Masjid Ashoka Road,Mosque,"Masjid Ashoka Road, Madarsa Islamia Arabia, Ashoka Rd, Janpath, Connaught Place, New Delhi, Delhi 110001","Janpath, Connaught Place","Madarsa Islamia Arabia, Ashoka Rd",New Delhi,110001,Delhi,IN,https://www.google.com/maps/place/Masjid+Ashoka+Road/data=!4m7!3m6!1s0x390ce2b4cd2e3acb:0x89811b9f32a64735!8m2!3d28.623053!4d77.214007!16s%2Fg%2F1pp2tvv_y!19sChIJyzouzbTiDDkRNUemMp8bgYk?authuser=0&hl=en&rclk=1,"28.623053,77.214007"
Aqsa Masjid,Mosque,"J4V4+RF8 Aqsa Masjid, Block K, Shyam Nagar, Vishnu Garden, New Delhi, Delhi, 110018","Block K, Shyam Nagar, Vishnu Garden",J4V4+RF8,"New Delhi, Delhi",110018,Delhi,IN,https://www.google.com/maps/place/Aqsa+Masjid/data=!4m7!3m6!1s0x390d03630625fadf:0xb38cbe8f95ab75d4!8m2!3d28.6445374!4d77.1061898!16s%2Fg%2F11cs5hdgrw!19sChIJ3_olBmMDDTkR1HWrlY--jLM?authuser=0&hl=en&rclk=1,"28.644537399999997,77.1061898"
Masjid Ek Burj,Mosque,"M63G+FHV Masjid Ek Burj, Kucha Rehman Gali, Balli Maran, Katra Rathi, Chandni Chowk, Delhi, 110006","Balli Maran, Katra Rathi, Chandni Chowk","M63G+FHV, Kucha Rehman Gali",Delhi,110006,Delhi,IN,https://www.google.com/maps/place/Masjid+Ek+Burj/data=!4m7!3m6!1s0x390cfd10d9760039:0xcb9bc5c687e44cf7!8m2!3d28.6537474!4d77.2264359!16s%2Fg%2F11cjtttsst!19sChIJOQB22RD9DDkR90zkh8bFm8s?authuser=0&hl=en&rclk=1,"28.6537474,77.2264359"
Jamia Arabia Gareeb Nawaz Masjid,Mosque,"Jamia Arabia Gareeb Nawaz Masjid, 911/23, Churriua Mohalla, Tughlakabad Extension, Tughlakabad, New Delhi, Delhi 110019","Churriua Mohalla, Tughlakabad Extension, Tughlakabad",911/23,New Delhi,110019,Delhi,IN,https://www.google.com/maps/place/Jamia+Arabia+Gareeb+Nawaz+Masjid/data=!4m7!3m6!1s0x390ce16f3041adfd:0x75f32e5fc4140c95!8m2!3d28.5218411!4d77.2571371!16s%2Fg%2F11f121yqvm!19sChIJ_a1BMG_hDDkRlQwUxF8u83U?authuser=0&hl=en&rclk=1,"28.5218411,77.2571371"
Jama Masjid metro station,Transport interchange,"Jama Masjid metro station, Chandni Chowk, Delhi, 110006",Chandni Chowk,,Delhi,,Delhi,IN,https://www.google.com/maps/place/Jama+Masjid+metro+station/data=!4m7!3m6!1s0x390cfd1facdd3537:0x7b09bf9c620e66b7!8m2!3d28.651065!4d77.2381355!16s%2Fm%2F012vy1gk!19sChIJNzXdrB_9DDkRt2YOYpy_CXs?authuser=0&hl=en&rclk=1,"28.651065,77.2381355"
Madina MASJID,Mosque,"Madina MASJID, 385, Manak Vihar Rd, Manak Vihar, Tihar Village, New Delhi, Delhi, 110018","Manak Vihar, Tihar Village","385, Manak Vihar Rd","New Delhi, Delhi",110018,Delhi,IN,https://www.google.com/maps/place/Madina+MASJID/data=!4m7!3m6!1s0x390d035e46292a5b:0x99c49dd2b7697b17!8m2!3d28.6340679!4d77.1061559!16s%2Fg%2F11c1n36l08!19sChIJWyopRl4DDTkRF3tpt9KdxJk?authuser=0&hl=en&rclk=1,"28.634067899999998,77.10615589999999"
MASJID,Mosque,"MASJID, Wz 173a/1 new ranjeet nagar, Guru Nanak Nagar, Shadipur, Delhi 110008","Guru Nanak Nagar, Shadipur",Wz 173a/1 new ranjeet nagar,New Delhi,110008,Delhi,IN,https://www.google.com/maps/place/MASJID/data=!4m7!3m6!1s0x390d0327bb6f6129:0xe8342be2eca63326!8m2!3d28.6456917!4d77.1597324!16s%2Fg%2F11h5lkhmc2!19sChIJKWFvuycDDTkRJjOm7OIrNOg?authuser=0&hl=en&rclk=1,"28.6456917,77.1597324"
Madina masjid,Mosque,"P844+GVR Madina masjid, Unnamed Road, Saboli Extension, Mandoli, Delhi, 110093","Saboli Extension, Mandoli","P844+GVR, Unnamed Road",Delhi,110093,Delhi,IN,https://www.google.com/maps/place/Madina+masjid/data=!4m7!3m6!1s0x390cfb887bf3e245:0x951f9fcbc68386d0!8m2!3d28.7063572!4d77.3071363!16s%2Fg%2F11gs60p6m7!19sChIJReLze4j7DDkR0IaDxsufH5U?authuser=0&hl=en&rclk=1,"28.7063572,77.3071363"
Masjid Maula Bakhsh,Mosque,"Masjid Maula Bakhsh, West Jyoti Nagar, Block D, Ashok Nagar, Shahdara, Delhi, 110093","West Jyoti Nagar, Block D, Ashok Nagar, Shahdara",,Delhi,110093,Delhi,IN,https://www.google.com/maps/place/Masjid+Maula+Bakhsh/data=!4m7!3m6!1s0x390cfb92c298e73f:0x6e4650cbeacd6690!8m2!3d28.6986216!4d77.3001071!16s%2Fg%2F11hckbc4k9!19sChIJP-eYwpL7DDkRkGbN6stQRm4?authuser=0&hl=en&rclk=1,"28.6986216,77.30010709999999"
Masjid,Mosque,"Masjid, 229, Budh Vihar, Mandoli, Delhi, 110093","Budh Vihar, Mandoli",229,Delhi,110093,Delhi,IN,https://www.google.com/maps/place/Masjid/data=!4m7!3m6!1s0x390cfbea7a717583:0x8adb6c082f8fcc75!8m2!3d28.7044369!4d77.3089914!16s%2Fg%2F11cjj7qz3s!19sChIJg3Vxeur7DDkRdcyPLwhs24o?authuser=0&hl=en&rclk=1,"28.704436899999997,77.3089914"
Imambargah Babul Murad,Mosque,"J843+4X7 Imambargah Babul Murad, Unnamed Road, Block 27, Himmatpuri, Trilokpuri, New Delhi, Delhi, 110091","Block 27, Himmatpuri, Trilokpuri","J843+4X7, Unnamed Road","New Delhi, Delhi",110091,Delhi,IN,https://www.google.com/maps/place/Imambargah+Babul+Murad/data=!4m7!3m6!1s0x390ce4943666d633:0xe0c9e1c743869b3b!8m2!3d28.6052845!4d77.3049148!16s%2Fg%2F11gfh8q8vb!19sChIJM9ZmNpTkDDkRO5uGQ8fhyeA?authuser=0&hl=en&rclk=1,"28.6052845,77.30491479999999"
mHmdy msjd hl Hdyth Mohammadi Masjid Ahle Hadees,Mosque,"P24Q+GXW mHmdy msjd hl Hdyth Mohammadi Masjid Ahle Hadees, AGAR NAGAR, Mubarakpur Dabas Main Rd, Prem Nagar III, Kirari Suleman Nagar, Delhi, 110086","Prem Nagar III, Kirari Suleman Nagar","P24Q+GXW, AGAR NAGAR, Mubarakpur Dabas Main Rd",Delhi,110086,Delhi,IN,https://www.google.com/maps/place/%D9%85%D8%AD%D9%85%D8%AF%DB%8C+%D9%85%D8%B3%D8%AC%D8%AF+%D8%A7%DA%BE%D9%84+%D8%AD%D8%AF%DB%8C%D8%AB+Mohammadi+Masjid+Ahle+Hadees%E2%80%AD/data=!4m7!3m6!1s0x390d075f0ee43589:0xf2b2a2471381155d!8m2!3d28.7063661!4d77.0399592!16s%2Fg%2F11rbyjdjz7!19sChIJiTXkDl8HDTkRXRWBE0eisvI?authuser=0&hl=en&rclk=1,"28.7063661,77.0399592"
Mosque,Mosque,"M747+V64 Mosque, Pushta Rd, Multani Mohalla, Gandhi Nagar, Shahdara, New Delhi, Delhi, 110031","Multani Mohalla, Gandhi Nagar, Shahdara","M747+V64, Pushta Rd","New Delhi, Delhi",110031,Delhi,IN,https://www.google.com/maps/place/Mosque/data=!4m7!3m6!1s0x390cfcecc3c3a38d:0x1e72f8e84718020c!8m2!3d28.6571357!4d77.2630907!16s%2Fg%2F1jkvzp3j_!19sChIJjaPDw-z8DDkRDAIYR-j4ch4?authuser=0&hl=en&rclk=1,"28.657135699999998,77.26309069999999"
Bilal Masjid,Mosque,"J3W3+926 Bilal Masjid, Green Enclave, Hastsal, Delhi, 110059","Green Enclave, Hastsal",J3W3+926,Delhi,,Delhi,IN,https://www.google.com/maps/place/Bilal+Masjid/data=!4m7!3m6!1s0x390d0502faaaaaab:0x64e61212c11027f!8m2!3d28.6459096!4d77.052522!16s%2Fg%2F11h9xstfzk!19sChIJq6qq-gIFDTkRfwIRLCFhTgY?authuser=0&hl=en&rclk=1,"28.6459096,77.052522"
Raza Masjid 32 Block,Mosque,"J823+4M4 Raza Masjid 32 Block, 34 Block, Block 32, Trilokpuri, Delhi, 110091","34 Block, Block 32, Trilokpuri",J823+4M4,Delhi,110091,Delhi,IN,https://www.google.com/maps/place/Raza+Masjid+32+Block/data=!4m7!3m6!1s0x390ce493d4295893:0x8d1b8ff7b979642!8m2!3d28.6002571!4d77.3042176!16s%2Fg%2F11b6s8hh6_!19sChIJk1gp1JPkDDkRQpaXe_-40Qg?authuser=0&hl=en&rclk=1,"28.6002571,77.3042176"
Badi Masjid msjd,Mosque,"Badi Masjid msjd, J-117, Block J, JJ Colony Wazirpur, Ashok Vihar, Delhi, 110052","Block J, JJ Colony Wazirpur, Ashok Vihar",J-117,Delhi,110052,Delhi,IN,https://www.google.com/maps/place/Badi+Masjid+%D9%85%D8%B3%D8%AC%D8%AF%E2%80%AD/data=!4m7!3m6!1s0x390d037d263d350f:0x14750643475921f8!8m2!3d28.6823172!4d77.1678431!16s%2Fg%2F11g4btk67m!19sChIJDzU9Jn0DDTkR-CFZR0MGdRQ?authuser=0&hl=en&rclk=1,"28.6823172,77.1678431"
Choti Masjid chhwtty msjd,Mosque,"Choti Masjid chhwtty msjd, c-531, Mulla Colony, Rajbir Colony, Mayur Vihar Phase III, Gharoli, Delhi, 110096","Mulla Colony, Rajbir Colony, Mayur Vihar Phase III, Gharoli",c-531,Delhi,110096,Delhi,IN,https://www.google.com/maps/place/Choti+Masjid+%DA%86%DA%BE%D9%88%D9%B9%DB%8C+%D9%85%D8%B3%D8%AC%D8%AF%E2%80%AD/data=!4m7!3m6!1s0x390ce4d814a8837b:0xab0db91edf63bc2!8m2!3d28.6219668!4d77.3305084!16s%2Fg%2F11dftp2d_j!19sChIJe4OoFNjkDDkRwjv27ZHbsAo?authuser=0&hl=en&rclk=1,"28.6219668,77.3305084"
Masjid Shaan E Ilahi,Mosque,"J835+M2W Masjid Shaan E Ilahi, Block 20, Part 2, Trilokpuri, Delhi, 110091","Block 20, Part 2, Trilokpuri",J835+M2W,Delhi,110091,Delhi,IN,https://www.google.com/maps/place/Masjid+Shaan+E+Ilahi/data=!4m7!3m6!1s0x390ce49491158b1b:0xc8cb89432adbf7ad!8m2!3d28.6042297!4d77.3075818!16s%2Fg%2F11cn5n3hlt!19sChIJG4sVkZTkDDkRrffbKkOJy8g?authuser=0&hl=en&rclk=1,"28.604229699999998,77.3075818"
HUSAINI MASJID BARELVI WALI,Mosque,"HUSAINI MASJID BARELVI WALI, 44, 30 Feet Rd Garima Garden, Ashok Vatika, Shalimar Garden, 30 Feet Rd, Garima Garden, Ashok Vatika, Shalimar Garden, Ghaziabad, Uttar Pradesh 201005","Garima Garden, Ashok Vatika, Shalimar Garden","44, 30 Feet Rd Garima Garden, Ashok Vatika, Shalimar Garden, 30 Feet Rd",Ghaziabad,201005,Uttar Pradesh,IN,https://www.google.com/maps/place/HUSAINI+MASJID+BARELVI+WALI/data=!4m7!3m6!1s0x390cfa447ff1d803:0x49db3f885af38f2!8m2!3d28.6961936!4d77.349626!16s%2Fg%2F11g7cr_p36!19sChIJA9jxf0T6DDkR8jivhfiznQQ?authuser=0&hl=en&rclk=1,"28.696193599999997,77.349626"
New Madina Masjid & Madarsa msjd w mdrsh mdynh,Mosque,"H8V5+QRP New Madina Masjid & Madarsa msjd w mdrsh mdynh, Block D, New Ashok Nagar, Delhi, 110096","Block D, New Ashok Nagar",H8V5+QRP,Delhi,110096,Delhi,IN,https://www.google.com/maps/place/New+Madina+Masjid+%26+Madarsa+%D9%85%D8%B3%D8%AC%D8%AF+%D9%88+%D9%85%D8%AF%D8%B1%D8%B3%DB%81+%D9%85%D8%AF%DB%8C%D9%86%D9%87%E2%80%AD/data=!4m7!3m6!1s0x390ce58eba5e9b75:0x9a27f8c90050cd94!8m2!3d28.5944599!4d77.3095649!16s%2Fg%2F11fb0kc12h!19sChIJdZteuo7lDDkRlM1QAMn4J5o?authuser=0&hl=en&rclk=1,"28.5944599,77.3095649"
Jama Masjid,Mosque,"Jama Masjid, Moh shuklan, Main Market Rd, Bholapuri, Pilkhuwa, Uttar Pradesh 245304",Bholapuri,"Moh shuklan, Main Market Rd",Pilkhuwa,245304,Uttar Pradesh,IN,https://www.google.com/maps/place/Jama+Masjid/data=!4m7!3m6!1s0x390c8e81cc3f8d8d:0xdd2dc325d98fc5c5!8m2!3d28.7133492!4d77.654719!16s%2Fg%2F11g6nh7s5b!19sChIJjY0_zIGODDkRxcWP2SXDLd0?authuser=0&hl=en&rclk=1,"28.7133492,77.654719"
Masjid New Ashok Nagar,Mosque,"Masjid New Ashok Nagar, Ashok Nagar, Shahganj, Agra, Uttar Pradesh 282010","Ashok Nagar, Shahganj",,Agra,282010,Uttar Pradesh,IN,https://www.google.com/maps/place/Masjid+New+Ashok+Nagar/data=!4m7!3m6!1s0x39747719b6df9c15:0xdd3e7fd04ab02507!8m2!3d27.1820793!4d77.9933183!16s%2Fg%2F11fz9vz79w!19sChIJFZzfthl3dDkRByWwStB_Pt0?authuser=0&hl=en&rclk=1,"27.182079299999998,77.9933183"
Masjid E Bilal(R.A),Mosque,"Masjid E Bilal(R.A), 313/83, Tulsi Nagar, Inderlok, New Delhi, Delhi, 110035","Tulsi Nagar, Inderlok",313/83,"New Delhi, Delhi",,Delhi,IN,https://www.google.com/maps/place/Masjid+E+Bilal%28R.A%29/data=!4m7!3m6!1s0x390d0305415347cd:0xf0ebc396d5163f98!8m2!3d28.6718945!4d77.1637325!16s%2Fg%2F11k5j1wwbz!19sChIJzUdTQQUDDTkRmD8W1ZbD6_A?authuser=0&hl=en&rclk=1,"28.671894499999997,77.1637325"
Madina Masjid Deobandi Markaz,Mosque,"HPFM+6HJ Madina Masjid Deobandi Markaz, Azad Mohalla, Ashoknagar, Madhya Pradesh 473331",Azad Mohalla,HPFM+6HJ,Ashoknagar,473331,Madhya Pradesh,IN,https://www.google.com/maps/place/Madina+Masjid+Deobandi+Markaz/data=!4m7!3m6!1s0x397a301a09bc0867:0x18e2fdfbda5e52cb!8m2!3d24.5730768!4d77.7338776!16s%2Fg%2F11f122qz6j!19sChIJZwi8CRowejkRy1Je2vv94hg?authuser=0&hl=en&rclk=1,"24.5730768,77.7338776"
Ek Burj Wali Masjid,Mosque,"Ek Burj Wali Masjid, 1285, pahari imli New, Sita Ram Bazar, Chandni Chowk, New Delhi, Delhi 110006","Sita Ram Bazar, Chandni Chowk","1285, pahari imli New","New Delhi, Delhi",110006,Delhi,IN,https://www.google.com/maps/place/Ek+Burj+Wali+Masjid/data=!4m7!3m6!1s0x390cfd22798933e9:0x952ef97cdf0d7140!8m2!3d28.6473909!4d77.2324918!16s%2Fg%2F11ddx07xmx!19sChIJ6TOJeSL9DDkRQHEN33z5LpU?authuser=0&hl=en&rclk=1,"28.647390899999998,77.23249179999999"
Mosque / Masjid,Mosque,"Mosque / Masjid, A430, DDA Colony, Chaukhandi, Vishnu Garden, Delhi, 110018","DDA Colony, Chaukhandi, Vishnu Garden",A430,Delhi,110018,Delhi,IN,https://www.google.com/maps/place/Mosque+%2F+Masjid/data=!4m7!3m6!1s0x390d05579c83dfb9:0xadb490f25993e21b!8m2!3d28.645374!4d77.094016!16s%2Fg%2F11qn2351hz!19sChIJud-DnFcFDTkRG-KTWfKQtK0?authuser=0&hl=en&rclk=1,"28.645374,77.094016"
Hanuman Mandir,Hindu temple,"Hanuman Mandir, 193, Main Mandoli Rd, Chanderlok, Shahdara, Delhi, 110032","Chanderlok, Shahdara","193, Main Mandoli Rd",Delhi,110032,Delhi,IN,https://www.google.com/maps/place/Hanuman+Mandir/data=!4m7!3m6!1s0x390cfb9ab1406811:0xf5c29927029fe538!8m2!3d28.6874531!4d77.2984289!16s%2Fg%2F11csb0w3yw!19sChIJEWhAsZr7DDkROOWfAieZwvU?authuser=0&hl=en&rclk=1,"28.6874531,77.29842889999999"
Shahi Jama Masjid,Mosque,"Shahi Jama Masjid, Purana Bazar, Ashoknagar, Madhya Pradesh 473331",Purana Bazar,,Ashoknagar,473331,Madhya Pradesh,IN,https://www.google.com/maps/place/Shahi+Jama+Masjid/data=!4m7!3m6!1s0x397a30172701f3dd:0xd68d100b5bbfcd6c!8m2!3d24.5709436!4d77.7310129!16s%2Fg%2F11cs38xd50!19sChIJ3fMBJxcwejkRbM2_WwsQjdY?authuser=0&hl=en&rclk=1,"24.5709436,77.7310129"
Chhoti Masjid,Mosque,"J6VJ+FMQ Chhoti Masjid, Phatak Teliyan, Muhammad Deen Ilachi Marg, Phatak Teliyan, Kalyanpura, Chandni Chowk, New Delhi, Delhi 110006","Phatak Teliyan, Kalyanpura, Chandni Chowk","J6VJ+FMQ, Phatak Teliyan, Muhammad Deen Ilachi Marg","New Delhi, Delhi",110006,Delhi,IN,https://www.google.com/maps/place/Chhoti+Masjid/data=!4m7!3m6!1s0x390cfdbd9668c507:0x4312b5d1afeff76b!8m2!3d28.6437022!4d77.2317409!16s%2Fg%2F11f61fsb0s!19sChIJB8Volr39DDkRa_fvr9G1EkM?authuser=0&hl=en&rclk=1,"28.6437022,77.23174089999999"
Mosque msjd,Mosque,"J76X+W9R Mosque msjd, New, Kotla Village, Mayur Vihar, New Delhi, Delhi 110091","Kotla Village, Mayur Vihar","J76X+W9R, New","New Delhi, Delhi",110091,Delhi,IN,https://www.google.com/maps/place/Mosque+%D9%85%D8%B3%D8%AC%D8%AF%E2%80%AD/data=!4m7!3m6!1s0x390ce4bcc9c6272b:0x172c875eb9dd78e2!8m2!3d28.612373!4d77.2984052!16s%2Fg%2F11c3182y_w!19sChIJKyfGybzkDDkR4njduV6HLBc?authuser=0&hl=en&rclk=1,"28.612372999999998,77.29840519999999"
Noor masjid,Mosque,"Noor masjid, 88-A, Meharchand Market, Lodi Colony, New Delhi, Delhi 110003","Meharchand Market, Lodi Colony",88-A,New Delhi,110003,Delhi,IN,https://www.google.com/maps/place/Noor+masjid/data=!4m7!3m6!1s0x390ce3bde048d651:0x31a744236a19398c!8m2!3d28.5863397!4d77.2271578!16s%2Fg%2F11j0z5cnj_!19sChIJUdZI4L3jDDkRjDkZaiNEpzE?authuser=0&hl=en&rclk=1,"28.5863397,77.2271578"
Ashok Nagar Masjid,Mosque,"RWQG+529 Ashok Nagar Masjid, Ashok Nagar, Naka Hindola, Lucknow, Uttar Pradesh 226018","Ashok Nagar, Naka Hindola",RWQG+529,Lucknow,226018,Uttar Pradesh,IN,https://www.google.com/maps/place/Ashok+Nagar+Masjid/data=!4m7!3m6!1s0x399bfdb461263a21:0xd833c96897b5cb0b!8m2!3d26.8379241!4d80.9251079!16s%2Fg%2F12vrrcqm9!19sChIJITomYbT9mzkRC8u1l2jJM9g?authuser=0&hl=en&rclk=1,"26.8379241,80.9251079"
Peer Chandi wali Dargaha,Mosque,"M5M8+F55 Peer Chandi wali Dargaha, Prakashvir Shastri Marg, Block F, JJ Colony Wazirpur, Ashok Vihar, Delhi, 110052","Block F, JJ Colony Wazirpur, Ashok Vihar","M5M8+F55, Prakashvir Shastri Marg",Delhi,110052,Delhi,IN,https://www.google.com/maps/place/Peer+Chandi+wali+Dargaha/data=!4m7!3m6!1s0x390d0246d20c1fef:0xa94a4e4d7b71bd47!8m2!3d28.6836417!4d77.1654797!16s%2Fg%2F1hm66jlld!19sChIJ7x8M0kYCDTkRR71xe01OSqk?authuser=0&hl=en&rclk=1,"28.6836417,77.16547969999999"
Madarsa gulshane Raza Masjid,Mosque,"Madarsa gulshane Raza Masjid, 89 L.I.G. Flats, Krishna Colony, Hastsal Village, Hastsal, New Delhi, Delhi 110059","Krishna Colony, Hastsal Village, Hastsal",89 L.I.G. Flats,"New Delhi, Delhi",110059,Delhi,IN,https://www.google.com/maps/place/Madarsa+gulshane+Raza+Masjid/data=!4m7!3m6!1s0x390d05dd4fe61123:0xa316bcad03dac10!8m2!3d28.6325923!4d77.0630521!16s%2Fg%2F11qs1zpy54!19sChIJIxHmT90FDTkREKw90MprMQo?authuser=0&hl=en&rclk=1,"28.6325923,77.0630521"
Ishaq Masjid,Mosque,"Ishaq Masjid, Ishaq Masjid Wali Gali, Block C, Sarai Kale Khan, New Delhi, Delhi 110013","Block C, Sarai Kale Khan",Ishaq Masjid Wali Gali,New Delhi,110013,Delhi,IN,https://www.google.com/maps/place/Ishaq+Masjid/data=!4m7!3m6!1s0x390ce376f8a80f59:0x43d242dbd3376818!8m2!3d28.5849571!4d77.2565889!16s%2Fg%2F11q2tx_6x1!19sChIJWQ-o-HbjDDkRGGg309tC0kM?authuser=0&hl=en&rclk=1,"28.5849571,77.2565889"
"Shiv Mandir, Manak Vihar, East Ashok Nagar",Hindu temple,"J4P4+5MV Shiv Mandir, Manak Vihar, East Ashok Nagar, Manak Vihar, Tihar Village, New Delhi, Delhi, 110018","Manak Vihar, Tihar Village",J4P4+5MV,"New Delhi, Delhi",110018,Delhi,IN,"https://www.google.com/maps/place/Shiv+Mandir,+Manak+Vihar,+East+Ashok+Nagar/data=!4m7!3m6!1s0x390d034a067588bf:0x312e342d934a121b!8m2!3d28.6354853!4d77.1066706!16s%2Fg%2F11jp7hy2c4!19sChIJv4h1BkoDDTkRGxJKky00LjE?authuser=0&hl=en&rclk=1","28.6354853,77.1066706"
Masjid,Mosque,"Q6MJ+5H5 Masjid, Badarpur, Madanpur Khadar, New Delhi, 110084",Madanpur Khadar,"Q6MJ+5H5, Badarpur","New Delhi, Delhi",110084,Delhi,IN,https://www.google.com/maps/place/Masjid/data=!4m7!3m6!1s0x390cffb780460377:0x9fe224e9c653e965!8m2!3d28.7828891!4d77.2314704!16s%2Fg%2F11qn790lvq!19sChIJdwNGgLf_DDkRZelTxukk4p8?authuser=0&hl=en&rclk=1,"28.7828891,77.23147039999999"
Firdousiriya Enterprises,Association or organization,"Firdousiriya Enterprises, 27/317, Ground Floor, Near 27 Block Masjid, Trilokpuri Chowk, Trilokpuri, New Delhi, Delhi 110091","Block 27, Himmatpuri, Mayur Vihar","27/317, Ground Floor, Near 27 Block Masjid, Trilokpuri Chowk, Trilokpuri","New Delhi, Delhi",110091,Delhi,IN,https://www.google.com/maps/place/Firdousiriya+Enterprises/data=!4m7!3m6!1s0x390ce4942f8e0119:0xc7ee4ceb9c17f5ea!8m2!3d28.605147!4d77.304328!16s%2Fg%2F11cjkq3r4x!19sChIJGQGOL5TkDDkR6vUXnOtM7sc?authuser=0&hl=en&rclk=1,"28.605147,77.304328"
"Hanuman Mandir .saboli , mandoli(chotte mrghtt vaale)",Hindu temple,"M8X3+QV8 Hanuman Mandir .saboli , mandoli(chotte mrghtt vaale), Sewa Dham Rd, Mandoli Extension, Saboli, Delhi, 110093","Mandoli Extension, Saboli","M8X3+QV8, Sewa Dham Rd",Delhi,110093,Delhi,IN,"https://www.google.com/maps/place/Hanuman+Mandir+.saboli+,+mandoli%28%E0%A4%9B%E0%A5%8B%E0%A4%9F%E0%A5%87+%E0%A4%AE%E0%A4%B0%E0%A4%98%E0%A4%9F+%E0%A4%B5%E0%A4%BE%E0%A4%B2%E0%A5%87%29/data=!4m7!3m6!1s0x390cfbbc459829ad:0x271cd41ec7e0e7b3!8m2!3d28.6994051!4d77.3047061!16s%2Fg%2F11pkfkpfw2!19sChIJrSmYRbz7DDkRs-fgxx7UHCc?authuser=0&hl=en&rclk=1","28.6994051,77.30470609999999"
Macca Masjid,Mosque,"HPFM+844 Macca Masjid, near bhore colony, Bohre Colony, Ashoknagar, Madhya Pradesh 473331",Bohre Colony,"HPFM+844, near bhore colony",Ashoknagar,,Madhya Pradesh,IN,https://www.google.com/maps/place/Macca+Masjid/data=!4m7!3m6!1s0x397a3010bc4e231b:0x5776968e8233a1c4!8m2!3d24.5732567!4d77.7328215!16s%2Fg%2F11f3v97t14!19sChIJGyNOvBAwejkRxKEzgo6Wdlc?authuser=0&hl=en&rclk=1,"24.573256699999998,77.7328215"
Noori Jama Masjid.,Mosque,"H8V6+R83 Noori Jama Masjid., Block D, New Ashok Nagar, Nihalapur, Delhi, 222181","Block D, New Ashok Nagar",H8V6+R83,"Nihalapur, Delhi",222181,Delhi,IN,https://www.google.com/maps/place/Noori+Jama+Masjid./data=!4m7!3m6!1s0x390ce5706df45c8b:0xeede4d09e6d81cab!8m2!3d28.594504!4d77.310798!16s%2Fg%2F11llhfgbyf!19sChIJi1z0bXDlDDkRqxzY5glN3u4?authuser=0&hl=en&rclk=1,"28.594503999999997,77.31079799999999"
MASJID SHANULLAH AHLEY SUNNAT msjd shn llh,Mosque,"MASJID SHANULLAH AHLEY SUNNAT msjd shn llh, BLOCK 32 AND 33, E 36B 95, Mandigobindgarh, Block 32, Ambedkar Camp, Trilokpuri, Delhi, 110091","Mandigobindgarh, Block 32, Ambedkar Camp, Trilokpuri","BLOCK 32 AND 33, E 36B 95",Delhi,110091,Delhi,IN,https://www.google.com/maps/place/MASJID+SHANULLAH+AHLEY+SUNNAT+%D9%85%D8%B3%D8%AC%D8%AF+%D8%B4%D8%A7%D9%86+%D8%A7%D9%84%D9%84%DB%81%E2%80%AD/data=!4m7!3m6!1s0x390ce5341e9099f3:0x977863fb37296b78!8m2!3d28.6010633!4d77.303957!16s%2Fg%2F11mtfczhnm!19sChIJ85mQHjTlDDkReGspN_tjeJc?authuser=0&hl=en&rclk=1,"28.6010633,77.303957"
Ek Minar Masjid,Mosque,"G8X2+W7P Ek Minar Masjid, Shaheen Bagh, Jamia Nagar, Jasola, New Delhi, Delhi 110020","Shaheen Bagh, Jamia Nagar, Jasola",G8X2+W7P,New Delhi,110020,Delhi,IN,https://www.google.com/maps/place/Ek+Minar+Masjid/data=!4m7!3m6!1s0x390ce41a8a36aaab:0xf77582e08859e0b8!8m2!3d28.549828!4d77.3006936!16s%2Fg%2F11txmzfhwm!19sChIJq6o2ihrkDDkRuOBZiOCCdfc?authuser=0&hl=en&rclk=1,"28.549827999999998,77.3006936"
Mosque,Place of worship,"H89H+V63 Mosque, Sector 28, Noida, Uttar Pradesh 201301",Sector 28,H89H+V63,Noida,201301,Uttar Pradesh,IN,https://www.google.com/maps/place/Mosque/data=!4m7!3m6!1s0x390ce521968ac6e9:0xa09b62638b150d95!8m2!3d28.5696316!4d77.3280564!16s%2Fg%2F11txrhgm2y!19sChIJ6caKliHlDDkRlQ0Vi2Nim6A?authuser=0&hl=en&rclk=1,"28.569631599999997,77.3280564"
Chand masjid,Mosque,"Chand masjid, E-218, Street Number 9, West Jyoti Nagar, Ashok Nagar Mandoli, Ashok Nagar, Shahdara, Delhi, 110093","West Jyoti Nagar, Ashok Nagar Mandoli, Ashok Nagar, Shahdara","E-218, Street Number 9",Delhi,110093,Delhi,IN,https://www.google.com/maps/place/Chand+masjid/data=!4m7!3m6!1s0x390cfb38a2300deb:0xcfbe85c08f11618f!8m2!3d28.6940178!4d77.2964106!16s%2Fg%2F11gxrjk37y!19sChIJ6w0wojj7DDkRj2ERj8CFvs8?authuser=0&hl=en&rclk=1,"28.694017799999997,77.2964106"
Chhoti Masjid (Ahle Hadees),Mosque,"Chhoti Masjid (Ahle Hadees), 264, Choori Walan Rd, Manohar Market, Hauz Qazi, Chandni Chowk, New Delhi, Delhi, 110006","Manohar Market, Hauz Qazi, Chandni Chowk","264, Choori Walan Rd","New Delhi, Delhi",110006,Delhi,IN,https://www.google.com/maps/place/Chhoti+Masjid+%28Ahle+Hadees%29/data=!4m7!3m6!1s0x390cfd18bf467e93:0xc36191f73bfbf9bf!8m2!3d28.6497525!4d77.2313829!16s%2Fg%2F11tmys55cl!19sChIJk35Gvxj9DDkRv_n7O_eRYcM?authuser=0&hl=en&rclk=1,"28.649752499999998,77.2313829"
Masjid,Mosque,"Masjid, 42C, Central Auto Market, Block B, Sector 16, Noida, Uttar Pradesh 201301","Central Auto Market, Block B, Sector 16",42C,Noida,201301,Uttar Pradesh,IN,https://www.google.com/maps/place/Masjid/data=!4m7!3m6!1s0x390ce45b6e8b8d05:0x1c6debc04866e60!8m2!3d28.577362!4d77.31624!16s%2Fg%2F11c6rj0f0y!19sChIJBY2LblvkDDkRYG6GBLzexgE?authuser=0&hl=en&rclk=1,"28.577361999999997,77.31624"
Fatima masjid,Mosque,"Fatima masjid, A 229, Chungi No 1, Block A, Lal Kuan, New Delhi, Delhi 110044","Chungi No 1, Block A, Lal Kuan",A 229,New Delhi,110044,Delhi,IN,https://www.google.com/maps/place/Fatima+masjid/data=!4m7!3m6!1s0x390ce1fb14aadc9f:0x94ce6ebda4b13a61!8m2!3d28.4979216!4d77.2831391!16s%2Fg%2F11pz6wyc5x!19sChIJn9yqFPvhDDkRYTqxpL1uzpQ?authuser=0&hl=en&rclk=1,"28.497921599999998,77.2831391"
Hanuman Mandir,Hindu temple,"Hanuman Mandir, 152, Dariba Kalan Rd, Clock Market, New Lajpat Rai Market, Chandni Chowk, Delhi, 110006","Clock Market, New Lajpat Rai Market, Chandni Chowk","152, Dariba Kalan Rd",Delhi,110006,Delhi,IN,https://www.google.com/maps/place/Hanuman+Mandir/data=!4m7!3m6!1s0x390cfd1b8d1dc773:0x1cf65723ba6c3658!8m2!3d28.655193!4d77.234221!16s%2Fg%2F12hlrxl9c!19sChIJc8cdjRv9DDkRWDZsuiNX9hw?authuser=0&hl=en&rclk=1,"28.655192999999997,77.23422099999999"
Khalliullah Masjid,Mosque,"M7RM+486 Khalliullah Masjid, Block A, Kabir Nagar, Shahdara, Delhi, 110032","Block A, Kabir Nagar, Shahdara",M7RM+486,Delhi,110032,Delhi,IN,https://www.google.com/maps/place/Khalliullah+Masjid/data=!4m7!3m6!1s0x390cfd755b663195:0xd8be9d125a8e50d1!8m2!3d28.6902785!4d77.28328!16s%2Fg%2F11r_tph0cx!19sChIJlTFmW3X9DDkR0VCOWhKdvtg?authuser=0&hl=en&rclk=1,"28.690278499999998,77.28327999999999"
royal jama mosque,Mosque,"HPCJ+9CC royal jama mosque, Purana Bazar, Ashoknagar, Madhya Pradesh 473331",Purana Bazar,HPCJ+9CC,Ashoknagar,473331,Madhya Pradesh,IN,https://www.google.com/maps/place/royal+jama+mosque/data=!4m7!3m6!1s0x397a30172701f3dd:0x1894fb67beedf640!8m2!3d24.5709436!4d77.7310129!16s%2Fg%2F11c1td8q6l!19sChIJ3fMBJxcwejkRQPbtvmf7lBg?authuser=0&hl=en&rclk=1,"24.5709436,77.7310129"
Badi masjid,Mosque,"J6VM+GF4 Badi masjid, Unnamed Road, Bazar Chitli Qabar, Hauz Suiwalan, Old Delhi, Delhi, 110006","Bazar Chitli Qabar, Hauz Suiwalan, Old Delhi","J6VM+GF4, Unnamed Road",Delhi,110006,Delhi,IN,https://www.google.com/maps/place/Badi+masjid/data=!4m7!3m6!1s0x390cfd5cb477432d:0x1e4d3ba7a9b468!8m2!3d28.6437557!4d77.233705!16s%2Fg%2F11l3xyqqc8!19sChIJLUN3tFz9DDkRaLSppztNHgA?authuser=0&hl=en&rclk=1,"28.6437557,77.233705"
Masjid,Mosque,"5XJV+VCV Masjid, Ashok Nagar, Shahganj, Agra, Uttar Pradesh 282010","Ashok Nagar, Shahganj",5XJV+VCV,Agra,282010,Uttar Pradesh,IN,https://www.google.com/maps/place/Masjid/data=!4m7!3m6!1s0x397477f6c9c02cc1:0xf34fb621cb949647!8m2!3d27.1822428!4d77.9935471!16s%2Fg%2F11kb9c8gj9!19sChIJwSzAyfZ3dDkRR5aUyyG2T_M?authuser=0&hl=en&rclk=1,"27.182242799999997,77.9935471"
Masjid Haji Chand Khan msjd Hjy chnd khN,Mosque,"Masjid Haji Chand Khan msjd Hjy chnd khN, Ram Nagar Colony, Gular Rd, Ashok Nagar Colony, Aligarh, Uttar Pradesh 202001",Ashok Nagar Colony,"Ram Nagar Colony, Gular Rd",Aligarh,202001,Uttar Pradesh,IN,https://www.google.com/maps/place/Masjid+Haji+Chand+Khan+%D9%85%D8%B3%D8%AC%D8%AF+%D8%AD%D8%A7%D8%AC%DB%8C+%DA%86%D8%A7%D9%86%D8%AF+%D8%AE%D8%A7%DA%BA%E2%80%AD/data=!4m7!3m6!1s0x3974a4617a1f2e1b:0xbe07c9d6c484caf8!8m2!3d27.8899947!4d78.0621434!16s%2Fg%2F1pyqjpkn6!19sChIJGy4femGkdDkR-MqExNbJB74?authuser=0&hl=en&rclk=1,"27.8899947,78.0621434"
Hanuman Mandir,Hindu temple,"M8W7+MMJ Hanuman Mandir, Nandan Nagar, Nand Nagri, Mandoli, Delhi, 110093","Nandan Nagar, Nand Nagri, Mandoli",M8W7+MMJ,Delhi,110093,Delhi,IN,https://www.google.com/maps/place/Hanuman+Mandir/data=!4m7!3m6!1s0x390cfbbebeaaaaab:0x980e15133a594693!8m2!3d28.6967166!4d77.3141346!16s%2Fg%2F11hcys_g9v!19sChIJq6qqvr77DDkRk0ZZOhMVDpg?authuser=0&hl=en&rclk=1,"28.6967166,77.3141346"
HUSAINIA EDUCATIONAL AND DEVELOPMENT FOUNDATION,Non-profit organization,"N-92, HUSAINIA EDUCATIONAL AND DEVELOPMENT FOUNDATION, C 20, Futta Jama Masjid Rd, Thokar No 6, Batla House, Jamia Nagar, Okhla, New Delhi, Delhi 110025","Thokar No 6, Batla House, Jamia Nagar, Okhla","N-92, C 20, Futta Jama Masjid Rd",New Delhi,110025,Delhi,IN,https://www.google.com/maps/place/HUSAINIA+EDUCATIONAL+AND+DEVELOPMENT+FOUNDATION/data=!4m7!3m6!1s0x390ce41aaf449eef:0xca9fb04a974b595a!8m2!3d28.5503524!4d77.2986449!16s%2Fg%2F11pxx16fpv!19sChIJ755ErxrkDDkRWllLl0qwn8o?authuser=0&hl=en&rclk=1,"28.550352399999998,77.2986449"
Mohsin house,Housing society,"H8V4+4V2 Mohsin house, Block C 2, Block D, New Ashok Nagar, New Delhi, Delhi, 110096","Block C 2, Block D, New Ashok Nagar",H8V4+4V2,"New Delhi, Delhi",110096,Delhi,IN,https://www.google.com/maps/place/Mohsin+house/data=!4m7!3m6!1s0x390ce5a8385f4f67:0x4b3a683635ed2232!8m2!3d28.5927658!4d77.3071399!16s%2Fg%2F11kj4nglph!19sChIJZ09fOKjlDDkRMiLtNTZoOks?authuser=0&hl=en&rclk=1,"28.5927658,77.3071399"
New Madeena Masjid (Chhoti Masjid) msjd,Mosque,"New Madeena Masjid (Chhoti Masjid) msjd, D-218, Block D, New Ashok Nagar, Delhi, 110096","Block D, New Ashok Nagar",D-218,Delhi,110096,Delhi,IN,https://www.google.com/maps/place/New+Madeena+Masjid+%28Chhoti+Masjid%29+%D9%85%D8%B3%D8%AC%D8%AF%E2%80%AD/data=!4m7!3m6!1s0x390ce5862a0868e9:0x9e9c1e03e4b16906!8m2!3d28.5943077!4d77.3092836!16s%2Fg%2F11qyw2kgm2!19sChIJ6WgIKoblDDkRBmmx5AMenJ4?authuser=0&hl=en&rclk=1,"28.594307699999998,77.3092836"
Masjid,Mosque,"Masjid, 94L, Adarsh Mohalla, Block P, Mayur Vihar, Delhi, 110091","Adarsh Mohalla, Block P, Mayur Vihar",94L,Delhi,110091,Delhi,IN,https://www.google.com/maps/place/Masjid/data=!4m7!3m6!1s0x390ce594aaf9a4ed:0x7705b6bd1214d779!8m2!3d28.6097585!4d77.2915521!16s%2Fg%2F11vdfgxvzr!19sChIJ7aT5qpTlDDkRedcUEr22BXc?authuser=0&hl=en&rclk=1,"28.609758499999998,77.29155209999999"
Masjid Saba Apartment,Mosque,"H86Q+7V5 Masjid Saba Apartment, Block D, Sector 44, Noida, Uttar Pradesh 201303","Block D, Sector 44",H86Q+7V5,Noida,201303,Uttar Pradesh,IN,https://www.google.com/maps/place/Masjid+Saba+Apartment/data=!4m7!3m6!1s0x390ce5c935bcffff:0xde8b606fd91781c2!8m2!3d28.5606318!4d77.3397222!16s%2Fg%2F11kj3f7_fs!19sChIJ__-8NcnlDDkRwoEX2W9gi94?authuser=0&hl=en&rclk=1,"28.5606318,77.3397222"
Masjid,Mosque,"Shop No: 5035, Masjid, Netaji Subhash Marg, Daryaganj, New Delhi, Delhi, 110002",Daryaganj,"Shop No: 5035, Netaji Subhash Marg","New Delhi, Delhi",110002,Delhi,IN,https://www.google.com/maps/place/Masjid/data=!4m7!3m6!1s0x390cfdf175041b95:0x8ef57a2bc9f92c1c!8m2!3d28.6480954!4d77.2403964!16s%2Fg%2F11s664lvxh!19sChIJlRsEdfH9DDkRHCz5ySt69Y4?authuser=0&hl=en&rclk=1,"28.6480954,77.2403964"
Masjid,Mosque,"H662+8G4 Masjid, Green Park Ext Rd, Block J, Green Park Extension, Green Park, New Delhi, Delhi 110016","Block J, Green Park Extension, Green Park","H662+8G4, Green Park Ext Rd",New Delhi,110016,Delhi,IN,https://www.google.com/maps/place/Masjid/data=!4m7!3m6!1s0x390ce3053c6f74cf:0x33b8d79c09cb4f99!8m2!3d28.5607743!4d77.2013357!16s%2Fg%2F11krd8fpw7!19sChIJz3RvPAXjDDkRmU_LCZzXuDM?authuser=0&hl=en&rclk=1,"28.5607743,77.2013357"
Hussnain house,Housing society,"H8R5+R5C Hussnain house, Masjid Wali Gali, Block D, New Ashok Nagar, New Delhi, Delhi, Uttar Pradesh 110096","Block D, New Ashok Nagar","H8R5+R5C, Masjid Wali Gali","New Delhi, Delhi",110096,Uttar Pradesh,IN,https://www.google.com/maps/place/Hussnain+house/data=!4m7!3m6!1s0x390ce54fcd0c134d:0x66896d2fb593fa85!8m2!3d28.5920739!4d77.3078982!16s%2Fg%2F11shm8v8d7!19sChIJTRMMzU_lDDkRhfqTtS9tiWY?authuser=0&hl=en&rclk=1,"28.5920739,77.3078982"
Ashok Nagar,,"Ashok Nagar, Delhi, 110018",Ashok Nagar,,Delhi,,Delhi,IN,https://www.google.com/maps/place/Ashok+Nagar/data=!4m7!3m6!1s0x390d0360d6360023:0x21674fae476109fa!8m2!3d28.6373773!4d77.1014442!16s%2Fm%2F02pvhxb!19sChIJIwA21mADDTkR-glhR65PZyE?authuser=0&hl=en&rclk=1,"28.637377299999997,77.1014442"
Ashok Nagar,,"Ashok Nagar, Shahdara, Delhi, 110093","Ashok Nagar, Shahdara",,Delhi,,Delhi,IN,https://www.google.com/maps/place/Ashok+Nagar/data=!4m7!3m6!1s0x390cfb920f88bbc5:0xaedd8b1522848c8c!8m2!3d28.6956784!4d77.2994144!16s%2Fg%2F12lpps6mb!19sChIJxbuID5L7DDkRjIyEIhWL3a4?authuser=0&hl=en&rclk=1,"28.6956784,77.2994144"
Ashok Nagar,,"Ashok Nagar, Block I, Sarojini Nagar, New Delhi, Delhi 110023","Ashok Nagar, Block I, Sarojini Nagar",,New Delhi,,Delhi,IN,https://www.google.com/maps/place/Ashok+Nagar/data=!4m7!3m6!1s0x390ce27fcb45e2e5:0xbda0f1f2bb30f84d!8m2!3d28.5744148!4d77.1957803!16s%2Fg%2F11b6yhyblg!19sChIJ5eJFy3_iDDkRTfgwu_LxoL0?authuser=0&hl=en&rclk=1,"28.5744148,77.1957803"
Ashok Nagar,,"Ashok Nagar, Nehru Nagar III, Nehru Nagar, Ghaziabad, Uttar Pradesh","Ashok Nagar, Nehru Nagar III, Nehru Nagar",,Ghaziabad,,Uttar Pradesh,IN,https://www.google.com/maps/place/Ashok+Nagar/data=!4m7!3m6!1s0x390cf1c22c640327:0xb084bd1f168702b!8m2!3d28.6613895!4d77.4450979!16s%2Fg%2F1td_fm6f!19sChIJJwNkLMLxDDkRK3Bo8dFLCAs?authuser=0&hl=en&rclk=1,"28.6613895,77.4450979"
Masjid Haji Chand Khan,Mosque,"V3P6+MQG Masjid Haji Chand Khan, Unnamed Road, New Ashok Nagar, Aligarh, Uttar Pradesh 202001",New Ashok Nagar,"V3P6+MQG, Unnamed Road",Aligarh,202001,Uttar Pradesh,IN,https://www.google.com/maps/place/Masjid+Haji+Chand+Khan/data=!4m7!3m6!1s0x3974a463a963123d:0x33823bac9e59ca68!8m2!3d27.8866963!4d78.0619681!16s%2Fg%2F11ggpq2ndr!19sChIJPRJjqWOkdDkRaMpZnqw7gjM?authuser=0&hl=en&rclk=1,"27.886696299999997,78.0619681"
Singh Kirana Store,Grocery store,"Singh Kirana Store, B1/71 New Ashok Nagar Delhi B1/71 New Ashok Nagar Delhi, New Delhi, Delhi 110096",64 Khamba,B1/71 New Ashok Nagar Delhi B1/71 New Ashok Nagar Delhi,"New Delhi, Delhi",110096,Delhi,IN,https://www.google.com/maps/place/Singh+Kirana+Store/data=!4m7!3m6!1s0x390cfd895b7cc497:0xa8a7bb62fbf707a2!8m2!3d28.6370763!4d77.2347886!16s%2Fg%2F11jspwdxt1!19sChIJl8R8W4n9DDkRogf3-2K7p6g?authuser=0&hl=en&rclk=1,"28.6370763,77.2347886"
Ashok Nagar,Grocery store,"Ashok Nagar, 200, Vandana Enclave, Shital Vihar, bloNk C, Sector 62, Noida, Uttar Pradesh 201301","Vandana Enclave, Shital Vihar, bloNk C, Sector 62",200,Noida,201301,Uttar Pradesh,IN,https://www.google.com/maps/place/Ashok+Nagar/data=!4m7!3m6!1s0x390ce59437586aa5:0x4a536229a6518bcd!8m2!3d28.6127748!4d77.3467211!16s%2Fg%2F11l5p58rny!19sChIJpWpYN5TlDDkRzYtRpiliU0o?authuser=0&hl=en&rclk=1,"28.6127748,77.3467211"
