name,main_category,address,address_ward,address_street,address_city,address_postal_code,address_state,address_country_code,link,coordinates
Garabad New (Jame Masjid),Mosque,"Garabad New (Jame Masjid), Garabad, Tentultala, West Bengal 743502",,,"Garabad, Tentultala",743502,West Bengal,IN,https://www.google.com/maps/place/Garabad+New+%28Jame+Masjid%29/data=!4m7!3m6!1s0x3a02056f2994e34d:0x60efbc59491dcbfd!8m2!3d22.4953858!4d88.675372!16s%2Fg%2F11thm2ybmj!19sChIJTeOUKW8FAjoR_csdSVm872A?authuser=0&hl=en&rclk=1,"22.495385799999998,88.675372"
Tipu Sultan Masjid Kolkata,Mosque,"Tipu Sultan Masjid Kolkata, 185, Lenin Sarani Rd, Esplanade, Chandni Chawk, Ward Number 46, Kolkata, West Bengal 700013","Esplanade, Chandni Chawk, Ward Number 46","185, Lenin Sarani Rd",Kolkata,700013,West Bengal,IN,https://www.google.com/maps/place/Tipu+Sultan+Masjid+Kolkata/data=!4m7!3m6!1s0x3a0277a7c161e97f:0xb98c0c81435de34b!8m2!3d22.5655184!4d88.3520934!16zL20vMGJfbF83!19sChIJf-lhwad3AjoRS-NdQ4EMjLk?authuser=0&hl=en&rclk=1,"22.5655184,88.3520934"
Ganima Masjid msjd,Mosque,"9CWR+X4X Ganima Masjid msjd, Malancha Mahi Nagar, Faridpur, West Bengal 700147",Malancha Mahi Nagar,9CWR+X4X,Faridpur,700147,West Bengal,IN,https://www.google.com/maps/place/Ganima+Masjid+%D9%85%D8%B3%D8%AC%D8%AF%E2%80%AD/data=!4m7!3m6!1s0x3a026d75524171f7:0x3e248521415d5b8f!8m2!3d22.3974838!4d88.4403562!16s%2Fg%2F11f1pkt707!19sChIJ93FBUnVtAjoRj1tdQSGFJD4?authuser=0&hl=en&rclk=1,"22.3974838,88.4403562"
BAGER MASJID,Mosque,"XC3H+6FW BAGER MASJID, Bidhanpally, Halisahar, Kolkata, Kanchrapara, West Bengal 743145","Bidhanpally, Halisahar",XC3H+6FW,"Kolkata, Kanchrapara",743145,West Bengal,IN,https://www.google.com/maps/place/BAGER+MASJID/data=!4m7!3m6!1s0x39f894f0dc4e26fd:0x612f0b3f1bd25db8!8m2!3d22.953118!4d88.4286888!16s%2Fg%2F11hbg8z0kq!19sChIJ_SZO3PCU-DkRuF3SGz8LL2E?authuser=0&hl=en&rclk=1,"22.953118,88.42868879999999"
BAGKHAL JAMA MASJID,Mosque,"P972+V67 BAGKHAL JAMA MASJID, Jawahar Lal Nehru Sarani, Bagkhal, Rishra, West Bengal 712248","Jawahar Lal Nehru Sarani, Bagkhal, Rishra",P972+V67,,712248,West Bengal,IN,https://www.google.com/maps/place/BAGKHAL+JAMA+MASJID/data=!4m7!3m6!1s0x39f89b6458e98b89:0x43e0cf2588aa6f11!8m2!3d22.7146742!4d88.3505508!16s%2Fg%2F11f3m97hzq!19sChIJiYvpWGSb-DkREW-qiCXP4EM?authuser=0&hl=en&rclk=1,"22.714674199999997,88.3505508"
Mallickpara Boro Masjid,Mosque,"Mallickpara Boro Masjid, 35, Mallicpara, Ghoramara, Serampore, Hooghly, Dakshin Rajyadharpur, West Bengal 712203","Mallicpara, Ghoramara, Serampore",35,"Hooghly, Dakshin Rajyadharpur",712203,West Bengal,IN,https://www.google.com/maps/place/Mallickpara+Boro+Masjid/data=!4m7!3m6!1s0x39f89b2615b66fa1:0xd3287412d141f44e!8m2!3d22.7497311!4d88.3345819!16s%2Fg%2F11c6cd1jt2!19sChIJoW-2FSab-DkRTvRB0RJ0KNM?authuser=0&hl=en&rclk=1,"22.749731099999998,88.33458189999999"
Purani Masjid,Mosque,"Purani Masjid, Purani Masjid, 24 parganas North,, Jagatdal, Kolkata, West Bengal 743132",Jagatdal,"Purani Masjid, 24 parganas North,","Kolkata, Bhatpara",743132,West Bengal,IN,https://www.google.com/maps/place/Purani+Masjid/data=!4m7!3m6!1s0x39f89122f48a9487:0x7a7f4a28a86c3e67!8m2!3d22.8590824!4d88.3837914!16s%2Fg%2F11c5xkwy7b!19sChIJh5SK9CKR-DkRZz5sqChKf3o?authuser=0&hl=en&rclk=1,"22.8590824,88.38379139999999"
BORO MASJID,Mosque,"7V24+4QX BORO MASJID, Bahir Sarbamangala Para Rd, Khudiram Pally, Bardhaman, West Bengal 713101",Khudiram Pally,"7V24+4QX, Bahir Sarbamangala Para Rd",Bardhaman,713101,West Bengal,IN,https://www.google.com/maps/place/BORO+MASJID/data=!4m7!3m6!1s0x39f849e05da00c23:0xc90c0ce9eb260d92!8m2!3d23.2503684!4d87.8569957!16s%2Fg%2F11cjpczp5x!19sChIJIwygXeBJ-DkRkg0m6-kMDMk?authuser=0&hl=en&rclk=1,"23.2503684,87.8569957"
Kachchi Mosque,Mosque,"P9H2+FFR Kachchi Mosque, Abdul Kalam Azad Rd, Bangur Park, Kali Tala, West Bengal 712248","Bangur Park, Kali Tala","P9H2+FFR, Abdul Kalam Azad Rd",,712248,West Bengal,IN,https://www.google.com/maps/place/Kachchi+Mosque/data=!4m7!3m6!1s0x39f89b6d1987b79b:0xc60574b4edc66002!8m2!3d22.7287375!4d88.3511348!16s%2Fg%2F1q6j8f75g!19sChIJm7eHGW2b-DkRAmDG7bR0BcY?authuser=0&hl=en&rclk=1,"22.728737499999998,88.3511348"
Mollaber Masjid,Mosque,"P7CX+4R5 Mollaber Masjid, Mollaber Village, Mollarber, West Bengal 712310",Mollaber Village,P7CX+4R5,Mollarber,712310,West Bengal,IN,https://www.google.com/maps/place/Mollaber+Masjid/data=!4m7!3m6!1s0x39f884973326b5e7:0x9685cf024e4b8083!8m2!3d22.7202718!4d88.299612!16s%2Fg%2F11c4c2_xm0!19sChIJ57UmM5eE-DkRg4BLTgLPhZY?authuser=0&hl=en&rclk=1,"22.7202718,88.299612"
Panchloki Bamunari Masjid,Mosque,"P89F+PRQ Panchloki Bamunari Masjid, Bamunari Road, Babanari, Rishra, Bamunari, West Bengal 712250","Babanari, Rishra","P89F+PRQ, Bamunari Road",Bamunari,712250,West Bengal,IN,https://www.google.com/maps/place/Panchloki+Bamunari+Masjid/data=!4m7!3m6!1s0x39f89b4d459b9547:0x755ef13470ae036a!8m2!3d22.7193321!4d88.3246236!16s%2Fg%2F1q6j8w1vt!19sChIJR5WbRU2b-DkRagOucDTxXnU?authuser=0&hl=en&rclk=1,"22.7193321,88.3246236"
BHOAGACHHI DAKSHIN PARA JAMAE MASJID.,Mosque,"X85G+4V3 BHOAGACHHI DAKSHIN PARA JAMAE MASJID., Bhoagachhi, West Bengal 712148",,X85G+4V3,Bhoagachhi,712148,West Bengal,IN,https://www.google.com/maps/place/BHOAGACHHI+DAKSHIN+PARA+JAMAE+MASJID./data=!4m7!3m6!1s0x39f8931d25312375:0xb54bb82449955424!8m2!3d22.9577689!4d88.3271748!16s%2Fg%2F11g0gmjt2q!19sChIJdSMxJR2T-DkRJFSVSSS4S7U?authuser=0&hl=en&rclk=1,"22.957768899999998,88.3271748"
Baganpara Masjid baagaanpaarraa mjjid,Mosque,"Baganpara Masjid baagaanpaarraa mjjid, Unnamed Road, 741503, Banpur, West Bengal",,"Unnamed Road, 741503",Banpur,,West Bengal,IN,https://www.google.com/maps/place/Baganpara+Masjid+%E0%A6%AC%E0%A6%BE%E0%A6%97%E0%A6%BE%E0%A6%A8%E0%A6%AA%E0%A6%BE%E0%A7%9C%E0%A6%BE+%E0%A6%AE%E0%A6%9C%E0%A6%9C%E0%A6%BF%E0%A6%A6/data=!4m7!3m6!1s0x39f92b4911c8873f:0xe56f42dac4cc81a2!8m2!3d23.4528672!4d88.781445!16s%2Fg%2F11g9sxmy0h!19sChIJP4fIEUkr-TkRooHMxNpCb-U?authuser=0&hl=en&rclk=1,"23.4528672,88.78144499999999"
Babuidanga Jame Masjid,Mosque,"F8R8+MVG Babuidanga Jame Masjid, Babuidanga, Atpara, West Bengal 713512",Babuidanga,F8R8+MVG,"Babuidanga, Atpara",713512,West Bengal,IN,https://www.google.com/maps/place/Babuidanga+Jame+Masjid/data=!4m7!3m6!1s0x39f904b62fe50caf:0xab03ec81e3b38ef5!8m2!3d23.4916809!4d88.3172032!16s%2Fg%2F11f53hdzc9!19sChIJrwzlL7YE-TkR9Y6z44HsA6s?authuser=0&hl=en&rclk=1,"23.4916809,88.3172032"
RUHANI MASJID,Mosque,"RUHANI MASJID, 8, Anjuman Road, Rishra, Hooghly, West Bengal 712248","Bangur Park, Rishra","8, Anjuman Road, Rishra",Hooghly,712248,West Bengal,IN,https://www.google.com/maps/place/RUHANI+MASJID/data=!4m7!3m6!1s0x39f89b6daaef4fe9:0xcfe9003dddd33f93!8m2!3d22.7274711!4d88.3507438!16s%2Fg%2F11c5_s6n9g!19sChIJ6U_vqm2b-DkRkz_T3T0A6c8?authuser=0&hl=en&rclk=1,"22.7274711,88.35074379999999"
NARENGA JAME MASJID,Mosque,"6789+384 NARENGA JAME MASJID, Narenga, Baghnapara, West Bengal 713157",Narenga,6789+384,Baghnapara,713157,West Bengal,IN,https://www.google.com/maps/place/NARENGA+JAME+MASJID/data=!4m7!3m6!1s0x39f8fb35775d8e49:0x4bb2684437a90f4b!8m2!3d23.2151303!4d88.2683236!16s%2Fg%2F11hz2_5ncq!19sChIJSY5ddzX7-DkRSw-pN0Rosks?authuser=0&hl=en&rclk=1,"23.2151303,88.2683236"
beotaaN jaamaa msjid,Mosque,"GGH8+JP9 beotaaN jaamaa msjid, Bantala, Benota, West Bengal 743502",Bantala,GGH8+JP9,Benota,743502,West Bengal,IN,https://www.google.com/maps/place/%E0%A6%AC%E0%A7%87%E0%A6%93%E0%A6%A4%E0%A6%BE%E0%A6%81+%E0%A6%9C%E0%A6%BE%E0%A6%AE%E0%A6%BE+%E0%A6%AE%E0%A6%B8%E0%A6%9C%E0%A6%BF%E0%A6%A6/data=!4m7!3m6!1s0x3a020b78185ac62f:0x4f767716b28f6771!8m2!3d22.5290305!4d88.5168512!16s%2Fg%2F11c5b2jt5y!19sChIJL8ZaGHgLAjoRcWePshZ3dk8?authuser=0&hl=en&rclk=1,"22.529030499999998,88.51685119999999"
SUNNI MADINA MASJID,Mosque,"SUNNI MADINA MASJID, R. K ROAD NEAR BECHALI GOLA 712248 RISHRA, Bangur Park, Kali Tala, West Bengal","Bangur Park, Kali Tala",R. K ROAD NEAR BECHALI GOLA 712248 RISHRA,,,West Bengal,IN,https://www.google.com/maps/place/SUNNI+MADINA+MASJID/data=!4m7!3m6!1s0x39f89bdd76b880ad:0x814a095557c041b6!8m2!3d22.7291081!4d88.3497134!16s%2Fg%2F11g0dgxb0j!19sChIJrYC4dt2b-DkRtkHAV1UJSoE?authuser=0&hl=en&rclk=1,"22.729108099999998,88.3497134"
Gajbanda Masjid,Mosque,"RFMW+6XM Gajbanda Masjid, Gajbanda, West Bengal 743221",,RFMW+6XM,Gajbanda,,West Bengal,IN,https://www.google.com/maps/place/Gajbanda+Masjid/data=!4m7!3m6!1s0x39f8bd6b5e511589:0xce0253331e7a72d9!8m2!3d22.8330856!4d88.4974173!16s%2Fg%2F11gd_12hq5!19sChIJiRVRXmu9-DkR2XJ6HjNTAs4?authuser=0&hl=en&rclk=1,"22.8330856,88.4974173"
Iswarbaha Masjid,Mosque,"Iswarbaha Masjid, Grampanchayat, Iswarbaha,Near Dunlop Katwa Railway Crossing, Bandel, Mogra Block, Chinsurah, West Bengal 712121","Mogra Block, Bansberia","Grampanchayat, Iswarbaha,Near Dunlop Katwa Railway Crossing, Bandel","Chinsurah, Iswarbaha",712121,West Bengal,IN,https://www.google.com/maps/place/Iswarbaha+Masjid/data=!4m7!3m6!1s0x39f89398d855b891:0x500407699628622!8m2!3d22.9379841!4d88.3834588!16s%2Fg%2F11gfgkkd5m!19sChIJkbhV2JiT-DkRIoZimXZAAAU?authuser=0&hl=en&rclk=1,"22.937984099999998,88.3834588"
Nagardanga Masjid,Mosque,"479V+2VW Nagardanga Masjid, Nagar Danga, West Bengal 712149",,479V+2VW,Nagar Danga,712149,West Bengal,IN,https://www.google.com/maps/place/Nagardanga+Masjid/data=!4m7!3m6!1s0x39f8f1bb5333017b:0x23a19e0f342bf6fe!8m2!3d23.1176186!4d88.2947099!16s%2Fg%2F11c2nnvb4g!19sChIJewEzU7vx-DkR_vYrNA-eoSM?authuser=0&hl=en&rclk=1,"23.1176186,88.2947099"
Belaeath Khan Maszid,Mosque,"F4RV+26Q Belaeath Khan Maszid, Chengail, Howrah, West Bengal 711308",Chengail,F4RV+26Q,Howrah,711308,West Bengal,IN,https://www.google.com/maps/place/Belaeath+Khan+Maszid/data=!4m7!3m6!1s0x3a02873df7ef14f7:0x36bd695698ae90c5!8m2!3d22.4900806!4d88.1431004!16s%2Fg%2F11c1gglfp3!19sChIJ9xTv9z2HAjoRxZCumFZpvTY?authuser=0&hl=en&rclk=1,"22.4900806,88.1431004"
Bhuinpara Masjid,Mosque,"363W+2FG Bhuinpara Masjid, Bhuinpara, West Bengal 712149",,363W+2FG,Bhuinpara,712149,West Bengal,IN,https://www.google.com/maps/place/Bhuinpara+Masjid/data=!4m7!3m6!1s0x39f8f477e006f701:0x3d86e7b43488e868!8m2!3d23.0525561!4d88.2461971!16s%2Fg%2F11gdrr26v6!19sChIJAfcG4Hf0-DkRaOiINLTnhj0?authuser=0&hl=en&rclk=1,"23.0525561,88.24619709999999"
Bhottopur Jami Masjid msjd,Mosque,"Bhottopur Jami Masjid msjd, bhattapur, 712701, Akuni, West Bengal",,"bhattapur, 712701","Akuni, Madhupur",,West Bengal,IN,https://www.google.com/maps/place/Bhottopur+Jami+Masjid+%D9%85%D8%B3%D8%AC%D8%AF%E2%80%AD/data=!4m7!3m6!1s0x39f8877e7355d5df:0xc5d632ab7502a191!8m2!3d22.7468754!4d88.1694044!16s%2Fg%2F11f13v1czh!19sChIJ39VVc36H-DkRkaECdasy1sU?authuser=0&hl=en&rclk=1,"22.7468754,88.16940439999999"
Bangaria Jumma Masjid,Mosque,"HCJF+8W2 Bangaria Jumma Masjid, VILL-BANGARIA,P.O-BHOLADANAGA,P.S-NAKASHIPARA, DIST, Bangaria, West Bengal",,"HCJF+8W2, VILL-BANGARIA,P.O-BHOLADANAGA,P.S-NAKASHIPARA, DIST",Bangaria,,West Bengal,IN,https://www.google.com/maps/place/Bangaria+Jumma+Masjid/data=!4m7!3m6!1s0x39f917693dadb651:0x97f92f392eb79c0f!8m2!3d23.5807558!4d88.4247742!16s%2Fg%2F11hcrs4nh4!19sChIJUbatPWkX-TkRD5y3Ljkv-Zc?authuser=0&hl=en&rclk=1,"23.5807558,88.4247742"
Singhajuli Jame Masjid,Mosque,"98F3+WW3 Singhajuli Jame Masjid, Singhajuli, Samudragarh, Kansaripur, West Bengal 713519",,"98F3+WW3, Singhajuli","Samudragarh, Kansaripur",713519,West Bengal,IN,https://www.google.com/maps/place/Singhajuli+Jame+Masjid/data=!4m7!3m6!1s0x39f90344e6812ae7:0x97a119beb61578b7!8m2!3d23.374766!4d88.304809!16s%2Fg%2F11frrvwy55!19sChIJ5yqB5kQD-TkRt3gVtr4ZoZc?authuser=0&hl=en&rclk=1,"23.374765999999997,88.30480899999999"
belu-ttenggaattenggii jaame msjid,Mosque,"QFR7+MQ5 belu-ttenggaattenggii jaame msjid, Dangatanga Tangi, West Bengal 700126",,QFR7+MQ5,Dangatanga Tangi,700126,West Bengal,IN,https://www.google.com/maps/place/%E0%A6%AC%E0%A7%87%E0%A6%B2%E0%A7%81-%E0%A6%9F%E0%A7%87%E0%A6%99%E0%A7%8D%E0%A6%97%E0%A6%BE%E0%A6%9F%E0%A7%87%E0%A6%99%E0%A7%8D%E0%A6%97%E0%A7%80+%E0%A6%9C%E0%A6%BE%E0%A6%AE%E0%A7%87+%E0%A6%AE%E0%A6%B8%E0%A6%9C%E0%A6%BF%E0%A6%A6/data=!4m7!3m6!1s0x39f899236b9fda7f:0x601a3ab24c791d0d!8m2!3d22.7916283!4d88.4644903!16s%2Fg%2F11ffw6wl1d!19sChIJf9qfayOZ-DkRDR15TLI6GmA?authuser=0&hl=en&rclk=1,"22.7916283,88.4644903"
Donnagar Baitul Aamaan Jame Masjid,Mosque,"Donnagar Baitul Aamaan Jame Masjid, Donnagar, Ganga Nagar Colony No 1, Madhyamgram, Kolkata, West Bengal 700135","Ganga Nagar Colony No 1, Madhyamgram",Donnagar,Kolkata,700135,West Bengal,IN,https://www.google.com/maps/place/Donnagar+Baitul+Aamaan+Jame+Masjid/data=!4m7!3m6!1s0x39f89fe9cffd3f23:0x35fa5189922c6fb3!8m2!3d22.6633733!4d88.4537105!16s%2Fg%2F11h0hjhldt!19sChIJIz_9z-mf-DkRs28skolR-jU?authuser=0&hl=en&rclk=1,"22.6633733,88.4537105"
Dadpur Jame Masjid,Mosque,"MGRV+7HF Dadpur Jame Masjid, Dadpur, West Bengal 700125",,MGRV+7HF,Dadpur,700125,West Bengal,IN,https://www.google.com/maps/place/Dadpur+Jame+Masjid/data=!4m7!3m6!1s0x39f8a188ee548423:0xb2e43ede795ed764!8m2!3d22.6906947!4d88.5439065!16s%2Fg%2F11h3dnkpsw!19sChIJI4RU7oih-DkRZNdeed4-5LI?authuser=0&hl=en&rclk=1,"22.690694699999998,88.54390649999999"
Boropara Bangla Masjid bngl msjd,Mosque,"X97V+Q34 Boropara Bangla Masjid bngl msjd, Bansberia, Chak Bansberia, West Bengal 712502",Bansberia,X97V+Q34,Chak Bansberia,712502,West Bengal,IN,https://www.google.com/maps/place/Boropara+Bangla+Masjid+%D8%A8%D9%86%DA%AF%D9%84%D8%A7+%D9%85%D8%B3%D8%AC%D8%AF%E2%80%AD/data=!4m7!3m6!1s0x39f893d1c4f42d2d:0xcc32445ef4ad942!8m2!3d22.9643959!4d88.3927047!16s%2Fg%2F11gvsq5_j5!19sChIJLS30xNGT-DkRQtlK70Ukwww?authuser=0&hl=en&rclk=1,"22.9643959,88.3927047"
Sadhu Bangali Masjid,Mosque,"392W+F32 Sadhu Bangali Masjid, Sadhu Bangali, West Bengal 712147",,392W+F32,Sadhu Bangali,712147,West Bengal,IN,https://www.google.com/maps/place/Sadhu+Bangali+Masjid/data=!4m7!3m6!1s0x39f8ec7a423bfcc1:0x15605df13c92f8a!8m2!3d23.0511419!4d88.3951367!16s%2Fg%2F11f117xs7p!19sChIJwfw7Qnrs-DkRii_JE98FVgE?authuser=0&hl=en&rclk=1,"23.051141899999998,88.3951367"
Daksin Bena Jama Masjid,Mosque,"RQ5R+H4J Daksin Bena Jama Masjid, Bena, West Bengal 743247",,RQ5R+H4J,Bena,743247,West Bengal,IN,https://www.google.com/maps/place/Daksin+Bena+Jama+Masjid/data=!4m7!3m6!1s0x39ff4d550000016d:0x3c9badf4d1906f3e!8m2!3d22.808965!4d88.79027!16s%2Fg%2F11dzw9xptf!19sChIJbQEAAFVN_zkRPm-Q0fStmzw?authuser=0&hl=en&rclk=1,"22.808965,88.79026999999999"
Khejurdanga jama Masjid,Mosque,"PJ8V+3F4 Khejurdanga jama Masjid, Khejurdanga - Barunipunji Rd, Biswanathpur, Khejurdanga, West Bengal 743423",,"PJ8V+3F4, Khejurdanga - Barunipunji Rd","Biswanathpur, Khejurdanga",743423,West Bengal,IN,https://www.google.com/maps/place/Khejurdanga+jama+Masjid/data=!4m7!3m6!1s0x39f8af4dfeedb27f:0xf95e8b1a247b0896!8m2!3d22.7151473!4d88.6437152!16s%2Fg%2F11fzff1zcz!19sChIJf7Lt_k2v-DkRlgh7JBqLXvk?authuser=0&hl=en&rclk=1,"22.715147299999998,88.6437152"
Baguadanga New Masjid,Religious destination,"MPG9+V2M Baguadanga New Masjid, Dugbaria, West Bengal 743424",,MPG9+V2M,Dugbaria,743424,West Bengal,IN,https://www.google.com/maps/place/Baguadanga+New+Masjid/data=!4m7!3m6!1s0x39f8ab6099cf83a3:0xaa0b5e116c85f143!8m2!3d22.6772213!4d88.7175622!16s%2Fg%2F11fhv7hk81!19sChIJo4PPmWCr-DkRQ_GFbBFeC6o?authuser=0&hl=en&rclk=1,"22.6772213,88.71756219999999"
Baganati Jame Masjid,Mosque,"HMVF+92W Baganati Jame Masjid, Unnamed Road, Bantala, Chhayani, Baganati, West Bengal 700135",,"HMVF+92W, Unnamed Road, Bantala, Chhayani",Baganati,700135,West Bengal,IN,https://www.google.com/maps/place/Baganati+Jame+Masjid/data=!4m7!3m6!1s0x3a02077627503031:0xb97cfbdd44f2fb64!8m2!3d22.59348!4d88.6725858!16s%2Fg%2F11fl4cbnvy!19sChIJMTBQJ3YHAjoRZPvyRN37fLk?authuser=0&hl=en&rclk=1,"22.59348,88.6725858"
saayyestaangr baajaar jaamaa msjid,Mosque,"PVJJ+5WG saayyestaangr baajaar jaamaa msjid, Bakra Chandirbaor, West Bengal 743427",,PVJJ+5WG,Bakra Chandirbaor,,West Bengal,IN,https://www.google.com/maps/place/%E0%A6%B8%E0%A6%BE%E0%A7%9F%E0%A7%87%E0%A6%B8%E0%A7%8D%E0%A6%A4%E0%A6%BE%E0%A6%A8%E0%A6%97%E0%A6%B0+%E0%A6%AC%E0%A6%BE%E0%A6%9C%E0%A6%BE%E0%A6%B0+%E0%A6%9C%E0%A6%BE%E0%A6%AE%E0%A6%BE+%E0%A6%AE%E0%A6%B8%E0%A6%9C%E0%A6%BF%E0%A6%A6/data=!4m7!3m6!1s0x39ff5140c3c77597:0x295a5b3955f83b21!8m2!3d22.7304485!4d88.8823138!16s%2Fg%2F11h9w7h17k!19sChIJl3XHw0BR_zkRITv4VTlbWik?authuser=0&hl=en&rclk=1,"22.730448499999998,88.88231379999999"
BANGIHATI MASJID,Mosque,"P8P7+C27 BANGIHATI MASJID, Bangihati Village, Bangihati, West Bengal 712249",Bangihati Village,P8P7+C27,Bangihati,712249,West Bengal,IN,https://www.google.com/maps/place/BANGIHATI+MASJID/data=!4m7!3m6!1s0x39f884c6764cc769:0x3b991e6a058739ba!8m2!3d22.7360314!4d88.3125446!16s%2Fg%2F11g70c8rv1!19sChIJacdMdsaE-DkRujmHBWoemTs?authuser=0&hl=en&rclk=1,"22.736031399999998,88.3125446"
Mosque,Mosque,"2947+JJQ Mosque, Rajarambati, West Bengal 712148",,2947+JJQ,Rajarambati,712148,West Bengal,IN,https://www.google.com/maps/place/Mosque/data=!4m7!3m6!1s0x39f8ecd842286b85:0x201485f68680132e!8m2!3d23.0065775!4d88.364116!16s%2Fg%2F11crzjx_cg!19sChIJhWsoQtjs-DkRLhOAhvaFFCA?authuser=0&hl=en&rclk=1,"23.0065775,88.364116"
Nayabastia jame Masjid,Mosque,"QR4J+GCQ Nayabastia jame Masjid, Ramchandrapur Nayabastia Road, Nayabastia, Baduria, Nabastia, West Bengal 743401",Nayabastia,"QR4J+GCQ, Ramchandrapur Nayabastia Road","Baduria, Nabastia",743401,West Bengal,IN,https://www.google.com/maps/place/Nayabastia+jame+Masjid/data=!4m7!3m6!1s0x39ff536f59638271:0x194a437bdb1fe5f6!8m2!3d22.7563498!4d88.8311121!16s%2Fg%2F11gyxwhkwj!19sChIJcYJjWW9T_zkR9uUf23tDShk?authuser=0&hl=en&rclk=1,"22.7563498,88.8311121"
Jamiat ahle hadees khardah library,Mosque,"Line Number 3, Jamiat ahle hadees khardah library, Deshbandhu Pally, Jelepara, Surjaysen Nagar, Khardaha, Kolkata, West Bengal 700117","Deshbandhu Pally, Jelepara, Surjaysen Nagar, Khardaha",Line Number 3,Kolkata,700117,West Bengal,IN,https://www.google.com/maps/place/Jamiat+ahle+hadees+khardah+library/data=!4m7!3m6!1s0x39f89be39c4d5a23:0xb2f947a2b13d77ac!8m2!3d22.7265817!4d88.3698255!16s%2Fg%2F11twqyrg8t!19sChIJI1pNnOOb-DkRrHc9saJH-bI?authuser=0&hl=en&rclk=1,"22.7265817,88.36982549999999"
Horpur Muhammadia Jame Masjid,Mosque,"VQQ9+666 Horpur Muhammadia Jame Masjid, kalipur, Arambag, West Bengal 712616",kalipur,VQQ9+666,Arambag,,West Bengal,IN,https://www.google.com/maps/place/Horpur+Muhammadia+Jame+Masjid/data=!4m7!3m6!1s0x39f81126aff083dd:0xf7de7996283a43c8!8m2!3d22.8880252!4d87.7680058!16s%2Fg%2F11h15_s6b9!19sChIJ3YPwryYR-DkRyEM6KJZ53vc?authuser=0&hl=en&rclk=1,"22.888025199999998,87.7680058"
Bhashanpota Masjid,Mosque,"3RCM+57Q Bhashanpota Masjid, Bhashanpota, West Bengal 743235",,3RCM+57Q,Bhashanpota,743235,West Bengal,IN,https://www.google.com/maps/place/Bhashanpota+Masjid/data=!4m7!3m6!1s0x39ff35491a3c65e9:0xac81043d15d50f4a!8m2!3d23.0704712!4d88.8332318!16s%2Fg%2F11hzy8gsk3!19sChIJ6WU8Gkk1_zkRSg_VFT0Egaw?authuser=0&hl=en&rclk=1,"23.0704712,88.8332318"
Mainan Mirpara Masjid,Mosque,"HXRJ+WFR Mainan Mirpara Masjid, Mainan, West Bengal 711401",,HXRJ+WFR,Mainan,711401,West Bengal,IN,https://www.google.com/maps/place/Mainan+Mirpara+Masjid/data=!4m7!3m6!1s0x3a029d704ace5e3f:0x18b452ed1a3728c2!8m2!3d22.5923746!4d87.9811455!16s%2Fg%2F11hbfkfj9c!19sChIJP17OSnCdAjoRwig3Gu1StBg?authuser=0&hl=en&rclk=1,"22.5923746,87.9811455"
Dakshinkul Jama Masjid,Mosque,"R5Q4+5P8 Dakshinkul Jama Masjid, Bridge, briij, Dakshinkul, West Bengal 712405","briij, Dakshinkul","R5Q4+5P8, Bridge",,,West Bengal,IN,https://www.google.com/maps/place/Dakshinkul+Jama+Masjid/data=!4m7!3m6!1s0x39f863996b18b34f:0xc91a2bf815f01fc!8m2!3d22.8379174!4d88.1568355!16s%2Fg%2F11hdj5prkn!19sChIJT7MYa5lj-DkR_AFfgb-ikQw?authuser=0&hl=en&rclk=1,"22.8379174,88.1568355"
uttr bgndd' jaamaa msjid(Uttar Bagnar Jama Masjid),Mosque,"894H+35X uttr bgndd' jaamaa msjid(Uttar Bagnar Jama Masjid), Hansuri, West Bengal 743609",,894H+35X,Hansuri,743609,West Bengal,IN,https://www.google.com/maps/place/%E0%A6%89%E0%A6%A4%E0%A7%8D%E0%A6%A4%E0%A6%B0+%E0%A6%AC%E0%A6%97%E0%A6%A8%E0%A6%A1%E0%A6%BC+%E0%A6%9C%E0%A6%BE%E0%A6%AE%E0%A6%BE+%E0%A6%AE%E0%A6%B8%E0%A6%9C%E0%A6%BF%E0%A6%A6%28Uttar+Bagnar+Jama+Masjid%29/data=!4m7!3m6!1s0x3a0269a70d552adb:0x40cea507127b5e72!8m2!3d22.3052399!4d88.3779867!16s%2Fg%2F11rx76x_y4!19sChIJ2ypVDadpAjoRcl57EgelzkA?authuser=0&hl=en&rclk=1,"22.3052399,88.3779867"
beliy'aaddaanggaa /  jaame msjid,Mosque,"FG4R+WJQ beliy'aaddaanggaa /  jaame msjid, Kashia Danga, West Bengal 743502",,FG4R+WJQ,Kashia Danga,743502,West Bengal,IN,https://www.google.com/maps/place/%E0%A6%AC%E0%A7%87%E0%A6%B2%E0%A6%BF%E0%A6%AF%E0%A6%BC%E0%A6%BE%E0%A6%A1%E0%A6%BE%E0%A6%99%E0%A7%8D%E0%A6%97%E0%A6%BE%E0%A5%A4+%E0%A6%9C%E0%A6%BE%E0%A6%AE%E0%A7%87+%E0%A6%AE%E0%A6%B8%E0%A6%9C%E0%A6%BF%E0%A6%A6/data=!4m7!3m6!1s0x3a020db320ddc089:0xa9775ee51b408b00!8m2!3d22.4573325!4d88.5416058!16s%2Fg%2F11pz_4tdpw!19sChIJicDdILMNAjoRAItAG-Ved6k?authuser=0&hl=en&rclk=1,"22.4573325,88.5416058"
Benedanga Masjid,Mosque,"28VM+QWJ Benedanga Masjid, Benedanga, West Bengal 712147",,28VM+QWJ,Benedanga,712147,West Bengal,IN,https://www.google.com/maps/place/Benedanga+Masjid/data=!4m7!3m6!1s0x39f8ed853e9b7d6d:0x793e7fb32303e1bc!8m2!3d23.0444647!4d88.3347771!16s%2Fg%2F11h6m47stz!19sChIJbX2bPoXt-DkRvOEDI7N_Pnk?authuser=0&hl=en&rclk=1,"23.0444647,88.3347771"
BAGANPARA RAHAMANIYA JAME MASJID,Mosque,"BAGANPARA RAHAMANIYA JAME MASJID, Sitala, Mahanad, West Bengal 712148",,,"Sitala, Mahanad",712148,West Bengal,IN,https://www.google.com/maps/place/BAGANPARA+RAHAMANIYA+JAME+MASJID/data=!4m7!3m6!1s0x39f8f34559155175:0xe22fc61d7f906053!8m2!3d23.0039037!4d88.256658!16s%2Fg%2F11f3ch9xrb!19sChIJdVEVWUXz-DkRU2CQfx3GL-I?authuser=0&hl=en&rclk=1,"23.0039037,88.256658"
Baganati Jame Masjid,Mosque,"JR4X+8JW Baganati Jame Masjid, Pipha, West Bengal 743422",,JR4X+8JW,Pipha,743422,West Bengal,IN,https://www.google.com/maps/place/Baganati+Jame+Masjid/data=!4m7!3m6!1s0x3a01ff2115613883:0xc374b3750b0e107f!8m2!3d22.6058575!4d88.8490752!16s%2Fg%2F11gx_wrs0j!19sChIJgzhhFSH_AToRfxAOC3WzdMM?authuser=0&hl=en&rclk=1,"22.6058575,88.8490752"
Dongabathan Masjid,Mosque,"WRG6+Q8G Dongabathan Masjid, Donga Bathan, West Bengal 712615",,WRG6+Q8G,Donga Bathan,,West Bengal,IN,https://www.google.com/maps/place/Dongabathan+Masjid/data=!4m7!3m6!1s0x39f8145754bcd44f:0x6af95bcde8cf9e9!8m2!3d22.9269381!4d87.8108226!16s%2Fg%2F11f32fs8nq!19sChIJT9S8VFcU-DkR6fmM3ryVrwY?authuser=0&hl=en&rclk=1,"22.926938099999997,87.8108226"
Bangla Masjid,Mosque,"Bangla Masjid, 6/6, Garulia, Kolkata, West Bengal 743133",Garulia,6/6,Kolkata,743133,West Bengal,IN,https://www.google.com/maps/place/Bangla+Masjid/data=!4m7!3m6!1s0x39f891cc2621ee4b:0xe3ee85373b4b08de!8m2!3d22.8239233!4d88.3695279!16s%2Fg%2F11n5pk431n!19sChIJS-4hJsyR-DkR3ghLOzeF7uM?authuser=0&hl=en&rclk=1,"22.8239233,88.3695279"
Bongopal Masjid,Mosque,"X7P3+824 Bongopal Masjid, Unnamed Road, Akna, Ramnathpur, West Bengal 712148",,"X7P3+824, Unnamed Road","Akna, Ramnathpur",712148,West Bengal,IN,https://www.google.com/maps/place/Bongopal+Masjid/data=!4m7!3m6!1s0x39f88cac276d57b1:0x2a336db580eac8b8!8m2!3d22.9857546!4d88.2525821!16s%2Fg%2F11gg6bnpd5!19sChIJsVdtJ6yM-DkRuMjqgLVtMyo?authuser=0&hl=en&rclk=1,"22.9857546,88.2525821"
Bagri Masjid baagri msjid,Mosque,"29RH+V7M Bagri Masjid baagri msjid, Bagri, West Bengal 712148",,29RH+V7M,Bagri,712148,West Bengal,IN,https://www.google.com/maps/place/Bagri+Masjid+%E0%A6%AC%E0%A6%BE%E0%A6%97%E0%A6%B0%E0%A6%BF+%E0%A6%AE%E0%A6%B8%E0%A6%9C%E0%A6%BF%E0%A6%A6/data=!4m7!3m6!1s0x39f8ede4c8e56971:0xbff0bd26eba8a14a!8m2!3d23.042201!4d88.3781688!16s%2Fg%2F11gnst00q0!19sChIJcWnlyOTt-DkRSqGo6ya98L8?authuser=0&hl=en&rclk=1,"23.042201,88.3781688"
Badbagi Masjid,Mosque,"5PW6+7RP Badbagi Masjid, Unnamed Road, Badbagi, West Bengal 741253",,"5PW6+7RP, Unnamed Road",Badbagi,,West Bengal,IN,https://www.google.com/maps/place/Badbagi+Masjid/data=!4m7!3m6!1s0x39f8d3866c064b75:0xb458645146f5c769!8m2!3d23.1957235!4d88.712071!16s%2Fg%2F11h5n57phs!19sChIJdUsGbIbT-DkRacf1RlFkWLQ?authuser=0&hl=en&rclk=1,"23.1957235,88.712071"
maarkaaj jaame msjid Markaj Jame Masjid,Mosque,"maarkaaj jaame msjid Markaj Jame Masjid, Danga para, Kalna, West Bengal 713409",,Danga para,Kalna,,West Bengal,IN,https://www.google.com/maps/place/%E0%A6%AE%E0%A6%BE%E0%A6%B0%E0%A7%8D%E0%A6%95%E0%A6%BE%E0%A6%9C+%E0%A6%9C%E0%A6%BE%E0%A6%AE%E0%A7%87+%E0%A6%AE%E0%A6%B8%E0%A6%9C%E0%A6%BF%E0%A6%A6+Markaj+Jame+Masjid/data=!4m7!3m6!1s0x39f8e5b80bd80085:0x99843bd9f573e064!8m2!3d23.2257083!4d88.3612145!16s%2Fg%2F11scyfvl2p!19sChIJhQDYC7jl-DkRZOBz9dk7hJk?authuser=0&hl=en&rclk=1,"23.225708299999997,88.3612145"
ddaanggaa kaajiipaadd'aa jaame msjid moscue,Mosque,"ddaanggaa kaajiipaadd'aa jaame msjid moscue, 700103, Danga, Natunhat, Kolkata, West Bengal 700154","Danga, Natunhat",700103,Kolkata,700154,West Bengal,IN,https://www.google.com/maps/place/%E0%A6%A1%E0%A6%BE%E0%A6%99%E0%A7%8D%E0%A6%97%E0%A6%BE+%E0%A6%95%E0%A6%BE%E0%A6%9C%E0%A7%80%E0%A6%AA%E0%A6%BE%E0%A6%A1%E0%A6%BC%E0%A6%BE+%E0%A6%9C%E0%A6%BE%E0%A6%AE%E0%A7%87+%E0%A6%AE%E0%A6%B8%E0%A6%9C%E0%A6%BF%E0%A6%A6+moscue/data=!4m7!3m6!1s0x3a0271e143933a03:0x3da60c1d5bbcca80!8m2!3d22.44109!4d88.3635667!16s%2Fg%2F11srkkqtbr!19sChIJAzqTQ-FxAjoRgMq8Wx0Mpj0?authuser=0&hl=en&rclk=1,"22.44109,88.36356669999999"
masjid bamanpara,Mosque,"WH8X+F3Q masjid bamanpara, Bamanpara, West Bengal 741249",,WH8X+F3Q,Bamanpara,741249,West Bengal,IN,https://www.google.com/maps/place/masjid+bamanpara/data=!4m7!3m6!1s0x39f8b9400c215f0d:0x2bb7e256e3368116!8m2!3d22.9162018!4d88.5977494!16s%2Fg%2F11swdcsh3n!19sChIJDV8hDEC5-DkRFoE241bitys?authuser=0&hl=en&rclk=1,"22.9162018,88.5977494"
Khatni Masjid,Mosque,"Khatni Masjid, Khatni, West Bengal 712148",,,Khatni,712148,West Bengal,IN,https://www.google.com/maps/place/Khatni+Masjid/data=!4m7!3m6!1s0x39f88d4476859f8d:0x4f01e8cf4a88b3c3!8m2!3d22.9620821!4d88.2781227!16s%2Fg%2F11pv2gflbx!19sChIJjZ-FdkSN-DkRw7OISs_oAU8?authuser=0&hl=en&rclk=1,"22.9620821,88.2781227"
baidypaadd'aa jaame msjid(Baidyapara Jame Masjid),Mosque,"JH2P+8HC baidypaadd'aa jaame msjid(Baidyapara Jame Masjid), Dakshin Swarup Nagar, West Bengal 700135",,JH2P+8HC,Dakshin Swarup Nagar,700135,West Bengal,IN,https://www.google.com/maps/place/%E0%A6%AC%E0%A7%88%E0%A6%A6%E0%A7%8D%E0%A6%AF%E0%A6%AA%E0%A6%BE%E0%A6%A1%E0%A6%BC%E0%A6%BE+%E0%A6%9C%E0%A6%BE%E0%A6%AE%E0%A7%87+%E0%A6%AE%E0%A6%B8%E0%A6%9C%E0%A6%BF%E0%A6%A6%28Baidyapara+Jame+Masjid%29/data=!4m7!3m6!1s0x3a0209d8ba451855:0x38fb90b38dade166!8m2!3d22.6008197!4d88.5863836!16s%2Fg%2F11kj4ltvj1!19sChIJVRhFutgJAjoRZuGtjbOQ-zg?authuser=0&hl=en&rclk=1,"22.6008197,88.58638359999999"
Purba bhangan khali jame masjid,Mosque,"7PM2+R2M Purba bhangan khali jame masjid, Purba bhangankhali, Atharo Banki, West Bengal 743329",,"7PM2+R2M, Purba bhangankhali",Atharo Banki,743329,West Bengal,IN,https://www.google.com/maps/place/Purba+bhangan+khali+jame+masjid/data=!4m7!3m6!1s0x3a0219f53bd74c9b:0xde03ae2a7844e90!8m2!3d22.2845831!4d88.7000452!16s%2Fg%2F11rwy8mzhp!19sChIJm0zXO_UZAjoRkE6Ep-I64A0?authuser=0&hl=en&rclk=1,"22.2845831,88.70004519999999"
Baghmari Masjid,Mosque,"CV99+PQ5 Baghmari Masjid, Baghmari, Kalinagar, West Bengal 743442",Baghmari,CV99+PQ5,Kalinagar,,West Bengal,IN,https://www.google.com/maps/place/Baghmari+Masjid/data=!4m7!3m6!1s0x3a01f1b9991b1e93:0x63a44fc6588724ea!8m2!3d22.4192534!4d88.8694951!16s%2Fg%2F11h3nnrdxd!19sChIJkx4bmbnxAToR6iSHWMZPpGM?authuser=0&hl=en&rclk=1,"22.4192534,88.8694951"
Boheragachi Purba-Para Natun Masjid,Mosque,"QMGJ+WX5 Boheragachi Purba-Para Natun Masjid, Boheragachi Rd, Marakpur, West Bengal 743704",,"QMGJ+WX5, Boheragachi Rd",Marakpur,743704,West Bengal,IN,https://www.google.com/maps/place/Boheragachi+Purba-Para+Natun+Masjid/data=!4m7!3m6!1s0x39f8aff429c01981:0x4824619f3598deb5!8m2!3d22.7772583!4d88.6824707!16s%2Fg%2F11k7pr_7p_!19sChIJgRnAKfSv-DkRtd6YNZ9hJEg?authuser=0&hl=en&rclk=1,"22.7772583,88.6824707"
Banganagar Jame Masjid,Mosque,"865V+VVP Banganagar Jame Masjid, Banganagar, West Bengal 743513",,865V+VVP,Banganagar,,West Bengal,IN,https://www.google.com/maps/place/Banganagar+Jame+Masjid/data=!4m7!3m6!1s0x3a026190bbbdf45f:0xfb672508cf46a27a!8m2!3d22.3097165!4d88.2446883!16s%2Fg%2F11jp1wxm33!19sChIJX_S9u5BhAjoReqJGzwglZ_s?authuser=0&hl=en&rclk=1,"22.3097165,88.24468829999999"
Boro masjid,Mosque,"G367+XRP Boro masjid, Baniban Jagadishpur, West Bengal 711316",,G367+XRP,Baniban Jagadishpur,711316,West Bengal,IN,https://www.google.com/maps/place/Boro+masjid/data=!4m7!3m6!1s0x3a02856dfd59aaef:0xb8b73fee34ec74b2!8m2!3d22.5124634!4d88.0645921!16s%2Fg%2F11s189rw2j!19sChIJ76pZ_W2FAjoRsnTsNO4_t7g?authuser=0&hl=en&rclk=1,"22.512463399999998,88.0645921"
Uttarbagi fullbagan masjid,Mosque,"Uttarbagi fullbagan masjid, Uttarbagi (chit, New Mans Park Colony, Pailan, Bagi, West Bengal 700104","New Mans Park Colony, Pailan",Uttarbagi (chit,Bagi,700104,West Bengal,IN,https://www.google.com/maps/place/Uttarbagi+fullbagan+masjid/data=!4m7!3m6!1s0x3a027b00cdd0813d:0xf788971781eb92ef!8m2!3d22.4268397!4d88.2962334!16s%2Fg%2F11pvp5lwql!19sChIJPYHQzQB7AjoR75LrgReXiPc?authuser=0&hl=en&rclk=1,"22.4268397,88.29623339999999"
Bausahar Mosque,Mosque,"CHVH+WMW Bausahar Mosque, Bausahar, West Bengal 743502",,CHVH+WMW,Bausahar,,West Bengal,IN,https://www.google.com/maps/place/Bausahar+Mosque/data=!4m7!3m6!1s0x3a020f8dfe35ba1f:0x23297a00f1ce42bf!8m2!3d22.4448641!4d88.579209!16s%2Fg%2F11ftb7wd55!19sChIJH7o1_o0PAjoRv0LO8QB6KSM?authuser=0&hl=en&rclk=1,"22.4448641,88.57920899999999"
New Bangla Masjid,Mosque,"X97V+83G New Bangla Masjid, Bansberia, Chak Bansberia, West Bengal 712502",Bansberia,X97V+83G,Chak Bansberia,712502,West Bengal,IN,https://www.google.com/maps/place/New+Bangla+Masjid/data=!4m7!3m6!1s0x39f893546c85942d:0xa090fe21d09e2241!8m2!3d22.9633028!4d88.3926887!16s%2Fg%2F11t644kq_v!19sChIJLZSFbFST-DkRQSKe0CH-kKA?authuser=0&hl=en&rclk=1,"22.963302799999997,88.3926887"
bamanpara masjid,Mosque,"XH68+6X5 bamanpara masjid, bamanrara, Haringhata, West Bengal 743711",,"XH68+6X5, bamanrara",Haringhata,743711,West Bengal,IN,https://www.google.com/maps/place/bamanpara+masjid/data=!4m7!3m6!1s0x39f8b9db92fd9791:0xf17e4fce12bbb43d!8m2!3d22.9605215!4d88.5674852!16s%2Fg%2F11rts14z6h!19sChIJkZf9ktu5-DkRPbS7Es5PfvE?authuser=0&hl=en&rclk=1,"22.9605215,88.5674852"
BANGALMARI JAME MASJID,Mosque,"BANGALMARI JAME MASJID, Moukhali Kumrakhali, Tambul Daha, West Bengal 743376",Moukhali Kumrakhali,BANGALMARI JAME MASJID,Tambul Daha,743376,West Bengal,IN,https://www.google.com/maps/place/BANGALMARI+JAME+MASJID/data=!4m7!3m6!1s0x3a021b35d6d87fff:0x3026439f16a4e458!8m2!3d22.3551294!4d88.6651279!16s%2Fg%2F11q9_5bq4g!19sChIJ_3_Y1jUbAjoRWOSkFp9DJjA?authuser=0&hl=en&rclk=1,"22.3551294,88.6651279"
Baitul Muyazzam Jame Masjid,Mosque,"C4PW+26P Baitul Muyazzam Jame Masjid, Budge Budge, Mayapur, West Bengal 743318",Budge Budge,C4PW+26P,Mayapur,,West Bengal,IN,https://www.google.com/maps/place/Baitul+Muyazzam+Jame+Masjid/data=!4m7!3m6!1s0x3a028755fd3196b1:0xb790933b1f860d7f!8m2!3d22.435086!4d88.1455716!16s%2Fg%2F11pvblx8fm!19sChIJsZYx_VWHAjoRfw2GHzuTkLc?authuser=0&hl=en&rclk=1,"22.435086,88.1455716"
Natungram Masque,Mosque,"8845+MHG Natungram Masque, Natungram Road, Nandai, West Bengal 713405",,"8845+MHG, Natungram Road",Nandai,,West Bengal,IN,https://www.google.com/maps/place/Natungram+Masque/data=!4m7!3m6!1s0x39f8fdec654a8f47:0x3cb4e73493a261f!8m2!3d23.3066819!4d88.3089423!16s%2Fg%2F11hqvyhnf7!19sChIJR49KZez9-DkRHyY6SXNOywM?authuser=0&hl=en&rclk=1,"23.306681899999997,88.3089423"
Uttarpara jama masjid,Mosque,"MWHX+WHQ Uttarpara jama masjid, Itindaghat, West Bengal",,MWHX+WHQ,Itindaghat,,West Bengal,IN,https://www.google.com/maps/place/Uttarpara+jama+masjid/data=!4m7!3m6!1s0x39ff59c592f477ed:0x77e335ddddece221!8m2!3d22.6798488!4d88.9490317!16s%2Fg%2F11tnhw532j!19sChIJ7Xf0ksVZ_zkRIeLs3d0143c?authuser=0&hl=en&rclk=1,"22.6798488,88.94903169999999"
Ghanashyambati masjid,Mosque,"J4R2+MJ Ghanashyambati masjid, Ghanashyambati, West Bengal 711410",,J4R2+MJ,Ghanashyambati,,West Bengal,IN,https://www.google.com/maps/place/Ghanashyambati+masjid/data=!4m7!3m6!1s0x39f87f6fbbb0bd0d:0x11e5c6fc1c1e2c01!8m2!3d22.6417002!4d88.1015445!16s%2Fg%2F11shy62t3n!19sChIJDb2wu29_-DkRASweHPzG5RE?authuser=0&hl=en&rclk=1,"22.6417002,88.1015445"
Bagi Jame masjid(baagii jaame msjid),Mosque,"4VQF+PC9 Bagi Jame masjid(baagii jaame msjid), Bagi, West Bengal 743232",,4VQF+PC9,Bagi,743232,West Bengal,IN,https://www.google.com/maps/place/Bagi+Jame+masjid%28%E0%A6%AC%E0%A6%BE%E0%A6%97%E0%A7%80+%E0%A6%9C%E0%A6%BE%E0%A6%AE%E0%A7%87+%E0%A6%AE%E0%A6%B8%E0%A6%9C%E0%A6%BF%E0%A6%A6%29/data=!4m7!3m6!1s0x39ff31690f6ce973:0x6353547908e1c193!8m2!3d23.1392922!4d88.8736169!16s%2Fg%2F11kbr85qcn!19sChIJc-lsD2kx_zkRk8HhCHlUU2M?authuser=0&hl=en&rclk=1,"23.1392922,88.8736169"
Bahagal Ajmatiya Masjid,Mosque,"Bahagal Ajmatiya Masjid, Hajipur, to, Road, Bahagal, West Bengal 712614",,"Hajipur, to, Road",Bahagal,712614,West Bengal,IN,https://www.google.com/maps/place/Bahagal+Ajmatiya+Masjid/data=!4m7!3m6!1s0x39f81b0c71b4c233:0x281b9b469c0d10bc!8m2!3d22.8152018!4d87.6580761!16s%2Fg%2F11hmsdwxyq!19sChIJM8K0cQwb-DkRvBANnEabGyg?authuser=0&hl=en&rclk=1,"22.8152018,87.6580761"
