name,main_category,address,address_ward,address_street,address_city,address_postal_code,address_state,address_country_code,link,coordinates
Jama Masjid,Mosque,"Jama Masjid, Old Delhi, Delhi, 110006","Jama Masjid, Old Delhi",,Delhi,110006,Delhi,IN,https://www.google.com/maps/place/Jama+Masjid/data=!4m7!3m6!1s0x390cfd18df89b215:0xdd57369e29bf9d96!8m2!3d28.6506792!4d77.2334421!16zL20vMDR5emo1!19sChIJFbKJ3xj9DDkRlp2_KZ42V90?authuser=0&hl=en&rclk=1,"28.6506792,77.23344209999999"
Masjid Minar,Pipe Manufacturer,,,,,,,,https://www.google.com/maps/place/Masjid+Minar/data=!4m7!3m6!1s0xa0b0ee392a3c5af3:0xaf14c6ed53420e4f!8m2!3d29.4751257!4d77.7088578!16s%2Fg%2F11l5sbk4rq!19sChIJ81o8KjnusKARTw5CU-3GFK8?authuser=0&hl=en&rclk=1,"29.4751257,77.70885779999999"
Dhari Devi temple,Hindu temple,"Dhari Devi temple, Kalyasaur, Dang Chaura, Uttarakhand 246174",,,"Kalyasaur, Dang Chaura",246174,Uttarakhand,IN,https://www.google.com/maps/place/Dhari+Devi+temple/data=!4m7!3m6!1s0x3909b0672cf98fb7:0x74f4634919ccbcab!8m2!3d30.25789!4d78.8773495!16s%2Fm%2F0lqhp_7!19sChIJt4_5LGewCTkRq7zMGUlj9HQ?authuser=0&hl=en&rclk=1,"30.25789,78.8773495"
Hari Masjid - hry msjd,Mosque,"Hari Masjid - hry msjd, S5, Rajguru Marg, Chuna Mandi, Paharganj, New Delhi, Delhi 110055","Bazar Sangatrashan, Chuna Mandi, Paharganj","S5, Rajguru Marg",New Delhi,110055,Delhi,IN,https://www.google.com/maps/place/Hari+Masjid+-+%DB%81%D8%B1%DB%8C+%D9%85%D8%B3%D8%AC%D8%AF%E2%80%AD/data=!4m7!3m6!1s0x390cfd420fb3ca0d:0xb47391289f663fde!8m2!3d28.6451083!4d77.2107922!16s%2Fg%2F12ml2wx8n!19sChIJDcqzD0L9DDkR3j9mnyiRc7Q?authuser=0&hl=en&rclk=1,"28.6451083,77.2107922"
Mohammadi Masjid,Mosque,"G7XX+C4X Mohammadi Masjid, Shaheen Bagh, Block E, Jamia Nagar, Okhla, New Delhi, Delhi 110025","Shaheen Bagh, Block E, Jamia Nagar, Okhla",G7XX+C4X,New Delhi,110025,Delhi,IN,https://www.google.com/maps/place/Mohammadi+Masjid/data=!4m7!3m6!1s0x390ce41acd709b67:0x8df25e5235479b77!8m2!3d28.5486052!4d77.2978715!16s%2Fg%2F11cp1893xh!19sChIJZ5twzRrkDDkRd5tHNVJe8o0?authuser=0&hl=en&rclk=1,"28.548605199999997,77.2978715"
Sabz Masjid,Mosque,"Sabz Masjid, 3571, Lalkuan Bazar Rd, Bazar Sirkiwalan, Lal Kuan Bazar, Chandni Chowk, Delhi, 110006","Bazar Sirkiwalan, Lal Kuan Bazar, Chandni Chowk","3571, Lalkuan Bazar Rd",Delhi,110006,Delhi,IN,https://www.google.com/maps/place/Sabz+Masjid/data=!4m7!3m6!1s0x390cfd16a94877a7:0x7b35bb653cd42e20!8m2!3d28.652163!4d77.223599!16s%2Fm%2F04q247t!19sChIJp3dIqRb9DDkRIC7UPGW7NXs?authuser=0&hl=en&rclk=1,"28.652162999999998,77.223599"
"Jama Masjid, Khadda Colony jm` msjd",Mosque,"Jama Masjid, Khadda Colony jm` msjd, D-202, near by Jama Masjid Gali, Jaitpur Extension Part II, Khadda Colony, Badarpur, New Delhi, Delhi 110044","Jaitpur Extension Part II, Khadda Colony, Badarpur","D-202, near by Jama Masjid Gali",New Delhi,110044,Delhi,IN,"https://www.google.com/maps/place/Jama+Masjid,+Khadda+Colony+%D8%AC%D8%A7%D9%85%D8%B9+%D9%85%D8%B3%D8%AC%D8%AF%E2%80%AD/data=!4m7!3m6!1s0x390ce65a1cc2d345:0x508d72d241ba7c2f!8m2!3d28.5094725!4d77.3384064!16s%2Fg%2F11b_23cdbd!19sChIJRdPCHFrmDDkRL3y6QdJyjVA?authuser=0&hl=en&rclk=1","28.509472499999998,77.3384064"
Masjid Patherwali msjd,Mosque,"1608, Masjid Patherwali msjd, 32, Block 39E, Nai Walan, Karol Bagh, New Delhi, Delhi, 110005","Block 39E, Nai Walan, Karol Bagh","1608, 32","New Delhi, Delhi",110005,Delhi,IN,https://www.google.com/maps/place/Masjid+Patherwali+%D9%85%D8%B3%D8%AC%D8%AF%E2%80%AD/data=!4m7!3m6!1s0x390cfd61ca03d689:0x8ff36a5a3c66d0bd!8m2!3d28.6475823!4d77.1958499!16s%2Fg%2F12hm6x9t2!19sChIJidYDymH9DDkRvdBmPFpq848?authuser=0&hl=en&rclk=1,"28.6475823,77.1958499"
Firdosh Masjid,Mosque,"J33W+H86 Firdosh Masjid, Jagdamba Vihar, West Sagarpur, Sagar Pur, New Delhi, Delhi, 110046","Jagdamba Vihar, West Sagarpur, Sagar Pur",J33W+H86,"New Delhi, Delhi",110046,Delhi,IN,https://www.google.com/maps/place/Firdosh+Masjid/data=!4m7!3m6!1s0x390d1b513b13aa47:0x2bf4520124d621a4!8m2!3d28.6039174!4d77.0957758!16s%2Fg%2F1hhg_34rg!19sChIJR6oTO1EbDTkRpCHWJAFS9Cs?authuser=0&hl=en&rclk=1,"28.6039174,77.0957758"
Masjid Shiekh Gamo (Furqania Masjid),Mosque,"M599+P9G Masjid Shiekh Gamo (Furqania Masjid), Old Rohtak Rd, Daya Basti, New Delhi, Delhi, 110052",Daya Basti,"M599+P9G, Old Rohtak Rd","New Delhi, Delhi",110052,Delhi,IN,https://www.google.com/maps/place/Masjid+Shiekh+Gamo+%28Furqania+Masjid%29/data=!4m7!3m6!1s0x390d025e890c942b:0xc9a46bdfd2d5d0c8!8m2!3d28.6693059!4d77.1684408!16s%2Fg%2F1262jslnf!19sChIJK5QMiV4CDTkRyNDV0t9rpMk?authuser=0&hl=en&rclk=1,"28.669305899999998,77.1684408"
Madni Masjid under Delhi Wakaf,Mosque,"Madni Masjid under Delhi Wakaf, Aravali Apartments, near, Alaknanda, New Delhi, Delhi 110019",Alaknanda,"Aravali Apartments, near",New Delhi,110019,Delhi,IN,https://www.google.com/maps/place/Madni+Masjid+under+Delhi+Wakaf/data=!4m7!3m6!1s0x390ce16350f7e38f:0xa1c7701e04aad5f2!8m2!3d28.5296762!4d77.252511!16s%2Fg%2F1q67vgk8s!19sChIJj-P3UGPhDDkR8tWqBB5wx6E?authuser=0&hl=en&rclk=1,"28.529676199999997,77.252511"
Madhi Masjid msjd,Mosque,"G57P+X22 Madhi Masjid msjd, Aam Bagh, Ladha Sarai Village, Mehrauli, New Delhi, Delhi 110030","Aam Bagh, Ladha Sarai Village, Mehrauli",G57P+X22,"Mehrauli, New Delhi",110030,Delhi,IN,https://www.google.com/maps/place/Madhi+Masjid+%D9%85%D8%B3%D8%AC%D8%AF%E2%80%AD/data=!4m7!3m6!1s0x390d1e1aefd51b73:0xeb817d5121e0c393!8m2!3d28.5148909!4d77.1850159!16s%2Fg%2F1tnk_stq!19sChIJcxvV7xoeDTkRk8PgIVF9ges?authuser=0&hl=en&rclk=1,"28.514890899999997,77.1850159"
Dibiya wali Masjid,Mosque,"G54H+M78 Dibiya wali Masjid, Mehrauli-Gurgaon Road, M G Road, Dr Ambedkar Colony, Chhatarpur, New Delhi, Delhi 110030","Dr Ambedkar Colony, Chhatarpur","G54H+M78, Mehrauli-Gurgaon Road, M G Road",New Delhi,110030,Delhi,IN,https://www.google.com/maps/place/Dibiya+wali+Masjid/data=!4m7!3m6!1s0x390d1e16e71c9d4d:0x176d7f6163772932!8m2!3d28.5091206!4d77.1796709!16s%2Fg%2F119w0d7q4!19sChIJTZ0c5xYeDTkRMil3Y2F_bRc?authuser=0&hl=en&rclk=1,"28.5091206,77.17967089999999"
Masjid Chakkarwali,Mosque,"H6VV+J99 Masjid Chakkarwali, Dr Zakir Hussain Marg, Nizamuddin, National Zoological Park, Sundar Nagar, New Delhi, Delhi 110003","Nizamuddin, National Zoological Park, Sundar Nagar","H6VV+J99, Dr Zakir Hussain Marg",New Delhi,110003,Delhi,IN,https://www.google.com/maps/place/Masjid+Chakkarwali/data=!4m7!3m6!1s0x390ce31d01969b01:0xa554bb4cb707340e!8m2!3d28.5940396!4d77.2434789!16s%2Fg%2F1tg6nhqh!19sChIJAZuWAR3jDDkRDjQHt0y7VKU?authuser=0&hl=en&rclk=1,"28.5940396,77.2434789"
Noori Masjid,Mosque,"Noori Masjid, M-20/96, Block B, Dabri Extension East, Dabri, New Delhi, Delhi, 110046","Block B, Dabri Extension East, Dabri",M-20/96,"New Delhi, Delhi",110046,Delhi,IN,https://www.google.com/maps/place/Noori+Masjid/data=!4m7!3m6!1s0x390d1b4e00048bc3:0xe0fa34299d2b42d8!8m2!3d28.6055137!4d77.0908015!16s%2Fg%2F11c5xczp9s!19sChIJw4sEAE4bDTkR2EIrnSk0-uA?authuser=0&hl=en&rclk=1,"28.6055137,77.0908015"
Saeediya Masjid,Mosque,"Saeediya Masjid, 45, New Silampur Gali, Block A, Chauhan Banger, Shahdara, Delhi, 110031","Block A, Chauhan Banger, Shahdara","45, New Silampur Gali",Delhi,110031,Delhi,IN,https://www.google.com/maps/place/Saeediya+Masjid/data=!4m7!3m6!1s0x390cfc61230920b1:0xd4902005e34cb106!8m2!3d28.678415!4d77.2672561!16s%2Fg%2F11c6qcjmhv!19sChIJsSAJI2H8DDkRBrFM4wUgkNQ?authuser=0&hl=en&rclk=1,"28.678414999999998,77.2672561"
Choti Masjid (Aliya Madarsa) chhwtty msjd khwryjy,Mosque,"Choti Masjid (Aliya Madarsa) chhwtty msjd khwryjy, 43, Parwana Rd, Old Brijpuri, Krishna Nagar, Delhi, 110051","Old Brijpuri, Krishna Nagar","43, Parwana Rd",Delhi,110051,Delhi,IN,https://www.google.com/maps/place/Choti+Masjid+%28Aliya+Madarsa%29+%DA%86%DA%BE%D9%88%D9%B9%DB%8C+%D9%85%D8%B3%D8%AC%D8%AF+%D8%AE%D9%88%D8%B1%DB%8C%D8%AC%DB%8C%E2%80%AD/data=!4m7!3m6!1s0x390cfca4024b60bd:0xa220b66acb97b8ab!8m2!3d28.6461146!4d77.2805686!16s%2Fg%2F11bt_h35kf!19sChIJvWBLAqT8DDkRq7iXy2q2IKI?authuser=0&hl=en&rclk=1,"28.646114599999997,77.2805686"
Masjid Chishtiya,Mosque,"Masjid Chishtiya, A Block, Resettlement Colony, Sector 1 Dwarka, Dwarka, New Delhi, Delhi 110075","Sector 1 Dwarka, Dwarka","A Block, Resettlement Colony","New Delhi, Delhi",110075,Delhi,IN,https://www.google.com/maps/place/Masjid+Chishtiya/data=!4m7!3m6!1s0x390d1b39fc220e61:0xafc3334e15039693!8m2!3d28.5978695!4d77.0740838!16s%2Fg%2F12hv2l16_!19sChIJYQ4i_DkbDTkRk5YDFU4zw68?authuser=0&hl=en&rclk=1,"28.597869499999998,77.0740838"
Juma masjid,Mosque,"Juma masjid, E-1036, Budh Nagar, Inder Puri, New Delhi, Delhi 110028","Budh Nagar, Inder Puri",E-1036,New Delhi,110028,Delhi,IN,https://www.google.com/maps/place/Juma+masjid/data=!4m7!3m6!1s0x390d032879be52fb:0xc9b01a823cc3564f!8m2!3d28.6338571!4d77.1449417!16s%2Fg%2F11mvx680k2!19sChIJ-1K-eSgDDTkRT1bDPIIasMk?authuser=0&hl=en&rclk=1,"28.6338571,77.14494169999999"
Ahle Sunnat wal jamaat RazaeMuhammadi Masjid,Mosque,"J6X8+JC2 Ahle Sunnat wal jamaat RazaeMuhammadi Masjid, Aram Nagar, Paharganj, New Delhi, Delhi 110055","Aram Nagar, Paharganj",J6X8+JC2,New Delhi,110055,Delhi,IN,https://www.google.com/maps/place/Ahle+Sunnat+wal+jamaat+RazaeMuhammadi+Masjid/data=!4m7!3m6!1s0x390cfd6b1c55570b:0xb6cbdaabca9cc6b2!8m2!3d28.6490022!4d77.2160178!16s%2Fg%2F11g6mj_5x9!19sChIJC1dVHGv9DDkRssacyqvay7Y?authuser=0&hl=en&rclk=1,"28.649002199999998,77.2160178"
Puliya Wali Masjid,Mosque,"J6R9+Q48 Puliya Wali Masjid, Main Bazar Rd, Ratan Lal Market, Aram Bagh, Paharganj, New Delhi, Delhi, 110055","Ratan Lal Market, Aram Bagh, Paharganj","J6R9+Q48, Main Bazar Rd","New Delhi, Delhi",110055,Delhi,IN,https://www.google.com/maps/place/Puliya+Wali+Masjid/data=!4m7!3m6!1s0x390cfd3f5dcc4137:0x1ed0072a0c155076!8m2!3d28.6419015!4d77.2178423!16s%2Fg%2F12q4q_hw8!19sChIJN0HMXT_9DDkRdlAVDCoH0B4?authuser=0&hl=en&rclk=1,"28.6419015,77.2178423"
Masjid Dai-Wali,Mosque,"Shop No, Masjid Dai-Wali, 3136, Delhi Gate Bazar, Kucha Alam, Khabas Pura, Daryaganj, New Delhi, Delhi, 110002","Kucha Alam, Khabas Pura, Daryaganj","Shop No, 3136, Delhi Gate Bazar","New Delhi, Delhi",110002,Delhi,IN,https://www.google.com/maps/place/Masjid+Dai-Wali/data=!4m7!3m6!1s0x390cfd20da360d31:0x7e303aff50cc4c2b!8m2!3d28.6435772!4d77.2380546!16s%2Fg%2F1jky_pbsw!19sChIJMQ022iD9DDkRK0zMUP86MH4?authuser=0&hl=en&rclk=1,"28.6435772,77.2380546"
MASJID AMROOD WALI,Mosque,"MASJID AMROOD WALI, Bulbuli khana, near kala masjid, Turkman Gate, Old Delhi, New Delhi, Delhi, 110006","Turkman Gate, Old Delhi","Bulbuli khana, near kala masjid","New Delhi, Delhi",110006,Delhi,IN,https://www.google.com/maps/place/MASJID+AMROOD+WALI/data=!4m7!3m6!1s0x390cfd22f0eb7eef:0xc91420f046ba3b88!8m2!3d28.6410797!4d77.2337194!16s%2Fg%2F11d_x09zhj!19sChIJ737r8CL9DDkRiDu6RvAgFMk?authuser=0&hl=en&rclk=1,"28.6410797,77.2337194"
Jami Masjid msjd,Mosque,"J6PW+36R Jami Masjid msjd, Balmiki Basti, Vikram Nagar, Delhi, 110002","Balmiki Basti, Vikram Nagar",J6PW+36R,Delhi,110002,Delhi,IN,https://www.google.com/maps/place/Jami+Masjid+%D9%85%D8%B3%D8%AC%D8%AF%E2%80%AD/data=!4m7!3m6!1s0x390cfcd72563b811:0x692c53e911b89fcf!8m2!3d28.6352493!4d77.2455302!16s%2Fg%2F11b5pj92t0!19sChIJEbhjJdf8DDkRz5-4EelTLGk?authuser=0&hl=en&rclk=1,"28.635249299999998,77.24553019999999"
Zakariya Jama Masjid jm` msjd zkhryh,Mosque,"F6RW+M9G Zakariya Jama Masjid jm` msjd zkhryh, Street Number 11, Block - I 2, Block J 2, Block I 2, Sangam Vihar, New Delhi, Delhi 110062","Block - I 2, Block J 2, Block I 2, Sangam Vihar","F6RW+M9G, Street Number 11",New Delhi,110062,Delhi,IN,https://www.google.com/maps/place/Zakariya+Jama+Masjid+%D8%AC%D8%A7%D9%85%D8%B9+%D9%85%D8%B3%D8%AC%D8%AF+%D8%B2%DA%A9%D8%B1%DB%8C%D9%87%E2%80%AD/data=!4m7!3m6!1s0x390ce1017c10fbef:0xe35d230f819efadf!8m2!3d28.4916789!4d77.2459614!16s%2Fg%2F11dyx5h1y3!19sChIJ7_sQfAHhDDkR3_qegQ8jXeM?authuser=0&hl=en&rclk=1,"28.4916789,77.2459614"
Masjid Devband,Mosque,"G66Q+44V Masjid Devband, Tigri Colony, Tigri, Sangam Vihar, New Delhi, Delhi 110062","Tigri Colony, Tigri, Sangam Vihar",G66Q+44V,New Delhi,110062,Delhi,IN,https://www.google.com/maps/place/Masjid+Devband/data=!4m7!3m6!1s0x390ce1a02ba173f3:0x74659f41cc7c1b39!8m2!3d28.5103517!4d77.2377863!16s%2Fg%2F11b808708z!19sChIJ83OhK6DhDDkRORt8zEGfZXQ?authuser=0&hl=en&rclk=1,"28.510351699999998,77.2377863"
Masjid Dhobiyan,Mosque,"Masjid Dhobiyan, 3280, Delhi Gate Bazar, Kucha Alam, Old Dariya Ganj, New Delhi, Delhi 110002","Chatta lal Miya, Chandni Mahal, Old Delhi","3280, Delhi Gate Bazar, Kucha Alam, Old Dariya Ganj","New Delhi, Delhi",110002,Delhi,IN,https://www.google.com/maps/place/Masjid+Dhobiyan/data=!4m7!3m6!1s0x390cfd273340d127:0x7d6d2edf4a35f8d9!8m2!3d28.6425263!4d77.2386389!16s%2Fg%2F11cs5s2vzb!19sChIJJ9FAMyf9DDkR2fg1St8ubX0?authuser=0&hl=en&rclk=1,"28.6425263,77.2386389"
Jannatul Firdose Masjid msjd jn@lfrdws,Mosque,"G8J6+H6X Jannatul Firdose Masjid msjd jn@lfrdws, Madanpur Khadar Extension, Block A, Madanpur Khadar, New Delhi, Delhi 110076","Madanpur Khadar Extension, Block A, Madanpur Khadar",G8J6+H6X,New Delhi,110076,Delhi,IN,https://www.google.com/maps/place/Jannatul+Firdose+Masjid+%D9%85%D8%B3%D8%AC%D8%AF+%D8%AC%D9%86%D8%A9%D8%A7%D9%84%D9%81%D8%B1%D8%AF%D9%88%D8%B3%E2%80%AD/data=!4m7!3m6!1s0x390ce698614a56a5:0x1c3fad641cabab20!8m2!3d28.5314784!4d77.3106246!16s%2Fg%2F11dybr1nt3!19sChIJpVZKYZjmDDkRIKurHGStPxw?authuser=0&hl=en&rclk=1,"28.531478399999997,77.3106246"
Nurani Masjid,Mosque,"G87P+9FG Nurani Masjid, Shamshul Marg, Jaitpur Extension Part II, Khadda Colony, Badarpur, New Delhi, Delhi 110044","Jaitpur Extension Part II, Khadda Colony, Badarpur","G87P+9FG, Shamshul Marg",New Delhi,110044,Delhi,IN,https://www.google.com/maps/place/Nurani+Masjid/data=!4m7!3m6!1s0x390ce65930824353:0xc2da84d501d29ac9!8m2!3d28.5134438!4d77.3362129!16s%2Fg%2F11bv1cg3ng!19sChIJU0OCMFnmDDkRyZrSAdWE2sI?authuser=0&hl=en&rclk=1,"28.513443799999997,77.33621289999999"
Muhammadi Masjid,Mosque,"Muhammadi Masjid, 2/55, Moonga Nagar, New Mustafabad, New Delhi, Delhi, 110094","Moonga Nagar, New Mustafabad",2/55,"New Delhi, Delhi",110094,Delhi,IN,https://www.google.com/maps/place/Muhammadi+Masjid/data=!4m7!3m6!1s0x390cfc175aee92eb:0xaa6d7ae014408908!8m2!3d28.7081354!4d77.2682226!16s%2Fg%2F11c5sz6frk!19sChIJ65LuWhf8DDkRCIlAFOB6bao?authuser=0&hl=en&rclk=1,"28.7081354,77.2682226"
Masjid Hanafiah,Mosque,"Masjid Hanafiah, 1377, Kalan Mahal, Daryaganj, New Delhi, Delhi, 110002","Kalan Mahal, Daryaganj",1377,"New Delhi, Delhi",110002,Delhi,IN,https://www.google.com/maps/place/Masjid+Hanafiah/data=!4m7!3m6!1s0x390cfd1f6023d9f9:0x718d28b56f35a1bf!8m2!3d28.6480915!4d77.2363378!16s%2Fg%2F11c6_strgn!19sChIJ-dkjYB_9DDkRv6E1b7UojXE?authuser=0&hl=en&rclk=1,"28.6480915,77.2363378"
Mohammadi Masjid,Mosque,"Mohammadi Masjid, block - c , gali no. 12 , shiv vihar part 2, Ismailpur Rd, Ekta Vihar, Basantpur, Faridabad, Delhi 121003","Ekta Vihar, Basantpur","block - c , gali no. 12 , shiv vihar part 2, Ismailpur Rd","Faridabad, New Delhi",121003,Delhi,IN,https://www.google.com/maps/place/Mohammadi+Masjid/data=!4m7!3m6!1s0x390ce65691d77451:0x37e5a2edf0d4bd81!8m2!3d28.5035617!4d77.3360423!16s%2Fg%2F12hmr57km!19sChIJUXTXkVbmDDkRgb3U8O2i5Tc?authuser=0&hl=en&rclk=1,"28.5035617,77.3360423"
Fakhrul Masjid msjd,Mosque,"Fakhrul Masjid msjd, 1268, Bara Bazar Rd, Chabi Ganj, Kashmere Gate, New Delhi, Delhi, 110006","Chabi Ganj, Kashmere Gate","1268, Bara Bazar Rd","New Delhi, Delhi",110006,Delhi,IN,https://www.google.com/maps/place/Fakhrul+Masjid+%D9%85%D8%B3%D8%AC%D8%AF%E2%80%AD/data=!4m7!3m6!1s0x390cfd060683b301:0xc9d92074bb420992!8m2!3d28.665012!4d77.2295583!16s%2Fg%2F11cmytc3k3!19sChIJAbODBgb9DDkRkglCu3Qg2ck?authuser=0&hl=en&rclk=1,"28.665011999999997,77.2295583"
Masjid Teliyan,Mosque,"J6VP+9JM Masjid Teliyan, Bazar Chitli Qabar, Rakab Ganj, Chandni Mahal, Chandni Chowk, New Delhi, Delhi, 110006","Bazar Chitli Qabar, Rakab Ganj, Chandni Mahal, Chandni Chowk",J6VP+9JM,"New Delhi, Delhi",110006,Delhi,IN,https://www.google.com/maps/place/Masjid+Teliyan/data=!4m7!3m6!1s0x390cfd214be94f43:0x2cda7c5aeb3a5464!8m2!3d28.6434733!4d77.2365384!16s%2Fg%2F11bzzlszqp!19sChIJQ0_pSyH9DDkRZFQ661p82iw?authuser=0&hl=en&rclk=1,"28.6434733,77.2365384"
Masjid Pahadi Imli,Mosque,"Masjid Pahadi Imli, 1165, Choori Walan Rd, Choori Walan, Kalan Mehal, Chandni Chowk, New Delhi, Delhi, 110006","Choori Walan, Kalan Mehal, Chandni Chowk","1165, Choori Walan Rd","New Delhi, Delhi",110006,Delhi,IN,https://www.google.com/maps/place/Masjid+Pahadi+Imli/data=!4m7!3m6!1s0x390cfd22757cc4d7:0x835e4c5e57f04610!8m2!3d28.6477963!4d77.2331922!16s%2Fg%2F11dfldwlp9!19sChIJ18R8dSL9DDkREEbwV15MXoM?authuser=0&hl=en&rclk=1,"28.6477963,77.23319219999999"
Maszid Saifiyaan,Mosque,"Maszid Saifiyaan, A56, Deoli, Block C, Khanpur, New Delhi, Delhi 110080","Deoli, Block C, Khanpur",A56,New Delhi,110080,Delhi,IN,https://www.google.com/maps/place/Maszid+Saifiyaan/data=!4m7!3m6!1s0x390ce1e22fbf3cbf:0x7bb4134d107773d0!8m2!3d28.504321!4d77.226911!16s%2Fg%2F11ngbqm772!19sChIJvzy_L-LhDDkR0HN3EE0TtHs?authuser=0&hl=en&rclk=1,"28.504320999999997,77.226911"
Masjid Rehel Wali,Mosque,"Masjid Rehel Wali, 1138, Matia Mahal Rd, Manohar Market, Jama Masjid, Old Delhi, New Delhi, Delhi, 110006","Manohar Market, Jama Masjid, Old Delhi","1138, Matia Mahal Rd","New Delhi, Delhi",110006,Delhi,IN,https://www.google.com/maps/place/Masjid+Rehel+Wali/data=!4m7!3m6!1s0x390cfd2209bda88f:0xf6c2b99a4522250f!8m2!3d28.6477449!4d77.2337881!16s%2Fg%2F11cs22c5d9!19sChIJj6i9CSL9DDkRDyUiRZq5wvY?authuser=0&hl=en&rclk=1,"28.6477449,77.2337881"
Masjid Badi msjd,Mosque,"Masjid Badi msjd, 893,, Chittli Qabar Bazar Rd, Jama Masjid, Chandni Chowk, New Delhi, Delhi 110006","Bazar Chitli Qabar, Kucha Chelan, Jama Masjid, Chandni Chowk","893,, Chittli Qabar Bazar Rd","New Delhi, Delhi",110006,Delhi,IN,https://www.google.com/maps/place/Masjid+Badi+%D9%85%D8%B3%D8%AC%D8%AF%E2%80%AD/data=!4m7!3m6!1s0x390cfd219cfec1f3:0x93ccacb281d71709!8m2!3d28.645321!4d77.2357133!16s%2Fg%2F12m98gjn5!19sChIJ88H-nCH9DDkRCRfXgbKszJM?authuser=0&hl=en&rclk=1,"28.645321,77.2357133"
Masjid Mashal Chiyan,Mosque,"Masjid Mashal Chiyan, 2100, Pahari Bhojla Rd, Pahari Bhojla, Sita Ram Bazar, Old Delhi, Delhi, 110006","Pahari Bhojla, Sita Ram Bazar, Old Delhi","2100, Pahari Bhojla Rd",Delhi,110006,Delhi,IN,https://www.google.com/maps/place/Masjid+Mashal+Chiyan/data=!4m7!3m6!1s0x390cfd225b6ed379:0x9d5cccd781f0a815!8m2!3d28.6454716!4d77.232231!16s%2Fg%2F11f1211zsv!19sChIJedNuWyL9DDkRFajwgdfMXJ0?authuser=0&hl=en&rclk=1,"28.6454716,77.232231"
Garahaiya Wali Masjid msjd ghrrhy wly,Mosque,"M645+P9X Garahaiya Wali Masjid msjd ghrrhy wly, Qureshnagar, Sadar Bazaar, Delhi, 110006","Sarai Khalil, Sadar Bazaar","M645+P9X, Qureshnagar, Sadar Bazaar",Delhi,110006,Delhi,IN,https://www.google.com/maps/place/Garahaiya+Wali+Masjid+%D9%85%D8%B3%D8%AC%D8%AF+%DA%AF%DA%BE%DA%91%DA%BE%DB%8C%D8%A7+%D9%88%D8%A7%D9%84%DB%8C%E2%80%AD/data=!4m7!3m6!1s0x390cfd6fd6004367:0xfebc1f26322235da!8m2!3d28.6568604!4d77.2084973!16s%2Fg%2F11c3w0w7y_!19sChIJZ0MA1m_9DDkR2jUiMiYfvP4?authuser=0&hl=en&rclk=1,"28.6568604,77.20849729999999"
Masjid,Mosque,"H769+P87 Masjid, Block A, Friends Colony East, New Friends Colony, New Delhi, Delhi 110025","Block A, Friends Colony East, New Friends Colony",H769+P87,New Delhi,110025,Delhi,IN,https://www.google.com/maps/place/Masjid/data=!4m7!3m6!1s0x390ce3a3874c1a6d:0x3777b5148e43553a!8m2!3d28.5617917!4d77.2683072!16s%2Fg%2F11grc87l61!19sChIJbRpMh6PjDDkROlVDjhS1dzc?authuser=0&hl=en&rclk=1,"28.561791699999997,77.2683072"
Dargah & Masjid Jeelani,Mosque,"J53J+FPV Dargah & Masjid Jeelani, Sardar Patel Marg, Malcha, New Delhi, Delhi 110021",Central Ridge Reserve Forest,"J53J+FPV, Sardar Patel Marg, Malcha",New Delhi,110021,Delhi,IN,https://www.google.com/maps/place/Dargah+%26+Masjid+Jeelani/data=!4m7!3m6!1s0x390d1d44bc4a3157:0xda356c3fef68061f!8m2!3d28.6037379!4d77.1817848!16s%2Fg%2F11c2nqp61l!19sChIJVzFKvEQdDTkRHwZo7z9sNdo?authuser=0&hl=en&rclk=1,"28.6037379,77.1817848"
Lado Sarai Masjid,Mosque,"G5JV+98H Lado Sarai Masjid, Block C, Adchini, New Delhi, Delhi 110030","Block C, Adchini",G5JV+98H,New Delhi,110030,Delhi,IN,https://www.google.com/maps/place/Lado+Sarai+Masjid/data=!4m7!3m6!1s0x390d1d6b51194c9d:0x28f666387ce00384!8m2!3d28.5309443!4d77.1933553!16s%2Fg%2F11f7r3j9lr!19sChIJnUwZUWsdDTkRhAPgfDhm9ig?authuser=0&hl=en&rclk=1,"28.530944299999998,77.1933553"
Jahtari Wali Masjid,Mosque,"Jahtari Wali Masjid, 5077, Main Bazar Rd, Bharat Nagar, Main Bazar, Aram Bagh, Paharganj, New Delhi, Delhi 110055","Bharat Nagar, Main Bazar, Aram Bagh, Paharganj","5077, Main Bazar Rd",New Delhi,110055,Delhi,IN,https://www.google.com/maps/place/Jahtari+Wali+Masjid/data=!4m7!3m6!1s0x390cfd815a030b8b:0xe18350aa13859d7a!8m2!3d28.6406795!4d77.2115511!16s%2Fg%2F11gjxtbc0j!19sChIJiwsDWoH9DDkRep2FE6pQg-E?authuser=0&hl=en&rclk=1,"28.640679499999997,77.2115511"
Masjid Dai Wali,Mosque,"J6WQ+QQH Masjid Dai Wali, Dakhni Rai St, Old Dariya Ganj, Daryaganj, New Delhi, Delhi, 110002","Old Dariya Ganj, Daryaganj","J6WQ+QQH, Dakhni Rai St","New Delhi, Delhi",110002,Delhi,IN,https://www.google.com/maps/place/Masjid+Dai+Wali/data=!4m7!3m6!1s0x390cfd206cb36be5:0xfcebc4e2a016bdf3!8m2!3d28.6469464!4d77.2394717!16s%2Fg%2F11dxmqvxfc!19sChIJ5WuzbCD9DDkR870WoOLE6_w?authuser=0&hl=en&rclk=1,"28.646946399999997,77.2394717"
Masjid Kafayatullah,Mosque,"J6WP+5H4 Masjid Kafayatullah, Kucha Chelan, Chandni Mahal, Old Delhi, New Delhi, Delhi, 110002","Kucha Chelan, Chandni Mahal, Old Delhi",J6WP+5H4,"New Delhi, Delhi",110002,Delhi,IN,https://www.google.com/maps/place/Masjid+Kafayatullah/data=!4m7!3m6!1s0x390cfd21a0e634b3:0x6820ba2c491ea56a!8m2!3d28.645394!4d77.2364626!16s%2Fg%2F11dylzx87t!19sChIJszTmoCH9DDkRaqUeSSy6IGg?authuser=0&hl=en&rclk=1,"28.645394,77.2364626"
Ghaziuddin's Mosque,Mosque,"J6WC+27Q Ghaziuddin's Mosque, Desh Bandhu Gupta Rd, Ajmeri Gate, New Delhi, Delhi, 110006",Ajmeri Gate,"J6WC+27Q, Desh Bandhu Gupta Rd","New Delhi, Delhi",110006,Delhi,IN,https://www.google.com/maps/place/Ghaziuddin%27s+Mosque/data=!4m7!3m6!1s0x390cfd3e4a23a085:0xc3158b353abd92f2!8m2!3d28.6450762!4d77.2207416!16s%2Fg%2F12hmk812x!19sChIJhaAjSj79DDkR8pK9OjWLFcM?authuser=0&hl=en&rclk=1,"28.6450762,77.2207416"
SHAHI JAMA MASJID jm` msjd shhy,Mosque,"SHAHI JAMA MASJID jm` msjd shhy, 22, foot road, Shram Vihar, Pocket N, Madanpur Khadar, New Delhi, Delhi 110025","Shram Vihar, Pocket N, Madanpur Khadar","22, foot road",New Delhi,110025,Delhi,IN,https://www.google.com/maps/place/SHAHI+JAMA+MASJID+%D8%AC%D8%A7%D9%85%D8%B9+%D9%85%D8%B3%D8%AC%D8%AF+%D8%B4%D8%A7%DA%BE%DB%8C%E2%80%AD/data=!4m7!3m6!1s0x390ce5a36ba3a95d:0x7cb7c1435cda3fd2!8m2!3d28.5405938!4d77.3038368!16s%2Fg%2F11n733rllr!19sChIJXamja6PlDDkR0j_aXEPBt3w?authuser=0&hl=en&rclk=1,"28.5405938,77.3038368"
Mosque msjd,Mosque,"Mosque msjd, 3696, Mori Gate, New Delhi, Delhi 110006",Mori Gate,3696,"New Delhi, Delhi",110006,Delhi,IN,https://www.google.com/maps/place/Mosque+%D9%85%D8%B3%D8%AC%D8%AF%E2%80%AD/data=!4m7!3m6!1s0x390cfd0c79fa6f11:0x326ac233054d2efa!8m2!3d28.6635017!4d77.2212005!16s%2Fg%2F12lkq2186!19sChIJEW_6eQz9DDkR-i5NBTPCajI?authuser=0&hl=en&rclk=1,"28.663501699999998,77.2212005"
Masjid Sanauji,Mosque,"Masjid Sanauji, Shop No. 1630, Lal Kuan, Lalkuan Bazar Rd, Baradari, Chandni Chowk, New Delhi, Delhi 110006","Bazar Sirkiwalan, Baradari, Chandni Chowk","Shop No. 1630, Lal Kuan, Lalkuan Bazar Rd","New Delhi, Delhi",110006,Delhi,IN,https://www.google.com/maps/place/Masjid+Sanauji/data=!4m7!3m6!1s0x390cfd13fe3ea72d:0x27ea23bc5f650202!8m2!3d28.6529317!4d77.2232485!16s%2Fg%2F12hplq4pp!19sChIJLac-_hP9DDkRAgJlX7wj6ic?authuser=0&hl=en&rclk=1,"28.6529317,77.2232485"
Dhakni jama masjid ddhknii jaamaa msjid,Mosque,"6HRF+PV9 Dhakni jama masjid ddhknii jaamaa msjid, Dhakni Rajpuri, Gulabnagar, Uttar Pradesh 243503",,6HRF+PV9,"Dhakni Rajpuri, Gulabnagar",243503,Uttar Pradesh,IN,https://www.google.com/maps/place/Dhakni+jama+masjid+%E0%A4%A2%E0%A4%95%E0%A4%A8%E0%A5%80+%E0%A4%9C%E0%A4%BE%E0%A4%AE%E0%A4%BE+%E0%A4%AE%E0%A4%B8%E0%A5%8D%E0%A4%9C%E0%A4%BF%E0%A4%A6/data=!4m7!3m6!1s0x399ff79f6137c553:0xc30861c8f32724eb!8m2!3d28.2417891!4d79.5747314!16s%2Fg%2F11pq5kjnc7!19sChIJU8U3YZ_3nzkR6yQn88hhCMM?authuser=0&hl=en&rclk=1,"28.2417891,79.57473139999999"
Mosque On Dargah Road,Mosque,"G5CJ+6P2 Mosque On Dargah Road, Mehrauli Archeological Pk Trl, Mehrauli Village, Mehrauli, New Delhi, Delhi 110016","Mehrauli Village, Mehrauli","G5CJ+6P2, Mehrauli Archeological Pk Trl",New Delhi,110016,Delhi,IN,https://www.google.com/maps/place/Mosque+On+Dargah+Road/data=!4m7!3m6!1s0x390d1e0f6c5db9a1:0xbe4da52c6fe83ef!8m2!3d28.5205113!4d77.1817729!16s%2Fg%2F124yk_88x!19sChIJobldbA8eDTkR74P-xlLa5As?authuser=0&hl=en&rclk=1,"28.5205113,77.1817729"
Madarsa Rashidiya Masjid,Mosque,"J6MR+85P Madarsa Rashidiya Masjid, Bahadur Shah Zafar Marg, Maulana Azad Medical College Campus, Balmiki Basti, Vikram Nagar, New Delhi, Delhi, 110002","Maulana Azad Medical College Campus, Balmiki Basti, Vikram Nagar","J6MR+85P, Bahadur Shah Zafar Marg","New Delhi, Delhi",110002,Delhi,IN,https://www.google.com/maps/place/Madarsa+Rashidiya+Masjid/data=!4m7!3m6!1s0x390cfdeb4ab5bc19:0x53a0d804e40e1e9e!8m2!3d28.6333351!4d77.2404638!16s%2Fg%2F11sq1jxmjs!19sChIJGby1Suv9DDkRnh4O5ATYoFM?authuser=0&hl=en&rclk=1,"28.6333351,77.2404638"
Jamia Masjid (Jamia Mazhariya Khalila Madarsa),Mosque,"MC87+897 Jamia Masjid (Jamia Mazhariya Khalila Madarsa), Islam Nagar, Madhopura, Ghaziabad, Uttar Pradesh 201009","Islam Nagar, Madhopura",MC87+897,Ghaziabad,201009,Uttar Pradesh,IN,https://www.google.com/maps/place/Jamia+Masjid+%28Jamia+Mazhariya+Khalila+Madarsa%29/data=!4m7!3m6!1s0x390cf0480e4c2a2f:0x1822670e8968be52!8m2!3d28.6657875!4d77.4134147!16s%2Fg%2F11g9dl8h05!19sChIJLypMDkjwDDkRUr5oiQ5nIhg?authuser=0&hl=en&rclk=1,"28.6657875,77.41341469999999"
Chhoti Masjid (Ahle Hadees),Mosque,"Chhoti Masjid (Ahle Hadees), 1350, Ballimaran Rd, Baradari, Chandni Chowk, New Delhi, Delhi, 110006","Baradari, Chandni Chowk","1350, Ballimaran Rd","New Delhi, Delhi",110006,Delhi,IN,https://www.google.com/maps/place/Chhoti+Masjid+%28Ahle+Hadees%29/data=!4m7!3m6!1s0x390cfd1114163021:0xfe55fec1a30e884f!8m2!3d28.6544687!4d77.2250088!16s%2Fg%2F11g03hfjlc!19sChIJITAWFBH9DDkRT4gOo8H-Vf4?authuser=0&hl=en&rclk=1,"28.6544687,77.2250088"
Qaziyon Ki Masjid msjd qDywN khy,Mosque,"Qaziyon Ki Masjid msjd qDywN khy, 1091/1, Ambawatta Complex, Internal Path, Mehrauli Village, Mehrauli, New Delhi, Delhi 110030","Mehrauli Village, Mehrauli","1091/1, Ambawatta Complex, Internal Path",New Delhi,110030,Delhi,IN,https://www.google.com/maps/place/Qaziyon+Ki+Masjid+%D9%85%D8%B3%D8%AC%D8%AF+%D9%82%D8%A7%D8%B6%DB%8C%D9%88%DA%BA+%DA%A9%DB%8C%E2%80%AD/data=!4m7!3m6!1s0x390d1e08ca8810ed:0x3b88df5382ea5830!8m2!3d28.52261!4d77.181538!16s%2Fg%2F11gfd8b5cs!19sChIJ7RCIyggeDTkRMFjqglPfiDs?authuser=0&hl=en&rclk=1,"28.52261,77.181538"
Ghosiyan Masjid,Mosque,"J6XF+928 Ghosiyan Masjid, Garstin Baston Rd, Gali Sakko Wali, Shah Ganj, Old Delhi, New Delhi, Delhi, 110006","Gali Sakko Wali, Shah Ganj, Old Delhi","J6XF+928, Garstin Baston Rd","New Delhi, Delhi",110006,Delhi,IN,https://www.google.com/maps/place/Ghosiyan+Masjid/data=!4m7!3m6!1s0x390cfd19cb4fdef5:0x5a233f6c05fd37ea!8m2!3d28.6484192!4d77.2225897!16s%2Fg%2F11g6bkbkd_!19sChIJ9d5Pyxn9DDkR6jf9BWw_I1o?authuser=0&hl=en&rclk=1,"28.6484192,77.2225897"
Baghwali Masjid msjd bG wly,Mosque,"Baghwali Masjid msjd bG wly, 785, Nicholson Rd, Kashmere Gate, New Delhi, Delhi 110006","Ganda Nala Bazar, Kashmere Gate","785, Nicholson Rd","New Delhi, Delhi",110006,Delhi,IN,https://www.google.com/maps/place/Baghwali+Masjid+%D9%85%D8%B3%D8%AC%D8%AF+%D8%A8%D8%A7%D8%BA+%D9%88%D8%A7%D9%84%DB%8C%E2%80%AD/data=!4m7!3m6!1s0x390cfd092767785b:0xd4966cf4d21cbda8!8m2!3d28.6653187!4d77.2261277!16s%2Fg%2F12llwbr4n!19sChIJW3hnJwn9DDkRqL0c0vRsltQ?authuser=0&hl=en&rclk=1,"28.6653187,77.22612769999999"
Fatemi Masjid,Mosque,"Fatemi Masjid, 3673, Main Bazar, Sabzi Mandi Rd, New Delhi, Delhi 110007","Arya Pura, Sabzi Mandi Old","3673, Main Bazar, Sabzi Mandi Rd","New Delhi, Delhi",110007,Delhi,IN,https://www.google.com/maps/place/Fatemi+Masjid/data=!4m7!3m6!1s0x390cfd77d6b49cc1:0xb29abba5fdd4f679!8m2!3d28.669022!4d77.2078086!16s%2Fg%2F12lksysp9!19sChIJwZy01nf9DDkRefbU_aW7mrI?authuser=0&hl=en&rclk=1,"28.669022,77.20780859999999"
jama masjid madarsa taleemul quran,Mosque,"jama masjid madarsa taleemul quran, C 10, Captain Gaur Marg, C Block, Kailash Hills, East of Kailash, New Delhi, Delhi 110065","C Block, Kailash Hills, East of Kailash","C 10, Captain Gaur Marg",New Delhi,110065,Delhi,IN,https://www.google.com/maps/place/jama+masjid+madarsa+taleemul+quran/data=!4m7!3m6!1s0x390ce3bedd0d5df7:0x3a3b95b54ca809a8!8m2!3d28.5619545!4d77.2590985!16s%2Fg%2F11g7zz4m0j!19sChIJ910N3b7jDDkRqAmoTLWVOzo?authuser=0&hl=en&rclk=1,"28.5619545,77.2590985"
Masjid,Mosque,"H77Q+868 Masjid, Okhla Village, Okhla, New Delhi, Delhi 110025","Okhla Village, Okhla",H77Q+868,New Delhi,110025,Delhi,IN,https://www.google.com/maps/place/Masjid/data=!4m7!3m6!1s0x390ce47512f7aa2b:0x544337a9b9e5d7a2!8m2!3d28.5632814!4d77.2880932!16s%2Fg%2F11gbtpj5td!19sChIJK6r3EnXkDDkRotfluak3Q1Q?authuser=0&hl=en&rclk=1,"28.563281399999997,77.28809319999999"
Jumma Masjid Dhari,Mosque,"82JC+CX8 Jumma Masjid Dhari, Dhari, Gujarat 365640",,82JC+CX8,Dhari,365640,Gujarat,IN,https://www.google.com/maps/place/Jumma+Masjid+Dhari/data=!4m7!3m6!1s0x3be2855cf9a1257f:0x128406533613600e!8m2!3d21.331034!4d71.022462!16s%2Fg%2F11c6q55bnr!19sChIJfyWh-VyF4jsRDmATNlMGhBI?authuser=0&hl=en&rclk=1,"21.331034,71.02246199999999"
Haji Rojdaar Wali Masjid,Mosque,"Haji Rojdaar Wali Masjid, 110074, Kharak, Sat Bari, New Delhi, Delhi 110074","Kharak, Sat Bari",110074,New Delhi,110074,Delhi,IN,https://www.google.com/maps/place/Haji+Rojdaar+Wali+Masjid/data=!4m7!3m6!1s0x390ce024a51f068f:0x1d8c2d91ee022fdd!8m2!3d28.4679055!4d77.2051939!16s%2Fg%2F11c5_hph3y!19sChIJjwYfpSTgDDkR3S8C7pEtjB0?authuser=0&hl=en&rclk=1,"28.467905499999997,77.2051939"
Fariha Jame Mosque,Mosque,"J5RX+P8 Fariha Jame Mosque, Central Ridge Reserve Forest, New Delhi, Delhi 110001",Central Ridge Reserve Forest,J5RX+P8,New Delhi,,Delhi,IN,https://www.google.com/maps/place/Fariha+Jame+Mosque/data=!4m7!3m6!1s0x390cfd8f8818cd3b:0x410bdee610765284!8m2!3d28.6417695!4d77.1983012!16s%2Fg%2F11rr5nqvl6!19sChIJO80YiI_9DDkRhFJ2EObeC0E?authuser=0&hl=en&rclk=1,"28.6417695,77.1983012"
Maidan Wali Masjid,Mosque,"M62F+R2M Maidan Wali Masjid, Rodgran,, Lal Kuan Bazar, Chandni Chowk, Delhi, 110006","Lal Kuan Bazar, Chandni Chowk","M62F+R2M, Rodgran,",Delhi,110006,Delhi,IN,https://www.google.com/maps/place/Maidan+Wali+Masjid/data=!4m7!3m6!1s0x390cfd140f7a508d:0x560a8b02a3124bce!8m2!3d28.6520963!4d77.2225318!16s%2Fg%2F11clkwlqtz!19sChIJjVB6DxT9DDkRzksSowKLClY?authuser=0&hl=en&rclk=1,"28.6520963,77.2225318"
Masjid Syed Rafai,Mosque,"J6WM+QH6 Masjid Syed Rafai, Bazar Chitli Qabar, Sheesh Mahal, Old Delhi, Delhi, 110006","Bazar Chitli Qabar, Sheesh Mahal, Old Delhi",J6WM+QH6,Delhi,110006,Delhi,IN,https://www.google.com/maps/place/Masjid+Syed+Rafai/data=!4m7!3m6!1s0x390cfd221053c913:0x87b5fec533d754bb!8m2!3d28.6469176!4d77.2338965!16s%2Fg%2F11g86m2x49!19sChIJE8lTECL9DDkRu1TXM8X-tYc?authuser=0&hl=en&rclk=1,"28.6469176,77.2338965"
Hajra Masjid,Mosque,"M7MC+542 Hajra Masjid, Street Number 10, New Seelampur, Chauhan Banger, Shahdara, Delhi, 110031","New Seelampur, Chauhan Banger, Shahdara","M7MC+542, Street Number 10",Delhi,110031,Delhi,IN,https://www.google.com/maps/place/Hajra+Masjid/data=!4m7!3m6!1s0x390cfdcdb2279f75:0x7d20aba66d6d5ac9!8m2!3d28.6828822!4d77.2702585!16s%2Fg%2F11n8p4lf1b!19sChIJdZ8nss39DDkRyVptbaarIH0?authuser=0&hl=en&rclk=1,"28.682882199999998,77.2702585"
Masjid Akhundji,Mosque,"M63C+W27 Masjid Akhundji, Shardhanand Market, Farash Khana, Chandni Chowk, Delhi, 110006","Shardhanand Market, Farash Khana, Chandni Chowk",M63C+W27,Delhi,110006,Delhi,IN,https://www.google.com/maps/place/Masjid+Akhundji/data=!4m7!3m6!1s0x390cfd1304000001:0x72fdec335cb3985d!8m2!3d28.6547977!4d77.2200373!16s%2Fg%2F11cjkvmmtk!19sChIJAQAABBP9DDkRXZizXDPs_XI?authuser=0&hl=en&rclk=1,"28.6547977,77.2200373"
Dhari masjid,Mosque,"CM8P+633 Dhari masjid, Muzaffarabad",,CM8P+633,Muzaffarabad,,,PK,https://www.google.com/maps/place/Dhari+masjid/data=!4m7!3m6!1s0x38e097e92e68435b:0xc8c94ed0237b1a89!8m2!3d34.4155087!4d73.6851592!16s%2Fg%2F11rgzjsg8p!19sChIJW0NoLumX4DgRiRp7I9BOycg?authuser=0&hl=en&rclk=1,"34.4155087,73.6851592"
msjid,Mosque,"msjid, 249, Swami Amardev Marg, Bara Bazar, Maharam Mohalla, Shahdara, Delhi, 110032","Bara Bazar, Maharam Mohalla, Shahdara","249, Swami Amardev Marg",Delhi,110032,Delhi,IN,https://www.google.com/maps/place/%E0%A4%AE%E0%A4%B8%E0%A5%8D%E0%A4%9C%E0%A4%BF%E0%A4%A6/data=!4m7!3m6!1s0x390cfb490b84c709:0x30ecad58f89bafaa!8m2!3d28.6687399!4d77.2917355!16s%2Fg%2F11n03hfp8k!19sChIJCceEC0n7DDkRqq-b-Fit7DA?authuser=0&hl=en&rclk=1,"28.6687399,77.2917355"
Masjid,Mosque,"Masjid, 2508, Fasil Rd, Gali Sakko Wali, Shah Ganj, Chandni Chowk, New Delhi, Delhi, 110006","Gali Sakko Wali, Shah Ganj, Chandni Chowk","2508, Fasil Rd","New Delhi, Delhi",110006,Delhi,IN,https://www.google.com/maps/place/Masjid/data=!4m7!3m6!1s0x390cfd15c9a8a4b1:0xf975aada141da03e!8m2!3d28.6491552!4d77.2220471!16s%2Fg%2F1hm4gjxkd!19sChIJsaSoyRX9DDkRPqAdFNqqdfk?authuser=0&hl=en&rclk=1,"28.6491552,77.2220471"
Masjid Chah hathi,Mosque,"M63M+FM7 Masjid Chah hathi, Kucha Bulaki Begam, Chandni Chowk, New Delhi, Delhi, 110006","Kucha Bulaki Begam, Chandni Chowk",M63M+FM7,"New Delhi, Delhi",110006,Delhi,IN,https://www.google.com/maps/place/Masjid+Chah+hathi/data=!4m7!3m6!1s0x390cfd21be28681f:0x89414e118639a027!8m2!3d28.6536676!4d77.2341741!16s%2Fg%2F11g5ssbglz!19sChIJH2goviH9DDkRJ6A5hhFOQYk?authuser=0&hl=en&rclk=1,"28.6536676,77.23417409999999"
Kadde vali masjid,Mosque,"J8GV+FXM Kadde vali masjid, Unnamed Road, Makanpur Colony, Sector 62A, Noida, Uttar Pradesh 201309","Makanpur Colony, Sector 62A","J8GV+FXM, Unnamed Road",Noida,201309,Uttar Pradesh,IN,https://www.google.com/maps/place/Kadde+vali+masjid/data=!4m7!3m6!1s0x390ce5b8c9f05415:0x40d62ad4b4b90e40!8m2!3d28.6262084!4d77.3449208!16s%2Fg%2F11h_3wc0bn!19sChIJFVTwybjlDDkRQA65tNQq1kA?authuser=0&hl=en&rclk=1,"28.6262084,77.3449208"
Azhari jama masjid jawabipur,Mosque,"Azhari jama masjid jawabipur, Munish Plaza, Ansari Rd, Daryaganj, New Delhi, Delhi, 110006",Daryaganj,"Munish Plaza, Ansari Rd","New Delhi, Delhi",110006,Delhi,IN,https://www.google.com/maps/place/Azhari+jama+masjid+jawabipur/data=!4m7!3m6!1s0x390cfdcb53724699:0xa7ca059702d9b990!8m2!3d28.6460012!4d77.2432108!16s%2Fg%2F11fjm8nr9t!19sChIJmUZyU8v9DDkRkLnZApcFyqc?authuser=0&hl=en&rclk=1,"28.646001199999997,77.2432108"
HADHRAT UMAR MASJID ALMAROOF CHOTI MASJID,Mosque,"HADHRAT UMAR MASJID ALMAROOF CHOTI MASJID, Chotti Masjid, Street number 9, Mulla Colony, Gharoli Extension, Gharoli, Delhi, 110096","Mulla Colony, Gharoli Extension, Gharoli","Chotti Masjid, Street number 9",Delhi,110096,Delhi,IN,https://www.google.com/maps/place/HADHRAT+UMAR+MASJID+ALMAROOF+CHOTI+MASJID/data=!4m7!3m6!1s0x390ce5c6cf830b2f:0x6bb8084dadf0d513!8m2!3d28.6213398!4d77.3314246!16s%2Fg%2F11sy4vfb7s!19sChIJLwuDz8blDDkRE9XwrU0IuGs?authuser=0&hl=en&rclk=1,"28.621339799999998,77.33142459999999"
Masjid,Mosque,"Masjid, 242, Masjid Jheel Pio, Near ITO metro GateNo.3, Bahadur Shah Zafar Marg, Balmiki Basti, Vikram Nagar, Delhi, 110002","Bahadur Shah Zafar Marg, Balmiki Basti, Vikram Nagar","242, Masjid Jheel Pio, Near ITO metro GateNo.3, Bahadur Shah Zafar Marg",Delhi,110002,Delhi,IN,https://www.google.com/maps/place/Masjid/data=!4m7!3m6!1s0x390cfd441769149d:0xa1929f1b4f5921d6!8m2!3d28.6298914!4d77.2415098!16s%2Fg%2F11s2n38r9b!19sChIJnRRpF0T9DDkR1iFZTxufkqE?authuser=0&hl=en&rclk=1,"28.629891399999998,77.2415098"
Mohammadi Masjid,Mosque,"FJM8+F73 Mohammadi Masjid, Unnamed Road, Kheri Duda Dhari, Uttar Pradesh 251306",,"FJM8+F73, Unnamed Road",Kheri Duda Dhari,251306,Uttar Pradesh,IN,https://www.google.com/maps/place/Mohammadi+Masjid/data=!4m7!3m6!1s0x390c191870dc4397:0x99d88dffbc42082d!8m2!3d29.4836288!4d77.6156728!16s%2Fg%2F11fpntfttx!19sChIJl0PccBgZDDkRLQhCvP-N2Jk?authuser=0&hl=en&rclk=1,"29.483628799999998,77.6156728"
Noori masjid,Mosque,"G5CJ+926 Noori masjid, Ward Number 4, Mehrauli Village, Mehrauli, Delhi, New Delhi, Delhi 110030","Ward Number 4, Mehrauli Village, Mehrauli",G5CJ+926,"Delhi, New Delhi",,Delhi,IN,https://www.google.com/maps/place/Noori+masjid/data=!4m7!3m6!1s0x390d1f8f16d6f085:0x1498cd2a836ca74a!8m2!3d28.5209116!4d77.180025!16s%2Fg%2F11lkjqt3kj!19sChIJhfDWFo8fDTkRSqdsgyrNmBQ?authuser=0&hl=en&rclk=1,"28.520911599999998,77.180025"
Vaidh Ram Dhari,Housing complex,"37FF+R97 Vaidh Ram Dhari, Baraka, Uttar Pradesh 250611",,37FF+R97,Baraka,250611,Uttar Pradesh,IN,https://www.google.com/maps/place/Vaidh+Ram+Dhari/data=!4m7!3m6!1s0x390c4dac0bf35a63:0x31f52508f346f53!8m2!3d29.0745318!4d77.2734202!16s%2Fg%2F11rcxjys5l!19sChIJY1rzC6xNDDkRU280j1BSHwM?authuser=0&hl=en&rclk=1,"29.0745318,77.27342019999999"
Masjid Saguwa Wali (Choti Masjid),Mosque,"Masjid Saguwa Wali (Choti Masjid), 1614, Old Dariya Ganj, Daryaganj, New Delhi, Delhi, 110002","Old Dariya Ganj, Daryaganj",1614,"New Delhi, Delhi",110002,Delhi,IN,https://www.google.com/maps/place/Masjid+Saguwa+Wali+%28Choti+Masjid%29/data=!4m7!3m6!1s0x390cfde70c37cfe3:0xcd9ebd43305f88c8!8m2!3d28.6470267!4d77.2382029!16s%2Fg%2F11f7qykm_q!19sChIJ4883DOf9DDkRyIhfMEO9ns0?authuser=0&hl=en&rclk=1,"28.647026699999998,77.23820289999999"
Munwara Masjid,Mosque,"Munwara Masjid, E-130, Gali No.6, Third Pusta Main Rd, Jagjeet Nagar, Delhi, 110053","Third Pushta, Nayagaon, Jagjeet Nagar, Shahdara","E-130, Gali No.6, Third Pusta Main Rd",Delhi,110053,Delhi,IN,https://www.google.com/maps/place/Munwara+Masjid/data=!4m7!3m6!1s0x390cfc44ec3cee7b:0x6817d8194e44c0a7!8m2!3d28.6861966!4d77.2559837!16s%2Fg%2F12hq6qdwg!19sChIJe-487ET8DDkRp8BEThnYF2g?authuser=0&hl=en&rclk=1,"28.6861966,77.2559837"
"Masjid, Dhari Shair Muhammad",Mosque,"FG47+XR2 Masjid, Dhari Shair Muhammad, Pakpattan, Pakpattan, Punjab, Pakistan",,FG47+XR2,Pakpattan,,"Pakpattan, Punjab",PK,"https://www.google.com/maps/place/Masjid,+Dhari+Shair+Muhammad/data=!4m7!3m6!1s0x3917fc3491eb6fdd:0xc513048ba1d0fbcc!8m2!3d30.4573911!4d73.5145002!16s%2Fg%2F11clwpfyt5!19sChIJ3W_rkTT8FzkRzPvQoYsEE8U?authuser=0&hl=en&rclk=1","30.4573911,73.5145002"
Dari Wali Masjid,Mosque,"J6XF+QMW Dari Wali Masjid, Lambi Gali, Bazar Sirkiwalan, Kaccha Pandit Main Bazar, Shah Ganj, Old Delhi, Delhi, 110006","Bazar Sirkiwalan, Kaccha Pandit Main Bazar, Shah Ganj, Old Delhi","J6XF+QMW, Lambi Gali",Delhi,110006,Delhi,IN,https://www.google.com/maps/place/Dari+Wali+Masjid/data=!4m7!3m6!1s0x390cfdcb160bd643:0x79e70aae06e540fa!8m2!3d28.6494841!4d77.2242153!16s%2Fg%2F11l2r_fv6s!19sChIJQ9YLFsv9DDkR-kDlBq4K53k?authuser=0&hl=en&rclk=1,"28.6494841,77.2242153"
Masjid Kaddan Wali,Mosque,"Masjid Kaddan Wali, 3800,, Charkhiwalan Gali, Khush Dil, Chandni Chowk, New Delhi, Delhi 110006","Khush Dil, Chandni Chowk","3800,, Charkhiwalan Gali","New Delhi, Delhi",110006,Delhi,IN,https://www.google.com/maps/place/Masjid+Kaddan+Wali/data=!4m7!3m6!1s0x390cfd19d610452b:0xf81efc1a357adee8!8m2!3d28.6506731!4d77.2290561!16s%2Fg%2F12hkbxr_7!19sChIJK0UQ1hn9DDkR6N56NRr8Hvg?authuser=0&hl=en&rclk=1,"28.6506731,77.2290561"
Masjid,Mosque,"H4Q9+GQ2 Masjid, Sadar Bazaar, Delhi Cantonment, New Delhi, Delhi 110010","Sadar Bazaar, Delhi Cantonment",H4Q9+GQ2,New Delhi,110010,Delhi,IN,https://www.google.com/maps/place/Masjid/data=!4m7!3m6!1s0x390d1de7a344966b:0x439561fcffba0204!8m2!3d28.5887553!4d77.1193923!16s%2Fg%2F11vlmpcmn5!19sChIJa5ZEo-cdDTkRBAK6__xhlUM?authuser=0&hl=en&rclk=1,"28.5887553,77.1193923"
Masjid Shatoot Wali,Mosque,"M67H+G5Q Masjid Shatoot Wali, Chhota Bazar, Mori Gate, New Delhi, Delhi, 110006","Chhota Bazar, Mori Gate",M67H+G5Q,"New Delhi, Delhi",110006,Delhi,IN,https://www.google.com/maps/place/Masjid+Shatoot+Wali/data=!4m7!3m6!1s0x390cfdd8114d08fd:0x326042596014276a!8m2!3d28.663827!4d77.2279973!16s%2Fg%2F11g4h_zjtj!19sChIJ_QhNEdj9DDkRaicUYFlCYDI?authuser=0&hl=en&rclk=1,"28.663826999999998,77.2279973"
Masjid,Mosque,"Masjid, 8/2, Budh Bazar, Block L 1, Devli, Sangam Vihar, New Delhi, Delhi 110062","Budh Bazar, Block L 1, Devli, Sangam Vihar",8/2,New Delhi,110062,Delhi,IN,https://www.google.com/maps/place/Masjid/data=!4m7!3m6!1s0x390ce1dde82b3bc3:0x4d3537cacd38aec4!8m2!3d28.4940769!4d77.2261653!16s%2Fg%2F11rk33_10p!19sChIJwzsr6N3hDDkRxK44zco3NU0?authuser=0&hl=en&rclk=1,"28.4940769,77.22616529999999"
Musalla Masjid,Mosque,"Musalla Masjid, A84, Gali Number 19, Block B, Bharat Vihar, Madhu Vihar, New Delhi, Delhi, 110059","Block B, Bharat Vihar, Madhu Vihar","A84, Gali Number 19","New Delhi, Delhi",110059,Delhi,IN,https://www.google.com/maps/place/Musalla+Masjid/data=!4m7!3m6!1s0x390d1b5228eab2b5:0x4c225624c80dfd40!8m2!3d28.6062216!4d77.0614438!16s%2Fg%2F11t6nng3_f!19sChIJtbLqKFIbDTkRQP0NyCRWIkw?authuser=0&hl=en&rclk=1,"28.606221599999998,77.06144379999999"
Makki Masjid Dhari Kalan,Mosque,"2MPH+253 Makki Masjid Dhari Kalan, Dina, Jhelum, Punjab, Pakistan",,2MPH+253,Dina,,"Jhelum, Punjab",PK,https://www.google.com/maps/place/Makki+Masjid+Dhari+Kalan/data=!4m7!3m6!1s0x391f931c3c522911:0x61d95e268f40345f!8m2!3d33.0350154!4d73.6779213!16s%2Fg%2F11h5_vxdpt!19sChIJESlSPByTHzkRXzRAjyZe2WE?authuser=0&hl=en&rclk=1,"33.0350154,73.6779213"
Masjid Peerji Wali,Mosque,"Masjid Peerji Wali, Chitli Qabar Rd, 110006, Turkman Gate, Chandni Chowk, Delhi, 110006","Bazar Chitli Qabar, Turkman Gate, Chandni Chowk","Chitli Qabar Rd, 110006",Delhi,110006,Delhi,IN,https://www.google.com/maps/place/Masjid+Peerji+Wali/data=!4m7!3m6!1s0x390cfd23cbc4bb81:0xf0ad0e52d2c26be7!8m2!3d28.6446931!4d77.2335229!16s%2Fg%2F11fzfbkyrv!19sChIJgbvEyyP9DDkR52vC0lIOrfA?authuser=0&hl=en&rclk=1,"28.644693099999998,77.2335229"
Masjid,Mosque,"M794+RG5 Masjid, Block A, Shastri Park, Shahdara, Delhi, 110053","Block A, Shastri Park, Shahdara",M794+RG5,Delhi,,Delhi,IN,https://www.google.com/maps/place/Masjid/data=!4m7!3m6!1s0x390cfd74b6378221:0x2da5c9212f831088!8m2!3d28.6695164!4d77.2563643!16s%2Fg%2F11tb42z9g0!19sChIJIYI3tnT9DDkRiBCDLyHJpS0?authuser=0&hl=en&rclk=1,"28.6695164,77.2563643"
Madina masjid,Mosque,"Ward number 3, Madina masjid, Chandni Chowk, sarul, Delhi, 110006",Chandni Chowk,Ward number 3,"sarul, Delhi",110006,Delhi,IN,https://www.google.com/maps/place/Madina+masjid/data=!4m7!3m6!1s0x390cfd765db7001b:0xc7c08a181a8d81db!8m2!3d28.6610779!4d77.2345881!16s%2Fg%2F11ry5dxrrg!19sChIJGwC3XXb9DDkR24GNGhiKwMc?authuser=0&hl=en&rclk=1,"28.6610779,77.2345881"
Masjid,Mosque,"J2WM+MXF Masjid, Sunni Masjid Rd, Deep Enclave, Hastsal, Delhi, 110059","Deep Enclave, Hastsal","J2WM+MXF, Sunni Masjid Rd",Delhi,110059,Delhi,IN,https://www.google.com/maps/place/Masjid/data=!4m7!3m6!1s0x390d05267bb46283:0xaef6f06f366d7113!8m2!3d28.6466834!4d77.0349292!16s%2Fg%2F11vl8tpxw1!19sChIJg2K0eyYFDTkRE3FtNm_w9q4?authuser=0&hl=en&rclk=1,"28.646683399999997,77.0349292"
Masjid,Mosque,"Shop No: 5035, Masjid, Netaji Subhash Marg, Daryaganj, New Delhi, Delhi, 110002",Daryaganj,"Shop No: 5035, Netaji Subhash Marg","New Delhi, Delhi",110002,Delhi,IN,https://www.google.com/maps/place/Masjid/data=!4m7!3m6!1s0x390cfdf175041b95:0x8ef57a2bc9f92c1c!8m2!3d28.6480954!4d77.2403964!16s%2Fg%2F11s664lvxh!19sChIJlRsEdfH9DDkRHCz5ySt69Y4?authuser=0&hl=en&rclk=1,"28.6480954,77.2403964"
Masjid Dhari Bhatian,Mosque,"3G3H+C3 Masjid Dhari Bhatian, Lashari, Okara, Punjab, Pakistan",,3G3H+C3,Lashari,,"Okara, Punjab",PK,https://www.google.com/maps/place/Masjid+Dhari+Bhatian/data=!4m7!3m6!1s0x391877b55289c953:0xd2c203fdfb2cfe50!8m2!3d31.0535831!4d73.5276857!16s%2Fg%2F11tws_72r2!19sChIJU8mJUrV3GDkRUP4s-_0DwtI?authuser=0&hl=en&rclk=1,"31.053583099999997,73.52768569999999"
Masjid Dhari,Mosque,"938P+5X3 Masjid Dhari, near dera gujial jabbi, Jauharabad, Khushab, Punjab, Pakistan",,"938P+5X3, near dera gujial jabbi",Jauharabad,,"Khushab, Punjab",PK,https://www.google.com/maps/place/Masjid+Dhari/data=!4m7!3m6!1s0x39212f603c756cef:0x705d8d7cd800a0cf!8m2!3d32.3653774!4d72.0874347!16s%2Fg%2F11jjlm7yxs!19sChIJ72x1PGAvITkRz6AA2HyNXXA?authuser=0&hl=en&rclk=1,"32.3653774,72.0874347"
Rajdhari raajdhaarii msjid,Mosque,"2FFM+425 Rajdhari raajdhaarii msjid, Ladpura, Todaraisingh, Rajasthan 304505",Ladpura,2FFM+425,Todaraisingh,304505,Rajasthan,IN,https://www.google.com/maps/place/Rajdhari+%E0%A4%B0%E0%A4%BE%E0%A4%9C%E0%A4%A7%E0%A4%BE%E0%A4%B0%E0%A5%80+%E0%A4%AE%E0%A4%B8%E0%A5%8D%E0%A4%9C%E0%A4%BF%E0%A4%A6/data=!4m7!3m6!1s0x396eed0fa97b43ab:0x5aec63b73f928a5!8m2!3d26.0228489!4d75.482816!16s%2Fg%2F11t30hc1x3!19sChIJq0N7qQ_tbjkRpSj5czvGrgU?authuser=0&hl=en&rclk=1,"26.0228489,75.482816"
