name,main_category,address,address_ward,address_street,address_city,address_postal_code,address_state,address_country_code,link,coordinates
Satto Peer Baba Mazaar,Mosque,"Satto Peer Baba Mazaar, 15, PK Bishwas Rd, Puratan Bazar, Khardaha, West Bengal 700117",Puratan Bazar,"15, PK Bishwas Rd",Khardaha,700117,West Bengal,IN,https://www.google.com/maps/place/Satto+Peer+Baba+Mazaar/data=!4m7!3m6!1s0x39f89b9eb4236b15:0xa887ec784267cc78!8m2!3d22.7260726!4d88.3673327!16s%2Fg%2F11csqwrlv2!19sChIJFWsjtJ6b-DkReMxnQnjsh6g?authuser=0&hl=en&rclk=1,"22.7260726,88.36733269999999"
Kamarhati Badi Masjid,Mosque,"Kamarhati Badi Masjid, new line, Sabji Bagan Rd, Kamarhati, Kolkata, West Bengal 700058",Kamarhati,"new line, Sabji Bagan Rd",Kolkata,700058,West Bengal,IN,https://www.google.com/maps/place/Kamarhati+Badi+Masjid/data=!4m7!3m6!1s0x39f89c5957fe6eb7:0x9e921699476e6ff1!8m2!3d22.6763298!4d88.3675103!16s%2Fg%2F1tp1x707!19sChIJt27-V1mc-DkR8W9uR5kWkp4?authuser=0&hl=en&rclk=1,"22.676329799999998,88.36751029999999"
Badi Masjid Khardah,Mosque,"P9G8+XX4 Badi Masjid Khardah, Titagarh, Khardaha, Kolkata, West Bengal 700117",Titagarh,P9G8+XX4,"Khardaha, Kolkata",700117,West Bengal,IN,https://www.google.com/maps/place/Badi+Masjid+Khardah/data=!4m7!3m6!1s0x39f89b9ed3c0dc37:0xde0cd13ba3dbe1a8!8m2!3d22.7273935!4d88.3674383!16s%2Fg%2F1hjhdy5v5!19sChIJN9zA056b-DkRqOHbozvRDN4?authuser=0&hl=en&rclk=1,"22.727393499999998,88.36743829999999"
Bangla jama masjid,Mosque,"Bangla jama masjid, 18, Barrackpore Trunk Rd, Titagarh, Barrackpore, Titagarh, West Bengal 700119",Titagarh,"18, Barrackpore Trunk Rd","Barrackpore, Titagarh",700119,West Bengal,IN,https://www.google.com/maps/place/Bangla+jama+masjid/data=!4m7!3m6!1s0x39f89bbac563b889:0x823c2f6702682169!8m2!3d22.7395768!4d88.373019!16s%2Fg%2F1hjgh9sd1!19sChIJibhjxbqb-DkRaSFoAmcvPII?authuser=0&hl=en&rclk=1,"22.7395768,88.373019"
Alambazar Jama Masjid,Mosque,"J9W6+2VC Alambazar Jama Masjid, Maharaja Nand Kumar Rd, Barahanagar Jute Mill Area, Ariadaha, Baranagar, West Bengal 700035","Barahanagar Jute Mill Area, Ariadaha","J9W6+2VC, Maharaja Nand Kumar Rd",Baranagar,700035,West Bengal,IN,https://www.google.com/maps/place/Alambazar+Jama+Masjid/data=!4m7!3m6!1s0x39f89da234747edd:0x6b992314ac741709!8m2!3d22.645068!4d88.3621251!16s%2Fg%2F11b6jbzq_0!19sChIJ3X50NKKd-DkRCRd0rBQjmWs?authuser=0&hl=en&rclk=1,"22.645068,88.3621251"
Noori Jamia Masjid,Mosque,"Noori Jamia Masjid, 110, PB Ghat Rd, Kamarhati, Agarpara, Panihati, West Bengal 700058","Kamarhati, Agarpara","110, PB Ghat Rd",Panihati,700058,West Bengal,IN,https://www.google.com/maps/place/Noori+Jamia+Masjid/data=!4m7!3m6!1s0x39f89c5d77d64389:0xbda4efbdc760e456!8m2!3d22.6822623!4d88.3700771!16s%2Fg%2F1thtm_zh!19sChIJiUPWd12c-DkRVuRgx73vpL0?authuser=0&hl=en&rclk=1,"22.682262299999998,88.37007709999999"
Naikuri Grand Jama Masjid,Mosque,"MC68+78V Naikuri Grand Jama Masjid, Shibachal Road, Naikuri, Shibachal, Birati, North Dumdum, West Bengal 700049","Shibachal, Birati","MC68+78V, Shibachal Road, Naikuri",North Dumdum,700049,West Bengal,IN,https://www.google.com/maps/place/Naikuri+Grand+Jama+Masjid/data=!4m7!3m6!1s0x39f89e89f12539f7:0xbcb05b9e87bf99d6!8m2!3d22.6607258!4d88.4158055!16s%2Fg%2F11g9s_q54z!19sChIJ9zkl8Yme-DkR1pm_h55bsLw?authuser=0&hl=en&rclk=1,"22.660725799999998,88.41580549999999"
Iswaripur Jama Masjid,Mosque,"PCP6+837 Iswaripur Jama Masjid, Nilganj Rd, Ruiya, Iswaripur, West Bengal 700118",Ruiya,"PCP6+837, Nilganj Rd",Iswaripur,700118,West Bengal,IN,https://www.google.com/maps/place/Iswaripur+Jama+Masjid/data=!4m7!3m6!1s0x39f899251037cf2b:0x72563c2dde77386!8m2!3d22.7357809!4d88.4101736!16s%2Fg%2F11vkkbtkr5!19sChIJK883ECWZ-DkRhnPn3cJjJQc?authuser=0&hl=en&rclk=1,"22.735780899999998,88.4101736"
Gaushia Islahi Masjid,Mosque,"Gaushia Islahi Masjid, 92, Craig St, Kamarhati, Agarpara, Panihati, West Bengal 700058","Kamarhati, Agarpara","92, Craig St",Panihati,700058,West Bengal,IN,https://www.google.com/maps/place/Gaushia+Islahi+Masjid/data=!4m7!3m6!1s0x39f89c5c3a1618e7:0x68337308caacb817!8m2!3d22.6793258!4d88.3685001!16s%2Fg%2F11c1p2k_xt!19sChIJ5xgWOlyc-DkRF7isyghzM2g?authuser=0&hl=en&rclk=1,"22.679325799999997,88.36850009999999"
Panihara Masjid,Mosque,"PC4Q+8RH Panihara Masjid, Bharat Nagar, Madhyamgram, Kolkata, West Bengal 700130","Bharat Nagar, Madhyamgram",PC4Q+8RH,Kolkata,700130,West Bengal,IN,https://www.google.com/maps/place/Panihara+Masjid/data=!4m7!3m6!1s0x39f89ed56f3b6131:0x5e4637fb56f9905a!8m2!3d22.7058111!4d88.4396242!16s%2Fg%2F1q6j7h4kw!19sChIJMWE7b9We-DkRWpD5Vvs3Rl4?authuser=0&hl=en&rclk=1,"22.7058111,88.4396242"
Tegharia Jame-Un-Nur Masjid,Mosque,"MCP8+JW6 Tegharia Jame-Un-Nur Masjid, Navapalli, Nimta, Kolkata, Teghari, West Bengal 700049","Navapalli, Nimta",MCP8+JW6,"Kolkata, Teghari",700049,West Bengal,IN,https://www.google.com/maps/place/Tegharia+Jame-Un-Nur+Masjid/data=!4m7!3m6!1s0x39f89ebe60190847:0x8ec2396c02f0a1ec!8m2!3d22.6865481!4d88.4172787!16s%2Fg%2F124szmb4k!19sChIJRwgZYL6e-DkR7KHwAmw5wo4?authuser=0&hl=en&rclk=1,"22.6865481,88.4172787"
MOHAMMADI MASJID,Mosque,"MOHAMMADI MASJID, 38, Ramkrishna Rd, Bangur Park, Serampore, West Bengal 712248","Bangur Park, Serampore","38, Ramkrishna Rd",,712248,West Bengal,IN,https://www.google.com/maps/place/MOHAMMADI+MASJID/data=!4m7!3m6!1s0x39f89b6cbce95255:0xf0d564ddcb0151f8!8m2!3d22.7293074!4d88.3488439!16s%2Fg%2F11c2y6w9r5!19sChIJVVLpvGyb-DkR-FEBy91k1fA?authuser=0&hl=en&rclk=1,"22.7293074,88.34884389999999"
GHOLA MUSLIM PARA MASJID,Mosque,"GHOLA MUSLIM PARA MASJID, 620, Ghola, Agarpara, Barrackpore, Panihati, West Bengal 700111","Ghola, Agarpara",620,"Barrackpore, Panihati",700111,West Bengal,IN,https://www.google.com/maps/place/GHOLA+MUSLIM+PARA+MASJID/data=!4m7!3m6!1s0x39f89ea3eee1e96b:0x668284af1ae20e0!8m2!3d22.688449!4d88.4072151!16s%2Fg%2F11c5bj73l5!19sChIJa-nh7qOe-DkR4CCu8UooaAY?authuser=0&hl=en&rclk=1,"22.688449,88.4072151"
Agarpara Jama Masjid Kamarhati,Mosque,"3, Agarpara Jama Masjid Kamarhati, 1, Graham Rd, Kamarhati, Ariadaha, Panihati, West Bengal 700058","Kamarhati, Ariadaha","3, 1, Graham Rd",Panihati,700058,West Bengal,IN,https://www.google.com/maps/place/Agarpara+Jama+Masjid+Kamarhati/data=!4m7!3m6!1s0x39f89c4355d1754b:0x2310ce6c3c38de8c!8m2!3d22.677446!4d88.3726847!16s%2Fg%2F11hblpqphq!19sChIJS3XRVUOc-DkRjN44PGzOECM?authuser=0&hl=en&rclk=1,"22.677446,88.3726847"
Noorani Masjid,Mosque,"Noorani Masjid, Anwar Bagan, 700058, Kamarhati, Kolkata","Rojan Bagan, Kamarhati","Anwar Bagan, 700058",Kolkata,,West Bengal,IN,https://www.google.com/maps/place/Noorani+Masjid/data=!4m7!3m6!1s0x39f89c5a4c02a0ed:0x2152282b81572a68!8m2!3d22.6737944!4d88.3692233!16s%2Fg%2F11g6vjnjdm!19sChIJ7aACTFqc-DkRaCpXgSsoUiE?authuser=0&hl=en&rclk=1,"22.6737944,88.3692233"
Masjid Zahoor Ali Sah R.A,Mosque,"Masjid Zahoor Ali Sah R.A, 10A, Old Nimta Rd, Adarsha Pally, Belghoria, Kolkata, West Bengal 700058","Adarsha Pally, Belghoria","10A, Old Nimta Rd",Kolkata,700058,West Bengal,IN,https://www.google.com/maps/place/Masjid+Zahoor+Ali+Sah+R.A/data=!4m7!3m6!1s0x39f89c45f6f0bd45:0x4cbdebf91ddb23c3!8m2!3d22.6714908!4d88.3765475!16s%2Fg%2F11f2hd10fk!19sChIJRb3w9kWc-DkRwyPbHfnrvUw?authuser=0&hl=en&rclk=1,"22.671490799999997,88.3765475"
Noorani Masjid,Mosque,"Noorani Masjid, 20, P.K.Das Lane, Rishra), near Fatema Girls High School Risora, Serampore, 712248",Serampore,"20, P.K.Das Lane, Rishra), near Fatema Girls High School Risora",,712248,West Bengal,IN,https://www.google.com/maps/place/Noorani+Masjid/data=!4m7!3m6!1s0x39f89b6cd2dfa4eb:0xf473cfb951cee525!8m2!3d22.7304193!4d88.3501827!16s%2Fg%2F11g68wjsyk!19sChIJ66Tf0myb-DkRJeXOUbnPc_Q?authuser=0&hl=en&rclk=1,"22.730419299999998,88.35018269999999"
Fatullapur Natun Maszid,Mosque,"MCH6+25V Fatullapur Natun Maszid, Diri Para, Nimta, North Dumdum, West Bengal 700049","Diri Para, Nimta",MCH6+25V,North Dumdum,700049,West Bengal,IN,https://www.google.com/maps/place/Fatullapur+Natun+Maszid/data=!4m7!3m6!1s0x39f89e99f7ceafad:0x83b05d6f56aa97ef!8m2!3d22.6776124!4d88.4104344!16s%2Fg%2F11gbzblcvs!19sChIJra_O95me-DkR75eqVm9dsIM?authuser=0&hl=en&rclk=1,"22.677612399999997,88.4104344"
Khardah Choti Masjid,Mosque,"P9H9+PF6 Khardah Choti Masjid, Titagarh, Kolkata, West Bengal 700119",Titagarh,P9H9+PF6,Kolkata,700119,West Bengal,IN,https://www.google.com/maps/place/Khardah+Choti+Masjid/data=!4m7!3m6!1s0x39f89b98c09e333b:0x1606c2414aa324c4!8m2!3d22.7292755!4d88.3686349!16s%2Fg%2F1q6jkbm_h!19sChIJOzOewJib-DkRxCSjSkHCBhY?authuser=0&hl=en&rclk=1,"22.7292755,88.36863489999999"
Mathpara Masjid,Mosque,"P9PJ+WX9 Mathpara Masjid, Math Para, Titagarh, Barrackpore, West Bengal 700118","Math Para, Titagarh",P9PJ+WX9,Barrackpore,700118,West Bengal,IN,https://www.google.com/maps/place/Mathpara+Masjid/data=!4m7!3m6!1s0x39f89bc756ae7419:0x145e919d6d93ab78!8m2!3d22.737285!4d88.3824901!16s%2Fg%2F11gdyvl05x!19sChIJGXSuVseb-DkReKuTbZ2RXhQ?authuser=0&hl=en&rclk=1,"22.737285,88.3824901"
Tetultalla Masjid msjd,Mosque,"Tetultalla Masjid msjd, 24/1, Barrackpore Trunk Rd, Tetultala, Matagiri Harna Pally, Agarpara, Panihati, West Bengal 700109","Tetultala, Matagiri Harna Pally, Agarpara","24/1, Barrackpore Trunk Rd",Panihati,700109,West Bengal,IN,https://www.google.com/maps/place/Tetultalla+Masjid+%D9%85%D8%B3%D8%AC%D8%AF%E2%80%AD/data=!4m7!3m6!1s0x39f89c69c849c6ff:0xc727bcff325aa408!8m2!3d22.6845699!4d88.3753965!16s%2Fg%2F11c0xz367h!19sChIJ_8ZJyGmc-DkRCKRaMv-8J8c?authuser=0&hl=en&rclk=1,"22.6845699,88.3753965"
Umar Mosque,Mosque,"Umar Mosque, 67, Kamarhati, Agarpara, Panihati, West Bengal 700109","Kamarhati, Agarpara",67,Panihati,700109,West Bengal,IN,https://www.google.com/maps/place/Umar+Mosque/data=!4m7!3m6!1s0x39f89c5d1ce8514b:0x5bb2a9072ccfc39e!8m2!3d22.6796679!4d88.3705281!16s%2Fg%2F11dxj2g2_v!19sChIJS1HoHF2c-DkRnsPPLAepsls?authuser=0&hl=en&rclk=1,"22.6796679,88.3705281"
Chota Finga Mosque,Mosque,"Chota Finga Mosque, Khairatail Rd, Bado Finga, Birati, North Dumdum, West Bengal 700111","Bado Finga, Birati",Khairatail Rd,North Dumdum,700111,West Bengal,IN,https://www.google.com/maps/place/Chota+Finga+Mosque/data=!4m7!3m6!1s0x39f89eeaa5bd1d83:0x67969875211f577b!8m2!3d22.6831545!4d88.4216469!16s%2Fg%2F1q6j431ly!19sChIJgx29peqe-DkRe1cfIXWYlmc?authuser=0&hl=en&rclk=1,"22.6831545,88.4216469"
Isha Khan Masjid,Mosque,"Isha Khan Masjid, Titagarh, Barrackpore, West Bengal 700119",Titagarh,,"Titagarh, Barrackpore",700119,West Bengal,IN,https://www.google.com/maps/place/Isha+Khan+Masjid/data=!4m7!3m6!1s0x39f89baffd377535:0xbca88c1227bc6a36!8m2!3d22.74333!4d88.3722746!16s%2Fg%2F11f1yghl38!19sChIJNXU3_a-b-DkRNmq8JxKMqLw?authuser=0&hl=en&rclk=1,"22.74333,88.3722746"
Usha Bhuiyar Mather Masjid,Mosque,"MCGR+C35 Usha Bhuiyar Mather Masjid, South Kodalia, Ushakanan, Michael Nagar, New Barrakpur, Kolkata, West Bengal 700133","South Kodalia, Ushakanan, Michael Nagar, New Barrakpur",MCGR+C35,Kolkata,700133,West Bengal,IN,https://www.google.com/maps/place/Usha+Bhuiyar+Mather+Masjid/data=!4m7!3m6!1s0x39f89ee2742b01fb:0xf25621e2c4680bef!8m2!3d22.6760247!4d88.440221!16s%2Fg%2F1tdmc9j8!19sChIJ-wErdOKe-DkR7wtoxOIhVvI?authuser=0&hl=en&rclk=1,"22.6760247,88.440221"
Abdullah Jama Masjid,Mosque,"Abdullah Jama Masjid, 14/2, Kumar Patty, Math Para, Titagarh, Kolkata, Barrackpore, West Bengal 700119","Math Para, Titagarh","14/2, Kumar Patty","Kolkata, Barrackpore",700119,West Bengal,IN,https://www.google.com/maps/place/Abdullah+Jama+Masjid/data=!4m7!3m6!1s0x39f89bb992492b3f:0x7911b9cd7b4dcb30!8m2!3d22.7410329!4d88.3780769!16s%2Fg%2F11c7vvh8kd!19sChIJPytJkrmb-DkRMMtNe825EXk?authuser=0&hl=en&rclk=1,"22.7410329,88.3780769"
Masjid wa Madarsah Muhammadia,Mosque,"Masjid wa Madarsah Muhammadia, 90, Mackenzie Rd, Toot Bagan, Rojan Bagan, Kamarhati, Ariadaha, Kolkata, West Bengal 700058","Toot Bagan, Rojan Bagan, Kamarhati, Ariadaha","90, Mackenzie Rd",Kolkata,700058,West Bengal,IN,https://www.google.com/maps/place/Masjid+wa+Madarsah+Muhammadia/data=!4m7!3m6!1s0x39f89c5be003eaf5:0x11b267b679af7636!8m2!3d22.6758673!4d88.3676492!16s%2Fg%2F11c7157jq8!19sChIJ9eoD4Fuc-DkRNnavebZnshE?authuser=0&hl=en&rclk=1,"22.6758673,88.3676492"
Raza Jama Masjid,Mosque,"Raza Jama Masjid, 65/1, Dasu Babu Bagan, Kamarhati, Kolkata, West Bengal 700058",Kamarhati,"65/1, Dasu Babu Bagan",Kolkata,700058,West Bengal,IN,https://www.google.com/maps/place/Raza+Jama+Masjid/data=!4m7!3m6!1s0x39f89d8637b0827d:0x1b13593ef7ec8b3a!8m2!3d22.6758815!4d88.3708708!16s%2Fg%2F11g1k7dnj2!19sChIJfYKwN4ad-DkROovs9z5ZExs?authuser=0&hl=en&rclk=1,"22.6758815,88.37087079999999"
MOHAMMADI MASJID AHLE HADEES,Mosque,"MOHAMMADI MASJID AHLE HADEES, 105, GC Rd, Math Para, Titagarh, Barrackpore, West Bengal 700119","Math Para, Titagarh","105, GC Rd",Barrackpore,700119,West Bengal,IN,https://www.google.com/maps/place/MOHAMMADI+MASJID+AHLE+HADEES/data=!4m7!3m6!1s0x39f89bb8ff841f41:0xf6ffefe82a1e4804!8m2!3d22.7398016!4d88.3798619!16s%2Fg%2F11c50q04mn!19sChIJQR-E_7ib-DkRBEgeKujv__Y?authuser=0&hl=en&rclk=1,"22.7398016,88.3798619"
Doperia Mosque,Mosque,"PCJ4+84Q Doperia Mosque, Bandipur, Doperia Village, Kolkata, Dopere, West Bengal Kol-700119","Bandipur, Doperia Village",PCJ4+84Q,"Kolkata, Dopere",Kol-700119,West Bengal,IN,https://www.google.com/maps/place/Doperia+Mosque/data=!4m7!3m6!1s0x39f8995e1f3384fb:0x5126be1bd1426801!8m2!3d22.730839!4d88.4053626!16s%2Fg%2F11gbx9z032!19sChIJ-4QzH16Z-DkRAWhC0Ru-JlE?authuser=0&hl=en&rclk=1,"22.730839,88.40536259999999"
Mosque,Mosque,"MC66+MH8 Mosque, Gowri Nagar, Alipore, Nimta, North Dumdum, West Bengal 700049","Gowri Nagar, Alipore, Nimta",MC66+MH8,North Dumdum,700049,West Bengal,IN,https://www.google.com/maps/place/Mosque/data=!4m7!3m6!1s0x39f89e88712e7a4f:0x53d47b3462198ea!8m2!3d22.6616639!4d88.4114537!16s%2Fg%2F1q5bll0kw!19sChIJT3oucYie-DkR6pghRrNHPQU?authuser=0&hl=en&rclk=1,"22.6616639,88.4114537"
Dentia Jame Masjid,Mosque,"Dentia Jame Masjid, Dentia, Bandipur, Khardaha, Iswaripur, West Bengal 700119",,"Dentia, Bandipur","Khardaha, Iswaripur",700119,West Bengal,IN,https://www.google.com/maps/place/Dentia+Jame+Masjid/data=!4m7!3m6!1s0x39f89967815c5f1f:0x12402459e0ab4aa5!8m2!3d22.7315026!4d88.4091453!16s%2Fg%2F11f3v9pc8k!19sChIJH19cgWeZ-DkRpUqr4FkkQBI?authuser=0&hl=en&rclk=1,"22.7315026,88.40914529999999"
RUHANI MASJID,Mosque,"RUHANI MASJID, 8, Anjuman Road, Rishra, Hooghly, West Bengal 712248","Bangur Park, Rishra","8, Anjuman Road, Rishra",Hooghly,712248,West Bengal,IN,https://www.google.com/maps/place/RUHANI+MASJID/data=!4m7!3m6!1s0x39f89b6daaef4fe9:0xcfe9003dddd33f93!8m2!3d22.7274711!4d88.3507438!16s%2Fg%2F11c5_s6n9g!19sChIJ6U_vqm2b-DkRkz_T3T0A6c8?authuser=0&hl=en&rclk=1,"22.7274711,88.35074379999999"
jummaa msjid Jumma Mosque,Mosque,"MCHF+FVJ jummaa msjid Jumma Mosque, Muzaffar Ahmed Sarani, Pratapgarh, Birati, North Dumdum, West Bengal 700051","Pratapgarh, Birati","MCHF+FVJ, Muzaffar Ahmed Sarani",North Dumdum,700051,West Bengal,IN,https://www.google.com/maps/place/%E0%A6%9C%E0%A7%81%E0%A6%AE%E0%A7%8D%E0%A6%AE%E0%A6%BE+%E0%A6%AE%E0%A6%B8%E0%A6%9C%E0%A6%BF%E0%A6%A6+Jumma+Mosque/data=!4m7!3m6!1s0x39f89eeb9334332d:0xfa78a172efb6728e!8m2!3d22.6787227!4d88.4246547!16s%2Fg%2F1z44_brmh!19sChIJLTM0k-ue-DkRjnK273KhePo?authuser=0&hl=en&rclk=1,"22.678722699999998,88.42465469999999"
Fakirpara Masjid,Mosque,"MC66+MH8 Fakirpara Masjid, Madhusudan Banerjee Rd, Alipore, Nimta, North Dumdum, West Bengal 700049","Alipore, Nimta","MC66+MH8, Madhusudan Banerjee Rd",North Dumdum,700049,West Bengal,IN,https://www.google.com/maps/place/Fakirpara+Masjid/data=!4m7!3m6!1s0x39f89e88760c90b7:0x944699436247eb19!8m2!3d22.6616692!4d88.4114542!16s%2Fg%2F1jglvlsg7!19sChIJt5AMdoie-DkRGetHYkOZRpQ?authuser=0&hl=en&rclk=1,"22.6616692,88.4114542"
Masjid Masunda,Mosque,"149, Masjid Masunda, 104 Udbhas, 1, Netaji Subhash Bose Rd, New Barrakpur, Kolkata, West Bengal 700131",New Barrakpur,"149, 104 Udbhas, 1, Netaji Subhash Bose Rd",Kolkata,700131,West Bengal,IN,https://www.google.com/maps/place/Masjid+Masunda/data=!4m7!3m6!1s0x39f89ed89e63a5c9:0x702b703a83f6a8a6!8m2!3d22.6917678!4d88.4399351!16s%2Fg%2F1q67d3881!19sChIJyaVjntie-DkRpqj2gzpwK3A?authuser=0&hl=en&rclk=1,"22.691767799999997,88.4399351"
Golder Para Mosque,Mosque,"P9FR+3HX Golder Para Mosque, Kalyan Nagar, Rahara, Kolkata, Khardaha, West Bengal 700119","Kalyan Nagar, Rahara",P9FR+3HX,"Kolkata, Khardaha",700119,West Bengal,IN,https://www.google.com/maps/place/Golder+Para+Mosque/data=!4m7!3m6!1s0x39f89bef7bfa3255:0xf0fd283a83757976!8m2!3d22.72273!4d88.391485!16s%2Fg%2F11c59zf5sd!19sChIJVTL6e--b-DkRdnl1gzoo_fA?authuser=0&hl=en&rclk=1,"22.72273,88.391485"
Kora Uttarpara Jame Masjid,Mosque,"PF94+2G5 Kora Uttarpara Jame Masjid, Kora Uttarpara, P.O- Kora Chandigarh, P.S- Madhyamgram, Dist, Kolkata, 700130","Ramkrishnapally, Hridaypur","PF94+2G5, Kora Uttarpara, P.O- Kora Chandigarh, P.S- Madhyamgram, Dist",Kolkata,700130,West Bengal,IN,https://www.google.com/maps/place/Kora+Uttarpara+Jame+Masjid/data=!4m7!3m6!1s0x39f899f4a3e929f9:0x54d4b697440aa3d2!8m2!3d22.7175153!4d88.4563512!16s%2Fg%2F11gnq8622w!19sChIJ-Snpo_SZ-DkR0qMKRJe21FQ?authuser=0&hl=en&rclk=1,"22.7175153,88.4563512"
Hazrat Bilal Masjid,Mosque,"M9F8+3PH Hazrat Bilal Masjid, Kamarhati, Kolkata, West Bengal 700057",Kamarhati,M9F8+3PH,Kolkata,,West Bengal,IN,https://www.google.com/maps/place/Hazrat+Bilal+Masjid/data=!4m7!3m6!1s0x39f89d45de2110e5:0x4c53063d035909a6!8m2!3d22.6726916!4d88.3668676!16s%2Fg%2F11gq_sxyqj!19sChIJ5RAh3kWd-DkRpglZAz0GU0w?authuser=0&hl=en&rclk=1,"22.6726916,88.36686759999999"
Kamarhati Muhammadi Masjid,Mosque,"Kamarhati Muhammadi Masjid, 91, Toot Bagan, Nehaboot Nagar, Ariadaha, Kolkata, West Bengal 700058","Toot Bagan, Nehaboot Nagar, Ariadaha",91,Kolkata,700058,West Bengal,IN,https://www.google.com/maps/place/Kamarhati+Muhammadi+Masjid/data=!4m7!3m6!1s0x39f89c595f7d8a37:0x4f11f54687d4420a!8m2!3d22.6758702!4d88.3676388!16s%2Fg%2F11gdsfdp85!19sChIJN4p9X1mc-DkRCkLUh0b1EU8?authuser=0&hl=en&rclk=1,"22.6758702,88.3676388"
Fatullapur Baytun Noor Mosque,Mosque,"Fatullapur Baytun Noor Mosque, Fatullahpur, Nimta, North Dumdum, West Bengal 700049","Fatullahpur, Nimta",,North Dumdum,700049,West Bengal,IN,https://www.google.com/maps/place/Fatullapur+Baytun+Noor+Mosque/data=!4m7!3m6!1s0x39f89fe12a1790e5:0x6ec26540711863d1!8m2!3d22.6813186!4d88.414632!16s%2Fg%2F11gy4_6_gm!19sChIJ5ZAXKuGf-DkR0WMYcUBlwm4?authuser=0&hl=en&rclk=1,"22.681318599999997,88.414632"
Dangadighila Natun Masjida,Mosque,"PCQ2+QJQ Dangadighila Natun Masjida, Duttapukur - Nilgunj Rd, Ruiya, Dangadihila, Iswaripur, West Bengal 700119",Ruiya,"PCQ2+QJQ, Duttapukur - Nilgunj Rd","Dangadihila, Iswaripur",700119,West Bengal,IN,https://www.google.com/maps/place/Dangadighila+Natun+Masjida/data=!4m7!3m6!1s0x39f899627864a791:0xfd13565f46cee87c!8m2!3d22.7394551!4d88.401624!16s%2Fg%2F11clgnc_8t!19sChIJkadkeGKZ-DkRfOjORl9WE_0?authuser=0&hl=en&rclk=1,"22.7394551,88.401624"
Saharpur Masjid,Mosque,"PC3Q+39H Saharpur Masjid, Unnamed Road, Talbanda, Kolkata, West Bengal 700113",Talbanda,"PC3Q+39H, Unnamed Road",Kolkata,700113,West Bengal,IN,https://www.google.com/maps/place/Saharpur+Masjid/data=!4m7!3m6!1s0x39f89f88947e7849:0xe5789bf0875d892a!8m2!3d22.702692!4d88.4384774!16s%2Fg%2F11rxj5b201!19sChIJSXh-lIif-DkRKoldh_CbeOU?authuser=0&hl=en&rclk=1,"22.702692,88.4384774"
Jama Mosque,Mosque,"MCJR+C6P Jama Mosque, Bhattacharya Pada, Chandra Pally, New Barrakpur, Kolkata, West Bengal 700133","Bhattacharya Pada, Chandra Pally, New Barrakpur",MCJR+C6P,Kolkata,700133,West Bengal,IN,https://www.google.com/maps/place/Jama+Mosque/data=!4m7!3m6!1s0x39f89f1fd4640ee1:0x225a2a63e4896d24!8m2!3d22.6810821!4d88.4405693!16s%2Fg%2F1q6cvvglp!19sChIJ4Q5k1B-f-DkRJG2J5GMqWiI?authuser=0&hl=en&rclk=1,"22.681082099999998,88.44056929999999"
Madrasa Raf E Aam,Mosque,"Madrasa Raf E Aam, 29, Shakoor Rd, Nehaboot Nagar, Ariadaha, Kolkata, West Bengal 700058","Nehaboot Nagar, Ariadaha","29, Shakoor Rd",Kolkata,700058,West Bengal,IN,https://www.google.com/maps/place/Madrasa+Raf+E+Aam/data=!4m7!3m6!1s0x39f89d60e4a61827:0x6711056eb3e36b7e!8m2!3d22.6770115!4d88.3685215!16s%2Fg%2F11f6618yw4!19sChIJJxim5GCd-DkRfmvjs24FEWc?authuser=0&hl=en&rclk=1,"22.6770115,88.3685215"
Masjid Umar Farooq - Ruhani Markaz msjd,Mosque,"M9G8+QWP Masjid Umar Farooq - Ruhani Markaz msjd, Unnamed Road, Rojan Bagan, Nehaboot Nagar, Ariadaha, Kolkata, West Bengal 700109","Rojan Bagan, Nehaboot Nagar, Ariadaha","M9G8+QWP, Unnamed Road",Kolkata,700109,West Bengal,IN,https://www.google.com/maps/place/Masjid+Umar+Farooq+-+Ruhani+Markaz+%D9%85%D8%B3%D8%AC%D8%AF%E2%80%AD/data=!4m7!3m6!1s0x39f89c59537c1d6b:0x7773c2e18d7e2b69!8m2!3d22.6769744!4d88.3673379!16s%2Fg%2F11gf5zkkql!19sChIJax18U1mc-DkRaSt-jeHCc3c?authuser=0&hl=en&rclk=1,"22.6769744,88.3673379"
Masjid E Ahle Hadees Kamarhati,Mosque,"M9G9+83R Masjid E Ahle Hadees Kamarhati, Toot Bagan, Rojan Bagan, Nehaboot Nagar, Ariadaha, Kolkata, West Bengal 700058","Toot Bagan, Rojan Bagan, Nehaboot Nagar, Ariadaha",M9G9+83R,Kolkata,700058,West Bengal,IN,https://www.google.com/maps/place/Masjid+E+Ahle+Hadees+Kamarhati/data=!4m7!3m6!1s0x39f89d8c5a1983b1:0xbd86aabf877926e2!8m2!3d22.6758673!4d88.3676515!16s%2Fg%2F11fjznf8y5!19sChIJsYMZWoyd-DkR4iZ5h7-qhr0?authuser=0&hl=en&rclk=1,"22.6758673,88.3676515"
MADINA MASJID,Mosque,"MADINA MASJID, paschim Para Madina masjid, Mondal Para, Ruiya, Barrackpore, West Bengal 700119","Mondal Para, Ruiya",paschim Para Madina masjid,Barrackpore,700119,West Bengal,IN,https://www.google.com/maps/place/MADINA+MASJID/data=!4m7!3m6!1s0x39f89b2cbf686249:0x5a964ae29408a0b8!8m2!3d22.7458819!4d88.3858409!16s%2Fg%2F11ll1yxf8g!19sChIJSWJovyyb-DkRuKAIlOJKllo?authuser=0&hl=en&rclk=1,"22.7458819,88.38584089999999"
Dangadighila Purano Masjid,Mosque,"PCQ2+5GF Dangadighila Purano Masjid, Duttapukur - Nilgunj Rd, Ruiya, Dangadihila, Iswaripur, West Bengal 700119",Ruiya,"PCQ2+5GF, Duttapukur - Nilgunj Rd","Dangadihila, Iswaripur",700119,West Bengal,IN,https://www.google.com/maps/place/Dangadighila+Purano+Masjid/data=!4m7!3m6!1s0x39f89bd8a5d9ca65:0x821eb7204c24bf77!8m2!3d22.7379485!4d88.4013008!16s%2Fg%2F11clgrhr_d!19sChIJZcrZpdib-DkRd78kTCC3HoI?authuser=0&hl=en&rclk=1,"22.737948499999998,88.4013008"
Fatullapur Jaame Masjid,Mosque,"MCH6+JJV Fatullapur Jaame Masjid, Fatullahpur, Nimta, North Dumdum, West Bengal 700049","Fatullahpur, Nimta",MCH6+JJV,North Dumdum,700049,West Bengal,IN,https://www.google.com/maps/place/Fatullapur+Jaame+Masjid/data=!4m7!3m6!1s0x39f89f842b78db17:0x2bb4dd3f9fd0f732!8m2!3d22.6791177!4d88.4115358!16s%2Fg%2F11g0lds88c!19sChIJF9t4K4Sf-DkRMvfQnz_dtCs?authuser=0&hl=en&rclk=1,"22.6791177,88.4115358"
Craig Street Tazia Commitee Karbala,Mosque,"Craig Street Tazia Commitee Karbala, 196, SH 1, Angles Nagar Colony, Kamarhati, Agarpara, Kolkata, Panihati, West Bengal 700109","Angles Nagar Colony, Kamarhati, Agarpara","196, SH 1","Kolkata, Panihati",700109,West Bengal,IN,https://www.google.com/maps/place/Craig+Street+Tazia+Commitee+Karbala/data=!4m7!3m6!1s0x39f89d1ecb4226b5:0xb4a4529fd6b4b9dc!8m2!3d22.6873358!4d88.3750464!16s%2Fg%2F11gr426jgb!19sChIJtSZCyx6d-DkR3Lm01p9SpLQ?authuser=0&hl=en&rclk=1,"22.6873358,88.3750464"
Sodarhat jama masjid,Mosque,"Sodarhat jama masjid, Sodarhat, Madhawpur Village, Kolkata, Karana Madhabpur, West Bengal 700113",Madhawpur Village,Sodarhat,"Kolkata, Karana Madhabpur",700113,West Bengal,IN,https://www.google.com/maps/place/Sodarhat+jama+masjid/data=!4m7!3m6!1s0x39f899df55734bf7:0xf021dd245bff1c25!8m2!3d22.7251991!4d88.411159!16s%2Fg%2F11fj44tnqc!19sChIJ90tzVd-Z-DkRJRz_WyTdIfA?authuser=0&hl=en&rclk=1,"22.725199099999998,88.411159"
ALLAHABADI MASJID,Mosque,"ALLAHABADI MASJID, 4, P. C. DAW BAZAR ROAD, Rishra, 712248","Bangur Park, Rishra","4, P. C. DAW BAZAR ROAD",,712248,West Bengal,IN,https://www.google.com/maps/place/ALLAHABADI+MASJID/data=!4m7!3m6!1s0x39f89b624291aa71:0xaec640ce3584841!8m2!3d22.726084!4d88.3520166!16s%2Fg%2F11gjyk46xl!19sChIJcaqRQmKb-DkRQUhY4wxk7Ao?authuser=0&hl=en&rclk=1,"22.726084,88.3520166"
Baitul Aman Jame Maszid,Mosque,"PC56+XQQ Baitul Aman Jame Maszid, Parthpur, Natagarh, Kolkata, Panihati, West Bengal 700113","Parthpur, Natagarh",PC56+XQQ,"Kolkata, Panihati",700113,West Bengal,IN,https://www.google.com/maps/place/Baitul+Aman+Jame+Maszid/data=!4m7!3m6!1s0x39f899fe1c887065:0x737752749de936a0!8m2!3d22.7099712!4d88.411976!16s%2Fg%2F11gh7fxhws!19sChIJZXCIHP6Z-DkRoDbpnXRSd3M?authuser=0&hl=en&rclk=1,"22.7099712,88.411976"
Garib Nawaz Masjid,Mosque,"M9FC+24G Garib Nawaz Masjid, Unnamed Road, Nehaboot Nagar, Kolkata, West Bengal 700058",Nehaboot Nagar,"M9FC+24G, Unnamed Road",Kolkata,700058,West Bengal,IN,https://www.google.com/maps/place/Garib+Nawaz+Masjid/data=!4m7!3m6!1s0x39f89d594ca5102b:0xfc4db99d9c4df394!8m2!3d22.6725646!4d88.3703284!16s%2Fg%2F11fl0wwn3v!19sChIJKxClTFmd-DkRlPNNnJ25Tfw?authuser=0&hl=en&rclk=1,"22.672564599999998,88.37032839999999"
Ghola masjid,Mosque,"Ghola masjid, 315, Sodepur Barasat Rd, C Block, Sodepur, Kolkata, Panihati, West Bengal 700111","C Block, Sodepur","315, Sodepur Barasat Rd","Kolkata, Panihati",700111,West Bengal,IN,https://www.google.com/maps/place/Ghola+masjid/data=!4m7!3m6!1s0x39f89f7004edc12b:0x35db0b510d4b07b1!8m2!3d22.6944539!4d88.4047513!16s%2Fg%2F11rgfxc_ss!19sChIJK8HtBHCf-DkRsQdLDVEL2zU?authuser=0&hl=en&rclk=1,"22.6944539,88.4047513"
Porutan Masjid,Mosque,"MCH7+WHX Porutan Masjid, Fatullahpur, Nimta, North Dumdum, West Bengal 700049","Fatullahpur, Nimta",MCH7+WHX,North Dumdum,700049,West Bengal,IN,https://www.google.com/maps/place/Porutan+Masjid/data=!4m7!3m6!1s0x39f89e96e30b7539:0x71bb1f63978dc8a6!8m2!3d22.6798608!4d88.4139769!16s%2Fg%2F11g6jq5jfd!19sChIJOXUL45ae-DkRpsiNl2Mfu3E?authuser=0&hl=en&rclk=1,"22.6798608,88.4139769"
Sabri jama masjid,Mosque,"Sabri jama masjid, 150, Barrackpore Trunk Rd, No. 3 Deshbondhu Nagar, Panihati, Kol115, Khardaha, West Bengal 700110","No. 3 Deshbondhu Nagar, Panihati","150, Barrackpore Trunk Rd","Kol115, Khardaha",700110,West Bengal,IN,https://www.google.com/maps/place/Sabri+jama+masjid/data=!4m7!3m6!1s0x39f89d0f1df20447:0xa7ab96013dbbb128!8m2!3d22.7039234!4d88.3749224!16s%2Fg%2F11qprd_sd6!19sChIJRwTyHQ-d-DkRKLG7PQGWq6c?authuser=0&hl=en&rclk=1,"22.703923399999997,88.3749224"
Mondol Para Syed Nurunnabi Jame Masjid,Mosque,"P9WJ+PPM Mondol Para Syed Nurunnabi Jame Masjid, Old Calcutta Rd, Math Para, Titagarh, Kolkata, Barrackpore, West Bengal 700119","Math Para, Titagarh","P9WJ+PPM, Old Calcutta Rd","Kolkata, Barrackpore",700119,West Bengal,IN,https://www.google.com/maps/place/Mondol+Para+Syed+Nurunnabi+Jame+Masjid/data=!4m7!3m6!1s0x39f89bb6a1211539:0xfa9f7cdd13c07595!8m2!3d22.7468461!4d88.3818056!16s%2Fg%2F11h1mbh0n5!19sChIJORUhobab-DkRlXXAE918n_o?authuser=0&hl=en&rclk=1,"22.7468461,88.38180559999999"
Bandipur Jame Masjid,Mosque,"P9FV+RFR Bandipur Jame Masjid, Kalyan Nagar, Rahara, Khardaha, West Bengal 700119","Kalyan Nagar, Rahara",P9FV+RFR,Khardaha,700119,West Bengal,IN,https://www.google.com/maps/place/Bandipur+Jame+Masjid/data=!4m7!3m6!1s0x39f89bddff96ab2f:0x1e9835f7bf725e7a!8m2!3d22.7246427!4d88.3936549!16s%2Fg%2F11rll69wm3!19sChIJL6uW_92b-DkRel5yv_c1mB4?authuser=0&hl=en&rclk=1,"22.7246427,88.3936549"
Morolpara mosque,Mosque,"58, Morolpara mosque, 58, Bandipur Saibone Rd, Bandipur, Ramkrishna Pally, Rahara, Barrackpore, Khardaha, West Bengal 700118","Bandipur, Ramkrishna Pally, Rahara","58, 58, Bandipur Saibone Rd","Barrackpore, Khardaha",700118,West Bengal,IN,https://www.google.com/maps/place/Morolpara+mosque/data=!4m7!3m6!1s0x39f89b46d76dd06d:0x938e3e13130f50be!8m2!3d22.7249427!4d88.3957121!16s%2Fg%2F11plj2bs8c!19sChIJbdBt10ab-DkRvlAPExM-jpM?authuser=0&hl=en&rclk=1,"22.7249427,88.3957121"
Masjid,Mosque,"MCQG+CJ7 Masjid, Jogendra Nagar, Jugberia, Chandpur, West Bengal 700110","Jogendra Nagar, Jugberia",MCQG+CJ7,Chandpur,700110,West Bengal,IN,https://www.google.com/maps/place/Masjid/data=!4m7!3m6!1s0x39f89fda916fcd27:0x85ac1523249b2128!8m2!3d22.6885461!4d88.4265558!16s%2Fg%2F11g0z8kt2v!19sChIJJ81vkdqf-DkRKCGbJCMVrIU?authuser=0&hl=en&rclk=1,"22.6885461,88.4265558"
Prantik Nagar Mosque,Mosque,"Prantik Nagar Mosque, Mosque, Prantick nagar, Belghoria, Panihati, West Bengal 700056","Kamarhati, Belghoria","Mosque, Prantick nagar",Panihati,700056,West Bengal,IN,https://www.google.com/maps/place/Prantik+Nagar+Mosque/data=!4m7!3m6!1s0x39f89d11883885c5:0x82260514d207958f!8m2!3d22.6822623!4d88.3700771!16s%2Fg%2F11k7tzmt1z!19sChIJxYU4iBGd-DkRj5UH0hQFJoI?authuser=0&hl=en&rclk=1,"22.682262299999998,88.37007709999999"
maasjide umr phaaruk (raa:),Mosque,"MCF5+CPP maasjide umr phaaruk (raa:), Abdul Aziz Rd, Gol Bagan, Diri Para, Nimta, North Dumdum, West Bengal 700049","Gol Bagan, Diri Para, Nimta","MCF5+CPP, Abdul Aziz Rd",North Dumdum,700049,West Bengal,IN,https://www.google.com/maps/place/%E0%A6%AE%E0%A6%BE%E0%A6%B8%E0%A6%9C%E0%A6%BF%E0%A6%A6%E0%A7%87+%E0%A6%89%E0%A6%AE%E0%A6%B0+%E0%A6%AB%E0%A6%BE%E0%A6%B0%E0%A7%81%E0%A6%95+%28%E0%A6%B0%E0%A6%BE:%29/data=!4m7!3m6!1s0x39f89f205abd460b:0x80e3f84fa4305df5!8m2!3d22.6735842!4d88.4093364!16s%2Fg%2F11rkbxbcrt!19sChIJC0a9WiCf-DkR9V0wpE_444A?authuser=0&hl=en&rclk=1,"22.6735842,88.4093364"
Mahishpota Baitul Hamd Jame Masjid,Mosque,"PC67+FVM Mahishpota Baitul Hamd Jame Masjid, Madhawpur Village, Mohispota, West Bengal 700113",Madhawpur Village,PC67+FVM,Mohispota,700113,West Bengal,IN,https://www.google.com/maps/place/Mahishpota+Baitul+Hamd+Jame+Masjid/data=!4m7!3m6!1s0x39f899a29b215bff:0x756fcd23b325a15!8m2!3d22.7112108!4d88.4146629!16s%2Fg%2F11f775y718!19sChIJ_1shm6KZ-DkRFVoyO9L8Vgc?authuser=0&hl=en&rclk=1,"22.7112108,88.4146629"
Masjid-E- Masroor,Mosque,"Masjid-E- Masroor, 99, GC Rd, Math Para, Titagarh, Kolkata, Barrackpore, West Bengal 700119","Math Para, Titagarh","99, GC Rd","Kolkata, Barrackpore",700119,West Bengal,IN,https://www.google.com/maps/place/Masjid-E-+Masroor/data=!4m7!3m6!1s0x39f89bdbf1bdf97b:0x37f022f1c99d2203!8m2!3d22.7388112!4d88.3774251!16s%2Fg%2F11rck799d_!19sChIJe_m98dub-DkRAyKdyfEi8Dc?authuser=0&hl=en&rclk=1,"22.7388112,88.3774251"
Fatullapur baytun noor masjid,Mosque,"MCH7+J2J Fatullapur baytun noor masjid, Fatullahpur, Nimta, North Dumdum, West Bengal 700049","Fatullahpur, Nimta",MCH7+J2J,North Dumdum,700049,West Bengal,IN,https://www.google.com/maps/place/Fatullapur+baytun+noor+masjid/data=!4m7!3m6!1s0x39f89fbc8ff6168b:0x121880ab6d5b34eb!8m2!3d22.6790812!4d88.4125157!16s%2Fg%2F11gy4_nwyg!19sChIJixb2j7yf-DkR6zRbbauAGBI?authuser=0&hl=en&rclk=1,"22.6790812,88.4125157"
Manik danga masjid ( maanikddaangaa msjid ),Mosque,"MCV7+FFC Manik danga masjid ( maanikddaangaa msjid ), Navapalli, Jugberia, Muragachha, West Bengal 700111","Navapalli, Jugberia",MCV7+FFC,Muragachha,700111,West Bengal,IN,https://www.google.com/maps/place/Manik+danga+masjid+%28+%E0%A6%AE%E0%A6%BE%E0%A6%A8%E0%A6%BF%E0%A6%95%E0%A6%A1%E0%A6%BE%E0%A6%99%E0%A6%BE+%E0%A6%AE%E0%A6%B8%E0%A6%9C%E0%A6%BF%E0%A6%A6+%29/data=!4m7!3m6!1s0x39f89fc46a826099:0x7fdd04a43f14317d!8m2!3d22.6936833!4d88.4136345!16s%2Fg%2F11lt021rxm!19sChIJmWCCasSf-DkRfTEUP6QE3X8?authuser=0&hl=en&rclk=1,"22.6936833,88.4136345"
Konnagar Diwaldi Masque konngr ddioyyaalddi msjid,Mosque,"Konnagar Diwaldi Masque konngr ddioyyaalddi msjid, 147, Grand Trunk Rd, Rammohan Place, Konnagar, West Bengal 712235","Rammohan Place, Konnagar","147, Grand Trunk Rd",,712235,West Bengal,IN,https://www.google.com/maps/place/Konnagar+Diwaldi+Masque+%E0%A6%95%E0%A7%8B%E0%A6%A8%E0%A6%A8%E0%A6%97%E0%A6%B0+%E0%A6%A1%E0%A6%BF%E0%A6%93%E0%A7%9F%E0%A6%BE%E0%A6%B2%E0%A6%A1%E0%A6%BF+%E0%A6%AE%E0%A6%B8%E0%A6%9C%E0%A6%BF%E0%A6%A6/data=!4m7!3m6!1s0x39f89d4b89562ea7:0xd29e290898b8d21e!8m2!3d22.6961493!4d88.3587191!16s%2Fg%2F11t3vnxd1g!19sChIJpy5WiUud-DkRHtK4mAgpntI?authuser=0&hl=en&rclk=1,"22.6961493,88.3587191"
Masjid,Mosque,"Masjid, 8, Nazrul Sarani Rd, Arabinda Pally, Konnagar, Uttarpara, West Bengal 712233","Arabinda Pally, Konnagar","8, Nazrul Sarani Rd",Uttarpara,712233,West Bengal,IN,https://www.google.com/maps/place/Masjid/data=!4m7!3m6!1s0x39f89d0777cb7a17:0xacfd9e6fe804fa27!8m2!3d22.6902209!4d88.3564683!16s%2Fg%2F11nnng143r!19sChIJF3rLdwed-DkRJ_oE6G-e_aw?authuser=0&hl=en&rclk=1,"22.6902209,88.3564683"
Khaldhar Madina Masjid,Mosque,"P9XC+P3F Khaldhar Madina Masjid, Krishna Prasad Rd, Titagarh, Barrackpore, West Bengal 700120",Titagarh,"P9XC+P3F, Krishna Prasad Rd",Barrackpore,700120,West Bengal,IN,https://www.google.com/maps/place/Khaldhar+Madina+Masjid/data=!4m7!3m6!1s0x39f89bf15840eedb:0xb4382fdeffaaa092!8m2!3d22.7493244!4d88.3701738!16s%2Fg%2F11r_r3ktq0!19sChIJ2-5AWPGb-DkRkqCq_94vOLQ?authuser=0&hl=en&rclk=1,"22.7493244,88.37017379999999"
Craig street masjid,Mosque,"M9H9+MFG Craig street masjid, Craig St, Kamarhati, Agarpara, Panihati, West Bengal 700109","Kamarhati, Agarpara","M9H9+MFG, Craig St",Panihati,700109,West Bengal,IN,https://www.google.com/maps/place/Craig+street+masjid/data=!4m7!3m6!1s0x39f89d7670873147:0x4792a90911a22cd7!8m2!3d22.6791774!4d88.3686903!16s%2Fg%2F11mxzcqt43!19sChIJRzGHcHad-DkR1yyiEQmpkkc?authuser=0&hl=en&rclk=1,"22.6791774,88.3686903"
BT ROAD NEAR SABRI JAMA MASHJID PANIHATI(M) PS KHARDAH KOLKATA 700115,Mosque,"BT ROAD NEAR SABRI JAMA MASHJID PANIHATI(M) PS KHARDAH KOLKATA 700115, 13a, Barrackpore Trunk Rd, No. 3 Deshbondhu Nagar, Titagarh, Kolkata, Khardaha, West Bengal 700119","No. 3 Deshbondhu Nagar, Titagarh","13a, Barrackpore Trunk Rd","Kolkata, Khardaha",700119,West Bengal,IN,https://www.google.com/maps/place/BT+ROAD+NEAR+SABRI+JAMA+MASHJID+PANIHATI%28M%29+PS+KHARDAH+KOLKATA+700115/data=!4m7!3m6!1s0x39f89dcf61fb7b51:0xea0bacff7a6a2e27!8m2!3d22.7039618!4d88.3749486!16s%2Fg%2F11qprf711x!19sChIJUXv7Yc-d-DkRJy5qev-sC-o?authuser=0&hl=en&rclk=1,"22.7039618,88.3749486"
"Belal Masjid Ariadaha, Kolkata",Mosque,"M9F8+4HJ Belal Masjid Ariadaha, Kolkata, Sastitala Rd, Nehaboot Nagar, Ariadaha, Kolkata, West Bengal 700057","Nehaboot Nagar, Ariadaha","M9F8+4HJ, Sastitala Rd",Kolkata,700057,West Bengal,IN,"https://www.google.com/maps/place/Belal+Masjid+Ariadaha,+Kolkata/data=!4m7!3m6!1s0x39f89ddf5ff3e4ff:0x5498e81877725b3c!8m2!3d22.6728352!4d88.3663949!16s%2Fg%2F11ryrmvvs3!19sChIJ_-TzX9-d-DkRPFtydxjomFQ?authuser=0&hl=en&rclk=1","22.672835199999998,88.3663949"
MASJID E UMAR FARUK (R ),Mosque,"MCF5+6H7 MASJID E UMAR FARUK (R ), Abdul Aziz Rd, Shyamaprasad Nagar, Gol Bagan, Diri Para, Nimta, Kolkata, North Dumdum, West Bengal 700049","Shyamaprasad Nagar, Gol Bagan, Diri Para, Nimta","MCF5+6H7, Abdul Aziz Rd","Kolkata, North Dumdum",700049,West Bengal,IN,https://www.google.com/maps/place/MASJID+E+UMAR+FARUK+%28R+%29/data=!4m7!3m6!1s0x39f89feffefe601f:0x2ab72bb6e74966b!8m2!3d22.6730494!4d88.4089273!16s%2Fg%2F11sdwqgf79!19sChIJH2D-_u-f-DkRa5Z0brtyqwI?authuser=0&hl=en&rclk=1,"22.6730494,88.4089273"
Doperia mosque,Mosque,"P9GX+GP8 Doperia mosque, Doperia Village, Kolkata, Dopere, West Bengal 700119",Doperia Village,P9GX+GP8,"Kolkata, Dopere",700119,West Bengal,IN,https://www.google.com/maps/place/Doperia+mosque/data=!4m7!3m6!1s0x39f89b6cd9cc5b43:0x9dfdc62e2febc9cc!8m2!3d22.7262856!4d88.399322!16s%2Fg%2F11rll99fwf!19sChIJQ1vM2Wyb-DkRzMnrLy7G_Z0?authuser=0&hl=en&rclk=1,"22.7262856,88.399322"
Haji Banku Line Masjid,Mosque,"P973+8G9 Haji Banku Line Masjid, Haji Banku Ln, Jawahar Lal Nehru Sarani, Konnagar, West Bengal 712235","Jawahar Lal Nehru Sarani, Konnagar","P973+8G9, Haji Banku Ln",,712235,West Bengal,IN,https://www.google.com/maps/place/Haji+Banku+Line+Masjid/data=!4m7!3m6!1s0x39f89b8adeaa54e3:0x85c24aa910452112!8m2!3d22.7132873!4d88.3538692!16s%2Fg%2F11fnwbm7hz!19sChIJ41Sq3oqb-DkREiFFEKlKwoU?authuser=0&hl=en&rclk=1,"22.713287299999998,88.35386919999999"
Mosaheb Ali Mosque,Mosque,"Mosaheb Ali Mosque, 55, AN Deo Path, Purana Bazar, Titagarh, Kolkata, West Bengal 700119","Purana Bazar, Titagarh","55, AN Deo Path",Kolkata,700119,West Bengal,IN,https://www.google.com/maps/place/Mosaheb+Ali+Mosque/data=!4m7!3m6!1s0x39f89b84dde26419:0xe03cfbf1d64a00ab!8m2!3d22.7368554!4d88.3684653!16s%2Fg%2F11pymmtb1j!19sChIJGWTi3YSb-DkRqwBK1vH7POA?authuser=0&hl=en&rclk=1,"22.7368554,88.3684653"
Bado Finga Jama majid,Mosque,"Bado Finga Jama majid, 36, Bado Finga, Birati, North Dumdum, West Bengal 700158","Bado Finga, Birati",36,North Dumdum,700158,West Bengal,IN,https://www.google.com/maps/place/Bado+Finga+Jama+majid/data=!4m7!3m6!1s0x39f89f07c5e8f8c9:0x699a3df03cb3c246!8m2!3d22.6794473!4d88.4234156!16s%2Fg%2F11jsf3knvl!19sChIJyfjoxQef-DkRRsKzPPA9mmk?authuser=0&hl=en&rclk=1,"22.6794473,88.4234156"
MURAGACHHA Jama Masjid,Mosque,"MCJ8+8W3 MURAGACHHA Jama Masjid, Pratapgarh, Birati, Muragachha, North Dumdum, West Bengal 700111","Pratapgarh, Birati",MCJ8+8W3,"Muragachha, North Dumdum",,West Bengal,IN,https://www.google.com/maps/place/MURAGACHHA+Jama+Masjid/data=!4m7!3m6!1s0x39f89f46faa21ffd:0x85535b379c6bee26!8m2!3d22.6807718!4d88.4173039!16s%2Fg%2F11t635tdc_!19sChIJ_R-i-kaf-DkRJu5rnDdbU4U?authuser=0&hl=en&rclk=1,"22.6807718,88.4173039"
Kulinpara Masjid,Mosque,"P978+RQ4 Kulinpara Masjid, Kulinpara, Khardaha, West Bengal 700116","Kulinpara, Khardaha",P978+RQ4,Khardaha,700116,West Bengal,IN,https://www.google.com/maps/place/Kulinpara+Masjid/data=!4m7!3m6!1s0x39f89b8444e470ab:0xe4f5eb5f8e4f0876!8m2!3d22.71454!4d88.3669451!16s%2Fg%2F11v6t1cfr1!19sChIJq3DkRISb-DkRdghPjl_r9eQ?authuser=0&hl=en&rclk=1,"22.71454,88.3669451"
Iswaripur Block Masjid,Mosque,"PCM6+QW7 Iswaripur Block Masjid, Iswaripur, West Bengal 700118",,PCM6+QW7,Iswaripur,700118,West Bengal,IN,https://www.google.com/maps/place/Iswaripur+Block+Masjid/data=!4m7!3m6!1s0x39f8996727ab901f:0x1fc4e1c892a293e2!8m2!3d22.7344076!4d88.4122885!16s%2Fg%2F11l6kzb71r!19sChIJH5CrJ2eZ-DkR4pOiksjhxB8?authuser=0&hl=en&rclk=1,"22.734407599999997,88.4122885"
Khardah Eidgah,Mosque,"Khardah Eidgah, 1, State Hwy 1, Nutan Pally, Surjaysen Nagar, Khardaha, Barrackpore, West Bengal 700119","Nutan Pally, Surjaysen Nagar, Khardaha","1, State Hwy 1",Barrackpore,700119,West Bengal,IN,https://www.google.com/maps/place/Khardah+Eidgah/data=!4m7!3m6!1s0x39f89baa9936b6cb:0x14973224a589e986!8m2!3d22.727849!4d88.3738405!16s%2Fg%2F11qg59_p1n!19sChIJy7Y2maqb-DkRhumJpSQylxQ?authuser=0&hl=en&rclk=1,"22.727849,88.3738405"
