name,main_category,address,address_ward,address_street,address_city,address_postal_code,address_state,address_country_code,link,coordinates
Jamiya Masjid (Markaz),Mosque,"CP6G+X7G Jamiya Masjid (Markaz), Car St, Akkpedianera, Dharmavaram, Andhra Pradesh 515671",Akkpedianera,"CP6G+X7G, Car St",Dharmavaram,515671,Andhra Pradesh,IN,https://www.google.com/maps/place/Jamiya+Masjid+%28Markaz%29/data=!4m7!3m6!1s0x3bb14343d1ee4051:0xc1b61961a6854a98!8m2!3d14.4124311!4d77.7256886!16s%2Fg%2F11b6t0lrvx!19sChIJUUDu0UNDsTsRmEqFpmEZtsE?authuser=0&hl=en&rclk=1,"14.4124311,77.7256886"
Masjid-E-Madeena msjd,Mosque,"CP79+FM4 Masjid-E-Madeena msjd, Indiranagar, Dharmavaram, Andhra Pradesh 515671",Indiranagar,CP79+FM4,Dharmavaram,515671,Andhra Pradesh,IN,https://www.google.com/maps/place/Masjid-E-Madeena+%D9%85%D8%B3%D8%AC%D8%AF%E2%80%AD/data=!4m7!3m6!1s0x3bb1436908e9040f:0x71e68f08296d8280!8m2!3d14.4136388!4d77.7191989!16s%2Fg%2F11gdst3bsl!19sChIJDwTpCGlDsTsRgIJtKQiP5nE?authuser=0&hl=en&rclk=1,"14.4136388,77.7191989"
Masjid e Kousar,Mosque,"CP87+M4W Masjid e Kousar, Lakshmi Nagar, Dharmavaram, Andhra Pradesh 515671",Lakshmi Nagar,CP87+M4W,Dharmavaram,515671,Andhra Pradesh,IN,https://www.google.com/maps/place/Masjid+e+Kousar/data=!4m7!3m6!1s0x3bb1436f891f7223:0xf2dc04694a104659!8m2!3d14.4167344!4d77.7128226!16s%2Fg%2F11c5b1qfk9!19sChIJI3IfiW9DsTsRWUYQSmkE3PI?authuser=0&hl=en&rclk=1,"14.4167344,77.7128226"
Noorani Masjid,Mosque,"CP66+JRF Noorani Masjid, Parthasaradhi Nagar, Dharmavaram, Andhra Pradesh 515671",Parthasaradhi Nagar,CP66+JRF,Dharmavaram,515671,Andhra Pradesh,IN,https://www.google.com/maps/place/Noorani+Masjid/data=!4m7!3m6!1s0x3bb1436e0b8e916d:0x61aa97ede71486d4!8m2!3d14.411569!4d77.7120575!16s%2Fg%2F11ddxr3jgj!19sChIJbZGOC25DsTsR1IYU5-2XqmE?authuser=0&hl=en&rclk=1,"14.411569,77.7120575"
Bilal Masjid,Mosque,"CP75+64F Bilal Masjid, Durganagar, Regatipalle, Dharmavaram, Andhra Pradesh 515671","Durganagar, Regatipalle",CP75+64F,Dharmavaram,515671,Andhra Pradesh,IN,https://www.google.com/maps/place/Bilal+Masjid/data=!4m7!3m6!1s0x3bb1437108f2924f:0x80b4e6703592ef90!8m2!3d14.4130638!4d77.7077875!16s%2Fg%2F11c2nk_rtz!19sChIJT5LyCHFDsTsRkO-SNXDmtIA?authuser=0&hl=en&rclk=1,"14.4130638,77.7077875"
Masjid E Abraar qila,Mosque,"CP5C+JPF Masjid E Abraar qila, Fort, Dharmavaram, Andhra Pradesh 515671",Fort,CP5C+JPF,Dharmavaram,515671,Andhra Pradesh,IN,https://www.google.com/maps/place/Masjid+E+Abraar+qila/data=!4m7!3m6!1s0x3bb1436a7dac601b:0x92124a823d969ae9!8m2!3d14.4090625!4d77.7218074!16s%2Fg%2F11ckkx1797!19sChIJG2CsfWpDsTsR6ZqWPYJKEpI?authuser=0&hl=en&rclk=1,"14.4090625,77.7218074"
Masjid E Firdouse,Mosque,"CP89+H76 Masjid E Firdouse, Indiranagar, Dharmavaram, Andhra Pradesh 515671",Indiranagar,CP89+H76,Dharmavaram,515671,Andhra Pradesh,IN,https://www.google.com/maps/place/Masjid+E+Firdouse/data=!4m7!3m6!1s0x3bb1436897b11a4b:0xe58707cdb238a710!8m2!3d14.4164156!4d77.7181427!16s%2Fg%2F11gfjvpbmt!19sChIJSxqxl2hDsTsREKc4ss0Hh-U?authuser=0&hl=en&rclk=1,"14.416415599999999,77.7181427"
Masjid e Abdul Razzaq,Mosque,"9PX4+CX7 Masjid e Abdul Razzaq, Parthasaradhi Nagar, Dharmavaram, Regatipalli, Andhra Pradesh 515671",Parthasaradhi Nagar,9PX4+CX7,"Dharmavaram, Regatipalli",515671,Andhra Pradesh,IN,https://www.google.com/maps/place/Masjid+e+Abdul+Razzaq/data=!4m7!3m6!1s0x3bb1430e8f393db7:0xa4f6896fe60f3660!8m2!3d14.3985381!4d77.7074207!16s%2Fg%2F11cjnnyr8z!19sChIJtz05jw5DsTsRYDYP5m-J9qQ?authuser=0&hl=en&rclk=1,"14.3985381,77.7074207"
Masjid- E -Ayesha. Masjid,Mosque,"CPHF+R3X Masjid- E -Ayesha. Masjid, Shanthi Nagar, Dharmavaram, near Ganga Temple, Anantapur, Andhra Pradesh 515671",Shanthi Nagar,"CPHF+R3X, Shanthi Nagar, Dharmavaram, near Ganga Temple","Anantapur, Dharmavaram",515671,Andhra Pradesh,IN,https://www.google.com/maps/place/Masjid-+E+-Ayesha.+Masjid/data=!4m7!3m6!1s0x3bb144a004bb9d25:0xf57134ce71bdc7d8!8m2!3d14.4296026!4d77.7227304!16s%2Fg%2F11f2xn35bw!19sChIJJZ27BKBEsTsR2Me9cc40cfU?authuser=0&hl=en&rclk=1,"14.429602599999999,77.7227304"
Masjid E Kubra,Mosque,"CPC7+VR7 Masjid E Kubra, Ramnagar, Kothapeta, Dharmavaram, Andhra Pradesh 515672","Ramnagar, Kothapeta",CPC7+VR7,Dharmavaram,515672,Andhra Pradesh,IN,https://www.google.com/maps/place/Masjid+E+Kubra/data=!4m7!3m6!1s0x3bb14364703e5f33:0xd9d2a2df52a2b96c!8m2!3d14.4221525!4d77.714555!16s%2Fg%2F11f3x9bz9_!19sChIJM18-cGRDsTsRbLmiUt-i0tk?authuser=0&hl=en&rclk=1,"14.4221525,77.71455499999999"
Masjid E Nimra,Mosque,"Masjid E Nimra, 12/74, Giriraj Colony, Regatipalle, Dharmavaram, Andhra Pradesh 515671","Giriraj Colony, Regatipalle",12/74,Dharmavaram,515671,Andhra Pradesh,IN,https://www.google.com/maps/place/Masjid+E+Nimra/data=!4m7!3m6!1s0x3bb143d2acf5e715:0xaf42ef1d134ae86f!8m2!3d14.4179402!4d77.703653!16s%2Fg%2F11spqz3wzp!19sChIJFef1rNJDsTsRb-hKEx3vQq8?authuser=0&hl=en&rclk=1,"14.417940199999999,77.703653"
Masjid E Hamza,Mosque,"CPG7+97M Masjid E Hamza, Dharmavaram Rd, Kothapeta, Dharmavaram, Andhra Pradesh 515672",Kothapeta,"CPG7+97M, Dharmavaram Rd",Dharmavaram,515672,Andhra Pradesh,IN,https://www.google.com/maps/place/Masjid+E+Hamza/data=!4m7!3m6!1s0x3bb143e8cf177fd5:0x25cbc3e863a2b793!8m2!3d14.4259608!4d77.7131766!16s%2Fg%2F11g0ldnglt!19sChIJ1X8Xz-hDsTsRk7eiY-jDyyU?authuser=0&hl=en&rclk=1,"14.425960799999999,77.7131766"
Masjid E Ismail (Markaz) Madarasa e Misbahul uloom,Mosque,"Masjid E Ismail (Markaz) Madarasa e Misbahul uloom, MDR170, Akkpedianera, Dharmavaram, Andhra Pradesh 515671",Akkpedianera,MDR170,Dharmavaram,515671,Andhra Pradesh,IN,https://www.google.com/maps/place/Masjid+E+Ismail+%28Markaz%29+Madarasa+e+Misbahul+uloom/data=!4m7!3m6!1s0x3bb1437f8e567149:0x4b606ce967c2567b!8m2!3d14.4091553!4d77.7228655!16s%2Fg%2F11nn4l9b_l!19sChIJSXFWjn9DsTsRe1bCZ-lsYEs?authuser=0&hl=en&rclk=1,"14.4091553,77.7228655"
Masjid-E-Ali,Mosque,"CP44+GJW Masjid-E-Ali, Regadpalli, Dharmavaram, Andhra Pradesh 515671",Regadpalli,CP44+GJW,Dharmavaram,515671,Andhra Pradesh,IN,https://www.google.com/maps/place/Masjid-E-Ali/data=!4m7!3m6!1s0x3bb1434b9d5a9e59:0x8db4e5565270070!8m2!3d14.4063649!4d77.7065855!16s%2Fg%2F11sq1d7h8j!19sChIJWZ5anUtDsTsRcAAnZVVO2wg?authuser=0&hl=en&rclk=1,"14.4063649,77.7065855"
Farookiya MASJID,Mosque,"CMCV+VJ6 Farookiya MASJID, Pothukunta, Dharmavaram, Kunuthuru Rural, Andhra Pradesh 515672",Pothukunta,CMCV+VJ6,"Dharmavaram, Kunuthuru Rural",515672,Andhra Pradesh,IN,https://www.google.com/maps/place/Farookiya+MASJID/data=!4m7!3m6!1s0x3bb1438153e86fd1:0x9983558284d2d203!8m2!3d14.422164!4d77.694005!16s%2Fg%2F11f317fncb!19sChIJ0W_oU4FDsTsRA9LShIJVg5k?authuser=0&hl=en&rclk=1,"14.422163999999999,77.69400499999999"
Makkah Masjid,Mosque,"CPH5+6C8 Makkah Masjid, Tarakaramapuram, Dharmavaram, Andhra Pradesh 515672",Tarakaramapuram,CPH5+6C8,Dharmavaram,515672,Andhra Pradesh,IN,https://www.google.com/maps/place/Makkah+Masjid/data=!4m7!3m6!1s0x3bb143d26cd498fb:0xf612314ad1c9aaa7!8m2!3d14.428048!4d77.7085683!16s%2Fg%2F11rhqt93kd!19sChIJ-5jUbNJDsTsRp6rJ0UoxEvY?authuser=0&hl=en&rclk=1,"14.428047999999999,77.7085683"
Masjid E Chaandni,Mosque,"CPGG+MX5 Masjid E Chaandni, Shanthi Nagar, Dharmavaram, Andhra Pradesh 515672",Shanthi Nagar,CPGG+MX5,Dharmavaram,515672,Andhra Pradesh,IN,https://www.google.com/maps/place/Masjid+E+Chaandni/data=!4m7!3m6!1s0x3bb1432b199d3f3d:0x6e8f40e55670861f!8m2!3d14.4266264!4d77.727498!16s%2Fg%2F11ptv7dvh0!19sChIJPT-dGStDsTsRH4ZwVuVAj24?authuser=0&hl=en&rclk=1,"14.4266264,77.727498"
Masjid-E-Ansar,Mosque,"CPJ7+M8W Masjid-E-Ansar, Guttakindapalli, Dharmavaram, Andhra Pradesh 515672",Guttakindapalli,CPJ7+M8W,Dharmavaram,515672,Andhra Pradesh,IN,https://www.google.com/maps/place/Masjid-E-Ansar/data=!4m7!3m6!1s0x3bb14511a2851d7f:0xafb5d6b0f0a1cf39!8m2!3d14.4317482!4d77.7133216!16s%2Fg%2F11rr4rty97!19sChIJfx2FohFFsTsROc-h8LDWta8?authuser=0&hl=en&rclk=1,"14.4317482,77.7133216"
Masjid,Mosque,"CPC8+9CP Masjid, Lakshmi Nagar, Dharmavaram, Andhra Pradesh 515671",Lakshmi Nagar,CPC8+9CP,Dharmavaram,515671,Andhra Pradesh,IN,https://www.google.com/maps/place/Masjid/data=!4m7!3m6!1s0x3bb14303d0d7f281:0x30d03687255181b2!8m2!3d14.4206907!4d77.7161923!16s%2Fg%2F11s6l03r9j!19sChIJgfLX0ANDsTsRsoFRJYc20DA?authuser=0&hl=en&rclk=1,"14.4206907,77.7161923"
Mosque,Mosque,"CP79+FRF Mosque, Indiranagar, Dharmavaram, Andhra Pradesh 515671",Indiranagar,CP79+FRF,Dharmavaram,515671,Andhra Pradesh,IN,https://www.google.com/maps/place/Mosque/data=!4m7!3m6!1s0x3bb14369a7bfffff:0xb08ed0252a8aaf9c!8m2!3d14.4136888!4d77.7195439!16s%2Fg%2F11sscscqgv!19sChIJ__-_p2lDsTsRnK-KKiXQjrA?authuser=0&hl=en&rclk=1,"14.4136888,77.71954389999999"
