name,main_category,address,address_ward,address_street,address_city,address_postal_code,address_state,address_country_code,link,coordinates
Masjid Garib Namaz,Mosque,"4CX5+V8P Masjid Garib Namaz, Raahi Nagar, Firozabad, Uttar Pradesh 283203",Raahi Nagar,4CX5+V8P,Firozabad,283203,Uttar Pradesh,IN,https://www.google.com/maps/place/Masjid+Garib+Namaz/data=!4m7!3m6!1s0x397446981f71af99:0xf7f41b0046283b78!8m2!3d27.1497055!4d78.4083369!16s%2Fg%2F11d_v3ky8j!19sChIJma9xH5hGdDkReDsoRgAb9Pc?authuser=0&hl=en&rclk=1,"27.1497055,78.4083369"
Jama Masjid,Mosque,"592W+6WG Jama Masjid, Sadar Bazaar Rd, Rana Market, Near Jama Masjid, Sadar Baazar, Arya Nagar, Firozabad, Uttar Pradesh 283203","Rana Market, Near Jama Masjid, Sadar Baazar, Arya Nagar","592W+6WG, Sadar Bazaar Rd",Firozabad,283203,Uttar Pradesh,IN,https://www.google.com/maps/place/Jama+Masjid/data=!4m7!3m6!1s0x397446a513cd2675:0x9547b0312f800935!8m2!3d27.1505601!4d78.3973217!16s%2Fg%2F11b5yl42yb!19sChIJdSbNE6VGdDkRNQmALzGwR5U?authuser=0&hl=en&rclk=1,"27.1505601,78.39732169999999"
Wasiya Masjid,Mosque,"4CX6+P42 Wasiya Masjid, National Highway 2, Madina Colony, Firozabad, Uttar Pradesh 283203",Madina Colony,"4CX6+P42, National Highway 2",Firozabad,283203,Uttar Pradesh,IN,https://www.google.com/maps/place/Wasiya+Masjid/data=!4m7!3m6!1s0x39744697794f3201:0x6696450d9f3bb57a!8m2!3d27.1492671!4d78.4102746!16s%2Fg%2F1tfjp30z!19sChIJATJPeZdGdDkRerU7nw1FlmY?authuser=0&hl=en&rclk=1,"27.1492671,78.4102746"
Masjid Labour Colony,Mosque,"49XH+MW6 Masjid Labour Colony, Labour Colony, Firozabad, Uttar Pradesh 283203",Labour Colony,49XH+MW6,Firozabad,283203,Uttar Pradesh,IN,https://www.google.com/maps/place/Masjid+Labour+Colony/data=!4m7!3m6!1s0x39744152384d2e83:0xeb765ee4fa5bf22d!8m2!3d27.1491544!4d78.3797801!16s%2Fg%2F1tj29dr5!19sChIJgy5NOFJBdDkRLfJb-uRedus?authuser=0&hl=en&rclk=1,"27.1491544,78.37978009999999"
Masjid Aagha Sahab,Mosque,"4CX5+34Q Masjid Aagha Sahab, surcular road hajipura 283203, Hajipura Rd, near Hindi School, Firozabad, Uttar Pradesh 283203",Tilak Nagar,"4CX5+34Q, surcular road hajipura 283203, Hajipura Rd, near Hindi School",Firozabad,283203,Uttar Pradesh,IN,https://www.google.com/maps/place/Masjid+Aagha+Sahab/data=!4m7!3m6!1s0x397446bd72594179:0xed20809a787df876!8m2!3d27.1469798!4d78.4057471!16s%2Fg%2F11f12208x5!19sChIJeUFZcr1GdDkRdvh9eJqAIO0?authuser=0&hl=en&rclk=1,"27.1469798,78.4057471"
Madina Masjid,Mosque,"Madina Masjid, 157, Gali Number 8, Durga Nagar, Firozabad, Uttar Pradesh 283203",Durga Nagar,"157, Gali Number 8",Firozabad,283203,Uttar Pradesh,IN,https://www.google.com/maps/place/Madina+Masjid/data=!4m7!3m6!1s0x397446a27c9aacff:0xc39816735c90aaaa!8m2!3d27.1523144!4d78.4059906!16s%2Fg%2F1tgj_0t2!19sChIJ_6yafKJGdDkRqqqQXHMWmMM?authuser=0&hl=en&rclk=1,"27.152314399999998,78.4059906"
Fridous Masjid,Mosque,"Fridous Masjid, 12, Gali Bohran, Ram Nagar, Chharbag, Joshiyan Mohalla, Firozabad, Uttar Pradesh 283205","Ram Nagar, Chharbag, Joshiyan Mohalla","12, Gali Bohran",Firozabad,283205,Uttar Pradesh,IN,https://www.google.com/maps/place/Fridous+Masjid/data=!4m7!3m6!1s0x397446bb9e8b2951:0x251e0b056ed41446!8m2!3d27.1457116!4d78.4001323!16s%2Fg%2F11bz00wj23!19sChIJUSmLnrtGdDkRRhTUbgULHiU?authuser=0&hl=en&rclk=1,"27.1457116,78.4001323"
Masjid Ek Minara,Mosque,"Masjid Ek Minara, 4, Sadar Bazaar Rd, Shastri Market, Sadar Baazar, Purani Mandi, Firozabad, Uttar Pradesh 283203","Shastri Market, Sadar Baazar, Purani Mandi","4, Sadar Bazaar Rd",Firozabad,283203,Uttar Pradesh,IN,https://www.google.com/maps/place/Masjid+Ek+Minara/data=!4m7!3m6!1s0x397446a5786f3587:0xaf35b7069728336a!8m2!3d27.1512771!4d78.3961684!16s%2Fg%2F1tfn142h!19sChIJhzVveKVGdDkRajMolwa3Na8?authuser=0&hl=en&rclk=1,"27.151277099999998,78.3961684"
Masjid Ghalib Nagar,Mosque,"5C25+75V Masjid Ghalib Nagar, Ghalib Nagar, Raahi Nagar, Firozabad, Uttar Pradesh 283203","Ghalib Nagar, Raahi Nagar",5C25+75V,Firozabad,283203,Uttar Pradesh,IN,https://www.google.com/maps/place/Masjid+Ghalib+Nagar/data=!4m7!3m6!1s0x397446981309348d:0xc0f76e543557566f!8m2!3d27.150744!4d78.4079218!16s%2Fg%2F1tdzv3m3!19sChIJjTQJE5hGdDkRb1ZXNVRu98A?authuser=0&hl=en&rclk=1,"27.150744,78.4079218"
Masjid Ayesha,Mosque,"5C26+JF9 Masjid Ayesha, New Bypass Rd, Madina Colony, Firozabad, Uttar Pradesh 283203",Madina Colony,"5C26+JF9 Masjid Ayesha, New Bypass Rd",Firozabad,283203,Uttar Pradesh,IN,https://www.google.com/maps/place/Masjid+Ayesha/data=!4m7!3m6!1s0x39744699967bffff:0x15b7ac7eeca1e5a3!8m2!3d27.1515691!4d78.4114024!16s%2Fg%2F11cn942s5x!19sChIJ__97lplGdDkRo-Wh7H6stxU?authuser=0&hl=en&rclk=1,"27.1515691,78.4114024"
Masjid Kothi Nabiganj,Mosque,"4CW5+HRJ Masjid Kothi Nabiganj, Rasulpur, Firozabad, Uttar Pradesh 283203",Rasulpur,4CW5+HRJ,Firozabad,283203,Uttar Pradesh,IN,https://www.google.com/maps/place/Masjid+Kothi+Nabiganj/data=!4m7!3m6!1s0x39744696545cda1f:0x111869c49086bef5!8m2!3d27.1464698!4d78.4095278!16s%2Fg%2F11c6dc1cjh!19sChIJH9pcVJZGdDkR9b6GkMRpGBE?authuser=0&hl=en&rclk=1,"27.1464698,78.40952779999999"
Masjid Gausia chhidamul nagar,Mosque,"4CW7+CX3 Masjid Gausia chhidamul nagar, New Bypass Rd, Lalpur, Firozabad, Didamai, Uttar Pradesh 283203",Lalpur,"4CW7+CX3, New Bypass Rd","Firozabad, Didamai",283203,Uttar Pradesh,IN,https://www.google.com/maps/place/Masjid+Gausia+chhidamul+nagar/data=!4m7!3m6!1s0x397446910dd0320d:0xc01562d075ea0312!8m2!3d27.1460087!4d78.4149358!16s%2Fg%2F1tf5nmxg!19sChIJDTLQDZFGdDkREgPqddBiFcA?authuser=0&hl=en&rclk=1,"27.1460087,78.4149358"
Masjid Syed Ganj,Mosque,"Masjid Syed Ganj, Sayyed Ganj, 283203, Firozabad, Uttar Pradesh",Rasulpur,"Sayyed Ganj, 283203",Firozabad,,Uttar Pradesh,IN,https://www.google.com/maps/place/Masjid+Syed+Ganj/data=!4m7!3m6!1s0x39744697bc5c0abb:0x54378e727b0d08de!8m2!3d27.1478906!4d78.4088508!16s%2Fg%2F11g9qn5pxh!19sChIJuwpcvJdGdDkR3ggNe3KON1Q?authuser=0&hl=en&rclk=1,"27.1478906,78.4088508"
"Sabri Masjid, Mohalla Hussaini",Mosque,"Ward No.69, Sabri Masjid, Mohalla Hussaini, Ghalib Nagar, Tiraha, Raahi Nagar, Firozabad, Uttar Pradesh 283203","Ghalib Nagar, Tiraha, Raahi Nagar",Ward No.69,Firozabad,283203,Uttar Pradesh,IN,"https://www.google.com/maps/place/Sabri+Masjid,+Mohalla+Hussaini/data=!4m7!3m6!1s0x397446a2b1186d17:0xfcbe8d0ecd819e3c!8m2!3d27.1497147!4d78.4059711!16s%2Fg%2F11gdq0gkjc!19sChIJF20YsaJGdDkRPJ6BzQ6Nvvw?authuser=0&hl=en&rclk=1","27.1497147,78.4059711"
AL GOUSIYA MASJID,Mosque,"592G+3VF AL GOUSIYA MASJID, Labour Colony, Firozabad, Uttar Pradesh 283203",Labour Colony,592G+3VF,Firozabad,283203,Uttar Pradesh,IN,https://www.google.com/maps/place/AL+GOUSIYA+MASJID/data=!4m7!3m6!1s0x39744151735b0383:0x2f4247ac2c21ba5f!8m2!3d27.1501861!4d78.3771689!16s%2Fg%2F11f2xrcj10!19sChIJgwNbc1FBdDkRX7ohLKxHQi8?authuser=0&hl=en&rclk=1,"27.1501861,78.3771689"
Makkah Masjid,Mosque,"Makkah Masjid, h. no. 23, Gali Number 4, Raahi Nagar, Firozabad, Uttar Pradesh 283203",Raahi Nagar,"h. no. 23, Gali Number 4",Firozabad,283203,Uttar Pradesh,IN,https://www.google.com/maps/place/Makkah+Masjid/data=!4m7!3m6!1s0x397446a284eff3b1:0x10e9dae8f0e79b95!8m2!3d27.1511258!4d78.4056795!16s%2Fg%2F1td28r58!19sChIJsfPvhKJGdDkRlZvn8Oja6RA?authuser=0&hl=en&rclk=1,"27.1511258,78.40567949999999"
Banno Masjid,Mosque,"5C33+8G4 Banno Masjid, Sheetal Khan Road, Durga Nagar, Firozabad, Uttar Pradesh 283203",Durga Nagar,"5C33+8G4, Sheetal Khan Road",Firozabad,283203,Uttar Pradesh,IN,https://www.google.com/maps/place/Banno+Masjid/data=!4m7!3m6!1s0x397446a3b469889f:0xa5895adce8846ece!8m2!3d27.1532547!4d78.4038126!16s%2Fg%2F1tfc0f8p!19sChIJn4hptKNGdDkRzm6E6NxaiaU?authuser=0&hl=en&rclk=1,"27.153254699999998,78.4038126"
Masjid Fatima,Mosque,"592F+528 Masjid Fatima, Friends Colony, Firozabad, Uttar Pradesh 283203",Friends Colony,592F+528,Firozabad,283203,Uttar Pradesh,IN,https://www.google.com/maps/place/Masjid+Fatima/data=!4m7!3m6!1s0x3974415091555555:0xcb8ba03d4fc42f3!8m2!3d27.1504012!4d78.3725656!16s%2Fg%2F11g6r26tsw!19sChIJVVVVkVBBdDkR80L81AO6uAw?authuser=0&hl=en&rclk=1,"27.150401199999997,78.3725656"
Mohammadi Masjid,Mosque,"Mohammadi Masjid, 88/4, Gali No. 5, Adarash Nagar, Rasulpur, Firozabad, Uttar Pradesh 283203","Adarash Nagar, Rasulpur","88/4, Gali No. 5",Firozabad,283203,Uttar Pradesh,IN,https://www.google.com/maps/place/Mohammadi+Masjid/data=!4m7!3m6!1s0x397446bc5c79dbf3:0x9e19162355ea7885!8m2!3d27.1456483!4d78.4030482!16s%2Fg%2F12hklj9cw!19sChIJ89t5XLxGdDkRhXjqVSMWGZ4?authuser=0&hl=en&rclk=1,"27.145648299999998,78.4030482"
Masjid Hasnain,Mosque,"49WX+7HR Masjid Hasnain, Teela Road, near Urvashi Chouraha, Chharbag, Joshiyan Mohalla, Firozabad, Uttar Pradesh 283205","Chharbag, Joshiyan Mohalla","49WX+7HR, Teela Road, near Urvashi Chouraha",Firozabad,283205,Uttar Pradesh,IN,https://www.google.com/maps/place/Masjid+Hasnain/data=!4m7!3m6!1s0x397446bba9e9a737:0x439b7c7475f8900b!8m2!3d27.1457399!4d78.398876!16s%2Fg%2F11f3wckgd2!19sChIJN6fpqbtGdDkRC5D4dXR8m0M?authuser=0&hl=en&rclk=1,"27.1457399,78.398876"
Noor Mosque Of Katra Pathanan,Mosque,"592W+635 Noor Mosque Of Katra Pathanan, Katra Pathanan, Firozabad, Uttar Pradesh 283205",Katra Pathanan,592W+635,Firozabad,,Uttar Pradesh,IN,https://www.google.com/maps/place/Noor+Mosque+Of+Katra+Pathanan/data=!4m7!3m6!1s0x397446af8f4c8311:0x890f8ce05ad0f094!8m2!3d27.1505035!4d78.3952343!16s%2Fg%2F11gdrm6p3w!19sChIJEYNMj69GdDkRlPDQWuCMD4k?authuser=0&hl=en&rclk=1,"27.1505035,78.3952343"
Chistiya Masjid,Mosque,"Chistiya Masjid, Chisti nagar, 283203, Kashmiri Gate Rd, Kashmiri Gate, Firozabad, Uttar Pradesh 283203",Kashmiri Gate,"Chisti nagar, 283203, Kashmiri Gate Rd",Firozabad,283203,Uttar Pradesh,IN,https://www.google.com/maps/place/Chistiya+Masjid/data=!4m7!3m6!1s0x3974469db4d9102b:0xfe3439d20eec8e5a!8m2!3d27.1587393!4d78.4142739!16s%2Fg%2F11fy_qfhrn!19sChIJKxDZtJ1GdDkRWo7sDtI5NP4?authuser=0&hl=en&rclk=1,"27.158739299999997,78.4142739"
Masjid mohalla husaini,Mosque,"4CX3+WH7 Masjid mohalla husaini, Circular Rd, Sadar Bazaar Rd, Raahi Nagar, Firozabad, Uttar Pradesh 283203","Sadar Baazar, Raahi Nagar","4CX3+WH7, Circular Rd, Sadar Bazaar Rd",Firozabad,283203,Uttar Pradesh,IN,https://www.google.com/maps/place/Masjid+mohalla+husaini/data=!4m7!3m6!1s0x39744748c76a054f:0xd3902f52c92380f3!8m2!3d27.1497829!4d78.4039282!16s%2Fg%2F11fkf20_8c!19sChIJTwVqx0hHdDkR84AjyVIvkNM?authuser=0&hl=en&rclk=1,"27.149782899999998,78.4039282"
Sheikhlatif Masjid,Mosque,"4CX2+M88 Sheikhlatif Masjid, near imambada, Mohalla Bagiya, Sadar Baazar, Purani Mandi, Firozabad, Uttar Pradesh 283203","Mohalla Bagiya, Sadar Baazar, Purani Mandi","4CX2+M88, near imambada",Firozabad,283203,Uttar Pradesh,IN,https://www.google.com/maps/place/Sheikhlatif+Masjid/data=!4m7!3m6!1s0x397446a4b72993f7:0x7cf91b44180be581!8m2!3d27.1491645!4d78.4008265!16s%2Fg%2F11cktsy8pm!19sChIJ95Mpt6RGdDkRgeULGEQb-Xw?authuser=0&hl=en&rclk=1,"27.149164499999998,78.4008265"
Masjid Gulzar-E-Madina,Mosque,"5C5F+2P7 Masjid Gulzar-E-Madina, Azad Nagaar, Firozabad, Didamai, Uttar Pradesh 283203",Azad Nagaar,5C5F+2P7,"Firozabad, Didamai",283203,Uttar Pradesh,IN,https://www.google.com/maps/place/Masjid+Gulzar-E-Madina/data=!4m7!3m6!1s0x397446815974bd5d:0xdd8e01ac5fa414b9!8m2!3d27.15754!4d78.4243056!16s%2Fg%2F1hm3nrqgk!19sChIJXb10WYFGdDkRuRSkX6wBjt0?authuser=0&hl=en&rclk=1,"27.157539999999997,78.4243056"
Makbara Firoz Shah And Masjid,Mosque,"594R+57C Makbara Firoz Shah And Masjid, Agra Gate, Near Bus Stand, Islam Ganj, Comapny Baag, Arya Nagar, Firozabad, Uttar Pradesh 283203","Islam Ganj, Comapny Baag, Arya Nagar","594R+57C, Agra Gate, Near Bus Stand",Firozabad,283203,Uttar Pradesh,IN,https://www.google.com/maps/place/Makbara+Firoz+Shah+And+Masjid/data=!4m7!3m6!1s0x397446a967d36fff:0xbc3f6cc647352c20!8m2!3d27.1554275!4d78.3906293!16s%2Fg%2F11b5z2zhgk!19sChIJ_2_TZ6lGdDkRICw1R8ZsP7w?authuser=0&hl=en&rclk=1,"27.1554275,78.3906293"
MAKHDUMIYA MASJID 16 f.t. road,Mosque,"5C29+55M MAKHDUMIYA MASJID 16 f.t. road, 16 futa road ramgarh purana thane ke samne, Madina Colony, Firozabad, Uttar Pradesh 283203",Madina Colony,"5C29+55M, 16 futa road ramgarh purana thane ke samne","Firozabad, Didamai",283203,Uttar Pradesh,IN,https://www.google.com/maps/place/MAKHDUMIYA+MASJID+16+f.t.+road/data=!4m7!3m6!1s0x397447cbf8e004c3:0xa9828178b8761fa0!8m2!3d27.1500626!4d78.418141!16s%2Fg%2F11f7b3fybd!19sChIJwwTg-MtHdDkRoB92uHiBgqk?authuser=0&hl=en&rclk=1,"27.1500626,78.41814099999999"
Masjid Pyare nabi,Mosque,"Masjid Pyare nabi, madni park, 16, Futa Rd, Habib Ganj, Firozabad, Didamai, Uttar Pradesh 283203",Habib Ganj,"madni park, 16, Futa Rd","Firozabad, Didamai",283203,Uttar Pradesh,IN,https://www.google.com/maps/place/Masjid+Pyare+nabi/data=!4m7!3m6!1s0x39744798b5fe44a5:0xb4d2d17cddc0f170!8m2!3d27.1508952!4d78.4174765!16s%2Fg%2F11r8cz0cjl!19sChIJpUT-tZhHdDkRcPHA3XzR0rQ?authuser=0&hl=en&rclk=1,"27.150895199999997,78.41747649999999"
Tayyaba Masjid,Mosque,"5C2F+F85 Tayyaba Masjid, New Bypass Rd, Azad Nagaar, Firozabad, Didamai, Uttar Pradesh 283203",Azad Nagaar,"5C2F+F85, New Bypass Rd","Firozabad, Didamai",283203,Uttar Pradesh,IN,https://www.google.com/maps/place/Tayyaba+Masjid/data=!4m7!3m6!1s0x39744685fa100d77:0xa47e2d172ef751c6!8m2!3d27.1511497!4d78.4233713!16s%2Fg%2F1hjh1l7jq!19sChIJdw0Q-oVGdDkRxlH3LhctfqQ?authuser=0&hl=en&rclk=1,"27.151149699999998,78.4233713"
Sabra Masjid Ahle Sunnat Wa Jama'at,Mosque,"Sabra Masjid Ahle Sunnat Wa Jama'at, Thana Ramgarh, DEEDAMAI, Firozabad, 283203",Madina Colony,"Thana Ramgarh, DEEDAMAI","Firozabad, Didamai",283203,Uttar Pradesh,IN,https://www.google.com/maps/place/Sabra+Masjid+Ahle+Sunnat+Wa+Jama%27at/data=!4m7!3m6!1s0x3974473c831b609f:0xcf1c5f74ad9c8317!8m2!3d27.1541588!4d78.4190068!16s%2Fg%2F11f779qfp7!19sChIJn2AbgzxHdDkRF4OcrXRfHM8?authuser=0&hl=en&rclk=1,"27.154158799999998,78.41900679999999"
Masjid Muhammadpur,Mosque,"5C23+852 Masjid Muhammadpur, Circular Rd, Sadar Baazar, Purani Mandi, Firozabad, Uttar Pradesh 283203","Sadar Baazar, Purani Mandi","5C23+852, Circular Rd",Firozabad,283203,Uttar Pradesh,IN,https://www.google.com/maps/place/Masjid+Muhammadpur/data=!4m7!3m6!1s0x397446a313f52fe9:0x7b9cdf3079382b6a!8m2!3d27.1507726!4d78.4028846!16s%2Fg%2F1tfq31ht!19sChIJ6S_1E6NGdDkRais4eTDfnHs?authuser=0&hl=en&rclk=1,"27.1507726,78.4028846"
Bagdadiya Masjid,Pharmacy,"Bagdadiya Masjid, Bagdad nagar, Lalpur, Firozabad, Didamai, Uttar Pradesh 283203",Lalpur,Bagdad nagar,"Firozabad, Didamai",283203,Uttar Pradesh,IN,https://www.google.com/maps/place/Bagdadiya+Masjid/data=!4m7!3m6!1s0x3974469156e4256f:0x84123b76221e9c3a!8m2!3d27.1443714!4d78.4131854!16s%2Fg%2F11g8sgf18z!19sChIJbyXkVpFGdDkROpweInY7EoQ?authuser=0&hl=en&rclk=1,"27.144371399999997,78.4131854"
Masjid Ameen,Mosque,"5C59+725 Masjid Ameen, bmbaa rodd, Abbas Nagar, Firozabad, Uttar Pradesh 283203",Abbas Nagar,"5C59+725, bmbaa rodd",Firozabad,283203,Uttar Pradesh,IN,https://www.google.com/maps/place/Masjid+Ameen/data=!4m7!3m6!1s0x397447d8294566e3:0x82f5dbe5ed3f18dc!8m2!3d27.1581305!4d78.4175963!16s%2Fg%2F11gy1lp4pd!19sChIJ42ZFKdhHdDkR3Bg_7eXb9YI?authuser=0&hl=en&rclk=1,"27.1581305,78.4175963"
Meva Farosean Masjid,Mosque,"4CX2+4FG Meva Farosean Masjid, Sadar Bazaar Rd, Opposite Lucky Hotel, Sadar Baazar, Joshiyan Mohalla, Firozabad, Uttar Pradesh 283203","Opposite Lucky Hotel, Sadar Baazar, Joshiyan Mohalla","4CX2+4FG, Sadar Bazaar Rd",Firozabad,283203,Uttar Pradesh,IN,https://www.google.com/maps/place/Meva+Farosean+Masjid/data=!4m7!3m6!1s0x397446bb58efd3db:0xafcafcbb2d717e34!8m2!3d27.147822!4d78.4011931!16s%2Fg%2F1tfyzjjv!19sChIJ29PvWLtGdDkRNH5xLbv8yq8?authuser=0&hl=en&rclk=1,"27.147821999999998,78.4011931"
Masjid Ameen-e-Shams,Mosque,"4CX5+H28 Masjid Ameen-e-Shams, Jatavpuri, Tilak Nagar, Firozabad, Uttar Pradesh 283203","Jatavpuri, Tilak Nagar",4CX5+H28,Firozabad,283203,Uttar Pradesh,IN,https://www.google.com/maps/place/Masjid+Ameen-e-Shams/data=!4m7!3m6!1s0x39744697fa6ee617:0x98e85de743d7dcf0!8m2!3d27.1489163!4d78.4075746!16s%2Fg%2F1v_z2r7f!19sChIJF-Zu-pdGdDkR8NzXQ-dd6Jg?authuser=0&hl=en&rclk=1,"27.1489163,78.40757459999999"
Masjid Rahmat,Mosque,"4CW6+M94 Masjid Rahmat, Jatab Puri Crossing, Rasulpur, Firozabad, Uttar Pradesh 283203","Jatab Puri Crossing, Rasulpur",4CW6+M94,Firozabad,283203,Uttar Pradesh,IN,https://www.google.com/maps/place/Masjid+Rahmat/data=!4m7!3m6!1s0x39744696e1b9c083:0xe4c27e00e31c4901!8m2!3d27.1466356!4d78.4109431!16s%2Fg%2F11c6dffbpt!19sChIJg8C54ZZGdDkRAUkc4wB-wuQ?authuser=0&hl=en&rclk=1,"27.1466356,78.4109431"
Hajipura,Mosque,"Hajipura, Masjid Aghasahab, Circular Rd, Sadar Baazar, Tilak Nagar, Firozabad, Uttar Pradesh 283203","Sadar Baazar, Tilak Nagar","Masjid Aghasahab, Circular Rd",Firozabad,283203,Uttar Pradesh,IN,https://www.google.com/maps/place/Hajipura/data=!4m7!3m6!1s0x397447e58dc51889:0xa0829d374f64f703!8m2!3d27.1477699!4d78.4052014!16s%2Fg%2F11llm067m8!19sChIJiRjFjeVHdDkRA_dkTzedgqA?authuser=0&hl=en&rclk=1,"27.1477699,78.4052014"
Masjid Altaaf,Community center,"Masjid Altaaf, Masjid, datondi kala, near primary pathshala, Firozabad, Uttar Pradesh 283203",,"Masjid, datondi kala, near primary pathshala",Firozabad,283203,Uttar Pradesh,IN,https://www.google.com/maps/place/Masjid+Altaaf/data=!4m7!3m6!1s0x3974413367fb40e7:0x337ee263edeef452!8m2!3d27.1505688!4d78.3753661!16s%2Fg%2F11jcmzck02!19sChIJ50D7ZzNBdDkRUvTu7WPifjM?authuser=0&hl=en&rclk=1,"27.1505688,78.3753661"
Farooqui Masjid,Mosque,"4CX2+77M Farooqui Masjid, Sadar Bazaar Rd, Mohalla Bagiya, Sadar Baazar, Purani Mandi, Firozabad, Uttar Pradesh 283203","Mohalla Bagiya, Sadar Baazar, Purani Mandi","4CX2+77M, Sadar Bazaar Rd",Firozabad,283203,Uttar Pradesh,IN,https://www.google.com/maps/place/Farooqui+Masjid/data=!4m7!3m6!1s0x397446bb502551f7:0xdcf5d4ee47281de0!8m2!3d27.1482216!4d78.4006719!16s%2Fg%2F1pwfcxhr7!19sChIJ91ElULtGdDkR4B0oR-7U9dw?authuser=0&hl=en&rclk=1,"27.1482216,78.40067189999999"
Masjid Khajur Wali,Mosque,"4CW2+WPV Masjid Khajur Wali, Sadar Bazaar Rd, Mohalla Sheshgran, Chharbag, Mohalla nala, Firozabad, Uttar Pradesh 283205","Mohalla Sheshgran, Chharbag, Mohalla nala","4CW2+WPV, Sadar Bazaar Rd",Firozabad,,Uttar Pradesh,IN,https://www.google.com/maps/place/Masjid+Khajur+Wali/data=!4m7!3m6!1s0x397447ae7e667cc9:0x343db67ffda32b0f!8m2!3d27.1473641!4d78.4017929!16s%2Fg%2F11g_zxtp5w!19sChIJyXxmfq5HdDkRDyuj_X-2PTQ?authuser=0&hl=en&rclk=1,"27.147364099999997,78.40179289999999"
Jannati Masjid,Mosque,"5C27+MWW Jannati Masjid, Ramgarh Rd, Madina Colony, Firozabad, Didamai, Uttar Pradesh 283203",Madina Colony,"5C27+MWW, Ramgarh Rd","Firozabad, Didamai",283203,Uttar Pradesh,IN,https://www.google.com/maps/place/Jannati+Masjid/data=!4m7!3m6!1s0x3974469a5caddb4d:0x6acee11dbc6737de!8m2!3d27.1517456!4d78.4148391!16s%2Fg%2F11f57wwp3q!19sChIJTdutXJpGdDkR3jdnvB3hzmo?authuser=0&hl=en&rclk=1,"27.151745599999998,78.4148391"
Iram Masjid,Mosque,"4CW3+639 Iram Masjid, Adarash Nagar, Rasulpur, Firozabad, Uttar Pradesh 283203","Adarash Nagar, Rasulpur",4CW3+639,Firozabad,283203,Uttar Pradesh,IN,https://www.google.com/maps/place/Iram+Masjid/data=!4m7!3m6!1s0x3974473bb8160107:0x94b0ce053e993e9e!8m2!3d27.1455363!4d78.4027456!16s%2Fg%2F11flmk_jm0!19sChIJBwEWuDtHdDkRnj6ZPgXOsJQ?authuser=0&hl=en&rclk=1,"27.1455363,78.4027456"
nasir shah mosque,Mosque,"49WX+X2X nasir shah mosque, Joshiyan Mohalla, Firozabad, Uttar Pradesh 283205",Joshiyan Mohalla,49WX+X2X,Firozabad,283205,Uttar Pradesh,IN,https://www.google.com/maps/place/nasir+shah+mosque/data=!4m7!3m6!1s0x397446bac3630105:0xdf165c81c69b510a!8m2!3d27.1474948!4d78.3976084!16s%2Fg%2F11c54fhfr3!19sChIJBQFjw7pGdDkRClGbxoFcFt8?authuser=0&hl=en&rclk=1,"27.1474948,78.3976084"
Masjid Haji Hafeez Khan,Mosque,"49VX+X6C Masjid Haji Hafeez Khan, Mohalla Teela, Joshiyan Mohalla, Firozabad, Uttar Pradesh 283203","Mohalla Teela, Joshiyan Mohalla",49VX+X6C,Firozabad,283203,Uttar Pradesh,IN,https://www.google.com/maps/place/Masjid+Haji+Hafeez+Khan/data=!4m7!3m6!1s0x397446ba4e46e5bd:0x329db39e38b2a501!8m2!3d27.1449331!4d78.3980055!16s%2Fg%2F11f_0p6cvf!19sChIJveVGTrpGdDkRAaWyOJ6znTI?authuser=0&hl=en&rclk=1,"27.1449331,78.3980055"
Bibi Masjid,Mosque,"Bibi Masjid, Unnamed Road, Kashmiri Gate, Firozabad, Uttar Pradesh 283203",Kashmiri Gate,Unnamed Road,Firozabad,283203,Uttar Pradesh,IN,https://www.google.com/maps/place/Bibi+Masjid/data=!4m7!3m6!1s0x3974471d3daead89:0x11f64734b9ad9cd1!8m2!3d27.1584053!4d78.4149174!16s%2Fg%2F11ffm1rdtr!19sChIJia2uPR1HdDkR0ZytuTRH9hE?authuser=0&hl=en&rclk=1,"27.1584053,78.4149174"
Masjid Raza,Mosque,"4CW5+H9H Masjid Raza, Rasulpur, Firozabad, Uttar Pradesh 283203",Rasulpur,4CW5+H9H,Firozabad,283203,Uttar Pradesh,IN,https://www.google.com/maps/place/Masjid+Raza/data=!4m7!3m6!1s0x39744778a3ce1227:0xd87bc3d7e0ca6f16!8m2!3d27.1464318!4d78.4084787!16s%2Fg%2F11h5c7kgxy!19sChIJJxLOo3hHdDkRFm_K4NfDe9g?authuser=0&hl=en&rclk=1,"27.1464318,78.4084787"
Rehmania Masjid,Mosque,"4CR9+QF2 Rehmania Masjid, Lalpur, Firozabad, Uttar Pradesh 283203",Lalpur,4CR9+QF2,Firozabad,283203,Uttar Pradesh,IN,https://www.google.com/maps/place/Rehmania+Masjid/data=!4m7!3m6!1s0x3974478cb17a60af:0xc5b47cf3fcfb12b5!8m2!3d27.1418864!4d78.4186409!16s%2Fg%2F11g2xnfhdc!19sChIJr2B6sYxHdDkRtRL7_PN8tMU?authuser=0&hl=en&rclk=1,"27.141886399999997,78.4186409"
Masjid Badar. Zeeshan Khan,Mosque,"5C28+X63 Masjid Badar. Zeeshan Khan, Madina Colony, Firozabad, Didamai, Uttar Pradesh 283203",Madina Colony,5C28+X63,"Firozabad, Didamai",283203,Uttar Pradesh,IN,https://www.google.com/maps/place/Masjid+Badar.+Zeeshan+Khan/data=!4m7!3m6!1s0x3974469a57d4fecf:0x72e6e860de0ae219!8m2!3d27.1523975!4d78.4155317!16s%2Fg%2F1hm1z3c4l!19sChIJz_7UV5pGdDkRGeIK3mDo5nI?authuser=0&hl=en&rclk=1,"27.1523975,78.4155317"
Muqaddis Masjid,Mosque,"Muqaddis Masjid, Kashmiri Gate, Firozabad, Uttar Pradesh 283203",Kashmiri Gate,,Firozabad,,Uttar Pradesh,IN,https://www.google.com/maps/place/Muqaddis+Masjid/data=!4m7!3m6!1s0x39744698eaf3b47d:0x48f07a946e7ade8!8m2!3d27.1526199!4d78.4094882!16s%2Fg%2F1v46yrwl!19sChIJfbTz6phGdDkR6K3nRqkHjwQ?authuser=0&hl=en&rclk=1,"27.152619899999998,78.4094882"
Masjid Khadija,Mosque,"Masjid Khadija, New Bypass, Azad Nagaar, Firozabad, Didamai, Uttar Pradesh 283203",Azad Nagaar,New Bypass,"Firozabad, Didamai",283203,Uttar Pradesh,IN,https://www.google.com/maps/place/Masjid+Khadija/data=!4m7!3m6!1s0x39744684f5d6a6f7:0xf68bc8ea00e339ae!8m2!3d27.1545506!4d78.4210351!16s%2Fg%2F1hm5q6rg9!19sChIJ96bW9YRGdDkRrjnjAOrIi_Y?authuser=0&hl=en&rclk=1,"27.1545506,78.4210351"
Allahwali Masjid,Mosque,"5C48+42W Allahwali Masjid, Kohinoor Rd, Kashmiri Gate, Firozabad, Didamai, Uttar Pradesh 283203",Kashmiri Gate,"5C48+42W, Kohinoor Rd","Firozabad, Didamai",283203,Uttar Pradesh,IN,https://www.google.com/maps/place/Allahwali+Masjid/data=!4m7!3m6!1s0x3974469b8465fec7:0x2f7a39b7d5bd96bf!8m2!3d27.1553553!4d78.415077!16s%2Fg%2F1tf6f0yh!19sChIJx_5lhJtGdDkRv5a91bc5ei8?authuser=0&hl=en&rclk=1,"27.1553553,78.415077"
masjid maniharan,Mosque,"4CX3+7C7 masjid maniharan, Sadar Baazar, jhamaiya tola, Firozabad, Uttar Pradesh 283203","Sadar Baazar, jhamaiya tola",4CX3+7C7,Firozabad,283203,Uttar Pradesh,IN,https://www.google.com/maps/place/masjid+maniharan/data=!4m7!3m6!1s0x397446bcdb1bf2c5:0x9a206baa7f09e484!8m2!3d27.1481571!4d78.4035352!16s%2Fg%2F11hczzf4vn!19sChIJxfIb27xGdDkRhOQJf6prIJo?authuser=0&hl=en&rclk=1,"27.1481571,78.4035352"
Masjid Gose Raja,Mosque,"Masjid Gose Raja, Unnamed Road, Azad Nagaar, Firozabad, Didamai, Uttar Pradesh 283203",Azad Nagaar,Unnamed Road,"Firozabad, Didamai",283203,Uttar Pradesh,IN,https://www.google.com/maps/place/Masjid+Gose+Raja/data=!4m7!3m6!1s0x397447d853381941:0x679313acb365031!8m2!3d27.1513902!4d78.4199663!16s%2Fg%2F11h_d7dnqn!19sChIJQRk4U9hHdDkRMVA2yzoxeQY?authuser=0&hl=en&rclk=1,"27.151390199999998,78.4199663"
Badi Masjid,Mosque,"4CX2+PP7 Badi Masjid, Sheeshgran Rd, mohalla, Sadar Baazar, Purani Mandi, Firozabad, Uttar Pradesh 283203","mohalla, Sadar Baazar, Purani Mandi","4CX2+PP7, Sheeshgran Rd",Firozabad,283203,Uttar Pradesh,IN,https://www.google.com/maps/place/Badi+Masjid/data=!4m7!3m6!1s0x397446a353d6f465:0x593255320cf4225f!8m2!3d27.1492973!4d78.4017937!16s%2Fg%2F11ggpjr5kn!19sChIJZfTWU6NGdDkRXyL0DDJVMlk?authuser=0&hl=en&rclk=1,"27.149297299999997,78.4017937"
Masjid-E-Khair,Mosque,"5C35+623 Masjid-E-Khair, Kashmiri Gate, Firozabad, Uttar Pradesh 283203",Kashmiri Gate,5C35+623,Firozabad,283203,Uttar Pradesh,IN,https://www.google.com/maps/place/Masjid-E-Khair/data=!4m7!3m6!1s0x39744698853a9fd5:0x7aff1370aabcebe9!8m2!3d27.1530017!4d78.407557!16s%2Fg%2F1hm28h_rd!19sChIJ1Z86hZhGdDkR6eu8qnAT_3o?authuser=0&hl=en&rclk=1,"27.153001699999997,78.407557"
Khairul Masaajid,Mosque,"5C35+625 Khairul Masaajid, Kashmiri Gate, Firozabad, Uttar Pradesh 283203",Kashmiri Gate,5C35+625,Firozabad,283203,Uttar Pradesh,IN,https://www.google.com/maps/place/Khairul+Masaajid/data=!4m7!3m6!1s0x3974469885480b9b:0x60c35014cb265484!8m2!3d27.1530065!4d78.4075999!16s%2Fg%2F1tfb9k9r!19sChIJmwtIhZhGdDkRhFQmyxRQw2A?authuser=0&hl=en&rclk=1,"27.1530065,78.4075999"
Masjid Nalbandan,Mosque,"4CW3+V7H Masjid Nalbandan, Sadar Bazaar Rd, Mohalla Bagiya, Sadar Baazar, Purani Mandi, Firozabad, Uttar Pradesh 283203","Mohalla Bagiya, Sadar Baazar, Purani Mandi","4CW3+V7H, Sadar Bazaar Rd",Firozabad,283203,Uttar Pradesh,IN,https://www.google.com/maps/place/Masjid+Nalbandan/data=!4m7!3m6!1s0x397447a0db59d941:0x916dd7a406304263!8m2!3d27.1471845!4d78.403236!16s%2Fg%2F11qq00ckn6!19sChIJQdlZ26BHdDkRY0IwBqTXbZE?authuser=0&hl=en&rclk=1,"27.147184499999998,78.40323599999999"
Hazrat Bilal masjid,Mosque,"4CV4+MRX Hazrat Bilal masjid, Rasulpur, Firozabad, Uttar Pradesh 283203",Rasulpur,4CV4+MRX,Firozabad,283203,Uttar Pradesh,IN,https://www.google.com/maps/place/Hazrat+Bilal+masjid/data=!4m7!3m6!1s0x397447e6d02696a3:0x9ead5d00f5c864d9!8m2!3d27.1442312!4d78.4071172!16s%2Fg%2F11n15lg1nx!19sChIJo5Ym0OZHdDkR2WTI9QBdrZ4?authuser=0&hl=en&rclk=1,"27.1442312,78.4071172"
Masjid panjetan Pak,Mosque,"5C37+JV5 Masjid panjetan Pak, Kohinoor Rd, Kashmiri Gate, Firozabad, Didamai, Uttar Pradesh 283203",Kashmiri Gate,"5C37+JV5, Kohinoor Rd","Firozabad, Didamai",283203,Uttar Pradesh,IN,https://www.google.com/maps/place/Masjid+panjetan+Pak/data=!4m7!3m6!1s0x3974475fc2a2e323:0xa15c2dd3120fd873!8m2!3d27.1540239!4d78.4147333!16s%2Fg%2F11hdt51wq2!19sChIJI-Oiwl9HdDkRc9gPEtMtXKE?authuser=0&hl=en&rclk=1,"27.1540239,78.4147333"
Shahi Masjid,Mosque,"49XW+R7V Shahi Masjid, Bartan Wali Gali, Joshiyan Mohalla, Firozabad, Uttar Pradesh 283205",Joshiyan Mohalla,"49XW+R7V, Bartan Wali Gali",Firozabad,283205,Uttar Pradesh,IN,https://www.google.com/maps/place/Shahi+Masjid/data=!4m7!3m6!1s0x397446a55f400001:0x6d48115d749573f5!8m2!3d27.1496117!4d78.3956874!16s%2Fg%2F11kj3f3zy7!19sChIJAQBAX6VGdDkR9XOVdF0RSG0?authuser=0&hl=en&rclk=1,"27.149611699999998,78.3956874"
masjid railway station,Mosque,"49XP+HF5 masjid railway station, Station Rd, Devnagar, Nai Basti, Firozabad, Uttar Pradesh 283203","Devnagar, Nai Basti","49XP+HF5, Station Rd",Firozabad,283203,Uttar Pradesh,IN,https://www.google.com/maps/place/masjid+railway+station/data=!4m7!3m6!1s0x397447cdc96594db:0x36b9b2b4359f4d9a!8m2!3d27.1488999!4d78.3862427!16s%2Fg%2F11h1yts9dp!19sChIJ25Rlyc1HdDkRmk2fNbSyuTY?authuser=0&hl=en&rclk=1,"27.1488999,78.3862427"
Iqra masjid,Mosque,"5C28+9W2 Iqra masjid, Madina Colony, Didamai, Uttar Pradesh 283203",Madina Colony,5C28+9W2,Didamai,283203,Uttar Pradesh,IN,https://www.google.com/maps/place/Iqra+masjid/data=!4m7!3m6!1s0x397447824757c569:0xb120ae1046f8e891!8m2!3d27.1508753!4d78.4172558!16s%2Fg%2F11kypgnw4r!19sChIJacVXR4JHdDkRkej4RhCuILE?authuser=0&hl=en&rclk=1,"27.1508753,78.41725579999999"
Masjid jeenatul firdous,Mosque,"5C37+PRM Masjid jeenatul firdous, Kashmiri Gate, Firozabad, Didamai, Uttar Pradesh 283203",Kashmiri Gate,5C37+PRM,"Firozabad, Didamai",283203,Uttar Pradesh,IN,https://www.google.com/maps/place/Masjid+jeenatul+firdous/data=!4m7!3m6!1s0x39744739391b5531:0x136645edf5976bbe!8m2!3d27.1543467!4d78.414545!16s%2Fg%2F11j5v1d1j2!19sChIJMVUbOTlHdDkRvmuX9e1FZhM?authuser=0&hl=en&rclk=1,"27.154346699999998,78.41454499999999"
Masjid Hasan Hussain,Mosque,"Masjid Hasan Hussain, Kareemganj, Jatavpuri, Kareemganj, Firozabad, Uttar Pradesh 283203","Jatavpuri, Kareemganj",Kareemganj,Firozabad,283203,Uttar Pradesh,IN,https://www.google.com/maps/place/Masjid+Hasan+Hussain/data=!4m7!3m6!1s0x39744735dfaff633:0x432a484da1bbcf97!8m2!3d27.1481031!4d78.4112391!16s%2Fg%2F11q7zmkdh7!19sChIJM_av3zVHdDkRl8-7oU1IKkM?authuser=0&hl=en&rclk=1,"27.1481031,78.4112391"
Masjid umar,Mosque,"5C36+9VC Masjid umar, Kohinoor Rd, Jatavpuri, Kashmiri Gate, Firozabad, Uttar Pradesh 283203","Jatavpuri, Kashmiri Gate","5C36+9VC, Kohinoor Rd",Firozabad,283203,Uttar Pradesh,IN,https://www.google.com/maps/place/Masjid+umar/data=!4m7!3m6!1s0x39744792b8340f63:0x48db1d46e9e7e5f2!8m2!3d27.1534477!4d78.4121457!16s%2Fg%2F11kw430hs3!19sChIJYw80uJJHdDkR8uXn6UYd20g?authuser=0&hl=en&rclk=1,"27.153447699999997,78.4121457"
Mustafai masjid W.A.S,Mosque,"4CX9+HRF Mustafai masjid W.A.S, Lalpur, Firozabad, Didamai, Uttar Pradesh 283203",Lalpur,4CX9+HRF,"Firozabad, Didamai",283203,Uttar Pradesh,IN,https://www.google.com/maps/place/Mustafai+masjid+W.A.S/data=!4m7!3m6!1s0x397447a79696ce33:0x57a610de15929828!8m2!3d27.1489337!4d78.4195577!16s%2Fg%2F11tdbhw07_!19sChIJM86WlqdHdDkRKJiSFd4Qplc?authuser=0&hl=en&rclk=1,"27.148933699999997,78.4195577"
Jannati masjid,Mosque,"5C28+XQ5 Jannati masjid, Madina Colony, Firozabad, Didamai, Uttar Pradesh 283203",Madina Colony,5C28+XQ5,"Firozabad, Didamai",283203,Uttar Pradesh,IN,https://www.google.com/maps/place/Jannati+masjid/data=!4m7!3m6!1s0x3974479c893180eb:0xd3bad275a5a1be25!8m2!3d27.1523991!4d78.4169843!16s%2Fg%2F11h48v2kck!19sChIJ64AxiZxHdDkRJb6hpXXSutM?authuser=0&hl=en&rclk=1,"27.1523991,78.4169843"
Masjid barkaatiya,Mosque,"4CW6+992 Masjid barkaatiya, Agra Rd, Jatab Puri Crossing, Rasulpur, Firozabad, Uttar Pradesh 283203","Jatab Puri Crossing, Rasulpur","4CW6+992, Agra Rd",Firozabad,283203,Uttar Pradesh,IN,https://www.google.com/maps/place/Masjid+barkaatiya/data=!4m7!3m6!1s0x397447d1e5483e2d:0x6d1b1886f1dfd6b6!8m2!3d27.1458996!4d78.4108819!16s%2Fg%2F11rx381mcp!19sChIJLT5I5dFHdDkRttbf8YYYG20?authuser=0&hl=en&rclk=1,"27.1458996,78.41088189999999"
Abdul ghafur Noor masjid,Mosque,"4CW4+2C5 Abdul ghafur Noor masjid, Rasulpur, Firozabad, Uttar Pradesh 283203",Rasulpur,4CW4+2C5,Firozabad,283203,Uttar Pradesh,IN,https://www.google.com/maps/place/Abdul+ghafur+Noor+masjid/data=!4m7!3m6!1s0x3974477325a851a3:0x2b3a3bfe7c3c2d18!8m2!3d27.1449926!4d78.4061407!16s%2Fg%2F11rz7n0scq!19sChIJo1GoJXNHdDkRGC08fP47Ois?authuser=0&hl=en&rclk=1,"27.1449926,78.4061407"
SUNNI NURI MASJID TAWIZAT ATTARIA RUHANI ELAJ,Mosque,"5C47+7HF SUNNI NURI MASJID TAWIZAT ATTARIA RUHANI ELAJ, Kohinoor Rd, Kashmiri Gate, Firozabad, Uttar Pradesh 283203",Kashmiri Gate,"5C47+7HF, Kohinoor Rd",Firozabad,283203,Uttar Pradesh,IN,https://www.google.com/maps/place/SUNNI+NURI+MASJID+TAWIZAT+ATTARIA+RUHANI+ELAJ/data=!4m7!3m6!1s0x397447f7e49ad38b:0x6c534bd3dc6525be!8m2!3d27.1556941!4d78.4139219!16s%2Fg%2F11kq61xd0y!19sChIJi9Oa5PdHdDkRviVl3NNLU2w?authuser=0&hl=en&rclk=1,"27.155694099999998,78.41392189999999"
Masjid e Hanafiyyah,Mosque,"5C39+JGH Masjid e Hanafiyyah, Ramgarh Rd, Madina Colony, Firozabad, Didamai, Uttar Pradesh 283203",Madina Colony,"5C39+JGH, Ramgarh Rd","Firozabad, Didamai",283203,Uttar Pradesh,IN,https://www.google.com/maps/place/Masjid+e+Hanafiyyah/data=!4m7!3m6!1s0x3974477d65f5fb35:0xc6c12e1cb47678b6!8m2!3d27.1540693!4d78.4188751!16s%2Fg%2F11t2w5dp_x!19sChIJNfv1ZX1HdDkRtnh2tBwuwcY?authuser=0&hl=en&rclk=1,"27.1540693,78.4188751"
Sandli masjid,Mosque,"4CR8+VPH Sandli masjid, Tadonwali Baghiya Rd, Lalpur, Firozabad, Uttar Pradesh 283203",Lalpur,"4CR8+VPH, Tadonwali Baghiya Rd",Firozabad,283203,Uttar Pradesh,IN,https://www.google.com/maps/place/Sandli+masjid/data=!4m7!3m6!1s0x3974479b550034d3:0xdaffc1d210da7b76!8m2!3d27.1421854!4d78.4168591!16s%2Fg%2F11t6y9msmw!19sChIJ0zQAVZtHdDkRdnvaENLB_9o?authuser=0&hl=en&rclk=1,"27.1421854,78.4168591"
Nazeer Mosque,Monastery,"5C23+JJF Nazeer Mosque, Sheetal Khan, Firozabad, Uttar Pradesh 283203",Sheetal Khan,5C23+JJF,Firozabad,283203,Uttar Pradesh,IN,https://www.google.com/maps/place/Nazeer+Mosque/data=!4m7!3m6!1s0x39744716b3c5f711:0x2ffd11aeee1c6b3b!8m2!3d27.15156!4d78.404059!16s%2Fg%2F11fhtkkny9!19sChIJEffFsxZHdDkRO2sc7q4R_S8?authuser=0&hl=en&rclk=1,"27.15156,78.40405899999999"
Faizan e ishqe rasul and faizane madina,Mosque,"4CW7+X64 Faizan e ishqe rasul and faizane madina, Akashwani Rd, Makka Colony, Lalpur, Firozabad, Uttar Pradesh 283203","Makka Colony, Lalpur","4CW7+X64, Akashwani Rd",Firozabad,283203,Uttar Pradesh,IN,https://www.google.com/maps/place/Faizan+e+ishqe+rasul+and+faizane+madina/data=!4m7!3m6!1s0x397447003cdef2ab:0x87c99b9cf0cc98e0!8m2!3d27.1473864!4d78.4130721!16s%2Fg%2F11qbflh11w!19sChIJq_LePABHdDkR4JjM8JybyYc?authuser=0&hl=en&rclk=1,"27.1473864,78.4130721"
Santi nagar Asfabad Firozabad,Mosque,"4CQG+CP3 Santi nagar Asfabad Firozabad, Santi nagar, Asfabad, Firozabad, Uttar Pradesh 283203",Santi nagar,4CQG+CP3,"Asfabad, Firozabad",283203,Uttar Pradesh,IN,https://www.google.com/maps/place/Santi+nagar+Asfabad+Firozabad/data=!4m7!3m6!1s0x3974473eb29796c5:0x3648fcbdef5133a8!8m2!3d27.1385128!4d78.4267857!16s%2Fg%2F11svbdk919!19sChIJxZaXsj5HdDkRqDNR7738SDY?authuser=0&hl=en&rclk=1,"27.138512799999997,78.4267857"
jnntii msjid,Mosque,"5C28+XWR jnntii msjid, Madina Colony, Firozabad, Didamai, Uttar Pradesh 283203",Madina Colony,5C28+XWR,"Firozabad, Didamai",283203,Uttar Pradesh,IN,https://www.google.com/maps/place/%E0%A4%9C%E0%A4%A8%E0%A5%8D%E0%A4%A8%E0%A4%A4%E0%A5%80+%E0%A4%AE%E0%A4%B8%E0%A5%8D%E0%A4%9C%E0%A4%BF%E0%A4%A6/data=!4m7!3m6!1s0x3974479a42be4f99:0x8a3ac6dbef7c8ba5!8m2!3d27.1524875!4d78.4172723!16s%2Fg%2F11sgr0ft7y!19sChIJmU--QppHdDkRpYt879vGOoo?authuser=0&hl=en&rclk=1,"27.1524875,78.4172723"
"Masjid Shaikh Lateef, Firozabad / msjd shykh lTyf, fyrwzabd",Mosque,"4CX2+W2X Masjid Shaikh Lateef, Firozabad / msjd shykh lTyf, fyrwzabd, Sadar Bazaar Rd, Sadar Baazar, Purani Mandi, Firozabad, Uttar Pradesh 283203","Sadar Baazar, Purani Mandi","4CX2+W2X, Sadar Bazaar Rd",Firozabad,283203,Uttar Pradesh,IN,"https://www.google.com/maps/place/Masjid+Shaikh+Lateef,+Firozabad+%2F+%D9%85%D8%B3%D8%AC%D8%AF+%D8%B4%DB%8C%D8%AE+%D9%84%D8%B7%DB%8C%D9%81%D8%8C+%D9%81%DB%8C%D8%B1%D9%88%D8%B2%D8%A2%D8%A8%D8%A7%D8%AF%E2%80%AD/data=!4m7!3m6!1s0x397447d9d72d8845:0x4f6afcad9d27d47b!8m2!3d27.149641!4d78.4003405!16s%2Fg%2F11s3vz3zgj!19sChIJRYgt19lHdDkRe9Qnna38ak8?authuser=0&hl=en&rclk=1","27.149641,78.4003405"
Masjid,Mosque,"592G+64H Masjid, near primary pathshala, Firozabad, Uttar Pradesh 283203",,"592G+64H, near primary pathshala",Firozabad,283203,Uttar Pradesh,IN,https://www.google.com/maps/place/Masjid/data=!4m7!3m6!1s0x39744150e3700001:0xa791a5666bbae5a4!8m2!3d27.1504988!4d78.3753789!16s%2Fg%2F11txmz8rrj!19sChIJAQBw41BBdDkRpOW6a2alkac?authuser=0&hl=en&rclk=1,"27.150498799999998,78.3753789"
Sayyada Masjid,Mosque,"5C39+F6V Sayyada Masjid, Ramgarh Rd, Madina Colony, Firozabad, Didamai, Uttar Pradesh 283203",Madina Colony,"5C39+F6V, Ramgarh Rd","Firozabad, Didamai",283203,Uttar Pradesh,IN,https://www.google.com/maps/place/Sayyada+Masjid/data=!4m7!3m6!1s0x39744793e51697b3:0xb8536538dabcdd8c!8m2!3d27.1537496!4d78.4180361!16s%2Fg%2F11gyyb_9f2!19sChIJs5cW5ZNHdDkRjN282jhlU7g?authuser=0&hl=en&rclk=1,"27.153749599999998,78.4180361"
Fatima Bagh Masjid & Markaz,Mosque,"Fatima Bagh Masjid & Markaz, NH2, Highway, Rasulpur, Firozabad, Uttar Pradesh 283203",Rasulpur,"NH2, Highway",Firozabad,283203,Uttar Pradesh,IN,https://www.google.com/maps/place/Fatima+Bagh+Masjid+%26+Markaz/data=!4m7!3m6!1s0x397447762be086b5:0xdc6d373d0314f62b!8m2!3d27.1469822!4d78.4107364!16s%2Fg%2F11srrs9q82!19sChIJtYbgK3ZHdDkRK_YUAz03bdw?authuser=0&hl=en&rclk=1,"27.1469822,78.41073639999999"
Masjid,Mosque,"595W+M7H Masjid, Arya Nagar, Firozabad, Uttar Pradesh 283203",Arya Nagar,595W+M7H,Firozabad,,Uttar Pradesh,IN,https://www.google.com/maps/place/Masjid/data=!4m7!3m6!1s0x3974471d87836287:0x4a36b2c5266bd9b7!8m2!3d27.1591961!4d78.3957331!16s%2Fg%2F11t4y098jn!19sChIJh2KDhx1HdDkRt9lrJsWyNko?authuser=0&hl=en&rclk=1,"27.1591961,78.3957331"
Masjid Hira (Thane Wali),Mosque,"49XW+PV9 Masjid Hira (Thane Wali), Joshiyan Mohalla, Firozabad, Uttar Pradesh 283205",Joshiyan Mohalla,49XW+PV9,Firozabad,283205,Uttar Pradesh,IN,https://www.google.com/maps/place/Masjid+Hira+%28Thane+Wali%29/data=!4m7!3m6!1s0x3974475151027051:0xee89d15921e59798!8m2!3d27.1492867!4d78.3972282!16s%2Fg%2F11h1kfr_bg!19sChIJUXACUVFHdDkRmJflIVnRie4?authuser=0&hl=en&rclk=1,"27.149286699999998,78.3972282"
Mehboob Masjid,Mosque,"4CV6+5VR Mehboob Masjid, Durgesh Nagar, Firozabad, Didamai, Uttar Pradesh 283203",Durgesh Nagar,4CV6+5VR,"Firozabad, Didamai",283203,Uttar Pradesh,IN,https://www.google.com/maps/place/Mehboob+Masjid/data=!4m7!3m6!1s0x39744740b8c4525d:0x41a451617ffb3438!8m2!3d27.1430181!4d78.412041!16s%2Fg%2F11s3tb8mn0!19sChIJXVLEuEBHdDkRODT7f2FRpEE?authuser=0&hl=en&rclk=1,"27.1430181,78.412041"
Mirza Masjid,Mosque,"Mirza Masjid, 17, Sadar Baazar, Purani Mandi, Firozabad, Uttar Pradesh 283203","Sadar Baazar, Purani Mandi",17,Firozabad,283203,Uttar Pradesh,IN,https://www.google.com/maps/place/Mirza+Masjid/data=!4m7!3m6!1s0x3974475a4cb9a20f:0x39a40739ec396d0!8m2!3d27.1508284!4d78.3999684!16s%2Fg%2F11pzhffdr_!19sChIJD6K5TFpHdDkR0JbDnnNAmgM?authuser=0&hl=en&rclk=1,"27.150828399999998,78.39996839999999"
Abubakar masjid,Mosque,"Abubakar masjid, Lalpur, Firozabad, Didamai, Uttar Pradesh 283203",Lalpur,Abubakar masjid,"Firozabad, Didamai",283203,Uttar Pradesh,IN,https://www.google.com/maps/place/Abubakar+masjid/data=!4m7!3m6!1s0x3974476b8584868b:0xa0404d712847cc58!8m2!3d27.1434337!4d78.4145542!16s%2Fg%2F11pfcj8zky!19sChIJi4aEhWtHdDkRWMxHKHFNQKA?authuser=0&hl=en&rclk=1,"27.1434337,78.4145542"
Qasmi Masjid,Mosque,"4CX7+F7C Qasmi Masjid, Madina Colony, Firozabad, Uttar Pradesh 283203",Madina Colony,4CX7+F7C,Firozabad,283203,Uttar Pradesh,IN,https://www.google.com/maps/place/Qasmi+Masjid/data=!4m7!3m6!1s0x397447e57e44b573:0x6d963b38301fe73a!8m2!3d27.1486759!4d78.4131441!16s%2Fg%2F11tghkttvw!19sChIJc7VEfuVHdDkROucfMDg7lm0?authuser=0&hl=en&rclk=1,"27.148675899999997,78.4131441"
MASJID E HAIDERI,Mosque,"MASJID E HAIDERI, Gali NO.26 Noor Nagar, Uttar Pradesh 283203",Madina Colony,Gali NO.26 Noor Nagar,"Didamai, Firozabad",283203,Uttar Pradesh,IN,https://www.google.com/maps/place/MASJID+E+HAIDERI/data=!4m7!3m6!1s0x3974478f7111abcf:0xd5b16f1b1089f677!8m2!3d27.1528481!4d78.4143187!16s%2Fg%2F11splsc8c6!19sChIJz6sRcY9HdDkRd_aJEBtvsdU?authuser=0&hl=en&rclk=1,"27.1528481,78.4143187"
Masjid e Fatima,Mosque,"4CV6+J78 Masjid e Fatima, Rasulpur, Firozabad, Didamai, Uttar Pradesh 283203",Rasulpur,4CV6+J78,"Firozabad, Didamai",283203,Uttar Pradesh,IN,https://www.google.com/maps/place/Masjid+e+Fatima/data=!4m7!3m6!1s0x397447e8b6558da5:0x5542835fac29f247!8m2!3d27.1431355!4d78.4104295!16s%2Fg%2F11s42w2kf8!19sChIJpY1VtuhHdDkRR_IprF-DQlU?authuser=0&hl=en&rclk=1,"27.1431355,78.41042949999999"
Masjid bismillah,Mosque,"Masjid bismillah, Lalpur, Firozabad, Uttar Pradesh 283203",Lalpur,,Firozabad,283203,Uttar Pradesh,IN,https://www.google.com/maps/place/Masjid+bismillah/data=!4m7!3m6!1s0x397447d43a239449:0xa1cd4d42d9ba42da!8m2!3d27.1466623!4d78.4117403!16s%2Fg%2F11nghd26z_!19sChIJSZQjOtRHdDkR2kK62UJNzaE?authuser=0&hl=en&rclk=1,"27.1466623,78.41174029999999"
Masjid mumtaj rosan,Mosque,"5C69+6WJ Masjid mumtaj rosan, Abbas Nagar, Firozabad, Didamai, Uttar Pradesh 283203",Abbas Nagar,5C69+6WJ,"Firozabad, Didamai",283203,Uttar Pradesh,IN,https://www.google.com/maps/place/Masjid+mumtaj+rosan/data=!4m7!3m6!1s0x397447d9d6ae84c9:0xe1c209f67f44bbd6!8m2!3d27.1605867!4d78.4197681!16s%2Fg%2F11sxvlsk8w!19sChIJyYSu1tlHdDkR1rtEf_YJwuE?authuser=0&hl=en&rclk=1,"27.1605867,78.4197681"
Faizan e ishq e Rasool masjid and faizane madina,Mosque,"4CW9+PFV Faizan e ishq e Rasool masjid and faizane madina, Akash badhi road, Bilal Nagar, mohallah chhapariya, Firozabad, Didamai, Uttar Pradesh 283203","Bilal Nagar, mohallah chhapariya","4CW9+PFV, Akash badhi road","Firozabad, Didamai",,Uttar Pradesh,IN,https://www.google.com/maps/place/Faizan+e+ishq+e+Rasool+masjid+and+faizane+madina/data=!4m7!3m6!1s0x397447ef10510193:0x7f1ac8b625b9063c!8m2!3d27.1468517!4d78.4186635!16s%2Fg%2F11sz1b944j!19sChIJkwFREO9HdDkRPAa5JbbIGn8?authuser=0&hl=en&rclk=1,"27.1468517,78.4186635"
Masjid Quba,Mosque,"5C6C+88J Masjid Quba, Abbas Nagar, Firozabad, Didamai, Uttar Pradesh 283203",Abbas Nagar,5C6C+88J,"Firozabad, Didamai",283203,Uttar Pradesh,IN,https://www.google.com/maps/place/Masjid+Quba/data=!4m7!3m6!1s0x397446828c895555:0xcb4d4427734506f1!8m2!3d27.1608285!4d78.4207677!16s%2Fg%2F11txmzdq18!19sChIJVVWJjIJGdDkR8QZFcydETcs?authuser=0&hl=en&rclk=1,"27.160828499999997,78.4207677"
Umar masjid Gali.no 20,Mosque,"5C37+M7H Umar masjid Gali.no 20, Kashmiri Gate, Firozabad, Uttar Pradesh 283203",Kashmiri Gate,5C37+M7H,Firozabad,,Uttar Pradesh,IN,https://www.google.com/maps/place/Umar+masjid+Gali.no+20/data=!4m7!3m6!1s0x3974477f4fccf81b:0xacf4fb5264b28f3!8m2!3d27.1541783!4d78.4132434!16s%2Fg%2F11kq5npqhj!19sChIJG_jMT39HdDkR8yhLJrVPzwo?authuser=0&hl=en&rclk=1,"27.154178299999998,78.4132434"
Masjid masroor,Mosque,"5C37+6RQ Masjid masroor, Madina Colony, Firozabad, Didamai, Uttar Pradesh 283203",Madina Colony,5C37+6RQ,"Firozabad, Didamai",283203,Uttar Pradesh,IN,https://www.google.com/maps/place/Masjid+masroor/data=!4m7!3m6!1s0x397447736eaaa1f3:0xb050bb74fc9065cd!8m2!3d27.1530826!4d78.4146233!16s%2Fg%2F11t1c2dn50!19sChIJ86GqbnNHdDkRzWWQ_HS7ULA?authuser=0&hl=en&rclk=1,"27.153082599999998,78.4146233"
Masjid e Noor,Mosque,"4CV6+J78 Masjid e Noor, Rasulpur, Firozabad, Didamai, Uttar Pradesh 283203",Rasulpur,4CV6+J78,"Firozabad, Didamai",283203,Uttar Pradesh,IN,https://www.google.com/maps/place/Masjid+e+Noor/data=!4m7!3m6!1s0x39744779bc9ccac7:0x5ae4d250680e57d2!8m2!3d27.1439859!4d78.4107566!16s%2Fg%2F11t4273y_c!19sChIJx8qcvHlHdDkR0lcOaFDS5Fo?authuser=0&hl=en&rclk=1,"27.143985899999997,78.4107566"
Chishti sabri masjid cishtii saabrii msjid,Place of worship,"5C79+RCH Chishti sabri masjid cishtii saabrii msjid, Unnamed Road, Jagdamba Nagar, Sailai, Firozabad, Uttar Pradesh 283203",Jagdamba Nagar,"5C79+RCH, Unnamed Road","Sailai, Firozabad",283203,Uttar Pradesh,IN,https://www.google.com/maps/place/Chishti+sabri+masjid+%E0%A4%9A%E0%A4%BF%E0%A4%B6%E0%A5%8D%E0%A4%A4%E0%A5%80+%E0%A4%B8%E0%A4%BE%E0%A4%AC%E0%A4%B0%E0%A5%80+%E0%A4%AE%E0%A4%B8%E0%A5%8D%E0%A4%9C%E0%A4%BF%E0%A4%A6/data=!4m7!3m6!1s0x3974459bb3a61e5d:0x9092dea6abd76733!8m2!3d27.1645514!4d78.4186!16s%2Fg%2F11nh9b3wkj!19sChIJXR6ms5tFdDkRM2fXq6bekpA?authuser=0&hl=en&rclk=1,"27.164551399999997,78.4186"
Chishti sabri masjid cishtii saabrii msjid,Place of worship,"4CX8+2CG Chishti sabri masjid cishtii saabrii msjid, Lalpur, Firozabad, Didamai, Uttar Pradesh 283203",Lalpur,4CX8+2CG,"Firozabad, Didamai",283203,Uttar Pradesh,IN,https://www.google.com/maps/place/Chishti+sabri+masjid+%E0%A4%9A%E0%A4%BF%E0%A4%B6%E0%A5%8D%E0%A4%A4%E0%A5%80+%E0%A4%B8%E0%A4%BE%E0%A4%AC%E0%A4%B0%E0%A5%80+%E0%A4%AE%E0%A4%B8%E0%A5%8D%E0%A4%9C%E0%A4%BF%E0%A4%A6/data=!4m7!3m6!1s0x39744791b414b7f5:0xdfb4265be7c4da80!8m2!3d27.1475713!4d78.4160657!16s%2Fg%2F11rbyhlwz5!19sChIJ9bcUtJFHdDkRgNrE51smtN8?authuser=0&hl=en&rclk=1,"27.1475713,78.41606569999999"
Hafeez Khan Home,Mosque,"592W+6W3 Hafeez Khan Home, Near Jama Masjid, Sadar Baazar, Purani Mandi, Alegaon, Firozabad, Uttar Pradesh 283203","Near Jama Masjid, Sadar Baazar, Purani Mandi",592W+6W3,"Alegaon, Firozabad",,Uttar Pradesh,IN,https://www.google.com/maps/place/Hafeez+Khan+Home/data=!4m7!3m6!1s0x39744778402935ff:0x95d95df2af0ef2b7!8m2!3d27.1505234!4d78.3973019!16s%2Fg%2F11q43p6fy0!19sChIJ_zUpQHhHdDkRt_IOr_Jd2ZU?authuser=0&hl=en&rclk=1,"27.150523399999997,78.3973019"
Eidgah,Mosque,"594R+GP5 Eidgah, Gandhi Park Road, Comapny Baag, Arya Nagar, Firozabad, Uttar Pradesh 283203","Comapny Baag, Arya Nagar","594R+GP5, Gandhi Park Road",Firozabad,283203,Uttar Pradesh,IN,https://www.google.com/maps/place/Eidgah/data=!4m7!3m6!1s0x397446a90f000001:0x14dab554e2b0b97!8m2!3d27.1562688!4d78.391866!16s%2Fg%2F11txmzf99p!19sChIJAQAAD6lGdDkRlwsrTlWrTQE?authuser=0&hl=en&rclk=1,"27.1562688,78.391866"
Firozabad,Mosque,"Firozabad, mandir, Kotla road nagla panch Sahay Abadi Chandni dham",Kishan Nagar,"mandir, Kotla road nagla panch Sahay Abadi Chandni dham",,,Uttar Pradesh,IN,https://www.google.com/maps/place/Firozabad/data=!4m7!3m6!1s0x3974458ad990eedb:0xd7e752e711f499c9!8m2!3d27.1829864!4d78.4100996!16s%2Fg%2F11s2nbvy_6!19sChIJ2-6Q2YpFdDkRyZn0EedS59c?authuser=0&hl=en&rclk=1,"27.182986399999997,78.4100996"
Madarsa najeeb ul barkat,Mosque,"4CX5+MVC Madarsa najeeb ul barkat, Hajipura Rd, Raahi Nagar, Firozabad, Uttar Pradesh 283203",Raahi Nagar,"4CX5+MVC, Hajipura Rd",Firozabad,283203,Uttar Pradesh,IN,https://www.google.com/maps/place/Madarsa+najeeb+ul+barkat/data=!4m7!3m6!1s0x397447de5994b22d:0x261f2a8e7b085369!8m2!3d27.1492138!4d78.4094698!16s%2Fg%2F11trcy24sh!19sChIJLbKUWd5HdDkRaVMIe44qHyY?authuser=0&hl=en&rclk=1,"27.1492138,78.4094698"
