name,main_category,address,address_ward,address_street,address_city,address_postal_code,address_state,address_country_code,link,coordinates
Jama Masjid,Mosque,"Jama Masjid, near Jama Masjid, Chak Aproula, Apraula Maybag, Uttar Pradesh 244251",,near Jama Masjid,"Chak Aproula, Apraula Maybag",244251,Uttar Pradesh,IN,https://www.google.com/maps/place/Jama+Masjid/data=!4m7!3m6!1s0x390ba6482da20853:0x5820cc548b3c1fe!8m2!3d28.9779516!4d78.4563514!16s%2Fg%2F11fzfdhw5d!19sChIJUwiiLUimCzkR_sGzSMUMggU?authuser=0&hl=en&rclk=1,"28.977951599999997,78.4563514"
Sunehri Masjid,Mosque,"M62Q+5QW Sunehri Masjid, Nishad Raj Marg, Lal Qila, Old Delhi, New Delhi, Delhi, 110006","Lal Qila, Old Delhi","M62Q+5QW, Nishad Raj Marg","New Delhi, Delhi",110006,Delhi,IN,https://www.google.com/maps/place/Sunehri+Masjid/data=!4m7!3m6!1s0x390cfd1e2ed1ec0d:0xb341e6c5c83f65e7!8m2!3d28.650487!4d77.2394481!16s%2Fm%2F0zwr167!19sChIJDezRLh79DDkR52U_yMXmQbM?authuser=0&hl=en&rclk=1,"28.650487,77.23944809999999"
Quadri masjid,Religious organization,,,,,,,,https://www.google.com/maps/place/Quadri+masjid/data=!4m7!3m6!1s0x390ce388f9fd393d:0xc75fdf03a36035cf!8m2!3d28.64347!4d77.1721882!16s%2Fg%2F1td3ddmr!19sChIJPTn9-YjjDDkRzzVgowPfX8c?authuser=0&hl=en&rclk=1,"28.643469999999997,77.1721882"
Masjid Shahab,Mosque,"H78P+VWV Masjid Shahab, Jamia, Batla House, Jamia Nagar, Okhla, New Delhi, Delhi 110025","Jamia, Batla House, Jamia Nagar, Okhla",H78P+VWV,New Delhi,110025,Delhi,IN,https://www.google.com/maps/place/Masjid+Shahab/data=!4m7!3m6!1s0x390ce4760f556f8d:0xc0285f5f2f62012c!8m2!3d28.5672496!4d77.2873032!16s%2Fg%2F1hhm006pz!19sChIJjW9VD3bkDDkRLAFiL19fKMA?authuser=0&hl=en&rclk=1,"28.5672496,77.2873032"
Shahi Masjid msjd shhy,Mosque,"H6JW+VPW Shahi Masjid msjd shhy, Masjid Rd, Jangpura, Jungpura Extension, New Delhi, Delhi 110014","Jangpura, Jungpura Extension","H6JW+VPW, Masjid Rd",New Delhi,110014,Delhi,IN,https://www.google.com/maps/place/Shahi+Masjid+%D9%85%D8%B3%D8%AC%D8%AF+%D8%B4%D8%A7%DA%BE%DB%8C%E2%80%AD/data=!4m7!3m6!1s0x390ce30730fbabd3:0xbc0f657a6c3c1bed!8m2!3d28.5822262!4d77.2468341!16s%2Fg%2F1ptwns7c3!19sChIJ06v7MAfjDDkR7Rs8bHplD7w?authuser=0&hl=en&rclk=1,"28.582226199999997,77.2468341"
Chhappar Wali Masjid,Mosque,"Chhappar Wali Masjid, 48, Okhla Rd, Jamia Nagar, Okhla, New Delhi, Delhi 110025","Jamia Nagar, Okhla","48, Okhla Rd",New Delhi,110025,Delhi,IN,https://www.google.com/maps/place/Chhappar+Wali+Masjid/data=!4m7!3m6!1s0x390ce47512f9ba69:0xdab55473377f5c32!8m2!3d28.5632638!4d77.2880895!16s%2Fg%2F11cn9tyv1h!19sChIJabr5EnXkDDkRMlx_N3NUtdo?authuser=0&hl=en&rclk=1,"28.563263799999998,77.2880895"
Shahi Masjid Khuwaja Pir,Mosque,"Shahi Masjid Khuwaja Pir, A9A, Block A, Friends Colony East, New Friends Colony, New Delhi, Delhi 110065","Block A, Friends Colony East, New Friends Colony",A9A,New Delhi,110065,Delhi,IN,https://www.google.com/maps/place/Shahi+Masjid+Khuwaja+Pir/data=!4m7!3m6!1s0x390ce3a2ce05250b:0xe736d93d4567accc!8m2!3d28.5705505!4d77.2613256!16s%2Fg%2F11b66bs93g!19sChIJCyUFzqLjDDkRzKxnRT3ZNuc?authuser=0&hl=en&rclk=1,"28.5705505,77.26132559999999"
Masjid Hayat Madarsa Sahabia,Mosque,"F7XW+9R3 Masjid Hayat Madarsa Sahabia, Mehrauli - Badarpur Rd, Mittal Colony, Block RZ H, Pul Pehlad Pur, New Delhi, Faridabad, Delhi 110044","Mittal Colony, Block RZ H, Pul Pehlad Pur","F7XW+9R3, Mehrauli - Badarpur Rd","New Delhi, Faridabad",110044,Delhi,IN,https://www.google.com/maps/place/Masjid+Hayat+Madarsa+Sahabia/data=!4m7!3m6!1s0x390ce6d74f08cf85:0xcf35c38ec0e866ca!8m2!3d28.4983917!4d77.2970623!16s%2Fg%2F12hkbl23n!19sChIJhc8IT9fmDDkRymbowI7DNc8?authuser=0&hl=en&rclk=1,"28.4983917,77.2970623"
Saeediya Masjid,Mosque,"Saeediya Masjid, 45, New Silampur Gali, Block A, Chauhan Banger, Shahdara, Delhi, 110031","Block A, Chauhan Banger, Shahdara","45, New Silampur Gali",Delhi,110031,Delhi,IN,https://www.google.com/maps/place/Saeediya+Masjid/data=!4m7!3m6!1s0x390cfc61230920b1:0xd4902005e34cb106!8m2!3d28.678415!4d77.2672561!16s%2Fg%2F11c6qcjmhv!19sChIJsSAJI2H8DDkRBrFM4wUgkNQ?authuser=0&hl=en&rclk=1,"28.678414999999998,77.2672561"
Masjid Shahi shhy msjd,Mosque,"Masjid Shahi shhy msjd, Sector 5 Rd, Sector 5, Rama Krishna Puram, New Delhi, Delhi 110022","Sector 5, Rama Krishna Puram",Sector 5 Rd,New Delhi,110022,Delhi,IN,https://www.google.com/maps/place/Masjid+Shahi+%D8%B4%D8%A7%DB%81%DB%8C+%D9%85%D8%B3%D8%AC%D8%AF%E2%80%AD/data=!4m7!3m6!1s0x390d1d980824e25f:0x2dae857cbcc7831f!8m2!3d28.562477!4d77.17156!16s%2Fg%2F1ptx9jy5j!19sChIJX-IkCJgdDTkRH4PHvHyFri0?authuser=0&hl=en&rclk=1,"28.562476999999998,77.17156"
Masjid Shaan E Ilahi,Mosque,"Masjid Shaan E Ilahi, B 1463, Block B, Devli, Sangam Vihar, New Delhi, Delhi 110080","Block B, Devli, Sangam Vihar",B 1463,New Delhi,110080,Delhi,IN,https://www.google.com/maps/place/Masjid+Shaan+E+Ilahi/data=!4m7!3m6!1s0x390ce1a6ce3bf82d:0xadc58405413ca8bf!8m2!3d28.5042779!4d77.2368583!16s%2Fg%2F11clrs2yq8!19sChIJLfg7zqbhDDkRv6g8QQWExa0?authuser=0&hl=en&rclk=1,"28.504277899999998,77.2368583"
Shahi Masjid,Mosque,"Shahi Masjid, 126A, Patparganj Rd, Adarsh Mohalla, Awadhpuri, Patparganj, Mayur Vihar, New Delhi, Delhi, 110091","Adarsh Mohalla, Awadhpuri, Patparganj, Mayur Vihar","126A, Patparganj Rd","New Delhi, Delhi",110091,Delhi,IN,https://www.google.com/maps/place/Shahi+Masjid/data=!4m7!3m6!1s0x390ce4a12be81e8d:0xb6f4e86ab6169456!8m2!3d28.6118456!4d77.2899913!16s%2Fg%2F11cly81dq4!19sChIJjR7oK6HkDDkRVpQWtmro9LY?authuser=0&hl=en&rclk=1,"28.6118456,77.2899913"
MASJID,Mosque,"MASJID, Wz 173a/1 new ranjeet nagar, Guru Nanak Nagar, Shadipur, Delhi 110008","Guru Nanak Nagar, Shadipur",Wz 173a/1 new ranjeet nagar,New Delhi,110008,Delhi,IN,https://www.google.com/maps/place/MASJID/data=!4m7!3m6!1s0x390d0327bb6f6129:0xe8342be2eca63326!8m2!3d28.6456917!4d77.1597324!16s%2Fg%2F11h5lkhmc2!19sChIJKWFvuycDDTkRJjOm7OIrNOg?authuser=0&hl=en&rclk=1,"28.6456917,77.1597324"
Shahi Masjid,Mosque,"G822+J95 Shahi Masjid, Main Market Rd, Badarpur Village, Badarpur, New Delhi, Delhi 110044","Badarpur Village, Badarpur","G822+J95, Main Market Rd",New Delhi,110044,Delhi,IN,https://www.google.com/maps/place/Shahi+Masjid/data=!4m7!3m6!1s0x390ce6dbad5d9c6b:0xb674f631f33332b1!8m2!3d28.5015177!4d77.3009959!16s%2Fg%2F1hf00p4zw!19sChIJa5xdrdvmDDkRsTIz8zH2dLY?authuser=0&hl=en&rclk=1,"28.501517699999997,77.30099589999999"
Masjid Devband,Mosque,"G66Q+44V Masjid Devband, Tigri Colony, Tigri, Sangam Vihar, New Delhi, Delhi 110062","Tigri Colony, Tigri, Sangam Vihar",G66Q+44V,New Delhi,110062,Delhi,IN,https://www.google.com/maps/place/Masjid+Devband/data=!4m7!3m6!1s0x390ce1a02ba173f3:0x74659f41cc7c1b39!8m2!3d28.5103517!4d77.2377863!16s%2Fg%2F11b808708z!19sChIJ83OhK6DhDDkRORt8zEGfZXQ?authuser=0&hl=en&rclk=1,"28.510351699999998,77.2377863"
Ilahi Masjid,Mosque,"Ilahi Masjid, PLOT NO. 111, STREET NO.7, BLOCK F-1, NEAR SIWAS PUBLIC SCHOOL,, Sangam Vihar, New Delhi, Delhi 110080","Block F 2, Sangam Vihar","PLOT NO. 111, STREET NO.7, BLOCK F-1, NEAR SIWAS PUBLIC SCHOOL,",New Delhi,110080,Delhi,IN,https://www.google.com/maps/place/Ilahi+Masjid/data=!4m7!3m6!1s0x390ce108f98006db:0xa338e329f2b679ba!8m2!3d28.5019945!4d77.2437475!16s%2Fg%2F11c2nks7vg!19sChIJ2waA-QjhDDkRunm28injOKM?authuser=0&hl=en&rclk=1,"28.5019945,77.2437475"
Gausiya Masjid,Mosque,"Gausiya Masjid, 122, Gali No. 10, New Seelampur, Jafrabad, Shahdara, Delhi, 110053","New Seelampur, Jafrabad, Shahdara","122, Gali No. 10",Delhi,110053,Delhi,IN,https://www.google.com/maps/place/Gausiya+Masjid/data=!4m7!3m6!1s0x390cfc63ceb84969:0x52a9b75ed1d9025e!8m2!3d28.6775577!4d77.2702337!16s%2Fg%2F11c74cy737!19sChIJaUm4zmP8DDkRXgLZ0V63qVI?authuser=0&hl=en&rclk=1,"28.677557699999998,77.27023369999999"
Bagh Wali Masjid,Mosque,"G883+6W6 Bagh Wali Masjid, New, Gautampuri Awas, Badarpur, New Delhi, Delhi 110044","Gautampuri Awas, Badarpur","G883+6W6, New",New Delhi,110044,Delhi,IN,https://www.google.com/maps/place/Bagh+Wali+Masjid/data=!4m7!3m6!1s0x390ce6c0b8babe6b:0xc693f6450121cff1!8m2!3d28.5155365!4d77.3047507!16s%2Fg%2F11f_d7rxpt!19sChIJa766uMDmDDkR8c8hAUX2k8Y?authuser=0&hl=en&rclk=1,"28.5155365,77.3047507"
Mohammadi Masjid,Mosque,"Mohammadi Masjid, block - c , gali no. 12 , shiv vihar part 2, Ismailpur Rd, Ekta Vihar, Basantpur, Faridabad, Delhi 121003","Ekta Vihar, Basantpur","block - c , gali no. 12 , shiv vihar part 2, Ismailpur Rd","Faridabad, New Delhi",121003,Delhi,IN,https://www.google.com/maps/place/Mohammadi+Masjid/data=!4m7!3m6!1s0x390ce65691d77451:0x37e5a2edf0d4bd81!8m2!3d28.5035617!4d77.3360423!16s%2Fg%2F12hmr57km!19sChIJUXTXkVbmDDkRgb3U8O2i5Tc?authuser=0&hl=en&rclk=1,"28.5035617,77.3360423"
Tohfe wala Gumbad,Historical landmark,"Tohfe wala Gumbad, New, Shahpur Jat, Siri Fort, New Delhi, Delhi 110049","Shahpur Jat, Siri Fort",New,New Delhi,110049,Delhi,IN,https://www.google.com/maps/place/Tohfe+wala+Gumbad/data=!4m7!3m6!1s0x390ce21408512db5:0x75ee4181c5c790a0!8m2!3d28.5491283!4d77.2116629!16s%2Fg%2F11dxch4ljt!19sChIJtS1RCBTiDDkRoJDHxYFB7nU?authuser=0&hl=en&rclk=1,"28.5491283,77.2116629"
Jama Masjid,Mosque,"R5FF+F66 Jama Masjid, Subhash Chowk, Bakhtawar Pur, Bakhtawar Pur Village, Delhi, 110036","Bakhtawar Pur, Bakhtawar Pur Village","R5FF+F66, Subhash Chowk",Delhi,110036,Delhi,IN,https://www.google.com/maps/place/Jama+Masjid/data=!4m7!3m6!1s0x390daabfbf4e2347:0xb98ca808b3fef4a1!8m2!3d28.8236574!4d77.1730069!16s%2Fg%2F12hq8vskb!19sChIJRyNOv7-qDTkRofT-swiojLk?authuser=0&hl=en&rclk=1,"28.8236574,77.17300689999999"
Mosque Jaypee Hospital,Mosque,"G97C+XMM Mosque Jaypee Hospital, Goberdhanpur, Sector 128, Noida, Shahpur Govardhanpur Bangar, Uttar Pradesh","Goberdhanpur, Sector 128",G97C+XMM,"Noida, Shahpur Govardhanpur Bangar",,Uttar Pradesh,IN,https://www.google.com/maps/place/Mosque+Jaypee+Hospital/data=!4m7!3m6!1s0x390ce730a9e26bfb:0x53d6c7e5ca7bc5fb!8m2!3d28.5149558!4d77.3716603!16s%2Fg%2F11ffv1xwk0!19sChIJ-2viqTDnDDkR-8V7yuXH1lM?authuser=0&hl=en&rclk=1,"28.5149558,77.3716603"
Masjid Al Kareem,Mosque,"P79R+Q3F Masjid Al Kareem, Hasanpur, Uttar Pradesh 244241",,P79R+Q3F,Hasanpur,244241,Uttar Pradesh,IN,https://www.google.com/maps/place/Masjid+Al+Kareem/data=!4m7!3m6!1s0x390b6d55a7067e5f:0x762c761b83e9ab9f!8m2!3d28.719438!4d78.29018!16s%2Fg%2F11f3n1c8sr!19sChIJX34Gp1VtCzkRn6vpgxt2LHY?authuser=0&hl=en&rclk=1,"28.719438,78.29017999999999"
Bag Wali Masjid,Mosque,"V2GQ+3Q7 Bag Wali Masjid, Shahpur Kutub, Aligarh, Uttar Pradesh 202001",Shahpur Kutub,V2GQ+3Q7,Aligarh,202001,Uttar Pradesh,IN,https://www.google.com/maps/place/Bag+Wali+Masjid/data=!4m7!3m6!1s0x3974a40b9d353059:0x14ce6633c7607a89!8m2!3d27.8751655!4d78.0394136!16s%2Fg%2F1pyqjpln2!19sChIJWTA1nQukdDkRiXpgxzNmzhQ?authuser=0&hl=en&rclk=1,"27.875165499999998,78.0394136"
Jama masjid,Mosque,"QJP6+QRR Jama masjid, Shahpur Dasar, Ahrola Mafi, Uttar Pradesh 244102",,QJP6+QRR,"Shahpur Dasar, Ahrola Mafi",244102,Uttar Pradesh,IN,https://www.google.com/maps/place/Jama+masjid/data=!4m7!3m6!1s0x390b02fd84455eff:0x7602707e0c44e8c!8m2!3d28.7869824!4d78.6120148!16s%2Fg%2F11c7ss9ky_!19sChIJ_15FhP0CCzkRjE7E4AcnYAc?authuser=0&hl=en&rclk=1,"28.7869824,78.6120148"
Sunheri Masjid(Mosque),Mosque,"FM5Q+7X9 Sunheri Masjid(Mosque), Sikandrabad, Uttar Pradesh 203202",,FM5Q+7X9,Sikandrabad,203202,Uttar Pradesh,IN,https://www.google.com/maps/place/Sunheri+Masjid%28Mosque%29/data=!4m7!3m6!1s0x390cbda2e31d1e7d:0x63d05f98f7c91671!8m2!3d28.4581555!4d77.6899893!16s%2Fg%2F11g8_0cc_w!19sChIJfR4d46K9DDkRcRbJ95hf0GM?authuser=0&hl=en&rclk=1,"28.4581555,77.6899893"
Masjid Badi msjd,Mosque,"Masjid Badi msjd, 893,, Chittli Qabar Bazar Rd, Jama Masjid, Chandni Chowk, New Delhi, Delhi 110006","Bazar Chitli Qabar, Kucha Chelan, Jama Masjid, Chandni Chowk","893,, Chittli Qabar Bazar Rd","New Delhi, Delhi",110006,Delhi,IN,https://www.google.com/maps/place/Masjid+Badi+%D9%85%D8%B3%D8%AC%D8%AF%E2%80%AD/data=!4m7!3m6!1s0x390cfd219cfec1f3:0x93ccacb281d71709!8m2!3d28.645321!4d77.2357133!16s%2Fg%2F12m98gjn5!19sChIJ88H-nCH9DDkRCRfXgbKszJM?authuser=0&hl=en&rclk=1,"28.645321,77.2357133"
JAMMA MASJID SHAHPUR,Mosque,"JAMMA MASJID SHAHPUR, zafar Ali, Shahpur Mustahkam, Uttar Pradesh 244402",,zafar Ali,Shahpur Mustahkam,244402,Uttar Pradesh,IN,https://www.google.com/maps/place/JAMMA+MASJID+SHAHPUR/data=!4m7!3m6!1s0x390af867a473b0e1:0x1cc0f62bd993a8f0!8m2!3d28.9281399!4d78.801733!16s%2Fg%2F11gfp7_rwv!19sChIJ4bBzpGf4CjkR8KiT2Sv2wBw?authuser=0&hl=en&rclk=1,"28.928139899999998,78.801733"
Aaisha Masjid,Religious destination,"P79P+248 Aaisha Masjid, Hasanpur, Uttar Pradesh 244241",,P79P+248,Hasanpur,244241,Uttar Pradesh,IN,https://www.google.com/maps/place/Aaisha+Masjid/data=!4m7!3m6!1s0x390b6d56fa81320f:0xbd189eee4e1c9a18!8m2!3d28.7175411!4d78.285321!16s%2Fg%2F11f2xxwgnb!19sChIJDzKB-lZtCzkRGJocTu6eGL0?authuser=0&hl=en&rclk=1,"28.7175411,78.285321"
Bilal Masjid,Mosque,"8G4Q+524 Bilal Masjid, Kaserwa, Uttar Pradesh 251318",,8G4Q+524,Kaserwa,251318,Uttar Pradesh,IN,https://www.google.com/maps/place/Bilal+Masjid/data=!4m7!3m6!1s0x390c3ddd52cc4d45:0xafcb44215cb98a06!8m2!3d29.3053836!4d77.5375678!16s%2Fg%2F11fxy15_1_!19sChIJRU3MUt09DDkRBoq5XCFEy68?authuser=0&hl=en&rclk=1,"29.3053836,77.53756779999999"
Shapur masjid,Mosque,"2PR6+GGG Shapur masjid, Uttar Pradesh 243638",,2PR6+GGG,,243638,Uttar Pradesh,IN,https://www.google.com/maps/place/Shapur+masjid/data=!4m7!3m6!1s0x39752932444a41d1:0x709b105bee2bb2d0!8m2!3d28.0413053!4d78.7113315!16s%2Fg%2F11h38xtxd5!19sChIJ0UFKRDIpdTkR0LIr7lsQm3A?authuser=0&hl=en&rclk=1,"28.041305299999998,78.7113315"
Mehbube Ilahi Masjid msjd mHbwbi lhy,Mosque,"Mehbube Ilahi Masjid msjd mHbwbi lhy, 200, Gali Number 12, Block G, Talimabad, Sangam Vihar, New Delhi, Delhi 110044","Block G, Talimabad, Sangam Vihar","200, Gali Number 12",New Delhi,110044,Delhi,IN,https://www.google.com/maps/place/Mehbube+Ilahi+Masjid+%D9%85%D8%B3%D8%AC%D8%AF+%D9%85%D8%AD%D8%A8%D9%88%D8%A8%D9%90+%D8%A7%D9%84%D9%B0%DB%81%DB%8C%E2%80%AD/data=!4m7!3m6!1s0x390ce11192f7083f:0xae0dbbdbeca67b2c!8m2!3d28.5053455!4d77.2535063!16s%2Fg%2F11c618mbkp!19sChIJPwj3khHhDDkRLHum7Nu7Da4?authuser=0&hl=en&rclk=1,"28.505345499999997,77.2535063"
Aqsha Masjid,Mosque,"6X6Q+4W2 Aqsha Masjid, Raheri, Haryana 122103",,6X6Q+4W2,Raheri,122103,Haryana,IN,https://www.google.com/maps/place/Aqsha+Masjid/data=!4m7!3m6!1s0x390d303fc96dc523:0x7de38ec6173f5970!8m2!3d28.2102553!4d76.9897513!16s%2Fg%2F11gfdspw5h!19sChIJI8VtyT8wDTkRcFk_F8aO430?authuser=0&hl=en&rclk=1,"28.2102553,76.9897513"
Sunni masjid,Mosque,"F42V+PV8 Sunni masjid, Ambedkar Colony, Jaunapur, New Delhi, Delhi 110047","Ambedkar Colony, Jaunapur",F42V+PV8,New Delhi,110047,Delhi,IN,https://www.google.com/maps/place/Sunni+masjid/data=!4m7!3m6!1s0x390d1f24db8aef63:0x73ad93ffa54c799c!8m2!3d28.4517871!4d77.1447087!16s%2Fg%2F11sy3fb2tf!19sChIJY--K2yQfDTkRnHlMpf-TrXM?authuser=0&hl=en&rclk=1,"28.451787099999997,77.1447087"
Masjid Ek Minar,Place of worship,"Masjid Ek Minar, Shahoorpur Extension, Sat Bari, New Delhi, Delhi 110074","Shahoorpur Extension, Sat Bari",,New Delhi,110074,Delhi,IN,https://www.google.com/maps/place/Masjid+Ek+Minar/data=!4m7!3m6!1s0x390d1fd82cc1ef7d:0x77084e8aedd52ae0!8m2!3d28.471502!4d77.191835!16s%2Fg%2F11b7y79c18!19sChIJfe_BLNgfDTkR4CrV7YpOCHc?authuser=0&hl=en&rclk=1,"28.471501999999997,77.191835"
Chand Masjid Shahpur,Mosque,"Chand Masjid Shahpur, RFWP+XQW, Shahpur Farraspur, Joya, Uttar Pradesh 244222",,"RFWP+XQW, Shahpur Farraspur","Joya, Shahpur Farraspur",244222,Uttar Pradesh,IN,https://www.google.com/maps/place/Chand+Masjid+Shahpur/data=!4m7!3m6!1s0x390b07521edd883b:0x4bf282e9718031c3!8m2!3d28.8474986!4d78.4869512!16s%2Fg%2F11jp4w4syw!19sChIJO4jdHlIHCzkRwzGAcemC8ks?authuser=0&hl=en&rclk=1,"28.847498599999998,78.4869512"
Masjid Shan e Ilahi,Mosque,"XP8V+RMR Masjid Shan e Ilahi, Aurang Shahpur Diggi, Meerut, Uttar Pradesh 250004",Aurang Shahpur Diggi,XP8V+RMR,Meerut,250004,Uttar Pradesh,IN,https://www.google.com/maps/place/Masjid+Shan+e+Ilahi/data=!4m7!3m6!1s0x390c65e79761a81b:0x58a590b712ed4c42!8m2!3d28.9671126!4d77.7441305!16s%2Fg%2F11j48l4dd4!19sChIJG6hhl-dlDDkRQkztEreQpVg?authuser=0&hl=en&rclk=1,"28.9671126,77.7441305"
Masjid Shahjahaan,Mosque,"WF9F+X5Q Masjid Shahjahaan, Rasoolpur Dhaulri, Uttar Pradesh 250501",,WF9F+X5Q,Rasoolpur Dhaulri,250501,Uttar Pradesh,IN,https://www.google.com/maps/place/Masjid+Shahjahaan/data=!4m7!3m6!1s0x390c5f4d10cd401b:0x937bc881ec368396!8m2!3d28.9199741!4d77.4729839!16s%2Fg%2F11gjxbhkmv!19sChIJG0DNEE1fDDkRloM27IHIe5M?authuser=0&hl=en&rclk=1,"28.919974099999997,77.4729839"
SHAHI JAMA MASJID jm` msjd shhy,Mosque,"SHAHI JAMA MASJID jm` msjd shhy, 22, foot road, Shram Vihar, Pocket N, Madanpur Khadar, New Delhi, Delhi 110025","Shram Vihar, Pocket N, Madanpur Khadar","22, foot road",New Delhi,110025,Delhi,IN,https://www.google.com/maps/place/SHAHI+JAMA+MASJID+%D8%AC%D8%A7%D9%85%D8%B9+%D9%85%D8%B3%D8%AC%D8%AF+%D8%B4%D8%A7%DA%BE%DB%8C%E2%80%AD/data=!4m7!3m6!1s0x390ce5a36ba3a95d:0x7cb7c1435cda3fd2!8m2!3d28.5405938!4d77.3038368!16s%2Fg%2F11n733rllr!19sChIJXamja6PlDDkR0j_aXEPBt3w?authuser=0&hl=en&rclk=1,"28.5405938,77.3038368"
drbaar msjid,Mosque,"8HX2+VPQ drbaar msjid, Kasarwa, Shahpur, Uttar Pradesh 251318",Kasarwa,8HX2+VPQ,Shahpur,251318,Uttar Pradesh,IN,https://www.google.com/maps/place/%E0%A4%A6%E0%A4%B0%E0%A4%AC%E0%A4%BE%E0%A4%B0+%E0%A4%AE%E0%A4%B8%E0%A5%8D%E0%A4%9C%E0%A4%BF%E0%A4%A6/data=!4m7!3m6!1s0x390c3d7a6828daa7:0xa1b186af57a06c05!8m2!3d29.3497211!4d77.5518545!16s%2Fg%2F11gdkqqqg8!19sChIJp9ooaHo9DDkRBWygV6-GsaE?authuser=0&hl=en&rclk=1,"29.3497211,77.55185449999999"
shy`h qbrstn shhpwr,Mosque,"shy`h qbrstn shhpwr, Bani Hashim Colony, Shahpur, Uttar Pradesh 251318",,Bani Hashim Colony,Shahpur,251318,Uttar Pradesh,IN,https://www.google.com/maps/place/%D8%B4%DB%8C%D8%B9%DB%81+%D9%82%D8%A8%D8%B1%D8%B3%D8%AA%D8%A7%D9%86+%D8%B4%D8%A7%DB%81%D9%BE%D9%88%D8%B1%E2%80%AD/data=!4m7!3m6!1s0x390c3d7bf8f77941:0x9e42dbffbad43adc!8m2!3d29.3486312!4d77.5560774!16s%2Fg%2F11f400krz0!19sChIJQXn3-Hs9DDkR3DrUuv_bQp4?authuser=0&hl=en&rclk=1,"29.3486312,77.55607739999999"
BILAL MASJID,Mosque,"QJP8+6G8 BILAL MASJID, Shahpur Dasar, Uttar Pradesh 244102",,QJP8+6G8,Shahpur Dasar,244102,Uttar Pradesh,IN,https://www.google.com/maps/place/BILAL+MASJID/data=!4m7!3m6!1s0x390b02fc97937ce7:0x109768b0f65d58f8!8m2!3d28.7855353!4d78.6163365!16s%2Fg%2F11c6w0bbnp!19sChIJ53yTl_wCCzkR-Fhd9rBolxA?authuser=0&hl=en&rclk=1,"28.7855353,78.6163365"
Jama Masjid Piplehda,Mosque,"MHH4+5R8 Jama Masjid Piplehda, Masuri, Uttar Pradesh 201015",,MHH4+5R8,Masuri,201015,Uttar Pradesh,IN,https://www.google.com/maps/place/Jama+Masjid+Piplehda/data=!4m7!3m6!1s0x390cf36c511cc837:0xd3c24aa3d8d5b086!8m2!3d28.677908!4d77.5570839!16s%2Fg%2F11ns4z09b6!19sChIJN8gcUWzzDDkRhrDV2KNKwtM?authuser=0&hl=en&rclk=1,"28.677908,77.5570839"
Masjid,Mosque,"Masjid, C-78/6, Ghazipur Dairy Farm, Ghazipur, New Delhi, Delhi, 110091","Ghazipur Dairy Farm, Ghazipur",C-78/6,"New Delhi, Delhi",110091,Delhi,IN,https://www.google.com/maps/place/Masjid/data=!4m7!3m6!1s0x390ce59d2385649b:0xb67be5c3e3ed3d8!8m2!3d28.621932!4d77.3237081!16s%2Fg%2F11r6dvzgp5!19sChIJm2SFI53lDDkR2NM-Ply-Zws?authuser=0&hl=en&rclk=1,"28.621931999999997,77.32370809999999"
Qureshian Masjid Shahpur,Mosque,"WG26+PW9 Qureshian Masjid Shahpur, Shahpur Khadar, Uttar Pradesh 281403",,WG26+PW9,Shahpur Khadar,,Uttar Pradesh,IN,https://www.google.com/maps/place/Qureshian+Masjid+Shahpur/data=!4m7!3m6!1s0x397339658c762be3:0xecec89e14321e593!8m2!3d27.9017798!4d77.5123549!16s%2Fg%2F11ff5k017w!19sChIJ4yt2jGU5czkRk-UhQ-GJ7Ow?authuser=0&hl=en&rclk=1,"27.9017798,77.51235489999999"
madina masjid chorgarhi.....,Mosque,"9M47+7FP madina masjid chorgarhi....., shahpur Road,, Purbaliyan, Uttar Pradesh 251203",,"9M47+7FP, shahpur Road,",Purbaliyan,251203,Uttar Pradesh,IN,https://www.google.com/maps/place/madina+masjid+chorgarhi...../data=!4m7!3m6!1s0x390c10d7749db15d:0xb4d777c485358232!8m2!3d29.3557249!4d77.663714!16s%2Fg%2F11cs2392g7!19sChIJXbGddNcQDDkRMoI1hcR317Q?authuser=0&hl=en&rclk=1,"29.3557249,77.663714"
Main Road Masjid,Mosque,"9G2X+WGH Main Road Masjid, Gokulpur, Shahpur, Uttar Pradesh 251318",Gokulpur,9G2X+WGH,Shahpur,251318,Uttar Pradesh,IN,https://www.google.com/maps/place/Main+Road+Masjid/data=!4m7!3m6!1s0x390c3d703d1e292f:0x5e389cefaa4b937c!8m2!3d29.3523245!4d77.5488669!16s%2Fg%2F11hb8rx_8j!19sChIJLykePXA9DDkRfJNLqu-cOF4?authuser=0&hl=en&rclk=1,"29.352324499999998,77.5488669"
Masjid,Mosque,"H77Q+868 Masjid, Okhla Village, Okhla, New Delhi, Delhi 110025","Okhla Village, Okhla",H77Q+868,New Delhi,110025,Delhi,IN,https://www.google.com/maps/place/Masjid/data=!4m7!3m6!1s0x390ce47512f7aa2b:0x544337a9b9e5d7a2!8m2!3d28.5632814!4d77.2880932!16s%2Fg%2F11gbtpj5td!19sChIJK6r3EnXkDDkRotfluak3Q1Q?authuser=0&hl=en&rclk=1,"28.563281399999997,77.28809319999999"
Masjid,Mosque,"37F3+V5F Masjid, Saharanpur - Delhi Rd, Shahpur Barauli, Uttar Pradesh 250611",,"37F3+V5F, Saharanpur - Delhi Rd",Shahpur Barauli,250611,Uttar Pradesh,IN,https://www.google.com/maps/place/Masjid/data=!4m7!3m6!1s0x390c4d0372d2972d:0x5717545edbf46853!8m2!3d29.0746904!4d77.2529281!16s%2Fg%2F11h7b39mb6!19sChIJLZfScgNNDDkRU2j0215UF1c?authuser=0&hl=en&rclk=1,"29.074690399999998,77.25292809999999"
Auliya Masjid Rahmantal,Mosque,"2VV4+2WQ Auliya Masjid Rahmantal, Unnamed Road, Anjana, Uttar Pradesh 202142",,"2VV4+2WQ, Unnamed Road, Anjana",Rampur Shahpur,202142,Uttar Pradesh,IN,https://www.google.com/maps/place/Auliya+Masjid+Rahmantal/data=!4m7!3m6!1s0x3973556bc38722cd:0x666a302084db0c64!8m2!3d28.0425912!4d77.8573717!16s%2Fg%2F11g2yykg1n!19sChIJzSKHw2tVczkRZAzbhCAwamY?authuser=0&hl=en&rclk=1,"28.0425912,77.8573717"
aph'srii msjid,Mosque,"aph'srii msjid, Shahpur Kutub, Aligarh, Uttar Pradesh 202001",,,"Shahpur Kutub, Aligarh",202001,Uttar Pradesh,IN,https://www.google.com/maps/place/%E0%A4%85%E0%A4%AB%E0%A4%BC%E0%A4%B8%E0%A4%B0%E0%A5%80+%E0%A4%AE%E0%A4%B8%E0%A5%8D%E0%A4%9C%E0%A4%BF%E0%A4%A6/data=!4m7!3m6!1s0x3974a40942070f61:0x17e632423df4b85a!8m2!3d27.8740055!4d78.0357314!16s%2Fg%2F1pyqjn4rg!19sChIJYQ8HQgmkdDkRWrj0PUIy5hc?authuser=0&hl=en&rclk=1,"27.8740055,78.0357314"
Talyan masjid,Mosque,"8HX2+9WR Talyan masjid, Kasarwa, Shahpur, Uttar Pradesh 251318",Kasarwa,8HX2+9WR,Shahpur,251318,Uttar Pradesh,IN,https://www.google.com/maps/place/Talyan+masjid/data=!4m7!3m6!1s0x390c3d7a3b5444d1:0x24b4c97c540dda06!8m2!3d29.348481!4d77.5522728!16s%2Fg%2F11g8xdslrv!19sChIJ0URUO3o9DDkRBtoNVHzJtCQ?authuser=0&hl=en&rclk=1,"29.348481,77.5522728"
Tandi Masjid (Juma Namaz 01:15),Mosque,"5QC7+2XH Tandi Masjid (Juma Namaz 01:15), Unnamed Road, Tandi, Shahpur Zadid, Uttar Pradesh 250222",,"5QC7+2XH, Unnamed Road","Tandi, Shahpur Zadid",250222,Uttar Pradesh,IN,https://www.google.com/maps/place/Tandi+Masjid+%28Juma+Namaz+01:15%29/data=!4m7!3m6!1s0x390c7322d9aa1759:0x9d33f641c27224ba!8m2!3d29.1700731!4d77.76497!16s%2Fg%2F11rf9z5xt1!19sChIJWReq2SJzDDkRuiRywkH2M50?authuser=0&hl=en&rclk=1,"29.1700731,77.76496999999999"
Masjid,Mosque,"Q6MJ+5H5 Masjid, Badarpur, Madanpur Khadar, New Delhi, 110084",Madanpur Khadar,"Q6MJ+5H5, Badarpur","New Delhi, Delhi",110084,Delhi,IN,https://www.google.com/maps/place/Masjid/data=!4m7!3m6!1s0x390cffb780460377:0x9fe224e9c653e965!8m2!3d28.7828891!4d77.2314704!16s%2Fg%2F11qn790lvq!19sChIJdwNGgLf_DDkRZelTxukk4p8?authuser=0&hl=en&rclk=1,"28.7828891,77.23147039999999"
Mr.SAHEEM MALIK,Mosque,"Mr.SAHEEM MALIK, Gali no. 3 - Tirpal Factory Mustafabad, near Ayisha masjid, 25 Futa Rd, near by Aisha Masjid, chowk, Delhi 110094","Shakti Vihar, Old Mustafabad, chowk","Gali no. 3 - Tirpal Factory Mustafabad, near Ayisha masjid, 25 Futa Rd, near by Aisha Masjid",Delhi,110094,Delhi,IN,https://www.google.com/maps/place/Mr.SAHEEM+MALIK/data=!4m7!3m6!1s0x390cfd9a44cd4997:0xffdc8860c53e3f2b!8m2!3d28.7159667!4d77.272238!16s%2Fg%2F11h3cwgc8y!19sChIJl0nNRJr9DDkRKz8-xWCI3P8?authuser=0&hl=en&rclk=1,"28.7159667,77.272238"
Masjid,Mosque,"Q7JJ+7WC Masjid, Pavi Sadakpur, Uttar Pradesh 201102",,Q7JJ+7WC,Pavi Sadakpur,201102,Uttar Pradesh,IN,https://www.google.com/maps/place/Masjid/data=!4m7!3m6!1s0x390cff3247b3c4d7:0xf1b7407f946dd8cc!8m2!3d28.7806806!4d77.2822504!16s%2Fg%2F11ggz8tfhy!19sChIJ18SzRzL_DDkRzNhtlH9At_E?authuser=0&hl=en&rclk=1,"28.7806806,77.2822504"
JAMA MASJID HUSAIPUR,Mosque,"5V3X+CRQ JAMA MASJID HUSAIPUR, Husaipur, Rajasthan 301018",,5V3X+CRQ,Husaipur,301018,Rajasthan,IN,https://www.google.com/maps/place/JAMA+MASJID+HUSAIPUR/data=!4m7!3m6!1s0x390d3798c2f90561:0xbac268edf4962bd2!8m2!3d28.153593!4d76.8996121!16s%2Fg%2F11kgt25nb3!19sChIJYQX5wpg3DTkR0iuW9O1owro?authuser=0&hl=en&rclk=1,"28.153592999999997,76.8996121"
Masjid Shahpur,Mosque,"R5PJ+CXF Masjid Shahpur, Saidampur, Uttar Pradesh 244235",,R5PJ+CXF,Saidampur,244235,Uttar Pradesh,IN,https://www.google.com/maps/place/Masjid+Shahpur/data=!4m7!3m6!1s0x390b775bb1a169c9:0x3d676cdbac1c666f!8m2!3d28.8360685!4d78.1824174!16s%2Fg%2F11fktz676q!19sChIJyWmhsVt3CzkRb2YcrNtsZz0?authuser=0&hl=en&rclk=1,"28.8360685,78.18241739999999"
Madina masjid,Mosque,"PWG6+Q2R Madina masjid, Unnamed Road, Rasoolpur Bahlolpur, Uttar Pradesh 245201",,"PWG6+Q2R, Unnamed Road",Rasoolpur Bahlolpur,245201,Uttar Pradesh,IN,https://www.google.com/maps/place/Madina+masjid/data=!4m7!3m6!1s0x390c83f1bf0abbdf:0x8687b835b6a8b7c8!8m2!3d28.7269922!4d77.9100089!16s%2Fg%2F11nz2lgtzg!19sChIJ37sKv_GDDDkRyLeotjW4h4Y?authuser=0&hl=en&rclk=1,"28.726992199999998,77.9100089"
nuuraanii msjid,Mosque,"8HX3+QQ5 nuuraanii msjid, Kasarwa, Shahpur, Uttar Pradesh 251318",Kasarwa,8HX3+QQ5,Shahpur,251318,Uttar Pradesh,IN,https://www.google.com/maps/place/%E0%A4%A8%E0%A5%82%E0%A4%B0%E0%A4%BE%E0%A4%A8%E0%A5%80+%E0%A4%AE%E0%A4%B8%E0%A5%8D%E0%A4%9C%E0%A4%BF%E0%A4%A6/data=!4m7!3m6!1s0x390c3d7bbf58dc61:0xdaa10b7909150fa7!8m2!3d29.3493948!4d77.5544814!16s%2Fg%2F11f2wq1sn8!19sChIJYdxYv3s9DDkRpw8VCXkLodo?authuser=0&hl=en&rclk=1,"29.3493948,77.5544814"
Masjid Jable Noor,Mosque,"84PX+4JV Masjid Jable Noor, Sirdhani bangar, Bijnor, Shahpur, Uttar Pradesh 246701",Sirdhani bangar,84PX+4JV,"Bijnor, Shahpur",,Uttar Pradesh,IN,https://www.google.com/maps/place/Masjid+Jable+Noor/data=!4m7!3m6!1s0x390bed99af3d05a5:0x864d5a439041505a!8m2!3d29.3353609!4d78.1490434!16s%2Fg%2F11jp4qdwbq!19sChIJpQU9r5ntCzkRWlBBkENaTYY?authuser=0&hl=en&rclk=1,"29.335360899999998,78.1490434"
Noori Masjid,Mosque,"Noori Masjid, S286, Block S, Brahampuri, Shahdara, Delhi, 110053","Block S, Brahampuri, Shahdara",S286,Delhi,110053,Delhi,IN,https://www.google.com/maps/place/Noori+Masjid/data=!4m7!3m6!1s0x390cfd49000e16b7:0x7fdd492a359ff0ad!8m2!3d28.68057!4d77.2665461!16s%2Fg%2F11rc9rdr_1!19sChIJtxYOAEn9DDkRrfCfNSpJ3X8?authuser=0&hl=en&rclk=1,"28.68057,77.2665461"
mdiinaa msjid,Mosque,"9H23+2CQ mdiinaa msjid, Kasarwa, Shahpur, Uttar Pradesh 251318",Kasarwa,9H23+2CQ,Shahpur,251318,Uttar Pradesh,IN,https://www.google.com/maps/place/%E0%A4%AE%E0%A4%A6%E0%A5%80%E0%A4%A8%E0%A4%BE+%E0%A4%AE%E0%A4%B8%E0%A5%8D%E0%A4%9C%E0%A4%BF%E0%A4%A6/data=!4m7!3m6!1s0x390c3d7badead8ab:0x8c10bb2fd793158!8m2!3d29.3500965!4d77.5536168!16s%2Fg%2F11f2wdr4zf!19sChIJq9jqrXs9DDkRWDF5_bILwQg?authuser=0&hl=en&rclk=1,"29.3500965,77.5536168"
Bilal Masjid,Mosque,"2VX9+Q5C Bilal Masjid, Rampur Shahpur, Uttar Pradesh 202142",,2VX9+Q5C,Rampur Shahpur,202142,Uttar Pradesh,IN,https://www.google.com/maps/place/Bilal+Masjid/data=!4m7!3m6!1s0x3973558a12667f69:0xea6475e37b2c6ea5!8m2!3d28.0494408!4d77.867884!16s%2Fg%2F11g0m4h3wr!19sChIJaX9mEopVczkRpW4se-N1ZOo?authuser=0&hl=en&rclk=1,"28.0494408,77.86788399999999"
Gausiya masjid,Mosque,"RHRV+M59 Gausiya masjid, Paigamberpur Urf Shahpur, Uttar Pradesh 244102",,RHRV+M59,Paigamberpur Urf Shahpur,,Uttar Pradesh,IN,https://www.google.com/maps/place/Gausiya+masjid/data=!4m7!3m6!1s0x390b01e396ab5c5b:0x320649ced1f121dd!8m2!3d28.8416717!4d78.5929942!16s%2Fg%2F11pbhzjt0b!19sChIJW1yrluMBCzkR3SHx0c5JBjI?authuser=0&hl=en&rclk=1,"28.8416717,78.59299419999999"
Sadaat Masjid Sirdhani,Mosque,"84PX+927 Sadaat Masjid Sirdhani, Bijnor - Uledha Rd, Shahpur, Uttar Pradesh 246701",,"84PX+927, Bijnor - Uledha Rd",Shahpur,246701,Uttar Pradesh,IN,https://www.google.com/maps/place/Sadaat+Masjid+Sirdhani/data=!4m7!3m6!1s0x390bedb0e9c14fb1:0xcae1387ba374f8aa!8m2!3d29.3359081!4d78.14756!16s%2Fg%2F11rs2_q2d5!19sChIJsU_B6bDtCzkRqvh0o3s44co?authuser=0&hl=en&rclk=1,"29.335908099999997,78.14756"
Madina masjid,Mosque,"X8P2+2QJ Madina masjid, Unnamed Road, Ahamadshahpur Padra, Uttar Pradesh 250601",,"X8P2+2QJ, Unnamed Road",Ahamadshahpur Padra,250601,Uttar Pradesh,IN,https://www.google.com/maps/place/Madina+masjid/data=!4m7!3m6!1s0x390c51931ea41e05:0x436705a15b5d25cf!8m2!3d28.9850814!4d77.3018938!16s%2Fg%2F11pbytjs5q!19sChIJBR6kHpNRDDkRzyVdW6EFZ0M?authuser=0&hl=en&rclk=1,"28.9850814,77.3018938"
Masjid Fatima Nazim Colony Garhmukteshwar,Mosque,"Q3QG+WHQ Masjid Fatima Nazim Colony Garhmukteshwar, Nazim Colony, Shahpur Chaudhary, Garh Mukteshwar, Uttar Pradesh 245205",Nazim Colony,Q3QG+WHQ,"Shahpur Chaudhary, Garh Mukteshwar",245205,Uttar Pradesh,IN,https://www.google.com/maps/place/Masjid+Fatima+Nazim+Colony+Garhmukteshwar/data=!4m7!3m6!1s0x390b7b09f34e2f6f:0x510559b6811494c5!8m2!3d28.7898299!4d78.0764697!16s%2Fg%2F11fmxr_77c!19sChIJby9O8wl7CzkRxZQUgbZZBVE?authuser=0&hl=en&rclk=1,"28.789829899999997,78.07646969999999"
Chand Masjid,Mosque,"9J2R+738 Chand Masjid, Chuharpur Bangar, Chuharpur, Uttar Pradesh 203203",,9J2R+738,"Chuharpur Bangar, Chuharpur",203203,Uttar Pradesh,IN,https://www.google.com/maps/place/Chand+Masjid/data=!4m7!3m6!1s0x390cb9ebb527cfff:0xf68a2e8adc6e4dff!8m2!3d28.350535!4d77.6400851!16s%2Fg%2F11pkfdw4tf!19sChIJ_88nteu5DDkR_01u3IouivY?authuser=0&hl=en&rclk=1,"28.350534999999997,77.6400851"
Masjid,Mosque,"Masjid, 2508, Fasil Rd, Gali Sakko Wali, Shah Ganj, Chandni Chowk, New Delhi, Delhi, 110006","Gali Sakko Wali, Shah Ganj, Chandni Chowk","2508, Fasil Rd","New Delhi, Delhi",110006,Delhi,IN,https://www.google.com/maps/place/Masjid/data=!4m7!3m6!1s0x390cfd15c9a8a4b1:0xf975aada141da03e!8m2!3d28.6491552!4d77.2220471!16s%2Fg%2F1hm4gjxkd!19sChIJsaSoyRX9DDkRPqAdFNqqdfk?authuser=0&hl=en&rclk=1,"28.6491552,77.2220471"
Quba Masjid,Mosque,"FH9F+5C4 Quba Masjid, Hasanpur Shahpur Hakimpur Marg, Baghra, Uttar Pradesh 251306",,"FH9F+5C4, Hasanpur Shahpur Hakimpur Marg",Baghra,251306,Uttar Pradesh,IN,https://www.google.com/maps/place/Quba+Masjid/data=!4m7!3m6!1s0x390c191c4b4cd931:0x76a161a271307b53!8m2!3d29.4678945!4d77.5735707!16s%2Fg%2F11kwdzwg3d!19sChIJMdlMSxwZDDkRU3swcaJhoXY?authuser=0&hl=en&rclk=1,"29.4678945,77.57357069999999"
PURANI MASJID,Mosque,"7J22+XRC PURANI MASJID, Rabupura, Uttar Pradesh 203209",,7J22+XRC,Rabupura,203209,Uttar Pradesh,IN,https://www.google.com/maps/place/PURANI+MASJID/data=!4m7!3m6!1s0x390cb72071e632a5:0x591b8aea3e0eb774!8m2!3d28.2524478!4d77.6020263!16s%2Fg%2F11fpg03tvx!19sChIJpTLmcSC3DDkRdLcOPuqKG1k?authuser=0&hl=en&rclk=1,"28.2524478,77.60202629999999"
Shahi Masjid,Mosque,"P9HF+697 Shahi Masjid, Main Gate, Farrukh nagar, Ghaziabad, Uttar Pradesh",,"P9HF+697, Main Gate, Farrukh nagar","Ghaziabad, Farukh Nagar",,Uttar Pradesh,IN,https://www.google.com/maps/place/Shahi+Masjid/data=!4m7!3m6!1s0x390cfb1d7a720817:0x913a9f49df572a5e!8m2!3d28.7280385!4d77.3734345!16s%2Fg%2F11g_w8n4t1!19sChIJFwhyeh37DDkRXipX30mfOpE?authuser=0&hl=en&rclk=1,"28.7280385,77.3734345"
Masjid,Mosque,"P9HF+33Q Masjid, Farukh Nagar, Uttar Pradesh 201003",,P9HF+33Q,Farukh Nagar,201003,Uttar Pradesh,IN,https://www.google.com/maps/place/Masjid/data=!4m7!3m6!1s0x390cfa018875b495:0xeea7b0caec7e470d!8m2!3d28.7277145!4d77.3727433!16s%2Fg%2F11f0krqvls!19sChIJlbR1iAH6DDkRDUd-7Mqwp-4?authuser=0&hl=en&rclk=1,"28.727714499999998,77.3727433"
Umar masjid Adampur,Mosque,"9G84+6R4 Umar masjid Adampur, Palri, Uttar Pradesh 251318",,9G84+6R4,Palri,251318,Uttar Pradesh,IN,https://www.google.com/maps/place/Umar+masjid+Adampur/data=!4m7!3m6!1s0x390c3d3a72c89335:0x7ffe71b461669396!8m2!3d29.3655125!4d77.5070741!16s%2Fg%2F11sg_wzbd4!19sChIJNZPIcjo9DDkRlpNmYbRx_n8?authuser=0&hl=en&rclk=1,"29.365512499999998,77.5070741"
Madina Masjid,Mosque,"Madina Masjid, Shahapur, Garh Mukteshwar, Shahpur Chaudhary, Uttar Pradesh 245205",Shahapur,,"Garh Mukteshwar, Shahpur Chaudhary",245205,Uttar Pradesh,IN,https://www.google.com/maps/place/Madina+Masjid/data=!4m7!3m6!1s0x390b79c04f458dab:0x664b8906e46f6b29!8m2!3d28.8078565!4d78.0809664!16s%2Fg%2F11rq9hf8g3!19sChIJq41FT8B5CzkRKWtv5AaJS2Y?authuser=0&hl=en&rclk=1,"28.8078565,78.0809664"
Gossiya Masjid,Mosque,"F3VQ+PR2 Gossiya Masjid, Sirauli, Shahpur Ahatmali, Uttar Pradesh 243303",,F3VQ+PR2,"Sirauli, Shahpur Ahatmali",243303,Uttar Pradesh,IN,https://www.google.com/maps/place/Gossiya+Masjid/data=!4m7!3m6!1s0x390ab9f58b8068e9:0xde443d59fb9c391f!8m2!3d28.494447!4d79.0895502!16s%2Fg%2F11q55bnq0y!19sChIJ6WiAi_W5CjkRHzmc-1k9RN4?authuser=0&hl=en&rclk=1,"28.494446999999997,79.08955019999999"
"Shahdabbar, Masjid",Mosque,"8G99+8JF Shahdabbar, Masjid, Shahdabbar, Uttar Pradesh 251318",,8G99+8JF,Shahdabbar,251318,Uttar Pradesh,IN,"https://www.google.com/maps/place/Shahdabbar,+Masjid/data=!4m7!3m6!1s0x390c3d4eae0325f1:0xb37c996c6bf15945!8m2!3d29.3183057!4d77.5190579!16s%2Fg%2F11jp6frnc2!19sChIJ8SUDrk49DDkRRVnxa2yZfLM?authuser=0&hl=en&rclk=1","29.3183057,77.51905789999999"
sdd'k vaalii msjid,Mosque,"8HP3+X45 sdd'k vaalii msjid, Shoron, Uttar Pradesh 251318",,8HP3+X45,Shoron,251318,Uttar Pradesh,IN,https://www.google.com/maps/place/%E0%A4%B8%E0%A4%A1%E0%A4%BC%E0%A4%95+%E0%A4%B5%E0%A4%BE%E0%A4%B2%E0%A5%80+%E0%A4%AE%E0%A4%B8%E0%A5%8D%E0%A4%9C%E0%A4%BF%E0%A4%A6/data=!4m7!3m6!1s0x390c3d9eae810475:0x6794428f0a9b78f5!8m2!3d29.3373958!4d77.5528564!16s%2Fg%2F11p78djc0f!19sChIJdQSBrp49DDkR9XibCo9ClGc?authuser=0&hl=en&rclk=1,"29.3373958,77.5528564"
Masjid,Mosque,"Masjid, Molarband, Badarpur, New Delhi, Delhi 110044","Molarband, Badarpur",,New Delhi,110044,Delhi,IN,https://www.google.com/maps/place/Masjid/data=!4m7!3m6!1s0x390ce75604c9317b:0x95388f2bb1f0f9b2!8m2!3d28.5063324!4d77.3130947!16s%2Fg%2F11rkpbdy5r!19sChIJezHJBFbnDDkRsvnwsSuPOJU?authuser=0&hl=en&rclk=1,"28.506332399999998,77.3130947"
Masjid basi sherpur,Mosque,"X4GV+R56 Masjid basi sherpur, Sherpur Must., Sherpur Ahatmali, Uttar Pradesh 244225",,X4GV+R56,"Sherpur Must., Sherpur Ahatmali",,Uttar Pradesh,IN,https://www.google.com/maps/place/Masjid+basi+sherpur/data=!4m7!3m6!1s0x390b9dc939953ce7:0x74d807b3c00036e3!8m2!3d28.9770454!4d78.1428947!16s%2Fg%2F11rv2txqfm!19sChIJ5zyVOcmdCzkR4zYAwLMH2HQ?authuser=0&hl=en&rclk=1,"28.977045399999998,78.1428947"
Masjid Shahpir,Mosque,"5Q3H+8RG Masjid Shahpir, Mahalka, Uttar Pradesh 250222",,5Q3H+8RG,Mahalka,250222,Uttar Pradesh,IN,https://www.google.com/maps/place/Masjid+Shahpir/data=!4m7!3m6!1s0x390c7365dc4fb13f:0xf84bc39f5d2e8f29!8m2!3d29.1533234!4d77.7795925!16s%2Fg%2F11rxj4r448!19sChIJP7FP3GVzDDkRKY8uXZ_DS_g?authuser=0&hl=en&rclk=1,"29.153323399999998,77.77959249999999"
Baba ji temple niloni shahpur,Hindu temple,"7HM8+VQ2 Baba ji temple niloni shahpur, Nilonip Shahpur, Uttar Pradesh 203209",,7HM8+VQ2,Nilonip Shahpur,,Uttar Pradesh,IN,https://www.google.com/maps/place/Baba+ji+temple+niloni+shahpur/data=!4m7!3m6!1s0x390cb74834962857:0x31002ae0f1f3cfab!8m2!3d28.2846318!4d77.5668893!16s%2Fg%2F11sxvq7147!19sChIJVyiWNEi3DDkRq8_z8eAqADE?authuser=0&hl=en&rclk=1,"28.2846318,77.5668893"
Siri Fort Masjid,Place of worship,"G6X6+MP3 Siri Fort Masjid, New, Shahpur Jat, Siri Fort, New Delhi, Delhi 110049","Shahpur Jat, Siri Fort","G6X6+MP3, New",New Delhi,110049,Delhi,IN,https://www.google.com/maps/place/Siri+Fort+Masjid/data=!4m7!3m6!1s0x390ce3405174422b:0x395899ae54d0f665!8m2!3d28.549136!4d77.211793!16s%2Fg%2F11sg_0rdcm!19sChIJK0J0UUDjDDkRZfbQVK6ZWDk?authuser=0&hl=en&rclk=1,"28.549135999999997,77.211793"
Masjid,Mosque,"X2GW+PWC Masjid, Nangal Shahpur, Haryana 122108",,X2GW+PWC,Nangal Shahpur,122108,Haryana,IN,https://www.google.com/maps/place/Masjid/data=!4m7!3m6!1s0x3972d382a0c269ab:0x96296a0c3069ac00!8m2!3d27.9768003!4d77.0472811!16s%2Fg%2F11qylm08nf!19sChIJq2nCoILTcjkRAKxpMAxqKZY?authuser=0&hl=en&rclk=1,"27.976800299999997,77.04728109999999"
Madeena Masjid Shahpur Sirpura,Mosque,"PGF5+GGG Madeena Masjid Shahpur Sirpura, Shahpur Sirpura, Murtala, Uttar Pradesh 244304",,PGF5+GGG,"Shahpur Sirpura, Murtala",,Uttar Pradesh,IN,https://www.google.com/maps/place/Madeena+Masjid+Shahpur+Sirpura/data=!4m7!3m6!1s0x390b1b6b7fafd8cd:0xf6200826ca82bb17!8m2!3d28.7238187!4d78.5088217!16s%2Fg%2F11s560kzp1!19sChIJzdivf2sbCzkRF7uCyiYIIPY?authuser=0&hl=en&rclk=1,"28.7238187,78.5088217"
Masjid khankah,Mosque,"X2GX+C2Q Masjid khankah, Nangal Shahpur, Haryana 122108",,X2GX+C2Q,Nangal Shahpur,122108,Haryana,IN,https://www.google.com/maps/place/Masjid+khankah/data=!4m7!3m6!1s0x3972d341096f5913:0xaad4c68839a371a0!8m2!3d27.9760888!4d77.0476086!16s%2Fg%2F11ns1hs_zz!19sChIJE1lvCUHTcjkRoHGjOYjG1Ko?authuser=0&hl=en&rclk=1,"27.9760888,77.04760859999999"
kabristan wali masjid,Mosque,"9G3X+44F kabristan wali masjid, Gokulpur, Shahpur, Uttar Pradesh 251318",Gokulpur,9G3X+44F,Shahpur,251318,Uttar Pradesh,IN,https://www.google.com/maps/place/kabristan+wali+masjid/data=!4m7!3m6!1s0x390c3d702ba53123:0x12620a387071124e!8m2!3d29.352815!4d77.5478105!16s%2Fg%2F11gfbgnxly!19sChIJIzGlK3A9DDkRThJxcDgKYhI?authuser=0&hl=en&rclk=1,"29.352815,77.5478105"
Juma Khutba 2:30 PM Masjid,Mosque,"P77H+882 Juma Khutba 2:30 PM Masjid, Hasanpur, Shahpur Kalan, Uttar Pradesh 244241",,P77H+882,"Hasanpur, Shahpur Kalan",244241,Uttar Pradesh,IN,https://www.google.com/maps/place/Juma+Khutba+2:30+PM+Masjid/data=!4m7!3m6!1s0x390b6dbede4836e7:0x2fe9b1ce80e8fb07!8m2!3d28.7122792!4d78.2779181!16s%2Fg%2F11qbch9hb2!19sChIJ5zZI3r5tCzkRB_vogM6x6S8?authuser=0&hl=en&rclk=1,"28.712279199999998,78.2779181"
Noorani Masjid,Mosque,"QJPF+PV5 Noorani Masjid, Shahpur Dasar, Uttar Pradesh 244102",,QJPF+PV5,Shahpur Dasar,244102,Uttar Pradesh,IN,https://www.google.com/maps/place/Noorani+Masjid/data=!4m7!3m6!1s0x390b035932f84425:0x36662b1ed84bcaee!8m2!3d28.7867571!4d78.6247462!16s%2Fg%2F11rwk463sx!19sChIJJUT4MlkDCzkR7spL2B4rZjY?authuser=0&hl=en&rclk=1,"28.7867571,78.62474619999999"
Choupal vali masjid,Mosque,"8HM3+PJC Choupal vali masjid, Shoron, Uttar Pradesh 251318",,8HM3+PJC,Shoron,251318,Uttar Pradesh,IN,https://www.google.com/maps/place/Choupal+vali+masjid/data=!4m7!3m6!1s0x390c3dd3fa20a30b:0xdbed24c1a4154801!8m2!3d29.3343085!4d77.5540178!16s%2Fg%2F11q1vv2r48!19sChIJC6Mg-tM9DDkRAUgVpMEk7ds?authuser=0&hl=en&rclk=1,"29.3343085,77.5540178"
Masjid,Mosque,"Masjid, Gali No 19, Gali Number 1, Mustafabad Extn, New Mustafabad, Delhi, 110094","E2 Block, Mustafabad Extn, New Mustafabad","Gali No 19, Gali Number 1",Delhi,110094,Delhi,IN,https://www.google.com/maps/place/Masjid/data=!4m7!3m6!1s0x390cfc1b020b0e91:0xb48a3c3233e41cbd!8m2!3d28.711773!4d77.272563!16s%2Fg%2F12hpqnhjr!19sChIJkQ4LAhv8DDkRvRzkMzI8irQ?authuser=0&hl=en&rclk=1,"28.711772999999997,77.27256299999999"
Sufi Sarmad Masjid,Mosque,"M62M+9VV Sufi Sarmad Masjid, Meena Bazaar, Jama Masjid, Chandni Chowk, New Delhi, Delhi, 110006","Meena Bazaar, Jama Masjid, Chandni Chowk",M62M+9VV,"New Delhi, Delhi",110006,Delhi,IN,https://www.google.com/maps/place/Sufi+Sarmad+Masjid/data=!4m7!3m6!1s0x390cfd41357cf49b:0xda7c94c6b059c8ec!8m2!3d28.6509791!4d77.2346736!16s%2Fg%2F11qsszk22b!19sChIJm_R8NUH9DDkR7MhZsMaUfNo?authuser=0&hl=en&rclk=1,"28.650979099999997,77.2346736"
Masjid,Mosque,"Masjid, 8/2, Budh Bazar, Block L 1, Devli, Sangam Vihar, New Delhi, Delhi 110062","Budh Bazar, Block L 1, Devli, Sangam Vihar",8/2,New Delhi,110062,Delhi,IN,https://www.google.com/maps/place/Masjid/data=!4m7!3m6!1s0x390ce1dde82b3bc3:0x4d3537cacd38aec4!8m2!3d28.4940769!4d77.2261653!16s%2Fg%2F11rk33_10p!19sChIJwzsr6N3hDDkRxK44zco3NU0?authuser=0&hl=en&rclk=1,"28.4940769,77.22616529999999"
Jama Masjid Shahpur Choudhary,Mosque,"R34H+Q66 Jama Masjid Shahpur Choudhary, Shahpur Chaudhary, Uttar Pradesh 245205",,R34H+Q66,Shahpur Chaudhary,245205,Uttar Pradesh,IN,https://www.google.com/maps/place/Jama+Masjid+Shahpur+Choudhary/data=!4m7!3m6!1s0x390b79e604e1265f:0xc274e73e01f63073!8m2!3d28.8069036!4d78.0780081!16s%2Fg%2F11s_rtk36h!19sChIJXybhBOZ5CzkRczD2AT7ndMI?authuser=0&hl=en&rclk=1,"28.8069036,78.07800809999999"
Jama Masjid Shahpur,Mosque,"R5QH+9GX Jama Masjid Shahpur, Shahpur Urf Sahabpur, Uttar Pradesh 244235",,R5QH+9GX,Shahpur Urf Sahabpur,244235,Uttar Pradesh,IN,https://www.google.com/maps/place/Jama+Masjid+Shahpur/data=!4m7!3m6!1s0x390b777d924c0837:0x874fec3d8d95d53e!8m2!3d28.8384918!4d78.1788734!16s%2Fg%2F11qq2k2twy!19sChIJNwhMkn13CzkRPtWVjT3sT4c?authuser=0&hl=en&rclk=1,"28.8384918,78.1788734"
Gosiya masjid,Mosque,"2VX7+X9C Gosiya masjid, Rampur Shahpur, Uttar Pradesh 202142",,2VX7+X9C,Rampur Shahpur,202142,Uttar Pradesh,IN,https://www.google.com/maps/place/Gosiya+masjid/data=!4m7!3m6!1s0x397355fa6f454f03:0x1e6f5692ee62866e!8m2!3d28.0499445!4d77.8633983!16s%2Fg%2F11qsklnpdq!19sChIJA09Fb_pVczkRboZi7pJWbx4?authuser=0&hl=en&rclk=1,"28.0499445,77.8633983"
Shahi Masjid,Mosque,"V74V+4RQ Shahi Masjid, Shahpur Bujurg, Uttar Pradesh 244235",,V74V+4RQ,Shahpur Bujurg,,Uttar Pradesh,IN,https://www.google.com/maps/place/Shahi+Masjid/data=!4m7!3m6!1s0x390b0b0315006c51:0x1bef876f5e8a6d9e!8m2!3d28.8553433!4d78.2945939!16s%2Fg%2F11q8wcvq59!19sChIJUWwAFQMLCzkRnm2KXm-H7xs?authuser=0&hl=en&rclk=1,"28.855343299999998,78.2945939"
Masjid,Place of worship,"9G2X+329 Masjid, Kasarwa, Shahpur, Uttar Pradesh 251318",Kasarwa,9G2X+329,Shahpur,,Uttar Pradesh,IN,https://www.google.com/maps/place/Masjid/data=!4m7!3m6!1s0x390c3de1a531501f:0x4709964c422012b!8m2!3d29.3501661!4d77.5476117!16s%2Fg%2F11tn6c73gh!19sChIJH1AxpeE9DDkRKwEixGSZcAQ?authuser=0&hl=en&rclk=1,"29.3501661,77.54761169999999"
gulshn bhaar msjid,Mosque,"WR94+5M9 gulshn bhaar msjid, Shahpur Ahatmali, Uttar Pradesh 244402",,WR94+5M9,Shahpur Ahatmali,244402,Uttar Pradesh,IN,https://www.google.com/maps/place/%E0%A4%97%E0%A5%81%E0%A4%B2%E0%A4%B6%E0%A4%A8+%E0%A4%AC%E0%A4%B9%E0%A4%BE%E0%A4%B0+%E0%A4%AE%E0%A4%B8%E0%A5%8D%E0%A4%9C%E0%A4%BF%E0%A4%A6/data=!4m7!3m6!1s0x390af9e31b6a0b4b:0xfdff2786aec73fa6!8m2!3d28.9179157!4d78.8067264!16s%2Fg%2F11jt4w5x5p!19sChIJSwtqG-P5CjkRpj_HroYn__0?authuser=0&hl=en&rclk=1,"28.9179157,78.8067264"
Motiyan (Choti) Masjid Quraishiyan,Mosque,"9G4J+2WR Motiyan (Choti) Masjid Quraishiyan, palri, Shahpur, Uttar Pradesh",,"9G4J+2WR, palri","Shahpur, Palri",,Uttar Pradesh,IN,https://www.google.com/maps/place/Motiyan+%28Choti%29+Masjid+Quraishiyan/data=!4m7!3m6!1s0x390c3d4ba146e73b:0xd5fe16adccc2e844!8m2!3d29.3551053!4d77.5322619!16s%2Fg%2F11rp_ss8s4!19sChIJO-dGoUs9DDkRROjCzK0W_tU?authuser=0&hl=en&rclk=1,"29.355105299999998,77.5322619"
CHAND MASJID NAGLI,Mosque,"CHAND MASJID NAGLI, Vill shahpur nangli, teh, Nuh, Shahpur Nagli, Haryana 122107",,"Vill shahpur nangli, teh","Nuh, Shahpur Nagli",122107,Haryana,IN,https://www.google.com/maps/place/CHAND+MASJID+NAGLI/data=!4m7!3m6!1s0x390d2d0f7f028fd1:0x5d79afc7d634ffef!8m2!3d28.1249936!4d77.0190228!16s%2Fg%2F11rxsqvf8s!19sChIJ0Y8Cfw8tDTkR7_801seveV0?authuser=0&hl=en&rclk=1,"28.1249936,77.0190228"
Masjid,Religious destination,"Q887+M3M Masjid, Shahpur Urf Bhootkhadedi, Uttar Pradesh 244242",,Q887+M3M,Shahpur Urf Bhootkhadedi,244242,Uttar Pradesh,IN,https://www.google.com/maps/place/Masjid/data=!4m7!3m6!1s0x390b0d4b89187195:0xf16b18380f55c91d!8m2!3d28.7667248!4d78.3126792!16s%2Fg%2F11trn1nfz5!19sChIJlXEYiUsNCzkRHclVDzgYa_E?authuser=0&hl=en&rclk=1,"28.7667248,78.31267919999999"
Madeena masjid bagh wali masjid,Mosque,"C755+GX7 Madeena masjid bagh wali masjid, Umari Baruki Rd, Shahpur, Baruki, Uttar Pradesh 246764",,"C755+GX7, Umari Baruki Rd","Shahpur, Baruki",246764,Uttar Pradesh,IN,https://www.google.com/maps/place/Madeena+masjid+bagh+wali+masjid/data=!4m7!3m6!1s0x390be90a9fb4b9d1:0x5920ff53f4a8695f!8m2!3d29.4090702!4d78.2601173!16s%2Fg%2F11kpk_4h8j!19sChIJ0bm0nwrpCzkRX2mo9FP_IFk?authuser=0&hl=en&rclk=1,"29.4090702,78.26011729999999"
Madina masjid,Mosque,"R5WG+GHR Madina masjid, Shahpur Urf Sahabpur, Uttar Pradesh 244235",,R5WG+GHR,Shahpur Urf Sahabpur,244235,Uttar Pradesh,IN,https://www.google.com/maps/place/Madina+masjid/data=!4m7!3m6!1s0x390b77f05744ddf9:0x39ce819bb3a031f0!8m2!3d28.8463747!4d78.1763937!16s%2Fg%2F11h6md3ywc!19sChIJ-d1EV_B3CzkR8DGgs5uBzjk?authuser=0&hl=en&rclk=1,"28.8463747,78.17639369999999"
Sakko wali Masjid skhWw wly msjd (Dholukhal),Mosque,"GHWR+G4H Sakko wali Masjid skhWw wly msjd (Dholukhal), Hasanpur Shahpur Hakimpur Marg, Charthawal, Uttar Pradesh 251311",,"GHWR+G4H, Hasanpur Shahpur Hakimpur Marg",Charthawal,251311,Uttar Pradesh,IN,https://www.google.com/maps/place/Sakko+wali+Masjid+%D8%B3%DA%A9%D9%91%D9%88+%D9%88%D8%A7%D9%84%DB%8C+%D9%85%D8%B3%D8%AC%D8%AF+%28Dholukhal%29%E2%80%AD/data=!4m7!3m6!1s0x390c1fc6801735d3:0x3f6ef73914cbfff5!8m2!3d29.54622!4d77.590479!16s%2Fg%2F11s5fmbmxc!19sChIJ0zUXgMYfDDkR9f_LFDn3bj8?authuser=0&hl=en&rclk=1,"29.546219999999998,77.590479"
Afsari Masjid,Mosque,"MMFM+VG Afsari Masjid, Azampur, Uttar Pradesh 245301",,MMFM+VG,Azampur,,Uttar Pradesh,IN,https://www.google.com/maps/place/Afsari+Masjid/data=!4m7!3m6!1s0x390c8fa6f526e671:0xffac6d718ad3a02a!8m2!3d28.6746635!4d77.6837958!16s%2Fg%2F11s92p5zgw!19sChIJceYm9aaPDDkRKqDTinFtrP8?authuser=0&hl=en&rclk=1,"28.674663499999998,77.6837958"
Masjid namaj is the best,Parsi temple,"Masjid namaj is the best, 13, North, Sector B4, Narela, New Delhi, Delhi, 110040","Sector B4, Narela","13, North","New Delhi, Delhi",110040,Delhi,IN,https://www.google.com/maps/place/Masjid+namaj+is+the+best/data=!4m7!3m6!1s0x390dabc573f944f9:0x5c4b221563bdc978!8m2!3d28.828294!4d77.1128879!16s%2Fg%2F11rg7s1bsv!19sChIJ-UT5c8WrDTkReMm9YxUiS1w?authuser=0&hl=en&rclk=1,"28.828294,77.11288789999999"
Masjid,Mosque,"H662+8G4 Masjid, Green Park Ext Rd, Block J, Green Park Extension, Green Park, New Delhi, Delhi 110016","Block J, Green Park Extension, Green Park","H662+8G4, Green Park Ext Rd",New Delhi,110016,Delhi,IN,https://www.google.com/maps/place/Masjid/data=!4m7!3m6!1s0x390ce3053c6f74cf:0x33b8d79c09cb4f99!8m2!3d28.5607743!4d77.2013357!16s%2Fg%2F11krd8fpw7!19sChIJz3RvPAXjDDkRmU_LCZzXuDM?authuser=0&hl=en&rclk=1,"28.5607743,77.2013357"
Aarfee masjid,Mosque,"8HHQ+H6G Aarfee masjid, Usmanpur, Uttar Pradesh 203201",,8HHQ+H6G,Usmanpur,203201,Uttar Pradesh,IN,https://www.google.com/maps/place/Aarfee+masjid/data=!4m7!3m6!1s0x390cb9848928e3a3:0x96b3c9baa128a5e7!8m2!3d28.3289325!4d77.5880727!16s%2Fg%2F11fqsckbyl!19sChIJo-MoiYS5DDkR56UoobrJs5Y?authuser=0&hl=en&rclk=1,"28.328932499999997,77.5880727"
Masjid,Mosque,"M794+RG5 Masjid, Block A, Shastri Park, Shahdara, Delhi, 110053","Block A, Shastri Park, Shahdara",M794+RG5,Delhi,,Delhi,IN,https://www.google.com/maps/place/Masjid/data=!4m7!3m6!1s0x390cfd74b6378221:0x2da5c9212f831088!8m2!3d28.6695164!4d77.2563643!16s%2Fg%2F11tb42z9g0!19sChIJIYI3tnT9DDkRiBCDLyHJpS0?authuser=0&hl=en&rclk=1,"28.6695164,77.2563643"
Shahi Masjid,Mosque,"P9GF+7JF Shahi Masjid, Ghaziabad, Farukh Nagar, Uttar Pradesh 201003",,P9GF+7JF,"Ghaziabad, Farukh Nagar",201003,Uttar Pradesh,IN,https://www.google.com/maps/place/Shahi+Masjid/data=!4m7!3m6!1s0x390cfbe3c127d11d:0xaeb51f9089fe1035!8m2!3d28.7256936!4d77.3740438!16s%2Fg%2F11h845v6bn!19sChIJHdEnweP7DDkRNRD-iZAfta4?authuser=0&hl=en&rclk=1,"28.7256936,77.3740438"
Ashrafi masjid shodatt,Mosque,"WXXP+393 Ashrafi masjid shodatt, Shodatt, Uttar Pradesh 250406",,WXXP+393,Shodatt,250406,Uttar Pradesh,IN,https://www.google.com/maps/place/Ashrafi+masjid+shodatt/data=!4m7!3m6!1s0x390b81eb209a792b:0x258d11bd991aa7f!8m2!3d28.9476272!4d77.9859245!16s%2Fg%2F11s3y77dxm!19sChIJK3maIOuBCzkRf6qR2RvRWAI?authuser=0&hl=en&rclk=1,"28.9476272,77.9859245"
Masjid,Mosque,"Shop No: 5035, Masjid, Netaji Subhash Marg, Daryaganj, New Delhi, Delhi, 110002",Daryaganj,"Shop No: 5035, Netaji Subhash Marg","New Delhi, Delhi",110002,Delhi,IN,https://www.google.com/maps/place/Masjid/data=!4m7!3m6!1s0x390cfdf175041b95:0x8ef57a2bc9f92c1c!8m2!3d28.6480954!4d77.2403964!16s%2Fg%2F11s664lvxh!19sChIJlRsEdfH9DDkRHCz5ySt69Y4?authuser=0&hl=en&rclk=1,"28.6480954,77.2403964"
