name,main_category,address,address_ward,address_street,address_city,address_postal_code,address_state,address_country_code,link,coordinates
Taximens Colony Masjid,Mosque,"Taximens Colony Masjid, Near Gate number 2, BKC road Taximens colony, Lal Bahadur Shastri Marg, Kurla West, Mumbai, Maharashtra 400070","Ram Manohar Lohiya Nagar, Kurla West, Kurla","Near Gate number 2, BKC road Taximens colony, Lal Bahadur Shastri Marg",Mumbai,400070,Maharashtra,IN,https://www.google.com/maps/place/Taximens+Colony+Masjid/data=!4m7!3m6!1s0x3be7c8ed2923b24d:0xe98497d23206aed6!8m2!3d19.0705168!4d72.8746236!16s%2Fg%2F1tfj1n5g!19sChIJTbIjKe3I5zsR1q4GMtKXhOk?authuser=0&hl=en&rclk=1,"19.0705168,72.87462359999999"
Qutub Shahi Masjid quTub shahiy masjid,Mosque,"9HR3+QW2 Qutub Shahi Masjid quTub shahiy masjid, Ramanthapur, Laxmi Narayan Nagar Colony, Gaddi annaram, Hyderabad, Telangana 500039","Ramanthapur, Laxmi Narayan Nagar Colony, Gaddi annaram",9HR3+QW2,Hyderabad,500039,Telangana,IN,https://www.google.com/maps/place/Qutub+Shahi+Masjid+%D9%82%D9%8F%D8%B7%D9%8F%D8%A8+%D8%B4%D9%8E%D8%A7%DB%81%D9%90%DB%8C+%D9%85%D9%8E%D8%B3%D9%92%D8%AC%D9%90%D8%AF%E2%80%AD/data=!4m7!3m6!1s0x3bcb992f56ef7303:0x931988ac89e0a0cf!8m2!3d17.3918846!4d78.5547507!16s%2Fg%2F1hhw4f3tq!19sChIJA3PvVi-ZyzsRz6DgiayIGZM?authuser=0&hl=en&rclk=1,"17.3918846,78.5547507"
Masjid-e-allama anwar shah idara-e-anwarul madaris,Mosque,"Masjid-e-allama anwar shah idara-e-anwarul madaris, HIG-B-10, old police starion, opposite to santosh nagar, Sai Ratna Arcade, New Santoshnagar, Santosh Nagar, Hyderabad, Telangana 500059","Sai Ratna Arcade, New Santoshnagar, Santosh Nagar","HIG-B-10, old police starion, opposite to santosh nagar",Hyderabad,500059,Telangana,IN,https://www.google.com/maps/place/Masjid-e-allama+anwar+shah+idara-e-anwarul+madaris/data=!4m7!3m6!1s0x3bcb99e1f827e171:0xfa073d044ee8d6ee!8m2!3d17.3471149!4d78.5046741!16s%2Fg%2F11rhp_s24s!19sChIJceEn-OGZyzsR7tboTgQ9B_o?authuser=0&hl=en&rclk=1,"17.347114899999998,78.5046741"
Anjuman Ishlahul Musleemeen Masjid,Mosque,"3V28+J3P Anjuman Ishlahul Musleemeen Masjid, Prem Nagar, Lal Bahadur Shastri Marg, Sion West, Mumbai, Maharashtra 400022","Sion West, Dharavi","3V28+J3P, Prem Nagar, Lal Bahadur Shastri Marg",Mumbai,400022,Maharashtra,IN,https://www.google.com/maps/place/Anjuman+Ishlahul+Musleemeen+Masjid/data=!4m7!3m6!1s0x3be7c8c51a1da82b:0xd939bcacfc44d65!8m2!3d19.0515968!4d72.865194!16s%2Fg%2F11bzrppcnm!19sChIJK6gdGsXI5zsRZU3Ez8qbkw0?authuser=0&hl=en&rclk=1,"19.0515968,72.865194"
Mohammedia Masjid,Mosque,"9GC7+4P6 Mohammedia Masjid, Saleem Nagar Colony, Malakpet Extension, Malakpet, Hyderabad, Telangana 500036","Saleem Nagar Colony, Malakpet Extension, Malakpet",9GC7+4P6,Hyderabad,500036,Telangana,IN,https://www.google.com/maps/place/Mohammedia+Masjid/data=!4m7!3m6!1s0x3bcb985a10d598f1:0xd4d7e3084055874c!8m2!3d17.3702782!4d78.5142637!16s%2Fg%2F1tdqm2_f!19sChIJ8ZjVEFqYyzsRTIdVQAjj19Q?authuser=0&hl=en&rclk=1,"17.370278199999998,78.5142637"
Masjid-e-Qutub Shahi,Mosque,"CH28+PCG Masjid-e-Qutub Shahi, Masjid-e-Qutub Shahi St, Prashanth Nagar, Uppal, Hyderabad, Telangana 500039","Prashanth Nagar, Uppal","CH28+PCG, Masjid-e-Qutub Shahi St",Hyderabad,500039,Telangana,IN,https://www.google.com/maps/place/Masjid-e-Qutub+Shahi/data=!4m7!3m6!1s0x3bcb9ecccb28b02f:0x91744215100ba7a4!8m2!3d17.4018172!4d78.5660747!16s%2Fg%2F1tvq2l29!19sChIJL7Aoy8yeyzsRpKcLEBVCdJE?authuser=0&hl=en&rclk=1,"17.4018172,78.5660747"
Jamia Masjid Saleem Nagar,Mosque,"Jamia Masjid Saleem Nagar, MJ Residency, 16-11-15/15/1, Masjid Saleem Nagar Rd, Saleem Nagar Colony, Malakpet Extension, Old Malakpet, Hyderabad, Telangana 500036","Saleem Nagar Colony, Malakpet Extension, Old Malakpet","MJ Residency, 16-11-15/15/1, Masjid Saleem Nagar Rd",Hyderabad,500036,Telangana,IN,https://www.google.com/maps/place/Jamia+Masjid+Saleem+Nagar/data=!4m7!3m6!1s0x3bcb9851e676df5d:0xc98c897bdb32c3ba!8m2!3d17.3759361!4d78.5098717!16s%2Fg%2F1tm8cftz!19sChIJXd925lGYyzsRusMy23uJjMk?authuser=0&hl=en&rclk=1,"17.3759361,78.50987169999999"
Jama Masjid Mohiuddin,Mosque,"Jama Masjid Mohiuddin, 65, Prashanth Nagar, Vanasthalipuram, Hyderabad, Telangana 500070",Prashanth Nagar,65,"Vanasthalipuram, Hyderabad",500070,Telangana,IN,https://www.google.com/maps/place/Jama+Masjid+Mohiuddin/data=!4m7!3m6!1s0x3bcba1f8d42c7bad:0x18def2ede1be7350!8m2!3d17.3334579!4d78.5687886!16s%2Fg%2F11bw5zqr0x!19sChIJrXss1PihyzsRUHO-4e3y3hg?authuser=0&hl=en&rclk=1,"17.3334579,78.56878859999999"
Masjid-E-Siddique Qamar,Mosque,"Masjid-E-Siddique Qamar, Afzal Nagar, Malakpet Extension, Malakpet, Hyderabad, Telangana 500036","Afzal Nagar, Malakpet Extension, Malakpet",,Hyderabad,500036,Telangana,IN,https://www.google.com/maps/place/Masjid-E-Siddique+Qamar/data=!4m7!3m6!1s0x3bcb98530e002d69:0x5a6efaec63eead1d!8m2!3d17.3808103!4d78.5131785!16s%2Fg%2F1tgx0gwz!19sChIJaS0ADlOYyzsRHa3uY-z6blo?authuser=0&hl=en&rclk=1,"17.3808103,78.5131785"
Masjid E Nusrath,Mosque,"Masjid E Nusrath, MIG-H-87/B, Sohail Ahmed Ln, New Santoshnagar, Santosh Nagar, Hyderabad, Telangana 500059","New Santoshnagar, Santosh Nagar","MIG-H-87/B, Sohail Ahmed Ln",Hyderabad,500059,Telangana,IN,https://www.google.com/maps/place/Masjid+E+Nusrath/data=!4m7!3m6!1s0x3bcb986e6849a545:0x2a03daa55ec9c35c!8m2!3d17.349655!4d78.5049235!16s%2Fg%2F11bx3wlc7h!19sChIJRaVJaG6YyzsRXMPJXqXaAyo?authuser=0&hl=en&rclk=1,"17.349655,78.50492349999999"
Masjid E Yunus Ahle Hadees,Mosque,"9GJ6+6GJ Masjid E Yunus Ahle Hadees, Masjid Rd, Afzal Nagar, Malakpet Extension, Old Malakpet, Hyderabad, Telangana 500036","Afzal Nagar, Malakpet Extension, Old Malakpet","9GJ6+6GJ, Masjid Rd",Hyderabad,500036,Telangana,IN,https://www.google.com/maps/place/Masjid+E+Yunus+Ahle+Hadees/data=!4m7!3m6!1s0x3bcb9852f1ad09e7:0xca7d014b7545693f!8m2!3d17.3805794!4d78.5112736!16s%2Fg%2F11g8f_kmq9!19sChIJ5wmt8VKYyzsRP2lFdUsBfco?authuser=0&hl=en&rclk=1,"17.3805794,78.5112736"
Madina Masjid,Mosque,"Madina Masjid, Banu Nagar, Madannapet, 17-1-181/m/114, Standard Tutorials Rd, Darab Jung Colony, Saidabad, Hyderabad, Telangana 500059","Darab Jung Colony, Saidabad","Banu Nagar, Madannapet, 17-1-181/m/114, Standard Tutorials Rd",Hyderabad,500059,Telangana,IN,https://www.google.com/maps/place/Madina+Masjid/data=!4m7!3m6!1s0x3bcb986c6a18ac69:0xa652ef9f40363d71!8m2!3d17.3518493!4d78.5019038!16s%2Fg%2F1v3kfz64!19sChIJaawYamyYyzsRcT02QJ_vUqY?authuser=0&hl=en&rclk=1,"17.351849299999998,78.5019038"
Masjid-e-Zuljalal,Mosque,"8FMQ+M38 Masjid-e-Zuljalal, Gulshan-E-Iqbal Colony, Phool Bagh Rd, Baba Nagar, Hyderabad, Telangana 500005","Phool Bagh, Baba Nagar","8FMQ+M38, Gulshan-E-Iqbal Colony, Phool Bagh Rd",Hyderabad,500005,Telangana,IN,https://www.google.com/maps/place/Masjid-e-Zuljalal/data=!4m7!3m6!1s0x3bcba2a7b00fc339:0x9d5548dab1ea230!8m2!3d17.334154!4d78.4877155!16s%2Fg%2F1wf2096l!19sChIJOcMPsKeiyzsRMKIeq41U1Qk?authuser=0&hl=en&rclk=1,"17.334153999999998,78.4877155"
Masjid E Mohammadi Ahle Hadees Akash Nagar,Mosque,"9GRF+P4F Masjid E Mohammadi Ahle Hadees Akash Nagar, 2-3-444/20, NH163, Akash Nagar, Amberpet, Hyderabad, Telangana 500013","Akash Nagar, Amberpet","9GRF+P4F, 2-3-444/20, NH163",Hyderabad,500013,Telangana,IN,https://www.google.com/maps/place/Masjid+E+Mohammadi+Ahle+Hadees+Akash+Nagar/data=!4m7!3m6!1s0x3bcb99ab9ab820ef:0x40db10c7e443a027!8m2!3d17.3917967!4d78.5235942!16s%2Fg%2F11c3s95rq1!19sChIJ7yC4mquZyzsRJ6BD5McQ20A?authuser=0&hl=en&rclk=1,"17.3917967,78.52359419999999"
Husainiya Masjid,Mosque,"5W7P+HCR Husainiya Masjid, Near Link Road, Sonapur Road, Lal Bahadur Shastri Marg, Sonapur, Mulund West, Mumbai, Maharashtra 400080","Sonapur, Mulund West","5W7P+HCR, Near Link Road, Sonapur Road, Lal Bahadur Shastri Marg",Mumbai,400080,Maharashtra,IN,https://www.google.com/maps/place/Husainiya+Masjid/data=!4m7!3m6!1s0x3be7b85c9358d3e9:0xd7bccf7fdd71f2cd!8m2!3d19.1639894!4d72.9360085!16s%2Fg%2F1ptz04dm8!19sChIJ6dNYk1y45zsRzfJx3X_PvNc?authuser=0&hl=en&rclk=1,"19.1639894,72.9360085"
Masjid And Dargah Hazrat Sayyed Shamshuddin Rehmatullah Alaih,Mosque,"4WMH+JFR Masjid And Dargah Hazrat Sayyed Shamshuddin Rehmatullah Alaih, Lal Bahadur Shastri Marg, MMRDA Colony, Ambedkar Nagar, Kanjurmarg West, Bhandup West, Mumbai, Maharashtra 400078","MMRDA Colony, Ambedkar Nagar, Kanjurmarg West, Bhandup West","4WMH+JFR, Lal Bahadur Shastri Marg",Mumbai,400078,Maharashtra,IN,https://www.google.com/maps/place/Masjid+And+Dargah+Hazrat+Sayyed+Shamshuddin+Rehmatullah+Alaih/data=!4m7!3m6!1s0x3be7c78989588ea5:0x64f1db8fb81ed36b!8m2!3d19.1341202!4d72.9286489!16s%2Fg%2F1pty_tfb5!19sChIJpY5YiYnH5zsRa9MeuI_b8WQ?authuser=0&hl=en&rclk=1,"19.134120199999998,72.9286489"
Global hospital Masjid,Mosque,"8GWQ+7PC Global hospital Masjid, Laxmi Enclave, Bhagya Nagar, Saroornagar, Hyderabad, Telangana 500035","Laxmi Enclave, Bhagya Nagar",8GWQ+7PC,"Saroornagar, Hyderabad",500035,Telangana,IN,https://www.google.com/maps/place/Global+hospital+Masjid/data=!4m7!3m6!1s0x3bcb99ce31bc00ad:0xf410b42d370ed4d9!8m2!3d17.3456975!4d78.5392703!16s%2Fg%2F11h114b5ny!19sChIJrQC8Mc6ZyzsR2dQONy20EPQ?authuser=0&hl=en&rclk=1,"17.3456975,78.5392703"
Sunni Mohammadiya Jama Masjid,Mosque,"5W6P+XXW Sunni Mohammadiya Jama Masjid, Lal Bahadur Shastri Marg, Ram Rahim Udyog Nagar, Sonapur, Bhandup West, Mumbai, Maharashtra 400078","Ram Rahim Udyog Nagar, Sonapur, Bhandup West","5W6P+XXW, Lal Bahadur Shastri Marg",Mumbai,400078,Maharashtra,IN,https://www.google.com/maps/place/Sunni+Mohammadiya+Jama+Masjid/data=!4m7!3m6!1s0x3be7b85dab0d1e1b:0x85e662a218b44df5!8m2!3d19.1624903!4d72.9374679!16s%2Fg%2F1pt_ylz7r!19sChIJGx4Nq1245zsR9U20GKJi5oU?authuser=0&hl=en&rclk=1,"19.162490299999998,72.9374679"
Sunni Hari Masjid,Mosque,"156, Sunni Hari Masjid, 9, Lal Bahadur Shastri Marg, Kurla West, Kurla, Mumbai, Maharashtra 400070","Kurla West, Kurla","156, 9, Lal Bahadur Shastri Marg",Mumbai,400070,Maharashtra,IN,https://www.google.com/maps/place/Sunni+Hari+Masjid/data=!4m7!3m6!1s0x3be7c8ea90fa1b21:0xef249333a1ed3add!8m2!3d19.0625162!4d72.8731731!16s%2Fg%2F11bzq31m65!19sChIJIRv6kOrI5zsR3TrtoTOTJO8?authuser=0&hl=en&rclk=1,"19.062516199999997,72.8731731"
Masjid-E-Abubakar,Mosque,"Masjid-E-Abubakar, Majid-E-Abubakar, Salar Nagar Rd, Salala Nagar, Madannapet Colony, Hyderabad, Telangana 500059","Salala Nagar, Madannapet Colony","Majid-E-Abubakar, Salar Nagar Rd",Hyderabad,500059,Telangana,IN,https://www.google.com/maps/place/Masjid-E-Abubakar/data=!4m7!3m6!1s0x3bcb986c4b31799f:0x5197c27202b0b83!8m2!3d17.3503248!4d78.501952!16s%2Fg%2F1tfgh8fk!19sChIJn3kxS2yYyzsRgwsrICd8GQU?authuser=0&hl=en&rclk=1,"17.3503248,78.501952"
"PRIDE TUTORIALS, Khalander Nagar, Santoshnagar.",Mosque,"PRIDE TUTORIALS, Khalander Nagar, Santoshnagar., near Jamia Masjid, Khalander Nagar, Owaisi Nagar, Hasnabad, Santosh Nagar, Hyderabad, Telangana 500059","Khalander Nagar, Owaisi Nagar, Hasnabad, Santosh Nagar",near Jamia Masjid,Hyderabad,500059,Telangana,IN,"https://www.google.com/maps/place/PRIDE+TUTORIALS,+Khalander+Nagar,+Santoshnagar./data=!4m7!3m6!1s0x3bcb9871a1482a6b:0x787f025b5d1b706d!8m2!3d17.344947!4d78.5053477!16s%2Fg%2F126158pwp!19sChIJaypIoXGYyzsRbXAbXVsCf3g?authuser=0&hl=en&rclk=1","17.344946999999998,78.5053477"
CPL MASJID (POLICE QUARTERS) Masjid E Tayyaba,Mosque,"9GPC+RFR CPL MASJID (POLICE QUARTERS) Masjid E Tayyaba, Police Quarters, Police Lines, Amberpet, Hyderabad, Telangana 500013","Police Quarters, Police Lines, Amberpet",9GPC+RFR,Hyderabad,500013,Telangana,IN,https://www.google.com/maps/place/CPL+MASJID+%28POLICE+QUARTERS%29+Masjid+E+Tayyaba/data=!4m7!3m6!1s0x3bcb99009b319e6d:0x66e9471beaea6476!8m2!3d17.3871052!4d78.5211274!16s%2Fg%2F11byyq_n1k!19sChIJbZ4xmwCZyzsRdmTq6htH6WY?authuser=0&hl=en&rclk=1,"17.3871052,78.5211274"
Masjid-e-Ek Khana,Mosque,"Masjid-e-Ek Khana, 1-2-183, Kothapet Rd, Kishanbag, Maruthi Nagar, Kothapet, Hyderabad, Telangana 500060","Kishanbag, Maruthi Nagar, Kothapet","1-2-183, Kothapet Rd",Hyderabad,500060,Telangana,IN,https://www.google.com/maps/place/Masjid-e-Ek+Khana/data=!4m7!3m6!1s0x3bcb98dd54015647:0xb728d3d0d485c47d!8m2!3d17.373439!4d78.5437033!16s%2Fg%2F1hm33v0r5!19sChIJR1YBVN2YyzsRfcSF1NDTKLc?authuser=0&hl=en&rclk=1,"17.373438999999998,78.54370329999999"
Masjid Lal Bagh,Mosque,"Masjid Lal Bagh, 2-3-697/a, Zinda Tilismath Road, Premnagar, Annapurna Nagar, Amberpet, Hyderabad, Telangana 500013","Premnagar, Annapurna Nagar, Amberpet","2-3-697/a, Zinda Tilismath Road",Hyderabad,500013,Telangana,IN,https://www.google.com/maps/place/Masjid+Lal+Bagh/data=!4m7!3m6!1s0x3bcb99ac9ce13745:0x4dd7fdf76a8581b1!8m2!3d17.3850738!4d78.5149067!16s%2Fg%2F1yglps5lp!19sChIJRTfhnKyZyzsRsYGFavf9100?authuser=0&hl=en&rclk=1,"17.3850738,78.5149067"
Masjid-e-Hanafiya,Mosque,"Masjid-e-Hanafiya, 17/1/462/2, Saidabad Rd, Sai Ganga Colony, Habeeb Nagar, Saroor Nagar East, Saidabad, Saroornagar, Hyderabad, Telangana 500035","Sai Ganga Colony, Habeeb Nagar, Saroor Nagar East, Saidabad","17/1/462/2, Saidabad Rd","Saroornagar, Hyderabad",500035,Telangana,IN,https://www.google.com/maps/place/Masjid-e-Hanafiya/data=!4m7!3m6!1s0x3bcb988b253a5583:0x8c99b1bdc212a271!8m2!3d17.3594525!4d78.5240728!16s%2Fg%2F11bxc5vb_1!19sChIJg1U6JYuYyzsRcaISwr2xmYw?authuser=0&hl=en&rclk=1,"17.3594525,78.5240728"
Masjid-E-Elaahi,Mosque,"Masjid-E-Elaahi, Metro Station Dilsukhnagar, KonarkType Institute Rd, Near Bus Stop, AP State Housing Board, Durga Nagar, Dilsukhnagar, Hyderabad, Telangana 500060","AP State Housing Board, Durga Nagar, Dilsukhnagar","Metro Station Dilsukhnagar, KonarkType Institute Rd, Near Bus Stop",Hyderabad,500060,Telangana,IN,https://www.google.com/maps/place/Masjid-E-Elaahi/data=!4m7!3m6!1s0x3bcb98f6dbf4df09:0x70fec3b66ccdf2a4!8m2!3d17.368669!4d78.525277!16s%2Fg%2F1yglqbs53!19sChIJCd_02_aYyzsRpPLNbLbD_nA?authuser=0&hl=en&rclk=1,"17.368669,78.525277"
MASJID-E-NOOR (CHENNA REDDY NAGAR),Mosque,"MASJID-E-NOOR (CHENNA REDDY NAGAR), C block, Bapunagar Rd, Chenna Reddy Nagar, Amberpet, Hyderabad, Telangana 500013","Chenna Reddy Nagar, Amberpet","C block, Bapunagar Rd",Hyderabad,500013,Telangana,IN,https://www.google.com/maps/place/MASJID-E-NOOR+%28CHENNA+REDDY+NAGAR%29/data=!4m7!3m6!1s0x3bcb9906ade2e9bf:0x9e3476be91a5aa8f!8m2!3d17.3899691!4d78.5256503!16s%2Fg%2F1q63ckgc2!19sChIJv-nirQaZyzsRj6qlkb52NJ4?authuser=0&hl=en&rclk=1,"17.3899691,78.5256503"
Faiz Masjid Juma 1.30pm,Mosque,"Faiz Masjid Juma 1.30pm, faiz masjid, Indra Vihar Colony, Tilak Nagar, Lalghati, Bhopal, Madhya Pradesh 462030","Indra Vihar Colony, Tilak Nagar, Lalghati",faiz masjid,Bhopal,462030,Madhya Pradesh,IN,https://www.google.com/maps/place/Faiz+Masjid+Juma+1.30pm/data=!4m7!3m6!1s0x397c67c7831fa6ef:0x13c9ee77bb1a2d0a!8m2!3d23.2829027!4d77.3575181!16s%2Fg%2F1hf3wbpp8!19sChIJ76Yfg8dnfDkRCi0au3fuyRM?authuser=0&hl=en&rclk=1,"23.282902699999998,77.3575181"
Masjid-E-Quba masjidWi quba,Mosque,"FGC5+CCV Masjid-E-Quba masjidWi quba, All Saints Road, Tirumulgherry Road, Dinakar Nagar Colony, Kushalchand Colony, Tirumalagiri, Secunderabad, Telangana 500015","Alluvelamma Colony, Dinakar Nagar Colony, Kushalchand Colony, Tirumalagiri","FGC5+CCV, All Saints Road, Tirumulgherry Road",Secunderabad,500015,Telangana,IN,https://www.google.com/maps/place/Masjid-E-Quba+%D9%85%D9%8E%D8%B3%D9%92%D8%AC%D9%90%D8%AF%D9%91%D9%90+%D9%82%D9%8F%D8%A8%D9%8E%D8%A7%D8%A1%E2%80%AD/data=!4m7!3m6!1s0x3bcb9a59e87d4a9f:0xe2ad547bace71039!8m2!3d17.4711182!4d78.5085386!16s%2Fg%2F1tt0pl6f!19sChIJn0p96FmayzsRORDnrHtUreI?authuser=0&hl=en&rclk=1,"17.4711182,78.5085386"
Masjid -e- Ghaffaria,Mosque,"Masjid -e- Ghaffaria, 17-1-179/A/68, Milad Rd, Salala Nagar, Santosh Nagar, Hyderabad, Telangana 500059","Salala Nagar, Santosh Nagar","17-1-179/A/68, Milad Rd",Hyderabad,500059,Telangana,IN,https://www.google.com/maps/place/Masjid+-e-+Ghaffaria/data=!4m7!3m6!1s0x3bcb986cb2d13ca9:0xa80d9e0d976f53ed!8m2!3d17.352097!4d78.4979552!16s%2Fg%2F11c0rmpqq4!19sChIJqTzRsmyYyzsR7VNvlw2eDag?authuser=0&hl=en&rclk=1,"17.352097,78.49795519999999"
Masjid-e-Noor,Mosque,"8GXW+64V Masjid-e-Noor, SBH Colony, L. B. Nagar, Hyderabad, Telangana 500074","SBH Colony, L. B. Nagar",8GXW+64V,Hyderabad,500074,Telangana,IN,https://www.google.com/maps/place/Masjid-e-Noor/data=!4m7!3m6!1s0x3bcb98a2e92f9d59:0xcb3b7652600e38c7!8m2!3d17.3481153!4d78.5452891!16s%2Fg%2F1ygbbbjts!19sChIJWZ0v6aKYyzsRxzgOYFJ2O8s?authuser=0&hl=en&rclk=1,"17.3481153,78.54528909999999"
Masjid-e-Kareema Omer,Mosque,"9GRF+VM5 Masjid-e-Kareema Omer, Akash Nagar, Amberpet, Hyderabad, Telangana 500013","Akash Nagar, Amberpet",9GRF+VM5,Hyderabad,500013,Telangana,IN,https://www.google.com/maps/place/Masjid-e-Kareema+Omer/data=!4m7!3m6!1s0x3bcb9906f772c427:0xac8730f9fe57f34c!8m2!3d17.392127!4d78.5242447!16s%2Fg%2F1td9c6gl!19sChIJJ8Ry9waZyzsRTPNX_vkwh6w?authuser=0&hl=en&rclk=1,"17.392127,78.5242447"
Masjid-e-Hussaini,Mosque,"9GMG+3Q4 Masjid-e-Hussaini, Ahmed Nagar, Patel Nagar, Amberpet, Hyderabad, Telangana 500013","Ahmed Nagar, Patel Nagar, Amberpet",9GMG+3Q4,Hyderabad,500013,Telangana,IN,https://www.google.com/maps/place/Masjid-e-Hussaini/data=!4m7!3m6!1s0x3bcb98fde6384093:0x3cdb29ad4f290e58!8m2!3d17.382644!4d78.5269663!16s%2Fg%2F1hm3lggyc!19sChIJk0A45v2YyzsRWA4pT60p2zw?authuser=0&hl=en&rclk=1,"17.382644,78.5269663"
Mansoor Masjid,Mosque,"17-1-182, Mansoor Masjid, 25/a, Mansoor Masjid St, Santosh Nagar, Banu Nagar, Madannapet Colony, Hyderabad, Telangana 500059","Santosh Nagar, Banu Nagar, Madannapet Colony","17-1-182, 25/a, Mansoor Masjid St",Hyderabad,500059,Telangana,IN,https://www.google.com/maps/place/Mansoor+Masjid/data=!4m7!3m6!1s0x3bcb986c27689dfd:0x48b4682da05d2559!8m2!3d17.3513783!4d78.503562!16s%2Fg%2F11btxjwyp6!19sChIJ_Z1oJ2yYyzsRWSVdoC1otEg?authuser=0&hl=en&rclk=1,"17.3513783,78.503562"
Masjid-E-Quba masjidWi quba,Mosque,"8HF6+FPJ Masjid-E-Quba masjidWi quba, Hyderabad - Nagarjuna Sagar Rd, Balaji Colony Phase 2, Hastinapuram, Hyderabad, Telangana 500070","Balaji Colony Phase 2, Hastinapuram","8HF6+FPJ, Hyderabad - Nagarjuna Sagar Rd",Hyderabad,500070,Telangana,IN,https://www.google.com/maps/place/Masjid-E-Quba+%D9%85%D9%8E%D8%B3%D9%92%D8%AC%D9%90%D8%AF%D9%91%D9%90+%D9%82%D9%8F%D8%A8%D9%8E%D8%A7%D8%A1%E2%80%AD/data=!4m7!3m6!1s0x3bcba21c69cba5e3:0xb65e2aeda1a3f7b0!8m2!3d17.3237137!4d78.5617518!16s%2Fg%2F11by_yvp35!19sChIJ46XLaRyiyzsRsPejoe0qXrY?authuser=0&hl=en&rclk=1,"17.3237137,78.5617518"
Masjid E Sahaba rz,Mosque,"Masjid E Sahaba rz, Migh 75, Qualendar Road, LIGH Phase 2, Sai Ratna Arcade, New Santoshnagar, Santosh Nagar, Hyderabad, Telangana 500059","LIGH Phase 2, Sai Ratna Arcade, New Santoshnagar, Santosh Nagar","Migh 75, Qualendar Road",Hyderabad,500059,Telangana,IN,https://www.google.com/maps/place/Masjid+E+Sahaba+rz/data=!4m7!3m6!1s0x3bcb99dd277699c1:0xd9be73843be49cc6!8m2!3d17.3476073!4d78.508057!16s%2Fg%2F11fpr8bx84!19sChIJwZl2J92ZyzsRxpzkO4Rzvtk?authuser=0&hl=en&rclk=1,"17.3476073,78.508057"
Masjid,Mosque,"8G5X+4X4 Masjid, Vinayaka Hills Road, Vinayaka Hills, Madhura Nagar, B.N Reddy Nagar, Hyderabad, Telangana 246173","Vinayaka Hills, Madhura Nagar, B.N Reddy Nagar","8G5X+4X4, Vinayaka Hills Road",Hyderabad,246173,Telangana,IN,https://www.google.com/maps/place/Masjid/data=!4m7!3m6!1s0x3bcba23bc2537dbb:0xcd0480646ae48b7a!8m2!3d17.307773!4d78.5499594!16s%2Fg%2F11g6x9kqys!19sChIJu31TwjuiyzsReovkamSABM0?authuser=0&hl=en&rclk=1,"17.307773,78.54995939999999"
Masjid-e-Mustafa,Mosque,"9G5X+85W Masjid-e-Mustafa, LB Nagar, Rd Number 6, NTR Nagar, Hyderabad, Telangana 500074","NTR Nagar, L. B. Nagar","9G5X+85W, LB Nagar, Rd Number 6",Hyderabad,500074,Telangana,IN,https://www.google.com/maps/place/Masjid-e-Mustafa/data=!4m7!3m6!1s0x3bcb98bedc0e48c7:0xf1bc0506e9284f4c!8m2!3d17.358358!4d78.5479469!16s%2Fg%2F11dxhdx186!19sChIJx0gO3L6YyzsRTE8o6QYFvPE?authuser=0&hl=en&rclk=1,"17.358358,78.5479469"
Masjid-E-Qadariya,Mosque,"8HH7+P63 Masjid-E-Qadariya, Methodist Rd, Christian Colony, Hastinapuram, Hyderabad, Telangana 500070","Christian Colony, Hastinapuram","8HH7+P63, Methodist Rd",Hyderabad,500070,Telangana,IN,https://www.google.com/maps/place/Masjid-E-Qadariya/data=!4m7!3m6!1s0x3bcba2031f07f00f:0x9ce4f55122de9fbd!8m2!3d17.3292547!4d78.5630393!16s%2Fg%2F1tg6h_v7!19sChIJD_AHHwOiyzsRvZ_eIlH15Jw?authuser=0&hl=en&rclk=1,"17.3292547,78.5630393"
Noorani Jama Masjid,Mosque,"4WCF+JCQ Noorani Jama Masjid, Near Empire Plaza, Islamupura, Lal Bahadur Shastri Marg, HMPL Surya Nagar, Vikhroli West, Mumbai, Maharashtra 400083","HMPL Surya Nagar, Vikhroli West","4WCF+JCQ, Near Empire Plaza, Islamupura, Lal Bahadur Shastri Marg",Mumbai,400083,Maharashtra,IN,https://www.google.com/maps/place/Noorani+Jama+Masjid/data=!4m7!3m6!1s0x3be7c792dc9b172d:0xe0df950120c4b87d!8m2!3d19.1215801!4d72.9236217!16s%2Fg%2F12647d0ws!19sChIJLReb3JLH5zsRfbjEIAGV3-A?authuser=0&hl=en&rclk=1,"19.1215801,72.9236217"
Al Ameen Masjid,Mosque,"9GWF+H24 Al Ameen Masjid, Mallikarjuna Nagar, Amberpet, Hyderabad, Telangana 500013","Mallikarjuna Nagar, Amberpet",9GWF+H24,Hyderabad,500013,Telangana,IN,https://www.google.com/maps/place/Al+Ameen+Masjid/data=!4m7!3m6!1s0x3bcb9908691cd9c3:0xcf5ee953ee6903dd!8m2!3d17.3963962!4d78.5225906!16s%2Fg%2F11cm70r4j1!19sChIJw9kcaQiZyzsR3QNp7lPpXs8?authuser=0&hl=en&rclk=1,"17.396396199999998,78.5225906"
Masjid e Al-Hasanat,Mosque,"Masjid e Al-Hasanat, 500036, Afzal Nagar, Malakpet Extension, Old Malakpet, Hyderabad, Telangana 500036","Afzal Nagar, Malakpet Extension, Old Malakpet",500036,Hyderabad,500036,Telangana,IN,https://www.google.com/maps/place/Masjid+e+Al-Hasanat/data=!4m7!3m6!1s0x3bcb99ad3cd4de5b:0x41666f041f9e3fa7!8m2!3d17.38416!4d78.5114697!16s%2Fg%2F11c5sxrgjy!19sChIJW97UPK2ZyzsRpz-eHwRvZkE?authuser=0&hl=en&rclk=1,"17.384159999999998,78.51146969999999"
Masjid e Zahoorbagh,Mosque,"Masjid e Zahoorbagh, 16-2-835/C/15/3, Saidabad Rd, Sai Ganga Colony, Shankeshwar Bazar, Kalyan Nagar, New Malakpet, Hyderabad, Telangana 500059","Sai Ganga Colony, Shankeshwar Bazar, Kalyan Nagar, New Malakpet","16-2-835/C/15/3, Saidabad Rd",Hyderabad,500059,Telangana,IN,https://www.google.com/maps/place/Masjid+e+Zahoorbagh/data=!4m7!3m6!1s0x3bcb98606ce5fe1d:0x886559167d34856b!8m2!3d17.3590778!4d78.5191113!16s%2Fg%2F11g9q4k9tk!19sChIJHf7lbGCYyzsRa4U0fRZZZYg?authuser=0&hl=en&rclk=1,"17.359077799999998,78.51911129999999"
Masjid Al Ansar Ahle Hadees,Mosque,"Masjid Al Ansar Ahle Hadees, 18-8-208/7A Indira Nagar, Riyasat Nagar Hyderabad, Telangana 500059 India","Phisal Banda, Mustafa Nagar, Riyasat Nagar","18-8-208/7A Indira Nagar, Riyasat Nagar Hyderabad, Telangana 500059 India",Hyderabad,,Telangana,IN,https://www.google.com/maps/place/Masjid+Al+Ansar+Ahle+Hadees/data=!4m7!3m6!1s0x3bcb98747f52f903:0x21f80db9367087be!8m2!3d17.3415662!4d78.501152!16s%2Fg%2F11b7ck5mcm!19sChIJA_lSf3SYyzsRvodwNrkN-CE?authuser=0&hl=en&rclk=1,"17.3415662,78.50115199999999"
Autonagar Masjid,Mosque,"Autonagar Masjid, 4-12-57/A National Highway 9 Dwarakamai Nagar, Vanasthalipuram Hyderabad, Telangana 500070",High Court Colony,"4-12-57/A National Highway 9 Dwarakamai Nagar, Vanasthalipuram Hyderabad, Telangana 500070","Hyderabad, Vanasthalipuram",,Telangana,IN,https://www.google.com/maps/place/Autonagar+Masjid/data=!4m7!3m6!1s0x3bcba1e3729226ff:0x665a786bd022baf1!8m2!3d17.3353804!4d78.5821289!16s%2Fg%2F11btvl641j!19sChIJ_yaScuOhyzsR8boi0Gt4WmY?authuser=0&hl=en&rclk=1,"17.3353804,78.5821289"
SIR NIZAMJUNG MASJID,Mosque,"SIR NIZAMJUNG MASJID, HUDA Complex, Saroornagar, Hyderabad, Telangana 500035",HUDA Complex,,"Saroornagar, Hyderabad",500035,Telangana,IN,https://www.google.com/maps/place/SIR+NIZAMJUNG+MASJID/data=!4m7!3m6!1s0x3bcb98eb2f97dfd7:0x33b1a9c7f1d2e73d!8m2!3d17.3621408!4d78.542042!16s%2Fg%2F1ptylq31d!19sChIJ19-XL-uYyzsRPefS8cepsTM?authuser=0&hl=en&rclk=1,"17.3621408,78.542042"
Jamia Masjid Saheb Nagar,Mosque,"8HCG+MMR Jamia Masjid Saheb Nagar, Saheb Nagar Rd, Sahebnagar_Kalan, Hyderabad, Telangana 500070",,"8HCG+MMR, Saheb Nagar Rd","Sahebnagar_Kalan, Hyderabad",500070,Telangana,IN,https://www.google.com/maps/place/Jamia+Masjid+Saheb+Nagar/data=!4m7!3m6!1s0x3bcba1f210388b83:0x2129a04db9118295!8m2!3d17.3217293!4d78.5766472!16s%2Fg%2F11bcdhwgxh!19sChIJg4s4EPKhyzsRlYIRuU2gKSE?authuser=0&hl=en&rclk=1,"17.321729299999998,78.5766472"
Masjid-e-aqsa Jaipuri colony,Mosque,"Masjid-e-aqsa Jaipuri colony, Plot No. 54, Nagole Jaipur Colony Main Rd, Weaker Section Colony, Nagole, Hyderabad, Telangana 500068","Weaker Section Colony, Nagole","Plot No. 54, Nagole Jaipur Colony Main Rd",Hyderabad,500068,Telangana,IN,https://www.google.com/maps/place/Masjid-e-aqsa+Jaipuri+colony/data=!4m7!3m6!1s0x3bcb9f2eab111bc7:0xacfcf817b761ad38!8m2!3d17.3803554!4d78.5721745!16s%2Fg%2F11cltc11qm!19sChIJxxsRqy6fyzsROK1htxf4_Kw?authuser=0&hl=en&rclk=1,"17.3803554,78.5721745"
Masjid e Afsar,Mosque,"8HQ9+GV6 Masjid e Afsar, near Corporation Bank, Ganesh Nagar Colony, Sharada Nagar, Indira Nagar, L. B. Nagar, Hyderabad, Vanasthalipuram, Telangana 500070","Ganesh Nagar Colony, Sharada Nagar, Indira Nagar, L. B. Nagar","8HQ9+GV6, near Corporation Bank","Hyderabad, Vanasthalipuram",500070,Telangana,IN,https://www.google.com/maps/place/Masjid+e+Afsar/data=!4m7!3m6!1s0x3bcba1fe3074146d:0xcb7a5fa67bad66a5!8m2!3d17.338779!4d78.5696546!16s%2Fg%2F1tggrz_8!19sChIJbRR0MP6hyzsRpWate6Zfess?authuser=0&hl=en&rclk=1,"17.338779,78.56965459999999"
Masjid E Ambiya,Mosque,"Masjid E Ambiya, 17-1-193/6/C, Banu Nagar, Madannapet Colony, Hyderabad, Telangana 500059","Banu Nagar, Madannapet Colony",17-1-193/6/C,Hyderabad,500059,Telangana,IN,https://www.google.com/maps/place/Masjid+E+Ambiya/data=!4m7!3m6!1s0x3bcb986bfeb90e09:0x342f79236c492701!8m2!3d17.3532532!4d78.5032314!16s%2Fg%2F11f03vlgs6!19sChIJCQ65_muYyzsRASdJbCN5LzQ?authuser=0&hl=en&rclk=1,"17.353253199999997,78.50323139999999"
Peeli Masjid,Mosque,"Peeli Masjid, 18-8-192/6/K, Mustafa Nagar, Riyasat Nagar, Hyderabad, Telangana 500059","Mustafa Nagar, Riyasat Nagar",18-8-192/6/K,Hyderabad,500059,Telangana,IN,https://www.google.com/maps/place/Peeli+Masjid/data=!4m7!3m6!1s0x3bcb98748873942d:0xac6bd3ab518850e7!8m2!3d17.340447!4d78.500743!16s%2Fg%2F11hbt283zt!19sChIJLZRziHSYyzsR51CIUavTa6w?authuser=0&hl=en&rclk=1,"17.340446999999998,78.500743"
Mandi masjid,Mosque,"Mandi masjid, 9/1, New Nagole Main Rd, Laxmi Nagar Colony, Kothapet, Hyderabad, Telangana 500035","Laxmi Nagar Colony, Kothapet","9/1, New Nagole Main Rd",Hyderabad,500035,Telangana,IN,https://www.google.com/maps/place/Mandi+masjid/data=!4m7!3m6!1s0x3bcb98e92d16d799:0x1cce1e3b105936a4!8m2!3d17.3692158!4d78.5377794!16s%2Fg%2F11dzt64ndk!19sChIJmdcWLemYyzsRpDZZEDsezhw?authuser=0&hl=en&rclk=1,"17.3692158,78.53777939999999"
Masjid-E-Saleheen (Navaranguda),Mosque,"Masjid-E-Saleheen (Navaranguda), 3-14-49, Navaranguda, near landmark) yadaiah hotel, Ramanthapur, Srinivasapuram Colony, Amberpet, Hyderabad, Telangana 500013","Ramanthapur, Srinivasapuram Colony, Amberpet","3-14-49, Navaranguda, near landmark) yadaiah hotel",Hyderabad,500013,Telangana,IN,https://www.google.com/maps/place/Masjid-E-Saleheen+%28Navaranguda%29/data=!4m7!3m6!1s0x3bcb99039e76a0c9:0x13f37332cf368599!8m2!3d17.3877314!4d78.5299087!16s%2Fg%2F11c1n9kn_3!19sChIJyaB2ngOZyzsRmYU2zzJz8xM?authuser=0&hl=en&rclk=1,"17.3877314,78.5299087"
Masjid-e-Lutfullah,Mosque,"Masjid-e-Lutfullah, Road, n0-4, Dhatu Nagar, Hyderabad, Telangana 500058","Sri Datta Nagar, Dhatu Nagar, Kanchan Bagh","Road, n0-4",Hyderabad,500058,Telangana,IN,https://www.google.com/maps/place/Masjid-e-Lutfullah/data=!4m7!3m6!1s0x3bcba284328b06bd:0xe1e8e8084269500a!8m2!3d17.3279041!4d78.5141866!16s%2Fg%2F11c1vjbrhh!19sChIJvQaLMoSiyzsRClBpQgjo6OE?authuser=0&hl=en&rclk=1,"17.327904099999998,78.5141866"
Masjid E Baitul Hamd,Mosque,"Masjid E Baitul Hamd, B-10, Lal Bahadur Shastri Marg, Maharashtra Nagar, Kurla garden, Mumbai, Maharashtra 400070","Maharashtra Nagar, Kurla garden","B-10, Lal Bahadur Shastri Marg",Mumbai,400070,Maharashtra,IN,https://www.google.com/maps/place/Masjid+E+Baitul+Hamd/data=!4m7!3m6!1s0x3be7c8c1b4677989:0x2ae0c0c3024bd297!8m2!3d19.0598054!4d72.8720876!16s%2Fg%2F11csr2l8r6!19sChIJiXlntMHI5zsRl9JLAsPA4Co?authuser=0&hl=en&rclk=1,"19.0598054,72.8720876"
Qutub Shahi Masjid And EID GAH,Mosque,"9H27+M7G Qutub Shahi Masjid And EID GAH, Erukula Nancharamma Nagar, Mansoorabad, Hyderabad, Telangana 500068",Erukula Nancharamma Nagar,9H27+M7G,"Mansoorabad, Hyderabad",500068,Telangana,IN,https://www.google.com/maps/place/Qutub+Shahi+Masjid+And+EID+GAH/data=!4m7!3m6!1s0x3bcb98b262b1f2e9:0x7592942cfe9c7a7a!8m2!3d17.3516778!4d78.5631965!16s%2Fg%2F11bzzp9270!19sChIJ6fKxYrKYyzsRenqc_iyUknU?authuser=0&hl=en&rclk=1,"17.3516778,78.56319649999999"
Masjid-e-Madina masjidWi madiynah,Mosque,"Masjid-e-Madina masjidWi madiynah, 16-11-23/9, Moosarambagh Rd, Teegala Guda, East Prasanth Nagar, Moosarambagh, Hyderabad, Telangana 500036","Teegala Guda, East Prasanth Nagar, Moosarambagh","16-11-23/9, Moosarambagh Rd",Hyderabad,500036,Telangana,IN,https://www.google.com/maps/place/Masjid-e-Madina+%D9%85%D9%8E%D8%B3%D9%92%D8%AC%D9%90%D8%AF%D9%91%D9%90+%D9%85%D9%8E%D8%AF%D9%90%DB%8C%D9%92%D9%86%D9%8E%D9%87%E2%80%AD/data=!4m7!3m6!1s0x3bcb9857257b90d9:0x2c07bba003a4ec5b!8m2!3d17.3738019!4d78.5156783!16s%2Fg%2F11c2y89s7q!19sChIJ2ZB7JVeYyzsRW-ykA6C7Byw?authuser=0&hl=en&rclk=1,"17.3738019,78.51567829999999"
Masjid Ul Wahyain' Ahle Hadees,Mosque,"Masjid Ul Wahyain' Ahle Hadees, H -193/C, New Santoshnagar, Santosh Nagar, Hyderabad, Telangana 500059","New Santoshnagar, Santosh Nagar",H -193/C,Hyderabad,500059,Telangana,IN,https://www.google.com/maps/place/Masjid+Ul+Wahyain%27+Ahle+Hadees/data=!4m7!3m6!1s0x3bcb99317de86773:0x588adafee99bd256!8m2!3d17.3506596!4d78.5042749!16s%2Fg%2F11rqxwj3y4!19sChIJc2fofTGZyzsRVtKb6f7ailg?authuser=0&hl=en&rclk=1,"17.3506596,78.5042749"
Masjid-E-Munnavarah Jamat-E-Islahul Muslemin,Mosque,"3WW6+8CX Masjid-E-Munnavarah Jamat-E-Islahul Muslemin, Near Lal Bahadur Shastri Road, Sanghani Estate, garlden lane, Sainath Nagar, Haripada, Ghatkopar West, Mumbai, Maharashtra 400086","Sainath Nagar, Haripada, Ghatkopar West","3WW6+8CX, Near Lal Bahadur Shastri Road, Sanghani Estate, garlden lane",Mumbai,400086,Maharashtra,IN,https://www.google.com/maps/place/Masjid-E-Munnavarah+Jamat-E-Islahul+Muslemin/data=!4m7!3m6!1s0x3be7c7ce24458dd7:0x8ba12d8e899e479e!8m2!3d19.0958707!4d72.9111005!16s%2Fg%2F1ptx4k1mr!19sChIJ141FJM7H5zsRnkeeiY4toYs?authuser=0&hl=en&rclk=1,"19.0958707,72.9111005"
Masjid e Hakeem,Mosque,"8HV7+527 Masjid e Hakeem, Rd Number 3, Hakeemabad Colony, Mansoorabad, Hyderabad, Telangana 500070",Hakeemabad Colony,"8HV7+527, Rd Number 3","Mansoorabad, Hyderabad",500070,Telangana,IN,https://www.google.com/maps/place/Masjid+e+Hakeem/data=!4m7!3m6!1s0x3bcb98abba9bcd43:0x43f2b178c8f4451d!8m2!3d17.3429219!4d78.5625622!16s%2Fg%2F1pp2vcx6d!19sChIJQ82buquYyzsRHUX0yHix8kM?authuser=0&hl=en&rclk=1,"17.3429219,78.5625622"
Masjid-E-Mohammadia Markaz Nandanavanam Zone,Mosque,"Masjid-E-Mohammadia Markaz Nandanavanam Zone, U-10, Nandanavanam Colony, Hanuman Nagar Colony, Meerpet, Hyderabad, Telangana 500079","Nandanavanam Colony, Hanuman Nagar Colony",U-10,"Meerpet, Hyderabad",500079,Telangana,IN,https://www.google.com/maps/place/Masjid-E-Mohammadia+Markaz+Nandanavanam+Zone/data=!4m7!3m6!1s0x3bcba271ff36c9a7:0xf700455e4a86c495!8m2!3d17.3264909!4d78.5375815!16s%2Fg%2F11f403ghp5!19sChIJp8k2_3GiyzsRlcSGSl5FAPc?authuser=0&hl=en&rclk=1,"17.3264909,78.5375815"
Masjid-E-Bilal,Mosque,"8GMV+J29 Masjid-E-Bilal, Hyderabad, Rajiv Shetti Nagar, Jillalguda, Telangana 500079",Rajiv Shetti Nagar,"8GMV+J29, Hyderabad","Jillalguda, Hyderabad",500079,Telangana,IN,https://www.google.com/maps/place/Masjid-E-Bilal/data=!4m7!3m6!1s0x3bcba274c60fc949:0x71920db21ecf922c!8m2!3d17.3340471!4d78.5426064!16s%2Fg%2F11g8t6cb26!19sChIJSckPxnSiyzsRLJLPHrINknE?authuser=0&hl=en&rclk=1,"17.3340471,78.5426064"
Masjid E Lateefiya,Mosque,"9GVF+6G8 Masjid E Lateefiya, Owaisi Nagar, Kamshetty Enclave, Akash Nagar, Amberpet, Hyderabad, Telangana 500013","Owaisi Nagar, Kamshetty Enclave, Akash Nagar, Amberpet",9GVF+6G8,Hyderabad,500013,Telangana,IN,https://www.google.com/maps/place/Masjid+E+Lateefiya/data=!4m7!3m6!1s0x3bcb990651f7c18b:0x1feaee14a5a944a3!8m2!3d17.3930353!4d78.5238231!16s%2Fg%2F12hnlt__p!19sChIJi8H3UQaZyzsRo0SppRTu6h8?authuser=0&hl=en&rclk=1,"17.393035299999998,78.5238231"
MASJID MUHAMMADIA UPPAL,Mosque,"MASJID MUHAMMADIA UPPAL, 128, Hyderabad - Warangal Hwy, Swaroop Reddy Colony, Srinivasa Colony, Uppal, Baaghat, Hyderabad, Telangana 500039","Swaroop Reddy Colony, Srinivasa Colony, Uppal","128, Hyderabad - Warangal Hwy","Baaghat, Hyderabad",500039,Telangana,IN,https://www.google.com/maps/place/MASJID+MUHAMMADIA+UPPAL/data=!4m7!3m6!1s0x3bcb9eceeced93b9:0x19ac268dfb5f0fda!8m2!3d17.4021377!4d78.5744357!16s%2Fg%2F1q2wlcmd3!19sChIJuZPt7M6eyzsR2g9f-40mrBk?authuser=0&hl=en&rclk=1,"17.4021377,78.5744357"
Masjid,Mosque,"Masjid, 8-3-132/93, Road Number 6, Janardhan Reddy Nagar, Midhani Colony, Ambedkar Nagar, Jillelaguda, Hyderabad, Telangana 500097, Rd Number 6, Janardhan Reddy Nagar, Midhani Colony, Ambedkar Nagar, Jillalguda, Hyderabad, Telangana 500097","Janardhan Reddy Nagar, Midhani Colony, Ambedkar Nagar","8-3-132/93, Road Number 6, Janardhan Reddy Nagar, Midhani Colony, Ambedkar Nagar, Jillelaguda, Hyderabad, Telangana 500097, Rd Number 6","Jillalguda, Hyderabad",500097,Telangana,IN,https://www.google.com/maps/place/Masjid/data=!4m7!3m6!1s0x3bcba276be102a4f:0xb665c065e10e5ebf!8m2!3d17.3333109!4d78.5365574!16s%2Fg%2F11g6vh2j2h!19sChIJTyoQvnaiyzsRv14O4WXAZbY?authuser=0&hl=en&rclk=1,"17.3333109,78.53655739999999"
Mohamadia Masjid,Mosque,"9GRG+6J2 Mohamadia Masjid, Bapunagar Rd, Chenna Reddy Nagar, Kamshetty Enclave, Bapu Nagar, Amberpet, Hyderabad, Telangana 500013","Chenna Reddy Nagar, Kamshetty Enclave, Bapu Nagar, Amberpet","9GRG+6J2, Bapunagar Rd",Hyderabad,500013,Telangana,IN,https://www.google.com/maps/place/Mohamadia+Masjid/data=!4m7!3m6!1s0x3bcb99066e83e5b5:0x67c39ebc11d7674d!8m2!3d17.3905221!4d78.5265154!16s%2Fg%2F1pp2vc70f!19sChIJteWDbgaZyzsRTWfXEbyew2c?authuser=0&hl=en&rclk=1,"17.3905221,78.5265154"
Masjid e Mukarram Shaheed,Mosque,"Masjid e Mukarram Shaheed, 6-190, 9, Santosh Nagar Main Rd, Central Excise Colony, New Santoshnagar, Santosh Nagar, Hyderabad, Telangana 500059","Central Excise Colony, New Santoshnagar, Santosh Nagar","6-190, 9, Santosh Nagar Main Rd",Hyderabad,500059,Telangana,IN,https://www.google.com/maps/place/Masjid+e+Mukarram+Shaheed/data=!4m7!3m6!1s0x3bcb986f8b4ebec7:0xa18d2fba96784218!8m2!3d17.3492781!4d78.5090106!16s%2Fg%2F11hcdrwbsr!19sChIJx75Oi2-YyzsRGEJ4lrovjaE?authuser=0&hl=en&rclk=1,"17.3492781,78.5090106"
Masjid-e-Mohammedia,Mosque,"Masjid-e-Mohammedia, 3-59,, 2, National Highway 163, Quadri Bagh, Amberpet, Hyderabad, Telangana 500013","Sarada Nagar, Amberpet","3-59,, 2, National Highway 163, Quadri Bagh, Amberpet",Hyderabad,500013,Telangana,IN,https://www.google.com/maps/place/Masjid-e-Mohammedia/data=!4m7!3m6!1s0x3bcb99af2eec96b1:0x88648ee2f589e653!8m2!3d17.3923723!4d78.5146694!16s%2Fg%2F11by_h48wd!19sChIJsZbsLq-ZyzsRU-aJ9eKOZIg?authuser=0&hl=en&rclk=1,"17.392372299999998,78.5146694"
Qutub Shahi Masjid,Mosque,"Qutub Shahi Masjid, 11-2-18/6, Saroor Nagar Rd, Bapu Nagar, S Nagar, Saroornagar, Hyderabad, Telangana 500035","Bapu Nagar, S Nagar","11-2-18/6, Saroor Nagar Rd","Saroornagar, Hyderabad",500035,Telangana,IN,https://www.google.com/maps/place/Qutub+Shahi+Masjid/data=!4m7!3m6!1s0x3bcb988d96908d3f:0xeafd8fd23c54e21b!8m2!3d17.3567931!4d78.530959!16s%2Fg%2F1vyxgwbj!19sChIJP42Qlo2YyzsRG-JUPNKP_eo?authuser=0&hl=en&rclk=1,"17.3567931,78.530959"
Masjid-e-Noor-e-Elahi,Mosque,"9G6G+339 Masjid-e-Noor-e-Elahi, Pragthi Nagar, Sahithi Nagar, Dilsukhnagar, Saroornagar, Hyderabad, Telangana 500060","Pragthi Nagar, Sahithi Nagar, Dilsukhnagar",9G6G+339,"Saroornagar, Hyderabad",500060,Telangana,IN,https://www.google.com/maps/place/Masjid-e-Noor-e-Elahi/data=!4m7!3m6!1s0x3bcb988b4b84ec8f:0xa037f2b99dc7404!8m2!3d17.3601701!4d78.5252282!16s%2Fg%2F119v1s5rp!19sChIJj-yES4uYyzsRBHTcmSt_Awo?authuser=0&hl=en&rclk=1,"17.360170099999998,78.5252282"
Masjid-e-Niyazi,Mosque,"Masjid-e-Niyazi, 10-3-120 Sai Nagar Colony, Lingojiguda, Trimurti Colony, Hyderabad, Telangana 500035","Trimurti Colony, Brindavan Colony","10-3-120 Sai Nagar Colony, Lingojiguda",Hyderabad,500035,Telangana,IN,https://www.google.com/maps/place/Masjid-e-Niyazi/data=!4m7!3m6!1s0x3bcb989a68dfc63d:0x549f357b816866d6!8m2!3d17.3484922!4d78.5348596!16s%2Fg%2F1ygltgby0!19sChIJPcbfaJqYyzsR1mZogXs1n1Q?authuser=0&hl=en&rclk=1,"17.3484922,78.53485959999999"
Masjid-e-Jamal-e-Mohammadi,Mosque,"9G43+2WW Masjid-e-Jamal-e-Mohammadi, Santosh Nagar - Sayeedabad Rd, Bin Trif Nagar, Raziya Complex, Saroor Nagar West, Madannapet Colony, Hyderabad, Telangana 500059","Bin Trif Nagar, Raziya Complex, Saroor Nagar West, Madannapet Colony","9G43+2WW, Santosh Nagar - Sayeedabad Rd",Hyderabad,500059,Telangana,IN,https://www.google.com/maps/place/Masjid-e-Jamal-e-Mohammadi/data=!4m7!3m6!1s0x3bcb98696ba26369:0x9b53fd9617ec13c4!8m2!3d17.3551026!4d78.5048173!16s%2Fg%2F11c5_h6tfp!19sChIJaWOia2mYyzsRxBPsF5b9U5s?authuser=0&hl=en&rclk=1,"17.3551026,78.5048173"
Daula Masjid and Mohammadia Madarsa,Mosque,"Daula Masjid and Mohammadia Madarsa, 18-12-418/H/71, Balapur Rd, Omer Colony, Hafiz Baba Nagar South, Hafiz Baba Nagar, Hyderabad, Telangana 500005","Omer Colony, Hafiz Baba Nagar South, Hafiz Baba Nagar","18-12-418/H/71, Balapur Rd",Hyderabad,500005,Telangana,IN,https://www.google.com/maps/place/Daula+Masjid+and+Mohammadia+Madarsa/data=!4m7!3m6!1s0x3bcba2a53961eb27:0x2c2122eb1ab39875!8m2!3d17.3242194!4d78.48845!16s%2Fg%2F11c6c9h9fz!19sChIJJ-thOaWiyzsRdZizGusiISw?authuser=0&hl=en&rclk=1,"17.3242194,78.48845"
Dargah Syed Sha Fakruddin Sabri.,Mosque,"8GVQ+FVF Dargah Syed Sha Fakruddin Sabri., Bairamalguda Rd, Mytri Nagar, Bhagya Nagar, Bairamalguda, Hyderabad, Telangana 500035","Mytri Nagar, Bhagya Nagar","8GVQ+FVF, Bairamalguda Rd","Bairamalguda, Hyderabad",500035,Telangana,IN,https://www.google.com/maps/place/Dargah+Syed+Sha+Fakruddin+Sabri./data=!4m7!3m6!1s0x3bcb989ecd448aa5:0xe48b18a0028cac06!8m2!3d17.3436828!4d78.5396656!16s%2Fg%2F11gg74sg46!19sChIJpYpEzZ6YyzsRBqyMAqAYi-Q?authuser=0&hl=en&rclk=1,"17.3436828,78.53966559999999"
Masjid - E - Rahmania,Mosque,"No. 3, Masjid - E - Rahmania, 7-72, Indira Nagar Rd, Indira Nagar, Ramanthapur, Hyderabad, Telangana 500013","Indira Nagar, Ramanthapur","No. 3, 7-72, Indira Nagar Rd",Hyderabad,500013,Telangana,IN,https://www.google.com/maps/place/Masjid+-+E+-+Rahmania/data=!4m7!3m6!1s0x3bcb9919daf45429:0xdb9bc2b6195c5a04!8m2!3d17.3956636!4d78.5396988!16s%2Fg%2F11f3zf82j7!19sChIJKVT02hmZyzsRBFpcGbbCm9s?authuser=0&hl=en&rclk=1,"17.3956636,78.5396988"
Masjid e Mohammadia,Mosque,"Masjid e Mohammadia, 17-1-368/365/C, Owaisi Nagar, Hasnabad, Santosh Nagar, Hyderabad, Telangana 500059","Owaisi Nagar, Hasnabad, Santosh Nagar",17-1-368/365/C,Hyderabad,500059,Telangana,IN,https://www.google.com/maps/place/Masjid+e+Mohammadia/data=!4m7!3m6!1s0x3bcb98715c59b5cd:0x6dbd5abef2d449b2!8m2!3d17.3429686!4d78.5040781!16s%2Fg%2F11f5djsykv!19sChIJzbVZXHGYyzsRsknU8r5avW0?authuser=0&hl=en&rclk=1,"17.3429686,78.5040781"
Masjid E Ghouse E Azam Dastagir RH,Mosque,"9G5P+QVC Masjid E Ghouse E Azam Dastagir RH, Doctors Colony, Bagath Singh Nagar Phase 2, Saroornagar, Telangana 500035","Doctors Colony, Bagath Singh Nagar Phase 2","9G5P+QVC, Doctors Colony","Saroornagar, Hyderabad",500035,Telangana,IN,https://www.google.com/maps/place/Masjid+E+Ghouse+E+Azam+Dastagir+RH/data=!4m7!3m6!1s0x3bcb9893610477eb:0x21ac0e3a94df40a9!8m2!3d17.3594285!4d78.5371479!16s%2Fg%2F11bzt3h6wk!19sChIJ63cEYZOYyzsRqUDflDoOrCE?authuser=0&hl=en&rclk=1,"17.3594285,78.5371479"
Qadri Masjid,Mosque,"Qadri Masjid, WING-B, WING-B, Lal Bahadur Shastri Marg, Bail Bajar, Saki Naka, Mumbai, Maharashtra 400072","Bail Bajar, Saki Naka","WING-B, WING-B, Lal Bahadur Shastri Marg",Mumbai,400072,Maharashtra,IN,https://www.google.com/maps/place/Qadri+Masjid/data=!4m7!3m6!1s0x3be7c88983c355a9:0xcab13640c8a2a2b7!8m2!3d19.0828363!4d72.8815033!16s%2Fg%2F11g9nrkl5s!19sChIJqVXDg4nI5zsRt6KiyEA2sco?authuser=0&hl=en&rclk=1,"19.0828363,72.88150329999999"
Masjid e mohammedia,Mosque,"9H64+RQP Masjid e mohammedia, East Yadav Nagar, Bharat Nagar, L. B. Nagar, Rajeevgandhi Nagar, Hyderabad, Telangana 500074","East Yadav Nagar, Bharat Nagar, L. B. Nagar",9H64+RQP,"Rajeevgandhi Nagar, Hyderabad",500074,Telangana,IN,https://www.google.com/maps/place/Masjid+e+mohammedia/data=!4m7!3m6!1s0x3bcb98b7d7be7e31:0x189884dc299bec9d!8m2!3d17.3620999!4d78.5569574!16s%2Fg%2F1233xrnxw!19sChIJMX6-17eYyzsRneybKdyEmBg?authuser=0&hl=en&rclk=1,"17.3620999,78.5569574"
Masjid-E-Omer,Mosque,"9H86+XWW Masjid-E-Omer, Geeta Nagar Colony, Nagole, Hyderabad, Telangana 500068","Geeta Nagar Colony, Nagole",9H86+XWW,Hyderabad,500068,Telangana,IN,https://www.google.com/maps/place/Masjid-E-Omer/data=!4m7!3m6!1s0x3bcb98cb91b11cd1:0xb468dd432c6640c6!8m2!3d17.3674886!4d78.562339!16s%2Fg%2F11hc_0_yt_!19sChIJ0RyxkcuYyzsRxkBmLEPdaLQ?authuser=0&hl=en&rclk=1,"17.367488599999998,78.562339"
Jama Masjid E Osman,Mosque,"Jama Masjid E Osman, 10, RCI Rd, Dhatu Nagar, Kanchan Bagh, Hyderabad, Telangana 500097","Dhatu Nagar, Kanchan Bagh","10, RCI Rd",Hyderabad,500097,Telangana,IN,https://www.google.com/maps/place/Jama+Masjid+E+Osman/data=!4m7!3m6!1s0x3bcba28710cc824d:0x65655475969e63ef!8m2!3d17.3290562!4d78.5186313!16s%2Fg%2F11c20sk128!19sChIJTYLMEIeiyzsR72OelnVUZWU?authuser=0&hl=en&rclk=1,"17.3290562,78.5186313"
Masjid-e-Salarjung,Mosque,"9G3P+342 Masjid-e-Salarjung, Post Office, Opposite Bus Stand, Lingojiguda, Telangana 500035",Brindavan Colony,"9G3P+342, Post Office, Opposite Bus Stand","Lingojiguda, Hyderabad",500035,Telangana,IN,https://www.google.com/maps/place/Masjid-e-Salarjung/data=!4m7!3m6!1s0x3bcb9891040d9651:0x2752ea823efbad5d!8m2!3d17.3526311!4d78.5352797!16s%2Fg%2F1yglqbtp7!19sChIJUZYNBJGYyzsRXa37PoLqUic?authuser=0&hl=en&rclk=1,"17.3526311,78.53527969999999"
Masjid-E-Quba,Mosque,"9G2J+GX4 Masjid-E-Quba, Brindavan Colony, Saroornagar, Hyderabad, Telangana 500035",Brindavan Colony,9G2J+GX4,"Saroornagar, Hyderabad",500035,Telangana,IN,https://www.google.com/maps/place/Masjid-E-Quba/data=!4m7!3m6!1s0x3bcb989025eac541:0x5da4b0be6f83696a!8m2!3d17.3512528!4d78.5324514!16s%2Fg%2F124ygvxjr!19sChIJQcXqJZCYyzsRammDb76wpF0?authuser=0&hl=en&rclk=1,"17.351252799999997,78.5324514"
Masjid,Mosque,"8GQQ+8J7 Masjid, Defence Scientists Co-Operative Housing Society, Bairamalguda, Telangana 500079",Defence Scientists Co-Operative Housing Society,8GQQ+8J7,Bairamalguda,500079,Telangana,IN,https://www.google.com/maps/place/Masjid/data=!4m7!3m6!1s0x3bcb997589bc3469:0x676f2e8f2bd7af6e!8m2!3d17.3382887!4d78.5390506!16s%2Fg%2F11ghsgszf0!19sChIJaTS8iXWZyzsRbq_XK48ub2c?authuser=0&hl=en&rclk=1,"17.3382887,78.5390506"
Masjid Bagh Siraj Unnisa Madrsa Taleem Ul Quran,Mosque,"8GJ7+G5W Masjid Bagh Siraj Unnisa Madrsa Taleem Ul Quran, Balapur Rd, Virat Nagar, Kanchan Bagh, Hyderabad, Telangana 500058","Virat Nagar, Kanchan Bagh","8GJ7+G5W, Balapur Rd",Hyderabad,500058,Telangana,IN,https://www.google.com/maps/place/Masjid+Bagh+Siraj+Unnisa+Madrsa+Taleem+Ul+Quran/data=!4m7!3m6!1s0x3bcba28390391d97:0xd1de2529ec5918f5!8m2!3d17.3313645!4d78.5129571!16s%2Fg%2F11b7w102m6!19sChIJlx05kIOiyzsR9RhZ7Ckl3tE?authuser=0&hl=en&rclk=1,"17.3313645,78.5129571"
Masjid Shehnaz Amjad Mohammadi,Mosque,"9G39+V6J Masjid Shehnaz Amjad Mohammadi, Unnamed Road, Krishnanagar, Saraswathi Nagar, Saroor Nagar West, Saroornagar, Telangana 500035","Krishnanagar, Saraswathi Nagar, Saroor Nagar West, Saidabad","9G39+V6J, Unnamed Road","Saroornagar, Hyderabad",500035,Telangana,IN,https://www.google.com/maps/place/Masjid+Shehnaz+Amjad+Mohammadi/data=!4m7!3m6!1s0x3bcb9920d954d6f7:0xd6d58a50c7cc65dc!8m2!3d17.3547208!4d78.5180124!16s%2Fg%2F11gjp3vj_h!19sChIJ99ZU2SCZyzsR3GXMx1CK1dY?authuser=0&hl=en&rclk=1,"17.3547208,78.5180124"
Masjid Faqeermohammedia,Mosque,"Masjid Faqeermohammedia, 11-17-22, Sri Venkateshwara Colony, Saroornagar, Hyderabad, Telangana 500035",Sri Venkateshwara Colony,11-17-22,"Saroornagar, Hyderabad",500035,Telangana,IN,https://www.google.com/maps/place/Masjid+Faqeermohammedia/data=!4m7!3m6!1s0x3bcb989697159aad:0x48976a51c2d1b0f9!8m2!3d17.3545308!4d78.5393896!16s%2Fg%2F11fy4qnz4z!19sChIJrZoVl5aYyzsR-bDRwlFql0g?authuser=0&hl=en&rclk=1,"17.3545308,78.53938959999999"
Masjid e Taha,Mosque,"9HR3+MWH Masjid e Taha, Ramanthapur, Gaddi annaram, Hyderabad, Telangana 500039","Ramanthapur, Gaddi annaram",9HR3+MWH,Hyderabad,500039,Telangana,IN,https://www.google.com/maps/place/Masjid+e+Taha/data=!4m7!3m6!1s0x3bcb992f57a58841:0xe15e06421358d58f!8m2!3d17.3916913!4d78.5548742!16s%2Fg%2F1yh802896!19sChIJQYilVy-ZyzsRj9VYE0IGXuE?authuser=0&hl=en&rclk=1,"17.391691299999998,78.5548742"
Masjid e Syed Us Sajideen (as),Mosque,"Masjid e Syed Us Sajideen (as), 17-1-297 2/3, Riyasath Nagar Road, Riyasath Nagar, Zohra Nagar, Hasnabad, Santosh Nagar, Hyderabad, Telangana 500059","Riyasath Nagar, Zohra Nagar, Hasnabad, Santosh Nagar","17-1-297 2/3, Riyasath Nagar Road",Hyderabad,500059,Telangana,IN,https://www.google.com/maps/place/Masjid+e+Syed+Us+Sajideen+%28as%29/data=!4m7!3m6!1s0x3bcb9990a53e4545:0xbadd81039bf118da!8m2!3d17.3465514!4d78.501551!16s%2Fg%2F11ghppyt6f!19sChIJRUU-pZCZyzsR2hjxmwOB3bo?authuser=0&hl=en&rclk=1,"17.3465514,78.50155099999999"
Hazrat Bilal Madina Masjid,Mosque,"Hazrat Bilal Madina Masjid, 41/52,Road, 2, Saroor Nagar East, Saroornagar, Telangana 500035",Saroor Nagar East,"41/52,Road, 2","Saroornagar, Hyderabad",500035,Telangana,IN,https://www.google.com/maps/place/Hazrat+Bilal+Madina+Masjid/data=!4m7!3m6!1s0x3bcb9950b6128d45:0x2e1528f5b38c5523!8m2!3d17.3507415!4d78.5241066!16s%2Fg%2F11h01w_hly!19sChIJRY0StlCZyzsRI1WMs_UoFS4?authuser=0&hl=en&rclk=1,"17.350741499999998,78.5241066"
Masjid E Ambiya (Ahle Hadees),Mosque,"8GRC+M9J Masjid E Ambiya (Ahle Hadees), Mega Residency, Sai Ram Nagar Colony, Champapet, Hyderabad, Telangana 500079","Mega Residency, Sai Ram Nagar Colony",8GRC+M9J,"Champapet, Hyderabad",500079,Telangana,IN,https://www.google.com/maps/place/Masjid+E+Ambiya+%28Ahle+Hadees%29/data=!4m7!3m6!1s0x3bcb99f741aad6cd:0xbd9e431f0c6dcf99!8m2!3d17.3414514!4d78.5210405!16s%2Fg%2F11rn6gp89y!19sChIJzdaqQfeZyzsRmc9tDB9Dnr0?authuser=0&hl=en&rclk=1,"17.3414514,78.5210405"
Masjid E Muhammadia Asj,Mosque,"9H7V+VJ8 Masjid E Muhammadia Asj, R Krishnaiah Nagar, Hyderabad, Telangana 500068",R Krishnaiah Nagar,9H7V+VJ8,Hyderabad,500068,Telangana,IN,https://www.google.com/maps/place/Masjid+E+Muhammadia+Asj/data=!4m7!3m6!1s0x3bcb9f14aea7582f:0x166e2556ae56a2f6!8m2!3d17.3646652!4d78.5940852!16s%2Fg%2F11dxdm1nsr!19sChIJL1inrhSfyzsR9qJWrlYlbhY?authuser=0&hl=en&rclk=1,"17.364665199999997,78.5940852"
Masjid-e-Billal,Mosque,"9GMG+J43 Masjid-e-Billal, Ramanthapur, Patel Nagar, Amberpet, Hyderabad, Telangana 500013","Ramanthapur, Patel Nagar, Amberpet",9GMG+J43,Hyderabad,500013,Telangana,IN,https://www.google.com/maps/place/Masjid-e-Billal/data=!4m7!3m6!1s0x3bcb998e988a52ed:0x8104f0eaf1482a00!8m2!3d17.3840039!4d78.5253033!16s%2Fg%2F11f6dg64f8!19sChIJ7VKKmI6ZyzsRACpI8erwBIE?authuser=0&hl=en&rclk=1,"17.3840039,78.52530329999999"
Masjid -E-Qutub Shahi,Mosque,"8GX6+XRG Masjid -E-Qutub Shahi, Central Excise Colony, New Santoshnagar, Santosh Nagar, Hyderabad, Telangana 500059","Central Excise Colony, New Santoshnagar, Santosh Nagar",8GX6+XRG,Hyderabad,500059,Telangana,IN,https://www.google.com/maps/place/Masjid+-E-Qutub+Shahi/data=!4m7!3m6!1s0x3bcb9864e146a90b:0x96cad726396a9834!8m2!3d17.3499292!4d78.5120845!16s%2Fg%2F11gdcvywc7!19sChIJC6lG4WSYyzsRNJhqOSbXypY?authuser=0&hl=en&rclk=1,"17.3499292,78.5120845"
Masjid Ubai Ibn Ka'ab,Mosque,"8HGX+RF7 Masjid Ubai Ibn Ka'ab, Boggula Darshan Reddy Nagar, Hayathnagar_Khalsa, Hyderabad, Telangana 501505",Boggula Darshan Reddy Nagar,8HGX+RF7,"Hayathnagar_Khalsa, Hyderabad",,Telangana,IN,https://www.google.com/maps/place/Masjid+Ubai+Ibn+Ka%27ab/data=!4m7!3m6!1s0x3bcba1e8e9410051:0x65eebd9e85d9efd1!8m2!3d17.327036!4d78.5986778!16s%2Fg%2F11qp179s89!19sChIJUQBB6eihyzsR0e_ZhZ697mU?authuser=0&hl=en&rclk=1,"17.327036,78.59867779999999"
Masjid khaled bin walid (RZ),Mosque,"18, Masjid khaled bin walid (RZ), 8-223/22, Mustafa Nagar, Riyasat Nagar, Hyderabad, Telangana 500059","Mustafa Nagar, Riyasat Nagar","18, 8-223/22",Hyderabad,500059,Telangana,IN,https://www.google.com/maps/place/Masjid+khaled+bin+walid+%28RZ%29/data=!4m7!3m6!1s0x3bcb99eba751f3ff:0x27d1082ad7603906!8m2!3d17.341763!4d78.49902!16s%2Fg%2F11t4k4ncwr!19sChIJ__NRp-uZyzsRBjlg1yoI0Sc?authuser=0&hl=en&rclk=1,"17.341763,78.49902"
Masjid,Mosque,"9GWH+335 Masjid, Unnamed Road, Kamshetty Enclave, Akash Nagar, Amberpet, Hyderabad, Telangana 500013","Kamshetty Enclave, Akash Nagar, Amberpet","9GWH+335, Unnamed Road",Hyderabad,500013,Telangana,IN,https://www.google.com/maps/place/Masjid/data=!4m7!3m6!1s0x3bcb99d4cfc697bb:0xbfdd23dde9af00d4!8m2!3d17.3951395!4d78.527722!16s%2Fg%2F11g0mj5nsx!19sChIJu5fGz9SZyzsR1ACv6d0j3b8?authuser=0&hl=en&rclk=1,"17.3951395,78.527722"
ak47-official,Mosque,"9H52+722 ak47-official, Ambedkar Colony, NTR Nagar, L. B. Nagar, Hyderabad, Telangana 500074","Ambedkar Colony, NTR Nagar, L. B. Nagar",9H52+722,Hyderabad,500074,Telangana,IN,https://www.google.com/maps/place/ak47-official/data=!4m7!3m6!1s0x3bcb99937cbf94f7:0x38f04e4ff09078fb!8m2!3d17.3581469!4d78.5500182!16s%2Fg%2F11jzd997kw!19sChIJ95S_fJOZyzsR-3iQ8E9O8Dg?authuser=0&hl=en&rclk=1,"17.358146899999998,78.5500182"
Railway Masjid,Mosque,"Railway Masjid, Siddharth Tower, 431511, Lal Bahadur Shastri Marg, Uthalsar, Purna, Thane, Maharashtra 400601","Uthalsar, Purna","Siddharth Tower, 431511, Lal Bahadur Shastri Marg","Thane, Purna",400601,Maharashtra,IN,https://www.google.com/maps/place/Railway+Masjid/data=!4m7!3m6!1s0x3bd028bf01b6efed:0x18d7bf3df0439ca3!8m2!3d19.1792446!4d77.030629!16s%2Fg%2F11fxc1rrzc!19sChIJ7e-2Ab8o0DsRo5xD8D2_1xg?authuser=0&hl=en&rclk=1,"19.1792446,77.03062899999999"
Masjid e Muhammad Azimul deen,Mosque,"Masjid e Muhammad Azimul deen, 4-185, Videsi Colony, Sahara Estate, Auto Nagar, Hyderabad, Telangana 500070","Videsi Colony, Sahara Estate, Auto Nagar",4-185,Hyderabad,500070,Telangana,IN,https://www.google.com/maps/place/Masjid+e+Muhammad+Azimul+deen/data=!4m7!3m6!1s0x3bcb9f80a61e328f:0x1b45109b99bb5b54!8m2!3d17.3472817!4d78.5762036!16s%2Fg%2F11fs5qth7m!19sChIJjzIepoCfyzsRVFu7mZsQRRs?authuser=0&hl=en&rclk=1,"17.3472817,78.5762036"
Chila E Ghousa E Azam,Mosque,"Chila E Ghousa E Azam, 11-5-150/C, Srinivasa Colony, Sri Venkateshwara Colony, Saroornagar, Hyderabad, Telangana 500035","Srinivasa Colony, Sri Venkateshwara Colony",11-5-150/C,"Saroornagar, Hyderabad",500035,Telangana,IN,https://www.google.com/maps/place/Chila+E+Ghousa+E+Azam/data=!4m7!3m6!1s0x3bcb9896ff5381c9:0x9892ecb4b750b829!8m2!3d17.352882!4d78.5405301!16s%2Fg%2F11bzyvm2fd!19sChIJyYFT_5aYyzsRKbhQt7Tskpg?authuser=0&hl=en&rclk=1,"17.352881999999997,78.5405301"
Masjid Hakeem Luqmaan,Mosque,"8GM9+6J3 Masjid Hakeem Luqmaan, Sai Ganesh Nagar Colony Rd, Dhatu Nagar, Kanchan Bagh, Jillalguda, Hyderabad, Telangana 500079","Dhatu Nagar, Kanchan Bagh","8GM9+6J3, Sai Ganesh Nagar Colony Rd","Jillalguda, Hyderabad",500079,Telangana,IN,https://www.google.com/maps/place/Masjid+Hakeem+Luqmaan/data=!4m7!3m6!1s0x3bcba3731a00d759:0xfbef8adec3dbd245!8m2!3d17.3330201!4d78.5190343!16s%2Fg%2F11q93qzpcx!19sChIJWdcAGnOjyzsRRdLbw96K7_s?authuser=0&hl=en&rclk=1,"17.3330201,78.5190343"
Mosque,Mosque,"9G4J+Q26 Mosque, VV Nagar, P & T Colony, Dilsukhnagar, Hyderabad, Telangana 500060","VV Nagar, P & T Colony, Dilsukhnagar",9G4J+Q26,Hyderabad,500060,Telangana,IN,https://www.google.com/maps/place/Mosque/data=!4m7!3m6!1s0x3bcb99b71da4366b:0xbaa27ee85d1c5870!8m2!3d17.356916!4d78.530005!16s%2Fg%2F11g0_d0qyq!19sChIJazakHbeZyzsRcFgcXeh-oro?authuser=0&hl=en&rclk=1,"17.356916,78.530005"
Darul Ulum Ahlesunnat Qadriya,Mosque,"4WMH+MCF Darul Ulum Ahlesunnat Qadriya, Lal Bahadur Shastri Marg, MMRDA Colony, Ambedkar Nagar, Kanjurmarg West, Bhandup West, Mumbai, Maharashtra 400678","MMRDA Colony, Ambedkar Nagar, Kanjurmarg West, Bhandup West","4WMH+MCF, Lal Bahadur Shastri Marg",Mumbai,400678,Maharashtra,IN,https://www.google.com/maps/place/Darul+Ulum+Ahlesunnat+Qadriya/data=!4m7!3m6!1s0x3be7c7898a4835b9:0xc98b925136c32bdb!8m2!3d19.1341786!4d72.9285454!16s%2Fg%2F1ptvv628n!19sChIJuTVIionH5zsR2yvDNlGSi8k?authuser=0&hl=en&rclk=1,"19.1341786,72.92854539999999"
Sarwarjahan masjid,Mosque,"9G2F+R4C Sarwarjahan masjid, Rd Number 14, Singareni Colony, Saroor Nagar East, Saroornagar, Hyderabad, Telangana 500035","Singareni Colony, Saroor Nagar East","9G2F+R4C, Rd Number 14","Saroornagar, Hyderabad",500035,Telangana,IN,https://www.google.com/maps/place/Sarwarjahan+masjid/data=!4m7!3m6!1s0x3bcb99bd829e3c3f:0x2c30ef92ade8c322!8m2!3d17.35207!4d78.5227682!16s%2Fg%2F11mxqyz0mz!19sChIJPzyegr2ZyzsRIsPorZLvMCw?authuser=0&hl=en&rclk=1,"17.352069999999998,78.5227682"
Salar e millat masjid salari milWat masjid,Mosque,"8GR4+5V4 Salar e millat masjid salari milWat masjid, DMRL X Road, Santosh Nagar Main Rd, Kanchan Bagh, Hyderabad, Telangana 500058",Kanchan Bagh,"8GR4+5V4, DMRL X Road, Santosh Nagar Main Rd",Hyderabad,500058,Telangana,IN,https://www.google.com/maps/place/Salar+e+millat+masjid+%D8%B3%D9%8E%D8%A7%D9%84%D9%8E%D8%A7%D8%B1%D9%90+%D9%85%D9%90%D9%84%D9%91%D9%8E%D8%AA+%D9%85%D9%8E%D8%B3%D9%92%D8%AC%D9%90%D8%AF%E2%80%AD/data=!4m7!3m6!1s0x3bcb9904357ec481:0xd2a63a922d922c08!8m2!3d17.3404579!4d78.5056214!16s%2Fg%2F11t59ldvn1!19sChIJgcR-NQSZyzsRCCySLZI6ptI?authuser=0&hl=en&rclk=1,"17.3404579,78.5056214"
GHAUSIA MASJID GHAFOOR KHAN KURLA WEST,Mosque,"3VGG+2CH GHAUSIA MASJID GHAFOOR KHAN KURLA WEST, Kanakia zillion Depot, Chunchunwala Compound, Lal Bahadur Shastri Marg, Shanti Nagar, Kurla West, Kapadia Nagar, Kurla, Mumbai, Maharashtra 400070","Kapadia Nagar, Kurla","3VGG+2CH, Kanakia zillion Depot, Chunchunwala Compound, Lal Bahadur Shastri Marg, Shanti Nagar, Kurla West",Mumbai,400070,Maharashtra,IN,https://www.google.com/maps/place/GHAUSIA+MASJID+GHAFOOR+KHAN+KURLA+WEST/data=!4m7!3m6!1s0x3be7c9187e13ad1b:0x5b9110b69a90008c!8m2!3d19.0750503!4d72.8761014!16s%2Fg%2F11fsvp1rf9!19sChIJG60TfhjJ5zsRjACQmrYQkVs?authuser=0&hl=en&rclk=1,"19.0750503,72.8761014"
Jamiya masjid salar ul mulk,Mosque,"9G32+W98 Jamiya masjid salar ul mulk, Qasim Colony, Darab Jung Colony, Madannapet Colony, Hyderabad, Telangana 500059","Qasim Colony, Darab Jung Colony, Madannapet Colony",9G32+W98,Hyderabad,,Telangana,IN,https://www.google.com/maps/place/Jamiya+masjid+salar+ul+mulk/data=!4m7!3m6!1s0x3bcb996d4e53428d:0x8eea18b1883d0c49!8m2!3d17.354791!4d78.5009551!16s%2Fg%2F11txrpvvlf!19sChIJjUJTTm2ZyzsRSQw9iLEY6o4?authuser=0&hl=en&rclk=1,"17.354791,78.5009551"
Masjid e qutub sahi,Mosque,"Masjid e qutub sahi, 31, Vijay Sree Colony, Auto Nagar, Hyderabad, Telangana 500070","Vijay Sree Colony, Auto Nagar",31,Hyderabad,500070,Telangana,IN,https://www.google.com/maps/place/Masjid+e+qutub+sahi/data=!4m7!3m6!1s0x3bcb9fa6360b3575:0x2edf70990de920b5!8m2!3d17.3489266!4d78.5768795!16s%2Fg%2F11nmppntk_!19sChIJdTULNqafyzsRtSDpDZlw3y4?authuser=0&hl=en&rclk=1,"17.3489266,78.57687949999999"
MASLAK E AALAA HAZRAT SUNNI MADINA MASJID KUTIR MANDAL KURLA WEST,Mosque,"3VCG+X68 MASLAK E AALAA HAZRAT SUNNI MADINA MASJID KUTIR MANDAL KURLA WEST, Lal Bahadur Shastri Marg, Kurla West, Kurla, Mumbai, Maharashtra 400070","Kurla West, Kurla","3VCG+X68, Lal Bahadur Shastri Marg",Mumbai,400070,Maharashtra,IN,https://www.google.com/maps/place/MASLAK+E+AALAA+HAZRAT+SUNNI+MADINA+MASJID+KUTIR+MANDAL+KURLA+WEST/data=!4m7!3m6!1s0x3be7c9e6842a918d:0x4833d01b033c1217!8m2!3d19.0724023!4d72.8755836!16s%2Fg%2F11shjkkdyj!19sChIJjZEqhObJ5zsRFxI8AxvQM0g?authuser=0&hl=en&rclk=1,"19.0724023,72.8755836"
Arshad pasha Qaudri home Al haq colony,Mosque,"Arshad pasha Qaudri home Al haq colony, al haq Colony, Chandrapuri Colony, L. B. Nagar, Hyderabad, Telangana 500074","Chandrapuri Colony, L. B. Nagar",al haq Colony,Hyderabad,500074,Telangana,IN,https://www.google.com/maps/place/Arshad+pasha+Qaudri+home+Al+haq+colony/data=!4m7!3m6!1s0x3bcb99c6beed0447:0x69aff082e83ef1bd!8m2!3d17.3457125!4d78.5522344!16s%2Fg%2F11pz883087!19sChIJRwTtvsaZyzsRvfE-6ILwr2k?authuser=0&hl=en&rclk=1,"17.345712499999998,78.5522344"
Bhupesh Gupta nagar janardhan Reddy colony road number 8 madina misjid,Mosque,"Bhupesh Gupta nagar janardhan Reddy colony road number 8 madina misjid, R.r.distric kharmanghat tkr kamman bhupesh Gupta nagar janardhan Reddy colony road number 8, L. B. Nagar, Saroornagar, Telangana 500079","Rajiv Shetti Nagar, L. B. Nagar",R.r.distric kharmanghat tkr kamman bhupesh Gupta nagar janardhan Reddy colony road number 8,"Saroornagar, Hyderabad",500079,Telangana,IN,https://www.google.com/maps/place/Bhupesh+Gupta+nagar+janardhan+Reddy+colony+road+number+8+madina+misjid/data=!4m7!3m6!1s0x3bcba3d08a7cc607:0x732b2b69fc9b8790!8m2!3d17.3373926!4d78.5361518!16s%2Fg%2F11rycrfpj7!19sChIJB8Z8itCjyzsRkIeb_GkrK3M?authuser=0&hl=en&rclk=1,"17.337392599999998,78.5361518"
Masjid,Mosque,"Masjid, 19-104, Doctors Colony, JB Colony, Saroornagar, Hyderabad, Telangana 500035","Doctors Colony, JB Colony",19-104,"Saroornagar, Hyderabad",500035,Telangana,IN,https://www.google.com/maps/place/Masjid/data=!4m7!3m6!1s0x3bcb99bf18d191f5:0x5cdb7269ea2a9dd2!8m2!3d17.3596338!4d78.5372637!16s%2Fg%2F11p6dk9b3c!19sChIJ9ZHRGL-ZyzsR0p0q6mly21w?authuser=0&hl=en&rclk=1,"17.359633799999997,78.5372637"
Maulana vanastalipuram,Mosque,"Maulana vanastalipuram, 5-181/4, Ganesh Nagar Colony, Sharada Nagar, Indira Nagar, L. B. Nagar, Hyderabad, Telangana 500070","Ganesh Nagar Colony, Sharada Nagar, Indira Nagar, L. B. Nagar",5-181/4,Hyderabad,500070,Telangana,IN,https://www.google.com/maps/place/Maulana+vanastalipuram/data=!4m7!3m6!1s0x3bcba115f7606977:0x116bd5116d5509fb!8m2!3d17.3391649!4d78.5700728!16s%2Fg%2F11t8c1fsvn!19sChIJd2lg9xWhyzsR-wlVbRHVaxE?authuser=0&hl=en&rclk=1,"17.3391649,78.57007279999999"
Masjid Mohamad suleman,Mosque,"9H7V+WMF Masjid Mohamad suleman, Geological Survey of India Colony, R Krishnaiah Nagar, Hyderabad, Telangana 500068","Geological Survey of India Colony, R Krishnaiah Nagar",9H7V+WMF,Hyderabad,500068,Telangana,IN,https://www.google.com/maps/place/Masjid+Mohamad+suleman/data=!4m7!3m6!1s0x3bcb9faf655e2b71:0x5d9fa78d263f138d!8m2!3d17.3648097!4d78.5941646!16s%2Fg%2F11ssd1kw64!19sChIJcSteZa-fyzsRjRM_Jo2nn10?authuser=0&hl=en&rclk=1,"17.3648097,78.5941646"
