name,main_category,address,address_ward,address_street,address_city,address_postal_code,address_state,address_country_code,link,coordinates
Ankleshwar GIDC Road Puththa Factory Masjid,Mosque,"Ankleshwar GIDC Road Puththa Factory Masjid, GIDC Road, near Bus Stop, Ankleshwar GIDC, Ankleshwar, Gujarat 393002",Ankleshwar GIDC,"GIDC Road, near Bus Stop",Ankleshwar,393002,Gujarat,IN,https://www.google.com/maps/place/Ankleshwar+GIDC+Road+Puththa+Factory+Masjid/data=!4m7!3m6!1s0x3be023fa91a3fa29:0x5c9104195e7b575a!8m2!3d21.622714!4d73.0030506!16s%2Fg%2F11bbrk2v9k!19sChIJKfqjkfoj4DsRWld7XhkEkVw?authuser=0&hl=en&rclk=1,"21.622714,73.0030506"
Station Masjid,Mosque,"JXGX+RPM Station Masjid, Railway Station Rd, Near Ankleshwar Central Bus Depot, Mobin Colony, Chickoo Wadi, Ankleshwar West, Ankleshwar, Gujarat 393001","Mobin Colony, Chickoo Wadi","JXGX+RPM, Railway Station Rd, Near Ankleshwar Central Bus Depot","Ankleshwar West, Ankleshwar",393001,Gujarat,IN,https://www.google.com/maps/place/Station+Masjid/data=!4m7!3m6!1s0x3be023fbffe0dd33:0xcc6843ed36691d44!8m2!3d21.6270799!4d72.9993053!16s%2Fg%2F1hm5npy87!19sChIJM93g__sj4DsRRB1pNu1DaMw?authuser=0&hl=en&rclk=1,"21.6270799,72.9993053"
Kagziwad Masjid - Ankleshwar,Mosque,"JXJP+7CX Kagziwad Masjid - Ankleshwar, Goya Bazar, Kagziwad, Ankleshwar West, Kagzi Mohalla, Taibah Nagar, Ankleshwar, Gujarat 393001","Goya Bazar, Kagziwad, Ankleshwar West, Kagzi Mohalla, Taibah Nagar",JXJP+7CX,Ankleshwar,393001,Gujarat,IN,https://www.google.com/maps/place/Kagziwad+Masjid+-+Ankleshwar/data=!4m7!3m6!1s0x3be0240212ad6763:0x9690d32b652e5dde!8m2!3d21.6307462!4d72.986107!16s%2Fg%2F11xmz_26k!19sChIJY2etEgIk4DsR3l0uZSvTkJY?authuser=0&hl=en&rclk=1,"21.630746199999997,72.98610699999999"
Madina masjid,Mosque,"JX4X+64F Madina masjid, Piraman, Ankleshwar, Gujarat 393001",,JX4X+64F,"Piraman, Ankleshwar",393001,Gujarat,IN,https://www.google.com/maps/place/Madina+masjid/data=!4m7!3m6!1s0x3be0238b9596944d:0xa0f43e908d712d07!8m2!3d21.6055639!4d72.9978009!16s%2Fg%2F11c1wz5jx2!19sChIJTZSWlYsj4DsRBy1xjZA-9KA?authuser=0&hl=en&rclk=1,"21.6055639,72.9978009"
Gausiya Jama Masjid,Mosque,"JX3W+FJP Gausiya Jama Masjid, Azad Nagar, Piraman, Ankleshwar, Gujarat 393001",Azad Nagar,JX3W+FJP,"Piraman, Ankleshwar",393001,Gujarat,IN,https://www.google.com/maps/place/Gausiya+Jama+Masjid/data=!4m7!3m6!1s0x3be023897e056459:0x4e838e059dc038b3!8m2!3d21.6037066!4d72.9965799!16s%2Fg%2F11b6pmchx_!19sChIJWWQFfokj4DsRszjAnQWOg04?authuser=0&hl=en&rclk=1,"21.6037066,72.9965799"
Jama Masjid,Mosque,"Jama Masjid, Ansar Market National Highway No.8, Ankleshwar, Gujarat 393002",,Ansar Market National Highway No.8,Ankleshwar,393002,Gujarat,IN,https://www.google.com/maps/place/Jama+Masjid/data=!4m7!3m6!1s0x3be0238b5b262797:0x8bda09fba8455c95!8m2!3d21.6088743!4d72.9985117!16s%2Fg%2F11bzv9yp5f!19sChIJlycmW4sj4DsRlVxFqPsJ2os?authuser=0&hl=en&rclk=1,"21.6088743,72.9985117"
Selarvad Masjid,Mosque,"JXMR+WFQ Selarvad Masjid, Ramnagar, Ankleshwar, Gujarat 393001",Ramnagar,JXMR+WFQ,Ankleshwar,393001,Gujarat,IN,https://www.google.com/maps/place/Selarvad+Masjid/data=!4m7!3m6!1s0x3be026aae2ee0c75:0x88a820cba811502f!8m2!3d21.6348331!4d72.9912199!16s%2Fg%2F11fxxwxmk4!19sChIJdQzu4qom4DsRL1ARqMsgqIg?authuser=0&hl=en&rclk=1,"21.634833099999998,72.99121989999999"
Bhatwad Masjid,Mosque,"JXJQ+9M4 Bhatwad Masjid, Near Mullawad, Near Hazrat Ishhaque Dargah, Bhatwad, Ankleshwar West, Ankleshwar, Gujarat 393001","Near Mullawad, Near Hazrat Ishhaque Dargah, Bhatwad, Ankleshwar West",JXJQ+9M4,Ankleshwar,393001,Gujarat,IN,https://www.google.com/maps/place/Bhatwad+Masjid/data=!4m7!3m6!1s0x3be02401c38f477b:0xd5419add596d5b00!8m2!3d21.6308946!4d72.9892099!16s%2Fg%2F11bbrc7k3c!19sChIJe0ePwwEk4DsRAFttWd2aQdU?authuser=0&hl=en&rclk=1,"21.630894599999998,72.98920989999999"
CHORYASI MASJID KASBATIWAD,Mosque,"CHORYASI MASJID KASBATIWAD, Kasbatiwad, Taibah Nagar, Ankleshwar, Gujarat 393001","Kasbatiwad, Taibah Nagar",,Ankleshwar,393001,Gujarat,IN,https://www.google.com/maps/place/CHORYASI+MASJID+KASBATIWAD/data=!4m7!3m6!1s0x3be024029ca7c82f:0x3a6b4c148019bd6f!8m2!3d21.6307085!4d72.984231!16s%2Fg%2F11bbrlblh9!19sChIJL8innAIk4DsRb70ZgBRMazo?authuser=0&hl=en&rclk=1,"21.6307085,72.984231"
Masjid-e-Iqra,Mosque,"Masjid-e-Iqra, Shahin Park, near N.H.No.48, Ankleshwar, Gujarat 393001",,"Shahin Park, near N.H.No.48",Ankleshwar,393001,Gujarat,IN,https://www.google.com/maps/place/Masjid-e-Iqra/data=!4m7!3m6!1s0x3be023f312d6b567:0x455137220c75c6a5!8m2!3d21.6115007!4d73.0006198!16s%2Fg%2F11gfk0jln2!19sChIJZ7XWEvMj4DsRpcZ1DCI3UUU?authuser=0&hl=en&rclk=1,"21.6115007,73.0006198"
Garib Nawaz Masjid,Mosque,"J2PC+52W Garib Nawaz Masjid, Gadkhol Part, Hifazat Nagar, Ankleshwar, Gujarat 393001","Gadkhol Part, Hifazat Nagar",J2PC+52W,Ankleshwar,393001,Gujarat,IN,https://www.google.com/maps/place/Garib+Nawaz+Masjid/data=!4m7!3m6!1s0x3be02161d40b3c37:0x1cb81d2b46635e3a!8m2!3d21.6354973!4d73.0200811!16s%2Fg%2F11c605rjzm!19sChIJNzwL1GEh4DsROl5jRisduBw?authuser=0&hl=en&rclk=1,"21.635497299999997,73.0200811"
Masjid-e-ayesha,Mosque,"J2MP+R5G Masjid-e-ayesha, Hifazat Nagar, Ankleshwar, Gujarat 393001",Hifazat Nagar,J2MP+R5G,Ankleshwar,393001,Gujarat,IN,https://www.google.com/maps/place/Masjid-e-ayesha/data=!4m7!3m6!1s0x3be023d5c5784c07:0xcbc9ae4931af1abf!8m2!3d21.6345517!4d73.035466!16s%2Fg%2F11c5_pdqgj!19sChIJB0x4xdUj4DsRvxqvMUmuycs?authuser=0&hl=en&rclk=1,"21.6345517,73.035466"
Mobin Masjid,Mosque,"J2H2+FCP Mobin Masjid, Mobin Colony, GIDC, Timber Market, Chickoo Wadi, Ankleshwar, Gujarat 393001","Mobin Colony, GIDC, Timber Market, Chickoo Wadi",J2H2+FCP,Ankleshwar,393001,Gujarat,IN,https://www.google.com/maps/place/Mobin+Masjid/data=!4m7!3m6!1s0x3be023fc6a027ca7:0xd2f32665b88a9449!8m2!3d21.6287075!4d73.0010808!16s%2Fg%2F11c20q5q1v!19sChIJp3wCavwj4DsRSZSKuGUm89I?authuser=0&hl=en&rclk=1,"21.628707499999997,73.0010808"
Masjid Khairun,Mosque,"J269+JQ4 Masjid Khairun, GIDC, Timber Market, Ankleshwar GIDC, Ankleshwar, Gujarat 393001","GIDC, Timber Market, Ankleshwar GIDC",J269+JQ4,Ankleshwar,393001,Gujarat,IN,https://www.google.com/maps/place/Masjid+Khairun/data=!4m7!3m6!1s0x3be02352f47097ed:0x457d10a6bc0c43d4!8m2!3d21.6115075!4d73.0194616!16s%2Fg%2F11gwm964q2!19sChIJ7Zdw9FIj4DsR1EMMvKYQfUU?authuser=0&hl=en&rclk=1,"21.6115075,73.0194616"
Madina Masjid,Mosque,"JXGJ+GCP Madina Masjid, sakti nagar, Ankleshwar, Gujarat 393001",sakti nagar,JXGJ+GCP,Ankleshwar,393001,Gujarat,IN,https://www.google.com/maps/place/Madina+Masjid/data=!4m7!3m6!1s0x3be025abf1b0a03f:0xfb0db9ad2b4da02e!8m2!3d21.6263349!4d72.9810847!16s%2Fg%2F11f6c34n0b!19sChIJP6Cw8asl4DsRLqBNK625Dfs?authuser=0&hl=en&rclk=1,"21.6263349,72.9810847"
Gulshan-e-Raza Masjid,Mosque,"J2PP+X54 Gulshan-e-Raza Masjid, Marutidham, Hifazat Nagar, Ankleshwar, Gujarat 393001","Marutidham, Hifazat Nagar",J2PP+X54,Ankleshwar,393001,Gujarat,IN,https://www.google.com/maps/place/Gulshan-e-Raza+Masjid/data=!4m7!3m6!1s0x3be0217e10116b9b:0x699a9a5e341c1361!8m2!3d21.6373947!4d73.0354637!16s%2Fg%2F11fyzbjy6m!19sChIJm2sREH4h4DsRYRMcNF6ammk?authuser=0&hl=en&rclk=1,"21.637394699999998,73.0354637"
Masjid-E-Abraar,Mosque,"H2R7+V3W Masjid-E-Abraar, Kapodra, Ankleshwar, Gujarat 393001",Kapodra,H2R7+V3W,Ankleshwar,393001,Gujarat,IN,https://www.google.com/maps/place/Masjid-E-Abraar/data=!4m7!3m6!1s0x3be0239eeb20f50f:0x30b618b3e6450b8e!8m2!3d21.5922376!4d73.0126882!16s%2Fg%2F11gfcqqphd!19sChIJD_Ug654j4DsRjgtF5rMYtjA?authuser=0&hl=en&rclk=1,"21.5922376,73.0126882"
masjid-e-madni,Mosque,"J292+W4V masjid-e-madni, Unnamed Road, Ankleshwar GIDC, Ankleshwar, Gujarat 393001",Ankleshwar GIDC,"J292+W4V, Unnamed Road",Ankleshwar,393001,Gujarat,IN,https://www.google.com/maps/place/masjid-e-madni/data=!4m7!3m6!1s0x3be023bcec1f6b75:0x61fbc72e46de9c90!8m2!3d21.6198653!4d73.0003!16s%2Fg%2F11fb2hyh2z!19sChIJdWsf7Lwj4DsRkJzeRi7H-2E?authuser=0&hl=en&rclk=1,"21.6198653,73.0003"
Datar masjid,Mosque,"Datar masjid, 35, datarnagar, surti bhagol road, ankleshwar, Gujarat Housing Board, Shyam Nagar, Ankleshwar, Gujarat 393001","Gujarat Housing Board, Shyam Nagar","35, datarnagar, surti bhagol road, ankleshwar",Ankleshwar,393001,Gujarat,IN,https://www.google.com/maps/place/Datar+masjid/data=!4m7!3m6!1s0x3be02504c7368965:0x2a1d64bc5276c68!8m2!3d21.6272907!4d72.987917!16s%2Fg%2F11j7vpncht!19sChIJZYk2xwQl4DsRaGwnxUvWoQI?authuser=0&hl=en&rclk=1,"21.6272907,72.987917"
Masjid-de-Ahmedi,Mosque,"JXGV+HCH Masjid-de-Ahmedi, Piraman Gam Rd, Shyam Nagar, Ankleshwar, Gujarat 393001",Shyam Nagar,"JXGV+HCH, Piraman Gam Rd",Ankleshwar,393001,Gujarat,IN,https://www.google.com/maps/place/Masjid-de-Ahmedi/data=!4m7!3m6!1s0x3be023caabe22845:0xb30fc089c9874576!8m2!3d21.626447!4d72.9936111!16s%2Fg%2F11y1g209_x!19sChIJRSjiq8oj4DsRdkWHyYnAD7M?authuser=0&hl=en&rclk=1,"21.626447,72.9936111"
