name,main_category,address,address_ward,address_street,address_city,address_postal_code,address_state,address_country_code,link,coordinates
Jama Masjid,Mosque,"Jama Masjid, Old Delhi, Delhi, 110006","Jama Masjid, Old Delhi",,Delhi,110006,Delhi,IN,https://www.google.com/maps/place/Jama+Masjid/data=!4m7!3m6!1s0x390cfd18df89b215:0xdd57369e29bf9d96!8m2!3d28.6506792!4d77.2334421!16zL20vMDR5emo1!19sChIJFbKJ3xj9DDkRlp2_KZ42V90?authuser=0&hl=en&rclk=1,"28.6506792,77.23344209999999"
JAMA MASJID,Mosque,"583H+W7Q JAMA MASJID, Unnamed Road, Harinagar, Ramnagar, Bihar 845103",Harinagar,"583H+W7Q, Unnamed Road",Ramnagar,845103,Bihar,IN,https://www.google.com/maps/place/JAMA+MASJID/data=!4m7!3m6!1s0x3994879799911bb3:0xecf6571e38c03988!8m2!3d27.1548474!4d84.3282417!16s%2Fg%2F11fn6cwmd4!19sChIJsxuRmZeHlDkRiDnAOB5X9uw?authuser=0&hl=en&rclk=1,"27.154847399999998,84.32824169999999"
Kabuli Bagh Masjid,Mosque,"9XWR+G4R Kabuli Bagh Masjid, 9909, Gali Number 2, Ramnagar, Bajaj Nagar, Manmohan Nagar, Panipat, Panipat Taraf Makhdum Zadgan, Haryana 132103","Ramnagar, Bajaj Nagar, Manmohan Nagar","9XWR+G4R, 9909, Gali Number 2","Panipat, Panipat Taraf Makhdum Zadgan",132103,Haryana,IN,https://www.google.com/maps/place/Kabuli+Bagh+Masjid/data=!4m7!3m6!1s0x390dda6989ab3ca9:0x5eb82fc3f2594555!8m2!3d29.3958972!4d76.9890751!16s%2Fg%2F11bwwlsdmr!19sChIJqTyriWnaDTkRVUVZ8sMvuF4?authuser=0&hl=en&rclk=1,"29.3958972,76.9890751"
"Eidgah Masjid, khudanagar",Mosque,"Eidgah Masjid, khudanagar, Eidgah Masjid, Khudanagar, Ramnagar, Bihar 845106",Khudanagar,Eidgah Masjid,Ramnagar,845106,Bihar,IN,"https://www.google.com/maps/place/Eidgah+Masjid,+khudanagar/data=!4m7!3m6!1s0x399486c8992bcdaf:0x9cc28934d19a6a83!8m2!3d27.1646501!4d84.3293998!16s%2Fg%2F1v2dzxy4!19sChIJr80rmciGlDkRg2qa0TSJwpw?authuser=0&hl=en&rclk=1","27.1646501,84.32939979999999"
Kathal Wali Masjid,Mosque,"VWX6+73V Kathal Wali Masjid, Ramnagar Colony, Shahjahanpur, Uttar Pradesh 242001",Ramnagar Colony,VWX6+73V,Shahjahanpur,242001,Uttar Pradesh,IN,https://www.google.com/maps/place/Kathal+Wali+Masjid/data=!4m7!3m6!1s0x399fbd30e5ebeddb:0x32b130b91724e994!8m2!3d27.8982365!4d79.9101687!16s%2Fg%2F11b5pjgmqd!19sChIJ2-3r5TC9nzkRlOkkF7kwsTI?authuser=0&hl=en&rclk=1,"27.8982365,79.9101687"
Masjid Shaan E Ilahi,Mosque,"J835+M2W Masjid Shaan E Ilahi, Block 20, Part 2, Trilokpuri, Delhi, 110091","Block 20, Part 2, Trilokpuri",J835+M2W,Delhi,110091,Delhi,IN,https://www.google.com/maps/place/Masjid+Shaan+E+Ilahi/data=!4m7!3m6!1s0x390ce49491158b1b:0xc8cb89432adbf7ad!8m2!3d28.6042297!4d77.3075818!16s%2Fg%2F11cn5n3hlt!19sChIJG4sVkZTkDDkRrffbKkOJy8g?authuser=0&hl=en&rclk=1,"28.604229699999998,77.3075818"
"Markaj Masjid, Dainmarwa",Mosque,"48R5+R85 Markaj Masjid, Dainmarwa, Dainmarwa, Bihar 845103",,48R5+R85,Dainmarwa,845103,Bihar,IN,"https://www.google.com/maps/place/Markaj+Masjid,+Dainmarwa/data=!4m7!3m6!1s0x399480d76a512e3f:0xe502005d6ecaa139!8m2!3d27.1420222!4d84.3083458!16s%2Fg%2F11ggs4f2fp!19sChIJPy5RateAlDkROaHKbl0AAuU?authuser=0&hl=en&rclk=1","27.1420222,84.3083458"
Ram Nagar jama Masjid,Mosque,"43XV+C6F Ram Nagar jama Masjid, Ramnagar, Dhunsi, Nehara West, Bihar 847233",Dhunsi,"43XV+C6F, Ramnagar",Nehara West,847233,Bihar,IN,https://www.google.com/maps/place/Ram+Nagar+jama+Masjid/data=!4m7!3m6!1s0x39eddad2ad3f38a1:0xfb6099602b58daf6!8m2!3d26.148567!4d86.09305!16s%2Fg%2F1pp2x9mkk!19sChIJoTg_rdLa7TkR9tpYK2CZYPs?authuser=0&hl=en&rclk=1,"26.148567,86.09304999999999"
"Badi masjid,Ramnagar",Mosque,"588F+5HJ Badi masjid,Ramnagar, Purani Bazar, Ramnagar, Bihar 845106",Purani Bazar,588F+5HJ,Ramnagar,845106,Bihar,IN,"https://www.google.com/maps/place/Badi+masjid,Ramnagar/data=!4m7!3m6!1s0x399486c55d48211d:0x7c2b4d907171b812!8m2!3d27.1654631!4d84.3238795!16s%2Fg%2F1vg_5ptf!19sChIJHSFIXcWGlDkRErhxcZBNK3w?authuser=0&hl=en&rclk=1","27.1654631,84.32387949999999"
Oonchi Masjid,Mosque,"Oonchi Masjid, 304, Station Rd Aiman Zai Jalal Nagar, Station Rd, Aiman Zai Jalal Nagar, Ramnagar Colony, Shahjahanpur, Uttar Pradesh 242001","Aiman Zai Jalal Nagar, Ramnagar Colony","304, Station Rd Aiman Zai Jalal Nagar, Station Rd",Shahjahanpur,242001,Uttar Pradesh,IN,https://www.google.com/maps/place/Oonchi+Masjid/data=!4m7!3m6!1s0x399fbd3a72ddef4f:0x2175eed206943325!8m2!3d27.8975276!4d79.9075351!16s%2Fg%2F11g8lg4k69!19sChIJT-_dcjq9nzkRJTOUBtLudSE?authuser=0&hl=en&rclk=1,"27.8975276,79.90753509999999"
Dakhni Masjid,Religious organization,,,,,,,,https://www.google.com/maps/place/Dakhni+Masjid/data=!4m7!3m6!1s0x390c78074051b1b1:0x4cf2e9818a62fd61!8m2!3d29.0512551!4d77.9271412!16s%2Fg%2F11b90mxx5v!19sChIJsbFRQAd4DDkRYf1iioHp8kw?authuser=0&hl=en&rclk=1,"29.0512551,77.9271412"
baaitul jaannaat jaame msjid,Mosque,"JJRJ+Q7V baaitul jaannaat jaame msjid, Ramnagar Math Rd, Dinajpur, Bangladesh",,"JJRJ+Q7V, Ramnagar Math Rd",Dinajpur,,,BD,https://www.google.com/maps/place/%E0%A6%AC%E0%A6%BE%E0%A6%87%E0%A6%A4%E0%A7%81%E0%A6%B2+%E0%A6%9C%E0%A6%BE%E0%A6%A8%E0%A7%8D%E0%A6%A8%E0%A6%BE%E0%A6%A4+%E0%A6%9C%E0%A6%BE%E0%A6%AE%E0%A7%87+%E0%A6%AE%E0%A6%B8%E0%A6%9C%E0%A6%BF%E0%A6%A6/data=!4m7!3m6!1s0x39fb4da560abb6cb:0x9fba97ba2856c48c!8m2!3d25.6419979!4d88.6306676!16s%2Fg%2F11gmvg38c7!19sChIJy7arYKVN-zkRjMRWKLqXup8?authuser=0&hl=en&rclk=1,"25.6419979,88.6306676"
Jama Masjid Khanpur Banger,Mosque,"XWW8+8P5 Jama Masjid Khanpur Banger, Khanpur, Saidipur Sadipur Urf Ramnagar, Uttar Pradesh 250406",,XWW8+8P5,"Khanpur, Saidipur Sadipur Urf Ramnagar",250406,Uttar Pradesh,IN,https://www.google.com/maps/place/Jama+Masjid+Khanpur+Banger/data=!4m7!3m6!1s0x390c79a5af01fb8b:0x1a0cfba7ffc6afbf!8m2!3d28.9957637!4d77.9168638!16s%2Fg%2F11gl202964!19sChIJi_sBr6V5DDkRv6_G_6f7DBo?authuser=0&hl=en&rclk=1,"28.995763699999998,77.9168638"
Jama masjid Meghwal,Mosque,"68RX+8H5 Jama masjid Meghwal, Meghawal - Ramnagar Rd, Meghwal, Bihar 845106",,"68RX+8H5, Meghawal - Ramnagar Rd",Meghwal,845106,Bihar,IN,https://www.google.com/maps/place/Jama+masjid+Meghwal/data=!4m7!3m6!1s0x3994860698337dc3:0xe4b7df06e9a5919!8m2!3d27.2407709!4d84.3489791!16s%2Fg%2F11g8pr7267!19sChIJw30zmAaGlDkRGVmabvB9Sw4?authuser=0&hl=en&rclk=1,"27.240770899999998,84.3489791"
Ramnagar Jama Masjid,Mosque,"WJQ9+V4M Ramnagar Jama Masjid, Gargata Narharia, Bihar 854315",,WJQ9+V4M,Gargata Narharia,854315,Bihar,IN,https://www.google.com/maps/place/Ramnagar+Jama+Masjid/data=!4m7!3m6!1s0x39e55ea7e5b4606f:0xffefb735bdd7663!8m2!3d25.9397008!4d87.6178041!16s%2Fg%2F11g9qkygks!19sChIJb2C05ade5TkRY3bdW3P7_g8?authuser=0&hl=en&rclk=1,"25.939700799999997,87.6178041"
Ramnagar Uttarpara Jame Masjid,Mosque,"53FF+44X Ramnagar Uttarpara Jame Masjid, Ramnagar, Bairgachi, Gazole, Malda, 732102 WB, Eklakhi - Panusaha Mour Rd., Ramnagar, Bahirgachhi, West Bengal 732102",Ramnagar,"53FF+44X, Ramnagar, Bairgachi, Gazole, Malda, 732102 WB, Eklakhi - Panusaha Mour Rd.",Bahirgachhi,732102,West Bengal,IN,https://www.google.com/maps/place/Ramnagar+Uttarpara+Jame+Masjid/data=!4m7!3m6!1s0x39fae421d9ab8c97:0xc2dc71b452193e37!8m2!3d25.1724953!4d88.0728162!16s%2Fg%2F11c6cj824q!19sChIJl4yr2SHk-jkRNz4ZUrRx3MI?authuser=0&hl=en&rclk=1,"25.172495299999998,88.07281619999999"
EIDGAH MASJID BAHUARI,Mosque,"584P+XMX EIDGAH MASJID BAHUARI, Ramnagar, Bihar 845103",,584P+XMX,Ramnagar,,Bihar,IN,https://www.google.com/maps/place/EIDGAH+MASJID+BAHUARI/data=!4m7!3m6!1s0x399486b444648a61:0x3e13798fbffd026d!8m2!3d27.1574827!4d84.3367343!16s%2Fg%2F11f3pnnrb1!19sChIJYYpkRLSGlDkRbQL9v495Ez4?authuser=0&hl=en&rclk=1,"27.1574827,84.33673429999999"
Qureshi Masjid,Mosque,"VWW5+969 Qureshi Masjid, Tareen jalalnagar, Shahjahanpur, Uttar Pradesh 242001",Ramnagar Colony,"VWW5+969, Tareen jalalnagar",Shahjahanpur,242001,Uttar Pradesh,IN,https://www.google.com/maps/place/Qureshi+Masjid/data=!4m7!3m6!1s0x399fbd3a81fd7e27:0x1d3e595c4d6e351a!8m2!3d27.8959221!4d79.908104!16s%2Fg%2F11dxs3_4m0!19sChIJJ379gTq9nzkRGjVuTVxZPh0?authuser=0&hl=en&rclk=1,"27.8959221,79.908104"
Hardia chowk masjid,Mosque,"4F35+JV6 Hardia chowk masjid, Ramnagar - Narkatiaganj Rd, Narkatiaganj, Bihar 845307",,"4F35+JV6, Ramnagar - Narkatiaganj Rd",Narkatiaganj,845307,Bihar,IN,https://www.google.com/maps/place/Hardia+chowk+masjid/data=!4m7!3m6!1s0x39949d257ad3e41f:0x3ab9b00e04aec3b1!8m2!3d27.1040477!4d84.4596483!16s%2Fg%2F11fk14cpz2!19sChIJH-TTeiWdlDkRscOuBA6wuTo?authuser=0&hl=en&rclk=1,"27.1040477,84.4596483"
"JAMA MASJID, MATHIA",Mosque,"69P2+VF8 JAMA MASJID, MATHIA, Mathia, Bihar 845106",,69P2+VF8,Mathia,845106,Bihar,IN,"https://www.google.com/maps/place/JAMA+MASJID,+MATHIA/data=!4m7!3m6!1s0x3994860632336bfd:0x48a052f6ad877a0a!8m2!3d27.2371504!4d84.3512125!16s%2Fg%2F11fy1dr54t!19sChIJ_WszMgaGlDkRCnqHrfZSoEg?authuser=0&hl=en&rclk=1","27.237150399999997,84.3512125"
Masjid Bargajwa Deoraj,Mosque,"483M+FCG Masjid Bargajwa Deoraj, Bargajwa, Bihar 845103",,483M+FCG,Bargajwa,845103,Bihar,IN,https://www.google.com/maps/place/Masjid+Bargajwa+Deoraj/data=!4m7!3m6!1s0x3994819f8272b3a1:0x2cb9fe6a7e273bfa!8m2!3d27.1036907!4d84.333581!16s%2Fg%2F11fy4qr0ns!19sChIJobNygp-BlDkR-jsnfmr-uSw?authuser=0&hl=en&rclk=1,"27.103690699999998,84.333581"
Ek Minara Masjid,Mosque,"89GV+G37 Ek Minara Masjid, Mohalla NAudha, Dhampur Rd, Nethaur, Uttar Pradesh 246733",,"89GV+G37, Mohalla NAudha, Dhampur Rd","Nethaur, Kasampur Lekhraj",246733,Uttar Pradesh,IN,https://www.google.com/maps/place/Ek+Minara+Masjid/data=!4m7!3m6!1s0x390bc729d2a06211:0xbe3438fc75628657!8m2!3d29.3262806!4d78.3926767!16s%2Fg%2F11f3svz_96!19sChIJEWKg0inHCzkRV4Zidfw4NL4?authuser=0&hl=en&rclk=1,"29.326280599999997,78.3926767"
Jama Masjid Murli,Mosque,"37M8+CX5 Jama Masjid Murli, Murli, Bihar 845106",,37M8+CX5,Murli,845106,Bihar,IN,https://www.google.com/maps/place/Jama+Masjid+Murli/data=!4m7!3m6!1s0x39947fdf00488fed:0xec6fe9612885012e!8m2!3d27.0835243!4d84.26748!16s%2Fg%2F11f3nhf1sp!19sChIJ7Y9IAN9_lDkRLgGFKGHpb-w?authuser=0&hl=en&rclk=1,"27.083524299999997,84.26747999999999"
Purani Masjid,Mosque,"6XCH+CGX Purani Masjid, Ram Nagar, Uttar Pradesh 274502",,6XCH+CGX,Ram Nagar,274502,Uttar Pradesh,IN,https://www.google.com/maps/place/Purani+Masjid/data=!4m7!3m6!1s0x39924bca3da3ed2f:0xed22d6f4a5dbf894!8m2!3d26.221115!4d83.9788642!16s%2Fg%2F11f01nfz5s!19sChIJL-2jPcpLkjkRlPjbpfTWIu0?authuser=0&hl=en&rclk=1,"26.221114999999998,83.97886419999999"
Ramnagar Jame Masjid,Mosque,"9WRV+6GX Ramnagar Jame Masjid, Ramnagar, Bhatar, West Bengal 713125",Ramnagar,9WRV+6GX,Bhatar,713125,West Bengal,IN,https://www.google.com/maps/place/Ramnagar+Jame+Masjid/data=!4m7!3m6!1s0x39f9b39e48198e3d:0xa298de7d99cdc657!8m2!3d23.3906052!4d87.9438608!16s%2Fg%2F11ghpyg326!19sChIJPY4ZSJ6z-TkRV8bNmX3emKI?authuser=0&hl=en&rclk=1,"23.3906052,87.9438608"
Masjid Chappar Wali,Mosque,"RQHJ+628 Masjid Chappar Wali, Mangupura, Moradabad, Uttar Pradesh 244001",Mangupura,RQHJ+628,Moradabad,244001,Uttar Pradesh,IN,https://www.google.com/maps/place/Masjid+Chappar+Wali/data=!4m7!3m6!1s0x390afbb995372017:0xc5a1dcd175b66d3d!8m2!3d28.8280284!4d78.7800645!16s%2Fg%2F11d_w_x0tz!19sChIJFyA3lbn7CjkRPW22ddHcocU?authuser=0&hl=en&rclk=1,"28.828028399999997,78.7800645"
Chhappar Wali Masjid chppr vaalii msjid,Mosque,"RQ6F+RPJ Chhappar Wali Masjid chppr vaalii msjid, Chandausi, Rehmat Nagar, Moradabad, Uttar Pradesh 244001","Chandausi, Rehmat Nagar",RQ6F+RPJ,Moradabad,244001,Uttar Pradesh,IN,https://www.google.com/maps/place/Chhappar+Wali+Masjid+%E0%A4%9B%E0%A4%AA%E0%A5%8D%E0%A4%AA%E0%A4%B0+%E0%A4%B5%E0%A4%BE%E0%A4%B2%E0%A5%80+%E0%A4%AE%E0%A4%B8%E0%A5%8D%E0%A4%9C%E0%A4%BF%E0%A4%A6/data=!4m7!3m6!1s0x390afb1547563a11:0xacf39a894cc2b96e!8m2!3d28.8120879!4d78.7742696!16s%2Fg%2F11qsmlnm_s!19sChIJETpWRxX7CjkRbrnCTIma86w?authuser=0&hl=en&rclk=1,"28.812087899999998,78.7742696"
Eid Gaah,Mosque,"43WV+P78 Eid Gaah, Ramnagar Dhunsi, Bihar 847233",,"43WV+P78, Ramnagar Dhunsi",Nehara West,847233,Bihar,IN,https://www.google.com/maps/place/Eid+Gaah/data=!4m7!3m6!1s0x39edc5334843dfb5:0xc7c53a6b6e8910f3!8m2!3d26.1467999!4d86.0931886!16s%2Fg%2F11b6vg876c!19sChIJtd9DSDPF7TkR8xCJbms6xcc?authuser=0&hl=en&rclk=1,"26.146799899999998,86.09318859999999"
Shibnagar Jumma Masjid,Mosque,"7G9H+5CV Shibnagar Jumma Masjid, Shivnagar, Jinnatpara, Ramnagar Khastaluk, West Bengal 742308",Shivnagar,7G9H+5CV,"Jinnatpara, Ramnagar Khastaluk",742308,West Bengal,IN,https://www.google.com/maps/place/Shibnagar+Jumma+Masjid/data=!4m7!3m6!1s0x39fbe6fc724c0665:0x353a2f76cf7c8f72!8m2!3d24.2679965!4d88.5285596!16s%2Fg%2F11clvv569y!19sChIJZQZMcvzm-zkRco98z3YvOjU?authuser=0&hl=en&rclk=1,"24.2679965,88.5285596"
Jama Masjid Chak Kachnal,Mosque,"2V9C+7F4 Jama Masjid Chak Kachnal, Kachnal Mustakim, Daulpuri, Uttar Pradesh 244402",,2V9C+7F4,"Kachnal Mustakim, Daulpuri",244402,Uttar Pradesh,IN,https://www.google.com/maps/place/Jama+Masjid+Chak+Kachnal/data=!4m7!3m6!1s0x390a59bc98b05805:0xf09fd6802e117ea3!8m2!3d29.0181251!4d78.8711962!16s%2Fg%2F11g9m_17qw!19sChIJBViwmLxZCjkRo34RLoDWn_A?authuser=0&hl=en&rclk=1,"29.0181251,78.8711962"
Madina Masjid Dainmarwa,Mosque,"48R4+H8F Madina Masjid Dainmarwa, Dainmarwa, Bihar 845103",,48R4+H8F,Dainmarwa,845103,Bihar,IN,https://www.google.com/maps/place/Madina+Masjid+Dainmarwa/data=!4m7!3m6!1s0x399481a071388499:0xf0cc40a266423712!8m2!3d27.1414486!4d84.3057899!16s%2Fg%2F11h7f_gm4n!19sChIJmYQ4caCBlDkREjdCZqJAzPA?authuser=0&hl=en&rclk=1,"27.1414486,84.3057899"
Jama Masjid,Mosque,"Jama Masjid, 2/34 Sahityanaka, Ramnagar, Uttar Pradesh 221008",Sultanpur,2/34 Sahityanaka,Ramnagar,221008,Uttar Pradesh,IN,https://www.google.com/maps/place/Jama+Masjid/data=!4m7!3m6!1s0x398e31aa326d7877:0xb70dcec7a0878990!8m2!3d25.2643101!4d83.0314825!16s%2Fg%2F11ddwv9m4g!19sChIJd3htMqoxjjkRkImHoMfODbc?authuser=0&hl=en&rclk=1,"25.2643101,83.0314825"
ramnagar masjid,Mosque,"ramnagar masjid, Ramnagar, Uttar Pradesh 250606",,,Ramnagar,,Uttar Pradesh,IN,https://www.google.com/maps/place/ramnagar+masjid/data=!4m7!3m6!1s0x390c455f337203fd:0x848d65a2c72ec7f8!8m2!3d29.0224917!4d77.3827171!16s%2Fg%2F1hd_rtzk9!19sChIJ_QNyM19FDDkR-Mcux6JljYQ?authuser=0&hl=en&rclk=1,"29.0224917,77.3827171"
Masjid of the Embassy of the Republic of the Sudan,Mosque,"H5RR+G4J Masjid of the Embassy of the Republic of the Sudan, Embassy Of The Republic Of The Sudan, Block Rd, Ramnagar, Chanakyapuri, New Delhi, Delhi 110021","Ramnagar, Chanakyapuri","H5RR+G4J, Embassy Of The Republic Of The Sudan, Block Rd",New Delhi,110021,Delhi,IN,https://www.google.com/maps/place/Masjid+of+the+Embassy+of+the+Republic+of+the+Sudan/data=!4m7!3m6!1s0x390d1d607c5d1f1d:0xd521deedac570594!8m2!3d28.5913403!4d77.1902571!16s%2Fg%2F11q4chdp68!19sChIJHR9dfGAdDTkRlAVXrO3eIdU?authuser=0&hl=en&rclk=1,"28.5913403,77.1902571"
Masjid,Mosque,"VWW3+HJ5 Masjid, Ramnagar Colony, Shahjahanpur, Uttar Pradesh 242001",Ramnagar Colony,VWW3+HJ5,Shahjahanpur,242001,Uttar Pradesh,IN,https://www.google.com/maps/place/Masjid/data=!4m7!3m6!1s0x399fbd3ba3c77b4f:0x8ac4123ac20889f9!8m2!3d27.8963951!4d79.9041096!16s%2Fg%2F11hc_gbj69!19sChIJT3vHozu9nzkR-YkIwjoSxIo?authuser=0&hl=en&rclk=1,"27.8963951,79.9041096"
Jama Masjid Ramnagar Bazar,Mosque,"22JP+8F4 Jama Masjid Ramnagar Bazar, Parmanandpur Chakla, Bihar 852112",,22JP+8F4,Parmanandpur Chakla,852112,Bihar,IN,https://www.google.com/maps/place/Jama+Masjid+Ramnagar+Bazar/data=!4m7!3m6!1s0x39efb7c6c20abde9:0x5e2bdc9fcf4b8b73!8m2!3d26.0307557!4d87.0361918!16s%2Fg%2F11g6nj1pdn!19sChIJ6b0Kwsa37zkRc4tLz5_cK14?authuser=0&hl=en&rclk=1,"26.0307557,87.0361918"
Masjid,Mosque,"5JHC+3C2 Masjid, Ramnagar, Bihar 854311",,5JHC+3C2,Ramnagar,,Bihar,IN,https://www.google.com/maps/place/Masjid/data=!4m7!3m6!1s0x39e5649d1d30a3c7:0x757e3b667ceca79!8m2!3d26.1776278!4d87.6210057!16s%2Fg%2F11f54gs9fc!19sChIJx6MwHZ1k5TkRecrOZ7bjVwc?authuser=0&hl=en&rclk=1,"26.1776278,87.6210057"
Umar Farooque Masjid,Mosque,"588M+5C4 Umar Farooque Masjid, Ramnagar, Bihar 845103",,588M+5C4,Ramnagar,,Bihar,IN,https://www.google.com/maps/place/Umar+Farooque+Masjid/data=!4m7!3m6!1s0x399486b803b50c47:0x4a6ecfdcf6c85bc!8m2!3d27.1653883!4d84.3335695!16s%2Fg%2F11f3bq2x5l!19sChIJRwy1A7iGlDkRvIVsz_3spgQ?authuser=0&hl=en&rclk=1,"27.1653883,84.3335695"
Forajipara Jame Masjid,Mosque,"6GCP+4J3 Forajipara Jame Masjid, Ramnagar Doemkanun, West Bengal 742304",,6GCP+4J3,Ramnagar Doemkanun,742304,West Bengal,IN,https://www.google.com/maps/place/Forajipara+Jame+Masjid/data=!4m7!3m6!1s0x39fbe137f7f2ecc3:0xc72b0d087c3ee8b4!8m2!3d24.2202528!4d88.5365586!16s%2Fg%2F11g9qdgzx4!19sChIJw-zy9zfh-zkRtOg-fAgNK8c?authuser=0&hl=en&rclk=1,"24.220252799999997,88.53655859999999"
Masjid - E - Gausiya Ramnagaraa,Mosque,"HM26+5W8 Masjid - E - Gausiya Ramnagaraa, Ramanagara, Gurchihva road, Pachpedva, Bairihawa, Uttar Pradesh",Pachpedva,"HM26+5W8, Ramanagara, Gurchihva road",Bairihawa,,Uttar Pradesh,IN,https://www.google.com/maps/place/Masjid+-+E+-+Gausiya+Ramnagaraa/data=!4m7!3m6!1s0x39970f32acd16b0f:0xef50f91537f24b45!8m2!3d27.5504081!4d82.6623165!16s%2Fg%2F11gj0_667k!19sChIJD2vRrDIPlzkRRUvyNxX5UO8?authuser=0&hl=en&rclk=1,"27.5504081,82.6623165"
Ansari Masjid,Mosque,"GWF3+WG7 Ansari Masjid, Ramnagar, Gaur, Uttar Pradesh 274001",,GWF3+WG7,"Ramnagar, Gaur",,Uttar Pradesh,IN,https://www.google.com/maps/place/Ansari+Masjid/data=!4m7!3m6!1s0x3993c783481c776d:0x3c990cb64e56ffe1!8m2!3d26.5247831!4d83.9037897!16s%2Fg%2F11j91z188_!19sChIJbXccSIPHkzkR4f9WTrYMmTw?authuser=0&hl=en&rclk=1,"26.5247831,83.90378969999999"
Dr Abdul Ahad Home Near Masjid,Mosque,"433R+62Q Dr Abdul Ahad Home Near Masjid, Siswaria - Motiganj Rd, Ramnagar Bankat, Siswaria, Uttar Pradesh 271301",,"433R+62Q, Siswaria - Motiganj Rd","Ramnagar Bankat, Siswaria",271301,Uttar Pradesh,IN,https://www.google.com/maps/place/Dr+Abdul+Ahad+Home+Near+Masjid/data=!4m7!3m6!1s0x3999fb31b3d918ff:0xad1a41d120019a42!8m2!3d27.1030908!4d82.0901134!16s%2Fg%2F11rfc4yxj0!19sChIJ_xjZszH7mTkRQpoBINFBGq0?authuser=0&hl=en&rclk=1,"27.1030908,82.09011339999999"
Ramnagra Sunni Masjid,Mosque,"WGPF+R45 Ramnagra Sunni Masjid, Mahua Rd, Kateshar, Ramnagar, Bihar 843144",,"WGPF+R45, Mahua Rd","Kateshar, Ramnagar",843144,Bihar,IN,https://www.google.com/maps/place/Ramnagra+Sunni+Masjid/data=!4m7!3m6!1s0x39ed75c1e2f521ed:0xa2e8d0e78d503663!8m2!3d25.9370013!4d85.522871!16s%2Fg%2F11f6g1mx65!19sChIJ7SH14sF17TkRYzZQjefQ6KI?authuser=0&hl=en&rclk=1,"25.9370013,85.522871"
RAMJANI MASJID,Mosque,"RAMJANI MASJID, Pasonda, h. no. 896, ALI PREM GARDEN, Hindon Residential Area, Ghaziabad, Uttar Pradesh 201005","ALI PREM GARDEN, Hindon Residential Area","Pasonda, h. no. 896",Ghaziabad,201005,Uttar Pradesh,IN,https://www.google.com/maps/place/RAMJANI+MASJID/data=!4m7!3m6!1s0x390cfb7f7ec9402d:0xd5ca1f8e0b362fb2!8m2!3d28.6933529!4d77.3532859!16s%2Fg%2F11pxkrxk9m!19sChIJLUDJfn_7DDkRsi82C44fytU?authuser=0&hl=en&rclk=1,"28.693352899999997,77.3532859"
Shakeel Masjid,Mosque,"XWW8+MJ2 Shakeel Masjid, Khanpur, Saidipur Sadipur Urf Ramnagar, Uttar Pradesh 250406",,XWW8+MJ2,"Khanpur, Saidipur Sadipur Urf Ramnagar",250406,Uttar Pradesh,IN,https://www.google.com/maps/place/Shakeel+Masjid/data=!4m7!3m6!1s0x390c79e50196dbd1:0x196d755b629745a7!8m2!3d28.9966397!4d77.9165135!16s%2Fg%2F11h4tn8jd6!19sChIJ0duWAeV5DDkRp0WXYlt1bRk?authuser=0&hl=en&rclk=1,"28.9966397,77.9165135"
Jumma masjid behra,Mosque,"4GH6+CCM Jumma masjid behra, Ramnagar Rd, Behra, Uttar Pradesh 243503",,"4GH6+CCM, Ramnagar Rd",Behra,243503,Uttar Pradesh,IN,https://www.google.com/maps/place/Jumma+masjid+behra/data=!4m7!3m6!1s0x399ffb62d35faf9b:0xd24a81e337d485bc!8m2!3d28.1285926!4d79.5110416!16s%2Fg%2F11h04p3v8h!19sChIJm69f02L7nzkRvIXUN-OBStI?authuser=0&hl=en&rclk=1,"28.128592599999998,79.5110416"
Nabi Ahmad Ansari Rahmani Masjid Niwa Ramnagar U P,Mosque,"CVP7+945 Nabi Ahmad Ansari Rahmani Masjid Niwa Ramnagar U P, Newa, Uttar Pradesh 224181",,CVP7+945,Newa,224181,Uttar Pradesh,IN,https://www.google.com/maps/place/Nabi+Ahmad+Ansari+Rahmani+Masjid+Niwa+Ramnagar+U+P/data=!4m7!3m6!1s0x3990e3290dad4173:0x2a5c12c88bf33497!8m2!3d26.4358861!4d82.8628677!16s%2Fg%2F11c0ph8f37!19sChIJc0GtDSnjkDkRlzTzi8gSXCo?authuser=0&hl=en&rclk=1,"26.435886099999998,82.8628677"
Ek Ramnagar Chand Masjid,Store,"P7XX+5PV Ek Ramnagar Chand Masjid, Sunehri Maszid Rd, Ikram Nagar, Loni Dehat, Uttar Pradesh 201102","Ikram Nagar, Loni Dehat","P7XX+5PV, Sunehri Maszid Rd",,201102,Uttar Pradesh,IN,https://www.google.com/maps/place/Ek+Ramnagar+Chand+Masjid/data=!4m7!3m6!1s0x390cf950bd97ec2d:0x307e60a39f436f59!8m2!3d28.7479824!4d77.2993023!16s%2Fg%2F11h2j72m8s!19sChIJLeyXvVD5DDkRWW9Dn6NgfjA?authuser=0&hl=en&rclk=1,"28.747982399999998,77.2993023"
Nagori Masjid,Mosque,"M6Q4+MW8 Nagori Masjid, Ramnagar Rewari, Rajasthan 303505",,M6Q4+MW8,Ramnagar Rewari,,Rajasthan,IN,https://www.google.com/maps/place/Nagori+Masjid/data=!4m7!3m6!1s0x396defe3d9f1f2f3:0xc2ad4a036a5fd620!8m2!3d26.6891577!4d76.2073182!16s%2Fg%2F11h1yh44sy!19sChIJ8_Lx2ePvbTkRINZfagNKrcI?authuser=0&hl=en&rclk=1,"26.6891577,76.2073182"
Chappar Wali Sunni Jama Masjid,Mosque,"R6GX+C9X Chappar Wali Sunni Jama Masjid, Rajanpur, Gajraula, Uttar Pradesh 244235",Rajanpur,R6GX+C9X,Gajraula,244235,Uttar Pradesh,IN,https://www.google.com/maps/place/Chappar+Wali+Sunni+Jama+Masjid/data=!4m7!3m6!1s0x390b7489efcf225b:0x9ff2e4acea54c6e2!8m2!3d28.8261112!4d78.2484692!16s%2Fg%2F11f405k49m!19sChIJWyLP74l0CzkR4sZU6qzk8p8?authuser=0&hl=en&rclk=1,"28.8261112,78.2484692"
Jama Masjid Mandori,Mosque,"5JV4+H93 Jama Masjid Mandori, Mandori, Latifpur, Uttar Pradesh 246746",,"5JV4+H93, Mandori",Latifpur,246746,Uttar Pradesh,IN,https://www.google.com/maps/place/Jama+Masjid+Mandori/data=!4m7!3m6!1s0x390bb39c8199afdd:0xaace0fb85c53a10b!8m2!3d29.1938986!4d78.6059112!16s%2Fg%2F11f1n6txfx!19sChIJ3a-ZgZyzCzkRC6FTXLgPzqo?authuser=0&hl=en&rclk=1,"29.193898599999997,78.6059112"
Hajma Tola Masjid,Mosque,"3G8W+3MF Hajma Tola Masjid, Rampur, Bihar 845306",,3G8W+3MF,Rampur,,Bihar,IN,https://www.google.com/maps/place/Hajma+Tola+Masjid/data=!4m7!3m6!1s0x399361b712c8f6a3:0x4c3a4a080435b75e!8m2!3d27.0651784!4d84.5466604!16s%2Fg%2F11g2zg1b3g!19sChIJo_bIErdhkzkRXrc1BAhKOkw?authuser=0&hl=en&rclk=1,"27.065178399999997,84.5466604"
Madina Masjid Neel Garaan Jatwara,Mosque,"2238+7X5 Madina Masjid Neel Garaan Jatwara, Gaushala Rd, Jamalpura, Sonipat, Haryana 131304",Jamalpura,"2238+7X5, Gaushala Rd",Sonipat,131304,Haryana,IN,https://www.google.com/maps/place/Madina+Masjid+Neel+Garaan+Jatwara/data=!4m7!3m6!1s0x390db1b76320c821:0xdd6e08165e9f1d71!8m2!3d29.0031338!4d77.0174928!16s%2Fg%2F11n5bpdb6d!19sChIJIcggY7exDTkRcR2fXhYIbt0?authuser=0&hl=en&rclk=1,"29.003133799999997,77.0174928"
Masjid,Mosque,"33FF+X78 Masjid, Ramnagar, Haryana 131039",,33FF+X78,Ramnagar,131039,Haryana,IN,https://www.google.com/maps/place/Masjid/data=!4m7!3m6!1s0x390db7ec7051a2e9:0x41265c72804cac4!8m2!3d29.0749008!4d77.0732056!16s%2Fg%2F11mvrzbcs9!19sChIJ6aJRcOy3DTkRxMoEKMdlEgQ?authuser=0&hl=en&rclk=1,"29.074900799999998,77.0732056"
Purani Masjid,Mosque,"J6X9+Q5Q Purani Masjid, Ram Nagar Market, Prem Nagar, Ajmeri Gate, New Delhi, Delhi, 110006","Ram Nagar Market, Prem Nagar, Ajmeri Gate",J6X9+Q5Q,"New Delhi, Delhi",110006,Delhi,IN,https://www.google.com/maps/place/Purani+Masjid/data=!4m7!3m6!1s0x390cfdd4fb09e8e3:0xc0634defce74b9aa!8m2!3d28.6494674!4d77.2179722!16s%2Fg%2F11h288cp8c!19sChIJ4-gJ-9T9DDkRqrl0zu9NY8A?authuser=0&hl=en&rclk=1,"28.6494674,77.21797219999999"
Masjid Kuan Wali,Mosque,"J6WP+R3M Masjid Kuan Wali, Dakhni Rai St, Kalan Mehal, Old Delhi, New Delhi, Delhi, 110006","Kalan Mehal, Old Delhi","J6WP+R3M, Dakhni Rai St","New Delhi, Delhi",110006,Delhi,IN,https://www.google.com/maps/place/Masjid+Kuan+Wali/data=!4m7!3m6!1s0x390cfd21f12ffffb:0xa8c4b5fbf6d05e35!8m2!3d28.6470908!4d77.2351671!16s%2Fg%2F11g6_vvyf5!19sChIJ-_8v8SH9DDkRNV7Q9vu1xKg?authuser=0&hl=en&rclk=1,"28.647090799999997,77.2351671"
JAMA Masjid RAMNAGAR BADSHAHPUR,Mosque,"P624+3C5 JAMA Masjid RAMNAGAR BADSHAHPUR, Chandauli, Uttar Pradesh 222202",,P624+3C5,Chandauli,222202,Uttar Pradesh,IN,https://www.google.com/maps/place/JAMA+Masjid+RAMNAGAR+BADSHAHPUR/data=!4m7!3m6!1s0x399aa7fccf208ee9:0x69435e3d8ff2998e!8m2!3d25.700143!4d82.2061133!16s%2Fg%2F11h8h3l2qt!19sChIJ6Y4gz_ynmjkRjpnyjz1eQ2k?authuser=0&hl=en&rclk=1,"25.700142999999997,82.2061133"
Mahuawan masjid,Mosque,"WC9R+2VR Mahuawan masjid, Ramnagar, J. Janul Abden Urf Jainp, Uttar Pradesh 273306",,WC9R+2VR,"Ramnagar, J. Janul Abden Urf Jainp",,Uttar Pradesh,IN,https://www.google.com/maps/place/Mahuawan+masjid/data=!4m7!3m6!1s0x399151329523da83:0x5bade7fcc9308899!8m2!3d26.9176046!4d83.4421425!16s%2Fg%2F11sqnqvmh5!19sChIJg9ojlTJRkTkRmYgwyfznrVs?authuser=0&hl=en&rclk=1,"26.917604599999997,83.4421425"
Ramnagar 1 No Jama Masjid,Mosque,"JJRH+3MP Ramnagar 1 No Jama Masjid, Ramnagar Math Rd, Dinajpur 5200, Bangladesh",,"JJRH+3MP, Ramnagar Math Rd",Dinajpur,5200,,BD,https://www.google.com/maps/place/Ramnagar+1+No+Jama+Masjid/data=!4m7!3m6!1s0x39fb4da890eb3379:0x35b51da41a2cb066!8m2!3d25.6402118!4d88.6292031!16s%2Fg%2F11qn5ym31y!19sChIJeTPrkKhN-zkRZrAsGqQdtTU?authuser=0&hl=en&rclk=1,"25.6402118,88.6292031"
Ramnagar Hejatipara Aheli Hadith Jame Mosque,Mosque,"9X62+V86 Ramnagar Hejatipara Aheli Hadith Jame Mosque, Bagatipara Road, Bangladesh",,"9X62+V86, Bagatipara Road",,,,BD,https://www.google.com/maps/place/Ramnagar+Hejatipara+Aheli+Hadith+Jame+Mosque/data=!4m7!3m6!1s0x39fc1160e45f8c0b:0xcdee458f394022bc!8m2!3d24.362157!4d88.9507681!16s%2Fg%2F11h6rrl0br!19sChIJC4xf5GAR_DkRvCJAOY9F7s0?authuser=0&hl=en&rclk=1,"24.362157,88.95076809999999"
Badi maszid,Mosque,"C9HC+P95 Badi maszid, Kudana, Uttar Pradesh 247776",,C9HC+P95,Kudana,247776,Uttar Pradesh,IN,https://www.google.com/maps/place/Badi+maszid/data=!4m7!3m6!1s0x390c2f0c46d0a947:0xbaa15c2f6353a9e2!8m2!3d29.4292708!4d77.3709962!16s%2Fg%2F11gzqkx7rx!19sChIJR6nQRgwvDDkR4qlTYy9cobo?authuser=0&hl=en&rclk=1,"29.429270799999998,77.3709962"
Masjid,Mosque,"69Q3+P4M Masjid, Mathia, Bihar 845106",,69Q3+P4M,Mathia,845106,Bihar,IN,https://www.google.com/maps/place/Masjid/data=!4m7!3m6!1s0x399486070aeca2ad:0x61c332cdfa6b464a!8m2!3d27.2393322!4d84.3527852!16s%2Fg%2F11g8pfnvgh!19sChIJraLsCgeGlDkRSkZr-s0yw2E?authuser=0&hl=en&rclk=1,"27.2393322,84.3527852"
Noorani masjid,Mosque,"98H7+X43 Noorani masjid, Ram Nagar, New Industrial Township, Faridabad, Haryana 121001","Ram Nagar, New Industrial Township",98H7+X43,Faridabad,121001,Haryana,IN,https://www.google.com/maps/place/Noorani+masjid/data=!4m7!3m6!1s0x390cdd4458d7d755:0xed4482795665c3ff!8m2!3d28.3800578!4d77.3127608!16s%2Fg%2F11tsls4kk9!19sChIJVdfXWETdDDkR_8NlVnmCRO0?authuser=0&hl=en&rclk=1,"28.3800578,77.31276079999999"
Hamza masjid,Mosque,"Hamza masjid, 2/27, Gali Number 18, Block D, Chand Vihar, New Mustafabad, Delhi, 110094","Block D, Chand Vihar, New Mustafabad","2/27, Gali Number 18",Delhi,110094,Delhi,IN,https://www.google.com/maps/place/Hamza+masjid/data=!4m7!3m6!1s0x390cfd93f391c8ef:0x4040321f98c9b0b9!8m2!3d28.7080626!4d77.2727225!16s%2Fg%2F11r8vwz1wt!19sChIJ78iR85P9DDkRubDJmB8yQEA?authuser=0&hl=en&rclk=1,"28.708062599999998,77.2727225"
Nuraani Masjid Ramnagar,Mosque,"P3X5+P23 Nuraani Masjid Ramnagar, Ram Nagar, Uttar Pradesh 230301",,P3X5+P23,Ram Nagar,230301,Uttar Pradesh,IN,https://www.google.com/maps/place/Nuraani+Masjid+Ramnagar/data=!4m7!3m6!1s0x399aa3b5764a8741:0xa6ba9998987794da!8m2!3d25.7492523!4d82.0575379!16s%2Fg%2F11lltyx_zk!19sChIJQYdKdrWjmjkR2pR3mJiZuqY?authuser=0&hl=en&rclk=1,"25.7492523,82.0575379"
Noori masjid ramzan Bigha,Mosque,"J48G+C38 Noori masjid ramzan Bigha, Nabinagar Rd, Nabinagar, Bihar 824301",,"J48G+C38, Nabinagar Rd",Nabinagar,824301,Bihar,IN,https://www.google.com/maps/place/Noori+masjid+ramzan+Bigha/data=!4m7!3m6!1s0x398c51dc8caa1b0d:0x6666981a80ad8964!8m2!3d24.6160317!4d84.1251995!16s%2Fg%2F11hz0jy_hh!19sChIJDRuqjNxRjDkRZImtgBqYZmY?authuser=0&hl=en&rclk=1,"24.6160317,84.1251995"
JAMA MASJID KAKARIYA DIH,Mosque,"5527+9XC JAMA MASJID KAKARIYA DIH, Kanhauli - Shakara - Andar Rd, Kanhauli, Ramnagar kakaria Dih, Bihar 841235",,"5527+9XC, Kanhauli - Shakara - Andar Rd","Kanhauli, Ramnagar kakaria Dih",841235,Bihar,IN,https://www.google.com/maps/place/JAMA+MASJID+KAKARIYA+DIH/data=!4m7!3m6!1s0x3992517a0a02ff87:0xf987473c21a89b5a!8m2!3d26.1509479!4d84.1648922!16s%2Fg%2F11hf69z722!19sChIJh_8CCnpRkjkRWpuoITxHh_k?authuser=0&hl=en&rclk=1,"26.1509479,84.1648922"
Purani mosque bahuari ramnagar,Mosque,"583Q+QQ4 Purani mosque bahuari ramnagar, Ramnagar, Bihar 845106",,583Q+QQ4,Ramnagar,845106,Bihar,IN,https://www.google.com/maps/place/Purani+mosque+bahuari+ramnagar/data=!4m7!3m6!1s0x3994874682ff5d71:0xf8f742878893d3ac!8m2!3d27.1543991!4d84.339456!16s%2Fg%2F11rfq_266x!19sChIJcV3_gkaHlDkRrNOTiIdC9_g?authuser=0&hl=en&rclk=1,"27.1543991,84.339456"
Ramnagar para jumma masjid,Mosque,"7HGM+JM8 Ramnagar para jumma masjid, Katlamari, West Bengal 742308",,7HGM+JM8,Katlamari,742308,West Bengal,IN,https://www.google.com/maps/place/Ramnagar+para+jumma+masjid/data=!4m7!3m6!1s0x39fbe5c682beed03:0xd2d2931424d8fd94!8m2!3d24.2765263!4d88.5842141!16s%2Fg%2F11r3m4h48s!19sChIJA-2-gsbl-zkRlP3YJBST0tI?authuser=0&hl=en&rclk=1,"24.2765263,88.5842141"
Madarsa Ramnagar,Mosque,"8QCW+F7G Madarsa Ramnagar, Dheso, Uttar Pradesh 273304",,8QCW+F7G,Dheso,273304,Uttar Pradesh,IN,https://www.google.com/maps/place/Madarsa+Ramnagar/data=!4m7!3m6!1s0x399417fb2a5f8551:0x43ded85d80820584!8m2!3d27.3211981!4d83.7956975!16s%2Fg%2F11swc9l160!19sChIJUYVfKvsXlDkRhAWCgF3Y3kM?authuser=0&hl=en&rclk=1,"27.3211981,83.7956975"
RAMNAGAR MIDDLE WAKTIA MASJID,Mosque,"C6RP+F5 RAMNAGAR MIDDLE WAKTIA MASJID, Lalgola, West Bengal 742148",,C6RP+F5,Lalgola,742148,West Bengal,IN,https://www.google.com/maps/place/RAMNAGAR+MIDDLE+WAKTIA+MASJID/data=!4m7!3m6!1s0x39fbcba29c6ba50d:0x7616f9f8ca390e38!8m2!3d24.441094!4d88.2354173!16s%2Fg%2F11pztfd251!19sChIJDaVrnKLL-zkROA45yvj5FnY?authuser=0&hl=en&rclk=1,"24.441094,88.2354173"
Sunni masajid,Mosque,"GJQ7+83F Sunni masajid, Ramnagar, Uttar Pradesh 271206",,GJQ7+83F,Ramnagar,271206,Uttar Pradesh,IN,https://www.google.com/maps/place/Sunni+masajid/data=!4m7!3m6!1s0x3997132529dfadb9:0x90a2104d866ed613!8m2!3d27.5383128!4d82.612666!16s%2Fg%2F11hgkdw4lb!19sChIJua3fKSUTlzkRE9Zuhk0QopA?authuser=0&hl=en&rclk=1,"27.5383128,82.61266599999999"
MALKO WALI MASJID,Mosque,"VWX4+C45 MALKO WALI MASJID, Unnamed Road, mohalla tarain, Uttar Pradesh 242001",Ramnagar Colony,"VWX4+C45, Unnamed Road, mohalla tarain",Shahjahanpur,242001,Uttar Pradesh,IN,https://www.google.com/maps/place/MALKO+WALI+MASJID/data=!4m7!3m6!1s0x399fbd218b99f16b:0xe4b5ec565a418f4c!8m2!3d27.898519!4d79.9053692!16s%2Fg%2F11fksmrg0g!19sChIJa_GZiyG9nzkRTI9BWlbsteQ?authuser=0&hl=en&rclk=1,"27.898519,79.9053692"
JAMA MASJID HARINAGAR,Place of worship,"JAMA MASJID HARINAGAR, Lauria - Ramnagar Rd, Harinagar, Ramnagar, Bihar 845103",Harinagar,Lauria - Ramnagar Rd,Ramnagar,845103,Bihar,IN,https://www.google.com/maps/place/JAMA+MASJID+HARINAGAR/data=!4m7!3m6!1s0x399481905a4f045f:0xbfaedf76dee0c6df!8m2!3d27.152752!4d84.3277673!16s%2Fg%2F11h_9wl6g2!19sChIJXwRPWpCBlDkR38bg3nbfrr8?authuser=0&hl=en&rclk=1,"27.152752,84.32776729999999"
Gausiya Masjid gausiyaa msjid,Mosque,"3J6X+945 Gausiya Masjid gausiyaa msjid, Ram Nagar, Uttar Pradesh 272194",,3J6X+945,Ram Nagar,272194,Uttar Pradesh,IN,https://www.google.com/maps/place/Gausiya+Masjid+%E0%A4%97%E0%A5%8C%E0%A4%B8%E0%A4%BF%E0%A4%AF%E0%A4%BE+%E0%A4%AE%E0%A4%B8%E0%A5%8D%E0%A4%9C%E0%A4%BF%E0%A4%A6/data=!4m7!3m6!1s0x399735d55bed5b07:0x6c46534a115f1527!8m2!3d27.0608752!4d82.6478466!16s%2Fg%2F11pkd08jz1!19sChIJB1vtW9U1lzkRJxVfEUpTRmw?authuser=0&hl=en&rclk=1,"27.060875199999998,82.6478466"
Raninagar Ahle Hadith Masjid,Mosque,"C4M5+MR Raninagar Ahle Hadith Masjid, Ramnagar, Raninagar, West Bengal 742227",,C4M5+MR,"Ramnagar, Raninagar",742227,West Bengal,IN,https://www.google.com/maps/place/Raninagar+Ahle+Hadith+Masjid/data=!4m7!3m6!1s0x39fa3562346cdd03:0x2ec4851028a046e7!8m2!3d24.434217!4d88.1095317!16s%2Fg%2F11p716k057!19sChIJA91sNGI1-jkR50agKBCFxC4?authuser=0&hl=en&rclk=1,"24.434217,88.10953169999999"
Masjid e Noor,Mosque,"39F2+XRX Masjid e Noor, Ramnagar-Bhairoganj, Bagha Rd, Jura, Bihar",,"39F2+XRX, Ramnagar-Bhairoganj, Bagha Rd",Jura,,Bihar,IN,https://www.google.com/maps/place/Masjid+%C3%A8+Noor/data=!4m7!3m6!1s0x39948149120cae53:0x29888d276f14649f!8m2!3d27.0749858!4d84.3520941!16s%2Fg%2F11qql1661p!19sChIJU64MEkmBlDkRn2QUbyeNiCk?authuser=0&hl=en&rclk=1,"27.0749858,84.3520941"
muhmmdiiyaa msjid chottuu raam ngr-2,Mosque,"MXW6+4VC muhmmdiiyaa msjid chottuu raam ngr-2, Unnamed Road, Tandaheri, Haryana 124507",,"MXW6+4VC, Unnamed Road",Tandaheri,124507,Haryana,IN,https://www.google.com/maps/place/%E0%A4%AE%E0%A5%81%E0%A4%B9%E0%A4%AE%E0%A5%8D%E2%80%8D%E0%A4%AE%E0%A4%A6%E0%A5%80%E0%A4%AF%E0%A4%BE+%E0%A4%AE%E0%A4%B8%E0%A5%8D%E2%80%8D%E0%A4%9C%E0%A4%BF%E0%A4%A6+%E0%A4%9B%E0%A5%8B%E0%A4%9F%E0%A5%82+%E0%A4%B0%E0%A4%BE%E0%A4%AE+%E0%A4%A8%E0%A4%97%E0%A4%B0-2/data=!4m7!3m6!1s0x390d09464d22f379:0xbdf557b773c65da0!8m2!3d28.695306!4d76.9621531!16s%2Fg%2F11hzxz_f8r!19sChIJefMiTUYJDTkRoF3Gc7dX9b0?authuser=0&hl=en&rclk=1,"28.695306,76.9621531"
ABU Bakar Masjid,Mosque,"ABU Bakar Masjid, Sadbair Tola Ward No 07, Ramnagar, 854330",,Sadbair Tola Ward No 07,"Ramnagar, Kundalay",854330,Bihar,IN,https://www.google.com/maps/place/ABU+Bakar+Masjid/data=!4m7!3m6!1s0x39e55fc07dd06323:0x6b2b011a4f5957c4!8m2!3d25.9444061!4d87.6186012!16s%2Fg%2F11mv0q9hpt!19sChIJI2PQfcBf5TkRxFdZTxoBK2s?authuser=0&hl=en&rclk=1,"25.9444061,87.6186012"
MASJID HAJRAT USMAN GANI & MADRASA RAMNAGAR TANDA,Place of worship,"6HXQ+9G MASJID HAJRAT USMAN GANI & MADRASA RAMNAGAR TANDA, Hasanpur Palki, Uttar Pradesh 246746",,6HXQ+9G,Hasanpur Palki,,Uttar Pradesh,IN,https://www.google.com/maps/place/MASJID+HAJRAT+USMAN+GANI+%26+MADRASA+RAMNAGAR+TANDA/data=!4m7!3m6!1s0x390bb5dcb6c60751:0xbd78f15f66237729!8m2!3d29.248393!4d78.588848!16s%2Fg%2F11s69rzn4z!19sChIJUQfGtty1CzkRKXcjZl_xeL0?authuser=0&hl=en&rclk=1,"29.248393,78.588848"
Masjid Sharif,Mosque,"XJPC+7M9 Masjid Sharif, Chhijlet, Uttar Pradesh 244501",,XJPC+7M9,Chhijlet,244501,Uttar Pradesh,IN,https://www.google.com/maps/place/Masjid+Sharif/data=!4m7!3m6!1s0x390bab04a0c512eb:0x554d52918f1e4e65!8m2!3d28.9856569!4d78.6217312!16s%2Fg%2F11fy4hgb5r!19sChIJ6xLFoASrCzkRZU4ej5FSTVU?authuser=0&hl=en&rclk=1,"28.9856569,78.6217312"
Qadri Masjid,Mosque,"Qadri Masjid, S5, Rajguru Marg, Bazar Sangatrashan, Chuna Mandi, Paharganj, New Delhi, Delhi 110055","Bazar Sangatrashan, Chuna Mandi, Paharganj","S5, Rajguru Marg",New Delhi,110055,Delhi,IN,https://www.google.com/maps/place/Qadri+Masjid/data=!4m7!3m6!1s0x390cfd420fb3ca0d:0x28d6c96c8abe5bf9!8m2!3d28.6450949!4d77.2107914!16s%2Fg%2F11j00853cl!19sChIJDcqzD0L9DDkR-Vu-imzJ1ig?authuser=0&hl=en&rclk=1,"28.6450949,77.21079139999999"
Jama masjid Islami shiddiki mohalla ramnagar,Mosque,"4P35+PCJ Jama masjid Islami shiddiki mohalla ramnagar, Ram Nagar, Bihar 852130",,4P35+PCJ,Ram Nagar,852130,Bihar,IN,https://www.google.com/maps/place/Jama+masjid+Islami+shiddiki+mohalla+ramnagar/data=!4m7!3m6!1s0x39ee45bffea1f811:0xc5b07dc2fb82387c!8m2!3d26.1043412!4d86.7085098!16s%2Fg%2F11q2p5mr11!19sChIJEfih_r9F7jkRfDiC-8J9sMU?authuser=0&hl=en&rclk=1,"26.1043412,86.7085098"
Masjid Quraisi,Mosque,"3CP4+F33 Masjid Quraisi, Ramnagar, Uttar Pradesh 225205",,3CP4+F33,Ramnagar,,Uttar Pradesh,IN,https://www.google.com/maps/place/Masjid+Quraisi/data=!4m7!3m6!1s0x39997bc69cae0f99:0xeeda12919dfce7a7!8m2!3d27.0861455!4d81.4051838!16s%2Fg%2F11jn3hpny8!19sChIJmQ-unMZ7mTkRp-f8nZES2u4?authuser=0&hl=en&rclk=1,"27.086145499999997,81.4051838"
Shekh Mohammed Umar Masjid,Mosque,"58FM+7C4 Shekh Mohammed Umar Masjid, Ramnagar, Bihar 845106",,58FM+7C4,Ramnagar,,Bihar,IN,https://www.google.com/maps/place/Shekh+Mohammed+Umar+Masjid/data=!4m7!3m6!1s0x399486bf648bdb89:0x1d5f22aa3de31646!8m2!3d27.1731466!4d84.3335643!16s%2Fg%2F11f4qqty_b!19sChIJiduLZL-GlDkRRhbjPaoiXx0?authuser=0&hl=en&rclk=1,"27.1731466,84.33356429999999"
Bilal Masjid,Mosque,"728J+CMJ Bilal Masjid, Sultanpur, Ramnagar, Uttar Pradesh 221008",Sultanpur,728J+CMJ,Ramnagar,221008,Uttar Pradesh,IN,https://www.google.com/maps/place/Bilal+Masjid/data=!4m7!3m6!1s0x398e31ea3df1bcf7:0xc590da39a3a51bf3!8m2!3d25.2662801!4d83.0320729!16s%2Fg%2F11tt6llt7p!19sChIJ97zxPeoxjjkR8xuloznakMU?authuser=0&hl=en&rclk=1,"25.2662801,83.0320729"
Ramnagar Muslim kabartan,Mosque,"Ramnagar Muslim kabartan, Ramnagar, Amethi, Dandupur, Uttar Pradesh 227405",Ramnagar,,"Amethi, Dandupur",227405,Uttar Pradesh,IN,https://www.google.com/maps/place/Ramnagar+Muslim+kabartan/data=!4m7!3m6!1s0x399a5fe7b16b3131:0x7bfa56e2b88d4914!8m2!3d26.1895418!4d81.8007422!16s%2Fg%2F11p0zpz475!19sChIJMTFrsedfmjkRFEmNuOJW-ns?authuser=0&hl=en&rclk=1,"26.189541799999997,81.8007422"
Masjid Ramnagar bhutha,Mosque,"G494+MM2 Masjid Ramnagar bhutha, Ramnagar Bhutaha 56713, Nepal",,G494+MM2,Ramnagar Bhutaha,56713,,NP,https://www.google.com/maps/place/Masjid+Ramnagar+bhutha/data=!4m7!3m6!1s0x39ef0f8effaaaa91:0x863b07a622368bd5!8m2!3d26.520373!4d87.10651!16s%2Fg%2F11swbytq2q!19sChIJkaqq_44P7zkR1Ys2IqYHO4Y?authuser=0&hl=en&rclk=1,"26.520373,87.10651"
Al Qamar Masjid,Mosque,"G234+9XR Al Qamar Masjid, over bridge road,subhash nagar, Madhya Pradesh 476001",Ramnagar,"G234+9XR, over bridge road,subhash nagar",Morena,476001,Madhya Pradesh,IN,https://www.google.com/maps/place/Al+Qamar+Masjid/data=!4m7!3m6!1s0x3976add0467e4c2d:0x67f2e494833bb866!8m2!3d26.5034865!4d78.0073905!16s%2Fg%2F11gly2s53j!19sChIJLUx-RtCtdjkRZrg7g5Tk8mc?authuser=0&hl=en&rclk=1,"26.503486499999998,78.0073905"
Noorani Masjid,Mosque,"H54J+33W Noorani Masjid, Ramnagar, Bihar 824302",,H54J+33W,Ramnagar,,Bihar,IN,https://www.google.com/maps/place/Noorani+Masjid/data=!4m7!3m6!1s0x398c5bf1e569b31f:0x8051c67ea2d3e540!8m2!3d24.5552435!4d84.1802133!16s%2Fg%2F11fp4_bjq_!19sChIJH7Np5fFbjDkRQOXTon7GUYA?authuser=0&hl=en&rclk=1,"24.5552435,84.18021329999999"
South Ramnagar Jama Masjid,Mosque,"RQ55+975 South Ramnagar Jama Masjid, Kachinia, Bazar Paker Hat Road, Bangladesh",,"RQ55+975 Kachinia, Bazar Paker Hat Road",,,,BD,https://www.google.com/maps/place/South+Ramnagar+Jama+Masjid/data=!4m7!3m6!1s0x39e4a98d11fcebeb:0x5c4f5fe0f21eb52f!8m2!3d25.8083942!4d88.7582398!16s%2Fg%2F11p4zjz8b4!19sChIJ6-v8EY2p5DkRL7Ue8uBfT1w?authuser=0&hl=en&rclk=1,"25.8083942,88.7582398"
MADINA MASJID BHATWALIYA,Mosque,"MADINA MASJID BHATWALIYA, Ramnagar Bankat, Bihar 845459",,,Ramnagar Bankat,845459,Bihar,IN,https://www.google.com/maps/place/MADINA+MASJID+BHATWALIYA/data=!4m7!3m6!1s0x3993410ed0f93733:0x825b75a63b492ebe!8m2!3d26.7482541!4d84.614469!16s%2Fg%2F11sw01tr21!19sChIJMzf50A5BkzkRvi5JO6Z1W4I?authuser=0&hl=en&rclk=1,"26.7482541,84.614469"
Ramnagar Jamalpur Jame Masjid,Mosque,"5JMF+VC7 Ramnagar Jamalpur Jame Masjid, Bangladesh",,5JMF+VC7,,,,BD,https://www.google.com/maps/place/Ramnagar+Jamalpur+Jame+Masjid/data=!4m7!3m6!1s0x39fb69be865040e9:0x91ad838b7353b9e!8m2!3d25.1846623!4d88.623553!16s%2Fg%2F11h3jhbwvm!19sChIJ6UBQhr5p-zkRnjs1tzjYGgk?authuser=0&hl=en&rclk=1,"25.1846623,88.623553"
Sunheri masjid (Rai),Mosque,"4JFC+C83 Sunheri masjid (Rai), Sahaspur, Uttar Pradesh 246745",,4JFC+C83,Sahaspur,246745,Uttar Pradesh,IN,https://www.google.com/maps/place/Sunheri+masjid+%28Rai%29/data=!4m7!3m6!1s0x390bb328477b7879:0x6b40818131b775c3!8m2!3d29.1235199!4d78.620801!16s%2Fg%2F11ny544j7x!19sChIJeXh7RyizCzkRw3W3MYGBQGs?authuser=0&hl=en&rclk=1,"29.123519899999998,78.620801"
Masjid Ramnagar msjid raamngr,Mosque,"9449+FXJ Masjid Ramnagar msjid raamngr, Ramnagar, Birdpur No.10, Uttar Pradesh 272206",,"9449+FXJ, Ramnagar",Birdpur No.10,272206,Uttar Pradesh,IN,https://www.google.com/maps/place/Masjid+Ramnagar+%E0%A4%AE%E0%A4%B8%E0%A5%8D%E0%A4%9C%E0%A4%BF%E0%A4%A6+%E0%A4%B0%E0%A4%BE%E0%A4%AE%E0%A4%A8%E0%A4%97%E0%A4%B0/data=!4m7!3m6!1s0x3996c3bd63eeb08d:0xb1d30cdad6a29c70!8m2!3d27.3562007!4d83.1198861!16s%2Fg%2F11swhgdfm6!19sChIJjbDuY73DljkRcJyi1toM07E?authuser=0&hl=en&rclk=1,"27.3562007,83.1198861"
Ramnagar noori masjid,Mosque,"523W+QM9 Ramnagar noori masjid, Saraiya, Bihar 843105",,523W+QM9,Saraiya,843105,Bihar,IN,https://www.google.com/maps/place/Ramnagar+noori+masjid/data=!4m7!3m6!1s0x39ed2ff0a065e863:0x756c472615dceb09!8m2!3d26.1544047!4d85.0467279!16s%2Fg%2F11trgdbpgr!19sChIJY-hloPAv7TkRCevcFSZHbHU?authuser=0&hl=en&rclk=1,"26.154404699999997,85.0467279"
Uttar Ramnagar Octo Masjid,Mosque,"85PC+89W Uttar Ramnagar Octo Masjid, Gopalpur, Uttar Ramnagar, West Bengal 742237",,85PC+89W,"Gopalpur, Uttar Ramnagar",742237,West Bengal,IN,https://www.google.com/maps/place/Uttar+Ramnagar+Octo+Masjid/data=!4m7!3m6!1s0x39fbcdd55690cf9f:0xc2cab99d4a811698!8m2!3d24.33656!4d88.169614!16s%2Fg%2F11q3f1dft5!19sChIJn8-QVtXN-zkRmBaBSp25ysI?authuser=0&hl=en&rclk=1,"24.33656,88.169614"
Navi Masjid,Mosque,"6XCH+JFP Navi Masjid, Ram Nagar, Uttar Pradesh 274502",,6XCH+JFP,Ram Nagar,274502,Uttar Pradesh,IN,https://www.google.com/maps/place/Navi+Masjid/data=!4m7!3m6!1s0x39924b5a028cfeff:0x5e0120c30f88e8c8!8m2!3d26.221599!4d83.9787033!16s%2Fg%2F11ptv68cp2!19sChIJ__6MAlpLkjkRyOiID8MgAV4?authuser=0&hl=en&rclk=1,"26.221598999999998,83.97870329999999"
NOORI MASJID,Mosque,"5889+J9X NOORI MASJID, Sabuni Road, Ramnagar, Bihar 845106",,"5889+J9X, Sabuni Road",Ramnagar,845106,Bihar,IN,https://www.google.com/maps/place/NOORI+MASJID/data=!4m7!3m6!1s0x399487252dfd2c9f:0xd52eda477d9d91b6!8m2!3d27.1666182!4d84.3184965!16s%2Fg%2F11l2rjr4vb!19sChIJnyz9LSWHlDkRtpGdfUfaLtU?authuser=0&hl=en&rclk=1,"27.1666182,84.3184965"
Ramnagar Masjid,Mosque,"Ramnagar Masjid, Iffco Census Village, 669X+9MG, IFFCO Township, Uttar Pradesh 243403",,"Iffco Census Village, 669X+9MG, IFFCO Township",Khedani,243403,Uttar Pradesh,IN,https://www.google.com/maps/place/Ramnagar+Masjid/data=!4m7!3m6!1s0x3993eb15d840e39b:0x97c98b6727e5781!8m2!3d26.727632!4d83.8935123!16s%2Fg%2F11p65pbxb3!19sChIJm-NA2BXrkzkRgVd-craYfAk?authuser=0&hl=en&rclk=1,"26.727632,83.8935123"
Jama masjid,Mosque,"H22M+98G Jama masjid, Ram Nagar, Uttar Pradesh 274404",,H22M+98G,Ram Nagar,274404,Uttar Pradesh,IN,https://www.google.com/maps/place/Jama+masjid/data=!4m7!3m6!1s0x3993bbdf196b9985:0x4eb9c631102d44dc!8m2!3d26.5509408!4d84.0333197!16s%2Fg%2F11pkc550z1!19sChIJhZlrGd-7kzkR3EQtEDHGuU4?authuser=0&hl=en&rclk=1,"26.5509408,84.03331969999999"
Masjid,Mosque,"XCC2+HF5 Masjid, Alampur Kainch, Uttar Pradesh 244251",,XCC2+HF5,Alampur Kainch,244251,Uttar Pradesh,IN,https://www.google.com/maps/place/Masjid/data=!4m7!3m6!1s0x390ba7711adea9e7:0xb414e49b62319d9a!8m2!3d28.9713865!4d78.4012448!16s%2Fg%2F11j8zfvppj!19sChIJ56neGnGnCzkRmp0xYpvkFLQ?authuser=0&hl=en&rclk=1,"28.971386499999998,78.4012448"
Mathia masjid,Mosque,"68MX+7R3 Mathia masjid, Meghawal - Ramnagar Rd, Mathia, Bihar 845106",,"68MX+7R3, Meghawal - Ramnagar Rd",Mathia,845106,Bihar,IN,https://www.google.com/maps/place/Mathia+masjid/data=!4m7!3m6!1s0x39948799883150bf:0xc2e8607e885ae73c!8m2!3d27.2331304!4d84.3495616!16s%2Fg%2F11n2pz_wzy!19sChIJv1AxiJmHlDkRPOdaiH5g6MI?authuser=0&hl=en&rclk=1,"27.2331304,84.3495616"
Badi Masjid Meghwal,Mosque,"68RX+8H5 Badi Masjid Meghwal, Meghawal - Ramnagar Rd, Meghwal, Bihar 845106",,"68RX+8H5, Meghawal - Ramnagar Rd",Meghwal,845106,Bihar,IN,https://www.google.com/maps/place/Badi+Masjid+Meghwal/data=!4m7!3m6!1s0x39948705c371f6d3:0x4265689ed5e2a7a!8m2!3d27.2407741!4d84.3489799!16s%2Fg%2F11s45nl4q4!19sChIJ0_ZxwwWHlDkReipe7YlWJgQ?authuser=0&hl=en&rclk=1,"27.2407741,84.34897989999999"
jumma masjid,Mosque,"5VC6+MRR jumma masjid, Kamalpur Mazra Nayser, Uttar Pradesh 203131",,5VC6+MRR,Kamalpur Mazra Nayser,203131,Uttar Pradesh,IN,https://www.google.com/maps/place/jumma+masjid/data=!4m7!3m6!1s0x390cabbf374c83d7:0x9b825d416f7cdbd9!8m2!3d28.1717271!4d77.8620309!16s%2Fg%2F11q3cgllgq!19sChIJ14NMN7-rDDkR2dt8b0Fdgps?authuser=0&hl=en&rclk=1,"28.1717271,77.8620309"
