name,main_category,address,address_ward,address_street,address_city,address_postal_code,address_state,address_country_code,link,coordinates
Jama Masjid - jm` msjd,Mosque,"Jama Masjid - jm` msjd, 11, Tandon Rd, Chaman Ganj, Sipri Bazar, Jhansi, Uttar Pradesh 284003","Chaman Ganj, Sipri Bazar","11, Tandon Rd",Jhansi,284003,Uttar Pradesh,IN,https://www.google.com/maps/place/Jama+Masjid+-+%D8%AC%D8%A7%D9%85%D8%B9+%D9%85%D8%B3%D8%AC%D8%AF%E2%80%AD/data=!4m7!3m6!1s0x397771269427c6fd:0xc07d3339393a9f26!8m2!3d25.4545427!4d78.5506958!16s%2Fg%2F1hc636k68!19sChIJ_cYnlCZxdzkRJp86OTkzfcA?authuser=0&hl=en&rclk=1,"25.454542699999998,78.5506958"
KHATI BABA MOSQUE - khty bb msjd,Mosque,"CGRR+MC3 KHATI BABA MOSQUE - khty bb msjd, Khati Baba, Jhansi, Uttar Pradesh 284003",Khati Baba,CGRR+MC3,Jhansi,284003,Uttar Pradesh,IN,https://www.google.com/maps/place/KHATI+BABA+MOSQUE+-+%D8%AE%D8%A7%D8%AA%DB%8C+%D8%A8%D8%A7%D8%A8%D8%A7+%D9%85%D8%B3%D8%AC%D8%AF%E2%80%AD/data=!4m7!3m6!1s0x397770e718586c41:0x5800cc6610c36623!8m2!3d25.4416455!4d78.5410624!16s%2Fg%2F1262c8hy5!19sChIJQWxYGOdwdzkRI2bDEGbMAFg?authuser=0&hl=en&rclk=1,"25.4416455,78.5410624"
Bisati Bazar Maszid,Mosque,"FH7H+2JP Bisati Bazar Maszid, Bisati Bazar, Gandhigir Ka Tapra, Jhansi, Uttar Pradesh 284002",Gandhigar Ka Tapra,"FH7H+2JP, Bisati Bazar, Gandhigir Ka Tapra",Jhansi,284002,Uttar Pradesh,IN,https://www.google.com/maps/place/Bisati+Bazar+Maszid/data=!4m7!3m6!1s0x397776dac12e1b21:0xea4413614f7d310b!8m2!3d25.4625929!4d78.5790799!16s%2Fg%2F11dy_jj4x2!19sChIJIRsuwdp2dzkRCzF9T2ETROo?authuser=0&hl=en&rclk=1,"25.462592899999997,78.5790799"
Masjid - msjd,Mosque,"FH2H+QCH Masjid - msjd, Khushipura, Jhansi, Uttar Pradesh 284002",Khushipura,FH2H+QCH,Jhansi,284002,Uttar Pradesh,IN,https://www.google.com/maps/place/Masjid+-+%D9%85%D8%B3%D8%AC%D8%AF%E2%80%AD/data=!4m7!3m6!1s0x39777727f59139d9:0x3b621a02d506e7f7!8m2!3d25.4519305!4d78.5786062!16s%2Fg%2F11fxvkrftw!19sChIJ2TmR9Sd3dzkR9-cG1QIaYjs?authuser=0&hl=en&rclk=1,"25.4519305,78.5786062"
Avas Vikas Mosque,Mosque,"FG3H+PJQ Avas Vikas Mosque, Sangam Vihar, Jhansi, Uttar Pradesh 284003",Sangam Vihar,FG3H+PJQ,Jhansi,284003,Uttar Pradesh,IN,https://www.google.com/maps/place/Avas+Vikas+Mosque/data=!4m7!3m6!1s0x397771047bef14d7:0xea6d3f6e24dd867d!8m2!3d25.4543305!4d78.5291013!16s%2Fg%2F1263nsmz6!19sChIJ1xTvewRxdzkRfYbdJG4_beo?authuser=0&hl=en&rclk=1,"25.454330499999998,78.5291013"
Masjid Khushipura,Mosque,"CHWJ+HW4 Masjid Khushipura, Khushipura, Jhansi, Uttar Pradesh 284002",Khushipura,CHWJ+HW4,Jhansi,284002,Uttar Pradesh,IN,https://www.google.com/maps/place/Masjid+Khushipura/data=!4m7!3m6!1s0x39777726a7e49fef:0x4518da5d687f912a!8m2!3d25.4463815!4d78.5823302!16s%2Fg%2F11c464xzjq!19sChIJ75_kpyZ3dzkRKpF_aF3aGEU?authuser=0&hl=en&rclk=1,"25.446381499999998,78.5823302"
Raza Masjid,Mosque,"FH2M+WFR Raza Masjid, Kasai Mandi Near Orcha Gate, Uttar Pradesh 284002",Talpura,"FH2M+WFR, Kasai Mandi Near Orcha Gate",Jhansi,284002,Uttar Pradesh,IN,https://www.google.com/maps/place/Raza+Masjid/data=!4m7!3m6!1s0x39777720a9d48979:0xd7c815c9ca66d58f!8m2!3d25.4523718!4d78.58364!16s%2Fg%2F11f50rb4gg!19sChIJeYnUqSB3dzkRj9VmyskVyNc?authuser=0&hl=en&rclk=1,"25.452371799999998,78.58364"
Bijauli Masjid bijaulii msjid,Mosque,"Bijauli Masjid bijaulii msjid, Bijauli Industrial Area 284135, Dagaria Rund",Bijauli Industrial Area,Bijauli Industrial Area 284135,Dagaria Rund,,Uttar Pradesh,IN,https://www.google.com/maps/place/Bijauli+Masjid+%E0%A4%AC%E0%A4%BF%E0%A4%9C%E0%A5%8C%E0%A4%B2%E0%A5%80+%E0%A4%AE%E0%A4%B8%E0%A5%8D%E0%A4%9C%E0%A4%BF%E0%A4%A6/data=!4m7!3m6!1s0x39777a4981e31381:0xc3a0ee6e832be60d!8m2!3d25.3617077!4d78.5405663!16s%2Fg%2F11gbldtvcq!19sChIJgRPjgUl6dzkRDeYrg27uoMM?authuser=0&hl=en&rclk=1,"25.3617077,78.5405663"
Chhaniya Pura Chhoti Masjid,Mosque,"Chhaniya Pura Chhoti Masjid, 99, tilyani bajiriya, Subhash Ganj, Jhansi, Uttar Pradesh 284002",Subhash Ganj,"99, tilyani bajiriya",Jhansi,284002,Uttar Pradesh,IN,https://www.google.com/maps/place/Chhaniya+Pura+Chhoti+Masjid/data=!4m7!3m6!1s0x397776ded2a04183:0xf556c3074a90c5e6!8m2!3d25.456!4d78.5832!16s%2Fg%2F1pyqjl81f!19sChIJg0Gg0t52dzkR5sWQSgfDVvU?authuser=0&hl=en&rclk=1,"25.456,78.58319999999999"
ARMY MASJID,Mosque,"ARMY MASJID, British Cementry, NH- 75, Cantt, Jhansi, Uttar Pradesh 284127",Cantt,"British Cementry, NH- 75",Jhansi,284127,Uttar Pradesh,IN,https://www.google.com/maps/place/ARMY+MASJID/data=!4m7!3m6!1s0x397777195e63ae83:0xad966487508cd5e9!8m2!3d25.446085!4d78.5939866!16s%2Fg%2F126134b5l!19sChIJg65jXhl3dzkR6dWMUIdklq0?authuser=0&hl=en&rclk=1,"25.446085,78.5939866"
ITI MASJID,Mosque,"FHC2+QRJ ITI MASJID, church wali, Siddheshwar Nagar, galiJhansi, Jhansi, Uttar Pradesh 284003",Siddheshwar Nagar,"FHC2+QRJ, church wali","galiJhansi, Jhansi",284003,Uttar Pradesh,IN,https://www.google.com/maps/place/ITI+MASJID/data=!4m7!3m6!1s0x39777138604c2cb1:0xae37411bd2edaee8!8m2!3d25.4719699!4d78.5520107!16s%2Fg%2F11fz9_0sr6!19sChIJsSxMYDhxdzkR6K7t0htBN64?authuser=0&hl=en&rclk=1,"25.471969899999998,78.5520107"
SULTANIYA MASJID,Mosque,"FH3J+QV4 SULTANIYA MASJID, Nehru Marg, Subhash Ganj, Jhansi, Uttar Pradesh 284002",Subhash Ganj,"FH3J+QV4, Nehru Marg",Jhansi,284002,Uttar Pradesh,IN,https://www.google.com/maps/place/SULTANIYA+MASJID/data=!4m7!3m6!1s0x397776d8c4db87af:0x9d5ddd8335dbaf1a!8m2!3d25.4543995!4d78.5821996!16s%2Fg%2F1pyqfpllv!19sChIJr4fbxNh2dzkRGq_bNYPdXZ0?authuser=0&hl=en&rclk=1,"25.454399499999997,78.5821996"
Baba ji Ki Masjid,Mosque,"CGMR+JGX Baba ji Ki Masjid, Nagra Nandanpur Road, Prem Nagar, Sant Kabir Nagar, Khati Baba, Jhansi, Uttar Pradesh 284003","Prem Nagar, Sant Kabir Nagar, Khati Baba","CGMR+JGX, Nagra Nandanpur Road",Jhansi,284003,Uttar Pradesh,IN,https://www.google.com/maps/place/Baba+ji+Ki+Masjid/data=!4m7!3m6!1s0x397770e9b180dc97:0x1f68d2555fe9ce75!8m2!3d25.4341137!4d78.5413615!16s%2Fg%2F1pyqvsq03!19sChIJl9yAselwdzkRdc7pX1XSaB8?authuser=0&hl=en&rclk=1,"25.434113699999997,78.5413615"
Prem ganj masjid,Mosque,"FH52+W9G Prem ganj masjid, Prem Ganj, Sipri Bazar, Jhansi, Uttar Pradesh 284003","Prem Ganj, Sipri Bazar",FH52+W9G,Jhansi,284003,Uttar Pradesh,IN,https://www.google.com/maps/place/Prem+ganj+masjid/data=!4m7!3m6!1s0x39777124e9055a1d:0x28347dc97e15b9f!8m2!3d25.459821!4d78.5509586!16s%2Fg%2F1hm38k2hy!19sChIJHVoF6SRxdzkRn1vhl9xHgwI?authuser=0&hl=en&rclk=1,"25.459820999999998,78.5509586"
Masjid,Mosque,"FG3R+565 Masjid, Nandanpura, Awas Vikas Nagar, Jhansi, Uttar Pradesh 284003","Nandanpura, Awas Vikas Nagar",FG3R+565,Jhansi,284003,Uttar Pradesh,IN,https://www.google.com/maps/place/Masjid/data=!4m7!3m6!1s0x3977711f1d97263f:0x6c14d5cfa55ef412!8m2!3d25.4529!4d78.5406!16s%2Fg%2F1pyqrkctl!19sChIJPyaXHR9xdzkREvRepc_VFGw?authuser=0&hl=en&rclk=1,"25.4529,78.5406"
Jama Mosque,Mosque,"FH8H+J3Q Jama Mosque, Purana Sahar, Jhansi, Uttar Pradesh 284002",Purana Sahar,FH8H+J3Q,Jhansi,284002,Uttar Pradesh,IN,https://www.google.com/maps/place/Jama+Mosque/data=!4m7!3m6!1s0x397776c581efbdeb:0x5b53921c4532db5a!8m2!3d25.466581!4d78.577744!16s%2Fg%2F1pyqnprfr!19sChIJ673vgcV2dzkRWtsyRRySU1s?authuser=0&hl=en&rclk=1,"25.466580999999998,78.577744"
Choti Masjid,Mosque,"CHG2+FWW Choti Masjid, Jhalkari Bai Nagar, Jhansi, Uttar Pradesh 284001",Jhalkari Bai Nagar,CHG2+FWW,Jhansi,284001,Uttar Pradesh,IN,https://www.google.com/maps/place/Choti+Masjid/data=!4m7!3m6!1s0x397770b87b93ac59:0xa394b3ac5634eeba!8m2!3d25.4262456!4d78.5523174!16s%2Fg%2F1pyqn8pds!19sChIJWayTe7hwdzkRuu40VqyzlKM?authuser=0&hl=en&rclk=1,"25.426245599999998,78.55231739999999"
Raain mosque,Mosque,"FH2W+3CP Raain mosque, Shivaji Nagar, Jhansi, Uttar Pradesh 284002",Shivaji Nagar,FH2W+3CP,Jhansi,284002,Uttar Pradesh,IN,https://www.google.com/maps/place/Raain+mosque/data=!4m7!3m6!1s0x3977771c4bb1222d:0x8e297fa9a7d3abf9!8m2!3d25.4502093!4d78.5960931!16s%2Fg%2F1pyqjm5_2!19sChIJLSKxSxx3dzkR-avTp6l_KY4?authuser=0&hl=en&rclk=1,"25.450209299999997,78.59609309999999"
Haliman Mosque,Mosque,"FH74+26Q Haliman Mosque, Mission Compound, Jhansi, Uttar Pradesh 284003",Mission Compound,FH74+26Q,Jhansi,284003,Uttar Pradesh,IN,https://www.google.com/maps/place/Haliman+Mosque/data=!4m7!3m6!1s0x397771301c7036f5:0x8125dca9d702887d!8m2!3d25.4625763!4d78.5556163!16s%2Fg%2F11b75cnrdj!19sChIJ9TZwHDBxdzkRfYgC16ncJYE?authuser=0&hl=en&rclk=1,"25.4625763,78.5556163"
Masjid(Sangam Vihar),Mosque,"FG3H+MJP Masjid(Sangam Vihar), Bankers' Colony, Jhansi, Uttar Pradesh 284003",Bankers' Colony,FG3H+MJP,Jhansi,284003,Uttar Pradesh,IN,https://www.google.com/maps/place/Masjid%28Sangam+Vihar%29/data=!4m7!3m6!1s0x397771047e6aa73d:0x930244f78d31c156!8m2!3d25.4542189!4d78.529078!16s%2Fg%2F1pyqrzgrd!19sChIJPadqfgRxdzkRVsExjfdEApM?authuser=0&hl=en&rclk=1,"25.454218899999997,78.529078"
Shia Eid Gaah,Mosque,"Shia Eid Gaah, 1148, Nai Basti, Panchkuiyan, Indrapuri, Jhansi, Uttar Pradesh 284002","Nai Basti, Panchkuiyan, Indrapuri","1148, Nai Basti",Jhansi,284002,Uttar Pradesh,IN,https://www.google.com/maps/place/Shia+Eid+Gaah/data=!4m7!3m6!1s0x397776d2366042c7:0x29bdf950c3424f8f!8m2!3d25.460565!4d78.5705082!16s%2Fg%2F1pyqr22gk!19sChIJx0JgNtJ2dzkRj09Cw1D5vSk?authuser=0&hl=en&rclk=1,"25.460565,78.57050819999999"
Sayyed Nagar Masjid,Mosque,"FG2G+XHX Sayyed Nagar Masjid, Nehar Service Rd, Sangam Vihar, Jhansi, Uttar Pradesh 284003",Sangam Vihar,"FG2G+XHX, Nehar Service Rd",Jhansi,284003,Uttar Pradesh,IN,https://www.google.com/maps/place/Sayyed+Nagar+Masjid/data=!4m7!3m6!1s0x39777103e1abc285:0xd60194db8ae23ba1!8m2!3d25.4524829!4d78.5264915!16s%2Fg%2F11c6_yy88t!19sChIJhcKr4QNxdzkRoTviituUAdY?authuser=0&hl=en&rclk=1,"25.4524829,78.52649149999999"
Talaiya Chhoti Masjid,Mosque,"FH4H+FQH Talaiya Chhoti Masjid, Chhaniya Pura, Khushipura, Jhansi, Uttar Pradesh 284002","Chhaniya Pura, Khushipura",FH4H+FQH,Jhansi,284002,Uttar Pradesh,IN,https://www.google.com/maps/place/Talaiya+Chhoti+Masjid/data=!4m7!3m6!1s0x397776d9bcc3edc7:0x1c360c175d6e1cb4!8m2!3d25.4562!4d78.5795!16s%2Fg%2F1pyqgztcz!19sChIJx-3DvNl2dzkRtBxuXRcMNhw?authuser=0&hl=en&rclk=1,"25.4562,78.5795"
DR. NAHAR MASJID JHANSI,,"FG2P+8J6 DR. NAHAR MASJID JHANSI, ddoN. naahr kNpaauNdd nNdnpuraa suury purm koNlonii jhaaNsii yuu.pii, 284003",Awas Vikas Nagar,"FG2P+8J6, ddoN. naahr kNpaauNdd nNdnpuraa suury purm koNlonii jhaaNsii yuu.pii",Jhansi,284003,Uttar Pradesh,IN,https://www.google.com/maps/place/DR.+NAHAR+MASJID+JHANSI/data=!4m7!3m6!1s0x39777128258da957:0x9d85c0e1d128f7f9!8m2!3d25.450777!4d78.5365129!16s%2Fg%2F11n0knjmm6!19sChIJV6mNJShxdzkR-fco0eHAhZ0?authuser=0&hl=en&rclk=1,"25.450777,78.53651289999999"
Masjid,Mosque,"CHH3+XF8 Masjid, Jhansi Railway Station Rd, Jhalkari Bai Nagar, Jhansi, Uttar Pradesh 284001",Jhalkari Bai Nagar,"CHH3+XF8, Jhansi Railway Station Rd",Jhansi,284001,Uttar Pradesh,IN,https://www.google.com/maps/place/Masjid/data=!4m7!3m6!1s0x397770c633f19059:0xcc5bfeb4c5c70737!8m2!3d25.4299!4d78.5537!16s%2Fg%2F1pyqn783_!19sChIJWZDxM8ZwdzkRNwfHxbT-W8w?authuser=0&hl=en&rclk=1,"25.4299,78.55369999999999"
Sagar Khidki Masjid,Mosque,"FH4M+CX8 Sagar Khidki Masjid, Subhash Ganj, Jhansi, Uttar Pradesh 284002",Subhash Ganj,FH4M+CX8,Jhansi,284002,Uttar Pradesh,IN,https://www.google.com/maps/place/Sagar+Khidki+Masjid/data=!4m7!3m6!1s0x397776dee5c2fc27:0x5f9624419e0dc157!8m2!3d25.4560415!4d78.5849462!16s%2Fg%2F11g8ljcv9v!19sChIJJ_zC5d52dzkRV8ENnkEkll8?authuser=0&hl=en&rclk=1,"25.456041499999998,78.58494619999999"
Mohamadia Masjid,Mosque,"CGHJ+R9W Mohamadia Masjid, Sir syed nagra prem nagar, 4 Kamba-Gariya Fatak Rd, Budh Vihar Colony, Nagra, Jhansi, Uttar Pradesh 284003","Budh Vihar Colony, Nagra","CGHJ+R9W, Sir syed nagra prem nagar, 4 Kamba-Gariya Fatak Rd",Jhansi,284003,Uttar Pradesh,IN,https://www.google.com/maps/place/Mohamadia+Masjid/data=!4m7!3m6!1s0x397770f213f87eeb:0xacde758ed459644e!8m2!3d25.4296013!4d78.5309467!16s%2Fg%2F11g69g_4_q!19sChIJ6374E_JwdzkRTmRZ1I513qw?authuser=0&hl=en&rclk=1,"25.429601299999998,78.5309467"
unnaav gett msjid Masjid Raunak,Mosque,"unnaav gett msjid Masjid Raunak, Mewatipura, Purana Sahar, Jhansi, Uttar Pradesh 284002","Mewatipura, Purana Sahar",,Jhansi,284002,Uttar Pradesh,IN,https://www.google.com/maps/place/%E0%A4%89%E0%A4%A8%E0%A5%8D%E0%A4%A8%E0%A4%BE%E0%A4%B5+%E0%A4%97%E0%A5%87%E0%A4%9F+%E0%A4%AE%E0%A4%B8%E0%A5%8D%E0%A4%9C%E0%A4%BF%E0%A4%A6+Masjid+Raunak/data=!4m7!3m6!1s0x397776c5d8ccfa39:0x721c14a3e7745ea2!8m2!3d25.4694425!4d78.5792244!16s%2Fg%2F11hckk42n7!19sChIJOfrM2MV2dzkRol5056MUHHI?authuser=0&hl=en&rclk=1,"25.4694425,78.5792244"
Rayeen Masjid,Mosque,"FH8H+MXG Rayeen Masjid, Purana Sahar, Jhansi, Uttar Pradesh 284002",Purana Sahar,FH8H+MXG,Jhansi,284002,Uttar Pradesh,IN,https://www.google.com/maps/place/Rayeen+Masjid/data=!4m7!3m6!1s0x397776c500a9a5fd:0xba4d5ee9594b3e21!8m2!3d25.4666928!4d78.579955!16s%2Fg%2F11gf17zg4s!19sChIJ_aWpAMV2dzkRIT5LWeleTbo?authuser=0&hl=en&rclk=1,"25.4666928,78.579955"
Mai sahab ki Masjid,Mosque,"FH9F+FMM Mai sahab ki Masjid, Aligole Khirki, Datia Gate Area, Jhansi, Uttar Pradesh 284002","Aligole Khirki, Datia Gate Area",FH9F+FMM,Jhansi,284002,Uttar Pradesh,IN,https://www.google.com/maps/place/Mai+sahab+ki+Masjid/data=!4m7!3m6!1s0x397776ced1484867:0x2250b6c8908b536e!8m2!3d25.4687193!4d78.5741809!16s%2Fg%2F11c1vjzhvz!19sChIJZ0hI0c52dzkRblOLkMi2UCI?authuser=0&hl=en&rclk=1,"25.4687193,78.5741809"
Masjid Lalkurti,Mosque,"CHG8+9R7 Masjid Lalkurti, Jhalkari Bai Nagar, Jhansi, Uttar Pradesh 284001",Jhalkari Bai Nagar,CHG8+9R7,Jhansi,284001,Uttar Pradesh,IN,https://www.google.com/maps/place/Masjid+Lalkurti/data=!4m7!3m6!1s0x3977774ac69e2cd1:0x709c4b9cc4b76748!8m2!3d25.4259035!4d78.567039!16s%2Fg%2F11csp737r8!19sChIJ0Syexkp3dzkRSGe3xJxLnHA?authuser=0&hl=en&rclk=1,"25.4259035,78.567039"
Masjid Abuzar,Mosque,"FHFH+QVP Masjid Abuzar, Purani Najhai, Jhansi, Uttar Pradesh 284002",Purani Najhai,FHFH+QVP,Jhansi,284002,Uttar Pradesh,IN,https://www.google.com/maps/place/Masjid+Abuzar/data=!4m7!3m6!1s0x397777a1d7bffdf9:0x1a9fd579de46313c!8m2!3d25.4744503!4d78.5796877!16s%2Fg%2F11f7bjzdk1!19sChIJ-f2_16F3dzkRPDFG3nnVnxo?authuser=0&hl=en&rclk=1,"25.474450299999997,78.5796877"
masjid gauhar ali,Mosque,"FH5F+XPF masjid gauhar ali, Nehru Marg, Panchkuiyan, Jhokan Bagh, Jhansi, Uttar Pradesh 284002","Panchkuiyan, Jhokan Bagh","FH5F+XPF, Nehru Marg",Jhansi,284002,Uttar Pradesh,IN,https://www.google.com/maps/place/masjid+gauhar+ali/data=!4m7!3m6!1s0x397776d103a0be27:0xfb08b93a34085d26!8m2!3d25.4599444!4d78.5742985!16s%2Fg%2F11hb266k9x!19sChIJJ76gA9F2dzkRJl0INDq5CPs?authuser=0&hl=en&rclk=1,"25.459944399999998,78.5742985"
Masjid-e-bilal,Mosque,"FH8G+49V Masjid-e-bilal, mukaryana, Jhansi, Uttar Pradesh 284002",Purana Sahar,"FH8G+49V, mukaryana",Jhansi,284002,Uttar Pradesh,IN,https://www.google.com/maps/place/Masjid-e-bilal/data=!4m7!3m6!1s0x397776cfbdbe6e45:0x25d8603180667b4d!8m2!3d25.4653697!4d78.5759309!16s%2Fg%2F11c1_w3l_x!19sChIJRW6-vc92dzkRTXtmgDFg2CU?authuser=0&hl=en&rclk=1,"25.4653697,78.5759309"
Nabab / Nabina Masjid,Mosque,"FH8G+F9C Nabab / Nabina Masjid, Unnamed Road, Purana Sahar, Jhansi, Uttar Pradesh 284002",Purana Sahar,"FH8G+F9C, Unnamed Road",Jhansi,284002,Uttar Pradesh,IN,https://www.google.com/maps/place/Nabab+%2F+Nabina+Masjid/data=!4m7!3m6!1s0x397776cfa1038ee5:0x5621e396ac9b4fd1!8m2!3d25.466179!4d78.5758822!16s%2Fg%2F11f3vpt6fc!19sChIJ5Y4Doc92dzkR0U-brJbjIVY?authuser=0&hl=en&rclk=1,"25.466179,78.5758822"
Ek Minar,Mosque,"Ek Minar, 142, Gwalior Rd, Panchkuiyan, Indrapuri, Jhansi, Uttar Pradesh 284002","Panchkuiyan, Indrapuri","142, Gwalior Rd",Jhansi,284002,Uttar Pradesh,IN,https://www.google.com/maps/place/Ek+Minar/data=!4m7!3m6!1s0x397776cefc084433:0x8927fd89be6d5ca7!8m2!3d25.466674!4d78.5742543!16s%2Fg%2F11g6qxt6tq!19sChIJM0QI_M52dzkRp1xtvon9J4k?authuser=0&hl=en&rclk=1,"25.466673999999998,78.57425429999999"
Masjid e makki,Mosque,"FH8G+26W Masjid e makki, mukaryana, Jhansi, Uttar Pradesh 284002",Purana Sahar,"FH8G+26W, mukaryana",Jhansi,284002,Uttar Pradesh,IN,https://www.google.com/maps/place/Masjid+e+makki/data=!4m7!3m6!1s0x397776cfb920cebd:0x2ea265b1eb621bd7!8m2!3d25.4651098!4d78.5755672!16s%2Fg%2F11cs9m3sy8!19sChIJvc4guc92dzkR1xti67Floi4?authuser=0&hl=en&rclk=1,"25.4651098,78.5755672"
Mohani Baba Dargah,Mosque,"FH2H+6WQ Mohani Baba Dargah, Khushipura, Jhansi, Uttar Pradesh 284002",Khushipura,FH2H+6WQ,Jhansi,284002,Uttar Pradesh,IN,https://www.google.com/maps/place/Mohani+Baba+Dargah/data=!4m7!3m6!1s0x39777727a3ca837d:0x87dbf90a67c9dbad!8m2!3d25.450583!4d78.5798537!16s%2Fg%2F11dfvwrb5g!19sChIJfYPKoyd3dzkRrdvJZwr524c?authuser=0&hl=en&rclk=1,"25.450582999999998,78.5798537"
Munabbari Masjid,Mosque,"CGXR+V29 Munabbari Masjid, Nagra-Nandanpura Rd, Deen Dayal Nagar, Jhansi, Uttar Pradesh 284003",Deen Dayal Nagar,"CGXR+V29, Nagra-Nandanpura Rd",Jhansi,284003,Uttar Pradesh,IN,https://www.google.com/maps/place/Munabbari+Masjid/data=!4m7!3m6!1s0x3977711e2e269449:0x7ca22ecb753384ee!8m2!3d25.4496568!4d78.5401124!16s%2Fg%2F11b700wn0z!19sChIJSZQmLh5xdzkR7oQzdcsuonw?authuser=0&hl=en&rclk=1,"25.4496568,78.5401124"
Bari Masjid,Mosque,"Bari Masjid, 725, Bara Gaon Gate, Purana Sahar, Jhansi, Uttar Pradesh 284002",Purana Sahar,"725, Bara Gaon Gate",Jhansi,284002,Uttar Pradesh,IN,https://www.google.com/maps/place/Bari+Masjid/data=!4m7!3m6!1s0x397776dd20578e67:0x6ad51387f53d769e!8m2!3d25.4629786!4d78.5860919!16s%2Fg%2F11dxbdkvl_!19sChIJZ45XIN12dzkRnnY99YcT1Wo?authuser=0&hl=en&rclk=1,"25.4629786,78.5860919"
Eidgah,Mosque,"CGPQ+84C Eidgah, Khati Baba, Jhansi, Uttar Pradesh 284003",Khati Baba,CGPQ+84C,Jhansi,284003,Uttar Pradesh,IN,https://www.google.com/maps/place/Eidgah/data=!4m7!3m6!1s0x397770e8b4e890d7:0x59acc55fc78a51da!8m2!3d25.4358045!4d78.5377567!16s%2Fg%2F1hjhcpbnl!19sChIJ15DotOhwdzkR2lGKx1_FrFk?authuser=0&hl=en&rclk=1,"25.4358045,78.5377567"
Masjid Abdul Ghani,Mosque,"CHX9+9PJ Masjid Abdul Ghani, Shivpuri - Jhansi Rd, Prathvipur, Civil Lines, Jhansi, Uttar Pradesh 284001","Prathvipur, Civil Lines","CHX9+9PJ, Shivpuri - Jhansi Rd",Jhansi,284001,Uttar Pradesh,IN,https://www.google.com/maps/place/Masjid+Abdul+Ghani/data=!4m7!3m6!1s0x397777731d5cece5:0xa04f17e5e3f4bd27!8m2!3d25.4484601!4d78.5692724!16s%2Fg%2F11qg7l8ty0!19sChIJ5excHXN3dzkRJ7304-UXT6A?authuser=0&hl=en&rclk=1,"25.4484601,78.5692724"
Bavarchiyan Mosque,Mosque,"FHC9+C2G Bavarchiyan Mosque, Gwalior Rd, Thapak Bagh, Jhansi, Uttar Pradesh 284002",Thapak Bagh,"FHC9+C2G, Gwalior Rd",Jhansi,284002,Uttar Pradesh,IN,https://www.google.com/maps/place/Bavarchiyan+Mosque/data=!4m7!3m6!1s0x39777160c713df2b:0xea008b199af7087b!8m2!3d25.4710653!4d78.5675765!16s%2Fg%2F11f9w46xps!19sChIJK98Tx2BxdzkRewj3mhmLAOo?authuser=0&hl=en&rclk=1,"25.4710653,78.5675765"
Eidgah,Mosque,"Eidgah, Qabrastan, Puliya No. 9 (Jhalkari Nagar), Jhansi, 284003",Jhalkari Bai Nagar,"Qabrastan, Puliya No. 9 (Jhalkari Nagar)",Jhansi,284003,Uttar Pradesh,IN,https://www.google.com/maps/place/Eidgah/data=!4m7!3m6!1s0x397770b7b18455b7:0xd783fa3dfe49737e!8m2!3d25.4251347!4d78.5564672!16s%2Fg%2F11c5j6ycgr!19sChIJt1WEsbdwdzkRfnNJ_j36g9c?authuser=0&hl=en&rclk=1,"25.425134699999997,78.5564672"
Sadan Masjid,Mosque,"Sadan Masjid, 33, Inside Sainyer Gate, Near Hanuman Mandir, Uttar Pradesh 284002","Chhaniya Pura, Khushipura","33, Inside Sainyer Gate, Near Hanuman Mandir",Jhansi,284002,Uttar Pradesh,IN,https://www.google.com/maps/place/Sadan+Masjid/data=!4m7!3m6!1s0x397776d834098883:0x44fb2d4736e83d31!8m2!3d25.4546339!4d78.578508!16s%2Fg%2F11f3mbj39s!19sChIJg4gJNNh2dzkRMT3oNkct-0Q?authuser=0&hl=en&rclk=1,"25.454633899999997,78.578508"
Jama Maszid,Place of worship,"CHH3+6FR Jama Maszid, Pulia Number. 9, Jhansi, Uttar Pradesh 284001",Pulia Number. 9,CHH3+6FR,Jhansi,284001,Uttar Pradesh,IN,https://www.google.com/maps/place/Jama+Maszid/data=!4m7!3m6!1s0x397770c7eb2504a9:0x3e273d30add53db!8m2!3d25.4281149!4d78.5536321!16s%2Fg%2F11b6pz9pcs!19sChIJqQQl68dwdzkR21PdCtNz4gM?authuser=0&hl=en&rclk=1,"25.428114899999997,78.5536321"
Masjid,Mosque,"FGWW+J3F Masjid, Karari, Jhansi, Uttar Pradesh 284002",Karari,FGWW+J3F,Jhansi,284002,Uttar Pradesh,IN,https://www.google.com/maps/place/Masjid/data=!4m7!3m6!1s0x3977735d9d8895d7:0x833a5fb32fd87ecd!8m2!3d25.4965634!4d78.5451642!16s%2Fg%2F11pkfd57nb!19sChIJ15WInV1zdzkRzX7YL7NfOoM?authuser=0&hl=en&rclk=1,"25.4965634,78.5451642"
Ajmeri Pathan Tuglak Sayyad Baba,Mosque,"Ajmeri Pathan Tuglak Sayyad Baba, 69, Khataryana, Ganesh Complex, Jhansi, Uttar Pradesh 284002",Manik Chowk,"69, Khataryana, Ganesh Complex",Jhansi,284002,Uttar Pradesh,IN,https://www.google.com/maps/place/Ajmeri+Pathan+Tuglak+Sayyad+Baba/data=!4m7!3m6!1s0x397776da564cdbe7:0x2e7e53e8954526df!8m2!3d25.4607225!4d78.5797511!16s%2Fg%2F11df3v0sx4!19sChIJ59tMVtp2dzkR3yZFlehTfi4?authuser=0&hl=en&rclk=1,"25.4607225,78.5797511"
Madersa,Mosque,"FJ52+HW2 Madersa, Shivaji Nagar, Jhansi, Uttar Pradesh 284002",Shivaji Nagar,FJ52+HW2,Jhansi,284002,Uttar Pradesh,IN,https://www.google.com/maps/place/Madersa/data=!4m7!3m6!1s0x3977776953a4a79f:0xf7d83cf9a0dfeb80!8m2!3d25.4588815!4d78.602277!16s%2Fg%2F11j7xx22x0!19sChIJn6ekU2l3dzkRgOvfoPk82Pc?authuser=0&hl=en&rclk=1,"25.4588815,78.602277"
Madina masjid(mdiinaa msjid),Mosque,"CGMJ+CVX Madina masjid(mdiinaa msjid), Shamshan Ghat Rd, Sant Kabir Nagar, Khati Baba, Jhansi, Uttar Pradesh 284003","Sant Kabir Nagar, Khati Baba","CGMJ+CVX, Shamshan Ghat Rd",Jhansi,284003,Uttar Pradesh,IN,https://www.google.com/maps/place/Madina+masjid%28%E0%A4%AE%E0%A4%A6%E0%A5%80%E0%A4%A8%E0%A4%BE+%E0%A4%AE%E0%A4%B8%E0%A5%8D%E0%A4%9C%E0%A4%BF%E0%A4%A6%29/data=!4m7!3m6!1s0x397771433382df05:0x2fd0ff0d720ac050!8m2!3d25.4336192!4d78.5322313!16s%2Fg%2F11qq5my17n!19sChIJBd-CM0NxdzkRUMAKcg3_0C8?authuser=0&hl=en&rclk=1,"25.4336192,78.53223129999999"
Qadri Masjid,Mosque,"FH2P+649 Qadri Masjid, Kasai Mandi Kapurtekri, Talpura, Jhansi, Uttar Pradesh 284002",Talpura,"FH2P+649, Kasai Mandi Kapurtekri",Jhansi,,Uttar Pradesh,IN,https://www.google.com/maps/place/Qadri+Masjid/data=!4m7!3m6!1s0x39777720f1b39099:0xb88b81db839a4c0b!8m2!3d25.4505321!4d78.5853617!16s%2Fg%2F11f50rgg4x!19sChIJmZCz8SB3dzkRC0yag9uBi7g?authuser=0&hl=en&rclk=1,"25.4505321,78.58536169999999"
Shia Masjid Jhansi,Mosque,"Shia Masjid Jhansi, 136 shiya masjid compound, Rd Number 9, Indrapuri, Jhansi, Uttar Pradesh 284002","Sharda Hills Colony, Indrapuri","136 shiya masjid compound, Rd Number 9",Jhansi,284002,Uttar Pradesh,IN,https://www.google.com/maps/place/Shia+Masjid+Jhansi/data=!4m7!3m6!1s0x39777703ec65bf7b:0x8260995ca27e57f9!8m2!3d25.4611499!4d78.570377!16s%2Fg%2F11pl73xdyk!19sChIJe79l7AN3dzkR-Vd-olyZYII?authuser=0&hl=en&rclk=1,"25.4611499,78.570377"
Isai Tola Masjid,Mosque,"Isai Tola Masjid, 418/5, Kamal Singh Colony, Khati Baba, Jhansi, Uttar Pradesh 284003","Kamal Singh Colony, Khati Baba",418/5,Jhansi,284003,Uttar Pradesh,IN,https://www.google.com/maps/place/Isai+Tola+Masjid/data=!4m7!3m6!1s0x397771f0cd16344f:0x94eb2cb46b7ba36d!8m2!3d25.4379662!4d78.538834!16s%2Fg%2F11hdqvzk94!19sChIJTzQWzfBxdzkRbaN7a7Qs65Q?authuser=0&hl=en&rclk=1,"25.437966199999998,78.538834"
Masjid,Mosque,"CGRR+MCJ Masjid, Nagra Nandanpur Road, Khati Baba, Jhansi, Uttar Pradesh 284003",Khati Baba,"CGRR+MCJ, Nagra Nandanpur Road",Jhansi,284003,Uttar Pradesh,IN,https://www.google.com/maps/place/Masjid/data=!4m7!3m6!1s0x397770e7189a0e27:0x3c79720835ea25ab!8m2!3d25.4417112!4d78.5410177!16s%2Fg%2F1pyqql5qs!19sChIJJw6aGOdwdzkRqyXqNQhyeTw?authuser=0&hl=en&rclk=1,"25.4417112,78.5410177"
Rain Masjid,Mosque,"FH8J+M2C Rain Masjid, Purana Sahar, Jhansi, Uttar Pradesh 284002",Purana Sahar,FH8J+M2C,Jhansi,284002,Uttar Pradesh,IN,https://www.google.com/maps/place/Rain+Masjid/data=!4m7!3m6!1s0x397776c500a1bb23:0xda94d875c6f02a76!8m2!3d25.4666916!4d78.5800053!16s%2Fg%2F11f3cx5bnv!19sChIJI7uhAMV2dzkRdirwxnXYlNo?authuser=0&hl=en&rclk=1,"25.466691599999997,78.5800053"
Imambargah Marhoom Sayed Mukhtar Husain Rizvi(mrhuum mukhtaar husain rij'vii),Mosque,"CHVF+GJ2 Imambargah Marhoom Sayed Mukhtar Husain Rizvi(mrhuum mukhtaar husain rij'vii), Bus Stop Jail Chauraha, NH 75, Civil Lines, Cantt, Jhansi, Uttar Pradesh 284002","Civil Lines, Cantt","CHVF+GJ2, Bus Stop Jail Chauraha, NH 75",Jhansi,284002,Uttar Pradesh,IN,https://www.google.com/maps/place/Imambargah+Marhoom+Sayed+Mukhtar+Husain+Rizvi%28%E0%A4%AE%E0%A4%B0%E0%A4%B9%E0%A5%82%E0%A4%AE+%E0%A4%AE%E0%A5%81%E0%A4%96%E0%A5%8D%E0%A4%A4%E0%A4%BE%E0%A4%B0+%E0%A4%B9%E0%A5%81%E0%A4%B8%E0%A5%88%E0%A4%A8+%E0%A4%B0%E0%A4%BF%E0%A4%9C%E0%A4%BC%E0%A4%B5%E0%A5%80%29/data=!4m7!3m6!1s0x397777e60b1d7455:0x34572c277ac675d5!8m2!3d25.443752!4d78.5740173!16s%2Fg%2F11lqcw5pdz!19sChIJVXQdC-Z3dzkR1XXGeicsVzQ?authuser=0&hl=en&rclk=1,"25.443752,78.5740173"
JAMA MASJID NAGRA,Parsi temple,"CGHQ+WJ6 JAMA MASJID NAGRA, Prem Nagar, Heerapura, Nagra, Jhansi Rly. Settl, Jhansi, Uttar Pradesh 284003","Prem Nagar, Heerapura, Nagra",CGHQ+WJ6,"Jhansi Rly. Settl, Jhansi",284003,Uttar Pradesh,IN,https://www.google.com/maps/place/JAMA+MASJID+NAGRA/data=!4m7!3m6!1s0x397770eb9514a0b9:0x4c27d851119736e5!8m2!3d25.4297926!4d78.5390174!16s%2Fg%2F1ptx3w19z!19sChIJuaAUletwdzkR5TaXEVHYJ0w?authuser=0&hl=en&rclk=1,"25.4297926,78.53901739999999"
Masjid,Mosque,"Masjid, 397/5, Gali no.4, Prem Nagar, Heerapura, Nagra, Jhansi, Uttar Pradesh 284003","Prem Nagar, Heerapura, Nagra","397/5, Gali no.4",Jhansi,284003,Uttar Pradesh,IN,https://www.google.com/maps/place/Masjid/data=!4m7!3m6!1s0x397770eb9561819d:0xa2f17a6b036112f7!8m2!3d25.4298!4d78.5391!16s%2Fg%2F1pyqgcg4n!19sChIJnYFhletwdzkR9xJhA2t68aI?authuser=0&hl=en&rclk=1,"25.4298,78.53909999999999"
Madarsa Imaam Ahmad Razaa,Mosque,"CHMJ+5FH Madarsa Imaam Ahmad Razaa, Near Ballampur Road, Jhansi, Uttar Pradesh 284003",Cantt,"CHMJ+5FH, Near Ballampur Road",Jhansi,284003,Uttar Pradesh,IN,https://www.google.com/maps/place/Madarsa+Imaam+Ahmad+Razaa/data=!4m7!3m6!1s0x3977773913ce6d2d:0x1a3bb17e9673383!8m2!3d25.4329378!4d78.5812325!16s%2Fg%2F11dy_kgqtg!19sChIJLW3OEzl3dzkRgzNn6Re7owE?authuser=0&hl=en&rclk=1,"25.432937799999998,78.5812325"
Baba Sab Majar,Mosque,"FHG9+RC8 Baba Sab Majar, Pitambra Nagar, Jhansi, Uttar Pradesh 284002",Pitambra Nagar,FHG9+RC8,Jhansi,284002,Uttar Pradesh,IN,https://www.google.com/maps/place/Baba+Sab+Majar/data=!4m7!3m6!1s0x39777778877355e3:0x9e72f0ba064671ad!8m2!3d25.4770474!4d78.5685824!16s%2Fg%2F11ptv6j2bp!19sChIJ41Vzh3h3dzkRrXFGBrrwcp4?authuser=0&hl=en&rclk=1,"25.4770474,78.5685824"
MASJID E NOORANI,Mosque,"MASJID E NOORANI, Talpura, Jhansi, Uttar Pradesh 284002",Talpura,,Jhansi,284002,Uttar Pradesh,IN,https://www.google.com/maps/place/MASJID+E+NOORANI/data=!4m7!3m6!1s0x39777744d098486b:0xf7718a7ba600caed!8m2!3d25.4462458!4d78.586679!16s%2Fg%2F11qngvlmnh!19sChIJa0iY0ER3dzkR7coApnuKcfc?authuser=0&hl=en&rclk=1,"25.4462458,78.58667899999999"
Masjid Allhadee Baba,Mosque,"CHG4+29W Masjid Allhadee Baba, Jhalkari Bai Nagar, Jhansi, Uttar Pradesh 284001",Jhalkari Bai Nagar,CHG4+29W,Jhansi,284001,Uttar Pradesh,IN,https://www.google.com/maps/place/Masjid+Allhadee+Baba/data=!4m7!3m6!1s0x397770b7be103a4d:0x85ee60d5ad660206!8m2!3d25.4251129!4d78.5559596!16s%2Fg%2F1pyqh0yh1!19sChIJTToQvrdwdzkRBgJmrdVg7oU?authuser=0&hl=en&rclk=1,"25.4251129,78.5559596"
Mansoori masjid Itwari ganj,Mosque,"Mansoori masjid Itwari ganj, 179, Sarai, near Jama Masjid, Purana Sahar, Jhansi, Uttar Pradesh 284002",Purana Sahar,"179, Sarai, near Jama Masjid",Jhansi,284002,Uttar Pradesh,IN,https://www.google.com/maps/place/Mansoori+masjid+Itwari+ganj/data=!4m7!3m6!1s0x397777fe20077391:0x358ab7bb455ddea!8m2!3d25.4655397!4d78.5784668!16s%2Fg%2F11qqpdg20k!19sChIJkXMHIP53dzkR6t1VtHurWAM?authuser=0&hl=en&rclk=1,"25.465539699999997,78.5784668"
Masjid Fatma,Mosque,"CGRR+MCR Masjid Fatma, Khati Baba Chauraha, Jhansi, Uttar Pradesh 284003",Khati Baba,"CGRR+MCR, Khati Baba Chauraha",Jhansi,284003,Uttar Pradesh,IN,https://www.google.com/maps/place/Masjid+Fatma/data=!4m7!3m6!1s0x397770e71f3f5ff7:0xd29250195eeae768!8m2!3d25.4417491!4d78.541013!16s%2Fg%2F11df63mqhy!19sChIJ918_H-dwdzkRaOfqXhlQktI?authuser=0&hl=en&rclk=1,"25.4417491,78.54101299999999"
aqsa masjid,Mosque,"FH4M+CXF aqsa masjid, bakra mandi tilliyani bajariya sagar khidki, Subhash Ganj, Jhansi, Uttar Pradesh 284002",Subhash Ganj,"FH4M+CXF, bakra mandi tilliyani bajariya sagar khidki",Jhansi,284002,Uttar Pradesh,IN,https://www.google.com/maps/place/aqsa+masjid/data=!4m7!3m6!1s0x397776dee5e6c7a3:0xf811fe61256bec04!8m2!3d25.4560664!4d78.5849177!16s%2Fg%2F11f3527tzn!19sChIJo8fm5d52dzkRBOxrJWH-Efg?authuser=0&hl=en&rclk=1,"25.456066399999997,78.58491769999999"
Imambargah Sayed Faik Abdi (saiyd ph'aaiik aabdii),Mosque,"FH9H+59W Imambargah Sayed Faik Abdi (saiyd ph'aaiik aabdii), Mata Kali Rd, Purana Sahar, Jhansi, Uttar Pradesh 284002",Purana Sahar,"FH9H+59W, Mata Kali Rd",Jhansi,284002,Uttar Pradesh,IN,https://www.google.com/maps/place/Imambargah+Sayed+Faik+Abdi+%28%E0%A4%B8%E0%A5%88%E0%A4%AF%E0%A4%A6+%E0%A4%AB%E0%A4%BC%E0%A4%BE%E0%A4%88%E0%A4%95+%E0%A4%86%E0%A4%AC%E0%A5%8D%E0%A4%A6%E0%A5%80%29/data=!4m7!3m6!1s0x397777395c3165d7:0x7dd58c541d1658a3!8m2!3d25.467981!4d78.5784562!16s%2Fg%2F11qmrlnhy3!19sChIJ12UxXDl3dzkRo1gWHVSM1X0?authuser=0&hl=en&rclk=1,"25.467980999999998,78.57845619999999"
Imambargah Marhoom Sayed Fateh Ali Abdi,Mosque,"FH9H+8C3 Imambargah Marhoom Sayed Fateh Ali Abdi, Purana Sahar, Jhansi, Uttar Pradesh 284002",Purana Sahar,FH9H+8C3,Jhansi,284002,Uttar Pradesh,IN,https://www.google.com/maps/place/Imambargah+Marhoom+Sayed+Fateh+Ali+Abdi/data=!4m7!3m6!1s0x39777794700d6111:0x6eb18c8ac7f4025e!8m2!3d25.4682714!4d78.5785549!16s%2Fg%2F11qhgg8rck!19sChIJEWENcJR3dzkRXgL0x4qMsW4?authuser=0&hl=en&rclk=1,"25.4682714,78.5785549"
Choti Masjid,Mosque,"CHQJ+JV2 Choti Masjid, Bata Chauraha, Sadar Bazar, Cantt, Jhansi, Uttar Pradesh 284001","Sadar Bazar, Cantt","CHQJ+JV2, Bata Chauraha",Jhansi,284001,Uttar Pradesh,IN,https://www.google.com/maps/place/Choti+Masjid/data=!4m7!3m6!1s0x397777a8f5a7a9e3:0xbc96ba337aacbecb!8m2!3d25.4390246!4d78.5821353!16s%2Fg%2F11rwlt_wjr!19sChIJ46mn9ah3dzkRy76sejO6lrw?authuser=0&hl=en&rclk=1,"25.4390246,78.58213529999999"
Raza Masjid,Mosque,"FG2R+W37 Raza Masjid, Nandanpura, Taj Compound, Jhansi, Uttar Pradesh 284003","Nandanpura, Taj Compound",FG2R+W37,Jhansi,284003,Uttar Pradesh,IN,https://www.google.com/maps/place/Raza+Masjid/data=!4m7!3m6!1s0x3977714a863a870b:0x92ee20e064349241!8m2!3d25.4522989!4d78.5401753!16s%2Fg%2F11g4ctdlq5!19sChIJC4c6hkpxdzkRQZI0ZOAg7pI?authuser=0&hl=en&rclk=1,"25.4522989,78.5401753"
Darmiyani Masjid,Mosque,"CGJR+W9V Darmiyani Masjid, imambada, Prem Nagar, Nagra, Uttar Pradesh","Prem Nagar, Heerapura, Nagra","CGJR+W9V, imambada","Jhansi, Jhansi Rly. Settl",,Uttar Pradesh,IN,https://www.google.com/maps/place/Darmiyani+Masjid/data=!4m7!3m6!1s0x397771ff95fb741f:0x9a38e4a430548ea4!8m2!3d25.4323691!4d78.5409185!16s%2Fg%2F11f6csrzmr!19sChIJH3T7lf9xdzkRpI5UMKTkOJo?authuser=0&hl=en&rclk=1,"25.4323691,78.54091849999999"
Lal masjid,Mosque,"Lal masjid, singal pura, Prem Ganj, Sipri Bazar, Jhansi, Uttar Pradesh 284003","Prem Ganj, Sipri Bazar",singal pura,Jhansi,284003,Uttar Pradesh,IN,https://www.google.com/maps/place/Lal+masjid/data=!4m7!3m6!1s0x397771a97a69514d:0xf4192a49b7b95826!8m2!3d25.4600625!4d78.5504375!16s%2Fg%2F11t2y8s74g!19sChIJTVFpeqlxdzkRJli5t0kqGfQ?authuser=0&hl=en&rclk=1,"25.4600625,78.5504375"
Masjid Tahsil Tabligh,Mosque,"FH4C+QMG Masjid Tahsil Tabligh, Loha Mandi, Jhansi, Uttar Pradesh 284002",Loha Mandi,FH4C+QMG,Jhansi,284002,Uttar Pradesh,IN,https://www.google.com/maps/place/Masjid+Tahsil+Tabligh/data=!4m7!3m6!1s0x397777fcd01d2fa9:0x363ed750641cfb6a!8m2!3d25.4569413!4d78.5716982!16s%2Fg%2F11q_nvyjmk!19sChIJqS8d0Px3dzkRavscZFDXPjY?authuser=0&hl=en&rclk=1,"25.4569413,78.5716982"
mohmmaadiyaa msjid,Mosque,"CJG3+5MG mohmmaadiyaa msjid, Bhatta Gaon, Jhansi, Uttar Pradesh 284127",Bhatta Gaon,CJG3+5MG,Jhansi,284127,Uttar Pradesh,IN,https://www.google.com/maps/place/%E0%A4%AE%E0%A5%8B%E0%A4%B9%E0%A4%AE%E0%A5%8D%E0%A4%AE%E0%A4%BE%E0%A4%A6%E0%A4%BF%E0%A4%AF%E0%A4%BE+%E0%A4%AE%E0%A4%B8%E0%A5%8D%E0%A4%9C%E0%A4%BF%E0%A4%A6/data=!4m7!3m6!1s0x397777d69e67e80d:0x9fa9e82a60b701a1!8m2!3d25.4254492!4d78.6041974!16s%2Fg%2F11k4l5jzc3!19sChIJDehnntZ3dzkRoQG3YCroqZ8?authuser=0&hl=en&rclk=1,"25.4254492,78.60419739999999"
Imambargah Sayed Furkan Haidar(saiyd ph'urkaan haidr),Mosque,"FH9H+8CW Imambargah Sayed Furkan Haidar(saiyd ph'urkaan haidr), Unnaogate, Purana Sahar, Jhansi, Uttar Pradesh 284002","Unnaogate, Purana Sahar",FH9H+8CW,Jhansi,284002,Uttar Pradesh,IN,https://www.google.com/maps/place/Imambargah+Sayed+Furkan+Haidar%28%E0%A4%B8%E0%A5%88%E0%A4%AF%E0%A4%A6+%E0%A4%AB%E0%A4%BC%E0%A5%81%E0%A4%B0%E0%A4%95%E0%A4%BE%E0%A4%A8+%E0%A4%B9%E0%A5%88%E0%A4%A6%E0%A4%B0%29/data=!4m7!3m6!1s0x397777cd75a42255:0xd1b5c68ff35699ee!8m2!3d25.4683701!4d78.5785769!16s%2Fg%2F11hwxhgrgb!19sChIJVSKkdc13dzkR7plW84_GtdE?authuser=0&hl=en&rclk=1,"25.468370099999998,78.5785769"
Imambargah Sayed Gulam Abbas(Fauji Bhai),Mosque,"CHXV+RQ3 Imambargah Sayed Gulam Abbas(Fauji Bhai), Kanpur Road, near R.T.O Office, Shivaji Nagar, Jhansi, Uttar Pradesh 284002",Shivaji Nagar,"CHXV+RQ3, Kanpur Road, near R.T.O Office",Jhansi,284002,Uttar Pradesh,IN,https://www.google.com/maps/place/Imambargah+Sayed+Gulam+Abbas%28Fauji+Bhai%29/data=!4m7!3m6!1s0x39777770577ce5f3:0x98626eeff1d63d0d!8m2!3d25.4495155!4d78.5944175!16s%2Fg%2F11m89btjz7!19sChIJ8-V8V3B3dzkRDT3W8e9uYpg?authuser=0&hl=en&rclk=1,"25.4495155,78.59441749999999"
Mosque msjid,Mosque,"FH3G+JCR Mosque msjid, Jhokan Bagh, Jhansi, Uttar Pradesh 284002",Jhokan Bagh,FH3G+JCR,Jhansi,284002,Uttar Pradesh,IN,https://www.google.com/maps/place/Mosque+%E0%A4%AE%E0%A4%B8%E0%A5%8D%E0%A4%9C%E0%A4%BF%E0%A4%A6/data=!4m7!3m6!1s0x397777a31bff234d:0xb0f0b4b320f0334d!8m2!3d25.454082!4d78.5760899!16s%2Fg%2F11s79cntyq!19sChIJTSP_G6N3dzkRTTPwILO08LA?authuser=0&hl=en&rclk=1,"25.454082,78.5760899"
Masjid - msjd,Mosque,"CHWP+7JH Masjid - msjd, Talpura, Jhansi, Uttar Pradesh 284002",Talpura,CHWP+7JH,Jhansi,284002,Uttar Pradesh,IN,https://www.google.com/maps/place/Masjid+-+%D9%85%D8%B3%D8%AC%D8%AF%E2%80%AD/data=!4m7!3m6!1s0x3977773b488636eb:0xfab28b1f324f125c!8m2!3d25.4456786!4d78.5866071!16s%2Fg%2F11t7mmg0c6!19sChIJ6zaGSDt3dzkRXBJPMh-Lsvo?authuser=0&hl=en&rclk=1,"25.445678599999997,78.5866071"
Masjid,Mosque,"CHX9+99G Masjid, Prathvipur, Civil Lines, Jhansi, Uttar Pradesh 284001","Prathvipur, Civil Lines",CHX9+99G,Jhansi,,Uttar Pradesh,IN,https://www.google.com/maps/place/Masjid/data=!4m7!3m6!1s0x39777706b25b4603:0x75f0fe32c4ec0c94!8m2!3d25.4484257!4d78.5684594!16s%2Fg%2F11kb4p027f!19sChIJA0ZbsgZ3dzkRlAzsxDL-8HU?authuser=0&hl=en&rclk=1,"25.448425699999998,78.5684594"
Masjid Kausar,Mosque,"FH9C+3P6 Masjid Kausar, Datia Gate Area, Jhansi, Uttar Pradesh 284002",Datia Gate Area,FH9C+3P6,Jhansi,284002,Uttar Pradesh,IN,https://www.google.com/maps/place/Masjid+Kausar/data=!4m7!3m6!1s0x397776cc1fd70f07:0xe51b9c01ff9995ef!8m2!3d25.467664!4d78.57175!16s%2Fg%2F11g01s5g97!19sChIJBw_XH8x2dzkR75WZ_wGcG-U?authuser=0&hl=en&rclk=1,"25.467664,78.57175"
Masjid Mansuryan,Mosque,"Masjid Mansuryan, Itwariganj, Jhansi, Uttar Pradesh","Prathvipur, Civil Lines",Itwariganj,Jhansi,,Uttar Pradesh,IN,https://www.google.com/maps/place/Masjid+Mansuryan/data=!4m7!3m6!1s0x3977772afdb72d93:0x3decc66fadf2e355!8m2!3d25.4484256!4d78.5684594!16s%2Fg%2F11h9rwgj6h!19sChIJky23_Sp3dzkRVePyrW_G7D0?authuser=0&hl=en&rclk=1,"25.4484256,78.5684594"
Masjid Aqsa (DATIA GATE),Mosque,"FH8C+JX6 Masjid Aqsa (DATIA GATE), Datia Gate Area, Jhansi, Uttar Pradesh 284002",Datia Gate Area,FH8C+JX6,Jhansi,284002,Uttar Pradesh,IN,https://www.google.com/maps/place/Masjid+Aqsa+%28DATIA+GATE%29/data=!4m7!3m6!1s0x397777cf511aedaf:0xd0a61a50c4937a0!8m2!3d25.4665325!4d78.5724045!16s%2Fg%2F11kqhws_kh!19sChIJr-0aUc93dzkRoDdJDKVhCg0?authuser=0&hl=en&rclk=1,"25.4665325,78.57240449999999"
Masjid Fatima,Mosque,"Masjid Fatima, super colony, o/s, Datia Gate Area, Jhansi, Uttar Pradesh 284002",Datia Gate Area,"super colony, o/s",Jhansi,284002,Uttar Pradesh,IN,https://www.google.com/maps/place/Masjid+Fatima/data=!4m7!3m6!1s0x397777a989b342dd:0x18b5dd58cf094bfd!8m2!3d25.4725875!4d78.5750469!16s%2Fg%2F11pz4hycpn!19sChIJ3UKzial3dzkR_UsJz1jdtRg?authuser=0&hl=en&rclk=1,"25.4725875,78.57504689999999"
Ahl-e-Sunnah masjid,Mosque,"CHWQ+Q8H Ahl-e-Sunnah masjid, Unnamed Road, Talpura, Jhansi, Uttar Pradesh 284002",Talpura,"CHWQ+Q8H, Unnamed Road",Jhansi,284002,Uttar Pradesh,IN,https://www.google.com/maps/place/Ahl-e-Sunnah+masjid/data=!4m7!3m6!1s0x3977772e7fb4de77:0x568468adf39b30b0!8m2!3d25.4469301!4d78.5883524!16s%2Fg%2F11fnvbzzvh!19sChIJd960fy53dzkRsDCb861ohFY?authuser=0&hl=en&rclk=1,"25.4469301,78.58835239999999"
Imambargah Sayed Irshad Husain Naqvi,Mosque,"83, Imambargah Sayed Irshad Husain Naqvi, 1, Awas Vikas, Sangam Vihar, Jhansi, Uttar Pradesh 284003","Awas Vikas, Sangam Vihar","83, 1",Jhansi,284003,Uttar Pradesh,IN,https://www.google.com/maps/place/Imambargah+Sayed+Irshad+Husain+Naqvi/data=!4m7!3m6!1s0x3977710ea2b74657:0x6b3ea3834fedc54f!8m2!3d25.4534301!4d78.5300413!16s%2Fg%2F11lfh8sgzn!19sChIJV0a3og5xdzkRT8XtT4OjPms?authuser=0&hl=en&rclk=1,"25.4534301,78.5300413"
Hazrat shah mazar,Mosque,"Hazrat shah mazar, 97, islam ganj, Jhansi, Uttar Pradesh 284003",islam ganj,97,Jhansi,284003,Uttar Pradesh,IN,https://www.google.com/maps/place/Hazrat+shah+mazar/data=!4m7!3m6!1s0x3977774e975aaa3f:0x4941f2834feedb56!8m2!3d25.4350778!4d78.5736736!16s%2Fg%2F11h4g2_dx1!19sChIJP6pal053dzkRVtvuT4PyQUk?authuser=0&hl=en&rclk=1,"25.4350778,78.57367359999999"
Shiya masjid,Place of worship,"Shiya masjid, Mewati pura inside unnao gate, Uttar Pradesh 284002",Purana Sahar,Mewati pura inside unnao gate,Jhansi,284002,Uttar Pradesh,IN,https://www.google.com/maps/place/Shiya+masjid/data=!4m7!3m6!1s0x397777e22387c9e9:0xbb47682711df9266!8m2!3d25.4681155!4d78.5785322!16s%2Fg%2F11pf2q9d8b!19sChIJ6cmHI-J3dzkRZpLfESdoR7s?authuser=0&hl=en&rclk=1,"25.4681155,78.5785322"
Akram ali,Mosque,"FH62+5JG Akram ali, Prem Ganj, Sipri Bazar, Jhansi, Uttar Pradesh 284003","Prem Ganj, Sipri Bazar",FH62+5JG,Jhansi,284003,Uttar Pradesh,IN,https://www.google.com/maps/place/Akram+ali/data=!4m7!3m6!1s0x397771b9ae2f1037:0x3d2b80e8a209fa16!8m2!3d25.4604466!4d78.5515725!16s%2Fg%2F11py_5l60b!19sChIJNxAvrrlxdzkRFvoJouiAKz0?authuser=0&hl=en&rclk=1,"25.460446599999997,78.55157249999999"
Mosque,Mosque,"FG2H+V69 Mosque, Sangam Vihar, Jhansi, Uttar Pradesh 284003",Sangam Vihar,FG2H+V69,Jhansi,284003,Uttar Pradesh,IN,https://www.google.com/maps/place/Mosque/data=!4m7!3m6!1s0x397771acf5a8a841:0x58fde3d34339638e!8m2!3d25.4521735!4d78.5281042!16s%2Fg%2F11vlk0pntq!19sChIJQaio9axxdzkRjmM5Q9Pj_Vg?authuser=0&hl=en&rclk=1,"25.452173499999997,78.5281042"
