name,main_category,address,address_ward,address_street,address_city,address_postal_code,address_state,address_country_code,link,coordinates
Gurudwara Sis Ganj Sahib,Gurudwara,"M64M+92V Gurudwara Sis Ganj Sahib, Chandni Chowk Rd, Maliwara, Chatta Pratap, Chandni Chowk, New Delhi, Delhi, 110006","Maliwara, Chatta Pratap, Chandni Chowk","M64M+92V, Chandni Chowk Rd","New Delhi, Delhi",110006,Delhi,IN,https://www.google.com/maps/place/Gurudwara+Sis+Ganj+Sahib/data=!4m7!3m6!1s0x390cfd1baf5397b9:0x9d337afc1acad068!8m2!3d28.6559878!4d77.2325614!16s%2Fg%2F1jljyf3db!19sChIJuZdTrxv9DDkRaNDKGvx6M50?authuser=0&hl=en&rclk=1,"28.6559878,77.2325614"
Jama Masjid,Mosque,"Jama Masjid, Old Delhi, Delhi, 110006","Jama Masjid, Old Delhi",,Delhi,110006,Delhi,IN,https://www.google.com/maps/place/Jama+Masjid/data=!4m7!3m6!1s0x390cfd18df89b215:0xdd57369e29bf9d96!8m2!3d28.6506792!4d77.2334421!16zL20vMDR5emo1!19sChIJFbKJ3xj9DDkRlp2_KZ42V90?authuser=0&hl=en&rclk=1,"28.6506792,77.23344209999999"
excel photography nabeel,Photography studio,"excel photography nabeel, 4368 Shahganj Shahganj Dari wali masjid, New Delhi, Delhi 110006","Bazar Sirkiwalan, Kaccha Pandit Main Bazar, Hauz Qazi, Chandni Chowk",4368 Shahganj Shahganj Dari wali masjid,"New Delhi, Delhi",110006,Delhi,IN,https://www.google.com/maps/place/excel+photography+nabeel/data=!4m7!3m6!1s0x390cfdd87acaa425:0x24dbdd79fa7de0e8!8m2!3d28.6493744!4d77.2248087!16s%2Fg%2F11fqyrp70h!19sChIJJaTKetj9DDkR6OB9-nnd2yQ?authuser=0&hl=en&rclk=1,"28.6493744,77.2248087"
N S engineers,Electrical equipment supplier,"N S engineers, 3767, Gali masjid wali Shahganj chowk, near ajmeri gate, Delhi, 110006","Shah Ganj, Chandni Chowk","3767, Gali masjid wali Shahganj chowk, near ajmeri gate",Delhi,110006,Delhi,IN,https://www.google.com/maps/place/N+S+engineers/data=!4m7!3m6!1s0x390cfd09e9616945:0x10f74673fd901ba5!8m2!3d28.6503806!4d77.2225856!16s%2Fg%2F11j4jb2my6!19sChIJRWlh6Qn9DDkRpRuQ_XNG9xA?authuser=0&hl=en&rclk=1,"28.6503806,77.2225856"
Shahganj Masjid,Mosque,"Shahganj Masjid, Trilok Plaza, Sarafa Rd, Mahavir Chowk, Shahgunj, Aurangabad, Maharashtra 431001","Mahavir Chowk, Shahgunj","Trilok Plaza, Sarafa Rd",Aurangabad,431001,Maharashtra,IN,https://www.google.com/maps/place/Shahganj+Masjid/data=!4m7!3m6!1s0x3bdb980c7605cd0f:0xf0ef833db98a8ab1!8m2!3d19.8871954!4d75.3349619!16s%2Fg%2F11c0wf0p05!19sChIJD80FdgyY2zsRsYqKuT2D7_A?authuser=0&hl=en&rclk=1,"19.8871954,75.3349619"
Sabz Masjid,Mosque,"Sabz Masjid, 3571, Lalkuan Bazar Rd, Bazar Sirkiwalan, Lal Kuan Bazar, Chandni Chowk, Delhi, 110006","Bazar Sirkiwalan, Lal Kuan Bazar, Chandni Chowk","3571, Lalkuan Bazar Rd",Delhi,110006,Delhi,IN,https://www.google.com/maps/place/Sabz+Masjid/data=!4m7!3m6!1s0x390cfd16a94877a7:0x7b35bb653cd42e20!8m2!3d28.652163!4d77.223599!16s%2Fm%2F04q247t!19sChIJp3dIqRb9DDkRIC7UPGW7NXs?authuser=0&hl=en&rclk=1,"28.652162999999998,77.223599"
Imam Bada Asafi Masjid,Mosque,"VW52+9XV Imam Bada Asafi Masjid, Mohalla Kalbay Abeed Road, Mohalla Kalbay Abeed Road, Lucknow, Yusuf Geel House, Kashmiri Mohallah Rd, Lucknow, Uttar Pradesh 226003",Shahganj,"VW52+9XV, Mohalla Kalbay Abeed Road, Mohalla Kalbay Abeed Road, Lucknow, Yusuf Geel House, Kashmiri Mohallah Rd",Lucknow,226003,Uttar Pradesh,IN,https://www.google.com/maps/place/Imam+Bada+Asafi+Masjid/data=!4m7!3m6!1s0x399bfde0eec95129:0x8e143e424fa9cc1a!8m2!3d26.8584915!4d80.9024358!16s%2Fg%2F1tgpwlxq!19sChIJKVHJ7uD9mzkRGsypT0I-FI4?authuser=0&hl=en&rclk=1,"26.8584915,80.90243579999999"
Masjid E Kufa msjd,Mosque,"VV4W+8J3 Masjid E Kufa msjd, Triveni Ganj, Shahganj, Lucknow, Uttar Pradesh 226003","Triveni Ganj, Shahganj",VV4W+8J3,Lucknow,226003,Uttar Pradesh,IN,https://www.google.com/maps/place/Masjid+E+Kufa+%D9%85%D8%B3%D8%AC%D8%AF%E2%80%AD/data=!4m7!3m6!1s0x399bfe7531dd6dd1:0xa6ab375dd5470d32!8m2!3d26.8557502!4d80.8965607!16s%2Fg%2F11bx9d62t7!19sChIJ0W3dMXX-mzkRMg1H1V03q6Y?authuser=0&hl=en&rclk=1,"26.8557502,80.8965607"
Anjuman Markaz Masjid Shahganj,Mosque,"3M2M+W3M Anjuman Markaz Masjid Shahganj, Harlalka Rd, Shahganj, Uttar Pradesh 223101",,"3M2M+W3M, Harlalka Rd",Shahganj,223101,Uttar Pradesh,IN,https://www.google.com/maps/place/Anjuman+Markaz+Masjid+Shahganj/data=!4m7!3m6!1s0x39905b2e68f57e31:0x5bda499568a98005!8m2!3d26.0523299!4d82.6826763!16s%2Fg%2F1hc63p5v5!19sChIJMX71aC5bkDkRBYCpaJVJ2ls?authuser=0&hl=en&rclk=1,"26.0523299,82.6826763"
Masjid Maqbara Iradatullah,Mosque,"M62C+JQX Masjid Maqbara Iradatullah, Rodgran,, Lal Kuan Bazar, Chandni Chowk, New Delhi, Delhi 110006","Lal Kuan Bazar, Chandni Chowk","M62C+JQX, Rodgran,","New Delhi, Delhi",110006,Delhi,IN,https://www.google.com/maps/place/Masjid+Maqbara+Iradatullah/data=!4m7!3m6!1s0x390cfd1413ef8593:0x1b323557db72f5ba!8m2!3d28.6516069!4d77.2219999!16s%2Fg%2F11clk_bbp5!19sChIJk4XvExT9DDkRuvVy21c1Mhs?authuser=0&hl=en&rclk=1,"28.651606899999997,77.2219999"
IMAM BADA MUSHEER ALAM SAHAB (Shia Masjid),Mosque,"VW54+C66 IMAM BADA MUSHEER ALAM SAHAB (Shia Masjid), new nakkhas market,near puri gas agency, Uttar Pradesh 226003",Shahganj,"VW54+C66, new nakkhas market,near puri gas agency",Lucknow,226003,Uttar Pradesh,IN,https://www.google.com/maps/place/IMAM+BADA+MUSHEER+ALAM+SAHAB+%28Shia+Masjid%29/data=!4m7!3m6!1s0x399bfd38ee167623:0x646b511f9c00317c!8m2!3d26.8585449!4d80.9055092!16s%2Fg%2F11gxyg9y2r!19sChIJI3YW7jj9mzkRfDEAnB9Ra2Q?authuser=0&hl=en&rclk=1,"26.8585449,80.9055092"
Husheni Masjid,Mosque,"5XQ3+HQJ Husheni Masjid, Rahul Nagar, Bodla, Foundry Nagar, Agra, Uttar Pradesh 282007","Rahul Nagar, Bodla, Foundry Nagar",5XQ3+HQJ,Agra,,Uttar Pradesh,IN,https://www.google.com/maps/place/Husheni+Masjid/data=!4m7!3m6!1s0x397477bef8fe6433:0x8671c995a14ac69e!8m2!3d27.1889534!4d77.9543938!16s%2Fg%2F11bxdvf4vq!19sChIJM2T--L53dDkRnsZKoZXJcYY?authuser=0&hl=en&rclk=1,"27.1889534,77.95439379999999"
Madina Masjid,Mosque,"5XG7+F9H Madina Masjid, Balaji Puram, Shahganj, Agra, Uttar Pradesh 282010","Balaji Puram, Shahganj",5XG7+F9H,Agra,282010,Uttar Pradesh,IN,https://www.google.com/maps/place/Madina+Masjid/data=!4m7!3m6!1s0x397477ae11fa3b2f:0xc713c2507776c8be!8m2!3d27.176198!4d77.9634891!16s%2Fg%2F11bwp67zyn!19sChIJLzv6Ea53dDkRvsh2d1DCE8c?authuser=0&hl=en&rclk=1,"27.176198,77.96348909999999"
Bhadi Masjid.,Mosque,"3M3R+4CG Bhadi Masjid., Bhadi Rd, Shahganj, Uttar Pradesh 223101",,"3M3R+4CG, Bhadi Rd",Shahganj,223101,Uttar Pradesh,IN,https://www.google.com/maps/place/Bhadi+Masjid./data=!4m7!3m6!1s0x39905b29e70fdee3:0xde6f04dec0c664a!8m2!3d26.0528194!4d82.6910769!16s%2Fg%2F1hf2j0wmh!19sChIJ494P5ylbkDkRSmYM7E3w5g0?authuser=0&hl=en&rclk=1,"26.052819399999997,82.6910769"
Ek Minar Masjid,Mosque,"5XHC+676 Ek Minar Masjid, Bypass Rd, Shaker Garh Ki Pulia, Balaji Puram, Shahganj, Agra, Uttar Pradesh 282010","Shaker Garh Ki Pulia, Balaji Puram, Shahganj","5XHC+676, Bypass Rd",Agra,282010,Uttar Pradesh,IN,https://www.google.com/maps/place/Ek+Minar+Masjid/data=!4m7!3m6!1s0x397477a9092b577f:0xf1f60401f09f392d!8m2!3d27.178026!4d77.9706556!16s%2Fg%2F1q69wzycs!19sChIJf1crCal3dDkRLTmf8AEE9vE?authuser=0&hl=en&rclk=1,"27.178026,77.9706556"
Iraqiyana Masjid,Mosque,"2MXP+53G Iraqiyana Masjid, Shahganj, Uttar Pradesh 223101",,2MXP+53G,Shahganj,223101,Uttar Pradesh,IN,https://www.google.com/maps/place/Iraqiyana+Masjid/data=!4m7!3m6!1s0x39905b2c89441715:0x34b8bc18f39462cc!8m2!3d26.0479306!4d82.6851926!16s%2Fg%2F11f10g161k!19sChIJFRdEiSxbkDkRzGKU8xi8uDQ?authuser=0&hl=en&rclk=1,"26.047930599999997,82.6851926"
N. S. Masjid Board,Religious goods store,"N. S. Masjid Board, 2188 Rodgran, Lal Kuan Bazar, Chawri Bazar, Delhi 110006","Lal Kuan Bazar, Chandni Chowk",2188 Rodgran,"Chawri Bazar, Delhi",110006,Delhi,IN,https://www.google.com/maps/place/N.+S.+Masjid+Board/data=!4m7!3m6!1s0x390cfd147135d4fb:0xbcf6ee0d513ec181!8m2!3d28.6520197!4d77.2214485!16s%2Fg%2F11bv2gqlj8!19sChIJ-9Q1cRT9DDkRgcE-UQ3u9rw?authuser=0&hl=en&rclk=1,"28.6520197,77.2214485"
Masjid khalid ibn waleed,Mosque,"2MGW+2QJ Masjid khalid ibn waleed, Shahganj Tehsil, Sabrahad, Jaunpur, Uttar Pradesh 223101",Sabrahad,"2MGW+2QJ, Shahganj Tehsil",Jaunpur,223101,Uttar Pradesh,IN,https://www.google.com/maps/place/Masjid+khalid+ibn+waleed/data=!4m7!3m6!1s0x39904521808f5d01:0x4fa22390cbf91d8a!8m2!3d26.0250799!4d82.6968783!16s%2Fg%2F11csqgpc_r!19sChIJAV2PgCFFkDkRih35y5Ajok8?authuser=0&hl=en&rclk=1,"26.025079899999998,82.6968783"
Al-A-Ilahi Masjid,Mosque,"J6XC+VMP Al-A-Ilahi Masjid, Fasil Rd, Gali Sakko Wali, Shah Ganj, Chandni Chowk, New Delhi, Delhi, 110006","Gali Sakko Wali, Shah Ganj, Chandni Chowk","J6XC+VMP, Fasil Rd","New Delhi, Delhi",110006,Delhi,IN,https://www.google.com/maps/place/Al-A-Ilahi+Masjid/data=!4m7!3m6!1s0x390cfd144b2f1879:0x6a90cc9e1fffff1c!8m2!3d28.6497054!4d77.2217103!16s%2Fg%2F1hm31vk15!19sChIJeRgvSxT9DDkRHP__H57MkGo?authuser=0&hl=en&rclk=1,"28.6497054,77.2217103"
Jama Masjid,Mosque,"Jama Masjid, Shahganj Road, Belatand, Shahganj, Uttar Pradesh 223101",,Shahganj Road,"Belatand, Shahganj",223101,Uttar Pradesh,IN,https://www.google.com/maps/place/Jama+Masjid/data=!4m7!3m6!1s0x39905b31e152bb79:0x7779c7f70101f9d0!8m2!3d26.0520769!4d82.680477!16s%2Fg%2F11c454xt1h!19sChIJebtS4TFbkDkR0PkBAffHeXc?authuser=0&hl=en&rclk=1,"26.0520769,82.680477"
Masjid Subhani,Mosque,"2MXM+79P Masjid Subhani, Erakiyana chowk, Shahganj, Uttar Pradesh",,"2MXM+79P, Erakiyana chowk",Shahganj,,Uttar Pradesh,IN,https://www.google.com/maps/place/Masjid+Subhani/data=!4m7!3m6!1s0x39905b2c55430d55:0xa2fc2b27ded6aa2d!8m2!3d26.0482009!4d82.6834383!16s%2Fg%2F11byzmxls2!19sChIJVQ1DVSxbkDkRLarW3icr_KI?authuser=0&hl=en&rclk=1,"26.048200899999998,82.68343829999999"
Masjid Barah Khamba,Mosque,"529Q+7HF Masjid Barah Khamba, Purani Mandi, Tajganj, Agra, Uttar Pradesh 282001","Purani Mandi, Tajganj",529Q+7HF,Agra,282001,Uttar Pradesh,IN,https://www.google.com/maps/place/Masjid+Barah+Khamba/data=!4m7!3m6!1s0x39747123b8c54adf:0xfc341b475f15f6ac!8m2!3d27.1681965!4d78.0389256!16s%2Fg%2F12cpg0cb1!19sChIJ30rFuCNxdDkRrPYVX0cbNPw?authuser=0&hl=en&rclk=1,"27.1681965,78.0389256"
chowk shahganj,Cell phone store,"chowk shahganj, 3035, Mirza Ahamad Ali Marg, Gali Sakko Wali, Chawri Bazar, Old Delhi, Delhi, 110006","Gali Sakko Wali, Chawri Bazar, Old Delhi","3035, Mirza Ahamad Ali Marg",Delhi,110006,Delhi,IN,https://www.google.com/maps/place/chowk+shahganj/data=!4m7!3m6!1s0x390cfd1677ef42eb:0xabbcc13f0863b8fa!8m2!3d28.6489684!4d77.2232868!16s%2Fg%2F11b8t73dsr!19sChIJ60Lvdxb9DDkR-rhjCD_BvKs?authuser=0&hl=en&rclk=1,"28.648968399999998,77.2232868"
Jama masjid,Mosque,"P2HQ+97C Jama masjid, Shahganj, Hindaun, Rajasthan 322230",Shahganj,P2HQ+97C,Hindaun,322230,Rajasthan,IN,https://www.google.com/maps/place/Jama+masjid/data=!4m7!3m6!1s0x39722fbcb0a74da1:0x43977a226ee4b00!8m2!3d26.7284463!4d77.0381553!16s%2Fg%2F11g719fr22!19sChIJoU2nsLwvcjkRAEvuJqJ3OQQ?authuser=0&hl=en&rclk=1,"26.728446299999998,77.0381553"
Gosiya Masjid,Mosque,"5XF8+QC2 Gosiya Masjid, u p, Azam Para, Shahganj, Agra, Uttar Pradesh 282010","u p, Azam Para, Shahganj",5XF8+QC2,Agra,282010,Uttar Pradesh,IN,https://www.google.com/maps/place/Gosiya+Masjid/data=!4m7!3m6!1s0x397477ac37819705:0xa2926b50f4103280!8m2!3d27.1743999!4d77.9660053!16s%2Fg%2F11bwpvykq9!19sChIJBZeBN6x3dDkRgDIQ9FBrkqI?authuser=0&hl=en&rclk=1,"27.174399899999997,77.96600529999999"
Lodi Masjid lwdhy msjd,Mosque,"525C+7P8 Lodi Masjid lwdhy msjd, Taj Rd, Agra Cantt, Idgah Colony, Agra, Uttar Pradesh 282001","Agra Cantt, Idgah Colony","525C+7P8, Taj Rd",Agra,282001,Uttar Pradesh,IN,https://www.google.com/maps/place/Lodi+Masjid+%D9%84%D9%88%D8%AF%DA%BE%DB%8C+%D9%85%D8%B3%D8%AC%D8%AF%E2%80%AD/data=!4m7!3m6!1s0x397471337032f0dd:0x99fdc44f099b50f2!8m2!3d27.1581637!4d78.0218413!16s%2Fg%2F11b5zxw3j0!19sChIJ3fAycDNxdDkR8lCbCU_E_Zk?authuser=0&hl=en&rclk=1,"27.1581637,78.02184129999999"
Masjid Chandi Wali,Mosque,"J6XF+P3C Masjid Chandi Wali, Kucha Pandit Rd, Gali Sakko Wali, Shah Ganj, Old Delhi, New Delhi, Delhi, 110006","Gali Sakko Wali, Shah Ganj, Old Delhi","J6XF+P3C, Kucha Pandit Rd","New Delhi, Delhi",110006,Delhi,IN,https://www.google.com/maps/place/Masjid+Chandi+Wali/data=!4m7!3m6!1s0x390cfd15d1f3bf65:0x8f482c2361976a57!8m2!3d28.6493133!4d77.2226521!16s%2Fg%2F11fz6bb8hb!19sChIJZb_z0RX9DDkRV2qXYSMsSI8?authuser=0&hl=en&rclk=1,"28.6493133,77.22265209999999"
ajmerii msjid,Mosque,"5XJ7+4VW ajmerii msjid, Subhash Nagar, Kala Kunj, Shahganj, Agra, Uttar Pradesh 282010","Subhash Nagar, Kala Kunj, Shahganj",5XJ7+4VW,Agra,282010,Uttar Pradesh,IN,https://www.google.com/maps/place/%E0%A4%85%E0%A4%9C%E0%A4%AE%E0%A5%87%E0%A4%B0%E0%A5%80+%E0%A4%AE%E0%A4%B8%E0%A5%8D%E0%A4%9C%E0%A4%BF%E0%A4%A6/data=!4m7!3m6!1s0x397477af9a45ade3:0x9c04c9c328b30321!8m2!3d27.1803692!4d77.9647092!16s%2Fg%2F11hbts9bkm!19sChIJ461Fmq93dDkRIQOzKMPJBJw?authuser=0&hl=en&rclk=1,"27.180369199999998,77.9647092"
Mashooq Ali Abdul Qadar,Mosque,"Mashooq Ali Abdul Qadar, 4248, Gali Shahatara, Ajmeri Gate, Fasil Rd, Lal Kuan Bazar, Old Delhi, New Delhi, Delhi 110006","Lal Kuan Bazar, Old Delhi","4248, Gali Shahatara, Ajmeri Gate, Fasil Rd","New Delhi, Delhi",110006,Delhi,IN,https://www.google.com/maps/place/Mashooq+Ali+Abdul+Qadar/data=!4m7!3m6!1s0x390cfd1437a3ce1b:0x79f053055d76ca75!8m2!3d28.6501952!4d77.2219708!16s%2Fg%2F1tcwjyw4!19sChIJG86jNxT9DDkRdcp2XQVT8Hk?authuser=0&hl=en&rclk=1,"28.6501952,77.2219708"
Madarsa Mahad Mueen Ul Islam,Mosque,"Madarsa Mahad Mueen Ul Islam, Street-2 , Peela Khar opp.Naveen Galla Mandi, Indra Jyoti, Firozabad Road, Agra, Uttar Pradesh 282006",Trans Yamuna Colony Phase 2,"Street-2 , Peela Khar opp.Naveen Galla Mandi, Indra Jyoti, Firozabad Road",Agra,282006,Uttar Pradesh,IN,https://www.google.com/maps/place/Madarsa+Mahad+Mueen+Ul+Islam/data=!4m7!3m6!1s0x3974708e920f20e1:0xb267efdd19bc3f6d!8m2!3d27.2078477!4d78.0573745!16s%2Fg%2F11hcj2hghm!19sChIJ4SAPko5wdDkRbT-8Gd3vZ7I?authuser=0&hl=en&rclk=1,"27.2078477,78.0573745"
Masjid Bhukhari,Mosque,"52GX+Q88 Masjid Bhukhari, Dashehara Ghat Rd, Taj East Gate, Forest Colony, Tajganj, Agra, Uttar Pradesh 282001","Taj East Gate, Forest Colony, Tajganj","52GX+Q88, Dashehara Ghat Rd",Agra,282001,Uttar Pradesh,IN,https://www.google.com/maps/place/Masjid+Bhukhari/data=!4m7!3m6!1s0x397470e20081e6ed:0xdd651c913e4af9fc!8m2!3d27.1769006!4d78.048321!16s%2Fg%2F11bbwm40g5!19sChIJ7eaBAOJwdDkR_PlKPpEcZd0?authuser=0&hl=en&rclk=1,"27.1769006,78.048321"
Jama Masjid Shahganj,Mosque,"J2JR+V65 Jama Masjid Shahganj, Mubarkpur Umrani, Uttar Pradesh 224284",,J2JR+V65,Mubarkpur Umrani,224284,Uttar Pradesh,IN,https://www.google.com/maps/place/Jama+Masjid+Shahganj/data=!4m7!3m6!1s0x399a127807eeb7f9:0xbc73acdb97bf32a9!8m2!3d26.6321404!4d82.0406035!16s%2Fg%2F11f3sjxqgl!19sChIJ-bfuB3gSmjkRqTK_l9usc7w?authuser=0&hl=en&rclk=1,"26.632140399999997,82.0406035"
SHAHI JAMA MASJID,Mosque,"SHAHI JAMA MASJID, Shahganj, Bihar 841506",,,Shahganj,,Bihar,IN,https://www.google.com/maps/place/SHAHI+JAMA+MASJID/data=!4m7!3m6!1s0x3992e5c17bbb66a5:0x6cf630528a727c4a!8m2!3d26.1654922!4d84.4525364!16s%2Fg%2F11j11222tt!19sChIJpWa7e8HlkjkRSnxyilIw9mw?authuser=0&hl=en&rclk=1,"26.1654922,84.4525364"
Masjid Namrah Shahganj,Mosque,"VW43+XJX Masjid Namrah Shahganj, Shahganj, Lucknow, Uttar Pradesh 226003",Shahganj,VW43+XJX,Lucknow,226003,Uttar Pradesh,IN,https://www.google.com/maps/place/Masjid+Namrah+Shahganj/data=!4m7!3m6!1s0x399bfda05970ae33:0xe41f24bae8d37750!8m2!3d26.8574761!4d80.9041128!16s%2Fg%2F11hdjv5j3c!19sChIJM65wWaD9mzkRUHfT6LokH-Q?authuser=0&hl=en&rclk=1,"26.8574761,80.9041128"
Ghosiyan Masjid,Mosque,"J6XF+928 Ghosiyan Masjid, Garstin Baston Rd, Gali Sakko Wali, Shah Ganj, Old Delhi, New Delhi, Delhi, 110006","Gali Sakko Wali, Shah Ganj, Old Delhi","J6XF+928, Garstin Baston Rd","New Delhi, Delhi",110006,Delhi,IN,https://www.google.com/maps/place/Ghosiyan+Masjid/data=!4m7!3m6!1s0x390cfd19cb4fdef5:0x5a233f6c05fd37ea!8m2!3d28.6484192!4d77.2225897!16s%2Fg%2F11g6bkbkd_!19sChIJ9d5Pyxn9DDkR6jf9BWw_I1o?authuser=0&hl=en&rclk=1,"28.6484192,77.2225897"
Masjid Peerzadah,Mosque,"H297+6GJ Masjid Peerzadah, Shahabad, Uttar Pradesh 244922",,H297+6GJ,Shahabad,244922,Uttar Pradesh,IN,https://www.google.com/maps/place/Masjid+Peerzadah/data=!4m7!3m6!1s0x390ac161d4f68a6f:0x86baf382aff5c804!8m2!3d28.5680756!4d79.0137557!16s%2Fg%2F11g0lfdcx5!19sChIJb4r21GHBCjkRBMj1r4LzuoY?authuser=0&hl=en&rclk=1,"28.5680756,79.01375569999999"
Masjid Rehmani,Mosque,"2MXM+3M8 Masjid Rehmani, Shahganj, Uttar Pradesh 223101",,2MXM+3M8,Shahganj,223101,Uttar Pradesh,IN,https://www.google.com/maps/place/Masjid+Rehmani/data=!4m7!3m6!1s0x39905b2cf08cd86d:0x6d3424209f3dd8af!8m2!3d26.0476668!4d82.6842015!16s%2Fg%2F11b_2nklz1!19sChIJbdiM8CxbkDkRr9g9nyAkNG0?authuser=0&hl=en&rclk=1,"26.0476668,82.6842015"
Juni Masjid jwny msjd,Mosque,"2PX3+7R4 Juni Masjid jwny msjd, Baraiepur, Uttar Pradesh 223224",,2PX3+7R4,Baraiepur,223224,Uttar Pradesh,IN,https://www.google.com/maps/place/Juni+Masjid+%D8%AC%D9%88%D9%86%DB%8C+%D9%85%D8%B3%D8%AC%D8%AF%E2%80%AD/data=!4m7!3m6!1s0x39905acd1bda560b:0x2eb3c9d71865a74e!8m2!3d26.0481466!4d82.7045823!16s%2Fg%2F11bwh59x42!19sChIJC1baG81akDkRTqdlGNfJsy4?authuser=0&hl=en&rclk=1,"26.0481466,82.7045823"
"Badi Masjid, BairagDeeh",Mosque,"2PX4+9RW Badi Masjid, BairagDeeh, Baraiepur, Uttar Pradesh 223224",,2PX4+9RW,Baraiepur,223224,Uttar Pradesh,IN,"https://www.google.com/maps/place/Badi+Masjid,+BairagDeeh/data=!4m7!3m6!1s0x39905acc9a9b93f5:0xa4645d1a5ece9495!8m2!3d26.0484846!4d82.7070858!16s%2Fg%2F11bywkyxhr!19sChIJ9ZObmsxakDkRlZTOXhpdZKQ?authuser=0&hl=en&rclk=1","26.0484846,82.7070858"
Kalesh Baba Masjid,Mosque,"CRRM+HGH Kalesh Baba Masjid, Chowk, Shahganj, Prayagraj, Uttar Pradesh 211003","Shahganj, Miurabad","CRRM+HGH, Chowk",Prayagraj,211003,Uttar Pradesh,IN,https://www.google.com/maps/place/Kalesh+Baba+Masjid/data=!4m7!3m6!1s0x399acacdfd9b8d7b:0xe44d325d4a8fb777!8m2!3d25.441437!4d81.833854!16s%2Fg%2F11byp5xv79!19sChIJe42b_c3KmjkRd7ePSl0yTeQ?authuser=0&hl=en&rclk=1,"25.441437,81.833854"
Masjid,Mosque,"Masjid, 19/111-A, Lohamandi, 19/111-A, Lohamandi Rd, Lohamandi, Hasanpur, Jaipur House Colony, Agra, Uttar Pradesh 282010","Lohamandi, Hasanpur, Jaipur House Colony","19/111-A, Lohamandi, 19/111-A, Lohamandi Rd",Agra,282010,Uttar Pradesh,IN,https://www.google.com/maps/place/Masjid/data=!4m7!3m6!1s0x39747710920e9c95:0xd35a5f64c5c58d29!8m2!3d27.1845184!4d77.9888811!16s%2Fg%2F11dz2r0mmn!19sChIJlZwOkhB3dDkRKY3FxWRfWtM?authuser=0&hl=en&rclk=1,"27.184518399999998,77.9888811"
Masjid Bhool,Mosque,"3M4J+763 Masjid Bhool, Shahganj, Uttar Pradesh 223101",,3M4J+763,Shahganj,223101,Uttar Pradesh,IN,https://www.google.com/maps/place/Masjid+Bhool/data=!4m7!3m6!1s0x39905b301e8d88f5:0x2dcbeef735ff3f64!8m2!3d26.055629!4d82.6805571!16s%2Fg%2F11c30w64nh!19sChIJ9YiNHjBbkDkRZD__Nffuyy0?authuser=0&hl=en&rclk=1,"26.055629,82.6805571"
Maidan Wali Masjid,Mosque,"M62F+R2M Maidan Wali Masjid, Rodgran,, Lal Kuan Bazar, Chandni Chowk, Delhi, 110006","Lal Kuan Bazar, Chandni Chowk","M62F+R2M, Rodgran,",Delhi,110006,Delhi,IN,https://www.google.com/maps/place/Maidan+Wali+Masjid/data=!4m7!3m6!1s0x390cfd140f7a508d:0x560a8b02a3124bce!8m2!3d28.6520963!4d77.2225318!16s%2Fg%2F11clkwlqtz!19sChIJjVB6DxT9DDkRzksSowKLClY?authuser=0&hl=en&rclk=1,"28.6520963,77.2225318"
Rahmani Masjid,Mosque,"Rahmani Masjid, 4-A/907, New Azapara, Shahganj, Agra, Uttar Pradesh 282010","New Azapara, Shahganj",4-A/907,Agra,282010,Uttar Pradesh,IN,https://www.google.com/maps/place/Rahmani+Masjid/data=!4m7!3m6!1s0x397477adc33555a1:0xdb8f9a8252065f6b!8m2!3d27.1747302!4d77.9640434!16s%2Fg%2F11fy4rm76b!19sChIJoVU1w613dDkRa18GUoKaj9s?authuser=0&hl=en&rclk=1,"27.1747302,77.9640434"
Masjid ali bodla,Mosque,"5XP6+HF3 Masjid ali bodla, Gular Ka Nagla, Shahganj, Agra, Uttar Pradesh 282010","Gular Ka Nagla, Shahganj",5XP6+HF3,Agra,282010,Uttar Pradesh,IN,https://www.google.com/maps/place/Masjid+ali+bodla/data=!4m7!3m6!1s0x397477bb5c3a0a29:0xc3f8803f060c4592!8m2!3d27.1863827!4d77.9611581!16s%2Fg%2F11cm6wgh0l!19sChIJKQo6XLt3dDkRkkUMBj-A-MM?authuser=0&hl=en&rclk=1,"27.1863827,77.96115809999999"
Masjid,Mosque,"52J2+9CX Masjid, Panchkuiyan Road, Syed Ali Nabi Rd, Panchkuian, Rakabganj, Agra, Uttar Pradesh 282010","Panchkuian, Rakabganj","52J2+9CX, Panchkuiyan Road, Syed Ali Nabi Rd",Agra,282010,Uttar Pradesh,IN,https://www.google.com/maps/place/Masjid/data=!4m7!3m6!1s0x3974772398492a7d:0xb4912375da8d7555!8m2!3d27.1809759!4d78.0011226!16s%2Fg%2F1q6j8vzh1!19sChIJfSpJmCN3dDkRVXWN2nUjkbQ?authuser=0&hl=en&rclk=1,"27.1809759,78.0011226"
mohammadi masjid,Mosque,"5XQ3+Q4W mohammadi masjid, Agra, Uttar Pradesh 282007",,5XQ3+Q4W,Agra,282007,Uttar Pradesh,IN,https://www.google.com/maps/place/mohammadi+masjid/data=!4m7!3m6!1s0x397477bfa4704e07:0xc70b422ebd575340!8m2!3d27.1894783!4d77.9528421!16s%2Fg%2F11c60mg0j2!19sChIJB05wpL93dDkRQFNXvS5CC8c?authuser=0&hl=en&rclk=1,"27.189478299999998,77.9528421"
Shishu Vatika,Park,"Shishu Vatika, 1666, Shahganj Rd, Lal Kuan Bazar, Chandni Chowk, New Delhi, Delhi, 110006","Lal Kuan Bazar, Chandni Chowk","1666, Shahganj Rd","New Delhi, Delhi",110006,Delhi,IN,https://www.google.com/maps/place/Shishu+Vatika/data=!4m7!3m6!1s0x390cfd53c3c0fa1d:0xab7febd2899b8e5a!8m2!3d28.652296!4d77.2214138!16s%2Fg%2F11srhbdqlp!19sChIJHfrAw1P9DDkRWo6bidLrf6s?authuser=0&hl=en&rclk=1,"28.652296,77.2214138"
Masjid Usmania Akbari Gate,Mosque,"VW54+QMX Masjid Usmania Akbari Gate, Hakim Abdul Aziz Rd, Shahganj, Lucknow, Uttar Pradesh 226003",Shahganj,"VW54+QMX, Hakim Abdul Aziz Rd",Lucknow,226003,Uttar Pradesh,IN,https://www.google.com/maps/place/Masjid+Usmania+Akbari+Gate/data=!4m7!3m6!1s0x399bfdbc3ecfa685:0xb66f50f98378fc42!8m2!3d26.859487!4d80.906732!16s%2Fg%2F11ghh9fnfz!19sChIJhabPPrz9mzkRQvx4g_lQb7Y?authuser=0&hl=en&rclk=1,"26.859486999999998,80.90673199999999"
Juni Masjid,Mosque,"2MXJ+PFW Juni Masjid, Shahganj, Uttar Pradesh 223101",,2MXJ+PFW,Shahganj,223101,Uttar Pradesh,IN,https://www.google.com/maps/place/Juni+Masjid/data=!4m7!3m6!1s0x39905b2d8d023561:0x42bbf316c06b6bdf!8m2!3d26.0493535!4d82.6812104!16s%2Fg%2F11bwflzvs0!19sChIJYTUCjS1bkDkR32trwBbzu0I?authuser=0&hl=en&rclk=1,"26.0493535,82.6812104"
Badi Masjid O Madarsa,Religious institution,"Badi Masjid O Madarsa, Shahganj, Uttar Pradesh 223101",,,Shahganj,223101,Uttar Pradesh,IN,https://www.google.com/maps/place/Badi+Masjid+O+Madarsa/data=!4m7!3m6!1s0x39905b31e3d6e0a7:0x1b6582a806a6ae6c!8m2!3d26.0519526!4d82.6806615!16s%2Fg%2F11b66snvj5!19sChIJp-DW4zFbkDkRbK6mBqiCZRs?authuser=0&hl=en&rclk=1,"26.0519526,82.6806615"
Masjid Namra,Mosque,"3M4J+WMC Masjid Namra, Bhatiyari sarai, Shahganj, Uttar Pradesh 223101",Bhatiyari sarai,3M4J+WMC,Shahganj,223101,Uttar Pradesh,IN,https://www.google.com/maps/place/Masjid+Namra/data=!4m7!3m6!1s0x39905be01d543aa1:0x296c83acd560110d!8m2!3d26.057307!4d82.6816478!16s%2Fg%2F11g0l44152!19sChIJoTpUHeBbkDkRDRFg1ayDbCk?authuser=0&hl=en&rclk=1,"26.057306999999998,82.6816478"
Masjid Hanfia,Mosque,"M62C+CGX Masjid Hanfia, Shah Ganj, Chandni Chowk, New Delhi, Delhi 110006","Shah Ganj, Chandni Chowk","M62C+CGX, Shah Ganj, Chandni Chowk","New Delhi, Delhi",110006,Delhi,IN,https://www.google.com/maps/place/Masjid+Hanfia/data=!4m7!3m6!1s0x390cfd1469a3305f:0x213f98caa9a89533!8m2!3d28.6511199!4d77.22137!16s%2Fg%2F11gf8gfs_2!19sChIJXzCjaRT9DDkRM5WoqcqYPyE?authuser=0&hl=en&rclk=1,"28.651119899999998,77.22137"
Masjid,Mosque,"Masjid, 2508, Fasil Rd, Gali Sakko Wali, Shah Ganj, Chandni Chowk, New Delhi, Delhi, 110006","Gali Sakko Wali, Shah Ganj, Chandni Chowk","2508, Fasil Rd","New Delhi, Delhi",110006,Delhi,IN,https://www.google.com/maps/place/Masjid/data=!4m7!3m6!1s0x390cfd15c9a8a4b1:0xf975aada141da03e!8m2!3d28.6491552!4d77.2220471!16s%2Fg%2F1hm4gjxkd!19sChIJsaSoyRX9DDkRPqAdFNqqdfk?authuser=0&hl=en&rclk=1,"28.6491552,77.2220471"
Madina Masjid,Mosque,"WGJX+338 Madina Masjid, Jiravli, Uttar Pradesh 202133",,WGJX+338,Jiravli,,Uttar Pradesh,IN,https://www.google.com/maps/place/Madina+Masjid/data=!4m7!3m6!1s0x3974db5076597293:0xac326c91d1b0898a!8m2!3d27.9301587!4d78.5476981!16s%2Fg%2F11gtss7911!19sChIJk3JZdlDbdDkRiomw0ZFsMqw?authuser=0&hl=en&rclk=1,"27.9301587,78.54769809999999"
Meer Ashraf Ali Masjid,Manufacturer,"Meer Ashraf Ali Masjid, Gali Sakko Wali, Shah Ganj, Chandni Chowk, New Delhi, Delhi, 110006","Gali Sakko Wali, Shah Ganj, Chandni Chowk",,"New Delhi, Delhi",110006,Delhi,IN,https://www.google.com/maps/place/Meer+Ashraf+Ali+Masjid/data=!4m7!3m6!1s0x390cfd15d6c3ec89:0x29a0de400c15fd9d!8m2!3d28.6492854!4d77.2229578!16s%2Fg%2F11gdt27w0z!19sChIJiezD1hX9DDkRnf0VDEDeoCk?authuser=0&hl=en&rclk=1,"28.6492854,77.2229578"
Masjid Ikhlas,Mosque,"Masjid Ikhlas, Gate Number 2 Ln, Sanskriti Enclave, Eldeco Udyan Ii, Uttar Pradesh 226014",Shahganj,"Gate Number 2 Ln, Sanskriti Enclave, Eldeco Udyan Ii",Lucknow,226014,Uttar Pradesh,IN,https://www.google.com/maps/place/Masjid+Ikhlas/data=!4m7!3m6!1s0x399bfd08a0345cdf:0xc5d765bba404ad07!8m2!3d26.8589096!4d80.906546!16s%2Fg%2F11rgdfr9n5!19sChIJ31w0oAj9mzkRB60EpLtl18U?authuser=0&hl=en&rclk=1,"26.8589096,80.90654599999999"
Masjid-e-Noor,Mosque,"VW43+H42 Masjid-e-Noor, Toariaganj, State Highway 40, Shahganj, Lucknow, Uttar Pradesh 226003",Shahganj,"VW43+H42, Toariaganj, State Highway 40",Lucknow,226003,Uttar Pradesh,IN,https://www.google.com/maps/place/Masjid-e-Noor/data=!4m7!3m6!1s0x399bfd341c173b27:0x6403378fd0962875!8m2!3d26.8563752!4d80.9027597!16s%2Fg%2F11rckwp5pr!19sChIJJzsXHDT9mzkRdSiW0I83A2Q?authuser=0&hl=en&rclk=1,"26.8563752,80.90275969999999"
SAYYED COOL ICE,Caterer,"SAYYED COOL ICE, 3740 gali masjid wali shahganj Chowk, Shradhanand Marg, Ajmeri Gate, Delhi, 110006","Gali Sakko Wali, Shah Ganj, Ajmeri Gate","3740 gali masjid wali shahganj Chowk, Shradhanand Marg",Delhi,110006,Delhi,IN,https://www.google.com/maps/place/SAYYED+COOL+ICE/data=!4m7!3m6!1s0x390cfd79153871e1:0x578e2a842c3306b9!8m2!3d28.6485982!4d77.2234356!16s%2Fg%2F11hf8l9y3z!19sChIJ4XE4FXn9DDkRuQYzLIQqjlc?authuser=0&hl=en&rclk=1,"28.6485982,77.2234356"
Masjid Saguwa Wali (Choti Masjid),Mosque,"Masjid Saguwa Wali (Choti Masjid), 1614, Old Dariya Ganj, Daryaganj, New Delhi, Delhi, 110002","Old Dariya Ganj, Daryaganj",1614,"New Delhi, Delhi",110002,Delhi,IN,https://www.google.com/maps/place/Masjid+Saguwa+Wali+%28Choti+Masjid%29/data=!4m7!3m6!1s0x390cfde70c37cfe3:0xcd9ebd43305f88c8!8m2!3d28.6470267!4d77.2382029!16s%2Fg%2F11f7qykm_q!19sChIJ4883DOf9DDkRyIhfMEO9ns0?authuser=0&hl=en&rclk=1,"28.647026699999998,77.23820289999999"
Masjid,Mosque,"5XHR+63Q Masjid, Shahganj Rd, Soron Katra, Kothi Meena Bazaar, Shahganj, Agra, Uttar Pradesh 282010","Soron Katra, Kothi Meena Bazaar, Shahganj","5XHR+63Q, Shahganj Rd",Agra,282010,Uttar Pradesh,IN,https://www.google.com/maps/place/Masjid/data=!4m7!3m6!1s0x3974771bf7589227:0x4d6c486d9101ad14!8m2!3d27.1780778!4d77.9902367!16s%2Fg%2F11bbt9850d!19sChIJJ5JY9xt3dDkRFK0BkW1IbE0?authuser=0&hl=en&rclk=1,"27.1780778,77.9902367"
Madina Masjid,Mosque,"Madina Masjid, Sulahkul Nagar, Shahganj, Agra, Uttar Pradesh 282002","Sulahkul Nagar, Shahganj",,Agra,282002,Uttar Pradesh,IN,https://www.google.com/maps/place/Madina+Masjid/data=!4m7!3m6!1s0x39747724280ecaeb:0x268a64a66b0c153e!8m2!3d27.1896674!4d77.9716122!16s%2Fg%2F11rhf1pm4t!19sChIJ68oOKCR3dDkRPhUMa6ZkiiY?authuser=0&hl=en&rclk=1,"27.189667399999998,77.9716122"
Purani Masjid,Mosque,"Purani Masjid, Main Market, A-22, Fatehpur Sikri Rd, Anand Puram, Gyaspura, Shahganj, Agra, Uttar Pradesh 282010","Anand Puram, Gyaspura, Shahganj","Main Market, A-22, Fatehpur Sikri Rd",Agra,282010,Uttar Pradesh,IN,https://www.google.com/maps/place/Purani+Masjid/data=!4m7!3m6!1s0x39747700539ef33d:0x846a7e13a12a1e28!8m2!3d27.1731243!4d77.9766579!16s%2Fg%2F11cmqz9j1b!19sChIJPfOeUwB3dDkRKB4qoRN-aoQ?authuser=0&hl=en&rclk=1,"27.173124299999998,77.97665789999999"
Masjid-e-Hazare (Shia),Mosque,"VW54+575 Masjid-e-Hazare (Shia), Opp-Prince Public School, Akbari Gate, Nakkhash, Tulsidas Marg, Shahganj, Lucknow, Uttar Pradesh 226001","Khala Bazar, Shahganj","VW54+575, Opp-Prince Public School, Akbari Gate, Nakkhash, Tulsidas Marg",Lucknow,226001,Uttar Pradesh,IN,https://www.google.com/maps/place/Masjid-e-Hazare+%28Shia%29/data=!4m7!3m6!1s0x399bfd6fb45a608b:0x4422675e2903dd79!8m2!3d26.8578828!4d80.9057248!16s%2Fg%2F11rckx6cks!19sChIJi2BatG_9mzkRed0DKV5nIkQ?authuser=0&hl=en&rclk=1,"26.8578828,80.9057248"
MASJID E AYESHA,Mosque,"3M4P+853 MASJID E AYESHA, SH 30, Purani Bazar, Shahganj, Uttar Pradesh 223101",Purani Bazar,"3M4P+853, SH 30",Shahganj,223101,Uttar Pradesh,IN,https://www.google.com/maps/place/MASJID+E+AYESHA/data=!4m7!3m6!1s0x39905b7b7c19b29f:0x8893f05f94ad37b8!8m2!3d26.0557735!4d82.6854193!16s%2Fg%2F11n5kpn_fr!19sChIJn7IZfHtbkDkRuDetlF_wk4g?authuser=0&hl=en&rclk=1,"26.055773499999997,82.68541929999999"
Dari Wali Masjid,Mosque,"J6XF+QMW Dari Wali Masjid, Lambi Gali, Bazar Sirkiwalan, Kaccha Pandit Main Bazar, Shah Ganj, Old Delhi, Delhi, 110006","Bazar Sirkiwalan, Kaccha Pandit Main Bazar, Shah Ganj, Old Delhi","J6XF+QMW, Lambi Gali",Delhi,110006,Delhi,IN,https://www.google.com/maps/place/Dari+Wali+Masjid/data=!4m7!3m6!1s0x390cfdcb160bd643:0x79e70aae06e540fa!8m2!3d28.6494841!4d77.2242153!16s%2Fg%2F11l2r_fv6s!19sChIJQ9YLFsv9DDkR-kDlBq4K53k?authuser=0&hl=en&rclk=1,"28.6494841,77.2242153"
Masjid Hakim Ji,Mosque,"Masjid Hakim Ji, Lal Darwaza, Phatak Baans, Opp, Old Delhi, 110006","Shah Ganj, Old Delhi","Lal Darwaza, Phatak Baans, Opp",Delhi,110006,Delhi,IN,https://www.google.com/maps/place/Masjid+Hakim+Ji/data=!4m7!3m6!1s0x390cfd1425555555:0xef4c7bf7113dcb09!8m2!3d28.6503793!4d77.2225524!16s%2Fg%2F11hcbwmylh!19sChIJVVVVJRT9DDkRCcs9Efd7TO8?authuser=0&hl=en&rclk=1,"28.650379299999997,77.2225524"
Masjid,Mosque,"5XJV+VCV Masjid, Ashok Nagar, Shahganj, Agra, Uttar Pradesh 282010","Ashok Nagar, Shahganj",5XJV+VCV,Agra,282010,Uttar Pradesh,IN,https://www.google.com/maps/place/Masjid/data=!4m7!3m6!1s0x397477f6c9c02cc1:0xf34fb621cb949647!8m2!3d27.1822428!4d77.9935471!16s%2Fg%2F11kb9c8gj9!19sChIJwSzAyfZ3dDkRR5aUyyG2T_M?authuser=0&hl=en&rclk=1,"27.182242799999997,77.9935471"
Mosque - Shahganj Market Road,Place of worship,"5XFQ+XG7 Mosque - Shahganj Market Road, Unnamed Road, Rui Ki Mandi, Indra Colony, Shahganj, Agra, Uttar Pradesh 282010","Rui Ki Mandi, Indra Colony, Shahganj","5XFQ+XG7, Unnamed Road",Agra,282010,Uttar Pradesh,IN,https://www.google.com/maps/place/Mosque+-+Shahganj+Market+Road/data=!4m7!3m6!1s0x397477b58b66dd51:0x3784cbf80bc562b3!8m2!3d27.1749026!4d77.9887871!16s%2Fg%2F11h_17j58l!19sChIJUd1mi7V3dDkRs2LFC_jLhDc?authuser=0&hl=en&rclk=1,"27.1749026,77.9887871"
Noorani Masjid,Mosque,"Noorani Masjid, 64, Baluganj, Rakabganj, Agra, Uttar Pradesh 282001","Baluganj, Rakabganj",64,Agra,282001,Uttar Pradesh,IN,https://www.google.com/maps/place/Noorani+Masjid/data=!4m7!3m6!1s0x397471220d490ac7:0x7add1f80ab58d8d2!8m2!3d27.1657875!4d78.019728!16s%2Fg%2F11txlftr68!19sChIJxwpJDSJxdDkR0thYq4Af3Xo?authuser=0&hl=en&rclk=1,"27.1657875,78.019728"
CHAMAN MASJID cmn msjid,Mosque,"P2HQ+254 CHAMAN MASJID cmn msjid, Chopra Kua Shahganj, Hindaun, Rajasthan 322230",Baddi Chopar,"P2HQ+254, Chopra Kua Shahganj",Hindaun,322230,Rajasthan,IN,https://www.google.com/maps/place/CHAMAN+MASJID+%E0%A4%9A%E0%A4%AE%E0%A4%A8+%E0%A4%AE%E0%A4%B8%E0%A5%8D%E0%A4%9C%E0%A4%BF%E0%A4%A6/data=!4m7!3m6!1s0x39722fa34be62e99:0xd2b2da3674d595b1!8m2!3d26.7275133!4d77.0379396!16s%2Fg%2F11f0wn93cg!19sChIJmS7mS6MvcjkRsZXVdDbastI?authuser=0&hl=en&rclk=1,"26.7275133,77.0379396"
Gali molvi Ibrahim,Housing society,"M62F+F5G Gali molvi Ibrahim, Shah Ganj, Chandni Chowk, New Delhi, Delhi, 110006","Shah Ganj, Chandni Chowk",M62F+F5G,"New Delhi, Delhi",110006,Delhi,IN,https://www.google.com/maps/place/Gali+molvi+Ibrahim/data=!4m7!3m6!1s0x390cfda4e657bb39:0x47e541bd05ae18ef!8m2!3d28.6511851!4d77.2229389!16s%2Fg%2F11pwqcmnkn!19sChIJObtX5qT9DDkR7xiuBb1B5Uc?authuser=0&hl=en&rclk=1,"28.6511851,77.2229389"
Md faiz,Housing society,"Md faiz, 3018, Gali Nal Bandan Sabrin Marg, Shah Ganj, Chandni Chowk, Delhi, 110006","Gali Sakko Wali, Shah Ganj, Chandni Chowk","3018, Gali Nal Bandan Sabrin Marg",Delhi,110006,Delhi,IN,https://www.google.com/maps/place/Md+faiz/data=!4m7!3m6!1s0x390cfd614267a5c3:0xbc247ecfafdf2418!8m2!3d28.6494747!4d77.2236668!16s%2Fg%2F11rn0cc5yy!19sChIJw6VnQmH9DDkRGCTfr89-JLw?authuser=0&hl=en&rclk=1,"28.6494747,77.22366679999999"
Madina masjid nazirabad Shahganj,Mosque,"2MPM+2RX Madina masjid nazirabad Shahganj, SH 5, Shahganj, Sindhai, Uttar Pradesh 222139",,"2MPM+2RX, SH 5","Shahganj, Sindhai",222139,Uttar Pradesh,IN,https://www.google.com/maps/place/Madina+masjid+nazirabad+Shahganj/data=!4m7!3m6!1s0x3990456ad19846e1:0xc55c39c3beca1715!8m2!3d26.0351185!4d82.6845986!16s%2Fg%2F11h8d6krqs!19sChIJ4UaY0WpFkDkRFRfKvsM5XMU?authuser=0&hl=en&rclk=1,"26.0351185,82.6845986"
Jama Masjid,Mosque,"5HHQ+427 Jama Masjid, Gram Bandhgao Tahsil Shahganj Zila, Asaitha Patti Baljor, Uttar Pradesh",,"5HHQ+427, Gram Bandhgao Tahsil Shahganj Zila",Asaitha Patti Baljor,,Uttar Pradesh,IN,https://www.google.com/maps/place/Jama+Masjid/data=!4m7!3m6!1s0x39905f1d2a7bb89d:0xe1ce6d2f0cd32188!8m2!3d26.1777821!4d82.5875571!16s%2Fg%2F11my7sqmbt!19sChIJnbh7Kh1fkDkRiCHTDC9tzuE?authuser=0&hl=en&rclk=1,"26.177782099999998,82.5875571"
Masjid shahganj,Mosque,"XRM9+9JR Masjid shahganj, SH 69, Mau, Bihar 824236",,"XRM9+9JR, SH 69",Mau,824236,Bihar,IN,https://www.google.com/maps/place/Masjid+shahganj/data=!4m7!3m6!1s0x398d2f4c41c66d0d:0x66bf0c2ce18a38c1!8m2!3d24.9834843!4d84.8190169!16s%2Fg%2F11smwgllvm!19sChIJDW3GQUwvjTkRwTiK4SwMv2Y?authuser=0&hl=en&rclk=1,"24.9834843,84.8190169"
Makkah masjid,Mosque,"RQVW+CJH Makkah masjid, Shahganj, Madhya Pradesh 466554",,RQVW+CJH,Shahganj,466554,Madhya Pradesh,IN,https://www.google.com/maps/place/Makkah+masjid/data=!4m7!3m6!1s0x397dd3a442cd3a63:0xd638496b781f2974!8m2!3d22.8439751!4d77.7969686!16s%2Fg%2F11s5xmf8hv!19sChIJYzrNQqTTfTkRdCkfeGtJONY?authuser=0&hl=en&rclk=1,"22.843975099999998,77.7969686"
SHAHI JAMA MASJID,Mosque,"4G3M+7VX SHAHI JAMA MASJID, Siwan Paigambarpur Rd, Shahganj, Bhikhaban, Bihar 841241",,"4G3M+7VX, Siwan Paigambarpur Rd","Shahganj, Bhikhaban",841241,Bihar,IN,https://www.google.com/maps/place/SHAHI+JAMA+MASJID/data=!4m7!3m6!1s0x3992e99e4dd04fa5:0xda601e57cdb3893a!8m2!3d26.103227!4d84.534746!16s%2Fg%2F11j1122hd3!19sChIJpU_QTZ7pkjkROomzzVceYNo?authuser=0&hl=en&rclk=1,"26.103227,84.534746"
Shabz Masjid,Mosque,"M62F+524 Shabz Masjid, Shah Ganj, Chandni Chowk, New Delhi, Delhi, 110006","Shah Ganj, Chandni Chowk",M62F+524,"New Delhi, Delhi",110006,Delhi,IN,https://www.google.com/maps/place/Shabz+Masjid/data=!4m7!3m6!1s0x390cfd1425555555:0x94f171aaa5b6b98f!8m2!3d28.6503806!4d77.2225856!16s%2Fg%2F11hcdscphx!19sChIJVVVVJRT9DDkRj7m2papx8ZQ?authuser=0&hl=en&rclk=1,"28.6503806,77.2225856"
Mehendi masjid,Mosque,"Mehendi masjid, 3331, Lal Kuan Bazar, Chandni Chowk, New Delhi, Delhi, 110006","Lal Kuan Bazar, Chandni Chowk",3331,"New Delhi, Delhi",110006,Delhi,IN,https://www.google.com/maps/place/Mehendi+masjid/data=!4m7!3m6!1s0x390cfd11d6254933:0x7c1821bcb713efad!8m2!3d28.6516061!4d77.2214466!16s%2Fg%2F11rn0l2gk4!19sChIJM0kl1hH9DDkRre8Tt7whGHw?authuser=0&hl=en&rclk=1,"28.6516061,77.2214466"
MASJID HAKIMJI WALI,Mosque,"MASJID HAKIMJI WALI, 1770 ff, CHEERA, Farash Khana, Roshanpura, Chandni Chowk, ChowkNew Delhi, Delhi 110006","Roshanpura, Chandni Chowk","1770 ff, CHEERA, Farash Khana","ChowkNew Delhi, Delhi",110006,Delhi,IN,https://www.google.com/maps/place/MASJID+HAKIMJI+WALI/data=!4m7!3m6!1s0x390cfdf4674a33cb:0x89e3103f8b3b9d2!8m2!3d28.6531378!4d77.2286249!16s%2Fg%2F11t1h2m167!19sChIJyzNKZ_T9DDkR0rmz-AMxngg?authuser=0&hl=en&rclk=1,"28.6531378,77.2286249"
Masjid Rangrejan,Mosque,"Masjid Rangrejan, Raja ki Mandi, Shahganj, Agra, Uttar Pradesh 282002","Raja ki Mandi, Shahganj",,Agra,282002,Uttar Pradesh,IN,https://www.google.com/maps/place/Masjid+Rangrejan/data=!4m7!3m6!1s0x397477eea498c17b:0x846022b0a194f6cb!8m2!3d27.1897567!4d77.9988341!16s%2Fg%2F11t0r8p4kv!19sChIJe8GYpO53dDkRy_aUobAiYIQ?authuser=0&hl=en&rclk=1,"27.1897567,77.9988341"
MASJID KHIZRA,Mosque,"P2HQ+WXF MASJID KHIZRA, Mohalla Shahganj Chhota Bazar, Hindaun, Rajasthan 322230",Baddi Chopar,"P2HQ+WXF, Mohalla Shahganj Chhota Bazar",Hindaun,322230,Rajasthan,IN,https://www.google.com/maps/place/MASJID+KHIZRA/data=!4m7!3m6!1s0x39722fbb6f4e0571:0x1c81bc448340e204!8m2!3d26.7298041!4d77.039927!16s%2Fg%2F11g9q97b_q!19sChIJcQVOb7svcjkRBOJAg0S8gRw?authuser=0&hl=en&rclk=1,"26.7298041,77.03992699999999"
Umar bin khattab masjid shahganj,Mosque,"2MWH+8CM Umar bin khattab masjid shahganj, Kauriya, Shahganj, Uttar Pradesh 223101",,2MWH+8CM,"Kauriya, Shahganj",,Uttar Pradesh,IN,https://www.google.com/maps/place/Umar+bin+khattab+masjid+shahganj/data=!4m7!3m6!1s0x39905b85b0dce135:0x15f91ea17d5f5ef4!8m2!3d26.0458419!4d82.6785387!16s%2Fg%2F11jgczdvzc!19sChIJNeHcsIVbkDkR9F5ffaEe-RU?authuser=0&hl=en&rclk=1,"26.0458419,82.67853869999999"
Masjid,Mosque,"2MXM+X6P Masjid, SH 5, Shahganj, Uttar Pradesh 223101",,"2MXM+X6P, SH 5",Shahganj,223101,Uttar Pradesh,IN,https://www.google.com/maps/place/Masjid/data=!4m7!3m6!1s0x39905b23b903689f:0x3e9960e2cc442360!8m2!3d26.0499609!4d82.6830849!16s%2Fg%2F11h90ws_0l!19sChIJn2gDuSNbkDkRYCNEzOJgmT4?authuser=0&hl=en&rclk=1,"26.0499609,82.6830849"
Madina masjid nazirabad Shahganj,Mosque,"3M4J+HJF Madina masjid nazirabad Shahganj, Rsulpur nazirabad, Shahganj",,"3M4J+HJF, Rsulpur nazirabad",Shahganj,,Uttar Pradesh,IN,https://www.google.com/maps/place/Madina+masjid+nazirabad+Shahganj/data=!4m7!3m6!1s0x39905b07874ddbe1:0x32171304005b3b0d!8m2!3d26.0564477!4d82.6815542!16s%2Fg%2F11h8d6g80v!19sChIJ4dtNhwdbkDkRDTtbAAQTFzI?authuser=0&hl=en&rclk=1,"26.0564477,82.6815542"
Shia Masjid Saraikhawaja Shahganj Road Jaunpur,Mosque,"VM4F+V3Q Shia Masjid Saraikhawaja Shahganj Road Jaunpur, Barganva, Uttar Pradesh 222139",,VM4F+V3Q,Barganva,,Uttar Pradesh,IN,https://www.google.com/maps/place/Shia+Masjid+Saraikhawaja+Shahganj+Road+Jaunpur/data=!4m7!3m6!1s0x3990475db0ce0e6d:0x4e04aac572737d3!8m2!3d25.8572063!4d82.6727357!16s%2Fg%2F11sjrhfsxf!19sChIJbQ7OsF1HkDkR0zcnV6xK4AQ?authuser=0&hl=en&rclk=1,"25.857206299999998,82.67273569999999"
Juber Hotel,Fast food restaurant,"Juber Hotel, Shop No 25 Shahganj Chowk, near Masjid, Ajmeri Gate, New Delhi, Delhi 110006","Gali Sakko Wali, Shah Ganj, Ajmeri Gate","Shop No 25 Shahganj Chowk, near Masjid","New Delhi, Delhi",110006,Delhi,IN,https://www.google.com/maps/place/Juber+Hotel/data=!4m7!3m6!1s0x390cfd8ed9fc98e5:0x84f56349f2c6d74e!8m2!3d28.6489715!4d77.2233687!16s%2Fg%2F11trcd0ww9!19sChIJ5Zj82Y79DDkRTtfG8klj9YQ?authuser=0&hl=en&rclk=1,"28.6489715,77.2233687"
Jama Masjid,Mosque,"2MWJ+GXG Jama Masjid, Harlalka Rd, Shahganj, Uttar Pradesh 223101",,"2MWJ+GXG, Harlalka Rd",Shahganj,223101,Uttar Pradesh,IN,https://www.google.com/maps/place/Jama+Masjid/data=!4m7!3m6!1s0x39905b65b2ecabd1:0xb6612980dba491cf!8m2!3d26.0463149!4d82.682456!16s%2Fg%2F11kp5lsjvk!19sChIJ0avssmVbkDkRz5Gk24ApYbY?authuser=0&hl=en&rclk=1,"26.0463149,82.682456"
HAMZA QAMAR MARRIAGE BUREAU,Marriage Consultant,"HAMZA QAMAR MARRIAGE BUREAU, 3738, Gali Masjid wali Shahganj Chowk, Ajmeri Gate, Delhi, 110006","Gali Sakko Wali, Shah Ganj, Ajmeri Gate","3738, Gali Masjid wali Shahganj Chowk",Delhi,110006,Delhi,IN,https://www.google.com/maps/place/HAMZA+QAMAR+MARRIAGE+BUREAU/data=!4m7!3m6!1s0x390cfd41994e2f8f:0xe92720ae709187f6!8m2!3d28.6492196!4d77.2229866!16s%2Fg%2F11n664j5jr!19sChIJjy9OmUH9DDkR9oeRcK4gJ-k?authuser=0&hl=en&rclk=1,"28.6492196,77.2229866"
Kadim markaz masjid,Mosque,"2MXP+538 Kadim markaz masjid, Unnamed Road, Shahganj, Uttar Pradesh 223101",,"2MXP+538, Unnamed Road",Shahganj,223101,Uttar Pradesh,IN,https://www.google.com/maps/place/Kadim+markaz+masjid/data=!4m7!3m6!1s0x39905b0a55cf9e33:0xd65b356aa9702890!8m2!3d26.0479024!4d82.6852018!16s%2Fg%2F11rxkdzj0s!19sChIJM57PVQpbkDkRkChwqWo1W9Y?authuser=0&hl=en&rclk=1,"26.047902399999998,82.6852018"
MASJID KAUDIYA CHAURAHA,Mosque,"2MX7+4VQ MASJID KAUDIYA CHAURAHA, KAURIYA CHAURAHA, SH 7, Shahganj, Uttar Pradesh 223101",,"2MX7+4VQ, KAURIYA CHAURAHA, SH 7",Shahganj,223101,Uttar Pradesh,IN,https://www.google.com/maps/place/MASJID+KAUDIYA+CHAURAHA/data=!4m7!3m6!1s0x39905bef845163cd:0x30d5ff57dd28c574!8m2!3d26.0477499!4d82.664792!16s%2Fg%2F11t4dxy24j!19sChIJzWNRhO9bkDkRdMUo3Vf_1TA?authuser=0&hl=en&rclk=1,"26.0477499,82.66479199999999"
Masjid e Faizan e Alam,Mosque,"3M3R+3P7 Masjid e Faizan e Alam, Shahganj, Uttar Pradesh 223101",,3M3R+3P7,Shahganj,223101,Uttar Pradesh,IN,https://www.google.com/maps/place/Masjid+e+Faizan+e+Alam/data=!4m7!3m6!1s0x39905b66d164bfbb:0xfe1743d33929c06a!8m2!3d26.0526594!4d82.6917918!16s%2Fg%2F11h918c4fm!19sChIJu79k0WZbkDkRasApOdNDF_4?authuser=0&hl=en&rclk=1,"26.0526594,82.69179179999999"
Masjid,Religious destination,"Masjid, Bus Stop, State Highway 7, Shahganj, Rasulpur, Uttar Pradesh 223101",,"Bus Stop, State Highway 7","Shahganj, Rasulpur",,Uttar Pradesh,IN,https://www.google.com/maps/place/Masjid/data=!4m7!3m6!1s0x39905b5fdd53a77d:0xe9ecbeb6b1699b6d!8m2!3d26.0957635!4d82.6834977!16s%2Fg%2F11v3s3gq80!19sChIJfadT3V9bkDkRbZtpsba-7Ok?authuser=0&hl=en&rclk=1,"26.0957635,82.68349769999999"
"RIZWAN JAMA MASJID, NAZIRABAD",Mosque,"2MRM+G47 RIZWAN JAMA MASJID, NAZIRABAD, Shahganj, Uttar Pradesh 222139",,2MRM+G47,Shahganj,222139,Uttar Pradesh,IN,"https://www.google.com/maps/place/RIZWAN+JAMA+MASJID,+NAZIRABAD/data=!4m7!3m6!1s0x3990451b9362a6ff:0xfda34639f5df6526!8m2!3d26.0411683!4d82.6835527!16s%2Fg%2F11sy1lscfv!19sChIJ_6ZikxtFkDkRJmXf9TlGo_0?authuser=0&hl=en&rclk=1","26.0411683,82.68355269999999"
KHWAJA MASJID kh'vaajaa msjid,Mosque,"KHWAJA MASJID kh'vaajaa msjid, 316/374, Shahganj, Miurabad, Prayagraj, Uttar Pradesh 211001","Shahganj, Miurabad",316/374,Prayagraj,211001,Uttar Pradesh,IN,https://www.google.com/maps/place/KHWAJA+MASJID+%E0%A4%96%E0%A4%BC%E0%A5%8D%E0%A4%B5%E0%A4%BE%E0%A4%9C%E0%A4%BE+%E0%A4%AE%E0%A4%B8%E0%A5%8D%E0%A4%9C%E0%A4%BF%E0%A4%A6/data=!4m7!3m6!1s0x399acb50f1a7bcdd:0x5c91aa0e535dca54!8m2!3d25.4424744!4d81.8341203!16s%2Fg%2F11vllz1drl!19sChIJ3byn8VDLmjkRVMpdUw6qkVw?authuser=0&hl=en&rclk=1,"25.4424744,81.8341203"
MASJID KAREEMAN BIBI,Mosque,"3M6W+Q7F MASJID KAREEMAN BIBI, KHAS, Bhadi, Shahganj, Uttar Pradesh 223101",,"3M6W+Q7F, KHAS","Bhadi, Shahganj",223101,Uttar Pradesh,IN,https://www.google.com/maps/place/MASJID+KAREEMAN+BIBI/data=!4m7!3m6!1s0x39905bda274c6321:0x5e4db31f792b3cdf!8m2!3d26.0619456!4d82.6956623!16s%2Fg%2F11svpynhr2!19sChIJIWNMJ9pbkDkR3zwreR-zTV4?authuser=0&hl=en&rclk=1,"26.061945599999998,82.6956623"
IMADIA MASJID AMRATUA,Mosque,"IMADIA MASJID AMRATUA, POST OFFICE, NEAR IMADI MANZI & MADRASSA, AMRATUA TEHSIL SHAHGANJ, Songar, 222139",,"POST OFFICE, NEAR IMADI MANZI & MADRASSA, AMRATUA TEHSIL SHAHGANJ","Songar, Shahganj",222139,Uttar Pradesh,IN,https://www.google.com/maps/place/IMADIA+MASJID+AMRATUA/data=!4m7!3m6!1s0x39905bd123440c49:0x173c6c4bbb551338!8m2!3d26.0537299!4d82.6818101!16s%2Fg%2F11s1rxl_03!19sChIJSQxEI9FbkDkROBNVu0tsPBc?authuser=0&hl=en&rclk=1,"26.0537299,82.68181009999999"
AYESHA MOSQUE,Mosque,"3M6G+7V4 AYESHA MOSQUE, St Thomas Rd, Shahganj, Uttar Pradesh 223101",,"3M6G+7V4, St Thomas Rd",Shahganj,223101,Uttar Pradesh,IN,https://www.google.com/maps/place/AYESHA+MOSQUE/data=!4m7!3m6!1s0x39905baba546e81d:0x614ca3be057c6e44!8m2!3d26.0606334!4d82.6772047!16s%2Fg%2F11h3g3v6xd!19sChIJHehGpatbkDkRRG58Bb6jTGE?authuser=0&hl=en&rclk=1,"26.0606334,82.67720469999999"
Noorani Masjid,Mosque,"Noorani Masjid, Para kamal shahganj Jaunpur, Parakamal, Uttar Pradesh 222139",,Para kamal shahganj Jaunpur,"Parakamal, Asharafpur Usarahata",222139,Uttar Pradesh,IN,https://www.google.com/maps/place/Noorani+Masjid/data=!4m7!3m6!1s0x399045abb7579c0f:0xbd523398c894f4df!8m2!3d25.9964688!4d82.6966358!16s%2Fg%2F11trmpnrfl!19sChIJD5xXt6tFkDkR3_SUyJgzUr0?authuser=0&hl=en&rclk=1,"25.9964688,82.6966358"
Minarah Masjid,Mosque,"3M6V+7GW Minarah Masjid, Dihwa, Bhadi, Uttar Pradesh 223101",,3M6V+7GW,"Dihwa, Bhadi",,Uttar Pradesh,IN,https://www.google.com/maps/place/Minarah+Masjid/data=!4m7!3m6!1s0x39905b86eb48eb63:0x26b11bdac6854b91!8m2!3d26.0607388!4d82.6938373!16s%2Fg%2F11gs4f83q2!19sChIJY-tI64ZbkDkRkUuFxtobsSY?authuser=0&hl=en&rclk=1,"26.0607388,82.6938373"
Masjid akhunji,School,"Masjid akhunji, 5593, Shradhanand Marg, Chabdi Bazar, Shah Ganj, Chandni Chowk, New Delhi, Delhi, 110006","Chabdi Bazar, Shah Ganj, Chandni Chowk","5593, Shradhanand Marg","New Delhi, Delhi",110006,Delhi,IN,https://www.google.com/maps/place/Masjid+akhunji/data=!4m7!3m6!1s0x390cfd1c17be55b5:0x3f28c812693b3752!8m2!3d28.6504013!4d77.2212427!16s%2Fg%2F11kmf71_0h!19sChIJtVW-Fxz9DDkRUjc7aRLIKD8?authuser=0&hl=en&rclk=1,"28.6504013,77.22124269999999"
Sayyed Garments,Clothing store,"Sayyed Garments, 3740, 1st Floor, Gali Masjid Wali, Shahganj, Chowk, Ajmeri Gate, Delhi, 110006","Rui Mandi, Ajmeri Gate","3740, 1st Floor, Gali Masjid Wali, Shahganj, Chowk",Delhi,110006,Delhi,IN,https://www.google.com/maps/place/Sayyed+Garments/data=!4m7!3m6!1s0x390cfd496eab6897:0x4df3aa1c1619aa04!8m2!3d28.659331!4d77.2139209!16s%2Fg%2F11tdjrgwm8!19sChIJl2irbkn9DDkRBKoZFhyq800?authuser=0&hl=en&rclk=1,"28.659330999999998,77.21392089999999"
Kashif Shop,Store,"Kashif Shop, 1404, Choori Walan Rd, Choori Walan, Jama Masjid, Old Delhi, New Delhi, Delhi, 110006","Choori Walan, Jama Masjid, Old Delhi","1404, Choori Walan Rd","New Delhi, Delhi",110006,Delhi,IN,https://www.google.com/maps/place/Kashif+Shop/data=!4m7!3m6!1s0x390cfd984fb77b5b:0xfd6becf2ba99ad14!8m2!3d28.6477752!4d77.2332232!16s%2Fg%2F11sf74xfzt!19sChIJW3u3T5j9DDkRFK2ZuvLsa_0?authuser=0&hl=en&rclk=1,"28.647775199999998,77.2332232"
