name,main_category,address,address_ward,address_street,address_city,address_postal_code,address_state,address_country_code,link,coordinates
Belgaria Dakshin Para Jame Masjid,Mosque,"Belgaria Dakshin Para Jame Masjid, Belgaria ( Hulo, Model Belgaria, Baduria, Katiahat, West Bengal 743427",Model Belgaria,Belgaria ( Hulo,"Baduria, Katiahat",743427,West Bengal,IN,https://www.google.com/maps/place/Belgaria+Dakshin+Para+Jame+Masjid/data=!4m7!3m6!1s0x39ff53fac00fe72b:0x104ee93b280ff69b!8m2!3d22.7216251!4d88.8563378!16s%2Fg%2F11hck9_fl0!19sChIJK-cPwPpT_zkRm_YPKDvpThA?authuser=0&hl=en&rclk=1,"22.7216251,88.85633779999999"
Gurdaha pachim para Jame Masjid,Mosque,"Gurdaha pachim para Jame Masjid, Bashirhat, Baduria, West Bengal 743401",,Bashirhat,"Baduria, Gurudaha",743401,West Bengal,IN,https://www.google.com/maps/place/Gurdaha+pachim+para+Jame+Masjid/data=!4m7!3m6!1s0x39f8acdae608d97b:0xc8dfed6ef3b9bb9!8m2!3d22.7481963!4d88.7764172!16s%2Fg%2F11gdtxxv20!19sChIJe9kI5tqs-DkRuZs779b-jQw?authuser=0&hl=en&rclk=1,"22.7481963,88.7764172"
Narayanpur anayet para jama masjid,Mosque,"Narayanpur anayet para jama masjid, Baduria, Khamarpara, West Bengal 743401",,,"Baduria, Khamarpara",743401,West Bengal,IN,https://www.google.com/maps/place/Narayanpur+anayet+para+jama+masjid/data=!4m7!3m6!1s0x39f8addc49089c67:0xca52f823072bf863!8m2!3d22.7165671!4d88.7830612!16s%2Fg%2F11nmjp98js!19sChIJZ5wISdyt-DkRY_grByP4Uso?authuser=0&hl=en&rclk=1,"22.7165671,88.78306119999999"
Raghunathpur Milan Masjid,Mosque,"PQJ9+R2C Raghunathpur Milan Masjid, Raghunathpur, West Bengal 743401",,PQJ9+R2C,Raghunathpur,743401,West Bengal,IN,https://www.google.com/maps/place/Raghunathpur+Milan+Masjid/data=!4m7!3m6!1s0x39f8ac957298d3d7:0xc01ce15587c7b661!8m2!3d22.7320636!4d88.7675189!16s%2Fg%2F11f2wbc3jd!19sChIJ19OYcpWs-DkRYbbHh1XhHMA?authuser=0&hl=en&rclk=1,"22.7320636,88.7675189"
Baduria Town Jame Masjid,Mosque,"PQPP+VQ7 Baduria Town Jame Masjid, Baduria, West Bengal 743401",,PQPP+VQ7,Baduria,743401,West Bengal,IN,https://www.google.com/maps/place/Baduria+Town+Jame+Masjid/data=!4m7!3m6!1s0x39f8accadeb73581:0x96b4fc274be3d49a!8m2!3d22.7371648!4d88.7869347!16s%2Fg%2F11g5_bkqcc!19sChIJgTW33sqs-DkRmtTjSyf8tJY?authuser=0&hl=en&rclk=1,"22.7371648,88.78693469999999"
Gurdaha Milon Masjid,Mosque,"PQRM+CC2 Gurdaha Milon Masjid, Baduria, West Bengal 743438",,PQRM+CC2,Baduria,743438,West Bengal,IN,https://www.google.com/maps/place/Gurdaha+Milon+Masjid/data=!4m7!3m6!1s0x39f8accc4121641b:0x40d0685ea4b1e34a!8m2!3d22.7410236!4d88.7835166!16s%2Fg%2F11f13h7ld2!19sChIJG2QhQcys-DkRSuOxpF5o0EA?authuser=0&hl=en&rclk=1,"22.7410236,88.7835166"
Paschim Simla Jame Masjid,Mosque,"Paschim Simla Jame Masjid, paschim Simla, Baduria, Shimla Durgapur, West Bengal 743401",,paschim Simla,"Baduria, Shimla Durgapur",743401,West Bengal,IN,https://www.google.com/maps/place/Paschim+Simla+Jame+Masjid/data=!4m7!3m6!1s0x39f8ad6b5ff90213:0x360274cfb1473eed!8m2!3d22.7823612!4d88.7711723!16s%2Fg%2F11gfdtxrwn!19sChIJEwL5X2ut-DkR7T5Hsc90AjY?authuser=0&hl=en&rclk=1,"22.7823612,88.77117229999999"
Belgaria Jame Masjid,Mosque,"PVP5+7G7 Belgaria Jame Masjid, Belgaria, West Bengal 743427",,PVP5+7G7,Belgaria,743427,West Bengal,IN,https://www.google.com/maps/place/Belgaria+Jame+Masjid/data=!4m7!3m6!1s0x39ff53ddf2dd6b4d:0xa9c8244dc9240e8f!8m2!3d22.7356622!4d88.8587901!16s%2Fg%2F11ckvfx37m!19sChIJTWvd8t1T_zkRjw4kyU0kyKk?authuser=0&hl=en&rclk=1,"22.7356622,88.8587901"
Sukpukuria Modina Mosjid,Mosque,"PQFG+5QV Sukpukuria Modina Mosjid, Matia - Baduria Road, Baduria, Arsula, West Bengal 743401",,"PQFG+5QV, Matia - Baduria Road","Baduria, Arsula",743401,West Bengal,IN,https://www.google.com/maps/place/Sukpukuria+Modina+Mosjid/data=!4m7!3m6!1s0x39f8adf7cded6017:0x9dfd36200dfa1eff!8m2!3d22.7229764!4d88.7769198!16s%2Fg%2F11f66t29t4!19sChIJF2Dtzfet-DkR_x76DSA2_Z0?authuser=0&hl=en&rclk=1,"22.7229764,88.7769198"
Gurdaha Dakshinpara Milon Masjid,Mosque,"PQQH+6V9 Gurdaha Dakshinpara Milon Masjid, Gurdaha P, Gurudaha, West Bengal 743401",,PQQH+6V9,"Gurdaha P, Gurudaha",743401,West Bengal,IN,https://www.google.com/maps/place/Gurdaha+Dakshinpara+Milon+Masjid/data=!4m7!3m6!1s0x39f8acc8f2231107:0xb71f8ba9de1a1d91!8m2!3d22.7380307!4d88.7797253!16s%2Fg%2F11gbzcjvsc!19sChIJBxEj8sis-DkRkR0a3qmLH7c?authuser=0&hl=en&rclk=1,"22.7380307,88.7797253"
Panta Para Aminia Masjid,Mosque,"QR22+75V Panta Para Aminia Masjid, Pal Para Road, Baduria, Kankrasuti, West Bengal 743401",,"QR22+75V, Pal Para Road","Baduria, Kankrasuti",743401,West Bengal,IN,https://www.google.com/maps/place/Panta+Para+Aminia+Masjid/data=!4m7!3m6!1s0x39ff532446292957:0x255098ee3785abd4!8m2!3d22.7507359!4d88.8004221!16s%2Fg%2F11b6jddrrv!19sChIJVykpRiRT_zkR1KuFN-6YUCU?authuser=0&hl=en&rclk=1,"22.7507359,88.80042209999999"
Purba Bena Jame Masjid,Mosque,"QQXX+PC2 Purba Bena Jame Masjid, Vill-Bena East, P.O-Bena, Baduria, West Bengal 743401",,"QQXX+PC2, Vill-Bena East, P.O-Bena","Baduria, Bena",743401,West Bengal,IN,https://www.google.com/maps/place/Purba+Bena+Jame+Masjid/data=!4m7!3m6!1s0x39ff52a5e86aab11:0xee1e9db671fc2805!8m2!3d22.7992526!4d88.7985065!16s%2Fg%2F11f3n1v5hv!19sChIJEatq6KVS_zkRBSj8cbadHu4?authuser=0&hl=en&rclk=1,"22.7992526,88.7985065"
TARAGUNIA JAME MASJID,Mosque,"PR92+6HJ TARAGUNIA JAME MASJID, Baduria, West Bengal 743401",,PR92+6HJ,Baduria,,West Bengal,IN,https://www.google.com/maps/place/TARAGUNIA+JAME+MASJID/data=!4m7!3m6!1s0x39ff53acfe58ca0d:0x489331fce177f0b6!8m2!3d22.718079!4d88.8014!16s%2Fg%2F11gjm4m1w5!19sChIJDcpY_qxT_zkRtvB34fwxk0g?authuser=0&hl=en&rclk=1,"22.718079,88.8014"
Nagarkachua Jame Masjid,Mosque,"PP64+5V7 Nagarkachua Jame Masjid, Baduria Road, Baduria, Nagarkachua, West Bengal 743401",,"PP64+5V7, Baduria Road","Baduria, Nagarkachua",743401,West Bengal,IN,https://www.google.com/maps/place/Nagarkachua+Jame+Masjid/data=!4m7!3m6!1s0x39f8aeab498865b3:0xf5bde7be8e942c6f!8m2!3d22.7104038!4d88.7071655!16s%2Fg%2F11g6z13q9q!19sChIJs2WISauu-DkRbyyUjr7nvfU?authuser=0&hl=en&rclk=1,"22.710403799999998,88.7071655"
Iswarigachha Jame Masjid,Mosque,"PQQF+8H2 Iswarigachha Jame Masjid, Ishwarigachha, West Bengal 743401",,PQQF+8H2,Ishwarigachha,,West Bengal,IN,https://www.google.com/maps/place/Iswarigachha+Jame+Masjid/data=!4m7!3m6!1s0x39f8acc6ceecc4e5:0x902090dcc9b5a792!8m2!3d22.7382595!4d88.7738755!16s%2Fg%2F11gfjrf89j!19sChIJ5cTszsas-DkRkqe1ydyQIJA?authuser=0&hl=en&rclk=1,"22.738259499999998,88.7738755"
Gadarati Adi Jame Masjid,Mosque,"MRV6+P9M Gadarati Adi Jame Masjid, Rajnagar, West Bengal 743428",,MRV6+P9M,Rajnagar,743428,West Bengal,IN,https://www.google.com/maps/place/Gadarati+Adi+Jame+Masjid/data=!4m7!3m6!1s0x39ff5496bf2cb101:0xd5cb9c4de5ee9a4f!8m2!3d22.6943306!4d88.8109163!16s%2Fg%2F11c5b72xs_!19sChIJAbEsv5ZU_zkRT5ru5U2cy9U?authuser=0&hl=en&rclk=1,"22.6943306,88.8109163"
Kalinga Noor Masjid,Mosque,"QQMR+639 Kalinga Noor Masjid, Keotsha, Baduria Road, Kalinga, West Bengal 743438",,"QQMR+639, Keotsha, Baduria Road",Kalinga,743438,West Bengal,IN,https://www.google.com/maps/place/Kalinga+Noor+Masjid/data=!4m7!3m6!1s0x39ff533b0cce87d5:0xc43873ca2994cede!8m2!3d22.7830487!4d88.7902215!16s%2Fg%2F11fb23zpmw!19sChIJ1YfODDtT_zkR3s6UKcpzOMQ?authuser=0&hl=en&rclk=1,"22.7830487,88.7902215"
Nayabastia jame Masjid,Mosque,"QR4J+GCQ Nayabastia jame Masjid, Ramchandrapur Nayabastia Road, Nayabastia, Baduria, Nabastia, West Bengal 743401",Nayabastia,"QR4J+GCQ, Ramchandrapur Nayabastia Road","Baduria, Nabastia",743401,West Bengal,IN,https://www.google.com/maps/place/Nayabastia+jame+Masjid/data=!4m7!3m6!1s0x39ff536f59638271:0x194a437bdb1fe5f6!8m2!3d22.7563498!4d88.8311121!16s%2Fg%2F11gyxwhkwj!19sChIJcYJjWW9T_zkR9uUf23tDShk?authuser=0&hl=en&rclk=1,"22.7563498,88.8311121"
Iswarigachha Purbapara Milon Masjid,Mosque,"Iswarigachha Purbapara Milon Masjid, Gurudaha, West Bengal 743401",,,Gurudaha,743401,West Bengal,IN,https://www.google.com/maps/place/Iswarigachha+Purbapara+Milon+Masjid/data=!4m7!3m6!1s0x39f8acc7e0f2c9d3:0xf46a5f6a2b369bf0!8m2!3d22.7357963!4d88.7780564!16s%2Fg%2F11g01scqs5!19sChIJ08ny4Mes-DkR8Js2K2pfavQ?authuser=0&hl=en&rclk=1,"22.7357963,88.7780564"
Kankrasuti kotapara milan masjid,Mosque,"QR24+48M Kankrasuti kotapara milan masjid, Kankrasuti, West Bengal 743438",,QR24+48M,Kankrasuti,743438,West Bengal,IN,https://www.google.com/maps/place/Kankrasuti+kotapara+milan+masjid/data=!4m7!3m6!1s0x39ff535224b061ed:0x79287dd80b0716c0!8m2!3d22.7503309!4d88.805783!16s%2Fg%2F11s0rdjwp_!19sChIJ7WGwJFJT_zkRwBYHC9h9KHk?authuser=0&hl=en&rclk=1,"22.750330899999998,88.80578299999999"
Masia Milan Masjid,Mosque,"QR98+R8G Masia Milan Masjid, Ramchandrapur - Baduria Rd, Masia, West Bengal 743427",,"QR98+R8G, Ramchandrapur - Baduria Rd",Masia,743427,West Bengal,IN,https://www.google.com/maps/place/Masia+Milan+Masjid/data=!4m7!3m6!1s0x39ff5363eb059453:0x2802b058caa7652d!8m2!3d22.7695701!4d88.815828!16s%2Fg%2F11gx_ft675!19sChIJU5QF62NT_zkRLWWnyliwAig?authuser=0&hl=en&rclk=1,"22.7695701,88.815828"
Matia Jame Masjid (maattiy'aa jaame msjid),Mosque,"MQVF+25P Matia Jame Masjid (maattiy'aa jaame msjid), Matia, West Bengal 743437",,MQVF+25P,Matia,743437,West Bengal,IN,https://www.google.com/maps/place/Matia+Jame+Masjid+%28%E0%A6%AE%E0%A6%BE%E0%A6%9F%E0%A6%BF%E0%A6%AF%E0%A6%BC%E0%A6%BE+%E0%A6%9C%E0%A6%BE%E0%A6%AE%E0%A7%87+%E0%A6%AE%E0%A6%B8%E0%A6%9C%E0%A6%BF%E0%A6%A6%29/data=!4m7!3m6!1s0x39f8ab3cf8d44243:0x57cf895e6f43dc48!8m2!3d22.6925807!4d88.7729651!16s%2Fg%2F11sy6tkl_k!19sChIJQ0LU-Dyr-DkRSNxDb16Jz1c?authuser=0&hl=en&rclk=1,"22.6925807,88.7729651"
Rajapur Masjid And Imam Bargah,Mosque,"RQ58+GC6 Rajapur Masjid And Imam Bargah, Dakshin Rajapur,Po- Mandra, Ps- Dist- State-, Baduria, West Bengal 743438",,"RQ58+GC6, Dakshin Rajapur,Po- Mandra, Ps- Dist- State-","Baduria, Rajapur",743438,West Bengal,IN,https://www.google.com/maps/place/Rajapur+Masjid+And+Imam+Bargah/data=!4m7!3m6!1s0x39f8b29eff5fbcb7:0xd50556723e812889!8m2!3d22.808788!4d88.7660015!16s%2Fg%2F11dfq40frj!19sChIJt7xf_56y-DkRiSiBPnJWBdU?authuser=0&hl=en&rclk=1,"22.808788,88.7660015"
Baduria Aminiya Jame Masjid,Mosque,"PQPM+477 Baduria Aminiya Jame Masjid, Baduria, West Bengal 743401",,PQPM+477,Baduria,743401,West Bengal,IN,https://www.google.com/maps/place/Baduria+Aminiya+Jame+Masjid/data=!4m7!3m6!1s0x39f8acca1d22aa65:0x9258cdfb2b4f5cea!8m2!3d22.7352793!4d88.7831746!16s%2Fg%2F11f_p2bn64!19sChIJZaoiHcqs-DkR6lxPK_vNWJI?authuser=0&hl=en&rclk=1,"22.7352793,88.7831746"
Khorgachi Jame Masjid,Mosque,"PRMJ+257 Khorgachi Jame Masjid, Baduria, West Bengal 743427",,PRMJ+257,Baduria,,West Bengal,IN,https://www.google.com/maps/place/Khorgachi+Jame+Masjid/data=!4m7!3m6!1s0x39ff5352669a00f9:0x2c424678493c4980!8m2!3d22.7325273!4d88.8304291!16s%2Fg%2F11g3yw4p7d!19sChIJ-QCaZlJT_zkRgEk8SXhGQiw?authuser=0&hl=en&rclk=1,"22.732527299999997,88.83042909999999"
Taragunia Uttardira Ajantala Milan Masjid,Mosque,"Taragunia Uttardira Ajantala Milan Masjid, Baduria, West Bengal 743401",,,Baduria,743401,West Bengal,IN,https://www.google.com/maps/place/Taragunia+Uttardira+Ajantala+Milan+Masjid/data=!4m7!3m6!1s0x39ff5353d30f5409:0x3f4b5da9e3c06639!8m2!3d22.7200818!4d88.7925862!16s%2Fg%2F11hbkjhc46!19sChIJCVQP01NT_zkROWbA46ldSz8?authuser=0&hl=en&rclk=1,"22.7200818,88.7925862"
Kankrasuti charpara nurani masjid kaaNkrraasuutii crpaarraa nuraanii msjid,Mosque,"PRR5+Q25 Kankrasuti charpara nurani masjid kaaNkrraasuutii crpaarraa nuraanii msjid, Kankrasuti, West Bengal 743438",,PRR5+Q25,Kankrasuti,743438,West Bengal,IN,https://www.google.com/maps/place/Kankrasuti+charpara+nurani+masjid+%E0%A6%95%E0%A6%BE%E0%A6%81%E0%A6%95%E0%A7%9C%E0%A6%BE%E0%A6%B8%E0%A7%82%E0%A6%A4%E0%A7%80+%E0%A6%9A%E0%A6%B0%E0%A6%AA%E0%A6%BE%E0%A7%9C%E0%A6%BE+%E0%A6%A8%E0%A7%81%E0%A6%B0%E0%A6%BE%E0%A6%A8%E0%A7%80+%E0%A6%AE%E0%A6%B8%E0%A6%9C%E0%A6%BF%E0%A6%A6/data=!4m7!3m6!1s0x39ff53d0abeff395:0x81bee712558112dd!8m2!3d22.7418965!4d88.8076159!16s%2Fg%2F11jl0hnngc!19sChIJlfPvq9BT_zkR3RKBVRLnvoE?authuser=0&hl=en&rclk=1,"22.7418965,88.8076159"
Narayanpur Jame Masjid,Mosque,"QQ56+G75 Narayanpur Jame Masjid, Narayanpur, Baduria, Narayanpur, West Bengal 743401",Narayanpur,QQ56+G75,"Baduria, Narayanpur",743401,West Bengal,IN,https://www.google.com/maps/place/Narayanpur+Jame+Masjid/data=!4m7!3m6!1s0x39f8ad1d656ac9dd:0xe9eb0944d1122f03!8m2!3d22.7587549!4d88.7607437!16s%2Fg%2F11f3cvcsyz!19sChIJ3clqZR2t-DkRAy8S0UQJ6-k?authuser=0&hl=en&rclk=1,"22.7587549,88.76074369999999"
KANKRASUTI MAJHER PARA MILON MASJID & MADRASAH,Mosque,"QR38+C8J KANKRASUTI MAJHER PARA MILON MASJID & MADRASAH, Kankrasuti, West Bengal 743427",,QR38+C8J,Kankrasuti,743427,West Bengal,IN,https://www.google.com/maps/place/KANKRASUTI+MAJHER+PARA+MILON+MASJID+%26+MADRASAH/data=!4m7!3m6!1s0x39ff5366668e2f31:0xf16aeb0e09a195f!8m2!3d22.755025!4d88.8125364!16s%2Fg%2F11qg5qwbh7!19sChIJMS-OZmZT_zkRXxma4LCuFg8?authuser=0&hl=en&rclk=1,"22.755025,88.8125364"
aadd'baaliy'aa jaame msjid,Mosque,"PQ5C+5HH aadd'baaliy'aa jaame msjid, Matia - Baduria Road, Matia, Baduria, West Bengal 743437",,"PQ5C+5HH, Matia - Baduria Road","Matia, Baduria",743437,West Bengal,IN,https://www.google.com/maps/place/%E0%A6%86%E0%A6%A1%E0%A6%BC%E0%A6%AC%E0%A6%BE%E0%A6%B2%E0%A6%BF%E0%A6%AF%E0%A6%BC%E0%A6%BE+%E0%A6%9C%E0%A6%BE%E0%A6%AE%E0%A7%87+%E0%A6%AE%E0%A6%B8%E0%A6%9C%E0%A6%BF%E0%A6%A6/data=!4m7!3m6!1s0x39f8abeb6c483427:0xbc2de81a054c0c45!8m2!3d22.7079435!4d88.7714973!16s%2Fg%2F11hm5dw_c6!19sChIJJzRIbOur-DkRRQxMBRroLbw?authuser=0&hl=en&rclk=1,"22.7079435,88.7714973"
Sarfarajpur Purba Para Jame Masjid & F.P School.,Mosque,"PRG7+3H5 Sarfarajpur Purba Para Jame Masjid & F.P School., Baduria, West Bengal 743427",,PRG7+3H5,Baduria,,West Bengal,IN,https://www.google.com/maps/place/Sarfarajpur+Purba+Para+Jame+Masjid+%26+F.P+School./data=!4m7!3m6!1s0x39ff53941ab7960d:0xcb0031727f3452cc!8m2!3d22.7251453!4d88.8139783!16s%2Fg%2F11gvytqztk!19sChIJDZa3GpRT_zkRzFI0f3IxAMs?authuser=0&hl=en&rclk=1,"22.725145299999998,88.8139783"
Maguruti jame Masjid maagurutii jaame msjid,Mosque,"PR38+M5J Maguruti jame Masjid maagurutii jaame msjid, Taragunia Rd, Magurati Shrirampur, Baduria, West Bengal 743428",,"PR38+M5J, Taragunia Rd","Magurati Shrirampur, Baduria",743428,West Bengal,IN,https://www.google.com/maps/place/Maguruti+jame+Masjid+%E0%A6%AE%E0%A6%BE%E0%A6%97%E0%A7%81%E0%A6%B0%E0%A7%81%E0%A6%A4%E0%A7%80+%E0%A6%9C%E0%A6%BE%E0%A6%AE%E0%A7%87+%E0%A6%AE%E0%A6%B8%E0%A6%9C%E0%A6%BF%E0%A6%A6/data=!4m7!3m6!1s0x39ff5574868629bb:0x4ff04790183a6ba7!8m2!3d22.704202!4d88.8154047!16s%2Fg%2F11n0n821gp!19sChIJuymGhnRV_zkRp2s6GJBH8E8?authuser=0&hl=en&rclk=1,"22.704202,88.8154047"
Katiahat Markaz Masjid,Mosque,"Katiahat Markaz Masjid, Katiahat, north 24 pargana Baduria, Katiahat, West Bengal 743427",,"Katiahat, north 24 pargana Baduria",Katiahat,743427,West Bengal,IN,https://www.google.com/maps/place/Katiahat+Markaz+Masjid/data=!4m7!3m6!1s0x39ff5105b108d59d:0xd11adee7341f450e!8m2!3d22.7329951!4d88.8659947!16s%2Fg%2F11ll7d315x!19sChIJndUIsQVR_zkRDkUfNOfeGtE?authuser=0&hl=en&rclk=1,"22.7329951,88.8659947"
Baduria Qorania Madrasa,Mosque,"PQQM+4MF Baduria Qorania Madrasa, Baduria, West Bengal 743438",,PQQM+4MF,Baduria,743438,West Bengal,IN,https://www.google.com/maps/place/Baduria+Qorania+Madrasa/data=!4m7!3m6!1s0x39f8accbc9ff922f:0x7b983c6e44b43469!8m2!3d22.7378023!4d88.7841756!16s%2Fg%2F11f1vqndc5!19sChIJL5L_ycus-DkRaTS0RG48mHs?authuser=0&hl=en&rclk=1,"22.7378023,88.7841756"
Kalinga Milan Masjid,Mosque,"QQGQ+C67 Kalinga Milan Masjid, Kalinga, West Bengal 743438",,QQGQ+C67,Kalinga,743438,West Bengal,IN,https://www.google.com/maps/place/Kalinga+Milan+Masjid/data=!4m7!3m6!1s0x39ff53f9fa655d85:0x432c02dd955a44fd!8m2!3d22.776034!4d88.7880351!16s%2Fg%2F11h6v3f9_t!19sChIJhV1l-vlT_zkR_URald0CLEM?authuser=0&hl=en&rclk=1,"22.776034,88.7880351"
Belgoria Makkah Masjid,Mosque,"MW9V+XPM Belgoria Makkah Masjid, Itindaghat, Belgaria, West Bengal 743427",,MW9V+XPM,"Itindaghat, Belgaria",,West Bengal,IN,https://www.google.com/maps/place/Belgoria+Makkah+Masjid/data=!4m7!3m6!1s0x39ff53eb87eda573:0x321938a276ad9cbf!8m2!3d22.7291735!4d88.8509567!16s%2Fg%2F11rmnbxzy3!19sChIJc6Xth-tT_zkRv5ytdqI4GTI?authuser=0&hl=en&rclk=1,"22.729173499999998,88.8509567"
Taragunia Jame masjid,Mosque,"PQ9V+4FJ Taragunia Jame masjid, Baduria, West Bengal 743401",,PQ9V+4FJ,Baduria,743401,West Bengal,IN,https://www.google.com/maps/place/Taragunia+Jame+masjid/data=!4m7!3m6!1s0x39ff53f6f7a1dbc7:0x3c07a9403e7e5463!8m2!3d22.7178483!4d88.793647!16s%2Fg%2F11tp64plml!19sChIJx9uh9_ZT_zkRY1R-PkCpBzw?authuser=0&hl=en&rclk=1,"22.7178483,88.79364699999999"
Anarpur Jame Masjid or Madrasha,Mosque,"PQWP+C63 Anarpur Jame Masjid or Madrasha, Baduria, West Bengal 743438",,PQWP+C63,Baduria,,West Bengal,IN,https://www.google.com/maps/place/Anarpur+Jame+Masjid+or+Madrasha/data=!4m7!3m6!1s0x39f8accd7f51789d:0x394d196bfa48ffd8!8m2!3d22.7460237!4d88.7855533!16s%2Fg%2F11f3zs3mzd!19sChIJnXhRf82s-DkR2P9I-msZTTk?authuser=0&hl=en&rclk=1,"22.7460237,88.78555329999999"
Jashaikati Eidgah Milan Masjid,Mosque,"Jashaikati Eidgah Milan Masjid, Ramchandrapur - Baduria Rd, Jashaikati, West Bengal 743401",,Ramchandrapur - Baduria Rd,Jashaikati,743401,West Bengal,IN,https://www.google.com/maps/place/Jashaikati+Eidgah+Milan+Masjid/data=!4m7!3m6!1s0x39ff539db82a4967:0xfbd7d8549481528d!8m2!3d22.7625094!4d88.7958544!16s%2Fg%2F11h4zn1m_k!19sChIJZ0kquJ1T_zkRjVKBlFTY1_s?authuser=0&hl=en&rclk=1,"22.7625094,88.7958544"
Arsulla Jame Masjid aarshullaa jaame msjid,Mosque,"PQFJ+VFV Arsulla Jame Masjid aarshullaa jaame msjid, Baikara Rd, Arsula, West Bengal 743437",,"PQFJ+VFV, Baikara Rd",Arsula,743437,West Bengal,IN,https://www.google.com/maps/place/Arsulla+Jame+Masjid+%E0%A6%86%E0%A6%B0%E0%A6%B6%E0%A7%81%E0%A6%B2%E0%A7%8D%E0%A6%B2%E0%A6%BE+%E0%A6%9C%E0%A6%BE%E0%A6%AE%E0%A7%87+%E0%A6%AE%E0%A6%B8%E0%A6%9C%E0%A6%BF%E0%A6%A6/data=!4m7!3m6!1s0x39f8adcf18ff759f:0xf2fca0a5b9748232!8m2!3d22.7247448!4d88.7811616!16s%2Fg%2F11js4dwfmh!19sChIJn3X_GM-t-DkRMoJ0uaWg_PI?authuser=0&hl=en&rclk=1,"22.7247448,88.78116159999999"
Bajitpur Masjid,Mosque,"PV75+F2 Bajitpur Masjid, Bajitpur, West Bengal 743427",,PV75+F2,Bajitpur,743427,West Bengal,IN,https://www.google.com/maps/place/Bajitpur+Masjid/data=!4m7!3m6!1s0x39ff53c9804f274f:0xe3713ad502c15268!8m2!3d22.7131029!4d88.8579704!16s%2Fg%2F11l5zd99wp!19sChIJTydPgMlT_zkRaFLBAtU6ceM?authuser=0&hl=en&rclk=1,"22.7131029,88.8579704"
Jashaikati Notun Masjid yshaaikaatti ntun msjid,Mosque,"Jashaikati Notun Masjid yshaaikaatti ntun msjid, Jashaikati, West Bengal 743401",,,Jashaikati,743401,West Bengal,IN,https://www.google.com/maps/place/Jashaikati+Notun+Masjid+%E0%A6%AF%E0%A6%B6%E0%A6%BE%E0%A6%87%E0%A6%95%E0%A6%BE%E0%A6%9F%E0%A6%BF+%E0%A6%A8%E0%A6%A4%E0%A7%81%E0%A6%A8+%E0%A6%AE%E0%A6%B8%E0%A6%9C%E0%A6%BF%E0%A6%A6/data=!4m7!3m6!1s0x39ff53abace21ff7:0x3359f78ae0e2eb93!8m2!3d22.7574237!4d88.7949116!16s%2Fg%2F11t9ngzdbf!19sChIJ9x_irKtT_zkRk-vi4Ir3WTM?authuser=0&hl=en&rclk=1,"22.7574237,88.79491159999999"
Gokna Hatkhola jame mosjid,Mosque,"Gokna Hatkhola jame mosjid, jame mosjid, Gokna hatkhola bazar Gokna, Hatkhola, Baduria, West Bengal 743293",Hatkhola,"jame mosjid, Gokna hatkhola bazar Gokna","Baduria, Gokna",743293,West Bengal,IN,https://www.google.com/maps/place/Gokna+Hatkhola+jame+mosjid/data=!4m7!3m6!1s0x39f8ad8a6facb301:0xab8027d77cee0630!8m2!3d22.7138325!4d88.7504008!16s%2Fg%2F11hzqgcbtf!19sChIJAbOsb4qt-DkRMAbufNcngKs?authuser=0&hl=en&rclk=1,"22.7138325,88.7504008"
Raghunathpur Nurani jam e Masjid,Mosque,"Raghunathpur Nurani jam e Masjid, Baduria, Raghunathpur, West Bengal 743401",,,"Baduria, Raghunathpur",743401,West Bengal,IN,https://www.google.com/maps/place/Raghunathpur+Nurani+jam+e+Masjid/data=!4m7!3m6!1s0x39f8ad0c58ea9577:0xd6a19487bcb51aab!8m2!3d22.7301875!4d88.7665625!16s%2Fg%2F11t44397x_!19sChIJd5XqWAyt-DkRqxq1vIeUodY?authuser=0&hl=en&rclk=1,"22.7301875,88.76656249999999"
Masjid,Mosque,"PRGW+FXR Masjid, Kaijuri, Baduria, West Bengal 743427",,PRGW+FXR,"Kaijuri, Baduria",743427,West Bengal,IN,https://www.google.com/maps/place/Masjid/data=!4m7!3m6!1s0x39ff53a62ad2da85:0x7fedc809a41f2db5!8m2!3d22.726467!4d88.848268!16s%2Fg%2F11l1p5nlx9!19sChIJhdrSKqZT_zkRtS0fpAnI7X8?authuser=0&hl=en&rclk=1,"22.726467,88.84826799999999"
Chak Khorgachi Madina Jame Masjid,Mosque,"PVC2+GRF Chak Khorgachi Madina Jame Masjid, Baduria, Kefayetkati, West Bengal 743427",,PVC2+GRF,"Baduria, Kefayetkati",743427,West Bengal,IN,https://www.google.com/maps/place/Chak+Khorgachi+Madina+Jame+Masjid/data=!4m7!3m6!1s0x39ff531baf7cb337:0xab4df97972992293!8m2!3d22.7207022!4d88.8518676!16s%2Fg%2F11t_s61mcg!19sChIJN7N8rxtT_zkRkyKZcnn5Tas?authuser=0&hl=en&rclk=1,"22.720702199999998,88.85186759999999"
BADURIA BLOCK MARKAJ,Mosque,"PQMM+G69 BADURIA BLOCK MARKAJ, Baduria, West Bengal 743401",,PQMM+G69,Baduria,,West Bengal,IN,https://www.google.com/maps/place/BADURIA+BLOCK+MARKAJ/data=!4m7!3m6!1s0x39f8adca9830e831:0xc8e069f13958b64c!8m2!3d22.7337805!4d88.7831193!16s%2Fg%2F11sj_2cs2t!19sChIJMegwmMqt-DkRTLZYOfFp4Mg?authuser=0&hl=en&rclk=1,"22.733780499999998,88.7831193"
MASIA PURBAPARA JAME MASJID,Mosque,"PQMQ+95R MASIA PURBAPARA JAME MASJID, VILL-MASIA, P. O.-NAYABASTIA, P. S, Baduria, West Bengal",,"PQMQ+95R, VILL-MASIA, P. O.-NAYABASTIA, P. S",Baduria,,West Bengal,IN,https://www.google.com/maps/place/MASIA+PURBAPARA+JAME+MASJID/data=!4m7!3m6!1s0x39ff53e1a0cd562b:0x439a1878de725f8f!8m2!3d22.7334754!4d88.7878911!16s%2Fg%2F11rqx0zsn0!19sChIJK1bNoOFT_zkRj19y3ngYmkM?authuser=0&hl=en&rclk=1,"22.7334754,88.7878911"
Atghra Boro masjid. (aattghraa bdd' msjid),Mosque,"QQWG+Q8H Atghra Boro masjid. (aattghraa bdd' msjid), Atghra, Baduria, West Bengal 743438",,"QQWG+Q8H, Atghra","Baduria, Atghara",743438,West Bengal,IN,https://www.google.com/maps/place/Atghra+Boro+masjid.+%28%E0%A6%86%E0%A6%9F%E0%A6%98%E0%A6%B0%E0%A6%BE+%E0%A6%AC%E0%A6%A1%E0%A6%BC+%E0%A6%AE%E0%A6%B8%E0%A6%9C%E0%A6%BF%E0%A6%A6%29/data=!4m7!3m6!1s0x39f8ad32034f77d3:0xf23ffeb6736a162f!8m2!3d22.7969417!4d88.7758503!16s%2Fg%2F11qmbr5bjy!19sChIJ03dPAzKt-DkRLxZqc7b-P_I?authuser=0&hl=en&rclk=1,"22.796941699999998,88.7758503"
Biswas para MASJID,Mosque,"PQVF+QVG Biswas para MASJID, Gurudaha, West Bengal 743438",,PQVF+QVG,Gurudaha,743438,West Bengal,IN,https://www.google.com/maps/place/Biswas+para+MASJID/data=!4m7!3m6!1s0x39f8ade1acc8ae8f:0x47a82cc5708415b3!8m2!3d22.7444265!4d88.7746888!16s%2Fg%2F11l71b7k7j!19sChIJj67IrOGt-DkRsxWEcMUsqEc?authuser=0&hl=en&rclk=1,"22.7444265,88.77468879999999"
aarshullaa uttr paadd'aa jaame msjid,Mosque,"PQHM+F6W aarshullaa uttr paadd'aa jaame msjid, Arsulla Rd, Baduria, Arsula, West Bengal 743401",,"PQHM+F6W, Arsulla Rd","Baduria, Arsula",743401,West Bengal,IN,https://www.google.com/maps/place/%E0%A6%86%E0%A6%B0%E0%A6%B6%E0%A7%81%E0%A6%B2%E0%A7%8D%E0%A6%B2%E0%A6%BE+%E0%A6%89%E0%A6%A4%E0%A7%8D%E0%A6%A4%E0%A6%B0+%E0%A6%AA%E0%A6%BE%E0%A6%A1%E0%A6%BC%E0%A6%BE+%E0%A6%9C%E0%A6%BE%E0%A6%AE%E0%A7%87+%E0%A6%AE%E0%A6%B8%E0%A6%9C%E0%A6%BF%E0%A6%A6/data=!4m7!3m6!1s0x39f8ad1fa1b2b271:0xc72e8809f8d4d0e4!8m2!3d22.7287437!4d88.7830821!16s%2Fg%2F11sv1m6fx8!19sChIJcbKyoR-t-DkR5NDU-AmILsc?authuser=0&hl=en&rclk=1,"22.7287437,88.7830821"
Sangberia Mistri Para Jame Masjid,Mosque,"MQXJ+F4X Sangberia Mistri Para Jame Masjid, Sangbaria, West Bengal 743437",,MQXJ+F4X,Sangbaria,743437,West Bengal,IN,https://www.google.com/maps/place/Sangberia+Mistri+Para+Jame+Masjid/data=!4m7!3m6!1s0x39f8ab00e040103f:0x1703c82c0f51c605!8m2!3d22.6987419!4d88.7803687!16s%2Fg%2F11svl9wsdg!19sChIJPxBA4ACr-DkRBcZRDyzIAxc?authuser=0&hl=en&rclk=1,"22.698741899999998,88.7803687"
Narikel Beria Shia Masjid,Mosque,"QRR8+MFJ Narikel Beria Shia Masjid, Baduria, Narikelberia, West Bengal 743401",,QRR8+MFJ,"Baduria, Narikelberia",743401,West Bengal,IN,https://www.google.com/maps/place/Narikel+Beria+Shia+Masjid/data=!4m7!3m6!1s0x39ff53941cd4db63:0x48a6750ebc45057a!8m2!3d22.7917022!4d88.816149!16s%2Fg%2F11p64_xfhm!19sChIJY9vUHJRT_zkRegVFvA51pkg?authuser=0&hl=en&rclk=1,"22.7917022,88.816149"
