name,main_category,address,address_ward,address_street,address_city,address_postal_code,address_state,address_country_code,link,coordinates
Hazrat Imam Shah Data Chisty R.A (sunni mosque),Mosque,"G8Q2+R23 Hazrat Imam Shah Data Chisty R.A (sunni mosque), Heera Lal Colony, Amahiya, Rewa, Madhya Pradesh 486001","Heera Lal Colony, Amahiya",G8Q2+R23,Rewa,486001,Madhya Pradesh,IN,https://www.google.com/maps/place/Hazrat+Imam+Shah+Data+Chisty+R.A+%28sunni+mosque%29/data=!4m7!3m6!1s0x39845a347333922b:0x6b7bc48ac006b319!8m2!3d24.539512!4d81.3000378!16s%2Fg%2F1hc5v5vzr!19sChIJK5IzczRahDkRGbMGwIrEe2s?authuser=0&hl=en&rclk=1,"24.539512,81.3000378"
Masjid,Mosque,"G7MW+F22 Masjid, Narendra Nagar, Amaiya Colony, Rewa, Madhya Pradesh 486001","Narendra Nagar, Amaiya Colony",G7MW+F22,Rewa,486001,Madhya Pradesh,IN,https://www.google.com/maps/place/Masjid/data=!4m7!3m6!1s0x39845bb55c65f0eb:0x9c35c9176b67cf5e!8m2!3d24.533628!4d81.2950167!16s%2Fg%2F119vlp6kl!19sChIJ6_BlXLVbhDkRXs9naxfJNZw?authuser=0&hl=en&rclk=1,"24.533628,81.29501669999999"
SUNNI YASEEN MASJID MADARASA FAIZAN E RAZA,Mosque,"G7JV+MPX SUNNI YASEEN MASJID MADARASA FAIZAN E RAZA, Tarahti, Rewa, Madhya Pradesh 486001",Tarahti,G7JV+MPX,Rewa,486001,Madhya Pradesh,IN,https://www.google.com/maps/place/SUNNI+YASEEN+MASJID+MADARASA+FAIZAN+E+RAZA/data=!4m7!3m6!1s0x39845bb517005fd3:0xc734d3ecb72180a0!8m2!3d24.5317442!4d81.2943716!16s%2Fg%2F11d_tp2y6_!19sChIJ018AF7VbhDkRoIAht-zTNMc?authuser=0&hl=en&rclk=1,"24.5317442,81.29437159999999"
Bansagar Masjid,Mosque,"G8M7+RQM Bansagar Masjid, Unnamed Road,, Chhatrapati Nagar, Rewa, Madhya Pradesh 486001",Chhatrapati Nagar,"G8M7+RQM, Unnamed Road,",Rewa,486001,Madhya Pradesh,IN,https://www.google.com/maps/place/Bansagar+Masjid/data=!4m7!3m6!1s0x39845a407c71737b:0xc1d7bdc7080aed8!8m2!3d24.5345858!4d81.3144248!16s%2Fg%2F11c1t4x5zn!19sChIJe3NxfEBahDkR2K6AcNx7HQw?authuser=0&hl=en&rclk=1,"24.5345858,81.3144248"
Bansagar Masjid,Mosque,"G8P6+7X7 Bansagar Masjid, Chhatrapati Nagar, Rewa, Madhya Pradesh 486001",Chhatrapati Nagar,G8P6+7X7,Rewa,486001,Madhya Pradesh,IN,https://www.google.com/maps/place/Bansagar+Masjid/data=!4m7!3m6!1s0x39845a38b2ca1eb7:0x8bdf9926b19d703b!8m2!3d24.5356515!4d81.3124334!16s%2Fg%2F11c55kg4ys!19sChIJtx7KsjhahDkRO3CdsSaZ34s?authuser=0&hl=en&rclk=1,"24.5356515,81.3124334"
Falak Numa Mosque,Mosque,"Falak Numa Mosque, Allah Buqsh Colony, Boda Bag Housing Board Colony, Rewa, Madhya Pradesh 486003","Boda Bag Housing Board Colony, Vidya Nagar Colony",Allah Buqsh Colony,Rewa,486003,Madhya Pradesh,IN,https://www.google.com/maps/place/Falak+Numa+Mosque/data=!4m7!3m6!1s0x39845a28949604fb:0x1089f23ce298a8cf!8m2!3d24.5539412!4d81.3056348!16s%2Fg%2F11cmwws2xm!19sChIJ-wSWlChahDkRz6iY4jzyiRA?authuser=0&hl=en&rclk=1,"24.5539412,81.30563479999999"
Masjid Maulvi Sahab,Mosque,"G7MQ+624 Masjid Maulvi Sahab, Raniganj, Rewa, Madhya Pradesh 486001",Raniganj,G7MQ+624,Rewa,486001,Madhya Pradesh,IN,https://www.google.com/maps/place/Masjid+Maulvi+Sahab/data=!4m7!3m6!1s0x39845bb7d361d015:0x9dc8b49c25682978!8m2!3d24.5330158!4d81.2875699!16s%2Fg%2F11dxcptvq0!19sChIJFdBh07dbhDkReCloJZy0yJ0?authuser=0&hl=en&rclk=1,"24.533015799999998,81.2875699"
Eidgah Rewa,Mosque,"G7MP+P22 Eidgah Rewa, Raniganj, Madhya Pradesh 486001",Raniganj,G7MP+P22,,486001,Madhya Pradesh,IN,https://www.google.com/maps/place/Eidgah+Rewa/data=!4m7!3m6!1s0x39845bc80993f5f3:0xe4485b06592b89c6!8m2!3d24.5342746!4d81.2850201!16s%2Fg%2F1260mxnrf!19sChIJ8_WTCchbhDkRxokrWQZbSOQ?authuser=0&hl=en&rclk=1,"24.5342746,81.2850201"
Nizami Masjid Khutehi,Mosque,"G8W3+VRJ Nizami Masjid Khutehi, MDR, Khutehi, Rewa, Madhya Pradesh 486002",Khutehi,"G8W3+VRJ, MDR",Rewa,486002,Madhya Pradesh,IN,https://www.google.com/maps/place/Nizami+Masjid+Khutehi/data=!4m7!3m6!1s0x39845a2fcc1b16ad:0x48f08ce32bb7c79e!8m2!3d24.5472075!4d81.304506!16s%2Fg%2F1ptywqgl0!19sChIJrRYbzC9ahDkRnse3K-OM8Eg?authuser=0&hl=en&rclk=1,"24.5472075,81.30450599999999"
Rewa Masjid,Mosque,"JX3H+6CP Rewa Masjid, Baluwa, Bihar 801111",,JX3H+6CP,Baluwa,801111,Bihar,IN,https://www.google.com/maps/place/Rewa+Masjid/data=!4m7!3m6!1s0x39ed550b05db7e2d:0x25d997652c82dd4f!8m2!3d25.6030855!4d84.9785691!16s%2Fg%2F11g7229tth!19sChIJLX7bBQtV7TkRT92CLGWX2SU?authuser=0&hl=en&rclk=1,"25.6030855,84.9785691"
Madina Masjid,Mosque,"MG9W+4G3 Madina Masjid, Rewa, Madhya Pradesh 486111",,MG9W+4G3,Rewa,486111,Madhya Pradesh,IN,https://www.google.com/maps/place/Madina+Masjid/data=!4m7!3m6!1s0x39850077b9d90c99:0x1cd38804f2c85159!8m2!3d24.6677551!4d81.5462833!16s%2Fg%2F11c5_bcqgs!19sChIJmQzZuXcAhTkRWVHI8gSI0xw?authuser=0&hl=en&rclk=1,"24.667755099999997,81.5462833"
Allah rakhu Masjid,Religious destination,"G7JV+G95 Allah rakhu Masjid, Chikan Tola, Tarahti, Rewa, Madhya Pradesh 486001",Tarahti,"G7JV+G95, Chikan Tola",Rewa,486001,Madhya Pradesh,IN,https://www.google.com/maps/place/Allah+rakhu+Masjid/data=!4m7!3m6!1s0x39845bb59f50c78d:0x8c523004a6c70fd0!8m2!3d24.5312516!4d81.2934788!16s%2Fg%2F11g8xhc_k9!19sChIJjcdQn7VbhDkR0A_HpgQwUow?authuser=0&hl=en&rclk=1,"24.531251599999997,81.2934788"
madeena masjid,Place of worship,"Q4JX+HCF madeena masjid, Rewa, Madhya Pradesh 486445",,Q4JX+HCF,Rewa,486445,Madhya Pradesh,IN,https://www.google.com/maps/place/madeena+masjid/data=!4m7!3m6!1s0x39848cd8dffb5a59:0x9a7c2c0c0f71d3f5!8m2!3d24.7814257!4d81.1485375!16s%2Fg%2F11c1vltsrg!19sChIJWVr739iMhDkR9dNxDwwsfJo?authuser=0&hl=en&rclk=1,"24.7814257,81.1485375"
Jama Masjid Badi Dargah Rewa,Mosque,"G7QX+MX4 Jama Masjid Badi Dargah Rewa, Heera Lal Colony, Amahiya, Rewa, Madhya Pradesh 486001","Heera Lal Colony, Amahiya",G7QX+MX4,Rewa,486001,Madhya Pradesh,IN,https://www.google.com/maps/place/Jama+Masjid+Badi+Dargah+Rewa/data=!4m7!3m6!1s0x39845bd20dc25f73:0xfee675beea148a47!8m2!3d24.5391459!4d81.2999499!16s%2Fg%2F11ryt49p__!19sChIJc1_CDdJbhDkRR4oU6r515v4?authuser=0&hl=en&rclk=1,"24.539145899999998,81.2999499"
Shafique Jama Masjid,Mosque,"G7VJ+7W7 Shafique Jama Masjid, Padmadhar Colony, Rewa, Madhya Pradesh 486001",Padmadhar Colony,G7VJ+7W7,Rewa,486001,Madhya Pradesh,IN,https://www.google.com/maps/place/Shafique+Jama+Masjid/data=!4m7!3m6!1s0x39845b9834564dd1:0x34c37a8b98df2952!8m2!3d24.5430883!4d81.2822798!16s%2Fg%2F11kk7376vc!19sChIJ0U1WNJhbhDkRUinfmIt6wzQ?authuser=0&hl=en&rclk=1,"24.543088299999997,81.2822798"
Madni Masjid,Mosque,"G7MQ+7Q8 Madni Masjid, Ghoghar Rd, Raniganj, Rewa, Madhya Pradesh 486001",Raniganj,"G7MQ+7Q8, Ghoghar Rd",Rewa,486001,Madhya Pradesh,IN,https://www.google.com/maps/place/Madni+Masjid/data=!4m7!3m6!1s0x39845bfd278fc25f:0xa756b855c8d00b8c!8m2!3d24.5331665!4d81.2894507!16s%2Fg%2F11g0mc3x5h!19sChIJX8KPJ_1bhDkRjAvQyFW4Vqc?authuser=0&hl=en&rclk=1,"24.5331665,81.2894507"
Husainiya Masjid,Mosque,"G8V8+HWX Husainiya Masjid, Ravindra Nagar, Rewa, Madhya Pradesh 486001",Ravindra Nagar,G8V8+HWX,Rewa,486001,Madhya Pradesh,IN,https://www.google.com/maps/place/Husainiya+Masjid/data=!4m7!3m6!1s0x39845bd47d472115:0xa29840634156cfca!8m2!3d24.5439892!4d81.3173607!16s%2Fg%2F11qp0y28gc!19sChIJFSFHfdRbhDkRys9WQWNAmKI?authuser=0&hl=en&rclk=1,"24.5439892,81.3173607"
Sufi Masjid,Mosque,"G7MQ+5JP Sufi Masjid, Raniganj, Rewa, Madhya Pradesh 486001",Raniganj,G7MQ+5JP,Rewa,486001,Madhya Pradesh,IN,https://www.google.com/maps/place/Sufi+Masjid/data=!4m7!3m6!1s0x39845b60a572a0e9:0xab4691ae60ba67f0!8m2!3d24.5329545!4d81.289091!16s%2Fg%2F11fn8p09qf!19sChIJ6aBypWBbhDkR8Ge6YK6RRqs?authuser=0&hl=en&rclk=1,"24.5329545,81.289091"
Choti masjid Nipaniya rewa mp,Mosque,"G7FP+9R2 Choti masjid Nipaniya rewa mp, Nipania, Rewa, Madhya Pradesh 486001",Nipania,G7FP+9R2,Rewa,486001,Madhya Pradesh,IN,https://www.google.com/maps/place/Choti+masjid+Nipaniya+rewa+mp/data=!4m7!3m6!1s0x39845bb09b0d4f43:0xee62656cbd891c1a!8m2!3d24.5233921!4d81.2870083!16s%2Fg%2F11v0mv24b_!19sChIJQ08Nm7BbhDkRGhyJvWxlYu4?authuser=0&hl=en&rclk=1,"24.5233921,81.2870083"
Eid gah,Mosque,"G7MP+9PG Eid gah, Ghoghar Rd, Raniganj, Rewa, Madhya Pradesh 486001",Raniganj,"G7MP+9PG, Ghoghar Rd",Rewa,486001,Madhya Pradesh,IN,https://www.google.com/maps/place/Eid+gah/data=!4m7!3m6!1s0x39845bee29784c91:0x2bbcb7ea369c2a68!8m2!3d24.5334304!4d81.2868414!16s%2Fg%2F11j59s5318!19sChIJkUx4Ke5bhDkRaCqcNuq3vCs?authuser=0&hl=en&rclk=1,"24.5334304,81.2868414"
Mannan Masjid,Mosque,"G7JR+PR8 Mannan Masjid, Tarahti Rd, Tarahti, Rewa, Madhya Pradesh 486001",Tarahti,"G7JR+PR8, Tarahti Rd",Rewa,486001,Madhya Pradesh,IN,https://www.google.com/maps/place/Mannan+Masjid/data=!4m7!3m6!1s0x39845bcf9918c9d1:0x441bd7f90f1ab3d9!8m2!3d24.5317793!4d81.2920723!16s%2Fg%2F11tjmrs5cp!19sChIJ0ckYmc9bhDkR2bMaD_nXG0Q?authuser=0&hl=en&rclk=1,"24.5317793,81.2920723"
Turkan Masjid,Mosque,"G7MR+74F Turkan Masjid, Ghoghar Rd, Raniganj, Rewa, Madhya Pradesh 486001",Raniganj,"G7MR+74F, Ghoghar Rd",Rewa,486001,Madhya Pradesh,IN,https://www.google.com/maps/place/Turkan+Masjid/data=!4m7!3m6!1s0x39845bfb2277ef97:0x48b6e64232f352fa!8m2!3d24.5332308!4d81.2902608!16s%2Fg%2F11srz0f4d_!19sChIJl-93IvtbhDkR-lLzMkLmtkg?authuser=0&hl=en&rclk=1,"24.5332308,81.2902608"
Eid gah Ghogher rewa Madhaya Pradesh,Mosque,"G7QJ+4V4 Eid gah Ghogher rewa Madhaya Pradesh, Pushpraj Nagar, Madhya Pradesh 486001",Pushpraj Nagar,G7QJ+4V4,,486001,Madhya Pradesh,IN,https://www.google.com/maps/place/Eid+gah+Ghogher+rewa+Madhaya+Pradesh/data=!4m7!3m6!1s0x39845bcb685c7985:0xdfc6633a74518be9!8m2!3d24.5377705!4d81.2822102!16s%2Fg%2F11v03ybnmy!19sChIJhXlcaMtbhDkR6YtRdDpjxt8?authuser=0&hl=en&rclk=1,"24.5377705,81.2822102"
Amilkoni,Mosque,"G8P3+FFW Amilkoni, Aurrhat, Hari Bhushan Nagar, Rewa, Madhya Pradesh 486001","Aurrhat, Hari Bhushan Nagar",G8P3+FFW,Rewa,,Madhya Pradesh,IN,https://www.google.com/maps/place/Amilkoni/data=!4m7!3m6!1s0x39845b1d00414723:0x1f740cc3201581b4!8m2!3d24.5362477!4d81.3036946!16s%2Fg%2F11t5vfjzrl!19sChIJI0dBAB1bhDkRtIEVIMMMdB8?authuser=0&hl=en&rclk=1,"24.5362477,81.3036946"
