name,main_category,address,address_ward,address_street,address_city,address_postal_code,address_state,address_country_code,link,coordinates
"Ahle sunnat wal jamat jama Masjid,Jumman Chowk",Mosque,"866W+FC3 Ahle sunnat wal jamat jama Masjid,Jumman Chowk, Ahle sunnat wal jamat jama Masjid,Jumman Chowk,sultan Kabaddi , Jumman chowk, Block Office Rd, Palasi, Bihar 854318",,"866W+FC3, Ahle sunnat wal jamat jama Masjid,Jumman Chowk,sultan Kabaddi , Jumman chowk, Block Office Rd",Palasi,854318,Bihar,IN,"https://www.google.com/maps/place/Ahle+sunnat+wal+jamat+jama+Masjid,Jumman+Chowk/data=!4m7!3m6!1s0x39ef9f303d3ba503:0xb1d21d99a543083b!8m2!3d26.3090698!4d87.251296!16s%2Fg%2F11cn0np1xp!19sChIJA6U7PTCf7zkROwhDpZkd0rE?authuser=0&hl=en&rclk=1","26.3090698,87.251296"
jama masjid alam tola,Mosque,"77W9+M28 jama masjid alam tola, Forbesganj, Bihar 854318",,77W9+M28,Forbesganj,854318,Bihar,IN,https://www.google.com/maps/place/jama+masjid+alam+tola/data=!4m7!3m6!1s0x39ef992c8fa98acb:0x6a1341291562ab34!8m2!3d26.2966547!4d87.2675646!16s%2Fg%2F11d_7xdbdy!19sChIJy4qpjyyZ7zkRNKtiFSlBE2o?authuser=0&hl=en&rclk=1,"26.296654699999998,87.2675646"
JAMA MAJID,Mosque,"77X6+576 JAMA MAJID, Sadar Rd, Forbesganj, Bihar 854318",,"77X6+576, Sadar Rd",Forbesganj,854318,Bihar,IN,https://www.google.com/maps/place/JAMA+MAJID/data=!4m7!3m6!1s0x39ef98d5476f4e75:0x97d30874a6f556de!8m2!3d26.2979246!4d87.2606308!16s%2Fg%2F11cnwchrjf!19sChIJdU5vR9WY7zkR3lb1pnQI05c?authuser=0&hl=en&rclk=1,"26.297924599999998,87.2606308"
Saifganj Eid Gaah,Mosque,"Saifganj Eid Gaah, SH Road, Saifganj Eid Gaah, ward No:7, PO Parwaha, 854318, Forbesganj, Bihar",,"SH Road, Saifganj Eid Gaah, ward No:7, PO Parwaha, 854318","Forbesganj, Bhagparwaha",,Bihar,IN,https://www.google.com/maps/place/Saifganj+Eid+Gaah/data=!4m7!3m6!1s0x39ef98042b1b9c49:0xb8b55a9adf3b6b9c!8m2!3d26.2132754!4d87.2268711!16s%2Fg%2F11fy4n2pyn!19sChIJSZwbKwSY7zkRnGs735patbg?authuser=0&hl=en&rclk=1,"26.2132754,87.2268711"
jama masjid pokhar basti,Mosque,"77X9+QGV jama masjid pokhar basti, Forbesganj, Bihar 854318",,77X9+QGV,Forbesganj,854318,Bihar,IN,https://www.google.com/maps/place/jama+masjid+pokhar+basti/data=!4m7!3m6!1s0x39ef9ed32e65a6e7:0x96cfe5898bcfa746!8m2!3d26.2994963!4d87.2687954!16s%2Fg%2F11fxb7pkbp!19sChIJ56ZlLtOe7zkRRqfPi4nlz5Y?authuser=0&hl=en&rclk=1,"26.299496299999998,87.2687954"
"durgaa sthaan, pustkaaly phaarbisgNj",Hindu temple,"8736+J8R durgaa sthaan, pustkaaly phaarbisgNj, pustkaaly prisr, Forbesganj, Matiari, Bihar 854318",,8736+J8R pustkaaly prisr,"Forbesganj, Matiari",854318,Bihar,IN,"https://www.google.com/maps/place/%E0%A4%A6%E0%A5%81%E0%A4%B0%E0%A5%8D%E0%A4%97%E0%A4%BE+%E0%A4%B8%E0%A5%8D%E0%A4%A5%E0%A4%BE%E0%A4%A8,+%E0%A4%AA%E0%A5%81%E0%A4%B8%E0%A5%8D%E0%A4%A4%E0%A4%95%E0%A4%BE%E0%A4%B2%E0%A4%AF+%E0%A4%AB%E0%A4%BE%E0%A4%B0%E0%A4%AC%E0%A4%BF%E0%A4%B8%E0%A4%97%E0%A4%82%E0%A4%9C/data=!4m7!3m6!1s0x39ef9f2a19c94d05:0xa7b880d01b4853ed!8m2!3d26.304119!4d87.2607783!16s%2Fg%2F11f1njsw1l!19sChIJBU3JGSqf7zkR7VNIG9CAuKc?authuser=0&hl=en&rclk=1","26.304119,87.2607783"
Noorani Jama Masjid Dhatta Tola,Mosque,"77XC+6MJ Noorani Jama Masjid Dhatta Tola, Forbesganj, Bihar 854318",,77XC+6MJ,Forbesganj,,Bihar,IN,https://www.google.com/maps/place/Noorani+Jama+Masjid+Dhatta+Tola/data=!4m7!3m6!1s0x39ef9932a2802f05:0x664aad723802aa41!8m2!3d26.298082!4d87.2716251!16s%2Fg%2F11gfm_0s1l!19sChIJBS-AojKZ7zkRQaoCOHKtSmY?authuser=0&hl=en&rclk=1,"26.298081999999997,87.2716251"
Shehzada Alam,Mosque,"Shehzada Alam, Darji Tola, Bhagkohlia, Miahat, near Markaj Masjid, Forbesganj, Bihar 854318",,"Darji Tola, Bhagkohlia, Miahat, near Markaj Masjid","Forbesganj, Bhag Kohalia",854318,Bihar,IN,https://www.google.com/maps/place/Shehzada+Alam/data=!4m7!3m6!1s0x39ef9fab09708a41:0x7cebf98b125e7acb!8m2!3d26.3007758!4d87.2929278!16s%2Fg%2F11fd4brwj1!19sChIJQYpwCauf7zkRy3peEov563w?authuser=0&hl=en&rclk=1,"26.3007758,87.2929278"
Shia Jama Masjid,Mosque,"77WX+VV2 Shia Jama Masjid, mir kachari, Forbesganj, Parwaha, Bihar 854318",,77WX+VV2 mir kachari,"Forbesganj, Parwaha",,Bihar,IN,https://www.google.com/maps/place/Shia+Jama+Masjid/data=!4m7!3m6!1s0x39ef995505cf0563:0xbd883106f53851aa!8m2!3d26.2971287!4d87.2996254!16s%2Fg%2F11btxkx3yd!19sChIJYwXPBVWZ7zkRqlE49QYxiL0?authuser=0&hl=en&rclk=1,"26.2971287,87.2996254"
Chhoti Jama Masjid,Mosque,"77W8+Q2C Chhoti Jama Masjid, Forbesganj, Bihar 854318",,77W8+Q2C,Forbesganj,854318,Bihar,IN,https://www.google.com/maps/place/Chhoti+Jama+Masjid/data=!4m7!3m6!1s0x39ef992b0ea7a5c5:0x9babb5822374e092!8m2!3d26.2967482!4d87.2651124!16s%2Fg%2F11cpl0qnfg!19sChIJxaWnDiuZ7zkRkuB0I4K1q5s?authuser=0&hl=en&rclk=1,"26.2967482,87.26511239999999"
Forbesganj Eidgah,Mosque,"8742+632 Forbesganj Eidgah, NH 57A, Forbesganj, Bihar 854318",,"8742+632, NH 57A",Forbesganj,854318,Bihar,IN,https://www.google.com/maps/place/Forbesganj+Eidgah/data=!4m7!3m6!1s0x39ef9f319057177b:0xf1119206c1d4d70f!8m2!3d26.3055196!4d87.2501403!16s%2Fg%2F11b77kvvvh!19sChIJexdXkDGf7zkRD9fUwQaSEfE?authuser=0&hl=en&rclk=1,"26.3055196,87.2501403"
Masjid -e- abubakar,Mosque,"77V5+VVV Masjid -e- abubakar, NH 27, Forbesganj, Bihar 854318",,"77V5+VVV, NH 27",Forbesganj,854318,Bihar,IN,https://www.google.com/maps/place/Masjid+-e-+abubakar/data=!4m7!3m6!1s0x39ef994e22e914d3:0xd82c0a9c4524ad72!8m2!3d26.2947414!4d87.2596671!16s%2Fg%2F11nx23j02z!19sChIJ0xTpIk6Z7zkRcq0kRZwKLNg?authuser=0&hl=en&rclk=1,"26.2947414,87.2596671"
Dallu Tola Masjid (dlluu ttolaa msjid),Mosque,"8739+7XP Dallu Tola Masjid (dlluu ttolaa msjid), R N Dutta Rd, Forbesganj, Bihar 854318",,"8739+7XP, R N Dutta Rd",Forbesganj,854318,Bihar,IN,https://www.google.com/maps/place/Dallu+Tola+Masjid+%28%E0%A4%A6%E0%A4%B2%E0%A5%8D%E0%A4%B2%E0%A5%82+%E0%A4%9F%E0%A5%8B%E0%A4%B2%E0%A4%BE+%E0%A4%AE%E0%A4%B8%E0%A5%8D%E0%A4%9C%E0%A4%BF%E0%A4%A6%29/data=!4m7!3m6!1s0x39ef9f68f8163c07:0xa67ef782316b41a3!8m2!3d26.3032071!4d87.2699642!16s%2Fg%2F11p06pgqgq!19sChIJBzwW-Gif7zkRo0FrMYL3fqY?authuser=0&hl=en&rclk=1,"26.303207099999998,87.26996419999999"
MADNI JAMA MASJID (mdny jm` msjd) mdnii jaamaa msjid,Mosque,"MADNI JAMA MASJID (mdny jm` msjd) mdnii jaamaa msjid, Rampur South Masjid Road Ward No. 10, Forbesganj, Bihar 854318",,Rampur South Masjid Road Ward No. 10,"Forbesganj, Rampur North",854318,Bihar,IN,https://www.google.com/maps/place/MADNI+JAMA+MASJID+%28%D9%85%D8%AF%D9%86%DB%8C+%D8%AC%D8%A7%D9%85%D8%B9+%D9%85%D8%B3%D8%AC%D8%AF%29+%E0%A4%AE%E0%A4%A6%E0%A4%A8%E0%A5%80+%E0%A4%9C%E0%A4%BE%E0%A4%AE%E0%A4%BE+%E0%A4%AE%E0%A4%B8%E0%A5%8D%E0%A4%9C%E0%A4%BF%E0%A4%A6%E2%80%AD/data=!4m7!3m6!1s0x39ef99e0d06e4fa7:0x6f355f66e8605636!8m2!3d26.2844839!4d87.2434832!16s%2Fg%2F11mnccbbly!19sChIJp09u0OCZ7zkRNlZg6GZfNW8?authuser=0&hl=en&rclk=1,"26.284483899999998,87.2434832"
Ali tola masjid,School,"77V9+MMX Ali tola masjid, Forbesganj, Bihar 854318",,77V9+MMX,Forbesganj,854318,Bihar,IN,https://www.google.com/maps/place/Ali+tola+masjid/data=!4m7!3m6!1s0x39ef99dbe2c12aef:0x60224fc0a7a6fba!8m2!3d26.2942455!4d87.2692357!16s%2Fg%2F11k69l45fj!19sChIJ7yrB4tuZ7zkRum96CvwkAgY?authuser=0&hl=en&rclk=1,"26.2942455,87.2692357"
Badi Jama Masjid,Mosque,"77W8+Q2C Badi Jama Masjid, darbhangiya tola w.no 12, Forbesganj, Bihar 854318",,"77W8+Q2C, darbhangiya tola w.no 12",Forbesganj,854318,Bihar,IN,https://www.google.com/maps/place/Badi+Jama+Masjid/data=!4m7!3m6!1s0x39ef99098c8a12dd:0x7395c8e9fc577ba7!8m2!3d26.2969831!4d87.2650187!16s%2Fg%2F11fghk9h30!19sChIJ3RKKjAmZ7zkRp3tX_OnIlXM?authuser=0&hl=en&rclk=1,"26.2969831,87.2650187"
jama Masjid Bhalwa,Mosque,"jama Masjid Bhalwa, bhalwa, Forbesganj, Baghmara, Bihar 854318",,bhalwa,"Forbesganj, Baghmara",854318,Bihar,IN,https://www.google.com/maps/place/jama+Masjid+Bhalwa/data=!4m7!3m6!1s0x39ef9d5316d76b81:0x4c38a5be058a480a!8m2!3d26.3097442!4d87.3521159!16s%2Fg%2F11k2vgml5k!19sChIJgWvXFlOd7zkRCkiKBb6lOEw?authuser=0&hl=en&rclk=1,"26.309744199999997,87.3521159"
Bilal Masjid,Place of worship,"8729+G4F Bilal Masjid, Lee Academy Rd, Forbesganj, Bihar 854318",,"8729+G4F, Lee Academy Rd",Forbesganj,854318,Bihar,IN,https://www.google.com/maps/place/Bilal+Masjid/data=!4m7!3m6!1s0x39ef9fc29e1a14e9:0x7b5c6336639f0940!8m2!3d26.3013201!4d87.2677965!16s%2Fg%2F11hxzcx7t1!19sChIJ6RQansKf7zkRQAmfYzZjXHs?authuser=0&hl=en&rclk=1,"26.301320099999998,87.2677965"
Mosque,Place of worship,"Mosque, near , l n path ( gudari mohalla ward 14 airtal tower, fbg, Forbesganj, Bihar 854318",fbg,"near , l n path ( gudari mohalla ward 14 airtal tower",Forbesganj,854318,Bihar,IN,https://www.google.com/maps/place/Mosque/data=!4m7!3m6!1s0x39ef9f84b47a066f:0xc5900ead0417813a!8m2!3d26.3007337!4d87.2642491!16s%2Fg%2F11l3t0q_63!19sChIJbwZ6tISf7zkROoEXBK0OkMU?authuser=0&hl=en&rclk=1,"26.3007337,87.2642491"
JAME MASJID TAPPU TOLA pipra,Mosque,"JAME MASJID TAPPU TOLA pipra, TAPPU TOLA, PIPRA, Forbesganj",,"TAPPU TOLA, PIPRA","Forbesganj, Pipra",,Bihar,IN,https://www.google.com/maps/place/JAME+MASJID+TAPPU+TOLA+pipra/data=!4m7!3m6!1s0x39ef9f9e4d141c61:0x464a3ca862c44861!8m2!3d26.3385659!4d87.3007117!16s%2Fg%2F11lkx249hl!19sChIJYRwUTZ6f7zkRYUjEYqg8SkY?authuser=0&hl=en&rclk=1,"26.3385659,87.3007117"
Jama Masjid Dipoul,Mosque,"Jama Masjid Dipoul, PS jogbani, At Dipoul Post Amouna via Bathnaha, Forbesganj, Bihar 854316",,"PS jogbani, At Dipoul Post Amouna via Bathnaha","Forbesganj, Bhawanipur",854316,Bihar,IN,https://www.google.com/maps/place/Jama+Masjid+Dipoul/data=!4m7!3m6!1s0x39ef9f851d3b20cb:0xf0e4a12c90fc7d68!8m2!3d26.3624571!4d87.2529849!16s%2Fg%2F11sdwmdw7z!19sChIJyyA7HYWf7zkRaH38kCyh5PA?authuser=0&hl=en&rclk=1,"26.3624571,87.2529849"
Mohammadi Masjid,Mosque,"ward no 08, Mohammadi Masjid, Rampur South Nankar, Keshri Tola Rd, Forbesganj, Bihar 854318",Pokhar Basti,"ward no 08, Rampur South Nankar, Keshri Tola Rd",Forbesganj,854318,Bihar,IN,https://www.google.com/maps/place/Mohammadi+Masjid/data=!4m7!3m6!1s0x39ef991db19c5565:0xef5217864fffc621!8m2!3d26.2986027!4d87.2685707!16s%2Fg%2F11txtdkf38!19sChIJZVWcsR2Z7zkRIcb_T4YXUu8?authuser=0&hl=en&rclk=1,"26.2986027,87.2685707"
Masjid e Bilal Chowk,Mosque,"Masjid e Bilal Chowk, Ward No.13, Rampur, South, Forbesganj, Bihar 854318",,"Ward No.13, Rampur, South","Forbesganj, Rampur North",854318,Bihar,IN,https://www.google.com/maps/place/Masjid+e+Bilal+Chowk/data=!4m7!3m6!1s0x39ef9908106f9e63:0x2d376effde855dcc!8m2!3d26.2785605!4d87.2404765!16s%2Fg%2F11pcw4zqlg!19sChIJY55vEAiZ7zkRzF2F3v9uNy0?authuser=0&hl=en&rclk=1,"26.278560499999998,87.2404765"
