name,main_category,address,address_ward,address_street,address_city,address_postal_code,address_state,address_country_code,link,coordinates
Masjid E mohammadi,Mosque,"Masjid E mohammadi, 112, Mochibara Rd, Roshanganj Mohalla, Sikar, Rajasthan 332001",Roshanganj Mohalla,"112, Mochibara Rd",Sikar,332001,Rajasthan,IN,https://www.google.com/maps/place/Masjid+E+mohammadi/data=!4m7!3m6!1s0x396ca4dcb67fc4d9:0xe4771400a0a1da05!8m2!3d27.6195905!4d75.1357453!16s%2Fg%2F11dzdszqj9!19sChIJ2cR_ttykbDkRBdqhoAAUd-Q?authuser=0&hl=en&rclk=1,"27.619590499999997,75.1357453"
Jama Masjid jm` msjd,Mosque,"J47P+W67 Jama Masjid jm` msjd, Mohalla Jamidaran, Sikar, Rajasthan 332001",Mohalla Jamidaran,J47P+W67,Sikar,332001,Rajasthan,IN,https://www.google.com/maps/place/Jama+Masjid+%D8%AC%D8%A7%D9%85%D8%B9+%D9%85%D8%B3%D8%AC%D8%AF%E2%80%AD/data=!4m7!3m6!1s0x396ca4c3bffe3b75:0x1da5173826f9393f!8m2!3d27.6147981!4d75.1355503!16s%2Fg%2F1tgplfgb!19sChIJdTv-v8OkbDkRPzn5JjgXpR0?authuser=0&hl=en&rclk=1,"27.614798099999998,75.13555029999999"
Kabristan Nur Masjid,Mosque,"J4FP+FQF Kabristan Nur Masjid, near Osama Masjid, Roshanganj Mohalla, Sikar, Rajasthan 332001",Roshanganj Mohalla,"J4FP+FQF, near Osama Masjid",Sikar,332001,Rajasthan,IN,https://www.google.com/maps/place/Kabristan+Nur+Masjid/data=!4m7!3m6!1s0x396ca4dc1d6a280b:0xcb4211d56e4e9ba!8m2!3d27.6214307!4d75.1361217!16s%2Fg%2F11b5vymnj8!19sChIJCyhqHdykbDkRuunkVh0htAw?authuser=0&hl=en&rclk=1,"27.621430699999998,75.13612169999999"
Abrar Masjid,Mosque,"J4FR+666 Abrar Masjid, ABRAR MASJID, Mohalla Vyapariyan, Sikar, Rajasthan 332001",Mohalla Vapariyan,"J4FR+666, ABRAR MASJID, Mohalla Vyapariyan",Sikar,332001,Rajasthan,IN,https://www.google.com/maps/place/Abrar+Masjid/data=!4m7!3m6!1s0x396ca4da519e84df:0xb09b4668f3462698!8m2!3d27.6230415!4d75.1405266!16s%2Fg%2F11b5wpp9kb!19sChIJ34SeUdqkbDkRmCZG82hGm7A?authuser=0&hl=en&rclk=1,"27.6230415,75.1405266"
Abuzar Masjid,Mosque,"Abuzar Masjid, Mohalla Hussain Gunj, Sikar, Rajasthan 332001",Mohalla Hussain Gunj,,Sikar,332001,Rajasthan,IN,https://www.google.com/maps/place/Abuzar+Masjid/data=!4m7!3m6!1s0x396ca4e775a0bf05:0x597dd714373616c0!8m2!3d27.6215726!4d75.1300183!16s%2Fg%2F11fxww1yx6!19sChIJBb-gdeekbDkRwBY2NxTXfVk?authuser=0&hl=en&rclk=1,"27.6215726,75.1300183"
Sadar Masjid,Mosque,"J49Q+5JG Sadar Masjid, Mochiwara, Sikar, Rajasthan 332001",Mochiwara,J49Q+5JG,Sikar,332001,Rajasthan,IN,https://www.google.com/maps/place/Sadar+Masjid/data=!4m7!3m6!1s0x396ca4c4e8c08c29:0x9285acdf0105e039!8m2!3d27.6179312!4d75.1390778!16s%2Fg%2F1q6n2n_97!19sChIJKYzA6MSkbDkROeAFAd-shZI?authuser=0&hl=en&rclk=1,"27.617931199999997,75.1390778"
Fatima Masjid,Mosque,"Fatima Masjid, ward.No.50 fatehpur Road Sikar",Sabalpura,ward.No.50 fatehpur Road Sikar,Sikar,,Rajasthan,IN,https://www.google.com/maps/place/Fatima+Masjid/data=!4m7!3m6!1s0x396ca5202f3e8cc9:0x98634a06b0a1ae21!8m2!3d27.6324937!4d75.1316303!16s%2Fg%2F11bttglhhy!19sChIJyYw-LyClbDkRIa6hsAZKY5g?authuser=0&hl=en&rclk=1,"27.632493699999998,75.1316303"
Akbari masjid,Mosque,"Akbari masjid, Akbari Masjid Rd, Bargujar Nagar, Ambedkar Nagar, Sikar, Rajasthan 332001","Bargujar Nagar, Ambedkar Nagar",Akbari Masjid Rd,Sikar,332001,Rajasthan,IN,https://www.google.com/maps/place/Akbari+masjid/data=!4m7!3m6!1s0x396ca50572535eaf:0x9a5b8d28b104fdc9!8m2!3d27.6260425!4d75.1417003!16s%2Fg%2F11kj4ljp3g!19sChIJr15TcgWlbDkRyf0EsSiNW5o?authuser=0&hl=en&rclk=1,"27.6260425,75.1417003"
Khizra Mosque,Mosque,"J49J+GR9 Khizra Mosque, Roshanganj Mohalla, Sikar, Rajasthan 332001",Roshanganj Mohalla,J49J+GR9,Sikar,332001,Rajasthan,IN,https://www.google.com/maps/place/Khizra+Mosque/data=!4m7!3m6!1s0x396ca4c2b33c7591:0xced7c5341bff9e8c!8m2!3d27.6187754!4d75.1321073!16s%2Fg%2F12j8f285x!19sChIJkXU8s8KkbDkRjJ7_GzTF184?authuser=0&hl=en&rclk=1,"27.618775399999997,75.1321073"
AAISHA MASJID MOHALLA NARWAN SIKAR,Mosque,"J48J+PR9 AAISHA MASJID MOHALLA NARWAN SIKAR, Mohalla Jamidaran, Sikar, Rajasthan 332001",Mohalla Jamidaran,J48J+PR9,Sikar,332001,Rajasthan,IN,https://www.google.com/maps/place/AAISHA+MASJID+MOHALLA+NARWAN+SIKAR/data=!4m7!3m6!1s0x396ca4c2903c36d9:0xd92c3179d8f39705!8m2!3d27.6167789!4d75.1320997!16s%2Fg%2F1hm69fccy!19sChIJ2TY8kMKkbDkRBZfz2HkxLNk?authuser=0&hl=en&rclk=1,"27.6167789,75.1320997"
Haleema Masjid,Mosque,"J5FJ+GHX Haleema Masjid, Jaipur - Jhunjhunu Bypass Rd, Jaldhari Nagar, haleema coloni, Sikar, Rajasthan 332001","Jaldhari Nagar, haleema coloni","J5FJ+GHX, Jaipur - Jhunjhunu Bypass Rd",Sikar,332001,Rajasthan,IN,https://www.google.com/maps/place/Haleema+Masjid/data=!4m7!3m6!1s0x396cbb177ca64bc7:0xf4d60b297b09e254!8m2!3d27.6238571!4d75.1814808!16s%2Fg%2F11hcy_cb69!19sChIJx0umfBe7bDkRVOIJeykL1vQ?authuser=0&hl=en&rclk=1,"27.6238571,75.1814808"
Masjid Aaisha,Mosque,"J4FW+3F2 Masjid Aaisha, Mandia House Rd, Ward Number 45, Anand Nagar, Sikar, Rajasthan 332001","Ward Number 45, Anand Nagar","J4FW+3F2, Mandia House Rd",Sikar,332001,Rajasthan,IN,https://www.google.com/maps/place/Masjid+Aaisha/data=!4m7!3m6!1s0x396ca4d1a6f4b971:0x460cb10b45af79e5!8m2!3d27.6226453!4d75.1461494!16s%2Fg%2F11c52s3xfr!19sChIJcbn0ptGkbDkR5XmvRQuxDEY?authuser=0&hl=en&rclk=1,"27.6226453,75.1461494"
Mohalla Qureshiyan Masjid,Mosque,"J45R+7QW Mohalla Qureshiyan Masjid, Mohalla Qureshi, Sikar, Rajasthan 332001",Mohalla Qureshi,J45R+7QW,Sikar,332001,Rajasthan,IN,https://www.google.com/maps/place/Mohalla+Qureshiyan+Masjid/data=!4m7!3m6!1s0x396ca4b806f981ff:0xd8cf5972f9a70147!8m2!3d27.6082482!4d75.1419501!16s%2Fg%2F11c2pb7pc3!19sChIJ_4H5BrikbDkRRwGn-XJZz9g?authuser=0&hl=en&rclk=1,"27.6082482,75.1419501"
Masjid E Fatima Devipura Kothi Sikar,Mosque,"J42X+HHM Masjid E Fatima Devipura Kothi Sikar, Devipura, Sikar, Rajasthan 332001",Devipura,J42X+HHM,Sikar,332001,Rajasthan,IN,https://www.google.com/maps/place/Masjid+E+Fatima+Devipura+Kothi+Sikar/data=!4m7!3m6!1s0x396ca4b3d8356a6f:0xc4ff3533e31ef8ff!8m2!3d27.6014633!4d75.1489111!16s%2Fg%2F11d_wy1csn!19sChIJb2o12LOkbDkR__ge4zM1_8Q?authuser=0&hl=en&rclk=1,"27.6014633,75.14891109999999"
Makka Masjid,Mosque,"J44X+3MP Makka Masjid, Devipura Road, Sikar, Rajasthan 332001",Bisayatiyan Mohalla,"J44X+3MP, Devipura Road",Sikar,332001,Rajasthan,IN,https://www.google.com/maps/place/Makka+Masjid/data=!4m7!3m6!1s0x396ca4b4239c42a7:0x280b1f363686b312!8m2!3d27.605219!4d75.1491961!16s%2Fg%2F11d_8dhrbm!19sChIJp0KcI7SkbDkRErOGNjYfCyg?authuser=0&hl=en&rclk=1,"27.605218999999998,75.1491961"
Bismillah Masjid,Mosque,"J4MH+HV3 Bismillah Masjid, Sabalpura, Sikar, Rajasthan 332001",Sabalpura,J4MH+HV3,Sikar,332001,Rajasthan,IN,https://www.google.com/maps/place/Bismillah+Masjid/data=!4m7!3m6!1s0x396ca51f15226131:0x9ea34397cbcd41bf!8m2!3d27.6338965!4d75.1296747!16s%2Fg%2F11cpjcszry!19sChIJMWEiFR-lbDkRv0HNy5dDo54?authuser=0&hl=en&rclk=1,"27.6338965,75.1296747"
FURKAN MASJID,Mosque,"J4CR+8VG FURKAN MASJID, Deen Mohammed Rd, Gandhi Nagar, Sikar, Rajasthan 332001",Gandhi Nagar,"J4CR+8VG, Deen Mohammed Rd",Sikar,332001,Rajasthan,IN,https://www.google.com/maps/place/FURKAN+MASJID/data=!4m7!3m6!1s0x396ca4daa5112135:0xaba0bdbb376acd0a!8m2!3d27.620808!4d75.1422002!16s%2Fg%2F11b75nh0h2!19sChIJNSERpdqkbDkRCs1qN7u9oKs?authuser=0&hl=en&rclk=1,"27.620808,75.14220019999999"
Masjid Haji Mastan Shah,Mosque,"J542+P36 Masjid Haji Mastan Shah, Mastan Shah Rd, opp. Collectors House Mohalla Haji, Ward No 35, Sakpura Mohlla, Sikar, Rajasthan 332001","Ward No 35, Sakpura Mohlla","J542+P36, Mastan Shah Rd, opp. Collectors House Mohalla Haji",Sikar,332001,Rajasthan,IN,https://www.google.com/maps/place/Masjid+Haji+Mastan+Shah/data=!4m7!3m6!1s0x396ca4b5ca05eadb:0xa449b0cb0f61ae5!8m2!3d27.6067814!4d75.1501318!16s%2Fg%2F11fxc19x5k!19sChIJ2-oFyrWkbDkR5Rr2sAybRAo?authuser=0&hl=en&rclk=1,"27.6067814,75.1501318"
Mosque,Mosque,"J5F7+HF7 Mosque, Jat Colony, Sikar, Rajasthan 332001",Jat Colony,J5F7+HF7,Sikar,332001,Rajasthan,IN,https://www.google.com/maps/place/Mosque/data=!4m7!3m6!1s0x396cbb2fb5d5f187:0x1553ef4291b00766!8m2!3d27.623915!4d75.1636796!16s%2Fg%2F11c380cnwk!19sChIJh_HVtS-7bDkRZgewkULvUxU?authuser=0&hl=en&rclk=1,"27.623915,75.1636796"
Firdos Masjid,Mosque,"J4FM+M7C Firdos Masjid, firdos colony sikar rajasthan, Sikar",Roshanganj Mohalla,"J4FM+M7C, firdos colony sikar rajasthan",Sikar,,Rajasthan,IN,https://www.google.com/maps/place/Firdos+Masjid/data=!4m7!3m6!1s0x396ca4de1427f10b:0x6d7995ce3f515156!8m2!3d27.6241773!4d75.1331337!16s%2Fg%2F11b6q7wvzk!19sChIJC_EnFN6kbDkRVlFRP86VeW0?authuser=0&hl=en&rclk=1,"27.6241773,75.1331337"
bilal masjid,Mosque,"bilal masjid, 407/20, Dhod Rd, Rajnagar, Chandpol, Sikar, Rajasthan 332001","Rajnagar, Chandpol","407/20, Dhod Rd",Sikar,332001,Rajasthan,IN,https://www.google.com/maps/place/bilal+masjid/data=!4m7!3m6!1s0x396ca495bdc3a46b:0x18a46d773578f339!8m2!3d27.603207!4d75.1295785!16s%2Fg%2F11ddx53lj4!19sChIJa6TDvZWkbDkROfN4NXdtpBg?authuser=0&hl=en&rclk=1,"27.603206999999998,75.1295785"
Hidayt Masjid,Mosque,"J4MR+X5H Hidayt Masjid, Jagmalpura Rd, Bargujar Nagar, Ambedkar Nagar, Sikar, Rajasthan 332001","Bargujar Nagar, Ambedkar Nagar","J4MR+X5H, Jagmalpura Rd",Sikar,332001,Rajasthan,IN,https://www.google.com/maps/place/Hidayt+Masjid/data=!4m7!3m6!1s0x396ca5265b736a6b:0xbad3a14d8ad41fff!8m2!3d27.6349415!4d75.1404954!16s%2Fg%2F11b6_rfl6k!19sChIJa2pzWyalbDkR_x_Uik2h07o?authuser=0&hl=en&rclk=1,"27.6349415,75.14049539999999"
Madni Masjid,Mosque,"J47V+GRF Madni Masjid, Subhash Chowk, Sikar, Rajasthan 332001",Subhash Chowk,J47V+GRF,Sikar,332001,Rajasthan,IN,https://www.google.com/maps/place/Madni+Masjid/data=!4m7!3m6!1s0x396ca4c8c9b8fd83:0x6ea27a51514309d9!8m2!3d27.6138178!4d75.1445539!16s%2Fg%2F11fx7v5qb1!19sChIJg_24ycikbDkR2QlDUVF6om4?authuser=0&hl=en&rclk=1,"27.6138178,75.14455389999999"
Masjid Hakim Sahab,Mosque,"Masjid Hakim Sahab, Hakim Sahab Ki Dargah, Ke Pass, Mohalla Qureshi, Sikar, Rajasthan 332001",Mohalla Qureshi,"Hakim Sahab Ki Dargah, Ke Pass",Sikar,,Rajasthan,IN,https://www.google.com/maps/place/Masjid+Hakim+Sahab/data=!4m7!3m6!1s0x396ca4b7bc237ea5:0x17bd087c73d66fa6!8m2!3d27.6068976!4d75.1445746!16s%2Fg%2F11ggbtpr6s!19sChIJpX4jvLekbDkRpm_Wc3wIvRc?authuser=0&hl=en&rclk=1,"27.6068976,75.1445746"
Hamha Masjud,Mosque,"J4MW+C85 Hamha Masjud, Bhadwasi - Sikar Rd, Bargujar Nagar, Sikar, Rajasthan 332001",Bargujar Nagar,"J4MW+C85, Bhadwasi - Sikar Rd",Sikar,332001,Rajasthan,IN,https://www.google.com/maps/place/Hamha+Masjud/data=!4m7!3m6!1s0x396ca529b4becc69:0x72de42fc4ed640e!8m2!3d27.6335248!4d75.1458513!16s%2Fg%2F11b71v6rkq!19sChIJacy-tCmlbDkRDmTtxC_kLQc?authuser=0&hl=en&rclk=1,"27.6335248,75.14585129999999"
Masjid E Quba,Mosque,"J4HH+4W8 Masjid E Quba, Roshanganj Mohalla, Sikar, Rajasthan 332001",Roshanganj Mohalla,J4HH+4W8,Sikar,332001,Rajasthan,IN,https://www.google.com/maps/place/Masjid+E+Quba/data=!4m7!3m6!1s0x396ca4e0678c772d:0x38240a8afaa7dc84!8m2!3d27.6277987!4d75.1298322!16s%2Fg%2F11gg9f62tg!19sChIJLXeMZ-CkbDkRhNyn-ooKJDg?authuser=0&hl=en&rclk=1,"27.6277987,75.1298322"
Al-Farooqui Mosque,Mosque,"J4FX+X3P Al-Farooqui Mosque, Ward No.43, Ambedkar Nagar, Sikar, Rajasthan 332001","Ward No.43, Ambedkar Nagar",J4FX+X3P,Sikar,332001,Rajasthan,IN,https://www.google.com/maps/place/Al-Farooqui+Mosque/data=!4m7!3m6!1s0x396ca4d142479edf:0xd3963c5407b923a1!8m2!3d27.6249505!4d75.1477024!16s%2Fg%2F11h9rpz_mt!19sChIJ355HQtGkbDkRoSO5B1Q8ltM?authuser=0&hl=en&rclk=1,"27.624950499999997,75.1477024"
HALIMA MASJID,Mosque,"J44W+P85 HALIMA MASJID, Mohalla QureshIyan, Sikar, Rajasthan 332001",Mohalla QureshIyan,J44W+P85,Sikar,332001,Rajasthan,IN,https://www.google.com/maps/place/HALIMA+MASJID/data=!4m7!3m6!1s0x396ca5e40d4b85b5:0xa173fd0619e683f0!8m2!3d27.6067591!4d75.1458501!16s%2Fg%2F11fdly1xqk!19sChIJtYVLDeSlbDkR8IPmGQb9c6E?authuser=0&hl=en&rclk=1,"27.606759099999998,75.14585009999999"
Nagina Masjid,Mosque,"J45V+HWW Nagina Masjid, Station Road, Sikar, Rajasthan 332001","Ward No 35, Sakpura Mohlla, Radha Kishanpura","J45V+HWW, Station Road",Sikar,332001,Rajasthan,IN,https://www.google.com/maps/place/Nagina+Masjid/data=!4m7!3m6!1s0x396ca4c826ee32fd:0xae2417e035852cbf!8m2!3d27.6089861!4d75.1448207!16s%2Fg%2F11cm33z7r3!19sChIJ_TLuJsikbDkRvyyFNeAXJK4?authuser=0&hl=en&rclk=1,"27.6089861,75.1448207"
Masjid Abdullah Ibne Masood (RA),Mosque,"J4JP+CMR Masjid Abdullah Ibne Masood (RA), Jagmalpura Rd, Sabalpura, Sikar, Rajasthan 332001",Sabalpura,"J4JP+CMR, Jagmalpura Rd",Sikar,332001,Rajasthan,IN,https://www.google.com/maps/place/Masjid+Abdullah+Ibne+Masood+%28RA%29/data=!4m7!3m6!1s0x396ca52756f335d9:0x24f9269dbd8f3c09!8m2!3d27.6311258!4d75.1366309!16s%2Fg%2F11c1q51pk7!19sChIJ2TXzVielbDkRCTyPvZ0m-SQ?authuser=0&hl=en&rclk=1,"27.6311258,75.1366309"
Madina Masjid,Mosque,"J4HQ+6XP Madina Masjid, Mdina Masjid Rd, Bargujar Nagar, Ambedkar Nagar, Sikar, Rajasthan 332001","Bargujar Nagar, Ambedkar Nagar","J4HQ+6XP, Mdina Masjid Rd",Sikar,332001,Rajasthan,IN,https://www.google.com/maps/place/Madina+Masjid/data=!4m7!3m6!1s0x396ca4d9a9e5d92d:0x43eb8a76981b38c3!8m2!3d27.6280978!4d75.1399457!16s%2Fg%2F11b6_986xp!19sChIJLdnlqdmkbDkRwzgbmHaK60M?authuser=0&hl=en&rclk=1,"27.6280978,75.1399457"
kiblaa msjid,Mosque,"H5R5+J87 kiblaa msjid, Shanti Nagar, Sikar, Rajasthan 332001",Shanti Nagar,H5R5+J87,Sikar,332001,Rajasthan,IN,https://www.google.com/maps/place/%E0%A4%95%E0%A4%BF%E0%A4%AC%E0%A4%B2%E0%A4%BE+%E0%A4%AE%E0%A4%B8%E0%A5%8D%E0%A4%9C%E0%A4%BF%E0%A4%A6/data=!4m7!3m6!1s0x396cbb5442a6cf59:0x1bd5b6ccfc47157b!8m2!3d27.5915301!4d75.1582831!16s%2Fg%2F11ggb41lh7!19sChIJWc-mQlS7bDkRexVH_My21Rs?authuser=0&hl=en&rclk=1,"27.5915301,75.15828309999999"
Masjid Teliyan,Mosque,"J46V+VGP Masjid Teliyan, Tabela Road, Subhash Chowk, Sikar, Rajasthan 332001",Subhash Chowk,"J46V+VGP, Tabela Road",Sikar,332001,Rajasthan,IN,https://www.google.com/maps/place/Masjid+Teliyan/data=!4m7!3m6!1s0x396ca4c88e2890cd:0x776ae6f00910a8b5!8m2!3d27.6122082!4d75.1438176!16s%2Fg%2F11g6p0mycg!19sChIJzZAojsikbDkRtagQCfDmanc?authuser=0&hl=en&rclk=1,"27.612208199999998,75.14381759999999"
Eidgah chowk,Mosque,"J47P+X87 Eidgah chowk, Mohalla Jamidaran, Sikar, Rajasthan 332001",Mohalla Jamidaran,J47P+X87,Sikar,332001,Rajasthan,IN,https://www.google.com/maps/place/Eidgah+chowk/data=!4m7!3m6!1s0x396ca5dff0a3280b:0x190647c1b9c45b44!8m2!3d27.6149145!4d75.1358037!16s%2Fg%2F11h63b_pxl!19sChIJCyij8N-lbDkRRFvEucFHBhk?authuser=0&hl=en&rclk=1,"27.614914499999998,75.1358037"
RAHMAT MASJID,Mosque,"J4JM+75H RAHMAT MASJID, Bherupura, road, Sikar, Rajasthan 332001",Sabalpura,"J4JM+75H, Bherupura, road",Sikar,332001,Rajasthan,IN,https://www.google.com/maps/place/RAHMAT+MASJID/data=!4m7!3m6!1s0x396ca52074119bc7:0xad3590625ea380e7!8m2!3d27.6306847!4d75.1329855!16s%2Fg%2F11f2b0023v!19sChIJx5sRdCClbDkR54CjXmKQNa0?authuser=0&hl=en&rclk=1,"27.6306847,75.13298549999999"
Saad Masjid,Mosque,"J4JR+8JJ Saad Masjid, Mdina Masjid Rd, Bargujar Nagar, Ambedkar Nagar, Sikar, Rajasthan 332001","Bargujar Nagar, Ambedkar Nagar","J4JR+8JJ, Mdina Masjid Rd",Sikar,332001,Rajasthan,IN,https://www.google.com/maps/place/Saad+Masjid/data=!4m7!3m6!1s0x396ca4d80cf6ef51:0xe956784c2530b89b!8m2!3d27.6308462!4d75.1415178!16s%2Fg%2F11b7q59mbs!19sChIJUe_2DNikbDkRm7gwJUx4Vuk?authuser=0&hl=en&rclk=1,"27.630846199999997,75.1415178"
Rahamani Masjid,Mosque,"J577+F8M Rahamani Masjid, RTO Office Rd, Radhakishan Pura, Sikar, Samrathpura Rural, Rajasthan 332001",Radhakishan Pura,"J577+F8M, RTO Office Rd","Sikar, Samrathpura Rural",332001,Rajasthan,IN,https://www.google.com/maps/place/Rahamani+Masjid/data=!4m7!3m6!1s0x396cbb37aaaaaaab:0xf874a18cbcbdb3d3!8m2!3d27.6137201!4d75.163294!16s%2Fg%2F11dftlrvby!19sChIJq6qqqje7bDkR07O9vIyhdPg?authuser=0&hl=en&rclk=1,"27.6137201,75.163294"
MASJID MUHAMMADI,Mosque,"J573+M24 MASJID MUHAMMADI, Sakpura Mohlla, Sikar, Samrathpura Rural, Rajasthan 332001",Sakpura Mohlla,J573+M24,"Sikar, Samrathpura Rural",332001,Rajasthan,IN,https://www.google.com/maps/place/MASJID+MUHAMMADI/data=!4m7!3m6!1s0x396ca540d3cf8f61:0x2d9eebaee575754d!8m2!3d27.6141365!4d75.1525783!16s%2Fg%2F11gxs671dc!19sChIJYY_P00ClbDkRTXV15a7rni0?authuser=0&hl=en&rclk=1,"27.614136499999997,75.1525783"
"Jama Masjid, Kirdoli",Mosque,"M387+8W7 Jama Masjid, Kirdoli, Sikar Rd, Kirdoli, Rajasthan 332041",,"M387+8W7, Sikar Rd",Kirdoli,332041,Rajasthan,IN,"https://www.google.com/maps/place/Jama+Masjid,+Kirdoli/data=!4m7!3m6!1s0x396ca5fee2ebbf9b:0x3d0c1d975600a144!8m2!3d27.6657836!4d75.0648124!16s%2Fg%2F11b75ny9k7!19sChIJm7_r4v6lbDkRRKEAVpcdDD0?authuser=0&hl=en&rclk=1","27.665783599999997,75.0648124"
"Ali Masjid, Ali Nagar Sikar",Mosque,"J5F7+FCM Ali Masjid, Ali Nagar Sikar, Unnamed Road, Jat Colony, Sikar, Rajasthan 332001",Jat Colony,"J5F7+FCM, Unnamed Road",Sikar,332001,Rajasthan,IN,"https://www.google.com/maps/place/Ali+Masjid,+Ali+Nagar+Sikar/data=!4m7!3m6!1s0x396cbb0dc134c84f:0x4d3e0168b16fa654!8m2!3d27.6237138!4d75.1635521!16s%2Fg%2F11ghsbjmn_!19sChIJT8g0wQ27bDkRVKZvsWgBPk0?authuser=0&hl=en&rclk=1","27.623713799999997,75.16355209999999"
Alhamdu Masjid,Mosque,"Alhamdu Masjid, Ward No - 1, New Hussain Gunj, Sikar, Rajasthan 332001",Roshanganj Mohalla,"Ward No - 1, New Hussain Gunj",Sikar,332001,Rajasthan,IN,https://www.google.com/maps/place/Alhamdu+Masjid/data=!4m7!3m6!1s0x396ca4e1355dd491:0xd93bb7919d282f99!8m2!3d27.6240626!4d75.1268328!16s%2Fg%2F11fx89qq7z!19sChIJkdRdNeGkbDkRmS8onZG3O9k?authuser=0&hl=en&rclk=1,"27.6240626,75.1268328"
msjid e rhimiyaa Masjid e Rahimia,Mosque,"J4CR+74J msjid e rhimiyaa Masjid e Rahimia, Deen Mohammed Rd, Mohalla Vapariyan, Sikar, Rajasthan 332001",Mohalla Vapariyan,"J4CR+74J, Deen Mohammed Rd",Sikar,332001,Rajasthan,IN,https://www.google.com/maps/place/%E0%A4%AE%E0%A4%B8%E0%A5%8D%E0%A4%9C%E0%A4%BF%E0%A4%A6+%E0%A4%8F+%E0%A4%B0%E0%A4%B9%E0%A4%BF%E0%A4%AE%E0%A4%BF%E0%A4%AF%E0%A4%BE+Masjid+e+Rahimia/data=!4m7!3m6!1s0x396ca5c86e80d49b:0xe03bbdd27a5d11dd!8m2!3d27.6207084!4d75.1402517!16s%2Fg%2F11lrd303ty!19sChIJm9SAbsilbDkR3RFdetK9O-A?authuser=0&hl=en&rclk=1,"27.620708399999998,75.1402517"
Red Mosque,Mosque,"J47Q+F3J Red Mosque, near Fatehpuri Gate, Subhash Chowk, Sikar, Rajasthan 332001",Subhash Chowk,"J47Q+F3J, near Fatehpuri Gate",Sikar,332001,Rajasthan,IN,https://www.google.com/maps/place/Red+Mosque/data=!4m7!3m6!1s0x396ca4c4029e0033:0x314d22076fddb982!8m2!3d27.6137002!4d75.1376418!16s%2Fg%2F11cr_h6cf0!19sChIJMwCeAsSkbDkRgrndbwciTTE?authuser=0&hl=en&rclk=1,"27.6137002,75.1376418"
Hajrat Bilal Masjid. S. k,Mosque,"J4RR+G6J Hajrat Bilal Masjid. S. k, Jagmalpura Rd, Charan Singh Nagar, Sikar, Rajasthan 332001",Charan Singh Nagar,"J4RR+G6J, Jagmalpura Rd",Sikar,332001,Rajasthan,IN,https://www.google.com/maps/place/Hajrat+Bilal+Masjid.+S.+k/data=!4m7!3m6!1s0x396ca525228ccb57:0xcc04647fe1b7958f!8m2!3d27.6413262!4d75.1405215!16s%2Fg%2F11g6xqwv9l!19sChIJV8uMIiWlbDkRj5W34X9kBMw?authuser=0&hl=en&rclk=1,"27.641326199999998,75.14052149999999"
Aasiya Masjid,Mosque,"J4GJ+9FH Aasiya Masjid, Roshanganj Mohalla, Sikar, Rajasthan 332001",Roshanganj Mohalla,J4GJ+9FH,Sikar,332001,Rajasthan,IN,https://www.google.com/maps/place/Aasiya+Masjid/data=!4m7!3m6!1s0x396ca5a4fe28ee35:0x8e650d08b051fc20!8m2!3d27.6259441!4d75.1312235!16s%2Fg%2F11gjj403c4!19sChIJNe4o_qSlbDkRIPxRsAgNZY4?authuser=0&hl=en&rclk=1,"27.625944099999998,75.13122349999999"
Masjid e Islamia,Mosque,"Masjid e Islamia, Mohalla Islamia School, Mochiwara, Sikar, Rajasthan 332001",Mochiwara,Mohalla Islamia School,Sikar,332001,Rajasthan,IN,https://www.google.com/maps/place/Masjid+e+Islamia/data=!4m7!3m6!1s0x396ca4c540ca9c95:0x65a879c7fc54dc0e!8m2!3d27.6187686!4d75.1414958!16s%2Fg%2F11c53gggl_!19sChIJlZzKQMWkbDkRDtxU_Md5qGU?authuser=0&hl=en&rclk=1,"27.6187686,75.1414958"
shaikhpura mosque,Mosque,"J46W+3PF shaikhpura mosque, Ward No 35, Sakpura Mohlla, Radhakishan Pura, Sikar, Rajasthan 332001","Ward No 35, Sakpura Mohlla, Radhakishan Pura",J46W+3PF,Sikar,332001,Rajasthan,IN,https://www.google.com/maps/place/shaikhpura+mosque/data=!4m7!3m6!1s0x396ca574b17a864b:0xa558ab6713d8e6ec!8m2!3d27.6101981!4d75.1467908!16s%2Fg%2F11gv0p5qzd!19sChIJS4Z6sXSlbDkR7ObYE2erWKU?authuser=0&hl=en&rclk=1,"27.610198099999998,75.14679079999999"
Chirag Mosque,Mosque,"J48M+XRQ Chirag Mosque, Mochiwara Road, Sikar, Rajasthan 332001",Roshanganj Mohalla,"J48M+XRQ, Mochiwara Road",Sikar,332001,Rajasthan,IN,https://www.google.com/maps/place/Chirag+Mosque/data=!4m7!3m6!1s0x396ca4c319303ff3:0xefef8456aec78b73!8m2!3d27.617452!4d75.1346093!16s%2Fg%2F11fx8bddb0!19sChIJ8z8wGcOkbDkRc4vHrlaE7-8?authuser=0&hl=en&rclk=1,"27.617452,75.1346093"
Mosque and Dargah Peer Ali Bakhsh farooqui,Mosque,"Mosque and Dargah Peer Ali Bakhsh farooqui, 71, Salasir Rd, Mohalla Jamidaran, Mochiwara, Sikar, Rajasthan 332001",Mochiwara,"71, Salasir Rd, Mohalla Jamidaran",Sikar,332001,Rajasthan,IN,https://www.google.com/maps/place/Mosque+and+Dargah+Peer+Ali+Bakhsh+farooqui/data=!4m7!3m6!1s0x396ca4c2db76cb01:0x7bade43c6c012e67!8m2!3d27.6168811!4d75.1333883!16s%2Fg%2F11b6pzy6jr!19sChIJAct228KkbDkRZy4BbDzkrXs?authuser=0&hl=en&rclk=1,"27.6168811,75.1333883"
Masjid Syed Siraj Ali,Mosque,"Masjid Syed Siraj Ali, mochiwara road ,holykheda rasta water tanki, near sayyed siraj masjid, mohalla, roshan gunj, Sikar, Rajasthan 332001","mohalla, roshan gunj","mochiwara road ,holykheda rasta water tanki, near sayyed siraj masjid",Sikar,332001,Rajasthan,IN,https://www.google.com/maps/place/Masjid+Syed+Siraj+Ali/data=!4m7!3m6!1s0x396ca4dcd926cc63:0xbedccc090f793ec2!8m2!3d27.6200757!4d75.1343043!16s%2Fg%2F11f553xzsy!19sChIJY8wm2dykbDkRwj55DwnM3L4?authuser=0&hl=en&rclk=1,"27.620075699999997,75.1343043"
msjid saiyydnaa,Mosque,"J4JM+V6X msjid saiyydnaa, Sabalpura, Sikar, Rajasthan 332001",Sabalpura,J4JM+V6X,Sikar,332001,Rajasthan,IN,https://www.google.com/maps/place/%E0%A4%AE%E0%A4%B8%E0%A5%8D%E0%A4%9C%E0%A4%BF%E0%A4%A6+%E0%A4%B8%E0%A5%88%E0%A4%AF%E0%A5%8D%E0%A4%AF%E0%A4%A6%E0%A4%A8%E0%A4%BE/data=!4m7!3m6!1s0x396ca5bbb46f8a23:0xaccdf9036b500165!8m2!3d27.6322457!4d75.1330988!16s%2Fg%2F11gndmkjtq!19sChIJI4pvtLulbDkRZQFQawP5zaw?authuser=0&hl=en&rclk=1,"27.6322457,75.1330988"
Masjid Saad,Mosque,"J589+F88 Masjid Saad, New, Ward Number 38, Rana Colony, Radhakishan Pura, Sikar, Samrathpura Rural, Rajasthan 332001","Ward Number 38, Rana Colony, Radhakishan Pura","J589+F88, New","Sikar, Samrathpura Rural",332001,Rajasthan,IN,https://www.google.com/maps/place/Masjid+Saad/data=!4m7!3m6!1s0x396cbbbb8d8cbab9:0x420657e489e47297!8m2!3d27.6161718!4d75.1683381!16s%2Fg%2F11gyy9vc6t!19sChIJubqMjbu7bDkRl3LkieRXBkI?authuser=0&hl=en&rclk=1,"27.6161718,75.1683381"
Masjid Faizan-e-Madina,Mosque,"H5R7+873 Masjid Faizan-e-Madina, Industrial Area, Sikar, Rajasthan 332001",Industrial Area,H5R7+873,Sikar,332001,Rajasthan,IN,https://www.google.com/maps/place/Masjid+Faizan-e-Madina/data=!4m7!3m6!1s0x396cbb7084251e17:0x399d40dee6f3b41!8m2!3d27.5907721!4d75.1631678!16s%2Fg%2F11fmm140p0!19sChIJFx4lhHC7bDkRQTtv7g3UmQM?authuser=0&hl=en&rclk=1,"27.5907721,75.1631678"
Masjid-e-Aqsa msjid-e-aqsaa,Mosque,"J4PV+V74 Masjid-e-Aqsa msjid-e-aqsaa, Pada Mandi, Rajasthan 332001",,"J4PV+V74, Pada Mandi",Sikar,332001,Rajasthan,IN,https://www.google.com/maps/place/Masjid-e-Aqsa+%E0%A4%AE%E0%A4%B8%E0%A5%8D%E0%A4%9C%E0%A4%BF%E0%A4%A6-%E0%A4%8F-%E0%A4%85%E0%A5%98%E0%A5%8D%E0%A4%B8%E0%A4%BE/data=!4m7!3m6!1s0x396ca55e92ae8fad:0x479f90fe1f78339d!8m2!3d27.6371475!4d75.1431982!16s%2Fg%2F11h4v7_mfr!19sChIJrY-ukl6lbDkRnTN4H_6Qn0c?authuser=0&hl=en&rclk=1,"27.637147499999998,75.1431982"
Masjid Usama,Mosque,"ward no, Masjid Usama, 1, Asama Colony, Sikar, Rajasthan 332001",Asama Colony,"ward no, 1",Sikar,332001,Rajasthan,IN,https://www.google.com/maps/place/Masjid+Usama/data=!4m7!3m6!1s0x396ca4dcf40996fd:0x9e8abfedf47f70fa!8m2!3d27.6216075!4d75.1361031!16s%2Fg%2F11c54mmltf!19sChIJ_ZYJ9NykbDkR-nB_9O2_ip4?authuser=0&hl=en&rclk=1,"27.6216075,75.1361031"
DARGAH HAZRAT PEER ALI BAKSH R.A.,Mosque,"J49M+6F2 DARGAH HAZRAT PEER ALI BAKSH R.A., Mohalla Jamidaran, Sikar, Rajasthan 332001",Mohalla Jamidaran,J49M+6F2,Sikar,332001,Rajasthan,IN,https://www.google.com/maps/place/DARGAH+HAZRAT+PEER+ALI+BAKSH+R.A./data=!4m7!3m6!1s0x396ca565f596e5ed:0xb4e505e550d75604!8m2!3d27.6180076!4d75.1336556!16s%2Fg%2F11ghs8vxxr!19sChIJ7eWW9WWlbDkRBFbXUOUF5bQ?authuser=0&hl=en&rclk=1,"27.6180076,75.1336556"
Millat Masjid,Mosque,"J4HQ+G6G Millat Masjid, Jagmalpura Rd, Ambedkar Nagar, Sikar, Rajasthan 332001",Ambedkar Nagar,"J4HQ+G6G, Jagmalpura Rd",Sikar,332001,Rajasthan,IN,https://www.google.com/maps/place/Millat+Masjid/data=!4m7!3m6!1s0x396ca4d8c4aeefbd:0x8e5bd982d4bbc0f4!8m2!3d27.6288238!4d75.1380891!16s%2Fg%2F11c52mgr1p!19sChIJve-uxNikbDkR9MC71ILZW44?authuser=0&hl=en&rclk=1,"27.6288238,75.1380891"
Masjid-e-sulemaniya,Mosque,"J43J+WWX Masjid-e-sulemaniya, Chandpol, Sikar, Rajasthan 332001",Chandpol,J43J+WWX,Sikar,332001,Rajasthan,IN,https://www.google.com/maps/place/Masjid-e-sulemaniya/data=!4m7!3m6!1s0x396ca5d4f6ea52d5:0x15619337b373803c!8m2!3d27.6048661!4d75.1323589!16s%2Fg%2F11h_0vqtft!19sChIJ1VLq9tSlbDkRPIBzszeTYRU?authuser=0&hl=en&rclk=1,"27.6048661,75.1323589"
Hajrat Baba Jalal Kha,Mosque,"J49R+FG6 Hajrat Baba Jalal Kha, Islamia Masjid, Sikar, Rajasthan 332001",Mochiwara,"J49R+FG6, Islamia Masjid",Sikar,332001,Rajasthan,IN,https://www.google.com/maps/place/Hajrat+Baba+Jalal+Kha/data=!4m7!3m6!1s0x396ca4c53f17a033:0xd3333a3e9c983a2b!8m2!3d27.6186524!4d75.1412728!16s%2Fg%2F11g8nq26g9!19sChIJM6AXP8WkbDkRKzqYnD46M9M?authuser=0&hl=en&rclk=1,"27.6186524,75.1412728"
Al Madina Mosque,Mosque,"Al Madina Mosque, Kabristan Mohalla Hussainganj, Ward no: 11, Sikar, Rajasthan 332001",Mohalla Jamidaran,"Kabristan Mohalla Hussainganj, Ward no: 11",Sikar,332001,Rajasthan,IN,https://www.google.com/maps/place/Al+Madina+Mosque/data=!4m7!3m6!1s0x396ca5e882f93337:0xf7f973fd2bda47f3!8m2!3d27.6160689!4d75.1338093!16s%2Fg%2F11fgm3_tkt!19sChIJNzP5guilbDkR80faK_1z-fc?authuser=0&hl=en&rclk=1,"27.6160689,75.1338093"
Rukaiya Masjid,Mosque,"Rukaiya Masjid, 407/20, Chandpol, Sikar, Rajasthan 332001",Chandpol,407/20,Sikar,332001,Rajasthan,IN,https://www.google.com/maps/place/Rukaiya+Masjid/data=!4m7!3m6!1s0x396ca5dbcfa746dd:0xf85f939395bef7b8!8m2!3d27.6054694!4d75.1279168!16s%2Fg%2F11sbfbf0_7!19sChIJ3Uanz9ulbDkRuPe-lZOTX_g?authuser=0&hl=en&rclk=1,"27.6054694,75.1279168"
Masjid Kalandari,Mosque,"J46R+8WH Masjid Kalandari, Parik Mill Rd, Subhash Chowk, Sikar, Rajasthan 332001",Subhash Chowk,"J46R+8WH, Parik Mill Rd",Sikar,332001,Rajasthan,IN,https://www.google.com/maps/place/Masjid+Kalandari/data=!4m7!3m6!1s0x396ca4c7d0e2b1cf:0x89dead3753f35700!8m2!3d27.6108083!4d75.1423635!16s%2Fg%2F11dxbp4w63!19sChIJz7Hi0MekbDkRAFfzUzet3ok?authuser=0&hl=en&rclk=1,"27.6108083,75.1423635"
Kohinoor Masjid,Mosque,"H5W6+2FW Kohinoor Masjid, Industrial Area, Sikar, Rajasthan 332001",Industrial Area,H5W6+2FW,Sikar,332001,Rajasthan,IN,https://www.google.com/maps/place/Kohinoor+Masjid/data=!4m7!3m6!1s0x396cbb7b67a680f9:0x831d021c53e59dcc!8m2!3d27.5951236!4d75.161211!16s%2Fg%2F11h1m419mc!19sChIJ-YCmZ3u7bDkRzJ3lUxwCHYM?authuser=0&hl=en&rclk=1,"27.595123599999997,75.161211"
Badi Masjid Bisayatiyan bdddhii msjid bisaaytiyaan,Mosque,"J45V+C6H Badi Masjid Bisayatiyan bdddhii msjid bisaaytiyaan, Mohalla Qureshi, Sikar, Rajasthan 332001",Mohalla Qureshi,J45V+C6H,Sikar,332001,Rajasthan,IN,https://www.google.com/maps/place/Badi+Masjid+Bisayatiyan+%E0%A4%AC%E0%A5%9C%E0%A5%80+%E0%A4%AE%E0%A4%B8%E0%A5%8D%E0%A4%9C%E0%A4%BF%E0%A4%A6+%E0%A4%AC%E0%A4%BF%E0%A4%B8%E0%A4%BE%E0%A4%AF%E0%A4%A4%E0%A4%BF%E0%A4%AF%E0%A4%BE%E0%A4%A8/data=!4m7!3m6!1s0x396ca5302c5c48f9:0x9dbd10da4aa3b457!8m2!3d27.6085584!4d75.1431052!16s%2Fg%2F11fph7zgdw!19sChIJ-UhcLDClbDkRV7SjStoQvZ0?authuser=0&hl=en&rclk=1,"27.6085584,75.1431052"
Masjid Noor A Fatima,Mosque,"J5G9+RVF Masjid Noor A Fatima, Piprali Rd, Jat Colony, Sikar, Rajasthan 332001",Jat Colony,"J5G9+RVF, Piprali Rd",Sikar,,Rajasthan,IN,https://www.google.com/maps/place/Masjid+Noor+A+Fatima/data=!4m7!3m6!1s0x396cbbc739f220b5:0x4bea1fe90fc33551!8m2!3d27.627062!4d75.1696831!16s%2Fg%2F11s87r1h0w!19sChIJtSDyOce7bDkRUTXDD-kf6ks?authuser=0&hl=en&rclk=1,"27.627062,75.1696831"
Masjid Khalid bin Waleed,Mosque,"J4JV+G9Q Masjid Khalid bin Waleed, Unnamed Road, Bargujar Nagar, Ambedkar Nagar, Sikar, Rajasthan 332001","Bargujar Nagar, Ambedkar Nagar","J4JV+G9Q, Unnamed Road",Sikar,332001,Rajasthan,IN,https://www.google.com/maps/place/Masjid+Khalid+bin+Waleed/data=!4m7!3m6!1s0x396ca57707592cc5:0x10a1c8f4c2e53398!8m2!3d27.6313441!4d75.1434834!16s%2Fg%2F11mxqlwm4b!19sChIJxSxZB3elbDkRmDPlwvTIoRA?authuser=0&hl=en&rclk=1,"27.6313441,75.1434834"
Masjid Qaziyaan,Mosque,"J49R+86C Masjid Qaziyaan, Bajaj Rd, Madhoganj Mohaalla, Subhash Chowk, Sikar, Rajasthan 332001","Madhoganj Mohaalla, Subhash Chowk","J49R+86C, Bajaj Rd",Sikar,332001,Rajasthan,IN,https://www.google.com/maps/place/Masjid+Qaziyaan/data=!4m7!3m6!1s0x396ca4c5178df1c3:0x1c3bbdfb053ab237!8m2!3d27.6183037!4d75.1405141!16s%2Fg%2F11g6tvsxfw!19sChIJw_GNF8WkbDkRN7I6Bfu9Oxw?authuser=0&hl=en&rclk=1,"27.6183037,75.14051409999999"
Hajrat bilal masjid,Mosque,"J4JQ+R2J Hajrat bilal masjid, Jagmalpura Rd, Ambedkar Nagar, Sikar, Rajasthan 332001",Ambedkar Nagar,"J4JQ+R2J, Jagmalpura Rd",Sikar,332001,Rajasthan,IN,https://www.google.com/maps/place/Hajrat+bilal+masjid/data=!4m7!3m6!1s0x396ca58b03ef20dd:0xa103c76bb8010da1!8m2!3d27.632097!4d75.1375304!16s%2Fg%2F11fn90_49f!19sChIJ3SDvA4ulbDkRoQ0BuGvHA6E?authuser=0&hl=en&rclk=1,"27.632096999999998,75.1375304"
Abu hanifa Masjid ,Mosque,"Abu hanifa Masjid , Abu hanifa masjid, Dhod Rd, behind Pragati School, Chandpol, Sikar, Rajasthan 332001",Chandpol,"Abu hanifa masjid, Dhod Rd, behind Pragati School",Sikar,332001,Rajasthan,IN,https://www.google.com/maps/place/Abu+hanifa+Masjid+%F0%9F%95%8C/data=!4m7!3m6!1s0x396ca52813d8d5cf:0xbcda057dd5ee0096!8m2!3d27.5979217!4d75.1269173!16s%2Fg%2F11hyygy7tm!19sChIJz9XYEyilbDkRlgDu1X0F2rw?authuser=0&hl=en&rclk=1,"27.597921699999997,75.1269173"
MADINA MASZID,Mosque,"MADINA MASZID, Harijan Basti, Sikar, Rajasthan 332001",Harijan Basti,,Sikar,332001,Rajasthan,IN,https://www.google.com/maps/place/MADINA+MASZID/data=!4m7!3m6!1s0x396ca5b89ad70feb:0x9e79e1dcb753a5b4!8m2!3d27.6128206!4d75.1299122!16s%2Fg%2F11g0l3y6zc!19sChIJ6w_XmrilbDkRtKVTt9zheZ4?authuser=0&hl=en&rclk=1,"27.6128206,75.12991219999999"
Masjid khadija tul kubra,Mosque,"J45V+H6R Masjid khadija tul kubra, Mohalla daraab, ka, Sikar, Rajasthan 332001",Mohalla Qureshi,"J45V+H6R, Mohalla daraab, ka",Sikar,332001,Rajasthan,IN,https://www.google.com/maps/place/Masjid+khadija+tul+kubra/data=!4m7!3m6!1s0x396ca56f9fbbdbf7:0xdda844e4139a589e!8m2!3d27.6089795!4d75.1430093!16s%2Fg%2F11srzmh6sf!19sChIJ99u7n2-lbDkRnliaE-REqN0?authuser=0&hl=en&rclk=1,"27.6089795,75.1430093"
Masjid hajrat Abdullah ibney umar,Mosque,"J5H2+44F Masjid hajrat Abdullah ibney umar, Anand Nagar, Sikar, Samrathpura Rural, Rajasthan 332001",Anand Nagar,J5H2+44F,"Sikar, Samrathpura Rural",332001,Rajasthan,IN,https://www.google.com/maps/place/Masjid+hajrat+Abdullah+ibney+umar/data=!4m7!3m6!1s0x396ca507fa329bf7:0xfeaab27a1a4e8611!8m2!3d27.6278064!4d75.1508638!16s%2Fg%2F11qbh19s5_!19sChIJ95sy-gelbDkREYZOGnqyqv4?authuser=0&hl=en&rclk=1,"27.627806399999997,75.1508638"
masjid subhan allha,Mosque,"J4MM+V8W masjid subhan allha, Virat nagar, Sabalpura, Sikar, Rajasthan 332001","Virat nagar, Sabalpura",J4MM+V8W,Sikar,332001,Rajasthan,IN,https://www.google.com/maps/place/masjid+subhan+allha/data=!4m7!3m6!1s0x396ca5745553a7f1:0x88aa3bb336437ecf!8m2!3d27.6347431!4d75.1333312!16s%2Fg%2F11ft8pvk95!19sChIJ8adTVXSlbDkRz35DNrM7qog?authuser=0&hl=en&rclk=1,"27.634743099999998,75.1333312"
Masjid Abu Huraira,Mosque,"J4CP+J42 Masjid Abu Huraira, Roshanganj Mohalla, Sikar, Rajasthan 332001",Roshanganj Mohalla,J4CP+J42,Sikar,332001,Rajasthan,IN,https://www.google.com/maps/place/Masjid+Abu+Huraira/data=!4m7!3m6!1s0x396ca57e59985f3d:0x3c10311ef00f84b!8m2!3d27.6217613!4d75.1353029!16s%2Fg%2F11kprp8kn_!19sChIJPV-YWX6lbDkRS_gA7xEDwQM?authuser=0&hl=en&rclk=1,"27.6217613,75.1353029"
Masjid-E-Fatima,Mosque,"J48P+VXG Masjid-E-Fatima, Mochiwara market, Mohalla pinaran, Mochiwara, Sikar, Rajasthan 332001",Mochiwara,"J48P+VXG, Mochiwara market, Mohalla pinaran",Sikar,332001,Rajasthan,IN,https://www.google.com/maps/place/Masjid-E-Fatima/data=!4m7!3m6!1s0x396ca52a5900e5b5:0xdfd6bfe5c91b382a!8m2!3d27.6171959!4d75.137441!16s%2Fg%2F11qn6302ts!19sChIJteUAWSqlbDkRKjgbyeW_1t8?authuser=0&hl=en&rclk=1,"27.6171959,75.137441"
Masjid Mohammadi,Mosque,"J542+W3F Masjid Mohammadi, Ward No 35, Sakpura Mohlla, Police Lines, Sikar, Rajasthan 332001","Ward No 35, Sakpura Mohlla, Police Lines",J542+W3F,Sikar,332001,Rajasthan,IN,https://www.google.com/maps/place/Masjid+Mohammadi/data=!4m7!3m6!1s0x396ca53ddf75c94d:0x984baacb7de3a18e!8m2!3d27.607304!4d75.1501604!16s%2Fg%2F11fl3yg75p!19sChIJTcl13z2lbDkRjqHjfcuqS5g?authuser=0&hl=en&rclk=1,"27.607304,75.15016039999999"
Aayesha Masjid,Mosque,"H4WJ+7G9 Aayesha Masjid, Chandpol, Sikar, Rajasthan 332001",Chandpol,H4WJ+7G9,Sikar,332001,Rajasthan,IN,https://www.google.com/maps/place/Aayesha+Masjid/data=!4m7!3m6!1s0x396ca4a2aaf95555:0x4e9df430e6107558!8m2!3d27.5956619!4d75.131347!16s%2Fg%2F11kj3f8hql!19sChIJVVX5qqKkbDkRWHUQ5jD0nU4?authuser=0&hl=en&rclk=1,"27.5956619,75.13134699999999"
Masjid fazle hak,Mosque,"Masjid fazle hak, Nehru Garden, Salasar - Sikar Rd, Roshanganj Mohalla, Sikar, Rajasthan 332001",Roshanganj Mohalla,"Nehru Garden, Salasar - Sikar Rd",Sikar,332001,Rajasthan,IN,https://www.google.com/maps/place/Masjid+fazle+hak/data=!4m7!3m6!1s0x396ca54dbc5e192f:0xf676144d0e83a936!8m2!3d27.6201767!4d75.1240725!16s%2Fg%2F11j3sf5tzh!19sChIJLxlevE2lbDkRNqmDDk0UdvY?authuser=0&hl=en&rclk=1,"27.6201767,75.1240725"
Masjid E Abu Huraira,Charity,"Ward Number 13, Masjid E Abu Huraira, mohalla Roshanganj, Sikar, Rajasthan 332001",mohalla Roshanganj,Ward Number 13,Sikar,332001,Rajasthan,IN,https://www.google.com/maps/place/Masjid+E+Abu+Huraira/data=!4m7!3m6!1s0x396ca5f5c26a4997:0xcc4cae1a64f9be33!8m2!3d27.6210935!4d75.1326841!16s%2Fg%2F11nx3l6dc0!19sChIJl0lqwvWlbDkRM775ZBquTMw?authuser=0&hl=en&rclk=1,"27.621093499999997,75.13268409999999"
Masjid Umar bin khattab,Mosque,"J4HW+MQ Masjid Umar bin khattab, Ambedkar Nagar, Sikar, Rajasthan 332001",Ambedkar Nagar,J4HW+MQ,Sikar,,Rajasthan,IN,https://www.google.com/maps/place/Masjid+Umar+bin+khattab/data=!4m7!3m6!1s0x396ca5fc2ad83b65:0x41788413d08e2d2a!8m2!3d27.6292265!4d75.1469864!16s%2Fg%2F11spqgfj52!19sChIJZTvYKvylbDkRKi2O0BOEeEE?authuser=0&hl=en&rclk=1,"27.629226499999998,75.1469864"
Masjid talhah,Mosque,"J5J2+24 Masjid talhah, Bargujar Nagar, Sikar, Rajasthan 332001",Bargujar Nagar,J5J2+24,Sikar,,Rajasthan,IN,https://www.google.com/maps/place/Masjid+talhah/data=!4m7!3m6!1s0x396ca54eed162901:0xad3cfd523fca61a3!8m2!3d27.6300149!4d75.1502529!16s%2Fg%2F11k9d7xbmw!19sChIJASkW7U6lbDkRo2HKP1L9PK0?authuser=0&hl=en&rclk=1,"27.6300149,75.1502529"
Imam Jama Masjid Sikar,Religious destination,"ward no 14, Imam Jama Masjid Sikar, Bajaj Rd, Subhash Chowk, Sikar, Rajasthan 332001",Subhash Chowk,"ward no 14, Bajaj Rd",Sikar,332001,Rajasthan,IN,https://www.google.com/maps/place/Imam+Jama+Masjid+Sikar/data=!4m7!3m6!1s0x396ca56467982903:0x47067ba479b76684!8m2!3d27.6139514!4d75.1464759!16s%2Fg%2F11fpfrcm8k!19sChIJAymYZ2SlbDkRhGa3eaR7Bkc?authuser=0&hl=en&rclk=1,"27.613951399999998,75.1464759"
Masjid Ali,Mosque,"J4HJ+XVQ Masjid Ali, Fatehpur Rd, Roshanganj Mohalla, Sikar, Rajasthan 332001",Roshanganj Mohalla,"J4HJ+XVQ, Fatehpur Rd",Sikar,332001,Rajasthan,IN,https://www.google.com/maps/place/Masjid+Ali/data=!4m7!3m6!1s0x396ca5698a0ea74f:0x421b1c1f0954d9b1!8m2!3d27.6299567!4d75.1322492!16s%2Fg%2F11r618yg1p!19sChIJT6cOimmlbDkRsdlUCR8cG0I?authuser=0&hl=en&rclk=1,"27.629956699999997,75.13224919999999"
Halima masjid,Mosque,"J4HR+XG8 Halima masjid, Bargujar Nagar, Ambedkar Nagar, Sikar, Rajasthan 332001","Bargujar Nagar, Ambedkar Nagar",J4HR+XG8,Sikar,332001,Rajasthan,IN,https://www.google.com/maps/place/Halima+masjid/data=!4m7!3m6!1s0x396ca533f3644973:0xb6f7d3efbc82c7fe!8m2!3d27.6299017!4d75.1413292!16s%2Fg%2F11s5066vv5!19sChIJc0lk8zOlbDkR_seCvO_T97Y?authuser=0&hl=en&rclk=1,"27.629901699999998,75.1413292"
Hamza masjid,Mosque,"J43W+V2W Hamza masjid, Devipura Rd, Tilak Nagar, Sikar, Rajasthan 332001",Tilak Nagar,"J43W+V2W, Devipura Rd",Sikar,332001,Rajasthan,IN,https://www.google.com/maps/place/Hamza+masjid/data=!4m7!3m6!1s0x396ca55830e6c649:0x108d979f18fc8b44!8m2!3d27.60474!4d75.145084!16s%2Fg%2F11stvqyfc4!19sChIJScbmMFilbDkRRIv8GJ-XjRA?authuser=0&hl=en&rclk=1,"27.60474,75.145084"
Rahmaniya Masjid,Mosque,"J44M+4H2 Rahmaniya Masjid, Chandpol, Sikar, Rajasthan 332001",Chandpol,J44M+4H2,Sikar,332001,Rajasthan,IN,https://www.google.com/maps/place/Rahmaniya+Masjid/data=!4m7!3m6!1s0x396ca4bfa8faaaab:0x54a601b724e53e6a!8m2!3d27.6052744!4d75.1338784!16s%2Fg%2F11txmzj_6m!19sChIJq6r6qL-kbDkRaj7lJLcBplQ?authuser=0&hl=en&rclk=1,"27.6052744,75.1338784"
Masjid,Mosque,"J4QC+2X7 Masjid, Shiv Colony, Sabalpura, Sikar, Rajasthan 332001","Shiv Colony, Sabalpura",J4QC+2X7,Sikar,332001,Rajasthan,IN,https://www.google.com/maps/place/Masjid/data=!4m7!3m6!1s0x396ca552e7e9cb3b:0xbb384ebb8f5c2662!8m2!3d27.636421!4d75.1226697!16s%2Fg%2F11khx_f4x2!19sChIJO8vp51KlbDkRYiZcj7tOOLs?authuser=0&hl=en&rclk=1,"27.636421,75.1226697"
Noor Masjid,Mosque,"J4FP+FQF Noor Masjid, Roshanganj Mohalla, Sikar, Rajasthan 332001",Roshanganj Mohalla,J4FP+FQF,Sikar,332001,Rajasthan,IN,https://www.google.com/maps/place/Noor+Masjid/data=!4m7!3m6!1s0x396ca5f0791d0cb3:0x33fb09fe03015705!8m2!3d27.624176!4d75.137008!16s%2Fg%2F11sd8cwwnj!19sChIJswwdefClbDkRBVcBA_4J-zM?authuser=0&hl=en&rclk=1,"27.624176,75.137008"
Masjid e saad,Mosque,"J45Q+QWF Masjid e saad, Subhash Chowk, Sikar, Rajasthan 332001",Subhash Chowk,J45Q+QWF,Sikar,,Rajasthan,IN,https://www.google.com/maps/place/Masjid+e+saad/data=!4m7!3m6!1s0x396ca59290d4166b:0x131c2ce90c034557!8m2!3d27.6094371!4d75.1397875!16s%2Fg%2F11kq28jxlp!19sChIJaxbUkJKlbDkRV0UDDOksHBM?authuser=0&hl=en&rclk=1,"27.609437099999997,75.1397875"
msjid e usmaan ghhnii Masjid E Usman Ghani,Mosque,"J4GP+R25 msjid e usmaan ghhnii Masjid E Usman Ghani, Fatehpur Rd, Roshanganj Mohalla, Sikar, Rajasthan 332001",Roshanganj Mohalla,"J4GP+R25, Fatehpur Rd",Sikar,332001,Rajasthan,IN,https://www.google.com/maps/place/%E0%A4%AE%E0%A4%B8%E0%A5%8D%E0%A4%9C%E0%A4%BF%E0%A4%A6+%E0%A4%8F+%E0%A4%89%E0%A4%B8%E0%A5%8D%E0%A4%AE%E0%A4%BE%E0%A4%A8+%E0%A5%9A%E0%A4%A8%E0%A5%80+Masjid+E+Usman+Ghani/data=!4m7!3m6!1s0x396ca5c9cc76eb03:0x753e7af2cbec8ce9!8m2!3d27.6270148!4d75.1351033!16s%2Fg%2F11p_4lptk6!19sChIJA-t2zMmlbDkR6Yzsy_J6PnU?authuser=0&hl=en&rclk=1,"27.627014799999998,75.1351033"
Masjid Abu Bakr Siddique,Mosque,"J49R+RQV Masjid Abu Bakr Siddique, Fatehpur Rd, near islamia school, Mochiwara, Sikar, Rajasthan 332001",Mochiwara,"J49R+RQV, Fatehpur Rd, near islamia school",Sikar,332001,Rajasthan,IN,https://www.google.com/maps/place/Masjid+Abu+Bakr+Siddique/data=!4m7!3m6!1s0x396ca51dfa7186d3:0x59d58afb586fb9ad!8m2!3d27.6196137!4d75.1418451!16s%2Fg%2F11v0z19_dz!19sChIJ04Zx-h2lbDkRrblvWPuK1Vk?authuser=0&hl=en&rclk=1,"27.6196137,75.1418451"
Masjid e Jamindaran,Mosque,"J48M+XRR Masjid e Jamindaran, Mohalla Jamidaran, Sikar, Rajasthan 332001",Mohalla Jamidaran,J48M+XRR,Sikar,,Rajasthan,IN,https://www.google.com/maps/place/Masjid+e+Jamindaran/data=!4m7!3m6!1s0x396ca544a6bef723:0x6ce9371fac175390!8m2!3d27.6174787!4d75.1345033!16s%2Fg%2F11k9kdbfz2!19sChIJI_e-pkSlbDkRkFMXrB836Ww?authuser=0&hl=en&rclk=1,"27.6174787,75.13450329999999"
Hasnen masjid,Mosque,"J4JC+CQ7 Hasnen masjid, Sikar, Rajasthan 332001",,J4JC+CQ7,Sikar,,Rajasthan,IN,https://www.google.com/maps/place/Hasnen+masjid/data=!4m7!3m6!1s0x396ca5042644a4d7:0x9eae372679886048!8m2!3d27.6310474!4d75.121917!16s%2Fg%2F11sqf8l17y!19sChIJ16REJgSlbDkRSGCIeSY3rp4?authuser=0&hl=en&rclk=1,"27.6310474,75.121917"
Masjid Dobiyan,Mosque,"Masjid Dobiyan, New, Kotwali Rd, Subhash Chowk, Sikar, Rajasthan 332001",Subhash Chowk,"New, Kotwali Rd",Sikar,332001,Rajasthan,IN,https://www.google.com/maps/place/Masjid+Dobiyan/data=!4m7!3m6!1s0x396ca5a69dc275fb:0xb9785a886f66de8!8m2!3d27.6139542!4d75.1444119!16s%2Fg%2F11v0wy45x8!19sChIJ-3XCnaalbDkR6G32hqiFlws?authuser=0&hl=en&rclk=1,"27.6139542,75.1444119"
Masjid e Aadam,Mosque,"J49Q+9V9 Masjid e Aadam, Mohalla Vapariyan, Sikar, Rajasthan 332001",Mohalla Vapariyan,J49Q+9V9,Sikar,,Rajasthan,IN,https://www.google.com/maps/place/Masjid+e+Aadam/data=!4m7!3m6!1s0x396ca51415339b9d:0x8676799724ce7557!8m2!3d27.6184212!4d75.1397281!16s%2Fg%2F11trxd_gdj!19sChIJnZszFRSlbDkRV3XOJJd5doY?authuser=0&hl=en&rclk=1,"27.6184212,75.1397281"
Umardraj Karigar,Mosque,"Umardraj Karigar, chandpole police chokki, Sikar, 205/20, Chandpol, Sikar, Rajasthan 332001",Chandpol,"chandpole police chokki, Sikar, 205/20",Sikar,332001,Rajasthan,IN,https://www.google.com/maps/place/Umardraj+Karigar/data=!4m7!3m6!1s0x396ca5c8a7646895:0x9a694b1c978f7723!8m2!3d27.6066886!4d75.1350859!16s%2Fg%2F11p43w9q00!19sChIJlWhkp8ilbDkRI3ePlxxLaZo?authuser=0&hl=en&rclk=1,"27.6066886,75.13508589999999"
Siraj /jitu bhisti,Mosque,"845, Siraj /jitu bhisti, 845, Suraj Marg, Anand Nagar, Sikar, Samrathpura Rural, Rajasthan 332001",Anand Nagar,"845, 845, Suraj Marg","Sikar, Samrathpura Rural",332001,Rajasthan,IN,https://www.google.com/maps/place/Siraj+%2Fjitu+bhisti/data=!4m7!3m6!1s0x396ca55f9899232b:0xc11d6cc1fa72ca14!8m2!3d27.6232305!4d75.1498655!16s%2Fg%2F11khw4vpf6!19sChIJKyOZmF-lbDkRFMpy-sFsHcE?authuser=0&hl=en&rclk=1,"27.6232305,75.14986549999999"
"Khokhar house,sikar",Mosque,"J43H+5GQ Khokhar house,sikar, Dhod Rd, near Bilal, Masjid, Rajnagar, Chandpol, Sikar, Rajasthan 332001","Rajnagar, Chandpol","J43H+5GQ, Dhod Rd, near Bilal, Masjid",Sikar,332001,Rajasthan,IN,"https://www.google.com/maps/place/Khokhar+house,sikar/data=!4m7!3m6!1s0x396ca54f32d6d5d7:0x3b03d83d9335a66f!8m2!3d27.6029599!4d75.1288517!16s%2Fg%2F11pyx8x3tf!19sChIJ19XWMk-lbDkRb6Y1kz3YAzs?authuser=0&hl=en&rclk=1","27.6029599,75.1288517"
Mohammed Ashfaq,Mosque,"Mohammed Ashfaq, Madni Masjid, Bhati Mention, Bajaj Rd, Subhash Chowk, Sikar, Rajasthan 332001",Subhash Chowk,"Madni Masjid, Bhati Mention, Bajaj Rd",Sikar,332001,Rajasthan,IN,https://www.google.com/maps/place/Mohammed+Ashfaq/data=!4m7!3m6!1s0x396ca53e9649f925:0x44692b8f8159a8b0!8m2!3d27.6138472!4d75.1446179!16s%2Fg%2F11v9vc6dwv!19sChIJJflJlj6lbDkRsKhZgY8raUQ?authuser=0&hl=en&rclk=1,"27.6138472,75.1446179"
Masjid Zameer e Rajiya,Mosque,"Masjid Zameer e Rajiya, New Shekhpura Ward, 65, Fatehpur Rd, Sikar",Sabalpura,"New Shekhpura Ward, 65, Fatehpur Rd",Sikar,,Rajasthan,IN,https://www.google.com/maps/place/Masjid+Zameer+e+Rajiya/data=!4m7!3m6!1s0x396ca5bbe405b577:0xd6124d10026a0aef!8m2!3d27.6385868!4d75.1296917!16s%2Fg%2F11t71jvndw!19sChIJd7UF5LulbDkR7wpqAhBNEtY?authuser=0&hl=en&rclk=1,"27.6385868,75.1296917"
chouhan house,Mosque,"J4JR+6F7 chouhan house, Shad Masjid Rd, Bargujar Nagar, Ambedkar Nagar, Sikar, Rajasthan 332001","Bargujar Nagar, Ambedkar Nagar","J4JR+6F7, Shad Masjid Rd",Sikar,332001,Rajasthan,IN,https://www.google.com/maps/place/chouhan+house/data=!4m7!3m6!1s0x396ca518fd6fef43:0x416b5e99efa28064!8m2!3d27.6305391!4d75.1411819!16s%2Fg%2F11sbv1g85h!19sChIJQ-9v_RilbDkRZICi75lea0E?authuser=0&hl=en&rclk=1,"27.6305391,75.14118189999999"
