name,main_category,address,address_ward,address_street,address_city,address_postal_code,address_state,address_country_code,link,coordinates
Protappur Choto Masjid,Mosque,"Protappur Choto Masjid, Chinsurah R S, Chinsurah, West Bengal 712101",Chinsurah R S,,Chinsurah,712101,West Bengal,IN,https://www.google.com/maps/place/Protappur+Choto+Masjid/data=!4m7!3m6!1s0x39f896aac161c50d:0xefcec6c10f7013f8!8m2!3d22.896039!4d88.4026014!16s%2Fg%2F11c529crsd!19sChIJDcVhwaqW-DkR-BNwD8HGzu8?authuser=0&hl=en&rclk=1,"22.896039,88.4026014"
Jama Masjid Ahle Sunnat,Mosque,"Jama Masjid Ahle Sunnat, Angus Line, Bhadreswar, West Bengal 712221",Angus Line,,Bhadreswar,712221,West Bengal,IN,https://www.google.com/maps/place/Jama+Masjid+Ahle+Sunnat/data=!4m7!3m6!1s0x39f890720ca64989:0x6a837ca62bea2408!8m2!3d22.8136297!4d88.3471302!16s%2Fg%2F11crydnycy!19sChIJiUmmDHKQ-DkRCCTqK6Z8g2o?authuser=0&hl=en&rclk=1,"22.8136297,88.3471302"
Kela Bagan Jama Masjid,Mosque,"Kela Bagan Jama Masjid, 9/28, Jagatdal, Kolkata, Bhatpara, West Bengal 743125",Jagatdal,9/28,"Kolkata, Bhatpara",743125,West Bengal,IN,https://www.google.com/maps/place/Kela+Bagan+Jama+Masjid/data=!4m7!3m6!1s0x39f8913cd1623597:0xdd7e06ee25eafeca!8m2!3d22.8621835!4d88.3850101!16s%2Fg%2F11c0vxgh32!19sChIJlzVi0TyR-DkRyv7qJe4Gft0?authuser=0&hl=en&rclk=1,"22.8621835,88.3850101"
Kankinara Jama Masjid,Mosque,"V98X+4CC Kankinara Jama Masjid, Bazar Kankinara, West Bengal 743126","Kankinara, Jagatdal","V98X+4CC, Bazar Kankinara",Bhatpara,743126,West Bengal,IN,https://www.google.com/maps/place/Kankinara+Jama+Masjid/data=!4m7!3m6!1s0x39f89133b264706f:0xd925439fcde87267!8m2!3d22.8653012!4d88.398523!16s%2Fg%2F11b7ty73cs!19sChIJb3BksjOR-DkRZ3LozZ9DJdk?authuser=0&hl=en&rclk=1,"22.865301199999998,88.398523"
Champdani Jama Masjid caapdaanii jaamaa msjid,Mosque,"Champdani Jama Masjid caapdaanii jaamaa msjid, 33, Grand Trunk Rd, Champdani, Baidyabati, West Bengal 712222",Champdani,"33, Grand Trunk Rd",Baidyabati,712222,West Bengal,IN,https://www.google.com/maps/place/Champdani+Jama+Masjid+%E0%A6%9A%E0%A6%BE%E0%A6%AA%E0%A6%A6%E0%A6%BE%E0%A6%A8%E0%A7%80+%E0%A6%9C%E0%A6%BE%E0%A6%AE%E0%A6%BE+%E0%A6%AE%E0%A6%B8%E0%A6%9C%E0%A6%BF%E0%A6%A6/data=!4m7!3m6!1s0x39f89a9edec4ec7f:0x189335f06019f206!8m2!3d22.7972453!4d88.3459887!16s%2Fg%2F1q64l3snw!19sChIJf-zE3p6a-DkRBvIZYPA1kxg?authuser=0&hl=en&rclk=1,"22.7972453,88.34598869999999"
Baraipara Jama Masjid,Mosque,"V97Q+3W9 Baraipara Jama Masjid, Jagatdal, Kolkata, Bhatpara, West Bengal 743132",Jagatdal,V97Q+3W9,"Kolkata, Bhatpara",743132,West Bengal,IN,https://www.google.com/maps/place/Baraipara+Jama+Masjid/data=!4m7!3m6!1s0x39f8913ad0e7c347:0x7ff36660ad3c11ad!8m2!3d22.8626679!4d88.3898702!16s%2Fg%2F11c1xg9lwh!19sChIJR8Pn0DqR-DkRrRE8rWBm838?authuser=0&hl=en&rclk=1,"22.862667899999998,88.38987019999999"
Ahle sunnat paik para Choti Masjid,Mosque,"R9M7+RV7 Ahle sunnat paik para Choti Masjid, S.D.B. St, Telinipara, Bhadreswar, West Bengal 712125",Telinipara,"R9M7+RV7, S.D.B. St",Bhadreswar,712125,West Bengal,IN,https://www.google.com/maps/place/Ahle+sunnat+paik+para+Choti+Masjid/data=!4m7!3m6!1s0x39f890f1078680d3:0x656dc8158c5f5f35!8m2!3d22.8346043!4d88.3646219!16s%2Fg%2F1hc1s1f60!19sChIJ04CGB_GQ-DkRNV9fjBXIbWU?authuser=0&hl=en&rclk=1,"22.8346043,88.3646219"
Iqra masjid,Mosque,"P9RJ+V5X Iqra masjid, Math Para, Barrackpore,, Titagarh, West Bengal","Math Para, Titagarh","P9RJ+V5X, Math Para, Barrackpore,","Titagarh, Barrackpore",,West Bengal,IN,https://www.google.com/maps/place/Iqra+masjid/data=!4m7!3m6!1s0x39f89bb825085a07:0x557cd4340a453c3c!8m2!3d22.7422453!4d88.3804918!16s%2Fg%2F11c2pmz95p!19sChIJB1oIJbib-DkRPDxFCjTUfFU?authuser=0&hl=en&rclk=1,"22.7422453,88.3804918"
Ghoshipara Ashrafi Masjid,Mosque,"Q9F9+V2W Ghoshipara Ashrafi Masjid, Ghoshpara Rd, Airport Area Barrackpore, Barrackpore, West Bengal 700120",Airport Area Barrackpore,"Q9F9+V2W, Ghoshpara Rd",Barrackpore,700120,West Bengal,IN,https://www.google.com/maps/place/Ghoshipara+Ashrafi+Masjid/data=!4m7!3m6!1s0x39f89a5e82b0803d:0xaf9062a09d2ee819!8m2!3d22.7747372!4d88.3675915!16s%2Fg%2F1hc1f7c23!19sChIJPYCwgl6a-DkRGegunaBikK8?authuser=0&hl=en&rclk=1,"22.7747372,88.36759149999999"
ManikpirJama Masjid,Mosque,"V96V+8QH ManikpirJama Masjid, B/L no_16, H/NO-19, 2, Manikpir Rd, Kankinara, Jagatdal, Kolkata, West Bengal 743132","Kankinara, Jagatdal","V96V+8QH, B/L no_16, H/NO-19, 2, Manikpir Rd","Kolkata, Bhatpara",743132,West Bengal,IN,https://www.google.com/maps/place/ManikpirJama+Masjid/data=!4m7!3m6!1s0x39f89131e62454e5:0x16cd572f10040e21!8m2!3d22.8628008!4d88.3957357!16s%2Fg%2F11hbkkcw09!19sChIJ5VQk5jGR-DkRIQ4EEC9XzRY?authuser=0&hl=en&rclk=1,"22.8628008,88.3957357"
Aqsa Masjid,Mosque,"J4V4+RF8 Aqsa Masjid, Block K, Shyam Nagar, Vishnu Garden, New Delhi, Delhi, 110018","Block K, Shyam Nagar, Vishnu Garden",J4V4+RF8,"New Delhi, Delhi",110018,Delhi,IN,https://www.google.com/maps/place/Aqsa+Masjid/data=!4m7!3m6!1s0x390d03630625fadf:0xb38cbe8f95ab75d4!8m2!3d28.6445374!4d77.1061898!16s%2Fg%2F11cs5hdgrw!19sChIJ3_olBmMDDTkR1HWrlY--jLM?authuser=0&hl=en&rclk=1,"28.644537399999997,77.1061898"
Jame Masjid,Mosque,"Q98G+R2V Jame Masjid, Masjid Road,Barasat Rd, Masjid More, Nona Chandanpukur, Barrackpore, West Bengal 700122","Masjid More, Nona Chandanpukur, Barrackpore","Q98G+R2V, Masjid Road,Barasat Rd",Barrackpore,700122,West Bengal,IN,https://www.google.com/maps/place/Jame+Masjid/data=!4m7!3m6!1s0x39f89a458256fda5:0x9c2f3d35eef8a526!8m2!3d22.7671205!4d88.3750433!16s%2Fg%2F1s049zz82!19sChIJpf1WgkWa-DkRJqX47jU9L5w?authuser=0&hl=en&rclk=1,"22.767120499999997,88.3750433"
power House Masjid,Mosque,"R9PM+JJX power House Masjid, Shyamnagar, Kolkata, Bhatpara, West Bengal 743128",Shyamnagar,R9PM+JJX,"Kolkata, Bhatpara",743128,West Bengal,IN,https://www.google.com/maps/place/power+House+Masjid/data=!4m7!3m6!1s0x39f890c2e792323f:0x1ca0221bd99b7f1!8m2!3d22.8366017!4d88.3841106!16s%2Fg%2F11f2lp8hzf!19sChIJPzKS58KQ-DkR8beZvSECygE?authuser=0&hl=en&rclk=1,"22.8366017,88.3841106"
"New Masjid, Ahle Hadis.Telinipara",Mosque,"R9P9+HQF New Masjid, Ahle Hadis.Telinipara, Telinipara, Mankundu, Bhadreswar, West Bengal 712125","Telinipara, Mankundu",R9P9+HQF,Bhadreswar,712125,West Bengal,IN,"https://www.google.com/maps/place/New+Masjid,+Ahle+Hadis.Telinipara/data=!4m7!3m6!1s0x39f890f0ed5bc187:0xdaf876222d87b3d4!8m2!3d22.8364466!4d88.3694369!16s%2Fg%2F1hhx9mswx!19sChIJh8Fb7fCQ-DkR1LOHLSJ2-No?authuser=0&hl=en&rclk=1","22.8364466,88.3694369"
Dalhousie Jama Masjid,Mosque,"R82W+RP4 Dalhousie Jama Masjid, SM Rd, Champdani, West Bengal 712222",Champdani,"R82W+RP4, SM Rd",,712222,West Bengal,IN,https://www.google.com/maps/place/Dalhousie+Jama+Masjid/data=!4m7!3m6!1s0x39f89a9e2085a237:0x84238db76cd6ee80!8m2!3d22.8020151!4d88.3468201!16s%2Fg%2F1ptxchht9!19sChIJN6KFIJ6a-DkRgO7WbLeNI4Q?authuser=0&hl=en&rclk=1,"22.8020151,88.3468201"
BILKULI JUMMA MASJID msjd,Mosque,"V89P+9JX BILKULI JUMMA MASJID msjd, Guchaitpara, West Bengal 712138",Guchaitpara,V89P+9JX,,,West Bengal,IN,https://www.google.com/maps/place/BILKULI+JUMMA+MASJID+%D9%85%D8%B3%D8%AC%D8%AF%E2%80%AD/data=!4m7!3m6!1s0x39f891c39a71ad37:0xbd11e5200b7d5cdc!8m2!3d22.8684843!4d88.3366248!16s%2Fg%2F11b8tb_qyv!19sChIJN61xmsOR-DkR3Fx9CyDlEb0?authuser=0&hl=en&rclk=1,"22.8684843,88.3366248"
Natungram Mosque,Mosque,"RCP2+X4C Natungram Mosque, Ghoshpara Rd, Banarjee Para, Shyamnagar, Kolkata, Bhatpara, West Bengal 743125","Banarjee Para, Shyamnagar","RCP2+X4C, Ghoshpara Rd","Kolkata, Bhatpara",743125,West Bengal,IN,https://www.google.com/maps/place/Natungram+Mosque/data=!4m7!3m6!1s0x39f890cd685a1573:0x5efdbb26d6d317ec!8m2!3d22.8374331!4d88.4002632!16s%2Fg%2F11c141gh84!19sChIJcxVaaM2Q-DkR7BfT1ia7_V4?authuser=0&hl=en&rclk=1,"22.8374331,88.4002632"
Gheedah Jame Masjid,Mosque,"Gheedah Jame Masjid, Chapuria, Barrackpore, Teleni Para, West Bengal 700121",Chapuria,,"Barrackpore, Teleni Para",700121,West Bengal,IN,https://www.google.com/maps/place/Gheedah+Jame+Masjid/data=!4m7!3m6!1s0x39f89999f4134b41:0x293e719357ac59a9!8m2!3d22.7657794!4d88.4164023!16s%2Fg%2F1hc8974gw!19sChIJQUsT9JmZ-DkRqVmsV5NxPik?authuser=0&hl=en&rclk=1,"22.7657794,88.4164023"
Purani Masjid,Mosque,"Purani Masjid, Purani Masjid, 24 parganas North,, Jagatdal, Kolkata, West Bengal 743132",Jagatdal,"Purani Masjid, 24 parganas North,","Kolkata, Bhatpara",743132,West Bengal,IN,https://www.google.com/maps/place/Purani+Masjid/data=!4m7!3m6!1s0x39f89122f48a9487:0x7a7f4a28a86c3e67!8m2!3d22.8590824!4d88.3837914!16s%2Fg%2F11c5xkwy7b!19sChIJh5SK9CKR-DkRZz5sqChKf3o?authuser=0&hl=en&rclk=1,"22.8590824,88.38379139999999"
2 no. Masjid,Mosque,"Q9W9+JQ7 2 no. Masjid, Ichapur, North Barrackpur, West Bengal 743144",Ichapur,Q9W9+JQ7,North Barrackpur,743144,West Bengal,IN,https://www.google.com/maps/place/2+no.+Masjid/data=!4m7!3m6!1s0x39f89a7962dbfb5f:0xb2fdfba19ec6f2ee!8m2!3d22.796535!4d88.3694364!16s%2Fg%2F11xmxpjkc!19sChIJX_vbYnma-DkR7vLGnqH7_bI?authuser=0&hl=en&rclk=1,"22.796535,88.3694364"
Mominpara Choti Maszid,Mosque,"V93M+PXQ Mominpara Choti Maszid, Jagatdal, Kolkata, Bhatpara, West Bengal 743132",Jagatdal,V93M+PXQ,"Kolkata, Bhatpara",743132,West Bengal,IN,https://www.google.com/maps/place/Mominpara+Choti+Maszid/data=!4m7!3m6!1s0x39f891210c6514b3:0x3ff2a15953b3d72e!8m2!3d22.8543368!4d88.3849784!16s%2Fg%2F11c5sn4bf7!19sChIJsxRlDCGR-DkRLtezU1mh8j8?authuser=0&hl=en&rclk=1,"22.8543368,88.3849784"
Mathurapur Masjid,Mosque,"Q9XX+57C Mathurapur Masjid, Kalyani Expy, Mathurapur, West Bengal 743127",,"Q9XX+57C, Kalyani Expy",Mathurapur,743127,West Bengal,IN,https://www.google.com/maps/place/Mathurapur+Masjid/data=!4m7!3m6!1s0x39f89a016a705ab7:0xd81724ed46cf2e24!8m2!3d22.7979333!4d88.3981313!16s%2Fg%2F11ckqhy0kl!19sChIJt1pwagGa-DkRJC7PRu0kF9g?authuser=0&hl=en&rclk=1,"22.7979333,88.3981313"
Isha Khan Masjid,Mosque,"Isha Khan Masjid, Titagarh, Barrackpore, West Bengal 700119",Titagarh,,"Titagarh, Barrackpore",700119,West Bengal,IN,https://www.google.com/maps/place/Isha+Khan+Masjid/data=!4m7!3m6!1s0x39f89baffd377535:0xbca88c1227bc6a36!8m2!3d22.74333!4d88.3722746!16s%2Fg%2F11f1yghl38!19sChIJNXU3_a-b-DkRNmq8JxKMqLw?authuser=0&hl=en&rclk=1,"22.74333,88.3722746"
Jama Masjid Gowalpara,Mosque,"V97R+MRV Jama Masjid Gowalpara, Kankinara, Jagatdal, Bhatpara, West Bengal 743132","Kankinara, Jagatdal",V97R+MRV,Bhatpara,743132,West Bengal,IN,https://www.google.com/maps/place/Jama+Masjid+Gowalpara/data=!4m7!3m6!1s0x39f8913077c01b75:0xdc03894e69cd9993!8m2!3d22.8642346!4d88.3920565!16s%2Fg%2F1hc4rlck1!19sChIJdRvAdzCR-DkRk5nNaU6JA9w?authuser=0&hl=en&rclk=1,"22.8642346,88.3920565"
Masjid Aklu Mistry,Mosque,"R84R+76F Masjid Aklu Mistry, RBS Rd, Champdani, West Bengal 712222",Champdani,"R84R+76F, RBS Rd",,712222,West Bengal,IN,https://www.google.com/maps/place/Masjid+Aklu+Mistry/data=!4m7!3m6!1s0x39f8900ba7163f55:0xb7d0d7a9b66abb35!8m2!3d22.8056776!4d88.3405377!16s%2Fg%2F11bwkdzfsb!19sChIJVT8WpwuQ-DkRNbtqtqnX0Lc?authuser=0&hl=en&rclk=1,"22.8056776,88.3405377"
Kantapukur Jama Masjid (Mosque),Mosque,"V9G9+W5M Kantapukur Jama Masjid (Mosque), Surerpukur, Chandannagar, West Bengal 712136",Surerpukur,V9G9+W5M,Chandannagar,712136,West Bengal,IN,https://www.google.com/maps/place/Kantapukur+Jama+Masjid+%28Mosque%29/data=!4m7!3m6!1s0x39f89173867429d1:0xb31e38c6f5051825!8m2!3d22.8773434!4d88.3679356!16s%2Fg%2F11f352gqzj!19sChIJ0Sl0hnOR-DkRJRgF9cY4HrM?authuser=0&hl=en&rclk=1,"22.877343399999997,88.3679356"
Pirnagar Jame Masjid,Mosque,"HHVV+29J Pirnagar Jame Masjid, Pirnagar, Shyamnagar, West Bengal 700135",,"HHVV+29J, Pirnagar",Shyamnagar,700135,West Bengal,IN,https://www.google.com/maps/place/Pirnagar+Jame+Masjid/data=!4m7!3m6!1s0x3a0209cb2c50fa2d:0xd3a9fc3906c3a9e5!8m2!3d22.5925913!4d88.5934016!16s%2Fg%2F11fx8hczmv!19sChIJLfpQLMsJAjoR5anDBjn8qdM?authuser=0&hl=en&rclk=1,"22.5925913,88.59340159999999"
Kemia Kalupara Jame Masjid,Mosque,"MGPH+F4M Kemia Kalupara Jame Masjid, Authpur, Shyamnagar, Authpur, Kayemba, West Bengal 700128","Authpur, Shyamnagar",MGPH+F4M,"Authpur, Kayemba",700128,West Bengal,IN,https://www.google.com/maps/place/Kemia+Kalupara+Jame+Masjid/data=!4m7!3m6!1s0x39f8a16d60c497ef:0x4c743156fd1a747e!8m2!3d22.6862091!4d88.5277996!16s%2Fg%2F11c5896pc0!19sChIJ75fEYG2h-DkRfnQa_VYxdEw?authuser=0&hl=en&rclk=1,"22.6862091,88.5277996"
Molla Hazi Bagan Masjid (Mosque),Mosque,"Molla Hazi Bagan Masjid (Mosque), Molla Hazi Bagan, Sarishapara, Chandannagar, Pin, West Bengal 712136",Sarishapara,Molla Hazi Bagan,"Chandannagar, Pin",712136,West Bengal,IN,https://www.google.com/maps/place/Molla+Hazi+Bagan+Masjid+%28Mosque%29/data=!4m7!3m6!1s0x39f8911170834bcb:0x54fc220aae6f0865!8m2!3d22.8670617!4d88.3753048!16s%2Fg%2F11bc7t2pm6!19sChIJy0uDcBGR-DkRZQhvrgoi_FQ?authuser=0&hl=en&rclk=1,"22.8670617,88.3753048"
Kantapukur Boro Masjid,Mosque,"Kantapukur Boro Masjid, Kantapukur Main Rd, Surerpukur, Chandannagar, West Bengal 712136",Surerpukur,Kantapukur Main Rd,Chandannagar,712136,West Bengal,IN,https://www.google.com/maps/place/Kantapukur+Boro+Masjid/data=!4m7!3m6!1s0x39f89173656803bb:0xa0ba5f79b939abea!8m2!3d22.8758642!4d88.3682065!16s%2Fg%2F11f0kswq2v!19sChIJuwNoZXOR-DkR6qs5uXlfuqA?authuser=0&hl=en&rclk=1,"22.8758642,88.3682065"
Ichapur No. 1 Masjid,Mosque,"Ichapur No. 1 Masjid, 1, Ghoshpara Rd, Ichhapur Defence Estate, Ghoshpara Rd, Ichhapur Defence Estate, Kolkata, North Barrackpur, West Bengal 743144",Ichhapur Defence Estate,"1, Ghoshpara Rd, Ichhapur Defence Estate, Ghoshpara Rd","Kolkata, North Barrackpur",743144,West Bengal,IN,https://www.google.com/maps/place/Ichapur+No.+1+Masjid/data=!4m7!3m6!1s0x39f89a79101ece71:0x72f8ed04e71f0d9b!8m2!3d22.7984709!4d88.3694452!16s%2Fg%2F11dxbs02n5!19sChIJcc4eEHma-DkRmw0f5wTt-HI?authuser=0&hl=en&rclk=1,"22.798470899999998,88.3694452"
Elahi Sardar Masjid,Mosque,"Elahi Sardar Masjid, 24, S, B.M.M Ln, Champdani, West Bengal 712222",Champdani,"24, S, B.M.M Ln",,712222,West Bengal,IN,https://www.google.com/maps/place/Elahi+Sardar+Masjid/data=!4m7!3m6!1s0x39f89075b0df55bf:0xb3d985a9b50a7324!8m2!3d22.8043246!4d88.346689!16s%2Fg%2F1pp2tzpdp!19sChIJv1XfsHWQ-DkRJHMKtamF2bM?authuser=0&hl=en&rclk=1,"22.804324599999998,88.346689"
JUMMA MASJID,Mosque,"R86M+R7C JUMMA MASJID, KHURIGACHI, Kajipara, West Bengal",Mankundu,"R86M+R7C, KHURIGACHI",Kajipara,,West Bengal,IN,https://www.google.com/maps/place/JUMMA+MASJID/data=!4m7!3m6!1s0x39f8900566435417:0xa44a2fbe111acddc!8m2!3d22.8120556!4d88.3331477!16s%2Fg%2F11gbldwplc!19sChIJF1RDZgWQ-DkR3M0aEb4vSqQ?authuser=0&hl=en&rclk=1,"22.812055599999997,88.3331477"
Masjid Talaab,Mosque,"R9Q9+9HJ Masjid Talaab, Gondol Para, Mankundu, Chandannagar, West Bengal 712137","Gondol Para, Mankundu",R9Q9+9HJ,Chandannagar,712137,West Bengal,IN,https://www.google.com/maps/place/Masjid+Talaab/data=!4m7!3m6!1s0x39f890fa7337c6ef:0xb72807492722c455!8m2!3d22.8384637!4d88.3688843!16s%2Fg%2F1hhgl43jn!19sChIJ78Y3c_qQ-DkRVcQiJ0kHKLc?authuser=0&hl=en&rclk=1,"22.8384637,88.36888429999999"
Eid Gaah Masjid,Mosque,"R83V+2R5 Eid Gaah Masjid, Champdani, Baidyabati, West Bengal 712222",Champdani,R83V+2R5,Baidyabati,712222,West Bengal,IN,https://www.google.com/maps/place/Eid+Gaah+Masjid/data=!4m7!3m6!1s0x39f890755dd051bd:0xbdc5150da4444335!8m2!3d22.8025001!4d88.3445939!16s%2Fg%2F11bbxpj_k_!19sChIJvVHQXXWQ-DkRNUNEpA0Vxb0?authuser=0&hl=en&rclk=1,"22.8025001,88.34459389999999"
Masjid Mohammadi,Mosque,"XP74+4M6 Masjid Mohammadi, Pillokhari Rd, Shyam Nagar, Tarapuri, Meerut, Uttar Pradesh 250002","Shyam Nagar, Tarapuri","XP74+4M6, Pillokhari Rd",Meerut,250002,Uttar Pradesh,IN,https://www.google.com/maps/place/Masjid+Mohammadi/data=!4m7!3m6!1s0x390c648c3e38233f:0x7fb4da5c8ced1990!8m2!3d28.9627989!4d77.7066411!16s%2Fg%2F1wl4nz_8!19sChIJPyM4PoxkDDkRkBntjFzatH8?authuser=0&hl=en&rclk=1,"28.9627989,77.7066411"
Masjide Bilal,Mosque,"Masjide Bilal, 712136, Laxmiganj Bazar, Barabazar, Chandannagar, West Bengal","Laxmiganj Bazar, Barabazar",712136,Chandannagar,,West Bengal,IN,https://www.google.com/maps/place/Masjide+Bilal/data=!4m7!3m6!1s0x39f8911017ad2e91:0x4301c991c0a0a10a!8m2!3d22.8632031!4d88.3732149!16s%2Fg%2F11d_x00ykj!19sChIJkS6tFxCR-DkRCqGgwJHJAUM?authuser=0&hl=en&rclk=1,"22.8632031,88.3732149"
Murgi Mahal Choti Masjid,Mosque,"Q8CV+G89 Murgi Mahal Choti Masjid, Murgi Mahal, Sadar Bazar, Barrackpore, West Bengal 700120",Sadar Bazar,"Q8CV+G89, Murgi Mahal","Barrackpore, Barrackpur Cantonment",700120,West Bengal,IN,https://www.google.com/maps/place/Murgi+Mahal+Choti+Masjid/data=!4m7!3m6!1s0x39f89ac2082ab8b3:0x734a34fb0523afc7!8m2!3d22.7712796!4d88.3433577!16s%2Fg%2F12628p5zj!19sChIJs7gqCMKa-DkRx68jBfs0SnM?authuser=0&hl=en&rclk=1,"22.7712796,88.3433577"
Kantadanga Jama Masjid,Mosque,"Kantadanga Jama Masjid, 119/1, Bhatpara, Jagatdal, Kolkata, Bhatpara, West Bengal 743165","Bhatpara, Jagatdal",119/1,"Kolkata, Bhatpara",743165,West Bengal,IN,https://www.google.com/maps/place/Kantadanga+Jama+Masjid/data=!4m7!3m6!1s0x39f896d2219d8665:0xeb97d5ce468a3766!8m2!3d22.8605211!4d88.4062002!16s%2Fg%2F11g9qfc9dg!19sChIJZYadIdKW-DkRZjeKRs7Vl-s?authuser=0&hl=en&rclk=1,"22.8605211,88.4062002"
3 Number Masjid,Mosque,"Q9W8+8J4 3 Number Masjid, Kanthadhar, Nawabganj, North Barrackpur, West Bengal 743144","Kanthadhar, Nawabganj",Q9W8+8J4,North Barrackpur,743144,West Bengal,IN,https://www.google.com/maps/place/3+Number+Masjid/data=!4m7!3m6!1s0x39f89a7c191d66d5:0xc6beb8b54e629703!8m2!3d22.7957729!4d88.3665901!16s%2Fg%2F11cp788zcl!19sChIJ1WYdGXya-DkRA5diTrW4vsY?authuser=0&hl=en&rclk=1,"22.7957729,88.3665901"
Chhoti Masjid chotti msjid,Mosque,"462, Chhoti Masjid chotti msjid, 4, Rishi Bankim Chandra Rd, Gouripur, Garifa, Naihati, Kolkata, West Bengal 743166","Gouripur, Garifa, Naihati","462, 4, Rishi Bankim Chandra Rd",Kolkata,743166,West Bengal,IN,https://www.google.com/maps/place/Chhoti+Masjid+%E0%A6%9B%E0%A7%8B%E0%A6%9F%E0%A6%BF+%E0%A6%AE%E0%A6%B8%E0%A6%9C%E0%A6%BF%E0%A6%A6/data=!4m7!3m6!1s0x39f8941fc842f44d:0xa52d4025d4306a2!8m2!3d22.8994211!4d88.4191013!16s%2Fg%2F11b7q8n2jg!19sChIJTfRCyB-U-DkRogZDXQLUUgo?authuser=0&hl=en&rclk=1,"22.899421099999998,88.4191013"
Khola Masjid Kankinara,Mosque,"V99X+8RP Khola Masjid Kankinara, Bhatpara, Jagatdal, Kolkata, Bhatpara, West Bengal 743129","Bhatpara, Jagatdal",V99X+8RP,"Kolkata, Bhatpara",743129,West Bengal,IN,https://www.google.com/maps/place/Khola+Masjid+Kankinara/data=!4m7!3m6!1s0x39f8913483bc44e5:0x5252141a9a6ea277!8m2!3d22.8683492!4d88.3995835!16s%2Fg%2F11g6bq2sq3!19sChIJ5US8gzSR-DkRd6JumhoUUlI?authuser=0&hl=en&rclk=1,"22.868349199999997,88.39958349999999"
chinsurah Tolafatk Masjid,Mosque,"V9PP+7J7 chinsurah Tolafatk Masjid, Mahatma Gandhi Rd, Shilbagan, Dharampur, Chinsurah, West Bengal 712101","Shilbagan, Dharampur","V9PP+7J7, Mahatma Gandhi Rd",Chinsurah,712101,West Bengal,IN,https://www.google.com/maps/place/chinsurah+Tolafatk+Masjid/data=!4m7!3m6!1s0x39f8914352f6dd67:0xffd01c08aac239cd!8m2!3d22.8856546!4d88.3865467!16s%2Fg%2F1hm610tqk!19sChIJZ932UkOR-DkRzTnCqggc0P8?authuser=0&hl=en&rclk=1,"22.8856546,88.3865467"
Bagdigali Mosque (Maszid),Mosque,"V9GQ+98M Bagdigali Mosque (Maszid), Buroshibtala, Dharampur, Chinsurah, West Bengal 712105","Buroshibtala, Dharampur",V9GQ+98M,Chinsurah,712105,West Bengal,IN,https://www.google.com/maps/place/Bagdigali+Mosque+%28Maszid%29/data=!4m7!3m6!1s0x39f89147162ce3e3:0x24e14a4516ae7eeb!8m2!3d22.8759685!4d88.3882914!16s%2Fg%2F11c2psv5l4!19sChIJ4-MsFkeR-DkR636uFkVK4SQ?authuser=0&hl=en&rclk=1,"22.8759685,88.3882914"
Golghar Idgah Masjid,Mosque,"V92R+W29 Golghar Idgah Masjid, Jagatdal, Kolkata, Bhatpara, West Bengal 743125",Jagatdal,V92R+W29,"Kolkata, Bhatpara",743125,West Bengal,IN,https://www.google.com/maps/place/Golghar+Idgah+Masjid/data=!4m7!3m6!1s0x39f89127bab05e5d:0xf3d49ea22c43de1d!8m2!3d22.8522978!4d88.390116!16s%2Fg%2F11g6mf6kh8!19sChIJXV6wuieR-DkRHd5DLKKe1PM?authuser=0&hl=en&rclk=1,"22.8522978,88.39011599999999"
Masjid,Mosque,"V9RW+2WV Masjid, Jyotish Chandra Ghosh Sarani, Malir Bagan, Chinsurah R S, Chinsurah, West Bengal 712102","Malir Bagan, Chinsurah R S","V9RW+2WV, Jyotish Chandra Ghosh Sarani",Chinsurah,712102,West Bengal,IN,https://www.google.com/maps/place/Masjid/data=!4m7!3m6!1s0x39f89153dc873ed3:0x77dd889e57260339!8m2!3d22.8901239!4d88.3972956!16s%2Fg%2F119w1s436!19sChIJ0z6H3FOR-DkROQMmV56I3Xc?authuser=0&hl=en&rclk=1,"22.8901239,88.39729559999999"
Shyamnagar Shahi Masjid shyaamngr shaahii msjid,Mosque,"8MXV+XJ5 Shyamnagar Shahi Masjid shyaamngr shaahii msjid, Nonagunj - Gazna Rd, Shyamnagar, West Bengal 741502",,"8MXV+XJ5, Nonagunj - Gazna Rd",Shyamnagar,741502,West Bengal,IN,https://www.google.com/maps/place/Shyamnagar+Shahi+Masjid+%E0%A6%B6%E0%A7%8D%E0%A6%AF%E0%A6%BE%E0%A6%AE%E0%A6%A8%E0%A6%97%E0%A6%B0+%E0%A6%B6%E0%A6%BE%E0%A6%B9%E0%A7%80+%E0%A6%AE%E0%A6%B8%E0%A6%9C%E0%A6%BF%E0%A6%A6/data=!4m7!3m6!1s0x39f8d7b42e793553:0x90affb1598ddf719!8m2!3d23.3498929!4d88.6941005!16s%2Fg%2F11h3bf92b5!19sChIJUzV5LrTX-DkRGffdmBX7r5A?authuser=0&hl=en&rclk=1,"23.3498929,88.69410049999999"
"Masjid, saheber more",Mosque,"V9WW+88C Masjid, saheber more, Chinsurah R S, Chinsurah, West Bengal 712101",Chinsurah R S,V9WW+88C,Chinsurah,712101,West Bengal,IN,"https://www.google.com/maps/place/Masjid,+saheber+more/data=!4m7!3m6!1s0x39f89156693d9d03:0x1e9d45a0ad7d2871!8m2!3d22.8958226!4d88.3957727!16s%2Fg%2F11c1n9tkpz!19sChIJA509aVaR-DkRcSh9raBFnR4?authuser=0&hl=en&rclk=1","22.8958226,88.3957727"
Jama Masjid Shyamnagar,Mosque,"9695+M35 Jama Masjid Shyamnagar, Shyamnagar, Bihar 854316",,9695+M35,Shyamnagar,854316,Bihar,IN,https://www.google.com/maps/place/Jama+Masjid+Shyamnagar/data=!4m7!3m6!1s0x39efa0161b493913:0x2be587241fa1f2f4!8m2!3d26.369127!4d87.2077274!16s%2Fg%2F11f3nhz058!19sChIJEzlJGxag7zkR9PKhHySH5Ss?authuser=0&hl=en&rclk=1,"26.369127,87.2077274"
Shyamnagar Jame Maszid,Mosque,"Shyamnagar Jame Maszid, 22deg35'46. 88deg34'54.0""E, 3",,"22deg35'46. 88deg34'54.0""E, 3",Shyamnagar,,West Bengal,IN,https://www.google.com/maps/place/Shyamnagar+Jame+Maszid/data=!4m7!3m6!1s0x3a0209c419466aff:0x95b49ec20c1167c!8m2!3d22.5961129!4d88.5815386!16s%2Fg%2F11c0rmndkv!19sChIJ_2pGGcQJAjoRfBbBIOxJWwk?authuser=0&hl=en&rclk=1,"22.596112899999998,88.5815386"
Dhibdhiba jame masjid,Mosque,"JH2G+8F6 Dhibdhiba jame masjid, Shyamnagar, West Bengal 700135",,JH2G+8F6,Shyamnagar,700135,West Bengal,IN,https://www.google.com/maps/place/Dhibdhiba+jame+masjid/data=!4m7!3m6!1s0x3a0209c2a67638c3:0x2ebbe331d6329e44!8m2!3d22.6007987!4d88.576155!16s%2Fg%2F11g698tvdk!19sChIJwzh2psIJAjoRRJ4y1jHjuy4?authuser=0&hl=en&rclk=1,"22.6007987,88.576155"
Ratanpur Moszid,Mosque,"QFX2+2CF Ratanpur Moszid, Ratanpur, West Bengal 743126",,QFX2+2CF,Ratanpur,743126,West Bengal,IN,https://www.google.com/maps/place/Ratanpur+Moszid/data=!4m7!3m6!1s0x39f898260c16f5d5:0x33cbc807a5f6190a!8m2!3d22.797565!4d88.4510382!16s%2Fg%2F11c6dd2z40!19sChIJ1fUWDCaY-DkRChn2pQfIyzM?authuser=0&hl=en&rclk=1,"22.797565,88.4510382"
Garulia Choti Masjid,Mosque,"Garulia Choti Masjid, Amina khatun, Bichali, Garulia, Kolkata, West Bengal 743133","Bichali, Garulia",Amina khatun,Kolkata,743133,West Bengal,IN,https://www.google.com/maps/place/Garulia+Choti+Masjid/data=!4m7!3m6!1s0x39f8908ae5264097:0xeb0d9c889c25c323!8m2!3d22.8238381!4d88.3647048!16s%2Fg%2F11hcqzh7pw!19sChIJl0Am5YqQ-DkRI8MlnIicDes?authuser=0&hl=en&rclk=1,"22.8238381,88.3647048"
Peer Baksh Masjid,Mosque,"V96C+XMG Peer Baksh Masjid, Laxmiganj Bazar, Urdi Bazar, Chandannagar, West Bengal 712136","Laxmiganj Bazar, Urdi Bazar",V96C+XMG,Chandannagar,712136,West Bengal,IN,https://www.google.com/maps/place/Peer+Baksh+Masjid/data=!4m7!3m6!1s0x39f8910ff1b0a96d:0x7a9c2e77fbeb4ec8!8m2!3d22.8624323!4d88.3717087!16s%2Fg%2F11f1nfmv5f!19sChIJbamw8Q-R-DkRyE7r-3cunHo?authuser=0&hl=en&rclk=1,"22.8624323,88.3717087"
Bhadreswar Badi Masjid bhdreshbr bdd'i msjid,Mosque,"R9M4+7X8 Bhadreswar Badi Masjid bhdreshbr bdd'i msjid, Bhadreswar, West Bengal 712125",,R9M4+7X8,Bhadreswar,,West Bengal,IN,https://www.google.com/maps/place/Bhadreswar+Badi+Masjid+%E0%A6%AD%E0%A6%A6%E0%A7%8D%E0%A6%B0%E0%A7%87%E0%A6%B6%E0%A7%8D%E0%A6%AC%E0%A6%B0+%E0%A6%AC%E0%A6%A1%E0%A6%BC%E0%A6%BF+%E0%A6%AE%E0%A6%B8%E0%A6%9C%E0%A6%BF%E0%A6%A6/data=!4m7!3m6!1s0x39f891c7a525435f:0x1ed709452565935d!8m2!3d22.8331608!4d88.3574421!16s%2Fg%2F11fhngp8wm!19sChIJX0MlpceR-DkRXZNlJUUJ1x4?authuser=0&hl=en&rclk=1,"22.833160799999998,88.3574421"
Hashmi Masjid,Mosque,"XP73+7PW Hashmi Masjid, Shyam Nagar, Meerut, Uttar Pradesh 250002",Shyam Nagar,XP73+7PW,Meerut,250002,Uttar Pradesh,IN,https://www.google.com/maps/place/Hashmi+Masjid/data=!4m7!3m6!1s0x390c648b92263619:0x16fe9abada02d06a!8m2!3d28.9632442!4d77.7043153!16s%2Fg%2F1pyqk5kcy!19sChIJGTYmkotkDDkRatAC2rqa_hY?authuser=0&hl=en&rclk=1,"28.9632442,77.70431529999999"
Shyamnagar Old Jame Masjid,Mosque,"HHVJ+3HM Shyamnagar Old Jame Masjid, Shyamnagar, Kolkata, West Bengal 700135",,HHVJ+3HM,"Shyamnagar, Kolkata",700135,West Bengal,IN,https://www.google.com/maps/place/Shyamnagar+Old+Jame+Masjid/data=!4m7!3m6!1s0x3a0209c7279d0b1f:0xffdddd5c1f3db76b!8m2!3d22.5927125!4d88.5814219!16s%2Fg%2F11f3ztdrxb!19sChIJHwudJ8cJAjoRa7c9H1zd3f8?authuser=0&hl=en&rclk=1,"22.592712499999998,88.5814219"
Badi Masjid,Mosque,"V99X+QHP Badi Masjid, Bhatpara, Jagatdal, Kolkata, Bhatpara, West Bengal 743129","Bhatpara, Jagatdal",V99X+QHP,"Kolkata, Bhatpara",743129,West Bengal,IN,https://www.google.com/maps/place/Badi+Masjid/data=!4m7!3m6!1s0x39f8913460c07a17:0xaa3986f4a99bfdee!8m2!3d22.8694733!4d88.3989442!16s%2Fg%2F11c2rdw22t!19sChIJF3rAYDSR-DkR7v2bqfSGOao?authuser=0&hl=en&rclk=1,"22.8694733,88.3989442"
Monirampur Masjid,Mosque,"Q8JP+5J6 Monirampur Masjid, Airport Area Barrackpore, Barrackpore, North Barrackpur, West Bengal 743122",Airport Area Barrackpore,Q8JP+5J6,"Barrackpore, North Barrackpur",743122,West Bengal,IN,https://www.google.com/maps/place/Monirampur+Masjid/data=!4m7!3m6!1s0x39f89ab8fa7b2549:0x96692d9dd43c52b2!8m2!3d22.7804055!4d88.3365274!16s%2Fg%2F11c594n0hg!19sChIJSSV7-ria-DkRslI81J0taZY?authuser=0&hl=en&rclk=1,"22.7804055,88.3365274"
Makki Masjid,Mosque,"RFX2+65P Makki Masjid, Sankarpur, Rambati, West Bengal 743123",Sankarpur,RFX2+65P,Rambati,743123,West Bengal,IN,https://www.google.com/maps/place/Makki+Masjid/data=!4m7!3m6!1s0x39f897b281ee705b:0x77d90ab09d99134f!8m2!3d22.8480779!4d88.45045!16s%2Fg%2F11c1lhyck3!19sChIJW3DugbKX-DkRTxOZnbAK2Xc?authuser=0&hl=en&rclk=1,"22.8480779,88.45044999999999"
Kashibati Masjid,Mosque,"RCVH+C38 Kashibati Masjid, Kashibati, kankinara, Bhatpara, West Bengal 743126","Kashibati, kankinara",RCVH+C38,Bhatpara,743126,West Bengal,IN,https://www.google.com/maps/place/Kashibati+Masjid/data=!4m7!3m6!1s0x39f8971b9a72eb57:0x6cc209ad7e138769!8m2!3d22.8435473!4d88.4276922!16s%2Fg%2F11f57930f6!19sChIJV-tymhuX-DkRaYcTfq0Jwmw?authuser=0&hl=en&rclk=1,"22.843547299999997,88.4276922"
Selampur Masjid,Mosque,"QCC9+QPR Selampur Masjid, Unnamed Road, Teleni Para, West Bengal 700121",,"QCC9+QPR, Unnamed Road",Teleni Para,700121,West Bengal,IN,https://www.google.com/maps/place/Selampur+Masjid/data=!4m7!3m6!1s0x39f899aac9830425:0x8c719c5bad3e5c3d!8m2!3d22.7719852!4d88.4192578!16s%2Fg%2F11fnrdj1ls!19sChIJJQSDyaqZ-DkRPVw-rVuccYw?authuser=0&hl=en&rclk=1,"22.7719852,88.4192578"
Chankia Jame Masjid,Mosque,"VF38+M49 Chankia Jame Masjid, Unnamed Road, Chankia, West Bengal 743123",,"VF38+M49, Unnamed Road",Chankia,743123,West Bengal,IN,https://www.google.com/maps/place/Chankia+Jame+Masjid/data=!4m7!3m6!1s0x39f8970eeea4753f:0x7cb1713b7042f427!8m2!3d22.854155!4d88.4653612!16s%2Fg%2F11qpzhrswy!19sChIJP3Wk7g6X-DkRJ_RCcDtxsXw?authuser=0&hl=en&rclk=1,"22.854155,88.46536119999999"
masjide kooba,Mosque,"V9FH+6XJ masjide kooba, Sastitala, Nikaripara, Chinsurah, West Bengal 712105","Sastitala, Nikaripara",V9FH+6XJ,Chinsurah,712105,West Bengal,IN,https://www.google.com/maps/place/masjide+kooba/data=!4m7!3m6!1s0x39f891ed5895d391:0x971eb057a2a4b645!8m2!3d22.873083!4d88.3798913!16s%2Fg%2F11flbxvkss!19sChIJkdOVWO2R-DkRRbakolewHpc?authuser=0&hl=en&rclk=1,"22.873082999999998,88.3798913"
Shyamnagar Goalbaripara Jame Masjid,Mosque,"HHVC+FGR Shyamnagar Goalbaripara Jame Masjid, Shyamnagar, Jaynagar, West Bengal 700135",,HHVC+FGR,"Shyamnagar, Jaynagar",700135,West Bengal,IN,https://www.google.com/maps/place/Shyamnagar+Goalbaripara+Jame+Masjid/data=!4m7!3m6!1s0x3a0209eb894251bd:0x8ec005f40ff99f5b!8m2!3d22.5937434!4d88.571261!16s%2Fg%2F11gbkv6xmx!19sChIJvVFCiesJAjoRW5_5D_QFwI4?authuser=0&hl=en&rclk=1,"22.593743399999997,88.57126099999999"
Mazar,Mosque,"R9P6+Q26 Mazar, Telinipara, Mankundu, Bhadreswar, West Bengal 712124","Telinipara, Mankundu",R9P6+Q26,Bhadreswar,,West Bengal,IN,https://www.google.com/maps/place/Mazar/data=!4m7!3m6!1s0x39f8914bea78eabd:0x24b68e3291ca8102!8m2!3d22.8369017!4d88.3600057!16s%2Fg%2F11f71d9b_6!19sChIJvep46kuR-DkRAoHKkTKOtiQ?authuser=0&hl=en&rclk=1,"22.8369017,88.3600057"
Jam-A- Masjid,Mosque,"VF78+W9P Jam-A- Masjid, Shashipur, West Bengal 743123",,VF78+W9P,Shashipur,,West Bengal,IN,https://www.google.com/maps/place/Jam-A-+Masjid/data=!4m7!3m6!1s0x39f8963a468c64b7:0x19dbf4cbf02adcd4!8m2!3d22.8648305!4d88.4659591!16s%2Fg%2F11h9x2b_v2!19sChIJt2SMRjqW-DkR1Nwq8Mv02xk?authuser=0&hl=en&rclk=1,"22.8648305,88.46595909999999"
Mohanpur jame masjid,Mosque,"Q99V+957 Mohanpur jame masjid, Barrackpore-Barasat Rd, Mohan Pur, Barrackpore, Bara Kanthalia, West Bengal 700122",Mohan Pur,"Q99V+957, Barrackpore-Barasat Rd","Barrackpore, Bara Kanthalia",700122,West Bengal,IN,https://www.google.com/maps/place/Mohanpur+jame+masjid/data=!4m7!3m6!1s0x39f89b4cd7245581:0x9e436e5fc4851e10!8m2!3d22.7684217!4d88.3929216!16s%2Fg%2F11flc5ntfl!19sChIJgVUk10yb-DkREB6FxF9uQ54?authuser=0&hl=en&rclk=1,"22.768421699999998,88.3929216"
Kanai Dewantala River Side Jama'ah Masjid,Mosque,"Kanai Dewantala River Side Jama'ah Masjid, dui pisaar ghaatt, Serampore, West Bengal 712223",Serampore,dui pisaar ghaatt,,712223,West Bengal,IN,https://www.google.com/maps/place/Kanai+Dewantala+River+Side+Jama%27ah+Masjid/data=!4m7!3m6!1s0x39f89be9b00b4ad5:0x5a5fa1b02b8daa1c!8m2!3d22.771476!4d88.3321853!16s%2Fg%2F11qg5rnpns!19sChIJ1UoLsOmb-DkRHKqNK7ChX1o?authuser=0&hl=en&rclk=1,"22.771476,88.33218529999999"
Bakar Mahal Husaini Masjid,Mosque,"Q8FW+9F6 Bakar Mahal Husaini Masjid, Baker Mahal Rd, Sadar Bazar, Barrackpore, Barrackpur Cantonment, West Bengal 743122",Sadar Bazar,"Q8FW+9F6, Baker Mahal Rd","Barrackpore, Barrackpur Cantonment",743122,West Bengal,IN,https://www.google.com/maps/place/Bakar+Mahal+Husaini+Masjid/data=!4m7!3m6!1s0x39f89aebc945717d:0x61309dc3b92b86f7!8m2!3d22.7734052!4d88.3461399!16s%2Fg%2F11c5hw_yyl!19sChIJfXFFyeua-DkR94YrucOdMGE?authuser=0&hl=en&rclk=1,"22.7734052,88.3461399"
kaali shitlaa mndir,Hindu temple,"kaali shitlaa mndir, 1no, Netaji Nagar Colony, Banarjee Para, Shyamnagar, Bhatpara, West Bengal 743128","Netaji Nagar Colony, Banarjee Para, Shyamnagar",1no,Bhatpara,,West Bengal,IN,https://www.google.com/maps/place/%E0%A6%95%E0%A6%BE%E0%A6%B2%E0%A6%BF+%E0%A6%B6%E0%A6%BF%E0%A6%A4%E0%A6%B2%E0%A6%BE+%E0%A6%AE%E0%A6%A8%E0%A7%8D%E0%A6%A6%E0%A6%BF%E0%A6%B0/data=!4m7!3m6!1s0x39f890c30ff47e97:0x1ec6534bb9162c56!8m2!3d22.8358198!4d88.3852325!16s%2Fg%2F11fzspx3w9!19sChIJl370D8OQ-DkRViwWuUtTxh4?authuser=0&hl=en&rclk=1,"22.8358198,88.3852325"
Ajijiya Masjid,Mosque,"Ajijiya Masjid, 220, Pillokhari Rd, Shyam Nagar, Meerut, Uttar Pradesh 250002",Shyam Nagar,"220, Pillokhari Rd",Meerut,250002,Uttar Pradesh,IN,https://www.google.com/maps/place/Ajijiya+Masjid/data=!4m7!3m6!1s0x390c64895f6260bd:0xb32776aa46d32653!8m2!3d28.9613718!4d77.7039449!16s%2Fg%2F11g9q3lsz3!19sChIJvWBiX4lkDDkRUybTRqp2J7M?authuser=0&hl=en&rclk=1,"28.9613718,77.7039449"
Janglee Peer Baba Dargah,Mosque,"R9PJ+H8R Janglee Peer Baba Dargah, Shyamnagar, Bhatpara, West Bengal 743128",Shyamnagar,R9PJ+H8R,Bhatpara,,West Bengal,IN,https://www.google.com/maps/place/Janglee+Peer+Baba+Dargah/data=!4m7!3m6!1s0x39f8919739e9db43:0xb660196c4d3a6157!8m2!3d22.8364997!4d88.3807682!16s%2Fg%2F11gmz06jgg!19sChIJQ9vpOZeR-DkRV2E6TWwZYLY?authuser=0&hl=en&rclk=1,"22.836499699999997,88.38076819999999"
Masjid,Religious destination,"VC87+GQR Masjid, Bhatpara, Jagatdal, Kolkata, Bhatpara, West Bengal 743123","Bhatpara, Jagatdal",VC87+GQR,"Kolkata, Bhatpara",743123,West Bengal,IN,https://www.google.com/maps/place/Masjid/data=!4m7!3m6!1s0x39f896c445dde8a7:0x32d91f8f6da9f68a!8m2!3d22.8663706!4d88.4143854!16s%2Fg%2F11f3rs19b4!19sChIJp-jdRcSW-DkRivapbY8f2TI?authuser=0&hl=en&rclk=1,"22.8663706,88.4143854"
Jame Masjid,Mosque,"Q969+7G3 Jame Masjid, Barrackpore, West Bengal 700120",,Q969+7G3,Barrackpore,,West Bengal,IN,https://www.google.com/maps/place/Jame+Masjid/data=!4m7!3m6!1s0x39f89bd5aad8980d:0x8e3ae28cc4b471af!8m2!3d22.7606461!4d88.3688065!16s%2Fg%2F11h38t2z6w!19sChIJDZjYqtWb-DkRr3G0xIziOo4?authuser=0&hl=en&rclk=1,"22.7606461,88.36880649999999"
Mosque,Mosque,"QC66+92P Mosque, Sewli Telinipara, Barrackpore, West Bengal 700120",Sewli Telinipara,QC66+92P,Barrackpore,700120,West Bengal,IN,https://www.google.com/maps/place/Mosque/data=!4m7!3m6!1s0x39f899836001555d:0x97db617a63233eb7!8m2!3d22.7609611!4d88.4100903!16s%2Fg%2F12htq1pn0!19sChIJXVUBYIOZ-DkRtz4jY3ph25c?authuser=0&hl=en&rclk=1,"22.7609611,88.4100903"
Teen Gambuj Masjid,Mosque,"W95W+6C9 Teen Gambuj Masjid, Chowk Bazar, Olaichanditala, Chinsurah, West Bengal 712101","Chowk Bazar, Olaichanditala",W95W+6C9,Chinsurah,712101,West Bengal,IN,https://www.google.com/maps/place/Teen+Gambuj+Masjid/data=!4m7!3m6!1s0x39f893fa3cd10451:0xa46ec6a1e7b6fda!8m2!3d22.908036!4d88.3961205!16s%2Fg%2F11fy4cg6_t!19sChIJUQTRPPqT-DkR2m97HmrsRgo?authuser=0&hl=en&rclk=1,"22.908036,88.3961205"
Noor Aalam Masjid,Mosque,"XP64+F2R Noor Aalam Masjid, Gali No. 3, Shyam Nagar, Meerut, Uttar Pradesh 250002",Shyam Nagar,"XP64+F2R, Gali No. 3",Meerut,250002,Uttar Pradesh,IN,https://www.google.com/maps/place/Noor+Aalam+Masjid/data=!4m7!3m6!1s0x390c648954579c6f:0x2742549dfff9b266!8m2!3d28.9612342!4d77.7050083!16s%2Fg%2F11f4zxsfsg!19sChIJb5xXVIlkDDkRZrL5_51UQic?authuser=0&hl=en&rclk=1,"28.9612342,77.7050083"
Jama Masjid,Mosque,"V97C+7MQ Jama Masjid, Laxmiganj Bazar, Urdi Bazar, Chandannagar, West Bengal 712136","Laxmiganj Bazar, Urdi Bazar",V97C+7MQ,Chandannagar,712136,West Bengal,IN,https://www.google.com/maps/place/Jama+Masjid/data=!4m7!3m6!1s0x39f89131bdde4745:0x2a2de00371759dea!8m2!3d22.8632073!4d88.3717372!16s%2Fg%2F11fl9zyg3q!19sChIJRUfevTGR-DkR6p11cQPgLSo?authuser=0&hl=en&rclk=1,"22.8632073,88.3717372"
Shyamnagar jame masjid,Mosque,"793Q+4J8 Shyamnagar jame masjid, Shyamnagar, West Bengal 743355",,793Q+4J8,Shyamnagar,743355,West Bengal,IN,https://www.google.com/maps/place/Shyamnagar+jame+masjid/data=!4m7!3m6!1s0x3a0269d9a697050f:0x24d2f516870e0832!8m2!3d22.252797!4d88.3890807!16s%2Fg%2F11qpx8lj8k!19sChIJDwWXptlpAjoRMggOhxb10iQ?authuser=0&hl=en&rclk=1,"22.252796999999997,88.3890807"
Masjid e Quba,Mosque,"Masjid e Quba, 141/A, Rishi Bankim Chandra Rd, Bhatpara, Jagatdal, Kolkata, Bhatpara, West Bengal 743123","Bhatpara, Jagatdal","141/A, Rishi Bankim Chandra Rd","Kolkata, Bhatpara",743123,West Bengal,IN,https://www.google.com/maps/place/Masjid+e+Quba/data=!4m7!3m6!1s0x39f8979fbb2cc2ad:0xf3e851a73949f281!8m2!3d22.878592!4d88.4107761!16s%2Fg%2F11h0bbtrzs!19sChIJrcIsu5-X-DkRgfJJOadR6PM?authuser=0&hl=en&rclk=1,"22.878591999999998,88.41077609999999"
Sukhnagar Jama Masjid,Mosque,"Sukhnagar Jama Masjid, Bilkuli, Sukhnagar, Chandannagar, West Bengal 712138",Guchaitpara,"Bilkuli, Sukhnagar",Chandannagar,712138,West Bengal,IN,https://www.google.com/maps/place/Sukhnagar+Jama+Masjid/data=!4m7!3m6!1s0x39f89112ae1bc747:0xee06d59af49fd6a4!8m2!3d22.8646543!4d88.3366345!16s%2Fg%2F11g_v6ndb7!19sChIJR8cbrhKR-DkRpNaf9JrVBu4?authuser=0&hl=en&rclk=1,"22.864654299999998,88.3366345"
Choti Masjid,Mosque,"Choti Masjid, Bhatpara, Jagatdal, Kolkata, Bhatpara, West Bengal 743129","Bhatpara, Jagatdal",,"Kolkata, Bhatpara",743129,West Bengal,IN,https://www.google.com/maps/place/Choti+Masjid/data=!4m7!3m6!1s0x39f891348928ba81:0xc4a4c917cdc42544!8m2!3d22.869035!4d88.3994471!16s%2Fg%2F11g6bvdpsn!19sChIJgbooiTSR-DkRRCXEzRfJpMQ?authuser=0&hl=en&rclk=1,"22.869035,88.39944709999999"
Sewli Jame Masjid shiuli jaame msjid,Mosque,"Sewli Jame Masjid shiuli jaame msjid, 48, Sridhar Bansidhar Road, Mohan Pur, Kolkata, Barrackpore, West Bengal 700122",Mohan Pur,"48, Sridhar Bansidhar Road","Kolkata, Barrackpore",700122,West Bengal,IN,https://www.google.com/maps/place/Sewli+Jame+Masjid+%E0%A6%B6%E0%A6%BF%E0%A6%89%E0%A6%B2%E0%A6%BF+%E0%A6%9C%E0%A6%BE%E0%A6%AE%E0%A7%87+%E0%A6%AE%E0%A6%B8%E0%A6%9C%E0%A6%BF%E0%A6%A6/data=!4m7!3m6!1s0x39f89b98c64deeb7:0x7c0026b98433edc0!8m2!3d22.7732364!4d88.3999349!16s%2Fg%2F11rd2nzlnp!19sChIJt-5Nxpib-DkRwO0zhLkmAHw?authuser=0&hl=en&rclk=1,"22.7732364,88.39993489999999"
Masjid Mandi Shyam Nagar,Mosque,"CJ6W+V8R Masjid Mandi Shyam Nagar, Shyam Nagar Mandi, Uttar Pradesh 203202",,CJ6W+V8R,Shyam Nagar Mandi,203202,Uttar Pradesh,IN,https://www.google.com/maps/place/Masjid+Mandi+Shyam+Nagar/data=!4m7!3m6!1s0x390cbf0252ffd14d:0x25fbbabf242d4dd7!8m2!3d28.4122335!4d77.6457604!16s%2Fg%2F11gmy11nrz!19sChIJTdH_UgK_DDkR100tJL-6-yU?authuser=0&hl=en&rclk=1,"28.4122335,77.6457604"
Bhatpara Jumma Mosque,Mosque,"VCC3+8PF Bhatpara Jumma Mosque, Station Rd, Bhatpara, Jagatdal, Kolkata, Bhatpara, West Bengal 743123","Bhatpara, Jagatdal","VCC3+8PF, Station Rd","Kolkata, Bhatpara",743123,West Bengal,IN,https://www.google.com/maps/place/Bhatpara+Jumma+Mosque/data=!4m7!3m6!1s0x39f89718c90fafe7:0x4560d55824a525a5!8m2!3d22.8708083!4d88.4042978!16s%2Fg%2F11jrnrs2kf!19sChIJ568PyRiX-DkRpSWlJFjVYEU?authuser=0&hl=en&rclk=1,"22.8708083,88.4042978"
Chiriyamor moti bibi masjid,Mosque,"Chiriyamor moti bibi masjid, 12, SN Banerjee Rd, Chiria More, Barrackpore, Kolkata, Barrackpur Cantonment, West Bengal 700120","Chiria More, Barrackpore","12, SN Banerjee Rd","Kolkata, Barrackpur Cantonment",700120,West Bengal,IN,https://www.google.com/maps/place/Chiriyamor+moti+bibi+masjid/data=!4m7!3m6!1s0x39f89b63d02a4c85:0xee7dd0f0cc82ad4b!8m2!3d22.7621049!4d88.3653748!16s%2Fg%2F11pc9y6cbr!19sChIJhUwq0GOb-DkRS62CzPDQfe4?authuser=0&hl=en&rclk=1,"22.7621049,88.3653748"
Kutir Math Masjid,Mosque,"Kutir Math Masjid, kuthir math, Urdi Bazar, Chandannagar, West Bengal 712136",Urdi Bazar,kuthir math,Chandannagar,712136,West Bengal,IN,https://www.google.com/maps/place/Kutir+Math+Masjid/data=!4m7!3m6!1s0x39f8910bd00ee033:0xa4d22180270cbe96!8m2!3d22.8640155!4d88.370639!16s%2Fg%2F11frcfq6k6!19sChIJM-AO0AuR-DkRlr4MJ4Ah0qQ?authuser=0&hl=en&rclk=1,"22.8640155,88.370639"
SHYAMNAGAR MADYAMGARM WAKTIYA MASJID shyaamngr mdhymgraam uktiy'aa msjid,Mosque,"2H59+2MH SHYAMNAGAR MADYAMGARM WAKTIYA MASJID shyaamngr mdhymgraam uktiy'aa msjid, Jamtala Petkull Chand shyamnagar madkyamgarm Jayanagar majilpur, West Bengal 743349",,"2H59+2MH, Jamtala Petkull Chand shyamnagar madkyamgarm Jayanagar majilpur",Shyamnagar,743349,West Bengal,IN,https://www.google.com/maps/place/SHYAMNAGAR+MADYAMGARM+WAKTIYA+MASJID+%E0%A6%B6%E0%A7%8D%E0%A6%AF%E0%A6%BE%E0%A6%AE%E0%A6%A8%E0%A6%97%E0%A6%B0+%E0%A6%AE%E0%A6%A7%E0%A7%8D%E0%A6%AF%E0%A6%AE%E0%A6%97%E0%A7%8D%E0%A6%B0%E0%A6%BE%E0%A6%AE+%E0%A6%89%E0%A6%95%E0%A7%8D%E0%A6%A4%E0%A6%BF%E0%A6%AF%E0%A6%BC%E0%A6%BE+%E0%A6%AE%E0%A6%B8%E0%A6%9C%E0%A6%BF%E0%A6%A6/data=!4m7!3m6!1s0x3a023119d2753af9:0x57ee1e639575ddb7!8m2!3d22.0075604!4d88.5692323!16s%2Fg%2F11smtvqz2d!19sChIJ-Tp10hkxAjoRt911lWMe7lc?authuser=0&hl=en&rclk=1,"22.0075604,88.5692323"
Bari Masjid,Mosque,"V93H+WX8 Bari Masjid, ESD Machinery, Jagatdal, Kolkata, Bhatpara, West Bengal 743128","ESD Machinery, Jagatdal",V93H+WX8,"Kolkata, Bhatpara",743128,West Bengal,IN,https://www.google.com/maps/place/Bari+Masjid/data=!4m7!3m6!1s0x39f891fc6c9fb847:0x6e446ac8d26da305!8m2!3d22.8547039!4d88.3799752!16s%2Fg%2F11t9r5xl3d!19sChIJR7ifbPyR-DkRBaNt0shqRG4?authuser=0&hl=en&rclk=1,"22.8547039,88.37997519999999"
Taldanga Jumma Masjid,Mosque,"V9HJ+J7Q Taldanga Jumma Masjid, Gargari Para Rd, Taldanga, Dharampur, Chinsurah, West Bengal 712105","Taldanga, Dharampur","V9HJ+J7Q, Gargari Para Rd",Chinsurah,712105,West Bengal,IN,https://www.google.com/maps/place/Taldanga+Jumma+Masjid/data=!4m7!3m6!1s0x39f891017287ba61:0xf48a602714271c34!8m2!3d22.8790789!4d88.3807202!16s%2Fg%2F11j8mnjng8!19sChIJYbqHcgGR-DkRNBwnFCdgivQ?authuser=0&hl=en&rclk=1,"22.8790789,88.3807202"
Haji Sk Asraf Masjid,Mosque,"V979+5QW Haji Sk Asraf Masjid, Urdi Bazar, Chandannagar, West Bengal 712136",Urdi Bazar,V979+5QW,Chandannagar,712136,West Bengal,IN,https://www.google.com/maps/place/Haji+Sk+Asraf+Masjid/data=!4m7!3m6!1s0x39f89111800e56f1:0xc00427e83ce4f878!8m2!3d22.8629772!4d88.3694597!16s%2Fg%2F11rc8cnj5t!19sChIJ8VYOgBGR-DkRePjkPOgnBMA?authuser=0&hl=en&rclk=1,"22.8629772,88.3694597"
masjid e ahle hadees,Mosque,"V98C+2GP masjid e ahle hadees, Link Rd, Urdi Bazar, Kolkata, Chandannagar, West Bengal 743125",Urdi Bazar,"V98C+2GP, Link Rd","Kolkata, Chandannagar",743125,West Bengal,IN,https://www.google.com/maps/place/masjid+e+ahle+hadees/data=!4m7!3m6!1s0x39f891d62d4d18e7:0x84a1810b52d5787e!8m2!3d22.8649808!4d88.3713213!16s%2Fg%2F11szf4586m!19sChIJ5xhNLdaR-DkRfnjVUguBoYQ?authuser=0&hl=en&rclk=1,"22.864980799999998,88.37132129999999"
Naddia Mill Jama masjid,Mosque,"Naddia Mill Jama masjid, 13/3, Bhatpara, Jagatdal, Kolkata, Bhatpara, West Bengal 743123","Bhatpara, Jagatdal",13/3,"Kolkata, Bhatpara",743123,West Bengal,IN,https://www.google.com/maps/place/Naddia+Mill+Jama+masjid/data=!4m7!3m6!1s0x39f8975ce4967fef:0x8e6e2c3291becb1e!8m2!3d22.8801795!4d88.4116072!16s%2Fg%2F11fl5mcpx7!19sChIJ73-W5FyX-DkRHsu-kTIsbo4?authuser=0&hl=en&rclk=1,"22.8801795,88.41160719999999"
ChandniBenepukur Masjid,Mosque,"ChandniBenepukur Masjid, 41, Judge Bagan Ln, Fatokgora, Last French Colony, Kolupukur Panchanantala, Kolkata, Chandannagar, West Bengal 712136","Fatokgora, Last French Colony, Kolupukur Panchanantala","41, Judge Bagan Ln","Kolkata, Chandannagar",712136,West Bengal,IN,https://www.google.com/maps/place/ChandniBenepukur+Masjid/data=!4m7!3m6!1s0x39f891a11e36aafd:0xb697b607c03de250!8m2!3d22.866413!4d88.363217!16s%2Fg%2F11jz1dssdy!19sChIJ_ao2HqGR-DkRUOI9wAe2l7Y?authuser=0&hl=en&rclk=1,"22.866412999999998,88.36321699999999"
Barrackpore Kabarsthan Masjid,Mosque,"Barrackpore Kabarsthan Masjid, Airport Area Barrackpore, Barrackpore, North Barrackpur, West Bengal 700120",Airport Area Barrackpore,,"Barrackpore, North Barrackpur",700120,West Bengal,IN,https://www.google.com/maps/place/Barrackpore+Kabarsthan+Masjid/data=!4m7!3m6!1s0x39f89bff49e41621:0x65ed565bd5a69861!8m2!3d22.7785923!4d88.3569215!16s%2Fg%2F11hk9r_9q1!19sChIJIRbkSf-b-DkRYZim1VtW7WU?authuser=0&hl=en&rclk=1,"22.7785923,88.3569215"
Khaldhar Madina Masjid,Mosque,"P9XC+P3F Khaldhar Madina Masjid, Krishna Prasad Rd, Titagarh, Barrackpore, West Bengal 700120",Titagarh,"P9XC+P3F, Krishna Prasad Rd",Barrackpore,700120,West Bengal,IN,https://www.google.com/maps/place/Khaldhar+Madina+Masjid/data=!4m7!3m6!1s0x39f89bf15840eedb:0xb4382fdeffaaa092!8m2!3d22.7493244!4d88.3701738!16s%2Fg%2F11r_r3ktq0!19sChIJ2-5AWPGb-DkRkqCq_94vOLQ?authuser=0&hl=en&rclk=1,"22.7493244,88.37017379999999"
anaar vaalii msjid,Mosque,"XP64+HV4 anaar vaalii msjid, Hotel Wali Gali Me, L/H, Gali No. 4, Shyam Nagar, Meerut, Uttar Pradesh 250002","Shyam Nagar, Tarapuri","XP64+HV4, Hotel Wali Gali Me, L/H, Gali No. 4",Meerut,250002,Uttar Pradesh,IN,https://www.google.com/maps/place/%E0%A4%85%E0%A4%A8%E0%A4%BE%E0%A4%B0+%E0%A4%B5%E0%A4%BE%E0%A4%B2%E0%A5%80+%E0%A4%AE%E0%A4%B8%E0%A5%8D%E0%A4%9C%E0%A4%BF%E0%A4%A6/data=!4m7!3m6!1s0x390c6505f8d0b70f:0xb7a2da6765ec6330!8m2!3d28.9613947!4d77.7072174!16s%2Fg%2F11p73514qg!19sChIJD7fQ-AVlDDkRMGPsZWfaorc?authuser=0&hl=en&rclk=1,"28.9613947,77.70721739999999"
Afroz masjid,Mosque,"Afroz masjid, 1141, Pillokhari Rd, Shyam Nagar, Tarapuri, Meerut, Uttar Pradesh 250002","Shyam Nagar, Tarapuri","1141, Pillokhari Rd",Meerut,250002,Uttar Pradesh,IN,https://www.google.com/maps/place/Afroz+masjid/data=!4m7!3m6!1s0x390c650cca4bb79b:0xbe0e5d8ed2b1433d!8m2!3d28.9614793!4d77.7040871!16s%2Fg%2F11mpd23nsw!19sChIJm7dLygxlDDkRPUOx0o5dDr4?authuser=0&hl=en&rclk=1,"28.961479299999997,77.7040871"
Shyamnagar Jame Masjid,Mosque,"35W3+FMP Shyamnagar Jame Masjid, Shyam Nagar, West Bengal 722152",,35W3+FMP,Shyam Nagar,722152,West Bengal,IN,https://www.google.com/maps/place/Shyamnagar+Jame+Masjid/data=!4m7!3m6!1s0x39f7bd1667647595:0x55b7c2d62d417536!8m2!3d23.096205!4d87.1542025!16s%2Fg%2F11h914mvmf!19sChIJlXVkZxa99zkRNnVBLdbCt1U?authuser=0&hl=en&rclk=1,"23.096204999999998,87.1542025"
Shyamnagar Masjid (Purba para),Mosque,"Shyamnagar Masjid (Purba para), Shyamnagar, Garapota, West Bengal 741502",,Shyamnagar,"Garapota, Shyamnagar",741502,West Bengal,IN,https://www.google.com/maps/place/Shyamnagar+Masjid+%28Purba+para%29/data=!4m7!3m6!1s0x39f8d78dc054c8c3:0x67fe10c18fdb9f8!8m2!3d23.3432064!4d88.6961869!16s%2Fg%2F11t6_6ct_j!19sChIJw8hUwI3X-DkR-Ln9GAzhfwY?authuser=0&hl=en&rclk=1,"23.3432064,88.6961869"
Ibrahim Masjid(Choti Masjid),Mosque,"R9M9+7Q6 Ibrahim Masjid(Choti Masjid), Victoria Ln, Telinipara, Bhadreswar, West Bengal 712125",Telinipara,"R9M9+7Q6, Victoria Ln",Bhadreswar,712125,West Bengal,IN,https://www.google.com/maps/place/Ibrahim+Masjid%28Choti+Masjid%29/data=!4m7!3m6!1s0x39f891f2c4a6e68d:0xd04e46f4a9d9be13!8m2!3d22.8332824!4d88.3692244!16s%2Fg%2F11v0cd7gpd!19sChIJjeamxPKR-DkRE77ZqfRGTtA?authuser=0&hl=en&rclk=1,"22.833282399999998,88.3692244"
Badpur Masjid,Mosque,"RCQH+FV3 Badpur Masjid, Badpur, Keutia P, West Bengal",,"RCQH+FV3, Badpur",Keutia P,,West Bengal,IN,https://www.google.com/maps/place/Badpur+Masjid/data=!4m7!3m6!1s0x39f897475f08d247:0xdb4a2b4f13d97f0b!8m2!3d22.838629!4d88.429687!16s%2Fg%2F11pvbkzq21!19sChIJR9IIX0eX-DkRC3_ZE08rSts?authuser=0&hl=en&rclk=1,"22.838628999999997,88.429687"
Mosque,Mosque,"Q9J7+PH Mosque, Airport Area Barrackpore, Kolkata, North Barrackpur, West Bengal 743122",Airport Area Barrackpore,Q9J7+PH,"Kolkata, North Barrackpur",743122,West Bengal,IN,https://www.google.com/maps/place/Mosque/data=!4m7!3m6!1s0x39f89b2f07194d35:0x384bde6fcc367e75!8m2!3d22.7818128!4d88.3639957!16s%2Fg%2F11q4j4m75j!19sChIJNU0ZBy-b-DkRdX42zG_eSzg?authuser=0&hl=en&rclk=1,"22.781812799999997,88.36399569999999"
Keutia Gazi Para Jama Mosjid,Mosque,"Keutia Gazi Para Jama Mosjid, Gazi Para, Keutia P, Bhatpara, West Bengal 743127",,Gazi Para,"Keutia P, Bhatpara",743127,West Bengal,IN,https://www.google.com/maps/place/Keutia+Gazi+Para+Jama+Mosjid/data=!4m7!3m6!1s0x39f8975b185309b7:0xeafa64455be6a5e2!8m2!3d22.8363433!4d88.4192484!16s%2Fg%2F11rcdhmrp2!19sChIJtwlTGFuX-DkR4qXmW0Vk-uo?authuser=0&hl=en&rclk=1,"22.8363433,88.4192484"
Jalwapara Masjid,Mosque,"Q988+G76 Jalwapara Masjid, Laxmipara Pipe Rd, Barrackpore, West Bengal 700120",,"Q988+G76, Laxmipara Pipe Rd",Barrackpore,700120,West Bengal,IN,https://www.google.com/maps/place/Jalwapara+Masjid/data=!4m7!3m6!1s0x39f89ba2ca104a67:0x689cc2302d34dc22!8m2!3d22.7665436!4d88.3657508!16s%2Fg%2F11sbwsh2k0!19sChIJZ0oQyqKb-DkRItw0LTDCnGg?authuser=0&hl=en&rclk=1,"22.7665436,88.3657508"
Mukundapur jame masjid,Mosque,"Mukundapur jame masjid, Colony, Colony 4, mukundpur, Kolkata, West Bengal, Kanika Road, Mukundapur, No 4",,"Colony, Colony 4, mukundpur, Kolkata, West Bengal, Kanika Road",Mukundapur,No 4,West Bengal,IN,https://www.google.com/maps/place/Mukundapur+jame+masjid/data=!4m7!3m6!1s0x39f897a408d3d55d:0xea47442da2eb62ea!8m2!3d22.8434652!4d88.4341636!16s%2Fg%2F11stpgsn1m!19sChIJXdXTCKSX-DkR6mLroi1ER-o?authuser=0&hl=en&rclk=1,"22.8434652,88.43416359999999"
Sankarpur Jame Masjid,Mosque,"RFW2+9JH Sankarpur Jame Masjid, Sankarpur, Rambati, West Bengal 743123",Sankarpur,RFW2+9JH,Rambati,743123,West Bengal,IN,https://www.google.com/maps/place/Sankarpur+Jame+Masjid/data=!4m7!3m6!1s0x39f8975dbe7cb925:0xff0ca34385c9f881!8m2!3d22.8459485!4d88.4516204!16s%2Fg%2F11t40mx6mj!19sChIJJbl8vl2X-DkRgfjJhUOjDP8?authuser=0&hl=en&rclk=1,"22.8459485,88.4516204"
Irshad Besar,Mosque,"Irshad Besar, Masjide aksa, Block K, Shyam Nagar, kmruddeen Nagar, sakras, Delhi, 110018","Block K, Shyam Nagar, kmruddeen Nagar",Masjide aksa,"sakras, Delhi",,Delhi,IN,https://www.google.com/maps/place/Irshad+Besar/data=!4m7!3m6!1s0x390d03fc1a6611e5:0xf80e892ec72d9a0e!8m2!3d28.6445374!4d77.1061898!16s%2Fg%2F11rspnq14k!19sChIJ5RFmGvwDDTkRDpotxy6JDvg?authuser=0&hl=en&rclk=1,"28.644537399999997,77.1061898"
ALFALAH MASJID alphlaah msjid,Mosque,"XP34+4Q5 ALFALAH MASJID alphlaah msjid, Majeed Nagar, Mew Garhi, Shyam Nagar Rd, Meerut, 250002",Fatehullahpur,"XP34+4Q5, Majeed Nagar, Mew Garhi, Shyam Nagar Rd",Meerut,250002,Uttar Pradesh,IN,https://www.google.com/maps/place/ALFALAH+MASJID+%E0%A4%85%E0%A4%B2%E0%A5%8D%E0%A4%AB%E0%A4%B2%E0%A4%BE%E0%A4%B9+%E0%A4%AE%E0%A4%B8%E0%A5%8D%E0%A4%9C%E0%A4%BF%E0%A4%A6/data=!4m7!3m6!1s0x390c65c10959e697:0x19253950efb45b52!8m2!3d28.9527537!4d77.7069815!16s%2Fg%2F11rf6m7fh5!19sChIJl-ZZCcFlDDkRUlu071A5JRk?authuser=0&hl=en&rclk=1,"28.9527537,77.7069815"
MASJID E IBRAHIM,Mosque,"R9M9+4PX MASJID E IBRAHIM, RPM St, Telinipara, Bhadreswar, West Bengal 712125",Telinipara,"R9M9+4PX, RPM St",Bhadreswar,712125,West Bengal,IN,https://www.google.com/maps/place/MASJID+E+IBRAHIM/data=!4m7!3m6!1s0x39f891c6823cb33d:0xf6445a04b4de6288!8m2!3d22.8328509!4d88.3693578!16s%2Fg%2F11ssl8y9k2!19sChIJPbM8gsaR-DkRiGLetARaRPY?authuser=0&hl=en&rclk=1,"22.8328509,88.3693578"
Masjid Ul Habib,Mosque,"V9C6+M7X Masjid Ul Habib, Narua Panchanantala Rd, Surerpukur, Chandannagar, West Bengal 712102",Surerpukur,"V9C6+M7X, Narua Panchanantala Rd",Chandannagar,712102,West Bengal,IN,https://www.google.com/maps/place/Masjid+Ul+Habib/data=!4m7!3m6!1s0x39f891577f1b2da5:0x3942caeee492aadb!8m2!3d22.8717339!4d88.3607352!16s%2Fg%2F11rsr2x5gc!19sChIJpS0bf1eR-DkR26qS5O7KQjk?authuser=0&hl=en&rclk=1,"22.8717339,88.3607352"
Babanpur Masjid,Mosque,"Q9PM+5QQ Babanpur Masjid, Babanpur, Barrackpore, West Bengal 743122",Babanpur,Q9PM+5QQ,Barrackpore,743122,West Bengal,IN,https://www.google.com/maps/place/Babanpur+Masjid/data=!4m7!3m6!1s0x39f89b49e2bf7511:0x82f8a2e9c2036219!8m2!3d22.7854623!4d88.3845263!16s%2Fg%2F11ss88gbx1!19sChIJEXW_4kmb-DkRGWIDwumi-II?authuser=0&hl=en&rclk=1,"22.7854623,88.38452629999999"
MD AMAN,Mosque,"V97W+6GV MD AMAN, Manikpir Rd, Kankinara, Jagatdal, Kolkata, Bhatpara, West Bengal 743132","Kankinara, Jagatdal","V97W+6GV, Manikpir Rd","Kolkata, Bhatpara",743132,West Bengal,IN,https://www.google.com/maps/place/MD+AMAN/data=!4m7!3m6!1s0x39f89130896e1731:0x48ee4c91476b6da7!8m2!3d22.8631235!4d88.39629!16s%2Fg%2F11pzyprs_h!19sChIJMRduiTCR-DkRp21rR5FM7kg?authuser=0&hl=en&rclk=1,"22.8631235,88.39629"
Shyamnagar South Para 2 Jame masjid,Mosque,"HHRG+MWX Shyamnagar South Para 2 Jame masjid, Kolkata, Shyamnagar, West Bengal 700135",,HHRG+MWX,"Kolkata, Shyamnagar",700135,West Bengal,IN,https://www.google.com/maps/place/Shyamnagar+South+Para+2+Jame+masjid/data=!4m7!3m6!1s0x3a02097e74d48a09:0xb52eb778793fb70c!8m2!3d22.5917375!4d88.5773594!16s%2Fg%2F11k3mz64p7!19sChIJCYrUdH4JAjoRDLc_eXi3LrU?authuser=0&hl=en&rclk=1,"22.5917375,88.57735939999999"
Mohanpur Paschimpara Jame Masjid mohnpur pshcimpaadd'aa jaame msjid,Mosque,"Mohanpur Paschimpara Jame Masjid mohnpur pshcimpaadd'aa jaame msjid, 307, Mohan Pur, Barrackpore, West Bengal 700122",Mohan Pur,307,Barrackpore,700122,West Bengal,IN,https://www.google.com/maps/place/Mohanpur+Paschimpara+Jame+Masjid+%E0%A6%AE%E0%A7%8B%E0%A6%B9%E0%A6%A8%E0%A6%AA%E0%A7%81%E0%A6%B0+%E0%A6%AA%E0%A6%B6%E0%A7%8D%E0%A6%9A%E0%A6%BF%E0%A6%AE%E0%A6%AA%E0%A6%BE%E0%A6%A1%E0%A6%BC%E0%A6%BE+%E0%A6%9C%E0%A6%BE%E0%A6%AE%E0%A7%87+%E0%A6%AE%E0%A6%B8%E0%A6%9C%E0%A6%BF%E0%A6%A6/data=!4m7!3m6!1s0x39f89be533c9a94b:0x8241519ff7379fc2!8m2!3d22.7738979!4d88.3914833!16s%2Fg%2F11vkdkj0xc!19sChIJS6nJM-Wb-DkRwp83959RQYI?authuser=0&hl=en&rclk=1,"22.773897899999998,88.39148329999999"
Kunjra Mahal Badi Masjid,Mosque,"Kunjra Mahal Badi Masjid, 109, Kunjra Mahal, Sadar Bazar, Barrackpore, Barrackpur Cantonment, West Bengal 743122","Kunjra Mahal, Sadar Bazar",109,"Barrackpore, Barrackpur Cantonment",743122,West Bengal,IN,https://www.google.com/maps/place/Kunjra+Mahal+Badi+Masjid/data=!4m7!3m6!1s0x39f89bc511e5b4a5:0x8503a9c7e230ada6!8m2!3d22.7717825!4d88.3426091!16s%2Fg%2F11ryhnrzhl!19sChIJpbTlEcWb-DkRpq0w4sepA4U?authuser=0&hl=en&rclk=1,"22.7717825,88.34260909999999"
