name,main_category,address,address_ward,address_street,address_city,address_postal_code,address_state,address_country_code,link,coordinates
Masjid sharif (wani mohalla) Qasba haihama,Mosque,"Masjid sharif (wani mohalla) Qasba haihama, Qasba haihama Haihama, Jammu and Kashmir 193222",,Qasba haihama Haihama,Forest Block,193222,Jammu and Kashmir,IN,https://www.google.com/maps/place/Masjid+sharif+%28wani+mohalla%29+Qasba+haihama/data=!4m7!3m6!1s0x38e1217b8e3c9989:0xfcf752c5b761e16a!8m2!3d34.5665372!4d74.2588089!16s%2Fg%2F11qyvwd2_z!19sChIJiZk8jnsh4TgRauFht8VS9_w?authuser=0&hl=en&rclk=1,"34.5665372,74.25880889999999"
Masjid Dai-Wali,Mosque,"Shop No, Masjid Dai-Wali, 3136, Delhi Gate Bazar, Kucha Alam, Khabas Pura, Daryaganj, New Delhi, Delhi, 110002","Kucha Alam, Khabas Pura, Daryaganj","Shop No, 3136, Delhi Gate Bazar","New Delhi, Delhi",110002,Delhi,IN,https://www.google.com/maps/place/Masjid+Dai-Wali/data=!4m7!3m6!1s0x390cfd20da360d31:0x7e303aff50cc4c2b!8m2!3d28.6435772!4d77.2380546!16s%2Fg%2F1jky_pbsw!19sChIJMQ022iD9DDkRK0zMUP86MH4?authuser=0&hl=en&rclk=1,"28.6435772,77.2380546"
Masjid Jamun Wali,Mosque,"Masjid Jamun Wali, Jamun Street, Kalan Mahal Rd, Kalan Mahal, Daryaganj, Delhi, 110002","Kalan Mahal, Daryaganj","Jamun Street, Kalan Mahal Rd",Delhi,110002,Delhi,IN,https://www.google.com/maps/place/Masjid+Jamun+Wali/data=!4m7!3m6!1s0x390cfd21e86c6d67:0xebc83db6fbea62a8!8m2!3d28.6473277!4d77.2360868!16s%2Fg%2F11g6qh_snj!19sChIJZ21s6CH9DDkRqGLq-7Y9yOs?authuser=0&hl=en&rclk=1,"28.647327699999998,77.2360868"
mrkhzy jm` msjd shryf bryntty,Mosque,"mrkhzy jm` msjd shryf bryntty, Brinty Batpora, Achabal - Dialgam Rd, Badangan Mohalla, Brinty, Anantnag, Jammu and Kashmir 192210","Badangan Mohalla, Brinty","Brinty Batpora, Achabal - Dialgam Rd",Anantnag,192210,Jammu and Kashmir,IN,https://www.google.com/maps/place/%D9%85%D8%B1%DA%A9%D8%B2%DB%8C+%D8%AC%D8%A7%D9%85%D8%B9+%D9%85%D8%B3%D8%AC%D8%AF+%D8%B4%D8%B1%DB%8C%D9%81+%D8%A8%D8%B1%DB%8C%D9%86%D9%B9%DB%8C%E2%80%AD/data=!4m7!3m6!1s0x38e208c2eff88091:0x27580db7105bd9f7!8m2!3d33.6775716!4d75.1874169!16s%2Fg%2F11ggvt7j01!19sChIJkYD478II4jgR99lbELcNWCc?authuser=0&hl=en&rclk=1,"33.6775716,75.1874169"
Masjid Shareif Lethipora,Mosque,"XX77+FC3 Masjid Shareif Lethipora, Lethipora, Jammu and Kashmir 192122",,XX77+FC3,Lethipora,192122,Jammu and Kashmir,IN,https://www.google.com/maps/place/Masjid+Shareif+Lethipora/data=!4m7!3m6!1s0x38e18a9cc14cf113:0x255f332630e95414!8m2!3d33.9636485!4d74.9635577!16s%2Fg%2F1hm6fd9s4!19sChIJE_FMwZyK4TgRFFTpMCYzXyU?authuser=0&hl=en&rclk=1,"33.9636485,74.9635577"
Jamia Masjid Ahlul Hadith Dowlatpora,Mosque,"WRX7+989 Jamia Masjid Ahlul Hadith Dowlatpora, Dowlat Pora, Chadoora, 191113",Dowlatpora,"WRX7+989, Dowlat Pora","Chadoora, Wani Pora",191113,,IN,https://www.google.com/maps/place/Jamia+Masjid+Ahlul+Hadith+Dowlatpora/data=!4m7!3m6!1s0x38e18d0e5edd7e7f:0x9c4fca97affc8924!8m2!3d33.9484083!4d74.8133507!16s%2Fg%2F11b6g8qlmm!19sChIJf37dXg6N4TgRJIn8r5fKT5w?authuser=0&hl=en&rclk=1,"33.9484083,74.8133507"
Garahaiya Wali Masjid msjd ghrrhy wly,Mosque,"M645+P9X Garahaiya Wali Masjid msjd ghrrhy wly, Qureshnagar, Sadar Bazaar, Delhi, 110006","Sarai Khalil, Sadar Bazaar","M645+P9X, Qureshnagar, Sadar Bazaar",Delhi,110006,Delhi,IN,https://www.google.com/maps/place/Garahaiya+Wali+Masjid+%D9%85%D8%B3%D8%AC%D8%AF+%DA%AF%DA%BE%DA%91%DA%BE%DB%8C%D8%A7+%D9%88%D8%A7%D9%84%DB%8C%E2%80%AD/data=!4m7!3m6!1s0x390cfd6fd6004367:0xfebc1f26322235da!8m2!3d28.6568604!4d77.2084973!16s%2Fg%2F11c3w0w7y_!19sChIJZ0MA1m_9DDkR2jUiMiYfvP4?authuser=0&hl=en&rclk=1,"28.6568604,77.20849729999999"
Ek Burj Wali Masjid,Mosque,"Ek Burj Wali Masjid, 1285, pahari imli New, Sita Ram Bazar, Chandni Chowk, New Delhi, Delhi 110006","Sita Ram Bazar, Chandni Chowk","1285, pahari imli New","New Delhi, Delhi",110006,Delhi,IN,https://www.google.com/maps/place/Ek+Burj+Wali+Masjid/data=!4m7!3m6!1s0x390cfd22798933e9:0x952ef97cdf0d7140!8m2!3d28.6473909!4d77.2324918!16s%2Fg%2F11ddx07xmx!19sChIJ6TOJeSL9DDkRQHEN33z5LpU?authuser=0&hl=en&rclk=1,"28.647390899999998,77.23249179999999"
Masjid Sharief,Mosque,"P543+9QC Masjid Sharief, MominAbad, Ashajipora, Anantnag, Jammu and Kashmir 192210","MominAbad, Ashajipora",P543+9QC,Anantnag,192210,Jammu and Kashmir,IN,https://www.google.com/maps/place/Masjid+Sharief/data=!4m7!3m6!1s0x38e205f7dfc62643:0x2b21981b63ba5929!8m2!3d33.7059377!4d75.1544023!16s%2Fg%2F1260ctklz!19sChIJQybG3_cF4jgRKVm6YxuYISs?authuser=0&hl=en&rclk=1,"33.7059377,75.1544023"
Masjid Wani Mohalla Herpora,Mosque,"G5WC+96W Masjid Wani Mohalla Herpora, Laderwan Rd, Lashdat, Jammu and Kashmir 193224",,"G5WC+96W, Laderwan Rd",Lashdat,193224,Jammu and Kashmir,IN,https://www.google.com/maps/place/Masjid+Wani+Mohalla+Herpora/data=!4m7!3m6!1s0x38e0de3556799d87:0xb3b976dce0022389!8m2!3d34.5459968!4d74.1705841!16s%2Fg%2F11b7ckp7g_!19sChIJh515VjXe4DgRiSMC4Nx2ubM?authuser=0&hl=en&rclk=1,"34.5459968,74.1705841"
Hanfia Masjid,Mosque,"XX97+4M2 Hanfia Masjid, Khalpora, Khalpara, Siliguri, West Bengal",Khalpara,"XX97+4M2, Khalpora","Siliguri, Lethipora",,West Bengal,IN,https://www.google.com/maps/place/Hanfia+Masjid/data=!4m7!3m6!1s0x38e18a83a8dece71:0x6a4e7ef87af2825f!8m2!3d33.9677514!4d74.9641518!16s%2Fg%2F11dxl3150v!19sChIJcc7eqIOK4TgRX4Lyevh-Tmo?authuser=0&hl=en&rclk=1,"33.9677514,74.9641518"
"Sofi Mohalla Mosque,Onagam",Mosque,"CJJ6+WP3 Sofi Mohalla Mosque,Onagam, Onagam, Jammu and Kashmir 193502",,CJJ6+WP3,Onagam,193502,Jammu and Kashmir,IN,"https://www.google.com/maps/place/Sofi+Mohalla+Mosque,Onagam/data=!4m7!3m6!1s0x38e16d3f3938bebb:0xbf97243e9ed0ea43!8m2!3d34.4322706!4d74.6117967!16s%2Fg%2F1pp2ty3qp!19sChIJu744OT9t4TgRQ-rQnj4kl78?authuser=0&hl=en&rclk=1","34.432270599999995,74.6117967"
Jamia Masjid,Mosque,"Jamia Masjid, Pethkundal Ganderbal Jammu and Kashmir, 191131",,Pethkundal Ganderbal Jammu and Kashmir,Chundina Deh Nowabad,191131,,IN,https://www.google.com/maps/place/Jamia+Masjid/data=!4m7!3m6!1s0x38e19c65414a0f27:0x5d134049830a3485!8m2!3d34.1748162!4d74.7231891!16s%2Fg%2F1hc2rtnq8!19sChIJJw9KQWWc4TgRhTQKg0lAE10?authuser=0&hl=en&rclk=1,"34.174816199999995,74.7231891"
Masjid Momin Wali,Mosque,"J6WQ+54F Masjid Momin Wali, Kucha Chelan, Chandni Mahal, Old Delhi, New Delhi, Delhi, 110002","Kucha Chelan, Chandni Mahal, Old Delhi",J6WQ+54F,"New Delhi, Delhi",110002,Delhi,IN,https://www.google.com/maps/place/Masjid+Momin+Wali/data=!4m7!3m6!1s0x390cfd205576c6d5:0x1a5f50da83261dc2!8m2!3d28.6454437!4d77.2378027!16s%2Fg%2F11ddzhxrq6!19sChIJ1cZ2VSD9DDkRwh0mg9pQXxo?authuser=0&hl=en&rclk=1,"28.645443699999998,77.2378027"
Jahtari Wali Masjid,Mosque,"Jahtari Wali Masjid, 5077, Main Bazar Rd, Bharat Nagar, Main Bazar, Aram Bagh, Paharganj, New Delhi, Delhi 110055","Bharat Nagar, Main Bazar, Aram Bagh, Paharganj","5077, Main Bazar Rd",New Delhi,110055,Delhi,IN,https://www.google.com/maps/place/Jahtari+Wali+Masjid/data=!4m7!3m6!1s0x390cfd815a030b8b:0xe18350aa13859d7a!8m2!3d28.6406795!4d77.2115511!16s%2Fg%2F11gjxtbc0j!19sChIJiwsDWoH9DDkRep2FE6pQg-E?authuser=0&hl=en&rclk=1,"28.640679499999997,77.2115511"
Haqqani Mohalla,Mosque,"WHX4+QJX Haqqani Mohalla, Lassipora, Kandoora, Jammu and Kashmir",Hakkani Mohalla,"WHX4+QJX, Lassipora",Kandoora,,Jammu and Kashmir,IN,https://www.google.com/maps/place/Haqqani+Mohalla/data=!4m7!3m6!1s0x38e1be663870d3f7:0x4a772ff6b1646493!8m2!3d33.9494966!4d74.5566049!16s%2Fg%2F1hc12jyyz!19sChIJ99NwOGa-4TgRk2RksfYvd0o?authuser=0&hl=en&rclk=1,"33.949496599999996,74.5566049"
RAZA MASJID,Mosque,"PRF2+QXV RAZA MASJID, Ranjit Pur, Jammu, Jammu and Kashmir 180002",,PRF2+QXV,"Ranjit Pur, Jammu",,Jammu and Kashmir,IN,https://www.google.com/maps/place/RAZA+MASJID/data=!4m7!3m6!1s0x391e85ca679d6c17:0x25a03c141067b00b!8m2!3d32.7244909!4d74.8024267!16s%2Fg%2F11kjg1q3nj!19sChIJF2ydZ8qFHjkRC7BnEBQ8oCU?authuser=0&hl=en&rclk=1,"32.7244909,74.8024267"
Masjid Sanauji,Mosque,"Masjid Sanauji, Shop No. 1630, Lal Kuan, Lalkuan Bazar Rd, Baradari, Chandni Chowk, New Delhi, Delhi 110006","Bazar Sirkiwalan, Baradari, Chandni Chowk","Shop No. 1630, Lal Kuan, Lalkuan Bazar Rd","New Delhi, Delhi",110006,Delhi,IN,https://www.google.com/maps/place/Masjid+Sanauji/data=!4m7!3m6!1s0x390cfd13fe3ea72d:0x27ea23bc5f650202!8m2!3d28.6529317!4d77.2232485!16s%2Fg%2F12hplq4pp!19sChIJLac-_hP9DDkRAgJlX7wj6ic?authuser=0&hl=en&rclk=1,"28.6529317,77.2232485"
Jamia Masjid Shareif Hanfia wa Gousia,Mosque,"Jamia Masjid Shareif Hanfia wa Gousia, Wanikhal Road, Wanikhal, Nangir Pora Mughama, Jammu and Kashmir 193121",Wanikhal,Wanikhal Road,Nangir Pora Mughama,193121,Jammu and Kashmir,IN,https://www.google.com/maps/place/Jamia+Masjid+Shareif+Hanfia+wa+Gousia/data=!4m7!3m6!1s0x38e1a252ce246e77:0x78449dff7c063f6d!8m2!3d34.1058084!4d74.5468122!16s%2Fg%2F1pt_6_n0c!19sChIJd24kzlKi4TgRbT8GfP-dRHg?authuser=0&hl=en&rclk=1,"34.1058084,74.54681219999999"
Anarwali Masjid msjd nr wly,Mosque,"Anarwali Masjid msjd nr wly, hno.230/ mandavali, 3, Mandawali Main Road, Fazalpur, Railway Colony, Mandawali, Delhi, 110092","Railway Colony, Mandawali","hno.230/ mandavali, 3, Mandawali Main Road, Fazalpur, Railway Colony, Mandawali",Delhi,110092,Delhi,IN,https://www.google.com/maps/place/Anarwali+Masjid+%D9%85%D8%B3%D8%AC%D8%AF+%D8%A7%D9%86%D8%A7%D8%B1+%D9%88%D8%A7%D9%84%DB%8C%E2%80%AD/data=!4m7!3m6!1s0x390ce4aceaaaaaab:0xf35cfc3b5a9a894a!8m2!3d28.6291881!4d77.2936695!16s%2Fg%2F11cmfdyfyg!19sChIJq6qq6qzkDDkRSomaWjv8XPM?authuser=0&hl=en&rclk=1,"28.6291881,77.2936695"
Gani Wali Masjid,Mosque,"Gani Wali Masjid, Shop No. 886/8, Main Bazar Rd, Gandhi Colony, Mehrauli, New Delhi, Delhi 110030","Aam Bagh, Gandhi Colony, Mehrauli","Shop No. 886/8, Main Bazar Rd",New Delhi,110030,Delhi,IN,https://www.google.com/maps/place/Gani+Wali+Masjid/data=!4m7!3m6!1s0x390d1e11e669e7ff:0xc6b278a28ba2cdaa!8m2!3d28.5158558!4d77.1784357!16s%2Fg%2F1pv0f971b!19sChIJ_-dp5hEeDTkRqs2ii6J4ssY?authuser=0&hl=en&rclk=1,"28.515855799999997,77.1784357"
Sazgaripora Wani Masjid,Place of worship,"Sazgaripora Wani Masjid, Hawal- Sazgari Pora Link Rd, Hawal, Srinagar, Jammu and Kashmir 190002",Hawal,Hawal- Sazgari Pora Link Rd,Srinagar,190002,Jammu and Kashmir,IN,https://www.google.com/maps/place/Sazgaripora+Wani+Masjid/data=!4m7!3m6!1s0x38e18514c4929f51:0x91b39cdcb6c61665!8m2!3d34.1067013!4d74.8064527!16s%2Fg%2F11btrr1yjg!19sChIJUZ-SxBSF4TgRZRbGttycs5E?authuser=0&hl=en&rclk=1,"34.1067013,74.8064527"
Poshwani Masjid Shareef,Mosque,"Poshwani Masjid Shareef, Poshwani Road, National Highway 1A, Pattan, Jammu and Kashmir 193121",,"Poshwani Road, National Highway 1A",Pattan,193121,Jammu and Kashmir,IN,https://www.google.com/maps/place/Poshwani+Masjid+Shareef/data=!4m7!3m6!1s0x38e1a1a068d2f721:0x18eaa566c347b2f7!8m2!3d34.1640991!4d74.5474371!16s%2Fg%2F11bx8k4q54!19sChIJIffSaKCh4TgR97JHw2al6hg?authuser=0&hl=en&rclk=1,"34.1640991,74.5474371"
Masjid Umar (R.A) Mohalla Qadeem Eid Gah Baramulla,Mosque,"Masjid Umar (R.A) Mohalla Qadeem Eid Gah Baramulla, FAQIR WANI, QADEEM EID GAH, Baramulla, Jammu and Kashmir 193101",,"FAQIR WANI, QADEEM EID GAH",Baramulla,193101,Jammu and Kashmir,IN,https://www.google.com/maps/place/Masjid+Umar+%28R.A%29+Mohalla+Qadeem+Eid+Gah+Baramulla/data=!4m7!3m6!1s0x38e1073c18fce91d:0xfe922b078202eff2!8m2!3d34.21412!4d74.3365994!16s%2Fg%2F11s3bz9y_n!19sChIJHen8GDwH4TgR8u8Cggcrkv4?authuser=0&hl=en&rclk=1,"34.21412,74.3365994"
Jamia masjid Harkarpora jm` msjd hrkhr pwrh,Mosque,"Q5MJ+G92 Jamia masjid Harkarpora jm` msjd hrkhr pwrh, Momin Hall, 192124",,Q5MJ+G92,Momin Hall,192124,,IN,https://www.google.com/maps/place/Jamia+masjid+Harkarpora+%D8%AC%D8%A7%D9%85%D8%B9+%D9%85%D8%B3%D8%AC%D8%AF+%DB%81%D8%B1%DA%A9%D8%B1+%D9%BE%D9%88%D8%B1%DB%81%E2%80%AD/data=!4m7!3m6!1s0x38e20fccfac8a4cb:0x2eb2f6fd20618024!8m2!3d33.7837746!4d75.1808944!16s%2Fg%2F11pwsz_7wz!19sChIJy6TI-swP4jgRJIBhIP32si4?authuser=0&hl=en&rclk=1,"33.7837746,75.1808944"
Jamea Masjid Wanni Wala,Mosque,"P2H8+HWX Jamea Masjid Wanni Wala, Alodaywali-Headbakayni Rd, Wanni Wala, Muzaffargarh, Punjab, Pakistan",,"P2H8+HWX, Alodaywali-Headbakayni Rd",Wanni Wala,,"Muzaffargarh, Punjab",PK,https://www.google.com/maps/place/Jamea+Masjid+Wanni+Wala/data=!4m7!3m6!1s0x393ae59dab75beb3:0xde4add2c656f39f6!8m2!3d29.7289976!4d71.0173469!16s%2Fg%2F11b6dpcdk9!19sChIJs751q53lOjkR9jlvZSzdSt4?authuser=0&hl=en&rclk=1,"29.7289976,71.01734689999999"
Jamia Masjid (Hanafi),Mosque,"VRPW+MRV Jamia Masjid (Hanafi), Chiva Kilan, 191113",,VRPW+MRV,Chiva Kilan,191113,,IN,https://www.google.com/maps/place/Jamia+Masjid+%28Hanafi%29/data=!4m7!3m6!1s0x38e1f3270d486e89:0xad293f8fc6a36b6f!8m2!3d33.886729!4d74.8470328!16s%2Fg%2F11n0rp1hbv!19sChIJiW5IDSfz4TgRb2ujxo8_Ka0?authuser=0&hl=en&rclk=1,"33.886728999999995,74.8470328"
Masjid Beri Wali,Mosque,"5051, Masjid Beri Wali, 5, Netaji Subhash Marg, Daryaganj, New Delhi, Delhi, 110002",Daryaganj,"5051, 5, Netaji Subhash Marg","New Delhi, Delhi",110002,Delhi,IN,https://www.google.com/maps/place/Masjid+Beri+Wali/data=!4m7!3m6!1s0x390cfd816e5afc6d:0x2ccc293d40535a24!8m2!3d28.6464121!4d77.2405247!16s%2Fg%2F11h1htr55d!19sChIJbfxaboH9DDkRJFpTQD0pzCw?authuser=0&hl=en&rclk=1,"28.6464121,77.2405247"
Masjid Abu Bakkar(R.Z) Wani Mohalla,Mosque,"Masjid Abu Bakkar(R.Z) Wani Mohalla, 193224",,,,193224,,IN,https://www.google.com/maps/place/Masjid+Abu+Bakkar%28R.Z%29+Wani+Mohalla/data=!4m7!3m6!1s0x38e0df25d8e58129:0x7ad03bebbb5f2418!8m2!3d34.5493786!4d74.1645005!16s%2Fg%2F11m_l68nmh!19sChIJKYHl2CXf4DgRGCRfu-s70Ho?authuser=0&hl=en&rclk=1,"34.5493786,74.1645005"
Masjid Kuan Wali,Mosque,"J6WP+R3M Masjid Kuan Wali, Dakhni Rai St, Kalan Mehal, Old Delhi, New Delhi, Delhi, 110006","Kalan Mehal, Old Delhi","J6WP+R3M, Dakhni Rai St","New Delhi, Delhi",110006,Delhi,IN,https://www.google.com/maps/place/Masjid+Kuan+Wali/data=!4m7!3m6!1s0x390cfd21f12ffffb:0xa8c4b5fbf6d05e35!8m2!3d28.6470908!4d77.2351671!16s%2Fg%2F11g6_vvyf5!19sChIJ-_8v8SH9DDkRNV7Q9vu1xKg?authuser=0&hl=en&rclk=1,"28.647090799999997,77.2351671"
Jamia Masjid Awana,Mosque,"QQ2P+8VR Jamia Masjid Awana, Tahir Wana Rd, Wani, wana, Gujrat, Punjab, Pakistan",Wani,"QQ2P+8VR, Tahir Wana Rd",wana,,"Gujrat, Punjab",PK,https://www.google.com/maps/place/Jamia+Masjid+Awana/data=!4m7!3m6!1s0x391f9e36474c94e1:0x8307a10aa2421d9e!8m2!3d32.7508674!4d73.7871311!16s%2Fg%2F1wyc2qkx!19sChIJ4ZRMRzaeHzkRnh1CogqhB4M?authuser=0&hl=en&rclk=1,"32.7508674,73.7871311"
Masjid kaba,Mosque,"Masjid kaba, Near,wani colney parrayporaHatmulla,NagrimalporaRoad, 193222",,"Near,wani colney parrayporaHatmulla,NagrimalporaRoad",,193222,,IN,https://www.google.com/maps/place/Masjid+kaba/data=!4m7!3m6!1s0x38e11f91cf19f7cd:0x4e9e108a941f8435!8m2!3d34.4987006!4d74.259699!16s%2Fg%2F11rn4j5h0p!19sChIJzfcZz5Ef4TgRNYQflIoQnk4?authuser=0&hl=en&rclk=1,"34.4987006,74.259699"
Jamia Masjid Bilal (RA),Mosque,"Jamia Masjid Bilal (RA), Astan pora, Red Wana, Jammu and Kashmir 192232",Astan pora,,Red Wana,192232,Jammu and Kashmir,IN,https://www.google.com/maps/place/Jamia+Masjid+Bilal+%28RA%29/data=!4m7!3m6!1s0x38e2056dca7a8501:0x918523d08eb7bebc!8m2!3d33.7285625!4d75.0704375!16s%2Fg%2F11rq2jgpdk!19sChIJAYV6ym0F4jgRvL63jtAjhZE?authuser=0&hl=en&rclk=1,"33.728562499999995,75.0704375"
Masjid Sharief Wangipora,Mosque,"MXW6+G3M Masjid Sharief Wangipora, Wangipora, Chaki Cholend, Pader Pora, 192232",Wangipora,MXW6+G3M,"Chaki Cholend, Pader Pora",192232,,IN,https://www.google.com/maps/place/Masjid+Sharief+Wangipora/data=!4m7!3m6!1s0x38e1f947237beb3b:0xa6f3bec5912acbf7!8m2!3d33.6963314!4d74.9601782!16s%2Fg%2F11n0bwl9wn!19sChIJO-t7I0f54TgR98sqkcW-86Y?authuser=0&hl=en&rclk=1,"33.6963314,74.9601782"
Masjid Shrief Laribal,Mosque,"Masjid Shrief Laribal, 193501",,,,,,,https://www.google.com/maps/place/Masjid+Shrief+Laribal/data=!4m7!3m6!1s0x38e10abc868af23f:0xeec305a69abd3df1!8m2!3d34.2441646!4d74.5750773!16s%2Fg%2F1tfhdsyc!19sChIJP_KKhrwK4TgR8T29mqYFw-4?authuser=0&hl=en&rclk=1,"34.2441646,74.57507729999999"
Jamia Masjid Baba Nasibuddin Gazi Pethi Mohalla Yadipora,Mosque,"Jamia Masjid Baba Nasibuddin Gazi Pethi Mohalla Yadipora, 193121",,,,193121,,IN,https://www.google.com/maps/place/Jamia+Masjid+Baba+Nasibuddin+Gazi+Pethi+Mohalla+Yadipora/data=!4m7!3m6!1s0x38e1a175c82fb973:0xedd5f0e61aaa9b12!8m2!3d34.1887317!4d74.532289!16s%2Fg%2F11pkcqwvd2!19sChIJc7kvyHWh4TgREpuqGubw1e0?authuser=0&hl=en&rclk=1,"34.1887317,74.53228899999999"
Masjid,Mosque,"Masjid, 242, Masjid Jheel Pio, Near ITO metro GateNo.3, Bahadur Shah Zafar Marg, Balmiki Basti, Vikram Nagar, Delhi, 110002","Bahadur Shah Zafar Marg, Balmiki Basti, Vikram Nagar","242, Masjid Jheel Pio, Near ITO metro GateNo.3, Bahadur Shah Zafar Marg",Delhi,110002,Delhi,IN,https://www.google.com/maps/place/Masjid/data=!4m7!3m6!1s0x390cfd441769149d:0xa1929f1b4f5921d6!8m2!3d28.6298914!4d77.2415098!16s%2Fg%2F11s2n38r9b!19sChIJnRRpF0T9DDkR1iFZTxufkqE?authuser=0&hl=en&rclk=1,"28.629891399999998,77.2415098"
Masjid Shareef wani mohalla satkoji,Mosque,"Masjid Shareef wani mohalla satkoji, Satkoji zachaldara, Wani Mohalla, Sat Kojan, Jammu and Kashmir 193221","Satkoji zachaldara, Wani Mohalla",,Sat Kojan,193221,Jammu and Kashmir,IN,https://www.google.com/maps/place/Masjid+Shareef+wani+mohalla+satkoji/data=!4m7!3m6!1s0x38e0e5d886d4322b:0x5c2a0e8eccedb8c9!8m2!3d34.4124368!4d74.1227201!16s%2Fg%2F11sm7q19wn!19sChIJKzLUhtjl4DgRybjtzI4OKlw?authuser=0&hl=en&rclk=1,"34.4124368,74.1227201"
Masjid Sharif Wani Mohalla Bongam Herman,Mosque,"PW5P+5M2 Masjid Sharif Wani Mohalla Bongam Herman, Herman, 192303",,PW5P+5M2,Herman,192303,,IN,https://www.google.com/maps/place/Masjid+Sharif+Wani+Mohalla+Bongam+Herman/data=!4m7!3m6!1s0x38e1f9f489af529d:0x63626695d95f3187!8m2!3d33.7078865!4d74.9366367!16s%2Fg%2F11qn50tf0k!19sChIJnVKvifT54TgRhzFf2ZVmYmM?authuser=0&hl=en&rclk=1,"33.7078865,74.9366367"
Masjid Hamzah,Mosque,"5GCF+RRF Masjid Hamzah, Wani Gam Pain, 193121",,5GCF+RRF,Wani Gam Pain,193121,,IN,https://www.google.com/maps/place/Masjid+Hamzah/data=!4m7!3m6!1s0x38e1a111c73ce725:0x419cfaa4450a9e65!8m2!3d34.1720632!4d74.5245545!16s%2Fg%2F11rlks8htp!19sChIJJec8xxGh4TgRZZ4KRaT6nEE?authuser=0&hl=en&rclk=1,"34.1720632,74.5245545"
Jamia Masjid Wani mohallah jm` msjd wny mHlh,Mosque,"GC69+WHF Jamia Masjid Wani mohallah jm` msjd wny mHlh, Darpora, 193223",,GC69+WHF,Darpora,193223,,IN,https://www.google.com/maps/place/Jamia+Masjid+Wani+mohallah+%D8%AC%D8%A7%D9%85%D8%B9+%D9%85%D8%B3%D8%AC%D8%AF+%D9%88%D8%A7%D9%86%DB%8C+%D9%85%D8%AD%D9%84%DB%81%E2%80%AD/data=!4m7!3m6!1s0x38e117467da28719:0xefabce6b08d12ab7!8m2!3d34.5123048!4d74.418937!16s%2Fg%2F11js4j7wnj!19sChIJGYeifUYX4TgRtyrRCGvOq-8?authuser=0&hl=en&rclk=1,"34.512304799999995,74.418937"
Markazi jamia masjid abhama,Mosque,"QPXW+CXC Markazi jamia masjid abhama, Bag Sanger Wani, 191112",,QPXW+CXC,Bag Sanger Wani,191112,,IN,https://www.google.com/maps/place/Markazi+jamia+masjid+abhama/data=!4m7!3m6!1s0x38e1ef85c15a090f:0xd05854b4cef056e9!8m2!3d33.7985514!4d74.7473935!16s%2Fg%2F11rkg3k5xl!19sChIJDwlawYXv4TgR6VbwzrRUWNA?authuser=0&hl=en&rclk=1,"33.7985514,74.7473935"
JAMIA MASJID TUMBORIPORA(HASHIM),Mosque,"P66J+9FF JAMIA MASJID TUMBORIPORA(HASHIM), Tail Wani, 192201",,P66J+9FF,Tail Wani,192201,,IN,https://www.google.com/maps/place/JAMIA+MASJID+TUMBORIPORA%28HASHIM%29/data=!4m7!3m6!1s0x38e20feb35152f81:0x673fa55b9140cd85!8m2!3d33.7109366!4d75.2311711!16s%2Fg%2F11nfnwh51w!19sChIJgS8VNesP4jgRhc1AkVulP2c?authuser=0&hl=en&rclk=1,"33.7109366,75.2311711"
Masjid Habib ibn Mazahir r.a,Mosque,"4R99+7XR Masjid Habib ibn Mazahir r.a, Wani mohalla, Baghwanpora, Srinagar, Jammu and Kashmir 190006",Baghwanpora,"4R99+7XR, Wani mohalla",Srinagar,190006,Jammu and Kashmir,IN,https://www.google.com/maps/place/Masjid+Habib+ibn+Mazahir+r.a/data=!4m7!3m6!1s0x38e1856b7d05e805:0xa4fb7ec1278de1c0!8m2!3d34.1182461!4d74.8198922!16s%2Fg%2F11hy6j773k!19sChIJBegFfWuF4TgRwOGNJ8F--6Q?authuser=0&hl=en&rclk=1,"34.1182461,74.8198922"
QADEEM JAMIA MASJID SHAREEF KREERI,Mosque,"5F9F+HFG QADEEM JAMIA MASJID SHAREEF KREERI, Wani Mohalla, Kreeri, 193198",Wani Mohalla,5F9F+HFG,Kreeri,193198,,IN,https://www.google.com/maps/place/QADEEM+JAMIA+MASJID+SHAREEF+KREERI/data=!4m7!3m6!1s0x38e1a760137a80a1:0x317fb2be8864d560!8m2!3d34.1689391!4d74.4737086!16s%2Fg%2F11mql_j1v1!19sChIJoYB6E2Cn4TgRYNVkiL6yfzE?authuser=0&hl=en&rclk=1,"34.168939099999996,74.4737086"
Masjid sharief,Mosque,"RQ9Q+XRW Masjid sharief, Kanigam, 191112",,RQ9Q+XRW,Kanigam,191112,,IN,https://www.google.com/maps/place/Masjid+sharief/data=!4m7!3m6!1s0x38e1f1235cca9bf1:0x1a20293538065b6d!8m2!3d33.8199922!4d74.7895823!16s%2Fg%2F11mtd73jg3!19sChIJ8ZvKXCPx4TgRbVsGODUpIBo?authuser=0&hl=en&rclk=1,"33.8199922,74.78958229999999"
Masjid e Riza (a.s),Mosque,"2R6W+M9Q Masjid e Riza (a.s), Unnamed Road, Chekpora, Kenihama, Srinagar, Jammu and Kashmir 190019","Chekpora, Kenihama","2R6W+M9Q, Unnamed Road",Srinagar,190019,Jammu and Kashmir,IN,https://www.google.com/maps/place/Masjid+e+Riza+%28a.s%29/data=!4m7!3m6!1s0x38e18fcc5543e889:0xcc5fa620e6925dd2!8m2!3d34.0117094!4d74.8459881!16s%2Fg%2F11rwhhql0d!19sChIJiehDVcyP4TgR0l2S5iCmX8w?authuser=0&hl=en&rclk=1,"34.0117094,74.8459881"
Masjid Saguwa Wali (Choti Masjid),Mosque,"Masjid Saguwa Wali (Choti Masjid), 1614, Old Dariya Ganj, Daryaganj, New Delhi, Delhi, 110002","Old Dariya Ganj, Daryaganj",1614,"New Delhi, Delhi",110002,Delhi,IN,https://www.google.com/maps/place/Masjid+Saguwa+Wali+%28Choti+Masjid%29/data=!4m7!3m6!1s0x390cfde70c37cfe3:0xcd9ebd43305f88c8!8m2!3d28.6470267!4d77.2382029!16s%2Fg%2F11f7qykm_q!19sChIJ4883DOf9DDkRyIhfMEO9ns0?authuser=0&hl=en&rclk=1,"28.647026699999998,77.23820289999999"
Munwara Masjid,Mosque,"Munwara Masjid, E-130, Gali No.6, Third Pusta Main Rd, Jagjeet Nagar, Delhi, 110053","Third Pushta, Nayagaon, Jagjeet Nagar, Shahdara","E-130, Gali No.6, Third Pusta Main Rd",Delhi,110053,Delhi,IN,https://www.google.com/maps/place/Munwara+Masjid/data=!4m7!3m6!1s0x390cfc44ec3cee7b:0x6817d8194e44c0a7!8m2!3d28.6861966!4d77.2559837!16s%2Fg%2F12hq6qdwg!19sChIJe-487ET8DDkRp8BEThnYF2g?authuser=0&hl=en&rclk=1,"28.6861966,77.2559837"
BagH WaLi MaSjiD,Mosque,"QH9H+V5W BagH WaLi MaSjiD, Kalchhina, Uttar Pradesh 245304",,QH9H+V5W,Kalchhina,245304,Uttar Pradesh,IN,https://www.google.com/maps/place/BagH+WaLi+MaSjiD/data=!4m7!3m6!1s0x390c8be15068e897:0x679cbbe473c5ac3b!8m2!3d28.7697305!4d77.5779407!16s%2Fg%2F11h22jk0dw!19sChIJl-hoUOGLDDkRO6zFc-S7nGc?authuser=0&hl=en&rclk=1,"28.769730499999998,77.5779407"
Masjid Khomeini Wani Mohalla Balhama,Mosque,"2WJR+W56 Masjid Khomeini Wani Mohalla Balhama, Balhama, 191101",,2WJR+W56,Balhama,191101,,IN,https://www.google.com/maps/place/Masjid+Khomeini+Wani+Mohalla+Balhama/data=!4m7!3m6!1s0x38e189db890e04b1:0x3ea21fcf4585f056!8m2!3d34.0322943!4d74.9403844!16s%2Fg%2F11rc40skj9!19sChIJsQQOiduJ4TgRVvCFRc8foj4?authuser=0&hl=en&rclk=1,"34.0322943,74.9403844"
Masjid shareef,Mosque,"FC34+Q97 Masjid shareef, Wani Doursa , sogam lolab, 193223",,"FC34+Q97, Wani Doursa , sogam lolab",Kuhigam,193223,,IN,https://www.google.com/maps/place/Masjid+shareef/data=!4m7!3m6!1s0x38e1115149e81a17:0x4e337e3eaad7d761!8m2!3d34.4544067!4d74.4059218!16s%2Fg%2F11nl5_rwm3!19sChIJFxroSVER4TgRYdfXqj5-M04?authuser=0&hl=en&rclk=1,"34.4544067,74.4059218"
Hanfiah masjid shareef Galwanpora,Mosque,"JVH5+438 Hanfiah masjid shareef Galwanpora, Mir Wani, Autoo, 192233",,JVH5+438,"Mir Wani, Autoo",192233,,IN,https://www.google.com/maps/place/Hanfiah+masjid+shareef+Galwanpora/data=!4m7!3m6!1s0x38e1fd6765c05d69:0xde9e311bd90cb66a!8m2!3d33.6277931!4d74.8576896!16s%2Fg%2F11p0bb3y4p!19sChIJaV3AZWf94TgRarYM2Rsxnt4?authuser=0&hl=en&rclk=1,"33.6277931,74.8576896"
JAMIA MASJID SHARIEF FURKANABAD,Mosque,"7X8X+42V JAMIA MASJID SHARIEF FURKANABAD, Budhan, 182144",,7X8X+42V,Budhan,,,IN,https://www.google.com/maps/place/JAMIA+MASJID+SHARIEF+FURKANABAD/data=!4m7!3m6!1s0x391de10ec2211b41:0x5c39d05b79bb8efd!8m2!3d33.2653748!4d74.9975425!16s%2Fg%2F11rbygh1bk!19sChIJQRshwg7hHTkR_Y67eVvQOVw?authuser=0&hl=en&rclk=1,"33.2653748,74.9975425"
SYED RAHBAB SAHAB JAMIA MASJID SHAREEF WANIHAMA BALA,Mosque,"5RJX+9G5 SYED RAHBAB SAHAB JAMIA MASJID SHAREEF WANIHAMA BALA, Wani Hama Bala, Ganderbal, 191202",Wani Hama Bala,5RJX+9G5,Ganderbal,,,IN,https://www.google.com/maps/place/SYED+RAHBAB+SAHAB+JAMIA+MASJID+SHAREEF+WANIHAMA+BALA/data=!4m7!3m6!1s0x38e183cfcf55d4c3:0x3956af6bb79ec0db!8m2!3d34.1808827!4d74.8488713!16s%2Fg%2F11nwb8l0r7!19sChIJw9RVz8-D4TgR28Cet2uvVjk?authuser=0&hl=en&rclk=1,"34.1808827,74.8488713"
Jamia Masjid Sharief Kutabal,Mosque,"VMCM+75J Jamia Masjid Sharief Kutabal, Chadoora, 191113",,VMCM+75J,Chadoora,191113,,IN,https://www.google.com/maps/place/%F0%9D%91%B1%F0%9D%92%82%F0%9D%92%8E%F0%9D%92%8A%F0%9D%92%82+%F0%9D%91%B4%F0%9D%92%82%F0%9D%92%94%F0%9D%92%8B%F0%9D%92%8A%F0%9D%92%85+%F0%9D%91%BA%F0%9D%92%89%F0%9D%92%82%F0%9D%92%93%F0%9D%92%8A%F0%9D%92%86%F0%9D%92%87+%F0%9D%91%B2%F0%9D%92%96%F0%9D%92%95%F0%9D%92%82%F0%9D%92%83%F0%9D%92%82%F0%9D%92%8D/data=!4m7!3m6!1s0x38e1eb3992d294c5:0x54a10d4ffd690f2b!8m2!3d33.8707109!4d74.6828951!16s%2Fg%2F11pd1j9rjb!19sChIJxZTSkjnr4TgRKw9p_U8NoVQ?authuser=0&hl=en&rclk=1,"33.8707109,74.6828951"
Masjid shareef,Mosque,"VMQX+4GH Masjid shareef, Sursyar, 191113",,VMQX+4GH,Sursyar,191113,,IN,https://www.google.com/maps/place/Masjid+shareef/data=!4m7!3m6!1s0x38e1edd92d45b6eb:0x735a74aa91b267cd!8m2!3d33.887807!4d74.6988639!16s%2Fg%2F11np5sxdb9!19sChIJ67ZFLdnt4TgRzWeykap0WnM?authuser=0&hl=en&rclk=1,"33.887806999999995,74.69886389999999"
Hanfia Jamia Masjid Ibrahim wangwass,Mosque,"VM8W+FMG Hanfia Jamia Masjid Ibrahim wangwass, Road, Wangwas, Shereen Pora, 191112",,"VM8W+FMG, Road","Wangwas, Shereen Pora",191112,,IN,https://www.google.com/maps/place/Hanfia+Jamia+Masjid+Ibrahim+wangwass/data=!4m7!3m6!1s0x38e1eda7be498cbb:0xf663deaa2ad6cd84!8m2!3d33.866193!4d74.696693!16s%2Fg%2F11q7_5qf9g!19sChIJu4xJvqft4TgRhM3WKqreY_Y?authuser=0&hl=en&rclk=1,"33.866192999999996,74.696693"
Markazi Jamia Masjid Sharief Awhatoo,Mosque,"Markazi Jamia Masjid Sharief Awhatoo, Awhatoo, Audora, Jammu and Kashmir 192231",,,"Awhatoo, Audora",192231,Jammu and Kashmir,IN,https://www.google.com/maps/place/Markazi+Jamia+Masjid+Sharief+Awhatoo/data=!4m7!3m6!1s0x38e1f97a8c56ff11:0xb043377113980f98!8m2!3d33.6777729!4d74.9507374!16s%2Fg%2F11ny1ml_4_!19sChIJEf9WjHr54TgRmA-YE3E3Q7A?authuser=0&hl=en&rclk=1,"33.6777729,74.9507374"
Imam Zaman (A.s) Masjid Gojra,Mosque,"XMMP+6PC Imam Zaman (A.s) Masjid Gojra, Gojra, 191111",,XMMP+6PC,Gojra,191111,,IN,https://www.google.com/maps/place/Imam+Zam%C4%81n+%28A.s%29+Masjid+Gojra/data=!4m7!3m6!1s0x38e195833dc14b0f:0xc63ed22aadf7332b!8m2!3d33.9830704!4d74.6867554!16s%2Fg%2F11q1q1666m!19sChIJD0vBPYOV4TgRKzP3rSrSPsY?authuser=0&hl=en&rclk=1,"33.983070399999995,74.6867554"
MASJID E MUHHAMADI GANIEPORA,Mosque,"MASJID E MUHHAMADI GANIEPORA, 192125",,,,192125,,IN,https://www.google.com/maps/place/MASJID+E+MUHHAMADI+GANIEPORA/data=!4m7!3m6!1s0x38e2111bca90d2b9:0xc9e46b86be44f843!8m2!3d33.8252454!4d75.2454364!16s%2Fg%2F11s7dj_r1q!19sChIJudKQyhsR4jgRQ_hEvoZr5Mk?authuser=0&hl=en&rclk=1,"33.8252454,75.2454364"
Masjid Shareef,Mosque,"6R29+P24 Masjid Shareef, Khal Mulla, Ganderbal, 191201",Khal Mulla,6R29+P24,Ganderbal,,,IN,https://www.google.com/maps/place/Masjid+Shareef/data=!4m7!3m6!1s0x38e183c1d6bed1a7:0x2fa1ef38c4e8b00b!8m2!3d34.2017597!4d74.8175775!16s%2Fg%2F11spmqk000!19sChIJp9G-1sGD4TgRC7DoxDjvoS8?authuser=0&hl=en&rclk=1,"34.2017597,74.8175775"
jm` msjd mty pwrh,Mosque,"8MPF+X8C jm` msjd mty pwrh, Ajas, 193502",,8MPF+X8C,Ajas,193502,,IN,https://www.google.com/maps/place/%D8%AC%D8%A7%D9%85%D8%B9+%D9%85%D8%B3%D8%AC%D8%AF+%D9%85%D8%AA%DB%8C+%D9%BE%D9%88%D8%B1%DB%81%E2%80%AD/data=!4m7!3m6!1s0x38e173d547c3b0c7:0xef6e1cad1ee06444!8m2!3d34.3374345!4d74.6732683!16s%2Fg%2F11sq51dc2l!19sChIJx7DDR9Vz4TgRRGTgHq0cbu8?authuser=0&hl=en&rclk=1,"34.3374345,74.6732683"
JAMIA MASJID LISSER PORA,Mosque,"JV79+332 JAMIA MASJID LISSER PORA, Halan, Jammu and Kashmir 192233",,JV79+332,Halan,192233,Jammu and Kashmir,IN,https://www.google.com/maps/place/JAMIA+MASJID+LISSER+PORA/data=!4m7!3m6!1s0x38e1fd51000850ad:0x754fcbf61851ee8f!8m2!3d33.6126488!4d74.8676265!16s%2Fg%2F11sd0tsctw!19sChIJrVAIAFH94TgRj-5RGPbLT3U?authuser=0&hl=en&rclk=1,"33.612648799999995,74.8676265"
Hanfiya masjid shareef Hanjik,Mosque,"3PJM+CCV Hanfiya masjid shareef Hanjik, Unnamed Road, Hanjik, 193401",,"3PJM+CCV, Unnamed Road",Hanjik,193401,,IN,https://www.google.com/maps/place/Hanfiya+masjid+shareef+Hanjik/data=!4m7!3m6!1s0x38e19ba1341305d9:0x729654be339b57e1!8m2!3d34.0811056!4d74.7335516!16s%2Fg%2F11rs9m8t5f!19sChIJ2QUTNKGb4TgR4VebM75UlnI?authuser=0&hl=en&rclk=1,"34.0811056,74.7335516"
Masjid Bagheechey Wali,Mosque,"Masjid Bagheechey Wali, 5200, Kucha Rehman Gali, New Krishna Cloth Market, Katra Rathi, Chandni Chowk, New Delhi, Delhi, 110006","New Krishna Cloth Market, Katra Rathi, Chandni Chowk","5200, Kucha Rehman Gali","New Delhi, Delhi",110006,Delhi,IN,https://www.google.com/maps/place/Masjid+Bagheechey+Wali/data=!4m7!3m6!1s0x390cfd369091dc93:0x980e7cf6a2accc8a!8m2!3d28.6548146!4d77.2267999!16s%2Fg%2F11jgxc_zvm!19sChIJk9yRkDb9DDkRisysovZ8Dpg?authuser=0&hl=en&rclk=1,"28.654814599999998,77.2267999"
Masjid achchan miyan- Burji waali,Mosque,"M629+5FP Masjid achchan miyan- Burji waali, Ajmeri Gate, New Delhi, Delhi, 110006",Ajmeri Gate,M629+5FP,"New Delhi, Delhi",110006,Delhi,IN,https://www.google.com/maps/place/Masjid+achchan+miyan-+Burji+waali/data=!4m7!3m6!1s0x390cfda2ebdc945d:0x79ad79e1a8d1b8fd!8m2!3d28.6504745!4d77.2186933!16s%2Fg%2F11qykky64l!19sChIJXZTc66L9DDkR_bjRqOF5rXk?authuser=0&hl=en&rclk=1,"28.650474499999998,77.2186933"
"Madina Masjid, PeerBiyaVani",Mosque,"Madina Masjid, PeerBiyaVani, Bus Stop, Peerbiabani, Peerbiyabani, Uttar Pradesh 203205",,"Bus Stop, Peerbiabani",Peerbiyabani,203205,Uttar Pradesh,IN,"https://www.google.com/maps/place/Madina+Masjid,+PeerBiyaVani/data=!4m7!3m6!1s0x390c97dae61611b1:0x40f6b2a9ffebb36!8m2!3d28.498164!4d77.7115639!16s%2Fg%2F11rcqhg9tz!19sChIJsREW5tqXDDkRNrv-nyprDwQ?authuser=0&hl=en&rclk=1","28.498164,77.7115639"
JAMIA MASJID WANI MOHALLA BULGAM,Place of worship,"6FHM+MV4 JAMIA MASJID WANI MOHALLA BULGAM, Seer Jagir, 193202",,6FHM+MV4,Seer Jagir,193202,,IN,https://www.google.com/maps/place/JAMIA+MASJID+WANI+MOHALLA+BULGAM/data=!4m7!3m6!1s0x38e1094a516ef043:0x379d931e73555b9f!8m2!3d34.2291422!4d74.4846902!16s%2Fg%2F11rmxfbg6t!19sChIJQ_BuUUoJ4TgRn1tVcx6TnTc?authuser=0&hl=en&rclk=1,"34.2291422,74.4846902"
"Jamia Masjid Wani, Tollinton Market, Lahore",Mosque,"G8VC+83V Jamia Masjid Wani, Tollinton Market, Lahore, Shadman 1 Shadman, Lahore, Punjab 54000, Pakistan",Shadman 1 Shadman,G8VC+83V,Lahore,54000,"Lahore, Punjab",PK,"https://www.google.com/maps/place/Jamia+Masjid+Wani,+Tollinton+Market,+Lahore/data=!4m7!3m6!1s0x3919052956dae83f:0xc10940adbf15455d!8m2!3d31.5433644!4d74.3201752!16s%2Fg%2F11fn040cmz!19sChIJP-jaVikFGTkRXUUVv61ACcE?authuser=0&hl=en&rclk=1","31.543364399999998,74.3201752"
Masjid Pagipora,Mosque,"5G8F+F59 Masjid Pagipora, Wani Gam Pain, 193121",,5G8F+F59,Wani Gam Pain,193121,,IN,https://www.google.com/maps/place/Masjid+Pagipora/data=!4m7!3m6!1s0x38e1a1b7ab3ff5d3:0xe45401303562381!8m2!3d34.1661614!4d74.5229841!16s%2Fg%2F11q97jt6js!19sChIJ0_U_q7eh4TgRgSNWAxNARQ4?authuser=0&hl=en&rclk=1,"34.1661614,74.5229841"
Hanafiya masjid Shareef Laway mohalla Galwanpora,Mosque,"JVJ7+57W Hanafiya masjid Shareef Laway mohalla Galwanpora, Mir Wani, Jammu and Kashmir 192233",,JVJ7+57W,Mir Wani,192233,Jammu and Kashmir,IN,https://www.google.com/maps/place/Hanafiya+masjid+Shareef+Laway+mohalla+Galwanpora/data=!4m7!3m6!1s0x38e1fdec0b98cce7:0x56119fa37c63501b!8m2!3d33.630478!4d74.8631986!16s%2Fg%2F11txhqm0tl!19sChIJ58yYC-z94TgRG1BjfKOfEVY?authuser=0&hl=en&rclk=1,"33.630478,74.86319859999999"
Wanihama Masjid Abu Bakar R.A.,Mosque,"5VC3+8H3 Wanihama Masjid Abu Bakar R.A., Wanihama Batapora Rd, Wanihama, Rainawari, Srinagar, 191202","Wanihama, Rainawari","5VC3+8H3, Wanihama Batapora Rd",Srinagar,,,IN,https://www.google.com/maps/place/Wanihama+Masjid+Abu+Bakar+R.A./data=!4m7!3m6!1s0x38e185e88f493781:0x6002d4a70fc664f6!8m2!3d34.1707627!4d74.8539143!16s%2Fg%2F11ryq4_225!19sChIJgTdJj-iF4TgR9mTGD6fUAmA?authuser=0&hl=en&rclk=1,"34.1707627,74.8539143"
Jamia Masjid,Mosque,"QQJ4+VMP Jamia Masjid, Wani Mohalla, Kellar, Jammu and Kashmir 191112",Wani Mohalla,QQJ4+VMP,Kellar,,Jammu and Kashmir,IN,https://www.google.com/maps/place/Jamia+Masjid/data=!4m7!3m6!1s0x38e1efae4e2206f5:0x4821048c7a094692!8m2!3d33.7822114!4d74.7567085!16s%2Fg%2F11jrcq2zfk!19sChIJ9QYiTq7v4TgRkkYJeowEIUg?authuser=0&hl=en&rclk=1,"33.7822114,74.7567085"
Masjid Sharif,Mosque,"J656+CXV Masjid Sharif, Wai, 192211",,J656+CXV,Wai,192211,,IN,https://www.google.com/maps/place/Masjid+Sharif/data=!4m7!3m6!1s0x391df7f88d0196b3:0x4d33d7dbf34b6bfd!8m2!3d33.6086096!4d75.2124302!16s%2Fg%2F11rstnvdrq!19sChIJs5YBjfj3HTkR_WtL89vXM00?authuser=0&hl=en&rclk=1,"33.6086096,75.2124302"
MASJID-E- UMAR RZ,Mosque,"WVGQ+VPG MASJID-E- UMAR RZ, MALIK COLONY, Newa Pulwama",,"WVGQ+VPG, MALIK COLONY",Newa Pulwama,,,IN,https://www.google.com/maps/place/MASJID-E-+UMAR+RZ/data=!4m7!3m6!1s0x38e18b63acc3f497:0x72a798e80e83027d!8m2!3d33.9271886!4d74.8893169!16s%2Fg%2F11jsl7clzn!19sChIJl_TDrGOL4TgRfQKDDuiYp3I?authuser=0&hl=en&rclk=1,"33.9271886,74.8893169"
Masjid Qadeem Newah msjd qdym nywh,Mosque,"WV7M+MP4 Masjid Qadeem Newah msjd qdym nywh, Newa Pulwama, Giru, 191113",,WV7M+MP4,"Newa Pulwama, Giru",191113,,IN,https://www.google.com/maps/place/Masjid+Qadeem+Newah+%D9%85%D8%B3%D8%AC%D8%AF+%D9%82%D8%AF%DB%8C%D9%85+%D9%86%DB%8C%D9%88%DB%81%E2%80%AD/data=!4m7!3m6!1s0x38e1f591c9f5790f:0x1bac96f1df7974a4!8m2!3d33.9141448!4d74.8843165!16s%2Fg%2F11r1wdpzmr!19sChIJD3n1yZH14TgRpHR53_GWrBs?authuser=0&hl=en&rclk=1,"33.914144799999995,74.8843165"
Masjid Shareef Wani Mohalla,Mosque,"JCWQ+838 Masjid Shareef Wani Mohalla, Dudi, 193222",,JCWQ+838,Dudi,193222,,IN,https://www.google.com/maps/place/Masjid+Shareef+Wani+Mohalla/data=!4m7!3m6!1s0x38e13d7a56ba19d7:0xf55228e56cfad845!8m2!3d34.6457924!4d74.4377101!16s%2Fg%2F11s462hcrw!19sChIJ1xm6Vno94TgRRdj6bOUoUvU?authuser=0&hl=en&rclk=1,"34.6457924,74.43771009999999"
Masjid Awana,Mosque,"QQ2P+9V2 Masjid Awana, Awana, Gujrat, Punjab, Pakistan",,QQ2P+9V2,Awana,,"Gujrat, Punjab",PK,https://www.google.com/maps/place/Masjid+Awana/data=!4m7!3m6!1s0x391f9e37c6e73197:0x3755f59a41256e92!8m2!3d32.7508801!4d73.7871435!16s%2Fg%2F1tfq311l!19sChIJlzHnxjeeHzkRkm4lQZr1VTc?authuser=0&hl=en&rclk=1,"32.750880099999996,73.7871435"
JAMIA MASJID SHARIEF TUMLAHAL,Mosque,"JAMIA MASJID SHARIEF TUMLAHAL, WANI MOHALLA ROAD, Tumlahal, 192301, 192301",,"WANI MOHALLA ROAD, Tumlahal, 192301",Tumlahal,192301,,IN,https://www.google.com/maps/place/JAMIA+MASJID+SHARIEF+TUMLAHAL/data=!4m7!3m6!1s0x38e1f783ba686111:0x639d4b48af4434ad!8m2!3d33.822085!4d74.9379383!16s%2Fg%2F11qsbjzrzz!19sChIJEWFouoP34TgRrTREr0hLnWM?authuser=0&hl=en&rclk=1,"33.822085,74.9379383"
Masjid Ahlihadees check kanganhall,Mosque,"Masjid Ahlihadees check kanganhall, 192201",,,,192201,,IN,https://www.google.com/maps/place/Masjid+Ahlihadees+check+kanganhall/data=!4m7!3m6!1s0x38e20948657a2f4d:0x1882a6a9032de85d!8m2!3d33.7018836!4d75.2229163!16s%2Fg%2F11p6100vrq!19sChIJTS96ZUgJ4jgRXegtA6mmghg?authuser=0&hl=en&rclk=1,"33.701883599999995,75.2229163"
Masjid sharif Premnager,Mosque,"5M6P+42R Masjid sharif Premnager, Forest Block, 182201",,5M6P+42R,Forest Block,182201,,IN,https://www.google.com/maps/place/Masjid+sharif+Premnager/data=!4m7!3m6!1s0x391da7ba07c99c03:0x9f5f98c781b9321!8m2!3d33.1603629!4d75.6850277!16s%2Fg%2F11n32_sv3j!19sChIJA5zJB7qnHTkRIZMbeIz59Qk?authuser=0&hl=en&rclk=1,"33.160362899999996,75.68502769999999"
Masjid Abu Bakr Siddiq msjd bwbkhr Sdyq,Mosque,"J4Q8+2M4 Masjid Abu Bakr Siddiq msjd bwbkhr Sdyq, Jammu and Kashmir 192221",,J4Q8+2M4,,,Jammu and Kashmir,IN,https://www.google.com/maps/place/Masjid+Abu+Bakr+Siddiq+%D9%85%D8%B3%D8%AC%D8%AF+%D8%A7%D8%A8%D9%88%D8%A8%DA%A9%D8%B1+%D8%B5%D8%AF%DB%8C%D9%82%E2%80%AD/data=!4m7!3m6!1s0x38e2076527227127:0xf56c628e9b8d8e27!8m2!3d33.6375121!4d75.1167062!16s%2Fg%2F11st_bwqw8!19sChIJJ3EiJ2UH4jgRJ46Nm45ibPU?authuser=0&hl=en&rclk=1,"33.637512099999995,75.1167062"
Masjid Ahlihadees palpora,Mosque,"Masjid Ahlihadees palpora, Palpora, Gassi Pora, Jammu and Kashmir 192211",,Palpora,Gassi Pora,192211,Jammu and Kashmir,IN,https://www.google.com/maps/place/Masjid+Ahlihadees+palpora/data=!4m7!3m6!1s0x38e20962eb858e7b:0xbc3e2dd8cdc611fa!8m2!3d33.6631866!4d75.1856626!16s%2Fg%2F11t5b6_9nv!19sChIJe46F62IJ4jgR-hHGzdgtPrw?authuser=0&hl=en&rclk=1,"33.663186599999996,75.1856626"
Masjid Bodsawala Wali,Mosque,"Masjid Bodsawala Wali, 2370,Chatta Shahji,Chawri Bazar, Dharam Pura Rd, Nai Wala, Chandni Chowk, New Delhi, Delhi 110006","Nai Wala, Chandni Chowk","2370,Chatta Shahji,Chawri Bazar, Dharam Pura Rd","New Delhi, Delhi",110006,Delhi,IN,https://www.google.com/maps/place/Masjid+Bodsawala+Wali/data=!4m7!3m6!1s0x390cfd19b6b59b81:0x1d0c8dba8ab5b549!8m2!3d28.6509214!4d77.2308029!16s%2Fg%2F1ptx9cfbw!19sChIJgZu1thn9DDkRSbW1irqNDB0?authuser=0&hl=en&rclk=1,"28.650921399999998,77.2308029"
Jamia Masjid Wani Pura Malwana,Mosque,"6J8Q+HM7 Jamia Masjid Wani Pura Malwana, Malwana Jagir, Bhal Wana, 182202",,6J8Q+HM7,"Malwana Jagir, Bhal Wana",182202,,IN,https://www.google.com/maps/place/Jamia+Masjid+Wani+Pura+Malwana/data=!4m7!3m6!1s0x391da73fcd9a23fd:0x36e9824f47f9ce63!8m2!3d33.216407!4d75.6391757!16s%2Fg%2F11p0h54ppd!19sChIJ_SOazT-nHTkRY875R0-C6TY?authuser=0&hl=en&rclk=1,"33.216407,75.6391757"
Masjid Shareef wani mohalla,Mosque,"FRVR+7P5 Masjid Shareef wani mohalla, Janak Pur, 182204",,FRVR+7P5,Janak Pur,182204,,IN,https://www.google.com/maps/place/Masjid+Shareef+wani+mohalla/data=!4m7!3m6!1s0x391d7134a1ffbbb9:0x83dcb4c0fb5f5813!8m2!3d33.4931297!4d75.8418617!16s%2Fg%2F11py_511j6!19sChIJubv_oTRxHTkRE1hf-8C03IM?authuser=0&hl=en&rclk=1,"33.4931297,75.8418617"
HANFiA MASJID NABIR WANI MOHALLA,Mosque,"5J4C+XX5 HANFiA MASJID NABIR WANI MOHALLA, Khanpeth, Singhpora, Jammu and Kashmir 193121",,5J4C+XX5,"Khanpeth, Singhpora",,Jammu and Kashmir,IN,https://www.google.com/maps/place/HANFiA+MASJID+NABIR+WANI+MOHALLA/data=!4m7!3m6!1s0x38e19f21295a388f:0xf113676a2225a485!8m2!3d34.1573984!4d74.6224884!16s%2Fg%2F11krr95l18!19sChIJjzhaKSGf4TgRhaQlImpnE_E?authuser=0&hl=en&rclk=1,"34.1573984,74.6224884"
Masjid Shareef Kulvini pora,Mosque,"P64M+G9V Masjid Shareef Kulvini pora, Tail Wani, Jammu and Kashmir 192201",,P64M+G9V,Tail Wani,,Jammu and Kashmir,IN,https://www.google.com/maps/place/Masjid+Shareef+Kulvini+pora/data=!4m7!3m6!1s0x38e20f359f12af8d:0x6e9b398022c653ee!8m2!3d33.7063655!4d75.2334201!16s%2Fg%2F11ss2n20gg!19sChIJja8SnzUP4jgR7lPGIoA5m24?authuser=0&hl=en&rclk=1,"33.7063655,75.2334201"
Ashraf Wani house,Mosque,"Ashraf Wani house, Bassa Ganika, Doda, Sohanda, Jammu and Kashmir 182147",,Bassa Ganika,"Doda, Sohanda",182147,Jammu and Kashmir,IN,https://www.google.com/maps/place/Ashraf+Wani+house/data=!4m7!3m6!1s0x391dbbc49b667257:0x71fdc408a32ed9f9!8m2!3d33.1664382!4d75.4714211!16s%2Fg%2F11rvjq5vgy!19sChIJV3Jmm8S7HTkR-dkuowjE_XE?authuser=0&hl=en&rclk=1,"33.1664382,75.4714211"
Masjid shareef chowtal,Mosque,"QPX5+9VJ Masjid shareef chowtal, Bag Sanger Wani, Forest Block, 191112",,QPX5+9VJ,"Bag Sanger Wani, Forest Block",191112,,IN,https://www.google.com/maps/place/Masjid+shareef+chowtal/data=!4m7!3m6!1s0x38e1efd5cb5a8e83:0xba3b9527ceda2b71!8m2!3d33.7984674!4d74.709648!16s%2Fg%2F11rm7s2l7z!19sChIJg45ay9Xv4TgRcSvazieVO7o?authuser=0&hl=en&rclk=1,"33.7984674,74.709648"
Masjid Shareef Wapora,Mosque,"WRX8+8F9 Masjid Shareef Wapora, Wani Pora, 191113",,WRX8+8F9,Wani Pora,,,IN,https://www.google.com/maps/place/Masjid+Shareef+Wapora/data=!4m7!3m6!1s0x38e18d11d47ecd4d:0x187caeae4e158348!8m2!3d33.9482919!4d74.8162331!16s%2Fg%2F11pb7hbj7w!19sChIJTc1-1BGN4TgRSIMVTq6ufBg?authuser=0&hl=en&rclk=1,"33.9482919,74.81623309999999"
Masjid kanzul iman Wani Morh Mahore,Mosque,"8V65+JQ5 Masjid kanzul iman Wani Morh Mahore, Mahore, Shajroo, 182313",Mahore,8V65+JQ5,Shajroo,182313,,IN,https://www.google.com/maps/place/Masjid+kanzul+iman+Wani+Morh+Mahore/data=!4m7!3m6!1s0x391e0fd6cfedd2b1:0x1f9a16eb5e46d425!8m2!3d33.3115015!4d74.8594867!16s%2Fg%2F11rd2rlxl0!19sChIJsdLtz9YPHjkRJdRGXusWmh8?authuser=0&hl=en&rclk=1,"33.3115015,74.85948669999999"
Hanafiya Masjid shareef Galwanpora,Mosque,"Hanafiya Masjid shareef Galwanpora, Hakeem hometown galwanpora, Mir Wani, Jammu and Kashmir 192233",,Hakeem hometown galwanpora,Mir Wani,192233,Jammu and Kashmir,IN,https://www.google.com/maps/place/Hanafiya+Masjid+shareef+Galwanpora/data=!4m7!3m6!1s0x38e1fdb7ed0d2e75:0x88c4833dd0505cd5!8m2!3d33.6292731!4d74.8719135!16s%2Fg%2F11k3yyxbpg!19sChIJdS4N7bf94TgR1VxQ0D2DxIg?authuser=0&hl=en&rclk=1,"33.6292731,74.87191349999999"
Jamia Masjid Wooder Pora Abhama,Mosque,"QPXV+3F9 Jamia Masjid Wooder Pora Abhama, Bag Sanger Wani, 191112",,QPXV+3F9,Bag Sanger Wani,191112,,IN,https://www.google.com/maps/place/Jamia+Masjid+Wooder+Pora+Abhama/data=!4m7!3m6!1s0x38e1efa47c5157ef:0xe777df606eb06cfa!8m2!3d33.7976679!4d74.7437429!16s%2Fg%2F11sh05fvg2!19sChIJ71dRfKTv4TgR-mywbmDfd-c?authuser=0&hl=en&rclk=1,"33.7976679,74.7437429"
Jamia masjid tangwani,Mosque,"Jamia masjid tangwani, Tangwani javid lone shop, Guri Draman, Rain Ather, Jammu and Kashmir 192202",,Tangwani javid lone shop,"Guri Draman, Rain Ather",192202,Jammu and Kashmir,IN,https://www.google.com/maps/place/Jamia+masjid+tangwani/data=!4m7!3m6!1s0x38e2756d2636bde7:0x2a7d6247e73188b5!8m2!3d33.6483125!4d75.3823125!16s%2Fg%2F11lsc4c21r!19sChIJ5702Jm114jgRtYgx50difSo?authuser=0&hl=en&rclk=1,"33.648312499999996,75.3823125"
Masjid char yaar,Mosque,"RP29+827 Masjid char yaar, Bag Sanger Wani, Forest Block, 191112",,RP29+827,"Bag Sanger Wani, Forest Block",191112,,IN,https://www.google.com/maps/place/Masjid+char+yaar/data=!4m7!3m6!1s0x38e1ef2c48c1351b:0xb40b1398c1930a0!8m2!3d33.8007939!4d74.7175328!16s%2Fg%2F11rkg8d4r_!19sChIJGzXBSCzv4TgRoDAZjDmxQAs?authuser=0&hl=en&rclk=1,"33.800793899999995,74.7175328"
Masjid Satrimaidan Haji Mohallah,Mosque,"P6GC+VJ3 Masjid Satrimaidan Haji Mohallah, Khirman Tali Wani, 192125",,P6GC+VJ3,Khirman Tali Wani,192125,,IN,https://www.google.com/maps/place/Masjid+Satrimaidan+Haji+Mohallah/data=!4m7!3m6!1s0x38e20fd62186b819:0x1ff7f92dfe92fa23!8m2!3d33.7271438!4d75.2215561!16s%2Fg%2F11q8s35n32!19sChIJGbiGIdYP4jgRI_qS_i359x8?authuser=0&hl=en&rclk=1,"33.7271438,75.2215561"
Masjid Abu Bakr(R.A),Mosque,"JVHH+9RQ Masjid Abu Bakr(R.A), Chogalpora, Jammu and Kashmir 192233",,JVHH+9RQ,Chogalpora,192233,Jammu and Kashmir,IN,https://www.google.com/maps/place/Masjid+Abu+Bakr%28R.A%29/data=!4m7!3m6!1s0x38e1ffb9ad803bfb:0xf42c07356bad2df2!8m2!3d33.6284692!4d74.879613!16s%2Fg%2F11khd_qgth!19sChIJ-zuArbn_4TgR8i2tazUHLPQ?authuser=0&hl=en&rclk=1,"33.6284692,74.87961299999999"
Masjid shareef wani mohalla jurniyal,Mosque,"Masjid shareef wani mohalla jurniyal, Wani mohalla, Jurniyal, Forest Block, Jammu and Kashmir 193503",,Wani mohalla,"Jurniyal, Forest Block",193503,Jammu and Kashmir,IN,https://www.google.com/maps/place/Masjid+shareef+wani+mohalla+jurniyal/data=!4m7!3m6!1s0x38e3df4ca8e5c693:0xe8ffee978fd74f16!8m2!3d34.5761324!4d75.0116243!16s%2Fg%2F11k53wpql8!19sChIJk8blqEzf4zgRFk_Xj5fu_-g?authuser=0&hl=en&rclk=1,"34.5761324,75.0116243"
Masjid Shareef Chogalpora,Mosque,"JVGH+V54 Masjid Shareef Chogalpora, Chogalpora, 192233",,JVGH+V54,Chogalpora,192233,,IN,https://www.google.com/maps/place/Masjid+Shareef+Chogalpora/data=!4m7!3m6!1s0x38e1ffd50fa6f4f1:0x278fcb25c2ecf620!8m2!3d33.6271901!4d74.8781227!16s%2Fg%2F11s7vmx8gp!19sChIJ8fSmD9X_4TgRIPbswiXLjyc?authuser=0&hl=en&rclk=1,"33.6271901,74.87812269999999"
Jamia Masjid Sharief,Mosque,"Jamia Masjid Sharief, Wani Mohalla, Udder Khud Lassipora, Shekhawari Pora, Jammu and Kashmir 191111",Wani Mohalla,,"Udder Khud Lassipora, Shekhawari Pora",191111,Jammu and Kashmir,IN,https://www.google.com/maps/place/Jamia+Masjid+Sharief/data=!4m7!3m6!1s0x38e195ac4e4a8a11:0x5783f4de24cf50ad!8m2!3d33.9569622!4d74.6489256!16s%2Fg%2F11rsbq7wks!19sChIJEYpKTqyV4TgRrVDPJN70g1c?authuser=0&hl=en&rclk=1,"33.9569622,74.6489256"
Herpora masjid,Mosque,"JVHH+6CC Herpora masjid, Chogalpora, 192233",,JVHH+6CC,Chogalpora,,,IN,https://www.google.com/maps/place/Herpora+masjid/data=!4m7!3m6!1s0x38e1ff47fafb735f:0xb74d9207efe2032!8m2!3d33.6280543!4d74.87853!16s%2Fg%2F11rp5yc993!19sChIJX3P7-kf_4TgRMiD-fiDZdAs?authuser=0&hl=en&rclk=1,"33.628054299999995,74.87853"
Masjid Abu Bakkar Wani Mohalla Darpora Lolab,Mosque,"GC69+XCR Masjid Abu Bakkar Wani Mohalla Darpora Lolab, Darpora, Jammu and Kashmir 193223",,GC69+XCR,Darpora,193223,Jammu and Kashmir,IN,https://www.google.com/maps/place/Masjid+Abu+Bakkar+Wani+Mohalla+Darpora+Lolab/data=!4m7!3m6!1s0x38e1177008417527:0xc6d7257d201866!8m2!3d34.512389!4d74.418753!16s%2Fg%2F11tt43wgbf!19sChIJJ3VBCHAX4TgRZhggfSXXxgA?authuser=0&hl=en&rclk=1,"34.512389,74.418753"
Masjid Shareef Otingru,Mosque,"87J2+47R Masjid Shareef Otingru, Otingru, Jammu and Kashmir 193303",,87J2+47R,Otingru,193303,Jammu and Kashmir,IN,https://www.google.com/maps/place/Masjid+Shareef+Otingru/data=!4m7!3m6!1s0x38e10348d61cff8f:0x195d254270415774!8m2!3d34.3303532!4d74.2506297!16s%2Fg%2F11v72yyq08!19sChIJj_8c1kgD4TgRdFdBcEIlXRk?authuser=0&hl=en&rclk=1,"34.3303532,74.25062969999999"
jamia masjid bheli,Mosque,"5HFH+52M jamia masjid bheli, bheli, Arnora, Agrika, 182201",bheli,5HFH+52M,"Arnora, Agrika",,,IN,https://www.google.com/maps/place/jamia+masjid+bheli/data=!4m7!3m6!1s0x391da5d108044e11:0x31b1b83142e3ab97!8m2!3d33.1729731!4d75.577546!16s%2Fg%2F11rc8ndhv9!19sChIJEU4ECNGlHTkRl6vjQjG4sTE?authuser=0&hl=en&rclk=1,"33.1729731,75.577546"
Umer Masjid new Colony,Mosque,"W46G+4C5 Umer Masjid new Colony, Pinglish, Cheribugh, 192124",,W46G+4C5,"Pinglish, Cheribugh",192124,,IN,https://www.google.com/maps/place/Umer+Masjid+new+Colony/data=!4m7!3m6!1s0x38e219eb5a14cffd:0xef11e2fd885a806!8m2!3d33.9102636!4d75.1261113!16s%2Fg%2F11s3y6v2tl!19sChIJ_c8UWusZ4jgRBqiF2C8e8Q4?authuser=0&hl=en&rclk=1,"33.9102636,75.12611129999999"
Masjid jamal kralgund,Mosque,"Masjid jamal kralgund, Masjid Jamaal,(Deobandi, St25, Brah kralagund Wani Mohallah Brah, Srinagar, 192201",,"Masjid Jamaal,(Deobandi, St25, Brah kralagund Wani Mohallah Brah",Srinagar,192201,,IN,https://www.google.com/maps/place/Masjid+jamal+kralgund/data=!4m7!3m6!1s0x38e20dc6efb32caf:0x99692f0b8330c255!8m2!3d33.7360273!4d75.2895735!16s%2Fg%2F11sj1xlpkp!19sChIJryyz78YN4jgRVcIwgwsvaZk?authuser=0&hl=en&rclk=1,"33.736027299999996,75.2895735"
Jama Masjid Ardbal Taiwani,Mosque,"Jama Masjid Ardbal Taiwani, Jama Masjid, Ardbal Taiwani, Anantnag, 192201",Ardbal Taiwani,Jama Masjid,Anantnag,,,IN,https://www.google.com/maps/place/Jama+Masjid+Ardbal+Taiwani/data=!4m7!3m6!1s0x38e20f1c79c477ef:0x52e61655952caa69!8m2!3d33.7067198!4d75.2339532!16s%2Fg%2F11mphb07_3!19sChIJ73fEeRwP4jgRaaoslVUW5lI?authuser=0&hl=en&rclk=1,"33.7067198,75.2339532"
"JAMIA MASJID ABI BAKKAR, MADRASA DAR-UL-ULOOM TALEEM-UL-QURAN",Mosque,"JRCR+845 JAMIA MASJID ABI BAKKAR, MADRASA DAR-UL-ULOOM TALEEM-UL-QURAN, Opposite dad house, wani road, wani gujran, racial, rawalpindi, Pakistan",,"JRCR+845, Opposite dad house, wani road, wani gujran, racial",rawalpindi,,"Rawalpindi, Punjab",PK,"https://www.google.com/maps/place/JAMIA+MASJID+ABI+BAKKAR,+MADRASA+DAR-UL-ULOOM+TALEEM-UL-QURAN/data=!4m7!3m6!1s0x38df997329bdc173:0x4782b9f4233719d2!8m2!3d33.6207734!4d72.8403549!16s%2Fg%2F11vj97qpcx!19sChIJc8G9KXOZ3zgR0hk3I_S5gkc?authuser=0&hl=en&rclk=1","33.6207734,72.8403549"
SHEIKH KIRYANA,Juice shop,"SHEIKH KIRYANA, near Jamia Masjid, Chogal Pora, Chogalpora, Jammu and Kashmir 192233",Chogal Pora,near Jamia Masjid,Chogalpora,192233,Jammu and Kashmir,IN,https://www.google.com/maps/place/SHEIKH+KIRYANA/data=!4m7!3m6!1s0x38e1ffe599fd8397:0xad0abb03cd1d1697!8m2!3d33.6270018!4d74.8784601!16s%2Fg%2F11rhzn5790!19sChIJl4P9meX_4TgRlxYdzQO7Cq0?authuser=0&hl=en&rclk=1,"33.627001799999995,74.8784601"
Masjid Shuda e Kashmir msjd shhd khshmyr,Mosque,"Masjid Shuda e Kashmir msjd shhd khshmyr, Graveyard, Eidgah Rd, near myters, Rathapura, Srinagar, Jammu and Kashmir 190002",Rathapura,"Graveyard, Eidgah Rd, near myters",Srinagar,190002,Jammu and Kashmir,IN,https://www.google.com/maps/place/Masjid+Shuda+e+Kashmir+%D9%85%D8%B3%D8%AC%D8%AF+%D8%B4%DA%BE%D8%AF%D8%A7%D8%A1+%DA%A9%D8%B4%D9%85%DB%8C%D8%B1%E2%80%AD/data=!4m7!3m6!1s0x38e185ef91d0ca53:0x554195e7102e7edc!8m2!3d34.0990308!4d74.7905388!16s%2Fg%2F11ht2572y4!19sChIJU8rQke-F4TgR3H4uEOeVQVU?authuser=0&hl=en&rclk=1,"34.0990308,74.7905388"
