name,main_category,address,address_ward,address_street,address_city,address_postal_code,address_state,address_country_code,link,coordinates
Masjid Faizane Madina O Jamiatul Madina Akola (Dawateislami India),Mosque,"PX9V+5CR Masjid Faizane Madina O Jamiatul Madina Akola (Dawateislami India), Mahta Mill Rd, near nice bakery, Firdous Colony, Bhawani Peth, Akola, Maharashtra 444001","Firdous Colony, Bhawani Peth","PX9V+5CR, Mahta Mill Rd, near nice bakery",Akola,444001,Maharashtra,IN,https://www.google.com/maps/place/Masjid+Faizane+Madina+O+Jamiatul+Madina+Akola+%28Dawateislami+India%29/data=!4m7!3m6!1s0x3bd731c22bffbe8f:0x999ea11fa64a36ae!8m2!3d20.7179965!4d76.9935145!16s%2Fg%2F11c1nzr3p9!19sChIJj77_K8Ix1zsRrjZKph-hnpk?authuser=0&hl=en&rclk=1,"20.717996499999998,76.9935145"
Madarsatul Madina Faize Raza (Dawateislami India),Mosque,"MXRM+3RH Madarsatul Madina Faize Raza (Dawateislami India), Nafees Bagh, Dahigaon Gawande, Akola, Maharashtra 444001","Nafees Bagh, Dahigaon Gawande",MXRM+3RH,Akola,444001,Maharashtra,IN,https://www.google.com/maps/place/Madarsatul+Madina+Faize+Raza+%28Dawateislami+India%29/data=!4m7!3m6!1s0x3bd7322061a189bd:0xcbb3057923c620bb!8m2!3d20.6901996!4d76.9846054!16s%2Fg%2F11c529l474!19sChIJvYmhYSAy1zsRuyDGI3kFs8s?authuser=0&hl=en&rclk=1,"20.6901996,76.98460539999999"
"Jama Masjid, Akola - jm` msjd, akhwl",Mosque,"Jama Masjid, Akola - jm` msjd, akhwl, Inamdar Pura Rd, Mominpura, Akola, Maharashtra 444001",Mominpura,Inamdar Pura Rd,Akola,444001,Maharashtra,IN,"https://www.google.com/maps/place/Jama+Masjid,+Akola+-+%D8%AC%D8%A7%D9%85%D8%B9+%D9%85%D8%B3%D8%AC%D8%AF%D8%8C+%D8%A2%DA%A9%D9%88%D9%84%D8%A7%E2%80%AD/data=!4m7!3m6!1s0x3bd731e861f47b87:0x59be022ddf892813!8m2!3d20.7128684!4d76.9977167!16s%2Fg%2F1hm50vvw5!19sChIJh3v0Yegx1zsREyiJ3y0Cvlk?authuser=0&hl=en&rclk=1","20.712868399999998,76.9977167"
Markaz Badi Masjid (mrkhz brry msjd),Mosque,"PX6X+C99 Markaz Badi Masjid (mrkhz brry msjd), Phulari Chowk, Mohammed Ali Rd, Baid Pura, Mominpura, Akola, Maharashtra 444001",Mominpura,"PX6X+C99, Phulari Chowk, Mohammed Ali Rd, Baid Pura",Akola,444001,Maharashtra,IN,https://www.google.com/maps/place/Markaz+Badi+Masjid+%28%D9%85%D8%B1%DA%A9%D8%B2+%D8%A8%DA%91%DB%8C+%D9%85%D8%B3%D8%AC%D8%AF%29%E2%80%AD/data=!4m7!3m6!1s0x3bd731e8a4190bef:0x324b479ce4acfb66!8m2!3d20.7110451!4d76.9984707!16s%2Fg%2F11b7wc6cs5!19sChIJ7wsZpOgx1zsRZvus5JxHSzI?authuser=0&hl=en&rclk=1,"20.7110451,76.9984707"
"Mominpura Masjid - mwmynpur msjd, akhwl",Mosque,"PX6X+RCR Mominpura Masjid - mwmynpur msjd, akhwl, Mominpura, Akola, Maharashtra 444001",Mominpura,PX6X+RCR,Akola,444001,Maharashtra,IN,https://www.google.com/maps/place/Mominpura+Masjid+-+%D9%85%D9%88%D9%85%DB%8C%D9%86%D9%BE%D9%8F%D8%B1%D8%A7+%D9%85%D8%B3%D8%AC%D8%AF%D8%8C+%D8%A2%DA%A9%D9%88%D9%84%D8%A7%E2%80%AD/data=!4m7!3m6!1s0x3bd731e89a354421:0xa5a425d8f3f2e265!8m2!3d20.712124!4d76.9985011!16s%2Fg%2F12hmcsmkr!19sChIJIUQ1mugx1zsRZeLy89glpKU?authuser=0&hl=en&rclk=1,"20.712124,76.9985011"
Kali Masjid,Mosque,"PX5X+PRM Kali Masjid, Tajnapeth, Baid Pura, Akola, Maharashtra 444001",Baid Pura,"PX5X+PRM, Tajnapeth, Baid Pura",Akola,444001,Maharashtra,IN,https://www.google.com/maps/place/Kali+Masjid/data=!4m7!3m6!1s0x3bd731ef56902df1:0xfc1ebdaf6bfa0482!8m2!3d20.7093404!4d76.999554!16s%2Fg%2F11cm0wx92m!19sChIJ8S2QVu8x1zsRggT6a6-9Hvw?authuser=0&hl=en&rclk=1,"20.7093404,76.999554"
Noori Sunni Masjid msjd,Mosque,"PX8V+9P5 Noori Sunni Masjid msjd, firdos colony, Malipura, Akola, Maharashtra 444001",Malipura,"PX8V+9P5, firdos colony",Akola,444001,Maharashtra,IN,https://www.google.com/maps/place/Noori+Sunni+Masjid+%D9%85%D8%B3%D8%AC%D8%AF%E2%80%AD/data=!4m7!3m6!1s0x3bd731c20b86b3a3:0x2d56173e813db324!8m2!3d20.7158926!4d76.9943705!16s%2Fg%2F124yj9gq4!19sChIJo7OGC8Ix1zsRJLM9gT4XVi0?authuser=0&hl=en&rclk=1,"20.7158926,76.9943705"
Masjid Al Falah msjd lflH,Mosque,"Masjid Al Falah msjd lflH, 1600, Nehru Nagar, Akot Fail, Jafrabad, Akola, Maharashtra 444003","Nehru Nagar, Akot Fail, Jafrabad",1600,Akola,444003,Maharashtra,IN,https://www.google.com/maps/place/Masjid+Al+Falah+%D9%85%D8%B3%D8%AC%D8%AF+%D8%A7%D9%84%D9%81%D9%84%D8%A7%D8%AD%E2%80%AD/data=!4m7!3m6!1s0x3bd731cfe3407967:0xdd7152f172ef11c8!8m2!3d20.728296!4d76.9986004!16s%2Fg%2F11c1qb0hww!19sChIJZ3lA488x1zsRyBHvcvFScd0?authuser=0&hl=en&rclk=1,"20.728296,76.9986004"
Hazrat Owais Karni Masjid,Mosque,"Hazrat Owais Karni Masjid, Khair Mohammad Plot, Old City, Akola, Maharashtra 444002","Gulzarpura, Old City",Khair Mohammad Plot,Akola,444002,Maharashtra,IN,https://www.google.com/maps/place/Hazrat+Owais+Karni+Masjid/data=!4m7!3m6!1s0x3bd731957a0baef1:0xfcbd42528f757afa!8m2!3d20.7141855!4d76.9848963!16s%2Fg%2F11dz5pdb1q!19sChIJ8a4LepUx1zsR-np1j1JCvfw?authuser=0&hl=en&rclk=1,"20.7141855,76.9848963"
Azmat e Mustafa Masjid,Mosque,"Azmat e Mustafa Masjid, Shanti nagar arco road lines, Akola New Bypass, Midc Phase 2, MIDC, Shivani, Akola, Maharashtra 444104","Midc Phase 2, MIDC","Shanti nagar arco road lines, Akola New Bypass","Shivani, Akola",444104,Maharashtra,IN,https://www.google.com/maps/place/Azmat+e+Mustafa+Masjid/data=!4m7!3m6!1s0x3bd72dd1e54c03ff:0xecff97aabfc9cf29!8m2!3d20.6853508!4d77.0499937!16s%2Fg%2F11bbrkjsr1!19sChIJ_wNM5dEt1zsRKc_Jv6qX_-w?authuser=0&hl=en&rclk=1,"20.6853508,77.0499937"
Madina Masjid',Mosque,"PX7P+96X Madina Masjid', Gulzarpura, Old City, Akola, Maharashtra 444002","Gulzarpura, Old City",PX7P+96X,Akola,444002,Maharashtra,IN,https://www.google.com/maps/place/Madina+Masjid%27/data=!4m7!3m6!1s0x3bd731956ce7cb49:0xf5ff1485c896a373!8m2!3d20.7134892!4d76.9856084!16s%2Fg%2F11c54cgdwx!19sChIJScvnbJUx1zsRc6OWyIUU__U?authuser=0&hl=en&rclk=1,"20.713489199999998,76.98560839999999"
Zainy Masjid,Mosque,"Zainy Masjid, Batul park, washim By-pass Chowk,Dahigaon, Gawande, Akola, Maharashtra 444501","New Radhakisan Plots, Gawande","Batul park, washim By-pass Chowk,Dahigaon",Akola,444501,Maharashtra,IN,https://www.google.com/maps/place/Zainy+Masjid/data=!4m7!3m6!1s0x3bd732207659dbc3:0xa912459c90444ae0!8m2!3d20.7107821!4d77.0038499!16s%2Fg%2F11b7418447!19sChIJw9tZdiAy1zsR4EpEkJxFEqk?authuser=0&hl=en&rclk=1,"20.7107821,77.00384989999999"
Sunni Mohammedi Masjid,Mosque,"PX8W+CPM Sunni Mohammedi Masjid, Gawlipura, Bhawani Peth, Akola, Maharashtra 444001","Gawlipura, Bhawani Peth",PX8W+CPM,Akola,444001,Maharashtra,IN,https://www.google.com/maps/place/Sunni+Mohammedi+Masjid/data=!4m7!3m6!1s0x3bd731c29b627fdd:0xb3920dcfd2e6f031!8m2!3d20.71609!4d76.996807!16s%2Fg%2F11bxdvxs2f!19sChIJ3X9im8Ix1zsRMfDm0s8NkrM?authuser=0&hl=en&rclk=1,"20.716089999999998,76.99680699999999"
Masjid E Ajmaliya,Mosque,"Masjid E Ajmaliya, 1600 Plot, Line Number 3, Nehru Nagar, Akot Fail, Jafrabad, Akola, Maharashtra 444003","Nehru Nagar, Akot Fail, Jafrabad","1600 Plot, Line Number 3",Akola,444003,Maharashtra,IN,https://www.google.com/maps/place/Masjid+E+Ajmaliya/data=!4m7!3m6!1s0x3bd731d01ba56e47:0x7fc26a913ba994e5!8m2!3d20.7282717!4d77.0008071!16s%2Fg%2F11c2khj2wg!19sChIJR26lG9Ax1zsR5ZSpO5Fqwn8?authuser=0&hl=en&rclk=1,"20.7282717,77.0008071"
Masjid Al-Fatah,Mosque,"PX8V+HJC Masjid Al-Fatah, near Ya Allah masjid, Firdous Colony, Bhawani Peth, Akola, Maharashtra 444001","Firdous Colony, Bhawani Peth","PX8V+HJC, near Ya Allah masjid",Akola,444001,Maharashtra,IN,https://www.google.com/maps/place/Masjid+Al-Fatah/data=!4m7!3m6!1s0x3bd731c210f0b2a3:0xa6a1d343451d27e6!8m2!3d20.7164289!4d76.9940053!16s%2Fg%2F11c32408q4!19sChIJo7LwEMIx1zsR5icdRUPToaY?authuser=0&hl=en&rclk=1,"20.7164289,76.9940053"
Masjid Umar Bin Khattab,Mosque,"PX9V+468 Masjid Umar Bin Khattab, Bhawani Peth, Akola, Maharashtra 444003",Bhawani Peth,PX9V+468,Akola,444003,Maharashtra,IN,https://www.google.com/maps/place/Masjid+Umar+Bin+Khattab/data=!4m7!3m6!1s0x3bd731c229fb67df:0xdbd025d15d597108!8m2!3d20.7177858!4d76.9930729!16s%2Fg%2F11cpjbx953!19sChIJ32f7KcIx1zsRCHFZXdEl0Ns?authuser=0&hl=en&rclk=1,"20.717785799999998,76.9930729"
Masjid-e-Anwar,Mosque,"MXXM+6RF Masjid-e-Anwar, Hamza Plot Washim Road Akola, Akola, Maharashtra 444002","Nafees Bagh, Shivsena Nagar","MXXM+6RF, Hamza Plot Washim Road Akola",Akola,444002,Maharashtra,IN,https://www.google.com/maps/place/Masjid-e-Anwar/data=!4m7!3m6!1s0x3bd7318c887283cd:0xa53c7a1f454d88ba!8m2!3d20.6980552!4d76.9845334!16s%2Fg%2F11gzkhb1y!19sChIJzYNyiIwx1zsRuohNRR96PKU?authuser=0&hl=en&rclk=1,"20.6980552,76.98453339999999"
Raza Masjid,Mosque,"Raza Masjid, Haji Nagar, Akot Fail, Akola, Maharashtra 444003","Akot Fail, Jafrabad",Haji Nagar,Akola,444003,Maharashtra,IN,https://www.google.com/maps/place/Raza+Masjid/data=!4m7!3m6!1s0x3bd731c54e6a8849:0x2f2da2e684ae7420!8m2!3d20.726737!4d76.9984224!16s%2Fg%2F11f_f49kq2!19sChIJSYhqTsUx1zsRIHSuhOaiLS8?authuser=0&hl=en&rclk=1,"20.726737,76.9984224"
Nagina Masjid,Mosque,"PXGQ+QVF Nagina Masjid, Maheboob Nagar, Naigaon, Maharashtra","Akot Fail, Jafrabad","PXGQ+QVF, Maheboob Nagar","Naigaon, Akola",,Maharashtra,IN,https://www.google.com/maps/place/Nagina+Masjid/data=!4m7!3m6!1s0x3bd731c878669beb:0x1d1c0e511721c511!8m2!3d20.7269337!4d76.9896578!16s%2Fg%2F11g7nsf64s!19sChIJ65tmeMgx1zsREcUhF1EOHB0?authuser=0&hl=en&rclk=1,"20.7269337,76.9896578"
Gaziya Masjid,Mosque,"PXFW+33M Gaziya Masjid, Gaziya Masjid Rd, Bhawani Peth, Akola, Maharashtra 444003",Bhawani Peth,"PXFW+33M, Gaziya Masjid Rd",Akola,444003,Maharashtra,IN,https://www.google.com/maps/place/Gaziya+Masjid/data=!4m7!3m6!1s0x3bd731c468ee635b:0xbe4a44e0e8607dec!8m2!3d20.7227053!4d76.9951826!16s%2Fg%2F11dxnssr6y!19sChIJW2PuaMQx1zsR7H1g6OBESr4?authuser=0&hl=en&rclk=1,"20.722705299999998,76.99518259999999"
Madina masjid,Mosque,"M2R3+G98 Madina masjid, Islam chowk, khadan, Akola, Maharashtra 444001",khadan,"M2R3+G98, Islam chowk",Akola,,Maharashtra,IN,https://www.google.com/maps/place/Madina+masjid/data=!4m7!3m6!1s0x3bd733c55946ac19:0xb80ed8020b56ea87!8m2!3d20.6912894!4d77.0034387!16s%2Fg%2F11smzh94_z!19sChIJGaxGWcUz1zsRh-pWCwLYDrg?authuser=0&hl=en&rclk=1,"20.6912894,77.00343869999999"
Masjid E Bilal,Mosque,"PXHX+VX7 Masjid E Bilal, Line Number 7, Millat Colony, Akot Fail, Jafrabad, Akola, Maharashtra 444003","Millat Colony, Akot Fail, Jafrabad","PXHX+VX7, Line Number 7",Akola,444003,Maharashtra,IN,https://www.google.com/maps/place/Masjid+E+Bilal/data=!4m7!3m6!1s0x3bd731d03959266f:0x32ecb5ba018799ba!8m2!3d20.7296606!4d76.9999179!16s%2Fg%2F11h9wkfnrk!19sChIJbyZZOdAx1zsRupmHAbq17DI?authuser=0&hl=en&rclk=1,"20.7296606,76.9999179"
Dawoodi Bohra Masjid,Mosque,"PX6X+84V Dawoodi Bohra Masjid, SH204, Baid Pura, Akola, Maharashtra 444001",Baid Pura,"PX6X+84V, SH204",Akola,444001,Maharashtra,IN,https://www.google.com/maps/place/Dawoodi+Bohra+Masjid/data=!4m7!3m6!1s0x3bd731e8bb128359:0x3a51ad391be4e873!8m2!3d20.7108549!4d76.9978097!16s%2Fg%2F1tdzdg08!19sChIJWYMSu-gx1zsRc-jkGzmtUTo?authuser=0&hl=en&rclk=1,"20.710854899999998,76.99780969999999"
Madina Masjid,Mosque,"M2PX+GCJ Madina Masjid, Midc Phase 2, MIDC, Akola, Maharashtra 444104","Midc Phase 2, MIDC",M2PX+GCJ,Akola,444104,Maharashtra,IN,https://www.google.com/maps/place/Madina+Masjid/data=!4m7!3m6!1s0x3bd72dd1b9e8b0e9:0x4ccc1b088e240013!8m2!3d20.686348!4d77.0485174!16s%2Fg%2F11byyf4b99!19sChIJ6bDoudEt1zsREwAkjggbzEw?authuser=0&hl=en&rclk=1,"20.686348,77.0485174"
EidGah Akola,Mosque,"PX2Q+PJQ EidGah Akola, Shivsena Nagar, Akola, Maharashtra 444002",Shivsena Nagar,PX2Q+PJQ,Akola,444002,Maharashtra,IN,https://www.google.com/maps/place/EidGah+Akola/data=!4m7!3m6!1s0x3bd731f2eb64b651:0xed8d541c34aab580!8m2!3d20.7018358!4d76.9891201!16s%2Fg%2F11fy9zd59n!19sChIJUbZk6_Ix1zsRgLWqNBxUje0?authuser=0&hl=en&rclk=1,"20.701835799999998,76.9891201"
Madarsa Masjid,Mosque,"PX7M+CRC Madarsa Masjid, Phadke Nagar, Akola, Maharashtra 444002",Phadke Nagar,PX7M+CRC,Akola,444002,Maharashtra,IN,https://www.google.com/maps/place/Madarsa+Masjid/data=!4m7!3m6!1s0x3bd7319575772125:0xe7d36159981753af!8m2!3d20.7135543!4d76.9845218!16s%2Fg%2F11ddxsy203!19sChIJJSF3dZUx1zsRr1MXmFlh0-c?authuser=0&hl=en&rclk=1,"20.7135543,76.9845218"
Masjid-e-Chishtya,Mosque,"PX3P+968 Masjid-e-Chishtya, Khwaja Nagar, Akola, Maharashtra 444002",Shivsena Nagar,"PX3P+968, Khwaja Nagar",Akola,444002,Maharashtra,IN,https://www.google.com/maps/place/Masjid-e-Chishtya/data=!4m7!3m6!1s0x3bd731929bd80687:0x9fe4d3fe25731b02!8m2!3d20.7034017!4d76.9855921!16s%2Fg%2F11g6l_cqj1!19sChIJhwbYm5Ix1zsRAhtzJf7T5J8?authuser=0&hl=en&rclk=1,"20.7034017,76.98559209999999"
Chaand Hafiz Masjid,Mosque,"PX7X+R7P Chaand Hafiz Masjid, Mohammed Ali Rd, Mominpura, Akola, Maharashtra 444001",Mominpura,"PX7X+R7P, Mohammed Ali Rd",Akola,444001,Maharashtra,IN,https://www.google.com/maps/place/Chaand+Hafiz+Masjid/data=!4m7!3m6!1s0x3bd731e80d90ad2b:0xe070b1a5b68a3c06!8m2!3d20.7145789!4d76.9982087!16s%2Fg%2F11b6s__dfv!19sChIJK62QDegx1zsRBjyKtqWxcOA?authuser=0&hl=en&rclk=1,"20.7145789,76.99820869999999"
Masjid,Mosque,"PXHV+FRF Masjid, auranzeb colony, Akot File Rd, Akot Fail, Jafrabad, Naigaon, Maharashtra 444003","Akot Fail, Jafrabad","PXHV+FRF, auranzeb colony, Akot File Rd","Naigaon, Akola",444003,Maharashtra,IN,https://www.google.com/maps/place/Masjid/data=!4m7!3m6!1s0x3bd731cfce16dcc9:0x5d3573943d7fadc4!8m2!3d20.7286993!4d76.9945473!16s%2Fg%2F11c5zkwjfy!19sChIJydwWzs8x1zsRxK1_PZRzNV0?authuser=0&hl=en&rclk=1,"20.7286993,76.9945473"
Syed Haji Rahmatullah Alaih Dargah Masjid,Mosque,"PX5W+874 Syed Haji Rahmatullah Alaih Dargah Masjid, Nimwadi, Akola, Maharashtra 444001",Nimwadi,PX5W+874,Akola,444001,Maharashtra,IN,https://www.google.com/maps/place/Syed+Haji+Rahmatullah+Alaih+Dargah+Masjid/data=!4m7!3m6!1s0x3bd731eee09ac1a1:0xc692112d09a1db78!8m2!3d20.70827!4d76.9957001!16s%2Fg%2F11cs5rsm32!19sChIJocGa4O4x1zsReNuhCS0RksY?authuser=0&hl=en&rclk=1,"20.70827,76.9957001"
Faizan-e-Raza Masjid,Mosque,"M2PW+4MG Faizan-e-Raza Masjid, Midc Phase 2, MIDC, Akola, Maharashtra 444104","Midc Phase 2, MIDC",M2PW+4MG,Akola,444104,Maharashtra,IN,https://www.google.com/maps/place/Faizan-e-Raza+Masjid/data=!4m7!3m6!1s0x3bd72dd03c838ac5:0xc0d0a4ae66cc15fa!8m2!3d20.6853155!4d77.0467098!16s%2Fg%2F11cn5qt4y9!19sChIJxYqDPNAt1zsR-hXMZq6k0MA?authuser=0&hl=en&rclk=1,"20.685315499999998,77.0467098"
NOORI MAA HAOWA MASJID,Mosque,"NOORI MAA HAOWA MASJID, bhagatwadi, gali no 7, Zulfikar Kabrastan, Old City, Akola, Maharashtra 444002","Zulfikar Kabrastan, Old City","bhagatwadi, gali no 7",Akola,444002,Maharashtra,IN,https://www.google.com/maps/place/NOORI+MAA+HAOWA+MASJID/data=!4m7!3m6!1s0x3bd731be81202c29:0x443a5a6768a79216!8m2!3d20.7177777!4d76.9818692!16s%2Fg%2F11ggtgw7td!19sChIJKSwggb4x1zsRFpKnaGdaOkQ?authuser=0&hl=en&rclk=1,"20.7177777,76.98186919999999"
Qabrastan Masjid,Mosque,"PX8Q+8PX Qabrastan Masjid, Bhawani Peth, Akola, Maharashtra 444001",Bhawani Peth,PX8Q+8PX,Akola,444001,Maharashtra,IN,https://www.google.com/maps/place/Qabrastan+Masjid/data=!4m7!3m6!1s0x3bd731c0252c3dab:0xb77742ed1c56a4f2!8m2!3d20.7158572!4d76.9893564!16s%2Fg%2F11c54cp28l!19sChIJqz0sJcAx1zsR8qRWHO1Cd7c?authuser=0&hl=en&rclk=1,"20.7158572,76.98935639999999"
Masjid E QUBA,Mosque,"PXMX+5GX Masjid E QUBA, Akot Fail, Jafrabad, Akola, Maharashtra 444006","Akot Fail, Jafrabad",PXMX+5GX,Akola,444006,Maharashtra,IN,https://www.google.com/maps/place/Masjid+E+QUBA/data=!4m7!3m6!1s0x3bd731bd8acecdf3:0x78746a0280918fa0!8m2!3d20.7329803!4d76.9988746!16s%2Fg%2F11f6y125jm!19sChIJ883Oir0x1zsRoI-RgAJqdHg?authuser=0&hl=en&rclk=1,"20.732980299999998,76.9988746"
HAZRAT IMAM HUSSAIN MASJID,Mosque,"P2J2+QGR HAZRAT IMAM HUSSAIN MASJID, Akot Fail, Jafrabad, Akola, Maharashtra 444003","Akot Fail, Jafrabad",P2J2+QGR,Akola,444003,Maharashtra,IN,https://www.google.com/maps/place/HAZRAT+IMAM+HUSSAIN+MASJID/data=!4m7!3m6!1s0x3bd731d1a245608f:0xaeedad4595ef72e0!8m2!3d20.7319998!4d77.0012574!16s%2Fg%2F11f3mbvf6y!19sChIJj2BFotEx1zsR4HLvlUWt7a4?authuser=0&hl=en&rclk=1,"20.7319998,77.0012574"
Sabriya Masjid,Mosque,"P2J3+73Q Sabriya Masjid, Akot Fail, Jafrabad, Akola, Maharashtra 444003","Akot Fail, Jafrabad",P2J3+73Q,Akola,444003,Maharashtra,IN,https://www.google.com/maps/place/Sabriya+Masjid/data=!4m7!3m6!1s0x3bd731d0e21532f1:0xb358e3be4e62272d!8m2!3d20.7307039!4d77.0027369!16s%2Fg%2F11c6d_mj0y!19sChIJ8TIV4tAx1zsRLSdiTr7jWLM?authuser=0&hl=en&rclk=1,"20.730703899999998,77.0027369"
Masjid Jantabazar,Mosque,"P252+CJH Masjid Jantabazar, Baid Pura, Akola, Maharashtra 444001",Baid Pura,P252+CJH,Akola,444001,Maharashtra,IN,https://www.google.com/maps/place/Masjid+Jantabazar/data=!4m7!3m6!1s0x3bd731e5b454da01:0x56f5de8325bab717!8m2!3d20.7085605!4d77.0016133!16s%2Fg%2F1vr1v335!19sChIJAdpUtOUx1zsRF7e6JYPe9VY?authuser=0&hl=en&rclk=1,"20.7085605,77.0016133"
Altaf Husain Masjid,Mosque,"PXJX+JX5 Altaf Husain Masjid, Bharat Nagar Road, Akot Fail, Jafrabad, Akola, Maharashtra 444003","Akot Fail, Jafrabad","PXJX+JX5, Bharat Nagar Road",Akola,,Maharashtra,IN,https://www.google.com/maps/place/Altaf+Husain+Masjid/data=!4m7!3m6!1s0x3bd731d1c6822733:0xb140bcd407c43b9b!8m2!3d20.7315096!4d76.9999716!16s%2Fg%2F11dybgrmdr!19sChIJMyeCxtEx1zsRmzvEB9S8QLE?authuser=0&hl=en&rclk=1,"20.7315096,76.9999716"
Masjid E Nomania,Mosque,"PX8R+XQ6 Masjid E Nomania, Bhawani Peth, Akola, Maharashtra 444001",Bhawani Peth,PX8R+XQ6,Akola,444001,Maharashtra,IN,https://www.google.com/maps/place/Masjid+E+Nomania/data=!4m7!3m6!1s0x3bd731c19713ca5f:0xd1c76517ada9c8c5!8m2!3d20.7174249!4d76.9918985!16s%2Fg%2F11f093d3h_!19sChIJX8oTl8Ex1zsRxciprRdlx9E?authuser=0&hl=en&rclk=1,"20.717424899999997,76.99189849999999"
Mehmoodiya Masjid,Mosque,"P2J4+Q2R Mehmoodiya Masjid, Jafrabad, Akola, Maharashtra 444003",Jafrabad,P2J4+Q2R,Akola,444003,Maharashtra,IN,https://www.google.com/maps/place/Mehmoodiya+Masjid/data=!4m7!3m6!1s0x3bd731d6cea4000d:0xca87b7f067b6c375!8m2!3d20.7319888!4d77.0050088!16s%2Fg%2F11c2ppm42k!19sChIJDQCkztYx1zsRdcO2Z_C3h8o?authuser=0&hl=en&rclk=1,"20.7319888,77.0050088"
Akbar Plot Masjid,Mosque,"P2F2+Q8G Akbar Plot Masjid, Akbar Plot, Akot Fail, Jafrabad, Akola, Maharashtra 444003","Akbar Plot, Akot Fail, Jafrabad",P2F2+Q8G,Akola,444003,Maharashtra,IN,https://www.google.com/maps/place/Akbar+Plot+Masjid/data=!4m7!3m6!1s0x3bd731db1b8079a5:0x106dd298e35c25b0!8m2!3d20.724449!4d77.0008393!16s%2Fg%2F11h9wkfb9l!19sChIJpXmAG9sx1zsRsCVc45jSbRA?authuser=0&hl=en&rclk=1,"20.724449,77.0008393"
Madina Masjid,Mosque,"Madina Masjid, madina masjid, Midc Phase 2, Malkapur, Akola, Maharashtra 444104","Midc Phase 2, Malkapur",madina masjid,Akola,444104,Maharashtra,IN,https://www.google.com/maps/place/Madina+Masjid/data=!4m7!3m6!1s0x3bd72daadcec9e79:0x2eb30dd5c403cbf7!8m2!3d20.6893381!4d77.0403319!16s%2Fg%2F11gnngtn3s!19sChIJeZ7s3Kot1zsR98sDxNUNsy4?authuser=0&hl=en&rclk=1,"20.6893381,77.0403319"
Masjid E Aqsa msjd,Mosque,"MXQJ+GR7 Masjid E Aqsa msjd, Afzal Colony, Dahigaon Gawande, Akola, Maharashtra 444002","Afzal Colony, Dahigaon Gawande",MXQJ+GR7,Akola,444002,Maharashtra,IN,https://www.google.com/maps/place/Masjid+E+Aqsa+%D9%85%D8%B3%D8%AC%D8%AF%E2%80%AD/data=!4m7!3m6!1s0x3bd73220d1a18bb7:0x1bb730ea36469152!8m2!3d20.6887995!4d76.9820427!16s%2Fg%2F11hbblnjf5!19sChIJt4uh0SAy1zsRUpFGNuowtxs?authuser=0&hl=en&rclk=1,"20.6887995,76.9820427"
Masjid-E-Ya Rasulullah (Sl llh `lyh wslm ),Mosque,"MXPJ+GWH Masjid-E-Ya Rasulullah (Sl llh `lyh wslm ), Afzal Colony, Ganga Nagar, Akola, Maharashtra 444002","Afzal Colony, Ganga Nagar",MXPJ+GWH,Akola,444002,Maharashtra,IN,https://www.google.com/maps/place/Masjid-E-Ya+Rasulullah+%28%D8%B5%D9%84+%D8%A7%D9%84%D9%84%DB%81+%D8%B9%D9%84%DB%8C%DB%81+%D9%88%D8%B3%D9%84%D9%85+%29%E2%80%AD/data=!4m7!3m6!1s0x3bd733acdd6c1311:0x984dc27eea046614!8m2!3d20.6863148!4d76.982375!16s%2Fg%2F11g0ky4g5t!19sChIJERNs3awz1zsRFGYE6n7CTZg?authuser=0&hl=en&rclk=1,"20.686314799999998,76.98237499999999"
Kacchi masjid,Mosque,"Kacchi masjid, Kachchi masjid Mohammad Ali chowk, Akola, Maharashtra 444001",Mominpura,Kachchi masjid Mohammad Ali chowk,Akola,444001,Maharashtra,IN,https://www.google.com/maps/place/Kacchi+masjid/data=!4m7!3m6!1s0x3bd731a27ac3c579:0x9e50a21f9194ab56!8m2!3d20.7111819!4d76.9973145!16s%2Fg%2F11txf2lcfz!19sChIJecXDeqIx1zsRVquUkR-iUJ4?authuser=0&hl=en&rclk=1,"20.7111819,76.9973145"
Noorani sunni Jama Masjid,Mosque,"M2R3+MV4 Noorani sunni Jama Masjid, Hambal pura, Akola, Maharashtra 444001",Hambal pura,M2R3+MV4,Akola,,Maharashtra,IN,https://www.google.com/maps/place/Noorani+sunni+Jama+Masjid/data=!4m7!3m6!1s0x3bd7335d4e47020b:0xd8a0318442876103!8m2!3d20.6916314!4d77.0047036!16s%2Fg%2F11fd49r8jj!19sChIJCwJHTl0z1zsRA2GHQoQxoNg?authuser=0&hl=en&rclk=1,"20.6916314,77.0047036"
Masjid At-Tawheed,Mosque,"Masjid At-Tawheed, Aurangzeb colony, Akot Fail, Jafrabad, Akola, Maharashtra 444003","Akot Fail, Jafrabad",Aurangzeb colony,Akola,444003,Maharashtra,IN,https://www.google.com/maps/place/Masjid+At-Tawheed/data=!4m7!3m6!1s0x3bd7310f6ae81341:0x701e0a72e677e2a9!8m2!3d20.7300208!4d76.9981561!16s%2Fg%2F11l01d47_y!19sChIJQRPoag8x1zsRqeJ35nIKHnA?authuser=0&hl=en&rclk=1,"20.7300208,76.9981561"
"Kabrastaan Masjid, Akot File",Mosque,"PXJW+272 Kabrastaan Masjid, Akot File, Akot Fail, Jafrabad, Akola, Maharashtra 444003","Akot Fail, Jafrabad",PXJW+272,Akola,444003,Maharashtra,IN,"https://www.google.com/maps/place/Kabrastaan+Masjid,+Akot+File/data=!4m7!3m6!1s0x3bd731cf017d2c6d:0x560a24111395e48d!8m2!3d20.7300171!4d76.9956368!16s%2Fg%2F1tlnbw_5!19sChIJbSx9Ac8x1zsRjeSVExEkClY?authuser=0&hl=en&rclk=1","20.730017099999998,76.9956368"
Masjid Bilal,Mosque,"PXHW+3V4 Masjid Bilal, Akola Bazar Rd, Haji Nagar, Millat Colony, Khamgaon, Akola, Maharashtra 444303","Haji Nagar, Millat Colony","PXHW+3V4, Akola Bazar Rd","Khamgaon, Akola",444303,Maharashtra,IN,https://www.google.com/maps/place/Masjid+Bilal/data=!4m7!3m6!1s0x3bd731cf8bad1c07:0xd451c5fcdbdf408d!8m2!3d20.7276464!4d76.9972129!16s%2Fg%2F11fy96kthk!19sChIJBxyti88x1zsRjUDf2_zFUdQ?authuser=0&hl=en&rclk=1,"20.727646399999998,76.9972129"
Masjid Gitti Khadaan,Mosque,"M2Q5+PM5 Masjid Gitti Khadaan, MH SH 197, Aadarsh Colony, Akola, Maharashtra 444001",Aadarsh Colony,"M2Q5+PM5, MH SH 197",Akola,444001,Maharashtra,IN,https://www.google.com/maps/place/Masjid+Gitti+Khadaan/data=!4m7!3m6!1s0x3bd7335b5d9ee9cb:0x65ab86ca3f381e82!8m2!3d20.6892748!4d77.0092202!16s%2Fg%2F11h04mgtvc!19sChIJy-meXVsz1zsRgh44P8qGq2U?authuser=0&hl=en&rclk=1,"20.6892748,77.0092202"
"Chhoti Masjid, Rajpura (chhwtty msjd rj pwrh)",Mosque,"Chhoti Masjid, Rajpura (chhwtty msjd rj pwrh), Agar Base, raj pura near, Old City, Akola, Maharashtra 444002",Old City,"Agar Base, raj pura near",Akola,444002,Maharashtra,IN,"https://www.google.com/maps/place/Chhoti+Masjid,+Rajpura+%28%DA%86%DA%BE%D9%88%D9%B9%DB%8C+%D9%85%D8%B3%D8%AC%D8%AF+%D8%B1%D8%A7%D8%AC+%D9%BE%D9%88%D8%B1%DB%81%29%E2%80%AD/data=!4m7!3m6!1s0x3bd731eb1373f5cf:0xe36fe8f0bd239b2e!8m2!3d20.71091!4d76.9891962!16s%2Fg%2F11f_kmqwjz!19sChIJz_VzE-sx1zsRLpsjvfDob-M?authuser=0&hl=en&rclk=1","20.71091,76.9891962"
Iqbal Hyder Masjid (iqbl Hydr msjd),Mosque,"Iqbal Hyder Masjid (iqbl Hydr msjd), Azad park road, jai hind chowk, Old City, Akola, Maharashtra 444002",Old City,"Azad park road, jai hind chowk",Akola,444002,Maharashtra,IN,https://www.google.com/maps/place/Iqbal+Hyder+Masjid+%28%D8%A7%D9%90%D9%82%D8%A8%D8%A7%D9%84+%D8%AD%DB%8C%D8%AF%D8%B1+%D9%85%D8%B3%D8%AC%D8%AF%29%E2%80%AD/data=!4m7!3m6!1s0x3bd7316e863a72fd:0x79d394f54b3bd086!8m2!3d20.7080383!4d76.99026!16s%2Fg%2F11h4ksxlqw!19sChIJ_XI6hm4x1zsRhtA7S_WU03k?authuser=0&hl=en&rclk=1,"20.7080383,76.99025999999999"
Sanjay Nagar Naigon Akola,Mosque,"PXHR+JX8 Sanjay Nagar Naigon Akola, Unnamed Road, Akot Fail, Jafrabad, Akola, Maharashtra 444003","Akot Fail, Jafrabad","PXHR+JX8, Unnamed Road",Akola,444003,Maharashtra,IN,https://www.google.com/maps/place/Sanjay+Nagar+Naigon+Akola/data=!4m7!3m6!1s0x3bd731734de52229:0x5e947a0760210d29!8m2!3d20.7290377!4d76.9924539!16s%2Fg%2F11h4h2lyq9!19sChIJKSLlTXMx1zsRKQ0hYAd6lF4?authuser=0&hl=en&rclk=1,"20.7290377,76.9924539"
Qila Masjid (ql`h msjd),Mosque,"Qila Masjid (ql`h msjd), Qila,, Akola, Maharashtra 444002","Qila,",,Akola,444002,Maharashtra,IN,https://www.google.com/maps/place/Qila+Masjid+%28%D9%82%D9%84%D8%B9%DB%81+%D9%85%D8%B3%D8%AC%D8%AF%29%E2%80%AD/data=!4m7!3m6!1s0x3bd731b37e118765:0x20990de444e9461b!8m2!3d20.7071699!4d76.9901041!16s%2Fg%2F11hdjcgxqv!19sChIJZYcRfrMx1zsRG0bpROQNmSA?authuser=0&hl=en&rclk=1,"20.7071699,76.9901041"
Ammajan masjid,Mosque,"PX3M+R96 Ammajan masjid, Islampura, Ganesh Nagar, Old City, Akola, Maharashtra 444002","Islampura, Ganesh Nagar, Old City",PX3M+R96,Akola,444002,Maharashtra,IN,https://www.google.com/maps/place/Ammajan+masjid/data=!4m7!3m6!1s0x3bd7315192af0d23:0x2ae1f3ba5535f403!8m2!3d20.704527!4d76.9834013!16s%2Fg%2F11kb2ps8nf!19sChIJIw2vklEx1zsRA_Q1Vbrz4So?authuser=0&hl=en&rclk=1,"20.704527,76.9834013"
Masjid-e-Rabia,Mosque,"P272+QM8 Masjid-e-Rabia, Mominpura, Akola, Maharashtra 444001",Mominpura,P272+QM8,Akola,444001,Maharashtra,IN,https://www.google.com/maps/place/Masjid-e-Rabia/data=!4m7!3m6!1s0x3bd7314bf1bbcefb:0x795de03c0c049d9f!8m2!3d20.7144687!4d77.001724!16s%2Fg%2F11ss57k1mr!19sChIJ-8678Usx1zsRn50EDDzgXXk?authuser=0&hl=en&rclk=1,"20.714468699999998,77.001724"
Kaagzi Pura Masjid (khGdhy pwrh msjd),Mosque,"PX6X+M49 Kaagzi Pura Masjid (khGdhy pwrh msjd), Mominpura, Akola, Maharashtra 444001",Mominpura,PX6X+M49,Akola,444001,Maharashtra,IN,https://www.google.com/maps/place/Kaagzi+Pura+Masjid+%28%DA%A9%D8%A7%D8%BA%D8%B0%DB%8C+%D9%BE%D9%88%D8%B1%DB%81+%D9%85%D8%B3%D8%AC%D8%AF%29%E2%80%AD/data=!4m7!3m6!1s0x3bd731e89128a1f1:0x9d189d71737764b1!8m2!3d20.7116511!4d76.9978708!16s%2Fg%2F11cm0hwds5!19sChIJ8aEokegx1zsRsWR3c3GdGJ0?authuser=0&hl=en&rclk=1,"20.711651099999997,76.9978708"
Masjid Sugra,Mosque,"PXPX+QRJ Masjid Sugra, Akot Fail, Jafrabad, Akola, Maharashtra 444006","Akot Fail, Jafrabad",PXPX+QRJ,Akola,444006,Maharashtra,IN,https://www.google.com/maps/place/Masjid+Sugra/data=!4m7!3m6!1s0x3bd731d285733ec5:0x729a4a9fc385698d!8m2!3d20.7369653!4d76.9995012!16s%2Fg%2F11hc_8dg6v!19sChIJxT5zhdIx1zsRjWmFw59KmnI?authuser=0&hl=en&rclk=1,"20.736965299999998,76.9995012"
Haqaniya Masjid,Mosque,"Haqaniya Masjid, muzaffar nager Madina corner, Bhawani Peth, Akola, Maharashtra 444001",Bhawani Peth,muzaffar nager Madina corner,Akola,,Maharashtra,IN,https://www.google.com/maps/place/Haqaniya+Masjid/data=!4m7!3m6!1s0x3bd7313c3ade4887:0xf467008796ec9942!8m2!3d20.7156553!4d76.9919116!16s%2Fg%2F11fmzj_kkb!19sChIJh0jeOjwx1zsRQpnslocAZ_Q?authuser=0&hl=en&rclk=1,"20.715655299999998,76.9919116"
Zulfiqar Qabrastan Masjid,Mosque,"Zulfiqar Qabrastan Masjid, Jama Masjid Agar Base, Dagdi Pul, Zulfikar Kabrastan, Old City, Akola, Kharab Bk, Maharashtra 444002","Dagdi Pul, Zulfikar Kabrastan, Old City",Jama Masjid Agar Base,"Akola, Kharab Bk",444002,Maharashtra,IN,https://www.google.com/maps/place/Zulfiqar+Qabrastan+Masjid/data=!4m7!3m6!1s0x3bd72e3242112abd:0x6f62c2a50e027aea!8m2!3d20.7371745!4d77.0234087!16s%2Fg%2F11fz9y6ntz!19sChIJvSoRQjIu1zsR6noCDqXCYm8?authuser=0&hl=en&rclk=1,"20.7371745,77.02340869999999"
Masjid Hamid Ali (Hamid Ali Masjid),Mosque,"PX7V+JR2 Masjid Hamid Ali (Hamid Ali Masjid), Lakkad Ganj Rd, near mehrunnusa function hall, Malipura, Akola, Maharashtra 444001",Malipura,"PX7V+JR2, Lakkad Ganj Rd, near mehrunnusa function hall",Akola,444001,Maharashtra,IN,https://www.google.com/maps/place/Masjid+Hamid+Ali+%28Hamid+Ali+Masjid%29/data=!4m7!3m6!1s0x3bd7317a21cd5ef1:0x11779dfa181944d7!8m2!3d20.714021!4d76.9945294!16s%2Fg%2F11fkh9jdgb!19sChIJ8V7NIXox1zsR10QZGPqddxE?authuser=0&hl=en&rclk=1,"20.714021,76.99452939999999"
Kabrastan Masjid Naya Baidpura,Religious organization,"PX8Q+8QJ Kabrastan Masjid Naya Baidpura, Bhawani Peth, Akola, Maharashtra 444001",Bhawani Peth,PX8Q+8QJ,Akola,444001,Maharashtra,IN,https://www.google.com/maps/place/Kabrastan+Masjid+Naya+Baidpura/data=!4m7!3m6!1s0x3bd731c0253130d9:0x5bb4048aa0a52d9!8m2!3d20.715849!4d76.989393!16s%2Fg%2F11c1q8962f!19sChIJ2TAxJcAx1zsR2VIKqkhAuwU?authuser=0&hl=en&rclk=1,"20.715849,76.98939299999999"
Masjid e Inamulhasan,Mosque,"PX7M+VRR Masjid e Inamulhasan, Phadke Nagar, Akola, Maharashtra 444002",Phadke Nagar,PX7M+VRR,Akola,444002,Maharashtra,IN,https://www.google.com/maps/place/Masjid+e+Inamulhasan/data=!4m7!3m6!1s0x3bd7316bdd314239:0x5a51d554e67a1ad2!8m2!3d20.7147299!4d76.9845223!16s%2Fg%2F11gxt5v373!19sChIJOUIx3Wsx1zsR0hp65lTVUVo?authuser=0&hl=en&rclk=1,"20.7147299,76.9845223"
Anjuman Muslimin Eid gaah shivani,Mosque,"Anjuman Muslimin Eid gaah shivani, Midc Phase 2, MIDC, Shivani, Akola, Maharashtra 444104","Midc Phase 2, MIDC",,"Shivani, Akola",444104,Maharashtra,IN,https://www.google.com/maps/place/Anjuman+Muslimin+Eid+gaah+shivani/data=!4m7!3m6!1s0x3bd72ddab37719ed:0x6adf8bac03a6ac7d!8m2!3d20.6843842!4d77.0439069!16s%2Fg%2F11c2nmf8v_!19sChIJ7Rl3s9ot1zsRfaymA6yL32o?authuser=0&hl=en&rclk=1,"20.6843842,77.0439069"
Mahboobiya Masjid,Mosque,"Mahboobiya Masjid, mahboob nagar, Jafrabad, Naigaon, Akola, Maharashtra 444003","mahboob nagar, Jafrabad",,"Naigaon, Akola",444003,Maharashtra,IN,https://www.google.com/maps/place/Mahboobiya+Masjid/data=!4m7!3m6!1s0x3bd7310243703a43:0x43891b9ef27b4b16!8m2!3d20.7252403!4d76.9884973!16s%2Fg%2F11h07wv5y6!19sChIJQzpwQwIx1zsRFkt78p4biUM?authuser=0&hl=en&rclk=1,"20.7252403,76.98849729999999"
Masjid,Mosque,"Masjid, ratan lal plots, Sindhi Colony, Akola, Maharashtra 444001",Sindhi Colony,ratan lal plots,Akola,444001,Maharashtra,IN,https://www.google.com/maps/place/Masjid/data=!4m7!3m6!1s0x3bd73330e73a68df:0xbcac3a6c6c7535d9!8m2!3d20.6920663!4d77.0066909!16s%2Fg%2F11s752v_pd!19sChIJ32g65zAz1zsR2TV1bGw6rLw?authuser=0&hl=en&rclk=1,"20.6920663,77.0066909"
Nawab Pura Masjid,Mosque,"PX4P+5FJ Nawab Pura Masjid, Chaturbhuj Colony, Hamza Plot, Old City, Akola, Maharashtra 444002","Chaturbhuj Colony, Hamza Plot, Old City",PX4P+5FJ,Akola,444002,Maharashtra,IN,https://www.google.com/maps/place/Nawab+Pura+Masjid/data=!4m7!3m6!1s0x3bd73192dcdaaaab:0xa19eeed625b8e908!8m2!3d20.7054428!4d76.9861327!16s%2Fg%2F11sscs8r91!19sChIJq6ra3JIx1zsRCOm4JdbunqE?authuser=0&hl=en&rclk=1,"20.7054428,76.9861327"
Masjid E Inamul Hasan,Mosque,"P225+37M Masjid E Inamul Hasan, khaimohammad plot, Akola, Maharashtra 444002",khaimohammad plot,P225+37M,Akola,,Maharashtra,IN,https://www.google.com/maps/place/Masjid+E+Inamul+Hasan/data=!4m7!3m6!1s0x3bd7312bd8dfbbaf:0xd3b0188180baae1a!8m2!3d20.7002159!4d77.0081678!16s%2Fg%2F11h24rlh8z!19sChIJr7vf2Csx1zsRGq66gIEYsNM?authuser=0&hl=en&rclk=1,"20.7002159,77.0081678"
Ganj Base Masjid (gnj bys msjd),Mosque,"PX4Q+R3V Ganj Base Masjid (gnj bys msjd), Chaturbhuj Colony, Hamza Plot, Shivaji Nagar, Akola, Maharashtra 444002","Chaturbhuj Colony, Hamza Plot, Shivaji Nagar",PX4Q+R3V,Akola,444002,Maharashtra,IN,https://www.google.com/maps/place/Ganj+Base+Masjid+%28%DA%AF%D9%86%D8%AC+%D8%A8%DB%8C%D8%B3+%D9%85%D8%B3%D8%AC%D8%AF%29%E2%80%AD/data=!4m7!3m6!1s0x3bd731a919a68e43:0x81a7efc96b116559!8m2!3d20.707103!4d76.9876594!16s%2Fg%2F11gtc8hh1x!19sChIJQ46mGakx1zsRWWURa8nvp4E?authuser=0&hl=en&rclk=1,"20.707103,76.9876594"
Masjid-e-Tajul-Auliya,Mosque,"P2Q4+MGP Masjid-e-Tajul-Auliya, Gajanan Nagar Akot Road, Akola, Maharashtra",Jafrabad,"P2Q4+MGP, Gajanan Nagar Akot Road",Akola,,Maharashtra,IN,https://www.google.com/maps/place/Masjid-e-Tajul-Auliya/data=!4m7!3m6!1s0x3bd7317a787d1187:0x2f345c86509661d5!8m2!3d20.7392235!4d77.0063392!16s%2Fg%2F11szb11mrs!19sChIJhxF9eHox1zsR1WGWUIZcNC8?authuser=0&hl=en&rclk=1,"20.739223499999998,77.0063392"
Qabrastan Masjid,Mosque,"PX8M+767 Qabrastan Masjid, Unnamed Road, Zulfikar Kabrastan, Old City, Akola, Maharashtra 444002","Zulfikar Kabrastan, Old City","PX8M+767, Unnamed Road",Akola,444002,Maharashtra,IN,https://www.google.com/maps/place/Qabrastan+Masjid/data=!4m7!3m6!1s0x3bd731be3d3c7f81:0x46dfa64a049f396d!8m2!3d20.7156681!4d76.9830381!16s%2Fg%2F11gbwxvbyg!19sChIJgX88Pb4x1zsRbTmfBEqm30Y?authuser=0&hl=en&rclk=1,"20.7156681,76.9830381"
Masjid Fatema Mastan Chowk Akotfail Akola,Mosque,"P2G2+3RW Masjid Fatema Mastan Chowk Akotfail Akola, Akot Fail, Jafrabad, Akola, Maharashtra 444003","Akot Fail, Jafrabad",P2G2+3RW,Akola,444003,Maharashtra,IN,https://www.google.com/maps/place/Masjid+Fatema+Mastan+Chowk+Akotfail+Akola/data=!4m7!3m6!1s0x3bd731819089014d:0x8842d6064252a91f!8m2!3d20.7253724!4d77.0021013!16s%2Fg%2F11txm198pb!19sChIJTQGJkIEx1zsRH6lSQgbWQog?authuser=0&hl=en&rclk=1,"20.725372399999998,77.00210129999999"
Jama masjid,Mosque,"P32J+83W Jama masjid, Babhulgaon, Akola, Maharashtra 444104",,P32J+83W,"Babhulgaon, Akola",,Maharashtra,IN,https://www.google.com/maps/place/Jama+masjid/data=!4m7!3m6!1s0x3bd72fe2c3ae05b9:0x27f8794c15d3b14e!8m2!3d20.7008736!4d77.0802011!16s%2Fg%2F11h3mjfh8v!19sChIJuQWuw-Iv1zsRTrHTFUx5-Cc?authuser=0&hl=en&rclk=1,"20.700873599999998,77.0802011"
NOORANI MASJID T.T.S.,Mosque,"P32J+M42 NOORANI MASJID T.T.S., Babhulgaon, Akola, Maharashtra 444104",,P32J+M42,"Babhulgaon, Akola",,Maharashtra,IN,https://www.google.com/maps/place/NOORANI+MASJID+T.T.S./data=!4m7!3m6!1s0x3bd72ea1cd4878f1:0xb87246a1073a22fb!8m2!3d20.7016452!4d77.0802745!16s%2Fg%2F11f3rbt7gn!19sChIJ8XhIzaEu1zsR-yI6B6FGcrg?authuser=0&hl=en&rclk=1,"20.701645199999998,77.0802745"
Old Washim By Pass Morka Wadi Near Raza Masjid Akola,Mosque,"Old Washim By Pass Morka Wadi Near Raza Masjid Akola, Masjid, old Washim by pass Morka Wadi Akola Ahmad Raza","Nafees Bagh, Shivsena Nagar","Masjid, old Washim by pass Morka Wadi Akola Ahmad Raza",Akola,,Maharashtra,IN,https://www.google.com/maps/place/Old+Washim+By+Pass+Morka+Wadi+Near+Raza+Masjid+Akola/data=!4m7!3m6!1s0x3bd731aa4815de5f:0xa925271ef8797a62!8m2!3d20.6950812!4d76.9822483!16s%2Fg%2F11my93sfkq!19sChIJX94VSKox1zsRYnp5-B4nJak?authuser=0&hl=en&rclk=1,"20.6950812,76.9822483"
Bilal Masjid,Mosque,"MXQM+62R Bilal Masjid, Afzal Colony, Ganga Nagar, Akola, Maharashtra 444002","Afzal Colony, Ganga Nagar",MXQM+62R,Akola,444002,Maharashtra,IN,https://www.google.com/maps/place/Bilal+Masjid/data=!4m7!3m6!1s0x3bd7330bdbeff6b3:0x295e0cdbbe273fa6!8m2!3d20.6881497!4d76.9824856!16s%2Fg%2F11tx4yrnyc!19sChIJs_bv2wsz1zsRpj8nvtsMXik?authuser=0&hl=en&rclk=1,"20.6881497,76.98248559999999"
masjid Ahle hadees,Mosque,"masjid Ahle hadees, HILAL colony, Old City, Akola, Maharashtra 444002","Rehber Colony, Old City",HILAL colony,Akola,444002,Maharashtra,IN,https://www.google.com/maps/place/masjid+Ahle+hadees/data=!4m7!3m6!1s0x3bd731e8e8f5bacd:0xac39b0e9c64dde9e!8m2!3d20.7136316!4d76.9821686!16s%2Fg%2F11qhfndrcg!19sChIJzbr16Ogx1zsRnt5NxumwOaw?authuser=0&hl=en&rclk=1,"20.7136316,76.9821686"
Kabrastan Masjid,Mosque,"MXXP+CXG Kabrastan Masjid, Chand Kha Plot, Old City, Akola, Maharashtra 444002",Old City,"MXXP+CXG, Chand Kha Plot",Akola,444002,Maharashtra,IN,https://www.google.com/maps/place/Kabrastan+Masjid/data=!4m7!3m6!1s0x3bd731b07c9bb6bd:0x658e7de2bc21755c!8m2!3d20.6985632!4d76.9874389!16s%2Fg%2F11h55wp3gz!19sChIJvbabfLAx1zsRXHUhvOJ9jmU?authuser=0&hl=en&rclk=1,"20.6985632,76.9874389"
Masjid E Mushtaq husain,Mosque,"Masjid E Mushtaq husain, Aurangzeb colony,1600 plot, Akot Fail, Jafrabad, Akola, Maharashtra 444003","Akot Fail, Jafrabad","Aurangzeb colony,1600 plot",Akola,444003,Maharashtra,IN,https://www.google.com/maps/place/Masjid+E+Mushtaq+husain/data=!4m7!3m6!1s0x3bd7314e84d1057b:0xa463a603c228c709!8m2!3d20.731043!4d76.998873!16s%2Fg%2F11pf1_psjg!19sChIJewXRhE4x1zsRCccowgOmY6Q?authuser=0&hl=en&rclk=1,"20.731043,76.998873"
Mogal plots Masjid,Mosque,"MXXP+G95 Mogal plots Masjid, Unnamed Road, Shivsena Nagar, Akola, Maharashtra 444002",Shivsena Nagar,"MXXP+G95, Unnamed Road",Akola,444002,Maharashtra,IN,https://www.google.com/maps/place/Mogal+plots+Masjid/data=!4m7!3m6!1s0x3bd731785533135f:0x452424091e0d5be1!8m2!3d20.6987586!4d76.9859901!16s%2Fg%2F11fn9q8b3s!19sChIJXxMzVXgx1zsR4VsNHgkkJEU?authuser=0&hl=en&rclk=1,"20.698758599999998,76.9859901"
Masjid Aneesul Islam (Dawateislami India),Mosque,"PX3P+2HR Masjid Aneesul Islam (Dawateislami India), Khwaja Nagar, Sontakke Plot, Old City, Akola, Maharashtra 444002",Old City,"PX3P+2HR, Khwaja Nagar, Sontakke Plot",Akola,444002,Maharashtra,IN,https://www.google.com/maps/place/Masjid+Aneesul+Islam+%28Dawateislami+India%29/data=!4m7!3m6!1s0x3bd7319997122589:0xe8b5125c96337bcd!8m2!3d20.7026141!4d76.9863789!16s%2Fg%2F11r8nlvvx3!19sChIJiSUSl5kx1zsRzXszllwSteg?authuser=0&hl=en&rclk=1,"20.702614099999998,76.98637889999999"
Mohammadiya Masjid and Madarsah,Mosque,"MXWM+HHR Mohammadiya Masjid and Madarsah, Nafees Bagh, Dahigaon Gawande, Akola, Maharashtra 444002","Nafees Bagh, Dahigaon Gawande",MXWM+HHR,Akola,444002,Maharashtra,IN,https://www.google.com/maps/place/Mohammadiya+Masjid+and+Madarsah/data=!4m7!3m6!1s0x3bd7311bd669fc0f:0xb3f1a99d5071e884!8m2!3d20.696499!4d76.9838988!16s%2Fg%2F11q947xnkh!19sChIJD_xp1hsx1zsRhOhxUJ2p8bM?authuser=0&hl=en&rclk=1,"20.696499,76.98389879999999"
Hanifa kulsum Masjid Dawateislami,Mosque,"Hanifa kulsum Masjid Dawateislami, NH161, Nafees Bagh, Dahigaon Gawande, Akola, Maharashtra 444002","Nafees Bagh, Dahigaon Gawande",NH161,Akola,444002,Maharashtra,IN,https://www.google.com/maps/place/Hanifa+kulsum+Masjid+Dawateislami/data=!4m7!3m6!1s0x3bd731d483a94923:0xc9075e9aa38f4aff!8m2!3d20.6935224!4d76.9848666!16s%2Fg%2F11hzxv7_99!19sChIJI0mpg9Qx1zsR_0qPo5peB8k?authuser=0&hl=en&rclk=1,"20.6935224,76.98486659999999"
Noorani Jama Masjid Saiyed Pura,Mosque,"M3P2+4C9 Noorani Jama Masjid Saiyed Pura, Akola New Bypass, Midc Phase 2, MIDC, Akola, Maharashtra 444104","Midc Phase 2, MIDC","M3P2+4C9, Akola New Bypass",Akola,444104,Maharashtra,IN,https://www.google.com/maps/place/Noorani+Jama+Masjid+Saiyed+Pura/data=!4m7!3m6!1s0x3bd72d801f40f5bf:0x49c57926fd8beb02!8m2!3d20.6865679!4d77.0480948!16s%2Fg%2F11mn1jm28t!19sChIJv_VAH4At1zsRAuuL_SZ5xUk?authuser=0&hl=en&rclk=1,"20.6865679,77.0480948"
"Ahmadi Madrsa, ahmdii mdrsaa",Mosque,"PX8R+WF3 Ahmadi Madrsa, ahmdii mdrsaa, New, Baid Pura, Akola, Maharashtra 444001",Baid Pura,"PX8R+WF3, New",Akola,444001,Maharashtra,IN,"https://www.google.com/maps/place/Ahmadi+Madrsa,+%E0%A4%85%E0%A4%B9%E0%A4%AE%E0%A4%A6%E0%A5%80+%E0%A4%AE%E0%A4%A6%E0%A4%B0%E0%A4%B8%E0%A4%BE/data=!4m7!3m6!1s0x3bd7318a15f7fca7:0xebd2725832951828!8m2!3d20.7172611!4d76.991173!16s%2Fg%2F11mqv_xd_4!19sChIJp_z3FYox1zsRKBiVMlhy0us?authuser=0&hl=en&rclk=1","20.717261099999998,76.991173"
Azad Colony Masjid,Mosque,"M2M7+GVW Azad Colony Masjid, Kapila Nagar, Akola, Maharashtra 444001",Kapila Nagar,M2M7+GVW,Akola,444001,Maharashtra,IN,https://www.google.com/maps/place/Azad+Colony+Masjid/data=!4m7!3m6!1s0x3bd72d907c638b7f:0xfdecb6ea56f1bcab!8m2!3d20.6838594!4d77.0147046!16s%2Fg%2F11kjd181cr!19sChIJf4tjfJAt1zsRq7zxVuq27P0?authuser=0&hl=en&rclk=1,"20.6838594,77.0147046"
Furqaniya Masjid Ahle Sunnat Wal Jama'at,Mosque,"Furqaniya Masjid Ahle Sunnat Wal Jama'at, Mohata, Mahta Mill Rd, Bhawani Peth, Akola, Maharashtra 444001",Bhawani Peth,"Mohata, Mahta Mill Rd",Akola,444001,Maharashtra,IN,https://www.google.com/maps/place/Furqaniya+Masjid+Ahle+Sunnat+Wal+Jama%27at/data=!4m7!3m6!1s0x3bd73129b781edcd:0x464b611711afe22!8m2!3d20.718649!4d76.9894022!16s%2Fg%2F11hz7d1c_8!19sChIJze2Btykx1zsRIv4acRG2ZAQ?authuser=0&hl=en&rclk=1,"20.718649,76.9894022"
MASJID E ASHABE SUFFAH,Mosque,"PX8J+JG8 MASJID E ASHABE SUFFAH, Zulfikar Kabrastan, Old City, Akola, Maharashtra 444002","Zulfikar Kabrastan, Old City",PX8J+JG8,Akola,444002,Maharashtra,IN,https://www.google.com/maps/place/MASJID+E+ASHABE+SUFFAH/data=!4m7!3m6!1s0x3bd731ccf443e945:0x77b3b55dec31908!8m2!3d20.716548!4d76.9813306!16s%2Fg%2F11fk1dkhjm!19sChIJRelD9Mwx1zsRCBnD3lU7ewc?authuser=0&hl=en&rclk=1,"20.716548,76.98133059999999"
Masjid e jafrabad,Mosque,"P2P3+HF6 Masjid e jafrabad, Akot Fail, Jafrabad, Akola, Maharashtra 444006","Akot Fail, Jafrabad",P2P3+HF6,Akola,444006,Maharashtra,IN,https://www.google.com/maps/place/Masjid+e+jafrabad/data=!4m7!3m6!1s0x3bd731492b900693:0x7e51cff3675ee48b!8m2!3d20.7364288!4d77.0036345!16s%2Fg%2F11sj3px6tz!19sChIJkwaQK0kx1zsRi-ReZ_PPUX4?authuser=0&hl=en&rclk=1,"20.7364288,77.00363449999999"
Masjid E Noor,Mosque,"P2Q4+QC6 Masjid E Noor, Jafrabad, Akola, Maharashtra 444003",Jafrabad,P2Q4+QC6,Akola,444003,Maharashtra,IN,https://www.google.com/maps/place/Masjid+E+Noor/data=!4m7!3m6!1s0x3bd731d7d778bb1b:0x57de134606fed959!8m2!3d20.739416!4d77.0060194!16s%2Fg%2F11kjlqvs3c!19sChIJG7t419cx1zsRWdn-BkYT3lc?authuser=0&hl=en&rclk=1,"20.739416,77.0060194"
Mahmoodiya masjid,Mosque,"PXHQ+2VV Mahmoodiya masjid, Maheboob Nagar, Akot Fail, Jafrabad, Naigaon, Akola, Maharashtra 444003","Maheboob Nagar, Akot Fail, Jafrabad",PXHQ+2VV,"Naigaon, Akola",444003,Maharashtra,IN,https://www.google.com/maps/place/Mahmoodiya+masjid/data=!4m7!3m6!1s0x3bd731b0a7769c0d:0xbdc7687af6874996!8m2!3d20.7276073!4d76.9896823!16s%2Fg%2F11r9b4ckwv!19sChIJDZx2p7Ax1zsRlkmH9npox70?authuser=0&hl=en&rclk=1,"20.7276073,76.9896823"
rDy llh t`ly `nh Sunni Masjide Ali,Mosque,"P2M2+XW2 rDy llh t`ly `nh Sunni Masjide Ali, Unnamed Road, Akot Fail, Jafrabad, Akola, Maharashtra 444006","Akot Fail, Jafrabad","P2M2+XW2, Unnamed Road",Akola,444006,Maharashtra,IN,https://www.google.com/maps/place/%D8%B1%D8%B6%DB%8C+%D8%A7%D9%84%D9%84%DB%81+%D8%AA%D8%B9%D8%A7%D9%84%D9%B0%DB%8C+%D8%B9%D9%86%DB%81+Sunni+Masjide+Ali%E2%80%AD/data=!4m7!3m6!1s0x3bd731234e40df6f:0xb3e290408c19a493!8m2!3d20.7348757!4d77.0022549!16s%2Fg%2F11m7qnms_h!19sChIJb99ATiMx1zsRk6QZjECQ4rM?authuser=0&hl=en&rclk=1,"20.7348757,77.0022549"
MASJIDE SHAFIYA,Mosque,"PXMX+XM2 MASJIDE SHAFIYA, Akot Fail, Jafrabad, Akola, Maharashtra 444006","Akot Fail, Jafrabad",PXMX+XM2,Akola,,Maharashtra,IN,https://www.google.com/maps/place/MASJIDE+SHAFIYA/data=!4m7!3m6!1s0x3bd731e3ef3be1e3:0xa04a7c7454bbb2fd!8m2!3d20.7348836!4d76.9991549!16s%2Fg%2F11ssfccg97!19sChIJ4-E77-Mx1zsR_bK7VHR8SqA?authuser=0&hl=en&rclk=1,"20.7348836,76.9991549"
Qadriya Masjid Wa Madarsa,Mosque,"P2H2+7J5 Qadriya Masjid Wa Madarsa, Akot Fail, Jafrabad, Naigaon, Akola, Maharashtra 444003","Akot Fail, Jafrabad",P2H2+7J5,"Naigaon, Akola",,Maharashtra,IN,https://www.google.com/maps/place/Qadriya+Masjid+Wa+Madarsa/data=!4m7!3m6!1s0x3bd7317687df4a7b:0x88ca2f6e29ff32de!8m2!3d20.7281498!4d77.0016192!16s%2Fg%2F11vjg03rj2!19sChIJe0rfh3Yx1zsR3jL_KW4vyog?authuser=0&hl=en&rclk=1,"20.7281498,77.0016192"
msjd `mr,Mosque,"PXGX+XWX msjd `mr, Maulana Abul Kalam Azad Rd, Akot Fail, Jafrabad, Akola, Maharashtra 444003","Akot Fail, Jafrabad","PXGX+XWX, Maulana Abul Kalam Azad Rd",Akola,444003,Maharashtra,IN,https://www.google.com/maps/place/%D9%85%D8%B3%D8%AC%D8%AF+%D8%B9%D9%85%D8%B1%E2%80%AD/data=!4m7!3m6!1s0x3bd731b135067b87:0x199be641a056ce53!8m2!3d20.7274806!4d76.9998644!16s%2Fg%2F11j68ldqpm!19sChIJh3sGNbEx1zsRU85WoEHmmxk?authuser=0&hl=en&rclk=1,"20.7274806,76.99986439999999"
Mobin,Mosque,"PX8Q+HF8 Mobin, Bhawani Peth, Akola, Maharashtra 444001",Bhawani Peth,PX8Q+HF8,Akola,444001,Maharashtra,IN,https://www.google.com/maps/place/Mobin/data=!4m7!3m6!1s0x3bd7316995477f55:0xdd35c0bdc0e50880!8m2!3d20.7164097!4d76.9886976!16s%2Fg%2F11pysmyy2q!19sChIJVX9HlWkx1zsRgAjlwL3ANd0?authuser=0&hl=en&rclk=1,"20.7164097,76.9886976"
MASJIDE ADAM,Mosque,"PXMX+X2 MASJIDE ADAM, Akot Fail, Jafrabad, Akola, Maharashtra 444006","Akot Fail, Jafrabad",PXMX+X2,Akola,444006,Maharashtra,IN,https://www.google.com/maps/place/MASJIDE+ADAM/data=!4m7!3m6!1s0x3bd731302dafac9d:0xf0a63fc5217bbf3e!8m2!3d20.7349092!4d76.9976605!16s%2Fg%2F11vc5gq27n!19sChIJnayvLTAx1zsRPr97IcU_pvA?authuser=0&hl=en&rclk=1,"20.7349092,76.9976605"
Choti Masjid,Mosque,"PX6X+HPJ Choti Masjid, Mominpura, Akola, Maharashtra 444001",Mominpura,PX6X+HPJ,Akola,444001,Maharashtra,IN,https://www.google.com/maps/place/Choti+Masjid/data=!4m7!3m6!1s0x3bd73106b253d051:0x4f2156b64bbd23a2!8m2!3d20.7114338!4d76.9991948!16s%2Fg%2F11shnznbc7!19sChIJUdBTsgYx1zsRoiO9S7ZWIU8?authuser=0&hl=en&rclk=1,"20.7114338,76.9991948"
Faizane raza Masjid,Mosque,"M2Q3+C45 Faizane raza Masjid, Sindhi Colony, Akola, Maharashtra 444001",Sindhi Colony,M2Q3+C45,Akola,444001,Maharashtra,IN,https://www.google.com/maps/place/Faizane+raza+Masjid/data=!4m7!3m6!1s0x3bd733ce24b37c41:0x6e3fde75253e1b72!8m2!3d20.688521!4d77.0028607!16s%2Fg%2F11qgjlycxx!19sChIJQXyzJM4z1zsRchs-JXXeP24?authuser=0&hl=en&rclk=1,"20.688520999999998,77.0028607"
Nagina Masjid,Mosque,"PX7X+H3V Nagina Masjid, Mominpura, Akola, Maharashtra 444001",Mominpura,PX7X+H3V,Akola,444001,Maharashtra,IN,https://www.google.com/maps/place/Nagina+Masjid/data=!4m7!3m6!1s0x3bd731e86bdc0001:0xa88047c8ab146931!8m2!3d20.7139767!4d76.9976745!16s%2Fg%2F11sscscgvv!19sChIJAQDca-gx1zsRMWkUq8hHgKg?authuser=0&hl=en&rclk=1,"20.7139767,76.9976745"
Madina Masjid,Mosque,"PXRV+JPG Madina Masjid, Shiloda, Akola, Maharashtra 444006",Shiloda,PXRV+JPG,Akola,444006,Maharashtra,IN,https://www.google.com/maps/place/Madina+Masjid/data=!4m7!3m6!1s0x3bd7317a478cbe2f:0xeb4930a7f44a97ab!8m2!3d20.7415563!4d76.9943256!16s%2Fg%2F11sgw0jpkt!19sChIJL76MR3ox1zsRq5dK9KcwSes?authuser=0&hl=en&rclk=1,"20.7415563,76.9943256"
Masjid e naz,Mosque,"PXPX+Q3X Masjid e naz, Akot Fail, Jafrabad, Akola, Maharashtra 444006","Akot Fail, Jafrabad",PXPX+Q3X,Akola,444006,Maharashtra,IN,https://www.google.com/maps/place/Masjid+e+naz/data=!4m7!3m6!1s0x3bd7318523db1319:0x5229ab36f4e3509e!8m2!3d20.7370136!4d76.9976907!16s%2Fg%2F11kskvtq5q!19sChIJGRPbI4Ux1zsRnlDj9DarKVI?authuser=0&hl=en&rclk=1,"20.737013599999997,76.99769069999999"
Masjid,Mosque,"PXRV+PJQ Masjid, Unnamed Road, Shiloda, Akola, Maharashtra 444006",Shiloda,"PXRV+PJQ, Unnamed Road",Akola,444006,Maharashtra,IN,https://www.google.com/maps/place/Masjid/data=!4m7!3m6!1s0x3bd73135d8da1697:0xa838597c3a4725f0!8m2!3d20.7414202!4d76.9945167!16s%2Fg%2F11jzwmbqn7!19sChIJlxba2DUx1zsR8CVHOnxZOKg?authuser=0&hl=en&rclk=1,"20.7414202,76.99451669999999"
Memon Jamat Khana Masjid,Mosque,"PX7X+8PW Memon Jamat Khana Masjid, Teli pura in front, Shahjahan Rd, Khangar Pura, Mominpura, Akola, Maharashtra 444001","Khangar Pura, Mominpura","PX7X+8PW Teli pura in front, Shahjahan Rd",Akola,444001,Maharashtra,IN,https://www.google.com/maps/place/Memon+Jamat+Khana+Masjid/data=!4m7!3m6!1s0x3bd7315370dc16d5:0xbd33a2378d380f94!8m2!3d20.7133286!4d76.9993825!16s%2Fg%2F11s8hs48py!19sChIJ1RbccFMx1zsRlA84jTeiM70?authuser=0&hl=en&rclk=1,"20.7133286,76.9993825"
Masjid E Salam,Mosque,"Masjid E Salam, Shiloda Rd, Salam Nagar, Akot Fail, Jafrabad, Akola, Maharashtra 444006","Salam Nagar, Akot Fail, Jafrabad",Shiloda Rd,Akola,444006,Maharashtra,IN,https://www.google.com/maps/place/Masjid+E+Salam/data=!4m7!3m6!1s0x3bd73117c22c0d77:0x81926bfdb84c2c7!8m2!3d20.7360689!4d76.9999224!16s%2Fg%2F11scjq3ld5!19sChIJdw0swhcx1zsRx8KE278mGQg?authuser=0&hl=en&rclk=1,"20.7360689,76.9999224"
MASJID E GAREEB NAWAZ,Mosque,"PXJX+P8M MASJID E GAREEB NAWAZ, Akot Fail, Jafrabad, Akola, Maharashtra 444003","Akot Fail, Jafrabad",PXJX+P8M,Akola,444003,Maharashtra,IN,https://www.google.com/maps/place/MASJID+E+GAREEB+NAWAZ/data=!4m7!3m6!1s0x3bd7312f3011a653:0x8c50fec9f342b7c6!8m2!3d20.7318336!4d76.9983073!16s%2Fg%2F11ngfl97nb!19sChIJU6YRMC8x1zsRxrdC88n-UIw?authuser=0&hl=en&rclk=1,"20.731833599999998,76.9983073"
Haji Nagar Masjid,Mosque,"P2F2+Q6M Haji Nagar Masjid, Haji Nagar, Jafrabad, Akola, Maharashtra 444003","Haji Nagar, Jafrabad",P2F2+Q6M,Akola,444003,Maharashtra,IN,https://www.google.com/maps/place/Haji+Nagar+Masjid/data=!4m7!3m6!1s0x3bd731db1ecfffff:0x378885e131a6af4c!8m2!3d20.7244511!4d77.0005317!16s%2Fg%2F11sscsbgm4!19sChIJ___PHtsx1zsRTK-mMeGFiDc?authuser=0&hl=en&rclk=1,"20.7244511,77.0005317"
Ya-Allah(masjid firdouse),Mosque,"PX8V+P64 Ya-Allah(masjid firdouse), Firdous Colony, Bhawani Peth, Akola, Maharashtra 444001","Firdous Colony, Bhawani Peth",PX8V+P64,Akola,444001,Maharashtra,IN,https://www.google.com/maps/place/Ya-Allah%28masjid+firdouse%29/data=!4m7!3m6!1s0x3bd731d5463f234d:0x71e54d5fa60598e7!8m2!3d20.7167669!4d76.9930669!16s%2Fg%2F11vhfzmgvn!19sChIJTSM_RtUx1zsR55gFpl9N5XE?authuser=0&hl=en&rclk=1,"20.7167669,76.9930669"
Noon Nagar Masjid,Mosque,"PXFX+QQ2 Noon Nagar Masjid, Haji Nagar, Jafrabad, Akola, Maharashtra 444003","Haji Nagar, Jafrabad",PXFX+QQ2,Akola,444003,Maharashtra,IN,https://www.google.com/maps/place/Noon+Nagar+Masjid/data=!4m7!3m6!1s0x3bd73197db5486a7:0x94132ba353160bbd!8m2!3d20.7243874!4d76.9993872!16s%2Fg%2F11jr0ghv3f!19sChIJp4ZU25cx1zsRvQsWU6MrE5Q?authuser=0&hl=en&rclk=1,"20.724387399999998,76.9993872"
CHARMINAR MASJID,Mosque,"PX6V+PG8 CHARMINAR MASJID, Malipura, ACHALPUR, Akola, Maharashtra 444001",Malipura,PX6V+PG8,"ACHALPUR, Akola",,Maharashtra,IN,https://www.google.com/maps/place/CHARMINAR+MASJID/data=!4m7!3m6!1s0x3bd731e9e2966887:0xdaf0ea83c4cfea11!8m2!3d20.7117872!4d76.9938139!16s%2Fg%2F11jm46xv5x!19sChIJh2iW4ukx1zsREerPxIPq8No?authuser=0&hl=en&rclk=1,"20.7117872,76.99381389999999"
Masjid-E-Noora,Mosque,"P2Q3+FF4 Masjid-E-Noora, MH SH 204, Akot Fail, Jafrabad, Akola, Maharashtra 444006","Akot Fail, Jafrabad","P2Q3+FF4, MH SH 204",Akola,444006,Maharashtra,IN,https://www.google.com/maps/place/Masjid-E-Noora/data=!4m7!3m6!1s0x3bd731a0df1bdd63:0x935e5480055d3b6e!8m2!3d20.7387502!4d77.0035891!16s%2Fg%2F11txzcmw58!19sChIJY90b36Ax1zsRbjtdBYBUXpM?authuser=0&hl=en&rclk=1,"20.7387502,77.0035891"
Faridiya masjid,Mosque,"PXGR+5HC Faridiya masjid, farid nagar, Akot Fail, Jafrabad, Naigaon, Akola, Maharashtra 444003","farid nagar, Akot Fail, Jafrabad",PXGR+5HC,"Naigaon, Akola",444003,Maharashtra,IN,https://www.google.com/maps/place/Faridiya+masjid/data=!4m7!3m6!1s0x3bd731532c5ec3a1:0x18ab528aa7159dc3!8m2!3d20.7254375!4d76.9913906!16s%2Fg%2F11nmqpt7wt!19sChIJocNeLFMx1zsRw50Vp4pSqxg?authuser=0&hl=en&rclk=1,"20.725437499999998,76.9913906"
Noor UL huda Masjid,Mosque,"Noor UL huda Masjid, Haji Maddey Khan Masjid, Midc Phase 2, MIDC, Akola, Maharashtra 444104","Midc Phase 2, MIDC",Haji Maddey Khan Masjid,Akola,444104,Maharashtra,IN,https://www.google.com/maps/place/Noor+UL+huda+Masjid/data=!4m7!3m6!1s0x3bd72d4919a669d9:0xa122fc1c5b799c6e!8m2!3d20.687077!4d77.0463108!16s%2Fg%2F11nxr62ggd!19sChIJ2WmmGUkt1zsRbpx5Wxz8IqE?authuser=0&hl=en&rclk=1,"20.687077,77.0463108"
Saiyyad pura Noorani jama masjid,Mosque,"M3G3+FCG Saiyyad pura Noorani jama masjid, Midc Phase 3 and 4, MIDC, Shivani, Akola, Maharashtra 444104","Midc Phase 3 and 4, MIDC",M3G3+FCG,"Shivani, Akola",,Maharashtra,IN,https://www.google.com/maps/place/Saiyyad+pura+Noorani+jama+masjid/data=!4m7!3m6!1s0x3bd72d0e68834609:0xc1c8f1e895c12727!8m2!3d20.6761791!4d77.053568!16s%2Fg%2F11rvlqjtpj!19sChIJCUaDaA4t1zsRJyfBlejxyME?authuser=0&hl=en&rclk=1,"20.6761791,77.053568"
Haji Maddey Khan Masjid,Mosque,"M2PW+RGM Haji Maddey Khan Masjid, Midc Phase 2, MIDC, Akola, Maharashtra 444104","Midc Phase 2, MIDC",M2PW+RGM,Akola,444104,Maharashtra,IN,https://www.google.com/maps/place/Haji+Maddey+Khan+Masjid/data=!4m7!3m6!1s0x3bd72dd05e400001:0x99074cf1db18556!8m2!3d20.6870616!4d77.0464619!16s%2Fg%2F11sscs5crp!19sChIJAQBAXtAt1zsRVoWxHc90kAk?authuser=0&hl=en&rclk=1,"20.6870616,77.0464619"
Masjid e Umar,Mosque,"PXGX+XXR Masjid e Umar, Haji Nagar, Jafrabad, Akola, Maharashtra 444003","Haji Nagar, Jafrabad",PXGX+XXR,Akola,444003,Maharashtra,IN,https://www.google.com/maps/place/Masjid+e+Umar/data=!4m7!3m6!1s0x3bd7314de9a7e875:0x76c33a89ebe1832!8m2!3d20.7274765!4d76.9998861!16s%2Fg%2F11h8b2ycwt!19sChIJdein6U0x1zsRMhi-nqgzbAc?authuser=0&hl=en&rclk=1,"20.727476499999998,76.9998861"
MASJID E MANZAR RABBANI Register No-MSBW/AKL/90/2023,Mosque,"M3M2+RMV MASJID E MANZAR RABBANI Register No-MSBW/AKL/90/2023, Midc Phase 2, MIDC, Akola, Maharashtra 444104","Midc Phase 2, MIDC",M3M2+RMV,Akola,,Maharashtra,IN,https://www.google.com/maps/place/MASJID+E+MANZAR+RABBANI+Register+No-MSBW%2FAKL%2F90%2F2023/data=!4m7!3m6!1s0x3bd72d3c4c2cac21:0x228428e0cc186ede!8m2!3d20.6846185!4d77.0516581!16s%2Fg%2F11svw9l049!19sChIJIawsTDwt1zsR3m4YzOAohCI?authuser=0&hl=en&rclk=1,"20.6846185,77.0516581"
Madarsa Husainia,Mosque,"MXQP+98P Madarsa Husainia, MH SH 204, Nafees Bagh, Dahigaon Gawande, Akola, Maharashtra 444002","Nafees Bagh, Dahigaon Gawande","MXQP+98P, MH SH 204",Akola,444002,Maharashtra,IN,https://www.google.com/maps/place/Madarsa+Husainia/data=!4m7!3m6!1s0x3bd73221b53fffff:0xedaa5a859ce6ec5d!8m2!3d20.6884708!4d76.9858177!16s%2Fg%2F11sscs3dtc!19sChIJ__8_tSEy1zsRXezmnIVaqu0?authuser=0&hl=en&rclk=1,"20.688470799999997,76.9858177"
KGN CHOWK,Mosque,"KGN CHOWK, New Tar Fail, Siddhartha Nagar, Bhawani Peth, Akola, Maharashtra 444003","Siddhartha Nagar, Bhawani Peth",New Tar Fail,Akola,,Maharashtra,IN,https://www.google.com/maps/place/KGN+CHOWK/data=!4m7!3m6!1s0x3bd731224a0ddccd:0xe9dd0e5d42423ff6!8m2!3d20.7233895!4d76.9947739!16s%2Fg%2F11qh67yxms!19sChIJzdwNSiIx1zsR9j9CQl0O3ek?authuser=0&hl=en&rclk=1,"20.7233895,76.9947739"
