name,main_category,address,address_ward,address_street,address_city,address_postal_code,address_state,address_country_code,link,coordinates
Jama Masjid,Mosque,"Jama Masjid, Old Delhi, Delhi, 110006","Jama Masjid, Old Delhi",,Delhi,110006,Delhi,IN,https://www.google.com/maps/place/Jama+Masjid/data=!4m7!3m6!1s0x390cfd18df89b215:0xdd57369e29bf9d96!8m2!3d28.6506792!4d77.2334421!16zL20vMDR5emo1!19sChIJFbKJ3xj9DDkRlp2_KZ42V90?authuser=0&hl=en&rclk=1,"28.6506792,77.23344209999999"
Jama masjid in ranghadpura,Mosque,"Jama masjid in ranghadpura, 22 12, Muazzampur Narayan, Uttar Pradesh 246731",,22 12,"Muazzampur Narayan, Raipur Mauzampur Narayan",246731,Uttar Pradesh,IN,https://www.google.com/maps/place/Jama+masjid+in+ranghadpura/data=!4m7!3m6!1s0x390be1e5f94b9bb9:0xf7fdda75ab0e1014!8m2!3d29.5696718!4d78.2331681!16s%2Fg%2F11ht2br140!19sChIJuZtL-eXhCzkRFBAOq3Xa_fc?authuser=0&hl=en&rclk=1,"29.5696718,78.2331681"
Taj masjid,Mosque,"FR3G+RMQ Taj masjid, Tajpur, Uttar Pradesh 203001",,FR3G+RMQ,Tajpur,203001,Uttar Pradesh,IN,https://www.google.com/maps/place/Taj+masjid/data=!4m7!3m6!1s0x390ca39c5e10b213:0x8b3749c11061ef6c!8m2!3d28.4545849!4d77.8267218!16s%2Fg%2F11v3h3487c!19sChIJE7IQXpyjDDkRbO9hEMFJN4s?authuser=0&hl=en&rclk=1,"28.4545849,77.8267218"
Chhoti Masjid,Mosque,"F8X2+RV3 Chhoti Masjid, New, Badarpur Village, Badarpur, New Delhi, Delhi 110044","Badarpur Village, Badarpur","F8X2+RV3, New",New Delhi,110044,Delhi,IN,https://www.google.com/maps/place/Chhoti+Masjid/data=!4m7!3m6!1s0x390ce6dbdf93947b:0x26ffde7c3b753531!8m2!3d28.4995221!4d77.3021811!16s%2Fg%2F11d_tp51yw!19sChIJe5ST39vmDDkRMTV1O3ze_yY?authuser=0&hl=en&rclk=1,"28.4995221,77.3021811"
Jama Masjid Dariyapur.,Mosque,"CRF2+49H Jama Masjid Dariyapur., Dariyapur, Uttar Pradesh 203001",,CRF2+49H,Dariyapur,203001,Uttar Pradesh,IN,https://www.google.com/maps/place/Jama+Masjid+Dariyapur./data=!4m7!3m6!1s0x390ca39838635959:0x8f7ea45f62c570e9!8m2!3d28.4228149!4d77.8009956!16s%2Fg%2F11c60mhwqw!19sChIJWVljOJijDDkR6XDFYl-kfo8?authuser=0&hl=en&rclk=1,"28.4228149,77.8009956"
Khan Wali Masjid,Mosque,"F8W4+5WH Khan Wali Masjid, Block A, Budh Vihar Rd, Mohan Baba Nagar, Tajpur Pahari Village, Badarpur, New Delhi, Delhi 110044","Mohan Baba Nagar, Tajpur Pahari Village, Badarpur","F8W4+5WH, Block A, Budh Vihar Rd",New Delhi,110044,Delhi,IN,https://www.google.com/maps/place/Khan+Wali+Masjid/data=!4m7!3m6!1s0x390ce6df96e26425:0xd93b4e574216e193!8m2!3d28.4954259!4d77.3073575!16s%2Fg%2F11gdkqgk_w!19sChIJJWTilt_mDDkRk-EWQldOO9k?authuser=0&hl=en&rclk=1,"28.495425899999997,77.3073575"
Imdadiya Masjid Ekta Vihar Dhoraha Moradabad,Mosque,"Imdadiya Masjid Ekta Vihar Dhoraha Moradabad, 244104, Rampur Rd, Ekta Vihar East, Tajpur Mafi, Uttar Pradesh 244902",Ekta Vihar East,"244104, Rampur Rd","Tajpur Mafi, Barwara Mazra",244902,Uttar Pradesh,IN,https://www.google.com/maps/place/Imdadiya+Masjid+Ekta+Vihar+Dhoraha+Moradabad/data=!4m7!3m6!1s0x390afa0cf920630d:0xd8cb7e7ce70f2804!8m2!3d28.8401821!4d78.8306471!16s%2Fg%2F11fxxsw512!19sChIJDWMg-Qz6CjkRBCgP53x-y9g?authuser=0&hl=en&rclk=1,"28.8401821,78.8306471"
Gausiya Masjid,Mosque,"Gausiya Masjid, 122, Gali No. 10, New Seelampur, Jafrabad, Shahdara, Delhi, 110053","New Seelampur, Jafrabad, Shahdara","122, Gali No. 10",Delhi,110053,Delhi,IN,https://www.google.com/maps/place/Gausiya+Masjid/data=!4m7!3m6!1s0x390cfc63ceb84969:0x52a9b75ed1d9025e!8m2!3d28.6775577!4d77.2702337!16s%2Fg%2F11c74cy737!19sChIJaUm4zmP8DDkRXgLZ0V63qVI?authuser=0&hl=en&rclk=1,"28.677557699999998,77.27023369999999"
KHAJOORI MASJID (Sunni Barelvi) msjd khhjwry,Mosque,"G86M+MV4 KHAJOORI MASJID (Sunni Barelvi) msjd khhjwry, Block G, Jaitpur Extension Part II, Khadda Colony, Jaitpur, New Delhi, Delhi 110044","Block G, Jaitpur Extension Part II, Khadda Colony, Jaitpur",G86M+MV4,New Delhi,110044,Delhi,IN,https://www.google.com/maps/place/KHAJOORI+MASJID+%28Sunni+Barelvi%29+%D9%85%D8%B3%D8%AC%D8%AF+%DA%A9%DA%BE%D8%AC%D9%88%D8%B1%DB%8C%E2%80%AD/data=!4m7!3m6!1s0x390ce70cdee4d035:0x46eb323a34688dd0!8m2!3d28.5116432!4d77.3346969!16s%2Fg%2F11fl7bh0wg!19sChIJNdDk3gznDDkR0I1oNDoy60Y?authuser=0&hl=en&rclk=1,"28.511643199999998,77.3346969"
Mohammadi Masjid,Mosque,"Mohammadi Masjid, block - c , gali no. 12 , shiv vihar part 2, Ismailpur Rd, Ekta Vihar, Basantpur, Faridabad, Delhi 121003","Ekta Vihar, Basantpur","block - c , gali no. 12 , shiv vihar part 2, Ismailpur Rd","Faridabad, New Delhi",121003,Delhi,IN,https://www.google.com/maps/place/Mohammadi+Masjid/data=!4m7!3m6!1s0x390ce65691d77451:0x37e5a2edf0d4bd81!8m2!3d28.5035617!4d77.3360423!16s%2Fg%2F12hmr57km!19sChIJUXTXkVbmDDkRgb3U8O2i5Tc?authuser=0&hl=en&rclk=1,"28.5035617,77.3360423"
Fatehpuri Masjid,Mosque,"F836+677 Fatehpuri Masjid, Pansariyan, Shamli, Uttar Pradesh 247776",Pansariyan,F836+677,Shamli,247776,Uttar Pradesh,IN,https://www.google.com/maps/place/Fatehpuri+Masjid/data=!4m7!3m6!1s0x390c2eca61a5c403:0xbbc1f1a2231911f3!8m2!3d29.4530346!4d77.310666!16s%2Fg%2F11c6mfcgg5!19sChIJA8SlYcouDDkR8xEZI6Lxwbs?authuser=0&hl=en&rclk=1,"29.4530346,77.310666"
Jama Masjid Agwanpur,Mosque,"Jama Masjid Agwanpur, Agwanpur Rd, Parikshitgarh, Agwanpur, Uttar Pradesh 250406",,Agwanpur Rd,"Parikshitgarh, Agwanpur",250406,Uttar Pradesh,IN,https://www.google.com/maps/place/Jama+Masjid+Agwanpur/data=!4m7!3m6!1s0x390b86952f8ae995:0x4b56dd870debdf39!8m2!3d28.9961424!4d77.9974107!16s%2Fg%2F11f3b2cbbl!19sChIJlemKL5WGCzkROd_rDYfdVks?authuser=0&hl=en&rclk=1,"28.9961424,77.9974107"
Jamal Shahi Masjid,Mosque,"6H5J+7CF Jamal Shahi Masjid, Chak Mahmudsani, Uttar Pradesh 246746",,6H5J+7CF,Chak Mahmudsani,246746,Uttar Pradesh,IN,https://www.google.com/maps/place/Jamal+Shahi+Masjid/data=!4m7!3m6!1s0x390bb409a59c9b59:0x69060bd462607e7c!8m2!3d29.2081888!4d78.5810416!16s%2Fg%2F11dz5c9j0z!19sChIJWZucpQm0CzkRfH5gYtQLBmk?authuser=0&hl=en&rclk=1,"29.2081888,78.58104159999999"
Jama Masjid,Mosque,"5F7M+GXV Jama Masjid, Raja Ka Tajpur, Uttar Pradesh 246735",,5F7M+GXV,Raja Ka Tajpur,246735,Uttar Pradesh,IN,https://www.google.com/maps/place/Jama+Masjid/data=!4m7!3m6!1s0x390bb09ac89c7305:0xad9f287ed827d0e6!8m2!3d29.1638579!4d78.4849098!16s%2Fg%2F11f11l4yhr!19sChIJBXOcyJqwCzkR5tAn2H4on60?authuser=0&hl=en&rclk=1,"29.1638579,78.4849098"
Madeena Mosque,Mosque,"FJ7F+7J9 Madeena Mosque, Rajpura, Daularajpur, Uttar Pradesh 203202",,FJ7F+7J9,"Rajpura, Daularajpur",,Uttar Pradesh,IN,https://www.google.com/maps/place/Madeena+Mosque/data=!4m7!3m6!1s0x390cbe3b9cf35cc1:0xbc3ae2aacb45707b!8m2!3d28.4631583!4d77.6240949!16s%2Fg%2F11f53d0m43!19sChIJwVzznDu-DDkRe3BFy6riOrw?authuser=0&hl=en&rclk=1,"28.4631583,77.6240949"
Makka Masjid,Mosque,"34QF+HGV Makka Masjid, Gaddi Mimarpur, Pabnera, Haryana 131027",Gaddi Mimarpur,34QF+HGV,Pabnera,131027,Haryana,IN,https://www.google.com/maps/place/Makka+Masjid/data=!4m7!3m6!1s0x390db4136643c2c7:0xf151be56c2b8a8bc!8m2!3d29.0889903!4d77.1238018!16s%2Fg%2F11f3f_pmff!19sChIJx8JDZhO0DTkRvKi4wla-UfE?authuser=0&hl=en&rclk=1,"29.0889903,77.1238018"
Zama masjid,Mosque,"RQ63+H2W Zama masjid, Muzarrif Rd, Moradabad, Uttar Pradesh 244103",,"RQ63+H2W, Muzarrif Rd",Moradabad,,Uttar Pradesh,IN,https://www.google.com/maps/place/Zama+masjid/data=!4m7!3m6!1s0x390afb815cc113fd:0xacc65a0fde962c18!8m2!3d28.8114989!4d78.7525775!16s%2Fg%2F11f40ybvl_!19sChIJ_RPBXIH7CjkRGCyW3g9axqw?authuser=0&hl=en&rclk=1,"28.8114989,78.7525775"
jm` msjd rwnh shkhr pwr,Mosque,"4FPR+P7C jm` msjd rwnh shkhr pwr, Ravana Shikarpur, Uttar Pradesh 246745",,4FPR+P7C,Ravana Shikarpur,246745,Uttar Pradesh,IN,https://www.google.com/maps/place/%D8%AC%D8%A7%D9%85%D8%B9+%D9%85%D8%B3%D8%AC%D8%AF+%D8%B1%D9%88%D8%A7%D9%86%DB%81+%D8%B4%DA%A9%D8%A7%D8%B1+%D9%BE%D9%88%D8%B1%E2%80%AD/data=!4m7!3m6!1s0x390bb06ee97631a1:0x8241ee0feb0fc190!8m2!3d29.1368101!4d78.4906411!16s%2Fg%2F11dfsp0vhq!19sChIJoTF26W6wCzkRkMEP6w_uQYI?authuser=0&hl=en&rclk=1,"29.136810099999998,78.49064109999999"
Jama Masjid Noori,Mosque,"VPQC+5MC Jama Masjid Noori, Bijnor - Moradabad Rd, 23rd PAC, Moradabad, Uttar Pradesh 244001",23rd PAC,"VPQC+5MC, Bijnor - Moradabad Rd",Moradabad,244001,Uttar Pradesh,IN,https://www.google.com/maps/place/Jama+Masjid+Noori/data=!4m7!3m6!1s0x390affb9844cde47:0xafcac6eb0eafe7d2!8m2!3d28.8879405!4d78.7216436!16s%2Fg%2F11g0lbyk97!19sChIJR95MhLn_CjkR0uevDuvGyq8?authuser=0&hl=en&rclk=1,"28.8879405,78.7216436"
Jama Masjid,Mosque,"CW2J+CH2 Jama Masjid, Fatehabad Urf Julepura, Uttar Pradesh 203150",,CW2J+CH2,Fatehabad Urf Julepura,,Uttar Pradesh,IN,https://www.google.com/maps/place/Jama+Masjid/data=!4m7!3m6!1s0x390b58a636a035b9:0x440175c6f3d52cb5!8m2!3d28.401007!4d77.9313955!16s%2Fg%2F11f40p1lfr!19sChIJuTWgNqZYCzkRtSzV88Z1AUQ?authuser=0&hl=en&rclk=1,"28.401007,77.9313955"
Hajjin Masjid TajPur,Mosque,"VGJ9+3MH Hajjin Masjid TajPur, Tajpur, Uttar Pradesh 271865",,VGJ9+3MH,Tajpur,271865,Uttar Pradesh,IN,https://www.google.com/maps/place/Hajjin+Masjid+TajPur/data=!4m7!3m6!1s0x3998587427ca8e7f:0x82600d9b1c976f7a!8m2!3d27.8801949!4d81.5192372!16s%2Fg%2F11gf0_r_5p!19sChIJf47KJ3RYmDkRem-XHJsNYII?authuser=0&hl=en&rclk=1,"27.8801949,81.51923719999999"
Masjid Rasheed,Mosque,"8CQP+R72 Masjid Rasheed, Sedha, Uttar Pradesh 246733",,8CQP+R72,Sedha,246733,Uttar Pradesh,IN,https://www.google.com/maps/place/Masjid+Rasheed/data=!4m7!3m6!1s0x390bc650d3f6eac5:0xf8bc3a5cf93aff3a!8m2!3d29.3395011!4d78.4356526!16s%2Fg%2F1tm__lw9!19sChIJxer201DGCzkROv86-Vw6vPg?authuser=0&hl=en&rclk=1,"29.3395011,78.4356526"
SHAHI JAMA MASJID jm` msjd shhy,Mosque,"SHAHI JAMA MASJID jm` msjd shhy, 22, foot road, Shram Vihar, Pocket N, Madanpur Khadar, New Delhi, Delhi 110025","Shram Vihar, Pocket N, Madanpur Khadar","22, foot road",New Delhi,110025,Delhi,IN,https://www.google.com/maps/place/SHAHI+JAMA+MASJID+%D8%AC%D8%A7%D9%85%D8%B9+%D9%85%D8%B3%D8%AC%D8%AF+%D8%B4%D8%A7%DA%BE%DB%8C%E2%80%AD/data=!4m7!3m6!1s0x390ce5a36ba3a95d:0x7cb7c1435cda3fd2!8m2!3d28.5405938!4d77.3038368!16s%2Fg%2F11n733rllr!19sChIJXamja6PlDDkR0j_aXEPBt3w?authuser=0&hl=en&rclk=1,"28.5405938,77.3038368"
GARIB NAWAZ MASJID TAHARPUR,Mosque,"PPPM+Q73 GARIB NAWAZ MASJID TAHARPUR, Basera Rd, Near Rainawala Talab, Taharpur Ii, Takhatpur Allah Urf Nankar, Uttar Pradesh 244301",,"PPPM+Q73, Basera Rd, Near Rainawala Talab","Taharpur Ii, Takhatpur Allah Urf Nankar",244301,Uttar Pradesh,IN,https://www.google.com/maps/place/GARIB+NAWAZ+MASJID+TAHARPUR/data=!4m7!3m6!1s0x390ae3427c8a9edf:0x1b7cbe6a60d4260a!8m2!3d28.7368825!4d78.7331782!16s%2Fg%2F11f5hlbl92!19sChIJ356KfELjCjkRCibUYGq-fBs?authuser=0&hl=en&rclk=1,"28.7368825,78.7331782"
Masjid,Mosque,"3JHW+79H Masjid, Malpur Tatera Mustahkam, Nadayal, Uttar Pradesh 243638",,3JHW+79H,"Malpur Tatera Mustahkam, Nadayal",243638,Uttar Pradesh,IN,https://www.google.com/maps/place/Masjid/data=!4m7!3m6!1s0x3974d62351444a31:0xbad6f8a505425ac1!8m2!3d28.0781857!4d78.6459793!16s%2Fg%2F1hm22vqw4!19sChIJMUpEUSPWdDkRwVpCBaX41ro?authuser=0&hl=en&rclk=1,"28.0781857,78.6459793"
Jama Masjid,Mosque,"WR95+7P7 Jama Masjid, Rustampur Tigri, Uttar Pradesh 244402",,WR95+7P7,Rustampur Tigri,244402,Uttar Pradesh,IN,https://www.google.com/maps/place/Jama+Masjid/data=!4m7!3m6!1s0x390af9c8bce925bb:0xc74f278f8f4f8169!8m2!3d28.9181696!4d78.8092913!16s%2Fg%2F11gy1zlt7v!19sChIJuyXpvMj5CjkRaYFPj48nT8c?authuser=0&hl=en&rclk=1,"28.9181696,78.8092913"
Ek Minaar Kachchi Masjid,Mosque,"GR76+RVF Ek Minaar Kachchi Masjid, Asfabad Chandpura, Uttar Pradesh 203408",,GR76+RVF,Asfabad Chandpura,203408,Uttar Pradesh,IN,https://www.google.com/maps/place/Ek+Minaar+Kachchi+Masjid/data=!4m7!3m6!1s0x390c9895a391cc4d:0x9f4657269dc47c23!8m2!3d28.5145678!4d77.8121621!16s%2Fg%2F11dftp3x6x!19sChIJTcyRo5WYDDkRI3zEnSZXRp8?authuser=0&hl=en&rclk=1,"28.5145678,77.8121621"
khajoor vali masjid,Mosque,"PH6H+M3F khajoor vali masjid, Unnamed Road,, Muhiddinpur Dabarsi, Uttar Pradesh 245304",,"PH6H+M3F, Unnamed Road,",Muhiddinpur Dabarsi,245304,Uttar Pradesh,IN,https://www.google.com/maps/place/khajoor+vali+masjid/data=!4m7!3m6!1s0x390c8cdba022803d:0x3535205fb719ff45!8m2!3d28.7116991!4d77.5776692!16s%2Fg%2F11c54gjfbq!19sChIJPYAioNuMDDkRRf8Zt18gNTU?authuser=0&hl=en&rclk=1,"28.711699099999997,77.5776692"
Ismail Masjid,Mosque,"47FJ+JC5 Ismail Masjid, colony, Gowali Sadaat Road, Faizipur Kasba, Pheona, Uttar Pradesh 246725",,"47FJ+JC5, colony, Gowali Sadaat Road, Faizipur Kasba","Pheona, Faizipur Kasba",246725,Uttar Pradesh,IN,https://www.google.com/maps/place/Ismail+Masjid/data=!4m7!3m6!1s0x390b97cfc337d95f:0x3fa9421b1f5b9232!8m2!3d29.1240169!4d78.2811084!16s%2Fg%2F11bw6hlb1b!19sChIJX9k3w8-XCzkRMpJbHxtCqT8?authuser=0&hl=en&rclk=1,"29.124016899999997,78.2811084"
Masjid,Mosque,"RFW6+4GQ Masjid, Kumheda, Uttar Pradesh 201206",,RFW6+4GQ,Kumheda,201206,Uttar Pradesh,IN,https://www.google.com/maps/place/Masjid/data=!4m7!3m6!1s0x390c58b0e1125b4d:0xfd9e63316d494a36!8m2!3d28.8453408!4d77.4613748!16s%2Fg%2F11gclz8wp4!19sChIJTVsS4bBYDDkRNkpJbTFjnv0?authuser=0&hl=en&rclk=1,"28.8453408,77.4613748"
Masjid Haji Chowk,Mosque,"9XMF+XX6 Masjid Haji Chowk, Sangrampur Rd, Bavepur, Sangrampur, Uttar Pradesh 243632",,"9XMF+XX6, Sangrampur Rd","Bavepur, Sangrampur",243632,Uttar Pradesh,IN,https://www.google.com/maps/place/Masjid+Haji+Chowk/data=!4m7!3m6!1s0x390ac85f79c7cb7f:0x75e7afe97cd08a2a!8m2!3d28.3849151!4d78.9748852!16s%2Fg%2F11hc_0p_1p!19sChIJf8vHeV_ICjkRKorQfOmv53U?authuser=0&hl=en&rclk=1,"28.384915099999997,78.9748852"
Taz Masjid,Mosque,"WPW7+6QW Taz Masjid, Fakhruddin Ali Ahmed Nagar, Fatehullahpur, Guwahati, Meerut, Uttar Pradesh 250002","Fakhruddin Ali Ahmed Nagar, Fatehullahpur",WPW7+6QW,"Guwahati, Meerut",250002,Uttar Pradesh,IN,https://www.google.com/maps/place/Taz+Masjid/data=!4m7!3m6!1s0x390c649d8f76558b:0x81e84fdd0ed5a24c!8m2!3d28.9456212!4d77.7144642!16s%2Fg%2F11c37pvspy!19sChIJi1V2j51kDDkRTKLVDt1P6IE?authuser=0&hl=en&rclk=1,"28.945621199999998,77.7144642"
Masjid Umar,Mosque,"CR7M+CQ9 Masjid Umar, Delhi Rd, Nazimpura, Sant Raj Nagar, Bulandshahr, Uttar Pradesh 203001","Nazimpura, Sant Raj Nagar","CR7M+CQ9, Delhi Rd",Bulandshahr,203001,Uttar Pradesh,IN,https://www.google.com/maps/place/Masjid+Umar/data=!4m7!3m6!1s0x390ca357b81fac17:0x43b9627ed768de75!8m2!3d28.4135361!4d77.8344692!16s%2Fg%2F11g1nh0235!19sChIJF6wfuFejDDkRdd5o135iuUM?authuser=0&hl=en&rclk=1,"28.413536099999998,77.8344692"
Madina Masjid Mehandipur Bagar,Mosque,"6HR3+X79 Madina Masjid Mehandipur Bagar, Unnamed Road, Mahadipur Khadar, Uttar Pradesh 203209",,"6HR3+X79, Unnamed Road",Mahadipur Khadar,203209,Uttar Pradesh,IN,https://www.google.com/maps/place/Madina+Masjid+Mehandipur+Bagar/data=!4m7!3m6!1s0x390cc91cfade22ed:0x6ed3311c10e50e6b!8m2!3d28.242403!4d77.5532463!16s%2Fg%2F11fmyr6pf1!19sChIJ7SLe-hzJDDkRaw7lEBwx024?authuser=0&hl=en&rclk=1,"28.242403,77.5532463"
Jama masjid,Mosque,"5FC6+RFR Jama masjid, Puvena, Uttar Pradesh 246735",,5FC6+RFR,Puvena,246735,Uttar Pradesh,IN,https://www.google.com/maps/place/Jama+masjid/data=!4m7!3m6!1s0x390bbbf651b7c7d7:0x11c990a46d97453c!8m2!3d29.1721034!4d78.4611512!16s%2Fg%2F11rc9wk6b6!19sChIJ18e3Ufa7CzkRPEWXbaSQyRE?authuser=0&hl=en&rclk=1,"29.172103399999997,78.4611512"
Masjid,Mosque,"Q6MJ+5H5 Masjid, Badarpur, Madanpur Khadar, New Delhi, 110084",Madanpur Khadar,"Q6MJ+5H5, Badarpur","New Delhi, Delhi",110084,Delhi,IN,https://www.google.com/maps/place/Masjid/data=!4m7!3m6!1s0x390cffb780460377:0x9fe224e9c653e965!8m2!3d28.7828891!4d77.2314704!16s%2Fg%2F11qn790lvq!19sChIJdwNGgLf_DDkRZelTxukk4p8?authuser=0&hl=en&rclk=1,"28.7828891,77.23147039999999"
Masjid,Mosque,"JGVV+WX Masjid, Rampur Urf Yarpur, Uttar Pradesh 244304",,JGVV+WX,Rampur Urf Yarpur,,Uttar Pradesh,IN,https://www.google.com/maps/place/Masjid/data=!4m7!3m6!1s0x390b1914cd83f9e9:0x1d353af22c65cbc3!8m2!3d28.6447875!4d78.5450032!16s%2Fg%2F11pvhrfs96!19sChIJ6fmDzRQZCzkRw8tlLPI6NR0?authuser=0&hl=en&rclk=1,"28.6447875,78.5450032"
mhbuub shaah msjid,Mosque,"2558+RP9 mhbuub shaah msjid, Aajampuri and Ii, Uttar Pradesh 244231",,2558+RP9,Aajampuri and Ii,244231,Uttar Pradesh,IN,https://www.google.com/maps/place/%E0%A4%AE%E0%A4%B9%E0%A4%AC%E0%A5%82%E0%A4%AC+%E0%A4%B6%E0%A4%BE%E0%A4%B9+%E0%A4%AE%E0%A4%B8%E0%A5%8D%E0%A4%9C%E0%A4%BF%E0%A4%A6/data=!4m7!3m6!1s0x390b9ba2a46924e3:0x40b410e8ce400371!8m2!3d29.0095424!4d78.1668653!16s%2Fg%2F11f1h56y9r!19sChIJ4yRppKKbCzkRcQNAzugQtEA?authuser=0&hl=en&rclk=1,"29.009542399999997,78.1668653"
Masjid,Mosque,"C4WG+7F7 Masjid, Khadana, Uttar Pradesh 203394",,C4WG+7F7,Khadana,203394,Uttar Pradesh,IN,https://www.google.com/maps/place/Masjid/data=!4m7!3m6!1s0x390b4344595d3cc3:0xd0b309b705ed2bc4!8m2!3d28.4456742!4d78.1261805!16s%2Fg%2F11bywkpy35!19sChIJwzxdWURDCzkRxCvtBbcJs9A?authuser=0&hl=en&rclk=1,"28.4456742,78.12618049999999"
Masjid madarsa jamia raheemiya,Mosque,"FR29+7Q5 Masjid madarsa jamia raheemiya, NEAR SARAYE, MEERUT ROAD, Tajpur",,"FR29+7Q5, NEAR SARAYE, MEERUT ROAD","Tajpur, Alipur Gijhauri",,Uttar Pradesh,IN,https://www.google.com/maps/place/Masjid+madarsa+jamia+raheemiya/data=!4m7!3m6!1s0x390ca37a1437bf45:0x27404bcee130ad4e!8m2!3d28.450637!4d77.819497!16s%2Fg%2F11s0xxf4_m!19sChIJRb83FHqjDDkRTq0w4c5LQCc?authuser=0&hl=en&rclk=1,"28.450637,77.819497"
Jama Masjid jaamaa msjid,Mosque,"VR2M+42W Jama Masjid jaamaa msjid, Unnamed Road, Tajpur Mafi, Got, Uttar Pradesh 244902",,"VR2M+42W, Unnamed Road","Tajpur Mafi, Got",244902,Uttar Pradesh,IN,https://www.google.com/maps/place/Jama+Masjid+%E0%A4%9C%E0%A4%BE%E0%A4%AE%E0%A4%BE+%E0%A4%AE%E0%A4%B8%E0%A5%8D%E0%A4%9C%E0%A4%BF%E0%A4%A6/data=!4m7!3m6!1s0x390afb3f6ec10479:0x8ac7b15afffc7943!8m2!3d28.8503562!4d78.8325858!16s%2Fg%2F11f7bdjgvs!19sChIJeQTBbj_7CjkRQ3n8_1qxx4o?authuser=0&hl=en&rclk=1,"28.8503562,78.83258579999999"
Jama Masjid,Mosque,"FRWJ+VRQ Jama Masjid, Atmadsarai, Uttar Pradesh 203408",,FRWJ+VRQ,Atmadsarai,,Uttar Pradesh,IN,https://www.google.com/maps/place/Jama+Masjid/data=!4m7!3m6!1s0x390c99adabd12df7:0x36eb4693029df4e4!8m2!3d28.4972237!4d77.8320953!16s%2Fg%2F11pwyrhdn1!19sChIJ9y3Rq62ZDDkR5PSdApNG6zY?authuser=0&hl=en&rclk=1,"28.4972237,77.83209529999999"
Eidgah Kamalpur,Mosque,"CRM6+PRQ Eidgah Kamalpur, Kamalpur, Odara Urf Nawada, Uttar Pradesh 203001",,CRM6+PRQ,"Kamalpur, Odara Urf Nawada",203001,Uttar Pradesh,IN,https://www.google.com/maps/place/Eidgah+Kamalpur/data=!4m7!3m6!1s0x390ca39d839b1889:0x44cf4d2ea3ab5a3f!8m2!3d28.4343333!4d77.8120959!16s%2Fg%2F11g0sstw58!19sChIJiRibg52jDDkRP1qroy5Nz0Q?authuser=0&hl=en&rclk=1,"28.4343333,77.8120959"
Tajpur Masjid,Mosque,"8QFF+HPM Tajpur Masjid, Tajpur, Uttar Pradesh 251201",,8QFF+HPM,Tajpur,251201,Uttar Pradesh,IN,https://www.google.com/maps/place/Tajpur+Masjid/data=!4m7!3m6!1s0x390c0fb06c1ca243:0x912ff6d96c0ebcea!8m2!3d29.323962!4d77.7743008!16s%2Fg%2F11qnvg0v5s!19sChIJQ6IcbLAPDDkR6rwObNn2L5E?authuser=0&hl=en&rclk=1,"29.323961999999998,77.77430079999999"
Taj masjid,Mosque,"JVG2+6CX Taj masjid, Tajpur, Uttar Pradesh 203411",,JVG2+6CX,Tajpur,203411,Uttar Pradesh,IN,https://www.google.com/maps/place/Taj+masjid/data=!4m7!3m6!1s0x390c9d6a6e9aace7:0x819a821e7d343b5!8m2!3d28.6256001!4d77.8510967!16s%2Fg%2F11rjwqzm8z!19sChIJ56yabmqdDDkRtUPT5yGoGQg?authuser=0&hl=en&rclk=1,"28.6256001,77.8510967"
Swadekeen Masjid slaavt ngr gNgaavlii,Mosque,"JV96+J6P Swadekeen Masjid slaavt ngr gNgaavlii, Tajpur Rd, Salavat Nagar Gangavali, Tajpur, Uttar Pradesh 203411",,"JV96+J6P, Tajpur Rd","Salavat Nagar Gangavali, Tajpur",203411,Uttar Pradesh,IN,https://www.google.com/maps/place/Swadekeen+Masjid+%E0%A4%B8%E0%A4%B2%E0%A4%BE%E0%A4%B5%E0%A4%A4+%E0%A4%A8%E0%A4%97%E0%A4%B0+%E0%A4%97%E0%A4%82%E0%A4%97%E0%A4%BE%E0%A4%B5%E0%A4%B2%E0%A5%80/data=!4m7!3m6!1s0x390c9dca70c1a831:0x6110284aab176291!8m2!3d28.619099!4d77.8605864!16s%2Fg%2F11hds_5wjn!19sChIJMajBcMqdDDkRkWIXq0ooEGE?authuser=0&hl=en&rclk=1,"28.619099,77.8605864"
Jama Masjid,Mosque,"5GJ4+7FM Jama Masjid, Urf, Akbarpur Asha, Haroli, Uttar Pradesh 246735",,"5GJ4+7FM, Urf","Akbarpur Asha, Haroli",,Uttar Pradesh,IN,https://www.google.com/maps/place/Jama+Masjid/data=!4m7!3m6!1s0x390bb15ddae7666b:0xcf6a2008c441e308!8m2!3d29.180706!4d78.5061613!16s%2Fg%2F11fj3rwxrt!19sChIJa2bn2l2xCzkRCONBxAggas8?authuser=0&hl=en&rclk=1,"29.180705999999997,78.5061613"
Momeen Masjid (chottii msjid),Mosque,"4XJQ+4PC Momeen Masjid (chottii msjid), Saifpur Karamchandpur, Uttar Pradesh 250404",,4XJQ+4PC,Saifpur Karamchandpur,250404,Uttar Pradesh,IN,https://www.google.com/maps/place/Momeen+Masjid+%28%E0%A4%9B%E0%A5%8B%E0%A4%9F%E0%A5%80+%E0%A4%AE%E0%A4%B8%E0%A5%8D%E0%A4%9C%E0%A4%BF%E0%A4%A6%29/data=!4m7!3m6!1s0x390b89a0bfbe06c7:0xe9d010611cb54854!8m2!3d29.1303124!4d77.9892581!16s%2Fg%2F11q_b62yv8!19sChIJxwa-v6CJCzkRVEi1HGEQ0Ok?authuser=0&hl=en&rclk=1,"29.130312399999998,77.9892581"
Masjid Abubakar,Mosque,"JQ4P+RJ9 Masjid Abubakar, Abdullapur Modi, Uttar Pradesh 245101",,JQ4P+RJ9,Abdullapur Modi,,Uttar Pradesh,IN,https://www.google.com/maps/place/Masjid+Abubakar/data=!4m7!3m6!1s0x390c9bac0fdd78f9:0x4d6a88b44c6b4fb3!8m2!3d28.6070484!4d77.7865988!16s%2Fg%2F11fm18plfr!19sChIJ-XjdD6ybDDkRs09rTLSIak0?authuser=0&hl=en&rclk=1,"28.6070484,77.7865988"
Raja masjid,Mosque,"QR33+53Q Raja masjid, Rampur Megan, Uttar Pradesh 244001",,QR33+53Q,Rampur Megan,244001,Uttar Pradesh,IN,https://www.google.com/maps/place/Raja+masjid/data=!4m7!3m6!1s0x390ae57bca31a677:0xd93a70a8e7cd3397!8m2!3d28.7529598!4d78.8027379!16s%2Fg%2F11j8b9pb87!19sChIJd6YxynvlCjkRlzPN56hwOtk?authuser=0&hl=en&rclk=1,"28.7529598,78.8027379"
Madina Masjid jatpura,Mosque,"3R4H+FXP Madina Masjid jatpura, Jatpura, Uttar Pradesh 244402",,3R4H+FXP,Jatpura,244402,Uttar Pradesh,IN,https://www.google.com/maps/place/Madina+Masjid+jatpura/data=!4m7!3m6!1s0x390a50a59f7417f7:0x50916888ff981f15!8m2!3d29.0562038!4d78.8299638!16s%2Fg%2F11c6tjdnhs!19sChIJ9xd0n6VQCjkRFR-Y_4hokVA?authuser=0&hl=en&rclk=1,"29.0562038,78.8299638"
Masjid,Mosque,"P9HF+33Q Masjid, Farukh Nagar, Uttar Pradesh 201003",,P9HF+33Q,Farukh Nagar,201003,Uttar Pradesh,IN,https://www.google.com/maps/place/Masjid/data=!4m7!3m6!1s0x390cfa018875b495:0xeea7b0caec7e470d!8m2!3d28.7277145!4d77.3727433!16s%2Fg%2F11f0krqvls!19sChIJlbR1iAH6DDkRDUd-7Mqwp-4?authuser=0&hl=en&rclk=1,"28.727714499999998,77.3727433"
Madina Masjid,Mosque,"W99M+QQX Madina Masjid, Saidpur Imma, Husainpur Nikat Zirki, Uttar Pradesh 244236",,W99M+QQX,"Saidpur Imma, Husainpur Nikat Zirki",244236,Uttar Pradesh,IN,https://www.google.com/maps/place/Madina+Masjid/data=!4m7!3m6!1s0x390ba79c584f6029:0x52492fe65818f38f!8m2!3d28.9194796!4d78.3844954!16s%2Fg%2F11mw0gwcdp!19sChIJKWBPWJynCzkRj_MYWOYvSVI?authuser=0&hl=en&rclk=1,"28.9194796,78.38449539999999"
Masjid,Mosque,"WGHP+X4X Masjid, Meerut, Uttar Pradesh 250501",,WGHP+X4X,Meerut,,Uttar Pradesh,IN,https://www.google.com/maps/place/Masjid/data=!4m7!3m6!1s0x390c5dafc8721c83:0x695694f7567d6c4a!8m2!3d28.9299938!4d77.5353677!16s%2Fg%2F11k0xg5y1x!19sChIJgxxyyK9dDDkRSmx9VveUVmk?authuser=0&hl=en&rclk=1,"28.9299938,77.5353677"
Masjid Sharif,Mosque,"5F6M+R6V Masjid Sharif, Raja Ka Tajpur, Uttar Pradesh 246735",,5F6M+R6V,Raja Ka Tajpur,246735,Uttar Pradesh,IN,https://www.google.com/maps/place/Masjid+Sharif/data=!4m7!3m6!1s0x390bb084dad24411:0xfbbbc99a0b8e428!8m2!3d29.1621074!4d78.4830314!16s%2Fg%2F11fy4g11qn!19sChIJEUTS2oSwCzkRKOS4oJm8uw8?authuser=0&hl=en&rclk=1,"29.1621074,78.4830314"
Masjid Umar Farooq,Mosque,"5F7P+X2F Masjid Umar Farooq, Unnamed Road, Raja Ka Tajpur, Uttar Pradesh 246735",,"5F7P+X2F, Unnamed Road",Raja Ka Tajpur,246735,Uttar Pradesh,IN,https://www.google.com/maps/place/Masjid+Umar+Farooq/data=!4m7!3m6!1s0x390bb1bca68ef97f:0x1a1ab3c18a482c5d!8m2!3d29.1649302!4d78.4850503!16s%2Fg%2F11ftfj9dwh!19sChIJf_mOpryxCzkRXSxIisGzGho?authuser=0&hl=en&rclk=1,"29.164930199999997,78.4850503"
Mosque,Mosque,"4CJX+C75 Mosque, Faijpur, Uttar Pradesh 246734",,4CJX+C75,Faijpur,246734,Uttar Pradesh,IN,https://www.google.com/maps/place/Mosque/data=!4m7!3m6!1s0x390bbaeb8b3bd12b:0x96f5783b4209ff8c!8m2!3d29.1310064!4d78.448225!16s%2Fg%2F11fxfsd_y_!19sChIJK9E7i-u6CzkRjP8JQjt49ZY?authuser=0&hl=en&rclk=1,"29.1310064,78.448225"
rashid Masjid,Mosque,"V7Q6+R7X rashid Masjid, Shahjahanpur Tajpur, Uttar Pradesh 202128",,V7Q6+R7X,Shahjahanpur Tajpur,202128,Uttar Pradesh,IN,https://www.google.com/maps/place/rashid+Masjid/data=!4m7!3m6!1s0x3974b9581d1ab971:0x38cfe44c522d7319!8m2!3d27.8896128!4d78.2607376!16s%2Fg%2F11h00l90wz!19sChIJcbkaHVi5dDkRGXMtUkzkzzg?authuser=0&hl=en&rclk=1,"27.8896128,78.2607376"
Jama masjid ( badi masjid ) Taharpur,Mosque,"PPQH+JX5 Jama masjid ( badi masjid ) Taharpur, Unnamed Road, Takhatpur Allah Urf Nankar, Uttar Pradesh 244301",,"PPQH+JX5, Unnamed Road",Takhatpur Allah Urf Nankar,244301,Uttar Pradesh,IN,https://www.google.com/maps/place/Jama+masjid+%28+badi+masjid+%29+Taharpur/data=!4m7!3m6!1s0x390ae3adf7a5edd9:0xd9f1964b641fcdb2!8m2!3d28.7390243!4d78.7299707!16s%2Fg%2F11h3cy8vmw!19sChIJ2e2l963jCjkRss0fZEuW8dk?authuser=0&hl=en&rclk=1,"28.739024299999997,78.7299707"
tkvaah msjid,Mosque,"XRQR+3MW tkvaah msjid, Nagla Shahu, Rukanpur, Uttar Pradesh 250406",,XRQR+3MW,"Nagla Shahu, Rukanpur",250406,Uttar Pradesh,IN,https://www.google.com/maps/place/%E0%A4%A4%E0%A4%95%E0%A4%B5%E0%A4%BE%E0%A4%B9+%E0%A4%AE%E0%A4%B8%E0%A5%8D%E0%A4%9C%E0%A4%BF%E0%A4%A6/data=!4m7!3m6!1s0x390c797076ce84a5:0xaef62b67e5d6734e!8m2!3d28.9877446!4d77.8417082!16s%2Fg%2F11rfb16_kl!19sChIJpYTOdnB5DDkRTnPW5Wcr9q4?authuser=0&hl=en&rclk=1,"28.9877446,77.8417082"
Masjid e sirajan,Mosque,"892R+P2F Masjid e sirajan, Umarpur, Nethaur, Uttar Pradesh",,"892R+P2F, Umarpur","Nethaur, Chak Gordhan",,Uttar Pradesh,IN,https://www.google.com/maps/place/Masjid+e+sirajan/data=!4m7!3m6!1s0x390bc75674119bcf:0x3dbc5ceac3ec4da4!8m2!3d29.3018065!4d78.3900346!16s%2Fg%2F11s4zkkrpq!19sChIJz5sRdFbHCzkRpE3sw-pcvD0?authuser=0&hl=en&rclk=1,"29.301806499999998,78.39003459999999"
Badi Masjid,Mosque,"5GJ2+HJ8 Badi Masjid, magale kheda, Uttar Pradesh 246735",,"5GJ2+HJ8, magale kheda","Harauli, Akbarpur Asha",246735,Uttar Pradesh,IN,https://www.google.com/maps/place/Badi+Masjid/data=!4m7!3m6!1s0x390bb0c1317c2803:0x3c63a54f66bce21a!8m2!3d29.1814157!4d78.5015686!16s%2Fg%2F11g7z7s732!19sChIJAyh8McGwCzkRGuK8Zk-lYzw?authuser=0&hl=en&rclk=1,"29.1814157,78.5015686"
MADINA MASJID,Mosque,"8HGM+HX8 MADINA MASJID, Derin Road, Usmanpur, Uttar Pradesh 203201",,"8HGM+HX8, Derin Road",Usmanpur,203201,Uttar Pradesh,IN,https://www.google.com/maps/place/MADINA+MASJID/data=!4m7!3m6!1s0x390cb9bfa84a7817:0xaf0df7e40e31de8e!8m2!3d28.3264011!4d77.5849647!16s%2Fg%2F11h3qm566d!19sChIJF3hKqL-5DDkRjt4xDuT3Da8?authuser=0&hl=en&rclk=1,"28.326401099999998,77.5849647"
Masjid,Mosque,"Masjid, Molarband, Badarpur, New Delhi, Delhi 110044","Molarband, Badarpur",,New Delhi,110044,Delhi,IN,https://www.google.com/maps/place/Masjid/data=!4m7!3m6!1s0x390ce75604c9317b:0x95388f2bb1f0f9b2!8m2!3d28.5063324!4d77.3130947!16s%2Fg%2F11rkpbdy5r!19sChIJezHJBFbnDDkRsvnwsSuPOJU?authuser=0&hl=en&rclk=1,"28.506332399999998,77.3130947"
Masjid,Mosque,"Masjid, 01, Seh, Uttar Pradesh 246727",,01,Seh,246727,Uttar Pradesh,IN,https://www.google.com/maps/place/Masjid/data=!4m7!3m6!1s0x390ba553cd149501:0xb352973c75e7deb9!8m2!3d29.0580863!4d78.4390729!16s%2Fg%2F11lg3d_9kl!19sChIJAZUUzVOlCzkRud7ndTyXUrM?authuser=0&hl=en&rclk=1,"29.0580863,78.4390729"
Masjid,Mosque,"3M6J+JW6 Masjid, Bhawaniyapur, Uttar Pradesh 243638",,3M6J+JW6,Bhawaniyapur,243638,Uttar Pradesh,IN,https://www.google.com/maps/place/Masjid/data=!4m7!3m6!1s0x397529c05680b09d:0xd0168ddb49a332ec!8m2!3d28.061526!4d78.6822749!16s%2Fg%2F11gxs0mcm2!19sChIJnbCAVsApdTkR7DKjSduNFtA?authuser=0&hl=en&rclk=1,"28.061525999999997,78.6822749"
Jama masjid Tukhmapur,Mosque,"CFX7+8CW Jama masjid Tukhmapur, Unnamed Road, Khairullapur, Uttar Pradesh 246762",,"CFX7+8CW, Unnamed Road",Khairullapur,246762,Uttar Pradesh,IN,https://www.google.com/maps/place/Jama+masjid+Tukhmapur/data=!4m7!3m6!1s0x390bc59fb14157dd:0x35e017feb87bf467!8m2!3d29.448355!4d78.4635722!16s%2Fg%2F11qg3l7ngr!19sChIJ3VdBsZ_FCzkRZ_R7uP4X4DU?authuser=0&hl=en&rclk=1,"29.448355,78.4635722"
Masjid haivatpur,Mosque,"4XHM+JXC Masjid haivatpur, Unnamed Road, Din Nagar Sheikhpur, Uttar Pradesh 243633",,"4XHM+JXC, Unnamed Road",Din Nagar Sheikhpur,243633,Uttar Pradesh,IN,https://www.google.com/maps/place/Masjid+haivatpur/data=!4m7!3m6!1s0x397537ec2f7fdf5f:0xd7985803b69f1a40!8m2!3d28.1290609!4d78.9848985!16s%2Fg%2F11jp2rdy1s!19sChIJX99_L-w3dTkRQBqftgNYmNc?authuser=0&hl=en&rclk=1,"28.1290609,78.9848985"
Masjid mola Ali tajpur,Mosque,"WW9X+FM6 Masjid mola Ali tajpur, Tajpur, Punjab 141014",,WW9X+FM6,Tajpur,141014,Punjab,IN,https://www.google.com/maps/place/Masjid+mola+Ali+tajpur/data=!4m7!3m6!1s0x391a9dbd0e21b845:0x5c4e570b22a2855e!8m2!3d30.918652!4d75.9491522!16s%2Fg%2F11s5p15ngm!19sChIJRbghDr2dGjkRXoWiIgtXTlw?authuser=0&hl=en&rclk=1,"30.918651999999998,75.9491522"
Masjid Jamal Shahi,Mosque,"5H2C+Q9R Masjid Jamal Shahi, Ratanpura, Uttar Pradesh 246745",,5H2C+Q9R,Ratanpura,246745,Uttar Pradesh,IN,https://www.google.com/maps/place/Masjid+Jamal+Shahi/data=!4m7!3m6!1s0x390bb3f3ad453249:0x319ef6aa1add97e1!8m2!3d29.1519985!4d78.5709005!16s%2Fg%2F11fm4b23l1!19sChIJSTJFrfOzCzkR4ZfdGqr2njE?authuser=0&hl=en&rclk=1,"29.151998499999998,78.5709005"
Masjid,Mosque,"35G9+VPV Masjid, Unnamed Road, Nangla, Saktalpur, Uttar Pradesh 246736",,"35G9+VPV, Unnamed Road","Nangla, Saktalpur",246736,Uttar Pradesh,IN,https://www.google.com/maps/place/Masjid/data=!4m7!3m6!1s0x390b9b5d6758b219:0xc3bbb959c3708bcc!8m2!3d29.077236!4d78.169301!16s%2Fg%2F11j5g7vlg_!19sChIJGbJYZ12bCzkRzItww1m5u8M?authuser=0&hl=en&rclk=1,"29.077236,78.16930099999999"
Madina Masjid Asgaripur,Mosque,"QG4W+MXR Madina Masjid Asgaripur, Asgaripur, Saidpur Imma, Uttar Pradesh 244304",,QG4W+MXR,"Asgaripur, Saidpur Imma",244304,Uttar Pradesh,IN,https://www.google.com/maps/place/Madina+Masjid+Asgaripur/data=!4m7!3m6!1s0x390b056687394acd:0x233e149a21426462!8m2!3d28.7567269!4d78.5474005!16s%2Fg%2F11rst_6qyz!19sChIJzUo5h2YFCzkRYmRCIZoUPiM?authuser=0&hl=en&rclk=1,"28.7567269,78.5474005"
Tayyaba masjid,Mosque,"4XFP+MMJ Tayyaba masjid, Nagla Chand, Uttar Pradesh 250404",,4XFP+MMJ,Nagla Chand,250404,Uttar Pradesh,IN,https://www.google.com/maps/place/Tayyaba+masjid/data=!4m7!3m6!1s0x390b89ef36126857:0x427a153ff42a58c8!8m2!3d29.124202!4d77.9866333!16s%2Fg%2F11p714rcn2!19sChIJV2gSNu-JCzkRyFgq9D8VekI?authuser=0&hl=en&rclk=1,"29.124202,77.9866333"
Chaman Masjid,Mosque,"5F9P+2PM Chaman Masjid, Raja Ka Tajpur, Uttar Pradesh 246735",,5F9P+2PM,Raja Ka Tajpur,246735,Uttar Pradesh,IN,https://www.google.com/maps/place/Chaman+Masjid/data=!4m7!3m6!1s0x390bb0909f622f87:0x209ae926bc7bc158!8m2!3d29.167591!4d78.4868022!16s%2Fg%2F11fzcdfj3s!19sChIJhy9in5CwCzkRWMF7vCbpmiA?authuser=0&hl=en&rclk=1,"29.167590999999998,78.4868022"
Masjid Eidgah,Mosque,"5F9J+Q4R Masjid Eidgah, Tajpur, Uttar Pradesh 246735",,5F9J+Q4R,Tajpur,246735,Uttar Pradesh,IN,https://www.google.com/maps/place/Masjid+Eidgah/data=!4m7!3m6!1s0x390bb09eb0c642fb:0xff307aa0e6b9b911!8m2!3d29.169489!4d78.480272!16s%2Fg%2F11f11l9k89!19sChIJ-0LGsJ6wCzkREbm55qB6MP8?authuser=0&hl=en&rclk=1,"29.169489,78.480272"
Masjid siddiquian,Mosque,"5F6M+G8J Masjid siddiquian, Raja Ka Tajpur, Uttar Pradesh 246735",,5F6M+G8J,Raja Ka Tajpur,246735,Uttar Pradesh,IN,https://www.google.com/maps/place/Masjid+siddiquian/data=!4m7!3m6!1s0x390bb14f78ae31f9:0x1fe256c1613dfa90!8m2!3d29.1613302!4d78.4832622!16s%2Fg%2F11jj6dfg40!19sChIJ-TGueE-xCzkRkPo9YcFW4h8?authuser=0&hl=en&rclk=1,"29.1613302,78.4832622"
Madina Masjid,Mosque,"4FXQ+7P2 Madina Masjid, Ravana Shikarpur, Uttar Pradesh 246735",,4FXQ+7P2,Ravana Shikarpur,,Uttar Pradesh,IN,https://www.google.com/maps/place/Madina+Masjid/data=!4m7!3m6!1s0x390bb1cb059509ef:0x8649907dc3dc4f2b!8m2!3d29.1481275!4d78.4892786!16s%2Fg%2F11h912b1mc!19sChIJ7wmVBcuxCzkRK0_cw32QSYY?authuser=0&hl=en&rclk=1,"29.148127499999998,78.48927859999999"
Chhoti masjid (aksha),Mosque,"FR7Q+QVR Chhoti masjid (aksha), Malagarh, Uttar Pradesh 203001",,FR7Q+QVR,Malagarh,,Uttar Pradesh,IN,https://www.google.com/maps/place/Chhoti+masjid+%28aksha%29/data=!4m7!3m6!1s0x390ca1e4fa731fc5:0x66fcefe1129c9400!8m2!3d28.4644837!4d77.8396347!16s%2Fg%2F11ngjqst5g!19sChIJxR9z-uShDDkRAJScEuHv_GY?authuser=0&hl=en&rclk=1,"28.4644837,77.83963469999999"
Shahjad ahmed,Mosque,"P28P+GV9 Shahjad ahmed, Roop Vihar, Madanpur Dabas, Delhi, 110081","Roop Vihar, Madanpur Dabas",P28P+GV9,Delhi,110081,Delhi,IN,https://www.google.com/maps/place/Shahjad+ahmed/data=!4m7!3m6!1s0x390d0794bbc8f93b:0xd78d2d0ff97b44e6!8m2!3d28.7161625!4d77.0371!16s%2Fg%2F11p03wjw9y!19sChIJO_nIu5QHDTkR5kR7-Q8tjdc?authuser=0&hl=en&rclk=1,"28.7161625,77.0371"
Jama Masjid,Mosque,"G4V4+9PW Jama Masjid, Khanpur - Umarpur - Kamalpur Rd, Umarpur, Uttar Pradesh 203405",,"G4V4+9PW, Khanpur - Umarpur - Kamalpur Rd",Umarpur,203405,Uttar Pradesh,IN,https://www.google.com/maps/place/Jama+Masjid/data=!4m7!3m6!1s0x390b67e0979fac27:0x875c653f324e67dc!8m2!3d28.543488!4d78.1068428!16s%2Fg%2F11c323jb97!19sChIJJ6yfl-BnCzkR3GdOMj9lXIc?authuser=0&hl=en&rclk=1,"28.543488,78.1068428"
tkhyh masjid,Mosque,"F5WX+VRG tkhyh masjid, Itwar Bazar, Kiratpur, Uttar Pradesh 246731",Itwar Bazar,F5WX+VRG,Kiratpur,,Uttar Pradesh,IN,https://www.google.com/maps/place/%D8%AA%DA%A9%DB%8C%DB%81+%D9%85%D9%8E%D8%B3%D9%92%D8%AC%D9%90%D8%AF%E2%80%AD/data=!4m7!3m6!1s0x390be58d0a523a59:0x256b2ac8826ad32!8m2!3d29.4971951!4d78.1995933!16s%2Fg%2F11gwk04wj_!19sChIJWTpSCo3lCzkRMq0miKyyVgI?authuser=0&hl=en&rclk=1,"29.4971951,78.19959329999999"
Akbari masjid,Mosque,"GH6H+8P8 Akbari masjid, Khusropur, Uttar Pradesh 251311",,GH6H+8P8,Khusropur,251311,Uttar Pradesh,IN,https://www.google.com/maps/place/Akbari+masjid/data=!4m7!3m6!1s0x390c1fc02a2f7357:0x5d69190db3bb3e25!8m2!3d29.5107949!4d77.5793284!16s%2Fg%2F11rcwc28mv!19sChIJV3MvKsAfDDkRJT67sw0ZaV0?authuser=0&hl=en&rclk=1,"29.510794899999997,77.5793284"
Masjid Ammar,Mosque,"4CV2+XPH Masjid Ammar, Noorpur, Uttar Pradesh 246734",,4CV2+XPH,Noorpur,246734,Uttar Pradesh,IN,https://www.google.com/maps/place/Masjid+Ammar/data=!4m7!3m6!1s0x390bbbcefcb99dd1:0xa22ae5f7c695556b!8m2!3d29.1449313!4d78.4018441!16s%2Fg%2F11nsb0y0yy!19sChIJ0Z25_M67CzkRa1WVxvflKqI?authuser=0&hl=en&rclk=1,"29.1449313,78.40184409999999"
Masjid-e Yusuf,Mosque,"5CCG+XQ6 Masjid-e Yusuf, Tandera, Noorpur, Uttar Pradesh 246727",,5CCG+XQ6,"Tandera, Noorpur",246727,Uttar Pradesh,IN,https://www.google.com/maps/place/Masjid-e+Yusuf/data=!4m7!3m6!1s0x390bbba8107570cd:0x1d2facc019445081!8m2!3d29.1724235!4d78.426876!16s%2Fg%2F11fnxmw256!19sChIJzXB1EKi7CzkRgVBEGcCsLx0?authuser=0&hl=en&rclk=1,"29.172423499999997,78.426876"
Masjid,Mosque,"2PVM+97X Masjid, Unnamed Road, Uttar Pradesh 202141",,"2PVM+97X, Unnamed Road",Balanpur,202141,Uttar Pradesh,IN,https://www.google.com/maps/place/Masjid/data=!4m7!3m6!1s0x39734d6bd7c21e3d:0x757b568035794144!8m2!3d28.0434922!4d77.7332453!16s%2Fg%2F11nnp819sb!19sChIJPR7C12tNczkRREF5NYBWe3U?authuser=0&hl=en&rclk=1,"28.0434922,77.7332453"
Masjid,Mosque,"8G3F+W88 Masjid, Khalelpur, Khalilpur, Uttar Pradesh 243751",,"8G3F+W88, Khalelpur","Khalilpur, Udranpur Azmatnagar",243751,Uttar Pradesh,IN,https://www.google.com/maps/place/Masjid/data=!4m7!3m6!1s0x390b2ef4ee18cdbf:0x27b506f8854495e1!8m2!3d28.3047954!4d78.5233316!16s%2Fg%2F11fy19dtn0!19sChIJv80Y7vQuCzkR4ZVEhfgGtSc?authuser=0&hl=en&rclk=1,"28.3047954,78.52333159999999"
Madina Masjid,Mosque,"Madina Masjid, Haiderpur, Haiderpur Urf Hajipur, Rampur Khurd, Uttar Pradesh 244304",Haiderpur,,"Haiderpur Urf Hajipur, Rampur Khurd",244304,Uttar Pradesh,IN,https://www.google.com/maps/place/Madina+Masjid/data=!4m7!3m6!1s0x390b117dd62b0ac3:0x540cfe63c5c87951!8m2!3d28.7334594!4d78.4375875!16s%2Fg%2F11rkl55hgq!19sChIJwwor1n0RCzkRUXnIxWP-DFQ?authuser=0&hl=en&rclk=1,"28.733459399999997,78.43758749999999"
MASJID,Mosque,"VJ8V+JMR MASJID, Saidpur Husainpur, Uttar Pradesh 201201",,VJ8V+JMR,Saidpur Husainpur,201201,Uttar Pradesh,IN,https://www.google.com/maps/place/MASJID/data=!4m7!3m6!1s0x390c613c9f7f69eb:0x72c3039aba32db91!8m2!3d28.8666068!4d77.644145!16s%2Fg%2F11t52t8l7t!19sChIJ62l_nzxhDDkRkdsyupoDw3I?authuser=0&hl=en&rclk=1,"28.8666068,77.644145"
Mosque jama masjid,Mosque,"35GC+7GJ Mosque jama masjid, Unnamed Road, Nangla, Saktalpur Milak, Uttar Pradesh 246736",,"35GC+7GJ, Unnamed Road","Nangla, Saktalpur Milak",246736,Uttar Pradesh,IN,https://www.google.com/maps/place/Mosque+jama+masjid/data=!4m7!3m6!1s0x390b9b68c4491013:0x599cc131f8081fcd!8m2!3d29.0757201!4d78.1712568!16s%2Fg%2F11ft6nc454!19sChIJExBJxGibCzkRzR8I-DHBnFk?authuser=0&hl=en&rclk=1,"29.075720099999998,78.1712568"
Masjid,Mosque,"R8MQ+8WC Masjid, Rataul, Uttar Pradesh 250101",,R8MQ+8WC,Rataul,250101,Uttar Pradesh,IN,https://www.google.com/maps/place/Masjid/data=!4m7!3m6!1s0x390c57cef24cc299:0x81fa3191b7d3d3d!8m2!3d28.8333117!4d77.3397708!16s%2Fg%2F11dd_r6cjs!19sChIJmcJM8s5XDDkRPT19GxmjHwg?authuser=0&hl=en&rclk=1,"28.8333117,77.3397708"
Masjid,Mosque,"GF2V+V6G Masjid, Alampur, Uttar Pradesh 246762",,GF2V+V6G,Alampur,246762,Uttar Pradesh,IN,https://www.google.com/maps/place/Masjid/data=!4m7!3m6!1s0x390bd143cf01b967:0xb88efbf8b7631f67!8m2!3d29.5020327!4d78.4922129!16s%2Fg%2F11v4jbxvqt!19sChIJZ7kBz0PRCzkRZx9jt_j7jrg?authuser=0&hl=en&rclk=1,"29.502032699999997,78.4922129"
Masjid,Mosque,"Masjid, Gali No 19, Gali Number 1, Mustafabad Extn, New Mustafabad, Delhi, 110094","E2 Block, Mustafabad Extn, New Mustafabad","Gali No 19, Gali Number 1",Delhi,110094,Delhi,IN,https://www.google.com/maps/place/Masjid/data=!4m7!3m6!1s0x390cfc1b020b0e91:0xb48a3c3233e41cbd!8m2!3d28.711773!4d77.272563!16s%2Fg%2F12hpqnhjr!19sChIJkQ4LAhv8DDkRvRzkMzI8irQ?authuser=0&hl=en&rclk=1,"28.711772999999997,77.27256299999999"
Masjid,Mosque,"R366+C7C Masjid, Bagi, Uttar Pradesh 244901",,R366+C7C,Bagi,244901,Uttar Pradesh,IN,https://www.google.com/maps/place/Masjid/data=!4m7!3m6!1s0x390a8da9ca40a47d:0x165fed7c312cae8d!8m2!3d28.8111422!4d79.0604982!16s%2Fg%2F11y1ry4xtr!19sChIJfaRAyqmNCjkRja4sMXztXxY?authuser=0&hl=en&rclk=1,"28.8111422,79.0604982"
Taqwa Masjid,Mosque,"G82M+CH2 Taqwa Masjid, Ekta Vihar, Jaitpur, New Delhi, Haryana 110044","Ekta Vihar, Jaitpur",G82M+CH2,New Delhi,,Haryana,IN,https://www.google.com/maps/place/Taqwa+Masjid/data=!4m7!3m6!1s0x390ce71fb8aed90b:0x69fb54d8edaf97be!8m2!3d28.5010151!4d77.3338783!16s%2Fg%2F11ts2hm9dz!19sChIJC9muuB_nDDkRvpev7dhU-2k?authuser=0&hl=en&rclk=1,"28.5010151,77.3338783"
Madina Masjid,Mosque,"JH5J+GRR Madina Masjid, Pyawali Tajpur, Rasoolpur Dasana, Uttar Pradesh 201008",,JH5J+GRR,"Pyawali Tajpur, Rasoolpur Dasana",201008,Uttar Pradesh,IN,https://www.google.com/maps/place/Madina+Masjid/data=!4m7!3m6!1s0x390c938846858fa3:0x2b267610ae73305c!8m2!3d28.608864!4d77.5820012!16s%2Fg%2F11hf3mjf1r!19sChIJo4-FRoiTDDkRXDBzrhB2Jis?authuser=0&hl=en&rclk=1,"28.608863999999997,77.5820012"
markaz masjid,Mosque,"5F7J+PWM markaz masjid, Unnamed Road, Raja Ka Tajpur, Uttar Pradesh 246735",,"5F7J+PWM, Unnamed Road",Raja Ka Tajpur,246735,Uttar Pradesh,IN,https://www.google.com/maps/place/markaz+masjid/data=!4m7!3m6!1s0x390bb129c2f538bb:0x98f84a53480a40d6!8m2!3d29.1643364!4d78.4822941!16s%2Fg%2F11h5_c360s!19sChIJuzj1wimxCzkR1kAKSFNK-Jg?authuser=0&hl=en&rclk=1,"29.1643364,78.48229409999999"
Masjid Tashtpur,Mosque,"HHXQ+V4M Masjid Tashtpur, Tastpur, Uttar Pradesh 244302",,HHXQ+V4M,Tastpur,244302,Uttar Pradesh,IN,https://www.google.com/maps/place/Masjid+Tashtpur/data=!4m7!3m6!1s0x390b1fdb408c4811:0x47523d7f5eb8353!8m2!3d28.5997131!4d78.587787!16s%2Fg%2F11hzyttvs7!19sChIJEUiMQNsfCzkRU4Pr9dcjdQQ?authuser=0&hl=en&rclk=1,"28.5997131,78.58778699999999"
Jannat masjid Siddiqui colony bagiya rampur doraha moradabad,Mosque,"RRVF+7PM Jannat masjid Siddiqui colony bagiya rampur doraha moradabad, Unnamed Road, Railway Harthala Colony, Moradabad, Uttar Pradesh 244001",Railway Harthala Colony,"RRVF+7PM, Unnamed Road",Moradabad,244001,Uttar Pradesh,IN,https://www.google.com/maps/place/Jannat+masjid+Siddiqui+colony+bagiya+rampur+doraha+moradabad/data=!4m7!3m6!1s0x390afb30202e065d:0xd6fd75c81e23c203!8m2!3d28.8432095!4d78.8243025!16s%2Fg%2F11ngz85nn4!19sChIJXQYuIDD7CjkRA8IjHsh1_dY?authuser=0&hl=en&rclk=1,"28.8432095,78.8243025"
Bilal masjid,Mosque,"P76R+GRW Bilal masjid, Behta Colony, Behta Hajipur, Ghaziabad, Uttar Pradesh 201102","Behta Colony, Behta Hajipur",P76R+GRW,Ghaziabad,201102,Uttar Pradesh,IN,https://www.google.com/maps/place/Bilal+masjid/data=!4m7!3m6!1s0x390cfb3cb2837981:0x83a936db3986ab63!8m2!3d28.711364!4d77.2920873!16s%2Fg%2F11n75crvs7!19sChIJgXmDsjz7DDkRY6uGOds2qYM?authuser=0&hl=en&rclk=1,"28.711364,77.29208729999999"
Masjid,Mosque,"Q2CC+RQX Masjid, Saroorpur, Uttar Pradesh 245207",,Q2CC+RQX,Saroorpur,245207,Uttar Pradesh,IN,https://www.google.com/maps/place/Masjid/data=!4m7!3m6!1s0x390b7bbaf24d9b3b:0x5fae54e29089b751!8m2!3d28.7721055!4d78.0219819!16s%2Fg%2F11qqktgknq!19sChIJO5tN8rp7CzkRUbeJkOJUrl8?authuser=0&hl=en&rclk=1,"28.7721055,78.0219819"
Masjid,Mosque,"98PM+Q26 Masjid, Ishaqpur, Uttar Pradesh 243727",,98PM+Q26,Ishaqpur,243727,Uttar Pradesh,IN,https://www.google.com/maps/place/Masjid/data=!4m7!3m6!1s0x390b39492871701d:0x54138cc39c7d8ded!8m2!3d28.3869054!4d78.3325281!16s%2Fg%2F11khz6l8_x!19sChIJHXBxKEk5CzkR7Y19nMOME1Q?authuser=0&hl=en&rclk=1,"28.3869054,78.33252809999999"
Masjid,Mosque,"WRGX+HC Masjid, Bhagatpur, Uttar Pradesh 244402",,WRGX+HC,Bhagatpur,,Uttar Pradesh,IN,https://www.google.com/maps/place/Masjid/data=!4m7!3m6!1s0x390af7bd1a089065:0x380fe02a631cc09f!8m2!3d28.9265301!4d78.8485357!16s%2Fg%2F11jz6hpdmp!19sChIJZZAIGr33CjkRn8AcYyrgDzg?authuser=0&hl=en&rclk=1,"28.926530099999997,78.8485357"
Tajpur,,"Tajpur, Haryana 121101",,,Tajpur,,Haryana,IN,https://www.google.com/maps/place/Tajpur/data=!4m7!3m6!1s0x390cc3b09432121f:0xb47007f49924a643!8m2!3d28.4038514!4d77.434064!16s%2Fg%2F12lkw_91_!19sChIJHxIylLDDDDkRQ6YkmfQHcLQ?authuser=0&hl=en&rclk=1,"28.403851399999997,77.43406399999999"
Masjid,Mosque,"2PJV+37F Masjid, Unnamed Road, Amargarhi, Uttar Pradesh 202141",,"2PJV+37F, Unnamed Road",Amargarhi,202141,Uttar Pradesh,IN,https://www.google.com/maps/place/Masjid/data=!4m7!3m6!1s0x39734d4e1f8e91df:0xd477e3363d5e9096!8m2!3d28.0301795!4d77.7431836!16s%2Fg%2F11rgdr6707!19sChIJ35GOH05NczkRlpBePTbjd9Q?authuser=0&hl=en&rclk=1,"28.0301795,77.7431836"
Masjid.,Mosque,"4CXP+HWW Masjid., Roshanpur Jagir, Uttar Pradesh 246734",,4CXP+HWW,Roshanpur Jagir,246734,Uttar Pradesh,IN,https://www.google.com/maps/place/Masjid./data=!4m7!3m6!1s0x390bbb56c03ff267:0xb4d39afd79dcee7c!8m2!3d29.1489802!4d78.4373359!16s%2Fg%2F11hk9jnywk!19sChIJZ_I_wFa7CzkRfO7cef2a07Q?authuser=0&hl=en&rclk=1,"29.1489802,78.4373359"
Masjid,Mosque,"XWW9+8JJ Masjid, Khanpur Banger, Uttar Pradesh 250406",,XWW9+8JJ,Khanpur Banger,250406,Uttar Pradesh,IN,https://www.google.com/maps/place/Masjid/data=!4m7!3m6!1s0x390c7918bf633d91:0x2e72bb38362c2a2a!8m2!3d28.9958349!4d77.9190073!16s%2Fg%2F11pvc6xpbl!19sChIJkT1jvxh5DDkRKiosNji7ci4?authuser=0&hl=en&rclk=1,"28.9958349,77.91900729999999"
Tajpur,,"Badarpur Extension, Tajpur, Badarpur, New Delhi, Delhi","Badarpur Extension, Tajpur, Badarpur",,New Delhi,,Delhi,IN,https://www.google.com/maps/place/Tajpur/data=!4m7!3m6!1s0x390ce7200bff7d79:0xbdbf93d018141528!8m2!3d28.4933506!4d77.3058772!16s%2Fg%2F1hc1s1f3r!19sChIJeX3_CyDnDDkRKBUUGNCTv70?authuser=0&hl=en&rclk=1,"28.4933506,77.3058772"
Tajpur,,"Tajpur, Uttar Pradesh",,,Tajpur,,Uttar Pradesh,IN,https://www.google.com/maps/place/Tajpur/data=!4m7!3m6!1s0x390bb09c9419747f:0xda95ff1ab48965f3!8m2!3d29.1654058!4d78.478036!16s%2Fg%2F11c53cqcv_!19sChIJf3QZlJywCzkR82WJtBr_ldo?authuser=0&hl=en&rclk=1,"29.1654058,78.478036"
Masjid,Mosque,"799G+Q3F Masjid, Sihavali, Uttar Pradesh 243751",,799G+Q3F,Sihavali,243751,Uttar Pradesh,IN,https://www.google.com/maps/place/Masjid/data=!4m7!3m6!1s0x390b37abe147be97:0xa9dedd0e8fd41049!8m2!3d28.2694308!4d78.3751757!16s%2Fg%2F11tj9hzps0!19sChIJl75H4as3CzkRSRDUjw7d3qk?authuser=0&hl=en&rclk=1,"28.2694308,78.3751757"
