name,main_category,address,address_ward,address_street,address_city,address_postal_code,address_state,address_country_code,link,coordinates
Jama Masjid,Mosque,"Jama Masjid, Old Delhi, Delhi, 110006","Jama Masjid, Old Delhi",,Delhi,110006,Delhi,IN,https://www.google.com/maps/place/Jama+Masjid/data=!4m7!3m6!1s0x390cfd18df89b215:0xdd57369e29bf9d96!8m2!3d28.6506792!4d77.2334421!16zL20vMDR5emo1!19sChIJFbKJ3xj9DDkRlp2_KZ42V90?authuser=0&hl=en&rclk=1,"28.6506792,77.23344209999999"
Masjid Mujeeb Bagh,Mosque,"H74R+R4J Masjid Mujeeb Bagh, Mujeeb Bagh, Jamia Nagar, Okhla, New Delhi, Delhi 110025","Mujeeb Bagh, Jamia Nagar, Okhla",H74R+R4J,New Delhi,110025,Delhi,IN,https://www.google.com/maps/place/Masjid+Mujeeb+Bagh/data=!4m7!3m6!1s0x390ce40bc79e1ce9:0x18ab01f5fdcf10b3!8m2!3d28.5570856!4d77.2902574!16s%2Fg%2F11hbvrlrnj!19sChIJ6RyexwvkDDkRsxDP_fUBqxg?authuser=0&hl=en&rclk=1,"28.557085599999997,77.2902574"
Al Noor Masjid,Mosque,"Al Noor Masjid, Nafees Rd, Batla House, Jamia Nagar, Okhla, New Delhi, Delhi 110025","Batla House, Jamia Nagar, Okhla",Nafees Rd,New Delhi,110025,Delhi,IN,https://www.google.com/maps/place/Al+Noor+Masjid/data=!4m7!3m6!1s0x390ce476496a23f3:0xa12d95c7c3bb68ab!8m2!3d28.569068!4d77.2862973!16s%2Fg%2F1tg_7v_w!19sChIJ8yNqSXbkDDkRq2i7w8eVLaE?authuser=0&hl=en&rclk=1,"28.569067999999998,77.2862973"
Tayyab Masjid,Mosque,"Tayyab Masjid, Rose Apartment c-310/311, abulfazal enclave , THOKAR no.08, Shaheen Bagh, Jamia Nagar, Jasola, New Delhi, Delhi 110025","Shaheen Bagh, Jamia Nagar, Jasola","Rose Apartment c-310/311, abulfazal enclave , THOKAR no.08",New Delhi,110025,Delhi,IN,https://www.google.com/maps/place/Tayyab+Masjid/data=!4m7!3m6!1s0x390ce41be7fa0e79:0xf5aab92c434b57cd!8m2!3d28.5468755!4d77.3030481!16s%2Fg%2F124yqskq9!19sChIJeQ765xvkDDkRzVdLQyy5qvU?authuser=0&hl=en&rclk=1,"28.5468755,77.3030481"
Jama Masjid Amroha,Mosque,"Jama Masjid Amroha, Shahvilayat Rd, Mohalla Satti, Mohalla Mullana, Amroha, Uttar Pradesh 244221","Mohalla Satti, Mohalla Mullana",Shahvilayat Rd,Amroha,244221,Uttar Pradesh,IN,https://www.google.com/maps/place/Jama+Masjid+Amroha/data=!4m7!3m6!1s0x390b09de5ac93205:0x7b952d938a2f4e11!8m2!3d28.9051389!4d78.4653422!16s%2Fg%2F11pbzlr6l9!19sChIJBTLJWt4JCzkREU4vipMtlXs?authuser=0&hl=en&rclk=1,"28.905138899999997,78.4653422"
Al Taqwa Masjid,Mosque,"Al Taqwa Masjid, 42A, Jogabai Extension, Okhla, New Delhi, Delhi 110025","Jogabai Extension, Okhla",42A,New Delhi,110025,Delhi,IN,https://www.google.com/maps/place/Al+Taqwa+Masjid/data=!4m7!3m6!1s0x390ce3886898c141:0x9ba952352c057021!8m2!3d28.5711037!4d77.2843441!16s%2Fg%2F11b6j7lmqh!19sChIJQcGYaIjjDDkRIXAFLDVSqZs?authuser=0&hl=en&rclk=1,"28.5711037,77.2843441"
Khirki Masjid,Mosque,"Khirki Masjid, A 107, near Khirki Masjid, Malviya Nagar, Delhi 110017","Khirki Extension, Khidki Village, Malviya Nagar","A 107, near Khirki Masjid",New Delhi,110017,Delhi,IN,https://www.google.com/maps/place/Khirki+Masjid/data=!4m7!3m6!1s0x390ce18a834f5b11:0xe3e0b2844b3bf52a!8m2!3d28.5315029!4d77.219719!16s%2Fm%2F06415vc!19sChIJEVtPg4rhDDkRKvU7S4Sy4OM?authuser=0&hl=en&rclk=1,"28.5315029,77.219719"
Masjid Shahab,Mosque,"H78P+VWV Masjid Shahab, Jamia, Batla House, Jamia Nagar, Okhla, New Delhi, Delhi 110025","Jamia, Batla House, Jamia Nagar, Okhla",H78P+VWV,New Delhi,110025,Delhi,IN,https://www.google.com/maps/place/Masjid+Shahab/data=!4m7!3m6!1s0x390ce4760f556f8d:0xc0285f5f2f62012c!8m2!3d28.5672496!4d77.2873032!16s%2Fg%2F1hhm006pz!19sChIJjW9VD3bkDDkRLAFiL19fKMA?authuser=0&hl=en&rclk=1,"28.5672496,77.2873032"
Sabz Masjid,Mosque,"Sabz Masjid, 3571, Lalkuan Bazar Rd, Bazar Sirkiwalan, Lal Kuan Bazar, Chandni Chowk, Delhi, 110006","Bazar Sirkiwalan, Lal Kuan Bazar, Chandni Chowk","3571, Lalkuan Bazar Rd",Delhi,110006,Delhi,IN,https://www.google.com/maps/place/Sabz+Masjid/data=!4m7!3m6!1s0x390cfd16a94877a7:0x7b35bb653cd42e20!8m2!3d28.652163!4d77.223599!16s%2Fm%2F04q247t!19sChIJp3dIqRb9DDkRIC7UPGW7NXs?authuser=0&hl=en&rclk=1,"28.652162999999998,77.223599"
Ramzani Masjid,Mosque,"Ramzani Masjid, E-44, Abul Fazal Enclave, Jamia Nagar, Okhla, New Delhi, Delhi 110025","Abul Fazal Enclave, Jamia Nagar, Okhla",E-44,New Delhi,110025,Delhi,IN,https://www.google.com/maps/place/Ramzani+Masjid/data=!4m7!3m6!1s0x390ce40cbcae3df1:0x4955691717a5c725!8m2!3d28.5606791!4d77.292931!16s%2Fg%2F11dxfpr0ns!19sChIJ8T2uvAzkDDkRJcelFxdpVUk?authuser=0&hl=en&rclk=1,"28.560679099999998,77.292931"
Masjid and Madarsa,Mosque,"H78P+G28 Masjid and Madarsa, Jamia, Batla House, Jamia Nagar, Okhla, New Delhi, Delhi 110025","Jamia, Batla House, Jamia Nagar, Okhla",H78P+G28,New Delhi,110025,Delhi,IN,https://www.google.com/maps/place/Masjid+and+Madarsa/data=!4m7!3m6!1s0x390ce38a18a5d97f:0xdcfc61f3d0f88168!8m2!3d28.5662905!4d77.2850829!16s%2Fg%2F1hg4wfd46!19sChIJf9mlGIrjDDkRaIH40PNh_Nw?authuser=0&hl=en&rclk=1,"28.566290499999997,77.28508289999999"
Haneefa Maszid,Mosque,"Haneefa Maszid, Gareeb yar, Haneefa mszid road, 110044, near Dargah, Jaitpur Extension Part II, Khadda Colony, Jaitpur, New Delhi, Delhi 110044","Jaitpur Extension Part II, Khadda Colony, Jaitpur","Gareeb yar, Haneefa mszid road, 110044, near Dargah",New Delhi,110044,Delhi,IN,https://www.google.com/maps/place/Haneefa+Maszid/data=!4m7!3m6!1s0x390ce65bd7dcffed:0x835b6e616cf17019!8m2!3d28.5120862!4d77.3382194!16s%2Fg%2F11dxbjqkn2!19sChIJ7f_c11vmDDkRGXDxbGFuW4M?authuser=0&hl=en&rclk=1,"28.5120862,77.3382194"
JAMA MASJID SULTANNUL AAULIA WA MADARSA ARABIA AHLE SUNNAT,Mosque,"JAMA MASJID SULTANNUL AAULIA WA MADARSA ARABIA AHLE SUNNAT, NO - 4, GALI NO 8, 8, Ratiya Marg, Sangam Vihar, New Delhi, Delhi 110062","Talimabad, Sangam Vihar","NO - 4, GALI NO 8, 8, Ratiya Marg",New Delhi,110062,Delhi,IN,https://www.google.com/maps/place/JAMA+MASJID+SULTANNUL+AAULIA+WA+MADARSA+ARABIA+AHLE+SUNNAT/data=!4m7!3m6!1s0x390ce10da330b711:0x37328a91bb35c098!8m2!3d28.5082342!4d77.25033!16s%2Fg%2F1jkyb_kvd!19sChIJEbcwow3hDDkRmMA1u5GKMjc?authuser=0&hl=en&rclk=1,"28.5082342,77.25032999999999"
Jannati Masjid,Mosque,"Jannati Masjid, Gali No.18,Maan Singh Nagar, Old Mustafabad, New Mustafabad, Delhi, 110094","Mansingh Nagar, Old Mustafabad, New Mustafabad","Gali No.18,Maan Singh Nagar",Delhi,110094,Delhi,IN,https://www.google.com/maps/place/Jannati+Masjid/data=!4m7!3m6!1s0x390cfc04dab2904d:0xf9f8d25ed97684f2!8m2!3d28.7112961!4d77.2767655!16s%2Fg%2F12lkffcg4!19sChIJTZCy2gT8DDkR8oR22V7S-Pk?authuser=0&hl=en&rclk=1,"28.7112961,77.2767655"
Noori Masjid,Mosque,"Noori Masjid, Gali Number 5, Block R3, Block N 2, Mohan Garden, Razapur Khurd, New Delhi, Delhi, 110059","Block R3, Block N 2, Mohan Garden, Razapur Khurd",Gali Number 5,"New Delhi, Delhi",110059,Delhi,IN,https://www.google.com/maps/place/Noori+Masjid/data=!4m7!3m6!1s0x390d0513eaa8410b:0x1d6c8f1ba0084c41!8m2!3d28.6359419!4d77.0371849!16s%2Fg%2F11bwfm7r_m!19sChIJC0Go6hMFDTkRQUwIoBuPbB0?authuser=0&hl=en&rclk=1,"28.6359419,77.0371849"
Noorani Masjid,Mosque,"F59M+H46 Noorani Masjid, Chandan Hola, New Delhi, Delhi 110074",Chandan Hola,F59M+H46,New Delhi,110074,Delhi,IN,https://www.google.com/maps/place/Noorani+Masjid/data=!4m7!3m6!1s0x390d1fc532333ee3:0x8f9790e5b736649b!8m2!3d28.4689233!4d77.1827702!16s%2Fg%2F11b7hpcszy!19sChIJ4z4zMsUfDTkRm2Q2t-WQl48?authuser=0&hl=en&rclk=1,"28.4689233,77.1827702"
Norani Jama Masjid,Mosque,"M3QM+VHG Norani Jama Masjid, DDA Market, Block S, Mangolpuri, Delhi, 110083","DDA Market, Block S, Mangolpuri",M3QM+VHG,Delhi,110083,Delhi,IN,https://www.google.com/maps/place/Norani+Jama+Masjid/data=!4m7!3m6!1s0x390d041c7ebc3ed1:0x4d30be5dfa0e512a!8m2!3d28.6896752!4d77.0839459!16s%2Fg%2F12hkh0xqh!19sChIJ0T68fhwEDTkRKlEO-l2-ME0?authuser=0&hl=en&rclk=1,"28.6896752,77.0839459"
Masjid Dhobiyan,Mosque,"Masjid Dhobiyan, 3280, Delhi Gate Bazar, Kucha Alam, Old Dariya Ganj, New Delhi, Delhi 110002","Chatta lal Miya, Chandni Mahal, Old Delhi","3280, Delhi Gate Bazar, Kucha Alam, Old Dariya Ganj","New Delhi, Delhi",110002,Delhi,IN,https://www.google.com/maps/place/Masjid+Dhobiyan/data=!4m7!3m6!1s0x390cfd273340d127:0x7d6d2edf4a35f8d9!8m2!3d28.6425263!4d77.2386389!16s%2Fg%2F11cs5s2vzb!19sChIJJ9FAMyf9DDkR2fg1St8ubX0?authuser=0&hl=en&rclk=1,"28.6425263,77.2386389"
Tayyiba Masjid,Mosque,"H79J+768 Tayyiba Masjid, Street Number 12, Jogabai Extension, Zakir Nagar, Okhla, New Delhi, Delhi 110025","Jogabai Extension, Zakir Nagar, Okhla","H79J+768, Street Number 12",New Delhi,110025,Delhi,IN,https://www.google.com/maps/place/Tayyiba+Masjid/data=!4m7!3m6!1s0x390ce38ec9213115:0xab7c6b478fb01bca!8m2!3d28.5681551!4d77.2805765!16s%2Fg%2F11f39nzy8x!19sChIJFTEhyY7jDDkRyhuwj0drfKs?authuser=0&hl=en&rclk=1,"28.5681551,77.2805765"
"Noorani Masjid, (Zakir Nagar)",Mosque,"H7CH+9VG Noorani Masjid, (Zakir Nagar), Gali Number 39, Zakir Nagar, New Friends Colony, New Delhi, Delhi 110025","Zakir Nagar, New Friends Colony","H7CH+9VG, Gali Number 39",New Delhi,110025,Delhi,IN,"https://www.google.com/maps/place/Noorani+Masjid,+%28Zakir+Nagar%29/data=!4m7!3m6!1s0x390ce38f45a96e4d:0x7eeaca0dd75db25d!8m2!3d28.5709494!4d77.2796972!16s%2Fg%2F1hm5b98b0!19sChIJTW6pRY_jDDkRXbJd1w3K6n4?authuser=0&hl=en&rclk=1","28.5709494,77.2796972"
Nurani Masjid,Mosque,"G87P+9FG Nurani Masjid, Shamshul Marg, Jaitpur Extension Part II, Khadda Colony, Badarpur, New Delhi, Delhi 110044","Jaitpur Extension Part II, Khadda Colony, Badarpur","G87P+9FG, Shamshul Marg",New Delhi,110044,Delhi,IN,https://www.google.com/maps/place/Nurani+Masjid/data=!4m7!3m6!1s0x390ce65930824353:0xc2da84d501d29ac9!8m2!3d28.5134438!4d77.3362129!16s%2Fg%2F11bv1cg3ng!19sChIJU0OCMFnmDDkRyZrSAdWE2sI?authuser=0&hl=en&rclk=1,"28.513443799999997,77.33621289999999"
Masjid Amaniya Jamalu ka Bagh msjd mnyh jmlw kh bG,Mosque,"Masjid Amaniya Jamalu ka Bagh msjd mnyh jmlw kh bG, Main, Maujpur Rd, Shahdara, Delhi, 110053",Shahdara,"Main, Maujpur Rd",Delhi,110053,Delhi,IN,https://www.google.com/maps/place/Masjid+Amaniya+Jamalu+ka+Bagh+%D9%85%D8%B3%D8%AC%D8%AF+%D8%A7%D9%85%D8%A7%D9%86%DB%8C%DB%81+%D8%AC%D9%85%D8%A7%D9%84%D9%88+%DA%A9%D8%A7+%D8%A8%D8%A7%D8%BA%E2%80%AD/data=!4m7!3m6!1s0x390cfc7abcd4bae7:0xe8588606af183e3c!8m2!3d28.6855897!4d77.2762341!16s%2Fg%2F11bxdtk5g1!19sChIJ57rUvHr8DDkRPD4YrwaGWOg?authuser=0&hl=en&rclk=1,"28.685589699999998,77.2762341"
Fakhrul Masjid msjd,Mosque,"Fakhrul Masjid msjd, 1268, Bara Bazar Rd, Chabi Ganj, Kashmere Gate, New Delhi, Delhi, 110006","Chabi Ganj, Kashmere Gate","1268, Bara Bazar Rd","New Delhi, Delhi",110006,Delhi,IN,https://www.google.com/maps/place/Fakhrul+Masjid+%D9%85%D8%B3%D8%AC%D8%AF%E2%80%AD/data=!4m7!3m6!1s0x390cfd060683b301:0xc9d92074bb420992!8m2!3d28.665012!4d77.2295583!16s%2Fg%2F11cmytc3k3!19sChIJAbODBgb9DDkRkglCu3Qg2ck?authuser=0&hl=en&rclk=1,"28.665011999999997,77.2295583"
Masjid Teliyan,Mosque,"J6VP+9JM Masjid Teliyan, Bazar Chitli Qabar, Rakab Ganj, Chandni Mahal, Chandni Chowk, New Delhi, Delhi, 110006","Bazar Chitli Qabar, Rakab Ganj, Chandni Mahal, Chandni Chowk",J6VP+9JM,"New Delhi, Delhi",110006,Delhi,IN,https://www.google.com/maps/place/Masjid+Teliyan/data=!4m7!3m6!1s0x390cfd214be94f43:0x2cda7c5aeb3a5464!8m2!3d28.6434733!4d77.2365384!16s%2Fg%2F11bzzlszqp!19sChIJQ0_pSyH9DDkRZFQ661p82iw?authuser=0&hl=en&rclk=1,"28.6434733,77.2365384"
Ghausiya Masjid-Ahle Sunnat,Mosque,"P754+C9V Ghausiya Masjid-Ahle Sunnat, Shriram Colony, Block A, Rajiv Nagar, Sonia Vihar, Delhi, 110094","Shriram Colony, Block A, Rajiv Nagar, Sonia Vihar",P754+C9V,Delhi,110094,Delhi,IN,https://www.google.com/maps/place/Ghausiya+Masjid-Ahle+Sunnat/data=!4m7!3m6!1s0x390cfc24c230725f:0x1f4267f592f4dcc4!8m2!3d28.7086023!4d77.25591!16s%2Fg%2F11g8ktyrzr!19sChIJX3IwwiT8DDkRxNz0kvVnQh8?authuser=0&hl=en&rclk=1,"28.7086023,77.25591"
Ata E Rasool Masjid,Mosque,"P744+V55 Ata E Rasool Masjid, Shriram Colony, Block A, Rajiv Nagar, Sonia Vihar, Delhi, 110094","Shriram Colony, Block A, Rajiv Nagar, Sonia Vihar",P744+V55,Delhi,110094,Delhi,IN,https://www.google.com/maps/place/Ata+E+Rasool+Masjid/data=!4m7!3m6!1s0x390cfc3b2d10341f:0xd365e06455e65096!8m2!3d28.7071349!4d77.2554772!16s%2Fg%2F11dxrw2d2x!19sChIJHzQQLTv8DDkRllDmVWTgZdM?authuser=0&hl=en&rclk=1,"28.7071349,77.2554772"
Masjid-e-Anjum,Mosque,"Masjid-e-Anjum, Indira Gandhi Camp Part 2, New Friends Colony, New Delhi, Delhi 110065","Block A, Taimoor Nagar, New Friends Colony","Indira Gandhi Camp Part 2, New Friends Colony",New Delhi,110065,Delhi,IN,https://www.google.com/maps/place/Masjid-e-Anjum/data=!4m7!3m6!1s0x390ce39a2cbe5dad:0x263099a5cc320902!8m2!3d28.573773!4d77.2696933!16s%2Fg%2F11ckkxbn_t!19sChIJrV2-LJrjDDkRAgkyzKWZMCY?authuser=0&hl=en&rclk=1,"28.573773,77.2696933"
Masjid Mashal Chiyan,Mosque,"Masjid Mashal Chiyan, 2100, Pahari Bhojla Rd, Pahari Bhojla, Sita Ram Bazar, Old Delhi, Delhi, 110006","Pahari Bhojla, Sita Ram Bazar, Old Delhi","2100, Pahari Bhojla Rd",Delhi,110006,Delhi,IN,https://www.google.com/maps/place/Masjid+Mashal+Chiyan/data=!4m7!3m6!1s0x390cfd225b6ed379:0x9d5cccd781f0a815!8m2!3d28.6454716!4d77.232231!16s%2Fg%2F11f1211zsv!19sChIJedNuWyL9DDkRFajwgdfMXJ0?authuser=0&hl=en&rclk=1,"28.6454716,77.232231"
Jama Masjid,Mosque,"Jama Masjid, Jama Masjid Gali, R3-A2 Block, Block R, Mohan Garden, Razapur Khurd, Delhi, 110059","R3-A2 Block, Block R, Mohan Garden, Razapur Khurd",Jama Masjid Gali,Delhi,110059,Delhi,IN,https://www.google.com/maps/place/Jama+Masjid/data=!4m7!3m6!1s0x390d05bd2be65383:0xf402d37ca6cf848f!8m2!3d28.635274!4d77.0368245!16s%2Fg%2F11j48dyx96!19sChIJg1PmK70FDTkRj4TPpnzTAvQ?authuser=0&hl=en&rclk=1,"28.635274,77.0368245"
Masjid,Mosque,"H769+P87 Masjid, Block A, Friends Colony East, New Friends Colony, New Delhi, Delhi 110025","Block A, Friends Colony East, New Friends Colony",H769+P87,New Delhi,110025,Delhi,IN,https://www.google.com/maps/place/Masjid/data=!4m7!3m6!1s0x390ce3a3874c1a6d:0x3777b5148e43553a!8m2!3d28.5617917!4d77.2683072!16s%2Fg%2F11grc87l61!19sChIJbRpMh6PjDDkROlVDjhS1dzc?authuser=0&hl=en&rclk=1,"28.561791699999997,77.2683072"
Nurani Masjid,Mosque,"J7PC+G67 Nurani Masjid, Ansar Nagar, Ramesh Park, Laxmi Nagar, New Delhi, Delhi, 110092","Ansar Nagar, Ramesh Park, Laxmi Nagar",J7PC+G67,"New Delhi, Delhi",110092,Delhi,IN,https://www.google.com/maps/place/Nurani+Masjid/data=!4m7!3m6!1s0x390cfcb13d2eb817:0xccb1081aadae8215!8m2!3d28.6362839!4d77.2705327!16s%2Fg%2F11dxnmpqhm!19sChIJF7guPbH8DDkRFYKurRoIscw?authuser=0&hl=en&rclk=1,"28.6362839,77.27053269999999"
JAMA MASJID UMAR BIN KHATTAB,Mosque,"G8W3+XWV JAMA MASJID UMAR BIN KHATTAB, Kalindi Kunj Rd, Block H, Jamia Nagar, Okhla, New Delhi, Delhi 110025","Block H, Jamia Nagar, Okhla","G8W3+XWV, Kalindi Kunj Rd",New Delhi,110025,Delhi,IN,https://www.google.com/maps/place/JAMA+MASJID+UMAR+BIN+KHATTAB/data=!4m7!3m6!1s0x390ce51eb7ea0bfd:0xe968824c610cc265!8m2!3d28.5474867!4d77.3047909!16s%2Fg%2F11h7p6jtqd!19sChIJ_Qvqtx7lDDkRZcIMYUyCaOk?authuser=0&hl=en&rclk=1,"28.5474867,77.3047909"
Ramzania Masjid,Mosque,"M7G8+H3W Ramzania Masjid, Phase 1, Block J, Shahdara, Delhi, 110053","Phase 1, Block J, Shahdara",M7G8+H3W,Delhi,110053,Delhi,IN,https://www.google.com/maps/place/Ramzania+Masjid/data=!4m7!3m6!1s0x390cfc605f1fc6dd:0x8e4ff1e8c957f8c9!8m2!3d28.6764861!4d77.2652025!16s%2Fg%2F11dxrtb5q8!19sChIJ3cYfX2D8DDkRyfhXyejxT44?authuser=0&hl=en&rclk=1,"28.676486099999998,77.2652025"
SUBHANI MASJID,Mosque,"F58J+F6H SUBHANI MASJID, Mallahad Colony, Chandan Hola, New Delhi, Delhi 110074","Mallahad Colony, Chandan Hola",F58J+F6H,New Delhi,110074,Delhi,IN,https://www.google.com/maps/place/SUBHANI+MASJID/data=!4m7!3m6!1s0x390d1fc48c92064b:0x79b45fd70bf54505!8m2!3d28.46619!4d77.1806058!16s%2Fg%2F11cly9kksx!19sChIJSwaSjMQfDTkRBUX1C9dftHk?authuser=0&hl=en&rclk=1,"28.466189999999997,77.1806058"
Tara Masjid,Mosque,"58PC+2C6 Tara Masjid, Ashrafabad Thal, Uttar Pradesh 250623",,58PC+2C6,Ashrafabad Thal,,Uttar Pradesh,IN,https://www.google.com/maps/place/Tara+Masjid/data=!4m7!3m6!1s0x390c3781d48d852d:0x6e51c4980ed32c34!8m2!3d29.1850324!4d77.3210085!16s%2Fg%2F11g0g2j517!19sChIJLYWN1IE3DDkRNCzTDpjEUW4?authuser=0&hl=en&rclk=1,"29.185032399999997,77.32100849999999"
Sunni masjid,Mosque,"F42V+PV8 Sunni masjid, Ambedkar Colony, Jaunapur, New Delhi, Delhi 110047","Ambedkar Colony, Jaunapur",F42V+PV8,New Delhi,110047,Delhi,IN,https://www.google.com/maps/place/Sunni+masjid/data=!4m7!3m6!1s0x390d1f24db8aef63:0x73ad93ffa54c799c!8m2!3d28.4517871!4d77.1447087!16s%2Fg%2F11sy3fb2tf!19sChIJY--K2yQfDTkRnHlMpf-TrXM?authuser=0&hl=en&rclk=1,"28.451787099999997,77.1447087"
JAMA masjid Tirthali,Mosque,"6HCP+HHV JAMA masjid Tirthali, Tirthali, Uttar Pradesh 203209",,6HCP+HHV,Tirthali,203209,Uttar Pradesh,IN,https://www.google.com/maps/place/JAMA+masjid+Tirthali/data=!4m7!3m6!1s0x390cb7d9d5815ddb:0xd3dea169d02b680e!8m2!3d28.221496!4d77.5864357!16s%2Fg%2F11hgjcl1s7!19sChIJ212B1dm3DDkRDmgr0Gmh3tM?authuser=0&hl=en&rclk=1,"28.221496,77.5864357"
Masjid Sultani,Mosque,"Masjid Sultani, M-99 Gali no 12, Batla House, Okhla, New Delhi, Delhi 110025","Batla House, Okhla",M-99 Gali no 12,New Delhi,110025,Delhi,IN,https://www.google.com/maps/place/Masjid+Sultani/data=!4m7!3m6!1s0x390ce4770555a743:0xddc26b798b59ecce!8m2!3d28.5707577!4d77.2900673!16s%2Fg%2F11hd24hr29!19sChIJQ6dVBXfkDDkRzuxZi3lrwt0?authuser=0&hl=en&rclk=1,"28.570757699999998,77.29006729999999"
Munawra masjid,Mosque,"M7P4+6M2 Munawra masjid, Masjid Road, Third Pushta, Usmanpur, Nayagaon Village, Shahdara, Delhi, 110053","Third Pushta, Nayagaon, Nayagaon Village, Shahdara","M7P4+6M2, Masjid Road, Third Pushta, Usmanpur",Delhi,110053,Delhi,IN,https://www.google.com/maps/place/Munawra+masjid/data=!4m7!3m6!1s0x390cfd030e33f563:0x5dc12b36744f9a85!8m2!3d28.6855176!4d77.2566372!16s%2Fg%2F11hzwz2ypj!19sChIJY_UzDgP9DDkRhZpPdDYrwV0?authuser=0&hl=en&rclk=1,"28.685517599999997,77.2566372"
NURANI MASJID,Mosque,"82JR+WPJ NURANI MASJID, Tarana, Madhya Pradesh 456665",,82JR+WPJ,Tarana,456665,Madhya Pradesh,IN,https://www.google.com/maps/place/NURANI+MASJID/data=!4m7!3m6!1s0x396367d2f9fc1005:0xa2b9c6044515f2ca!8m2!3d23.332327!4d76.041755!16s%2Fg%2F11d_bt_7fg!19sChIJBRD8-dJnYzkRyvIVRQTGuaI?authuser=0&hl=en&rclk=1,"23.332327,76.041755"
Masjid annoor Jahan,Mosque,"H78J+HQ5 Masjid annoor Jahan, Street Number 2, Mehboob Nagar, Jogabai Extension, Okhla, New Delhi, Delhi 110025","Mehboob Nagar, Jogabai Extension, Okhla","H78J+HQ5, Street Number 2",New Delhi,110025,Delhi,IN,https://www.google.com/maps/place/Masjid+annoor+Jahan/data=!4m7!3m6!1s0x390ce38edd294515:0xf9f6a26d69a9d112!8m2!3d28.5663801!4d77.2819754!16s%2Fg%2F11g6rd5s7t!19sChIJFUUp3Y7jDDkREtGpaW2i9vk?authuser=0&hl=en&rclk=1,"28.5663801,77.2819754"
Masjid Sanauji,Mosque,"Masjid Sanauji, Shop No. 1630, Lal Kuan, Lalkuan Bazar Rd, Baradari, Chandni Chowk, New Delhi, Delhi 110006","Bazar Sirkiwalan, Baradari, Chandni Chowk","Shop No. 1630, Lal Kuan, Lalkuan Bazar Rd","New Delhi, Delhi",110006,Delhi,IN,https://www.google.com/maps/place/Masjid+Sanauji/data=!4m7!3m6!1s0x390cfd13fe3ea72d:0x27ea23bc5f650202!8m2!3d28.6529317!4d77.2232485!16s%2Fg%2F12hplq4pp!19sChIJLac-_hP9DDkRAgJlX7wj6ic?authuser=0&hl=en&rclk=1,"28.6529317,77.2232485"
Mosque msjd,Mosque,"Mosque msjd, 3696, Mori Gate, New Delhi, Delhi 110006",Mori Gate,3696,"New Delhi, Delhi",110006,Delhi,IN,https://www.google.com/maps/place/Mosque+%D9%85%D8%B3%D8%AC%D8%AF%E2%80%AD/data=!4m7!3m6!1s0x390cfd0c79fa6f11:0x326ac233054d2efa!8m2!3d28.6635017!4d77.2212005!16s%2Fg%2F12lkq2186!19sChIJEW_6eQz9DDkR-i5NBTPCajI?authuser=0&hl=en&rclk=1,"28.663501699999998,77.2212005"
khwy'yN wly msjd Kuein Wali Masjid,Mosque,"khwy'yN wly msjd Kuein Wali Masjid, 3017, Ram Bazar Marg, Mori Gate, Delhi, 110006","Ganda Nala Bazar, South Indian Madrasi Colony, Mori Gate","3017, Ram Bazar Marg",Delhi,110006,Delhi,IN,https://www.google.com/maps/place/%DA%A9%D9%88%D8%A6%DB%8C%DA%BA+%D9%88%D8%A7%D9%84%DB%8C+%D9%85%D8%B3%D8%AC%D8%AF+Kuein+Wali+Masjid%E2%80%AD/data=!4m7!3m6!1s0x390cfd0eb6b8bd09:0x18933362fd3b39e4!8m2!3d28.663729!4d77.224411!16s%2Fg%2F12hqtrvvz!19sChIJCb24tg79DDkR5Dk7_WIzkxg?authuser=0&hl=en&rclk=1,"28.663729,77.224411"
Shahi Kila Masjid,Mosque,"82PV+P7J Shahi Kila Masjid, Tarana, Madhya Pradesh 456665",,82PV+P7J,Tarana,456665,Madhya Pradesh,IN,https://www.google.com/maps/place/Shahi+Kila+Masjid/data=!4m7!3m6!1s0x396367cdb9e3c13d:0x75a0a70c953d9faf!8m2!3d23.3368418!4d76.0431557!16s%2Fg%2F11dx8_wwlc!19sChIJPcHjuc1nYzkRr589lQynoHU?authuser=0&hl=en&rclk=1,"23.3368418,76.0431557"
biic vaalii msjid Taprana,Mosque,"F7Q4+7HG biic vaalii msjid Taprana, Taprana, Uttar Pradesh 247776",,F7Q4+7HG,Taprana,247776,Uttar Pradesh,IN,https://www.google.com/maps/place/%E0%A4%AC%E0%A5%80%E0%A4%9A+%E0%A4%B5%E0%A4%BE%E0%A4%B2%E0%A5%80+%E0%A4%AE%E0%A4%B8%E0%A5%8D%E0%A4%9C%E0%A4%BF%E0%A4%A6+Taprana/data=!4m7!3m6!1s0x390c2bb11f5581f7:0xdc08fdb6b3f5f8d!8m2!3d29.4881926!4d77.2564438!16s%2Fg%2F11gbz35d87!19sChIJ94FVH7ErDDkRjV8_a9uPwA0?authuser=0&hl=en&rclk=1,"29.488192599999998,77.2564438"
Masjid Sarbhanna,Mosque,"Masjid Sarbhanna, Sarbhanna, Uttar Pradesh 203397",,,Sarbhanna,,Uttar Pradesh,IN,https://www.google.com/maps/place/Masjid+Sarbhanna/data=!4m7!3m6!1s0x3974ad7dcb4d7bd7:0x72f6b9c2a6cf1232!8m2!3d28.113697!4d78.107986!16s%2Fg%2F1hhj5wq08!19sChIJ13tNy32tdDkRMhLPpsK59nI?authuser=0&hl=en&rclk=1,"28.113697,78.107986"
Madarbad Masjid,Mosque,"82QR+6X9 Madarbad Masjid, Taranakasba, Madhya Pradesh 456665",,82QR+6X9,Taranakasba,456665,Madhya Pradesh,IN,https://www.google.com/maps/place/Madarbad+Masjid/data=!4m7!3m6!1s0x396367cc5a65f25d:0x559fa2596230844c!8m2!3d23.3380479!4d76.0424964!16s%2Fg%2F11dx8_jkf4!19sChIJXfJlWsxnYzkRTIQwYlmin1U?authuser=0&hl=en&rclk=1,"23.3380479,76.04249639999999"
Madarsa Rashidiya Masjid,Mosque,"J6MR+85P Madarsa Rashidiya Masjid, Bahadur Shah Zafar Marg, Maulana Azad Medical College Campus, Balmiki Basti, Vikram Nagar, New Delhi, Delhi, 110002","Maulana Azad Medical College Campus, Balmiki Basti, Vikram Nagar","J6MR+85P, Bahadur Shah Zafar Marg","New Delhi, Delhi",110002,Delhi,IN,https://www.google.com/maps/place/Madarsa+Rashidiya+Masjid/data=!4m7!3m6!1s0x390cfdeb4ab5bc19:0x53a0d804e40e1e9e!8m2!3d28.6333351!4d77.2404638!16s%2Fg%2F11sq1jxmjs!19sChIJGby1Suv9DDkRnh4O5ATYoFM?authuser=0&hl=en&rclk=1,"28.6333351,77.2404638"
Mosque Fatimah msjd fTmh,Mosque,"5, Mosque Fatimah msjd fTmh, Court, Near Victoria School, Old, Rajpur Rd, Police Lines, Tis Hazari, Delhi, 110054","Police Lines, Tis Hazari","5, Court, Near Victoria School, Old, Rajpur Rd",Delhi,110054,Delhi,IN,https://www.google.com/maps/place/Mosque+Fatimah+%D9%85%D8%B3%D8%AC%D8%AF+%D9%81%D8%A7%D8%B7%D9%85%D9%87%E2%80%AD/data=!4m7!3m6!1s0x390cfd8d99d1b35d:0x2c50b47f84e280cf!8m2!3d28.6692641!4d77.2194655!16s%2Fg%2F11h239cc9d!19sChIJXbPRmY39DDkRz4DihH-0UCw?authuser=0&hl=en&rclk=1,"28.6692641,77.2194655"
Tera Masjid,Mosque,"29G4+JWX Tera Masjid, Tera, Uttar Pradesh 250606",,29G4+JWX,Tera,,Uttar Pradesh,IN,https://www.google.com/maps/place/Tera+Masjid/data=!4m7!3m6!1s0x390c4f9e3e1e0921:0xfe10d3026fc31ce6!8m2!3d29.026623!4d77.3573538!16s%2Fg%2F11gnrwn52j!19sChIJIQkePp5PDDkR5hzDbwLTEP4?authuser=0&hl=en&rclk=1,"29.026622999999997,77.3573538"
jama masjid madarsa taleemul quran,Mosque,"jama masjid madarsa taleemul quran, C 10, Captain Gaur Marg, C Block, Kailash Hills, East of Kailash, New Delhi, Delhi 110065","C Block, Kailash Hills, East of Kailash","C 10, Captain Gaur Marg",New Delhi,110065,Delhi,IN,https://www.google.com/maps/place/jama+masjid+madarsa+taleemul+quran/data=!4m7!3m6!1s0x390ce3bedd0d5df7:0x3a3b95b54ca809a8!8m2!3d28.5619545!4d77.2590985!16s%2Fg%2F11g7zz4m0j!19sChIJ910N3b7jDDkRqAmoTLWVOzo?authuser=0&hl=en&rclk=1,"28.5619545,77.2590985"
Masjid,Mosque,"H77Q+868 Masjid, Okhla Village, Okhla, New Delhi, Delhi 110025","Okhla Village, Okhla",H77Q+868,New Delhi,110025,Delhi,IN,https://www.google.com/maps/place/Masjid/data=!4m7!3m6!1s0x390ce47512f7aa2b:0x544337a9b9e5d7a2!8m2!3d28.5632814!4d77.2880932!16s%2Fg%2F11gbtpj5td!19sChIJK6r3EnXkDDkRotfluak3Q1Q?authuser=0&hl=en&rclk=1,"28.563281399999997,77.28809319999999"
Mumtaz Masjid,Mosque,"H79Q+MFC Mumtaz Masjid, Batla House, Jamia Nagar, Okhla, New Delhi, Delhi 110025","Batla House, Jamia Nagar, Okhla",H79Q+MFC,New Delhi,,Delhi,IN,https://www.google.com/maps/place/Mumtaz+Masjid/data=!4m7!3m6!1s0x390ce51ea4a1764d:0x7975b3d87786376a!8m2!3d28.5691957!4d77.2886424!16s%2Fg%2F11k3j1s_k9!19sChIJTXahpB7lDDkRajeGd9izdXk?authuser=0&hl=en&rclk=1,"28.569195699999998,77.2886424"
Masjid namra,Mosque,"P76H+J76 Masjid namra, Gali Number 8, Phase 1, Bhagirathi Vihar, Gokalpur, Delhi, 110094","Phase 1, Bhagirathi Vihar, Gokalpur","P76H+J76, Gali Number 8",Delhi,110094,Delhi,IN,https://www.google.com/maps/place/Masjid+namra/data=!4m7!3m6!1s0x390cfdc46dc585df:0x9ce1c441e96c1482!8m2!3d28.711527!4d77.278134!16s%2Fg%2F11j7mtbxcy!19sChIJ34XFbcT9DDkRghRs6UHE4Zw?authuser=0&hl=en&rclk=1,"28.711527,77.278134"
Nurani masjid,Mosque,"Q8C4+GR5 Nurani masjid, Loni Dehat, Fatiyabad Nithora, Uttar Pradesh 201102",Loni Dehat,Q8C4+GR5,Fatiyabad Nithora,201102,Uttar Pradesh,IN,https://www.google.com/maps/place/Nurani+masjid/data=!4m7!3m6!1s0x390cf9dc1ef666d7:0xe25fb1797566c5de!8m2!3d28.7712513!4d77.307112!16s%2Fg%2F11rcdnz22m!19sChIJ12b2Htz5DDkR3sVmdXmxX-I?authuser=0&hl=en&rclk=1,"28.7712513,77.307112"
Jama Madjid,Mosque,"Jama Madjid, khuwaja park Illaichipur, Trans Delhi Signature City, Ghaziabad, Uttar Pradesh 201102",Trans Delhi Signature City,khuwaja park Illaichipur,Ghaziabad,201102,Uttar Pradesh,IN,https://www.google.com/maps/place/Jama+Madjid/data=!4m7!3m6!1s0x390cffd519959253:0x75d57b5584aaf66f!8m2!3d28.764901!4d77.256208!16s%2Fg%2F11g2_3w7fd!19sChIJU5KVGdX_DDkRb_aqhFV71XU?authuser=0&hl=en&rclk=1,"28.764901,77.256208"
Jama Masjid,Mosque,"82PR+VW6 Jama Masjid, Taranakasba, Madhya Pradesh 456665",,82PR+VW6,Taranakasba,456665,Madhya Pradesh,IN,https://www.google.com/maps/place/Jama+Masjid/data=!4m7!3m6!1s0x396367cdaa245f3f:0x7b29f5260652c65e!8m2!3d23.337168!4d76.0422624!16s%2Fg%2F11g6mlgm28!19sChIJP18kqs1nYzkRXsZSBib1KXs?authuser=0&hl=en&rclk=1,"23.337168,76.0422624"
Hela WADi Masjid,Mosque,"82QV+H8R Hela WADi Masjid, infront of boys h s s tarana, Taranakasba, Madhya Pradesh 456665",,"82QV+H8R, infront of boys h s s tarana",Taranakasba,456665,Madhya Pradesh,IN,https://www.google.com/maps/place/Hela+WADi+Masjid/data=!4m7!3m6!1s0x3963675f790c3a17:0xecf5884ad016a4ff!8m2!3d23.3389755!4d76.0432739!16s%2Fg%2F11n0yrgvg5!19sChIJFzoMeV9nYzkR_6QW0EqI9ew?authuser=0&hl=en&rclk=1,"23.3389755,76.0432739"
Taiyyebi Masjid,Place of worship,"82PR+6CC Taiyyebi Masjid, Tarana, Madhya Pradesh 456665",,82PR+6CC,Tarana,456665,Madhya Pradesh,IN,https://www.google.com/maps/place/Taiyyebi+Masjid/data=!4m7!3m6!1s0x396367cd6c03cd49:0x4840c7d75b1288dd!8m2!3d23.335571!4d76.0410299!16s%2Fg%2F11bv3ttxlk!19sChIJSc0DbM1nYzkR3YgSW9fHQEg?authuser=0&hl=en&rclk=1,"23.335570999999998,76.0410299"
Mohammadi Arbhi Madarsa,Mosque,"Mohammadi Arbhi Madarsa, 456665, Tarana, Madhya Pradesh",,456665,Tarana,,Madhya Pradesh,IN,https://www.google.com/maps/place/Mohammadi+Arbhi+Madarsa/data=!4m7!3m6!1s0x396367d30ed57d09:0x4f496a933016ec7!8m2!3d23.33072!4d76.0417245!16s%2Fg%2F11fy_fr423!19sChIJCX3VDtNnYzkRx24BM6mW9AQ?authuser=0&hl=en&rclk=1,"23.33072,76.0417245"
Masjid Khairunnisa,Mosque,"Masjid Khairunnisa, Dr Zakir Hussain Marg, Nizamuddin, National Zoological Park, Sundar Nagar, New Delhi, Delhi 110013","Nizamuddin, National Zoological Park, Sundar Nagar",Dr Zakir Hussain Marg,New Delhi,110013,Delhi,IN,https://www.google.com/maps/place/Masjid+Khairunnisa/data=!4m7!3m6!1s0x390ce3d200747f85:0x73902dfc0bf948c6!8m2!3d28.5949913!4d77.2432105!16s%2Fg%2F11fkcjf411!19sChIJhX90ANLjDDkRxkj5C_wtkHM?authuser=0&hl=en&rclk=1,"28.5949913,77.2432105"
HADHRAT UMAR MASJID ALMAROOF CHOTI MASJID,Mosque,"HADHRAT UMAR MASJID ALMAROOF CHOTI MASJID, Chotti Masjid, Street number 9, Mulla Colony, Gharoli Extension, Gharoli, Delhi, 110096","Mulla Colony, Gharoli Extension, Gharoli","Chotti Masjid, Street number 9",Delhi,110096,Delhi,IN,https://www.google.com/maps/place/HADHRAT+UMAR+MASJID+ALMAROOF+CHOTI+MASJID/data=!4m7!3m6!1s0x390ce5c6cf830b2f:0x6bb8084dadf0d513!8m2!3d28.6213398!4d77.3314246!16s%2Fg%2F11sy4vfb7s!19sChIJLwuDz8blDDkRE9XwrU0IuGs?authuser=0&hl=en&rclk=1,"28.621339799999998,77.33142459999999"
Madina Masjid,Mosque,"C6JH+WX7 Madina Masjid, Sanjay Colony, Bhatti Kalan, New Delhi, Delhi 110074","Sanjay Colony, Bhatti Kalan",C6JH+WX7,New Delhi,110074,Delhi,IN,https://www.google.com/maps/place/Madina+Masjid/data=!4m7!3m6!1s0x390cdfe6a4296667:0x55ca1032eb54d74!8m2!3d28.4322987!4d77.2299221!16s%2Fg%2F11fhr0mqv2!19sChIJZ2YppObfDDkRdE21LgOhXAU?authuser=0&hl=en&rclk=1,"28.4322987,77.2299221"
Madrsa imdadul uloom and masjid,Mosque,"Madrsa imdadul uloom and masjid, B-25, Main Rd, East Laxmi Market, Block B, New Brij Puri, Krishna Nagar, New Delhi, Delhi, 110051","East Laxmi Market, Block B, New Brij Puri, Krishna Nagar","B-25, Main Rd","New Delhi, Delhi",110051,Delhi,IN,https://www.google.com/maps/place/Madrsa+imdadul+uloom+and+masjid/data=!4m7!3m6!1s0x390cfda04739d0e9:0xeb893cdafc532844!8m2!3d28.6436744!4d77.2825759!16s%2Fg%2F11mw5vzf9q!19sChIJ6dA5R6D9DDkRRChT_No8ies?authuser=0&hl=en&rclk=1,"28.6436744,77.2825759"
Masjid Rehmat Fatima,Mosque,"Masjid Rehmat Fatima, P-5 107, Block P, Mangolpuri, New Delhi, Delhi, 110083","Block P, Mangolpuri",P-5 107,"New Delhi, Delhi",110083,Delhi,IN,https://www.google.com/maps/place/Masjid+Rehmat+Fatima/data=!4m7!3m6!1s0x390d05175b007503:0x14c9a28868daa616!8m2!3d28.6913641!4d77.0876265!16s%2Fg%2F11p5_0gr0l!19sChIJA3UAWxcFDTkRFqbaaIiiyRQ?authuser=0&hl=en&rclk=1,"28.691364099999998,77.0876265"
Noorani Masjid,Mosque,"Noorani Masjid, Kalonda, Uttar Pradesh 203207",,,Kalonda,203207,Uttar Pradesh,IN,https://www.google.com/maps/place/Noorani+Masjid/data=!4m7!3m6!1s0x390c970ab22570f3:0x1e0ae63b5a302d8d!8m2!3d28.545344!4d77.6711394!16s%2Fg%2F11hzxv10zc!19sChIJ83AlsgqXDDkRjS0wWjvmCh4?authuser=0&hl=en&rclk=1,"28.545344,77.6711394"
Beriyan Masjid,Mosque,"R8PR+262 Beriyan Masjid, Rataul, Uttar Pradesh 250101",,R8PR+262,Rataul,250101,Uttar Pradesh,IN,https://www.google.com/maps/place/Beriyan+Masjid/data=!4m7!3m6!1s0x390c57ced087d683:0xe51cf01f4abd88cc!8m2!3d28.8350221!4d77.3405283!16s%2Fg%2F11c71mdvpp!19sChIJg9aH0M5XDDkRzIi9Sh_wHOU?authuser=0&hl=en&rclk=1,"28.8350221,77.3405283"
Rehniya masjid,Mosque,"2655+WC7 Rehniya masjid, MDR135, Roopraka, Haryana 121103",,"2655+WC7, MDR135",Roopraka,121103,Haryana,IN,https://www.google.com/maps/place/Rehniya+masjid/data=!4m7!3m6!1s0x39732b955971a3c9:0x34eece0352432d1d!8m2!3d28.0097984!4d77.2085321!16s%2Fg%2F11hdxg64by!19sChIJyaNxWZUrczkRHS1DUgPO7jQ?authuser=0&hl=en&rclk=1,"28.009798399999998,77.2085321"
Meer Sahab Masjid Khakripura,Mosque,"82JQ+CWP Meer Sahab Masjid Khakripura, Tarana, Madhya Pradesh 456665",,82JQ+CWP,Tarana,456665,Madhya Pradesh,IN,https://www.google.com/maps/place/Meer+Sahab+Masjid+Khakripura/data=!4m7!3m6!1s0x396367b171d1f7d7:0x8a25f248660ebc24!8m2!3d23.3310988!4d76.0398357!16s%2Fg%2F11f62krbmw!19sChIJ1_fRcbFnYzkRJLwOZkjyJYo?authuser=0&hl=en&rclk=1,"23.3310988,76.0398357"
TARANA SWEETS CORNER,Bakery and Cake Shop,"TARANA SWEETS CORNER, Jama Masjid Rd, Abdullapur Urf Morj Majra, Sonta Rasulpur, Uttar Pradesh 247777",,Jama Masjid Rd,"Abdullapur Urf Morj Majra, Sonta Rasulpur",247777,Uttar Pradesh,IN,https://www.google.com/maps/place/TARANA+SWEETS+CORNER/data=!4m7!3m6!1s0x390c27f353d97001:0x5ddf9a082549b1b2!8m2!3d29.5322491!4d77.4099556!16s%2Fg%2F11np4vms_9!19sChIJAXDZU_MnDDkRsrFJJQia310?authuser=0&hl=en&rclk=1,"29.532249099999998,77.4099556"
raza masjid Dewli,Mosque,"WRHR+VF5 raza masjid Dewli, Sanwer Rd, Tarana, Deoli, Madhya Pradesh 453551",,"WRHR+VF5, Sanwer Rd","Tarana, Deoli",,Madhya Pradesh,IN,https://www.google.com/maps/place/raza+masjid+Dewli/data=!4m7!3m6!1s0x396305f2f88d42db:0x42c4b150a20a4ef8!8m2!3d22.9296385!4d75.8412339!16s%2Fg%2F11t9ws7cy3!19sChIJ20KN-PIFYzkR-E4KolCxxEI?authuser=0&hl=en&rclk=1,"22.9296385,75.84123389999999"
CHAND TARA MASJID,Mosque,"M3W8+G76 CHAND TARA MASJID, Balbir Nagar, Kirari Suleman Nagar Village, Sultanpuri, Delhi, 110086","Balbir Nagar, Kirari Suleman Nagar Village, Sultanpuri",M3W8+G76,Delhi,110086,Delhi,IN,https://www.google.com/maps/place/CHAND+TARA+MASJID/data=!4m7!3m6!1s0x390d05f6dea56bd5:0xdb25c51e43afb7cc!8m2!3d28.6962875!4d77.0656406!16s%2Fg%2F11ssd95zpk!19sChIJ1Wul3vYFDTkRzLevQx7FJds?authuser=0&hl=en&rclk=1,"28.6962875,77.0656406"
Masjid and Madarsa Jamia Arabia Taleemul Islaam,Mosque,"Masjid and Madarsa Jamia Arabia Taleemul Islaam, Kardam Puri Extension, Kardam Puri, Shahdara, Delhi, 110032","Kardam Puri Extension, Kardam Puri, Shahdara",,Delhi,110032,Delhi,IN,https://www.google.com/maps/place/Masjid+and+Madarsa+Jamia+Arabia+Taleemul+Islaam/data=!4m7!3m6!1s0x390cfd079823a1db:0x19dbd3470e1db37a!8m2!3d28.69696!4d77.2853925!16s%2Fg%2F11lhdvxx9m!19sChIJ26EjmAf9DDkRerMdDkfT2xk?authuser=0&hl=en&rclk=1,"28.696959999999997,77.2853925"
Masjid Amania,Mosque,"Masjid Amania, Main, Maujpur Rd, Shahdara, Delhi, 110053",Shahdara,"Main, Maujpur Rd",Delhi,110053,Delhi,IN,https://www.google.com/maps/place/Masjid+Amania/data=!4m7!3m6!1s0x390cfd4212229ecb:0x56b4673279cdc3f1!8m2!3d28.6855897!4d77.2762341!16s%2Fg%2F11s0s2pf6g!19sChIJy54iEkL9DDkR8cPNeTJntFY?authuser=0&hl=en&rclk=1,"28.685589699999998,77.2762341"
Mosque,Mosque,"M37C+GJH Mosque, Namdhari Colony, Nangloi, Delhi, 110041","Namdhari Colony, Nangloi",M37C+GJH,Delhi,110041,Delhi,IN,https://www.google.com/maps/place/Mosque/data=!4m7!3m6!1s0x390d045ba7f78363:0xde71ce55983884c9!8m2!3d28.6638203!4d77.0716037!16s%2Fg%2F11c30q6vd3!19sChIJY4P3p1sEDTkRyYQ4mFXOcd4?authuser=0&hl=en&rclk=1,"28.663820299999998,77.0716037"
Masjid,Mosque,"9M74+66G Masjid, Hirnoti, Uttar Pradesh 203203",,9M74+66G,Hirnoti,203203,Uttar Pradesh,IN,https://www.google.com/maps/place/Masjid/data=!4m7!3m6!1s0x390cbbdfa6584727:0x4a1e67c0bd32dfaf!8m2!3d28.36306!4d77.6555641!16s%2Fg%2F11dzwm3m09!19sChIJJ0dYpt-7DDkRr98yvcBnHko?authuser=0&hl=en&rclk=1,"28.363059999999997,77.65556409999999"
Masjid Raza_E_Mustafa,Mosque,"77FJ+2H8 Masjid Raza_E_Mustafa, Bhindora, Mindora, Uttar Pradesh 243401",,77FJ+2H8,"Bhindora, Mindora",,Uttar Pradesh,IN,https://www.google.com/maps/place/Masjid+Raza_E_Mustafa/data=!4m7!3m6!1s0x390aadae8ae639a3:0xe6c36b718094c2c3!8m2!3d28.2725493!4d79.2814653!16s%2Fg%2F11jz49pmk_!19sChIJoznmiq6tCjkRw8KUgHFrw-Y?authuser=0&hl=en&rclk=1,"28.272549299999998,79.2814653"
Masjid,Mosque,"RX4J+M39 Masjid, Rajoli, Sulela, Haryana 122104",,RX4J+M39,"Rajoli, Sulela",122104,Haryana,IN,https://www.google.com/maps/place/Masjid/data=!4m7!3m6!1s0x3972c534275ef4ab:0xdc27d3a7ace97738!8m2!3d27.8066544!4d76.9802205!16s%2Fg%2F11j3xmhg73!19sChIJq_ReJzTFcjkROHfprKfTJ9w?authuser=0&hl=en&rclk=1,"27.8066544,76.9802205"
Madni masjid,Mosque,"H79J+PCW Madni masjid, Jogabai Extension, Zakir Nagar, Okhla, New Delhi, Delhi 110025","Jogabai Extension, Zakir Nagar, Okhla",H79J+PCW,New Delhi,110025,Delhi,IN,https://www.google.com/maps/place/Madni+masjid/data=!4m7!3m6!1s0x390ce34084c113dd:0xadf366420dc1b137!8m2!3d28.5693712!4d77.2810653!16s%2Fg%2F11h53wpkv2!19sChIJ3RPBhEDjDDkRN7HBDUJm860?authuser=0&hl=en&rclk=1,"28.5693712,77.2810653"
Jama masjid,Mosque,"Jama masjid, Jama Masjid, Abul Fazal Enclave Part 1, Part 1 Abul Fazal Enclave, Block I, Jamia Nagar, Chandni Chowk, New Delhi, Delhi 110025","Abul Fazal Enclave Part 1, Part 1 Abul Fazal Enclave, Block I, Jamia Nagar, Chandni Chowk",Jama Masjid,New Delhi,,Delhi,IN,https://www.google.com/maps/place/Jama+masjid/data=!4m7!3m6!1s0x390ce542b18bb9c1:0xcacf2517b90d6255!8m2!3d28.5545167!4d77.2972904!16s%2Fg%2F11kqc0mn0x!19sChIJwbmLsULlDDkRVWINuRclz8o?authuser=0&hl=en&rclk=1,"28.554516699999997,77.2972904"
Masjid,Mosque,"Masjid, 8/2, Budh Bazar, Block L 1, Devli, Sangam Vihar, New Delhi, Delhi 110062","Budh Bazar, Block L 1, Devli, Sangam Vihar",8/2,New Delhi,110062,Delhi,IN,https://www.google.com/maps/place/Masjid/data=!4m7!3m6!1s0x390ce1dde82b3bc3:0x4d3537cacd38aec4!8m2!3d28.4940769!4d77.2261653!16s%2Fg%2F11rk33_10p!19sChIJwzsr6N3hDDkRxK44zco3NU0?authuser=0&hl=en&rclk=1,"28.4940769,77.22616529999999"
NORANI MASJID,Mosque,"P25M+Q3W NORANI MASJID, Pervesh Nagar, Mubarakpur Dabas, Delhi, 110081","Pervesh Nagar, Mubarakpur Dabas",P25M+Q3W,Delhi,110081,Delhi,IN,https://www.google.com/maps/place/NORANI+MASJID/data=!4m7!3m6!1s0x390d078614ec83e1:0xd3bd508645f35169!8m2!3d28.7094822!4d77.0326981!16s%2Fg%2F11t123s70m!19sChIJ4YPsFIYHDTkRaVHzRYZQvdM?authuser=0&hl=en&rclk=1,"28.7094822,77.03269809999999"
Noori Masjid Ahmad Nagar Tarana,Mosque,"Q4W6+PCF Noori Masjid Ahmad Nagar Tarana, Mominpur Ahmadabad, Uttar Pradesh 244927",,Q4W6+PCF,Mominpur Ahmadabad,,Uttar Pradesh,IN,https://www.google.com/maps/place/Noori+Masjid+Ahmad+Nagar+Tarana/data=!4m7!3m6!1s0x390a8f72c022602f:0xf807ba5461bdddc9!8m2!3d28.796822!4d79.1110373!16s%2Fg%2F11h9kfslk0!19sChIJL2AiwHKPCjkRyd29YVS6B_g?authuser=0&hl=en&rclk=1,"28.796822,79.11103729999999"
Masjid Shatoot Wali,Mosque,"M67H+G5Q Masjid Shatoot Wali, Chhota Bazar, Mori Gate, New Delhi, Delhi, 110006","Chhota Bazar, Mori Gate",M67H+G5Q,"New Delhi, Delhi",110006,Delhi,IN,https://www.google.com/maps/place/Masjid+Shatoot+Wali/data=!4m7!3m6!1s0x390cfdd8114d08fd:0x326042596014276a!8m2!3d28.663827!4d77.2279973!16s%2Fg%2F11g4h_zjtj!19sChIJ_QhNEdj9DDkRaicUYFlCYDI?authuser=0&hl=en&rclk=1,"28.663826999999998,77.2279973"
MDINA MASJID THALCHANA,Mosque,"Q45Q+478 MDINA MASJID THALCHANA, Thalchana, Rajasthan 321023",,Q45Q+478,Thalchana,321023,Rajasthan,IN,https://www.google.com/maps/place/MDINA+MASJID+THALCHANA/data=!4m7!3m6!1s0x3972df6cc26dff81:0x54d76fde5d6ad6bf!8m2!3d27.757791!4d77.1382046!16s%2Fg%2F11sr7pfjlp!19sChIJgf9twmzfcjkRv9ZqXd5v11Q?authuser=0&hl=en&rclk=1,"27.757790999999997,77.1382046"
Jama Masjid,Mosque,"5P3G+FW5 Jama Masjid, Tarana, Uttar Pradesh 272189",,5P3G+FW5,Tarana,272189,Uttar Pradesh,IN,https://www.google.com/maps/place/Jama+Masjid/data=!4m7!3m6!1s0x3997319d93e0cc57:0xd62ef88d4feedaef!8m2!3d27.153634!4d82.7273693!16s%2Fg%2F11rs9sl2gd!19sChIJV8zgk50xlzkR79ruT434LtY?authuser=0&hl=en&rclk=1,"27.153634,82.72736929999999"
Aqsha Masjid,Mosque,"5P2M+858 Aqsha Masjid, Road, Motiganj, Tarana, Uttar Pradesh 272189",Motiganj,"5P2M+858, Road",Tarana,,Uttar Pradesh,IN,https://www.google.com/maps/place/Aqsha+Masjid/data=!4m7!3m6!1s0x399731095e19409b:0xb42eeea8c9a422f2!8m2!3d27.1507995!4d82.7329453!16s%2Fg%2F11g_nv8_23!19sChIJm0AZXgkxlzkR8iKkyajuLrQ?authuser=0&hl=en&rclk=1,"27.150799499999998,82.7329453"
Jamete islami Markaz Masjid,Mosque,"H73W+G6F Jamete islami Markaz Masjid, Abul Fazal Enclave Part 2, Jamia Nagar, Okhla, New Delhi, Delhi 110025","Abul Fazal Enclave Part 2, Jamia Nagar, Okhla",H73W+G6F,New Delhi,110025,Delhi,IN,https://www.google.com/maps/place/Jamete+islami+Markaz+Masjid/data=!4m7!3m6!1s0x390ce584b6f10bd5:0xdadc52adbd2e5235!8m2!3d28.5538228!4d77.2955576!16s%2Fg%2F11t061tn1_!19sChIJ1QvxtoTlDDkRNVIuva1S3No?authuser=0&hl=en&rclk=1,"28.5538228,77.2955576"
JAMA MASJID jm` msjd,Mosque,"JAMA MASJID jm` msjd, JAMIA TUL ABRAR, AL ISLAMIA, Madanpur Khadar Phase 3, Madanpur Khadar, New Delhi, Delhi 110076","Madanpur Khadar Phase 3, Madanpur Khadar","JAMIA TUL ABRAR, AL ISLAMIA",New Delhi,110076,Delhi,IN,https://www.google.com/maps/place/JAMA+MASJID+%D8%AC%D8%A7%D9%85%D8%B9+%D9%85%D8%B3%D8%AC%D8%AF%E2%80%AD/data=!4m7!3m6!1s0x390ce7a4c5ffc659:0x83d8ecc557f86b97!8m2!3d28.5270399!4d77.3257331!16s%2Fg%2F11krrd17t2!19sChIJWcb_xaTnDDkRl2v4V8Xs2IM?authuser=0&hl=en&rclk=1,"28.5270399,77.3257331"
Noorani masjid,Mosque,"M3WQ+V4G Noorani masjid, Mangolpur Khurd, Mangolpuri, New Delhi, Delhi, 110083","Mangolpur Khurd, Mangolpuri",M3WQ+V4G,"New Delhi, Delhi",110083,Delhi,IN,https://www.google.com/maps/place/Noorani+masjid/data=!4m7!3m6!1s0x390d05d2b519d52f:0xbea2ddeff1ffcb16!8m2!3d28.6971984!4d77.0878184!16s%2Fg%2F11l2hvp97n!19sChIJL9UZtdIFDTkRFsv_8e_dor4?authuser=0&hl=en&rclk=1,"28.697198399999998,77.0878184"
Masjid,Mosque,"M794+RG5 Masjid, Block A, Shastri Park, Shahdara, Delhi, 110053","Block A, Shastri Park, Shahdara",M794+RG5,Delhi,,Delhi,IN,https://www.google.com/maps/place/Masjid/data=!4m7!3m6!1s0x390cfd74b6378221:0x2da5c9212f831088!8m2!3d28.6695164!4d77.2563643!16s%2Fg%2F11tb42z9g0!19sChIJIYI3tnT9DDkRiBCDLyHJpS0?authuser=0&hl=en&rclk=1,"28.6695164,77.2563643"
Masjid,Mosque,"Masjid, L385, Block L, JJ Colony No 3, Nangloi, New Delhi, Delhi, 110041","Block L, JJ Colony No 3, Nangloi",L385,"New Delhi, Delhi",110041,Delhi,IN,https://www.google.com/maps/place/Masjid/data=!4m7!3m6!1s0x390d0530462f99ad:0xf47aa8290ce093fa!8m2!3d28.6842352!4d77.0742041!16s%2Fg%2F11smtj7p27!19sChIJrZkvRjAFDTkR-pPgDCmoevQ?authuser=0&hl=en&rclk=1,"28.6842352,77.0742041"
Masjid,Mosque,"Shop No: 5035, Masjid, Netaji Subhash Marg, Daryaganj, New Delhi, Delhi, 110002",Daryaganj,"Shop No: 5035, Netaji Subhash Marg","New Delhi, Delhi",110002,Delhi,IN,https://www.google.com/maps/place/Masjid/data=!4m7!3m6!1s0x390cfdf175041b95:0x8ef57a2bc9f92c1c!8m2!3d28.6480954!4d77.2403964!16s%2Fg%2F11s664lvxh!19sChIJlRsEdfH9DDkRHCz5ySt69Y4?authuser=0&hl=en&rclk=1,"28.6480954,77.2403964"
Masjid,Mosque,"J2WM+MXF Masjid, Sunni Masjid Rd, Deep Enclave, Hastsal, Delhi, 110059","Deep Enclave, Hastsal","J2WM+MXF, Sunni Masjid Rd",Delhi,110059,Delhi,IN,https://www.google.com/maps/place/Masjid/data=!4m7!3m6!1s0x390d05267bb46283:0xaef6f06f366d7113!8m2!3d28.6466834!4d77.0349292!16s%2Fg%2F11vl8tpxw1!19sChIJg2K0eyYFDTkRE3FtNm_w9q4?authuser=0&hl=en&rclk=1,"28.646683399999997,77.0349292"
Aarfee masjid,Mosque,"8HHQ+H6G Aarfee masjid, Usmanpur, Uttar Pradesh 203201",,8HHQ+H6G,Usmanpur,203201,Uttar Pradesh,IN,https://www.google.com/maps/place/Aarfee+masjid/data=!4m7!3m6!1s0x390cb9848928e3a3:0x96b3c9baa128a5e7!8m2!3d28.3289325!4d77.5880727!16s%2Fg%2F11fqsckbyl!19sChIJo-MoiYS5DDkR56UoobrJs5Y?authuser=0&hl=en&rclk=1,"28.328932499999997,77.5880727"
Madarsa,Mosque,"X9RV+7XH Madarsa, Lohara, Uttar Pradesh 250606",,X9RV+7XH,Lohara,250606,Uttar Pradesh,IN,https://www.google.com/maps/place/Madarsa/data=!4m7!3m6!1s0x390c5b4193b55589:0x6b4fb9627aa06b02!8m2!3d28.9906914!4d77.3949909!16s%2Fg%2F11rcmqw12_!19sChIJiVW1k0FbDDkRAmugemK5T2s?authuser=0&hl=en&rclk=1,"28.9906914,77.3949909"
Tarana masjid,Mosque,"82PR+VRV Tarana masjid, Tarana Hospital Rd, Taranakasba, Madhya Pradesh 456665",,"82PR+VRV, Tarana Hospital Rd",Taranakasba,456665,Madhya Pradesh,IN,https://www.google.com/maps/place/Tarana+masjid/data=!4m7!3m6!1s0x3963674693220353:0xae2b3718a81d8dbb!8m2!3d23.3372371!4d76.0420361!16s%2Fg%2F11ft33nrvc!19sChIJUwMik0ZnYzkRu40dqBg3K64?authuser=0&hl=en&rclk=1,"23.3372371,76.04203609999999"
Baba Tarana Road Bridge,Bridge,"X2WF+GWR Baba Tarana Road Bridge, Balmiki Basti, Sonipat, Haryana 131001",Balmiki Basti,X2WF+GWR,Sonipat,131001,Haryana,IN,https://www.google.com/maps/place/Baba+Tarana+Road+Bridge/data=!4m7!3m6!1s0x390db129ed906277:0xbb8925f31b2dea10!8m2!3d28.9963741!4d77.0247794!16s%2Fg%2F11k7cysyly!19sChIJd2KQ7SmxDTkREOotG_Mlibs?authuser=0&hl=en&rclk=1,"28.996374099999997,77.0247794"
Colony Masjid,Mosque,"82QV+P42 Colony Masjid, infront of boys h s s tarana, Taranakasba, Madhya Pradesh 456665",,"82QV+P42, infront of boys h s s tarana",Taranakasba,456665,Madhya Pradesh,IN,https://www.google.com/maps/place/Colony+Masjid/data=!4m7!3m6!1s0x39636725b194948b:0x49cc9e1d18ca77dd!8m2!3d23.3392609!4d76.0427559!16s%2Fg%2F11n17pcw3x!19sChIJi5SUsSVnYzkR3XfKGB2ezEk?authuser=0&hl=en&rclk=1,"23.3392609,76.0427559"
