name,main_category,address,address_ward,address_street,address_city,address_postal_code,address_state,address_country_code,link,coordinates
MASJID E UMAR AL FAROOK,Mosque,"MASJID E UMAR AL FAROOK, opposite Ayesha Complex, near Tata Girl's High school, Dastoorwad, Mangaliya Wad, Navsari, Gujarat 396445","Dastoorwad, Mangaliya Wad","opposite Ayesha Complex, near Tata Girl's High school",Navsari,396445,Gujarat,IN,https://www.google.com/maps/place/MASJID+E+UMAR+AL+FAROOK/data=!4m7!3m6!1s0x3be0f74cf8565ca3:0x13c22c438fca0a9a!8m2!3d20.956659!4d72.928045!16s%2Fg%2F11kbp8n739!19sChIJo1xW-Ez34DsRmgrKj0MswhM?authuser=0&hl=en&rclk=1,"20.956659,72.928045"
Jama Masjid,Mosque,"Jama Masjid, Mota Bazaar Rd, near Delhi Darbar, Madhumati Colony, Malekwad, Navsari, Gujarat 396445",Madhumati Colony,"Mota Bazaar Rd, near Delhi Darbar","Malekwad, Navsari",396445,Gujarat,IN,https://www.google.com/maps/place/Jama+Masjid/data=!4m7!3m6!1s0x3be0f7b8ee8fb8af:0x867aacd19597715e!8m2!3d20.9545421!4d72.9301472!16s%2Fg%2F1pyqg6rh2!19sChIJr7iP7rj34DsRXnGXldGseoY?authuser=0&hl=en&rclk=1,"20.954542099999998,72.9301472"
Masjid E Quba,Mosque,"XW4J+PJX Masjid E Quba, Mahavir Society, Navsari, Gujarat 396445",Mahavir Society,XW4J+PJX,Navsari,396445,Gujarat,IN,https://www.google.com/maps/place/Masjid+E+Quba/data=!4m7!3m6!1s0x3be0f7c78153b639:0xb32d56522dd5ae05!8m2!3d20.9568657!4d72.9316193!16s%2Fg%2F11bxjg76ym!19sChIJObZTgcf34DsRBa7VLVJWLbM?authuser=0&hl=en&rclk=1,"20.956865699999998,72.9316193"
Makhdumpura Masjid,Mosque,"WWXM+6R6 Makhdumpura Masjid, Charpul Main Rd, opposite Income Tax Office, Makhdumpura, Lunsikui, Navsari, Gujarat 396445","Makhdumpura, Lunsikui","WWXM+6R6, Charpul Main Rd, opposite Income Tax Office",Navsari,396445,Gujarat,IN,https://www.google.com/maps/place/Makhdumpura+Masjid/data=!4m7!3m6!1s0x3be0f7b07e679877:0x41f3e219dbe8dddc!8m2!3d20.9480319!4d72.9345276!16s%2Fg%2F1q62gcl7n!19sChIJd5hnfrD34DsR3N3o2xni80E?authuser=0&hl=en&rclk=1,"20.9480319,72.9345276"
Bhattai Mosque,Mosque,"XX5R+3QX Bhattai Mosque, Navsari - Bardoli Rd, Bhattai, Gujarat 396427",,"XX5R+3QX, Navsari - Bardoli Rd",Bhattai,396427,Gujarat,IN,https://www.google.com/maps/place/Bhattai+Mosque/data=!4m7!3m6!1s0x3be0f675e8a3f289:0x340ff2591f0e86d7!8m2!3d20.9577426!4d72.9919839!16s%2Fg%2F11b764p7ny!19sChIJifKj6HX24DsR14YOH1nyDzQ?authuser=0&hl=en&rclk=1,"20.9577426,72.9919839"
Masjid E Aaisha,Mosque,"WXW6+FVH Masjid E Aaisha, Tighra, Navsari, Gujarat 396427",Tighra,WXW6+FVH,Navsari,396427,Gujarat,IN,https://www.google.com/maps/place/Masjid+E+Aaisha/data=!4m7!3m6!1s0x3be0f65b132498b3:0x10cfa7e7ac1b241b!8m2!3d20.9461849!4d72.9622288!16s%2Fg%2F11cjnngqr1!19sChIJs5gkE1v24DsRGyQbrOenzxA?authuser=0&hl=en&rclk=1,"20.9461849,72.96222879999999"
Noor Masjid,Mosque,"XW5H+5PG Noor Masjid, Surat - Navsari Rd, Rangoon Nagar, Navsari, Gujarat 396445",Rangoon Nagar,"XW5H+5PG, Surat - Navsari Rd",Navsari,396445,Gujarat,IN,https://www.google.com/maps/place/Noor+Masjid/data=!4m7!3m6!1s0x3be0f7c7391efdb3:0xbb4175306e6c7198!8m2!3d20.957932!4d72.929342!16s%2Fg%2F1pyqv637g!19sChIJs_0eOcf34DsRmHFsbjB1Qbs?authuser=0&hl=en&rclk=1,"20.957932,72.92934199999999"
MASJID E BILAL,Mosque,"XW6H+Q47 MASJID E BILAL, Viraval, Navsari, Gujarat 396445",,XW6H+Q47,"Viraval, Navsari",396445,Gujarat,IN,https://www.google.com/maps/place/MASJID+E+BILAL/data=!4m7!3m6!1s0x3be0f74d7d0dbae7:0xe303c20a09edc9bb!8m2!3d20.9619105!4d72.927804!16s%2Fg%2F11gh95r30r!19sChIJ57oNfU334DsRu8ntCQrCA-M?authuser=0&hl=en&rclk=1,"20.9619105,72.927804"
Siriya Masjid,Mosque,"XX2M+W6Q Siriya Masjid, Gujarat 396427",,XX2M+W6Q,,396427,Gujarat,IN,https://www.google.com/maps/place/Siriya+Masjid/data=!4m7!3m6!1s0x3be0f67047c82495:0x78633cab8996929a!8m2!3d20.9523397!4d72.9831098!16s%2Fg%2F1v_w0v8l!19sChIJlSTIR3D24DsRmpKWias8Y3g?authuser=0&hl=en&rclk=1,"20.9523397,72.9831098"
Zeenatul Masjid,Mosque,"XW4H+FQG Zeenatul Masjid, Kureshi street, Tata High School Rd, near petrol pump, Mangaliya Wad, Navsari, Gujarat 396445","Dastoorwad, Mangaliya Wad","XW4H+FQG, Kureshi street, Tata High School Rd, near petrol pump",Navsari,396445,Gujarat,IN,https://www.google.com/maps/place/Zeenatul+Masjid/data=!4m7!3m6!1s0x3be0f7b8a131c3f9:0x7117f11c7b07bb1f!8m2!3d20.9561793!4d72.9294581!16s%2Fg%2F11b6d619v4!19sChIJ-cMxobj34DsRH7sHexzxF3E?authuser=0&hl=en&rclk=1,"20.9561793,72.92945809999999"
Nav Shahid Bava Masjid (mslk e aalaa hzrt),Mosque,"Nav Shahid Bava Masjid (mslk e aalaa hzrt), XW3H+3FP Pir Street Apeksha, Tower Rd, near Gayansala School, Panch Hatdi, Navsari, Gujarat 396445","Near Tower, Panch Hatdi","XW3H+3FP Pir Street Apeksha, Tower Rd, near Gayansala School",Navsari,396445,Gujarat,IN,https://www.google.com/maps/place/Nav+Shahid+Bava+Masjid+%28%E0%A4%AE%E0%A4%B8%E0%A4%B2%E0%A4%95+%E0%A4%8F+%E0%A4%86%E0%A4%B2%E0%A4%BE+%E0%A4%B9%E0%A5%9B%E0%A4%B0%E0%A4%A4%29/data=!4m7!3m6!1s0x3be0f7b92dde1047:0x3fc411926669912b!8m2!3d20.9527179!4d72.9286884!16s%2Fg%2F11bbrj6pq_!19sChIJRxDeLbn34DsRK5FpZpIRxD8?authuser=0&hl=en&rclk=1,"20.9527179,72.9286884"
Nasilpor Jumma Mosque,Mosque,"XX3P+CP9 Nasilpor Jumma Mosque, Nasilpor, Dharagiri, Gujarat 396427",,XX3P+CP9,"Nasilpor, Dharagiri",396427,Gujarat,IN,https://www.google.com/maps/place/Nasilpor+Jumma+Mosque/data=!4m7!3m6!1s0x3be0f67129d5058d:0x63161715abc58ff2!8m2!3d20.9535268!4d72.986849!16s%2Fg%2F11f00jkps7!19sChIJjQXVKXH24DsR8o_FqxUXFmM?authuser=0&hl=en&rclk=1,"20.9535268,72.98684899999999"
"Masjid e Noor, Bhaktinagar, Vijalpore, Navsari",Mosque,"WWVF+35P Masjid e Noor, Bhaktinagar, Vijalpore, Navsari, Vishakha Park Society, Dhirubhai Ni Wadi, Navsari, Gujarat 396445","Vishakha Park Society, Dhirubhai Ni Wadi",WWVF+35P,Navsari,396445,Gujarat,IN,"https://www.google.com/maps/place/Masjid+e+Noor,+Bhaktinagar,+Vijalpore,+Navsari/data=!4m7!3m6!1s0x3be0f7a298f23b43:0xd0aee0556758b596!8m2!3d20.9427108!4d72.9229586!16s%2Fg%2F11c2k6mhns!19sChIJQzvymKL34DsRlrVYZ1XgrtA?authuser=0&hl=en&rclk=1","20.9427108,72.9229586"
MASJID E ANAS,Mosque,"XW5H+HW7 MASJID E ANAS, Mahavir Society, Navsari, Gujarat 396445",Mahavir Society,XW5H+HW7,Navsari,396445,Gujarat,IN,https://www.google.com/maps/place/MASJID+E+ANAS/data=!4m7!3m6!1s0x3be0f7c721e36a7d:0x73b5e927cf5a6b6c!8m2!3d20.9589177!4d72.9297975!16s%2Fg%2F11bx5pt125!19sChIJfWrjIcf34DsRbGtazyfptXM?authuser=0&hl=en&rclk=1,"20.9589177,72.92979749999999"
Masjid a Hamza [R.D],Mosque,"WWXJ+5PH Masjid a Hamza [R.D], Kagdiwad, Kadiyawad, Navsari, Gujarat 396445","Kagdiwad, Kadiyawad",WWXJ+5PH,Navsari,396445,Gujarat,IN,https://www.google.com/maps/place/Masjid+a+Hamza+%5BR.D%5D/data=!4m7!3m6!1s0x3be0f71d87991d9d:0xa6b4de1258a2d581!8m2!3d20.9479477!4d72.9318565!16s%2Fg%2F11g1gq5cc4!19sChIJnR2Zhx334DsRgdWiWBLetKY?authuser=0&hl=en&rclk=1,"20.9479477,72.9318565"
Zarawad Masjid,Mosque,"XW2M+7CH Zarawad Masjid, Madhumati Colony, Navsari, Gujarat 396445",Madhumati Colony,XW2M+7CH,Navsari,396445,Gujarat,IN,https://www.google.com/maps/place/Zarawad+Masjid/data=!4m7!3m6!1s0x3be0f7ba031553c5:0xb1ce7bc656fce211!8m2!3d20.950696!4d72.933601!16s%2Fg%2F1pyqgcfgm!19sChIJxVMVA7r34DsREeL8VsZ7zrE?authuser=0&hl=en&rclk=1,"20.950696,72.933601"
Zakariya Masjid,Mosque,"XW2Q+XFM Zakariya Masjid, Islampura, Junathana, Kaliawadi, Navsari, Gujarat 396445","Junathana, Kaliawadi","XW2Q+XFM, Islampura",Navsari,396445,Gujarat,IN,https://www.google.com/maps/place/Zakariya+Masjid/data=!4m7!3m6!1s0x3be0f7b6c6c4f409:0xcaa5cbe8a0f2ab41!8m2!3d20.9524666!4d72.9386606!16s%2Fg%2F12llkpq_5!19sChIJCfTExrb34DsRQavyoOjLpco?authuser=0&hl=en&rclk=1,"20.952466599999997,72.93866059999999"
Madina Masjid,Mosque,"Madina Masjid, patel chall, Bandar Rd, Taskand Nagar, Vejalpore, Navsari, Gujarat 396421","Taskand Nagar, Vejalpore","patel chall, Bandar Rd",Navsari,396421,Gujarat,IN,https://www.google.com/maps/place/Madina+Masjid/data=!4m7!3m6!1s0x3be0f7e574532acf:0xdbcd5627f80cc427!8m2!3d20.954953!4d72.909715!16s%2Fg%2F11f9g7jmpn!19sChIJzypTdOX34DsRJ8QM-CdWzds?authuser=0&hl=en&rclk=1,"20.954953,72.90971499999999"
Masjid E Raza (Maslak E Aala Hazrat),Mosque,"Masjid E Raza (Maslak E Aala Hazrat), Navin Nagar, Mangaliya Wad, Navsari, Gujarat 396445","Navin Nagar, Mangaliya Wad",,Navsari,396445,Gujarat,IN,https://www.google.com/maps/place/Masjid+E+Raza+%28Maslak+E+Aala+Hazrat%29/data=!4m7!3m6!1s0x3be0f7e9f111bc29:0x5d6727aeb6f68e54!8m2!3d20.9587995!4d72.9280025!16s%2Fg%2F11f5vdqrm3!19sChIJKbwR8en34DsRVI72tq4nZ10?authuser=0&hl=en&rclk=1,"20.958799499999998,72.92800249999999"
Masjid -e-Ayesha,Mosque,"WWVR+QJG Masjid -e-Ayesha, Daseratekri, Talavdi, Navsari, Gujarat 396445",Daseratekri,WWVR+QJG,"Talavdi, Navsari",,Gujarat,IN,https://www.google.com/maps/place/Masjid+-e-Ayesha/data=!4m7!3m6!1s0x3be093002268b93d:0x9a8dd65a62a8c03e!8m2!3d20.9444383!4d72.9415855!16s%2Fg%2F11g0z27b2w!19sChIJPbloIgCT4DsRPsCoYlrWjZo?authuser=0&hl=en&rclk=1,"20.944438299999998,72.9415855"
Shaahi Masjid,Mosque,"XW2H+7QX Shaahi Masjid, New Vegetable Market, Asha Nagar, Navsari, Gujarat 396445","New Vegetable Market, Asha Nagar",XW2H+7QX,Navsari,396445,Gujarat,IN,https://www.google.com/maps/place/Shaahi+Masjid/data=!4m7!3m6!1s0x3be0f7b95ed84bab:0xe548285dfd76ae64!8m2!3d20.9507354!4d72.9294991!16s%2Fg%2F11cjnnm037!19sChIJq0vYXrn34DsRZK52_V0oSOU?authuser=0&hl=en&rclk=1,"20.9507354,72.9294991"
Masjid-E-Noor-E-Muhammadi,Mosque,"WWWM+V3M Masjid-E-Noor-E-Muhammadi, Kadiyawad, Navsari, Gujarat 396445",Kadiyawad,WWWM+V3M,Navsari,396445,Gujarat,IN,https://www.google.com/maps/place/Masjid-E-Noor-E-Muhammadi/data=!4m7!3m6!1s0x3be0f7bc6d7461b9:0x30fee785dd18dba5!8m2!3d20.9472133!4d72.9326849!16s%2Fg%2F11f66bcv39!19sChIJuWF0bbz34DsRpdsY3YXn_jA?authuser=0&hl=en&rclk=1,"20.947213299999998,72.9326849"
Dawoodi Bohra Mohammedi Masjid,Mosque,"Dawoodi Bohra Mohammedi Masjid, Motabazar, Other, Madhumati St, Navsari, Gujarat 396445",Madhumati Colony,"Motabazar, Other, Madhumati St",Navsari,396445,Gujarat,IN,https://www.google.com/maps/place/Dawoodi+Bohra+Mohammedi+Masjid/data=!4m7!3m6!1s0x3be0f7b91972ff21:0x9b858e9d757c7d4d!8m2!3d20.9529856!4d72.9300929!16s%2Fg%2F11hbpwqy43!19sChIJIf9yGbn34DsRTX18dZ2OhZs?authuser=0&hl=en&rclk=1,"20.952985599999998,72.93009289999999"
Taparwad masjid,Mosque,"XW2M+5Q2 Taparwad masjid, Taparwada, Madhumati Colony, Navsari, Gujarat 396445","Taparwada, Madhumati Colony",XW2M+5Q2,Navsari,396445,Gujarat,IN,https://www.google.com/maps/place/Taparwad+masjid/data=!4m7!3m6!1s0x3be0f72afdcc413f:0x742aca374ba78bc6!8m2!3d20.9503772!4d72.9343952!16s%2Fg%2F11h4qlsm72!19sChIJP0HM_Sr34DsRxounSzfKKnQ?authuser=0&hl=en&rclk=1,"20.9503772,72.9343952"
Kagdiwad Sunni Muslim Jamat,Religious organization,"Kagdiwad Sunni Muslim Jamat, Hamza Masjid Kagdiwad, Kadiyawad, Navsari, Gujarat 396445",Kadiyawad,Hamza Masjid Kagdiwad,Navsari,396445,Gujarat,IN,https://www.google.com/maps/place/Kagdiwad+Sunni+Muslim+Jamat/data=!4m7!3m6!1s0x3be0f7528ff38b8f:0xa70b0be9966f4ed9!8m2!3d20.947713!4d72.9314589!16s%2Fg%2F11t43x7mf9!19sChIJj4vzj1L34DsR2U5vlukLC6c?authuser=0&hl=en&rclk=1,"20.947713,72.9314589"
Masjid E Sulaiman (mslk e aalaa hzrt),Mosque,"XW6H+C42 Masjid E Sulaiman (mslk e aalaa hzrt), Viraval, Navsari, Gujarat 396445",,XW6H+C42,"Viraval, Navsari",396445,Gujarat,IN,https://www.google.com/maps/place/Masjid+E+Sulaiman+%28%E0%A4%AE%E0%A4%B8%E0%A4%B2%E0%A4%95+%E0%A4%8F+%E0%A4%86%E0%A4%B2%E0%A4%BE+%E0%A4%B9%E0%A5%9B%E0%A4%B0%E0%A4%A4%29/data=!4m7!3m6!1s0x3be0f7d1fa9b8309:0x9983973b2e939f56!8m2!3d20.9609371!4d72.9278821!16s%2Fg%2F11r_fn71sq!19sChIJCYOb-tH34DsRVp-TLjuXg5k?authuser=0&hl=en&rclk=1,"20.9609371,72.92788209999999"
Noorani Maajid,Mosque,"XX66+47Q Noorani Maajid, Unnamed Road, Virwadi, Navsari, Gujarat 396445",Virwadi,"XX66+47Q, Unnamed Road",Navsari,396445,Gujarat,IN,https://www.google.com/maps/place/Noorani+Maajid/data=!4m7!3m6!1s0x3be0f7161d5b3663:0x6c50a02585f76d42!8m2!3d20.9603321!4d72.9607262!16s%2Fg%2F11hy9rpcvn!19sChIJYzZbHRb34DsRQm33hSWgUGw?authuser=0&hl=en&rclk=1,"20.9603321,72.9607262"
Masjid E Ghausiya (Maslak E Aala Hazrat),Mosque,"WWW7+2GF Masjid E Ghausiya (Maslak E Aala Hazrat), Railway Station Rd, Khodiyar Nagar, Lal Chal, Vejalpore, Navsari, Jalalpore, Gujarat 396445","Khodiyar Nagar, Lal Chal, Vejalpore","WWW7+2GF, Railway Station Rd","Navsari, Jalalpore",396445,Gujarat,IN,https://www.google.com/maps/place/Masjid+E+Ghausiya+%28Maslak+E+Aala+Hazrat%29/data=!4m7!3m6!1s0x3be0f7fdf4cc0039:0x9f5e334237c7eb5!8m2!3d20.9449806!4d72.913822!16s%2Fg%2F11stqvxp97!19sChIJOQDM9P334DsRtX58IzTj9Qk?authuser=0&hl=en&rclk=1,"20.944980599999997,72.913822"
Barkati Masjid (Maslak E Aala Hazrat),Mosque,"XW3H+MC2 Barkati Masjid (Maslak E Aala Hazrat), Mangaliya Wad, Navsari, Gujarat 396445",Mangaliya Wad,XW3H+MC2,Navsari,396445,Gujarat,IN,https://www.google.com/maps/place/Barkati+Masjid+%28Maslak+E+Aala+Hazrat%29/data=!4m7!3m6!1s0x3be0f7b8cda74b73:0xa0dfb71d79952702!8m2!3d20.9541282!4d72.9285215!16s%2Fg%2F11g6mvqfkz!19sChIJc0unzbj34DsRAieVeR2336A?authuser=0&hl=en&rclk=1,"20.9541282,72.9285215"
Balepir Bava,Mosque,"WWXM+VVC Balepir Bava, Charpul-Lunsikui Rd, Charpul, Madhumati Colony, Navsari, Gujarat 396445","Charpul, Madhumati Colony","WWXM+VVC, Charpul-Lunsikui Rd",Navsari,396445,Gujarat,IN,https://www.google.com/maps/place/Balepir+Bava/data=!4m7!3m6!1s0x3be0f7b0a1ec3911:0x359088de1b3c6bf0!8m2!3d20.9496947!4d72.9346316!16s%2Fg%2F11bbrm3nhp!19sChIJETnsobD34DsR8Gs8G96IkDU?authuser=0&hl=en&rclk=1,"20.9496947,72.9346316"
Hajrat Pir Ibrahim Shahid Bava,Mosque,"Hajrat Pir Ibrahim Shahid Bava, Sayaji Library Road, DIgi Street, Behind PM Chambers, Madhumati Colony, Navsari, Gujarat 396445",Madhumati Colony,"Sayaji Library Road, DIgi Street, Behind PM Chambers",Navsari,396445,Gujarat,IN,https://www.google.com/maps/place/Hajrat+Pir+Ibrahim+Shahid+Bava/data=!4m7!3m6!1s0x3be0f7b9f19d2aa5:0x35e99f9cc5ef478!8m2!3d20.9514851!4d72.9331839!16s%2Fg%2F11bbrjljbt!19sChIJpSqd8bn34DsRePRezPmZXgM?authuser=0&hl=en&rclk=1,"20.9514851,72.9331839"
MASJID E UMAR AL FAROOK,Mosque,"WW95+H6W MASJID E UMAR AL FAROOK, Tata St, Dastoorwad, Mahavir Society, Navsari, Eroo, Gujarat 396450","Dastoorwad, Mahavir Society","WW95+H6W, Tata St","Navsari, Eroo",396450,Gujarat,IN,https://www.google.com/maps/place/MASJID+E+UMAR+AL+FAROOK/data=!4m7!3m6!1s0x3be0f7a8b00c1681:0x7249995fcbf38a8e!8m2!3d20.9189901!4d72.908082!16s%2Fg%2F11sjvpkb98!19sChIJgRYMsKj34DsRjorzy1-ZSXI?authuser=0&hl=en&rclk=1,"20.9189901,72.908082"
Masjid e umar,Mosque,"Masjid e umar, 8/625, Tarota Bazaar, Mangaliya Wad, Navsari, Gujarat 396445","Tarota Bazaar, Mangaliya Wad",8/625,Navsari,396445,Gujarat,IN,https://www.google.com/maps/place/Masjid+e+umar/data=!4m7!3m6!1s0x3be0f7eb282925d9:0x4e84fd1e36e3d6f8!8m2!3d20.9571995!4d72.9273168!16s%2Fg%2F11kb_tgsz9!19sChIJ2SUpKOv34DsR-NbjNh79hE4?authuser=0&hl=en&rclk=1,"20.957199499999998,72.9273168"
KAZIWAAD MASJID,Mosque,"KAZIWAAD MASJID, 738/2, Udvada, Gujarat 396445",Mangaliya Wad,"738/2, Udvada",Navsari,396445,Gujarat,IN,https://www.google.com/maps/place/KAZIWAAD+MASJID/data=!4m7!3m6!1s0x3be0f7cc779c9155:0x95dc758c763f7bfa!8m2!3d20.954193!4d72.9270788!16s%2Fg%2F11s640m7dy!19sChIJVZGcd8z34DsR-ns_dox13JU?authuser=0&hl=en&rclk=1,"20.954193,72.92707879999999"
MOTHWAD MASJID,Mosque,"XW3G+PCR MOTHWAD MASJID, Mothwad St, Tarota Bazaar, Mangaliya Wad, Navsari, Gujarat 396445","Tarota Bazaar, Mangaliya Wad","XW3G+PCR, Mothwad St",Navsari,396445,Gujarat,IN,https://www.google.com/maps/place/MOTHWAD+MASJID/data=!4m7!3m6!1s0x3be0f747251e63cf:0x902b4241c2139c49!8m2!3d20.9543709!4d72.9260103!16s%2Fg%2F11v9znsycm!19sChIJz2MeJUf34DsRSZwTwkFCK5A?authuser=0&hl=en&rclk=1,"20.9543709,72.9260103"
Masjid E Maula Ali krm llh wjhh lkrym,Mosque,"Masjid E Maula Ali krm llh wjhh lkrym, Navsari, Gujarat 396445",,,Navsari,396445,Gujarat,IN,https://www.google.com/maps/place/Masjid+E+Maula+Ali+%D9%83%D8%B1%D9%85+%D8%A7%D9%84%D9%84%D9%87+%D9%88%D8%AC%D9%87%D9%87+%D8%A7%D9%84%D9%83%D8%B1%D9%8A%D9%85%E2%80%AD/data=!4m7!3m6!1s0x3be0f7087243c5b5:0x84b8a46f6fc4bb51!8m2!3d20.963032!4d72.9273946!16s%2Fg%2F11s4wfm7nq!19sChIJtcVDcgj34DsRUbvEb2-kuIQ?authuser=0&hl=en&rclk=1,"20.963032,72.9273946"
Anjuman talimun islam kothamdi colony chowl masjid,Mosque,"Anjuman talimun islam kothamdi colony chowl masjid, M-5898, Udyog Nagar, Vejalpore, Navsari, Gujarat 396445","Udyog Nagar, Vejalpore",M-5898,Navsari,396445,Gujarat,IN,https://www.google.com/maps/place/Anjuman+talimun+islam+kothamdi+colony+chowl+masjid/data=!4m7!3m6!1s0x3be0f76d71123833:0xf9ccef063fd46930!8m2!3d20.9452975!4d72.9192806!16s%2Fg%2F11srklp7qz!19sChIJMzgScW334DsRMGnUPwbvzPk?authuser=0&hl=en&rclk=1,"20.9452975,72.9192806"
