name,main_category,address,address_ward,address_street,address_city,address_postal_code,address_state,address_country_code,link,coordinates
SALIHIN MASJID,Mosque,"SALIHIN MASJID, Salihin masjid, Gondra, Gita Nagar, Godhra, Gujarat 389340","Gondra, Gita Nagar",Salihin masjid,Godhra,389340,Gujarat,IN,https://www.google.com/maps/place/SALIHIN+MASJID/data=!4m7!3m6!1s0x39609a574272e8fb:0x89d1d1adbf2acc6!8m2!3d22.7625874!4d73.6158947!16s%2Fg%2F11f3x7wxkc!19sChIJ--hyQleaYDkRxqzy2xodnQg?authuser=0&hl=en&rclk=1,"22.762587399999997,73.6158947"
Burhani Masjid,Mosque,"QJF7+69F Burhani Masjid, burhani masjid, Voharwad, Shera, Godhra, Gujarat 389001","Voharwad, Shera","QJF7+69F, burhani masjid",Godhra,389001,Gujarat,IN,https://www.google.com/maps/place/Burhani+Masjid/data=!4m7!3m6!1s0x39609a4e11434f2f:0x9337c7a420fa9086!8m2!3d22.7730577!4d73.6134165!16s%2Fg%2F1tcwdcqv!19sChIJL09DEU6aYDkRhpD6IKTHN5M?authuser=0&hl=en&rclk=1,"22.7730577,73.6134165"
Huda Masjid,Mosque,"QJF3+F7C Huda Masjid, Vezalpur, Godhra, Gujarat 389001",Vezalpur,QJF3+F7C,Godhra,389001,Gujarat,IN,https://www.google.com/maps/place/Huda+Masjid/data=!4m7!3m6!1s0x39609bb250d37617:0x9813d14af0ec9b26!8m2!3d22.7736891!4d73.6031523!16s%2Fg%2F11c54x5qg5!19sChIJF3bTULKbYDkRJpvs8ErRE5g?authuser=0&hl=en&rclk=1,"22.7736891,73.60315229999999"
Saifee Masjid,Mosque,"QJC7+V67 Saifee Masjid, Voharwad, Shera, Godhra, Gujarat 389001","Voharwad, Shera",QJC7+V67,Godhra,389001,Gujarat,IN,https://www.google.com/maps/place/Saifee+Masjid/data=!4m7!3m6!1s0x39609a4e02eafc99:0xf69a1657391acdc5!8m2!3d22.7721524!4d73.6130542!16s%2Fg%2F1tfzq9rl!19sChIJmfzqAk6aYDkRxc0aOVcWmvY?authuser=0&hl=en&rclk=1,"22.7721524,73.6130542"
Nagina Masjid,Mosque,"Nagina Masjid, B/h. Police Chowki No.1,, Godhra, Gujarat","Gandhi Nagar, Kalal Darwaja","B/h. Police Chowki No.1,",Godhra,,Gujarat,IN,https://www.google.com/maps/place/Nagina+Masjid/data=!4m7!3m6!1s0x39609a4f93f27e4f:0xcdd9f306926a6c2b!8m2!3d22.7742498!4d73.6173263!16s%2Fg%2F11cknwggwm!19sChIJT37yk0-aYDkRK2xqkgbz2c0?authuser=0&hl=en&rclk=1,"22.7742498,73.6173263"
Raani Masjid,Mosque,"QJF6+QPF Raani Masjid, near byrani masjid, Gayatry society, Bhagol, Shera, Godhra, Gujarat 389001","Gayatry society, Bhagol, Shera","QJF6+QPF, near byrani masjid",Godhra,389001,Gujarat,IN,https://www.google.com/maps/place/Raani+Masjid/data=!4m7!3m6!1s0x39609a4dd1892c7b:0xdc85555ef8dc7557!8m2!3d22.7744389!4d73.6117991!16s%2Fg%2F11bx1s5syy!19sChIJeyyJ0U2aYDkRV3Xc-F5Vhdw?authuser=0&hl=en&rclk=1,"22.7744389,73.6117991"
JAMALI MASJID (Dawoodi Bohra Masjid),Mosque,"JAMALI MASJID (Dawoodi Bohra Masjid), Voharwad, Shera, Godhra, Gujarat 389001","Voharwad, Shera",,Godhra,389001,Gujarat,IN,https://www.google.com/maps/place/JAMALI+MASJID+%28Dawoodi+Bohra+Masjid%29/data=!4m7!3m6!1s0x39609a53ab1836fb:0x920f944c9976c09a!8m2!3d22.7687406!4d73.6097366!16s%2Fg%2F1v93zgt2!19sChIJ-zYYq1OaYDkRmsB2mUyUD5I?authuser=0&hl=en&rclk=1,"22.768740599999997,73.60973659999999"
Masum Masjid,Mosque,"QJ95+M5C Masum Masjid, Modi Ni Wadi No.1, Hayat Wadi, Shera, Godhra, Gujarat 389001","Modi Ni Wadi No.1, Hayat Wadi, Shera",QJ95+M5C,Godhra,389001,Gujarat,IN,https://www.google.com/maps/place/Masum+Masjid/data=!4m7!3m6!1s0x39609a52dd0988a1:0x57d6739674e225b5!8m2!3d22.7691776!4d73.6078781!16s%2Fg%2F1tlczl0d!19sChIJoYgJ3VKaYDkRtSXidJZz1lc?authuser=0&hl=en&rclk=1,"22.7691776,73.6078781"
Masjid e Abrar,Mosque,"QJF6+J22 Masjid e Abrar, Voharwad, Shera, Godhra, Gujarat 389001","Voharwad, Shera",QJF6+J22,Godhra,389001,Gujarat,IN,https://www.google.com/maps/place/Masjid+e+Abrar/data=!4m7!3m6!1s0x39609a4dafa1abcd:0xbca42d9e0523b73f!8m2!3d22.7740145!4d73.6100309!16s%2Fg%2F11b88qvlfs!19sChIJzauhr02aYDkRP7cjBZ4tpLw?authuser=0&hl=en&rclk=1,"22.7740145,73.6100309"
Kuba Masjid,Mosque,"QJC8+WG6 Kuba Masjid, Khatkiwad Dhaal, Gandhi Nagar, Kalal Darwaja, Godhra, Gujarat 389001","Gandhi Nagar, Kalal Darwaja","QJC8+WG6, Khatkiwad Dhaal",Godhra,389001,Gujarat,IN,https://www.google.com/maps/place/Kuba+Masjid/data=!4m7!3m6!1s0x39609a5027c6c0d1:0x7c8b439fa7eb564d!8m2!3d22.7722987!4d73.6162523!16s%2Fg%2F11b6sk1t9b!19sChIJ0cDGJ1CaYDkRTVbrp59Di3w?authuser=0&hl=en&rclk=1,"22.7722987,73.6162523"
Masjid e Aqsa,Mosque,"QJ82+V7X Masjid e Aqsa, vejalpur road, Saatpul Rd, Satpur, Godhra, Gujarat 389001",Satpur,"QJ82+V7X, vejalpur road, Saatpul Rd",Godhra,389001,Gujarat,IN,https://www.google.com/maps/place/Masjid+e+Aqsa/data=!4m7!3m6!1s0x39609bac2817a9bf:0x4c904fae380f9971!8m2!3d22.7672358!4d73.6007261!16s%2Fg%2F11b5pkj1xx!19sChIJv6kXKKybYDkRcZkPOK5PkEw?authuser=0&hl=en&rclk=1,"22.767235799999998,73.6007261"
Rabiya Masjid,Mosque,"QJ68+VX4 Rabiya Masjid, Lilesra Rd, Gondra, Gita Nagar, Godhra, Gujarat 389340","Gondra, Gita Nagar","QJ68+VX4, Lilesra Rd",Godhra,389340,Gujarat,IN,https://www.google.com/maps/place/Rabiya+Masjid/data=!4m7!3m6!1s0x39609a57edb9aba1:0x84ea57a413d1d7df!8m2!3d22.7621442!4d73.6174672!16s%2Fg%2F11c54fly4w!19sChIJoau57VeaYDkR39fRE6RX6oQ?authuser=0&hl=en&rclk=1,"22.762144199999998,73.6174672"
Masjid-e-Madani,Mosque,"QJC3+47P Masjid-e-Madani, Tathoora, Godhra, Gujarat 389001",Tathoora,QJC3+47P,Godhra,389001,Gujarat,IN,https://www.google.com/maps/place/Masjid-e-Madani/data=!4m7!3m6!1s0x39609bad84aa2625:0x521907d81e49f985!8m2!3d22.7703264!4d73.6032017!16s%2Fg%2F1hhn10fkw!19sChIJJSaqhK2bYDkRhflJHtgHGVI?authuser=0&hl=en&rclk=1,"22.7703264,73.6032017"
"Dawoodi Bohra Dargah, Godhra",Place of worship,"QJF7+5CV Dawoodi Bohra Dargah, Godhra, Voharwad, Shera, Godhra, Gujarat 389001","Voharwad, Shera",QJF7+5CV,Godhra,389001,Gujarat,IN,"https://www.google.com/maps/place/Dawoodi+Bohra+Dargah,+Godhra/data=!4m7!3m6!1s0x39609a4e10fc9f67:0xf3d1be9c1d555e47!8m2!3d22.77298!4d73.6135573!16s%2Fg%2F11bx8hfwr1!19sChIJZ5_8EE6aYDkRR15VHZy-0fM?authuser=0&hl=en&rclk=1","22.77298,73.6135573"
Raajan Masjid,Mosque,"Raajan Masjid, MA Road, Rajan masjid wali gali, Gayatry society, Jahapura, Shera, Godhra, Gujarat 389001","Gayatry society, Jahapura, Shera","MA Road, Rajan masjid wali gali",Godhra,389001,Gujarat,IN,https://www.google.com/maps/place/Raajan+Masjid/data=!4m7!3m6!1s0x39609a4db640b887:0xd7ba06350d05c18c!8m2!3d22.7742506!4d73.6108406!16s%2Fg%2F11bwyxfcz7!19sChIJh7hAtk2aYDkRjMEFDTUGutc?authuser=0&hl=en&rclk=1,"22.7742506,73.6108406"
Masjid-e-Yusuf,Mosque,"QJC3+P9H Masjid-e-Yusuf, Vezalpur, Godhra, Gujarat 389001",Vezalpur,QJC3+P9H,Godhra,389001,Gujarat,IN,https://www.google.com/maps/place/Masjid-e-Yusuf/data=!4m7!3m6!1s0x39609bb262c80ff9:0x1884fafd39cee738!8m2!3d22.7718227!4d73.6034833!16s%2Fg%2F1232kjl_x!19sChIJ-Q_IYrKbYDkROOfOOf36hBg?authuser=0&hl=en&rclk=1,"22.771822699999998,73.6034833"
Mohammadi Masjid Ahle Hadees,Mosque,"QJC9+Q7P Mohammadi Masjid Ahle Hadees, Civil Lines Rd, Gandhi Nagar, Kalal Darwaja, Godhra, Gujarat 389001","Gandhi Nagar, Kalal Darwaja","QJC9+Q7P, Civil Lines Rd",Godhra,389001,Gujarat,IN,https://www.google.com/maps/place/Mohammadi+Masjid+Ahle+Hadees/data=!4m7!3m6!1s0x39609a5ab7eb7d41:0x868bf1fda2e06955!8m2!3d22.7719541!4d73.6181962!16s%2Fg%2F11bt_g_fz7!19sChIJQX3rt1qaYDkRVWngov3xi4Y?authuser=0&hl=en&rclk=1,"22.7719541,73.6181962"
Masjid MIM,Mosque,"Masjid MIM, Signal Faliya, Dakor Rd, Mohammadi Society, Godhra, Gujarat 389001",Mohammadi Society,"Signal Faliya, Dakor Rd",Godhra,389001,Gujarat,IN,https://www.google.com/maps/place/Masjid+MIM/data=!4m7!3m6!1s0x39609bb401a9c11d:0x8d209e70e4fbdae8!8m2!3d22.7767787!4d73.600895!16s%2Fg%2F11g_1c01h!19sChIJHcGpAbSbYDkR6Nr75HCeII0?authuser=0&hl=en&rclk=1,"22.776778699999998,73.600895"
Rabbani Masjid,Mosque,"Rabbani Masjid, UMARJI COMPLEX, 7/927, Vejalpur Rd, near RABBANI MASJID, Mohammadi Society, Godhra, Gujarat 389001",Mohammadi Society,"UMARJI COMPLEX, 7/927, Vejalpur Rd, near RABBANI MASJID",Godhra,389001,Gujarat,IN,https://www.google.com/maps/place/Rabbani+Masjid/data=!4m7!3m6!1s0x39609bb2db1b27b7:0xdeca47e387e5a1fb!8m2!3d22.7735773!4d73.6055684!16s%2Fg%2F11clfpbln3!19sChIJtycb27KbYDkR-6Hlh-NHyt4?authuser=0&hl=en&rclk=1,"22.7735773,73.6055684"
IMRAN Masjid,Mosque,"IMRAN Masjid, imran masjid, meda plot, Mohammadi Society, Godhra, Gujarat 389001",Mohammadi Society,"imran masjid, meda plot",Godhra,389001,Gujarat,IN,https://www.google.com/maps/place/IMRAN+Masjid/data=!4m7!3m6!1s0x39609bb170ff8eef:0x8146fd5d143613d5!8m2!3d22.7740884!4d73.5997041!16s%2Fg%2F11byt8jpwv!19sChIJ747_cLGbYDkR1RM2FF39RoE?authuser=0&hl=en&rclk=1,"22.7740884,73.5997041"
Masjid e Nusrat W Noor,Mosque,"Masjid e Nusrat W Noor, high way, madina society opposite Amdawadi Cold drink vadodra, Vadodara, Gujarat","Gondra, Gita Nagar","high way, madina society opposite Amdawadi Cold drink vadodra","Vadodara, Godhra",,Gujarat,IN,https://www.google.com/maps/place/Masjid+e+Nusrat+W+Noor/data=!4m7!3m6!1s0x39609bd4b5547bb3:0xf2c6079c3f76b455!8m2!3d22.7627234!4d73.6131064!16s%2Fg%2F11f66r4j1d!19sChIJs3tUtdSbYDkRVbR2P5wHxvI?authuser=0&hl=en&rclk=1,"22.7627234,73.61310639999999"
HALEEMA MASJID,Mosque,"HALEEMA MASJID, Masjid-e-Haleema, Idgah Mohalla, Shera, Godhra, Gujarat 389001","Idgah Mohalla, Shera",Masjid-e-Haleema,Godhra,389001,Gujarat,IN,https://www.google.com/maps/place/HALEEMA+MASJID/data=!4m7!3m6!1s0x39609b4b88176b4f:0xb3018f927cf9a44!8m2!3d22.7673203!4d73.6135969!16s%2Fg%2F11p18b0jy3!19sChIJT2sXiEubYDkRRJrPJ_kYMAs?authuser=0&hl=en&rclk=1,"22.767320299999998,73.61359689999999"
Hasnain Masjid,Mosque,"QJF9+73P Hasnain Masjid, Gandhi Nagar, Kalal Darwaja, Godhra, Gujarat 389001","Gandhi Nagar, Kalal Darwaja",QJF9+73P,Godhra,389001,Gujarat,IN,https://www.google.com/maps/place/Hasnain+Masjid/data=!4m7!3m6!1s0x39609a4ffa8ea17b:0x1933c978fc41e73!8m2!3d22.7732079!4d73.6177181!16s%2Fg%2F11c325w78s!19sChIJe6GO-k-aYDkRcx7Ej5c8kwE?authuser=0&hl=en&rclk=1,"22.7732079,73.61771809999999"
Noorani Masjid,Mosque,"QJ88+MVR Noorani Masjid, opp. District court, Gondra, Gita Nagar, Godhra, Gujarat 389001","Gondra, Gita Nagar","QJ88+MVR, opp. District court",Godhra,389001,Gujarat,IN,https://www.google.com/maps/place/Noorani+Masjid/data=!4m7!3m6!1s0x39609a50b4afc4d9:0x3c39a56435fa719b!8m2!3d22.7667457!4d73.6171511!16s%2Fg%2F11c2y4x42h!19sChIJ2cSvtFCaYDkRm3H6NWSlOTw?authuser=0&hl=en&rclk=1,"22.766745699999998,73.6171511"
Masjid-e-sufi,Mosque,"QJ93+JCH Masjid-e-sufi, Tathoora, Godhra, Gujarat 389001",Tathoora,QJ93+JCH,Godhra,389001,Gujarat,IN,https://www.google.com/maps/place/Masjid-e-sufi/data=!4m7!3m6!1s0x39609bada79cc3a3:0x208d01ccffbb8936!8m2!3d22.7690659!4d73.6036074!16s%2Fg%2F1hhhh9btk!19sChIJo8Ocp62bYDkRNom7_8wBjSA?authuser=0&hl=en&rclk=1,"22.769065899999998,73.6036074"
Muhammadi Masjid,Mosque,"QH8X+VPX Muhammadi Masjid, Satpur, Godhra, Gujarat 389001",Satpur,QH8X+VPX,Godhra,389001,Gujarat,IN,https://www.google.com/maps/place/Muhammadi+Masjid/data=!4m7!3m6!1s0x39609bae8c58240f:0x5b91fac0331fce17!8m2!3d22.7672492!4d73.5993699!16s%2Fg%2F11btyk_5b4!19sChIJDyRYjK6bYDkRF84fM8D6kVs?authuser=0&hl=en&rclk=1,"22.7672492,73.5993699"
Western Texi service,Mosque,"Western Texi service, Nr.subhani masjid, mansori society, Gondra, Shera, Godhra, Gujarat 389001","Gondra, Shera","Nr.subhani masjid, mansori society",Godhra,389001,Gujarat,IN,https://www.google.com/maps/place/Western+Texi+service/data=!4m7!3m6!1s0x39609a5093dd3db7:0x25e3c54485944b84!8m2!3d22.7686137!4d73.6171532!16s%2Fg%2F1tg6njgc!19sChIJtz3dk1CaYDkRhEuUhUTF4yU?authuser=0&hl=en&rclk=1,"22.7686137,73.61715319999999"
Masjid-e-Huda,Mosque,"QJF3+9JQ Masjid-e-Huda, Near Railway Station B/H HP Petrol Pump, Vadodara, Road, Godhra, Gujarat 389001",Mohammadi Society,"QJF3+9JQ, Near Railway Station B/H HP Petrol Pump, Vadodara, Road",Godhra,389001,Gujarat,IN,https://www.google.com/maps/place/Masjid-e-Huda/data=!4m7!3m6!1s0x39609bd03d0ccb27:0xd0abe2caf974174!8m2!3d22.773475!4d73.6041084!16s%2Fg%2F11fkyq06ky!19sChIJJ8sMPdCbYDkRdEGXryy-Cg0?authuser=0&hl=en&rclk=1,"22.773474999999998,73.6041084"
Bismillah Masjid,Mosque,"QJF8+P33 Bismillah Masjid, sharaaf bazaar, Godhra, Gujarat","Soniwada, Shera","QJF8+P33, sharaaf bazaar",Godhra,,Gujarat,IN,https://www.google.com/maps/place/Bismillah+Masjid/data=!4m7!3m6!1s0x39609a4e4cfe49a1:0xbf7356efbd5610a5!8m2!3d22.7742673!4d73.6151834!16s%2Fg%2F11bxfsl86c!19sChIJoUn-TE6aYDkRpRBWve9Wc78?authuser=0&hl=en&rclk=1,"22.774267299999998,73.61518339999999"
Masjid-e-Taqwa,Mosque,"Masjid-e-Taqwa, 23, Lilesra Rd, Panchmahal, Lilesara, Gujarat 389340",Panchmahal,"23, Lilesra Rd",Lilesara,389340,Gujarat,IN,https://www.google.com/maps/place/Masjid-e-Taqwa/data=!4m7!3m6!1s0x39609af9cb5036a7:0x1fe72cba20e25f84!8m2!3d22.7579974!4d73.6171525!16s%2Fg%2F11byx0zttf!19sChIJpzZQy_maYDkRhF_iILos5x8?authuser=0&hl=en&rclk=1,"22.7579974,73.6171525"
Guhya Masjid,Mosque,"QJG6+FR3 Guhya Masjid, Guhya Mohalla, Guhhya Mohalla, Godhra, Gujarat 389001","Bhagol, Guhhya Mohalla","QJG6+FR3, Guhya Mohalla",Godhra,389001,Gujarat,IN,https://www.google.com/maps/place/Guhya+Masjid/data=!4m7!3m6!1s0x39609a4c2da96965:0x421a55157cd64cd3!8m2!3d22.7761411!4d73.6120557!16s%2Fg%2F11c310mx0c!19sChIJZWmpLUyaYDkR00zWfBVVGkI?authuser=0&hl=en&rclk=1,"22.7761411,73.6120557"
Masjid-e-Bilal,Mosque,"QJG4+43Q Masjid-e-Bilal, Vezalpur, Godhra, Gujarat 389001",Vezalpur,QJG4+43Q,Godhra,389001,Gujarat,IN,https://www.google.com/maps/place/Masjid-e-Bilal/data=!4m7!3m6!1s0x39609bb33f0419cf:0xca4264fdeab8617d!8m2!3d22.7753415!4d73.6052262!16s%2Fg%2F11f3p2tprn!19sChIJzxkEP7ObYDkRfWG46v1kQso?authuser=0&hl=en&rclk=1,"22.7753415,73.60522619999999"
Imamkha Masjid,Mosque,"QJF8+PFJ Imamkha Masjid, Soniwada, Shera, Godhra, Gujarat 389001","Soniwada, Shera",QJF8+PFJ,Godhra,389001,Gujarat,IN,https://www.google.com/maps/place/Imamkha+Masjid/data=!4m7!3m6!1s0x39609a4fba65234f:0x2bd116a8a35cd9e4!8m2!3d22.7743375!4d73.6161406!16s%2Fg%2F11g6jzg2b7!19sChIJTyNluk-aYDkR5Nlco6gW0Ss?authuser=0&hl=en&rclk=1,"22.774337499999998,73.6161406"
Quwwat-ul-Islam Masjid,Mosque,"QJG6+FCV Quwwat-ul-Islam Masjid, Bhagol, Guhya Mohalla, Godhra, Gujarat 389001","Bhagol, Guhya Mohalla",QJG6+FCV,Godhra,389001,Gujarat,IN,https://www.google.com/maps/place/Quwwat-ul-Islam+Masjid/data=!4m7!3m6!1s0x39609a4c1568bde3:0xd4121978e1ec3b30!8m2!3d22.7762385!4d73.6110477!16s%2Fg%2F11gdkk8_59!19sChIJ471oFUyaYDkRMDvs4XgZEtQ?authuser=0&hl=en&rclk=1,"22.776238499999998,73.6110477"
Kadiyawada Masjid,Mosque,"QJF7+7Q6 Kadiyawada Masjid, Voharwad, Shera, Godhra, Gujarat 389001","Voharwad, Shera",QJF7+7Q6,Godhra,389001,Gujarat,IN,https://www.google.com/maps/place/Kadiyawada+Masjid/data=!4m7!3m6!1s0x39609a4e3bbbd2a5:0xec7ce054e665e883!8m2!3d22.7731696!4d73.6143764!16s%2Fg%2F11g8884np9!19sChIJpdK7O06aYDkRg-hl5lTgfOw?authuser=0&hl=en&rclk=1,"22.7731696,73.6143764"
Dar-us-Salam Masjid,Mosque,"Dar-us-Salam Masjid, Amli Faliya, Gayatry society, Voharwad, Shera, Godhra, Gujarat 389001","Amli Faliya, Gayatry society, Voharwad, Shera",,Godhra,389001,Gujarat,IN,https://www.google.com/maps/place/Dar-us-Salam+Masjid/data=!4m7!3m6!1s0x39609a4d8623fbad:0xa8a803fdf914b39b!8m2!3d22.7719991!4d73.6102091!16s%2Fg%2F11c30_s7c5!19sChIJrfsjhk2aYDkRm7MU-f0DqKg?authuser=0&hl=en&rclk=1,"22.7719991,73.61020909999999"
Masjid e Ali,Mosque,"Masjid e Ali, Nr, Railway Underpass, Signal Faliya, Godhra, Gujarat 389001",Signal Faliya,"Nr, Railway Underpass",Godhra,389001,Gujarat,IN,https://www.google.com/maps/place/Masjid+e+Ali/data=!4m7!3m6!1s0x39609b69d8bc35c5:0xa5a26387e4382634!8m2!3d22.7769998!4d73.5958038!16s%2Fg%2F11q4833h26!19sChIJxTW82GmbYDkRNCY45IdjoqU?authuser=0&hl=en&rclk=1,"22.7769998,73.5958038"
Masjid-e-Tuba,Mosque,"QJ82+F2X Masjid-e-Tuba, Vejalpur Rd, near capsule company, Tathoora, Chikhodra, Godhra, Gujarat 389340",Tathoora,"QJ82+F2X, Vejalpur Rd, near capsule company","Chikhodra, Godhra",389340,Gujarat,IN,https://www.google.com/maps/place/Masjid-e-Tuba/data=!4m7!3m6!1s0x39609ba9ecc09b47:0x3b3e480171a6c809!8m2!3d22.7662408!4d73.6001169!16s%2Fg%2F11g691m6fl!19sChIJR5vA7KmbYDkRCcimcQFIPjs?authuser=0&hl=en&rclk=1,"22.7662408,73.6001169"
Abdullah Masjid,Mosque,"QJ86+4FP Abdullah Masjid, Gondra, Shera, Godhra, Gujarat 389001","Gondra, Shera",QJ86+4FP,Godhra,389001,Gujarat,IN,https://www.google.com/maps/place/Abdullah+Masjid/data=!4m7!3m6!1s0x39609a541274735d:0x40e58fdb938d529c!8m2!3d22.7653395!4d73.6111973!16s%2Fg%2F11c2y557tm!19sChIJXXN0ElSaYDkRnFKNk9uP5UA?authuser=0&hl=en&rclk=1,"22.7653395,73.6111973"
Masjide Abdurrahim,Mosque,"QH8W+V9G Masjide Abdurrahim, Satpur, Godhra, Gujarat 389001",Satpur,QH8W+V9G,Godhra,389001,Gujarat,IN,https://www.google.com/maps/place/Masjide+Abdurrahim/data=!4m7!3m6!1s0x39609baf745c29ff:0x157c142828e6e03f!8m2!3d22.7671896!4d73.5959381!16s%2Fg%2F11g8nqjcnf!19sChIJ_ylcdK-bYDkRP-DmKCgUfBU?authuser=0&hl=en&rclk=1,"22.7671896,73.5959381"
Rehmatullah Masjid,Mosque,"QJM4+GCR Rehmatullah Masjid, Down Yard, Godhra, Gujarat 389001",Down Yard,QJM4+GCR,Godhra,389001,Gujarat,IN,https://www.google.com/maps/place/Rehmatullah+Masjid/data=!4m7!3m6!1s0x39609bcab14002b9:0x5bf27cacb376bfc6!8m2!3d22.7838683!4d73.6060142!16s%2Fg%2F11g65bz_nx!19sChIJuQJAscqbYDkRxr92s6x88ls?authuser=0&hl=en&rclk=1,"22.783868299999998,73.60601419999999"
MASJID E MAHBUB,Mosque,"QJG2+5G3 MASJID E MAHBUB, MENDA PLOT ROD, Vejalpur Rd, Vezalpur, Godhra, Gujarat 389001",Vezalpur,"QJG2+5G3, MENDA PLOT ROD, Vejalpur Rd",Godhra,389001,Gujarat,IN,https://www.google.com/maps/place/MASJID+E+MAHBUB/data=!4m7!3m6!1s0x39609bb3de4593bd:0x36cffe7bf6a00736!8m2!3d22.7753827!4d73.601305!16s%2Fg%2F11g6bzkm05!19sChIJvZNF3rObYDkRNgeg9nv-zzY?authuser=0&hl=en&rclk=1,"22.775382699999998,73.601305"
Chaman Masjid,Mosque,"Chaman Masjid, Railway Crossing, Khadi Faliya Rd, near Shahera, Bhagol, Yogeshwar Society, Godhra, Gujarat 389001","Bhagol, Yogeshwar Society","Railway Crossing, Khadi Faliya Rd, near Shahera",Godhra,389001,Gujarat,IN,https://www.google.com/maps/place/Chaman+Masjid/data=!4m7!3m6!1s0x39609a4916d49703:0x8a47d9edd655b9c7!8m2!3d22.7797893!4d73.6144146!16s%2Fg%2F11ckvlzck2!19sChIJA5fUFkmaYDkRx7lV1u3ZR4o?authuser=0&hl=en&rclk=1,"22.779789299999997,73.6144146"
Police Head Qauters Masjid,Mosque,"Police Head Qauters Masjid, Dr AP Pandya, Road, Kotiyark Society,, Godhra, Gujarat 389001","Kotiyark Society,","Dr AP Pandya, Road",Godhra,389001,Gujarat,IN,https://www.google.com/maps/place/Police+Head+Qauters+Masjid/data=!4m7!3m6!1s0x39609a4420eb7b2d:0xd602c16f8216824d!8m2!3d22.7790901!4d73.6222786!16s%2Fg%2F11ckvl00v8!19sChIJLXvrIESaYDkRTYIWgm_BAtY?authuser=0&hl=en&rclk=1,"22.779090099999998,73.6222786"
Ummar Masjid,Mosque,"QJ83+P7F Ummar Masjid, geni plot, Godhra, Gujarat",Tathoora,"QJ83+P7F, geni plot",Godhra,,Gujarat,IN,https://www.google.com/maps/place/Ummar+Masjid/data=!4m7!3m6!1s0x39609bac5c352b9f:0x62e383012bb703b1!8m2!3d22.7668225!4d73.6031794!16s%2Fg%2F11c5fzl9dg!19sChIJnys1XKybYDkRsQO3KwGD42I?authuser=0&hl=en&rclk=1,"22.7668225,73.6031794"
Ashrafmala,Mosque,"Ashrafmala, Aldecor, market, near Usmani Masjid Shimla, Godhra, Gujarat 389001",,"Aldecor, market, near Usmani Masjid Shimla",Godhra,389001,Gujarat,IN,https://www.google.com/maps/place/Ashrafmala/data=!4m7!3m6!1s0x39609bb7003f5117:0x193a3bc4d491146e!8m2!3d22.7790032!4d73.5975999!16s%2Fg%2F11h1g8gb8!19sChIJF1E_ALebYDkRbhSR1MQ7Ohk?authuser=0&hl=en&rclk=1,"22.7790032,73.59759989999999"
Near Rani Masjid Bazar Mohala Godhar,Mosque,"Near Rani Masjid Bazar Mohala Godhar, 12/3, Anjuman Rd, Gayatry society, Bhagol, Shera, Godhra, Gujarat 389001","Gayatry society, Bhagol, Shera","12/3, Anjuman Rd",Godhra,389001,Gujarat,IN,https://www.google.com/maps/place/Near+Rani+Masjid+Bazar+Mohala+Godhar/data=!4m7!3m6!1s0x39609a4dda71dba5:0x67f0f69f9d0a2ab3!8m2!3d22.7749922!4d73.6119594!16s%2Fg%2F11c1wrd2y2!19sChIJpdtx2k2aYDkRsyoKnZ_28Gc?authuser=0&hl=en&rclk=1,"22.7749922,73.6119594"
Mehboob Masjid,Mosque,"QJG6+Q6G Mehboob Masjid, Railway Station Rd, Bhagol, Shera, Godhra, Gujarat 389001","Bhagol, Shera","QJG6+Q6G, Railway Station Rd",Godhra,389001,Gujarat,IN,https://www.google.com/maps/place/Mehboob+Masjid/data=!4m7!3m6!1s0x39609a4c71f61cdd:0xfe301e126929abec!8m2!3d22.7769265!4d73.6105694!16s%2Fg%2F11dyqtn6fd!19sChIJ3Rz2cUyaYDkR7KspaRIeMP4?authuser=0&hl=en&rclk=1,"22.7769265,73.6105694"
Masjid-e-Rahmaniya,Mosque,"QJC3+V2R Masjid-e-Rahmaniya, muslim society A, Vejalpur Rd, Mohammadi Society, Godhra, Gujarat 389001",Mohammadi Society,"QJC3+V2R, muslim society A, Vejalpur Rd",Godhra,389001,Gujarat,IN,https://www.google.com/maps/place/Masjid-e-Rahmaniya/data=!4m7!3m6!1s0x39609bb2699cd6f7:0x223217f118461a32!8m2!3d22.7722335!4d73.6025221!16s%2Fg%2F11fx8cjlp6!19sChIJ99acabKbYDkRMhpGGPEXMiI?authuser=0&hl=en&rclk=1,"22.7722335,73.6025221"
msjd admMasjid-e-Adam,Mosque,"msjd admMasjid-e-Adam, Hayat Ni wadi, near Dr. Zakir Husain School, Modi Ni Wadi No.1, Soniwada, Shera, Godhra, Gujarat 389001","Modi Ni Wadi No.1, Soniwada, Shera","Hayat Ni wadi, near Dr. Zakir Husain School",Godhra,389001,Gujarat,IN,https://www.google.com/maps/place/%D9%85%D8%B3%D8%AC%D8%AF+%D8%A2%D8%AF%D9%85Masjid-e-Adam%E2%80%AD/data=!4m7!3m6!1s0x39609baca93f3571:0xda3339558b5f84b1!8m2!3d22.7787887!4d73.6143632!16s%2Fg%2F11g6mgwkbn!19sChIJcTU_qaybYDkRsYRfi1U5M9o?authuser=0&hl=en&rclk=1,"22.7787887,73.6143632"
jilani masjid,Mosque,"QJ96+F92 jilani masjid, Voharwad, Shera, Godhra, Gujarat 389001","Voharwad, Shera",QJ96+F92,Godhra,389001,Gujarat,IN,https://www.google.com/maps/place/jilani+masjid/data=!4m7!3m6!1s0x39609a53b5efd79b:0xf981f2d3c81a97b8!8m2!3d22.7686357!4d73.6108916!16s%2Fg%2F11g8ljjdsx!19sChIJm9fvtVOaYDkRuJcayNPygfk?authuser=0&hl=en&rclk=1,"22.768635699999997,73.6108916"
Uzer Masjid,Mosque,"QJ97+Q6F Uzer Masjid, Gondra, Shera, Godhra, Gujarat 389001","Gondra, Shera",QJ97+Q6F,Godhra,389001,Gujarat,IN,https://www.google.com/maps/place/Uzer+Masjid/data=!4m7!3m6!1s0x39609a51836b6963:0x494a46b31c4f858!8m2!3d22.7694459!4d73.6130354!16s%2Fg%2F11gdkk9ywz!19sChIJY2lrg1GaYDkRWPjEMWuklAQ?authuser=0&hl=en&rclk=1,"22.769445899999997,73.6130354"
Eidgah,Mosque,"Eidgah, Eidgah Society, nr. Halima Masjid, Gondra, Shera, Godhra, Gujarat 389001","Gondra, Shera","Eidgah Society, nr. Halima Masjid",Godhra,389001,Gujarat,IN,https://www.google.com/maps/place/Eidgah/data=!4m7!3m6!1s0x39609a53f8f46657:0x313e91d8dad9a74c!8m2!3d22.766254!4d73.6118783!16s%2Fg%2F11fx89vqkf!19sChIJV2b0-FOaYDkRTKfZ2tiRPjE?authuser=0&hl=en&rclk=1,"22.766254,73.6118783"
Masjid-e-Haroon,Mosque,"QJ82+GHM Masjid-e-Haroon, Saatpul Rd, Tathoora, Godhra, Gujarat 389001",Tathoora,"QJ82+GHM, Saatpul Rd",Godhra,389001,Gujarat,IN,https://www.google.com/maps/place/Masjid-e-Haroon/data=!4m7!3m6!1s0x39609bac177a2e45:0x7dcf1c381b186398!8m2!3d22.7663378!4d73.6014193!16s%2Fg%2F11g8k5vmby!19sChIJRS56F6ybYDkRmGMYGzgcz30?authuser=0&hl=en&rclk=1,"22.7663378,73.6014193"
Ashrafi Masjid,Mosque,"QHCX+WR2 Ashrafi Masjid, Vezalpur, Godhra, Gujarat 389001",Vezalpur,QHCX+WR2,Godhra,389001,Gujarat,IN,https://www.google.com/maps/place/Ashrafi+Masjid/data=!4m7!3m6!1s0x39609b30e3bed485:0x3641c1c5e6d50f73!8m2!3d22.7722633!4d73.5995234!16s%2Fg%2F11gxvv0y81!19sChIJhdS-4zCbYDkRcw_V5sXBQTY?authuser=0&hl=en&rclk=1,"22.7722633,73.5995234"
Masjid e Imran,Mosque,"PJX3+3P4 Masjid e Imran, Godhra, Chikhodra, Gujarat 389001",,PJX3+3P4,"Godhra, Chikhodra",389001,Gujarat,IN,https://www.google.com/maps/place/Masjid+e+Imran/data=!4m7!3m6!1s0x39609b1d31fbe923:0xa8edd5106eea3267!8m2!3d22.7476257!4d73.6043419!16s%2Fg%2F11b6342k4_!19sChIJI-n7MR2bYDkRZzLqbhDV7ag?authuser=0&hl=en&rclk=1,"22.7476257,73.6043419"
Masjid e Abubakr,Mosque,"Masjid e Abubakr, Meda plot no. 1.abubakr masjid, Gujarat 389001",Mohammadi Society,Meda plot no. 1.abubakr masjid,Godhra,389001,Gujarat,IN,https://www.google.com/maps/place/Masjid+e+Abubakr/data=!4m7!3m6!1s0x39609b033aac21f7:0xe47b4724495b68f0!8m2!3d22.7740847!4d73.6020191!16s%2Fg%2F11gw3bs0m2!19sChIJ9yGsOgObYDkR8GhbSSRHe-Q?authuser=0&hl=en&rclk=1,"22.7740847,73.60201909999999"
Faizane Goase Aazam Masjid,Mosque,"QJ7F+Q64 Faizane Goase Aazam Masjid, Phool Saiyed Park Society, Gita Nagar, Godhra, Gujarat 389001","Phool Saiyed Park Society, Gita Nagar",QJ7F+Q64,Godhra,389001,Gujarat,IN,https://www.google.com/maps/place/Faizane+Goase+Aazam+Masjid/data=!4m7!3m6!1s0x39609bb9b7732077:0x7700cba12355677e!8m2!3d22.7643941!4d73.6230681!16s%2Fg%2F11qn152gy4!19sChIJdyBzt7mbYDkRfmdVI6HLAHc?authuser=0&hl=en&rclk=1,"22.7643941,73.6230681"
Shah-E-Aalam Masjid,Mosque,"Shah-E-Aalam Masjid, No. 1, MG Rd, opp. Police Chowki, Soniwada, Kalal Darwaja, Godhra, Gujarat 389001","Soniwada, Kalal Darwaja","No. 1, MG Rd, opp. Police Chowki",Godhra,389001,Gujarat,IN,https://www.google.com/maps/place/Shah-E-Aalam+Masjid/data=!4m7!3m6!1s0x39609a4f967e6be3:0x1e3dde52dfb89ed2!8m2!3d22.7743381!4d73.6170502!16s%2Fg%2F11ckrbf8rj!19sChIJ42t-lk-aYDkR0p6431LePR4?authuser=0&hl=en&rclk=1,"22.774338099999998,73.6170502"
Husaini Masjid,Mosque,"QJH5+PJ5 Husaini Masjid, Down Yard, khaadi, fariya, Gujarat 389001",Down Yard,QJH5+PJ5,"khaadi, fariya",,Gujarat,IN,https://www.google.com/maps/place/Husaini+Masjid/data=!4m7!3m6!1s0x39609a4b09522cf1:0x7435a3c872cedeb!8m2!3d22.7792743!4d73.6091193!16s%2Fg%2F11bx5pmmhs!19sChIJ8SxSCUuaYDkR6-0shzxaQwc?authuser=0&hl=en&rclk=1,"22.779274299999997,73.6091193"
Masjid-e-Sulemani,Mosque,"QJ64+HC3 Masjid-e-Sulemani, Chikhodra, Gujarat 389340",,QJ64+HC3,Chikhodra,389340,Gujarat,IN,https://www.google.com/maps/place/Masjid-e-Sulemani/data=!4m7!3m6!1s0x39609baac980f2e7:0x29442f0d8cbc48aa!8m2!3d22.7613849!4d73.6060433!16s%2Fg%2F11g8vpjbds!19sChIJ5_KAyaqbYDkRqki8jA0vRCk?authuser=0&hl=en&rclk=1,"22.7613849,73.6060433"
Khadijatul Kubra Masjid,Mosque,"QJC4+85C Khadijatul Kubra Masjid, Shaikh Majavar Rd, Tahoora, Godhra, Gujarat 389001",Tahoora,"QJC4+85C, Shaikh Majavar Rd",Godhra,389001,Gujarat,IN,https://www.google.com/maps/place/Khadijatul+Kubra+Masjid/data=!4m7!3m6!1s0x39609bad5f0d21b1:0x91d9577d45db459c!8m2!3d22.7708125!4d73.6053906!16s%2Fg%2F11g7yd739p!19sChIJsSENX62bYDkRnEXbRX1X2ZE?authuser=0&hl=en&rclk=1,"22.770812499999998,73.60539059999999"
Farid Masjid,Mosque,"QJH7+GP9 Farid Masjid, Railway Station Rd, Rahmat nagar, Bhagol, Shera, Godhra, Gujarat 389001","Rahmat nagar, Bhagol, Shera","QJH7+GP9, Railway Station Rd",Godhra,389001,Gujarat,IN,https://www.google.com/maps/place/Farid+Masjid/data=!4m7!3m6!1s0x39609a493a23bfd3:0x190fdec0e3401120!8m2!3d22.7787887!4d73.6143632!16s%2Fg%2F11g9qmry53!19sChIJ078jOkmaYDkRIBFA48DeDxk?authuser=0&hl=en&rclk=1,"22.7787887,73.6143632"
Masjid E Juber,Mosque,"QJF5+48M Masjid E Juber, Vezalpur, Godhra, Gujarat 389001",Vezalpur,QJF5+48M,Godhra,389001,Gujarat,IN,https://www.google.com/maps/place/Masjid+E+Juber/data=!4m7!3m6!1s0x39609a4d6b88d96d:0x9294d98ffedd7c24!8m2!3d22.7728499!4d73.6082978!16s%2Fg%2F11c6ppg21d!19sChIJbdmIa02aYDkRJHzd_o_ZlJI?authuser=0&hl=en&rclk=1,"22.7728499,73.6082978"
MASJID E ISA,Mosque,"QHFW+XW5 MASJID E ISA, Singnal Faliya Bhatuk Plot, Godhra, Gujarat",Mohammadi Society,"QHFW+XW5, Singnal Faliya Bhatuk Plot",Godhra,,Gujarat,IN,https://www.google.com/maps/place/MASJID+E+ISA/data=!4m7!3m6!1s0x39609bb0de655215:0x22b237ce99e5923b!8m2!3d22.7748906!4d73.5973692!16s%2Fg%2F11dymntvyz!19sChIJFVJl3rCbYDkRO5Llmc43siI?authuser=0&hl=en&rclk=1,"22.7748906,73.5973692"
Shah Wali Masjid,Mosque,"Shah Wali Masjid, Gandhi Nagar, Kalal Darwaja, Godhra, Gujarat 389001","Gandhi Nagar, Kalal Darwaja",Shah Wali Masjid,Godhra,,Gujarat,IN,https://www.google.com/maps/place/Shah+Wali+Masjid/data=!4m7!3m6!1s0x39609bc515262469:0xc0cdae49724961b5!8m2!3d22.7732654!4d73.6178761!16s%2Fg%2F11h56v2d00!19sChIJaSQmFcWbYDkRtWFJckmuzcA?authuser=0&hl=en&rclk=1,"22.7732654,73.6178761"
Masjid E Salma,Mosque,"QJ64+2HM Masjid E Salma, Chikhodra, Godhra, Gujarat 389001",,"QJ64+2HM, Chikhodra","Godhra, Chikhodra",389001,Gujarat,IN,https://www.google.com/maps/place/Masjid+E+Salma/data=!4m7!3m6!1s0x39609bf7713a4acf:0x22f10b1d7bd95d04!8m2!3d22.7600816!4d73.6064262!16s%2Fg%2F11h6g3v12m!19sChIJz0o6cfebYDkRBF3Zex0L8SI?authuser=0&hl=en&rclk=1,"22.7600816,73.6064262"
Masjide Ibrahim,Mosque,"QHJW+XH3 Masjide Ibrahim, Umreth Road,Simla Compound, Godhra, Gujarat 389001",,"QHJW+XH3, Umreth Road,Simla Compound",Godhra,389001,Gujarat,IN,https://www.google.com/maps/place/Masjide+Ibrahim/data=!4m7!3m6!1s0x39609b7b5eb85d35:0xba402373de795f29!8m2!3d22.7823755!4d73.5964371!16s%2Fg%2F11fmf1t1ft!19sChIJNV24XnubYDkRKV953nMjQLo?authuser=0&hl=en&rclk=1,"22.7823755,73.5964371"
Amena patel masjid,Mosque,"QJ6C+MW3 Amena patel masjid, Unnamed Road, Gita Nagar, Godhra, Gujarat 389340",Gita Nagar,"QJ6C+MW3, Unnamed Road",Godhra,389340,Gujarat,IN,https://www.google.com/maps/place/Amena+patel+masjid/data=!4m7!3m6!1s0x39609b75603082ef:0x5d844a08ae3e9428!8m2!3d22.7616361!4d73.6223114!16s%2Fg%2F11fm2k3drn!19sChIJ74IwYHWbYDkRKJQ-rghKhF0?authuser=0&hl=en&rclk=1,"22.7616361,73.6223114"
Zahoorkhan Jami Masjid,Mosque,"Zahoorkhan Jami Masjid, 10, Khatkiwad Dhaal, Keyurs Area, Shera, Godhra, Gujarat 389001","Keyurs Area, Shera","10, Khatkiwad Dhaal",Godhra,389001,Gujarat,IN,https://www.google.com/maps/place/Zahoorkhan+Jami+Masjid/data=!4m7!3m6!1s0x39609b3ef5895a67:0x35b88ee0b415221d!8m2!3d22.7752777!4d73.6165358!16s%2Fg%2F11grv40xm8!19sChIJZ1qJ9T6bYDkRHSIVtOCOuDU?authuser=0&hl=en&rclk=1,"22.7752777,73.6165358"
Masjide Tuba,Mosque,"Masjide Tuba, Mufti Aachodi Road, Near Nazrana Service Station, Chikhodra, Godhra, 389001","Modi Ni Wadi No.1, Soniwada, Shera","Mufti Aachodi Road, Near Nazrana Service Station, Chikhodra",Godhra,389001,Gujarat,IN,https://www.google.com/maps/place/Masjide+Tuba/data=!4m7!3m6!1s0x39609b340b481465:0xe9dbd5acec3076a4!8m2!3d22.7787887!4d73.6143632!16s%2Fg%2F11j2y9qxs_!19sChIJZRRICzSbYDkRpHYw7KzV2-k?authuser=0&hl=en&rclk=1,"22.7787887,73.6143632"
Kabrastan Masjid,Mosque,"QJC4+6XC Kabrastan Masjid, Tathoora, Godhra, Gujarat 389001",Tathoora,QJC4+6XC,Godhra,389001,Gujarat,IN,https://www.google.com/maps/place/Kabrastan+Masjid/data=!4m7!3m6!1s0x39609a52baf837ed:0xb2dae605f2ce6646!8m2!3d22.7705737!4d73.6074017!16s%2Fg%2F11bx3bgg6h!19sChIJ7Tf4ulKaYDkRRmbO8gXm2rI?authuser=0&hl=en&rclk=1,"22.7705737,73.6074017"
Masjid e Ismail,Mosque,"QJ94+673 Masjid e Ismail, Tathoora, Godhra, Gujarat 389001",Tathoora,QJ94+673,Godhra,389001,Gujarat,IN,https://www.google.com/maps/place/Masjid+e+Ismail/data=!4m7!3m6!1s0x39609bacda04dabf:0x2da046a5a3064113!8m2!3d22.7680112!4d73.6056875!16s%2Fg%2F11g8zxnqn3!19sChIJv9oE2qybYDkRE0EGo6VGoC0?authuser=0&hl=en&rclk=1,"22.7680112,73.6056875"
Kausar Masjid,Mosque,"Kausar Masjid, Opposite Railway Station, Vali Street Number 3, Molana Azad Rd, Godhra, Gujarat 389001","Bhagol, Shera","Opposite Railway Station, Vali Street Number 3, Molana Azad Rd",Godhra,389001,Gujarat,IN,https://www.google.com/maps/place/Kausar+Masjid/data=!4m7!3m6!1s0x39609bc5c374254b:0x16fd705385c1983e!8m2!3d22.7757956!4d73.6083021!16s%2Fg%2F11f6g2zl72!19sChIJSyV0w8WbYDkRPpjBhVNw_RY?authuser=0&hl=en&rclk=1,"22.7757956,73.6083021"
Masjid-e-aadam,Mosque,"Masjid-e-aadam, Tathoora, Godhra, Gujarat 389001",Tathoora,,Godhra,389001,Gujarat,IN,https://www.google.com/maps/place/Masjid-e-aadam/data=!4m7!3m6!1s0x39609b4f2ae54fe1:0x6796eadf34b66360!8m2!3d22.76583!4d73.6060553!16s%2Fg%2F11h88fjnwt!19sChIJ4U_lKk-bYDkRYGO2NN_qlmc?authuser=0&hl=en&rclk=1,"22.765829999999998,73.6060553"
Aayesha masjid,Mosque,"QJ76+92J Aayesha masjid, Unnamed Road, Gondra, Godhra, Gujarat 389001",Gondra,"QJ76+92J, Unnamed Road",Godhra,389001,Gujarat,IN,https://www.google.com/maps/place/Aayesha+masjid/data=!4m7!3m6!1s0x39609b6c9a866637:0xaee499a87584bc05!8m2!3d22.7634659!4d73.6100199!16s%2Fg%2F11j0jsbz2b!19sChIJN2aGmmybYDkRBbyEdaiZ5K4?authuser=0&hl=en&rclk=1,"22.7634659,73.6100199"
NOOR - E - MOHAMMADI MASJID,Mosque,"QJ7C+25F NOOR - E - MOHAMMADI MASJID, Gondra, Panchmahal, Dayal, Godhra, Gujarat 389340","Gondra, Panchmahal",QJ7C+25F,"Dayal, Godhra",389340,Gujarat,IN,https://www.google.com/maps/place/NOOR+-+E+-+MOHAMMADI+MASJID/data=!4m7!3m6!1s0x39609b2ce15610b1:0xa39ba8ca841a97c2!8m2!3d22.762554!4d73.6204373!16s%2Fg%2F11fpl4w5ll!19sChIJsRBW4SybYDkRwpcahMqom6M?authuser=0&hl=en&rclk=1,"22.762553999999998,73.62043729999999"
Masjid-e-aamina,Mosque,"Masjid-e-aamina, Mufti Aachhodi Road, Saatpul Rd, Jakatnaka, Godhra, Gujarat 389001",Jakatnaka,"Mufti Aachhodi Road, Saatpul Rd",Godhra,389001,Gujarat,IN,https://www.google.com/maps/place/Masjid-e-aamina/data=!4m7!3m6!1s0x39609bd6427fc47d:0xe3fb56c1174b3012!8m2!3d22.7690832!4d73.6017956!16s%2Fg%2F11j8jxjj_7!19sChIJfcR_QtabYDkREjBLF8FW--M?authuser=0&hl=en&rclk=1,"22.7690832,73.6017956"
umar masjid,Mosque,"QJH7+GP9 umar masjid, Modi Ni Wadi No.1, Soniwada, Shera, Godhra, Gujarat 389001","Modi Ni Wadi No.1, Soniwada, Shera",QJH7+GP9,Godhra,389001,Gujarat,IN,https://www.google.com/maps/place/umar+masjid/data=!4m7!3m6!1s0x39609a493a23bfd3:0x9cb0286f33704f4d!8m2!3d22.7787887!4d73.6143632!16s%2Fg%2F11btsv1930!19sChIJ078jOkmaYDkRTU9wM28osJw?authuser=0&hl=en&rclk=1,"22.7787887,73.6143632"
Masjid e zamzam,Mosque,"QJM2+PW6 Masjid e zamzam, Old NH-59, Godhra, Gujarat 389001",,"QJM2+PW6, Old NH-59",Godhra,389001,Gujarat,IN,https://www.google.com/maps/place/Masjid+e+zamzam/data=!4m7!3m6!1s0x39609b0f716b4125:0x8ffd3afec604edf7!8m2!3d22.7842835!4d73.6022763!16s%2Fg%2F11qh65zzkk!19sChIJJUFrcQ-bYDkR9-0Exv46_Y8?authuser=0&hl=en&rclk=1,"22.784283499999997,73.6022763"
Masjid E Imam Ahmadraza,Mosque,"Masjid E Imam Ahmadraza, dostana society, Khadi Faliya Rd, Aman Society, opp, Godhra, Gujarat 389001","Aman Society, opp","dostana society, Khadi Faliya Rd",Godhra,389001,Gujarat,IN,https://www.google.com/maps/place/Masjid+E+Imam+Ahmadraza/data=!4m7!3m6!1s0x39609ba78be09935:0xc56fe4cff697a37d!8m2!3d22.7806515!4d73.6097161!16s%2Fg%2F11fj9msyvf!19sChIJNZngi6ebYDkRfaOX9s_kb8U?authuser=0&hl=en&rclk=1,"22.780651499999998,73.6097161"
Voharwad Masjid,Mosque,"QJ85+2QJ Voharwad Masjid, Gondra, Voharwad, Shera, Ankleshwar, Godhra, Gujarat 393001","Gondra, Voharwad, Shera",QJ85+2QJ,"Ankleshwar, Godhra",393001,Gujarat,IN,https://www.google.com/maps/place/Voharwad+Masjid/data=!4m7!3m6!1s0x39609a54880b7ac9:0xe7410f144e984354!8m2!3d22.7650845!4d73.6093799!16s%2Fg%2F11g6mq80hz!19sChIJyXoLiFSaYDkRVEOYThQPQec?authuser=0&hl=en&rclk=1,"22.7650845,73.6093799"
Mariyam masjid,Mosque,"Mariyam masjid, Chikhodra, Gujarat 389340",,,Chikhodra,389340,Gujarat,IN,https://www.google.com/maps/place/Mariyam+masjid/data=!4m7!3m6!1s0x39609b62fe9c08c1:0x9cd32b05759452d6!8m2!3d22.7604321!4d73.5995934!16s%2Fg%2F11rg733p5p!19sChIJwQic_mKbYDkR1lKUdQUr05w?authuser=0&hl=en&rclk=1,"22.7604321,73.5995934"
Rangoon Masjid,Mosque,"Rangoon Masjid, 5/921 Hakimi Chowk, Nadi Kinare Vahorwad, Amli Faliya, Voharwad, Shera, Godhra, Gujarat 389001","Amli Faliya, Voharwad, Shera","5/921 Hakimi Chowk, Nadi Kinare Vahorwad",Godhra,389001,Gujarat,IN,https://www.google.com/maps/place/Rangoon+Masjid/data=!4m7!3m6!1s0x39609bbcbc7241f5:0xdf4d03169b980acb!8m2!3d22.7707232!4d73.6115202!16s%2Fg%2F11vb16qb7v!19sChIJ9UFyvLybYDkRywqYmxYDTd8?authuser=0&hl=en&rclk=1,"22.7707232,73.6115202"
Husaini Masjid (Rangoonwala),Mosque,"QJC6+5PC Husaini Masjid (Rangoonwala), Voharwad, Shera, Godhra, Gujarat 389001","Voharwad, Shera",QJC6+5PC,Godhra,,Gujarat,IN,https://www.google.com/maps/place/Husaini+Masjid+%28Rangoonwala%29/data=!4m7!3m6!1s0x39609b6ad3867ad1:0x4b653aaf2a5b1b5b!8m2!3d22.7704389!4d73.6117696!16s%2Fg%2F11l27sz559!19sChIJ0XqG02qbYDkRWxtbKq86ZUs?authuser=0&hl=en&rclk=1,"22.7704389,73.6117696"
Masjid e Shahe Daryai,Mosque,"QJ98+W6V Masjid e Shahe Daryai, Gondra, Shera, Godhra, Gujarat 389001","Gondra, Shera",QJ98+W6V,Godhra,389001,Gujarat,IN,https://www.google.com/maps/place/Masjid+e+Shahe+Daryai/data=!4m7!3m6!1s0x39609ba6f75e76e1:0x927c8803df10df80!8m2!3d22.7698639!4d73.6155365!16s%2Fg%2F11qpf0myb4!19sChIJ4XZe96abYDkRgN8Q3wOIfJI?authuser=0&hl=en&rclk=1,"22.7698639,73.61553649999999"
Masjide Musa,Mosque,"QHMW+J4V Masjide Musa, Road, Daruniya, Godhra, Gujarat 389001",,"QHMW+J4V, Road","Daruniya, Godhra",389001,Gujarat,IN,https://www.google.com/maps/place/Masjide+Musa/data=!4m7!3m6!1s0x39609b42826d4ba5:0x6aa9b1443fc3db7e!8m2!3d22.7841159!4d73.5953041!16s%2Fg%2F11kq6q6m75!19sChIJpUttgkKbYDkRftvDP0SxqWo?authuser=0&hl=en&rclk=1,"22.7841159,73.59530409999999"
Masjid e farid,Mosque,"QJ73+H73 Masjid e farid, Unnamed Road, Chikhodra, Gujarat 389340",,"QJ73+H73, Unnamed Road",Chikhodra,389340,Gujarat,IN,https://www.google.com/maps/place/Masjid+e+farid/data=!4m7!3m6!1s0x39609b12a5d25c9b:0xfb8952b8b0bb7432!8m2!3d22.7638799!4d73.6031749!16s%2Fg%2F11nh3sjpmd!19sChIJm1zSpRKbYDkRMnS7sLhSifs?authuser=0&hl=en&rclk=1,"22.7638799,73.6031749"
Kuba,Religious destination,"Kuba, Kuba Masjid Rd, Gandhi Nagar, Kalal Darwaja, Godhra, Gujarat 389001","Gandhi Nagar, Kalal Darwaja",Kuba Masjid Rd,Godhra,389001,Gujarat,IN,https://www.google.com/maps/place/Kuba/data=!4m7!3m6!1s0x39609bc7c99acfb3:0x13b7aef165a1e4a9!8m2!3d22.7718747!4d73.617656!16s%2Fg%2F11n2tn68qp!19sChIJs8-aycebYDkRqeShZfGutxM?authuser=0&hl=en&rclk=1,"22.771874699999998,73.617656"
Gondra Masjid,Mosque,"Gondra Masjid, Juni Masjid, Nadipar, Gondra Rd, Gondra, Shera, Godhra, Gujarat 389001","Gondra, Shera","Juni Masjid, Nadipar, Gondra Rd",Godhra,,Gujarat,IN,https://www.google.com/maps/place/Gondra+Masjid/data=!4m7!3m6!1s0x39609b51824ae37f:0x170f844122f04f16!8m2!3d22.7682421!4d73.6152062!16s%2Fg%2F11q99hqgk5!19sChIJf-NKglGbYDkRFk_wIkGEDxc?authuser=0&hl=en&rclk=1,"22.7682421,73.6152062"
Masjid-E-Khaleel,Mosque,"QJ85+VMH Masjid-E-Khaleel, Eidgah Road, behind Hayat Wadi, Tathoora, Godhra, Gujarat 389001",Tathoora,"QJ85+VMH, Eidgah Road, behind Hayat Wadi",Godhra,389001,Gujarat,IN,https://www.google.com/maps/place/Masjid-E-Khaleel/data=!4m7!3m6!1s0x39609b3e90518bd3:0xf51aaefb7bb99e92!8m2!3d22.7671983!4d73.6092252!16s%2Fg%2F11krrxzwlj!19sChIJ04tRkD6bYDkRkp65e_uuGvU?authuser=0&hl=en&rclk=1,"22.7671983,73.6092252"
Masjid e Abdul majid,Mosque,"QJ86+JGR Masjid e Abdul majid, Gondra, Shera, Godhra, Gujarat 389001","Gondra, Shera",QJ86+JGR,Godhra,389001,Gujarat,IN,https://www.google.com/maps/place/Masjid+e+Abdul+majid/data=!4m7!3m6!1s0x39609bf4c021686d:0x3eecd11e42e7e77e!8m2!3d22.7668095!4d73.6109164!16s%2Fg%2F11kj0sk18r!19sChIJbWghwPSbYDkRfufnQh7R7D4?authuser=0&hl=en&rclk=1,"22.766809499999997,73.6109164"
Masjid Esa,Mosque,"QHFX+QFG Masjid Esa, Vezalpur, Godhra, Gujarat 389001",Vezalpur,QHFX+QFG,Godhra,389001,Gujarat,IN,https://www.google.com/maps/place/Masjid+Esa/data=!4m7!3m6!1s0x39609b8ab5ad7039:0xed316b068c576009!8m2!3d22.7744453!4d73.5986993!16s%2Fg%2F11gxjq3c4w!19sChIJOXCttYqbYDkRCWBXjAZrMe0?authuser=0&hl=en&rclk=1,"22.7744453,73.59869929999999"
Fakhri Masjid,Mosque,"20, Fakhri Masjid, Haidri Society, near DSP Office, Gondra, Panchmahal, Godhra, Dayal, Gujarat 389001","Gondra, Panchmahal","20, Haidri Society, near DSP Office","Godhra, Dayal",389001,Gujarat,IN,https://www.google.com/maps/place/Fakhri+Masjid/data=!4m7!3m6!1s0x39609baf8ea63349:0x23ef9d01184f5496!8m2!3d22.7646673!4d73.6203885!16s%2Fg%2F11vb0v6krp!19sChIJSTOmjq-bYDkRllRPGAGd7yM?authuser=0&hl=en&rclk=1,"22.7646673,73.62038849999999"
Zahoorpura Nariyeli Masjid,Mosque,"QJG7+954 Zahoorpura Nariyeli Masjid, Zahoorpura Char Rasta, Raxan Rd, Godhra, Gujarat 389001","Patel Wad, Shera","QJG7+954, Zahoorpura Char Rasta, Raxan Rd",Godhra,389001,Gujarat,IN,https://www.google.com/maps/place/Zahoorpura+Nariyeli+Masjid/data=!4m7!3m6!1s0x39609b2a53cecca3:0xf80e6dbbed6419c9!8m2!3d22.7758943!4d73.6129495!16s%2Fg%2F11sfdjbxqv!19sChIJo8zOUyqbYDkRyRlk7bttDvg?authuser=0&hl=en&rclk=1,"22.775894299999997,73.6129495"
Haidery Masjid,Mosque,"Haidery Masjid, 20, Haidri Society, near DSP Office, Gondra, Panchmahal, Godhra, Gujarat 389001","Gondra, Panchmahal","20, Haidri Society, near DSP Office",Godhra,389001,Gujarat,IN,https://www.google.com/maps/place/Haidery+Masjid/data=!4m7!3m6!1s0x39609b1df263347f:0x714d66e3380f971!8m2!3d22.764657!4d73.6203878!16s%2Fg%2F11rcx5fym_!19sChIJfzRj8h2bYDkRcfmAM27WFAc?authuser=0&hl=en&rclk=1,"22.764657,73.6203878"
masjide memon,Mosque,"masjide memon, A-2, Patel Wad, Shera, Godhra, Gujarat 389001","Patel Wad, Shera",A-2,Godhra,389001,Gujarat,IN,https://www.google.com/maps/place/masjide+memon/data=!4m7!3m6!1s0x39609b880664ce95:0x489f23f3c585e518!8m2!3d22.7772403!4d73.6101671!16s%2Fg%2F11tc3wcx2t!19sChIJlc5kBoibYDkRGOWFxfMjn0g?authuser=0&hl=en&rclk=1,"22.7772403,73.6101671"
Masjid e khalilahmad,Mosque,"QJF8+GVG Masjid e khalilahmad, Gandhi Nagar, Nadi kinare, Godhra, Gujarat 389001","Gandhi Nagar, Nadi kinare",QJF8+GVG,Godhra,389001,Gujarat,IN,https://www.google.com/maps/place/Masjid+e+khalilahmad/data=!4m7!3m6!1s0x39609bf3f628e771:0x640a9fc9bf1ef648!8m2!3d22.773839!4d73.6171748!16s%2Fg%2F11y1fs5fry!19sChIJceco9vObYDkRSPYev8mfCmQ?authuser=0&hl=en&rclk=1,"22.773839,73.6171748"
Burhani Masjid,Place of worship,"Burhani Masjid, 23, Lilesra Rd, Gondra, Shera, Lilesara, Godhra, Gujarat 389340","Gondra, Shera","23, Lilesra Rd","Lilesara, Godhra",389340,Gujarat,IN,https://www.google.com/maps/place/Burhani+Masjid/data=!4m7!3m6!1s0x39609a56c71afab5:0x5a301003bbad27fc!8m2!3d22.7654034!4d73.6140339!16s%2Fg%2F11j007_hc8!19sChIJtfoax1aaYDkR_CetuwMQMFo?authuser=0&hl=en&rclk=1,"22.7654034,73.6140339"
Chilla Mubarak Madarul Aalamin,Mosque,"QJG8+3R5 Chilla Mubarak Madarul Aalamin, Saiyedwada, Soniwada, Shera, Godhra, Gujarat 389001","Saiyedwada, Soniwada, Shera",QJG8+3R5,Godhra,389001,Gujarat,IN,https://www.google.com/maps/place/Chilla+Mubarak+Madarul+Aalamin/data=!4m7!3m6!1s0x39609bfffc03246d:0x9ba4aad27fb7bdc!8m2!3d22.7751419!4d73.6171069!16s%2Fg%2F11fjy7wz1q!19sChIJbSQD_P-bYDkR3Hv7J61Kugk?authuser=0&hl=en&rclk=1,"22.775141899999998,73.6171069"
Masjid-e-al hussain,Mosque,"PJXJ+8JP Masjid-e-al hussain, Dayal Lilesara, Godhra, Gujarat 389340",,"PJXJ+8JP, Dayal Lilesara","Godhra, Dayal",389340,Gujarat,IN,https://www.google.com/maps/place/Masjid-e-al+hussain/data=!4m7!3m6!1s0x39609bddc27e1889:0xf35fd22b8c668bbb!8m2!3d22.7483417!4d73.6315734!16s%2Fg%2F11hd_yxlzs!19sChIJiRh-wt2bYDkRu4tmjCvSX_M?authuser=0&hl=en&rclk=1,"22.748341699999997,73.6315734"
MASJID-E-HUDA,,"QJF3+F7C MASJID-E-HUDA, Mufti Aachhodi Road, near Railway Station, Tathoora, Godhra, Gujarat 389001",Tathoora,"QJF3+F7C, Mufti Aachhodi Road, near Railway Station",Godhra,389001,Gujarat,IN,https://www.google.com/maps/place/MASJID-E-HUDA/data=!4m7!3m6!1s0x39609b4415e57a4d:0xf64b046273b2ff6a!8m2!3d22.7684115!4d73.6014365!16s%2Fg%2F11y1f_4267!19sChIJTXrlFUSbYDkRav-yc2IES_Y?authuser=0&hl=en&rclk=1,"22.7684115,73.60143649999999"
Masjid-e-Huda,Mosque,"QJG5+JVQ Masjid-e-Huda, Railway Station Rd, Bhagol, Shera, Godhra, Gujarat 389001","Bhagol, Shera","QJG5+JVQ, Railway Station Rd",Godhra,389001,Gujarat,IN,https://www.google.com/maps/place/Masjid-e-Huda/data=!4m7!3m6!1s0x39609bab13461c47:0x87d5822bcc0ba959!8m2!3d22.7765931!4d73.6097288!16s%2Fg%2F11fkypp9wv!19sChIJRxxGE6ubYDkRWakLzCuC1Yc?authuser=0&hl=en&rclk=1,"22.7765931,73.6097288"
