name,main_category,address,address_ward,address_street,address_city,address_postal_code,address_state,address_country_code,link,coordinates
Jama Masjid,Mosque,"Jama Masjid, Old Delhi, Delhi, 110006","Jama Masjid, Old Delhi",,Delhi,110006,Delhi,IN,https://www.google.com/maps/place/Jama+Masjid/data=!4m7!3m6!1s0x390cfd18df89b215:0xdd57369e29bf9d96!8m2!3d28.6506792!4d77.2334421!16zL20vMDR5emo1!19sChIJFbKJ3xj9DDkRlp2_KZ42V90?authuser=0&hl=en&rclk=1,"28.6506792,77.23344209999999"
Faiz Elahi Masjid,Mosque,"J6RJ+VM8 Faiz Elahi Masjid, Asaf Ali Rd, near Turkman Gate, Ramlila Ground, Chandni Chowk, New Delhi, Delhi, 110002","Ramlila Ground, Chandni Chowk","J6RJ+VM8, Asaf Ali Rd, near Turkman Gate","New Delhi, Delhi",110002,Delhi,IN,https://www.google.com/maps/place/Faiz+Elahi+Masjid/data=!4m7!3m6!1s0x390cfd237e96c1a5:0x5eb469cedc8ee697!8m2!3d28.6421673!4d77.2317037!16s%2Fg%2F1tf2_sb0!19sChIJpcGWfiP9DDkRl-aO3M5ptF4?authuser=0&hl=en&rclk=1,"28.642167299999997,77.2317037"
Banglewali Masjid Nizamuddin Delhi,Mosque,"H6RV+Q92 Banglewali Masjid Nizamuddin Delhi, Nizamuddin, Nizamuddin West, New Delhi, Delhi 110013","Nizamuddin, Nizamuddin West",H6RV+Q92,New Delhi,110013,Delhi,IN,https://www.google.com/maps/place/Banglewali+Masjid+Nizamuddin+Delhi/data=!4m7!3m6!1s0x390ce3a6d502fcdd:0x815ff619eadff235!8m2!3d28.5918991!4d77.2433834!16s%2Fm%2F04ybd07!19sChIJ3fwC1abjDDkRNfLf6hn2X4E?authuser=0&hl=en&rclk=1,"28.5918991,77.2433834"
Hauz Wali Masjid (Meerut Markaz),Mosque,"XPJ2+FJP Hauz Wali Masjid (Meerut Markaz), Khair Nagar, Meerut, Uttar Pradesh 250002",Khair Nagar,XPJ2+FJP,Meerut,250002,Uttar Pradesh,IN,https://www.google.com/maps/place/Hauz+Wali+Masjid+%28Meerut+Markaz%29/data=!4m7!3m6!1s0x390c64f858819c69:0x254cc37a5cc291b2!8m2!3d28.9812006!4d77.7015711!16s%2Fg%2F124t4hpkr!19sChIJaZyBWPhkDDkRspHCXHrDTCU?authuser=0&hl=en&rclk=1,"28.981200599999998,77.7015711"
"Jama Masjid, Khadda Colony jm` msjd",Mosque,"Jama Masjid, Khadda Colony jm` msjd, D-202, near by Jama Masjid Gali, Jaitpur Extension Part II, Khadda Colony, Badarpur, New Delhi, Delhi 110044","Jaitpur Extension Part II, Khadda Colony, Badarpur","D-202, near by Jama Masjid Gali",New Delhi,110044,Delhi,IN,"https://www.google.com/maps/place/Jama+Masjid,+Khadda+Colony+%D8%AC%D8%A7%D9%85%D8%B9+%D9%85%D8%B3%D8%AC%D8%AF%E2%80%AD/data=!4m7!3m6!1s0x390ce65a1cc2d345:0x508d72d241ba7c2f!8m2!3d28.5094725!4d77.3384064!16s%2Fg%2F11b_23cdbd!19sChIJRdPCHFrmDDkRL3y6QdJyjVA?authuser=0&hl=en&rclk=1","28.509472499999998,77.3384064"
Tejikhera Jama Masjid,Mosque,"Tejikhera Jama Masjid, 283/165, Talkatora Rd, Haddi Kheda, Talkatora Rd, Haddi Kheda, Manak Nagar, Talkatora, Lucknow, Uttar Pradesh 226011","Haddi Kheda, Manak Nagar, Talkatora","283/165, Talkatora Rd, Haddi Kheda, Talkatora Rd",Lucknow,226011,Uttar Pradesh,IN,https://www.google.com/maps/place/Tejikhera+Jama+Masjid/data=!4m7!3m6!1s0x399bfe83aa1f3327:0x1f195798df0ca6bc!8m2!3d26.82411!4d80.89556!16s%2Fg%2F11g6vwv3tt!19sChIJJzMfqoP-mzkRvKYM35hXGR8?authuser=0&hl=en&rclk=1,"26.824109999999997,80.89556"
Masjid Khadijatul,Mosque,"XP85+6M8 Masjid Khadijatul, Pilokhri, Kamela Road, Vikas Puri, Meerut, Uttar Pradesh 250002",Vikas Puri,"XP85+6M8, Pilokhri, Kamela Road",Meerut,250002,Uttar Pradesh,IN,https://www.google.com/maps/place/Masjid+Khadijatul/data=!4m7!3m6!1s0x390c648d12683b01:0x7c977e03504c81c5!8m2!3d28.965541!4d77.7091889!16s%2Fg%2F1v5_7t5b!19sChIJATtoEo1kDDkRxYFMUAN-l3w?authuser=0&hl=en&rclk=1,"28.965540999999998,77.7091889"
Madina Islamia Masjid msjd mdynh slmyh,Mosque,"Madina Islamia Masjid msjd mdynh slmyh, Main Block, Khera Khurd Village, Delhi, 110082",Khera Khurd Village,Main Block,Delhi,110082,Delhi,IN,https://www.google.com/maps/place/Madina+Islamia+Masjid+%D9%85%D8%B3%D8%AC%D8%AF+%D9%85%D8%AF%DB%8C%D9%86%D9%87+%D8%A7%D8%B3%D9%84%D8%A7%D9%85%DB%8C%DB%81%E2%80%AD/data=!4m7!3m6!1s0x390d00c76f4b5061:0x7e29bd2bb9461d54!8m2!3d28.7735344!4d77.1179849!16s%2Fg%2F11cs2b2xk3!19sChIJYVBLb8cADTkRVB1GuSu9KX4?authuser=0&hl=en&rclk=1,"28.7735344,77.1179849"
Jama Masjid,Mosque,"79VH+VW5 Jama Masjid, Jogiya Khera, Uttar Pradesh 247775",,79VH+VW5,Jogiya Khera,247775,Uttar Pradesh,IN,https://www.google.com/maps/place/Jama+Masjid/data=!4m7!3m6!1s0x390c3a09c9f07bbb:0x1d19ca767f75b066!8m2!3d29.2946393!4d77.379872!16s%2Fg%2F11c5_prch6!19sChIJu3vwyQk6DDkRZrB1f3bKGR0?authuser=0&hl=en&rclk=1,"29.2946393,77.37987199999999"
Masjid Fakhira Kheda,Mosque,"Masjid Fakhira Kheda, 26deg25'22.8""N 74deg37'04.1""E",Chandra Vardai Nagar,"26deg25'22.8""N 74deg37'04.1""E",Ajmer,,Rajasthan,IN,https://www.google.com/maps/place/Masjid+Fakhira+Kheda/data=!4m7!3m6!1s0x396be0ca8c0affd7:0xdc82417247cb09e5!8m2!3d26.422999!4d74.617798!16s%2Fg%2F11clsgxb1k!19sChIJ1_8KjMrgazkR5QnLR3JBgtw?authuser=0&hl=en&rclk=1,"26.422998999999997,74.617798"
Islam Wali Masjid,Mosque,"86G5+4F8 Islam Wali Masjid, Tikri Khera, Alampur, Haryana 121004",,86G5+4F8,"Tikri Khera, Alampur",,Haryana,IN,https://www.google.com/maps/place/Islam+Wali+Masjid/data=!4m7!3m6!1s0x390cd8bd0b70810d:0xe09c97df51f51734!8m2!3d28.3252787!4d77.2087086!16s%2Fg%2F11gd38rkc8!19sChIJDYFwC73YDDkRNBf1Ud-XnOA?authuser=0&hl=en&rclk=1,"28.3252787,77.2087086"
Badi Jama Masjid Zakopur,Mosque,"Badi Jama Masjid Zakopur, Village, Zakopur, Tikri Khera, Haryana 121004",,Village,"Zakopur, Tikri Khera",121004,Haryana,IN,https://www.google.com/maps/place/Badi+Jama+Masjid+Zakopur/data=!4m7!3m6!1s0x390cd891a56cc19d:0x266d5ed9f9d605e5!8m2!3d28.3149639!4d77.2096919!16s%2Fg%2F11hbg8q2p3!19sChIJncFspZHYDDkR5QXW-dlebSY?authuser=0&hl=en&rclk=1,"28.3149639,77.2096919"
Noori Masjid Saawar Khera,Mosque,"Noori Masjid Saawar Khera, sawerkhera, Uttar Pradesh 243407",,"sawerkhera, Uttar Pradesh 243407",Kamua,,Uttar Pradesh,IN,https://www.google.com/maps/place/Noori+Masjid+Saawar+Khera/data=!4m7!3m6!1s0x39a01ab143b91c77:0x34c8c5da760059d3!8m2!3d28.4415903!4d79.5669167!16s%2Fg%2F11b7qst4fh!19sChIJdxy5Q7EaoDkR01kAdtrFyDQ?authuser=0&hl=en&rclk=1,"28.441590299999998,79.5669167"
Ranhera Khera masjid (Mosque),Mosque,"88M6+MJG Ranhera Khera masjid (Mosque), Ranhera Khera, Ranhera Khera Village, Sector 25, Faridabad, Haryana 121004","Ranhera Khera, Ranhera Khera Village, Sector 25",88M6+MJG,Faridabad,121004,Haryana,IN,https://www.google.com/maps/place/Ranhera+Khera+masjid+%28Mosque%29/data=!4m7!3m6!1s0x390cdb79f161205f:0x6e1dc4e06a486b0c!8m2!3d28.3341996!4d77.3115689!16s%2Fg%2F11fk95z0y3!19sChIJXyBh8XnbDDkRDGtIauDEHW4?authuser=0&hl=en&rclk=1,"28.334199599999998,77.3115689"
Madina Masjid Chhajoo Khera,Mosque,"Madina Masjid Chhajoo Khera, Daniyalpur Khera Road, Bharathpur, Jaipur, Chhajoo Khera, Rajasthan 321024",,"Daniyalpur Khera Road, Bharathpur, Jaipur","Chhajoo Khera, Maharaipur",321024,Rajasthan,IN,https://www.google.com/maps/place/Madina+Masjid+Chhajoo+Khera/data=!4m7!3m6!1s0x3972e662af472235:0x559435bb405ac5ba!8m2!3d27.6081944!4d77.05599!16s%2Fg%2F11c840__nc!19sChIJNSJHr2LmcjkRusVaQLs1lFU?authuser=0&hl=en&rclk=1,"27.6081944,77.05599"
Masjid,Mosque,"2633+G4J Masjid, Kukkar Chati, Haryana 121103",,2633+G4J,Kukkar Chati,121103,Haryana,IN,https://www.google.com/maps/place/Masjid/data=!4m7!3m6!1s0x39732b996cfc1043:0xd0b5fc59e74806f1!8m2!3d28.0038399!4d77.2027798!16s%2Fg%2F11f5tcmx0p!19sChIJQxD8bJkrczkR8QZI51n8tdA?authuser=0&hl=en&rclk=1,"28.0038399,77.2027798"
Aqsha Masjid,Mosque,"6X6Q+4W2 Aqsha Masjid, Raheri, Haryana 122103",,6X6Q+4W2,Raheri,122103,Haryana,IN,https://www.google.com/maps/place/Aqsha+Masjid/data=!4m7!3m6!1s0x390d303fc96dc523:0x7de38ec6173f5970!8m2!3d28.2102553!4d76.9897513!16s%2Fg%2F11gfdspw5h!19sChIJI8VtyT8wDTkRcFk_F8aO430?authuser=0&hl=en&rclk=1,"28.2102553,76.9897513"
Masjid Khera,Mosque,"CW65+MV7 Masjid Khera, Kalloli, Uttar Pradesh 203409",,CW65+MV7,Kalloli,,Uttar Pradesh,IN,https://www.google.com/maps/place/Masjid+Khera/data=!4m7!3m6!1s0x390ca71f8a6c3951:0x9ae38b324d86acab!8m2!3d28.4116724!4d77.9096575!16s%2Fg%2F11gjhlln6q!19sChIJUTlsih-nDDkRq6yGTTKL45o?authuser=0&hl=en&rclk=1,"28.411672399999997,77.9096575"
Kheda Salafi Masjid,Mosque,"33QX+JMP Kheda Salafi Masjid, Bainsi, Haryana 122107",,33QX+JMP,Bainsi,122107,Haryana,IN,https://www.google.com/maps/place/Kheda+Salafi+Masjid/data=!4m7!3m6!1s0x390d2d6d2b504c07:0xdbbab25cfdcd6c9e!8m2!3d28.0890796!4d77.0992023!16s%2Fg%2F11f730xkxf!19sChIJB0xQK20tDTkRnmzN_Vyyuts?authuser=0&hl=en&rclk=1,"28.089079599999998,77.0992023"
Zadeed masjid,Mosque,"97QH+CJ6 Zadeed masjid, Khandrawali, Uttar Pradesh 247775",,97QH+CJ6,Khandrawali,247775,Uttar Pradesh,IN,https://www.google.com/maps/place/Zadeed+masjid/data=!4m7!3m6!1s0x390c2ddc387f8e03:0xeccc25f83549b196!8m2!3d29.3885323!4d77.2790032!16s%2Fg%2F11c6__g65_!19sChIJA45_ONwtDDkRlrFJNfglzOw?authuser=0&hl=en&rclk=1,"29.388532299999998,77.27900319999999"
Masjid Kholabas,Mosque,"PR63+9H7 Masjid Kholabas, Neekach, Ramgarh, Boojaka, Rajasthan 301025",Neekach,PR63+9H7,"Ramgarh, Boojaka",,Rajasthan,IN,https://www.google.com/maps/place/Masjid+Kholabas/data=!4m7!3m6!1s0x3972bfb16862e399:0x55ed6791c3d7605c!8m2!3d27.7109044!4d76.8039343!16s%2Fg%2F11ghnb_82k!19sChIJmeNiaLG_cjkRXGDXw5Fn7VU?authuser=0&hl=en&rclk=1,"27.7109044,76.8039343"
Masjid~E~Usmania Gosiya Khera,Mosque,"XFJ3+C35 Masjid~E~Usmania Gosiya Khera, Mithanpurkala, Uttar Pradesh 244251",,XFJ3+C35,Mithanpurkala,244251,Uttar Pradesh,IN,https://www.google.com/maps/place/Masjid~E~Usmania+Gosiya+Khera/data=!4m7!3m6!1s0x390ba72a9c5dc2fd:0x7679adb4b56feca9!8m2!3d28.9810237!4d78.4527298!16s%2Fg%2F11fjw0yfjf!19sChIJ_cJdnCqnCzkRqexvtbSteXY?authuser=0&hl=en&rclk=1,"28.981023699999998,78.4527298"
Jheetredi masjid,Mosque,"C2XH+7Q3 Jheetredi masjid, Jheetredi, Semla Khurd, Rajasthan 321205",,C2XH+7Q3,"Jheetredi, Semla Khurd",321205,Rajasthan,IN,https://www.google.com/maps/place/Jheetredi+masjid/data=!4m7!3m6!1s0x3972fba9358c85bd:0x28fbfccf66b9580b!8m2!3d27.4481294!4d77.0294264!16s%2Fg%2F11lsw7cgcc!19sChIJvYWMNan7cjkRC1i5Zs_8-yg?authuser=0&hl=en&rclk=1,"27.4481294,77.02942639999999"
Masjid,Mosque,"R4MF+735 Masjid, Unnamed Road, Tikri Khurd Village, Tikri Khurd, Delhi, 110040","Tikri Khurd Village, Tikri Khurd","R4MF+735, Unnamed Road",Delhi,110040,Delhi,IN,https://www.google.com/maps/place/Masjid/data=!4m7!3m6!1s0x390daa379e6932df:0xc32d1bd89555ed4a!8m2!3d28.8331259!4d77.122749!16s%2Fg%2F11c32f__g1!19sChIJ3zJpnjeqDTkRSu1VldgbLcM?authuser=0&hl=en&rclk=1,"28.8331259,77.122749"
Mosque,Mosque,"89VJ+48X Mosque, Khera Mastan, Uttar Pradesh 247776",,89VJ+48X,Khera Mastan,247776,Uttar Pradesh,IN,https://www.google.com/maps/place/Mosque/data=!4m7!3m6!1s0x390c3bc918bcffcf:0xf90ff643336f6a08!8m2!3d29.3428651!4d77.3808745!16s%2Fg%2F11ghp0q0xw!19sChIJz_-8GMk7DDkRCGpvM0P2D_k?authuser=0&hl=en&rclk=1,"29.342865099999997,77.38087449999999"
Masjid ahemad wali,Mosque,"RVMF+X7P Masjid ahemad wali, Jairoli, Rajasthan 301405",,RVMF+X7P,Jairoli,,Rajasthan,IN,https://www.google.com/maps/place/Masjid+ahemad+wali/data=!4m7!3m6!1s0x3972c749695f6801:0xabff14546217effc!8m2!3d27.8349607!4d76.8732128!16s%2Fg%2F11mbq4r8lx!19sChIJAWhfaUnHcjkR_O8XYlQU_6s?authuser=0&hl=en&rclk=1,"27.8349607,76.87321279999999"
Masjid munda khera khadar,Mosque,"W5QJ+5XV Masjid munda khera khadar, MONDHA KHADER, Uttar Pradesh 244225",,W5QJ+5XV,MONDHA KHADER,244225,Uttar Pradesh,IN,https://www.google.com/maps/place/Masjid+munda+khera+khadar/data=!4m7!3m6!1s0x390b9d5041262db1:0x72b80a2f72bcc595!8m2!3d28.9379781!4d78.1824238!16s%2Fg%2F11r7hgltqp!19sChIJsS0mQVCdCzkRlcW8ci8KuHI?authuser=0&hl=en&rclk=1,"28.9379781,78.1824238"
Mosque msjd,Mosque,"J76X+W9R Mosque msjd, New, Kotla Village, Mayur Vihar, New Delhi, Delhi 110091","Kotla Village, Mayur Vihar","J76X+W9R, New","New Delhi, Delhi",110091,Delhi,IN,https://www.google.com/maps/place/Mosque+%D9%85%D8%B3%D8%AC%D8%AF%E2%80%AD/data=!4m7!3m6!1s0x390ce4bcc9c6272b:0x172c875eb9dd78e2!8m2!3d28.612373!4d77.2984052!16s%2Fg%2F11c3182y_w!19sChIJKyfGybzkDDkR4njduV6HLBc?authuser=0&hl=en&rclk=1,"28.612372999999998,77.29840519999999"
MADINA MASJID,Mosque,"2W2M+9XG MADINA MASJID, MOHALLA KHEDA BADA CHOWK, Karhal",,"2W2M+9XG, MOHALLA KHEDA BADA CHOWK",Karhal,,Uttar Pradesh,IN,https://www.google.com/maps/place/MADINA+MASJID/data=!4m7!3m6!1s0x3975c39833d98351:0x5e70ede8a704fd57!8m2!3d27.0009326!4d78.9349467!16s%2Fg%2F11r3tx0bnq!19sChIJUYPZM5jDdTkRV_0Ep-jtcF4?authuser=0&hl=en&rclk=1,"27.0009326,78.9349467"
Masjid ae Mohammadi,Mosque,"JFGH+4P5 Masjid ae Mohammadi, Sahar, Uttar Pradesh 281502",,JFGH+4P5,Sahar,281502,Uttar Pradesh,IN,https://www.google.com/maps/place/Masjid+ae+Mohammadi/data=!4m7!3m6!1s0x3973139f1e217ecf:0x22b5778efcdfc005!8m2!3d27.6252718!4d77.4793525!16s%2Fg%2F11f5v4vhmp!19sChIJz34hHp8TczkRBcDf_I53tSI?authuser=0&hl=en&rclk=1,"27.6252718,77.47935249999999"
Nomani Masjid,Mosque,"HHR4+FH9 Nomani Masjid, muhalla kareem nagar, Deepa Sarai, Sambhal, Uttar Pradesh 244302",Deepa Sarai,"HHR4+FH9, muhalla kareem nagar","Sambhal, Turtipur Elha",244302,Uttar Pradesh,IN,https://www.google.com/maps/place/Nomani+Masjid/data=!4m7!3m6!1s0x390b18cf121c263f:0x47bdeb47d4fd6742!8m2!3d28.5911549!4d78.5564887!16s%2Fg%2F11gcmkg9fp!19sChIJPyYcEs8YCzkRQmf91EfrvUc?authuser=0&hl=en&rclk=1,"28.5911549,78.5564887"
Masjid,Mosque,"RX74+6HJ Masjid, near NH 248A, Dhanwala, Haryana 122104",,"RX74+6HJ, near NH 248A",Dhanwala,122104,Haryana,IN,https://www.google.com/maps/place/Masjid/data=!4m7!3m6!1s0x3972c453b844f149:0x24ec54e8ddf55acd!8m2!3d27.8130983!4d76.9563768!16s%2Fg%2F11ggbl6j5z!19sChIJSfFEuFPEcjkRzVr13ehU7CQ?authuser=0&hl=en&rclk=1,"27.8130983,76.9563768"
Ishaq Masjid,Mosque,"Ishaq Masjid, Ishaq Masjid Wali Gali, Block C, Sarai Kale Khan, New Delhi, Delhi 110013","Block C, Sarai Kale Khan",Ishaq Masjid Wali Gali,New Delhi,110013,Delhi,IN,https://www.google.com/maps/place/Ishaq+Masjid/data=!4m7!3m6!1s0x390ce376f8a80f59:0x43d242dbd3376818!8m2!3d28.5849571!4d77.2565889!16s%2Fg%2F11q2tx_6x1!19sChIJWQ-o-HbjDDkRGGg309tC0kM?authuser=0&hl=en&rclk=1,"28.5849571,77.2565889"
Masjid Khera Wali,Mosque,"H4MH+PF6 Masjid Khera Wali, Kaithwara, Rajasthan 321024",,H4MH+PF6,Kaithwara,321024,Rajasthan,IN,https://www.google.com/maps/place/Masjid+Khera+Wali/data=!4m7!3m6!1s0x3972e3c174f4017d:0xd999649349b0685a!8m2!3d27.5842761!4d77.1286301!16s%2Fg%2F11ggr5g1vh!19sChIJfQH0dMHjcjkRWmiwSZNkmdk?authuser=0&hl=en&rclk=1,"27.5842761,77.1286301"
Jama Masjid Karhera,Mosque,"WXR8+H57 Jama Masjid Karhera, Karhera Ferozepur, Haryana 122108",,WXR8+H57,Karhera Ferozepur,122108,Haryana,IN,https://www.google.com/maps/place/Jama+Masjid+Karhera/data=!4m7!3m6!1s0x3972cf5193bddfe5:0x365afba45654439b!8m2!3d27.9414088!4d76.9654297!16s%2Fg%2F11h457n91v!19sChIJ5d-9k1HPcjkRm0NUVqT7WjY?authuser=0&hl=en&rclk=1,"27.941408799999998,76.9654297"
Masjid kameda,Mosque,"QXFG+M35 Masjid kameda, Kameda, Haryana 122104",,QXFG+M35,Kameda,,Haryana,IN,https://www.google.com/maps/place/Masjid+kameda/data=!4m7!3m6!1s0x3972c5669a9264af:0x1414760785900807!8m2!3d27.7741373!4d76.9752403!16s%2Fg%2F11f9y830_v!19sChIJr2SSmmbFcjkRBwiQhQd2FBQ?authuser=0&hl=en&rclk=1,"27.7741373,76.9752403"
Masjide Khadijah Chadanki,Mosque,"Q2X6+JC4 Masjide Khadijah Chadanki, Rawa, Haryana 122104",,Q2X6+JC4,Rawa,122104,Haryana,IN,https://www.google.com/maps/place/Masjide+Khadijah+Chadanki/data=!4m7!3m6!1s0x3972db59b3516b73:0x881b39cb928ed2fc!8m2!3d27.7990086!4d77.0110675!16s%2Fg%2F11h04lgqgm!19sChIJc2tRs1nbcjkR_NKOkss5G4g?authuser=0&hl=en&rclk=1,"27.7990086,77.0110675"
kaarolii khaalsaa msjid,Mosque,"JVJ8+M4J kaarolii khaalsaa msjid, Jakopur, Rajasthan 301026",,JVJ8+M4J,Jakopur,301026,Rajasthan,IN,https://www.google.com/maps/place/%E0%A4%95%E0%A4%BE%E0%A4%B0%E0%A5%8B%E0%A4%B2%E0%A5%80+%E0%A4%96%E0%A4%BE%E0%A4%B2%E0%A4%B8%E0%A4%BE+%E0%A4%AE%E0%A4%B8%E0%A5%8D%E0%A4%9C%E0%A4%BF%E0%A4%A6/data=!4m7!3m6!1s0x3972ebe5e3b60f8f:0x9af25f94e34d29cb!8m2!3d27.6317075!4d76.8652571!16s%2Fg%2F11fq887xdm!19sChIJjw-24-XrcjkRyylN45Rf8po?authuser=0&hl=en&rclk=1,"27.631707499999997,76.8652571"
Ijaba Masjid,Mosque,"Ijaba Masjid, 1489/16, Block D, Chand Vihar, New Mustafabad, Delhi, 110094","Block D, Chand Vihar, New Mustafabad",1489/16,Delhi,110094,Delhi,IN,https://www.google.com/maps/place/Ijaba+Masjid/data=!4m7!3m6!1s0x390cfd4112cff819:0x124578cf76e8540b!8m2!3d28.7086594!4d77.2713446!16s%2Fg%2F11j08711wr!19sChIJGfjPEkH9DDkRC1Tods94RRI?authuser=0&hl=en&rclk=1,"28.7086594,77.27134459999999"
Mr.SAHEEM MALIK,Mosque,"Mr.SAHEEM MALIK, Gali no. 3 - Tirpal Factory Mustafabad, near Ayisha masjid, 25 Futa Rd, near by Aisha Masjid, chowk, Delhi 110094","Shakti Vihar, Old Mustafabad, chowk","Gali no. 3 - Tirpal Factory Mustafabad, near Ayisha masjid, 25 Futa Rd, near by Aisha Masjid",Delhi,110094,Delhi,IN,https://www.google.com/maps/place/Mr.SAHEEM+MALIK/data=!4m7!3m6!1s0x390cfd9a44cd4997:0xffdc8860c53e3f2b!8m2!3d28.7159667!4d77.272238!16s%2Fg%2F11h3cwgc8y!19sChIJl0nNRJr9DDkRKz8-xWCI3P8?authuser=0&hl=en&rclk=1,"28.7159667,77.272238"
"MASJID MUDIKHERA, AFSER JAMA MASJID MUDIKHERA",Mosque,"PRR3+392 MASJID MUDIKHERA, AFSER JAMA MASJID MUDIKHERA, Mudi Kheda, Uttar Pradesh 261135",,PRR3+392,Mudi Kheda,261135,Uttar Pradesh,IN,"https://www.google.com/maps/place/MASJID+MUDIKHERA,+AFSER+JAMA+MASJID+MUDIKHERA/data=!4m7!3m6!1s0x399f2cc9410473b3:0x3f1cd68f79e2f163!8m2!3d27.7401358!4d80.803394!16s%2Fg%2F11f116hp06!19sChIJs3MEQcksnzkRY_HieY_WHD8?authuser=0&hl=en&rclk=1","27.740135799999997,80.803394"
Khera Mosque,Mosque,"C576+G8R Khera Mosque, Uttar Pradesh 247774",,C576+G8R,,,Uttar Pradesh,IN,https://www.google.com/maps/place/Khera+Mosque/data=!4m7!3m6!1s0x390dd3640af65c37:0x7421c30000b65312!8m2!3d29.413874!4d77.160763!16s%2Fg%2F11ghpvg6qx!19sChIJN1z2CmTTDTkRElO2AADDIXQ?authuser=0&hl=en&rclk=1,"29.413874,77.160763"
Mundiya Khera Masjid,Mosque,"JPW2+P92 Mundiya Khera Masjid, Shaudan home road, Mundiya Khera, Rajasthan 301028",,"JPW2+P92, Shaudan home road",Mundiya Khera,301028,Rajasthan,IN,https://www.google.com/maps/place/Mundiya+Khera+Masjid/data=!4m7!3m6!1s0x397297d7ed7ce409:0x7d549dfcefc8e9ee!8m2!3d27.6467734!4d76.7008985!16s%2Fg%2F11j64qxhr8!19sChIJCeR87deXcjkR7unI7_ydVH0?authuser=0&hl=en&rclk=1,"27.646773399999997,76.7008985"
Jama masjid (jmaa msjid) (AABDA NAGAR),Mosque,"7V89+MGQ Jama masjid (jmaa msjid) (AABDA NAGAR), Munda Khera Rd, Khurja, Bauroli, Uttar Pradesh 203131",,"7V89+MGQ, Munda Khera Rd","Khurja, Bauroli",203131,Uttar Pradesh,IN,https://www.google.com/maps/place/Jama+masjid+%28%E0%A4%9C%E0%A4%AE%E0%A4%BE+%E0%A4%AE%E0%A4%B8%E0%A5%8D%E0%A4%9C%E0%A4%BF%E0%A4%A6%29+%28AABDA+NAGAR%29/data=!4m7!3m6!1s0x390ca900bc368985:0x6b0c7900715fabde!8m2!3d28.266719!4d77.8688689!16s%2Fg%2F11jsmcy4v0!19sChIJhYk2vACpDDkR3qtfcQB5DGs?authuser=0&hl=en&rclk=1,"28.266719,77.8688689"
Masjid,Mosque,"Q6MJ+5H5 Masjid, Badarpur, Madanpur Khadar, New Delhi, 110084",Madanpur Khadar,"Q6MJ+5H5, Badarpur","New Delhi, Delhi",110084,Delhi,IN,https://www.google.com/maps/place/Masjid/data=!4m7!3m6!1s0x390cffb780460377:0x9fe224e9c653e965!8m2!3d28.7828891!4d77.2314704!16s%2Fg%2F11qn790lvq!19sChIJdwNGgLf_DDkRZelTxukk4p8?authuser=0&hl=en&rclk=1,"28.7828891,77.23147039999999"
Masjid-e-Hajjan,Mosque,"Masjid-e-Hajjan, Hasanpur Luhari, Ismailpur, Uttar Pradesh 247772",,,"Hasanpur Luhari, Ismailpur",,Uttar Pradesh,IN,https://www.google.com/maps/place/Masjid-e-Hajjan/data=!4m7!3m6!1s0x390e9e7a974cc317:0xf44c9ced687bac74!8m2!3d29.5985108!4d77.4798626!16s%2Fg%2F1trc3bkv!19sChIJF8NMl3qeDjkRdKx7aO2cTPQ?authuser=0&hl=en&rclk=1,"29.5985108,77.47986259999999"
tthttheryaan msjid,Mosque,"9H22+C4Q tthttheryaan msjid, Unnamed Road, Kasarwa, Shahpur, Uttar Pradesh 251318",Kasarwa,"9H22+C4Q, Unnamed Road",Shahpur,251318,Uttar Pradesh,IN,https://www.google.com/maps/place/%E0%A4%A0%E0%A4%A0%E0%A5%87%E0%A4%B0%E0%A4%AF%E0%A4%BE%E0%A4%A8+%E0%A4%AE%E0%A4%B8%E0%A5%8D%E0%A4%9C%E0%A4%BF%E0%A4%A6/data=!4m7!3m6!1s0x390c3d7a844922c3:0x286415f01929263d!8m2!3d29.3510847!4d77.5503482!16s%2Fg%2F11g02b69wq!19sChIJwyJJhHo9DDkRPSYpGfAVZCg?authuser=0&hl=en&rclk=1,"29.351084699999998,77.5503482"
Qureshian Masjid,Mosque,"V9XJ+FFH Qureshian Masjid, Sirsala, Uttar Pradesh 247340",,V9XJ+FFH,Sirsala,247340,Uttar Pradesh,IN,https://www.google.com/maps/place/Qureshian+Masjid/data=!4m7!3m6!1s0x390e92a100000001:0x6727fd54e307b53a!8m2!3d29.8986788!4d77.3812494!16s%2Fg%2F11cmsj9skz!19sChIJAQAAAKGSDjkROrUH41T9J2c?authuser=0&hl=en&rclk=1,"29.8986788,77.3812494"
"Masjid Amruka Road, Ghaghwari",Mosque,"J47M+FRV Masjid Amruka Road, Ghaghwari, Ghaghwari, Kaithwara, Rajasthan 321024",,J47M+FRV,"Ghaghwari, Kaithwara",,Rajasthan,IN,"https://www.google.com/maps/place/Masjid+Amruka+Road,+Ghaghwari/data=!4m7!3m6!1s0x3972e165fd760b53:0xc3089fec7d4d95bd!8m2!3d27.6137325!4d77.1345514!16s%2Fg%2F11h5tv4dp2!19sChIJUwt2_WXhcjkRvZVNfeyfCMM?authuser=0&hl=en&rclk=1","27.613732499999998,77.13455139999999"
Burjon Wali Masjid,Mosque,"HHR6+GCJ Burjon Wali Masjid, Burjon wali masjid, Padhano wali gali, Deepa Sarai, Sambhal, Uttar Pradesh 244302",Deepa Sarai,"HHR6+GCJ, Burjon wali masjid, Padhano wali gali",Sambhal,244302,Uttar Pradesh,IN,https://www.google.com/maps/place/Burjon+Wali+Masjid/data=!4m7!3m6!1s0x390b18cc0e504543:0xde57be3ca79ca518!8m2!3d28.5913353!4d78.5610152!16s%2Fg%2F11gfjtgh91!19sChIJQ0VQDswYCzkRGKWcpzy-V94?authuser=0&hl=en&rclk=1,"28.591335299999997,78.5610152"
Badi Masjid Sunari,Mosque,"6WC4+934 Badi Masjid Sunari, Sunari, Haryana 122015",,6WC4+934,Sunari,122015,Haryana,IN,https://www.google.com/maps/place/Badi+Masjid+Sunari/data=!4m7!3m6!1s0x390d37b1a8c9e905:0x4fdbbc16a30d02a5!8m2!3d28.2208998!4d76.9052088!16s%2Fg%2F11m0sxn2c9!19sChIJBenJqLE3DTkRpQINoxa8208?authuser=0&hl=en&rclk=1,"28.220899799999998,76.9052088"
Umar Masjid,Mosque,"MC66+XHX Umar Masjid, Kaila Khera, Kailash Nagar, Madhopura, Ghaziabad, Uttar Pradesh 201009","Kaila Khera, Kailash Nagar, Madhopura",MC66+XHX,Ghaziabad,201009,Uttar Pradesh,IN,https://www.google.com/maps/place/Umar+Masjid/data=!4m7!3m6!1s0x390cf184ccff4639:0x7a2ae52be73cf891!8m2!3d28.6624755!4d77.4114852!16s%2Fg%2F11jv23r55p!19sChIJOUb_zITxDDkRkfg85yvlKno?authuser=0&hl=en&rclk=1,"28.6624755,77.4114852"
Ameer Hamzah Mosque,Mosque,"86FM+972 Ameer Hamzah Mosque, Uttar Pradesh 247775",,86FM+972,,,Uttar Pradesh,IN,https://www.google.com/maps/place/Ameer+Hamzah+Mosque/data=!4m7!3m6!1s0x390c32f0996a4a55:0x396860d36159f6f7!8m2!3d29.3233769!4d77.2331309!16s%2Fg%2F11hbbt9l4w!19sChIJVUpqmfAyDDkR9_ZZYdNgaDk?authuser=0&hl=en&rclk=1,"29.3233769,77.23313089999999"
Muqaddis Masjid,Mosque,"Muqaddis Masjid, Kashmiri Gate, Firozabad, Uttar Pradesh 283203",Kashmiri Gate,,Firozabad,,Uttar Pradesh,IN,https://www.google.com/maps/place/Muqaddis+Masjid/data=!4m7!3m6!1s0x39744698eaf3b47d:0x48f07a946e7ade8!8m2!3d27.1526199!4d78.4094882!16s%2Fg%2F1v46yrwl!19sChIJfbTz6phGdDkR6K3nRqkHjwQ?authuser=0&hl=en&rclk=1,"27.152619899999998,78.4094882"
Jama masjid kala kheda,Mosque,"P87F+44 Jama masjid kala kheda, Kala Khera, Uttar Pradesh 244242",,P87F+44,Kala Khera,,Uttar Pradesh,IN,https://www.google.com/maps/place/Jama+masjid+kala+kheda/data=!4m7!3m6!1s0x390b13d63dba376d:0x16738cb43193f426!8m2!3d28.7128761!4d78.3227464!16s%2Fg%2F11rk4rp6z6!19sChIJbTe6PdYTCzkRJvSTMbSMcxY?authuser=0&hl=en&rclk=1,"28.7128761,78.3227464"
Masjid E Al Barkat,Mosque,"H3V5+69Q Masjid E Al Barkat, Ciyal Kheda, NayaGanj, Hathras, Uttar Pradesh 204101","Ciyal Kheda, NayaGanj",H3V5+69Q,Hathras,,Uttar Pradesh,IN,https://www.google.com/maps/place/Masjid+E+Al+Barkat/data=!4m7!3m6!1s0x397484d3420d8c03:0xd70a8dcd57017778!8m2!3d27.5930782!4d78.0584865!16s%2Fg%2F11f3s12xz1!19sChIJA4wNQtOEdDkReHcBV82NCtc?authuser=0&hl=en&rclk=1,"27.593078199999997,78.0584865"
Naugaiyya Masjid,Mosque,"VQMC+V6M Naugaiyya Masjid, Peepli Khera, Uttar Pradesh 250002",,VQMC+V6M,Peepli Khera,,Uttar Pradesh,IN,https://www.google.com/maps/place/Naugaiyya+Masjid/data=!4m7!3m6!1s0x390c7d0cae9ce901:0xc28e63026d00aba0!8m2!3d28.884705!4d77.7705317!16s%2Fg%2F11hdjcfrnm!19sChIJAemcrgx9DDkRoKsAbQJjjsI?authuser=0&hl=en&rclk=1,"28.884705,77.77053169999999"
Noori Masjid kherka,Mosque,"3GF5+4R9 Noori Masjid kherka, Unnamed Road, Balla Nangla, Uttar Pradesh 246727",,"3GF5+4R9, Unnamed Road",Balla Nangla,246727,Uttar Pradesh,IN,https://www.google.com/maps/place/Noori+Masjid+kherka/data=!4m7!3m6!1s0x390bafaa160b32c7:0xcb735894c9cd2f86!8m2!3d29.0727861!4d78.5096153!16s%2Fg%2F11r_wqj_3s!19sChIJxzILFqqvCzkRhi_NyZRYc8s?authuser=0&hl=en&rclk=1,"29.0727861,78.5096153"
Makaz Wali Masjid,Mosque,"Makaz Wali Masjid, Hasanpur Luhari, Ismailpur, Uttar Pradesh 247772",,,"Hasanpur Luhari, Ismailpur",,Uttar Pradesh,IN,https://www.google.com/maps/place/Makaz+Wali+Masjid/data=!4m7!3m6!1s0x390e9e7042281399:0x7eb817fa37a8d52d!8m2!3d29.5961735!4d77.4798721!16s%2Fg%2F1tdsh4tl!19sChIJmRMoQnCeDjkRLdWoN_oXuH4?authuser=0&hl=en&rclk=1,"29.5961735,77.4798721"
Miyaji Musa Masjid,Mosque,"43PG+FJW Miyaji Musa Masjid, Ghasera, Haryana 122103",,43PG+FJW,Ghasera,122103,Haryana,IN,https://www.google.com/maps/place/Miyaji+Musa+Masjid/data=!4m7!3m6!1s0x390d2c3c55555555:0x3c7dabd68f84b25b!8m2!3d28.1362471!4d77.0765927!16s%2Fg%2F11gf3nx5tr!19sChIJVVVVVTwsDTkRW7KEj9arfTw?authuser=0&hl=en&rclk=1,"28.1362471,77.07659269999999"
jhojhyaan msjid sraaaivaalii,Mosque,"9VQ8+84P jhojhyaan msjid sraaaivaalii, kheddaa, Kamhera, Uttar Pradesh 251314",,"9VQ8+84P, kheddaa",Kamhera,251314,Uttar Pradesh,IN,https://www.google.com/maps/place/%E0%A4%9D%E0%A5%8B%E0%A4%9D%E0%A4%AF%E0%A4%BE%E0%A4%A8+%E0%A4%AE%E0%A4%B8%E0%A5%8D%E0%A4%9C%E0%A4%BF%E0%A4%A6+%E0%A4%B8%E0%A4%B0%E0%A4%BE%E0%A4%90%E0%A4%B5%E0%A4%BE%E0%A4%B2%E0%A5%80/data=!4m7!3m6!1s0x390c09a2f5c8931b:0x33bb60fc457a7e7d!8m2!3d29.3883284!4d77.8653126!16s%2Fg%2F11nxfr1_c_!19sChIJG5PI9aIJDDkRfX56RfxguzM?authuser=0&hl=en&rclk=1,"29.3883284,77.8653126"
Hajjan Sharifan Masjid,Mosque,"Hajjan Sharifan Masjid, dilli gate, Makanpur Syad Kasba, Amroha, Uttar Pradesh 244221",Makanpur Syad Kasba,dilli gate,Amroha,,Uttar Pradesh,IN,https://www.google.com/maps/place/Hajjan+Sharifan+Masjid/data=!4m7!3m6!1s0x390b094794407841:0x3c80461a1d119b96!8m2!3d28.895319!4d78.4659464!16s%2Fg%2F11hz7zpxt9!19sChIJQXhAlEcJCzkRlpsRHRpGgDw?authuser=0&hl=en&rclk=1,"28.895318999999997,78.46594639999999"
Masjid Pawaar Kheda,Mosque,"GCWC+RC8 Masjid Pawaar Kheda, Unnamed Road, Maisani Ismailpur, Uttar Pradesh 247777",,"GCWC+RC8, Unnamed Road",Maisani Ismailpur,247777,Uttar Pradesh,IN,https://www.google.com/maps/place/Masjid+Pawaar+Kheda/data=!4m7!3m6!1s0x390c2751f29d4c85:0x23f3d1565e456928!8m2!3d29.5470353!4d77.421079!16s%2Fg%2F11fj4721lt!19sChIJhUyd8lEnDDkRKGlFXlbR8yM?authuser=0&hl=en&rclk=1,"29.547035299999997,77.42107899999999"
Peepal Kheda Masjid,Mosque,"FWR6+JJ5 Peepal Kheda Masjid, Gahankar, Rajasthan 321205",,FWR6+JJ5,Gahankar,,Rajasthan,IN,https://www.google.com/maps/place/Peepal+Kheda+Masjid/data=!4m7!3m6!1s0x3972ede4de182dff:0x24f6b63d0f4bca41!8m2!3d27.4915105!4d76.9116019!16s%2Fg%2F11rfbkh53z!19sChIJ_y0Y3uTtcjkRQcpLDz229iQ?authuser=0&hl=en&rclk=1,"27.4915105,76.9116019"
Jama masjid,Mosque,"7VHQ+63J Jama masjid, Unnamed Road, Munda Khera, Uttar Pradesh 203131",,"7VHQ+63J, Unnamed Road",Munda Khera,203131,Uttar Pradesh,IN,https://www.google.com/maps/place/Jama+masjid/data=!4m7!3m6!1s0x390ca9619d87e15d:0x35083be6ac381b4e!8m2!3d28.278091!4d77.8876512!16s%2Fg%2F11ftybrjzm!19sChIJXeGHnWGpDDkRThs4rOY7CDU?authuser=0&hl=en&rclk=1,"28.278091,77.8876512"
Badi masjid,Mosque,"WP4G+F8G Badi masjid, Narahara, Uttar Pradesh 250002",,WP4G+F8G,Narahara,,Uttar Pradesh,IN,https://www.google.com/maps/place/Badi+masjid/data=!4m7!3m6!1s0x390c635342ac3b15:0xbd764a4fc3864c6c!8m2!3d28.9061875!4d77.7258281!16s%2Fg%2F11sybd9fjy!19sChIJFTusQlNjDDkRbEyGw09Kdr0?authuser=0&hl=en&rclk=1,"28.906187499999998,77.7258281"
Masjid Gadhi Wali,Mosque,"V9WF+FH9 Masjid Gadhi Wali, Khera Afghan, Uttar Pradesh 247340",,V9WF+FH9,Khera Afghan,247340,Uttar Pradesh,IN,https://www.google.com/maps/place/Masjid+Gadhi+Wali/data=!4m7!3m6!1s0x390e8d5e1673ac47:0xb7fbad6ecd29710!8m2!3d29.8961643!4d77.3739704!16s%2Fg%2F11gf5s0yq3!19sChIJR6xzFl6NDjkREJfS7Na6fws?authuser=0&hl=en&rclk=1,"29.8961643,77.37397039999999"
Masjid khadija ahle hadees,Mosque,"MFJ6+QVQ Masjid khadija ahle hadees, Mallar Khera, Rajasthan 335065",,MFJ6+QVQ,Mallar Khera,335065,Rajasthan,IN,https://www.google.com/maps/place/Masjid+khadija+ahle+hadees/data=!4m7!3m6!1s0x3916edd8b7a6f6db:0xd5642df9ae47865b!8m2!3d29.6822707!4d74.4630833!16s%2Fg%2F11rptk5wd6!19sChIJ2_amt9jtFjkRW4ZHrvktZNU?authuser=0&hl=en&rclk=1,"29.6822707,74.4630833"
Qureshian Masjid,Mosque,"Q73Q+2H4 Qureshian Masjid, Gali Number 1, Loni Dehat, Uttar Pradesh 201102",Loni Dehat,"Q73Q+2H4, Gali Number 1",,201102,Uttar Pradesh,IN,https://www.google.com/maps/place/Qureshian+Masjid/data=!4m7!3m6!1s0x390cf9d82e5f0c3b:0x539af06219ba6aeb!8m2!3d28.7525076!4d77.2889607!16s%2Fg%2F11rfp3hn45!19sChIJOwxfLtj5DDkR62q6GWLwmlM?authuser=0&hl=en&rclk=1,"28.752507599999998,77.28896069999999"
Masjid (msjid) Jhantli,Mosque,"J329+XF6 Masjid (msjid) Jhantli, Chhajoo Khera, Rajasthan 321024",,J329+XF6,Chhajoo Khera,321024,Rajasthan,IN,https://www.google.com/maps/place/Masjid+%28%E0%A4%AE%E0%A4%B8%E0%A5%8D%E0%A4%9C%E0%A4%BF%E0%A4%A6%29+Jhantli/data=!4m7!3m6!1s0x3972e7b5b4493125:0xd004474e189d964b!8m2!3d27.6024044!4d77.0686285!16s%2Fg%2F11k5hxstl3!19sChIJJTFJtLXncjkRS5adGE5HBNA?authuser=0&hl=en&rclk=1,"27.602404399999998,77.0686285"
Masjid,Mosque,"2F8H+86X Masjid, Nagla Surjan, Haryana 121107",,2F8H+86X,Nagla Surjan,121107,Haryana,IN,https://www.google.com/maps/place/Masjid/data=!4m7!3m6!1s0x397335387e9dc35f:0xe4ab0cc56928b6ee!8m2!3d28.0158532!4d77.4781065!16s%2Fg%2F11qpyml5dv!19sChIJX8Odfjg1czkR7rYoacUMq-Q?authuser=0&hl=en&rclk=1,"28.0158532,77.4781065"
Chhoti Masjid,Mosque,"H2XX+F8H Chhoti Masjid, Chhoti Masjid, Ramanpur Mode, Kailash Nagar, Utter Pradesh, Hathras, Uttar Pradesh",Ramanpur,"H2XX+F8H, Chhoti Masjid, Ramanpur Mode, Kailash Nagar, Utter Pradesh",Hathras,,Uttar Pradesh,IN,https://www.google.com/maps/place/Chhoti+Masjid/data=!4m7!3m6!1s0x39749bcdcaa7e26b:0x88aecb13174c3a32!8m2!3d27.5986767!4d78.0483549!16s%2Fg%2F11g0w3fd6z!19sChIJa-Knys2bdDkRMjpMFxPLrog?authuser=0&hl=en&rclk=1,"27.5986767,78.04835489999999"
New Masjid Ichhaka,Mosque,"QPV2+8C3 New Masjid Ichhaka, Jhirandiya, Rajasthan 301405",,QPV2+8C3,Jhirandiya,301405,Rajasthan,IN,https://www.google.com/maps/place/New+Masjid+Ichhaka/data=!4m7!3m6!1s0x3972bb846e914d51:0x3a10cfd76149cdbe!8m2!3d27.7932636!4d76.7010428!16s%2Fg%2F11qn92h13y!19sChIJUU2RboS7cjkRvs1JYdfPEDo?authuser=0&hl=en&rclk=1,"27.7932636,76.7010428"
Masjid,Mosque,"RX4J+M39 Masjid, Rajoli, Sulela, Haryana 122104",,RX4J+M39,"Rajoli, Sulela",122104,Haryana,IN,https://www.google.com/maps/place/Masjid/data=!4m7!3m6!1s0x3972c534275ef4ab:0xdc27d3a7ace97738!8m2!3d27.8066544!4d76.9802205!16s%2Fg%2F11j3xmhg73!19sChIJq_ReJzTFcjkROHfprKfTJ9w?authuser=0&hl=en&rclk=1,"27.8066544,76.9802205"
Qureshiyan Masjid,Mosque,"Qureshiyan Masjid, HN.380 Upper Wali Gali, near Masjid Kureshiyan, Nangal Mubarikpur, Haryana 122108",,"HN.380 Upper Wali Gali, near Masjid Kureshiyan","Nangal Mubarikpur, Nawli",122108,Haryana,IN,https://www.google.com/maps/place/Qureshiyan+Masjid/data=!4m7!3m6!1s0x3972cf99e64ade29:0x9245e8911d55dca4!8m2!3d27.8885669!4d76.9603788!16s%2Fg%2F11h79xnj6g!19sChIJKd5K5pnPcjkRpNxVHZHoRZI?authuser=0&hl=en&rclk=1,"27.888566899999997,76.9603788"
ladiyaka masjid,Mosque,"GWJ2+6FC ladiyaka masjid, Unnamed Road, Ladiyaka, Rajasthan 301021",,"GWJ2+6FC, Unnamed Road",Ladiyaka,301021,Rajasthan,IN,https://www.google.com/maps/place/ladiyaka+masjid/data=!4m7!3m6!1s0x3972ed4f0e2367a1:0x6bb273a96d38efbf!8m2!3d27.5305648!4d76.9011451!16s%2Fg%2F11kkyd75lh!19sChIJoWcjDk_tcjkRv-84balzsms?authuser=0&hl=en&rclk=1,"27.5305648,76.9011451"
Kheda masjid,Mosque,"GV7P+QRJ Kheda masjid, Unnamed Road, Bhatpura, Rajasthan 301021",,"GV7P+QRJ, Unnamed Road",Bhatpura,301021,Rajasthan,IN,https://www.google.com/maps/place/Kheda+masjid/data=!4m7!3m6!1s0x3972edf516873e31:0x339bef7eb89b3328!8m2!3d27.5144589!4d76.8870087!16s%2Fg%2F11kt9fty32!19sChIJMT6HFvXtcjkRKDObuH7vmzM?authuser=0&hl=en&rclk=1,"27.514458899999997,76.8870087"
Sunheri masjid (kheda),Mosque,"75G5+279 Sunheri masjid (kheda), Aonla, Uttar Pradesh 243301",,75G5+279,Aonla,243301,Uttar Pradesh,IN,https://www.google.com/maps/place/Sunheri+masjid+%28kheda%29/data=!4m7!3m6!1s0x390ab3061cc28009:0x5476eaa1006b448b!8m2!3d28.2750485!4d79.1582407!16s%2Fg%2F11ttbfyzg2!19sChIJCYDCHAazCjkRi0RrAKHqdlQ?authuser=0&hl=en&rclk=1,"28.2750485,79.1582407"
Masjid Abu Bakr,Mosque,"4H66+F3X Masjid Abu Bakr, Chak Bibipur, Kheda, Mewat, Uttar Pradesh",,"4H66+F3X, Chak Bibipur, Kheda","Mewat, Sunehti",,Uttar Pradesh,IN,https://www.google.com/maps/place/Masjid+Abu+Bakr/data=!4m7!3m6!1s0x390ee9e4b8e290b5:0x2fdfcfe04bc314b1!8m2!3d30.111228!4d77.5602232!16s%2Fg%2F11vln9qqby!19sChIJtZDiuOTpDjkRsRTDS-DP3y8?authuser=0&hl=en&rclk=1,"30.111227999999997,77.5602232"
Qadri Masjid,Mosque,"HHQ5+M9X Qadri Masjid, Deepa Sarai, Hindupura, Turtipur Elha, Uttar Pradesh 244302",Deepa Sarai,HHQ5+M9X,"Hindupura, Turtipur Elha",,Uttar Pradesh,IN,https://www.google.com/maps/place/Qadri+Masjid/data=!4m7!3m6!1s0x390b19ced25fc629:0xdb713441a98eabbf!8m2!3d28.5892467!4d78.5584902!16s%2Fg%2F11t7kzhn7d!19sChIJKcZf0s4ZCzkRv6uOqUE0cds?authuser=0&hl=en&rclk=1,"28.5892467,78.5584902"
Masjid hanskheda,Mosque,"Masjid hanskheda, Old, kashiram colony, Hans Khera, Lucknow, Uttar Pradesh 226009",Hans Khera,"Old, kashiram colony",Lucknow,226009,Uttar Pradesh,IN,https://www.google.com/maps/place/Masjid+hanskheda/data=!4m7!3m6!1s0x399bff48304a3809:0x5dd3d2748732a5c7!8m2!3d26.8119216!4d80.8646692!16s%2Fg%2F11t1lq97zm!19sChIJCThKMEj_mzkRx6Uyh3TS010?authuser=0&hl=en&rclk=1,"26.811921599999998,80.8646692"
Madarsa Wali Masjid,Mosque,"9WC7+F59 Madarsa Wali Masjid, Khai khera, Khujera, Uttar Pradesh 251314",,"9WC7+F59, Khai khera",Khujera,251314,Uttar Pradesh,IN,https://www.google.com/maps/place/Madarsa+Wali+Masjid/data=!4m7!3m6!1s0x390c09e82f65869d:0x92b6ae74360febd1!8m2!3d29.3711573!4d77.9129865!16s%2Fg%2F11kpjh58_r!19sChIJnYZlL-gJDDkR0esPNnSutpI?authuser=0&hl=en&rclk=1,"29.3711573,77.9129865"
Masajid,Mosque,"C864+CC7 Masajid, Railway Rd, Gandhi Colony, New Industrial Township, Faridabad, Haryana 121001","Gandhi Colony, New Industrial Township","C864+CC7, Railway Rd",Faridabad,121001,Haryana,IN,https://www.google.com/maps/place/Masajid/data=!4m7!3m6!1s0x390cddc8fc8d00eb:0xc159accfa1163f55!8m2!3d28.4110398!4d77.3060428!16s%2Fg%2F11gcq69qzs!19sChIJ6wCN_MjdDDkRVT8Woc-sWcE?authuser=0&hl=en&rclk=1,"28.411039799999998,77.3060428"
Choti Masjid Mahluka,Mosque,"3543+JGR Choti Masjid Mahluka, Mahaluka, Haryana 121103",,3543+JGR,Mahaluka,121103,Haryana,IN,https://www.google.com/maps/place/Choti+Masjid+Mahluka/data=!4m7!3m6!1s0x3972d51d649fc31b:0xb23c4af91d9277a8!8m2!3d28.0566059!4d77.1537564!16s%2Fg%2F11kk7k8zjz!19sChIJG8OfZB3VcjkRqHeSHflKPLI?authuser=0&hl=en&rclk=1,"28.056605899999997,77.15375639999999"
Jhatikara Village Mosque,Mosque,"63W8+FPF Jhatikara Village Mosque, near Chamar Mohalla Shiv Mandir, Jhatikara Village, New Delhi, Garoo, Rajasthan 110043",Jhatikara Village,"63W8+FPF, near Chamar Mohalla Shiv Mandir","New Delhi, Garoo",110043,Rajasthan,IN,https://www.google.com/maps/place/Jhatikara+Village+Mosque/data=!4m7!3m6!1s0x397257dbe58e2acd:0x2a0813292f1383a7!8m2!3d27.2461999!4d77.066795!16s%2Fg%2F11p0_xn6wf!19sChIJzSqO5dtXcjkRp4MTLykTCCo?authuser=0&hl=en&rclk=1,"27.246199899999997,77.066795"
mauhmd msjid bidrkaa,Mosque,"QRHF+868 mauhmd msjid bidrkaa, Bidarka, Rajasthan 301025",,QRHF+868,Bidarka,,Rajasthan,IN,https://www.google.com/maps/place/%E0%A4%AE%E0%A5%8C%E0%A4%B9%E0%A4%AE%E0%A4%A6+%E0%A4%AE%E0%A4%B8%E0%A5%8D%E0%A4%9C%E0%A4%BF%E0%A4%A6+%E0%A4%AC%E0%A4%BF%E0%A4%A6%E0%A4%B0%E0%A4%95%E0%A4%BE/data=!4m7!3m6!1s0x3972b937db22527f:0x8774800996aaba25!8m2!3d27.7782853!4d76.8230815!16s%2Fg%2F11h1m5bfl9!19sChIJf1Ii2ze5cjkRJbqqlgmAdIc?authuser=0&hl=en&rclk=1,"27.7782853,76.8230815"
Jarakka masjid,Mosque,"GVJR+WWQ Jarakka masjid, Unnamed Road, Ladiyaka, Rajasthan 301021",,"GVJR+WWQ, Unnamed Road",Ladiyaka,301021,Rajasthan,IN,https://www.google.com/maps/place/Jarakka+masjid/data=!4m7!3m6!1s0x3972edabf93f2c0d:0xcdb58775defaff79!8m2!3d27.5323471!4d76.8923678!16s%2Fg%2F11htq4zssy!19sChIJDSw_-avtcjkRef_63nWHtc0?authuser=0&hl=en&rclk=1,"27.5323471,76.8923678"
Aqsa Mewat Masjid Behripur,Mosque,"JWF2+72P Aqsa Mewat Masjid Behripur, Alampur, Rajasthan 301026",,JWF2+72P,Alampur,301026,Rajasthan,IN,https://www.google.com/maps/place/Aqsa+Mewat+Masjid+Behripur/data=!4m7!3m6!1s0x3972eb2c706cf637:0xdb2d7a95f6280a28!8m2!3d27.6232086!4d76.9000652!16s%2Fg%2F11ptzqblyq!19sChIJN_ZscCzrcjkRKAoo9pV6Lds?authuser=0&hl=en&rclk=1,"27.623208599999998,76.9000652"
Masjid,Mosque,"22M6+6XR Masjid, Malab, Haryana 122107",,22M6+6XR,Malab,122107,Haryana,IN,https://www.google.com/maps/place/Masjid/data=!4m7!3m6!1s0x3972d3868c8be52f:0xbb3ffa2d9ed49cdf!8m2!3d28.0331122!4d77.0123832!16s%2Fg%2F11l45_ysln!19sChIJL-WLjIbTcjkR35zUni36P7s?authuser=0&hl=en&rclk=1,"28.033112199999998,77.0123832"
dhmaalaa kii bdd'ii msjid,Mosque,"RX73+QQV dhmaalaa kii bdd'ii msjid, Ferozepur Jhirka Rural, Dhanwala, Haryana 122104",,RX73+QQV,"Ferozepur Jhirka Rural, Dhanwala",122104,Haryana,IN,https://www.google.com/maps/place/%E0%A4%A7%E0%A4%AE%E0%A4%BE%E0%A4%B2%E0%A4%BE+%E0%A4%95%E0%A5%80+%E0%A4%AC%E0%A4%A1%E0%A4%BC%E0%A5%80+%E0%A4%AE%E0%A4%B8%E0%A5%8D%E0%A4%9C%E0%A4%BF%E0%A4%A6/data=!4m7!3m6!1s0x3972c522f7875951:0x96505383201d7501!8m2!3d27.8144948!4d76.9544069!16s%2Fg%2F11ncmg5ygw!19sChIJUVmH9yLFcjkRAXUdIINTUJY?authuser=0&hl=en&rclk=1,"27.8144948,76.9544069"
"Masjid Kheda Wali, Malab",Mosque,"22P6+9FJ Masjid Kheda Wali, Malab, Malab, Haryana 122107",,22P6+9FJ,Malab,122107,Haryana,IN,"https://www.google.com/maps/place/Masjid+Kheda+Wali,+Malab/data=!4m7!3m6!1s0x3972d3d21713ffd5:0xe1e8fae1901a614b!8m2!3d28.0359585!4d77.0111374!16s%2Fg%2F11k84s_5fz!19sChIJ1f8TF9LTcjkRS2EakOH66OE?authuser=0&hl=en&rclk=1","28.0359585,77.0111374"
khedd'aa msjid,Mosque,"MGV5+X5V khedd'aa msjid, Rasulpur Sikroda, Ghaziabad, Uttar Pradesh 201015",Rasulpur Sikroda,MGV5+X5V,Ghaziabad,201015,Uttar Pradesh,IN,https://www.google.com/maps/place/%E0%A4%96%E0%A5%87%E0%A4%A1%E0%A4%BC%E0%A4%BE+%E0%A4%AE%E0%A4%B8%E0%A5%8D%E0%A4%9C%E0%A4%BF%E0%A4%A6/data=!4m7!3m6!1s0x390cf318b2fd3ded:0xe2d6f5b5ed390329!8m2!3d28.6949887!4d77.5079213!16s%2Fg%2F11rz74_sgy!19sChIJ7T39shjzDDkRKQM57bX11uI?authuser=0&hl=en&rclk=1,"28.6949887,77.50792129999999"
Maqqi masjid,Mosque,"Maqqi masjid, khushal park, Chand Market, Main Road, Loni, Ghaziabad, Uttar Pradesh 201102",Loni,"khushal park, Chand Market, Main Road",Ghaziabad,201102,Uttar Pradesh,IN,https://www.google.com/maps/place/Maqqi+masjid/data=!4m7!3m6!1s0x390cff5e0ec94889:0x5f11a2cfa7f2d1f6!8m2!3d28.7591698!4d77.2711527!16s%2Fg%2F11q57z_dlr!19sChIJiUjJDl7_DDkR9tHyp8-iEV8?authuser=0&hl=en&rclk=1,"28.7591698,77.2711527"
Masjid darjiyan,Mosque,"V76Q+HC5 Masjid darjiyan, Khekra, Uttar Pradesh 250101",,V76Q+HC5,Khekra,250101,Uttar Pradesh,IN,https://www.google.com/maps/place/Masjid+darjiyan/data=!4m7!3m6!1s0x390c579729334fd5:0x710b1a0b42a8b46a!8m2!3d28.8613774!4d77.2886222!16s%2Fg%2F11rn0cch0t!19sChIJ1U8zKZdXDDkRarSoQgsaC3E?authuser=0&hl=en&rclk=1,"28.8613774,77.28862219999999"
Jumma Masjid jummaa msjid,Mosque,"86G4+CPX Jumma Masjid jummaa msjid, Tikri Khera, Alampur, Haryana 121004",,86G4+CPX,"Tikri Khera, Alampur",121004,Haryana,IN,https://www.google.com/maps/place/Jumma+Masjid+%E0%A4%9C%E0%A5%81%E0%A4%AE%E0%A5%8D%E0%A4%AE%E0%A4%BE+%E0%A4%AE%E0%A4%B8%E0%A5%8D%E0%A4%9C%E0%A4%BF%E0%A4%A6/data=!4m7!3m6!1s0x390cd902a43b519b:0xbac7aad4f8422450!8m2!3d28.326101!4d77.2068541!16s%2Fg%2F11p5kvhq9y!19sChIJm1E7pALZDDkRUCRC-NSqx7o?authuser=0&hl=en&rclk=1,"28.326100999999998,77.2068541"
Masjid mundha khera,Mosque,"W88V+9W8 Masjid mundha khera, Mundha Khera, Uttar Pradesh 244236",,W88V+9W8,Mundha Khera,,Uttar Pradesh,IN,https://www.google.com/maps/place/Masjid+mundha+khera/data=!4m7!3m6!1s0x390ba1ba66f5e591:0x43dbc28cac563bee!8m2!3d28.915918!4d78.3448346!16s%2Fg%2F11kpk_9z9q!19sChIJkeX1ZrqhCzkR7jtWrIzC20M?authuser=0&hl=en&rclk=1,"28.915917999999998,78.3448346"
Masjid Khera,Mosque,"WM33+FGH Masjid Khera, Khera, Haryana 127046",,WM33+FGH,Khera,127046,Haryana,IN,https://www.google.com/maps/place/Masjid+Khera/data=!4m7!3m6!1s0x3913b35e313156c3:0xd51da3f9b407a15f!8m2!3d28.903683!4d75.6538729!16s%2Fg%2F11shp8zwwc!19sChIJw1YxMV6zEzkRX6EHtPmjHdU?authuser=0&hl=en&rclk=1,"28.903682999999997,75.6538729"
Masjid Mohanmad Deen,Mosque,"867C+Q5 Masjid Mohanmad Deen, Tikri Khera, Haryana 121004",,867C+Q5,Tikri Khera,,Haryana,IN,https://www.google.com/maps/place/Masjid+Mohanmad+Deen/data=!4m7!3m6!1s0x390cd9447b7b4bc3:0xfa0fa8e9f4792f65!8m2!3d28.314438!4d77.220447!16s%2Fg%2F11srrhgjrz!19sChIJw0t7e0TZDDkRZS959OmoD_o?authuser=0&hl=en&rclk=1,"28.314438,77.220447"
Masjid,Mosque,"J6P3+JWC Masjid, Vaulkhera, Rajasthan 321023",,J6P3+JWC,Vaulkhera,321023,Rajasthan,IN,https://www.google.com/maps/place/Masjid/data=!4m7!3m6!1s0x39731fc37c67c201:0x4ae69bc70985d2ee!8m2!3d27.6365698!4d77.2047599!16s%2Fg%2F11v5_6993c!19sChIJAcJnfMMfczkR7tKFCceb5ko?authuser=0&hl=en&rclk=1,"27.6365698,77.2047599"
Nurani.masjid.muindya.khara,Mosque,"JPW2+M9R Nurani.masjid.muindya.khara, Mundiya Khera, Rajasthan 301028",,JPW2+M9R,Mundiya Khera,301028,Rajasthan,IN,https://www.google.com/maps/place/Nurani.masjid.muindya.khara/data=!4m7!3m6!1s0x397297e5ee3b095f:0xfcbe3a5ad988341b!8m2!3d27.6467317!4d76.7008973!16s%2Fg%2F11ry964v5w!19sChIJXwk77uWXcjkRGzSI2Vo6vvw?authuser=0&hl=en&rclk=1,"27.6467317,76.7008973"
Masjid,Mosque,"W4X5+C3X Masjid, Bazidpur, Haryana 122508",,W4X5+C3X,Bazidpur,,Haryana,IN,https://www.google.com/maps/place/Masjid/data=!4m7!3m6!1s0x3972d78636d1a3c5:0xee4f8d1680829d38!8m2!3d27.9486005!4d77.1077437!16s%2Fg%2F11k02z3y7b!19sChIJxaPRNobXcjkROJ2CgBaNT-4?authuser=0&hl=en&rclk=1,"27.948600499999998,77.1077437"
Masjid,Mosque,"Masjid, L385, Block L, JJ Colony No 3, Nangloi, New Delhi, Delhi, 110041","Block L, JJ Colony No 3, Nangloi",L385,"New Delhi, Delhi",110041,Delhi,IN,https://www.google.com/maps/place/Masjid/data=!4m7!3m6!1s0x390d0530462f99ad:0xf47aa8290ce093fa!8m2!3d28.6842352!4d77.0742041!16s%2Fg%2F11smtj7p27!19sChIJrZkvRjAFDTkR-pPgDCmoevQ?authuser=0&hl=en&rclk=1,"28.6842352,77.0742041"
Masjid,Mosque,"9JRG+7P4 Masjid, Lili, Mala Khera",,"9JRG+7P4, Lili",Mala Khera,,Rajasthan,IN,https://www.google.com/maps/place/Masjid/data=!4m7!3m6!1s0x3972851a777c5727:0x3b8f341c0fc7b156!8m2!3d27.390648!4d76.6268306!16s%2Fg%2F11qqwlddgw!19sChIJJ1d8dxqFcjkRVrHHDxw0jzs?authuser=0&hl=en&rclk=1,"27.390648,76.62683059999999"
Haji Razmal aksha Masjid,Mosque,"6X6Q+5V2 Haji Razmal aksha Masjid, Unnamed Road, Raheri, Haryana 122103",,"6X6Q+5V2, Unnamed Road",Raheri,122103,Haryana,IN,https://www.google.com/maps/place/Haji+Razmal+aksha+Masjid/data=!4m7!3m6!1s0x390d318c4c3360ff:0xd3d8d809e0dc6a9d!8m2!3d28.2103828!4d76.9896316!16s%2Fg%2F11n8wq4w0m!19sChIJ_2AzTIwxDTkRnWrc4AnY2NM?authuser=0&hl=en&rclk=1,"28.210382799999998,76.9896316"
Pathan's house,Housing society,"M62P+J48 Pathan's house, Chakla fali near jama masjid ratanpur kheda gujrta, Delhi","Meena Bazaar, Jama Masjid, Chandni Chowk","M62P+J48, Chakla fali near jama masjid ratanpur kheda gujrta",Delhi,,Delhi,IN,https://www.google.com/maps/place/Pathan%27s+house/data=!4m7!3m6!1s0x390cfd7d1295076d:0xa1d0dab8b5f7dee9!8m2!3d28.6515325!4d77.2353367!16s%2Fg%2F11shw1ht3t!19sChIJbQeVEn39DDkR6d73tbja0KE?authuser=0&hl=en&rclk=1,"28.6515325,77.23533669999999"
Masjid,Mosque,"8FRR+934 Masjid, Khanpur, Uttar Pradesh 251318",,8FRR+934,Khanpur,,Uttar Pradesh,IN,https://www.google.com/maps/place/Masjid/data=!4m7!3m6!1s0x390c3d14ec51f025:0x58f150d6c2250a6a!8m2!3d29.3408861!4d77.4902181!16s%2Fg%2F11tx6tgh2v!19sChIJJfBR7BQ9DDkRagolwtZQ8Vg?authuser=0&hl=en&rclk=1,"29.3408861,77.49021809999999"
Kheda,,"Kheda, Haryana 124108",,,Kheda,,Haryana,IN,https://www.google.com/maps/place/Kheda/data=!4m7!3m6!1s0x390d69d4e17209f9:0x9c9ca4225dca10a8!8m2!3d28.3911664!4d76.6894085!16s%2Fg%2F1pzx04m89!19sChIJ-Qly4dRpDTkRqBDKXSKknJw?authuser=0&hl=en&rclk=1,"28.3911664,76.6894085"
MAKKA MASJID DHADOLI,Mosque,"W3FQ+4R4 MAKKA MASJID DHADOLI, Dhadoli Kalan, Haryana 122108",,W3FQ+4R4,Dhadoli Kalan,122108,Haryana,IN,https://www.google.com/maps/place/MAKKA+MASJID+DHADOLI/data=!4m7!3m6!1s0x3972d1545c76f223:0x35aa3640f8d85f0e!8m2!3d27.9227722!4d77.0895634!16s%2Fg%2F11n31yd8r2!19sChIJI_J2XFTRcjkRDl_Y-EA2qjU?authuser=0&hl=en&rclk=1,"27.922772199999997,77.0895634"
NEW MOSQUE,Mosque,"8RP3+8X3 NEW MOSQUE, Moondiya Khera, Maujpur, Rajasthan 321633",,8RP3+8X3,"Moondiya Khera, Maujpur",,Rajasthan,IN,https://www.google.com/maps/place/NEW+MOSQUE/data=!4m7!3m6!1s0x39728b7cc658b6a3:0x724694f7f1c8e387!8m2!3d27.3357543!4d76.8049354!16s%2Fg%2F11td9_pvj6!19sChIJo7ZYxnyLcjkRh-PI8feURnI?authuser=0&hl=en&rclk=1,"27.335754299999998,76.80493539999999"
Kheda,,"Kheda, Uttar Pradesh 203135",,,Kheda,,Uttar Pradesh,IN,https://www.google.com/maps/place/Kheda/data=!4m7!3m6!1s0x390cb5eb9a8a2cbf:0x398b982a55f9f7a6!8m2!3d28.1786845!4d77.5802103!16s%2Fg%2F1hc96_lzp!19sChIJvyyKmuu1DDkRpvf5VSqYizk?authuser=0&hl=en&rclk=1,"28.1786845,77.58021029999999"
Mdina Mewat Masjid Khuspuri,Mosque,"JW5X+Q68 Mdina Mewat Masjid Khuspuri, Bas Burja, Rajasthan 321024",,JW5X+Q68,Bas Burja,321024,Rajasthan,IN,https://www.google.com/maps/place/Mdina+Mewat+Masjid+Khuspuri/data=!4m7!3m6!1s0x3972e98f95d655a1:0xba4ef1618d7aa3b9!8m2!3d27.6094149!4d76.9480688!16s%2Fg%2F11p5nwl4qt!19sChIJoVXWlY_pcjkRuaN6jWHxTro?authuser=0&hl=en&rclk=1,"27.609414899999997,76.9480688"
Kheda,,"Kheda, Uttar Pradesh 202141",,,Kheda,,Uttar Pradesh,IN,https://www.google.com/maps/place/Kheda/data=!4m7!3m6!1s0x397350376fe78a75:0xccc595a7cb0e6e01!8m2!3d27.9733005!4d77.7645194!16s%2Fg%2F1t_thq13!19sChIJdYrnbzdQczkRAW4Oy6eVxcw?authuser=0&hl=en&rclk=1,"27.973300499999997,77.7645194"
