name,main_category,address,address_ward,address_street,address_city,address_postal_code,address_state,address_country_code,link,coordinates
Ar-Rahmat Mosque,Mosque,"Ar-Rahmat Mosque, Jl. Raya Kuta Abian Base No.75, Kuta, Badung Regency, Bali 80361, Indonesia",Kuta,Jl. Raya Kuta Abian Base No.75,Badung Regency,80361,Bali,ID,https://www.google.com/maps/place/Ar-Rahmat+Mosque/data=!4m7!3m6!1s0x2dd246b641220b71:0xed704af89895e85c!8m2!3d-8.7146372!4d115.1813988!16s%2Fg%2F1hm5rws4c!19sChIJcQsiQbZG0i0RXOiVmPhKcO0?authuser=0&hl=en&rclk=1,"-8.7146372,115.1813988"
Masjid Agung Ibnu Batutah,Mosque,"Masjid Agung Ibnu Batutah, Jl. Nusa Dua, Kuta, South Kuta, Badung Regency, Bali 80361, Indonesia","Kuta, South Kuta",Jl. Nusa Dua,Badung Regency,80361,Bali,ID,https://www.google.com/maps/place/Masjid+Agung+Ibnu+Batutah/data=!4m7!3m6!1s0x2dd2441fb5e464a9:0x4898fbc8ffcf2fb4!8m2!3d-8.8005156!4d115.2134044!16s%2Fg%2F1pzszgzgm!19sChIJqWTktR9E0i0RtC_P_8j7mEg?authuser=0&hl=en&rclk=1,"-8.800515599999999,115.2134044"
Masjid Al Hasanah Canggu Permai,Mosque,"Masjid Al Hasanah Canggu Permai, Jl. Masjid Al Hasanah No.1 Banjar Canggu, Permai, Tibubeneng, Kec. Kuta Utara, Kabupaten Badung, Bali 80361, Indonesia","Tibubeneng, Kuta Utara","Jl. Masjid Al Hasanah No.1 Banjar Canggu, Permai",Badung Regency,80361,Bali,ID,https://www.google.com/maps/place/Masjid+Al+Hasanah+Canggu+Permai/data=!4m7!3m6!1s0x2dd238815c6159f1:0x3a10e20550ceb2b3!8m2!3d-8.6480048!4d115.1454557!16s%2Fg%2F1pzrc39c7!19sChIJ8VlhXIE40i0Rs7LOUAXiEDo?authuser=0&hl=en&rclk=1,"-8.648004799999999,115.1454557"
Al Furqon Mosque,Mosque,"Al Furqon Mosque, Jl. Gn. Mas IA No.14, Padangsambian Kaja, Denpasar Barat, Denpasar City, Bali 80117, Indonesia","Padangsambian Kaja, Denpasar Barat",Jl. Gn. Mas IA No.14,Denpasar City,80117,Bali,ID,https://www.google.com/maps/place/Al+Furqon+Mosque/data=!4m7!3m6!1s0x2dd23f496ce381d9:0x998fcdcfa1d3f571!8m2!3d-8.6363269!4d115.1892922!16s%2Fg%2F1pzr7rswx!19sChIJ2YHjbEk_0i0RcfXToc_Nj5k?authuser=0&hl=en&rclk=1,"-8.6363269,115.1892922"
Great Mosque of Al-A'la Gianyar,Mosque,"Great Mosque of Al-A'la Gianyar, Jl. Kesatrian No.16, Gianyar, Gianyar Regency, Bali 80511, Indonesia",Gianyar,Jl. Kesatrian No.16,Gianyar Regency,80511,Bali,ID,https://www.google.com/maps/place/Great+Mosque+of+Al-A%27la+Gianyar/data=!4m7!3m6!1s0x2dd21663fcaaf02b:0xfd8428cc5944b5f8!8m2!3d-8.5429578!4d115.3249558!16s%2Fg%2F1pzwl8f5d!19sChIJK_Cq_GMW0i0R-LVEWcwohP0?authuser=0&hl=en&rclk=1,"-8.5429578,115.3249558"
Musholla Baitul Mukminin BKDI Bali,Mosque,"Musholla Baitul Mukminin BKDI Bali, Jl. Tukad Batu Agung No.3, Panjer, Denpasar Selatan, Kota Denpasar, Bali 80225, Indonesia","Panjer, Denpasar Selatan",Jl. Tukad Batu Agung No.3,Denpasar City,80225,Bali,ID,https://www.google.com/maps/place/Musholla+Baitul+Mukminin+BKDI+Bali/data=!4m7!3m6!1s0x2dd2410286f0dd91:0xfea6a9170b918f72!8m2!3d-8.6875236!4d115.2258702!16s%2Fg%2F1pzv1rtkf!19sChIJkd3whgJB0i0Rco-RCxeppv4?authuser=0&hl=en&rclk=1,"-8.6875236,115.22587019999999"
Minhajul Athfal Mosque,Mosque,"7569+RQP Minhajul Athfal Mosque, JL. Satria Tuban, Kuta, Kec. Kuta, Kabupaten Badung, Bali 80361, Indonesia",Kuta,"7569+RQP, JL. Satria Tuban",Badung Regency,80361,Bali,ID,https://www.google.com/maps/place/Minhajul+Athfal+Mosque/data=!4m7!3m6!1s0x2dd2441c7ac0202d:0xa46b32a83d5dcfdd!8m2!3d-8.7379136!4d115.1694577!16s%2Fg%2F1pzsy2bxs!19sChIJLSDAehxE0i0R3c9dPagya6Q?authuser=0&hl=en&rclk=1,"-8.737913599999999,115.1694577"
Masjid Abdurrahman bin Auf (Yayasan Baitul Ummah),Mosque,"Masjid Abdurrahman bin Auf (Yayasan Baitul Ummah), Jl. Nuansa Utama Sel. No.XX, Jimbaran, South Kuta, Badung Regency, Bali 80361, Indonesia","Jimbaran, South Kuta",Jl. Nuansa Utama Sel. No.XX,Badung Regency,80361,Bali,ID,https://www.google.com/maps/place/Masjid+Abdurrahman+bin+Auf+%28Yayasan+Baitul+Ummah%29/data=!4m7!3m6!1s0x2dd244a60eae58f5:0x5f5c50775383cf99!8m2!3d-8.8033525!4d115.1833691!16s%2Fg%2F1s04h98sy!19sChIJ9ViuDqZE0i0Rmc-DU3dQXF8?authuser=0&hl=en&rclk=1,"-8.803352499999999,115.1833691"
Masjid Al-Qodiri (Mosque),Mosque,"Masjid Al-Qodiri (Mosque), Segina IV No.7, Pemecutan Klod, Denpasar Barat, Denpasar City, Bali 80114, Indonesia","Pemecutan Klod, Denpasar Barat",Segina IV No.7,Denpasar City,80114,Bali,ID,https://www.google.com/maps/place/Masjid+Al-Qodiri+%28Mosque%29/data=!4m7!3m6!1s0x2dd240d24bcdc27d:0x68b1a4efec61beb!8m2!3d-8.6842474!4d115.1932!16s%2Fg%2F11cnkr64c6!19sChIJfcLNS9JA0i0R6xvG_k4aiwY?authuser=0&hl=en&rclk=1,"-8.6842474,115.19319999999999"
Masjid Al Huda Kedonganan,Mosque,"Masjid Al Huda Kedonganan, Kedonganan, Kec. Kuta, Kabupaten Badung, Bali 80361, Indonesia","Kedonganan, Kuta",,Badung Regency,80361,Bali,ID,https://www.google.com/maps/place/Masjid+Al+Huda+Kedonganan/data=!4m7!3m6!1s0x2dd2446b0ced4b31:0xf695bcbe42fbaee2!8m2!3d-8.7561406!4d115.1696544!16s%2Fg%2F11ckxz_k1x!19sChIJMUvtDGtE0i0R4q77Qr68lfY?authuser=0&hl=en&rclk=1,"-8.7561406,115.1696544"
MASJID AL-IHSAN,Mosque,"RCQR+VF8 MASJID AL-IHSAN, Tembok, Tejakula, Buleleng Regency, Bali 81173, Indonesia","Tembok, Tejakula",RCQR+VF8,Buleleng Regency,81173,Bali,ID,https://www.google.com/maps/place/MASJID+AL-IHSAN/data=!4m7!3m6!1s0x2dd1f024d922e5ef:0x7ce6e5404643abd2!8m2!3d-8.1603307!4d115.4412142!16s%2Fg%2F11bzt8jd_t!19sChIJ7-Ui2STw0S0R0qtDRkDl5nw?authuser=0&hl=en&rclk=1,"-8.1603307,115.44121419999999"
Baitul Mujib Mosque - Ahmadiyya Denpasar,Mosque,"Baitul Mujib Mosque - Ahmadiyya Denpasar, Jl. Tegal Harum No.3, Kesiman Kertalangu, East Denpasar, Denpasar City, Bali 80237, Indonesia","Kesiman Kertalangu, East Denpasar",Jl. Tegal Harum No.3,Denpasar City,80237,Bali,ID,https://www.google.com/maps/place/Baitul+Mujib+Mosque+-+Ahmadiyya+Denpasar/data=!4m7!3m6!1s0x2dd240879f330403:0x139f5dd291352478!8m2!3d-8.6468765!4d115.2700658!16s%2Fg%2F11bc7sxy1b!19sChIJAwQzn4dA0i0ReCQ1kdJdnxM?authuser=0&hl=en&rclk=1,"-8.6468765,115.2700658"
Mushola Sunan Giri Balangan Bali,Mosque,"Mushola Sunan Giri Balangan Bali, Jl. Pantai Balangan, Jimbaran, South Kuta, Badung Regency, Bali 80361, Indonesia","Jimbaran, South Kuta",Jl. Pantai Balangan,Badung Regency,80361,Bali,ID,https://www.google.com/maps/place/Mushola+Sunan+Giri+Balangan+Bali/data=!4m7!3m6!1s0x2dd2452790589921:0xd8cd6cfc1da9d0db!8m2!3d-8.8053119!4d115.1408624!16s%2Fg%2F11bv6lcrzw!19sChIJIZlYkCdF0i0R29CpHfxszdg?authuser=0&hl=en&rclk=1,"-8.8053119,115.14086239999999"
Masjid Al-Ihsan - Sanur,Mosque,"87G6+759 Masjid Al-Ihsan - Sanur, Jl. Hang Tuah, Sanur Kaja, Denpasar Selatan, Denpasar City, Bali 80227, Indonesia","Sanur Kaja, Denpasar Selatan","87G6+759, Jl. Hang Tuah",Denpasar City,80227,Bali,ID,https://www.google.com/maps/place/Masjid+Al-Ihsan+-+Sanur/data=!4m7!3m6!1s0x2dd2403886b0cdbf:0x989d64546dc6f609!8m2!3d-8.6743279!4d115.26048!16s%2Fg%2F1hm5zxcpg!19sChIJv82whjhA0i0RCfbGbVRknZg?authuser=0&hl=en&rclk=1,"-8.6743279,115.26048"
Sudirman Great Mosque,Mosque,"Sudirman Great Mosque, Jl. Slamet Riyadi No.1, Dauh Puri, Denpasar Barat, Denpasar City, Bali 80232, Indonesia","Dauh Puri, Denpasar Barat",Jl. Slamet Riyadi No.1,Denpasar City,80232,Bali,ID,https://www.google.com/maps/place/Sudirman+Great+Mosque/data=!4m7!3m6!1s0x2dd240939bc9be41:0xe5f3f50b90854bd6!8m2!3d-8.667258!4d115.219533!16s%2Fg%2F1pv6xrr3p!19sChIJQb7Jm5NA0i0R1kuFkAv18-U?authuser=0&hl=en&rclk=1,"-8.667258,115.219533"
Nurul Huda Mosque  ,Mosque,"Nurul Huda Mosque  , Jl. Masjapur No.3, Tuban, Kuta, Badung Regency, Bali 80361, Indonesia","Tuban, Kuta",Jl. Masjapur No.3,Badung Regency,80361,Bali,ID,https://www.google.com/maps/place/Nurul+Huda+Mosque+%E1%AC%A6%E1%AC%B9%E1%AC%AD%E1%AC%B8%E1%AC%AE%E1%AD%84%E1%AC%B3%E1%AC%B8%E1%AC%A4+%E1%AC%AB%E1%AD%80%E1%AC%B2%E1%AD%84%E1%AC%93%E1%AD%84%E1%AD%9F/data=!4m7!3m6!1s0x2dd245b9d72f7c2d:0xed947edbc000906b!8m2!3d-8.744373!4d115.178531!16s%2Fg%2F1yg577zc5!19sChIJLXwv17lF0i0Ra5AAwNt-lO0?authuser=0&hl=en&rclk=1,"-8.744373,115.17853099999999"
Masjid An-Nur - Denpasar,Mosque,"Masjid An-Nur - Denpasar, Jl. Diponegoro No.192, Dauh Puri Klod, Denpasar Barat, Denpasar City, Bali 80114, Indonesia","Dauh Puri Klod, Denpasar Barat",Jl. Diponegoro No.192,Denpasar City,80114,Bali,ID,https://www.google.com/maps/place/Masjid+An-Nur+-+Denpasar/data=!4m7!3m6!1s0x2dd240ea34f266a1:0x2094850e9eeac723!8m2!3d-8.6742472!4d115.2152484!16s%2Fg%2F1hm58544r!19sChIJoWbyNOpA0i0RI8fqng6FlCA?authuser=0&hl=en&rclk=1,"-8.6742472,115.2152484"
Masjid Agung Palapa,Mosque,"Masjid Agung Palapa, Dreamland Bali Jalan Pecatu Indah Resort Pecatu Bali, Ungasan, Kec. Kuta Sel., Kabupaten Badung, Bali 80361, Indonesia","Ungasan, South Kuta",Dreamland Bali Jalan Pecatu Indah Resort Pecatu Bali,Badung Regency,80361,Bali,ID,https://www.google.com/maps/place/Masjid+Agung+Palapa/data=!4m7!3m6!1s0x2dd2452c8e6d9f99:0x13af6955ca494860!8m2!3d-8.8188867!4d115.1407109!16s%2Fg%2F11b74vdfyd!19sChIJmZ9tjixF0i0RYEhJylVprxM?authuser=0&hl=en&rclk=1,"-8.8188867,115.14071089999999"
Baiturrahmah Grand Mosque,Mosque,"Baiturrahmah Grand Mosque, Jl. Ahmad Yani No.72A, Dauh Puri Kaja, Denpasar Utara, Denpasar City, Bali, Indonesia","Dauh Puri Kaja, Denpasar Utara",Jl. Ahmad Yani No.72A,Denpasar City,,Bali,ID,https://www.google.com/maps/place/Baiturrahmah+Grand+Mosque/data=!4m7!3m6!1s0x2dd23f608e8c0b11:0x16cfb5f319c267f7!8m2!3d-8.6447226!4d115.2129391!16s%2Fg%2F1pzs83p6c!19sChIJEQuMjmA_0i0R92fCGfO1zxY?authuser=0&hl=en&rclk=1,"-8.6447226,115.2129391"
Masjid Muhammad,Mosque,"Masjid Muhammad, Jalan Imam Bonjol No.335 Denpasar Barat, Pemecutan Klod, Denpasar, Kota Denpasar, Bali 80119, Indonesia","Pemecutan Klod, Denpasar",Jalan Imam Bonjol No.335 Denpasar Barat,Denpasar City,80119,Bali,ID,https://www.google.com/maps/place/Masjid+Muhammad/data=!4m7!3m6!1s0x2dd240d505dbc931:0x508dae3a93ef032f!8m2!3d-8.690057!4d115.1921121!16s%2Fg%2F11bwnnjqg6!19sChIJMcnbBdVA0i0RLwPvkzqujVA?authuser=0&hl=en&rclk=1,"-8.690057,115.19211209999999"
Al Huda Grand Mosque,Mosque,"Al Huda Grand Mosque, Jl. Ahmad Yani No.35, Abian Tuwung, Kediri, Tabanan Regency, Bali 82121, Indonesia","Abian Tuwung, Kediri",Jl. Ahmad Yani No.35,Tabanan Regency,82121,Bali,ID,https://www.google.com/maps/place/Al+Huda+Grand+Mosque/data=!4m7!3m6!1s0x2dd23bca541e8b53:0x3a223e8dfd727d93!8m2!3d-8.5556551!4d115.1426223!16s%2Fg%2F1hm202rwv!19sChIJU4seVMo70i0Rk31y_Y0-Ijo?authuser=0&hl=en&rclk=1,"-8.5556551,115.1426223"
Al Ikhlas Mosque Ngurah Rai Airport,Mosque,"7558+W52 Al Ikhlas Mosque Ngurah Rai Airport, Tuban, Kuta, Badung Regency, Bali 80361, Indonesia","Tuban, Kuta",7558+W52,Badung Regency,80361,Bali,ID,https://www.google.com/maps/place/Al+Ikhlas+Mosque+Ngurah+Rai+Airport/data=!4m7!3m6!1s0x2dd24418a7d59291:0x43652d073f1625c7!8m2!3d-8.7402307!4d115.1653882!16s%2Fg%2F11bbwxld3f!19sChIJkZLVpxhE0i0RxyUWPwctZUM?authuser=0&hl=en&rclk=1,"-8.7402307,115.1653882"
Masjid Darussalam Ubung,Mosque,"Masjid Darussalam Ubung, Cokroaminoto St Br. Batur No.269, Ubung, Denpasar Utara, Denpasar City, Bali 80115, Indonesia","Ubung, Denpasar Utara",Cokroaminoto St Br. Batur No.269,Denpasar City,80115,Bali,ID,https://www.google.com/maps/place/Masjid+Darussalam+Ubung/data=!4m7!3m6!1s0x2dd23f2bf7435f65:0x6e6879199a94142c!8m2!3d-8.6267301!4d115.2005679!16s%2Fg%2F12hldxk9c!19sChIJZV9D9ys_0i0RLBSUmhl5aG4?authuser=0&hl=en&rclk=1,"-8.6267301,115.2005679"
Asasuttaqwa Grand Mosque,Mosque,"754J+6HC Asasuttaqwa Grand Mosque, Jl. Waringin, Tuban, Kuta, Badung Regency, Bali, Indonesia","Tuban, Kuta","754J+6HC, Jl. Waringin",Badung Regency,,Bali,ID,https://www.google.com/maps/place/Asasuttaqwa+Grand+Mosque/data=!4m7!3m6!1s0x2dd2440f6a3aabb5:0x47a92511c975d368!8m2!3d-8.7444306!4d115.181381!16s%2Fg%2F1hm4jj9fm!19sChIJtas6ag9E0i0RaNN1yRElqUc?authuser=0&hl=en&rclk=1,"-8.7444306,115.181381"
Al-Mubarok Grand Mosque,Mosque,"RCHP+68M Al-Mubarok Grand Mosque, Gilimanuk, Melaya, Jembrana Regency, Bali 82252, Indonesia","Gilimanuk, Melaya",RCHP+68M,Jembrana Regency,82252,Bali,ID,https://www.google.com/maps/place/Al-Mubarok+Grand+Mosque/data=!4m7!3m6!1s0x2dd143867f2cf2f1:0x61be29c8175b9898!8m2!3d-8.1719156!4d114.4357832!16s%2Fg%2F1pzr0cvbb!19sChIJ8fIsf4ZD0S0RmJhbF8gpvmE?authuser=0&hl=en&rclk=1,"-8.1719156,114.43578319999999"
Masjid Raya Ukhuwwah Denpasar,Mosque,"Masjid Raya Ukhuwwah Denpasar, Jl. Kalimantan No.19, Dauh Puri Kangin, Denpasar Barat, Denpasar City, Bali 80119, Indonesia","Dauh Puri Kangin, Denpasar Barat",Jl. Kalimantan No.19,Denpasar City,80119,Bali,ID,https://www.google.com/maps/place/Masjid+Raya+Ukhuwwah+Denpasar/data=!4m7!3m6!1s0x2dd24098655c60db:0xdf078023ebcd08a2!8m2!3d-8.6583264!4d115.2135685!16s%2Fg%2F11bbrkbnjc!19sChIJ22BcZZhA0i0RogjN6yOAB98?authuser=0&hl=en&rclk=1,"-8.6583264,115.2135685"
Baitul Makmur Mosque,Mosque,"Baitul Makmur Mosque, Masjid Baitul Makmur) Monang Maning, Jl. Gn. Merbuk No.4, Tegal Kertha, Denpasar Barat, Denpasar City, Bali 80119, Indonesia","Tegal Kertha, Denpasar Barat","Masjid Baitul Makmur) Monang Maning, Jl. Gn. Merbuk No.4",Denpasar City,80119,Bali,ID,https://www.google.com/maps/place/Baitul+Makmur+Mosque/data=!4m7!3m6!1s0x2dd240b40001ff93:0xff81203d88bd42e5!8m2!3d-8.660183!4d115.195563!16s%2Fg%2F1pzwkhy4_!19sChIJk_8BALRA0i0R5UK9iD0ggf8?authuser=0&hl=en&rclk=1,"-8.660183,115.19556299999999"
Al-Furqon Mosque,Mosque,"Al-Furqon Mosque, Jl. Swakarya Baru No.1, Dauh Puri Klod, Denpasar Barat, Denpasar City, Bali 80234, Indonesia","Dauh Puri Klod, Denpasar Barat",Jl. Swakarya Baru No.1,Denpasar City,80234,Bali,ID,https://www.google.com/maps/place/Al-Furqon+Mosque/data=!4m7!3m6!1s0x2dd240eb581ea3b7:0x47ea255f1010c7f2!8m2!3d-8.670695!4d115.218486!16s%2Fg%2F11bbt9nqdp!19sChIJt6MeWOtA0i0R8scQEF8l6kc?authuser=0&hl=en&rclk=1,"-8.670695,115.218486"
Great Mosque Tabanan,Mosque,"Great Mosque Tabanan, Jl. Kamboja Desa No.14, Dauh Peken, Tabanan, Tabanan Regency, Bali 82111, Indonesia","Dauh Peken, Tabanan",Jl. Kamboja Desa No.14,Tabanan Regency,82111,Bali,ID,https://www.google.com/maps/place/Great+Mosque+Tabanan/data=!4m7!3m6!1s0x2dd23a5bee6ff4ab:0x37c618f1407f3805!8m2!3d-8.5410418!4d115.1246193!16s%2Fg%2F1hm417qn2!19sChIJq_Rv7ls60i0RBTh_QPEYxjc?authuser=0&hl=en&rclk=1,"-8.5410418,115.12461929999999"
Mushalla Beachwalk,Mosque,"75MC+72C Mushalla Beachwalk, Kuta, Badung Regency, Bali 80361, Indonesia",Kuta,75MC+72C,Badung Regency,80361,Bali,ID,https://www.google.com/maps/place/Mushalla+Beachwalk/data=!4m7!3m6!1s0x2dd246bedbf9ace7:0x108541bb05f636bd!8m2!3d-8.7168195!4d115.1700301!16s%2Fg%2F11cjp80v68!19sChIJ56z5275G0i0RvTb2BbtBhRA?authuser=0&hl=en&rclk=1,"-8.7168195,115.17003009999999"
Masjid Besar Al Hidayah,Mosque,"Masjid Besar Al Hidayah, Candikuning, Baturiti, Tabanan Regency, Bali 82191, Indonesia","Candikuning, Baturiti",,Tabanan Regency,82191,Bali,ID,https://www.google.com/maps/place/Masjid+Besar+Al+Hidayah/data=!4m7!3m6!1s0x2dd18912d58fcd2b:0x121e100cb7cde488!8m2!3d-8.2777012!4d115.1649825!16s%2Fg%2F11fx913f6s!19sChIJK82P1RKJ0S0RiOTNtwwQHhI?authuser=0&hl=en&rclk=1,"-8.2777012,115.1649825"
At Taqwa Mosque,Mosque,"At Taqwa Mosque, Jl. Bidadari II No.E No.11, Kerobokan Kelod, Kuta Utara, Badung Regency, Bali 80361, Indonesia","Kerobokan Kelod, Kuta Utara",Jl. Bidadari II No.E No.11,Badung Regency,80361,Bali,ID,https://www.google.com/maps/place/At+Taqwa+Mosque/data=!4m7!3m6!1s0x2dd2473c49a4901d:0xfdd9c850fc6d381f!8m2!3d-8.6800317!4d115.1686473!16s%2Fg%2F11b6gk9qgq!19sChIJHZCkSTxH0i0RHzht_FDI2f0?authuser=0&hl=en&rclk=1,"-8.680031699999999,115.16864729999999"
Masjid Besar Al-Muhajirin Kepaon,Mosque,"853W+7H4 Masjid Besar Al-Muhajirin Kepaon, JL. Raya Pemogan, Gang Masjid, Kampung Islam Kepaon, Pemogan, Pemogan, Denpasar Selatan, Kota Denpasar, Bali 80221, Indonesia","Pemogan, Denpasar Selatan","853W+7H4, JL. Raya Pemogan, Gang Masjid, Kampung Islam Kepaon, Pemogan",Denpasar City,80221,Bali,ID,https://www.google.com/maps/place/Masjid+Besar+Al-Muhajirin+Kepaon/data=!4m7!3m6!1s0x2dd24137e54dadd1:0x9c9801d560463f33!8m2!3d-8.6968625!4d115.1964434!16s%2Fg%2F1pzt4vh1t!19sChIJ0a1N5TdB0i0RMz9GYNUBmJw?authuser=0&hl=en&rclk=1,"-8.6968625,115.19644339999999"
Al-Fattah Mosque Taman Griya,Mosque,"Al-Fattah Mosque Taman Griya, taman griya, Jl. Danau Bratan Timur No.5, Jimbaran, South Kuta, Badung Regency, Bali 80361, Indonesia","Jimbaran, South Kuta","taman griya, Jl. Danau Bratan Timur No.5",Badung Regency,80361,Bali,ID,https://www.google.com/maps/place/Al-Fattah+Mosque+Taman+Griya/data=!4m7!3m6!1s0x2dd2449d7a0b7feb:0x9cf8bd27d945bf5a!8m2!3d-8.7858424!4d115.1884267!16s%2Fg%2F11b6hxw0q6!19sChIJ638Lep1E0i0RWr9F2Se9-Jw?authuser=0&hl=en&rclk=1,"-8.7858424,115.1884267"
Masjid Nurul Huda Kampung Gelgel,Mosque,"Masjid Nurul Huda Kampung Gelgel, Kampung Gelgel, Klungkung, Klungkung Regency, Bali 80761, Indonesia","Kampung Gelgel, Klungkung",,Klungkung Regency,80761,Bali,ID,https://www.google.com/maps/place/Masjid+Nurul+Huda+Kampung+Gelgel/data=!4m7!3m6!1s0x2dd211627e67cb67:0xc7362f8e9a5cec72!8m2!3d-8.5551639!4d115.4109605!16s%2Fg%2F11cnbytxkt!19sChIJZ8tnfmIR0i0Rcuxcmo4vNsc?authuser=0&hl=en&rclk=1,"-8.5551639,115.4109605"
IKMS Bali,Mosque,"IKMS Bali, Br. Sari Buana, Jl. Gn. Lebah No.25, Tegal Harum, Denpasar Barat, Denpasar City, Bali 80119, Indonesia","Tegal Harum, Denpasar Barat","Br. Sari Buana, Jl. Gn. Lebah No.25",Denpasar City,80119,Bali,ID,https://www.google.com/maps/place/IKMS+Bali/data=!4m7!3m6!1s0x2dd240b47225f07b:0x25387c15d13613a9!8m2!3d-8.6670778!4d115.1931052!16s%2Fg%2F1q67qcvbr!19sChIJe_AlcrRA0i0RqRM20RV8OCU?authuser=0&hl=en&rclk=1,"-8.6670778,115.19310519999999"
Masjid Jami'Mujahidin,Mosque,"66W9+P9C Masjid Jami'Mujahidin, Jalan Segara Lor, Tanjung Benoa, Kuta, Benoa, Kec. Kuta Sel., Kabupaten Badung, Bali 80361, Indonesia","Benoa, South Kuta","66W9+P9C, Jalan Segara Lor, Tanjung Benoa, Kuta",Badung Regency,80361,Bali,ID,https://www.google.com/maps/place/Masjid+Jami%27Mujahidin/data=!4m7!3m6!1s0x2dd243b8d8c3aa49:0xecaf7a6afd079cca!8m2!3d-8.7531968!4d115.2183803!16s%2Fg%2F1pzv5ldhg!19sChIJSarD2LhD0i0RypwH_Wp6r-w?authuser=0&hl=en&rclk=1,"-8.7531968,115.21838029999999"
Masjid Agung Bangli,Mosque,"Masjid Agung Bangli, Jl. Lettu Lila No.5, Kawan, Kec. Bangli, Kabupaten Bangli, Bali 80614, Indonesia","Kawan, Bangli",Jl. Lettu Lila No.5,Bangli Regency,80614,Bali,ID,https://www.google.com/maps/place/Masjid+Agung+Bangli/data=!4m7!3m6!1s0x2dd219c1eb5afc37:0x7bbcd66d93640d7e!8m2!3d-8.4631824!4d115.35421!16s%2Fg%2F1pztnh6s7!19sChIJN_xa68EZ0i0Rfg1kk23WvHs?authuser=0&hl=en&rclk=1,"-8.463182399999999,115.35421"
Mosque Ubudiah,Mosque,"F7FC+3GV Mosque Ubudiah, Jl. Cok Rai Pudak, Peliatan, Ubud, Gianyar Regency, Bali 80571, Indonesia","Peliatan, Ubud","F7FC+3GV, Jl. Cok Rai Pudak",Gianyar Regency,80571,Bali,ID,https://www.google.com/maps/place/Mosque+Ubudiah/data=!4m7!3m6!1s0x2dd23d9cd1aad83d:0x2710386168c695c8!8m2!3d-8.5271791!4d115.2712862!16s%2Fg%2F11hb3srssv!19sChIJPdiq0Zw90i0RyJXGaGE4ECc?authuser=0&hl=en&rclk=1,"-8.5271791,115.27128619999999"
Masjid Al Muhajirin,Mosque,"Masjid Al Muhajirin, Bukit Sanggulan Indah, Jl. Tukad Ayung No.2, Banjar Anyar, Kec. Kediri, Kabupaten Tabanan, Bali 82121, Indonesia","Banjar Anyar, Kediri","Bukit Sanggulan Indah, Jl. Tukad Ayung No.2",Tabanan Regency,82121,Bali,ID,https://www.google.com/maps/place/Masjid+Al+Muhajirin/data=!4m7!3m6!1s0x2dd23a536ad56a89:0xc1a89a831f80ef5c!8m2!3d-8.5403829!4d115.1399342!16s%2Fg%2F120jr4cv!19sChIJiWrValM60i0RXO-AH4OaqME?authuser=0&hl=en&rclk=1,"-8.540382899999999,115.1399342"
Masjid Al Mujahidin,Mosque,"Masjid Al Mujahidin, Jl. Raya Kuta Gg. Rai Yasa No.10, Kuta, Badung Regency, Bali 80361, Indonesia",Kuta,Jl. Raya Kuta Gg. Rai Yasa No.10,Badung Regency,80361,Bali,ID,https://www.google.com/maps/place/Masjid+Al+Mujahidin/data=!4m7!3m6!1s0x2dd246a56e4fac33:0x5edcb85d874bb90b!8m2!3d-8.725591!4d115.176651!16s%2Fg%2F11ckxxh1hj!19sChIJM6xPbqVG0i0RC7lLh1243F4?authuser=0&hl=en&rclk=1,"-8.725591,115.17665099999999"
Masjid At Taqwa Polda Bali,Mosque,"Masjid At Taqwa Polda Bali, Jl. WR Supratman No.19, Dangin Puri Kangin, Denpasar Utara, Denpasar City, Bali 80236, Indonesia","Dangin Puri Kangin, Denpasar Utara",Jl. WR Supratman No.19,Denpasar City,80236,Bali,ID,https://www.google.com/maps/place/Masjid+At+Taqwa+Polda+Bali/data=!4m7!3m6!1s0x2dd23fdb4ea47057:0xd9384271f3b8e634!8m2!3d-8.6489903!4d115.2259763!16s%2Fg%2F11fktvzq_5!19sChIJV3CkTts_0i0RNOa483FCONk?authuser=0&hl=en&rclk=1,"-8.6489903,115.2259763"
Al Hikmah Mosque,Mosque,"Al Hikmah Mosque, Jl. Soka No.18, Kesiman Kertalangu, East Denpasar, Denpasar City, Bali 80237, Indonesia","Kesiman Kertalangu, East Denpasar",Jl. Soka No.18,Denpasar City,80237,Bali,ID,https://www.google.com/maps/place/Al+Hikmah+Mosque/data=!4m7!3m6!1s0x2dd23f883438f027:0xb2dcd9a36b5c78ce!8m2!3d-8.6454693!4d115.2501109!16s%2Fg%2F1pzxgtm61!19sChIJJ_A4NIg_0i0Rznhca6PZ3LI?authuser=0&hl=en&rclk=1,"-8.6454693,115.2501109"
Sadar Sesetan Mosque,Mosque,"Sadar Sesetan Mosque, Jl. Tegal Wangi Gg. Kenanga No.13, Sesetan, Denpasar Selatan, Denpasar City, Bali 80223, Indonesia","Sesetan, Denpasar Selatan",Jl. Tegal Wangi Gg. Kenanga No.13,Denpasar City,80223,Bali,ID,https://www.google.com/maps/place/Sadar+Sesetan+Mosque/data=!4m7!3m6!1s0x2dd240e3ca1cf121:0x1db17df987a840b6!8m2!3d-8.6885183!4d115.2208122!16s%2Fg%2F1pzxqs_wm!19sChIJIfEcyuNA0i0RtkCoh_l9sR0?authuser=0&hl=en&rclk=1,"-8.6885183,115.2208122"
Masjid Besar Al Muhajirin,Mosque,"Q85G+W8M Masjid Besar Al Muhajirin, Kintamani, Bangli Regency, Bali 80652, Indonesia",Kintamani,Q85G+W8M,Bangli Regency,80652,Bali,ID,https://www.google.com/maps/place/Masjid+Besar+Al+Muhajirin/data=!4m7!3m6!1s0x2dd1f481f194e54b:0xcb8d4a0ea742d2ec!8m2!3d-8.2401674!4d115.3257911!16s%2Fg%2F11bwf7znq4!19sChIJS-WU8YH00S0R7NJCpw5Kjcs?authuser=0&hl=en&rclk=1,"-8.240167399999999,115.32579109999999"
"Masjid Jami' Baitul Mustaqim, Jimbaran",Mosque,"Masjid Jami' Baitul Mustaqim, Jimbaran, Jl. Celagi Basur No.18X, Jimbaran, South Kuta, Badung Regency, Bali 80361, Indonesia","Jimbaran, South Kuta",Jl. Celagi Basur No.18X,Badung Regency,80361,Bali,ID,"https://www.google.com/maps/place/Masjid+Jami%27+Baitul+Mustaqim,+Jimbaran/data=!4m7!3m6!1s0x2dd24491be271b55:0xc60c2f480e3a71d8!8m2!3d-8.7860598!4d115.1726644!16s%2Fg%2F11bw1pc0mm!19sChIJVRsnvpFE0i0R2HE6DkgvDMY?authuser=0&hl=en&rclk=1","-8.7860598,115.17266439999999"
Masjid Agung Jami',Mosque,"Masjid Agung Jami', Jl. Imam Bonjol No.65, Kampung Kajanan, Buleleng, Buleleng Regency, Bali 81114, Indonesia","Kampung Kajanan, Buleleng",Jl. Imam Bonjol No.65,Buleleng Regency,81114,Bali,ID,https://www.google.com/maps/place/Masjid+Agung+Jami%27/data=!4m7!3m6!1s0x2dd19a08c38ef24f:0x25df9ef19933ff2c!8m2!3d-8.1058242!4d115.0894062!16s%2Fg%2F1z3t2bby7!19sChIJT_KOwwia0S0RLP8zmfGe3yU?authuser=0&hl=en&rclk=1,"-8.105824199999999,115.0894062"
Al Ghuroba Mosque,Mosque,"Al Ghuroba Mosque, Jl. Nusa Ceningan No.6, Dauh Puri Klod, Denpasar Barat, Denpasar City, Bali 80114, Indonesia","Dauh Puri Klod, Denpasar Barat",Jl. Nusa Ceningan No.6,Denpasar City,80114,Bali,ID,https://www.google.com/maps/place/Al+Ghuroba+Mosque/data=!4m7!3m6!1s0x2dd240c1732b8467:0xf87cc9f034a38a88!8m2!3d-8.6745243!4d115.2091122!16s%2Fg%2F11c3k30s3f!19sChIJZ4Qrc8FA0i0RiIqjNPDJfPg?authuser=0&hl=en&rclk=1,"-8.6745243,115.20911219999999"
Misykatul Huda Bajera Grand Mosque,Mosque,"Misykatul Huda Bajera Grand Mosque, Jl. Raya Denpasar - Gilimanuk No.16, Bajera, Selemadeg, Tabanan Regency, Bali 82162, Indonesia","Bajera, Selemadeg",Jl. Raya Denpasar - Gilimanuk No.16,Tabanan Regency,82162,Bali,ID,https://www.google.com/maps/place/Misykatul+Huda+Bajera+Grand+Mosque/data=!4m7!3m6!1s0x2dd22e206474e3bf:0xc6b8545a2835c3b2!8m2!3d-8.5005488!4d115.0253375!16s%2Fg%2F1hm4cn1cf!19sChIJv-N0ZCAu0i0RssM1KFpUuMY?authuser=0&hl=en&rclk=1,"-8.500548799999999,115.02533749999999"
Masjid Ar Rahman,Mosque,"Masjid Ar Rahman, Gg. I No.9, Renon, Denpasar Selatan, Denpasar City, Bali 80223, Indonesia","Renon, Denpasar Selatan",Gg. I No.9,Denpasar City,80223,Bali,ID,https://www.google.com/maps/place/Masjid+Ar+Rahman/data=!4m7!3m6!1s0x2dd241aca42aa5c7:0x1f05db18f440ab8a!8m2!3d-8.6742961!4d115.2428215!16s%2Fg%2F1pzppph31!19sChIJx6UqpKxB0i0RiqtA9BjbBR8?authuser=0&hl=en&rclk=1,"-8.6742961,115.24282149999999"
Masjid Al Hijriyah,Mosque,"953G+C8W Masjid Al Hijriyah, Gg. II, Kerobokan Kaja, Kec. Kuta Utara, Kabupaten Badung, Bali 80361, Indonesia","Kerobokan Kaja, Kuta Utara","953G+C8W, Gg. II",Badung Regency,80361,Bali,ID,https://www.google.com/maps/place/Masjid+Al+Hijriyah/data=!4m7!3m6!1s0x2dd238a57bf9870b:0x2abf22d04d63c1c4!8m2!3d-8.6463824!4d115.1758262!16s%2Fg%2F1pzswm_x_!19sChIJC4f5e6U40i0RxMFjTdAivyo?authuser=0&hl=en&rclk=1,"-8.6463824,115.17582619999999"
Masjid Al-Ikhlas,Mosque,"Masjid Al-Ikhlas, Jl. Gunung Batukaru No.48B/114, Tegal Kertha, Kec. Denpasar Bar., Kota Denpasar, Bali 80112, Indonesia","Tegal Kertha, Denpasar Barat",Jl. Gunung Batukaru No.48B/114,Denpasar City,80112,Bali,ID,https://www.google.com/maps/place/Masjid+Al-Ikhlas/data=!4m7!3m6!1s0x2dd240af8e381d11:0x6c609c62fe30e662!8m2!3d-8.6597626!4d115.2003336!16s%2Fg%2F1hm603fmq!19sChIJER04jq9A0i0RYuYw_mKcYGw?authuser=0&hl=en&rclk=1,"-8.659762599999999,115.2003336"
Chandra Asri Mosque,Mosque,"Chandra Asri Mosque, Jl. Prof. Dr. Ida Bagus Mantra, Jl. Perum Puri Chandra Asri Jl. Arwana IV No.A105, Batubulan, Kec. Sukawati, Kabupaten Gianyar, Bali 80582, Indonesia","Batubulan, Sukawati","Jl. Prof. Dr. Ida Bagus Mantra, Jl. Perum Puri Chandra Asri Jl. Arwana IV No.A105",Gianyar Regency,80582,Bali,ID,https://www.google.com/maps/place/Chandra+Asri+Mosque/data=!4m7!3m6!1s0x2dd2400a510d036b:0xd3a17eca4351fcab!8m2!3d-8.6433142!4d115.2739389!16s%2Fg%2F1pzy5mgb9!19sChIJawMNUQpA0i0Rq_xRQ8p-odM?authuser=0&hl=en&rclk=1,"-8.643314199999999,115.27393889999999"
Musholla / Masjid Al-Azmi,Mosque,"Musholla / Masjid Al-Azmi, Gg. Klp. Buntu No.8, Kedonganan, Kuta, Badung Regency, Bali 80361, Indonesia","Kedonganan, Kuta",Gg. Klp. Buntu No.8,Badung Regency,80361,Bali,ID,https://www.google.com/maps/place/Musholla+%2F+Masjid+Al-Azmi/data=!4m7!3m6!1s0x2dd2446facd1389b:0x790d6e6b8331b99d!8m2!3d-8.7617723!4d115.1744896!16s%2Fg%2F11bxg19b79!19sChIJmzjRrG9E0i0Rnbkxg2tuDXk?authuser=0&hl=en&rclk=1,"-8.761772299999999,115.1744896"
Masjid Nurul Yaqin,Mosque,"F874+PC4 Masjid Nurul Yaqin, Semebaung, Bedulu, Kec. Gianyar, Kabupaten Gianyar, Bali 80581, Indonesia","Bedulu, Gianyar","F874+PC4, Semebaung",Gianyar Regency,80581,Bali,ID,https://www.google.com/maps/place/Masjid+Nurul+Yaqin/data=!4m7!3m6!1s0x2dd216389282f415:0xeb04a35135491993!8m2!3d-8.5357401!4d115.3060644!16s%2Fg%2F11b6y8ks66!19sChIJFfSCkjgW0i0RkxlJNVGjBOs?authuser=0&hl=en&rclk=1,"-8.5357401,115.3060644"
Masjid JOGLO,Mosque,"Masjid JOGLO, Jl. Pura Duwe No.9, Padangsambian Klod, Denpasar Barat, Denpasar City, Bali 80117, Indonesia","Padangsambian Klod, Denpasar Barat",Jl. Pura Duwe No.9,Denpasar City,80117,Bali,ID,https://www.google.com/maps/place/Masjid+JOGLO/data=!4m7!3m6!1s0x2dd2473472fda469:0x16a013490ba768e6!8m2!3d-8.6770893!4d115.1848345!16s%2Fg%2F11fxb8nfn4!19sChIJaaT9cjRH0i0R5minC0kToBY?authuser=0&hl=en&rclk=1,"-8.6770893,115.1848345"
Masjid Nurut Taqwa Yehsumbul,Mosque,"HQXR+856 Masjid Nurut Taqwa Yehsumbul, Jl. Raya Denpasar - Gilimanuk, Yeh Sumbul, Kec. Mendoyo, Kabupaten Jembrana, Bali 82261, Indonesia","Yeh Sumbul, Mendoyo","HQXR+856, Jl. Raya Denpasar - Gilimanuk",Jembrana Regency,82261,Bali,ID,https://www.google.com/maps/place/Masjid+Nurut+Taqwa+Yehsumbul/data=!4m7!3m6!1s0x2dd3d68c11896533:0xe73ac695b2f867a6!8m2!3d-8.4017199!4d114.7903823!16s%2Fg%2F11g72bqnf9!19sChIJM2WJEYzW0y0Rpmf4spXGOuc?authuser=0&hl=en&rclk=1,"-8.4017199,114.79038229999999"
Masjid Nur Hasanah,Mosque,"Masjid Nur Hasanah, Jl. Kartika Plaza No.99, Kuta, Badung Regency, Bali 80361, Indonesia",Kuta,Jl. Kartika Plaza No.99,Badung Regency,80361,Bali,ID,https://www.google.com/maps/place/Masjid+Nur+Hasanah/data=!4m7!3m6!1s0x2dd2441faa990005:0xb4566c4cdb4232!8m2!3d-8.7370581!4d115.1678296!16s%2Fg%2F11dz3g6gbp!19sChIJBQCZqh9E0i0RMkLbTGxWtAA?authuser=0&hl=en&rclk=1,"-8.737058099999999,115.16782959999999"
Istiqomah Grand Mosque,Mosque,"Istiqomah Grand Mosque, Perumahan Permai II/22, Jalan By Pass Ngurah Rai, Kuta, Badung, Kuta, Kec. Kuta, Kabupaten Badung, Bali 80361, Indonesia",Kuta,"Perumahan Permai II/22, Jalan By Pass Ngurah Rai, Kuta, Badung",Badung Regency,80361,Bali,ID,https://www.google.com/maps/place/Istiqomah+Grand+Mosque/data=!4m7!3m6!1s0x2dd246aef5ee64f1:0x718965975d99d45b!8m2!3d-8.7281251!4d115.1811698!16s%2Fg%2F1ptvwdfdf!19sChIJ8WTu9a5G0i0RW9SZXZdliXE?authuser=0&hl=en&rclk=1,"-8.7281251,115.18116979999999"
Masjid Nurul Hudha,Mosque,"HRJ6+2XQ Masjid Nurul Hudha, Pulukan, Pekutatan, Jembrana Regency, Bali, Indonesia","Pulukan, Pekutatan",HRJ6+2XQ,Jembrana Regency,,Bali,ID,https://www.google.com/maps/place/Masjid+Nurul+Hudha/data=!4m7!3m6!1s0x2dd3d41dd2db7397:0xf01c245d73b7b45!8m2!3d-8.4199205!4d114.8124798!16s%2Fg%2F1hm6j43xz!19sChIJl3Pb0h3U0y0RRXs710XCAQ8?authuser=0&hl=en&rclk=1,"-8.4199205,114.81247979999999"
Masjid Baiturrahman (Masjid Putih),Mosque,"HJ26+VJG Masjid Baiturrahman (Masjid Putih), Jl. Diponegoro, Karangasem, Kec. Karangasem, Kabupaten Karangasem, Bali 80811, Indonesia",Karangasem,"HJ26+VJG, Jl. Diponegoro",Karangasem Regency,80811,Bali,ID,https://www.google.com/maps/place/Masjid+Baiturrahman+%28Masjid+Putih%29/data=!4m7!3m6!1s0x2dd20633a0ca6639:0x8e4851a9cad13db8!8m2!3d-8.4478157!4d115.6115873!16s%2Fg%2F1pzxbb410!19sChIJOWbKoDMG0i0RuD3RyqlRSI4?authuser=0&hl=en&rclk=1,"-8.4478157,115.6115873"
Masjid Al Mu'awwanatul Khairiyah,Mosque,"76QG+MJJ Masjid Al Mu'awwanatul Khairiyah, Jl. Suwung Batan Kendal, Sesetan, Denpasar Selatan, Denpasar City, Bali, Indonesia","Sesetan, Denpasar Selatan","76QG+MJJ, Jl. Suwung Batan Kendal",Denpasar City,,Bali,ID,https://www.google.com/maps/place/Masjid+Al+Mu%E2%80%99awwanatul+Khairiyah/data=!4m7!3m6!1s0x2dd241731878262d:0xb282d4bf6beaf63!8m2!3d-8.7107937!4d115.2265204!16s%2Fg%2F11bwyv38yy!19sChIJLSZ4GHNB0i0RY6--9kstKAs?authuser=0&hl=en&rclk=1,"-8.7107937,115.2265204"
Baitul Amilin Grand Mosque,Mosque,"HQWW+P2V Baitul Amilin Grand Mosque, Jl. Raya Denpasar - Gilimanuk, Yeh Sumbul, Mendoyo, Jembrana Regency, Bali, Indonesia","Yeh Sumbul, Mendoyo","HQWW+P2V, Jl. Raya Denpasar - Gilimanuk",Jembrana Regency,,Bali,ID,https://www.google.com/maps/place/Baitul+Amilin+Grand+Mosque/data=!4m7!3m6!1s0x2dd3d69a89bb6b63:0xf1ac3e88c964a600!8m2!3d-8.4031343!4d114.7950583!16s%2Fg%2F1hm2qpdz0!19sChIJY2u7iZrW0y0RAKZkyYg-rPE?authuser=0&hl=en&rclk=1,"-8.4031343,114.7950583"
Masjid Bahari - Pelabuhan BENOA,Mosque,"Masjid Bahari - Pelabuhan BENOA, Jl. Raya Pelabuhan Benoa, Pedungan, Denpasar Selatan, Denpasar City, Bali, Indonesia","Pedungan, Denpasar Selatan",Jl. Raya Pelabuhan Benoa,Denpasar City,,Bali,ID,https://www.google.com/maps/place/Masjid+Bahari+-+Pelabuhan+BENOA/data=!4m7!3m6!1s0x2dd243e70f273053:0x60b540cbfc7acf1a!8m2!3d-8.7442872!4d115.2091451!16s%2Fg%2F11c469bx6m!19sChIJUzAnD-dD0i0RGs96_MtAtWA?authuser=0&hl=en&rclk=1,"-8.7442872,115.2091451"
As-Syuhada Mosque,Mosque,"76FP+P2X As-Syuhada Mosque, Jl. Tukad Pekaseh, Serangan, Denpasar Selatan, Denpasar City, Bali 80229, Indonesia","Serangan, Denpasar Selatan","76FP+P2X, Jl. Tukad Pekaseh",Denpasar City,80229,Bali,ID,https://www.google.com/maps/place/As-Syuhada+Mosque/data=!4m7!3m6!1s0x2dd2417f3e8f0cc7:0xa56d1c3939934950!8m2!3d-8.7256304!4d115.2350998!16s%2Fg%2F11c0q0bsm1!19sChIJxwyPPn9B0i0RUEmTOTkcbaU?authuser=0&hl=en&rclk=1,"-8.7256304,115.2350998"
Masjid Nurul Yatim,Mosque,"Masjid Nurul Yatim, Jl. Merdeka Raya IX No.21, Kuta, Badung Regency, Bali 80361, Indonesia",Kuta,Jl. Merdeka Raya IX No.21,Badung Regency,80361,Bali,ID,https://www.google.com/maps/place/Masjid+Nurul+Yatim/data=!4m7!3m6!1s0x2dd246b5f4be0c13:0x28c01e836dff9369!8m2!3d-8.7131853!4d115.1843815!16s%2Fg%2F11bwl056gx!19sChIJEwy-9LVG0i0RaZP_bYMewCg?authuser=0&hl=en&rclk=1,"-8.7131853,115.1843815"
Masjid Maryam Sholeh,Mosque,"852Q+FJ2 Masjid Maryam Sholeh, Pemecutan Klod, Kec. Denpasar Bar., Kota Denpasar, Bali 80119, Indonesia","Pemecutan Klod, Denpasar Barat",852Q+FJ2,Denpasar City,80119,Bali,ID,https://www.google.com/maps/place/Masjid+Maryam+Sholeh/data=!4m7!3m6!1s0x2dd246d349cfb44b:0x7c8ed91df5db1e6a!8m2!3d-8.6988692!4d115.1890165!16s%2Fg%2F11df0q6vvc!19sChIJS7TPSdNG0i0Rah7b9R3Zjnw?authuser=0&hl=en&rclk=1,"-8.698869199999999,115.1890165"
Masjid Nurut Taqwa,Mosque,"86RG+94R Masjid Nurut Taqwa, Jl. Kapten Japa, Dangin Puri Klod, East Denpasar, Denpasar City, Bali 80236, Indonesia","Dangin Puri Klod, East Denpasar","86RG+94R, Jl. Kapten Japa",Denpasar City,80236,Bali,ID,https://www.google.com/maps/place/Masjid+Nurut+Taqwa/data=!4m7!3m6!1s0x2dd2408553e7728b:0x81d95eff748e31c3!8m2!3d-8.6590195!4d115.2252766!16s%2Fg%2F11gcz392vt!19sChIJi3LnU4VA0i0RwzGOdP9e2YE?authuser=0&hl=en&rclk=1,"-8.6590195,115.2252766"
Great Mosque of Al-Fatah,Mosque,"FC73+664 Great Mosque of Al-Fatah, Jl. Teratai, Semarapura Kelod, Semarapura, Klungkung Regency, Bali 80761, Indonesia","Semarapura Kelod, Semarapura","FC73+664, Jl. Teratai",Klungkung Regency,80761,Bali,ID,https://www.google.com/maps/place/Great+Mosque+of+Al-Fatah/data=!4m7!3m6!1s0x2dd211401c596e2b:0xc38dd17859c9299b!8m2!3d-8.5369995!4d115.4030874!16s%2Fg%2F1pzsj7s6j!19sChIJK25ZHEAR0i0RmynJWXjRjcM?authuser=0&hl=en&rclk=1,"-8.5369995,115.40308739999999"
Masjid Baitus Shabirin,Mosque,"Masjid Baitus Shabirin, Jalan Tunggul Ametung III A No.15 - 15A, Denpasar Utara, Ubung Kaja, Kec. Denpasar Utara, Kota Denpasar, Bali 80115, Indonesia","Ubung Kaja, Denpasar Utara","Jalan Tunggul Ametung III A No.15 - 15A, Denpasar Utara",Denpasar City,80115,Bali,ID,https://www.google.com/maps/place/Masjid+Baitus+Shabirin/data=!4m7!3m6!1s0x2dd23f3bf5b5f61d:0x1998585316b0baaa!8m2!3d-8.624311!4d115.2056193!16s%2Fg%2F1pzwqplz6!19sChIJHfa19Ts_0i0RqrqwFlNYmBk?authuser=0&hl=en&rclk=1,"-8.624310999999999,115.2056193"
Mosque Masjid Al IKHLAS Sukawati,Mosque,"Mosque Masjid Al IKHLAS Sukawati, Jl. Raya Sukawati No.2, Sukawati, Gianyar Regency, Bali 80582, Indonesia",Sukawati,Jl. Raya Sukawati No.2,Gianyar Regency,80582,Bali,ID,https://www.google.com/maps/place/Mosque+Masjid+Al+IKHLAS+Sukawati/data=!4m7!3m6!1s0x2dd215809cee7813:0x3375c00ee6d10ab9!8m2!3d-8.6015307!4d115.2840129!16s%2Fg%2F11c5bngymv!19sChIJE3junIAV0i0RuQrR5g7AdTM?authuser=0&hl=en&rclk=1,"-8.6015307,115.2840129"
Masjid BTDC Nusa Dua,Mosque,"56WG+HMM Masjid BTDC Nusa Dua, Benoa, South Kuta, Badung Regency, Bali 80361, Indonesia","Benoa, South Kuta",56WG+HMM,Badung Regency,80361,Bali,ID,https://www.google.com/maps/place/Masjid+BTDC+Nusa+Dua/data=!4m7!3m6!1s0x2dd2432fb2bd1503:0x20462d93f3ad0720!8m2!3d-8.8035294!4d115.2266707!16s%2Fg%2F11c6q7v6n0!19sChIJAxW9si9D0i0RIAet85MtRiA?authuser=0&hl=en&rclk=1,"-8.8035294,115.2266707"
Masjid Musholla Mosque ITDC Nusa Dua,Mosque,"56WG+HRC Masjid Musholla Mosque ITDC Nusa Dua, Tourism Development Corporation ITDC, Benoa, South Kuta, Badung Regency, Bali 80361, Indonesia","Benoa, South Kuta",56WG+HRC Tourism Development Corporation ITDC,Badung Regency,80361,Bali,ID,https://www.google.com/maps/place/Masjid+Musholla+Mosque+ITDC+Nusa+Dua/data=!4m7!3m6!1s0x2dd2432f02c70183:0xcf4df8ab0297c0b0!8m2!3d-8.8035717!4d115.2270238!16s%2Fg%2F11c0xh855l!19sChIJgwHHAi9D0i0RsMCXAqv4Tc8?authuser=0&hl=en&rclk=1,"-8.803571699999999,115.2270238"
Masjid Al Falaq,Mosque,"Masjid Al Falaq, Jl. MT. Haryono No.1, Dauh Puri, Denpasar Barat, Denpasar City, Bali 80232, Indonesia","Dauh Puri, Denpasar Barat",Jl. MT. Haryono No.1,Denpasar City,80232,Bali,ID,https://www.google.com/maps/place/Masjid+Al+Falaq/data=!4m7!3m6!1s0x2dd24094219bce9b:0xafe2751a000ddc37!8m2!3d-8.6653428!4d115.2168342!16s%2Fg%2F1pzsrw9zj!19sChIJm86bIZRA0i0RN9wNABp14q8?authuser=0&hl=en&rclk=1,"-8.6653428,115.2168342"
Al-Hidayah Mosque,Mosque,"Al-Hidayah Mosque, jalan cokro aminoto, Gg. Jempring No.6, Sumerta Kaja, Kec. Denpasar Tim., Kota Denpasar, Bali 80236, Indonesia","Sumerta Kaja, East Denpasar","jalan cokro aminoto, Gg. Jempring No.6",Denpasar City,80236,Bali,ID,https://www.google.com/maps/place/Al-Hidayah+Mosque/data=!4m7!3m6!1s0x2dd23f46378785e7:0xcfecc9f2667b36c5!8m2!3d-8.6339401!4d115.202018!16s%2Fg%2F11g6bv8sly!19sChIJ54WHN0Y_0i0RxTZ7ZvLJ7M8?authuser=0&hl=en&rclk=1,"-8.6339401,115.202018"
Al-Falah Mosque,Mosque,"Q522+GQV Al-Falah Mosque, Jl. Raya Bedugul, Pancasari, Sukasada, Buleleng Regency, Bali 81161, Indonesia","Pancasari, Sukasada","Q522+GQV, Jl. Raya Bedugul",Buleleng Regency,81161,Bali,ID,https://www.google.com/maps/place/Al-Falah+Mosque/data=!4m7!3m6!1s0x2dd18ed28b0ccfe9:0xf74f1db2c0a14802!8m2!3d-8.2486269!4d115.1519187!16s%2Fg%2F1hm3dc235!19sChIJ6c8Mi9KO0S0RAkihwLIdT_c?authuser=0&hl=en&rclk=1,"-8.2486269,115.1519187"
Musholla Al Ikhlas,Mosque,"Musholla Al Ikhlas, Gg. Cendrawasih No.198, Kerobokan Kelod, Kuta Utara, Badung Regency, Bali 80361, Indonesia","Kerobokan Kelod, Kuta Utara",Gg. Cendrawasih No.198,Badung Regency,80361,Bali,ID,https://www.google.com/maps/place/Musholla+Al+Ikhlas/data=!4m7!3m6!1s0x2dd247daa3052233:0x9d4c1f257ea4fb7a!8m2!3d-8.6748939!4d115.1717066!16s%2Fg%2F11gj76r_gg!19sChIJMyIFo9pH0i0RevukfiUfTJ0?authuser=0&hl=en&rclk=1,"-8.674893899999999,115.1717066"
Masjid Al-Ikhlas,Mosque,"Masjid Al-Ikhlas, JL.Pulau Misol, No. 4A/I, Dangin Puri, Kec. Denpasar Tim., Kota Denpasar, Bali 80113, Indonesia","Dangin Puri, East Denpasar","JL.Pulau Misol, No. 4A/I",Denpasar City,80113,Bali,ID,https://www.google.com/maps/place/Masjid+Al-Ikhlas/data=!4m7!3m6!1s0x2dd2409b09dd3433:0x71c1628c7debcbf8!8m2!3d-8.6751741!4d115.2040409!16s%2Fg%2F1pzw_r8n1!19sChIJMzTdCZtA0i0R-MvrfYxiwXE?authuser=0&hl=en&rclk=1,"-8.6751741,115.2040409"
Masjid Al Fitrah,Mosque,"Masjid Al Fitrah, Jl. Gn. Mangu No.5, Tegal Kertha, Kec. Denpasar Bar., Kota Denpasar, Bali 80112, Indonesia","Tegal Kertha, Denpasar Barat",Jl. Gn. Mangu No.5,Denpasar City,80112,Bali,ID,https://www.google.com/maps/place/Masjid+Al+Fitrah/data=!4m7!3m6!1s0x2dd247545a7b9701:0x526a08dd0de80ebb!8m2!3d-8.6634431!4d115.1983925!16s%2Fg%2F1pzr_qc7w!19sChIJAZd7WlRH0i0Ruw7oDd0IalI?authuser=0&hl=en&rclk=1,"-8.6634431,115.1983925"
Musholla Al-Hijrah,Mosque,"Musholla Al-Hijrah, Jl. Bhinneka Nusa Kauh No.IV, Dalung, Kuta Utara, Badung Regency, Bali 80361, Indonesia","Dalung, Kuta Utara",Jl. Bhinneka Nusa Kauh No.IV,Badung Regency,80361,Bali,ID,https://www.google.com/maps/place/Musholla+Al-Hijrah/data=!4m7!3m6!1s0x2dd238c4aceeaa25:0xa4a5eff222f6c58f!8m2!3d-8.6228273!4d115.1715667!16s%2Fg%2F11c5wyn2lw!19sChIJJarurMQ40i0Rj8X2IvLvpaQ?authuser=0&hl=en&rclk=1,"-8.622827299999999,115.1715667"
Masjid Ahmad Dahlan,Mosque,"856W+V73 Masjid Ahmad Dahlan, JL. Batanta, Dauh Puri Kauh, Kec. Denpasar Bar., Kota Denpasar, Bali 80113, Indonesia","Dauh Puri Kauh, Denpasar Barat","856W+V73, JL. Batanta",Denpasar City,80113,Bali,ID,https://www.google.com/maps/place/Masjid+Ahmad+Dahlan/data=!4m7!3m6!1s0x2dd240d73df9a8cd:0xca13fd19fa519e5a!8m2!3d-8.6878639!4d115.1956576!16s%2Fg%2F1pzw8wh5w!19sChIJzaj5PddA0i0RWp5R-hn9E8o?authuser=0&hl=en&rclk=1,"-8.6878639,115.19565759999999"
Masjid Besar Mujahidin,Mosque,"Masjid Besar Mujahidin, West Loloan, Negara, Jembrana Regency, Bali 82218, Indonesia","West Loloan, Negara",,Jembrana Regency,82218,Bali,ID,https://www.google.com/maps/place/Masjid+Besar+Mujahidin/data=!4m7!3m6!1s0x2dd3d9865f581ea5:0x79436213cf875d30!8m2!3d-8.3674444!4d114.6194368!16s%2Fg%2F11n0kbntg5!19sChIJpR5YX4bZ0y0RMF2HzxNiQ3k?authuser=0&hl=en&rclk=1,"-8.3674444,114.61943679999999"
Masjid As-Sallam,Mosque,"Masjid As-Sallam, Komplek Angkasa Pura No.1, Jimbaran, South Kuta, Badung Regency, Bali 80361, Indonesia","Jimbaran, South Kuta",Komplek Angkasa Pura No.1,Badung Regency,80361,Bali,ID,https://www.google.com/maps/place/Masjid+As-Sallam/data=!4m7!3m6!1s0x2dd2452034bed819:0x299af8e4d4dc5263!8m2!3d-8.7842884!4d115.182085!16s%2Fg%2F11g0glcsqs!19sChIJGdi-NCBF0i0RY1Lc1OT4mik?authuser=0&hl=en&rclk=1,"-8.7842884,115.182085"
Miftahul Mubin Mosque,Mosque,"Miftahul Mubin Mosque, Jl. Kebun Raya No.7, Candikuning, Baturiti, Tabanan Regency, Bali 82191, Indonesia","Candikuning, Baturiti",Jl. Kebun Raya No.7,Tabanan Regency,82191,Bali,ID,https://www.google.com/maps/place/Miftahul+Mubin+Mosque/data=!4m7!3m6!1s0x2dd1890c48b73cc9:0xb238816200e3e406!8m2!3d-8.2841165!4d115.1615117!16s%2Fg%2F1pzx_y39d!19sChIJyTy3SAyJ0S0RBuTjAGKBOLI?authuser=0&hl=en&rclk=1,"-8.2841165,115.16151169999999"
Masjid Nurullah,Mosque,"Masjid Nurullah, Jl. P.B. Sudirman I No.88, Dauh Puri, Denpasar Barat, Denpasar City, Bali 80232, Indonesia","Dauh Puri, Denpasar Barat",Jl. P.B. Sudirman I No.88,Denpasar City,80232,Bali,ID,https://www.google.com/maps/place/Masjid+Nurullah/data=!4m7!3m6!1s0x2dd24091755a9f8d:0xaa209522d74a2346!8m2!3d-8.6635239!4d115.2213499!16s%2Fg%2F11c0rrv7k7!19sChIJjZ9adZFA0i0RRiNK1yKVIKo?authuser=0&hl=en&rclk=1,"-8.6635239,115.22134989999999"
Masjid Baiturrahman,Mosque,"J6GF+WFH Masjid Baiturrahman, Angantiga,, Petang, Kec. Petang, Kabupaten Badung, Bali 80353, Indonesia",Petang,"J6GF+WFH, Angantiga,",Badung Regency,80353,Bali,ID,https://www.google.com/maps/place/Masjid+Baiturrahman/data=!4m7!3m6!1s0x2dd2211b4f7a89e7:0x111b42376dbfd8e!8m2!3d-8.3726826!4d115.2237252!16s%2Fg%2F11c1ltr5k6!19sChIJ54l6Txsh0i0Rjv3bdiO0EQE?authuser=0&hl=en&rclk=1,"-8.3726826,115.22372519999999"
Masjid Al Abror Pabean,Mosque,"97CX+J48 Masjid Al Abror Pabean, Desa Br. Pabean Ketewel Sukawati, Gianyar, Kec. Gianyar, Kabupaten Gianyar, Bali 80511, Indonesia",Gianyar,"97CX+J48, Desa Br. Pabean Ketewel Sukawati",Gianyar Regency,80511,Bali,ID,https://www.google.com/maps/place/Masjid+Al+Abror+Pabean/data=!4m7!3m6!1s0x2dd21666cd5dfb21:0xb3b5eee6a5408e61!8m2!3d-8.6284517!4d115.2978274!16s%2Fg%2F1pzsl20yd!19sChIJIftdzWYW0i0RYY5ApebutbM?authuser=0&hl=en&rclk=1,"-8.6284517,115.29782739999999"
Musholla Baitul Amanah,Mosque,"Musholla Baitul Amanah, Polresta, Padangsambian, Denpasar Barat, Denpasar City, Bali 80117, Indonesia","Padangsambian, Denpasar Barat",Polresta,Denpasar City,80117,Bali,ID,https://www.google.com/maps/place/Musholla+Baitul+Amanah/data=!4m7!3m6!1s0x2dd238a9603ff945:0x5b4aa27d7b7285f6!8m2!3d-8.6490957!4d115.1831029!16s%2Fg%2F11d_1l9kxh!19sChIJRfk_YKk40i0R9oVye32iSls?authuser=0&hl=en&rclk=1,"-8.6490957,115.1831029"
Jabal Nur Mosque,Mosque,"56W5+V74 Jabal Nur Mosque, Benoa, South Kuta, Badung Regency, Bali 80361, Indonesia","Benoa, South Kuta",56W5+V74,Badung Regency,80361,Bali,ID,https://www.google.com/maps/place/Jabal+Nur+Mosque/data=!4m7!3m6!1s0x2dd2434898a56d75:0xbf06cc4d4797f158!8m2!3d-8.8028621!4d115.2082073!16s%2Fg%2F11c59xh2hk!19sChIJdW2lmEhD0i0RWPGXR03MBr8?authuser=0&hl=en&rclk=1,"-8.8028621,115.2082073"
Masjid Bali Bina Insani,Mosque,"Masjid Bali Bina Insani, Jl. Raya Timpag No.1, Meliling, Kec. Kerambitan, Kabupaten Tabanan, Bali 82161, Indonesia","Meliling, Kerambitan",Jl. Raya Timpag No.1,Tabanan Regency,82161,Bali,ID,https://www.google.com/maps/place/Masjid+Bali+Bina+Insani/data=!4m7!3m6!1s0x2dd2301ab5a7a0e7:0x26b623b9b15e42c5!8m2!3d-8.506489!4d115.081992!16s%2Fg%2F11c7v_8r0_!19sChIJ56CntRow0i0RxUJesbkjtiY?authuser=0&hl=en&rclk=1,"-8.506489,115.081992"
Masjid Jami' Al-Abror,Mosque,"GCRX+RXH Masjid Jami' Al-Abror, Jalan Raya Sinduwati, Sindu Wati, Sidemen, Sindu Wati, Karangasem, Kabupaten Karangasem, Bali 80864, Indonesia","Sindu Wati, Karangasem","GCRX+RXH, Jalan Raya Sinduwati, Sindu Wati, Sidemen",Karangasem Regency,80864,Bali,ID,https://www.google.com/maps/place/Masjid+Jami%27+Al-Abror/data=!4m7!3m6!1s0x2dd21abdf776d24f:0xced7beb74073efab!8m2!3d-8.4579259!4d115.4499959!16s%2Fg%2F11b6pjvvql!19sChIJT9J2970a0i0Rq-9zQLe-184?authuser=0&hl=en&rclk=1,"-8.4579259,115.44999589999999"
Masjid Al Furqan,Mosque,"Masjid Al Furqan, Padang Kartika III No.19, Kerobokan Kaja, Kec. Kuta Utara, Kabupaten Badung, Bali 80117, Indonesia","Kerobokan Kaja, Kuta Utara",Padang Kartika III No.19,Badung Regency,80117,Bali,ID,https://www.google.com/maps/place/Masjid+Al+Furqan/data=!4m7!3m6!1s0x2dd24756d7ed2d31:0xdbc5bcd7e70cc4d6!8m2!3d-8.6569211!4d115.1792448!16s%2Fg%2F11g65bsf9_!19sChIJMS3t11ZH0i0R1sQM59e8xds?authuser=0&hl=en&rclk=1,"-8.6569211,115.17924479999999"
masjid bndcc,Mosque,"56WG+HP8 masjid bndcc, Benoa, South Kuta, Badung Regency, Bali 80361, Indonesia","Benoa, South Kuta",56WG+HP8,Badung Regency,80361,Bali,ID,https://www.google.com/maps/place/masjid+bndcc/data=!4m7!3m6!1s0x2dd2432fad2fbf39:0xe12bad96adc2fa32!8m2!3d-8.8035941!4d115.2268225!16s%2Fg%2F11c1n180r6!19sChIJOb8vrS9D0i0RMvrCrZatK-E?authuser=0&hl=en&rclk=1,"-8.8035941,115.2268225"
Masjid Asy - Syuhada,Mosque,"Masjid Asy - Syuhada, Beachwalk Shopping Center, Jl. Pantai Kuta, Kuta, Kec. Kuta, Kabupaten Badung, Bali 80361, Indonesia",Kuta,"Beachwalk Shopping Center, Jl. Pantai Kuta",Badung Regency,80361,Bali,ID,https://www.google.com/maps/place/Masjid+Asy+-+Syuhada/data=!4m7!3m6!1s0x2dd247dbede6900b:0x39c30a0d7b131ba4!8m2!3d-8.7163953!4d115.1703469!16s%2Fg%2F11tnlgzpmj!19sChIJC5Dm7dtH0i0RpBsTew0Kwzk?authuser=0&hl=en&rclk=1,"-8.7163953,115.1703469"
Miftahul Jannah Mosque,Mosque,"HJ74+97G Miftahul Jannah Mosque, jeruk manis, Karangasem, Karangasem Regency, Bali 80811, Indonesia","jeruk manis, Karangasem",HJ74+97G,Karangasem Regency,80811,Bali,ID,https://www.google.com/maps/place/Miftahul+Jannah+Mosque/data=!4m7!3m6!1s0x2dd20648ce6f7535:0x6242647798a2dfc4!8m2!3d-8.436565!4d115.6057165!16s%2Fg%2F11dzdgcfhp!19sChIJNXVvzkgG0i0RxN-imHdkQmI?authuser=0&hl=en&rclk=1,"-8.436565,115.6057165"
Masjid Quba,Mosque,"Masjid Quba, Jl. Kartika I No.52, Dauh Puri, Denpasar Barat, Denpasar City, Bali 80232, Indonesia","Dauh Puri, Denpasar Barat",Jl. Kartika I No.52,Denpasar City,80232,Bali,ID,https://www.google.com/maps/place/Masjid+Quba/data=!4m7!3m6!1s0x2dd24090f6fc7b01:0x8f2f12358e54bf55!8m2!3d-8.6612394!4d115.2211747!16s%2Fg%2F11dxdwmvhp!19sChIJAXv89pBA0i0RVb9UjjUSL48?authuser=0&hl=en&rclk=1,"-8.6612394,115.22117469999999"
Masjid Al Amin - Raider 900,Mosque,"Masjid Al Amin - Raider 900, no 80361, Jl. Satria No.2, Tuban, Kec. Kuta, Kabupaten Badung, Bali 80361, Indonesia","Tuban, Kuta","no 80361, Jl. Satria No.2",Badung Regency,80361,Bali,ID,https://www.google.com/maps/place/Masjid+Al+Amin+-+Raider+900/data=!4m7!3m6!1s0x2dd244034850516f:0x78113cf88bce30d2!8m2!3d-8.7375905!4d115.1775599!16s%2Fg%2F11b6y5zq3f!19sChIJb1FQSANE0i0R0jDOi_g8EXg?authuser=0&hl=en&rclk=1,"-8.7375905,115.17755989999999"
Musholla Al Miftah STIKOM Bali,Mosque,"Musholla Al Miftah STIKOM Bali, STIKOM, Jl. Raya Puputan No.86, Renon, East Denpasar, Denpasar City, Bali 80234, Indonesia","Renon, East Denpasar","STIKOM, Jl. Raya Puputan No.86",Denpasar City,80234,Bali,ID,https://www.google.com/maps/place/Musholla+Al+Miftah+STIKOM+Bali/data=!4m7!3m6!1s0x2dd240f24881c587:0xdd468824f8671aff!8m2!3d-8.673093!4d115.226712!16s%2Fg%2F11g6p5dpkn!19sChIJh8WBSPJA0i0R_xpn-CSIRt0?authuser=0&hl=en&rclk=1,"-8.673093,115.22671199999999"
Masjid Al Huda,Mosque,"GHVW+FGG Masjid Al Huda, Subagan, Karangasem, Karangasem Regency, Bali 80813, Indonesia","Subagan, Karangasem",GHVW+FGG,Karangasem Regency,80813,Bali,ID,https://www.google.com/maps/place/Masjid+Al+Huda/data=!4m7!3m6!1s0x2dd20623e87f7fa7:0x2f673112377df590!8m2!3d-8.4563158!4d115.596336!16s%2Fg%2F11c45mlmj6!19sChIJp39_6CMG0i0RkPV9NxIxZy8?authuser=0&hl=en&rclk=1,"-8.4563158,115.596336"
Masjid Al-Quddus,Mosque,"GJMH+XMM Masjid Al-Quddus, Tumbu, Karangasem, Karangasem Regency, Bali 80811, Indonesia","Tumbu, Karangasem",GJMH+XMM,Karangasem Regency,80811,Bali,ID,https://www.google.com/maps/place/Masjid+Al-Quddus/data=!4m7!3m6!1s0x2dd20870cc6fca03:0x740e93d2683872dd!8m2!3d-8.4650329!4d115.6291832!16s%2Fg%2F11c4f2fq82!19sChIJA8pvzHAI0i0R3XI4aNKTDnQ?authuser=0&hl=en&rclk=1,"-8.465032899999999,115.6291832"
Anjuman E Najmi - Dawoodi Bohra Masjid - Denpasar Bali,Mosque,"Anjuman E Najmi - Dawoodi Bohra Masjid - Denpasar Bali, Jl. Kartini No.135, Dauh Puri Kaja, Denpasar Utara, Denpasar City, Bali 80231, Indonesia","Dauh Puri Kaja, Denpasar Utara",Jl. Kartini No.135,Denpasar City,80231,Bali,ID,https://www.google.com/maps/place/Anjuman+E+Najmi+-+Dawoodi+Bohra+Masjid+-+Denpasar+Bali/data=!4m7!3m6!1s0x2dd23f884c09aaab:0xb3d36633e5d58de1!8m2!3d-8.647599!4d115.2132716!16s%2Fg%2F11h5lkvnyq!19sChIJq6oJTIg_0i0R4Y3V5TNm07M?authuser=0&hl=en&rclk=1,"-8.647599,115.2132716"
Masjid Hidayatullah Lanud Ngurah Rai,Mosque,"755C+45J Masjid Hidayatullah Lanud Ngurah Rai, Tuban, Kec. Kuta, Kabupaten Badung, Bali 80361, Indonesia","Tuban, Kuta",755C+45J,Badung Regency,80361,Bali,ID,https://www.google.com/maps/place/Masjid+Hidayatullah+Lanud+Ngurah+Rai/data=!4m7!3m6!1s0x2dd244199b34f32f:0x5bb36509575848e3!8m2!3d-8.7421601!4d115.1703786!16s%2Fg%2F11c6ch35ck!19sChIJL_M0mxlE0i0R40hYVwlls1s?authuser=0&hl=en&rclk=1,"-8.7421601,115.17037859999999"
Masjid Alhikmah,Mosque,"Masjid Alhikmah, Jl. Baturiti Bedugul No.19, Batunya, Baturiti, Tabanan Regency, Bali 82191, Indonesia","Batunya, Baturiti",Jl. Baturiti Bedugul No.19,Tabanan Regency,82191,Bali,ID,https://www.google.com/maps/place/Masjid+Alhikmah/data=!4m7!3m6!1s0x2dd1890ddf71275f:0xe439a429c189b657!8m2!3d-8.2818566!4d115.159366!16s%2Fg%2F1pzsx9ylj!19sChIJXydx3w2J0S0RV7aJwSmkOeQ?authuser=0&hl=en&rclk=1,"-8.2818566,115.15936599999999"
TPQ nurul mu'min,Mosque,"TPQ nurul mu'min, Jl. Taman Giri, Benoa, South Kuta, Badung Regency, Bali 80361, Indonesia","Benoa, South Kuta",Jl. Taman Giri,Badung Regency,80361,Bali,ID,https://www.google.com/maps/place/TPQ+nurul+mu%27min/data=!4m7!3m6!1s0x2dd243af722983f1:0xbeb03606db89ddf2!8m2!3d-8.7919593!4d115.1929894!16s%2Fg%2F11gh4lnrs_!19sChIJ8YMpcq9D0i0R8t2J2wY2sL4?authuser=0&hl=en&rclk=1,"-8.7919593,115.1929894"
Masjid Nurul Iman The Patra Bali,Mosque,"Masjid Nurul Iman The Patra Bali, Kuta, Kec. Kuta, Kabupaten Badung, Bali 80361, Indonesia",Kuta,,Badung Regency,80361,Bali,ID,https://www.google.com/maps/place/Masjid+Nurul+Iman+The+Patra+Bali/data=!4m7!3m6!1s0x2dd24421c33c1459:0x159923c52e3a8139!8m2!3d-8.7381678!4d115.164344!16s%2Fg%2F11g6nc94k_!19sChIJWRQ8wyFE0i0ROYE6LsUjmRU?authuser=0&hl=en&rclk=1,"-8.7381678,115.164344"
"Al-Muhajirin Mosque, Dalung Permai",Mosque,"Al-Muhajirin Mosque, Dalung Permai, Jalan Bhineka Nusa Kangin Blok MM1 No.1, Dalung, Kec. Kuta Utara, Kabupaten Badung, Bali 80361, Indonesia","Dalung, Kuta Utara",Jalan Bhineka Nusa Kangin Blok MM1 No.1,Badung Regency,80361,Bali,ID,"https://www.google.com/maps/place/Al-Muhajirin+Mosque,+Dalung+Permai/data=!4m7!3m6!1s0x2dd2396795560ac9:0xd313a8851854e5b8!8m2!3d-8.6234501!4d115.1723687!16s%2Fg%2F11fm4m29rp!19sChIJyQpWlWc50i0RuOVUGIWoE9M?authuser=0&hl=en&rclk=1","-8.6234501,115.17236869999999"
Masjid Darul Hidayah Banjar Munduk,Mosque,"HJWR+QG2 Masjid Darul Hidayah Banjar Munduk, Air Kuning, Kec. Jembrana, Kabupaten Jembrana, Bali, Indonesia","Air Kuning, Jembrana",HJWR+QG2,Jembrana Regency,,Bali,ID,https://www.google.com/maps/place/Masjid+Darul+Hidayah+Banjar+Munduk/data=!4m7!3m6!1s0x2dd3d9783383aef9:0x74b10750a1c1e0d!8m2!3d-8.4031065!4d114.6412685!16s%2Fg%2F11gvsv33tr!19sChIJ-a6DM3jZ0y0RDR4cCnUQSwc?authuser=0&hl=en&rclk=1,"-8.4031065,114.6412685"
Mushola At-Thohiri,Mosque,"Mushola At-Thohiri, Jl. Pantai Kuta No.43, Kuta, Kec. Kuta, Kabupaten Badung, Bali 80361, Indonesia",Kuta,Jl. Pantai Kuta No.43,Badung Regency,80361,Bali,ID,https://www.google.com/maps/place/Mushola+At-Thohiri/data=!4m7!3m6!1s0x2dd246bf65644389:0x31a7f7c658d020bb!8m2!3d-8.7145248!4d115.1690511!16s%2Fg%2F11c6s53z9z!19sChIJiUNkZb9G0i0RuyDQWMb3pzE?authuser=0&hl=en&rclk=1,"-8.7145248,115.16905109999999"
Masjid Marhaban,Mosque,"GJX8+MCH Masjid Marhaban, Karangasem, Karangasem Regency, Bali 80811, Indonesia",Karangasem,GJX8+MCH,Karangasem Regency,80811,Bali,ID,https://www.google.com/maps/place/Masjid+Marhaban/data=!4m7!3m6!1s0x2dd207d2a8dd3bab:0x1d7303be9b5ab9a5!8m2!3d-8.4508124!4d115.6161117!16s%2Fg%2F11c48cy9s9!19sChIJqzvdqNIH0i0Rpblam74Dcx0?authuser=0&hl=en&rclk=1,"-8.4508124,115.61611169999999"
Masjid,Mosque,"Masjid, Gg. F1 No.1, Pemecutan, Denpasar Barat, Denpasar City, Bali 80111, Indonesia","Pemecutan, Denpasar Barat",Gg. F1 No.1,Denpasar City,80111,Bali,ID,https://www.google.com/maps/place/Masjid/data=!4m7!3m6!1s0x2dd240a8a7537961:0x11b990057325126!8m2!3d-8.6551867!4d115.2006859!16s%2Fg%2F11h9xn282h!19sChIJYXlTp6hA0i0RJlEyVwCZGwE?authuser=0&hl=en&rclk=1,"-8.6551867,115.2006859"
Mushola Al-Muhlisin,Mosque,"759G+6MF Mushola Al-Muhlisin, Gg. Bima, Kuta, Badung Regency, Bali 80361, Indonesia",Kuta,"759G+6MF, Gg. Bima",Badung Regency,80361,Bali,ID,https://www.google.com/maps/place/Mushola+Al-Muhlisin/data=!4m7!3m6!1s0x2dd246a7db0a4ffd:0x3d7f0642a3ad9e1c!8m2!3d-8.7319402!4d115.1766739!16s%2Fg%2F11f3jh_h33!19sChIJ_U8K26dG0i0RHJ6to0IGfz0?authuser=0&hl=en&rclk=1,"-8.7319402,115.1766739"
Masjid Jami Baiturrahim Kecicang Islam,Mosque,"Masjid Jami Baiturrahim Kecicang Islam, Bungaya Kangin, Kec. Bebandem, Kabupaten Karangasem, Bali 80811, Indonesia","Bungaya Kangin, Bebandem",,Karangasem Regency,80811,Bali,ID,https://www.google.com/maps/place/Masjid+Jami+Baiturrahim+Kecicang+Islam/data=!4m7!3m6!1s0x2dd20786deafab27:0xf759284401e03700!8m2!3d-8.4502965!4d115.5853353!16s%2Fg%2F11tjzfg1p1!19sChIJJ6uv3oYH0i0RADfgAUQoWfc?authuser=0&hl=en&rclk=1,"-8.4502965,115.5853353"
Bazaar masjid,Mosque,"Bazaar masjid, Jl. Pantai Batu Bolong No.56, Canggu, Kuta Utara, Badung Regency, Bali 80351, Indonesia","Canggu, Kuta Utara",Jl. Pantai Batu Bolong No.56,Badung Regency,80351,Bali,ID,https://www.google.com/maps/place/Bazaar+masjid/data=!4m7!3m6!1s0x2dd239af67231c7f:0x968318a8814c0de6!8m2!3d-8.6518521!4d115.134009!16s%2Fg%2F11tk6r0nw_!19sChIJfxwjZ6850i0R5g1MgagYg5Y?authuser=0&hl=en&rclk=1,"-8.6518521,115.13400899999999"
Musholla TELKOM,Mosque,"56WG+HQ5 Musholla TELKOM, Benoa, South Kuta, Badung Regency, Bali 80361, Indonesia","Benoa, South Kuta",56WG+HQ5,Badung Regency,80361,Bali,ID,https://www.google.com/maps/place/Musholla+TELKOM/data=!4m7!3m6!1s0x2dd2432e534b2bed:0x153901d24d81304d!8m2!3d-8.8036202!4d115.2269989!16s%2Fg%2F11c1plx5z7!19sChIJ7StLUy5D0i0RTTCBTdIBORU?authuser=0&hl=en&rclk=1,"-8.8036202,115.2269989"
Masjid @thekeranjamg,Mosque,"759H+736 Masjid @thekeranjamg, Kuta, Badung Regency, Bali 80361, Indonesia",Kuta,759H+736,Badung Regency,80361,Bali,ID,https://www.google.com/maps/place/Masjid+@thekeranjamg/data=!4m7!3m6!1s0x2dd247a180c1fa3f:0x9b327d023c217358!8m2!3d-8.7318353!4d115.177648!16s%2Fg%2F11h55bh1qv!19sChIJP_rBgKFH0i0RWHMhPAJ9Mps?authuser=0&hl=en&rclk=1,"-8.7318353,115.17764799999999"
Musholla Nur Syiyaahatinaa,Mosque,"Musholla Nur Syiyaahatinaa, Jl. Dharmawangsa No.88, Benoa, South Kuta, Badung Regency, Bali 80361, Indonesia","Benoa, South Kuta",Jl. Dharmawangsa No.88,Badung Regency,80361,Bali,ID,https://www.google.com/maps/place/Musholla+Nur+Syiyaahatinaa/data=!4m7!3m6!1s0x2dd25de2e5313467:0x7c0b9c4ee90f5c97!8m2!3d-8.8142148!4d115.1918509!16s%2Fg%2F11mp3816jm!19sChIJZzQx5eJd0i0Rl1wP6U6cC3w?authuser=0&hl=en&rclk=1,"-8.8142148,115.19185089999999"
Mushola,Mosque,"8527+C6V Mushola, Legian, Kuta, Badung Regency, Bali, Indonesia","Legian, Kuta",8527+C6V,Badung Regency,,Bali,ID,https://www.google.com/maps/place/Mushola/data=!4m7!3m6!1s0x2dd247fbe88950a3:0x4791b1b390550441!8m2!3d-8.6988825!4d115.1630607!16s%2Fg%2F11l30q2_9r!19sChIJo1CJ6PtH0i0RQQRVkLOxkUc?authuser=0&hl=en&rclk=1,"-8.6988825,115.16306069999999"
Masjid Depan RS Bali Med,Mosque,"JJQW+855 Masjid Depan RS Bali Med, Jl. Raya Denpasar - Gilimanuk, Dangin Tukadaya, Kec. Negara, Kabupaten Jembrana, Bali 82218, Indonesia","Dangin Tukadaya, Negara","JJQW+855, Jl. Raya Denpasar - Gilimanuk",Jembrana Regency,82218,Bali,ID,https://www.google.com/maps/place/Masjid+Depan+RS+Bali+Med/data=!4m7!3m6!1s0x2dd16274f17cc3cd:0x201baf5d20a80eb7!8m2!3d-8.3617486!4d114.6454786!16s%2Fg%2F11gbl37v__!19sChIJzcN88XRi0S0Rtw6oIF2vGyA?authuser=0&hl=en&rclk=1,"-8.3617486,114.64547859999999"
Musholla Krisna Oleh Oleh Bali Bypass,Mosque,"Musholla Krisna Oleh Oleh Bali Bypass, Gg. Patasari No.2, Kuta, Badung Regency, Bali 80361, Indonesia",Kuta,Gg. Patasari No.2,Badung Regency,80361,Bali,ID,https://www.google.com/maps/place/Musholla+Krisna+Oleh+Oleh+Bali+Bypass/data=!4m7!3m6!1s0x2dd2478f641e3643:0x265907e60c4c8c30!8m2!3d-8.7296204!4d115.1797008!16s%2Fg%2F11v6xhg1hr!19sChIJQzYeZI9H0i0RMIxMDOYHWSY?authuser=0&hl=en&rclk=1,"-8.7296204,115.17970079999999"
Musholla TVRI Bali,Mosque,"86JQ+Q6H Musholla TVRI Bali, Jl. Cok Agung Tresna, Sumerta Kelod, Kec. Denpasar Tim., Kota Denpasar, Bali 80234, Indonesia","Sumerta Kelod, East Denpasar","86JQ+Q6H, Jl. Cok Agung Tresna",Denpasar City,80234,Bali,ID,https://www.google.com/maps/place/Musholla+TVRI+Bali/data=!4m7!3m6!1s0x2dd2411191dc27cb:0x1b2ca454827a4a79!8m2!3d-8.6672922!4d115.2361103!16s%2Fg%2F11t5wtxd3j!19sChIJyyfckRFB0i0ReUp6glSkLBs?authuser=0&hl=en&rclk=1,"-8.6672922,115.23611029999999"
