name,main_category,address,address_ward,address_street,address_city,address_postal_code,address_state,address_country_code,link,coordinates
Madina Masjid,Mosque,"P9W5+WM5 Madina Masjid, Reti Chowk, Gorakhpur, Uttar Pradesh 273001",Qazipur Khurd,"P9W5+WM5, Reti Chowk",Gorakhpur,273001,Uttar Pradesh,IN,https://www.google.com/maps/place/Madina+Masjid/data=!4m7!3m6!1s0x399144729e82b39f:0xc6600f8b3f053c9f!8m2!3d26.7472571!4d83.3592333!16s%2Fg%2F11c1w06x1p!19sChIJn7OCnnJEkTkRnzwFP4sPYMY?authuser=0&hl=en&rclk=1,"26.7472571,83.3592333"
Masjid Rustampur Dhala,Mosque,"P9M9+44X Masjid Rustampur Dhala, Durga Mandir Rd, Mahuesugharpur, Transport Nagar, Gorakhpur, Uttar Pradesh 273010","Mahuesugharpur, Transport Nagar","P9M9+44X, Durga Mandir Rd",Gorakhpur,273010,Uttar Pradesh,IN,https://www.google.com/maps/place/Masjid+Rustampur+Dhala/data=!4m7!3m6!1s0x3991438886a86183:0x8d732cd132c92a69!8m2!3d26.7328593!4d83.3678662!16s%2Fg%2F11f0l1qvng!19sChIJg2GohohDkTkRaSrJMtEsc40?authuser=0&hl=en&rclk=1,"26.732859299999998,83.3678662"
Khapde Wali Masjid,Mosque,"Q9G8+G42 Khapde Wali Masjid, Mirzapur Pachpedwa, Gorakhpur, Uttar Pradesh 273015",Mirzapur Pachpedwa,Q9G8+G42,Gorakhpur,273015,Uttar Pradesh,IN,https://www.google.com/maps/place/Khapde+Wali+Masjid/data=!4m7!3m6!1s0x3991444e88e7308b:0x57c0130f887d61a9!8m2!3d26.7762528!4d83.3652811!16s%2Fg%2F11g659lzp6!19sChIJizDniE5EkTkRqWF9iA8TwFc?authuser=0&hl=en&rclk=1,"26.776252799999998,83.36528109999999"
"Jama Masjid, msjd Rasoolpur",Mosque,"Q9F3+737 Jama Masjid, msjd Rasoolpur, Chhowni Gorakhnath, Rasoolpur, Aditya Naga, Netaji Subas Chandra Bos Nagar Colony, Rajendra Nagar, Gorakhpur, Uttar Pradesh 273015","Netaji Subas Chandra Bos Nagar Colony, Rajendra Nagar","Q9F3+737, Chhowni Gorakhnath, Rasoolpur, Aditya Naga",Gorakhpur,273015,Uttar Pradesh,IN,"https://www.google.com/maps/place/Jama+Masjid,+%D9%85%D8%B3%D8%AC%D8%AF+Rasoolpur%E2%80%AD/data=!4m7!3m6!1s0x399144372ecee9d9:0xbfc93a4ff552ebf1!8m2!3d26.773174!4d83.3526666!16s%2Fg%2F1hc1jr175!19sChIJ2enOLjdEkTkR8etS9U86yb8?authuser=0&hl=en&rclk=1","26.773173999999997,83.35266659999999"
Jama Masjid - Gorakhnath,Mosque,"Q9C5+3C4 Jama Masjid - Gorakhnath, NH 29, North Humayunpur, Gorakhpur, Uttar Pradesh 273015",North Humayunpur,"Q9C5+3C4, NH 29",Gorakhpur,273015,Uttar Pradesh,IN,https://www.google.com/maps/place/Jama+Masjid+-+Gorakhnath/data=!4m7!3m6!1s0x39914447e8ae8851:0x265e71ca06c14d65!8m2!3d26.7701495!4d83.358593!16s%2Fg%2F11b6r6fbnw!19sChIJUYiu6EdEkTkRZU3BBspxXiY?authuser=0&hl=en&rclk=1,"26.7701495,83.358593"
Sultan Khan Mosque,Mosque,"P9R4+3FF Sultan Khan Mosque, Turakmanpur, TP Nagar, Basantpur, Gorakhpur, Uttar Pradesh 273001","Turakmanpur, TP Nagar, Basantpur",P9R4+3FF,Gorakhpur,273001,Uttar Pradesh,IN,https://www.google.com/maps/place/Sultan+Khan+Mosque/data=!4m7!3m6!1s0x3991440b3f485053:0x243d5e28ad9d08c8!8m2!3d26.7401927!4d83.3561566!16s%2Fg%2F11c48bml63!19sChIJU1BIPwtEkTkRyAidrShePSQ?authuser=0&hl=en&rclk=1,"26.740192699999998,83.35615659999999"
Hakeem Wasi Ahmad Masjid,Mosque,"Hakeem Wasi Ahmad Masjid, 9, Shahmaroof, Qazipur Khurd, Gorakhpur, Uttar Pradesh 273001",Qazipur Khurd,"9, Shahmaroof",Gorakhpur,273001,Uttar Pradesh,IN,https://www.google.com/maps/place/Hakeem+Wasi+Ahmad+Masjid/data=!4m7!3m6!1s0x3991447297a7209b:0x9c0c03ae13758150!8m2!3d26.7466248!4d83.3590597!16s%2Fg%2F11gzpczrw!19sChIJmyCnl3JEkTkRUIF1E64DDJw?authuser=0&hl=en&rclk=1,"26.7466248,83.3590597"
Unchwa Masjid,Mosque,"Q943+VJG Unchwa Masjid, Bade Kajipur, Gorakhpur, Uttar Pradesh 273005",Bade Kajipur,Q943+VJG,Gorakhpur,273005,Uttar Pradesh,IN,https://www.google.com/maps/place/Unchwa+Masjid/data=!4m7!3m6!1s0x39914415bc8862ed:0x4df42f468080d63d!8m2!3d26.7571908!4d83.3540701!16s%2Fg%2F11f3vjt924!19sChIJ7WKIvBVEkTkRPdaAgEYv9E0?authuser=0&hl=en&rclk=1,"26.7571908,83.3540701"
Akbari Jama Masjid,Mosque,"Q9F8+PPG Akbari Jama Masjid, Mirzapur Pachpedwa, Gorakhpur, Uttar Pradesh 273015",Mirzapur Pachpedwa,Q9F8+PPG,Gorakhpur,273015,Uttar Pradesh,IN,https://www.google.com/maps/place/Akbari+Jama+Masjid/data=!4m7!3m6!1s0x3991444e4abfa941:0xd85f0e5e024b2e9!8m2!3d26.7743162!4d83.3668435!16s%2Fg%2F1pxwfdgdt!19sChIJQam_Sk5EkTkR6bIk4OXwhQ0?authuser=0&hl=en&rclk=1,"26.774316199999998,83.3668435"
Masjid Chauraha,Mosque,"Q992+QMM Masjid Chauraha, Netaji Subas Chandra Bos Nagar Colony, Rajendra Nagar, Gorakhpur, Uttar Pradesh 273015","Netaji Subas Chandra Bos Nagar Colony, Rajendra Nagar",Q992+QMM,Gorakhpur,273015,Uttar Pradesh,IN,https://www.google.com/maps/place/Masjid+Chauraha/data=!4m7!3m6!1s0x3991443a198590e3:0x90f902744493459d!8m2!3d26.7694622!4d83.3516836!16s%2Fg%2F1hm3l03qx!19sChIJ45CFGTpEkTkRnUWTRHQC-ZA?authuser=0&hl=en&rclk=1,"26.7694622,83.3516836"
"Jafar Colony, jame noor masjid",Mosque,"Jafar Colony, jame noor masjid, Zafar Colony Masjid, Gorakhpur, Uttar Pradesh 273005",Ilahi Bagh,Zafar Colony Masjid,Gorakhpur,273005,Uttar Pradesh,IN,"https://www.google.com/maps/place/Jafar+Colony,+jame+noor+masjid/data=!4m7!3m6!1s0x39914421b2109599:0xbdf71c11bcafeb46!8m2!3d26.7602915!4d83.3390426!16s%2Fg%2F11c1x31l58!19sChIJmZUQsiFEkTkRRuuvvBEc970?authuser=0&hl=en&rclk=1","26.760291499999997,83.3390426"
Ek Minara Masjid msjd,Mosque,"Q935+GHH Ek Minara Masjid msjd, Bade Kajipur, Gorakhpur, Uttar Pradesh 273005",Bade Kajipur,Q935+GHH,Gorakhpur,273005,Uttar Pradesh,IN,https://www.google.com/maps/place/Ek+Minara+Masjid+%D9%85%D8%B3%D8%AC%D8%AF%E2%80%AD/data=!4m7!3m6!1s0x3991446b676b0851:0xcf801f76ea1762a4!8m2!3d26.753812!4d83.3589765!16s%2Fg%2F11c4bc7nj5!19sChIJUQhrZ2tEkTkRpGIX6nYfgM8?authuser=0&hl=en&rclk=1,"26.753812,83.3589765"
Masjid-e-Huda msjd,Mosque,"Masjid-e-Huda msjd, Islamabad (Devpokhar) 355, National Highway 29, Mirzapur Pachpedwa, Gorakhpur, Uttar Pradesh 273015",Mirzapur Pachpedwa,"Islamabad (Devpokhar) 355, National Highway 29",Gorakhpur,273015,Uttar Pradesh,IN,https://www.google.com/maps/place/Masjid-e-Huda+%D9%85%D8%B3%D8%AC%D8%AF%E2%80%AD/data=!4m7!3m6!1s0x3991444c7da48e6d:0xe0651decb12f09e7!8m2!3d26.7778416!4d83.3622367!16s%2Fg%2F1tgz3wvb!19sChIJbY6kfUxEkTkR5wkvsewdZeA?authuser=0&hl=en&rclk=1,"26.7778416,83.3622367"
Imambara Masjid msjd,Mosque,"P9X7+V6R Imambara Masjid msjd, Miyan Baza, Gorakhpur, Uttar Pradesh 273001",Miyan Baza,P9X7+V6R,Gorakhpur,273001,Uttar Pradesh,IN,https://www.google.com/maps/place/Imambara+Masjid+%D9%85%D8%B3%D8%AC%D8%AF%E2%80%AD/data=!4m7!3m6!1s0x3991446e77bb0c9b:0xa83eb8b97bdaf716!8m2!3d26.7497417!4d83.3630269!16s%2Fg%2F11gn1wspkk!19sChIJmwy7d25EkTkRFvfae7m4Pqg?authuser=0&hl=en&rclk=1,"26.749741699999998,83.3630269"
Ilahi Bagh Chowk Masjid,Mosque,"Q84V+6MF Ilahi Bagh Chowk Masjid, chowk, Ilahi Bagh, Gorakhpur, Uttar Pradesh 273001",Ilahi Bagh,"Q84V+6MF, chowk",Gorakhpur,273001,Uttar Pradesh,IN,https://www.google.com/maps/place/Ilahi+Bagh+Chowk+Masjid/data=!4m7!3m6!1s0x399144190002f959:0xa5410841b5baba2f!8m2!3d26.7555682!4d83.3441734!16s%2Fg%2F11b6vfwhc7!19sChIJWfkCABlEkTkRL7q6tUEIQaU?authuser=0&hl=en&rclk=1,"26.7555682,83.3441734"
Aman Masjid Chakshah Husain,Mosque,"Q9G7+42W Aman Masjid Chakshah Husain, Mirzapur Pachpedwa, Gorakhpur, Uttar Pradesh 273015",Mirzapur Pachpedwa,Q9G7+42W,Gorakhpur,273015,Uttar Pradesh,IN,https://www.google.com/maps/place/Aman+Masjid+Chakshah+Husain/data=!4m7!3m6!1s0x3991444935d9304b:0xc51905e3c6e161d0!8m2!3d26.7753677!4d83.3625817!16s%2Fg%2F11gbx8p52_!19sChIJSzDZNUlEkTkR0GHhxuMFGcU?authuser=0&hl=en&rclk=1,"26.7753677,83.36258169999999"
Sangi Mosque Markaz,Mosque,"P9W3+34F Sangi Mosque Markaz, TP Nagar, Bichhia, Gorakhpur, Uttar Pradesh 273005","TP Nagar, Bichhia",P9W3+34F,Gorakhpur,273005,Uttar Pradesh,IN,https://www.google.com/maps/place/Sangi+Mosque+Markaz/data=!4m7!3m6!1s0x3991440ddb194387:0xe3730abda89d8c2b!8m2!3d26.7451948!4d83.35279!16s%2Fg%2F1pxw9cfy1!19sChIJh0MZ2w1EkTkRK4ydqL0Kc-M?authuser=0&hl=en&rclk=1,"26.7451948,83.35279"
Dharamshala Bazar Masjid,Mosque,"Q96C+94G Dharamshala Bazar Masjid, Dharamshala Bazar, Bashratpur, Gorakhpur, Uttar Pradesh 273001","Dharamshala Bazar, Bashratpur",Q96C+94G,Gorakhpur,273001,Uttar Pradesh,IN,https://www.google.com/maps/place/Dharamshala+Bazar+Masjid/data=!4m7!3m6!1s0x3991445d726ccee1:0xcbd8f5d53e9396fb!8m2!3d26.7609279!4d83.3703132!16s%2Fg%2F11g6qj9crq!19sChIJ4c5scl1EkTkR-5aTPtX12Ms?authuser=0&hl=en&rclk=1,"26.7609279,83.3703132"
"Raza Masjid, Zafrabazar ,Kasaitola, Gorakhpur",Mosque,"Q953+PRP Raza Masjid, Zafrabazar ,Kasaitola, Gorakhpur, Bade Kajipur, Gorakhpur, Uttar Pradesh 273005",Bade Kajipur,Q953+PRP,Gorakhpur,273005,Uttar Pradesh,IN,"https://www.google.com/maps/place/Raza+Masjid,+Zafrabazar+,Kasaitola,+Gorakhpur/data=!4m7!3m6!1s0x3991443e2bf297a9:0x732aca0e8465dcae!8m2!3d26.7593304!4d83.3545637!16s%2Fg%2F11c6qbrt1b!19sChIJqZfyKz5EkTkRrtxlhA7KKnM?authuser=0&hl=en&rclk=1","26.7593304,83.3545637"
Noor Jama Masjid msjd,Mosque,"Noor Jama Masjid msjd, 92j, Chilmapur Road, Azad Nagar, Gorakhpur, Uttar Pradesh 273016",Azad Nagar,"92j, Chilmapur Road",Gorakhpur,273016,Uttar Pradesh,IN,https://www.google.com/maps/place/Noor+Jama+Masjid+%D9%85%D8%B3%D8%AC%D8%AF%E2%80%AD/data=!4m7!3m6!1s0x399143825f81058d:0x51fabb198f7dfe8a!8m2!3d26.7278263!4d83.3774316!16s%2Fg%2F11c6ccsq8z!19sChIJjQWBX4JDkTkRiv59jxm7-lE?authuser=0&hl=en&rclk=1,"26.7278263,83.3774316"
Ilahibagh Masjid msjd,Mosque,"Ilahibagh Masjid msjd, Unnamed Road, Daud Chak Housing Society, Ilahi Bagh, Gorakhpur, Uttar Pradesh 273001","Daud Chak Housing Society, Ilahi Bagh",Unnamed Road,Gorakhpur,273001,Uttar Pradesh,IN,https://www.google.com/maps/place/Ilahibagh+Masjid+%D9%85%D8%B3%D8%AC%D8%AF%E2%80%AD/data=!4m7!3m6!1s0x399144186c5e887b:0x947c7fcef109b1e!8m2!3d26.7576486!4d83.3453363!16s%2Fg%2F11g6nhw5mn!19sChIJe4hebBhEkTkRHpsQ7_zHRwk?authuser=0&hl=en&rclk=1,"26.7576486,83.3453363"
Agha Masjid msjd,Mosque,"Agha Masjid msjd, Tiwaripur Rd, Ilahi Bagh, Gorakhpur, Uttar Pradesh 273001",Ilahi Bagh,Tiwaripur Rd,Gorakhpur,273001,Uttar Pradesh,IN,https://www.google.com/maps/place/Agha+Masjid+%D9%85%D8%B3%D8%AC%D8%AF%E2%80%AD/data=!4m7!3m6!1s0x399144229ec15555:0x4900aa6ff984a128!8m2!3d26.7588618!4d83.3453125!16s%2Fg%2F11c1tk0grx!19sChIJVVXBniJEkTkRKKGE-W-qAEk?authuser=0&hl=en&rclk=1,"26.7588618,83.34531249999999"
Noorie Masjid msjd,Mosque,"P9Q3+WX4 Noorie Masjid msjd, Turakmanpur, TP Nagar, Basantpur, Gorakhpur, Uttar Pradesh 273001","Turakmanpur, TP Nagar, Basantpur",P9Q3+WX4,Gorakhpur,273001,Uttar Pradesh,IN,https://www.google.com/maps/place/Noorie+Masjid+%D9%85%D8%B3%D8%AC%D8%AF%E2%80%AD/data=!4m7!3m6!1s0x3991440b0a813e6b:0xfa94b1de1fdda661!8m2!3d26.7397661!4d83.3549667!16s%2Fg%2F11b6jfwcrw!19sChIJaz6BCgtEkTkRYabdH96xlPo?authuser=0&hl=en&rclk=1,"26.739766099999997,83.35496669999999"
"Halsiganj, Urdu Bazar, Masjid",Mosque,"P9X7+4M2 Halsiganj, Urdu Bazar, Masjid, Reti Chowk Rd, Qazipur Khurd, Gorakhpur, Uttar Pradesh 273001",Qazipur Khurd,"P9X7+4M2, Reti Chowk Rd",Gorakhpur,273001,Uttar Pradesh,IN,"https://www.google.com/maps/place/Halsiganj,+Urdu+Bazar,+Masjid/data=!4m7!3m6!1s0x3991446e1fe1b6f3:0xe574834056acc1f3!8m2!3d26.7477521!4d83.3641507!16s%2Fg%2F11gdm61ldl!19sChIJ87bhH25EkTkR88GsVkCDdOU?authuser=0&hl=en&rclk=1","26.7477521,83.3641507"
Ghosipur Tile Wali Masjid,Mosque,"Q85W+VPC Ghosipur Tile Wali Masjid, Tiwaripur Thana Rd, Ilahi Bagh, Gorakhpur, Uttar Pradesh 273001",Ilahi Bagh,"Q85W+VPC, Tiwaripur Thana Rd",Gorakhpur,273001,Uttar Pradesh,IN,https://www.google.com/maps/place/Ghosipur+Tile+Wali+Masjid/data=!4m7!3m6!1s0x3991443d3caf3539:0x2cf1fd4d84ff08ae!8m2!3d26.7596813!4d83.346753!16s%2Fg%2F11c1wshsdf!19sChIJOTWvPD1EkTkRrgj_hE398Sw?authuser=0&hl=en&rclk=1,"26.7596813,83.34675299999999"
Bagh Masjid,Mosque,"Q9C6+2MM Bagh Masjid, Ansari Rd, North Humayunpur, Gorakhpur, Uttar Pradesh 273015",North Humayunpur,"Q9C6+2MM, Ansari Rd",Gorakhpur,273015,Uttar Pradesh,IN,https://www.google.com/maps/place/Bagh+Masjid/data=!4m7!3m6!1s0x3991444614178879:0x788dd4159c7e1e0e!8m2!3d26.7700803!4d83.3616721!16s%2Fg%2F1tfxf2k5!19sChIJeYgXFEZEkTkRDh5-nBXUjXg?authuser=0&hl=en&rclk=1,"26.7700803,83.36167209999999"
Islamchak masjid,Mosque,"Islamchak masjid, Jaffra Bazar, Ilahi Bagh, Gorakhpur, Uttar Pradesh 273001","Jaffra Bazar, Ilahi Bagh",,Gorakhpur,273001,Uttar Pradesh,IN,https://www.google.com/maps/place/Islamchak+masjid/data=!4m7!3m6!1s0x399144161e8a12cd:0x207dfd76ad98bab8!8m2!3d26.7586512!4d83.3511531!16s%2Fg%2F11f4sylm_l!19sChIJzRKKHhZEkTkRuLqYrXb9fSA?authuser=0&hl=en&rclk=1,"26.7586512,83.35115309999999"
Masjid e Firdaus,Mosque,"P99G+68V Masjid e Firdaus, Gehuan Sagar Rd, Mahuesugharpur, Shakti Nagar Colony, Gorakhpur, Pathrara, Uttar Pradesh 273016","Mahuesugharpur, Shakti Nagar Colony","P99G+68V, Gehuan Sagar Rd","Gorakhpur, Pathrara",273016,Uttar Pradesh,IN,https://www.google.com/maps/place/Masjid+e+Firdaus/data=!4m7!3m6!1s0x3991439e8f5e3d43:0xc6ea9af1bf9c1ea2!8m2!3d26.7181099!4d83.3757953!16s%2Fg%2F11c1_tw2zr!19sChIJQz1ej55DkTkRoh6cv_Ga6sY?authuser=0&hl=en&rclk=1,"26.718109899999998,83.3757953"
MASJID E GOUSIYA,Mosque,"MASJID E GOUSIYA, Qazipur Khurd, Gorakhpur, Uttar Pradesh 273001",Qazipur Khurd,,Gorakhpur,273001,Uttar Pradesh,IN,https://www.google.com/maps/place/MASJID+E+GOUSIYA/data=!4m7!3m6!1s0x399144729e823dc3:0x485b29a4b89bdda1!8m2!3d26.7465699!4d83.3617367!16s%2Fg%2F1thxz65_!19sChIJwz2CnnJEkTkRod2buKQpW0g?authuser=0&hl=en&rclk=1,"26.746569899999997,83.3617367"
Umar Masjid msjd,Mosque,"P9GF+CMM Umar Masjid msjd, Chilmapur, Gorakhpur, Uttar Pradesh 273016",Chilmapur,P9GF+CMM,Gorakhpur,273016,Uttar Pradesh,IN,https://www.google.com/maps/place/Umar+Masjid+%D9%85%D8%B3%D8%AC%D8%AF%E2%80%AD/data=!4m7!3m6!1s0x399143835d146243:0x8ac27a929ca90542!8m2!3d26.7260875!4d83.374185!16s%2Fg%2F11c1rg5w14!19sChIJQ2IUXYNDkTkRQgWpnJJ6woo?authuser=0&hl=en&rclk=1,"26.7260875,83.374185"
Ayyubi Masjid msjd,Mosque,"Ayyubi Masjid msjd, Piprapur tiwaripur, Gorakhpur, 273001Uttar Pradesh, 273005","Jafhar Colony, Mohanlalpur","Piprapur tiwaripur, Gorakhpur, 273001Uttar Pradesh",Gorakhpur,273005,Uttar Pradesh,IN,https://www.google.com/maps/place/Ayyubi+Masjid+%D9%85%D8%B3%D8%AC%D8%AF%E2%80%AD/data=!4m7!3m6!1s0x399144222f2be1e9:0xc300c7322ee42f3c!8m2!3d26.7608345!4d83.3419616!16s%2Fg%2F1pxwp7156!19sChIJ6eErLyJEkTkRPC_kLjLHAMM?authuser=0&hl=en&rclk=1,"26.760834499999998,83.34196159999999"
NOOR MASJID,Mosque,"Q9F2+FFG NOOR MASJID, NOOR MASJID, AMRUTANIBAGH, Gorakhnath, Gorakhpur, Uttar Pradesh 273015","Ajay Nagar Colony, Netaji Subas Chandra Bos Nagar Colony, Gorakhnath","Q9F2+FFG, NOOR MASJID, AMRUTANIBAGH",Gorakhpur,273015,Uttar Pradesh,IN,https://www.google.com/maps/place/NOOR+MASJID/data=!4m7!3m6!1s0x3991443120d5e979:0x4a9a37f1142cbfa1!8m2!3d26.7736809!4d83.3512038!16s%2Fg%2F11gcwydryq!19sChIJeenVIDFEkTkRob8sFPE3mko?authuser=0&hl=en&rclk=1,"26.7736809,83.3512038"
Masjid Hakeem ji ki Bagh,Mosque,"P9JC+4RF Masjid Hakeem ji ki Bagh, Hakeem ji ki Bagh, Gorakhpur, Chilmapur, Gorakhpur, Uttar Pradesh 273016",Chilmapur,"P9JC+4RF, Hakeem ji ki Bagh, Gorakhpur",Gorakhpur,273016,Uttar Pradesh,IN,https://www.google.com/maps/place/Masjid+Hakeem+ji+ki+Bagh/data=!4m7!3m6!1s0x39914384211d85db:0x965dd84ad9fe676e!8m2!3d26.7303017!4d83.3720397!16s%2Fg%2F11g6qjtrt7!19sChIJ24UdIYRDkTkRbmf-2UrYXZY?authuser=0&hl=en&rclk=1,"26.7303017,83.3720397"
Mohammad Nagar Colony Masjid,Mosque,"QCM7+CGG Mohammad Nagar Colony Masjid, Vishwakarmapuram, Gorakhpur, Uttar Pradesh 273014",Vishwakarmapuram,QCM7+CGG,Gorakhpur,273014,Uttar Pradesh,IN,https://www.google.com/maps/place/Mohammad+Nagar+Colony+Masjid/data=!4m7!3m6!1s0x399145863e7e4a57:0x690243dd84c13b1a!8m2!3d26.7835729!4d83.4138146!16s%2Fg%2F11g0j4mw_k!19sChIJV0p-PoZFkTkRGjvBhN1DAmk?authuser=0&hl=en&rclk=1,"26.7835729,83.4138146"
Ghosipur Masjid msjd,Mosque,"Q86X+84P Ghosipur Masjid msjd, Tiwaripur Thana Rd, Ilahi Bagh, Gorakhpur, Uttar Pradesh 273005",Ilahi Bagh,"Q86X+84P, Tiwaripur Thana Rd",Gorakhpur,273005,Uttar Pradesh,IN,https://www.google.com/maps/place/Ghosipur+Masjid+%D9%85%D8%B3%D8%AC%D8%AF%E2%80%AD/data=!4m7!3m6!1s0x3991443d3caf3539:0x532dc20aefa43ae6!8m2!3d26.7608261!4d83.3478203!16s%2Fg%2F11c56r968n!19sChIJOTWvPD1EkTkR5jqk7wrCLVM?authuser=0&hl=en&rclk=1,"26.7608261,83.3478203"
Halsiganj Masjid,Mosque,"P9V4+H3M Halsiganj Masjid, TP Nagar, Basantpur, Gorakhpur, Uttar Pradesh 273001","TP Nagar, Basantpur",P9V4+H3M,Gorakhpur,273001,Uttar Pradesh,IN,https://www.google.com/maps/place/Halsiganj+Masjid/data=!4m7!3m6!1s0x3991440cf95a6fa9:0xdf85c20dce254a53!8m2!3d26.7439572!4d83.3551593!16s%2Fg%2F11h9xw_bgc!19sChIJqW9a-QxEkTkRU0olzg3Chd8?authuser=0&hl=en&rclk=1,"26.7439572,83.3551593"
aulia masjid msjd,Mosque,"Q9CQ+WQ4 aulia masjid msjd, Shahpur, Gorakhpur, Uttar Pradesh 273006",Shahpur,Q9CQ+WQ4,Gorakhpur,273006,Uttar Pradesh,IN,https://www.google.com/maps/place/aulia+masjid+%D9%85%D8%B3%D8%AC%D8%AF%E2%80%AD/data=!4m7!3m6!1s0x399144f0005fe09d:0x4aa0e9eca723eb92!8m2!3d26.7722658!4d83.3894605!16s%2Fg%2F11c2nxd48h!19sChIJneBfAPBEkTkRkusjp-zpoEo?authuser=0&hl=en&rclk=1,"26.7722658,83.3894605"
Haji Khadim Hussain Masjid,Mosque,"Q86W+RJQ Haji Khadim Hussain Masjid, Ilahi Bagh, Gorakhpur, Uttar Pradesh 273005",Ilahi Bagh,Q86W+RJQ,Gorakhpur,273005,Uttar Pradesh,IN,https://www.google.com/maps/place/Haji+Khadim+Hussain+Masjid/data=!4m7!3m6!1s0x399144232c2843f3:0x65f967e461fc89a5!8m2!3d26.762087!4d83.3466058!16s%2Fg%2F1pxw2q8t5!19sChIJ80MoLCNEkTkRpYn8YeRn-WU?authuser=0&hl=en&rclk=1,"26.762086999999998,83.34660579999999"
Bind Tola Masjid,Mosque,"Bind Tola Masjid, 273005, Jaffra Bazar, Ilahi Bagh, Gorakhpur, Uttar Pradesh 273005","Jaffra Bazar, Ilahi Bagh",273005,Gorakhpur,273005,Uttar Pradesh,IN,https://www.google.com/maps/place/Bind+Tola+Masjid/data=!4m7!3m6!1s0x3991443e09aa7eab:0x5c9635cd1120c854!8m2!3d26.759825!4d83.3523887!16s%2Fg%2F11g6qz79pt!19sChIJq36qCT5EkTkRVMggEc01llw?authuser=0&hl=en&rclk=1,"26.759825,83.35238869999999"
Baitul-Noor Jama Masjid,Mosque,"Q9G7+JMC Baitul-Noor Jama Masjid, Mirzapur Pachpedwa, Gorakhpur, Uttar Pradesh 273015",Mirzapur Pachpedwa,Q9G7+JMC,Gorakhpur,273015,Uttar Pradesh,IN,https://www.google.com/maps/place/Baitul-Noor+Jama+Masjid/data=!4m7!3m6!1s0x3991444ea271b2c7:0x9342cb12ab764e2!8m2!3d26.7765599!4d83.3641333!16s%2Fg%2F11g8h70csl!19sChIJx7Jxok5EkTkR4mS3KrEsNAk?authuser=0&hl=en&rclk=1,"26.7765599,83.36413329999999"
Sona Ke Kalsay Wali Masjid,Mosque,"Q922+F36 Sona Ke Kalsay Wali Masjid, Mirzapur, Gorakhpur, Uttar Pradesh 273005",Mirzapur,Q922+F36,Gorakhpur,273005,Uttar Pradesh,IN,https://www.google.com/maps/place/Sona+Ke+Kalsay+Wali+Masjid/data=!4m7!3m6!1s0x3991441119ec85e1:0x959ed6b80b9f001f!8m2!3d26.751164!4d83.3501359!16s%2Fg%2F11b_22vt1_!19sChIJ4YXsGRFEkTkRHwCfC7jWnpU?authuser=0&hl=en&rclk=1,"26.751164,83.3501359"
Jama Masjid,Mosque,"Q923+W72 Jama Masjid, Unnamed Road, Rahmat Nagar, Gorakhpur, Uttar Pradesh 273005",Rahmat Nagar,"Q923+W72, Unnamed Road",Gorakhpur,273005,Uttar Pradesh,IN,https://www.google.com/maps/place/Jama+Masjid/data=!4m7!3m6!1s0x399145e4ef630919:0xe37a817b77ceeaf4!8m2!3d26.7522649!4d83.3531396!16s%2Fg%2F11ffvtpm_d!19sChIJGQlj7-RFkTkR9OrOd3uBeuM?authuser=0&hl=en&rclk=1,"26.7522649,83.35313959999999"
"Jama Masjid, Ghosipur",Mosque,"Q85X+MG2 Jama Masjid, Ghosipur, Ilahi Bagh, Gorakhpur, Uttar Pradesh 273005",Ilahi Bagh,Q85X+MG2,Gorakhpur,273005,Uttar Pradesh,IN,"https://www.google.com/maps/place/Jama+Masjid,+Ghosipur/data=!4m7!3m6!1s0x3991443d649253bd:0xe0f9bc81096d7345!8m2!3d26.7591487!4d83.3487676!16s%2Fg%2F11g8xglhyd!19sChIJvVOSZD1EkTkRRXNtCYG8-eA?authuser=0&hl=en&rclk=1","26.759148699999997,83.3487676"
Diwan bazar mosque gorakhpur,Mosque,"Q945+6XV Diwan bazar mosque gorakhpur, Diwan Bazar, Bade Kajipur, Gorakhpur, Uttar Pradesh 273001","Diwan Bazar, Bade Kajipur",Q945+6XV,Gorakhpur,273001,Uttar Pradesh,IN,https://www.google.com/maps/place/Diwan+bazar+mosque+gorakhpur/data=!4m7!3m6!1s0x399145c93ec6a409:0x15583e09aceddaed!8m2!3d26.755611!4d83.3599322!16s%2Fg%2F11h3x5zymz!19sChIJCaTGPslFkTkR7drtrAk-WBU?authuser=0&hl=en&rclk=1,"26.755611,83.3599322"
Noori masjid,Mosque,"Noori masjid, Ahmad Nagar, chaksa Husain, Gorakhnath, Gorakhpur, Uttar Pradesh 273015",Gorakhnath,"Ahmad Nagar, chaksa Husain",Gorakhpur,273015,Uttar Pradesh,IN,https://www.google.com/maps/place/Noori+masjid/data=!4m7!3m6!1s0x3991455533d9fcff:0xbba4c3475be5adba!8m2!3d26.7734219!4d83.3664044!16s%2Fg%2F11qnt44f4d!19sChIJ__zZM1VFkTkRuq3lW0fDpLs?authuser=0&hl=en&rclk=1,"26.7734219,83.3664044"
Shahi Masjid Ilahibaghshhy msjd lhy bG,Mosque,"Q85W+2F2 Shahi Masjid Ilahibaghshhy msjd lhy bG, Unnamed Road, Daud Chak Housing Society, Ilahi Bagh, Gorakhpur, Uttar Pradesh 273001","Daud Chak Housing Society, Ilahi Bagh","Q85W+2F2, Unnamed Road",Gorakhpur,273001,Uttar Pradesh,IN,https://www.google.com/maps/place/Shahi+Masjid+Ilahibagh%D8%B4%D8%A7%DB%81%DB%8C+%D9%85%D8%B3%D8%AC%D8%AF+%D8%A7%D9%84%D9%B0%DA%BE%DB%8C+%D8%A8%D8%A7%D8%BA%E2%80%AD/data=!4m7!3m6!1s0x399144181a9044d7:0x20d089e634b53bf0!8m2!3d26.7575126!4d83.3461314!16s%2Fg%2F11c6rhh7ht!19sChIJ10SQGhhEkTkR8Du1NOaJ0CA?authuser=0&hl=en&rclk=1,"26.7575126,83.34613139999999"
Ghazi Masjid,Mosque,"Q944+35G Ghazi Masjid, Dr. Aziz Hospital Road, Ghazi Rauza, Gorakhpur, Uttar Pradesh 273001",Bade Kajipur,"Q944+35G, Dr. Aziz Hospital Road, Ghazi Rauza",Gorakhpur,273001,Uttar Pradesh,IN,https://www.google.com/maps/place/Ghazi+Masjid/data=!4m7!3m6!1s0x39914414f1dbe5d5:0xd7fd34183e0783a7!8m2!3d26.7551812!4d83.3554422!16s%2Fg%2F11c5g96kxw!19sChIJ1eXb8RREkTkRp4MHPhg0_dc?authuser=0&hl=en&rclk=1,"26.7551812,83.3554422"
Derwa Masjid msjd,Mosque,"Q932+678 Derwa Masjid msjd, Hasanganj, Gorakhpur, Uttar Pradesh 273005",Hasanganj,Q932+678,Gorakhpur,273005,Uttar Pradesh,IN,https://www.google.com/maps/place/Derwa+Masjid+%D9%85%D8%B3%D8%AC%D8%AF%E2%80%AD/data=!4m7!3m6!1s0x39914416cad64c43:0x1a0f766388e243c5!8m2!3d26.7530344!4d83.3507114!16s%2Fg%2F11fy4vk38t!19sChIJQ0zWyhZEkTkRxUPiiGN2Dxo?authuser=0&hl=en&rclk=1,"26.753034399999997,83.3507114"
msjd mwlwy sm`yl(Masjid Molvi Ismail),Mosque,"msjd mwlwy sm`yl(Masjid Molvi Ismail), 187, opposite Reliance tower, Qazipur Khurd, Gorakhpur, Uttar Pradesh 273001",Qazipur Khurd,"187, opposite Reliance tower",Gorakhpur,273001,Uttar Pradesh,IN,https://www.google.com/maps/place/%D9%85%D8%B3%D8%AC%D8%AF+%D9%85%D9%88%D9%84%D9%88%DB%8C+%D8%A7%D8%B3%D9%85%D9%B0%D8%B9%DB%8C%D9%84%28Masjid+Molvi+Ismail%29%E2%80%AD/data=!4m7!3m6!1s0x3991447240000001:0x40de51151f031c7d!8m2!3d26.7466019!4d83.3604268!16s%2Fg%2F11b6jglm53!19sChIJAQAAQHJEkTkRfRwDHxVR3kA?authuser=0&hl=en&rclk=1,"26.746601899999998,83.3604268"
Ansar Masjid msjd,Mosque,"Q9F6+JGV Ansar Masjid msjd, Mirzapur Pachpedwa, Gorakhpur, Uttar Pradesh 273015",Mirzapur Pachpedwa,Q9F6+JGV,Gorakhpur,273015,Uttar Pradesh,IN,https://www.google.com/maps/place/Ansar+Masjid+%D9%85%D8%B3%D8%AC%D8%AF%E2%80%AD/data=!4m7!3m6!1s0x399144491e667201:0x87b182b0e0361241!8m2!3d26.7741204!4d83.361306!16s%2Fg%2F11g6ww7d0w!19sChIJAXJmHklEkTkRQRI24LCCsYc?authuser=0&hl=en&rclk=1,"26.774120399999997,83.361306"
Hamidulla Nagar Masjid msjd,Mosque,"R92H+X9V Hamidulla Nagar Masjid msjd, Hamidullah Nagar Colony, Gorakhpur, Uttar Pradesh 273004",Hamidullah Nagar Colony,R92H+X9V,Gorakhpur,,Uttar Pradesh,IN,https://www.google.com/maps/place/Hamidulla+Nagar+Masjid+%D9%85%D8%B3%D8%AC%D8%AF%E2%80%AD/data=!4m7!3m6!1s0x399145a0a2f8d4bd:0x84ebbb958bb53687!8m2!3d26.8024917!4d83.3784077!16s%2Fg%2F11hbqcfsjy!19sChIJvdT4oqBFkTkRhza1i5W764Q?authuser=0&hl=en&rclk=1,"26.802491699999997,83.3784077"
Mecca Masjid,Mosque,"P9W8+P5G Mecca Masjid, Qazipur Khurd, Gorakhpur, Uttar Pradesh 273001",Qazipur Khurd,P9W8+P5G,Gorakhpur,273001,Uttar Pradesh,IN,https://www.google.com/maps/place/Mecca+Masjid/data=!4m7!3m6!1s0x399145e188ed7f43:0xce40ee83cbf6db7!8m2!3d26.7468097!4d83.3654546!16s%2Fg%2F11fmqrh_vk!19sChIJQ3_tiOFFkTkRt22_POgO5Aw?authuser=0&hl=en&rclk=1,"26.7468097,83.36545459999999"
Sufi hata Masjid,Mosque,"Sufi hata Masjid, Sufi Ahata Masjid, Ilahi Bagh, Gorakhpur, Uttar Pradesh 273005",Ilahi Bagh,Sufi Ahata Masjid,Gorakhpur,273005,Uttar Pradesh,IN,https://www.google.com/maps/place/Sufi+hata+Masjid/data=!4m7!3m6!1s0x3991443d35b8f243:0x18e79614db36812a!8m2!3d26.7602025!4d83.3470628!16s%2Fg%2F11c1n1djb9!19sChIJQ_K4NT1EkTkRKoE22xSW5xg?authuser=0&hl=en&rclk=1,"26.7602025,83.34706279999999"
Makka Masjid,Mosque,"Q9F7+35M Makka Masjid, machhli daftar Road, Zahidabad, Gorakhnath, Gorakhpur, Uttar Pradesh 273015","Zahidabad, Gorakhnath","Q9F7+35M, machhli daftar Road",Gorakhpur,273015,Uttar Pradesh,IN,https://www.google.com/maps/place/Makka+Masjid/data=!4m7!3m6!1s0x3991444f352d519f:0x49f0dd913ad53c2e!8m2!3d26.7727244!4d83.3629123!16s%2Fg%2F11f3rxzzg9!19sChIJn1EtNU9EkTkRLjzVOpHd8Ek?authuser=0&hl=en&rclk=1,"26.772724399999998,83.36291229999999"
Masjid,Mosque,"P9VG+Q24 Masjid, Bilandpur, Gorakhpur, Uttar Pradesh 273001",Bilandpur,P9VG+Q24,Gorakhpur,273001,Uttar Pradesh,IN,https://www.google.com/maps/place/Masjid/data=!4m7!3m6!1s0x3991456f68f9819f:0x5d770931dca04c8f!8m2!3d26.7443855!4d83.3750711!16s%2Fg%2F11hypn944v!19sChIJn4H5aG9FkTkRj0yg3DEJd10?authuser=0&hl=en&rclk=1,"26.7443855,83.3750711"
MSI Masjid,Mosque,"Q936+FJQ MSI Masjid, Buxipur Rd, Miyan Baza, Gorakhpur, Uttar Pradesh 273001",Miyan Baza,"Q936+FJQ, Buxipur Rd",Gorakhpur,273001,Uttar Pradesh,IN,https://www.google.com/maps/place/MSI+Masjid/data=!4m7!3m6!1s0x399145db9383b0d3:0x44c6cc0c5376ccf6!8m2!3d26.7537228!4d83.361595!16s%2Fg%2F11qgjm48_v!19sChIJ07CDk9tFkTkR9sx2UwzMxkQ?authuser=0&hl=en&rclk=1,"26.7537228,83.361595"
Masjid e Belal (Rasoolpur),Mosque,"Q8FX+CQP Masjid e Belal (Rasoolpur), Netaji Subas Chandra Bos Nagar Colony, Rajendra Nagar, Gorakhpur, Uttar Pradesh 273015","Netaji Subas Chandra Bos Nagar Colony, Rajendra Nagar",Q8FX+CQP,Gorakhpur,273015,Uttar Pradesh,IN,https://www.google.com/maps/place/Masjid+e+Belal+%28Rasoolpur%29/data=!4m7!3m6!1s0x39914431aaf4f381:0x9027ce3f75df3b40!8m2!3d26.7735885!4d83.3494558!16s%2Fg%2F11c2psv6zs!19sChIJgfP0qjFEkTkRQDvfdT_OJ5A?authuser=0&hl=en&rclk=1,"26.7735885,83.3494558"
JAAMA MASJID jm` msjd,Mosque,"P9V4+JWX JAAMA MASJID jm` msjd, Shahmaroof Rd, Urdu Bazar, Qazipur Khurd, Gorakhpur, Uttar Pradesh 273001","Urdu Bazar, Qazipur Khurd","P9V4+JWX, Shahmaroof Rd",Gorakhpur,273001,Uttar Pradesh,IN,https://www.google.com/maps/place/JAAMA+MASJID+%D8%AC%D8%A7%D9%85%D8%B9+%D9%85%D8%B3%D8%AC%D8%AF%E2%80%AD/data=!4m7!3m6!1s0x3991455f4c078e2b:0xfff92d168135d569!8m2!3d26.744113!4d83.3573522!16s%2Fg%2F11gxg96bfg!19sChIJK44HTF9FkTkRadU1gRYt-f8?authuser=0&hl=en&rclk=1,"26.744113,83.3573522"
Masjid e Hasan,Mosque,"Q9G3+J3C Masjid e Hasan, Rajendra Nagar, Gorakhpur, Uttar Pradesh 273015",Rajendra Nagar,Q9G3+J3C,Gorakhpur,273015,Uttar Pradesh,IN,https://www.google.com/maps/place/Masjid+e+Hasan/data=!4m7!3m6!1s0x39914434026d903f:0x8aeeaa5d82520eba!8m2!3d26.7765519!4d83.3526539!16s%2Fg%2F11gfxlc0wq!19sChIJP5BtAjREkTkRug5Sgl2q7oo?authuser=0&hl=en&rclk=1,"26.776551899999998,83.35265389999999"
Aqsa Masjid,Mosque,"Q9C8+HJC Aqsa Masjid, Mirzapur Pachpedwa, Gorakhpur, Uttar Pradesh 273017",Mirzapur Pachpedwa,Q9C8+HJC,Gorakhpur,273017,Uttar Pradesh,IN,https://www.google.com/maps/place/Aqsa+Masjid/data=!4m7!3m6!1s0x399145d3a9552a57:0xc8e6ae56776238e7!8m2!3d26.7714302!4d83.3665185!16s%2Fg%2F11gjhnbypb!19sChIJVypVqdNFkTkR5zhid1au5sg?authuser=0&hl=en&rclk=1,"26.771430199999998,83.3665185"
Makbare Wali Masjid,Mosque,"Makbare Wali Masjid, near, Ansari Rd, North Humayunpur, Gorakhpur, Uttar Pradesh 273015",North Humayunpur,"near, Ansari Rd",Gorakhpur,273015,Uttar Pradesh,IN,https://www.google.com/maps/place/Makbare+Wali+Masjid/data=!4m7!3m6!1s0x3991444669d3b159:0xde8ea8681d323fbf!8m2!3d26.7690568!4d83.3616048!16s%2Fg%2F11gbggl11h!19sChIJWbHTaUZEkTkRvz8yHWiojt4?authuser=0&hl=en&rclk=1,"26.769056799999998,83.3616048"
Gulshan -E- Madina masjid,Mosque,"Q9FW+2C6 Gulshan -E- Madina masjid, Jail Bypass Rd, Saraswati Puram, Gorakhpur, Uttar Pradesh 273014",Saraswati Puram,"Q9FW+2C6, Jail Bypass Rd",Gorakhpur,273014,Uttar Pradesh,IN,https://www.google.com/maps/place/Gulshan+-E-+Madina+masjid/data=!4m7!3m6!1s0x3991452d3dfaa97b:0xc2090452c48459aa!8m2!3d26.7725459!4d83.3960272!16s%2Fg%2F11hfjvh6bw!19sChIJe6n6PS1FkTkRqlmExFIECcI?authuser=0&hl=en&rclk=1,"26.772545899999997,83.39602719999999"
Masjid Huda Bakhtiyar,Mosque,"Q942+P7J Masjid Huda Bakhtiyar, Unnamed Road, Jaffra Bazar, Ilahi Bagh, Gorakhpur, Uttar Pradesh 273005","Jaffra Bazar, Ilahi Bagh","Q942+P7J, Unnamed Road",Gorakhpur,273005,Uttar Pradesh,IN,https://www.google.com/maps/place/Masjid+Huda+Bakhtiyar/data=!4m7!3m6!1s0x399144164397ba13:0xdb9022955cbd4062!8m2!3d26.7568492!4d83.3506393!16s%2Fg%2F11hbg87ppw!19sChIJE7qXQxZEkTkRYkC9XJUikNs?authuser=0&hl=en&rclk=1,"26.756849199999998,83.3506393"
Noorani Masjid (Ahle Sunnat Wal Jamat),Mosque,"Q977+HGP Noorani Masjid (Ahle Sunnat Wal Jamat), Tarang Crossing Flyover, Jatepur North, Gorakhpur, Uttar Pradesh 273017",Jatepur North,"Q977+HGP, Tarang Crossing Flyover",Gorakhpur,273017,Uttar Pradesh,IN,https://www.google.com/maps/place/Noorani+Masjid+%28Ahle+Sunnat+Wal+Jamat%29/data=!4m7!3m6!1s0x39914443e9afb64f:0x3ddbae231ecba2d9!8m2!3d26.7639716!4d83.3638252!16s%2Fg%2F11d_tkbhr0!19sChIJT7av6UNEkTkR2aLLHiOu2z0?authuser=0&hl=en&rclk=1,"26.763971599999998,83.3638252"
Kothe Wali Masjid,Mosque,"P9W4+MFX Kothe Wali Masjid, Geeta Press Rd, Diwan Dayaram, TP Nagar, Bade Kajipur, Gorakhpur, Uttar Pradesh 273005","Diwan Dayaram, TP Nagar, Bade Kajipur","P9W4+MFX, Geeta Press Rd",Gorakhpur,,Uttar Pradesh,IN,https://www.google.com/maps/place/Kothe+Wali+Masjid/data=!4m7!3m6!1s0x3991440d67c339d9:0xea1073fe010a21f0!8m2!3d26.7467337!4d83.3562259!16s%2Fg%2F11b_2wfn3p!19sChIJ2TnDZw1EkTkR8CEKAf5zEOo?authuser=0&hl=en&rclk=1,"26.7467337,83.3562259"
Jamali Masjid,Mosque,"Q9QC+MPQ Jamali Masjid, Indra Prastha Nagar, Ramjanki Nagar, Gorakhpur, Uttar Pradesh 273004","Indra Prastha Nagar, Ramjanki Nagar",Q9QC+MPQ,Gorakhpur,273004,Uttar Pradesh,IN,https://www.google.com/maps/place/Jamali+Masjid/data=!4m7!3m6!1s0x399145ae9ded53e9:0x4abc9d7c119095ac!8m2!3d26.7892091!4d83.371858!16s%2Fg%2F11cs9_nm33!19sChIJ6VPtna5FkTkRrJWQEXydvEo?authuser=0&hl=en&rclk=1,"26.789209099999997,83.371858"
masjid Askarganj,Mosque,"P9X5+7CW masjid Askarganj, Askarganj, Gorakhpur, Uttar Pradesh 273001",Askarganj,P9X5+7CW,Gorakhpur,,Uttar Pradesh,IN,https://www.google.com/maps/place/masjid+Askarganj/data=!4m7!3m6!1s0x39914551d1878425:0x1f3dc4e88f11ac70!8m2!3d26.7482473!4d83.3585648!16s%2Fg%2F11h7fn4k6j!19sChIJJYSH0VFFkTkRcKwRj-jEPR8?authuser=0&hl=en&rclk=1,"26.7482473,83.3585648"
Masjid msjd,Mosque,"R95J+2QG Masjid msjd, Fertilizer Colony, Gorakhpur, Uttar Pradesh 273004",Fertilizer Colony,R95J+2QG,Gorakhpur,273004,Uttar Pradesh,IN,https://www.google.com/maps/place/Masjid+%D9%85%D8%B3%D8%AC%D8%AF%E2%80%AD/data=!4m7!3m6!1s0x39914574d151ac03:0xe35730f6b0b61e0f!8m2!3d26.8075565!4d83.3819563!16s%2Fg%2F1pxwh01m0!19sChIJA6xR0XRFkTkRDx62sPYwV-M?authuser=0&hl=en&rclk=1,"26.8075565,83.3819563"
Masjid,Mosque,"R945+P3J Masjid, Vikas Nagar, Gorakhpur, Uttar Pradesh 273007",Vikas Nagar,R945+P3J,Gorakhpur,273007,Uttar Pradesh,IN,https://www.google.com/maps/place/Masjid/data=!4m7!3m6!1s0x399145954d5d3b9b:0x63e510d57b0b35f8!8m2!3d26.8068332!4d83.3576435!16s%2Fg%2F1pxwcc1s8!19sChIJmztdTZVFkTkR-DULe9UQ5WM?authuser=0&hl=en&rclk=1,"26.8068332,83.3576435"
MASJID-E-AHLE BAIT,Mosque,"MASJID-E-AHLE BAIT, PURANA GORAKHPUR, near IMAMBARA, Gorakhnath, Gorakhpur, Uttar Pradesh 273015","Rasoolpur, Aditya Naga, Gorakhnath","PURANA GORAKHPUR, near IMAMBARA",Gorakhpur,273015,Uttar Pradesh,IN,https://www.google.com/maps/place/MASJID-E-AHLE+BAIT/data=!4m7!3m6!1s0x3991443792f2eacd:0x5ca8aec658cac6ad!8m2!3d26.7716306!4d83.3561005!16s%2Fg%2F11f3z_m8l6!19sChIJzerykjdEkTkRrcbKWMauqFw?authuser=0&hl=en&rclk=1,"26.771630599999998,83.3561005"
Hari Masjid Sidharipur,Mosque,"Hari Masjid Sidharipur, 193A, Netaji Subas Chandra Bos Nagar Colony, Surajkund Colony, Gorakhpur, Uttar Pradesh 273001","Netaji Subas Chandra Bos Nagar Colony, Surajkund Colony",193A,Gorakhpur,273001,Uttar Pradesh,IN,https://www.google.com/maps/place/Hari+Masjid+Sidharipur/data=!4m7!3m6!1s0x39914536d134f711:0x47fdd4c039efad06!8m2!3d26.7736161!4d83.3468746!16s%2Fg%2F11nxp4893g!19sChIJEfc00TZFkTkRBq3vOcDU_Uc?authuser=0&hl=en&rclk=1,"26.773616099999998,83.34687459999999"
Jama Masjid - Zahidabad,Mosque,"Jama Masjid - Zahidabad, NH 29, Zahidabad, Mirzapur Pachpedwa, Gorakhpur, Uttar Pradesh 273015","Zahidabad, Mirzapur Pachpedwa",NH 29,Gorakhpur,273015,Uttar Pradesh,IN,https://www.google.com/maps/place/Jama+Masjid+-+Zahidabad/data=!4m7!3m6!1s0x39914448f609c865:0x3abd2f0496f9bdc7!8m2!3d26.7727764!4d83.3600129!16s%2Fg%2F11b6s22gr0!19sChIJZcgJ9khEkTkRx735lgQvvTo?authuser=0&hl=en&rclk=1,"26.772776399999998,83.3600129"
Mosque Police Line,Mosque,"Q95F+FM4 Mosque Police Line, Alinagar, Arya Nagar, Bilandpur, Gorakhpur, Uttar Pradesh 273001","Alinagar, Arya Nagar, Bilandpur",Q95F+FM4,Gorakhpur,273001,Uttar Pradesh,IN,https://www.google.com/maps/place/Mosque+Police+Line/data=!4m7!3m6!1s0x39914460baf54ef5:0xddcd561ffa1da112!8m2!3d26.7586372!4d83.3741889!16s%2Fg%2F11f5jq3flm!19sChIJ9U71umBEkTkREqEd-h9Wzd0?authuser=0&hl=en&rclk=1,"26.7586372,83.3741889"
Mohanlalpur Masjid,Mosque,"Q87R+PFX Mohanlalpur Masjid, Jafhar Colony, Mohanlalpur, Gorakhpur, Uttar Pradesh 273005","Jafhar Colony, Mohanlalpur",Q87R+PFX,Gorakhpur,273005,Uttar Pradesh,IN,https://www.google.com/maps/place/Mohanlalpur+Masjid/data=!4m7!3m6!1s0x39914426ab6d1e61:0xc967d1b0a038dc29!8m2!3d26.7643706!4d83.3412205!16s%2Fg%2F11cs9lzsvb!19sChIJYR5tqyZEkTkRKdw4oLDRZ8k?authuser=0&hl=en&rclk=1,"26.7643706,83.34122049999999"
Alinagar Mosque,Mosque,"Q946+PRX Alinagar Mosque, Shahpur, Gorakhpur, Uttar Pradesh 273001",Shahpur,Q946+PRX,Gorakhpur,273001,Uttar Pradesh,IN,https://www.google.com/maps/place/Alinagar+Mosque/data=!4m7!3m6!1s0x3991446a3183a095:0xaa1dbb3cb3f63fab!8m2!3d26.7568584!4d83.3621207!16s%2Fg%2F11f53h9ymj!19sChIJlaCDMWpEkTkRqz_2szy7Hao?authuser=0&hl=en&rclk=1,"26.7568584,83.36212069999999"
Mosque,Mosque,"P9GG+GQ6 Mosque, Azad Nagar, Gorakhpur, Uttar Pradesh 273010",Azad Nagar,P9GG+GQ6,Gorakhpur,273010,Uttar Pradesh,IN,https://www.google.com/maps/place/Mosque/data=!4m7!3m6!1s0x39914382dd5be0df:0xa2af7dc816cbc10d!8m2!3d26.7262887!4d83.3768776!16s%2Fg%2F1pxw5r_r8!19sChIJ3-Bb3YJDkTkRDcHLFsh9r6I?authuser=0&hl=en&rclk=1,"26.726288699999998,83.3768776"
Masjid,Mosque,"R98Q+XQ5 Masjid, Fertilizer Colony, Gorakhpur, Uttar Pradesh 273013",Fertilizer Colony,R98Q+XQ5,Gorakhpur,273013,Uttar Pradesh,IN,https://www.google.com/maps/place/Masjid/data=!4m7!3m6!1s0x399145702724b741:0x2bef0e62def41e0a!8m2!3d26.8173793!4d83.3894947!16s%2Fg%2F1pxw3f4kq!19sChIJQbckJ3BFkTkRCh703mIO7ys?authuser=0&hl=en&rclk=1,"26.8173793,83.3894947"
Basantpur Masjid,Mosque,"P9R3+HFR Basantpur Masjid, Unnamed Road, TP Nagar, Basantpur, Gorakhpur, Uttar Pradesh 273001","TP Nagar, Basantpur","P9R3+HFR, Unnamed Road",Gorakhpur,273001,Uttar Pradesh,IN,https://www.google.com/maps/place/Basantpur+Masjid/data=!4m7!3m6!1s0x399145a17ba13863:0x8219b635da5d5cd7!8m2!3d26.7414878!4d83.3536349!16s%2Fg%2F11jljbxw5y!19sChIJYzihe6FFkTkR11xd2jW2GYI?authuser=0&hl=en&rclk=1,"26.741487799999998,83.3536349"
Noori Masjid,Mosque,"Noori Masjid, harsewakpur no.2 hata tola post jangal laxmipur gorakhpur uttar pardesh, 273014",,harsewakpur no.2 hata tola post jangal laxmipur gorakhpur uttar pardesh,Gorakhpur,273014,Uttar Pradesh,IN,https://www.google.com/maps/place/Noori+Masjid/data=!4m7!3m6!1s0x3991454397f515dd:0xb26ebf8052b3527b!8m2!3d26.7979794!4d83.4033007!16s%2Fg%2F11fjw0mmq8!19sChIJ3RX1l0NFkTkRe1KzUoC_brI?authuser=0&hl=en&rclk=1,"26.7979794,83.4033007"
Do Minara Masjid Jafra Bazar,Mosque,"Q963+V6F Do Minara Masjid Jafra Bazar, Jaffra Bazar, Ilahi Bagh, Gorakhpur, Uttar Pradesh 273005","Jaffra Bazar, Ilahi Bagh",Q963+V6F,Gorakhpur,273005,Uttar Pradesh,IN,https://www.google.com/maps/place/Do+Minara+Masjid+Jafra+Bazar/data=!4m7!3m6!1s0x399145dd50cbb9a9:0x75254432610c6718!8m2!3d26.7621875!4d83.3530469!16s%2Fg%2F11jmpv2755!19sChIJqbnLUN1FkTkRGGcMYTJEJXU?authuser=0&hl=en&rclk=1,"26.7621875,83.3530469"
Ghausiyah Masjid,Mosque,"Q9H3+669 Ghausiyah Masjid, Rajendra Nagar, Gorakhpur, Uttar Pradesh 273015",Rajendra Nagar,Q9H3+669,Gorakhpur,273015,Uttar Pradesh,IN,https://www.google.com/maps/place/Ghausiyah+Masjid/data=!4m7!3m6!1s0x399144346cbd8975:0x33a0029831aa282a!8m2!3d26.7780472!4d83.3531045!16s%2Fg%2F11dxf1qyk9!19sChIJdYm9bDREkTkRKiiqMZgCoDM?authuser=0&hl=en&rclk=1,"26.7780472,83.3531045"
Masjid,Mosque,"RCF5+XV4 Masjid, Gorakhpur, Uttar Pradesh 273001",,RCF5+XV4,Gorakhpur,273001,Uttar Pradesh,IN,https://www.google.com/maps/place/Masjid/data=!4m7!3m6!1s0x3991455a15cec021:0xbac3654ac5d30b0c!8m2!3d26.8248953!4d83.4097122!16s%2Fg%2F11c52qpflz!19sChIJIcDOFVpFkTkRDAvTxUplw7o?authuser=0&hl=en&rclk=1,"26.824895299999998,83.4097122"
Masjid,Mosque,"Masjid, 73/B, Alinagar St, Khokhar Tola, Ghasikatra Rd, Khokhar Tola, Rahmat Nagar, Gorakhpur, Uttar Pradesh 273005","Khokhar Tola, Rahmat Nagar","73/B, Alinagar St, Khokhar Tola, Ghasikatra Rd",Gorakhpur,273005,Uttar Pradesh,IN,https://www.google.com/maps/place/Masjid/data=!4m7!3m6!1s0x3991446b681d814f:0xaff44d670c13e77a!8m2!3d26.7541273!4d83.3589041!16s%2Fg%2F11g8xcj60f!19sChIJT4EdaGtEkTkReucTDGdN9K8?authuser=0&hl=en&rclk=1,"26.7541273,83.35890409999999"
Huda Masjid,Mosque,"Huda Masjid, 460/F, Janpriya Vihar Colony, Gorakhnath, Gorakhpur, Uttar Pradesh 273015","Janpriya Vihar Colony, Gorakhnath",460/F,Gorakhpur,273015,Uttar Pradesh,IN,https://www.google.com/maps/place/Huda+Masjid/data=!4m7!3m6!1s0x39914588b58f844b:0x37c5d3d8d32c18a3!8m2!3d26.7722047!4d83.3657062!16s%2Fg%2F11llv_h07n!19sChIJS4SPtYhFkTkRoxgs09jTxTc?authuser=0&hl=en&rclk=1,"26.7722047,83.36570619999999"
Daroga Sahab Masjid,Mosque,"P9V4+5VM Daroga Sahab Masjid, TP Nagar, Basantpur, Gorakhpur, Uttar Pradesh 273001","TP Nagar, Basantpur",P9V4+5VM,Gorakhpur,273001,Uttar Pradesh,IN,https://www.google.com/maps/place/Daroga+Sahab+Masjid/data=!4m7!3m6!1s0x39914502d66e5819:0xfc4e611d0a855455!8m2!3d26.7429659!4d83.3571627!16s%2Fg%2F11j74k5zyv!19sChIJGVhu1gJFkTkRVVSFCh1hTvw?authuser=0&hl=en&rclk=1,"26.742965899999998,83.35716269999999"
Masjidul Haque,Mosque,"P9W3+JX8 Masjidul Haque, Geeta Press Rd, Diwan Dayaram, Bade Kajipur, Gorakhpur, Uttar Pradesh 273005","Diwan Dayaram, Bade Kajipur","P9W3+JX8, Geeta Press Rd",Gorakhpur,273005,Uttar Pradesh,IN,https://www.google.com/maps/place/Masjidul+Haque/data=!4m7!3m6!1s0x399145ebe6b52e47:0x9661843b470913ea!8m2!3d26.7465471!4d83.3549652!16s%2Fg%2F11h75rdspd!19sChIJRy615utFkTkR6hMJRzuEYZY?authuser=0&hl=en&rclk=1,"26.746547099999997,83.3549652"
Mosque,Mosque,"RC22+6QP Mosque, Semra, Gorakhpur, Uttar Pradesh 273014",Semra,RC22+6QP,Gorakhpur,273014,Uttar Pradesh,IN,https://www.google.com/maps/place/Mosque/data=!4m7!3m6!1s0x3991453dbed0b177:0x93a92db58fe59b23!8m2!3d26.8005996!4d83.4019563!16s%2Fg%2F11h9rh0y2l!19sChIJd7HQvj1FkTkRI5vlj7UtqZM?authuser=0&hl=en&rclk=1,"26.800599599999998,83.4019563"
Badi Jama Masjid,Mosque,"Badi Jama Masjid, Rudderpur, Bade Kajipur, Gorakhpur, Uttar Pradesh 273005",Bade Kajipur,Rudderpur,Gorakhpur,273005,Uttar Pradesh,IN,https://www.google.com/maps/place/Badi+Jama+Masjid/data=!4m7!3m6!1s0x399145e264f4e03d:0xd50375b504e3ff0c!8m2!3d26.7613888!4d83.3573851!16s%2Fg%2F11g1phgvzj!19sChIJPeD0ZOJFkTkRDP_jBLV1A9U?authuser=0&hl=en&rclk=1,"26.7613888,83.3573851"
Ahle Hadees Masjid Gorakhpur Rasoolpur,Mosque,"Q8CX+HPW Ahle Hadees Masjid Gorakhpur Rasoolpur, Netaji Subas Chandra Bos Nagar Colony, Rajendra Nagar, Gorakhpur, Uttar Pradesh 273015","Netaji Subas Chandra Bos Nagar Colony, Rajendra Nagar",Q8CX+HPW,Gorakhpur,273015,Uttar Pradesh,IN,https://www.google.com/maps/place/Ahle+Hadees+Masjid+Gorakhpur+Rasoolpur/data=!4m7!3m6!1s0x399145b9aff766b1:0x750a953dc469bca6!8m2!3d26.7714863!4d83.349338!16s%2Fg%2F11h2flzcqc!19sChIJsWb3r7lFkTkRprxpxD2VCnU?authuser=0&hl=en&rclk=1,"26.7714863,83.349338"
Jama Masjid Dashahri Bagh,Mosque,"Q9F3+CJG Jama Masjid Dashahri Bagh, Dashahri Bagh, Rasoolpur, Gorakhnath, Gorakhpur, Uttar Pradesh 273015","Rasoolpur, Netaji Subas Chandra Bos Nagar Colony, Gorakhnath","Q9F3+CJG, Dashahri Bagh",Gorakhpur,273015,Uttar Pradesh,IN,https://www.google.com/maps/place/Jama+Masjid+Dashahri+Bagh/data=!4m7!3m6!1s0x3991458742d31689:0x5f79ce3f12fb127b!8m2!3d26.7735622!4d83.3540663!16s%2Fg%2F11qptj0ny1!19sChIJiRbTQodFkTkRexL7Ej_OeV8?authuser=0&hl=en&rclk=1,"26.773562199999997,83.3540663"
Masjid msjd,Mosque,"QC76+J9V Masjid msjd, Maitripuram, Air Force Area, Gorakhpur, Uttar Pradesh 273014",Maitripuram,QC76+J9V,"Air Force Area, Gorakhpur",273014,Uttar Pradesh,IN,https://www.google.com/maps/place/Masjid+%D9%85%D8%B3%D8%AC%D8%AF%E2%80%AD/data=!4m7!3m6!1s0x399144c7d616a483:0x32b575dc572207fc!8m2!3d26.7641247!4d83.4109068!16s%2Fg%2F1pxw6q1tf!19sChIJg6QW1sdEkTkR_AciV9x1tTI?authuser=0&hl=en&rclk=1,"26.7641247,83.41090679999999"
kati wali Masjid,Mosque,"kati wali Masjid, Police Chowki Miyan Bazar, Miyan Baza, Gorakhpur, Uttar Pradesh 273001",Miyan Baza,Police Chowki Miyan Bazar,Gorakhpur,273001,Uttar Pradesh,IN,https://www.google.com/maps/place/kati+wali+Masjid/data=!4m7!3m6!1s0x399145e61304a127:0x4dbee19d54c3d2ec!8m2!3d26.7521191!4d83.3642465!16s%2Fg%2F11gy0g0b2v!19sChIJJ6EEE-ZFkTkR7NLDVJ3hvk0?authuser=0&hl=en&rclk=1,"26.752119099999998,83.3642465"
Masjid e Huda,Mosque,"Q95C+PPQ Masjid e Huda, Bashratpur, Gorakhpur, Uttar Pradesh 273001",Bashratpur,Q95C+PPQ,Gorakhpur,273001,Uttar Pradesh,IN,https://www.google.com/maps/place/Masjid+e+Huda/data=!4m7!3m6!1s0x399145520aabd979:0x33cd8d20f6f631a0!8m2!3d26.7593311!4d83.3718668!16s%2Fg%2F11rxrr7gy_!19sChIJedmrClJFkTkRoDH29iCNzTM?authuser=0&hl=en&rclk=1,"26.759331099999997,83.37186679999999"
Shahpur Jama Masjid,Mosque,"Q9GV+WW7 Shahpur Jama Masjid, Hanuman Prasad Poddar Marg, Shahpur, Gorakhpur, Uttar Pradesh 273014",Shahpur,"Q9GV+WW7, Hanuman Prasad Poddar Marg",Gorakhpur,273014,Uttar Pradesh,IN,https://www.google.com/maps/place/Shahpur+Jama+Masjid/data=!4m7!3m6!1s0x399145f7c12ba167:0x290ccadedcd29195!8m2!3d26.7772966!4d83.3947895!16s%2Fg%2F11fpjr7zlz!19sChIJZ6ErwfdFkTkRlZHS3N7KDCk?authuser=0&hl=en&rclk=1,"26.7772966,83.3947895"
Bhediyagarh masjid,Mosque,"Q9FJ+FM2 Bhediyagarh masjid, Vishnu Nagar, Bhediyagarh, Gorakhpur, Uttar Pradesh 273004","Vishnu Nagar, Bhediyagarh",Q9FJ+FM2,Gorakhpur,273004,Uttar Pradesh,IN,https://www.google.com/maps/place/Bhediyagarh+masjid/data=!4m7!3m6!1s0x399145f789d38879:0xb41528a7b34c8282!8m2!3d26.7736316!4d83.3816318!16s%2Fg%2F11lfk5mwn7!19sChIJeYjTifdFkTkRgoJMs6coFbQ?authuser=0&hl=en&rclk=1,"26.773631599999998,83.3816318"
Masjid,Mosque,"P99F+586 Masjid, Shakti Nagar Colony, Sendulee Benduli, Gorakhpur, Uttar Pradesh 273016",Shakti Nagar Colony,P99F+586,"Sendulee Benduli, Gorakhpur",273016,Uttar Pradesh,IN,https://www.google.com/maps/place/Masjid/data=!4m7!3m6!1s0x399143b141ff243f:0x8eb7e0d8120fb3aa!8m2!3d26.7179008!4d83.3732644!16s%2Fg%2F11gtpznsrv!19sChIJPyT_QbFDkTkRqrMPEtjgt44?authuser=0&hl=en&rclk=1,"26.7179008,83.3732644"
Masjid-e-Gausia Nizamia,Mosque,"Q98W+98P Masjid-e-Gausia Nizamia, Maitripuram, Gorakhpur, Uttar Pradesh 273014",Maitripuram,Q98W+98P,Gorakhpur,273014,Uttar Pradesh,IN,https://www.google.com/maps/place/Masjid-e-Gausia+Nizamia/data=!4m7!3m6!1s0x399144ebef0b58e5:0x95d4836752fd8007!8m2!3d26.7659607!4d83.395818!16s%2Fg%2F11c602_nnz!19sChIJ5VgL7-tEkTkRB4D9UmeD1JU?authuser=0&hl=en&rclk=1,"26.765960699999997,83.39581799999999"
Maqbara masjid,Mosque,"P9V7+MHC Maqbara masjid, Bankatichak, Gorakhpur, Uttar Pradesh 273001",Bankatichak,P9V7+MHC,Gorakhpur,273001,Uttar Pradesh,IN,https://www.google.com/maps/place/Maqbara+masjid/data=!4m7!3m6!1s0x3991451c25784219:0xba76eb827c68f6b4!8m2!3d26.7441993!4d83.363882!16s%2Fg%2F11h_d31hq4!19sChIJGUJ4JRxFkTkRtPZofILrdro?authuser=0&hl=en&rclk=1,"26.7441993,83.36388199999999"
"Shahi Masjid,",Mosque,"P9R2+VXJ Shahi Masjid,, TP Nagar, Basantpur, Gorakhpur, Uttar Pradesh 273001","TP Nagar, Basantpur",P9R2+VXJ,Gorakhpur,273001,Uttar Pradesh,IN,"https://www.google.com/maps/place/Shahi+Masjid,/data=!4m7!3m6!1s0x3991450f20fa400d:0x298f3396b1f22a68!8m2!3d26.7422106!4d83.352401!16s%2Fg%2F11g1gt8mdl!19sChIJDUD6IA9FkTkRaCrysZYzjyk?authuser=0&hl=en&rclk=1","26.7422106,83.352401"
Khokhar Tola masjid,Mosque,"Q933+PW3 Khokhar Tola masjid, Khokhar Tola, Rahmat Nagar, Gorakhpur, Uttar Pradesh 273005","Khokhar Tola, Rahmat Nagar",Q933+PW3,Gorakhpur,273005,Uttar Pradesh,IN,https://www.google.com/maps/place/Khokhar+Tola+masjid/data=!4m7!3m6!1s0x399145d468947721:0xd7e3036d14ca3b3a!8m2!3d26.7542515!4d83.3548081!16s%2Fg%2F11jnwxzytw!19sChIJIXeUaNRFkTkROjvKFG0D49c?authuser=0&hl=en&rclk=1,"26.7542515,83.3548081"
Barkati Masjid,Mosque,"Q922+8VX Barkati Masjid, Rahmat Nagar, Gorakhpur, Uttar Pradesh 273005",Rahmat Nagar,Q922+8VX,Gorakhpur,273005,Uttar Pradesh,IN,https://www.google.com/maps/place/Barkati+Masjid/data=!4m7!3m6!1s0x3991459958674891:0x8af47e8ce1cf4967!8m2!3d26.7508633!4d83.3522288!16s%2Fg%2F11k25vffd9!19sChIJkUhnWJlFkTkRZ0nP4Yx-9Io?authuser=0&hl=en&rclk=1,"26.7508633,83.35222879999999"
Aisha masjid,Mosque,"P9V7+GC2 Aisha masjid, Bankatichak, Qazipur Khurd, Gorakhpur, Uttar Pradesh 273001","Bankatichak, Qazipur Khurd",P9V7+GC2,Gorakhpur,273001,Uttar Pradesh,IN,https://www.google.com/maps/place/Aisha+masjid/data=!4m7!3m6!1s0x399145a6be51c285:0x6eabf7fce8e2a95d!8m2!3d26.743751!4d83.3635027!16s%2Fg%2F11h51jl7lv!19sChIJhcJRvqZFkTkRXani6Pz3q24?authuser=0&hl=en&rclk=1,"26.743751,83.3635027"
Nakaha Masjid,Mosque,"Nakaha Masjid, Street Number 1, Nakaha no 1, Gorakhpur, Uttar Pradesh 273004",Nakaha no 1,"Nakaha Masjid, Street Number 1",Gorakhpur,273004,Uttar Pradesh,IN,https://www.google.com/maps/place/Nakaha+Masjid/data=!4m7!3m6!1s0x399145bcf91d1d3b:0x515853ea862a90fd!8m2!3d26.7942205!4d83.3675411!16s%2Fg%2F11mw7hm1w6!19sChIJOx0d-bxFkTkR_ZAqhupTWFE?authuser=0&hl=en&rclk=1,"26.794220499999998,83.3675411"
Masjid-e-aqsha,Mosque,"Masjid-e-aqsha, harsewakpur no.2 nariya","Jagriti Nagar, RailVihar Ph-2 Colony, Raptinagar Phase -4",harsewakpur no.2 nariya,Gorakhpur,,Uttar Pradesh,IN,https://www.google.com/maps/place/Masjid-e-aqsha/data=!4m7!3m6!1s0x399145ff3cf248d3:0x1bff8d1676274f61!8m2!3d26.7944456!4d83.3968979!16s%2Fg%2F11h00dpcfv!19sChIJ00jyPP9FkTkRYU8ndhaN_xs?authuser=0&hl=en&rclk=1,"26.7944456,83.3968979"
Gazia masjid,Mosque,"Q84R+79C Gazia masjid, Bahrampur Bandh Masjid, Gorakhpur, Uttar Pradesh 273005",Ilahi Bagh,"Q84R+79C, Bahrampur Bandh Masjid","Gorakhpur, Domin Garh Ah.",273005,Uttar Pradesh,IN,https://www.google.com/maps/place/Gazia+masjid/data=!4m7!3m6!1s0x3991441f2615f48f:0x486b1990e52ae262!8m2!3d26.7556917!4d83.3408892!16s%2Fg%2F11dzdkm5_6!19sChIJj_QVJh9EkTkRYuIq5ZAZa0g?authuser=0&hl=en&rclk=1,"26.7556917,83.34088919999999"
Masjid Saudagar Mohalla,Mosque,"P9V2+JWJ Masjid Saudagar Mohalla, TP Nagar, Basantpur, Gorakhpur, Uttar Pradesh 273001","TP Nagar, Basantpur",P9V2+JWJ,Gorakhpur,273001,Uttar Pradesh,IN,https://www.google.com/maps/place/Masjid+Saudagar+Mohalla/data=!4m7!3m6!1s0x399145e3828ac3a7:0xf3b00fdadcb90048!8m2!3d26.7440865!4d83.3522808!16s%2Fg%2F11pb0xtn11!19sChIJp8OKguNFkTkRSAC53NoPsPM?authuser=0&hl=en&rclk=1,"26.744086499999998,83.3522808"
Masjid,Mosque,"Masjid, khoonipur chauk, Sahabganj, Bade Kajipur, Gorakhpur, Uttar Pradesh 273005","Sahabganj, Bade Kajipur",khoonipur chauk,Gorakhpur,,Uttar Pradesh,IN,https://www.google.com/maps/place/Masjid/data=!4m7!3m6!1s0x399145b8041741d9:0xf525b36f8411331f!8m2!3d26.749838!4d83.354985!16s%2Fg%2F11hf1_zz9q!19sChIJ2UEXBLhFkTkRHzMRhG-zJfU?authuser=0&hl=en&rclk=1,"26.749838,83.354985"
SHAHI JAMA MASJID,Mosque,"Q993+PCP SHAHI JAMA MASJID, Takiya kawaldah Near Rasoolpur Chowk, Gorakhnath, Gorakhpur, Uttar Pradesh 273015","Netaji Subas Chandra Bos Nagar Colony, Gorakhnath","Q993+PCP, Takiya kawaldah Near Rasoolpur Chowk",Gorakhpur,273015,Uttar Pradesh,IN,https://www.google.com/maps/place/SHAHI+JAMA+MASJID/data=!4m7!3m6!1s0x3991451f40119e57:0x72977b0754915710!8m2!3d26.7693372!4d83.3535844!16s%2Fg%2F11gyhjz3ft!19sChIJV54RQB9FkTkREFeRVAd7l3I?authuser=0&hl=en&rclk=1,"26.7693372,83.3535844"
Jama Masjid,Mosque,"Q923+3JP Jama Masjid, Bade Kajipur, Gorakhpur, Uttar Pradesh 273005",Bade Kajipur,Q923+3JP,Gorakhpur,273005,Uttar Pradesh,IN,https://www.google.com/maps/place/Jama+Masjid/data=!4m7!3m6!1s0x39914598b60080ff:0x1bdd942e7dfe84df!8m2!3d26.7502192!4d83.3540673!16s%2Fg%2F11q84hnqq6!19sChIJ_4AAtphFkTkR34T-fS6U3Rs?authuser=0&hl=en&rclk=1,"26.7502192,83.3540673"
Masjid,Mosque,"Q94F+568 Masjid, Golghar, Gorakhpur, Uttar Pradesh 273001",Golghar,Q94F+568,Gorakhpur,273001,Uttar Pradesh,IN,https://www.google.com/maps/place/Masjid/data=!4m7!3m6!1s0x399145239869a87b:0x3b8d0914191a8c68!8m2!3d26.7555036!4d83.3730352!16s%2Fg%2F11tdp3f2z_!19sChIJe6hpmCNFkTkRaIwaGRQJjTs?authuser=0&hl=en&rclk=1,"26.755503599999997,83.37303519999999"
Shahi Jama Masjid (Badi Masjid),Mosque,"P9V4+MVC Shahi Jama Masjid (Badi Masjid), Shahmaroof, Urdu Bazar, Qazipur Khurd, Gorakhpur, Uttar Pradesh 273005","Urdu Bazar, Qazipur Khurd","P9V4+MVC, Shahmaroof",Gorakhpur,273005,Uttar Pradesh,IN,https://www.google.com/maps/place/Shahi+Jama+Masjid+%28Badi+Masjid%29/data=!4m7!3m6!1s0x3991440cd6c00001:0xe016457c5a599e13!8m2!3d26.7441802!4d83.3571495!16s%2Fg%2F11sscs3_5m!19sChIJAQDA1gxEkTkRE55ZWnxFFuA?authuser=0&hl=en&rclk=1,"26.7441802,83.35714949999999"
Masjid gkp,Mosque,"P9M9+4VP Masjid gkp, Mahuesugharpur, Azad Nagar, Gorakhpur, Uttar Pradesh 273016","Mahuesugharpur, Azad Nagar",P9M9+4VP,Gorakhpur,,Uttar Pradesh,IN,https://www.google.com/maps/place/Masjid+gkp/data=!4m7!3m6!1s0x3991430c66cf4997:0x89dd546419afb422!8m2!3d26.7328465!4d83.3697086!16s%2Fg%2F11t_ktgbxc!19sChIJl0nPZgxDkTkRIrSvGWRU3Yk?authuser=0&hl=en&rclk=1,"26.732846499999997,83.3697086"
SHAHI JAMA MASJID,Mosque,"Q89X+J2M SHAHI JAMA MASJID, Surya Vihar Colony, Netaji Subas Chandra Bos Nagar Colony, Rajendra Nagar, Gorakhpur, Uttar Pradesh 273015","Surya Vihar Colony, Netaji Subas Chandra Bos Nagar Colony, Rajendra Nagar",Q89X+J2M,Gorakhpur,273015,Uttar Pradesh,IN,https://www.google.com/maps/place/SHAHI+JAMA+MASJID/data=!4m7!3m6!1s0x39914564be00ccbb:0x37bc8337c84817d3!8m2!3d26.7690855!4d83.3475474!16s%2Fg%2F11fjmbydqk!19sChIJu8wAvmRFkTkR0xdIyDeDvDc?authuser=0&hl=en&rclk=1,"26.7690855,83.3475474"
Masjid,Mosque,"Q9R8+3F5 Masjid, Nakaha no 1, New basti, Chamnjung, Gorakhpur, Uttar Pradesh 273004","Nakaha no 1, New basti, Chamnjung",Q9R8+3F5,Gorakhpur,,Uttar Pradesh,IN,https://www.google.com/maps/place/Masjid/data=!4m7!3m6!1s0x39914539643f8fb3:0xf3ea2e24f1953187!8m2!3d26.7901487!4d83.3662303!16s%2Fg%2F11hz0wlwp9!19sChIJs48_ZDlFkTkRhzGV8SQu6vM?authuser=0&hl=en&rclk=1,"26.7901487,83.3662303"
Choti masjid,Mosque,"Choti masjid, H.No. 36, Mohalla Bankatichak, Uttar Pradesh 273001","Verma Colony, Qazipur Khurd","H.No. 36, Mohalla Bankatichak",Gorakhpur,273001,Uttar Pradesh,IN,https://www.google.com/maps/place/Choti+masjid/data=!4m7!3m6!1s0x39914517e867c48d:0x6f215b27e22b2376!8m2!3d26.7427127!4d83.3641609!16s%2Fg%2F11fpky9zt1!19sChIJjcRn6BdFkTkRdiMr4idbIW8?authuser=0&hl=en&rclk=1,"26.7427127,83.3641609"
Jama Masjid - Wazirabad,Mosque,"Q9F6+3J9 Jama Masjid - Wazirabad, Mirzapur Pachpedwa, Gorakhpur, Uttar Pradesh 273017",Mirzapur Pachpedwa,Q9F6+3J9,Gorakhpur,273017,Uttar Pradesh,IN,https://www.google.com/maps/place/Jama+Masjid+-+Wazirabad/data=!4m7!3m6!1s0x39914448c0300001:0xe416028af5034c6c!8m2!3d26.7726616!4d83.3616166!16s%2Fg%2F11kj3f0hj2!19sChIJAQAwwEhEkTkRbEwD9YoCFuQ?authuser=0&hl=en&rclk=1,"26.7726616,83.36161659999999"
Masjid Jaam-e-noor,Mosque,"Q85Q+WQM Masjid Jaam-e-noor, Ilahi Bagh, Gorakhpur, Uttar Pradesh 273005",Ilahi Bagh,Q85Q+WQM,Gorakhpur,273005,Uttar Pradesh,IN,https://www.google.com/maps/place/Masjid+Jaam-e-noor/data=!4m7!3m6!1s0x3991458349463c41:0x11e0b6b7e84e1ea8!8m2!3d26.7599836!4d83.3393737!16s%2Fg%2F11tdknl55y!19sChIJQTxGSYNFkTkRqB5O6Le24BE?authuser=0&hl=en&rclk=1,"26.759983599999998,83.3393737"
Mosque,Mosque,"P9W3+X7C Mosque, Bade Kajipur, Gorakhpur, Uttar Pradesh 273005",Bade Kajipur,P9W3+X7C,Gorakhpur,273005,Uttar Pradesh,IN,https://www.google.com/maps/place/Mosque/data=!4m7!3m6!1s0x399144120973e645:0x6538d42038991c0f!8m2!3d26.747443!4d83.3531381!16s%2Fg%2F11dyqy898g!19sChIJReZzCRJEkTkRDxyZOCDUOGU?authuser=0&hl=en&rclk=1,"26.747443,83.3531381"
Narsinghpur Masjid,Mosque,"Q85X+32X Narsinghpur Masjid, Ilahi Bagh, Gorakhpur, Uttar Pradesh 273005",Ilahi Bagh,Q85X+32X,Gorakhpur,273005,Uttar Pradesh,IN,https://www.google.com/maps/place/Narsinghpur+Masjid/data=!4m7!3m6!1s0x399145dcbf0990db:0xa819139c6956f831!8m2!3d26.7577267!4d83.3475966!16s%2Fg%2F11rh04jft5!19sChIJ25AJv9xFkTkRMfhWaZwTGag?authuser=0&hl=en&rclk=1,"26.7577267,83.3475966"
Masjid (Mosque),Mosque,"Masjid (Mosque), 28a, Buddh Vihar, Taramandal, Gorakhpur, Uttar Pradesh 273001",Taramandal,"28a, Buddh Vihar",Gorakhpur,273001,Uttar Pradesh,IN,https://www.google.com/maps/place/Masjid+%28Mosque%29/data=!4m7!3m6!1s0x39914367e44ea845:0xa3a6f9a208988f00!8m2!3d26.73326!4d83.3796533!16s%2Fg%2F11l6j5t8yq!19sChIJRahO5GdDkTkRAI-YCKL5pqM?authuser=0&hl=en&rclk=1,"26.733259999999998,83.3796533"
