name,main_category,address,address_ward,address_street,address_city,address_postal_code,address_state,address_country_code,link,coordinates
"Makkah Masjid ,Beri Khurd",Mosque,"9QWF+2PH Makkah Masjid ,Beri Khurd, Banwasa, Road, Beri Khurd, Rajasthan 341551",,"9QWF+2PH, Banwasa, Road",Beri Khurd,341551,Rajasthan,IN,"https://www.google.com/maps/place/Makkah+Masjid+,Beri+Khurd/data=!4m7!3m6!1s0x396b689b591401a5:0x63164e21a1f9fd8a!8m2!3d27.3950747!4d74.7743444!16s%2Fg%2F11c6mkz2qm!19sChIJpQEUWZtoazkRiv35oSFOFmM?authuser=0&hl=en&rclk=1","27.3950747,74.77434439999999"
MASJID ABUBAKAR (Meer Vihar),Mosque,"MASJID ABUBAKAR (Meer Vihar), E-534, Gali no 19, Mangal Bazar Rd, Meer Vihar, Madanpur Dabas, Delhi, 110081","Block D, Meer Vihar, Madanpur Dabas","E-534, Gali no 19, Mangal Bazar Rd",Delhi,110081,Delhi,IN,https://www.google.com/maps/place/MASJID+ABUBAKAR+%28Meer+Vihar%29/data=!4m7!3m6!1s0x390d07a6429d2699:0x5a80d9e73174643f!8m2!3d28.7167338!4d77.0303449!16s%2Fg%2F11q_cfcz4j!19sChIJmSadQqYHDTkRP2R0MefZgFo?authuser=0&hl=en&rclk=1,"28.7167338,77.0303449"
Choti Babri Masjid,Mosque,"X429+R4C Choti Babri Masjid, MDR135, Khajli Kalan, Haryana 122108",,"X429+R4C, MDR135",Khajli Kalan,122108,Haryana,IN,https://www.google.com/maps/place/Choti+Babri+Masjid/data=!4m7!3m6!1s0x3972d7e7152b197f:0x89f8e237f2ccbf7!8m2!3d27.952061!4d77.1177758!16s%2Fg%2F11jr006lxs!19sChIJfxkrFefXcjkR98ssfyOOnwg?authuser=0&hl=en&rclk=1,"27.952061,77.11777579999999"
Masjid Berry Wali,Mosque,"Masjid Berry Wali, 5052, Netaji Subhash Marg, Daryaganj, New Delhi, Delhi, 110002",Daryaganj,"5052, Netaji Subhash Marg","New Delhi, Delhi",110002,Delhi,IN,https://www.google.com/maps/place/Masjid+Berry+Wali/data=!4m7!3m6!1s0x390cfd2077ef9a35:0x65651f472fd052c6!8m2!3d28.6463141!4d77.2405098!16s%2Fg%2F11g6_1mz03!19sChIJNZrvdyD9DDkRxlLQL0cfZWU?authuser=0&hl=en&rclk=1,"28.646314099999998,77.2405098"
Badi masjid bhuriaki,Mosque,"V5M9+43Q Badi masjid bhuriaki, Bhuriaki, Khorishah Chokha, Haryana 122508",,V5M9+43Q,"Bhuriaki, Khorishah Chokha",122508,Haryana,IN,https://www.google.com/maps/place/Badi+masjid+bhuriaki/data=!4m7!3m6!1s0x3972d92712b323f5:0x7b7440d1360626f0!8m2!3d27.8828411!4d77.1677483!16s%2Fg%2F11jk7v65_n!19sChIJ9SOzEifZcjkR8CYGNtFAdHs?authuser=0&hl=en&rclk=1,"27.8828411,77.1677483"
Masjid Beri Wali,Mosque,"5051, Masjid Beri Wali, 5, Netaji Subhash Marg, Daryaganj, New Delhi, Delhi, 110002",Daryaganj,"5051, 5, Netaji Subhash Marg","New Delhi, Delhi",110002,Delhi,IN,https://www.google.com/maps/place/Masjid+Beri+Wali/data=!4m7!3m6!1s0x390cfd816e5afc6d:0x2ccc293d40535a24!8m2!3d28.6464121!4d77.2405247!16s%2Fg%2F11h1htr55d!19sChIJbfxaboH9DDkRJFpTQD0pzCw?authuser=0&hl=en&rclk=1,"28.6464121,77.2405247"
masjid beri wali,Mosque,"QJRJ+XFG masjid beri wali, Bhojpur, Uttar Pradesh 245304",,QJRJ+XFG,Bhojpur,245304,Uttar Pradesh,IN,https://www.google.com/maps/place/masjid+beri+wali/data=!4m7!3m6!1s0x390c8bc9dc688527:0xaa264c1288304260!8m2!3d28.7924398!4d77.6311919!16s%2Fg%2F11g7zg676l!19sChIJJ4Vo3MmLDDkRYEIwiBJMJqo?authuser=0&hl=en&rclk=1,"28.7924398,77.63119189999999"
Noori Masjid Intizamiya Committee (R.),Mosque,"Noori Masjid Intizamiya Committee (R.), F-16, Street Number 2, Swami Shraddhanand Park, Bhalswa Dairy, Bhalswa, Delhi, 110042","Swami Shraddhanand Park, Bhalswa Dairy, Bhalswa","F-16, Street Number 2",Delhi,110042,Delhi,IN,https://www.google.com/maps/place/Noori+Masjid+Intizamiya+Committee+%28R.%29/data=!4m7!3m6!1s0x390d012877906d99:0xaaa5693cdb31700f!8m2!3d28.745962!4d77.1609802!16s%2Fg%2F11l26zztyg!19sChIJmW2QdygBDTkRD3Ax2zxppao?authuser=0&hl=en&rclk=1,"28.745962,77.1609802"
Masjid Abubakr,Mosque,"38P3+P55 Masjid Abubakr, Vill, Teekri Brahman, Haryana 121102",Vill,38P3+P55,Teekri Brahman,,Haryana,IN,https://www.google.com/maps/place/Masjid+Abubakr/data=!4m7!3m6!1s0x390cd3c3b182c2b5:0xf983e1285160b0dd!8m2!3d28.0867599!4d77.3029792!16s%2Fg%2F11f5_jyh6l!19sChIJtcKCscPTDDkR3bBgUSjhg_k?authuser=0&hl=en&rclk=1,"28.086759899999997,77.3029792"
Safed Masjid,Mosque,"MJHC+X4C Safed Masjid, Unnamed Road, Dujana, Haryana 124102",,"MJHC+X4C, Unnamed Road",Dujana,124102,Haryana,IN,https://www.google.com/maps/place/Safed+Masjid/data=!4m7!3m6!1s0x390d799847c7926b:0x5195831513ee517!8m2!3d28.6799464!4d76.6202778!16s%2Fg%2F11r58zg0cr!19sChIJa5LHR5h5DTkRF-U-UTFYGQU?authuser=0&hl=en&rclk=1,"28.6799464,76.6202778"
Masjid Beri Wali,Mosque,"Masjid Beri Wali, 2299, Shankar Gali, Kalyanpura, Old Delhi, New Delhi, Delhi, 110006","Kalyanpura, Old Delhi","2299, Shankar Gali","New Delhi, Delhi",110006,Delhi,IN,https://www.google.com/maps/place/Masjid+Beri+Wali/data=!4m7!3m6!1s0x390cfd93c2d4288f:0x5765e5b527101cf2!8m2!3d28.6445454!4d77.2300924!16s%2Fg%2F11vllb9hfn!19sChIJjyjUwpP9DDkR8hwQJ7XlZVc?authuser=0&hl=en&rclk=1,"28.6445454,77.23009239999999"
Akbari masjid,Mosque,"85VW+H87 Akbari masjid, Dhouj, Haryana 121004",,85VW+H87,Dhouj,,Haryana,IN,https://www.google.com/maps/place/Akbari+masjid/data=!4m7!3m6!1s0x390cd9d5fb4f3885:0xdc203a4ccc012868!8m2!3d28.3439056!4d77.1957909!16s%2Fg%2F11jt0xm7w1!19sChIJhThP-9XZDDkRaCgBzEw6INw?authuser=0&hl=en&rclk=1,"28.3439056,77.19579089999999"
Karji Masjid,Mosque,"MJJ9+7G5 Karji Masjid, Unnamed Road, Dujana, Haryana 124102",,"MJJ9+7G5, Unnamed Road",Dujana,124102,Haryana,IN,https://www.google.com/maps/place/Karji+Masjid/data=!4m7!3m6!1s0x390d7961fc0023eb:0x9ebc73fa8d94e202!8m2!3d28.6806344!4d76.6188612!16s%2Fg%2F11pfs3pllj!19sChIJ6yMA_GF5DTkRAuKUjfpzvJ4?authuser=0&hl=en&rclk=1,"28.6806344,76.6188612"
Sadar Masjid beri khurd,Mosque,"9QQF+J9X Sadar Masjid beri khurd, Unnamed Road, Beri Khurd, Rajasthan 341551",,"9QQF+J9X, Unnamed Road",Beri Khurd,341551,Rajasthan,IN,https://www.google.com/maps/place/Sadar+Masjid+beri+khurd/data=!4m7!3m6!1s0x396b69ae62f2de2f:0x77ac97c4c56cf168!8m2!3d27.3891063!4d74.7734709!16s%2Fg%2F11n0df8fw1!19sChIJL97yYq5pazkRaPFsxcSXrHc?authuser=0&hl=en&rclk=1,"27.389106299999998,74.77347089999999"
Masjid e Nawab,Mosque,"MJHF+M47 Masjid e Nawab, tehsil, Beri, Dujana, Haryana 124102",,MJHF+M47 tehsil,"Beri, Dujana",124102,Haryana,IN,https://www.google.com/maps/place/Masjid+e+Nawab/data=!4m7!3m6!1s0x390d79f96e699b3d:0x44f2f3b8f0885e15!8m2!3d28.6792011!4d76.6228275!16s%2Fg%2F11l1mfm4cx!19sChIJPZtpbvl5DTkRFV6I8Ljz8kQ?authuser=0&hl=en&rclk=1,"28.6792011,76.6228275"
bddii Masjid,Mosque,"RX2Q+789 bddii Masjid, Nangli, Haryana 122104",,RX2Q+789,Nangli,122104,Haryana,IN,https://www.google.com/maps/place/%E0%A4%AC%E0%A4%A1%E0%A5%80+Masjid/data=!4m7!3m6!1s0x3972c500392e894d:0x43f090ddfa522d83!8m2!3d27.8006528!4d76.9883551!16s%2Fg%2F11rrpyygxd!19sChIJTYkuOQDFcjkRgy1S-t2Q8EM?authuser=0&hl=en&rclk=1,"27.800652799999998,76.98835509999999"
modddh vaalii msjid bibiipur nuuh,Mosque,"24FH+P2J modddh vaalii msjid bibiipur nuuh, Bibipur, Kalanjar, Haryana 122107",Bibipur,24FH+P2J,Kalanjar,122107,Haryana,IN,https://www.google.com/maps/place/%E0%A4%AE%E0%A5%8B%E0%A5%9C+%E0%A4%B5%E0%A4%BE%E0%A4%B2%E0%A5%80+%E0%A4%AE%E0%A4%B8%E0%A5%8D%E0%A4%9C%E0%A4%BF%E0%A4%A6+%E0%A4%AC%E0%A4%BF%E0%A4%AC%E0%A5%80%E0%A4%AA%E0%A5%81%E0%A4%B0+%E0%A4%A8%E0%A5%82%E0%A4%B9/data=!4m7!3m6!1s0x3972d5d448df2755:0xcf20cd18ac6cbf0a!8m2!3d28.0243456!4d77.1275304!16s%2Fg%2F11t_pnpfmz!19sChIJVSffSNTVcjkRCr9srBjNIM8?authuser=0&hl=en&rclk=1,"28.0243456,77.1275304"
Jama Masjid Kahnaur,Mosque,"QF6R+364 Jama Masjid Kahnaur, Kahnaur, Haryana 124412",,QF6R+364,Kahnaur,124412,Haryana,IN,https://www.google.com/maps/place/Jama+Masjid+Kahnaur/data=!4m7!3m6!1s0x390d812995f12ae7:0xc6fd407416e8f4d6!8m2!3d28.7601408!4d76.4905721!16s%2Fg%2F11ts00lb22!19sChIJ5yrxlSmBDTkR1vToFnRA_cY?authuser=0&hl=en&rclk=1,"28.7601408,76.4905721"
Beri Wali Masjid,Medical laboratory,"CX2P+387 Beri Wali Masjid, Hanuman Colony, Desraj Colony, Panipat, Panipat Taraf Makhdum Zadgan, Haryana 132103","Hanuman Colony, Desraj Colony",CX2P+387,"Panipat, Panipat Taraf Makhdum Zadgan",132103,Haryana,IN,https://www.google.com/maps/place/Beri+Wali+Masjid/data=!4m7!3m6!1s0x390dda406aedc9d7:0x68b01d987a73384a!8m2!3d29.40017!4d76.985782!16s%2Fg%2F11s34x040x!19sChIJ18ntakDaDTkRSjhzepgdsGg?authuser=0&hl=en&rclk=1,"29.40017,76.985782"
Meenakshi,Mosque,"QM4F+72R Meenakshi, Barhana, Mamian, Haryana 124107",,QM4F+72R,"Barhana, Mamian",124107,Haryana,IN,https://www.google.com/maps/place/Meenakshi/data=!4m7!3m6!1s0x390d9d5ac1131b5b:0x2800da08dacc579b!8m2!3d28.7557361!4d76.6725052!16s%2Fg%2F11svwd5zc5!19sChIJWxsTwVqdDTkRm1fM2gjaACg?authuser=0&hl=en&rclk=1,"28.7557361,76.6725052"
