name,main_category,address,address_ward,address_street,address_city,address_postal_code,address_state,address_country_code,link,coordinates
Masjid e noore mohammedi,Mosque,"Masjid e noore mohammedi, Yaqubpura Basavakalyan, Mandai, Basavakalyan, Karnataka 585327",Mandai,Yaqubpura Basavakalyan,Basavakalyan,585327,Karnataka,IN,https://www.google.com/maps/place/Masjid+e+noore+mohammedi/data=!4m7!3m6!1s0x3bcf3bcc541cffcd:0xd58a3d8b94834be6!8m2!3d17.876956!4d76.9420616!16s%2Fg%2F11sb3l3cnl!19sChIJzf8cVMw7zzsR5kuDlIs9itU?authuser=0&hl=en&rclk=1,"17.876956,76.9420616"
Jama Masjid,Mosque,"Jama Masjid, Mandai, Basavakalyan, Karnataka 585327",Mandai,,Basavakalyan,585327,Karnataka,IN,https://www.google.com/maps/place/Jama+Masjid/data=!4m7!3m6!1s0x3bcf3b8e1f7e7def:0x4ed341989a34cf80!8m2!3d17.8782795!4d76.9484631!16s%2Fg%2F1trpp7l2!19sChIJ731-H447zzsRgM80mphB004?authuser=0&hl=en&rclk=1,"17.878279499999998,76.9484631"
Umar Masjid,Mosque,"Umar Masjid, Azam Colony, 2, Main Rd, Tripuranth, Shivaji Nagar, Basavakalyan, Karnataka 585327","Tripuranth, Shivaji Nagar","Azam Colony, 2, Main Rd",Basavakalyan,585327,Karnataka,IN,https://www.google.com/maps/place/Umar+Masjid/data=!4m7!3m6!1s0x3bcf3bbc4dfaf133:0x1c51a3b49b3605a!8m2!3d17.8634888!4d76.9491224!16s%2Fg%2F11c0rnsnm_!19sChIJM_H6Tbw7zzsRWmCzSTsaxQE?authuser=0&hl=en&rclk=1,"17.8634888,76.9491224"
Masjid E Hashmat,Mosque,"VW4X+FQW Masjid E Hashmat, Basavakalyan, Karnataka 585327",,VW4X+FQW,Basavakalyan,585327,Karnataka,IN,https://www.google.com/maps/place/Masjid+E+Hashmat/data=!4m7!3m6!1s0x3bcf3bba6740f043:0x135bc4a974e26d0a!8m2!3d17.8562321!4d76.9494658!16s%2Fg%2F11c75sk7j2!19sChIJQ_BAZ7o7zzsRCm3idKnEWxM?authuser=0&hl=en&rclk=1,"17.8562321,76.9494658"
Madina Masjid,Mosque,"VX62+CQC Madina Masjid, 585327, Jaishankar Colony, Madina Colony, Basavakalyan, Karnataka 585327","Jaishankar Colony, Madina Colony","VX62+CQC, 585327",Basavakalyan,585327,Karnataka,IN,https://www.google.com/maps/place/Madina+Masjid/data=!4m7!3m6!1s0x3bcf3bbca91f111f:0xbdf972c62086c2d6!8m2!3d17.8611051!4d76.9522585!16s%2Fg%2F11g6nzx00d!19sChIJHxEfqbw7zzsR1sKGIMZy-b0?authuser=0&hl=en&rclk=1,"17.8611051,76.9522585"
Masjid Sang-e- Siyah,Mosque,"VWJX+577 Masjid Sang-e- Siyah, Khila galli, SH163, Basavakalyan, Karnataka 585327",Mandai,"VWJX+577, Khila galli, SH163",Basavakalyan,585327,Karnataka,IN,https://www.google.com/maps/place/Masjid+Sang-e-+Siyah/data=!4m7!3m6!1s0x3bcf3b8e66921c0f:0xe2159f4953dc3dfa!8m2!3d17.8804189!4d76.9481702!16s%2Fg%2F11cms_j2jh!19sChIJDxySZo47zzsR-j3cU0mfFeI?authuser=0&hl=en&rclk=1,"17.8804189,76.94817019999999"
Bilal Masjid,Mosque,"Bilal Masjid, Yaqoobpura Basavakalyan, Morkhandi, Basavakalyan, Karnataka 585327",Morkhandi,Yaqoobpura Basavakalyan,Basavakalyan,585327,Karnataka,IN,https://www.google.com/maps/place/Bilal+Masjid/data=!4m7!3m6!1s0x3bcf3b92985a32e3:0xf6bdf53527a875cb!8m2!3d17.8721808!4d76.9470229!16s%2Fg%2F11fy575w6t!19sChIJ4zJamJI7zzsRy3WoJzX1vfY?authuser=0&hl=en&rclk=1,"17.8721808,76.9470229"
Masjid-e-baitul mukhaddas,Mosque,"VXF3+RJP Masjid-e-baitul mukhaddas, Allah Nagar, Basavakalyan, Karnataka 585327",Allah Nagar,VXF3+RJP,Basavakalyan,585327,Karnataka,IN,https://www.google.com/maps/place/Masjid-e-baitul+mukhaddas/data=!4m7!3m6!1s0x3bcf3b9a69e60c41:0x1b85d26378988e4f!8m2!3d17.8745972!4d76.9540884!16s%2Fg%2F11gbksj0wg!19sChIJQQzmaZo7zzsRT46YeGPShRs?authuser=0&hl=en&rclk=1,"17.8745972,76.9540884"
Masjid-e-MOHAMMADIA Mominpura Dharagiri,Mosque,"Masjid-e-MOHAMMADIA Mominpura Dharagiri, Allah Nagar, Basavakalyan, Karnataka 585327",Allah Nagar,,Basavakalyan,585327,Karnataka,IN,https://www.google.com/maps/place/Masjid-e-MOHAMMADIA+Mominpura+Dharagiri/data=!4m7!3m6!1s0x3bcf3b91b28a3705:0xccbccb1bb8e5abdc!8m2!3d17.8760012!4d76.9497298!16s%2Fg%2F11dy794dk5!19sChIJBTeKspE7zzsR3KvluBvLvMw?authuser=0&hl=en&rclk=1,"17.876001199999997,76.9497298"
Masjid E Hashmat Ahle Hadees,Mosque,"VWCW+R6M Masjid E Hashmat Ahle Hadees, near GESCOM office, Morkhandi, Basavakalyan, Karnataka 585327",Morkhandi,"VWCW+R6M, near GESCOM office",Basavakalyan,585327,Karnataka,IN,https://www.google.com/maps/place/Masjid+E+Hashmat+Ahle+Hadees/data=!4m7!3m6!1s0x3bcf3bbae8965c39:0x4b66af8a1be581a!8m2!3d17.8720897!4d76.9455323!16s%2Fg%2F11ghlvt5lj!19sChIJOVyW6Lo7zzsRGli-ofhqtgQ?authuser=0&hl=en&rclk=1,"17.8720897,76.9455323"
MASJID E ILAHI,Mosque,"VW3X+MC6 MASJID E ILAHI, Unnamed Road, Tripuranth, Nagalingeshwar Colony, Basavakalyan, Karnataka 585327","Tripuranth, Nagalingeshwar Colony","VW3X+MC6, Unnamed Road",Basavakalyan,585327,Karnataka,IN,https://www.google.com/maps/place/MASJID+E+ILAHI/data=!4m7!3m6!1s0x3bcf3bb0984394d7:0x8814751a4d8c387a!8m2!3d17.8541711!4d76.9485012!16s%2Fg%2F11f_w9zt1k!19sChIJ15RDmLA7zzsRejiMTRp1FIg?authuser=0&hl=en&rclk=1,"17.8541711,76.9485012"
Masjide Maqbara,Mosque,"Masjide Maqbara, Masjid E Nalband, 1/447-A, Badi Beedh, Kurnool, Basavakalyan, Karnataka 585327",Badi Beedh,"Masjid E Nalband, 1/447-A","Kurnool, Basavakalyan",585327,Karnataka,IN,https://www.google.com/maps/place/Masjide+Maqbara/data=!4m7!3m6!1s0x3bcf3b8e005abd95:0x4088db94f63795e9!8m2!3d17.8780622!4d76.9471532!16s%2Fg%2F11b75m5fbj!19sChIJlb1aAI47zzsR6ZU39pTbiEA?authuser=0&hl=en&rclk=1,"17.8780622,76.9471532"
EID GAH,Mosque,"VWGV+46H EID GAH, Gandhhi Chowk,, Basavakalyan, Karnataka 585327",Mandai,"VWGV+46H, Gandhhi Chowk,",Basavakalyan,585327,Karnataka,IN,https://www.google.com/maps/place/EID+GAH/data=!4m7!3m6!1s0x3bcf3b92e5d6df93:0x660fecb7378cfcb4!8m2!3d17.8753191!4d76.9430949!16s%2Fg%2F11c563dh5y!19sChIJk9_W5ZI7zzsRtPyMN7fsD2Y?authuser=0&hl=en&rclk=1,"17.8753191,76.94309489999999"
Masjid_E_Ghazipura,Mosque,"VXG2+GFW Masjid_E_Ghazipura, Allah Nagar, Basavakalyan, Karnataka 585327",Allah Nagar,VXG2+GFW,Basavakalyan,585327,Karnataka,IN,https://www.google.com/maps/place/Masjid_E_Ghazipura/data=!4m7!3m6!1s0x3bcf3b904227be59:0xbf91301c446503fa!8m2!3d17.8763551!4d76.9512123!16s%2Fg%2F11c6cfzklx!19sChIJWb4nQpA7zzsR-gNlRBwwkb8?authuser=0&hl=en&rclk=1,"17.876355099999998,76.9512123"
Masjid E Abdul Rasool,Mosque,"VWGX+XRG Masjid E Abdul Rasool, Allah Nagar, Basavakalyan, Karnataka 585327",Allah Nagar,VWGX+XRG,Basavakalyan,585327,Karnataka,IN,https://www.google.com/maps/place/Masjid+E+Abdul+Rasool/data=!4m7!3m6!1s0x3bcf3b91d21712b5:0x70a656f8cd4a79bd!8m2!3d17.8774361!4d76.9495934!16s%2Fg%2F11fxy42m1k!19sChIJtRIX0pE7zzsRvXlKzfhWpnA?authuser=0&hl=en&rclk=1,"17.8774361,76.9495934"
Masjid-e-Sotepeer,Mosque,"VWGX+88F Masjid-e-Sotepeer, Masjid-e-Sotepeer,, Basavakalyan, Karnataka 585327",Mandai,"VWGX+88F, Masjid-e-Sotepeer,",Basavakalyan,585327,Karnataka,IN,https://www.google.com/maps/place/Masjid-e-Sotepeer/data=!4m7!3m6!1s0x3bcf3b9199d4b0e7:0x55558c287a64d623!8m2!3d17.8758232!4d76.9483005!16s%2Fg%2F11csbq0cxb!19sChIJ57DUmZE7zzsRI9ZkeiiMVVU?authuser=0&hl=en&rclk=1,"17.8758232,76.9483005"
Masjid-E-Abbubakar Sidikh Rz,Mosque,"VWFW+4WC Masjid-E-Abbubakar Sidikh Rz, Morkhandi, Basavakalyan, Karnataka 585327",Morkhandi,VWFW+4WC,Basavakalyan,585327,Karnataka,IN,https://www.google.com/maps/place/Masjid-E-Abbubakar+Sidikh+Rz/data=!4m7!3m6!1s0x3bcf3b9157666e7f:0x2935277cd1860e6!8m2!3d17.872808!4d76.947273!16s%2Fg%2F11dfhzh4q9!19sChIJf25mV5E7zzsR5mAYzXdSkwI?authuser=0&hl=en&rclk=1,"17.872808,76.947273"
Noor Masjid,Mosque,"Noor Masjid, 8397, Madina Colony, Basavakalyan, Karnataka 585327",Madina Colony,8397,Basavakalyan,585327,Karnataka,IN,https://www.google.com/maps/place/Noor+Masjid/data=!4m7!3m6!1s0x3bcf3ba2ca396a1b:0xb4ada0ada4b9ef61!8m2!3d17.8647343!4d76.9525175!16s%2Fg%2F11g8v1v3r_!19sChIJG2o5yqI7zzsRYe-5pK2grbQ?authuser=0&hl=en&rclk=1,"17.8647343,76.9525175"
Masjid e gulfamiya,Mosque,"VXG2+RRH Masjid e gulfamiya, Anwarpeth, Allah Nagar, Basavakalyan, Karnataka 585327",Allah Nagar,"VXG2+RRH, Anwarpeth",Basavakalyan,585327,Karnataka,IN,https://www.google.com/maps/place/Masjid+e+gulfamiya/data=!4m7!3m6!1s0x3bcf3b900d8ef4a5:0x22ca735e694229b4!8m2!3d17.8770516!4d76.9520972!16s%2Fg%2F11g81w0m0x!19sChIJpfSODZA7zzsRtClCaV5zyiI?authuser=0&hl=en&rclk=1,"17.877051599999998,76.9520972"
Masjid E Tahera,Mosque,"Masjid E Tahera, Biradar colony, Morkhandi, Basavakalyan, Karnataka 585327",Morkhandi,Biradar colony,Basavakalyan,585327,Karnataka,IN,https://www.google.com/maps/place/Masjid+E+Tahera/data=!4m7!3m6!1s0x3bcf3b731812a2d5:0xf0f0a24d6a170395!8m2!3d17.8602263!4d76.946832!16s%2Fg%2F11f9y4vsw7!19sChIJ1aISGHM7zzsRlQMXak2i8PA?authuser=0&hl=en&rclk=1,"17.8602263,76.946832"
Masjid E Arfa,Mosque,"VXP8+G4F Masjid E Arfa, Bidar, Karnataka 585327",,VXP8+G4F,Bidar,585327,Karnataka,IN,https://www.google.com/maps/place/Masjid+E+Arfa/data=!4m7!3m6!1s0x3bcf3b7f423fa7a7:0x476cdbfda818f5a4!8m2!3d17.886309!4d76.965304!16s%2Fg%2F11f00dl4fp!19sChIJp6c_Qn87zzsRpPUYqP3bbEc?authuser=0&hl=en&rclk=1,"17.886309,76.965304"
Masjid Nisar Ahmed,Mosque,"VWFX+9FF Masjid Nisar Ahmed, Gandhi Chowk, Old Vegetable Market, Allah Nagar, Basavakalyan, Karnataka 585327","Old Vegetable Market, Allah Nagar","VWFX+9FF, Gandhi Chowk",Basavakalyan,585327,Karnataka,IN,https://www.google.com/maps/place/Masjid+Nisar+Ahmed/data=!4m7!3m6!1s0x3bcf3b913ede955d:0xc0072045e9bce26a!8m2!3d17.8734373!4d76.948665!16s%2Fg%2F11dxqgdzyg!19sChIJXZXePpE7zzsRauK86UUgB8A?authuser=0&hl=en&rclk=1,"17.8734373,76.94866499999999"
Masjide Mohammedia Gulshane Bahar,Mosque,"VXH3+GQX Masjide Mohammedia Gulshane Bahar, Allah Nagar, Basavakalyan, Karnataka 585327",Allah Nagar,VXH3+GQX,Basavakalyan,585327,Karnataka,IN,https://www.google.com/maps/place/Masjide+Mohammedia+Gulshane+Bahar/data=!4m7!3m6!1s0x3bcf3b85368dc3a3:0xca47a6fe9c55c09d!8m2!3d17.8788741!4d76.9544806!16s%2Fg%2F11f130h02l!19sChIJo8ONNoU7zzsRncBVnP6mR8o?authuser=0&hl=en&rclk=1,"17.8788741,76.9544806"
Masjid-e-Quba,Mosque,"VW6X+P3R Masjid-e-Quba, Morkhandi, Basavakalyan, Karnataka 585327",Morkhandi,VW6X+P3R,Basavakalyan,585327,Karnataka,IN,https://www.google.com/maps/place/Masjid-e-Quba/data=!4m7!3m6!1s0x3bcf3bbc18172055:0x753d0070ad3d8261!8m2!3d17.8618533!4d76.9476487!16s%2Fg%2F11gfcyl8jm!19sChIJVSAXGLw7zzsRYYI9rXAAPXU?authuser=0&hl=en&rclk=1,"17.8618533,76.9476487"
Masjid E Al Quraish,Mosque,"VXH2+836 Masjid E Al Quraish, Quresh, Kali Galli, Basavakalyan, Karnataka 585327",Allah Nagar,"VXH2+836, Quresh, Kali Galli",Basavakalyan,585327,Karnataka,IN,https://www.google.com/maps/place/Masjid+E+Al+Quraish/data=!4m7!3m6!1s0x3bcf3b8fd5b645e7:0x4695a7cc25cbdae8!8m2!3d17.878275!4d76.9501533!16s%2Fg%2F11f00dt___!19sChIJ50W21Y87zzsR6NrLJcynlUY?authuser=0&hl=en&rclk=1,"17.878275,76.9501533"
Bara Imam Masjid,Mosque,"Bara Imam Masjid, Bara Imam, Kali Galli, Mandai, Basavakalyan, Karnataka 585327",Mandai,"Bara Imam, Kali Galli",Basavakalyan,585327,Karnataka,IN,https://www.google.com/maps/place/Bara+Imam+Masjid/data=!4m7!3m6!1s0x3bcf3b8de8923343:0x5dfe91829b87bb74!8m2!3d17.8791098!4d76.9462491!16s%2Fg%2F11hcdsfy4r!19sChIJQzOS6I07zzsRdLuHm4KR_l0?authuser=0&hl=en&rclk=1,"17.8791098,76.9462491"
masjid e Taj ahle sunnatwul jamat,Mosque,"masjid e Taj ahle sunnatwul jamat, behind bus stand, Kamalakar, Basavakalyan, Karnataka 585327",Kamalakar,behind bus stand,Basavakalyan,,Karnataka,IN,https://www.google.com/maps/place/masjid+e+Taj+ahle+sunnatwul+jamat/data=!4m7!3m6!1s0x3bcf3b9ce7d667f3:0xd0112488af0f3869!8m2!3d17.8771933!4d76.9602015!16s%2Fg%2F11c5hwxgx6!19sChIJ82fW55w7zzsRaTgPr4gkEdA?authuser=0&hl=en&rclk=1,"17.8771933,76.9602015"
Masjid-e-Farooq,Mosque,"Masjid-e-Farooq, Madarsa, Madarsa Qiarulanam, Qiarulanam, Basavakalyan, Karnataka 585327",Qiarulanam,"Madarsa, Madarsa Qiarulanam",Basavakalyan,585327,Karnataka,IN,https://www.google.com/maps/place/Masjid-e-Farooq/data=!4m7!3m6!1s0x3bcf3b789f0d71e1:0xc5242bd5c05ce3fe!8m2!3d17.8833542!4d76.9645272!16s%2Fg%2F11gfbc1lcd!19sChIJ4XENn3g7zzsR_uNcwNUrJMU?authuser=0&hl=en&rclk=1,"17.8833542,76.96452719999999"
Masjid E Hussain,Mosque,"VW8R+GPJ Masjid E Hussain, Morkhandi, Basavakalyan, Karnataka 585327",Morkhandi,VW8R+GPJ,Basavakalyan,585327,Karnataka,IN,https://www.google.com/maps/place/Masjid+E+Hussain/data=!4m7!3m6!1s0x3bcf3b2a6a701c0f:0x51c637e19234a9b0!8m2!3d17.8663337!4d76.9417674!16s%2Fg%2F11fmf1v92b!19sChIJDxxwaio7zzsRsKk0kuE3xlE?authuser=0&hl=en&rclk=1,"17.8663337,76.9417674"
Masjid E Garib Nawaz,Mosque,"VXH4+4CM Masjid E Garib Nawaz, mehbob nagar, Basavakalyan, Karnataka",Allah Nagar,"VXH4+4CM, mehbob nagar",Basavakalyan,,Karnataka,IN,https://www.google.com/maps/place/Masjid+E+Garib+Nawaz/data=!4m7!3m6!1s0x3bcf3b9b2f4083d5:0x949678c60897577!8m2!3d17.8778363!4d76.956057!16s%2Fg%2F11dymnj427!19sChIJ1YNAL5s7zzsRd3WJYIxnSQk?authuser=0&hl=en&rclk=1,"17.8778363,76.956057"
"Bijliqan Masjid, bjly khN msjd",Mosque,"VWHX+RV6 Bijliqan Masjid, bjly khN msjd, Mallikarjun Galli, Allah Nagar, Basavakalyan, Karnataka 585327",Allah Nagar,"VWHX+RV6, Mallikarjun Galli",Basavakalyan,585327,Karnataka,IN,"https://www.google.com/maps/place/Bijliqan+Masjid,+%D8%A8%D8%AC%D9%84%DB%8C+%D8%AE%D8%A7%DA%BA+%D9%85%D8%B3%D8%AC%D8%AF%E2%80%AD/data=!4m7!3m6!1s0x3bcf3b8e35f3e6b7:0x6c13b009745bb85!8m2!3d17.8795451!4d76.9496485!16s%2Fg%2F11hcfqlbly!19sChIJt-bzNY47zzsRhbtFlwA7wQY?authuser=0&hl=en&rclk=1","17.879545099999998,76.9496485"
masjide kate wadi,Mosque,"VWGX+XPV masjide kate wadi, Allah Nagar, Basavakalyan, Karnataka 585327",Allah Nagar,VWGX+XPV,Basavakalyan,585327,Karnataka,IN,https://www.google.com/maps/place/masjide+kate+wadi/data=!4m7!3m6!1s0x3bcf3b91d051d61b:0x36bda1fee2c0893d!8m2!3d17.8774865!4d76.9492983!16s%2Fg%2F11g8tzq2d_!19sChIJG9ZR0JE7zzsRPYnA4v6hvTY?authuser=0&hl=en&rclk=1,"17.8774865,76.9492983"
bchy wly msjd,Mosque,"VXH2+C49 bchy wly msjd, Deshmukh Galli, Allah Nagar, Basavakalyan, Karnataka 585327",Allah Nagar,"VXH2+C49, Deshmukh Galli",Basavakalyan,585327,Karnataka,IN,https://www.google.com/maps/place/%D8%A8%DA%86%DB%92+%D9%88%D8%A7%D9%84%DB%8C+%D9%85%D8%B3%D8%AC%D8%AF%E2%80%AD/data=!4m7!3m6!1s0x3bcf3b8fd136f13b:0xb09841dbea2e3e24!8m2!3d17.8785316!4d76.9503658!16s%2Fg%2F11f4lb08pv!19sChIJO_E20Y87zzsRJD4u6ttBmLA?authuser=0&hl=en&rclk=1,"17.8785316,76.9503658"
Masjid -e- Almas,Mosque,"VWJX+PHP Masjid -e- Almas, Fort Rd, Hanmath Nagar, Mandai, Basavakalyan, Karnataka 585327","Hanmath Nagar, Mandai","VWJX+PHP, Fort Rd",Basavakalyan,585327,Karnataka,IN,https://www.google.com/maps/place/Masjid+-e-+Almas/data=!4m7!3m6!1s0x3bcf3b93fdfc93f7:0xec4d6fddd04d8ffb!8m2!3d17.881836!4d76.9489523!16s%2Fg%2F11qqt3z3tv!19sChIJ95P8_ZM7zzsR-49N0N1vTew?authuser=0&hl=en&rclk=1,"17.881836,76.9489523"
Masjid-e-Yaqoob,Mosque,"VXH3+QX6 Masjid-e-Yaqoob, Shah Hussain Galli, Allah Nagar, Basavakalyan, Karnataka 585327",Allah Nagar,"VXH3+QX6, Shah Hussain Galli",Basavakalyan,585327,Karnataka,IN,https://www.google.com/maps/place/Masjid-e-Yaqoob/data=!4m7!3m6!1s0x3bcf3b853b3ae32f:0xa97e3d2536d5173d!8m2!3d17.8794059!4d76.9548887!16s%2Fg%2F11hbl9ynnz!19sChIJL-M6O4U7zzsRPRfVNiU9fqk?authuser=0&hl=en&rclk=1,"17.8794059,76.9548887"
Masjid,Mosque,"VWJW+XV3 Masjid, Mandai, Basavakalyan, Karnataka 585327",Mandai,VWJW+XV3,Basavakalyan,585327,Karnataka,IN,https://www.google.com/maps/place/Masjid/data=!4m7!3m6!1s0x3bcf3b8ea0f6a625:0x741f8cfb602e7e8f!8m2!3d17.8823951!4d76.9471735!16s%2Fg%2F11hckf5qqp!19sChIJJab2oI47zzsRj34uYPuMH3Q?authuser=0&hl=en&rclk=1,"17.8823951,76.94717349999999"
Naregar Masjid,Mosque,"VXH3+257 Naregar Masjid, Naregar, Kali Galli, Basavakalyan, Karnataka 585327",Allah Nagar,"VXH3+257, Naregar, Kali Galli",Basavakalyan,585327,Karnataka,IN,https://www.google.com/maps/place/Naregar+Masjid/data=!4m7!3m6!1s0x3bcf3b9aa86619dd:0xf423eb991e95ce89!8m2!3d17.8775323!4d76.9529119!16s%2Fg%2F11f4lh90r0!19sChIJ3RlmqJo7zzsRic6VHpnrI_Q?authuser=0&hl=en&rclk=1,"17.8775323,76.95291189999999"
Masjid-e-Banda Nawaz,Mosque,"VXJ4+JQ4 Masjid-e-Banda Nawaz, SH 34, Kamalakar, Basavakalyan, Karnataka 585327",Kamalakar,"VXJ4+JQ4, SH 34",Basavakalyan,585327,Karnataka,IN,https://www.google.com/maps/place/Masjid-e-Banda+Nawaz/data=!4m7!3m6!1s0x3bcf3b6ef3a88e35:0x176ab62d93dc10b3!8m2!3d17.881521!4d76.9569427!16s%2Fg%2F11h0zhv63n!19sChIJNY6o8247zzsRsxDcky22ahc?authuser=0&hl=en&rclk=1,"17.881521,76.9569427"
bachche Wali Masjid,Mosque,"VWCX+32J bachche Wali Masjid, Deshmukh galli, Morkhandi, Basavakalyan, Karnataka 585327",Morkhandi,"VWCX+32J, Deshmukh galli",Basavakalyan,585327,Karnataka,IN,https://www.google.com/maps/place/bachche+Wali+Masjid/data=!4m7!3m6!1s0x3bcf3bc11f48aa99:0x2147fbe763f6cdb3!8m2!3d17.8702247!4d76.9475275!16s%2Fg%2F11h4zkm7n7!19sChIJmapIH8E7zzsRs832Y-f7RyE?authuser=0&hl=en&rclk=1,"17.870224699999998,76.94752749999999"
Chilla kankar alisha& Masjid-e-Rasheed chillaa kaaNkr alishaa & msjid rshiid,Mosque,"Chilla kankar alisha& Masjid-e-Rasheed chillaa kaaNkr alishaa & msjid rshiid, 24-98, Allah Nagar, Basavakalyan, Karnataka 585327",Allah Nagar,24-98,Basavakalyan,585327,Karnataka,IN,https://www.google.com/maps/place/Chilla+kankar+alisha%26+Masjid-e-Rasheed+%E0%B2%9B%E0%B2%BF%E0%B2%B2%E0%B3%8D%E0%B2%B2%E0%B2%BE+%E0%B2%95%E0%B2%BE%E0%B2%82%E0%B2%95%E0%B2%B0%E0%B3%8D+%E0%B2%85%E0%B2%B2%E0%B2%BF%E0%B2%B6%E0%B2%BE+%26+%E0%B2%AE%E0%B2%B8%E0%B3%8D%E0%B2%9C%E0%B2%BF%E0%B2%A6%E0%B3%8D+%E0%B2%B0%E0%B2%B6%E0%B3%80%E0%B2%A6%E0%B3%8D/data=!4m7!3m6!1s0x3bcf3baed8c06d51:0x642f3e536e6c6417!8m2!3d17.8743069!4d76.9529952!16s%2Fg%2F11pz2zwlt6!19sChIJUW3A2K47zzsRF2RsblM-L2Q?authuser=0&hl=en&rclk=1,"17.8743069,76.95299519999999"
MASJID E RAFEEQ,Mosque,"VX22+QXG MASJID E RAFEEQ, Shivapur Rd, Shivaji Nagar, Basavakalyan, Karnataka 585327",Shivaji Nagar,"VX22+QXG, Shivapur Rd",Basavakalyan,585327,Karnataka,IN,https://www.google.com/maps/place/MASJID+E+RAFEEQ/data=!4m7!3m6!1s0x3bcf3ba802de982f:0x8ee0fe0a77c5725c!8m2!3d17.8519491!4d76.9524617!16s%2Fg%2F11spvt4fsp!19sChIJL5jeAqg7zzsRXHLFdwr-4I4?authuser=0&hl=en&rclk=1,"17.8519491,76.9524617"
Masjid E Noor,Place of worship,"VWFV+2QH Masjid E Noor, Taj colony, Madina Colony, Basavakalyan, Karnataka 585327",Madina Colony,"VWFV+2QH, Taj colony",Basavakalyan,585327,Karnataka,IN,https://www.google.com/maps/place/Masjid+E+Noor/data=!4m7!3m6!1s0x3bcf3b93835ffb29:0x3a36def01db30b!8m2!3d17.8725697!4d76.9444985!16s%2Fg%2F11d_7wsp6w!19sChIJKftfg5M7zzsRC7Md8N42OgA?authuser=0&hl=en&rclk=1,"17.8725697,76.9444985"
Masjid E Raza,Mosque,"VXG5+F93 Masjid E Raza, Basavakalyan Bustand, SH 11, Kamalakar, Basavakalyan, Karnataka 585327",Kamalakar,"VXG5+F93, Basavakalyan Bustand, SH 11",Basavakalyan,585327,Karnataka,IN,https://www.google.com/maps/place/Masjid+E+Raza/data=!4m7!3m6!1s0x3bcf3b6ee8e4ed31:0x45dca697f8b00a33!8m2!3d17.876125!4d76.9584212!16s%2Fg%2F11r1sy5g_9!19sChIJMe3k6G47zzsRMwqw-Jem3EU?authuser=0&hl=en&rclk=1,"17.876125,76.95842119999999"
Masjid-e- Raheem,Mosque,"Masjid-e- Raheem, Shah Hussain Street, Bus stand, road, Allah Nagar, Basavakalyan, Karnataka 585327",Allah Nagar,"Shah Hussain Street, Bus stand, road",Basavakalyan,,Karnataka,IN,https://www.google.com/maps/place/Masjid-e-+Raheem/data=!4m7!3m6!1s0x3bcf3b5293ad761d:0x4fe2fdd5fc94bbcc!8m2!3d17.8794119!4d76.9553645!16s%2Fg%2F11qt07mggx!19sChIJHXatk1I7zzsRzLuU_NX94k8?authuser=0&hl=en&rclk=1,"17.8794119,76.9553645"
Masjid-e-Ghazipura msjid gaajipur,Mosque,"VXF2+PR5 Masjid-e-Ghazipura msjid gaajipur, Gazipura street, Basavakalyan, Karnataka 585327",Allah Nagar,"VXF2+PR5, Gazipura street",Basavakalyan,585327,Karnataka,IN,https://www.google.com/maps/place/Masjid-e-Ghazipura+%E0%B2%AE%E0%B2%B8%E0%B3%8D%E0%B2%9C%E0%B2%BF%E0%B2%A6%E0%B3%8D+%E0%B2%97%E0%B2%BE%E0%B2%9C%E0%B2%BF%E0%B2%AA%E0%B3%81%E0%B2%B0/data=!4m7!3m6!1s0x3bcf3bb037649d8b:0xc19df07d2dec5c58!8m2!3d17.8742502!4d76.9521129!16s%2Fg%2F11qzx70_85!19sChIJi51kN7A7zzsRWFzsLX3wncE?authuser=0&hl=en&rclk=1,"17.8742502,76.9521129"
Masjid-e-Kareem,Mosque,"VXH5+JJ5 Masjid-e-Kareem, Behind Basavakalyan Bustand, SH 11, Bilal Colony, Basavakalyan, Karnataka 585327",Bilal Colony,"VXH5+JJ5, Behind Basavakalyan Bustand, SH 11",Basavakalyan,585327,Karnataka,IN,https://www.google.com/maps/place/Masjid-e-Kareem/data=!4m7!3m6!1s0x3bcf3b7d0984d79f:0x22730a1dcfaa3f64!8m2!3d17.8790179!4d76.9591052!16s%2Fg%2F11j5rqbtv8!19sChIJn9eECX07zzsRZD-qzx0KcyI?authuser=0&hl=en&rclk=1,"17.8790179,76.9591052"
Masjid E Ayesha,Mosque,"VXH4+32G Masjid E Ayesha, Allah Nagar, Basavakalyan, Karnataka 585327",Allah Nagar,VXH4+32G,Basavakalyan,585327,Karnataka,IN,https://www.google.com/maps/place/Masjid+E+Ayesha/data=!4m7!3m6!1s0x3bcf3b9ada886395:0x99d75c219a939f36!8m2!3d17.8776973!4d76.9550748!16s%2Fg%2F11g7zfbrst!19sChIJlWOI2po7zzsRNp-TmiFc15k?authuser=0&hl=en&rclk=1,"17.877697299999998,76.95507479999999"
Masjid e Noorullah,Mosque,"VX92+VC5 Masjid e Noorullah, Narayanpur, cross, Basavakalyan, Karnataka 585327",Bank Colony,"VX92+VC5, Narayanpur, cross",Basavakalyan,585327,Karnataka,IN,https://www.google.com/maps/place/Masjid+e+Noorullah/data=!4m7!3m6!1s0x3bcf3b8813f29ba3:0x512014f37fcc13e3!8m2!3d17.8696285!4d76.9511185!16s%2Fg%2F11tgg_ympm!19sChIJo5vyE4g7zzsR4xPMf_MUIFE?authuser=0&hl=en&rclk=1,"17.869628499999997,76.95111849999999"
MASJID-E-ARFATH,Mosque,"MASJID-E-ARFATH, Arfath Colony, Tripuranth, Basavakalyan, Karnataka 585327",Tripuranth,Arfath Colony,Basavakalyan,585327,Karnataka,IN,https://www.google.com/maps/place/MASJID-E-ARFATH/data=!4m7!3m6!1s0x3bcf3b3d188fc441:0x77116bb1d5d4ba23!8m2!3d17.8542512!4d76.9499892!16s%2Fg%2F11lg4ktf7r!19sChIJQcSPGD07zzsRI7rU1bFrEXc?authuser=0&hl=en&rclk=1,"17.8542512,76.94998919999999"
New mosque,Place of worship,"New mosque, 100A, Allah Nagar, Basavakalyan, Karnataka 585327",Allah Nagar,100A,Basavakalyan,585327,Karnataka,IN,https://www.google.com/maps/place/New+mosque/data=!4m7!3m6!1s0x3bcf3b7e30d70399:0xed476a60ced9a054!8m2!3d17.8788058!4d76.9506804!16s%2Fg%2F11shxqvz_d!19sChIJmQPXMH47zzsRVKDZzmBqR-0?authuser=0&hl=en&rclk=1,"17.8788058,76.9506804"
