name,main_category,address,address_ward,address_street,address_city,address_postal_code,address_state,address_country_code,link,coordinates
Jama Masjid,Mosque,"Jama Masjid, Old Delhi, Delhi, 110006","Jama Masjid, Old Delhi",,Delhi,110006,Delhi,IN,https://www.google.com/maps/place/Jama+Masjid/data=!4m7!3m6!1s0x390cfd18df89b215:0xdd57369e29bf9d96!8m2!3d28.6506792!4d77.2334421!16zL20vMDR5emo1!19sChIJFbKJ3xj9DDkRlp2_KZ42V90?authuser=0&hl=en&rclk=1,"28.6506792,77.23344209999999"
Jama Masjid (Okhla),Mosque,"Jama Masjid (Okhla), 21/4,Okhla Bazar, Okhla Main Market Rd, Jamia Nagar, Okhla Village, Okhla, New Delhi, Delhi 110025","Jamia Nagar, Okhla Village, Okhla","21/4,Okhla Bazar, Okhla Main Market Rd",New Delhi,110025,Delhi,IN,https://www.google.com/maps/place/Jama+Masjid+%28Okhla%29/data=!4m7!3m6!1s0x390ce474e657e7f9:0x9680577c25554efa!8m2!3d28.5631627!4d77.2900565!16s%2Fg%2F1tk6ywjp!19sChIJ-edX5nTkDDkR-k5VJXxXgJY?authuser=0&hl=en&rclk=1,"28.5631627,77.29005649999999"
Masjid Mujeeb Bagh,Mosque,"H74R+R4J Masjid Mujeeb Bagh, Mujeeb Bagh, Jamia Nagar, Okhla, New Delhi, Delhi 110025","Mujeeb Bagh, Jamia Nagar, Okhla",H74R+R4J,New Delhi,110025,Delhi,IN,https://www.google.com/maps/place/Masjid+Mujeeb+Bagh/data=!4m7!3m6!1s0x390ce40bc79e1ce9:0x18ab01f5fdcf10b3!8m2!3d28.5570856!4d77.2902574!16s%2Fg%2F11hbvrlrnj!19sChIJ6RyexwvkDDkRsxDP_fUBqxg?authuser=0&hl=en&rclk=1,"28.557085599999997,77.2902574"
Masjid Moth,Mosque,"Masjid Moth, 92, Masjid Moth Rd, South Extension II, Masjid Moth Village, New Delhi, Delhi 110049","South Extension II, Masjid Moth Village","92, Masjid Moth Rd",New Delhi,110049,Delhi,IN,https://www.google.com/maps/place/Masjid+Moth/data=!4m7!3m6!1s0x390ce242799950e9:0xb2f0ba5418b140f8!8m2!3d28.562458!4d77.2176906!16s%2Fm%2F05zxh9f!19sChIJ6VCZeULiDDkR-ECxGFS68LI?authuser=0&hl=en&rclk=1,"28.562458,77.2176906"
Shahi Jama Masjid,Mosque,"Shahi Jama Masjid, sabji mandi, Chatta Bazar, Chowk Bazar, Mathura, Uttar Pradesh 281001",Chowk Bazar,"sabji mandi, Chatta Bazar",Mathura,281001,Uttar Pradesh,IN,https://www.google.com/maps/place/Shahi+Jama+Masjid/data=!4m7!3m6!1s0x3973710c533be3e3:0x178280cdaf91949f!8m2!3d27.5063027!4d77.6798177!16s%2Fm%2F0gkxdbh!19sChIJ4-M7UwxxczkRn5SRr82Aghc?authuser=0&hl=en&rclk=1,"27.5063027,77.6798177"
Shahi Mosque Eidgah,Mosque,"Shahi Mosque Eidgah, Geet Gate, Deeg Marg, Janam Bhumi, Mathura, Uttar Pradesh 281001",Janam Bhumi,"Geet Gate, Deeg Marg",Mathura,281001,Uttar Pradesh,IN,https://www.google.com/maps/place/Shahi+Mosque+Eidgah/data=!4m7!3m6!1s0x39737171779e4f25:0x7494a8006c455bb9!8m2!3d27.505507!4d77.6700572!16s%2Fg%2F1tq4phls!19sChIJJU-ed3FxczkRuVtFbAColHQ?authuser=0&hl=en&rclk=1,"27.505506999999998,77.6700572"
Mohammadi Masjid,Mosque,"G7XX+C4X Mohammadi Masjid, Shaheen Bagh, Block E, Jamia Nagar, Okhla, New Delhi, Delhi 110025","Shaheen Bagh, Block E, Jamia Nagar, Okhla",G7XX+C4X,New Delhi,110025,Delhi,IN,https://www.google.com/maps/place/Mohammadi+Masjid/data=!4m7!3m6!1s0x390ce41acd709b67:0x8df25e5235479b77!8m2!3d28.5486052!4d77.2978715!16s%2Fg%2F11cp1893xh!19sChIJZ5twzRrkDDkRd5tHNVJe8o0?authuser=0&hl=en&rclk=1,"28.548605199999997,77.2978715"
Usmania Jama Masjid,Mosque,"Usmania Jama Masjid, C-26/A, Old Jasola Village, Jasola, New Delhi, Delhi 110025","Old Jasola Village, Jasola",C-26/A,New Delhi,110025,Delhi,IN,https://www.google.com/maps/place/Usmania+Jama+Masjid/data=!4m7!3m6!1s0x390ce406080ed887:0x588888aec17d44dd!8m2!3d28.5494558!4d77.2921275!16s%2Fg%2F1ptvwq7cv!19sChIJh9gOCAbkDDkR3UR9wa6IiFg?authuser=0&hl=en&rclk=1,"28.549455799999997,77.29212749999999"
Masjid Mubarak Begum,Mosque,"Masjid Mubarak Begum, 4959, Hauz Qazi Chowk, Bazar Sirkiwalan, Kaccha Pandit Main Bazar, Lal Kuan Bazar, Chandni Chowk, New Delhi, Delhi, 110006","Bazar Sirkiwalan, Kaccha Pandit Main Bazar, Lal Kuan Bazar, Chandni Chowk","4959, Hauz Qazi Chowk","New Delhi, Delhi",110006,Delhi,IN,https://www.google.com/maps/place/Masjid+Mubarak+Begum/data=!4m7!3m6!1s0x390cfd1654f26d27:0x1a2a01ea4e297fd3!8m2!3d28.6497554!4d77.2260268!16s%2Fg%2F11jlq7lcc_!19sChIJJ23yVBb9DDkR038pTuoBKho?authuser=0&hl=en&rclk=1,"28.6497554,77.2260268"
Sabz Masjid,Mosque,"Sabz Masjid, 3571, Lalkuan Bazar Rd, Bazar Sirkiwalan, Lal Kuan Bazar, Chandni Chowk, Delhi, 110006","Bazar Sirkiwalan, Lal Kuan Bazar, Chandni Chowk","3571, Lalkuan Bazar Rd",Delhi,110006,Delhi,IN,https://www.google.com/maps/place/Sabz+Masjid/data=!4m7!3m6!1s0x390cfd16a94877a7:0x7b35bb653cd42e20!8m2!3d28.652163!4d77.223599!16s%2Fm%2F04q247t!19sChIJp3dIqRb9DDkRIC7UPGW7NXs?authuser=0&hl=en&rclk=1,"28.652162999999998,77.223599"
"Jama Masjid, Khadda Colony jm` msjd",Mosque,"Jama Masjid, Khadda Colony jm` msjd, D-202, near by Jama Masjid Gali, Jaitpur Extension Part II, Khadda Colony, Badarpur, New Delhi, Delhi 110044","Jaitpur Extension Part II, Khadda Colony, Badarpur","D-202, near by Jama Masjid Gali",New Delhi,110044,Delhi,IN,"https://www.google.com/maps/place/Jama+Masjid,+Khadda+Colony+%D8%AC%D8%A7%D9%85%D8%B9+%D9%85%D8%B3%D8%AC%D8%AF%E2%80%AD/data=!4m7!3m6!1s0x390ce65a1cc2d345:0x508d72d241ba7c2f!8m2!3d28.5094725!4d77.3384064!16s%2Fg%2F11b_23cdbd!19sChIJRdPCHFrmDDkRL3y6QdJyjVA?authuser=0&hl=en&rclk=1","28.509472499999998,77.3384064"
Masjid Usman Bin Affan (Ahle Hadees),Mosque,"H79Q+632 Masjid Usman Bin Affan (Ahle Hadees), Sir Syed Rd, Batla House, Jamia Nagar, Okhla, New Delhi, Delhi 110025","Batla House, Jamia Nagar, Okhla","H79Q+632, Sir Syed Rd",New Delhi,110025,Delhi,IN,https://www.google.com/maps/place/Masjid+Usman+Bin+Affan+%28Ahle+Hadees%29/data=!4m7!3m6!1s0x390ce47613e5e5e7:0xe09f490ec8e1eae2!8m2!3d28.5680023!4d77.2876355!16s%2Fg%2F11g68z41w3!19sChIJ5-XlE3bkDDkR4urhyA5Jn-A?authuser=0&hl=en&rclk=1,"28.5680023,77.2876355"
Qadri Masjid,Mosque,"Qadri Masjid, Abul Fazal Enclave Part 1, Part 1 Abul Fazal Enclave, Block K, Jamia Nagar, Jasola, New Delhi, Delhi 110025","Part 1 Abul Fazal Enclave, Block K, Jamia Nagar, Jasola",Abul Fazal Enclave Part 1,New Delhi,110025,Delhi,IN,https://www.google.com/maps/place/Qadri+Masjid/data=!4m7!3m6!1s0x390ce40fe0570add:0x99de0a46888db8c8!8m2!3d28.552211!4d77.2979359!16s%2Fg%2F1q5hrj9ft!19sChIJ3QpX4A_kDDkRyLiNiEYK3pk?authuser=0&hl=en&rclk=1,"28.552211,77.2979359"
Masjid Umar,Mosque,"Masjid Umar, H Block, Abul Fazal Enclave, Jamia Nagar, Okhla, New Delhi, Delhi 110025","Abul Fazal Enclave, Jamia Nagar, Okhla",H Block,New Delhi,110025,Delhi,IN,https://www.google.com/maps/place/Masjid+Umar/data=!4m7!3m6!1s0x390ce40e52efde7f:0x5e0487c814d4c357!8m2!3d28.5535005!4d77.2956955!16s%2Fg%2F11b6snzn79!19sChIJf97vUg7kDDkRV8PUFMiHBF4?authuser=0&hl=en&rclk=1,"28.5535005,77.2956955"
Masjid and Madarsa,Mosque,"H78P+G28 Masjid and Madarsa, Jamia, Batla House, Jamia Nagar, Okhla, New Delhi, Delhi 110025","Jamia, Batla House, Jamia Nagar, Okhla",H78P+G28,New Delhi,110025,Delhi,IN,https://www.google.com/maps/place/Masjid+and+Madarsa/data=!4m7!3m6!1s0x390ce38a18a5d97f:0xdcfc61f3d0f88168!8m2!3d28.5662905!4d77.2850829!16s%2Fg%2F1hg4wfd46!19sChIJf9mlGIrjDDkRaIH40PNh_Nw?authuser=0&hl=en&rclk=1,"28.566290499999997,77.28508289999999"
Madni Masjid under Delhi Wakaf,Mosque,"Madni Masjid under Delhi Wakaf, Aravali Apartments, near, Alaknanda, New Delhi, Delhi 110019",Alaknanda,"Aravali Apartments, near",New Delhi,110019,Delhi,IN,https://www.google.com/maps/place/Madni+Masjid+under+Delhi+Wakaf/data=!4m7!3m6!1s0x390ce16350f7e38f:0xa1c7701e04aad5f2!8m2!3d28.5296762!4d77.252511!16s%2Fg%2F1q67vgk8s!19sChIJj-P3UGPhDDkR8tWqBB5wx6E?authuser=0&hl=en&rclk=1,"28.529676199999997,77.252511"
Dibiya wali Masjid,Mosque,"G54H+M78 Dibiya wali Masjid, Mehrauli-Gurgaon Road, M G Road, Dr Ambedkar Colony, Chhatarpur, New Delhi, Delhi 110030","Dr Ambedkar Colony, Chhatarpur","G54H+M78, Mehrauli-Gurgaon Road, M G Road",New Delhi,110030,Delhi,IN,https://www.google.com/maps/place/Dibiya+wali+Masjid/data=!4m7!3m6!1s0x390d1e16e71c9d4d:0x176d7f6163772932!8m2!3d28.5091206!4d77.1796709!16s%2Fg%2F119w0d7q4!19sChIJTZ0c5xYeDTkRMil3Y2F_bRc?authuser=0&hl=en&rclk=1,"28.5091206,77.17967089999999"
Shahi Jama Masjid (Agra),Mosque,"52J8+RF9 Shahi Jama Masjid (Agra), Subash Bazar, Kinari Bazar, Hing ki Mandi, Mantola, Agra, Uttar Pradesh 282003","Subash Bazar, Kinari Bazar, Hing ki Mandi, Mantola",52J8+RF9,Agra,282003,Uttar Pradesh,IN,https://www.google.com/maps/place/Shahi+Jama+Masjid+%28Agra%29/data=!4m7!3m6!1s0x39747770add52adf:0x5cf586746adfb8b2!8m2!3d27.1820614!4d78.0165627!16s%2Fg%2F11gmdmw__f!19sChIJ3yrVrXB3dDkRsrjfanSG9Vw?authuser=0&hl=en&rclk=1,"27.1820614,78.0165627"
Madina Masjid msjd mdynh,Mosque,"G5F3+86X Madina Masjid msjd mdynh, Pocket 5, Sector D, Vasant Kunj, New Delhi, Delhi 110070","Pocket 5, Sector D, Vasant Kunj",G5F3+86X,New Delhi,110070,Delhi,IN,https://www.google.com/maps/place/Madina+Masjid+%D9%85%D8%B3%D8%AC%D8%AF+%D9%85%D8%AF%DB%8C%D9%86%DB%81%E2%80%AD/data=!4m7!3m6!1s0x390d1e7f3ce8a9cf:0xb481f0aa48b311f9!8m2!3d28.5233679!4d77.1530999!16s%2Fg%2F11g8fn63n6!19sChIJz6noPH8eDTkR-RGzSKrwgbQ?authuser=0&hl=en&rclk=1,"28.5233679,77.1530999"
Jama Masjid (Batla House),Mosque,"H, Jama Masjid (Batla House), 334, 7, Street Number 6, Batla House, Okhla, New Delhi, Delhi 110025","Jamia, Batla House, Jamia Nagar, Okhla","H, 334, 7, Street Number 6",New Delhi,110025,Delhi,IN,https://www.google.com/maps/place/Jama+Masjid+%28Batla+House%29/data=!4m7!3m6!1s0x390ce3207d46fe8f:0xe6bf4d1a3f6d4108!8m2!3d28.5661636!4d77.2851632!16s%2Fg%2F11llyqcllh!19sChIJj_5GfSDjDDkRCEFtPxpNv-Y?authuser=0&hl=en&rclk=1,"28.5661636,77.2851632"
Ahle Sunnat wal jamaat RazaeMuhammadi Masjid,Mosque,"J6X8+JC2 Ahle Sunnat wal jamaat RazaeMuhammadi Masjid, Aram Nagar, Paharganj, New Delhi, Delhi 110055","Aram Nagar, Paharganj",J6X8+JC2,New Delhi,110055,Delhi,IN,https://www.google.com/maps/place/Ahle+Sunnat+wal+jamaat+RazaeMuhammadi+Masjid/data=!4m7!3m6!1s0x390cfd6b1c55570b:0xb6cbdaabca9cc6b2!8m2!3d28.6490022!4d77.2160178!16s%2Fg%2F11g6mj_5x9!19sChIJC1dVHGv9DDkRssacyqvay7Y?authuser=0&hl=en&rclk=1,"28.649002199999998,77.2160178"
Gaosieya Jama Masjid,Mosque,"Gaosieya Jama Masjid, 9, Block C, Madhu Vihar, Delhi, 110059","Block C, Block D, Madhu Vihar",9,Delhi,110059,Delhi,IN,https://www.google.com/maps/place/Gaosieya+Jama+Masjid/data=!4m7!3m6!1s0x390d1b2e6b01c6f9:0x4a2448fa4f9cbcb!8m2!3d28.6018899!4d77.0663549!16s%2Fg%2F11f15j2zfy!19sChIJ-cYBay4bDTkRy8v5pI9EogQ?authuser=0&hl=en&rclk=1,"28.6018899,77.0663549"
Masjid Dai-Wali,Mosque,"Shop No, Masjid Dai-Wali, 3136, Delhi Gate Bazar, Kucha Alam, Khabas Pura, Daryaganj, New Delhi, Delhi, 110002","Kucha Alam, Khabas Pura, Daryaganj","Shop No, 3136, Delhi Gate Bazar","New Delhi, Delhi",110002,Delhi,IN,https://www.google.com/maps/place/Masjid+Dai-Wali/data=!4m7!3m6!1s0x390cfd20da360d31:0x7e303aff50cc4c2b!8m2!3d28.6435772!4d77.2380546!16s%2Fg%2F1jky_pbsw!19sChIJMQ022iD9DDkRK0zMUP86MH4?authuser=0&hl=en&rclk=1,"28.6435772,77.2380546"
Jami Masjid msjd,Mosque,"J6PW+36R Jami Masjid msjd, Balmiki Basti, Vikram Nagar, Delhi, 110002","Balmiki Basti, Vikram Nagar",J6PW+36R,Delhi,110002,Delhi,IN,https://www.google.com/maps/place/Jami+Masjid+%D9%85%D8%B3%D8%AC%D8%AF%E2%80%AD/data=!4m7!3m6!1s0x390cfcd72563b811:0x692c53e911b89fcf!8m2!3d28.6352493!4d77.2455302!16s%2Fg%2F11b5pj92t0!19sChIJEbhjJdf8DDkRz5-4EelTLGk?authuser=0&hl=en&rclk=1,"28.635249299999998,77.24553019999999"
MASJID,Mosque,"MASJID, Wz 173a/1 new ranjeet nagar, Guru Nanak Nagar, Shadipur, Delhi 110008","Guru Nanak Nagar, Shadipur",Wz 173a/1 new ranjeet nagar,New Delhi,110008,Delhi,IN,https://www.google.com/maps/place/MASJID/data=!4m7!3m6!1s0x390d0327bb6f6129:0xe8342be2eca63326!8m2!3d28.6456917!4d77.1597324!16s%2Fg%2F11h5lkhmc2!19sChIJKWFvuycDDTkRJjOm7OIrNOg?authuser=0&hl=en&rclk=1,"28.6456917,77.1597324"
Masjid Devband,Mosque,"G66Q+44V Masjid Devband, Tigri Colony, Tigri, Sangam Vihar, New Delhi, Delhi 110062","Tigri Colony, Tigri, Sangam Vihar",G66Q+44V,New Delhi,110062,Delhi,IN,https://www.google.com/maps/place/Masjid+Devband/data=!4m7!3m6!1s0x390ce1a02ba173f3:0x74659f41cc7c1b39!8m2!3d28.5103517!4d77.2377863!16s%2Fg%2F11b808708z!19sChIJ83OhK6DhDDkRORt8zEGfZXQ?authuser=0&hl=en&rclk=1,"28.510351699999998,77.2377863"
Masjid Dhobiyan,Mosque,"Masjid Dhobiyan, 3280, Delhi Gate Bazar, Kucha Alam, Old Dariya Ganj, New Delhi, Delhi 110002","Chatta lal Miya, Chandni Mahal, Old Delhi","3280, Delhi Gate Bazar, Kucha Alam, Old Dariya Ganj","New Delhi, Delhi",110002,Delhi,IN,https://www.google.com/maps/place/Masjid+Dhobiyan/data=!4m7!3m6!1s0x390cfd273340d127:0x7d6d2edf4a35f8d9!8m2!3d28.6425263!4d77.2386389!16s%2Fg%2F11cs5s2vzb!19sChIJJ9FAMyf9DDkR2fg1St8ubX0?authuser=0&hl=en&rclk=1,"28.6425263,77.2386389"
Masjid eidgah Dayam Khan,Mosque,"8XWM+9C9 Masjid eidgah Dayam Khan, Varanasi - Lucknow Rd, DIG Colony, Varanasi, Uttar Pradesh 221102",DIG Colony,"8XWM+9C9, Varanasi - Lucknow Rd",Varanasi,221102,Uttar Pradesh,IN,https://www.google.com/maps/place/Masjid+eidgah+Dayam+Khan/data=!4m7!3m6!1s0x398e2dd1c78d0bf7:0xe716185e9f581b2c!8m2!3d25.3459094!4d82.9835985!16s%2Fg%2F11g8xgxzbj!19sChIJ9wuNx9EtjjkRLBtYn14YFuc?authuser=0&hl=en&rclk=1,"25.3459094,82.9835985"
Masjid Ahad msjd Hd,Mosque,"H73R+RR9 Masjid Ahad msjd Hd, C35 /A, Okhla Vihar Main Rd, Okhla Vihar, Okhla Vihar, Block C, Jamia Nagar, Okhla, New Delhi, Delhi 110025","Okhla Vihar, Okhla Vihar, Block C, Jamia Nagar, Okhla","H73R+RR9, C35 /A, Okhla Vihar Main Rd",New Delhi,110025,Delhi,IN,https://www.google.com/maps/place/Masjid+Ahad+%D9%85%D8%B3%D8%AC%D8%AF+%D8%A7%D8%AD%D8%AF%E2%80%AD/data=!4m7!3m6!1s0x390ce40931dfd3cd:0x3136d0d41ecf6789!8m2!3d28.5537242!4d77.2917823!16s%2Fg%2F11g6bptfv3!19sChIJzdPfMQnkDDkRiWfPHtTQNjE?authuser=0&hl=en&rclk=1,"28.553724199999998,77.2917823"
Jannatul Firdose Masjid msjd jn@lfrdws,Mosque,"G8J6+H6X Jannatul Firdose Masjid msjd jn@lfrdws, Madanpur Khadar Extension, Block A, Madanpur Khadar, New Delhi, Delhi 110076","Madanpur Khadar Extension, Block A, Madanpur Khadar",G8J6+H6X,New Delhi,110076,Delhi,IN,https://www.google.com/maps/place/Jannatul+Firdose+Masjid+%D9%85%D8%B3%D8%AC%D8%AF+%D8%AC%D9%86%D8%A9%D8%A7%D9%84%D9%81%D8%B1%D8%AF%D9%88%D8%B3%E2%80%AD/data=!4m7!3m6!1s0x390ce698614a56a5:0x1c3fad641cabab20!8m2!3d28.5314784!4d77.3106246!16s%2Fg%2F11dybr1nt3!19sChIJpVZKYZjmDDkRIKurHGStPxw?authuser=0&hl=en&rclk=1,"28.531478399999997,77.3106246"
Jama Masjid,Mosque,"Jama Masjid, F-132, Kalindi Kunj Rd, Abul Fazal Enclave Part 1, Part 1 Abul Fazal Enclave, Block C, Jamia Nagar, Okhla, New Delhi, Delhi 110025","Abul Fazal Enclave Part 1, Part 1 Abul Fazal Enclave, Block C, Jamia Nagar, Okhla","F-132, Kalindi Kunj Rd",New Delhi,110025,Delhi,IN,https://www.google.com/maps/place/Jama+Masjid/data=!4m7!3m6!1s0x390ce474fc283e6d:0xbf47a3d3e25a4cad!8m2!3d28.560132!4d77.294788!16s%2Fg%2F12hkzr6p1!19sChIJbT4o_HTkDDkRrUxa4tOjR78?authuser=0&hl=en&rclk=1,"28.560132,77.294788"
MASJID KHASTA GUL,Mosque,"MASJID KHASTA GUL, T16353, Goutampuri, Shahdara, Delhi, 110053","Goutampuri, Shahdara",T16353,Delhi,110053,Delhi,IN,https://www.google.com/maps/place/MASJID+KHASTA+GUL/data=!4m7!3m6!1s0x390cfc674ffe69a9:0xf03028dcb171102a!8m2!3d28.6802209!4d77.2642006!16s%2Fg%2F11g8ngh1ss!19sChIJqWn-T2f8DDkRKhBxsdwoMPA?authuser=0&hl=en&rclk=1,"28.6802209,77.2642006"
EIDGAH & MASJID MANDOLI `ydgh & msjd mndd wly,Mosque,"P837+Q5M EIDGAH & MASJID MANDOLI `ydgh & msjd mndd wly, BUDH BAZAR ROAD BANK COLONY RAJIV NAGAR, Mandoli, Delhi, 110093","Budh Vihar, Mandoli","P837+Q5M, BUDH BAZAR ROAD BANK COLONY RAJIV NAGAR",Delhi,110093,Delhi,IN,https://www.google.com/maps/place/EIDGAH+%26+MASJID+MANDOLI+%D8%B9%DB%8C%D8%AF%DA%AF%D8%A7%DB%81+%26+%D9%85%D8%B3%D8%AC%D8%AF+%D9%85%D9%86%DA%88+%D9%88%D9%84%DB%8C%E2%80%AD/data=!4m7!3m6!1s0x390cfbc103a082b5:0x7e3fa7e11bedab2b!8m2!3d28.7044533!4d77.3129223!16s%2Fg%2F11cmzzb_k5!19sChIJtYKgA8H7DDkRK6vtG-GnP34?authuser=0&hl=en&rclk=1,"28.704453299999997,77.3129223"
Fakhrul Masjid msjd,Mosque,"Fakhrul Masjid msjd, 1268, Bara Bazar Rd, Chabi Ganj, Kashmere Gate, New Delhi, Delhi, 110006","Chabi Ganj, Kashmere Gate","1268, Bara Bazar Rd","New Delhi, Delhi",110006,Delhi,IN,https://www.google.com/maps/place/Fakhrul+Masjid+%D9%85%D8%B3%D8%AC%D8%AF%E2%80%AD/data=!4m7!3m6!1s0x390cfd060683b301:0xc9d92074bb420992!8m2!3d28.665012!4d77.2295583!16s%2Fg%2F11cmytc3k3!19sChIJAbODBgb9DDkRkglCu3Qg2ck?authuser=0&hl=en&rclk=1,"28.665011999999997,77.2295583"
Jama Masjid (Agra),Mosque,"Jama Masjid (Agra), Jama Masjid, Subash Bazar, Kinari Bazar, Hing ki Mandi, Mantola, Agra, Uttar Pradesh 282003","Subash Bazar, Kinari Bazar, Hing ki Mandi, Mantola",Jama Masjid,Agra,282003,Uttar Pradesh,IN,https://www.google.com/maps/place/Jama+Masjid+%28Agra%29/data=!4m7!3m6!1s0x3974772c5a403311:0x7db3f868ca3d8124!8m2!3d27.182073!4d78.0162281!16s%2Fm%2F04n5mct!19sChIJETNAWix3dDkRJIE9ymj4s30?authuser=0&hl=en&rclk=1,"27.182073,78.01622809999999"
Shree Digamber Jain Mandir,Jain temple,"J6R7+WCR Shree Digamber Jain Mandir, Ratan Lal Market, Mantola Mohalla, Kaseru Walan, Paharganj, New Delhi, Delhi 110055","Bazar Sangatrashan, Mantola Mohalla, Kaseru Walan, Paharganj","J6R7+WCR, Ratan Lal Market",New Delhi,110055,Delhi,IN,https://www.google.com/maps/place/Shree+Digamber+Jain+Mandir/data=!4m7!3m6!1s0x390cfd410e048731:0x7bbf1f9ed009558d!8m2!3d28.6423505!4d77.2135147!16s%2Fg%2F1pp2thxxk!19sChIJMYcEDkH9DDkRjVUJ0J4fv3s?authuser=0&hl=en&rclk=1,"28.6423505,77.21351469999999"
Dilkusha Masjid jm` msjd dlkhsh,Mosque,"G5CH+FRC Dilkusha Masjid jm` msjd dlkhsh, Near Police Station, Main Market, Mehrauli, New Delhi, Delhi 110030","Ward Number 4, Mehrauli Village, Mehrauli","G5CH+FRC, Near Police Station, Main Market, Mehrauli",New Delhi,110030,Delhi,IN,https://www.google.com/maps/place/Dilkusha+Masjid+%D8%AC%D8%A7%D9%85%D8%B9+%D9%85%D8%B3%D8%AC%D8%AF+%D8%AF%D9%84%DA%A9%D8%B4%D8%A7%E2%80%AD/data=!4m7!3m6!1s0x390d1e0edb670645:0xf1101808a36c4fcb!8m2!3d28.521199!4d77.179529!16s%2Fg%2F1pty6n9_6!19sChIJRQZn2w4eDTkRy09sowgYEPE?authuser=0&hl=en&rclk=1,"28.521199,77.179529"
Masjid Nizam Hyderabad,Mosque,"J68G+Q6H Masjid Nizam Hyderabad, Telengana Bhawan, New Delhi, Delhi 110001",Hyderabad House,"J68G+Q6H, Telengana Bhawan",New Delhi,110001,Delhi,IN,https://www.google.com/maps/place/Masjid+Nizam+Hyderabad/data=!4m7!3m6!1s0x390ce2ce698414ab:0x72527463b80efac0!8m2!3d28.616931!4d77.225605!16s%2Fg%2F1tc_pcyt!19sChIJqxSEac7iDDkRwPoOuGN0UnI?authuser=0&hl=en&rclk=1,"28.616930999999997,77.225605"
Masjid Badi msjd,Mosque,"Masjid Badi msjd, 893,, Chittli Qabar Bazar Rd, Jama Masjid, Chandni Chowk, New Delhi, Delhi 110006","Bazar Chitli Qabar, Kucha Chelan, Jama Masjid, Chandni Chowk","893,, Chittli Qabar Bazar Rd","New Delhi, Delhi",110006,Delhi,IN,https://www.google.com/maps/place/Masjid+Badi+%D9%85%D8%B3%D8%AC%D8%AF%E2%80%AD/data=!4m7!3m6!1s0x390cfd219cfec1f3:0x93ccacb281d71709!8m2!3d28.645321!4d77.2357133!16s%2Fg%2F12m98gjn5!19sChIJ88H-nCH9DDkRCRfXgbKszJM?authuser=0&hl=en&rclk=1,"28.645321,77.2357133"
Masjid,Mosque,"Masjid, Chandan Nagar, Uttar Pradesh 243601",,,Chandan Nagar,,Uttar Pradesh,IN,https://www.google.com/maps/place/Masjid/data=!4m7!3m6!1s0x39754f77d499cd0b:0xfa585f2b837e3350!8m2!3d28.0699891!4d79.1545415!16s%2Fg%2F124t466g6!19sChIJC82Z1HdPdTkRUDN-gytfWPo?authuser=0&hl=en&rclk=1,"28.069989099999997,79.1545415"
gosiiyaa msjid,Mosque,"gosiiyaa msjid, 02, New Delhi Main Rd, D Block, Madanpur Khadar, New Delhi, Delhi 110076, New Delhi Main Rd, D Block, Madanpur Khadar, New Delhi, Delhi 110076","D Block, Madanpur Khadar","02, New Delhi Main Rd, D Block, Madanpur Khadar, New Delhi, Delhi 110076, New Delhi Main Rd",New Delhi,110076,Delhi,IN,https://www.google.com/maps/place/%E0%A4%97%E0%A5%8B%E0%A4%B8%E0%A5%80%E0%A4%AF%E0%A4%BE+%E0%A4%AE%E0%A4%B8%E0%A5%8D%E0%A4%9C%E0%A4%BF%E0%A4%A6/data=!4m7!3m6!1s0x390ce69a677df04b:0x404fbe46be663e7f!8m2!3d28.5310436!4d77.317571!16s%2Fg%2F11g6rfnfc8!19sChIJS_B9Z5rmDDkRfz5mvka-T0A?authuser=0&hl=en&rclk=1,"28.5310436,77.317571"
Masjid,Mosque,"H769+P87 Masjid, Block A, Friends Colony East, New Friends Colony, New Delhi, Delhi 110025","Block A, Friends Colony East, New Friends Colony",H769+P87,New Delhi,110025,Delhi,IN,https://www.google.com/maps/place/Masjid/data=!4m7!3m6!1s0x390ce3a3874c1a6d:0x3777b5148e43553a!8m2!3d28.5617917!4d77.2683072!16s%2Fg%2F11grc87l61!19sChIJbRpMh6PjDDkROlVDjhS1dzc?authuser=0&hl=en&rclk=1,"28.561791699999997,77.2683072"
Mosque / Masjid,Mosque,"Mosque / Masjid, A430, DDA Colony, Chaukhandi, Vishnu Garden, Delhi, 110018","DDA Colony, Chaukhandi, Vishnu Garden",A430,Delhi,110018,Delhi,IN,https://www.google.com/maps/place/Mosque+%2F+Masjid/data=!4m7!3m6!1s0x390d05579c83dfb9:0xadb490f25993e21b!8m2!3d28.645374!4d77.094016!16s%2Fg%2F11qn2351hz!19sChIJud-DnFcFDTkRG-KTWfKQtK0?authuser=0&hl=en&rclk=1,"28.645374,77.094016"
Masjid Ghaffar (Ahl-e-Hadees),Mosque,"Masjid Ghaffar (Ahl-e-Hadees), P-102, Block P, Batla House, Okhla, New Delhi, Delhi 110025","Block P, Batla House, Okhla",P-102,New Delhi,110025,Delhi,IN,https://www.google.com/maps/place/Masjid+Ghaffar+%28Ahl-e-Hadees%29/data=!4m7!3m6!1s0x390ce5f38957cde3:0x573e5c67ce07d2a8!8m2!3d28.5708158!4d77.287928!16s%2Fg%2F11ql65ls0c!19sChIJ481XifPlDDkRqNIHzmdcPlc?authuser=0&hl=en&rclk=1,"28.5708158,77.287928"
JAMA MASJID UMAR BIN KHATTAB,Mosque,"G8W3+XWV JAMA MASJID UMAR BIN KHATTAB, Kalindi Kunj Rd, Block H, Jamia Nagar, Okhla, New Delhi, Delhi 110025","Block H, Jamia Nagar, Okhla","G8W3+XWV, Kalindi Kunj Rd",New Delhi,110025,Delhi,IN,https://www.google.com/maps/place/JAMA+MASJID+UMAR+BIN+KHATTAB/data=!4m7!3m6!1s0x390ce51eb7ea0bfd:0xe968824c610cc265!8m2!3d28.5474867!4d77.3047909!16s%2Fg%2F11h7p6jtqd!19sChIJ_Qvqtx7lDDkRZcIMYUyCaOk?authuser=0&hl=en&rclk=1,"28.5474867,77.3047909"
Masjid Al Firdous,Mosque,"H6WR+56G Masjid Al Firdous, Delhi Golf Club, Golf Links, New Delhi, Delhi 110003","Delhi Golf Club, Golf Links",H6WR+56G,New Delhi,110003,Delhi,IN,https://www.google.com/maps/place/Masjid+Al+Firdous/data=!4m7!3m6!1s0x390ce31d8aba7277:0xdaa66bdae288c0a1!8m2!3d28.595438!4d77.2405761!16s%2Fg%2F11c6snq8n9!19sChIJd3K6ih3jDDkRocCI4tprpto?authuser=0&hl=en&rclk=1,"28.595437999999998,77.2405761"
Masjid Hanfia,Mosque,"Masjid Hanfia, 2782, Kinari Bazar Rd, Dariba Kalan, Chandni Chowk, New Delhi, Delhi, 110006","Dariba Kalan, Chandni Chowk","2782, Kinari Bazar Rd","New Delhi, Delhi",110006,Delhi,IN,https://www.google.com/maps/place/Masjid+Hanfia/data=!4m7!3m6!1s0x390cfd1bb62b3d41:0xf6fbda834003d153!8m2!3d28.6548812!4d77.2324217!16s%2Fg%2F12ll5bm71!19sChIJQT0rthv9DDkRU9EDQIPa-_Y?authuser=0&hl=en&rclk=1,"28.6548812,77.2324217"
Masjid Iqbal Rasheed,Mosque,"Masjid Iqbal Rasheed, Parsauna, Uttar Pradesh 243638",,,Parsauna,,Uttar Pradesh,IN,https://www.google.com/maps/place/Masjid+Iqbal+Rasheed/data=!4m7!3m6!1s0x39752916826a189d:0x24f09e59aa9ff22a!8m2!3d28.0839739!4d78.7216491!16s%2Fg%2F1hm5856qv!19sChIJnRhqghYpdTkRKvKfqlme8CQ?authuser=0&hl=en&rclk=1,"28.0839739,78.7216491"
Masjid Abdul Lateef,Mosque,"7CH2+HJF Masjid Abdul Lateef, Unnamed Road, DIG Bunglow, Green Park Colony, Shahjahanabad, Bhopal, Madhya Pradesh 462001","DIG Bunglow, Green Park Colony, Shahjahanabad","7CH2+HJF, Unnamed Road",Bhopal,462001,Madhya Pradesh,IN,https://www.google.com/maps/place/Masjid+Abdul+Lateef/data=!4m7!3m6!1s0x397c6841d4ddcb6f:0x807ce4f4402883a9!8m2!3d23.2789444!4d77.4015433!16s%2Fg%2F11gds465y_!19sChIJb8vd1EFofDkRqYMoQPTkfIA?authuser=0&hl=en&rclk=1,"23.2789444,77.4015433"
Masjid Dai Wali,Mosque,"J6WQ+QQH Masjid Dai Wali, Dakhni Rai St, Old Dariya Ganj, Daryaganj, New Delhi, Delhi, 110002","Old Dariya Ganj, Daryaganj","J6WQ+QQH, Dakhni Rai St","New Delhi, Delhi",110002,Delhi,IN,https://www.google.com/maps/place/Masjid+Dai+Wali/data=!4m7!3m6!1s0x390cfd206cb36be5:0xfcebc4e2a016bdf3!8m2!3d28.6469464!4d77.2394717!16s%2Fg%2F11dxmqvxfc!19sChIJ5WuzbCD9DDkR870WoOLE6_w?authuser=0&hl=en&rclk=1,"28.646946399999997,77.2394717"
Ghaziuddin's Mosque,Mosque,"J6WC+27Q Ghaziuddin's Mosque, Desh Bandhu Gupta Rd, Ajmeri Gate, New Delhi, Delhi, 110006",Ajmeri Gate,"J6WC+27Q, Desh Bandhu Gupta Rd","New Delhi, Delhi",110006,Delhi,IN,https://www.google.com/maps/place/Ghaziuddin%27s+Mosque/data=!4m7!3m6!1s0x390cfd3e4a23a085:0xc3158b353abd92f2!8m2!3d28.6450762!4d77.2207416!16s%2Fg%2F12hmk812x!19sChIJhaAjSj79DDkR8pK9OjWLFcM?authuser=0&hl=en&rclk=1,"28.6450762,77.2207416"
Masjid Sanauji,Mosque,"Masjid Sanauji, Shop No. 1630, Lal Kuan, Lalkuan Bazar Rd, Baradari, Chandni Chowk, New Delhi, Delhi 110006","Bazar Sirkiwalan, Baradari, Chandni Chowk","Shop No. 1630, Lal Kuan, Lalkuan Bazar Rd","New Delhi, Delhi",110006,Delhi,IN,https://www.google.com/maps/place/Masjid+Sanauji/data=!4m7!3m6!1s0x390cfd13fe3ea72d:0x27ea23bc5f650202!8m2!3d28.6529317!4d77.2232485!16s%2Fg%2F12hplq4pp!19sChIJLac-_hP9DDkRAgJlX7wj6ic?authuser=0&hl=en&rclk=1,"28.6529317,77.2232485"
Jhuggi Masjid,Mosque,"P4FV+2V4 Jhuggi Masjid, Gobind Kunj, Haiderpur, Shalimar Bagh, Delhi, 110088","Gobind Kunj, Haiderpur, Shalimar Bagh",P4FV+2V4,Delhi,,Delhi,IN,https://www.google.com/maps/place/Jhuggi+Masjid/data=!4m7!3m6!1s0x390d0176e2655757:0x89c5d189b6d0dbdf!8m2!3d28.7225079!4d77.1446875!16s%2Fg%2F11hctj5v3v!19sChIJV1dl4nYBDTkR39vQtonRxYk?authuser=0&hl=en&rclk=1,"28.7225079,77.1446875"
Qaziyon Ki Masjid msjd qDywN khy,Mosque,"Qaziyon Ki Masjid msjd qDywN khy, 1091/1, Ambawatta Complex, Internal Path, Mehrauli Village, Mehrauli, New Delhi, Delhi 110030","Mehrauli Village, Mehrauli","1091/1, Ambawatta Complex, Internal Path",New Delhi,110030,Delhi,IN,https://www.google.com/maps/place/Qaziyon+Ki+Masjid+%D9%85%D8%B3%D8%AC%D8%AF+%D9%82%D8%A7%D8%B6%DB%8C%D9%88%DA%BA+%DA%A9%DB%8C%E2%80%AD/data=!4m7!3m6!1s0x390d1e08ca8810ed:0x3b88df5382ea5830!8m2!3d28.52261!4d77.181538!16s%2Fg%2F11gfd8b5cs!19sChIJ7RCIyggeDTkRMFjqglPfiDs?authuser=0&hl=en&rclk=1,"28.52261,77.181538"
Mosque msjd,Mosque,"J76X+W9R Mosque msjd, New, Kotla Village, Mayur Vihar, New Delhi, Delhi 110091","Kotla Village, Mayur Vihar","J76X+W9R, New","New Delhi, Delhi",110091,Delhi,IN,https://www.google.com/maps/place/Mosque+%D9%85%D8%B3%D8%AC%D8%AF%E2%80%AD/data=!4m7!3m6!1s0x390ce4bcc9c6272b:0x172c875eb9dd78e2!8m2!3d28.612373!4d77.2984052!16s%2Fg%2F11c3182y_w!19sChIJKyfGybzkDDkR4njduV6HLBc?authuser=0&hl=en&rclk=1,"28.612372999999998,77.29840519999999"
Madarsa Rashidiya Masjid,Mosque,"J6MR+85P Madarsa Rashidiya Masjid, Bahadur Shah Zafar Marg, Maulana Azad Medical College Campus, Balmiki Basti, Vikram Nagar, New Delhi, Delhi, 110002","Maulana Azad Medical College Campus, Balmiki Basti, Vikram Nagar","J6MR+85P, Bahadur Shah Zafar Marg","New Delhi, Delhi",110002,Delhi,IN,https://www.google.com/maps/place/Madarsa+Rashidiya+Masjid/data=!4m7!3m6!1s0x390cfdeb4ab5bc19:0x53a0d804e40e1e9e!8m2!3d28.6333351!4d77.2404638!16s%2Fg%2F11sq1jxmjs!19sChIJGby1Suv9DDkRnh4O5ATYoFM?authuser=0&hl=en&rclk=1,"28.6333351,77.2404638"
Baghwali Masjid msjd bG wly,Mosque,"Baghwali Masjid msjd bG wly, 785, Nicholson Rd, Kashmere Gate, New Delhi, Delhi 110006","Ganda Nala Bazar, Kashmere Gate","785, Nicholson Rd","New Delhi, Delhi",110006,Delhi,IN,https://www.google.com/maps/place/Baghwali+Masjid+%D9%85%D8%B3%D8%AC%D8%AF+%D8%A8%D8%A7%D8%BA+%D9%88%D8%A7%D9%84%DB%8C%E2%80%AD/data=!4m7!3m6!1s0x390cfd092767785b:0xd4966cf4d21cbda8!8m2!3d28.6653187!4d77.2261277!16s%2Fg%2F12llwbr4n!19sChIJW3hnJwn9DDkRqL0c0vRsltQ?authuser=0&hl=en&rclk=1,"28.6653187,77.22612769999999"
Masjid,Mosque,"H77Q+868 Masjid, Okhla Village, Okhla, New Delhi, Delhi 110025","Okhla Village, Okhla",H77Q+868,New Delhi,110025,Delhi,IN,https://www.google.com/maps/place/Masjid/data=!4m7!3m6!1s0x390ce47512f7aa2b:0x544337a9b9e5d7a2!8m2!3d28.5632814!4d77.2880932!16s%2Fg%2F11gbtpj5td!19sChIJK6r3EnXkDDkRotfluak3Q1Q?authuser=0&hl=en&rclk=1,"28.563281399999997,77.28809319999999"
Ishaq Masjid,Mosque,"Ishaq Masjid, Ishaq Masjid Wali Gali, Block C, Sarai Kale Khan, New Delhi, Delhi 110013","Block C, Sarai Kale Khan",Ishaq Masjid Wali Gali,New Delhi,110013,Delhi,IN,https://www.google.com/maps/place/Ishaq+Masjid/data=!4m7!3m6!1s0x390ce376f8a80f59:0x43d242dbd3376818!8m2!3d28.5849571!4d77.2565889!16s%2Fg%2F11q2tx_6x1!19sChIJWQ-o-HbjDDkRGGg309tC0kM?authuser=0&hl=en&rclk=1,"28.5849571,77.2565889"
jama masjid madarsa taleemul quran,Mosque,"jama masjid madarsa taleemul quran, C 10, Captain Gaur Marg, C Block, Kailash Hills, East of Kailash, New Delhi, Delhi 110065","C Block, Kailash Hills, East of Kailash","C 10, Captain Gaur Marg",New Delhi,110065,Delhi,IN,https://www.google.com/maps/place/jama+masjid+madarsa+taleemul+quran/data=!4m7!3m6!1s0x390ce3bedd0d5df7:0x3a3b95b54ca809a8!8m2!3d28.5619545!4d77.2590985!16s%2Fg%2F11g7zz4m0j!19sChIJ910N3b7jDDkRqAmoTLWVOzo?authuser=0&hl=en&rclk=1,"28.5619545,77.2590985"
Mr.SAHEEM MALIK,Mosque,"Mr.SAHEEM MALIK, Gali no. 3 - Tirpal Factory Mustafabad, near Ayisha masjid, 25 Futa Rd, near by Aisha Masjid, chowk, Delhi 110094","Shakti Vihar, Old Mustafabad, chowk","Gali no. 3 - Tirpal Factory Mustafabad, near Ayisha masjid, 25 Futa Rd, near by Aisha Masjid",Delhi,110094,Delhi,IN,https://www.google.com/maps/place/Mr.SAHEEM+MALIK/data=!4m7!3m6!1s0x390cfd9a44cd4997:0xffdc8860c53e3f2b!8m2!3d28.7159667!4d77.272238!16s%2Fg%2F11h3cwgc8y!19sChIJl0nNRJr9DDkRKz8-xWCI3P8?authuser=0&hl=en&rclk=1,"28.7159667,77.272238"
Jama Masjid,Mosque,"5W8X+G5F Jama Masjid, Mashit, Thana Alam Alias Masit, Haryana 122015",,5W8X+G5F,"Mashit, Thana Alam Alias Masit",122015,Haryana,IN,https://www.google.com/maps/place/Jama+Masjid/data=!4m7!3m6!1s0x390d3113e5827119:0x5f28dd1ffbe55675!8m2!3d28.1663167!4d76.947924!16s%2Fg%2F11cs01mlx9!19sChIJGXGC5RMxDTkRdVbl-x_dKF8?authuser=0&hl=en&rclk=1,"28.1663167,76.947924"
Dogro Wali Masjid,Mosque,"Dogro Wali Masjid, Hasanpur Luhari, Ismailpur, Uttar Pradesh 247772",,,"Hasanpur Luhari, Ismailpur",,Uttar Pradesh,IN,https://www.google.com/maps/place/Dogro+Wali+Masjid/data=!4m7!3m6!1s0x390e9e70c6924359:0x239fa6eea333f6cc!8m2!3d29.5957443!4d77.4768814!16s%2Fg%2F1th55cnn!19sChIJWUOSxnCeDjkRzPYzo-6mnyM?authuser=0&hl=en&rclk=1,"29.5957443,77.4768814"
Masjid -ul- Huda,Mosque,"Masjid -ul- Huda, Ghaffar Manzil Colony, Jamia Nagar, Okhla, New Delhi, Delhi 110025","Ghaffar Manzil Colony, Jamia Nagar, Okhla",,New Delhi,110025,Delhi,IN,https://www.google.com/maps/place/Masjid+-ul-+Huda/data=!4m7!3m6!1s0x390ce366343059d7:0xa0f02fd58939dd8c!8m2!3d28.5570011!4d77.2828061!16s%2Fg%2F11rqhr3cqm!19sChIJ11kwNGbjDDkRjN05idUv8KA?authuser=0&hl=en&rclk=1,"28.557001099999997,77.2828061"
Dig Masjid,School,"VW7Q+5GV Dig Masjid, Kitore Rd, Kithaur, Uttar Pradesh 250104",,"VW7Q+5GV, Kitore Rd",Kithaur,250104,Uttar Pradesh,IN,https://www.google.com/maps/place/Dig+Masjid/data=!4m7!3m6!1s0x390b7ffab048c1c1:0x36dfb424c4d66458!8m2!3d28.8629986!4d77.9388001!16s%2Fg%2F11g1q0j3hl!19sChIJwcFIsPp_CzkRWGTWxCS03zY?authuser=0&hl=en&rclk=1,"28.862998599999997,77.9388001"
Muqaddis Masjid,Mosque,"Muqaddis Masjid, Kashmiri Gate, Firozabad, Uttar Pradesh 283203",Kashmiri Gate,,Firozabad,,Uttar Pradesh,IN,https://www.google.com/maps/place/Muqaddis+Masjid/data=!4m7!3m6!1s0x39744698eaf3b47d:0x48f07a946e7ade8!8m2!3d27.1526199!4d78.4094882!16s%2Fg%2F1v46yrwl!19sChIJfbTz6phGdDkR6K3nRqkHjwQ?authuser=0&hl=en&rclk=1,"27.152619899999998,78.4094882"
Masjid,Mosque,"Masjid, 42C, Central Auto Market, Block B, Sector 16, Noida, Uttar Pradesh 201301","Central Auto Market, Block B, Sector 16",42C,Noida,201301,Uttar Pradesh,IN,https://www.google.com/maps/place/Masjid/data=!4m7!3m6!1s0x390ce45b6e8b8d05:0x1c6debc04866e60!8m2!3d28.577362!4d77.31624!16s%2Fg%2F11c6rj0f0y!19sChIJBY2LblvkDDkRYG6GBLzexgE?authuser=0&hl=en&rclk=1,"28.577361999999997,77.31624"
Masjid,Mosque,"Masjid, 242, Masjid Jheel Pio, Near ITO metro GateNo.3, Bahadur Shah Zafar Marg, Balmiki Basti, Vikram Nagar, Delhi, 110002","Bahadur Shah Zafar Marg, Balmiki Basti, Vikram Nagar","242, Masjid Jheel Pio, Near ITO metro GateNo.3, Bahadur Shah Zafar Marg",Delhi,110002,Delhi,IN,https://www.google.com/maps/place/Masjid/data=!4m7!3m6!1s0x390cfd441769149d:0xa1929f1b4f5921d6!8m2!3d28.6298914!4d77.2415098!16s%2Fg%2F11s2n38r9b!19sChIJnRRpF0T9DDkR1iFZTxufkqE?authuser=0&hl=en&rclk=1,"28.629891399999998,77.2415098"
Old Mugal Masjid,Mosque,"J6X9+P3V Old Mugal Masjid, Qutab Rd, Ram Nagar Market, Aram Nagar, Paharganj, New Delhi, Delhi, 110055","Ram Nagar Market, Aram Nagar, Paharganj","J6X9+P3V, Qutab Rd","New Delhi, Delhi",110055,Delhi,IN,https://www.google.com/maps/place/Old+Mugal+Masjid/data=!4m7!3m6!1s0x390cfd152b1b0125:0x49e032c4a3927074!8m2!3d28.6493546!4d77.2176682!16s%2Fg%2F11ggw008kv!19sChIJJQEbKxX9DDkRdHCSo8Qy4Ek?authuser=0&hl=en&rclk=1,"28.6493546,77.21766819999999"
Kadde vali masjid,Mosque,"J8GV+FXM Kadde vali masjid, Unnamed Road, Makanpur Colony, Sector 62A, Noida, Uttar Pradesh 201309","Makanpur Colony, Sector 62A","J8GV+FXM, Unnamed Road",Noida,201309,Uttar Pradesh,IN,https://www.google.com/maps/place/Kadde+vali+masjid/data=!4m7!3m6!1s0x390ce5b8c9f05415:0x40d62ad4b4b90e40!8m2!3d28.6262084!4d77.3449208!16s%2Fg%2F11h_3wc0bn!19sChIJFVTwybjlDDkRQA65tNQq1kA?authuser=0&hl=en&rclk=1,"28.6262084,77.3449208"
Masjid,Mosque,"Masjid, 2508, Fasil Rd, Gali Sakko Wali, Shah Ganj, Chandni Chowk, New Delhi, Delhi, 110006","Gali Sakko Wali, Shah Ganj, Chandni Chowk","2508, Fasil Rd","New Delhi, Delhi",110006,Delhi,IN,https://www.google.com/maps/place/Masjid/data=!4m7!3m6!1s0x390cfd15c9a8a4b1:0xf975aada141da03e!8m2!3d28.6491552!4d77.2220471!16s%2Fg%2F1hm4gjxkd!19sChIJsaSoyRX9DDkRPqAdFNqqdfk?authuser=0&hl=en&rclk=1,"28.6491552,77.2220471"
Masjid,Mosque,"Masjid, 191/1, JJ Colony, New Krishna Park, Vikaspuri, New Delhi, Delhi, 110018","JJ Colony, New Krishna Park, Vikaspuri",191/1,"New Delhi, Delhi",110018,Delhi,IN,https://www.google.com/maps/place/Masjid/data=!4m7!3m6!1s0x390d0523e13f6ebf:0xcf430f5986189794!8m2!3d28.6318645!4d77.0776203!16s%2Fg%2F11kq3krq6c!19sChIJv24_4SMFDTkRlJcYhlkPQ88?authuser=0&hl=en&rclk=1,"28.6318645,77.07762029999999"
msjid,Mosque,"msjid, 249, Swami Amardev Marg, Bara Bazar, Maharam Mohalla, Shahdara, Delhi, 110032","Bara Bazar, Maharam Mohalla, Shahdara","249, Swami Amardev Marg",Delhi,110032,Delhi,IN,https://www.google.com/maps/place/%E0%A4%AE%E0%A4%B8%E0%A5%8D%E0%A4%9C%E0%A4%BF%E0%A4%A6/data=!4m7!3m6!1s0x390cfb490b84c709:0x30ecad58f89bafaa!8m2!3d28.6687399!4d77.2917355!16s%2Fg%2F11n03hfp8k!19sChIJCceEC0n7DDkRqq-b-Fit7DA?authuser=0&hl=en&rclk=1,"28.6687399,77.2917355"
Masjid,Mosque,"P9HF+33Q Masjid, Farukh Nagar, Uttar Pradesh 201003",,P9HF+33Q,Farukh Nagar,201003,Uttar Pradesh,IN,https://www.google.com/maps/place/Masjid/data=!4m7!3m6!1s0x390cfa018875b495:0xeea7b0caec7e470d!8m2!3d28.7277145!4d77.3727433!16s%2Fg%2F11f0krqvls!19sChIJlbR1iAH6DDkRDUd-7Mqwp-4?authuser=0&hl=en&rclk=1,"28.727714499999998,77.3727433"
Masjid Digcholi,Mosque,"Masjid Digcholi, Digcholi, Rajasthan 321203",,,Digcholi,,Rajasthan,IN,https://www.google.com/maps/place/Masjid+Digcholi/data=!4m7!3m6!1s0x39731cc2e3655dad:0x4770ccd478f11931!8m2!3d27.5427928!4d77.2540431!16s%2Fg%2F1tfcrmls!19sChIJrV1l48IcczkRMRnxeNTMcEc?authuser=0&hl=en&rclk=1,"27.542792799999997,77.25404309999999"
Jama masjid,Mosque,"WR5F+PW Jama masjid, Bazidpur Tigri, Uttar Pradesh 244402",,WR5F+PW,Bazidpur Tigri,,Uttar Pradesh,IN,https://www.google.com/maps/place/Jama+masjid/data=!4m7!3m6!1s0x390af95d30e5c105:0xa9d790621685ae41!8m2!3d28.9093514!4d78.8248006!16s%2Fg%2F11tg47rznt!19sChIJBcHlMF35CjkRQa6FFmKQ16k?authuser=0&hl=en&rclk=1,"28.9093514,78.8248006"
Masjid DIG House,Mosque,"3MHC+6F8 Masjid DIG House, University Road, Sargodha, Punjab, Pakistan",,"3MHC+6F8, University Road",Sargodha,,"Sargodha, Punjab",PK,https://www.google.com/maps/place/Masjid+DIG+House/data=!4m7!3m6!1s0x392177370b444e75:0x4b28eff2b24beba4!8m2!3d32.0780438!4d72.6712072!16s%2Fg%2F11hz1nk834!19sChIJdU5ECzd3ITkRpOtLsvLvKEs?authuser=0&hl=en&rclk=1,"32.078043799999996,72.6712072"
Masjid/prayer room,Mosque,"H76F+7H6 Masjid/prayer room, Fortis Escorts Hospital Sukhdev metro station, Delhi",New Friends Colony,"H76F+7H6, Fortis Escorts Hospital Sukhdev metro station","Delhi, New Delhi",,Delhi,IN,https://www.google.com/maps/place/Masjid%2Fprayer+room/data=!4m7!3m6!1s0x390ce3c02d7da811:0x388ca404d02fd2b3!8m2!3d28.5606583!4d77.2739036!16s%2Fg%2F11rj_njv5d!19sChIJEah9LcDjDDkRs9Iv0ASkjDg?authuser=0&hl=en&rclk=1,"28.5606583,77.2739036"
Masjid,Mosque,"Masjid, Molarband, Badarpur, New Delhi, Delhi 110044","Molarband, Badarpur",,New Delhi,110044,Delhi,IN,https://www.google.com/maps/place/Masjid/data=!4m7!3m6!1s0x390ce75604c9317b:0x95388f2bb1f0f9b2!8m2!3d28.5063324!4d77.3130947!16s%2Fg%2F11rkpbdy5r!19sChIJezHJBFbnDDkRsvnwsSuPOJU?authuser=0&hl=en&rclk=1,"28.506332399999998,77.3130947"
Masjid,Mosque,"Masjid, Generator section LNH, Maulana Azad Medical College Campus, LNJP Colony, New Delhi, Delhi, 110002","Maulana Azad Medical College Campus, LNJP Colony",Generator section LNH,"New Delhi, Delhi",110002,Delhi,IN,https://www.google.com/maps/place/Masjid/data=!4m7!3m6!1s0x390cfda80d3a142f:0x7e63ba6e21dc1e97!8m2!3d28.6378466!4d77.2379581!16s%2Fg%2F11ss881009!19sChIJLxQ6Daj9DDkRlx7cIW66Y34?authuser=0&hl=en&rclk=1,"28.6378466,77.2379581"
Masjid,Mosque,"M65J+GV7 Masjid, Chhippy Wada, Chandni Chowk, Delhi, 110006","Chhippy Wada, Chandni Chowk",M65J+GV7,Delhi,110006,Delhi,IN,https://www.google.com/maps/place/Masjid/data=!4m7!3m6!1s0x390cfd04823e663b:0x88920d6fe0b74a65!8m2!3d28.6587916!4d77.2321828!16s%2Fg%2F11n0gg69p2!19sChIJO2Y-ggT9DDkRZUq34G8Nkog?authuser=0&hl=en&rclk=1,"28.658791599999997,77.23218279999999"
MASJID USMAN E GHANI 2019,Mosque,"MASJID USMAN E GHANI 2019, 4/441, 33 Feet Rd, E2 Block, Old Mustafabad, New Mustafabad, Delhi, 110094","E2 Block, Old Mustafabad, New Mustafabad","4/441, 33 Feet Rd",Delhi,110094,Delhi,IN,https://www.google.com/maps/place/MASJID+USMAN+E+GHANI+2019/data=!4m7!3m6!1s0x390cfd3d578b643d:0x3f04a76650c0fab4!8m2!3d28.7092805!4d77.2739091!16s%2Fg%2F11fmz9fqqm!19sChIJPWSLVz39DDkRtPrAUGanBD8?authuser=0&hl=en&rclk=1,"28.7092805,77.2739091"
Masjid,Mosque,"RX4J+M39 Masjid, Rajoli, Sulela, Haryana 122104",,RX4J+M39,"Rajoli, Sulela",122104,Haryana,IN,https://www.google.com/maps/place/Masjid/data=!4m7!3m6!1s0x3972c534275ef4ab:0xdc27d3a7ace97738!8m2!3d27.8066544!4d76.9802205!16s%2Fg%2F11j3xmhg73!19sChIJq_ReJzTFcjkROHfprKfTJ9w?authuser=0&hl=en&rclk=1,"27.8066544,76.9802205"
Masjid,Mosque,"Masjid, 8/2, Budh Bazar, Block L 1, Devli, Sangam Vihar, New Delhi, Delhi 110062","Budh Bazar, Block L 1, Devli, Sangam Vihar",8/2,New Delhi,110062,Delhi,IN,https://www.google.com/maps/place/Masjid/data=!4m7!3m6!1s0x390ce1dde82b3bc3:0x4d3537cacd38aec4!8m2!3d28.4940769!4d77.2261653!16s%2Fg%2F11rk33_10p!19sChIJwzsr6N3hDDkRxK44zco3NU0?authuser=0&hl=en&rclk=1,"28.4940769,77.22616529999999"
Masjid Kaddan Wali,Mosque,"Masjid Kaddan Wali, 3800,, Charkhiwalan Gali, Khush Dil, Chandni Chowk, New Delhi, Delhi 110006","Khush Dil, Chandni Chowk","3800,, Charkhiwalan Gali","New Delhi, Delhi",110006,Delhi,IN,https://www.google.com/maps/place/Masjid+Kaddan+Wali/data=!4m7!3m6!1s0x390cfd19d610452b:0xf81efc1a357adee8!8m2!3d28.6506731!4d77.2290561!16s%2Fg%2F12hkbxr_7!19sChIJK0UQ1hn9DDkR6N56NRr8Hvg?authuser=0&hl=en&rclk=1,"28.6506731,77.2290561"
Masjid,Mosque,"Masjid, Gali No 19, Gali Number 1, Mustafabad Extn, New Mustafabad, Delhi, 110094","E2 Block, Mustafabad Extn, New Mustafabad","Gali No 19, Gali Number 1",Delhi,110094,Delhi,IN,https://www.google.com/maps/place/Masjid/data=!4m7!3m6!1s0x390cfc1b020b0e91:0xb48a3c3233e41cbd!8m2!3d28.711773!4d77.272563!16s%2Fg%2F12hpqnhjr!19sChIJkQ4LAhv8DDkRvRzkMzI8irQ?authuser=0&hl=en&rclk=1,"28.711772999999997,77.27256299999999"
Masjid Nala Bazar kaman,Mosque,"M729+H29 Masjid Nala Bazar kaman, Lakkad Mohalla, Kaman, Rajasthan 321022",Lakkad Mohalla,M729+H29,Kaman,321022,Rajasthan,IN,https://www.google.com/maps/place/Masjid+Nala+Bazar+kaman/data=!4m7!3m6!1s0x39731f66afd236bb:0xe4fcf43e978e83a0!8m2!3d27.6514129!4d77.2675984!16s%2Fg%2F11tt6k6rdy!19sChIJuzbSr2YfczkRoIOOlz70_OQ?authuser=0&hl=en&rclk=1,"27.6514129,77.2675984"
Jamete islami Markaz Masjid,Mosque,"H73W+G6F Jamete islami Markaz Masjid, Abul Fazal Enclave Part 2, Jamia Nagar, Okhla, New Delhi, Delhi 110025","Abul Fazal Enclave Part 2, Jamia Nagar, Okhla",H73W+G6F,New Delhi,110025,Delhi,IN,https://www.google.com/maps/place/Jamete+islami+Markaz+Masjid/data=!4m7!3m6!1s0x390ce584b6f10bd5:0xdadc52adbd2e5235!8m2!3d28.5538228!4d77.2955576!16s%2Fg%2F11t061tn1_!19sChIJ1QvxtoTlDDkRNVIuva1S3No?authuser=0&hl=en&rclk=1,"28.5538228,77.2955576"
Masjid,Mosque,"Shop No: 5035, Masjid, Netaji Subhash Marg, Daryaganj, New Delhi, Delhi, 110002",Daryaganj,"Shop No: 5035, Netaji Subhash Marg","New Delhi, Delhi",110002,Delhi,IN,https://www.google.com/maps/place/Masjid/data=!4m7!3m6!1s0x390cfdf175041b95:0x8ef57a2bc9f92c1c!8m2!3d28.6480954!4d77.2403964!16s%2Fg%2F11s664lvxh!19sChIJlRsEdfH9DDkRHCz5ySt69Y4?authuser=0&hl=en&rclk=1,"28.6480954,77.2403964"
Madina masjid,Mosque,"Ward number 3, Madina masjid, Chandni Chowk, sarul, Delhi, 110006",Chandni Chowk,Ward number 3,"sarul, Delhi",110006,Delhi,IN,https://www.google.com/maps/place/Madina+masjid/data=!4m7!3m6!1s0x390cfd765db7001b:0xc7c08a181a8d81db!8m2!3d28.6610779!4d77.2345881!16s%2Fg%2F11ry5dxrrg!19sChIJGwC3XXb9DDkR24GNGhiKwMc?authuser=0&hl=en&rclk=1,"28.6610779,77.2345881"
Masjid,Mosque,"M794+RG5 Masjid, Block A, Shastri Park, Shahdara, Delhi, 110053","Block A, Shastri Park, Shahdara",M794+RG5,Delhi,,Delhi,IN,https://www.google.com/maps/place/Masjid/data=!4m7!3m6!1s0x390cfd74b6378221:0x2da5c9212f831088!8m2!3d28.6695164!4d77.2563643!16s%2Fg%2F11tb42z9g0!19sChIJIYI3tnT9DDkRiBCDLyHJpS0?authuser=0&hl=en&rclk=1,"28.6695164,77.2563643"
Masjid,Mosque,"Masjid, 20, Masjid Rd, Pervesh Nagar, Mubarakpur Dabas, New Delhi, Delhi, 110081","Pervesh Nagar, Mubarakpur Dabas","20, Masjid Rd","New Delhi, Delhi",110081,Delhi,IN,https://www.google.com/maps/place/Masjid/data=!4m7!3m6!1s0x390d075632dea237:0xe707b406c4cff64!8m2!3d28.7098866!4d77.0310854!16s%2Fg%2F11kq2cq2_1!19sChIJN6LeMlYHDTkRZP9MbEB7cA4?authuser=0&hl=en&rclk=1,"28.709886599999997,77.0310854"
Masjid,Mosque,"Masjid, L385, Block L, JJ Colony No 3, Nangloi, New Delhi, Delhi, 110041","Block L, JJ Colony No 3, Nangloi",L385,"New Delhi, Delhi",110041,Delhi,IN,https://www.google.com/maps/place/Masjid/data=!4m7!3m6!1s0x390d0530462f99ad:0xf47aa8290ce093fa!8m2!3d28.6842352!4d77.0742041!16s%2Fg%2F11smtj7p27!19sChIJrZkvRjAFDTkR-pPgDCmoevQ?authuser=0&hl=en&rclk=1,"28.6842352,77.0742041"
Masjid,Mosque,"J2WM+MXF Masjid, Sunni Masjid Rd, Deep Enclave, Hastsal, Delhi, 110059","Deep Enclave, Hastsal","J2WM+MXF, Sunni Masjid Rd",Delhi,110059,Delhi,IN,https://www.google.com/maps/place/Masjid/data=!4m7!3m6!1s0x390d05267bb46283:0xaef6f06f366d7113!8m2!3d28.6466834!4d77.0349292!16s%2Fg%2F11vl8tpxw1!19sChIJg2K0eyYFDTkRE3FtNm_w9q4?authuser=0&hl=en&rclk=1,"28.646683399999997,77.0349292"
Jumma Masjid jummaa msjid,Mosque,"86G4+CPX Jumma Masjid jummaa msjid, Tikri Khera, Alampur, Haryana 121004",,86G4+CPX,"Tikri Khera, Alampur",121004,Haryana,IN,https://www.google.com/maps/place/Jumma+Masjid+%E0%A4%9C%E0%A5%81%E0%A4%AE%E0%A5%8D%E0%A4%AE%E0%A4%BE+%E0%A4%AE%E0%A4%B8%E0%A5%8D%E0%A4%9C%E0%A4%BF%E0%A4%A6/data=!4m7!3m6!1s0x390cd902a43b519b:0xbac7aad4f8422450!8m2!3d28.326101!4d77.2068541!16s%2Fg%2F11p5kvhq9y!19sChIJm1E7pALZDDkRUCRC-NSqx7o?authuser=0&hl=en&rclk=1,"28.326100999999998,77.2068541"
Shahi Masjid,Mosque,"Shahi Masjid, Govind Kunj, Saraikhwaja, Arjun Nagar, Agra, Uttar Pradesh 282001","Govind Kunj, Saraikhwaja, Arjun Nagar",,Agra,282001,Uttar Pradesh,IN,https://www.google.com/maps/place/Shahi+Masjid/data=!4m7!3m6!1s0x3974779acab7ce9f:0x8d3fa40279d9c319!8m2!3d27.1642296!4d77.9877724!16s%2Fg%2F11q480k9zv!19sChIJn863ypp3dDkRGcPZeQKkP40?authuser=0&hl=en&rclk=1,"27.1642296,77.9877724"
Masjid,Mosque,"8FRR+934 Masjid, Khanpur, Uttar Pradesh 251318",,8FRR+934,Khanpur,,Uttar Pradesh,IN,https://www.google.com/maps/place/Masjid/data=!4m7!3m6!1s0x390c3d14ec51f025:0x58f150d6c2250a6a!8m2!3d29.3408861!4d77.4902181!16s%2Fg%2F11tx6tgh2v!19sChIJJfBR7BQ9DDkRagolwtZQ8Vg?authuser=0&hl=en&rclk=1,"29.3408861,77.49021809999999"
DIG Office Masjid,Mosque,"GVRP+WPM DIG Office Masjid, Sibbi Festival Grounds, Jail Rd, Sibi, Balochistan, Pakistan",,"GVRP+WPM Sibbi Festival Grounds, Jail Rd",Sibi,,"Sibi, Balochistan",PK,https://www.google.com/maps/place/DIG+Office+Masjid/data=!4m7!3m6!1s0x39329b0d36947733:0xd4fb7a9ddc3c84c!8m2!3d29.5431258!4d67.8873368!16s%2Fg%2F11txdsr54v!19sChIJM3eUNg2bMjkRTMjD3am3Tw0?authuser=0&hl=en&rclk=1,"29.5431258,67.8873368"
