name,main_category,address,address_ward,address_street,address_city,address_postal_code,address_state,address_country_code,link,coordinates
Rajdhani Masjid,Mosque,"4QRP+JGP Rajdhani Masjid, Hatigaon Bhetapara Rd, Mula Gabharu Path, Hatigaon, Guwahati, Assam 781006","Mula Gabharu Path, Hatigaon","4QRP+JGP, Hatigaon Bhetapara Rd",Guwahati,781006,Assam,IN,https://www.google.com/maps/place/Rajdhani+Masjid/data=!4m7!3m6!1s0x375a592472ab2557:0xf8d760d9ce2db0f1!8m2!3d26.1415961!4d91.7863301!16s%2Fg%2F1tffh3sz!19sChIJVyWrciRZWjcR8bAtztlg1_g?authuser=0&hl=en&rclk=1,"26.141596099999997,91.7863301"
Lakhtokia 2 No. Masjid,Mosque,"5PJR+MM4 Lakhtokia 2 No. Masjid, Lakhtokia, Fancy Bazaar, Guwahati, Assam 781030","Lakhtokia, Fancy Bazaar",5PJR+MM4,Guwahati,781030,Assam,IN,https://www.google.com/maps/place/Lakhtokia+2+No.+Masjid/data=!4m7!3m6!1s0x375a5a30ffd7621f:0x9adda43091f25324!8m2!3d26.1816292!4d91.7417032!16s%2Fg%2F1tdlsn20!19sChIJH2LX_zBaWjcRJFPykTCk3Zo?authuser=0&hl=en&rclk=1,"26.1816292,91.74170319999999"
Kamarpatty Masjid,Mosque,"5PJR+W78 Kamarpatty Masjid, Dr JC Das Rd, Kamarpatty, Fancy Bazaar, Guwahati, Assam 781001","Kamarpatty, Fancy Bazaar","5PJR+W78, Dr JC Das Rd",Guwahati,781001,Assam,IN,https://www.google.com/maps/place/Kamarpatty+Masjid/data=!4m7!3m6!1s0x375a5a30ef438d33:0x850bb34da95b33a4!8m2!3d26.1822833!4d91.740714!16s%2Fg%2F1tdp3dkf!19sChIJM41D7zBaWjcRpDNbqU2zC4U?authuser=0&hl=en&rclk=1,"26.182283299999998,91.740714"
Kumarpara Masjid,Mosque,"5PFP+HF8 Kumarpara Masjid, Kumarpara Rd, Kumarpara, Athgaon, Guwahati, Assam 781001","Kumarpara, Athgaon","5PFP+HF8, Kumarpara Rd",Guwahati,781001,Assam,IN,https://www.google.com/maps/place/Kumarpara+Masjid/data=!4m7!3m6!1s0x375a5a35235f451f:0xf1b6d7b6120e446b!8m2!3d26.1739137!4d91.7362005!16s%2Fg%2F1pyqg6q6l!19sChIJH0VfIzVaWjcRa0QOErbXtvE?authuser=0&hl=en&rclk=1,"26.1739137,91.7362005"
Jama Masjid: Lakhtokia,Mosque,"5PJV+WHC Jama Masjid: Lakhtokia, Col. J. Ali Rd, Lakhtokia, Fancy Bazaar, Guwahati, Assam 781001","Lakhtokia, Fancy Bazaar","5PJV+WHC, Col. J. Ali Rd",Guwahati,781001,Assam,IN,https://www.google.com/maps/place/Jama+Masjid:+Lakhtokia/data=!4m7!3m6!1s0x375a5a30266c78cd:0x8476ecb232a0f76d!8m2!3d26.1823038!4d91.7439022!16s%2Fg%2F1w0hyztj!19sChIJzXhsJjBaWjcRbfegMrLsdoQ?authuser=0&hl=en&rclk=1,"26.1823038,91.7439022"
"Islampur Masjid, Guwahati Club",Mosque,"Islampur Masjid, Guwahati Club, Islampur Kabarstan Rd, Gandhi Basti, Sarania Hills, Guwahati, Assam 781003","Gandhi Basti, Sarania Hills",Islampur Kabarstan Rd,Guwahati,781003,Assam,IN,"https://www.google.com/maps/place/Islampur+Masjid,+Guwahati+Club/data=!4m7!3m6!1s0x375a59844a7269d9:0x911dfc437d3b7ca6!8m2!3d26.1814412!4d91.7600267!16s%2Fg%2F1pyqh9m_h!19sChIJ2WlySoRZWjcRpnw7fUP8HZE?authuser=0&hl=en&rclk=1","26.1814412,91.7600267"
"Burha Jame Masjid, Ambari",Mosque,"5QM4+XF2 Burha Jame Masjid, Ambari, GNB Rd, Ambari, Guwahati, Assam 781003",Ambari,"5QM4+XF2, GNB Rd",Guwahati,781003,Assam,IN,"https://www.google.com/maps/place/Burha+Jame+Masjid,+Ambari/data=!4m7!3m6!1s0x375a59887e991119:0x6934e304786553c8!8m2!3d26.1848988!4d91.7561283!16s%2Fg%2F1pyqj9nk2!19sChIJGRGZfohZWjcRyFNleATjNGk?authuser=0&hl=en&rclk=1","26.1848988,91.7561283"
Maligaon Masjid msjd,Mosque,"5M5X+92M Maligaon Masjid msjd, Maligaon Chariali, Maligaon, Guwahati, Assam 781010","Maligaon Chariali, Maligaon",5M5X+92M,Guwahati,781010,Assam,IN,https://www.google.com/maps/place/Maligaon+Masjid+%D9%85%D8%B3%D8%AC%D8%AF%E2%80%AD/data=!4m7!3m6!1s0x375a5b165336576d:0x4bd5f273dfca48cf!8m2!3d26.1584522!4d91.6975513!16s%2Fg%2F1s04cp6jz!19sChIJbVc2UxZbWjcRz0jK33Py1Us?authuser=0&hl=en&rclk=1,"26.1584522,91.6975513"
Athgaon Jama Masjid,Mosque,"5PFQ+MX8 Athgaon Jama Masjid, Athgaon, Guwahati, Assam 781001",Athgaon,5PFQ+MX8,Guwahati,781001,Assam,IN,https://www.google.com/maps/place/Athgaon+Jama+Masjid/data=!4m7!3m6!1s0x375a5a3342bc64cf:0x3f859bcb8ae1c522!8m2!3d26.1741528!4d91.7399465!16s%2Fg%2F1tpc6b3w!19sChIJz2S8QjNaWjcRIsXhisubhT8?authuser=0&hl=en&rclk=1,"26.174152799999998,91.7399465"
Milanpur Purana Masjid ( Masjid No 1 ),Mosque,"5QRJ+3GM Milanpur Purana Masjid ( Masjid No 1 ), Milanpur, West Jyotinagar, Bamunimaidan, Guwahati, Assam 781021","Milanpur, West Jyotinagar, Bamunimaidan",5QRJ+3GM,Guwahati,781021,Assam,IN,https://www.google.com/maps/place/Milanpur+Purana+Masjid+%28+Masjid+No+1+%29/data=!4m7!3m6!1s0x375a59b9889afef3:0xa3206ea3fd6807ed!8m2!3d26.1902!4d91.7813!16s%2Fg%2F1pyqr6m0x!19sChIJ8_6aiLlZWjcR7Qdo_aNuIKM?authuser=0&hl=en&rclk=1,"26.190199999999997,91.7813"
Birubari Jama Masjid,Mosque,"5Q54+8HM Birubari Jama Masjid, Birubari Main Rd, Birubari, Guwahati, Assam 781016",Birubari,"5Q54+8HM, Birubari Main Rd",Guwahati,781016,Assam,IN,https://www.google.com/maps/place/Birubari+Jama+Masjid/data=!4m7!3m6!1s0x375a5bd9f284198d:0x49031a974acc262e!8m2!3d26.1595!4d91.7496!16s%2Fg%2F1pyqgzv6g!19sChIJjRmE8tlbWjcRLibMSpcaA0k?authuser=0&hl=en&rclk=1,"26.159499999999998,91.7496"
"Dakhingaon , Burha Masjid",Mosque,"Dakhingaon , Burha Masjid, Dakhingaon Rd, DakhinGaon, Kahilipara, Guwahati, Assam 781019","DakhinGaon, Kahilipara",Dakhingaon Rd,Guwahati,781019,Assam,IN,"https://www.google.com/maps/place/Dakhingaon+,+Burha+Masjid/data=!4m7!3m6!1s0x375a59522ccaf6cd:0xb7834b3ae4a477af!8m2!3d26.130676!4d91.7611921!16s%2Fg%2F11h09m8wq!19sChIJzfbKLFJZWjcRr3ek5DpLg7c?authuser=0&hl=en&rclk=1","26.130675999999998,91.7611921"
Paltan Bazar Masjid,Mosque,"5PJX+6GJ Paltan Bazar Masjid, Assam Trunk Rd, PWD Colony, Paltan Bazaar, Guwahati, Assam 781001","PWD Colony, Paltan Bazaar","5PJX+6GJ, Assam Trunk Rd",Guwahati,,Assam,IN,https://www.google.com/maps/place/Paltan+Bazar+Masjid/data=!4m7!3m6!1s0x375a5a2ecc413fb9:0xfad1af467db026b4!8m2!3d26.1805786!4d91.7487568!16s%2Fg%2F1pyqvc5kp!19sChIJuT9BzC5aWjcRtCawfUav0fo?authuser=0&hl=en&rclk=1,"26.1805786,91.7487568"
Machkhowa Pakka Masjid,Mosque,"5PGM+QV3 Machkhowa Pakka Masjid, Machkhowa, Guwahati, Assam 781009",Machkhowa,5PGM+QV3,Guwahati,781009,Assam,IN,https://www.google.com/maps/place/Machkhowa+Pakka+Masjid/data=!4m7!3m6!1s0x375a5a358953538b:0x219762fc2929ed70!8m2!3d26.1768923!4d91.7346626!16s%2Fg%2F1tz74b9g!19sChIJi1NTiTVaWjcRcO0pKfxilyE?authuser=0&hl=en&rclk=1,"26.1768923,91.7346626"
"Hedayetpur Jame Masjid, Guwahati Club",Mosque,"Hedayetpur Jame Masjid, Guwahati Club, Hedayatpur, Guwahati Club, Guwahati, Assam 781003","Hedayatpur, Guwahati Club",,Guwahati,781003,Assam,IN,"https://www.google.com/maps/place/Hedayetpur+Jame+Masjid,+Guwahati+Club/data=!4m7!3m6!1s0x375a59860fc1f2d1:0xd8566162f8175eed!8m2!3d26.1835283!4d91.7581575!16s%2Fg%2F1pyqkyhsc!19sChIJ0fLBD4ZZWjcR7V4X-GJhVtg?authuser=0&hl=en&rclk=1","26.1835283,91.7581575"
Ulubari Jama Masjid,Mosque,"5QG3+PQC Ulubari Jama Masjid, GS Rd, Opposite Volvo Bus Counter, Opposite Flyover Bridge, Manipuri Rajbari, Ulubari, Guwahati, Assam 781007","Opposite Flyover Bridge, Manipuri Rajbari, Ulubari","5QG3+PQC, GS Rd, Opposite Volvo Bus Counter",Guwahati,781007,Assam,IN,https://www.google.com/maps/place/Ulubari+Jama+Masjid/data=!4m7!3m6!1s0x375a59809841bd71:0x8fa3441ab3c35a95!8m2!3d26.1768135!4d91.7543946!16s%2Fg%2F1pyqk08bn!19sChIJcb1BmIBZWjcRlVrDsxpEo48?authuser=0&hl=en&rclk=1,"26.176813499999998,91.7543946"
"Guwahati University Masjid,. Garigaon Bidyanagar",Mosque,"Guwahati University Masjid,. Garigaon Bidyanagar, NH 17, Garigaon Main Rd, Bidyanagar, Garigaon, Jalukbari, Guwahati, Assam 781012","Bidyanagar, Jalukbari","NH 17, Garigaon Main Rd, Bidyanagar, Garigaon",Guwahati,781012,Assam,IN,"https://www.google.com/maps/place/Guwahati+University+Masjid,.+Garigaon+Bidyanagar/data=!4m7!3m6!1s0x375a44c39bf05467:0x1da076b759a79966!8m2!3d26.1584152!4d91.6606245!16s%2Fg%2F11_q2xhgr!19sChIJZ1Twm8NEWjcRZpmnWbd2oB0?authuser=0&hl=en&rclk=1","26.1584152,91.6606245"
Milanpur 2 no. masjid,Mosque,"5QQH+569 Milanpur 2 no. masjid, 2, Milanpur Rd, Milanpur, West Jyotinagar, Bamunimaidan, Guwahati, Assam 781004","Milanpur, West Jyotinagar, Bamunimaidan","5QQH+569, 2, Milanpur Rd",Guwahati,781004,Assam,IN,https://www.google.com/maps/place/Milanpur+2+no.+masjid/data=!4m7!3m6!1s0x375a59bb81ce7a6d:0xb3b7100886d15d6c!8m2!3d26.1870969!4d91.7783994!16s%2Fg%2F11f08lnqmq!19sChIJbXrOgbtZWjcRbF3RhggQt7M?authuser=0&hl=en&rclk=1,"26.1870969,91.7783994"
Gandhibasti Jame Majid,Place of worship,"Gandhibasti Jame Majid, 18, Masjid Rd, Natun Sarania, Gandhi Basti, Sarania Hills, Guwahati, Assam 781003","Natun Sarania, Gandhi Basti, Sarania Hills","18, Masjid Rd",Guwahati,781003,Assam,IN,https://www.google.com/maps/place/Gandhibasti+Jame+Majid/data=!4m7!3m6!1s0x375a5931c6729a53:0xdb18325d43af0ad1!8m2!3d26.1799243!4d91.7636331!16s%2Fg%2F11sshqsfdw!19sChIJU5pyxjFZWjcR0QqvQ10yGNs?authuser=0&hl=en&rclk=1,"26.1799243,91.76363309999999"
Lachit Nagar Jame Masjid,Mosque,"5Q98+QRJ Lachit Nagar Jame Masjid, Lachit Nagar, Guwahati, Assam 781007",Lachit Nagar,5Q98+QRJ,Guwahati,781007,Assam,IN,https://www.google.com/maps/place/Lachit+Nagar+Jame+Masjid/data=!4m7!3m6!1s0x375a5976f254841f:0xeb7250c7412511c6!8m2!3d26.1694675!4d91.7670158!16s%2Fg%2F1pyqn96cl!19sChIJH4RU8nZZWjcRxhElQcdQcus?authuser=0&hl=en&rclk=1,"26.1694675,91.7670158"
South Sarania Jame Masjid,Mosque,"South Sarania Jame Masjid, 10B, Gandhi Basti Rd, South Sarania, Gandhi Basti, Sarania Hills, Guwahati, Assam 781003","South Sarania, Gandhi Basti, Sarania Hills","10B, Gandhi Basti Rd",Guwahati,781003,Assam,IN,https://www.google.com/maps/place/South+Sarania+Jame+Masjid/data=!4m7!3m6!1s0x375a599cd2ccbc2b:0xd1215f45c0140d41!8m2!3d26.1759455!4d91.7635471!16s%2Fg%2F1v1tlfwb!19sChIJK7zM0pxZWjcRQQ0UwEVfIdE?authuser=0&hl=en&rclk=1,"26.175945499999997,91.7635471"
Dhirenpara 2 No. Masjid,Mosque,"4PVJ+Q5V Dhirenpara 2 No. Masjid, Dhirenpara, Guwahati, Assam 781009",Dhirenpara,4PVJ+Q5V,Guwahati,781009,Assam,IN,https://www.google.com/maps/place/Dhirenpara+2+No.+Masjid/data=!4m7!3m6!1s0x375a5b9416ba32b3:0x1c87b33f55179d06!8m2!3d26.1444928!4d91.7304079!16s%2Fg%2F11f15h6t75!19sChIJszK6FpRbWjcRBp0XVT-zhxw?authuser=0&hl=en&rclk=1,"26.1444928,91.73040789999999"
Kalyanpur Jama Masjid,Mosque,"Kalyanpur Jama Masjid, Ganeshguri, Kalyanpur, 44, Mandakini Path, near by DC OFFICE, GMC Ward Number 44, Hengrabari, Guwahati, Assam 781006","GMC Ward Number 44, Hengrabari","Ganeshguri, Kalyanpur, 44, Mandakini Path, near by DC OFFICE",Guwahati,781006,Assam,IN,https://www.google.com/maps/place/Kalyanpur+Jama+Masjid/data=!4m7!3m6!1s0x375a591ed6977081:0xf7ed89272bffcd81!8m2!3d26.1514739!4d91.7891957!16s%2Fg%2F1tgwl14r!19sChIJgXCX1h5ZWjcRgc3_KyeJ7fc?authuser=0&hl=en&rclk=1,"26.1514739,91.7891957"
Athgaon Kabristan MASJID,Mosque,"5P9R+88F Athgaon Kabristan MASJID, Sati Joymati Rd, Chabipul, Athgaon, Guwahati, Assam 781001","Chabipul, Athgaon","5P9R+88F, Sati Joymati Rd",Guwahati,781001,Assam,IN,https://www.google.com/maps/place/Athgaon+Kabristan+MASJID/data=!4m7!3m6!1s0x375a5bcc3f5537c5:0xe4455fcc2b601779!8m2!3d26.1683!4d91.7407999!16s%2Fg%2F1pyqhdplr!19sChIJxTdVP8xbWjcReRdgK8xfReQ?authuser=0&hl=en&rclk=1,"26.1683,91.7407999"
Christian Basti Masjid,Mosque,"5Q4F+8X6 Christian Basti Masjid, Christian Basti, Guwahati, Assam 781034",Christian Basti,5Q4F+8X6,Guwahati,781034,Assam,IN,https://www.google.com/maps/place/Christian+Basti+Masjid/data=!4m7!3m6!1s0x375a59136c0cbabb:0xb7a1750977d63a14!8m2!3d26.1558!4d91.7749!16s%2Fg%2F1pyqqyc80!19sChIJu7oMbBNZWjcRFDrWdwl1obc?authuser=0&hl=en&rclk=1,"26.1558,91.7749"
Zoo-Narengi Road Masjid,Mosque,"Zoo-Narengi Road Masjid, House No.14, Mother Teresa Rd, South By Lane No.1, Surojit Gogoi Rd, Zoo Road Tiniali, Guwahati, Assam 781024","Zoo Road Tiniali, Ambikagirinagar","House No.14, Mother Teresa Rd, South By Lane No.1, Surojit Gogoi Rd",Guwahati,781024,Assam,IN,https://www.google.com/maps/place/Zoo-Narengi+Road+Masjid/data=!4m7!3m6!1s0x375a59a0b3733a61:0xba60566acb8a2eb2!8m2!3d26.1734532!4d91.7783075!16s%2Fg%2F1pyqv14zw!19sChIJYTpzs6BZWjcRsi6Ky2pWYLo?authuser=0&hl=en&rclk=1,"26.173453199999997,91.7783075"
Sijubari Burah Jama Masjid,Mosque,"4QHH+XP3 Sijubari Burah Jama Masjid, Masjid Path, Sijubari, Hatigaon, Guwahati, Assam 781038","Sijubari, Hatigaon","4QHH+XP3, Masjid Path",Guwahati,781038,Assam,IN,https://www.google.com/maps/place/Sijubari+Burah+Jama+Masjid/data=!4m7!3m6!1s0x375a5933e99faf63:0xae52f23eca7a8ee2!8m2!3d26.1299!4d91.7793!16s%2Fg%2F1pyqf49zz!19sChIJY6-f6TNZWjcR4o56yj7yUq4?authuser=0&hl=en&rclk=1,"26.1299,91.77929999999999"
Cycle Factory Masjid,Mosque,"Cycle Factory Masjid, Cycle Factory, Milan Path, Fatasil Ambari, Guwahati, Assam 781016",Fatasil Ambari,"Cycle Factory, Milan Path",Guwahati,781016,Assam,IN,https://www.google.com/maps/place/Cycle+Factory+Masjid/data=!4m7!3m6!1s0x375a5b7f388d7449:0xde585d4bc6e85228!8m2!3d26.1602392!4d91.7392491!16s%2Fg%2F11hdnh7hgk!19sChIJSXSNOH9bWjcRKFLoxktdWN4?authuser=0&hl=en&rclk=1,"26.1602392,91.7392491"
Panbazar Masjid,Mosque,"5PPV+H6V Panbazar Masjid, Hem Baruah Rd, Mutawalli, Pan Bazaar, Guwahati, Assam 781001","Mutawalli, Pan Bazaar","5PPV+H6V, Hem Baruah Rd",Guwahati,781001,Assam,IN,https://www.google.com/maps/place/Panbazar+Masjid/data=!4m7!3m6!1s0x375a5a3ac300dc37:0x2a8a87889431e344!8m2!3d26.186499!4d91.7430557!16s%2Fg%2F1v_w0r1n!19sChIJN9wAwzpaWjcRROMxlIiHiio?authuser=0&hl=en&rclk=1,"26.186498999999998,91.7430557"
Kharghuli Masjid,Mosque,"Luitpur, P.O, Kharghuli Masjid, Kharghuli Hills, Guwahati, Assam 781004",Kharghuli Hills,"Luitpur, P.O",Guwahati,781004,Assam,IN,https://www.google.com/maps/place/Kharghuli+Masjid/data=!4m7!3m6!1s0x375a59eb189e0cab:0xd9a4874c2244fec9!8m2!3d26.1974783!4d91.7705235!16s%2Fg%2F11c5b14g4f!19sChIJqwyeGOtZWjcRyf5EIkyHpNk?authuser=0&hl=en&rclk=1,"26.1974783,91.7705235"
Aziz Nagar Masjid,Mosque,"4RR9+52F Aziz Nagar Masjid, Aziz Nagar, Barbari Village, Guwahati, Assam 781023","Aziz Nagar, Barbari Village",4RR9+52F,Guwahati,781023,Assam,IN,https://www.google.com/maps/place/Aziz+Nagar+Masjid/data=!4m7!3m6!1s0x375a58bbdeaa1003:0xae2be90e80082b62!8m2!3d26.1404316!4d91.8175604!16s%2Fg%2F11clwnq3g1!19sChIJAxCq3rtYWjcRYisIgA7pK64?authuser=0&hl=en&rclk=1,"26.1404316,91.81756039999999"
"Anowarpur Masjid, Bhangaghar",Mosque,"5Q79+P56 Anowarpur Masjid, Bhangaghar, Bhangagarh, Guwahati, Assam 781007",Bhangagarh,5Q79+P56,Guwahati,781007,Assam,IN,"https://www.google.com/maps/place/Anowarpur+Masjid,+Bhangaghar/data=!4m7!3m6!1s0x375a597165539b27:0xa536c6b1f80e80e3!8m2!3d26.1643!4d91.7679!16s%2Fg%2F1pyqnpqfp!19sChIJJ5tTZXFZWjcR44AO-LHGNqU?authuser=0&hl=en&rclk=1","26.164299999999997,91.7679"
Chandmari Masjid,Mosque,"5QMG+8F9 Chandmari Masjid, Maniram Dawan Road, Bamunimaidan, Guwahati, Assam 781003",Bamunimaidan,"5QMG+8F9, Maniram Dawan Road",Guwahati,781003,Assam,IN,https://www.google.com/maps/place/Chandmari+Masjid/data=!4m7!3m6!1s0x375a59a32596fd29:0x21eb20c8b5375a76!8m2!3d26.1832999!4d91.7762341!16s%2Fg%2F1pyqmg02p!19sChIJKf2WJaNZWjcRdlo3tcgg6yE?authuser=0&hl=en&rclk=1,"26.183299899999998,91.7762341"
Navagiri Jama Masjid,Mosque,"no. 7 B, Navagiri Jama Masjid, Chandmari Navagiri Rd, Krishna Nagar, Chandmari, Guwahati, Assam 781004","Krishna Nagar, Chandmari","no. 7 B, Chandmari Navagiri Rd",Guwahati,781004,Assam,IN,https://www.google.com/maps/place/Navagiri+Jama+Masjid/data=!4m7!3m6!1s0x375a59bd7fcc00e5:0xb3a7756cbd974fb3!8m2!3d26.1870262!4d91.7734344!16s%2Fg%2F11b5wppmp7!19sChIJ5QDMf71ZWjcRs0-XvWx1p7M?authuser=0&hl=en&rclk=1,"26.1870262,91.7734344"
Srimantapur Chilarai Jamme Masjid,Mosque,"5Q77+RXX Srimantapur Chilarai Jamme Masjid, L P School Masjid Lane, By Lane 4, Srimantapur, Nabin Nagar, Guwahati, Assam 781003","Srimantapur, Nabin Nagar","5Q77+RXX, L P School Masjid Lane, By Lane 4",Guwahati,781003,Assam,IN,https://www.google.com/maps/place/Srimantapur+Chilarai+Jamme+Masjid/data=!4m7!3m6!1s0x375a5970ec8bce09:0x7810f63369e27e25!8m2!3d26.1646188!4d91.7649767!16s%2Fg%2F11dfknm2vc!19sChIJCc6L7HBZWjcRJX7iaTP2EHg?authuser=0&hl=en&rclk=1,"26.1646188,91.76497669999999"
Sreenagar Masjid,Mosque,"Sreenagar Masjid, 1, Bye Lane 2, Sree Nagar, Guwahati, Assam 781006",Sree Nagar,"1, Bye Lane 2",Guwahati,781006,Assam,IN,https://www.google.com/maps/place/Sreenagar+Masjid/data=!4m7!3m6!1s0x375a591214e198ff:0x75f0fc7b52eb5222!8m2!3d26.1591999!4d91.7771!16s%2Fg%2F1pyqnzjp2!19sChIJ_5jhFBJZWjcRIlLrUnv88HU?authuser=0&hl=en&rclk=1,"26.159199899999997,91.77709999999999"
Machkhowa Bura Masjid,Mosque,"Machkhowa Bura Masjid, Fayez Ahmed Rd, Machkhowa, Guwahati, Assam 781001",Machkhowa,Fayez Ahmed Rd,Guwahati,781001,Assam,IN,https://www.google.com/maps/place/Machkhowa+Bura+Masjid/data=!4m7!3m6!1s0x375a5a35a382a8f5:0x7f20357fb838436a!8m2!3d26.1762225!4d91.7358881!16s%2Fg%2F1pyqsnm5w!19sChIJ9aiCozVaWjcRakM4uH81IH8?authuser=0&hl=en&rclk=1,"26.176222499999998,91.7358881"
Islampur Masjid And Madrassa,Mosque,"5QJ5+6PJ Islampur Masjid And Madrassa, musafir khana road, islampur, Guwahati, Assam","Gandhi Basti, Sarania Hills","5QJ5+6PJ, musafir khana road, islampur",Guwahati,,Assam,IN,https://www.google.com/maps/place/Islampur+Masjid+And+Madrassa/data=!4m7!3m6!1s0x375a59843d512755:0x32d4e6751ffcd082!8m2!3d26.1805773!4d91.7592636!16s%2Fg%2F11g7zffp7g!19sChIJVSdRPYRZWjcRgtD8H3Xm1DI?authuser=0&hl=en&rclk=1,"26.1805773,91.7592636"
Surjyanagar Masjid,Mosque,"Surjyanagar Masjid, Masjid, Satgaon Satgaon, Surjya Nagar, Guwahati, Assam 781171",Satgaon,"Masjid, Satgaon Satgaon, Surjya Nagar","Guwahati, Birkuchi No.2",781171,Assam,IN,https://www.google.com/maps/place/Surjyanagar+Masjid/data=!4m7!3m6!1s0x375a589cdf04ceb7:0xa888f8dc547c6f7d!8m2!3d26.1592319!4d91.8297453!16s%2Fg%2F11dxc21207!19sChIJt84E35xYWjcRfW98VNz4iKg?authuser=0&hl=en&rclk=1,"26.159231899999998,91.8297453"
Jyotikuchi Jama Masjid,Mosque,"4PMP+HP3 Jyotikuchi Jama Masjid, Lokhra Rd, Sonaighuli, Guwahati, Assam 781034",Sonaighuli,"4PMP+HP3, Lokhra Rd",Guwahati,781034,Assam,IN,https://www.google.com/maps/place/Jyotikuchi+Jama+Masjid/data=!4m7!3m6!1s0x375a5bf3076ee331:0xeec8290bcc9bc3b!8m2!3d26.1339!4d91.7368!16s%2Fg%2F1pyqvjrx8!19sChIJMeNuB_NbWjcRO7zJvJCC7A4?authuser=0&hl=en&rclk=1,"26.1339,91.7368"
Chenikuthi Masjid,Mosque,"Chenikuthi Masjid, 12, Principal J B Rd, Chenikuthi, Guwahati, Assam 781003",Chenikuthi,"12, Principal J B Rd",Guwahati,781003,Assam,IN,https://www.google.com/maps/place/Chenikuthi+Masjid/data=!4m7!3m6!1s0x375a598f2cf5f177:0x998e63c1dcf4a01!8m2!3d26.1868!4d91.7589!16s%2Fg%2F1pyqryh26!19sChIJd_H1LI9ZWjcRAUrPHTzmmAk?authuser=0&hl=en&rclk=1,"26.186799999999998,91.7589"
Numali Jalah Mosque,Mosque,"6M4Q+62G Numali Jalah Mosque, IIT Guwahati, Silamahekhaity, Assam 781039",IIT Guwahati,6M4Q+62G,Silamahekhaity,781039,Assam,IN,https://www.google.com/maps/place/Numali+Jalah+Mosque/data=!4m7!3m6!1s0x375a5aba59bde3ff:0xd24c2a3e0405568e!8m2!3d26.2055602!4d91.687566!16s%2Fg%2F1q62crjsz!19sChIJ_-O9WbpaWjcRjlYFBD4qTNI?authuser=0&hl=en&rclk=1,"26.205560199999997,91.68756599999999"
Mallick Aluminium,Mosque,"Mallick Aluminium, Masjid Path, Maligaon, Dhirenpara, Tila, Guwahati, Assam 781025","Maligaon, Dhirenpara",Masjid Path,"Tila, Guwahati",781025,Assam,IN,https://www.google.com/maps/place/Mallick+Aluminium/data=!4m7!3m6!1s0x375a5b906f8db7e3:0xe081d7f2b16f6219!8m2!3d26.1506125!4d91.7306012!16s%2Fg%2F11h5dn122z!19sChIJ47eNb5BbWjcRGWJvsfLXgeA?authuser=0&hl=en&rclk=1,"26.150612499999998,91.7306012"
Uzanbazar Islampatty Jame Masjid,Mosque,"Uzanbazar Islampatty Jame Masjid, 16, Bhuban Rd, Latasil, Uzan Bazar, Guwahati, Assam 781001","Latasil, Uzan Bazar","16, Bhuban Rd",Guwahati,781001,Assam,IN,https://www.google.com/maps/place/Uzanbazar+Islampatty+Jame+Masjid/data=!4m7!3m6!1s0x375a598a5a957fa1:0x445a99b0e72e40a9!8m2!3d26.19258!4d91.7556402!16s%2Fg%2F11dfjclzpy!19sChIJoX-VWopZWjcRqUAu57CZWkQ?authuser=0&hl=en&rclk=1,"26.19258,91.7556402"
"Masjid-e-Sheikh, Ulubari",Mosque,"5QF5+XW4 Masjid-e-Sheikh, Ulubari, Ashram Rd, Sarania Hills,ulubari Guwahati, Assam, Guwahati","South Sarania, Lachit Nagar","5QF5+XW4, Ashram Rd, Sarania Hills,ulubari Guwahati, Assam",Guwahati,,Assam,IN,"https://www.google.com/maps/place/Masjid-e-Sheikh,+Ulubari/data=!4m7!3m6!1s0x375a598237a39045:0xa0c2f0aef953124a!8m2!3d26.1748929!4d91.759824!16s%2Fg%2F1tfq300f!19sChIJRZCjN4JZWjcRShJT-a7wwqA?authuser=0&hl=en&rclk=1","26.1748929,91.759824"
Moriyapatty Jamma Masjid msjd,Mosque,"5MJP+WXH Moriyapatty Jamma Masjid msjd, near IIT Guwahati, Amingaon, Guwahati, Assam 781031",Amingaon,"5MJP+WXH, near IIT Guwahati",Guwahati,,Assam,IN,https://www.google.com/maps/place/Moriyapatty+Jamma+Masjid+%D9%85%D8%B3%D8%AC%D8%AF%E2%80%AD/data=!4m7!3m6!1s0x375a5adaf7c88a1b:0x65d1cb8dce9beef1!8m2!3d26.182306!4d91.687493!16s%2Fg%2F12j3slpsf!19sChIJG4rI99paWjcR8e6bzo3L0WU?authuser=0&hl=en&rclk=1,"26.182306,91.68749299999999"
Jyotinagar Masjid,Mosque,"5QQQ+2QX Jyotinagar Masjid, Jyoti Nagar Rd, Jyoti Nagar, Bamunimaidan, Guwahati, Assam 781021","Jyoti Nagar, Bamunimaidan","5QQQ+2QX, Jyoti Nagar Rd",Guwahati,781021,Assam,IN,https://www.google.com/maps/place/Jyotinagar+Masjid/data=!4m7!3m6!1s0x375a59b3b0ad778d:0x4ea6b2492081ddac!8m2!3d26.1876!4d91.7895!16s%2Fg%2F1pyqwbd9r!19sChIJjXetsLNZWjcRrN2BIEmypk4?authuser=0&hl=en&rclk=1,"26.1876,91.78949999999999"
Panja Gama Masjid,Mosque,"5QH6+6RX Panja Gama Masjid, South Sarania, Sarania Hills, Guwahati, Assam 781003","South Sarania, Sarania Hills",5QH6+6RX,Guwahati,781003,Assam,IN,https://www.google.com/maps/place/Panja+Gama+Masjid/data=!4m7!3m6!1s0x375a59836733a0af:0xe7c817af0a48274e!8m2!3d26.1781125!4d91.7621193!16s%2Fg%2F1pyqrhxcn!19sChIJr6AzZ4NZWjcRTidICq8XyOc?authuser=0&hl=en&rclk=1,"26.178112499999997,91.7621193"
New Guwahati Railway Colony Masjid,Mosque,"5QJM+35C New Guwahati Railway Colony Masjid, Railway Colony Rd, Sahib Tila, Railway Colony, Guwahati, Assam 781003","Sahib Tila, Railway Colony","5QJM+35C, Railway Colony Rd",Guwahati,781003,Assam,IN,https://www.google.com/maps/place/New+Guwahati+Railway+Colony+Masjid/data=!4m7!3m6!1s0x375a59a588e56dfb:0xa9ea3174bda0d697!8m2!3d26.1802!4d91.7829!16s%2Fg%2F1pyqhkyn9!19sChIJ-23liKVZWjcRl9agvXQx6qk?authuser=0&hl=en&rclk=1,"26.1802,91.7829"
Madarsa Taleem Masjid,Mosque,"5QJ5+7M8 Madarsa Taleem Masjid, Gandhi Basti, Sarania Hills, Guwahati, Assam 781003","Gandhi Basti, Sarania Hills",5QJ5+7M8,Guwahati,781003,Assam,IN,https://www.google.com/maps/place/Madarsa+Taleem+Masjid/data=!4m7!3m6!1s0x375a59842f78f20f:0x44f7ef81a148466f!8m2!3d26.1806649!4d91.7592002!16s%2Fg%2F11g815nl2_!19sChIJD_J4L4RZWjcRb0ZIoYHv90Q?authuser=0&hl=en&rclk=1,"26.1806649,91.7592002"
Jayanta Nagar Jame Masjid,Mosque,"Jayanta Nagar Jame Masjid, Guwahati Refinery Link Rd, Sector 2, Jayanta Nagar, Noonmati, Guwahati, Assam 781020","Sector 2, Jayanta Nagar, Noonmati",Guwahati Refinery Link Rd,Guwahati,781020,Assam,IN,https://www.google.com/maps/place/Jayanta+Nagar+Jame+Masjid/data=!4m7!3m6!1s0x375a584ed0b4d06f:0xafdb55eda6acfe96!8m2!3d26.1896073!4d91.7979759!16s%2Fg%2F11g8w7_y1g!19sChIJb9C00E5YWjcRlv6spu1V268?authuser=0&hl=en&rclk=1,"26.1896073,91.7979759"
Mirzan Nagar Masjid,Mosque,"4QGJ+M7M Mirzan Nagar Masjid, Sijubari, Hatigaon, Guwahati, Assam 781038","Sijubari, Hatigaon",4QGJ+M7M,Guwahati,781038,Assam,IN,https://www.google.com/maps/place/Mirzan+Nagar+Masjid/data=!4m7!3m6!1s0x375a594f8d03724f:0x83e4f5c36eace096!8m2!3d26.126709!4d91.7806753!16s%2Fg%2F11lm101x2f!19sChIJT3IDjU9ZWjcRluCsbsP15IM?authuser=0&hl=en&rclk=1,"26.126708999999998,91.7806753"
"Masjid-e-Noor, Dhirenpara",Mosque,"4PXH+8PF Masjid-e-Noor, Dhirenpara, Dhirenpara, Guwahati, Assam 781009",Dhirenpara,4PXH+8PF,Guwahati,781009,Assam,IN,"https://www.google.com/maps/place/Masjid-e-Noor,+Dhirenpara/data=!4m7!3m6!1s0x375a5b9609241097:0xccd8e348b7b483a4!8m2!3d26.1483!4d91.7293!16s%2Fg%2F1pyqm_q3x!19sChIJlxAkCZZbWjcRpIO0t0jj2Mw?authuser=0&hl=en&rclk=1","26.1483,91.7293"
Lakhtokia 1 No Masjid Field,Mosque,"5PMV+2H9 Lakhtokia 1 No Masjid Field, Pan Bazaar, Guwahati, Assam 781001",Pan Bazaar,5PMV+2H9,Guwahati,781001,Assam,IN,https://www.google.com/maps/place/Lakhtokia+1+No+Masjid+Field/data=!4m7!3m6!1s0x375a5bbdf3451e1f:0x18732529ab9af130!8m2!3d26.1825364!4d91.7439787!16s%2Fg%2F11h00901jd!19sChIJHx5F871bWjcRMPGaqyklcxg?authuser=0&hl=en&rclk=1,"26.1825364,91.7439787"
Notboma 2no Masjid,Mosque,"4QJ9+5X8 Notboma 2no Masjid, Notboma, Guwahati, Assam 781038",Notboma,4QJ9+5X8,Guwahati,781038,Assam,IN,https://www.google.com/maps/place/Notboma+2no+Masjid/data=!4m7!3m6!1s0x375a594bdc942fcf:0x4635ecf1859f30c2!8m2!3d26.1304063!4d91.7699495!16s%2Fg%2F11c5szrfcv!19sChIJzy-U3EtZWjcRwjCfhfHsNUY?authuser=0&hl=en&rclk=1,"26.130406299999997,91.7699495"
Tarun Nagar Masjid,Mosque,"5Q8F+438 Tarun Nagar Masjid, SATSANG VIHAR, Bhangagarh, Guwahati, Assam 781006","SATSANG VIHAR, Bhangagarh",5Q8F+438,Guwahati,781006,Assam,IN,https://www.google.com/maps/place/Tarun+Nagar+Masjid/data=!4m7!3m6!1s0x375a5973460e5515:0xdbe6d18a6f951b78!8m2!3d26.1652999!4d91.7727!16s%2Fg%2F1pyqvmztr!19sChIJFVUORnNZWjcReBuVb4rR5ts?authuser=0&hl=en&rclk=1,"26.165299899999997,91.7727"
Dighalipukhuri Masjid,Mosque,"5QQ2+WMM Dighalipukhuri Masjid, Dighalipukhuri, Guwahati, Assam 781001",Dighalipukhuri,5QQ2+WMM,Guwahati,781001,Assam,IN,https://www.google.com/maps/place/Dighalipukhuri+Masjid/data=!4m7!3m6!1s0x375a5a2729245e05:0x5df0cf9018d9231a!8m2!3d26.1898389!4d91.7516733!16s%2Fg%2F1pyqh9nz2!19sChIJBV4kKSdaWjcRGiPZGJDP8F0?authuser=0&hl=en&rclk=1,"26.189838899999998,91.7516733"
Katia Dolong Masjid,Mosque,"5M4G+PRC Katia Dolong Masjid, Adabari, Guwahati, Assam 781012",Adabari,5M4G+PRC,Guwahati,781012,Assam,IN,https://www.google.com/maps/place/Katia+Dolong+Masjid/data=!4m7!3m6!1s0x375a5b32e46e3763:0x73aceb846d39b73b!8m2!3d26.1568095!4d91.677031!16s%2Fg%2F125_y92b3!19sChIJYzdu5DJbWjcRO7c5bYTrrHM?authuser=0&hl=en&rclk=1,"26.156809499999998,91.677031"
A K DEV Road Masjid,Mosque,"5P2H+8XC A K DEV Road Masjid, AK Dev Rd, Dhirenpara, Fatasil Ambari, Guwahati, Assam 781001","Dhirenpara, Fatasil Ambari","5P2H+8XC, AK Dev Rd",Guwahati,781001,Assam,IN,https://www.google.com/maps/place/A+K+DEV+Road+Masjid/data=!4m7!3m6!1s0x375a5bbe7342fcfd:0xb7c2e07ce7961c3b!8m2!3d26.1508!4d91.7299!16s%2Fg%2F1pyqnk1sz!19sChIJ_fxCc75bWjcROxyW53zgwrc?authuser=0&hl=en&rclk=1,"26.1508,91.7299"
Ambari Masjid No. 1,Mosque,"4RXJ+7X4 Ambari Masjid No. 1, Bagharbari, Kalitakuchi N.C., Assam 781023",Bagharbari,4RXJ+7X4,Kalitakuchi N.C.,781023,Assam,IN,https://www.google.com/maps/place/Ambari+Masjid+No.+1/data=!4m7!3m6!1s0x375af6201d2f1f0b:0xc03d859afdb3a380!8m2!3d26.1481364!4d91.8324542!16s%2Fg%2F11c4bjmclv!19sChIJCx8vHSD2WjcRgKOz_ZqFPcA?authuser=0&hl=en&rclk=1,"26.1481364,91.8324542"
PIYALI PHUKAN NAGAR JAME MASJID,Mosque,"PIYALI PHUKAN NAGAR JAME MASJID, Piyoli Phukan Nagar, Ganesh Nagar, Noonmati, Guwahati, Assam 781004","Piyoli Phukan Nagar, Ganesh Nagar, Noonmati",,Guwahati,781004,Assam,IN,https://www.google.com/maps/place/PIYALI+PHUKAN+NAGAR+JAME+MASJID/data=!4m7!3m6!1s0x375a59b800c3285f:0xfda7b08a5d168dc2!8m2!3d26.1957246!4d91.7831336!16s%2Fg%2F11c1tjhnvt!19sChIJXyjDALhZWjcRwo0WXYqwp_0?authuser=0&hl=en&rclk=1,"26.1957246,91.7831336"
Salbari Bapujinagar Masjid,Mosque,"5RR3+9PG Salbari Bapujinagar Masjid, Noonmati, Guwahati, Assam 781020",Noonmati,5RR3+9PG,Guwahati,781020,Assam,IN,https://www.google.com/maps/place/Salbari+Bapujinagar+Masjid/data=!4m7!3m6!1s0x375a58466906506d:0xbc4ed1085416c57!8m2!3d26.1909297!4d91.8043165!16s%2Fg%2F11f01tb87m!19sChIJbVAGaUZYWjcRV2xBhRDtxAs?authuser=0&hl=en&rclk=1,"26.190929699999998,91.8043165"
Dakshingaon Shahi Jame masjid,Mosque,"Dakshingaon Shahi Jame masjid, Shahi Jame masjid, DakhinGaon, Dakshingaon, Guwahati, Assam 781034","DakhinGaon, Dakshingaon",Shahi Jame masjid,Guwahati,,Assam,IN,https://www.google.com/maps/place/Dakshingaon+Shahi+Jame+masjid/data=!4m7!3m6!1s0x375a59508bafbb19:0x1e568ff8f230f173!8m2!3d26.1356811!4d91.7601272!16s%2Fg%2F1pyqnprc0!19sChIJGbuvi1BZWjcRc_Ew8viPVh4?authuser=0&hl=en&rclk=1,"26.1356811,91.7601272"
Zoo Road Tiniali New Jame Masjid,Mosque,"5QGG+69X Zoo Road Tiniali New Jame Masjid, bus stop, Zoo Tiniali, Guwahati, Assam 781024","bus stop, Zoo Tiniali",5QGG+69X,Guwahati,781024,Assam,IN,https://www.google.com/maps/place/Zoo+Road+Tiniali+New+Jame+Masjid/data=!4m7!3m6!1s0x375a596806796419:0x649d469997fef30b!8m2!3d26.1756041!4d91.7759819!16s%2Fg%2F11g0g_5p73!19sChIJGWR5BmhZWjcRC_P-l5lGnWQ?authuser=0&hl=en&rclk=1,"26.175604099999997,91.77598189999999"
Milanpur Masjid,Mosque,"5R4M+VWG Milanpur Masjid, Milijuli Path, Satgaon, Guwahati, Birkuchi No.2, Assam 781171",Satgaon,"5R4M+VWG, Milijuli Path","Guwahati, Birkuchi No.2",781171,Assam,IN,https://www.google.com/maps/place/Milanpur+Masjid/data=!4m7!3m6!1s0x375af62650d33511:0xce4dbac98b01727b!8m2!3d26.1571757!4d91.8348308!16s%2Fg%2F11b75dtgdt!19sChIJETXTUCb2WjcRe3IBi8m6Tc4?authuser=0&hl=en&rclk=1,"26.1571757,91.83483079999999"
Maligaon 2.No Masjid,Mosque,"4MRW+6PP Maligaon 2.No Masjid, Gosala-Boragaon Path, Maligaon, Guwahati, Assam 781011",Maligaon,"4MRW+6PP, Gosala-Boragaon Path",Guwahati,781011,Assam,IN,https://www.google.com/maps/place/Maligaon+2.No+Masjid/data=!4m7!3m6!1s0x375a5b69ca9ba3af:0xd4710d648dcde503!8m2!3d26.1405897!4d91.6968322!16s%2Fg%2F1pyqmhx64!19sChIJr6ObymlbWjcRA-XNjWQNcdQ?authuser=0&hl=en&rclk=1,"26.1405897,91.6968322"
Noonmati Jama Masjid,Mosque,"5RJ2+JMH Noonmati Jama Masjid, Noonmati, Guwahati, Assam 781020",Noonmati,5RJ2+JMH,Guwahati,781020,Assam,IN,https://www.google.com/maps/place/Noonmati+Jama+Masjid/data=!4m7!3m6!1s0x375a585068a1ca67:0x66e138e8647021b3!8m2!3d26.1815537!4d91.8017399!16s%2Fg%2F1pyqlpvzh!19sChIJZ8qhaFBYWjcRsyFwZOg44WY?authuser=0&hl=en&rclk=1,"26.1815537,91.8017399"
"Indrapur Masjid, Birubari",Mosque,"5Q48+99W Indrapur Masjid, Birubari, Indrapur, Gauhati Medical College Hospital Road, Guwahati, Assam 781032",Birubari,"5Q48+99W, Indrapur, Gauhati Medical College Hospital Road",Guwahati,781032,Assam,IN,"https://www.google.com/maps/place/Indrapur+Masjid,+Birubari/data=!4m7!3m6!1s0x375a596f23ec92fd:0x8c02fa3f21ef05b1!8m2!3d26.1559915!4d91.7659419!16s%2Fg%2F11d_78djxf!19sChIJ_ZLsI29ZWjcRsQXvIT_6Aow?authuser=0&hl=en&rclk=1","26.1559915,91.7659419"
Imdadiya Nagar Masjid,Mosque,"4QJ9+G8P Imdadiya Nagar Masjid, Swagata Path, Imdadia Nagar, Notboma, Guwahati, Assam 781038","Imdadia Nagar, Notboma","4QJ9+G8P, Swagata Path",Guwahati,781038,Assam,IN,https://www.google.com/maps/place/Imdadiya+Nagar+Masjid/data=!4m7!3m6!1s0x375a5915158cadcf:0x825dff4722873e66!8m2!3d26.1313298!4d91.7683361!16s%2Fg%2F11k7dlnh5s!19sChIJz62MFRVZWjcRZj6HIkf_XYI?authuser=0&hl=en&rclk=1,"26.1313298,91.7683361"
Uttar Jyoti Nagar Jama Masjid,Mosque,"5QVP+5MQ Uttar Jyoti Nagar Jama Masjid, Uttar, Jyotinagar, Ganesh Nagar, Noonmati, Guwahati, Assam 781004","Jyotinagar, Ganesh Nagar, Noonmati","5QVP+5MQ, Uttar",Guwahati,781004,Assam,IN,https://www.google.com/maps/place/Uttar+Jyoti+Nagar+Jama+Masjid/data=!4m7!3m6!1s0x375a598397a4c5a1:0x99db30a8ad8fd34f!8m2!3d26.1929642!4d91.7867301!16s%2Fg%2F11f5t_sjs2!19sChIJocWkl4NZWjcRT9OPragw25k?authuser=0&hl=en&rclk=1,"26.1929642,91.7867301"
Islam nagar masjid,Mosque,"Islam nagar masjid, 2no, Mother Teresa Rd, Mathgharia, Guwahati, Assam 781020",Mathgharia,"2no, Mother Teresa Rd",Guwahati,781020,Assam,IN,https://www.google.com/maps/place/Islam+nagar+masjid/data=!4m7!3m6!1s0x375a596cc1e391c7:0x17d6bdaf38c5bc44!8m2!3d26.1790141!4d91.8134501!16s%2Fg%2F11h0g_nwxz!19sChIJx5HjwWxZWjcRRLzFOK-91hc?authuser=0&hl=en&rclk=1,"26.1790141,91.8134501"
Bhetamukh Tiniali Panjegana Masjid (Nayanpara Masjid),Mosque,"6PF4+FV8 Bhetamukh Tiniali Panjegana Masjid (Nayanpara Masjid), Fire training centre, Road, Gauripur, Assam 781030",,"6PF4+FV8 Fire training centre, Road",Gauripur,781030,Assam,IN,https://www.google.com/maps/place/Bhetamukh+Tiniali+Panjegana+Masjid+%28Nayanpara+Masjid%29/data=!4m7!3m6!1s0x375a51242e3bf5f3:0x44cfbfdab30c42f6!8m2!3d26.2222429!4d91.7075486!16s%2Fg%2F11f5tbj3hm!19sChIJ8_U7LiRRWjcR9kIMs9q_z0Q?authuser=0&hl=en&rclk=1,"26.222242899999998,91.7075486"
Barsapa Masjid,Mosque,"4PVQ+WM4 Barsapa Masjid, Barsapara, Guwahati, Assam 781009",Barsapara,4PVQ+WM4,Guwahati,781009,Assam,IN,https://www.google.com/maps/place/Barsapa+Masjid/data=!4m7!3m6!1s0x375a5bebdfe9e477:0xceaca47b21d6d54e!8m2!3d26.144766!4d91.7392064!16s%2Fg%2F11dxqjw759!19sChIJd-Tp3-tbWjcRTtXWIXukrM4?authuser=0&hl=en&rclk=1,"26.144765999999997,91.7392064"
Jama Masjid,Mosque,"5Q6W+JHQ Jama Masjid, Krishnanagar, Guwahati, Assam 781005",Krishnanagar,5Q6W+JHQ,Guwahati,781005,Assam,IN,https://www.google.com/maps/place/Jama+Masjid/data=!4m7!3m6!1s0x375a58fcbf8993ed:0xbe251e0caa40b104!8m2!3d26.1616!4d91.7965!16s%2Fg%2F1pyql1rk9!19sChIJ7ZOJv_xYWjcRBLFAqgweJb4?authuser=0&hl=en&rclk=1,"26.1616,91.7965"
Ganesh Nagar Masjid,Mosque,"5QRP+X6W Ganesh Nagar Masjid, Jyoti Path, Jyotinagar, Ganesh Nagar, Noonmati, Guwahati, Assam 781021","Jyotinagar, Ganesh Nagar, Noonmati","5QRP+X6W, Jyoti Path",Guwahati,781021,Assam,IN,https://www.google.com/maps/place/Ganesh+Nagar+Masjid/data=!4m7!3m6!1s0x375a59b69dd59971:0x93b5ca382bbf0fc4!8m2!3d26.1944375!4d91.7888125!16s%2Fg%2F11g3_2ddw5!19sChIJcZnVnbZZWjcRxA-_KzjKtZM?authuser=0&hl=en&rclk=1,"26.1944375,91.78881249999999"
Bhetamukh 3 No Jame Masjid (Masjid E Noor),Mosque,"6PF7+HRX Bhetamukh 3 No Jame Masjid (Masjid E Noor), Unnamed Road, Jalah, Assam 781030",,"6PF7+HRX, Unnamed Road",Jalah,781030,Assam,IN,https://www.google.com/maps/place/Bhetamukh+3+No+Jame+Masjid+%28Masjid+E+Noor%29/data=!4m7!3m6!1s0x375a51ac6fbe61b3:0x2cf7a2148097eef5!8m2!3d26.2239961!4d91.7145948!16s%2Fg%2F11f5p_q_2b!19sChIJs2G-b6xRWjcR9e6XgBSi9yw?authuser=0&hl=en&rclk=1,"26.223996099999997,91.7145948"
Mosque,Mosque,"5QFH+C84 Mosque, Ambikagirinagar, Guwahati, Assam 781005",Ambikagirinagar,5QFH+C84,Guwahati,781005,Assam,IN,https://www.google.com/maps/place/Mosque/data=!4m7!3m6!1s0x375a59a74b11f479:0xfe2f9a16e9ecfb9e!8m2!3d26.1735017!4d91.7783218!16s%2Fg%2F1td1stfv!19sChIJefQRS6dZWjcRnvvs6RaaL_4?authuser=0&hl=en&rclk=1,"26.1735017,91.7783218"
Rahmania Masjid,Mosque,"5P9X+233 Rahmania Masjid, Gopinath Nagar Rd, Bishnu Rabha Nagar, Ulubari, Guwahati, Assam 781008","Bishnu Rabha Nagar, Ulubari","5P9X+233, Gopinath Nagar Rd",Guwahati,781008,Assam,IN,https://www.google.com/maps/place/Rahmania+Masjid/data=!4m7!3m6!1s0x375a5b8850d2e01d:0x76531e7d241070fb!8m2!3d26.1675206!4d91.747684!16s%2Fg%2F11h07f2y1h!19sChIJHeDSUIhbWjcR-3AQJH0eU3Y?authuser=0&hl=en&rclk=1,"26.1675206,91.74768399999999"
Noornagar Jama Masjid,Mosque,"Noornagar Jama Masjid, Noonmati, Guwahati, Assam 781020",Noonmati,,Guwahati,781020,Assam,IN,https://www.google.com/maps/place/Noornagar+Jama+Masjid/data=!4m7!3m6!1s0x375a584166523649:0xe6f8439f5a1cd198!8m2!3d26.1897782!4d91.8086042!16s%2Fg%2F11gbxcxg3x!19sChIJSTZSZkFYWjcRmNEcWp9D-OY?authuser=0&hl=en&rclk=1,"26.1897782,91.80860419999999"
North Jalukbari New Jama Masjid,Mosque,"North Jalukbari New Jama Masjid, 20, Maligaon, Guwahati, Assam 781013",Maligaon,20,Guwahati,781013,Assam,IN,https://www.google.com/maps/place/North+Jalukbari+New+Jama+Masjid/data=!4m7!3m6!1s0x375a5bd7d244b715:0xd12cb2ff62e2355!8m2!3d26.1529722!4d91.678366!16s%2Fg%2F11h3kxhclj!19sChIJFbdE0tdbWjcRVSMu9i_LEg0?authuser=0&hl=en&rclk=1,"26.152972199999997,91.678366"
Notboma Jama Masjid,Mosque,"4QJC+FH6 Notboma Jama Masjid, Notboma, Guwahati, Assam 781038",Notboma,4QJC+FH6,Guwahati,781038,Assam,IN,https://www.google.com/maps/place/Notboma+Jama+Masjid/data=!4m7!3m6!1s0x375a598712396d99:0x4065046c0ebac0f5!8m2!3d26.1311744!4d91.7714027!16s%2Fg%2F11r63fknsp!19sChIJmW05EodZWjcR9cC6DmwEZUA?authuser=0&hl=en&rclk=1,"26.1311744,91.7714027"
Boragaon Masjid,Mosque,"4MJW+53V Boragaon Masjid, Samannoy path, Gosala Road, Boragaon, Guwahati, Assam 781011",Boragaon,"4MJW+53V, Samannoy path, Gosala Road",Guwahati,781011,Assam,IN,https://www.google.com/maps/place/Boragaon+Masjid/data=!4m7!3m6!1s0x375a5b9311b635e9:0xe2f46be11ee6a238!8m2!3d26.1304871!4d91.6951811!16s%2Fg%2F11j0hw656s!19sChIJ6TW2EZNbWjcROKLmHuFr9OI?authuser=0&hl=en&rclk=1,"26.1304871,91.6951811"
Bhaskar Nagar Jame Masjid,Mosque,"5QGJ+V5C Bhaskar Nagar Jame Masjid, Bhaskar Nagar, Guwahati, Assam 781003",Bhaskar Nagar,5QGJ+V5C,Guwahati,781003,Assam,IN,https://www.google.com/maps/place/Bhaskar+Nagar+Jame+Masjid/data=!4m7!3m6!1s0x375a598ad3c19021:0x16603bc645dfa136!8m2!3d26.1771924!4d91.7803923!16s%2Fg%2F11j2c9nb2d!19sChIJIZDB04pZWjcRNqHfRcY7YBY?authuser=0&hl=en&rclk=1,"26.1771924,91.7803923"
Salbari Jama Masjid,Mosque,"5RQ2+PWC Salbari Jama Masjid, Noonmati, Guwahati, Assam 781020",Noonmati,5RQ2+PWC,Guwahati,781020,Assam,IN,https://www.google.com/maps/place/Salbari+Jama+Masjid/data=!4m7!3m6!1s0x375a584f571c6cdb:0xca942f401f74c10c!8m2!3d26.1893231!4d91.8022638!16s%2Fg%2F11gg718zt1!19sChIJ22wcV09YWjcRDMF0H0AvlMo?authuser=0&hl=en&rclk=1,"26.1893231,91.80226379999999"
Masjid guwahati,Mosque,"5P9Q+6HX Masjid guwahati, Bishnupur, Fatasil Ambari, Guwahati, Assam 781001","Bishnupur, Fatasil Ambari",5P9Q+6HX,Guwahati,781001,Assam,IN,https://www.google.com/maps/place/Masjid+guwahati/data=!4m7!3m6!1s0x375a5b805c5a830b:0xc7265ab245f4acbc!8m2!3d26.1681208!4d91.7389846!16s%2Fg%2F11j3vxsgtj!19sChIJC4NaXIBbWjcRvKz0RbJaJsc?authuser=0&hl=en&rclk=1,"26.1681208,91.7389846"
Dakhin Santi Nagar Jame Masjid,Mosque,"5R99+M5H Dakhin Santi Nagar Jame Masjid, Pathar Quarry, Guwahati, Assam 781171",Pathar Quarry,5R99+M5H,Guwahati,781171,Assam,IN,https://www.google.com/maps/place/Dakhin+Santi+Nagar+Jame+Masjid/data=!4m7!3m6!1s0x375a59cfba9efd39:0xfbb469615a9e0005!8m2!3d26.1697557!4d91.8169264!16s%2Fg%2F11sqf8g7xl!19sChIJOf2eus9ZWjcRBQCeWmFptPs?authuser=0&hl=en&rclk=1,"26.1697557,91.8169264"
"Lachit Nagar Masjid , Kanaklata Path",Mosque,"house no.9, Lachit Nagar Masjid , Kanaklata Path, Sandor Medicaids Pvt. Ltd, Bye Lane, 12, Lachit Nagar Main Rd, Lachit Nagar, Guwahati, Assam 781003",Lachit Nagar,"house no.9, Sandor Medicaids Pvt. Ltd, Bye Lane, 12, Lachit Nagar Main Rd",Guwahati,781003,Assam,IN,"https://www.google.com/maps/place/Lachit+Nagar+Masjid+,+Kanaklata+Path/data=!4m7!3m6!1s0x375a5939c6608ce7:0xe52883f4882a4943!8m2!3d26.1704216!4d91.7683583!16s%2Fg%2F11fklh48hy!19sChIJ54xgxjlZWjcRQ0kqiPSDKOU?authuser=0&hl=en&rclk=1","26.170421599999997,91.7683583"
Rangmahal Jame Masjid ( mchjid e umr' phaar'uk r'aa. ),Mosque,"6PGG+24H Rangmahal Jame Masjid ( mchjid e umr' phaar'uk r'aa. ), Unnamed Road, Rudreswar, Rangmahal, Assam 781030",,"6PGG+24H, Unnamed Road","Rudreswar, Rangmahal",781030,Assam,IN,https://www.google.com/maps/place/Rangmahal+Jame+Masjid+%28+%E0%A6%AE%E0%A6%9B%E0%A6%9C%E0%A6%BF%E0%A6%A6+%E0%A6%8F+%E0%A6%89%E0%A6%AE%E0%A7%B0+%E0%A6%AB%E0%A6%BE%E0%A7%B0%E0%A7%81%E0%A6%95+%E0%A7%B0%E0%A6%BE.+%29/data=!4m7!3m6!1s0x375a513701c5697b:0xe37a7e89e6538372!8m2!3d26.2250602!4d91.7253554!16s%2Fg%2F11gr5kj877!19sChIJe2nFATdRWjcRcoNT5ol-euM?authuser=0&hl=en&rclk=1,"26.225060199999998,91.7253554"
NIZARAPAR Jame Masjid,Mosque,"5RR5+VXQ NIZARAPAR Jame Masjid, Noonmati, Guwahati, Assam 781020",Noonmati,5RR5+VXQ,Guwahati,781020,Assam,IN,https://www.google.com/maps/place/NIZARAPAR+Jame+Masjid/data=!4m7!3m6!1s0x375a59209a5142d9:0x6972f45cd15dc331!8m2!3d26.192235!4d91.809947!16s%2Fg%2F11q3rj7_w9!19sChIJ2UJRmiBZWjcRMcNd0Vz0cmk?authuser=0&hl=en&rclk=1,"26.192235,91.809947"
Islampur Boro Masjid,Mosque,"Islampur Boro Masjid, 22, Hazi Musafir Khana Rd, Gandhi Basti, Sarania Hills, Guwahati, Assam 781007","Gandhi Basti, Sarania Hills","22, Hazi Musafir Khana Rd",Guwahati,781007,Assam,IN,https://www.google.com/maps/place/Islampur+Boro+Masjid/data=!4m7!3m6!1s0x375a59a57c66ded1:0xfcb13565fc2c4ae4!8m2!3d26.1798525!4d91.7613954!16s%2Fg%2F11fj45pb7s!19sChIJ0d5mfKVZWjcR5Eos_GU1sfw?authuser=0&hl=en&rclk=1,"26.1798525,91.7613954"
3 no masjid,Mosque,"4PWF+GJ6 3 no masjid, Jyoti Path, Dhirenpara, Guwahati, Assam 781009",Dhirenpara,"4PWF+GJ6, Jyoti Path",Guwahati,781009,Assam,IN,https://www.google.com/maps/place/3+no+masjid/data=!4m7!3m6!1s0x375a5b4b32b5bd55:0x7699457dafdf1a0a!8m2!3d26.1462871!4d91.7240113!16s%2Fg%2F11lfzzprxn!19sChIJVb21MktbWjcRChrfr31FmXY?authuser=0&hl=en&rclk=1,"26.1462871,91.7240113"
Sila No.1 Burha Jama Masjid,Mosque,"6MHW+7XQ Sila No.1 Burha Jama Masjid, Sila, North Guwahati, Kali Pahar, Assam 781030",North Guwahati,"6MHW+7XQ, Sila",Kali Pahar,781030,Assam,IN,https://www.google.com/maps/place/Sila+No.1+Burha+Jama+Masjid/data=!4m7!3m6!1s0x375a51ca4a8e0687:0xb5a2e0020993b65!8m2!3d26.228207!4d91.697492!16s%2Fg%2F11ghzbrw0x!19sChIJhwaOSspRWjcRZTuZIAAuWgs?authuser=0&hl=en&rclk=1,"26.228206999999998,91.697492"
Khanqah e Hasni Huzoori Masjid,Mosque,"5QG6+3QF Khanqah e Hasni Huzoori Masjid, S Sarania Rd, South Sarania, Sarania Hills, Guwahati, Assam 781007","South Sarania, Sarania Hills","5QG6+3QF, S Sarania Rd",Guwahati,781007,Assam,IN,https://www.google.com/maps/place/Khanqah+e+Hasni+Huzoori+Masjid/data=!4m7!3m6!1s0x375a59681142ee6f:0x769bf153df47ec71!8m2!3d26.1751957!4d91.7619334!16s%2Fg%2F11mwwm_cr6!19sChIJb-5CEWhZWjcRcexH31Pxm3Y?authuser=0&hl=en&rclk=1,"26.1751957,91.76193339999999"
Milan Nagar Jame Masjid,Mosque,"4PHF+CGC Milan Nagar Jame Masjid, Natun Basti, Dhirenpara, Guwahati, Assam 781009","Natun Basti, Dhirenpara",4PHF+CGC,Guwahati,781009,Assam,IN,https://www.google.com/maps/place/Milan+Nagar+Jame+Masjid/data=!4m7!3m6!1s0x375a5b6342a631dd:0x7dd9105ad44c433a!8m2!3d26.1285523!4d91.723771!16s%2Fg%2F11qphcg9hg!19sChIJ3TGmQmNbWjcROkNM1FoQ2X0?authuser=0&hl=en&rclk=1,"26.1285523,91.723771"
Miyajan Nagar Jame Masjid,Mosque,"4QMF+J84 Miyajan Nagar Jame Masjid, Notboma, Guwahati, Assam 781038",Notboma,4QMF+J84,Guwahati,781038,Assam,IN,https://www.google.com/maps/place/Miyajan+Nagar+Jame+Masjid/data=!4m7!3m6!1s0x375a5970965ac521:0x4ecac44b0ba4b080!8m2!3d26.1340103!4d91.7731128!16s%2Fg%2F11swy8874_!19sChIJIcValnBZWjcRgLCkC0vEyk4?authuser=0&hl=en&rclk=1,"26.1340103,91.77311279999999"
Machkhowa Masjid No.3 (Tina Masjid),Mosque,"5PGM+PG5 Machkhowa Masjid No.3 (Tina Masjid), TR Phookan Rd, Machkhowa, Guwahati, Assam 781009",Machkhowa,"5PGM+PG5, TR Phookan Rd",Guwahati,781009,Assam,IN,https://www.google.com/maps/place/Machkhowa+Masjid+No.3+%28Tina+Masjid%29/data=!4m7!3m6!1s0x375a5b517217c43f:0x11eb6b4db4fb8bb0!8m2!3d26.1767724!4d91.7338614!16s%2Fg%2F11fmvkpthl!19sChIJP8QXclFbWjcRsIv7tE1r6xE?authuser=0&hl=en&rclk=1,"26.176772399999997,91.7338614"
Santipur Jame Masjid,Mosque,"5P9G+8H6 Santipur Jame Masjid, Santipur, Guwahati, Assam 781009",Santipur,5P9G+8H6,Guwahati,781009,Assam,IN,https://www.google.com/maps/place/Santipur+Jame+Masjid/data=!4m7!3m6!1s0x375a5bf1733c4adb:0xb59e95a7d010b036!8m2!3d26.1684008!4d91.7259112!16s%2Fg%2F11v11ggzd5!19sChIJ20o8c_FbWjcRNrAQ0KeVnrU?authuser=0&hl=en&rclk=1,"26.1684008,91.7259112"
"Masjid e Noor, No. 4 Silabori Jama Masjid",Mosque,"6MJW+8H6 Masjid e Noor, No. 4 Silabori Jama Masjid, Silabori Rd, North Guwahati, Changsari, Kali Pahar, Assam 781101",North Guwahati,"6MJW+8H6, Silabori Rd","Changsari, Kali Pahar",781101,Assam,IN,"https://www.google.com/maps/place/Masjid+e+Noor,+No.+4+Silabori+Jama+Masjid/data=!4m7!3m6!1s0x375a516541b169ab:0xd56910d97a83fc5!8m2!3d26.230783!4d91.696393!16s%2Fg%2F11m7rp9grp!19sChIJq2mxQWVRWjcRxT-olw2RVg0?authuser=0&hl=en&rclk=1","26.230783,91.696393"
Shantipur Hill side Masjid,Mosque,"5P8C+4Q2 Shantipur Hill side Masjid, Fatasil Hills, Guwahati, Assam 781009",Fatasil Hills,5P8C+4Q2,Guwahati,781009,Assam,IN,https://www.google.com/maps/place/Shantipur+Hill+side+Masjid/data=!4m7!3m6!1s0x375a5b98044812fb:0x987bdf08ba4d3a06!8m2!3d26.1652539!4d91.721899!16s%2Fg%2F11mq30lf5m!19sChIJ-xJIBJhbWjcRBjpNugjfe5g?authuser=0&hl=en&rclk=1,"26.1652539,91.721899"
Pub Bhaskar Nagar Masjid,Mosque,"5QHH+JHQ Pub Bhaskar Nagar Masjid, Bhaskar Nagar, Guwahati, Assam 781003",Bhaskar Nagar,5QHH+JHQ,Guwahati,781003,Assam,IN,https://www.google.com/maps/place/Pub+Bhaskar+Nagar+Masjid/data=!4m7!3m6!1s0x375a59f6a2e1061f:0x58291b9d2391d295!8m2!3d26.1790902!4d91.7789848!16s%2Fg%2F11k3540tmt!19sChIJHwbhovZZWjcRldKRI50bKVg?authuser=0&hl=en&rclk=1,"26.179090199999997,91.77898479999999"
Bhaskar Nagar Masjid no.2,Mosque,"5QHH+7H2 Bhaskar Nagar Masjid no.2, Bhaskar Nagar, Guwahati, Assam 781003",Bhaskar Nagar,5QHH+7H2,Guwahati,781003,Assam,IN,https://www.google.com/maps/place/Bhaskar+Nagar+Masjid+no.2/data=!4m7!3m6!1s0x375a59435e1db31f:0xb3d6625f3d77db4b!8m2!3d26.1781341!4d91.7788819!16s%2Fg%2F11h8fh9svr!19sChIJH7MdXkNZWjcRS9t3PV9i1rM?authuser=0&hl=en&rclk=1,"26.178134099999998,91.7788819"
Nalpara Nagar Masjid,Mosque,"4PG7+FRX Nalpara Nagar Masjid, Natun Basti Rd, Musiram, Kashari Path, Nalpara, Guwahati, Assam 781025",Nalpara,"4PG7+FRX, Natun Basti Rd, Musiram, Kashari Path",Guwahati,781025,Assam,IN,https://www.google.com/maps/place/Nalpara+Nagar+Masjid/data=!4m7!3m6!1s0x375a5b7179b9a4b3:0x6435bce621d39b4b!8m2!3d26.1262272!4d91.7146139!16s%2Fg%2F11s_w13qn9!19sChIJs6S5eXFbWjcRS5vTIea8NWQ?authuser=0&hl=en&rclk=1,"26.1262272,91.71461389999999"
Lichu bagan jama masjid,Mosque,"5R33+MC7 Lichu bagan jama masjid, Milan Nagar, Borbari, Guwahati, Assam 781036","Milan Nagar, Borbari",5R33+MC7,Guwahati,781036,Assam,IN,https://www.google.com/maps/place/Lichu+bagan+jama+masjid/data=!4m7!3m6!1s0x375a59cdef9515f1:0xf3534740afe6ba7a!8m2!3d26.154152!4d91.8035525!16s%2Fg%2F11stds7bzb!19sChIJ8RWV781ZWjcRerrmr0BHU_M?authuser=0&hl=en&rclk=1,"26.154152,91.8035525"
Guwahati Markaz Masjid,Mosque,"Guwahati Markaz Masjid, Baba Loknath Complex, Lakhtokia, Fancy Bazaar, Guwahati, Assam 781001","Lakhtokia, Fancy Bazaar",Baba Loknath Complex,Guwahati,781001,Assam,IN,https://www.google.com/maps/place/Guwahati+Markaz+Masjid/data=!4m7!3m6!1s0x375a5b3085969005:0x88760e7fd17f90dc!8m2!3d26.1816744!4d91.7417749!16s%2Fg%2F11h582cr6x!19sChIJBZCWhTBbWjcR3JB_0X8Odog?authuser=0&hl=en&rclk=1,"26.1816744,91.7417749"
Qasimpur Masjid.,Mosque,"5QVG+R8G Qasimpur Masjid., Ramchai Hills, Krishna Nagar, Chandmari, Guwahati, Assam 781004","Ramchai Hills, Krishna Nagar, Chandmari",5QVG+R8G,Guwahati,781004,Assam,IN,https://www.google.com/maps/place/Qasimpur+Masjid./data=!4m7!3m6!1s0x375a59c77d17c465:0xe89d6c7797aa65d3!8m2!3d26.1945659!4d91.7758191!16s%2Fg%2F11js5yhmzd!19sChIJZcQXfcdZWjcR02Wql3dsneg?authuser=0&hl=en&rclk=1,"26.194565899999997,91.77581909999999"
Ganesh Nagar Jame Masjid.Guwahati 781021,Mosque,"Ganesh Nagar Jame Masjid.Guwahati 781021, Jame Masjid, Jyotinagar, Ganesh Nagar, Noonmati, Guwahati, Assam 781021","Jyotinagar, Ganesh Nagar, Noonmati",Jame Masjid,Guwahati,781021,Assam,IN,https://www.google.com/maps/place/Ganesh+Nagar+Jame+Masjid.Guwahati+781021/data=!4m7!3m6!1s0x375a598a93744be7:0x6e78a82286d68e20!8m2!3d26.1950198!4d91.7879137!16s%2Fg%2F11gmxt8gx9!19sChIJ50t0k4pZWjcRII7WhiKoeG4?authuser=0&hl=en&rclk=1,"26.195019799999997,91.78791369999999"
Lalmati Jama Masjid,Mosque,"5QH6+6RX Lalmati Jama Masjid, Lalmati Rd, South Sarania, Gandhi Basti, Sarania Hills, Guwahati, Assam 781003","South Sarania, Gandhi Basti, Sarania Hills","5QH6+6RX, Lalmati Rd",Guwahati,781003,Assam,IN,https://www.google.com/maps/place/Lalmati+Jama+Masjid/data=!4m7!3m6!1s0x375a59e94bc5d6a3:0xdffce4fbe711b320!8m2!3d26.1781044!4d91.7621134!16s%2Fg%2F11tcqwfqmk!19sChIJo9bFS-lZWjcRILMR5_vk_N8?authuser=0&hl=en&rclk=1,"26.1781044,91.76211339999999"
F.A. Ahmed Nagar jama masjid,Mosque,"5RF5+3J2 F.A. Ahmed Nagar jama masjid, Mathgharia, Guwahati, Assam 781021",Mathgharia,5RF5+3J2,Guwahati,781021,Assam,IN,https://www.google.com/maps/place/F.A.+Ahmed+Nagar+jama+masjid/data=!4m7!3m6!1s0x375a59411a88800b:0x355fcc1baa8b3831!8m2!3d26.1726318!4d91.8090122!16s%2Fg%2F11rr0_ns9x!19sChIJC4CIGkFZWjcRMTiLqhvMXzU?authuser=0&hl=en&rclk=1,"26.172631799999998,91.8090122"
Bhutnath bagan masjid,Mosque,"5P9F+QM5 Bhutnath bagan masjid, Bhutnath, Guwahati, Assam 781009",Bhutnath,5P9F+QM5,Guwahati,781009,Assam,IN,https://www.google.com/maps/place/Bhutnath+bagan+masjid/data=!4m7!3m6!1s0x375a5bcab232f17b:0x3148b5b048deda9!8m2!3d26.1693805!4d91.7242387!16s%2Fg%2F11s4zf5jkw!19sChIJe_EysspbWjcRqe2NBFuLFAM?authuser=0&hl=en&rclk=1,"26.1693805,91.7242387"
Islampur Masjid Road FF Shop,Mosque,"5QJ6+R64 Islampur Masjid Road FF Shop, Gandhi Basti Rd, Gandhi Basti, Sarania Hills, Guwahati, Assam 781003","Gandhi Basti, Sarania Hills","5QJ6+R64, Gandhi Basti Rd",Guwahati,781003,Assam,IN,https://www.google.com/maps/place/Islampur+Masjid+Road+FF+Shop/data=!4m7!3m6!1s0x375a59c3a0477ddd:0x7339f6644025cbe7!8m2!3d26.1820204!4d91.7605714!16s%2Fg%2F11fj1r2nyy!19sChIJ3X1HoMNZWjcR58slQGT2OXM?authuser=0&hl=en&rclk=1,"26.1820204,91.76057139999999"
Jatkapon Purathon jama Masjid,Mosque,"5QG3+RRG Jatkapon Purathon jama Masjid, Assam Trunk Rd, Opposite Flyover Bridge, Manipuri Rajbari, Ulubari, Guwahati, Assam 781008","Opposite Flyover Bridge, Manipuri Rajbari, Ulubari","5QG3+RRG, Assam Trunk Rd",Guwahati,781008,Assam,IN,https://www.google.com/maps/place/Jatkapon+Purathon+jama+Masjid/data=!4m7!3m6!1s0x375a59de7605168b:0xd0f4864563b519fb!8m2!3d26.1770684!4d91.7545933!16s%2Fg%2F11h2j6cjxs!19sChIJixYFdt5ZWjcR-xm1Y0WG9NA?authuser=0&hl=en&rclk=1,"26.1770684,91.7545933"
BORTHAKUR MILL MOSQUE,Mosque,"5QC5+9PP BORTHAKUR MILL MOSQUE, Barthakur Mill Rd, South Sarania, Ulubari, Guwahati, Assam 781007","South Sarania, Ulubari","5QC5+9PP, Barthakur Mill Rd",Guwahati,781007,Assam,IN,https://www.google.com/maps/place/BORTHAKUR+MILL+MOSQUE/data=!4m7!3m6!1s0x375a593b004e0e2b:0xeffaca65f9461d43!8m2!3d26.1709595!4d91.7593202!16s%2Fg%2F11sx0f4snt!19sChIJKw5OADtZWjcRQx1G-WXK-u8?authuser=0&hl=en&rclk=1,"26.1709595,91.75932019999999"
Islampur Idd-Gah,Mosque,"5QJ6+327 Islampur Idd-Gah, Gandhi Basti, Sarania Hills, Guwahati, Assam 781003","Gandhi Basti, Sarania Hills",5QJ6+327,Guwahati,781003,Assam,IN,https://www.google.com/maps/place/Islampur+Idd-Gah/data=!4m7!3m6!1s0x375a598440955555:0x85e975b5a934739b!8m2!3d26.1801614!4d91.7600427!16s%2Fg%2F11tgg7mhfp!19sChIJVVWVQIRZWjcRm3M0qbV16YU?authuser=0&hl=en&rclk=1,"26.1801614,91.7600427"
Jama Masjid,Mosque,"5MVC+CC7 Jama Masjid, DC Office Road, Amingaon, Guwahati, Namati Jalah, Assam 781039",Amingaon,"5MVC+CC7, DC Office Road","Guwahati, Namati Jalah",781039,Assam,IN,https://www.google.com/maps/place/Jama+Masjid/data=!4m7!3m6!1s0x375a45d3ac05fb07:0x9a8c30a6de85af16!8m2!3d26.1935484!4d91.6710437!16s%2Fg%2F11svn0hvd4!19sChIJB_sFrNNFWjcRFq-F3qYwjJo?authuser=0&hl=en&rclk=1,"26.193548399999997,91.6710437"
Lokhra rais road jama masjid,Mosque,"4PQQ+746 Lokhra rais road jama masjid, Barsapara, Guwahati, Assam 781034",Barsapara,4PQQ+746,Guwahati,781034,Assam,IN,https://www.google.com/maps/place/Lokhra+rais+road+jama+masjid/data=!4m7!3m6!1s0x375a5bd15e0ee069:0x6814372b9d0175f5!8m2!3d26.1380767!4d91.7380201!16s%2Fg%2F11t59_hwr7!19sChIJaeAOXtFbWjcR9XUBnSs3FGg?authuser=0&hl=en&rclk=1,"26.1380767,91.7380201"
Malipam 1 No Jame Madjid,Mosque,"5PCM+26R Malipam 1 No Jame Madjid, Kumarpara, Guwahati, Assam 781009",Kumarpara,5PCM+26R,Guwahati,,Assam,IN,https://www.google.com/maps/place/Malipam+1+No+Jame+Madjid/data=!4m7!3m6!1s0x375a5b6ddbe3330b:0x890a7623ef3d115b!8m2!3d26.1701107!4d91.7330285!16s%2Fg%2F11v4hwfwhr!19sChIJCzPj221bWjcRWxE97yN2Cok?authuser=0&hl=en&rclk=1,"26.1701107,91.73302849999999"
Ghausia masjid,Mosque,"Ghausia masjid, 27, S Sarania Rd, South Sarania, Sarania Hills, Guwahati, Assam 781007","South Sarania, Sarania Hills","27, S Sarania Rd",Guwahati,781007,Assam,IN,https://www.google.com/maps/place/Ghausia+masjid/data=!4m7!3m6!1s0x375a59145e158c4b:0xd34f88045c4447c9!8m2!3d26.1752242!4d91.7619156!16s%2Fg%2F11pr929jgf!19sChIJS4wVXhRZWjcRyUdEXASIT9M?authuser=0&hl=en&rclk=1,"26.1752242,91.7619156"
Masjid-E-Gousia (Khanka Masjid),Mosque,"5QG6+3QC Masjid-E-Gousia (Khanka Masjid), near Red Chilli, South Sarania, Ulubari, Guwahati, Assam 7","South Sarania, Ulubari","5QG6+3QC, near Red Chilli",Guwahati,7,Assam,IN,https://www.google.com/maps/place/Masjid-E-Gousia+%28Khanka+Masjid%29/data=!4m7!3m6!1s0x375a59bd13d26963:0xf73cd502543aae29!8m2!3d26.1751873!4d91.7618928!16s%2Fg%2F11t9bjvxfh!19sChIJY2nSE71ZWjcRKa46VALVPPc?authuser=0&hl=en&rclk=1,"26.175187299999997,91.7618928"
Pkd jama masjiD,Mosque,"4PQP+M7P Pkd jama masjiD, Subash Pally, Barsapara, Guwahati, Assam 781034","Subash Pally, Barsapara",4PQP+M7P,Guwahati,781034,Assam,IN,https://www.google.com/maps/place/Pkd+jama+masjiD/data=!4m7!3m6!1s0x375a5b6966dac40f:0x8faf0d4a81e9aa52!8m2!3d26.139225!4d91.7357148!16s%2Fg%2F11rn0mttzl!19sChIJD8TaZmlbWjcRUqrpgUoNr48?authuser=0&hl=en&rclk=1,"26.139225,91.7357148"
"North Jyotinagar path, Jama Masjid Path",Housing society,"North Jyotinagar path, Jama Masjid Path, Phanidhar Kalita, House No.13, North Jyotinagar, Ganesh Mandir Path, Bamunimaidan, Guwahati, Assam 21",Bamunimaidan,"Phanidhar Kalita, House No.13, North Jyotinagar, Ganesh Mandir Path",Guwahati,21,Assam,IN,"https://www.google.com/maps/place/North+Jyotinagar+path,+Jama+Masjid+Path/data=!4m7!3m6!1s0x375a59d072bd28eb:0x4a0a83db17442d98!8m2!3d26.1781912!4d91.7708354!16s%2Fg%2F11q3w6wfz4!19sChIJ6yi9ctBZWjcRmC1EF9uDCko?authuser=0&hl=en&rclk=1","26.1781912,91.7708354"
