name,main_category,address,address_ward,address_street,address_city,address_postal_code,address_state,address_country_code,link,coordinates
Colootola Markaz Masjid,Mosque,"Colootola Markaz Masjid, 77, Colootola St, Kolutolla, Kolkata, West Bengal 700073",Kolutolla,"77, Colootola St",Kolkata,700073,West Bengal,IN,https://www.google.com/maps/place/Colootola+Markaz+Masjid/data=!4m7!3m6!1s0x3a0277b1dd9c72b5:0x6748ba1bec106edb!8m2!3d22.5762145!4d88.3566173!16s%2Fg%2F1wbfytz9!19sChIJtXKc3bF3AjoR224Q7Bu6SGc?authuser=0&hl=en&rclk=1,"22.5762145,88.3566173"
Nakhoda Masjid,Mosque,"Nakhoda Masjid, 92, Rabindra Sarani, near Nakhuda masjid, Kolutolla, Kolkata, West Bengal 700073",Kolutolla,"92, Rabindra Sarani, near Nakhuda masjid",Kolkata,700073,West Bengal,IN,https://www.google.com/maps/place/Nakhoda+Masjid/data=!4m7!3m6!1s0x3a0277b1b0c0b993:0x2d436551231224e9!8m2!3d22.5776378!4d88.3560436!16s%2Fm%2F09gf6sx!19sChIJk7nAsLF3AjoR6SQSI1FlQy0?authuser=0&hl=en&rclk=1,"22.577637799999998,88.35604359999999"
Pilkhana Karbala Mosque,Mosque,"H8VQ+PCJ Pilkhana Karbala Mosque, Grand Trunk Rd, Pilkhana, Salkia, Howrah, West Bengal 711101","Pilkhana, Salkia","H8VQ+PCJ, Grand Trunk Rd",Howrah,711101,West Bengal,IN,https://www.google.com/maps/place/Pilkhana+Karbala+Mosque/data=!4m7!3m6!1s0x3a0277e94d2b7d21:0xaef1ce8edc1963cc!8m2!3d22.5943473!4d88.3385127!16s%2Fg%2F11c1mzwv37!19sChIJIX0rTel3AjoRzGMZ3I7O8a4?authuser=0&hl=en&rclk=1,"22.5943473,88.3385127"
Medical College Masjid Kolkata,Mosque,"Medical College Masjid Kolkata, 30-88, College St, Calcutta Medical College, College Square, Kolkata, West Bengal 700073","Calcutta Medical College, College Square","30-88, College St",Kolkata,700073,West Bengal,IN,https://www.google.com/maps/place/Medical+College+Masjid+Kolkata/data=!4m7!3m6!1s0x3a0277acc212fc9b:0x5465e81f41d390d6!8m2!3d22.5718219!4d88.3616923!16s%2Fg%2F11c5_2ngr7!19sChIJm_wSwqx3AjoR1pDTQR_oZVQ?authuser=0&hl=en&rclk=1,"22.5718219,88.3616923"
"Masjid Ahsaan Kareem, Canning Street Masjid",Mosque,"H9G2+VXH Masjid Ahsaan Kareem, Canning Street Masjid, Canning St, Chitpur, Barabazar Market, Kolkata, West Bengal 700001","Chitpur, Barabazar Market","H9G2+VXH, Canning St",Kolkata,700001,West Bengal,IN,"https://www.google.com/maps/place/Masjid+Ahsaan+Kareem,+Canning+Street+Masjid/data=!4m7!3m6!1s0x3a0277ba97f0c367:0xbb83e164fd263b45!8m2!3d22.577193!4d88.3524725!16s%2Fg%2F1pv18xr6c!19sChIJZ8Pwl7p3AjoRRTsm_WThg7s?authuser=0&hl=en&rclk=1","22.577192999999998,88.35247249999999"
Khola Masjid,Mosque,"Khola Masjid, 4/1A, Kali Shome St, Baithakkhana, Kolkata, West Bengal 700009",Baithakkhana,"4/1A, Kali Shome St",Kolkata,700009,West Bengal,IN,https://www.google.com/maps/place/Khola+Masjid/data=!4m7!3m6!1s0x3a02765041523da9:0x3c7de38f0dd5329e!8m2!3d22.574045!4d88.3710589!16s%2Fg%2F1yg6c_s4w!19sChIJqT1SQVB2AjoRnjLVDY_jfTw?authuser=0&hl=en&rclk=1,"22.574044999999998,88.3710589"
Madina Mosque,Mosque,"Madina Mosque, 1/2, Jiban Krishna Ghosh Rd, Belgachia, Kolkata, West Bengal 700037",Belgachia,"1/2, Jiban Krishna Ghosh Rd",Kolkata,700037,West Bengal,IN,https://www.google.com/maps/place/Madina+Mosque/data=!4m7!3m6!1s0x3a02761892238989:0xa97217abadade31d!8m2!3d22.6036982!4d88.383179!16s%2Fg%2F1q6b03hzj!19sChIJiYkjkhh2AjoRHeOtrasXcqk?authuser=0&hl=en&rclk=1,"22.6036982,88.383179"
Charminar Masjid,Mosque,"Charminar Masjid, No: 76, H.M. Bose Road, Mali Panchghara, Kolkata, West Bengal 711101","Gulmohar Railway Quarters, Mali Panchghara","No: 76, H.M. Bose Road","Kolkata, Howrah",711101,West Bengal,IN,https://www.google.com/maps/place/Charminar+Masjid/data=!4m7!3m6!1s0x3a027794da74f813:0x1f50fb506f963a16!8m2!3d22.5867037!4d88.3405675!16s%2Fg%2F1pzsnc94x!19sChIJE_h02pR3AjoRFjqWb1D7UB8?authuser=0&hl=en&rclk=1,"22.586703699999997,88.34056749999999"
Baro Masjid,Mosque,"Baro Masjid, 2/A, Tarachand Dutta St, Bara Bazar, College Street, Kolkata, West Bengal 700073","Bara Bazar, College Street","2/A, Tarachand Dutta St",Kolkata,700073,West Bengal,IN,https://www.google.com/maps/place/Baro+Masjid/data=!4m7!3m6!1s0x3a0277b10a96e96f:0x1fb77d04006d22b4!8m2!3d22.5775822!4d88.3560437!16s%2Fg%2F11fz76bhlc!19sChIJb-mWCrF3AjoRtCJtAAR9tx8?authuser=0&hl=en&rclk=1,"22.5775822,88.3560437"
Jama Masjid msjd,Mosque,"Jama Masjid msjd, 80, Cowies Ghat Rd, Choura Bustee, Shibpur, Howrah, West Bengal 711102","Choura Bustee, Shibpur","80, Cowies Ghat Rd",Howrah,711102,West Bengal,IN,https://www.google.com/maps/place/Jama+Masjid+%D9%85%D8%B3%D8%AC%D8%AF%E2%80%AD/data=!4m7!3m6!1s0x3a0277811344179b:0xc3b1bc9ed0ada9b7!8m2!3d22.567399!4d88.3271162!16s%2Fg%2F11bcf4b1bs!19sChIJmxdEE4F3AjoRt6mt0J68scM?authuser=0&hl=en&rclk=1,"22.567398999999998,88.32711619999999"
JAM-E-MASJID BANKRA,Mosque,"JAM-E-MASJID BANKRA, Bankra, Howrah, West Bengal 711403",Bankra,,Howrah,711403,West Bengal,IN,https://www.google.com/maps/place/JAM-E-MASJID+BANKRA/data=!4m7!3m6!1s0x3a027881a8a73ca3:0x86858a4594cdae7!8m2!3d22.6081779!4d88.2819848!16s%2Fg%2F11b_22mhx4!19sChIJozynqIF4AjoR59pMWaRYaAg?authuser=0&hl=en&rclk=1,"22.608177899999998,88.28198479999999"
Belgachia Jama Mosque,Mosque,"Belgachia Jama Mosque, 83, 83, Belgachia, Kolkata, West Bengal 700037",Belgachia,"83, 83",Kolkata,700037,West Bengal,IN,https://www.google.com/maps/place/Belgachia+Jama+Mosque/data=!4m7!3m6!1s0x3a027618e4b4816f:0x7edaf28f43661622!8m2!3d22.6039177!4d88.3839399!16s%2Fg%2F1q6bl62w7!19sChIJb4G05Bh2AjoRIhZmQ4_y2n4?authuser=0&hl=en&rclk=1,"22.6039177,88.3839399"
Haji Cassim Ariff Mosque (WAKF Estate),Mosque,"Haji Cassim Ariff Mosque (WAKF Estate), 231, Acharya Prafulla Chandra Rd, Khanna, Shyam Bazar, Kolkata, West Bengal 700004","Khanna, Shyam Bazar","231, Acharya Prafulla Chandra Rd",Kolkata,700004,West Bengal,IN,https://www.google.com/maps/place/Haji+Cassim+Ariff+Mosque+%28WAKF+Estate%29/data=!4m7!3m6!1s0x3a02763b1df9b2ef:0x4696ac45ec0400fb!8m2!3d22.5978529!4d88.3749637!16s%2Fg%2F1pzswh0fh!19sChIJ77L5HTt2AjoR-wAE7EWslkY?authuser=0&hl=en&rclk=1,"22.5978529,88.3749637"
Eksara Boro Masjid,Mosque,"J7JR+4C3 Eksara Boro Masjid, Eksara, West Bengal 711114",,J7JR+4C3,Eksara,711114,West Bengal,IN,https://www.google.com/maps/place/Eksara+Boro+Masjid/data=!4m7!3m6!1s0x39f8828c14e8e083:0x78e0428d5f9550fa!8m2!3d22.6302572!4d88.2910352!16s%2Fg%2F11c1r7m1v3!19sChIJg-DoFIyC-DkR-lCVX41C4Hg?authuser=0&hl=en&rclk=1,"22.6302572,88.2910352"
Kachi Masjid,Mosque,"3C, Kachi Masjid, H/9, Dr MN Chatterji Sarani St, Garpar, Raja Bazar, Kolkata, West Bengal 700009","Garpar, Raja Bazar","3C, H/9, Dr MN Chatterji Sarani St",Kolkata,700009,West Bengal,IN,https://www.google.com/maps/place/Kachi+Masjid/data=!4m7!3m6!1s0x3a027644bf2f5ccf:0xc954cb13b96444a3!8m2!3d22.5770867!4d88.3763063!16s%2Fg%2F1q67k7b4n!19sChIJz1wvv0R2AjoRo0RkuRPLVMk?authuser=0&hl=en&rclk=1,"22.5770867,88.3763063"
Madina Masjid,Mosque,"Madina Masjid, 53, 53, Srinath Porel Ln, Tikiapara, Howrah, West Bengal 711101",Tikiapara,"53, 53, Srinath Porel Ln",Howrah,711101,West Bengal,IN,https://www.google.com/maps/place/Madina+Masjid/data=!4m7!3m6!1s0x3a0277f22c149903:0xc3f5bf65fc35c1c8!8m2!3d22.5929808!4d88.3314165!16s%2Fg%2F11g88c79ft!19sChIJA5kULPJ3AjoRyME1_GW_9cM?authuser=0&hl=en&rclk=1,"22.5929808,88.33141649999999"
Chakmir Jumma Masjid,Mosque,"G757+8WQ Chakmir Jumma Masjid, Gauripur, Maheshtala, West Bengal 700142",Gauripur,G757+8WQ,Maheshtala,700142,West Bengal,IN,https://www.google.com/maps/place/Chakmir+Jumma+Masjid/data=!4m7!3m6!1s0x3a027be745a9105d:0x8a72b348b3f7d237!8m2!3d22.5083337!4d88.2648552!16s%2Fg%2F1q6jdkm6g!19sChIJXRCpRed7AjoRN9L3s0izcoo?authuser=0&hl=en&rclk=1,"22.508333699999998,88.2648552"
Gausiya Masjid Kapoor Gali,Mosque,"Gausiya Masjid Kapoor Gali, 42,Nanda Ghosh Road, Kapoor Gali, Salkia, Howrah, West Bengal 711101",Salkia,"42,Nanda Ghosh Road, Kapoor Gali",Howrah,711101,West Bengal,IN,https://www.google.com/maps/place/Gausiya+Masjid+Kapoor+Gali/data=!4m7!3m6!1s0x3a0277edd31147d9:0x162c29046ec2b43e!8m2!3d22.5929404!4d88.3358864!16s%2Fg%2F11c6tsjn4_!19sChIJ2UcR0-13AjoRPrTCbgQpLBY?authuser=0&hl=en&rclk=1,"22.5929404,88.33588639999999"
Mothur-dangi Jumma Masjid,Mosque,"M7FP+52F Mothur-dangi Jumma Masjid, Mothur dangi, Mrigala, Station Pally, Dankuni, West Bengal 712311","Mrigala, Station Pally","M7FP+52F, Mothur dangi",Dankuni,712311,West Bengal,IN,https://www.google.com/maps/place/Mothur-dangi+Jumma+Masjid/data=!4m7!3m6!1s0x39f883a780aae2df:0x26d2b774c0fb2389!8m2!3d22.672942!4d88.2850331!16s%2Fg%2F11g9ng6f7y!19sChIJ3-KqgKeD-DkRiSP7wHS30iY?authuser=0&hl=en&rclk=1,"22.672942,88.28503309999999"
Gaushia Islahi Masjid,Mosque,"Gaushia Islahi Masjid, 92, Craig St, Kamarhati, Agarpara, Panihati, West Bengal 700058","Kamarhati, Agarpara","92, Craig St",Panihati,700058,West Bengal,IN,https://www.google.com/maps/place/Gaushia+Islahi+Masjid/data=!4m7!3m6!1s0x39f89c5c3a1618e7:0x68337308caacb817!8m2!3d22.6793258!4d88.3685001!16s%2Fg%2F11c1p2k_xt!19sChIJ5xgWOlyc-DkRF7isyghzM2g?authuser=0&hl=en&rclk=1,"22.679325799999997,88.36850009999999"
Garpa Masjid msjd,Mosque,"H7R6+5MR Garpa Masjid msjd, Unsani Rd, Kamrangu, garpa musalmanpara, Howrah, West Bengal 711302","Kamrangu, garpa musalmanpara","H7R6+5MR, Unsani Rd",Howrah,711302,West Bengal,IN,https://www.google.com/maps/place/Garpa+Masjid+%D9%85%D8%B3%D8%AC%D8%AF%E2%80%AD/data=!4m7!3m6!1s0x3a0278bec35a9303:0x3d0bad83a800f940!8m2!3d22.5904795!4d88.2616538!16s%2Fg%2F11bw4zs4ln!19sChIJA5Naw754AjoRQPkAqIOtCz0?authuser=0&hl=en&rclk=1,"22.5904795,88.26165379999999"
Noori Masjid,Mosque,"H8RJ+286 Noori Masjid, Jolapara Masjid Ln, Kadam Tala, Howrah, West Bengal 711101",Kadam Tala,"H8RJ+286, Jolapara Masjid Ln",Howrah,711101,West Bengal,IN,https://www.google.com/maps/place/Noori+Masjid/data=!4m7!3m6!1s0x3a0277f3aba08b55:0xfc2ca24f5dd058e8!8m2!3d22.5900325!4d88.3307594!16s%2Fg%2F11c0xs5hzm!19sChIJVYugq_N3AjoR6FjQXU-iLPw?authuser=0&hl=en&rclk=1,"22.5900325,88.33075939999999"
Posta Masjid,Mosque,"Posta Masjid, 10/1C, Kalakar St, Sector I, Jorasanko, Kolkata, West Bengal 700007","Sector I, Jorasanko","10/1C, Kalakar St",Kolkata,700007,West Bengal,IN,https://www.google.com/maps/place/Posta+Masjid/data=!4m7!3m6!1s0x3a0277b86c3833c7:0x812f11980893ea4b!8m2!3d22.5863055!4d88.3515445!16s%2Fg%2F11fylwfstw!19sChIJxzM4bLh3AjoRS-qTCJgRL4E?authuser=0&hl=en&rclk=1,"22.586305499999998,88.3515445"
Bankra Madina Masjid msjd,Mosque,"J73F+RWH Bankra Madina Masjid msjd, Bankra, Howrah, West Bengal 711403",Bankra,J73F+RWH,Howrah,711403,West Bengal,IN,https://www.google.com/maps/place/Bankra+Madina+Masjid+%D9%85%D8%B3%D8%AC%D8%AF%E2%80%AD/data=!4m7!3m6!1s0x3a02789b564dbc7b:0x28341c478bded7f4!8m2!3d22.6045547!4d88.2748491!16s%2Fg%2F11g5_ffw2q!19sChIJe7xNVpt4AjoR9Nfei0ccNCg?authuser=0&hl=en&rclk=1,"22.604554699999998,88.2748491"
Kachi masjid,Mosque,"Kachi masjid, 7, 2nd Ln, Babudanga, Pilkhana, Salkia, Howrah, West Bengal 711101","Babudanga, Pilkhana, Salkia","7, 2nd Ln",Howrah,711101,West Bengal,IN,https://www.google.com/maps/place/Kachi+masjid/data=!4m7!3m6!1s0x3a0277eeba422cc7:0x71e84c8d6f513f24!8m2!3d22.5944572!4d88.3377875!16s%2Fg%2F11ddwzb33n!19sChIJxyxCuu53AjoRJD9Rb41M6HE?authuser=0&hl=en&rclk=1,"22.594457199999997,88.33778749999999"
Agarpara Jama Masjid Kamarhati,Mosque,"3, Agarpara Jama Masjid Kamarhati, 1, Graham Rd, Kamarhati, Ariadaha, Panihati, West Bengal 700058","Kamarhati, Ariadaha","3, 1, Graham Rd",Panihati,700058,West Bengal,IN,https://www.google.com/maps/place/Agarpara+Jama+Masjid+Kamarhati/data=!4m7!3m6!1s0x39f89c4355d1754b:0x2310ce6c3c38de8c!8m2!3d22.677446!4d88.3726847!16s%2Fg%2F11hblpqphq!19sChIJS3XRVUOc-DkRjN44PGzOECM?authuser=0&hl=en&rclk=1,"22.677446,88.3726847"
Malipara Masjid,Mosque,"Malipara Masjid, 48/1, S Buxarah Ln, Shibpur, Howrah, West Bengal 711109",Shibpur,"48/1, S Buxarah Ln",Howrah,711109,West Bengal,IN,https://www.google.com/maps/place/Malipara+Masjid/data=!4m7!3m6!1s0x3a027855b047224d:0x84b8c57a32d2e1d0!8m2!3d22.5668994!4d88.2869789!16s%2Fg%2F11cs60cz0z!19sChIJTSJHsFV4AjoR0OHSMnrFuIQ?authuser=0&hl=en&rclk=1,"22.5668994,88.2869789"
"Munshidanga Sardar Para jame Masjid,",Mosque,"J729+9VH Munshidanga Sardar Para jame Masjid,, Unnamed Road, Bankra, Howrah, Nibra, West Bengal 711403",Bankra,"J729+9VH, Unnamed Road","Howrah, Nibra",711403,West Bengal,IN,"https://www.google.com/maps/place/Munshidanga+Sardar+Para+jame+Masjid,/data=!4m7!3m6!1s0x3a0278999aece777:0x33b96bcb4cadf411!8m2!3d22.6009324!4d88.2697397!16s%2Fg%2F11c1wwwtdw!19sChIJd-fsmpl4AjoREfStTMtruTM?authuser=0&hl=en&rclk=1","22.600932399999998,88.2697397"
Abdul Kareem Masjid,Mosque,"H9PV+97H Abdul Kareem Masjid, Bagmari Lane, Ghose Bagan, Kolkata, West Bengal 700054",Ghose Bagan,"H9PV+97H, Bagmari Lane",Kolkata,700054,West Bengal,IN,https://www.google.com/maps/place/Abdul+Kareem+Masjid/data=!4m7!3m6!1s0x3a02767292dc595d:0xdc398dca17c51964!8m2!3d22.585939!4d88.3932195!16s%2Fg%2F1q67jd315!19sChIJXVncknJ2AjoRZBnFF8qNOdw?authuser=0&hl=en&rclk=1,"22.585939,88.3932195"
Chasipara Majar,Mosque,"Chasipara Majar, 455, Bipin Ganguly Rd, Sahid Khudiram Bose Sarani, Lal Garh Colony, South Dumdum, West Bengal 700074","Sahid Khudiram Bose Sarani, Lal Garh Colony","455, Bipin Ganguly Rd",South Dumdum,700074,West Bengal,IN,https://www.google.com/maps/place/Chasipara+Majar/data=!4m7!3m6!1s0x39f89dff1ac647e3:0x17b8dcfb49d22b6e!8m2!3d22.6142539!4d88.3985071!16s%2Fg%2F11c5_k9k58!19sChIJ40fGGv-d-DkRbivSSfvcuBc?authuser=0&hl=en&rclk=1,"22.614253899999998,88.39850709999999"
Noorani Masjid,Mosque,"Noorani Masjid, Anwar Bagan, 700058, Kamarhati, Kolkata","Rojan Bagan, Kamarhati","Anwar Bagan, 700058",Kolkata,,West Bengal,IN,https://www.google.com/maps/place/Noorani+Masjid/data=!4m7!3m6!1s0x39f89c5a4c02a0ed:0x2152282b81572a68!8m2!3d22.6737944!4d88.3692233!16s%2Fg%2F11g6vjnjdm!19sChIJ7aACTFqc-DkRaCpXgSsoUiE?authuser=0&hl=en&rclk=1,"22.6737944,88.3692233"
Salap JUMMA Masjid,Mosque,"J786+86W Salap JUMMA Masjid, Howrah - Munshirhat - Amta Rd, Paikandashi, Howrah, West Bengal 711409",Paikandashi,"J786+86W, Howrah - Munshirhat - Amta Rd",Howrah,711409,West Bengal,IN,https://www.google.com/maps/place/Salap+JUMMA+Masjid/data=!4m7!3m6!1s0x39f8820957028805:0x7ba6a67b485be289!8m2!3d22.6158536!4d88.2605892!16s%2Fg%2F11f094_j5c!19sChIJBYgCVwmC-DkRieJbSHumpns?authuser=0&hl=en&rclk=1,"22.615853599999998,88.2605892"
baaNkrraa minaa msjid,Mosque,"J73G+PW4 baaNkrraa minaa msjid, Misrapara Rd, Bankra, Howrah, West Bengal 711403",Bankra,"J73G+PW4, Misrapara Rd",Howrah,711403,West Bengal,IN,https://www.google.com/maps/place/%E0%A6%AC%E0%A6%BE%E0%A6%81%E0%A6%95%E0%A7%9C%E0%A6%BE+%E0%A6%AE%E0%A6%BF%E0%A6%A8%E0%A6%BE+%E0%A6%AE%E0%A6%B8%E0%A6%9C%E0%A6%BF%E0%A6%A6/data=!4m7!3m6!1s0x3a0278848466bf87:0x790e35fecd42cf47!8m2!3d22.6042651!4d88.2773137!16s%2Fg%2F11c2md9j5x!19sChIJh79mhIR4AjoRR89Czf41Dnk?authuser=0&hl=en&rclk=1,"22.6042651,88.2773137"
Chakku Masjid msjd,Mosque,"Chakku Masjid msjd, 3, Bhot Bagan Ln, Belur, Ghusuri, Howrah, West Bengal 711107","Belur, Ghusuri","3, Bhot Bagan Ln",Howrah,711107,West Bengal,IN,https://www.google.com/maps/place/Chakku+Masjid+%D9%85%D8%B3%D8%AC%D8%AF%E2%80%AD/data=!4m7!3m6!1s0x39f89d7c38c2701d:0x54356575e99a98ed!8m2!3d22.6155054!4d88.3568181!16s%2Fg%2F11btstw31m!19sChIJHXDCOHyd-DkR7Zia6XVlNVQ?authuser=0&hl=en&rclk=1,"22.6155054,88.3568181"
Molla Para Masjid,Mosque,"Molla Para Masjid, 32, Molla Para Ln, Naora, Shibpur, Howrah, West Bengal 711102","Naora, Shibpur","32, Molla Para Ln",Howrah,711102,West Bengal,IN,https://www.google.com/maps/place/Molla+Para+Masjid/data=!4m7!3m6!1s0x3a02782ca1bb4679:0x18ee70983607e8be!8m2!3d22.5649899!4d88.3189996!16s%2Fg%2F11ddzpljfp!19sChIJeUa7oSx4AjoRvugHNphw7hg?authuser=0&hl=en&rclk=1,"22.5649899,88.3189996"
Haji Para Jinnati Masjid haajiipaadd'aa msjid,Mosque,"26, Haji Para Jinnati Masjid haajiipaadd'aa msjid, 9, Sealdah Rd, Raja Bazar, Kolkata, West Bengal 700009",Raja Bazar,"26, 9, Sealdah Rd",Kolkata,700009,West Bengal,IN,https://www.google.com/maps/place/Haji+Para+Jinnati+Masjid+%E0%A6%B9%E0%A6%BE%E0%A6%9C%E0%A7%80%E0%A6%AA%E0%A6%BE%E0%A6%A1%E0%A6%BC%E0%A6%BE+%E0%A6%AE%E0%A6%B8%E0%A6%9C%E0%A6%BF%E0%A6%A6/data=!4m7!3m6!1s0x3a02765bb8a9db57:0x2a418c2b0263ddc0!8m2!3d22.57145!4d88.3757725!16s%2Fg%2F11b8_ptvzb!19sChIJV9upuFt2AjoRwN1jAiuMQSo?authuser=0&hl=en&rclk=1,"22.57145,88.3757725"
Ankurhati Boro Masjid,Mosque,"J66W+69V Ankurhati Boro Masjid, Ankurhati, Howrah, West Bengal 711409",Ankurhati,J66W+69V,Howrah,711409,West Bengal,IN,https://www.google.com/maps/place/Ankurhati+Boro+Masjid/data=!4m7!3m6!1s0x39f881fffedd5317:0xd36eca5c6ccb9274!8m2!3d22.6106218!4d88.2459213!16s%2Fg%2F11cr_gdk2p!19sChIJF1Pd_v-B-DkRdJLLbFzKbtM?authuser=0&hl=en&rclk=1,"22.6106218,88.24592129999999"
Balitikuri Jumma Masjid,Mosque,"J74R+5H5 Balitikuri Jumma Masjid, Balitikuri, Howrah, West Bengal 711113",Balitikuri,J74R+5H5,Howrah,711113,West Bengal,IN,https://www.google.com/maps/place/Balitikuri+Jumma+Masjid/data=!4m7!3m6!1s0x3a027879643176fd:0xe762e0d2aed10848!8m2!3d22.6053951!4d88.2914728!16s%2Fg%2F11dxd1knt8!19sChIJ_XYxZHl4AjoRSAjRrtLgYuc?authuser=0&hl=en&rclk=1,"22.6053951,88.2914728"
Noori Masjid Shahar Bangla Muslim Burail Ground,Mosque,"Noori Masjid Shahar Bangla Muslim Burail Ground, 1/5, Khagendra Chatterjee Rd, Chiriamore, Sawdagarh Pally, Cossipore, Kolkata, West Bengal 700002","Chiriamore, Sawdagarh Pally, Cossipore","1/5, Khagendra Chatterjee Rd",Kolkata,700002,West Bengal,IN,https://www.google.com/maps/place/Noori+Masjid+Shahar+Bangla+Muslim+Burail+Ground/data=!4m7!3m6!1s0x39f89d8eb3e1a6e7:0xda2b86b40a417e30!8m2!3d22.6182518!4d88.3761911!16s%2Fg%2F1q5bmw_hf!19sChIJ56bhs46d-DkRMH5BCrSGK9o?authuser=0&hl=en&rclk=1,"22.6182518,88.3761911"
Masjid E Salam msjid i saalaam,Mosque,"Masjid E Salam msjid i saalaam, Bankra, Howrah, West Bengal 711403",Bankra,,Howrah,711403,West Bengal,IN,https://www.google.com/maps/place/Masjid+E+Salam+%E0%A6%AE%E0%A6%B8%E0%A6%9C%E0%A6%BF%E0%A6%A6+%E0%A6%87+%E0%A6%B8%E0%A6%BE%E0%A6%B2%E0%A6%BE%E0%A6%AE/data=!4m7!3m6!1s0x3a02788444ac318d:0x26c9bdb6d12c430f!8m2!3d22.6028364!4d88.2782646!16s%2Fg%2F11gfdfl3w3!19sChIJjTGsRIR4AjoRD0Ms0ba9ySY?authuser=0&hl=en&rclk=1,"22.602836399999997,88.2782646"
Panch Para Ahle Hadees Masjid,Mosque,"Panch Para Ahle Hadees Masjid, Duillya, Howrah, West Bengal 711109",Duillya,,Howrah,711109,West Bengal,IN,https://www.google.com/maps/place/Panch+Para+Ahle+Hadees+Masjid/data=!4m7!3m6!1s0x3a0278df933395a5:0x1d344f3e9c4f89df!8m2!3d22.5638766!4d88.2643657!16s%2Fg%2F11cltjpn8j!19sChIJpZUzk994AjoR34lPnD5PNB0?authuser=0&hl=en&rclk=1,"22.5638766,88.2643657"
Mirza Bagan Mosque,Mosque,"Mirza Bagan Mosque, 3/2B, Jiban Krishna Ghosh Rd, Belgachia, Kolkata, West Bengal 700037",Belgachia,"3/2B, Jiban Krishna Ghosh Rd",Kolkata,700037,West Bengal,IN,https://www.google.com/maps/place/Mirza+Bagan+Mosque/data=!4m7!3m6!1s0x3a02761a72070eb5:0x1c0e23243b289e9e!8m2!3d22.600641!4d88.38854!16s%2Fg%2F11clw07wp5!19sChIJtQ4Hchp2AjoRnp4oOyQjDhw?authuser=0&hl=en&rclk=1,"22.600641,88.38853999999999"
Danspara Jumma Masjid,Mosque,"J7H7+FHM Danspara Jumma Masjid, Danspara, West Bengal 711409",,J7H7+FHM,Danspara,711409,West Bengal,IN,https://www.google.com/maps/place/Danspara+Jumma+Masjid/data=!4m7!3m6!1s0x39f882149c648d01:0xad5f79e192f60510!8m2!3d22.6287162!4d88.2639352!16s%2Fg%2F11fyxfrq9w!19sChIJAY1knBSC-DkREAX2kuF5X60?authuser=0&hl=en&rclk=1,"22.6287162,88.26393519999999"
Panchpara Jame Masjid,Mosque,"H784+QVJ Panchpara Jame Masjid, Duillya, Howrah, West Bengal 711317",Duillya,H784+QVJ,Howrah,711317,West Bengal,IN,https://www.google.com/maps/place/Panchpara+Jame+Masjid/data=!4m7!3m6!1s0x3a0278d9bf4421c7:0x2c0ee834ad93f0bd!8m2!3d22.5669625!4d88.2571406!16s%2Fg%2F11bztgxfwr!19sChIJxyFEv9l4AjoRvfCTrTToDiw?authuser=0&hl=en&rclk=1,"22.5669625,88.2571406"
Masjid wa Madarsah Muhammadia,Mosque,"Masjid wa Madarsah Muhammadia, 90, Mackenzie Rd, Toot Bagan, Rojan Bagan, Kamarhati, Ariadaha, Kolkata, West Bengal 700058","Toot Bagan, Rojan Bagan, Kamarhati, Ariadaha","90, Mackenzie Rd",Kolkata,700058,West Bengal,IN,https://www.google.com/maps/place/Masjid+wa+Madarsah+Muhammadia/data=!4m7!3m6!1s0x39f89c5be003eaf5:0x11b267b679af7636!8m2!3d22.6758673!4d88.3676492!16s%2Fg%2F11c7157jq8!19sChIJ9eoD4Fuc-DkRNnavebZnshE?authuser=0&hl=en&rclk=1,"22.6758673,88.3676492"
Cheena Masjid,Mosque,"Cheena Masjid, 50/c, Kankurgachi Rd, Phool Bagan, Kankurgachi, Kolkata, West Bengal 700054","Phool Bagan, Kankurgachi","50/c, Kankurgachi Rd",Kolkata,700054,West Bengal,IN,https://www.google.com/maps/place/Cheena+Masjid/data=!4m7!3m6!1s0x3a027740bb39c701:0x148ac4eaf798433a!8m2!3d22.5781876!4d88.3867625!16s%2Fg%2F11gkxcdqwn!19sChIJAcc5u0B3AjoROkOY9-rEihQ?authuser=0&hl=en&rclk=1,"22.5781876,88.38676249999999"
Ghausia Masjid Nayi Basti Kabar para Bankra,Mosque,"J76C+GMJ Ghausia Masjid Nayi Basti Kabar para Bankra, Bankra, Howrah, West Bengal 711403",Bankra,J76C+GMJ,Howrah,711403,West Bengal,IN,https://www.google.com/maps/place/Ghausia+Masjid+Nayi+Basti+Kabar+para+Bankra/data=!4m7!3m6!1s0x39f883759ee8af57:0x94a4736b11da578a!8m2!3d22.6113442!4d88.2716472!16s%2Fg%2F11f775bk_l!19sChIJV6_onnWD-DkRilfaEWtzpJQ?authuser=0&hl=en&rclk=1,"22.611344199999998,88.27164719999999"
bstipaadd'aa msjid,Mosque,"bstipaadd'aa msjid, 347, Belilious Rd, Kadam Tala, Howrah, West Bengal 711101",Kadam Tala,"347, Belilious Rd",Howrah,711101,West Bengal,IN,https://www.google.com/maps/place/%E0%A6%AC%E0%A6%B8%E0%A7%8D%E0%A6%A4%E0%A6%BF%E0%A6%AA%E0%A6%BE%E0%A6%A1%E0%A6%BC%E0%A6%BE+%E0%A6%AE%E0%A6%B8%E0%A6%9C%E0%A6%BF%E0%A6%A6/data=!4m7!3m6!1s0x3a0277ed54435759:0xed63b230da206f6e!8m2!3d22.5876688!4d88.3338574!16s%2Fg%2F1q67gth1m!19sChIJWVdDVO13AjoRbm8g2jCyY-0?authuser=0&hl=en&rclk=1,"22.5876688,88.3338574"
Jagadishpur Old Jumma Masjid,Mosque,"M74M+877 Jagadishpur Old Jumma Masjid, Jagadishpur, Howrah, West Bengal 711115",Jagadishpur,M74M+877,Howrah,711115,West Bengal,IN,https://www.google.com/maps/place/Jagadishpur+Old+Jumma+Masjid/data=!4m7!3m6!1s0x39f8825506433f91:0xc5272d1209a046f6!8m2!3d22.6557787!4d88.2831757!16s%2Fg%2F11dxl3mfmy!19sChIJkT9DBlWC-DkR9kagCRItJ8U?authuser=0&hl=en&rclk=1,"22.6557787,88.2831757"
Jame Masjid,Mosque,"J9RP+F8F Jame Masjid, Forward Colony, Palpara, Baranagar, West Bengal 700090","Forward Colony, Palpara, Baranagar",J9RP+F8F,Baranagar,700090,West Bengal,IN,https://www.google.com/maps/place/Jame+Masjid/data=!4m7!3m6!1s0x39f89dd6aad3deb1:0xa17abdf8658b58e0!8m2!3d22.6411968!4d88.3858021!16s%2Fg%2F11pdw9b9dp!19sChIJsd7Tqtad-DkR4FiLZfi9eqE?authuser=0&hl=en&rclk=1,"22.6411968,88.38580209999999"
Saudagar Patti Jama Masjid,Mosque,"J97G+XH9 Saudagar Patti Jama Masjid, East Kolkata Township, Sawdagarh Pally, Cossipore, Kolkata, West Bengal 700002","East Kolkata Township, Sawdagarh Pally, Cossipore",J97G+XH9,Kolkata,700002,West Bengal,IN,https://www.google.com/maps/place/Saudagar+Patti+Jama+Masjid/data=!4m7!3m6!1s0x39f89d48ff7014e1:0x150551c9d290f22a!8m2!3d22.6149188!4d88.3764805!16s%2Fg%2F11h6t8szxb!19sChIJ4RRw_0id-DkRKvKQ0slRBRU?authuser=0&hl=en&rclk=1,"22.614918799999998,88.3764805"
Goaberia Masjid,Mosque,"H75G+HJG Goaberia Masjid, Podara, Mourigram, Howrah, West Bengal 711109","Podara, Mourigram",H75G+HJG,Howrah,711109,West Bengal,IN,https://www.google.com/maps/place/Goaberia+Masjid/data=!4m7!3m6!1s0x3a027903160eb2d7:0xd42ea38f3a23225e!8m2!3d22.5589286!4d88.2765845!16s%2Fg%2F11d_w53cyw!19sChIJ17IOFgN5AjoRXiIjOo-jLtQ?authuser=0&hl=en&rclk=1,"22.558928599999998,88.2765845"
Sahebzada Masjid,Mosque,"106, Sahebzada Masjid, 2, Mahatma Gandhi Rd, Calcutta University, College Square, Kolkata, West Bengal 700073","Calcutta University, College Square","106, 2, Mahatma Gandhi Rd",Kolkata,700073,West Bengal,IN,https://www.google.com/maps/place/Sahebzada+Masjid/data=!4m7!3m6!1s0x3a02770fb9f9832f:0x6226760f2c8c7171!8m2!3d22.5781184!4d88.3626332!16s%2Fg%2F11p67dgxjq!19sChIJL4P5uQ93AjoRcXGMLA92JmI?authuser=0&hl=en&rclk=1,"22.578118399999997,88.36263319999999"
Hazrat Bilal Masjid,Mosque,"M9F8+3PH Hazrat Bilal Masjid, Kamarhati, Kolkata, West Bengal 700057",Kamarhati,M9F8+3PH,Kolkata,,West Bengal,IN,https://www.google.com/maps/place/Hazrat+Bilal+Masjid/data=!4m7!3m6!1s0x39f89d45de2110e5:0x4c53063d035909a6!8m2!3d22.6726916!4d88.3668676!16s%2Fg%2F11gq_sxyqj!19sChIJ5RAh3kWd-DkRpglZAz0GU0w?authuser=0&hl=en&rclk=1,"22.6726916,88.36686759999999"
Muhammadi Masjid mHmdy msjd,Mosque,"J73P+QF9 Muhammadi Masjid mHmdy msjd, Bankra, Howrah, West Bengal 711113",Bankra,J73P+QF9,Howrah,,West Bengal,IN,https://www.google.com/maps/place/Muhammadi+Masjid+%D9%85%D8%AD%D9%85%D8%AF%DB%8C+%D9%85%D8%B3%D8%AC%D8%AF%E2%80%AD/data=!4m7!3m6!1s0x3a02787de75048fd:0x864d82dc704bd9a4!8m2!3d22.6044009!4d88.286226!16s%2Fg%2F11g8vmt3d9!19sChIJ_UhQ5314AjoRpNlLcNyCTYY?authuser=0&hl=en&rclk=1,"22.604400899999998,88.286226"
Madrasha Para Jame Masjid,Mosque,"H78C+287 Madrasha Para Jame Masjid, Panchpara, Mourigram, Howrah, West Bengal 711109","Panchpara, Mourigram",H78C+287,Howrah,711109,West Bengal,IN,https://www.google.com/maps/place/Madrasha+Para+Jame+Masjid/data=!4m7!3m6!1s0x3a0279a3db6e1a43:0x21c517f7ea217a2a!8m2!3d22.5650404!4d88.2708035!16s%2Fg%2F11gj3qrgdk!19sChIJQxpu26N5AjoRKnoh6vcXxSE?authuser=0&hl=en&rclk=1,"22.565040399999997,88.2708035"
Jumaa Masjid,Mosque,"M8H2+QH7 Jumaa Masjid, SH 2, Housing Estate Colony, Dankuni, West Bengal 712311",Housing Estate Colony,"M8H2+QH7, SH 2",Dankuni,712311,West Bengal,IN,https://www.google.com/maps/place/Jumaa+Masjid/data=!4m7!3m6!1s0x39f883532758c525:0x86ef8c0d01d44077!8m2!3d22.6794177!4d88.3014295!16s%2Fg%2F11gy3hxr_s!19sChIJJcVYJ1OD-DkRd0DUAQ2M74Y?authuser=0&hl=en&rclk=1,"22.6794177,88.3014295"
Jama Masjid salapukura gajipara,Mosque,"C927+6G9 Jama Masjid salapukura gajipara, Nepalgunge Hat, Nepalgange, Harir Chak, Salpukuria, West Bengal 743503",,"C927+6G9, Nepalgunge Hat, Nepalgange, Harir Chak",Salpukuria,743503,West Bengal,IN,https://www.google.com/maps/place/Jama+Masjid+salapukura+gajipara/data=!4m7!3m6!1s0x3a026e34dde153a9:0x5394bcbfb26f2d7f!8m2!3d22.400547!4d88.3638536!16s%2Fg%2F11cs12rch8!19sChIJqVPh3TRuAjoRfy1vsr-8lFM?authuser=0&hl=en&rclk=1,"22.400547,88.3638536"
Cholia Maadihur Rasool Mosque,Mosque,"Cholia Maadihur Rasool Mosque, 60, Madan Mohan Burman St, College Street Market, College Street, Kolkata, West Bengal 700007","College Street Market, College Street","60, Madan Mohan Burman St",Kolkata,700007,West Bengal,IN,https://www.google.com/maps/place/Cholia+Maadihur+Rasool+Mosque/data=!4m7!3m6!1s0x3a0277f14adbc9b9:0x1cb90d990eeffd4a!8m2!3d22.5796795!4d88.3619802!16s%2Fg%2F11ghpsr2ky!19sChIJucnbSvF3AjoRSv3vDpkNuRw?authuser=0&hl=en&rclk=1,"22.579679499999997,88.36198019999999"
Muraripukur HAQQANI ANJUMAN WAKF ESTATE Masjid,Mosque,"Muraripukur HAQQANI ANJUMAN WAKF ESTATE Masjid, 43, Biplabi Barin Ghosh Sarani, Murari Pukur Rd, Bagmari, Kolkata, West Bengal 700067",Bagmari,"43, Biplabi Barin Ghosh Sarani, Murari Pukur Rd",Kolkata,700067,West Bengal,IN,https://www.google.com/maps/place/Muraripukur+HAQQANI+ANJUMAN+WAKF+ESTATE+Masjid/data=!4m7!3m6!1s0x3a02766ab6be01d7:0x1e1885eb48097267!8m2!3d22.5875363!4d88.3832606!16s%2Fg%2F11d_d4b9pm!19sChIJ1wG-tmp2AjoRZ3IJSOuFGB4?authuser=0&hl=en&rclk=1,"22.5875363,88.3832606"
Parbatipur Notun Masjid,Mosque,"M66C+F2F Parbatipur Notun Masjid, Parbatipur, jamader para, Mollar Chak, West Bengal","Krishnanagar, jamader para","M66C+F2F, Parbatipur",Mollar Chak,,West Bengal,IN,https://www.google.com/maps/place/Parbatipur+Notun+Masjid/data=!4m7!3m6!1s0x39f881090f122919:0xd838d20784972fcf!8m2!3d22.6611887!4d88.2200412!16s%2Fg%2F11gfp2_yj7!19sChIJGSkSDwmB-DkRzy-XhAfSONg?authuser=0&hl=en&rclk=1,"22.6611887,88.2200412"
Malibagan Masjid,Mosque,"Malibagan Masjid, 27, Ghulam Hussain Sardar Ln, Naora, Shibpur, Howrah, West Bengal 711102","Naora, Shibpur","27, Ghulam Hussain Sardar Ln",Howrah,711102,West Bengal,IN,https://www.google.com/maps/place/Malibagan+Masjid/data=!4m7!3m6!1s0x3a02793549d67a4f:0x883060aab218e3b3!8m2!3d22.5658202!4d88.3200925!16s%2Fg%2F11hzwf_52w!19sChIJT3rWSTV5AjoRs-MYsqpgMIg?authuser=0&hl=en&rclk=1,"22.565820199999997,88.3200925"
Bankra Paschim Para puraton Masjid,Mosque,"Bankra Paschim Para puraton Masjid, 206, Moihari Rd, Bankra, Howrah, West Bengal 711403",Bankra,"206, Moihari Rd",Howrah,711403,West Bengal,IN,https://www.google.com/maps/place/Bankra+Paschim+Para+puraton+Masjid/data=!4m7!3m6!1s0x3a02795f4ca557ab:0xc742f0b9cc69e435!8m2!3d22.6071729!4d88.2709753!16s%2Fg%2F11h760ds2h!19sChIJq1elTF95AjoRNeRpzLnwQsc?authuser=0&hl=en&rclk=1,"22.6071729,88.27097529999999"
Tele Para Masjid,Mosque,"H9HF+QWM Tele Para Masjid, Federation St, Garpar, Machuabazar, Kolkata, West Bengal 700009","Garpar, Machuabazar","H9HF+QWM, Federation St",Kolkata,700009,West Bengal,IN,https://www.google.com/maps/place/Tele+Para+Masjid/data=!4m7!3m6!1s0x3a027645ad1b7219:0x70122429f33c588b!8m2!3d22.5794625!4d88.3748066!16s%2Fg%2F1q66zx31r!19sChIJGXIbrUV2AjoRi1g88ykkEnA?authuser=0&hl=en&rclk=1,"22.579462499999998,88.3748066"
NIBRA PURATON MASJID,Mosque,"NIBRA PURATON MASJID, Nibra, masjid para, Howrah, West Bengal 711409","Kamrangu, masjid para",Nibra,"Howrah, Nibra",711409,West Bengal,IN,https://www.google.com/maps/place/NIBRA+PURATON+MASJID/data=!4m7!3m6!1s0x3a0278a5f3c9de65:0x3dc3d0a3b30ba4e0!8m2!3d22.6032725!4d88.2563406!16s%2Fg%2F11g9jmn_lq!19sChIJZd7J86V4AjoR4KQLs6PQwz0?authuser=0&hl=en&rclk=1,"22.6032725,88.2563406"
Haqqani Masjid,Mosque,"H9MM+FJC Haqqani Masjid, Unnamed Road, Bagmari, Kolkata, West Bengal 700054",Bagmari,"H9MM+FJC, Unnamed Road",Kolkata,700054,West Bengal,IN,https://www.google.com/maps/place/Haqqani+Masjid/data=!4m7!3m6!1s0x3a027741b7860059:0x6ca2128ea93fbe31!8m2!3d22.5836906!4d88.3840279!16s%2Fg%2F11f66ggd8p!19sChIJWQCGt0F3AjoRMb4_qY4Somw?authuser=0&hl=en&rclk=1,"22.5836906,88.38402789999999"
Abdul Karim Masjid,Mosque,"H9H8+7WP Abdul Karim Masjid, Keshab Chandra Sen St, City College, College Row, College Street, Kolkata, West Bengal 700007","City College, College Row, College Street","H9H8+7WP, Keshab Chandra Sen St",Kolkata,700007,West Bengal,IN,https://www.google.com/maps/place/Abdul+Karim+Masjid/data=!4m7!3m6!1s0x3a02764dd0cc71b1:0x1e5cf80f29c24788!8m2!3d22.5782121!4d88.3673233!16s%2Fg%2F1q665rghq!19sChIJsXHM0E12AjoRiEfCKQ_4XB4?authuser=0&hl=en&rclk=1,"22.5782121,88.3673233"
Churipara Jama Masjid,Mosque,"Churipara Jama Masjid, Kripanath,kaashii naath dttaa maarg, 7, Krishna Lal Das Rd, Cossipore, Kolkata, West Bengal 700002","Ghosh Bagan, Cossipore","Kripanath,kaashii naath dttaa maarg, 7, Krishna Lal Das Rd",Kolkata,700002,West Bengal,IN,https://www.google.com/maps/place/Churipara+Jama+Masjid/data=!4m7!3m6!1s0x39f89dc102cf491b:0x9cfc14051c73a544!8m2!3d22.6113175!4d88.3746694!16s%2Fg%2F11hf35zs_3!19sChIJG0nPAsGd-DkRRKVzHAUU_Jw?authuser=0&hl=en&rclk=1,"22.6113175,88.3746694"
JAMA MASJID TP,Mosque,"JAMA MASJID TP, 256, Belilious Rd, Kadam Tala, Howrah, West Bengal 711101",Kadam Tala,"256, Belilious Rd",Howrah,711101,West Bengal,IN,https://www.google.com/maps/place/JAMA+MASJID+TP/data=!4m7!3m6!1s0x3a027741ea77421f:0xc8954421ae12cce1!8m2!3d22.5913268!4d88.3307527!16s%2Fg%2F11t40blrkp!19sChIJH0J36kF3AjoR4cwSriFElcg?authuser=0&hl=en&rclk=1,"22.591326799999997,88.33075269999999"
Podrah Chunavati Boro Masjid,Mosque,"Podrah Chunavati Boro Masjid, Mullick Para Ln, Chunavati, Panchpara, Duillya, Howrah, West Bengal 711109","Chunavati, Panchpara, Duillya",Mullick Para Ln,Howrah,711109,West Bengal,IN,https://www.google.com/maps/place/Podrah+Chunavati+Boro+Masjid/data=!4m7!3m6!1s0x3a027976661b476d:0x8e83eb757e377d0f!8m2!3d22.5655933!4d88.2669413!16s%2Fg%2F11hhfc1fjz!19sChIJbUcbZnZ5AjoRD303fnXrg44?authuser=0&hl=en&rclk=1,"22.5655933,88.2669413"
Bagbazar Jame Masjid,Mosque,"J939+P48 Bagbazar Jame Masjid, Kshirode Vidyavinode Ave, Bag Bazar Colony, Baghbazar, Kolkata, West Bengal 700003","Bag Bazar Colony, Baghbazar","J939+P48, Kshirode Vidyavinode Ave",Kolkata,700003,West Bengal,IN,https://www.google.com/maps/place/Bagbazar+Jame+Masjid/data=!4m7!3m6!1s0x3a0277ff26bd5ad7:0x13c949ecb2be4b82!8m2!3d22.6042848!4d88.3678279!16s%2Fg%2F11gy1ym960!19sChIJ11q9Jv93AjoRgku-suxJyRM?authuser=0&hl=en&rclk=1,"22.6042848,88.3678279"
baaNkdd'aa caapaatlaa jaame msjid,Mosque,"J76H+C76 baaNkdd'aa caapaatlaa jaame msjid, Kona, Howrah, West Bengal 711403",Kona,J76H+C76,Howrah,711403,West Bengal,IN,https://www.google.com/maps/place/%E0%A6%AC%E0%A6%BE%E0%A6%81%E0%A6%95%E0%A6%A1%E0%A6%BC%E0%A6%BE+%E0%A6%9A%E0%A6%BE%E0%A6%AA%E0%A6%BE%E0%A6%A4%E0%A6%B2%E0%A6%BE+%E0%A6%9C%E0%A6%BE%E0%A6%AE%E0%A7%87+%E0%A6%AE%E0%A6%B8%E0%A6%9C%E0%A6%BF%E0%A6%A6/data=!4m7!3m6!1s0x39f882788389ebd3:0x85d8723d2823acd8!8m2!3d22.6110474!4d88.2781496!16s%2Fg%2F11fxb7skwm!19sChIJ0-uJg3iC-DkR2KwjKD1y2IU?authuser=0&hl=en&rclk=1,"22.6110474,88.27814959999999"
1 No Moukhali Railway Masjid,Mosque,"H7MG+J2W 1 No Moukhali Railway Masjid, Santragachi, Howrah, West Bengal 711109",Santragachi,H7MG+J2W,Howrah,711109,West Bengal,IN,https://www.google.com/maps/place/1+No+Moukhali+Railway+Masjid/data=!4m7!3m6!1s0x3a0278ed7eea98dd:0xd3f3d0a2ef8b327e!8m2!3d22.5841103!4d88.2750878!16s%2Fg%2F11hd1mhc08!19sChIJ3Zjqfu14AjoRfjKL76LQ89M?authuser=0&hl=en&rclk=1,"22.5841103,88.2750878"
Ankurhati Gazi Para Jama Masjid,Mosque,"Ankurhati Gazi Para Jama Masjid, Ankurhati, Howrah, West Bengal 711302",Ankurhati,,Howrah,711302,West Bengal,IN,https://www.google.com/maps/place/Ankurhati+Gazi+Para+Jama+Masjid/data=!4m7!3m6!1s0x3a027f8cc2d1f821:0x2e5cfe5e90941eb1!8m2!3d22.6085745!4d88.2459392!16s%2Fg%2F11fqd7dfd4!19sChIJIfjRwox_AjoRsR6UkF7-XC4?authuser=0&hl=en&rclk=1,"22.6085745,88.2459392"
Bankra kabar para jame masjid,Mosque,"J75F+XVM Bankra kabar para jame masjid, Kabar, Swami Vivekananda Rd, Bankra, Howrah, West Bengal 711403",Bankra,"J75F+XVM, Kabar, Swami Vivekananda Rd",Howrah,711403,West Bengal,IN,https://www.google.com/maps/place/Bankra+kabar+para+jame+masjid/data=!4m7!3m6!1s0x3a0279a7a2aea16d:0xdc2f618d8e4bcaa0!8m2!3d22.609953!4d88.2746687!16s%2Fg%2F11h2qm4gbz!19sChIJbaGuoqd5AjoRoMpLjo1hL9w?authuser=0&hl=en&rclk=1,"22.609952999999997,88.27466869999999"
Chawk Jiara Masjid,Mosque,"P5HF+65H Chawk Jiara Masjid, Jiara, West Bengal 712701",,P5HF+65H,Jiara,712701,West Bengal,IN,https://www.google.com/maps/place/Chawk+Jiara+Masjid/data=!4m7!3m6!1s0x39f887368b81ae8b:0xa434e1372c6d0c60!8m2!3d22.7280547!4d88.1729929!16s%2Fg%2F11mvsg2mfx!19sChIJi66BizaH-DkRYAxtLDfhNKQ?authuser=0&hl=en&rclk=1,"22.728054699999998,88.1729929"
Madina Masjid (Maal Para),Mosque,"Madina Masjid (Maal Para), Maal para, 28, B, Maharani Swarnamoyee Rd, Raja Bazar, Kolkata, West Bengal 700009",Raja Bazar,"Maal para, 28, B, Maharani Swarnamoyee Rd",Kolkata,700009,West Bengal,IN,https://www.google.com/maps/place/Madina+Masjid+%28Maal+Para%29/data=!4m7!3m6!1s0x3a02770dbaf2fd95:0x21060e8cea3a8228!8m2!3d22.5728841!4d88.373114!16s%2Fg%2F11px3ktn13!19sChIJlf3yug13AjoRKII66owOBiE?authuser=0&hl=en&rclk=1,"22.5728841,88.373114"
1 no moukhali GARIB NAWAZ MASJID,Mosque,"H7PG+266 1 no moukhali GARIB NAWAZ MASJID, Santragachi, Howrah, West Bengal 711109",Santragachi,H7PG+266,Howrah,711109,West Bengal,IN,https://www.google.com/maps/place/1+no+moukhali+GARIB+NAWAZ+MASJID/data=!4m7!3m6!1s0x3a02799a3b1cdf19:0x5c63f69ed192f440!8m2!3d22.5850276!4d88.2755172!16s%2Fg%2F11g0hkshx1!19sChIJGd8cO5p5AjoRQPSS0Z72Y1w?authuser=0&hl=en&rclk=1,"22.5850276,88.2755172"
Bankra PaschimPara Qaderia Masjid,Mosque,"J75F+C57 Bankra PaschimPara Qaderia Masjid, Bankra, Howrah, West Bengal 711403",Bankra,J75F+C57,Howrah,711403,West Bengal,IN,https://www.google.com/maps/place/Bankra+PaschimPara+Qaderia+Masjid/data=!4m7!3m6!1s0x3a0279f215edb911:0xd9df0acf59a5848f!8m2!3d22.6085416!4d88.2729276!16s%2Fg%2F11gjwvlgtd!19sChIJEbntFfJ5AjoRj4SlWc8K39k?authuser=0&hl=en&rclk=1,"22.6085416,88.2729276"
Millatnagar Masjid,Mosque,"Millatnagar Masjid, C/194, Chunavati, Mallickpara, Panchpara, Duillya, Howrah, West Bengal 711109","Chunavati, Mallickpara, Panchpara, Duillya",C/194,Howrah,711109,West Bengal,IN,https://www.google.com/maps/place/Millatnagar+Masjid/data=!4m7!3m6!1s0x3a027975607e4cab:0x5d4973b69cab2109!8m2!3d22.565964!4d88.26524!16s%2Fg%2F11jr5qljkb!19sChIJq0x-YHV5AjoRCSGrnLZzSV0?authuser=0&hl=en&rclk=1,"22.565963999999997,88.26523999999999"
LAL MASJID,Mosque,"LAL MASJID, Panch para mollapara lalmasjid sankril, Howrah, West Bengal 711317",Duillya,Panch para mollapara lalmasjid sankril,Howrah,711317,West Bengal,IN,https://www.google.com/maps/place/LAL+MASJID/data=!4m7!3m6!1s0x3a02794f22fb4fd5:0x5b372a680167a6d5!8m2!3d22.5665571!4d88.2545957!16s%2Fg%2F11j_swg_4y!19sChIJ1U_7Ik95AjoR1aZnAWgqN1s?authuser=0&hl=en&rclk=1,"22.5665571,88.2545957"
Darul Ehsan islamin masjid,Mosque,"Darul Ehsan islamin masjid, 1A, Sovabazar St, Sovabazar, Shobhabazar, Kolkata, West Bengal 700005","Sovabazar, Shobhabazar","1A, Sovabazar St",Kolkata,700005,West Bengal,IN,https://www.google.com/maps/place/Darul+Ehsan+islamin+masjid/data=!4m7!3m6!1s0x3a0277aeaecac679:0x3179bedcd2fe1dfb!8m2!3d22.5972205!4d88.3644466!16s%2Fg%2F11ppmbjvqm!19sChIJecbKrq53AjoR-x3-0ty-eTE?authuser=0&hl=en&rclk=1,"22.5972205,88.3644466"
Kankrapara Oajed Ali Masjid,Mosque,"Kankrapara Oajed Ali Masjid, 23, Kankara Para Ln, Chatterjihat, Shibpur, Howrah, West Bengal 711104","Chatterjihat, Shibpur","23, Kankara Para Ln",Howrah,711104,West Bengal,IN,https://www.google.com/maps/place/Kankrapara+Oajed+Ali+Masjid/data=!4m7!3m6!1s0x3a02792c9da0d5bd:0x47ead1bc95277e1d!8m2!3d22.5738618!4d88.3024527!16s%2Fg%2F11ptsd_twd!19sChIJvdWgnSx5AjoRHX4nlbzR6kc?authuser=0&hl=en&rclk=1,"22.5738618,88.30245269999999"
Bankra Kadamtala Masjid baaNkdd'aa kdmtlaa msjid,Mosque,"Bankra Kadamtala Masjid baaNkdd'aa kdmtlaa msjid, Bankra, Kabarpara, Howrah, West Bengal 711403",Bankra,,"Kabarpara, Howrah",711403,West Bengal,IN,https://www.google.com/maps/place/Bankra+Kadamtala+Masjid+%E0%A6%AC%E0%A6%BE%E0%A6%81%E0%A6%95%E0%A6%A1%E0%A6%BC%E0%A6%BE+%E0%A6%95%E0%A6%A6%E0%A6%AE%E0%A6%A4%E0%A6%B2%E0%A6%BE+%E0%A6%AE%E0%A6%B8%E0%A6%9C%E0%A6%BF%E0%A6%A6/data=!4m7!3m6!1s0x3a0279254499dda5:0xbbf12b7f5a47da39!8m2!3d22.6096806!4d88.2761825!16s%2Fg%2F11h6ptgzxc!19sChIJpd2ZRCV5AjoROdpHWn8r8bs?authuser=0&hl=en&rclk=1,"22.609680599999997,88.27618249999999"
Talpukur old masjid,Mosque,"J6M6+J9R Talpukur old masjid, Hajrapara, Domjur, Jhapardah, Howrah, West Bengal 711405","Hajrapara, Domjur",J6M6+J9R,"Jhapardah, Howrah",711405,West Bengal,IN,https://www.google.com/maps/place/Talpukur+old+masjid/data=!4m7!3m6!1s0x39f881c8ae32849b:0x9e518939f4d8983f!8m2!3d22.6341049!4d88.2109049!16s%2Fg%2F11n0yc4qyh!19sChIJm4QyrsiB-DkRP5jY9DmJUZ4?authuser=0&hl=en&rclk=1,"22.6341049,88.2109049"
Gausiya Masjid,Mosque,"Gausiya Masjid, 46/1, Ashutosh Bose Ln, Naora, Ramkrishnapur, Howrah, West Bengal 711102","Naora, Ramkrishnapur","46/1, Ashutosh Bose Ln",Howrah,711102,West Bengal,IN,https://www.google.com/maps/place/Gausiya+Masjid/data=!4m7!3m6!1s0x3a0277495b1fafe5:0xe4cdb0894272f5ae!8m2!3d22.5761068!4d88.3254841!16s%2Fg%2F11f635_fc3!19sChIJ5a8fW0l3AjoRrvVyQomwzeQ?authuser=0&hl=en&rclk=1,"22.576106799999998,88.3254841"
Karim Para Masjid,Mosque,"Karim Para Masjid, 45, BK Paul Temple Rd, Vivekananda Colony, Howrah, West Bengal 711202",Vivekananda Colony,"45, BK Paul Temple Rd",Howrah,711202,West Bengal,IN,https://www.google.com/maps/place/Karim+Para+Masjid/data=!4m7!3m6!1s0x39f89d1d98654d07:0x2cbe65f989ea7042!8m2!3d22.619412!4d88.355941!16s%2Fg%2F11h_dk37ck!19sChIJB01lmB2d-DkRQnDqifllviw?authuser=0&hl=en&rclk=1,"22.619412,88.355941"
Shakherbazar Mosque,Mosque,"M9F2+2FC Shakherbazar Mosque, Bhadrakali, Uttarpara, West Bengal 712232",Bhadrakali,M9F2+2FC,Uttarpara,,West Bengal,IN,https://www.google.com/maps/place/Shakherbazar+Mosque/data=!4m7!3m6!1s0x39f89df5788d52dd:0xf48716e84bb6b956!8m2!3d22.6725736!4d88.3511413!16s%2Fg%2F11fmc25lgr!19sChIJ3VKNePWd-DkRVrm2S-gWh_Q?authuser=0&hl=en&rclk=1,"22.6725736,88.3511413"
Bantra Chhoti Masjid Mosque,Mosque,"Bantra Chhoti Masjid Mosque, 23, Musalman Para Ln, Tikiapara, Howrah, West Bengal 711101",Tikiapara,"23, Musalman Para Ln",Howrah,711101,West Bengal,IN,https://www.google.com/maps/place/Bantra+Chhoti+Masjid+Mosque/data=!4m7!3m6!1s0x3a0277b8a9d7047f:0x4cc907f48cfc229a!8m2!3d22.5955112!4d88.3266888!16s%2Fg%2F11rcmslxy8!19sChIJfwTXqbh3AjoRmiL8jPQHyUw?authuser=0&hl=en&rclk=1,"22.5955112,88.3266888"
Sk Para old Masjid,Mosque,"M66C+XGP Sk Para old Masjid, SK para , Parbatipur, Domjur, Howrah, 711405",Domjur,"M66C+XGP, SK para , Parbatipur","Howrah, Mollar Chak",711405,West Bengal,IN,https://www.google.com/maps/place/Sk+Para+old+Masjid/data=!4m7!3m6!1s0x39f88139cbaef28b:0x1d0f2ceddfbf2f83!8m2!3d22.662454!4d88.221321!16s%2Fg%2F11t2fxy220!19sChIJi_KuyzmB-DkRgy-_3-0sDx0?authuser=0&hl=en&rclk=1,"22.662454,88.22132099999999"
Kona Masjid,Mosque,"J8C3+X64 Kona Masjid, Unnamed Road, Bhatta Nagar, Kona, Howrah, West Bengal 711114","Bhatta Nagar, Kona","J8C3+X64, Unnamed Road",Howrah,711114,West Bengal,IN,https://www.google.com/maps/place/Kona+Masjid/data=!4m7!3m6!1s0x39f883b20634b029:0x663f10e62b629bf7!8m2!3d22.6223785!4d88.3030898!16s%2Fg%2F11nyvb6c9l!19sChIJKbA0BrKD-DkR95tiK-YQP2Y?authuser=0&hl=en&rclk=1,"22.6223785,88.3030898"
Allah Ka Ghar Masjid,Mosque,"Allah Ka Ghar Masjid, 78, Bidhan Sarani Rd, Manicktala, Goa Bagan, Kolkata, West Bengal 700006","Manicktala, Goa Bagan","78, Bidhan Sarani Rd",Kolkata,700006,West Bengal,IN,https://www.google.com/maps/place/Allah+Ka+Ghar+Masjid/data=!4m7!3m6!1s0x3a027749a693e40b:0xcf1860b62b06bcf7!8m2!3d22.5935274!4d88.37061!16s%2Fg%2F11l8r4tw5l!19sChIJC-STpkl3AjoR97wGK7ZgGM8?authuser=0&hl=en&rclk=1,"22.5935274,88.37061"
Bhaskur Jumma Masjid,Mosque,"M726+VH6 Bhaskur Jumma Masjid, Baluhati Village, Baluhati, West Bengal 711405",Baluhati Village,M726+VH6,Baluhati,711405,West Bengal,IN,https://www.google.com/maps/place/Bhaskur+Jumma+Masjid/data=!4m7!3m6!1s0x39f88236a7f4a4cb:0x22f1e4eb7dfff1da!8m2!3d22.6521542!4d88.2613996!16s%2Fg%2F11g8bfzb1t!19sChIJy6T0pzaC-DkR2vH_fevk8SI?authuser=0&hl=en&rclk=1,"22.6521542,88.26139959999999"
msjid e kubaa MASJID-A-KUBA,Mosque,"J738+J9Q msjid e kubaa MASJID-A-KUBA, Unnamed Road, Bankra, Howrah, Nibra, West Bengal 711409",Bankra,"J738+J9Q, Unnamed Road","Howrah, Nibra",711409,West Bengal,IN,https://www.google.com/maps/place/%E0%A6%AE%E0%A6%B8%E0%A6%9C%E0%A6%BF%E0%A6%A6+%E0%A6%8F+%E0%A6%95%E0%A7%81%E0%A6%AC%E0%A6%BE+MASJID-A-KUBA/data=!4m7!3m6!1s0x3a02792a7c0722f1:0xf1ac9dc10c370332!8m2!3d22.604098!4d88.265994!16s%2Fg%2F11h4f0kj8m!19sChIJ8SIHfCp5AjoRMgM3DMGdrPE?authuser=0&hl=en&rclk=1,"22.604098,88.26599399999999"
TALA TANK MASJID,Mosque,"TALA TANK MASJID, Paki para,tala tank, 71, Barrackpore Trunk Rd, Cossipore, West Bengal 700002","Tala, Cossipore","Paki para,tala tank, 71, Barrackpore Trunk Rd",Kolkata,700002,West Bengal,IN,https://www.google.com/maps/place/TALA+TANK+MASJID/data=!4m7!3m6!1s0x3a0277dd0b74c111:0x22474d4982533985!8m2!3d22.6094657!4d88.3792876!16s%2Fg%2F11t2rmxwm5!19sChIJEcF0C913AjoRhTlTgklNRyI?authuser=0&hl=en&rclk=1,"22.609465699999998,88.3792876"
Bali Badamtala jame masjid baali baadaamtlaa jaame msjid,Mosque,"Bali Badamtala jame masjid baali baadaamtlaa jaame msjid, 349, Grand Trunk Rd, Barendrapara, Belur, Bally, Howrah, West Bengal 711201","Barendrapara, Belur, Bally","349, Grand Trunk Rd",Howrah,711201,West Bengal,IN,https://www.google.com/maps/place/Bali+Badamtala+jame+masjid+%E0%A6%AC%E0%A6%BE%E0%A6%B2%E0%A6%BF+%E0%A6%AC%E0%A6%BE%E0%A6%A6%E0%A6%BE%E0%A6%AE%E0%A6%A4%E0%A6%B2%E0%A6%BE+%E0%A6%9C%E0%A6%BE%E0%A6%AE%E0%A7%87+%E0%A6%AE%E0%A6%B8%E0%A6%9C%E0%A6%BF%E0%A6%A6/data=!4m7!3m6!1s0x39f89dfe4934699b:0x2e1e90b11d5a14cf!8m2!3d22.6399034!4d88.3510211!16s%2Fg%2F11mb0j_5z6!19sChIJm2k0Sf6d-DkRzxRaHbGQHi4?authuser=0&hl=en&rclk=1,"22.639903399999998,88.3510211"
Pathorghata Jumma Masjid,Mosque,"H6CG+WWF Pathorghata Jumma Masjid, Ramchandrapur, Sankrail, Masila, West Bengal 711302","Ramchandrapur, Sankrail",H6CG+WWF,Masila,,West Bengal,IN,https://www.google.com/maps/place/Pathorghata+Jumma+Masjid/data=!4m7!3m6!1s0x3a027f250312c78d:0xa34076da9f773c27!8m2!3d22.5723055!4d88.2272974!16s%2Fg%2F11j48jqpq9!19sChIJjccSAyV_AjoRJzx3n9p2QKM?authuser=0&hl=en&rclk=1,"22.5723055,88.2272974"
Barkati masjid,Mosque,"5, Barkati masjid, North, Sealdah Rd, Sealdah, Baithakkhana, Kolkata, West Bengal 700009","Sealdah, Baithakkhana","5, North, Sealdah Rd",Kolkata,700009,West Bengal,IN,https://www.google.com/maps/place/Barkati+masjid/data=!4m7!3m6!1s0x3a0277f8bb66331f:0x8d1eb7ad78e326da!8m2!3d22.5709941!4d88.3708698!16s%2Fg%2F11mvwq_k_c!19sChIJHzNmu_h3AjoR2ibjeK23Ho0?authuser=0&hl=en&rclk=1,"22.5709941,88.3708698"
Domjur Zamadarpara Jame Masjid,Mosque,"J6JC+RXR Domjur Zamadarpara Jame Masjid, Domjur Jumma Masjid, Baruipara, Domjur, Howrah, West Bengal 711405","Baruipara, Domjur",J6JC+RXR Domjur Jumma Masjid,Howrah,711405,West Bengal,IN,https://www.google.com/maps/place/Domjur+Zamadarpara+Jame+Masjid/data=!4m7!3m6!1s0x39f881933d025f99:0xdb5f147eeca4ac63!8m2!3d22.6320466!4d88.2225153!16s%2Fg%2F11s9lkxfqq!19sChIJmV8CPZOB-DkRY6yk7H4UX9s?authuser=0&hl=en&rclk=1,"22.6320466,88.2225153"
Biprannapara Jama Masjid,Mosque,"J6C9+522 Biprannapara Jama Masjid, Begri, Domjur, Howrah, West Bengal 711411","Begri, Domjur",J6C9+522,Howrah,711411,West Bengal,IN,https://www.google.com/maps/place/Biprannapara+Jama+Masjid/data=!4m7!3m6!1s0x39f8818064680cf1:0xa314cc0d9be7a9ab!8m2!3d22.6210357!4d88.2177603!16s%2Fg%2F11sq_9_8_j!19sChIJ8QxoZICB-DkRq6nnmw3MFKM?authuser=0&hl=en&rclk=1,"22.6210357,88.2177603"
Bankra Natun Para Ahelihadis jame masjid,Mosque,"J73C+QW7 Bankra Natun Para Ahelihadis jame masjid, Bankra, Howrah, West Bengal 711403",Bankra,J73C+QW7,Howrah,711403,West Bengal,IN,https://www.google.com/maps/place/Bankra+Natun+Para+Ahelihadis+jame+masjid/data=!4m7!3m6!1s0x3a0279cbd81317db:0xa97e642786708500!8m2!3d22.6044375!4d88.2723006!16s%2Fg%2F11vdh2vrkk!19sChIJ2xcT2Mt5AjoRAIVwhidkfqk?authuser=0&hl=en&rclk=1,"22.6044375,88.2723006"
Khaldhari Para Jama Masjid,Mosque,"H875+2V5 Khaldhari Para Jama Masjid, Andul Rd, Shibpur, Howrah, West Bengal 711103",Shibpur,"H875+2V5, Andul Rd",Howrah,711103,West Bengal,IN,https://www.google.com/maps/place/Khaldhari+Para+Jama+Masjid/data=!4m7!3m6!1s0x3a02796ea721963d:0x71d83163de9cf81e!8m2!3d22.5624738!4d88.3097672!16s%2Fg%2F11t_ql9b7y!19sChIJPZYhp255AjoRHvic3mMx2HE?authuser=0&hl=en&rclk=1,"22.5624738,88.3097672"
KethoPole Jame Masjid,Mosque,"KethoPole Jame Masjid, 1, Andul Rd, Bakultala, Shalimar, Howrah, West Bengal 711109","Bakultala, Shalimar","1, Andul Rd",Howrah,711109,West Bengal,IN,https://www.google.com/maps/place/KethoPole+Jame+Masjid/data=!4m7!3m6!1s0x3a02799e859e4719:0xf502271790112699!8m2!3d22.5677378!4d88.2852051!16s%2Fg%2F11s52wt599!19sChIJGUeehZ55AjoRmSYRkBcnAvU?authuser=0&hl=en&rclk=1,"22.5677378,88.2852051"
Padmapukur Soloana Masjid,Mosque,"Padmapukur Soloana Masjid, Railway Station, Padmapukur, Kona Expy, Naora, Shibpur, Howrah, West Bengal 711103","Naora, Shibpur","Railway Station, Padmapukur, Kona Expy",Howrah,711103,West Bengal,IN,https://www.google.com/maps/place/Padmapukur+Soloana+Masjid/data=!4m7!3m6!1s0x3a0279dfd97b0f17:0x9c9f543fe5e12306!8m2!3d22.5684117!4d88.306247!16s%2Fg%2F11rj_nkwcc!19sChIJFw972d95AjoRBiPh5T9Un5w?authuser=0&hl=en&rclk=1,"22.5684117,88.306247"
Domjur Molla Para Masjid,Mosque,"J6HF+X56 Domjur Molla Para Masjid, Fokor Dokan, Baruipara, Domjur, Howrah, West Bengal 711405","Fokor Dokan, Baruipara, Domjur",J6HF+X56,Howrah,711405,West Bengal,IN,https://www.google.com/maps/place/Domjur+Molla+Para+Masjid/data=!4m7!3m6!1s0x39f8819801d4f63f:0x29a27fa6e6bb9950!8m2!3d22.629902!4d88.222896!16s%2Fg%2F11n987rcb_!19sChIJP_bUAZiB-DkRUJm75qZ_oik?authuser=0&hl=en&rclk=1,"22.629901999999998,88.22289599999999"
Masjid,Mosque,"H9H5+MR4 Masjid, Kashinath Mullick Ln, Block C, Jorasanko, Kolkata, West Bengal 700007","Block C, Jorasanko","H9H5+MR4, Kashinath Mullick Ln",Kolkata,700007,West Bengal,IN,https://www.google.com/maps/place/Masjid/data=!4m7!3m6!1s0x3a0277020105a269:0xd0daf1fb85dab9d6!8m2!3d22.5791399!4d88.3595935!16s%2Fg%2F11q49fbmxc!19sChIJaaIFAQJ3AjoR1rnahfvx2tA?authuser=0&hl=en&rclk=1,"22.579139899999998,88.3595935"
Craig street masjid,Mosque,"M9H9+MFG Craig street masjid, Craig St, Kamarhati, Agarpara, Panihati, West Bengal 700109","Kamarhati, Agarpara","M9H9+MFG, Craig St",Panihati,700109,West Bengal,IN,https://www.google.com/maps/place/Craig+street+masjid/data=!4m7!3m6!1s0x39f89d7670873147:0x4792a90911a22cd7!8m2!3d22.6791774!4d88.3686903!16s%2Fg%2F11mxzcqt43!19sChIJRzGHcHad-DkR1yyiEQmpkkc?authuser=0&hl=en&rclk=1,"22.6791774,88.3686903"
Dakshin Bankra Taltala Mucca Masjid,Mosque,"H7P8+V25 Dakshin Bankra Taltala Mucca Masjid, Kamrangu, Andul, Howrah, West Bengal 711302","Kamrangu, Andul",H7P8+V25,Howrah,711302,West Bengal,IN,https://www.google.com/maps/place/Dakshin+Bankra+Taltala+Mucca+Masjid/data=!4m7!3m6!1s0x3a02799b8505b835:0x65faecd4438a17c3!8m2!3d22.5871462!4d88.265113!16s%2Fg%2F11pkc8tjd2!19sChIJNbgFhZt5AjoRwxeKQ9Ts-mU?authuser=0&hl=en&rclk=1,"22.5871462,88.265113"
Hakkani Anjuman Wakf Masjid,Mosque,"Hakkani Anjuman Wakf Masjid, 36, Murari Pukur Rd, Ultadanga, Kolkata, West Bengal 700067",Ultadanga,"36, Murari Pukur Rd",Kolkata,700067,West Bengal,IN,https://www.google.com/maps/place/Hakkani+Anjuman+Wakf+Masjid/data=!4m7!3m6!1s0x3a02779fb0dfd781:0xdc62e203c1a61149!8m2!3d22.5875971!4d88.3834908!16s%2Fg%2F11lglk6kss!19sChIJgdffsJ93AjoRSRGmwQPiYtw?authuser=0&hl=en&rclk=1,"22.5875971,88.38349079999999"
Belur coolie line Jama Masjid,Mosque,"Belur coolie line Jama Masjid, 6, Belur Math, Howrah, West Bengal 711202",Belur Math,6,Howrah,711202,West Bengal,IN,https://www.google.com/maps/place/Belur+coolie+line+Jama+Masjid/data=!4m7!3m6!1s0x39f89dc807836195:0x175c05c3a9a0969e!8m2!3d22.6261876!4d88.3525842!16s%2Fg%2F11j7y_081v!19sChIJlWGDB8id-DkRnpagqcMFXBc?authuser=0&hl=en&rclk=1,"22.626187599999998,88.3525842"
Kajipara Masjid,Mosque,"Kajipara Masjid, P_121/1, Benaras Rd, Belgachia, Liluah, Howrah, West Bengal 711108","Belgachia, Liluah","P_121/1, Benaras Rd",Howrah,711108,West Bengal,IN,https://www.google.com/maps/place/Kajipara+Masjid/data=!4m7!3m6!1s0x3a027990e9b080ab:0xc8c61056e4cb1e31!8m2!3d22.6079168!4d88.3156599!16s%2Fg%2F11s31fl1wb!19sChIJq4Cw6ZB5AjoRMR7L5FYQxsg?authuser=0&hl=en&rclk=1,"22.607916799999998,88.3156599"
Baitun Noor Masjid,Mosque,"J8G8+9JX Baitun Noor Masjid, Chakpara, Tarabaria, Char Tarapur, Bangladesh, Howrah","Bhatta Nagar, Liluah","J8G8+9JX, Chakpara, Tarabaria, Char Tarapur, Bangladesh","Howrah, Chakpara",,West Bengal,IN,https://www.google.com/maps/place/Baitun+Noor+Masjid/data=!4m7!3m6!1s0x39f8830f48aefb4b:0x18783a3448fbd466!8m2!3d22.6259783!4d88.316625!16s%2Fg%2F11l5wkwkhp!19sChIJS_uuSA-D-DkRZtT7SDQ6eBg?authuser=0&hl=en&rclk=1,"22.6259783,88.316625"
Masjid ul Bab AL Anbar,Mosque,"J8G8+9MR Masjid ul Bab AL Anbar, West, Bhatta Nagar, Liluah, Chakpara, West Bengal 711203","Bhatta Nagar, Liluah","J8G8+9MR, West",Chakpara,,West Bengal,IN,https://www.google.com/maps/place/Masjid+ul+Bab+AL+Anbar/data=!4m7!3m6!1s0x39f883f7ae051c45:0xf544124b55d9800c!8m2!3d22.6259797!4d88.3166419!16s%2Fg%2F11rvlzvd35!19sChIJRRwFrveD-DkRDIDZVUsSRPU?authuser=0&hl=en&rclk=1,"22.6259797,88.3166419"
Jamia Masjid Chakla Maath,Mosque,"H9RC+JJ3 Jamia Masjid Chakla Maath, Chakla Maath, Sovabazar, Goa Bagan, Ward Number 16, Rampurhat, Kolkata, West Bengal 700006","Sovabazar, Goa Bagan, Ward Number 16","H9RC+JJ3, Chakla Maath","Rampurhat, Kolkata",700006,West Bengal,IN,https://www.google.com/maps/place/Jamia+Masjid+Chakla+Maath/data=!4m7!3m6!1s0x3a02772115b4b509:0x530743aac743f8b6!8m2!3d22.591505!4d88.3715488!16s%2Fg%2F11hm7hmq8n!19sChIJCbW0FSF3AjoRtvhDx6pDB1M?authuser=0&hl=en&rclk=1,"22.591504999999998,88.3715488"
Nalapara Waktiya Mosque,Mosque,"M79J+W5V Nalapara Waktiya Mosque, Mathurdangi Village, Kutubpur, Manber, West Bengal 731221",Mathurdangi Village,M79J+W5V,"Kutubpur, Manber",731221,West Bengal,IN,https://www.google.com/maps/place/Nalapara+Waktiya+Mosque/data=!4m7!3m6!1s0x39f883151d18e3b5:0x481ea945e489aa6d!8m2!3d22.6698737!4d88.280411!16s%2Fg%2F11p02rkxfp!19sChIJteMYHRWD-DkRbaqJ5EWpHkg?authuser=0&hl=en&rclk=1,"22.6698737,88.280411"
Big Masjid,Mosque,"Big Masjid, 24/6, Musalman Para Ln, Tikiapara, Howrah, West Bengal 711108",Tikiapara,"24/6, Musalman Para Ln",Howrah,711108,West Bengal,IN,https://www.google.com/maps/place/Big+Masjid/data=!4m7!3m6!1s0x3a0277dc5b7d453f:0x5d791a8387ed6343!8m2!3d22.5956177!4d88.3263629!16s%2Fg%2F11tctvzr74!19sChIJP0V9W9x3AjoRQ2Pth4MaeV0?authuser=0&hl=en&rclk=1,"22.5956177,88.32636289999999"
Zumma Masjid jummaa msjid kaattliy'aa ntun paadd'aa,Mosque,"J67V+VW Zumma Masjid jummaa msjid kaattliy'aa ntun paadd'aa, Ankurhati, Howrah, West Bengal 711409",Ankurhati,J67V+VW,Howrah,711409,West Bengal,IN,https://www.google.com/maps/place/Zumma+Masjid+%E0%A6%9C%E0%A7%81%E0%A6%AE%E0%A7%8D%E0%A6%AE%E0%A6%BE+%E0%A6%AE%E0%A6%B8%E0%A6%9C%E0%A6%BF%E0%A6%A6+%E0%A6%95%E0%A6%BE%E0%A6%9F%E0%A6%B2%E0%A6%BF%E0%A6%AF%E0%A6%BC%E0%A6%BE+%E0%A6%A8%E0%A6%A4%E0%A7%81%E0%A6%A8+%E0%A6%AA%E0%A6%BE%E0%A6%A1%E0%A6%BC%E0%A6%BE/data=!4m7!3m6!1s0x39f8815d20884f23:0xe41a8eb34ee4fd6c!8m2!3d22.6146609!4d88.2448202!16s%2Fg%2F11s2q0mms9!19sChIJI0-IIF2B-DkRbP3kTrOOGuQ?authuser=0&hl=en&rclk=1,"22.6146609,88.24482019999999"
Madina Jame Masjid,Mosque,"J999+2C7 Madina Jame Masjid, Kolkata, West Bengal 700002",,J999+2C7,Kolkata,700002,West Bengal,IN,https://www.google.com/maps/place/Madina+Jame+Masjid/data=!4m7!3m6!1s0x39f89d487bfe1641:0xab3e402a67c96ee9!8m2!3d22.6175329!4d88.3685456!16s%2Fg%2F11szb8ykg1!19sChIJQRb-e0id-DkR6W7JZypAPqs?authuser=0&hl=en&rclk=1,"22.6175329,88.36854559999999"
ALAM MISTRY LANE MASJID,Mosque,"H8VR+C2H ALAM MISTRY LANE MASJID, Alam Mistry Ln, Babudanga, Pilkhana, Howrah, West Bengal 711101","Babudanga, Pilkhana","H8VR+C2H, Alam Mistry Ln",Howrah,711101,West Bengal,IN,https://www.google.com/maps/place/ALAM+MISTRY+LANE+MASJID/data=!4m7!3m6!1s0x3a0277d9133c54c9:0xa5484c7fb7db18d4!8m2!3d22.5935677!4d88.340111!16s%2Fg%2F11pzx7917v!19sChIJyVQ8E9l3AjoR1Bjbt39MSKU?authuser=0&hl=en&rclk=1,"22.593567699999998,88.340111"
Guri para Masjid,Mosque,"H97G+8FP Guri para Masjid, Beleghata Main Rd, Seal Lane, Tangra, Kolkata, West Bengal 700015","Seal Lane, Tangra","H97G+8FP, Beleghata Main Rd",Kolkata,700015,West Bengal,IN,https://www.google.com/maps/place/Guri+para+Masjid/data=!4m7!3m6!1s0x3a02777848447af7:0xd9c11727e97544e3!8m2!3d22.5633499!4d88.3762064!16s%2Fg%2F11s4b1m_lr!19sChIJ93pESHh3AjoR40R16ScXwdk?authuser=0&hl=en&rclk=1,"22.5633499,88.3762064"
